ZipCode,county,state,Youth,Pediatric,Adult,Retirement,Geriatric
35007,Shelby County,AL,46.57534246575342,NA,NA,NA,NA
35023,Jefferson County,AL,NA,NA,NA,21.666666666666668,NA
35049,Blount County,AL,NA,98.12332439678283,NA,NA,NA
35215,Jefferson County,AL,NA,NA,NA,NA,52.57142857142857
35216,Jefferson County,AL,NA,NA,57.721139430284865,NA,NA
35223,Jefferson County,AL,NA,NA,NA,82.14285714285714,NA
35226,Jefferson County,AL,NA,NA,NA,30.714285714285715,NA
35611,Limestone County,AL,NA,35.656836461126005,NA,NA,NA
35630,Lauderdale County,AL,NA,NA,33.733133433283356,NA,NA
35650,Lawrence County,AL,NA,63.27077747989276,NA,NA,NA
35758,Madison County,AL,NA,NA,41.07946026986507,NA,NA
35952,Etowah County,AL,NA,NA,NA,NA,88.57142857142857
35976,Marshall County,AL,NA,NA,49.47526236881559,NA,NA
35986,DeKalb County,AL,NA,NA,NA,83.0952380952381,NA
36310,Henry County,AL,93.4931506849315,NA,NA,NA,NA
36560,Mobile County,AL,NA,80.9651474530831,NA,NA,NA
36832,Lee County,AL,NA,NA,77.36131934032984,NA,NA
99502,Anchorage Municipality,AK,NA,NA,94.75262368815592,NA,NA
99504,Anchorage Municipality,AK,NA,NA,23.388305847076463,NA,NA
99507,Anchorage Municipality,AK,22.26027397260274,NA,NA,NA,NA
99518,Anchorage Municipality,AK,NA,97.58713136729223,NA,NA,NA
99835,Sitka City and Borough,AK,NA,NA,62.968515742128936,NA,NA
85006,Maricopa County,AZ,NA,95.44235924932975,NA,NA,NA
85009,Maricopa County,AZ,NA,NA,NA,NA,72
85016,Maricopa County,AZ,NA,43.43163538873995,NA,NA,NA
85023,Maricopa County,AZ,NA,91.15281501340483,NA,NA,NA
85029,Maricopa County,AZ,NA,25.46916890080429,NA,NA,NA
85031,Maricopa County,AZ,NA,21.983914209115284,NA,NA,NA
85040,Maricopa County,AZ,NA,12.064343163538874,NA,NA,NA
85122,Pinal County,AZ,NA,NA,9.745127436281859,18.571428571428573,NA
85138,Pinal County,AZ,NA,NA,41.82908545727136,NA,NA
85209,Maricopa County,AZ,NA,NA,65.36731634182908,NA,NA
85226,Maricopa County,AZ,NA,NA,57.87106446776612,NA,NA
85323,Maricopa County,AZ,NA,58.17694369973191,NA,NA,NA
85344,La Paz County,AZ,NA,85.52278820375335,NA,NA,NA
85350,Yuma County,AZ,NA,69.97319034852548,NA,NA,NA
85364,Yuma County,AZ,NA,NA,5.097451274362818,NA,NA
85388,Maricopa County,AZ,NA,NA,69.11544227886057,NA,NA
85614,Pima County,AZ,NA,NA,NA,80.47619047619048,NA
85705,Pima County,AZ,NA,24.932975871313673,NA,NA,NA
85706,Pima County,AZ,NA,4.289544235924933,NA,NA,NA
85710,Pima County,AZ,NA,28.150134048257375,37.181409295352324,NA,NA
85716,Pima County,AZ,NA,NA,78.11094452773614,NA,NA
85718,Pima County,AZ,NA,NA,NA,28.333333333333332,NA
85719,Pima County,AZ,NA,NA,36.8815592203898,NA,NA
85901,Navajo County,AZ,NA,91.68900804289544,NA,NA,NA
85941,Apache County,AZ,NA,NA,NA,84.76190476190476,NA
86004,Coconino County,AZ,NA,NA,29.535232383808097,NA,NA
86034,Navajo County,AZ,NA,76.67560321715817,NA,NA,NA
86047,Navajo County,AZ,NA,NA,94.60269865067467,NA,NA
86324,Yavapai County,AZ,NA,NA,91.45427286356822,NA,NA
86406,Mohave County,AZ,NA,NA,NA,34.76190476190476,NA
86503,Apache County,AZ,25.684931506849317,NA,NA,NA,NA
71665,Cleveland County,AR,85.27397260273972,NA,NA,NA,NA
72058,Faulkner County,AR,79.7945205479452,NA,NA,NA,NA
72116,Pulaski County,AR,NA,NA,72.56371814092954,NA,NA
72120,Pulaski County,AR,NA,NA,45.42728635682159,NA,NA
72131,Cleburne County,AR,NA,NA,NA,NA,98.28571428571429
72143,White County,AR,NA,NA,NA,15.476190476190476,NA
72150,Grant County,AR,NA,NA,NA,NA,99.42857142857143
90011,Los Angeles County,CA,NA,8.04289544235925,NA,NA,NA
90027,Los Angeles County,CA,NA,NA,62.21889055472264,NA,NA
90045,Los Angeles County,CA,NA,NA,86.3568215892054,NA,NA
90210,Los Angeles County,CA,NA,NA,97.90104947526237,NA,NA
90221,Los Angeles County,CA,61.3013698630137,NA,NA,NA,NA
90247,Los Angeles County,CA,NA,NA,54.72263868065967,NA,NA
90250,Los Angeles County,CA,NA,NA,NA,34.523809523809526,NA
90255,Los Angeles County,CA,NA,NA,NA,68.57142857142857,NA
90262,Los Angeles County,CA,NA,63.00268096514745,NA,NA,NA
90272,Los Angeles County,CA,NA,NA,NA,NA,45.14285714285714
90291,Los Angeles County,CA,NA,NA,88.45577211394303,NA,NA
90404,Los Angeles County,CA,NA,NA,38.08095952023988,NA,NA
90638,Los Angeles County,CA,NA,NA,58.620689655172406,NA,NA
90660,Los Angeles County,CA,NA,NA,30.73463268365817,44.285714285714285,NA
90808,Los Angeles County,CA,NA,NA,NA,50,NA
91030,Los Angeles County,CA,NA,NA,87.85607196401799,NA,NA
91105,Los Angeles County,CA,NA,NA,NA,70.47619047619048,NA
91202,Los Angeles County,CA,NA,NA,96.25187406296851,NA,NA
91207,Los Angeles County,CA,NA,NA,NA,87.14285714285714,NA
91331,Los Angeles County,CA,32.534246575342465,NA,NA,NA,NA
91335,Los Angeles County,CA,NA,NA,NA,NA,25.142857142857146
91505,Los Angeles County,CA,78.76712328767124,NA,NA,NA,NA
91601,Los Angeles County,CA,NA,NA,68.81559220389805,NA,NA
91605,Los Angeles County,CA,NA,76.40750670241286,NA,NA,NA
91701,San Bernardino County,CA,NA,NA,26.536731634182907,NA,NA
91711,Los Angeles County,CA,NA,NA,93.55322338830585,NA,NA
91739,San Bernardino County,CA,NA,NA,92.20389805097452,NA,NA
91745,Los Angeles County,CA,NA,NA,88.30584707646177,NA,NA
91748,Los Angeles County,CA,NA,NA,70.01499250374813,NA,NA
91766,Los Angeles County,CA,63.35616438356164,NA,NA,NA,NA
91911,San Diego County,CA,NA,35.924932975871315,NA,NA,NA
91913,San Diego County,CA,NA,76.67560321715817,NA,NA,NA
91950,San Diego County,CA,NA,27.07774798927614,NA,NA,NA
92020,San Diego County,CA,NA,28.9544235924933,NA,NA,NA
92021,San Diego County,CA,NA,36.193029490616624,NA,NA,NA
92054,San Diego County,CA,NA,NA,44.827586206896555,NA,NA
92064,San Diego County,CA,NA,NA,NA,45.714285714285715,NA
92071,San Diego County,CA,NA,71.0455764075067,NA,NA,NA
92084,San Diego County,CA,NA,40.21447721179624,NA,NA,NA
92103,San Diego County,CA,NA,NA,87.25637181409296,NA,NA
92104,San Diego County,CA,53.082191780821915,NA,NA,NA,NA
92105,San Diego County,CA,NA,NA,68.66566716641678,NA,NA
92110,San Diego County,CA,NA,NA,60.569715142428784,NA,NA
92116,San Diego County,CA,NA,NA,76.46176911544228,NA,NA
92122,San Diego County,CA,NA,NA,NA,91.42857142857143,NA
92126,San Diego County,CA,NA,NA,47.07646176911544,NA,NA
92127,San Diego County,CA,NA,NA,68.96551724137932,NA,NA
92210,Riverside County,CA,NA,NA,NA,84.04761904761905,NA
92211,Riverside County,CA,NA,NA,NA,NA,0
92225,Riverside County,CA,95.54794520547945,NA,NA,NA,NA
92234,Riverside County,CA,NA,NA,16.79160419790105,NA,NA
92301,San Bernardino County,CA,NA,39.946380697050934,NA,NA,NA
92324,San Bernardino County,CA,NA,39.41018766756032,NA,NA,NA
92337,San Bernardino County,CA,NA,NA,62.368815592203894,NA,NA
92376,San Bernardino County,CA,NA,NA,10.494752623688155,NA,NA
92394,San Bernardino County,CA,NA,NA,52.92353823088456,NA,NA
92404,San Bernardino County,CA,NA,NA,18.74062968515742,NA,NA
92411,San Bernardino County,CA,NA,NA,NA,49.28571428571429,NA
92501,Riverside County,CA,NA,NA,78.86056971514243,NA,NA
92570,Riverside County,CA,48.97260273972603,NA,NA,NA,NA
92591,Riverside County,CA,NA,NA,51.874062968515744,NA,NA
92592,Riverside County,CA,NA,NA,30.434782608695656,NA,NA
92595,Riverside County,CA,NA,NA,NA,68.33333333333333,NA
92648,Orange County,CA,NA,NA,30.284857571214392,NA,NA
92653,Orange County,CA,NA,NA,75.86206896551724,NA,NA
92805,Orange County,CA,21.575342465753426,NA,NA,NA,NA
92821,Orange County,CA,NA,NA,65.36731634182908,NA,NA
92835,Orange County,CA,NA,NA,80.50974512743629,NA,NA
93001,Ventura County,CA,NA,62.466487935656836,NA,NA,NA
93003,Ventura County,CA,NA,NA,67.31634182908546,60,NA
93013,Santa Barbara County,CA,NA,90.88471849865952,NA,NA,NA
93023,Ventura County,CA,NA,NA,71.06446776611695,NA,NA
93033,Ventura County,CA,NA,NA,14.09295352323838,NA,NA
93036,Ventura County,CA,NA,23.324396782841823,NA,NA,NA
93060,Ventura County,CA,60.95890410958904,NA,NA,NA,NA
93230,Kings County,CA,NA,NA,19.04047976011994,NA,NA
93240,Kern County,CA,NA,NA,91.1544227886057,NA,NA
93292,Tulare County,CA,70.54794520547945,NA,NA,NA,NA
93304,Kern County,CA,NA,NA,25.487256371814095,NA,NA
93306,Kern County,CA,NA,NA,21.88905547226387,NA,NA
93309,Kern County,CA,NA,NA,34.18290854572714,NA,NA
93405,San Luis Obispo County,CA,NA,NA,NA,90.95238095238095,NA
93420,San Luis Obispo County,CA,NA,NA,NA,53.80952380952381,NA
93433,San Luis Obispo County,CA,NA,NA,77.66116941529235,NA,NA
93436,Santa Barbara County,CA,NA,11.528150134048257,NA,NA,NA
93458,Santa Barbara County,CA,NA,39.67828418230563,NA,NA,NA
93612,Fresno County,CA,86.3013698630137,NA,NA,NA,NA
93703,Fresno County,CA,30.47945205479452,NA,NA,NA,NA
93705,Fresno County,CA,NA,NA,36.43178410794602,NA,NA
93726,Fresno County,CA,NA,23.59249329758713,NA,NA,NA
94002,San Mateo County,CA,NA,NA,59.220389805097454,NA,NA
94015,San Mateo County,CA,NA,NA,75.11244377811094,15.714285714285714,NA
94044,San Mateo County,CA,68.15068493150685,NA,NA,NA,NA
94080,San Mateo County,CA,NA,NA,35.68215892053973,NA,NA
94086,Santa Clara County,CA,NA,NA,63.718140929535224,NA,NA
94102,San Francisco County,CA,NA,89.27613941018767,NA,12.380952380952381,NA
94103,San Francisco County,CA,NA,NA,63.8680659670165,NA,NA
94107,San Francisco County,CA,NA,NA,90.55472263868066,NA,NA
94112,San Francisco County,CA,NA,NA,NA,10.952380952380953,NA
94115,San Francisco County,CA,NA,NA,52.32383808095952,45,NA
94132,San Francisco County,CA,NA,NA,NA,70,NA
94134,San Francisco County,CA,NA,NA,NA,36.666666666666664,NA
94303,San Mateo County,CA,NA,NA,NA,84.28571428571429,87.42857142857143
94526,Contra Costa County,CA,NA,NA,68.36581709145428,NA,NA
94541,Alameda County,CA,39.726027397260275,NA,NA,NA,NA
94544,Alameda County,CA,NA,19.034852546916888,NA,NA,NA
94549,Contra Costa County,CA,NA,NA,82.00899550224887,NA,NA
94553,Contra Costa County,CA,NA,NA,NA,37.857142857142854,NA
94566,Alameda County,CA,61.64383561643836,NA,65.21739130434783,NA,NA
94578,Alameda County,CA,NA,NA,NA,58.80952380952381,NA
94587,Alameda County,CA,NA,NA,NA,NA,28.000000000000004
94595,Contra Costa County,CA,NA,NA,NA,NA,20
94607,Alameda County,CA,NA,36.46112600536193,NA,NA,NA
94708,Alameda County,CA,NA,NA,NA,NA,84
94801,Contra Costa County,CA,NA,69.43699731903486,NA,NA,NA
94901,Marin County,CA,57.534246575342465,NA,NA,NA,NA
94941,Marin County,CA,23.28767123287671,NA,NA,NA,NA
94952,Sonoma County,CA,NA,89.27613941018767,NA,NA,NA
95014,Santa Clara County,CA,NA,NA,92.95352323838081,NA,NA
95023,San Benito County,CA,NA,NA,29.235382308845576,NA,NA
95030,Santa Clara County,CA,NA,NA,NA,95.47619047619048,NA
95112,Santa Clara County,CA,NA,NA,NA,NA,68
95121,Santa Clara County,CA,NA,NA,90.10494752623688,NA,NA
95126,Santa Clara County,CA,NA,NA,67.46626686656671,NA,NA
95128,Santa Clara County,CA,93.15068493150685,NA,NA,NA,NA
95130,Santa Clara County,CA,NA,NA,NA,NA,94.85714285714286
95202,San Joaquin County,CA,NA,NA,31.784107946026985,NA,NA
95206,San Joaquin County,CA,NA,NA,NA,NA,65.71428571428571
95209,San Joaquin County,CA,NA,NA,NA,NA,74.85714285714286
95324,Merced County,CA,NA,NA,95.35232383808095,NA,NA
95351,Stanislaus County,CA,NA,37.26541554959786,NA,NA,NA
95437,Mendocino County,CA,NA,NA,NA,NA,47.42857142857143
95453,Lake County,CA,NA,87.66756032171583,NA,NA,NA
95482,Mendocino County,CA,NA,56.56836461126006,NA,NA,NA
95603,Placer County,CA,NA,NA,NA,82.61904761904762,44.57142857142857
95608,Sacramento County,CA,NA,NA,NA,59.523809523809526,NA
95618,Yolo County,CA,82.1917808219178,NA,NA,NA,NA
95619,El Dorado County,CA,NA,NA,NA,96.9047619047619,82.85714285714286
95628,Sacramento County,CA,NA,NA,85.45727136431785,NA,NA
95630,Sacramento County,CA,NA,NA,NA,57.38095238095238,NA
95632,Sacramento County,CA,NA,NA,64.01799100449776,NA,NA
95648,Placer County,CA,84.58904109589042,NA,NA,NA,21.142857142857142
95650,Placer County,CA,NA,NA,NA,96.42857142857143,NA
95661,Placer County,CA,NA,NA,NA,59.04761904761905,NA
95667,El Dorado County,CA,NA,NA,NA,7.6190476190476195,NA
95670,Sacramento County,CA,NA,NA,NA,42.142857142857146,NA
95682,El Dorado County,CA,65.41095890410958,NA,NA,NA,NA
95687,Solano County,CA,NA,NA,NA,30.952380952380953,NA
95747,Placer County,CA,NA,NA,NA,NA,22.857142857142858
95817,Sacramento County,CA,NA,NA,NA,74.04761904761905,NA
95835,Sacramento County,CA,62.671232876712324,NA,NA,NA,NA
95838,Sacramento County,CA,67.8082191780822,NA,39.280359820089956,NA,NA
95965,Butte County,CA,NA,NA,NA,40,NA
95966,Butte County,CA,NA,NA,12.14392803598201,NA,NA
96130,Lassen County,CA,NA,NA,NA,83.33333333333334,NA
80005,Jefferson County,CO,NA,NA,NA,89.52380952380953,NA
80011,Arapahoe County,CO,15.068493150684931,NA,33.5832083958021,NA,NA
80012,Arapahoe County,CO,NA,NA,NA,NA,33.14285714285714
80013,Arapahoe County,CO,NA,25.46916890080429,NA,NA,NA
80016,Arapahoe County,CO,NA,NA,24.43778110944528,NA,NA
80017,Arapahoe County,CO,NA,42.35924932975871,NA,NA,NA
80020,Broomfield County,CO,NA,NA,46.476761619190405,NA,NA
80026,Boulder County,CO,25.684931506849317,NA,NA,55.23809523809524,NA
80118,Douglas County,CO,NA,NA,98.20089955022489,NA,NA
80121,Arapahoe County,CO,NA,NA,NA,NA,67.42857142857143
80126,Douglas County,CO,NA,NA,79.61019490254873,62.38095238095238,NA
80127,Jefferson County,CO,NA,91.42091152815014,NA,NA,NA
80128,Jefferson County,CO,64.72602739726028,NA,NA,NA,NA
80134,Douglas County,CO,9.246575342465754,71.31367292225201,NA,NA,NA
80203,Denver County,CO,NA,94.36997319034852,NA,NA,NA
80209,Denver County,CO,79.1095890410959,NA,NA,NA,NA
80210,Denver County,CO,NA,NA,NA,59.285714285714285,NA
80211,Denver County,CO,NA,NA,40.17991004497751,NA,NA
80214,Jefferson County,CO,NA,51.742627345844504,NA,NA,NA
80219,Denver County,CO,NA,17.426273458445042,NA,NA,NA
80224,Denver County,CO,NA,NA,86.05697151424287,NA,NA
80229,Adams County,CO,NA,19.839142091152816,NA,NA,NA
80233,Adams County,CO,NA,NA,28.18590704647676,NA,NA
80401,Jefferson County,CO,NA,NA,39.88005997001499,NA,NA
80516,Weld County,CO,68.15068493150685,NA,NA,NA,NA
80542,Weld County,CO,96.91780821917808,NA,NA,NA,NA
80631,Weld County,CO,NA,NA,10.194902548725636,NA,NA
80634,Weld County,CO,NA,NA,3.2983508245877062,NA,NA
80751,Logan County,CO,NA,NA,NA,67.61904761904762,NA
80916,El Paso County,CO,NA,16.890080428954423,NA,NA,NA
80919,El Paso County,CO,NA,NA,70.76461769115441,NA,NA
80921,El Paso County,CO,99.65753424657534,NA,NA,NA,NA
81005,Pueblo County,CO,NA,NA,NA,32.857142857142854,NA
81052,Prowers County,CO,83.9041095890411,NA,NA,NA,NA
81082,Las Animas County,CO,NA,NA,67.61619190404798,NA,NA
81212,Fremont County,CO,NA,NA,42.4287856071964,NA,NA
06010,Hartford County,CT,NA,NA,2.0989505247376314,NA,NA
06032,Hartford County,CT,NA,NA,NA,79.28571428571428,NA
06035,Hartford County,CT,NA,NA,NA,NA,92.57142857142857
06051,Hartford County,CT,NA,NA,5.247376311844078,NA,NA
06066,Tolland County,CT,NA,NA,18.89055472263868,NA,NA
06070,Hartford County,CT,80.82191780821918,NA,NA,NA,NA
06074,Hartford County,CT,NA,NA,NA,57.85714285714286,NA
06095,Hartford County,CT,NA,NA,NA,39.285714285714285,NA
06108,Hartford County,CT,NA,NA,32.23388305847077,NA,NA
06110,Hartford County,CT,NA,NA,NA,91.9047619047619,NA
06114,Hartford County,CT,NA,12.868632707774799,NA,NA,NA
06234,Windham County,CT,NA,NA,66.71664167916042,NA,NA
06484,Fairfield County,CT,NA,NA,NA,NA,31.428571428571427
06511,New Haven County,CT,NA,7.774798927613941,5.997001499250374,NA,NA
06606,Fairfield County,CT,NA,16.621983914209114,NA,NA,NA
06611,Fairfield County,CT,71.23287671232876,NA,NA,NA,NA
06706,New Haven County,CT,NA,NA,62.81859070464768,NA,NA
06791,Litchfield County,CT,NA,NA,97.0014992503748,NA,NA
19701,New Castle County,DE,NA,NA,28.7856071964018,NA,NA
19720,New Castle County,DE,NA,NA,3.8980509745127434,NA,NA
19804,New Castle County,DE,NA,NA,30.73463268365817,NA,NA
19805,New Castle County,DE,NA,NA,4.0479760119940025,NA,NA
19971,Sussex County,DE,NA,NA,NA,81.9047619047619,NA
32068,Clay County,FL,NA,NA,79.91004497751123,NA,NA
32114,Volusia County,FL,NA,NA,24.737631184407796,NA,NA
32137,Flagler County,FL,NA,NA,NA,12.619047619047619,NA
32210,Duval County,FL,1.0273972602739725,NA,NA,NA,NA
32254,Duval County,FL,NA,NA,NA,75.71428571428571,NA
32257,Duval County,FL,NA,NA,26.08695652173913,NA,NA
32409,Bay County,FL,NA,NA,76.61169415292353,NA,NA
32435,Walton County,FL,NA,NA,NA,78.80952380952381,NA
32571,Santa Rosa County,FL,NA,NA,16.34182908545727,22.142857142857142,NA
32609,Alachua County,FL,NA,NA,NA,56.666666666666664,NA
32703,Orange County,FL,NA,29.49061662198391,NA,NA,NA
32746,Seminole County,FL,NA,NA,80.8095952023988,NA,NA
32807,Orange County,FL,NA,NA,48.275862068965516,NA,NA
32909,Brevard County,FL,NA,NA,41.97901049475262,NA,NA
32926,Brevard County,FL,53.76712328767124,NA,NA,NA,NA
32935,Brevard County,FL,NA,53.08310991957105,NA,NA,NA
32937,Brevard County,FL,96.57534246575342,NA,NA,NA,NA
32963,Indian River County,FL,NA,NA,NA,NA,29.714285714285715
33033,Miami-Dade County,FL,NA,15.549597855227882,NA,NA,NA
33076,Broward County,FL,NA,NA,NA,71.19047619047619,NA
33125,Miami-Dade County,FL,NA,NA,46.776611694152926,NA,NA
33301,Broward County,FL,NA,NA,NA,72.61904761904762,NA
33317,Broward County,FL,NA,NA,77.5112443778111,NA,NA
33412,Palm Beach County,FL,NA,NA,NA,84.52380952380952,NA
33458,Palm Beach County,FL,NA,NA,NA,33.33333333333333,NA
33510,Hillsborough County,FL,NA,NA,59.52023988005997,NA,NA
33511,Hillsborough County,FL,NA,NA,NA,NA,62.857142857142854
33525,Pasco County,FL,NA,NA,70.61469265367316,NA,NA
33563,Hillsborough County,FL,NA,NA,51.424287856071956,88.57142857142857,NA
33572,Hillsborough County,FL,NA,NA,NA,64.28571428571429,NA
33776,Pinellas County,FL,NA,NA,96.40179910044976,NA,NA
33823,Polk County,FL,NA,NA,38.68065967016492,NA,NA
33837,Polk County,FL,NA,NA,53.52323838080959,NA,NA
33881,Polk County,FL,NA,NA,NA,42.38095238095238,NA
33917,Lee County,FL,NA,NA,NA,NA,29.142857142857142
33952,Charlotte County,FL,NA,58.4450402144772,NA,NA,NA
33991,Lee County,FL,82.53424657534246,NA,NA,NA,NA
34102,Collier County,FL,92.46575342465754,NA,NA,NA,NA
34243,Manatee County,FL,NA,NA,NA,34.285714285714285,NA
34480,Marion County,FL,NA,NA,63.1184407796102,NA,NA
34653,Pasco County,FL,NA,NA,31.93403298350825,NA,NA
34946,St. Lucie County,FL,NA,NA,80.35982008995502,NA,NA
30032,DeKalb County,GA,NA,NA,NA,17.61904761904762,NA
30034,DeKalb County,GA,NA,NA,65.96701649175412,NA,NA
30080,Cobb County,GA,NA,NA,55.472263868065966,NA,NA
30188,Cherokee County,GA,NA,62.19839142091153,NA,NA,NA
30224,Spalding County,GA,NA,NA,56.52173913043478,NA,NA
30281,Henry County,GA,NA,NA,27.736131934032983,NA,NA
30286,Upson County,GA,NA,NA,NA,NA,68.57142857142857
30528,White County,GA,NA,78.82037533512064,NA,NA,NA
30707,Walker County,GA,52.054794520547944,NA,NA,NA,NA
30741,Walker County,GA,NA,NA,NA,28.57142857142857,NA
30909,Richmond County,GA,NA,NA,NA,24.523809523809522,NA
31211,Bibb County,GA,NA,NA,72.11394302848576,NA,NA
31533,Coffee County,GA,NA,NA,NA,73.09523809523809,NA
39817,Decatur County,GA,NA,NA,67.01649175412294,NA,NA
96706,Honolulu County,HI,NA,NA,NA,18.80952380952381,NA
96720,Hawaii County,HI,NA,NA,36.58170914542729,NA,NA
96731,Honolulu County,HI,NA,92.22520107238606,NA,NA,NA
96740,Hawaii County,HI,NA,NA,NA,66.42857142857143,NA
96771,Hawaii County,HI,NA,NA,NA,99.04761904761905,NA
96782,Honolulu County,HI,NA,NA,NA,NA,24
96789,Honolulu County,HI,NA,NA,23.838080959520237,NA,NA
96793,Maui County,HI,NA,NA,NA,69.28571428571428,NA
96816,Honolulu County,HI,NA,NA,NA,25.71428571428571,NA
96822,Honolulu County,HI,NA,NA,NA,28.809523809523807,NA
83201,Bannock County,ID,NA,NA,59.070464767616194,NA,NA
83333,Blaine County,ID,NA,NA,NA,65.71428571428571,NA
83616,Ada County,ID,NA,NA,NA,15.95238095238095,NA
83646,Ada County,ID,NA,NA,NA,11.666666666666666,NA
83651,Canyon County,ID,NA,NA,NA,NA,27.42857142857143
83704,Ada County,ID,NA,NA,NA,NA,7.428571428571429
83705,Ada County,ID,NA,NA,31.63418290854573,NA,NA
60010,Lake County,IL,NA,NA,NA,20.476190476190474,NA
60056,Cook County,IL,NA,NA,41.67916041979011,NA,NA
60062,Cook County,IL,NA,NA,NA,39.76190476190476,NA
60069,Lake County,IL,NA,NA,NA,NA,80
60076,Cook County,IL,NA,NA,NA,32.38095238095238,NA
60081,McHenry County,IL,NA,NA,70.31484257871064,NA,NA
60089,Lake County,IL,NA,NA,71.66416791604198,NA,NA
60093,Cook County,IL,NA,NA,91.60419790104947,NA,NA
60097,McHenry County,IL,NA,NA,NA,75.71428571428571,NA
60101,DuPage County,IL,47.6027397260274,NA,NA,NA,NA
60106,DuPage County,IL,NA,NA,65.81709145427287,NA,NA
60123,Kane County,IL,NA,NA,57.5712143928036,NA,NA
60126,DuPage County,IL,68.15068493150685,NA,77.21139430284857,5.714285714285714,NA
60131,Cook County,IL,NA,NA,90.25487256371814,NA,NA
60137,DuPage County,IL,24.315068493150687,NA,37.331334332833585,NA,NA
60148,DuPage County,IL,NA,NA,NA,72.14285714285714,NA
60154,Cook County,IL,NA,NA,NA,35.714285714285715,NA
60160,Cook County,IL,26.71232876712329,NA,NA,NA,NA
60164,Cook County,IL,63.6986301369863,NA,42.27886056971514,NA,NA
60173,Cook County,IL,NA,NA,NA,93.0952380952381,NA
60181,DuPage County,IL,50.34246575342466,NA,33.28335832083958,40.476190476190474,NA
60187,DuPage County,IL,NA,NA,40.32983508245877,NA,NA
60201,Cook County,IL,NA,NA,NA,31.19047619047619,NA
60403,Will County,IL,89.04109589041096,NA,NA,NA,NA
60417,Will County,IL,NA,NA,65.96701649175412,NA,NA
60446,Will County,IL,NA,NA,NA,78.0952380952381,NA
60447,Grundy County,IL,35.95890410958904,NA,NA,NA,NA
60448,Will County,IL,69.52054794520548,NA,NA,54.52380952380952,NA
60452,Cook County,IL,NA,NA,53.373313343328334,NA,NA
60462,Cook County,IL,16.43835616438356,NA,NA,9.523809523809524,NA
60477,Cook County,IL,54.109589041095894,NA,NA,NA,NA
60523,DuPage County,IL,69.86301369863014,NA,NA,NA,NA
60527,DuPage County,IL,39.38356164383562,NA,NA,NA,NA
60544,Will County,IL,51.02739726027398,NA,NA,NA,NA
60546,Cook County,IL,NA,NA,NA,48.57142857142857,NA
60558,Cook County,IL,78.08219178082192,NA,NA,NA,NA
60611,Cook County,IL,NA,NA,NA,30.238095238095237,NA
60616,Cook County,IL,NA,NA,40.02998500749625,NA,NA
60637,Cook County,IL,28.767123287671232,NA,91.00449775112443,19.28571428571429,NA
60645,Cook County,IL,NA,NA,NA,NA,34.85714285714286
61021,Lee County,IL,NA,NA,34.78260869565217,59.76190476190476,NA
61061,Ogle County,IL,NA,NA,NA,NA,60
61071,Whiteside County,IL,NA,NA,NA,25.476190476190474,NA
61072,Winnebago County,IL,NA,NA,NA,72.85714285714285,NA
61073,Winnebago County,IL,92.12328767123287,NA,NA,NA,NA
61080,Winnebago County,IL,NA,NA,84.40779610194903,NA,NA
61081,Whiteside County,IL,14.726027397260275,NA,NA,NA,NA
61704,McLean County,IL,74.31506849315068,NA,NA,NA,NA
61801,Champaign County,IL,NA,NA,NA,54.285714285714285,NA
61821,Champaign County,IL,NA,NA,NA,54.761904761904766,NA
61832,Vermilion County,IL,20.89041095890411,NA,NA,67.38095238095238,NA
62035,Madison County,IL,NA,NA,NA,61.42857142857143,NA
62298,Monroe County,IL,NA,NA,82.45877061469265,NA,NA
62650,Morgan County,IL,NA,NA,56.37181409295352,NA,NA
62902,Jackson County,IL,NA,NA,NA,NA,98.28571428571429
46012,Madison County,IN,NA,NA,NA,NA,48.57142857142857
46016,Madison County,IN,NA,NA,17.24137931034483,NA,NA
46038,Hamilton County,IN,NA,NA,83.65817091454272,NA,NA
46142,Johnson County,IN,NA,NA,44.527736131934034,NA,NA
46163,Hancock County,IN,NA,NA,NA,NA,85.71428571428571
46168,Hendricks County,IN,49.31506849315068,NA,NA,NA,NA
46203,Marion County,IN,NA,NA,NA,NA,45.714285714285715
46221,Marion County,IN,NA,NA,NA,50.23809523809524,NA
46226,Marion County,IN,NA,NA,NA,23.095238095238095,NA
46254,Marion County,IN,NA,NA,NA,NA,100
46268,Marion County,IN,NA,73.45844504021449,NA,NA,NA
46311,Lake County,IN,NA,NA,35.532233883058474,NA,NA
46375,Lake County,IN,NA,NA,35.23238380809595,NA,NA
46394,Lake County,IN,63.013698630136986,NA,NA,NA,NA
46410,Lake County,IN,NA,NA,7.646176911544228,NA,NA
46534,Starke County,IN,49.65753424657534,NA,NA,NA,NA
46725,Whitley County,IN,NA,40.75067024128686,NA,NA,NA
46805,Allen County,IN,NA,NA,36.28185907046477,NA,NA
46902,Howard County,IN,4.10958904109589,NA,NA,6.666666666666667,NA
46975,Fulton County,IN,NA,65.14745308310992,NA,NA,NA
47025,Dearborn County,IN,39.04109589041096,NA,NA,NA,NA
47111,Clark County,IN,NA,NA,NA,63.095238095238095,NA
47201,Bartholomew County,IN,NA,NA,14.54272863568216,NA,NA
47591,Knox County,IN,NA,NA,39.58020989505248,NA,NA
47803,Vigo County,IN,NA,NA,64.16791604197901,NA,NA
47879,Sullivan County,IN,96.91780821917808,NA,NA,NA,NA
47882,Sullivan County,IN,75.34246575342466,NA,NA,NA,NA
47906,Tippecanoe County,IN,NA,NA,58.920539730134934,NA,NA
50126,Hardin County,IA,NA,NA,NA,NA,75.42857142857143
50138,Marion County,IA,NA,NA,NA,NA,40
50310,Polk County,IA,NA,NA,22.188905547226387,NA,NA
50313,Polk County,IA,NA,NA,NA,98.33333333333333,NA
50325,Polk County,IA,NA,98.92761394101876,NA,NA,NA
50401,Cerro Gordo County,IA,NA,20.64343163538874,NA,NA,4
50428,Cerro Gordo County,IA,NA,NA,NA,54.047619047619044,NA
50613,Black Hawk County,IA,NA,87.1313672922252,NA,NA,42.857142857142854
50702,Black Hawk County,IA,NA,NA,73.91304347826086,NA,NA
50801,Union County,IA,NA,NA,NA,57.85714285714286,NA
51301,Clay County,IA,NA,NA,NA,50.476190476190474,NA
51503,Pottawattamie County,IA,5.821917808219178,NA,NA,NA,NA
51555,Harrison County,IA,NA,NA,79.46026986506747,NA,NA
51566,Montgomery County,IA,NA,NA,NA,85.95238095238096,NA
51601,Page County,IA,NA,NA,NA,75,NA
52001,Dubuque County,IA,NA,45.0402144772118,NA,33.095238095238095,NA
52101,Winneshiek County,IA,NA,NA,NA,90,NA
52241,Johnson County,IA,NA,NA,49.17541229385307,NA,NA
52245,Johnson County,IA,NA,NA,98.95052473763118,NA,NA
52317,Johnson County,IA,65.06849315068493,NA,NA,NA,NA
52353,Washington County,IA,NA,NA,NA,81.19047619047619,NA
52748,Scott County,IA,NA,NA,NA,NA,96.57142857142857
52802,Scott County,IA,NA,NA,80.8095952023988,NA,NA
66092,Franklin County,KS,NA,NA,99.40029985007496,NA,NA
66213,Johnson County,KS,66.0958904109589,NA,NA,NA,NA
66801,Lyon County,KS,NA,NA,54.27286356821589,NA,NA
67401,Saline County,KS,NA,57.64075067024129,NA,NA,NA
67665,Russell County,KS,NA,NA,NA,83.80952380952381,NA
40229,Jefferson County,KY,NA,45.57640750670242,NA,NA,NA
40351,Rowan County,KY,NA,NA,23.53823088455772,NA,NA
40383,Woodford County,KY,NA,41.01876675603217,NA,NA,NA
40475,Madison County,KY,NA,NA,9.44527736131934,NA,NA
40965,Bell County,KY,NA,42.35924932975871,NA,NA,NA
41035,Grant County,KY,NA,NA,48.87556221889056,NA,NA
41301,Wolfe County,KY,NA,NA,73.7631184407796,NA,NA
41339,Breathitt County,KY,NA,NA,51.57421289355323,NA,NA
41501,Pike County,KY,NA,93.2975871313673,NA,NA,NA
41537,Letcher County,KY,90.06849315068493,NA,NA,NA,NA
41653,Floyd County,KY,NA,NA,46.62668665667166,NA,NA
41701,Perry County,KY,NA,NA,34.03298350824588,NA,NA
41858,Letcher County,KY,NA,58.71313672922251,NA,NA,NA
42127,Barren County,KY,NA,75.06702412868633,NA,NA,NA
42141,Barren County,KY,NA,7.506702412868632,NA,NA,NA
42240,Christian County,KY,23.63013698630137,NA,NA,NA,NA
42749,Hart County,KY,NA,86.05898123324397,NA,NA,NA
70001,Jefferson Parish,LA,10.273972602739725,NA,NA,NA,NA
70003,Jefferson Parish,LA,58.9041095890411,NA,NA,NA,NA
70005,Jefferson Parish,LA,NA,NA,NA,NA,17.71428571428571
70006,Jefferson Parish,LA,NA,NA,NA,51.42857142857142,46.285714285714285
70056,Jefferson Parish,LA,NA,NA,NA,23.333333333333332,NA
70065,Jefferson Parish,LA,NA,9.383378016085791,NA,5.238095238095238,NA
70114,Orleans Parish,LA,NA,NA,12.443778110944528,NA,NA
70115,Orleans Parish,LA,24.65753424657534,NA,NA,NA,NA
70119,Orleans Parish,LA,8.21917808219178,NA,NA,NA,NA
70123,Jefferson Parish,LA,NA,NA,NA,27.61904761904762,NA
70127,Orleans Parish,LA,NA,9.919571045576408,NA,NA,NA
70363,Terrebonne Parish,LA,3.4246575342465753,5.898123324396782,NA,NA,NA
70447,St. Tammany Parish,LA,NA,65.95174262734585,NA,NA,NA
70450,Washington Parish,LA,NA,NA,89.20539730134932,NA,NA
70454,Tangipahoa Parish,LA,NA,NA,NA,14.761904761904763,NA
70460,St. Tammany Parish,LA,59.24657534246576,NA,NA,NA,NA
70461,St. Tammany Parish,LA,NA,23.056300268096514,NA,NA,NA
70508,Lafayette Parish,LA,NA,32.171581769437,NA,NA,NA
70535,St. Landry Parish,LA,NA,75.87131367292224,NA,NA,NA
70560,Iberia Parish,LA,NA,5.361930294906166,67.9160419790105,NA,NA
70714,East Baton Rouge Parish,LA,NA,NA,25.187406296851574,NA,NA
70764,Iberville Parish,LA,NA,NA,NA,64.52380952380953,NA
70805,East Baton Rouge Parish,LA,NA,NA,4.197901049475263,NA,NA
71107,Caddo Parish,LA,NA,50.93833780160858,NA,NA,NA
71111,Bossier Parish,LA,NA,NA,NA,20.714285714285715,NA
71118,Caddo Parish,LA,NA,44.50402144772118,NA,NA,NA
71282,Madison Parish,LA,NA,NA,NA,100,NA
71291,Ouachita Parish,LA,NA,NA,12.293853073463268,NA,NA
71301,Rapides Parish,LA,NA,NA,NA,43.095238095238095,NA
71446,Vernon Parish,LA,27.73972602739726,NA,NA,NA,NA
03908,York County,ME,NA,NA,NA,94.04761904761905,NA
04005,York County,ME,NA,61.93029490616622,NA,NA,NA
04038,Cumberland County,ME,NA,NA,57.42128935532234,NA,NA
04062,Cumberland County,ME,77.3972602739726,NA,NA,NA,NA
04064,York County,ME,67.12328767123287,NA,NA,NA,NA
04086,Sagadahoc County,ME,NA,NA,78.56071964017991,NA,NA
04103,Cumberland County,ME,NA,74.53083109919572,NA,NA,NA
04210,Androscoggin County,ME,NA,NA,19.34032983508246,NA,NA
04240,Androscoggin County,ME,5.47945205479452,NA,2.2488755622188905,4.285714285714286,NA
04274,Androscoggin County,ME,91.78082191780823,NA,NA,NA,NA
04276,Oxford County,ME,NA,NA,NA,99.52380952380952,NA
04282,Androscoggin County,ME,NA,96.7828418230563,NA,NA,NA
04330,Kennebec County,ME,NA,NA,NA,10.714285714285714,NA
04345,Kennebec County,ME,NA,64.6112600536193,NA,NA,NA
04350,Kennebec County,ME,NA,NA,NA,99.28571428571429,NA
04401,Penobscot County,ME,NA,NA,NA,22.61904761904762,NA
04769,Aroostook County,ME,NA,NA,NA,94.52380952380952,NA
04841,Knox County,ME,NA,NA,NA,82.85714285714286,NA
04901,Kennebec County,ME,25,NA,NA,NA,NA
04938,Franklin County,ME,NA,NA,98.50074962518741,NA,NA
04963,Kennebec County,ME,NA,NA,64.46776611694153,NA,NA
04967,Somerset County,ME,NA,NA,80.20989505247377,NA,NA
20723,Howard County,MD,61.986301369863014,NA,NA,NA,NA
20772,Prince George's County,MD,NA,NA,51.57421289355323,NA,NA
21015,Harford County,MD,NA,NA,NA,62.61904761904762,NA
21093,Baltimore County,MD,NA,NA,44.377811094452774,NA,NA
21157,Carroll County,MD,NA,NA,53.973013493253376,NA,NA
21209,Baltimore County,MD,36.64383561643836,NA,NA,NA,NA
21212,Baltimore city,MD,NA,NA,84.70764617691154,NA,NA
21213,Baltimore city,MD,NA,NA,19.940029985007495,NA,NA
21219,Baltimore County,MD,98.97260273972603,NA,NA,NA,NA
21224,Baltimore city,MD,NA,NA,49.32533733133433,NA,NA
21230,Baltimore city,MD,NA,NA,38.830584707646175,NA,NA
21236,Baltimore County,MD,NA,NA,NA,NA,43.42857142857143
21532,Allegany County,MD,NA,NA,NA,92.14285714285714,NA
21804,Wicomico County,MD,NA,NA,50.82458770614693,NA,NA
01057,Hampden County,MA,NA,NA,97.15142428785607,NA,NA
01069,Hampden County,MA,NA,NA,31.184407796101947,NA,NA
01085,Hampden County,MA,NA,NA,1.0494752623688157,NA,NA
01105,Hampden County,MA,NA,24.396782841823057,NA,NA,NA
01109,Hampden County,MA,NA,9.383378016085791,NA,NA,NA
01119,Hampden County,MA,NA,NA,49.77511244377811,NA,NA
01240,Berkshire County,MA,NA,NA,NA,89.76190476190476,NA
01420,Worcester County,MA,NA,NA,10.344827586206897,3.3333333333333335,NA
01453,Worcester County,MA,NA,NA,21.13943028485757,NA,NA
01469,Middlesex County,MA,NA,NA,NA,77.85714285714286,NA
01510,Worcester County,MA,NA,NA,NA,51.19047619047619,NA
01535,Worcester County,MA,NA,89.00804289544236,NA,NA,NA
01545,Worcester County,MA,NA,NA,18.590704647676162,NA,NA
01570,Worcester County,MA,NA,NA,NA,6.190476190476191,NA
01583,Worcester County,MA,NA,NA,NA,90.23809523809524,NA
01610,Worcester County,MA,NA,NA,6.296851574212893,NA,NA
01612,Worcester County,MA,NA,NA,NA,98.80952380952381,NA
01730,Middlesex County,MA,NA,NA,NA,NA,66.28571428571428
01748,Middlesex County,MA,NA,NA,NA,46.42857142857143,NA
01752,Middlesex County,MA,NA,NA,4.497751124437781,19.047619047619047,NA
01757,Worcester County,MA,NA,NA,NA,NA,37.714285714285715
01760,Middlesex County,MA,NA,NA,11.84407796101949,NA,NA
01772,Worcester County,MA,NA,NA,NA,NA,84.57142857142857
01776,Middlesex County,MA,NA,NA,44.227886056971514,49.523809523809526,NA
01801,Middlesex County,MA,NA,48.525469168900806,45.87706146926537,NA,NA
01803,Middlesex County,MA,NA,NA,21.43928035982009,38.095238095238095,NA
01821,Middlesex County,MA,NA,NA,NA,2.380952380952381,NA
01833,Essex County,MA,NA,NA,81.25937031484258,NA,NA
01844,Essex County,MA,NA,2.4128686327077746,NA,NA,NA
01845,Essex County,MA,NA,NA,29.08545727136432,NA,NA
01851,Middlesex County,MA,NA,NA,2.39880059970015,NA,NA
01876,Middlesex County,MA,NA,NA,7.34632683658171,NA,NA
01886,Middlesex County,MA,NA,NA,NA,NA,61.71428571428571
01890,Middlesex County,MA,NA,NA,86.20689655172413,NA,NA
01906,Essex County,MA,NA,NA,3.7481259370314843,NA,NA
01907,Essex County,MA,NA,NA,55.322338830584705,NA,NA
01915,Essex County,MA,NA,NA,NA,1.4285714285714286,NA
01945,Essex County,MA,NA,NA,NA,29.523809523809526,NA
01949,Essex County,MA,NA,NA,NA,NA,78.28571428571428
02021,Norfolk County,MA,14.04109589041096,NA,NA,NA,NA
02038,Norfolk County,MA,NA,NA,15.442278860569717,NA,NA
02050,Plymouth County,MA,NA,NA,55.77211394302849,NA,NA
02056,Norfolk County,MA,NA,NA,89.65517241379311,NA,NA
02062,Norfolk County,MA,NA,NA,16.64167916041979,NA,NA
02067,Norfolk County,MA,NA,NA,NA,45.95238095238095,NA
02111,Suffolk County,MA,NA,NA,61.91904047976012,NA,NA
02114,Suffolk County,MA,NA,NA,53.223388305847074,NA,NA
02116,Suffolk County,MA,NA,92.22520107238606,NA,NA,NA
02118,Suffolk County,MA,NA,NA,0,0.4761904761904762,NA
02119,Suffolk County,MA,NA,2.1447721179624666,NA,0,NA
02121,Suffolk County,MA,NA,NA,0.14992503748125938,0.2380952380952381,NA
02124,Suffolk County,MA,0,0,6.446776611694154,NA,4.571428571428571
02125,Suffolk County,MA,NA,NA,61.76911544227887,1.6666666666666667,NA
02127,Suffolk County,MA,NA,NA,0.5997001499250375,NA,NA
02129,Suffolk County,MA,NA,11.796246648793565,NA,37.142857142857146,57.714285714285715
02131,Suffolk County,MA,NA,NA,0.8995502248875562,NA,NA
02132,Suffolk County,MA,NA,NA,43.02848575712144,2.619047619047619,NA
02135,Suffolk County,MA,NA,NA,5.697151424287856,NA,NA
02136,Suffolk County,MA,NA,6.702412868632708,1.6491754122938531,NA,NA
02138,Middlesex County,MA,NA,NA,43.1784107946027,NA,NA
02139,Middlesex County,MA,NA,NA,9.89505247376312,NA,NA
02142,Middlesex County,MA,NA,NA,99.55022488755623,NA,NA
02143,Middlesex County,MA,NA,NA,46.17691154422789,16.428571428571427,32.57142857142858
02145,Middlesex County,MA,13.698630136986301,10.991957104557642,43.62818590704648,NA,NA
02148,Middlesex County,MA,NA,39.14209115281501,NA,NA,NA
02149,Middlesex County,MA,NA,NA,35.08245877061469,NA,NA
02151,Suffolk County,MA,0.3424657534246575,0.8042895442359249,1.199400299850075,NA,1.1428571428571428
02152,Suffolk County,MA,75.68493150684932,NA,NA,NA,NA
02155,Middlesex County,MA,NA,26.005361930294907,NA,NA,NA
02170,Norfolk County,MA,NA,NA,NA,46.666666666666664,NA
02176,Middlesex County,MA,NA,NA,8.245877061469265,NA,NA
02184,Norfolk County,MA,NA,NA,27.2863568215892,NA,NA
02301,Plymouth County,MA,NA,NA,48.425787106446776,NA,NA
02332,Plymouth County,MA,NA,NA,72.56371814092954,NA,NA
02347,Plymouth County,MA,NA,NA,NA,90.47619047619048,NA
02368,Norfolk County,MA,NA,NA,NA,9.285714285714286,NA
02375,Bristol County,MA,NA,NA,NA,87.61904761904762,NA
02421,Middlesex County,MA,NA,NA,19.640179910044978,NA,NA
02445,Norfolk County,MA,NA,NA,91.1544227886057,NA,NA
02446,Norfolk County,MA,NA,NA,20.089955022488756,42.857142857142854,54.285714285714285
02452,Middlesex County,MA,NA,NA,NA,NA,62.28571428571429
02458,Middlesex County,MA,27.054794520547947,NA,50.37481259370315,NA,NA
02459,Middlesex County,MA,NA,NA,75.71214392803599,31.428571428571427,NA
02468,Middlesex County,MA,NA,NA,88.6056971514243,NA,NA
02472,Middlesex County,MA,NA,NA,7.796101949025487,NA,NA
02478,Middlesex County,MA,NA,NA,25.037481259370313,NA,NA
02481,Norfolk County,MA,NA,NA,59.97001499250375,NA,NA
02482,Norfolk County,MA,NA,NA,NA,NA,86.85714285714286
02492,Norfolk County,MA,NA,NA,NA,NA,56.57142857142857
02493,Middlesex County,MA,NA,NA,NA,74.28571428571429,NA
02554,Nantucket County,MA,NA,NA,36.73163418290854,NA,90.28571428571428
02571,Plymouth County,MA,NA,NA,15.742128935532234,NA,NA
02720,Bristol County,MA,NA,NA,NA,0.7142857142857143,NA
02721,Bristol County,MA,NA,NA,13.493253373313344,NA,NA
02743,Bristol County,MA,NA,NA,59.67016491754122,NA,NA
02769,Bristol County,MA,NA,NA,NA,87.85714285714286,NA
48015,Macomb County,MI,NA,NA,NA,58.333333333333336,NA
48017,Oakland County,MI,NA,NA,NA,79.76190476190477,NA
48021,Macomb County,MI,NA,58.98123324396782,NA,NA,NA
48026,Macomb County,MI,NA,NA,39.430284857571216,NA,NA
48035,Macomb County,MI,43.49315068493151,NA,NA,NA,NA
48044,Macomb County,MI,NA,NA,9.145427286356822,NA,NA
48066,Macomb County,MI,NA,20.10723860589812,4.6476761619190405,NA,NA
48067,Oakland County,MI,NA,NA,NA,NA,79.42857142857143
48085,Oakland County,MI,NA,NA,NA,38.333333333333336,NA
48093,Macomb County,MI,NA,78.55227882037534,NA,NA,NA
48094,Macomb County,MI,NA,NA,NA,55.714285714285715,NA
48098,Oakland County,MI,NA,NA,NA,76.42857142857142,64
48101,Wayne County,MI,NA,NA,73.16341829085458,NA,NA
48103,Washtenaw County,MI,NA,NA,17.391304347826086,NA,NA
48104,Washtenaw County,MI,NA,NA,49.92503748125937,NA,NA
48111,Wayne County,MI,NA,NA,31.334332833583208,NA,NA
48116,Livingston County,MI,52.3972602739726,NA,NA,NA,NA
48124,Wayne County,MI,NA,77.4798927613941,NA,NA,NA
48126,Wayne County,MI,NA,19.571045576407506,59.820089955022496,NA,NA
48127,Wayne County,MI,NA,NA,NA,NA,49.142857142857146
48128,Wayne County,MI,NA,NA,99.85007496251875,83.57142857142857,NA
48130,Washtenaw County,MI,87.67123287671232,NA,NA,45.476190476190474,NA
48150,Wayne County,MI,NA,NA,84.557721139430285,NA,NA
48154,Wayne County,MI,NA,NA,61.169415292353825,NA,NA
48160,Washtenaw County,MI,NA,98.12332439678283,NA,NA,NA
48164,Wayne County,MI,NA,NA,NA,78.57142857142857,NA
48167,Oakland County,MI,NA,NA,83.95802098950524,NA,NA
48168,Wayne County,MI,NA,NA,81.10944527736132,47.38095238095238,NA
48170,Wayne County,MI,89.72602739726028,NA,NA,NA,NA
48174,Wayne County,MI,NA,NA,7.946026986506746,NA,NA
48176,Washtenaw County,MI,NA,NA,42.728635682158924,NA,NA
48178,Oakland County,MI,NA,NA,NA,19.523809523809526,NA
48180,Wayne County,MI,NA,NA,NA,2.857142857142857,34.285714285714285
48183,Wayne County,MI,NA,NA,NA,10.476190476190476,NA
48184,Wayne County,MI,NA,NA,NA,33.80952380952381,NA
48185,Wayne County,MI,NA,NA,26.986506746626688,NA,NA
48186,Wayne County,MI,NA,52.54691689008043,NA,NA,NA
48187,Wayne County,MI,NA,68.36461126005362,NA,4.761904761904762,NA
48188,Wayne County,MI,7.191780821917808,NA,80.65967016491754,NA,50.28571428571429
48189,Washtenaw County,MI,NA,NA,NA,57.61904761904761,NA
48193,Wayne County,MI,54.45205479452054,NA,NA,NA,NA
48197,Washtenaw County,MI,NA,NA,66.71664167916042,3.0952380952380953,NA
48198,Washtenaw County,MI,17.465753424657535,NA,2.848575712143928,NA,NA
48202,Wayne County,MI,44.86301369863014,NA,NA,NA,NA
48206,Wayne County,MI,NA,NA,63.56821589205397,NA,NA
48212,Wayne County,MI,NA,NA,11.694152923538232,NA,NA
48215,Wayne County,MI,NA,70.50938337801608,82.6086956521739,NA,NA
48227,Wayne County,MI,NA,NA,NA,NA,40.57142857142857
48235,Wayne County,MI,27.397260273972602,NA,2.548725637181409,NA,NA
48239,Wayne County,MI,NA,NA,35.83208395802099,NA,NA
48301,Oakland County,MI,NA,NA,NA,NA,58.857142857142854
48309,Oakland County,MI,NA,NA,NA,NA,38.857142857142854
48310,Macomb County,MI,NA,35.388739946380696,NA,NA,NA
48314,Macomb County,MI,NA,82.03753351206434,NA,NA,NA
48315,Macomb County,MI,NA,NA,NA,27.380952380952383,NA
48322,Oakland County,MI,NA,NA,97.60119940029985,NA,NA
48327,Oakland County,MI,NA,NA,95.05247376311844,NA,NA
48346,Oakland County,MI,NA,NA,NA,55.714285714285715,97.14285714285714
48348,Oakland County,MI,NA,NA,NA,52.85714285714286,NA
48353,Livingston County,MI,91.0958904109589,NA,NA,NA,NA
48360,Oakland County,MI,NA,NA,71.9640179910045,NA,NA
48374,Oakland County,MI,NA,NA,75.41229385307346,NA,NA
48375,Oakland County,MI,NA,NA,79.16041979010495,NA,NA
48377,Oakland County,MI,NA,NA,95.2023988005997,NA,NA
48386,Oakland County,MI,NA,95.97855227882037,NA,NA,NA
48390,Oakland County,MI,NA,NA,NA,44.52380952380952,NA
48393,Oakland County,MI,NA,NA,NA,86.42857142857143,NA
48439,Genesee County,MI,NA,NA,NA,NA,25.71428571428571
48473,Genesee County,MI,NA,NA,NA,46.904761904761905,NA
48504,Genesee County,MI,NA,NA,NA,51.66666666666667,NA
48602,Saginaw County,MI,NA,30.02680965147453,NA,NA,NA
48617,Clare County,MI,NA,95.97855227882037,NA,NA,NA
48626,Saginaw County,MI,NA,NA,NA,77.14285714285715,NA
48640,Midland County,MI,NA,NA,NA,NA,12.571428571428573
48813,Eaton County,MI,NA,NA,40.929535232383806,NA,NA
48817,Shiawassee County,MI,86.64383561643835,NA,NA,NA,NA
48831,Clinton County,MI,NA,NA,97.30134932533733,NA,NA
48837,Eaton County,MI,NA,NA,NA,42.61904761904762,NA
48843,Livingston County,MI,34.24657534246575,NA,NA,NA,NA
48854,Ingham County,MI,NA,NA,NA,NA,73.71428571428571
48867,Shiawassee County,MI,NA,41.28686327077748,NA,NA,NA
48879,Clinton County,MI,NA,NA,53.823088455772115,NA,NA
49006,Kalamazoo County,MI,66.0958904109589,NA,NA,NA,NA
49009,Kalamazoo County,MI,NA,NA,14.842578710644677,NA,NA
49083,Kalamazoo County,MI,NA,NA,NA,90.71428571428571,NA
49091,St. Joseph County,MI,NA,NA,47.37631184407796,NA,NA
49103,Berrien County,MI,NA,NA,88.1559220389805,NA,NA
49201,Jackson County,MI,NA,44.50402144772118,NA,NA,NA
49203,Jackson County,MI,NA,NA,8.395802098950526,NA,NA
49265,Lenawee County,MI,NA,NA,92.50374812593704,NA,NA
49315,Kent County,MI,NA,NA,48.87556221889056,NA,NA
49319,Kent County,MI,NA,NA,32.083958020989506,NA,NA
49345,Kent County,MI,NA,NA,NA,60.952380952380956,NA
49412,Newaygo County,MI,NA,NA,67.61619190404798,NA,NA
49417,Ottawa County,MI,33.9041095890411,NA,NA,10.238095238095237,NA
49418,Kent County,MI,NA,68.63270777479893,NA,NA,NA
49424,Ottawa County,MI,11.301369863013697,NA,NA,53.095238095238095,NA
49431,Mason County,MI,NA,34.048257372654156,NA,NA,NA
49441,Muskegon County,MI,NA,NA,NA,7.142857142857142,NA
49444,Muskegon County,MI,NA,NA,11.244377811094452,NA,NA
49445,Muskegon County,MI,51.369863013698634,NA,NA,NA,NA
49504,Kent County,MI,NA,NA,NA,NA,82.28571428571428
49505,Kent County,MI,29.10958904109589,38.069705093833775,NA,NA,NA
49507,Kent County,MI,1.7123287671232876,NA,NA,NA,NA
49509,Kent County,MI,NA,46.11260053619303,NA,NA,NA
49519,Kent County,MI,NA,NA,18.140929535232384,NA,NA
49534,Kent County,MI,NA,NA,NA,81.42857142857143,NA
49546,Kent County,MI,NA,NA,40.62968515742129,NA,NA
49548,Kent County,MI,8.904109589041095,NA,NA,NA,NA
49685,Grand Traverse County,MI,NA,NA,55.02248875562219,NA,NA
49783,Chippewa County,MI,NA,84.71849865951742,NA,NA,NA
49837,Delta County,MI,NA,NA,55.62218890554723,NA,NA
49935,Iron County,MI,NA,NA,71.51424287856072,NA,NA
55016,Washington County,MN,10.95890410958904,NA,NA,NA,NA
55066,Goodhue County,MN,NA,53.61930294906166,NA,NA,NA
55110,Ramsey County,MN,47.26027397260274,NA,NA,NA,NA
55112,Ramsey County,MN,34.58904109589041,NA,NA,NA,NA
55119,Ramsey County,MN,10.616438356164384,NA,15.892053973013493,NA,NA
55129,Washington County,MN,NA,NA,73.91304347826086,NA,NA
55130,Ramsey County,MN,NA,34.316353887399465,77.96101949025487,NA,NA
55316,Hennepin County,MN,NA,NA,NA,98.57142857142858,NA
55318,Carver County,MN,NA,96.51474530831099,NA,NA,NA
55343,Hennepin County,MN,NA,NA,45.27736131934033,NA,NA
55350,McLeod County,MN,NA,55.49597855227882,NA,NA,NA
55374,Hennepin County,MN,NA,94.36997319034852,NA,NA,NA
55376,Wright County,MN,44.178082191780824,NA,NA,NA,NA
55379,Scott County,MN,NA,30.831099195710454,NA,NA,NA
55403,Hennepin County,MN,NA,NA,72.86356821589204,NA,NA
55404,Hennepin County,MN,NA,54.42359249329759,NA,NA,NA
55406,Hennepin County,MN,21.232876712328768,NA,NA,37.61904761904762,NA
55407,Hennepin County,MN,NA,4.557640750670242,NA,NA,NA
55408,Hennepin County,MN,NA,66.75603217158177,NA,NA,NA
55411,Hennepin County,MN,NA,4.021447721179625,NA,24.285714285714285,NA
55414,Hennepin County,MN,NA,80.9651474530831,NA,NA,96
55417,Hennepin County,MN,77.3972602739726,NA,NA,NA,NA
55419,Hennepin County,MN,NA,NA,47.82608695652174,NA,NA
55421,Anoka County,MN,NA,85.79088471849866,NA,NA,NA
55422,Hennepin County,MN,NA,47.18498659517426,32.8335832083958,NA,NA
55425,Hennepin County,MN,NA,NA,74.81259370314842,NA,NA
55428,Hennepin County,MN,NA,NA,20.539730134932537,NA,NA
55441,Hennepin County,MN,30.47945205479452,NA,NA,NA,NA
55442,Hennepin County,MN,88.6986301369863,NA,NA,NA,NA
55445,Hennepin County,MN,31.164383561643838,NA,NA,NA,NA
55734,St. Louis County,MN,NA,NA,NA,NA,74.28571428571429
55744,Itasca County,MN,NA,18.498659517426276,48.57571214392804,11.428571428571429,46.85714285714286
55746,St. Louis County,MN,NA,75.60321715817693,NA,NA,NA
55792,St. Louis County,MN,NA,69.16890080428955,NA,NA,NA
55803,St. Louis County,MN,NA,82.30563002680965,NA,NA,NA
55804,St. Louis County,MN,NA,NA,NA,44.761904761904766,36.57142857142857
55806,St. Louis County,MN,NA,NA,28.48575712143928,NA,NA
55810,St. Louis County,MN,NA,NA,NA,NA,78.85714285714286
55901,Olmsted County,MN,NA,50.134048257372655,NA,NA,NA
55904,Olmsted County,MN,NA,57.37265415549599,69.7151424287856,NA,NA
55912,Mower County,MN,NA,23.86058981233244,NA,6.428571428571428,1.7142857142857144
55947,Houston County,MN,NA,NA,81.85907046476761,NA,NA
55976,Olmsted County,MN,NA,NA,NA,93.57142857142857,NA
55987,Winona County,MN,NA,NA,NA,5.952380952380952,NA
56007,Freeborn County,MN,NA,NA,17.691154422788603,NA,48
56013,Faribault County,MN,NA,NA,96.7016491754123,NA,NA
56031,Martin County,MN,54.45205479452054,NA,47.976011994002995,28.095238095238095,NA
56073,Brown County,MN,NA,NA,NA,NA,6.857142857142858
56093,Waseca County,MN,NA,NA,NA,NA,42.285714285714285
56164,Pipestone County,MN,NA,NA,72.41379310344827,NA,NA
56175,Lyon County,MN,NA,72.65415549597856,NA,NA,NA
56187,Nobles County,MN,NA,48.257372654155496,NA,NA,NA
56278,Big Stone County,MN,NA,NA,98.65067466266866,NA,NA
56308,Douglas County,MN,NA,NA,63.1184407796102,NA,NA
56345,Morrison County,MN,NA,NA,32.53373313343329,NA,28.57142857142857
56364,Morrison County,MN,NA,NA,98.05097451274362,NA,NA
56401,Crow Wing County,MN,NA,NA,38.23088455772114,NA,NA
56425,Crow Wing County,MN,NA,59.24932975871313,NA,NA,NA
56470,Hubbard County,MN,NA,NA,NA,NA,52
56501,Becker County,MN,NA,NA,NA,67.61904761904762,NA
56537,Otter Tail County,MN,NA,88.20375335120644,NA,NA,NA
56560,Clay County,MN,NA,2.680965147453083,1.3493253373313343,7.380952380952381,NA
56621,Clearwater County,MN,NA,NA,81.70914542728636,NA,NA
56636,Itasca County,MN,NA,88.73994638069705,NA,NA,NA
56649,Koochiching County,MN,NA,NA,61.019490254872565,NA,NA
56701,Pennington County,MN,NA,NA,20.689655172413794,NA,NA
56721,Polk County,MN,NA,NA,NA,72.38095238095238,NA
38751,Sunflower County,MS,NA,NA,82.90854572713643,NA,NA
38865,Alcorn County,MS,83.56164383561644,NA,NA,NA,NA
39094,Leake County,MS,NA,NA,95.65217391304348,NA,NA
39120,Adams County,MS,NA,63.806970509383376,NA,NA,NA
39145,Rankin County,MS,NA,84.45040214477211,NA,NA,NA
39170,Hinds County,MS,NA,NA,NA,NA,92
39208,Rankin County,MS,18.15068493150685,NA,NA,NA,NA
39209,Hinds County,MS,NA,17.158176943699733,NA,NA,NA
39365,Neshoba County,MS,55.13698630136986,NA,NA,NA,NA
39581,Jackson County,MS,NA,72.65415549597856,NA,NA,NA
39601,Lincoln County,MS,NA,59.78552278820375,NA,NA,NA
39648,Pike County,MS,NA,NA,20.98950524737631,NA,NA
63026,St. Louis County,MO,NA,54.15549597855228,NA,NA,NA
63028,Jefferson County,MO,NA,65.41554959785523,NA,NA,NA
63117,St. Louis County,MO,NA,NA,98.80059970014993,NA,NA
63118,St. Louis city,MO,NA,NA,NA,50.71428571428571,NA
63301,St. Charles County,MO,14.383561643835616,NA,NA,NA,NA
63376,St. Charles County,MO,NA,NA,NA,3.571428571428571,NA
63383,Warren County,MO,NA,80.9651474530831,NA,NA,NA
63624,St. Francois County,MO,NA,75.06702412868633,NA,NA,NA
63630,Washington County,MO,88.35616438356165,NA,NA,NA,NA
63825,Stoddard County,MO,NA,NA,93.10344827586206,NA,NA
64012,Cass County,MO,NA,31.099195710455763,NA,NA,NA
64014,Jackson County,MO,16.095890410958905,NA,NA,NA,NA
64015,Jackson County,MO,59.589041095890416,50.402144772117964,NA,NA,NA
64029,Jackson County,MO,31.506849315068493,83.37801608579089,NA,NA,NA
64052,Jackson County,MO,NA,31.36729222520107,11.994002998500749,NA,NA
64056,Jackson County,MO,55.821917808219176,NA,26.83658170914543,NA,NA
64080,Cass County,MO,60.61643835616438,NA,NA,NA,NA
64081,Jackson County,MO,40.41095890410959,NA,NA,NA,NA
64082,Jackson County,MO,41.43835616438356,NA,NA,NA,NA
64106,Jackson County,MO,NA,NA,NA,65,NA
64111,Jackson County,MO,NA,NA,27.136431784107945,NA,NA
64117,Clay County,MO,NA,80.42895442359249,NA,NA,NA
64119,Clay County,MO,53.42465753424658,NA,NA,NA,NA
64123,Jackson County,MO,76.71232876712328,NA,NA,NA,NA
64130,Jackson County,MO,NA,44.23592493297587,NA,NA,NA
64131,Jackson County,MO,NA,NA,16.94152923538231,NA,NA
64138,Jackson County,MO,NA,NA,41.37931034482759,NA,NA
64158,Clay County,MO,87.32876712328768,NA,NA,NA,NA
64501,Buchanan County,MO,NA,47.18498659517426,NA,NA,NA
64503,Buchanan County,MO,NA,56.83646112600537,NA,41.904761904761905,NA
64505,Buchanan County,MO,NA,NA,NA,32.38095238095238,NA
64506,Buchanan County,MO,NA,NA,NA,11.904761904761903,5.714285714285714
64601,Livingston County,MO,NA,NA,NA,NA,41.714285714285715
64633,Carroll County,MO,NA,NA,NA,87.38095238095238,NA
64730,Bates County,MO,NA,87.1313672922252,NA,NA,NA
64759,Barton County,MO,NA,65.41554959785523,NA,NA,NA
64772,Vernon County,MO,NA,NA,NA,NA,81.14285714285714
64804,Jasper County,MO,NA,57.10455764075068,NA,NA,NA
64836,Jasper County,MO,NA,78.01608579088472,NA,NA,NA
65018,Moniteau County,MO,33.21917808219178,NA,NA,NA,NA
65202,Boone County,MO,NA,NA,NA,NA,30.857142857142854
65265,Audrain County,MO,NA,NA,62.06896551724138,NA,NA
65270,Randolph County,MO,NA,NA,NA,48.333333333333336,NA
65401,Phelps County,MO,NA,32.707774798927616,NA,NA,NA
65559,Phelps County,MO,NA,52.27882037533512,NA,NA,NA
65802,Greene County,MO,NA,14.47721179624665,12.893553223388308,NA,NA
59102,Yellowstone County,MT,NA,NA,NA,NA,26.857142857142858
59404,Cascade County,MT,NA,NA,94.90254872563717,NA,NA
59405,Cascade County,MT,60.273972602739725,NA,NA,57.14285714285714,NA
59828,Ravalli County,MT,NA,NA,NA,86.66666666666667,NA
68114,Douglas County,NE,NA,93.02949061662198,NA,NA,NA
89101,Clark County,NV,NA,NA,NA,69.52380952380952,NA
89135,Clark County,NV,NA,NA,NA,69.04761904761905,NA
03031,Hillsborough County,NH,NA,NA,77.81109445277362,70.23809523809523,NA
03038,Rockingham County,NH,NA,49.32975871313673,NA,NA,NA
03053,Rockingham County,NH,NA,NA,63.41829085457271,NA,NA
03054,Hillsborough County,NH,NA,NA,34.93253373313343,NA,NA
03060,Hillsborough County,NH,NA,17.694369973190348,7.19640179910045,NA,NA
03063,Hillsborough County,NH,NA,NA,NA,80.95238095238095,NA
03076,Hillsborough County,NH,NA,NA,NA,60.238095238095234,NA
03102,Hillsborough County,NH,13.013698630136986,NA,NA,NA,NA
03106,Merrimack County,NH,NA,NA,NA,NA,60.57142857142858
03110,Hillsborough County,NH,NA,NA,60.86956521739131,NA,NA
03220,Belknap County,NH,NA,NA,NA,95,NA
03276,Merrimack County,NH,NA,93.8337801608579,NA,NA,NA
03301,Merrimack County,NH,NA,NA,NA,17.857142857142858,NA
03303,Merrimack County,NH,NA,NA,70.91454272863568,NA,NA
03598,Coos County,NH,NA,99.19571045576407,NA,NA,NA
03743,Sullivan County,NH,NA,NA,57.12143928035982,47.61904761904761,NA
03755,Grafton County,NH,NA,NA,NA,85.71428571428571,NA
03766,Grafton County,NH,NA,NA,NA,71.66666666666667,NA
03826,Rockingham County,NH,NA,NA,98.35082458770614,NA,NA
03885,Rockingham County,NH,NA,NA,90.4047976011994,NA,NA
03894,Carroll County,NH,NA,NA,97.75112443778112,NA,NA
07002,Hudson County,NJ,NA,1.876675603217158,NA,NA,NA
07017,Essex County,NJ,NA,NA,NA,23.57142857142857,NA
07026,Bergen County,NJ,97.94520547945206,NA,NA,NA,NA
07424,Passaic County,NJ,57.1917808219178,NA,NA,NA,NA
07481,Bergen County,NJ,92.8082191780822,NA,NA,NA,NA
07501,Passaic County,NJ,NA,NA,1.7991004497751124,NA,NA
07726,Monmouth County,NJ,NA,NA,32.38380809595202,NA,NA
07860,Sussex County,NJ,NA,NA,27.436281859070466,NA,NA
07882,Warren County,NJ,NA,NA,NA,61.66666666666667,NA
07940,Morris County,NJ,NA,NA,85.15742128935531,NA,NA
07974,Union County,NJ,64.38356164383562,NA,NA,NA,NA
08012,Camden County,NJ,43.15068493150685,NA,NA,NA,NA
08081,Camden County,NJ,NA,13.672922252010725,NA,NA,NA
08104,Camden County,NJ,NA,0.5361930294906166,NA,NA,NA
08105,Camden County,NJ,NA,1.3404825737265416,56.22188905547226,NA,NA
08106,Camden County,NJ,NA,NA,NA,NA,91.42857142857143
08234,Atlantic County,NJ,NA,NA,NA,NA,37.142857142857146
08610,Mercer County,NJ,NA,NA,8.095952023988005,NA,NA
08611,Mercer County,NJ,NA,NA,6.5967016491754125,NA,NA
08861,Middlesex County,NJ,NA,NA,NA,8.80952380952381,NA
08873,Somerset County,NJ,NA,NA,NA,31.9047619047619,NA
87105,Bernalillo County,NM,NA,47.98927613941019,NA,NA,NA
87109,Bernalillo County,NM,NA,27.07774798927614,NA,22.857142857142858,NA
87110,Bernalillo County,NM,NA,50.402144772117964,13.943028485757122,NA,NA
87112,Bernalillo County,NM,NA,NA,NA,NA,13.142857142857142
87113,Bernalillo County,NM,NA,NA,79.3103448275862,97.61904761904762,NA
87120,Bernalillo County,NM,NA,NA,10.944527736131935,NA,NA
87123,Bernalillo County,NM,NA,15.81769436997319,14.992503748125937,NA,NA
87124,Sandoval County,NM,NA,NA,13.043478260869565,NA,NA
87328,McKinley County,NM,NA,66.21983914209115,NA,NA,NA
87505,Santa Fe County,NM,NA,25.201072386058982,NA,NA,NA
88005,Doa Ana County,NM,NA,42.89544235924933,NA,NA,NA
88310,Otero County,NM,NA,NA,NA,NA,15.428571428571427
10002,New York County,NY,NA,5.093833780160858,NA,NA,NA
10003,New York County,NY,NA,NA,NA,NA,33.714285714285715
10009,New York County,NY,NA,NA,NA,55.00000000000001,NA
10019,New York County,NY,NA,NA,66.26686656671664,64.76190476190476,NA
10022,New York County,NY,NA,NA,NA,55.47619047619048,NA
10023,New York County,NY,NA,NA,52.023988005997005,NA,NA
10027,New York County,NY,NA,NA,6.146926536731634,NA,NA
10029,New York County,NY,7.876712328767123,NA,NA,NA,NA
10031,New York County,NY,NA,NA,9.5952023988006,NA,NA
10033,New York County,NY,NA,37.26541554959786,NA,NA,NA
10035,New York County,NY,NA,NA,NA,14.047619047619047,NA
10039,New York County,NY,NA,NA,33.43328335832084,NA,NA
10075,New York County,NY,NA,NA,NA,89.28571428571429,NA
10452,Bronx County,NY,NA,NA,NA,13.571428571428571,NA
10454,Bronx County,NY,9.931506849315069,NA,28.93553223388306,10,NA
10455,Bronx County,NY,NA,NA,56.97151424287856,NA,NA
10456,Bronx County,NY,NA,8.579088471849866,35.38230884557721,NA,NA
10457,Bronx County,NY,NA,NA,6.746626686656672,NA,NA
10458,Bronx County,NY,NA,NA,NA,NA,16.57142857142857
10459,Bronx County,NY,NA,14.745308310991955,NA,NA,NA
10460,Bronx County,NY,NA,NA,29.38530734632684,NA,NA
10466,Bronx County,NY,NA,NA,NA,3.8095238095238098,23.42857142857143
10467,Bronx County,NY,NA,0.2680965147453083,NA,NA,NA
10474,Bronx County,NY,NA,NA,61.6191904047976,NA,NA
10475,Bronx County,NY,NA,45.30831099195711,NA,NA,NA
10543,Westchester County,NY,NA,NA,70.16491754122939,NA,NA
10701,Westchester County,NY,NA,18.230563002680967,NA,6.904761904761905,NA
10705,Westchester County,NY,NA,34.852546916890084,NA,NA,NA
11040,Nassau County,NY,NA,79.35656836461126,NA,NA,NA
11102,Queens County,NY,NA,NA,49.62518740629685,NA,NA
11105,Queens County,NY,NA,NA,62.668665667166415,NA,NA
11106,Queens County,NY,71.91780821917808,NA,NA,NA,NA
11201,Kings County,NY,NA,NA,NA,60.476190476190474,NA
11203,Kings County,NY,NA,10.455764075067025,NA,41.19047619047619,20.57142857142857
11204,Kings County,NY,NA,NA,31.03448275862069,NA,NA
11206,Kings County,NY,NA,NA,2.998500749625187,NA,NA
11207,Kings County,NY,NA,NA,NA,35.95238095238095,NA
11208,Kings County,NY,NA,NA,34.33283358320839,NA,NA
11212,Kings County,NY,NA,1.0723860589812333,NA,NA,NA
11213,Kings County,NY,NA,11.26005361930295,NA,NA,NA
11219,Kings County,NY,NA,NA,NA,29.28571428571429,NA
11220,Kings County,NY,NA,NA,4.7976011994003,NA,NA
11223,Kings County,NY,NA,12.600536193029491,NA,NA,NA
11226,Kings County,NY,NA,NA,5.397301349325337,NA,NA
11228,Kings County,NY,NA,47.72117962466488,NA,NA,NA
11229,Kings County,NY,NA,NA,28.335832083958024,NA,NA
11235,Kings County,NY,NA,NA,NA,NA,24.571428571428573
11368,Queens County,NY,NA,5.630026809651475,NA,NA,NA
11370,Queens County,NY,NA,NA,52.47376311844077,NA,NA
11372,Queens County,NY,17.123287671232877,NA,32.68365817091454,NA,NA
11374,Queens County,NY,NA,69.43699731903486,NA,NA,NA
11385,Queens County,NY,NA,NA,37.48125937031484,16.904761904761905,NA
11416,Queens County,NY,NA,31.63538873994638,NA,NA,NA
11421,Queens County,NY,NA,12.064343163538874,NA,NA,NA
11520,Nassau County,NY,NA,NA,34.63268365817092,NA,NA
11550,Nassau County,NY,NA,NA,13.343328335832084,NA,NA
11563,Nassau County,NY,NA,86.05898123324397,NA,NA,NA
12019,Saratoga County,NY,NA,NA,77.06146926536732,NA,NA
12020,Saratoga County,NY,NA,NA,54.5727136431784,NA,NA
12043,Schoharie County,NY,NA,53.61930294906166,NA,NA,NA
12053,Schenectady County,NY,NA,NA,93.4032983508246,NA,NA
12078,Fulton County,NY,NA,NA,NA,14.523809523809526,NA
12122,Schoharie County,NY,NA,NA,72.26386806596702,NA,NA
12157,Schoharie County,NY,NA,72.11796246648794,NA,NA,NA
12302,Schenectady County,NY,NA,63.806970509383376,NA,NA,NA
12308,Schenectady County,NY,NA,NA,NA,NA,90.85714285714286
12528,Ulster County,NY,94.86301369863014,NA,NA,NA,NA
12887,Washington County,NY,84.58904109589042,NA,NA,NA,NA
12901,Clinton County,NY,NA,NA,NA,8.571428571428571,NA
13021,Cayuga County,NY,6.506849315068493,NA,NA,NA,NA
13037,Madison County,NY,NA,NA,94.15292353823088,NA,NA
13069,Oswego County,NY,NA,NA,NA,NA,59.42857142857143
13204,Onondaga County,NY,NA,NA,13.6431784107946,NA,NA
13210,Onondaga County,NY,NA,NA,38.3808095952024,NA,NA
13329,Herkimer County,NY,NA,NA,92.50374812593704,NA,NA
13357,Herkimer County,NY,NA,NA,38.3808095952024,NA,NA
13365,Herkimer County,NY,36.986301369863014,NA,81.40929535232384,41.66666666666667,NA
13413,Oneida County,NY,51.71232876712328,NA,NA,NA,NA
13452,Montgomery County,NY,85.95890410958904,NA,NA,NA,NA
13491,Herkimer County,NY,NA,NA,NA,91.66666666666666,NA
13662,St. Lawrence County,NY,NA,NA,8.545727136431784,NA,NA
13669,St. Lawrence County,NY,NA,61.3941018766756,NA,NA,NA
13732,Tioga County,NY,NA,NA,NA,NA,80.57142857142857
13753,Delaware County,NY,NA,84.71849865951742,NA,NA,NA
13760,Broome County,NY,NA,13.672922252010725,NA,NA,2.857142857142857
13778,Chenango County,NY,49.65753424657534,NA,NA,NA,NA
13795,Broome County,NY,NA,NA,74.36281859070465,NA,NA
13803,Cortland County,NY,80.13698630136986,NA,NA,NA,NA
13820,Otsego County,NY,NA,NA,39.130434782608695,NA,NA
13838,Delaware County,NY,NA,60.05361930294906,69.26536731634184,NA,NA
13849,Otsego County,NY,NA,99.46380697050938,78.26086956521739,NA,NA
13901,Broome County,NY,NA,63.806970509383376,NA,NA,NA
13905,Broome County,NY,2.3972602739726026,NA,14.24287856071964,NA,NA
14001,Erie County,NY,NA,NA,NA,85.23809523809524,NA
14020,Genesee County,NY,NA,NA,14.3928035982009,NA,NA
14048,Chautauqua County,NY,29.45205479452055,NA,NA,NA,NA
14145,Wyoming County,NY,NA,NA,99.2503748125937,NA,NA
14218,Erie County,NY,NA,76.13941018766755,NA,NA,NA
14220,Erie County,NY,NA,NA,NA,66.19047619047619,NA
14223,Erie County,NY,NA,NA,29.685157421289354,NA,NA
14224,Erie County,NY,22.945205479452056,NA,NA,NA,NA
14304,Niagara County,NY,NA,NA,24.587706146926536,NA,NA
14414,Livingston County,NY,NA,94.36997319034852,NA,NA,NA
14424,Ontario County,NY,NA,NA,NA,1.1904761904761905,NA
14435,Livingston County,NY,NA,NA,95.65217391304348,NA,NA
14450,Monroe County,NY,NA,NA,NA,1.9047619047619049,NA
14468,Monroe County,NY,NA,NA,NA,29.523809523809526,NA
14489,Wayne County,NY,NA,NA,NA,40.95238095238095,NA
14505,Wayne County,NY,NA,NA,65.06746626686657,NA,NA
14526,Monroe County,NY,40.06849315068493,NA,17.541229385307346,NA,NA
14546,Monroe County,NY,NA,NA,85.6071964017991,NA,NA
14551,Wayne County,NY,NA,NA,52.623688155922046,NA,NA
14559,Monroe County,NY,41.0958904109589,NA,12.743628185907047,NA,NA
14569,Wyoming County,NY,NA,NA,NA,65.95238095238095,NA
14609,Monroe County,NY,3.767123287671233,NA,NA,NA,NA
14612,Monroe County,NY,NA,NA,NA,22.380952380952383,NA
14615,Monroe County,NY,NA,68.09651474530831,NA,NA,NA
14616,Monroe County,NY,NA,NA,NA,13.80952380952381,NA
14617,Monroe County,NY,NA,NA,NA,35,NA
14620,Monroe County,NY,NA,NA,6.896551724137931,NA,NA
14621,Monroe County,NY,NA,NA,0.29985007496251875,NA,NA
14624,Monroe County,NY,NA,NA,3.1484257871064467,NA,NA
14706,Cattaraugus County,NY,NA,NA,83.05847076461768,NA,NA
14760,Cattaraugus County,NY,15.753424657534246,NA,11.544227886056973,NA,NA
14772,Cattaraugus County,NY,NA,NA,89.80509745127436,NA,NA
14837,Yates County,NY,NA,NA,91.60419790104947,NA,NA
14843,Steuben County,NY,NA,NA,56.8215892053973,NA,NA
14895,Allegany County,NY,NA,83.37801608579089,NA,NA,NA
27006,Davie County,NC,NA,NA,NA,35.476190476190474,NA
27011,Yadkin County,NC,NA,NA,NA,NA,70.85714285714285
27017,Surry County,NC,NA,NA,NA,NA,94.28571428571428
27021,Stokes County,NC,NA,NA,NA,NA,38.285714285714285
27023,Forsyth County,NC,42.12328767123288,NA,NA,NA,NA
27028,Davie County,NC,NA,NA,NA,62.857142857142854,NA
27030,Surry County,NC,NA,NA,NA,NA,3.428571428571429
27040,Forsyth County,NC,NA,NA,NA,NA,70.28571428571428
27051,Forsyth County,NC,NA,NA,78.41079460269866,NA,NA
27052,Stokes County,NC,NA,NA,NA,63.8095238095238,NA
27055,Yadkin County,NC,NA,NA,NA,NA,66.85714285714286
27105,Forsyth County,NC,NA,10.187667560321715,NA,5,NA
27106,Forsyth County,NC,13.356164383561644,NA,15.142428785607196,NA,NA
27127,Forsyth County,NC,NA,NA,NA,7.857142857142857,14.285714285714285
27262,Guilford County,NC,35.95890410958904,NA,NA,NA,NA
27284,Forsyth County,NC,NA,NA,NA,2.142857142857143,NA
27295,Davidson County,NC,NA,21.983914209115284,NA,NA,NA
27344,Chatham County,NC,NA,NA,NA,50.95238095238095,NA
27519,Wake County,NC,NA,NA,52.023988005997005,NA,NA
27536,Vance County,NC,44.52054794520548,NA,NA,NA,NA
27609,Wake County,NC,NA,NA,NA,NA,44
27701,Durham County,NC,NA,NA,50.07496251874063,NA,NA
27704,Durham County,NC,NA,NA,NA,NA,49.714285714285715
27705,Durham County,NC,NA,NA,NA,17.38095238095238,NA
27707,Durham County,NC,NA,43.69973190348526,NA,NA,NA
27893,Wilson County,NC,NA,54.6916890080429,NA,NA,NA
28054,Gaston County,NC,NA,NA,19.79010494752624,NA,NA
28079,Union County,NC,NA,NA,50.22488755622189,NA,NA
28144,Rowan County,NC,NA,NA,37.031484257871064,NA,NA
28173,Union County,NC,76.36986301369863,NA,NA,NA,NA
28205,Mecklenburg County,NC,NA,24.128686327077748,20.839580209895054,NA,NA
28270,Mecklenburg County,NC,NA,97.58713136729223,NA,NA,NA
28326,Harnett County,NC,NA,86.59517426273459,NA,NA,NA
28465,Brunswick County,NC,NA,NA,NA,60.71428571428571,NA
28560,Craven County,NC,NA,48.793565683646115,NA,NA,NA
28602,Catawba County,NC,NA,51.206434316353885,23.088455772113946,NA,NA
28638,Caldwell County,NC,NA,46.91689008042895,56.07196401799101,NA,NA
28694,Ashe County,NC,NA,63.53887399463807,NA,NA,NA
28734,Macon County,NC,NA,NA,18.290854572713645,NA,NA
28906,Cherokee County,NC,NA,NA,53.07346326836581,NA,NA
58078,Cass County,ND,NA,18.766756032171582,NA,NA,NA
58201,Grand Forks County,ND,7.534246575342466,NA,NA,NA,NA
58401,Stutsman County,ND,NA,NA,NA,NA,56.00000000000001
58503,Burleigh County,ND,NA,NA,35.98200899550225,NA,51.42857142857142
58554,Morton County,ND,NA,NA,NA,37.38095238095238,54.85714285714286
58801,Williams County,ND,NA,NA,38.980509745127435,NA,NA
43040,Union County,OH,NA,51.474530831099194,NA,NA,NA
43078,Champaign County,OH,NA,29.75871313672922,NA,NA,NA
43110,Franklin County,OH,NA,8.847184986595174,NA,NA,NA
43123,Franklin County,OH,NA,16.353887399463808,NA,NA,NA
43130,Fairfield County,OH,NA,14.745308310991955,NA,NA,NA
43135,Hocking County,OH,NA,97.31903485254692,NA,NA,NA
43147,Fairfield County,OH,NA,NA,60.11994002998501,NA,NA
43211,Franklin County,OH,NA,3.2171581769436997,NA,NA,NA
43213,Franklin County,OH,NA,3.485254691689008,NA,NA,NA
43219,Franklin County,OH,NA,NA,47.52623688155922,NA,NA
43221,Franklin County,OH,NA,78.28418230563003,87.55622188905548,NA,NA
43223,Franklin County,OH,11.986301369863012,NA,NA,NA,NA
43224,Franklin County,OH,NA,37.801608579088466,NA,NA,NA
43228,Franklin County,OH,NA,NA,NA,18.333333333333332,NA
43229,Franklin County,OH,NA,21.447721179624665,NA,NA,NA
43232,Franklin County,OH,NA,NA,5.547226386806597,NA,NA
43420,Sandusky County,OH,2.73972602739726,NA,NA,NA,NA
43612,Lucas County,OH,3.0821917808219177,NA,5.847076461769116,NA,NA
43623,Lucas County,OH,NA,NA,27.586206896551722,NA,NA
43725,Guernsey County,OH,NA,NA,66.56671664167916,NA,NA
43907,Harrison County,OH,NA,NA,76.16191904047976,NA,NA
43935,Belmont County,OH,NA,30.29490616621984,NA,NA,NA
43964,Jefferson County,OH,NA,NA,26.536731634182907,NA,NA
44001,Lorain County,OH,81.84931506849315,NA,NA,NA,NA
44004,Ashtabula County,OH,NA,NA,NA,5.476190476190476,NA
44011,Lorain County,OH,9.246575342465754,86.8632707774799,66.4167916041979,NA,NA
44012,Lorain County,OH,38.35616438356164,NA,NA,NA,18.285714285714285
44017,Cuyahoga County,OH,NA,41.28686327077748,NA,NA,NA
44022,Cuyahoga County,OH,NA,NA,83.35832083958022,NA,NA
44023,Geauga County,OH,66.0958904109589,NA,NA,NA,NA
44026,Geauga County,OH,NA,NA,NA,93.33333333333333,NA
44030,Ashtabula County,OH,NA,73.45844504021449,NA,NA,NA
44035,Lorain County,OH,NA,NA,3.598200899550225,NA,NA
44039,Lorain County,OH,72.26027397260275,NA,NA,NA,11.428571428571429
44047,Ashtabula County,OH,NA,53.35120643431635,NA,NA,NA
44052,Lorain County,OH,NA,NA,3.4482758620689653,NA,NA
44057,Lake County,OH,NA,36.99731903485255,NA,NA,NA
44060,Lake County,OH,72.94520547945206,NA,NA,0.9523809523809524,NA
44077,Lake County,OH,NA,NA,NA,NA,2.2857142857142856
44089,Erie County,OH,NA,NA,NA,15,NA
44094,Lake County,OH,NA,NA,NA,35,NA
44102,Cuyahoga County,OH,NA,NA,4.94752623688156,NA,NA
44107,Cuyahoga County,OH,NA,27.61394101876676,1.4992503748125936,NA,18.857142857142858
44108,Cuyahoga County,OH,NA,NA,NA,9.761904761904763,NA
44109,Cuyahoga County,OH,NA,NA,14.69265367316342,NA,NA
44111,Cuyahoga County,OH,NA,NA,0.7496251874062968,27.142857142857142,NA
44112,Cuyahoga County,OH,NA,NA,8.845577211394302,8.095238095238095,NA
44113,Cuyahoga County,OH,NA,45.84450402144772,NA,NA,NA
44116,Cuyahoga County,OH,71.57534246575342,NA,NA,NA,NA
44118,Cuyahoga County,OH,NA,NA,NA,15.238095238095239,NA
44119,Cuyahoga County,OH,NA,NA,21.289355322338828,NA,NA
44122,Cuyahoga County,OH,80.47945205479452,NA,NA,NA,NA
44126,Cuyahoga County,OH,NA,46.64879356568365,79.01049475262369,NA,NA
44129,Cuyahoga County,OH,21.91780821917808,NA,46.326836581709145,NA,NA
44130,Cuyahoga County,OH,NA,7.238605898123325,24.137931034482758,NA,NA
44131,Cuyahoga County,OH,NA,NA,44.07796101949025,26.190476190476193,NA
44133,Cuyahoga County,OH,NA,NA,27.886056971514243,NA,NA
44134,Cuyahoga County,OH,19.17808219178082,NA,8.995502248875562,NA,NA
44135,Cuyahoga County,OH,NA,NA,4.3478260869565215,NA,71.42857142857143
44136,Cuyahoga County,OH,NA,NA,NA,76.90476190476191,NA
44141,Cuyahoga County,OH,NA,NA,NA,61.1904761904762,NA
44144,Cuyahoga County,OH,NA,33.78016085790885,NA,13.095238095238097,NA
44145,Cuyahoga County,OH,NA,NA,NA,8.333333333333332,NA
44146,Cuyahoga County,OH,NA,NA,7.04647676161919,NA,NA
44147,Cuyahoga County,OH,NA,NA,50.67466266866567,NA,NA
44149,Cuyahoga County,OH,37.32876712328767,NA,NA,NA,NA
44202,Portage County,OH,NA,NA,NA,26.904761904761905,NA
44203,Summit County,OH,NA,38.069705093833775,28.035982008995504,NA,NA
44212,Medina County,OH,NA,NA,NA,NA,8.571428571428571
44224,Summit County,OH,NA,61.12600536193029,22.488755622188904,NA,NA
44236,Summit County,OH,45.20547945205479,NA,NA,NA,NA
44240,Portage County,OH,NA,31.63538873994638,NA,NA,NA
44256,Medina County,OH,0.684931506849315,NA,21.73913043478261,NA,5.142857142857142
44270,Wayne County,OH,NA,55.76407506702413,NA,NA,NA
44306,Summit County,OH,6.8493150684931505,NA,NA,NA,NA
44314,Summit County,OH,NA,35.120643431635386,62.518740629685155,NA,NA
44319,Summit County,OH,41.43835616438356,NA,NA,NA,NA
44403,Trumbull County,OH,NA,NA,NA,NA,93.14285714285714
44405,Mahoning County,OH,56.5068493150685,NA,NA,NA,NA
44420,Trumbull County,OH,NA,46.38069705093834,96.85157421289355,NA,NA
44425,Trumbull County,OH,NA,68.63270777479893,NA,NA,NA
44444,Trumbull County,OH,64.04109589041096,NA,NA,NA,NA
44446,Trumbull County,OH,NA,NA,15.592203898050974,24.047619047619047,30.28571428571429
44460,Columbiana County,OH,NA,NA,21.58920539730135,NA,NA
44481,Trumbull County,OH,NA,NA,96.55172413793103,NA,NA
44483,Trumbull County,OH,12.32876712328767,NA,NA,NA,NA
44485,Trumbull County,OH,NA,NA,NA,NA,50.857142857142854
44514,Mahoning County,OH,NA,NA,NA,39.523809523809526,NA
44601,Stark County,OH,NA,NA,7.496251874062969,NA,NA
44622,Tuscarawas County,OH,NA,NA,36.13193403298351,NA,NA
44632,Stark County,OH,NA,NA,NA,94.76190476190476,NA
44646,Stark County,OH,NA,10.723860589812332,58.02098950524738,NA,NA
44662,Stark County,OH,98.28767123287672,NA,NA,NA,NA
44667,Wayne County,OH,NA,64.6112600536193,86.65667166416792,NA,NA
44691,Wayne County,OH,47.94520547945205,13.672922252010725,NA,NA,NA
44705,Stark County,OH,NA,27.882037533512065,61.46926536731634,NA,NA
44805,Ashland County,OH,NA,NA,15.292353823088456,NA,NA
44820,Crawford County,OH,NA,49.597855227882036,NA,NA,NA
44830,Seneca County,OH,19.52054794520548,NA,NA,NA,NA
44833,Crawford County,OH,32.534246575342465,26.541554959785525,NA,NA,NA
44857,Huron County,OH,NA,NA,23.988005997001498,12.857142857142856,NA
44870,Erie County,OH,NA,NA,1.9490254872563717,NA,NA
44889,Huron County,OH,NA,NA,NA,65.23809523809524,NA
45011,Butler County,OH,NA,3.753351206434316,2.6986506746626686,NA,NA
45015,Butler County,OH,NA,60.85790884718498,NA,NA,NA
45123,Highland County,OH,NA,NA,NA,67.14285714285714,NA
45133,Highland County,OH,NA,NA,NA,30,NA
45144,Adams County,OH,NA,80.9651474530831,NA,NA,NA
45154,Brown County,OH,NA,NA,78.71064467766116,NA,NA
45211,Hamilton County,OH,NA,NA,10.644677661169414,NA,NA
45229,Hamilton County,OH,NA,NA,NA,40.714285714285715,NA
45240,Hamilton County,OH,NA,13.136729222520108,NA,NA,NA
45377,Montgomery County,OH,46.23287671232877,NA,NA,NA,NA
45387,Greene County,OH,NA,NA,95.95202398800599,NA,NA
45405,Montgomery County,OH,NA,NA,25.337331334332834,NA,NA
45417,Montgomery County,OH,NA,NA,10.044977511244378,NA,NA
45458,Montgomery County,OH,NA,NA,40.779610194902546,NA,NA
45612,Ross County,OH,NA,NA,82.75862068965517,NA,NA
45613,Pike County,OH,NA,NA,89.50524737631184,NA,NA
45623,Gallia County,OH,NA,NA,87.10644677661169,NA,NA
45631,Gallia County,OH,NA,NA,12.593703148425787,NA,NA
45634,Vinton County,OH,NA,NA,95.50224887556223,NA,NA
45640,Jackson County,OH,NA,41.28686327077748,64.61769115442279,NA,NA
45660,Adams County,OH,NA,NA,73.46326836581709,NA,NA
45692,Jackson County,OH,NA,NA,37.93103448275862,NA,NA
45693,Adams County,OH,NA,NA,52.7736131934033,NA,NA
45694,Scioto County,OH,NA,NA,29.985007496251875,NA,NA
45701,Athens County,OH,NA,NA,64.31784107946027,NA,NA
45750,Washington County,OH,NA,55.22788203753352,54.87256371814093,NA,NA
45760,Meigs County,OH,82.53424657534246,NA,NA,NA,NA
45764,Athens County,OH,NA,59.24932975871313,NA,NA,NA
45769,Meigs County,OH,NA,NA,NA,NA,76
45771,Meigs County,OH,NA,71.84986595174263,NA,NA,NA
73012,Oklahoma County,OK,56.849315068493155,NA,NA,NA,NA
73034,Oklahoma County,OK,29.794520547945208,NA,30.13493253373313,NA,NA
73129,Oklahoma County,OK,NA,NA,54.12293853073463,NA,NA
74058,Pawnee County,OK,NA,91.95710455764075,NA,NA,NA
74105,Tulsa County,OK,NA,NA,70.4647676161919,NA,NA
74301,Craig County,OK,99.31506849315068,NA,NA,NA,NA
74804,Pottawatomie County,OK,NA,NA,68.06596701649175,NA,NA
74820,Pontotoc County,OK,8.561643835616438,NA,NA,NA,NA
74834,Lincoln County,OK,NA,95.71045576407506,NA,NA,NA
74955,Sequoyah County,OK,40.75342465753425,NA,NA,NA,NA
97007,Washington County,OR,NA,NA,NA,NA,53.142857142857146
97008,Washington County,OR,NA,72.65415549597856,NA,NA,NA
97015,Clackamas County,OR,NA,NA,NA,75.23809523809524,NA
97031,Hood River County,OR,NA,NA,NA,76.66666666666667,69.14285714285714
97041,Hood River County,OR,NA,NA,99.10044977511244,NA,NA
97051,Columbia County,OR,NA,NA,NA,NA,89.71428571428571
97103,Clatsop County,OR,NA,NA,NA,53.57142857142857,NA
97113,Washington County,OR,70.2054794520548,NA,NA,NA,NA
97128,Yamhill County,OR,NA,NA,19.1904047976012,NA,NA
97146,Clatsop County,OR,NA,NA,NA,79.04761904761905,NA
97215,Multnomah County,OR,NA,NA,NA,77.61904761904762,NA
97217,Multnomah County,OR,NA,NA,42.578710644677656,NA,NA
97220,Multnomah County,OR,NA,67.02412868632707,NA,NA,NA
97224,Washington County,OR,NA,NA,55.02248875562219,43.80952380952381,NA
97230,Multnomah County,OR,NA,NA,24.28785607196402,NA,NA
97301,Marion County,OR,NA,NA,43.32833583208396,NA,NA
97322,Linn County,OR,NA,NA,16.19190404797601,NA,NA
97338,Polk County,OR,35.61643835616438,NA,76.7616191904048,NA,NA
97365,Lincoln County,OR,NA,NA,73.46326836581709,NA,NA
97386,Linn County,OR,58.21917808219178,NA,NA,NA,NA
97402,Lane County,OR,NA,NA,NA,NA,22.285714285714285
97411,Coos County,OR,NA,NA,82.15892053973015,NA,NA
97426,Lane County,OR,NA,73.45844504021449,NA,NA,NA
97467,Douglas County,OR,NA,NA,NA,73.80952380952381,NA
97496,Douglas County,OR,NA,NA,58.47076461769115,NA,NA
97601,Klamath County,OR,NA,NA,NA,68.80952380952381,NA
97603,Klamath County,OR,18.493150684931507,NA,20.389805097451273,NA,NA
97630,Lake County,OR,NA,NA,NA,70.71428571428572,NA
15025,Allegheny County,PA,NA,92.22520107238606,NA,NA,NA
15068,Westmoreland County,PA,NA,NA,NA,NA,10.857142857142858
15090,Allegheny County,PA,95.2054794520548,NA,NA,NA,NA
15120,Allegheny County,PA,NA,NA,45.57721139430285,NA,NA
15203,Allegheny County,PA,NA,NA,NA,75.47619047619048,NA
15210,Allegheny County,PA,NA,NA,NA,49.047619047619044,NA
15212,Allegheny County,PA,NA,NA,25.63718140929535,NA,NA
15237,Allegheny County,PA,NA,NA,NA,32.142857142857146,NA
15401,Fayette County,PA,12.67123287671233,28.418230563002684,NA,NA,NA
15537,Bedford County,PA,NA,NA,NA,68.0952380952381,NA
15632,Westmoreland County,PA,86.64383561643835,NA,NA,NA,NA
15656,Westmoreland County,PA,NA,NA,73.31334332833583,NA,NA
15666,Westmoreland County,PA,NA,NA,54.42278860569715,NA,NA
15801,Clearfield County,PA,28.424657534246577,NA,8.695652173913043,11.190476190476192,NA
15901,Cambria County,PA,NA,88.47184986595174,NA,NA,NA
15904,Cambria County,PA,NA,NA,84.25787106446776,NA,NA
15905,Cambria County,PA,NA,NA,NA,NA,36
15906,Cambria County,PA,NA,NA,59.37031484257871,NA,NA
16001,Butler County,PA,NA,NA,NA,4.0476190476190474,9.714285714285714
16150,Mercer County,PA,NA,93.5656836461126,NA,NA,NA
16335,Crawford County,PA,75,NA,NA,NA,NA
16412,Erie County,PA,100,NA,NA,NA,NA
16415,Erie County,PA,98.63013698630137,NA,NA,NA,NA
16601,Blair County,PA,23.972602739726025,NA,NA,13.333333333333334,NA
16602,Blair County,PA,NA,NA,16.041979010494753,NA,NA
16652,Huntingdon County,PA,NA,NA,NA,26.666666666666668,NA
16686,Blair County,PA,NA,NA,83.50824587706147,NA,NA
16801,Centre County,PA,NA,NA,41.22938530734633,NA,NA
16823,Centre County,PA,NA,NA,86.50674662668666,NA,NA
17023,Dauphin County,PA,93.4931506849315,NA,NA,NA,NA
17033,Dauphin County,PA,6.164383561643835,NA,NA,NA,NA
17036,Dauphin County,PA,4.794520547945205,NA,NA,NA,NA
17042,Lebanon County,PA,NA,80.16085790884718,24.887556221889056,NA,NA
17046,Lebanon County,PA,NA,NA,11.094452773613193,NA,NA
17050,Cumberland County,PA,NA,NA,58.77061469265368,NA,NA
17057,Dauphin County,PA,59.93150684931506,NA,NA,24.761904761904763,NA
17063,Mifflin County,PA,NA,NA,NA,99.76190476190476,NA
17070,Cumberland County,PA,NA,NA,45.72713643178411,NA,NA
17078,Lebanon County,PA,NA,NA,51.2743628185907,17.142857142857142,NA
17111,Dauphin County,PA,NA,NA,17.841079460269864,NA,NA
17112,Dauphin County,PA,NA,NA,18.4407796101949,NA,NA
17113,Dauphin County,PA,NA,NA,46.026986506746624,NA,NA
17362,York County,PA,NA,94.10187667560321,NA,NA,NA
17701,Lycoming County,PA,NA,NA,23.68815592203898,NA,NA
17801,Northumberland County,PA,55.47945205479452,NA,NA,NA,NA
17815,Columbia County,PA,65.75342465753424,NA,17.991004497751124,16.19047619047619,NA
17821,Montour County,PA,25,NA,26.38680659670165,21.666666666666668,NA
17837,Union County,PA,NA,NA,NA,48.095238095238095,NA
17842,Snyder County,PA,NA,NA,80.0599700149925,NA,NA
17866,Northumberland County,PA,NA,NA,NA,NA,58.285714285714285
17872,Northumberland County,PA,NA,NA,NA,45.23809523809524,NA
17948,Schuylkill County,PA,90.06849315068493,NA,88.75562218890555,NA,NA
18015,Northampton County,PA,NA,NA,NA,34.04761904761905,NA
18062,Lehigh County,PA,42.465753424657535,NA,NA,NA,NA
18102,Lehigh County,PA,NA,NA,0.4497751124437781,NA,NA
18104,Lehigh County,PA,NA,NA,16.49175412293853,NA,NA
18210,Carbon County,PA,NA,NA,NA,80.23809523809524,NA
18403,Lackawanna County,PA,NA,NA,85.30734632683658,NA,NA
18411,Lackawanna County,PA,NA,NA,50.97451274362819,NA,NA
18466,Monroe County,PA,NA,NA,58.32083958020989,NA,NA
18504,Lackawanna County,PA,NA,NA,32.98350824587706,NA,NA
18603,Columbia County,PA,NA,NA,NA,25.952380952380956,NA
18621,Luzerne County,PA,NA,NA,92.80359820089956,NA,NA
18642,Luzerne County,PA,NA,NA,93.7031484257871,NA,NA
18643,Luzerne County,PA,74.65753424657534,NA,NA,NA,NA
18704,Luzerne County,PA,NA,NA,NA,NA,19.428571428571427
18705,Luzerne County,PA,91.43835616438356,NA,NA,NA,NA
18706,Luzerne County,PA,81.16438356164383,NA,NA,NA,NA
19002,Montgomery County,PA,NA,NA,NA,NA,35.42857142857142
19020,Bucks County,PA,NA,NA,NA,14.285714285714285,NA
19046,Montgomery County,PA,NA,NA,47.676161919040474,NA,NA
19047,Bucks County,PA,NA,NA,25.787106446776615,NA,NA
19063,Delaware County,PA,NA,NA,22.638680659670165,NA,NA
19067,Bucks County,PA,NA,NA,NA,61.904761904761905,NA
19085,Delaware County,PA,NA,NA,NA,88.80952380952381,NA
19118,Philadelphia County,PA,NA,NA,89.35532233883059,NA,NA
19136,Philadelphia County,PA,NA,NA,NA,NA,53.714285714285715
19144,Philadelphia County,PA,11.643835616438356,NA,NA,NA,NA
19148,Philadelphia County,PA,NA,NA,NA,20,NA
19522,Berks County,PA,NA,NA,NA,43.57142857142857,NA
19604,Berks County,PA,NA,6.970509383378016,NA,NA,NA
02814,Providence County,RI,NA,NA,83.20839580209895,88.33333333333333,NA
02886,Kent County,RI,NA,NA,34.48275862068966,NA,NA
29063,Richland County,SC,NA,NA,60.26986506746626,NA,NA
29070,Lexington County,SC,NA,NA,76.01199400299849,NA,NA
29340,Cherokee County,SC,NA,NA,42.12893553223388,NA,NA
29403,Charleston County,SC,NA,NA,44.677661169415295,NA,NA
29406,Charleston County,SC,NA,NA,26.236881559220386,NA,NA
29464,Charleston County,SC,20.205479452054796,NA,44.97751124437781,NA,NA
29526,Horry County,SC,NA,NA,NA,16.666666666666664,NA
29550,Darlington County,SC,NA,79.35656836461126,NA,NA,NA
29829,Aiken County,SC,88.01369863013699,NA,NA,NA,NA
29841,Aiken County,SC,NA,42.89544235924933,NA,NA,NA
29842,Aiken County,SC,85.27397260273972,77.7479892761394,NA,NA,NA
29860,Edgefield County,SC,NA,97.05093833780161,NA,NA,NA
29909,Beaufort County,SC,NA,NA,NA,NA,32
57005,Minnehaha County,SD,NA,NA,82.3088455772114,NA,NA
57078,Yankton County,SD,NA,NA,NA,63.33333333333333,NA
57104,Minnehaha County,SD,17.80821917808219,NA,NA,NA,NA
57105,Minnehaha County,SD,NA,NA,NA,NA,14.857142857142858
57106,Minnehaha County,SD,NA,NA,NA,73.57142857142858,12
57108,Lincoln County,SD,NA,NA,NA,91.19047619047619,17.142857142857142
57501,Hughes County,SD,NA,NA,NA,NA,77.71428571428571
57701,Pennington County,SD,NA,NA,19.490254872563717,NA,NA
57703,Pennington County,SD,NA,NA,NA,82.38095238095238,NA
57719,Pennington County,SD,NA,NA,88.9055472263868,NA,NA
57772,Shannon County,SD,NA,NA,99.70014992503748,NA,NA
57785,Meade County,SD,NA,NA,NA,92.61904761904762,NA
37062,Williamson County,TN,NA,NA,NA,85,NA
37073,Robertson County,TN,NA,NA,85.90704647676162,NA,NA
37101,Humphreys County,TN,NA,NA,74.2128935532234,NA,NA
37115,Davidson County,TN,NA,NA,NA,31.666666666666664,NA
37129,Rutherford County,TN,NA,NA,87.70614692653673,NA,NA
37211,Davidson County,TN,NA,NA,NA,27.857142857142858,NA
37329,McMinn County,TN,NA,89.27613941018767,NA,NA,NA
37803,Blount County,TN,33.56164383561644,NA,NA,NA,NA
38111,Shelby County,TN,NA,NA,23.238380809595203,NA,NA
38127,Shelby County,TN,NA,NA,10.794602698650674,NA,NA
75020,Grayson County,TX,NA,13.404825737265416,NA,NA,NA
75040,Dallas County,TX,5.136986301369863,NA,NA,NA,NA
75050,Dallas County,TX,NA,22.78820375335121,NA,NA,NA
75051,Dallas County,TX,NA,NA,43.92803598200899,NA,NA
75061,Dallas County,TX,NA,66.48793565683646,NA,NA,NA
75067,Denton County,TX,NA,28.9544235924933,NA,NA,NA
75114,Kaufman County,TX,NA,83.10991957104558,NA,NA,NA
75137,Dallas County,TX,NA,74.79892761394102,NA,NA,NA
75204,Dallas County,TX,NA,NA,NA,NA,95.42857142857143
75214,Dallas County,TX,NA,NA,NA,NA,73.14285714285714
75217,Dallas County,TX,NA,9.115281501340483,NA,NA,NA
75229,Dallas County,TX,NA,NA,45.12743628185907,NA,NA
75231,Dallas County,TX,NA,33.24396782841823,47.22638680659671,NA,NA
75232,Dallas County,TX,NA,36.72922252010724,NA,NA,NA
75235,Dallas County,TX,NA,NA,69.41529235382309,NA,NA
75604,Gregg County,TX,48.63013698630137,NA,NA,NA,NA
75773,Wood County,TX,NA,73.45844504021449,NA,NA,NA
75979,Tyler County,TX,NA,NA,NA,74.76190476190476,NA
76018,Tarrant County,TX,NA,NA,61.31934032983508,NA,NA
76088,Parker County,TX,NA,90.3485254691689,NA,NA,NA
76103,Tarrant County,TX,NA,NA,67.1664167916042,NA,NA
76106,Tarrant County,TX,NA,8.310991957104557,NA,NA,NA
76110,Tarrant County,TX,30.136986301369863,NA,NA,NA,NA
76115,Tarrant County,TX,NA,15.281501340482572,NA,NA,NA
76116,Tarrant County,TX,NA,NA,NA,71.9047619047619,NA
76119,Tarrant County,TX,NA,6.434316353887399,NA,NA,NA
76131,Tarrant County,TX,NA,67.29222520107238,NA,NA,NA
76137,Tarrant County,TX,NA,NA,55.92203898050975,NA,NA
76148,Tarrant County,TX,NA,82.57372654155496,NA,NA,NA
76177,Tarrant County,TX,NA,NA,94.45277361319341,NA,NA
76180,Tarrant County,TX,34.93150684931507,NA,NA,NA,NA
76248,Tarrant County,TX,NA,NA,92.35382308845578,NA,NA
76302,Wichita County,TX,NA,NA,71.2143928035982,NA,NA
76446,Erath County,TX,NA,NA,90.70464767616193,NA,NA
76501,Bell County,TX,15.41095890410959,NA,17.09145427286357,NA,NA
76502,Bell County,TX,NA,15.81769436997319,NA,38.80952380952381,NA
76513,Bell County,TX,28.08219178082192,NA,9.295352323838081,NA,NA
76528,Coryell County,TX,NA,NA,31.484257871064468,21.19047619047619,NA
76537,Williamson County,TX,93.4931506849315,NA,NA,NA,NA
76548,Bell County,TX,NA,NA,NA,25.238095238095237,NA
76571,Bell County,TX,NA,NA,NA,NA,83.42857142857143
76574,Williamson County,TX,NA,NA,NA,30.476190476190478,NA
76638,McLennan County,TX,NA,NA,100,NA,NA
76657,McLennan County,TX,NA,79.35656836461126,NA,NA,NA
76712,McLennan County,TX,22.602739726027394,NA,NA,NA,NA
76877,San Saba County,TX,NA,NA,NA,98.09523809523809,NA
77025,Harris County,TX,NA,NA,NA,74.52380952380952,NA
77028,Harris County,TX,79.45205479452055,NA,94.00299850074963,NA,NA
77029,Harris County,TX,NA,62.73458445040214,NA,NA,NA
77036,Harris County,TX,NA,26.80965147453083,NA,NA,NA
77039,Harris County,TX,NA,30.563002680965145,71.2143928035982,NA,NA
77044,Harris County,TX,NA,22.5201072386059,NA,NA,NA
77060,Harris County,TX,NA,38.8739946380697,84.70764617691154,NA,NA
77065,Harris County,TX,NA,NA,NA,49.76190476190476,NA
77073,Harris County,TX,43.83561643835616,NA,NA,NA,NA
77075,Harris County,TX,NA,NA,53.67316341829086,NA,NA
77077,Harris County,TX,69.17808219178082,NA,NA,NA,NA
77079,Harris County,TX,NA,NA,75.26236881559221,NA,NA
77085,Harris County,TX,NA,NA,85.75712143928035,NA,NA
77093,Harris County,TX,NA,32.171581769437,NA,NA,NA
77327,Liberty County,TX,45.89041095890411,NA,NA,NA,NA
77346,Harris County,TX,NA,NA,22.338830584707647,NA,NA
77414,Matagorda County,TX,NA,52.54691689008043,NA,NA,NA
77429,Harris County,TX,NA,NA,13.793103448275861,NA,NA
77437,Wharton County,TX,NA,48.793565683646115,NA,NA,NA
77488,Wharton County,TX,96.91780821917808,NA,NA,NA,NA
77498,Fort Bend County,TX,NA,NA,57.271364317841076,NA,NA
77504,Harris County,TX,NA,20.91152815013405,NA,NA,NA
77511,Brazoria County,TX,NA,28.686327077747993,48.125937031484256,NA,NA
77517,Galveston County,TX,NA,NA,86.95652173913044,NA,NA
77530,Harris County,TX,NA,57.9088471849866,NA,NA,NA
77550,Galveston County,TX,NA,NA,NA,21.428571428571427,16
77551,Galveston County,TX,38.013698630136986,41.28686327077748,NA,NA,NA
77554,Galveston County,TX,NA,NA,NA,53.333333333333336,NA
77568,Galveston County,TX,NA,43.69973190348526,NA,NA,NA
77573,Galveston County,TX,NA,NA,11.244377811094452,NA,NA
77587,Harris County,TX,NA,84.1823056300268,NA,NA,NA
77590,Galveston County,TX,NA,56.30026809651475,NA,NA,NA
77591,Galveston County,TX,NA,NA,NA,52.61904761904762,NA
77598,Harris County,TX,NA,67.29222520107238,NA,NA,NA
77642,Jefferson County,TX,NA,33.51206434316354,NA,NA,NA
77706,Jefferson County,TX,NA,82.84182305630027,NA,NA,NA
77836,Burleson County,TX,NA,NA,68.51574212893553,NA,NA
77840,Brazos County,TX,NA,69.97319034852548,NA,NA,NA
77859,Robertson County,TX,NA,NA,NA,93.80952380952381,NA
78043,Webb County,TX,NA,24.396782841823057,NA,NA,NA
78046,Webb County,TX,NA,2.949061662198391,NA,NA,NA
78132,Comal County,TX,NA,84.71849865951742,NA,NA,NA
78203,Bexar County,TX,NA,NA,89.05547226386807,NA,NA
78207,Bexar County,TX,NA,6.166219839142091,NA,NA,NA
78210,Bexar County,TX,NA,NA,NA,56.42857142857143,NA
78211,Bexar County,TX,NA,26.273458445040216,NA,NA,NA
78213,Bexar County,TX,NA,NA,NA,95.71428571428572,NA
78216,Bexar County,TX,NA,77.21179624664879,NA,NA,NA
78228,Bexar County,TX,NA,NA,NA,NA,39.42857142857143
78242,Bexar County,TX,NA,19.302949061662197,NA,NA,NA
78252,Bexar County,TX,NA,60.58981233243968,NA,NA,NA
78254,Bexar County,TX,18.835616438356166,NA,NA,NA,NA
78264,Bexar County,TX,NA,90.0804289544236,NA,NA,NA
78557,Hidalgo County,TX,NA,17.962466487935657,NA,NA,NA
78577,Hidalgo County,TX,NA,1.6085790884718498,NA,NA,NA
78611,Burnet County,TX,NA,NA,NA,NA,65.14285714285715
78628,Williamson County,TX,NA,NA,NA,NA,6.2857142857142865
78634,Williamson County,TX,81.5068493150685,NA,NA,NA,NA
78639,Llano County,TX,NA,NA,NA,51.90476190476191,NA
78641,Williamson County,TX,NA,NA,22.938530734632685,NA,NA
78654,Burnet County,TX,NA,NA,NA,47.14285714285714,NA
78665,Williamson County,TX,NA,78.82037533512064,NA,NA,NA
78704,Travis County,TX,NA,NA,NA,95.23809523809523,NA
78729,Williamson County,TX,NA,87.66756032171583,NA,NA,NA
78748,Travis County,TX,NA,NA,NA,71.42857142857143,NA
78750,Travis County,TX,NA,NA,NA,NA,69.71428571428572
78757,Travis County,TX,NA,NA,90.70464767616193,NA,NA
79316,Terry County,TX,67.46575342465754,NA,NA,NA,NA
79423,Lubbock County,TX,NA,21.179624664879356,NA,NA,NA
84037,Davis County,UT,NA,NA,69.56521739130434,NA,NA
84040,Davis County,UT,NA,NA,76.91154422788605,NA,NA
84054,Davis County,UT,NA,NA,NA,79.76190476190477,NA
84057,Utah County,UT,52.73972602739726,NA,NA,NA,NA
84065,Salt Lake County,UT,NA,NA,40.479760119940025,81.66666666666667,NA
84074,Tooele County,UT,26.36986301369863,NA,22.038980509745127,NA,NA
84078,Uintah County,UT,4.4520547945205475,NA,NA,NA,NA
84088,Salt Lake County,UT,46.57534246575342,NA,39.73013493253374,NA,NA
84092,Salt Lake County,UT,NA,NA,NA,NA,81.71428571428572
84095,Salt Lake County,UT,19.863013698630137,NA,NA,NA,NA
84096,Salt Lake County,UT,32.19178082191781,NA,28.635682158920538,NA,NA
84098,Summit County,UT,96.23287671232876,NA,68.06596701649175,NA,NA
84103,Salt Lake County,UT,NA,NA,NA,75.71428571428571,NA
84116,Salt Lake County,UT,NA,NA,NA,85.47619047619047,NA
84120,Salt Lake County,UT,NA,NA,NA,28.809523809523807,NA
84128,Salt Lake County,UT,NA,NA,41.52923538230884,NA,NA
84337,Box Elder County,UT,NA,NA,91.904047976012,NA,NA
84414,Weber County,UT,NA,NA,NA,95.95238095238095,NA
05001,Windsor County,VT,NA,NA,94.30284857571213,NA,NA
05060,Orange County,VT,NA,NA,NA,NA,93.71428571428572
05091,Windsor County,VT,NA,NA,NA,97.14285714285714,NA
05201,Bennington County,VT,NA,NA,50.524737631184415,NA,NA
05446,Chittenden County,VT,NA,NA,NA,NA,77.14285714285715
05450,Franklin County,VT,NA,NA,NA,NA,97.71428571428571
05452,Chittenden County,VT,NA,NA,NA,44.047619047619044,NA
05477,Chittenden County,VT,NA,NA,NA,97.85714285714285,NA
22192,Prince William County,VA,NA,NA,20.239880059970012,NA,NA
22701,Culpeper County,VA,NA,NA,NA,26.42857142857143,NA
22802,Harrisonburg city,VA,NA,38.069705093833775,NA,NA,NA
22963,Fluvanna County,VA,NA,NA,NA,56.19047619047619,NA
22968,Greene County,VA,NA,NA,65.36731634182908,NA,NA
23220,Richmond city,VA,NA,NA,64.91754122938531,58.57142857142858,NA
23233,Henrico County,VA,NA,NA,NA,78.33333333333333,NA
23235,Chesterfield County,VA,58.56164383561644,NA,NA,NA,NA
23322,Chesapeake city,VA,NA,NA,NA,63.57142857142857,NA
23452,Virginia Beach city,VA,NA,NA,58.17091454272864,NA,NA
23661,Hampton city,VA,NA,NA,NA,66.66666666666666,NA
23669,Hampton city,VA,NA,NA,NA,NA,21.714285714285715
23831,Chesterfield County,VA,NA,NA,NA,NA,57.14285714285714
23970,Mecklenburg County,VA,NA,NA,NA,86.66666666666667,NA
24019,Roanoke County,VA,NA,NA,NA,36.904761904761905,NA
24171,Patrick County,VA,NA,94.36997319034852,NA,NA,NA
98003,King County,WA,NA,NA,30.584707646176913,NA,NA
98004,King County,WA,NA,NA,74.5127436281859,NA,NA
98006,King County,WA,NA,NA,60.41979010494752,NA,NA
98008,King County,WA,NA,NA,NA,73.33333333333333,NA
98012,Snohomish County,WA,NA,NA,NA,36.42857142857142,NA
98020,Snohomish County,WA,NA,NA,84.1079460269865,NA,NA
98021,Snohomish County,WA,50.68493150684932,NA,NA,NA,NA
98023,King County,WA,NA,NA,NA,20.952380952380953,NA
98030,King County,WA,NA,NA,NA,47.85714285714286,NA
98031,King County,WA,NA,NA,43.47826086956522,NA,NA
98034,King County,WA,NA,NA,NA,20.238095238095237,NA
98038,King County,WA,NA,72.11796246648794,NA,NA,64
98040,King County,WA,NA,NA,NA,86.19047619047619,NA
98074,King County,WA,NA,NA,86.80659670164917,NA,NA
98102,King County,WA,NA,NA,NA,70.71428571428572,NA
98104,King County,WA,NA,NA,48.7256371814093,46.19047619047619,89.14285714285714
98105,King County,WA,NA,NA,81.55922038980509,NA,NA
98107,King County,WA,NA,NA,69.86506746626686,NA,NA
98109,King County,WA,NA,NA,93.85307346326837,NA,NA
98112,King County,WA,72.6027397260274,NA,NA,NA,NA
98115,King County,WA,34.93150684931507,NA,NA,NA,NA
98118,King County,WA,NA,52.01072386058981,NA,NA,NA
98122,King County,WA,NA,NA,60.569715142428784,NA,NA
98125,King County,WA,NA,NA,NA,43.333333333333336,NA
98146,King County,WA,NA,NA,NA,41.42857142857143,NA
98155,King County,WA,NA,NA,46.92653673163419,NA,NA
98201,Snohomish County,WA,NA,NA,51.12443778110944,NA,NA
98208,Snohomish County,WA,NA,NA,NA,36.19047619047619,NA
98223,Snohomish County,WA,NA,NA,NA,NA,54.85714285714286
98233,Skagit County,WA,73.97260273972603,NA,NA,NA,NA
98273,Skagit County,WA,47.94520547945205,NA,29.83508245877061,23.809523809523807,NA
98274,Skagit County,WA,NA,61.66219839142091,NA,NA,NA
98284,Skagit County,WA,76.02739726027397,60.32171581769437,NA,NA,NA
98292,Snohomish County,WA,56.16438356164384,NA,NA,NA,NA
98311,Kitsap County,WA,NA,NA,85.00749625187406,NA,NA
98366,Kitsap County,WA,NA,NA,74.66266866566717,NA,NA
98371,Pierce County,WA,NA,NA,NA,96.66666666666667,NA
98372,Pierce County,WA,NA,NA,NA,62.142857142857146,NA
98382,Clallam County,WA,NA,NA,NA,4.523809523809524,NA
98422,Pierce County,WA,NA,NA,64.76761619190404,NA,NA
98577,Pacific County,WA,NA,NA,NA,97.38095238095238,NA
98625,Cowlitz County,WA,NA,NA,NA,96.19047619047619,NA
98626,Cowlitz County,WA,NA,55.76407506702413,74.96251874062968,NA,NA
98632,Cowlitz County,WA,NA,NA,NA,39.04761904761905,8
98801,Chelan County,WA,NA,NA,NA,12.142857142857142,13.714285714285715
98837,Grant County,WA,NA,NA,NA,40.23809523809524,NA
98948,Yakima County,WA,NA,67.29222520107238,NA,NA,NA
99203,Spokane County,WA,NA,NA,NA,92.38095238095238,NA
99301,Franklin County,WA,NA,4.825737265415549,NA,NA,NA
99336,Benton County,WA,NA,NA,79.76011994002998,NA,NA
99352,Benton County,WA,NA,54.6916890080429,42.87856071964018,65.47619047619048,9.142857142857142
99353,Benton County,WA,NA,NA,NA,64.04761904761904,NA
99354,Benton County,WA,NA,NA,43.77811094452774,NA,NA
20007,District of Columbia,DC,NA,99.73190348525469,NA,NA,NA
20011,District of Columbia,DC,NA,NA,NA,19.761904761904763,NA
20012,District of Columbia,DC,NA,80.42895442359249,NA,NA,NA
20016,District of Columbia,DC,NA,NA,73.01349325337331,NA,NA
20024,District of Columbia,DC,NA,71.58176943699732,NA,NA,NA
20032,District of Columbia,DC,NA,NA,25.937031484257872,NA,NA
24740,Mercer County,WV,NA,NA,33.13343328335832,NA,NA
25276,Roane County,WV,NA,NA,56.67166416791605,NA,NA
26062,Hancock County,WV,NA,NA,13.193403298350825,NA,NA
26330,Harrison County,WV,73.28767123287672,NA,75.56221889055472,38.57142857142858,NA
26354,Taylor County,WV,NA,NA,NA,NA,61.142857142857146
26505,Monongalia County,WV,NA,NA,37.631184407796106,NA,NA
26508,Monongalia County,WV,NA,NA,NA,9.047619047619047,NA
26554,Marion County,WV,NA,34.584450402144775,22.788605697151425,NA,NA
26704,Hampshire County,WV,NA,NA,NA,94.28571428571428,NA
53024,Ozaukee County,WI,77.05479452054794,NA,NA,NA,NA
53045,Waukesha County,WI,38.6986301369863,100,NA,NA,NA
53051,Waukesha County,WI,16.78082191780822,NA,NA,NA,NA
53072,Waukesha County,WI,37.67123287671233,NA,NA,48.80952380952381,NA
53085,Sheboygan County,WI,NA,NA,NA,NA,85.14285714285714
53092,Ozaukee County,WI,83.21917808219177,NA,NA,NA,NA
53095,Washington County,WI,20.54794520547945,NA,NA,NA,NA
53098,Dodge County,WI,NA,NA,NA,NA,63.42857142857142
53105,Racine County,WI,89.38356164383562,NA,NA,NA,NA
53110,Milwaukee County,WI,NA,NA,33.88305847076462,NA,NA
53118,Waukesha County,WI,NA,NA,NA,92.85714285714286,NA
53121,Walworth County,WI,42.465753424657535,NA,NA,69.76190476190476,NA
53128,Walworth County,WI,73.63013698630137,NA,NA,NA,NA
53132,Milwaukee County,WI,57.87671232876712,83.37801608579089,NA,80.71428571428572,NA
53149,Waukesha County,WI,NA,NA,NA,NA,72.57142857142857
53150,Waukesha County,WI,90.75342465753424,NA,NA,NA,NA
53151,Waukesha County,WI,61.986301369863014,NA,NA,NA,NA
53172,Milwaukee County,WI,NA,90.61662198391421,NA,NA,NA
53185,Racine County,WI,70.8904109589041,NA,NA,NA,NA
53188,Waukesha County,WI,NA,70.50938337801608,NA,NA,NA
53189,Waukesha County,WI,NA,NA,93.25337331334332,NA,NA
53202,Milwaukee County,WI,NA,NA,NA,52.38095238095239,NA
53207,Milwaukee County,WI,78.08219178082192,NA,NA,NA,NA
53208,Milwaukee County,WI,NA,21.715817694369974,NA,NA,NA
53209,Milwaukee County,WI,1.36986301369863,NA,NA,NA,NA
53210,Milwaukee County,WI,NA,20.37533512064343,NA,NA,NA
53213,Milwaukee County,WI,NA,NA,92.05397301349325,NA,NA
53215,Milwaukee County,WI,2.054794520547945,NA,NA,NA,NA
53217,Milwaukee County,WI,NA,NA,37.78110944527736,NA,NA
53220,Milwaukee County,WI,NA,NA,NA,33.57142857142857,NA
53222,Milwaukee County,WI,95.8904109589041,NA,NA,NA,NA
53223,Milwaukee County,WI,NA,40.48257372654155,NA,NA,NA
53227,Milwaukee County,WI,84.24657534246576,NA,NA,NA,NA
53536,Rock County,WI,NA,NA,NA,88.80952380952381,NA
53545,Rock County,WI,NA,NA,NA,79.52380952380952,NA
53551,Jefferson County,WI,NA,NA,NA,NA,86.28571428571429
53558,Dane County,WI,NA,NA,88.00599700149925,NA,NA
53562,Dane County,WI,NA,NA,NA,NA,41.14285714285714
53597,Dane County,WI,45.54794520547945,NA,NA,NA,NA
53704,Dane County,WI,NA,NA,NA,56.904761904761905,NA
53705,Dane County,WI,NA,NA,NA,NA,26.285714285714285
53714,Dane County,WI,NA,NA,96.10194902548726,NA,NA
53916,Dodge County,WI,NA,49.597855227882036,89.95502248875562,52.142857142857146,NA
54005,Polk County,WI,93.4931506849315,NA,NA,NA,NA
54017,St. Croix County,WI,31.84931506849315,NA,NA,NA,NA
54020,Polk County,WI,NA,NA,76.31184407796103,NA,NA
54110,Calumet County,WI,NA,NA,97.4512743628186,NA,NA
54311,Brown County,WI,NA,NA,71.81409295352323,NA,NA
54457,Wood County,WI,NA,NA,NA,NA,76
54481,Portage County,WI,NA,NA,NA,25,NA
54482,Portage County,WI,NA,NA,NA,66.9047619047619,NA
54521,Vilas County,WI,NA,NA,NA,77.38095238095238,NA
54601,La Crosse County,WI,NA,32.707774798927616,NA,18.095238095238095,0.5714285714285714
54630,Trempealeau County,WI,NA,NA,NA,88.09523809523809,NA
54636,La Crosse County,WI,NA,NA,87.40629685157421,NA,NA
54650,La Crosse County,WI,NA,NA,NA,NA,10.285714285714285
54755,Buffalo County,WI,NA,NA,NA,NA,88
54822,Barron County,WI,NA,98.65951742627345,NA,NA,NA
82633,Converse County,WY,NA,NA,83.80809595202399,NA,NA
