ZipCode,county,state,Youth,Pediatric,Adult
35040,Shelby County,AL,NA,71.64179104477611,NA
35216,Jefferson County,AL,39.671361502347416,NA,NA
35404,Tuscaloosa County,AL,NA,NA,15.905743740795286
35549,Walker County,AL,NA,98.50746268656717,NA
35603,Morgan County,AL,22.065727699530516,NA,NA
35611,Limestone County,AL,16.666666666666664,NA,NA
35673,Morgan County,AL,NA,NA,87.48159057437408
35756,Limestone County,AL,NA,NA,92.63622974963181
35769,Jackson County,AL,NA,90.54726368159204,NA
35773,Madison County,AL,NA,NA,68.48306332842415
35801,Madison County,AL,NA,NA,72.45949926362297
35824,Madison County,AL,96.47887323943662,NA,NA
35950,Marshall County,AL,64.7887323943662,NA,NA
36027,Barbour County,AL,65.25821596244131,NA,NA
36067,Autauga County,AL,21.830985915492956,NA,NA
36116,Montgomery County,AL,NA,29.35323383084577,NA
36117,Montgomery County,AL,29.107981220657276,NA,NA
36264,Cleburne County,AL,NA,88.05970149253731,NA
36350,Dale County,AL,NA,NA,90.57437407952872
36530,Baldwin County,AL,87.08920187793427,NA,NA
36582,Mobile County,AL,NA,65.67164179104478,NA
36609,Mobile County,AL,NA,76.11940298507463,NA
36874,Lee County,AL,NA,NA,88.07069219440353
99504,Anchorage Municipality,AK,NA,NA,20.765832106038292
99507,Anchorage Municipality,AK,NA,NA,33.43151693667157
99611,Kenai Peninsula Borough,AK,NA,NA,72.60677466863034
99701,Fairbanks North Star Borough,AK,51.87793427230047,NA,NA
85009,Maricopa County,AZ,NA,7.462686567164178,NA
85014,Maricopa County,AZ,70.65727699530517,NA,NA
85015,Maricopa County,AZ,NA,23.383084577114428,NA
85023,Maricopa County,AZ,NA,NA,27.098674521354933
85040,Maricopa County,AZ,NA,NA,18.998527245949926
85041,Maricopa County,AZ,NA,NA,8.541973490427099
85044,Maricopa County,AZ,33.33333333333333,NA,NA
85048,Maricopa County,AZ,NA,NA,52.57731958762887
85138,Pinal County,AZ,NA,49.75124378109453,NA
85202,Maricopa County,AZ,31.455399061032864,NA,NA
85203,Maricopa County,AZ,NA,36.81592039800995,37.4079528718704
85204,Maricopa County,AZ,9.389671361502346,NA,NA
85206,Maricopa County,AZ,NA,NA,77.02503681885126
85210,Maricopa County,AZ,NA,31.8407960199005,NA
85224,Maricopa County,AZ,30.046948356807512,NA,NA
85301,Maricopa County,AZ,3.9906103286384975,NA,5.44918998527246
85308,Maricopa County,AZ,NA,NA,34.31516936671576
85363,Maricopa County,AZ,NA,NA,96.61266568483063
85364,Yuma County,AZ,NA,NA,18.409425625920473
85392,Maricopa County,AZ,NA,NA,58.32106038291606
85705,Pima County,AZ,NA,NA,3.829160530191458
85706,Pima County,AZ,NA,3.482587064676617,NA
85710,Pima County,AZ,NA,NA,34.46244477172312
85711,Pima County,AZ,3.286384976525822,NA,NA
85715,Pima County,AZ,82.62910798122066,NA,NA
85730,Pima County,AZ,NA,NA,25.47864506627393
85757,Pima County,AZ,47.183098591549296,NA,NA
85925,Apache County,AZ,69.48356807511738,NA,NA
86004,Coconino County,AZ,NA,NA,6.480117820324007
86021,Mohave County,AZ,NA,NA,98.67452135493373
86040,Coconino County,AZ,NA,NA,66.56848306332842
86047,Navajo County,AZ,52.347417840375584,NA,NA
71913,Garland County,AR,13.380281690140844,NA,38.144329896907216
72002,Saline County,AR,NA,NA,69.95581737849778
72015,Saline County,AR,NA,NA,57.437407952871865
72022,Saline County,AR,63.84976525821596,NA,NA
72150,Grant County,AR,84.50704225352112,NA,NA
72315,Mississippi County,AR,NA,NA,56.25920471281296
72834,Yell County,AR,91.54929577464789,NA,NA
90011,Los Angeles County,CA,NA,8.955223880597014,NA
90023,Los Angeles County,CA,NA,30.845771144278604,NA
90201,Los Angeles County,CA,NA,NA,29.749631811487482
90212,Los Angeles County,CA,NA,NA,89.54344624447718
90250,Los Angeles County,CA,NA,22.885572139303484,75.25773195876289
90293,Los Angeles County,CA,91.54929577464789,NA,NA
90631,Orange County,CA,NA,NA,35.198821796759944
90740,Orange County,CA,79.81220657276995,NA,NA
91011,Los Angeles County,CA,72.30046948356808,NA,NA
91205,Los Angeles County,CA,81.92488262910797,NA,NA
91320,Ventura County,CA,37.32394366197183,NA,NA
91360,Ventura County,CA,NA,NA,65.39027982326951
91607,Los Angeles County,CA,NA,NA,93.96170839469808
91730,San Bernardino County,CA,NA,NA,19.145802650957293
91762,San Bernardino County,CA,NA,NA,34.609720176730484
92009,San Diego County,CA,49.53051643192488,NA,67.30486008836525
92024,San Diego County,CA,NA,NA,41.67893961708395
92103,San Diego County,CA,NA,NA,48.45360824742268
92110,San Diego County,CA,NA,NA,60.382916053019144
92118,San Diego County,CA,NA,NA,92.48895434462445
92223,Riverside County,CA,NA,NA,28.424153166421206
92236,Riverside County,CA,NA,NA,45.80265095729013
92314,San Bernardino County,CA,NA,NA,85.86156111929307
92346,San Bernardino County,CA,NA,NA,25.920471281296027
92505,Riverside County,CA,59.859154929577464,NA,NA
92506,Riverside County,CA,NA,NA,74.22680412371135
92570,Riverside County,CA,NA,NA,43.59351988217968
92583,Riverside County,CA,NA,NA,64.50662739322533
92656,Orange County,CA,29.577464788732392,NA,NA
92660,Orange County,CA,NA,NA,91.899852724595
92677,Orange County,CA,54.929577464788736,NA,NA
92679,Orange County,CA,NA,NA,62.73932253313696
92691,Orange County,CA,73.23943661971832,NA,NA
92694,Orange County,CA,NA,NA,59.3519882179676
92807,Orange County,CA,NA,NA,81.44329896907216
92880,Riverside County,CA,NA,NA,21.06038291605302
93003,Ventura County,CA,36.15023474178404,NA,NA
93015,Ventura County,CA,24.413145539906104,NA,71.1340206185567
93235,Tulare County,CA,NA,96.51741293532339,NA
93312,Kern County,CA,NA,NA,39.617083946980856
93401,San Luis Obispo County,CA,NA,NA,59.3519882179676
93420,San Luis Obispo County,CA,NA,NA,69.0721649484536
93436,Santa Barbara County,CA,9.624413145539906,11.940298507462686,NA
93501,Kern County,CA,NA,NA,98.08541973490426
93618,Tulare County,CA,NA,25.870646766169152,NA
93636,Madera County,CA,81.69014084507043,NA,NA
93637,Madera County,CA,26.291079812206576,NA,NA
93702,Fresno County,CA,NA,NA,63.62297496318114
93710,Fresno County,CA,53.990610328638496,NA,NA
93730,Fresno County,CA,78.87323943661971,NA,NA
93905,Monterey County,CA,NA,NA,37.84977908689249
93906,Monterey County,CA,NA,NA,40.20618556701031
94066,San Mateo County,CA,NA,NA,45.65537555228277
94089,Santa Clara County,CA,88.96713615023474,NA,NA
94117,San Francisco County,CA,NA,NA,36.37702503681885
94123,San Francisco County,CA,NA,NA,65.24300441826215
94505,Contra Costa County,CA,NA,NA,85.71428571428571
94544,Alameda County,CA,NA,NA,68.92488954344624
94553,Contra Costa County,CA,NA,NA,43.446244477172314
94558,Napa County,CA,NA,NA,30.191458026509572
94561,Contra Costa County,CA,NA,NA,73.34315169366715
94583,Contra Costa County,CA,NA,NA,55.08100147275405
94705,Alameda County,CA,NA,NA,95.58173784977909
95008,Santa Clara County,CA,70.89201877934272,NA,NA
95119,Santa Clara County,CA,NA,NA,99.26362297496318
95252,Calaveras County,CA,NA,NA,81.88512518409425
95307,Stanislaus County,CA,NA,NA,31.516936671575845
95340,Merced County,CA,44.835680751173705,NA,NA
95350,Stanislaus County,CA,NA,42.28855721393035,NA
95360,Stanislaus County,CA,NA,NA,81.2960235640648
95457,Lake County,CA,NA,98.00995024875621,NA
95501,Humboldt County,CA,NA,NA,55.81737849779087
95519,Humboldt County,CA,NA,NA,90.279823269514
95630,Sacramento County,CA,NA,NA,25.625920471281294
95683,Sacramento County,CA,96.71361502347418,NA,NA
95747,Placer County,CA,NA,NA,41.82621502209131
95758,Sacramento County,CA,NA,NA,56.70103092783505
95928,Butte County,CA,NA,NA,86.5979381443299
95969,Butte County,CA,NA,NA,30.486008836524302
96130,Lassen County,CA,NA,NA,76.28865979381443
80016,Arapahoe County,CO,NA,NA,22.23858615611193
80108,Douglas County,CO,NA,NA,51.546391752577314
80121,Arapahoe County,CO,NA,NA,93.37260677466863
80129,Douglas County,CO,39.201877934272304,NA,NA
80202,Denver County,CO,NA,NA,55.37555228276878
80207,Denver County,CO,25.586854460093893,NA,NA
80209,Denver County,CO,NA,NA,64.94845360824742
80219,Denver County,CO,NA,5.472636815920398,NA
80222,Denver County,CO,NA,NA,43.888070692194404
80224,Denver County,CO,NA,NA,65.09572901325478
80227,Jefferson County,CO,NA,NA,60.824742268041234
80232,Jefferson County,CO,NA,NA,78.0559646539028
80233,Adams County,CO,15.492957746478872,NA,NA
80234,Adams County,CO,NA,NA,64.50662739322533
80260,Adams County,CO,NA,20.398009950248756,NA
80524,Larimer County,CO,23.239436619718308,NA,NA
80534,Weld County,CO,NA,NA,70.69219440353461
80549,Larimer County,CO,77.23004694835682,NA,NA
80602,Adams County,CO,8.685446009389672,NA,NA
80603,Weld County,CO,NA,83.5820895522388,NA
80615,Weld County,CO,75.35211267605634,NA,NA
80634,Weld County,CO,NA,NA,16.642120765832104
80751,Logan County,CO,38.26291079812207,NA,NA
80807,Kit Carson County,CO,98.12206572769952,NA,NA
80817,El Paso County,CO,NA,NA,56.553755522827686
80909,El Paso County,CO,NA,35.32338308457712,NA
80911,El Paso County,CO,NA,NA,42.56259204712813
81419,Delta County,CO,NA,95.52238805970148,NA
81632,Eagle County,CO,NA,NA,98.8217967599411
06032,Hartford County,CT,NA,NA,78.4977908689249
06042,Hartford County,CT,NA,NA,38.88070692194404
06118,Hartford County,CT,NA,NA,24.30044182621502
06241,Windham County,CT,NA,78.60696517412936,NA
06606,Fairfield County,CT,NA,38.80597014925373,NA
06608,Fairfield County,CT,NA,NA,65.8321060382916
06611,Fairfield County,CT,70.18779342723005,NA,77.31958762886599
06704,New Haven County,CT,11.267605633802818,NA,NA
06790,Litchfield County,CT,NA,NA,6.332842415316642
06878,Fairfield County,CT,85.2112676056338,NA,NA
19808,New Castle County,DE,NA,NA,21.79675994108984
32068,Clay County,FL,22.300469483568076,NA,NA
32082,St. Johns County,FL,NA,NA,60.53019145802651
32095,St. Johns County,FL,69.95305164319248,NA,NA
32097,Nassau County,FL,NA,NA,59.64653902798233
32168,Volusia County,FL,NA,73.6318407960199,NA
32210,Duval County,FL,NA,NA,4.712812960235641
32211,Duval County,FL,NA,NA,20.471281296023562
32218,Duval County,FL,NA,NA,4.123711340206185
32219,Duval County,FL,NA,NA,46.98085419734904
32225,Duval County,FL,NA,NA,28.276877761413843
32226,Duval County,FL,NA,86.56716417910447,NA
32259,St. Johns County,FL,NA,NA,45.9499263622975
32321,Liberty County,FL,NA,69.65174129353234,NA
32404,Bay County,FL,36.61971830985916,NA,NA
32405,Bay County,FL,NA,NA,26.215022091310754
32442,Jackson County,FL,NA,93.53233830845771,NA
32535,Escambia County,FL,76.29107981220658,NA,NA
32601,Alachua County,FL,NA,NA,82.76877761413843
32765,Seminole County,FL,NA,NA,59.64653902798233
32825,Orange County,FL,NA,NA,31.075110456553755
32832,Orange County,FL,67.6056338028169,NA,NA
32907,Brevard County,FL,NA,NA,49.48453608247423
33010,Miami-Dade County,FL,NA,26.368159203980102,NA
33012,Miami-Dade County,FL,34.037558685446015,11.442786069651742,NA
33062,Broward County,FL,NA,NA,72.60677466863034
33131,Miami-Dade County,FL,NA,NA,92.34167893961708
33142,Miami-Dade County,FL,NA,NA,53.166421207658324
33149,Miami-Dade County,FL,NA,NA,97.64359351988217
33157,Miami-Dade County,FL,NA,NA,35.051546391752574
33175,Miami-Dade County,FL,NA,NA,58.91016200294551
33187,Miami-Dade County,FL,NA,NA,80.55964653902798
33304,Broward County,FL,NA,97.01492537313433,NA
33415,Palm Beach County,FL,NA,NA,44.47717231222386
33458,Palm Beach County,FL,NA,NA,23.711340206185564
33461,Palm Beach County,FL,47.652582159624416,NA,NA
33469,Palm Beach County,FL,NA,NA,92.93078055964654
33511,Hillsborough County,FL,NA,NA,38.291605301914586
33525,Pasco County,FL,NA,NA,71.72312223858616
33534,Hillsborough County,FL,NA,NA,74.52135493372607
33542,Pasco County,FL,NA,NA,58.615611192930785
33597,Sumter County,FL,NA,82.08955223880598,NA
33610,Hillsborough County,FL,NA,17.412935323383085,14.727540500736378
33708,Pinellas County,FL,NA,NA,90.86892488954345
33713,Pinellas County,FL,NA,41.7910447761194,NA
33801,Polk County,FL,NA,NA,22.827687776141385
33884,Polk County,FL,NA,NA,61.56111929307806
33973,Lee County,FL,NA,55.72139303482587,NA
33990,Lee County,FL,63.14553990610329,NA,NA
33993,Lee County,FL,40.61032863849765,NA,NA
34102,Collier County,FL,NA,NA,91.4580265095729
34103,Collier County,FL,NA,NA,91.75257731958763
34110,Collier County,FL,NA,NA,79.97054491899853
34135,Lee County,FL,NA,NA,51.69366715758469
34238,Sarasota County,FL,77.23004694835682,NA,NA
34431,Marion County,FL,NA,NA,89.83799705449191
34446,Citrus County,FL,90.14084507042254,NA,NA
34609,Hernando County,FL,NA,NA,30.927835051546392
34652,Pasco County,FL,NA,43.28358208955223,NA
34668,Pasco County,FL,NA,NA,11.929307805596466
34711,Lake County,FL,NA,NA,21.354933726067745
34748,Lake County,FL,NA,NA,19.734904270986746
34759,Polk County,FL,NA,18.407960199004975,NA
34972,Okeechobee County,FL,NA,58.2089552238806,NA
34986,St. Lucie County,FL,NA,NA,51.25184094256259
34996,Martin County,FL,NA,NA,87.18703976435935
30022,Fulton County,GA,NA,90.54726368159204,NA
30024,Gwinnett County,GA,NA,NA,20.3240058910162
30025,Walton County,GA,NA,NA,77.46686303387335
30039,Gwinnett County,GA,NA,NA,73.49042709867453
30040,Forsyth County,GA,NA,NA,25.331369661266567
30041,Forsyth County,GA,NA,NA,27.540500736377027
30043,Gwinnett County,GA,NA,47.2636815920398,NA
30047,Gwinnett County,GA,NA,54.72636815920397,NA
30052,Walton County,GA,34.27230046948357,NA,NA
30062,Cobb County,GA,NA,NA,45.06627393225332
30064,Cobb County,GA,NA,NA,64.06480117820324
30068,Cobb County,GA,NA,NA,74.8159057437408
30084,DeKalb County,GA,NA,NA,64.80117820324006
30088,DeKalb County,GA,NA,51.741293532338304,NA
30102,Cherokee County,GA,NA,NA,49.337260677466865
30103,Bartow County,GA,NA,86.06965174129353,NA
30114,Cherokee County,GA,NA,NA,69.36671575846833
30117,Carroll County,GA,NA,NA,32.695139911634755
30132,Paulding County,GA,NA,NA,32.54786450662739
30135,Douglas County,GA,NA,NA,14.432989690721648
30153,Polk County,GA,NA,NA,42.56259204712813
30161,Floyd County,GA,4.929577464788732,NA,NA
30206,Pike County,GA,97.41784037558685,NA,NA
30238,Clayton County,GA,NA,42.78606965174129,NA
30276,Coweta County,GA,78.16901408450704,NA,NA
30329,DeKalb County,GA,NA,60.19900497512438,NA
30339,Cobb County,GA,NA,NA,76.73048600883654
30439,Candler County,GA,67.13615023474179,NA,NA
30457,Treutlen County,GA,84.74178403755869,NA,NA
30507,Hall County,GA,NA,NA,45.50810014727541
30518,Gwinnett County,GA,NA,NA,71.5758468335788
30528,White County,GA,57.74647887323944,77.61194029850746,NA
30542,Hall County,GA,NA,NA,55.670103092783506
30560,Fannin County,GA,93.89671361502347,NA,NA
30577,Stephens County,GA,NA,NA,47.864506627393226
30728,Walker County,GA,NA,NA,37.55522827687776
30739,Walker County,GA,88.49765258215963,NA,NA
30741,Walker County,GA,NA,NA,54.49189985272459
30753,Chattooga County,GA,NA,93.53233830845771,NA
30808,McDuffie County,GA,94.36619718309859,NA,NA
30809,Columbia County,GA,25.11737089201878,NA,NA
30814,Columbia County,GA,NA,NA,80.11782032400589
31008,Peach County,GA,NA,78.60696517412936,NA
31032,Jones County,GA,85.91549295774648,NA,NA
31324,Bryan County,GA,NA,NA,80.26509572901325
31503,Ware County,GA,NA,74.12935323383084,NA
31545,Wayne County,GA,44.13145539906103,NA,NA
31548,Camden County,GA,NA,NA,60.08836524300442
31601,Lowndes County,GA,25.821596244131456,NA,NA
31605,Lowndes County,GA,57.51173708920187,NA,NA
31820,Muscogee County,GA,68.7793427230047,NA,NA
39845,Seminole County,GA,NA,92.03980099502488,NA
96707,Honolulu County,HI,NA,NA,36.08247422680412
96768,Maui County,HI,NA,NA,87.33431516936672
83402,Bonneville County,ID,1.8779342723004695,NA,NA
83467,Lemhi County,ID,90.84507042253522,NA,NA
83501,Nez Perce County,ID,NA,NA,14.580265095729015
83702,Ada County,ID,NA,NA,29.307805596465393
83815,Kootenai County,ID,NA,NA,36.22974963181149
83843,Latah County,ID,23.004694835680752,NA,NA
60007,Cook County,IL,NA,NA,93.51988217967599
60025,Cook County,IL,NA,NA,45.21354933726068
60030,Lake County,IL,63.38028169014085,NA,44.918998527245954
60041,Lake County,IL,NA,NA,79.08689248895435
60062,Cook County,IL,NA,NA,40.058910162002945
60067,Cook County,IL,NA,NA,45.36082474226804
60074,Cook County,IL,NA,NA,43.74079528718704
60091,Cook County,IL,51.87793427230047,NA,NA
60102,McHenry County,IL,26.76056338028169,NA,NA
60106,DuPage County,IL,NA,NA,64.35935198821797
60112,DeKalb County,IL,99.06103286384976,NA,NA
60126,DuPage County,IL,12.206572769953052,NA,NA
60148,DuPage County,IL,NA,NA,15.022091310751104
60156,McHenry County,IL,32.863849765258216,NA,NA
60162,Cook County,IL,NA,NA,79.82326951399116
60185,DuPage County,IL,12.676056338028168,NA,NA
60189,DuPage County,IL,NA,NA,35.49337260677467
60191,DuPage County,IL,NA,NA,68.77761413843888
60201,Cook County,IL,33.80281690140845,NA,NA
60403,Will County,IL,NA,NA,61.70839469808542
60411,Cook County,IL,NA,NA,13.402061855670103
60416,Grundy County,IL,NA,NA,63.18114874815905
60423,Will County,IL,29.812206572769952,NA,42.2680412371134
60429,Cook County,IL,NA,NA,71.72312223858616
60439,Cook County,IL,NA,NA,46.53902798232695
60440,Will County,IL,57.981220657277,NA,NA
60441,Will County,IL,34.27230046948357,NA,NA
60450,Grundy County,IL,14.084507042253522,NA,NA
60487,Cook County,IL,50.93896713615024,NA,NA
60490,Will County,IL,NA,NA,63.03387334315169
60516,DuPage County,IL,39.906103286384976,NA,NA
60544,Will County,IL,NA,NA,38.43888070692195
60559,DuPage County,IL,NA,NA,46.391752577319586
60560,Kendall County,IL,46.244131455399064,NA,NA
60563,DuPage County,IL,43.1924882629108,NA,48.15905743740795
60564,Will County,IL,23.708920187793428,NA,NA
60614,Cook County,IL,40.61032863849765,NA,NA
60625,Cook County,IL,NA,NA,10.89837997054492
60632,Cook County,IL,NA,NA,13.991163475699558
60641,Cook County,IL,39.436619718309856,NA,NA
60643,Cook County,IL,NA,NA,8.394698085419734
60646,Cook County,IL,55.633802816901415,NA,NA
60655,Cook County,IL,19.248826291079812,NA,NA
60804,Cook County,IL,30.046948356807512,NA,NA
61008,Boone County,IL,NA,NA,33.726067746686304
61021,Lee County,IL,NA,NA,31.22238586156112
61109,Winnebago County,IL,NA,NA,47.275405007363766
61354,LaSalle County,IL,67.13615023474179,NA,NA
61705,McLean County,IL,61.267605633802816,NA,NA
61761,McLean County,IL,NA,NA,40.6480117820324
62221,St. Clair County,IL,65.25821596244131,NA,NA
62226,St. Clair County,IL,NA,NA,75.69955817378498
62521,Macon County,IL,NA,NA,12.665684830633284
62563,Sangamon County,IL,NA,NA,97.9381443298969
62650,Morgan County,IL,NA,NA,56.84830633284241
46001,Madison County,IN,83.33333333333334,NA,NA
46040,Hancock County,IN,NA,NA,95.72901325478645
46074,Hamilton County,IN,NA,NA,66.86303387334314
46123,Hendricks County,IN,NA,NA,50.36818851251841
46131,Johnson County,IN,68.30985915492957,NA,29.455081001472756
46140,Hancock County,IN,NA,61.69154228855721,NA
46227,Marion County,IN,15.96244131455399,NA,9.425625920471282
46256,Marion County,IN,78.87323943661971,NA,NA
46307,Lake County,IN,NA,NA,13.549337260677467
46319,Lake County,IN,NA,NA,25.920471281296027
46322,Lake County,IN,NA,88.05970149253731,NA
46342,Lake County,IN,NA,NA,5.743740795287187
46350,LaPorte County,IN,9.859154929577464,NA,NA
46360,LaPorte County,IN,1.643192488262911,NA,NA
46373,Lake County,IN,NA,NA,29.16053019145803
46385,Porter County,IN,NA,NA,7.216494845360824
46410,Lake County,IN,NA,NA,6.9219440353460975
46552,St. Joseph County,IN,90.61032863849765,NA,NA
46783,Huntington County,IN,NA,NA,83.50515463917526
46825,Allen County,IN,NA,NA,72.31222385861561
46947,Cass County,IN,NA,NA,12.076583210603829
46953,Grant County,IN,NA,NA,11.634756995581737
46970,Miami County,IN,NA,NA,9.867452135493373
47111,Clark County,IN,81.45539906103286,NA,NA
47201,Bartholomew County,IN,20.422535211267608,NA,NA
47220,Jackson County,IN,89.90610328638498,NA,NA
47265,Jennings County,IN,NA,NA,23.269513991163475
47302,Delaware County,IN,NA,33.83084577114428,NA
47356,Henry County,IN,NA,NA,87.48159057437408
47374,Wayne County,IN,6.103286384976526,NA,NA
47421,Lawrence County,IN,42.72300469483568,NA,34.90427098674521
47424,Greene County,IN,NA,NA,88.80706921944035
47932,Fountain County,IN,88.02816901408451,NA,NA
47993,Warren County,IN,95.30516431924883,NA,NA
50036,Boone County,IA,NA,NA,68.04123711340206
50171,Poweshiek County,IA,92.72300469483568,NA,NA
50208,Jasper County,IA,NA,74.12935323383084,NA
50317,Polk County,IA,NA,28.35820895522388,NA
50320,Polk County,IA,60.093896713615024,NA,NA
50588,Buena Vista County,IA,45.07042253521127,NA,NA
50703,Black Hawk County,IA,NA,37.81094527363184,NA
51501,Pottawattamie County,IA,NA,NA,17.378497790868924
52002,Dubuque County,IA,NA,NA,76.14138438880707
52241,Johnson County,IA,NA,NA,49.189985272459495
52402,Linn County,IA,25.352112676056336,41.29353233830846,NA
52627,Lee County,IA,45.07042253521127,NA,NA
52641,Henry County,IA,NA,72.636815920398,NA
52761,Muscatine County,IA,20.89201877934272,NA,NA
66018,Johnson County,KS,81.2206572769953,NA,NA
66062,Johnson County,KS,11.737089201877934,NA,NA
66209,Johnson County,KS,NA,NA,80.41237113402062
66720,Neosho County,KS,NA,NA,93.22533136966126
66762,Crawford County,KS,NA,99.00497512437812,NA
66801,Lyon County,KS,NA,NA,53.31369661266569
67042,Butler County,KS,79.5774647887324,NA,NA
67226,Sedgwick County,KS,NA,100,NA
67235,Sedgwick County,KS,87.32394366197182,NA,NA
67502,Reno County,KS,NA,NA,71.42857142857143
67846,Finney County,KS,43.66197183098591,NA,NA
40004,Nelson County,KY,28.169014084507044,NA,NA
40215,Jefferson County,KY,NA,NA,17.96759941089838
40220,Jefferson County,KY,NA,NA,72.01767304860088
40223,Jefferson County,KY,NA,NA,67.0103092783505
40229,Jefferson County,KY,NA,NA,41.531664212076585
40241,Jefferson County,KY,NA,NA,53.75552282768778
40291,Jefferson County,KY,41.78403755868544,NA,NA
40324,Scott County,KY,33.098591549295776,NA,NA
40515,Fayette County,KY,NA,NA,52.13549337260678
40965,Bell County,KY,NA,37.81094527363184,NA
41014,Kenton County,KY,NA,NA,56.111929307805596
41040,Pendleton County,KY,NA,NA,68.18851251840942
41042,Boone County,KY,NA,NA,5.89101620029455
41048,Boone County,KY,37.08920187793427,NA,NA
41071,Campbell County,KY,50.46948356807511,NA,NA
41075,Campbell County,KY,NA,NA,73.19587628865979
41102,Boyd County,KY,46.478873239436616,NA,NA
41143,Carter County,KY,NA,NA,43.15169366715759
41164,Carter County,KY,NA,NA,33.136966126656844
41224,Martin County,KY,80.04694835680752,NA,NA
41339,Breathitt County,KY,69.01408450704226,NA,NA
41701,Perry County,KY,NA,52.23880597014925,NA
42003,McCracken County,KY,NA,NA,15.169366715758468
42303,Daviess County,KY,20.657276995305164,35.82089552238806,NA
42351,Hancock County,KY,98.35680751173709,NA,NA
42642,Russell County,KY,NA,44.27860696517413,NA
70003,Jefferson Parish,LA,2.8169014084507045,NA,NA
70006,Jefferson Parish,LA,NA,22.388059701492537,NA
70052,St. James Parish,LA,89.67136150234741,NA,NA
70068,St. John the Baptist Parish,LA,NA,62.189054726368155,10.1620029455081
70092,St. Bernard Parish,LA,NA,NA,66.27393225331369
70094,Jefferson Parish,LA,53.52112676056338,3.9800995024875623,NA
70117,Orleans Parish,LA,NA,NA,5.154639175257731
70119,Orleans Parish,LA,7.276995305164319,NA,NA
70123,Jefferson Parish,LA,NA,NA,69.5139911634757
70124,Orleans Parish,LA,71.83098591549296,NA,NA
70301,Lafourche Parish,LA,NA,NA,15.463917525773196
70447,St. Tammany Parish,LA,41.78403755868544,NA,NA
70454,Tangipahoa Parish,LA,6.338028169014084,NA,NA
70460,St. Tammany Parish,LA,NA,NA,12.51840942562592
70501,Lafayette Parish,LA,5.633802816901409,NA,NA
70507,Lafayette Parish,LA,68.54460093896714,NA,NA
70517,St. Martin Parish,LA,NA,NA,13.25478645066274
70533,Vermilion Parish,LA,NA,NA,62.00294550810015
70591,Jefferson Davis Parish,LA,NA,NA,82.4742268041237
70663,Calcasieu Parish,LA,NA,NA,8.100147275405007
70706,Livingston Parish,LA,91.07981220657277,NA,NA
70737,Ascension Parish,LA,2.112676056338028,NA,6.62739322533137
70767,West Baton Rouge Parish,LA,32.159624413145536,NA,NA
70774,Ascension Parish,LA,NA,NA,59.941089837997055
70808,East Baton Rouge Parish,LA,27.93427230046948,NA,NA
70812,East Baton Rouge Parish,LA,NA,NA,27.835051546391753
71104,Caddo Parish,LA,57.04225352112676,NA,NA
71107,Caddo Parish,LA,87.79342723004694,NA,NA
71203,Ouachita Parish,LA,NA,NA,96.46539027982327
71222,Union Parish,LA,NA,59.70149253731343,NA
71232,Richland Parish,LA,NA,NA,50.662739322533135
71350,Avoyelles Parish,LA,68.07511737089203,NA,NA
04032,Cumberland County,ME,NA,NA,82.76877761413843
04062,Cumberland County,ME,53.051643192488264,NA,NA
04084,Cumberland County,ME,NA,NA,73.78497790868926
04103,Cumberland County,ME,NA,NA,20.618556701030926
04270,Oxford County,ME,NA,NA,70.25036818851251
04462,Penobscot County,ME,NA,NA,83.79970544918999
20646,Charles County,MD,61.03286384976526,NA,NA
20736,Calvert County,MD,89.43661971830986,NA,NA
20772,Prince George's County,MD,59.154929577464785,NA,NA
20785,Prince George's County,MD,NA,NA,58.46833578792342
20837,Montgomery County,MD,NA,NA,97.05449189985272
20850,Montgomery County,MD,NA,NA,67.45213549337261
20902,Montgomery County,MD,56.57276995305164,NA,NA
21015,Harford County,MD,74.4131455399061,NA,NA
21030,Baltimore County,MD,NA,NA,73.49042709867453
21216,Baltimore city,MD,NA,NA,35.34609720176731
21239,Baltimore city,MD,NA,NA,32.253313696612665
21639,Caroline County,MD,NA,NA,99.26362297496318
21666,Queen Anne's County,MD,NA,NA,93.0780559646539
21716,Frederick County,MD,96.0093896713615,NA,NA
21771,Frederick County,MD,NA,NA,65.97938144329896
21784,Carroll County,MD,NA,NA,58.02650957290133
21853,Somerset County,MD,NA,NA,92.19440353460972
01201,Berkshire County,MA,NA,NA,0
01301,Franklin County,MA,NA,2.4875621890547266,NA
01462,Worcester County,MA,NA,NA,53.608247422680414
01535,Worcester County,MA,NA,NA,94.2562592047128
01562,Worcester County,MA,71.59624413145539,NA,NA
01568,Worcester County,MA,NA,92.03980099502488,NA
01590,Worcester County,MA,NA,NA,89.98527245949927
01603,Worcester County,MA,5.868544600938967,NA,NA
01609,Worcester County,MA,NA,NA,3.2400589101620034
01740,Worcester County,MA,NA,NA,95.43446244477173
01752,Middlesex County,MA,NA,NA,94.84536082474226
01844,Essex County,MA,NA,NA,1.6200294550810017
01851,Middlesex County,MA,NA,NA,14.874815905743741
01867,Middlesex County,MA,27.464788732394368,NA,NA
01915,Essex County,MA,NA,NA,2.2091310751104567
02053,Norfolk County,MA,70.4225352112676,NA,NA
02119,Suffolk County,MA,86.3849765258216,NA,0.14727540500736377
02121,Suffolk County,MA,NA,0.9950248756218906,NA
02122,Suffolk County,MA,NA,NA,1.7673048600883652
02126,Suffolk County,MA,NA,NA,0.5891016200294551
02128,Suffolk County,MA,NA,4.975124378109453,NA
02136,Suffolk County,MA,NA,NA,13.107511045655377
02151,Suffolk County,MA,0.7042253521126761,NA,NA
02155,Middlesex County,MA,NA,24.378109452736318,NA
02169,Norfolk County,MA,NA,66.66666666666666,NA
02322,Norfolk County,MA,NA,81.09452736318407,NA
02341,Plymouth County,MA,88.73239436619718,NA,NA
02346,Plymouth County,MA,NA,NA,70.98674521354934
02360,Plymouth County,MA,NA,NA,1.3254786450662739
02478,Middlesex County,MA,NA,NA,22.53313696612666
02721,Bristol County,MA,NA,NA,11.487481590574374
02745,Bristol County,MA,NA,NA,71.28129602356407
02762,Norfolk County,MA,NA,NA,80.8541973490427
02777,Bristol County,MA,NA,NA,7.952871870397643
02780,Bristol County,MA,NA,NA,0.29455081001472755
48045,Macomb County,MI,NA,NA,24.005891016200295
48059,St. Clair County,MI,64.55399061032864,NA,NA
48085,Oakland County,MI,44.60093896713615,NA,NA
48089,Macomb County,MI,NA,NA,7.80559646539028
48092,Macomb County,MI,NA,NA,29.013254786450666
48101,Wayne County,MI,13.145539906103288,NA,NA
48103,Washtenaw County,MI,17.84037558685446,NA,NA
48111,Wayne County,MI,33.568075117370896,NA,NA
48122,Wayne County,MI,NA,NA,57.87923416789397
48126,Wayne County,MI,NA,5.970149253731343,NA
48135,Wayne County,MI,NA,NA,22.091310751104565
48152,Wayne County,MI,43.42723004694836,NA,NA
48161,Monroe County,MI,NA,NA,7.363770250368189
48166,Monroe County,MI,NA,NA,74.96318114874816
48170,Wayne County,MI,NA,NA,14.285714285714285
48174,Wayne County,MI,NA,NA,28.865979381443296
48182,Monroe County,MI,NA,NA,62.5920471281296
48185,Wayne County,MI,6.807511737089202,32.33830845771145,25.184094256259204
48188,Wayne County,MI,5.164319248826291,NA,12.960235640648014
48198,Washtenaw County,MI,2.5821596244131455,NA,NA
48204,Wayne County,MI,NA,NA,36.671575846833576
48223,Wayne County,MI,12.44131455399061,NA,NA
48225,Wayne County,MI,34.97652582159624,NA,39.46980854197349
48234,Wayne County,MI,4.460093896713615,NA,NA
48312,Macomb County,MI,NA,NA,24.153166421207658
48316,Macomb County,MI,NA,NA,40.35346097201767
48328,Oakland County,MI,NA,NA,38.43888070692195
48335,Oakland County,MI,82.15962441314554,NA,53.46097201767305
48377,Oakland County,MI,74.88262910798123,NA,NA
48428,Lapeer County,MI,85.2112676056338,NA,NA
48430,Genesee County,MI,NA,NA,24.889543446244478
48433,Genesee County,MI,37.558685446009385,NA,NA
48439,Genesee County,MI,16.431924882629108,NA,12.812960235640647
48442,Oakland County,MI,64.31924882629107,NA,NA
48462,Oakland County,MI,NA,NA,77.90868924889544
48601,Saginaw County,MI,0,NA,NA
48609,Saginaw County,MI,NA,NA,43.29896907216495
48611,Bay County,MI,72.30046948356808,NA,NA
48624,Gladwin County,MI,48.35680751173709,NA,NA
48625,Clare County,MI,NA,NA,28.12960235640648
48640,Midland County,MI,NA,75.12437810945273,NA
48655,Saginaw County,MI,NA,NA,66.71575846833578
48706,Bay County,MI,NA,NA,7.069219440353461
48726,Tuscola County,MI,NA,NA,86.15611192930781
48821,Eaton County,MI,94.83568075117371,NA,NA
48827,Eaton County,MI,29.107981220657276,82.08955223880598,NA
48843,Livingston County,MI,NA,NA,12.371134020618557
48854,Ingham County,MI,NA,NA,52.43004418262151
48912,Ingham County,MI,NA,NA,55.22827687776142
49006,Kalamazoo County,MI,NA,NA,52.8718703976436
49017,Calhoun County,MI,41.31455399061033,NA,NA
49085,Berrien County,MI,73.70892018779342,NA,NA
49087,Kalamazoo County,MI,NA,NA,89.69072164948454
49090,Van Buren County,MI,NA,88.05970149253731,NA
49112,Cass County,MI,80.04694835680752,NA,NA
49127,Berrien County,MI,NA,NA,79.23416789396171
49236,Lenawee County,MI,91.54929577464789,NA,94.99263622974962
49304,Lake County,MI,NA,87.56218905472637,NA
49321,Kent County,MI,47.417840375586856,NA,NA
49424,Ottawa County,MI,NA,NA,15.316642120765833
49431,Mason County,MI,17.6056338028169,NA,NA
49441,Muskegon County,MI,NA,NA,41.973490427098675
49442,Muskegon County,MI,NA,NA,17.525773195876287
49504,Kent County,MI,NA,NA,46.24447717231222
49506,Kent County,MI,NA,NA,23.85861561119293
49507,Kent County,MI,NA,21.890547263681594,NA
49508,Kent County,MI,NA,NA,6.0382916053019144
49519,Kent County,MI,NA,NA,16.936671575846834
49548,Kent County,MI,48.59154929577465,NA,NA
49646,Kalkaska County,MI,NA,75.12437810945273,NA
49690,Grand Traverse County,MI,NA,NA,94.55081001472753
49707,Alpena County,MI,NA,NA,29.60235640648012
49730,Antrim County,MI,99.06103286384976,NA,NA
49916,Houghton County,MI,94.83568075117371,NA,NA
49931,Houghton County,MI,NA,NA,83.79970544918999
55021,Rice County,MN,49.06103286384976,NA,NA
55082,Washington County,MN,NA,NA,33.726067746686304
55117,Ramsey County,MN,NA,9.45273631840796,NA
55123,Dakota County,MN,53.755868544600936,NA,NA
55124,Dakota County,MN,14.788732394366196,NA,NA
55309,Sherburne County,MN,NA,NA,77.17231222385863
55316,Hennepin County,MN,27.230046948356808,NA,NA
55376,Wright County,MN,NA,NA,84.09425625920471
55401,Hennepin County,MN,95.53990610328638,NA,NA
55417,Hennepin County,MN,NA,NA,51.840942562592055
55441,Hennepin County,MN,28.4037558685446,NA,NA
55445,Hennepin County,MN,28.638497652582164,NA,NA
55746,St. Louis County,MN,NA,45.77114427860697,NA
55810,St. Louis County,MN,NA,NA,89.10162002945509
55901,Olmsted County,MN,NA,NA,91.16347569955818
55964,Wabasha County,MN,NA,NA,97.49631811487481
56003,Nicollet County,MN,NA,NA,85.12518409425626
56011,Scott County,MN,66.90140845070422,NA,NA
56143,Jackson County,MN,80.75117370892019,NA,NA
56360,Douglas County,MN,NA,NA,97.20176730486008
56401,Crow Wing County,MN,NA,NA,9.278350515463918
56560,Clay County,MN,1.4084507042253522,NA,NA
56573,Otter Tail County,MN,NA,NA,84.5360824742268
38701,Washington County,MS,NA,NA,62.44477172312224
38703,Washington County,MS,NA,NA,72.16494845360825
39047,Rankin County,MS,19.718309859154928,NA,NA
39059,Copiah County,MS,69.24882629107981,NA,NA
39402,Lamar County,MS,NA,38.80597014925373,NA
39501,Harrison County,MS,16.901408450704224,NA,NA
39556,Hancock County,MS,NA,68.1592039800995,NA
39564,Jackson County,MS,46.71361502347418,NA,NA
39648,Pike County,MS,55.633802816901415,NA,NA
39759,Oktibbeha County,MS,66.19718309859155,NA,86.00883652430045
63052,Jefferson County,MO,NA,NA,54.93372606774669
63114,St. Louis County,MO,NA,25.37313432835821,NA
63122,St. Louis County,MO,NA,NA,61.11929307805597
63123,St. Louis County,MO,NA,NA,37.26067746686304
63135,St. Louis County,MO,NA,NA,65.53755522827687
63376,St. Charles County,MO,11.032863849765258,NA,10.014727540500736
63389,Lincoln County,MO,78.63849765258216,NA,NA
63628,St. Francois County,MO,NA,45.77114427860697,NA
63775,Perry County,MO,17.136150234741784,NA,NA
64014,Jackson County,MO,NA,NA,20.029455081001473
64040,Johnson County,MO,80.75117370892019,NA,NA
64055,Jackson County,MO,NA,NA,7.511045655375552
64058,Jackson County,MO,NA,NA,75.55228276877762
64063,Jackson County,MO,NA,NA,39.175257731958766
64064,Jackson County,MO,NA,NA,54.78645066273933
64080,Cass County,MO,61.97183098591549,NA,NA
64093,Johnson County,MO,36.15023474178404,NA,NA
64109,Jackson County,MO,NA,NA,27.68777614138439
64506,Buchanan County,MO,NA,44.776119402985074,18.114874815905743
64683,Grundy County,MO,41.07981220657277,NA,NA
64844,Newton County,MO,87.32394366197182,NA,NA
65202,Boone County,MO,NA,6.965174129353234,10.751104565537556
65608,Douglas County,MO,NA,NA,83.21060382916053
59634,Jefferson County,MT,97.88732394366197,NA,NA
68066,Saunders County,NE,97.1830985915493,NA,96.02356406480118
68128,Sarpy County,NE,76.05633802816901,NA,NA
68147,Sarpy County,NE,NA,95.02487562189054,NA
68788,Cuming County,NE,93.1924882629108,NA,NA
68850,Dawson County,NE,NA,NA,94.40353460972017
69162,Cheyenne County,NE,76.99530516431925,NA,NA
89410,Douglas County,NV,70.89201877934272,NA,NA
89434,Washoe County,NV,49.06103286384976,NA,NA
89506,Washoe County,NV,32.159624413145536,NA,17.673048600883654
89508,Washoe County,NV,72.30046948356808,NA,NA
89521,Washoe County,NV,NA,NA,52.282768777614145
89523,Washoe County,NV,NA,NA,56.84830633284241
89822,Elko County,NV,NA,NA,99.55817378497791
03079,Rockingham County,NH,NA,NA,15.61119293078056
03104,Hillsborough County,NH,15.023474178403756,NA,13.991163475699558
03470,Cheshire County,NH,92.25352112676056,NA,NA
03820,Strafford County,NH,26.995305164319248,NA,NA
07010,Bergen County,NJ,NA,99.50248756218906,NA
07018,Essex County,NJ,95.77464788732394,NA,NA
07052,Essex County,NJ,NA,NA,46.833578792341676
07057,Bergen County,NJ,NA,NA,81.14874815905743
07095,Middlesex County,NJ,NA,NA,39.91163475699558
07424,Passaic County,NJ,NA,NA,39.0279823269514
07650,Bergen County,NJ,NA,NA,99.70544918998527
07731,Monmouth County,NJ,NA,80.09950248756219,NA
07755,Monmouth County,NJ,NA,NA,91.01620029455081
07801,Morris County,NJ,NA,NA,18.851251840942563
07853,Morris County,NJ,NA,NA,95.13991163475698
07920,Somerset County,NJ,NA,NA,81.59057437407952
08077,Burlington County,NJ,NA,NA,32.1060382916053
08085,Gloucester County,NJ,NA,13.432835820895523,NA
08096,Gloucester County,NJ,NA,NA,5.3019145802650955
08102,Camden County,NJ,NA,15.92039800995025,NA
08104,Camden County,NJ,NA,NA,1.4727540500736376
08215,Atlantic County,NJ,NA,NA,35.640648011782034
08527,Ocean County,NJ,20.187793427230048,NA,NA
08551,Hunterdon County,NJ,NA,NA,99.85272459499264
08638,Mercer County,NJ,NA,12.935323383084576,NA
08723,Ocean County,NJ,NA,NA,16.05301914580265
08807,Somerset County,NJ,NA,NA,64.2120765832106
08840,Middlesex County,NJ,NA,NA,88.95434462444771
87111,Bernalillo County,NM,NA,NA,19.293078055964656
87114,Bernalillo County,NM,NA,NA,31.81148748159057
87120,Bernalillo County,NM,NA,NA,8.689248895434462
87122,Bernalillo County,NM,NA,NA,86.89248895434463
87410,San Juan County,NM,62.20657276995305,NA,NA
87505,Santa Fe County,NM,16.19718309859155,NA,5.596465390279824
87557,Taos County,NM,NA,80.59701492537313,NA
88005,Doa Ana County,NM,NA,NA,44.329896907216494
88008,Doa Ana County,NM,NA,82.08955223880598,NA
88012,Doa Ana County,NM,NA,23.88059701492537,NA
88130,Roosevelt County,NM,NA,48.258706467661696,NA
88203,Chaves County,NM,NA,NA,18.7039764359352
88260,Lea County,NM,NA,71.64179104477611,40.942562592047125
10018,New York County,NY,NA,NA,87.92341678939617
10023,New York County,NY,74.4131455399061,NA,NA
10029,New York County,NY,NA,NA,0.8836524300441826
10305,Richmond County,NY,75.5868544600939,NA,NA
10306,Richmond County,NY,NA,NA,18.556701030927837
10451,Bronx County,NY,NA,2.9850746268656714,NA
10453,Bronx County,NY,NA,NA,1.0309278350515463
10455,Bronx County,NY,10.56338028169014,NA,NA
10456,Bronx County,NY,NA,NA,2.6509572901325478
10457,Bronx County,NY,NA,0,NA
10459,Bronx County,NY,NA,NA,44.18262150220913
10460,Bronx County,NY,NA,1.4925373134328357,NA
10466,Bronx County,NY,NA,1.9900497512437811,NA
10467,Bronx County,NY,NA,NA,0.7363770250368188
10469,Bronx County,NY,NA,6.467661691542288,NA
10562,Westchester County,NY,13.849765258215962,NA,NA
10801,Westchester County,NY,NA,16.417910447761194,31.22238586156112
10950,Orange County,NY,58.920187793427225,NA,NA
10952,Rockland County,NY,NA,43.28358208955223,69.80854197349042
10960,Rockland County,NY,92.25352112676056,NA,NA
11210,Kings County,NY,49.53051643192488,NA,NA
11218,Kings County,NY,7.746478873239436,NA,NA
11221,Kings County,NY,NA,NA,3.0927835051546393
11223,Kings County,NY,NA,12.437810945273633,NA
11370,Queens County,NY,77.69953051643192,NA,NA
11417,Queens County,NY,NA,40.79601990049751,NA
11422,Queens County,NY,NA,NA,96.759941089838
11566,Nassau County,NY,NA,NA,88.65979381443299
11726,Suffolk County,NY,NA,58.70646766169154,NA
11740,Suffolk County,NY,NA,NA,96.90721649484536
11767,Suffolk County,NY,NA,NA,98.37997054491899
12122,Schoharie County,NY,NA,NA,74.37407952871871
12302,Schenectady County,NY,NA,84.07960199004975,NA
12306,Schenectady County,NY,NA,NA,31.66421207658321
12590,Dutchess County,NY,NA,NA,57.14285714285714
12822,Saratoga County,NY,NA,NA,90.72164948453609
12831,Saratoga County,NY,NA,NA,49.04270986745213
12832,Washington County,NY,NA,NA,76.8777614138439
12901,Clinton County,NY,13.615023474178404,NA,NA
13021,Cayuga County,NY,NA,NA,3.5346097201767304
13031,Onondaga County,NY,70.89201877934272,NA,NA
13035,Madison County,NY,82.86384976525821,NA,NA
13037,Madison County,NY,NA,NA,62.00294550810015
13045,Cortland County,NY,NA,NA,4.270986745213549
13057,Onondaga County,NY,58.21596244131455,NA,NA
13088,Onondaga County,NY,NA,NA,25.773195876288657
13126,Oswego County,NY,NA,NA,3.9764359351988214
13166,Cayuga County,NY,NA,NA,79.38144329896907
13212,Onondaga County,NY,NA,NA,30.04418262150221
13214,Onondaga County,NY,NA,NA,81.00147275405007
13357,Herkimer County,NY,NA,49.25373134328358,NA
13413,Oneida County,NY,53.286384976525824,NA,NA
13424,Oneida County,NY,96.71361502347418,NA,NA
13433,Lewis County,NY,99.76525821596243,NA,NA
13440,Oneida County,NY,NA,34.32835820895522,NA
13452,Montgomery County,NY,NA,NA,82.17967599410898
13661,Jefferson County,NY,100,NA,NA
13760,Broome County,NY,NA,47.76119402985074,NA
13820,Otsego County,NY,NA,NA,9.72017673048601
13850,Broome County,NY,NA,NA,16.200294550810014
14052,Erie County,NY,59.154929577464785,NA,NA
14075,Erie County,NY,30.51643192488263,NA,NA
14080,Erie County,NY,88.96713615023474,NA,NA
14094,Niagara County,NY,NA,NA,2.3564064801178204
14103,Orleans County,NY,84.97652582159625,NA,NA
14141,Erie County,NY,NA,NA,81.73784977908689
14204,Erie County,NY,NA,NA,43.004418262150224
14211,Erie County,NY,3.755868544600939,NA,NA
14215,Erie County,NY,NA,NA,2.0618556701030926
14216,Erie County,NY,NA,NA,26.95139911634757
14218,Erie County,NY,NA,NA,17.820324005891017
14414,Livingston County,NY,NA,NA,84.38880706921944
14424,Ontario County,NY,NA,NA,2.945508100147275
14432,Ontario County,NY,NA,NA,35.7879234167894
14467,Monroe County,NY,NA,NA,60.67746686303387
14482,Genesee County,NY,61.502347417840376,NA,NA
14487,Livingston County,NY,NA,NA,77.61413843888072
14504,Ontario County,NY,NA,NA,89.24889543446245
14519,Wayne County,NY,NA,NA,21.502209131075112
14525,Genesee County,NY,86.15023474178403,NA,NA
14526,Monroe County,NY,NA,NA,47.1281296023564
14534,Monroe County,NY,NA,NA,27.245949926362297
14543,Monroe County,NY,NA,NA,92.04712812960236
14546,Monroe County,NY,NA,NA,84.68335787923417
14580,Monroe County,NY,NA,NA,1.1782032400589102
14590,Wayne County,NY,50.23474178403756,NA,NA
14612,Monroe County,NY,NA,NA,2.503681885125184
14701,Chautauqua County,NY,3.5211267605633805,NA,NA
14733,Chautauqua County,NY,NA,84.5771144278607,NA
14738,Chautauqua County,NY,NA,NA,97.34904270986745
14813,Allegany County,NY,76.76056338028168,NA,NA
14850,Tompkins County,NY,NA,40.298507462686565,NA
14883,Tioga County,NY,NA,NA,82.32695139911634
14904,Chemung County,NY,NA,NA,26.50957290132548
27040,Forsyth County,NC,NA,NA,87.77614138438881
27278,Orange County,NC,NA,NA,20.913107511045656
27288,Rockingham County,NC,35.2112676056338,NA,NA
27292,Davidson County,NC,NA,NA,5.007363770250368
27312,Chatham County,NC,60.093896713615024,NA,NA
27409,Guilford County,NC,NA,NA,83.50515463917526
27516,Orange County,NC,NA,72.636815920398,65.68483063328424
27539,Wake County,NC,54.22535211267606,NA,NA
27540,Wake County,NC,31.92488262910798,NA,NA
27610,Wake County,NC,NA,9.950248756218906,NA
27703,Durham County,NC,NA,14.925373134328357,NA
27704,Durham County,NC,NA,NA,11.192930780559648
27834,Pitt County,NC,4.694835680751173,NA,6.774668630338733
28012,Gaston County,NC,65.96244131455398,NA,NA
28025,Cabarrus County,NC,NA,NA,37.702503681885126
28052,Gaston County,NC,14.553990610328638,NA,NA
28056,Gaston County,NC,44.36619718309859,NA,47.71723122238586
28088,Rowan County,NC,NA,NA,98.96907216494846
28147,Rowan County,NC,NA,54.22885572139303,NA
28262,Mecklenburg County,NC,NA,62.68656716417911,NA
28345,Richmond County,NC,NA,56.71641791044776,NA
28401,New Hanover County,NC,NA,NA,10.309278350515463
28657,Avery County,NC,NA,NA,68.33578792341679
28694,Ashe County,NC,NA,58.70646766169154,NA
28715,Buncombe County,NC,NA,NA,50.95729013254786
58474,Dickey County,ND,94.13145539906104,NA,NA
58701,Ward County,ND,3.9906103286384975,NA,NA
58801,Williams County,ND,NA,NA,80.70692194403534
43015,Delaware County,OH,8.450704225352112,NA,NA
43017,Franklin County,OH,NA,NA,62.88659793814433
43055,Licking County,OH,NA,NA,1.914580265095729
43056,Licking County,OH,38.732394366197184,NA,NA
43076,Perry County,OH,83.33333333333334,NA,NA
43123,Franklin County,OH,0.4694835680751174,NA,NA
43160,Fayette County,OH,NA,27.860696517412936,NA
43207,Franklin County,OH,NA,0.4975124378109453,NA
43211,Franklin County,OH,NA,NA,10.456553755522828
43212,Franklin County,OH,NA,NA,76.58321060382917
43213,Franklin County,OH,NA,NA,8.98379970544919
43219,Franklin County,OH,27.699530516431924,NA,NA
43230,Franklin County,OH,NA,NA,16.200294550810014
43232,Franklin County,OH,NA,NA,4.418262150220913
43235,Franklin County,OH,7.511737089201878,NA,NA
43302,Marion County,OH,NA,7.960199004975125,NA
43512,Defiance County,OH,NA,NA,4.860088365243005
43558,Fulton County,OH,NA,NA,58.76288659793815
43605,Lucas County,OH,NA,19.900497512437813,NA
43613,Lucas County,OH,24.88262910798122,NA,3.6818851251840945
43812,Coshocton County,OH,NA,16.91542288557214,NA
43950,Belmont County,OH,30.985915492957744,NA,NA
44023,Geauga County,OH,66.43192488262912,NA,NA
44052,Lorain County,OH,NA,NA,2.798232695139912
44060,Lake County,OH,3.051643192488263,NA,NA
44102,Cuyahoga County,OH,NA,NA,0.4418262150220913
44108,Cuyahoga County,OH,NA,NA,33.28424153166421
44109,Cuyahoga County,OH,0.2347417840375587,NA,NA
44119,Cuyahoga County,OH,NA,NA,19.587628865979383
44120,Cuyahoga County,OH,NA,NA,3.3873343151693667
44135,Cuyahoga County,OH,NA,15.422885572139302,NA
44139,Cuyahoga County,OH,NA,NA,42.857142857142854
44224,Summit County,OH,NA,NA,57.58468335787923
44241,Portage County,OH,54.694835680751176,NA,NA
44306,Summit County,OH,NA,NA,9.572901325478647
44320,Summit County,OH,NA,NA,67.74668630338734
44410,Trumbull County,OH,58.45070422535211,NA,NA
44425,Trumbull County,OH,18.07511737089202,NA,NA
44483,Trumbull County,OH,10.7981220657277,NA,16.49484536082474
44502,Mahoning County,OH,NA,64.17910447761194,74.66863033873344
44512,Mahoning County,OH,9.15492957746479,NA,NA
44805,Ashland County,OH,NA,20.8955223880597,NA
44820,Crawford County,OH,NA,10.945273631840797,NA
44851,Huron County,OH,NA,63.18407960199005,NA
44870,Erie County,OH,0.9389671361502347,NA,NA
44906,Richland County,OH,10.093896713615024,NA,NA
45067,Butler County,OH,41.78403755868544,NA,NA
45068,Warren County,OH,NA,NA,91.60530191458027
45069,Butler County,OH,8.92018779342723,NA,NA
45103,Clermont County,OH,22.769953051643192,NA,NA
45140,Clermont County,OH,NA,NA,23.12223858615611
45177,Clinton County,OH,36.61971830985916,NA,23.416789396170838
45217,Hamilton County,OH,NA,51.243781094527364,NA
45237,Hamilton County,OH,NA,NA,27.982326951399116
45238,Hamilton County,OH,5.39906103286385,NA,NA
45251,Hamilton County,OH,NA,NA,54.34462444771723
45324,Greene County,OH,NA,NA,9.131075110456553
45325,Montgomery County,OH,98.35680751173709,NA,NA
45342,Montgomery County,OH,NA,17.91044776119403,NA
45385,Greene County,OH,8.215962441314554,NA,NA
45405,Montgomery County,OH,NA,21.393034825870647,NA
45417,Montgomery County,OH,NA,NA,8.24742268041237
45431,Montgomery County,OH,NA,NA,47.56995581737849
45619,Lawrence County,OH,NA,NA,26.804123711340207
45628,Ross County,OH,NA,NA,95.28718703976435
45644,Ross County,OH,92.72300469483568,NA,NA
45656,Jackson County,OH,NA,NA,83.06332842415317
45690,Pike County,OH,NA,35.82089552238806,NA
45694,Scioto County,OH,38.967136150234744,NA,NA
45801,Allen County,OH,NA,NA,11.34020618556701
45804,Allen County,OH,18.779342723004692,NA,NA
73012,Oklahoma County,OK,NA,NA,50.220913107511045
73099,Canadian County,OK,NA,NA,13.696612665684832
73120,Oklahoma County,OK,42.95774647887324,NA,NA
73129,Oklahoma County,OK,NA,NA,53.01914580265096
73159,Oklahoma County,OK,NA,NA,47.275405007363766
73401,Carter County,OK,23.943661971830984,NA,NA
73533,Stephens County,OK,NA,67.66169154228857,NA
73601,Custer County,OK,NA,60.19900497512438,NA
74023,Payne County,OK,NA,NA,85.56701030927834
74037,Tulsa County,OK,NA,NA,78.35051546391753
74073,Tulsa County,OK,NA,97.51243781094527,NA
74075,Payne County,OK,NA,64.6766169154229,NA
74146,Tulsa County,OK,58.68544600938967,NA,NA
74403,Muskogee County,OK,NA,NA,32.40058910162003
74432,McIntosh County,OK,NA,77.61194029850746,NA
74764,McCurtain County,OK,NA,96.01990049751244,NA
74855,Lincoln County,OK,94.60093896713614,NA,NA
74857,Cleveland County,OK,82.86384976525821,NA,NA
74859,Okfuskee County,OK,NA,78.60696517412936,NA
74960,Adair County,OK,22.300469483568076,NA,NA
97056,Columbia County,OR,84.27230046948357,NA,NA
97123,Washington County,OR,NA,NA,19.88217967599411
97132,Yamhill County,OR,NA,NA,72.90132547864506
97229,Washington County,OR,NA,NA,35.93519882179676
97401,Lane County,OR,NA,NA,39.76435935198822
97756,Deschutes County,OR,NA,49.75124378109453,NA
97814,Baker County,OR,62.676056338028175,NA,NA
15044,Allegheny County,PA,NA,NA,63.770250368188506
15137,Allegheny County,PA,NA,68.65671641791045,NA
15237,Allegheny County,PA,25.821596244131456,NA,NA
15241,Allegheny County,PA,NA,NA,75.84683357879234
15801,Clearfield County,PA,NA,32.33830845771145,NA
16002,Butler County,PA,NA,NA,59.20471281296024
16046,Butler County,PA,75.82159624413146,NA,NA
16417,Erie County,PA,83.33333333333334,NA,NA
16648,Blair County,PA,NA,NA,61.26656848306333
16801,Centre County,PA,NA,NA,39.175257731958766
16803,Centre County,PA,NA,NA,61.855670103092784
16830,Clearfield County,PA,NA,NA,63.47569955817378
16901,Tioga County,PA,NA,NA,69.0721649484536
17022,Lancaster County,PA,NA,NA,67.8939617083947
17025,Cumberland County,PA,38.497652582159624,NA,NA
17036,Dauphin County,PA,NA,NA,22.827687776141385
17050,Cumberland County,PA,NA,NA,21.649484536082475
17053,Perry County,PA,NA,NA,97.79086892488954
17112,Dauphin County,PA,NA,NA,17.083946980854197
17202,Franklin County,PA,NA,NA,62.297496318114874
17236,Franklin County,PA,NA,NA,86.45066273932254
17356,York County,PA,19.718309859154928,NA,NA
17517,Lancaster County,PA,NA,NA,79.52871870397644
17522,Lancaster County,PA,NA,NA,24.447717231222384
17557,Lancaster County,PA,62.441314553990615,NA,NA
17801,Northumberland County,PA,NA,NA,19.44035346097202
17837,Union County,PA,85.68075117370893,NA,NA
17841,Mifflin County,PA,88.02816901408451,NA,NA
17870,Snyder County,PA,55.39906103286385,NA,NA
17901,Schuylkill County,PA,10.328638497652582,NA,24.742268041237114
17948,Schuylkill County,PA,86.61971830985915,NA,NA
17954,Schuylkill County,PA,78.16901408450704,NA,NA
17960,Schuylkill County,PA,93.1924882629108,NA,NA
18014,Northampton County,PA,62.676056338028175,NA,NA
18017,Northampton County,PA,NA,NA,26.362297496318117
18074,Montgomery County,PA,NA,NA,96.17083946980854
18088,Northampton County,PA,NA,NA,68.63033873343151
18508,Lackawanna County,PA,NA,NA,61.413843888070694
18707,Luzerne County,PA,NA,NA,60.08836524300442
18840,Bradford County,PA,NA,89.55223880597015,NA
18901,Bucks County,PA,NA,NA,48.01178203240059
18969,Montgomery County,PA,NA,NA,85.41973490427098
18974,Bucks County,PA,NA,NA,57.73195876288659
19004,Montgomery County,PA,NA,NA,94.6980854197349
19073,Delaware County,PA,NA,NA,78.79234167893962
19106,Philadelphia County,PA,NA,NA,82.62150220913107
19122,Philadelphia County,PA,NA,NA,76.4359351988218
19132,Philadelphia County,PA,NA,NA,6.185567010309279
19134,Philadelphia County,PA,NA,10.44776119402985,NA
19135,Philadelphia County,PA,NA,NA,46.68630338733431
19149,Philadelphia County,PA,NA,19.402985074626866,NA
19335,Chester County,PA,NA,NA,51.104565537555224
19343,Chester County,PA,NA,NA,98.23269513991163
19348,Chester County,PA,NA,NA,59.057437407952875
19380,Chester County,PA,NA,NA,40.79528718703976
19390,Chester County,PA,74.17840375586854,NA,NA
19465,Chester County,PA,NA,81.09452736318407,NA
19601,Berks County,PA,NA,8.45771144278607,NA
02816,Kent County,RI,NA,NA,26.656848306332844
02888,Kent County,RI,NA,NA,51.98821796759942
29054,Lexington County,SC,NA,NA,88.36524300441826
29072,Lexington County,SC,24.178403755868544,NA,NA
29203,Richland County,SC,NA,NA,37.99705449189985
29316,Spartanburg County,SC,41.31455399061033,NA,NA
29349,Spartanburg County,SC,NA,63.18407960199005,NA
29414,Charleston County,SC,NA,NA,31.958762886597935
29466,Charleston County,SC,NA,NA,50.662739322533135
29501,Florence County,SC,NA,NA,30.633284241531666
29550,Darlington County,SC,NA,NA,42.415316642120764
29582,Horry County,SC,NA,46.766169154228855,NA
29605,Greenville County,SC,NA,76.61691542288557,NA
29607,Greenville County,SC,NA,NA,27.393225331369663
29620,Abbeville County,SC,38.028169014084504,NA,NA
29661,Greenville County,SC,NA,67.16417910447761,NA
29687,Greenville County,SC,NA,NA,30.338733431516935
29803,Aiken County,SC,72.06572769953051,NA,NA
29812,Barnwell County,SC,NA,90.54726368159204,NA
29927,Jasper County,SC,NA,84.5771144278607,NA
57103,Minnehaha County,SD,NA,NA,22.68041237113402
57106,Minnehaha County,SD,NA,NA,21.944035346097202
57301,Davison County,SD,NA,NA,50.07363770250368
57401,Brown County,SD,NA,53.233830845771145,NA
57501,Hughes County,SD,NA,65.67164179104478,NA
37062,Williamson County,TN,86.85446009389672,NA,NA
37064,Williamson County,TN,NA,NA,48.748159057437405
37066,Sumner County,TN,12.910798122065728,NA,NA
37075,Sumner County,TN,NA,44.776119402985074,NA
37115,Davidson County,TN,NA,NA,11.7820324005891
37209,Davidson County,TN,NA,NA,66.12665684830633
37323,Bradley County,TN,NA,NA,41.384388807069215
37354,Monroe County,TN,NA,NA,36.81885125184095
37379,Hamilton County,TN,35.91549295774648,NA,41.23711340206185
37407,Hamilton County,TN,NA,NA,84.68335787923417
37615,Washington County,TN,NA,87.06467661691542,NA
37643,Carter County,TN,NA,NA,12.223858615611192
37722,Cocke County,TN,NA,90.04975124378109,NA
37742,Loudon County,TN,NA,NA,75.25773195876289
37757,Campbell County,TN,63.6150234741784,NA,NA
37763,Roane County,TN,NA,NA,67.15758468335787
37766,Campbell County,TN,NA,33.33333333333333,NA
37814,Hamblen County,TN,40.375586854460096,NA,NA
37830,Anderson County,TN,NA,NA,23.5640648011782
37841,Scott County,TN,NA,NA,75.9941089837997
37857,Hawkins County,TN,NA,NA,33.578792341678934
37874,Monroe County,TN,45.774647887323944,NA,NA
37890,Jefferson County,TN,NA,NA,74.07952871870398
37920,Knox County,TN,26.291079812206576,NA,NA
37921,Knox County,TN,NA,26.865671641791046,NA
38103,Shelby County,TN,NA,NA,96.3181148748159
38125,Shelby County,TN,NA,NA,57.2901325478645
38134,Shelby County,TN,NA,NA,37.11340206185567
38305,Madison County,TN,2.3474178403755865,NA,8.836524300441827
38372,Hardin County,TN,NA,NA,52.724594992636234
38464,Lawrence County,TN,NA,NA,30.78055964653903
38478,Giles County,TN,56.57276995305164,NA,NA
38570,Overton County,TN,NA,NA,69.95581737849778
38583,White County,TN,24.647887323943664,NA,NA
75013,Collin County,TX,NA,NA,50.51546391752577
75020,Grayson County,TX,NA,NA,49.779086892488955
75023,Collin County,TX,NA,NA,55.96465390279823
75050,Dallas County,TX,NA,NA,44.03534609720177
75057,Denton County,TX,NA,57.2139303482587,NA
75078,Collin County,TX,60.56338028169014,NA,NA
75148,Henderson County,TX,96.24413145539906,NA,NA
75150,Dallas County,TX,NA,NA,22.385861561119295
75156,Henderson County,TX,61.502347417840376,NA,NA
75165,Ellis County,TX,NA,27.363184079601986,NA
75169,Van Zandt County,TX,80.04694835680752,NA,NA
75205,Dallas County,TX,NA,NA,66.42120765832105
75218,Dallas County,TX,64.08450704225352,NA,NA
75219,Dallas County,TX,NA,NA,54.19734904270987
75228,Dallas County,TX,6.338028169014084,NA,NA
75244,Dallas County,TX,NA,NA,87.03976435935199
75248,Dallas County,TX,NA,NA,60.972017673048605
75561,Bowie County,TX,NA,NA,98.52724594992637
75604,Gregg County,TX,17.370892018779344,NA,NA
75605,Gregg County,TX,NA,NA,55.37555228276878
75631,Panola County,TX,91.31455399061032,NA,NA
75654,Rusk County,TX,NA,69.65174129353234,NA
75662,Gregg County,TX,23.239436619718308,NA,NA
75901,Angelina County,TX,NA,NA,36.52430044182621
75935,Shelby County,TX,75.11737089201877,NA,NA
76010,Tarrant County,TX,NA,4.477611940298507,NA
76014,Tarrant County,TX,19.483568075117372,NA,NA
76028,Johnson County,TX,NA,NA,11.045655375552283
76034,Tarrant County,TX,NA,NA,77.76141384388808
76050,Johnson County,TX,NA,NA,83.3578792341679
76065,Ellis County,TX,NA,NA,40.35346097201767
76087,Parker County,TX,46.009389671361504,NA,NA
76106,Tarrant County,TX,46.948356807511736,NA,49.48453608247423
76112,Tarrant County,TX,NA,NA,13.843888070692195
76115,Tarrant County,TX,NA,37.3134328358209,NA
76133,Tarrant County,TX,NA,13.930348258706468,NA
76134,Tarrant County,TX,45.539906103286384,NA,NA
76148,Tarrant County,TX,40.140845070422536,NA,NA
76226,Denton County,TX,47.88732394366197,NA,NA
76302,Wichita County,TX,NA,NA,73.78497790868926
76310,Wichita County,TX,NA,NA,73.04860088365243
76450,Young County,TX,67.6056338028169,NA,NA
76502,Bell County,TX,NA,NA,15.758468335787922
76528,Coryell County,TX,35.68075117370892,NA,NA
76548,Bell County,TX,NA,NA,46.09720176730486
76706,McLennan County,TX,NA,NA,34.75699558173785
76823,Brown County,TX,NA,NA,95.87628865979381
76901,Tom Green County,TX,NA,NA,51.39911634756995
77012,Harris County,TX,NA,NA,88.2179675994109
77013,Harris County,TX,NA,NA,84.97790868924889
77037,Harris County,TX,NA,65.17412935323384,NA
77047,Harris County,TX,51.40845070422535,NA,NA
77093,Harris County,TX,NA,28.855721393034827,NA
77095,Harris County,TX,NA,NA,17.23122238586156
77316,Montgomery County,TX,51.64319248826291,NA,NA
77346,Harris County,TX,NA,NA,20.176730486008836
77450,Harris County,TX,31.220657276995308,NA,NA
77493,Harris County,TX,NA,NA,63.18114874815905
77530,Harris County,TX,NA,29.35323383084577,NA
77541,Brazoria County,TX,NA,52.736318407960205,NA
77554,Galveston County,TX,NA,NA,91.31075110456554
77562,Harris County,TX,64.7887323943662,NA,NA
77566,Brazoria County,TX,NA,NA,53.90279823269514
77581,Brazoria County,TX,NA,NA,28.718703976435933
77627,Jefferson County,TX,51.173708920187785,NA,NA
77632,Orange County,TX,NA,NA,54.0500736377025
78003,Bandera County,TX,NA,NA,92.78350515463917
78009,Medina County,TX,93.1924882629108,NA,NA
78130,Comal County,TX,18.779342723004692,NA,NA
78154,Guadalupe County,TX,NA,NA,90.42709867452136
78213,Bexar County,TX,NA,NA,48.45360824742268
78220,Bexar County,TX,47.88732394366197,NA,NA
78223,Bexar County,TX,11.971830985915492,NA,NA
78249,Bexar County,TX,NA,69.65174129353234,NA
78355,Brooks County,TX,NA,93.53233830845771,NA
78582,Starr County,TX,41.78403755868544,NA,NA
78610,Hays County,TX,50.70422535211267,NA,NA
78613,Williamson County,TX,NA,56.21890547263681,NA
78633,Williamson County,TX,NA,NA,86.15611192930781
78666,Hays County,TX,NA,30.34825870646766,NA
78728,Travis County,TX,NA,NA,78.93961708394698
78934,Colorado County,TX,82.15962441314554,NA,NA
79701,Midland County,TX,31.690140845070424,57.2139303482587,NA
79707,Midland County,TX,NA,NA,32.98969072164948
79714,Andrews County,TX,43.89671361502347,NA,NA
79735,Pecos County,TX,NA,NA,70.25036818851251
79762,Ector County,TX,NA,55.223880597014926,NA
79763,Ector County,TX,11.502347417840376,NA,NA
79924,El Paso County,TX,NA,NA,44.77172312223859
79928,El Paso County,TX,18.30985915492958,NA,NA
84020,Salt Lake County,UT,30.751173708920188,NA,NA
84043,Utah County,UT,15.258215962441316,NA,NA
84074,Tooele County,UT,1.1737089201877933,NA,4.565537555228277
84078,Uintah County,UT,21.5962441314554,NA,NA
84088,Salt Lake County,UT,NA,NA,36.96612665684831
84092,Salt Lake County,UT,NA,NA,67.59941089837997
84104,Salt Lake County,UT,NA,NA,48.89543446244477
84129,,UT,NA,NA,28.57142857142857
84663,Utah County,UT,NA,NA,75.11045655375553
84721,Iron County,UT,69.48356807511738,NA,NA
84780,Washington County,UT,84.03755868544602,NA,NA
05201,Bennington County,VT,NA,NA,49.779086892488955
05478,Franklin County,VT,NA,NA,58.173784977908696
20111,Prince William County,VA,NA,NA,56.40648011782032
22046,Falls Church city,VA,NA,NA,84.24153166421208
22101,Fairfax County,VA,NA,NA,54.63917525773196
22191,Prince William County,VA,6.807511737089202,NA,NA
22401,Fredericksburg city,VA,59.624413145539904,NA,NA
23112,Chesterfield County,VA,57.27699530516433,NA,NA
23233,Henrico County,VA,NA,NA,94.10898379970544
23322,Chesapeake city,VA,73.47417840375586,NA,NA
23323,Chesapeake city,VA,NA,NA,34.167893961708394
23324,Chesapeake city,VA,NA,NA,41.08983799705449
23452,Virginia Beach city,VA,18.30985915492958,71.14427860696517,NA
23608,Newport News city,VA,NA,NA,18.262150220913107
23970,Mecklenburg County,VA,78.87323943661971,NA,NA
24018,Roanoke County,VA,60.798122065727696,NA,NA
24112,Henry County,VA,NA,34.82587064676617,NA
24211,Washington County,VA,NA,NA,79.6759941089838
24401,Staunton city,VA,NA,31.343283582089555,38.733431516936676
24517,Campbell County,VA,NA,NA,90.13254786450663
24551,Bedford County,VA,NA,NA,82.03240058910161
24605,Tazewell County,VA,65.72769953051643,NA,NA
98023,King County,WA,NA,NA,25.03681885125184
98026,Snohomish County,WA,NA,NA,34.02061855670103
98030,King County,WA,NA,NA,24.594992636229748
98032,King County,WA,NA,NA,44.62444771723123
98036,Snohomish County,WA,48.82629107981221,NA,NA
98057,King County,WA,NA,NA,93.66715758468335
98058,King County,WA,49.53051643192488,NA,NA
98116,King County,WA,NA,NA,70.54491899852725
98223,Snohomish County,WA,14.084507042253522,NA,NA
98321,Pierce County,WA,77.93427230046949,NA,NA
98335,Pierce County,WA,54.22535211267606,NA,NA
98375,Pierce County,WA,32.629107981220656,NA,NA
98387,Pierce County,WA,NA,53.233830845771145,NA
98403,Pierce County,WA,NA,NA,93.81443298969072
98407,Pierce County,WA,NA,NA,69.66126656848306
98502,Thurston County,WA,73.00469483568075,NA,63.91752577319587
98584,Mason County,WA,NA,NA,32.84241531664212
98802,Douglas County,WA,21.12676056338028,NA,NA
98837,Grant County,WA,21.36150234741784,NA,NA
98903,Yakima County,WA,NA,68.65671641791045,NA
98936,Yakima County,WA,97.41784037558685,NA,NA
98951,Yakima County,WA,NA,NA,88.36524300441826
99350,Benton County,WA,NA,NA,85.27245949926362
99352,Benton County,WA,NA,48.258706467661696,NA
99353,Benton County,WA,NA,93.03482587064677,NA
20007,District of Columbia,DC,NA,NA,78.20324005891017
20009,District of Columbia,DC,NA,NA,29.896907216494846
25311,Kanawha County,WV,NA,NA,70.83946980854198
25411,Morgan County,WV,NA,84.5771144278607,NA
25526,Putnam County,WV,52.347417840375584,NA,NA
25951,Summers County,WV,56.33802816901409,NA,NA
26003,Ohio County,WV,NA,24.875621890547265,NA
26104,Wood County,WV,55.16431924882629,NA,NA
26241,Randolph County,WV,NA,60.19900497512438,NA
26452,Lewis County,WV,NA,77.11442786069652,NA
26508,Monongalia County,WV,NA,50.74626865671642,NA
26525,Preston County,WV,NA,NA,89.39617083946982
53051,Waukesha County,WI,15.492957746478872,NA,NA
53125,Walworth County,WI,NA,NA,99.11634756995582
53140,Kenosha County,WI,NA,39.800995024875625,NA
53142,Kenosha County,WI,7.981220657276995,NA,NA
53154,Milwaukee County,WI,34.74178403755869,NA,21.06038291605302
53206,Milwaukee County,WI,NA,13.930348258706468,NA
53207,Milwaukee County,WI,35.2112676056338,NA,NA
53210,Milwaukee County,WI,NA,18.90547263681592,7.658321060382916
53223,Milwaukee County,WI,NA,NA,16.789396170839467
53703,Dane County,WI,52.816901408450704,NA,NA
53704,Dane County,WI,NA,NA,10.603829160530191
53813,Grant County,WI,90.3755868544601,NA,NA
53916,Dodge County,WI,37.79342723004695,NA,42.12076583210604
53950,Juneau County,WI,66.43192488262912,NA,NA
54020,Polk County,WI,76.52582159624414,NA,NA
54021,Pierce County,WI,73.70892018779342,NA,NA
54115,Brown County,WI,55.633802816901415,NA,48.306332842415316
54457,Wood County,WI,NA,NA,78.64506627393226
54871,Washburn County,WI,NA,NA,100
54914,Outagamie County,WI,28.87323943661972,NA,NA
54947,Winnebago County,WI,98.35680751173709,NA,NA
82240,Goshen County,WY,NA,NA,86.74521354933727
82701,Weston County,WY,99.53051643192488,NA,NA
