ZipCode,county,state,Adult,Retirement,Geriatric
35005,Jefferson County,AL,96.2589928057554,NA,NA
35016,Marshall County,AL,51.94244604316547,NA,NA
35022,Jefferson County,AL,NA,67.06408345752608,NA
35031,Blount County,AL,NA,84.79880774962743,NA
35054,St. Clair County,AL,98.1294964028777,NA,NA
35057,Cullman County,AL,73.5251798561151,NA,NA
35071,Jefferson County,AL,72.5179856115108,NA,NA
35079,Blount County,AL,NA,76.30402384500745,NA
35096,Talladega County,AL,NA,74.21758569299553,NA
35126,Jefferson County,AL,NA,77.19821162444114,NA
35173,Jefferson County,AL,77.41007194244605,NA,NA
35175,Marshall County,AL,NA,96.72131147540983,NA
35205,Jefferson County,AL,NA,88.6736214605067,NA
35216,Jefferson County,AL,NA,46.19970193740686,NA
35235,Jefferson County,AL,93.09352517985612,NA,NA
35242,Shelby County,AL,28.345323741007196,NA,NA
35243,Jefferson County,AL,NA,54.09836065573771,NA
35244,Jefferson County,AL,46.906474820143885,NA,NA
35404,Tuscaloosa County,AL,NA,29.210134128166914,NA
35405,Tuscaloosa County,AL,6.762589928057554,11.028315946348734,NA
35406,Tuscaloosa County,AL,NA,44.560357675111774,NA
35475,Tuscaloosa County,AL,87.05035971223022,NA,NA
35501,Walker County,AL,65.03597122302158,NA,NA
35504,Walker County,AL,NA,60.95380029806259,NA
35546,Fayette County,AL,91.94244604316548,NA,NA
35555,Fayette County,AL,63.16546762589928,NA,NA
35611,Limestone County,AL,20.575539568345324,NA,NA
35613,Limestone County,AL,72.23021582733813,NA,NA
35661,Colbert County,AL,NA,68.70342771982116,NA
35749,Madison County,AL,47.9136690647482,NA,NA
35763,Madison County,AL,NA,52.459016393442624,NA
35802,Madison County,AL,NA,60.804769001490314,NA
35805,Madison County,AL,43.7410071942446,NA,NA
35903,Etowah County,AL,NA,26.229508196721312,NA
35904,Etowah County,AL,NA,NA,71.8978102189781
35907,Etowah County,AL,81.43884892086331,NA,NA
35950,Marshall County,AL,38.99280575539568,NA,NA
35952,Etowah County,AL,NA,69.150521609538,NA
35956,Etowah County,AL,NA,77.34724292101342,NA
35971,DeKalb County,AL,94.67625899280576,NA,NA
36022,Elmore County,AL,71.65467625899281,NA,NA
36054,Elmore County,AL,NA,86.73621460506706,NA
36066,Autauga County,AL,NA,54.54545454545454,NA
36078,Elmore County,AL,NA,74.66467958271237,NA
36092,Elmore County,AL,NA,NA,85.03649635036497
36201,Calhoun County,AL,NA,76.75111773472429,NA
36265,Calhoun County,AL,94.24460431654677,NA,NA
36271,Calhoun County,AL,NA,NA,90.14598540145985
36301,Houston County,AL,NA,46.6467958271237,NA
36322,Dale County,AL,88.20143884892087,NA,NA
36330,Coffee County,AL,NA,NA,46.715328467153284
36345,Henry County,AL,NA,NA,96.35036496350365
36521,Mobile County,AL,96.54676258992806,NA,NA
36535,Baldwin County,AL,NA,NA,33.21167883211679
36542,Baldwin County,AL,NA,86.88524590163934,NA
36575,Mobile County,AL,58.417266187050366,NA,NA
36582,Mobile County,AL,NA,75.70789865871834,NA
36608,Mobile County,AL,NA,44.70938897168406,NA
36619,Mobile County,AL,NA,66.02086438152011,NA
36695,Mobile County,AL,NA,NA,75.18248175182481
36701,Dallas County,AL,23.309352517985612,NA,NA
99502,Anchorage Municipality,AK,NA,NA,70.07299270072993
99507,Anchorage Municipality,AK,NA,46.944858420268254,NA
99835,Sitka City and Borough,AK,59.280575539568346,NA,NA
85015,Maricopa County,AZ,NA,47.093889716840536,NA
85022,Maricopa County,AZ,51.36690647482014,NA,NA
85032,Maricopa County,AZ,11.223021582733812,NA,NA
85086,Maricopa County,AZ,37.985611510791365,NA,NA
85248,Maricopa County,AZ,57.122302158273385,NA,NA
85253,Maricopa County,AZ,NA,70.78986587183309,NA
85302,Maricopa County,AZ,NA,NA,52.55474452554745
85339,Maricopa County,AZ,NA,NA,88.6861313868613
85346,La Paz County,AZ,NA,NA,74.81751824817519
85382,Maricopa County,AZ,NA,38.74813710879285,NA
85552,Graham County,AZ,NA,92.99552906110283,NA
85653,Pima County,AZ,NA,32.48882265275708,NA
85710,Pima County,AZ,NA,14.157973174366617,6.204379562043796
85743,Pima County,AZ,NA,24.44113263785395,NA
85750,Pima County,AZ,NA,NA,39.78102189781022
85933,Navajo County,AZ,NA,NA,97.8102189781022
86301,Yavapai County,AZ,66.33093525179856,61.54992548435171,NA
86326,Yavapai County,AZ,19.568345323741006,NA,19.34306569343066
86442,Mohave County,AZ,23.884892086330936,8.49478390461997,NA
71701,Ouachita County,AR,NA,50.3725782414307,NA
71730,Union County,AR,NA,24.88822652757079,NA
71822,Little River County,AR,NA,90.1639344262295,NA
71913,Garland County,AR,34.53237410071942,NA,NA
71923,Clark County,AR,NA,86.43815201192251,NA
72023,Lonoke County,AR,NA,24.59016393442623,NA
72034,Faulkner County,AR,49.64028776978417,NA,NA
72081,White County,AR,84.46043165467626,NA,NA
72088,Van Buren County,AR,NA,95.97615499254843,NA
72104,Hot Spring County,AR,56.11510791366906,56.03576751117735,NA
72116,Pulaski County,AR,71.94244604316546,NA,NA
72173,Faulkner County,AR,NA,96.42324888226528,NA
72210,Pulaski County,AR,NA,60.20864381520119,NA
72364,Crittenden County,AR,85.89928057553958,NA,NA
72401,Craighead County,AR,11.510791366906476,9.985096870342772,NA
72404,Craighead County,AR,48.201438848920866,NA,NA
72745,Benton County,AR,82.58992805755395,NA,NA
72762,Washington County,AR,NA,56.03576751117735,NA
72904,Sebastian County,AR,NA,NA,83.94160583941606
72927,Logan County,AR,85.46762589928058,NA,NA
72936,Sebastian County,AR,NA,93.59165424739196,NA
72949,Franklin County,AR,NA,NA,72.99270072992701
90003,Los Angeles County,CA,31.798561151079134,NA,NA
90015,Los Angeles County,CA,NA,75.85692995529061,NA
90026,Los Angeles County,CA,75.25179856115109,NA,NA
90027,Los Angeles County,CA,58.70503597122302,NA,NA
90031,Los Angeles County,CA,69.06474820143885,NA,NA
90033,Los Angeles County,CA,NA,NA,43.06569343065693
90034,Los Angeles County,CA,NA,48.73323397913562,NA
90045,Los Angeles County,CA,62.589928057553955,NA,NA
90046,Los Angeles County,CA,49.92805755395683,NA,NA
90049,Los Angeles County,CA,NA,42.47391952309985,NA
90062,Los Angeles County,CA,NA,NA,55.1094890510949
90211,Los Angeles County,CA,NA,NA,79.1970802919708
90212,Los Angeles County,CA,NA,NA,63.868613138686136
90254,Los Angeles County,CA,NA,NA,86.13138686131386
90404,Los Angeles County,CA,92.94964028776978,NA,NA
90710,Los Angeles County,CA,NA,59.165424739195224,NA
90717,Los Angeles County,CA,NA,60.05961251862891,NA
90723,Los Angeles County,CA,78.41726618705036,NA,NA
90807,Los Angeles County,CA,NA,52.90611028315947,NA
91006,Los Angeles County,CA,83.7410071942446,NA,NA
91011,Los Angeles County,CA,NA,79.13561847988078,NA
91107,Los Angeles County,CA,75.97122302158273,NA,NA
91202,Los Angeles County,CA,NA,64.08345752608048,NA
91205,Los Angeles County,CA,NA,NA,26.277372262773724
91403,Los Angeles County,CA,78.12949640287769,NA,NA
91604,Los Angeles County,CA,58.417266187050366,NA,NA
91701,San Bernardino County,CA,21.007194244604317,NA,NA
91706,Los Angeles County,CA,57.985611510791365,NA,NA
91748,Los Angeles County,CA,NA,56.482861400894194,NA
91767,Los Angeles County,CA,NA,47.3919523099851,NA
91784,San Bernardino County,CA,NA,43.666169895678095,NA
92010,San Diego County,CA,NA,NA,84.67153284671532
92021,San Diego County,CA,NA,12.220566318926975,NA
92026,San Diego County,CA,53.956834532374096,NA,NA
92037,San Diego County,CA,NA,47.093889716840536,NA
92040,San Diego County,CA,NA,22.65275707898659,NA
92130,San Diego County,CA,NA,NA,75.54744525547446
92211,Riverside County,CA,NA,NA,2.9197080291970803
92234,Riverside County,CA,10.503597122302159,NA,NA
92240,Riverside County,CA,17.553956834532375,NA,NA
92253,Riverside County,CA,73.9568345323741,NA,NA
92260,Riverside County,CA,NA,NA,1.094890510948905
92262,Riverside County,CA,NA,9.090909090909092,NA
92270,Riverside County,CA,81.15107913669065,6.110283159463488,NA
92336,San Bernardino County,CA,NA,14.456035767511178,NA
92553,Riverside County,CA,22.87769784172662,NA,NA
92563,Riverside County,CA,29.784172661870507,36.661698956780924,NA
92567,Riverside County,CA,NA,NA,99.27007299270073
92584,Riverside County,CA,NA,53.65126676602087,NA
92610,Orange County,CA,NA,94.33681073025335,NA
92627,Orange County,CA,NA,26.37853949329359,NA
92637,Orange County,CA,NA,28.46497764530551,NA
92683,Orange County,CA,NA,16.84053651266766,NA
92691,Orange County,CA,NA,71.3859910581222,NA
92692,Orange County,CA,NA,21.013412816691503,NA
92801,Orange County,CA,30.35971223021583,NA,NA
92808,Orange County,CA,76.54676258992805,NA,NA
92870,Orange County,CA,NA,NA,13.86861313868613
93003,Ventura County,CA,NA,17.2876304023845,NA
93012,Ventura County,CA,68.05755395683454,NA,NA
93063,Ventura County,CA,66.76258992805757,21.90760059612519,NA
93108,Santa Barbara County,CA,NA,98.65871833084948,NA
93212,Kings County,CA,86.47482014388488,NA,NA
93240,Kern County,CA,NA,93.88971684053651,NA
93247,Tulare County,CA,NA,NA,80.2919708029197
93257,Tulare County,CA,NA,54.24739195230999,NA
93304,Kern County,CA,NA,NA,77.73722627737226
93312,Kern County,CA,NA,39.046199701937404,NA
93313,Kern County,CA,50.935251798561154,NA,NA
93401,San Luis Obispo County,CA,NA,48.8822652757079,NA
93436,Santa Barbara County,CA,12.086330935251798,NA,NA
93463,Santa Barbara County,CA,NA,95.82712369597616,NA
93536,Los Angeles County,CA,NA,47.988077496274215,NA
93560,Kern County,CA,NA,88.82265275707898,NA
93612,Fresno County,CA,42.87769784172662,NA,NA
93614,Madera County,CA,NA,77.94336810730253,NA
93950,Monterey County,CA,NA,NA,59.12408759124088
94015,San Mateo County,CA,NA,NA,4.014598540145985
94044,San Mateo County,CA,NA,23.994038748137108,NA
94087,Santa Clara County,CA,NA,NA,24.817518248175183
94089,Santa Clara County,CA,NA,79.58271236959762,NA
94513,Contra Costa County,CA,NA,20.417287630402384,28.832116788321166
94520,Contra Costa County,CA,NA,58.56929955290611,NA
94558,Napa County,CA,NA,5.514157973174367,NA
94561,Contra Costa County,CA,NA,44.113263785394935,NA
94605,Alameda County,CA,NA,19.523099850968702,NA
94610,Alameda County,CA,NA,64.82861400894187,NA
94619,Alameda County,CA,NA,55.88673621460507,NA
94952,Sonoma County,CA,NA,33.23397913561848,NA
94954,Sonoma County,CA,NA,30.402384500745157,NA
95020,Santa Clara County,CA,64.1726618705036,NA,NA
95129,Santa Clara County,CA,NA,70.6408345752608,NA
95135,Santa Clara County,CA,NA,73.77049180327869,NA
95321,Tuolumne County,CA,NA,NA,83.57664233576642
95328,Stanislaus County,CA,93.66906474820144,NA,NA
95337,San Joaquin County,CA,NA,37.85394932935917,NA
95355,Stanislaus County,CA,7.0503597122302155,NA,NA
95376,San Joaquin County,CA,NA,65.87183308494784,NA
95382,Stanislaus County,CA,NA,25.48435171385991,NA
95383,Tuolumne County,CA,NA,NA,79.56204379562044
95405,Sonoma County,CA,NA,51.1177347242921,71.16788321167883
95409,Sonoma County,CA,NA,NA,12.043795620437956
95422,Lake County,CA,59.56834532374101,NA,NA
95621,Sacramento County,CA,NA,82.26527570789865,NA
95677,Placer County,CA,78.56115107913669,NA,NA
95709,El Dorado County,CA,NA,78.83755588673621,NA
95758,Sacramento County,CA,NA,NA,39.78102189781022
95816,Sacramento County,CA,NA,NA,75.91240875912408
95826,Sacramento County,CA,NA,NA,54.379562043795616
95828,Sacramento County,CA,NA,NA,33.57664233576642
95835,Sacramento County,CA,67.76978417266187,NA,NA
95946,Nevada County,CA,89.06474820143885,NA,NA
96080,Tehama County,CA,NA,NA,41.605839416058394
80010,Arapahoe County,CO,14.964028776978417,NA,NA
80012,Arapahoe County,CO,NA,NA,17.153284671532848
80015,Arapahoe County,CO,14.244604316546763,NA,NA
80016,Arapahoe County,CO,NA,15.648286140089418,NA
80104,Douglas County,CO,80.57553956834532,NA,NA
80125,Douglas County,CO,92.23021582733813,NA,NA
80134,Douglas County,CO,NA,NA,92.7007299270073
80220,Denver County,CO,NA,86.14008941877795,NA
80249,Denver County,CO,32.94964028776978,NA,NA
80304,Boulder County,CO,NA,61.99701937406855,NA
80401,Jefferson County,CO,33.38129496402878,NA,NA
80403,Jefferson County,CO,NA,80.4769001490313,NA
80439,Jefferson County,CO,79.85611510791367,NA,NA
80526,Larimer County,CO,NA,29.508196721311474,NA
80537,Larimer County,CO,NA,12.965722801788376,NA
80620,Weld County,CO,42.73381294964029,NA,NA
80631,Weld County,CO,NA,22.205663189269746,68.97810218978103
80751,Logan County,CO,40.719424460431654,NA,NA
80915,El Paso County,CO,64.02877697841727,NA,NA
80916,El Paso County,CO,33.23741007194245,NA,NA
81005,Pueblo County,CO,34.10071942446043,NA,NA
81067,Otero County,CO,NA,96.1251862891207,NA
81226,Fremont County,CO,NA,NA,89.78102189781022
81301,La Plata County,CO,80,NA,81.02189781021897
81303,La Plata County,CO,NA,85.54396423248882,NA
06010,Hartford County,CT,NA,NA,2.5547445255474455
06037,Hartford County,CT,NA,55.29061102831595,NA
06051,Hartford County,CT,3.1654676258992804,NA,NA
06277,Windham County,CT,81.00719424460432,NA,NA
06401,New Haven County,CT,27.050359712230215,NA,NA
06413,Middlesex County,CT,82.73381294964028,NA,NA
06457,Middlesex County,CT,5.899280575539569,NA,NA
06483,New Haven County,CT,63.021582733812956,54.843517138599104,NA
06498,Middlesex County,CT,NA,81.37108792846497,NA
06513,New Haven County,CT,3.4532374100719423,NA,NA
06517,New Haven County,CT,NA,NA,53.284671532846716
06608,Fairfield County,CT,62.73381294964029,NA,NA
06611,Fairfield County,CT,NA,59.761549925484346,NA
06790,Litchfield County,CT,NA,1.3412816691505216,NA
06905,Fairfield County,CT,77.12230215827338,NA,NA
19720,New Castle County,DE,NA,1.9374068554396422,NA
19803,New Castle County,DE,83.45323741007195,NA,NA
19808,New Castle County,DE,18.41726618705036,NA,NA
19943,Kent County,DE,67.05035971223022,NA,NA
19956,Sussex County,DE,46.33093525179856,NA,NA
19966,Sussex County,DE,56.25899280575539,6.7064083457526085,NA
19977,Kent County,DE,NA,39.642324888226526,NA
32034,Nassau County,FL,49.49640287769784,NA,NA
32043,Clay County,FL,NA,18.7779433681073,NA
32082,St. Johns County,FL,NA,63.189269746646794,NA
32084,St. Johns County,FL,NA,NA,33.941605839416056
32086,St. Johns County,FL,41.15107913669065,NA,NA
32132,Volusia County,FL,NA,68.4053651266766,NA
32164,Flagler County,FL,79.71223021582733,NA,NA
32207,Duval County,FL,76.97841726618705,NA,54.74452554744526
32209,Duval County,FL,3.741007194244604,NA,NA
32221,Duval County,FL,NA,30.998509687034275,NA
32223,Duval County,FL,NA,29.806259314456035,NA
32226,Duval County,FL,42.44604316546763,NA,NA
32244,Duval County,FL,21.72661870503597,NA,NA
32250,Duval County,FL,NA,28.166915052160952,NA
32256,Duval County,FL,NA,33.53204172876304,NA
32344,Jefferson County,FL,NA,87.33233979135619,NA
32408,Bay County,FL,NA,62.4441132637854,NA
32459,Walton County,FL,NA,27.421758569299552,NA
32507,Escambia County,FL,NA,41.57973174366617,NA
32541,Okaloosa County,FL,65.89928057553956,NA,NA
32547,Okaloosa County,FL,39.71223021582734,NA,NA
32563,Santa Rosa County,FL,30.071942446043167,NA,NA
32579,Okaloosa County,FL,NA,84.2026825633383,NA
32583,Santa Rosa County,FL,NA,19.523099850968702,NA
32606,Alachua County,FL,30.503597122302157,NA,NA
32669,Alachua County,FL,66.0431654676259,NA,NA
32784,Lake County,FL,NA,63.33830104321908,NA
32807,Orange County,FL,44.60431654676259,NA,NA
32812,Orange County,FL,32.66187050359712,NA,NA
32926,Brevard County,FL,NA,39.34426229508197,NA
33014,Miami-Dade County,FL,NA,66.9150521609538,NA
33029,Broward County,FL,NA,NA,49.27007299270073
33040,Monroe County,FL,NA,37.5558867362146,NA
33126,Miami-Dade County,FL,NA,40.23845007451565,NA
33127,Miami-Dade County,FL,55.10791366906474,NA,NA
33139,Miami-Dade County,FL,NA,NA,10.218978102189782
33142,Miami-Dade County,FL,15.107913669064748,NA,NA
33156,Miami-Dade County,FL,79.13669064748201,NA,NA
33169,Miami-Dade County,FL,40,NA,NA
33177,Miami-Dade County,FL,42.302158273381295,NA,NA
33180,Miami-Dade County,FL,NA,NA,12.773722627737227
33184,Miami-Dade County,FL,NA,NA,48.54014598540146
33193,Miami-Dade County,FL,61.58273381294964,NA,NA
33442,Broward County,FL,92.80575539568345,NA,NA
33458,Palm Beach County,FL,19.85611510791367,20.566318926974663,NA
33462,Palm Beach County,FL,87.4820143884892,NA,NA
33470,Palm Beach County,FL,63.7410071942446,NA,NA
33477,Palm Beach County,FL,NA,72.57824143070046,NA
33565,Hillsborough County,FL,NA,NA,62.40875912408759
33572,Hillsborough County,FL,NA,55.14157973174366,NA
33598,Hillsborough County,FL,NA,66.61698956780924,NA
33637,Hillsborough County,FL,NA,NA,80.65693430656934
33759,Pinellas County,FL,NA,NA,47.08029197080292
33837,Polk County,FL,NA,45.30551415797318,NA
33873,Hardee County,FL,NA,65.57377049180327,NA
33903,Lee County,FL,NA,27.86885245901639,NA
33917,Lee County,FL,50.35971223021583,NA,NA
33957,Lee County,FL,99.71223021582733,NA,NA
33972,Lee County,FL,NA,91.20715350223547,NA
33991,Lee County,FL,67.19424460431654,NA,NA
34207,Manatee County,FL,NA,90.76005961251863,NA
34221,Manatee County,FL,35.39568345323741,NA,NA
34232,Sarasota County,FL,45.75539568345324,NA,NA
34471,Marion County,FL,51.07913669064749,NA,NA
34484,Sumter County,FL,NA,98.06259314456037,NA
34639,Pasco County,FL,79.42446043165468,NA,NA
34668,Pasco County,FL,NA,18.479880774962744,NA
34677,Pinellas County,FL,NA,NA,57.299270072992705
34788,Lake County,FL,65.75539568345323,NA,NA
34972,Okeechobee County,FL,59.13669064748201,NA,NA
34997,Martin County,FL,26.0431654676259,NA,NA
30012,Rockdale County,GA,52.80575539568345,NA,NA
30019,Gwinnett County,GA,70.2158273381295,NA,NA
30024,Gwinnett County,GA,NA,21.311475409836063,NA
30025,Walton County,GA,NA,NA,82.84671532846716
30039,Gwinnett County,GA,36.2589928057554,NA,NA
30041,Forsyth County,GA,82.3021582733813,NA,NA
30043,Gwinnett County,GA,18.56115107913669,NA,NA
30045,Gwinnett County,GA,57.41007194244604,NA,NA
30047,Gwinnett County,GA,NA,22.801788375558868,41.24087591240876
30062,Cobb County,GA,NA,NA,27.73722627737226
30075,Fulton County,GA,NA,80.92399403874813,NA
30080,Cobb County,GA,51.510791366906474,NA,NA
30094,Rockdale County,GA,NA,27.719821162444113,NA
30101,Cobb County,GA,NA,23.248882265275707,NA
30102,Cherokee County,GA,45.89928057553957,NA,NA
30127,Cobb County,GA,14.532374100719425,NA,NA
30135,Douglas County,GA,42.15827338129496,NA,NA
30144,Cobb County,GA,NA,NA,55.47445255474452
30220,Coweta County,GA,NA,NA,98.90510948905109
30228,Henry County,GA,27.482014388489205,NA,NA
30263,Coweta County,GA,8.345323741007196,NA,NA
30274,Clayton County,GA,37.55395683453238,NA,NA
30288,Clayton County,GA,NA,90.31296572280179,NA
30315,Fulton County,GA,NA,22.35469448584203,NA
30354,Fulton County,GA,92.5179856115108,NA,NA
30458,Bulloch County,GA,NA,NA,53.64963503649635
30504,Hall County,GA,NA,71.23695976154993,NA
30506,Hall County,GA,NA,17.138599105812222,NA
30518,Gwinnett County,GA,NA,30.849478390462,NA
30519,Gwinnett County,GA,NA,28.763040238450078,NA
30521,Franklin County,GA,NA,92.39940387481371,NA
30528,White County,GA,NA,46.497764530551414,NA
30533,Lumpkin County,GA,64.74820143884892,NA,NA
30534,Dawson County,GA,82.87769784172662,NA,NA
30540,Gilmer County,GA,NA,36.51266766020864,NA
30542,Hall County,GA,78.27338129496403,NA,NA
30548,Jackson County,GA,NA,45.90163934426229,NA
30628,Madison County,GA,NA,95.52906110283159,NA
30721,Whitfield County,GA,NA,39.046199701937404,NA
30736,Catoosa County,GA,9.06474820143885,NA,NA
30741,Walker County,GA,NA,16.542473919523097,NA
31015,Crisp County,GA,NA,28.614008941877795,NA
31021,Laurens County,GA,70.64748201438849,NA,NA
31024,Putnam County,GA,NA,NA,30.29197080291971
31052,Bibb County,GA,NA,84.35171385991057,NA
31055,Telfair County,GA,NA,90.01490312965723,NA
31063,Macon County,GA,93.9568345323741,NA,98.17518248175182
31064,Jasper County,GA,78.84892086330936,NA,NA
31210,Bibb County,GA,NA,53.20417287630402,NA
31313,Liberty County,GA,NA,69.74664679582713,NA
31322,Chatham County,GA,NA,70.04470938897168,NA
31516,Pierce County,GA,NA,NA,82.48175182481752
31533,Coffee County,GA,61.15107913669065,NA,NA
31601,Lowndes County,GA,58.27338129496403,32.63785394932936,NA
31714,Turner County,GA,75.10791366906476,NA,NA
31791,Worth County,GA,78.70503597122303,NA,NA
31804,Harris County,GA,97.84172661870504,NA,NA
31822,Harris County,GA,NA,87.03427719821163,NA
96720,Hawaii County,HI,NA,NA,31.751824817518248
96741,Kauai County,HI,90.50359712230215,NA,NA
96744,Honolulu County,HI,NA,1.7883755588673622,NA
96792,Honolulu County,HI,NA,20.268256333830102,NA
96797,Honolulu County,HI,NA,5.216095380029806,10.948905109489052
96817,Honolulu County,HI,NA,NA,4.37956204379562
96819,Honolulu County,HI,12.661870503597122,NA,NA
96822,Honolulu County,HI,NA,16.691505216095383,NA
83201,Bannock County,ID,NA,33.97913561847988,NA
83402,Bonneville County,ID,NA,41.87779433681073,NA
83651,Canyon County,ID,14.100719424460431,NA,NA
83660,Canyon County,ID,83.16546762589928,NA,NA
83687,Canyon County,ID,17.697841726618705,NA,NA
83854,Kootenai County,ID,29.35251798561151,NA,NA
83858,Kootenai County,ID,NA,62.891207153502236,NA
60010,Lake County,IL,NA,12.071535022354695,NA
60012,McHenry County,IL,NA,58.27123695976155,NA
60013,McHenry County,IL,56.402877697841724,NA,NA
60014,McHenry County,IL,NA,45.156482861400896,NA
60074,Cook County,IL,NA,88.52459016393442,NA
60084,Lake County,IL,NA,NA,91.24087591240875
60098,McHenry County,IL,28.05755395683453,NA,NA
60099,Lake County,IL,NA,NA,65.69343065693431
60104,Cook County,IL,NA,23.09985096870343,NA
60134,Kane County,IL,NA,NA,90.51094890510949
60152,McHenry County,IL,NA,48.1371087928465,NA
60155,Cook County,IL,NA,85.6929955290611,NA
60169,Cook County,IL,NA,49.32935916542474,NA
60175,Kane County,IL,23.453237410071942,NA,NA
60402,Cook County,IL,9.352517985611511,NA,NA
60406,Cook County,IL,52.80575539568345,NA,NA
60410,Will County,IL,47.62589928057554,NA,NA
60411,Cook County,IL,NA,8.345752608047691,NA
60423,Will County,IL,NA,19.374068554396423,NA
60425,Cook County,IL,NA,68.85245901639344,NA
60467,Cook County,IL,49.20863309352518,NA,NA
60471,Cook County,IL,NA,93.44262295081968,NA
60477,Cook County,IL,22.446043165467625,NA,NA
60505,Kane County,IL,NA,NA,48.9051094890511
60510,Kane County,IL,NA,45.603576751117735,NA
60514,DuPage County,IL,91.22302158273381,NA,NA
60515,DuPage County,IL,38.1294964028777,NA,NA
60526,Cook County,IL,NA,NA,37.22627737226277
60527,DuPage County,IL,NA,97.91356184798808,NA
60532,DuPage County,IL,74.53237410071942,NA,NA
60548,DeKalb County,IL,NA,63.934426229508205,NA
60554,Kane County,IL,NA,NA,78.1021897810219
60560,Kendall County,IL,41.294964028776974,NA,NA
60601,Cook County,IL,85.17985611510791,NA,NA
60608,Cook County,IL,NA,NA,7.664233576642336
60631,Cook County,IL,NA,44.85842026825633,NA
60645,Cook County,IL,32.805755395683455,NA,NA
60707,Cook County,IL,NA,8.047690014903129,NA
60901,Kankakee County,IL,12.805755395683452,NA,40.51094890510949
61061,Ogle County,IL,NA,NA,45.98540145985402
61074,Carroll County,IL,NA,92.25037257824144,NA
61085,Jo Daviess County,IL,100,NA,NA
61356,Bureau County,IL,73.81294964028777,NA,NA
61362,Bureau County,IL,89.20863309352518,NA,NA
61443,Henry County,IL,60.86330935251798,NA,NA
61571,Tazewell County,IL,NA,47.69001490312966,NA
61614,Peoria County,IL,72.94964028776978,NA,NA
61761,McLean County,IL,37.26618705035971,NA,NA
61820,Champaign County,IL,72.37410071942446,NA,NA
61938,Coles County,IL,NA,34.277198211624444,NA
62035,Madison County,IL,NA,52.011922503725785,NA
62234,Madison County,IL,48.776978417266186,NA,NA
62263,Washington County,IL,NA,94.18777943368107,NA
62278,Randolph County,IL,92.08633093525181,NA,NA
62441,Clark County,IL,NA,85.09687034277198,NA
62450,Richland County,IL,86.0431654676259,NA,NA
62565,Shelby County,IL,81.87050359712231,NA,NA
62681,Schuyler County,IL,NA,79.88077496274218,NA
62703,Sangamon County,IL,26.762589928057558,NA,NA
46113,Marion County,IN,NA,69.59761549925484,NA
46123,Hendricks County,IN,NA,37.257824143070046,NA
46163,Hancock County,IN,NA,64.53055141579732,NA
46217,Marion County,IN,50.79136690647482,NA,NA
46241,Marion County,IN,NA,30.998509687034275,NA
46254,Marion County,IN,NA,25.78241430700447,NA
46256,Marion County,IN,NA,37.704918032786885,NA
46310,Jasper County,IN,51.798561151079134,NA,NA
46321,Lake County,IN,NA,13.412816691505217,NA
46322,Lake County,IN,20.14388489208633,NA,NA
46360,LaPorte County,IN,4.316546762589928,3.5767511177347244,NA
46410,Lake County,IN,NA,58.42026825633383,NA
46514,Elkhart County,IN,26.33093525179856,NA,NA
46516,Elkhart County,IN,12.949640287769784,NA,NA
46580,Kosciusko County,IN,NA,49.32935916542474,NA
46733,Adams County,IN,NA,43.36810730253353,NA
46750,Huntington County,IN,NA,NA,22.99270072992701
46767,Noble County,IN,88.05755395683454,NA,NA
46777,Wells County,IN,NA,NA,97.44525547445255
46808,Allen County,IN,29.208633093525183,NA,NA
46901,Howard County,IN,1.4388489208633095,NA,NA
46902,Howard County,IN,16.402877697841728,21.609538002980628,NA
47203,Bartholomew County,IN,31.510791366906478,NA,NA
47362,Henry County,IN,17.41007194244604,NA,NA
47374,Wayne County,IN,38.273381294964025,NA,NA
47460,Owen County,IN,NA,70.34277198211625,NA
47512,Knox County,IN,NA,99.40387481371089,NA
47630,Warrick County,IN,41.8705035971223,NA,NA
50036,Boone County,IA,65.61151079136691,89.12071535022355,NA
50201,Story County,IA,96.40287769784173,NA,NA
50320,Polk County,IA,NA,62.14605067064084,NA
50701,Black Hawk County,IA,NA,21.758569299552907,NA
51103,Woodbury County,IA,47.482014388489205,NA,NA
51108,Woodbury County,IA,91.36690647482014,NA,NA
51501,Pottawattamie County,IA,2.5899280575539567,NA,NA
51503,Pottawattamie County,IA,NA,3.129657228017884,NA
52002,Dubuque County,IA,90.2158273381295,NA,NA
52060,Jackson County,IA,84.74820143884892,NA,NA
52333,Johnson County,IA,NA,91.0581222056632,NA
52627,Lee County,IA,NA,38.89716840536513,51.45985401459854
52632,Lee County,IA,37.697841726618705,NA,NA
52722,Scott County,IA,NA,25.335320417287633,NA
52803,Scott County,IA,31.366906474820144,NA,NA
66106,Wyandotte County,KS,NA,93.2935916542474,NA
66215,Johnson County,KS,NA,NA,39.05109489051095
66219,Johnson County,KS,85.61151079136691,NA,NA
66604,Shawnee County,KS,NA,35.61847988077496,NA
66725,Cherokee County,KS,89.64028776978418,NA,NA
66801,Lyon County,KS,NA,50.22354694485842,NA
67003,Harper County,KS,NA,96.57228017883756,NA
67042,Butler County,KS,NA,84.9478390461997,NA
67152,Sumner County,KS,95.8273381294964,NA,NA
67401,Saline County,KS,52.51798561151079,NA,NA
67456,McPherson County,KS,NA,71.68405365126677,NA
67601,Ellis County,KS,NA,16.095380029806257,NA
40004,Nelson County,KY,NA,23.84500745156483,NA
40006,Trimble County,KY,92.5179856115108,NA,NA
40031,Oldham County,KY,28.92086330935252,49.6274217585693,NA
40065,Shelby County,KY,NA,NA,63.138686131386855
40160,Hardin County,KY,29.06474820143885,NA,NA
40165,Bullitt County,KY,10.359712230215827,NA,NA
40203,Jefferson County,KY,NA,35.02235469448584,NA
40206,Jefferson County,KY,NA,NA,76.64233576642336
40212,Jefferson County,KY,NA,83.01043219076007,NA
40213,Jefferson County,KY,NA,44.26229508196721,NA
40216,Jefferson County,KY,7.338129496402877,NA,NA
40223,Jefferson County,KY,NA,NA,51.09489051094891
40291,Jefferson County,KY,NA,15.797317436661698,NA
40342,Anderson County,KY,30.79136690647482,NA,NA
40383,Woodford County,KY,NA,38.00298062593144,NA
40475,Madison County,KY,6.618705035971223,NA,NA
40503,Fayette County,KY,NA,60.50670640834576,NA
40505,Fayette County,KY,19.280575539568346,NA,NA
40508,Fayette County,KY,NA,NA,72.26277372262774
40744,Laurel County,KY,NA,50.670640834575266,NA
40962,Clay County,KY,48.34532374100719,NA,NA
40965,Bell County,KY,22.73381294964029,NA,NA
41008,Carroll County,KY,NA,92.84649776453055,NA
41035,Grant County,KY,45.17985611510792,NA,NA
41042,Boone County,KY,4.460431654676259,NA,NA
41071,Campbell County,KY,NA,NA,56.20437956204379
41094,Boone County,KY,NA,NA,92.33576642335767
41164,Carter County,KY,65.32374100719424,NA,NA
41230,Lawrence County,KY,NA,73.02533532041728,NA
41465,Magoffin County,KY,57.84172661870504,NA,NA
41572,Pike County,KY,NA,94.63487332339791,NA
42127,Barren County,KY,NA,76.15499254843517,NA
42240,Christian County,KY,NA,12.369597615499254,NA
42256,Logan County,KY,83.30935251798562,NA,NA
42303,Daviess County,KY,7.913669064748201,NA,NA
42503,Pulaski County,KY,89.7841726618705,NA,NA
42553,Pulaski County,KY,NA,83.4575260804769,NA
42718,Taylor County,KY,38.705035971223026,7.749627421758569,9.854014598540147
70068,St. John the Baptist Parish,LA,NA,NA,29.1970802919708
70072,Jefferson Parish,LA,NA,NA,5.474452554744526
70087,St. Charles Parish,LA,NA,96.274217585693,NA
70092,St. Bernard Parish,LA,84.89208633093526,NA,NA
70119,Orleans Parish,LA,NA,NA,67.51824817518248
70122,Orleans Parish,LA,NA,9.38897168405365,NA
70124,Orleans Parish,LA,NA,70.93889716840536,NA
70130,Orleans Parish,LA,NA,31.594634873323397,NA
70301,Lafourche Parish,LA,1.870503597122302,6.4083457526080485,NA
70360,Terrebonne Parish,LA,NA,NA,84.30656934306569
70364,Terrebonne Parish,LA,NA,NA,46.35036496350365
70435,St. Tammany Parish,LA,NA,48.58420268256334,NA
70437,St. Tammany Parish,LA,59.71223021582733,NA,NA
70454,Tangipahoa Parish,LA,7.1942446043165464,NA,NA
70501,Lafayette Parish,LA,1.5827338129496402,NA,NA
70506,Lafayette Parish,LA,NA,67.21311475409836,NA
70548,Vermilion Parish,LA,30.647482014388487,NA,NA
70554,Evangeline Parish,LA,74.67625899280576,NA,NA
70634,Beauregard Parish,LA,20.431654676258994,NA,NA
70663,Calcasieu Parish,LA,NA,NA,42.700729927007295
70706,Livingston Parish,LA,NA,54.992548435171386,NA
70726,Livingston Parish,LA,1.2949640287769784,NA,NA
70764,Iberville Parish,LA,NA,55.58867362146051,NA
70791,East Baton Rouge Parish,LA,10.071942446043165,NA,NA
70818,East Baton Rouge Parish,LA,NA,NA,94.16058394160584
71037,Bossier Parish,LA,NA,78.83755588673621,NA
71040,Claiborne Parish,LA,NA,95.67809239940388,NA
71078,De Soto Parish,LA,NA,72.87630402384501,NA
71106,Caddo Parish,LA,4.892086330935252,NA,NA
71107,Caddo Parish,LA,13.237410071942445,NA,NA
71109,Caddo Parish,LA,5.179856115107913,22.056631892697467,NA
71112,Bossier Parish,LA,NA,20.864381520119224,NA
71115,Caddo Parish,LA,NA,95.23099850968704,NA
71119,Caddo Parish,LA,NA,NA,64.96350364963503
71201,Ouachita Parish,LA,NA,41.87779433681073,NA
71225,Ouachita Parish,LA,88.34532374100719,NA,NA
71291,Ouachita Parish,LA,NA,NA,59.12408759124088
71301,Rapides Parish,LA,NA,NA,86.4963503649635
71342,La Salle Parish,LA,NA,61.698956780924,NA
71360,Rapides Parish,LA,NA,23.546944858420268,NA
04079,Cumberland County,ME,NA,NA,68.24817518248175
04253,Androscoggin County,ME,98.70503597122303,NA,NA
04730,Aroostook County,ME,57.266187050359704,NA,NA
20602,Charles County,MD,73.66906474820144,NA,NA
20607,Prince George's County,MD,88.63309352517985,NA,NA
20636,St. Mary's County,MD,84.17266187050359,NA,NA
20743,Prince George's County,MD,31.22302158273381,NA,NA
20877,Montgomery County,MD,76.40287769784173,NA,NA
21047,Harford County,MD,NA,79.28464977645305,NA
21050,Harford County,MD,71.65467625899281,NA,NA
21061,Anne Arundel County,MD,7.625899280575539,NA,NA
21090,Anne Arundel County,MD,84.02877697841727,NA,NA
21117,Baltimore County,MD,NA,57.67511177347243,NA
21207,Baltimore County,MD,80,NA,NA
21220,Baltimore County,MD,14.388489208633093,NA,NA
21550,Garrett County,MD,NA,NA,15.693430656934307
21632,Caroline County,MD,NA,81.07302533532041,NA
21678,Kent County,MD,NA,97.7645305514158,NA
21713,Washington County,MD,95.25179856115108,NA,NA
21793,Frederick County,MD,97.2661870503597,NA,NA
21863,Worcester County,MD,NA,91.50521609538002,NA
21921,Cecil County,MD,NA,4.918032786885246,NA
01013,Hampden County,MA,NA,NA,18.613138686131386
01331,Worcester County,MA,3.884892086330935,NA,NA
01450,Middlesex County,MA,NA,99.2548435171386,NA
01453,Worcester County,MA,NA,NA,14.233576642335766
01520,Worcester County,MA,NA,46.79582712369598,NA
01581,Worcester County,MA,NA,NA,60.58394160583942
01610,Worcester County,MA,NA,2.8315946348733236,NA
01742,Middlesex County,MA,53.23741007194245,NA,NA
01746,Middlesex County,MA,16.97841726618705,NA,NA
01748,Middlesex County,MA,NA,NA,82.84671532846716
01757,Worcester County,MA,NA,26.527570789865873,NA
01833,Essex County,MA,NA,NA,88.32116788321169
01876,Middlesex County,MA,5.467625899280575,NA,NA
01902,Essex County,MA,NA,0.5961251862891207,NA
01940,Essex County,MA,99.85611510791367,NA,NA
02045,Plymouth County,MA,NA,79.73174366616989,NA
02066,Plymouth County,MA,33.669064748201436,39.94038748137109,NA
02121,Suffolk County,MA,0.28776978417266186,NA,4.744525547445255
02124,Suffolk County,MA,NA,0,NA
02126,Suffolk County,MA,0.4316546762589928,NA,NA
02127,Suffolk County,MA,1.0071942446043165,NA,NA
02136,Suffolk County,MA,NA,60.35767511177347,NA
02155,Middlesex County,MA,NA,NA,0.36496350364963503
02169,Norfolk County,MA,NA,0.44709388971684055,NA
02188,Norfolk County,MA,50.64748201438849,NA,NA
02333,Plymouth County,MA,NA,39.34426229508197,NA
02341,Plymouth County,MA,39.280575539568346,NA,NA
02351,Plymouth County,MA,12.51798561151079,NA,NA
02360,Plymouth County,MA,NA,0.14903129657228018,NA
02458,Middlesex County,MA,46.18705035971223,NA,NA
02461,Middlesex County,MA,NA,65.12667660208645,NA
02492,Norfolk County,MA,NA,24.29210134128167,NA
02563,Barnstable County,MA,NA,51.56482861400894,NA
02649,Barnstable County,MA,34.10071942446043,NA,NA
02703,Bristol County,MA,NA,8.64381520119225,30.656934306569344
02720,Bristol County,MA,0,NA,NA
02747,Bristol County,MA,23.597122302158276,NA,NA
48015,Macomb County,MI,55.25179856115108,NA,NA
48071,Oakland County,MI,21.43884892086331,NA,NA
48088,Macomb County,MI,NA,NA,18.97810218978102
48089,Macomb County,MI,28.201438848920862,55.439642324888226,NA
48150,Wayne County,MI,23.16546762589928,NA,NA
48162,Monroe County,MI,9.784172661870503,NA,12.408759124087592
48166,Monroe County,MI,NA,32.78688524590164,NA
48180,Wayne County,MI,2.158273381294964,NA,NA
48204,Wayne County,MI,NA,26.97466467958271,NA
48209,Wayne County,MI,NA,44.85842026825633,NA
48212,Wayne County,MI,7.76978417266187,NA,NA
48223,Wayne County,MI,NA,NA,58.02919708029197
48238,Wayne County,MI,4.028776978417266,NA,NA
48239,Wayne County,MI,6.906474820143885,NA,NA
48301,Oakland County,MI,62.87769784172662,NA,NA
48334,Oakland County,MI,53.38129496402878,NA,NA
48341,Oakland County,MI,26.47482014388489,NA,NA
48342,Oakland County,MI,10.93525179856115,NA,NA
48360,Oakland County,MI,NA,59.01639344262295,NA
48446,Lapeer County,MI,10.79136690647482,NA,NA
48458,Genesee County,MI,27.194244604316548,NA,NA
48473,Genesee County,MI,NA,34.575260804769,NA
48506,Genesee County,MI,56.97841726618705,33.383010432190765,49.63503649635037
48602,Saginaw County,MI,3.0215827338129495,NA,NA
48612,Gladwin County,MI,60.143884892086334,NA,NA
48661,Ogemaw County,MI,53.669064748201436,NA,NA
48708,Bay County,MI,6.18705035971223,NA,NA
48739,Iosco County,MI,84.31654676258992,NA,NA
48820,Clinton County,MI,NA,42.77198211624441,NA
48842,Ingham County,MI,NA,NA,55.839416058394164
48911,Ingham County,MI,5.0359712230215825,NA,NA
49014,Calhoun County,MI,14.820143884892087,NA,NA
49080,Allegan County,MI,41.007194244604314,NA,NA
49117,Berrien County,MI,97.41007194244604,NA,NA
49202,Jackson County,MI,29.640287769784173,NA,NA
49221,Lenawee County,MI,3.3093525179856114,NA,NA
49230,Jackson County,MI,NA,43.81520119225038,NA
49270,Monroe County,MI,98.56115107913669,NA,NA
49316,Kent County,MI,NA,40.98360655737705,NA
49401,Ottawa County,MI,57.697841726618705,NA,NA
49417,Ottawa County,MI,NA,4.769001490312966,NA
49431,Mason County,MI,NA,21.460506706408346,NA
49442,Muskegon County,MI,14.676258992805755,NA,NA
49461,Muskegon County,MI,73.09352517985612,NA,NA
49707,Alpena County,MI,NA,17.58569299552906,NA
49837,Delta County,MI,51.65467625899281,NA,NA
49855,Marquette County,MI,NA,13.263785394932937,NA
49878,Delta County,MI,NA,83.30849478390462,NA
49935,Iron County,MI,71.07913669064749,NA,NA
49938,Gogebic County,MI,NA,92.69746646795826,NA
55038,Washington County,MN,NA,83.90461997019374,NA
55104,Ramsey County,MN,44.31654676258992,NA,NA
55122,Dakota County,MN,64.60431654676259,NA,NA
55337,Dakota County,MN,NA,20.119225037257824,NA
55344,Hennepin County,MN,89.49640287769785,NA,NA
55376,Wright County,MN,NA,87.1833084947839,NA
55433,Anoka County,MN,31.654676258992804,NA,NA
55720,Carlton County,MN,NA,NA,37.95620437956204
55746,St. Louis County,MN,NA,28.315946348733235,NA
55947,Houston County,MN,NA,54.396423248882265,NA
56071,Scott County,MN,NA,78.39046199701937,NA
56308,Douglas County,MN,NA,10.432190760059612,NA
56470,Hubbard County,MN,66.61870503597123,NA,NA
56482,Wadena County,MN,NA,51.8628912071535,NA
38654,DeSoto County,MS,NA,18.628912071535023,NA
38663,Tippah County,MS,NA,NA,62.04379562043796
38801,Lee County,MS,35.827338129496404,NA,NA
38827,Tishomingo County,MS,NA,99.70193740685544,NA
38941,Leflore County,MS,96.97841726618705,NA,NA
39046,Madison County,MS,60,49.92548435171386,NA
39120,Adams County,MS,NA,49.18032786885246,NA
39206,Hinds County,MS,25.179856115107913,NA,NA
39301,Lauderdale County,MS,93.23741007194245,NA,64.59854014598541
39367,Wayne County,MS,NA,NA,77.37226277372264
39452,George County,MS,NA,NA,32.481751824817515
39465,Forrest County,MS,NA,75.26080476900148,NA
39532,Harrison County,MS,NA,NA,14.5985401459854
39540,Harrison County,MS,NA,58.56929955290611,NA
39562,Jackson County,MS,NA,41.132637853949326,NA
39564,Jackson County,MS,NA,63.63636363636363,NA
39573,Stone County,MS,90.2158273381295,NA,NA
39601,Lincoln County,MS,45.32374100719424,NA,NA
63034,St. Louis County,MO,NA,48.43517138599106,NA
63044,St. Louis County,MO,NA,NA,51.82481751824818
63050,Jefferson County,MO,NA,NA,93.7956204379562
63051,Jefferson County,MO,NA,64.23248882265275,NA
63108,St. Louis city,MO,NA,NA,63.503649635036496
63123,St. Louis County,MO,NA,NA,1.824817518248175
63136,St. Louis County,MO,NA,8.19672131147541,NA
63141,St. Louis County,MO,92.37410071942446,NA,NA
63146,St. Louis County,MO,NA,NA,5.839416058394161
63301,St. Charles County,MO,NA,2.086438152011923,NA
63304,St. Charles County,MO,62.01438848920864,NA,16.05839416058394
63601,St. Francois County,MO,NA,NA,65.32846715328468
63670,Ste. Genevieve County,MO,57.985611510791365,NA,NA
63701,Cape Girardeau County,MO,NA,NA,22.26277372262774
63740,Scott County,MO,NA,90.31296572280179,NA
63775,Perry County,MO,32.23021582733813,NA,NA
63857,Dunklin County,MO,NA,NA,73.35766423357664
64063,Jackson County,MO,NA,34.42622950819672,NA
64076,Lafayette County,MO,NA,77.4962742175857,NA
64078,Cass County,MO,68.20143884892086,NA,NA
64119,Clay County,MO,8.489208633093526,NA,34.306569343065696
64130,Jackson County,MO,5.323741007194244,NA,NA
64132,Jackson County,MO,11.366906474820144,NA,NA
64156,Clay County,MO,NA,99.85096870342772,NA
64503,Buchanan County,MO,21.58273381294964,NA,NA
64735,Henry County,MO,NA,36.0655737704918,NA
64804,Jasper County,MO,NA,6.557377049180328,NA
64834,Jasper County,MO,80.86330935251799,NA,NA
64850,Newton County,MO,NA,18.0327868852459,NA
65202,Boone County,MO,8.633093525179856,NA,NA
65301,Pettis County,MO,52.37410071942447,NA,NA
65340,Saline County,MO,30.935251798561154,NA,NA
65401,Phelps County,MO,69.64028776978417,NA,NA
65616,Taney County,MO,NA,NA,60.94890510948905
65775,Howell County,MO,NA,29.06110283159464,47.81021897810219
59101,Yellowstone County,MT,35.68345323741007,NA,NA
59102,Yellowstone County,MT,NA,3.427719821162444,NA
59404,Cascade County,MT,NA,8.79284649776453,NA
59601,Lewis and Clark County,MT,NA,NA,21.16788321167883
59634,Jefferson County,MT,93.5251798561151,NA,NA
59828,Ravalli County,MT,NA,81.66915052160954,NA
59860,Lake County,MT,98.27338129496403,NA,NA
59937,Flathead County,MT,NA,66.76602086438153,NA
68028,Sarpy County,NE,NA,NA,98.54014598540147
68116,Douglas County,NE,NA,56.92995529061102,71.53284671532847
68127,Douglas County,NE,66.76258992805757,NA,NA
68147,Sarpy County,NE,88.48920863309353,NA,NA
68601,Platte County,NE,NA,38.152011922503725,NA
68845,Buffalo County,NE,NA,60.50670640834576,NA
89120,Clark County,NV,75.8273381294964,NA,NA
89123,Clark County,NV,NA,NA,50.36496350364964
89403,Lyon County,NV,34.96402877697842,NA,NA
89406,Churchill County,NV,38.41726618705036,26.08047690014903,NA
89408,Lyon County,NV,33.9568345323741,NA,NA
89410,Douglas County,NV,NA,78.68852459016394,NA
89502,Washoe County,NV,50.50359712230216,NA,NA
89512,Washoe County,NV,12.37410071942446,NA,NA
89815,Elko County,NV,81.58273381294964,74.96274217585693,NA
03051,Hillsborough County,NH,54.67625899280576,NA,NA
03076,Hillsborough County,NH,84.60431654676259,NA,NA
03102,Hillsborough County,NH,52.0863309352518,NA,NA
03103,Hillsborough County,NH,22.014388489208635,NA,NA
03766,Grafton County,NH,91.79856115107914,NA,NA
03842,Rockingham County,NH,69.92805755395683,NA,NA
03862,Rockingham County,NH,95.97122302158273,NA,NA
07012,Passaic County,NJ,NA,84.50074515648286,NA
07039,Essex County,NJ,NA,32.3397913561848,NA
07052,Essex County,NJ,NA,12.667660208643817,NA
07055,Passaic County,NJ,0.8633093525179856,NA,NA
07071,Bergen County,NJ,NA,NA,66.78832116788321
07104,Essex County,NJ,0.5755395683453237,NA,NA
07460,Sussex County,NJ,NA,99.10581222056632,NA
07470,Passaic County,NJ,NA,2.384500745156483,NA
07601,Bergen County,NJ,NA,4.619970193740686,NA
07621,Bergen County,NJ,NA,NA,43.43065693430657
07628,Bergen County,NJ,NA,NA,44.89051094890511
07712,Monmouth County,NJ,NA,NA,25.547445255474454
07734,Monmouth County,NJ,17.12230215827338,NA,NA
07826,Sussex County,NJ,NA,NA,95.98540145985402
07869,Morris County,NJ,NA,91.65424739195231,NA
08046,Burlington County,NJ,4.748201438848921,NA,NA
08077,Burlington County,NJ,NA,58.867362146050674,NA
08103,Camden County,NJ,NA,17.436661698956783,NA
08807,Somerset County,NJ,NA,36.214605067064085,35.76642335766424
08854,Middlesex County,NJ,NA,NA,27.00729927007299
08861,Middlesex County,NJ,1.1510791366906474,NA,NA
87120,Bernalillo County,NM,NA,11.773472429210134,NA
87401,San Juan County,NM,NA,33.97913561847988,NA
88001,Doa Ana County,NM,NA,NA,47.44525547445255
88005,Doa Ana County,NM,40.28776978417266,NA,NA
88061,Grant County,NM,NA,65.27570789865872,NA
88203,Chaves County,NM,NA,15.946348733233979,NA
10001,New York County,NY,NA,4.470938897168406,NA
10010,New York County,NY,82.87769784172662,52.16095380029806,NA
10027,New York County,NY,NA,NA,26.642335766423358
10034,New York County,NY,NA,13.412816691505217,NA
10305,Richmond County,NY,82.44604316546763,NA,NA
10451,Bronx County,NY,NA,5.067064083457526,NA
10461,Bronx County,NY,NA,NA,24.087591240875913
10463,Bronx County,NY,NA,2.9806259314456036,NA
10468,Bronx County,NY,NA,NA,6.569343065693431
10530,Westchester County,NY,NA,NA,54.01459854014598
10538,Westchester County,NY,NA,NA,89.05109489051095
10701,Westchester County,NY,NA,NA,20.072992700729927
10704,Westchester County,NY,NA,NA,45.25547445255474
11003,Nassau County,NY,56.83453237410072,NA,NA
11216,Kings County,NY,NA,5.812220566318927,NA
11238,Kings County,NY,16.834532374100718,NA,NA
11385,Queens County,NY,7.482014388489208,NA,NA
11554,Nassau County,NY,NA,41.43070044709389,NA
11701,Suffolk County,NY,NA,61.40089418777943,NA
11738,Suffolk County,NY,NA,88.07749627421758,NA
11743,Suffolk County,NY,94.3884892086331,NA,NA
11762,Nassau County,NY,NA,79.88077496274218,NA
12117,Fulton County,NY,93.38129496402877,NA,NA
12204,Albany County,NY,65.03597122302158,NA,NA
12306,Schenectady County,NY,28.489208633093526,NA,NA
12428,Ulster County,NY,NA,NA,91.6058394160584
12533,Dutchess County,NY,NA,83.75558867362146,NA
12601,Dutchess County,NY,24.89208633093525,NA,NA
12834,Washington County,NY,69.20863309352518,NA,NA
12866,Saratoga County,NY,41.58273381294964,NA,NA
12916,Franklin County,NY,87.33812949640289,NA,NA
12986,Franklin County,NY,63.453237410071935,NA,NA
13030,Madison County,NY,NA,NA,94.52554744525547
13045,Cortland County,NY,NA,7.600596125186289,NA
13057,Onondaga County,NY,47.05035971223022,NA,NA
13069,Oswego County,NY,NA,9.538002980625931,NA
13074,Oswego County,NY,NA,89.71684053651266,NA
13077,Cortland County,NY,82.15827338129496,NA,NA
13104,Onondaga County,NY,50.07194244604316,NA,NA
13142,Oswego County,NY,68.63309352517986,NA,NA
13146,Wayne County,NY,NA,93.1445603576751,NA
13316,Oneida County,NY,NA,62.295081967213115,NA
13348,Otsego County,NY,94.82014388489208,NA,NA
13421,Madison County,NY,55.827338129496404,NA,NA
13676,St. Lawrence County,NY,NA,35.46944858420268,NA
13760,Broome County,NY,NA,0.29806259314456035,NA
13801,Chenango County,NY,97.55395683453237,NA,NA
13820,Otsego County,NY,NA,NA,14.963503649635038
14024,Wyoming County,NY,NA,96.87034277198212,NA
14086,Erie County,NY,NA,92.10134128166915,NA
14172,Niagara County,NY,96.83453237410072,NA,NA
14211,Erie County,NY,29.928057553956833,NA,NA
14304,Niagara County,NY,76.69064748201438,NA,NA
14454,Livingston County,NY,71.51079136690647,NA,NA
14456,Ontario County,NY,26.618705035971225,NA,NA
14472,Monroe County,NY,46.47482014388489,NA,NA
14505,Wayne County,NY,61.007194244604314,NA,NA
14551,Wayne County,NY,47.33812949640288,NA,NA
14564,Ontario County,NY,NA,13.859910581222056,NA
14609,Monroe County,NY,NA,0.8941877794336811,NA
14626,Monroe County,NY,2.302158273381295,NA,NA
14715,Allegany County,NY,NA,93.74068554396423,NA
14724,Chautauqua County,NY,95.53956834532374,NA,NA
14830,Steuben County,NY,18.992805755395683,NA,NA
27012,Forsyth County,NC,NA,2.533532041728763,NA
27021,Stokes County,NC,NA,NA,23.357664233576642
27030,Surry County,NC,NA,NA,10.583941605839415
27048,Rockingham County,NC,71.36690647482014,NA,NA
27104,Forsyth County,NC,NA,NA,3.2846715328467155
27105,Forsyth County,NC,1.7266187050359711,NA,NA
27107,Forsyth County,NC,NA,NA,1.4598540145985401
27260,Guilford County,NC,17.841726618705035,NA,NA
27288,Rockingham County,NC,40.57553956834533,NA,NA
27292,Davidson County,NC,NA,NA,5.109489051094891
27295,Davidson County,NC,NA,19.076005961251862,NA
27320,Rockingham County,NC,8.920863309352518,NA,NA
27330,Lee County,NC,NA,20.566318926974663,NA
27358,Guilford County,NC,NA,63.04023845007451,NA
27502,Wake County,NC,59.856115107913666,NA,NA
27510,Orange County,NC,NA,75.1117734724292,NA
27522,Granville County,NC,NA,69.150521609538,NA
27534,Wayne County,NC,NA,46.34873323397913,NA
27597,Wake County,NC,NA,53.65126676602087,NA
27616,Wake County,NC,NA,31.892697466467958,NA
27801,Edgecombe County,NC,NA,NA,81.75182481751825
27889,Beaufort County,NC,27.62589928057554,NA,NA
27893,Wilson County,NC,11.07913669064748,19.970193740685545,NA
27909,Pasquotank County,NC,NA,10.581222056631892,NA
28016,Gaston County,NC,74.10071942446042,NA,NA
28081,Cabarrus County,NC,53.81294964028777,NA,NA
28105,Mecklenburg County,NC,NA,NA,34.67153284671533
28115,Iredell County,NC,NA,95.08196721311475,NA
28117,Iredell County,NC,62.15827338129496,NA,50
28129,Stanly County,NC,99.568345323741,NA,NA
28144,Rowan County,NC,NA,28.017883755588674,NA
28168,Lincoln County,NC,70.79136690647482,NA,NA
28205,Mecklenburg County,NC,NA,NA,45.62043795620438
28209,Mecklenburg County,NC,80.28776978417265,NA,NA
28227,Mecklenburg County,NC,16.115107913669064,NA,NA
28315,Moore County,NC,90.93525179856115,NA,NA
28318,Sampson County,NC,89.92805755395683,NA,NA
28320,Bladen County,NC,NA,72.42921013412817,81.38686131386861
28345,Richmond County,NC,81.72661870503597,NA,NA
28348,Cumberland County,NC,NA,34.873323397913566,NA
28409,New Hanover County,NC,36.54676258992806,13.710879284649776,NA
28472,Columbus County,NC,NA,38.45007451564829,44.16058394160584
28601,Catawba County,NC,NA,7.004470938897168,NA
28602,Catawba County,NC,NA,35.17138599105812,NA
28609,Catawba County,NC,83.59712230215828,NA,NA
28645,Caldwell County,NC,16.258992805755394,NA,NA
28655,Burke County,NC,NA,57.22801788375559,36.13138686131387
28658,Catawba County,NC,40.86330935251799,NA,NA
28732,Henderson County,NC,NA,53.94932935916542,NA
28759,Henderson County,NC,NA,NA,52.919708029197075
28803,Buncombe County,NC,NA,NA,23.722627737226276
58072,Barnes County,ND,88.77697841726618,NA,NA
58078,Cass County,ND,21.294964028776977,NA,NA
43050,Knox County,OH,5.611510791366906,NA,6.934306569343065
43206,Franklin County,OH,9.496402877697841,NA,NA
43207,Franklin County,OH,NA,NA,16.423357664233578
43220,Franklin County,OH,NA,NA,38.68613138686132
43228,Franklin County,OH,2.877697841726619,NA,NA
43410,Sandusky County,OH,NA,NA,69.7080291970803
43420,Sandusky County,OH,55.539568345323744,NA,NA
43430,Ottawa County,OH,NA,97.0193740685544,NA
43460,Wood County,OH,76.11510791366906,NA,NA
43502,Fulton County,OH,80.43165467625899,NA,NA
43537,Lucas County,OH,24.46043165467626,NA,NA
43542,Lucas County,OH,97.55395683453237,NA,NA
43543,Williams County,OH,NA,51.26676602086439,NA
43558,Fulton County,OH,NA,43.070044709388974,NA
43567,Fulton County,OH,NA,33.68107302533532,NA
43570,Williams County,OH,99.13669064748201,NA,NA
43609,Lucas County,OH,55.39568345323741,NA,NA
43611,Lucas County,OH,41.726618705035975,76.60208643815201,NA
43616,Lucas County,OH,9.928057553956835,9.538002980625931,NA
43617,Lucas County,OH,86.76258992805755,NA,NA
43619,Wood County,OH,85.32374100719424,NA,NA
43701,Muskingum County,OH,0.7194244604316548,NA,NA
43907,Harrison County,OH,73.23741007194245,NA,NA
44035,Lorain County,OH,0.14388489208633093,5.961251862891207,0
44052,Lorain County,OH,NA,15.350223546944857,NA
44062,Geauga County,OH,90.07194244604317,NA,NA
44111,Cuyahoga County,OH,NA,1.4903129657228018,NA
44120,Cuyahoga County,OH,NA,36.95976154992549,NA
44122,Cuyahoga County,OH,NA,3.278688524590164,NA
44126,Cuyahoga County,OH,NA,36.36363636363637,NA
44129,Cuyahoga County,OH,NA,44.41132637853949,NA
44130,Cuyahoga County,OH,NA,0.7451564828614009,NA
44139,Cuyahoga County,OH,NA,NA,13.138686131386862
44142,Cuyahoga County,OH,59.42446043165468,NA,NA
44146,Cuyahoga County,OH,NA,1.1922503725782414,NA
44221,Summit County,OH,NA,14.605067064083457,NA
44262,Summit County,OH,NA,78.09239940387481,NA
44281,Medina County,OH,70.93525179856115,NA,NA
44314,Summit County,OH,74.24460431654676,NA,NA
44319,Summit County,OH,77.26618705035972,19.225037257824145,NA
44403,Trumbull County,OH,NA,97.46646795827124,NA
44406,Mahoning County,OH,NA,23.69597615499255,NA
44460,Columbiana County,OH,16.69064748201439,NA,NA
44505,Mahoning County,OH,NA,32.04172876304024,NA
44515,Mahoning County,OH,NA,37.40685543964232,NA
44601,Stark County,OH,25.611510791366904,NA,NA
44691,Wayne County,OH,5.755395683453238,NA,NA
44709,Stark County,OH,NA,41.28166915052161,NA
44875,Richland County,OH,37.26618705035971,NA,NA
44883,Seneca County,OH,13.956834532374101,NA,NA
44903,Richland County,OH,48.05755395683453,NA,NA
45011,Butler County,OH,11.798561151079138,NA,NA
45013,Butler County,OH,2.7338129496402876,NA,NA
45014,Butler County,OH,43.16546762589928,NA,NA
45039,Warren County,OH,46.76258992805755,59.31445603576751,NA
45044,Butler County,OH,NA,11.177347242921014,NA
45056,Butler County,OH,NA,71.08792846497765,70.8029197080292
45069,Butler County,OH,NA,NA,11.313868613138686
45107,Clinton County,OH,NA,NA,66.42335766423358
45122,Clermont County,OH,72.66187050359713,NA,NA
45150,Clermont County,OH,NA,77.79433681073026,NA
45212,Hamilton County,OH,25.755395683453237,NA,NA
45238,Hamilton County,OH,10.215827338129497,NA,NA
45240,Hamilton County,OH,20.863309352517987,NA,NA
45255,Hamilton County,OH,64.89208633093526,NA,NA
45342,Montgomery County,OH,8.776978417266188,NA,NA
45373,Miami County,OH,NA,10.283159463487332,NA
45424,Montgomery County,OH,69.49640287769783,NA,NA
45426,Montgomery County,OH,NA,NA,50.72992700729927
45638,Lawrence County,OH,NA,2.086438152011923,NA
45651,Vinton County,OH,77.98561151079136,NA,NA
45661,Pike County,OH,NA,38.30104321907601,NA
45724,Washington County,OH,NA,100,NA
45805,Allen County,OH,NA,22.950819672131146,NA
73005,Caddo County,OK,NA,NA,76.27737226277372
73008,Oklahoma County,OK,NA,52.75707898658718,NA
73010,McClain County,OK,44.74820143884892,NA,NA
73013,Oklahoma County,OK,NA,7.004470938897168,NA
73034,Oklahoma County,OK,24.172661870503596,43.96423248882265,NA
73054,Oklahoma County,OK,97.98561151079137,NA,NA
73055,Stephens County,OK,NA,89.26974664679582,NA
73065,McClain County,OK,86.18705035971223,NA,NA
73068,Cleveland County,OK,69.7841726618705,NA,NA
73071,Cleveland County,OK,85.75539568345324,NA,NA
73080,McClain County,OK,77.84172661870502,NA,NA
73086,Murray County,OK,NA,85.39493293591654,NA
73106,Oklahoma County,OK,NA,68.10730253353205,NA
73110,Oklahoma County,OK,67.9136690647482,NA,NA
73114,Oklahoma County,OK,53.38129496402878,NA,NA
73116,Oklahoma County,OK,NA,NA,69.34306569343066
73117,Oklahoma County,OK,NA,89.41877794336811,NA
73118,Oklahoma County,OK,89.20863309352518,71.68405365126677,NA
73119,Oklahoma County,OK,18.1294964028777,NA,NA
73129,Oklahoma County,OK,NA,70.19374068554396,NA
73130,Oklahoma County,OK,NA,39.79135618479881,64.23357664233576
73132,Oklahoma County,OK,NA,NA,36.496350364963504
73135,Oklahoma County,OK,40.14388489208633,NA,NA
73162,Oklahoma County,OK,76.83453237410072,NA,NA
73533,Stephens County,OK,NA,10.879284649776453,NA
73703,Garfield County,OK,NA,NA,9.48905109489051
74011,Tulsa County,OK,NA,40.08941877794337,NA
74019,Rogers County,OK,NA,80.32786885245902,NA
74055,Tulsa County,OK,NA,89.56780923994039,NA
74063,Tulsa County,OK,NA,68.25633383010432,NA
74115,Tulsa County,OK,NA,66.46795827123697,NA
74129,Tulsa County,OK,NA,NA,74.08759124087592
74133,Tulsa County,OK,27.769784172661872,NA,NA
74146,Tulsa County,OK,NA,91.80327868852459,NA
74331,Delaware County,OK,NA,73.32339791356185,NA
74354,Ottawa County,OK,NA,41.72876304023845,NA
74447,Okmulgee County,OK,67.62589928057554,NA,NA
74467,Wagoner County,OK,NA,NA,61.67883211678832
74501,Pittsburg County,OK,NA,42.32488822652757,NA
74820,Pontotoc County,OK,6.330935251798561,NA,NA
74884,Seminole County,OK,NA,74.81371087928464,NA
74959,Le Flore County,OK,NA,94.7839046199702,NA
97045,Clackamas County,OR,10.647482014388489,37.108792846497764,NA
97056,Columbia County,OR,NA,82.11624441132638,NA
97060,Multnomah County,OR,39.42446043165468,NA,NA
97064,Columbia County,OR,98.84892086330936,NA,NA
97086,Clackamas County,OR,52.0863309352518,NA,NA
97116,Washington County,OR,76.2589928057554,NA,NA
97201,Multnomah County,OR,91.65467625899281,NA,NA
97216,Multnomah County,OR,49.7841726618705,NA,NA
97223,Washington County,OR,NA,21.162444113263785,NA
97224,Washington County,OR,NA,NA,27.37226277372263
97229,Washington County,OR,68.48920863309353,31.594634873323397,NA
97231,Multnomah County,OR,99.42446043165467,NA,NA
97233,Multnomah County,OR,12.23021582733813,NA,NA
97236,Multnomah County,OR,15.683453237410072,NA,NA
97304,Polk County,OR,NA,51.26676602086439,NA
97306,Marion County,OR,NA,53.50223546944859,NA
97330,Benton County,OR,48.92086330935252,NA,NA
97355,Linn County,OR,9.20863309352518,NA,NA
97401,Lane County,OR,35.97122302158273,NA,NA
97405,Lane County,OR,72.0863309352518,NA,NA
97420,Coos County,OR,NA,35.91654247391952,NA
97439,Lane County,OR,NA,19.821162444113263,NA
97471,Douglas County,OR,13.525179856115107,NA,NA
97502,Jackson County,OR,36.115107913669064,NA,NA
97624,Klamath County,OR,97.12230215827337,NA,NA
97701,Deschutes County,OR,NA,45.45454545454545,NA
97703,Deschutes County,OR,NA,67.51117734724292,NA
97720,Harney County,OR,NA,91.80327868852459,NA
97756,Deschutes County,OR,NA,16.98956780923994,NA
97914,Malheur County,OR,18.705035971223023,18.330849478390462,NA
15104,Allegheny County,PA,NA,80.17883755588674,NA
15108,Allegheny County,PA,36.83453237410072,NA,NA
15129,Allegheny County,PA,NA,73.91952309985098,NA
15139,Allegheny County,PA,NA,94.48584202682562,NA
15217,Allegheny County,PA,NA,17.883755588673623,NA
15221,Allegheny County,PA,13.525179856115107,NA,NA
15317,Washington County,PA,25.323741007194243,56.63189269746647,NA
15401,Fayette County,PA,NA,4.023845007451564,NA
15801,Clearfield County,PA,NA,NA,20.437956204379564
15825,Jefferson County,PA,73.38129496402878,NA,NA
15851,Jefferson County,PA,NA,52.309985096870335,28.102189781021895
15901,Cambria County,PA,NA,81.52011922503726,NA
16002,Butler County,PA,NA,82.26527570789865,29.927007299270077
16057,Butler County,PA,64.46043165467626,NA,NA
16101,Lawrence County,PA,4.60431654676259,NA,NA
16226,Armstrong County,PA,87.19424460431655,NA,NA
16314,Crawford County,PA,NA,88.37555886736214,NA
16316,Crawford County,PA,NA,64.97764530551416,NA
16335,Crawford County,PA,NA,NA,17.51824817518248
16406,Crawford County,PA,96.69064748201438,NA,NA
16433,Crawford County,PA,77.55395683453237,86.58718330849479,NA
16442,Erie County,PA,99.28057553956835,NA,NA
16509,Erie County,PA,29.496402877697843,NA,NA
16701,McKean County,PA,13.381294964028779,NA,NA
17025,Cumberland County,PA,78.99280575539568,NA,NA
17042,Lebanon County,PA,NA,4.321907600596125,NA
17050,Cumberland County,PA,18.27338129496403,NA,NA
17055,Cumberland County,PA,NA,NA,7.2992700729927
17057,Dauphin County,PA,NA,14.008941877794337,NA
17068,Perry County,PA,NA,97.16840536512667,NA
17078,Lebanon County,PA,13.093525179856117,NA,NA
17110,Dauphin County,PA,11.942446043165468,NA,NA
17112,Dauphin County,PA,NA,4.172876304023846,NA
17307,Adams County,PA,94.96402877697841,NA,NA
17313,York County,PA,NA,73.17436661698957,NA
17315,York County,PA,NA,76.00596125186289,NA
17402,York County,PA,NA,NA,3.64963503649635
17408,York County,PA,88.92086330935251,45.75260804769001,NA
17522,Lancaster County,PA,20.719424460431654,NA,NA
17543,Lancaster County,PA,19.136690647482013,NA,NA
17552,Lancaster County,PA,35.539568345323744,NA,NA
17578,Lancaster County,PA,86.33093525179856,NA,NA
17584,Lancaster County,PA,NA,NA,41.97080291970803
17702,Lycoming County,PA,74.38848920863309,NA,NA
17745,Clinton County,PA,36.69064748201439,40.68554396423249,NA
17756,Lycoming County,PA,NA,26.67660208643815,NA
17801,Northumberland County,PA,16.546762589928058,NA,NA
17870,Snyder County,PA,NA,25.93144560357675,NA
17963,Schuylkill County,PA,NA,74.06855439642325,NA
18017,Northampton County,PA,NA,2.682563338301043,NA
18032,Lehigh County,PA,NA,72.1311475409836,NA
18038,Northampton County,PA,NA,99.55290611028316,NA
18041,Montgomery County,PA,95.10791366906474,NA,NA
18052,Lehigh County,PA,15.53956834532374,NA,NA
18062,Lehigh County,PA,43.45323741007194,NA,NA
18201,Luzerne County,PA,15.39568345323741,NA,NA
18229,Carbon County,PA,71.07913669064749,NA,NA
18444,Lackawanna County,PA,NA,67.95827123695976,NA
18452,Lackawanna County,PA,NA,NA,85.76642335766424
18508,Lackawanna County,PA,NA,40.536512667660205,NA
18603,Columbia County,PA,NA,14.903129657228018,NA
18640,Luzerne County,PA,NA,NA,20.802919708029197
18643,Luzerne County,PA,79.56834532374101,NA,NA
18651,Luzerne County,PA,67.19424460431654,97.31743666169895,NA
18655,Luzerne County,PA,NA,83.60655737704919,NA
18704,Luzerne County,PA,NA,11.624441132637854,8.02919708029197
18822,Susquehanna County,PA,93.81294964028777,NA,NA
18929,Bucks County,PA,95.68345323741008,NA,NA
18966,Bucks County,PA,NA,9.239940387481372,NA
18976,Bucks County,PA,48.489208633093526,NA,NA
19015,Delaware County,PA,33.52517985611511,NA,NA
19020,Bucks County,PA,NA,34.724292101341284,NA
19030,Bucks County,PA,75.68345323741006,66.31892697466468,NA
19054,Bucks County,PA,60.57553956834533,NA,NA
19079,Delaware County,PA,NA,80.62593144560357,NA
19103,Philadelphia County,PA,NA,NA,60.21897810218978
19111,Philadelphia County,PA,NA,3.8748137108792844,NA
19116,Philadelphia County,PA,23.741007194244602,NA,NA
19120,Philadelphia County,PA,2.446043165467626,NA,NA
19126,Philadelphia County,PA,NA,40.38748137108793,NA
19131,Philadelphia County,PA,22.15827338129496,NA,NA
19140,Philadelphia County,PA,NA,6.855439642324888,NA
19141,Philadelphia County,PA,6.043165467625899,NA,NA
19148,Philadelphia County,PA,6.474820143884892,NA,NA
19154,Philadelphia County,PA,NA,15.052160953800298,NA
19312,Chester County,PA,NA,43.36810730253353,NA
19362,Chester County,PA,NA,NA,100
19403,Montgomery County,PA,NA,72.72727272727273,NA
19464,Montgomery County,PA,20,NA,NA
19465,Chester County,PA,50.07194244604316,NA,NA
19475,Chester County,PA,91.07913669064747,NA,NA
19525,Montgomery County,PA,NA,NA,90.87591240875912
19565,Berks County,PA,NA,59.463487332339795,NA
02840,Newport County,RI,NA,25.037257824143072,NA
02864,Providence County,RI,21.8705035971223,NA,NA
02904,Providence County,RI,NA,16.24441132637854,NA
02914,Providence County,RI,42.589928057553955,NA,NA
29020,Kershaw County,SC,NA,30.104321907600596,NA
29063,Richland County,SC,56.402877697841724,NA,NA
29123,Lexington County,SC,NA,NA,95.25547445255475
29127,Newberry County,SC,NA,87.9284649776453,NA
29150,Sumter County,SC,NA,NA,58.75912408759124
29153,Sumter County,SC,NA,NA,61.31386861313869
29170,Lexington County,SC,66.4748201438849,NA,NA
29203,Richland County,SC,NA,17.58569299552906,NA
29205,Richland County,SC,75.53956834532374,NA,NA
29406,Charleston County,SC,NA,53.055141579731746,NA
29407,Charleston County,SC,NA,10.730253353204173,NA
29412,Charleston County,SC,30.215827338129497,NA,NA
29464,Charleston County,SC,NA,NA,13.503649635036496
29485,Dorchester County,SC,74.82014388489209,27.123695976154995,43.79562043795621
29506,Florence County,SC,43.45323741007194,NA,NA
29550,Darlington County,SC,39.13669064748201,NA,NA
29571,Marion County,SC,NA,47.83904619970194,NA
29609,Greenville County,SC,37.84172661870503,NA,NA
29615,Greenville County,SC,NA,67.6602086438152,NA
29621,Anderson County,SC,33.093525179856115,NA,NA
29625,Anderson County,SC,28.776978417266186,NA,NA
29642,Pickens County,SC,NA,NA,62.77372262773723
29678,Oconee County,SC,54.53237410071943,NA,NA
29681,Greenville County,SC,22.302158273381295,12.518628912071536,NA
29702,Cherokee County,SC,NA,98.50968703427719,NA
57078,Yankton County,SD,87.76978417266187,NA,NA
57104,Minnehaha County,SD,25.467625899280577,5.365126676602086,NA
57105,Minnehaha County,SD,NA,10.134128166915051,NA
57301,Davison County,SD,NA,NA,24.087591240875913
57701,Pennington County,SD,49.06474820143885,NA,NA
57702,Pennington County,SD,NA,NA,8.394160583941606
57719,Pennington County,SD,NA,49.03129657228018,NA
37013,Davidson County,TN,8.057553956834532,NA,NA
37058,Stewart County,TN,NA,81.81818181818183,NA
37064,Williamson County,TN,45.03597122302158,NA,NA
37072,Davidson County,TN,27.33812949640288,NA,NA
37138,Davidson County,TN,48.63309352517985,NA,NA
37148,Sumner County,TN,36.40287769784173,NA,NA
37211,Davidson County,TN,NA,16.39344262295082,NA
37221,Davidson County,TN,NA,22.503725782414307,NA
37310,Bradley County,TN,NA,NA,94.8905109489051
37312,Bradley County,TN,39.856115107913666,NA,NA
37380,Marion County,TN,NA,NA,86.86131386861314
37406,Hamilton County,TN,NA,NA,85.40145985401459
37411,Hamilton County,TN,35.25179856115108,NA,NA
37421,Hamilton County,TN,NA,NA,25.91240875912409
37620,Sullivan County,TN,NA,NA,14.963503649635038
37643,Carter County,TN,NA,NA,16.78832116788321
37664,Sullivan County,TN,NA,42.62295081967213,NA
37692,Unicoi County,TN,NA,88.22652757078987,NA
37725,Jefferson County,TN,51.22302158273381,NA,NA
37737,Blount County,TN,NA,79.43368107302533,NA
37752,Claiborne County,TN,NA,NA,89.41605839416059
37777,Blount County,TN,NA,50.074515648286145,NA
37803,Blount County,TN,28.633093525179852,11.922503725782414,NA
37821,Cocke County,TN,NA,NA,35.03649635036496
37849,Knox County,TN,NA,46.050670640834575,NA
37857,Hawkins County,TN,NA,NA,35.4014598540146
37869,Hancock County,TN,NA,75.40983606557377,NA
37886,Blount County,TN,84.89208633093526,NA,NA
37914,Knox County,TN,NA,33.084947839046194,NA
37918,Knox County,TN,NA,18.181818181818183,NA
37923,Knox County,TN,87.9136690647482,NA,NA
37934,Knox County,TN,NA,36.8107302533532,NA
37938,Knox County,TN,70.35971223021583,NA,NA
38002,Shelby County,TN,NA,62.59314456035767,NA
38053,Shelby County,TN,NA,48.28614008941878,NA
38063,Lauderdale County,TN,83.88489208633094,NA,NA
38109,Shelby County,TN,NA,13.114754098360656,NA
38119,Shelby County,TN,NA,94.93293591654248,NA
38122,Shelby County,TN,NA,64.6795827123696,NA
38128,Shelby County,TN,15.971223021582734,30.700447093889714,NA
38305,Madison County,TN,NA,9.836065573770492,NA
38351,Henderson County,TN,NA,NA,38.32116788321168
38401,Maury County,TN,25.899280575539567,5.663189269746647,NA
38462,Lewis County,TN,69.35251798561151,NA,NA
38478,Giles County,TN,NA,57.526080476900155,NA
38555,Cumberland County,TN,NA,NA,28.467153284671532
38558,Cumberland County,TN,NA,NA,37.591240875912405
38572,Cumberland County,TN,NA,NA,93.43065693430657
38583,White County,TN,NA,24.739195230998508,NA
75019,Dallas County,TX,52.66187050359712,NA,NA
75028,Denton County,TX,54.388489208633096,NA,NA
75032,Rockwall County,TX,NA,NA,44.52554744525548
75034,Denton County,TX,NA,24.14307004470939,NA
75043,Dallas County,TX,NA,14.754098360655737,NA
75044,Dallas County,TX,53.093525179856115,NA,NA
75048,Dallas County,TX,NA,82.71236959761549,NA
75070,Collin County,TX,63.30935251798561,NA,NA
75071,Collin County,TX,NA,27.27272727272727,NA
75080,Dallas County,TX,57.41007194244604,NA,NA
75087,Rockwall County,TX,38.84892086330935,NA,NA
75089,Dallas County,TX,NA,64.38152011922503,NA
75092,Grayson County,TX,NA,92.54843517138599,NA
75093,Collin County,TX,46.618705035971225,NA,NA
75094,Collin County,TX,NA,NA,95.62043795620438
75098,Collin County,TX,NA,32.190760059612515,NA
75142,Kaufman County,TX,NA,57.377049180327866,NA
75143,Henderson County,TX,NA,82.56333830104322,NA
75156,Henderson County,TX,47.05035971223022,NA,NA
75189,Rockwall County,TX,43.30935251798561,NA,NA
75219,Dallas County,TX,NA,57.07898658718331,NA
75225,Dallas County,TX,NA,50.96870342771982,32.11678832116788
75232,Dallas County,TX,NA,NA,57.299270072992705
75244,Dallas County,TX,NA,82.86140089418778,NA
75455,Titus County,TX,NA,NA,48.175182481751825
75497,Wood County,TX,NA,76.75111773472429,91.970802919708035
75563,Cass County,TX,NA,NA,97.08029197080292
75754,Van Zandt County,TX,NA,NA,78.46715328467153
75757,Smith County,TX,NA,NA,36.86131386861314
75840,Freestone County,TX,NA,75.55886736214606,NA
75844,Houston County,TX,NA,NA,87.95620437956204
75961,Nacogdoches County,TX,NA,71.53502235469449,NA
76002,Tarrant County,TX,55.97122302158274,NA,NA
76021,Tarrant County,TX,NA,NA,31.02189781021898
76031,Johnson County,TX,NA,77.64530551415797,NA
76039,Tarrant County,TX,NA,NA,59.854014598540154
76048,Hood County,TX,NA,NA,40.87591240875913
76060,Tarrant County,TX,91.51079136690647,NA,NA
76063,Tarrant County,TX,62.302158273381295,NA,NA
76092,Tarrant County,TX,63.453237410071935,NA,NA
76116,Tarrant County,TX,18.848920863309353,NA,NA
76120,Tarrant County,TX,49.35251798561151,NA,NA
76133,Tarrant County,TX,15.251798561151078,NA,NA
76226,Denton County,TX,67.4820143884892,NA,NA
76374,Young County,TX,NA,89.86587183308494,NA
76384,Wilbarger County,TX,NA,NA,79.92700729927007
76426,Wise County,TX,NA,87.48137108792847,NA
76446,Erath County,TX,90.50359712230215,NA,NA
76513,Bell County,TX,NA,1.0432190760059614,NA
76522,Coryell County,TX,43.884892086330936,NA,NA
76549,Bell County,TX,NA,27.57078986587183,NA
76834,Coleman County,TX,NA,84.05365126676601,NA
76903,Tom Green County,TX,NA,47.540983606557376,NA
76950,Sutton County,TX,NA,98.80774962742176,NA
77008,Harris County,TX,60.431654676258994,NA,NA
77018,Harris County,TX,NA,73.6214605067064,NA
77021,Harris County,TX,86.61870503597122,NA,NA
77040,Harris County,TX,NA,61.10283159463488,NA
77055,Harris County,TX,NA,53.20417287630402,NA
77067,Harris County,TX,NA,76.75111773472429,NA
77071,Harris County,TX,NA,57.97317436661699,NA
77079,Harris County,TX,72.80575539568346,NA,NA
77083,Harris County,TX,NA,23.248882265275707,NA
77089,Harris County,TX,NA,28.912071535022356,NA
77095,Harris County,TX,13.81294964028777,11.326378539493295,NA
77302,Montgomery County,TX,87.4820143884892,NA,NA
77318,Montgomery County,TX,NA,68.85245901639344,NA
77346,Harris County,TX,17.26618705035971,NA,NA
77354,Montgomery County,TX,47.76978417266187,NA,NA
77365,Montgomery County,TX,NA,91.20715350223547,NA
77373,Harris County,TX,24.74820143884892,NA,NA
77382,Montgomery County,TX,NA,57.82414307004471,NA
77406,Fort Bend County,TX,43.02158273381295,NA,NA
77429,Harris County,TX,36.97841726618705,NA,NA
77433,Harris County,TX,9.640287769784173,NA,NA
77437,Wharton County,TX,62.44604316546762,NA,NA
77447,Harris County,TX,NA,84.50074515648286,NA
77479,Fort Bend County,TX,26.0431654676259,NA,NA
77489,Fort Bend County,TX,NA,85.99105812220567,NA
77521,Harris County,TX,24.60431654676259,NA,NA
77523,Chambers County,TX,56.69064748201439,61.847988077496275,NA
77535,Liberty County,TX,NA,74.21758569299553,NA
77546,Galveston County,TX,21.151079136690647,NA,NA
77573,Galveston County,TX,54.24460431654676,NA,19.708029197080293
77575,Liberty County,TX,NA,55.73770491803278,NA
77584,Brazoria County,TX,8.201438848920864,NA,NA
77627,Jefferson County,TX,70.50359712230215,NA,NA
77836,Burleson County,TX,65.46762589928058,NA,NA
77995,Lavaca County,TX,NA,NA,56.934306569343065
78023,Bexar County,TX,NA,78.2414307004471,NA
78041,Webb County,TX,33.81294964028777,NA,NA
78207,Bexar County,TX,NA,NA,21.897810218978105
78213,Bexar County,TX,44.74820143884892,NA,NA
78259,Bexar County,TX,75.39568345323741,NA,NA
78380,Nueces County,TX,NA,63.33830104321908,NA
78521,Cameron County,TX,NA,15.201192250372578,NA
78552,Cameron County,TX,NA,65.72280178837556,NA
78596,Hidalgo County,TX,NA,NA,32.846715328467155
78840,Val Verde County,TX,NA,15.499254843517138,NA
79110,Randall County,TX,NA,NA,87.22627737226277
79118,Randall County,TX,NA,NA,87.59124087591242
79119,Randall County,TX,NA,80.77496274217586,NA
79407,Lubbock County,TX,NA,NA,58.02919708029197
79423,Lubbock County,TX,NA,52.6080476900149,NA
79424,Lubbock County,TX,NA,7.451564828614009,NA
79602,Taylor County,TX,81.15107913669065,NA,NA
79603,Taylor County,TX,26.906474820143885,29.657228017883757,NA
79605,Taylor County,TX,35.10791366906475,NA,NA
79707,Midland County,TX,NA,72.28017883755588,NA
79762,Ector County,TX,24.028776978417266,NA,NA
79912,El Paso County,TX,NA,30.25335320417288,NA
79927,El Paso County,TX,54.82014388489208,NA,NA
79932,El Paso County,TX,NA,70.49180327868852,NA
79938,El Paso County,TX,NA,59.910581222056635,NA
84004,Utah County,UT,NA,98.95678092399403,NA
84041,Davis County,UT,32.51798561151079,NA,NA
84043,Utah County,UT,NA,63.785394932935915,NA
84044,Salt Lake County,UT,NA,62.74217585692996,NA
84065,Salt Lake County,UT,34.82014388489208,NA,NA
84067,Weber County,UT,32.0863309352518,NA,NA
84078,Uintah County,UT,45.46762589928058,NA,NA
84094,Salt Lake County,UT,NA,42.92101341281669,NA
84103,Salt Lake County,UT,63.884892086330936,NA,NA
84119,Salt Lake County,UT,38.56115107913669,NA,NA
84120,Salt Lake County,UT,NA,50.670640834575266,NA
84302,Box Elder County,UT,NA,NA,68.61313868613139
84501,Carbon County,UT,61.87050359712231,NA,NA
84604,Utah County,UT,NA,81.9672131147541,NA
84745,Washington County,UT,98.41726618705036,NA,NA
84780,Washington County,UT,NA,43.219076005961256,NA
05156,Windsor County,VT,NA,59.61251862891207,NA
05701,Rutland County,VT,NA,7.898658718330849,NA
20136,Prince William County,VA,68.92086330935253,NA,NA
20151,Fairfax County,VA,86.90647482014388,NA,NA
20181,Prince William County,VA,NA,95.23099850968704,NA
20186,Fauquier County,VA,NA,67.80923994038747,NA
22150,Fairfax County,VA,NA,NA,25.18248175182482
22153,Fairfax County,VA,NA,81.2220566318927,NA
22182,Fairfax County,VA,64.1726618705036,NA,NA
22306,Fairfax County,VA,NA,NA,67.88321167883211
22309,Fairfax County,VA,22.58992805755396,NA,NA
22314,Alexandria city,VA,NA,76.45305514157972,NA
22315,Fairfax County,VA,54.96402877697841,NA,NA
22642,Warren County,VA,95.39568345323741,NA,NA
22815,Rockingham County,VA,NA,NA,56.56934306569343
22824,Shenandoah County,VA,NA,NA,78.83211678832117
22840,Rockingham County,VA,NA,98.36065573770492,NA
22844,Shenandoah County,VA,NA,83.15946348733235,NA
22902,Charlottesville city,VA,19.71223021582734,NA,NA
22903,Charlottesville city,VA,24.316546762589926,NA,NA
22960,Orange County,VA,NA,58.12220566318928,NA
23059,Henrico County,VA,77.6978417266187,NA,NA
23111,Hanover County,VA,NA,NA,17.88321167883212
23120,Chesterfield County,VA,NA,98.21162444113264,NA
23227,Henrico County,VA,NA,31.445603576751118,NA
23237,Chesterfield County,VA,45.611510791366904,NA,NA
23294,Henrico County,VA,NA,86.14008941877795,NA
23321,Chesapeake city,VA,NA,NA,21.532846715328464
23322,Chesapeake city,VA,79.28057553956835,NA,NA
23323,Chesapeake city,VA,NA,29.806259314456035,NA
23451,Virginia Beach city,VA,NA,12.816691505216097,NA
23452,Virginia Beach city,VA,NA,6.259314456035768,NA
23453,Virginia Beach city,VA,NA,31.296572280178836,NA
23456,Virginia Beach city,VA,NA,7.302533532041728,NA
23503,Norfolk city,VA,46.043165467625904,NA,NA
23504,Norfolk city,VA,NA,49.77645305514158,NA
23518,Norfolk city,VA,NA,25.633383010432194,NA
23601,Newport News city,VA,NA,38.59910581222057,NA
23669,Hampton city,VA,17.985611510791365,NA,NA
23831,Chesterfield County,VA,34.388489208633096,NA,NA
23836,Chesterfield County,VA,90.79136690647482,NA,NA
23842,Prince George County,VA,NA,94.0387481371088,NA
23924,Mecklenburg County,VA,96.11510791366906,NA,NA
24017,Roanoke city,VA,20.287769784172664,NA,NA
24019,Roanoke County,VA,NA,NA,42.33576642335766
24141,Radford city,VA,NA,74.51564828614009,NA
24151,Franklin County,VA,44.02877697841727,NA,NA
24219,Wise County,VA,37.12230215827338,NA,NA
24228,Dickenson County,VA,68.34532374100719,NA,NA
24301,Pulaski County,VA,80.71942446043165,NA,72.62773722627736
24343,Carroll County,VA,NA,67.36214605067065,NA
24360,Wythe County,VA,94.10071942446044,NA,NA
24370,Smyth County,VA,NA,56.03576751117735,NA
24381,Carroll County,VA,NA,NA,99.63503649635037
24592,Halifax County,VA,25.03597122302158,NA,NA
24614,Buchanan County,VA,NA,69.74664679582713,NA
98056,King County,WA,NA,51.71385991058122,NA
98059,King County,WA,44.172661870503596,NA,NA
98092,King County,WA,NA,NA,67.15328467153284
98310,Kitsap County,WA,NA,61.10283159463488,NA
98311,Kitsap County,WA,60.28776978417266,NA,NA
98321,Pierce County,WA,61.294964028776974,NA,NA
98338,Pierce County,WA,NA,29.210134128166914,NA
98363,Clallam County,WA,NA,33.8301043219076,NA
98374,Pierce County,WA,40.28776978417266,NA,NA
98382,Clallam County,WA,NA,1.639344262295082,NA
98390,Pierce County,WA,NA,NA,77.00729927007299
98406,Pierce County,WA,61.43884892086331,NA,NA
98408,Pierce County,WA,58.992805755395686,NA,NA
98422,Pierce County,WA,60.71942446043166,NA,NA
98466,Pierce County,WA,NA,30.55141579731744,NA
98626,Cowlitz County,WA,41.43884892086331,NA,NA
98629,Clark County,WA,98.84892086330936,NA,NA
98837,Grant County,WA,NA,26.825633383010434,NA
98902,Yakima County,WA,NA,NA,11.678832116788321
99163,Whitman County,WA,NA,88.82265275707898,NA
99206,Spokane County,WA,44.460431654676256,NA,NA
99218,Spokane County,WA,NA,NA,73.35766423357664
99223,Spokane County,WA,NA,NA,52.18978102189781
99301,Franklin County,WA,31.942446043165468,NA,NA
99352,Benton County,WA,NA,NA,2.18978102189781
99362,Walla Walla County,WA,NA,NA,8.75912408759124
20005,District of Columbia,DC,NA,78.53949329359166,NA
20015,District of Columbia,DC,NA,NA,65.69343065693431
20019,District of Columbia,DC,NA,3.7257824143070044,NA
25309,Kanawha County,WV,66.0431654676259,NA,NA
25401,Berkeley County,WV,32.37410071942446,NA,NA
25443,Jefferson County,WV,NA,85.09687034277198,NA
25526,Putnam County,WV,NA,32.93591654247392,NA
25560,Putnam County,WV,NA,65.424739195231,NA
25661,Mingo County,WV,NA,90.61102831594636,NA
25701,Cabell County,WV,NA,NA,93.06569343065694
26003,Ohio County,WV,4.172661870503598,NA,NA
26037,Brooke County,WV,NA,NA,70.43795620437956
26062,Hancock County,WV,NA,NA,74.45255474452554
26101,Wood County,WV,19.424460431654676,NA,NA
26554,Marion County,WV,3.5971223021582732,NA,NA
53045,Waukesha County,WI,NA,42.17585692995529,NA
53066,Waukesha County,WI,70.07194244604317,NA,NA
53081,Sheboygan County,WI,NA,NA,22.62773722627737
53085,Sheboygan County,WI,NA,90.9090909090909,NA
53105,Racine County,WI,11.654676258992806,NA,29.56204379562044
53110,Milwaukee County,WI,27.913669064748202,NA,NA
53121,Walworth County,WI,NA,25.18628912071535,NA
53128,Walworth County,WI,68.77697841726619,85.84202682563338,NA
53172,Milwaukee County,WI,NA,69.44858420268257,31.02189781021898
53189,Waukesha County,WI,54.10071942446043,NA,NA
53209,Milwaukee County,WI,2.014388489208633,NA,NA
53210,Milwaukee County,WI,NA,68.55439642324889,NA
53212,Milwaukee County,WI,61.726618705035975,NA,NA
53223,Milwaukee County,WI,NA,8.941877794336811,NA
53226,Milwaukee County,WI,NA,NA,39.416058394160586
53228,Milwaukee County,WI,NA,73.47242921013412,NA
53575,Dane County,WI,NA,66.16989567809239,NA
53717,Dane County,WI,NA,54.69448584202683,NA
53719,Dane County,WI,NA,35.767511177347245,NA
53913,Sauk County,WI,34.53237410071942,NA,NA
53954,Columbia County,WI,NA,87.77943368107303,NA
53959,Sauk County,WI,NA,NA,18.248175182481752
54015,St. Croix County,WI,NA,97.61549925484351,NA
54143,Marinette County,WI,NA,50.52160953800298,NA
54155,Brown County,WI,NA,87.63040238450075,NA
54220,Manitowoc County,WI,NA,NA,0.7299270072992701
54303,Brown County,WI,94.53237410071942,NA,NA
54304,Brown County,WI,NA,40.83457526080477,NA
54403,Marathon County,WI,41.8705035971223,NA,NA
54409,Langlade County,WI,NA,18.926974664679584,9.124087591240876
54457,Wood County,WI,NA,56.780923994038744,NA
54476,Marathon County,WI,74.96402877697842,NA,NA
54481,Portage County,WI,15.827338129496402,14.307004470938898,NA
54701,Eau Claire County,WI,39.568345323741006,NA,NA
54755,Buffalo County,WI,NA,71.98211624441133,NA
54893,Burnett County,WI,NA,NA,82.11678832116789
54901,Winnebago County,WI,23.021582733812952,NA,NA
54915,Outagamie County,WI,31.07913669064748,NA,NA
54935,Fond du Lac County,WI,NA,11.475409836065573,NA
82070,Albany County,WY,82.01438848920863,NA,NA
82414,Park County,WY,NA,35.3204172876304,NA
82633,Converse County,WY,58.84892086330935,NA,NA
82718,Campbell County,WY,55.68345323741008,NA,NA
82930,Uinta County,WY,NA,NA,96.71532846715328
