ZipCode,county,state,Adult,Retirement
35005,Jefferson County,AL,82.53676470588235,NA
35010,Tallapoosa County,AL,36.94852941176471,NA
35077,Cullman County,AL,90.99264705882352,NA
35128,St. Clair County,AL,73.34558823529412,NA
35213,Jefferson County,AL,87.31617647058823,NA
35603,Morgan County,AL,NA,33.01204819277108
35747,Marshall County,AL,86.21323529411765,NA
36037,Butler County,AL,NA,64.09638554216868
36081,Pike County,AL,NA,67.2289156626506
36201,Calhoun County,AL,26.286764705882355,NA
36265,Calhoun County,AL,NA,60.96385542168675
36345,Henry County,AL,76.65441176470588,NA
36580,Baldwin County,AL,NA,87.71084337349397
36804,Lee County,AL,57.16911764705882,NA
99515,Anchorage Municipality,AK,66.17647058823529,NA
85024,Maricopa County,AZ,71.50735294117648,NA
85032,Maricopa County,AZ,15.992647058823529,NA
85041,Maricopa County,AZ,NA,23.373493975903614
85122,Pinal County,AZ,NA,12.048192771084338
85206,Maricopa County,AZ,NA,31.807228915662648
85207,Maricopa County,AZ,NA,64.57831325301204
85225,Maricopa County,AZ,11.76470588235294,NA
85233,Maricopa County,AZ,NA,56.3855421686747
85282,Maricopa County,AZ,NA,78.55421686746989
85295,Maricopa County,AZ,40.25735294117647,NA
85310,Maricopa County,AZ,74.63235294117648,NA
85331,Maricopa County,AZ,54.41176470588235,NA
85335,Maricopa County,AZ,34.74264705882353,NA
85388,Maricopa County,AZ,NA,82.40963855421687
85711,Pima County,AZ,53.125,NA
85714,Pima County,AZ,64.15441176470588,NA
85746,Pima County,AZ,NA,38.55421686746988
85757,Pima County,AZ,NA,58.31325301204819
86004,Coconino County,AZ,NA,12.530120481927712
86315,Yavapai County,AZ,NA,72.04819277108435
86404,Mohave County,AZ,NA,83.37349397590361
86503,Apache County,AZ,93.19852941176471,NA
71603,Jefferson County,AR,34.55882352941176,NA
71701,Ouachita County,AR,NA,57.34939759036145
72223,Pulaski County,AR,NA,86.98795180722891
72501,Independence County,AR,NA,24.337349397590362
72560,Stone County,AR,NA,63.132530120481924
72601,Boone County,AR,NA,32.28915662650602
72761,Benton County,AR,NA,67.95180722891565
90015,Los Angeles County,CA,81.43382352941177,NA
90026,Los Angeles County,CA,46.69117647058824,NA
90042,Los Angeles County,CA,52.20588235294118,NA
90045,Los Angeles County,CA,61.029411764705884,NA
90046,Los Angeles County,CA,49.81617647058824,NA
90241,Los Angeles County,CA,NA,54.93975903614457
90245,Los Angeles County,CA,NA,88.19277108433735
90265,Los Angeles County,CA,NA,92.53012048192771
90272,Los Angeles County,CA,86.94852941176471,NA
90275,Los Angeles County,CA,NA,41.204819277108435
90292,Los Angeles County,CA,NA,57.34939759036145
90630,Orange County,CA,47.42647058823529,NA
90703,Los Angeles County,CA,59.375,NA
90803,Los Angeles County,CA,74.26470588235294,NA
90813,Los Angeles County,CA,NA,49.63855421686747
91030,Los Angeles County,CA,86.76470588235294,NA
91042,Los Angeles County,CA,71.69117647058823,NA
91214,Los Angeles County,CA,78.86029411764706,NA
91316,Los Angeles County,CA,NA,55.90361445783133
91320,Ventura County,CA,62.5,NA
91342,Los Angeles County,CA,21.139705882352942,NA
91355,Los Angeles County,CA,NA,53.25301204819277
91767,Los Angeles County,CA,42.095588235294116,NA
91784,San Bernardino County,CA,NA,49.39759036144578
91911,San Diego County,CA,23.713235294117645,NA
92007,San Diego County,CA,89.88970588235294,NA
92069,San Diego County,CA,67.09558823529412,NA
92118,San Diego County,CA,NA,94.93975903614458
92128,San Diego County,CA,70.77205882352942,NA
92223,Riverside County,CA,28.49264705882353,NA
92243,Imperial County,CA,25.36764705882353,NA
92253,Riverside County,CA,NA,8.91566265060241
92301,San Bernardino County,CA,NA,47.46987951807229
92335,San Bernardino County,CA,NA,15.421686746987953
92371,San Bernardino County,CA,NA,92.7710843373494
92404,San Bernardino County,CA,18.014705882352942,NA
92410,San Bernardino County,CA,86.39705882352942,NA
92507,Riverside County,CA,NA,72.77108433734941
92586,Riverside County,CA,NA,79.51807228915662
92591,Riverside County,CA,47.97794117647059,NA
92592,Riverside County,CA,27.941176470588236,NA
92626,Orange County,CA,NA,46.024096385542165
92629,Orange County,CA,NA,42.89156626506024
92647,Orange County,CA,NA,19.03614457831325
92672,Orange County,CA,NA,56.867469879518076
92677,Orange County,CA,NA,42.65060240963855
92835,Orange County,CA,NA,63.85542168674698
92845,Orange County,CA,75.73529411764706,NA
92870,Orange County,CA,37.68382352941176,NA
92886,Orange County,CA,29.77941176470588,NA
93105,Santa Barbara County,CA,88.78676470588235,NA
93109,Santa Barbara County,CA,NA,99.75903614457832
93230,Kings County,CA,18.566176470588236,NA
93274,Tulare County,CA,6.25,NA
93277,Tulare County,CA,NA,17.10843373493976
93291,Tulare County,CA,NA,37.59036144578313
93309,Kern County,CA,31.066176470588236,NA
93444,San Luis Obispo County,CA,58.27205882352941,NA
93546,Mono County,CA,89.70588235294117,NA
93704,Fresno County,CA,49.63235294117647,NA
93711,Fresno County,CA,65.99264705882352,NA
93725,Fresno County,CA,63.60294117647059,NA
94015,San Mateo County,CA,84.375,NA
94024,Santa Clara County,CA,NA,70.12048192771084
94061,San Mateo County,CA,51.654411764705884,NA
94127,San Francisco County,CA,98.52941176470588,NA
94303,San Mateo County,CA,NA,29.397590361445786
94404,San Mateo County,CA,NA,46.50602409638554
94506,Contra Costa County,CA,73.52941176470588,NA
94521,Contra Costa County,CA,NA,40.48192771084337
94526,Contra Costa County,CA,63.78676470588235,NA
94560,Alameda County,CA,NA,47.95180722891566
94597,Contra Costa County,CA,70.03676470588235,NA
95003,Santa Cruz County,CA,83.45588235294117,NA
95050,Santa Clara County,CA,67.64705882352942,NA
95060,Santa Cruz County,CA,NA,51.80722891566265
95076,Santa Cruz County,CA,NA,16.867469879518072
95118,Santa Clara County,CA,NA,58.79518072289157
95123,Santa Clara County,CA,38.419117647058826,NA
95124,Santa Clara County,CA,NA,73.49397590361446
95207,San Joaquin County,CA,21.875,NA
95210,San Joaquin County,CA,NA,86.26506024096385
95219,San Joaquin County,CA,68.93382352941177,NA
95338,Mariposa County,CA,84.92647058823529,NA
95341,Merced County,CA,NA,77.10843373493977
95363,Stanislaus County,CA,59.74264705882353,NA
95370,Tuolumne County,CA,25.551470588235293,NA
95407,Sonoma County,CA,59.19117647058824,NA
95422,Lake County,CA,58.63970588235294,NA
95519,Humboldt County,CA,70.95588235294117,NA
95818,Sacramento County,CA,NA,74.4578313253012
95823,Sacramento County,CA,12.132352941176471,NA
95926,Butte County,CA,34.19117647058824,NA
95928,Butte County,CA,NA,34.69879518072289
96007,Shasta County,CA,NA,62.89156626506024
96019,Shasta County,CA,73.16176470588235,NA
96055,Tehama County,CA,NA,98.55421686746988
96150,El Dorado County,CA,69.11764705882352,NA
80012,Arapahoe County,CO,NA,66.26506024096386
80013,Arapahoe County,CO,10.294117647058822,NA
80111,Arapahoe County,CO,NA,64.81927710843374
80120,Arapahoe County,CO,60.11029411764706,NA
80124,Douglas County,CO,62.68382352941176,NA
80220,Denver County,CO,34.375,NA
80224,Denver County,CO,60.47794117647059,81.92771084337349
80229,Adams County,CO,44.30147058823529,NA
80247,Arapahoe County,CO,40.99264705882353,NA
80249,Denver County,CO,66.91176470588235,NA
80470,Jefferson County,CO,99.63235294117648,NA
80487,Routt County,CO,95.77205882352942,NA
80537,Larimer County,CO,22.058823529411764,NA
80601,Adams County,CO,64.52205882352942,NA
80602,Adams County,CO,NA,85.3012048192771
80621,Weld County,CO,NA,80.24096385542168
80642,Weld County,CO,98.89705882352942,NA
80919,El Paso County,CO,NA,55.42168674698795
81230,Gunnison County,CO,NA,95.90361445783132
81503,Mesa County,CO,85.66176470588235,NA
81611,Pitkin County,CO,97.42647058823529,NA
06106,Hartford County,CT,5.147058823529411,NA
06114,Hartford County,CT,17.647058823529413,NA
06437,New Haven County,CT,91.91176470588235,NA
06480,Middlesex County,CT,69.30147058823529,NA
06511,New Haven County,CT,4.963235294117647,NA
06512,New Haven County,CT,22.977941176470587,NA
06513,New Haven County,CT,NA,8.674698795180722
06614,Fairfield County,CT,90.44117647058823,NA
06883,Fairfield County,CT,NA,94.6987951807229
06905,Fairfield County,CT,76.10294117647058,NA
19702,New Castle County,DE,16.360294117647058,NA
19711,New Castle County,DE,NA,76.144578313253
19734,New Castle County,DE,75.55147058823529,NA
19904,Kent County,DE,43.56617647058824,NA
19939,Sussex County,DE,NA,81.44578313253012
19970,Sussex County,DE,NA,61.9277108433735
32040,Baker County,FL,87.86764705882352,NA
32082,St. Johns County,FL,81.06617647058823,NA
32164,Flagler County,FL,35.11029411764706,NA
32205,Duval County,FL,26.10294117647059,NA
32208,Duval County,FL,NA,6.024096385542169
32210,Duval County,FL,NA,7.228915662650602
32244,Duval County,FL,5.698529411764706,NA
32254,Duval County,FL,NA,71.08433734939759
32266,Duval County,FL,97.61029411764706,NA
32425,Holmes County,FL,NA,59.518072289156635
32433,Walton County,FL,NA,42.168674698795186
32460,Jackson County,FL,97.24264705882352,NA
32503,Escambia County,FL,21.691176470588236,NA
32550,Walton County,FL,NA,56.62650602409639
32571,Santa Rosa County,FL,14.338235294117647,NA
32608,Alachua County,FL,8.272058823529411,NA
32643,Alachua County,FL,77.02205882352942,NA
33025,Broward County,FL,29.411764705882355,NA
33027,Broward County,FL,41.72794117647059,NA
33142,Miami-Dade County,FL,NA,18.072289156626507
33185,Miami-Dade County,FL,77.38970588235294,NA
33186,Miami-Dade County,FL,49.26470588235294,NA
33316,Broward County,FL,NA,73.97590361445782
33323,Broward County,FL,79.04411764705883,NA
33326,Broward County,FL,77.20588235294117,NA
33430,Palm Beach County,FL,NA,82.89156626506025
33446,Palm Beach County,FL,NA,32.04819277108434
33467,Palm Beach County,FL,55.33088235294118,23.85542168674699
33473,Palm Beach County,FL,96.13970588235294,NA
33525,Pasco County,FL,68.19852941176471,NA
33579,Hillsborough County,FL,69.85294117647058,NA
33602,Hillsborough County,FL,83.63970588235294,NA
33770,Pinellas County,FL,56.06617647058824,NA
33919,Lee County,FL,NA,13.493975903614459
33990,Lee County,FL,NA,40.963855421686745
34219,Manatee County,FL,NA,64.81927710843374
34266,DeSoto County,FL,NA,51.325301204819276
34275,Sarasota County,FL,74.44852941176471,NA
34450,Citrus County,FL,80.69852941176471,NA
34470,Marion County,FL,48.89705882352941,NA
34476,Marion County,FL,NA,39.75903614457831
34639,Pasco County,FL,78.30882352941177,NA
34653,Pasco County,FL,28.676470588235293,NA
34667,Pasco County,FL,44.669117647058826,NA
34748,Lake County,FL,NA,9.63855421686747
30011,Barrow County,GA,NA,87.95180722891565
30034,DeKalb County,GA,29.22794117647059,NA
30041,Forsyth County,GA,27.389705882352942,NA
30144,Cobb County,GA,36.76470588235294,NA
30147,Floyd County,GA,91.17647058823529,NA
30161,Floyd County,GA,20.588235294117645,19.27710843373494
30230,Troup County,GA,74.81617647058823,NA
30233,Butts County,GA,57.720588235294116,NA
30329,DeKalb County,GA,85.11029411764706,NA
30331,Fulton County,GA,NA,8.19277108433735
30517,Jackson County,GA,NA,95.42168674698796
30519,Gwinnett County,GA,46.50735294117647,NA
30533,Lumpkin County,GA,63.41911764705882,NA
30535,Habersham County,GA,92.27941176470588,NA
30542,Hall County,GA,51.10294117647059,NA
30564,Hall County,GA,NA,99.51807228915662
30656,Walton County,GA,NA,65.78313253012048
30680,Barrow County,GA,52.75735294117647,NA
30701,Gordon County,GA,NA,29.63855421686747
30705,Murray County,GA,NA,41.445783132530124
30731,Chattooga County,GA,96.875,NA
30736,Catoosa County,GA,10.845588235294118,NA
30833,Jefferson County,GA,97.97794117647058,NA
31036,Pulaski County,GA,NA,77.83132530120483
31503,Ware County,GA,50.91911764705882,NA
96797,Honolulu County,HI,63.05147058823529,NA
96817,Honolulu County,HI,NA,6.746987951807229
83338,Jerome County,ID,NA,23.6144578313253
83713,Ada County,ID,NA,54.45783132530121
60004,Cook County,IL,NA,10.361445783132531
60013,McHenry County,IL,55.69852941176471,NA
60014,McHenry County,IL,NA,13.734939759036143
60016,Cook County,IL,24.080882352941178,NA
60047,Lake County,IL,NA,21.204819277108435
60074,Cook County,IL,NA,38.31325301204819
60090,Cook County,IL,NA,27.951807228915666
60091,Cook County,IL,NA,20.722891566265062
60184,DuPage County,IL,98.89705882352942,NA
60185,DuPage County,IL,NA,29.156626506024097
60188,DuPage County,IL,20.22058823529412,NA
60190,DuPage County,IL,NA,97.34939759036145
60411,Cook County,IL,12.867647058823529,10.843373493975903
60415,Cook County,IL,80.33088235294117,NA
60465,Cook County,IL,48.529411764705884,NA
60491,Will County,IL,66.54411764705883,NA
60513,Cook County,IL,42.64705882352941,NA
60514,DuPage County,IL,NA,93.25301204819277
60542,Kane County,IL,NA,62.65060240963856
60608,Cook County,IL,NA,12.771084337349398
60616,Cook County,IL,NA,9.397590361445783
60617,Cook County,IL,7.352941176470589,NA
60620,Cook County,IL,7.536764705882352,NA
60638,Cook County,IL,10.11029411764706,NA
60641,Cook County,IL,13.419117647058822,NA
60645,Cook County,IL,37.31617647058824,NA
60660,Cook County,IL,NA,70.36144578313252
61073,Winnebago County,IL,NA,91.80722891566265
62401,Effingham County,IL,61.21323529411765,NA
62702,Sangamon County,IL,NA,37.83132530120482
62951,Williamson County,IL,NA,95.18072289156626
46038,Hamilton County,IN,57.35294117647059,NA
46176,Shelby County,IN,NA,44.57831325301205
46226,Marion County,IN,NA,14.698795180722893
46322,Lake County,IN,NA,22.89156626506024
46324,Lake County,IN,17.830882352941178,NA
46383,Porter County,IN,30.514705882352942,NA
46385,Porter County,IN,7.904411764705882,21.686746987951807
46809,Allen County,IN,NA,72.53012048192771
46815,Allen County,IN,33.455882352941174,NA
46901,Howard County,IN,NA,4.337349397590361
47042,Ripley County,IN,98.34558823529412,NA
47170,Scott County,IN,NA,55.662650602409634
47240,Decatur County,IN,33.63970588235294,NA
47274,Jackson County,IN,NA,32.53012048192771
47302,Delaware County,IN,NA,33.49397590361446
47452,Orange County,IN,95.95588235294117,NA
47567,Pike County,IN,92.46323529411765,NA
47804,Vigo County,IN,NA,73.73493975903614
47885,Vigo County,IN,82.53676470588235,NA
47905,Tippecanoe County,IN,NA,54.21686746987952
50401,Cerro Gordo County,IA,NA,9.156626506024097
50701,Black Hawk County,IA,34.00735294117647,NA
51503,Pottawattamie County,IA,9.007352941176471,NA
52241,Johnson County,IA,NA,62.409638554216876
52349,Benton County,IA,NA,85.78313253012048
52627,Lee County,IA,45.036764705882355,NA
52632,Lee County,IA,NA,35.42168674698795
66085,Johnson County,KS,NA,86.50602409638554
66103,Wyandotte County,KS,73.89705882352942,NA
66213,Johnson County,KS,89.15441176470588,NA
66502,Riley County,KS,NA,68.67469879518072
67401,Saline County,KS,NA,20
67501,Reno County,KS,NA,72.28915662650603
67701,Thomas County,KS,74.08088235294117,NA
40211,Jefferson County,KY,13.419117647058822,NA
40215,Jefferson County,KY,19.852941176470587,NA
40229,Jefferson County,KY,NA,18.55421686746988
40241,Jefferson County,KY,49.44852941176471,NA
40299,Jefferson County,KY,35.294117647058826,NA
40356,Jessamine County,KY,14.522058823529413,NA
40383,Woodford County,KY,NA,44.81927710843374
41001,Campbell County,KY,NA,90.36144578313254
42101,Warren County,KY,NA,15.180722891566264
42104,Warren County,KY,43.38235294117647,NA
42420,Henderson County,KY,9.558823529411764,NA
42544,Pulaski County,KY,80.88235294117648,NA
42602,Clinton County,KY,NA,71.80722891566265
70115,Orleans Parish,LA,92.09558823529412,NA
70123,Jefferson Parish,LA,19.485294117647058,NA
70126,Orleans Parish,LA,NA,19.518072289156628
70360,Terrebonne Parish,LA,NA,26.024096385542165
70403,Tangipahoa Parish,LA,6.8014705882352935,NA
70503,Lafayette Parish,LA,38.60294117647059,NA
70507,Lafayette Parish,LA,NA,49.87951807228916
70508,Lafayette Parish,LA,NA,17.83132530120482
70518,Lafayette Parish,LA,NA,71.08433734939759
70563,Iberia Parish,LA,38.05147058823529,NA
70578,Acadia Parish,LA,NA,44.096385542168676
70737,Ascension Parish,LA,NA,16.3855421686747
70767,West Baton Rouge Parish,LA,NA,90.12048192771084
70769,Ascension Parish,LA,NA,39.036144578313255
71111,Bossier Parish,LA,24.63235294117647,NA
71129,Caddo Parish,LA,40.44117647058824,NA
71203,Ouachita Parish,LA,88.41911764705883,NA
03901,York County,ME,NA,84.09638554216868
04530,Sagadahoc County,ME,NA,46.74698795180723
20634,St. Mary's County,MD,96.69117647058823,NA
20748,Prince George's County,MD,44.48529411764706,NA
20774,Prince George's County,MD,NA,43.373493975903614
20855,Montgomery County,MD,90.80882352941177,NA
21009,Harford County,MD,NA,67.46987951807229
21012,Anne Arundel County,MD,NA,70.60240963855422
21074,Carroll County,MD,76.47058823529412,NA
21122,Anne Arundel County,MD,8.63970588235294,NA
21140,Anne Arundel County,MD,NA,99.27710843373494
21207,Baltimore County,MD,NA,22.40963855421687
21216,Baltimore city,MD,36.213235294117645,NA
21638,Queen Anne's County,MD,NA,94.4578313253012
21771,Frederick County,MD,61.58088235294118,NA
21911,Cecil County,MD,NA,76.3855421686747
01056,Hampden County,MA,89.33823529411765,NA
01507,Worcester County,MA,39.88970588235294,NA
01520,Worcester County,MA,NA,53.73493975903615
01535,Worcester County,MA,79.59558823529412,NA
01550,Worcester County,MA,1.6544117647058825,NA
01581,Worcester County,MA,63.970588235294116,NA
01590,Worcester County,MA,NA,97.83132530120481
01603,Worcester County,MA,2.389705882352941,NA
01605,Worcester County,MA,1.8382352941176472,NA
01610,Worcester County,MA,5.514705882352941,NA
01730,Middlesex County,MA,NA,54.69879518072289
01821,Middlesex County,MA,NA,69.1566265060241
01841,Essex County,MA,NA,0
01850,Middlesex County,MA,8.455882352941178,NA
01862,Middlesex County,MA,46.32352941176471,NA
01902,Essex County,MA,0.5514705882352942,NA
01905,Essex County,MA,2.0220588235294117,NA
01915,Essex County,MA,NA,91.56626506024097
01960,Essex County,MA,6.0661764705882355,NA
02116,Suffolk County,MA,NA,3.614457831325301
02130,Suffolk County,MA,NA,1.9277108433734942
02135,Suffolk County,MA,4.411764705882353,NA
02149,Middlesex County,MA,0.1838235294117647,0.24096385542168677
02151,Suffolk County,MA,76.28676470588235,NA
02169,Norfolk County,MA,NA,85.54216867469879
02176,Middlesex County,MA,NA,34.93975903614458
02190,Norfolk County,MA,27.205882352941174,NA
02324,Plymouth County,MA,10.661764705882353,NA
02360,Plymouth County,MA,1.4705882352941175,5.301204819277109
02368,Norfolk County,MA,2.5735294117647056,NA
02370,Plymouth County,MA,44.85294117647059,NA
02476,Middlesex County,MA,67.83088235294117,NA
02481,Norfolk County,MA,54.96323529411765,NA
02675,Barnstable County,MA,NA,74.21686746987952
02703,Bristol County,MA,NA,0.9638554216867471
02723,Bristol County,MA,2.7573529411764706,NA
02726,Bristol County,MA,28.308823529411764,NA
02740,Bristol County,MA,0,NA
02769,Bristol County,MA,NA,61.204819277108435
02771,Bristol County,MA,39.88970588235294,NA
48047,Macomb County,MI,14.154411764705882,NA
48105,Washtenaw County,MI,NA,13.975903614457833
48111,Wayne County,MI,7.169117647058823,NA
48162,Monroe County,MI,12.316176470588236,NA
48173,Wayne County,MI,56.25,NA
48176,Washtenaw County,MI,42.279411764705884,NA
48182,Monroe County,MI,NA,43.6144578313253
48192,Wayne County,MI,19.11764705882353,NA
48197,Washtenaw County,MI,NA,2.1686746987951806
48220,Oakland County,MI,46.13970588235294,NA
48223,Wayne County,MI,12.683823529411764,NA
48236,Wayne County,MI,NA,48.91566265060241
48239,Wayne County,MI,NA,9.879518072289157
48315,Macomb County,MI,41.911764705882355,NA
48429,Shiawassee County,MI,NA,68.9156626506024
48453,Sanilac County,MI,NA,93.49397590361446
48471,Sanilac County,MI,NA,84.81927710843374
48601,Saginaw County,MI,13.051470588235295,NA
48602,Saginaw County,MI,3.6764705882352944,NA
48616,Saginaw County,MI,NA,50.602409638554214
48617,Clare County,MI,NA,65.5421686746988
48632,Clare County,MI,81.61764705882352,NA
48634,Bay County,MI,95.58823529411765,NA
48642,Midland County,MI,20.40441176470588,NA
48817,Shiawassee County,MI,NA,83.61445783132531
48837,Eaton County,MI,80.14705882352942,NA
48840,Ingham County,MI,92.83088235294117,NA
48843,Livingston County,MI,NA,4.819277108433735
48910,Ingham County,MI,11.580882352941178,NA
48917,Eaton County,MI,NA,7.710843373493977
49002,Kalamazoo County,MI,33.82352941176471,NA
49022,Berrien County,MI,NA,45.78313253012048
49058,Barry County,MI,29.963235294117645,NA
49120,Berrien County,MI,15.257352941176471,NA
49240,Jackson County,MI,NA,60
49285,Ingham County,MI,NA,94.21686746987952
49307,Mecosta County,MI,50.18382352941176,NA
49417,Ottawa County,MI,NA,32.7710843373494
49441,Muskegon County,MI,NA,4.096385542168675
49684,Grand Traverse County,MI,NA,26.506024096385545
49801,Dickinson County,MI,84.55882352941177,NA
55008,Isanti County,MN,NA,55.90361445783133
55038,Washington County,MN,78.67647058823529,NA
55068,Dakota County,MN,62.31617647058824,NA
55331,Hennepin County,MN,87.13235294117648,NA
55355,Meeker County,MN,79.96323529411765,NA
55372,Scott County,MN,59.00735294117647,NA
55405,Hennepin County,MN,91.36029411764706,NA
55414,Hennepin County,MN,50.55147058823529,NA
55438,Hennepin County,MN,NA,77.34939759036145
55720,Carlton County,MN,31.61764705882353,NA
55734,St. Louis County,MN,NA,76.62650602409639
55744,Itasca County,MN,NA,6.987951807228916
55975,Fillmore County,MN,NA,92.04819277108433
56007,Freeborn County,MN,62.13235294117647,NA
56258,Lyon County,MN,94.30147058823529,NA
56572,Otter Tail County,MN,99.26470588235294,NA
56573,Otter Tail County,MN,NA,75.90361445783132
56601,Beltrami County,MN,NA,1.4457831325301205
56636,Itasca County,MN,NA,73.25301204819277
38834,Alcorn County,MS,NA,24.096385542168676
39204,Hinds County,MS,22.794117647058822,NA
39520,Hancock County,MS,NA,40
39601,Lincoln County,MS,NA,88.43373493975903
63043,St. Louis County,MO,NA,52.04819277108433
63052,Jefferson County,MO,50.36764705882353,NA
63144,St. Louis County,MO,97.79411764705883,NA
63376,St. Charles County,MO,NA,2.4096385542168677
63640,St. Francois County,MO,NA,35.903614457831324
64015,Jackson County,MO,NA,16.14457831325301
64063,Jackson County,MO,39.705882352941174,NA
64093,Johnson County,MO,36.029411764705884,NA
64119,Clay County,MO,NA,18.795180722891565
64152,Platte County,MO,NA,35.66265060240964
64157,Clay County,MO,NA,65.3012048192771
65251,Callaway County,MO,NA,57.10843373493976
65270,Randolph County,MO,28.125,NA
65706,Webster County,MO,79.77941176470588,NA
65807,Greene County,MO,58.82352941176471,NA
68022,Douglas County,NE,71.875,NA
68048,Cass County,NE,89.52205882352942,NA
68116,Douglas County,NE,82.90441176470588,NA
68133,Sarpy County,NE,NA,91.32530120481928
89113,Clark County,NV,73.52941176470588,NA
89148,Clark County,NV,45.955882352941174,NA
89436,Washoe County,NV,NA,45.54216867469879
89511,Washoe County,NV,60.66176470588235,NA
89523,Washoe County,NV,52.20588235294118,NA
03743,Sullivan County,NH,53.49264705882353,NA
03755,Grafton County,NH,NA,84.33734939759037
03824,Strafford County,NH,98.16176470588235,NA
03833,Rockingham County,NH,NA,36.144578313253014
03842,Rockingham County,NH,NA,30.361445783132528
07029,Hudson County,NJ,56.43382352941176,NA
07030,Hudson County,NJ,6.4338235294117645,NA
07043,Essex County,NJ,88.60294117647058,NA
07076,Union County,NJ,NA,96.14457831325302
07109,Essex County,NJ,NA,15.903614457831324
07111,Essex County,NJ,NA,39.51807228915663
07407,Bergen County,NJ,NA,60.48192771084337
07503,Passaic County,NJ,77.57352941176471,NA
07508,Passaic County,NJ,NA,44.33734939759036
07513,Passaic County,NJ,58.08823529411765,NA
07644,Bergen County,NJ,41.36029411764706,NA
07666,Bergen County,NJ,13.970588235294118,NA
07670,Bergen County,NJ,84.55882352941177,NA
07730,Monmouth County,NJ,NA,46.265060240963855
07755,Monmouth County,NJ,NA,99.03614457831326
07866,Morris County,NJ,61.94852941176471,NA
07871,Sussex County,NJ,54.779411764705884,NA
08005,Ocean County,NJ,19.301470588235293,NA
08360,Cumberland County,NJ,1.2867647058823528,NA
08520,Mercer County,NJ,50,NA
08558,Somerset County,NJ,NA,97.59036144578313
08701,Ocean County,NJ,3.308823529411765,NA
08816,Middlesex County,NJ,35.47794117647059,NA
08859,Middlesex County,NJ,NA,87.46987951807229
87013,Sandoval County,NM,93.38235294117648,NA
87024,Sandoval County,NM,NA,97.83132530120481
87104,Bernalillo County,NM,NA,92.04819277108433
87109,Bernalillo County,NM,NA,14.216867469879519
87532,Santa Fe County,NM,39.52205882352941,NA
88001,Doa Ana County,NM,NA,28.433734939759038
88005,Doa Ana County,NM,NA,86.74698795180723
88101,Curry County,NM,9.926470588235293,NA
10016,New York County,NY,NA,52.28915662650603
10022,New York County,NY,80.51470588235294,NA
10030,New York County,NY,22.610294117647058,NA
10454,Bronx County,NY,26.65441176470588,NA
10456,Bronx County,NY,0.3676470588235294,NA
10466,Bronx County,NY,NA,2.6506024096385543
10598,Westchester County,NY,NA,76.86746987951807
10705,Westchester County,NY,NA,25.783132530120483
11201,Kings County,NY,21.50735294117647,NA
11206,Kings County,NY,NA,1.2048192771084338
11214,Kings County,NY,16.727941176470587,NA
11236,Kings County,NY,4.595588235294118,NA
11385,Queens County,NY,9.742647058823529,NA
11706,Suffolk County,NY,22.24264705882353,NA
12025,Fulton County,NY,NA,83.13253012048193
12122,Schoharie County,NY,NA,93.01204819277108
12134,Fulton County,NY,NA,88.91566265060241
12180,Rensselaer County,NY,15.073529411764705,NA
12303,Schenectady County,NY,38.786764705882355,NA
12534,Columbia County,NY,16.176470588235293,NA
12701,Sullivan County,NY,NA,68.43373493975903
12804,Warren County,NY,NA,10.602409638554217
12966,Franklin County,NY,83.27205882352942,NA
13021,Cayuga County,NY,18.933823529411764,NA
13027,Onondaga County,NY,13.786764705882353,NA
13045,Cortland County,NY,4.227941176470589,NA
13108,Onondaga County,NY,84.19117647058823,NA
13212,Onondaga County,NY,NA,60.24096385542169
13350,Herkimer County,NY,NA,34.21686746987952
13363,Oneida County,NY,96.875,NA
13492,Oneida County,NY,NA,51.566265060240966
13642,St. Lawrence County,NY,31.801470588235293,NA
13730,Chenango County,NY,90.625,NA
13736,Tioga County,NY,95.40441176470588,NA
13901,Broome County,NY,4.044117647058823,NA
14020,Genesee County,NY,NA,12.289156626506024
14031,Erie County,NY,81.80147058823529,NA
14043,Erie County,NY,NA,29.87951807228916
14055,Erie County,NY,99.44852941176471,NA
14063,Chautauqua County,NY,NA,48.19277108433735
14094,Niagara County,NY,NA,2.891566265060241
14105,Niagara County,NY,85.29411764705883,NA
14120,Niagara County,NY,4.779411764705882,NA
14206,Erie County,NY,NA,25.060240963855424
14207,Erie County,NY,NA,33.734939759036145
14221,Erie County,NY,NA,3.132530120481928
14225,Erie County,NY,NA,15.66265060240964
14227,Erie County,NY,23.897058823529413,NA
14420,Monroe County,NY,NA,19.759036144578314
14424,Ontario County,NY,3.125,0.48192771084337355
14476,Orleans County,NY,93.75,NA
14505,Wayne County,NY,NA,71.56626506024097
14506,Monroe County,NY,NA,98.79518072289156
14513,Wayne County,NY,5.330882352941177,NA
14519,Wayne County,NY,NA,26.265060240963855
14550,Wyoming County,NY,NA,96.62650602409639
14559,Monroe County,NY,10.477941176470589,NA
14609,Monroe County,NY,0.9191176470588236,NA
14611,Monroe County,NY,6.985294117647059,NA
14612,Monroe County,NY,NA,1.6867469879518073
14617,Monroe County,NY,26.47058823529412,NA
14626,Monroe County,NY,3.4926470588235294,NA
14712,Chautauqua County,NY,96.50735294117648,NA
14727,Allegany County,NY,90.07352941176471,NA
14850,Tompkins County,NY,NA,5.542168674698795
14905,Chemung County,NY,96.32352941176471,NA
27030,Surry County,NC,6.61764705882353,NA
27106,Forsyth County,NC,NA,3.3734939759036147
27127,Forsyth County,NC,NA,4.578313253012048
27205,Randolph County,NC,NA,23.132530120481928
27524,Johnston County,NC,69.48529411764706,NA
27529,Wake County,NC,24.448529411764707,NA
27542,Johnston County,NC,68.56617647058823,NA
27560,Wake County,NC,72.79411764705883,NA
27604,Wake County,NC,33.27205882352941,NA
27605,Wake County,NC,NA,100
27609,Wake County,NC,36.580882352941174,NA
27613,Wake County,NC,48.345588235294116,36.385542168674704
27614,Wake County,NC,NA,36.86746987951807
28075,Cabarrus County,NC,87.5,NA
28079,Union County,NC,47.05882352941176,NA
28146,Rowan County,NC,32.720588235294116,NA
28208,Mecklenburg County,NC,53.86029411764706,NA
28277,Mecklenburg County,NC,70.40441176470588,NA
28328,Sampson County,NC,NA,20.96385542168675
28358,Robeson County,NC,NA,30.602409638554217
28379,Richmond County,NC,17.27941176470588,NA
28412,New Hanover County,NC,NA,25.060240963855424
28562,Craven County,NC,NA,59.75903614457832
28570,Carteret County,NC,51.83823529411765,NA
28658,Catawba County,NC,NA,41.9277108433735
28678,Alexander County,NC,82.16911764705883,NA
28751,Haywood County,NC,95.22058823529412,NA
28756,Polk County,NC,NA,96.86746987951807
28771,Graham County,NC,70.22058823529412,NA
28777,Mitchell County,NC,NA,69.39759036144578
28779,Jackson County,NC,NA,62.16867469879518
58104,Cass County,ND,NA,11.325301204819278
43025,Licking County,OH,91.54411764705883,NA
43074,Delaware County,OH,76.83823529411765,NA
43078,Champaign County,OH,64.33823529411765,NA
43082,Delaware County,OH,83.08823529411765,NA
43138,Hocking County,OH,29.044117647058826,NA
43147,Fairfield County,OH,NA,24.57831325301205
43207,Franklin County,OH,2.2058823529411766,NA
43232,Franklin County,OH,21.323529411764707,NA
43435,Sandusky County,OH,100,NA
43558,Fulton County,OH,NA,89.39759036144578
43608,Lucas County,OH,8.823529411764707,NA
43701,Muskingum County,OH,1.1029411764705883,NA
43764,Perry County,OH,67.27941176470588,NA
44030,Ashtabula County,OH,22.426470588235293,NA
44057,Lake County,OH,NA,16.626506024096386
44087,Summit County,OH,42.463235294117645,NA
44102,Cuyahoga County,OH,0.7352941176470588,NA
44110,Cuyahoga County,OH,35.661764705882355,NA
44112,Cuyahoga County,OH,31.25,NA
44128,Cuyahoga County,OH,2.941176470588235,NA
44129,Cuyahoga County,OH,NA,67.71084337349397
44130,Cuyahoga County,OH,NA,0.7228915662650602
44145,Cuyahoga County,OH,NA,27.469879518072286
44221,Summit County,OH,14.88970588235294,NA
44241,Portage County,OH,NA,59.036144578313255
44278,Summit County,OH,57.904411764705884,NA
44287,Wayne County,OH,NA,91.08433734939759
44320,Summit County,OH,NA,55.18072289156627
44406,Mahoning County,OH,NA,26.987951807228917
44412,Portage County,OH,NA,98.3132530120482
44442,Mahoning County,OH,94.66911764705883,NA
44446,Trumbull County,OH,13.23529411764706,NA
44483,Trumbull County,OH,16.544117647058822,NA
44484,Trumbull County,OH,NA,11.80722891566265
44824,Erie County,OH,92.46323529411765,NA
44837,Huron County,OH,84.00735294117648,NA
44839,Erie County,OH,79.22794117647058,NA
44875,Richland County,OH,NA,50.36144578313253
44883,Seneca County,OH,NA,37.10843373493976
45005,Warren County,OH,9.191176470588236,NA
45030,Hamilton County,OH,54.22794117647059,NA
45067,Butler County,OH,NA,78.79518072289157
45103,Clermont County,OH,25.919117647058826,77.59036144578313
45140,Clermont County,OH,23.52941176470588,14.457831325301203
45176,Clermont County,OH,62.86764705882353,NA
45211,Hamilton County,OH,NA,31.08433734939759
45215,Hamilton County,OH,25,NA
45227,Hamilton County,OH,47.61029411764706,NA
45233,Hamilton County,OH,NA,69.63855421686746
45315,Montgomery County,OH,NA,89.1566265060241
45327,Montgomery County,OH,95.03676470588235,NA
45406,Montgomery County,OH,NA,43.132530120481924
45419,Montgomery County,OH,82.35294117647058,NA
45424,Montgomery County,OH,NA,41.68674698795181
45601,Ross County,OH,5.88235294117647,NA
45656,Jackson County,OH,NA,66.02409638554217
45891,Van Wert County,OH,NA,22.650602409638555
73069,Cleveland County,OK,NA,67.95180722891565
73109,Oklahoma County,OK,61.58088235294118,NA
73120,Oklahoma County,OK,NA,27.710843373493976
73501,Comanche County,OK,NA,50.84337349397591
73507,Comanche County,OK,45.220588235294116,NA
73801,Woodward County,OK,60.29411764705882,NA
74015,Rogers County,OK,88.97058823529412,NA
74055,Tulsa County,OK,NA,28.19277108433735
74063,Tulsa County,OK,55.88235294117647,NA
74105,Tulsa County,OK,38.786764705882355,NA
74115,Tulsa County,OK,40.625,NA
74137,Tulsa County,OK,NA,83.855421686747
74354,Ottawa County,OK,88.23529411764706,NA
97007,Washington County,OR,NA,27.228915662650603
97048,Columbia County,OR,87.86764705882352,NA
97070,Clackamas County,OR,NA,61.44578313253012
97080,Multnomah County,OR,NA,17.349397590361445
97089,Clackamas County,OR,NA,80.48192771084337
97124,Washington County,OR,NA,21.44578313253012
97236,Multnomah County,OR,NA,25.542168674698797
97603,Klamath County,OR,NA,5.783132530120482
97850,Union County,OR,40.80882352941176,NA
97914,Malheur County,OR,NA,20.481927710843372
15017,Allegheny County,PA,NA,93.73493975903614
15205,Allegheny County,PA,NA,57.831325301204814
15210,Allegheny County,PA,15.625,NA
15214,Allegheny County,PA,52.57352941176471,NA
15216,Allegheny County,PA,79.41176470588235,NA
15601,Westmoreland County,PA,3.860294117647059,NA
15644,Westmoreland County,PA,NA,33.97590361445783
15767,Jefferson County,PA,NA,31.566265060240962
16056,Butler County,PA,NA,90.60240963855422
16146,Mercer County,PA,23.34558823529412,NA
16201,Armstrong County,PA,30.698529411764707,NA
16673,Blair County,PA,83.82352941176471,NA
16701,McKean County,PA,NA,21.927710843373493
17020,Perry County,PA,NA,70.8433734939759
17044,Mifflin County,PA,12.5,NA
17109,Dauphin County,PA,56.98529411764706,NA
17554,Lancaster County,PA,NA,79.75903614457832
17603,Lancaster County,PA,9.375,NA
17801,Northumberland County,PA,20.955882352941178,NA
17960,Schuylkill County,PA,NA,96.3855421686747
18015,Northampton County,PA,32.904411764705884,NA
18017,Northampton County,PA,NA,3.8554216867469884
18042,Northampton County,PA,NA,5.0602409638554215
18302,Monroe County,PA,50.73529411764706,NA
18328,Pike County,PA,NA,75.18072289156626
18360,Monroe County,PA,27.02205882352941,NA
18702,Luzerne County,PA,8.088235294117647,NA
18966,Bucks County,PA,64.88970588235294,NA
19053,Bucks County,PA,NA,33.25301204819277
19067,Bucks County,PA,NA,7.46987951807229
19094,Delaware County,PA,NA,86.98795180722891
19096,Montgomery County,PA,NA,40.24096385542168
19125,Philadelphia County,PA,NA,58.31325301204819
19128,Philadelphia County,PA,48.713235294117645,NA
19132,Philadelphia County,PA,NA,14.93975903614458
19136,Philadelphia County,PA,11.029411764705882,NA
19138,Philadelphia County,PA,42.830882352941174,NA
19145,Philadelphia County,PA,7.720588235294118,11.566265060240964
19148,Philadelphia County,PA,32.35294117647059,NA
19312,Chester County,PA,NA,49.1566265060241
19341,Chester County,PA,90.25735294117648,NA
19382,Chester County,PA,15.441176470588236,NA
19401,Montgomery County,PA,86.58088235294117,NA
19426,Montgomery County,PA,34.92647058823529,NA
19454,Montgomery County,PA,NA,46.98795180722892
19468,Montgomery County,PA,NA,35.18072289156626
19512,Berks County,PA,NA,53.493975903614455
19530,Berks County,PA,NA,88.67469879518072
19560,Berks County,PA,NA,82.16867469879519
19601,Berks County,PA,18.38235294117647,NA
02886,Kent County,RI,NA,22.16867469879518
02889,Kent County,RI,25.183823529411764,NA
02905,Providence County,RI,NA,43.855421686746986
29020,Kershaw County,SC,63.23529411764706,NA
29072,Lexington County,SC,25.735294117647058,NA
29410,Berkeley County,SC,72.42647058823529,NA
29414,Charleston County,SC,32.536764705882355,NA
29418,Charleston County,SC,68.75,NA
29420,Dorchester County,SC,NA,80.72289156626506
29466,Charleston County,SC,48.161764705882355,NA
29486,Berkeley County,SC,NA,50.12048192771085
29620,Abbeville County,SC,81.25,NA
29651,Greenville County,SC,52.94117647058824,NA
29662,Greenville County,SC,60.845588235294116,NA
29697,Anderson County,SC,NA,66.74698795180723
29715,York County,SC,65.80882352941177,NA
29720,Lancaster County,SC,15.808823529411764,NA
57042,Lake County,SD,93.56617647058823,NA
57108,Lincoln County,SD,61.39705882352941,18.313253012048193
57401,Brown County,SD,NA,7.951807228915662
37075,Sumner County,TN,16.911764705882355,6.506024096385541
37129,Rutherford County,TN,17.463235294117645,NA
37174,Williamson County,TN,NA,38.795180722891565
37412,Hamilton County,TN,NA,61.44578313253012
37421,Hamilton County,TN,NA,28.915662650602407
37807,Union County,TN,68.01470588235294,NA
37865,Sevier County,TN,NA,45.06024096385542
37919,Knox County,TN,NA,37.83132530120482
37922,Knox County,TN,NA,53.975903614457835
37932,Knox County,TN,78.49264705882352,NA
38116,Shelby County,TN,18.75,NA
75002,Collin County,TX,NA,26.746987951807228
75023,Collin County,TX,51.470588235294116,NA
75032,Rockwall County,TX,NA,51.08433734939759
75033,,TX,66.36029411764706,NA
75041,Dallas County,TX,44.11764705882353,NA
75050,Dallas County,TX,43.19852941176471,NA
75052,Dallas County,TX,NA,11.08433734939759
75067,Denton County,TX,32.169117647058826,NA
75068,Denton County,TX,30.330882352941174,84.57831325301206
75069,Collin County,TX,47.794117647058826,NA
75088,Dallas County,TX,66.72794117647058,NA
75189,Rockwall County,TX,NA,79.03614457831326
75201,Dallas County,TX,75.36764705882352,NA
75211,Dallas County,TX,20.036764705882355,NA
75225,Dallas County,TX,NA,58.07228915662651
75230,Dallas County,TX,NA,79.27710843373494
75455,Titus County,TX,NA,48.433734939759034
75670,Harrison County,TX,69.66911764705883,NA
75707,Smith County,TX,NA,53.01204819277109
75904,Angelina County,TX,NA,13.253012048192772
75964,Nacogdoches County,TX,NA,74.93975903614458
75966,Newton County,TX,94.85294117647058,NA
76002,Tarrant County,TX,55.14705882352941,NA
76028,Johnson County,TX,39.338235294117645,NA
76033,Johnson County,TX,37.13235294117647,NA
76034,Tarrant County,TX,NA,63.373493975903614
76051,Tarrant County,TX,NA,69.87951807228916
76087,Parker County,TX,65.625,42.168674698795186
76266,Denton County,TX,94.48529411764706,NA
76543,Bell County,TX,NA,17.59036144578313
76689,Bosque County,TX,99.81617647058823,NA
77008,Harris County,TX,59.55882352941176,NA
77021,Harris County,TX,NA,37.34939759036144
77040,Harris County,TX,45.588235294117645,30.843373493975907
77054,Harris County,TX,74.81617647058823,NA
77085,Harris County,TX,NA,82.65060240963855
77095,Harris County,TX,18.198529411764707,NA
77303,Montgomery County,TX,77.94117647058823,81.6867469879518
77354,Montgomery County,TX,NA,45.30120481927711
77356,Montgomery County,TX,64.52205882352942,NA
77381,Montgomery County,TX,65.44117647058823,NA
77406,Fort Bend County,TX,NA,30.120481927710845
77429,Harris County,TX,11.397058823529411,NA
77433,Harris County,TX,11.948529411764707,NA
77450,Harris County,TX,38.23529411764706,NA
77459,Fort Bend County,TX,23.161764705882355,NA
77471,Fort Bend County,TX,39.154411764705884,NA
77479,Fort Bend County,TX,28.860294117647058,NA
77489,Fort Bend County,TX,NA,66.50602409638554
77511,Brazoria County,TX,45.77205882352941,NA
77535,Liberty County,TX,41.544117647058826,NA
77550,Galveston County,TX,20.772058823529413,NA
77563,Galveston County,TX,71.32352941176471,NA
77571,Harris County,TX,27.389705882352942,47.71084337349398
77836,Burleson County,TX,65.07352941176471,NA
77845,Brazos County,TX,NA,24.819277108433734
77904,Victoria County,TX,40.99264705882353,NA
77963,Goliad County,TX,94.11764705882352,NA
78006,Kendall County,TX,81.98529411764706,NA
78108,Guadalupe County,TX,70.58823529411765,NA
78210,Bexar County,TX,NA,97.10843373493975
78572,Hidalgo County,TX,19.669117647058822,NA
78573,Hidalgo County,TX,53.67647058823529,NA
78583,Cameron County,TX,NA,93.97590361445783
78589,Hidalgo County,TX,NA,36.626506024096386
78610,Hays County,TX,NA,73.01204819277109
78613,Williamson County,TX,33.088235294117645,NA
78644,Caldwell County,TX,NA,85.06024096385542
78664,Williamson County,TX,72.79411764705883,NA
78681,Williamson County,TX,54.04411764705882,NA
78748,Travis County,TX,68.38235294117648,NA
79512,Mitchell County,TX,NA,85.78313253012048
79556,Nolan County,TX,NA,52.53012048192771
79605,Taylor County,TX,NA,39.277108433734945
79924,El Paso County,TX,43.75,NA
79938,El Paso County,TX,31.433823529411764,NA
84020,Salt Lake County,UT,NA,64.33734939759036
84088,Salt Lake County,UT,37.5,NA
84401,Weber County,UT,71.13970588235294,52.53012048192771
84660,Utah County,UT,65.25735294117648,NA
20109,Prince William County,VA,31.985294117647058,NA
20112,Prince William County,VA,72.05882352941177,NA
20121,Fairfax County,VA,NA,74.69879518072288
20147,Loudoun County,VA,37.86764705882353,NA
22003,Fairfax County,VA,29.59558823529412,NA
22033,Fairfax County,VA,NA,63.614457831325296
22042,Fairfax County,VA,NA,78.3132530120482
22044,Fairfax County,VA,NA,89.63855421686748
22101,Fairfax County,VA,NA,48.674698795180724
22180,Fairfax County,VA,93.01470588235294,NA
22204,Arlington County,VA,27.75735294117647,NA
22304,Alexandria city,VA,NA,34.21686746987952
22315,Fairfax County,VA,54.595588235294116,NA
22630,Warren County,VA,56.61764705882353,NA
22712,Fauquier County,VA,85.47794117647058,NA
22802,Harrisonburg city,VA,55.51470588235294,NA
22849,Page County,VA,93.93382352941177,NA
22902,Charlottesville city,VA,24.264705882352942,NA
22960,Orange County,VA,85.84558823529412,NA
23059,Henrico County,VA,NA,66.98795180722892
23072,Gloucester County,VA,72.61029411764706,NA
23075,Henrico County,VA,59.92647058823529,NA
23188,James City County,VA,43.93382352941176,NA
23235,Chesterfield County,VA,78.125,NA
23321,Chesapeake city,VA,47.24264705882353,NA
23322,Chesapeake city,VA,53.30882352941176,NA
23434,Suffolk city,VA,NA,10.120481927710843
23452,Virginia Beach city,VA,NA,8.433734939759036
23663,Hampton city,VA,72.24264705882352,NA
23803,Petersburg city,VA,11.213235294117647,NA
23805,Petersburg city,VA,52.02205882352941,NA
24112,Henry County,VA,17.09558823529412,NA
24151,Franklin County,VA,45.404411764705884,NA
24523,Bedford County,VA,NA,40.72289156626506
24551,Bedford County,VA,NA,80
98023,King County,WA,NA,13.012048192771083
98059,King County,WA,NA,28.674698795180724
98109,King County,WA,57.53676470588235,NA
98116,King County,WA,67.46323529411765,NA
98177,King County,WA,NA,59.27710843373494
98201,Snohomish County,WA,NA,47.2289156626506
98223,Snohomish County,WA,24.816176470588236,NA
98273,Skagit County,WA,75.18382352941177,80.96385542168674
98274,Skagit County,WA,NA,75.66265060240964
98277,Island County,WA,46.875,NA
98284,Skagit County,WA,49.080882352941174,NA
98335,Pierce County,WA,58.45588235294118,NA
98371,Pierce County,WA,86.02941176470588,NA
98391,Pierce County,WA,14.705882352941178,NA
98541,Grays Harbor County,WA,NA,95.66265060240964
98826,Chelan County,WA,NA,75.42168674698794
98837,Grant County,WA,30.14705882352941,NA
98902,Yakima County,WA,26.838235294117645,NA
99344,Adams County,WA,NA,89.63855421686748
20007,District of Columbia,DC,75.91911764705883,NA
20020,District of Columbia,DC,NA,6.265060240963856
25071,Kanawha County,WV,NA,81.20481927710843
25311,Kanawha County,WV,87.68382352941177,NA
53110,Milwaukee County,WI,30.88235294117647,NA
53132,Milwaukee County,WI,NA,20.240963855421686
53213,Milwaukee County,WI,NA,31.32530120481928
53217,Milwaukee County,WI,35.845588235294116,NA
53227,Milwaukee County,WI,36.213235294117645,NA
53563,Rock County,WI,77.75735294117648,NA
53713,Dane County,WI,51.28676470588235,NA
54024,Polk County,WI,NA,90.8433734939759
54130,Outagamie County,WI,56.80147058823529,NA
54615,Jackson County,WI,NA,78.07228915662651
54701,Eau Claire County,WI,43.01470588235294,60.722891566265055
54725,Dunn County,WI,98.71323529411765,NA
54755,Buffalo County,WI,91.72794117647058,NA
