ZipCode,county,state,Adult,Retirement,Geriatric
35005,Jefferson County,AL,NA,NA,86.33879781420765
35111,Tuscaloosa County,AL,NA,NA,64.20765027322405
35611,Limestone County,AL,NA,NA,55.46448087431693
35802,Madison County,AL,NA,NA,22.404371584699454
36089,Bullock County,AL,NA,NA,82.5136612021858
36111,Montgomery County,AL,69.24686192468619,NA,NA
36201,Calhoun County,AL,NA,50.759219088937094,NA
36467,Covington County,AL,77.82426778242679,NA,NA
36605,Mobile County,AL,NA,50.759219088937094,NA
99507,Anchorage Municipality,AK,41.63179916317992,51.19305856832972,NA
99508,Anchorage Municipality,AK,23.84937238493724,NA,94.80874316939891
99515,Anchorage Municipality,AK,NA,76.78958785249458,98.36065573770492
99611,Kenai Peninsula Borough,AK,NA,88.50325379609545,NA
99645,Matanuska-Susitna Borough,AK,NA,68.54663774403471,NA
99669,Kenai Peninsula Borough,AK,NA,NA,97.54098360655738
85003,Maricopa County,AZ,84.30962343096235,NA,NA
85006,Maricopa County,AZ,50.2092050209205,NA,NA
85016,Maricopa County,AZ,91.84100418410041,NA,NA
85018,Maricopa County,AZ,42.46861924686193,NA,NA
85032,Maricopa County,AZ,20.920502092050206,NA,NA
85040,Maricopa County,AZ,25.732217573221757,NA,NA
85138,Pinal County,AZ,47.28033472803347,NA,NA
85201,Maricopa County,AZ,51.25523012552301,36.00867678958785,NA
85213,Maricopa County,AZ,67.78242677824268,NA,NA
85251,Maricopa County,AZ,NA,54.01301518438177,NA
85306,Maricopa County,AZ,NA,NA,59.01639344262295
85350,Yuma County,AZ,NA,NA,74.59016393442623
85382,Maricopa County,AZ,NA,45.770065075921906,NA
85501,Gila County,AZ,97.90794979079497,NA,NA
85622,Pima County,AZ,NA,NA,55.19125683060109
85634,Pima County,AZ,29.916317991631797,31.23644251626898,84.42622950819673
85635,Cochise County,AZ,33.054393305439326,NA,NA
85648,Santa Cruz County,AZ,82.42677824267783,NA,NA
85739,Pinal County,AZ,NA,NA,23.497267759562842
85750,Pima County,AZ,NA,NA,40.16393442622951
85935,Navajo County,AZ,NA,95.01084598698482,NA
86033,Navajo County,AZ,86.19246861924687,NA,NA
86045,Coconino County,AZ,NA,NA,86.6120218579235
86047,Navajo County,AZ,43.30543933054393,NA,NA
86406,Mohave County,AZ,NA,27.331887201735356,NA
86442,Mohave County,AZ,NA,NA,21.584699453551913
86503,Apache County,AZ,73.01255230125523,NA,NA
86505,Apache County,AZ,NA,91.97396963123644,NA
71854,Miller County,AR,45.60669456066946,NA,NA
71901,Garland County,AR,NA,NA,39.34426229508197
72112,Jackson County,AR,NA,91.1062906724512,NA
72118,Pulaski County,AR,NA,NA,46.994535519125684
72204,Pulaski County,AR,NA,NA,41.2568306010929
72454,Clay County,AR,NA,NA,91.2568306010929
72521,Sharp County,AR,NA,NA,99.4535519125683
72601,Boone County,AR,NA,NA,20.491803278688526
72904,Sebastian County,AR,66.31799163179917,NA,NA
72956,Crawford County,AR,NA,29.934924078091107,NA
90002,Los Angeles County,CA,NA,62.039045553145336,NA
90016,Los Angeles County,CA,NA,NA,29.23497267759563
90026,Los Angeles County,CA,NA,39.479392624728845,NA
90032,Los Angeles County,CA,NA,NA,48.36065573770492
90041,Los Angeles County,CA,78.24267782426779,NA,NA
90220,Los Angeles County,CA,70.92050209205021,NA,NA
90222,Los Angeles County,CA,90.5857740585774,NA,NA
90260,Los Angeles County,CA,NA,70.71583514099783,NA
90291,Los Angeles County,CA,NA,85.03253796095444,NA
90602,Los Angeles County,CA,69.8744769874477,NA,NA
90802,Los Angeles County,CA,NA,NA,95.62841530054644
91303,Los Angeles County,CA,NA,85.24945770065075,NA
91342,Los Angeles County,CA,60.04184100418411,15.835140997830802,NA
91343,Los Angeles County,CA,59.62343096234309,NA,NA
91344,Los Angeles County,CA,NA,NA,21.85792349726776
91403,Los Angeles County,CA,NA,NA,72.95081967213115
91601,Los Angeles County,CA,71.96652719665272,NA,NA
91706,Los Angeles County,CA,NA,NA,24.59016393442623
91731,Los Angeles County,CA,74.68619246861925,NA,NA
91741,Los Angeles County,CA,NA,51.62689804772235,NA
91744,Los Angeles County,CA,24.05857740585774,NA,NA
91766,Los Angeles County,CA,NA,NA,34.15300546448087
92037,San Diego County,CA,83.89121338912135,NA,NA
92065,San Diego County,CA,56.903765690376574,NA,NA
92101,San Diego County,CA,NA,NA,37.704918032786885
92122,San Diego County,CA,NA,67.46203904555314,NA
92126,San Diego County,CA,NA,35.791757049891544,NA
92127,San Diego County,CA,NA,NA,59.56284153005464
92201,Riverside County,CA,32.00836820083682,NA,NA
92203,Riverside County,CA,NA,NA,67.21311475409836
92316,San Bernardino County,CA,82.00836820083683,NA,NA
92376,San Bernardino County,CA,41.84100418410041,NA,NA
92407,San Bernardino County,CA,89.9581589958159,NA,NA
92506,Riverside County,CA,76.56903765690377,NA,NA
92509,Riverside County,CA,31.380753138075313,NA,NA
92543,Riverside County,CA,NA,54.229934924078094,NA
92562,Riverside County,CA,NA,NA,38.52459016393443
92596,Riverside County,CA,78.03347280334728,NA,NA
92646,Orange County,CA,33.68200836820084,NA,NA
92677,Orange County,CA,NA,11.062906724511931,NA
92870,Orange County,CA,45.18828451882845,NA,NA
93103,Santa Barbara County,CA,NA,98.91540130151843,NA
93111,Santa Barbara County,CA,NA,NA,65.84699453551912
93117,Santa Barbara County,CA,NA,74.62039045553145,NA
93247,Tulare County,CA,NA,85.90021691973969,NA
93291,Tulare County,CA,61.29707112970711,NA,NA
93536,Los Angeles County,CA,51.04602510460251,NA,NA
93550,Los Angeles County,CA,NA,48.15618221258134,NA
93703,Fresno County,CA,51.88284518828452,NA,NA
93901,Monterey County,CA,NA,72.66811279826464,NA
93905,Monterey County,CA,74.89539748953975,55.09761388286334,NA
93906,Monterey County,CA,75.73221757322176,NA,NA
93933,Monterey County,CA,95.60669456066945,NA,NA
93960,Monterey County,CA,NA,96.52928416485899,NA
94002,San Mateo County,CA,63.17991631799163,NA,NA
94030,San Mateo County,CA,NA,59.65292841648589,NA
94040,Santa Clara County,CA,NA,NA,69.39890710382514
94066,San Mateo County,CA,NA,12.147505422993492,NA
94085,Santa Clara County,CA,87.44769874476988,NA,NA
94086,Santa Clara County,CA,NA,76.13882863340564,NA
94109,San Francisco County,CA,35.146443514644346,NA,6.284153005464481
94111,San Francisco County,CA,NA,NA,86.6120218579235
94112,San Francisco County,CA,32.63598326359833,NA,NA
94114,San Francisco County,CA,54.811715481171554,NA,NA
94116,San Francisco County,CA,NA,NA,65.30054644808743
94121,San Francisco County,CA,76.35983263598327,NA,NA
94127,San Francisco County,CA,NA,NA,56.830601092896174
94303,San Mateo County,CA,67.15481171548117,65.29284164859001,NA
94306,Santa Clara County,CA,NA,68.98047722342733,53.825136612021865
94501,Alameda County,CA,NA,NA,24.863387978142075
94509,Contra Costa County,CA,29.497907949790797,NA,NA
94518,Contra Costa County,CA,81.58995815899581,NA,NA
94550,Alameda County,CA,80.1255230125523,NA,NA
94563,Contra Costa County,CA,88.28451882845188,NA,NA
94565,Contra Costa County,CA,76.15062761506276,NA,NA
94577,Alameda County,CA,44.56066945606695,NA,NA
94595,Contra Costa County,CA,NA,52.060737527114966,NA
94601,Alameda County,CA,52.09205020920502,NA,NA
94706,Alameda County,CA,NA,NA,92.89617486338798
94803,Contra Costa County,CA,96.44351464435147,NA,NA
94903,Marin County,CA,NA,NA,45.90163934426229
95014,Santa Clara County,CA,88.49372384937239,NA,NA
95032,Santa Clara County,CA,NA,94.79392624728851,49.72677595628415
95037,Santa Clara County,CA,63.59832635983263,NA,NA
95112,Santa Clara County,CA,NA,74.18655097613883,NA
95121,Santa Clara County,CA,77.40585774058577,NA,NA
95122,Santa Clara County,CA,53.76569037656904,NA,NA
95128,Santa Clara County,CA,74.05857740585773,NA,NA
95130,Santa Clara County,CA,NA,NA,90.7103825136612
95133,Santa Clara County,CA,89.1213389121339,NA,NA
95148,Santa Clara County,CA,NA,43.817787418655094,NA
95203,San Joaquin County,CA,NA,84.1648590021692,NA
95316,Stanislaus County,CA,93.09623430962343,NA,NA
95350,Stanislaus County,CA,NA,15.61822125813449,NA
95356,Stanislaus County,CA,NA,44.03470715835141,NA
95357,Stanislaus County,CA,NA,78.52494577006507,NA
95368,Stanislaus County,CA,NA,98.0477223427332,NA
95403,Sonoma County,CA,NA,NA,16.939890710382514
95448,Sonoma County,CA,NA,NA,46.17486338797814
95492,Sonoma County,CA,NA,57.9175704989154,NA
95608,Sacramento County,CA,NA,23.427331887201735,NA
95661,Placer County,CA,71.54811715481172,NA,NA
95678,Placer County,CA,NA,69.63123644251627,NA
95682,El Dorado County,CA,65.27196652719665,NA,NA
95691,Yolo County,CA,NA,55.09761388286334,NA
95757,Sacramento County,CA,NA,57.70065075921909,NA
95823,Sacramento County,CA,17.364016736401673,82.646420824295,NA
95965,Butte County,CA,81.17154811715481,NA,NA
80010,Arapahoe County,CO,NA,46.420824295010846,NA
80012,Arapahoe County,CO,NA,NA,19.94535519125683
80013,Arapahoe County,CO,44.35146443514644,NA,NA
80022,Adams County,CO,22.80334728033473,NA,NA
80027,Boulder County,CO,67.36401673640168,NA,NA
80104,Douglas County,CO,63.80753138075313,NA,NA
80108,Douglas County,CO,NA,85.46637744034707,NA
80231,Denver County,CO,NA,59.869848156182215,NA
80247,Arapahoe County,CO,NA,NA,70.76502732240438
80906,El Paso County,CO,68.41004184100419,NA,NA
81521,Mesa County,CO,74.47698744769873,NA,NA
06019,Hartford County,CT,NA,93.49240780911063,NA
06035,Hartford County,CT,NA,NA,86.0655737704918
06053,Hartford County,CT,16.527196652719663,NA,NA
06106,Hartford County,CT,7.112970711297072,NA,NA
06108,Hartford County,CT,37.86610878661088,NA,NA
06114,Hartford County,CT,NA,49.457700650759215,NA
06478,New Haven County,CT,NA,64.20824295010846,NA
06513,New Haven County,CT,6.2761506276150625,NA,NA
06604,Fairfield County,CT,26.569037656903767,NA,NA
06708,New Haven County,CT,NA,36.8763557483731,NA
06710,New Haven County,CT,65.48117154811716,NA,NA
06790,Litchfield County,CT,8.786610878661087,NA,NA
19810,New Castle County,DE,NA,39.04555314533623,NA
19958,Sussex County,DE,NA,28.199566160520607,NA
32091,Bradford County,FL,NA,NA,65.02732240437157
32114,Volusia County,FL,31.171548117154813,NA,NA
32207,Duval County,FL,24.267782426778243,NA,NA
32208,Duval County,FL,NA,34.05639913232104,NA
32218,Duval County,FL,NA,4.772234273318872,NA
32233,Duval County,FL,48.32635983263599,NA,NA
32347,Taylor County,FL,87.65690376569037,NA,NA
32401,Bay County,FL,NA,30.585683297180044,NA
32514,Escambia County,FL,31.799163179916317,NA,NA
32531,Okaloosa County,FL,NA,NA,83.06010928961749
32566,Santa Rosa County,FL,NA,NA,28.96174863387978
32570,Santa Rosa County,FL,15.690376569037657,NA,NA
32641,Alachua County,FL,NA,57.48373101952278,NA
32750,Seminole County,FL,NA,53.579175704989154,NA
32826,Orange County,FL,NA,NA,80.60109289617486
32968,Indian River County,FL,82.63598326359832,NA,NA
33025,Broward County,FL,38.49372384937239,NA,NA
33175,Miami-Dade County,FL,NA,59.436008676789584,NA
33317,Broward County,FL,NA,77.65726681127983,NA
33413,Palm Beach County,FL,85.56485355648536,NA,NA
33431,Palm Beach County,FL,NA,NA,58.46994535519126
33540,Pasco County,FL,91.0041841004184,NA,NA
33823,Polk County,FL,73.64016736401673,NA,NA
33830,Polk County,FL,NA,NA,69.94535519125684
33904,Lee County,FL,NA,NA,9.562841530054644
33916,Lee County,FL,NA,70.49891540130152,NA
33967,Lee County,FL,NA,60.30368763557483,NA
34103,Collier County,FL,NA,66.81127982646422,NA
34207,Manatee County,FL,62.34309623430963,NA,NA
34223,Sarasota County,FL,NA,55.748373101952275,NA
34232,Sarasota County,FL,NA,35.35791757049891,NA
34285,Sarasota County,FL,NA,NA,14.207650273224044
34287,Sarasota County,FL,NA,31.453362255965295,NA
34610,Pasco County,FL,71.75732217573221,NA,NA
34653,Pasco County,FL,37.65690376569037,33.622559652928416,NA
34655,Pasco County,FL,NA,NA,20.21857923497268
34711,Lake County,FL,NA,NA,6.830601092896176
34772,Osceola County,FL,72.59414225941423,NA,NA
30120,Bartow County,GA,27.824267782426777,NA,NA
30122,Douglas County,GA,62.97071129707113,NA,NA
30147,Floyd County,GA,NA,NA,94.26229508196722
30161,Floyd County,GA,25.313807531380757,24.295010845986983,NA
30165,Floyd County,GA,NA,80.91106290672451,72.1311475409836
30173,Floyd County,GA,NA,NA,93.98907103825137
30286,Upson County,GA,NA,52.92841648590022,NA
30310,Fulton County,GA,31.589958158995817,NA,50
30316,DeKalb County,GA,NA,NA,49.18032786885246
30467,Screven County,GA,100,NA,NA
30513,Fannin County,GA,NA,71.58351409978309,NA
30542,Hall County,GA,59.20502092050209,NA,NA
30554,Hall County,GA,92.46861924686193,NA,NA
31543,Brantley County,GA,NA,100,NA
31906,Muscogee County,GA,NA,75.27114967462039,NA
96701,Honolulu County,HI,NA,19.522776572668114,NA
83201,Bannock County,ID,NA,NA,33.60655737704918
83301,Twin Falls County,ID,NA,1.735357917570499,5.737704918032787
83501,Nez Perce County,ID,NA,43.600867678958785,81.9672131147541
83616,Ada County,ID,NA,NA,83.87978142076503
83619,Payette County,ID,82.84518828451883,NA,NA
83646,Ada County,ID,NA,36.22559652928417,NA
83651,Canyon County,ID,NA,13.665943600867678,NA
83704,Ada County,ID,NA,NA,3.551912568306011
83706,Ada County,ID,NA,NA,18.852459016393443
83709,Ada County,ID,NA,NA,27.595628415300546
83835,Kootenai County,ID,NA,NA,43.71584699453552
60014,McHenry County,IL,NA,NA,22.6775956284153
60015,Lake County,IL,NA,27.54880694143167,NA
60016,Cook County,IL,32.42677824267782,NA,NA
60022,Cook County,IL,NA,NA,68.85245901639344
60035,Lake County,IL,NA,NA,3.278688524590164
60044,Lake County,IL,NA,NA,62.568306010928964
60062,Cook County,IL,NA,NA,9.836065573770492
60067,Cook County,IL,NA,NA,16.666666666666664
60076,Cook County,IL,NA,59.00216919739696,NA
60089,Lake County,IL,NA,11.713665943600867,NA
60102,McHenry County,IL,NA,43.38394793926248,NA
60103,DuPage County,IL,NA,60.08676789587852,NA
60108,DuPage County,IL,65.69037656903765,NA,NA
60164,Cook County,IL,NA,43.16702819956616,NA
60175,Kane County,IL,NA,NA,83.33333333333334
60178,DeKalb County,IL,NA,NA,52.459016393442624
60185,DuPage County,IL,NA,30.151843817787416,NA
60189,DuPage County,IL,NA,25.813449023861175,NA
60191,DuPage County,IL,NA,NA,51.91256830601093
60193,Cook County,IL,75.52301255230127,41.21475054229935,29.78142076502732
60201,Cook County,IL,NA,25.379609544468547,NA
60406,Cook County,IL,61.92468619246861,91.54013015184381,NA
60415,Cook County,IL,NA,NA,72.6775956284153
60451,Will County,IL,NA,16.702819956616054,NA
60459,Cook County,IL,NA,NA,43.98907103825137
60462,Cook County,IL,NA,6.941431670281996,39.61748633879781
60513,Cook County,IL,NA,NA,60.10928961748634
60515,DuPage County,IL,48.95397489539749,NA,NA
60563,DuPage County,IL,53.55648535564853,NA,NA
60586,Will County,IL,20.502092050209207,NA,NA
60608,Cook County,IL,NA,15.40130151843818,NA
60611,Cook County,IL,NA,24.07809110629067,NA
60619,Cook County,IL,9.623430962343097,NA,1.639344262295082
60620,Cook County,IL,NA,4.121475054229935,NA
60623,Cook County,IL,38.07531380753138,NA,NA
60634,Cook County,IL,NA,10.412147505422993,11.748633879781421
60637,Cook County,IL,NA,14.75054229934924,NA
60638,Cook County,IL,15.062761506276152,NA,NA
60639,Cook County,IL,14.225941422594143,NA,NA
60644,Cook County,IL,11.715481171548117,14.533622559652928,NA
60651,Cook County,IL,NA,58.13449023861171,NA
60652,Cook County,IL,NA,26.46420824295011,NA
60655,Cook County,IL,NA,32.75488069414317,NA
60707,Cook County,IL,NA,NA,38.79781420765027
60901,Kankakee County,IL,22.594142259414227,NA,NA
61021,Lee County,IL,NA,NA,4.371584699453552
61071,Whiteside County,IL,NA,90.23861171366593,82.78688524590164
61081,Whiteside County,IL,70.29288702928869,NA,46.72131147540984
61115,Winnebago County,IL,NA,NA,54.91803278688525
61270,Whiteside County,IL,NA,NA,98.63387978142076
61342,LaSalle County,IL,NA,79.17570498915401,NA
61554,Tazewell County,IL,37.029288702928866,NA,NA
62040,Madison County,IL,NA,NA,53.00546448087432
62301,Adams County,IL,72.17573221757321,38.611713665943604,87.1584699453552
62305,Adams County,IL,NA,59.219088937093275,NA
62629,Sangamon County,IL,NA,87.41865509761388,NA
46077,Boone County,IN,NA,NA,56.284153005464475
46173,Rush County,IN,64.22594142259415,NA,NA
46176,Shelby County,IN,21.96652719665272,NA,NA
46202,Marion County,IN,68.20083682008368,NA,NA
46203,Marion County,IN,13.598326359832635,NA,NA
46208,Marion County,IN,43.72384937238494,NA,NA
46218,Marion County,IN,NA,23.861171366594363,62.02185792349727
46222,Marion County,IN,27.19665271966527,NA,NA
46224,Marion County,IN,NA,50.542299349240785,NA
46227,Marion County,IN,14.853556485355648,NA,NA
46241,Marion County,IN,NA,NA,54.37158469945356
46256,Marion County,IN,NA,NA,59.2896174863388
46268,Marion County,IN,NA,47.288503253796094,31.420765027322407
46368,Porter County,IN,NA,2.386117136659436,NA
46408,Lake County,IN,NA,48.37310195227766,NA
46501,Marshall County,IN,97.28033472803347,NA,NA
46975,Fulton County,IN,NA,NA,91.53005464480874
46996,Pulaski County,IN,NA,NA,89.07103825136612
47240,Decatur County,IN,71.33891213389121,NA,NA
47274,Jackson County,IN,NA,34.273318872017356,NA
47374,Wayne County,IN,NA,48.590021691973966,1.366120218579235
47804,Vigo County,IN,66.94560669456067,NA,NA
47905,Tippecanoe County,IN,NA,51.40997830802603,NA
47978,Jasper County,IN,NA,NA,80.05464480874316
50022,Cass County,IA,NA,81.99566160520607,NA
50138,Marion County,IA,59.83263598326359,60.73752711496746,NA
50310,Polk County,IA,NA,NA,44.26229508196721
50313,Polk County,IA,NA,NA,89.89071038251366
50315,Polk County,IA,41.21338912133891,NA,NA
50317,Polk County,IA,47.69874476987448,NA,NA
50322,Polk County,IA,NA,56.61605206073753,NA
51103,Woodbury County,IA,NA,65.50976138828634,NA
51301,Clay County,IA,59.20502092050209,NA,NA
52246,Johnson County,IA,NA,NA,32.51366120218579
52328,Linn County,IA,99.7907949790795,NA,NA
52556,Jefferson County,IA,NA,62.47288503253796,NA
52722,Scott County,IA,NA,30.36876355748373,23.224043715846996
66209,Johnson County,KS,NA,44.46854663774403,NA
66801,Lyon County,KS,NA,NA,67.75956284153006
67735,Sherman County,KS,NA,82.21258134490239,NA
40212,Jefferson County,KY,NA,72.23427331887203,NA
40351,Rowan County,KY,NA,NA,28.142076502732237
40906,Knox County,KY,71.1297071129707,NA,NA
41011,Kenton County,KY,19.874476987447697,NA,NA
41071,Campbell County,KY,34.30962343096235,NA,NA
41101,Boyd County,KY,23.221757322175733,NA,NA
41339,Breathitt County,KY,NA,NA,88.52459016393442
42003,McCracken County,KY,20.292887029288703,NA,NA
42276,Logan County,KY,83.47280334728033,NA,NA
42754,Grayson County,KY,NA,NA,47.540983606557376
70001,Jefferson Parish,LA,6.485355648535565,NA,NA
70056,Jefferson Parish,LA,NA,NA,25.136612021857925
70094,Jefferson Parish,LA,NA,89.3709327548807,NA
70117,Orleans Parish,LA,6.903765690376569,19.739696312364423,NA
70118,Orleans Parish,LA,NA,NA,68.0327868852459
70119,Orleans Parish,LA,NA,8.459869848156181,NA
70123,Jefferson Parish,LA,24.686192468619247,NA,NA
70126,Orleans Parish,LA,NA,24.5119305856833,21.311475409836063
70128,Orleans Parish,LA,NA,33.18872017353579,NA
70345,Lafourche Parish,LA,92.67782426778243,NA,NA
70363,Terrebonne Parish,LA,60.46025104602511,NA,NA
70441,St. Helena Parish,LA,NA,NA,78.14207650273224
70444,Tangipahoa Parish,LA,55.020920502092054,NA,NA
70471,St. Tammany Parish,LA,NA,NA,17.48633879781421
70501,Lafayette Parish,LA,2.928870292887029,NA,NA
70570,St. Landry Parish,LA,2.092050209205021,NA,NA
70737,Ascension Parish,LA,10.460251046025103,NA,NA
70739,East Baton Rouge Parish,LA,79.49790794979079,NA,NA
70764,Iberville Parish,LA,42.25941422594142,NA,NA
70788,Iberville Parish,LA,90.3765690376569,NA,NA
70805,East Baton Rouge Parish,LA,4.393305439330543,NA,NA
70814,East Baton Rouge Parish,LA,NA,NA,91.80327868852459
71106,Caddo Parish,LA,9.832635983263598,NA,NA
71107,Caddo Parish,LA,23.01255230125523,NA,NA
71109,Caddo Parish,LA,NA,NA,73.224043715847
71129,Caddo Parish,LA,47.071129707112966,NA,NA
71202,Ouachita Parish,LA,NA,28.850325379609544,NA
71292,Ouachita Parish,LA,NA,56.182212581344906,NA
71457,Natchitoches Parish,LA,67.57322175732217,NA,NA
04005,York County,ME,NA,6.29067245119306,NA
04038,Cumberland County,ME,NA,49.0238611713666,NA
04240,Androscoggin County,ME,2.7196652719665275,NA,NA
04276,Oxford County,ME,NA,75.70498915401302,NA
04401,Penobscot County,ME,NA,NA,0.819672131147541
04730,Aroostook County,ME,NA,50.108459869848154,NA
04736,Aroostook County,ME,82.21757322175732,86.55097613882863,65.57377049180327
04742,Aroostook County,ME,NA,67.46203904555314,NA
04769,Aroostook County,ME,85.98326359832636,77.00650759219089,95.90163934426229
04785,Aroostook County,ME,NA,NA,99.18032786885246
04841,Knox County,ME,78.66108786610879,NA,NA
04901,Kennebec County,ME,7.740585774058577,NA,74.04371584699454
20878,Montgomery County,MD,NA,61.17136659436009,NA
21044,Howard County,MD,NA,64.64208242950107,NA
21093,Baltimore County,MD,NA,27.765726681127983,NA
21215,Baltimore city,MD,NA,NA,12.295081967213115
21223,Baltimore city,MD,NA,NA,68.30601092896174
21231,Baltimore city,MD,NA,68.76355748373102,NA
21236,Baltimore County,MD,46.86192468619247,NA,NA
21617,Queen Anne's County,MD,NA,90.67245119305856,NA
21658,Queen Anne's County,MD,NA,99.78308026030369,NA
01069,Hampden County,MA,85.77405857740585,NA,NA
01109,Hampden County,MA,3.3472803347280333,9.97830802603037,NA
01440,Worcester County,MA,58.15899581589959,NA,41.80327868852459
01453,Worcester County,MA,1.6736401673640167,NA,NA
01570,Worcester County,MA,NA,4.3383947939262475,NA
01590,Worcester County,MA,77.61506276150628,NA,NA
01602,Worcester County,MA,11.08786610878661,NA,NA
01605,Worcester County,MA,1.882845188284519,NA,0.273224043715847
01607,Worcester County,MA,18.410041841004183,NA,NA
01609,Worcester County,MA,NA,7.37527114967462,NA
01702,Middlesex County,MA,NA,NA,7.103825136612022
01803,Middlesex County,MA,27.615062761506277,NA,NA
01867,Middlesex County,MA,34.51882845188285,NA,NA
01880,Middlesex County,MA,NA,NA,15.027322404371585
01886,Middlesex County,MA,30.753138075313807,NA,NA
01890,Middlesex County,MA,NA,NA,14.754098360655737
01906,Essex County,MA,NA,NA,32.78688524590164
01913,Essex County,MA,NA,NA,96.72131147540983
01923,Essex County,MA,5.230125523012552,NA,2.459016393442623
01938,Essex County,MA,NA,17.570498915401302,NA
01945,Essex County,MA,NA,NA,66.39344262295081
01960,Essex County,MA,9.205020920502092,NA,13.114754098360656
01983,Essex County,MA,NA,NA,99.72677595628416
02090,Norfolk County,MA,NA,NA,41.80327868852459
02116,Suffolk County,MA,21.12970711297071,NA,NA
02118,Suffolk County,MA,NA,46.85466377440347,NA
02119,Suffolk County,MA,0.20920502092050208,NA,NA
02121,Suffolk County,MA,NA,44.68546637744035,28.688524590163933
02124,Suffolk County,MA,0,NA,1.092896174863388
02126,Suffolk County,MA,29.288702928870293,NA,81.69398907103826
02129,Suffolk County,MA,24.89539748953975,NA,NA
02130,Suffolk County,MA,NA,NA,26.775956284153008
02131,Suffolk County,MA,NA,NA,4.644808743169399
02132,Suffolk County,MA,17.154811715481173,NA,52.732240437158474
02135,Suffolk County,MA,NA,40.99783080260303,15.300546448087433
02139,Middlesex County,MA,NA,41.86550976138829,46.44808743169399
02140,Middlesex County,MA,NA,NA,93.44262295081968
02141,Middlesex County,MA,36.19246861924686,NA,77.3224043715847
02144,Middlesex County,MA,NA,11.496746203904555,NA
02148,Middlesex County,MA,13.179916317991633,14.316702819956618,NA
02149,Middlesex County,MA,3.556485355648536,NA,NA
02150,Suffolk County,MA,NA,12.79826464208243,NA
02151,Suffolk County,MA,16.94560669456067,NA,66.66666666666666
02152,Suffolk County,MA,49.58158995815899,70.93275488069413,38.25136612021858
02155,Middlesex County,MA,NA,NA,10.10928961748634
02169,Norfolk County,MA,NA,NA,0.546448087431694
02171,Norfolk County,MA,NA,22.99349240780911,NA
02180,Middlesex County,MA,17.573221757322173,NA,45.3551912568306
02184,Norfolk County,MA,NA,9.11062906724512,NA
02324,Plymouth County,MA,16.317991631799163,NA,NA
02368,Norfolk County,MA,2.510460251046025,NA,NA
02451,Middlesex County,MA,NA,21.475054229934923,NA
02472,Middlesex County,MA,NA,NA,16.120218579234972
02537,Barnstable County,MA,NA,NA,76.50273224043715
02554,Nantucket County,MA,NA,53.14533622559653,63.387978142076506
02635,Barnstable County,MA,NA,NA,61.47540983606557
02639,Barnstable County,MA,NA,81.34490238611714,NA
02717,Bristol County,MA,NA,95.44468546637745,NA
02767,Bristol County,MA,NA,42.73318872017354,NA
48001,St. Clair County,MI,NA,NA,75.95628415300546
48015,Macomb County,MI,NA,54.880694143167034,NA
48021,Macomb County,MI,44.97907949790795,NA,NA
48038,Macomb County,MI,18.619246861924683,NA,NA
48040,St. Clair County,MI,NA,NA,79.78142076502732
48044,Macomb County,MI,NA,7.809110629067245,NA
48066,Macomb County,MI,NA,NA,57.650273224043715
48081,Macomb County,MI,NA,NA,16.939890710382514
48082,Macomb County,MI,54.60251046025104,38.39479392624729,NA
48089,Macomb County,MI,NA,NA,50.81967213114754
48108,Washtenaw County,MI,NA,NA,25.40983606557377
48111,Wayne County,MI,NA,8.026030368763557,NA
48135,Wayne County,MI,NA,26.68112798264642,NA
48146,Wayne County,MI,12.343096234309623,17.136659436008678,NA
48170,Wayne County,MI,NA,NA,42.62295081967213
48180,Wayne County,MI,NA,NA,3.825136612021858
48197,Washtenaw County,MI,3.1380753138075312,NA,NA
48198,Washtenaw County,MI,21.548117154811717,NA,NA
48208,Wayne County,MI,NA,NA,98.08743169398907
48213,Wayne County,MI,NA,63.1236442516269,NA
48214,Wayne County,MI,NA,NA,74.31693989071039
48221,Wayne County,MI,NA,67.02819956616052,NA
48225,Wayne County,MI,NA,66.5943600867679,NA
48227,Wayne County,MI,NA,37.960954446854664,NA
48235,Wayne County,MI,20.711297071129707,3.470715835140998,NA
48236,Wayne County,MI,NA,NA,13.661202185792352
48314,Macomb County,MI,NA,38.82863340563991,NA
48315,Macomb County,MI,48.74476987447699,NA,NA
48327,Oakland County,MI,NA,42.950108459869845,NA
48382,Oakland County,MI,NA,89.80477223427332,NA
48450,Sanilac County,MI,NA,84.59869848156181,NA
48642,Midland County,MI,25.10460251046025,NA,NA
48708,Bay County,MI,NA,9.327548806941431,NA
48732,Bay County,MI,NA,49.67462039045553,NA
48813,Eaton County,MI,45.81589958158996,NA,NA
48864,Ingham County,MI,NA,NA,61.20218579234973
48912,Ingham County,MI,58.995815899581594,NA,NA
49036,Branch County,MI,35.35564853556485,NA,NA
49045,Van Buren County,MI,NA,83.29718004338395,NA
49046,Barry County,MI,87.65690376569037,NA,NA
49203,Jackson County,MI,NA,36.659436008676785,NA
49285,Ingham County,MI,NA,NA,87.43169398907104
49343,Kent County,MI,NA,81.77874186550976,NA
49346,Mecosta County,MI,95.39748953974896,NA,NA
49505,Kent County,MI,NA,62.25596529284165,NA
49508,Kent County,MI,8.577405857740587,NA,NA
49509,Kent County,MI,50,NA,NA
49735,Otsego County,MI,40.37656903765691,NA,NA
49913,Houghton County,MI,NA,67.24511930585683,NA
55014,Anoka County,MN,NA,88.93709327548807,NA
55066,Goodhue County,MN,NA,21.908893709327547,NA
55101,Ramsey County,MN,NA,83.73101952277658,NA
55102,Ramsey County,MN,37.238493723849366,NA,NA
55103,Ramsey County,MN,NA,97.83080260303689,NA
55113,Ramsey County,MN,NA,NA,23.770491803278688
55116,Ramsey County,MN,NA,NA,79.50819672131148
55119,Ramsey County,MN,NA,33.40563991323211,NA
55303,Anoka County,MN,56.48535564853556,NA,NA
55336,McLeod County,MN,NA,72.0173535791757,92.34972677595628
55350,McLeod County,MN,67.99163179916317,NA,NA
55372,Scott County,MN,66.52719665271967,NA,NA
55411,Hennepin County,MN,4.184100418410042,NA,NA
55412,Hennepin County,MN,NA,73.10195227765726,NA
55417,Hennepin County,MN,56.69456066945606,NA,NA
55422,Hennepin County,MN,38.70292887029289,NA,NA
55428,Hennepin County,MN,58.36820083682008,NA,NA
55746,St. Louis County,MN,NA,NA,64.75409836065575
55901,Olmsted County,MN,33.89121338912134,NA,NA
55904,Olmsted County,MN,84.10041841004184,NA,NA
55906,Olmsted County,MN,91.21338912133892,NA,63.934426229508205
55912,Mower County,MN,NA,NA,81.14754098360656
55975,Fillmore County,MN,NA,NA,95.08196721311475
55976,Olmsted County,MN,NA,NA,77.8688524590164
55981,Wabasha County,MN,97.69874476987448,NA,NA
56007,Freeborn County,MN,NA,NA,48.90710382513661
56164,Pipestone County,MN,76.77824267782427,NA,48.63387978142077
56267,Stevens County,MN,94.14225941422593,94.36008676789588,NA
56301,Stearns County,MN,86.40167364016736,NA,NA
56308,Douglas County,MN,NA,14.099783080260304,75.40983606557377
56345,Morrison County,MN,91.42259414225941,NA,NA
56352,Stearns County,MN,87.23849372384937,NA,NA
56378,Stearns County,MN,NA,80.04338394793926,NA
56401,Crow Wing County,MN,14.644351464435147,NA,26.50273224043716
56431,Aitkin County,MN,NA,86.33405639913232,NA
56537,Otter Tail County,MN,NA,40.130151843817785,1.912568306010929
56601,Beltrami County,MN,54.18410041841004,NA,NA
56621,Clearwater County,MN,NA,NA,33.33333333333333
56721,Polk County,MN,61.71548117154811,NA,NA
38804,Lee County,MS,NA,NA,94.53551912568307
38829,Prentiss County,MS,79.70711297071131,NA,NA
38860,Chickasaw County,MS,NA,92.19088937093277,NA
38965,Yalobusha County,MS,98.11715481171548,NA,NA
39305,Lauderdale County,MS,62.13389121338913,NA,NA
39350,Neshoba County,MS,NA,31.887201735357916,NA
39503,Harrison County,MS,15.481171548117153,NA,NA
39532,Harrison County,MS,NA,22.125813449023862,NA
39556,Hancock County,MS,NA,NA,83.60655737704919
39730,Monroe County,MS,NA,NA,90.1639344262295
63005,St. Louis County,MO,88.91213389121339,NA,NA
63021,St. Louis County,MO,NA,NA,11.475409836065573
63028,Jefferson County,MO,NA,26.030368763557483,NA
63121,St. Louis County,MO,37.44769874476987,NA,NA
63376,St. Charles County,MO,NA,2.8199566160520604,NA
63645,Madison County,MO,NA,NA,53.278688524590166
64015,Jackson County,MO,NA,NA,45.08196721311475
64068,Clay County,MO,40.79497907949791,NA,NA
64075,Jackson County,MO,50.627615062761514,NA,NA
64083,Cass County,MO,NA,NA,51.63934426229508
64124,Jackson County,MO,NA,NA,84.15300546448088
64133,Jackson County,MO,NA,5.639913232104121,NA
64601,Livingston County,MO,89.7489539748954,NA,NA
64633,Carroll County,MO,NA,NA,100
64744,Cedar County,MO,NA,93.92624728850325,NA
64856,McDonald County,MO,98.32635983263597,NA,NA
65066,Gasconade County,MO,NA,NA,85.51912568306011
65265,Audrain County,MO,84.93723849372385,NA,NA
65301,Pettis County,MO,6.066945606694561,NA,NA
65606,Oregon County,MO,NA,94.14316702819957,NA
65775,Howell County,MO,70.7112970711297,NA,NA
65785,Cedar County,MO,80.9623430962343,NA,NA
65802,Greene County,MO,16.10878661087866,NA,NA
65803,Greene County,MO,15.271966527196653,NA,NA
65810,Greene County,MO,NA,66.16052060737528,NA
59068,Carbon County,MT,96.23430962343096,NA,NA
59101,Yellowstone County,MT,NA,77.44034707158352,NA
59401,Cascade County,MT,NA,NA,36.33879781420765
59404,Cascade County,MT,52.30125523012552,NA,47.81420765027322
59405,Cascade County,MT,NA,86.11713665943601,NA
59602,Lewis and Clark County,MT,98.5355648535565,NA,NA
59840,Ravalli County,MT,NA,57.26681127982647,NA
68108,Douglas County,NE,76.98744769874477,NA,NA
68305,Nemaha County,NE,96.86192468619247,95.66160520607376,NA
68355,Richardson County,NE,NA,96.09544468546638,69.67213114754098
68521,Lancaster County,NE,NA,NA,97.81420765027322
68787,Wayne County,NE,NA,99.13232104121475,NA
69153,Keith County,NE,94.35146443514645,NA,NA
69162,Cheyenne County,NE,NA,90.45553145336225,NA
69301,Box Butte County,NE,NA,NA,70.49180327868852
69341,Scotts Bluff County,NE,NA,82.86334056399133,NA
89134,Clark County,NV,NA,NA,15.846994535519126
89509,Washoe County,NV,57.32217573221757,NA,NA
89511,Washoe County,NV,NA,28.41648590021692,NA
89523,Washoe County,NV,60.87866108786611,NA,NA
03038,Rockingham County,NH,17.782426778242677,NA,24.316939890710383
03060,Hillsborough County,NH,NA,64.20824295010846,NA
03076,Hillsborough County,NH,52.51046025104602,NA,NA
03301,Merrimack County,NH,NA,45.98698481561822,NA
03431,Cheshire County,NH,36.82008368200837,29.28416485900217,9.01639344262295
03743,Sullivan County,NH,61.50627615062761,NA,NA
03766,Grafton County,NH,80.3347280334728,NA,NA
03773,Sullivan County,NH,NA,70.06507592190889,NA
03811,Rockingham County,NH,83.68200836820083,NA,NA
07003,Essex County,NJ,NA,NA,33.060109289617486
07461,Sussex County,NJ,93.72384937238493,NA,NA
07730,Monmouth County,NJ,62.55230125523013,NA,NA
07753,Monmouth County,NJ,8.158995815899582,NA,NA
08009,Camden County,NJ,NA,62.90672451193059,NA
08062,Gloucester County,NJ,44.76987447698745,NA,NA
08080,Gloucester County,NJ,NA,NA,30.327868852459016
08085,Gloucester County,NJ,93.30543933054393,NA,NA
08609,Mercer County,NJ,15.899581589958158,NA,NA
08759,Ocean County,NJ,NA,1.9522776572668112,NA
08876,Somerset County,NJ,57.74058577405857,NA,NA
87102,Bernalillo County,NM,29.079497907949794,NA,NA
87105,Bernalillo County,NM,5.648535564853557,60.95444685466378,NA
87107,Bernalillo County,NM,NA,NA,43.44262295081967
87108,Bernalillo County,NM,10.251046025104603,6.507592190889371,NA
87109,Bernalillo County,NM,55.85774058577406,NA,13.387978142076504
87110,Bernalillo County,NM,NA,NA,41.53005464480874
87111,Bernalillo County,NM,5.439330543933055,65.0759219088937,NA
87121,Bernalillo County,NM,28.661087866108787,NA,NA
87144,Sandoval County,NM,26.98744769874477,NA,NA
87301,McKinley County,NM,78.45188284518828,NA,NA
88005,Doa Ana County,NM,NA,40.3470715835141,NA
88101,Curry County,NM,NA,8.24295010845987,NA
88130,Roosevelt County,NM,NA,41.431670281995665,NA
10009,New York County,NY,12.97071129707113,NA,NA
10011,New York County,NY,46.02510460251046,NA,NA
10016,New York County,NY,NA,NA,77.59562841530054
10026,New York County,NY,NA,22.342733188720175,34.97267759562842
10027,New York County,NY,7.322175732217573,NA,NA
10029,New York County,NY,NA,18.004338394793926,NA
10030,New York County,NY,77.19665271966527,NA,NA
10031,New York County,NY,NA,16.48590021691974,NA
10075,New York County,NY,NA,63.55748373101952,NA
10303,Richmond County,NY,NA,47.071583514099785,70.21857923497268
10304,Richmond County,NY,19.246861924686193,NA,NA
10308,Richmond County,NY,99.581589958159,NA,NA
10310,Richmond County,NY,54.39330543933054,NA,NA
10451,Bronx County,NY,3.765690376569038,NA,8.19672131147541
10452,Bronx County,NY,9.414225941422593,1.0845986984815619,NA
10453,Bronx County,NY,NA,1.3015184381778742,NA
10456,Bronx County,NY,0.41841004184100417,0.21691973969631237,4.098360655737705
10457,Bronx County,NY,1.2552301255230125,NA,43.169398907103826
10458,Bronx County,NY,0.6276150627615062,NA,NA
10459,Bronx County,NY,NA,NA,25.683060109289617
10460,Bronx County,NY,2.301255230125523,NA,NA
10463,Bronx County,NY,38.912133891213394,NA,NA
10467,Bronx County,NY,1.0460251046025104,0.6507592190889371,NA
10468,Bronx County,NY,NA,20.607375271149674,NA
10469,Bronx County,NY,NA,NA,27.86885245901639
10472,Bronx County,NY,NA,2.6030368763557483,NA
10473,Bronx County,NY,6.694560669456067,NA,NA
10474,Bronx County,NY,NA,89.15401301518439,NA
10541,Putnam County,NY,NA,NA,55.46448087431693
10583,Westchester County,NY,NA,NA,29.23497267759563
10705,Westchester County,NY,14.435146443514643,NA,NA
10801,Westchester County,NY,NA,33.622559652928416,NA
10940,Orange County,NY,79.9163179916318,NA,NA
10954,Rockland County,NY,62.76150627615063,NA,NA
11020,Nassau County,NY,NA,92.62472885032538,NA
11106,Queens County,NY,NA,58.56832971800434,NA
11201,Kings County,NY,28.03347280334728,NA,NA
11206,Kings County,NY,NA,14.967462039045554,NA
11207,Kings County,NY,NA,NA,12.568306010928962
11208,Kings County,NY,NA,32.53796095444685,NA
11210,Kings County,NY,NA,25.16268980477224,NA
11212,Kings County,NY,11.297071129707113,NA,8.743169398907105
11215,Kings County,NY,NA,34.490238611713664,NA
11216,Kings County,NY,NA,8.676789587852495,NA
11219,Kings County,NY,18.828451882845187,NA,NA
11221,Kings County,NY,3.9748953974895396,NA,NA
11226,Kings County,NY,5.857740585774058,NA,NA
11230,Kings County,NY,22.17573221757322,NA,NA
11356,Queens County,NY,NA,83.51409978308027,NA
11367,Queens County,NY,NA,47.939262472885034,NA
11372,Queens County,NY,NA,24.945770065075923,NA
11374,Queens County,NY,NA,26.89804772234273,NA
11434,Queens County,NY,NA,80.4772234273319,NA
11545,Nassau County,NY,98.9539748953975,NA,NA
12020,Saratoga County,NY,NA,63.34056399132321,NA
12043,Schoharie County,NY,91.63179916317992,98.2646420824295,NA
12122,Schoharie County,NY,NA,75.05422993492408,96.44808743169399
12180,Rensselaer County,NY,NA,10.195227765726681,NA
12184,Columbia County,NY,84.93723849372385,NA,NA
12304,Schenectady County,NY,68.6192468619247,NA,NA
12866,Saratoga County,NY,19.665271966527197,NA,NA
13039,Onondaga County,NY,NA,NA,81.4207650273224
13073,Tompkins County,NY,NA,NA,96.99453551912568
13131,Oswego County,NY,NA,96.31236442516268,NA
13148,Seneca County,NY,NA,NA,88.79781420765028
13309,Oneida County,NY,NA,NA,74.86338797814209
13323,Oneida County,NY,73.84937238493724,NA,NA
13326,Otsego County,NY,NA,NA,68.5792349726776
13350,Herkimer County,NY,72.38493723849372,NA,NA
13407,Herkimer County,NY,NA,NA,98.90710382513662
13460,Chenango County,NY,57.11297071129707,NA,NA
13778,Chenango County,NY,86.82008368200836,NA,NA
13820,Otsego County,NY,NA,36.44251626898048,NA
14094,Niagara County,NY,NA,3.036876355748373,NA
14209,Erie County,NY,NA,73.31887201735357,NA
14210,Erie County,NY,33.47280334728033,NA,NA
14211,Erie County,NY,NA,16.919739696312362,60.38251366120219
14213,Erie County,NY,NA,NA,80.87431693989072
14214,Erie County,NY,39.33054393305439,NA,NA
14218,Erie County,NY,NA,42.0824295010846,NA
14225,Erie County,NY,NA,18.22125813449024,NA
14526,Monroe County,NY,NA,16.268980477223426,NA
14534,Monroe County,NY,10.0418410041841,NA,NA
14580,Monroe County,NY,NA,NA,2.73224043715847
14586,Monroe County,NY,40.1673640167364,NA,NA
14609,Monroe County,NY,NA,1.5184381778741864,NA
14622,Monroe County,NY,NA,NA,64.48087431693989
14779,Cattaraugus County,NY,NA,84.3817787418655,NA
27006,Davie County,NC,NA,62.47288503253796,NA
27020,Yadkin County,NC,75.10460251046025,NA,NA
27040,Forsyth County,NC,NA,NA,58.19672131147541
27103,Forsyth County,NC,20.0836820083682,NA,NA
27104,Forsyth County,NC,36.61087866108787,NA,NA
27105,Forsyth County,NC,NA,3.2537960954446854,NA
27106,Forsyth County,NC,17.99163179916318,NA,NA
27292,Davidson County,NC,NA,13.449023861171366,NA
27502,Wake County,NC,NA,40.563991323210416,NA
27510,Orange County,NC,65.89958158995816,NA,NA
27513,Wake County,NC,NA,54.4468546637744,NA
27517,Orange County,NC,NA,NA,17.759562841530055
27525,Franklin County,NC,NA,61.60520607375272,NA
27529,Wake County,NC,32.84518828451883,NA,NA
27537,Vance County,NC,NA,27.9826464208243,NA
27540,Wake County,NC,52.928870292887034,NA,NA
27614,Wake County,NC,NA,37.52711496746204,NA
27615,Wake County,NC,NA,15.184381778741866,NA
27707,Durham County,NC,NA,56.83297180043384,NA
27713,Durham County,NC,NA,NA,18.0327868852459
27804,Nash County,NC,NA,NA,35.79234972677596
28056,Gaston County,NC,NA,49.891540130151846,NA
28092,Lincoln County,NC,30.334728033472803,NA,NA
28112,Union County,NC,NA,NA,34.42622950819672
28117,Iredell County,NC,38.28451882845189,NA,NA
28214,Mecklenburg County,NC,35.98326359832636,NA,NA
28216,Mecklenburg County,NC,NA,NA,26.229508196721312
28227,Mecklenburg County,NC,NA,18.872017353579178,NA
28387,Moore County,NC,NA,79.39262472885032,NA
28466,Duplin County,NC,NA,73.96963123644251,NA
28516,Carteret County,NC,75.31380753138075,NA,NA
28712,Transylvania County,NC,NA,84.81561822125813,62.841530054644814
28719,Jackson County,NC,88.07531380753139,NA,NA
28739,Henderson County,NC,NA,NA,39.07103825136612
58103,Cass County,ND,NA,NA,2.185792349726776
58401,Stutsman County,ND,75.94142259414227,NA,NA
43026,Franklin County,OH,27.405857740585777,NA,NA
43040,Union County,OH,NA,22.7765726681128,NA
43064,Madison County,OH,NA,NA,76.22950819672131
43113,Pickaway County,OH,NA,NA,11.202185792349727
43228,Franklin County,OH,24.476987447698743,NA,NA
43235,Franklin County,OH,NA,NA,66.93989071038251
43302,Marion County,OH,NA,NA,6.557377049180328
43338,Morrow County,OH,NA,NA,57.103825136612016
43506,Williams County,OH,32.21757322175732,NA,NA
43605,Lucas County,OH,39.9581589958159,NA,NA
43607,Lucas County,OH,NA,23.644251626898047,NA
44001,Lorain County,OH,NA,4.55531453362256,NA
44011,Lorain County,OH,NA,NA,63.114754098360656
44030,Ashtabula County,OH,NA,NA,37.15846994535519
44035,Lorain County,OH,12.761506276150628,0,5.46448087431694
44039,Lorain County,OH,NA,68.32971800433839,49.45355191256831
44053,Lorain County,OH,NA,7.592190889370933,NA
44055,Lorain County,OH,NA,93.27548806941431,NA
44060,Lake County,OH,35.56485355648535,NA,NA
44077,Lake County,OH,NA,41.64859002169197,NA
44090,Lorain County,OH,NA,NA,96.17486338797814
44094,Lake County,OH,NA,5.206073752711497,NA
44095,Lake County,OH,NA,40.780911062906725,NA
44102,Cuyahoga County,OH,5.02092050209205,54.66377440347071,NA
44103,Cuyahoga County,OH,41.42259414225941,NA,NA
44105,Cuyahoga County,OH,NA,22.342733188720175,NA
44107,Cuyahoga County,OH,NA,24.728850325379607,NA
44108,Cuyahoga County,OH,NA,7.158351409978309,NA
44109,Cuyahoga County,OH,0.8368200836820083,2.1691973969631237,7.377049180327869
44110,Cuyahoga County,OH,14.01673640167364,NA,NA
44111,Cuyahoga County,OH,NA,23.210412147505423,NA
44116,Cuyahoga County,OH,NA,29.50108459869848,NA
44117,Cuyahoga County,OH,NA,NA,40.98360655737705
44118,Cuyahoga County,OH,16.736401673640167,NA,NA
44119,Cuyahoga County,OH,NA,76.35574837310195,NA
44120,Cuyahoga County,OH,43.51464435146444,NA,NA
44123,Cuyahoga County,OH,NA,58.78524945770065,NA
44125,Cuyahoga County,OH,NA,NA,72.40437158469946
44131,Cuyahoga County,OH,NA,20.17353579175705,NA
44134,Cuyahoga County,OH,NA,20.824295010845987,NA
44135,Cuyahoga County,OH,4.602510460251046,8.893709327548807,NA
44136,Cuyahoga County,OH,NA,9.761388286334057,NA
44138,Cuyahoga County,OH,NA,NA,22.950819672131146
44145,Cuyahoga County,OH,NA,NA,6.0109289617486334
44146,Cuyahoga County,OH,NA,NA,8.19672131147541
44147,Cuyahoga County,OH,NA,30.80260303687636,NA
44149,Cuyahoga County,OH,NA,19.305856832971802,NA
44224,Summit County,OH,NA,NA,12.841530054644808
44278,Summit County,OH,NA,44.90238611713666,NA
44514,Mahoning County,OH,NA,31.670281995661604,NA
44691,Wayne County,OH,69.4560669456067,NA,NA
44805,Ashland County,OH,18.200836820083683,NA,NA
44833,Crawford County,OH,NA,NA,31.967213114754102
44839,Erie County,OH,NA,73.7527114967462,NA
45013,Butler County,OH,NA,3.68763557483731,NA
45207,Hamilton County,OH,83.05439330543933,NA,NA
45216,Hamilton County,OH,NA,65.94360086767897,NA
45224,Hamilton County,OH,28.24267782426778,NA,NA
45232,Hamilton County,OH,78.8702928870293,NA,NA
45426,Montgomery County,OH,NA,37.744034707158356,NA
45432,Greene County,OH,94.56066945606695,NA,NA
45601,Ross County,OH,NA,12.58134490238612,NA
45614,Gallia County,OH,80.75313807531381,NA,NA
45690,Pike County,OH,55.43933054393305,NA,NA
45750,Washington County,OH,NA,0.8676789587852495,NA
45769,Meigs County,OH,68.82845188284519,NA,NA
45822,Mercer County,OH,NA,NA,22.131147540983605
45850,Allen County,OH,99.3723849372385,NA,NA
73086,Murray County,OK,NA,63.99132321041214,NA
73117,Oklahoma County,OK,NA,NA,93.16939890710383
73119,Oklahoma County,OK,30.543933054393307,NA,NA
73120,Oklahoma County,OK,NA,29.067245119305856,NA
74056,Osage County,OK,NA,92.40780911062907,NA
74361,Mayes County,OK,70.50209205020921,NA,NA
74365,Mayes County,OK,89.3305439330544,NA,NA
74403,Muskogee County,OK,NA,28.633405639913235,NA
74426,McIntosh County,OK,92.25941422594143,97.18004338394793,NA
74820,Pontotoc County,OK,11.92468619246862,NA,NA
74948,Sequoyah County,OK,87.02928870292888,NA,NA
74960,Adair County,OK,NA,39.69631236442516,NA
97058,Wasco County,OR,NA,NA,37.43169398907104
97210,Multnomah County,OR,79.07949790794979,NA,NA
97211,Multnomah County,OR,51.67364016736402,NA,NA
97219,Multnomah County,OR,NA,66.16052060737528,NA
97305,Marion County,OR,33.26359832635983,NA,NA
97338,Polk County,OR,NA,NA,56.284153005464475
97355,Linn County,OR,NA,6.724511930585683,10.655737704918032
97365,Lincoln County,OR,NA,39.69631236442516,NA
97367,Lincoln County,OR,NA,NA,89.61748633879782
97402,Lane County,OR,NA,NA,87.70491803278688
97411,Coos County,OR,NA,70.28199566160521,NA
97415,Curry County,OR,NA,27.114967462039047,NA
97424,Lane County,OR,NA,NA,93.71584699453553
97426,Lane County,OR,NA,NA,62.02185792349727
97530,Jackson County,OR,NA,81.56182212581345,NA
97601,Klamath County,OR,55.64853556485355,12.364425162689804,NA
97603,Klamath County,OR,25.732217573221757,NA,NA
97624,Klamath County,OR,NA,NA,92.62295081967213
15767,Jefferson County,PA,34.72803347280335,NA,NA
15857,Elk County,PA,NA,NA,12.021857923497267
15901,Cambria County,PA,85.35564853556485,NA,NA
16001,Butler County,PA,4.811715481171548,NA,NA
16101,Lawrence County,PA,8.99581589958159,NA,NA
16125,Mercer County,PA,45.39748953974895,NA,NA
16415,Erie County,PA,92.88702928870293,NA,NA
16509,Erie County,PA,NA,35.35791757049891,NA
16635,Blair County,PA,NA,88.06941431670282,NA
17028,Dauphin County,PA,NA,98.48156182212581,NA
17033,Dauphin County,PA,NA,NA,59.83606557377049
17036,Dauphin County,PA,NA,13.015184381778742,NA
17055,Cumberland County,PA,35.77405857740586,81.12798264642083,NA
17057,Dauphin County,PA,NA,18.43817787418655,NA
17078,Lebanon County,PA,NA,NA,7.923497267759563
17111,Dauphin County,PA,21.75732217573222,NA,36.6120218579235
17313,York County,PA,NA,76.35574837310195,NA
17315,York County,PA,66.73640167364016,NA,NA
17402,York County,PA,NA,NA,50.54644808743169
17603,Lancaster County,PA,13.807531380753138,39.26247288503254,NA
17702,Lycoming County,PA,79.07949790794979,NA,NA
17821,Montour County,PA,NA,50.32537960954448,5.191256830601093
17824,Northumberland County,PA,NA,74.83731019522777,NA
17963,Schuylkill County,PA,NA,77.87418655097615,NA
18015,Northampton County,PA,12.552301255230125,NA,NA
18032,Lehigh County,PA,64.64435146443515,NA,NA
18042,Northampton County,PA,NA,5.856832971800434,NA
18045,Northampton County,PA,NA,17.787418655097614,NA
18235,Carbon County,PA,NA,NA,35.24590163934426
18444,Lackawanna County,PA,NA,71.8004338394794,NA
18505,Lackawanna County,PA,NA,37.310195227765725,NA
18603,Columbia County,PA,19.03765690376569,NA,NA
18702,Luzerne County,PA,NA,73.53579175704989,NA
18704,Luzerne County,PA,22.384937238493723,NA,NA
18705,Luzerne County,PA,NA,NA,85.79234972677595
18707,Luzerne County,PA,84.51882845188284,NA,NA
18974,Bucks County,PA,28.870292887029287,NA,NA
19020,Bucks County,PA,NA,10.629067245119305,NA
19026,Delaware County,PA,23.430962343096233,NA,NA
19064,Delaware County,PA,46.23430962343097,NA,NA
19128,Philadelphia County,PA,57.53138075313807,NA,NA
19133,Philadelphia County,PA,21.338912133891213,69.84815618221259,NA
19150,Philadelphia County,PA,NA,26.247288503253795,NA
19153,Philadelphia County,PA,NA,47.50542299349241,NA
19512,Berks County,PA,NA,89.587852494577,NA
19605,Berks County,PA,69.6652719665272,NA,NA
19606,Berks County,PA,NA,6.073752711496746,NA
02813,Washington County,RI,NA,87.20173535791757,NA
02852,Washington County,RI,NA,NA,33.87978142076503
02860,Providence County,RI,10.87866108786611,NA,NA
02878,Newport County,RI,80.5439330543933,NA,NA
02879,Washington County,RI,NA,37.093275488069416,NA
02889,Kent County,RI,NA,NA,36.885245901639344
02907,Providence County,RI,47.48953974895397,NA,NA
02909,Providence County,RI,NA,NA,37.97814207650273
02916,Providence County,RI,94.76987447698745,NA,NA
29102,Clarendon County,SC,83.05439330543933,NA,NA
29108,Newberry County,SC,64.01673640167364,NA,NA
29115,Orangeburg County,SC,74.26778242677824,NA,78.96174863387978
29303,Spartanburg County,SC,NA,NA,52.18579234972678
29316,Spartanburg County,SC,NA,32.97180043383948,NA
29401,Charleston County,SC,NA,NA,71.03825136612022
29588,Horry County,SC,NA,11.279826464208242,NA
29687,Greenville County,SC,39.33054393305439,NA,NA
29842,Aiken County,SC,90.7949790794979,NA,NA
57006,Brookings County,SD,NA,NA,48.08743169398907
57301,Davison County,SD,NA,69.41431670281996,NA
57401,Brown County,SD,56.27615062761506,NA,31.693989071038253
57501,Hughes County,SD,NA,NA,30.05464480874317
57555,Todd County,SD,96.86192468619247,NA,NA
57702,Pennington County,SD,65.06276150627615,NA,NA
37172,Robertson County,TN,NA,NA,54.644808743169406
37179,Williamson County,TN,NA,86.98481561822126,97.26775956284153
37185,Humphreys County,TN,96.02510460251045,NA,NA
37186,Sumner County,TN,NA,79.60954446854663,NA
37211,Davidson County,TN,26.15062761506276,NA,NA
37214,Davidson County,TN,66.10878661087865,NA,NA
37217,Davidson County,TN,NA,83.08026030368764,NA
37341,Hamilton County,TN,NA,79.82646420824295,NA
37355,Coffee County,TN,42.88702928870293,NA,NA
37616,Greene County,TN,89.5397489539749,NA,NA
37643,Carter County,TN,NA,NA,19.12568306010929
37743,Greene County,TN,NA,4.989154013015185,NA
37774,Loudon County,TN,52.719665271966534,NA,NA
37801,Blount County,TN,NA,NA,30.601092896174865
37874,Monroe County,TN,48.11715481171548,NA,NA
38053,Shelby County,TN,55.23012552301255,NA,NA
38111,Shelby County,TN,NA,48.80694143167028,NA
38114,Shelby County,TN,30.125523012552303,68.11279826464208,NA
38125,Shelby County,TN,61.08786610878661,NA,NA
38128,Shelby County,TN,26.778242677824267,NA,NA
38305,Madison County,TN,NA,NA,51.36612021857923
38375,McNairy County,TN,NA,72.88503253796095,NA
38401,Maury County,TN,10.669456066945607,NA,NA
38478,Giles County,TN,NA,61.60520607375272,NA
75062,Dallas County,TX,53.13807531380753,NA,NA
75069,Collin County,TX,NA,35.140997830802604,NA
75071,Collin County,TX,34.93723849372385,NA,NA
75074,Collin County,TX,60.25104602510461,NA,NA
75208,Dallas County,TX,NA,53.79609544468546,NA
75216,Dallas County,TX,NA,NA,10.92896174863388
75217,Dallas County,TX,13.389121338912133,NA,NA
75230,Dallas County,TX,NA,NA,51.09289617486339
75234,Dallas County,TX,73.43096234309623,NA,NA
75243,Dallas County,TX,NA,44.90238611713666,NA
75701,Smith County,TX,NA,NA,7.650273224043716
75703,Smith County,TX,NA,NA,18.579234972677597
75707,Smith County,TX,NA,NA,69.12568306010928
75765,Wood County,TX,NA,44.90238611713666,NA
76040,Tarrant County,TX,NA,71.14967462039046,NA
76053,Tarrant County,TX,49.163179916317986,NA,NA
76065,Ellis County,TX,47.90794979079498,NA,NA
76119,Tarrant County,TX,11.506276150627615,NA,NA
76179,Tarrant County,TX,36.40167364016737,NA,NA
76266,Denton County,TX,NA,75.48806941431671,NA
76448,Eastland County,TX,NA,NA,88.25136612021858
76501,Bell County,TX,NA,NA,28.415300546448087
76502,Bell County,TX,NA,13.882863340563992,30.87431693989071
76504,Bell County,TX,NA,NA,27.049180327868854
76513,Bell County,TX,12.133891213389122,31.019522776572668,54.09836065573771
76549,Bell County,TX,63.38912133891213,NA,NA
76550,Lampasas County,TX,NA,56.182212581344906,NA
76705,McLennan County,TX,NA,NA,66.12021857923497
76706,McLennan County,TX,43.09623430962343,NA,58.7431693989071
76801,Brown County,TX,60.66945606694561,NA,NA
77009,Harris County,TX,53.34728033472803,NA,NA
77011,Harris County,TX,NA,NA,85.24590163934425
77021,Harris County,TX,NA,37.960954446854664,NA
77034,Harris County,TX,NA,65.72668112798264,NA
77035,Harris County,TX,NA,NA,75.13661202185791
77039,Harris County,TX,NA,55.9652928416486,NA
77048,Harris County,TX,NA,96.96312364425162,NA
77049,Harris County,TX,NA,75.92190889370933,NA
77068,Harris County,TX,NA,91.75704989154013,NA
77091,Harris County,TX,99.16317991631799,NA,NA
77093,Harris County,TX,NA,51.84381778741866,NA
77357,Montgomery County,TX,NA,NA,92.07650273224044
77365,Montgomery County,TX,NA,60.30368763557483,NA
77459,Fort Bend County,TX,30.962343096234306,NA,NA
77498,Fort Bend County,TX,NA,52.060737527114966,NA
77550,Galveston County,TX,25.523012552301257,16.052060737527114,NA
77551,Galveston County,TX,34.10041841004184,NA,NA
77573,Galveston County,TX,NA,5.42299349240781,NA
77611,Orange County,TX,NA,95.22776572668113,NA
77627,Jefferson County,TX,NA,NA,53.278688524590166
77630,Orange County,TX,NA,NA,44.80874316939891
77632,Orange County,TX,NA,NA,77.04918032786885
77640,Jefferson County,TX,NA,NA,95.3551912568306
77642,Jefferson County,TX,NA,34.70715835140998,NA
77802,Brazos County,TX,NA,NA,40.43715846994536
77836,Burleson County,TX,93.93305439330544,NA,NA
77845,Brazos County,TX,NA,NA,19.672131147540984
78217,Bexar County,TX,73.22175732217573,NA,NA
78221,Bexar County,TX,NA,80.6941431670282,NA
78250,Bexar County,TX,49.7907949790795,NA,NA
78520,Cameron County,TX,NA,29.718004338394792,NA
78521,Cameron County,TX,88.70292887029288,19.95661605206074,47.26775956284153
78552,Cameron County,TX,NA,90.02169197396964,NA
78559,Cameron County,TX,92.05020920502092,83.94793926247289,NA
78572,Hidalgo County,TX,NA,21.475054229934923,NA
78573,Hidalgo County,TX,NA,78.95878524945769,NA
78574,Hidalgo County,TX,NA,93.70932754880694,NA
78580,Willacy County,TX,NA,98.69848156182212,NA
78626,Williamson County,TX,64.43514644351464,NA,NA
78633,Williamson County,TX,NA,NA,18.30601092896175
78648,Caldwell County,TX,NA,78.09110629067246,NA
78653,Travis County,TX,NA,91.3232104121475,NA
78665,Williamson County,TX,NA,NA,35.79234972677596
78669,Travis County,TX,NA,74.40347071583514,NA
78840,Val Verde County,TX,NA,20.17353579175705,NA
79107,Potter County,TX,42.05020920502092,NA,NA
79901,El Paso County,TX,NA,NA,63.661202185792355
79927,El Paso County,TX,NA,61.388286334056396,NA
84020,Salt Lake County,UT,NA,63.77440347071583,NA
84032,Wasatch County,UT,86.61087866108787,NA,NA
84070,Salt Lake County,UT,NA,58.35140997830802,NA
84088,Salt Lake County,UT,NA,52.7114967462039,NA
84092,Salt Lake County,UT,NA,46.20390455531454,NA
84104,Salt Lake County,UT,NA,NA,60.92896174863388
84108,Salt Lake County,UT,NA,NA,35.51912568306011
84118,Salt Lake County,UT,72.80334728033473,NA,NA
84119,Salt Lake County,UT,49.37238493723849,NA,NA
84121,Salt Lake County,UT,NA,18.872017353579178,NA
84124,Salt Lake County,UT,81.79916317991632,NA,NA
05001,Windsor County,VT,95.18828451882845,NA,NA
05060,Orange County,VT,NA,97.39696312364426,87.97814207650273
05201,Bennington County,VT,NA,25.59652928416486,NA
05468,Chittenden County,VT,NA,45.5531453362256,61.47540983606557
05602,Washington County,VT,NA,NA,50
05641,Washington County,VT,NA,64.8590021691974,79.23497267759562
05733,Rutland County,VT,NA,90.88937093275487,NA
22204,Arlington County,VA,NA,47.50542299349241,NA
22554,Stafford County,VA,39.12133891213389,44.251626898047725,NA
22602,Frederick County,VA,58.57740585774059,NA,NA
22835,Page County,VA,NA,NA,42.349726775956285
23116,Hanover County,VA,NA,55.09761388286334,NA
23225,Richmond city,VA,19.456066945606697,NA,NA
23229,Henrico County,VA,NA,42.51626898047722,NA
23434,Suffolk city,VA,NA,10.84598698481562,NA
23452,Virginia Beach city,VA,NA,NA,10.382513661202186
23464,Virginia Beach city,VA,NA,69.19739696312365,NA
23513,Norfolk city,VA,NA,NA,56.01092896174863
23834,Colonial Heights city,VA,NA,NA,57.92349726775956
23930,Nottoway County,VA,93.51464435146444,NA,NA
24121,Bedford County,VA,NA,NA,73.49726775956285
24171,Patrick County,VA,NA,NA,57.377049180327866
24219,Wise County,VA,48.53556485355649,NA,NA
24523,Bedford County,VA,39.74895397489539,NA,NA
24574,Amherst County,VA,NA,99.34924078091106,NA
98011,King County,WA,NA,72.45119305856834,NA
98012,Snohomish County,WA,NA,NA,19.398907103825135
98020,Snohomish County,WA,NA,NA,32.240437158469945
98031,King County,WA,NA,17.35357917570499,NA
98033,King County,WA,69.8744769874477,NA,27.322404371584703
98036,Snohomish County,WA,NA,NA,34.69945355191257
98052,King County,WA,55.85774058577406,NA,NA
98070,King County,WA,NA,71.36659436008676,NA
98092,King County,WA,NA,53.14533622559653,NA
98101,King County,WA,NA,NA,71.31147540983606
98102,King County,WA,NA,87.85249457700651,NA
98104,King County,WA,53.97489539748954,NA,NA
98108,King County,WA,NA,86.76789587852495,NA
98112,King County,WA,NA,96.74620390455532,NA
98115,King County,WA,44.14225941422594,NA,NA
98119,King County,WA,NA,93.058568329718,NA
98133,King County,WA,NA,NA,44.53551912568306
98223,Snohomish County,WA,NA,21.25813449023861,NA
98248,Whatcom County,WA,81.3807531380753,NA,NA
98277,Island County,WA,NA,NA,14.48087431693989
98284,Skagit County,WA,NA,78.30802603036877,NA
98374,Pierce County,WA,50.627615062761514,NA,NA
98406,Pierce County,WA,NA,52.49457700650759,NA
98584,Mason County,WA,41.004184100418414,87.63557483731019,80.32786885245902
98815,Chelan County,WA,90.1673640167364,NA,NA
98816,Chelan County,WA,95.81589958158996,NA,NA
98902,Yakima County,WA,NA,NA,16.39344262295082
98922,Kittitas County,WA,97.48953974895397,NA,NA
99338,Benton County,WA,NA,32.32104121475054,NA
99362,Walla Walla County,WA,NA,13.232104121475055,NA
20002,District of Columbia,DC,64.85355648535564,9.544468546637743,NA
20018,District of Columbia,DC,50.2092050209205,78.74186550976138,NA
20032,District of Columbia,DC,7.949790794979079,NA,NA
25404,Berkeley County,WV,46.44351464435147,NA,NA
25419,Berkeley County,WV,NA,NA,90.98360655737704
25504,Cabell County,WV,NA,67.46203904555314,NA
25510,Cabell County,WV,NA,95.66160520607376,NA
26003,Ohio County,WV,8.368200836820083,NA,NA
26101,Wood County,WV,7.531380753138076,NA,NA
26354,Taylor County,WV,NA,46.637744034707154,NA
26444,Preston County,WV,98.74476987447699,NA,NA
26501,Monongalia County,WV,23.640167364016737,NA,NA
26554,Marion County,WV,NA,NA,4.918032786885246
53012,Ozaukee County,WI,NA,NA,67.4863387978142
53024,Ozaukee County,WI,NA,97.61388286334056,21.03825136612022
53045,Waukesha County,WI,NA,88.28633405639913,NA
53061,Calumet County,WI,NA,92.84164859002169,NA
53086,Washington County,WI,NA,99.56616052060737,NA
53092,Ozaukee County,WI,NA,NA,84.69945355191257
53115,Walworth County,WI,NA,NA,42.89617486338798
53121,Walworth County,WI,51.46443514644351,NA,NA
53132,Milwaukee County,WI,46.65271966527197,NA,NA
53150,Waukesha County,WI,NA,NA,78.14207650273224
53154,Milwaukee County,WI,29.707112970711297,NA,NA
53202,Milwaukee County,WI,NA,77.22342733188721,71.58469945355192
53206,Milwaukee County,WI,NA,NA,45.62841530054645
53209,Milwaukee County,WI,NA,NA,60.65573770491803
53211,Milwaukee County,WI,NA,NA,40.7103825136612
53212,Milwaukee County,WI,NA,94.57700650759219,NA
53214,Milwaukee County,WI,NA,82.4295010845987,24.043715846994534
53216,Milwaukee County,WI,NA,21.0412147505423,NA
53221,Milwaukee County,WI,NA,NA,76.775956284153
53223,Milwaukee County,WI,NA,11.713665943600867,NA
53226,Milwaukee County,WI,NA,NA,39.89071038251366
53511,Rock County,WI,1.4644351464435146,0.43383947939262474,3.0054644808743167
53545,Rock County,WI,43.93305439330544,NA,90.43715846994536
53546,Rock County,WI,NA,NA,9.289617486338798
53548,Rock County,WI,NA,NA,84.97267759562843
53566,Green County,WI,NA,NA,13.934426229508196
53575,Dane County,WI,NA,NA,78.68852459016394
53589,Dane County,WI,NA,NA,31.147540983606557
53590,Dane County,WI,NA,NA,25.683060109289617
53705,Dane County,WI,58.78661087866108,NA,NA
53719,Dane County,WI,NA,42.299349240780906,NA
53821,Crawford County,WI,84.72803347280335,80.26030368763557,71.85792349726776
53959,Sauk County,WI,NA,NA,73.77049180327869
54011,Pierce County,WI,94.97907949790795,NA,NA
54017,St. Croix County,WI,57.94979079497908,NA,NA
54403,Marathon County,WI,NA,NA,15.573770491803279
54409,Langlade County,WI,NA,57.04989154013015,NA
54481,Portage County,WI,26.359832635983267,18.655097613882862,NA
54495,Wood County,WI,NA,NA,75.68306010928961
54601,La Crosse County,WI,69.0376569037657,NA,0
54630,Trempealeau County,WI,96.65271966527197,NA,NA
54636,La Crosse County,WI,NA,NA,89.34426229508196
54656,Monroe County,WI,NA,NA,20.76502732240437
54660,Monroe County,WI,NA,49.240780911062906,NA
54703,Eau Claire County,WI,28.451882845188287,32.10412147505423,NA
54729,Chippewa County,WI,40.58577405857741,NA,NA
54751,Dunn County,WI,42.46861924686193,NA,NA
54812,Barron County,WI,NA,88.72017353579176,NA
54880,Douglas County,WI,NA,3.9045553145336225,NA
54956,Winnebago County,WI,NA,34.924078091106296,NA
82604,Natrona County,WY,NA,NA,82.24043715846994
82930,Uinta County,WY,NA,85.68329718004338,NA
