ZipCode,county,state,Adult,Retirement,Geriatric
35004,St. Clair County,AL,81.6842105263158,NA,NA
35020,Jefferson County,AL,16.63157894736842,NA,NA
35023,Jefferson County,AL,NA,15.602836879432624,NA
35051,Shelby County,AL,85.05263157894737,NA,NA
35071,Jefferson County,AL,72,NA,NA
35077,Cullman County,AL,NA,NA,73.02158273381295
35080,Shelby County,AL,59.578947368421055,NA,NA
35085,Chilton County,AL,NA,NA,91.72661870503596
35115,Shelby County,AL,NA,69.03073286052009,NA
35204,Jefferson County,AL,NA,NA,65.46762589928058
35226,Jefferson County,AL,NA,24.349881796690305,NA
35405,Tuscaloosa County,AL,9.894736842105264,NA,NA
35594,Marion County,AL,NA,81.56028368794325,NA
35603,Morgan County,AL,18.526315789473685,NA,NA
35611,Limestone County,AL,25.263157894736842,NA,NA
35650,Lawrence County,AL,55.57894736842105,NA,NA
35803,Madison County,AL,NA,NA,69.06474820143885
35906,Etowah County,AL,87.78947368421053,NA,NA
35907,Etowah County,AL,82.10526315789474,NA,NA
35957,Marshall County,AL,46.94736842105263,NA,NA
35959,Cherokee County,AL,NA,90.54373522458629,NA
35960,Cherokee County,AL,NA,81.7966903073286,NA
36049,Crenshaw County,AL,94.94736842105263,NA,NA
36201,Calhoun County,AL,27.368421052631582,NA,NA
36604,Mobile County,AL,86.73684210526315,NA,NA
36608,Mobile County,AL,44.42105263157895,NA,NA
36609,Mobile County,AL,NA,69.26713947990544,NA
36613,Mobile County,AL,82.94736842105263,NA,NA
36756,Perry County,AL,80.84210526315789,NA,NA
85007,Maricopa County,AZ,12.631578947368421,NA,NA
85008,Maricopa County,AZ,16.210526315789473,NA,NA
85014,Maricopa County,AZ,45.473684210526315,NA,NA
85019,Maricopa County,AZ,40.21052631578947,NA,NA
85027,Maricopa County,AZ,42.526315789473685,NA,NA
85040,Maricopa County,AZ,20,NA,NA
85043,Maricopa County,AZ,54.315789473684205,NA,NA
85120,Pinal County,AZ,NA,38.77068557919622,NA
85205,Maricopa County,AZ,NA,27.89598108747045,NA
85268,Maricopa County,AZ,NA,86.99763593380615,NA
85302,Maricopa County,AZ,25.684210526315788,NA,NA
85308,Maricopa County,AZ,NA,18.912529550827422,NA
85338,Maricopa County,AZ,36,NA,NA
85365,Yuma County,AZ,NA,NA,11.151079136690647
85375,Maricopa County,AZ,NA,NA,2.158273381294964
85377,Maricopa County,AZ,99.1578947368421,NA,NA
85546,Graham County,AZ,77.26315789473685,NA,NA
85614,Pima County,AZ,NA,NA,3.5971223021582732
85710,Pima County,AZ,NA,NA,7.553956834532374
85713,Pima County,AZ,NA,75.65011820330969,NA
86305,Yavapai County,AZ,NA,38.53427895981088,58.63309352517986
86323,Yavapai County,AZ,NA,64.53900709219859,NA
86409,Mohave County,AZ,NA,NA,80.57553956834532
86442,Mohave County,AZ,61.05263157894737,NA,NA
86503,Apache County,AZ,NA,NA,51.798561151079134
71822,Little River County,AR,NA,NA,79.49640287769785
71909,Garland County,AR,NA,NA,13.66906474820144
72120,Pulaski County,AR,44.21052631578947,NA,NA
72204,Pulaski County,AR,52,NA,NA
72576,Fulton County,AR,NA,96.45390070921985,NA
72762,Washington County,AR,NA,63.12056737588653,57.9136690647482
90035,Los Angeles County,CA,NA,40.42553191489361,NA
90043,Los Angeles County,CA,NA,NA,37.76978417266187
90046,Los Angeles County,CA,NA,26.24113475177305,NA
90048,Los Angeles County,CA,NA,NA,49.280575539568346
90059,Los Angeles County,CA,65.89473684210526,NA,NA
90065,Los Angeles County,CA,56.00000000000001,NA,NA
90222,Los Angeles County,CA,66.3157894736842,NA,NA
90245,Los Angeles County,CA,84.21052631578947,NA,NA
90250,Los Angeles County,CA,NA,NA,37.410071942446045
90272,Los Angeles County,CA,NA,NA,29.496402877697843
90660,Los Angeles County,CA,29.68421052631579,NA,NA
90814,Los Angeles County,CA,99.57894736842105,NA,NA
91006,Los Angeles County,CA,NA,NA,67.62589928057554
91103,Los Angeles County,CA,74.10526315789474,NA,NA
91208,Los Angeles County,CA,92.84210526315789,NA,NA
91320,Ventura County,CA,64,NA,NA
91401,Los Angeles County,CA,NA,35.22458628841608,NA
91406,Los Angeles County,CA,NA,75.88652482269504,NA
91605,Los Angeles County,CA,NA,51.536643026004725,NA
91702,Los Angeles County,CA,NA,46.57210401891253,NA
91737,San Bernardino County,CA,77.05263157894737,NA,NA
91790,Los Angeles County,CA,NA,NA,41.726618705035975
91911,San Diego County,CA,23.157894736842106,NA,NA
91950,San Diego County,CA,NA,NA,15.827338129496402
92020,San Diego County,CA,NA,NA,35.61151079136691
92025,San Diego County,CA,NA,NA,49.64028776978417
92027,San Diego County,CA,47.78947368421053,NA,NA
92040,San Diego County,CA,48.21052631578947,NA,NA
92056,San Diego County,CA,93.47368421052632,NA,NA
92105,San Diego County,CA,NA,NA,58.27338129496403
92110,San Diego County,CA,NA,NA,74.82014388489209
92139,San Diego County,CA,70.73684210526315,NA,NA
92231,Imperial County,CA,NA,NA,7.1942446043165464
92277,San Bernardino County,CA,NA,88.65248226950354,NA
92395,San Bernardino County,CA,28.842105263157897,NA,NA
92404,San Bernardino County,CA,NA,32.62411347517731,NA
92562,Riverside County,CA,NA,36.40661938534279,NA
92602,Orange County,CA,75.57894736842105,NA,NA
92626,Orange County,CA,43.15789473684211,NA,NA
92649,Orange County,CA,NA,30.023640661938533,NA
92656,Orange County,CA,NA,52.00945626477541,NA
92843,Orange County,CA,NA,NA,69.42446043165468
92882,Riverside County,CA,NA,39.952718676122934,NA
92886,Orange County,CA,32.421052631578945,20.094562647754138,NA
93015,Ventura County,CA,NA,83.451536643026,NA
93030,Ventura County,CA,18.736842105263158,NA,NA
93210,Fresno County,CA,NA,94.08983451536643,NA
93309,Kern County,CA,NA,NA,34.89208633093525
93446,San Luis Obispo County,CA,NA,46.09929078014184,NA
93455,Santa Barbara County,CA,NA,32.15130023640662,NA
93510,Los Angeles County,CA,NA,97.39952718676122,NA
93555,Kern County,CA,NA,23.167848699763592,NA
93638,Madera County,CA,NA,NA,57.55395683453237
93654,Fresno County,CA,53.68421052631579,NA,NA
93722,Fresno County,CA,10.73684210526316,NA,NA
93940,Monterey County,CA,NA,NA,22.302158273381295
93960,Monterey County,CA,NA,96.92671394799054,NA
94015,San Mateo County,CA,44,NA,NA
94025,San Mateo County,CA,NA,39.2434988179669,NA
94110,San Francisco County,CA,NA,10.401891252955082,NA
94121,San Francisco County,CA,70.10526315789474,NA,NA
94536,Alameda County,CA,NA,NA,20.863309352517987
94541,Alameda County,CA,NA,21.98581560283688,NA
94544,Alameda County,CA,NA,NA,21.942446043165468
94558,Napa County,CA,33.05263157894737,NA,NA
94568,Alameda County,CA,53.26315789473684,NA,NA
94602,Alameda County,CA,78.3157894736842,NA,NA
94611,Alameda County,CA,NA,NA,70.14388489208633
94703,Alameda County,CA,NA,79.90543735224587,NA
94952,Sonoma County,CA,NA,41.13475177304964,NA
95118,Santa Clara County,CA,61.26315789473684,NA,NA
95258,San Joaquin County,CA,98.52631578947368,NA,NA
95330,San Joaquin County,CA,NA,84.16075650118204,NA
95336,San Joaquin County,CA,31.36842105263158,24.113475177304963,NA
95355,Stanislaus County,CA,NA,10.874704491725769,28.05755395683453
95376,San Joaquin County,CA,NA,39.00709219858156,NA
95453,Lake County,CA,71.36842105263158,NA,NA
95540,Humboldt County,CA,58.94736842105262,NA,NA
95666,Amador County,CA,99.36842105263159,NA,NA
95713,Placer County,CA,96.21052631578947,NA,NA
95758,Sacramento County,CA,NA,50.11820330969267,NA
95762,El Dorado County,CA,NA,40.189125295508276,NA
95926,Butte County,CA,NA,28.60520094562648,NA
95928,Butte County,CA,NA,NA,26.978417266187048
96007,Shasta County,CA,65.6842105263158,NA,NA
96073,Shasta County,CA,100,NA,NA
80022,Adams County,CO,NA,43.73522458628842,NA
80120,Arapahoe County,CO,61.89473684210526,NA,NA
80220,Denver County,CO,NA,70.2127659574468,NA
80221,Adams County,CO,34.10526315789474,NA,NA
80237,Denver County,CO,NA,63.593380614657214,NA
80465,Jefferson County,CO,85.68421052631578,NA,NA
80526,Larimer County,CO,38.10526315789474,NA,NA
80634,Weld County,CO,34.31578947368421,3.546099290780142,NA
80915,El Paso County,CO,NA,80.6146572104019,NA
81212,Fremont County,CO,NA,55.55555555555556,NA
81623,Garfield County,CO,NA,70.6855791962175,NA
06010,Hartford County,CT,NA,4.491725768321513,NA
06082,Hartford County,CT,19.789473684210527,NA,NA
06415,New London County,CT,54.10526315789473,NA,NA
06443,New Haven County,CT,NA,34.751773049645394,NA
06460,New Haven County,CT,NA,54.1371158392435,NA
06472,New Haven County,CT,93.89473684210526,NA,NA
06473,New Haven County,CT,NA,NA,24.820143884892087
06611,Fairfield County,CT,NA,NA,35.25179856115108
06812,Fairfield County,CT,NA,NA,70.86330935251799
19947,Sussex County,DE,45.05263157894737,NA,NA
19966,Sussex County,DE,23.57894736842105,NA,NA
32034,Nassau County,FL,51.368421052631575,NA,NA
32038,Columbia County,FL,92,NA,NA
32117,Volusia County,FL,NA,NA,38.84892086330935
32174,Volusia County,FL,NA,13.238770685579196,NA
32207,Duval County,FL,NA,12.76595744680851,NA
32216,Duval County,FL,NA,30.49645390070922,NA
32340,Madison County,FL,NA,97.63593380614657,NA
32404,Bay County,FL,24,NA,NA
32425,Holmes County,FL,NA,58.62884160756501,NA
32435,Walton County,FL,77.47368421052632,NA,NA
32501,Escambia County,FL,NA,NA,58.992805755395686
32503,Escambia County,FL,53.473684210526315,NA,NA
32506,Escambia County,FL,NA,20.56737588652482,NA
32535,Escambia County,FL,NA,82.03309692671394,NA
32566,Santa Rosa County,FL,NA,61.702127659574465,NA
32578,Okaloosa County,FL,NA,NA,23.741007194244602
32579,Okaloosa County,FL,NA,NA,76.61870503597122
32621,Levy County,FL,NA,88.88888888888889,NA
32714,Seminole County,FL,NA,NA,47.482014388489205
32771,Seminole County,FL,NA,37.825059101654844,NA
32778,Lake County,FL,NA,NA,32.73381294964029
32792,Orange County,FL,NA,NA,22.66187050359712
32801,Orange County,FL,NA,91.725768321513,NA
32833,Orange County,FL,NA,92.67139479905437,NA
32901,Brevard County,FL,NA,49.645390070921984,NA
32968,Indian River County,FL,NA,NA,80.93525179856115
33004,Broward County,FL,NA,NA,88.48920863309353
33040,Monroe County,FL,73.68421052631578,NA,NA
33133,Miami-Dade County,FL,75.1578947368421,NA,NA
33139,Miami-Dade County,FL,NA,54.37352245862884,NA
33142,Miami-Dade County,FL,19.57894736842105,NA,NA
33143,Miami-Dade County,FL,78.52631578947368,NA,NA
33179,Miami-Dade County,FL,83.57894736842105,NA,NA
33319,Broward County,FL,NA,30.969267139479907,NA
33326,Broward County,FL,NA,NA,54.67625899280576
33410,Palm Beach County,FL,NA,NA,34.53237410071942
33458,Palm Beach County,FL,24.210526315789473,NA,NA
33484,Palm Beach County,FL,NA,NA,66.90647482014388
33511,Hillsborough County,FL,39.578947368421055,NA,NA
33544,Pasco County,FL,NA,57.446808510638306,NA
33556,Hillsborough County,FL,NA,68.79432624113475,NA
33566,Hillsborough County,FL,NA,NA,96.40287769784173
33609,Hillsborough County,FL,73.47368421052632,NA,NA
33611,Hillsborough County,FL,70.10526315789474,61.938534278959814,NA
33626,Hillsborough County,FL,90.94736842105263,NA,NA
33701,Pinellas County,FL,NA,NA,63.30935251798561
33703,Pinellas County,FL,NA,NA,60.07194244604317
33773,Pinellas County,FL,66.73684210526316,NA,NA
33774,Pinellas County,FL,70.94736842105263,NA,NA
33908,Lee County,FL,NA,33.33333333333333,NA
33913,Lee County,FL,80.63157894736842,NA,NA
33936,Lee County,FL,NA,NA,51.07913669064749
33990,Lee County,FL,37.89473684210527,NA,NA
34120,Collier County,FL,NA,45.39007092198582,NA
34207,Manatee County,FL,NA,NA,55.75539568345324
34208,Manatee County,FL,94.3157894736842,NA,NA
34231,Sarasota County,FL,NA,19.858156028368796,NA
34235,Sarasota County,FL,NA,60.520094562647756,NA
34266,DeSoto County,FL,NA,82.74231678486997,40.647482014388494
34286,Sarasota County,FL,NA,61.22931442080378,NA
34429,Citrus County,FL,NA,90.30732860520094,NA
34652,Pasco County,FL,NA,NA,48.201438848920866
34684,Pinellas County,FL,NA,NA,11.510791366906476
34688,Pinellas County,FL,NA,NA,84.89208633093526
34744,Osceola County,FL,NA,75.41371158392435,NA
34769,Osceola County,FL,NA,NA,51.798561151079134
34787,Orange County,FL,NA,NA,62.23021582733813
34947,St. Lucie County,FL,NA,83.21513002364065,NA
34952,St. Lucie County,FL,NA,11.583924349881796,NA
34953,St. Lucie County,FL,NA,NA,21.223021582733814
30016,Newton County,GA,NA,22.93144208037825,NA
30030,DeKalb County,GA,NA,NA,55.03597122302158
30032,DeKalb County,GA,NA,13.47517730496454,NA
30084,DeKalb County,GA,NA,NA,69.7841726618705
30115,Cherokee County,GA,NA,42.5531914893617,NA
30117,Carroll County,GA,NA,NA,33.093525179856115
30180,Carroll County,GA,22.315789473684212,NA,NA
30188,Cherokee County,GA,NA,17.257683215130022,NA
30230,Troup County,GA,NA,81.32387706855792,NA
30240,Troup County,GA,26.31578947368421,NA,NA
30253,Henry County,GA,NA,NA,46.043165467625904
30276,Coweta County,GA,89.26315789473685,NA,NA
30297,Clayton County,GA,57.05263157894736,NA,NA
30318,Fulton County,GA,NA,32.38770685579196,NA
30341,DeKalb County,GA,67.78947368421052,NA,NA
30360,DeKalb County,GA,92.63157894736842,NA,NA
30401,Emanuel County,GA,69.89473684210526,NA,NA
30467,Screven County,GA,59.15789473684211,NA,NA
30512,Union County,GA,NA,52.4822695035461,NA
30519,Gwinnett County,GA,47.368421052631575,NA,NA
30560,Fannin County,GA,NA,94.56264775413712,NA
30607,Clarke County,GA,NA,NA,95.32374100719424
30635,Elbert County,GA,NA,65.48463356973994,NA
30720,Whitfield County,GA,NA,64.77541371158392,60.79136690647482
30809,Columbia County,GA,NA,NA,33.81294964028777
30904,Richmond County,GA,NA,22.22222222222222,NA
31069,Houston County,GA,NA,NA,53.23741007194245
31088,Houston County,GA,17.684210526315788,NA,NA
31216,Bibb County,GA,81.47368421052632,NA,NA
31313,Liberty County,GA,NA,92.90780141843972,NA
31501,Ware County,GA,NA,65.95744680851064,NA
31516,Pierce County,GA,67.15789473684211,NA,NA
31792,Thomas County,GA,NA,35.69739952718676,NA
31903,Muscogee County,GA,35.1578947368421,NA,NA
39817,Decatur County,GA,62.31578947368421,NA,NA
39823,Early County,GA,NA,80.85106382978722,NA
39828,Grady County,GA,68.21052631578948,NA,NA
96706,Honolulu County,HI,NA,48.46335697399527,NA
96732,Maui County,HI,NA,91.01654846335697,NA
96825,Honolulu County,HI,NA,NA,28.776978417266186
83340,Blaine County,ID,98.94736842105263,NA,NA
83616,Ada County,ID,NA,NA,14.028776978417264
83705,Ada County,ID,NA,NA,47.122302158273385
83801,Kootenai County,ID,NA,NA,99.28057553956835
83815,Kootenai County,ID,NA,21.749408983451538,NA
60002,Lake County,IL,NA,37.11583924349882,NA
60025,Cook County,IL,NA,NA,3.9568345323741005
60047,Lake County,IL,38.526315789473685,NA,NA
60053,Cook County,IL,NA,36.64302600472813,NA
60076,Cook County,IL,74.31578947368422,NA,NA
60090,Cook County,IL,NA,28.841607565011824,NA
60104,Cook County,IL,41.89473684210526,NA,NA
60106,DuPage County,IL,NA,66.66666666666666,NA
60123,Kane County,IL,69.6842105263158,NA,NA
60134,Kane County,IL,NA,77.54137115839244,NA
60302,Cook County,IL,NA,NA,16.546762589928058
60417,Will County,IL,61.68421052631579,NA,NA
60467,Cook County,IL,NA,28.368794326241137,NA
60477,Cook County,IL,60.21052631578947,NA,NA
60605,Cook County,IL,60.421052631578945,NA,NA
60611,Cook County,IL,80.42105263157895,NA,NA
60616,Cook County,IL,NA,44.2080378250591,NA
60619,Cook County,IL,NA,7.328605200945626,NA
60623,Cook County,IL,NA,47.75413711583924,NA
60624,Cook County,IL,NA,66.66666666666666,NA
60640,Cook County,IL,NA,NA,8.633093525179856
60643,Cook County,IL,NA,27.659574468085108,NA
60644,Cook County,IL,9.473684210526317,NA,NA
60653,Cook County,IL,NA,33.09692671394799,NA
60657,Cook County,IL,NA,14.657210401891252,NA
60660,Cook County,IL,28.210526315789476,NA,NA
61021,Lee County,IL,33.68421052631579,NA,2.877697841726619
61244,Rock Island County,IL,NA,NA,44.24460431654676
61301,LaSalle County,IL,62.10526315789474,NA,NA
62002,Madison County,IL,32.21052631578947,NA,NA
62049,Montgomery County,IL,96,NA,NA
62208,St. Clair County,IL,NA,70.92198581560284,NA
62246,Bond County,IL,NA,NA,71.94244604316546
62401,Effingham County,IL,NA,86.7612293144208,NA
62521,Macon County,IL,NA,NA,4.676258992805756
46001,Madison County,IN,NA,64.30260047281324,NA
46041,Clinton County,IN,35.78947368421053,NA,NA
46143,Johnson County,IN,NA,19.148936170212767,NA
46151,Morgan County,IN,25.894736842105264,NA,NA
46181,Johnson County,IN,NA,95.98108747044918,NA
46214,Marion County,IN,NA,48.226950354609926,NA
46218,Marion County,IN,NA,NA,27.33812949640288
46219,Marion County,IN,NA,NA,12.589928057553957
46237,Marion County,IN,NA,NA,14.748201438848922
46254,Marion County,IN,54.94736842105263,NA,NA
46320,Lake County,IN,NA,NA,78.05755395683454
46321,Lake County,IN,NA,NA,25.899280575539567
46383,Porter County,IN,8.631578947368421,NA,NA
46410,Lake County,IN,7.578947368421053,NA,NA
46706,DeKalb County,IN,NA,NA,38.489208633093526
46725,Whitley County,IN,NA,23.87706855791962,NA
46755,Noble County,IN,NA,41.371158392434985,NA
46761,LaGrange County,IN,66.94736842105263,NA,NA
46804,Allen County,IN,NA,NA,43.884892086330936
46805,Allen County,IN,34.73684210526316,NA,NA
46808,Allen County,IN,NA,65.24822695035462,NA
46809,Allen County,IN,NA,74.94089834515366,NA
46901,Howard County,IN,NA,6.8557919621749415,NA
46902,Howard County,IN,20.842105263157894,NA,NA
46970,Miami County,IN,11.789473684210526,NA,NA
47025,Dearborn County,IN,NA,55.7919621749409,NA
47130,Clark County,IN,NA,8.037825059101655,NA
47165,Washington County,IN,94.73684210526315,NA,NA
47240,Decatur County,IN,34.94736842105263,NA,NA
47265,Jennings County,IN,22.526315789473685,NA,NA
47331,Fayette County,IN,45.89473684210526,NA,NA
47421,Lawrence County,IN,36.421052631578945,NA,NA
47546,Dubois County,IN,52.63157894736842,NA,NA
47620,Posey County,IN,NA,67.84869976359337,NA
47715,Vanderburgh County,IN,84.42105263157896,NA,NA
50010,Story County,IA,57.89473684210527,NA,NA
50208,Jasper County,IA,56.84210526315789,NA,NA
50265,Polk County,IA,69.47368421052632,NA,NA
50273,Madison County,IA,89.89473684210526,NA,NA
50310,Polk County,IA,NA,NA,90.64748201438849
50327,Polk County,IA,NA,NA,85.97122302158273
50428,Cerro Gordo County,IA,79.15789473684211,NA,NA
50511,Kossuth County,IA,NA,NA,71.22302158273382
51108,Woodbury County,IA,90.73684210526316,NA,NA
51360,Dickinson County,IA,87.36842105263159,NA,NA
52245,Johnson County,IA,NA,88.4160756501182,NA
52246,Johnson County,IA,NA,69.73995271867612,NA
52405,Linn County,IA,40.8421052631579,NA,NA
52501,Wapello County,IA,NA,NA,31.654676258992804
52627,Lee County,IA,44.8421052631579,NA,NA
66030,Johnson County,KS,NA,87.47044917257683,NA
66061,Johnson County,KS,NA,NA,72.66187050359713
66204,Johnson County,KS,89.6842105263158,NA,NA
66215,Johnson County,KS,NA,44.680851063829785,NA
66219,Johnson County,KS,NA,85.57919621749409,NA
66502,Riley County,KS,NA,73.75886524822694,NA
66547,Pottawatomie County,KS,86.10526315789474,NA,NA
67208,Sedgwick County,KS,77.6842105263158,NA,NA
67226,Sedgwick County,KS,NA,NA,88.12949640287769
67401,Saline County,KS,NA,NA,19.424460431654676
67546,McPherson County,KS,NA,100,NA
67860,Kearny County,KS,NA,99.52718676122932,NA
40033,Marion County,KY,NA,NA,90.28776978417267
40071,Spencer County,KY,NA,55.082742316784874,NA
40118,Jefferson County,KY,54.52631578947369,NA,NA
40175,Hardin County,KY,58.73684210526315,NA,NA
40207,Jefferson County,KY,NA,NA,41.007194244604314
40220,Jefferson County,KY,NA,23.64066193853428,NA
40324,Scott County,KY,16,NA,NA
40484,Lincoln County,KY,NA,59.10165484633569,NA
40503,Fayette County,KY,66.10526315789474,NA,NA
40504,Fayette County,KY,NA,66.19385342789597,NA
40701,Whitley County,KY,NA,14.184397163120568,NA
40741,Laurel County,KY,21.894736842105264,NA,NA
40744,Laurel County,KY,30.736842105263158,NA,NA
41040,Pendleton County,KY,NA,NA,97.48201438848922
41071,Campbell County,KY,NA,37.35224586288416,NA
41139,Greenup County,KY,NA,60.99290780141844,NA
41339,Breathitt County,KY,NA,NA,72.3021582733813
41858,Letcher County,KY,57.47368421052632,NA,64.74820143884892
42029,Marshall County,KY,NA,NA,93.16546762589928
42101,Warren County,KY,7.157894736842104,NA,NA
42127,Barren County,KY,NA,82.97872340425532,NA
42164,Allen County,KY,82.3157894736842,NA,NA
42220,Todd County,KY,85.05263157894737,NA,NA
42445,Caldwell County,KY,88.21052631578948,NA,NA
42728,Adair County,KY,52.84210526315789,NA,NA
70003,Jefferson Parish,LA,NA,5.200945626477541,NA
70117,Orleans Parish,LA,89.47368421052632,NA,NA
70345,Lafourche Parish,LA,NA,NA,81.29496402877699
70435,St. Tammany Parish,LA,NA,20.33096926713948,NA
70452,St. Tammany Parish,LA,NA,86.52482269503547,NA
70454,Tangipahoa Parish,LA,35.368421052631575,NA,NA
70501,Lafayette Parish,LA,NA,64.0661938534279,NA
70506,Lafayette Parish,LA,46.10526315789474,NA,NA
70526,Acadia Parish,LA,NA,99.29078014184397,NA
70544,Iberia Parish,LA,NA,77.30496453900709,NA
70548,Vermilion Parish,LA,NA,80.1418439716312,NA
70560,Iberia Parish,LA,2.3157894736842106,NA,NA
70647,Calcasieu Parish,LA,NA,97.87234042553192,NA
70714,East Baton Rouge Parish,LA,22.94736842105263,NA,NA
70734,Ascension Parish,LA,87.57894736842105,NA,NA
70807,East Baton Rouge Parish,LA,14.736842105263156,NA,NA
70808,East Baton Rouge Parish,LA,73.89473684210527,NA,NA
70818,East Baton Rouge Parish,LA,76.42105263157895,NA,NA
71303,Rapides Parish,LA,NA,NA,59.352517985611506
04102,Cumberland County,ME,NA,75.177304964539,NA
04401,Penobscot County,ME,NA,NA,10.431654676258994
04412,Penobscot County,ME,NA,77.06855791962175,NA
04841,Knox County,ME,74.52631578947368,NA,NA
04963,Kennebec County,ME,NA,72.10401891252955,NA
04976,Somerset County,ME,64.42105263157895,NA,NA
20639,Calvert County,MD,NA,94.32624113475178,NA
20876,Montgomery County,MD,NA,NA,92.80575539568345
21057,Baltimore County,MD,NA,NA,94.24460431654677
21060,Anne Arundel County,MD,30.105263157894736,NA,NA
21093,Baltimore County,MD,72.63157894736842,NA,NA
21114,Anne Arundel County,MD,NA,89.36170212765957,NA
21157,Carroll County,MD,NA,NA,24.46043165467626
21212,Baltimore city,MD,42.73684210526316,NA,NA
21218,Baltimore city,MD,12,NA,NA
21220,Baltimore County,MD,18.947368421052634,NA,NA
21229,Baltimore city,MD,NA,NA,23.381294964028775
21231,Baltimore city,MD,NA,NA,80.2158273381295
21239,Baltimore city,MD,NA,22.69503546099291,NA
01040,Hampden County,MA,NA,0,NA
01104,Hampden County,MA,NA,1.6548463356973995,NA
01201,Berkshire County,MA,0.21052631578947367,5.4373522458628845,NA
01238,Berkshire County,MA,NA,73.04964539007092,NA
01420,Worcester County,MA,NA,67.61229314420804,NA
01510,Worcester County,MA,NA,13.002364066193852,NA
01569,Worcester County,MA,NA,73.5224586288416,NA
01603,Worcester County,MA,1.6842105263157894,NA,NA
01608,Worcester County,MA,21.684210526315788,NA,NA
01740,Worcester County,MA,98.3157894736842,NA,NA
01810,Essex County,MA,42.94736842105264,17.494089834515368,NA
01830,Essex County,MA,13.052631578947368,NA,NA
01854,Middlesex County,MA,1.8947368421052633,NA,NA
01862,Middlesex County,MA,NA,82.50591016548464,NA
01960,Essex County,MA,NA,NA,0.3597122302158274
01970,Essex County,MA,NA,NA,6.474820143884892
02025,Norfolk County,MA,NA,99.05437352245863,NA
02026,Norfolk County,MA,22.105263157894736,NA,NA
02035,Norfolk County,MA,NA,62.88416075650118,NA
02043,Plymouth County,MA,38.94736842105263,NA,NA
02093,Norfolk County,MA,56.631578947368425,NA,NA
02114,Suffolk County,MA,NA,NA,98.56115107913669
02130,Suffolk County,MA,NA,53.664302600472816,NA
02131,Suffolk County,MA,NA,NA,3.237410071942446
02148,Middlesex County,MA,NA,0.7092198581560284,1.079136690647482
02152,Suffolk County,MA,14.526315789473685,NA,NA
02170,Norfolk County,MA,NA,11.347517730496454,NA
02184,Norfolk County,MA,5.684210526315789,NA,NA
02301,Plymouth County,MA,0,NA,NA
02324,Plymouth County,MA,NA,26.47754137115839,NA
02330,Plymouth County,MA,49.89473684210527,NA,NA
02332,Plymouth County,MA,NA,67.37588652482269,83.81294964028777
02360,Plymouth County,MA,NA,18.67612293144208,NA
02375,Bristol County,MA,NA,NA,74.10071942446042
02458,Middlesex County,MA,48,NA,NA
02467,Norfolk County,MA,NA,NA,32.37410071942446
02492,Norfolk County,MA,NA,68.5579196217494,NA
02563,Barnstable County,MA,NA,NA,62.94964028776978
02703,Bristol County,MA,0.8421052631578947,NA,NA
02720,Bristol County,MA,62.94736842105263,NA,NA
02724,Bristol County,MA,NA,31.678486997635936,NA
02726,Bristol County,MA,NA,30.73286052009456,NA
02760,Bristol County,MA,13.263157894736842,NA,NA
02771,Bristol County,MA,NA,49.40898345153664,NA
48025,Oakland County,MI,79.15789473684211,NA,NA
48026,Macomb County,MI,NA,NA,56.4748201438849
48033,Oakland County,MI,NA,NA,25.179856115107913
48038,Macomb County,MI,NA,7.5650118203309695,NA
48042,Macomb County,MI,21.263157894736842,NA,NA
48047,Macomb County,MI,NA,15.36643026004728,NA
48079,St. Clair County,MI,84.84210526315789,NA,NA
48108,Washtenaw County,MI,39.1578947368421,NA,NA
48118,Washtenaw County,MI,NA,NA,29.856115107913666
48124,Wayne County,MI,NA,NA,42.44604316546763
48127,Wayne County,MI,14.315789473684209,NA,NA
48150,Wayne County,MI,28.421052631578945,NA,NA
48154,Wayne County,MI,23.789473684210527,NA,NA
48161,Monroe County,MI,8,NA,NA
48167,Oakland County,MI,NA,66.43026004728132,NA
48173,Wayne County,MI,58.526315789473685,NA,NA
48176,Washtenaw County,MI,42.31578947368421,NA,NA
48186,Wayne County,MI,NA,46.335697399527184,NA
48189,Washtenaw County,MI,NA,84.86997635933807,NA
48201,Wayne County,MI,NA,59.33806146572104,NA
48203,Wayne County,MI,NA,24.58628841607565,75.53956834532374
48205,Wayne County,MI,4,NA,NA
48206,Wayne County,MI,28.421052631578945,NA,NA
48214,Wayne County,MI,20.42105263157895,NA,NA
48219,Wayne County,MI,4.842105263157895,NA,NA
48234,Wayne County,MI,8.842105263157894,16.07565011820331,NA
48235,Wayne County,MI,2.1052631578947367,NA,10.79136690647482
48236,Wayne County,MI,NA,NA,47.84172661870504
48309,Oakland County,MI,35.578947368421055,NA,NA
48310,Macomb County,MI,NA,NA,20.14388489208633
48312,Macomb County,MI,NA,NA,73.7410071942446
48323,Oakland County,MI,NA,78.95981087470449,NA
48326,Oakland County,MI,51.368421052631575,NA,NA
48334,Oakland County,MI,NA,37.825059101654844,NA
48420,Genesee County,MI,NA,NA,48.92086330935252
48423,Genesee County,MI,63.368421052631575,NA,NA
48507,Genesee County,MI,11.578947368421053,NA,NA
48602,Saginaw County,MI,3.578947368421052,NA,NA
48603,Saginaw County,MI,13.684210526315791,NA,NA
48611,Bay County,MI,89.05263157894737,NA,NA
48638,Saginaw County,MI,NA,47.04491725768322,NA
48706,Bay County,MI,NA,2.8368794326241136,NA
48732,Bay County,MI,53.05263157894737,NA,NA
48843,Livingston County,MI,NA,NA,8.992805755395683
48858,Isabella County,MI,5.894736842105263,NA,NA
48906,Ingham County,MI,NA,NA,35.61151079136691
49015,Calhoun County,MI,18.31578947368421,NA,NA
49037,Calhoun County,MI,NA,34.2789598108747,NA
49093,St. Joseph County,MI,NA,NA,38.1294964028777
49201,Jackson County,MI,NA,NA,7.913669064748201
49203,Jackson County,MI,8.210526315789474,NA,NA
49301,Kent County,MI,93.6842105263158,NA,NA
49349,Newaygo County,MI,60,NA,NA
49401,Ottawa County,MI,NA,NA,92.08633093525181
49417,Ottawa County,MI,49.684210526315795,NA,15.107913669064748
49424,Ottawa County,MI,NA,NA,9.712230215827338
49426,Ottawa County,MI,41.68421052631579,NA,NA
49506,Kent County,MI,NA,NA,18.705035971223023
49509,Kent County,MI,15.578947368421053,NA,NA
49548,Kent County,MI,32,NA,NA
49643,Grand Traverse County,MI,92.21052631578948,NA,NA
49646,Kalkaska County,MI,NA,NA,81.65467625899281
49849,Marquette County,MI,48.421052631578945,NA,NA
49855,Marquette County,MI,NA,17.73049645390071,NA
55076,Dakota County,MN,NA,57.919621749408975,NA
55113,Ramsey County,MN,NA,48.93617021276596,26.258992805755394
55117,Ramsey County,MN,NA,42.31678486997636,NA
55124,Dakota County,MN,40.63157894736842,NA,NA
55125,Washington County,MN,42.10526315789473,NA,NA
55311,Hennepin County,MN,60.8421052631579,NA,NA
55378,Scott County,MN,NA,88.17966903073287,NA
55379,Scott County,MN,26.736842105263158,NA,NA
55416,Hennepin County,MN,NA,71.39479905437352,NA
55417,Hennepin County,MN,50.10526315789474,NA,NA
55421,Anoka County,MN,21.052631578947366,NA,NA
55424,Hennepin County,MN,NA,93.61702127659575,NA
55435,Hennepin County,MN,NA,NA,64.02877697841727
55436,Hennepin County,MN,NA,NA,74.46043165467626
55443,Hennepin County,MN,NA,NA,63.66906474820144
55744,Itasca County,MN,NA,NA,34.172661870503596
55746,St. Louis County,MN,NA,34.515366430260045,NA
55901,Olmsted County,MN,NA,28.132387706855795,NA
55906,Olmsted County,MN,NA,NA,65.82733812949641
56001,Blue Earth County,MN,78.10526315789474,NA,52.51798561151079
56093,Waseca County,MN,NA,NA,27.697841726618705
56301,Stearns County,MN,43.78947368421053,NA,NA
56304,Sherburne County,MN,59.78947368421053,NA,NA
56345,Morrison County,MN,31.57894736842105,NA,NA
56560,Clay County,MN,NA,7.092198581560284,NA
38672,DeSoto County,MS,83.15789473684211,NA,NA
39204,Hinds County,MS,97.47368421052632,NA,NA
39212,Hinds County,MS,79.57894736842105,NA,NA
39301,Lauderdale County,MS,19.36842105263158,NA,NA
39328,Kemper County,MS,95.57894736842105,NA,NA
39503,Harrison County,MS,NA,5.673758865248227,NA
39531,Harrison County,MS,NA,NA,61.51079136690647
39645,Amite County,MS,90.10526315789474,NA,NA
39652,Pike County,MS,NA,NA,86.33093525179856
39654,Lawrence County,MS,93.26315789473684,NA,NA
63021,St. Louis County,MO,43.368421052631575,NA,NA
63105,St. Louis County,MO,NA,NA,70.50359712230215
63123,St. Louis County,MO,67.36842105263158,NA,NA
63304,St. Charles County,MO,31.57894736842105,NA,NA
63362,Lincoln County,MO,90.31578947368422,NA,NA
63385,St. Charles County,MO,NA,NA,17.62589928057554
63401,Marion County,MO,76,NA,NA
64015,Jackson County,MO,15.368421052631579,NA,NA
64054,Jackson County,MO,97.26315789473684,NA,NA
64068,Clay County,MO,NA,9.219858156028367,NA
64089,Clay County,MO,52.421052631578945,NA,NA
64093,Johnson County,MO,NA,NA,48.201438848920866
64113,Jackson County,MO,86.94736842105263,NA,NA
64117,Clay County,MO,NA,47.28132387706856,NA
64118,Clay County,MO,5.263157894736842,NA,NA
64130,Jackson County,MO,NA,NA,71.58273381294964
64131,Jackson County,MO,16.842105263157894,NA,NA
64134,Jackson County,MO,15.157894736842106,NA,NA
64701,Cass County,MO,43.57894736842105,NA,NA
65043,Callaway County,MO,NA,89.59810874704492,NA
65233,Cooper County,MO,NA,68.32151300236407,NA
65613,Polk County,MO,NA,NA,16.906474820143885
65686,Stone County,MO,NA,86.28841607565012,NA
65712,Lawrence County,MO,98.73684210526315,NA,NA
65721,Christian County,MO,NA,NA,51.438848920863315
65807,Greene County,MO,60.631578947368425,NA,NA
59405,Cascade County,MT,NA,18.439716312056735,NA
59725,Beaverhead County,MT,NA,NA,79.13669064748201
59804,Missoula County,MT,NA,NA,96.0431654676259
59901,Flathead County,MT,NA,NA,1.7985611510791366
68007,Douglas County,NE,96.63157894736842,NA,NA
68127,Douglas County,NE,NA,77.77777777777779,NA
68506,Lancaster County,NE,NA,51.77304964539007,NA
68850,Dawson County,NE,NA,NA,88.84892086330936
68901,Adams County,NE,NA,45.62647754137116,NA
69341,Scotts Bluff County,NE,88.63157894736841,NA,NA
89106,Clark County,NV,NA,NA,78.77697841726618
89117,Clark County,NV,NA,NA,43.52517985611511
89121,Clark County,NV,NA,31.44208037825059,NA
89122,Clark County,NV,26.105263157894736,NA,NA
89156,Clark County,NV,65.05263157894737,NA,NA
89410,Douglas County,NV,NA,NA,44.60431654676259
89423,Douglas County,NV,NA,NA,59.71223021582733
89431,Washoe County,NV,NA,43.498817966903076,NA
89701,Carson City,NV,68.63157894736842,NA,NA
03303,Merrimack County,NH,68.84210526315789,NA,NA
03820,Strafford County,NH,NA,NA,67.26618705035972
07006,Essex County,NJ,NA,51.30023640661938,NA
07054,Morris County,NJ,NA,NA,39.20863309352518
07066,Union County,NJ,NA,NA,53.956834532374096
07070,Bergen County,NJ,NA,84.63356973995272,NA
07083,Union County,NJ,47.1578947368421,NA,NA
07087,Hudson County,NJ,NA,7.801418439716312,NA
07405,Morris County,NJ,NA,78.25059101654847,NA
07524,Passaic County,NJ,30.94736842105263,NA,NA
07626,Bergen County,NJ,NA,98.3451536643026,NA
07644,Bergen County,NJ,NA,34.04255319148936,NA
07670,Bergen County,NJ,85.05263157894737,NA,NA
07724,Monmouth County,NJ,27.57894736842105,NA,NA
07728,Monmouth County,NJ,NA,NA,26.618705035971225
07801,Morris County,NJ,NA,31.914893617021278,77.33812949640287
07832,Warren County,NJ,97.68421052631578,NA,NA
08004,Camden County,NJ,NA,98.581560283687935,NA
08015,Burlington County,NJ,NA,49.881796690307326,NA
08016,Burlington County,NJ,NA,NA,39.92805755395683
08037,Atlantic County,NJ,17.684210526315788,NA,NA
08078,Camden County,NJ,NA,95.74468085106383,NA
08087,Ocean County,NJ,NA,NA,14.388489208633093
08103,Camden County,NJ,55.1578947368421,NA,NA
08104,Camden County,NJ,76.63157894736841,NA,NA
08244,Atlantic County,NJ,98.10526315789474,NA,NA
08302,Cumberland County,NJ,72.21052631578947,NA,NA
08610,Mercer County,NJ,NA,50.59101654846335,NA
08618,Mercer County,NJ,NA,9.929078014184398,NA
08731,Ocean County,NJ,38.73684210526316,NA,NA
08873,Somerset County,NJ,NA,25.53191489361702,NA
08882,Middlesex County,NJ,NA,83.68794326241135,NA
87105,Bernalillo County,NM,3.7894736842105265,NA,NA
87111,Bernalillo County,NM,NA,NA,29.136690647482016
87121,Bernalillo County,NM,4.2105263157894735,NA,NA
87144,Sandoval County,NM,NA,NA,55.39568345323741
87505,Santa Fe County,NM,NA,8.274231678486997,NA
87571,Taos County,NM,55.368421052631575,NA,NA
88012,Doa Ana County,NM,65.26315789473685,NA,NA
88101,Curry County,NM,11.157894736842106,NA,NA
10001,New York County,NY,14.105263157894738,NA,NA
10003,New York County,NY,NA,NA,19.06474820143885
10018,New York County,NY,NA,NA,92.44604316546763
10024,New York County,NY,NA,NA,4.316546762589928
10032,New York County,NY,NA,NA,5.755395683453238
10453,Bronx County,NY,6.7368421052631575,1.1820330969267139,NA
10456,Bronx County,NY,0.42105263157894735,0.2364066193853428,NA
10457,Bronx County,NY,NA,0.9456264775413712,NA
10462,Bronx County,NY,6.315789473684211,NA,NA
10470,Bronx County,NY,NA,87.94326241134752,NA
10473,Bronx County,NY,4.421052631578947,56.73758865248227,NA
10603,Westchester County,NY,NA,79.19621749408984,NA
10701,Westchester County,NY,NA,6.619385342789598,NA
10940,Orange County,NY,18.10526315789474,NA,NA
11207,Kings County,NY,0.631578947368421,NA,NA
11208,Kings County,NY,1.0526315789473684,2.6004728132387704,NA
11216,Kings County,NY,NA,NA,20.503597122302157
11221,Kings County,NY,NA,NA,5.39568345323741
11226,Kings County,NY,NA,4.0189125295508275,NA
11233,Kings County,NY,NA,2.127659574468085,NA
11368,Queens County,NY,7.7894736842105265,NA,NA
11420,Queens County,NY,NA,NA,91.00719424460432
11432,Queens County,NY,NA,10.16548463356974,NA
11434,Queens County,NY,NA,16.78486997635934,NA
11436,Queens County,NY,NA,NA,85.61151079136691
11561,Nassau County,NY,NA,33.56973995271868,25.539568345323744
11580,Nassau County,NY,NA,85.81560283687944,NA
11692,Queens County,NY,50.526315789473685,NA,NA
11757,Suffolk County,NY,72.42105263157896,NA,NA
11953,Suffolk County,NY,83.36842105263158,NA,NA
12020,Saratoga County,NY,20.210526315789473,NA,NA
12037,Columbia County,NY,NA,90.78014184397163,NA
12110,Albany County,NY,NA,86.05200945626478,NA
12302,Schenectady County,NY,NA,26.713947990543733,NA
12414,Greene County,NY,NA,40.8983451536643,NA
12564,Dutchess County,NY,NA,NA,82.37410071942446
13027,Onondaga County,NY,16.42105263157895,NA,NA
13036,Oswego County,NY,59.15789473684211,NA,NA
13057,Onondaga County,NY,49.05263157894737,NA,NA
13069,Oswego County,NY,NA,12.529550827423167,NA
13165,Seneca County,NY,27.157894736842103,NA,NA
13167,Oswego County,NY,95.15789473684211,NA,NA
13207,Onondaga County,NY,32.631578947368425,NA,NA
13212,Onondaga County,NY,32.8421052631579,NA,NA
13339,Montgomery County,NY,NA,85.1063829787234,NA
13662,St. Lawrence County,NY,8.421052631578947,NA,NA
13734,Tioga County,NY,93.05263157894737,NA,NA
13827,Tioga County,NY,NA,NA,57.194244604316545
13830,Chenango County,NY,64.63157894736841,NA,NA
14052,Erie County,NY,56.21052631578948,NA,NA
14125,Genesee County,NY,95.57894736842105,NA,NA
14207,Erie County,NY,9.05263157894737,NA,NA
14211,Erie County,NY,10.105263157894736,NA,NA
14215,Erie County,NY,NA,9.456264775413711,NA
14221,Erie County,NY,NA,NA,12.589928057553957
14222,Erie County,NY,NA,71.15839243498819,NA
14225,Erie County,NY,10.31578947368421,NA,NA
14226,Erie County,NY,31.157894736842106,NA,NA
14513,Wayne County,NY,NA,4.964539007092199,NA
14527,Yates County,NY,NA,NA,53.23741007194245
14534,Monroe County,NY,NA,NA,28.41726618705036
14551,Wayne County,NY,NA,71.63120567375887,NA
14609,Monroe County,NY,NA,1.8912529550827424,NA
14612,Monroe County,NY,NA,3.0732860520094563,NA
14620,Monroe County,NY,NA,74.46808510638297,NA
14626,Monroe County,NY,2.9473684210526314,NA,NA
14779,Cattaraugus County,NY,87.1578947368421,NA,NA
14843,Steuben County,NY,NA,32.860520094562645,NA
14867,Tompkins County,NY,NA,NA,95.68345323741008
27012,Forsyth County,NC,NA,6.382978723404255,NA
27106,Forsyth County,NC,14.947368421052632,NA,NA
27401,Guilford County,NC,NA,NA,61.87050359712231
27514,Orange County,NC,NA,29.550827423167846,NA
27534,Wayne County,NC,NA,53.90070921985816,NA
27583,Person County,NC,NA,NA,93.88489208633094
27604,Wake County,NC,NA,43.97163120567376,NA
27609,Wake County,NC,NA,35.46099290780142,NA
27614,Wake County,NC,NA,NA,50.719424460431654
27713,Durham County,NC,23.36842105263158,NA,NA
27803,Nash County,NC,NA,47.5177304964539,NA
27834,Pitt County,NC,NA,52.71867612293144,NA
27944,Perquimans County,NC,86.31578947368422,NA,NA
27948,Dare County,NC,NA,73.28605200945626,NA
28025,Cabarrus County,NC,NA,15.130023640661939,NA
28027,Cabarrus County,NC,NA,9.692671394799055,NA
28138,Rowan County,NC,NA,84.39716312056737,NA
28152,Cleveland County,NC,38.10526315789474,NA,NA
28211,Mecklenburg County,NC,NA,60.28368794326241,NA
28212,Mecklenburg County,NC,24.63157894736842,NA,NA
28215,Mecklenburg County,NC,NA,21.27659574468085,NA
28216,Mecklenburg County,NC,10.947368421052632,NA,NA
28304,Cumberland County,NC,NA,NA,54.31654676258992
28352,Scotland County,NC,NA,40.66193853427896,NA
28401,New Hanover County,NC,NA,NA,60.431654676258994
28466,Duplin County,NC,NA,76.35933806146572,NA
28609,Catawba County,NC,NA,NA,99.64028776978418
28612,Burke County,NC,NA,57.68321513002365,NA
28650,Catawba County,NC,63.1578947368421,NA,NA
28655,Burke County,NC,25.473684210526315,6.1465721040189125,NA
58601,Stark County,ND,73.05263157894737,NA,NA
43015,Delaware County,OH,NA,NA,5.0359712230215825
43082,Delaware County,OH,NA,NA,75.89928057553958
43113,Pickaway County,OH,NA,13.711583924349883,NA
43119,Franklin County,OH,NA,52.24586288416076,NA
43140,Madison County,OH,81.26315789473684,NA,NA
43143,Madison County,OH,NA,NA,86.33093525179856
43147,Fairfield County,OH,NA,NA,50.35971223021583
43160,Fayette County,OH,15.789473684210526,NA,NA
43229,Franklin County,OH,6.315789473684211,NA,NA
43235,Franklin County,OH,45.26315789473684,NA,NA
43302,Marion County,OH,NA,4.25531914893617,NA
43420,Sandusky County,OH,NA,17.02127659574468,NA
43450,Wood County,OH,NA,99.76359338061465,NA
43537,Lucas County,OH,NA,14.893617021276595,NA
43605,Lucas County,OH,NA,60.047281323877066,NA
43608,Lucas County,OH,9.68421052631579,NA,NA
43609,Lucas County,OH,22.736842105263158,NA,NA
43615,Lucas County,OH,3.3684210526315788,NA,NA
43620,Lucas County,OH,70.52631578947368,NA,NA
43723,Guernsey County,OH,NA,NA,94.60431654676259
43920,Columbiana County,OH,36.21052631578948,NA,NA
44052,Lorain County,OH,NA,NA,6.115107913669065
44055,Lorain County,OH,10.526315789473683,NA,NA
44102,Cuyahoga County,OH,29.47368421052631,NA,NA
44103,Cuyahoga County,OH,NA,13.947990543735225,NA
44109,Cuyahoga County,OH,4.631578947368421,3.309692671394799,NA
44111,Cuyahoga County,OH,1.4736842105263157,NA,NA
44120,Cuyahoga County,OH,NA,4.7281323877068555,NA
44130,Cuyahoga County,OH,NA,1.4184397163120568,0.7194244604316548
44133,Cuyahoga County,OH,26.94736842105263,NA,NA
44221,Summit County,OH,NA,19.62174940898345,NA
44236,Summit County,OH,NA,24.822695035460992,NA
44240,Portage County,OH,29.05263157894737,NA,NA
44305,Summit County,OH,NA,39.71631205673759,NA
44440,Trumbull County,OH,99.78947368421053,NA,NA
44512,Mahoning County,OH,37.26315789473684,NA,NA
44622,Tuscarawas County,OH,NA,NA,18.345323741007196
44706,Stark County,OH,34.526315789473685,NA,NA
44883,Seneca County,OH,NA,NA,19.784172661870503
44890,Huron County,OH,NA,63.35697399527187,NA
44907,Richland County,OH,NA,NA,44.96402877697842
45044,Butler County,OH,5.052631578947368,NA,NA
45056,Butler County,OH,NA,78.01418439716312,NA
45102,Clermont County,OH,37.05263157894737,NA,NA
45150,Clermont County,OH,37.26315789473684,NA,NA
45202,Hamilton County,OH,52.21052631578947,NA,NA
45214,Hamilton County,OH,48.63157894736842,NA,NA
45215,Hamilton County,OH,24.421052631578945,NA,NA
45231,Hamilton County,OH,NA,20.803782505910164,NA
45239,Hamilton County,OH,NA,35.9338061465721,NA
45241,Hamilton County,OH,68.21052631578948,NA,NA
45244,Hamilton County,OH,NA,NA,77.6978417266187
45335,Greene County,OH,91.15789473684211,NA,NA
45344,Clark County,OH,NA,NA,68.34532374100719
45373,Miami County,OH,6.947368421052631,NA,NA
45381,Preble County,OH,90.52631578947368,NA,NA
45403,Montgomery County,OH,37.68421052631579,NA,NA
45416,Montgomery County,OH,82.73684210526315,NA,NA
45417,Montgomery County,OH,NA,16.548463356973993,NA
45424,Montgomery County,OH,68,NA,NA
45431,Montgomery County,OH,46.31578947368421,NA,NA
45459,Montgomery County,OH,NA,NA,16.18705035971223
45601,Ross County,OH,NA,0.4728132387706856,0
45662,Scioto County,OH,NA,3.7825059101654848,NA
45690,Pike County,OH,NA,18.203309692671397,NA
45692,Jackson County,OH,36.63157894736842,NA,NA
45833,Allen County,OH,96.42105263157895,NA,NA
45840,Hancock County,OH,2.526315789473684,NA,NA
73010,McClain County,OK,46.73684210526316,NA,NA
73045,Oklahoma County,OK,NA,72.3404255319149,NA
73064,Canadian County,OK,NA,NA,45.68345323741007
73170,Cleveland County,OK,NA,15.839243498817968,NA
74029,Washington County,OK,NA,NA,94.96402877697841
74063,Tulsa County,OK,NA,41.60756501182033,NA
74070,Osage County,OK,NA,80.37825059101655,NA
74429,Wagoner County,OK,NA,NA,76.2589928057554
74434,Muskogee County,OK,NA,96.2174940898345,NA
74525,Atoka County,OK,NA,NA,91.36690647482014
97008,Washington County,OR,NA,56.26477541371159,NA
97070,Clackamas County,OR,NA,NA,36.69064748201439
97080,Multnomah County,OR,24.842105263157897,NA,NA
97124,Washington County,OR,NA,NA,83.09352517985612
97201,Multnomah County,OR,NA,79.66903073286052,NA
97267,Clackamas County,OR,36.84210526315789,NA,NA
97321,Linn County,OR,NA,27.18676122931442,NA
97322,Linn County,OR,NA,NA,9.352517985611511
97352,Marion County,OR,NA,92.43498817966903,NA
97361,Polk County,OR,80,NA,NA
97424,Lane County,OR,NA,39.479905437352244,NA
97524,Jackson County,OR,NA,60.7565011820331,NA
97527,Josephine County,OR,44.631578947368425,NA,NA
97801,Umatilla County,OR,NA,NA,17.985611510791365
15085,Westmoreland County,PA,NA,NA,84.17266187050359
15108,Allegheny County,PA,NA,19.38534278959811,NA
15120,Allegheny County,PA,NA,NA,39.568345323741006
15131,Allegheny County,PA,NA,NA,66.18705035971223
15205,Allegheny County,PA,NA,57.21040189125296,NA
15212,Allegheny County,PA,NA,NA,41.007194244604314
15237,Allegheny County,PA,NA,26.004728132387704,NA
15241,Allegheny County,PA,NA,65.01182033096927,NA
15401,Fayette County,PA,9.263157894736842,NA,NA
15632,Westmoreland County,PA,NA,NA,64.38848920863309
15656,Westmoreland County,PA,NA,70.44917257683215,NA
15690,Westmoreland County,PA,75.78947368421053,NA,NA
16056,Butler County,PA,NA,NA,76.97841726618705
16105,Lawrence County,PA,NA,30.969267139479907,NA
16323,Venango County,PA,NA,38.297872340425535,NA
16415,Erie County,PA,NA,93.14420803782507,NA
16510,Erie County,PA,NA,44.91725768321513,NA
16635,Blair County,PA,75.36842105263158,NA,NA
16801,Centre County,PA,NA,NA,12.23021582733813
17103,Dauphin County,PA,81.89473684210526,NA,NA
17110,Dauphin County,PA,NA,NA,46.402877697841724
17112,Dauphin County,PA,NA,NA,11.870503597122301
17222,Franklin County,PA,NA,55.319148936170215,NA
17225,Franklin County,PA,NA,56.50118203309693,NA
17313,York County,PA,NA,NA,66.54676258992805
17319,York County,PA,65.47368421052632,NA,NA
17403,York County,PA,2.736842105263158,NA,NA
17522,Lancaster County,PA,NA,NA,8.273381294964029
17728,Lycoming County,PA,NA,74.70449172576832,NA
17751,Clinton County,PA,NA,82.26950354609929,NA
17815,Columbia County,PA,76.21052631578948,NA,NA
18014,Northampton County,PA,NA,NA,46.76258992805755
18017,Northampton County,PA,6.105263157894736,NA,NA
18018,Lehigh County,PA,NA,11.11111111111111,NA
18020,Northampton County,PA,NA,NA,65.10791366906474
18103,Lehigh County,PA,NA,78.4869976359338,NA
19002,Montgomery County,PA,NA,NA,61.15107913669065
19007,Bucks County,PA,25.05263157894737,NA,NA
19008,Delaware County,PA,51.1578947368421,NA,NA
19018,Delaware County,PA,27.789473684210524,NA,NA
19038,Montgomery County,PA,NA,NA,83.45323741007195
19087,Chester County,PA,NA,62.4113475177305,NA
19120,Philadelphia County,PA,3.1578947368421053,NA,NA
19121,Philadelphia County,PA,NA,25.53191489361702,NA
19141,Philadelphia County,PA,71.78947368421052,NA,NA
19143,Philadelphia County,PA,1.263157894736842,NA,NA
19144,Philadelphia County,PA,NA,11.82033096926714,NA
19145,Philadelphia County,PA,NA,NA,37.05035971223021
19380,Chester County,PA,13.473684210526315,NA,NA
19382,Chester County,PA,NA,10.638297872340425,NA
19606,Berks County,PA,12.842105263157894,NA,NA
02813,Washington County,RI,95.36842105263158,NA,NA
02864,Providence County,RI,26.526315789473685,NA,NA
02865,Providence County,RI,NA,59.810874704491724,NA
02888,Kent County,RI,50.31578947368421,NA,NA
02919,Providence County,RI,NA,30.260047281323878,NA
02920,Providence County,RI,30.526315789473685,NA,NA
29055,Chester County,SC,NA,93.3806146572104,NA
29169,Lexington County,SC,NA,NA,50
29379,Union County,SC,NA,44.44444444444444,NA
29385,Spartanburg County,SC,84.63157894736842,NA,NA
29406,Charleston County,SC,NA,59.57446808510638,NA
29412,Charleston County,SC,NA,23.404255319148938,NA
29414,Charleston County,SC,NA,63.829787234042556,NA
29486,Berkeley County,SC,58.31578947368421,NA,NA
29488,Colleton County,SC,NA,37.5886524822695,NA
29501,Florence County,SC,NA,NA,42.805755395683455
29505,Florence County,SC,48.84210526315789,NA,NA
29510,Georgetown County,SC,85.89473684210527,NA,NA
29673,Greenville County,SC,40,NA,NA
29680,Greenville County,SC,46.526315789473685,NA,NA
29687,Greenville County,SC,33.26315789473684,NA,17.26618705035971
29707,Lancaster County,SC,91.57894736842105,NA,NA
29801,Aiken County,SC,94.52631578947368,NA,NA
29835,McCormick County,SC,97.89473684210527,NA,NA
29847,Edgefield County,SC,NA,95.50827423167848,NA
29853,Barnwell County,SC,NA,93.85342789598108,NA
29909,Beaufort County,SC,NA,17.96690307328605,NA
57104,Minnehaha County,SD,NA,8.51063829787234,NA
57105,Minnehaha County,SD,NA,45.62647754137116,NA
37013,Davidson County,TN,12.210526315789473,NA,NA
37025,Hickman County,TN,84,NA,NA
37027,Williamson County,TN,41.26315789473684,25.059101654846334,NA
37042,Montgomery County,TN,NA,42.08037825059102,NA
37064,Williamson County,TN,NA,16.07565011820331,NA
37075,Sumner County,TN,NA,8.747044917257684,NA
37087,Wilson County,TN,NA,NA,31.294964028776977
37091,Marshall County,TN,NA,53.191489361702125,NA
37130,Rutherford County,TN,NA,NA,42.805755395683455
37160,Bedford County,TN,NA,NA,87.41007194244604
37166,DeKalb County,TN,57.89473684210527,NA,NA
37312,Bradley County,TN,NA,50.82742316784869,NA
37342,Coffee County,TN,96.84210526315789,NA,NA
37404,Hamilton County,TN,NA,79.43262411347519,NA
37743,Greene County,TN,13.894736842105262,NA,NA
37756,Scott County,TN,NA,NA,100
37764,Sevier County,TN,72.63157894736842,NA,NA
37771,Loudon County,TN,NA,NA,79.85611510791367
37777,Blount County,TN,NA,56.973995271867615,NA
37814,Hamblen County,TN,33.473684210526315,NA,NA
37821,Cocke County,TN,NA,29.78723404255319,NA
38011,Tipton County,TN,NA,95.0354609929078,NA
38103,Shelby County,TN,NA,NA,98.20143884892086
38118,Shelby County,TN,50.73684210526316,NA,NA
38125,Shelby County,TN,NA,NA,96.76258992805755
38401,Maury County,TN,7.368421052631578,NA,NA
38478,Giles County,TN,56.42105263157895,NA,NA
38544,Putnam County,TN,64,NA,NA
38555,Cumberland County,TN,NA,42.78959810874704,NA
38570,Overton County,TN,67.36842105263158,NA,NA
75007,Denton County,TX,NA,27.423167848699766,NA
75020,Grayson County,TX,NA,NA,45.32374100719424
75021,Grayson County,TX,86.52631578947368,NA,NA
75060,Dallas County,TX,71.57894736842105,NA,NA
75062,Dallas County,TX,NA,34.988179669030735,NA
75070,Collin County,TX,NA,12.293144208037825,NA
75075,Collin County,TX,62.526315789473685,NA,NA
75080,Dallas County,TX,NA,45.15366430260047,NA
75116,Dallas County,TX,77.89473684210526,NA,NA
75159,Dallas County,TX,NA,NA,89.568345323741
75229,Dallas County,TX,NA,49.1725768321513,NA
75248,Dallas County,TX,NA,NA,42.086330935251794
75287,Denton County,TX,41.473684210526315,NA,NA
75457,Franklin County,TX,NA,NA,93.5251798561151
75559,Bowie County,TX,97.05263157894737,NA,NA
75757,Smith County,TX,NA,89.83451536643025,NA
75901,Angelina County,TX,NA,43.262411347517734,NA
76011,Tarrant County,TX,NA,61.938534278959814,NA
76018,Tarrant County,TX,57.47368421052632,NA,NA
76028,Johnson County,TX,NA,5.91016548463357,NA
76085,Parker County,TX,NA,61.22931442080378,NA
76123,Tarrant County,TX,47.578947368421055,NA,NA
76131,Tarrant County,TX,NA,67.139479905437355,NA
76182,Tarrant County,TX,NA,36.87943262411347,NA
76266,Denton County,TX,NA,78.72340425531915,NA
76273,Grayson County,TX,88,NA,NA
76384,Wilbarger County,TX,74.94736842105263,NA,NA
76522,Coryell County,TX,45.68421052631579,NA,NA
76528,Coryell County,TX,30.315789473684212,NA,NA
76943,Crockett County,TX,NA,98.81796690307328,NA
77004,Harris County,TX,NA,46.808510638297875,NA
77008,Harris County,TX,83.78947368421052,NA,NA
77018,Harris County,TX,NA,NA,68.70503597122301
77072,Harris County,TX,NA,NA,82.73381294964028
77079,Harris County,TX,73.26315789473684,NA,NA
77091,Harris County,TX,53.68421052631579,NA,NA
77095,Harris County,TX,NA,14.420803782505912,56.11510791366906
77328,San Jacinto County,TX,76.84210526315789,NA,NA
77377,Harris County,TX,NA,85.34278959810875,NA
77437,Wharton County,TX,NA,65.72104018912529,NA
77447,Harris County,TX,NA,97.16312056737588,NA
77469,Fort Bend County,TX,29.894736842105264,NA,NA
77515,Brazoria County,TX,49.26315789473684,NA,NA
77532,Harris County,TX,NA,NA,73.38129496402878
77536,Harris County,TX,40.421052631578945,NA,NA
77539,Galveston County,TX,20.63157894736842,NA,NA
77546,Galveston County,TX,NA,NA,36.330935251798564
77554,Galveston County,TX,NA,48.69976359338061,NA
77562,Harris County,TX,NA,91.96217494089835,NA
77571,Harris County,TX,NA,NA,56.83453237410072
77642,Jefferson County,TX,NA,91.25295508274232,NA
77656,Hardin County,TX,81.05263157894737,NA,NA
77665,Chambers County,TX,NA,90.0709219858156,NA
78006,Kendall County,TX,NA,58.86524822695035,NA
78046,Webb County,TX,17.05263157894737,NA,NA
78124,Guadalupe County,TX,NA,96.6903073286052,NA
78245,Bexar County,TX,NA,52.95508274231678,NA
78251,Bexar County,TX,54.736842105263165,NA,NA
78380,Nueces County,TX,NA,71.63120567375887,NA
78411,Nueces County,TX,55.57894736842105,NA,NA
78413,Nueces County,TX,NA,NA,67.98561151079137
78520,Cameron County,TX,NA,29.314420803782504,NA
78521,Cameron County,TX,33.89473684210526,NA,NA
78539,Hidalgo County,TX,NA,NA,52.87769784172662
78577,Hidalgo County,TX,29.263157894736842,NA,NA
78611,Burnet County,TX,NA,NA,15.467625899280577
78633,Williamson County,TX,NA,2.3640661938534278,NA
78666,Hays County,TX,28.000000000000004,NA,NA
78942,Lee County,TX,NA,95.27186761229315,NA
79404,Lubbock County,TX,74.73684210526315,NA,NA
79605,Taylor County,TX,39.78947368421053,NA,NA
79606,Taylor County,TX,NA,NA,33.45323741007194
79705,Midland County,TX,NA,35.9338061465721,NA
79714,Andrews County,TX,NA,91.48936170212765,NA
79761,Ector County,TX,NA,58.156028368794324,NA
79930,El Paso County,TX,NA,76.12293144208037,NA
79934,El Paso County,TX,79.78947368421052,NA,NA
79936,El Paso County,TX,NA,21.04018912529551,NA
84009,Salt Lake County,UT,NA,62.4113475177305,NA
84040,Davis County,UT,NA,87.70685579196218,NA
84074,Tooele County,UT,NA,NA,30.575539568345324
84111,Salt Lake County,UT,NA,NA,98.92086330935251
84115,Salt Lake County,UT,39.36842105263158,NA,NA
84319,Cache County,UT,92.21052631578948,NA,NA
84321,Cache County,UT,NA,74.23167848699764,NA
05403,Chittenden County,VT,NA,NA,30.215827338129497
05446,Chittenden County,VT,61.473684210526315,NA,NA
20175,Loudoun County,VA,69.26315789473684,NA,NA
20194,Fairfax County,VA,88.42105263157895,NA,NA
22032,Fairfax County,VA,62.73684210526316,NA,NA
22182,Fairfax County,VA,NA,NA,84.17266187050359
22206,Arlington County,VA,57.263157894736835,NA,NA
22546,Caroline County,VA,70.94736842105263,NA,NA
22556,Stafford County,VA,NA,NA,97.84172661870504
22903,Charlottesville city,VA,NA,22.458628841607563,NA
23185,James City County,VA,NA,NA,24.100719424460433
23188,James City County,VA,NA,NA,1.4388489208633095
23235,Chesterfield County,VA,NA,NA,23.021582733812952
23434,Suffolk city,VA,17.263157894736842,NA,NA
23462,Virginia Beach city,VA,19.157894736842103,NA,NA
23513,Norfolk city,VA,NA,33.80614657210402,NA
23851,Franklin city,VA,NA,54.60992907801418,NA
24224,Russell County,VA,NA,98.10874704491725,NA
24319,Smyth County,VA,66.52631578947368,NA,NA
24401,Staunton city,VA,NA,8.983451536643026,NA
98004,King County,WA,NA,NA,40.28776978417266
98038,King County,WA,64.84210526315789,NA,NA
98075,King County,WA,NA,76.8321513002364,NA
98188,King County,WA,NA,58.392434988179666,NA
98292,Snohomish County,WA,NA,41.843971631205676,NA
98311,Kitsap County,WA,91.36842105263158,NA,NA
98391,Pierce County,WA,NA,47.99054373522459,NA
98418,Pierce County,WA,NA,NA,97.12230215827337
98550,Grays Harbor County,WA,NA,76.59574468085107,NA
98632,Cowlitz County,WA,NA,NA,2.5179856115107913
98665,Clark County,WA,80.21052631578948,NA,NA
98671,Clark County,WA,82.3157894736842,NA,NA
98902,Yakima County,WA,NA,26.95035460992908,NA
99212,Spokane County,WA,NA,NA,78.41726618705036
99350,Benton County,WA,NA,89.12529550827422,NA
20010,District of Columbia,DC,NA,50.35460992907801,NA
25064,Kanawha County,WV,50.94736842105263,NA,NA
25213,Putnam County,WV,NA,92.19858156028369,NA
25312,Kanawha County,WV,NA,54.60992907801418,NA
25403,Berkeley County,WV,NA,73.99527186761229,NA
25427,Berkeley County,WV,NA,NA,74.82014388489209
25506,Lincoln County,WV,NA,NA,85.25179856115108
25670,Mingo County,WV,NA,NA,87.76978417266187
25701,Cabell County,WV,17.473684210526315,NA,NA
25704,Wayne County,WV,NA,NA,82.01438848920863
26003,Ohio County,WV,5.473684210526316,NA,NA
26034,Hancock County,WV,88.8421052631579,NA,NA
26037,Brooke County,WV,NA,69.97635933806147,NA
26062,Hancock County,WV,NA,NA,10.071942446043165
26187,Wood County,WV,NA,56.02836879432624,NA
26505,Monongalia County,WV,11.368421052631579,NA,NA
53012,Ozaukee County,WI,NA,NA,32.014388489208635
53022,Washington County,WI,63.78947368421053,NA,NA
53029,Waukesha County,WI,NA,53.42789598108747,NA
53045,Waukesha County,WI,NA,NA,21.58273381294964
53073,Sheboygan County,WI,94.10526315789474,NA,NA
53089,Waukesha County,WI,63.578947368421055,NA,NA
53095,Washington County,WI,51.78947368421053,21.513002364066196,NA
53110,Milwaukee County,WI,NA,72.57683215130024,NA
53121,Walworth County,WI,NA,69.50354609929079,NA
53132,Milwaukee County,WI,NA,NA,13.309352517985612
53142,Kenosha County,WI,NA,87.2340425531915,NA
53151,Waukesha County,WI,41.05263157894737,NA,NA
53154,Milwaukee County,WI,21.47368421052632,NA,NA
53158,Kenosha County,WI,NA,68.08510638297872,NA
53172,Milwaukee County,WI,NA,43.02600472813239,NA
53188,Waukesha County,WI,NA,NA,30.575539568345324
53206,Milwaukee County,WI,NA,12.056737588652481,NA
53211,Milwaukee County,WI,NA,25.295508274231675,NA
53225,Milwaukee County,WI,NA,94.79905437352247,NA
53546,Rock County,WI,49.473684210526315,NA,6.83453237410072
53581,Richland County,WI,NA,83.92434988179669,NA
53593,Dane County,WI,NA,NA,62.589928057553955
53704,Dane County,WI,12.421052631578949,NA,NA
53713,Dane County,WI,78.73684210526316,NA,NA
53719,Dane County,WI,NA,NA,87.05035971223022
54455,Marathon County,WI,69.05263157894737,NA,NA
54603,La Crosse County,WI,78.94736842105263,NA,NA
54806,Ashland County,WI,NA,81.08747044917257,NA
54829,Barron County,WI,NA,NA,89.20863309352518
54901,Winnebago County,WI,NA,29.078014184397162,NA
54914,Outagamie County,WI,91.78947368421052,NA,NA
54915,Outagamie County,WI,NA,51.06382978723404,NA
82401,Washakie County,WY,NA,NA,89.92805755395683
82435,Park County,WY,NA,72.81323877068559,NA
