ZipCode,county,state,Adult,Retirement,Geriatric
35007,Shelby County,AL,44.738084001887685,NA,NA
35020,Jefferson County,AL,68.00377536573856,23.472474289171206,NA
35022,Jefferson County,AL,32.65691363850873,NA,NA
35033,Cullman County,AL,NA,97.39866908650939,NA
35045,Chilton County,AL,55.59226050023596,NA,NA
35055,Cullman County,AL,NA,59.70961887477314,NA
35058,Cullman County,AL,67.62623879188297,NA,NA
35071,Jefferson County,AL,66.25766871165644,NA,NA
35072,Coosa County,AL,NA,77.13248638838476,NA
35080,Shelby County,AL,77.772534214252,NA,NA
35111,Tuscaloosa County,AL,39.54695611137329,78.76588021778585,NA
35115,Shelby County,AL,82.7748938178386,NA,NA
35120,St. Clair County,AL,53.610193487494094,NA,NA
35121,Blount County,AL,56.06418121755545,NA,NA
35124,Shelby County,AL,57.52713544124587,NA,NA
35125,St. Clair County,AL,86.26710712600283,87.29582577132487,NA
35160,Talladega County,AL,59.462010382255784,NA,NA
35173,Jefferson County,AL,83.71873525247759,NA,NA
35180,Jefferson County,AL,NA,64.7307924984876,82.91139240506328
35211,Jefferson County,AL,39.64134025483719,NA,NA
35213,Jefferson County,AL,NA,61.04053236539625,NA
35214,Jefferson County,AL,58.329400660689004,NA,NA
35223,Jefferson County,AL,85.4648419065597,NA,NA
35226,Jefferson County,AL,70.7409155261916,NA,NA
35242,Shelby County,AL,25.719679093912223,NA,NA
35404,Tuscaloosa County,AL,11.845210004719208,26.37628554143981,NA
35405,Tuscaloosa County,AL,5.85181689476168,NA,44.09282700421941
35406,Tuscaloosa County,AL,66.77678150070788,86.26739261947974,NA
35453,Tuscaloosa County,AL,NA,87.05384150030248,NA
35473,Tuscaloosa County,AL,75.6488909863143,NA,NA
35475,Tuscaloosa County,AL,43.84143463898065,NA,NA
35476,Tuscaloosa County,AL,NA,81.97217180883243,NA
35501,Walker County,AL,NA,81.0042347247429,NA
35550,Walker County,AL,NA,93.64791288566244,NA
35563,Marion County,AL,86.03114676734309,NA,NA
35578,Walker County,AL,NA,81.73018753781004,NA
35579,Walker County,AL,97.6875884851345,NA,NA
35601,Morgan County,AL,NA,10.405323653962492,NA
35603,Morgan County,AL,12.364322793770647,25.529340592861466,NA
35614,Limestone County,AL,86.64464369985842,NA,NA
35633,Lauderdale County,AL,75.5545068428504,NA,NA
35640,Morgan County,AL,NA,29.58257713248639,NA
35650,Lawrence County,AL,NA,36.47912885662432,NA
35652,Lauderdale County,AL,88.76828692779613,NA,NA
35660,Colbert County,AL,63.85087305332704,NA,NA
35661,Colbert County,AL,NA,88.32425892316999,NA
35674,Colbert County,AL,28.504011326097217,41.74228675136116,NA
35750,Madison County,AL,78.10287871637564,NA,NA
35756,Limestone County,AL,NA,98.79007864488808,NA
35758,Madison County,AL,NA,32.60738052026618,32.48945147679325
35761,Madison County,AL,68.80604058518169,NA,NA
35773,Madison County,AL,60.45304388862671,NA,NA
35801,Madison County,AL,NA,25.83182093163944,NA
35803,Madison County,AL,NA,NA,31.0126582278481
35805,Madison County,AL,68.47569608305804,NA,NA
35811,Madison County,AL,34.261444077395,NA,NA
35901,Etowah County,AL,28.22085889570552,NA,NA
35903,Etowah County,AL,47.61680037753657,NA,NA
35906,Etowah County,AL,84.09627182633318,72.1113127646703,NA
35950,Marshall County,AL,NA,53.53901996370236,NA
35951,Marshall County,AL,58.754129306276546,NA,NA
35952,Etowah County,AL,81.73666823973572,NA,NA
35953,St. Clair County,AL,NA,87.90078644888082,NA
35956,Etowah County,AL,NA,92.19600725952813,NA
35957,Marshall County,AL,69.41953751769702,NA,NA
35960,Cherokee County,AL,NA,74.22867513611615,NA
35967,DeKalb County,AL,NA,65.09376890502118,NA
35976,Marshall County,AL,NA,NA,89.87341772151899
36025,Elmore County,AL,94.52571967909391,NA,NA
36064,Montgomery County,AL,89.71212836243511,NA,NA
36067,Autauga County,AL,NA,41.37931034482759,NA
36078,Elmore County,AL,46.578574799433696,NA,NA
36092,Elmore County,AL,39.40537989617744,NA,NA
36110,Montgomery County,AL,NA,83.66606170598911,NA
36111,Montgomery County,AL,56.34733364794714,NA,NA
36116,Montgomery County,AL,NA,42.83121597096189,NA
36117,Montgomery County,AL,NA,67.39261947973382,NA
36206,Calhoun County,AL,67.62623879188297,NA,NA
36301,Houston County,AL,44.03020292590845,11.494252873563218,NA
36303,Houston County,AL,17.93298725814063,34.11978221415608,81.0126582278481
36305,Houston County,AL,51.439358187824446,NA,NA
36330,Coffee County,AL,NA,28.735632183908045,51.26582278481012
36351,Coffee County,AL,NA,98.30611010284332,NA
36360,Dale County,AL,40.537989617744216,66.66666666666666,NA
36420,Covington County,AL,47.05049551675319,65.45674531155476,NA
36426,Escambia County,AL,49.97640396413402,NA,NA
36467,Covington County,AL,66.58801321378009,NA,NA
36532,Baldwin County,AL,NA,72.0508166969147,25.738396624472575
36535,Baldwin County,AL,NA,15.910465819721717,NA
36541,Mobile County,AL,NA,92.74047186932849,NA
36542,Baldwin County,AL,72.43983010854177,85.90441621294616,NA
36544,Mobile County,AL,76.35677206229353,NA,NA
36553,Washington County,AL,98.39546956111374,NA,NA
36567,Baldwin County,AL,80.98159509202453,NA,NA
36571,Mobile County,AL,63.61491269466729,NA,NA
36582,Mobile County,AL,NA,91.77253478523896,NA
36604,Mobile County,AL,83.0580462482303,NA,NA
36605,Mobile County,AL,33.12883435582822,NA,NA
36606,Mobile County,AL,57.05521472392638,NA,NA
36611,Mobile County,AL,94.47852760736197,98.00362976406534,NA
36617,Mobile County,AL,NA,NA,67.51054852320675
36619,Mobile County,AL,70.78810759792354,NA,NA
36693,Mobile County,AL,NA,56.80580762250453,NA
36695,Mobile County,AL,27.654554034922135,NA,NA
36756,Perry County,AL,90.5615856536102,NA,NA
36784,Clarke County,AL,81.92543652666352,NA,NA
36863,Chambers County,AL,NA,NA,77.0042194092827
36870,Lee County,AL,NA,NA,72.57383966244726
36874,Lee County,AL,NA,91.89352692075015,NA
99517,Anchorage Municipality,AK,56.1113732892874,NA,NA
99701,Fairbanks North Star Borough,AK,61.39688532326569,NA,NA
99709,Fairbanks North Star Borough,AK,NA,48.880822746521474,NA
99737,Southeast Fairbanks Census Area,AK,99.15054270882491,NA,NA
99835,Sitka City and Borough,AK,52.855120339782914,NA,NA
99901,Ketchikan Gateway Borough,AK,79.23548843794242,NA,NA
85008,Maricopa County,AZ,9.674374705049551,NA,NA
85012,Maricopa County,AZ,81.40632373761208,NA,NA
85013,Maricopa County,AZ,42.80320906087777,NA,NA
85018,Maricopa County,AZ,NA,32.97035692679976,NA
85022,Maricopa County,AZ,15.10146295422369,NA,NA
85027,Maricopa County,AZ,35.06370929683813,89.35269207501513,NA
85028,Maricopa County,AZ,NA,84.51300665456746,NA
85029,Maricopa County,AZ,17.64983482774894,NA,NA
85032,Maricopa County,AZ,11.27890514393582,NA,NA
85041,Maricopa County,AZ,59.886739027843326,NA,NA
85042,Maricopa County,AZ,20.670127418593676,NA,NA
85053,Maricopa County,AZ,NA,55.656382335148216,NA
85086,Maricopa County,AZ,NA,69.69147005444646,NA
85120,Pinal County,AZ,NA,81.24621899576528,NA
85123,Pinal County,AZ,65.4554034922133,NA,NA
85142,Maricopa County,AZ,30.061349693251532,20.568663036902603,NA
85194,Pinal County,AZ,NA,88.02177858439202,NA
85201,Maricopa County,AZ,10.146295422369041,NA,NA
85207,Maricopa County,AZ,NA,21.536600120992137,NA
85209,Maricopa County,AZ,NA,19.1167574107683,NA
85212,Maricopa County,AZ,NA,59.64912280701754,NA
85215,Maricopa County,AZ,76.30957999056159,NA,NA
85248,Maricopa County,AZ,NA,23.290986085904418,NA
85251,Maricopa County,AZ,33.223218499292116,NA,NA
85253,Maricopa County,AZ,92.7796130250118,NA,NA
85254,Maricopa County,AZ,NA,26.678765880217785,NA
85258,Maricopa County,AZ,NA,49.788263762855415,NA
85284,Maricopa County,AZ,88.34355828220859,NA,NA
85296,Maricopa County,AZ,27.041057102406796,NA,NA
85297,Maricopa County,AZ,NA,79.491833030853,NA
85302,Maricopa County,AZ,NA,NA,54.85232067510548
85304,Maricopa County,AZ,NA,60.67755595886267,NA
85323,Maricopa County,AZ,26.050023596035864,NA,NA
85331,Maricopa County,AZ,NA,46.88445251058681,NA
85335,Maricopa County,AZ,60.40585181689476,NA,NA
85339,Maricopa County,AZ,15.950920245398773,NA,NA
85365,Yuma County,AZ,NA,15.245009074410163,NA
85367,Yuma County,AZ,NA,44.827586206896555,NA
85375,Maricopa County,AZ,79.56583294006607,NA,11.814345991561181
85379,Maricopa County,AZ,24.492685228881548,NA,NA
85382,Maricopa County,AZ,NA,90.62310949788264,NA
85392,Maricopa County,AZ,47.66399244926852,NA,NA
85395,Maricopa County,AZ,NA,NA,69.19831223628692
85396,Maricopa County,AZ,NA,81.12522686025409,NA
85501,Gila County,AZ,68.19254365266634,NA,NA
85541,Gila County,AZ,43.13355356300141,NA,NA
85614,Pima County,AZ,NA,NA,2.9535864978902953
85615,Cochise County,AZ,NA,74.9546279491833,NA
85648,Santa Cruz County,AZ,73.0533270410571,NA,NA
85650,Cochise County,AZ,NA,54.567453115547494,NA
85704,Pima County,AZ,NA,77.55595886267392,NA
85719,Pima County,AZ,NA,32.002419842710225,NA
85730,Pima County,AZ,20.622935346861727,NA,NA
85739,Pinal County,AZ,NA,22.20205686630369,NA
85741,Pima County,AZ,NA,NA,86.49789029535864
85749,Pima County,AZ,71.35441245870695,NA,NA
85757,Pima County,AZ,20.858895705521473,NA,NA
85937,Navajo County,AZ,77.53657385559227,NA,NA
86004,Coconino County,AZ,22.227465785747995,NA,NA
86045,Coconino County,AZ,NA,33.69630973986691,NA
86046,Coconino County,AZ,89.57055214723927,NA,NA
86301,Yavapai County,AZ,NA,22.867513611615244,NA
86303,Yavapai County,AZ,NA,36.7816091954023,NA
86314,Yavapai County,AZ,40.86833411986786,NA,10.970464135021098
86315,Yavapai County,AZ,NA,88.0822746521476,NA
86322,Yavapai County,AZ,44.83246814535158,NA,NA
86324,Yavapai County,AZ,97.4044360547428,NA,NA
86336,Yavapai County,AZ,NA,NA,67.51054852320675
86406,Mohave County,AZ,42.378480415290234,73.5632183908046,NA
86409,Mohave County,AZ,NA,21.113127646702964,NA
86413,Mohave County,AZ,NA,NA,74.68354430379746
86429,Mohave County,AZ,NA,54.68844525105868,NA
86442,Mohave County,AZ,NA,7.078039927404718,NA
86503,Apache County,AZ,NA,45.251058681185725,NA
71602,Jefferson County,AR,55.30910806984427,NA,NA
71603,Jefferson County,AR,27.701746106654085,NA,NA
71701,Ouachita County,AR,NA,49.122807017543856,NA
71730,Union County,AR,40.39641340254837,NA,NA
71753,Columbia County,AR,NA,61.82698124621899,NA
71822,Little River County,AR,NA,69.2679975801573,NA
71832,Sevier County,AR,NA,73.32123411978222,NA
71913,Garland County,AR,NA,57.4107683000605,NA
71923,Clark County,AR,NA,NA,83.96624472573839
71957,Montgomery County,AR,NA,97.03569267997581,NA
72007,Lonoke County,AR,NA,84.99697519661223,NA
72010,White County,AR,72.8645587541293,NA,NA
72015,Saline County,AR,46.86172722982539,NA,NA
72022,Saline County,AR,NA,58.43920145190563,NA
72023,Lonoke County,AR,52.99669655497876,NA,NA
72058,Faulkner County,AR,76.07361963190185,NA,NA
72067,Cleburne County,AR,NA,96.61222020568663,NA
72081,White County,AR,81.26474752241623,81.42770719903206,NA
72118,Pulaski County,AR,56.252949504483254,NA,NA
72143,White County,AR,63.2373761208117,69.81246218995766,NA
72160,Arkansas County,AR,NA,91.83303085299455,NA
72173,Faulkner County,AR,NA,87.41681790683606,NA
72204,Pulaski County,AR,44.974044360547424,NA,NA
72206,Pulaski County,AR,NA,NA,51.89873417721519
72210,Pulaski County,AR,84.56819254365267,NA,NA
72211,Pulaski County,AR,NA,74.77313974591652,NA
72223,Pulaski County,AR,NA,57.04779189352692,NA
72315,Mississippi County,AR,73.4308636149127,NA,NA
72396,Cross County,AR,82.39735724398301,88.2637628554144,NA
72401,Craighead County,AR,NA,7.562008469449485,NA
72404,Craighead County,AR,NA,69.38898971566849,NA
72442,Mississippi County,AR,97.97074091552619,NA,NA
72454,Clay County,AR,NA,76.95099818511797,NA
72472,Poinsett County,AR,90.70316186880603,81.60919540229885,NA
72543,Cleburne County,AR,NA,NA,80.59071729957806
72576,Fulton County,AR,86.40868334119868,NA,NA
72601,Boone County,AR,NA,24.621899576527525,NA
72631,Carroll County,AR,NA,94.31336963097398,NA
72635,Baxter County,AR,99.43369513921661,NA,NA
72714,Benton County,AR,NA,86.93284936479128,85.65400843881856
72715,Benton County,AR,NA,NA,20.253164556962027
72736,Benton County,AR,99.29211892402077,NA,NA
72751,Benton County,AR,NA,94.1923774954628,NA
72758,Benton County,AR,52.619159981123175,NA,NA
72761,Benton County,AR,69.04200094384143,NA,NA
72764,Washington County,AR,NA,51.17967332123412,NA
72774,Washington County,AR,NA,NA,97.46835443037975
72830,Johnson County,AR,74.37470504955166,NA,NA
72858,Pope County,AR,99.6224634261444,NA,NA
72921,Crawford County,AR,NA,75.1361161524501,NA
72927,Logan County,AR,82.06701274185937,NA,NA
90012,Los Angeles County,CA,NA,NA,32.91139240506329
90013,Los Angeles County,CA,NA,NA,91.9831223628692
90016,Los Angeles County,CA,NA,16.817906836055656,NA
90022,Los Angeles County,CA,NA,39.92740471869328,NA
90025,Los Angeles County,CA,NA,65.27525710828796,NA
90035,Los Angeles County,CA,NA,NA,27.004219409282697
90037,Los Angeles County,CA,NA,34.96672716273442,NA
90039,Los Angeles County,CA,NA,74.34966727162734,NA
90044,Los Angeles County,CA,NA,13.188142770719905,NA
90045,Los Angeles County,CA,56.77206229353469,NA,NA
90049,Los Angeles County,CA,NA,NA,21.308016877637133
90064,Los Angeles County,CA,NA,44.22262552934059,NA
90066,Los Angeles County,CA,NA,NA,28.48101265822785
90068,Los Angeles County,CA,NA,95.16031457955233,NA
90230,Los Angeles County,CA,NA,42.5892316999395,50.210970464135016
90240,Los Angeles County,CA,NA,65.45674531155476,NA
90242,Los Angeles County,CA,NA,52.32909860859044,NA
90254,Los Angeles County,CA,NA,NA,86.28691983122363
90260,Los Angeles County,CA,NA,NA,98.10126582278481
90262,Los Angeles County,CA,NA,78.88687235329704,NA
90266,Los Angeles County,CA,NA,42.407743496672715,NA
90275,Los Angeles County,CA,NA,33.938294010889294,NA
90277,Los Angeles County,CA,NA,NA,55.48523206751055
90278,Los Angeles County,CA,53.987730061349694,NA,NA
90292,Los Angeles County,CA,67.10712600283154,NA,NA
90501,Los Angeles County,CA,42.09532798489854,52.69207501512402,NA
90504,Los Angeles County,CA,62.95422369042001,NA,NA
90505,Los Angeles County,CA,51.2977819726286,NA,NA
90604,Los Angeles County,CA,49.31571495988674,NA,NA
90620,Orange County,CA,NA,29.703569267997583,NA
90630,Orange County,CA,41.3874469089193,NA,39.029535864978904
90638,Los Angeles County,CA,47.994336951392164,NA,NA
90703,Los Angeles County,CA,79.14110429447852,NA,36.075949367088604
90717,Los Angeles County,CA,NA,59.588626739261954,NA
90744,Los Angeles County,CA,NA,53.96249243799153,NA
90745,Los Angeles County,CA,32.798489853704574,NA,NA
90802,Los Angeles County,CA,NA,63.036902601330915,NA
90803,Los Angeles County,CA,NA,74.34966727162734,NA
90805,Los Angeles County,CA,12.930627654554035,NA,NA
90808,Los Angeles County,CA,50.58990089664937,NA,NA
90810,Los Angeles County,CA,NA,81.06473079249848,NA
91001,Los Angeles County,CA,NA,NA,41.139240506329116
91024,Los Angeles County,CA,95.70552147239265,NA,NA
91104,Los Angeles County,CA,NA,45.31155474894132,NA
91107,Los Angeles County,CA,NA,75.43859649122807,NA
91201,Los Angeles County,CA,NA,63.58136721113128,NA
91206,Los Angeles County,CA,NA,NA,10.759493670886076
91304,Los Angeles County,CA,71.16564417177914,45.85601935874168,NA
91307,Los Angeles County,CA,NA,78.46339987900787,NA
91311,Los Angeles County,CA,NA,NA,60.970464135021096
91320,Ventura County,CA,NA,48.09437386569873,NA
91321,Los Angeles County,CA,NA,60.67755595886267,NA
91325,Los Angeles County,CA,NA,62.06896551724138,NA
91331,Los Angeles County,CA,33.55356300141577,NA,NA
91335,Los Angeles County,CA,24.68145351580934,NA,NA
91340,Los Angeles County,CA,56.913638508730536,NA,NA
91342,Los Angeles County,CA,15.243039169419536,NA,NA
91344,Los Angeles County,CA,NA,19.358741681790683,NA
91350,Los Angeles County,CA,NA,75.92256503327283,NA
91360,Ventura County,CA,81.02878716375649,NA,NA
91362,Ventura County,CA,NA,35.57168784029038,NA
91367,Los Angeles County,CA,NA,42.5892316999395,NA
91401,Los Angeles County,CA,59.32043416705993,63.278886872353304,NA
91406,Los Angeles County,CA,NA,NA,55.69620253164557
91601,Los Angeles County,CA,60.169891458235014,NA,NA
91604,Los Angeles County,CA,NA,83.12159709618875,NA
91607,Los Angeles County,CA,NA,72.77676950998185,NA
91701,San Bernardino County,CA,NA,76.89050211736237,NA
91709,San Bernardino County,CA,NA,NA,42.82700421940928
91710,San Bernardino County,CA,NA,13.974591651542651,NA
91732,Los Angeles County,CA,NA,24.258923169993952,NA
91737,San Bernardino County,CA,NA,93.76890502117362,NA
91744,Los Angeles County,CA,13.544124587069373,NA,NA
91745,Los Angeles County,CA,61.16092496460595,85.48094373865699,NA
91768,Los Angeles County,CA,37.18735252477583,NA,NA
91773,Los Angeles County,CA,67.57904672015101,NA,NA
91789,Los Angeles County,CA,NA,56.20084694494858,NA
91910,San Diego County,CA,NA,NA,44.303797468354425
91914,San Diego County,CA,NA,NA,89.24050632911393
91941,San Diego County,CA,NA,39.98790078644888,NA
91978,San Diego County,CA,NA,97.21718088324259,NA
92004,San Diego County,CA,NA,NA,98.52320675105484
92008,San Diego County,CA,NA,NA,42.616033755274266
92009,San Diego County,CA,NA,36.35813672111313,NA
92010,San Diego County,CA,NA,NA,84.81012658227847
92020,San Diego County,CA,16.328456819254367,NA,NA
92021,San Diego County,CA,58.282208588957054,63.2183908045977,NA
92024,San Diego County,CA,NA,38.59649122807017,NA
92037,San Diego County,CA,NA,76.76950998185119,NA
92040,San Diego County,CA,NA,20.326678765880217,66.87763713080169
92056,San Diego County,CA,NA,26.13430127041742,NA
92064,San Diego County,CA,NA,30.79249848759831,NA
92083,San Diego County,CA,NA,60.61705989110708,NA
92101,San Diego County,CA,NA,NA,39.45147679324894
92103,San Diego County,CA,NA,98.06412583182093,NA
92104,San Diego County,CA,53.42142520056631,29.219600725952816,NA
92108,San Diego County,CA,80.6512505899009,NA,NA
92109,San Diego County,CA,63.99244926852289,50.75620084694494,NA
92110,San Diego County,CA,50.353940537989615,NA,NA
92111,San Diego County,CA,NA,45.674531155474895,NA
92115,San Diego County,CA,25.530910806984426,NA,NA
92117,San Diego County,CA,49.646059462010385,NA,NA
92122,San Diego County,CA,NA,NA,52.95358649789029
92201,Riverside County,CA,NA,45.91651542649728,NA
92241,Riverside County,CA,NA,93.04295220810647,NA
92243,Imperial County,CA,NA,24.500907441016334,NA
92252,San Bernardino County,CA,68.09815950920245,78.0399274047187,NA
92253,Riverside County,CA,38.93345917885795,NA,NA
92264,Riverside County,CA,69.89145823501651,NA,NA
92270,Riverside County,CA,77.34780556866447,NA,NA
92276,Riverside County,CA,NA,78.0399274047187,NA
92284,San Bernardino County,CA,20.48135913166588,NA,NA
92307,San Bernardino County,CA,NA,50.75620084694494,NA
92335,San Bernardino County,CA,6.937234544596508,NA,NA
92336,San Bernardino County,CA,NA,12.280701754385964,NA
92342,San Bernardino County,CA,97.4044360547428,NA,NA
92376,San Bernardino County,CA,6.323737612081171,NA,NA
92399,San Bernardino County,CA,NA,51.482153660012095,NA
92404,San Bernardino County,CA,12.647475224162342,NA,NA
92407,San Bernardino County,CA,13.260972156677678,44.52510586811857,NA
92410,San Bernardino County,CA,NA,24.198427102238355,NA
92508,Riverside County,CA,NA,70.41742286751361,NA
92530,Riverside County,CA,28.268050967437468,NA,NA
92543,Riverside County,CA,85.3704577630958,NA,NA
92545,Riverside County,CA,35.91316658801321,NA,NA
92555,Riverside County,CA,NA,60.193587416817905,NA
92563,Riverside County,CA,26.663520528551203,NA,NA
92570,Riverside County,CA,35.81878244454931,NA,NA
92571,Riverside County,CA,33.55356300141577,NA,NA
92586,Riverside County,CA,NA,NA,24.894514767932492
92603,Orange County,CA,80.22652194431336,NA,NA
92614,Orange County,CA,NA,57.71324863883848,NA
92620,Orange County,CA,NA,NA,49.36708860759494
92626,Orange County,CA,NA,38.898971566848154,NA
92627,Orange County,CA,15.337423312883436,NA,NA
92629,Orange County,CA,67.90939122227466,34.84573502722323,NA
92637,Orange County,CA,NA,62.794918330308526,NA
92646,Orange County,CA,20.05663048607834,NA,NA
92647,Orange County,CA,16.375648890986312,NA,NA
92648,Orange County,CA,84.89853704577631,NA,19.62025316455696
92649,Orange County,CA,48.18310523831996,59.95160314579552,NA
92657,Orange County,CA,NA,NA,93.0379746835443
92662,Orange County,CA,NA,NA,87.9746835443038
92663,Orange County,CA,72.58140632373761,NA,NA
92672,Orange County,CA,60.45304388862671,NA,NA
92677,Orange County,CA,NA,NA,22.151898734177212
92683,Orange County,CA,12.317130722038698,NA,NA
92688,Orange County,CA,NA,67.33212341197822,NA
92691,Orange County,CA,45.68192543652667,NA,NA
92692,Orange County,CA,NA,NA,9.282700421940929
92708,Orange County,CA,NA,NA,22.9957805907173
92804,Orange County,CA,10.618216139688533,NA,NA
92807,Orange County,CA,NA,NA,43.67088607594937
92869,Orange County,CA,53.27984898537046,NA,NA
92870,Orange County,CA,30.48607833883907,NA,NA
92879,Riverside County,CA,NA,NA,62.447257383966246
92880,Riverside County,CA,NA,50.33272837265578,NA
93060,Ventura County,CA,30.438886267107122,NA,NA
93063,Ventura County,CA,60.97215667767814,19.72171808832426,NA
93230,Kings County,CA,43.086361491269464,11.070780399274046,NA
93245,Kings County,CA,55.875412930627654,65.21476104053237,NA
93247,Tulare County,CA,71.96790939122228,NA,NA
93257,Tulare County,CA,NA,16.696914700544465,NA
93274,Tulare County,CA,4.200094384143464,NA,NA
93305,Kern County,CA,36.14912694667296,NA,NA
93306,Kern County,CA,46.2010382255781,32.002419842710225,NA
93307,Kern County,CA,9.815950920245399,12.704174228675136,NA
93311,Kern County,CA,55.120339782916474,53.478523895946765,NA
93312,Kern County,CA,32.562529495044835,38.173018753781,NA
93313,Kern County,CA,NA,47.368421052631575,NA
93314,Kern County,CA,73.99716847569609,NA,NA
93401,San Luis Obispo County,CA,49.551675318546486,NA,NA
93402,San Luis Obispo County,CA,NA,73.07924984875983,NA
93436,Santa Barbara County,CA,39.830108541764986,NA,13.924050632911392
93455,Santa Barbara County,CA,25.672487022180274,NA,12.869198312236287
93458,Santa Barbara County,CA,10.948560641812175,60.91954022988506,NA
93463,Santa Barbara County,CA,NA,95.22081064730793,NA
93536,Los Angeles County,CA,NA,46.46098003629764,NA
93551,Los Angeles County,CA,47.33364794714488,50.27223230490018,NA
93555,Kern County,CA,68.09815950920245,NA,NA
93560,Kern County,CA,70.59933931099576,NA,NA
93561,Kern County,CA,85.98395469561115,NA,NA
93611,Fresno County,CA,63.42614440773951,28.31215970961887,NA
93614,Madera County,CA,NA,77.31397459165154,NA
93619,Fresno County,CA,35.67720622935347,70.17543859649122,NA
93636,Madera County,CA,82.91647003303446,NA,NA
93637,Madera County,CA,58.046248230297316,54.08348457350273,58.438818565400844
93703,Fresno County,CA,37.75365738555922,NA,NA
93711,Fresno County,CA,NA,30.913490623109496,NA
93726,Fresno County,CA,NA,74.10768300060496,NA
93730,Fresno County,CA,86.17272298253893,NA,NA
93927,Monterey County,CA,NA,NA,97.25738396624473
94010,San Mateo County,CA,45.06842850401133,NA,NA
94015,San Mateo County,CA,NA,NA,3.375527426160337
94022,Santa Clara County,CA,NA,75.19661222020568,NA
94030,San Mateo County,CA,NA,55.59588626739262,NA
94040,Santa Clara County,CA,NA,71.86932849364791,NA
94061,San Mateo County,CA,NA,96.00725952813067,NA
94062,San Mateo County,CA,NA,76.22504537205081,NA
94066,San Mateo County,CA,NA,NA,12.236286919831224
94086,Santa Clara County,CA,NA,71.20387174833635,NA
94102,San Francisco County,CA,5.521472392638037,NA,NA
94109,San Francisco County,CA,22.41623407267579,37.628554143980644,NA
94118,San Francisco County,CA,75.932043416706,28.433151845130066,NA
94123,San Francisco County,CA,56.44171779141104,NA,59.70464135021098
94131,San Francisco County,CA,NA,NA,60.75949367088608
94301,Santa Clara County,CA,NA,84.08953418027828,NA
94306,Santa Clara County,CA,NA,63.58136721113128,NA
94404,San Mateo County,CA,NA,NA,41.561181434599156
94501,Alameda County,CA,NA,38.294010889292196,NA
94521,Contra Costa County,CA,NA,33.57531760435572,NA
94533,Solano County,CA,17.64983482774894,NA,NA
94538,Alameda County,CA,NA,37.99153055051422,NA
94544,Alameda County,CA,NA,8.408953418027828,NA
94550,Alameda County,CA,41.05710240679566,NA,NA
94558,Napa County,CA,NA,26.92075015124017,NA
94559,Napa County,CA,55.781028787163756,NA,NA
94560,Alameda County,CA,47.19207173194903,NA,NA
94563,Contra Costa County,CA,81.73666823973572,92.01451905626135,NA
94568,Alameda County,CA,NA,59.04416212946158,NA
94574,Napa County,CA,NA,82.75862068965517,NA
94577,Alameda County,CA,NA,27.465214761040535,NA
94587,Alameda County,CA,NA,16.45493042952208,NA
94588,Alameda County,CA,NA,68.23956442831216,NA
94590,Solano County,CA,22.652194431335534,NA,NA
94591,Solano County,CA,NA,33.03085299455535,NA
94597,Contra Costa County,CA,NA,69.75196612220206,NA
94605,Alameda County,CA,18.782444549315716,NA,NA
94611,Alameda County,CA,NA,17.36237144585602,NA
94612,Alameda County,CA,NA,77.9189352692075,NA
94705,Alameda County,CA,NA,86.44888082274652,NA
94707,Alameda County,CA,95.23360075507314,NA,NA
94804,Contra Costa County,CA,NA,36.29764065335753,NA
94925,Marin County,CA,91.78857951864087,NA,NA
94941,Marin County,CA,66.91835771590374,NA,NA
94954,Sonoma County,CA,42.850401132609726,27.52571082879613,NA
94965,Marin County,CA,NA,74.59165154264973,NA
95003,Santa Cruz County,CA,NA,NA,62.236286919831215
95020,Santa Clara County,CA,NA,NA,52.320675105485236
95023,San Benito County,CA,22.085889570552148,NA,NA
95050,Santa Clara County,CA,63.3317602642756,55.11191772534785,NA
95076,Santa Cruz County,CA,14.67673430863615,NA,NA
95122,Santa Clara County,CA,NA,42.34724742891712,NA
95123,Santa Clara County,CA,31.429919773478055,NA,NA
95124,Santa Clara County,CA,NA,31.33696309739867,NA
95125,Santa Clara County,CA,40.96271826333176,16.031457955232913,NA
95132,Santa Clara County,CA,70.9296838131194,NA,NA
95207,San Joaquin County,CA,15.903728173666822,NA,NA
95209,San Joaquin County,CA,NA,51.90562613430127,NA
95210,San Joaquin County,CA,NA,55.35390199637023,NA
95240,San Joaquin County,CA,NA,72.53478523895947,NA
95242,San Joaquin County,CA,NA,NA,50.63291139240506
95252,Calaveras County,CA,77.39499764039641,NA,NA
95320,San Joaquin County,CA,NA,84.81548699334543,NA
95330,San Joaquin County,CA,NA,NA,90.29535864978902
95337,San Joaquin County,CA,NA,70.78039927404718,NA
95340,Merced County,CA,29.400660689004248,NA,NA
95350,Stanislaus County,CA,NA,74.65214761040532,NA
95355,Stanislaus County,CA,6.1821613968853235,NA,NA
95356,Stanislaus County,CA,34.30863614912695,NA,NA
95363,Stanislaus County,CA,NA,74.8336358136721,NA
95370,Tuolumne County,CA,20.811703633789524,2.2988505747126435,NA
95380,Stanislaus County,CA,NA,15.12401693889897,NA
95386,Stanislaus County,CA,77.06465313827276,89.5946763460375,NA
95401,Sonoma County,CA,50.87305332704106,NA,43.88185654008439
95403,Sonoma County,CA,NA,32.90986085904416,NA
95404,Sonoma County,CA,NA,NA,23.839662447257385
95405,Sonoma County,CA,68.4285040113261,NA,NA
95409,Sonoma County,CA,NA,NA,50.84388185654009
95422,Lake County,CA,53.09108069844266,46.27949183303085,NA
95448,Sonoma County,CA,66.96554978763568,NA,NA
95451,Lake County,CA,71.87352524775838,NA,NA
95460,Mendocino County,CA,NA,92.4379915305505,NA
95472,Sonoma County,CA,76.40396413402549,NA,NA
95482,Mendocino County,CA,63.048607833883906,NA,NA
95490,Mendocino County,CA,69.18357715903728,NA,NA
95531,Del Norte County,CA,NA,NA,34.810126582278485
95621,Sacramento County,CA,36.5738555922605,NA,NA
95624,Sacramento County,CA,NA,19.84271022383545,NA
95628,Sacramento County,CA,NA,NA,26.79324894514768
95667,El Dorado County,CA,25.81406323737612,2.601330913490623,NA
95670,Sacramento County,CA,27.79613025011798,NA,27.637130801687764
95678,Placer County,CA,42.66163284568192,NA,61.39240506329114
95683,Sacramento County,CA,NA,93.40592861464005,NA
95687,Solano County,CA,NA,NA,24.68354430379747
95695,Yolo County,CA,60.35865974516281,NA,NA
95746,Placer County,CA,74.28032090608778,NA,NA
95758,Sacramento County,CA,NA,40.77434966727162,NA
95776,Yolo County,CA,NA,83.36358136721113,NA
95821,Sacramento County,CA,36.62104766399245,NA,NA
95822,Sacramento County,CA,NA,NA,22.362869198312236
95823,Sacramento County,CA,8.683341198678622,NA,NA
95828,Sacramento County,CA,NA,NA,34.38818565400844
95829,Sacramento County,CA,69.74988201982067,NA,NA
95838,Sacramento County,CA,NA,64.00483968542045,NA
95932,Colusa County,CA,NA,82.63762855414399,NA
95945,Nevada County,CA,NA,31.03448275862069,NA
95946,Nevada County,CA,NA,63.883847549909255,NA
95954,Butte County,CA,NA,64.91228070175438,NA
95969,Butte County,CA,25.24775837659273,4.839685420447671,NA
96080,Tehama County,CA,36.857008022652195,NA,NA
96094,Siskiyou County,CA,NA,95.34180278281912,NA
96150,El Dorado County,CA,NA,61.58499697519662,NA
80003,Jefferson County,CO,NA,49.9092558983666,NA
80005,Jefferson County,CO,NA,NA,70.25316455696202
80011,Arapahoe County,CO,5.285512033978292,NA,NA
80013,Arapahoe County,CO,7.126002831524304,16.878402903811253,NA
80015,Arapahoe County,CO,13.119395941481832,16.152450090744104,60.337552742616026
80016,Arapahoe County,CO,17.1307220386975,NA,NA
80020,Broomfield County,CO,38.36715431807456,NA,NA
80022,Adams County,CO,12.505899008966493,NA,NA
80033,Jefferson County,CO,43.27512977819726,NA,NA
80104,Douglas County,CO,49.079754601226995,NA,NA
80107,Elbert County,CO,NA,74.47065940713854,NA
80113,Arapahoe County,CO,52.571967909391226,NA,NA
80118,Douglas County,CO,98.72581406323737,NA,NA
80124,Douglas County,CO,58.6125530910807,80.27828191167575,NA
80128,Jefferson County,CO,52.33600755073148,NA,NA
80129,Douglas County,CO,68.57008022652195,NA,NA
80134,Douglas County,CO,20.198206701274184,NA,NA
80136,Adams County,CO,NA,99.87900786448881,NA
80205,Denver County,CO,9.013685700802265,NA,NA
80209,Denver County,CO,56.158565361019356,NA,NA
80210,Denver County,CO,NA,49.304295220810644,NA
80215,Jefferson County,CO,59.60358659745163,NA,NA
80216,Denver County,CO,NA,86.44888082274652,NA
80218,Denver County,CO,53.46861727229826,NA,NA
80219,Denver County,CO,66.82397357243983,NA,NA
80227,Jefferson County,CO,76.97026899480888,NA,NA
80228,Jefferson County,CO,74.89381783860311,NA,NA
80229,Adams County,CO,NA,35.99516031457955,NA
80230,Denver County,CO,88.29636621047663,NA,NA
80237,Denver County,CO,67.43747050495517,NA,NA
80241,Adams County,CO,NA,64.91228070175438,NA
80247,Arapahoe County,CO,NA,NA,70.67510548523207
80249,Denver County,CO,30.15573383671543,NA,NA
80301,Boulder County,CO,78.0556866446437,NA,82.70042194092827
80302,Boulder County,CO,91.55261915998112,NA,NA
80401,Jefferson County,CO,NA,43.496672716273444,NA
80421,Park County,CO,93.39310995752713,NA,NA
80487,Routt County,CO,NA,92.49848759830611,NA
80503,Boulder County,CO,NA,93.34543254688445,95.35864978902954
80504,Boulder County,CO,NA,18.814277071990322,NA
80526,Larimer County,CO,NA,26.55777374470659,NA
80528,Larimer County,CO,NA,67.69509981851179,NA
80538,Larimer County,CO,8.73053327041057,NA,NA
80549,Larimer County,CO,NA,90.26013309134906,NA
80602,Adams County,CO,40.20764511562058,51.36116152450091,NA
80621,Weld County,CO,87.06937234544596,74.71264367816092,NA
80634,Weld County,CO,NA,0.9074410163339384,8.227848101265822
80723,Morgan County,CO,NA,67.63460375075621,NA
80817,El Paso County,CO,46.2010382255781,NA,NA
80907,El Paso County,CO,NA,56.56382335148216,NA
80909,El Paso County,CO,18.829636621047662,NA,NA
80910,El Paso County,CO,NA,81.36721113127646,NA
80917,El Paso County,CO,54.97876356772062,NA,NA
80923,El Paso County,CO,54.695611137328925,NA,NA
81001,Pueblo County,CO,15.809344030202926,NA,NA
81004,Pueblo County,CO,19.5375176970269,NA,NA
81005,Pueblo County,CO,63.190184049079754,NA,NA
81147,Archuleta County,CO,NA,54.385964912280706,NA
81211,Chaffee County,CO,NA,NA,99.57805907172997
81301,La Plata County,CO,NA,35.329703569268,NA
81321,Montezuma County,CO,60.73619631901841,NA,NA
81401,Montrose County,CO,NA,NA,30.801687763713083
81501,Mesa County,CO,37.942425672487026,NA,NA
81504,Mesa County,CO,NA,50.635208711433755,68.77637130801688
81625,Moffat County,CO,NA,54.93042952208107,NA
06002,Hartford County,CT,71.1184521000472,NA,NA
06010,Hartford County,CT,1.4157621519584709,14.821536600120991,NA
06019,Hartford County,CT,NA,91.2885662431942,NA
06042,Hartford County,CT,NA,39.44343617664852,NA
06062,Hartford County,CT,NA,NA,61.81434599156118
06074,Hartford County,CT,48.7966021708353,NA,28.059071729957807
06106,Hartford County,CT,NA,73.6237144585602,NA
06110,Hartford County,CT,NA,86.08590441621294,NA
06111,Hartford County,CT,31.760264275601696,36.7211131276467,NA
06114,Hartford County,CT,NA,NA,68.14345991561181
06118,Hartford County,CT,83.57715903728173,NA,NA
06238,Tolland County,CT,NA,57.65275257108288,NA
06249,New London County,CT,NA,89.23169993950393,NA
06255,Windham County,CT,69.41953751769702,NA,NA
06401,New Haven County,CT,24.587069372345447,NA,NA
06405,New Haven County,CT,35.06370929683813,NA,NA
06417,Middlesex County,CT,99.33931099575271,NA,NA
06426,Middlesex County,CT,NA,94.67634603750756,NA
06450,New Haven County,CT,NA,8.287961282516637,NA
06451,New Haven County,CT,19.159981123171306,NA,NA
06457,Middlesex County,CT,24.823029731005192,NA,NA
06468,Fairfield County,CT,NA,72.41379310344827,NA
06473,New Haven County,CT,63.142991977347805,24.682395644283122,NA
06475,Middlesex County,CT,NA,54.325468844525105,NA
06478,New Haven County,CT,NA,58.68118572292801,NA
06484,Fairfield County,CT,29.49504483246815,NA,NA
06489,Hartford County,CT,24.539877300613497,NA,NA
06498,Middlesex County,CT,NA,80.7017543859649,NA
06511,New Haven County,CT,16.894761680037753,NA,NA
06512,New Haven County,CT,17.272298253893346,NA,15.18987341772152
06514,New Haven County,CT,83.38839075035393,25.710828796128247,NA
06519,New Haven County,CT,49.45729117508259,NA,NA
06614,Fairfield County,CT,51.1090136857008,NA,NA
06716,New Haven County,CT,57.621519584709766,NA,NA
06770,New Haven County,CT,18.593676262387916,NA,NA
06776,Litchfield County,CT,54.83718735252477,NA,NA
06790,Litchfield County,CT,NA,31.881427707199034,NA
06851,Fairfield County,CT,51.67531854648419,45.13006654567453,NA
06870,Fairfield County,CT,NA,91.40955837870538,NA
06877,Fairfield County,CT,NA,56.32183908045977,NA
19701,New Castle County,DE,21.613968853232656,12.401693889897157,NA
19702,New Castle County,DE,11.70363378952336,NA,NA
19707,New Castle County,DE,80.22652194431336,NA,NA
19711,New Castle County,DE,24.68145351580934,NA,NA
19720,New Castle County,DE,1.7461066540821142,NA,NA
19734,New Castle County,DE,70.9296838131194,NA,NA
19802,New Castle County,DE,NA,17.78584392014519,NA
19804,New Castle County,DE,22.463426144407737,NA,NA
19805,New Castle County,DE,NA,NA,32.278481012658226
19901,Kent County,DE,NA,NA,25.52742616033755
19904,Kent County,DE,NA,11.373260738052027,NA
19938,Kent County,DE,NA,NA,97.0464135021097
19939,Sussex County,DE,NA,NA,98.31223628691983
19956,Sussex County,DE,40.82114204813591,NA,NA
19958,Sussex County,DE,NA,2.661826981246219,45.358649789029535
19966,Sussex County,DE,NA,31.699939503932246,NA
19971,Sussex County,DE,65.12505899008967,NA,NA
19973,Sussex County,DE,58.7069372345446,NA,NA
19977,Kent County,DE,NA,38.53599516031458,NA
32003,Clay County,FL,52.14723926380368,NA,NA
32011,Nassau County,FL,NA,51.60314579552329,NA
32034,Nassau County,FL,44.407739499764034,NA,NA
32040,Baker County,FL,NA,76.16454930429522,NA
32043,Clay County,FL,68.3341198678622,NA,NA
32063,Baker County,FL,NA,NA,87.13080168776372
32068,Clay County,FL,NA,6.231094978826376,NA
32082,St. Johns County,FL,NA,23.95644283121597,NA
32084,St. Johns County,FL,23.596035865974514,NA,35.44303797468354
32097,Nassau County,FL,49.598867390278436,NA,NA
32127,Volusia County,FL,NA,32.30490018148821,NA
32164,Flagler County,FL,27.937706465313827,NA,NA
32168,Volusia County,FL,NA,27.707199032062917,30.168776371308013
32174,Volusia County,FL,NA,7.9249848759830614,NA
32176,Volusia County,FL,85.13449740443606,NA,NA
32195,Marion County,FL,95.56394525719679,NA,NA
32206,Duval County,FL,NA,16.999395039322444,NA
32216,Duval County,FL,14.20481359131666,NA,NA
32217,Duval County,FL,NA,39.806412583182095,NA
32219,Duval County,FL,38.93345917885795,NA,NA
32222,Duval County,FL,69.89145823501651,76.58802177858439,NA
32224,Duval County,FL,NA,71.26436781609196,NA
32225,Duval County,FL,23.124115148655026,97.82214156079854,NA
32226,Duval County,FL,37.89523360075508,NA,NA
32244,Duval County,FL,4.058518168947617,NA,NA
32246,Duval County,FL,11.892402076451155,17.422867513611614,NA
32258,Duval County,FL,NA,28.13067150635209,62.869198312236286
32259,St. Johns County,FL,38.08400188768287,30.61101028433152,NA
32266,Duval County,FL,96.17744218971212,NA,NA
32277,Duval County,FL,NA,71.44585601935874,NA
32405,Bay County,FL,21.142048135913168,23.109497882637626,NA
32444,Bay County,FL,NA,56.745311554748945,NA
32462,Washington County,FL,94.28975932043416,NA,NA
32466,Bay County,FL,83.10523831996225,NA,NA
32507,Escambia County,FL,NA,9.013914095583788,NA
32514,Escambia County,FL,49.74044360547428,NA,NA
32539,Okaloosa County,FL,NA,21.052631578947366,NA
32541,Okaloosa County,FL,60.169891458235014,31.76043557168784,NA
32547,Okaloosa County,FL,35.96035865974516,NA,NA
32563,Santa Rosa County,FL,NA,18.027828191167576,NA
32565,Santa Rosa County,FL,73.4308636149127,NA,NA
32566,Santa Rosa County,FL,NA,NA,29.746835443037973
32571,Santa Rosa County,FL,10.19348749410099,NA,29.324894514767934
32578,Okaloosa County,FL,85.22888154789995,NA,NA
32579,Okaloosa County,FL,NA,84.45251058681185,NA
32601,Alachua County,FL,53.987730061349694,NA,NA
32608,Alachua County,FL,5.143935818782444,NA,NA
32656,Clay County,FL,NA,NA,63.0801687763713
32669,Alachua County,FL,60.64181217555451,NA,NA
32708,Seminole County,FL,NA,30.973986690865097,NA
32713,Volusia County,FL,NA,NA,58.22784810126582
32724,Volusia County,FL,74.61066540821142,NA,NA
32725,Volusia County,FL,29.21189240207645,NA,NA
32738,Volusia County,FL,NA,29.52208106473079,NA
32750,Seminole County,FL,90.13685700802266,NA,NA
32780,Brevard County,FL,NA,12.462189957652752,NA
32796,Brevard County,FL,NA,21.839080459770116,NA
32825,Orange County,FL,NA,NA,47.257383966244724
32837,Orange County,FL,NA,NA,55.06329113924051
32839,Orange County,FL,21.04766399244927,NA,NA
32904,Brevard County,FL,41.52902312411515,NA,NA
32905,Brevard County,FL,52.71354412458707,NA,NA
32926,Brevard County,FL,NA,38.294010889292196,NA
32931,Brevard County,FL,NA,NA,38.39662447257383
32935,Brevard County,FL,44.879660217083526,NA,NA
32937,Brevard County,FL,NA,54.44646098003629,NA
32940,Brevard County,FL,60.924964605946194,73.68421052631578,NA
32960,Indian River County,FL,NA,89.7156684815487,NA
32962,Indian River County,FL,42.236904200094386,NA,NA
32967,Indian River County,FL,40.77394997640396,NA,NA
33010,Miami-Dade County,FL,NA,34.66424682395644,NA
33026,Broward County,FL,NA,82.63762855414399,NA
33030,Miami-Dade County,FL,38.225578102878714,74.8336358136721,NA
33033,Miami-Dade County,FL,35.96035865974516,46.64246823956443,NA
33036,Monroe County,FL,NA,86.8118572292801,NA
33073,Broward County,FL,64.27560169891458,NA,NA
33126,Miami-Dade County,FL,NA,NA,20.675105485232066
33131,Miami-Dade County,FL,95.32798489853704,NA,NA
33143,Miami-Dade County,FL,NA,62.310949788263756,NA
33154,Miami-Dade County,FL,NA,75.07562008469449,NA
33157,Miami-Dade County,FL,28.36243511090137,NA,NA
33160,Miami-Dade County,FL,NA,28.85662431941924,NA
33168,Miami-Dade County,FL,63.94525719679094,NA,NA
33180,Miami-Dade County,FL,NA,NA,14.135021097046414
33185,Miami-Dade County,FL,NA,66.54567453115547,NA
33186,Miami-Dade County,FL,NA,25.045372050816695,NA
33190,Miami-Dade County,FL,95.23360075507314,NA,NA
33309,Broward County,FL,NA,39.382940108892925,NA
33327,Broward County,FL,79.89617744218971,NA,NA
33328,Broward County,FL,77.72534214252006,NA,NA
33332,Broward County,FL,NA,96.85420447670901,NA
33408,Palm Beach County,FL,NA,62.67392619479734,39.24050632911392
33411,Palm Beach County,FL,77.39499764039641,NA,NA
33412,Palm Beach County,FL,NA,76.95099818511797,NA
33418,Palm Beach County,FL,NA,59.46763460375075,9.071729957805907
33426,Palm Beach County,FL,NA,92.37749546279493,NA
33442,Broward County,FL,89.66493629070315,28.614640048396854,NA
33444,Palm Beach County,FL,98.91458235016518,NA,NA
33445,Palm Beach County,FL,NA,60.435571687840294,NA
33467,Palm Beach County,FL,49.693251533742334,NA,NA
33469,Palm Beach County,FL,NA,81.54869933454324,NA
33472,Palm Beach County,FL,NA,NA,22.573839662447256
33484,Palm Beach County,FL,NA,23.593466424682397,NA
33510,Hillsborough County,FL,76.07361963190185,NA,NA
33538,Sumter County,FL,NA,NA,92.40506329113924
33543,Pasco County,FL,48.513449740443605,NA,NA
33570,Hillsborough County,FL,57.10240679565833,NA,NA
33594,Hillsborough County,FL,NA,47.186932849364794,NA
33596,Hillsborough County,FL,93.20434167059935,NA,NA
33604,Hillsborough County,FL,18.49929211892402,NA,NA
33613,Hillsborough County,FL,35.20528551203398,NA,NA
33615,Hillsborough County,FL,NA,79.3708408953418,NA
33616,Hillsborough County,FL,84.94572911750826,NA,NA
33624,Hillsborough County,FL,NA,71.80883242589232,47.46835443037975
33625,Hillsborough County,FL,52.43039169419538,NA,NA
33635,Hillsborough County,FL,91.31665880132138,NA,NA
33705,Pinellas County,FL,NA,NA,46.41350210970464
33707,Pinellas County,FL,NA,24.137931034482758,NA
33761,Pinellas County,FL,84.28504011326096,NA,NA
33765,Pinellas County,FL,NA,64.12583182093165,NA
33771,Pinellas County,FL,68.66446436998585,NA,NA
33772,Pinellas County,FL,NA,NA,41.35021097046413
33852,Highlands County,FL,52.760736196319016,NA,NA
33901,Lee County,FL,95.89428975932044,NA,NA
33904,Lee County,FL,NA,NA,6.329113924050633
33907,Lee County,FL,41.34025483718735,NA,NA
33912,Lee County,FL,NA,38.717483363581366,NA
33917,Lee County,FL,45.493157149598865,14.458560193587417,NA
33919,Lee County,FL,51.81689476168003,NA,NA
33928,Lee County,FL,99.38650306748467,NA,NA
33955,Charlotte County,FL,NA,NA,78.48101265822784
33974,Lee County,FL,73.10051911278906,NA,NA
33981,Charlotte County,FL,NA,67.09013914095584,NA
33990,Lee County,FL,NA,68.78402903811252,NA
33993,Lee County,FL,NA,94.91833030852995,NA
34104,Collier County,FL,NA,78.34240774349668,NA
34116,Collier County,FL,41.3874469089193,NA,NA
34208,Manatee County,FL,20.717319490325625,NA,NA
34232,Sarasota County,FL,NA,NA,26.371308016877638
34234,Sarasota County,FL,33.74233128834356,NA,NA
34241,Sarasota County,FL,NA,85.0574712643678,NA
34266,DeSoto County,FL,29.966965549787634,NA,36.28691983122363
34292,Sarasota County,FL,87.39971684756961,NA,NA
34442,Citrus County,FL,NA,51.84513006654568,NA
34470,Marion County,FL,43.74705049551675,NA,NA
34473,Marion County,FL,NA,57.3502722323049,NA
34604,Hernando County,FL,87.8716375648891,NA,NA
34606,Hernando County,FL,NA,32.425892316999395,NA
34608,Hernando County,FL,32.27937706465313,NA,NA
34667,Pasco County,FL,38.036809815950924,NA,NA
34688,Pinellas County,FL,94.85606418121756,NA,NA
34689,Pinellas County,FL,51.1090136857008,NA,NA
34691,Pasco County,FL,38.886267107126,NA,NA
34698,Pinellas County,FL,NA,70.659407138536,NA
34731,Lake County,FL,91.78857951864087,NA,NA
34741,Osceola County,FL,NA,26.436781609195403,NA
34746,Osceola County,FL,29.82538933459179,NA,NA
34759,Polk County,FL,NA,71.26436781609196,NA
34772,Osceola County,FL,NA,NA,74.47257383966245
34786,Orange County,FL,49.97640396413402,43.315184513006656,NA
34947,St. Lucie County,FL,NA,NA,87.76371308016878
34949,St. Lucie County,FL,NA,76.10405323653963,NA
34952,St. Lucie County,FL,19.207173194903255,NA,NA
34957,Martin County,FL,NA,27.041742286751365,NA
34972,Okeechobee County,FL,52.666352052855125,NA,NA
34986,St. Lucie County,FL,42.47286455875413,NA,NA
34990,Martin County,FL,NA,72.17180883242588,NA
34997,Martin County,FL,NA,53.84150030248034,NA
30012,Rockdale County,GA,NA,NA,68.77637130801688
30014,Newton County,GA,21.00047192071732,NA,NA
30017,Gwinnett County,GA,NA,NA,77.63713080168776
30025,Walton County,GA,NA,82.27465214761041,NA
30028,Forsyth County,GA,52.00566304860783,NA,NA
30032,DeKalb County,GA,35.01651722510618,8.045977011494253,NA
30041,Forsyth County,GA,NA,59.528130671506354,NA
30043,Gwinnett County,GA,48.37187352524776,41.2583182093164,NA
30062,Cobb County,GA,NA,10.58681185722928,NA
30064,Cobb County,GA,NA,27.949183303085302,NA
30066,Cobb County,GA,NA,20.6291591046582,NA
30067,Cobb County,GA,NA,62.85541439806413,NA
30076,Fulton County,GA,NA,37.26557773744707,NA
30083,DeKalb County,GA,52.94950448324681,NA,NA
30087,DeKalb County,GA,NA,NA,33.12236286919831
30088,DeKalb County,GA,NA,56.38233514821537,NA
30092,Gwinnett County,GA,NA,59.04416212946158,NA
30101,Cobb County,GA,52.807928268050965,20.810647307924985,NA
30102,Cherokee County,GA,40.632373761208115,NA,NA
30116,Carroll County,GA,NA,43.920145190562614,NA
30117,Carroll County,GA,26.852288815478996,NA,31.223628691983123
30122,Douglas County,GA,48.466257668711656,NA,NA
30126,Cobb County,GA,37.70646531382727,NA,NA
30132,Paulding County,GA,NA,30.127041742286753,NA
30134,Douglas County,GA,68.0509674374705,NA,NA
30144,Cobb County,GA,NA,43.19419237749546,NA
30152,Cobb County,GA,48.41906559697971,NA,NA
30157,Paulding County,GA,NA,20.205686630369026,NA
30179,Carroll County,GA,NA,85.66243194192378,NA
30185,Carroll County,GA,98.63142991977348,NA,NA
30187,Douglas County,GA,NA,79.61282516636419,NA
30224,Spalding County,GA,46.43699858423785,NA,NA
30228,Henry County,GA,NA,56.56382335148216,NA
30253,Henry County,GA,52.52477583765928,NA,NA
30260,Clayton County,GA,65.17225106182161,NA,NA
30263,Coweta County,GA,NA,8.52994555353902,NA
30265,Coweta County,GA,NA,35.14821536600121,NA
30341,DeKalb County,GA,63.095799905615856,NA,NA
30350,Fulton County,GA,92.9683813119396,NA,NA
30354,Fulton County,GA,59.50920245398773,NA,NA
30360,DeKalb County,GA,89.19301557338368,NA,NA
30415,Bulloch County,GA,92.02453987730061,NA,NA
30427,Tattnall County,GA,NA,87.53781004234725,NA
30467,Screven County,GA,52.00566304860783,NA,NA
30506,Hall County,GA,NA,15.30550514216576,NA
30512,Union County,GA,96.03586597451627,NA,NA
30523,Habersham County,GA,NA,NA,62.65822784810127
30529,Jackson County,GA,94.33695139216611,NA,NA
30530,Banks County,GA,NA,92.8009679370841,NA
30534,Dawson County,GA,NA,26.860254083484573,NA
30549,Jackson County,GA,NA,47.48941318814277,NA
30565,Jackson County,GA,97.02689948088721,NA,NA
30571,White County,GA,NA,98.12462189957652,NA
30577,Stephens County,GA,68.85323265691365,NA,NA
30605,Clarke County,GA,47.94714487966022,NA,NA
30606,Clarke County,GA,64.46436998584237,NA,NA
30607,Clarke County,GA,NA,85.78342407743497,NA
30620,Barrow County,GA,64.70033034450212,NA,NA
30655,Walton County,GA,29.58942897593204,NA,NA
30656,Walton County,GA,56.913638508730536,NA,NA
30701,Gordon County,GA,NA,22.323049001814883,NA
30705,Murray County,GA,NA,34.180278281911676,NA
30710,Whitfield County,GA,NA,89.05021173623715,NA
30725,Walker County,GA,90.65596979707409,NA,NA
30728,Walker County,GA,30.957999056158563,63.823351482153655,NA
30736,Catoosa County,GA,NA,NA,48.9451476793249
30741,Walker County,GA,NA,14.761040532365396,52.742616033755276
30747,Chattooga County,GA,71.59037281736668,NA,NA
30817,Lincoln County,GA,NA,95.03932244404115,NA
30909,Richmond County,GA,20.575743275129778,NA,NA
31008,Peach County,GA,66.82397357243983,NA,NA
31021,Laurens County,GA,64.84190655969797,52.08711433756806,NA
31027,Laurens County,GA,NA,83.9080459770115,NA
31029,Monroe County,GA,85.70080226521945,NA,NA
31032,Jones County,GA,79.09391222274658,75.68058076225044,NA
31052,Bibb County,GA,NA,NA,94.09282700421942
31088,Houston County,GA,NA,16.031457955232913,NA
31093,Houston County,GA,NA,63.58136721113128,NA
31206,Bibb County,GA,24.4454931571496,NA,NA
31210,Bibb County,GA,NA,52.87356321839081,NA
31302,Effingham County,GA,NA,94.01088929219601,NA
31326,Effingham County,GA,56.205757432751305,NA,NA
31404,Chatham County,GA,45.87069372345446,NA,NA
31405,Chatham County,GA,NA,68.48154869933454,NA
31406,Chatham County,GA,NA,22.625529340592863,NA
31419,Chatham County,GA,27.79613025011798,26.073805202661827,NA
31510,Bacon County,GA,NA,70.71990320629159,NA
31516,Pierce County,GA,62.435110901368574,NA,NA
31523,Glynn County,GA,NA,68.42105263157895,NA
31525,Glynn County,GA,44.50212364322794,NA,NA
31545,Wayne County,GA,NA,46.098003629764065,NA
31548,Camden County,GA,76.63992449268522,NA,NA
31554,Coffee County,GA,NA,NA,100
31620,Cook County,GA,NA,NA,83.75527426160338
31639,Berrien County,GA,88.86267107126002,NA,NA
31707,Dougherty County,GA,NA,34.42226255293406,NA
31714,Turner County,GA,69.70268994808873,NA,NA
31730,Mitchell County,GA,73.2420953279849,NA,NA
31763,Lee County,GA,NA,92.92196007259528,NA
31768,Colquitt County,GA,NA,NA,62.0253164556962
31794,Tift County,GA,21.99150542708825,NA,NA
31816,Meriwether County,GA,94.24256724870222,NA,NA
31907,Muscogee County,GA,5.710240679565834,NA,NA
96701,Honolulu County,HI,NA,12.643678160919542,NA
96706,Honolulu County,HI,7.881075979235488,NA,NA
96707,Honolulu County,HI,29.63662104766399,NA,NA
96708,Maui County,HI,NA,95.82577132486388,NA
96732,Maui County,HI,71.26002831524303,NA,NA
96734,Honolulu County,HI,63.42614440773951,NA,8.016877637130802
96740,Hawaii County,HI,54.50684285040113,NA,NA
96741,Kauai County,HI,NA,NA,96.83544303797468
96744,Honolulu County,HI,NA,16.575922565033274,2.5316455696202533
96746,Kauai County,HI,NA,64.42831215970962,NA
96756,Kauai County,HI,NA,NA,96.62447257383965
96766,Kauai County,HI,63.75648890986314,NA,NA
96782,Honolulu County,HI,NA,NA,10.126582278481013
96786,Honolulu County,HI,NA,38.052026618269814,NA
96792,Honolulu County,HI,8.588957055214724,NA,NA
96795,Honolulu County,HI,NA,75.86206896551724,NA
96797,Honolulu County,HI,5.757432751297782,NA,NA
96813,Honolulu County,HI,27.324209532798488,28.13067150635209,NA
96816,Honolulu County,HI,94.14818310523832,NA,31.434599156118143
96817,Honolulu County,HI,NA,NA,4.219409282700422
96825,Honolulu County,HI,NA,4.3557168784029034,NA
96826,Honolulu County,HI,NA,79.12885662431943,NA
83201,Bannock County,ID,17.225106182161397,31.941923774954628,NA
83211,Power County,ID,NA,90.56261343012704,NA
83318,Cassia County,ID,55.30910806984427,NA,NA
83333,Blaine County,ID,95.94148183105239,NA,NA
83401,Bonneville County,ID,38.83907503539405,35.08771929824561,51.68776371308017
83442,Jefferson County,ID,36.62104766399245,NA,NA
83501,Nez Perce County,ID,10.712600283152431,NA,NA
83607,Canyon County,ID,32.13780084945729,NA,NA
83642,Ada County,ID,13.166588013213781,29.461584996975198,NA
83651,Canyon County,ID,13.072203869749883,NA,NA
83660,Canyon County,ID,92.16611609249647,NA,NA
83672,Washington County,ID,72.01510146295422,NA,NA
83686,Canyon County,ID,5.946201038225578,NA,NA
83702,Ada County,ID,NA,NA,39.45147679324894
83709,Ada County,ID,NA,22.081064730792498,NA
83714,Ada County,ID,NA,10.284331518451301,NA
83854,Kootenai County,ID,NA,16.636418632788867,17.72151898734177
83861,Benewah County,ID,90.3728173666824,NA,NA
83864,Bonner County,ID,91.22227465785748,44.76709013914096,NA
60002,Lake County,IL,53.75176970268994,NA,NA
60004,Cook County,IL,19.301557338367154,NA,NA
60010,Lake County,IL,NA,NA,17.088607594936708
60014,McHenry County,IL,50.731477111845216,NA,NA
60018,Cook County,IL,NA,31.155474894131878,NA
60025,Cook County,IL,92.35488437942425,3.38777979431337,NA
60026,Cook County,IL,NA,NA,27.21518987341772
60035,Lake County,IL,NA,9.376890502117362,NA
60046,Lake County,IL,NA,96.37023593466425,76.16033755274262
60061,Lake County,IL,58.4237848041529,44.0411373260738,NA
60062,Cook County,IL,NA,NA,0.21097046413502107
60068,Cook County,IL,NA,29.09860859044162,NA
60073,Lake County,IL,40.11326097215668,NA,NA
60081,McHenry County,IL,84.52100047192071,NA,NA
60093,Cook County,IL,NA,44.343617664851784,NA
60097,McHenry County,IL,NA,87.65880217785845,NA
60103,DuPage County,IL,NA,18.753781004234725,NA
60104,Cook County,IL,33.55356300141577,74.28917120387175,NA
60107,Cook County,IL,44.218971212836244,NA,NA
60108,DuPage County,IL,77.81972628598396,75.43859649122807,NA
60115,DeKalb County,IL,33.883907503539405,23.5329703569268,29.11392405063291
60120,Kane County,IL,NA,88.86872353297036,NA
60134,Kane County,IL,38.31996224634261,NA,NA
60142,McHenry County,IL,36.24351109013686,NA,NA
60143,DuPage County,IL,79.28268050967438,NA,NA
60152,McHenry County,IL,NA,NA,63.29113924050633
60164,Cook County,IL,33.364794714487964,NA,NA
60169,Cook County,IL,70.22180273714017,47.97338173018753,NA
60171,Cook County,IL,80.4624823029731,NA,NA
60172,DuPage County,IL,NA,35.2692075015124,NA
60175,Kane County,IL,22.180273714016046,NA,NA
60181,DuPage County,IL,24.39830108541765,61.282516636418634,NA
60188,DuPage County,IL,62.52949504483247,NA,NA
60193,Cook County,IL,NA,6.47307924984876,NA
60410,Will County,IL,42.284096271826336,NA,NA
60411,Cook County,IL,9.24964605946201,6.836055656382335,NA
60419,Cook County,IL,NA,29.159104658197215,NA
60426,Cook County,IL,48.513449740443605,NA,NA
60431,Will County,IL,34.02548371873525,NA,NA
60435,Will County,IL,30.39169419537518,6.594071385359952,NA
60436,Will County,IL,90.89193015573383,NA,NA
60439,Cook County,IL,NA,47.428917120387176,NA
60441,Will County,IL,16.847569608305804,NA,NA
60442,Will County,IL,72.67579046720151,NA,NA
60443,Cook County,IL,NA,31.21597096188748,NA
60447,Grundy County,IL,NA,70.11494252873564,NA
60449,Will County,IL,NA,77.49546279491834,NA
60450,Grundy County,IL,NA,66.48517846339988,NA
60451,Will County,IL,NA,43.01270417422868,NA
60452,Cook County,IL,42.897593204341675,NA,NA
60453,Cook County,IL,NA,5.565638233514822,NA
60456,Cook County,IL,88.53232656913639,NA,NA
60467,Cook County,IL,84.04907975460122,NA,NA
60487,Cook County,IL,48.513449740443605,NA,NA
60490,Will County,IL,79.28268050967438,NA,NA
60491,Will County,IL,NA,58.076225045372055,NA
60505,Kane County,IL,NA,NA,52.53164556962025
60506,Kane County,IL,20.10382255781029,NA,NA
60513,Cook County,IL,NA,80.52026618269812,NA
60514,DuPage County,IL,87.35252477583767,NA,NA
60515,DuPage County,IL,33.74233128834356,NA,NA
60523,DuPage County,IL,NA,46.521476104053235,40.92827004219409
60538,Kendall County,IL,NA,86.8723532970357,NA
60561,DuPage County,IL,NA,NA,31.645569620253166
60565,DuPage County,IL,81.31193959414819,NA,NA
60586,Will County,IL,57.008022652194434,NA,NA
60610,Cook County,IL,NA,16.212946158499697,18.9873417721519
60612,Cook County,IL,62.48230297310052,NA,NA
60620,Cook County,IL,NA,18.08832425892317,NA
60621,Cook County,IL,75.60169891458234,NA,NA
60625,Cook County,IL,7.975460122699387,NA,NA
60626,Cook County,IL,NA,4.9606775559588625,NA
60630,Cook County,IL,49.079754601226995,NA,NA
60632,Cook County,IL,NA,NA,28.270042194092827
60636,Cook County,IL,NA,21.234119782214155,NA
60638,Cook County,IL,NA,29.82456140350877,NA
60640,Cook County,IL,NA,65.33575317604355,NA
60641,Cook County,IL,9.532798489853704,44.70659407138536,NA
60643,Cook County,IL,6.229353468617272,NA,NA
60649,Cook County,IL,74.84662576687117,NA,17.51054852320675
60652,Cook County,IL,22.79377064653138,NA,NA
60656,Cook County,IL,42.47286455875413,NA,NA
60657,Cook County,IL,15.573383671543182,NA,18.565400843881857
60659,Cook County,IL,NA,58.015728977616455,NA
60707,Cook County,IL,14.959886739027844,NA,NA
60714,Cook County,IL,NA,33.99879007864489,NA
60901,Kankakee County,IL,41.00991033506371,NA,NA
60914,Kankakee County,IL,26.946672958942898,NA,NA
61010,Ogle County,IL,75.7432751297782,NA,NA
61061,Ogle County,IL,NA,NA,49.36708860759494
61071,Whiteside County,IL,NA,NA,47.67932489451477
61109,Winnebago County,IL,39.310995752713545,NA,57.80590717299579
61350,LaSalle County,IL,NA,79.4313369630974,NA
61356,Bureau County,IL,68.47569608305804,59.04416212946158,NA
61362,Bureau County,IL,NA,NA,75.73839662447257
61401,Knox County,IL,54.459650778669186,NA,NA
61443,Henry County,IL,55.120339782916474,NA,NA
61525,Peoria County,IL,NA,NA,90.084388185654
61822,Champaign County,IL,98.30108541764983,43.738656987295826,NA
61842,De Witt County,IL,99.7168475696083,NA,NA
61938,Coles County,IL,39.49976403964134,NA,NA
62002,Madison County,IL,NA,14.640048396854205,NA
62012,Macoupin County,IL,84.09627182633318,NA,NA
62025,Madison County,IL,NA,35.93466424682396,NA
62033,Macoupin County,IL,NA,80.09679370840895,NA
62088,Macoupin County,IL,95.0920245398773,NA,NA
62231,Clinton County,IL,NA,71.08287961282517,NA
62258,St. Clair County,IL,NA,88.50574712643679,NA
62260,St. Clair County,IL,NA,85.96491228070175,NA
62269,St. Clair County,IL,NA,NA,37.34177215189873
62278,Randolph County,IL,NA,85.54143980641258,NA
62363,Pike County,IL,NA,NA,70.042194092827
62450,Richland County,IL,82.63331760264275,NA,NA
62521,Macon County,IL,35.20528551203398,NA,NA
62526,Macon County,IL,NA,NA,4.430379746835443
62626,Macoupin County,IL,NA,NA,46.835443037974684
62703,Sangamon County,IL,23.97357243983011,NA,NA
62704,Sangamon County,IL,NA,23.23049001814882,NA
62812,Franklin County,IL,72.81736668239735,53.23653962492438,35.232067510548525
62832,Perry County,IL,NA,90.38112522686026,NA
62863,Wabash County,IL,NA,89.95765275257108,NA
62864,Jefferson County,IL,NA,33.45432546884452,NA
62901,Jackson County,IL,NA,NA,63.50210970464135
62902,Jackson County,IL,95.375176970269,NA,NA
62959,Williamson County,IL,NA,13.248638838475499,NA
46011,Madison County,IN,83.62435110901369,NA,NA
46013,Madison County,IN,27.27701746106654,NA,NA
46032,Hamilton County,IN,87.7772534214252,NA,NA
46041,Clinton County,IN,NA,48.033877797943134,NA
46060,Hamilton County,IN,57.38555922605002,NA,NA
46120,Putnam County,IN,86.69183577159038,NA,NA
46123,Hendricks County,IN,41.85936762623879,NA,68.35443037974683
46143,Johnson County,IN,18.310523831996225,NA,NA
46151,Morgan County,IN,NA,51.78463399879008,NA
46157,Morgan County,IN,NA,99.45553539019963,NA
46160,Brown County,IN,NA,84.39201451905626,NA
46168,Hendricks County,IN,33.223218499292116,NA,NA
46173,Rush County,IN,50.353940537989615,NA,NA
46176,Shelby County,IN,NA,NA,6.5400843881856545
46205,Marion County,IN,30.627654554034923,NA,NA
46214,Marion County,IN,NA,39.01996370235935,NA
46219,Marion County,IN,8.541764983482775,48.33635813672112,NA
46220,Marion County,IN,68.85323265691365,NA,NA
46224,Marion County,IN,NA,43.315184513006656,NA
46225,Marion County,IN,NA,97.39866908650939,NA
46226,Marion County,IN,NA,10.647307924984876,NA
46229,Marion County,IN,18.54648419065597,NA,NA
46236,Marion County,IN,88.10759792354884,NA,NA
46250,Marion County,IN,NA,85.3599516031458,NA
46268,Marion County,IN,38.697498820198206,NA,NA
46304,Porter County,IN,66.49362907031619,NA,NA
46307,Lake County,IN,1.2741859367626238,0.8469449485783425,NA
46311,Lake County,IN,26.380368098159508,46.037507562008464,NA
46321,Lake County,IN,NA,11.857229280096794,25.105485232067508
46323,Lake County,IN,15.431807456347332,NA,NA
46342,Lake County,IN,3.8225578102878717,NA,NA
46350,LaPorte County,IN,6.465313827277018,28.07017543859649,NA
46360,LaPorte County,IN,51.72251061821614,3.0852994555353903,NA
46366,Starke County,IN,89.42897593204341,NA,NA
46368,Porter County,IN,1.6989145823501652,NA,NA
46373,Lake County,IN,24.020764511562056,NA,NA
46383,Porter County,IN,25.294950448324684,NA,NA
46394,Lake County,IN,NA,48.39685420447671,NA
46403,Lake County,IN,62.19915054270883,NA,NA
46404,Lake County,IN,NA,45.79552329098608,NA
46406,Lake County,IN,NA,62.00846944948578,NA
46410,Lake County,IN,4.813591316658802,2.722323049001815,NA
46514,Elkhart County,IN,NA,53.72050816696915,NA
46516,Elkhart County,IN,12.600283152430391,NA,NA
46542,Kosciusko County,IN,NA,97.51966122202057,NA
46544,St. Joseph County,IN,NA,80.8227465214761,NA
46614,St. Joseph County,IN,NA,NA,40.50632911392405
46615,St. Joseph County,IN,NA,69.93345432546884,NA
46637,St. Joseph County,IN,NA,NA,88.81856540084388
46714,Wells County,IN,77.15903728173666,75.37810042347247,NA
46725,Whitley County,IN,NA,15.849969751966123,NA
46761,LaGrange County,IN,62.15195847097688,NA,NA
46765,Allen County,IN,NA,98.97156684815486,NA
46774,Allen County,IN,53.56300141576216,NA,NA
46783,Huntington County,IN,NA,NA,91.35021097046413
46808,Allen County,IN,NA,56.92679975801573,NA
46809,Allen County,IN,49.26852288815479,NA,NA
46835,Allen County,IN,NA,NA,28.691983122362867
46901,Howard County,IN,1.46295422369042,NA,NA
46902,Howard County,IN,15.007078810759792,NA,NA
46952,Grant County,IN,NA,NA,18.565400843881857
46953,Grant County,IN,8.164228409627183,7.80399274047187,NA
46970,Miami County,IN,6.984426616328457,NA,NA
47012,Franklin County,IN,NA,NA,81.22362869198312
47025,Dearborn County,IN,NA,46.763460375075624,NA
47112,Harrison County,IN,94.71448796602171,89.83666061705989,NA
47119,Floyd County,IN,89.61774421897121,NA,NA
47129,Clark County,IN,NA,43.19419237749546,NA
47150,Floyd County,IN,NA,NA,23.417721518987342
47201,Bartholomew County,IN,NA,71.9903206291591,NA
47250,Jefferson County,IN,NA,54.93042952208107,NA
47302,Delaware County,IN,13.780084945729119,NA,NA
47303,Delaware County,IN,28.40962718263332,NA,NA
47330,Wayne County,IN,NA,NA,79.11392405063292
47353,Union County,IN,NA,94.49485783424078,NA
47374,Wayne County,IN,3.114676734308636,NA,0.6329113924050633
47383,Delaware County,IN,NA,99.9395039322444,NA
47396,Delaware County,IN,92.4020764511562,NA,NA
47401,Monroe County,IN,NA,NA,64.55696202531645
47421,Lawrence County,IN,NA,NA,35.0210970464135
47429,Monroe County,IN,94.8088721094856,NA,NA
47448,Brown County,IN,92.6852288815479,NA,NA
47601,Warrick County,IN,78.95233600755073,NA,NA
47630,Warrick County,IN,67.76781500707881,NA,NA
47712,Vanderburgh County,IN,NA,70.5384150030248,NA
47714,Vanderburgh County,IN,NA,79.3103448275862,31.856540084388186
47715,Vanderburgh County,IN,24.115148655025955,NA,NA
47725,Vanderburgh County,IN,81.07597923548843,NA,NA
47802,Vigo County,IN,18.263331760264276,NA,NA
47803,Vigo County,IN,NA,97.64065335753176,NA
47807,Vigo County,IN,39.830108541764986,NA,NA
47834,Clay County,IN,25.86125530910807,NA,NA
47874,Parke County,IN,98.72581406323737,NA,NA
47879,Sullivan County,IN,NA,100,NA
47885,Vigo County,IN,NA,NA,81.64556962025317
47905,Tippecanoe County,IN,34.78055686644644,NA,NA
47906,Tippecanoe County,IN,NA,21.657592256503328,NA
47933,Montgomery County,IN,25.625294950448325,NA,NA
50010,Story County,IA,50.825861255309114,NA,NA
50131,Polk County,IA,71.59037281736668,NA,NA
50158,Marshall County,IA,NA,33.21234119782214,NA
50266,Polk County,IA,93.53468617272299,NA,NA
50310,Polk County,IA,NA,41.86327888687235,NA
50401,Cerro Gordo County,IA,65.40821142048135,NA,NA
50436,Winnebago County,IA,89.24020764511562,NA,NA
50501,Webster County,IA,18.971212836243513,NA,NA
50511,Kossuth County,IA,87.44690891930156,NA,NA
50613,Black Hawk County,IA,NA,8.52994555353902,NA
50644,Buchanan County,IA,NA,NA,77.84810126582279
50701,Black Hawk County,IA,NA,19.298245614035086,NA
50703,Black Hawk County,IA,NA,NA,33.33333333333333
51334,Emmet County,IA,59.93393109957527,NA,NA
51401,Carroll County,IA,78.29164700330344,NA,NA
51501,Pottawattamie County,IA,2.265219443133554,NA,NA
52001,Dubuque County,IA,NA,NA,49.789029535864984
52136,Howard County,IA,NA,90.50211736237145,NA
52227,Linn County,IA,99.52807928268051,NA,NA
52353,Washington County,IA,72.62859839546955,NA,NA
52402,Linn County,IA,14.5351580934403,NA,NA
52403,Linn County,IA,36.809815950920246,NA,NA
52404,Linn County,IA,NA,46.70296430732002,NA
52556,Jefferson County,IA,NA,57.04779189352692,NA
52722,Scott County,IA,NA,22.50453720508167,NA
52761,Muscatine County,IA,8.117036337895234,NA,NA
52806,Scott County,IA,15.714959886739027,NA,NA
66032,Anderson County,KS,88.62671071260029,NA,NA
66043,Leavenworth County,KS,NA,NA,89.0295358649789
66044,Douglas County,KS,61.63284568192544,NA,NA
66046,Douglas County,KS,NA,NA,86.70886075949366
66049,Douglas County,KS,86.31429919773478,NA,NA
66062,Johnson County,KS,30.81642284096272,NA,NA
66067,Franklin County,KS,76.92307692307693,NA,NA
66071,Miami County,KS,67.53185464841907,NA,NA
66083,Johnson County,KS,87.30533270410571,NA,NA
66103,Wyandotte County,KS,69.23076923076923,NA,NA
66104,Wyandotte County,KS,22.321849929211893,NA,NA
66109,Wyandotte County,KS,NA,44.0411373260738,NA
66203,Johnson County,KS,94.38414346389806,NA,NA
66209,Johnson County,KS,NA,36.963097398669085,NA
66210,Johnson County,KS,69.79707409155263,NA,NA
66212,Johnson County,KS,49.17413874469089,NA,NA
66215,Johnson County,KS,NA,NA,73.41772151898735
66221,Johnson County,KS,64.60594620103822,NA,NA
66441,Geary County,KS,64.93629070316187,NA,NA
66605,Shawnee County,KS,NA,48.517846339987905,NA
66606,Shawnee County,KS,76.82869277961302,NA,NA
66701,Bourbon County,KS,NA,60.375075620084694,NA
66801,Lyon County,KS,NA,48.69933454325469,NA
67114,Harvey County,KS,72.01510146295422,NA,NA
67203,Sedgwick County,KS,64.79471448796602,NA,NA
67208,Sedgwick County,KS,72.01510146295422,NA,NA
67209,Sedgwick County,KS,NA,91.53055051421659,NA
67213,Sedgwick County,KS,80.8400188768287,NA,NA
67530,Barton County,KS,NA,52.69207501512402,NA
40004,Nelson County,KY,14.063237376120814,75.25710828796129,NA
40013,Nelson County,KY,91.50542708824916,88.38475499092559,NA
40047,Bullitt County,KY,23.643227937706467,49.06231094978826,NA
40059,Jefferson County,KY,72.34544596507787,59.89110707803993,NA
40065,Shelby County,KY,34.68617272298254,23.35148215366001,NA
40108,Meade County,KY,90.75035394053799,NA,NA
40165,Bullitt County,KY,10.571024067956584,NA,NA
40203,Jefferson County,KY,NA,34.05928614640049,NA
40211,Jefferson County,KY,9.532798489853704,30.490018148820326,NA
40213,Jefferson County,KY,61.34969325153374,NA,NA
40214,Jefferson County,KY,NA,43.98064125831821,NA
40215,Jefferson County,KY,62.29353468617273,37.14458560193587,NA
40217,Jefferson County,KY,65.97451628126475,NA,NA
40218,Jefferson County,KY,37.04577630957999,NA,NA
40219,Jefferson County,KY,35.39405379896177,17.48336358136721,NA
40223,Jefferson County,KY,NA,NA,54.219409282700425
40228,Jefferson County,KY,59.79235488437943,61.524500907441016,NA
40229,Jefferson County,KY,8.494572911750826,51.11917725347852,NA
40242,Jefferson County,KY,NA,NA,83.54430379746836
40243,Jefferson County,KY,81.50070788107598,NA,NA
40258,Jefferson County,KY,16.75318546484191,68.66303690260132,NA
40272,Jefferson County,KY,10.004719207173194,12.159709618874773,NA
40291,Jefferson County,KY,12.977819726285983,NA,NA
40299,Jefferson County,KY,NA,16.75741076830006,NA
40324,Scott County,KY,NA,NA,36.49789029535865
40351,Rowan County,KY,47.38084001887683,10.828796128251664,NA
40356,Jessamine County,KY,NA,18.148820326678766,NA
40359,Owen County,KY,75.88485134497405,NA,NA
40391,Clark County,KY,NA,8.348457350272232,NA
40403,Madison County,KY,48.04152902312411,34.603750756200846,NA
40475,Madison County,KY,26.191599811231715,NA,NA
40484,Lincoln County,KY,63.3317602642756,52.57108287961283,NA
40505,Fayette County,KY,18.168947616800377,NA,NA
40511,Fayette County,KY,NA,75.0151240169389,NA
40515,Fayette County,KY,NA,46.27949183303085,NA
40701,Whitley County,KY,NA,8.650937689050211,NA
40729,Laurel County,KY,76.21519584709769,NA,NA
40734,Knox County,KY,81.83105238319962,NA,NA
40741,Laurel County,KY,NA,NA,77.42616033755274
40744,Laurel County,KY,23.50165172251062,NA,NA
40831,Harlan County,KY,65.36101934874941,NA,NA
40906,Knox County,KY,59.22605002359603,NA,NA
40962,Clay County,KY,43.652666352052854,NA,NA
41003,Harrison County,KY,97.92354884379424,NA,NA
41006,Pendleton County,KY,87.21094856064181,NA,NA
41007,Campbell County,KY,NA,98.91107078039929,NA
41008,Carroll County,KY,71.73194903256253,NA,NA
41011,Kenton County,KY,NA,NA,46.41350210970464
41015,Kenton County,KY,20.906087777253422,NA,NA
41018,Kenton County,KY,19.395941481831052,NA,NA
41039,Fleming County,KY,97.26285983954696,NA,NA
41048,Boone County,KY,76.45115620575743,NA,NA
41051,Kenton County,KY,NA,87.47731397459165,NA
41071,Campbell County,KY,NA,27.34422262552934,57.17299578059072
41076,Campbell County,KY,65.8329400660689,NA,NA
41091,Boone County,KY,91.69419537517697,NA,NA
41094,Boone County,KY,70.12741859367625,NA,NA
41101,Boyd County,KY,12.836243511090137,14.095583787053842,NA
41102,Boyd County,KY,64.74752241623408,NA,NA
41129,Boyd County,KY,46.15384615384615,NA,NA
41144,Greenup County,KY,34.0726757904672,NA,NA
41164,Carter County,KY,74.04436054742803,NA,NA
41168,Boyd County,KY,94.10099103350638,NA,NA
41169,Greenup County,KY,NA,91.71203871748337,NA
41175,Greenup County,KY,58.37659273242095,NA,NA
41224,Martin County,KY,72.39263803680981,NA,NA
41230,Lawrence County,KY,19.867862199150544,NA,NA
41240,Johnson County,KY,NA,67.87658802177859,NA
41465,Magoffin County,KY,51.580934403020294,NA,NA
41501,Pike County,KY,8.21142048135913,40.77434966727162,NA
41537,Letcher County,KY,96.13025011798018,NA,NA
41562,Pike County,KY,93.86503067484662,NA,NA
42001,McCracken County,KY,23.737612081170365,15.668481548699335,NA
42003,McCracken County,KY,81.40632373761208,44.283121597096184,NA
42066,Graves County,KY,17.177914110429448,51.60314579552329,NA
42071,Calloway County,KY,34.59178857951864,NA,NA
42086,McCracken County,KY,97.7819726285984,NA,NA
42101,Warren County,KY,NA,11.252268602540836,NA
42129,Metcalfe County,KY,NA,58.620689655172406,NA
42134,Simpson County,KY,NA,87.05384150030248,NA
42164,Allen County,KY,32.043416705993394,NA,NA
42210,Edmonson County,KY,NA,95.6442831215971,NA
42211,Trigg County,KY,55.96979707409155,NA,NA
42220,Todd County,KY,NA,79.189352692075,NA
42240,Christian County,KY,NA,9.98185117967332,NA
42261,Butler County,KY,96.17744218971212,NA,NA
42276,Logan County,KY,48.32468145351581,NA,NA
42301,Daviess County,KY,28.78716375648891,6.77555958862674,15.400843881856542
42303,Daviess County,KY,7.031618688060407,NA,NA
42320,Ohio County,KY,84.37942425672486,NA,NA
42330,Muhlenberg County,KY,NA,82.75862068965517,NA
42348,Hancock County,KY,89.85370457763095,NA,NA
42376,Daviess County,KY,NA,88.62673926194798,NA
42408,Hopkins County,KY,NA,80.33877797943134,NA
42459,Union County,KY,89.85370457763095,NA,NA
42501,Pulaski County,KY,43.32232184992921,NA,NA
42503,Pulaski County,KY,80.41529023124116,51.966122202056866,NA
42602,Clinton County,KY,78.00849457291174,NA,NA
42629,Russell County,KY,NA,92.98245614035088,NA
42633,Wayne County,KY,NA,28.49364791288566,NA
42642,Russell County,KY,NA,60.859044162129464,NA
42701,Hardin County,KY,NA,NA,6.118143459915612
42718,Taylor County,KY,34.68617272298254,NA,NA
42726,Grayson County,KY,85.32326569136384,88.0822746521476,NA
42728,Adair County,KY,NA,NA,66.03375527426161
70002,Jefferson Parish,LA,NA,62.613430127041745,NA
70003,Jefferson Parish,LA,NA,NA,21.09704641350211
70056,Jefferson Parish,LA,3.2090608777725342,NA,NA
70068,St. John the Baptist Parish,LA,NA,66.36418632788869,NA
70072,Jefferson Parish,LA,NA,NA,67.9324894514768
70094,Jefferson Parish,LA,NA,11.131276467029643,NA
70117,Orleans Parish,LA,NA,46.763460375075624,NA
70127,Orleans Parish,LA,5.002359603586597,NA,NA
70128,Orleans Parish,LA,12.553091080698442,NA,NA
70301,Lafourche Parish,LA,1.557338367154318,5.807622504537205,NA
70360,Terrebonne Parish,LA,7.928268050967438,NA,NA
70364,Terrebonne Parish,LA,25.011798017932986,NA,NA
70380,St. Mary Parish,LA,16.517225106182163,NA,NA
70390,Assumption Parish,LA,51.580934403020294,NA,NA
70403,Tangipahoa Parish,LA,22.699386503067483,NA,NA
70427,Washington Parish,LA,11.65644171779141,NA,NA
70433,St. Tammany Parish,LA,4.624823029731005,53.17604355716878,NA
70437,St. Tammany Parish,LA,NA,57.89473684210527,72.15189873417721
70438,Washington Parish,LA,9.485606418121757,NA,NA
70448,St. Tammany Parish,LA,31.949032562529496,NA,NA
70454,Tangipahoa Parish,LA,NA,6.049606775559589,67.08860759493672
70458,St. Tammany Parish,LA,NA,55.7773744706594,NA
70461,St. Tammany Parish,LA,12.411514865502596,15.00302480338778,NA
70466,Tangipahoa Parish,LA,NA,97.94313369630973,NA
70506,Lafayette Parish,LA,20.292590844738083,NA,NA
70520,Lafayette Parish,LA,17.46106654082114,NA,NA
70525,Acadia Parish,LA,43.22793770646531,NA,NA
70535,St. Landry Parish,LA,53.51580934403021,NA,NA
70548,Vermilion Parish,LA,27.937706465313827,NA,NA
70555,Vermilion Parish,LA,NA,83.8475499092559,NA
70563,Iberia Parish,LA,84.42661632845682,NA,NA
70570,St. Landry Parish,LA,NA,36.66061705989111,NA
70586,Evangeline Parish,LA,11.798017932987257,NA,NA
70601,Calcasieu Parish,LA,1.0854176498348278,NA,NA
70615,Calcasieu Parish,LA,75.50731477111844,NA,NA
70648,Allen Parish,LA,NA,91.1070780399274,NA
70663,Calcasieu Parish,LA,5.993393109957528,NA,NA
70665,Calcasieu Parish,LA,28.834355828220858,NA,NA
70669,Calcasieu Parish,LA,NA,NA,87.34177215189874
70726,Livingston Parish,LA,0.9910335063709298,NA,NA
70737,Ascension Parish,LA,23.265691363850873,NA,NA
70763,St. James Parish,LA,98.06512505899009,NA,NA
70764,Iberville Parish,LA,NA,NA,83.12236286919831
70774,Ascension Parish,LA,49.787635677206225,NA,82.27848101265823
70785,Livingston Parish,LA,NA,NA,57.59493670886076
70806,East Baton Rouge Parish,LA,9.344030202925909,NA,NA
70808,East Baton Rouge Parish,LA,38.08400188768287,NA,NA
70809,East Baton Rouge Parish,LA,NA,42.5287356321839,NA
70815,East Baton Rouge Parish,LA,11.75082586125531,NA,NA
71052,De Soto Parish,LA,NA,64.06533575317604,NA
71055,Webster Parish,LA,NA,28.67513611615245,NA
71105,Caddo Parish,LA,32.515337423312886,NA,NA
71106,Caddo Parish,LA,NA,8.771929824561402,15.400843881856542
71107,Caddo Parish,LA,1.8876828692779613,14.700544464609798,NA
71111,Bossier Parish,LA,3.5865974516281263,NA,NA
71112,Bossier Parish,LA,35.15809344030203,NA,NA
71115,Caddo Parish,LA,88.90986314299198,83.36358136721113,NA
71295,Franklin Parish,LA,13.685700802265218,NA,NA
71301,Rapides Parish,LA,5.096743747050495,27.162734422262552,NA
71302,Rapides Parish,LA,19.96224634261444,82.3956442831216,NA
71303,Rapides Parish,LA,24.067956583294006,NA,NA
71351,Avoyelles Parish,LA,NA,NA,71.09704641350211
71360,Rapides Parish,LA,NA,58.13672111312764,NA
71417,Grant Parish,LA,NA,NA,94.30379746835443
71467,Grant Parish,LA,79.89617744218971,NA,NA
71483,Winn Parish,LA,NA,66.2431941923775,NA
04038,Cumberland County,ME,74.23312883435584,NA,NA
04046,York County,ME,75.79046720151015,NA,NA
04084,Cumberland County,ME,NA,96.55172413793103,NA
04254,Androscoggin County,ME,NA,97.27767695099818,NA
04259,Kennebec County,ME,97.82916470033034,NA,NA
04268,Oxford County,ME,NA,NA,80.37974683544303
04843,Knox County,ME,NA,60.01209921355112,NA
04917,Kennebec County,ME,87.91882963662104,NA,NA
04938,Franklin County,ME,NA,52.02661826981247,NA
04976,Somerset County,ME,NA,10.949788263762855,NA
20636,St. Mary's County,MD,81.07597923548843,NA,NA
20657,Calvert County,MD,NA,80.8832425892317,NA
20685,Calvert County,MD,92.63803680981594,NA,NA
20737,Prince George's County,MD,92.54365266635205,NA,NA
20743,Prince George's County,MD,61.58565361019349,NA,NA
20814,Montgomery County,MD,NA,72.29280096793708,NA
20854,Montgomery County,MD,56.67767815007079,27.10223835450696,NA
20876,Montgomery County,MD,NA,93.46642468239564,NA
20902,Montgomery County,MD,83.76592732420953,NA,NA
20904,Montgomery County,MD,52.10004719207173,NA,NA
21014,Harford County,MD,65.50259556394525,24.07743496672716,NA
21035,Anne Arundel County,MD,NA,90.74410163339383,NA
21045,Howard County,MD,NA,86.7513611615245,NA
21047,Harford County,MD,NA,78.94736842105263,NA
21050,Harford County,MD,65.6441717791411,NA,NA
21074,Carroll County,MD,72.15667767815007,NA,NA
21075,Howard County,MD,60.169891458235014,NA,NA
21084,Harford County,MD,93.72345445965078,NA,NA
21122,Anne Arundel County,MD,5.615856536101934,40.29038112522686,NA
21128,Baltimore County,MD,NA,94.61584996975196,NA
21158,Carroll County,MD,76.59273242095328,NA,NA
21202,Baltimore city,MD,35.77159037281737,NA,NA
21207,Baltimore County,MD,16.611609249646058,NA,NA
21212,Baltimore city,MD,85.93676262387919,NA,NA
21215,Baltimore city,MD,5.474280320906088,6.170598911070781,NA
21217,Baltimore city,MD,NA,12.764670296430733,NA
21222,Baltimore County,MD,3.303445021236432,NA,NA
21239,Baltimore city,MD,NA,NA,27.848101265822784
21286,Baltimore County,MD,NA,64.60980036297642,NA
21403,Anne Arundel County,MD,56.252949504483254,NA,NA
21502,Allegany County,MD,18.216139688532326,NA,NA
21620,Kent County,MD,NA,55.837870538415004,NA
21722,Washington County,MD,95.375176970269,NA,NA
21740,Washington County,MD,13.968853232656913,NA,NA
21742,Washington County,MD,NA,87.17483363581367,NA
21771,Frederick County,MD,57.10240679565833,NA,NA
21853,Somerset County,MD,NA,93.9503932244404,NA
21921,Cecil County,MD,39.1694195375177,NA,NA
01040,Hampden County,MA,0.04719207173194903,NA,NA
01060,Hampshire County,MA,36.4794714487966,41.80278281911676,NA
01075,Hampshire County,MA,2.878716375648891,NA,NA
01109,Hampden County,MA,0.09438414346389806,NA,NA
01201,Berkshire County,MA,0,NA,NA
01225,Berkshire County,MA,98.72581406323737,NA,NA
01230,Berkshire County,MA,61.77442189712128,NA,NA
01450,Middlesex County,MA,62.52949504483247,NA,84.38818565400844
01453,Worcester County,MA,0.7078810759792354,NA,NA
01463,Middlesex County,MA,39.358187824445494,NA,NA
01473,Worcester County,MA,NA,36.17664851784634,NA
01520,Worcester County,MA,92.21330816422841,NA,NA
01532,Worcester County,MA,41.62340726757905,NA,NA
01550,Worcester County,MA,NA,17.24137931034483,NA
01570,Worcester County,MA,NA,2.238354506957048,NA
01581,Worcester County,MA,26.89948088721095,NA,NA
01603,Worcester County,MA,1.2269938650306749,NA,NA
01605,Worcester County,MA,0.8022652194431336,NA,NA
01609,Worcester County,MA,NA,3.9322444041137325,NA
01720,Middlesex County,MA,NA,25.40834845735027,NA
01742,Middlesex County,MA,NA,67.02964307320023,30.37974683544304
01746,Middlesex County,MA,15.52619159981123,NA,NA
01748,Middlesex County,MA,NA,31.76043557168784,NA
01754,Middlesex County,MA,NA,48.69933454325469,NA
01757,Worcester County,MA,NA,NA,23.417721518987342
01760,Middlesex County,MA,30.25011798017933,NA,NA
01810,Essex County,MA,9.296838131193958,11.61524500907441,NA
01821,Middlesex County,MA,3.4450212364322796,NA,NA
01824,Middlesex County,MA,NA,4.537205081669692,NA
01832,Essex County,MA,2.3124115148655027,6.715063520871143,NA
01835,Essex County,MA,NA,52.32909860859044,NA
01843,Essex County,MA,1.8404907975460123,NA,NA
01862,Middlesex County,MA,95.79990561585655,NA,NA
01880,Middlesex County,MA,NA,25.83182093163944,NA
01890,Middlesex County,MA,NA,24.9848759830611,NA
01907,Essex County,MA,NA,26.31578947368421,NA
01915,Essex County,MA,1.1798017932987257,NA,NA
01921,Essex County,MA,NA,NA,98.94514767932489
01923,Essex County,MA,NA,NA,1.2658227848101267
01930,Essex County,MA,13.874469089193015,NA,NA
01940,Essex County,MA,55.21472392638037,NA,NA
01950,Essex County,MA,NA,18.572292800967936,NA
01960,Essex County,MA,NA,13.914095583787054,NA
01982,Essex County,MA,NA,81.66969147005445,NA
01985,Essex County,MA,NA,84.27102238354507,NA
02021,Norfolk County,MA,24.87022180273714,NA,NA
02035,Norfolk County,MA,NA,18.330308529945555,NA
02045,Plymouth County,MA,NA,88.44525105868118,NA
02054,Norfolk County,MA,66.06890042472865,NA,NA
02062,Norfolk County,MA,NA,7.50151240169389,NA
02114,Suffolk County,MA,NA,30.61101028433152,NA
02115,Suffolk County,MA,NA,72.95825771324864,NA
02116,Suffolk County,MA,NA,2.1173623714458563,NA
02118,Suffolk County,MA,NA,0.3629764065335753,NA
02124,Suffolk County,MA,NA,0.06049606775559589,NA
02125,Suffolk County,MA,0.28315243039169424,NA,NA
02126,Suffolk County,MA,3.067484662576687,NA,NA
02127,Suffolk County,MA,7.1731949032562525,NA,NA
02128,Suffolk County,MA,63.70929683813119,NA,NA
02130,Suffolk County,MA,0.5191127890514393,NA,NA
02134,Suffolk County,MA,8.305804624823029,NA,NA
02148,Middlesex County,MA,NA,0.12099213551119178,NA
02149,Middlesex County,MA,0.14157621519584712,NA,NA
02150,Suffolk County,MA,0.33034450212364325,NA,NA
02155,Middlesex County,MA,0.4719207173194903,NA,NA
02169,Norfolk County,MA,NA,25.226860254083483,NA
02184,Norfolk County,MA,NA,5.202661826981246,NA
02186,Norfolk County,MA,10.335063709296838,NA,NA
02189,Norfolk County,MA,NA,53.78100423472474,NA
02190,Norfolk County,MA,NA,28.009679370840896,NA
02302,Plymouth County,MA,0.6606890042472865,NA,3.5864978902953584
02339,Plymouth County,MA,84.70976875884851,NA,NA
02341,Plymouth County,MA,NA,75.43859649122807,NA
02343,Norfolk County,MA,NA,NA,66.66666666666666
02346,Plymouth County,MA,7.597923548843795,NA,NA
02360,Plymouth County,MA,12.741859367626237,12.099213551119178,NA
02368,Norfolk County,MA,NA,NA,60.12658227848101
02421,Middlesex County,MA,NA,NA,12.658227848101266
02453,Middlesex County,MA,NA,42.16575922565033,NA
02467,Norfolk County,MA,82.35016517225107,NA,NA
02474,Middlesex County,MA,NA,18.87477313974592,NA
02478,Middlesex County,MA,17.50825861255309,NA,NA
02536,Barnstable County,MA,NA,40.71385359951603,NA
02554,Nantucket County,MA,26.946672958942898,NA,NA
02563,Barnstable County,MA,85.181689476168,NA,NA
02576,Plymouth County,MA,54.27088249174139,NA,NA
02633,Barnstable County,MA,NA,85.96491228070175,NA
02639,Barnstable County,MA,83.86031146767343,NA,NA
02649,Barnstable County,MA,NA,20.992135511191773,NA
02703,Bristol County,MA,13.213780084945729,NA,NA
02720,Bristol County,MA,17.64983482774894,4.900181488203267,NA
02723,Bristol County,MA,NA,NA,91.13924050632912
02724,Bristol County,MA,NA,3.750756200846945,NA
02726,Bristol County,MA,NA,23.049001814882033,NA
02744,Bristol County,MA,7.6923076923076925,NA,NA
02747,Bristol County,MA,79.14110429447852,NA,NA
02748,Bristol County,MA,33.45917885795187,NA,NA
02790,Bristol County,MA,91.41104294478528,NA,NA
48006,St. Clair County,MI,98.15950920245399,NA,NA
48017,Oakland County,MI,NA,69.02601330913491,NA
48030,Oakland County,MI,36.43227937706465,NA,NA
48034,Oakland County,MI,NA,47.0659407138536,NA
48042,Macomb County,MI,16.281264747522417,NA,NA
48044,Macomb County,MI,5.568664464369986,NA,NA
48045,Macomb County,MI,NA,44.64609800362977,NA
48059,St. Clair County,MI,61.72722982538933,NA,NA
48060,St. Clair County,MI,1.9820670127418596,3.8112522686025407,16.877637130801688
48064,St. Clair County,MI,94.43133553563001,NA,NA
48065,Macomb County,MI,69.56111373289288,NA,NA
48066,Macomb County,MI,NA,30.066545674531152,NA
48072,Oakland County,MI,44.785276073619634,NA,NA
48076,Oakland County,MI,NA,20.26618269812462,NA
48080,Macomb County,MI,NA,NA,26.582278481012654
48082,Macomb County,MI,NA,29.401088929219597,NA
48084,Oakland County,MI,72.25106182161397,NA,NA
48085,Oakland County,MI,NA,59.286146400483965,NA
48089,Macomb County,MI,45.39877300613497,NA,NA
48091,Macomb County,MI,4.483246814535158,NA,NA
48093,Macomb County,MI,45.16281264747523,NA,NA
48103,Washtenaw County,MI,11.231713072203869,NA,NA
48105,Washtenaw County,MI,NA,42.10526315789473,NA
48111,Wayne County,MI,NA,48.15486993345432,NA
48125,Wayne County,MI,17.0363378952336,NA,NA
48126,Wayne County,MI,7.220386974988202,NA,NA
48127,Wayne County,MI,8.82491741387447,NA,NA
48134,Wayne County,MI,79.04672015101463,NA,NA
48141,Wayne County,MI,NA,45.43254688445251,NA
48146,Wayne County,MI,NA,11.19177253478524,NA
48154,Wayne County,MI,NA,NA,5.063291139240507
48160,Washtenaw County,MI,NA,51.60314579552329,NA
48161,Monroe County,MI,56.488909863142986,NA,NA
48162,Monroe County,MI,NA,37.02359346642468,NA
48166,Monroe County,MI,35.96035865974516,NA,NA
48168,Wayne County,MI,NA,32.78886872353297,NA
48174,Wayne County,MI,NA,10.465819721718088,NA
48176,Washtenaw County,MI,33.883907503539405,NA,NA
48178,Oakland County,MI,NA,8.953418027828192,NA
48180,Wayne County,MI,NA,NA,1.6877637130801686
48185,Wayne County,MI,NA,4.4162129461585,NA
48192,Wayne County,MI,NA,24.500907441016334,NA
48195,Wayne County,MI,18.452100047192072,NA,NA
48198,Washtenaw County,MI,1.651722510618216,NA,NA
48201,Wayne County,MI,NA,82.03266787658802,NA
48204,Wayne County,MI,NA,23.714458560193588,NA
48205,Wayne County,MI,2.8315243039169418,NA,NA
48214,Wayne County,MI,14.818310523831995,NA,NA
48219,Wayne County,MI,NA,1.8148820326678767,NA
48221,Wayne County,MI,3.6809815950920246,NA,NA
48223,Wayne County,MI,NA,NA,58.86075949367089
48224,Wayne County,MI,NA,15.547489413188142,NA
48227,Wayne County,MI,2.1236432279377064,NA,NA
48228,Wayne County,MI,NA,5.021173623714459,NA
48236,Wayne County,MI,NA,40.95583787053842,NA
48239,Wayne County,MI,5.8990089664936285,NA,NA
48240,Wayne County,MI,15.384615384615385,NA,NA
48301,Oakland County,MI,NA,67.51361161524501,NA
48307,Oakland County,MI,13.402548371873523,NA,NA
48310,Macomb County,MI,11.939594148183104,NA,NA
48315,Macomb County,MI,NA,14.156079854809436,NA
48316,Macomb County,MI,NA,37.50756200846945,NA
48317,Macomb County,MI,NA,14.882032667876588,NA
48327,Oakland County,MI,25.955639452571965,NA,NA
48336,Oakland County,MI,26.285983954695613,NA,NA
48341,Oakland County,MI,NA,NA,90.92827004219409
48346,Oakland County,MI,NA,43.496672716273444,NA
48348,Oakland County,MI,30.014157621519583,NA,NA
48357,Oakland County,MI,79.47144879660217,NA,NA
48371,Oakland County,MI,30.72203869749882,NA,NA
48381,Oakland County,MI,NA,79.61282516636419,NA
48386,Oakland County,MI,79.51864086833412,NA,NA
48390,Oakland County,MI,64.22840962718264,NA,NA
48393,Oakland County,MI,40.06606890042473,NA,NA
48422,Sanilac County,MI,95.1864086833412,NA,NA
48430,Genesee County,MI,19.49032562529495,50.51421657592257,NA
48433,Genesee County,MI,73.66682397357243,NA,NA
48439,Genesee County,MI,NA,10.707803992740473,NA
48446,Lapeer County,MI,38.27277017461066,NA,18.354430379746837
48457,Genesee County,MI,91.45823501651722,NA,NA
48462,Oakland County,MI,70.78810759792354,NA,NA
48471,Sanilac County,MI,68.85323265691365,NA,NA
48473,Genesee County,MI,NA,32.3653962492438,NA
48503,Genesee County,MI,NA,49.84875983061101,NA
48506,Genesee County,MI,18.688060405851818,NA,NA
48601,Saginaw County,MI,1.321378008494573,NA,NA
48602,Saginaw County,MI,14.440773949976403,NA,NA
48603,Saginaw County,MI,33.836715431807455,32.78886872353297,8.649789029535865
48604,Saginaw County,MI,48.7022180273714,NA,NA
48609,Saginaw County,MI,35.44124587069372,NA,NA
48617,Clare County,MI,85.2760736196319,NA,NA
48626,Saginaw County,MI,NA,NA,78.90295358649789
48638,Saginaw County,MI,NA,37.50756200846945,NA
48640,Midland County,MI,29.30627654554035,NA,NA
48661,Ogemaw County,MI,74.46908919301556,47.791893526920745,NA
48706,Bay County,MI,65.59697970740915,NA,NA
48708,Bay County,MI,5.427088249174139,5.323653962492438,NA
48722,Saginaw County,MI,96.27182633317602,94.43436176648518,NA
48759,Huron County,MI,NA,84.63399879007865,NA
48823,Ingham County,MI,NA,NA,38.18565400843882
48827,Eaton County,MI,NA,25.83182093163944,NA
48838,Montcalm County,MI,NA,23.41197822141561,NA
48842,Ingham County,MI,64.08683341198679,NA,NA
48843,Livingston County,MI,34.497404436054744,21.35511191772535,NA
48846,Ionia County,MI,31.949032562529496,NA,NA
48854,Ingham County,MI,NA,49.9697519661222,NA
48858,Isabella County,MI,21.094856064181215,NA,NA
48867,Shiawassee County,MI,4.766399244926852,4.537205081669692,NA
48895,Ingham County,MI,75.08258612553091,92.86146400483969,NA
48910,Ingham County,MI,NA,NA,34.38818565400844
48911,Ingham County,MI,22.274657857479944,NA,NA
48912,Ingham County,MI,NA,NA,73.83966244725738
48917,Eaton County,MI,6.370929683813118,NA,NA
49011,Calhoun County,MI,99.10335063709297,NA,NA
49022,Berrien County,MI,6.842850401132609,NA,NA
49037,Calhoun County,MI,11.184521000471921,NA,NA
49068,Calhoun County,MI,48.84379424256725,NA,NA
49079,Van Buren County,MI,NA,90.98608590441621,NA
49087,Kalamazoo County,MI,85.6536101934875,NA,NA
49097,Kalamazoo County,MI,57.43275129778197,NA,NA
49120,Berrien County,MI,NA,42.46823956442831,NA
49203,Jackson County,MI,5.191127890514394,27.8886872353297,NA
49230,Jackson County,MI,NA,41.1978221415608,NA
49240,Jackson County,MI,NA,52.45009074410163,NA
49247,Lenawee County,MI,66.35205285512033,NA,NA
49323,Allegan County,MI,78.4332232184993,NA,NA
49327,Newaygo County,MI,88.39075035394053,NA,NA
49331,Kent County,MI,43.36951392166116,NA,NA
49336,Mecosta County,MI,NA,99.51603145795524,NA
49417,Ottawa County,MI,12.883435582822086,4.2347247428917125,NA
49420,Oceana County,MI,64.98348277489382,NA,NA
49426,Ottawa County,MI,NA,NA,23.20675105485232
49431,Mason County,MI,73.80840018876829,NA,NA
49441,Muskegon County,MI,8.636149126946673,NA,NA
49442,Muskegon County,MI,29.3534686172723,2.540834845735027,NA
49444,Muskegon County,MI,28.97593204341671,NA,NA
49456,Ottawa County,MI,NA,21.29461584996975,NA
49464,Ottawa County,MI,45.06842850401133,82.09316394434362,NA
49504,Kent County,MI,10.995752713544125,NA,NA
49508,Kent County,MI,20.15101462954224,NA,NA
49525,Kent County,MI,28.31524303916942,NA,NA
49546,Kent County,MI,31.24115148655026,NA,NA
49548,Kent County,MI,4.9079754601226995,40.653357531760435,NA
49601,Wexford County,MI,95.84709768758849,NA,NA
49677,Osceola County,MI,57.95186408683342,NA,NA
49690,Grand Traverse County,MI,NA,NA,73.62869198312237
49735,Otsego County,MI,81.97262859839547,NA,NA
49849,Marquette County,MI,41.198678621991505,NA,NA
49858,Menominee County,MI,NA,66.0617059891107,NA
49913,Houghton County,MI,77.20622935346861,NA,NA
49930,Houghton County,MI,NA,68.23956442831216,NA
49945,Houghton County,MI,NA,97.76164549304295,NA
55013,Chisago County,MN,NA,95.52329098608591,NA
55024,Dakota County,MN,43.699858423784804,NA,NA
55033,Dakota County,MN,71.68475696083057,NA,NA
55044,Dakota County,MN,NA,55.53539019963702,NA
55102,Ramsey County,MN,NA,33.09134906231095,NA
55106,Ramsey County,MN,NA,19.54022988505747,NA
55108,Ramsey County,MN,82.7748938178386,NA,NA
55110,Ramsey County,MN,NA,30.369026013309135,NA
55118,Dakota County,MN,NA,35.87416817906836,NA
55119,Ramsey County,MN,9.627182633317604,NA,NA
55124,Dakota County,MN,31.901840490797547,33.15184513006655,NA
55347,Hennepin County,MN,60.02831524303917,NA,NA
55350,McLeod County,MN,22.746578574799432,61.34301270417423,NA
55355,Meeker County,MN,NA,70.35692679975801,NA
55372,Scott County,MN,78.66918357715905,NA,NA
55387,Carver County,MN,NA,80.7017543859649,NA
55407,Hennepin County,MN,4.294478527607362,NA,NA
55408,Hennepin County,MN,32.09060877772534,NA,NA
55414,Hennepin County,MN,45.82350165172251,NA,NA
55417,Hennepin County,MN,42.897593204341675,NA,NA
55418,Hennepin County,MN,21.802737140160453,NA,NA
55420,Hennepin County,MN,32.32656913638509,NA,NA
55422,Hennepin County,MN,24.209532798489857,NA,NA
55426,Hennepin County,MN,79.42425672487022,NA,NA
55433,Anoka County,MN,29.0703161868806,NA,NA
55720,Carlton County,MN,NA,36.41863278886872,NA
55731,St. Louis County,MN,NA,88.68723532970357,NA
55733,Carlton County,MN,98.96177442189712,NA,NA
55744,Itasca County,MN,58.5181689476168,NA,NA
55746,St. Louis County,MN,NA,24.803387779794313,NA
55906,Olmsted County,MN,64.36998584237848,NA,NA
56156,Rock County,MN,NA,55.35390199637023,NA
56201,Kandiyohi County,MN,38.41434638980651,56.98729582577132,NA
56241,Yellow Medicine County,MN,NA,95.52329098608591,NA
56265,Chippewa County,MN,NA,51.05868118572293,NA
56304,Sherburne County,MN,52.47758376592733,NA,NA
56345,Morrison County,MN,71.44879660217084,30.732002419842708,NA
56378,Stearns County,MN,95.98867390278433,NA,NA
56401,Crow Wing County,MN,NA,3.4482758620689653,NA
56441,Crow Wing County,MN,91.88296366210477,NA,NA
56537,Otter Tail County,MN,13.355356300141578,NA,NA
56560,Clay County,MN,8.966493629070316,2.4803387779794313,NA
56649,Koochiching County,MN,NA,52.08711433756806,NA
56701,Pennington County,MN,14.771118452100046,NA,NA
56716,Polk County,MN,25.153374233128833,NA,NA
56762,Marshall County,MN,92.26050023596036,NA,NA
38611,Marshall County,MS,80.8400188768287,84.87598306110102,NA
38614,Coahoma County,MS,45.445965077866916,NA,NA
38632,DeSoto County,MS,43.605474280320905,NA,NA
38654,DeSoto County,MS,NA,16.273442226255295,NA
38655,Lafayette County,MS,64.03964134025483,NA,NA
38672,DeSoto County,MS,77.8669183577159,NA,NA
38751,Sunflower County,MS,NA,69.57047791893527,NA
38756,Washington County,MS,93.44030202925909,NA,NA
38801,Lee County,MS,77.63095799905616,NA,NA
38827,Tishomingo County,MS,92.4964605946201,NA,NA
38834,Alcorn County,MS,NA,19.237749546279492,NA
38847,Itawamba County,MS,96.69655497876357,NA,NA
38852,Tishomingo County,MS,48.65502595563945,NA,NA
38866,Lee County,MS,NA,78.94736842105263,NA
39046,Madison County,MS,NA,48.63883847549909,NA
39051,Leake County,MS,39.73572439830109,NA,NA
39074,Scott County,MS,NA,NA,79.53586497890295
39095,Holmes County,MS,80.6512505899009,NA,NA
39117,Scott County,MS,NA,90.19963702359347,NA
39183,Warren County,MS,56.58329400660689,NA,NA
39206,Hinds County,MS,NA,NA,72.78481012658227
39211,Hinds County,MS,57.85747994336952,NA,NA
39212,Hinds County,MS,NA,NA,75.31645569620254
39301,Lauderdale County,MS,86.45587541293062,NA,NA
39305,Lauderdale County,MS,92.6852288815479,NA,NA
39307,Lauderdale County,MS,32.94006606890043,NA,88.39662447257383
39339,Winston County,MS,91.88296366210477,NA,NA
39429,Marion County,MS,NA,61.22202056866304,NA
39443,Jones County,MS,58.5181689476168,NA,NA
39452,George County,MS,NA,53.11554748941318,NA
39466,Pearl River County,MS,20.339782916470035,11.978221415607985,NA
39482,Lamar County,MS,NA,90.13914095583787,NA
39483,Marion County,MS,78.90514393581878,NA,NA
39501,Harrison County,MS,14.582350165172251,46.581972171808836,NA
39503,Harrison County,MS,30.580462482302973,NA,NA
39530,Harrison County,MS,83.43558282208589,NA,NA
39531,Harrison County,MS,NA,NA,57.383966244725734
39560,Harrison County,MS,NA,33.756805807622506,NA
39562,Jackson County,MS,76.02642756016989,NA,NA
39563,Jackson County,MS,NA,NA,58.64978902953587
39564,Jackson County,MS,26.805096743747047,NA,NA
39565,Jackson County,MS,56.34733364794714,31.397459165154263,NA
39577,Stone County,MS,96.27182633317602,NA,NA
39581,Jackson County,MS,72.15667767815007,NA,NA
39601,Lincoln County,MS,NA,NA,40.08438818565401
39645,Amite County,MS,86.12553091080699,NA,NA
39648,Pike County,MS,NA,44.40411373260738,NA
39667,Walthall County,MS,92.07173194903257,NA,NA
39702,Lowndes County,MS,88.20198206701274,43.43617664851785,NA
39705,Lowndes County,MS,NA,78.64488808227466,NA
39740,Lowndes County,MS,NA,98.6690865093769,NA
63010,Jefferson County,MO,32.32656913638509,NA,NA
63011,St. Louis County,MO,NA,13.006654567453117,NA
63023,Jefferson County,MO,97.35724398301086,NA,NA
63026,St. Louis County,MO,29.54223690420009,NA,NA
63028,Jefferson County,MO,NA,17.725347852389596,NA
63031,St. Louis County,MO,42.42567248702218,NA,NA
63043,St. Louis County,MO,46.2010382255781,NA,NA
63070,Jefferson County,MO,NA,NA,90.29535864978902
63080,Franklin County,MO,38.55592260500236,NA,NA
63105,St. Louis County,MO,91.55261915998112,NA,NA
63108,St. Louis city,MO,43.74705049551675,NA,NA
63109,St. Louis city,MO,NA,35.329703569268,NA
63111,St. Louis city,MO,NA,NA,70.46413502109705
63113,St. Louis city,MO,57.29117508258612,NA,NA
63115,St. Louis city,MO,NA,NA,61.18143459915611
63116,St. Louis city,MO,NA,48.21536600120992,NA
63120,St. Louis city,MO,NA,78.0399274047187,NA
63122,St. Louis County,MO,51.486550259556395,18.39080459770115,NA
63123,St. Louis County,MO,NA,9.800362976406534,2.109704641350211
63125,St. Louis County,MO,NA,NA,13.291139240506327
63129,St. Louis County,MO,NA,4.779189352692075,NA
63131,St. Louis County,MO,NA,69.0865093768905,NA
63132,St. Louis County,MO,NA,80.39927404718694,NA
63301,St. Charles County,MO,NA,18.451300665456746,NA
63303,St. Charles County,MO,82.01982067012742,NA,NA
63304,St. Charles County,MO,NA,NA,16.666666666666664
63348,St. Charles County,MO,90.89193015573383,NA,NA
63353,Pike County,MO,89.85370457763095,NA,NA
63366,St. Charles County,MO,NA,21.718088324258925,NA
63368,St. Charles County,MO,66.30486078338839,NA,NA
63383,Warren County,MO,46.95611137328929,NA,NA
63385,St. Charles County,MO,NA,8.711433756805807,NA
63701,Cape Girardeau County,MO,32.18499292118924,NA,NA
63755,Cape Girardeau County,MO,NA,45.19056261343013,NA
63801,Scott County,MO,47.89995280792827,NA,NA
63834,Mississippi County,MO,80.03775365738555,NA,NA
63841,Stoddard County,MO,NA,68.11857229280098,NA
63857,Dunklin County,MO,37.470504955167534,NA,NA
63901,Butler County,MO,9.957527135441246,NA,NA
63957,Wayne County,MO,90.89193015573383,NA,NA
64012,Cass County,MO,21.283624351109015,19.479733817301874,NA
64015,Jackson County,MO,54.88437942425672,NA,NA
64030,Jackson County,MO,NA,12.825166364186327,NA
64050,Jackson County,MO,NA,66.00120992135511,75.52742616033755
64052,Jackson County,MO,7.4091552619159975,NA,NA
64055,Jackson County,MO,24.634261444077396,NA,NA
64068,Clay County,MO,NA,26.799758015728976,NA
64075,Jackson County,MO,36.3850873053327,NA,NA
64086,Jackson County,MO,74.42189712128362,NA,NA
64089,Clay County,MO,45.96507786691836,NA,NA
64093,Johnson County,MO,NA,28.554143980641257,NA
64111,Jackson County,MO,19.96224634261444,NA,NA
64114,Jackson County,MO,62.057574327512974,34.90623109497883,NA
64116,Clay County,MO,18.64086833411987,NA,79.957805907173
64118,Clay County,MO,3.7281736668239738,5.081669691470054,NA
64119,Clay County,MO,7.645115620575743,NA,NA
64129,Jackson County,MO,42.75601698914582,NA,NA
64130,Jackson County,MO,NA,50.51421657592257,NA
64131,Jackson County,MO,NA,27.586206896551722,NA
64145,Jackson County,MO,NA,93.16394434361767,NA
64152,Platte County,MO,NA,28.372655777374472,NA
64155,Clay County,MO,NA,16.999395039322444,NA
64429,Clinton County,MO,43.51109013685701,NA,NA
64503,Buchanan County,MO,51.95847097687588,NA,NA
64507,Buchanan County,MO,20.339782916470035,NA,NA
64772,Vernon County,MO,34.450212364322795,NA,NA
64804,Jasper County,MO,NA,5.8681185722928015,NA
64831,McDonald County,MO,90.04247286455876,NA,NA
64836,Jasper County,MO,NA,21.89957652752571,NA
65026,Miller County,MO,NA,68.72353297035693,NA
65037,Morgan County,MO,88.72109485606418,NA,NA
65084,Morgan County,MO,81.17036337895233,NA,NA
65201,Boone County,MO,NA,57.16878402903811,NA
65202,Boone County,MO,NA,16.93889897156685,NA
65251,Callaway County,MO,23.87918829636621,48.880822746521474,NA
65270,Randolph County,MO,NA,34.30127041742287,NA
65301,Pettis County,MO,2.784332232184993,30.30852994555354,30.590717299578056
65338,Benton County,MO,99.24492685228881,NA,NA
65355,Benton County,MO,NA,69.32849364791288,NA
65401,Phelps County,MO,31.146767343086363,NA,NA
65453,Crawford County,MO,NA,91.47005444646098,NA
65459,Pulaski County,MO,NA,84.63399879007865,NA
65536,Laclede County,MO,NA,NA,27.42616033755274
65560,Dent County,MO,NA,92.31699939503932,NA
65605,Lawrence County,MO,NA,77.19298245614034,NA
65622,Dallas County,MO,68.57008022652195,NA,NA
65653,Taney County,MO,88.43794242567249,NA,NA
65708,Barry County,MO,NA,NA,80.80168776371308
65714,Christian County,MO,NA,39.7459165154265,NA
65775,Howell County,MO,58.18782444549315,25.710828796128247,NA
65802,Greene County,MO,31.6658801321378,NA,NA
65803,Greene County,MO,7.26757904672015,NA,NA
59044,Yellowstone County,MT,NA,95.28130671506352,NA
59101,Yellowstone County,MT,NA,55.232909860859046,NA
59102,Yellowstone County,MT,NA,3.0248033877797944,NA
59404,Cascade County,MT,38.55592260500236,NA,NA
59405,Cascade County,MT,55.073147711184525,NA,NA
59601,Lewis and Clark County,MT,67.34308636149126,NA,NA
59602,Lewis and Clark County,MT,51.06182161396885,NA,NA
59701,Silver Bow County,MT,NA,31.276467029643072,NA
59714,Gallatin County,MT,58.94289759320435,NA,NA
59901,Flathead County,MT,NA,NA,94.72573839662446
59912,Flathead County,MT,NA,50.93768905021173,NA
59937,Flathead County,MT,NA,65.81972171808832,NA
68007,Douglas County,NE,95.51675318546484,NA,NA
68104,Douglas County,NE,19.773478055686645,NA,NA
68116,Douglas County,NE,NA,83.60556563823351,NA
68123,Sarpy County,NE,NA,NA,87.55274261603375
68127,Douglas County,NE,60.97215667767814,NA,NA
68135,Douglas County,NE,NA,64.36781609195403,NA
68137,Douglas County,NE,NA,41.07683000604961,NA
68310,Gage County,NE,59.27324209532798,46.21899576527525,16.033755274261605
68352,Jefferson County,NE,NA,NA,83.33333333333334
68502,Lancaster County,NE,NA,66.90865093768905,NA
68504,Lancaster County,NE,71.87352524775838,NA,NA
68516,Lancaster County,NE,NA,39.624924379915306,NA
68847,Buffalo County,NE,NA,73.32123411978222,NA
69101,Lincoln County,NE,18.12175554506843,NA,NA
89110,Clark County,NV,14.912694667295895,NA,NA
89121,Clark County,NV,21.661160924964605,NA,NA
89130,Clark County,NV,NA,NA,48.52320675105485
89131,Clark County,NV,40.49079754601227,NA,NA
89144,Clark County,NV,90.0896649362907,NA,NA
89147,Clark County,NV,NA,43.13369630973987,NA
89403,Lyon County,NV,31.477111845210004,68.05807622504537,NA
89406,Churchill County,NV,34.30863614912695,NA,NA
89408,Lyon County,NV,NA,82.2141560798548,NA
89410,Douglas County,NV,NA,23.95644283121597,NA
89423,Douglas County,NV,NA,82.5166364186328,NA
89429,Lyon County,NV,90.42000943841435,NA,NA
89434,Washoe County,NV,37.23454459650778,NA,NA
89436,Washoe County,NV,17.319490325625296,NA,NA
89441,Washoe County,NV,NA,NA,82.0675105485232
89444,Lyon County,NV,NA,98.85057471264368,NA
89451,Washoe County,NV,100,NA,NA
89460,Douglas County,NV,69.41953751769702,NA,NA
89502,Washoe County,NV,14.865502595563946,NA,NA
89503,Washoe County,NV,51.91127890514393,NA,NA
89511,Washoe County,NV,NA,58.13672111312764,NA
89521,Washoe County,NV,NA,25.287356321839084,NA
89523,Washoe County,NV,NA,23.65396249243799,NA
89701,Carson City,NV,NA,36.84210526315789,NA
89815,Elko County,NV,77.58376592732421,NA,NA
03031,Hillsborough County,NH,NA,60.55656382335148,NA
03038,Rockingham County,NH,9.060877772534216,NA,NA
03049,Hillsborough County,NH,73.38367154318075,66.2431941923775,NA
03054,Hillsborough County,NH,25.955639452571965,NA,NA
03060,Hillsborough County,NH,NA,7.6225045372050815,NA
03062,Hillsborough County,NH,NA,5.505142165759225,NA
03076,Hillsborough County,NH,38.791882963662104,NA,NA
03079,Rockingham County,NH,11.562057574327513,13.06715063520871,NA
03087,Rockingham County,NH,NA,79.91530550514216,NA
03446,Cheshire County,NH,90.79754601226993,NA,NA
03458,Hillsborough County,NH,89.00424728645588,NA,NA
03461,Cheshire County,NH,NA,95.76527525710829,NA
03743,Sullivan County,NH,46.90891930155734,NA,NA
03811,Rockingham County,NH,NA,83.48457350272233,NA
03820,Strafford County,NH,15.809344030202926,NA,NA
03835,Strafford County,NH,79.61302501179802,NA,NA
03867,Strafford County,NH,16.705993393109956,NA,NA
03874,Rockingham County,NH,NA,80.58076225045372,NA
07002,Hudson County,NJ,0.7550731477111845,1.3914095583787054,NA
07006,Essex County,NJ,NA,NA,79.32489451476793
07008,Middlesex County,NJ,19.915054270882493,NA,NA
07009,Essex County,NJ,73.3364794714488,NA,NA
07013,Passaic County,NJ,65.5497876356772,NA,NA
07030,Hudson County,NJ,4.38886267107126,NA,NA
07042,Essex County,NJ,NA,89.65517241379311,NA
07043,Essex County,NJ,NA,87.84029038112523,NA
07052,Essex County,NJ,NA,10.223835450695704,NA
07067,Middlesex County,NJ,NA,89.41318814277072,NA
07082,Morris County,NJ,NA,NA,96.41350210970464
07083,Union County,NJ,97.8763567720623,NA,NA
07087,Hudson County,NJ,2.0764511562057573,NA,NA
07090,Union County,NJ,71.26002831524303,NA,NA
07103,Essex County,NJ,NA,27.223230490018146,NA
07104,Essex County,NJ,3.964134025483719,NA,NA
07108,Essex County,NJ,NA,13.793103448275861,NA
07306,Hudson County,NJ,61.302501179801794,NA,NA
07307,Hudson County,NJ,7.975460122699387,NA,NA
07410,Bergen County,NJ,42.61444077394997,NA,NA
07420,Passaic County,NJ,NA,76.04355716878402,NA
07424,Passaic County,NJ,31.854648419065594,NA,NA
07442,Passaic County,NJ,63.89806512505899,NA,NA
07457,Morris County,NJ,92.92118924020765,NA,NA
07462,Sussex County,NJ,76.82869277961302,NA,NA
07480,Passaic County,NJ,NA,NA,70.88607594936708
07501,Passaic County,NJ,NA,11.312764670296431,NA
07508,Passaic County,NJ,23.124115148655026,NA,NA
07522,Passaic County,NJ,3.350637092968381,NA,NA
07652,Bergen County,NJ,NA,19.177253478523895,NA
07701,Monmouth County,NJ,69.27796130250118,NA,NA
07726,Monmouth County,NJ,80.60405851816896,20.38717483363581,NA
07728,Monmouth County,NJ,90.51439358187825,NA,NA
07731,Monmouth County,NJ,24.775837659273243,NA,NA
07734,Monmouth County,NJ,NA,66.96914700544465,NA
07746,Monmouth County,NJ,NA,NA,93.45991561181435
07747,Monmouth County,NJ,NA,32.72837265577738,NA
07755,Monmouth County,NJ,86.97498820198206,NA,NA
07828,Morris County,NJ,49.97640396413402,64.30732002419842,NA
07834,Morris County,NJ,NA,67.7555958862674,NA
07860,Sussex County,NJ,20.339782916470035,20.6291591046582,NA
08005,Ocean County,NJ,13.732892873997168,NA,NA
08012,Camden County,NJ,4.011326097215668,NA,NA
08021,Camden County,NJ,0.18876828692779613,28.977616454930427,NA
08054,Burlington County,NJ,NA,9.618874773139746,NA
08055,Burlington County,NJ,NA,53.901996370235935,NA
08069,Salem County,NJ,84.66257668711657,NA,NA
08077,Burlington County,NJ,NA,84.57350272232304,NA
08078,Camden County,NJ,53.610193487494094,NA,NA
08090,Gloucester County,NJ,NA,80.15728977616455,NA
08091,Camden County,NJ,82.16139688532327,NA,NA
08110,Camden County,NJ,9.863142991977348,NA,NA
08205,Atlantic County,NJ,59.65077866918358,NA,NA
08234,Atlantic County,NJ,NA,9.134906231094979,NA
08260,Cape May County,NJ,NA,20.447670901391408,NA
08312,Gloucester County,NJ,86.55025955639452,NA,NA
08332,Cumberland County,NJ,NA,11.736237144585603,NA
08401,Atlantic County,NJ,0.23596035865974516,1.8753781004234724,NA
08515,Burlington County,NJ,98.20670127418593,NA,NA
08533,Ocean County,NJ,96.08305804624823,NA,NA
08534,Mercer County,NJ,NA,93.28493647912886,NA
08536,Middlesex County,NJ,47.805568664464374,NA,NA
08618,Mercer County,NJ,0.4247286455875413,NA,NA
08723,Ocean County,NJ,39.59414818310524,16.515426497277677,NA
08724,Ocean County,NJ,6.606890042472864,NA,NA
08753,Ocean County,NJ,1.6045304388862671,2.782819116757411,NA
08755,Ocean County,NJ,NA,14.398064125831823,NA
08816,Middlesex County,NJ,61.113732892874,NA,NA
08822,Hunterdon County,NJ,66.2104766399245,NA,NA
08837,Middlesex County,NJ,NA,53.96249243799153,NA
08861,Middlesex County,NJ,0.8494572911750826,NA,NA
08879,Middlesex County,NJ,86.78621991505428,NA,NA
87004,Sandoval County,NM,66.58801321378009,NA,NA
87105,Bernalillo County,NM,2.642756016989146,NA,NA
87108,Bernalillo County,NM,NA,3.6297640653357535,NA
87109,Bernalillo County,NM,NA,NA,9.70464135021097
87110,Bernalillo County,NM,NA,NA,42.405063291139236
87111,Bernalillo County,NM,NA,NA,4.008438818565401
87123,Bernalillo County,NM,8.919301557338368,NA,NA
87506,Santa Fe County,NM,NA,74.04718693284936,NA
87532,Santa Fe County,NM,64.41717791411043,36.47912885662432,NA
87701,San Miguel County,NM,NA,42.83121597096189,NA
88001,Doa Ana County,NM,NA,NA,51.47679324894515
88005,Doa Ana County,NM,NA,33.45432546884452,NA
88011,Doa Ana County,NM,NA,71.50635208711434,NA
88012,Doa Ana County,NM,27.465785747994335,NA,NA
88061,Grant County,NM,NA,64.7307924984876,NA
88081,Otero County,NM,71.49598867390279,NA,NA
88201,Chaves County,NM,NA,NA,53.58649789029536
88203,Chaves County,NM,NA,13.127646702964308,NA
88260,Lea County,NM,33.41198678621991,33.8777979431337,NA
88310,Otero County,NM,NA,41.137326073805205,5.69620253164557
10009,New York County,NY,6.4181217555450685,NA,NA
10016,New York County,NY,NA,NA,85.23206751054853
10021,New York County,NY,66.54082114204813,NA,NA
10023,New York County,NY,NA,9.55837870538415,NA
10026,New York County,NY,19.065596979707408,NA,NA
10027,New York County,NY,87.54129306276546,8.832425892317,NA
10031,New York County,NY,26.380368098159508,NA,NA
10032,New York County,NY,NA,4.658197217180883,NA
10036,New York County,NY,31.24115148655026,85.72292800967936,NA
10039,New York County,NY,NA,32.60738052026618,NA
10075,New York County,NY,80.4624823029731,NA,NA
10454,Bronx County,NY,21.849929211892402,NA,NA
10455,Bronx County,NY,NA,6.352087114337568,NA
10456,Bronx County,NY,NA,NA,1.89873417721519
10458,Bronx County,NY,16.658801321378007,NA,NA
10463,Bronx County,NY,5.238319962246343,NA,NA
10467,Bronx County,NY,NA,0.18148820326678766,NA
10469,Bronx County,NY,2.1708352996696556,NA,NA
10472,Bronx County,NY,NA,1.0889292196007259,NA
10473,Bronx County,NY,NA,NA,84.59915611814345
10510,Westchester County,NY,NA,90.74410163339383,NA
10512,Putnam County,NY,NA,62.25045372050817,NA
10520,Westchester County,NY,NA,71.74833635813673,NA
10530,Westchester County,NY,93.86503067484662,NA,NA
10543,Westchester County,NY,NA,70.29643073200242,NA
10550,Westchester County,NY,50.920245398773,NA,NA
10562,Westchester County,NY,NA,59.83061101028433,NA
10598,Westchester County,NY,88.24917413874469,NA,NA
10603,Westchester County,NY,NA,70.90139140955839,NA
10701,Westchester County,NY,0.8966493629070316,NA,NA
10703,Westchester County,NY,30.34450212364323,NA,NA
10705,Westchester County,NY,NA,20.87114337568058,NA
10927,Rockland County,NY,83.19962246342615,NA,NA
10960,Rockland County,NY,78.81075979235489,NA,NA
11003,Nassau County,NY,50.21236432279377,NA,NA
11021,Nassau County,NY,NA,89.05021173623715,NA
11050,Nassau County,NY,NA,49.122807017543856,NA
11201,Kings County,NY,73.94997640396413,NA,NA
11203,Kings County,NY,NA,3.9927404718693285,NA
11207,Kings County,NY,NA,0.5444646098003629,88.60759493670885
11208,Kings County,NY,0.5663048607833885,NA,NA
11211,Kings County,NY,10.099103350637092,NA,NA
11218,Kings County,NY,NA,10.042347247428918,NA
11221,Kings County,NY,NA,2.1778584392014517,NA
11224,Kings County,NY,14.299197734780558,NA,NA
11226,Kings County,NY,2.6899480887210947,NA,NA
11357,Queens County,NY,67.10712600283154,38.95946763460375,NA
11364,Queens County,NY,NA,NA,64.76793248945147
11368,Queens County,NY,NA,12.220205686630369,NA
11370,Queens County,NY,NA,94.79733817301876,NA
11374,Queens County,NY,NA,18.99576527525711,NA
11413,Queens County,NY,70.6465313827277,NA,NA
11427,Queens County,NY,NA,63.944343617664856,NA
11516,Nassau County,NY,NA,NA,94.51476793248945
11554,Nassau County,NY,NA,39.806412583182095,NA
11561,Nassau County,NY,NA,78.52389594676346,NA
11570,Nassau County,NY,NA,NA,43.24894514767932
11579,Nassau County,NY,NA,98.60859044162129,NA
11694,Queens County,NY,NA,96.18874773139746,NA
11706,Suffolk County,NY,16.56441717791411,NA,NA
11721,Suffolk County,NY,NA,99.09255898366605,NA
11741,Suffolk County,NY,85.84237848041529,NA,78.05907172995781
11751,Suffolk County,NY,83.95469561113732,NA,NA
11756,Nassau County,NY,49.31571495988674,NA,NA
11758,Nassau County,NY,NA,66.12220205686631,NA
11763,Suffolk County,NY,81.35913166588014,NA,NA
11764,Suffolk County,NY,NA,94.37386569872959,NA
11784,Suffolk County,NY,61.963190184049076,NA,NA
11793,Nassau County,NY,NA,60.133091349062305,NA
11901,Suffolk County,NY,71.82633317602642,NA,NA
12010,Montgomery County,NY,3.5394053798961775,NA,NA
12061,Rensselaer County,NY,NA,NA,78.69198312236287
12078,Fulton County,NY,2.973100519112789,NA,NA
12118,Saratoga County,NY,78.2444549315715,NA,NA
12122,Schoharie County,NY,65.78574799433696,NA,NA
12138,Rensselaer County,NY,NA,96.12825166364186,NA
12401,Ulster County,NY,15.478999528079282,NA,NA
12533,Dutchess County,NY,NA,83.9080459770115,64.13502109704642
12534,Columbia County,NY,11.420481359131667,NA,NA
12538,Dutchess County,NY,90.13685700802266,NA,NA
12804,Warren County,NY,5.6630486078338835,NA,NA
12845,Warren County,NY,NA,NA,97.67932489451476
12887,Washington County,NY,62.81264747522416,NA,NA
12920,Franklin County,NY,NA,99.33454325468844,NA
12941,Essex County,NY,91.69419537517697,NA,NA
12946,Essex County,NY,29.21189240207645,NA,NA
12953,Franklin County,NY,13.308164228409627,14.216575922565033,25.31645569620253
12986,Franklin County,NY,89.24020764511562,NA,NA
13021,Cayuga County,NY,2.2180273714016043,1.02843315184513,NA
13027,Onondaga County,NY,NA,11.91772534785239,NA
13029,Onondaga County,NY,66.96554978763568,NA,NA
13031,Onondaga County,NY,37.376120811703636,81.30671506352087,NA
13035,Madison County,NY,78.48041529023124,NA,NA
13066,Onondaga County,NY,NA,NA,74.68354430379746
13069,Oswego County,NY,18.92402076451156,NA,NA
13074,Oswego County,NY,NA,96.24924379915305,NA
13090,Onondaga County,NY,NA,58.862673926194795,NA
13104,Onondaga County,NY,45.21000471920718,NA,NA
13114,Oswego County,NY,52.194431335535626,NA,NA
13126,Oswego County,NY,2.5483718735252476,NA,NA
13142,Oswego County,NY,NA,95.70477918935269,NA
13152,Onondaga County,NY,66.0217083529967,NA,NA
13159,Onondaga County,NY,81.64228409627182,NA,NA
13211,Onondaga County,NY,94.05379896177443,NA,NA
13309,Oneida County,NY,61.63284568192544,NA,NA
13323,Oneida County,NY,NA,43.073200241984274,NA
13357,Herkimer County,NY,28.834355828220858,NA,NA
13421,Madison County,NY,18.404907975460123,NA,NA
13440,Oneida County,NY,NA,3.508771929824561,NA
13460,Chenango County,NY,83.48277489381783,NA,NA
13491,Herkimer County,NY,NA,98.24561403508771,NA
13601,Jefferson County,NY,2.92590844738084,12.825166364186327,NA
13613,St. Lawrence County,NY,73.71401604530439,NA,NA
13617,St. Lawrence County,NY,27.324209532798488,NA,NA
13620,Lewis County,NY,NA,96.49122807017544,NA
13622,Jefferson County,NY,99.19773478055687,NA,NA
13624,Jefferson County,NY,NA,98.6690865093769,NA
13662,St. Lawrence County,NY,5.379896177442189,NA,NA
13667,St. Lawrence County,NY,NA,95.40229885057471,NA
13676,St. Lawrence County,NY,NA,89.53418027828192,NA
13697,St. Lawrence County,NY,NA,98.4875983061101,NA
13732,Tioga County,NY,39.45257196790939,NA,NA
13736,Tioga County,NY,NA,96.30973986690864,NA
13753,Delaware County,NY,NA,70.96188747731398,NA
13760,Broome County,NY,50.306748466257666,NA,NA
13778,Chenango County,NY,NA,75.80157289776164,NA
13787,Broome County,NY,80.1793298725814,NA,NA
13803,Cortland County,NY,74.70504955167532,NA,NA
13815,Chenango County,NY,10.287871637564889,NA,NA
13820,Otsego County,NY,NA,4.71869328493648,NA
13865,Broome County,NY,41.245870693723454,63.33938294010889,NA
13901,Broome County,NY,2.595563945257197,2.35934664246824,NA
14009,Wyoming County,NY,NA,83.54506957047792,93.88185654008439
14020,Genesee County,NY,8.352996696554978,NA,NA
14024,Wyoming County,NY,NA,97.156684815487,NA
14042,Cattaraugus County,NY,83.2468145351581,NA,NA
14048,Chautauqua County,NY,NA,35.208711433756804,NA
14075,Erie County,NY,6.040585181689476,NA,NA
14092,Niagara County,NY,NA,40.10889292196007,NA
14094,Niagara County,NY,23.78480415290231,13.369630973986691,NA
14120,Niagara County,NY,NA,4.476709013914096,NA
14127,Erie County,NY,NA,10.163339382940109,NA
14131,Niagara County,NY,NA,65.15426497277676,NA
14136,Chautauqua County,NY,93.81783860311468,NA,NA
14150,Erie County,NY,NA,3.871748336358137,NA
14204,Erie County,NY,35.34686172722983,NA,NA
14211,Erie County,NY,6.087777253421425,11.01028433151845,NA
14215,Erie County,NY,1.132609721566777,NA,NA
14216,Erie County,NY,21.89712128362435,NA,NA
14218,Erie County,NY,13.921661160924964,NA,NA
14220,Erie County,NY,9.910335063709297,NA,NA
14222,Erie County,NY,47.85276073619632,NA,NA
14225,Erie County,NY,NA,45.06957047791894,NA
14304,Niagara County,NY,71.21283624351109,NA,NA
14305,Niagara County,NY,3.9169419537517696,NA,NA
14424,Ontario County,NY,40.67956583294007,0.48396854204476714,NA
14425,Ontario County,NY,12.647475224162342,NA,NA
14435,Livingston County,NY,93.53468617272299,NA,NA
14489,Wayne County,NY,NA,23.895946763460373,NA
14502,Wayne County,NY,21.33081642284096,NA,NA
14513,Wayne County,NY,3.4922133081642284,NA,NA
14534,Monroe County,NY,4.436054742803209,NA,NA
14546,Monroe County,NY,80.32090608777726,NA,NA
14550,Wyoming County,NY,NA,96.9751966122202,NA
14569,Wyoming County,NY,59.13166588013213,56.684815486993344,NA
14572,Steuben County,NY,72.91175082586125,NA,NA
14580,Monroe County,NY,0.37753657385559225,3.327283726557774,1.4767932489451476
14589,Wayne County,NY,28.079282680509678,NA,NA
14605,Monroe County,NY,6.276545540349221,NA,NA
14621,Monroe County,NY,NA,1.4519056261343013,NA
14626,Monroe County,NY,1.9348749410099102,NA,NA
14701,Chautauqua County,NY,1.7932987258140631,1.1494252873563218,NA
14706,Cattaraugus County,NY,50.21236432279377,NA,NA
14715,Allegany County,NY,77.20622935346861,NA,NA
14719,Cattaraugus County,NY,97.64039641340256,NA,NA
14750,Chautauqua County,NY,79.89617744218971,NA,NA
14755,Cattaraugus County,NY,92.590844738084,97.70114942528735,NA
14757,Chautauqua County,NY,91.26946672958944,NA,NA
14760,Cattaraugus County,NY,6.842850401132609,NA,NA
14779,Cattaraugus County,NY,NA,94.01088929219601,NA
14782,Chautauqua County,NY,NA,98.18511796733212,NA
14810,Steuben County,NY,NA,72.59528130671507,NA
14812,Schuyler County,NY,79.80179329872581,NA,NA
14813,Allegany County,NY,84.47380840018877,NA,NA
14830,Steuben County,NY,17.93298725814063,NA,NA
14850,Tompkins County,NY,3.3978291647003305,NA,NA
14867,Tompkins County,NY,87.966021708353,NA,NA
14904,Chemung County,NY,NA,NA,76.58227848101265
27020,Yadkin County,NC,64.27560169891458,NA,NA
27021,Stokes County,NC,NA,NA,24.47257383966245
27030,Surry County,NC,NA,0.7864488808227466,11.181434599156118
27043,Stokes County,NC,78.52760736196319,NA,NA
27052,Stokes County,NC,59.037281736668234,NA,NA
27055,Yadkin County,NC,NA,NA,54.641350210970465
27103,Forsyth County,NC,NA,5.747126436781609,NA
27107,Forsyth County,NC,NA,39.140955837870536,NA
27127,Forsyth County,NC,10.806984426616328,NA,NA
27215,Alamance County,NC,80.7456347333648,NA,NA
27217,Alamance County,NC,9.060877772534216,6.654567453115548,NA
27278,Orange County,NC,NA,NA,16.244725738396625
27284,Forsyth County,NC,4.6720151014629545,0.7259528130671506,NA
27288,Rockingham County,NC,NA,17.301875378100423,NA
27292,Davidson County,NC,3.020292590844738,NA,NA
27302,Alamance County,NC,23.690420009438416,8.22746521476104,NA
27306,Montgomery County,NC,94.62010382255781,NA,NA
27312,Chatham County,NC,80.556866446437,13.490623109497882,NA
27317,Randolph County,NC,NA,65.88021778584393,NA
27320,Rockingham County,NC,31.713072203869753,NA,NA
27341,Randolph County,NC,98.58423784804154,NA,NA
27360,Davidson County,NC,2.4539877300613497,2.9038112522686026,NA
27370,Randolph County,NC,NA,55.29340592861464,92.19409282700421
27407,Guilford County,NC,NA,64.85178463399879,NA
27410,Guilford County,NC,25.43652666352053,9.739866908650937,NA
27510,Orange County,NC,NA,73.74470659407139,NA
27514,Orange County,NC,77.6781500707881,22.38354506957048,NA
27516,Orange County,NC,NA,60.254083484573506,NA
27522,Granville County,NC,70.31618688060406,68.54204476709013,NA
27525,Franklin County,NC,NA,NA,84.81012658227847
27527,Johnston County,NC,NA,76.95099818511797,NA
27530,Wayne County,NC,10.901368570080226,NA,NA
27536,Vance County,NC,54.50684285040113,NA,NA
27557,Nash County,NC,NA,86.93284936479128,NA
27565,Granville County,NC,75.31854648419065,NA,NA
27569,Johnston County,NC,67.34308636149126,NA,NA
27572,Person County,NC,NA,NA,94.9367088607595
27581,Granville County,NC,97.97074091552619,NA,NA
27587,Wake County,NC,NA,NA,16.455696202531644
27591,Wake County,NC,NA,50.695704779189356,NA
27592,Wake County,NC,64.13402548371874,NA,NA
27597,Wake County,NC,NA,53.59951603145795,NA
27603,Wake County,NC,16.18688060405852,20.024198427102238,NA
27609,Wake County,NC,NA,25.83182093163944,NA
27703,Durham County,NC,63.52052855120339,NA,NA
27704,Durham County,NC,NA,21.77858439201452,NA
27707,Durham County,NC,NA,5.263157894736842,NA
27713,Durham County,NC,NA,12.94615849969752,NA
27803,Nash County,NC,40.44360547428032,37.81004234724743,NA
27822,Wilson County,NC,NA,84.15003024803389,NA
27839,Halifax County,NC,NA,99.75801572897761,NA
27855,Hertford County,NC,NA,98.54809437386571,NA
27863,Wayne County,NC,NA,67.21113127646703,NA
27864,Edgecombe County,NC,NA,90.32062915910466,NA
27886,Edgecombe County,NC,29.77819726285984,NA,NA
27896,Wilson County,NC,44.45493157149599,NA,NA
27948,Dare County,NC,78.99952807928268,NA,NA
27962,Washington County,NC,NA,77.61645493042953,NA
28016,Gaston County,NC,39.1694195375177,NA,NA
28025,Cabarrus County,NC,NA,NA,8.860759493670885
28037,Lincoln County,NC,NA,43.496672716273444,NA
28043,Rutherford County,NC,64.55875412930627,68.84452510586812,NA
28078,Mecklenburg County,NC,NA,25.045372050816695,NA
28092,Lincoln County,NC,NA,72.35329703569268,NA
28107,Cabarrus County,NC,97.16847569608305,NA,NA
28120,Gaston County,NC,76.45115620575743,NA,NA
28138,Rowan County,NC,NA,78.22141560798548,NA
28139,Rutherford County,NC,30.67484662576687,NA,NA
28144,Rowan County,NC,27.607361963190186,NA,NA
28146,Rowan County,NC,26.569136385087305,NA,NA
28147,Rowan County,NC,25.86125530910807,NA,NA
28150,Cleveland County,NC,16.23407267579047,NA,NA
28152,Cleveland County,NC,NA,NA,81.85654008438819
28202,Mecklenburg County,NC,85.51203397829164,NA,NA
28209,Mecklenburg County,NC,76.07361963190185,NA,NA
28211,Mecklenburg County,NC,NA,52.994555353901994,NA
28212,Mecklenburg County,NC,NA,50.99818511796733,NA
28216,Mecklenburg County,NC,NA,10.465819721718088,NA
28269,Mecklenburg County,NC,9.391222274657858,NA,NA
28277,Mecklenburg County,NC,NA,13.430127041742287,NA
28303,Cumberland County,NC,74.70504955167532,NA,NA
28304,Cumberland County,NC,56.86644643699859,NA,NA
28305,Cumberland County,NC,91.97734780556867,NA,NA
28334,Sampson County,NC,21.425200566304863,NA,NA
28340,Robeson County,NC,NA,63.58136721113128,NA
28349,Duplin County,NC,94.57291175082587,NA,NA
28358,Robeson County,NC,12.081170363378952,NA,NA
28360,Robeson County,NC,71.40160453043889,NA,NA
28377,Robeson County,NC,72.91175082586125,NA,NA
28379,Richmond County,NC,12.2227465785748,NA,NA
28387,Moore County,NC,69.08919301557339,NA,NA
28409,New Hanover County,NC,32.94006606890043,NA,NA
28412,New Hanover County,NC,11.562057574327513,NA,NA
28425,Pender County,NC,60.73619631901841,NA,NA
28428,New Hanover County,NC,NA,87.71929824561403,NA
28429,New Hanover County,NC,NA,77.31397459165154,NA
28451,Brunswick County,NC,54.97876356772062,NA,NA
28461,Brunswick County,NC,NA,27.283726557773747,NA
28504,Lenoir County,NC,38.508730533270416,NA,NA
28562,Craven County,NC,NA,15.910465819721717,NA
28572,Duplin County,NC,77.91411042944786,NA,NA
28601,Catawba County,NC,10.523831996224635,NA,NA
28612,Burke County,NC,81.21755545068429,NA,NA
28613,Catawba County,NC,33.50637092968382,NA,NA
28630,Caldwell County,NC,26.474752241623406,NA,NA
28638,Caldwell County,NC,NA,60.254083484573506,NA
28645,Caldwell County,NC,31.335535630014157,0.42347247428917123,NA
28650,Catawba County,NC,NA,NA,65.18987341772153
28655,Burke County,NC,51.533742331288344,NA,7.383966244725738
28673,Catawba County,NC,85.41764983482774,NA,NA
28675,Alleghany County,NC,73.19490325625296,NA,NA
28677,Iredell County,NC,58.235016517225105,NA,NA
28714,Yancey County,NC,60.97215667767814,NA,NA
28722,Polk County,NC,96.79093912222747,NA,NA
28734,Macon County,NC,NA,5.44464609800363,NA
28739,Henderson County,NC,43.463898065125065,NA,NA
28752,McDowell County,NC,NA,9.43738656987296,63.92405063291139
28753,Madison County,NC,73.2420953279849,NA,NA
28759,Henderson County,NC,95.61113732892875,NA,NA
28768,Transylvania County,NC,80.13213780084946,NA,NA
58501,Burleigh County,ND,45.21000471920718,59.286146400483965,NA
58504,Burleigh County,ND,NA,64.18632788868723,NA
58554,Morton County,ND,29.91977347805569,NA,NA
58601,Stark County,ND,36.99858423784804,NA,NA
58703,Ward County,ND,NA,35.63218390804598,NA
43025,Licking County,OH,88.1547899952808,NA,NA
43028,Knox County,OH,NA,73.502722323049,NA
43031,Licking County,OH,NA,85.2389594676346,NA
43044,Champaign County,OH,NA,93.46642468239564,NA
43050,Knox County,OH,4.86078338839075,NA,NA
43078,Champaign County,OH,27.088249174138745,NA,NA
43110,Franklin County,OH,NA,34.66424682395644,NA
43113,Pickaway County,OH,NA,8.106473079249849,NA
43130,Fairfield County,OH,0.9438414346389806,NA,NA
43140,Madison County,OH,30.297310051911282,25.650332728372653,58.86075949367089
43147,Fairfield County,OH,NA,57.22928009679371,NA
43160,Fayette County,OH,36.290703161868805,NA,NA
43202,Franklin County,OH,93.67626238791883,NA,NA
43206,Franklin County,OH,NA,50.15124016938899,NA
43207,Franklin County,OH,33.03445021236433,NA,NA
43209,Franklin County,OH,41.717791411042946,NA,43.037974683544306
43211,Franklin County,OH,7.550731477111845,NA,NA
43214,Franklin County,OH,82.6805096743747,NA,NA
43219,Franklin County,OH,11.373289287399716,NA,NA
43221,Franklin County,OH,NA,NA,37.552742616033754
43223,Franklin County,OH,39.0750353940538,NA,NA
43224,Franklin County,OH,19.679093912222747,NA,NA
43229,Franklin County,OH,4.247286455875413,NA,19.831223628691983
43302,Marion County,OH,NA,NA,3.1645569620253164
43311,Logan County,OH,56.0169891458235,NA,NA
43351,Wyandot County,OH,NA,76.40653357531761,NA
43402,Wood County,OH,NA,10.102843315184513,NA
43410,Sandusky County,OH,42.99197734780557,43.738656987295826,NA
43420,Sandusky County,OH,7.361963190184049,11.433756805807622,NA
43435,Sandusky County,OH,99.48088721094857,NA,NA
43506,Williams County,OH,67.24870221802736,NA,NA
43512,Defiance County,OH,32.232184992921184,NA,NA
43515,Fulton County,OH,60.075507314771116,NA,NA
43526,Defiance County,OH,NA,65.03327283726557,NA
43532,Henry County,OH,92.4020764511562,NA,NA
43537,Lucas County,OH,22.55781028787164,9.25589836660617,NA
43542,Lucas County,OH,96.60217083529967,NA,NA
43545,Henry County,OH,57.715903728173664,NA,NA
43551,Wood County,OH,NA,49.546279491833026,NA
43558,Fulton County,OH,NA,40.895341802782816,NA
43566,Lucas County,OH,94.66729589428977,NA,NA
43567,Fulton County,OH,42.04813591316659,NA,NA
43571,Lucas County,OH,NA,95.09981851179673,NA
43604,Lucas County,OH,66.06890042472865,NA,NA
43606,Lucas County,OH,12.269938650306749,NA,NA
43607,Lucas County,OH,NA,NA,75.10548523206751
43608,Lucas County,OH,5.804624823029731,NA,NA
43609,Lucas County,OH,18.02737140160453,NA,NA
43610,Lucas County,OH,81.87824445493158,NA,NA
43612,Lucas County,OH,47.05049551675319,NA,NA
43613,Lucas County,OH,2.406795658329401,83.24258923169994,NA
43614,Lucas County,OH,49.97640396413402,7.1990320629159115,18.143459915611814
43616,Lucas County,OH,35.67720622935347,NA,NA
43619,Wood County,OH,59.414818310523835,NA,NA
43623,Lucas County,OH,NA,56.14035087719298,82.48945147679325
43701,Muskingum County,OH,31.382727701746106,0.24198427102238357,0.8438818565400843
43793,Monroe County,OH,NA,71.56684815486993,NA
43812,Coshocton County,OH,3.7753657385559225,NA,11.39240506329114
43907,Harrison County,OH,68.28692779613024,65.88021778584393,NA
43910,Jefferson County,OH,82.06701274185937,NA,NA
43920,Columbiana County,OH,6.559697970740916,NA,13.080168776371309
43952,Jefferson County,OH,24.209532798489857,7.138535995160314,NA
43953,Jefferson County,OH,NA,19.661222020568665,NA
43964,Jefferson County,OH,77.48938178386031,NA,NA
43968,Columbiana County,OH,NA,58.98366606170599,NA
44001,Lorain County,OH,54.742803209060874,NA,NA
44003,Ashtabula County,OH,93.34591788579519,NA,NA
44004,Ashtabula County,OH,NA,61.766485178463405,NA
44026,Geauga County,OH,NA,45.49304295220811,NA
44035,Lorain County,OH,26.757904672015105,0,NA
44052,Lorain County,OH,NA,1.3309134906231095,5.9071729957805905
44053,Lorain County,OH,NA,4.053236539624924,NA
44060,Lake County,OH,NA,5.142165759225651,NA
44067,Summit County,OH,NA,47.54990925589836,NA
44070,Cuyahoga County,OH,48.23029731005191,NA,NA
44077,Lake County,OH,NA,1.693889897156685,0.42194092827004215
44089,Erie County,OH,88.0604058518169,NA,NA
44095,Lake County,OH,45.72911750825861,NA,NA
44102,Cuyahoga County,OH,54.22369042000944,NA,NA
44103,Cuyahoga County,OH,NA,NA,33.755274261603375
44109,Cuyahoga County,OH,3.1618688060405855,NA,NA
44111,Cuyahoga County,OH,42.70882491741387,1.5124016938898972,NA
44112,Cuyahoga County,OH,25.483718735252474,NA,NA
44113,Cuyahoga County,OH,44.36054742803209,32.002419842710225,NA
44115,Cuyahoga County,OH,NA,82.335148215366,NA
44117,Cuyahoga County,OH,NA,NA,85.86497890295358
44118,Cuyahoga County,OH,NA,6.533575317604355,NA
44123,Cuyahoga County,OH,78.71637564889099,17.906836055656385,NA
44129,Cuyahoga County,OH,75.69608305804624,NA,NA
44130,Cuyahoga County,OH,NA,NA,0
44136,Cuyahoga County,OH,53.70457763095799,NA,NA
44138,Cuyahoga County,OH,NA,54.86993345432547,NA
44139,Cuyahoga County,OH,35.20528551203398,NA,NA
44143,Cuyahoga County,OH,NA,9.316394434361767,75.9493670886076
44145,Cuyahoga County,OH,NA,21.59709618874773,NA
44202,Portage County,OH,NA,14.035087719298245,NA
44203,Summit County,OH,4.105710240679565,54.264972776769504,5.485232067510549
44212,Medina County,OH,28.64558754129306,5.626134301270418,NA
44216,Summit County,OH,NA,NA,98.73417721518987
44221,Summit County,OH,10.759792354884379,NA,NA
44224,Summit County,OH,15.762151958470977,54.20447670901392,NA
44236,Summit County,OH,73.90278433223219,NA,NA
44241,Portage County,OH,56.81925436526664,NA,NA
44256,Medina County,OH,2.737140160453044,0.3024803387779794,NA
44262,Summit County,OH,NA,77.61645493042953,NA
44266,Portage County,OH,27.512977819726288,4.295220810647308,NA
44281,Medina County,OH,15.950920245398773,9.074410163339383,NA
44301,Summit County,OH,NA,46.27949183303085,NA
44305,Summit County,OH,10.051911278905145,NA,59.49367088607595
44306,Summit County,OH,29.117508258612553,NA,NA
44310,Summit County,OH,7.4563473336479476,NA,NA
44311,Summit County,OH,NA,NA,94.9367088607595
44312,Summit County,OH,NA,NA,22.78481012658228
44313,Summit County,OH,22.840962718263334,NA,NA
44314,Summit County,OH,20.48135913166588,NA,NA
44321,Summit County,OH,NA,37.14458560193587,NA
44406,Mahoning County,OH,47.71118452100047,21.17362371445856,NA
44410,Trumbull County,OH,NA,19.600725952813068,NA
44413,Columbiana County,OH,67.20151014629542,NA,NA
44425,Trumbull County,OH,NA,56.86630369026013,NA
44432,Columbiana County,OH,NA,67.93708408953418,NA
44438,Trumbull County,OH,NA,72.83726557773744,NA
44446,Trumbull County,OH,9.438414346389806,11.796733212341199,NA
44483,Trumbull County,OH,58.801321378008495,NA,NA
44484,Trumbull County,OH,22.321849929211893,38.11252268602541,NA
44507,Mahoning County,OH,44.974044360547424,NA,NA
44509,Mahoning County,OH,37.09296838131194,NA,NA
44512,Mahoning County,OH,NA,61.40350877192983,15.822784810126583
44601,Stark County,OH,4.719207173194903,NA,NA
44609,Mahoning County,OH,97.54601226993866,NA,NA
44641,Stark County,OH,NA,39.201451905626136,NA
44646,Stark County,OH,28.126474752241627,37.870538415003026,NA
44683,Tuscarawas County,OH,19.773478055686645,NA,NA
44705,Stark County,OH,NA,29.038112522686028,NA
44708,Stark County,OH,NA,63.52087114337568,NA
44710,Stark County,OH,79.75460122699386,NA,NA
44718,Stark County,OH,74.18593676262388,NA,NA
44720,Stark County,OH,NA,49.60677555958863,NA
44721,Stark County,OH,NA,69.93345432546884,NA
44805,Ashland County,OH,9.155261915998112,3.145795523290986,NA
44811,Sandusky County,OH,NA,49.00181488203267,NA
44830,Seneca County,OH,83.01085417649836,NA,NA
44870,Erie County,OH,1.368570080226522,1.572897761645493,NA
44875,Richland County,OH,NA,41.62129461584997,NA
44883,Seneca County,OH,NA,82.15366001209922,NA
44903,Richland County,OH,13.402548371873523,NA,NA
44907,Richland County,OH,NA,NA,40.29535864978903
45011,Butler County,OH,25.578102878716376,2.05686630369026,NA
45014,Butler County,OH,11.090136857008023,14.519056261343014,56.540084388185655
45036,Warren County,OH,15.19584709768759,NA,NA
45039,Warren County,OH,70.5521472392638,NA,NA
45040,Warren County,OH,NA,27.76769509981851,NA
45042,Butler County,OH,45.35158093440302,NA,NA
45044,Butler County,OH,19.018404907975462,8.469449485783425,NA
45050,Butler County,OH,84.33223218499292,NA,NA
45056,Butler County,OH,NA,70.47791893526922,NA
45069,Butler County,OH,NA,NA,13.71308016877637
45102,Clermont County,OH,29.731005191127892,NA,NA
45103,Clermont County,OH,NA,17.664851784634,NA
45107,Clinton County,OH,NA,NA,68.56540084388185
45122,Clermont County,OH,67.43747050495517,77.73744706594071,NA
45140,Clermont County,OH,48.93817838603115,64.24682395644284,NA
45157,Clermont County,OH,NA,89.23169993950393,NA
45205,Hamilton County,OH,15.950920245398773,NA,95.78059071729957
45206,Hamilton County,OH,46.62576687116564,NA,NA
45208,Hamilton County,OH,NA,92.6799758015729,NA
45211,Hamilton County,OH,6.512505899008966,NA,NA
45212,Hamilton County,OH,23.45445965077867,NA,NA
45214,Hamilton County,OH,41.3874469089193,NA,NA
45224,Hamilton County,OH,15.62057574327513,45.73502722323049,NA
45225,Hamilton County,OH,60.73619631901841,NA,NA
45227,Hamilton County,OH,41.52902312411515,NA,NA
45231,Hamilton County,OH,NA,13.309134906231096,NA
45236,Hamilton County,OH,45.91788579518641,NA,NA
45238,Hamilton County,OH,NA,10.88929219600726,7.805907172995781
45241,Hamilton County,OH,NA,NA,86.91983122362869
45244,Hamilton County,OH,84.19065596979708,NA,NA
45318,Miami County,OH,95.4695611137329,NA,NA
45322,Montgomery County,OH,32.46814535158094,NA,NA
45344,Clark County,OH,50.49551675318546,42.22625529340593,NA
45365,Shelby County,OH,52.90231241151486,NA,NA
45368,Clark County,OH,85.84237848041529,NA,NA
45373,Miami County,OH,4.577630957999056,NA,35.654008438818565
45377,Montgomery County,OH,NA,40.41137326073805,NA
45414,Montgomery County,OH,23.548843794242565,NA,NA
45415,Montgomery County,OH,69.89145823501651,NA,NA
45420,Montgomery County,OH,20.245398773006134,NA,NA
45424,Montgomery County,OH,31.05238319962246,NA,NA
45439,Montgomery County,OH,44.0773949976404,NA,NA
45440,Montgomery County,OH,87.63567720622936,NA,NA
45458,Montgomery County,OH,31.61868806040585,NA,NA
45459,Montgomery County,OH,79.66021708352997,NA,53.37552742616034
45503,Clark County,OH,4.955167531854649,NA,NA
45504,Clark County,OH,88.67390278433224,NA,NA
45505,Clark County,OH,NA,51.30066545674531,NA
45506,Clark County,OH,72.72298253893345,NA,NA
45619,Lawrence County,OH,21.708352996696554,NA,NA
45628,Ross County,OH,NA,50.33272837265578,NA
45631,Gallia County,OH,NA,NA,4.852320675105485
45638,Lawrence County,OH,34.403020292590845,NA,NA
45660,Adams County,OH,NA,99.39503932244405,NA
45662,Scioto County,OH,NA,NA,2.7426160337552745
45669,Lawrence County,OH,61.77442189712128,NA,NA
45690,Pike County,OH,NA,NA,63.71308016877637
45692,Jackson County,OH,28.40962718263332,NA,NA
45701,Athens County,OH,NA,77.43496672716273,NA
45723,Athens County,OH,93.72345445965078,NA,NA
45729,Washington County,OH,97.54601226993866,99.21355111917725,NA
45742,Washington County,OH,85.7479943369514,NA,NA
45744,Washington County,OH,98.34827748938179,NA,NA
45750,Washington County,OH,1.0382255781028786,NA,NA
45801,Allen County,OH,32.609721566776784,NA,NA
45806,Allen County,OH,55.875412930627654,NA,NA
45840,Hancock County,OH,NA,1.7543859649122806,6.962025316455696
45844,Putnam County,OH,NA,96.79370840895342,NA
45885,Auglaize County,OH,NA,49.364791288566245,NA
45887,Allen County,OH,NA,92.13551119177254,NA
45891,Van Wert County,OH,23.40726757904672,55.716878402903816,NA
45895,Auglaize County,OH,NA,24.863883847549907,NA
73003,Oklahoma County,OK,NA,54.44646098003629,NA
73008,Oklahoma County,OK,57.85747994336952,81.85117967332124,NA
73010,McClain County,OK,69.32515337423312,NA,95.56962025316456
73012,Oklahoma County,OK,NA,41.50030248033878,NA
73013,Oklahoma County,OK,NA,5.9891107078039925,9.915611814345992
73018,Grady County,OK,81.59509202453987,NA,NA
73020,Oklahoma County,OK,33.69513921661161,NA,NA
73044,Logan County,OK,44.64369985842379,73.92619479733817,NA
73049,Oklahoma County,OK,89.80651250589901,NA,NA
73055,Stephens County,OK,66.16328456819255,NA,NA
73064,Canadian County,OK,NA,37.447065940713856,86.07594936708861
73068,Cleveland County,OK,84.56819254365267,NA,NA
73069,Cleveland County,OK,NA,NA,45.9915611814346
73071,Cleveland County,OK,17.791411042944784,NA,NA
73099,Canadian County,OK,67.05993393109958,NA,NA
73109,Oklahoma County,OK,57.10240679565833,NA,NA
73110,Oklahoma County,OK,90.32562529495046,NA,48.10126582278481
73115,Oklahoma County,OK,76.78150070788108,35.99516031457955,NA
73118,Oklahoma County,OK,NA,70.5989110707804,NA
73119,Oklahoma County,OK,16.800377536573855,33.39382940108893,NA
73120,Oklahoma County,OK,35.48843794242567,NA,NA
73122,Oklahoma County,OK,NA,70.23593466424683,NA
73127,Oklahoma County,OK,43.93581878244455,NA,NA
73128,Canadian County,OK,88.90986314299198,NA,NA
73129,Oklahoma County,OK,NA,69.38898971566849,NA
73130,Oklahoma County,OK,NA,38.65698729582577,80.16877637130801
73135,Oklahoma County,OK,36.337895233600754,NA,NA
73142,Oklahoma County,OK,75.3657385559226,NA,NA
73150,Oklahoma County,OK,NA,99.03206291591047,NA
73159,Oklahoma County,OK,NA,20.508166969147005,45.14767932489451
73401,Carter County,OK,9.7215667767815,35.51119177253479,NA
73439,Marshall County,OK,66.35205285512033,NA,NA
73446,Marshall County,OK,NA,95.4627949183303,NA
73507,Comanche County,OK,38.697498820198206,NA,NA
73521,Jackson County,OK,NA,53.055051421657595,NA
73573,Jefferson County,OK,NA,99.15305505142166,NA
73703,Garfield County,OK,NA,12.341197822141561,NA
74006,Washington County,OK,74.65785747994337,32.425892316999395,NA
74010,Creek County,OK,83.81311939594148,NA,NA
74014,Wagoner County,OK,NA,18.69328493647913,NA
74016,Rogers County,OK,NA,89.47368421052632,NA
74017,Rogers County,OK,NA,42.5892316999395,NA
74023,Payne County,OK,NA,49.66727162734422,NA
74029,Washington County,OK,89.24020764511562,NA,NA
74036,Rogers County,OK,NA,74.16817906836056,NA
74037,Tulsa County,OK,NA,83.30308529945553,NA
74039,Creek County,OK,93.25153374233128,NA,NA
74047,Tulsa County,OK,90.89193015573383,NA,NA
74048,Nowata County,OK,NA,86.6908650937689,NA
74055,Tulsa County,OK,46.2010382255781,NA,NA
74063,Tulsa County,OK,49.834827748938174,NA,NA
74066,Creek County,OK,NA,29.219600725952816,NA
74073,Tulsa County,OK,90.79754601226993,87.90078644888082,NA
74075,Payne County,OK,87.82444549315716,NA,NA
74108,Tulsa County,OK,NA,95.94676346037507,NA
74127,Tulsa County,OK,55.59226050023596,NA,NA
74128,Tulsa County,OK,NA,81.42770719903206,NA
74129,Tulsa County,OK,47.56960830580462,NA,NA
74133,Tulsa County,OK,NA,15.60798548094374,NA
74135,Tulsa County,OK,NA,NA,71.51898734177216
74137,Tulsa County,OK,NA,79.61282516636419,NA
74145,Tulsa County,OK,NA,58.923169993950395,NA
74432,McIntosh County,OK,NA,41.68179068360556,NA
74436,Muskogee County,OK,96.79093912222747,NA,NA
74464,Cherokee County,OK,NA,13.55111917725348,NA
74578,Latimer County,OK,94.00660689004248,NA,NA
74701,Bryan County,OK,NA,80.03629764065336,NA
74745,McCurtain County,OK,56.72487022180274,NA,NA
74801,Pottawatomie County,OK,NA,19.903206291591047,NA
74820,Pontotoc County,OK,25.766871165644172,3.2062915910465817,NA
74948,Sequoyah County,OK,NA,NA,69.83122362869199
74953,Le Flore County,OK,75.22416234072676,73.32123411978222,NA
74955,Sequoyah County,OK,NA,49.42528735632184,NA
97008,Washington County,OR,50.16517225106182,47.186932849364794,NA
97016,Columbia County,OR,91.31665880132138,NA,NA
97019,Multnomah County,OR,NA,99.8185117967332,NA
97030,Multnomah County,OR,NA,NA,20.042194092827003
97034,Clackamas County,OR,75.3657385559226,NA,NA
97038,Clackamas County,OR,61.255309108069845,NA,NA
97045,Clackamas County,OR,10.854176498348277,NA,NA
97056,Columbia County,OR,NA,81.85117967332124,NA
97060,Multnomah County,OR,35.63001415762152,NA,NA
97071,Marion County,OR,NA,53.66001209921355,NA
97080,Multnomah County,OR,51.014629542236904,NA,NA
97103,Clatsop County,OR,NA,NA,58.86075949367089
97113,Washington County,OR,NA,NA,71.94092827004219
97116,Washington County,OR,NA,75.98306110102844,NA
97123,Washington County,OR,NA,42.04476709013914,NA
97141,Tillamook County,OR,NA,49.727767695099814,NA
97206,Multnomah County,OR,9.76875884851345,NA,NA
97211,Multnomah County,OR,37.659273242095324,NA,NA
97220,Multnomah County,OR,83.52996696554979,NA,NA
97223,Washington County,OR,54.27088249174139,NA,NA
97225,Washington County,OR,65.6441717791411,NA,NA
97266,Multnomah County,OR,NA,26.13430127041742,NA
97301,Marion County,OR,34.54459650778669,NA,NA
97322,Linn County,OR,55.54506842850401,NA,7.59493670886076
97325,Marion County,OR,80.32090608777726,NA,NA
97330,Benton County,OR,44.171779141104295,NA,NA
97352,Marion County,OR,90.89193015573383,NA,NA
97365,Lincoln County,OR,NA,33.21234119782214,NA
97391,Lincoln County,OR,96.64936290703162,NA,NA
97405,Lane County,OR,NA,56.442831215970955,NA
97457,Douglas County,OR,62.85983954695611,NA,NA
97470,Douglas County,OR,24.162340726757904,NA,41.77215189873418
97471,Douglas County,OR,41.95375176970269,NA,NA
97478,Lane County,OR,NA,39.50393224440412,NA
97479,Douglas County,OR,NA,47.67090139140956,NA
97523,Josephine County,OR,NA,91.04658197217181,NA
97524,Jackson County,OR,NA,53.29703569267997,NA
97527,Josephine County,OR,NA,13.853599516031458,NA
97537,Jackson County,OR,75.2713544124587,NA,NA
97539,Jackson County,OR,NA,90.07864488808227,NA
97601,Klamath County,OR,42.00094384143464,7.441016333938294,NA
97603,Klamath County,OR,44.926852288815475,NA,NA
97756,Deschutes County,OR,NA,14.942528735632186,NA
97759,Deschutes County,OR,NA,89.89715668481549,NA
97801,Umatilla County,OR,NA,73.80520266182698,NA
97814,Baker County,OR,NA,37.08408953418028,NA
97838,Umatilla County,OR,41.90655969797074,NA,NA
97850,Union County,OR,32.798489853704574,NA,48.31223628691983
97862,Umatilla County,OR,79.37706465313828,NA,NA
97914,Malheur County,OR,17.838603114676737,NA,NA
15001,Beaver County,PA,15.148655025955641,NA,NA
15025,Allegheny County,PA,42.56724870221803,NA,NA
15044,Allegheny County,PA,54.93157149598867,NA,NA
15068,Westmoreland County,PA,14.016045304388863,NA,NA
15129,Allegheny County,PA,NA,72.17180883242588,NA
15136,Allegheny County,PA,23.83199622463426,28.735632183908045,NA
15205,Allegheny County,PA,40.34922133081642,NA,NA
15207,Allegheny County,PA,NA,69.38898971566849,NA
15212,Allegheny County,PA,NA,31.57894736842105,NA
15221,Allegheny County,PA,NA,18.935269207501513,NA
15227,Allegheny County,PA,30.957999056158563,NA,NA
15232,Allegheny County,PA,NA,NA,85.44303797468355
15235,Allegheny County,PA,14.723926380368098,NA,NA
15236,Allegheny County,PA,40.20764511562058,22.988505747126435,NA
15237,Allegheny County,PA,42.331288343558285,17.543859649122805,NA
15301,Washington County,PA,21.33081642284096,NA,NA
15401,Fayette County,PA,NA,22.92800967937084,NA
15613,Westmoreland County,PA,57.99905615856537,NA,NA
15644,Westmoreland County,PA,NA,26.436781609195403,NA
15767,Jefferson County,PA,NA,61.94797338173019,NA
15801,Clearfield County,PA,57.33836715431807,NA,NA
15824,Jefferson County,PA,NA,NA,89.45147679324894
15845,Elk County,PA,NA,96.67271627344223,NA
15851,Jefferson County,PA,NA,52.08711433756806,NA
15857,Elk County,PA,NA,6.110102843315184,NA
15905,Cambria County,PA,40.72675790467202,NA,NA
15931,Cambria County,PA,NA,56.20084694494858,NA
16001,Butler County,PA,2.3596035865974514,NA,NA
16023,Butler County,PA,97.12128362435111,NA,NA
16101,Lawrence County,PA,4.1529023124115145,NA,NA
16102,Lawrence County,PA,NA,71.9298245614035,NA
16117,Lawrence County,PA,45.540349221330814,NA,NA
16127,Mercer County,PA,85.04011326097216,NA,NA
16159,Mercer County,PA,NA,83.66606170598911,NA
16201,Armstrong County,PA,NA,NA,14.345991561181433
16232,Clarion County,PA,96.74374705049551,NA,NA
16335,Crawford County,PA,7.503539405379896,NA,NA
16346,Venango County,PA,99.00896649362907,NA,NA
16407,Erie County,PA,NA,85.60193587416818,NA
16412,Erie County,PA,94.9976403964134,NA,NA
16417,Erie County,PA,NA,85.78342407743497,NA
16442,Erie County,PA,98.53704577630958,NA,NA
16503,Erie County,PA,28.69277961302501,NA,NA
16508,Erie County,PA,45.21000471920718,NA,NA
16602,Blair County,PA,NA,NA,21.940928270042196
16652,Huntingdon County,PA,NA,47.91288566243194,NA
16701,McKean County,PA,70.88249174138744,54.74894131881428,NA
16743,McKean County,PA,NA,88.50574712643679,NA
16748,Potter County,PA,96.46059462010382,NA,NA
16801,Centre County,PA,85.0873053327041,NA,NA
16823,Centre County,PA,15.667767815007078,NA,NA
16875,Centre County,PA,NA,97.58015728977615,NA
16950,Tioga County,PA,NA,98.36660617059891,NA
17003,Lebanon County,PA,39.971684756960826,NA,NA
17013,Cumberland County,PA,NA,11.554748941318813,NA
17015,Cumberland County,PA,36.7626238791883,NA,NA
17020,Perry County,PA,73.4308636149127,NA,NA
17022,Lancaster County,PA,41.151486550259555,10.768300060496069,NA
17025,Cumberland County,PA,NA,50.33272837265578,NA
17033,Dauphin County,PA,NA,15.72897761645493,NA
17036,Dauphin County,PA,NA,36.84210526315789,NA
17038,Lebanon County,PA,NA,67.5741076830006,NA
17042,Lebanon County,PA,3.256252949504483,NA,NA
17044,Mifflin County,PA,8.872109485606417,NA,NA
17046,Lebanon County,PA,NA,18.269812462189957,NA
17055,Cumberland County,PA,NA,NA,6.751054852320674
17057,Dauphin County,PA,NA,45.37205081669691,NA
17065,Cumberland County,PA,87.06937234544596,NA,NA
17067,Lebanon County,PA,81.68947616800378,NA,NA
17068,Perry County,PA,NA,97.33817301875378,NA
17074,Perry County,PA,62.010382255781025,NA,NA
17104,Dauphin County,PA,NA,29.88505747126437,NA
17112,Dauphin County,PA,NA,3.690260133091349,NA
17202,Franklin County,PA,21.89712128362435,12.03871748336358,13.291139240506327
17233,Fulton County,PA,74.32751297781972,83.06110102843314,NA
17236,Franklin County,PA,82.5861255309108,NA,NA
17319,York County,PA,60.31146767343086,NA,NA
17331,York County,PA,23.36007550731477,0.6049606775559588,1.0548523206751055
17339,York County,PA,97.4044360547428,NA,NA
17350,Adams County,PA,NA,51.36116152450091,NA
17362,York County,PA,NA,NA,50.42194092827004
17363,York County,PA,89.47616800377537,NA,NA
17368,York County,PA,NA,91.53055051421659,NA
17402,York County,PA,78.81075979235489,NA,NA
17406,York County,PA,28.504011326097217,NA,NA
17512,Lancaster County,PA,NA,36.116152450090745,NA
17516,Lancaster County,PA,NA,89.7156684815487,NA
17522,Lancaster County,PA,NA,7.683000604960677,NA
17540,Lancaster County,PA,88.57951864086834,NA,NA
17543,Lancaster County,PA,18.02737140160453,7.380520266182698,NA
17545,Lancaster County,PA,NA,24.319419237749546,NA
17584,Lancaster County,PA,NA,69.63097398669088,NA
17601,Lancaster County,PA,27.890514393581878,NA,NA
17702,Lycoming County,PA,68.99480887210949,NA,NA
17740,Lycoming County,PA,44.31335535630014,NA,NA
17801,Northumberland County,PA,15.05427088249174,NA,NA
17821,Montour County,PA,19.254365266635208,NA,NA
17844,Union County,PA,65.6441717791411,NA,NA
17857,Northumberland County,PA,82.20858895705521,NA,NA
17901,Schuylkill County,PA,19.443133553563,NA,NA
17972,Schuylkill County,PA,55.26191599811232,NA,NA
18013,Northampton County,PA,30.533270410571024,35.81367211131277,NA
18017,Northampton County,PA,NA,19.419237749546276,NA
18018,Lehigh County,PA,17.366682397357245,NA,NA
18031,Lehigh County,PA,NA,89.95765275257108,NA
18036,Lehigh County,PA,NA,NA,39.87341772151899
18037,Lehigh County,PA,69.32515337423312,NA,NA
18041,Montgomery County,PA,93.01557338367155,NA,NA
18042,Northampton County,PA,3.8697498820198204,2.9643073200241985,NA
18049,Lehigh County,PA,36.904200094384144,34.66424682395644,NA
18058,Monroe County,PA,68.71165644171779,NA,NA
18064,Northampton County,PA,NA,17.96733212341198,NA
18071,Carbon County,PA,43.93581878244455,NA,NA
18072,Northampton County,PA,82.53893345917885,NA,NA
18073,Montgomery County,PA,88.48513449740445,NA,NA
18103,Lehigh County,PA,19.112789051439357,NA,8.438818565400844
18104,Lehigh County,PA,10.429447852760736,67.15063520871144,NA
18109,Lehigh County,PA,NA,74.47065940713854,NA
18201,Luzerne County,PA,14.487966021708354,NA,NA
18353,Monroe County,PA,NA,58.49969751966122,NA
18360,Monroe County,PA,NA,NA,14.556962025316455
18407,Lackawanna County,PA,NA,NA,49.15611814345991
18411,Lackawanna County,PA,41.05710240679566,NA,NA
18436,Wayne County,PA,48.08872109485606,NA,NA
18446,Wyoming County,PA,99.76403964134025,NA,NA
18447,Lackawanna County,PA,NA,68.36055656382335,NA
18504,Lackawanna County,PA,24.3511090136857,NA,NA
18505,Lackawanna County,PA,35.53563001415762,NA,NA
18510,Lackawanna County,PA,58.6125530910807,NA,NA
18603,Columbia County,PA,37.14016045304389,NA,NA
18660,Luzerne County,PA,98.06512505899009,NA,NA
18661,Luzerne County,PA,77.20622935346861,NA,NA
18702,Luzerne County,PA,5.049551675318546,2.8433151845130067,NA
18704,Luzerne County,PA,NA,9.195402298850574,NA
18706,Luzerne County,PA,31.807456347333645,NA,NA
18810,Bradford County,PA,NA,93.76890502117362,NA
18840,Bradford County,PA,56.58329400660689,NA,NA
18914,Bucks County,PA,77.9613025011798,NA,NA
18951,Bucks County,PA,72.29825389334592,NA,NA
18960,Bucks County,PA,NA,57.71324863883848,NA
18966,Bucks County,PA,41.2930627654554,7.320024198427102,NA
19007,Bucks County,PA,19.348749410099103,NA,NA
19008,Delaware County,PA,NA,NA,43.459915611814345
19014,Delaware County,PA,35.58282208588957,NA,NA
19015,Delaware County,PA,84.23784804152902,NA,NA
19018,Delaware County,PA,21.236432279377066,NA,NA
19020,Bucks County,PA,NA,NA,12.447257383966246
19021,Bucks County,PA,54.27088249174139,NA,NA
19023,Delaware County,PA,55.45068428504011,NA,NA
19038,Montgomery County,PA,62.10476639924492,NA,NA
19047,Bucks County,PA,NA,11.61524500907441,NA
19053,Bucks County,PA,25.058990089664935,26.255293405928615,NA
19054,Bucks County,PA,54.742803209060874,79.61282516636419,NA
19057,Bucks County,PA,NA,93.10344827586206,NA
19063,Delaware County,PA,NA,NA,10.548523206751055
19067,Bucks County,PA,13.63850873053327,NA,NA
19070,Delaware County,PA,NA,91.16757410768301,NA
19087,Chester County,PA,NA,17.604355716878402,NA
19090,Montgomery County,PA,40.585181689476165,NA,NA
19103,Philadelphia County,PA,NA,NA,25.949367088607595
19107,Philadelphia County,PA,NA,41.2583182093164,NA
19114,Philadelphia County,PA,NA,15.426497277676951,NA
19116,Philadelphia County,PA,NA,9.86085904416213,NA
19120,Philadelphia County,PA,2.0292590844738085,25.468844525105865,NA
19121,Philadelphia County,PA,27.135441245870695,NA,NA
19123,Philadelphia County,PA,47.42803209060878,NA,NA
19128,Philadelphia County,PA,13.827277017461068,NA,NA
19131,Philadelphia County,PA,NA,1.9358741681790685,NA
19133,Philadelphia County,PA,57.621519584709766,26.55777374470659,NA
19135,Philadelphia County,PA,11.27890514393582,30.00604960677556,NA
19136,Philadelphia County,PA,51.76970268994809,NA,NA
19140,Philadelphia County,PA,25.389334591788582,NA,NA
19143,Philadelphia County,PA,0.6134969325153374,NA,NA
19144,Philadelphia County,PA,85.7479943369514,NA,20.464135021097047
19146,Philadelphia County,PA,40.018876828692775,NA,NA
19150,Philadelphia County,PA,NA,18.20931639443436,NA
19152,Philadelphia County,PA,NA,NA,46.20253164556962
19320,Chester County,PA,6.654082114204813,8.106473079249849,NA
19335,Chester County,PA,12.789051439358188,9.497882637628555,NA
19380,Chester County,PA,8.258612553091082,23.77495462794918,NA
19382,Chester County,PA,11.137328928739972,5.686630369026013,NA
19401,Montgomery County,PA,6.134969325153374,NA,NA
19403,Montgomery County,PA,NA,4.174228675136116,NA
19406,Montgomery County,PA,NA,29.764065335753177,NA
19422,Montgomery County,PA,NA,87.779794313369635,NA
19426,Montgomery County,PA,60.64181217555451,NA,NA
19440,Montgomery County,PA,NA,58.31820931639443,NA
19460,Chester County,PA,NA,NA,21.518987341772153
19462,Montgomery County,PA,NA,65.75922565033274,NA
19464,Montgomery County,PA,NA,NA,33.9662447257384
19468,Montgomery County,PA,65.07786691835771,NA,NA
19473,Montgomery County,PA,74.09155261915998,NA,NA
19504,Berks County,PA,92.26050023596036,NA,NA
19508,Berks County,PA,89.14582350165172,35.75317604355717,NA
19512,Berks County,PA,53.37423312883436,NA,NA
19530,Berks County,PA,66.72958942897593,NA,NA
19567,Berks County,PA,NA,94.25287356321839,NA
19602,Berks County,PA,NA,23.169993950393224,NA
19605,Berks County,PA,NA,30.550514216575923,NA
19609,Berks County,PA,NA,88.80822746521476,NA
19610,Berks County,PA,NA,64.54930429522081,NA
02816,Kent County,RI,21.566776781500707,NA,NA
02830,Providence County,RI,77.01746106654083,NA,NA
02842,Newport County,RI,NA,NA,54.43037974683544
02863,Providence County,RI,55.781028787163756,NA,NA
02864,Providence County,RI,52.194431335535626,NA,NA
02871,Newport County,RI,NA,31.45795523290986,NA
02886,Kent County,RI,NA,17.846339987900787,NA
02891,Washington County,RI,76.26238791882963,20.14519056261343,21.729957805907173
02904,Providence County,RI,NA,13.732607380520268,NA
02915,Providence County,RI,70.08022652194431,NA,NA
29033,Lexington County,SC,NA,78.52389594676346,NA
29045,Kershaw County,SC,NA,77.19298245614034,NA
29054,Lexington County,SC,84.80415290231241,NA,NA
29102,Clarendon County,SC,NA,48.275862068965516,53.79746835443038
29108,Newberry County,SC,49.17413874469089,NA,NA
29127,Newberry County,SC,NA,87.59830611010284,NA
29138,Saluda County,SC,79.70740915526193,NA,NA
29150,Sumter County,SC,NA,20.75015124016939,NA
29160,Lexington County,SC,NA,87.17483363581367,NA
29203,Richland County,SC,NA,15.72897761645493,NA
29302,Spartanburg County,SC,NA,NA,64.34599156118144
29306,Spartanburg County,SC,63.00141576215196,NA,NA
29307,Spartanburg County,SC,53.940537989617745,NA,NA
29316,Spartanburg County,SC,NA,62.49243799153055,NA
29323,Spartanburg County,SC,46.95611137328929,NA,NA
29325,Laurens County,SC,46.72015101462954,NA,NA
29334,Spartanburg County,SC,NA,76.64851784633998,NA
29341,Cherokee County,SC,39.92449268522888,48.517846339987905,NA
29349,Spartanburg County,SC,NA,15.063520871143377,NA
29379,Union County,SC,26.474752241623406,NA,NA
29403,Charleston County,SC,37.23454459650778,NA,NA
29405,Charleston County,SC,53.27984898537046,NA,60.54852320675106
29406,Charleston County,SC,67.81500707881077,52.63157894736842,NA
29412,Charleston County,SC,59.69797074091553,NA,NA
29414,Charleston County,SC,58.848513449740445,NA,NA
29431,Berkeley County,SC,NA,91.22807017543859,NA
29440,Georgetown County,SC,NA,NA,29.957805907172997
29445,Berkeley County,SC,18.87682869277961,NA,NA
29449,Charleston County,SC,NA,71.14337568058076,NA
29456,Dorchester County,SC,28.69277961302501,NA,NA
29461,Berkeley County,SC,26.710712600283156,NA,44.72573839662447
29464,Charleston County,SC,NA,82.5166364186328,NA
29466,Charleston County,SC,42.09532798489854,NA,38.607594936708864
29472,Dorchester County,SC,74.51628126474752,NA,NA
29483,Dorchester County,SC,12.411514865502596,NA,NA
29485,Dorchester County,SC,21.189240207645117,NA,NA
29501,Florence County,SC,57.47994336951392,NA,NA
29505,Florence County,SC,41.62340726757905,NA,NA
29510,Georgetown County,SC,57.52713544124587,NA,NA
29526,Horry County,SC,30.76923076923077,NA,NA
29527,Horry County,SC,83.1524303916942,NA,NA
29540,Darlington County,SC,93.10995752713545,NA,NA
29550,Darlington County,SC,34.96932515337423,NA,NA
29568,Horry County,SC,73.10051911278906,91.34906231094979,NA
29574,Marion County,SC,52.38319962246343,NA,NA
29576,Horry County,SC,36.951392166116094,7.985480943738657,NA
29582,Horry County,SC,NA,49.122807017543856,NA
29585,Georgetown County,SC,NA,41.984271022383545,NA
29588,Horry County,SC,NA,6.896551724137931,NA
29607,Greenville County,SC,70.26899480887211,NA,NA
29625,Anderson County,SC,26.238791882963664,NA,NA
29640,Pickens County,SC,16.375648890986312,NA,32.48945147679325
29644,Greenville County,SC,44.50212364322794,NA,NA
29646,Greenwood County,SC,37.56488909863143,NA,NA
29650,Greenville County,SC,31.477111845210004,NA,NA
29651,Greenville County,SC,NA,9.679370840895341,NA
29654,Anderson County,SC,64.60594620103822,NA,NA
29657,Pickens County,SC,NA,56.07985480943739,NA
29662,Greenville County,SC,56.536101934874935,NA,NA
29669,Anderson County,SC,55.49787635677206,NA,NA
29672,Oconee County,SC,NA,62.67392619479734,NA
29680,Greenville County,SC,NA,77.79794313369631,NA
29681,Greenville County,SC,20.764511562057574,41.92377495462795,NA
29687,Greenville County,SC,25.106182161396884,NA,NA
29690,Greenville County,SC,32.704105710240675,NA,NA
29702,Cherokee County,SC,NA,73.92619479733817,NA
29706,Chester County,SC,27.135441245870695,NA,65.40084388185655
29708,York County,SC,69.84426616328456,NA,NA
29709,Chesterfield County,SC,NA,93.58741681790683,NA
29718,Chesterfield County,SC,99.85842378480415,NA,NA
29730,York County,SC,14.11042944785276,NA,NA
29812,Barnwell County,SC,NA,49.9697519661222,NA
29841,Aiken County,SC,NA,94.97882637628554,NA
29920,Beaufort County,SC,78.57479943369515,NA,NA
29926,Beaufort County,SC,NA,57.4107683000605,NA
29936,Jasper County,SC,74.98820198206701,NA,NA
29944,Hampton County,SC,93.01557338367155,NA,NA
57006,Brookings County,SD,NA,35.329703569268,NA
57032,Lincoln County,SD,95.04483246814536,NA,NA
57033,Minnehaha County,SD,96.41340254837188,NA,NA
57103,Minnehaha County,SD,17.55545068428504,NA,NA
57106,Minnehaha County,SD,16.941953751769702,NA,NA
57110,Minnehaha County,SD,NA,NA,33.54430379746836
57401,Brown County,SD,13.025011798017932,NA,NA
57701,Pennington County,SD,14.252005663048608,NA,NA
57702,Pennington County,SD,NA,12.583182093163945,NA
57718,Meade County,SD,98.39546956111374,NA,NA
57783,Lawrence County,SD,84.94572911750826,NA,NA
37022,Sumner County,TN,NA,88.2032667876588,NA
37064,Williamson County,TN,39.78291647003304,NA,24.261603375527425
37066,Sumner County,TN,7.078810759792355,32.18390804597701,NA
37073,Robertson County,TN,80.93440302029259,NA,76.79324894514767
37074,Trousdale County,TN,NA,72.83726557773744,NA
37075,Sumner County,TN,11.986786219915055,NA,NA
37101,Humphreys County,TN,NA,NA,90.71729957805907
37110,Warren County,TN,12.128362435110901,NA,NA
37122,Wilson County,TN,22.60500235960359,19.056261343012704,NA
37148,Sumner County,TN,NA,71.68784029038112,NA
37160,Bedford County,TN,14.11042944785276,NA,NA
37186,Sumner County,TN,59.037281736668234,NA,NA
37187,Dickson County,TN,92.7796130250118,NA,NA
37204,Davidson County,TN,89.24020764511562,NA,NA
37217,Davidson County,TN,NA,49.48578342407743,NA
37311,Bradley County,TN,27.560169891458237,NA,NA
37312,Bradley County,TN,NA,NA,69.62025316455697
37321,Rhea County,TN,23.076923076923077,NA,NA
37322,Meigs County,TN,NA,76.5275257108288,NA
37323,Bradley County,TN,NA,44.88808227465215,NA
37338,Rhea County,TN,95.75271354412459,NA,NA
37343,Hamilton County,TN,48.13591316658801,52.93405928614639,NA
37347,Marion County,TN,71.0240679565833,NA,NA
37354,Monroe County,TN,30.10854176498348,36.60012099213551,51.89873417721519
37355,Coffee County,TN,NA,44.162129461584996,NA
37363,Hamilton County,TN,78.62199150542709,NA,NA
37370,McMinn County,TN,NA,86.32788868723533,NA
37379,Hamilton County,TN,33.883907503539405,NA,NA
37381,Rhea County,TN,NA,60.67755595886267,NA
37412,Hamilton County,TN,44.64369985842379,NA,NA
37618,Sullivan County,TN,NA,70.96188747731398,NA
37643,Carter County,TN,NA,NA,17.932489451476794
37645,Hawkins County,TN,86.59745162812648,NA,NA
37658,Carter County,TN,NA,86.14640048396855,NA
37659,Washington County,TN,NA,22.0205686630369,NA
37660,Sullivan County,TN,NA,NA,9.49367088607595
37664,Sullivan County,TN,NA,40.41137326073805,NA
37683,Johnson County,TN,74.89381783860311,57.2897761645493,NA
37701,Blount County,TN,NA,NA,69.40928270042194
37716,Anderson County,TN,NA,22.565033272837265,NA
37721,Knox County,TN,61.915998112317126,NA,NA
37722,Cocke County,TN,82.91647003303446,NA,NA
37737,Blount County,TN,NA,79.189352692075,NA
37745,Greene County,TN,19.679093912222747,NA,NA
37748,Roane County,TN,27.324209532798488,NA,NA
37763,Roane County,TN,82.30297310051911,NA,55.907172995780584
37766,Campbell County,TN,29.447852760736197,NA,NA
37771,Loudon County,TN,NA,80.58076225045372,NA
37774,Loudon County,TN,39.1694195375177,83.18209316394434,NA
37801,Blount County,TN,11.514865502595564,72.71627344222625,NA
37803,Blount County,TN,26.144407739499766,40.53236539624924,NA
37804,Blount County,TN,54.601226993865026,NA,NA
37807,Union County,TN,63.80368098159509,NA,NA
37818,Greene County,TN,73.71401604530439,NA,NA
37821,Cocke County,TN,57.24398301085417,22.444041137326074,NA
37826,McMinn County,TN,71.77914110429448,NA,NA
37840,Roane County,TN,NA,NA,72.36286919831224
37841,Scott County,TN,86.88060405851817,NA,NA
37857,Hawkins County,TN,27.229825389334593,NA,NA
37861,Grainger County,TN,NA,60.49606775559588,NA
37862,Sevier County,TN,NA,45.91651542649728,NA
37871,Jefferson County,TN,NA,67.7555958862674,NA
37876,Sevier County,TN,NA,16.33393829401089,36.708860759493675
37918,Knox County,TN,10.429447852760736,52.45009074410163,NA
37920,Knox County,TN,8.069844266163283,NA,NA
37921,Knox County,TN,NA,49.9697519661222,74.26160337552743
37924,Knox County,TN,84.80415290231241,NA,NA
37931,Knox County,TN,NA,NA,56.75105485232067
38002,Shelby County,TN,61.53846153846154,61.58499697519662,NA
38006,Crockett County,TN,91.64700330344502,NA,NA
38059,Dyer County,TN,NA,79.491833030853,NA
38111,Shelby County,TN,NA,NA,44.936708860759495
38114,Shelby County,TN,NA,24.682395644283122,NA
38116,Shelby County,TN,13.591316658801322,24.379915305505143,NA
38118,Shelby County,TN,NA,50.15124016938899,NA
38125,Shelby County,TN,NA,66.1826981246219,NA
38134,Shelby County,TN,62.76545540349221,NA,NA
38237,Weakley County,TN,NA,58.74168179068361,NA
38305,Madison County,TN,6.701274185936762,NA,NA
38344,Carroll County,TN,65.21944313355357,NA,NA
38351,Henderson County,TN,45.63473336479472,NA,NA
38358,Gibson County,TN,48.8909863142992,NA,NA
38372,Hardin County,TN,43.41670599339311,NA,NA
38375,McNairy County,TN,75.79046720151015,NA,NA
38463,Wayne County,TN,98.25389334591789,NA,NA
38477,Giles County,TN,NA,99.69751966122202,NA
38501,Putnam County,TN,14.393581878244454,12.522686025408348,NA
38506,Putnam County,TN,34.82774893817839,15.486993345432548,NA
38544,Putnam County,TN,58.47097687588485,NA,NA
38551,Clay County,TN,NA,78.40290381125227,NA
38556,Fentress County,TN,44.59650778669184,NA,NA
38558,Cumberland County,TN,NA,87.356321839080465,NA
38571,Cumberland County,TN,47.28645587541293,NA,NA
38572,Cumberland County,TN,NA,52.813067150635206,NA
38574,Putnam County,TN,89.05143935818782,NA,NA
75002,Collin County,TX,16.139688532326566,NA,NA
75007,Denton County,TX,NA,NA,35.86497890295359
75019,Dallas County,TX,89.75932043416705,47.30792498487598,NA
75024,Collin County,TX,NA,90.68360556563823,NA
75025,Collin County,TX,NA,48.69933454325469,NA
75032,Rockwall County,TX,53.13827277017461,NA,NA
75034,Denton County,TX,31.099575271354414,NA,NA
75040,Dallas County,TX,NA,58.74168179068361,NA
75060,Dallas County,TX,NA,33.21234119782214,NA
75065,Denton County,TX,78.76356772062294,NA,NA
75067,Denton County,TX,72.7701746106654,NA,NA
75070,Collin County,TX,NA,7.017543859649122,NA
75071,Collin County,TX,53.893345917885796,77.9794313369631,NA
75077,Denton County,TX,NA,86.5698729582577,NA
75081,Dallas County,TX,NA,42.28675136116152,NA
75082,Collin County,TX,99.66965549787635,NA,NA
75089,Dallas County,TX,NA,62.976406533575314,NA
75092,Grayson County,TX,40.30202925908448,NA,NA
75094,Collin County,TX,NA,NA,96.20253164556962
75103,Van Zandt County,TX,93.95941481831052,NA,NA
75104,Dallas County,TX,NA,22.686025408348456,NA
75144,Navarro County,TX,NA,92.6194797338173,NA
75149,Dallas County,TX,NA,NA,41.77215189873418
75154,Ellis County,TX,37.56488909863143,NA,NA
75165,Ellis County,TX,22.0386974988202,20.084694494857835,NA
75166,Collin County,TX,NA,98.36660617059891,NA
75169,Van Zandt County,TX,NA,93.22444041137327,NA
75181,Dallas County,TX,73.80840018876829,NA,NA
75189,Rockwall County,TX,68.3341198678622,NA,NA
75204,Dallas County,TX,53.23265691363851,NA,NA
75205,Dallas County,TX,NA,66.84815486993345,NA
75210,Dallas County,TX,83.62435110901369,NA,NA
75217,Dallas County,TX,91.12789051439358,5.928614640048397,NA
75225,Dallas County,TX,69.13638508730533,NA,NA
75229,Dallas County,TX,37.423312883435585,NA,NA
75234,Dallas County,TX,61.39688532326569,NA,NA
75241,Dallas County,TX,16.98914582350165,NA,NA
75243,Dallas County,TX,10.335063709296838,37.26557773744707,NA
75244,Dallas County,TX,83.95469561113732,NA,NA
75253,Dallas County,TX,99.8112317130722,NA,NA
75254,Dallas County,TX,NA,69.1470054446461,NA
75287,Denton County,TX,NA,75.68058076225044,NA
75418,Fannin County,TX,NA,65.39624924379915,NA
75457,Franklin County,TX,NA,96.91470054446461,NA
75474,Hunt County,TX,NA,54.08348457350273,NA
75501,Bowie County,TX,25.200566304860782,17.180883242589232,NA
75503,Bowie County,TX,44.124587069372346,NA,NA
75561,Bowie County,TX,NA,94.1318814277072,NA
75563,Cass County,TX,97.26285983954696,NA,NA
75602,Gregg County,TX,51.2033978291647,NA,NA
75633,Panola County,TX,87.73006134969326,NA,NA
75647,Gregg County,TX,55.733836715431806,NA,NA
75650,Harrison County,TX,70.31618688060406,NA,99.15611814345992
75654,Rusk County,TX,NA,63.097398669086516,NA
75670,Harrison County,TX,65.26663520528551,NA,NA
75701,Smith County,TX,28.504011326097217,NA,NA
75702,Smith County,TX,NA,34.48275862068966,NA
75703,Smith County,TX,57.715903728173664,NA,NA
75704,Smith County,TX,NA,70.84089534180278,NA
75706,Smith County,TX,53.04388862671071,NA,NA
75707,Smith County,TX,87.5884851344974,NA,34.177215189873415
75709,Smith County,TX,NA,79.06836055656382,NA
75757,Smith County,TX,NA,NA,38.81856540084388
75766,Cherokee County,TX,NA,NA,4.641350210970464
75771,Smith County,TX,47.239263803680984,NA,NA
75785,Cherokee County,TX,83.90750353940538,NA,NA
75789,Smith County,TX,97.07409155261915,NA,NA
75801,Anderson County,TX,NA,65.57773744706594,NA
75860,Freestone County,TX,84.75696083058047,NA,NA
75862,Trinity County,TX,NA,75.31760435571688,NA
75948,Sabine County,TX,NA,90.38112522686026,NA
75951,Jasper County,TX,43.18074563473336,NA,NA
75969,Angelina County,TX,96.79093912222747,NA,NA
75972,San Augustine County,TX,63.61491269466729,NA,NA
76001,Tarrant County,TX,47.05049551675319,73.01875378100424,NA
76012,Tarrant County,TX,NA,47.005444646098006,NA
76016,Tarrant County,TX,59.74516281264748,NA,NA
76018,Tarrant County,TX,93.48749410099103,NA,NA
76020,Tarrant County,TX,23.31288343558282,22.262552934059286,NA
76021,Tarrant County,TX,27.74893817838603,NA,67.29957805907173
76023,Wise County,TX,NA,85.2994555353902,NA
76034,Tarrant County,TX,NA,56.442831215970955,NA
76039,Tarrant County,TX,NA,55.837870538415004,NA
76048,Hood County,TX,NA,62.552934059286144,NA
76049,Hood County,TX,NA,14.579552329098608,NA
76051,Tarrant County,TX,25.342142520056633,27.828191167574108,NA
76063,Tarrant County,TX,37.84804152902312,61.101028433151846,NA
76065,Ellis County,TX,64.88909863142992,NA,NA
76082,Parker County,TX,48.7022180273714,NA,NA
76109,Tarrant County,TX,50.54270882491741,NA,NA
76110,Tarrant County,TX,NA,42.77071990320629,NA
76112,Tarrant County,TX,NA,9.921355111917725,NA
76116,Tarrant County,TX,49.032562529495046,NA,NA
76119,Tarrant County,TX,NA,5.384150030248034,NA
76131,Tarrant County,TX,43.51109013685701,NA,NA
76135,Tarrant County,TX,76.63992449268522,NA,NA
76137,Tarrant County,TX,15.290231241151487,NA,NA
76140,Tarrant County,TX,31.193959414818313,NA,NA
76148,Tarrant County,TX,34.1670599339311,NA,NA
76155,Tarrant County,TX,92.07173194903257,NA,NA
76226,Denton County,TX,NA,58.56019358741682,NA
76240,Cooke County,TX,NA,NA,54.008438818565395
76244,Tarrant County,TX,19.631901840490798,NA,NA
76262,Denton County,TX,38.93345917885795,67.99758015728978,NA
76273,Grayson County,TX,NA,66.54567453115547,NA
76301,Wichita County,TX,39.68853232656914,NA,NA
76308,Wichita County,TX,77.11184521000472,NA,NA
76310,Wichita County,TX,64.51156205757432,NA,NA
76426,Wise County,TX,NA,64.48880822746521,NA
76450,Young County,TX,78.1500707881076,NA,NA
76458,Jack County,TX,NA,NA,93.24894514767934
76501,Bell County,TX,NA,86.38838475499092,NA
76504,Bell County,TX,NA,33.63581367211131,NA
76522,Coryell County,TX,NA,7.864488808227465,11.60337552742616
76542,Bell County,TX,37.80084945729117,NA,NA
76549,Bell County,TX,17.60264275601699,NA,NA
76571,Bell County,TX,NA,NA,73.20675105485233
76645,Hill County,TX,NA,62.12946158499697,NA
76661,Falls County,TX,99.57527135441245,NA,99.78902953586498
76692,Hill County,TX,NA,53.29703569267997,NA
76705,McLennan County,TX,41.764983482774895,34.24077434966727,NA
76706,McLennan County,TX,27.937706465313827,NA,NA
76710,McLennan County,TX,46.76734308636149,NA,NA
76801,Brown County,TX,NA,39.50393224440412,56.32911392405063
76821,Runnels County,TX,90.5615856536102,NA,NA
76825,McCulloch County,TX,NA,NA,77.21518987341773
76834,Coleman County,TX,90.4672015101463,NA,NA
76849,Kimble County,TX,NA,88.98971566848155,NA
76903,Tom Green County,TX,NA,NA,45.78059071729958
77005,Harris County,TX,65.88013213780086,NA,NA
77006,Harris County,TX,NA,85.0574712643678,NA
77008,Harris County,TX,54.27088249174139,NA,NA
77014,Harris County,TX,NA,NA,92.61603375527426
77018,Harris County,TX,NA,NA,66.45569620253164
77022,Harris County,TX,75.08258612553091,NA,NA
77032,Harris County,TX,89.9952807928268,NA,NA
77038,Harris County,TX,NA,88.92921960072596,NA
77039,Harris County,TX,NA,50.75620084694494,NA
77041,Harris County,TX,NA,32.18390804597701,NA
77054,Harris County,TX,70.17461066540821,NA,NA
77063,Harris County,TX,59.83954695611138,67.21113127646703,71.72995780590718
77065,Harris County,TX,53.84615384615385,NA,NA
77072,Harris County,TX,NA,76.76950998185119,NA
77074,Harris County,TX,NA,53.29703569267997,NA
77078,Harris County,TX,68.75884851344975,NA,NA
77081,Harris County,TX,NA,NA,99.36708860759494
77082,Harris County,TX,NA,29.88505747126437,NA
77084,Harris County,TX,8.400188768286927,17.120387174833635,NA
77089,Harris County,TX,NA,25.58983666061706,NA
77090,Harris County,TX,22.88815478999528,NA,NA
77095,Harris County,TX,42.18971212836243,NA,53.16455696202531
77099,Harris County,TX,NA,30.127041742286753,NA
77302,Montgomery County,TX,63.28456819254365,73.13974591651544,NA
77303,Montgomery County,TX,NA,92.25650332728372,NA
77304,Montgomery County,TX,54.648419065596975,NA,NA
77306,Montgomery County,TX,87.21094856064181,75.43859649122807,NA
77318,Montgomery County,TX,NA,68.11857229280098,NA
77339,Harris County,TX,49.31571495988674,NA,NA
77346,Harris County,TX,46.81453515809344,27.404718693284934,NA
77354,Montgomery County,TX,NA,37.68905021173624,NA
77356,Montgomery County,TX,82.39735724398301,NA,NA
77371,San Jacinto County,TX,NA,84.75499092558984,NA
77373,Harris County,TX,22.88815478999528,NA,NA
77375,Harris County,TX,15.950920245398773,NA,NA
77377,Harris County,TX,37.517697026899484,78.64488808227466,NA
77378,Montgomery County,TX,NA,96.73321234119783,NA
77379,Harris County,TX,51.3921661160925,NA,10.337552742616033
77381,Montgomery County,TX,82.72770174610665,NA,NA
77385,Montgomery County,TX,94.19537517697026,NA,NA
77386,Montgomery County,TX,NA,NA,81.22362869198312
77388,Harris County,TX,38.46153846153847,NA,NA
77406,Fort Bend County,TX,NA,59.77011494252874,NA
77414,Matagorda County,TX,38.55592260500236,NA,NA
77422,Brazoria County,TX,NA,68.60254083484574,NA
77429,Harris County,TX,NA,57.955232909860854,NA
77433,Harris County,TX,34.21425200566305,13.67211131276467,NA
77437,Wharton County,TX,NA,NA,48.52320675105485
77449,Harris County,TX,7.833883907503539,NA,NA
77459,Fort Bend County,TX,17.366682397357245,NA,NA
77469,Fort Bend County,TX,NA,26.981246218995764,NA
77502,Harris County,TX,46.012269938650306,NA,NA
77505,Harris County,TX,NA,57.59225650332729,NA
77511,Brazoria County,TX,NA,39.26194797338173,NA
77517,Galveston County,TX,81.54789995280792,NA,NA
77520,Harris County,TX,37.23454459650778,NA,55.27426160337553
77523,Chambers County,TX,86.36149126946673,NA,NA
77535,Liberty County,TX,64.98348277489382,NA,NA
77536,Harris County,TX,NA,33.81730187537811,NA
77546,Galveston County,TX,51.86408683341198,NA,NA
77568,Galveston County,TX,NA,21.415607985480946,NA
77571,Harris County,TX,NA,40.35087719298245,NA
77573,Galveston County,TX,28.97593204341671,NA,20.88607594936709
77575,Liberty County,TX,59.55639452571968,NA,NA
77584,Brazoria County,TX,7.3147711184521,NA,NA
77627,Jefferson County,TX,NA,94.55535390199637,NA
77642,Jefferson County,TX,NA,25.16636418632789,NA
77662,Orange County,TX,38.178386031146765,NA,NA
77705,Jefferson County,TX,36.52666352052855,NA,NA
77801,Brazos County,TX,73.4308636149127,NA,NA
77802,Brazos County,TX,19.5375176970269,NA,NA
77808,Brazos County,TX,53.13827277017461,NA,NA
77836,Burleson County,TX,82.49174138744691,NA,NA
77979,Calhoun County,TX,NA,NA,57.80590717299579
78009,Medina County,TX,94.85606418121756,NA,NA
78025,Kerr County,TX,NA,92.07501512401693,NA
78028,Kerr County,TX,30.863614912694665,43.738656987295826,NA
78040,Webb County,TX,NA,31.639443436176652,NA
78041,Webb County,TX,NA,NA,28.902953586497894
78043,Webb County,TX,34.92213308164228,NA,NA
78045,Webb County,TX,NA,25.287356321839084,NA
78059,Medina County,TX,99.05615856536102,NA,NA
78132,Comal County,TX,NA,44.94857834240774,NA
78211,Bexar County,TX,NA,82.94010889292196,NA
78223,Bexar County,TX,14.346389806512505,NA,NA
78225,Bexar County,TX,NA,NA,84.17721518987342
78229,Bexar County,TX,NA,82.75862068965517,NA
78232,Bexar County,TX,66.68239735724399,36.23714458560194,NA
78239,Bexar County,TX,NA,63.33938294010889,NA
78240,Bexar County,TX,NA,55.172413793103445,NA
78251,Bexar County,TX,47.52241623407268,NA,NA
78253,Bexar County,TX,49.45729117508259,NA,NA
78258,Bexar County,TX,58.94289759320435,NA,NA
78260,Bexar County,TX,74.79943369513921,NA,NA
78404,Nueces County,TX,NA,78.82637628554144,NA
78521,Cameron County,TX,26.097215667767813,NA,NA
78552,Cameron County,TX,62.623879188296364,NA,NA
78566,Cameron County,TX,NA,NA,97.8902953586498
78575,Cameron County,TX,96.97970740915525,NA,NA
78577,Hidalgo County,TX,22.085889570552148,NA,NA
78586,Cameron County,TX,NA,39.32244404113733,NA
78610,Hays County,TX,66.35205285512033,NA,NA
78611,Burnet County,TX,71.49598867390279,NA,NA
78612,Bastrop County,TX,86.78621991505428,NA,NA
78624,Gillespie County,TX,NA,41.560798548094375,NA
78732,Travis County,TX,NA,NA,91.77215189873418
78734,Travis County,TX,NA,63.46037507562009,NA
78801,Uvalde County,TX,NA,90.86509376890503,NA
78945,Fayette County,TX,NA,76.64851784633998,NA
78956,Fayette County,TX,93.62907031618688,NA,NA
78957,Bastrop County,TX,83.34119867862199,NA,NA
79103,Potter County,TX,NA,NA,95.9915611814346
79107,Potter County,TX,NA,NA,64.9789029535865
79331,Dawson County,TX,64.18121755545069,NA,NA
79339,Lamb County,TX,NA,NA,87.9746835443038
79403,Lubbock County,TX,NA,42.95220810647308,NA
79412,Lubbock County,TX,NA,86.63036902601331,76.37130801687763
79413,Lubbock County,TX,NA,48.457350272232304,NA
79416,Lubbock County,TX,46.53138272770175,NA,29.535864978902953
79424,Lubbock County,TX,NA,6.291591046581972,NA
79512,Mitchell County,TX,78.38603114676734,NA,NA
79556,Nolan County,TX,48.93817838603115,NA,NA
79605,Taylor County,TX,NA,NA,24.050632911392405
79606,Taylor County,TX,54.08211420481359,NA,NA
79701,Midland County,TX,36.10193487494101,NA,NA
79761,Ector County,TX,43.8886267107126,NA,NA
79762,Ector County,TX,NA,35.027223230490016,NA
79763,Ector County,TX,60.45304388862671,35.63218390804598,NA
79764,Ector County,TX,47.71118452100047,NA,NA
79901,El Paso County,TX,NA,82.45614035087719,NA
79907,El Paso County,TX,NA,15.366001209921354,NA
79912,El Paso County,TX,78.29164700330344,NA,NA
79936,El Paso County,TX,8.77772534214252,NA,NA
84017,Summit County,UT,98.72581406323737,NA,NA
84020,Salt Lake County,UT,NA,58.257713248638844,NA
84037,Davis County,UT,62.340726757904676,NA,NA
84041,Davis County,UT,NA,55.837870538415004,NA
84047,Salt Lake County,UT,20.95327984898537,NA,NA
84054,Davis County,UT,67.29589428975932,NA,NA
84057,Utah County,UT,59.98112317130722,72.59528130671507,NA
84074,Tooele County,UT,NA,15.184513006654567,NA
84078,Uintah County,UT,12.033978291647003,29.58257713248639,89.66244725738397
84084,Salt Lake County,UT,NA,84.0290381125227,NA
84088,Salt Lake County,UT,30.20292590844738,NA,NA
84092,Salt Lake County,UT,NA,38.2335148215366,NA
84093,Salt Lake County,UT,72.91175082586125,NA,NA
84094,Salt Lake County,UT,58.046248230297316,73.86569872958258,NA
84096,Salt Lake County,UT,69.65549787635678,NA,NA
84103,Salt Lake County,UT,59.13166588013213,NA,NA
84106,Salt Lake County,UT,NA,44.52510586811857,NA
84107,Salt Lake County,UT,NA,37.38656987295826,NA
84108,Salt Lake County,UT,NA,47.67090139140956,NA
84115,Salt Lake County,UT,NA,26.739261947973382,NA
84117,Salt Lake County,UT,NA,61.464004839685416,NA
84119,Salt Lake County,UT,34.59178857951864,NA,NA
84120,Salt Lake County,UT,5.33270410571024,NA,NA
84121,Salt Lake County,UT,NA,NA,56.118143459915615
84128,Salt Lake County,UT,32.32656913638509,NA,NA
84321,Cache County,UT,60.45304388862671,NA,NA
84401,Weber County,UT,NA,NA,72.9957805907173
84405,Weber County,UT,NA,NA,61.60337552742617
84655,Utah County,UT,88.01321378008494,96.43073200241984,NA
84721,Iron County,UT,59.32043416705993,61.101028433151846,NA
84790,Washington County,UT,67.9565832940066,NA,NA
05201,Bennington County,VT,82.25578102878717,NA,NA
05468,Chittenden County,VT,61.208117036337896,NA,NA
05602,Washington County,VT,NA,NA,51.0548523206751
05641,Washington County,VT,26.333176026427562,NA,NA
05701,Rutland County,VT,31.477111845210004,6.412583182093163,NA
20110,Manassas city,VA,61.49126946672959,NA,NA
20111,Prince William County,VA,73.61963190184049,NA,NA
20112,Prince William County,VA,NA,72.41379310344827,NA
20115,Fauquier County,VA,NA,99.27404718693285,NA
20124,Fairfax County,VA,NA,84.21052631578947,NA
20152,Loudoun County,VA,70.6465313827277,NA,NA
20155,Prince William County,VA,NA,37.93103448275862,NA
20165,Loudoun County,VA,62.71826333176026,NA,NA
20175,Loudoun County,VA,NA,66.42468239564428,NA
20181,Prince William County,VA,NA,97.88263762855415,NA
22003,Fairfax County,VA,24.30391694195375,NA,NA
22025,Prince William County,VA,83.2468145351581,NA,NA
22031,Fairfax County,VA,58.1406323737612,NA,NA
22041,Fairfax County,VA,NA,62.310949788263756,NA
22046,Falls Church city,VA,80.03775365738555,NA,NA
22150,Fairfax County,VA,NA,62.18995765275257,NA
22153,Fairfax County,VA,51.25058990089665,NA,NA
22193,Prince William County,VA,NA,14.277071990320628,NA
22205,Arlington County,VA,NA,84.27102238354507,NA
22206,Arlington County,VA,NA,88.68723532970357,NA
22302,Alexandria city,VA,NA,62.91591046581972,NA
22304,Alexandria city,VA,37.989617744218975,NA,NA
22310,Fairfax County,VA,46.3898065125059,60.98003629764065,NA
22406,Stafford County,VA,76.54554034922133,NA,NA
22508,Orange County,VA,76.73430863614912,NA,NA
22602,Frederick County,VA,45.540349221330814,NA,NA
22645,Frederick County,VA,94.76168003775366,NA,NA
22655,Frederick County,VA,50.96743747050495,NA,NA
22657,Shenandoah County,VA,72.53421425200565,NA,NA
22801,Harrisonburg city,VA,36.14912694667296,28.13067150635209,NA
22812,Rockingham County,VA,82.8692779613025,NA,NA
22815,Rockingham County,VA,45.72911750825861,NA,NA
22821,Rockingham County,VA,88.76828692779613,NA,NA
22824,Shenandoah County,VA,NA,NA,79.74683544303798
22851,Page County,VA,NA,57.83424077434967,NA
22901,Albemarle County,VA,NA,NA,7.172995780590717
22911,Albemarle County,VA,NA,57.53176043557169,NA
22980,Waynesboro city,VA,46.4841906559698,2.4198427102238353,2.320675105485232
23002,Amelia County,VA,NA,97.09618874773139,NA
23059,Henrico County,VA,NA,61.705989110707804,NA
23103,Goochland County,VA,NA,95.88626739261949,NA
23112,Chesterfield County,VA,86.21991505427088,NA,NA
23114,Chesterfield County,VA,NA,NA,78.27004219409282
23117,Louisa County,VA,74.51628126474752,NA,NA
23139,Powhatan County,VA,NA,40.229885057471265,NA
23141,New Kent County,VA,NA,79.61282516636419,NA
23185,James City County,VA,NA,18.51179673321234,NA
23223,Henrico County,VA,2.5011798017932985,38.41500302480339,NA
23224,Richmond city,VA,7.739499764039641,78.22141560798548,NA
23225,Richmond city,VA,10.24067956583294,NA,NA
23228,Henrico County,VA,NA,NA,26.160337552742618
23233,Henrico County,VA,75.3657385559226,NA,NA
23234,Chesterfield County,VA,14.6295422369042,NA,NA
23237,Chesterfield County,VA,70.03303445021236,NA,NA
23320,Chesapeake city,VA,21.472392638036812,NA,NA
23322,Chesapeake city,VA,NA,NA,14.978902953586498
23323,Chesapeake city,VA,60.122699386503065,NA,NA
23324,Chesapeake city,VA,NA,NA,36.91983122362869
23430,Isle of Wight County,VA,NA,NA,37.130801687763714
23435,Suffolk city,VA,70.41057102406796,NA,NA
23451,Virginia Beach city,VA,33.081642284096276,10.344827586206897,NA
23452,Virginia Beach city,VA,16.375648890986312,NA,NA
23454,Virginia Beach city,VA,NA,7.743496672716274,NA
23456,Virginia Beach city,VA,50.448324681453514,NA,NA
23464,Virginia Beach city,VA,40.16045304388863,1.9963702359346642,17.29957805907173
23518,Norfolk city,VA,86.03114676734309,22.746521476104054,NA
23601,Newport News city,VA,NA,37.74954627949184,NA
23602,Newport News city,VA,23.218499292118924,NA,NA
23663,Hampton city,VA,68.2397357243983,NA,NA
23666,Hampton city,VA,NA,6.957047791893527,NA
23669,Hampton city,VA,NA,61.88747731397459,NA
23701,Portsmouth city,VA,70.41057102406796,NA,19.198312236286917
23703,Portsmouth city,VA,NA,22.807017543859647,NA
23704,Portsmouth city,VA,NA,45.5535390199637,NA
23831,Chesterfield County,VA,NA,23.83545069570478,NA
23836,Chesterfield County,VA,NA,80.39927404718694,NA
23838,Chesterfield County,VA,79.80179329872581,NA,NA
23842,Prince George County,VA,92.8739971684757,NA,NA
23924,Mecklenburg County,VA,NA,91.95402298850574,NA
23927,Mecklenburg County,VA,96.36621047663992,NA,NA
23930,Nottoway County,VA,95.65832940066069,NA,NA
24066,Botetourt County,VA,97.215667767815,NA,NA
24078,Henry County,VA,NA,83.78705384150031,NA
24085,Botetourt County,VA,99.9056158565361,NA,NA
24087,Montgomery County,VA,93.15714959886739,NA,NA
24112,Henry County,VA,12.17555450684285,NA,NA
24127,Craig County,VA,98.48985370457764,NA,NA
24134,Giles County,VA,86.69183577159038,NA,NA
24175,Botetourt County,VA,NA,86.14640048396855,NA
24179,Roanoke County,VA,NA,38.77797943133696,NA
24210,Washington County,VA,61.86880604058518,38.41500302480339,NA
24219,Wise County,VA,NA,64.670296430732,NA
24228,Dickenson County,VA,NA,NA,44.51476793248945
24230,Wise County,VA,NA,67.45311554748942,NA
24256,Dickenson County,VA,89.52336007550731,NA,NA
24293,Wise County,VA,43.039169419537515,NA,NA
24343,Carroll County,VA,65.9273242095328,66.72716273442227,NA
24354,Smyth County,VA,33.317602642756015,NA,NA
24360,Wythe County,VA,NA,94.73684210526315,NA
24368,Wythe County,VA,90.2784332232185,NA,NA
24370,Smyth County,VA,NA,55.47489413188143,NA
24401,Staunton city,VA,NA,NA,5.274261603375527
24422,Alleghany County,VA,NA,79.97580157289777,NA
24426,Alleghany County,VA,NA,40.048396854204476,NA
24431,Augusta County,VA,NA,99.51603145795524,NA
24477,Augusta County,VA,78.19726285983954,NA,NA
24501,Lynchburg city,VA,22.463426144407737,NA,NA
24504,Lynchburg city,VA,51.2977819726286,NA,NA
24522,Appomattox County,VA,75.97923548843795,NA,NA
24558,Halifax County,VA,62.24634261444078,NA,NA
24592,Halifax County,VA,22.98253893345918,NA,NA
24614,Buchanan County,VA,NA,68.90502117362371,NA
24641,Tazewell County,VA,74.09155261915998,65.69872958257713,NA
98002,King County,WA,28.17366682397357,NA,NA
98003,King County,WA,70.50495516753186,NA,NA
98007,King County,WA,NA,71.38535995160315,NA
98012,Snohomish County,WA,NA,20.87114337568058,NA
98022,King County,WA,NA,NA,42.19409282700422
98026,Snohomish County,WA,87.02218027371401,NA,NA
98031,King County,WA,NA,44.46460980036298,NA
98032,King County,WA,36.62104766399245,NA,NA
98036,Snohomish County,WA,NA,32.425892316999395,NA
98058,King County,WA,72.43983010854177,81.73018753781004,NA
98110,Kitsap County,WA,55.30910806984427,NA,NA
98115,King County,WA,NA,18.632788868723534,NA
98118,King County,WA,34.82774893817839,NA,NA
98136,King County,WA,NA,70.05444646098003,NA
98155,King County,WA,NA,34.54325468844525,NA
98166,King County,WA,89.05143935818782,NA,NA
98168,King County,WA,NA,NA,45.56962025316456
98208,Snohomish County,WA,46.62576687116564,NA,47.04641350210971
98223,Snohomish County,WA,NA,13.611615245009073,NA
98226,Whatcom County,WA,60.73619631901841,NA,NA
98233,Skagit County,WA,NA,47.0659407138536,NA
98271,Snohomish County,WA,90.23124115148656,NA,59.91561181434599
98273,Skagit County,WA,54.12930627654554,NA,37.76371308016878
98277,Island County,WA,NA,NA,12.025316455696203
98284,Skagit County,WA,44.218971212836244,56.01935874168179,NA
98292,Snohomish County,WA,NA,31.094978826376284,NA
98296,Snohomish County,WA,NA,62.310949788263756,NA
98311,Kitsap County,WA,NA,45.00907441016334,NA
98328,Pierce County,WA,95.13921661160924,NA,NA
98329,Pierce County,WA,NA,76.346037507562,NA
98335,Pierce County,WA,NA,NA,32.06751054852321
98349,Pierce County,WA,NA,91.53055051421659,NA
98362,Clallam County,WA,NA,28.917120387174833,NA
98363,Clallam County,WA,62.340726757904676,NA,NA
98366,Kitsap County,WA,18.735252477583767,NA,NA
98367,Kitsap County,WA,NA,40.59286146400484,NA
98368,Jefferson County,WA,62.85983954695611,NA,NA
98382,Clallam County,WA,46.059462010382255,1.6333938294010888,NA
98387,Pierce County,WA,17.838603114676737,NA,56.9620253164557
98391,Pierce County,WA,10.66540821142048,38.77797943133696,NA
98404,Pierce County,WA,26.616328456819254,NA,74.0506329113924
98406,Pierce County,WA,55.68664464369986,NA,NA
98407,Pierce County,WA,NA,40.10889292196007,NA
98422,Pierce County,WA,NA,59.04416212946158,NA
98445,Pierce County,WA,41.812175554506844,51.482153660012095,NA
98466,Pierce County,WA,NA,27.64670296430732,47.89029535864979
98499,Pierce County,WA,67.72062293534687,NA,NA
98516,Thurston County,WA,NA,66.72716273442227,NA
98563,Grays Harbor County,WA,86.92779613025013,NA,NA
98569,Grays Harbor County,WA,94.95044832468146,NA,NA
98584,Mason County,WA,NA,14.337568058076226,NA
98606,Clark County,WA,NA,93.70840895341803,NA
98611,Cowlitz County,WA,NA,NA,65.61181434599156
98625,Cowlitz County,WA,NA,92.49848759830611,NA
98632,Cowlitz County,WA,NA,3.569267997580157,NA
98661,Clark County,WA,NA,30.24803387779794,NA
98665,Clark County,WA,NA,69.87295825771325,NA
98672,Klickitat County,WA,NA,89.05021173623715,NA
98684,Clark County,WA,NA,55.05142165759226,NA
98816,Chelan County,WA,93.25153374233128,73.13974591651544,NA
98837,Grant County,WA,24.917413874469087,NA,NA
98841,Okanogan County,WA,NA,93.88989715668482,NA
98902,Yakima County,WA,53.7989617744219,NA,50
98903,Yakima County,WA,63.56772062293534,NA,NA
98908,Yakima County,WA,NA,39.08045977011494,NA
98942,Yakima County,WA,NA,59.286146400483965,NA
98953,Yakima County,WA,96.55497876356772,NA,NA
99122,Lincoln County,WA,97.73478055686645,NA,NA
99207,Spokane County,WA,NA,54.62794918330308,NA
99301,Franklin County,WA,6.795658329400661,NA,NA
99320,Benton County,WA,NA,45.614035087719294,NA
99336,Benton County,WA,8.447380840018877,NA,3.79746835443038
99352,Benton County,WA,34.0726757904672,NA,NA
99353,Benton County,WA,NA,54.80943738656987,NA
20002,District of Columbia,DC,NA,NA,40.71729957805908
20007,District of Columbia,DC,NA,60.07259528130672,NA
20009,District of Columbia,DC,24.964605946201036,NA,NA
20010,District of Columbia,DC,NA,40.95583787053842,NA
20018,District of Columbia,DC,NA,19.782214156079856,NA
20019,District of Columbia,DC,NA,3.2667876588021776,NA
20020,District of Columbia,DC,1.510146295422369,NA,NA
20024,District of Columbia,DC,50.63709296838132,NA,NA
20032,District of Columbia,DC,3.633789523360075,NA,NA
24739,Mercer County,WV,NA,73.13974591651544,NA
24740,Mercer County,WV,NA,24.440411373260737,NA
25071,Kanawha County,WV,NA,76.22504537205081,NA
25306,Kanawha County,WV,NA,81.12522686025409,NA
25309,Kanawha County,WV,NA,47.610405323653964,NA
25387,Kanawha County,WV,NA,NA,91.56118143459916
25401,Berkeley County,WV,62.623879188296364,NA,NA
25404,Berkeley County,WV,NA,68.96551724137932,NA
25413,Berkeley County,WV,75.08258612553091,NA,NA
25427,Berkeley County,WV,NA,63.097398669086516,NA
25530,Wayne County,WV,85.60641812175554,NA,NA
25801,Raleigh County,WV,9.202453987730062,NA,NA
25901,Fayette County,WV,NA,NA,93.67088607594937
26037,Brooke County,WV,NA,NA,71.09704641350211
26070,Brooke County,WV,NA,85.4204476709014,NA
26101,Wood County,WV,18.357715903728174,4.11373260738052,NA
26104,Wood County,WV,29.683813119395943,NA,NA
26164,Jackson County,WV,54.12930627654554,NA,NA
26288,Webster County,WV,74.98820198206701,71.62734422262554,NA
26505,Monongalia County,WV,6.748466257668712,NA,NA
26525,Preston County,WV,85.5592260500236,NA,NA
26554,Marion County,WV,NA,0.6654567453115547,NA
26704,Hampshire County,WV,96.93251533742331,NA,NA
53005,Waukesha County,WI,33.17602642756017,NA,NA
53014,Calumet County,WI,NA,84.87598306110102,NA
53024,Ozaukee County,WI,NA,51.24016938898972,NA
53029,Waukesha County,WI,NA,43.67816091954023,NA
53040,Washington County,WI,96.46059462010382,NA,NA
53061,Calumet County,WI,NA,90.92558983666062,NA
53066,Waukesha County,WI,32.751297781972625,NA,NA
53072,Waukesha County,WI,50.68428504011327,NA,NA
53089,Waukesha County,WI,57.715903728173664,NA,NA
53097,Ozaukee County,WI,NA,NA,65.82278481012658
53104,Kenosha County,WI,NA,65.63823351482154,NA
53105,Racine County,WI,11.467673430863615,NA,NA
53110,Milwaukee County,WI,NA,24.924379915305504,NA
53121,Walworth County,WI,80.79282680509674,NA,NA
53128,Walworth County,WI,NA,85.0574712643678,NA
53142,Kenosha County,WI,48.27748938178386,NA,NA
53143,Kenosha County,WI,NA,21.960072595281307,NA
53146,Waukesha County,WI,NA,83.00060496067756,NA
53149,Waukesha County,WI,NA,31.518451300665458,NA
53150,Waukesha County,WI,NA,30.429522081064732,NA
53151,Waukesha County,WI,32.89287399716848,NA,14.767932489451477
53154,Milwaukee County,WI,NA,58.37870538415003,NA
53158,Kenosha County,WI,NA,21.415607985480946,NA
53168,Kenosha County,WI,50.778669183577165,NA,NA
53172,Milwaukee County,WI,29.82538933459179,NA,NA
53179,Kenosha County,WI,NA,96.06775559588627,NA
53181,Kenosha County,WI,NA,80.94373865698729,NA
53185,Racine County,WI,NA,46.88445251058681,66.03375527426161
53186,Waukesha County,WI,21.708352996696554,NA,NA
53188,Waukesha County,WI,17.08352996696555,46.15849969751966,NA
53204,Milwaukee County,WI,4.530438886267108,NA,NA
53206,Milwaukee County,WI,28.92873997168476,NA,NA
53208,Milwaukee County,WI,NA,22.081064730792498,NA
53209,Milwaukee County,WI,49.92921189240207,0.9679370840895343,NA
53210,Milwaukee County,WI,NA,47.791893526920745,NA
53214,Milwaukee County,WI,NA,7.259528130671507,NA
53216,Milwaukee County,WI,4.341670599339311,NA,NA
53218,Milwaukee County,WI,23.029731005191127,NA,NA
53224,Milwaukee County,WI,NA,76.4670296430732,NA
53225,Milwaukee County,WI,7.786691835771591,30.852994555353902,NA
53227,Milwaukee County,WI,29.164700330344502,NA,NA
53406,Racine County,WI,NA,1.2099213551119177,NA
53511,Rock County,WI,13.496932515337424,NA,NA
53520,Green County,WI,71.07126002831524,NA,NA
53546,Rock County,WI,NA,19.96370235934664,NA
53572,Dane County,WI,87.6828692779613,NA,NA
53963,Dodge County,WI,47.47522416234073,NA,NA
54020,Polk County,WI,87.16375648890985,NA,NA
54021,Pierce County,WI,91.17508258612553,NA,NA
54121,Florence County,WI,NA,94.85783424077435,NA
54136,Outagamie County,WI,86.50306748466258,NA,NA
54220,Manitowoc County,WI,21.519584709768758,1.2704174228675136,NA
54235,Door County,WI,87.44690891930156,NA,19.40928270042194
54303,Brown County,WI,39.12222746578575,NA,NA
54304,Brown County,WI,NA,39.6854204476709,NA
54311,Brown County,WI,65.26663520528551,NA,NA
54409,Langlade County,WI,30.863614912694665,16.394434361766486,NA
54448,Marathon County,WI,99.95280792826804,NA,NA
54469,Wood County,WI,NA,99.63702359346642,NA
54476,Marathon County,WI,69.60830580462482,NA,NA
54501,Oneida County,WI,NA,52.26860254083484,NA
54601,La Crosse County,WI,23.92638036809816,NA,NA
54656,Monroe County,WI,40.86833411986786,NA,NA
54701,Eau Claire County,WI,35.86597451628126,NA,NA
54730,Dunn County,WI,NA,80.21778584392014,NA
54868,Barron County,WI,58.895705521472394,NA,NA
54880,Douglas County,WI,11.042944785276074,NA,NA
54902,Winnebago County,WI,46.059462010382255,NA,37.9746835443038
54904,Winnebago County,WI,NA,29.340592861464003,NA
54915,Outagamie County,WI,NA,41.43980641258318,NA
54935,Fond du Lac County,WI,NA,8.892921960072595,NA
54961,Waupaca County,WI,49.834827748938174,NA,92.82700421940928
54982,Waushara County,WI,67.86219915054271,NA,NA
82201,Platte County,WY,98.67862199150542,NA,NA
82414,Park County,WY,NA,34.361766485178464,NA
82601,Natrona County,WY,NA,69.1470054446461,NA
82633,Converse County,WY,52.28881547899953,NA,NA
82716,Campbell County,WY,NA,77.8584392014519,NA
