ZipCode,county,state,Youth
35126,Jefferson County,AL,61.44578313253012
35456,Tuscaloosa County,AL,94.37751004016064
35660,Colbert County,AL,56.62650602409639
35810,Madison County,AL,36.144578313253014
35906,Etowah County,AL,87.95180722891565
36027,Barbour County,AL,69.47791164658635
36117,Montgomery County,AL,31.72690763052209
36272,Calhoun County,AL,69.07630522088354
36610,Mobile County,AL,87.95180722891565
85326,Maricopa County,AZ,50.602409638554214
72908,Sebastian County,AR,83.53413654618474
90046,Los Angeles County,CA,95.58232931726907
91340,Los Angeles County,CA,63.45381526104418
92131,San Diego County,CA,40.16064257028113
92411,San Bernardino County,CA,76.30522088353415
92557,Riverside County,CA,61.84738955823293
93274,Tulare County,CA,5.622489959839357
93610,Madera County,CA,44.57831325301205
94501,Alameda County,CA,75.1004016064257
94544,Alameda County,CA,34.93975903614458
94550,Alameda County,CA,37.34939759036144
94578,Alameda County,CA,63.45381526104418
95205,San Joaquin County,CA,78.714859437751
95448,Sonoma County,CA,91.16465863453816
95482,Mendocino County,CA,31.32530120481928
95626,Sacramento County,CA,98.39357429718876
95747,Placer County,CA,65.06024096385542
80111,Arapahoe County,CO,55.42168674698795
80631,Weld County,CO,14.457831325301203
81005,Pueblo County,CO,52.208835341365464
06066,Tolland County,CT,42.168674698795186
06082,Hartford County,CT,24.899598393574294
06105,Hartford County,CT,47.791164658634536
06106,Hartford County,CT,11.646586345381527
06114,Hartford County,CT,38.152610441767074
06401,New Haven County,CT,67.8714859437751
06880,Fairfield County,CT,48.59437751004016
19734,New Castle County,DE,97.99196787148594
19802,New Castle County,DE,53.81526104417671
19805,New Castle County,DE,85.14056224899599
32148,Putnam County,FL,75.50200803212851
32210,Duval County,FL,2.4096385542168677
33015,Miami-Dade County,FL,28.514056224899598
33130,Miami-Dade County,FL,61.84738955823293
33139,Miami-Dade County,FL,78.3132530120482
33309,Broward County,FL,11.244979919678714
33311,Broward County,FL,5.220883534136546
33523,Pasco County,FL,81.92771084337349
33572,Hillsborough County,FL,72.28915662650603
33710,Pinellas County,FL,69.47791164658635
34613,Hernando County,FL,79.91967871485943
30117,Carroll County,GA,37.75100401606426
30228,Henry County,GA,35.7429718875502
30308,Fulton County,GA,89.5582329317269
30350,Fulton County,GA,48.99598393574297
30815,Richmond County,GA,22.48995983935743
31632,Lowndes County,GA,68.67469879518072
31763,Lee County,GA,65.86345381526104
31794,Tift County,GA,49.79919678714859
60013,McHenry County,IL,58.23293172690763
60048,Lake County,IL,43.373493975903614
60110,Kane County,IL,48.99598393574297
60126,DuPage County,IL,17.670682730923694
60185,DuPage County,IL,18.072289156626507
60193,Cook County,IL,61.044176706827315
60617,Cook County,IL,18.473895582329316
60656,Cook County,IL,82.32931726907631
60659,Cook County,IL,67.8714859437751
60804,Cook County,IL,64.2570281124498
61088,Winnebago County,IL,93.57429718875501
61822,Champaign County,IL,85.54216867469879
62206,St. Clair County,IL,63.05220883534136
62301,Adams County,IL,60.6425702811245
62521,Macon County,IL,12.851405622489958
62901,Jackson County,IL,91.56626506024097
46062,Hamilton County,IN,42.570281124497996
46701,Noble County,IN,86.34538152610442
46902,Howard County,IN,6.425702811244979
47167,Washington County,IN,79.11646586345381
50701,Black Hawk County,IA,28.915662650602407
51503,Pottawattamie County,IA,6.827309236947792
52732,Clinton County,IA,25.702811244979916
66109,Wyandotte County,KS,80.32128514056225
40033,Marion County,KY,54.21686746987952
40769,Whitley County,KY,64.65863453815261
70301,Lafourche Parish,LA,1.6064257028112447
70380,St. Mary Parish,LA,16.867469879518072
70706,Livingston Parish,LA,33.734939759036145
70811,East Baton Rouge Parish,LA,40.963855421686745
71220,Morehouse Parish,LA,8.032128514056225
71225,Ouachita Parish,LA,70.28112449799197
04073,York County,ME,26.104417670682732
21113,Anne Arundel County,MD,59.83935742971887
01201,Berkshire County,MA,81.52610441767068
01830,Essex County,MA,13.253012048192772
01970,Essex County,MA,4.819277108433735
02150,Suffolk County,MA,0
48044,Macomb County,MI,17.269076305220885
48146,Wayne County,MI,9.236947791164658
48219,Wayne County,MI,15.66265060240964
48220,Oakland County,MI,52.610441767068274
49007,Kalamazoo County,MI,32.93172690763052
49106,Berrien County,MI,100
49232,Hillsdale County,MI,97.18875502008032
49329,Montcalm County,MI,92.7710843373494
55020,Scott County,MN,96.3855421686747
55038,Washington County,MN,84.33734939759037
55077,Dakota County,MN,99.19678714859438
55103,Ramsey County,MN,88.75502008032129
55106,Ramsey County,MN,3.2128514056224895
55337,Dakota County,MN,18.87550200803213
55345,Hennepin County,MN,67.46987951807229
55411,Hennepin County,MN,28.11244979919679
55432,Anoka County,MN,71.08433734939759
55439,Hennepin County,MN,77.91164658634538
55447,Hennepin County,MN,59.43775100401606
56058,Le Sueur County,MN,92.3694779116466
56353,Mille Lacs County,MN,83.13253012048193
56557,Norman County,MN,96.78714859437751
39180,Warren County,MS,22.48995983935743
39206,Hinds County,MS,44.17670682730924
39216,Hinds County,MS,94.77911646586345
39652,Pike County,MS,79.11646586345381
63033,St. Louis County,MO,20.883534136546185
63114,St. Louis County,MO,30.522088353413658
63138,St. Louis County,MO,83.93574297188755
63670,Ste. Genevieve County,MO,47.389558232931726
64132,Jackson County,MO,30.522088353413658
89139,Clark County,NV,74.69879518072288
89509,Washoe County,NV,51.40562248995983
89706,Carson City,NV,73.49397590361446
03235,Merrimack County,NH,71.8875502008032
07067,Middlesex County,NJ,50.602409638554214
07071,Bergen County,NJ,74.29718875502009
07093,Hudson County,NJ,20.481927710843372
07740,Monmouth County,NJ,25.301204819277107
07853,Morris County,NJ,71.4859437751004
08527,Ocean County,NJ,24.497991967871485
88201,Chaves County,NM,29.31726907630522
10453,Bronx County,NY,0.8032128514056224
10457,Bronx County,NY,2.0080321285140563
10468,Bronx County,NY,4.417670682730924
11228,Kings County,NY,65.46184738955823
11237,Kings County,NY,15.261044176706829
11435,Queens County,NY,34.53815261044177
27536,Vance County,NC,45.38152610441767
27610,Wake County,NC,3.614457831325301
27701,Durham County,NC,70.68273092369478
27870,Halifax County,NC,21.686746987951807
58503,Burleigh County,ND,44.97991967871486
43015,Delaware County,OH,33.33333333333333
43026,Franklin County,OH,38.55421686746988
43035,Delaware County,OH,46.58634538152611
43040,Union County,OH,36.94779116465863
43054,Franklin County,OH,55.82329317269076
43201,Franklin County,OH,62.65060240963856
43204,Franklin County,OH,12.048192771084338
43215,Franklin County,OH,75.90361445783132
43223,Franklin County,OH,1.2048192771084338
43228,Franklin County,OH,14.859437751004014
43229,Franklin County,OH,2.8112449799196786
43608,Lucas County,OH,7.228915662650602
44003,Ashtabula County,OH,87.55020080321285
44102,Cuyahoga County,OH,30.120481927710845
44107,Cuyahoga County,OH,4.016064257028113
44109,Cuyahoga County,OH,0.4016064257028112
44128,Cuyahoga County,OH,39.3574297188755
44203,Summit County,OH,8.433734939759036
44301,Summit County,OH,35.34136546184739
44305,Summit County,OH,29.71887550200803
44306,Summit County,OH,8.835341365461847
44405,Mahoning County,OH,57.831325301204814
44440,Trumbull County,OH,53.01204819277109
44460,Columbiana County,OH,14.056224899598394
44512,Mahoning County,OH,12.449799196787147
44905,Richland County,OH,90.36144578313254
45207,Hamilton County,OH,73.09236947791165
45231,Hamilton County,OH,48.19277108433735
45414,Montgomery County,OH,22.08835341365462
45723,Athens County,OH,82.73092369477911
45750,Washington County,OH,7.630522088353414
45840,Hancock County,OH,19.27710843373494
74523,Pushmataha County,OK,93.17269076305222
74604,Kay County,OK,85.94377510040161
74820,Pontotoc County,OK,9.63855421686747
97123,Washington County,OR,39.75903614457831
97477,Lane County,OR,51.80722891566265
97601,Klamath County,OR,26.506024096385545
15401,Fayette County,PA,16.46586345381526
15425,Fayette County,PA,41.76706827309237
16301,Venango County,PA,46.1847389558233
17801,Northumberland County,PA,26.907630522088354
19348,Chester County,PA,36.54618473895582
02857,Providence County,RI,95.18072289156626
29061,Richland County,SC,90.76305220883533
29440,Georgetown County,SC,77.10843373493977
29571,Marion County,SC,53.41365461847389
29609,Greenville County,SC,57.42971887550201
29655,Anderson County,SC,93.97590361445783
29730,York County,SC,40.963855421686745
29801,Aiken County,SC,89.95983935742971
57033,Minnehaha County,SD,99.59839357429718
57106,Minnehaha County,SD,27.710843373493976
57702,Pennington County,SD,49.79919678714859
37040,Montgomery County,TN,32.53012048192771
37115,Davidson County,TN,19.67871485943775
37130,Rutherford County,TN,21.285140562248998
37754,Anderson County,TN,91.56626506024097
38261,Obion County,TN,57.028112449799195
38544,Putnam County,TN,86.74698795180723
38571,Cumberland County,TN,66.26506024096386
75002,Collin County,TX,10.441767068273093
75205,Dallas County,TX,95.98393574297188
75237,Dallas County,TX,54.61847389558233
75243,Dallas County,TX,16.06425702811245
75253,Dallas County,TX,34.13654618473896
76040,Tarrant County,TX,40.16064257028113
76086,Parker County,TX,58.63453815261044
76112,Tarrant County,TX,23.293172690763054
76710,McLennan County,TX,58.63453815261044
77067,Harris County,TX,38.95582329317269
77568,Galveston County,TX,42.971887550200805
78119,Karnes County,TX,89.1566265060241
78130,Comal County,TX,23.694779116465863
78207,Bexar County,TX,6.024096385542169
79364,Lubbock County,TX,73.89558232931726
79772,Reeves County,TX,54.61847389558233
79902,El Paso County,TX,60.24096385542169
79905,El Paso County,TX,77.51004016064257
84036,Summit County,UT,86.74698795180723
22903,Charlottesville city,VA,24.096385542168676
23009,King William County,VA,97.59036144578313
23606,Newport News city,VA,55.82329317269076
98290,Snohomish County,WA,43.77510040160642
98387,Pierce County,WA,46.98795180722892
98403,Pierce County,WA,81.12449799196787
98626,Cowlitz County,WA,45.78313253012048
20003,District of Columbia,DC,80.72289156626506
20011,District of Columbia,DC,20.080321285140563
20017,District of Columbia,DC,67.06827309236948
20032,District of Columbia,DC,10.843373493975903
25430,Jefferson County,WV,76.70682730923694
53103,Waukesha County,WI,98.79518072289156
53147,Walworth County,WI,72.69076305220884
53206,Milwaukee County,WI,13.654618473895583
53223,Milwaukee County,WI,27.309236947791167
53225,Milwaukee County,WI,10.040160642570282
54017,St. Croix County,WI,32.1285140562249
54022,Pierce County,WI,66.26506024096386
54727,Chippewa County,WI,84.73895582329317
