ZipCode,county,state,Adult,Retirement,Geriatric
35005,Jefferson County,AL,NA,NA,78.76344086021506
35115,Shelby County,AL,NA,53.61702127659574,NA
35747,Marshall County,AL,NA,NA,87.63440860215054
35904,Etowah County,AL,NA,50,NA
35951,Marshall County,AL,63.66197183098592,NA,NA
36104,Montgomery County,AL,NA,64.68085106382979,NA
36301,Houston County,AL,NA,NA,22.849462365591396
36305,Houston County,AL,NA,NA,57.795698924731184
36360,Dale County,AL,NA,30.21276595744681,NA
36541,Mobile County,AL,97.46478873239437,NA,NA
36703,Dallas County,AL,60.84507042253521,NA,67.20430107526882
99508,Anchorage Municipality,AK,NA,31.27659574468085,NA
99515,Anchorage Municipality,AK,NA,99.36170212765958,NA
85009,Maricopa County,AZ,NA,NA,73.38709677419355
85021,Maricopa County,AZ,NA,NA,40.59139784946236
85044,Maricopa County,AZ,19.718309859154928,38.93617021276596,NA
85086,Maricopa County,AZ,43.098591549295776,NA,NA
85122,Pinal County,AZ,NA,36.38297872340426,NA
85143,Pinal County,AZ,NA,NA,66.39784946236558
85208,Maricopa County,AZ,69.29577464788733,NA,NA
85215,Maricopa County,AZ,NA,NA,89.78494623655914
85338,Maricopa County,AZ,NA,64.8936170212766,NA
85345,Maricopa County,AZ,11.549295774647888,NA,NA
85367,Yuma County,AZ,NA,87.65957446808511,NA
85374,Maricopa County,AZ,NA,14.680851063829786,NA
85375,Maricopa County,AZ,NA,NA,13.978494623655912
85396,Maricopa County,AZ,78.0281690140845,NA,NA
85623,Pinal County,AZ,NA,NA,83.33333333333334
85635,Cochise County,AZ,NA,NA,29.838709677419356
85706,Pima County,AZ,NA,5.74468085106383,39.784946236559136
85710,Pima County,AZ,NA,42.97872340425532,NA
85713,Pima County,AZ,NA,6.170212765957447,NA
86314,Yavapai County,AZ,NA,NA,38.97849462365591
72067,Cleburne County,AR,NA,71.70212765957447,NA
72076,Pulaski County,AR,NA,59.57446808510638,NA
72110,Conway County,AR,NA,NA,57.52688172043011
72117,Pulaski County,AR,54.08450704225351,NA,NA
72223,Pulaski County,AR,NA,NA,41.935483870967744
72315,Mississippi County,AR,NA,39.57446808510638,NA
72455,Randolph County,AR,NA,59.148936170212764,NA
72616,Carroll County,AR,NA,68.72340425531915,NA
72761,Benton County,AR,NA,57.234042553191486,NA
90016,Los Angeles County,CA,46.19718309859155,NA,NA
90036,Los Angeles County,CA,NA,66.38297872340425,NA
90043,Los Angeles County,CA,NA,17.23404255319149,NA
90047,Los Angeles County,CA,NA,10.638297872340425,NA
90063,Los Angeles County,CA,NA,NA,48.924731182795696
90222,Los Angeles County,CA,NA,NA,77.41935483870968
90292,Los Angeles County,CA,NA,NA,75.53763440860214
90503,Los Angeles County,CA,52.112676056338024,NA,NA
90713,Los Angeles County,CA,NA,47.02127659574468,NA
90732,Los Angeles County,CA,NA,NA,49.73118279569893
91001,Los Angeles County,CA,NA,84.46808510638299,NA
91324,Los Angeles County,CA,NA,88.51063829787233,NA
91342,Los Angeles County,CA,NA,NA,33.87096774193548
91381,Los Angeles County,CA,NA,NA,80.91397849462365
91405,Los Angeles County,CA,NA,35.53191489361702,NA
91607,Los Angeles County,CA,NA,NA,31.182795698924732
91763,San Bernardino County,CA,NA,60.63829787234043,NA
91786,San Bernardino County,CA,NA,NA,35.483870967741936
91977,San Diego County,CA,NA,NA,30.64516129032258
92065,San Diego County,CA,NA,75.31914893617021,NA
92128,San Diego County,CA,NA,NA,12.903225806451612
92211,Riverside County,CA,NA,NA,0.5376344086021506
92320,Riverside County,CA,NA,80.2127659574468,NA
92391,San Bernardino County,CA,98.30985915492958,NA,NA
92399,San Bernardino County,CA,NA,NA,25.537634408602152
92548,Riverside County,CA,NA,82.12765957446808,NA
92584,Riverside County,CA,NA,NA,55.376344086021504
92627,Orange County,CA,20,55.319148936170215,NA
92881,Riverside County,CA,NA,63.40425531914894,NA
92883,Riverside County,CA,64.22535211267606,NA,NA
93240,Kern County,CA,85.07042253521126,NA,NA
93552,Los Angeles County,CA,58.028169014084504,NA,NA
93555,Kern County,CA,24.788732394366196,NA,NA
94043,Santa Clara County,CA,69.01408450704226,NA,NA
94080,San Mateo County,CA,33.52112676056338,NA,NA
94109,San Francisco County,CA,28.732394366197184,NA,NA
94124,San Francisco County,CA,NA,NA,44.354838709677416
94131,San Francisco County,CA,NA,69.57446808510637,NA
94303,San Mateo County,CA,NA,NA,26.0752688172043
94403,San Mateo County,CA,NA,NA,13.709677419354838
94501,Alameda County,CA,NA,NA,24.462365591397848
94507,Contra Costa County,CA,NA,60,NA
94551,Alameda County,CA,50.985915492957744,NA,NA
94560,Alameda County,CA,55.21126760563381,NA,NA
94568,Alameda County,CA,NA,96.80851063829788,NA
94928,Sonoma County,CA,NA,35.74468085106383,39.516129032258064
95111,Santa Clara County,CA,NA,74.04255319148936,NA
95125,Santa Clara County,CA,NA,48.51063829787234,NA
95132,Santa Clara County,CA,NA,56.38297872340425,NA
95242,San Joaquin County,CA,NA,NA,67.47311827956989
95403,Sonoma County,CA,NA,NA,15.86021505376344
95422,Lake County,CA,NA,44.680851063829785,NA
95448,Sonoma County,CA,68.73239436619718,NA,NA
95501,Humboldt County,CA,86.47887323943661,NA,NA
95540,Humboldt County,CA,NA,NA,50
95682,El Dorado County,CA,NA,NA,23.9247311827957
95691,Yolo County,CA,74.08450704225352,NA,NA
95819,Sacramento County,CA,NA,73.61702127659574,NA
95821,Sacramento County,CA,NA,NA,98.38709677419355
95826,Sacramento County,CA,NA,NA,47.58064516129033
95834,Sacramento County,CA,NA,NA,84.94623655913979
95954,Butte County,CA,NA,NA,32.25806451612903
95966,Butte County,CA,8.732394366197182,NA,NA
95973,Butte County,CA,23.380281690140844,NA,NA
95993,Sutter County,CA,NA,61.91489361702127,NA
96001,Shasta County,CA,54.647887323943664,NA,NA
80003,Jefferson County,CO,NA,47.23404255319149,NA
80010,Arapahoe County,CO,18.30985915492958,NA,NA
80015,Arapahoe County,CO,17.183098591549296,NA,NA
80016,Arapahoe County,CO,90.98591549295774,NA,NA
80107,Elbert County,CO,92.11267605633803,NA,NA
80127,Jefferson County,CO,70.70422535211267,NA,NA
80138,Douglas County,CO,NA,NA,97.84946236559139
80207,Denver County,CO,NA,NA,64.78494623655914
80209,Denver County,CO,NA,74.68085106382979,NA
80220,Denver County,CO,NA,81.91489361702128,NA
80238,Denver County,CO,71.54929577464789,NA,NA
80247,Arapahoe County,CO,NA,NA,71.7741935483871
80433,Jefferson County,CO,96.61971830985917,NA,NA
80524,Larimer County,CO,NA,52.76595744680851,NA
80525,Larimer County,CO,NA,52.55319148936171,NA
80538,Larimer County,CO,NA,5.531914893617021,NA
80631,Weld County,CO,NA,NA,71.23655913978494
80904,El Paso County,CO,NA,NA,52.68817204301075
80920,El Paso County,CO,NA,NA,69.89247311827957
81001,Pueblo County,CO,NA,34.8936170212766,NA
81003,Pueblo County,CO,36.61971830985916,NA,NA
81005,Pueblo County,CO,89.01408450704226,NA,NA
81101,Alamosa County,CO,NA,NA,96.23655913978494
81212,Fremont County,CO,NA,45.1063829787234,NA
81303,La Plata County,CO,NA,NA,83.60215053763442
81501,Mesa County,CO,92.3943661971831,NA,NA
81504,Mesa County,CO,NA,NA,58.333333333333336
81506,Mesa County,CO,NA,86.38297872340426,NA
81611,Pitkin County,CO,NA,98.08510638297872,NA
06029,Tolland County,CT,NA,NA,48.11827956989247
06062,Hartford County,CT,NA,56.59574468085107,72.84946236559139
06082,Hartford County,CT,NA,11.914893617021278,NA
06095,Hartford County,CT,42.25352112676056,NA,NA
06105,Hartford County,CT,22.253521126760564,NA,NA
06239,Windham County,CT,81.97183098591549,NA,NA
06401,New Haven County,CT,30.704225352112672,NA,NA
06473,New Haven County,CT,NA,NA,95.43010752688173
06492,New Haven County,CT,NA,NA,5.913978494623656
06498,Middlesex County,CT,NA,NA,65.05376344086021
06512,New Haven County,CT,NA,64.04255319148936,NA
06513,New Haven County,CT,NA,72.97872340425532,NA
06516,New Haven County,CT,NA,68.93617021276596,NA
06705,New Haven County,CT,23.943661971830984,NA,NA
06708,New Haven County,CT,NA,29.148936170212764,NA
19805,New Castle County,DE,NA,6.382978723404255,NA
19901,Kent County,DE,NA,NA,65.59139784946237
19947,Sussex County,DE,NA,33.191489361702125,NA
19962,Kent County,DE,NA,NA,87.90322580645162
19970,Sussex County,DE,NA,93.61702127659575,NA
32082,St. Johns County,FL,NA,NA,24.193548387096776
32119,Volusia County,FL,NA,44.8936170212766,NA
32162,Sumter County,FL,NA,1.4893617021276597,2.4193548387096775
32176,Volusia County,FL,82.25352112676056,NA,NA
32177,Putnam County,FL,NA,NA,40.86021505376344
32503,Escambia County,FL,NA,12.127659574468085,NA
32506,Escambia County,FL,NA,NA,43.01075268817204
32514,Escambia County,FL,NA,11.48936170212766,NA
32579,Okaloosa County,FL,84.78873239436619,NA,NA
32605,Alachua County,FL,NA,24.893617021276597,NA
32606,Alachua County,FL,34.92957746478873,NA,NA
32714,Seminole County,FL,NA,NA,64.24731182795699
32784,Lake County,FL,73.52112676056338,NA,NA
32810,Orange County,FL,NA,47.65957446808511,NA
32837,Orange County,FL,20.56338028169014,NA,NA
32958,Indian River County,FL,NA,NA,6.720430107526881
32960,Indian River County,FL,NA,33.829787234042556,NA
33004,Broward County,FL,NA,87.87234042553192,NA
33026,Broward County,FL,NA,NA,66.66666666666666
33125,Miami-Dade County,FL,47.04225352112676,NA,NA
33162,Miami-Dade County,FL,NA,NA,42.204301075268816
33175,Miami-Dade County,FL,NA,NA,16.93548387096774
33311,Broward County,FL,5.070422535211268,NA,27.419354838709676
33317,Broward County,FL,NA,36.59574468085106,NA
33326,Broward County,FL,NA,NA,42.74193548387097
33405,Palm Beach County,FL,NA,NA,61.82795698924731
33406,Palm Beach County,FL,72.11267605633803,NA,NA
33437,Palm Beach County,FL,NA,15.106382978723405,NA
33440,Hendry County,FL,NA,83.40425531914893,NA
33458,Palm Beach County,FL,NA,18.29787234042553,NA
33467,Palm Beach County,FL,NA,51.06382978723404,NA
33472,Palm Beach County,FL,NA,NA,22.043010752688172
33480,Palm Beach County,FL,NA,NA,60.483870967741936
33484,Palm Beach County,FL,NA,55.74468085106383,NA
33563,Hillsborough County,FL,49.859154929577464,NA,NA
33702,Pinellas County,FL,53.52112676056338,NA,NA
33705,Pinellas County,FL,NA,NA,40.053763440860216
33708,Pinellas County,FL,NA,52.12765957446809,NA
33711,Pinellas County,FL,56.901408450704224,NA,NA
33771,Pinellas County,FL,48.45070422535211,NA,NA
33805,Polk County,FL,41.971830985915496,NA,NA
33881,Polk County,FL,40,26.170212765957444,15.053763440860216
33904,Lee County,FL,NA,13.829787234042554,NA
33919,Lee County,FL,NA,39.148936170212764,NA
33936,Lee County,FL,NA,NA,41.66666666666667
33952,Charlotte County,FL,NA,NA,29.56989247311828
34224,Charlotte County,FL,NA,NA,34.40860215053764
34243,Manatee County,FL,NA,76.59574468085107,NA
34293,Sarasota County,FL,NA,27.659574468085108,NA
34434,Citrus County,FL,NA,NA,99.73118279569893
34491,Marion County,FL,NA,25.744680851063826,NA
34711,Lake County,FL,NA,40,3.494623655913978
34949,St. Lucie County,FL,NA,NA,59.946236559139784
34950,St. Lucie County,FL,53.80281690140845,NA,NA
34997,Martin County,FL,NA,4.8936170212765955,NA
30004,Fulton County,GA,NA,29.361702127659573,NA
30014,Newton County,GA,NA,24.680851063829788,NA
30016,Newton County,GA,12.112676056338028,NA,NA
30032,DeKalb County,GA,NA,8.936170212765958,NA
30052,Walton County,GA,17.74647887323944,NA,NA
30058,DeKalb County,GA,20.281690140845072,NA,NA
30088,DeKalb County,GA,NA,NA,74.73118279569893
30096,Gwinnett County,GA,NA,NA,18.27956989247312
30097,Fulton County,GA,NA,46.38297872340426,37.634408602150536
30106,Cobb County,GA,NA,NA,81.72043010752688
30116,Carroll County,GA,NA,40.638297872340424,NA
30127,Cobb County,GA,NA,NA,24.731182795698924
30143,Pickens County,GA,NA,71.27659574468085,NA
30233,Butts County,GA,NA,42.12765957446808,NA
30240,Troup County,GA,NA,19.361702127659576,31.72043010752688
30269,Fayette County,GA,NA,NA,50.26881720430107
30310,Fulton County,GA,NA,59.361702127659576,43.27956989247312
30311,Fulton County,GA,NA,16.595744680851062,NA
30506,Hall County,GA,NA,47.4468085106383,NA
30536,Gilmer County,GA,NA,NA,68.54838709677419
30633,Madison County,GA,94.64788732394366,NA,NA
30736,Catoosa County,GA,9.859154929577464,NA,NA
30815,Richmond County,GA,NA,NA,88.44086021505376
30907,Columbia County,GA,NA,NA,29.301075268817208
30909,Richmond County,GA,70.14084507042253,NA,NA
31021,Laurens County,GA,NA,48.29787234042553,NA
31032,Jones County,GA,79.43661971830987,NA,NA
31047,Houston County,GA,90.4225352112676,NA,NA
31210,Bibb County,GA,60.281690140845065,NA,NA
31220,Bibb County,GA,92.95774647887323,NA,NA
31405,Chatham County,GA,72.67605633802818,NA,30.913978494623656
31516,Pierce County,GA,NA,NA,86.02150537634408
31520,Glynn County,GA,52.67605633802817,NA,NA
31537,Charlton County,GA,NA,68.08510638297872,NA
31788,Colquitt County,GA,NA,65.95744680851064,NA
31792,Thomas County,GA,NA,26.170212765957444,NA
39846,Calhoun County,GA,98.87323943661971,NA,NA
96743,Hawaii County,HI,75.21126760563381,NA,NA
83316,Twin Falls County,ID,NA,NA,95.16129032258065
83501,Nez Perce County,ID,13.521126760563378,NA,NA
83536,Idaho County,ID,NA,NA,78.76344086021506
83607,Canyon County,ID,41.12676056338028,NA,NA
83644,Canyon County,ID,NA,44.04255319148936,NA
83703,Ada County,ID,NA,NA,69.08602150537635
83704,Ada County,ID,16.056338028169016,NA,NA
83861,Benewah County,ID,NA,NA,99.46236559139786
83864,Bonner County,ID,NA,NA,45.96774193548387
60005,Cook County,IL,NA,NA,81.18279569892472
60016,Cook County,IL,NA,NA,9.13978494623656
60018,Cook County,IL,NA,NA,37.903225806451616
60046,Lake County,IL,67.04225352112675,NA,NA
60047,Lake County,IL,NA,NA,48.655913978494624
60062,Cook County,IL,NA,89.57446808510639,NA
60067,Cook County,IL,NA,15.957446808510639,NA
60073,Lake County,IL,NA,NA,66.93548387096774
60083,Lake County,IL,NA,58.93617021276596,NA
60085,Lake County,IL,NA,23.404255319148938,NA
60087,Lake County,IL,NA,NA,52.1505376344086
60090,Cook County,IL,NA,21.06382978723404,NA
60093,Cook County,IL,NA,41.27659574468085,NA
60099,Lake County,IL,43.66197183098591,NA,NA
60106,DuPage County,IL,NA,51.91489361702127,NA
60115,DeKalb County,IL,NA,NA,94.08602150537635
60118,Kane County,IL,NA,75.74468085106383,NA
60171,Cook County,IL,NA,NA,69.6236559139785
60181,DuPage County,IL,62.81690140845071,NA,NA
60411,Cook County,IL,12.676056338028168,NA,NA
60431,Will County,IL,NA,34.46808510638298,NA
60435,Will County,IL,NA,7.234042553191489,NA
60438,Cook County,IL,47.6056338028169,NA,NA
60443,Cook County,IL,NA,31.06382978723404,NA
60448,Will County,IL,NA,NA,44.89247311827957
60453,Cook County,IL,NA,NA,6.182795698924731
60459,Cook County,IL,NA,45.95744680851064,NA
60467,Cook County,IL,NA,NA,15.591397849462366
60506,Kane County,IL,NA,20.212765957446805,NA
60517,DuPage County,IL,67.6056338028169,NA,NA
60544,Will County,IL,NA,NA,86.82795698924731
60548,DeKalb County,IL,NA,NA,61.29032258064516
60586,Will County,IL,14.084507042253522,NA,NA
60605,Cook County,IL,NA,NA,94.35483870967742
60607,Cook County,IL,72.3943661971831,NA,NA
60608,Cook County,IL,10.140845070422536,NA,80.10752688172043
60609,Cook County,IL,NA,NA,20.161290322580644
60619,Cook County,IL,NA,NA,1.0752688172043012
60625,Cook County,IL,58.59154929577465,NA,NA
60628,Cook County,IL,NA,2.3404255319148937,NA
60638,Cook County,IL,NA,NA,4.56989247311828
60641,Cook County,IL,NA,NA,23.118279569892472
60643,Cook County,IL,7.887323943661972,NA,9.67741935483871
60645,Cook County,IL,NA,81.70212765957446,NA
60649,Cook County,IL,NA,NA,17.741935483870968
60651,Cook County,IL,6.760563380281689,NA,NA
60660,Cook County,IL,27.605633802816904,NA,NA
60804,Cook County,IL,NA,11.27659574468085,NA
61068,Ogle County,IL,NA,NA,70.6989247311828
61101,Winnebago County,IL,NA,79.36170212765957,NA
61107,Winnebago County,IL,46.76056338028169,NA,NA
61108,Winnebago County,IL,NA,19.148936170212767,NA
61301,LaSalle County,IL,NA,NA,90.86021505376344
61342,LaSalle County,IL,81.69014084507043,NA,NA
61354,LaSalle County,IL,56.056338028169016,NA,NA
61443,Henry County,IL,NA,43.40425531914894,NA
61550,Tazewell County,IL,NA,95.1063829787234,NA
61604,Peoria County,IL,NA,NA,16.397849462365592
62025,Madison County,IL,NA,NA,25.268817204301076
62230,Clinton County,IL,NA,NA,58.87096774193549
62454,Crawford County,IL,NA,99.57446808510639,NA
62644,Mason County,IL,NA,76.38297872340426,NA
46016,Madison County,IN,NA,NA,36.29032258064516
46033,Hamilton County,IN,NA,NA,36.82795698924731
46112,Hendricks County,IN,99.43661971830986,NA,NA
46123,Hendricks County,IN,50.42253521126761,NA,NA
46143,Johnson County,IN,NA,NA,5.376344086021505
46173,Rush County,IN,NA,NA,97.04301075268818
46208,Marion County,IN,NA,NA,59.13978494623656
46225,Marion County,IN,83.94366197183099,NA,NA
46237,Marion County,IN,NA,7.446808510638298,NA
46260,Marion County,IN,NA,38.51063829787234,NA
46307,Lake County,IN,NA,28.085106382978726,2.6881720430107525
46319,Lake County,IN,27.323943661971832,NA,NA
46321,Lake County,IN,NA,42.5531914893617,NA
46324,Lake County,IN,NA,91.27659574468086,NA
46350,LaPorte County,IN,8.169014084507042,28.723404255319153,NA
46410,Lake County,IN,NA,2.553191489361702,NA
46516,Elkhart County,IN,NA,31.70212765957447,NA
46563,Marshall County,IN,NA,18.085106382978726,NA
46701,Noble County,IN,68.16901408450704,NA,NA
46755,Noble County,IN,NA,30.851063829787233,NA
46808,Allen County,IN,NA,96.17021276595744,NA
46814,Allen County,IN,NA,97.44680851063829,NA
46816,Allen County,IN,NA,NA,54.03225806451613
46902,Howard County,IN,NA,81.48936170212767,8.60215053763441
46952,Grant County,IN,78.30985915492957,NA,NA
46992,Wabash County,IN,34.647887323943664,NA,NA
47025,Dearborn County,IN,NA,NA,50.53763440860215
47356,Henry County,IN,91.83098591549296,NA,NA
47433,Owen County,IN,95.49295774647887,NA,NA
47448,Brown County,IN,96.05633802816902,NA,NA
47452,Orange County,IN,NA,NA,82.25806451612904
47460,Owen County,IN,NA,85.53191489361703,NA
47546,Dubois County,IN,73.80281690140845,NA,NA
47610,Warrick County,IN,NA,78.72340425531915,NA
47710,Vanderburgh County,IN,NA,NA,40.32258064516129
47933,Montgomery County,IN,NA,36.80851063829787,NA
51501,Pottawattamie County,IA,85.91549295774648,NA,NA
51632,Page County,IA,NA,94.68085106382979,NA
52310,Jones County,IA,NA,77.23404255319149,NA
52405,Linn County,IA,41.40845070422535,NA,NA
52627,Lee County,IA,47.04225352112676,NA,NA
52632,Lee County,IA,77.1830985915493,NA,NA
52761,Muscatine County,IA,10.704225352112676,NA,NA
66061,Johnson County,KS,19.43661971830986,NA,NA
66434,Brown County,KS,84.22535211267605,NA,NA
66441,Geary County,KS,NA,54.25531914893617,NA
67401,Saline County,KS,20.845070422535212,NA,NA
67467,Ottawa County,KS,NA,95.74468085106383,NA
67601,Ellis County,KS,44.225352112676056,NA,NA
40033,Marion County,KY,NA,57.234042553191486,NA
40108,Meade County,KY,NA,NA,76.34408602150538
40160,Hardin County,KY,32.95774647887324,NA,NA
40175,Hardin County,KY,NA,NA,72.31182795698925
40223,Jefferson County,KY,NA,65.31914893617021,NA
40391,Clark County,KY,6.478873239436619,NA,NA
40701,Whitley County,KY,9.295774647887324,37.234042553191486,NA
41164,Carter County,KY,80.84507042253522,NA,NA
42071,Calloway County,KY,43.94366197183099,NA,NA
42206,Logan County,KY,NA,NA,92.74193548387096
42240,Christian County,KY,4.225352112676056,NA,NA
42754,Grayson County,KY,59.71830985915493,NA,NA
70062,Jefferson Parish,LA,NA,22.76595744680851,NA
70065,Jefferson Parish,LA,NA,NA,3.225806451612903
70301,Lafourche Parish,LA,NA,5.957446808510639,NA
70401,Tangipahoa Parish,LA,NA,30,NA
70458,St. Tammany Parish,LA,NA,NA,11.559139784946236
70466,Tangipahoa Parish,LA,NA,73.19148936170212,NA
70510,Vermilion Parish,LA,9.014084507042254,NA,NA
70744,Livingston Parish,LA,76.33802816901408,NA,NA
70764,Iberville Parish,LA,81.40845070422536,NA,NA
71263,West Carroll Parish,LA,53.239436619718305,NA,NA
71360,Rapides Parish,LA,NA,NA,27.956989247311824
71457,Natchitoches Parish,LA,NA,18.72340425531915,NA
04027,York County,ME,NA,88.72340425531915,NA
04039,Cumberland County,ME,NA,NA,91.93548387096774
04096,Cumberland County,ME,92.67605633802816,NA,NA
04105,Cumberland County,ME,NA,NA,44.623655913978496
04282,Androscoggin County,ME,NA,NA,97.58064516129032
04330,Kennebec County,ME,NA,57.87234042553191,NA
04345,Kennebec County,ME,NA,93.19148936170212,NA
04957,Somerset County,ME,NA,84.04255319148936,NA
20735,Prince George's County,MD,NA,57.659574468085104,NA
20783,Prince George's County,MD,NA,69.7872340425532,NA
20784,Prince George's County,MD,NA,NA,70.16129032258065
20901,Montgomery County,MD,NA,NA,48.38709677419355
21015,Harford County,MD,NA,49.57446808510638,NA
21035,Anne Arundel County,MD,NA,79.7872340425532,NA
21046,Howard County,MD,93.52112676056338,NA,NA
21054,Anne Arundel County,MD,NA,80.63829787234043,NA
21093,Baltimore County,MD,NA,90.42553191489363,NA
21117,Baltimore County,MD,62.25352112676056,NA,NA
21146,Anne Arundel County,MD,NA,NA,55.107526881720425
21206,Baltimore city,MD,10.985915492957748,NA,NA
21210,Baltimore city,MD,NA,NA,99.19354838709677
21217,Baltimore city,MD,NA,74.25531914893617,NA
21227,Baltimore County,MD,55.49295774647888,NA,NA
21229,Baltimore city,MD,NA,NA,21.236559139784948
21234,Baltimore County,MD,NA,NA,86.55913978494624
21620,Kent County,MD,NA,NA,68.01075268817203
21921,Cecil County,MD,NA,3.829787234042553,NA
01013,Hampden County,MA,NA,11.702127659574469,19.086021505376344
01020,Hampden County,MA,NA,88.93617021276596,NA
01040,Hampden County,MA,NA,76.17021276595744,NA
01085,Hampden County,MA,NA,NA,88.70967741935483
01089,Hampden County,MA,76.61971830985915,NA,NA
01247,Berkshire County,MA,NA,NA,62.903225806451616
01430,Worcester County,MA,99.15492957746478,NA,NA
01440,Worcester County,MA,NA,6.382978723404255,NA
01606,Worcester County,MA,NA,NA,11.827956989247312
01702,Middlesex County,MA,NA,86.80851063829788,NA
01721,Middlesex County,MA,34.36619718309859,NA,NA
01803,Middlesex County,MA,NA,NA,47.8494623655914
01824,Middlesex County,MA,NA,4.468085106382979,NA
01851,Middlesex County,MA,NA,NA,21.50537634408602
01852,Middlesex County,MA,NA,38.72340425531915,NA
01867,Middlesex County,MA,NA,NA,59.67741935483871
01887,Middlesex County,MA,50.140845070422536,NA,NA
01923,Essex County,MA,88.16901408450704,NA,NA
01950,Essex County,MA,NA,NA,19.086021505376344
01960,Essex County,MA,NA,NA,0.2688172043010753
02043,Plymouth County,MA,NA,41.27659574468085,NA
02066,Plymouth County,MA,39.154929577464785,NA,NA
02072,Norfolk County,MA,NA,NA,13.172043010752688
02116,Suffolk County,MA,NA,NA,16.129032258064516
02119,Suffolk County,MA,NA,NA,22.58064516129032
02135,Suffolk County,MA,NA,6.808510638297872,NA
02143,Middlesex County,MA,25.352112676056336,NA,NA
02150,Suffolk County,MA,NA,NA,4.032258064516129
02180,Middlesex County,MA,NA,NA,13.440860215053762
02184,Norfolk County,MA,3.3802816901408446,84.25531914893617,NA
02301,Plymouth County,MA,0,NA,NA
02360,Plymouth County,MA,NA,0,NA
02458,Middlesex County,MA,NA,NA,77.95698924731182
02472,Middlesex County,MA,NA,78.51063829787233,NA
02538,Plymouth County,MA,51.54929577464789,NA,NA
02563,Barnstable County,MA,NA,NA,51.88172043010753
02649,Barnstable County,MA,39.436619718309856,NA,NA
02664,Barnstable County,MA,NA,NA,83.06451612903226
02762,Norfolk County,MA,NA,66.59574468085107,NA
02780,Bristol County,MA,0.28169014084507044,NA,NA
48038,Macomb County,MI,NA,40.85106382978723,84.40860215053763
48073,Oakland County,MI,NA,27.4468085106383,NA
48075,Oakland County,MI,NA,24.25531914893617,NA
48104,Washtenaw County,MI,NA,80.42553191489363,NA
48118,Washtenaw County,MI,NA,NA,56.72043010752689
48125,Wayne County,MI,22.816901408450704,NA,79.56989247311827
48186,Wayne County,MI,3.943661971830986,NA,NA
48192,Wayne County,MI,NA,24.46808510638298,NA
48195,Wayne County,MI,NA,32.97872340425532,NA
48198,Washtenaw County,MI,NA,NA,53.76344086021505
48205,Wayne County,MI,NA,83.61702127659575,NA
48213,Wayne County,MI,83.66197183098592,NA,NA
48219,Wayne County,MI,NA,2.127659574468085,NA
48236,Wayne County,MI,31.26760563380282,NA,NA
48238,Wayne County,MI,57.74647887323944,NA,NA
48239,Wayne County,MI,6.197183098591549,NA,NA
48306,Oakland County,MI,NA,NA,35.215053763440864
48363,Oakland County,MI,NA,77.6595744680851,NA
48386,Oakland County,MI,NA,34.04255319148936,NA
48412,Lapeer County,MI,NA,NA,56.451612903225815
48505,Genesee County,MI,NA,NA,85.48387096774194
48603,Saginaw County,MI,NA,NA,89.24731182795699
48618,Midland County,MI,NA,89.14893617021276,90.59139784946237
48624,Gladwin County,MI,NA,46.808510638297875,NA
48640,Midland County,MI,91.54929577464789,NA,NA
48642,Midland County,MI,18.87323943661972,NA,NA
48723,Tuscola County,MI,70.98591549295776,NA,NA
48768,Tuscola County,MI,56.33802816901409,66.80851063829788,NA
48801,Gratiot County,MI,NA,NA,87.36559139784946
48820,Clinton County,MI,NA,NA,46.50537634408602
48823,Ingham County,MI,NA,NA,33.064516129032256
48910,Ingham County,MI,NA,NA,30.376344086021508
48917,Eaton County,MI,NA,5.106382978723404,NA
49002,Kalamazoo County,MI,NA,22.97872340425532,NA
49028,Branch County,MI,NA,71.06382978723404,NA
49043,Van Buren County,MI,NA,96.38297872340425,NA
49203,Jackson County,MI,NA,NA,9.408602150537634
49221,Lenawee County,MI,NA,2.9787234042553195,65.86021505376344
49286,Lenawee County,MI,57.183098591549296,NA,NA
49315,Kent County,MI,NA,94.46808510638299,34.13978494623656
49346,Mecosta County,MI,NA,58.29787234042553,NA
49428,Ottawa County,MI,NA,NA,44.086021505376344
49444,Muskegon County,MI,NA,47.87234042553192,NA
49445,Muskegon County,MI,NA,81.27659574468085,NA
49456,Ottawa County,MI,46.478873239436616,NA,94.89247311827957
49457,Muskegon County,MI,NA,NA,73.9247311827957
49505,Kent County,MI,NA,NA,17.473118279569892
49546,Kent County,MI,66.19718309859155,NA,NA
49712,Charlevoix County,MI,NA,NA,71.50537634408603
49735,Otsego County,MI,33.23943661971831,NA,NA
49801,Dickinson County,MI,80.56338028169014,NA,NA
55025,Washington County,MN,87.88732394366198,NA,NA
55066,Goodhue County,MN,NA,NA,37.365591397849464
55113,Ramsey County,MN,NA,NA,52.956989247311824
55124,Dakota County,MN,40.845070422535215,NA,NA
55127,Ramsey County,MN,64.22535211267606,NA,NA
55130,Ramsey County,MN,NA,NA,80.3763440860215
55303,Anoka County,MN,17.464788732394364,NA,NA
55305,Hennepin County,MN,NA,NA,31.451612903225808
55350,McLeod County,MN,NA,NA,90.05376344086021
55413,Hennepin County,MN,NA,38.08510638297872,NA
55427,Hennepin County,MN,NA,NA,46.774193548387096
55433,Anoka County,MN,NA,45.744680851063826,NA
55811,St. Louis County,MN,NA,NA,2.1505376344086025
55987,Winona County,MN,5.915492957746479,NA,NA
56085,Brown County,MN,NA,99.14893617021276,NA
56156,Rock County,MN,NA,72.12765957446808,NA
56378,Stearns County,MN,NA,67.65957446808511,NA
56401,Crow Wing County,MN,56.61971830985916,NA,NA
56721,Polk County,MN,54.929577464788736,NA,NA
38654,DeSoto County,MS,NA,48.93617021276596,NA
38701,Washington County,MS,79.15492957746478,NA,NA
38703,Washington County,MS,NA,NA,67.47311827956989
38821,Monroe County,MS,NA,90.63829787234042,NA
39042,Rankin County,MS,NA,21.914893617021278,NA
39073,Rankin County,MS,61.69014084507042,NA,NA
39209,Hinds County,MS,NA,NA,96.7741935483871
39401,Forrest County,MS,NA,45.95744680851064,NA
39437,Jones County,MS,60.56338028169014,NA,85.21505376344086
39470,Pearl River County,MS,NA,NA,55.64516129032258
39553,Jackson County,MS,NA,40.42553191489361,NA
39567,Jackson County,MS,NA,NA,63.44086021505376
39667,Walthall County,MS,NA,NA,98.11827956989248
39702,Lowndes County,MS,39.718309859154935,NA,NA
63026,St. Louis County,MO,NA,70.85106382978724,NA
63080,Franklin County,MO,47.88732394366197,NA,NA
63084,Franklin County,MO,54.3661971830986,NA,NA
63106,St. Louis city,MO,NA,62.76595744680851,NA
63128,St. Louis County,MO,NA,NA,7.795698924731183
63130,St. Louis County,MO,NA,NA,38.17204301075269
63146,St. Louis County,MO,NA,NA,7.526881720430108
63147,St. Louis city,MO,NA,74.46808510638297,NA
63301,St. Charles County,MO,NA,80,NA
63385,St. Charles County,MO,14.929577464788732,NA,NA
63501,Adair County,MO,NA,NA,58.06451612903226
63933,Dunklin County,MO,NA,99.7872340425532,NA
64012,Cass County,MO,97.74647887323944,NA,NA
64015,Jackson County,MO,12.394366197183098,NA,NA
64024,Clay County,MO,NA,29.78723404255319,NA
64055,Jackson County,MO,NA,48.723404255319146,NA
64127,Jackson County,MO,49.014084507042256,NA,NA
64137,Jackson County,MO,NA,NA,54.83870967741935
64701,Cass County,MO,45.91549295774648,NA,NA
64742,Cass County,MO,NA,98.72340425531915,NA
65079,Camden County,MO,NA,NA,74.19354838709677
65560,Dent County,MO,NA,42.340425531914896,NA
65807,Greene County,MO,NA,NA,8.064516129032258
59405,Cascade County,MT,NA,NA,31.989247311827956
59711,Deer Lodge County,MT,NA,97.02127659574468,NA
59741,Gallatin County,MT,90.70422535211267,NA,NA
59803,Missoula County,MT,NA,79.57446808510639,NA
68025,Dodge County,NE,NA,NA,11.29032258064516
68107,Douglas County,NE,NA,NA,56.98924731182796
68801,Hall County,NE,NA,58.08510638297872,NA
89108,Clark County,NV,21.971830985915496,NA,NA
89128,Clark County,NV,73.23943661971832,NA,NA
89147,Clark County,NV,67.88732394366197,NA,NA
89410,Douglas County,NV,98.02816901408451,NA,NA
89502,Washoe County,NV,19.154929577464788,NA,NA
89511,Washoe County,NV,NA,NA,63.97849462365591
89815,Elko County,NV,NA,67.02127659574468,NA
03051,Hillsborough County,NH,NA,14.893617021276595,NA
03064,Hillsborough County,NH,NA,84.8936170212766,NA
03104,Hillsborough County,NH,NA,NA,56.18279569892473
03106,Merrimack County,NH,NA,89.7872340425532,NA
03246,Belknap County,NH,NA,NA,85.75268817204301
03301,Merrimack County,NH,NA,9.361702127659575,NA
03820,Strafford County,NH,21.69014084507042,NA,NA
03858,Rockingham County,NH,NA,87.44680851063829,NA
07112,Essex County,NJ,NA,NA,62.365591397849464
07444,Morris County,NJ,NA,NA,33.60215053763441
07458,Bergen County,NJ,NA,NA,75.26881720430107
07601,Bergen County,NJ,NA,NA,16.666666666666664
07605,Bergen County,NJ,NA,NA,83.87096774193549
07712,Monmouth County,NJ,NA,91.48936170212765,NA
07716,Monmouth County,NJ,NA,74.8936170212766,NA
07726,Monmouth County,NJ,30.422535211267604,NA,NA
07731,Monmouth County,NJ,30.985915492957744,NA,NA
07747,Monmouth County,NJ,34.08450704225352,NA,NA
07748,Monmouth County,NJ,NA,50.638297872340424,NA
07950,Morris County,NJ,61.12676056338028,NA,NA
08003,Camden County,NJ,NA,NA,19.892473118279568
08008,Ocean County,NJ,NA,72.5531914893617,NA
08045,Camden County,NJ,87.32394366197182,NA,NA
08048,Burlington County,NJ,NA,NA,87.09677419354838
08050,Ocean County,NJ,NA,25.106382978723403,NA
08052,Burlington County,NJ,NA,63.191489361702125,NA
08087,Ocean County,NJ,NA,12.76595744680851,NA
08102,Camden County,NJ,86.19718309859155,NA,NA
08105,Camden County,NJ,NA,8.72340425531915,NA
08205,Atlantic County,NJ,15.492957746478872,17.02127659574468,NA
08322,Gloucester County,NJ,NA,67.4468085106383,NA
08648,Mercer County,NJ,45.63380281690141,NA,NA
08736,Monmouth County,NJ,NA,NA,90.32258064516128
08759,Ocean County,NJ,NA,NA,0
08833,Hunterdon County,NJ,89.85915492957747,NA,NA
08848,Hunterdon County,NJ,NA,92.5531914893617,76.88172043010752
08854,Middlesex County,NJ,NA,NA,26.61290322580645
08861,Middlesex County,NJ,NA,3.6170212765957444,NA
87002,Valencia County,NM,NA,46.38297872340426,NA
87108,Bernalillo County,NM,NA,3.404255319148936,NA
87532,Santa Fe County,NM,NA,34.680851063829785,NA
87544,Los Alamos County,NM,NA,49.361702127659576,NA
87557,Taos County,NM,88.45070422535211,NA,NA
87701,San Miguel County,NM,NA,67.87234042553192,NA
88220,Eddy County,NM,21.408450704225352,NA,NA
10016,New York County,NY,65.35211267605634,NA,NA
10023,New York County,NY,NA,NA,25.806451612903224
10024,New York County,NY,NA,NA,61.55913978494624
10028,New York County,NY,NA,23.829787234042556,NA
10035,New York County,NY,25.915492957746476,NA,NA
10037,New York County,NY,40.563380281690144,NA,39.247311827956985
10038,New York County,NY,NA,98.51063829787235,NA
10451,Bronx County,NY,NA,25.319148936170212,NA
10455,Bronx County,NY,1.971830985915493,51.276595744680854,NA
10460,Bronx County,NY,NA,1.0638297872340425,NA
10465,Bronx County,NY,62.53521126760564,NA,NA
10466,Bronx County,NY,NA,14.042553191489363,NA
10467,Bronx County,NY,NA,0.2127659574468085,NA
10473,Bronx County,NY,NA,NA,92.47311827956989
10543,Westchester County,NY,65.91549295774648,NA,NA
10583,Westchester County,NY,NA,NA,28.225806451612907
10952,Rockland County,NY,NA,71.48936170212767,NA
10954,Rockland County,NY,NA,NA,43.54838709677419
11010,Nassau County,NY,NA,55.74468085106383,NA
11103,Queens County,NY,NA,73.82978723404256,NA
11207,Kings County,NY,0.5633802816901409,NA,NA
11214,Kings County,NY,NA,53.404255319148945,NA
11216,Kings County,NY,NA,NA,20.43010752688172
11223,Kings County,NY,NA,10,NA
11224,Kings County,NY,NA,21.70212765957447,NA
11226,Kings County,NY,86.76056338028168,1.9148936170212765,NA
11379,Queens County,NY,75.49295774647888,NA,NA
11412,Queens County,NY,NA,NA,77.68817204301075
11420,Queens County,NY,91.26760563380282,NA,NA
11435,Queens County,NY,NA,12.978723404255318,NA
11701,Suffolk County,NY,NA,54.680851063829785,NA
11706,Suffolk County,NY,NA,27.23404255319149,NA
11714,Nassau County,NY,NA,NA,45.16129032258064
11747,Suffolk County,NY,NA,NA,45.69892473118279
11768,Suffolk County,NY,NA,NA,45.43010752688172
11772,Suffolk County,NY,32.3943661971831,19.78723404255319,NA
11791,Nassau County,NY,NA,68.29787234042554,NA
11933,Suffolk County,NY,NA,NA,79.83870967741935
11950,Suffolk County,NY,70.4225352112676,NA,NA
11971,Suffolk County,NY,NA,83.19148936170212,NA
12186,Albany County,NY,NA,NA,100
12302,Schenectady County,NY,NA,17.872340425531917,NA
12304,Schenectady County,NY,61.408450704225345,NA,NA
12308,Schenectady County,NY,NA,NA,78.2258064516129
12832,Washington County,NY,84.50704225352112,NA,NA
12944,Essex County,NY,NA,97.87234042553192,NA
12953,Franklin County,NY,NA,15.319148936170212,23.655913978494624
13206,Onondaga County,NY,24.507042253521128,NA,NA
13212,Onondaga County,NY,31.26760563380282,NA,NA
13620,Lewis County,NY,NA,90,NA
13820,Otsego County,NY,37.183098591549296,NA,NA
13905,Broome County,NY,1.1267605633802817,NA,NA
14048,Chautauqua County,NY,NA,NA,92.20430107526882
14216,Erie County,NY,60,NA,NA
14305,Niagara County,NY,3.0985915492957745,NA,NA
14454,Livingston County,NY,93.2394366197183,NA,NA
14456,Ontario County,NY,5.352112676056338,3.1914893617021276,NA
14467,Monroe County,NY,NA,43.829787234042556,52.956989247311824
14510,Livingston County,NY,NA,62.34042553191489,NA
14527,Yates County,NY,26.76056338028169,NA,NA
14580,Monroe County,NY,4.788732394366197,70,NA
14605,Monroe County,NY,NA,94.8936170212766,NA
14606,Monroe County,NY,15.492957746478872,76.80851063829788,NA
14622,Monroe County,NY,81.12676056338029,NA,NA
14623,Monroe County,NY,NA,NA,37.096774193548384
14843,Steuben County,NY,21.12676056338028,NA,NA
14850,Tompkins County,NY,NA,24.04255319148936,NA
27028,Davie County,NC,NA,4.680851063829787,NA
27030,Surry County,NC,4.507042253521127,NA,NA
27104,Forsyth County,NC,29.295774647887324,4.042553191489362,NA
27105,Forsyth County,NC,NA,15.74468085106383,NA
27127,Forsyth County,NC,NA,NA,6.451612903225806
27205,Randolph County,NC,NA,NA,34.67741935483871
27265,Guilford County,NC,NA,NA,22.311827956989248
27278,Orange County,NC,NA,10.425531914893616,NA
27292,Davidson County,NC,NA,0.851063829787234,NA
27332,Lee County,NC,NA,64.46808510638297,NA
27360,Davidson County,NC,NA,2.7659574468085104,NA
27516,Orange County,NC,NA,9.574468085106384,NA
27565,Granville County,NC,NA,NA,27.1505376344086
27604,Wake County,NC,NA,61.702127659574465,NA
27707,Durham County,NC,NA,NA,18.27956989247312
27817,Beaufort County,NC,72.95774647887325,NA,NA
27896,Wilson County,NC,NA,NA,59.40860215053764
27932,Chowan County,NC,55.774647887323944,NA,NA
28001,Stanly County,NC,32.67605633802817,NA,NA
28081,Cabarrus County,NC,NA,39.361702127659576,NA
28083,Cabarrus County,NC,29.859154929577464,NA,NA
28110,Union County,NC,22.535211267605636,NA,NA
28146,Rowan County,NC,33.80281690140845,NA,NA
28150,Cleveland County,NC,NA,32.5531914893617,NA
28206,Mecklenburg County,NC,43.38028169014084,NA,NA
28303,Cumberland County,NC,74.92957746478874,NA,41.39784946236559
28306,Bladen County,NC,83.09859154929578,NA,NA
28328,Sampson County,NC,NA,17.4468085106383,NA
28334,Sampson County,NC,27.605633802816904,NA,NA
28358,Robeson County,NC,14.647887323943662,NA,NA
28390,Harnett County,NC,NA,54.8936170212766,NA
28463,Columbus County,NC,NA,NA,75.80645161290323
28472,Columbus County,NC,38.309859154929576,NA,NA
28585,Jones County,NC,NA,98.93617021276596,NA
28613,Catawba County,NC,42.816901408450704,NA,NA
28625,Iredell County,NC,NA,45.53191489361702,NA
28645,Caldwell County,NC,NA,0.6382978723404255,1.881720430107527
28673,Catawba County,NC,NA,94.25531914893617,NA
28719,Jackson County,NC,48.732394366197184,NA,NA
28739,Henderson County,NC,88.73239436619718,55.53191489361702,NA
28786,Haywood County,NC,NA,14.468085106382977,NA
28803,Buncombe County,NC,NA,57.02127659574469,NA
58104,Cass County,ND,NA,8.51063829787234,NA
58203,Grand Forks County,ND,NA,91.91489361702128,NA
43082,Delaware County,OH,NA,32.340425531914896,NA
43110,Franklin County,OH,NA,7.021276595744681,NA
43130,Fairfield County,OH,NA,NA,2.956989247311828
43160,Fayette County,OH,12.957746478873238,NA,NA
43207,Franklin County,OH,NA,26.595744680851062,NA
43213,Franklin County,OH,8.450704225352112,NA,NA
43227,Franklin County,OH,NA,61.06382978723405,NA
43229,Franklin County,OH,NA,NA,20.698924731182796
43302,Marion County,OH,1.4084507042253522,NA,NA
43402,Wood County,OH,NA,12.340425531914894,NA
43410,Sandusky County,OH,51.83098591549295,NA,NA
43551,Wood County,OH,13.239436619718308,NA,NA
43558,Fulton County,OH,96.61971830985917,NA,NA
43606,Lucas County,OH,NA,NA,82.52688172043011
43607,Lucas County,OH,26.478873239436616,NA,NA
43613,Lucas County,OH,NA,82.76595744680851,NA
43614,Lucas County,OH,NA,7.659574468085106,NA
43615,Lucas County,OH,38.87323943661972,NA,9.946236559139784
43725,Guernsey County,OH,NA,58.51063829787234,NA
43952,Jefferson County,OH,5.633802816901409,NA,NA
44004,Ashtabula County,OH,NA,16.170212765957448,1.3440860215053763
44011,Lorain County,OH,NA,51.48936170212765,NA
44012,Lorain County,OH,NA,4.25531914893617,NA
44035,Lorain County,OH,NA,NA,14.516129032258066
44039,Lorain County,OH,32.11267605633803,NA,NA
44052,Lorain County,OH,NA,NA,7.258064516129033
44053,Lorain County,OH,NA,NA,5.10752688172043
44055,Lorain County,OH,7.323943661971831,NA,NA
44060,Lake County,OH,NA,NA,36.55913978494624
44067,Summit County,OH,NA,45.31914893617021,NA
44087,Summit County,OH,NA,12.553191489361701,NA
44102,Cuyahoga County,OH,NA,1.702127659574468,NA
44105,Cuyahoga County,OH,0.8450704225352111,NA,NA
44106,Cuyahoga County,OH,75.77464788732394,NA,NA
44116,Cuyahoga County,OH,NA,NA,5.64516129032258
44123,Cuyahoga County,OH,NA,50.42553191489362,33.064516129032256
44128,Cuyahoga County,OH,15.211267605633802,NA,NA
44130,Cuyahoga County,OH,2.2535211267605635,NA,20.967741935483872
44133,Cuyahoga County,OH,NA,35.95744680851064,NA
44137,Cuyahoga County,OH,69.85915492957746,NA,NA
44139,Cuyahoga County,OH,NA,10.212765957446807,NA
44142,Cuyahoga County,OH,77.74647887323944,NA,NA
44147,Cuyahoga County,OH,NA,54.46808510638298,NA
44201,Portage County,OH,NA,NA,77.15053763440861
44212,Medina County,OH,NA,NA,89.51612903225806
44216,Summit County,OH,59.436619718309856,NA,NA
44256,Medina County,OH,NA,NA,14.78494623655914
44410,Trumbull County,OH,NA,19.574468085106382,NA
44425,Trumbull County,OH,NA,20,NA
44442,Mahoning County,OH,NA,NA,75
44485,Trumbull County,OH,NA,NA,72.58064516129032
44502,Mahoning County,OH,44.7887323943662,NA,NA
44515,Mahoning County,OH,NA,8.297872340425531,NA
44646,Stark County,OH,NA,9.148936170212766,NA
44685,Summit County,OH,48.16901408450705,NA,NA
44706,Stark County,OH,NA,NA,84.13978494623656
44709,Stark County,OH,NA,NA,51.61290322580645
44720,Stark County,OH,NA,15.53191489361702,NA
44730,Stark County,OH,NA,NA,73.11827956989248
44820,Crawford County,OH,NA,8.085106382978724,NA
44851,Huron County,OH,NA,85.95744680851064,NA
44870,Erie County,OH,NA,NA,4.838709677419355
44883,Seneca County,OH,NA,NA,18.817204301075268
45067,Butler County,OH,NA,65.74468085106383,NA
45069,Butler County,OH,NA,14.255319148936172,NA
45213,Hamilton County,OH,NA,NA,68.27956989247312
45236,Hamilton County,OH,NA,NA,25
45238,Hamilton County,OH,NA,NA,10.75268817204301
45242,Hamilton County,OH,NA,52.97872340425533,NA
45304,Darke County,OH,NA,NA,73.65591397849462
45322,Montgomery County,OH,NA,92.76595744680851,NA
45405,Montgomery County,OH,NA,36.17021276595745,NA
45424,Montgomery County,OH,NA,NA,8.870967741935484
45660,Adams County,OH,68.45070422535211,NA,NA
45750,Washington County,OH,52.95774647887323,0.425531914893617,NA
45764,Athens County,OH,65.63380281690141,NA,NA
45891,Van Wert County,OH,NA,18.51063829787234,NA
73064,Canadian County,OK,NA,NA,36.02150537634409
73115,Oklahoma County,OK,NA,34.25531914893617,NA
73135,Oklahoma County,OK,45.352112676056336,NA,NA
73533,Stephens County,OK,NA,9.787234042553191,NA
73801,Woodward County,OK,61.97183098591549,NA,NA
74014,Wagoner County,OK,NA,NA,43.81720430107527
74105,Tulsa County,OK,NA,NA,54.56989247311827
74133,Tulsa County,OK,NA,NA,12.634408602150538
74464,Cherokee County,OK,7.605633802816901,NA,NA
74857,Cleveland County,OK,NA,85.1063829787234,NA
97005,Washington County,OR,NA,59.787234042553195,NA
97062,Washington County,OR,NA,NA,93.01075268817203
97070,Clackamas County,OR,NA,50.212765957446805,NA
97080,Multnomah County,OR,58.309859154929576,NA,NA
97123,Washington County,OR,NA,92.12765957446808,NA
97138,Clatsop County,OR,NA,52.34042553191489,NA
97220,Multnomah County,OR,NA,22.5531914893617,NA
97229,Washington County,OR,94.92957746478872,NA,NA
97303,Marion County,OR,NA,37.659574468085104,NA
97321,Linn County,OR,NA,65.53191489361701,NA
97333,Benton County,OR,NA,NA,49.193548387096776
97351,Polk County,OR,NA,92.34042553191489,NA
97355,Linn County,OR,NA,75.53191489361703,NA
97386,Linn County,OR,NA,NA,80.3763440860215
97471,Douglas County,OR,NA,64.25531914893618,NA
97537,Jackson County,OR,NA,80.85106382978722,NA
97603,Klamath County,OR,NA,56.80851063829787,NA
97630,Lake County,OR,NA,82.5531914893617,NA
97756,Deschutes County,OR,NA,87.2340425531915,NA
97850,Union County,OR,67.32394366197182,NA,NA
15001,Beaver County,PA,NA,43.19148936170213,NA
15042,Beaver County,PA,NA,62.5531914893617,NA
15102,Allegheny County,PA,NA,20.851063829787233,88.97849462365592
15104,Allegheny County,PA,NA,NA,95.96774193548387
15132,Allegheny County,PA,41.690140845070424,NA,NA
15136,Allegheny County,PA,30.140845070422532,29.574468085106382,NA
15208,Allegheny County,PA,NA,NA,93.27956989247312
15215,Allegheny County,PA,NA,NA,74.46236559139786
15216,Allegheny County,PA,NA,43.61702127659575,NA
15220,Allegheny County,PA,NA,NA,47.043010752688176
15237,Allegheny County,PA,NA,NA,3.763440860215054
15332,Washington County,PA,77.46478873239437,NA,NA
15401,Fayette County,PA,NA,68.51063829787233,NA
15650,Westmoreland County,PA,NA,NA,12.096774193548388
15717,Indiana County,PA,63.38028169014085,NA,NA
15904,Cambria County,PA,58.87323943661972,NA,NA
16063,Butler County,PA,NA,NA,50.806451612903224
16066,Butler County,PA,NA,98.29787234042553,NA
16150,Mercer County,PA,NA,58.723404255319146,NA
16354,Crawford County,PA,NA,56.17021276595745,NA
16365,Warren County,PA,36.33802816901409,NA,NA
16701,McKean County,PA,16.619718309859156,NA,NA
17019,York County,PA,NA,38.297872340425535,NA
17042,Lebanon County,PA,NA,23.19148936170213,NA
17055,Cumberland County,PA,NA,13.191489361702127,NA
17104,Dauphin County,PA,51.267605633802816,NA,NA
17109,Dauphin County,PA,25.070422535211268,NA,NA
17110,Dauphin County,PA,NA,NA,63.70967741935484
17112,Dauphin County,PA,NA,NA,14.24731182795699
17331,York County,PA,NA,86.17021276595744,NA
17512,Lancaster County,PA,NA,96.59574468085106,NA
17551,Lancaster County,PA,NA,NA,70.6989247311828
17584,Lancaster County,PA,NA,NA,81.45161290322581
17601,Lancaster County,PA,35.49295774647888,NA,NA
17754,Lycoming County,PA,NA,NA,26.881720430107524
17814,Columbia County,PA,89.5774647887324,NA,NA
17815,Columbia County,PA,NA,87.02127659574468,NA
17857,Northumberland County,PA,NA,81.06382978723404,76.34408602150538
17866,Northumberland County,PA,80,NA,NA
17921,Schuylkill County,PA,NA,NA,96.50537634408603
17976,Schuylkill County,PA,95.2112676056338,NA,NA
18042,Northampton County,PA,2.8169014084507045,NA,NA
18235,Carbon County,PA,31.83098591549296,54.04255319148936,NA
18301,Monroe County,PA,NA,22.127659574468083,NA
18330,Monroe County,PA,NA,70.63829787234043,NA
18360,Monroe County,PA,28.450704225352112,NA,NA
18603,Columbia County,PA,NA,NA,38.17204301075269
18702,Luzerne County,PA,NA,95.95744680851064,NA
18704,Luzerne County,PA,NA,10.851063829787234,NA
18951,Bucks County,PA,NA,NA,26.344086021505376
18964,Montgomery County,PA,NA,95.53191489361701,NA
19027,Montgomery County,PA,NA,27.872340425531917,NA
19047,Bucks County,PA,NA,13.404255319148936,NA
19078,Delaware County,PA,NA,NA,81.98924731182797
19083,Delaware County,PA,NA,90.2127659574468,NA
19095,Montgomery County,PA,87.04225352112675,NA,NA
19104,Philadelphia County,PA,66.47887323943662,NA,NA
19123,Philadelphia County,PA,82.53521126760563,NA,NA
19130,Philadelphia County,PA,40.28169014084507,NA,NA
19140,Philadelphia County,PA,NA,NA,32.526881720430104
19142,Philadelphia County,PA,NA,NA,47.31182795698925
19143,Philadelphia County,PA,NA,NA,10.483870967741936
19148,Philadelphia County,PA,NA,NA,15.32258064516129
19149,Philadelphia County,PA,NA,94.04255319148936,NA
19362,Chester County,PA,NA,78.29787234042553,97.31182795698925
19401,Montgomery County,PA,7.042253521126761,16.80851063829787,NA
19426,Montgomery County,PA,36.056338028169016,NA,NA
19464,Montgomery County,PA,NA,27.02127659574468,NA
19530,Berks County,PA,NA,55.1063829787234,NA
19565,Berks County,PA,NA,85.74468085106382,NA
19606,Berks County,PA,NA,61.48936170212767,NA
19611,Berks County,PA,NA,88.29787234042553,NA
02816,Kent County,RI,95.77464788732394,NA,NA
02818,Kent County,RI,NA,79.14893617021276,NA
02835,Newport County,RI,NA,NA,68.81720430107528
02840,Newport County,RI,NA,NA,46.236559139784944
02860,Providence County,RI,90.14084507042254,NA,NA
02864,Providence County,RI,NA,13.617021276595745,NA
02879,Washington County,RI,NA,NA,30.107526881720432
02891,Washington County,RI,57.46478873239437,NA,88.17204301075269
02903,Providence County,RI,NA,NA,66.12903225806451
02921,Providence County,RI,NA,70.42553191489361,NA
29003,Bamberg County,SC,NA,75.74468085106383,NA
29048,Orangeburg County,SC,NA,82.97872340425532,NA
29169,Lexington County,SC,82.8169014084507,NA,NA
29323,Spartanburg County,SC,74.36619718309859,NA,NA
29335,Spartanburg County,SC,NA,NA,91.39784946236558
29360,Laurens County,SC,NA,32.76595744680851,NA
29455,Charleston County,SC,NA,25.957446808510635,NA
29466,Charleston County,SC,NA,41.91489361702128,NA
29488,Colleton County,SC,NA,28.297872340425535,NA
29588,Horry County,SC,38.309859154929576,NA,NA
29611,Greenville County,SC,11.830985915492958,NA,NA
29640,Pickens County,SC,NA,17.659574468085108,NA
29801,Aiken County,SC,NA,37.87234042553192,NA
29902,Beaufort County,SC,NA,75.1063829787234,NA
57301,Davison County,SD,49.29577464788733,NA,NA
57701,Pennington County,SD,18.591549295774648,NA,NA
37043,Montgomery County,TN,NA,48.08510638297872,NA
37129,Rutherford County,TN,NA,22.340425531914892,NA
37167,Rutherford County,TN,NA,18.93617021276596,NA
37208,Davidson County,TN,NA,51.70212765957447,NA
37221,Davidson County,TN,NA,20.425531914893615,NA
37312,Bradley County,TN,45.07042253521127,NA,NA
37329,McMinn County,TN,94.36619718309859,NA,NA
37355,Coffee County,TN,NA,40.85106382978723,NA
37416,Hamilton County,TN,NA,NA,62.096774193548384
37743,Greene County,TN,11.267605633802818,NA,12.365591397849462
37745,Greene County,TN,25.633802816901408,NA,NA
37876,Sevier County,TN,NA,49.148936170212764,NA
37912,Knox County,TN,29.577464788732392,NA,NA
38008,Hardeman County,TN,NA,60.851063829787236,NA
38017,Shelby County,TN,NA,42.765957446808514,NA
38242,Henry County,TN,NA,NA,42.473118279569896
38261,Obion County,TN,NA,NA,57.25806451612904
38375,McNairy County,TN,NA,60.42553191489362,NA
38571,Cumberland County,TN,NA,NA,51.344086021505376
75035,Collin County,TX,NA,40.21276595744681,NA
75040,Dallas County,TX,16.901408450704224,NA,NA
75065,Denton County,TX,78.59154929577464,NA,NA
75075,Collin County,TX,63.098591549295776,NA,NA
75088,Dallas County,TX,NA,37.02127659574468,NA
75110,Navarro County,TX,NA,NA,34.946236559139784
75135,Hunt County,TX,NA,78.93617021276596,NA
75231,Dallas County,TX,NA,91.70212765957447,NA
75238,Dallas County,TX,63.94366197183099,NA,NA
75491,Grayson County,TX,NA,82.34042553191489,NA
75650,Harrison County,TX,NA,NA,93.81720430107528
75701,Smith County,TX,36.901408450704224,NA,NA
75709,Smith County,TX,NA,69.36170212765957,NA
75766,Cherokee County,TX,NA,5.319148936170213,NA
75901,Angelina County,TX,37.74647887323944,NA,NA
76028,Johnson County,TX,10.422535211267606,NA,NA
76033,Johnson County,TX,NA,NA,70.43010752688173
76054,Tarrant County,TX,NA,NA,94.6236559139785
76354,Wichita County,TX,NA,NA,60.215053763440864
76643,McLennan County,TX,NA,97.65957446808511,NA
76710,McLennan County,TX,NA,NA,78.49462365591397
77016,Harris County,TX,NA,NA,38.70967741935484
77021,Harris County,TX,65.07042253521126,NA,NA
77024,Harris County,TX,NA,31.914893617021278,NA
77035,Harris County,TX,NA,NA,63.17204301075269
77054,Harris County,TX,71.26760563380282,NA,NA
77327,Liberty County,TX,NA,63.61702127659574,NA
77386,Montgomery County,TX,NA,39.787234042553195,NA
77459,Fort Bend County,TX,23.943661971830984,NA,NA
77581,Brazoria County,TX,NA,16.382978723404253,NA
77707,Jefferson County,TX,NA,65.95744680851064,NA
77954,DeWitt County,TX,NA,49.787234042553195,49.46236559139785
78026,Atascosa County,TX,NA,NA,76.0752688172043
78028,Kerr County,TX,NA,NA,8.333333333333332
78041,Webb County,TX,NA,NA,27.688172043010752
78046,Webb County,TX,NA,NA,86.29032258064517
78109,Bexar County,TX,49.57746478873239,NA,NA
78201,Bexar County,TX,NA,62.12765957446808,NA
78212,Bexar County,TX,NA,73.40425531914893,NA
78550,Cameron County,TX,NA,30.638297872340424,NA
78572,Hidalgo County,TX,18.028169014084508,NA,NA
78633,Williamson County,TX,NA,NA,17.20430107526882
78738,Travis County,TX,74.64788732394366,NA,NA
78748,Travis County,TX,66.7605633802817,NA,NA
78753,Travis County,TX,NA,NA,98.65591397849462
78801,Uvalde County,TX,NA,50.851063829787236,NA
79107,Potter County,TX,NA,69.14893617021278,NA
79763,Ector County,TX,35.774647887323944,NA,NA
79912,El Paso County,TX,27.042253521126757,NA,NA
84040,Davis County,UT,NA,NA,65.32258064516128
84057,Utah County,UT,99.71830985915493,NA,NA
84067,Weber County,UT,37.46478873239437,NA,NA
84070,Salt Lake County,UT,NA,NA,61.02150537634409
84075,Davis County,UT,NA,NA,84.67741935483872
84097,Utah County,UT,98.59154929577466,NA,NA
84104,Salt Lake County,UT,NA,NA,53.494623655913976
84118,Salt Lake County,UT,NA,44.25531914893617,NA
84121,Salt Lake County,UT,NA,NA,18.010752688172044
84651,Utah County,UT,NA,67.23404255319149,NA
05201,Bennington County,VT,NA,63.829787234042556,NA
20110,Manassas city,VA,64.7887323943662,NA,NA
20155,Prince William County,VA,NA,NA,95.6989247311828
20171,Fairfax County,VA,NA,60.21276595744681,NA
22041,Fairfax County,VA,NA,NA,55.91397849462365
22042,Fairfax County,VA,52.394366197183096,NA,NA
22204,Arlington County,VA,NA,37.4468085106383,NA
22401,Fredericksburg city,VA,NA,NA,54.3010752688172
22554,Stafford County,VA,NA,35.1063829787234,NA
22701,Culpeper County,VA,26.197183098591548,NA,NA
22801,Harrisonburg city,VA,NA,28.936170212765955,NA
22853,Rockingham County,VA,NA,72.3404255319149,NA
23072,Gloucester County,VA,69.57746478873239,NA,NA
23185,James City County,VA,NA,NA,0.8064516129032258
23219,Richmond city,VA,97.1830985915493,NA,NA
23221,Richmond city,VA,NA,NA,69.35483870967742
23222,Richmond city,VA,16.338028169014084,NA,NA
23323,Chesapeake city,VA,34.92957746478873,NA,NA
23451,Virginia Beach city,VA,NA,NA,21.774193548387096
23452,Virginia Beach city,VA,NA,NA,91.12903225806451
23455,Virginia Beach city,VA,NA,NA,1.6129032258064515
23462,Virginia Beach city,VA,NA,NA,4.301075268817205
23608,Newport News city,VA,NA,28.510638297872344,NA
24054,Henry County,VA,NA,NA,91.66666666666666
24171,Patrick County,VA,NA,NA,51.075268817204304
24244,Scott County,VA,78.87323943661971,NA,NA
24401,Staunton city,VA,9.577464788732394,NA,6.989247311827956
24523,Bedford County,VA,NA,32.12765957446809,NA
24651,Tazewell County,VA,NA,70.2127659574468,NA
98001,King County,WA,NA,31.48936170212766,NA
98003,King County,WA,71.83098591549296,NA,NA
98006,King County,WA,NA,21.48936170212766,NA
98012,Snohomish County,WA,80.28169014084507,NA,NA
98031,King County,WA,NA,85.31914893617021,NA
98034,King County,WA,NA,11.063829787234042,NA
98037,Snohomish County,WA,NA,71.91489361702128,NA
98119,King County,WA,NA,NA,58.602150537634415
98136,King County,WA,NA,62.97872340425532,NA
98198,King County,WA,44.50704225352113,NA,NA
98201,Snohomish County,WA,94.08450704225352,93.82978723404256,NA
98203,Snohomish County,WA,NA,83.82978723404256,NA
98208,Snohomish County,WA,NA,20.638297872340424,NA
98223,Snohomish County,WA,76.05633802816901,NA,NA
98225,Whatcom County,WA,89.29577464788733,35.319148936170215,NA
98271,Snohomish County,WA,NA,41.702127659574465,NA
98338,Pierce County,WA,NA,26.80851063829787,NA
98368,Jefferson County,WA,NA,65.1063829787234,NA
98374,Pierce County,WA,83.38028169014085,NA,NA
98375,Pierce County,WA,NA,90.85106382978724,NA
98445,Pierce County,WA,85.35211267605634,NA,NA
98466,Pierce County,WA,59.154929577464785,NA,NA
98531,Lewis County,WA,NA,NA,32.795698924731184
98532,Lewis County,WA,NA,NA,52.41935483870967
98683,Clark County,WA,NA,93.40425531914893,NA
98902,Yakima County,WA,28.169014084507044,NA,NA
98926,Kittitas County,WA,NA,NA,93.54838709677419
98936,Yakima County,WA,NA,92.97872340425532,NA
98942,Yakima County,WA,NA,53.61702127659574,NA
99004,Spokane County,WA,NA,86.59574468085106,NA
99005,Spokane County,WA,100,NA,NA
99016,Spokane County,WA,NA,89.36170212765957,NA
99205,Spokane County,WA,42.53521126760563,NA,NA
99208,Spokane County,WA,NA,53.191489361702125,NA
99212,Spokane County,WA,NA,61.27659574468085,NA
99224,Spokane County,WA,NA,97.23404255319149,NA
99301,Franklin County,WA,NA,NA,62.634408602150536
20002,District of Columbia,DC,2.535211267605634,NA,NA
24701,Mercer County,WV,NA,NA,28.763440860215056
24739,Mercer County,WV,93.80281690140845,NA,NA
25313,Kanawha County,WV,50.70422535211267,NA,NA
25427,Berkeley County,WV,NA,NA,60.752688172043015
25443,Jefferson County,WV,NA,NA,64.51612903225806
25526,Putnam County,WV,NA,30.425531914893618,NA
25704,Wayne County,WV,29.014084507042252,NA,NA
25962,Greenbrier County,WV,87.60563380281691,NA,NA
26150,Wood County,WV,NA,NA,82.79569892473118
26241,Randolph County,WV,NA,NA,29.03225806451613
26452,Lewis County,WV,NA,23.617021276595747,NA
53024,Ozaukee County,WI,NA,NA,19.623655913978492
53045,Waukesha County,WI,NA,91.06382978723404,NA
53072,Waukesha County,WI,NA,33.61702127659574,NA
53092,Ozaukee County,WI,NA,33.40425531914894,NA
53121,Walworth County,WI,NA,21.27659574468085,NA
53130,Milwaukee County,WI,79.71830985915493,NA,NA
53168,Kenosha County,WI,NA,77.02127659574468,NA
53172,Milwaukee County,WI,38.028169014084504,NA,NA
53178,Jefferson County,WI,NA,100,NA
53179,Kenosha County,WI,NA,77.87234042553192,NA
53188,Waukesha County,WI,23.098591549295776,NA,28.49462365591398
53205,Milwaukee County,WI,1.6901408450704223,NA,NA
53209,Milwaukee County,WI,14.366197183098592,NA,NA
53214,Milwaukee County,WI,NA,7.872340425531915,NA
53216,Milwaukee County,WI,NA,NA,35.752688172043015
53402,Racine County,WI,3.6619718309859155,78.08510638297872,NA
53546,Rock County,WI,NA,84.68085106382979,NA
53549,Jefferson County,WI,NA,44.46808510638298,NA
53718,Dane County,WI,85.63380281690141,NA,NA
53901,Columbia County,WI,NA,NA,41.12903225806452
53925,Columbia County,WI,NA,77.4468085106383,NA
53949,Marquette County,WI,96.05633802816902,NA,NA
54220,Manitowoc County,WI,NA,1.276595744680851,11.021505376344086
54452,Lincoln County,WI,NA,NA,23.387096774193548
54456,Clark County,WI,NA,NA,79.3010752688172
54481,Portage County,WI,NA,NA,10.21505376344086
54615,Jackson County,WI,NA,NA,72.04301075268818
54736,Pepin County,WI,NA,95.31914893617022,NA
54829,Barron County,WI,NA,NA,98.9247311827957
54880,Douglas County,WI,13.802816901408452,NA,NA
54914,Outagamie County,WI,23.661971830985916,NA,NA
54956,Winnebago County,WI,NA,25.53191489361702,NA
82633,Converse County,WY,76.90140845070422,NA,NA
82716,Campbell County,WY,NA,88.08510638297872,NA
82930,Uinta County,WY,NA,72.76595744680851,NA
