ZipCode,county,state,Adult,Retirement
35007,Shelby County,AL,52.19941348973607,NA
35072,Coosa County,AL,NA,81.05515587529976
35111,Tuscaloosa County,AL,NA,31.894484412470025
35127,Jefferson County,AL,82.84457478005865,NA
35173,Jefferson County,AL,51.61290322580645,NA
35210,Jefferson County,AL,72.28739002932552,NA
35226,Jefferson County,AL,NA,21.34292565947242
35242,Shelby County,AL,67.44868035190615,NA
35453,Tuscaloosa County,AL,56.74486803519062,NA
35503,Walker County,AL,86.95014662756599,NA
35580,Walker County,AL,95.16129032258065,NA
35749,Madison County,AL,50.29325513196481,NA
35801,Madison County,AL,72.58064516129032,NA
35978,DeKalb County,AL,NA,96.40287769784173
36066,Autauga County,AL,54.83870967741935,NA
36067,Autauga County,AL,NA,49.16067146282973
36375,Geneva County,AL,75.95307917888563,NA
99507,Anchorage Municipality,AK,NA,53.71702637889688
99801,Juneau City and Borough,AK,50.146627565982406,NA
85009,Maricopa County,AZ,43.988269794721404,NA
85027,Maricopa County,AZ,NA,58.752997601918466
85207,Maricopa County,AZ,NA,27.098321342925658
85210,Maricopa County,AZ,24.193548387096776,NA
85259,Maricopa County,AZ,NA,76.49880095923261
85304,Maricopa County,AZ,NA,69.30455635491607
85367,Yuma County,AZ,82.55131964809385,NA
85379,Maricopa County,AZ,32.25806451612903,NA
85614,Pima County,AZ,NA,58.992805755395686
85634,Pima County,AZ,23.020527859237536,NA
85706,Pima County,AZ,NA,10.551558752997602
85730,Pima County,AZ,76.09970674486803,NA
85739,Pinal County,AZ,68.18181818181817,NA
86001,Coconino County,AZ,NA,48.44124700239808
86045,Coconino County,AZ,26.53958944281525,NA
86305,Yavapai County,AZ,67.00879765395894,NA
86403,Mohave County,AZ,76.83284457478005,NA
86442,Mohave County,AZ,NA,12.23021582733813
86505,Apache County,AZ,66.71554252199414,NA
71901,Garland County,AR,48.38709677419355,NA
71968,Garland County,AR,NA,96.88249400479616
72032,Faulkner County,AR,41.20234604105572,NA
72112,Jackson County,AR,75.0733137829912,NA
72150,Grant County,AR,NA,85.85131894484412
72223,Pulaski County,AR,94.28152492668622,NA
72701,Washington County,AR,66.42228739002933,NA
72714,Benton County,AR,93.10850439882698,NA
72901,Sebastian County,AR,55.278592375366564,NA
90011,Los Angeles County,CA,25.806451612903224,NA
90039,Los Angeles County,CA,98.82697947214076,NA
90044,Los Angeles County,CA,7.331378299120235,NA
90063,Los Angeles County,CA,52.34604105571847,NA
90254,Los Angeles County,CA,83.87096774193549,NA
90293,Los Angeles County,CA,91.20234604105572,NA
90620,Orange County,CA,NA,39.328537170263786
90630,Orange County,CA,49.120234604105576,NA
90631,Orange County,CA,NA,54.43645083932853
90640,Los Angeles County,CA,69.79472140762464,NA
90650,Los Angeles County,CA,18.7683284457478,NA
90703,Los Angeles County,CA,64.22287390029325,NA
90740,Orange County,CA,71.5542521994135,NA
90744,Los Angeles County,CA,61.29032258064516,NA
90802,Los Angeles County,CA,51.90615835777126,NA
90805,Los Angeles County,CA,18.328445747800586,NA
90807,Los Angeles County,CA,52.49266862170088,NA
90815,Los Angeles County,CA,79.03225806451613,NA
91320,Ventura County,CA,67.59530791788856,NA
91324,Los Angeles County,CA,NA,92.08633093525181
91342,Los Angeles County,CA,21.114369501466275,NA
91607,Los Angeles County,CA,NA,78.41726618705036
91732,Los Angeles County,CA,42.81524926686217,NA
91761,San Bernardino County,CA,NA,34.53237410071942
91765,Los Angeles County,CA,NA,58.27338129496403
91914,San Diego County,CA,96.62756598240469,NA
92054,San Diego County,CA,44.868035190615835,NA
92078,San Diego County,CA,55.13196480938416,NA
92104,San Diego County,CA,29.61876832844575,NA
92123,San Diego County,CA,NA,76.97841726618705
92236,Riverside County,CA,75.2199413489736,NA
92325,San Bernardino County,CA,NA,86.09112709832134
92336,San Bernardino County,CA,NA,17.26618705035971
92592,Riverside County,CA,30.058651026392962,NA
92596,Riverside County,CA,74.633431085044,NA
92612,Orange County,CA,73.60703812316716,NA
92646,Orange County,CA,27.712609970674485,NA
92647,Orange County,CA,NA,60.431654676258994
92649,Orange County,CA,57.33137829912024,NA
92672,Orange County,CA,69.50146627565982,NA
92703,Orange County,CA,NA,57.55395683453237
92705,Orange County,CA,73.75366568914956,NA
92807,Orange County,CA,NA,44.12470023980815
92808,Orange County,CA,78.59237536656892,NA
92821,Orange County,CA,65.10263929618768,NA
92833,Orange County,CA,NA,30.935251798561154
92840,Orange County,CA,52.05278592375366,NA
92867,Orange County,CA,62.316715542522,58.51318944844125
92870,Orange County,CA,38.70967741935484,NA
93010,Ventura County,CA,35.19061583577713,NA
93063,Ventura County,CA,36.65689149560117,NA
93257,Tulare County,CA,43.401759530791786,NA
93307,Kern County,CA,44.13489736070381,NA
93308,Kern County,CA,29.765395894428153,NA
93311,Kern County,CA,NA,93.76498800959233
93402,San Luis Obispo County,CA,88.26979472140762,NA
93446,San Luis Obispo County,CA,28.445747800586513,NA
93535,Los Angeles County,CA,NA,40.7673860911271
93550,Los Angeles County,CA,NA,47.961630695443645
93611,Fresno County,CA,NA,37.410071942446045
93702,Fresno County,CA,NA,35.97122302158273
93711,Fresno County,CA,69.94134897360705,NA
93720,Fresno County,CA,34.75073313782991,NA
93728,Fresno County,CA,77.85923753665689,NA
94010,San Mateo County,CA,NA,35.25179856115108
94015,San Mateo County,CA,45.45454545454545,NA
94028,San Mateo County,CA,NA,97.60191846522783
94109,San Francisco County,CA,30.205278592375368,NA
94123,San Francisco County,CA,85.77712609970675,NA
94124,San Francisco County,CA,26.24633431085044,NA
94533,Solano County,CA,24.486803519061585,NA
94546,Alameda County,CA,53.665689149560116,NA
94549,Contra Costa County,CA,81.23167155425219,NA
94583,Contra Costa County,CA,NA,67.38609112709833
94705,Alameda County,CA,94.86803519061584,NA
94706,Alameda County,CA,92.52199413489735,NA
94920,Marin County,CA,NA,83.93285371702638
95005,Santa Cruz County,CA,NA,98.8009592326139
95037,Santa Clara County,CA,58.79765395894429,NA
95062,Santa Cruz County,CA,74.34017595307918,NA
95136,Santa Clara County,CA,61.29032258064516,NA
95138,Santa Clara County,CA,NA,89.44844124700239
95327,Tuolumne County,CA,88.56304985337243,NA
95409,Sonoma County,CA,NA,50.83932853717026
95454,Mendocino County,CA,NA,100
95490,Mendocino County,CA,NA,54.91606714628298
95501,Humboldt County,CA,NA,36.69064748201439
95503,Humboldt County,CA,50,NA
95608,Sacramento County,CA,41.935483870967744,NA
95632,Sacramento County,CA,NA,75.0599520383693
95650,Placer County,CA,NA,81.5347721822542
95661,Placer County,CA,69.06158357771261,NA
95662,Sacramento County,CA,70.38123167155426,NA
95670,Sacramento County,CA,NA,33.573141486810556
95742,Sacramento County,CA,NA,94.7242206235012
95926,Butte County,CA,35.63049853372434,NA
95928,Butte County,CA,35.483870967741936,NA
95991,Sutter County,CA,30.791788856304986,NA
96002,Shasta County,CA,58.94428152492669,68.10551558752998
96003,Shasta County,CA,45.16129032258064,NA
96130,Lassen County,CA,75.80645161290323,79.85611510791367
80016,Arapahoe County,CO,24.04692082111437,NA
80027,Boulder County,CO,63.929618768328446,NA
80104,Douglas County,CO,59.09090909090909,NA
80111,Arapahoe County,CO,NA,67.14628297362111
80124,Douglas County,CO,67.74193548387096,NA
80138,Douglas County,CO,NA,68.82494004796163
80210,Denver County,CO,56.89149560117303,NA
80219,Denver County,CO,NA,22.062350119904075
80220,Denver County,CO,35.77712609970675,NA
80634,Weld County,CO,NA,2.158273381294964
80908,El Paso County,CO,84.4574780058651,NA
80918,El Paso County,CO,NA,37.170263788968825
81089,Huerfano County,CO,90.76246334310851,NA
81122,La Plata County,CO,NA,92.80575539568345
81201,Chaffee County,CO,NA,94.00479616306954
81416,Delta County,CO,74.48680351906158,NA
81507,Mesa County,CO,89.58944281524927,NA
81632,Eagle County,CO,97.0674486803519,NA
06001,Hartford County,CT,80.35190615835776,NA
06002,Hartford County,CT,78.4457478005865,NA
06013,Hartford County,CT,93.40175953079178,NA
06042,Hartford County,CT,NA,47.482014388489205
06074,Hartford County,CT,NA,57.07434052757794
06108,Hartford County,CT,31.671554252199414,NA
06226,Windham County,CT,17.44868035190616,NA
06255,Windham County,CT,76.97947214076247,NA
06277,Windham County,CT,82.69794721407625,NA
06475,Middlesex County,CT,NA,62.35011990407674
06519,New Haven County,CT,NA,45.80335731414868
06708,New Haven County,CT,23.75366568914956,NA
06790,Litchfield County,CT,6.158357771260997,NA
06825,Fairfield County,CT,82.84457478005865,NA
19703,New Castle County,DE,NA,90.88729016786571
19947,Sussex County,DE,46.33431085043988,NA
19953,Kent County,DE,NA,96.1630695443645
19968,Sussex County,DE,75.366568914956,NA
19973,Sussex County,DE,16.862170087976537,NA
32055,Columbia County,FL,42.52199413489736,NA
32060,Suwannee County,FL,NA,78.8968824940048
32063,Baker County,FL,71.8475073313783,NA
32082,St. Johns County,FL,59.82404692082112,NA
32086,St. Johns County,FL,NA,18.94484412470024
32092,St. Johns County,FL,NA,43.645083932853716
32164,Flagler County,FL,36.21700879765396,NA
32211,Duval County,FL,21.55425219941349,NA
32217,Duval County,FL,NA,78.17745803357315
32221,Duval County,FL,78.73900293255132,NA
32401,Bay County,FL,NA,28.776978417266186
32433,Walton County,FL,83.57771260997067,NA
32440,Jackson County,FL,90.32258064516128,NA
32541,Okaloosa County,FL,NA,41.726618705035975
32548,Okaloosa County,FL,66.71554252199414,NA
32561,Santa Rosa County,FL,89.00293255131965,NA
32583,Santa Rosa County,FL,NA,22.781774580335732
32641,Alachua County,FL,26.68621700879765,NA
32765,Seminole County,FL,82.25806451612904,NA
32773,Seminole County,FL,49.41348973607038,NA
32789,Orange County,FL,NA,77.21822541966426
32824,Orange County,FL,44.57478005865102,NA
32825,Orange County,FL,32.99120234604106,16.546762589928058
32829,Orange County,FL,NA,89.68824940047962
32903,Brevard County,FL,93.54838709677419,NA
32952,Brevard County,FL,NA,47.721822541966425
32958,Indian River County,FL,70.82111436950147,13.908872901678656
32960,Indian River County,FL,49.266862170087975,NA
33009,Broward County,FL,85.92375366568915,NA
33019,Broward County,FL,87.82991202346041,NA
33020,Broward County,FL,32.111436950146626,NA
33028,Broward County,FL,81.23167155425219,NA
33141,Miami-Dade County,FL,NA,71.46282973621103
33411,Palm Beach County,FL,40.029325513196476,NA
33431,Palm Beach County,FL,NA,84.17266187050359
33480,Palm Beach County,FL,NA,86.33093525179856
33565,Hillsborough County,FL,NA,73.86091127098321
33612,Hillsborough County,FL,12.609970674486803,NA
33617,Hillsborough County,FL,35.043988269794724,NA
33625,Hillsborough County,FL,62.023460410557185,NA
33702,Pinellas County,FL,53.95894428152492,NA
33707,Pinellas County,FL,63.489736070381234,NA
33812,Polk County,FL,78.00586510263929,NA
33872,Highlands County,FL,NA,43.4052757793765
33912,Lee County,FL,84.60410557184751,NA
33955,Charlotte County,FL,94.13489736070382,NA
33993,Lee County,FL,50.58651026392962,NA
34109,Collier County,FL,77.12609970674487,NA
34114,Collier County,FL,NA,38.1294964028777
34207,Manatee County,FL,NA,60.19184652278178
34237,Sarasota County,FL,60.26392961876833,NA
34293,Sarasota County,FL,NA,7.913669064748201
34465,Citrus County,FL,66.56891495601172,NA
34470,Marion County,FL,51.759530791788855,NA
34472,Marion County,FL,39.29618768328446,NA
34484,Sumter County,FL,97.65395894428153,NA
34655,Pasco County,FL,34.457478005865106,NA
34698,Pinellas County,FL,55.86510263929618,NA
30030,DeKalb County,GA,47.214076246334315,NA
30045,Gwinnett County,GA,60.117302052785924,NA
30114,Cherokee County,GA,37.5366568914956,NA
30135,Douglas County,GA,NA,48.6810551558753
30161,Floyd County,GA,19.941348973607038,NA
30188,Cherokee County,GA,23.020527859237536,NA
30223,Spalding County,GA,39.14956011730205,NA
30233,Butts County,GA,61.14369501466276,NA
30252,Henry County,GA,40.909090909090914,NA
30274,Clayton County,GA,41.78885630498534,NA
30310,Fulton County,GA,24.780058651026394,NA
30548,Jackson County,GA,NA,52.038369304556355
30601,Clarke County,GA,70.96774193548387,NA
30673,Wilkes County,GA,92.08211143695014,NA
30705,Murray County,GA,NA,43.884892086330936
30710,Whitfield County,GA,91.64222873900293,NA
30741,Walker County,GA,20.381231671554254,NA
30813,Columbia County,GA,67.15542521994135,NA
31082,Washington County,GA,NA,91.36690647482014
31204,Bibb County,GA,NA,28.05755395683453
31220,Bibb County,GA,81.08504398826979,NA
31313,Liberty County,GA,67.74193548387096,NA
31516,Pierce County,GA,70.67448680351906,NA
31907,Muscogee County,GA,NA,4.316546762589928
96701,Honolulu County,HI,35.33724340175953,72.66187050359713
96720,Hawaii County,HI,NA,24.940047961630697
96766,Kauai County,HI,NA,74.10071942446042
96789,Honolulu County,HI,NA,9.59232613908873
96792,Honolulu County,HI,NA,23.021582733812952
96816,Honolulu County,HI,33.137829912023456,NA
96826,Honolulu County,HI,NA,32.853717026378895
83204,Bannock County,ID,NA,64.74820143884892
83250,Bannock County,ID,NA,99.76019184652279
83530,Idaho County,ID,NA,82.9736211031175
83634,Ada County,ID,NA,90.40767386091127
83638,Valley County,ID,NA,94.24460431654677
83709,Ada County,ID,NA,52.757793764988016
83714,Ada County,ID,47.360703812316714,NA
83835,Kootenai County,ID,81.96480938416423,NA
83854,Kootenai County,ID,NA,22.062350119904075
83856,Bonner County,ID,NA,97.3621103117506
83858,Kootenai County,ID,NA,70.02398081534771
60002,Lake County,IL,63.489736070381234,NA
60068,Cook County,IL,NA,37.88968824940048
60090,Cook County,IL,NA,27.577937649880095
60107,Cook County,IL,NA,41.247002398081534
60126,DuPage County,IL,11.730205278592376,NA
60135,DeKalb County,IL,NA,95.44364508393285
60194,Cook County,IL,74.9266862170088,NA
60401,Will County,IL,NA,79.61630695443645
60422,Cook County,IL,83.28445747800586,NA
60431,Will County,IL,NA,45.563549160671464
60439,Cook County,IL,NA,17.985611510791365
60468,Will County,IL,NA,91.60671462829735
60491,Will County,IL,37.82991202346041,NA
60558,Cook County,IL,84.1642228739003,NA
60561,DuPage County,IL,NA,31.654676258992804
60610,Cook County,IL,44.72140762463343,NA
60614,Cook County,IL,23.313782991202345,NA
60623,Cook County,IL,NA,13.66906474820144
60629,Cook County,IL,6.451612903225806,NA
60632,Cook County,IL,NA,29.016786570743403
60634,Cook County,IL,12.023460410557185,NA
60639,Cook County,IL,10.850439882697946,NA
60644,Cook County,IL,8.944281524926687,NA
60647,Cook County,IL,8.504398826979472,NA
60954,Kankakee County,IL,78.2991202346041,NA
61073,Winnebago County,IL,68.32844574780059,NA
61102,Winnebago County,IL,60.85043988269795,NA
61107,Winnebago County,IL,NA,32.37410071942446
61364,LaSalle County,IL,58.504398826979475,NA
61704,McLean County,IL,40.17595307917888,NA
61853,Champaign County,IL,92.66862170087975,NA
62049,Montgomery County,IL,96.04105571847508,NA
62052,Jersey County,IL,NA,80.81534772182253
62095,Madison County,IL,82.40469208211144,NA
62226,St. Clair County,IL,NA,26.378896882494008
62535,Macon County,IL,98.38709677419355,NA
46107,Marion County,IN,NA,73.621103117506
46112,Hendricks County,IN,56.01173020527859,NA
46227,Marion County,IN,11.143695014662756,NA
46303,Lake County,IN,47.50733137829912,NA
46304,Porter County,IN,43.25513196480939,17.985611510791365
46307,Lake County,IN,NA,1.6786570743405276
46322,Lake County,IN,25.65982404692082,24.22062350119904
46350,LaPorte County,IN,NA,8.633093525179856
46368,Porter County,IN,2.4926686217008798,NA
46373,Lake County,IN,31.818181818181817,NA
46392,Jasper County,IN,NA,95.92326139088729
46410,Lake County,IN,7.184750733137831,NA
46540,Elkhart County,IN,89.29618768328446,NA
46601,St. Joseph County,IN,NA,95.68345323741008
46953,Grant County,IN,13.343108504398826,13.189448441247004
47150,Floyd County,IN,NA,9.352517985611511
47201,Bartholomew County,IN,NA,14.148681055155876
47203,Bartholomew County,IN,37.3900293255132,NA
47331,Fayette County,IN,15.689149560117302,NA
47348,Blackford County,IN,68.62170087976538,NA
47362,Henry County,IN,22.28739002932551,NA
47872,Parke County,IN,91.78885630498533,NA
47932,Fountain County,IN,91.0557184750733,72.90167865707434
50501,Webster County,IA,NA,38.84892086330935
50644,Buchanan County,IA,79.76539589442815,NA
51503,Pottawattamie County,IA,9.970674486803519,NA
52001,Dubuque County,IA,16.27565982404692,NA
52402,Linn County,IA,NA,25.41966426858513
52627,Lee County,IA,NA,46.52278177458034
52655,Des Moines County,IA,NA,82.01438848920863
52742,Clinton County,IA,86.36363636363636,NA
52803,Scott County,IA,37.096774193548384,NA
52806,Scott County,IA,55.57184750733137,NA
66049,Douglas County,KS,NA,39.328537170263786
66749,Allen County,KS,91.93548387096774,NA
66901,Cloud County,KS,89.44281524926686,NA
67010,Butler County,KS,NA,88.2494004796163
67114,Harvey County,KS,79.32551319648094,NA
67801,Ford County,KS,60.997067448680355,NA
67871,Scott County,KS,NA,70.74340527577938
67880,Grant County,KS,97.94721407624634,NA
67901,Seward County,KS,76.24633431085044,NA
40165,Bullitt County,KY,NA,17.026378896882495
40175,Hardin County,KY,60.55718475073314,NA
40206,Jefferson County,KY,70.52785923753666,NA
40216,Jefferson County,KY,10.410557184750733,NA
40228,Jefferson County,KY,69.20821114369502,NA
40299,Jefferson County,KY,36.36363636363637,NA
40360,Bath County,KY,65.8357771260997,NA
40391,Clark County,KY,9.530791788856305,NA
40515,Fayette County,KY,50.733137829912025,NA
40744,Laurel County,KY,31.085043988269796,NA
41101,Boyd County,KY,18.181818181818183,NA
42276,Logan County,KY,57.62463343108505,NA
42303,Daviess County,KY,NA,19.18465227817746
42348,Hancock County,KY,93.98826979472142,NA
70065,Jefferson Parish,LA,3.9589442815249267,NA
70068,St. John the Baptist Parish,LA,NA,55.39568345323741
70094,Jefferson Parish,LA,4.69208211143695,16.06714628297362
70123,Jefferson Parish,LA,19.501466275659823,NA
70127,Orleans Parish,LA,NA,30.455635491606714
70301,Lafourche Parish,LA,NA,10.79136690647482
70380,St. Mary Parish,LA,22.87390029325513,NA
70394,Lafourche Parish,LA,20.674486803519063,NA
70420,St. Tammany Parish,LA,73.31378299120234,NA
70501,Lafayette Parish,LA,1.906158357771261,NA
70554,Evangeline Parish,LA,NA,81.29496402877699
70663,Calcasieu Parish,LA,9.3841642228739,21.103117505995204
70726,Livingston Parish,LA,NA,10.311750599520384
70737,Ascension Parish,LA,NA,54.67625899280576
70805,East Baton Rouge Parish,LA,2.785923753665689,NA
71105,Caddo Parish,LA,40.615835777126094,NA
71203,Ouachita Parish,LA,9.824046920821115,NA
71220,Morehouse Parish,LA,19.06158357771261,NA
71232,Richland Parish,LA,49.70674486803519,NA
71301,Rapides Parish,LA,NA,35.011990407673856
03901,York County,ME,NA,84.41247002398082
04027,York County,ME,83.72434017595309,NA
04062,Cumberland County,ME,57.91788856304986,NA
04071,Cumberland County,ME,NA,95.20383693045564
04101,Cumberland County,ME,NA,24.700239808153476
04530,Sagadahoc County,ME,68.91495601173021,NA
04957,Somerset County,ME,76.53958944281524,NA
04976,Somerset County,ME,17.008797653958943,NA
20646,Charles County,MD,75.51319648093842,NA
20659,St. Mary's County,MD,NA,61.87050359712231
20743,Prince George's County,MD,36.950146627565985,NA
20785,Prince George's County,MD,NA,76.01918465227818
20852,Montgomery County,MD,NA,87.29016786570743
20853,Montgomery County,MD,NA,73.38129496402878
21084,Harford County,MD,NA,93.5251798561151
21093,Baltimore County,MD,NA,25.899280575539567
21117,Baltimore County,MD,NA,25.179856115107913
21222,Baltimore County,MD,25.073313782991203,NA
21224,Baltimore city,MD,17.155425219941346,NA
21401,Anne Arundel County,MD,27.27272727272727,NA
21727,Frederick County,MD,98.68035190615836,NA
21771,Frederick County,MD,65.98240469208211,NA
21801,Wicomico County,MD,65.6891495601173,NA
21811,Worcester County,MD,59.2375366568915,NA
21830,Wicomico County,MD,99.41348973607037,NA
01118,Hampden County,MA,28.885630498533725,NA
01230,Berkshire County,MA,NA,53.47721822541966
01440,Worcester County,MA,13.48973607038123,NA
01605,Worcester County,MA,0.8797653958944283,NA
01609,Worcester County,MA,NA,6.71462829736211
01701,Middlesex County,MA,NA,8.393285371702639
01721,Middlesex County,MA,94.57478005865103,NA
01748,Middlesex County,MA,NA,41.726618705035975
01803,Middlesex County,MA,NA,5.995203836930456
01824,Middlesex County,MA,NA,7.673860911270983
01826,Middlesex County,MA,22.58064516129032,NA
01832,Essex County,MA,19.35483870967742,NA
01887,Middlesex County,MA,6.744868035190615,NA
01890,Middlesex County,MA,45.894428152492665,NA
01915,Essex County,MA,1.466275659824047,NA
01949,Essex County,MA,48.68035190615836,NA
01970,Essex County,MA,0.5865102639296188,NA
02026,Norfolk County,MA,NA,16.30695443645084
02035,Norfolk County,MA,34.16422287390029,NA
02048,Bristol County,MA,53.81231671554252,NA
02050,Plymouth County,MA,20.967741935483872,23.501199040767386
02116,Suffolk County,MA,16.129032258064516,3.8369304556354913
02129,Suffolk County,MA,NA,26.618705035971225
02130,Suffolk County,MA,NA,1.6786570743405276
02148,Middlesex County,MA,0.2932551319648094,NA
02150,Suffolk County,MA,NA,0.7194244604316548
02155,Middlesex County,MA,NA,0
02176,Middlesex County,MA,7.9178885630498534,NA
02180,Middlesex County,MA,13.929618768328444,NA
02188,Norfolk County,MA,53.2258064516129,NA
02453,Middlesex County,MA,10.263929618768328,NA
02481,Norfolk County,MA,NA,92.56594724220624
02554,Nantucket County,MA,34.89736070381232,56.35491606714629
02744,Bristol County,MA,12.463343108504398,NA
02764,Bristol County,MA,98.24046920821115,NA
02780,Bristol County,MA,3.225806451612903,NA
48015,Macomb County,MI,NA,57.31414868105516
48044,Macomb County,MI,32.84457478005865,NA
48082,Macomb County,MI,NA,38.60911270983213
48094,Macomb County,MI,NA,52.51798561151079
48103,Washtenaw County,MI,15.542521994134898,NA
48108,Washtenaw County,MI,39.589442815249264,NA
48154,Wayne County,MI,25.513196480938415,8.872901678657074
48178,Oakland County,MI,NA,48.201438848920866
48185,Wayne County,MI,5.571847507331378,NA
48198,Washtenaw County,MI,2.1994134897360706,NA
48208,Wayne County,MI,NA,79.13669064748201
48225,Wayne County,MI,NA,68.5851318944844
48234,Wayne County,MI,8.651026392961878,NA
48309,Oakland County,MI,NA,26.139088729016784
48312,Macomb County,MI,26.392961876832842,NA
48336,Oakland County,MI,NA,44.60431654676259
48340,Oakland County,MI,93.69501466275659,NA
48383,Oakland County,MI,71.99413489736071,NA
48430,Genesee County,MI,60.70381231671554,NA
48439,Genesee County,MI,14.222873900293257,NA
48509,Genesee County,MI,79.91202346041055,NA
48603,Saginaw County,MI,NA,11.031175059952037
48640,Midland County,MI,11.436950146627565,NA
48642,Midland County,MI,NA,9.112709832134293
48838,Montcalm County,MI,NA,30.455635491606714
48843,Livingston County,MI,13.78299120234604,NA
48883,Isabella County,MI,69.64809384164224,NA
48884,Montcalm County,MI,96.9208211143695,NA
48892,Ingham County,MI,92.37536656891496,NA
48906,Ingham County,MI,42.961876832844574,NA
49085,Berrien County,MI,57.18475073313783,NA
49107,Berrien County,MI,NA,77.93764988009593
49329,Montcalm County,MI,59.970674486803524,NA
49331,Kent County,MI,51.46627565982405,NA
49464,Ottawa County,MI,52.639296187683286,NA
49505,Kent County,MI,24.926686217008797,NA
49508,Kent County,MI,5.718475073313782,NA
49684,Grand Traverse County,MI,58.35777126099707,NA
49707,Alpena County,MI,95.89442815249268,NA
49783,Chippewa County,MI,21.26099706744868,NA
49849,Marquette County,MI,78.1524926686217,NA
55024,Dakota County,MN,NA,86.810551558753
55041,Wabasha County,MN,96.33431085043989,NA
55057,Rice County,MN,94.42815249266863,NA
55060,Steele County,MN,71.7008797653959,NA
55066,Goodhue County,MN,47.06744868035191,NA
55076,Dakota County,MN,63.19648093841642,NA
55102,Ramsey County,MN,31.085043988269796,NA
55304,Anoka County,MN,42.08211143695015,NA
55305,Hennepin County,MN,78.88563049853371,NA
55313,Wright County,MN,NA,44.84412470023981
55350,McLeod County,MN,NA,31.17505995203837
55434,Anoka County,MN,NA,63.78896882494005
55734,St. Louis County,MN,NA,75.53956834532374
55746,St. Louis County,MN,26.099706744868033,NA
55811,St. Louis County,MN,31.964809384164223,NA
55912,Mower County,MN,6.89149560117302,NA
55944,Dodge County,MN,NA,96.40287769784173
56307,Stearns County,MN,NA,99.04076738609112
56362,Stearns County,MN,NA,91.84652278177458
56511,Becker County,MN,99.70674486803519,NA
56573,Otter Tail County,MN,NA,74.34052757793765
56671,Beltrami County,MN,92.96187683284457,NA
38732,Bolivar County,MS,39.73607038123167,NA
38901,Grenada County,MS,NA,69.54436450839329
39073,Rankin County,MS,65.24926686217009,NA
39204,Hinds County,MS,57.91788856304986,NA
39212,Hinds County,MS,22.14076246334311,NA
39301,Lauderdale County,MS,19.64809384164223,NA
39428,Covington County,MS,NA,90.16786570743405
39773,Clay County,MS,NA,70.50359712230215
63017,St. Louis County,MO,NA,13.42925659472422
63052,Jefferson County,MO,NA,62.589928057553955
63074,St. Louis County,MO,64.36950146627566,NA
63084,Franklin County,MO,55.278592375366564,NA
63090,Franklin County,MO,77.12609970674487,NA
63116,St. Louis city,MO,36.510263929618766,NA
63129,St. Louis County,MO,46.9208211143695,NA
63136,St. Louis County,MO,NA,11.750599520383693
63141,St. Louis County,MO,NA,72.42206235011992
63366,St. Charles County,MO,NA,5.755395683453238
63367,St. Charles County,MO,NA,34.2925659472422
63376,St. Charles County,MO,11.58357771260997,NA
63385,St. Charles County,MO,NA,14.388489208633093
63552,Macon County,MO,NA,85.37170263788968
63857,Dunklin County,MO,74.7800586510264,NA
64015,Jackson County,MO,14.516129032258066,NA
64016,Jackson County,MO,86.80351906158357,NA
64019,Johnson County,MO,99.70674486803519,NA
64030,Jackson County,MO,18.621700879765395,NA
64052,Jackson County,MO,11.87683284457478,NA
64055,Jackson County,MO,8.064516129032258,NA
64056,Jackson County,MO,NA,57.793764988009585
64079,Platte County,MO,59.384164222873906,NA
64106,Jackson County,MO,NA,64.26858513189448
64118,Clay County,MO,5.131964809384164,NA
64132,Jackson County,MO,15.835777126099707,NA
64134,Jackson County,MO,14.369501466275661,NA
64155,Clay County,MO,57.77126099706745,NA
64156,Clay County,MO,62.6099706744868,NA
64424,Harrison County,MO,NA,83.45323741007195
64506,Buchanan County,MO,NA,8.15347721822542
64628,Linn County,MO,86.07038123167156,NA
65026,Miller County,MO,70.08797653958945,NA
65340,Saline County,MO,NA,64.5083932853717
65459,Pulaski County,MO,NA,88.96882494004797
65706,Webster County,MO,81.81818181818183,NA
59102,Yellowstone County,MT,45.30791788856305,NA
59501,Hill County,MT,NA,88.48920863309353
59808,Missoula County,MT,99.26686217008798,NA
59833,Ravalli County,MT,NA,84.65227817745803
59870,Ravalli County,MT,NA,80.3357314148681
68022,Douglas County,NE,NA,82.73381294964028
68025,Dodge County,NE,NA,24.46043165467626
68506,Lancaster County,NE,NA,50.35971223021583
69001,Red Willow County,NE,NA,93.28537170263789
89101,Clark County,NV,29.91202346041056,NA
89139,Clark County,NV,76.68621700879766,NA
89145,Clark County,NV,NA,77.45803357314148
89408,Lyon County,NV,NA,39.08872901678657
89431,Washoe County,NV,21.994134897360702,NA
89433,Washoe County,NV,41.05571847507331,NA
89521,Washoe County,NV,51.02639296187683,NA
03031,Hillsborough County,NH,NA,69.06474820143885
03053,Rockingham County,NH,63.049853372434015,NA
03071,Hillsborough County,NH,NA,98.32134292565947
03246,Belknap County,NH,NA,33.093525179856115
07003,Essex County,NJ,10.557184750733137,NA
07033,Union County,NJ,92.81524926686217,NA
07075,Bergen County,NJ,90.17595307917888,NA
07112,Essex County,NJ,NA,94.96402877697841
07203,Union County,NJ,26.97947214076246,NA
07302,Hudson County,NJ,91.49560117302052,NA
07306,Hudson County,NJ,87.3900293255132,NA
07456,Passaic County,NJ,88.41642228739003,NA
07502,Passaic County,NJ,100,NA
07522,Passaic County,NJ,88.85630498533725,NA
07630,Bergen County,NJ,NA,99.52038369304557
07755,Monmouth County,NJ,91.20234604105572,NA
07758,Monmouth County,NJ,99.12023460410558,NA
07823,Warren County,NJ,NA,82.9736211031175
07945,Morris County,NJ,92.08211143695014,NA
08021,Camden County,NJ,0,37.64988009592326
08051,Gloucester County,NJ,NA,93.04556354916068
08053,Burlington County,NJ,93.25513196480938,NA
08086,Gloucester County,NJ,NA,87.05035971223022
08203,Atlantic County,NJ,86.51026392961877,NA
08204,Cape May County,NJ,NA,21.58273381294964
08210,Cape May County,NJ,39.44281524926686,NA
08234,Atlantic County,NJ,3.812316715542522,15.347721822541965
08527,Ocean County,NJ,10.117302052785924,NA
08690,Mercer County,NJ,43.6950146627566,NA
08736,Monmouth County,NJ,NA,85.13189448441247
87102,Bernalillo County,NM,22.434017595307918,NA
87112,Bernalillo County,NM,14.95601173020528,NA
87301,McKinley County,NM,27.56598240469208,62.829736211031175
87410,San Juan County,NM,NA,71.94244604316546
87417,San Juan County,NM,95.01466275659824,NA
87544,Los Alamos County,NM,85.04398826979472,NA
88240,Lea County,NM,NA,18.705035971223023
10003,New York County,NY,NA,42.44604316546763
10016,New York County,NY,37.683284457478,NA
10027,New York County,NY,90.4692082111437,NA
10029,New York County,NY,0.1466275659824047,NA
10031,New York County,NY,33.28445747800586,NA
10312,Richmond County,NY,44.28152492668622,NA
10453,Bronx County,NY,NA,0.4796163069544364
10455,Bronx County,NY,21.55425219941349,NA
10457,Bronx County,NY,NA,0.2398081534772182
10459,Bronx County,NY,4.398826979472141,NA
10460,Bronx County,NY,NA,1.1990407673860912
10462,Bronx County,NY,NA,5.0359712230215825
10977,Rockland County,NY,NA,61.15107913669065
10990,Orange County,NY,NA,41.007194244604314
11235,Kings County,NY,NA,15.827338129496402
11365,Queens County,NY,50.43988269794721,NA
11373,Queens County,NY,14.809384164222875,NA
11385,Queens County,NY,10.703812316715542,NA
11418,Queens County,NY,NA,49.40047961630695
11530,Nassau County,NY,NA,83.69304556354916
11692,Queens County,NY,51.17302052785924,NA
11725,Suffolk County,NY,NA,69.7841726618705
12072,Montgomery County,NY,98.53372434017595,NA
12134,Fulton County,NY,NA,89.92805755395683
12180,Rensselaer County,NY,1.7595307917888565,NA
12304,Schenectady County,NY,31.524926686217007,NA
12801,Warren County,NY,NA,64.98800959232614
12803,Saratoga County,NY,70.23460410557185,NA
12831,Saratoga County,NY,NA,52.27817745803357
12910,Clinton County,NY,99.56011730205279,NA
12944,Essex County,NY,NA,84.89208633093526
12953,Franklin County,NY,NA,19.424460431654676
12962,Clinton County,NY,65.39589442815249,NA
13036,Oswego County,NY,83.13782991202346,NA
13039,Onondaga County,NY,45.74780058651026,NA
13045,Cortland County,NY,3.519061583577713,11.270983213429256
13152,Onondaga County,NY,NA,82.49400479616307
13165,Seneca County,NY,28.445747800586513,NA
13634,Jefferson County,NY,96.18768328445748,NA
13662,St. Lawrence County,NY,8.357771260997067,NA
13778,Chenango County,NY,65.39589442815249,NA
13820,Otsego County,NY,11.29032258064516,35.73141486810552
13825,Otsego County,NY,83.43108504398828,NA
13838,Delaware County,NY,87.68328445747801,NA
13850,Broome County,NY,16.715542521994134,NA
13865,Broome County,NY,48.82697947214076,NA
14043,Erie County,NY,33.43108504398827,NA
14051,Erie County,NY,42.375366568914956,NA
14054,Genesee County,NY,98.09384164222874,NA
14103,Orleans County,NY,NA,51.55875299760192
14150,Erie County,NY,5.865102639296188,NA
14215,Erie County,NY,1.3196480938416422,NA
14218,Erie County,NY,19.794721407624632,NA
14220,Erie County,NY,NA,25.65947242206235
14221,Erie County,NY,12.903225806451612,NA
14304,Niagara County,NY,4.105571847507331,NA
14305,Niagara County,NY,5.425219941348973,NA
14424,Ontario County,NY,2.346041055718475,NA
14428,Monroe County,NY,NA,58.033573141486805
14450,Monroe County,NY,2.6392961876832843,NA
14456,Ontario County,NY,NA,6.235011990407674
14464,Monroe County,NY,52.93255131964809,NA
14469,Ontario County,NY,74.04692082111437,NA
14470,Orleans County,NY,47.65395894428153,NA
14471,Ontario County,NY,95.30791788856305,NA
14502,Wayne County,NY,29.03225806451613,NA
14504,Ontario County,NY,89.88269794721407,NA
14505,Wayne County,NY,64.80938416422288,NA
14513,Wayne County,NY,4.838709677419355,4.07673860911271
14526,Monroe County,NY,15.835777126099707,NA
14534,Monroe County,NY,6.598240469208211,2.3980815347721824
14551,Wayne County,NY,49.56011730205279,70.26378896882494
14559,Monroe County,NY,NA,20.38369304556355
14580,Monroe County,NY,0.43988269794721413,NA
14590,Wayne County,NY,46.18768328445748,NA
14610,Monroe County,NY,30.93841642228739,NA
14611,Monroe County,NY,30.35190615835777,NA
14612,Monroe County,NY,NA,1.4388489208633095
14616,Monroe County,NY,3.0791788856304985,NA
14620,Monroe County,NY,28.299120234604107,NA
14706,Cattaraugus County,NY,59.530791788856305,NA
14733,Chautauqua County,NY,82.11143695014663,NA
14760,Cattaraugus County,NY,NA,14.628297362110313
14812,Schuyler County,NY,85.19061583577712,NA
14830,Steuben County,NY,25.219941348973606,NA
14850,Tompkins County,NY,4.545454545454546,NA
14904,Chemung County,NY,29.178885630498534,NA
27052,Stokes County,NC,68.47507331378299,NA
27278,Orange County,NC,NA,14.86810551558753
27292,Davidson County,NC,NA,0.9592326139088728
27302,Alamance County,NC,31.378299120234605,NA
27501,Harnett County,NC,53.0791788856305,NA
27502,Wake County,NC,63.78299120234604,NA
27504,Johnston County,NC,64.95601173020528,NA
27610,Wake County,NC,NA,7.1942446043165464
27910,Hertford County,NC,NA,55.15587529976019
28144,Rowan County,NC,35.77712609970675,NA
28146,Rowan County,NC,33.577712609970675,NA
28216,Mecklenburg County,NC,36.80351906158358,NA
28458,Duplin County,NC,NA,85.61151079136691
28463,Columbus County,NC,89.73607038123167,NA
28465,Brunswick County,NC,88.70967741935483,NA
28504,Lenoir County,NC,NA,65.46762589928058
28530,Pitt County,NC,87.5366568914956,NA
28634,Iredell County,NC,95.45454545454545,NA
28659,Wilkes County,NC,21.407624633431084,NA
28752,McDowell County,NC,16.568914956011728,NA
28759,Henderson County,NC,NA,70.9832134292566
28787,Buncombe County,NC,NA,74.58033573141488
58104,Cass County,ND,32.40469208211144,NA
58301,Ramsey County,ND,71.26099706744868,NA
58368,Pierce County,ND,NA,97.84172661870504
58554,Morton County,ND,38.12316715542522,NA
43050,Knox County,OH,7.624633431085044,NA
43055,Licking County,OH,NA,15.107913669064748
43065,Delaware County,OH,NA,27.81774580335731
43082,Delaware County,OH,NA,43.16546762589928
43110,Franklin County,OH,NA,11.990407673860911
43211,Franklin County,OH,12.316715542521994,NA
43302,Marion County,OH,NA,3.357314148681055
43326,Hardin County,OH,NA,45.08393285371702
43526,Defiance County,OH,NA,71.22302158273382
43567,Fulton County,OH,NA,41.247002398081534
43605,Lucas County,OH,2.0527859237536656,NA
43607,Lucas County,OH,6.3049853372434015,NA
43608,Lucas County,OH,9.237536656891496,NA
43615,Lucas County,OH,3.3724340175953076,5.275779376498801
43764,Perry County,OH,71.26099706744868,NA
43830,Muskingum County,OH,76.39296187683284,NA
43910,Jefferson County,OH,96.48093841642229,NA
43920,Columbiana County,OH,NA,11.510791366906476
44001,Lorain County,OH,NA,4.556354916067146
44030,Ashtabula County,OH,23.46041055718475,NA
44053,Lorain County,OH,32.55131964809384,NA
44077,Lake County,OH,NA,3.5971223021582732
44102,Cuyahoga County,OH,NA,2.877697841726619
44107,Cuyahoga County,OH,1.6129032258064515,NA
44111,Cuyahoga County,OH,1.0263929618768328,NA
44119,Cuyahoga County,OH,NA,46.043165467625904
44126,Cuyahoga County,OH,79.17888563049853,NA
44134,Cuyahoga County,OH,8.797653958944283,NA
44143,Cuyahoga County,OH,NA,15.587529976019185
44236,Summit County,OH,54.98533724340176,NA
44256,Medina County,OH,3.6656891495601176,NA
44270,Wayne County,OH,NA,81.77458033573141
44312,Summit County,OH,15.395894428152493,NA
44314,Summit County,OH,61.87683284457478,NA
44663,Tuscarawas County,OH,14.076246334310852,NA
44705,Stark County,OH,25.95307917888563,NA
44827,Crawford County,OH,80.49853372434018,98.56115107913669
44830,Seneca County,OH,NA,29.73621103117506
44839,Erie County,OH,57.03812316715543,42.20623501199041
44903,Richland County,OH,18.914956011730204,NA
45014,Butler County,OH,NA,19.664268585131893
45036,Warren County,OH,20.821114369501466,NA
45042,Butler County,OH,20.234604105571847,NA
45150,Clermont County,OH,38.26979472140762,NA
45169,Clinton County,OH,77.41935483870968,NA
45244,Hamilton County,OH,NA,47.24220623501199
45338,Preble County,OH,NA,92.32613908872902
45344,Clark County,OH,NA,51.07913669064749
45373,Miami County,OH,NA,46.28297362110312
45416,Montgomery County,OH,NA,88.72901678657075
45417,Montgomery County,OH,9.530791788856305,NA
45439,Montgomery County,OH,NA,74.82014388489209
45628,Ross County,OH,84.01759530791789,NA
45631,Gallia County,OH,12.17008797653959,NA
45661,Pike County,OH,48.09384164222874,NA
45701,Athens County,OH,NA,53.956834532374096
45750,Washington County,OH,1.1730205278592376,NA
45786,Washington County,OH,NA,99.28057553956835
45805,Allen County,OH,43.54838709677419,NA
73068,Cleveland County,OK,72.14076246334311,NA
73120,Oklahoma County,OK,43.10850439882698,NA
73130,Oklahoma County,OK,64.07624633431085,NA
73139,Oklahoma County,OK,NA,66.18705035971223
73401,Carter County,OK,14.66275659824047,12.470023980815348
74017,Rogers County,OK,NA,51.798561151079134
74063,Tulsa County,OK,NA,40.28776978417266
74331,Delaware County,OK,NA,76.2589928057554
74820,Pontotoc County,OK,NA,6.235011990407674
74960,Adair County,OK,27.859237536656888,42.68585131894484
97031,Hood River County,OR,NA,72.18225419664267
97058,Wasco County,OR,73.46041055718476,29.97601918465228
97080,Multnomah County,OR,NA,19.904076738609113
97132,Yamhill County,OR,NA,28.53717026378897
97213,Multnomah County,OR,NA,61.39088729016786
97223,Washington County,OR,NA,23.980815347721823
97233,Multnomah County,OR,NA,36.930455635491604
97321,Linn County,OR,29.32551319648094,NA
97471,Douglas County,OR,17.888563049853374,NA
97520,Jackson County,OR,81.52492668621701,NA
97702,Deschutes County,OR,45.60117302052786,NA
97914,Malheur County,OR,58.65102639296188,97.12230215827337
15009,Beaver County,PA,NA,40.04796163069545
15132,Allegheny County,PA,13.049853372434017,NA
15219,Allegheny County,PA,NA,52.99760191846523
15221,Allegheny County,PA,17.888563049853374,NA
15235,Allegheny County,PA,20.08797653958944,NA
15632,Westmoreland County,PA,89.14956011730204,NA
15650,Westmoreland County,PA,46.774193548387096,NA
15658,Westmoreland County,PA,77.56598240469208,NA
15668,Westmoreland County,PA,NA,63.06954436450839
15851,Jefferson County,PA,NA,60.91127098321343
15857,Elk County,PA,27.419354838709676,NA
16345,Warren County,PA,NA,98.08153477218225
16417,Erie County,PA,80.79178885630498,NA
16502,Erie County,PA,44.28152492668622,NA
16504,Erie County,PA,62.75659824046921,NA
16508,Erie County,PA,52.785923753665685,NA
16510,Erie County,PA,40.32258064516129,NA
17011,Cumberland County,PA,28.005865102639294,NA
17015,Cumberland County,PA,43.841642228739005,NA
17022,Lancaster County,PA,NA,87.76978417266187
17042,Lebanon County,PA,4.252199413489736,NA
17050,Cumberland County,PA,23.607038123167158,NA
17111,Dauphin County,PA,47.94721407624634,7.434052757793765
17241,Cumberland County,PA,77.71260997067448,NA
17331,York County,PA,7.038123167155426,NA
17403,York County,PA,2.932551319648094,NA
17406,York County,PA,37.096774193548384,NA
17408,York County,PA,42.66862170087977,NA
17543,Lancaster County,PA,25.366568914956012,NA
17552,Lancaster County,PA,73.02052785923753,NA
17701,Lycoming County,PA,NA,6.954436450839328
17745,Clinton County,PA,41.64222873900293,NA
17777,Northumberland County,PA,90.9090909090909,NA
17801,Northumberland County,PA,20.527859237536656,NA
18042,Northampton County,PA,5.278592375366569,5.515587529976019
18055,Northampton County,PA,41.348973607038126,55.875299760191844
18252,Schuylkill County,PA,57.91788856304986,NA
18431,Wayne County,PA,85.48387096774194,NA
18702,Luzerne County,PA,7.771260997067449,NA
18914,Bucks County,PA,62.023460410557185,NA
18940,Bucks County,PA,64.51612903225806,NA
18966,Bucks County,PA,NA,12.709832134292565
19040,Montgomery County,PA,NA,46.76258992805755
19067,Bucks County,PA,19.208211143695014,NA
19107,Philadelphia County,PA,46.48093841642228,NA
19116,Philadelphia County,PA,NA,49.88009592326139
19132,Philadelphia County,PA,28.152492668621704,NA
19146,Philadelphia County,PA,NA,64.02877697841727
19154,Philadelphia County,PA,NA,17.74580335731415
19343,Chester County,PA,96.7741935483871,NA
19352,Chester County,PA,87.09677419354838,NA
19355,Chester County,PA,42.22873900293255,NA
19363,Chester County,PA,NA,71.70263788968825
19464,Montgomery County,PA,4.9853372434017595,NA
02840,Newport County,RI,NA,67.86570743405275
02842,Newport County,RI,NA,55.63549160671462
02860,Providence County,RI,7.47800586510264,NA
02878,Newport County,RI,NA,56.594724220623505
29020,Kershaw County,SC,NA,35.25179856115108
29073,Lexington County,SC,22.727272727272727,NA
29123,Lexington County,SC,88.12316715542522,NA
29135,Calhoun County,SC,85.63049853372434,NA
29164,Aiken County,SC,97.50733137829913,NA
29301,Spartanburg County,SC,NA,39.80815347721823
29349,Spartanburg County,SC,26.832844574780058,NA
29353,Union County,SC,86.51026392961877,NA
29405,Charleston County,SC,29.472140762463344,NA
29466,Charleston County,SC,49.70674486803519,NA
29483,Dorchester County,SC,17.741935483870968,NA
29486,Berkeley County,SC,60.410557184750736,NA
29506,Florence County,SC,46.62756598240469,NA
29512,Marlboro County,SC,NA,66.66666666666666
29536,Dillon County,SC,55.718475073313776,NA
29575,Horry County,SC,NA,63.30935251798561
29588,Horry County,SC,38.41642228739003,NA
29625,Anderson County,SC,NA,26.85851318944844
29642,Pickens County,SC,34.16422287390029,NA
29706,Chester County,SC,NA,62.11031175059952
29829,Aiken County,SC,NA,78.65707434052757
29909,Beaufort County,SC,NA,80.57553956834532
57005,Minnehaha County,SD,NA,75.29976019184652
57105,Minnehaha County,SD,NA,12.949640287769784
57401,Brown County,SD,18.475073313782993,NA
57702,Pennington County,SD,NA,17.505995203836928
37027,Williamson County,TN,NA,22.54196642685851
37033,Hickman County,TN,87.97653958944281,NA
37037,Rutherford County,TN,95.74780058651027,NA
37167,Rutherford County,TN,28.739002932551323,NA
37172,Robertson County,TN,NA,32.13429256594724
37207,Davidson County,TN,13.636363636363635,NA
37355,Coffee County,TN,36.070381231671554,NA
37388,Coffee County,TN,33.724340175953074,NA
37405,Hamilton County,TN,75.65982404692082,NA
37803,Blount County,TN,67.74193548387096,NA
37871,Jefferson County,TN,84.89736070381232,NA
37918,Knox County,TN,14.95601173020528,NA
38242,Henry County,TN,48.240469208211145,NA
38478,Giles County,TN,NA,65.22781774580336
38583,White County,TN,27.126099706744867,NA
75006,Dallas County,TX,NA,27.33812949640288
75028,Denton County,TX,57.478005865102645,NA
75032,Rockwall County,TX,63.34310850439883,NA
75065,Denton County,TX,84.60410557184751,NA
75070,Collin County,TX,16.422287390029325,NA
75077,Denton County,TX,NA,50.59952038369304
75093,Collin County,TX,NA,32.61390887290168
75160,Kaufman County,TX,98.97360703812316,NA
75167,Ellis County,TX,80.64516129032258,NA
75211,Dallas County,TX,NA,21.822541966426858
75214,Dallas County,TX,45.01466275659824,NA
75227,Dallas County,TX,NA,35.97122302158273
75418,Fannin County,TX,66.27565982404691,NA
75455,Titus County,TX,54.10557184750733,NA
75758,Henderson County,TX,81.67155425219941,NA
75791,Smith County,TX,67.30205278592375,NA
75835,Houston County,TX,69.35483870967742,NA
76012,Tarrant County,TX,NA,56.83453237410072
76020,Tarrant County,TX,NA,67.62589928057554
76034,Tarrant County,TX,NA,65.70743405275779
76039,Tarrant County,TX,38.85630498533724,NA
76040,Tarrant County,TX,47.80058651026393,NA
76063,Tarrant County,TX,NA,47.00239808153477
76115,Tarrant County,TX,51.31964809384164,NA
76119,Tarrant County,TX,NA,9.832134292565947
76240,Cooke County,TX,40.76246334310851,NA
76244,Tarrant County,TX,NA,56.11510791366906
76365,Clay County,TX,NA,79.37649880095923
76504,Bell County,TX,37.976539589442815,NA
76528,Coryell County,TX,30.64516129032258,NA
76691,McLennan County,TX,NA,91.12709832134293
76692,Hill County,TX,97.21407624633432,NA
76707,McLennan County,TX,72.87390029325513,NA
76712,McLennan County,TX,NA,42.92565947242206
77022,Harris County,TX,56.598240469208214,NA
77056,Harris County,TX,NA,58.992805755395686
77073,Harris County,TX,54.54545454545454,NA
77079,Harris County,TX,NA,61.63069544364509
77339,Harris County,TX,NA,40.28776978417266
77378,Montgomery County,TX,79.61876832844574,NA
77407,Fort Bend County,TX,53.3724340175953,NA
77429,Harris County,TX,62.4633431085044,NA
77459,Fort Bend County,TX,24.34017595307918,NA
77461,Fort Bend County,TX,93.841642228739,NA
77494,Fort Bend County,TX,17.595307917888565,NA
77521,Harris County,TX,NA,31.414868105515588
77573,Galveston County,TX,10.997067448680351,4.796163069544365
77657,Hardin County,TX,NA,65.94724220623502
78227,Bexar County,TX,38.56304985337243,NA
78242,Bexar County,TX,48.97360703812317,NA
78259,Bexar County,TX,NA,86.57074340527578
78415,Nueces County,TX,NA,53.23741007194245
78613,Williamson County,TX,33.87096774193548,NA
78660,Travis County,TX,NA,33.81294964028777
78703,Travis County,TX,86.21700879765396,NA
78731,Travis County,TX,NA,89.20863309352518
78748,Travis County,TX,72.72727272727273,NA
79416,Lubbock County,TX,NA,59.71223021582733
79703,Midland County,TX,61.73020527859238,NA
84020,Salt Lake County,UT,NA,66.90647482014388
84049,Wasatch County,UT,97.80058651026393,NA
84067,Weber County,UT,NA,63.549160671462836
84070,Salt Lake County,UT,50.879765395894424,NA
84078,Uintah County,UT,17.302052785923756,NA
84093,Salt Lake County,UT,NA,80.0959232613909
84108,Salt Lake County,UT,94.72140762463343,NA
84115,Salt Lake County,UT,NA,34.77218225419664
84120,Salt Lake County,UT,8.211143695014663,NA
84121,Salt Lake County,UT,84.3108504398827,16.786570743405278
84124,Salt Lake County,UT,79.47214076246334,NA
84501,Carbon County,UT,NA,82.01438848920863
84721,Iron County,UT,68.76832844574781,NA
05478,Franklin County,VT,56.158357771260995,34.05275779376499
05641,Washington County,VT,NA,28.297362110311752
20111,Prince William County,VA,54.252199413489734,NA
20169,Prince William County,VA,80.05865102639295,NA
20170,Fairfax County,VA,66.12903225806451,NA
20191,Fairfax County,VA,90.6158357771261,NA
22015,Fairfax County,VA,53.3724340175953,NA
22030,Fairfax County,VA,NA,29.496402877697843
22033,Fairfax County,VA,62.75659824046921,NA
22150,Fairfax County,VA,54.692082111436946,NA
22304,Alexandria city,VA,46.04105571847507,NA
22309,Fairfax County,VA,NA,54.196642685851316
22312,Fairfax County,VA,NA,68.34532374100719
22657,Shenandoah County,VA,NA,73.14148681055156
22942,Louisa County,VA,80.93841642228739,NA
23231,Henrico County,VA,24.633431085043988,NA
23451,Virginia Beach city,VA,41.49560117302053,NA
23505,Norfolk city,VA,39.882697947214076,NA
23832,Chesterfield County,VA,NA,50.11990407673861
24055,Henry County,VA,NA,90.64748201438849
24060,Montgomery County,VA,NA,76.73860911270984
24153,Salem city,VA,NA,18.465227817745802
24531,Pittsylvania County,VA,95.60117302052787,NA
24550,Campbell County,VA,NA,88.00959232613909
24592,Halifax County,VA,30.498533724340177,NA
98031,King County,WA,74.19354838709677,NA
98038,King County,WA,NA,38.36930455635492
98040,King County,WA,NA,59.47242206235012
98052,King County,WA,NA,20.623501199040767
98058,King County,WA,32.697947214076244,NA
98107,King County,WA,71.11436950146629,NA
98125,King County,WA,NA,36.45083932853717
98366,Kitsap County,WA,59.67741935483871,29.256594724220626
98368,Jefferson County,WA,NA,23.26139088729017
98391,Pierce County,WA,15.249266862170089,NA
98404,Pierce County,WA,34.01759530791789,NA
98901,Yakima County,WA,56.158357771260995,NA
98902,Yakima County,WA,NA,23.741007194244602
99141,Stevens County,WA,90.02932551319648,NA
20002,District of Columbia,DC,NA,10.071942446043165
20011,District of Columbia,DC,9.090909090909092,NA
25304,Kanawha County,WV,NA,75.77937649880096
25309,Kanawha County,WV,87.2434017595308,NA
25403,Berkeley County,WV,73.90029325513197,NA
25404,Berkeley County,WV,40.469208211143695,NA
25414,Jefferson County,WV,64.66275659824046,NA
25705,Cabell County,WV,NA,20.14388489208633
26378,Lewis County,WV,97.36070381231671,NA
53005,Waukesha County,WI,NA,48.92086330935252
53012,Ozaukee County,WI,NA,51.3189448441247
53024,Ozaukee County,WI,NA,59.95203836930456
53066,Waukesha County,WI,73.16715542521995,NA
53092,Ozaukee County,WI,NA,44.36450839328538
53140,Kenosha County,WI,12.756598240469208,NA
53154,Milwaukee County,WI,56.451612903225815,NA
53188,Waukesha County,WI,23.900293255131967,NA
53189,Waukesha County,WI,NA,30.215827338129497
53214,Milwaukee County,WI,13.196480938416421,NA
53402,Racine County,WI,6.011730205278592,3.117505995203837
53403,Racine County,WI,34.457478005865106,NA
53511,Rock County,WI,0.7331378299120235,NA
53578,Sauk County,WI,NA,87.29016786570743
54201,Kewaunee County,WI,NA,94.48441247002398
54220,Manitowoc County,WI,NA,2.6378896882494005
54409,Langlade County,WI,39.002932551319645,NA
54451,Taylor County,WI,85.33724340175954,NA
54452,Lincoln County,WI,80.20527859237536,NA
54487,Lincoln County,WI,NA,45.32374100719424
54615,Jackson County,WI,72.43401759530792,NA
54656,Monroe County,WI,48.53372434017595,NA
54703,Eau Claire County,WI,21.8475073313783,NA
54729,Chippewa County,WI,NA,20.863309352517987
54902,Winnebago County,WI,54.252199413489734,NA
54915,Outagamie County,WI,NA,49.64028776978417
54956,Winnebago County,WI,NA,33.33333333333333
82604,Natrona County,WY,NA,77.6978417266187
82633,Converse County,WY,61.58357771260997,60.671462829736214
82801,Sheridan County,WY,NA,66.42685851318944
