ZipCode,county,state,Adult
35005,Jefferson County,AL,84.31372549019608
36867,Russell County,AL,74.50980392156863
36870,Lee County,AL,81.04575163398692
99712,Fairbanks North Star Borough,AK,82.6797385620915
85017,Maricopa County,AZ,37.58169934640523
85085,Maricopa County,AZ,70.91503267973856
85202,Maricopa County,AZ,24.836601307189543
85301,Maricopa County,AZ,28.431372549019606
85365,Yuma County,AZ,32.6797385620915
85757,Pima County,AZ,30.392156862745097
90250,Los Angeles County,CA,28.75816993464052
90602,Los Angeles County,CA,67.3202614379085
90806,Los Angeles County,CA,58.16993464052288
92106,San Diego County,CA,93.4640522875817
92113,San Diego County,CA,29.411764705882355
92126,San Diego County,CA,49.01960784313725
92130,San Diego County,CA,68.30065359477125
92311,San Bernardino County,CA,43.13725490196079
92801,Orange County,CA,39.869281045751634
92804,Orange County,CA,17.647058823529413
92867,Orange County,CA,62.745098039215684
93033,Ventura County,CA,15.359477124183007
93458,Santa Barbara County,CA,18.627450980392158
93536,Los Angeles County,CA,47.712418300653596
94010,San Mateo County,CA,53.92156862745098
94595,Contra Costa County,CA,92.48366013071896
95330,San Joaquin County,CA,82.35294117647058
95401,Sonoma County,CA,83.98692810457517
95476,Sonoma County,CA,76.47058823529412
95482,Mendocino County,CA,44.11764705882353
95928,Butte County,CA,40.19607843137255
80204,Denver County,CO,26.47058823529412
80234,Adams County,CO,66.01307189542483
80433,Jefferson County,CO,95.75163398692811
80601,Adams County,CO,38.88888888888889
80808,El Paso County,CO,90.84967320261438
81230,Gunnison County,CO,89.54248366013073
06074,Hartford County,CT,57.84313725490197
06110,Hartford County,CT,96.40522875816994
06114,Hartford County,CT,20.915032679738562
06513,New Haven County,CT,6.535947712418301
19938,Kent County,DE,69.93464052287581
32119,Volusia County,FL,78.43137254901961
32141,Volusia County,FL,75.81699346405229
32177,Putnam County,FL,49.34640522875817
32218,Duval County,FL,5.555555555555555
32244,Duval County,FL,8.49673202614379
32404,Bay County,FL,29.08496732026144
32780,Brevard County,FL,45.751633986928105
32958,Indian River County,FL,72.87581699346404
33014,Miami-Dade County,FL,70.26143790849673
33133,Miami-Dade County,FL,79.41176470588235
33186,Miami-Dade County,FL,53.59477124183007
33709,Pinellas County,FL,52.94117647058824
34475,Marion County,FL,67.64705882352942
30034,DeKalb County,GA,34.31372549019608
30046,Gwinnett County,GA,50.98039215686274
30075,Fulton County,GA,44.44444444444444
30217,Heard County,GA,71.56862745098039
30542,Hall County,GA,55.22875816993464
31405,Chatham County,GA,52.28758169934641
31907,Muscogee County,GA,37.908496732026144
96707,Honolulu County,HI,42.48366013071895
96782,Honolulu County,HI,43.4640522875817
83201,Bannock County,ID,57.51633986928104
60004,Cook County,IL,30.065359477124183
60048,Lake County,IL,54.57516339869281
60050,McHenry County,IL,44.771241830065364
60068,Cook County,IL,76.79738562091504
60106,DuPage County,IL,65.68627450980392
60440,Will County,IL,23.52941176470588
60445,Cook County,IL,58.16993464052288
60514,DuPage County,IL,90.19607843137256
60523,DuPage County,IL,93.79084967320262
60629,Cook County,IL,9.15032679738562
46176,Shelby County,IN,19.934640522875817
46201,Marion County,IN,22.54901960784314
46385,Porter County,IN,9.803921568627452
46815,Allen County,IN,38.23529411764706
47933,Montgomery County,IN,36.9281045751634
50501,Webster County,IA,29.73856209150327
51501,Pottawattamie County,IA,5.228758169934641
52246,Johnson County,IA,63.725490196078425
67501,Reno County,KS,72.22222222222221
40006,Trimble County,KY,91.17647058823529
40356,Jessamine County,KY,17.320261437908496
40503,Fayette County,KY,71.24183006535948
41006,Pendleton County,KY,89.86928104575163
41007,Campbell County,KY,98.36601307189542
41339,Breathitt County,KY,51.307189542483655
42459,Union County,KY,91.83006535947712
42633,Wayne County,KY,54.90196078431373
70001,Jefferson Parish,LA,94.77124183006535
70435,St. Tammany Parish,LA,24.509803921568626
70526,Acadia Parish,LA,61.43790849673203
70560,Iberia Parish,LA,4.248366013071895
70764,Iberville Parish,LA,40.849673202614376
71232,Richland Parish,LA,51.633986928104584
71351,Avoyelles Parish,LA,35.947712418300654
04756,Aroostook County,ME,86.60130718954248
20814,Montgomery County,MD,80.06535947712419
20906,Montgomery County,MD,55.88235294117647
21061,Anne Arundel County,MD,12.418300653594772
21144,Anne Arundel County,MD,60.45751633986928
21218,Baltimore city,MD,13.071895424836603
01105,Hampden County,MA,22.22222222222222
01201,Berkshire County,MA,0
01420,Worcester County,MA,0.32679738562091504
01545,Worcester County,MA,21.241830065359476
01570,Worcester County,MA,6.862745098039216
01835,Essex County,MA,81.69934640522875
01902,Essex County,MA,0.6535947712418301
01915,Essex County,MA,3.2679738562091507
02144,Middlesex County,MA,23.856209150326798
02145,Middlesex County,MA,7.8431372549019605
02301,Plymouth County,MA,1.6339869281045754
02302,Plymouth County,MA,2.6143790849673203
02324,Plymouth County,MA,14.37908496732026
02459,Middlesex County,MA,48.03921568627451
02465,Middlesex County,MA,56.209150326797385
02472,Middlesex County,MA,9.477124183006536
02474,Middlesex County,MA,16.666666666666664
02601,Barnstable County,MA,7.18954248366013
48082,Macomb County,MI,50
48122,Wayne County,MI,56.5359477124183
48127,Wayne County,MI,16.013071895424837
48135,Wayne County,MI,28.104575163398692
48141,Wayne County,MI,10.784313725490197
48329,Oakland County,MI,38.56209150326798
48601,Saginaw County,MI,3.9215686274509802
48603,Saginaw County,MI,15.686274509803921
48888,Montcalm County,MI,83.00653594771242
49001,Kalamazoo County,MI,25.816993464052292
49037,Calhoun County,MI,19.28104575163399
49201,Jackson County,MI,11.76470588235294
49456,Ottawa County,MI,48.366013071895424
49855,Marquette County,MI,18.954248366013072
55411,Hennepin County,MN,21.568627450980394
55446,Hennepin County,MN,96.73202614379085
56082,Nicollet County,MN,77.45098039215686
56156,Rock County,MN,97.05882352941177
56560,Clay County,MN,31.372549019607842
56716,Polk County,MN,35.62091503267974
38619,Panola County,MS,94.44444444444444
39507,Harrison County,MS,71.89542483660131
63011,St. Louis County,MO,77.12418300653596
64151,Platte County,MO,36.27450980392157
59221,Richland County,MT,99.34640522875817
59718,Gallatin County,MT,42.15686274509804
68017,Saunders County,NE,99.67320261437908
68046,Sarpy County,NE,91.50326797385621
68467,York County,NE,88.56209150326796
03034,Rockingham County,NH,97.38562091503267
03053,Rockingham County,NH,30.718954248366014
03570,Coos County,NH,75.16339869281046
07013,Passaic County,NJ,46.07843137254902
07055,Passaic County,NJ,41.830065359477125
07201,Union County,NJ,66.66666666666666
07305,Hudson County,NJ,1.3071895424836601
07501,Passaic County,NJ,3.594771241830065
07652,Bergen County,NJ,80.71895424836602
07726,Monmouth County,NJ,33.98692810457516
07757,Monmouth County,NJ,96.07843137254902
08034,Camden County,NJ,41.17647058823529
08886,Warren County,NJ,84.640522875817
87004,Sandoval County,NM,77.77777777777779
88201,Chaves County,NM,41.50326797385621
10030,New York County,NY,27.77777777777778
10302,Richmond County,NY,78.75816993464052
10977,Rockland County,NY,36.60130718954248
11378,Queens County,NY,66.99346405228758
11743,Suffolk County,NY,78.10457516339869
11951,Suffolk County,NY,72.54901960784314
12047,Albany County,NY,32.35294117647059
12401,Ulster County,NY,25.163398692810457
12866,Saratoga County,NY,16.99346405228758
13069,Oswego County,NY,8.169934640522875
13104,Onondaga County,NY,54.248366013071895
13365,Herkimer County,NY,40.19607843137255
13760,Broome County,NY,1.9607843137254901
14020,Genesee County,NY,64.05228758169935
14092,Niagara County,NY,52.614379084967325
14150,Erie County,NY,8.823529411764707
14201,Erie County,NY,90.52287581699346
14215,Erie County,NY,2.941176470588235
14304,Niagara County,NY,7.516339869281046
14467,Monroe County,NY,60.78431372549019
14502,Wayne County,NY,84.9673202614379
14534,Monroe County,NY,50.326797385620914
14624,Monroe County,NY,4.57516339869281
14757,Chautauqua County,NY,93.13725490196079
14760,Cattaraugus County,NY,12.091503267973856
27011,Yadkin County,NC,85.62091503267973
27302,Alamance County,NC,33.33333333333333
27406,Guilford County,NC,6.209150326797386
27572,Person County,NC,87.25490196078431
27573,Person County,NC,48.69281045751634
28012,Gaston County,NC,65.359477124183
28081,Cabarrus County,NC,26.797385620915033
28150,Cleveland County,NC,27.124183006535947
28314,Cumberland County,NC,34.967320261437905
28320,Bladen County,NC,95.09803921568627
28625,Iredell County,NC,20.588235294117645
58523,Mercer County,ND,98.69281045751634
43512,Defiance County,OH,5.88235294117647
43614,Lucas County,OH,13.725490196078432
43616,Lucas County,OH,16.33986928104575
44054,Lorain County,OH,95.42483660130719
44089,Erie County,OH,73.8562091503268
44109,Cuyahoga County,OH,0.9803921568627451
44112,Cuyahoga County,OH,10.457516339869281
44149,Cuyahoga County,OH,47.385620915032675
44224,Summit County,OH,75.49019607843137
44301,Summit County,OH,34.64052287581699
44312,Summit County,OH,18.30065359477124
44406,Mahoning County,OH,57.18954248366013
45171,Brown County,OH,85.29411764705883
45255,Hamilton County,OH,69.28104575163398
45631,Gallia County,OH,13.398692810457517
45662,Scioto County,OH,4.901960784313726
45764,Athens County,OH,72.87581699346404
45875,Putnam County,OH,73.52941176470588
73115,Oklahoma County,OK,60.78431372549019
74464,Cherokee County,OK,11.437908496732026
97006,Washington County,OR,85.94771241830065
97008,Washington County,OR,59.80392156862745
97138,Clatsop County,OR,63.0718954248366
97304,Polk County,OR,59.47712418300654
97306,Marion County,OR,58.82352941176471
97496,Douglas County,OR,56.86274509803921
97862,Umatilla County,OR,64.70588235294117
15132,Allegheny County,PA,15.032679738562091
15717,Indiana County,PA,67.97385620915033
16150,Mercer County,PA,74.83660130718954
17022,Lancaster County,PA,20.26143790849673
17111,Dauphin County,PA,19.607843137254903
17801,Northumberland County,PA,24.183006535947712
19015,Delaware County,PA,43.790849673202615
19128,Philadelphia County,PA,23.202614379084967
19136,Philadelphia County,PA,14.705882352941178
19143,Philadelphia County,PA,2.287581699346405
19150,Philadelphia County,PA,37.254901960784316
19344,Chester County,PA,82.02614379084967
19610,Berks County,PA,68.62745098039215
29436,Berkeley County,SC,97.7124183006536
29440,Georgetown County,SC,49.673202614379086
57106,Minnehaha County,SD,27.450980392156865
57719,Pennington County,SD,88.23529411764706
37032,Robertson County,TN,99.01960784313727
37714,Campbell County,TN,98.0392156862745
37763,Roane County,TN,68.95424836601308
37874,Monroe County,TN,45.42483660130719
75038,Dallas County,TX,64.37908496732027
75149,Dallas County,TX,22.875816993464053
75460,Lamar County,TX,60.130718954248366
75503,Bowie County,TX,53.26797385620915
75904,Angelina County,TX,39.54248366013072
76017,Tarrant County,TX,35.294117647058826
76088,Parker County,TX,81.37254901960785
76110,Tarrant County,TX,47.05882352941176
76542,Bell County,TX,17.973856209150327
76638,McLennan County,TX,100
77346,Harris County,TX,26.143790849673206
77386,Montgomery County,TX,39.21568627450981
77503,Harris County,TX,79.73856209150327
77550,Galveston County,TX,74.18300653594771
77656,Hardin County,TX,83.33333333333334
77845,Brazos County,TX,12.745098039215685
78023,Bexar County,TX,89.2156862745098
78237,Bexar County,TX,33.66013071895425
78611,Burnet County,TX,80.3921568627451
79556,Nolan County,TX,59.150326797385624
84041,Davis County,UT,42.810457516339866
84066,Duchesne County,UT,63.39869281045751
84116,Salt Lake County,UT,32.02614379084967
84118,Salt Lake County,UT,21.895424836601308
84120,Salt Lake County,UT,10.130718954248366
84404,Weber County,UT,25.49019607843137
05452,Chittenden County,VT,62.091503267973856
05733,Rutland County,VT,92.81045751633987
22204,Arlington County,VA,31.699346405228756
22206,Arlington County,VA,83.66013071895425
22630,Warren County,VA,61.76470588235294
22980,Waynesboro city,VA,11.11111111111111
23111,Hanover County,VA,51.9607843137255
23430,Isle of Wight County,VA,87.58169934640523
23970,Mecklenburg County,VA,69.6078431372549
98109,King County,WA,62.41830065359477
98144,King County,WA,33.006535947712415
98177,King County,WA,76.1437908496732
98290,Snohomish County,WA,46.40522875816993
98501,Thurston County,WA,70.58823529411765
98577,Pacific County,WA,87.90849673202614
98841,Okanogan County,WA,92.15686274509804
98930,Yakima County,WA,86.9281045751634
98942,Yakima County,WA,79.08496732026144
98951,Yakima County,WA,88.88888888888889
20018,District of Columbia,DC,46.73202614379085
25143,Kanawha County,WV,65.0326797385621
26601,Braxton County,WV,94.11764705882352
53024,Ozaukee County,WI,66.33986928104575
53202,Milwaukee County,WI,50.65359477124183
53704,Dane County,WI,14.052287581699346
54401,Marathon County,WI,45.09803921568628
54467,Portage County,WI,86.27450980392157
54901,Winnebago County,WI,31.045751633986928
54902,Winnebago County,WI,55.55555555555556
