ZipCode,county,state,Youth
35242,Shelby County,AL,36.22047244094488
35603,Morgan County,AL,22.57217847769029
35672,Lawrence County,AL,83.72703412073491
36320,Houston County,AL,87.66404199475065
99901,Ketchikan Gateway Borough,AK,84.7769028871391
85017,Maricopa County,AZ,15.748031496062993
85029,Maricopa County,AZ,70.60367454068242
85213,Maricopa County,AZ,62.46719160104986
85326,Maricopa County,AZ,9.448818897637794
85615,Cochise County,AZ,92.6509186351706
85706,Pima County,AZ,9.711286089238845
85711,Pima County,AZ,23.097112860892388
72113,Pulaski County,AR,77.69028871391076
72205,Pulaski County,AR,95.53805774278216
72211,Pulaski County,AR,53.805774278215225
90064,Los Angeles County,CA,79.52755905511812
90255,Los Angeles County,CA,39.107611548556434
90715,Los Angeles County,CA,47.506561679790025
91101,Los Angeles County,CA,67.71653543307087
91344,Los Angeles County,CA,65.87926509186352
91355,Los Angeles County,CA,76.9028871391076
91604,Los Angeles County,CA,54.85564304461942
91744,Los Angeles County,CA,19.94750656167979
92069,San Diego County,CA,41.46981627296588
92113,San Diego County,CA,21.522309711286088
92126,San Diego County,CA,68.76640419947506
92211,Riverside County,CA,37.00787401574803
92231,Imperial County,CA,47.24409448818898
92251,Imperial County,CA,43.30708661417323
92359,San Bernardino County,CA,79.79002624671917
92532,Riverside County,CA,61.679790026246714
92656,Orange County,CA,28.608923884514436
92675,Orange County,CA,62.72965879265092
92780,Orange County,CA,46.45669291338583
92804,Orange County,CA,14.435695538057743
92886,Orange County,CA,31.496062992125985
93292,Tulare County,CA,43.044619422572175
93314,Kern County,CA,75.59055118110236
93612,Fresno County,CA,36.74540682414698
93720,Fresno County,CA,81.88976377952756
94112,San Francisco County,CA,29.133858267716533
94115,San Francisco County,CA,88.9763779527559
94587,Alameda County,CA,91.33858267716536
95051,Santa Clara County,CA,74.2782152230971
95354,Stanislaus County,CA,17.060367454068242
95670,Sacramento County,CA,86.08923884514435
80005,Jefferson County,CO,72.70341207349081
80120,Arapahoe County,CO,49.86876640419948
80212,Denver County,CO,79.26509186351706
80221,Adams County,CO,18.635170603674542
80238,Denver County,CO,87.4015748031496
80525,Larimer County,CO,15.223097112860891
80602,Adams County,CO,49.08136482939632
06052,Hartford County,CT,45.66929133858268
06078,Hartford County,CT,82.41469816272966
06106,Hartford County,CT,9.973753280839896
06820,Fairfield County,CT,61.417322834645674
32086,St. Johns County,FL,55.643044619422575
32095,St. Johns County,FL,69.81627296587926
32669,Alachua County,FL,95.8005249343832
32746,Seminole County,FL,98.16272965879264
32832,Orange County,FL,81.62729658792651
33154,Miami-Dade County,FL,94.48818897637796
33401,Palm Beach County,FL,65.35433070866141
33901,Lee County,FL,59.84251968503938
33935,Hendry County,FL,69.02887139107612
34116,Collier County,FL,45.40682414698163
34211,Manatee County,FL,89.501312335958
34266,DeSoto County,FL,52.75590551181102
34480,Marion County,FL,72.96587926509186
34608,Hernando County,FL,74.80314960629921
30039,Gwinnett County,GA,37.79527559055118
30040,Forsyth County,GA,10.498687664041995
30041,Forsyth County,GA,49.343832020997375
30067,Cobb County,GA,53.805774278215225
30092,Gwinnett County,GA,82.93963254593176
30106,Cobb County,GA,74.01574803149606
30114,Cherokee County,GA,34.38320209973753
30134,Douglas County,GA,25.984251968503933
30189,Cherokee County,GA,64.30446194225722
30217,Heard County,GA,84.7769028871391
30458,Bulloch County,GA,27.034120734908136
30622,Oconee County,GA,99.21259842519686
30809,Columbia County,GA,69.29133858267717
96817,Honolulu County,HI,18.89763779527559
83204,Bannock County,ID,37.53280839895013
83716,Ada County,ID,72.44094488188976
60025,Cook County,IL,22.83464566929134
60060,Lake County,IL,24.146981627296586
60089,Lake County,IL,39.89501312335958
60115,DeKalb County,IL,46.194225721784775
60156,McHenry County,IL,61.15485564304461
60185,DuPage County,IL,12.598425196850393
60190,DuPage County,IL,96.8503937007874
60610,Cook County,IL,89.501312335958
60611,Cook County,IL,83.72703412073491
60614,Cook County,IL,64.82939632545933
60632,Cook County,IL,23.88451443569554
60660,Cook County,IL,57.21784776902887
61010,Ogle County,IL,92.1259842519685
61111,Winnebago County,IL,75.06561679790026
61705,McLean County,IL,60.10498687664042
62025,Madison County,IL,78.21522309711287
62471,Fayette County,IL,67.71653543307087
46750,Huntington County,IN,14.173228346456693
46953,Grant County,IN,43.30708661417323
47130,Clark County,IN,13.648293963254593
47805,Vigo County,IN,38.320209973753286
47905,Tippecanoe County,IN,54.85564304461942
47978,Jasper County,IN,59.31758530183727
50211,Warren County,IA,86.08923884514435
50501,Webster County,IA,29.658792650918635
50613,Black Hawk County,IA,39.37007874015748
51106,Woodbury County,IA,88.71391076115486
52241,Johnson County,IA,66.92913385826772
52333,Johnson County,IA,90.02624671916011
52601,Des Moines County,IA,27.034120734908136
52641,Henry County,IA,66.14173228346458
66207,Johnson County,KS,76.37795275590551
67801,Ford County,KS,55.643044619422575
40215,Jefferson County,KY,4.724409448818897
40219,Jefferson County,KY,50.13123359580053
40220,Jefferson County,KY,33.85826771653544
42303,Daviess County,KY,20.73490813648294
70094,Jefferson Parish,LA,4.199475065616798
70127,Orleans Parish,LA,44.61942257217848
70726,Livingston Parish,LA,0.5249343832020997
71220,Morehouse Parish,LA,24.93438320209974
04040,Cumberland County,ME,97.11286089238845
04240,Androscoggin County,ME,4.986876640419948
04730,Aroostook County,ME,51.44356955380578
04967,Somerset County,ME,55.38057742782152
20716,Prince George's County,MD,92.38845144356955
20720,Prince George's County,MD,71.12860892388451
21030,Baltimore County,MD,51.44356955380578
21108,Anne Arundel County,MD,64.82939632545933
21921,Cecil County,MD,49.60629921259843
01040,Hampden County,MA,1.574803149606299
01104,Hampden County,MA,6.561679790026247
01420,Worcester County,MA,4.4619422572178475
01560,Worcester County,MA,98.9501312335958
01610,Worcester County,MA,12.335958005249344
01742,Middlesex County,MA,27.559055118110237
01760,Middlesex County,MA,42.51968503937008
01845,Essex County,MA,29.396325459317584
01854,Middlesex County,MA,3.937007874015748
01864,Middlesex County,MA,74.2782152230971
01904,Essex County,MA,38.05774278215223
02066,Plymouth County,MA,77.42782152230971
02136,Suffolk County,MA,7.611548556430446
02149,Middlesex County,MA,0
02151,Suffolk County,MA,0.7874015748031495
02382,Plymouth County,MA,99.47506561679789
02718,Bristol County,MA,94.750656167979
48025,Oakland County,MI,69.81627296587926
48134,Wayne County,MI,25.72178477690289
48161,Monroe County,MI,84.51443569553805
48212,Wayne County,MI,47.76902887139108
48329,Oakland County,MI,96.58792650918635
48334,Oakland County,MI,63.77952755905512
48377,Oakland County,MI,73.22834645669292
48503,Genesee County,MI,63.25459317585301
48532,Genesee County,MI,56.43044619422572
48867,Shiawassee County,MI,60.629921259842526
49444,Muskegon County,MI,44.09448818897638
49455,Oceana County,MI,63.51706036745407
49464,Ottawa County,MI,32.54593175853018
49506,Kent County,MI,38.582677165354326
49508,Kent County,MI,3.674540682414698
55104,Ramsey County,MN,28.871391076115486
55117,Ramsey County,MN,7.611548556430446
55363,Wright County,MN,99.73753280839895
55374,Hennepin County,MN,94.22572178477691
55378,Scott County,MN,30.708661417322837
55407,Hennepin County,MN,23.62204724409449
55446,Hennepin County,MN,35.69553805774278
55744,Itasca County,MN,34.38320209973753
39051,Leake County,MS,46.71916010498688
39175,Hinds County,MS,98.4251968503937
39525,Hancock County,MS,77.16535433070865
39730,Monroe County,MS,78.74015748031496
63052,Jefferson County,MO,19.42257217847769
63147,St. Louis city,MO,75.8530183727034
63304,St. Charles County,MO,67.71653543307087
63376,St. Charles County,MO,36.48293963254593
64116,Clay County,MO,44.881889763779526
64131,Jackson County,MO,20.209973753280842
64133,Jackson County,MO,1.0498687664041995
64151,Platte County,MO,20.73490813648294
64505,Buchanan County,MO,29.92125984251969
65706,Webster County,MO,63.77952755905512
65721,Christian County,MO,32.28346456692913
65803,Greene County,MO,6.036745406824147
59715,Gallatin County,MT,67.19160104986877
68105,Douglas County,NE,71.91601049868767
89119,Clark County,NV,58.00524934383202
03801,Rockingham County,NH,80.83989501312337
07438,Morris County,NJ,88.9763779527559
07932,Morris County,NJ,93.1758530183727
08034,Camden County,NJ,40.419947506561684
08401,Atlantic County,NJ,3.149606299212598
87120,Bernalillo County,NM,59.055118110236215
10021,New York County,NY,70.86614173228347
10456,Bronx County,NY,22.04724409448819
10468,Bronx County,NY,58.53018372703412
10472,Bronx County,NY,58.26771653543307
11213,Kings County,NY,22.30971128608924
11214,Kings County,NY,16.79790026246719
11236,Kings County,NY,8.923884514435695
11426,Queens County,NY,95.2755905511811
12211,Albany County,NY,83.46456692913385
12865,Washington County,NY,84.7769028871391
13208,Onondaga County,NY,53.54330708661418
13308,Oneida County,NY,81.10236220472441
13413,Oneida County,NY,51.96850393700787
13760,Broome County,NY,1.3123359580052494
14028,Niagara County,NY,97.63779527559055
14086,Erie County,NY,35.170603674540686
14211,Erie County,NY,41.20734908136483
14213,Erie County,NY,14.960629921259844
14224,Erie County,NY,52.493438320209975
14424,Ontario County,NY,11.023622047244094
14502,Wayne County,NY,24.409448818897637
14622,Monroe County,NY,30.446194225721783
14626,Monroe County,NY,7.349081364829396
14701,Chautauqua County,NY,5.2493438320209975
27282,Guilford County,NC,90.5511811023622
27284,Forsyth County,NC,33.33333333333333
27295,Davidson County,NC,26.246719160104988
27606,Wake County,NC,60.10498687664042
27610,Wake County,NC,2.6246719160104988
27704,Durham County,NC,69.5538057742782
27712,Durham County,NC,76.64041994750657
28078,Mecklenburg County,NC,67.19160104986877
28209,Mecklenburg County,NC,80.31496062992126
28366,Sampson County,NC,91.60104986876641
28540,Onslow County,NC,31.23359580052493
28562,Craven County,NC,70.34120734908137
28677,Iredell County,NC,24.671916010498688
28704,Buncombe County,NC,88.4514435695538
28732,Henderson County,NC,50.39370078740157
28787,Buncombe County,NC,56.95538057742782
58201,Grand Forks County,ND,26.77165354330709
58501,Burleigh County,ND,34.120734908136484
43130,Fairfield County,OH,1.837270341207349
43211,Franklin County,OH,19.160104986876643
43229,Franklin County,OH,2.099737532808399
43612,Lucas County,OH,2.8871391076115485
44017,Cuyahoga County,OH,62.72965879265092
44050,Lorain County,OH,76.11548556430446
44105,Cuyahoga County,OH,37.270341207349084
44111,Cuyahoga County,OH,11.548556430446194
44306,Summit County,OH,5.774278215223097
44720,Stark County,OH,50.91863517060368
44721,Stark County,OH,81.10236220472441
45005,Warren County,OH,12.073490813648293
45013,Butler County,OH,2.3622047244094486
45044,Butler County,OH,11.811023622047244
45130,Brown County,OH,90.02624671916011
45157,Clermont County,OH,73.75328083989501
45231,Hamilton County,OH,8.398950131233596
45251,Hamilton County,OH,48.818897637795274
45458,Montgomery County,OH,15.485564304461944
45693,Adams County,OH,48.031496062992126
45694,Scioto County,OH,33.07086614173229
73160,Cleveland County,OK,75.32808398950131
74070,Osage County,OK,53.805774278215225
97051,Columbia County,OR,78.21522309711287
97068,Clackamas County,OR,59.31758530183727
97402,Lane County,OR,56.16797900262467
97424,Lane County,OR,48.55643044619423
15090,Allegheny County,PA,42.25721784776903
15132,Allegheny County,PA,9.186351706036746
15235,Allegheny County,PA,84.25196850393701
17003,Lebanon County,PA,40.419947506561684
17044,Mifflin County,PA,20.47244094488189
17403,York County,PA,11.286089238845145
17566,Lancaster County,PA,93.7007874015748
17866,Northumberland County,PA,57.21784776902887
18102,Lehigh County,PA,0.26246719160104987
18426,Pike County,PA,82.41469816272966
18431,Wayne County,PA,64.30446194225722
18704,Luzerne County,PA,28.346456692913385
19081,Delaware County,PA,96.06299212598425
19111,Philadelphia County,PA,32.020997375328086
19119,Philadelphia County,PA,50.39370078740157
19335,Chester County,PA,45.66929133858268
02910,Providence County,RI,38.84514435695538
29483,Dorchester County,SC,6.299212598425196
29642,Pickens County,SC,52.23097112860893
29651,Greenville County,SC,66.66666666666666
37066,Sumner County,TN,12.860892388451445
37128,Rutherford County,TN,30.183727034120732
37149,Cannon County,TN,100
37645,Hawkins County,TN,91.0761154855643
37743,Greene County,TN,19.68503937007874
37814,Hamblen County,TN,35.170603674540686
37830,Anderson County,TN,23.35958005249344
37922,Knox County,TN,46.71916010498688
38125,Shelby County,TN,32.808398950131235
38127,Shelby County,TN,3.4120734908136483
38134,Shelby County,TN,30.708661417322837
38555,Cumberland County,TN,95.01312335958005
75054,Tarrant County,TX,79.79002624671917
75056,Denton County,TX,13.385826771653544
75150,Dallas County,TX,17.84776902887139
75232,Dallas County,TX,87.92650918635171
75233,Dallas County,TX,71.65354330708661
75701,Smith County,TX,82.1522309711286
75935,Shelby County,TX,73.49081364829397
76126,Tarrant County,TX,97.3753280839895
76513,Bell County,TX,25.196850393700785
76542,Bell County,TX,14.435695538057743
77011,Harris County,TX,86.61417322834646
77037,Harris County,TX,92.91338582677166
77067,Harris County,TX,34.38320209973753
77080,Harris County,TX,35.958005249343834
77089,Harris County,TX,21.784776902887142
77386,Montgomery County,TX,25.45931758530184
77459,Fort Bend County,TX,16.27296587926509
77494,Fort Bend County,TX,7.086614173228346
77573,Galveston County,TX,13.123359580052494
77859,Robertson County,TX,84.7769028871391
78218,Bexar County,TX,5.511811023622047
78264,Bexar County,TX,80.5774278215223
78413,Nueces County,TX,43.30708661417323
78542,Hidalgo County,TX,8.136482939632545
78610,Hays County,TX,87.13910761154857
78704,Travis County,TX,90.81364829396325
79316,Terry County,TX,66.14173228346458
79761,Ector County,TX,27.821522309711288
79935,El Paso County,TX,62.20472440944882
84062,Utah County,UT,72.17847769028872
84081,Salt Lake County,UT,13.910761154855644
84093,Salt Lake County,UT,48.29396325459317
84096,Salt Lake County,UT,8.661417322834646
84118,Salt Lake County,UT,18.11023622047244
84123,Salt Lake County,UT,28.083989501312335
20105,Loudoun County,VA,77.95275590551181
20109,Prince William County,VA,6.824146981627297
22203,Arlington County,VA,88.18897637795276
22312,Fairfax County,VA,60.892388451443566
22485,King George County,VA,40.94488188976378
22901,Albemarle County,VA,21.25984251968504
23185,James City County,VA,31.758530183727036
23229,Henrico County,VA,17.322834645669293
23434,Suffolk city,VA,17.585301837270343
23452,Virginia Beach city,VA,18.37270341207349
23602,Newport News city,VA,41.99475065616798
23803,Petersburg city,VA,16.535433070866144
23860,Hopewell city,VA,26.246719160104988
24013,Roanoke city,VA,61.679790026246714
24202,Washington County,VA,79.00262467191601
24550,Campbell County,VA,71.39107611548556
98008,King County,WA,41.732283464566926
98026,Snohomish County,WA,53.28083989501312
98030,King County,WA,33.33333333333333
98034,King County,WA,44.09448818897638
98037,Snohomish County,WA,93.7007874015748
98155,King County,WA,53.018372703412076
98225,Whatcom County,WA,86.61417322834646
98274,Skagit County,WA,40.15748031496063
98321,Pierce County,WA,97.9002624671916
98327,Pierce County,WA,68.50393700787401
98513,Thurston County,WA,57.21784776902887
99344,Adams County,WA,82.93963254593176
26426,Harrison County,WV,93.43832020997375
26501,Monongalia County,WV,45.14435695538058
53005,Waukesha County,WI,10.761154855643044
53066,Waukesha County,WI,16.010498687664043
53179,Kenosha County,WI,53.805774278215225
53188,Waukesha County,WI,56.69291338582677
53190,Walworth County,WI,85.8267716535433
53210,Milwaukee County,WI,10.236220472440944
53219,Milwaukee County,WI,58.79265091863517
53224,Milwaukee County,WI,42.78215223097113
53520,Green County,WI,98.68766404199475
53534,Rock County,WI,96.3254593175853
53593,Dane County,WI,39.37007874015748
53703,Dane County,WI,51.181102362204726
54935,Fond du Lac County,WI,65.61679790026247
82633,Converse County,WY,91.86351706036746
