ZipCode,county,state,Adult,Retirement
35150,Talladega County,AL,68.72852233676976,NA
35160,Talladega County,AL,15.463917525773196,NA
35173,Jefferson County,AL,NA,45.30386740331492
35205,Jefferson County,AL,NA,83.42541436464089
35210,Jefferson County,AL,NA,76.24309392265194
35243,Jefferson County,AL,NA,67.40331491712708
35405,Tuscaloosa County,AL,5.498281786941581,NA
35474,Hale County,AL,NA,92.26519337016575
35475,Tuscaloosa County,AL,49.48453608247423,88.95027624309392
35603,Morgan County,AL,16.83848797250859,NA
35611,Limestone County,AL,24.742268041237114,NA
35633,Lauderdale County,AL,NA,70.71823204419888
35806,Madison County,AL,74.91408934707904,NA
35810,Madison County,AL,29.896907216494846,NA
36301,Houston County,AL,20.274914089347078,17.67955801104972
36561,Baldwin County,AL,96.56357388316151,NA
99701,Fairbanks North Star Borough,AK,33.67697594501718,NA
85024,Maricopa County,AZ,88.31615120274914,NA
85037,Maricopa County,AZ,25.085910652920962,NA
85303,Maricopa County,AZ,92.43986254295532,NA
85331,Maricopa County,AZ,53.264604810996566,NA
85743,Pima County,AZ,39.175257731958766,NA
86326,Yavapai County,AZ,NA,67.95580110497238
86413,Mohave County,AZ,NA,28.176795580110497
71603,Jefferson County,AR,NA,22.65193370165746
71913,Garland County,AR,36.42611683848797,NA
72007,Lonoke County,AR,88.65979381443299,NA
72653,Baxter County,AR,72.5085910652921,93.92265193370166
90019,Los Angeles County,CA,NA,27.071823204419886
90023,Los Angeles County,CA,NA,66.85082872928176
90046,Los Angeles County,CA,NA,24.30939226519337
90230,Los Angeles County,CA,NA,56.9060773480663
90245,Los Angeles County,CA,NA,74.03314917127072
90803,Los Angeles County,CA,89.69072164948454,NA
90808,Los Angeles County,CA,55.32646048109966,NA
91344,Los Angeles County,CA,NA,26.519337016574585
91355,Los Angeles County,CA,NA,57.4585635359116
91403,Los Angeles County,CA,NA,72.37569060773481
91706,Los Angeles County,CA,NA,37.01657458563536
92084,San Diego County,CA,55.670103092783506,NA
92120,San Diego County,CA,77.66323024054984,NA
92236,Riverside County,CA,42.2680412371134,NA
92240,Riverside County,CA,NA,40.88397790055249
92314,San Bernardino County,CA,85.2233676975945,NA
92373,San Bernardino County,CA,65.63573883161511,NA
92411,San Bernardino County,CA,73.53951890034365,NA
92557,Riverside County,CA,NA,56.353591160220994
92614,Orange County,CA,NA,71.8232044198895
92675,Orange County,CA,NA,50.82872928176796
92692,Orange County,CA,NA,24.861878453038674
93257,Tulare County,CA,NA,23.204419889502763
93306,Kern County,CA,NA,84.5303867403315
93433,San Luis Obispo County,CA,75.60137457044674,NA
94022,Santa Clara County,CA,NA,88.39779005524862
94107,San Francisco County,CA,42.61168384879725,NA
94505,Contra Costa County,CA,NA,90.60773480662984
94566,Alameda County,CA,59.106529209621996,NA
94605,Alameda County,CA,NA,23.756906077348066
94960,Marin County,CA,90.03436426116839,NA
95123,Santa Clara County,CA,37.11340206185567,NA
95337,San Joaquin County,CA,NA,48.06629834254144
95966,Butte County,CA,NA,7.734806629834254
95973,Butte County,CA,NA,70.1657458563536
96001,Shasta County,CA,21.305841924398624,NA
80033,Jefferson County,CO,48.10996563573883,NA
80239,Denver County,CO,NA,59.66850828729282
80916,El Paso County,CO,NA,77.90055248618785
06226,Windham County,CT,16.49484536082474,NA
06405,New Haven County,CT,82.4742268041237,NA
06483,New Haven County,CT,NA,68.50828729281768
06615,Fairfield County,CT,NA,95.58011049723757
06810,Fairfield County,CT,15.120274914089347,NA
19904,Kent County,DE,NA,58.011049723756905
19966,Sussex County,DE,54.98281786941581,NA
32011,Nassau County,FL,57.73195876288659,NA
32068,Clay County,FL,9.965635738831615,NA
32207,Duval County,FL,NA,11.049723756906078
32208,Duval County,FL,0,NA
32541,Okaloosa County,FL,63.230240549828174,NA
32571,Santa Rosa County,FL,12.027491408934708,NA
32757,Lake County,FL,54.29553264604811,NA
32926,Brevard County,FL,70.79037800687286,NA
33032,Miami-Dade County,FL,NA,79.00552486187846
33033,Miami-Dade County,FL,40.549828178694156,NA
33410,Palm Beach County,FL,50.51546391752577,NA
33411,Palm Beach County,FL,37.45704467353952,NA
33415,Palm Beach County,FL,41.23711340206185,NA
33637,Hillsborough County,FL,80.75601374570446,NA
33973,Lee County,FL,NA,94.47513812154696
34613,Hernando County,FL,72.85223367697594,NA
34695,Pinellas County,FL,87.62886597938144,NA
30052,Walton County,GA,18.556701030927837,NA
30114,Cherokee County,GA,34.02061855670103,NA
30127,Cobb County,GA,19.243986254295535,NA
30134,Douglas County,GA,24.398625429553263,NA
30157,Paulding County,GA,25.773195876288657,NA
30253,Henry County,GA,57.0446735395189,NA
30534,Dawson County,GA,NA,37.569060773480665
31008,Peach County,GA,40.893470790378004,NA
31027,Laurens County,GA,NA,91.71270718232044
31602,Lowndes County,GA,66.32302405498281,NA
31763,Lee County,GA,49.140893470790374,NA
31793,Tift County,GA,62.19931271477663,NA
96795,Honolulu County,HI,NA,96.13259668508287
83401,Bonneville County,ID,13.402061855670103,NA
83404,Bonneville County,ID,78.69415807560138,NA
83686,Canyon County,ID,5.841924398625429,NA
60048,Lake County,IL,NA,27.624309392265197
60050,McHenry County,IL,37.80068728522337,NA
60097,McHenry County,IL,92.78350515463917,NA
60115,DeKalb County,IL,NA,32.59668508287293
60140,Kane County,IL,71.47766323024055,NA
60177,Kane County,IL,NA,64.64088397790056
60490,Will County,IL,82.13058419243985,NA
60544,Will County,IL,NA,25.41436464088398
60565,DuPage County,IL,60.824742268041234,NA
60605,Cook County,IL,57.388316151202744,NA
60651,Cook County,IL,6.185567010309279,NA
60655,Cook County,IL,28.1786941580756,NA
61364,LaSalle County,IL,53.95189003436426,NA
61603,Peoria County,IL,62.54295532646048,NA
61701,McLean County,IL,61.16838487972509,NA
61938,Coles County,IL,NA,85.0828729281768
62002,Madison County,IL,NA,20.441988950276244
62025,Madison County,IL,63.57388316151202,NA
62703,Sangamon County,IL,29.20962199312715,NA
46064,Madison County,IN,65.29209621993127,NA
46176,Shelby County,IN,NA,11.602209944751381
46217,Marion County,IN,51.546391752577314,NA
46240,Marion County,IN,86.5979381443299,NA
46250,Marion County,IN,NA,74.58563535911603
46321,Lake County,IN,NA,18.23204419889503
46385,Porter County,IN,NA,4.972375690607735
46514,Elkhart County,IN,28.865979381443296,NA
46619,St. Joseph County,IN,NA,76.79558011049724
46774,Allen County,IN,NA,49.171270718232044
47150,Floyd County,IN,65.97938144329896,NA
47274,Jackson County,IN,NA,34.25414364640884
52353,Washington County,IA,78.00687285223368,NA
52627,Lee County,IA,43.29896907216495,NA
52722,Scott County,IA,NA,29.2817679558011
66061,Johnson County,KS,20.618556701030926,NA
66614,Shawnee County,KS,NA,19.88950276243094
67401,Saline County,KS,NA,22.099447513812155
67846,Finney County,KS,22.336769759450174,NA
40033,Marion County,KY,56.3573883161512,NA
40065,Shelby County,KY,NA,32.04419889502763
40210,Jefferson County,KY,39.86254295532646,NA
40216,Jefferson County,KY,NA,13.812154696132598
40222,Jefferson County,KY,NA,72.92817679558011
40229,Jefferson County,KY,69.7594501718213,NA
40351,Rowan County,KY,21.993127147766323,NA
41042,Boone County,KY,2.7491408934707904,NA
41101,Boyd County,KY,17.525773195876287,NA
41230,Lawrence County,KY,NA,86.74033149171271
41311,Lee County,KY,87.2852233676976,NA
41339,Breathitt County,KY,46.391752577319586,NA
41774,Perry County,KY,NA,100
42003,McCracken County,KY,43.6426116838488,NA
42041,Fulton County,KY,NA,91.16022099447514
70360,Terrebonne Parish,LA,9.621993127147768,NA
70431,St. Tammany Parish,LA,NA,82.87292817679558
70444,Tangipahoa Parish,LA,NA,87.29281767955801
70446,Tangipahoa Parish,LA,75.25773195876289,NA
70448,St. Tammany Parish,LA,66.66666666666666,NA
70501,Lafayette Parish,LA,0.6872852233676976,NA
70548,Vermilion Parish,LA,33.33333333333333,NA
71106,Caddo Parish,LA,4.123711340206185,NA
71301,Rapides Parish,LA,5.154639175257731,NA
71351,Avoyelles Parish,LA,NA,87.84530386740332
04046,York County,ME,79.03780068728523,NA
04210,Androscoggin County,ME,NA,8.83977900552486
04254,Androscoggin County,ME,92.78350515463917,NA
20676,Calvert County,MD,NA,99.4475138121547
21403,Anne Arundel County,MD,59.79381443298969,NA
21788,Frederick County,MD,78.35051546391753,NA
21918,Cecil County,MD,97.59450171821305,NA
21921,Cecil County,MD,14.0893470790378,NA
01104,Hampden County,MA,9.278350515463918,NA
01151,Hampden County,MA,26.11683848797251,NA
01760,Middlesex County,MA,7.903780068728522,NA
01845,Essex County,MA,26.804123711340207,NA
01887,Middlesex County,MA,4.810996563573884,NA
01950,Essex County,MA,93.47079037800687,NA
01960,Essex County,MA,NA,0.5524861878453038
02045,Plymouth County,MA,NA,89.50276243093923
02135,Suffolk County,MA,NA,9.94475138121547
02151,Suffolk County,MA,NA,0
02170,Norfolk County,MA,30.927835051546392,NA
02171,Norfolk County,MA,NA,18.784530386740332
02332,Plymouth County,MA,70.10309278350515,NA
02492,Norfolk County,MA,26.46048109965636,NA
02668,Barnstable County,MA,NA,98.34254143646409
02720,Bristol County,MA,NA,1.6574585635359116
02779,Bristol County,MA,91.06529209621993,NA
48162,Monroe County,MI,10.996563573883162,4.41988950276243
48183,Wayne County,MI,6.872852233676976,NA
48209,Wayne County,MI,NA,54.69613259668509
48230,Wayne County,MI,NA,40.331491712707184
48236,Wayne County,MI,NA,15.469613259668508
48335,Oakland County,MI,NA,60.22099447513812
48348,Oakland County,MI,35.051546391752574,NA
48854,Ingham County,MI,47.42268041237113,NA
48858,Isabella County,MI,3.436426116838488,NA
49201,Jackson County,MI,6.529209621993128,NA
49424,Ottawa County,MI,14.432989690721648,NA
49431,Mason County,MI,32.98969072164948,NA
49837,Delta County,MI,NA,61.32596685082873
49849,Marquette County,MI,45.70446735395189,NA
55021,Rice County,MN,81.09965635738831,NA
55412,Hennepin County,MN,NA,43.646408839779006
56308,Douglas County,MN,NA,50.27624309392266
56345,Morrison County,MN,NA,41.988950276243095
56537,Otter Tail County,MN,18.213058419243985,NA
38611,Marshall County,MS,59.450171821305844,NA
38654,DeSoto County,MS,23.367697594501717,NA
38901,Grenada County,MS,NA,93.37016574585635
39307,Lauderdale County,MS,NA,97.23756906077348
39341,Noxubee County,MS,84.5360824742268,NA
39531,Harrison County,MS,67.0103092783505,NA
63028,Jefferson County,MO,24.054982817869416,NA
64012,Cass County,MO,58.075601374570454,NA
64060,Clay County,MO,89.3470790378007,NA
64079,Platte County,MO,NA,51.38121546961326
64131,Jackson County,MO,NA,38.12154696132597
64505,Buchanan County,MO,31.615120274914087,NA
64724,St. Clair County,MO,100,NA
65301,Pettis County,MO,1.718213058419244,NA
65616,Taney County,MO,NA,36.46408839779006
65804,Greene County,MO,28.52233676975945,NA
59102,Yellowstone County,MT,NA,6.629834254143646
68028,Sarpy County,NE,NA,97.79005524861878
69361,Scotts Bluff County,NE,76.28865979381443,NA
89103,Clark County,NV,NA,65.74585635359117
89139,Clark County,NV,73.8831615120275,NA
89410,Douglas County,NV,NA,33.70165745856354
89431,Washoe County,NV,NA,44.751381215469614
89436,Washoe County,NV,NA,12.154696132596685
89503,Washoe County,NV,NA,46.96132596685083
03051,Hillsborough County,NH,23.02405498281787,NA
03103,Hillsborough County,NH,3.0927835051546393,NA
03885,Rockingham County,NH,87.97250859106529,NA
07470,Passaic County,NJ,15.463917525773196,NA
07646,Bergen County,NJ,96.21993127147766,NA
08012,Camden County,NJ,25.42955326460481,NA
08015,Burlington County,NJ,14.776632302405499,NA
08204,Cape May County,NJ,52.57731958762887,NA
08831,Middlesex County,NJ,29.553264604810998,NA
08865,Warren County,NJ,NA,10.497237569060774
10472,Bronx County,NY,NA,2.7624309392265194
11717,Suffolk County,NY,19.93127147766323,NA
12866,Saratoga County,NY,NA,9.392265193370166
12953,Franklin County,NY,NA,19.337016574585636
13676,St. Lawrence County,NY,31.958762886597935,NA
13856,Delaware County,NY,48.45360824742268,NA
14132,Niagara County,NY,NA,98.89502762430939
14215,Erie County,NY,0.3436426116838488,NA
14304,Niagara County,NY,NA,5.524861878453039
14425,Ontario County,NY,17.18213058419244,NA
14450,Monroe County,NY,NA,2.209944751381215
14454,Livingston County,NY,69.0721649484536,NA
14534,Monroe County,NY,4.4673539518900345,NA
14760,Cattaraugus County,NY,7.216494845360824,14.917127071823206
27106,Forsyth County,NC,NA,3.867403314917127
27332,Lee County,NC,36.08247422680412,NA
27406,Guilford County,NC,2.0618556701030926,NA
27516,Orange County,NC,NA,13.259668508287293
27889,Beaufort County,NC,NA,69.06077348066299
27892,Martin County,NC,45.017182130584196,NA
27893,Wilson County,NC,13.058419243986256,NA
28025,Cabarrus County,NC,8.934707903780069,NA
28037,Lincoln County,NC,83.16151202749141,NA
28120,Gaston County,NC,80.41237113402062,NA
28304,Cumberland County,NC,29.896907216494846,NA
28358,Robeson County,NC,NA,29.83425414364641
28384,Bladen County,NC,58.4192439862543,NA
28513,Pitt County,NC,76.97594501718214,NA
28655,Burke County,NC,NA,6.077348066298343
28713,Swain County,NC,70.44673539518901,NA
28714,Yancey County,NC,63.57388316151202,NA
28722,Polk County,NC,96.90721649484536,NA
58047,Cass County,ND,98.62542955326461,NA
43056,Licking County,OH,35.738831615120276,NA
43211,Franklin County,OH,8.59106529209622,NA
43229,Franklin County,OH,NA,7.18232044198895
43230,Franklin County,OH,NA,54.14364640883977
43402,Wood County,OH,21.649484536082475,16.574585635359114
43502,Fulton County,OH,80.06872852233677,NA
43551,Wood County,OH,11.34020618556701,NA
43605,Lucas County,OH,1.0309278350515463,NA
43614,Lucas County,OH,8.24742268041237,NA
44030,Ashtabula County,OH,22.68041237113402,NA
44111,Cuyahoga County,OH,NA,3.314917127071823
44130,Cuyahoga County,OH,85.91065292096219,NA
44141,Cuyahoga County,OH,NA,66.29834254143645
44266,Portage County,OH,91.40893470790378,NA
44281,Medina County,OH,NA,75.69060773480662
44303,Summit County,OH,NA,81.76795580110497
44484,Trumbull County,OH,27.491408934707906,NA
44615,Carroll County,OH,NA,60.773480662983424
44646,Stark County,OH,NA,49.72375690607735
44709,Stark County,OH,38.144329896907216,NA
45213,Hamilton County,OH,74.5704467353952,NA
45356,Miami County,OH,12.371134020618557,NA
45406,Montgomery County,OH,13.745704467353953,NA
45644,Ross County,OH,98.28178694158075,NA
45750,Washington County,OH,NA,1.1049723756906076
45769,Meigs County,OH,83.8487972508591,NA
45885,Auglaize County,OH,38.48797250859107,NA
73010,McClain County,OK,74.22680412371135,NA
73013,Oklahoma County,OK,31.27147766323024,NA
73071,Cleveland County,OK,NA,55.24861878453039
73078,Canadian County,OK,90.72164948453609,NA
73119,Oklahoma County,OK,NA,44.19889502762431
73120,Oklahoma County,OK,39.51890034364261,NA
73139,Oklahoma County,OK,52.92096219931272,NA
73160,Cleveland County,OK,9.965635738831615,NA
73162,Oklahoma County,OK,47.07903780068728,NA
73401,Carter County,OK,11.683848797250858,NA
74008,Tulsa County,OK,94.15807560137456,NA
74365,Mayes County,OK,NA,92.81767955801105
97086,Clackamas County,OR,52.23367697594502,NA
97225,Washington County,OR,69.41580756013745,NA
97304,Polk County,OR,54.63917525773196,NA
97383,Marion County,OR,76.6323024054983,NA
97404,Lane County,OR,56.70103092783505,NA
97446,Linn County,OR,95.1890034364261,NA
97470,Douglas County,OR,NA,25.96685082872928
97477,Lane County,OR,NA,31.491712707182316
15037,Allegheny County,PA,NA,79.55801104972376
15057,Washington County,PA,75.94501718213058,NA
15204,Allegheny County,PA,84.87972508591065,NA
15209,Allegheny County,PA,NA,81.21546961325967
15217,Allegheny County,PA,NA,21.54696132596685
15825,Jefferson County,PA,42.955326460481096,NA
17067,Lebanon County,PA,NA,95.02762430939227
17401,York County,PA,95.53264604810997,NA
17406,York County,PA,NA,45.85635359116022
17560,Lancaster County,PA,NA,96.68508287292818
18017,Northampton County,PA,3.7800687285223367,51.93370165745856
18040,Northampton County,PA,64.94845360824742,NA
18618,Luzerne County,PA,99.3127147766323,NA
18704,Luzerne County,PA,16.151202749140893,NA
18706,Luzerne County,PA,NA,38.67403314917127
19020,Bucks County,PA,NA,85.6353591160221
19122,Philadelphia County,PA,73.19587628865979,NA
19142,Philadelphia County,PA,10.652920962199312,NA
19320,Chester County,PA,NA,12.70718232044199
19382,Chester County,PA,NA,43.0939226519337
19403,Montgomery County,PA,18.900343642611684,NA
19438,Montgomery County,PA,44.67353951890035,NA
19465,Chester County,PA,NA,75.13812154696133
02842,Newport County,RI,77.31958762886599,NA
29407,Charleston County,SC,NA,14.3646408839779
29412,Charleston County,SC,NA,20.994475138121548
29505,Florence County,SC,46.04810996563574,NA
29680,Greenville County,SC,44.329896907216494,NA
29936,Jasper County,SC,NA,90.05524861878453
37013,Davidson County,TN,7.560137457044673,NA
37042,Montgomery County,TN,23.711340206185564,NA
37066,Sumner County,TN,NA,8.287292817679557
37083,Macon County,TN,NA,35.35911602209944
37174,Williamson County,TN,NA,42.5414364640884
37217,Davidson County,TN,40.20618556701031,65.19337016574586
37370,McMinn County,TN,86.94158075601375,NA
37659,Washington County,TN,NA,28.7292817679558
37774,Loudon County,TN,NA,69.61325966850829
37862,Sevier County,TN,35.39518900343643,NA
38059,Dyer County,TN,85.56701030927834,NA
38122,Shelby County,TN,NA,80.66298342541437
38128,Shelby County,TN,NA,39.77900552486188
38555,Cumberland County,TN,67.35395189003437,NA
38585,Van Buren County,TN,92.09621993127148,NA
75020,Grayson County,TX,NA,82.32044198895028
75043,Dallas County,TX,NA,62.430939226519335
75068,Denton County,TX,30.584192439862544,NA
75070,Collin County,TX,NA,46.408839779005525
75088,Dallas County,TX,64.60481099656357,NA
75090,Grayson County,TX,45.36082474226804,NA
75137,Dallas County,TX,83.50515463917526,NA
75150,Dallas County,TX,53.608247422680414,NA
75160,Kaufman County,TX,60.48109965635739,NA
75230,Dallas County,TX,67.69759450171821,NA
75238,Dallas County,TX,61.512027491408936,NA
75601,Gregg County,TX,NA,86.1878453038674
75662,Gregg County,TX,51.890034364261176,NA
75706,Smith County,TX,NA,80.11049723756905
75904,Angelina County,TX,NA,16.022099447513813
76017,Tarrant County,TX,NA,30.939226519337016
76033,Johnson County,TX,34.707903780068726,NA
76051,Tarrant County,TX,NA,39.226519337016576
76131,Tarrant County,TX,48.797250859106526,NA
76210,Denton County,TX,79.72508591065292,NA
76513,Bell County,TX,32.64604810996563,NA
76542,Bell County,TX,12.371134020618557,NA
77024,Harris County,TX,82.81786941580756,NA
77040,Harris County,TX,43.986254295532646,NA
77055,Harris County,TX,56.013745704467354,NA
77377,Harris County,TX,NA,64.08839779005525
77381,Montgomery County,TX,62.88659793814433,NA
77437,Wharton County,TX,60.13745704467354,NA
77836,Burleson County,TX,61.855670103092784,NA
78076,Zapata County,TX,93.81443298969072,NA
78155,Guadalupe County,TX,NA,30.386740331491712
78572,Hidalgo County,TX,19.587628865979383,NA
78621,Bastrop County,TX,NA,77.34806629834254
78732,Travis County,TX,94.84536082474226,NA
79323,Yoakum County,TX,90.37800687285224,NA
79549,Scurry County,TX,NA,47.51381215469613
79707,Midland County,TX,NA,48.61878453038674
79720,Howard County,TX,NA,63.53591160220995
79761,Ector County,TX,49.828178694158076,NA
79762,Ector County,TX,27.491408934707906,NA
79927,El Paso County,TX,NA,71.27071823204419
84044,Salt Lake County,UT,41.92439862542955,NA
84065,Salt Lake County,UT,36.769759450171826,NA
84067,Weber County,UT,34.36426116838488,NA
84401,Weber County,UT,41.23711340206185,NA
84648,Juab County,UT,89.00343642611683,NA
05401,Chittenden County,VT,NA,53.03867403314917
22015,Fairfax County,VA,51.20274914089347,NA
22407,Spotsylvania County,VA,17.869415807560138,NA
22602,Frederick County,VA,86.25429553264605,NA
22630,Warren County,VA,NA,35.91160220994475
22801,Harrisonburg city,VA,71.8213058419244,NA
22812,Rockingham County,VA,94.50171821305841,NA
22827,Rockingham County,VA,72.16494845360825,NA
22835,Page County,VA,NA,59.11602209944752
23111,Hanover County,VA,NA,17.12707182320442
23518,Norfolk city,VA,71.1340206185567,NA
23607,Newport News city,VA,20.962199312714777,NA
23832,Chesterfield County,VA,NA,55.80110497237569
23847,Greensville County,VA,68.04123711340206,NA
23927,Mecklenburg County,VA,95.87628865979381,NA
24179,Roanoke County,VA,47.766323024054984,NA
24228,Dickenson County,VA,64.26116838487972,NA
24251,Scott County,VA,81.44329896907216,NA
24441,Rockingham County,VA,NA,83.97790055248619
98031,King County,WA,38.83161512027492,NA
98168,King County,WA,32.302405498281786,NA
98273,Skagit County,WA,27.147766323024054,NA
98282,Island County,WA,84.19243986254295,NA
98284,Skagit County,WA,50.85910652920962,NA
98321,Pierce County,WA,58.76288659793815,NA
98407,Pierce County,WA,NA,52.48618784530387
98611,Cowlitz County,WA,79.38144329896907,NA
98942,Yakima County,WA,NA,73.48066298342542
25427,Berkeley County,WV,NA,78.45303867403315
25510,Cabell County,WV,81.78694158075601,NA
25526,Putnam County,WV,NA,41.43646408839779
53115,Walworth County,WI,46.735395189003434,NA
53139,Racine County,WI,97.9381443298969,NA
53185,Racine County,WI,NA,62.98342541436463
53188,Waukesha County,WI,NA,61.87845303867403
53209,Milwaukee County,WI,1.3745704467353952,NA
53215,Milwaukee County,WI,2.405498281786942,NA
53224,Milwaukee County,WI,NA,58.5635359116022
53585,Walworth County,WI,98.96907216494846,NA
54011,Pierce County,WI,97.2508591065292,NA
54121,Florence County,WI,91.75257731958763,NA
54313,Brown County,WI,NA,34.806629834254146
54401,Marathon County,WI,NA,33.14917127071823
54487,Lincoln County,WI,50.171821305841924,NA
54742,Eau Claire County,WI,99.65635738831615,NA
54915,Outagamie County,WI,NA,53.591160220994475
82009,Laramie County,WY,68.38487972508591,NA
