ZipCode,county,state,Youth,Pediatric,Adult,Retirement,Geriatric
35016,Marshall County,AL,NA,NA,NA,NA,48.7037037037037
35062,Jefferson County,AL,NA,NA,NA,82.75340393343419,NA
35077,Cullman County,AL,57.96812749003985,NA,NA,NA,NA
35094,Jefferson County,AL,NA,69.36619718309859,NA,NA,NA
35124,Shelby County,AL,NA,NA,NA,NA,70.74074074074073
35173,Jefferson County,AL,NA,NA,49.90892531876138,NA,NA
35215,Jefferson County,AL,NA,9.15492957746479,NA,NA,NA
35228,Jefferson County,AL,72.90836653386454,NA,NA,NA,NA
35401,Tuscaloosa County,AL,NA,NA,60.29143897996357,NA,NA
35406,Tuscaloosa County,AL,NA,NA,76.13843351548269,NA,NA
35475,Tuscaloosa County,AL,NA,NA,NA,50.22692889561271,NA
35592,Lamar County,AL,NA,98.94366197183099,NA,NA,NA
35601,Morgan County,AL,NA,NA,42.07650273224044,NA,NA
35611,Limestone County,AL,NA,33.45070422535211,NA,NA,NA
35645,Lauderdale County,AL,NA,NA,NA,NA,93.7037037037037
35648,Lauderdale County,AL,NA,NA,NA,98.63842662632375,NA
35650,Lawrence County,AL,NA,NA,NA,43.41906202723147,41.66666666666667
35674,Colbert County,AL,NA,NA,NA,49.167927382753405,NA
35763,Madison County,AL,NA,NA,NA,NA,72.96296296296296
35905,Etowah County,AL,41.63346613545817,NA,NA,NA,NA
35906,Etowah County,AL,NA,NA,NA,77.3071104387292,NA
36067,Autauga County,AL,NA,36.267605633802816,NA,NA,NA
36104,Montgomery County,AL,NA,NA,57.377049180327866,NA,NA
36105,Montgomery County,AL,NA,NA,NA,NA,97.4074074074074
36203,Calhoun County,AL,40.0398406374502,NA,NA,51.73978819969742,NA
36206,Calhoun County,AL,NA,71.47887323943662,NA,NA,NA
36268,Talladega County,AL,88.24701195219123,NA,NA,NA,NA
36272,Calhoun County,AL,NA,NA,47.17668488160292,NA,NA
36375,Geneva County,AL,NA,NA,NA,NA,90.74074074074075
36442,Covington County,AL,NA,85.2112676056338,NA,NA,NA
36567,Baldwin County,AL,95.61752988047809,NA,NA,NA,NA
36571,Mobile County,AL,NA,82.74647887323944,NA,NA,NA
36619,Mobile County,AL,NA,NA,NA,NA,82.77777777777777
36701,Dallas County,AL,NA,NA,25.318761384335154,NA,NA
36756,Perry County,AL,NA,NA,NA,85.32526475037821,NA
36801,Lee County,AL,NA,87.32394366197182,NA,NA,NA
36830,Lee County,AL,93.82470119521913,NA,NA,NA,NA
99645,Matanuska-Susitna Borough,AK,11.952191235059761,NA,NA,NA,NA
85020,Maricopa County,AZ,NA,NA,NA,NA,46.48148148148148
85023,Maricopa County,AZ,NA,NA,NA,59.4553706505295,90.37037037037037
85028,Maricopa County,AZ,NA,NA,NA,62.632375189107414,NA
85045,Maricopa County,AZ,NA,NA,NA,99.69742813918305,NA
85050,Maricopa County,AZ,NA,NA,83.24225865209472,NA,NA
85051,Maricopa County,AZ,NA,NA,NA,NA,71.48148148148148
85085,Maricopa County,AZ,NA,NA,96.17486338797814,NA,NA
85086,Maricopa County,AZ,NA,NA,37.52276867030965,40.998487140695914,NA
85119,Pinal County,AZ,NA,NA,93.80692167577413,NA,NA
85122,Pinal County,AZ,NA,NA,NA,10.43872919818457,NA
85204,Maricopa County,AZ,30.677290836653388,NA,NA,NA,NA
85259,Maricopa County,AZ,75.4980079681275,NA,NA,NA,NA
85268,Maricopa County,AZ,NA,NA,NA,56.278366111951584,NA
85282,Maricopa County,AZ,NA,NA,NA,NA,70.18518518518519
85295,Maricopa County,AZ,52.589641434262944,NA,NA,NA,NA
85324,Yavapai County,AZ,NA,NA,NA,91.07413010590015,NA
85331,Maricopa County,AZ,NA,NA,NA,52.9500756429652,NA
85339,Maricopa County,AZ,NA,NA,NA,NA,92.4074074074074
85345,Maricopa County,AZ,NA,NA,NA,9.68229954614221,NA
85349,Yuma County,AZ,NA,NA,69.03460837887067,NA,NA
85351,Maricopa County,AZ,NA,NA,NA,NA,8.518518518518519
85355,Maricopa County,AZ,76.29482071713147,NA,NA,NA,NA
85367,Yuma County,AZ,NA,NA,NA,50.983358547655065,NA
85373,Maricopa County,AZ,NA,NA,NA,NA,17.22222222222222
85541,Gila County,AZ,NA,NA,NA,NA,26.481481481481485
85546,Graham County,AZ,NA,NA,NA,87.89712556732225,NA
85614,Pima County,AZ,NA,NA,NA,NA,2.2222222222222223
85622,Pima County,AZ,NA,NA,NA,64.90166414523449,NA
85641,Pima County,AZ,NA,NA,NA,73.37367624810892,NA
85658,Pima County,AZ,70.1195219123506,NA,NA,NA,NA
85711,Pima County,AZ,NA,NA,NA,13.161875945537066,NA
85712,Pima County,AZ,NA,NA,20.40072859744991,NA,NA
85719,Pima County,AZ,NA,NA,NA,38.88048411497731,NA
85901,Navajo County,AZ,NA,NA,NA,NA,59.074074074074076
86004,Coconino County,AZ,NA,NA,26.59380692167577,NA,NA
86322,Yavapai County,AZ,NA,NA,NA,63.69137670196672,NA
86323,Yavapai County,AZ,NA,NA,NA,85.47655068078669,NA
86324,Yavapai County,AZ,86.45418326693228,NA,NA,NA,NA
86326,Yavapai County,AZ,18.725099601593627,NA,22.586520947176687,22.087745839636913,NA
86409,Mohave County,AZ,28.68525896414343,NA,NA,NA,NA
86442,Mohave County,AZ,NA,NA,26.775956284153008,NA,NA
86503,Apache County,AZ,NA,NA,87.7959927140255,NA,NA
71602,Jefferson County,AR,NA,NA,64.29872495446266,NA,NA
71603,Jefferson County,AR,21.115537848605577,NA,NA,NA,NA
71730,Union County,AR,NA,NA,NA,27.83661119515885,NA
71913,Garland County,AR,10.358565737051793,NA,NA,NA,11.481481481481481
71953,Polk County,AR,NA,NA,NA,53.10136157337367,NA
72023,Lonoke County,AR,NA,NA,NA,26.4750378214826,NA
72032,Faulkner County,AR,NA,NA,36.6120218579235,NA,NA
72058,Faulkner County,AR,71.71314741035857,NA,NA,NA,NA
72076,Pulaski County,AR,NA,NA,49.72677595628415,NA,NA
72104,Hot Spring County,AR,35.2589641434263,NA,NA,NA,NA
72113,Pulaski County,AR,NA,NA,NA,47.20121028744327,NA
72116,Pulaski County,AR,NA,NA,75.22768670309654,NA,31.666666666666664
72118,Pulaski County,AR,NA,NA,NA,60.21180030257186,NA
72120,Pulaski County,AR,NA,NA,NA,15.73373676248109,NA
72205,Pulaski County,AR,NA,NA,NA,57.186081694402425,NA
72211,Pulaski County,AR,NA,NA,NA,78.9712556732224,NA
72227,Pulaski County,AR,86.05577689243027,NA,NA,85.77912254160364,NA
72364,Crittenden County,AR,NA,NA,87.43169398907104,NA,NA
72401,Craighead County,AR,NA,NA,NA,9.228441754916792,NA
72454,Clay County,AR,NA,NA,NA,80.48411497730712,NA
72601,Boone County,AR,NA,NA,NA,NA,84.07407407407408
72635,Baxter County,AR,99.00398406374502,NA,NA,NA,NA
72653,Baxter County,AR,NA,NA,43.169398907103826,18.456883509833585,NA
72701,Washington County,AR,NA,NA,NA,70.80181543116491,NA
72753,Washington County,AR,NA,NA,NA,NA,98.33333333333333
72756,Benton County,AR,NA,NA,NA,35.55219364599092,NA
72761,Benton County,AR,44.42231075697211,NA,NA,NA,NA
72956,Crawford County,AR,NA,NA,NA,NA,47.03703703703704
90007,Los Angeles County,CA,NA,NA,NA,59.30408472012103,NA
90012,Los Angeles County,CA,NA,NA,66.8488160291439,NA,NA
90016,Los Angeles County,CA,NA,NA,42.25865209471767,NA,NA
90024,Los Angeles County,CA,NA,NA,NA,NA,4.444444444444445
90048,Los Angeles County,CA,NA,NA,NA,60.816944024205746,NA
90049,Los Angeles County,CA,NA,99.64788732394366,NA,NA,20.74074074074074
90068,Los Angeles County,CA,NA,NA,NA,NA,75.18518518518519
90210,Los Angeles County,CA,NA,NA,NA,NA,17.962962962962965
90230,Los Angeles County,CA,NA,NA,80.69216757741347,NA,NA
90232,Los Angeles County,CA,NA,NA,NA,90.01512859304086,NA
90266,Los Angeles County,CA,NA,NA,NA,49.77307110438729,NA
90275,Los Angeles County,CA,NA,NA,NA,39.78819969742814,NA
90278,Los Angeles County,CA,51.79282868525896,NA,62.841530054644814,NA,NA
90280,Los Angeles County,CA,18.127490039840637,22.535211267605636,NA,NA,NA
90293,Los Angeles County,CA,NA,NA,90.89253187613843,NA,NA
90630,Orange County,CA,56.37450199203188,NA,NA,NA,NA
90650,Los Angeles County,CA,NA,61.97183098591549,NA,NA,NA
90703,Los Angeles County,CA,NA,NA,NA,34.039334341906205,NA
90706,Los Angeles County,CA,NA,24.295774647887324,NA,NA,NA
90712,Los Angeles County,CA,NA,NA,NA,50.529500756429655,NA
90720,Orange County,CA,NA,NA,75.95628415300546,NA,NA
90745,Los Angeles County,CA,NA,NA,NA,NA,19.814814814814817
90804,Los Angeles County,CA,NA,95.77464788732394,NA,NA,NA
90808,Los Angeles County,CA,10.557768924302788,NA,NA,NA,NA
90813,Los Angeles County,CA,NA,74.64788732394366,NA,NA,NA
91001,Los Angeles County,CA,NA,NA,NA,NA,40
91007,Los Angeles County,CA,NA,NA,NA,NA,47.96296296296296
91010,Los Angeles County,CA,81.67330677290838,NA,NA,NA,NA
91301,Los Angeles County,CA,NA,97.1830985915493,NA,NA,NA
91316,Los Angeles County,CA,NA,NA,72.6775956284153,NA,NA
91326,Los Angeles County,CA,NA,100,NA,NA,NA
91342,Los Angeles County,CA,NA,15.492957746478872,NA,NA,NA
91351,Los Angeles County,CA,NA,NA,NA,NA,85.18518518518519
91362,Ventura County,CA,77.68924302788844,NA,NA,NA,NA
91604,Los Angeles County,CA,NA,NA,85.06375227686704,NA,NA
91701,San Bernardino County,CA,NA,NA,NA,NA,51.2962962962963
91737,San Bernardino County,CA,NA,NA,NA,55.975794251134644,NA
91741,Los Angeles County,CA,89.04382470119522,NA,NA,NA,NA
91763,San Bernardino County,CA,NA,NA,66.48451730418944,NA,NA
91767,Los Angeles County,CA,NA,NA,NA,80.78668683812406,NA
91910,San Diego County,CA,NA,NA,NA,31.164901664145233,NA
91941,San Diego County,CA,NA,NA,NA,46.4447806354009,NA
91950,San Diego County,CA,NA,NA,NA,NA,13.88888888888889
91977,San Diego County,CA,NA,32.3943661971831,NA,26.626323751891075,70
92019,San Diego County,CA,NA,NA,45.71948998178507,47.0499243570348,NA
92020,San Diego County,CA,NA,NA,20.76502732240437,NA,NA
92021,San Diego County,CA,NA,NA,14.571948998178508,48.71406959152799,25
92024,San Diego County,CA,NA,NA,NA,NA,30.37037037037037
92029,San Diego County,CA,NA,NA,94.1712204007286,NA,NA
92037,San Diego County,CA,NA,NA,NA,51.13464447806354,NA
92065,San Diego County,CA,NA,NA,NA,66.41452344931922,NA
92067,San Diego County,CA,NA,NA,NA,91.67927382753403,NA
92069,San Diego County,CA,NA,NA,NA,54.91679273827535,NA
92083,San Diego County,CA,NA,NA,63.934426229508205,NA,NA
92084,San Diego County,CA,NA,NA,NA,63.842662632375195,NA
92103,San Diego County,CA,52.98804780876494,NA,NA,NA,NA
92105,San Diego County,CA,NA,NA,NA,30.71104387291982,NA
92113,San Diego County,CA,NA,15.140845070422534,NA,NA,NA
92114,San Diego County,CA,35.657370517928285,NA,NA,NA,NA
92116,San Diego County,CA,NA,NA,91.62112932604735,NA,NA
92119,San Diego County,CA,NA,NA,NA,NA,89.25925925925927
92139,San Diego County,CA,NA,67.25352112676056,NA,NA,NA
92203,Riverside County,CA,NA,NA,NA,NA,29.259259259259256
92220,Riverside County,CA,NA,NA,NA,NA,25.555555555555554
92253,Riverside County,CA,NA,NA,44.626593806921676,NA,NA
92264,Riverside County,CA,NA,NA,46.44808743169399,NA,NA
92284,San Bernardino County,CA,NA,NA,NA,63.38880484114977,NA
92307,San Bernardino County,CA,NA,NA,26.41165755919854,NA,NA
92344,San Bernardino County,CA,NA,NA,NA,94.0998487140696,NA
92354,San Bernardino County,CA,NA,NA,84.51730418943534,NA,NA
92503,Riverside County,CA,NA,NA,NA,21.6338880484115,39.62962962962963
92562,Riverside County,CA,NA,NA,24.225865209471767,NA,NA
92584,Riverside County,CA,NA,NA,44.080145719489984,NA,NA
92602,Orange County,CA,NA,NA,NA,NA,96.48148148148148
92603,Orange County,CA,NA,NA,NA,NA,74.81481481481481
92606,Orange County,CA,NA,NA,NA,82.75340393343419,NA
92610,Orange County,CA,NA,NA,89.98178506375227,NA,NA
92618,Orange County,CA,NA,81.69014084507043,NA,NA,NA
92630,Orange County,CA,NA,NA,31.51183970856102,NA,NA
92653,Orange County,CA,NA,NA,NA,52.344931921331316,NA
92660,Orange County,CA,NA,NA,NA,NA,12.407407407407407
92675,Orange County,CA,NA,NA,NA,45.08320726172466,NA
92691,Orange County,CA,42.62948207171315,NA,NA,NA,NA
92692,Orange County,CA,NA,NA,NA,NA,8.703703703703704
92708,Orange County,CA,NA,NA,NA,14.523449319213313,NA
92801,Orange County,CA,NA,NA,31.693989071038253,NA,NA
92805,Orange County,CA,43.82470119521912,NA,NA,NA,NA
92821,Orange County,CA,NA,NA,NA,NA,30
92833,Orange County,CA,NA,NA,NA,30.408472012102873,NA
92840,Orange County,CA,NA,41.901408450704224,NA,NA,60
92843,Orange County,CA,NA,NA,NA,53.5552193645991,NA
92867,Orange County,CA,NA,NA,61.02003642987249,NA,NA
92868,Orange County,CA,NA,NA,67.21311475409836,NA,NA
92870,Orange County,CA,NA,NA,NA,22.54160363086233,NA
92880,Riverside County,CA,NA,NA,20.76502732240437,NA,NA
92886,Orange County,CA,NA,NA,28.59744990892532,NA,NA
93001,Ventura County,CA,29.681274900398407,NA,NA,29.80332829046899,NA
93003,Ventura County,CA,NA,NA,14.93624772313297,NA,NA
93012,Ventura County,CA,55.97609561752988,NA,NA,NA,NA
93033,Ventura County,CA,NA,14.084507042253522,NA,NA,NA
93036,Ventura County,CA,34.462151394422314,NA,NA,NA,NA
93063,Ventura County,CA,NA,NA,32.78688524590164,NA,43.148148148148145
93221,Tulare County,CA,50,NA,NA,NA,NA
93230,Kings County,CA,NA,NA,NA,14.826021180030258,22.59259259259259
93247,Tulare County,CA,94.02390438247012,NA,NA,NA,NA
93274,Tulare County,CA,NA,13.732394366197184,6.193078324225866,NA,NA
93280,Kern County,CA,NA,NA,NA,95.91527987897126,NA
93309,Kern County,CA,NA,NA,29.690346083788704,NA,NA
93312,Kern County,CA,NA,NA,NA,44.78063540090771,NA
93313,Kern County,CA,NA,58.098591549295776,81.60291438979964,NA,NA
93401,San Luis Obispo County,CA,NA,65.84507042253522,NA,NA,NA
93436,Santa Barbara County,CA,4.9800796812749,NA,NA,NA,NA
93455,Santa Barbara County,CA,NA,NA,NA,29.954614220877456,NA
93536,Los Angeles County,CA,NA,NA,NA,52.344931921331316,NA
93555,Kern County,CA,NA,NA,59.74499089253188,NA,NA
93612,Fresno County,CA,NA,NA,NA,NA,75.37037037037037
93618,Tulare County,CA,NA,NA,NA,NA,80
93619,Fresno County,CA,NA,92.95774647887323,NA,NA,NA
93638,Madera County,CA,NA,NA,17.66848816029144,NA,NA
93647,Tulare County,CA,NA,46.12676056338028,NA,NA,99.07407407407408
93648,Fresno County,CA,NA,NA,NA,91.83055975794251,NA
93654,Fresno County,CA,NA,NA,54.28051001821493,NA,NA
93660,Fresno County,CA,NA,NA,99.27140255009107,NA,NA
93702,Fresno County,CA,NA,28.87323943661972,NA,NA,NA
93711,Fresno County,CA,NA,NA,NA,NA,71.66666666666667
93722,Fresno County,CA,NA,NA,8.925318761384334,NA,NA
93727,Fresno County,CA,NA,11.971830985915492,NA,NA,NA
93960,Monterey County,CA,NA,NA,NA,95.61270801815431,NA
94028,San Mateo County,CA,NA,NA,NA,98.18456883509835,NA
94030,San Mateo County,CA,NA,NA,NA,NA,20.555555555555554
94066,San Mateo County,CA,NA,NA,NA,41.90620272314675,NA
94086,Santa Clara County,CA,NA,NA,NA,NA,56.666666666666664
94107,San Francisco County,CA,81.47410358565737,NA,NA,NA,NA
94116,San Francisco County,CA,NA,NA,57.5591985428051,NA,NA
94117,San Francisco County,CA,NA,NA,NA,NA,92.5925925925926
94303,San Mateo County,CA,NA,26.408450704225352,NA,NA,NA
94306,Santa Clara County,CA,NA,NA,86.15664845173042,NA,NA
94404,San Mateo County,CA,NA,NA,NA,NA,40.370370370370374
94518,Contra Costa County,CA,NA,NA,NA,NA,56.851851851851855
94523,Contra Costa County,CA,NA,NA,NA,NA,47.22222222222222
94531,Contra Costa County,CA,NA,NA,31.876138433515482,NA,42.03703703703704
94544,Alameda County,CA,NA,NA,NA,NA,57.96296296296296
94546,Alameda County,CA,NA,NA,NA,NA,22.22222222222222
94558,Napa County,CA,NA,NA,NA,5.748865355521937,NA
94564,Contra Costa County,CA,NA,NA,NA,NA,66.11111111111111
94571,Solano County,CA,NA,NA,NA,NA,61.29629629629629
94587,Alameda County,CA,NA,41.901408450704224,NA,NA,NA
94589,Solano County,CA,NA,NA,NA,NA,43.333333333333336
94602,Alameda County,CA,NA,NA,NA,NA,67.22222222222223
94610,Alameda County,CA,NA,NA,NA,69.1376701966717,NA
94705,Alameda County,CA,NA,NA,NA,88.6535552193646,NA
94804,Contra Costa County,CA,86.85258964143426,NA,NA,NA,NA
94903,Marin County,CA,NA,NA,NA,NA,43.888888888888886
94928,Sonoma County,CA,NA,NA,NA,NA,77.77777777777779
94931,Sonoma County,CA,95.2191235059761,NA,NA,NA,NA
95003,Santa Cruz County,CA,73.70517928286853,NA,NA,NA,NA
95019,Santa Cruz County,CA,NA,NA,NA,95.00756429652041,NA
95065,Santa Cruz County,CA,NA,NA,NA,98.9409984871407,NA
95076,Santa Cruz County,CA,NA,NA,NA,NA,32.22222222222222
95110,Santa Clara County,CA,NA,77.8169014084507,NA,NA,NA
95111,Santa Clara County,CA,NA,NA,35.701275045537336,NA,NA
95118,Santa Clara County,CA,NA,NA,NA,NA,95.55555555555556
95209,San Joaquin County,CA,NA,NA,79.05282331511839,NA,NA
95240,San Joaquin County,CA,NA,39.08450704225352,NA,NA,NA
95304,San Joaquin County,CA,NA,NA,NA,NA,61.111111111111114
95307,Stanislaus County,CA,NA,45.774647887323944,NA,NA,NA
95315,Merced County,CA,NA,70.77464788732394,NA,NA,NA
95336,San Joaquin County,CA,NA,NA,80.51001821493625,NA,NA
95355,Stanislaus County,CA,31.47410358565737,NA,NA,NA,NA
95361,Stanislaus County,CA,NA,NA,NA,NA,52.96296296296297
95368,Stanislaus County,CA,NA,NA,NA,89.7125567322239,NA
95370,Tuolumne County,CA,NA,NA,NA,23.29803328290469,79.07407407407408
95380,Stanislaus County,CA,NA,NA,25.683060109289617,NA,NA
95382,Stanislaus County,CA,NA,NA,NA,28.290468986384266,NA
95404,Sonoma County,CA,63.94422310756972,NA,NA,27.382753403933435,NA
95425,Sonoma County,CA,94.22310756972112,NA,NA,NA,NA
95467,Lake County,CA,NA,NA,NA,NA,98.70370370370371
95472,Sonoma County,CA,NA,NA,NA,59.152798789712556,NA
95492,Sonoma County,CA,NA,NA,NA,58.54765506807866,NA
95503,Humboldt County,CA,NA,NA,NA,78.21482602118003,NA
95531,Del Norte County,CA,NA,NA,NA,51.28593040847201,NA
95618,Yolo County,CA,NA,NA,NA,NA,62.59259259259259
95632,Sacramento County,CA,NA,44.014084507042256,NA,NA,NA
95660,Sacramento County,CA,64.9402390438247,NA,NA,NA,NA
95665,Amador County,CA,NA,NA,NA,92.73827534039334,NA
95667,El Dorado County,CA,NA,NA,86.70309653916212,NA,NA
95757,Sacramento County,CA,NA,NA,NA,58.24508320726173,NA
95831,Sacramento County,CA,NA,NA,NA,NA,23.333333333333332
95946,Nevada County,CA,NA,NA,89.61748633879782,NA,NA
95953,Sutter County,CA,NA,NA,NA,NA,95.37037037037037
95965,Butte County,CA,23.705179282868528,NA,NA,NA,NA
95991,Sutter County,CA,NA,NA,27.504553734061933,NA,NA
96021,Tehama County,CA,NA,NA,NA,83.66111951588502,NA
96080,Tehama County,CA,NA,NA,NA,24.96217851739788,NA
96093,Trinity County,CA,NA,NA,NA,93.34341906202724,NA
80003,Jefferson County,CO,NA,NA,NA,NA,64.44444444444444
80020,Broomfield County,CO,NA,NA,NA,33.88804841149773,NA
80023,Broomfield County,CO,NA,NA,NA,NA,79.25925925925927
80026,Boulder County,CO,NA,NA,NA,49.47049924357035,NA
80033,Jefferson County,CO,NA,56.690140845070424,NA,NA,NA
80108,Douglas County,CO,NA,NA,NA,NA,78.14814814814814
80111,Arapahoe County,CO,NA,NA,NA,86.38426626323752,NA
80120,Arapahoe County,CO,NA,NA,NA,NA,48.333333333333336
80123,Jefferson County,CO,58.366533864541836,NA,NA,NA,NA
80129,Douglas County,CO,56.573705179282875,NA,NA,NA,NA
80204,Denver County,CO,NA,NA,74.31693989071039,NA,NA
80210,Denver County,CO,55.77689243027888,NA,NA,NA,NA
80221,Adams County,CO,NA,16.19718309859155,NA,NA,NA
80229,Adams County,CO,NA,18.661971830985916,NA,91.98184568835099,NA
80233,Adams County,CO,NA,NA,24.772313296903462,NA,NA
80234,Adams County,CO,NA,67.25352112676056,NA,NA,NA
80301,Boulder County,CO,NA,NA,NA,NA,55.55555555555556
80401,Jefferson County,CO,NA,NA,NA,50.378214826021186,NA
80403,Jefferson County,CO,NA,NA,88.34244080145719,NA,NA
80439,Jefferson County,CO,NA,NA,NA,89.25869894099849,NA
80503,Boulder County,CO,65.33864541832669,NA,68.30601092896174,54.311649016641454,NA
80525,Larimer County,CO,NA,NA,14.754098360655737,NA,NA
80537,Larimer County,CO,29.681274900398407,NA,NA,NA,76.85185185185185
80538,Larimer County,CO,NA,NA,11.657559198542804,NA,NA
80550,Weld County,CO,NA,NA,NA,NA,50
80621,Weld County,CO,NA,NA,NA,93.79727685325264,95.18518518518519
80631,Weld County,CO,6.175298804780876,NA,NA,NA,NA
80701,Morgan County,CO,69.32270916334662,NA,NA,45.537065052950076,NA
80758,Yuma County,CO,NA,NA,97.0856102003643,NA,NA
80905,El Paso County,CO,NA,NA,NA,77.60968229954615,NA
80906,El Paso County,CO,NA,NA,NA,40.69591527987897,NA
80920,El Paso County,CO,NA,NA,NA,60.816944024205746,NA
80922,El Paso County,CO,NA,NA,NA,76.85325264750378,NA
81001,Pueblo County,CO,NA,NA,NA,43.872919818456886,NA
81008,Pueblo County,CO,NA,NA,NA,NA,97.03703703703704
81067,Otero County,CO,NA,NA,NA,NA,93.33333333333333
81413,Delta County,CO,NA,NA,NA,NA,99.44444444444444
81520,Mesa County,CO,41.235059760956176,NA,NA,NA,NA
81631,Eagle County,CO,NA,NA,NA,100,NA
06010,Hartford County,CT,NA,15.492957746478872,NA,82.45083207261725,NA
06019,Hartford County,CT,74.5019920318725,NA,NA,NA,NA
06051,Hartford County,CT,NA,NA,3.4608378870673953,NA,NA
06053,Hartford County,CT,NA,12.676056338028168,NA,NA,NA
06066,Tolland County,CT,34.26294820717131,NA,NA,NA,NA
06074,Hartford County,CT,NA,NA,57.01275045537341,NA,NA
06118,Hartford County,CT,NA,NA,NA,37.21633888048411,NA
06119,Hartford County,CT,86.65338645418326,NA,NA,NA,NA
06226,Windham County,CT,NA,NA,NA,45.08320726172466,NA
06238,Tolland County,CT,NA,NA,70.85610200364299,NA,NA
06249,New London County,CT,89.8406374501992,NA,NA,NA,NA
06260,Windham County,CT,NA,NA,65.93806921675774,NA,NA
06401,New Haven County,CT,NA,71.47887323943662,NA,NA,NA
06424,Middlesex County,CT,66.33466135458167,NA,NA,NA,NA
06460,New Haven County,CT,NA,NA,28.051001821493628,NA,NA
06473,New Haven County,CT,51.39442231075697,NA,NA,NA,NA
06475,Middlesex County,CT,NA,NA,NA,NA,47.77777777777778
06479,Hartford County,CT,NA,NA,NA,NA,74.25925925925925
06492,New Haven County,CT,NA,NA,54.644808743169406,NA,NA
06513,New Haven County,CT,NA,NA,NA,7.110438729198185,57.77777777777777
06519,New Haven County,CT,NA,41.54929577464789,NA,NA,NA
06614,Fairfield County,CT,NA,NA,59.38069216757741,33.28290468986384,NA
06704,New Haven County,CT,NA,33.098591549295776,NA,NA,NA
06708,New Haven County,CT,26.49402390438247,NA,21.311475409836063,NA,NA
06824,Fairfield County,CT,88.04780876494024,NA,NA,73.82753403933434,NA
06825,Fairfield County,CT,NA,70.07042253521126,NA,NA,NA
06830,Fairfield County,CT,NA,NA,NA,83.96369137670196,NA
06883,Fairfield County,CT,90.2390438247012,NA,NA,NA,NA
19702,New Castle County,DE,NA,NA,14.389799635701275,NA,NA
19709,New Castle County,DE,79.6812749003984,NA,NA,NA,28.14814814814815
19720,New Castle County,DE,NA,18.30985915492958,2.3679417122040074,NA,NA
19734,New Castle County,DE,NA,NA,NA,NA,86.85185185185185
19810,New Castle County,DE,33.266932270916335,NA,NA,NA,NA
19904,Kent County,DE,NA,NA,NA,14.977307110438728,NA
19945,Sussex County,DE,79.08366533864542,NA,NA,NA,NA
19952,Kent County,DE,NA,NA,83.60655737704919,NA,NA
19953,Kent County,DE,95.81673306772909,NA,NA,NA,NA
19956,Sussex County,DE,NA,53.87323943661971,NA,NA,NA
19958,Sussex County,DE,NA,NA,68.85245901639344,NA,NA
19963,Sussex County,DE,34.66135458167331,NA,NA,NA,NA
19968,Sussex County,DE,NA,NA,NA,NA,72.5925925925926
32043,Clay County,FL,NA,NA,NA,NA,50.92592592592593
32054,Union County,FL,60.3585657370518,NA,NA,79.72768532526476,NA
32063,Baker County,FL,56.97211155378486,NA,NA,NA,NA
32082,St. Johns County,FL,NA,NA,NA,30.862329803328294,NA
32084,St. Johns County,FL,NA,NA,NA,63.54009077155824,NA
32168,Volusia County,FL,NA,NA,NA,NA,28.333333333333332
32174,Volusia County,FL,NA,NA,NA,NA,6.851851851851852
32206,Duval County,FL,NA,46.83098591549296,NA,NA,NA
32207,Duval County,FL,NA,NA,NA,NA,54.629629629629626
32208,Duval County,FL,NA,NA,0.9107468123861567,NA,NA
32209,Duval County,FL,6.772908366533864,NA,4.189435336976321,13.464447806354011,NA
32223,Duval County,FL,NA,NA,NA,NA,49.629629629629626
32226,Duval County,FL,NA,NA,NA,NA,78.70370370370371
32244,Duval County,FL,NA,NA,NA,42.96520423600605,NA
32250,Duval County,FL,NA,NA,61.384335154826964,NA,NA
32256,Duval County,FL,NA,NA,30.783242258652095,NA,NA
32277,Duval County,FL,NA,NA,21.493624772313296,NA,NA
32303,Leon County,FL,NA,NA,NA,NA,55.37037037037037
32331,Madison County,FL,NA,NA,NA,NA,100
32340,Madison County,FL,NA,NA,NA,96.06656580937972,NA
32413,Bay County,FL,NA,NA,77.23132969034609,NA,NA
32433,Walton County,FL,NA,NA,60.83788706739527,NA,66.66666666666666
32505,Escambia County,FL,NA,NA,NA,8.472012102874432,NA
32507,Escambia County,FL,NA,NA,NA,NA,14.25925925925926
32514,Escambia County,FL,NA,NA,NA,NA,6.666666666666667
32536,Okaloosa County,FL,NA,NA,NA,24.508320726172467,NA
32561,Santa Rosa County,FL,NA,NA,NA,79.4251134644478,NA
32563,Santa Rosa County,FL,27.490039840637447,NA,NA,NA,NA
32571,Santa Rosa County,FL,36.65338645418327,NA,NA,NA,NA
32607,Alachua County,FL,16.93227091633466,NA,NA,NA,NA
32608,Alachua County,FL,NA,NA,NA,NA,63.888888888888886
32615,Alachua County,FL,14.342629482071715,NA,NA,NA,NA
32621,Levy County,FL,NA,85.56338028169014,NA,NA,NA
32703,Orange County,FL,NA,NA,21.67577413479053,NA,NA
32708,Seminole County,FL,NA,NA,NA,NA,24.25925925925926
32712,Orange County,FL,NA,46.12676056338028,NA,34.190620272314675,NA
32714,Seminole County,FL,NA,NA,NA,65.35552193645991,NA
32763,Volusia County,FL,NA,NA,62.11293260473588,NA,NA
32804,Orange County,FL,NA,NA,NA,72.91981845688352,NA
32805,Orange County,FL,NA,NA,NA,44.024205748865356,NA
32808,Orange County,FL,NA,NA,45.173041894353375,NA,NA
32839,Orange County,FL,NA,20.774647887323944,NA,NA,NA
32934,Brevard County,FL,NA,NA,NA,57.337367624810895,NA
33029,Broward County,FL,NA,NA,NA,NA,51.11111111111111
33030,Miami-Dade County,FL,NA,27.816901408450708,NA,NA,NA
33060,Broward County,FL,NA,NA,NA,NA,34.629629629629626
33068,Broward County,FL,NA,23.943661971830984,NA,NA,NA
33125,Miami-Dade County,FL,17.330677290836654,NA,NA,36.7624810892587,NA
33138,Miami-Dade County,FL,94.42231075697211,NA,NA,NA,NA
33140,Miami-Dade County,FL,NA,NA,NA,NA,21.666666666666668
33143,Miami-Dade County,FL,NA,NA,NA,NA,42.592592592592595
33146,Miami-Dade County,FL,NA,NA,NA,NA,80.55555555555556
33160,Miami-Dade County,FL,NA,94.71830985915493,NA,NA,NA
33175,Miami-Dade County,FL,NA,52.46478873239436,NA,NA,NA
33178,Miami-Dade County,FL,NA,NA,75.0455373406193,NA,NA
33182,Miami-Dade County,FL,81.07569721115537,NA,NA,NA,NA
33186,Miami-Dade County,FL,NA,43.66197183098591,NA,NA,NA
33196,Miami-Dade County,FL,NA,34.50704225352113,NA,NA,NA
33301,Broward County,FL,NA,NA,NA,68.22995461422087,NA
33313,Broward County,FL,NA,NA,NA,41.14977307110439,NA
33322,Broward County,FL,NA,NA,NA,NA,10.555555555555555
33323,Broward County,FL,NA,NA,NA,75.94553706505295,NA
33326,Broward County,FL,NA,76.05633802816901,NA,NA,NA
33327,Broward County,FL,78.28685258964143,NA,NA,NA,NA
33410,Palm Beach County,FL,NA,NA,NA,NA,31.11111111111111
33435,Palm Beach County,FL,NA,NA,NA,56.278366111951584,NA
33463,Palm Beach County,FL,NA,NA,48.998178506375226,NA,NA
33469,Palm Beach County,FL,NA,NA,99.08925318761385,NA,NA
33477,Palm Beach County,FL,NA,NA,NA,NA,75
33487,Palm Beach County,FL,NA,NA,NA,42.208774583963695,NA
33496,Palm Beach County,FL,NA,NA,NA,40.544629349470505,NA
33511,Hillsborough County,FL,NA,NA,NA,26.928895612708022,NA
33541,Pasco County,FL,NA,NA,NA,NA,58.14814814814815
33563,Hillsborough County,FL,NA,NA,48.08743169398907,NA,NA
33603,Hillsborough County,FL,NA,NA,62.295081967213115,NA,NA
33606,Hillsborough County,FL,80.0796812749004,NA,NA,NA,NA
33607,Hillsborough County,FL,NA,NA,51.001821493624774,NA,NA
33617,Hillsborough County,FL,NA,54.929577464788736,NA,NA,NA
33703,Pinellas County,FL,NA,NA,NA,NA,56.2962962962963
33710,Pinellas County,FL,NA,NA,NA,NA,40.925925925925924
33771,Pinellas County,FL,NA,NA,NA,33.58547655068079,NA
33825,Highlands County,FL,NA,NA,NA,14.674735249621785,NA
33852,Highlands County,FL,NA,NA,NA,17.700453857791228,NA
33875,Highlands County,FL,NA,NA,89.25318761384335,NA,NA
33880,Polk County,FL,NA,NA,NA,NA,27.22222222222222
33905,Lee County,FL,NA,NA,NA,23.903177004538577,NA
33912,Lee County,FL,NA,NA,NA,NA,18.703703703703702
33917,Lee County,FL,43.42629482071713,NA,NA,NA,NA
33950,Charlotte County,FL,NA,NA,NA,NA,23.88888888888889
33971,Lee County,FL,NA,NA,57.92349726775956,NA,NA
33974,Lee County,FL,NA,NA,NA,NA,96.66666666666667
33990,Lee County,FL,54.18326693227091,NA,NA,NA,NA
34103,Collier County,FL,NA,NA,NA,67.62481089258698,NA
34113,Collier County,FL,NA,NA,82.69581056466302,83.8124054462935,NA
34117,Collier County,FL,NA,NA,NA,77.00453857791226,NA
34145,Collier County,FL,NA,NA,NA,NA,27.40740740740741
34203,Manatee County,FL,NA,NA,55.73770491803278,NA,NA
34207,Manatee County,FL,NA,61.267605633802816,55.19125683060109,NA,NA
34208,Manatee County,FL,NA,NA,NA,NA,63.14814814814815
34219,Manatee County,FL,NA,NA,NA,86.38426626323752,NA
34228,Sarasota County,FL,NA,NA,NA,90.16641452344932,NA
34238,Sarasota County,FL,NA,NA,NA,39.03177004538578,NA
34287,Sarasota County,FL,NA,NA,NA,29.046898638426626,NA
34292,Sarasota County,FL,NA,NA,NA,NA,10.925925925925926
34293,Sarasota County,FL,NA,NA,NA,NA,43.7037037037037
34446,Citrus County,FL,NA,NA,83.06010928961749,NA,NA
34448,Citrus County,FL,NA,97.88732394366197,NA,NA,NA
34476,Marion County,FL,NA,NA,NA,38.57791225416036,NA
34604,Hernando County,FL,NA,NA,79.78142076502732,NA,NA
34610,Pasco County,FL,NA,88.38028169014085,NA,NA,NA
34711,Lake County,FL,29.482071713147413,NA,NA,NA,NA
34741,Osceola County,FL,49.40239043824701,19.366197183098592,NA,NA,NA
34744,Osceola County,FL,NA,90.84507042253522,NA,NA,NA
34758,Osceola County,FL,NA,17.253521126760564,NA,NA,NA
34786,Orange County,FL,NA,NA,58.1056466302368,NA,NA
34950,St. Lucie County,FL,NA,NA,53.00546448087432,NA,NA
34956,Martin County,FL,NA,73.59154929577466,NA,NA,NA
34974,Okeechobee County,FL,NA,NA,NA,39.93948562783661,NA
34983,St. Lucie County,FL,NA,NA,NA,64.2965204236006,NA
34986,St. Lucie County,FL,NA,NA,NA,22.995461422087747,NA
34996,Martin County,FL,NA,NA,NA,NA,26.111111111111114
30004,Fulton County,GA,NA,NA,NA,35.854765506807865,77.22222222222223
30005,Fulton County,GA,32.27091633466135,NA,NA,NA,NA
30013,Rockdale County,GA,NA,NA,NA,61.11951588502269,NA
30016,Newton County,GA,NA,NA,63.57012750455373,NA,NA
30017,Gwinnett County,GA,27.091633466135455,NA,NA,NA,NA
30022,Fulton County,GA,37.84860557768924,NA,NA,NA,NA
30024,Gwinnett County,GA,NA,NA,20.21857923497268,23.44931921331316,NA
30025,Walton County,GA,NA,NA,NA,NA,98.14814814814815
30032,DeKalb County,GA,NA,NA,12.386156648451731,NA,NA
30033,DeKalb County,GA,NA,NA,84.15300546448088,NA,NA
30041,Forsyth County,GA,42.430278884462155,NA,NA,NA,NA
30043,Gwinnett County,GA,NA,NA,NA,47.95763993948563,45.925925925925924
30047,Gwinnett County,GA,NA,NA,NA,24.659606656580937,NA
30052,Walton County,GA,NA,NA,NA,NA,61.66666666666667
30058,DeKalb County,GA,NA,NA,19.672131147540984,NA,NA
30064,Cobb County,GA,NA,75,NA,NA,NA
30068,Cobb County,GA,45.81673306772908,NA,NA,NA,NA
30082,Cobb County,GA,61.55378486055777,NA,NA,NA,NA
30087,DeKalb County,GA,NA,NA,NA,19.818456883509832,NA
30092,Gwinnett County,GA,NA,NA,64.11657559198542,NA,NA
30101,Cobb County,GA,48.60557768924303,NA,NA,NA,NA
30114,Cherokee County,GA,NA,NA,69.39890710382514,NA,36.851851851851855
30115,Cherokee County,GA,40.83665338645419,NA,NA,NA,NA
30125,Polk County,GA,NA,NA,NA,NA,38.333333333333336
30132,Paulding County,GA,NA,NA,NA,37.065052950075646,NA
30145,Bartow County,GA,NA,NA,88.16029143897997,NA,NA
30161,Floyd County,GA,NA,40.845070422535215,NA,NA,NA
30179,Carroll County,GA,64.34262948207171,NA,NA,NA,NA
30180,Carroll County,GA,8.366533864541832,NA,NA,NA,NA
30214,Fayette County,GA,68.92430278884463,NA,NA,NA,NA
30236,Clayton County,GA,NA,NA,29.508196721311474,NA,NA
30265,Coweta County,GA,NA,NA,NA,41.14977307110439,NA
30281,Henry County,GA,NA,NA,24.408014571949,NA,45.18518518518518
30329,DeKalb County,GA,NA,NA,NA,NA,68.51851851851852
30331,Fulton County,GA,NA,NA,16.57559198542805,NA,NA
30340,DeKalb County,GA,55.97609561752988,NA,NA,NA,90.37037037037037
30341,DeKalb County,GA,NA,NA,NA,97.88199697428139,NA
30513,Fannin County,GA,NA,NA,NA,NA,71.11111111111111
30519,Gwinnett County,GA,40.63745019920319,NA,NA,32.37518910741301,NA
30521,Franklin County,GA,NA,NA,NA,94.25113464447806,NA
30525,Rabun County,GA,78.28685258964143,NA,NA,NA,NA
30548,Jackson County,GA,NA,NA,NA,NA,65
30554,Hall County,GA,NA,NA,NA,94.40242057488653,NA
30560,Fannin County,GA,NA,NA,NA,NA,93.33333333333333
30563,Habersham County,GA,NA,93.66197183098592,NA,NA,NA
30606,Clarke County,GA,NA,NA,NA,25.56732223903177,NA
30642,Greene County,GA,NA,NA,81.4207650273224,NA,NA
30656,Walton County,GA,NA,NA,65.7559198542805,NA,NA
30680,Barrow County,GA,NA,NA,NA,22.239031770045386,NA
30701,Gordon County,GA,NA,NA,NA,NA,51.2962962962963
30705,Murray County,GA,NA,51.40845070422535,NA,NA,NA
30736,Catoosa County,GA,NA,NA,NA,18.305597579425115,NA
30824,McDuffie County,GA,NA,NA,NA,NA,80.37037037037037
30906,Richmond County,GA,NA,NA,NA,4.689863842662632,NA
30909,Richmond County,GA,NA,NA,NA,15.582450832072617,NA
31088,Houston County,GA,NA,66.54929577464789,NA,20.12102874432678,NA
31210,Bibb County,GA,63.94422310756972,NA,NA,NA,NA
31305,McIntosh County,GA,NA,NA,NA,96.2178517397882,NA
31401,Chatham County,GA,NA,82.04225352112677,NA,NA,NA
31406,Chatham County,GA,NA,NA,NA,NA,29.074074074074076
31601,Lowndes County,GA,NA,NA,NA,36.61119515885023,NA
31643,Brooks County,GA,NA,NA,NA,81.54311649016641,NA
31794,Tift County,GA,NA,NA,NA,NA,39.25925925925926
96706,Honolulu County,HI,NA,NA,10.746812386156648,10.59001512859304,NA
96720,Hawaii County,HI,NA,NA,NA,NA,31.296296296296294
96738,Hawaii County,HI,NA,NA,95.26411657559198,NA,NA
96744,Honolulu County,HI,NA,60.56338028169014,NA,NA,1.6666666666666667
96750,Hawaii County,HI,NA,NA,NA,NA,99.62962962962963
96771,Hawaii County,HI,96.21513944223108,NA,NA,NA,NA
96782,Honolulu County,HI,46.41434262948207,NA,NA,NA,9.444444444444445
96822,Honolulu County,HI,NA,NA,NA,NA,8.333333333333332
83301,Twin Falls County,ID,40.438247011952186,NA,NA,NA,NA
83402,Bonneville County,ID,NA,NA,NA,NA,60.370370370370374
83440,Madison County,ID,NA,NA,NA,71.70953101361573,NA
83605,Canyon County,ID,NA,NA,NA,NA,37.96296296296296
83607,Canyon County,ID,NA,NA,NA,31.61875945537065,NA
83616,Ada County,ID,NA,NA,NA,8.623298033282904,NA
83638,Valley County,ID,NA,NA,NA,75.79425113464447,NA
83651,Canyon County,ID,NA,NA,NA,9.833585476550681,NA
83660,Canyon County,ID,NA,NA,85.97449908925319,NA,NA
83686,Canyon County,ID,NA,NA,NA,3.7821482602118004,NA
83702,Ada County,ID,80.67729083665338,NA,NA,NA,NA
83814,Kootenai County,ID,73.10756972111554,NA,NA,NA,NA
83843,Latah County,ID,NA,NA,NA,NA,63.14814814814815
83854,Kootenai County,ID,NA,NA,86.88524590163934,NA,NA
83864,Bonner County,ID,NA,NA,72.49544626593807,NA,52.03703703703704
60005,Cook County,IL,52.589641434262944,NA,NA,73.07110438729198,NA
60030,Lake County,IL,NA,NA,NA,59.60665658093798,NA
60033,McHenry County,IL,NA,NA,NA,91.37670196671709,NA
60045,Lake County,IL,75.0996015936255,NA,NA,NA,NA
60047,Lake County,IL,27.689243027888445,NA,NA,NA,NA
60048,Lake County,IL,NA,NA,NA,62.02723146747352,NA
60060,Lake County,IL,NA,NA,48.26958105646631,NA,NA
60062,Cook County,IL,NA,NA,NA,29.34947049924357,0.3703703703703704
60074,Cook County,IL,NA,NA,39.89071038251366,NA,NA
60091,Cook County,IL,NA,NA,NA,NA,13.518518518518519
60093,Cook County,IL,45.81673306772908,NA,NA,NA,NA
60104,Cook County,IL,NA,NA,NA,NA,69.81481481481482
60106,DuPage County,IL,88.84462151394422,NA,NA,NA,NA
60107,Cook County,IL,NA,NA,NA,38.57791225416036,NA
60115,DeKalb County,IL,NA,NA,38.069216757741344,NA,NA
60123,Kane County,IL,NA,NA,NA,NA,17.59259259259259
60126,DuPage County,IL,49.40239043824701,NA,9.65391621129326,NA,NA
60155,Cook County,IL,NA,NA,NA,64.90166414523449,73.88888888888889
60188,DuPage County,IL,NA,NA,NA,NA,36.666666666666664
60193,Cook County,IL,NA,NA,NA,NA,27.962962962962962
60194,Cook County,IL,NA,NA,NA,57.791225416036305,NA
60201,Cook County,IL,87.05179282868527,NA,NA,NA,NA
60302,Cook County,IL,NA,NA,NA,13.615733736762481,NA
60409,Cook County,IL,NA,NA,NA,32.677760968229954,NA
60435,Will County,IL,NA,NA,NA,NA,16.296296296296298
60441,Will County,IL,54.38247011952191,NA,NA,26.928895612708022,NA
60442,Will County,IL,NA,NA,NA,82.29954614220878,NA
60451,Will County,IL,NA,NA,NA,14.22087745839637,NA
60456,Cook County,IL,NA,NA,NA,NA,90.92592592592592
60463,Cook County,IL,NA,NA,NA,46.29349470499244,NA
60467,Cook County,IL,NA,NA,NA,25.264750378214828,NA
60491,Will County,IL,24.900398406374503,NA,NA,NA,NA
60502,DuPage County,IL,NA,NA,52.64116575591985,NA,NA
60525,Cook County,IL,10.756972111553784,NA,NA,NA,NA
60538,Kendall County,IL,NA,NA,61.20218579234973,NA,NA
60543,Kendall County,IL,16.533864541832667,NA,NA,NA,NA
60545,Kendall County,IL,NA,NA,NA,79.87897125567322,NA
60560,Kendall County,IL,NA,NA,42.62295081967213,NA,NA
60564,Will County,IL,18.326693227091635,NA,NA,NA,NA
60609,Cook County,IL,17.52988047808765,NA,NA,NA,NA
60610,Cook County,IL,NA,NA,NA,NA,19.074074074074073
60612,Cook County,IL,20.318725099601593,NA,NA,NA,NA
60614,Cook County,IL,NA,NA,21.129326047358834,NA,NA
60626,Cook County,IL,NA,NA,NA,89.10741301059002,NA
60629,Cook County,IL,13.745019920318724,NA,NA,NA,NA
60632,Cook County,IL,NA,NA,12.750455373406194,NA,NA
60634,Cook County,IL,68.52589641434263,NA,NA,NA,NA
60638,Cook County,IL,63.54581673306773,NA,NA,NA,NA
60640,Cook County,IL,28.286852589641438,NA,NA,NA,NA
60643,Cook County,IL,NA,NA,8.378870673952642,NA,NA
60644,Cook County,IL,19.12350597609562,NA,NA,NA,NA
60646,Cook County,IL,46.21513944223107,NA,NA,NA,NA
60649,Cook County,IL,NA,NA,NA,6.656580937972769,NA
60655,Cook County,IL,NA,NA,NA,31.61875945537065,NA
60707,Cook County,IL,26.294820717131472,NA,NA,NA,NA
61071,Whiteside County,IL,NA,NA,23.861566484517304,NA,NA
61073,Winnebago County,IL,NA,NA,NA,39.636913767019664,NA
61081,Whiteside County,IL,NA,NA,NA,14.37216338880484,NA
61107,Winnebago County,IL,NA,NA,43.89799635701275,NA,NA
61108,Winnebago County,IL,38.645418326693225,NA,NA,NA,NA
61264,Rock Island County,IL,NA,NA,NA,83.05597579425114,NA
61356,Bureau County,IL,55.57768924302788,NA,NA,NA,NA
61525,Peoria County,IL,NA,NA,NA,NA,93.14814814814815
61611,Tazewell County,IL,NA,NA,NA,41.75491679273828,NA
61615,Peoria County,IL,NA,NA,NA,NA,53.888888888888886
61761,McLean County,IL,NA,NA,36.97632058287796,NA,NA
61801,Champaign County,IL,NA,NA,NA,NA,47.592592592592595
61822,Champaign County,IL,NA,NA,NA,NA,20.925925925925924
61832,Vermilion County,IL,NA,NA,NA,NA,5.9259259259259265
61910,Douglas County,IL,100,NA,NA,NA,NA
62025,Madison County,IL,NA,NA,NA,NA,25.185185185185183
62040,Madison County,IL,NA,NA,19.30783242258652,NA,NA
62220,St. Clair County,IL,NA,NA,NA,71.86081694402421,NA
62226,St. Clair County,IL,47.808764940239044,NA,NA,NA,NA
62231,Clinton County,IL,NA,NA,NA,NA,57.03703703703704
62269,St. Clair County,IL,NA,NA,NA,NA,35.74074074074074
62274,Perry County,IL,NA,NA,NA,NA,84.62962962962963
62298,Monroe County,IL,NA,NA,NA,64.2965204236006,NA
62401,Effingham County,IL,NA,NA,NA,NA,31.851851851851855
62801,Marion County,IL,NA,NA,50.45537340619308,NA,NA
62863,Wabash County,IL,NA,NA,NA,NA,32.77777777777778
62930,Saline County,IL,NA,NA,97.81420765027322,NA,NA
62966,Jackson County,IL,NA,NA,NA,47.655068078668684,NA
46016,Madison County,IN,NA,NA,13.661202185792352,NA,NA
46037,Hamilton County,IN,NA,NA,69.2167577413479,NA,NA
46060,Hamilton County,IN,32.07171314741036,NA,NA,NA,NA
46062,Hamilton County,IN,NA,NA,NA,NA,44.81481481481481
46074,Hamilton County,IN,NA,78.87323943661971,NA,NA,NA
46123,Hendricks County,IN,36.65338645418327,NA,NA,NA,NA
46131,Johnson County,IN,NA,NA,NA,25.86989409984871,NA
46140,Hancock County,IN,30.278884462151396,NA,NA,NA,NA
46151,Morgan County,IN,NA,NA,NA,19.36459909228442,28.703703703703702
46158,Morgan County,IN,NA,82.3943661971831,NA,NA,NA
46176,Shelby County,IN,33.66533864541832,NA,NA,NA,NA
46218,Marion County,IN,NA,21.12676056338028,NA,NA,NA
46220,Marion County,IN,67.52988047808765,NA,NA,NA,NA
46231,Marion County,IN,NA,NA,98.54280510018215,NA,NA
46260,Marion County,IN,NA,NA,NA,NA,39.44444444444444
46303,Lake County,IN,NA,NA,NA,41.6036308623298,NA
46307,Lake County,IN,NA,NA,NA,1.361573373676248,NA
46350,LaPorte County,IN,NA,NA,NA,NA,54.074074074074076
46356,Lake County,IN,27.689243027888445,NA,NA,NA,NA
46360,LaPorte County,IN,NA,NA,6.0109289617486334,NA,NA
46375,Lake County,IN,7.370517928286853,NA,NA,NA,NA
46383,Porter County,IN,NA,NA,NA,NA,12.037037037037036
46405,Lake County,IN,NA,NA,NA,NA,92.77777777777779
46406,Lake County,IN,NA,NA,NA,NA,77.4074074074074
46410,Lake County,IN,NA,NA,7.103825136612022,NA,NA
46507,Elkhart County,IN,NA,NA,NA,87.14069591527988,NA
46530,St. Joseph County,IN,NA,NA,NA,65.9606656580938,NA
46580,Kosciusko County,IN,53.58565737051792,NA,NA,NA,30.185185185185187
46706,DeKalb County,IN,NA,NA,44.80874316939891,NA,32.96296296296296
46723,Whitley County,IN,NA,NA,NA,74.13010590015129,NA
46733,Adams County,IN,NA,NA,40.619307832422585,NA,44.44444444444444
46755,Noble County,IN,NA,NA,25.865209471766846,37.67019667170953,NA
46819,Allen County,IN,72.31075697211156,NA,87.97814207650273,NA,NA
46901,Howard County,IN,NA,NA,1.639344262295082,NA,NA
46902,Howard County,IN,1.593625498007968,NA,NA,3.177004538577912,NA
46962,Wabash County,IN,NA,NA,94.89981785063752,NA,NA
46970,Miami County,IN,NA,40.49295774647887,NA,NA,NA
47025,Dearborn County,IN,NA,NA,NA,81.84568835098335,NA
47130,Clark County,IN,10.159362549800797,NA,NA,NA,NA
47150,Floyd County,IN,NA,NA,NA,NA,22.407407407407405
47172,Clark County,IN,NA,NA,NA,65.80937972768533,NA
47201,Bartholomew County,IN,NA,51.40845070422535,NA,NA,NA
47203,Bartholomew County,IN,NA,NA,NA,NA,11.851851851851853
47274,Jackson County,IN,19.721115537848604,NA,NA,NA,NA
47302,Delaware County,IN,NA,NA,17.304189435336976,NA,NA
47331,Fayette County,IN,NA,NA,NA,11.800302571860817,NA
47362,Henry County,IN,NA,NA,NA,NA,39.81481481481482
47371,Jay County,IN,NA,NA,NA,31.46747352496218,NA
47374,Wayne County,IN,NA,NA,4.553734061930783,NA,NA
47454,Orange County,IN,NA,NA,NA,96.67170953101362,NA
47665,Gibson County,IN,98.00796812749005,NA,NA,NA,NA
47805,Vigo County,IN,NA,NA,NA,75.34039334341907,NA
47879,Sullivan County,IN,90.83665338645417,NA,NA,NA,NA
47885,Vigo County,IN,NA,NA,85.24590163934425,NA,NA
47904,Tippecanoe County,IN,NA,NA,NA,75.03782148260211,NA
47933,Montgomery County,IN,NA,58.098591549295776,NA,NA,NA
47951,Newton County,IN,95.2191235059761,NA,NA,NA,NA
50021,Polk County,IA,NA,96.47887323943662,NA,NA,NA
50036,Boone County,IA,NA,NA,NA,NA,22.037037037037038
50158,Marshall County,IA,NA,62.323943661971825,NA,NA,NA
50310,Polk County,IA,NA,NA,53.73406193078324,NA,NA
50311,Polk County,IA,NA,NA,NA,86.68683812405446,NA
50317,Polk County,IA,18.326693227091635,NA,NA,NA,NA
50323,Dallas County,IA,75.4980079681275,NA,NA,NA,NA
50613,Black Hawk County,IA,NA,NA,NA,10.741301059001513,NA
50701,Black Hawk County,IA,NA,NA,NA,23.751891074130103,NA
51031,Plymouth County,IA,NA,NA,NA,NA,49.81481481481482
51501,Pottawattamie County,IA,NA,NA,3.096539162112933,NA,NA
51503,Pottawattamie County,IA,NA,NA,NA,NA,80.18518518518518
51534,Mills County,IA,84.66135458167331,NA,NA,NA,NA
51560,Pottawattamie County,IA,85.85657370517929,NA,NA,NA,NA
51601,Page County,IA,66.13545816733067,NA,NA,NA,NA
52246,Johnson County,IA,33.66533864541832,NA,NA,NA,92.03703703703704
52403,Linn County,IA,NA,NA,NA,40.39334341906203,NA
52405,Linn County,IA,58.964143426294825,NA,NA,NA,NA
52544,Appanoose County,IA,NA,NA,40.43715846994536,NA,NA
52601,Des Moines County,IA,50.199203187250994,NA,NA,NA,NA
52722,Scott County,IA,NA,NA,NA,28.139183055975792,NA
52732,Clinton County,IA,44.42231075697211,NA,NA,NA,NA
52772,Cedar County,IA,NA,NA,NA,97.57942511346445,NA
66049,Douglas County,KS,NA,NA,58.1056466302368,NA,NA
66202,Johnson County,KS,73.70517928286853,NA,NA,NA,NA
66220,Johnson County,KS,NA,NA,NA,92.28441754916793,NA
66227,Johnson County,KS,NA,NA,NA,98.78971255673223,NA
66606,Shawnee County,KS,NA,NA,84.8816029143898,NA,NA
66614,Shawnee County,KS,65.73705179282868,NA,NA,NA,NA
66762,Crawford County,KS,NA,NA,NA,NA,57.592592592592595
67030,Sedgwick County,KS,99.60159362549801,NA,NA,NA,NA
67147,Sedgwick County,KS,NA,NA,NA,NA,95.74074074074073
67206,Sedgwick County,KS,NA,NA,NA,84.56883509833585,NA
67216,Sedgwick County,KS,NA,NA,91.43897996357013,NA,NA
67456,McPherson County,KS,NA,NA,90.89253187613843,NA,NA
67460,McPherson County,KS,61.55378486055777,NA,NA,NA,NA
67601,Ellis County,KS,NA,NA,NA,NA,5.555555555555555
67740,Sheridan County,KS,89.8406374501992,NA,NA,NA,NA
67877,Haskell County,KS,99.40239043824701,NA,NA,NA,NA
40013,Nelson County,KY,91.03585657370517,NA,NA,NA,NA
40014,Oldham County,KY,NA,NA,NA,87.29198184568835,NA
40031,Oldham County,KY,NA,NA,30.418943533697636,NA,NA
40059,Jefferson County,KY,NA,NA,NA,65.20423600605145,NA
40065,Shelby County,KY,NA,NA,38.43351548269581,NA,NA
40143,Breckinridge County,KY,84.06374501992032,NA,NA,NA,NA
40160,Hardin County,KY,NA,NA,NA,53.70650529500757,NA
40205,Jefferson County,KY,NA,NA,NA,NA,59.62962962962963
40211,Jefferson County,KY,NA,NA,40.98360655737705,NA,NA
40215,Jefferson County,KY,NA,NA,50.27322404371585,44.175491679273826,NA
40216,Jefferson County,KY,NA,NA,9.107468123861565,NA,NA
40229,Jefferson County,KY,NA,NA,11.293260473588344,18.608169440242055,NA
40241,Jefferson County,KY,NA,NA,50.81967213114754,NA,NA
40324,Scott County,KY,24.50199203187251,NA,NA,NA,NA
40336,Estill County,KY,NA,NA,54.826958105646625,NA,NA
40337,Montgomery County,KY,NA,NA,98.90710382513662,NA,NA
40353,Montgomery County,KY,NA,NA,NA,67.47352496217852,38.7037037037037
40380,Powell County,KY,75.89641434262948,NA,NA,NA,NA
40391,Clark County,KY,NA,NA,NA,NA,24.25925925925926
40422,Boyle County,KY,NA,NA,NA,49.016641452344935,NA
40475,Madison County,KY,NA,NA,7.832422586520947,NA,NA
40505,Fayette County,KY,NA,NA,NA,NA,58.7037037037037
40515,Fayette County,KY,NA,NA,NA,81.39183055975793,NA
40741,Laurel County,KY,35.657370517928285,NA,NA,NA,NA
41001,Campbell County,KY,NA,62.323943661971825,NA,NA,NA
41015,Kenton County,KY,NA,NA,NA,NA,37.592592592592595
41016,Kenton County,KY,NA,NA,NA,81.54311649016641,NA
41075,Campbell County,KY,NA,NA,NA,NA,59.81481481481481
41094,Boone County,KY,NA,NA,NA,68.6838124054463,NA
41101,Boyd County,KY,NA,NA,NA,17.549167927382754,NA
41102,Boyd County,KY,NA,NA,NA,87.5945537065053,NA
41139,Greenup County,KY,56.97211155378486,NA,NA,NA,NA
41514,Pike County,KY,84.86055776892431,NA,NA,NA,NA
41572,Pike County,KY,70.5179282868526,NA,NA,NA,NA
42029,Marshall County,KY,NA,NA,77.95992714025502,NA,NA
42086,McCracken County,KY,NA,NA,NA,95.15885022692889,NA
42101,Warren County,KY,9.760956175298805,NA,NA,NA,NA
42303,Daviess County,KY,15.139442231075698,NA,NA,54.76550680786687,19.62962962962963
42320,Ohio County,KY,NA,NA,NA,NA,50.74074074074074
42420,Henderson County,KY,NA,NA,NA,11.195158850226928,NA
42445,Caldwell County,KY,NA,NA,NA,64.75037821482601,NA
42503,Pulaski County,KY,NA,NA,NA,NA,68.14814814814815
42553,Pulaski County,KY,NA,NA,NA,84.56883509833585,NA
42642,Russell County,KY,NA,49.29577464788733,NA,NA,NA
42701,Hardin County,KY,NA,NA,60.4735883424408,NA,NA
42718,Taylor County,KY,NA,NA,12.2040072859745,8.018154311649017,NA
42724,Hardin County,KY,NA,NA,95.81056466302368,NA,NA
42726,Grayson County,KY,NA,88.73239436619718,NA,NA,NA
70001,Jefferson Parish,LA,NA,NA,4.007285974499089,NA,NA
70125,Orleans Parish,LA,NA,NA,NA,NA,84.44444444444444
70301,Lafourche Parish,LA,NA,NA,2.185792349726776,38.27534039334342,NA
70339,Assumption Parish,LA,NA,NA,78.87067395264117,NA,NA
70359,Terrebonne Parish,LA,NA,39.436619718309856,NA,NA,NA
70373,Lafourche Parish,LA,NA,NA,54.462659380692166,NA,NA
70426,Washington Parish,LA,NA,NA,NA,NA,83.51851851851852
70454,Tangipahoa Parish,LA,NA,NA,8.561020036429873,NA,NA
70458,St. Tammany Parish,LA,NA,48.59154929577465,NA,NA,NA
70460,St. Tammany Parish,LA,NA,2.112676056338028,NA,NA,NA
70510,Vermilion Parish,LA,2.788844621513944,NA,NA,NA,NA
70535,St. Landry Parish,LA,NA,25.352112676056336,NA,NA,28.888888888888886
70560,Iberia Parish,LA,NA,NA,45.3551912568306,NA,NA
70563,Iberia Parish,LA,NA,80.63380281690141,NA,NA,NA
70577,St. Landry Parish,LA,NA,NA,76.32058287795994,NA,NA
70601,Calcasieu Parish,LA,NA,52.816901408450704,NA,NA,NA
70615,Calcasieu Parish,LA,NA,NA,NA,68.6838124054463,NA
70633,Calcasieu Parish,LA,53.38645418326693,NA,NA,NA,NA
70663,Calcasieu Parish,LA,NA,NA,NA,20.423600605143722,NA
70726,Livingston Parish,LA,NA,NA,NA,NA,21.296296296296298
70734,Ascension Parish,LA,70.5179282868526,NA,NA,NA,NA
70739,East Baton Rouge Parish,LA,NA,NA,NA,67.17095310136158,NA
70785,Livingston Parish,LA,29.08366533864542,NA,NA,36.91376701966717,NA
70808,East Baton Rouge Parish,LA,21.91235059760956,NA,NA,NA,NA
70809,East Baton Rouge Parish,LA,39.6414342629482,NA,NA,NA,NA
70817,East Baton Rouge Parish,LA,3.5856573705179287,NA,NA,NA,NA
71040,Claiborne Parish,LA,NA,NA,NA,87.74583963691377,NA
71106,Caddo Parish,LA,NA,NA,NA,11.346444780635402,NA
71107,Caddo Parish,LA,NA,NA,98.36065573770492,NA,NA
71108,Caddo Parish,LA,NA,NA,NA,NA,94.44444444444444
71111,Bossier Parish,LA,NA,NA,NA,12.556732223903177,67.96296296296296
71115,Caddo Parish,LA,92.62948207171314,NA,NA,NA,73.33333333333333
71220,Morehouse Parish,LA,NA,NA,NA,43.72163388804841,NA
71292,Ouachita Parish,LA,NA,NA,38.79781420765027,NA,NA
71295,Franklin Parish,LA,NA,NA,NA,NA,42.22222222222222
71342,La Salle Parish,LA,NA,NA,NA,87.44326777609682,NA
71360,Rapides Parish,LA,NA,5.633802816901409,NA,NA,NA
71483,Winn Parish,LA,NA,NA,NA,NA,89.44444444444444
04009,Cumberland County,ME,NA,NA,75.77413479052824,NA,NA
04021,Cumberland County,ME,90.63745019920319,NA,NA,NA,NA
04086,Sagadahoc County,ME,NA,NA,NA,52.193645990922846,NA
04092,Cumberland County,ME,NA,NA,NA,NA,46.111111111111114
04105,Cumberland County,ME,NA,NA,NA,NA,92.22222222222223
04294,Franklin County,ME,77.88844621513944,NA,NA,NA,NA
04412,Penobscot County,ME,NA,NA,NA,NA,25.925925925925924
04530,Sagadahoc County,ME,NA,NA,NA,NA,60.370370370370374
04578,Lincoln County,ME,NA,NA,NA,93.04084720121028,NA
04769,Aroostook County,ME,37.05179282868526,NA,NA,NA,NA
04901,Kennebec County,ME,NA,NA,5.2823315118397085,NA,NA
04930,Penobscot County,ME,NA,NA,NA,83.96369137670196,NA
04976,Somerset County,ME,NA,NA,15.300546448087433,NA,NA
20650,St. Mary's County,MD,NA,NA,NA,86.08169440242057,NA
20659,St. Mary's County,MD,NA,NA,64.48087431693989,NA,NA
20715,Prince George's County,MD,49.00398406374502,NA,NA,NA,NA
20772,Prince George's County,MD,NA,NA,NA,NA,87.03703703703704
20782,Prince George's County,MD,NA,NA,84.3351548269581,NA,NA
20814,Montgomery County,MD,NA,NA,NA,NA,71.85185185185186
20815,Montgomery County,MD,NA,NA,83.60655737704919,NA,NA
20816,Montgomery County,MD,67.52988047808765,NA,NA,NA,NA
20854,Montgomery County,MD,NA,NA,NA,34.493192133131615,NA
20871,Montgomery County,MD,NA,NA,NA,89.86384266263238,NA
20895,Montgomery County,MD,NA,NA,NA,92.4357034795764,NA
20904,Montgomery County,MD,NA,NA,NA,NA,19.444444444444446
21001,Harford County,MD,NA,NA,NA,63.993948562783665,NA
21030,Baltimore County,MD,86.05577689243027,NA,NA,NA,NA
21042,Howard County,MD,59.16334661354582,NA,NA,NA,NA
21043,Howard County,MD,NA,NA,71.03825136612022,NA,NA
21122,Anne Arundel County,MD,8.764940239043826,NA,NA,NA,NA
21221,Baltimore County,MD,NA,NA,NA,20.423600605143722,NA
21228,Baltimore County,MD,NA,NA,NA,NA,10.185185185185185
21229,Baltimore city,MD,NA,NA,NA,18.910741301059,NA
21237,Baltimore County,MD,NA,NA,NA,NA,76.48148148148148
21286,Baltimore County,MD,NA,NA,NA,70.04538577912254,NA
21401,Anne Arundel County,MD,NA,NA,NA,NA,18.88888888888889
21617,Queen Anne's County,MD,72.11155378486056,NA,NA,NA,NA
21842,Worcester County,MD,NA,NA,NA,NA,46.666666666666664
21863,Worcester County,MD,NA,NA,NA,93.4947049924357,NA
21921,Cecil County,MD,NA,NA,13.843351548269581,NA,NA
01001,Hampden County,MA,71.51394422310757,NA,NA,NA,35.92592592592593
01005,Worcester County,MA,NA,NA,94.35336976320583,NA,NA
01013,Hampden County,MA,NA,NA,2.5500910746812386,12.859304084720122,NA
01075,Hampshire County,MA,NA,79.5774647887324,36.42987249544626,NA,NA
01085,Hampden County,MA,NA,NA,NA,16.792738275340394,NA
01089,Hampden County,MA,NA,NA,NA,28.44175491679274,NA
01104,Hampden County,MA,NA,NA,1.092896174863388,NA,NA
01301,Franklin County,MA,NA,NA,NA,NA,48.333333333333336
01451,Worcester County,MA,93.42629482071713,NA,NA,85.9304084720121,NA
01453,Worcester County,MA,7.569721115537849,NA,NA,NA,NA
01468,Worcester County,MA,NA,NA,NA,97.42813918305598,NA
01507,Worcester County,MA,33.266932270916335,NA,NA,NA,NA
01516,Worcester County,MA,NA,NA,31.329690346083787,NA,NA
01532,Worcester County,MA,58.56573705179283,NA,NA,NA,NA
01534,Worcester County,MA,91.43426294820716,NA,NA,NA,NA
01550,Worcester County,MA,NA,13.380281690140844,NA,NA,NA
01566,Worcester County,MA,NA,NA,NA,NA,86.48148148148148
01570,Worcester County,MA,NA,NA,4.371584699453552,NA,NA
01604,Worcester County,MA,NA,10.915492957746478,NA,1.8154311649016641,NA
01605,Worcester County,MA,NA,9.507042253521126,NA,NA,NA
01606,Worcester County,MA,NA,NA,NA,50.832072617246595,NA
01610,Worcester County,MA,NA,0.7042253521126761,NA,NA,NA
01720,Middlesex County,MA,NA,NA,32.05828779599271,NA,NA
01730,Middlesex County,MA,NA,NA,NA,51.8910741301059,NA
01742,Middlesex County,MA,22.111553784860558,NA,NA,NA,NA
01749,Middlesex County,MA,NA,NA,18.94353369763206,NA,NA
01752,Middlesex County,MA,NA,8.80281690140845,NA,NA,NA
01754,Middlesex County,MA,73.70517928286853,NA,NA,NA,NA
01760,Middlesex County,MA,NA,NA,NA,6.051437216338881,NA
01776,Middlesex County,MA,33.067729083665334,NA,41.712204007285976,NA,NA
01801,Middlesex County,MA,NA,NA,NA,NA,0.7407407407407408
01830,Essex County,MA,5.179282868525896,NA,NA,NA,NA
01835,Essex County,MA,NA,NA,30.05464480874317,NA,NA
01840,Essex County,MA,73.30677290836654,NA,NA,NA,NA
01841,Essex County,MA,NA,8.098591549295776,NA,NA,NA
01843,Essex County,MA,1.7928286852589643,NA,NA,NA,NA
01845,Essex County,MA,NA,24.647887323943664,NA,NA,NA
01854,Middlesex County,MA,NA,3.873239436619718,NA,NA,NA
01876,Middlesex County,MA,36.254980079681275,NA,NA,NA,NA
01880,Middlesex County,MA,NA,NA,NA,NA,45.370370370370374
01886,Middlesex County,MA,NA,NA,56.830601092896174,NA,NA
01890,Middlesex County,MA,18.92430278884462,NA,NA,NA,NA
01902,Essex County,MA,NA,NA,2.914389799635701,NA,NA
01921,Essex County,MA,65.5378486055777,NA,NA,NA,NA
01923,Essex County,MA,NA,NA,NA,4.992435703479576,15.37037037037037
01930,Essex County,MA,NA,NA,62.47723132969034,NA,NA
01945,Essex County,MA,NA,NA,NA,NA,28.51851851851852
01949,Essex County,MA,91.83266932270917,NA,NA,NA,NA
01966,Essex County,MA,87.64940239043824,NA,NA,63.086232980332824,NA
02019,Norfolk County,MA,NA,44.71830985915493,NA,NA,NA
02021,Norfolk County,MA,NA,NA,NA,NA,35
02050,Plymouth County,MA,78.88446215139442,NA,NA,NA,NA
02056,Norfolk County,MA,NA,NA,NA,96.36913767019666,NA
02066,Plymouth County,MA,NA,NA,NA,NA,56.2962962962963
02081,Norfolk County,MA,46.81274900398406,NA,NA,NA,NA
02093,Norfolk County,MA,NA,NA,NA,79.12254160363086,NA
02121,Suffolk County,MA,NA,1.4084507042253522,NA,NA,NA
02130,Suffolk County,MA,11.155378486055776,NA,NA,NA,2.037037037037037
02131,Suffolk County,MA,NA,35.563380281690144,NA,NA,NA
02132,Suffolk County,MA,NA,NA,11.475409836065573,NA,3.7037037037037033
02139,Middlesex County,MA,NA,NA,0,NA,NA
02143,Middlesex County,MA,NA,NA,NA,8.774583963691377,NA
02145,Middlesex County,MA,NA,3.5211267605633805,NA,NA,NA
02151,Suffolk County,MA,NA,0,NA,NA,14.814814814814813
02155,Middlesex County,MA,NA,NA,NA,0.15128593040847202,NA
02170,Norfolk County,MA,NA,NA,28.96174863387978,NA,NA
02186,Norfolk County,MA,NA,NA,NA,61.72465960665659,NA
02188,Norfolk County,MA,NA,NA,NA,38.12405446293495,NA
02189,Norfolk County,MA,NA,NA,22.040072859744992,NA,NA
02301,Plymouth County,MA,0,NA,NA,NA,NA
02333,Plymouth County,MA,NA,64.43661971830986,NA,NA,NA
02341,Plymouth County,MA,NA,77.11267605633803,NA,NA,NA
02343,Norfolk County,MA,NA,NA,NA,NA,66.2962962962963
02346,Plymouth County,MA,NA,NA,10.200364298724955,NA,NA
02359,Plymouth County,MA,63.147410358565736,NA,NA,NA,NA
02368,Norfolk County,MA,NA,NA,NA,4.53857791225416,NA
02420,Middlesex County,MA,72.70916334661355,NA,NA,NA,NA
02421,Middlesex County,MA,NA,NA,18.0327868852459,NA,NA
02446,Norfolk County,MA,12.749003984063744,NA,NA,NA,NA
02453,Middlesex County,MA,NA,NA,81.9672131147541,NA,NA
02459,Middlesex County,MA,40.23904382470119,NA,NA,NA,64.62962962962962
02460,Middlesex County,MA,NA,NA,NA,77.15582450832072,NA
02467,Norfolk County,MA,19.322709163346612,NA,NA,29.1981845688351,NA
02478,Middlesex County,MA,41.43426294820717,NA,NA,NA,72.77777777777777
02481,Norfolk County,MA,93.42629482071713,NA,NA,NA,NA
02492,Norfolk County,MA,NA,NA,NA,26.172465960665658,NA
02493,Middlesex County,MA,55.17928286852589,NA,NA,NA,NA
02539,Dukes County,MA,66.53386454183267,NA,NA,NA,NA
02631,Barnstable County,MA,NA,NA,NA,46.89863842662632,NA
02653,Barnstable County,MA,NA,NA,NA,81.24054462934947,NA
02703,Bristol County,MA,NA,NA,NA,0.6051437216338881,NA
02720,Bristol County,MA,NA,NA,NA,0.45385779122541603,1.2962962962962963
02721,Bristol County,MA,NA,NA,NA,NA,9.074074074074074
02747,Bristol County,MA,NA,35.91549295774648,NA,NA,NA
02780,Bristol County,MA,0.5976095617529881,NA,NA,NA,NA
48009,Oakland County,MI,36.45418326693227,NA,NA,NA,82.77777777777777
48021,Macomb County,MI,NA,32.04225352112676,NA,NA,NA
48039,St. Clair County,MI,NA,NA,NA,NA,87.96296296296296
48040,St. Clair County,MI,NA,96.12676056338029,NA,NA,NA
48043,Macomb County,MI,24.302788844621514,NA,NA,NA,NA
48045,Macomb County,MI,NA,65.84507042253522,NA,NA,NA
48047,Macomb County,MI,10.756972111553784,NA,NA,13.918305597579424,NA
48048,Macomb County,MI,NA,NA,77.41347905282332,NA,NA
48049,St. Clair County,MI,87.25099601593625,NA,NA,NA,NA
48062,Macomb County,MI,NA,NA,NA,NA,85.92592592592592
48071,Oakland County,MI,NA,NA,NA,89.40998487140696,NA
48074,St. Clair County,MI,NA,NA,70.12750455373407,NA,NA
48076,Oakland County,MI,NA,86.61971830985915,NA,NA,NA
48079,St. Clair County,MI,NA,NA,NA,58.85022692889561,NA
48088,Macomb County,MI,NA,87.32394366197182,NA,NA,NA
48091,Macomb County,MI,4.581673306772909,NA,NA,NA,NA
48103,Washtenaw County,MI,NA,NA,NA,13.010590015128592,0.9259259259259258
48111,Wayne County,MI,NA,NA,83.42440801457195,NA,NA
48118,Washtenaw County,MI,NA,NA,NA,33.73676248108926,27.59259259259259
48120,Wayne County,MI,NA,NA,NA,NA,89.62962962962962
48134,Wayne County,MI,NA,NA,NA,76.70196671709532,NA
48152,Wayne County,MI,NA,NA,NA,4.841149773071105,NA
48158,Washtenaw County,MI,NA,NA,NA,79.27382753403933,NA
48160,Washtenaw County,MI,62.15139442231076,NA,NA,NA,NA
48161,Monroe County,MI,NA,NA,NA,NA,86.29629629629629
48162,Monroe County,MI,NA,NA,NA,2.5718608169440245,NA
48168,Wayne County,MI,NA,NA,NA,39.183055975794254,NA
48187,Wayne County,MI,32.47011952191235,NA,NA,NA,NA
48195,Wayne County,MI,NA,NA,NA,8.169440242057489,NA
48197,Washtenaw County,MI,NA,NA,NA,1.5128593040847202,NA
48203,Wayne County,MI,NA,NA,NA,21.18003025718608,NA
48206,Wayne County,MI,NA,NA,NA,27.987897125567322,NA
48219,Wayne County,MI,0.199203187250996,NA,NA,NA,NA
48237,Oakland County,MI,NA,NA,19.489981785063755,NA,NA
48306,Oakland County,MI,29.681274900398407,NA,NA,NA,NA
48307,Oakland County,MI,NA,89.7887323943662,NA,NA,NA
48313,Macomb County,MI,NA,NA,24.772313296903462,NA,NA
48314,Macomb County,MI,NA,NA,39.708561020036434,NA,NA
48323,Oakland County,MI,NA,NA,55.73770491803278,NA,NA
48327,Oakland County,MI,45.21912350597609,NA,NA,NA,NA
48329,Oakland County,MI,NA,NA,NA,19.51588502269289,NA
48377,Oakland County,MI,NA,NA,NA,91.22541603630863,NA
48429,Shiawassee County,MI,NA,NA,NA,68.6838124054463,NA
48433,Genesee County,MI,29.08366533864542,NA,NA,NA,NA
48439,Genesee County,MI,NA,NA,NA,NA,11.296296296296296
48457,Genesee County,MI,57.76892430278885,NA,NA,NA,NA
48471,Sanilac County,MI,50.79681274900398,NA,NA,NA,NA
48503,Genesee County,MI,NA,40.140845070422536,NA,NA,NA
48507,Genesee County,MI,NA,NA,NA,NA,36.11111111111111
48601,Saginaw County,MI,NA,NA,NA,NA,30.74074074074074
48603,Saginaw County,MI,NA,NA,37.88706739526412,7.413010590015129,NA
48617,Clare County,MI,NA,91.54929577464789,NA,NA,NA
48656,Roscommon County,MI,NA,NA,NA,95.76399394856278,NA
48661,Ogemaw County,MI,NA,NA,55.55555555555556,53.857791225416044,NA
48708,Bay County,MI,NA,NA,NA,NA,77.96296296296296
48739,Iosco County,MI,NA,NA,NA,90.46898638426626,NA
48755,Huron County,MI,NA,NA,NA,98.03328290468987,NA
48768,Tuscola County,MI,NA,76.76056338028168,NA,NA,NA
48821,Eaton County,MI,NA,NA,92.89617486338798,NA,NA
48823,Ingham County,MI,NA,NA,NA,25.718608169440245,NA
48827,Eaton County,MI,NA,78.87323943661971,39.89071038251366,NA,NA
48843,Livingston County,MI,NA,NA,11.839708561020036,NA,NA
48848,Shiawassee County,MI,NA,NA,NA,75.49167927382754,NA
48858,Isabella County,MI,NA,NA,NA,NA,7.037037037037037
48911,Ingham County,MI,NA,NA,6.739526411657559,NA,NA
49014,Calhoun County,MI,NA,55.98591549295775,NA,NA,NA
49022,Berrien County,MI,2.589641434262948,NA,NA,NA,NA
49033,Calhoun County,MI,98.40637450199203,NA,NA,NA,NA
49036,Branch County,MI,NA,NA,NA,NA,29.444444444444446
49048,Kalamazoo County,MI,NA,NA,16.39344262295082,NA,NA
49090,Van Buren County,MI,NA,NA,58.65209471766849,NA,NA
49091,St. Joseph County,MI,NA,NA,77.95992714025502,NA,NA
49240,Jackson County,MI,NA,NA,85.79234972677595,57.03479576399395,NA
49327,Newaygo County,MI,NA,NA,80.32786885245902,NA,NA
49343,Kent County,MI,NA,NA,NA,81.99697428139183,NA
49417,Ottawa County,MI,NA,NA,90.1639344262295,NA,NA
49418,Kent County,MI,NA,NA,35.51912568306011,NA,NA
49423,Ottawa County,MI,NA,NA,11.11111111111111,NA,NA
49444,Muskegon County,MI,11.354581673306772,NA,NA,NA,NA
49455,Oceana County,MI,NA,NA,NA,90.62027231467474,NA
49503,Kent County,MI,NA,NA,NA,NA,44.81481481481481
49601,Wexford County,MI,NA,89.43661971830986,NA,NA,NA
49646,Kalkaska County,MI,NA,73.94366197183099,NA,NA,NA
49686,Grand Traverse County,MI,NA,NA,NA,NA,99.07407407407408
49707,Alpena County,MI,NA,NA,65.57377049180327,NA,NA
49756,Montmorency County,MI,NA,NA,NA,77.91225416036308,NA
49801,Dickinson County,MI,NA,NA,NA,40.24205748865356,NA
49837,Delta County,MI,NA,90.14084507042254,NA,NA,NA
49849,Marquette County,MI,NA,NA,47.35883424408014,NA,NA
55008,Isanti County,MN,60.3585657370518,NA,NA,NA,NA
55021,Rice County,MN,NA,NA,71.40255009107467,NA,NA
55082,Washington County,MN,21.115537848605577,NA,NA,NA,NA
55112,Ramsey County,MN,NA,NA,NA,24.357034795763994,NA
55118,Dakota County,MN,25.298804780876495,NA,NA,NA,NA
55122,Dakota County,MN,NA,69.01408450704226,NA,NA,NA
55124,Dakota County,MN,11.354581673306772,NA,NA,NA,NA
55125,Washington County,MN,25.697211155378486,NA,NA,NA,NA
55129,Washington County,MN,35.2589641434263,NA,NA,NA,NA
55317,Carver County,MN,72.50996015936255,NA,NA,NA,NA
55379,Scott County,MN,NA,28.52112676056338,NA,NA,NA
55386,Carver County,MN,45.21912350597609,NA,NA,NA,NA
55406,Hennepin County,MN,14.741035856573706,NA,NA,NA,NA
55408,Hennepin County,MN,9.362549800796813,NA,NA,NA,NA
55410,Hennepin County,MN,38.047808764940235,NA,NA,NA,NA
55417,Hennepin County,MN,43.02788844621514,NA,NA,NA,NA
55429,Hennepin County,MN,NA,43.309859154929576,NA,NA,NA
55454,Hennepin County,MN,NA,31.690140845070424,NA,NA,NA
55987,Winona County,MN,NA,16.549295774647888,67.75956284153006,NA,NA
56048,Waseca County,MN,NA,NA,NA,99.54614220877458,NA
56143,Jackson County,MN,NA,80.28169014084507,NA,NA,NA
56201,Kandiyohi County,MN,32.86852589641434,NA,NA,NA,51.85185185185185
56265,Chippewa County,MN,NA,NA,NA,NA,36.11111111111111
56267,Stevens County,MN,54.38247011952191,NA,NA,NA,NA
56377,Stearns County,MN,25.099601593625497,NA,NA,NA,NA
56514,Clay County,MN,95.81673306772909,NA,NA,NA,NA
56601,Beltrami County,MN,NA,NA,6.375227686703097,1.059001512859304,NA
38611,Marshall County,MS,NA,NA,65.02732240437157,NA,NA
38654,DeSoto County,MS,NA,NA,NA,21.02874432677761,NA
38655,Lafayette County,MS,NA,NA,NA,NA,76.11111111111111
38666,Panola County,MS,NA,NA,NA,NA,92.77777777777779
38671,DeSoto County,MS,NA,53.52112676056338,NA,53.857791225416044,NA
38701,Washington County,MS,NA,NA,62.659380692167574,NA,NA
38804,Lee County,MS,NA,NA,74.4990892531876,NA,NA
38852,Tishomingo County,MS,NA,NA,NA,NA,58.333333333333336
39042,Rankin County,MS,NA,NA,32.240437158469945,NA,NA
39047,Rankin County,MS,NA,NA,NA,74.5839636913767,NA
39120,Adams County,MS,32.669322709163346,NA,NA,NA,NA
39170,Hinds County,MS,NA,NA,NA,88.04841149773071,NA
39301,Lauderdale County,MS,NA,NA,69.58105646630237,46.74735249621785,NA
39307,Lauderdale County,MS,NA,NA,NA,NA,69.07407407407408
39325,Lauderdale County,MS,96.61354581673307,NA,NA,NA,NA
39452,George County,MS,4.780876494023905,NA,NA,NA,NA
39503,Harrison County,MS,NA,29.225352112676056,NA,NA,NA
39553,Jackson County,MS,NA,NA,NA,NA,98.88888888888889
39560,Harrison County,MS,NA,NA,NA,7.866868381240545,NA
39564,Jackson County,MS,NA,NA,NA,NA,26.296296296296294
39574,Harrison County,MS,NA,NA,51.54826958105647,NA,NA
39730,Monroe County,MS,NA,NA,NA,67.77609682299546,NA
63011,St. Louis County,MO,NA,NA,NA,NA,2.4074074074074074
63021,St. Louis County,MO,NA,NA,NA,NA,35.18518518518518
63025,St. Louis County,MO,70.5179282868526,NA,NA,NA,NA
63028,Jefferson County,MO,NA,NA,23.13296903460838,NA,NA
63031,St. Louis County,MO,43.02788844621514,NA,NA,NA,NA
63034,St. Louis County,MO,NA,NA,64.84517304189436,NA,NA
63043,St. Louis County,MO,51.59362549800797,NA,NA,NA,NA
63052,Jefferson County,MO,NA,NA,NA,NA,61.29629629629629
63105,St. Louis County,MO,NA,NA,NA,NA,68.7037037037037
63119,St. Louis County,MO,NA,NA,NA,NA,36.48148148148148
63121,St. Louis County,MO,NA,NA,NA,NA,49.074074074074076
63123,St. Louis County,MO,66.93227091633466,NA,NA,NA,1.4814814814814816
63128,St. Louis County,MO,NA,NA,NA,21.18003025718608,NA
63130,St. Louis County,MO,NA,NA,NA,56.12708018154312,NA
63131,St. Louis County,MO,NA,NA,89.61748633879782,NA,NA
63139,St. Louis city,MO,69.32270916334662,NA,NA,NA,NA
63143,St. Louis County,MO,NA,NA,95.44626593806922,NA,NA
63301,St. Charles County,MO,NA,NA,NA,2.723146747352496,NA
63304,St. Charles County,MO,63.147410358565736,NA,NA,13.767019667170954,NA
63366,St. Charles County,MO,NA,NA,NA,NA,7.962962962962964
63368,St. Charles County,MO,NA,80.98591549295774,NA,NA,NA
63376,St. Charles County,MO,NA,NA,9.47176684881603,NA,NA
63379,Lincoln County,MO,NA,NA,NA,NA,33.33333333333333
63383,Warren County,MO,27.091633466135455,NA,NA,NA,NA
63601,St. Francois County,MO,NA,50.70422535211267,NA,NA,NA
63628,St. Francois County,MO,NA,50,NA,NA,NA
63640,St. Francois County,MO,NA,NA,NA,70.65052950075643,NA
63703,Cape Girardeau County,MO,NA,NA,NA,73.22239031770046,NA
63740,Scott County,MO,60.3585657370518,NA,NA,NA,NA
63755,Cape Girardeau County,MO,NA,NA,NA,NA,34.25925925925926
63780,Scott County,MO,NA,NA,NA,77.60968229954615,84.81481481481481
63877,Pemiscot County,MO,NA,NA,97.99635701275045,NA,NA
63901,Butler County,MO,NA,NA,12.932604735883423,NA,NA
64029,Jackson County,MO,NA,NA,36.247723132969035,NA,NA
64050,Jackson County,MO,NA,NA,14.207650273224044,15.73373676248109,43.51851851851852
64056,Jackson County,MO,NA,NA,NA,54.91679273827535,NA
64075,Jackson County,MO,NA,NA,NA,67.32223903177005,NA
64080,Cass County,MO,NA,NA,NA,74.73524962178517,NA
64081,Jackson County,MO,NA,NA,NA,NA,74.07407407407408
64110,Jackson County,MO,NA,NA,33.1511839708561,NA,NA
64118,Clay County,MO,4.382470119521913,NA,NA,NA,NA
64128,Jackson County,MO,11.752988047808765,NA,NA,NA,NA
64133,Jackson County,MO,NA,NA,NA,NA,27.77777777777778
64134,Jackson County,MO,NA,NA,NA,NA,64.07407407407408
64151,Platte County,MO,15.139442231075698,NA,NA,NA,NA
64152,Platte County,MO,NA,67.95774647887323,NA,NA,NA
64157,Clay County,MO,NA,NA,31.147540983606557,NA,NA
64465,Clinton County,MO,NA,NA,NA,96.8229954614221,NA
64468,Nodaway County,MO,NA,NA,67.94171220400729,NA,NA
64506,Buchanan County,MO,46.613545816733065,NA,NA,NA,NA
64801,Jasper County,MO,NA,NA,NA,NA,50.37037037037037
64804,Jasper County,MO,NA,NA,47.90528233151184,NA,9.814814814814815
64834,Jasper County,MO,NA,95.4225352112676,NA,NA,NA
64836,Jasper County,MO,NA,38.732394366197184,17.48633879781421,27.231467473524962,NA
65026,Miller County,MO,NA,29.929577464788732,NA,73.37367624810892,NA
65202,Boone County,MO,0.796812749003984,NA,NA,NA,NA
65203,Boone County,MO,NA,NA,22.768670309653917,NA,NA
65301,Pettis County,MO,NA,NA,3.642987249544627,NA,NA
65453,Crawford County,MO,NA,NA,NA,NA,78.33333333333333
65775,Howell County,MO,NA,NA,NA,32.829046898638424,NA
65807,Greene County,MO,NA,NA,61.93078324225865,NA,NA
59102,Yellowstone County,MT,NA,NA,NA,3.9334341906202726,NA
59230,Valley County,MT,NA,NA,NA,NA,77.4074074074074
59601,Lewis and Clark County,MT,NA,NA,NA,16.944024205748864,NA
68106,Douglas County,NE,NA,NA,79.23497267759562,NA,52.59259259259259
68116,Douglas County,NE,NA,93.66197183098592,NA,NA,72.22222222222221
68124,Douglas County,NE,NA,NA,NA,NA,65.37037037037037
68130,Douglas County,NE,NA,NA,NA,NA,78.88888888888889
68138,Sarpy County,NE,60.3585657370518,NA,NA,NA,NA
68142,Douglas County,NE,NA,NA,NA,99.39485627836612,NA
68701,Madison County,NE,NA,75,NA,74.88653555219365,75.92592592592592
69162,Cheyenne County,NE,50.79681274900398,NA,NA,NA,NA
89120,Clark County,NV,NA,NA,80.14571948998179,NA,NA
89403,Lyon County,NV,NA,NA,34.60837887067395,NA,NA
89423,Douglas County,NV,NA,NA,NA,58.3963691376702,NA
89429,Lyon County,NV,NA,NA,NA,84.41754916792739,NA
89431,Washoe County,NV,26.49402390438247,NA,NA,39.4856278366112,NA
89434,Washoe County,NV,NA,NA,42.4408014571949,NA,NA
89436,Washoe County,NV,22.31075697211155,NA,NA,9.984871406959153,NA
89451,Washoe County,NV,NA,NA,NA,86.23298033282904,NA
89506,Washoe County,NV,NA,NA,NA,30.559757942511347,NA
89523,Washoe County,NV,NA,NA,53.36976320582878,NA,NA
89701,Carson City,NV,NA,NA,NA,NA,44.074074074074076
03049,Hillsborough County,NH,84.06374501992032,NA,NA,NA,NA
03060,Hillsborough County,NH,NA,NA,NA,NA,17.037037037037038
03062,Hillsborough County,NH,NA,NA,NA,NA,12.962962962962962
03076,Hillsborough County,NH,NA,NA,NA,NA,63.70370370370371
03104,Hillsborough County,NH,NA,48.943661971830984,NA,NA,NA
03743,Sullivan County,NH,NA,NA,NA,NA,31.48148148148148
03820,Strafford County,NH,NA,NA,NA,NA,10.37037037037037
03833,Rockingham County,NH,NA,NA,NA,35.703479576399396,NA
03858,Rockingham County,NH,NA,NA,94.71766848816029,NA,NA
03885,Rockingham County,NH,NA,NA,NA,92.58698940998488,NA
07017,Essex County,NJ,NA,NA,NA,NA,14.629629629629628
07034,Morris County,NJ,NA,NA,78.32422586520947,NA,NA
07036,Union County,NJ,NA,NA,NA,16.338880484114977,NA
07047,Hudson County,NJ,NA,2.464788732394366,NA,NA,NA
07052,Essex County,NJ,98.20717131474103,NA,NA,NA,NA
07055,Passaic County,NJ,NA,NA,93.0783242258652,NA,26.851851851851855
07072,Bergen County,NJ,NA,NA,NA,90.3177004538578,NA
07086,Hudson County,NJ,NA,NA,NA,NA,83.7037037037037
07104,Essex County,NJ,NA,NA,NA,3.6308623298033282,NA
07111,Essex County,NJ,NA,1.7605633802816902,NA,NA,NA
07205,Union County,NJ,NA,NA,82.87795992714025,NA,NA
07405,Morris County,NJ,88.64541832669323,NA,NA,75.18910741301059,NA
07440,Morris County,NJ,97.80876494023904,NA,NA,NA,NA
07648,Bergen County,NJ,NA,NA,NA,NA,97.22222222222221
07677,Bergen County,NJ,NA,NA,NA,NA,81.48148148148148
07701,Monmouth County,NJ,NA,NA,NA,35.400907715582456,NA
07748,Monmouth County,NJ,NA,NA,27.686703096539162,NA,NA
07866,Morris County,NJ,NA,NA,66.66666666666666,NA,NA
07885,Morris County,NJ,NA,34.859154929577464,NA,NA,NA
07974,Union County,NJ,NA,NA,NA,NA,94.07407407407408
08021,Camden County,NJ,NA,94.36619718309859,NA,NA,32.03703703703704
08034,Camden County,NJ,NA,NA,32.60473588342441,NA,NA
08048,Burlington County,NJ,NA,NA,NA,NA,88.14814814814815
08054,Burlington County,NJ,25.89641434262948,NA,NA,NA,NA
08055,Burlington County,NJ,41.63346613545817,NA,NA,NA,NA
08079,Salem County,NJ,78.68525896414343,NA,NA,NA,NA
08083,Camden County,NJ,59.9601593625498,NA,NA,NA,NA
08203,Atlantic County,NJ,NA,NA,NA,67.0196671709531,NA
08232,Atlantic County,NJ,NA,4.225352112676056,NA,NA,NA
08401,Atlantic County,NJ,NA,NA,0.546448087431694,NA,NA
08512,Mercer County,NJ,NA,NA,94.53551912568307,NA,NA
08540,Mercer County,NJ,54.980079681274894,NA,NA,NA,NA
08742,Ocean County,NJ,NA,NA,28.233151183970858,NA,NA
08759,Ocean County,NJ,NA,NA,NA,0.9077155824508321,0
08820,Middlesex County,NJ,NA,NA,NA,NA,18.51851851851852
08835,Somerset County,NJ,NA,NA,NA,NA,88.14814814814815
08846,Middlesex County,NJ,NA,NA,70.49180327868852,NA,NA
08865,Warren County,NJ,2.9880478087649402,NA,NA,NA,NA
87102,Bernalillo County,NM,NA,NA,NA,NA,59.25925925925925
87109,Bernalillo County,NM,NA,64.08450704225352,NA,NA,NA
87110,Bernalillo County,NM,NA,NA,NA,7.564296520423601,NA
87112,Bernalillo County,NM,NA,NA,13.296903460837886,NA,2.9629629629629632
87114,Bernalillo County,NM,NA,NA,NA,NA,81.2962962962963
87121,Bernalillo County,NM,NA,3.169014084507042,NA,NA,NA
87124,Sandoval County,NM,NA,30.985915492957744,NA,NA,9.62962962962963
87544,Los Alamos County,NM,69.7211155378486,NA,92.16757741347905,NA,NA
87701,San Miguel County,NM,NA,NA,NA,NA,46.111111111111114
88005,Doa Ana County,NM,NA,NA,NA,NA,48.148148148148145
88008,Doa Ana County,NM,NA,NA,NA,NA,97.5925925925926
88011,Doa Ana County,NM,NA,NA,NA,44.47806354009077,NA
88081,Otero County,NM,NA,37.67605633802817,NA,NA,NA
88203,Chaves County,NM,NA,NA,NA,NA,57.22222222222222
88240,Lea County,NM,NA,NA,NA,17.095310136157337,NA
88310,Otero County,NM,NA,NA,NA,3.479576399394856,NA
10002,New York County,NY,NA,5.985915492957746,NA,2.26928895612708,NA
10003,New York County,NY,NA,NA,51.91256830601093,NA,NA
10014,New York County,NY,NA,NA,NA,90.92284417549168,88.51851851851852
10023,New York County,NY,NA,NA,NA,NA,25.74074074074074
10026,New York County,NY,NA,14.43661971830986,NA,NA,NA
10028,New York County,NY,82.66932270916335,NA,NA,NA,NA
10029,New York County,NY,NA,NA,4.918032786885246,NA,NA
10031,New York County,NY,NA,10.211267605633804,NA,NA,NA
10065,New York County,NY,NA,NA,NA,85.17397881996975,NA
10075,New York County,NY,NA,NA,NA,63.2375189107413,NA
10303,Richmond County,NY,NA,NA,73.95264116575592,NA,NA
10305,Richmond County,NY,NA,NA,NA,NA,67.77777777777779
10452,Bronx County,NY,NA,4.577464788732395,NA,NA,NA
10454,Bronx County,NY,NA,NA,6.557377049180328,NA,NA
10455,Bronx County,NY,6.573705179282868,NA,NA,NA,NA
10466,Bronx County,NY,NA,NA,3.825136612021858,NA,NA
10467,Bronx County,NY,NA,NA,0.7285974499089253,NA,NA
10470,Bronx County,NY,NA,NA,NA,NA,74.44444444444444
10472,Bronx County,NY,NA,NA,1.8214936247723135,NA,NA
10547,Westchester County,NY,65.93625498007968,NA,NA,NA,NA
10566,Westchester County,NY,NA,NA,NA,NA,65.55555555555556
10701,Westchester County,NY,NA,NA,1.2750455373406193,NA,NA
10704,Westchester County,NY,NA,55.98591549295775,NA,NA,NA
10801,Westchester County,NY,NA,37.32394366197183,NA,NA,NA
10804,Westchester County,NY,NA,NA,NA,88.35098335854765,NA
10952,Rockland County,NY,NA,NA,NA,NA,62.96296296296296
10970,Rockland County,NY,NA,NA,NA,94.70499243570349,NA
10980,Rockland County,NY,71.11553784860558,NA,NA,NA,NA
10984,Rockland County,NY,NA,NA,97.44990892531877,NA,NA
10992,Orange County,NY,NA,NA,99.4535519125683,NA,NA
11050,Nassau County,NY,94.82071713147411,NA,NA,55.37065052950075,NA
11105,Queens County,NY,NA,NA,NA,53.10136157337367,NA
11106,Queens County,NY,NA,NA,NA,NA,38.88888888888889
11201,Kings County,NY,NA,NA,NA,18.759455370650528,NA
11204,Kings County,NY,NA,60.2112676056338,NA,NA,NA
11206,Kings County,NY,NA,NA,NA,0.7564296520423601,NA
11211,Kings County,NY,NA,8.098591549295776,NA,NA,NA
11213,Kings County,NY,NA,NA,5.100182149362477,NA,NA
11217,Kings County,NY,NA,NA,37.15846994535519,NA,NA
11223,Kings County,NY,17.729083665338646,NA,NA,NA,NA
11232,Kings County,NY,NA,NA,98.1785063752277,NA,NA
11233,Kings County,NY,74.9003984063745,NA,NA,NA,NA
11368,Queens County,NY,NA,NA,NA,16.187594553706504,NA
11370,Queens County,NY,NA,57.3943661971831,NA,NA,NA
11372,Queens County,NY,12.549800796812749,NA,NA,NA,NA
11374,Queens County,NY,NA,NA,NA,NA,20
11377,Queens County,NY,NA,NA,48.451730418943534,NA,NA
11530,Nassau County,NY,80.47808764940238,NA,NA,NA,NA
11590,Nassau County,NY,NA,NA,NA,NA,22.77777777777778
11692,Queens County,NY,NA,NA,49.362477231329684,NA,NA
11702,Suffolk County,NY,NA,NA,NA,NA,83.88888888888889
11730,Suffolk County,NY,93.02788844621513,NA,NA,NA,NA
11741,Suffolk County,NY,NA,NA,NA,66.71709531013616,NA
11742,Suffolk County,NY,NA,NA,93.6247723132969,NA,NA
11961,Suffolk County,NY,NA,NA,NA,NA,69.62962962962963
11968,Suffolk County,NY,NA,NA,NA,NA,83.33333333333334
12025,Fulton County,NY,NA,NA,NA,82.1482602118003,NA
12078,Fulton County,NY,NA,26.056338028169012,NA,NA,NA
12084,Albany County,NY,99.00398406374502,NA,NA,NA,NA
12180,Rensselaer County,NY,NA,NA,NA,6.505295007564296,NA
12182,Rensselaer County,NY,NA,NA,NA,NA,70.92592592592592
12208,Albany County,NY,NA,69.36619718309859,NA,NA,NA
12538,Dutchess County,NY,NA,NA,NA,NA,53.333333333333336
12822,Saratoga County,NY,NA,NA,NA,91.52798789712556,NA
12831,Saratoga County,NY,67.33067729083665,NA,NA,NA,NA
12972,Clinton County,NY,NA,NA,NA,72.46596066565809,NA
13027,Onondaga County,NY,NA,NA,NA,15.279878971255673,NA
13069,Oswego County,NY,NA,NA,5.46448087431694,42.662632375189105,NA
13077,Cortland County,NY,NA,NA,61.74863387978142,NA,NA
13165,Seneca County,NY,NA,NA,NA,19.062027231467475,NA
13332,Madison County,NY,NA,NA,87.24954462659382,NA,NA
13416,Herkimer County,NY,92.23107569721115,NA,NA,NA,NA
13439,Otsego County,NY,NA,NA,NA,96.52042360060514,NA
13662,St. Lawrence County,NY,16.733067729083665,32.74647887323944,NA,NA,NA
13669,St. Lawrence County,NY,NA,NA,NA,21.936459909228443,NA
13736,Tioga County,NY,NA,NA,95.62841530054644,NA,NA
13760,Broome County,NY,0.398406374501992,NA,NA,NA,NA
13815,Chenango County,NY,20.717131474103585,NA,NA,NA,NA
13820,Otsego County,NY,NA,NA,9.289617486338798,NA,NA
13827,Tioga County,NY,NA,NA,NA,NA,52.22222222222223
13865,Broome County,NY,NA,NA,47.540983606557376,NA,NA
13901,Broome County,NY,NA,36.61971830985916,NA,NA,NA
13905,Broome County,NY,0.9960159362549801,NA,NA,NA,NA
14012,Niagara County,NY,98.40637450199203,NA,NA,NA,NA
14047,Erie County,NY,NA,99.29577464788733,NA,NA,NA
14067,Niagara County,NY,NA,NA,81.78506375227687,NA,NA
14085,Erie County,NY,83.26693227091634,NA,NA,NA,NA
14094,Niagara County,NY,3.9840637450199203,NA,NA,NA,NA
14103,Orleans County,NY,NA,NA,NA,49.62178517397882,NA
14174,Niagara County,NY,67.13147410358566,NA,NA,NA,NA
14206,Erie County,NY,NA,NA,NA,24.81089258698941,NA
14209,Erie County,NY,NA,NA,NA,72.76853252647504,NA
14215,Erie County,NY,NA,16.901408450704224,NA,NA,NA
14223,Erie County,NY,NA,78.52112676056338,NA,NA,NA
14224,Erie County,NY,16.334661354581673,NA,NA,NA,NA
14225,Erie County,NY,24.701195219123505,91.90140845070422,NA,NA,NA
14226,Erie County,NY,NA,NA,28.415300546448087,NA,NA
14305,Niagara County,NY,14.54183266932271,NA,NA,NA,NA
14433,Wayne County,NY,NA,NA,60.10928961748634,NA,NA
14437,Livingston County,NY,NA,NA,42.80510018214937,NA,NA
14450,Monroe County,NY,17.131474103585656,NA,NA,NA,NA
14456,Ontario County,NY,NA,NA,7.285974499089254,NA,77.03703703703704
14489,Wayne County,NY,NA,NA,30.2367941712204,NA,NA
14580,Monroe County,NY,22.50996015936255,NA,NA,0,NA
14618,Monroe County,NY,6.97211155378486,NA,NA,NA,NA
14626,Monroe County,NY,NA,NA,NA,NA,4.62962962962963
14701,Chautauqua County,NY,2.1912350597609564,22.887323943661972,NA,NA,NA
14830,Steuben County,NY,NA,NA,NA,30.10590015128593,NA
14845,Chemung County,NY,NA,NA,NA,26.32375189107413,NA
14886,Tompkins County,NY,NA,NA,65.02732240437157,NA,NA
27051,Forsyth County,NC,NA,NA,NA,NA,80.74074074074075
27055,Yadkin County,NC,NA,62.323943661971825,NA,NA,NA
27106,Forsyth County,NC,NA,NA,NA,20.423600605143722,NA
27107,Forsyth County,NC,NA,NA,NA,3.0257186081694405,NA
27203,Randolph County,NC,NA,NA,NA,47.806354009077154,NA
27215,Alamance County,NC,NA,NA,NA,4.236006051437216,NA
27217,Alamance County,NC,NA,NA,NA,8.32072617246596,NA
27239,Davidson County,NC,56.97211155378486,NA,NA,NA,NA
27295,Davidson County,NC,NA,NA,NA,NA,1.1111111111111112
27302,Alamance County,NC,57.56972111553785,NA,NA,NA,NA
27310,Guilford County,NC,81.67330677290838,NA,NA,NA,NA
27317,Randolph County,NC,NA,NA,NA,98.48714069591527,NA
27320,Rockingham County,NC,NA,NA,NA,7.715582450832073,NA
27330,Lee County,NC,28.087649402390436,NA,NA,NA,NA
27401,Guilford County,NC,NA,NA,63.20582877959927,NA,NA
27405,Guilford County,NC,NA,NA,10.382513661202186,NA,NA
27407,Guilford County,NC,NA,NA,NA,70.34795763993948,NA
27511,Wake County,NC,NA,89.08450704225352,NA,NA,NA
27517,Orange County,NC,NA,NA,53.551912568306015,NA,NA
27520,Johnston County,NC,16.135458167330675,NA,NA,NA,NA
27526,Wake County,NC,NA,NA,NA,NA,18.14814814814815
27529,Wake County,NC,14.940239043824702,NA,23.497267759562842,NA,NA
27572,Person County,NC,73.50597609561753,NA,NA,NA,NA
27577,Johnston County,NC,NA,NA,43.35154826958106,NA,NA
27587,Wake County,NC,NA,NA,NA,6.8078668683812404,NA
27591,Wake County,NC,NA,59.859154929577464,NA,NA,NA
27597,Wake County,NC,NA,NA,NA,57.94251134644478,NA
27609,Wake County,NC,NA,NA,NA,68.53252647503783,NA
27613,Wake County,NC,NA,NA,49.18032786885246,NA,NA
27614,Wake County,NC,NA,NA,NA,NA,79.62962962962963
27615,Wake County,NC,52.191235059760956,NA,NA,11.951588502269288,NA
27870,Halifax County,NC,NA,NA,NA,NA,41.2962962962963
27886,Edgecombe County,NC,NA,NA,33.51548269581057,NA,NA
27909,Pasquotank County,NC,NA,NA,38.97996357012751,10.287443267776098,NA
28021,Gaston County,NC,NA,NA,54.09836065573771,NA,NA
28025,Cabarrus County,NC,NA,NA,NA,NA,8.148148148148149
28027,Cabarrus County,NC,NA,NA,NA,5.900151285930408,NA
28031,Mecklenburg County,NC,80.87649402390437,NA,NA,NA,NA
28081,Cabarrus County,NC,NA,NA,82.5136612021858,NA,NA
28090,Cleveland County,NC,NA,73.94366197183099,NA,NA,NA
28092,Lincoln County,NC,NA,NA,NA,11.346444780635402,NA
28104,Union County,NC,36.05577689243028,NA,NA,NA,NA
28114,Rutherford County,NC,NA,NA,89.07103825136612,NA,NA
28115,Iredell County,NC,20.717131474103585,NA,NA,NA,NA
28139,Rutherford County,NC,NA,NA,NA,NA,53.148148148148145
28152,Cleveland County,NC,85.4581673306773,NA,NA,NA,NA
28216,Mecklenburg County,NC,NA,NA,NA,NA,24.62962962962963
28227,Mecklenburg County,NC,NA,NA,18.761384335154826,NA,NA
28270,Mecklenburg County,NC,NA,NA,NA,44.93192133131619,NA
28318,Sampson County,NC,84.06374501992032,NA,NA,NA,NA
28327,Moore County,NC,NA,NA,NA,85.02269288956127,70.37037037037037
28328,Sampson County,NC,48.60557768924303,NA,NA,NA,NA
28334,Sampson County,NC,NA,46.83098591549296,NA,NA,NA
28360,Robeson County,NC,84.86055776892431,NA,NA,NA,NA
28366,Sampson County,NC,NA,NA,NA,NA,78.51851851851852
28401,New Hanover County,NC,NA,NA,NA,32.07261724659607,NA
28405,New Hanover County,NC,37.64940239043825,NA,NA,NA,NA
28412,New Hanover County,NC,26.095617529880478,NA,NA,NA,NA
28461,Brunswick County,NC,81.67330677290838,NA,NA,NA,15.185185185185185
28465,Brunswick County,NC,NA,NA,NA,NA,64.81481481481481
28557,Carteret County,NC,NA,NA,81.23861566484517,NA,NA
28574,Onslow County,NC,75.0996015936255,NA,NA,NA,NA
28613,Catawba County,NC,91.63346613545816,NA,NA,NA,NA
28625,Iredell County,NC,NA,NA,NA,17.246596066565807,NA
28677,Iredell County,NC,19.52191235059761,NA,NA,NA,NA
28681,Alexander County,NC,NA,NA,19.12568306010929,NA,NA
28712,Transylvania County,NC,NA,NA,NA,36.157337367624805,NA
28716,Haywood County,NC,NA,NA,NA,40.09077155824508,NA
28734,Macon County,NC,NA,NA,16.029143897996356,NA,24.814814814814813
28739,Henderson County,NC,NA,NA,NA,10.892586989409985,NA
28741,Macon County,NC,NA,NA,NA,NA,89.81481481481481
28752,McDowell County,NC,NA,NA,NA,12.405446293494705,25.37037037037037
28787,Buncombe County,NC,48.007968127490045,NA,NA,NA,NA
28791,Henderson County,NC,NA,NA,NA,26.77760968229955,NA
28792,Henderson County,NC,NA,NA,29.143897996357016,NA,NA
28803,Buncombe County,NC,NA,NA,NA,NA,22.962962962962962
58601,Stark County,ND,NA,NA,NA,67.92738275340393,NA
58701,Ward County,ND,NA,NA,10.018214936247723,NA,NA
43004,Franklin County,OH,NA,29.929577464788732,NA,NA,NA
43019,Knox County,OH,NA,NA,75.591985428051,NA,NA
43026,Franklin County,OH,5.9760956175298805,49.647887323943664,NA,NA,NA
43028,Knox County,OH,NA,NA,NA,NA,37.77777777777778
43031,Licking County,OH,63.745019920318725,NA,NA,86.9894099848714,NA
43065,Delaware County,OH,NA,NA,NA,NA,46.666666666666664
43068,Franklin County,OH,NA,NA,NA,41.45234493192133,NA
43078,Champaign County,OH,NA,52.816901408450704,68.6703096539162,NA,NA
43103,Pickaway County,OH,80.0796812749004,NA,NA,NA,NA
43110,Franklin County,OH,NA,9.859154929577464,NA,NA,NA
43123,Franklin County,OH,NA,55.28169014084507,NA,NA,NA
43147,Fairfield County,OH,NA,NA,NA,61.87594553706506,45.74074074074074
43213,Franklin County,OH,NA,NA,32.96903460837887,NA,NA
43220,Franklin County,OH,NA,NA,NA,NA,88.70370370370371
43224,Franklin County,OH,NA,NA,NA,NA,24.074074074074073
43229,Franklin County,OH,NA,6.338028169014084,25.136612021857925,NA,NA
43230,Franklin County,OH,3.386454183266932,NA,NA,13.161875945537066,NA
43302,Marion County,OH,1.1952191235059761,NA,2.0036429872495445,NA,NA
43331,Logan County,OH,NA,NA,NA,88.95612708018155,NA
43334,Morrow County,OH,NA,NA,NA,59.75794251134644,NA
43338,Morrow County,OH,62.35059760956175,NA,NA,NA,NA
43351,Wyandot County,OH,NA,NA,NA,50.68078668683812,NA
43402,Wood County,OH,NA,NA,20.036429872495447,NA,NA
43512,Defiance County,OH,39.44223107569721,NA,NA,NA,NA
43518,Williams County,OH,NA,NA,NA,93.94856278366112,NA
43528,Lucas County,OH,43.42629482071713,NA,NA,NA,NA
43542,Lucas County,OH,91.23505976095618,NA,NA,NA,NA
43551,Wood County,OH,8.167330677290837,55.633802816901415,12.568306010928962,NA,NA
43558,Fulton County,OH,NA,NA,56.64845173041895,NA,NA
43607,Lucas County,OH,42.82868525896414,NA,NA,NA,NA
43609,Lucas County,OH,NA,NA,4.735883424408015,NA,NA
43611,Lucas County,OH,NA,NA,13.114754098360656,NA,NA
43731,Perry County,OH,NA,NA,NA,NA,90
43812,Coshocton County,OH,79.4820717131474,NA,NA,NA,NA
43943,Jefferson County,OH,69.7211155378486,NA,NA,NA,NA
43953,Jefferson County,OH,NA,NA,NA,NA,35.37037037037037
43964,Jefferson County,OH,NA,NA,NA,31.01361573373676,NA
44012,Lorain County,OH,NA,NA,32.42258652094718,NA,NA
44035,Lorain County,OH,NA,NA,0.18214936247723132,1.9667170953101363,NA
44055,Lorain County,OH,NA,NA,30.965391621129324,NA,NA
44057,Lake County,OH,NA,NA,26.04735883424408,NA,NA
44060,Lake County,OH,NA,NA,NA,NA,3.5185185185185186
44062,Geauga County,OH,NA,NA,NA,75.642965204236,NA
44077,Lake County,OH,NA,NA,NA,2.118003025718608,NA
44095,Lake County,OH,NA,NA,18.579234972677597,NA,NA
44102,Cuyahoga County,OH,NA,NA,0.36429872495446264,NA,NA
44103,Cuyahoga County,OH,NA,NA,8.743169398907105,NA,NA
44105,Cuyahoga County,OH,NA,13.028169014084506,NA,NA,NA
44106,Cuyahoga County,OH,NA,NA,9.836065573770492,NA,NA
44107,Cuyahoga County,OH,NA,NA,1.4571948998178506,NA,NA
44109,Cuyahoga County,OH,NA,NA,NA,1.2102874432677762,NA
44112,Cuyahoga County,OH,NA,NA,NA,NA,16.48148148148148
44114,Cuyahoga County,OH,NA,NA,NA,64.14523449319213,NA
44117,Cuyahoga County,OH,59.9601593625498,NA,NA,NA,NA
44120,Cuyahoga County,OH,NA,NA,NA,NA,7.222222222222221
44123,Cuyahoga County,OH,NA,NA,25.500910746812387,NA,NA
44129,Cuyahoga County,OH,NA,24.647887323943664,NA,NA,NA
44131,Cuyahoga County,OH,NA,NA,NA,NA,3.3333333333333335
44135,Cuyahoga County,OH,NA,NA,2.73224043715847,NA,NA
44140,Cuyahoga County,OH,44.223107569721115,NA,NA,NA,NA
44143,Cuyahoga County,OH,NA,NA,NA,NA,15
44144,Cuyahoga County,OH,12.151394422310757,NA,NA,NA,NA
44149,Cuyahoga County,OH,NA,NA,NA,89.56127080181543,NA
44230,Wayne County,OH,NA,NA,NA,80.93797276853253,NA
44236,Summit County,OH,NA,NA,53.18761384335154,NA,37.03703703703704
44256,Medina County,OH,5.776892430278884,45.42253521126761,NA,0.15128593040847202,NA
44278,Summit County,OH,NA,NA,NA,44.3267776096823,NA
44281,Medina County,OH,NA,29.577464788732392,NA,NA,NA
44305,Summit County,OH,NA,NA,NA,36.30862329803328,NA
44310,Summit County,OH,NA,NA,NA,NA,52.407407407407405
44410,Trumbull County,OH,NA,NA,NA,24.05446293494705,NA
44420,Trumbull County,OH,NA,45.07042253521127,NA,NA,NA
44436,Mahoning County,OH,NA,NA,NA,NA,91.11111111111111
44446,Trumbull County,OH,NA,NA,NA,15.128593040847202,NA
44460,Columbiana County,OH,5.577689243027888,NA,NA,6.354009077155824,NA
44471,Mahoning County,OH,61.15537848605578,NA,95.99271402550092,NA,NA
44481,Trumbull County,OH,NA,NA,24.59016393442623,34.79576399394856,NA
44483,Trumbull County,OH,NA,NA,NA,10.136157337367626,16.666666666666664
44484,Trumbull County,OH,NA,NA,NA,NA,16.11111111111111
44509,Mahoning County,OH,NA,NA,NA,NA,93.88888888888889
44511,Mahoning County,OH,NA,NA,21.85792349726776,NA,NA
44512,Mahoning County,OH,NA,NA,NA,11.649016641452345,14.444444444444443
44606,Wayne County,OH,NA,NA,99.63570127504553,NA,NA
44641,Stark County,OH,NA,51.056338028169016,NA,NA,NA
44657,Stark County,OH,NA,NA,NA,61.27080181543116,NA
44667,Wayne County,OH,26.49402390438247,NA,NA,NA,73.51851851851852
44691,Wayne County,OH,NA,NA,7.468123861566485,NA,NA
44702,Stark County,OH,90.43824701195219,NA,NA,NA,NA
44718,Stark County,OH,47.410358565737056,NA,NA,NA,NA
44720,Stark County,OH,NA,NA,63.752276867030965,NA,NA
44721,Stark County,OH,NA,NA,83.60655737704919,NA,71.11111111111111
44805,Ashland County,OH,NA,59.50704225352113,NA,NA,1.8518518518518516
44811,Sandusky County,OH,NA,NA,NA,54.91679273827535,NA
44842,Ashland County,OH,89.64143426294821,NA,NA,88.80484114977307,NA
44870,Erie County,OH,NA,NA,NA,NA,3.148148148148148
44903,Richland County,OH,NA,NA,16.939890710382514,NA,41.11111111111111
44906,Richland County,OH,NA,47.53521126760563,NA,NA,NA
45013,Butler County,OH,NA,NA,NA,2.4205748865355523,NA
45014,Butler County,OH,NA,NA,13.479052823315119,NA,NA
45040,Warren County,OH,NA,86.26760563380282,NA,NA,23.703703703703706
45042,Butler County,OH,NA,NA,18.397085610200364,NA,NA
45044,Butler County,OH,NA,NA,5.646630236794172,NA,17.40740740740741
45066,Warren County,OH,25.298804780876495,NA,NA,NA,NA
45069,Butler County,OH,NA,NA,NA,16.64145234493192,NA
45140,Clermont County,OH,4.183266932270916,NA,NA,NA,NA
45205,Hamilton County,OH,NA,NA,55.373406193078324,NA,87.77777777777777
45216,Hamilton County,OH,NA,NA,NA,65.50680786686837,NA
45224,Hamilton County,OH,NA,NA,53.73406193078324,NA,NA
45230,Hamilton County,OH,NA,NA,NA,NA,60.92592592592593
45237,Hamilton County,OH,NA,NA,NA,NA,49.25925925925926
45238,Hamilton County,OH,NA,NA,NA,NA,7.4074074074074066
45239,Hamilton County,OH,NA,20.070422535211268,NA,NA,NA
45241,Hamilton County,OH,42.23107569721115,NA,NA,NA,NA
45244,Hamilton County,OH,38.047808764940235,NA,NA,45.839636913767016,NA
45245,Clermont County,OH,NA,NA,NA,NA,70.55555555555556
45246,Hamilton County,OH,NA,39.7887323943662,NA,NA,NA
45251,Hamilton County,OH,13.94422310756972,NA,51.183970856102,NA,NA
45255,Hamilton County,OH,NA,NA,68.12386156648452,NA,NA
45322,Montgomery County,OH,NA,NA,73.40619307832422,NA,NA
45381,Preble County,OH,NA,83.45070422535211,NA,NA,NA
45404,Montgomery County,OH,NA,27.464788732394368,NA,NA,NA
45415,Montgomery County,OH,NA,NA,79.23497267759562,NA,NA
45420,Montgomery County,OH,15.53784860557769,NA,NA,NA,NA
45426,Montgomery County,OH,NA,NA,51.36612021857923,NA,NA
45429,Montgomery County,OH,21.713147410358566,NA,NA,NA,NA
45449,Montgomery County,OH,NA,NA,NA,NA,42.96296296296296
45601,Ross County,OH,NA,NA,NA,NA,13.148148148148147
45619,Lawrence County,OH,33.66533864541832,NA,NA,NA,NA
45638,Lawrence County,OH,NA,NA,NA,2.723146747352496,NA
45640,Jackson County,OH,NA,NA,NA,5.29500756429652,NA
45669,Lawrence County,OH,23.306772908366533,NA,NA,NA,NA
45714,Washington County,OH,NA,NA,16.757741347905284,NA,NA
45817,Allen County,OH,NA,NA,NA,NA,84.25925925925925
45827,Putnam County,OH,98.80478087649402,NA,NA,NA,NA
45891,Van Wert County,OH,30.87649402390438,NA,NA,NA,NA
73005,Caddo County,OK,87.25099601593625,NA,NA,NA,NA
73012,Oklahoma County,OK,NA,79.5774647887324,NA,NA,NA
73020,Oklahoma County,OK,NA,NA,37.52276867030965,NA,NA
73036,Canadian County,OK,NA,NA,NA,62.93494704992436,NA
73045,Oklahoma County,OK,NA,NA,NA,NA,91.66666666666666
73049,Oklahoma County,OK,NA,NA,93.26047358834244,NA,NA
73051,Cleveland County,OK,NA,72.88732394366197,NA,NA,NA
73052,Garvin County,OK,NA,NA,92.71402550091075,NA,NA
73054,Oklahoma County,OK,NA,NA,98.72495446265937,NA,NA
73099,Canadian County,OK,NA,NA,NA,5.446293494704992,54.44444444444444
73105,Oklahoma County,OK,81.67330677290838,NA,NA,NA,NA
73108,Oklahoma County,OK,NA,NA,NA,72.61724659606656,NA
73114,Oklahoma County,OK,NA,NA,NA,NA,82.5925925925926
73115,Oklahoma County,OK,NA,NA,NA,42.511346444780635,NA
73120,Oklahoma County,OK,NA,NA,39.34426229508197,NA,NA
73135,Oklahoma County,OK,NA,NA,NA,56.732223903177,NA
73170,Cleveland County,OK,24.10358565737052,92.25352112676056,29.87249544626594,NA,NA
73507,Comanche County,OK,NA,NA,NA,NA,64.25925925925927
73529,Stephens County,OK,68.12749003984064,NA,NA,NA,NA
73538,Comanche County,OK,93.22709163346613,NA,NA,NA,NA
74006,Washington County,OK,NA,NA,NA,NA,66.85185185185185
74012,Tulsa County,OK,NA,NA,23.67941712204007,NA,NA
74017,Rogers County,OK,NA,NA,NA,79.4251134644478,NA
74021,Tulsa County,OK,NA,NA,NA,64.2965204236006,NA
74029,Washington County,OK,NA,NA,NA,93.19213313161876,94.25925925925925
74055,Tulsa County,OK,NA,NA,52.82331511839708,NA,NA
74063,Tulsa County,OK,NA,NA,NA,NA,50.55555555555556
74066,Creek County,OK,NA,42.95774647887324,NA,NA,NA
74105,Tulsa County,OK,NA,NA,35.33697632058288,NA,61.85185185185185
74133,Tulsa County,OK,NA,NA,NA,NA,9.25925925925926
74354,Ottawa County,OK,NA,NA,52.09471766848816,NA,62.40740740740741
74401,Muskogee County,OK,NA,NA,NA,NA,66.48148148148148
74429,Wagoner County,OK,NA,NA,NA,NA,73.70370370370371
74464,Cherokee County,OK,NA,NA,8.19672131147541,NA,NA
74804,Pottawatomie County,OK,NA,NA,NA,NA,33.88888888888889
97007,Washington County,OR,NA,NA,NA,NA,37.22222222222222
97015,Clackamas County,OR,NA,NA,NA,NA,68.88888888888889
97023,Clackamas County,OR,NA,NA,NA,88.19969742813917,NA
97030,Multnomah County,OR,NA,NA,NA,16.49016641452345,NA
97045,Clackamas County,OR,NA,NA,43.533697632058285,NA,12.777777777777777
97070,Clackamas County,OR,NA,NA,NA,NA,32.592592592592595
97080,Multnomah County,OR,NA,NA,58.834244080145716,NA,NA
97219,Multnomah County,OR,NA,NA,NA,28.895612708018152,NA
97223,Washington County,OR,NA,NA,NA,23.14674735249622,NA
97225,Washington County,OR,NA,NA,NA,88.50226928895613,NA
97229,Washington County,OR,NA,NA,NA,71.40695915279879,NA
97233,Multnomah County,OR,NA,NA,15.482695810564662,NA,NA
97236,Multnomah County,OR,NA,NA,NA,25.113464447806354,NA
97266,Multnomah County,OR,NA,70.4225352112676,NA,NA,NA
97301,Marion County,OR,NA,NA,12.021857923497267,22.844175491679273,NA
97302,Marion County,OR,NA,NA,41.16575591985428,NA,NA
97322,Linn County,OR,NA,NA,NA,NA,6.481481481481481
97355,Linn County,OR,NA,NA,10.92896174863388,NA,5.185185185185185
97367,Lincoln County,OR,NA,NA,74.4990892531876,NA,NA
97465,Curry County,OR,NA,NA,100,NA,NA
97471,Douglas County,OR,NA,NA,16.21129326047359,NA,NA
97478,Lane County,OR,NA,NA,71.94899817850637,NA,NA
97496,Douglas County,OR,NA,NA,NA,71.55824508320727,NA
97502,Jackson County,OR,NA,NA,73.58834244080145,NA,NA
97520,Jackson County,OR,NA,NA,NA,NA,29.629629629629626
97527,Josephine County,OR,NA,NA,NA,17.39788199697428,NA
97754,Crook County,OR,NA,NA,NA,57.639939485627835,NA
97838,Umatilla County,OR,NA,NA,NA,15.279878971255673,NA
97850,Union County,OR,30.47808764940239,NA,NA,NA,NA
97862,Umatilla County,OR,79.08366533864542,NA,NA,NA,NA
15074,Beaver County,PA,NA,NA,66.12021857923497,NA,NA
15102,Allegheny County,PA,50.59760956175299,NA,NA,NA,NA
15116,Allegheny County,PA,NA,NA,87.06739526411657,NA,NA
15122,Allegheny County,PA,NA,NA,NA,55.6732223903177,NA
15147,Allegheny County,PA,42.03187250996016,NA,NA,NA,NA
15204,Allegheny County,PA,19.9203187250996,NA,NA,NA,NA
15227,Allegheny County,PA,NA,76.40845070422534,34.244080145719494,NA,NA
15235,Allegheny County,PA,NA,48.23943661971831,NA,NA,NA
15236,Allegheny County,PA,NA,NA,NA,NA,8.88888888888889
15237,Allegheny County,PA,NA,NA,NA,NA,2.5925925925925926
15301,Washington County,PA,NA,20.422535211267608,NA,NA,NA
15601,Westmoreland County,PA,1.394422310756972,NA,NA,NA,NA
15642,Westmoreland County,PA,NA,NA,20.58287795992714,NA,NA
15679,Westmoreland County,PA,97.01195219123507,NA,NA,NA,NA
15824,Jefferson County,PA,NA,NA,NA,84.26626323751891,NA
15853,Elk County,PA,NA,NA,63.02367941712204,NA,NA
15902,Cambria County,PA,NA,NA,NA,NA,69.25925925925925
15904,Cambria County,PA,NA,NA,NA,70.49924357034796,19.25925925925926
16001,Butler County,PA,NA,NA,3.278688524590164,NA,NA
16053,Butler County,PA,85.2589641434263,NA,NA,NA,NA
16105,Lawrence County,PA,NA,NA,59.01639344262295,NA,NA
16121,Mercer County,PA,NA,NA,72.85974499089252,NA,NA
16127,Mercer County,PA,NA,NA,73.04189435336977,NA,76.66666666666667
16137,Mercer County,PA,83.26693227091634,NA,NA,NA,NA
16201,Armstrong County,PA,NA,NA,NA,62.481089258698944,NA
16214,Clarion County,PA,NA,70.77464788732394,NA,NA,NA
16335,Crawford County,PA,NA,NA,NA,NA,17.77777777777778
16412,Erie County,PA,NA,NA,NA,NA,98.51851851851852
16602,Blair County,PA,NA,NA,NA,NA,21.296296296296298
16648,Blair County,PA,51.19521912350598,NA,NA,NA,NA
16933,Tioga County,PA,NA,NA,90.52823315118397,NA,NA
17019,York County,PA,59.36254980079681,NA,NA,NA,NA
17033,Dauphin County,PA,1.9920318725099602,NA,NA,NA,NA
17042,Lebanon County,PA,NA,NA,NA,NA,18.333333333333332
17046,Lebanon County,PA,NA,19.014084507042252,NA,NA,NA
17055,Cumberland County,PA,NA,NA,27.322404371584703,NA,NA
17113,Dauphin County,PA,31.274900398406373,NA,NA,NA,NA
17233,Fulton County,PA,NA,NA,82.33151183970855,NA,50.18518518518519
17301,Adams County,PA,97.41035856573706,NA,NA,NA,NA
17313,York County,PA,NA,NA,NA,76.39939485627836,NA
17408,York County,PA,NA,NA,NA,NA,12.592592592592592
17522,Lancaster County,PA,NA,NA,NA,43.57034795763994,NA
17543,Lancaster County,PA,NA,NA,NA,9.07715582450832,NA
17584,Lancaster County,PA,92.43027888446214,NA,NA,NA,NA
17603,Lancaster County,PA,NA,29.929577464788732,NA,NA,NA
17701,Lycoming County,PA,3.7848605577689245,NA,NA,NA,NA
17815,Columbia County,PA,NA,NA,15.846994535519126,NA,NA
17901,Schuylkill County,PA,6.374501992031872,NA,NA,NA,NA
18014,Northampton County,PA,NA,NA,41.53005464480874,70.95310136157337,NA
18020,Northampton County,PA,NA,NA,NA,NA,79.44444444444444
18040,Northampton County,PA,NA,NA,69.94535519125684,NA,NA
18042,Northampton County,PA,NA,17.95774647887324,5.828779599271402,NA,NA
18049,Lehigh County,PA,NA,NA,NA,40.847201210287444,NA
18052,Lehigh County,PA,12.350597609561753,NA,18.21493624772313,NA,NA
18064,Northampton County,PA,NA,NA,NA,NA,16.85185185185185
18088,Northampton County,PA,NA,NA,87.61384335154827,NA,NA
18109,Lehigh County,PA,NA,NA,NA,48.26021180030257,NA
18202,Luzerne County,PA,NA,NA,46.26593806921676,42.81391830559758,NA
18252,Schuylkill County,PA,NA,84.50704225352112,NA,NA,NA
18328,Pike County,PA,NA,NA,NA,74.13010590015129,NA
18407,Lackawanna County,PA,NA,NA,46.083788706739526,NA,NA
18411,Lackawanna County,PA,NA,NA,NA,54.462934947049924,NA
18428,Pike County,PA,71.11553784860558,NA,NA,NA,NA
18447,Lackawanna County,PA,NA,NA,79.96357012750455,NA,NA
18509,Lackawanna County,PA,NA,NA,NA,NA,66.85185185185185
18510,Lackawanna County,PA,NA,NA,67.57741347905282,NA,NA
18612,Luzerne County,PA,61.15537848605578,NA,NA,NA,NA
18621,Luzerne County,PA,88.44621513944223,NA,NA,NA,NA
18640,Luzerne County,PA,NA,NA,NA,NA,21.11111111111111
18644,Luzerne County,PA,NA,87.32394366197182,NA,NA,NA
18657,Wyoming County,PA,NA,NA,NA,58.69894099848714,NA
18704,Luzerne County,PA,NA,NA,15.664845173041893,NA,NA
18901,Bucks County,PA,77.09163346613546,NA,NA,NA,NA
18914,Bucks County,PA,77.09163346613546,NA,NA,NA,NA
18940,Bucks County,PA,47.60956175298805,NA,NA,NA,NA
18964,Montgomery County,PA,83.66533864541833,NA,NA,NA,NA
18966,Bucks County,PA,NA,NA,NA,8.925869894099849,NA
19008,Delaware County,PA,49.00398406374502,NA,NA,NA,NA
19020,Bucks County,PA,NA,68.66197183098592,NA,NA,NA
19027,Montgomery County,PA,77.49003984063745,NA,NA,NA,NA
19060,Delaware County,PA,83.86454183266933,NA,NA,NA,NA
19063,Delaware County,PA,48.40637450199203,NA,NA,NA,NA
19090,Montgomery County,PA,NA,NA,46.63023679417122,NA,NA
19111,Philadelphia County,PA,NA,NA,NA,4.084720121028744,11.11111111111111
19115,Philadelphia County,PA,NA,60.91549295774647,NA,NA,NA
19116,Philadelphia County,PA,62.35059760956175,NA,NA,NA,NA
19128,Philadelphia County,PA,53.98406374501992,NA,NA,NA,NA
19136,Philadelphia County,PA,47.211155378486055,NA,NA,NA,NA
19141,Philadelphia County,PA,NA,NA,NA,NA,30.555555555555557
19144,Philadelphia County,PA,NA,NA,NA,81.08925869894101,NA
19154,Philadelphia County,PA,9.163346613545817,NA,NA,NA,NA
19312,Chester County,PA,NA,NA,NA,47.50378214826021,NA
19390,Chester County,PA,NA,82.74647887323944,81.05646630236795,NA,NA
19401,Montgomery County,PA,NA,33.80281690140845,8.014571948998178,NA,NA
19462,Montgomery County,PA,83.06772908366534,NA,NA,NA,NA
19464,Montgomery County,PA,NA,40.845070422535215,NA,NA,32.407407407407405
19465,Chester County,PA,NA,NA,NA,66.11195158850227,NA
19473,Montgomery County,PA,82.47011952191235,NA,NA,NA,NA
19525,Montgomery County,PA,NA,NA,NA,44.62934947049924,NA
19526,Berks County,PA,66.53386454183267,NA,NA,NA,NA
19606,Berks County,PA,NA,NA,10.564663023679417,NA,NA
02816,Kent County,RI,39.6414342629482,NA,NA,NA,NA
02837,Newport County,RI,NA,NA,96.72131147540983,NA,NA
02864,Providence County,RI,22.90836653386454,NA,NA,NA,NA
02886,Kent County,RI,NA,NA,NA,22.390317700453856,NA
02896,Providence County,RI,NA,NA,NA,NA,74.62962962962963
02907,Providence County,RI,NA,NA,NA,51.58850226928896,NA
02920,Providence County,RI,NA,NA,27.686703096539162,NA,NA
29020,Kershaw County,SC,NA,NA,NA,34.64447806354009,NA
29135,Calhoun County,SC,NA,97.53521126760563,NA,NA,NA
29150,Sumter County,SC,NA,NA,NA,25.416036308623298,NA
29301,Spartanburg County,SC,NA,47.53521126760563,NA,NA,NA
29303,Spartanburg County,SC,NA,NA,41.712204007285976,NA,NA
29341,Cherokee County,SC,48.007968127490045,NA,NA,NA,NA
29349,Spartanburg County,SC,NA,NA,NA,NA,23.333333333333332
29360,Laurens County,SC,NA,NA,37.340619307832426,NA,NA
29379,Union County,SC,NA,NA,NA,42.36006051437216,NA
29385,Spartanburg County,SC,NA,NA,NA,NA,91.48148148148148
29407,Charleston County,SC,NA,NA,NA,NA,14.074074074074074
29412,Charleston County,SC,NA,NA,NA,NA,11.481481481481481
29418,Charleston County,SC,NA,NA,35.88342440801457,NA,NA
29456,Dorchester County,SC,NA,NA,NA,NA,97.77777777777777
29461,Berkeley County,SC,NA,NA,NA,32.22390317700454,NA
29501,Florence County,SC,NA,NA,NA,NA,35.55555555555556
29506,Florence County,SC,31.47410358565737,NA,NA,NA,NA
29526,Horry County,SC,NA,NA,NA,NA,23.14814814814815
29532,Darlington County,SC,NA,NA,NA,51.43721633888049,NA
29565,Dillon County,SC,NA,NA,90.89253187613843,NA,NA
29585,Georgetown County,SC,NA,NA,NA,49.319213313161875,NA
29605,Greenville County,SC,NA,NA,NA,11.043872919818456,NA
29607,Greenville County,SC,13.346613545816732,62.323943661971825,NA,NA,NA
29611,Greenville County,SC,NA,NA,NA,NA,26.851851851851855
29617,Greenville County,SC,NA,NA,NA,NA,30.925925925925924
29620,Abbeville County,SC,NA,NA,84.69945355191257,NA,NA
29627,Anderson County,SC,NA,NA,NA,NA,94.62962962962963
29640,Pickens County,SC,NA,NA,NA,21.482602118003026,NA
29644,Greenville County,SC,NA,NA,NA,61.27080181543116,69.44444444444444
29650,Greenville County,SC,NA,NA,34.60837887067395,NA,NA
29651,Greenville County,SC,8.964143426294822,NA,NA,12.708018154311649,NA
29671,Pickens County,SC,44.42231075697211,NA,NA,NA,NA
29673,Greenville County,SC,NA,NA,72.31329690346084,NA,NA
29680,Greenville County,SC,68.72509960159363,NA,NA,NA,NA
29681,Greenville County,SC,NA,NA,NA,14.069591527987896,NA
29708,York County,SC,92.82868525896414,NA,NA,NA,NA
29803,Aiken County,SC,NA,NA,NA,7.2617246596066565,NA
29906,Beaufort County,SC,NA,65.14084507042254,NA,NA,NA
29909,Beaufort County,SC,NA,NA,NA,NA,15.74074074074074
29910,Beaufort County,SC,NA,NA,72.1311475409836,NA,NA
29924,Hampton County,SC,NA,NA,NA,93.64599092284418,NA
29927,Jasper County,SC,NA,NA,NA,NA,79.81481481481481
57105,Minnehaha County,SD,NA,NA,NA,NA,4.074074074074074
57701,Pennington County,SD,NA,NA,NA,NA,7.4074074074074066
37040,Montgomery County,TN,NA,NA,23.31511839708561,NA,NA
37055,Dickson County,TN,NA,NA,22.404371584699454,NA,NA
37073,Robertson County,TN,NA,NA,86.33879781420765,NA,NA
37075,Sumner County,TN,NA,NA,45.90163934426229,NA,NA
37076,Davidson County,TN,NA,NA,NA,NA,38.51851851851852
37083,Macon County,TN,NA,NA,NA,33.43419062027231,NA
37096,Perry County,TN,NA,NA,NA,97.73071104387292,NA
37115,Davidson County,TN,NA,31.338028169014088,NA,NA,NA
37122,Wilson County,TN,7.968127490039841,NA,NA,NA,NA
37160,Bedford County,TN,NA,NA,NA,33.13161875945537,NA
37167,Rutherford County,TN,NA,NA,NA,NA,34.81481481481482
37190,Cannon County,TN,NA,85.91549295774648,NA,NA,NA
37217,Davidson County,TN,NA,NA,39.526411657559194,55.52193645990923,NA
37322,Meigs County,TN,67.52988047808765,NA,NA,NA,NA
37331,McMinn County,TN,NA,NA,78.68852459016394,NA,NA
37380,Marion County,TN,NA,NA,NA,NA,91.2962962962963
37381,Rhea County,TN,NA,NA,NA,66.56580937972768,NA
37385,Monroe County,TN,NA,NA,NA,60.06051437216339,NA
37398,Franklin County,TN,68.92430278884463,NA,NA,NA,NA
37402,Hamilton County,TN,NA,94.71830985915493,NA,NA,NA
37411,Hamilton County,TN,NA,33.80281690140845,NA,NA,NA
37412,Hamilton County,TN,NA,53.87323943661971,NA,NA,55.18518518518518
37618,Sullivan County,TN,NA,51.40845070422535,NA,NA,NA
37620,Sullivan County,TN,NA,NA,NA,NA,15.555555555555555
37643,Carter County,TN,NA,NA,NA,6.202723146747353,NA
37658,Carter County,TN,89.04382470119522,NA,NA,NA,NA
37686,Sullivan County,TN,NA,NA,NA,NA,91.85185185185185
37701,Blount County,TN,NA,NA,NA,68.38124054462935,NA
37774,Loudon County,TN,NA,NA,NA,22.692889561270803,NA
37801,Blount County,TN,NA,NA,14.025500910746814,NA,29.629629629629626
37803,Blount County,TN,NA,NA,NA,12.254160363086234,NA
37821,Cocke County,TN,NA,NA,44.44444444444444,NA,NA
37840,Roane County,TN,NA,NA,90.34608378870675,NA,73.14814814814815
37849,Knox County,TN,NA,NA,NA,NA,44.074074074074076
37857,Hawkins County,TN,NA,NA,NA,73.37367624810892,NA
37862,Sevier County,TN,NA,NA,NA,52.04236006051437,40.18518518518518
37863,Sevier County,TN,NA,NA,NA,84.56883509833585,NA
37865,Sevier County,TN,NA,NA,NA,NA,34.44444444444444
37874,Monroe County,TN,NA,NA,36.79417122040073,NA,NA
37914,Knox County,TN,NA,NA,33.87978142076503,NA,NA
37918,Knox County,TN,NA,NA,NA,20.272314674735252,NA
37931,Knox County,TN,NA,NA,40.255009107468126,NA,NA
37932,Knox County,TN,NA,NA,NA,66.26323751891074,NA
37938,Knox County,TN,NA,NA,NA,NA,67.4074074074074
38017,Shelby County,TN,NA,65.49295774647888,NA,NA,NA
38024,Dyer County,TN,NA,NA,57.74134790528234,NA,NA
38118,Shelby County,TN,NA,10.56338028169014,17.122040072859747,NA,NA
38134,Shelby County,TN,NA,NA,NA,NA,52.77777777777778
38375,McNairy County,TN,NA,NA,93.44262295081968,NA,NA
38464,Lawrence County,TN,37.25099601593625,NA,NA,NA,NA
38506,Putnam County,TN,NA,NA,38.61566484517304,NA,NA
38544,Putnam County,TN,NA,NA,67.39526411657559,NA,NA
38558,Cumberland County,TN,NA,NA,NA,NA,39.07407407407407
38574,Putnam County,TN,NA,NA,NA,NA,95
75007,Denton County,TX,NA,NA,NA,60.21180030257186,NA
75020,Grayson County,TX,NA,NA,NA,NA,40.74074074074074
75023,Collin County,TX,59.561752988047814,NA,NA,NA,NA
75024,Collin County,TX,NA,NA,NA,NA,65.92592592592592
75025,Collin County,TX,NA,NA,NA,54.462934947049924,NA
75048,Dallas County,TX,30.87649402390438,NA,NA,NA,NA
75051,Dallas County,TX,7.768924302788845,NA,NA,48.41149773071105,NA
75056,Denton County,TX,9.9601593625498,NA,NA,NA,NA
75061,Dallas County,TX,NA,NA,NA,24.205748865355524,NA
75075,Collin County,TX,NA,NA,66.12021857923497,NA,NA
75080,Dallas County,TX,31.872509960159363,NA,NA,43.267776096823,NA
75081,Dallas County,TX,NA,NA,71.22040072859745,NA,NA
75082,Collin County,TX,64.9402390438247,NA,NA,NA,NA
75092,Grayson County,TX,49.800796812749006,NA,NA,49.92435703479576,NA
75094,Collin County,TX,NA,NA,78.32422586520947,78.81996974281392,NA
75104,Dallas County,TX,NA,NA,22.22222222222222,NA,NA
75116,Dallas County,TX,NA,NA,NA,NA,86.11111111111111
75140,Van Zandt County,TX,NA,NA,80.87431693989072,NA,NA
75152,Ellis County,TX,76.69322709163346,NA,NA,NA,NA
75189,Rockwall County,TX,34.8605577689243,NA,NA,NA,NA
75211,Dallas County,TX,NA,NA,NA,21.6338880484115,NA
75218,Dallas County,TX,55.17928286852589,NA,77.59562841530054,NA,NA
75225,Dallas County,TX,89.44223107569721,NA,NA,NA,NA
75228,Dallas County,TX,2.3904382470119523,NA,NA,NA,NA
75229,Dallas County,TX,NA,NA,76.86703096539162,NA,NA
75230,Dallas County,TX,NA,NA,NA,46.4447806354009,81.11111111111111
75231,Dallas County,TX,8.565737051792828,NA,NA,NA,NA
75233,Dallas County,TX,NA,NA,NA,80.48411497730712,NA
75241,Dallas County,TX,NA,21.47887323943662,NA,NA,NA
75495,Grayson County,TX,NA,NA,91.80327868852459,NA,NA
75605,Gregg County,TX,NA,NA,51.73041894353369,37.97276853252647,NA
75640,Upshur County,TX,NA,NA,92.34972677595628,NA,NA
75647,Gregg County,TX,NA,NA,NA,NA,68.33333333333333
75686,Camp County,TX,64.5418326693227,NA,NA,NA,NA
75701,Smith County,TX,NA,NA,NA,NA,3.888888888888889
75702,Smith County,TX,NA,59.154929577464785,NA,NA,NA
75771,Smith County,TX,20.318725099601593,NA,NA,NA,NA
75785,Cherokee County,TX,NA,NA,69.76320582877959,NA,NA
75901,Angelina County,TX,NA,NA,NA,39.334341906202724,NA
75904,Angelina County,TX,NA,NA,NA,NA,38.148148148148145
75941,Angelina County,TX,NA,NA,NA,83.35854765506808,NA
75951,Jasper County,TX,NA,NA,NA,76.39939485627836,NA
76009,Johnson County,TX,NA,NA,64.66302367941712,NA,NA
76014,Tarrant County,TX,NA,NA,NA,NA,72.4074074074074
76016,Tarrant County,TX,NA,NA,68.30601092896174,NA,NA
76017,Tarrant County,TX,NA,NA,NA,29.500756429652043,NA
76020,Tarrant County,TX,NA,NA,NA,27.685325264750375,NA
76021,Tarrant County,TX,28.48605577689243,NA,NA,NA,NA
76022,Tarrant County,TX,47.01195219123506,NA,NA,NA,NA
76033,Johnson County,TX,NA,NA,33.697632058287795,NA,NA
76034,Tarrant County,TX,75.89641434262948,NA,NA,NA,NA
76036,Tarrant County,TX,NA,NA,NA,57.48865355521936,54.81481481481482
76051,Tarrant County,TX,NA,NA,29.326047358834245,NA,NA
76052,Tarrant County,TX,45.61752988047809,NA,NA,NA,NA
76053,Tarrant County,TX,NA,98.23943661971832,NA,NA,NA
76059,Johnson County,TX,NA,NA,99.81785063752277,NA,NA
76065,Ellis County,TX,NA,NA,NA,70.19667170953102,NA
76078,Wise County,TX,NA,NA,NA,95.46142208774585,NA
76085,Parker County,TX,NA,NA,NA,58.09379727685325,NA
76092,Tarrant County,TX,NA,NA,NA,60.514372163388806,NA
76102,Tarrant County,TX,NA,NA,NA,96.97428139183056,NA
76106,Tarrant County,TX,NA,NA,46.81238615664845,NA,NA
76112,Tarrant County,TX,NA,NA,NA,98.33585476550681,NA
76120,Tarrant County,TX,54.7808764940239,NA,NA,NA,NA
76133,Tarrant County,TX,NA,NA,17.850637522768668,NA,NA
76137,Tarrant County,TX,21.51394422310757,NA,NA,NA,NA
76179,Tarrant County,TX,NA,NA,NA,NA,58.51851851851851
76180,Tarrant County,TX,NA,NA,NA,69.89409984871406,NA
76182,Tarrant County,TX,NA,NA,NA,34.34190620272315,NA
76208,Denton County,TX,NA,NA,NA,48.56278366111952,NA
76240,Cooke County,TX,NA,NA,NA,35.24962178517398,NA
76244,Tarrant County,TX,3.187250996015936,NA,NA,NA,NA
76306,Wichita County,TX,NA,NA,NA,NA,83.14814814814815
76426,Wise County,TX,NA,NA,NA,69.7428139183056,NA
76502,Bell County,TX,NA,NA,44.990892531876135,NA,NA
76504,Bell County,TX,23.107569721115535,NA,57.19489981785064,NA,NA
76513,Bell County,TX,NA,38.028169014084504,NA,NA,75.74074074074075
76522,Coryell County,TX,NA,NA,NA,9.379727685325264,NA
76542,Bell County,TX,NA,19.366197183098592,NA,NA,NA
76543,Bell County,TX,NA,NA,26.229508196721312,NA,NA
76549,Bell County,TX,NA,11.267605633802818,NA,NA,NA
76901,Tom Green County,TX,37.45019920318725,NA,NA,NA,NA
77015,Harris County,TX,NA,23.591549295774648,NA,NA,NA
77020,Harris County,TX,NA,NA,59.92714025500911,53.40393343419062,NA
77022,Harris County,TX,NA,57.74647887323944,NA,NA,NA
77025,Harris County,TX,NA,NA,NA,69.59152798789712,63.51851851851852
77031,Harris County,TX,NA,NA,NA,83.35854765506808,NA
77034,Harris County,TX,NA,NA,58.46994535519126,NA,NA
77040,Harris County,TX,NA,NA,NA,28.74432677760968,NA
77041,Harris County,TX,38.44621513944223,NA,NA,NA,NA
77044,Harris County,TX,NA,NA,NA,NA,82.22222222222221
77045,Harris County,TX,NA,64.7887323943662,NA,NA,NA
77056,Harris County,TX,NA,NA,NA,82.60211800302571,NA
77059,Harris County,TX,87.64940239043824,NA,NA,NA,NA
77063,Harris County,TX,NA,NA,NA,72.31467473524961,NA
77066,Harris County,TX,NA,38.38028169014084,NA,NA,NA
77072,Harris County,TX,NA,4.929577464788732,NA,NA,NA
77083,Harris County,TX,NA,NA,38.25136612021858,NA,NA
77091,Harris County,TX,NA,NA,NA,48.1089258698941,NA
77095,Harris County,TX,NA,NA,NA,45.99092284417549,NA
77096,Harris County,TX,NA,NA,NA,76.2481089258699,NA
77339,Harris County,TX,39.243027888446214,NA,NA,NA,34.074074074074076
77380,Montgomery County,TX,52.191235059760956,NA,NA,NA,NA
77386,Montgomery County,TX,19.9203187250996,NA,NA,NA,NA
77389,Harris County,TX,95.0199203187251,NA,NA,NA,NA
77407,Fort Bend County,TX,NA,72.88732394366197,NA,NA,NA
77437,Wharton County,TX,NA,NA,NA,61.57337367624811,NA
77450,Harris County,TX,NA,NA,34.42622950819672,NA,NA
77459,Fort Bend County,TX,13.147410358565736,NA,NA,9.531013615733738,NA
77477,Fort Bend County,TX,NA,NA,NA,42.05748865355522,NA
77484,Waller County,TX,NA,96.83098591549296,NA,NA,NA
77503,Harris County,TX,NA,41.901408450704224,NA,NA,88.88888888888889
77505,Harris County,TX,NA,NA,86.520947176684885,NA,NA
77510,Galveston County,TX,NA,NA,NA,NA,56.111111111111114
77536,Harris County,TX,NA,NA,36.0655737704918,NA,NA
77541,Brazoria County,TX,NA,56.690140845070424,NA,NA,NA
77581,Brazoria County,TX,NA,NA,NA,19.667170953101362,NA
77584,Brazoria County,TX,NA,NA,NA,18.00302571860817,NA
77586,Harris County,TX,NA,NA,NA,NA,72.03703703703704
77590,Galveston County,TX,NA,NA,NA,12.102874432677762,NA
77630,Orange County,TX,NA,NA,NA,NA,42.407407407407405
77651,Jefferson County,TX,NA,NA,88.70673952641167,NA,NA
77705,Jefferson County,TX,NA,NA,41.34790528233151,NA,NA
77954,DeWitt County,TX,NA,NA,71.58469945355192,NA,NA
77979,Calhoun County,TX,NA,92.6056338028169,NA,62.178517397882,NA
77995,Lavaca County,TX,NA,NA,NA,74.43267776096822,NA
78028,Kerr County,TX,64.5418326693227,NA,NA,NA,4.62962962962963
78040,Webb County,TX,NA,NA,NA,NA,15.925925925925927
78045,Webb County,TX,NA,7.042253521126761,NA,NA,NA
78046,Webb County,TX,NA,2.8169014084507045,NA,NA,NA
78063,Bandera County,TX,85.65737051792829,NA,NA,NA,NA
78065,Atascosa County,TX,NA,NA,NA,NA,82.4074074074074
78073,Bexar County,TX,NA,68.30985915492957,NA,NA,NA
78132,Comal County,TX,NA,NA,NA,80.0302571860817,NA
78201,Bexar County,TX,NA,25.704225352112676,NA,NA,NA
78207,Bexar County,TX,NA,7.746478873239436,NA,NA,NA
78216,Bexar County,TX,28.884462151394423,NA,NA,NA,NA
78229,Bexar County,TX,NA,35.2112676056338,NA,NA,NA
78242,Bexar County,TX,NA,44.36619718309859,NA,NA,NA
78244,Bexar County,TX,NA,72.53521126760563,NA,NA,NA
78250,Bexar County,TX,NA,26.408450704225352,NA,NA,NA
78251,Bexar County,TX,NA,NA,56.102003642987256,NA,NA
78355,Brooks County,TX,NA,90.14084507042254,NA,NA,NA
78415,Nueces County,TX,NA,17.6056338028169,NA,NA,NA
78501,Hidalgo County,TX,NA,6.690140845070422,NA,20.87745839636914,NA
78503,Hidalgo County,TX,NA,75,NA,NA,NA
78520,Cameron County,TX,NA,1.056338028169014,NA,NA,21.85185185185185
78521,Cameron County,TX,NA,0.35211267605633806,NA,NA,NA
78541,Hidalgo County,TX,NA,27.11267605633803,NA,NA,NA
78543,Hidalgo County,TX,NA,NA,NA,NA,96.66666666666667
78550,Cameron County,TX,NA,NA,NA,37.367624810892586,NA
78566,Cameron County,TX,NA,12.323943661971832,NA,NA,NA
78570,Hidalgo County,TX,NA,NA,71.76684881602914,NA,NA
78572,Hidalgo County,TX,NA,5.28169014084507,NA,NA,NA
78574,Hidalgo County,TX,NA,NA,33.33333333333333,NA,NA
78586,Cameron County,TX,NA,14.43661971830986,NA,NA,NA
78602,Bastrop County,TX,NA,NA,NA,NA,58.88888888888889
78610,Hays County,TX,41.03585657370518,NA,NA,NA,NA
78613,Williamson County,TX,NA,NA,NA,16.036308623298034,NA
78660,Travis County,TX,12.94820717131474,NA,NA,NA,NA
78664,Williamson County,TX,NA,NA,44.26229508196721,NA,NA
78681,Williamson County,TX,17.729083665338646,NA,NA,NA,NA
78726,Travis County,TX,NA,NA,97.632058287796,NA,NA
78934,Colorado County,TX,NA,NA,NA,66.86838124054462,NA
78945,Fayette County,TX,NA,NA,NA,80.0302571860817,NA
79103,Potter County,TX,NA,NA,NA,99.24357034795764,NA
79108,Potter County,TX,NA,NA,NA,78.06354009077155,NA
79118,Randall County,TX,NA,78.16901408450704,74.13479052823315,NA,NA
79336,Hockley County,TX,NA,NA,73.224043715847,NA,NA
79382,Lubbock County,TX,NA,NA,NA,NA,94.81481481481482
79403,Lubbock County,TX,NA,NA,50.63752276867031,NA,NA
79416,Lubbock County,TX,NA,NA,NA,NA,65.18518518518519
79424,Lubbock County,TX,14.143426294820719,NA,NA,NA,NA
79512,Mitchell County,TX,NA,NA,85.42805100182149,NA,NA
79549,Scurry County,TX,38.645418326693225,NA,NA,NA,NA
79606,Taylor County,TX,NA,NA,NA,52.344931921331316,NA
79701,Midland County,TX,NA,NA,NA,NA,96.29629629629629
79720,Howard County,TX,NA,NA,NA,NA,53.70370370370371
79731,Crane County,TX,78.08764940239044,NA,NA,NA,NA
79735,Pecos County,TX,NA,NA,70.67395264116576,NA,NA
79762,Ector County,TX,NA,NA,NA,NA,59.44444444444444
79849,El Paso County,TX,NA,NA,NA,92.13313161875945,NA
79907,El Paso County,TX,NA,7.394366197183098,NA,NA,NA
79912,El Paso County,TX,NA,22.183098591549296,NA,NA,NA
79924,El Paso County,TX,NA,NA,NA,26.021180030257185,20
79930,El Paso County,TX,NA,NA,NA,NA,55.74074074074075
79935,El Paso County,TX,NA,NA,NA,NA,82.03703703703704
84003,Utah County,UT,23.50597609561753,NA,NA,NA,NA
84005,Utah County,UT,58.56573705179283,NA,NA,NA,NA
84010,Davis County,UT,NA,NA,NA,58.85022692889561,NA
84025,Davis County,UT,57.96812749003985,NA,NA,NA,NA
84042,Utah County,UT,NA,NA,96.35701275045537,NA,NA
84043,Utah County,UT,NA,NA,43.71584699453552,68.07866868381241,NA
84047,Salt Lake County,UT,NA,NA,61.56648451730419,NA,NA
84058,Utah County,UT,NA,NA,NA,83.2072617246596,NA
84078,Uintah County,UT,15.936254980079681,NA,NA,NA,NA
84096,Salt Lake County,UT,59.76095617529881,NA,NA,NA,NA
84098,Summit County,UT,NA,NA,NA,47.352496217851744,NA
84103,Salt Lake County,UT,NA,NA,NA,71.25567322239031,NA
84104,Salt Lake County,UT,NA,NA,NA,NA,87.4074074074074
84105,Salt Lake County,UT,NA,NA,NA,65.50680786686837,NA
84123,Salt Lake County,UT,NA,NA,55.009107468123865,NA,NA
84124,Salt Lake County,UT,NA,NA,NA,99.09228441754917,NA
84337,Box Elder County,UT,NA,NA,96.53916211293262,NA,NA
84401,Weber County,UT,NA,80.98591549295774,NA,NA,NA
84404,Weber County,UT,NA,NA,NA,37.518910741301056,NA
84405,Weber County,UT,NA,NA,NA,NA,60.18518518518518
84653,Utah County,UT,NA,NA,96.90346083788707,NA,NA
84663,Utah County,UT,NA,NA,NA,86.83812405446294,NA
84664,Utah County,UT,NA,NA,NA,NA,99.81481481481481
84770,Washington County,UT,NA,NA,NA,NA,5
84780,Washington County,UT,NA,NA,NA,78.51739788199697,NA
84790,Washington County,UT,43.82470119521912,NA,NA,NA,26.666666666666668
05101,Windham County,VT,NA,NA,NA,97.2768532526475,NA
05403,Chittenden County,VT,NA,NA,NA,NA,81.66666666666667
05446,Chittenden County,VT,NA,NA,NA,43.11649016641452,NA
05602,Washington County,VT,NA,NA,NA,NA,95.92592592592592
05701,Rutland County,VT,NA,NA,34.60837887067395,NA,NA
20110,Manassas city,VA,5.378486055776892,NA,NA,NA,NA
20115,Fauquier County,VA,NA,NA,NA,99.84871406959152,NA
20170,Fairfax County,VA,NA,NA,NA,77.45839636913767,NA
22043,Fairfax County,VA,NA,NA,73.77049180327869,NA,NA
22102,Fairfax County,VA,NA,NA,77.77777777777779,NA,NA
22153,Fairfax County,VA,NA,NA,59.56284153005464,NA,NA
22180,Fairfax County,VA,NA,NA,NA,80.33282904689864,NA
22191,Prince William County,VA,NA,NA,NA,97.12556732223904,NA
22206,Arlington County,VA,NA,NA,NA,90.77155824508321,NA
22312,Fairfax County,VA,52.98804780876494,NA,NA,NA,90.18518518518519
22314,Alexandria city,VA,NA,NA,NA,50.07564296520424,NA
22315,Fairfax County,VA,45.0199203187251,NA,NA,NA,NA
22556,Stafford County,VA,NA,62.323943661971825,NA,NA,NA
22603,Frederick County,VA,73.70517928286853,NA,NA,95.31013615733737,NA
22657,Shenandoah County,VA,NA,NA,NA,NA,41.85185185185185
22701,Culpeper County,VA,NA,NA,24.043715846994534,NA,NA
22812,Rockingham County,VA,NA,NA,NA,NA,87.5925925925926
22815,Rockingham County,VA,NA,NA,NA,NA,57.407407407407405
22835,Page County,VA,NA,NA,NA,NA,41.2962962962963
22851,Page County,VA,NA,NA,NA,62.78366111951589,NA
22901,Albemarle County,VA,NA,NA,NA,NA,6.111111111111111
22902,Charlottesville city,VA,NA,NA,22.950819672131146,NA,87.22222222222223
22980,Waynesboro city,VA,NA,NA,NA,3.3282904689863844,NA
23005,Hanover County,VA,NA,NA,NA,NA,75.55555555555556
23072,Gloucester County,VA,NA,NA,NA,72.16338880484115,NA
23116,Hanover County,VA,NA,83.45070422535211,NA,54.16036308623298,NA
23120,Chesterfield County,VA,NA,NA,95.08196721311475,NA,NA
23139,Powhatan County,VA,NA,NA,NA,NA,47.40740740740741
23185,James City County,VA,NA,NA,34.06193078324226,45.38577912254161,0.5555555555555556
23188,James City County,VA,NA,NA,42.98724954462659,17.851739788199698,NA
23227,Henrico County,VA,NA,NA,39.162112932604735,NA,NA
23233,Henrico County,VA,74.5019920318725,NA,NA,NA,67.5925925925926
23234,Chesterfield County,VA,NA,NA,NA,31.921331316187597,NA
23235,Chesterfield County,VA,NA,NA,NA,NA,20.37037037037037
23237,Chesterfield County,VA,NA,NA,NA,NA,89.07407407407408
23321,Chesapeake city,VA,NA,NA,46.994535519125684,NA,NA
23323,Chesapeake city,VA,NA,77.46478873239437,81.9672131147541,NA,NA
23325,Chesapeake city,VA,NA,NA,NA,NA,44.62962962962963
23434,Suffolk city,VA,NA,NA,45.537340619307834,NA,NA
23435,Suffolk city,VA,NA,NA,NA,34.94704992435703,NA
23452,Virginia Beach city,VA,NA,23.239436619718308,NA,NA,NA
23453,Virginia Beach city,VA,NA,NA,NA,71.10438729198184,NA
23455,Virginia Beach city,VA,NA,NA,NA,6.959152798789712,13.333333333333334
23462,Virginia Beach city,VA,NA,NA,NA,NA,2.7777777777777777
23505,Norfolk city,VA,NA,NA,NA,NA,33.14814814814815
23605,Newport News city,VA,NA,84.50704225352112,NA,NA,NA
23692,York County,VA,96.61354581673307,NA,NA,NA,37.22222222222222
23701,Portsmouth city,VA,NA,NA,47.72313296903461,NA,NA
23704,Portsmouth city,VA,NA,NA,26.958105646630237,NA,NA
23803,Petersburg city,VA,NA,21.830985915492956,NA,NA,NA
23832,Chesterfield County,VA,NA,NA,NA,48.86535552193646,NA
23847,Greensville County,VA,NA,NA,NA,NA,81.85185185185185
23851,Franklin city,VA,NA,NA,59.01639344262295,NA,NA
24017,Roanoke city,VA,NA,NA,77.04918032786885,NA,NA
24018,Roanoke County,VA,NA,NA,NA,NA,6.296296296296296
24019,Roanoke County,VA,NA,NA,56.466302367941715,NA,NA
24141,Radford city,VA,NA,NA,75.40983606557377,NA,NA
24151,Franklin County,VA,NA,NA,NA,NA,60.74074074074074
24153,Salem city,VA,NA,71.47887323943662,NA,NA,NA
24179,Roanoke County,VA,NA,NA,49.544626593806925,NA,NA
24266,Russell County,VA,NA,NA,70.12750455373407,NA,NA
24333,Galax city,VA,NA,50,NA,NA,86.66666666666667
24401,Staunton city,VA,NA,NA,NA,5.597579425113464,NA
24441,Rockingham County,VA,NA,NA,79.59927140255009,NA,NA
24450,Rockbridge County,VA,NA,NA,76.50273224043715,NA,NA
24590,Albemarle County,VA,NA,98.59154929577466,NA,NA,NA
24598,Halifax County,VA,99.800796812749,NA,NA,NA,NA
98003,King County,WA,NA,NA,27.140255009107467,NA,NA
98006,King County,WA,NA,NA,NA,28.593040847201213,NA
98007,King County,WA,NA,NA,NA,NA,51.66666666666667
98020,Snohomish County,WA,NA,NA,NA,56.58093797276853,NA
98027,King County,WA,NA,NA,NA,NA,54.25925925925926
98029,King County,WA,NA,NA,NA,62.178517397882,NA
98031,King County,WA,NA,NA,NA,NA,42.77777777777778
98033,King County,WA,NA,NA,NA,29.652042360060516,NA
98037,Snohomish County,WA,94.62151394422311,NA,NA,NA,NA
98038,King County,WA,13.545816733067728,NA,NA,NA,NA
98040,King County,WA,NA,NA,NA,NA,40.55555555555556
98053,King County,WA,NA,NA,NA,37.821482602118,49.25925925925926
98056,King County,WA,NA,NA,56.284153005464475,NA,NA
98058,King County,WA,NA,NA,NA,19.969742813918305,NA
98072,King County,WA,NA,93.30985915492957,NA,NA,NA
98105,King County,WA,NA,NA,NA,72.01210287443268,53.51851851851852
98110,Kitsap County,WA,NA,NA,NA,36.00605143721634,NA
98118,King County,WA,NA,NA,NA,69.44024205748866,NA
98125,King County,WA,NA,NA,NA,NA,33.51851851851852
98177,King County,WA,79.8804780876494,NA,NA,NA,NA
98178,King County,WA,NA,NA,NA,NA,80.92592592592592
98199,King County,WA,NA,NA,85.61020036429873,NA,NA
98201,Snohomish County,WA,39.04382470119522,NA,NA,NA,NA
98203,Snohomish County,WA,9.56175298804781,NA,NA,NA,NA
98208,Snohomish County,WA,NA,NA,19.854280510018217,NA,NA
98221,Skagit County,WA,NA,NA,NA,18.15431164901664,NA
98223,Snohomish County,WA,81.27490039840637,NA,NA,NA,NA
98226,Whatcom County,WA,NA,NA,NA,NA,10
98230,Whatcom County,WA,NA,NA,91.80327868852459,69.28895612708018,NA
98248,Whatcom County,WA,61.55378486055777,NA,NA,NA,NA
98257,Skagit County,WA,NA,NA,NA,85.62783661119516,NA
98277,Island County,WA,NA,NA,NA,NA,10.74074074074074
98284,Skagit County,WA,NA,NA,NA,23.600605143721634,NA
98311,Kitsap County,WA,NA,NA,NA,NA,85.74074074074073
98312,Kitsap County,WA,NA,NA,NA,59.90922844175491,NA
98359,Kitsap County,WA,NA,NA,97.26775956284153,NA,NA
98372,Pierce County,WA,NA,NA,NA,NA,55.74074074074075
98380,Kitsap County,WA,NA,NA,NA,73.82753403933434,NA
98382,Clallam County,WA,NA,NA,52.459016393442624,NA,NA
98391,Pierce County,WA,23.705179282868528,NA,NA,NA,NA
98499,Pierce County,WA,NA,NA,NA,NA,45.55555555555556
98501,Thurston County,WA,NA,NA,NA,36.45990922844176,NA
98626,Cowlitz County,WA,NA,NA,NA,30.10590015128593,NA
98632,Cowlitz County,WA,NA,NA,NA,4.387291981845689,NA
98662,Clark County,WA,68.12749003984064,NA,NA,NA,NA
98671,Clark County,WA,NA,NA,NA,78.66868381240545,NA
98685,Clark County,WA,62.74900398406375,NA,NA,NA,NA
98802,Douglas County,WA,NA,NA,50.09107468123861,NA,NA
98837,Grant County,WA,15.737051792828685,61.267605633802816,28.77959927140255,NA,NA
98902,Yakima County,WA,NA,27.816901408450708,NA,NA,48.888888888888886
98908,Yakima County,WA,NA,NA,93.98907103825137,NA,NA
98922,Kittitas County,WA,NA,NA,NA,94.40242057488653,NA
98926,Kittitas County,WA,NA,NA,NA,35.09833585476551,NA
99223,Spokane County,WA,NA,NA,NA,52.79878971255674,NA
99326,Franklin County,WA,97.41035856573706,NA,NA,NA,NA
99337,Benton County,WA,NA,NA,NA,55.824508320726174,5.37037037037037
99344,Adams County,WA,82.86852589641434,NA,NA,NA,NA
99362,Walla Walla County,WA,51.79282868525896,NA,60.65573770491803,NA,NA
20011,District of Columbia,DC,NA,NA,7.650273224043716,NA,NA
20016,District of Columbia,DC,NA,NA,NA,NA,65.74074074074075
20017,District of Columbia,DC,NA,NA,52.27686703096539,NA,NA
20020,District of Columbia,DC,NA,NA,NA,5.143721633888049,NA
24740,Mercer County,WV,NA,NA,NA,31.316187594553707,NA
24986,Greenbrier County,WV,NA,91.19718309859155,NA,NA,NA
25143,Kanawha County,WV,NA,NA,63.20582877959927,NA,NA
25302,Kanawha County,WV,NA,NA,NA,56.88350983358548,NA
25303,Kanawha County,WV,NA,NA,88.88888888888889,NA,NA
25405,Berkeley County,WV,NA,83.45070422535211,NA,NA,NA
25411,Morgan County,WV,NA,NA,NA,NA,55.00000000000001
25427,Berkeley County,WV,NA,NA,65.39162112932605,NA,NA
25526,Putnam County,WV,NA,NA,34.60837887067395,NA,NA
25701,Cabell County,WV,NA,NA,15.1183970856102,NA,NA
25705,Cabell County,WV,NA,NA,NA,NA,62.03703703703704
25801,Raleigh County,WV,35.0597609561753,NA,NA,NA,7.777777777777778
25832,Raleigh County,WV,97.01195219123507,NA,NA,NA,NA
26059,Ohio County,WV,96.41434262948208,NA,NA,NA,NA
26105,Wood County,WV,NA,NA,48.63387978142077,NA,NA
26150,Wood County,WV,NA,NA,76.68488160291439,NA,NA
26301,Harrison County,WV,NA,NA,NA,NA,85.55555555555556
26416,Barbour County,WV,NA,NA,NA,NA,85
26452,Lewis County,WV,NA,NA,NA,NA,62.22222222222222
26508,Monongalia County,WV,NA,NA,40.80145719489982,NA,NA
26537,Preston County,WV,NA,NA,NA,60.66565809379728,NA
26847,Grant County,WV,NA,NA,NA,76.09682299546142,NA
53081,Sheboygan County,WI,NA,53.87323943661971,NA,NA,NA
53083,Sheboygan County,WI,62.74900398406375,NA,NA,NA,NA
53092,Ozaukee County,WI,50.199203187250994,NA,NA,NA,NA
53115,Walworth County,WI,NA,NA,48.816029143898,NA,NA
53120,Walworth County,WI,NA,NA,NA,78.36611195158851,NA
53121,Walworth County,WI,NA,NA,90.7103825136612,NA,NA
53132,Milwaukee County,WI,NA,NA,92.53187613843352,NA,12.222222222222221
53142,Kenosha County,WI,NA,NA,NA,19.213313161875945,NA
53143,Kenosha County,WI,NA,NA,NA,27.53403933434191,NA
53146,Waukesha County,WI,NA,NA,89.43533697632058,NA,NA
53149,Waukesha County,WI,NA,NA,NA,38.42662632375189,NA
53151,Waukesha County,WI,NA,NA,NA,NA,13.703703703703704
53168,Kenosha County,WI,53.78486055776892,NA,NA,NA,NA
53182,Racine County,WI,NA,NA,66.8488160291439,NA,NA
53188,Waukesha County,WI,7.171314741035857,66.90140845070422,NA,NA,NA
53204,Milwaukee County,WI,NA,11.619718309859154,6.9216757741347905,NA,NA
53223,Milwaukee County,WI,NA,36.971830985915496,NA,NA,NA
53225,Milwaukee County,WI,NA,NA,NA,NA,62.77777777777778
53226,Milwaukee County,WI,56.77290836653387,NA,NA,32.9803328290469,NA
53546,Rock County,WI,NA,NA,NA,NA,4.2592592592592595
53813,Grant County,WI,76.89243027888446,NA,NA,NA,NA
54001,Polk County,WI,71.91235059760956,NA,NA,NA,NA
54002,St. Croix County,WI,NA,NA,88.52459016393442,NA,NA
54022,Pierce County,WI,NA,NA,NA,NA,76.11111111111111
54165,Outagamie County,WI,76.29482071713147,NA,NA,NA,NA
54216,Kewaunee County,WI,NA,NA,NA,NA,97.96296296296296
54220,Manitowoc County,WI,NA,NA,NA,1.6641452344931922,NA
54304,Brown County,WI,NA,NA,NA,46.14220877458396,NA
54311,Brown County,WI,NA,NA,74.86338797814209,NA,NA
54313,Brown County,WI,NA,NA,NA,32.526475037821484,NA
54481,Portage County,WI,NA,NA,NA,NA,5.7407407407407405
54495,Wood County,WI,NA,NA,NA,94.85627836611195,NA
54601,La Crosse County,WI,NA,NA,NA,NA,0.1851851851851852
54650,La Crosse County,WI,70.3187250996016,NA,NA,NA,NA
54667,Vernon County,WI,NA,NA,NA,92.73827534039334,NA
54701,Eau Claire County,WI,NA,NA,NA,NA,33.7037037037037
54729,Chippewa County,WI,NA,NA,30.601092896174865,NA,NA
54736,Pepin County,WI,NA,86.97183098591549,NA,NA,NA
54868,Barron County,WI,NA,NA,NA,45.688350983358546,NA
54911,Outagamie County,WI,NA,58.098591549295776,NA,NA,NA
54914,Outagamie County,WI,22.709163346613543,NA,NA,NA,NA
54944,Outagamie County,WI,91.83266932270917,NA,NA,NA,NA
82834,Johnson County,WY,NA,NA,NA,NA,96.11111111111111
82901,Sweetwater County,WY,NA,NA,NA,NA,85.37037037037038
