ZipCode,county,state,Adult,Retirement,Geriatric
35213,Jefferson County,AL,NA,65.27050610820244,NA
35223,Jefferson County,AL,89.1459074733096,NA,NA
35244,Jefferson County,AL,NA,41.18673647469459,NA
35563,Marion County,AL,NA,NA,88.23529411764706
35565,Winston County,AL,NA,75.21815008726004,NA
35901,Etowah County,AL,NA,35.42757417102967,NA
36067,Autauga County,AL,39.679715302491104,NA,NA
36108,Montgomery County,AL,45.37366548042704,NA,NA
36109,Montgomery County,AL,NA,63.00174520069808,NA
36265,Calhoun County,AL,55.33807829181495,NA,NA
36301,Houston County,AL,79.8932384341637,15.706806282722512,NA
36312,Houston County,AL,NA,85.68935427574172,NA
36375,Geneva County,AL,78.11387900355872,75.04363001745202,NA
36532,Baldwin County,AL,NA,23.909249563699824,NA
36609,Mobile County,AL,60.67615658362989,NA,NA
36801,Lee County,AL,61.74377224199288,NA,NA
99654,Matanuska-Susitna Borough,AK,NA,42.059336823734725,NA
99901,Ketchikan Gateway Borough,AK,NA,NA,78.82352941176471
85006,Maricopa County,AZ,NA,43.1064572425829,NA
85016,Maricopa County,AZ,76.86832740213522,NA,NA
85018,Maricopa County,AZ,38.43416370106761,NA,NA
85053,Maricopa County,AZ,NA,60.90750436300174,NA
85054,Maricopa County,AZ,92.88256227758008,NA,NA
85086,Maricopa County,AZ,74.91103202846975,NA,NA
85142,Maricopa County,AZ,9.608540925266903,NA,NA
85204,Maricopa County,AZ,14.23487544483986,NA,NA
85213,Maricopa County,AZ,NA,57.417102966841185,NA
85234,Maricopa County,AZ,35.76512455516014,NA,NA
85257,Maricopa County,AZ,NA,65.96858638743456,NA
85281,Maricopa County,AZ,NA,NA,88.8235294117647
85295,Maricopa County,AZ,NA,75.74171029668412,NA
85304,Maricopa County,AZ,NA,65.09598603839441,NA
85308,Maricopa County,AZ,NA,NA,41.76470588235294
85396,Maricopa County,AZ,NA,56.195462478184986,NA
85711,Pima County,AZ,7.473309608540925,NA,NA
85755,Pima County,AZ,NA,48.51657940663176,NA
86001,Coconino County,AZ,22.064056939501782,NA,NA
86005,Coconino County,AZ,NA,70.33158813263525,NA
86326,Yavapai County,AZ,NA,NA,28.823529411764703
86327,Yavapai County,AZ,NA,NA,55.88235294117647
86351,Yavapai County,AZ,NA,78.01047120418848,NA
71730,Union County,AR,NA,29.84293193717277,NA
71822,Little River County,AR,NA,72.77486910994764,NA
71901,Garland County,AR,NA,45.0261780104712,NA
71913,Garland County,AR,NA,26.527050610820247,NA
72120,Pulaski County,AR,NA,NA,53.529411764705884
72210,Pulaski County,AR,NA,64.22338568935427,NA
72529,Sharp County,AR,NA,95.11343804537522,NA
72762,Washington County,AR,NA,NA,61.76470588235294
90020,Los Angeles County,CA,81.13879003558719,NA,NA
90048,Los Angeles County,CA,NA,NA,57.05882352941176
90063,Los Angeles County,CA,NA,44.32809773123909,NA
90266,Los Angeles County,CA,64.05693950177937,NA,NA
90277,Los Angeles County,CA,NA,NA,62.94117647058823
90293,Los Angeles County,CA,90.39145907473309,NA,NA
90504,Los Angeles County,CA,72.24199288256227,NA,NA
90601,Los Angeles County,CA,NA,NA,50.588235294117645
90620,Orange County,CA,NA,36.82373472949389,NA
90680,Orange County,CA,NA,NA,77.64705882352942
90744,Los Angeles County,CA,60.14234875444839,NA,NA
90808,Los Angeles County,CA,NA,NA,43.529411764705884
91042,Los Angeles County,CA,NA,50.78534031413613,NA
91320,Ventura County,CA,67.08185053380782,NA,NA
91325,Los Angeles County,CA,91.28113879003558,NA,NA
91343,Los Angeles County,CA,NA,NA,92.3529411764706
91361,Ventura County,CA,88.07829181494662,NA,NA
91362,Ventura County,CA,NA,41.8848167539267,NA
91505,Los Angeles County,CA,76.15658362989323,NA,NA
91605,Los Angeles County,CA,NA,NA,65.29411764705883
91606,Los Angeles County,CA,NA,NA,54.70588235294118
91701,San Bernardino County,CA,NA,31.064572425828967,NA
91724,Los Angeles County,CA,NA,72.07678883071553,NA
91745,Los Angeles County,CA,NA,45.20069808027923,NA
91750,Los Angeles County,CA,66.72597864768683,NA,NA
91791,Los Angeles County,CA,NA,48.34205933682373,NA
92024,San Diego County,CA,43.77224199288256,NA,NA
92065,San Diego County,CA,51.60142348754449,NA,NA
92101,San Diego County,CA,14.412811387900357,NA,NA
92114,San Diego County,CA,35.40925266903915,NA,NA
92120,San Diego County,CA,NA,69.9825479930192,NA
92131,San Diego County,CA,NA,91.97207678883072,NA
92139,San Diego County,CA,75.08896797153025,NA,NA
92203,Riverside County,CA,46.44128113879004,NA,NA
92223,Riverside County,CA,NA,40.48865619546248,NA
92234,Riverside County,CA,NA,53.57766143106457,NA
92276,Riverside County,CA,NA,81.84991273996509,NA
92284,San Bernardino County,CA,NA,28.272251308900525,NA
92346,San Bernardino County,CA,30.427046263345197,NA,NA
92373,San Bernardino County,CA,72.06405693950177,NA,NA
92391,San Bernardino County,CA,99.11032028469751,NA,NA
92392,San Bernardino County,CA,19.03914590747331,NA,NA
92407,San Bernardino County,CA,18.14946619217082,NA,NA
92563,Riverside County,CA,36.120996441281136,NA,NA
92570,Riverside County,CA,45.195729537366546,NA,NA
92612,Orange County,CA,NA,82.37347294938918,NA
92626,Orange County,CA,NA,44.67713787085515,NA
92627,Orange County,CA,NA,31.762652705061083,NA
92646,Orange County,CA,29.181494661921707,NA,NA
92647,Orange County,CA,NA,21.11692844677138,NA
92648,Orange County,CA,NA,23.036649214659686,NA
92677,Orange County,CA,36.47686832740214,NA,NA
92683,Orange County,CA,NA,NA,9.411764705882353
92705,Orange County,CA,75.26690391459074,NA,NA
92780,Orange County,CA,40.213523131672595,NA,NA
92821,Orange County,CA,64.23487544483986,NA,NA
92833,Orange County,CA,NA,81.32635253054102,NA
92844,Orange County,CA,88.79003558718861,NA,NA
92886,Orange County,CA,34.16370106761566,NA,NA
93022,Ventura County,CA,NA,91.2739965095986,NA
93023,Ventura County,CA,NA,NA,63.52941176470588
93215,Kern County,CA,NA,81.15183246073299,NA
93257,Tulare County,CA,12.277580071174377,NA,NA
93311,Kern County,CA,NA,58.289703315881326,NA
93442,San Luis Obispo County,CA,84.34163701067615,NA,NA
93536,Los Angeles County,CA,46.619217081850536,51.832460732984295,NA
93551,Los Angeles County,CA,NA,55.497382198952884,NA
93552,Los Angeles County,CA,59.252669039145914,NA,NA
93644,Madera County,CA,NA,88.65619546247818,NA
93657,Fresno County,CA,NA,75.91623036649214,NA
93706,Fresno County,CA,NA,97.55671902268762,NA
93720,Fresno County,CA,NA,26.17801047120419,NA
94010,San Mateo County,CA,NA,34.3804537521815,NA
94030,San Mateo County,CA,NA,NA,30
94061,San Mateo County,CA,NA,52.879581151832454,NA
94063,San Mateo County,CA,76.51245551601423,NA,NA
94121,San Francisco County,CA,NA,38.917975567190226,NA
94301,Santa Clara County,CA,NA,85.34031413612566,NA
94303,San Mateo County,CA,31.672597864768683,NA,NA
94404,San Mateo County,CA,NA,45.37521815008726,NA
94526,Contra Costa County,CA,87.01067615658363,NA,NA
94533,Solano County,CA,NA,25.13089005235602,NA
94549,Contra Costa County,CA,82.91814946619218,59.860383944153575,NA
94550,Alameda County,CA,50.5338078291815,NA,NA
94558,Napa County,CA,NA,6.457242582897033,NA
94587,Alameda County,CA,NA,57.76614310645725,NA
94804,Contra Costa County,CA,NA,42.40837696335078,NA
94925,Marin County,CA,NA,98.08027923211169,NA
95014,Santa Clara County,CA,NA,62.652705061082024,NA
95032,Santa Clara County,CA,NA,67.88830715532286,NA
95050,Santa Clara County,CA,72.59786476868328,NA,NA
95070,Santa Clara County,CA,NA,72.42582897033158,27.647058823529413
95112,Santa Clara County,CA,NA,40.139616055846425,NA
95205,San Joaquin County,CA,52.49110320284698,NA,NA
95252,Calaveras County,CA,NA,NA,84.11764705882354
95316,Stanislaus County,CA,NA,NA,94.11764705882352
95327,Tuolumne County,CA,NA,NA,52.352941176470594
95366,San Joaquin County,CA,82.02846975088967,NA,NA
95376,San Joaquin County,CA,32.028469750889684,NA,NA
95492,Sonoma County,CA,NA,58.98778359511344,NA
95501,Humboldt County,CA,54.804270462633454,NA,NA
95540,Humboldt County,CA,59.7864768683274,NA,NA
95608,Sacramento County,CA,NA,19.3717277486911,NA
95628,Sacramento County,CA,NA,39.9650959860384,NA
95640,Amador County,CA,NA,91.62303664921467,NA
95648,Placer County,CA,62.09964412811389,24.956369982547994,NA
95678,Placer County,CA,NA,34.031413612565444,NA
95746,Placer County,CA,82.56227758007117,NA,NA
95762,El Dorado County,CA,53.20284697508897,NA,NA
95828,Sacramento County,CA,43.238434163701065,NA,40
95864,Sacramento County,CA,NA,76.09075043630017,NA
96022,Tehama County,CA,81.67259786476868,NA,NA
96067,Siskiyou County,CA,NA,84.99127399650959,NA
80003,Jefferson County,CO,48.39857651245551,NA,NA
80005,Jefferson County,CO,60.14234875444839,NA,NA
80013,Arapahoe County,CO,8.896797153024911,NA,NA
80023,Broomfield County,CO,NA,79.23211169284468,NA
80030,Adams County,CO,78.64768683274022,NA,NA
80033,Jefferson County,CO,NA,NA,76.47058823529412
80111,Arapahoe County,CO,NA,63.35078534031413,NA
80122,Arapahoe County,CO,56.22775800711744,NA,61.1764705882353
80128,Jefferson County,CO,60.4982206405694,59.33682373472949,NA
80221,Adams County,CO,NA,52.00698080279233,NA
80228,Jefferson County,CO,NA,NA,81.17647058823529
80231,Denver County,CO,NA,61.08202443280978,NA
80305,Boulder County,CO,NA,98.60383944153578,NA
80524,Larimer County,CO,NA,27.923211169284468,NA
80534,Weld County,CO,NA,NA,80
80602,Adams County,CO,NA,56.02094240837696,NA
80621,Weld County,CO,NA,79.58115183246073,NA
80911,El Paso County,CO,NA,76.26527050610821,NA
81321,Montezuma County,CO,69.3950177935943,NA,NA
06010,Hartford County,CT,1.9572953736654803,NA,NA
06082,Hartford County,CT,NA,13.612565445026178,NA
06250,Tolland County,CT,94.66192170818505,NA,NA
06450,New Haven County,CT,4.6263345195729535,NA,34.11764705882353
06489,Hartford County,CT,65.48042704626334,NA,NA
06513,New Haven County,CT,NA,8.900523560209423,NA
06516,New Haven County,CT,NA,3.315881326352531,NA
06810,Fairfield County,CT,15.836298932384341,20.593368237347295,NA
06820,Fairfield County,CT,NA,96.68411867364746,NA
06824,Fairfield County,CT,NA,73.1239092495637,NA
19711,New Castle County,DE,NA,NA,25.882352941176475
19808,New Castle County,DE,24.733096085409255,NA,NA
19933,Sussex County,DE,NA,67.71378708551484,NA
19963,Sussex County,DE,NA,36.3001745200698,NA
32043,Clay County,FL,47.50889679715303,NA,NA
32068,Clay County,FL,11.387900355871885,9.24956369982548,NA
32073,Clay County,FL,NA,29.668411867364746,NA
32082,St. Johns County,FL,59.07473309608541,NA,NA
32084,St. Johns County,FL,33.27402135231316,NA,NA
32137,Flagler County,FL,55.693950177935946,NA,NA
32168,Volusia County,FL,NA,NA,37.05882352941177
32205,Duval County,FL,60.854092526690394,NA,NA
32206,Duval County,FL,NA,22.5130890052356,NA
32216,Duval County,FL,NA,30.89005235602094,NA
32244,Duval County,FL,4.448398576512456,NA,NA
32250,Duval County,FL,NA,66.84118673647468,NA
32503,Escambia County,FL,NA,47.99301919720768,NA
32504,Escambia County,FL,79.8932384341637,NA,NA
32505,Escambia County,FL,52.66903914590747,NA,NA
32506,Escambia County,FL,NA,17.62652705061082,NA
32531,Okaloosa County,FL,NA,75.21815008726004,NA
32541,Okaloosa County,FL,NA,38.39441535776614,NA
32566,Santa Rosa County,FL,NA,22.338568935427574,NA
32570,Santa Rosa County,FL,10.142348754448399,NA,NA
32732,Seminole County,FL,99.4661921708185,NA,NA
32773,Seminole County,FL,NA,78.35951134380453,NA
32778,Lake County,FL,NA,27.05061082024433,NA
32819,Orange County,FL,73.84341637010677,NA,NA
32927,Brevard County,FL,81.85053380782918,NA,NA
32958,Indian River County,FL,NA,12.041884816753926,NA
32966,Indian River County,FL,NA,32.809773123909245,NA
32967,Indian River County,FL,50.177935943060504,NA,NA
33012,Miami-Dade County,FL,47.330960854092524,22.862129144851657,NA
33013,Miami-Dade County,FL,NA,NA,32.94117647058823
33026,Broward County,FL,NA,58.63874345549738,NA
33027,Broward County,FL,NA,71.72774869109948,NA
33060,Broward County,FL,NA,NA,41.17647058823529
33062,Broward County,FL,NA,28.62129144851658,NA
33068,Broward County,FL,NA,52.18150087260035,NA
33139,Miami-Dade County,FL,NA,50.6108202443281,NA
33157,Miami-Dade County,FL,95.55160142348754,NA,NA
33177,Miami-Dade County,FL,NA,NA,67.05882352941175
33179,Miami-Dade County,FL,62.27758007117438,NA,NA
33316,Broward County,FL,NA,72.25130890052355,NA
33351,Broward County,FL,NA,61.78010471204188,NA
33406,Palm Beach County,FL,79.53736654804271,NA,NA
33426,Palm Beach County,FL,80.42704626334519,NA,NA
33428,Palm Beach County,FL,NA,NA,21.764705882352942
33431,Palm Beach County,FL,NA,NA,67.64705882352942
33434,Palm Beach County,FL,NA,39.44153577661431,NA
33436,Palm Beach County,FL,57.47330960854092,NA,NA
33437,Palm Beach County,FL,NA,NA,1.7647058823529411
33458,Palm Beach County,FL,27.580071174377224,NA,NA
33473,Palm Beach County,FL,95.19572953736655,88.8307155322862,NA
33486,Palm Beach County,FL,NA,49.21465968586388,NA
33487,Palm Beach County,FL,NA,73.82198952879581,NA
33496,Palm Beach County,FL,NA,NA,11.176470588235295
33498,Palm Beach County,FL,NA,85.51483420593368,NA
33510,Hillsborough County,FL,NA,81.67539267015707,NA
33573,Hillsborough County,FL,NA,NA,5.294117647058823
33598,Hillsborough County,FL,91.10320284697508,NA,NA
33635,Hillsborough County,FL,84.16370106761566,NA,NA
33706,Pinellas County,FL,NA,68.06282722513089,47.647058823529406
33713,Pinellas County,FL,56.58362989323843,NA,NA
33763,Pinellas County,FL,84.87544483985765,NA,NA
33801,Polk County,FL,25.800711743772244,NA,NA
33809,Polk County,FL,NA,51.13438045375218,NA
33810,Polk County,FL,NA,NA,35.88235294117647
33825,Highlands County,FL,NA,15.357766143106458,NA
33870,Highlands County,FL,32.562277580071175,NA,NA
33907,Lee County,FL,50.71174377224199,NA,NA
33916,Lee County,FL,73.48754448398577,NA,NA
33917,Lee County,FL,NA,19.19720767888307,NA
33928,Lee County,FL,83.45195729537367,NA,NA
33976,Lee County,FL,74.55516014234875,NA,NA
34207,Manatee County,FL,NA,56.36998254799301,NA
34293,Sarasota County,FL,NA,6.631762652705062,NA
34434,Citrus County,FL,NA,90.75043630017451,NA
34446,Citrus County,FL,NA,58.813263525305416,NA
34448,Citrus County,FL,82.38434163701068,NA,NA
34465,Citrus County,FL,NA,63.6998254799302,NA
34481,Marion County,FL,NA,26.876090750436298,NA
34482,Marion County,FL,66.37010676156584,NA,NA
34608,Hernando County,FL,41.637010676156585,46.94589877835951,NA
34609,Hernando County,FL,35.231316725978644,24.083769633507853,NA
34684,Pinellas County,FL,NA,13.263525305410123,NA
34711,Lake County,FL,24.199288256227756,NA,NA
34748,Lake County,FL,21.530249110320284,NA,NA
30016,Newton County,GA,11.921708185053381,NA,NA
30019,Gwinnett County,GA,41.99288256227758,NA,NA
30030,DeKalb County,GA,48.57651245551601,NA,NA
30034,DeKalb County,GA,NA,23.211169284467715,NA
30044,Gwinnett County,GA,NA,15.18324607329843,NA
30066,Cobb County,GA,NA,27.399650959860384,NA
30068,Cobb County,GA,76.33451957295374,NA,NA
30088,DeKalb County,GA,43.06049822064057,NA,NA
30096,Gwinnett County,GA,29.8932384341637,NA,28.235294117647058
30127,Cobb County,GA,NA,33.682373472949386,NA
30132,Paulding County,GA,36.654804270462634,NA,NA
30143,Pickens County,GA,NA,NA,44.11764705882353
30157,Paulding County,GA,NA,26.003490401396164,NA
30224,Spalding County,GA,NA,50.26178010471204,NA
30265,Coweta County,GA,NA,40.83769633507853,NA
30327,Fulton County,GA,NA,69.80802792321117,NA
30331,Fulton County,GA,NA,8.202443280977311,NA
30474,Toombs County,GA,NA,73.29842931937172,NA
30549,Jackson County,GA,NA,52.70506108202443,NA
30566,Hall County,GA,NA,93.36823734729494,NA
30571,White County,GA,NA,NA,99.41176470588235
30655,Walton County,GA,NA,30.715532286212916,NA
30673,Wilkes County,GA,NA,NA,86.47058823529412
30707,Walker County,GA,45.55160142348754,NA,NA
30728,Walker County,GA,NA,67.5392670157068,NA
30736,Catoosa County,GA,NA,19.720767888307154,NA
30906,Richmond County,GA,6.405693950177936,NA,NA
31021,Laurens County,GA,NA,56.54450261780105,NA
31419,Chatham County,GA,38.79003558718861,NA,NA
31537,Charlton County,GA,87.18861209964413,NA,NA
31793,Tift County,GA,NA,86.2129144851658,NA
31904,Muscogee County,GA,NA,NA,19.411764705882355
31909,Muscogee County,GA,42.88256227758007,NA,NA
39828,Grady County,GA,NA,NA,87.6470588235294
96706,Honolulu County,HI,NA,NA,20
96743,Hawaii County,HI,NA,68.23734729493893,NA
96797,Honolulu County,HI,NA,NA,15.294117647058824
96815,Honolulu County,HI,NA,25.82897033158813,NA
83204,Bannock County,ID,NA,61.60558464223386,NA
83350,Minidoka County,ID,NA,65.44502617801047,NA
83616,Ada County,ID,NA,9.598603839441536,NA
83705,Ada County,ID,NA,49.56369982547993,NA
83714,Ada County,ID,NA,NA,17.647058823529413
60004,Cook County,IL,NA,62.30366492146597,NA
60014,McHenry County,IL,NA,14.31064572425829,NA
60025,Cook County,IL,NA,4.886561954624781,NA
60056,Cook County,IL,41.81494661921708,NA,NA
60060,Lake County,IL,NA,15.008726003490402,NA
60062,Cook County,IL,42.34875444839858,NA,NA
60070,Cook County,IL,NA,NA,68.23529411764706
60085,Lake County,IL,18.505338078291814,NA,NA
60089,Lake County,IL,NA,10.471204188481675,NA
60091,Cook County,IL,NA,NA,18.823529411764707
60093,Cook County,IL,NA,49.91273996509599,NA
60098,McHenry County,IL,35.05338078291815,NA,NA
60126,DuPage County,IL,9.07473309608541,NA,NA
60133,Cook County,IL,NA,48.69109947643979,NA
60134,Kane County,IL,NA,41.361256544502616,NA
60142,McHenry County,IL,NA,42.23385689354276,NA
60162,Cook County,IL,NA,NA,79.41176470588235
60419,Cook County,IL,NA,35.95113438045375,NA
60441,Will County,IL,24.555160142348754,NA,NA
60451,Will County,IL,20.99644128113879,NA,NA
60455,Cook County,IL,NA,49.040139616055846,NA
60456,Cook County,IL,NA,92.49563699825481,NA
60465,Cook County,IL,51.779359430604984,NA,NA
60491,Will County,IL,39.8576512455516,27.748691099476442,NA
60513,Cook County,IL,44.30604982206406,NA,NA
60544,Will County,IL,NA,84.81675392670157,NA
60554,Kane County,IL,NA,83.24607329842932,NA
60565,DuPage County,IL,34.69750889679715,NA,NA
60609,Cook County,IL,40.74733096085409,NA,NA
60611,Cook County,IL,NA,NA,71.76470588235294
60614,Cook County,IL,23.843416370106763,NA,NA
60620,Cook County,IL,6.049822064056939,NA,NA
60622,Cook County,IL,40.39145907473309,NA,NA
60628,Cook County,IL,NA,4.013961605584642,NA
60640,Cook County,IL,7.295373665480427,7.504363001745201,NA
60641,Cook County,IL,12.98932384341637,NA,NA
60647,Cook County,IL,NA,19.895287958115183,NA
60657,Cook County,IL,22.597864768683273,NA,NA
60714,Cook County,IL,77.04626334519573,NA,NA
61063,Winnebago County,IL,98.04270462633453,NA,NA
61244,Rock Island County,IL,NA,NA,45.294117647058826
61254,Henry County,IL,NA,74.17102966841188,NA
61364,LaSalle County,IL,NA,53.752181500872595,NA
61705,McLean County,IL,NA,74.86910994764398,NA
61832,Vermilion County,IL,NA,NA,12.941176470588237
61866,Champaign County,IL,NA,NA,72.94117647058823
61938,Coles County,IL,48.93238434163701,71.37870855148341,NA
62035,Madison County,IL,NA,NA,46.470588235294116
62040,Madison County,IL,21.70818505338078,NA,NA
62234,Madison County,IL,NA,43.280977312390924,NA
62269,St. Clair County,IL,NA,39.26701570680628,NA
62521,Macon County,IL,11.743772241992882,NA,8.235294117647058
62712,Sangamon County,IL,NA,68.58638743455498,NA
46011,Madison County,IN,52.313167259786475,NA,NA
46017,Madison County,IN,NA,NA,83.52941176470588
46034,Hamilton County,IN,NA,92.67015706806284,NA
46123,Hendricks County,IN,NA,NA,39.411764705882355
46202,Marion County,IN,63.52313167259786,NA,NA
46218,Marion County,IN,NA,20.24432809773124,NA
46219,Marion County,IN,NA,18.673647469458988,NA
46222,Marion County,IN,21.17437722419929,NA,NA
46227,Marion County,IN,8.362989323843415,NA,NA
46241,Marion County,IN,21.352313167259787,NA,NA
46307,Lake County,IN,1.601423487544484,NA,NA
46311,Lake County,IN,NA,17.277486910994764,NA
46322,Lake County,IN,NA,24.25828970331588,NA
46341,Porter County,IN,65.65836298932385,NA,NA
46342,Lake County,IN,NA,13.089005235602095,NA
46350,LaPorte County,IN,7.6512455516014235,NA,NA
46368,Porter County,IN,NA,1.5706806282722512,NA
46373,Lake County,IN,64.76868327402136,NA,NA
46506,Marshall County,IN,92.34875444839858,NA,NA
46514,Elkhart County,IN,NA,NA,57.647058823529406
46530,St. Joseph County,IN,NA,64.74694589877836,NA
46574,St. Joseph County,IN,91.99288256227757,NA,NA
46619,St. Joseph County,IN,NA,66.49214659685863,NA
46701,Noble County,IN,NA,NA,82.35294117647058
46703,Steuben County,IN,NA,38.045375218150085,NA
46706,DeKalb County,IN,NA,45.724258289703315,NA
46807,Allen County,IN,54.44839857651246,NA,NA
46975,Fulton County,IN,NA,46.247818499127405,NA
46979,Howard County,IN,85.58718861209964,NA,NA
47025,Dearborn County,IN,NA,NA,65.88235294117646
47167,Washington County,IN,53.380782918149464,NA,NA
47203,Bartholomew County,IN,NA,NA,18.235294117647058
47374,Wayne County,IN,24.02135231316726,25.30541012216405,NA
47394,Randolph County,IN,75.62277580071174,NA,NA
47424,Greene County,IN,88.43416370106762,NA,NA
47711,Vanderburgh County,IN,NA,27.57417102966841,NA
47802,Vigo County,IN,57.82918149466192,NA,42.35294117647059
47905,Tippecanoe County,IN,NA,NA,21.176470588235293
47906,Tippecanoe County,IN,NA,28.44677137870855,NA
50036,Boone County,IA,68.32740213523132,NA,NA
50158,Marshall County,IA,NA,NA,38.23529411764706
50208,Jasper County,IA,NA,65.79406631762653,NA
50317,Polk County,IA,42.704626334519574,NA,NA
50325,Polk County,IA,89.6797153024911,NA,NA
51250,Sioux County,IA,NA,86.56195462478185,NA
51501,Pottawattamie County,IA,NA,10.12216404886562,NA
51537,Shelby County,IA,NA,82.89703315881326,NA
52405,Linn County,IA,NA,NA,52.352941176470594
52761,Muscatine County,IA,NA,12.390924956369982,NA
66207,Johnson County,KS,83.62989323843416,NA,NA
66210,Johnson County,KS,NA,NA,60.588235294117645
66224,Johnson County,KS,NA,85.86387434554975,NA
66614,Shawnee County,KS,NA,19.022687609075042,NA
66762,Crawford County,KS,69.03914590747331,NA,NA
67002,Butler County,KS,94.83985765124555,NA,NA
67042,Butler County,KS,63.16725978647687,NA,NA
67212,Sedgwick County,KS,NA,53.22862129144852,NA
67460,McPherson County,KS,NA,61.25654450261781,NA
67550,Pawnee County,KS,NA,94.76439790575915,NA
67846,Finney County,KS,56.761565836298935,NA,NA
40004,Nelson County,KY,NA,NA,90
40014,Oldham County,KY,NA,64.57242582897034,NA
40228,Jefferson County,KY,NA,NA,71.17647058823529
40342,Anderson County,KY,NA,55.14834205933682,NA
40353,Montgomery County,KY,23.131672597864767,NA,NA
40517,Fayette County,KY,NA,41.710296684118674,NA
41230,Lawrence County,KY,59.9644128113879,NA,NA
42003,McCracken County,KY,NA,NA,38.82352941176471
42240,Christian County,KY,NA,14.136125654450263,NA
70003,Jefferson Parish,LA,NA,3.1413612565445024,NA
70420,St. Tammany Parish,LA,NA,69.45898778359512,NA
70433,St. Tammany Parish,LA,5.6939501779359425,NA,NA
70461,St. Tammany Parish,LA,NA,55.14834205933682,NA
70508,Lafayette Parish,LA,48.754448398576514,NA,NA
70518,Lafayette Parish,LA,NA,69.63350785340315,NA
70538,St. Mary Parish,LA,46.263345195729535,NA,NA
70582,St. Martin Parish,LA,NA,41.53577661431064,NA
70785,Livingston Parish,LA,17.97153024911032,NA,NA
70805,East Baton Rouge Parish,LA,50.88967971530249,NA,NA
71118,Caddo Parish,LA,NA,NA,23.52941176470588
03908,York County,ME,80.96085409252669,NA,NA
04106,Cumberland County,ME,39.14590747330961,NA,NA
04210,Androscoggin County,ME,NA,38.7434554973822,NA
04468,Penobscot County,ME,71.53024911032028,NA,NA
04756,Aroostook County,ME,85.94306049822063,NA,NA
04843,Knox County,ME,NA,NA,58.82352941176471
04901,Kennebec County,ME,NA,43.97905759162304,NA
04915,Waldo County,ME,NA,35.776614310645726,NA
04953,Penobscot County,ME,95.01779359430606,NA,NA
20603,Charles County,MD,NA,83.94415357766142,NA
20619,St. Mary's County,MD,NA,87.78359511343804,NA
20636,St. Mary's County,MD,NA,85.16579406631763,NA
20678,Calvert County,MD,NA,93.19371727748691,NA
20706,Prince George's County,MD,NA,54.79930191972077,NA
20872,Montgomery County,MD,92.70462633451957,NA,NA
20878,Montgomery County,MD,49.28825622775801,NA,NA
21014,Harford County,MD,NA,32.98429319371728,NA
21028,Harford County,MD,NA,99.30191972076788,NA
21047,Harford County,MD,NA,82.37347294938918,NA
21075,Howard County,MD,69.21708185053382,NA,NA
21076,Anne Arundel County,MD,84.87544483985765,NA,NA
21108,Anne Arundel County,MD,NA,79.9301919720768,NA
21122,Anne Arundel County,MD,6.761565836298933,NA,NA
21158,Carroll County,MD,NA,64.92146596858639,NA
21206,Baltimore city,MD,NA,NA,35.294117647058826
21222,Baltimore County,MD,NA,2.4432809773123907,NA
21231,Baltimore city,MD,NA,67.01570680628272,NA
21239,Baltimore city,MD,NA,19.546247818499126,NA
21401,Anne Arundel County,MD,29.00355871886121,NA,NA
21403,Anne Arundel County,MD,64.94661921708185,NA,NA
21502,Allegany County,MD,26.690391459074732,18.848167539267017,NA
21550,Garrett County,MD,75.44483985765125,NA,NA
21921,Cecil County,MD,NA,5.5846422338568935,NA
01027,Hampshire County,MA,11.032028469750891,NA,NA
01238,Berkshire County,MA,NA,97.90575916230367,NA
01360,Franklin County,MA,97.68683274021353,NA,NA
01450,Middlesex County,MA,70.99644128113879,NA,NA
01452,Worcester County,MA,96.79715302491103,NA,NA
01453,Worcester County,MA,NA,0.34904013961605584,NA
01462,Worcester County,MA,53.55871886120996,NA,NA
01562,Worcester County,MA,NA,39.79057591623037,NA
01719,Middlesex County,MA,NA,99.12739965095986,NA
01742,Middlesex County,MA,NA,37.52181500872601,NA
01752,Middlesex County,MA,NA,12.56544502617801,NA
01754,Middlesex County,MA,68.68327402135232,NA,NA
01801,Middlesex County,MA,NA,1.0471204188481675,NA
01821,Middlesex County,MA,4.092526690391459,NA,NA
01844,Essex County,MA,1.0676156583629894,91.09947643979058,NA
01845,Essex County,MA,31.316725978647685,NA,NA
01851,Middlesex County,MA,86.29893238434164,NA,NA
01852,Middlesex County,MA,0.1779359430604982,NA,NA
01876,Middlesex County,MA,5.871886120996441,NA,NA
01960,Essex County,MA,NA,NA,0.5882352941176471
02061,Plymouth County,MA,69.9288256227758,NA,NA
02072,Norfolk County,MA,NA,7.853403141361256,NA
02090,Norfolk County,MA,NA,NA,50.588235294117645
02118,Suffolk County,MA,NA,6.108202443280978,NA
02119,Suffolk County,MA,1.4234875444839856,NA,NA
02126,Suffolk County,MA,NA,3.664921465968586,NA
02131,Suffolk County,MA,88.25622775800713,NA,NA
02135,Suffolk County,MA,NA,95.98603839441536,NA
02170,Norfolk County,MA,NA,8.37696335078534,NA
02189,Norfolk County,MA,NA,58.46422338568935,NA
02346,Plymouth County,MA,NA,11.8673647469459,NA
02360,Plymouth County,MA,0.7117437722419928,60.03490401396161,NA
02368,Norfolk County,MA,56.405693950177934,NA,NA
02421,Middlesex County,MA,NA,37.52181500872601,NA
02478,Middlesex County,MA,25.622775800711743,NA,NA
02481,Norfolk County,MA,NA,NA,62.35294117647059
02493,Middlesex County,MA,NA,NA,63.52941176470588
02554,Nantucket County,MA,37.01067615658363,NA,NA
02631,Barnstable County,MA,82.74021352313167,NA,NA
02721,Bristol County,MA,10.85409252669039,NA,NA
02740,Bristol County,MA,0,NA,NA
02760,Bristol County,MA,NA,11.169284467713787,NA
48025,Oakland County,MI,NA,60.38394415357766,NA
48038,Macomb County,MI,45.729537366548044,NA,NA
48040,St. Clair County,MI,NA,90.0523560209424,NA
48042,Macomb County,MI,23.665480427046262,NA,36.470588235294116
48043,Macomb County,MI,66.90391459074732,NA,NA
48047,Macomb County,MI,13.701067615658364,NA,NA
48060,St. Clair County,MI,17.615658362989322,NA,NA
48072,Oakland County,MI,54.092526690391466,NA,NA
48081,Macomb County,MI,73.66548042704626,NA,NA
48089,Macomb County,MI,NA,23.38568935427574,NA
48103,Washtenaw County,MI,NA,13.438045375218149,NA
48104,Washtenaw County,MI,49.644128113879006,NA,NA
48108,Washtenaw County,MI,NA,66.3176265270506,NA
48116,Livingston County,MI,NA,15.532286212914483,NA
48130,Washtenaw County,MI,NA,37.87085514834206,NA
48135,Wayne County,MI,NA,23.7347294938918,NA
48144,Monroe County,MI,NA,77.66143106457243,NA
48154,Wayne County,MI,NA,6.980802792321117,NA
48162,Monroe County,MI,NA,2.966841186736475,NA
48184,Wayne County,MI,16.370106761565836,NA,NA
48186,Wayne County,MI,NA,NA,30.58823529411765
48197,Washtenaw County,MI,NA,1.9197207678883073,NA
48209,Wayne County,MI,25.97864768683274,NA,NA
48212,Wayne County,MI,8.540925266903916,NA,NA
48213,Wayne County,MI,10.498220640569395,NA,NA
48215,Wayne County,MI,NA,NA,81.76470588235294
48221,Wayne County,MI,4.270462633451958,NA,NA
48223,Wayne County,MI,NA,71.9022687609075,NA
48306,Oakland County,MI,NA,21.640488656195462,NA
48310,Macomb County,MI,NA,44.153577661431065,NA
48312,Macomb County,MI,NA,50.43630017452006,NA
48329,Oakland County,MI,NA,20.94240837696335,NA
48341,Oakland County,MI,33.629893238434164,NA,NA
48348,Oakland County,MI,NA,NA,68.82352941176471
48371,Oakland County,MI,72.41992882562278,NA,NA
48375,Oakland County,MI,NA,50.78534031413613,NA
48382,Oakland County,MI,51.42348754448398,NA,NA
48390,Oakland County,MI,NA,35.07853403141361,NA
48429,Shiawassee County,MI,NA,NA,80.58823529411765
48441,Huron County,MI,96.61921708185054,82.72251308900523,NA
48601,Saginaw County,MI,1.7793594306049825,NA,NA
48610,Arenac County,MI,98.39857651245552,NA,NA
48640,Midland County,MI,NA,13.787085514834205,NA
48642,Midland County,MI,NA,7.155322862129145,NA
48655,Saginaw County,MI,67.25978647686833,NA,NA
48746,Tuscola County,MI,NA,72.77486910994764,NA
48846,Ionia County,MI,41.281138790035584,NA,NA
48892,Ingham County,MI,92.17081850533808,NA,NA
49015,Calhoun County,MI,NA,64.3979057591623,NA
49078,Allegan County,MI,79.35943060498221,NA,NA
49201,Jackson County,MI,7.11743772241993,NA,NA
49203,Jackson County,MI,6.227758007117438,NA,11.76470588235294
49285,Ingham County,MI,NA,93.01919720767889,NA
49341,Kent County,MI,63.345195729537366,NA,NA
49431,Mason County,MI,36.29893238434164,NA,NA
49441,Muskegon County,MI,NA,3.8394415357766145,NA
49504,Kent County,MI,NA,NA,14.117647058823529
49505,Kent County,MI,NA,NA,26.47058823529412
49519,Kent County,MI,NA,30.19197207678883,NA
49686,Grand Traverse County,MI,NA,25.30541012216405,NA
49735,Otsego County,MI,NA,54.275741710296685,NA
49746,Montmorency County,MI,NA,NA,93.52941176470588
49756,Montmorency County,MI,96.26334519572953,NA,NA
49783,Chippewa County,MI,NA,20.069808027923212,NA
55343,Hennepin County,MN,NA,NA,100
55372,Scott County,MN,NA,60.73298429319372,NA
55442,Hennepin County,MN,80.2491103202847,NA,NA
55447,Hennepin County,MN,NA,59.51134380453752,NA
55746,St. Louis County,MN,27.935943060498218,NA,NA
56303,Stearns County,MN,NA,46.07329842931937,NA
56379,Benton County,MN,NA,80.27923211169285,NA
56387,Stearns County,MN,NA,NA,82.94117647058825
56482,Wadena County,MN,51.245551601423486,NA,NA
56601,Beltrami County,MN,NA,1.3961605584642234,NA
56636,Itasca County,MN,NA,NA,95.88235294117648
56701,Pennington County,MN,20.284697508896798,NA,NA
56728,Kittson County,MN,NA,98.25479930191972,NA
38668,Tate County,MS,75.97864768683274,NA,NA
38834,Alcorn County,MS,19.9288256227758,NA,NA
38863,Pontotoc County,MS,67.43772241992883,NA,NA
38967,Montgomery County,MS,NA,89.70331588132635,NA
39074,Scott County,MS,NA,86.73647469458989,NA
39083,Copiah County,MS,NA,84.29319371727748,NA
39213,Hinds County,MS,39.32384341637011,NA,NA
39525,Hancock County,MS,NA,52.35602094240838,NA
39531,Harrison County,MS,NA,43.455497382198956,NA
39573,Stone County,MS,90.2135231316726,NA,NA
39666,Pike County,MS,77.22419928825623,NA,NA
39759,Oktibbeha County,MS,NA,NA,73.52941176470588
63011,St. Louis County,MO,NA,17.801047120418847,NA
63017,St. Louis County,MO,NA,11.69284467713787,4.117647058823529
63114,St. Louis County,MO,59.430604982206404,NA,NA
63129,St. Louis County,MO,48.220640569395016,NA,NA
63304,St. Charles County,MO,NA,13.961605584642234,NA
63366,St. Charles County,MO,11.565836298932384,NA,NA
63368,St. Charles County,MO,45.01779359430605,NA,NA
63379,Lincoln County,MO,32.91814946619217,NA,NA
63385,St. Charles County,MO,16.90391459074733,NA,NA
63935,Ripley County,MO,56.04982206405694,NA,NA
64055,Jackson County,MO,6.583629893238434,NA,NA
64076,Lafayette County,MO,NA,80.97731239092496,NA
64082,Jackson County,MO,NA,91.44851657940663,NA
64083,Cass County,MO,71.17437722419929,NA,NA
64110,Jackson County,MO,NA,37.347294938917976,NA
64127,Jackson County,MO,5.338078291814947,NA,NA
64134,Jackson County,MO,12.099644128113878,35.42757417102967,NA
64151,Platte County,MO,NA,16.404886561954623,NA
64152,Platte County,MO,19.9288256227758,NA,NA
64155,Clay County,MO,25.26690391459075,NA,NA
64157,Clay County,MO,36.83274021352313,NA,NA
64468,Nodaway County,MO,NA,NA,87.05882352941177
64772,Vernon County,MO,84.69750889679716,NA,NA
64801,Jasper County,MO,NA,47.81849912739965,NA
65203,Boone County,MO,NA,NA,10.588235294117647
65251,Callaway County,MO,NA,54.45026178010471,NA
65351,Saline County,MO,98.22064056939502,NA,NA
65401,Phelps County,MO,NA,NA,37.64705882352941
65721,Christian County,MO,NA,NA,58.235294117647065
59047,Park County,MT,NA,NA,60
59635,Lewis and Clark County,MT,NA,87.26003490401396,NA
59718,Gallatin County,MT,NA,NA,44.70588235294118
59901,Flathead County,MT,NA,NA,2.941176470588235
59923,Lincoln County,MT,NA,NA,70
68025,Dodge County,NE,NA,24.43280977312391,NA
68106,Douglas County,NE,NA,76.26527050610821,NA
68137,Douglas County,NE,54.62633451957295,NA,NA
68305,Nemaha County,NE,98.57651245551602,NA,NA
68507,Lancaster County,NE,NA,93.54275741710296,NA
69162,Cheyenne County,NE,NA,90.22687609075044,NA
69301,Box Butte County,NE,NA,67.36474694589877,NA
89102,Clark County,NV,53.02491103202846,NA,NA
89121,Clark County,NV,31.13879003558719,NA,NA
89131,Clark County,NV,NA,46.596858638743456,NA
89134,Clark County,NV,NA,48.167539267015705,NA
89147,Clark County,NV,43.41637010676156,NA,NA
89148,Clark County,NV,NA,71.37870855148341,NA
89433,Washoe County,NV,42.34875444839858,NA,NA
89451,Washoe County,NV,NA,86.73647469458989,NA
89506,Washoe County,NV,NA,32.28621291448517,NA
03051,Hillsborough County,NH,25.088967971530252,18.32460732984293,NA
03079,Rockingham County,NH,15.480427046263346,NA,NA
03842,Rockingham County,NH,NA,30.36649214659686,NA
03844,Rockingham County,NH,NA,100,NA
03885,Rockingham County,NH,NA,92.32111692844677,NA
07012,Passaic County,NJ,83.98576512455516,NA,NA
07018,Essex County,NJ,4.804270462633451,22.164048865619545,NA
07036,Union County,NJ,8.185053380782918,NA,NA
07070,Bergen County,NJ,NA,82.02443280977313,NA
07073,Bergen County,NJ,66.01423487544484,NA,NA
07104,Essex County,NJ,14.768683274021353,NA,NA
07305,Hudson County,NJ,NA,2.6178010471204187,NA
07306,Hudson County,NJ,NA,94.58987783595113,NA
07607,Bergen County,NJ,79.00355871886121,NA,NA
07645,Bergen County,NJ,NA,93.717277486911,NA
07716,Monmouth County,NJ,NA,87.95811518324608,NA
07724,Monmouth County,NJ,NA,34.72949389179756,NA
07731,Monmouth County,NJ,NA,39.09249563699825,NA
07762,Monmouth County,NJ,97.86476868327402,NA,NA
07834,Morris County,NJ,NA,NA,48.8235294117647
07981,Morris County,NJ,94.30604982206405,NA,NA
08005,Ocean County,NJ,NA,NA,22.941176470588236
08008,Ocean County,NJ,97.50889679715303,NA,NA
08090,Gloucester County,NJ,70.2846975088968,NA,NA
08244,Atlantic County,NJ,NA,96.33507853403141,NA
08540,Mercer County,NJ,NA,34.904013961605585,NA
08753,Ocean County,NJ,NA,4.537521815008725,NA
08835,Somerset County,NJ,NA,94.24083769633508,NA
08861,Middlesex County,NJ,1.2455516014234875,5.2356020942408374,NA
08873,Somerset County,NJ,NA,22.5130890052356,NA
87001,Sandoval County,NM,NA,97.73123909249564,NA
87052,Sandoval County,NM,93.06049822064057,NA,NA
87105,Bernalillo County,NM,NA,24.60732984293194,NA
87107,Bernalillo County,NM,NA,NA,51.76470588235295
87120,Bernalillo County,NM,7.829181494661921,NA,NA
87121,Bernalillo County,NM,NA,33.33333333333333,NA
87123,Bernalillo County,NM,44.48398576512456,4.712041884816754,NA
87301,McKinley County,NM,NA,NA,92.94117647058823
87507,Santa Fe County,NM,35.76512455516014,NA,NA
87544,Los Alamos County,NM,63.70106761565836,57.59162303664922,NA
87547,,NM,85.40925266903915,NA,NA
10019,New York County,NY,NA,NA,32.35294117647059
10022,New York County,NY,NA,NA,32.94117647058823
10027,New York County,NY,3.558718861209965,NA,NA
10034,New York County,NY,68.14946619217082,NA,NA
10035,New York County,NY,NA,37.17277486910995,NA
10306,Richmond County,NY,19.750889679715304,NA,NA
10310,Richmond County,NY,NA,40.66317626527051,NA
10451,Bronx County,NY,NA,5.7591623036649215,NA
10456,Bronx County,NY,NA,0,NA
10469,Bronx County,NY,2.491103202846975,NA,NA
10473,Bronx County,NY,3.3807829181494666,NA,NA
10475,Bronx County,NY,NA,9.947643979057592,NA
10552,Westchester County,NY,63.879003558718864,NA,NA
10562,Westchester County,NY,NA,64.04886561954625,NA
10573,Westchester County,NY,NA,65.61954624781849,NA
11207,Kings County,NY,3.7366548042704624,NA,NA
11229,Kings County,NY,NA,NA,5.88235294117647
11232,Kings County,NY,62.989323843416365,NA,NA
11236,Kings County,NY,3.0249110320284696,NA,NA
11372,Queens County,NY,33.80782918149466,NA,NA
11385,Queens County,NY,NA,62.82722513089005,NA
11412,Queens County,NY,NA,77.4869109947644,NA
11575,Nassau County,NY,NA,87.60907504363001,NA
11581,Nassau County,NY,NA,NA,75.88235294117646
11590,Nassau County,NY,NA,32.460732984293195,NA
11717,Suffolk County,NY,18.86120996441281,NA,NA
11720,Suffolk County,NY,74.02135231316726,NA,NA
11722,Suffolk County,NY,24.91103202846975,NA,NA
12037,Columbia County,NY,NA,95.28795811518324,NA
12090,Rensselaer County,NY,67.79359430604983,NA,NA
12167,Delaware County,NY,96.97508896797153,NA,NA
12211,Albany County,NY,NA,73.64746945898779,NA
12302,Schenectady County,NY,NA,23.56020942408377,NA
12307,Schenectady County,NY,67.97153024911033,NA,NA
12759,Sullivan County,NY,98.93238434163702,NA,NA
12958,Clinton County,NY,NA,98.77835951134381,NA
13021,Cayuga County,NY,NA,1.7452006980802792,NA
13032,Madison County,NY,NA,NA,85.88235294117646
13090,Onondaga County,NY,16.548042704626333,29.144851657940663,NA
13209,Onondaga County,NY,NA,69.2844677137871,NA
13210,Onondaga County,NY,70.1067615658363,NA,NA
13215,Onondaga County,NY,NA,51.30890052356021,NA
13309,Oneida County,NY,NA,75.5671902268761,NA
13357,Herkimer County,NY,NA,53.403141361256544,NA
13617,St. Lawrence County,NY,37.72241992882562,NA,NA
13619,Jefferson County,NY,49.46619217081851,NA,NA
13850,Broome County,NY,16.014234875444842,NA,NA
14025,Erie County,NY,95.37366548042705,NA,NA
14075,Erie County,NY,6.93950177935943,NA,NA
14086,Erie County,NY,20.818505338078293,NA,NA
14092,Niagara County,NY,52.84697508896797,NA,NA
14094,Niagara County,NY,2.135231316725979,NA,NA
14098,Orleans County,NY,89.85765124555161,NA,NA
14120,Niagara County,NY,NA,6.282722513089005,NA
14127,Erie County,NY,NA,14.834205933682373,NA
14150,Erie County,NY,29.359430604982208,NA,25.294117647058822
14217,Erie County,NY,28.647686832740217,NA,NA
14218,Erie County,NY,NA,40.139616055846425,NA
14220,Erie County,NY,13.523131672597867,NA,NA
14423,Livingston County,NY,NA,95.81151832460732,NA
14424,Ontario County,NY,NA,0.8726003490401396,NA
14445,Monroe County,NY,NA,63.525305410122165,NA
14450,Monroe County,NY,37.18861209964413,NA,NA
14469,Ontario County,NY,44.128113879003564,NA,NA
14472,Monroe County,NY,79.1814946619217,NA,NA
14482,Genesee County,NY,53.736654804270465,NA,NA
14502,Wayne County,NY,30.782918149466195,NA,NA
14526,Monroe County,NY,15.302491103202847,NA,NA
14534,Monroe County,NY,NA,NA,7.647058823529412
14543,Monroe County,NY,90.92526690391459,96.50959860383944,NA
14548,Ontario County,NY,66.19217081850533,NA,NA
14580,Monroe County,NY,32.38434163701068,0.17452006980802792,NA
14591,Wyoming County,NY,NA,98.25479930191972,NA
14610,Monroe County,NY,NA,61.95462478184991,NA
14612,Monroe County,NY,2.3131672597864767,NA,NA
14615,Monroe County,NY,10.676156583629894,NA,NA
14618,Monroe County,NY,NA,11.518324607329843,NA
14620,Monroe County,NY,NA,15.881326352530541,NA
14624,Monroe County,NY,NA,17.452006980802793,NA
14715,Allegany County,NY,NA,93.89179755671903,NA
14735,Allegany County,NY,NA,98.95287958115183,NA
14750,Chautauqua County,NY,85.76512455516014,NA,NA
14850,Tompkins County,NY,3.9145907473309607,32.63525305410122,NA
14901,Chemung County,NY,33.985765124555165,NA,NA
27006,Davie County,NC,62.63345195729537,NA,NA
27028,Davie County,NC,14.94661921708185,7.678883071553229,NA
27040,Forsyth County,NC,NA,29.31937172774869,NA
27249,Guilford County,NC,81.31672597864768,NA,NA
27253,Alamance County,NC,NA,16.75392670157068,NA
27265,Guilford County,NC,20.640569395017792,NA,NA
27288,Rockingham County,NC,12.811387900355871,NA,NA
27360,Davidson County,NC,2.8469750889679712,NA,NA
27407,Guilford County,NC,19.217081850533805,NA,NA
27513,Wake County,NC,61.92170818505338,52.879581151832454,NA
27517,Orange County,NC,NA,NA,22.35294117647059
27526,Wake County,NC,29.8932384341637,NA,NA
27530,Wayne County,NC,NA,20.76788830715532,NA
27576,Johnston County,NC,58.362989323843415,NA,NA
27603,Wake County,NC,23.487544483985765,NA,NA
27703,Durham County,NC,10.320284697508896,NA,NA
27949,Dare County,NC,88.96797153024912,NA,NA
28144,Rowan County,NC,38.256227758007114,NA,NA
28146,Rowan County,NC,NA,NA,42.94117647058823
28173,Union County,NC,NA,46.77137870855148,NA
28210,Mecklenburg County,NC,55.16014234875445,NA,NA
28278,Mecklenburg County,NC,61.032028469750884,NA,NA
28443,Pender County,NC,58.00711743772242,NA,NA
28445,Onslow County,NC,NA,NA,94.70588235294117
28460,Onslow County,NC,NA,79.40663176265271,NA
28472,Columbus County,NC,NA,NA,56.470588235294116
28673,Catawba County,NC,NA,NA,95.29411764705881
28675,Alleghany County,NC,NA,80.6282722513089,NA
28697,Wilkes County,NC,64.59074733096085,NA,NA
28719,Jackson County,NC,NA,85.86387434554975,NA
28721,Haywood County,NC,77.58007117437722,NA,NA
28739,Henderson County,NC,NA,12.914485165794066,NA
28752,McDowell County,NC,15.658362989323843,NA,NA
28906,Cherokee County,NC,NA,28.970331588132638,NA
58601,Stark County,ND,NA,96.16055846422339,NA
58701,Ward County,ND,9.786476868327403,NA,NA
58703,Ward County,ND,45.90747330960854,NA,NA
43025,Licking County,OH,91.45907473309609,NA,NA
43026,Franklin County,OH,NA,20.418848167539267,NA
43050,Knox County,OH,NA,70.50610820244329,NA
43055,Licking County,OH,NA,NA,7.0588235294117645
43065,Delaware County,OH,93.41637010676158,NA,NA
43076,Perry County,OH,NA,92.84467713787086,NA
43119,Franklin County,OH,27.046263345195733,NA,NA
43123,Franklin County,OH,NA,7.329842931937172,15.88235294117647
43130,Fairfield County,OH,NA,18.49912739965096,NA
43138,Hocking County,OH,NA,29.49389179755672,NA
43146,Pickaway County,OH,NA,86.38743455497382,NA
43160,Fayette County,OH,12.455516014234876,NA,NA
43232,Franklin County,OH,NA,14.485165794066319,NA
43235,Franklin County,OH,47.86476868327402,NA,NA
43402,Wood County,OH,22.77580071174377,NA,NA
43526,Defiance County,OH,NA,68.760907504363,NA
43606,Lucas County,OH,NA,33.50785340314136,NA
43607,Lucas County,OH,4.98220640569395,NA,NA
43612,Lucas County,OH,3.202846975088968,17.10296684118674,NA
43616,Lucas County,OH,NA,10.645724258289704,NA
43725,Guernsey County,OH,14.590747330960854,NA,NA
44035,Lorain County,OH,0.3558718861209964,2.2687609075043627,NA
44074,Lorain County,OH,NA,78.88307155322862,NA
44092,Lake County,OH,NA,NA,14.705882352941178
44103,Cuyahoga County,OH,NA,44.50261780104712,NA
44106,Cuyahoga County,OH,9.252669039145907,NA,NA
44107,Cuyahoga County,OH,NA,NA,12.352941176470589
44122,Cuyahoga County,OH,NA,NA,1.1764705882352942
44131,Cuyahoga County,OH,NA,NA,8.823529411764707
44133,Cuyahoga County,OH,29.537366548042705,NA,NA
44134,Cuyahoga County,OH,66.54804270462633,NA,NA
44212,Medina County,OH,2.6690391459074734,NA,NA
44224,Summit County,OH,NA,8.027923211169284,NA
44231,Portage County,OH,NA,86.73647469458989,NA
44256,Medina County,OH,21.88612099644128,0.5235602094240838,NA
44262,Summit County,OH,93.59430604982207,NA,NA
44305,Summit County,OH,46.79715302491103,NA,NA
44312,Summit County,OH,13.87900355871886,9.07504363001745,31.76470588235294
44314,Summit County,OH,NA,21.465968586387437,NA
44425,Trumbull County,OH,NA,25.654450261780106,NA
44484,Trumbull County,OH,NA,43.80453752181501,NA
44667,Wayne County,OH,NA,84.29319371727748,NA
44709,Stark County,OH,NA,45.54973821989529,NA
44830,Seneca County,OH,NA,31.239092495637,NA
44846,Erie County,OH,NA,96.8586387434555,NA
44857,Huron County,OH,NA,6.806282722513089,NA
44883,Seneca County,OH,NA,36.12565445026178,NA
44906,Richland County,OH,35.587188612099645,NA,NA
45036,Warren County,OH,NA,NA,47.05882352941176
45056,Butler County,OH,NA,73.99650959860384,NA
45069,Butler County,OH,NA,17.975567190226876,NA
45102,Clermont County,OH,NA,58.98778359511344,NA
45103,Clermont County,OH,29.715302491103202,NA,NA
45140,Clermont County,OH,26.156583629893237,NA,NA
45225,Hamilton County,OH,69.3950177935943,NA,NA
45236,Hamilton County,OH,54.982206405693944,NA,NA
45246,Hamilton County,OH,77.75800711743773,66.14310645724258,NA
45309,Montgomery County,OH,NA,60.20942408376963,NA
45315,Montgomery County,OH,NA,95.46247818499127,NA
45403,Montgomery County,OH,40.0355871886121,NA,NA
45406,Montgomery County,OH,15.12455516014235,NA,NA
45449,Montgomery County,OH,69.7508896797153,NA,NA
45503,Clark County,OH,NA,12.216404886561955,NA
45601,Ross County,OH,0.5338078291814947,NA,0
45669,Lawrence County,OH,NA,54.973821989528794,NA
45750,Washington County,OH,NA,0.6980802792321117,NA
45764,Athens County,OH,70.8185053380783,NA,NA
45805,Allen County,OH,12.455516014234876,NA,NA
45806,Allen County,OH,64.41281138790036,NA,NA
45817,Allen County,OH,NA,89.52879581151832,NA
45891,Van Wert County,OH,33.096085409252666,NA,NA
73013,Oklahoma County,OK,NA,8.726003490401396,NA
75036,NA,NA,NA,99.65095986038395,NA
73034,Oklahoma County,OK,31.85053380782918,NA,NA
73084,Oklahoma County,OK,NA,83.42059336823735,NA
73099,Canadian County,OK,13.167259786476867,NA,NA
73401,Carter County,OK,NA,10.12216404886562,NA
73505,Comanche County,OK,24.377224199288257,NA,NA
74073,Tulsa County,OK,NA,NA,91.76470588235294
74134,Tulsa County,OK,NA,88.1326352530541,NA
74501,Pittsburg County,OK,79.7153024911032,45.89877835951135,NA
74701,Bryan County,OK,NA,54.62478184991274,NA
74948,Sequoyah County,OK,NA,NA,77.05882352941177
97060,Multnomah County,OR,NA,88.48167539267016,NA
97202,Multnomah County,OR,NA,47.64397905759162,NA
97213,Multnomah County,OR,83.27402135231317,NA,NA
97220,Multnomah County,OR,39.50177935943061,NA,NA
97304,Polk County,OR,NA,55.67190226876091,66.47058823529412
97322,Linn County,OR,13.345195729537366,NA,NA
97404,Lane County,OR,NA,NA,64.70588235294117
97405,Lane County,OR,NA,62.129144851657934,NA
97423,Coos County,OR,NA,74.17102966841188,NA
97457,Douglas County,OR,71.70818505338077,NA,NA
97814,Baker County,OR,NA,42.93193717277487,NA
15005,Beaver County,PA,NA,76.61431064572426,NA
15066,Beaver County,PA,76.51245551601423,NA,NA
15131,Allegheny County,PA,90.0355871886121,NA,NA
15136,Allegheny County,PA,33.45195729537366,35.25305410122164,NA
15143,Allegheny County,PA,NA,NA,50
15145,Allegheny County,PA,85.94306049822063,80.80279232111693,NA
15211,Allegheny County,PA,87.72241992882563,NA,NA
15212,Allegheny County,PA,27.402135231316727,NA,NA
15217,Allegheny County,PA,NA,21.291448516579408,NA
15237,Allegheny County,PA,51.06761565836299,NA,NA
15301,Washington County,PA,5.5160142348754455,5.06108202443281,NA
15342,Washington County,PA,87.36654804270462,NA,NA
15501,Somerset County,PA,57.11743772241993,NA,NA
16101,Lawrence County,PA,5.160142348754448,NA,NA
16125,Mercer County,PA,NA,16.05584642233857,NA
16229,Armstrong County,PA,91.45907473309609,NA,NA
16433,Crawford County,PA,NA,NA,97.6470588235294
16505,Erie County,PA,NA,56.8935427574171,NA
16701,McKean County,PA,17.437722419928825,NA,NA
17057,Dauphin County,PA,18.327402135231317,NA,NA
17109,Dauphin County,PA,28.46975088967972,NA,NA
17110,Dauphin County,PA,NA,26.352530541012214,NA
17111,Dauphin County,PA,16.19217081850534,NA,NA
17112,Dauphin County,PA,17.08185053380783,31.413612565445025,16.470588235294116
17257,Cumberland County,PA,26.334519572953734,NA,NA
17320,Adams County,PA,96.44128113879003,NA,NA
17403,York County,PA,NA,2.7923211169284468,NA
17406,York County,PA,NA,41.012216404886566,NA
17603,Lancaster County,PA,8.007117437722421,NA,NA
17821,Montour County,PA,28.11387900355872,NA,NA
17866,Northumberland County,PA,NA,59.68586387434554,NA
17931,Schuylkill County,PA,NA,89.00523560209425,NA
18017,Northampton County,PA,78.82562277580071,NA,NA
18045,Northampton County,PA,40.569395017793596,NA,NA
18054,Montgomery County,PA,99.644128113879,NA,NA
18088,Northampton County,PA,NA,94.4153577661431,NA
18091,Northampton County,PA,NA,NA,72.35294117647058
18102,Lehigh County,PA,0.8896797153024912,NA,NA
18343,Northampton County,PA,95.72953736654804,NA,NA
18505,Lackawanna County,PA,NA,69.10994764397905,NA
18701,Luzerne County,PA,97.15302491103202,NA,NA
18853,Bradford County,PA,NA,99.47643979057592,NA
18977,Bucks County,PA,NA,89.17975567190227,NA
19013,Delaware County,PA,NA,46.42233856893543,NA
19031,Montgomery County,PA,89.32384341637011,NA,NA
19056,Bucks County,PA,NA,61.43106457242583,NA
19057,Bucks County,PA,NA,NA,54.11764705882353
19072,Montgomery County,PA,68.68327402135232,NA,NA
19085,Delaware County,PA,NA,97.03315881326353,NA
19114,Philadelphia County,PA,19.217081850533805,NA,NA
19120,Philadelphia County,PA,17.793594306049823,5.93368237347295,NA
19125,Philadelphia County,PA,NA,NA,91.17647058823529
19136,Philadelphia County,PA,NA,27.225130890052355,NA
19317,Delaware County,PA,NA,99.82547993019197,NA
19403,Montgomery County,PA,NA,5.4101221640488655,NA
19406,Montgomery County,PA,NA,83.59511343804537,NA
19422,Montgomery County,PA,54.270462633451956,NA,NA
19426,Montgomery County,PA,38.967971530249116,31.93717277486911,NA
19446,Montgomery County,PA,NA,68.41186736474695,NA
19460,Chester County,PA,26.51245551601423,NA,NA
19468,Montgomery County,PA,74.73309608540926,34.20593368237348,NA
19473,Montgomery County,PA,82.20640569395017,NA,NA
19530,Berks County,PA,NA,88.30715532286213,NA
19555,Berks County,PA,NA,93.89179755671903,NA
02816,Kent County,RI,30.96085409252669,14.659685863874344,NA
02832,Washington County,RI,NA,97.20767888307155,NA
02865,Providence County,RI,71.70818505338077,NA,NA
02882,Washington County,RI,NA,51.65794066317626,NA
02920,Providence County,RI,32.74021352313167,NA,NA
29102,Clarendon County,SC,56.93950177935944,NA,NA
29108,Newberry County,SC,57.65124555160143,NA,NA
29210,Richland County,SC,44.83985765124555,NA,NA
29223,Richland County,SC,NA,26.701570680628272,NA
29406,Charleston County,SC,27.75800711743772,NA,NA
29455,Charleston County,SC,NA,33.85689354275742,NA
29456,Dorchester County,SC,NA,47.294938917975564,NA
29486,Berkeley County,SC,NA,47.12041884816754,NA
29565,Dillon County,SC,NA,89.87783595113437,NA
29568,Horry County,SC,80.78291814946618,NA,NA
29585,Georgetown County,SC,97.33096085409252,NA,NA
29627,Anderson County,SC,NA,57.24258289703316,NA
29642,Pickens County,SC,NA,16.92844677137871,NA
29706,Chester County,SC,37.544483985765126,NA,NA
29803,Aiken County,SC,NA,NA,27.058823529411764
29907,Beaufort County,SC,NA,79.75567190226876,NA
57103,Minnehaha County,SD,NA,3.4904013961605584,NA
37013,Davidson County,TN,9.430604982206406,16.230366492146597,NA
37014,Williamson County,TN,98.75444839857651,NA,NA
37042,Montgomery County,TN,26.868327402135233,NA,NA
37066,Sumner County,TN,8.718861209964412,NA,NA
37075,Sumner County,TN,16.72597864768683,NA,NA
37091,Marshall County,TN,41.45907473309609,NA,NA
37138,Davidson County,TN,NA,54.10122164048866,NA
37146,Cheatham County,TN,92.52669039145907,NA,NA
37148,Sumner County,TN,42.170818505338076,NA,NA
37179,Williamson County,TN,86.65480427046263,NA,NA
37205,Davidson County,TN,NA,NA,29.411764705882355
37206,Davidson County,TN,37.36654804270463,NA,NA
37311,Bradley County,TN,38.07829181494662,NA,NA
37363,Hamilton County,TN,43.594306049822066,NA,NA
37421,Hamilton County,TN,31.494661921708182,NA,NA
37604,Washington County,TN,20.462633451957295,NA,NA
37857,Hawkins County,TN,68.50533807829181,NA,NA
38305,Madison County,TN,NA,10.99476439790576,NA
38555,Cumberland County,TN,NA,38.56893542757417,NA
75002,Collin County,TX,23.309608540925268,28.097731239092493,NA
75020,Grayson County,TX,50,NA,NA
75024,Collin County,TX,NA,76.78883071553228,NA
75032,Rockwall County,TX,61.56583629893239,NA,NA
75035,Collin County,TX,40.92526690391459,NA,NA
75068,Denton County,TX,34.87544483985765,NA,NA
75070,Collin County,TX,NA,9.773123909249563,NA
75075,Collin County,TX,65.83629893238434,NA,NA
75104,Dallas County,TX,NA,30.54101221640489,NA
75135,Hunt County,TX,93.95017793594306,NA,NA
75140,Van Zandt County,TX,NA,NA,84.70588235294117
75149,Dallas County,TX,18.683274021352315,NA,NA
75150,Dallas County,TX,NA,16.404886561954623,NA
75189,Rockwall County,TX,47.50889679715303,77.83595113438045,NA
75211,Dallas County,TX,19.572953736654807,NA,NA
75218,Dallas County,TX,77.40213523131672,NA,NA
75244,Dallas County,TX,NA,83.7696335078534,NA
75693,Gregg County,TX,NA,97.38219895287958,NA
75703,Smith County,TX,NA,NA,3.5294117647058822
75707,Smith County,TX,NA,49.73821989528796,NA
75965,Nacogdoches County,TX,70.46263345195729,NA,NA
76005,Tarrant County,TX,99.28825622775801,NA,NA
76036,Tarrant County,TX,59.60854092526691,NA,NA
76049,Hood County,TX,NA,NA,34.705882352941174
76063,Tarrant County,TX,NA,12.739965095986038,NA
76086,Parker County,TX,NA,57.76614310645725,NA
76109,Tarrant County,TX,58.718861209964416,NA,NA
76118,Tarrant County,TX,83.80782918149467,NA,NA
76126,Tarrant County,TX,77.93594306049823,NA,NA
76132,Tarrant County,TX,NA,56.719022687609076,NA
76137,Tarrant County,TX,55.51601423487544,NA,NA
76164,Tarrant County,TX,72.95373665480427,NA,NA
76226,Denton County,TX,NA,63.17626527050611,NA
76227,Denton County,TX,67.61565836298932,NA,NA
76234,Wise County,TX,72.77580071174377,NA,74.70588235294117
76244,Tarrant County,TX,28.825622775800714,NA,NA
76248,Tarrant County,TX,NA,42.75741710296684,NA
76301,Wichita County,TX,49.11032028469751,NA,NA
76401,Erath County,TX,NA,48.86561954624782,NA
76424,Stephens County,TX,NA,72.6003490401396,NA
76550,Lampasas County,TX,NA,55.846422338568935,NA
76643,McLennan County,TX,74.19928825622776,NA,NA
77012,Harris County,TX,NA,NA,90.58823529411765
77015,Harris County,TX,NA,44.85165794066317,NA
77048,Harris County,TX,NA,77.13787085514834,NA
77074,Harris County,TX,NA,57.76614310645725,NA
77077,Harris County,TX,NA,32.98429319371728,NA
77092,Harris County,TX,57.29537366548043,NA,NA
77304,Montgomery County,TX,62.811387900355875,NA,NA
77306,Montgomery County,TX,NA,NA,96.47058823529412
77338,Harris County,TX,48.04270462633452,NA,NA
77365,Montgomery County,TX,51.95729537366548,NA,NA
77372,Montgomery County,TX,87.54448398576513,NA,NA
77377,Harris County,TX,NA,82.19895287958116,NA
77379,Harris County,TX,28.291814946619215,NA,NA
77401,Harris County,TX,NA,78.35951134380453,NA
77406,Fort Bend County,TX,NA,30.017452006980804,NA
77422,Brazoria County,TX,78.46975088967972,NA,NA
77429,Harris County,TX,NA,4.363001745200698,NA
77433,Harris County,TX,11.209964412811388,NA,NA
77450,Harris County,TX,NA,NA,48.23529411764706
77459,Fort Bend County,TX,25.444839857651246,NA,NA
77484,Waller County,TX,NA,80.10471204188482,NA
77498,Fort Bend County,TX,NA,51.48342059336824,NA
77503,Harris County,TX,NA,NA,89.41176470588236
77504,Harris County,TX,NA,74.17102966841188,NA
77505,Harris County,TX,NA,NA,69.41176470588235
77511,Brazoria County,TX,NA,NA,20.588235294117645
77514,Chambers County,TX,89.5017793594306,NA,NA
77532,Harris County,TX,43.77224199288256,NA,NA
77536,Harris County,TX,NA,39.61605584642234,NA
77551,Galveston County,TX,NA,62.478184991274,NA
77568,Galveston County,TX,37.90035587188612,NA,NA
77573,Galveston County,TX,NA,4.18848167539267,NA
77583,Brazoria County,TX,53.736654804270465,NA,NA
77584,Brazoria County,TX,9.9644128113879,NA,45.88235294117647
77612,Jasper County,TX,NA,77.31239092495636,NA
78023,Bexar County,TX,88.61209964412812,NA,NA
78071,Live Oak County,TX,100,NA,NA
78155,Guadalupe County,TX,27.22419928825623,NA,NA
78209,Bexar County,TX,65.12455516014235,NA,NA
78240,Bexar County,TX,NA,60.38394415357766,NA
78566,Cameron County,TX,NA,NA,98.23529411764706
78572,Hidalgo County,TX,NA,NA,10
78641,Williamson County,TX,22.95373665480427,NA,NA
78666,Hays County,TX,30.604982206405694,NA,NA
78956,Fayette County,TX,NA,NA,97.05882352941177
79106,Potter County,TX,NA,71.02966841186736,NA
79108,Potter County,TX,80.6049822064057,NA,NA
79404,Lubbock County,TX,78.29181494661923,90.75043630017451,NA
79424,Lubbock County,TX,NA,9.424083769633508,NA
79605,Taylor County,TX,40.92526690391459,71.20418848167539,NA
79705,Midland County,TX,30.2491103202847,89.3542757417103,NA
79707,Midland County,TX,NA,74.69458987783595,NA
79764,Ector County,TX,NA,68.93542757417103,NA
79935,El Paso County,TX,NA,NA,85.29411764705883
79936,El Paso County,TX,NA,18.1500872600349,NA
84014,Davis County,UT,NA,80.45375218150087,NA
84074,Tooele County,UT,22.419928825622776,NA,NA
84087,Davis County,UT,94.12811387900356,NA,NA
84116,Salt Lake County,UT,32.028469750889684,NA,NA
84401,Weber County,UT,46.08540925266904,NA,NA
84404,Weber County,UT,NA,70.85514834205934,NA
84414,Weber County,UT,75.80071174377224,NA,NA
84532,Grand County,UT,87.90035587188612,NA,NA
84648,Juab County,UT,90.5693950177936,NA,NA
84737,Washington County,UT,NA,63.87434554973822,NA
84770,Washington County,UT,73.30960854092527,NA,NA
20110,Manassas city,VA,NA,57.06806282722513,NA
20132,Loudoun County,VA,90.74733096085409,NA,NA
20148,Loudoun County,VA,58.89679715302491,NA,NA
20166,Loudoun County,VA,91.81494661921708,NA,NA
20175,Loudoun County,VA,NA,70.15706806282722,NA
22033,Fairfax County,VA,61.20996441281139,NA,NA
22151,Fairfax County,VA,83.09608540925268,NA,NA
22191,Prince William County,VA,17.08185053380783,NA,NA
22192,Prince William County,VA,NA,NA,55.294117647058826
22207,Arlington County,VA,NA,42.582897033158815,NA
22302,Alexandria city,VA,NA,67.19022687609075,NA
22311,Alexandria city,VA,NA,NA,74.11764705882354
22312,Fairfax County,VA,47.15302491103203,NA,NA
22551,Spotsylvania County,VA,61.387900355871885,NA,NA
22554,Stafford County,VA,34.34163701067616,NA,NA
22601,Winchester city,VA,NA,NA,70.58823529411765
22602,Frederick County,VA,NA,52.5305410122164,NA
22655,Frederick County,VA,NA,81.32635253054102,NA
22801,Harrisonburg city,VA,NA,NA,31.176470588235293
22843,Augusta County,VA,95.90747330960853,NA,NA
22844,Shenandoah County,VA,84.51957295373666,NA,NA
22853,Rockingham County,VA,NA,84.11867364746945,NA
22939,Augusta County,VA,NA,92.14659685863874,NA
22960,Orange County,VA,99.8220640569395,NA,NA
23002,Amelia County,VA,85.23131672597864,NA,NA
23188,James City County,VA,NA,NA,2.3529411764705883
23451,Virginia Beach city,VA,NA,NA,6.470588235294119
23454,Virginia Beach city,VA,NA,11.343804537521814,NA
23455,Virginia Beach city,VA,NA,8.55148342059337,NA
23503,Norfolk city,VA,NA,36.64921465968586,NA
23518,Norfolk city,VA,NA,NA,23.52941176470588
23704,Portsmouth city,VA,62.45551601423488,NA,NA
24018,Roanoke County,VA,50.355871886120994,NA,NA
24153,Salem city,VA,NA,NA,24.705882352941178
24333,Galax city,VA,49.8220640569395,NA,NA
24557,Pittsylvania County,VA,NA,87.43455497382199,NA
98021,Snohomish County,WA,NA,78.88307155322862,NA
98022,King County,WA,NA,NA,49.411764705882355
98075,King County,WA,NA,73.29842931937172,NA
98104,King County,WA,NA,90.57591623036649,NA
98107,King County,WA,71.35231316725978,NA,NA
98166,King County,WA,NA,50.08726003490401,NA
98188,King County,WA,NA,83.07155322862128,NA
98198,King County,WA,NA,28.79581151832461,NA
98247,Whatcom County,WA,96.08540925266904,NA,NA
98273,Skagit County,WA,NA,NA,13.529411764705882
98284,Skagit County,WA,NA,24.781849912739965,NA
98362,Clallam County,WA,38.612099644128115,NA,NA
98363,Clallam County,WA,NA,38.21989528795812,NA
98382,Clallam County,WA,NA,NA,17.058823529411764
98422,Pierce County,WA,NA,NA,78.23529411764706
98498,Pierce County,WA,NA,NA,59.411764705882355
98528,Mason County,WA,93.23843416370107,NA,NA
98531,Lewis County,WA,NA,47.4694589877836,NA
98569,Grays Harbor County,WA,NA,78.1849912739965,NA
97003,NA,NA,55.871886120996436,NA,NA
98632,Cowlitz County,WA,NA,NA,4.705882352941177
98816,Chelan County,WA,NA,78.35951134380453,NA
98837,Grant County,WA,NA,32.11169284467714,NA
98848,Grant County,WA,NA,NA,98.82352941176471
98903,Yakima County,WA,NA,53.92670157068062,NA
99141,Stevens County,WA,NA,90.40139616055846,NA
20001,District of Columbia,DC,22.064056939501782,NA,NA
20009,District of Columbia,DC,34.519572953736656,NA,NA
25306,Kanawha County,WV,73.13167259786478,NA,NA
26104,Wood County,WV,NA,21.98952879581152,NA
26354,Taylor County,WV,NA,76.96335078534031,NA
26726,Mineral County,WV,44.661921708185055,NA,NA
53012,Ozaukee County,WI,81.49466192170819,NA,NA
53029,Waukesha County,WI,65.30249110320284,49.389179755671904,NA
53037,Washington County,WI,94.48398576512456,NA,NA
53051,Waukesha County,WI,46.97508896797153,NA,NA
53126,Racine County,WI,NA,66.66666666666666,NA
53128,Walworth County,WI,70.64056939501779,NA,NA
53147,Walworth County,WI,NA,36.99825479930192,NA
53154,Milwaukee County,WI,NA,10.820244328097731,NA
53168,Kenosha County,WI,NA,70.68062827225131,NA
53213,Milwaukee County,WI,NA,31.588132635253054,NA
53228,Milwaukee County,WI,74.37722419928826,43.63001745200698,NA
53406,Racine County,WI,14.05693950177936,2.094240837696335,NA
53534,Rock County,WI,58.54092526690391,NA,NA
53954,Columbia County,WI,NA,95.6369982547993,NA
53959,Sauk County,WI,NA,91.7975567190227,NA
54154,Oconto County,WI,86.83274021352312,NA,NA
54241,Manitowoc County,WI,NA,34.55497382198953,NA
54487,Lincoln County,WI,NA,94.9389179755672,NA
54601,La Crosse County,WI,52.135231316725985,1.2216404886561953,NA
54646,Juneau County,WI,93.77224199288257,NA,NA
54701,Eau Claire County,WI,NA,21.81500872600349,NA
54868,Barron County,WI,NA,NA,75.29411764705883
54904,Winnebago County,WI,NA,36.474694589877835,NA
54956,Winnebago County,WI,NA,NA,40.588235294117645
82718,Campbell County,WY,58.18505338078291,NA,NA
82930,Uinta County,WY,86.47686832740213,84.64223385689354,NA
