ZipCode,county,state,Adult
35005,Jefferson County,AL,79.36857562408223
35016,Marshall County,AL,74.76749877630935
35022,Jefferson County,AL,62.065589818893784
35023,Jefferson County,AL,19.08957415565345
35044,Talladega County,AL,84.33675966715614
35057,Cullman County,AL,67.25403817914831
35058,Cullman County,AL,66.25061184532551
35080,Shelby County,AL,48.23788546255506
35094,Jefferson County,AL,49.877630934899656
35124,Shelby County,AL,54.69897209985316
35125,St. Clair County,AL,46.18208516886931
35126,Jefferson County,AL,41.31179637787567
35128,St. Clair County,AL,68.13509544787078
35172,Blount County,AL,98.65394028389623
35173,Jefferson County,AL,38.32599118942731
35179,Cullman County,AL,94.19970631424376
35204,Jefferson County,AL,86.97993147332355
35205,Jefferson County,AL,56.51003426333823
35208,Jefferson County,AL,62.13901125795399
35209,Jefferson County,AL,72.0019579050416
35210,Jefferson County,AL,60.915320606950566
35212,Jefferson County,AL,70.82721488007832
35213,Jefferson County,AL,85.1443954968184
35215,Jefferson County,AL,42.31522271169848
35216,Jefferson County,AL,87.29809104258443
35223,Jefferson County,AL,87.54282917278512
35228,Jefferson County,AL,50.24473813020068
35235,Jefferson County,AL,44.54233969652472
35242,Shelby County,AL,20.411160058737153
35244,Jefferson County,AL,36.07440039158101
35401,Tuscaloosa County,AL,15.467449828683307
35405,Tuscaloosa County,AL,41.116005873715125
35406,Tuscaloosa County,AL,65.41850220264317
35473,Tuscaloosa County,AL,44.713656387665196
35475,Tuscaloosa County,AL,38.86441507586882
35563,Marion County,AL,88.37493881546746
35565,Winston County,AL,61.3558492413118
35601,Morgan County,AL,7.121879588839941
35611,Limestone County,AL,15.149290259422418
35619,Morgan County,AL,88.32599118942731
35622,Morgan County,AL,75.89329417523251
35630,Lauderdale County,AL,19.40773372491434
35645,Lauderdale County,AL,63.534018600097895
35652,Lauderdale County,AL,91.2873225648556
35660,Colbert County,AL,60.915320606950566
35674,Colbert County,AL,23.27459618208517
35756,Limestone County,AL,71.8551150269212
35758,Madison County,AL,26.456191874694078
35759,Madison County,AL,96.23103279490944
35763,Madison County,AL,70.1419481155164
35803,Madison County,AL,55.188448360254526
35907,Etowah County,AL,78.63436123348018
35950,Marshall County,AL,64.29270680372002
35967,DeKalb County,AL,94.56681350954479
35976,Marshall County,AL,34.50807635829663
35986,DeKalb County,AL,74.0332843857073
36078,Elmore County,AL,42.19285364659814
36104,Montgomery County,AL,76.97014194811551
36107,Montgomery County,AL,94.73813020068526
36108,Montgomery County,AL,29.56436612824278
36116,Montgomery County,AL,12.139011257953989
36201,Calhoun County,AL,49.31473323543808
36203,Calhoun County,AL,38.130200685266765
36251,Clay County,AL,92.2173274596182
36265,Calhoun County,AL,41.38521781693588
36303,Houston County,AL,13.852178169358787
36330,Coffee County,AL,33.94517865883505
36426,Escambia County,AL,46.40234948604993
36509,Mobile County,AL,99.90210474791972
36535,Baldwin County,AL,31.032794909446892
36582,Mobile County,AL,71.02300538423887
36587,Mobile County,AL,72.49143416544298
36603,Mobile County,AL,79.2462065589819
36606,Mobile County,AL,82.45227606461086
36609,Mobile County,AL,48.77630934899657
36611,Mobile County,AL,95.76603034752814
36769,Wilcox County,AL,97.79735682819384
36801,Lee County,AL,50.024473813020066
36830,Lee County,AL,57.97846304454234
36854,Chambers County,AL,52.08027410670583
36867,Russell County,AL,92.85364659813999
99503,Anchorage Municipality,AK,34.45912873225648
99504,Anchorage Municipality,AK,75.94224180127263
99508,Anchorage Municipality,AK,37.518355359765046
99515,Anchorage Municipality,AK,84.997552618698
99518,Anchorage Municipality,AK,69.70141948115517
99559,Bethel Census Area,AK,86.19676945668135
99576,Dillingham Census Area,AK,90.18600097895252
99577,Anchorage Municipality,AK,88.61967694566813
99603,Kenai Peninsula Borough,AK,71.63485070974059
99615,Kodiak Island Borough,AK,92.51101321585902
99645,Matanuska-Susitna Borough,AK,44.101811062163485
99664,Kenai Peninsula Borough,AK,98.75183553597651
99709,Fairbanks North Star Borough,AK,54.527655408712675
99762,Nome Census Area,AK,96.1820851688693
99801,Juneau City and Borough,AK,37.175721977484095
85007,Maricopa County,AZ,25.697503671071953
85008,Maricopa County,AZ,6.926089084679393
85009,Maricopa County,AZ,7.023984336759667
85014,Maricopa County,AZ,67.67009300048947
85015,Maricopa County,AZ,72.56485560450318
85016,Maricopa County,AZ,30.73910915320607
85018,Maricopa County,AZ,57.88056779246207
85019,Maricopa County,AZ,26.505139500734217
85020,Maricopa County,AZ,60.964268232990705
85021,Maricopa County,AZ,5.82476749877631
85022,Maricopa County,AZ,41.04258443465492
85024,Maricopa County,AZ,65.73666177190405
85027,Maricopa County,AZ,64.48849730788056
85029,Maricopa County,AZ,13.729809104258445
85031,Maricopa County,AZ,85.41360744003916
85032,Maricopa County,AZ,32.84385707293197
85033,Maricopa County,AZ,90.06363191385218
85035,Maricopa County,AZ,56.6079295154185
85037,Maricopa County,AZ,15.247185511502693
85040,Maricopa County,AZ,40.06363191385218
85041,Maricopa County,AZ,57.09740577581988
85042,Maricopa County,AZ,68.33088595203132
85043,Maricopa County,AZ,92.19285364659814
85044,Maricopa County,AZ,11.209006363191385
85051,Maricopa County,AZ,53.23054331864905
85053,Maricopa County,AZ,83.11306901615272
85085,Maricopa County,AZ,58.0029368575624
85086,Maricopa County,AZ,28.046989720998532
85122,Pinal County,AZ,3.622124326970142
85131,Pinal County,AZ,91.45863925599609
85138,Pinal County,AZ,62.50611845325502
85139,Pinal County,AZ,42.584434654919235
85143,Pinal County,AZ,23.959862946647085
85201,Maricopa County,AZ,52.66764561918747
85202,Maricopa County,AZ,74.7185511502692
85204,Maricopa County,AZ,7.562408223201175
85205,Maricopa County,AZ,50.24473813020068
85206,Maricopa County,AZ,33.65149290259423
85207,Maricopa County,AZ,48.58051884483602
85209,Maricopa County,AZ,52.251590797846305
85210,Maricopa County,AZ,45.1786588350465
85224,Maricopa County,AZ,68.30641213901126
85225,Maricopa County,AZ,49.6084189916789
85226,Maricopa County,AZ,43.4654919236417
85233,Maricopa County,AZ,27.973568281938327
85234,Maricopa County,AZ,74.40039158100832
85249,Maricopa County,AZ,33.55359765051395
85250,Maricopa County,AZ,85.02202643171806
85253,Maricopa County,AZ,82.69701419481154
85254,Maricopa County,AZ,42.070484581497794
85258,Maricopa County,AZ,59.593734703866865
85260,Maricopa County,AZ,55.65345080763583
85281,Maricopa County,AZ,23.372491434165443
85282,Maricopa County,AZ,28.90357317670093
85283,Maricopa County,AZ,58.981889378365146
85286,Maricopa County,AZ,76.13803230543319
85295,Maricopa County,AZ,62.065589818893784
85301,Maricopa County,AZ,56.314243759177685
85302,Maricopa County,AZ,15.29613313754283
85308,Maricopa County,AZ,75.72197748409202
85321,Pima County,AZ,94.2486539402839
85326,Maricopa County,AZ,71.071953010279
85335,Maricopa County,AZ,22.61380323054332
85338,Maricopa County,AZ,84.41018110621636
85339,Maricopa County,AZ,43.26970141948115
85340,Maricopa County,AZ,56.06950562897699
85345,Maricopa County,AZ,29.02594224180127
85349,Yuma County,AZ,22.3935389133627
85353,Maricopa County,AZ,21.292217327459618
85364,Yuma County,AZ,1.2481644640234948
85379,Maricopa County,AZ,19.211943220753795
85381,Maricopa County,AZ,53.45080763582967
85383,Maricopa County,AZ,16.61771904062653
85395,Maricopa County,AZ,65.85903083700441
85501,Gila County,AZ,66.96035242290749
85541,Gila County,AZ,37.68967205090553
85546,Graham County,AZ,38.644150758688205
85552,Graham County,AZ,79.14831130690162
85603,Cochise County,AZ,96.42682329907
85607,Cochise County,AZ,16.837983357807147
85635,Cochise County,AZ,66.59324522760646
85704,Pima County,AZ,35.58492413117964
85705,Pima County,AZ,1.297112090063632
85706,Pima County,AZ,0.7831620166421929
85710,Pima County,AZ,4.013705335291238
85711,Pima County,AZ,21.830641213901124
85719,Pima County,AZ,21.855115026921194
85730,Pima County,AZ,15.95692608908468
85737,Pima County,AZ,54.4297601566324
85739,Pinal County,AZ,83.35780714635341
85741,Pima County,AZ,20.876162506118455
85745,Pima County,AZ,15.051395007342144
85746,Pima County,AZ,28.976994615761136
85749,Pima County,AZ,71.95301027900148
85756,Pima County,AZ,58.49241311796378
85939,Navajo County,AZ,98.89867841409692
86001,Coconino County,AZ,61.796377875673024
86004,Coconino County,AZ,2.643171806167401
86040,Coconino County,AZ,55.43318649045521
86045,Coconino County,AZ,14.977973568281937
86314,Yavapai County,AZ,9.079784630445422
86322,Yavapai County,AZ,39.94126284875183
86505,Apache County,AZ,54.91923641703378
71603,Jefferson County,AR,22.369065100342635
71854,Miller County,AR,25.74645129711209
71909,Garland County,AR,94.19970631424376
72076,Pulaski County,AR,38.20362212432697
72116,Pulaski County,AR,63.97454723445913
72143,White County,AR,25.061184532550172
72150,Grant County,AR,92.29074889867842
72210,Pulaski County,AR,86.34361233480176
72211,Pulaski County,AR,76.67645619187469
72301,Crittenden County,AR,75.1101321585903
72762,Washington County,AR,35.48702887909936
72834,Yell County,AR,83.50465002447382
90001,Los Angeles County,CA,69.4322075379344
90002,Los Angeles County,CA,49.80420949583945
90004,Los Angeles County,CA,32.25648556045032
90005,Los Angeles County,CA,95.12971120900636
90007,Los Angeles County,CA,51.443954968184045
90011,Los Angeles County,CA,14.684287812041116
90016,Los Angeles County,CA,30.934899657366614
90018,Los Angeles County,CA,25.599608418991675
90019,Los Angeles County,CA,63.77875673029858
90025,Los Angeles County,CA,77.9980420949584
90026,Los Angeles County,CA,34.630445423396964
90028,Los Angeles County,CA,54.992657856093984
90032,Los Angeles County,CA,71.29221732745961
90033,Los Angeles County,CA,31.179637787567305
90045,Los Angeles County,CA,91.21390112579539
90059,Los Angeles County,CA,22.711698482623593
90063,Los Angeles County,CA,93.73470386686246
90064,Los Angeles County,CA,16.740088105726873
90221,Los Angeles County,CA,24.74302496328928
90241,Los Angeles County,CA,42.584434654919235
90245,Los Angeles County,CA,81.08174253548704
90248,Los Angeles County,CA,89.25599608418992
90250,Los Angeles County,CA,46.74498286833089
90255,Los Angeles County,CA,52.496328928046985
90260,Los Angeles County,CA,68.47772883015175
90262,Los Angeles County,CA,75.9667156142927
90278,Los Angeles County,CA,50.51395007342144
90280,Los Angeles County,CA,54.992657856093984
90301,Los Angeles County,CA,22.883015173764072
90604,Los Angeles County,CA,46.01076847772883
90620,Orange County,CA,37.616250611845324
90630,Orange County,CA,35.97650513950074
90640,Los Angeles County,CA,22.7851199216838
90660,Los Angeles County,CA,70.58247674987763
90703,Los Angeles County,CA,50.63631913852178
90717,Los Angeles County,CA,80.05384238864414
90723,Los Angeles County,CA,74.30249632892804
90732,Los Angeles County,CA,96.25550660792952
90744,Los Angeles County,CA,79.05041605482134
90803,Los Angeles County,CA,89.94126284875183
90804,Los Angeles County,CA,32.32990699951052
90805,Los Angeles County,CA,36.83308859520314
90807,Los Angeles County,CA,40.01468428781204
90808,Los Angeles County,CA,46.891825746451296
90813,Los Angeles County,CA,21.023005384238864
91001,Los Angeles County,CA,46.793930494371025
91205,Los Angeles County,CA,92.9270680372002
91214,Los Angeles County,CA,75.79539892315222
91301,Los Angeles County,CA,67.13166911404797
91306,Los Angeles County,CA,28.169358786098876
91307,Los Angeles County,CA,85.97650513950073
91324,Los Angeles County,CA,69.7503671071953
91331,Los Angeles County,CA,27.973568281938327
91340,Los Angeles County,CA,53.89133627019089
91342,Los Angeles County,CA,41.262848751835534
91343,Los Angeles County,CA,74.22907488986785
91364,Los Angeles County,CA,77.80225159079784
91387,Los Angeles County,CA,32.770435633871756
91402,Los Angeles County,CA,49.58394517865884
91607,Los Angeles County,CA,76.23592755751346
91702,Los Angeles County,CA,55.041605482134116
91708,San Bernardino County,CA,98.36025452765541
91709,San Bernardino County,CA,21.80616740088106
91731,Los Angeles County,CA,60.23005384238864
91737,San Bernardino County,CA,72.29564366128243
91740,Los Angeles County,CA,53.91581008321097
91744,Los Angeles County,CA,37.98335780714635
91748,Los Angeles County,CA,60.32794909446891
91761,San Bernardino County,CA,14.43954968184043
91763,San Bernardino County,CA,95.9618208516887
91764,San Bernardino County,CA,24.59618208516887
91766,Los Angeles County,CA,28.169358786098876
91770,Los Angeles County,CA,38.66862457170827
91910,San Diego County,CA,15.12481644640235
92008,San Diego County,CA,39.084679393049434
92009,San Diego County,CA,56.63240332843857
92010,San Diego County,CA,86.34361233480176
92019,San Diego County,CA,34.2143906020558
92028,San Diego County,CA,53.15712187958884
92029,San Diego County,CA,78.95252080274106
92058,San Diego County,CA,84.89965736661772
92071,San Diego County,CA,67.1071953010279
92078,San Diego County,CA,42.26627508565834
92084,San Diego County,CA,47.381302006852664
92104,San Diego County,CA,69.72589329417524
92113,San Diego County,CA,14.488497307880568
92119,San Diego County,CA,83.38228095937346
92126,San Diego County,CA,32.69701419481155
92129,San Diego County,CA,47.185511502692115
92130,San Diego County,CA,54.30739109153207
92154,San Diego County,CA,25.159079784630446
92173,San Diego County,CA,53.64659813999021
92220,Riverside County,CA,47.748409202153695
92234,Riverside County,CA,7.6113558492413125
92236,Riverside County,CA,31.864904552129218
92253,Riverside County,CA,32.94175232501224
92284,San Bernardino County,CA,68.23299069995106
92308,San Bernardino County,CA,37.3225648556045
92314,San Bernardino County,CA,83.96965247185511
92324,San Bernardino County,CA,81.27753303964758
92335,San Bernardino County,CA,23.715124816446405
92336,San Bernardino County,CA,24.204601076847773
92337,San Bernardino County,CA,79.17278511992168
92345,San Bernardino County,CA,4.6255506607929515
92346,San Bernardino County,CA,16.27508565834557
92374,San Bernardino County,CA,88.86441507586882
92376,San Bernardino County,CA,3.915810083210964
92377,San Bernardino County,CA,73.66617719040627
92392,San Bernardino County,CA,10.30347528144885
92394,San Bernardino County,CA,71.1453744493392
92399,San Bernardino County,CA,53.32843857072932
92405,San Bernardino County,CA,32.99069995105237
92407,San Bernardino County,CA,71.56142927068038
92411,San Bernardino County,CA,89.62310327949095
92501,Riverside County,CA,72.3935389133627
92509,Riverside County,CA,13.705335291238374
92551,Riverside County,CA,84.72834067547724
92553,Riverside County,CA,16.27508565834557
92562,Riverside County,CA,48.409202153695546
92563,Riverside County,CA,21.390112579539892
92570,Riverside County,CA,29.515418502202646
92571,Riverside County,CA,27.973568281938327
92583,Riverside County,CA,52.59422418012727
92584,Riverside County,CA,32.20753793441018
92587,Riverside County,CA,61.7474302496329
92596,Riverside County,CA,66.05482134116495
92602,Orange County,CA,69.7503671071953
92618,Orange County,CA,52.765540871267746
92626,Orange County,CA,30.127263827704354
92630,Orange County,CA,21.9285364659814
92646,Orange County,CA,15.589818893783653
92647,Orange County,CA,12.897699461576115
92655,Orange County,CA,96.08418991678903
92656,Orange County,CA,57.58688203622124
92673,Orange County,CA,57.95398923152227
92675,Orange County,CA,56.33871757219775
92677,Orange County,CA,21.512481644640236
92679,Orange County,CA,50.51395007342144
92692,Orange County,CA,63.04454233969653
92694,Orange County,CA,46.05971610376896
92703,Orange County,CA,26.92119432207538
92708,Orange County,CA,24.229074889867842
92782,Orange County,CA,73.7151248164464
92801,Orange County,CA,21.953010279001468
92802,Orange County,CA,43.56338717572198
92805,Orange County,CA,67.93930494371023
92806,Orange County,CA,45.766030347528144
92807,Orange County,CA,46.500244738130206
92841,Orange County,CA,67.37640724424865
92866,Orange County,CA,76.89672050905531
92868,Orange County,CA,82.77043563387176
92870,Orange County,CA,24.64512971120901
92880,Riverside County,CA,12.873225648556044
92886,Orange County,CA,19.26089084679393
93003,Ventura County,CA,8.541360744003915
93004,Ventura County,CA,45.08076358296623
93010,Ventura County,CA,22.001957905041607
93021,Ventura County,CA,48.604992657856094
93030,Ventura County,CA,9.47136563876652
93033,Ventura County,CA,84.2143906020558
93035,Ventura County,CA,59.25110132158591
93036,Ventura County,CA,53.25501713166911
93060,Ventura County,CA,60.15663240332844
93101,Santa Barbara County,CA,66.81350954478708
93110,Santa Barbara County,CA,88.22809593734704
93241,Kern County,CA,97.40577581987273
93247,Tulare County,CA,95.22760646108664
93257,Tulare County,CA,6.656877141458639
93268,Kern County,CA,91.04258443465491
93274,Tulare County,CA,2.447381302006853
93277,Tulare County,CA,47.62604013705335
93291,Tulare County,CA,42.46206558981889
93304,Kern County,CA,14.292706803720021
93306,Kern County,CA,81.71806167400881
93307,Kern County,CA,7.048458149779736
93311,Kern County,CA,51.68869309838473
93314,Kern County,CA,75.1101321585903
93434,Santa Barbara County,CA,93.8570729319628
93501,Kern County,CA,98.31130690161527
93535,Los Angeles County,CA,22.61380323054332
93536,Los Angeles County,CA,81.37542829172784
93550,Los Angeles County,CA,6.7547723935389135
93631,Fresno County,CA,66.00587371512482
93637,Madera County,CA,20.28879099363681
93648,Fresno County,CA,94.61576113558492
93702,Fresno County,CA,51.34605971610377
93710,Fresno County,CA,51.95790504160548
93722,Fresno County,CA,22.344591287322565
93905,Monterey County,CA,60.792951541850215
93906,Monterey County,CA,79.4664708761625
93907,Monterey County,CA,71.75721977484092
93927,Monterey County,CA,67.62114537444934
93940,Monterey County,CA,74.22907488986785
93955,Monterey County,CA,26.994615761135588
93960,Monterey County,CA,94.34654919236417
94014,San Mateo County,CA,33.03964757709251
94024,Santa Clara County,CA,80.61674008810573
94025,San Mateo County,CA,37.3225648556045
94062,San Mateo County,CA,45.39892315222712
94063,San Mateo County,CA,30.298580518844837
94066,San Mateo County,CA,31.693587860988742
94086,Santa Clara County,CA,49.926578560939795
94103,San Francisco County,CA,6.069505628976994
94107,San Francisco County,CA,32.011747430249635
94108,San Francisco County,CA,94.93392070484582
94109,San Francisco County,CA,51.00342633382281
94112,San Francisco County,CA,14.341654429760156
94116,San Francisco County,CA,45.766030347528144
94117,San Francisco County,CA,23.88644150758688
94121,San Francisco County,CA,63.436123348017624
94131,San Francisco County,CA,53.69554576603035
94134,San Francisco County,CA,26.70093000489476
94303,San Mateo County,CA,70.06852667645619
94401,San Mateo County,CA,70.5335291238375
94510,Solano County,CA,77.67988252569751
94526,Contra Costa County,CA,56.70582476749878
94530,Contra Costa County,CA,91.45863925599609
94531,Contra Costa County,CA,57.415565345080765
94533,Solano County,CA,92.58443465491924
94536,Alameda County,CA,20.166421928536465
94541,Alameda County,CA,65.90797846304454
94544,Alameda County,CA,9.936368086147821
94547,Contra Costa County,CA,84.82623592755752
94551,Alameda County,CA,36.8575624082232
94553,Contra Costa County,CA,29.490944689182573
94558,Napa County,CA,19.579050416054823
94559,Napa County,CA,52.42290748898678
94563,Contra Costa County,CA,82.81938325991189
94565,Contra Costa County,CA,12.726382770435634
94568,Alameda County,CA,41.874694077337246
94577,Alameda County,CA,60.08321096426823
94579,Alameda County,CA,81.47332354380814
94583,Contra Costa County,CA,40.72442486539403
94590,Solano County,CA,17.351933431228588
94591,Solano County,CA,83.74938815467449
94596,Contra Costa County,CA,93.36759667156143
94601,Alameda County,CA,82.40332843857074
94602,Alameda County,CA,74.0332843857073
94603,Alameda County,CA,35.36465981399902
94606,Alameda County,CA,44.052863436123346
94608,Alameda County,CA,42.38864415075869
94610,Alameda County,CA,54.79686735193343
94611,Alameda County,CA,51.95790504160548
94621,Alameda County,CA,55.188448360254526
94702,Alameda County,CA,53.05922662750857
94709,Alameda County,CA,97.65051395007343
94801,Contra Costa County,CA,86.17229564366127
94804,Contra Costa County,CA,81.88937836514928
94901,Marin County,CA,43.954968184043075
94928,Sonoma County,CA,51.19921683798335
94941,Marin County,CA,65.49192364170338
94945,Marin County,CA,96.81840430739109
94965,Marin County,CA,91.94811551639745
95003,Santa Cruz County,CA,80.95937347038668
95020,Santa Clara County,CA,56.191874694077335
95023,San Benito County,CA,17.009300048947626
95032,Santa Clara County,CA,70.23984336759666
95035,Santa Clara County,CA,37.518355359765046
95051,Santa Clara County,CA,67.76798825256975
95062,Santa Cruz County,CA,65.44297601566325
95076,Santa Cruz County,CA,10.841899167890357
95111,Santa Clara County,CA,26.309348996573668
95112,Santa Clara County,CA,25.942241801272637
95116,Santa Clara County,CA,66.05482134116495
95120,Santa Clara County,CA,84.14096916299559
95122,Santa Clara County,CA,69.13852178169358
95123,Santa Clara County,CA,25.770925110132158
95124,Santa Clara County,CA,47.65051395007342
95125,Santa Clara County,CA,35.68281938325991
95127,Santa Clara County,CA,28.56093979441997
95148,Santa Clara County,CA,57.0729319627998
95202,San Joaquin County,CA,18.13509544787078
95207,San Joaquin County,CA,12.60401370533529
95209,San Joaquin County,CA,34.77728830151738
95212,San Joaquin County,CA,74.13117963778757
95215,San Joaquin County,CA,76.16250611845325
95307,Stanislaus County,CA,55.48213411649535
95315,Merced County,CA,87.3225648556045
95326,Stanislaus County,CA,90.87126774351444
95334,Merced County,CA,81.32648066568771
95336,San Joaquin County,CA,18.64904552129222
95341,Merced County,CA,78.16935878609887
95348,Merced County,CA,56.70582476749878
95350,Stanislaus County,CA,38.2525697503671
95351,Stanislaus County,CA,42.75575134605972
95354,Stanislaus County,CA,56.75477239353891
95355,Stanislaus County,CA,3.7934410181106215
95357,Stanislaus County,CA,80.95937347038668
95358,Stanislaus County,CA,19.040626529613313
95361,Stanislaus County,CA,29.24620655898189
95363,Stanislaus County,CA,51.541850220264315
95376,San Joaquin County,CA,17.22956436612824
95377,San Joaquin County,CA,59.324522760646104
95380,Stanislaus County,CA,16.78903573176701
95382,Stanislaus County,CA,14.708761625061184
95386,Stanislaus County,CA,78.31620166421929
95391,San Joaquin County,CA,76.7498776309349
95401,Sonoma County,CA,78.09593734703867
95404,Sonoma County,CA,62.45717082721488
95422,Lake County,CA,49.77973568281938
95472,Sonoma County,CA,77.6064610866373
95608,Sacramento County,CA,63.240332843857075
95616,Yolo County,CA,90.18600097895252
95618,Yolo County,CA,93.12285854136074
95620,Solano County,CA,78.60988742046011
95621,Sacramento County,CA,30.37200195790504
95624,Sacramento County,CA,35.193343122858536
95648,Placer County,CA,50.24473813020068
95661,Placer County,CA,56.82819383259912
95667,El Dorado County,CA,20.484581497797357
95673,Sacramento County,CA,80.7880567792462
95687,Solano County,CA,61.47821830641214
95692,Yuba County,CA,99.68184043073911
95695,Yolo County,CA,57.83162016642193
95747,Placer County,CA,28.487518355359764
95757,Sacramento County,CA,68.64904552129222
95758,Sacramento County,CA,41.85022026431718
95820,Sacramento County,CA,39.794419970631424
95821,Sacramento County,CA,30.396475770925107
95822,Sacramento County,CA,27.09251101321586
95823,Sacramento County,CA,74.27802251590798
95824,Sacramento County,CA,77.41067058247675
95828,Sacramento County,CA,28.071463534018598
95831,Sacramento County,CA,88.83994126284875
95834,Sacramento County,CA,62.23690651003426
95835,Sacramento County,CA,58.786098874204605
95841,Sacramento County,CA,79.53989231522272
95953,Sutter County,CA,92.73127753303964
95961,Yuba County,CA,32.67254038179148
95963,Glenn County,CA,64.97797356828194
95987,Colusa County,CA,95.5702398433676
95988,Glenn County,CA,78.21830641213901
95991,Sutter County,CA,71.071953010279
95993,Sutter County,CA,34.75281448849731
96001,Shasta County,CA,12.163485070974058
96002,Shasta County,CA,45.74155653450808
96007,Shasta County,CA,58.07635829662261
96013,Shasta County,CA,98.43367596671561
96080,Tehama County,CA,30.714635340186003
96150,El Dorado County,CA,61.86979931473323
80003,Jefferson County,CO,33.30885952031327
80004,Jefferson County,CO,77.09251101321586
80007,Jefferson County,CO,87.12677435144396
80010,Arapahoe County,CO,72.61380323054331
80011,Arapahoe County,CO,53.573176700930006
80012,Arapahoe County,CO,61.576113558492416
80013,Arapahoe County,CO,24.1067058247675
80014,Arapahoe County,CO,54.74791972589329
80015,Arapahoe County,CO,9.691629955947137
80016,Arapahoe County,CO,13.43612334801762
80018,Arapahoe County,CO,69.23641703377386
80020,Broomfield County,CO,82.18306412139012
80021,Jefferson County,CO,79.90699951052373
80022,Adams County,CO,57.21977484092021
80023,Broomfield County,CO,78.5364659813999
80104,Douglas County,CO,45.766030347528144
80108,Douglas County,CO,37.126774351443956
80113,Arapahoe County,CO,48.77630934899657
80120,Arapahoe County,CO,52.83896231032795
80121,Arapahoe County,CO,91.6789035731767
80123,Jefferson County,CO,35.73176700930005
80124,Douglas County,CO,55.55555555555556
80126,Douglas County,CO,40.38179148311307
80127,Jefferson County,CO,35.02202643171806
80128,Jefferson County,CO,48.48262359275575
80138,Douglas County,CO,41.45863925599608
80204,Denver County,CO,12.652961331375428
80205,Denver County,CO,6.485560450318159
80211,Denver County,CO,86.07440039158101
80215,Jefferson County,CO,83.89623103279492
80219,Denver County,CO,14.096916299559473
80220,Denver County,CO,22.27116984826236
80223,Denver County,CO,52.83896231032795
80224,Denver County,CO,53.01027900146843
80227,Jefferson County,CO,47.185511502692115
80228,Jefferson County,CO,43.75917767988253
80233,Adams County,CO,68.74694077337249
80236,Denver County,CO,76.67645619187469
80237,Denver County,CO,88.81546744982867
80238,Denver County,CO,90.357317670093
80247,Arapahoe County,CO,27.312775330396477
80260,Adams County,CO,83.45570239843367
80501,Boulder County,CO,41.60548213411649
80503,Boulder County,CO,56.75477239353891
80504,Boulder County,CO,20.533529123837493
80513,Larimer County,CO,69.53010279001468
80516,Weld County,CO,83.99412628487518
80524,Larimer County,CO,19.065100342633382
80525,Larimer County,CO,33.627019089574155
80528,Larimer County,CO,75.15907978463045
80534,Weld County,CO,60.548213411649535
80538,Larimer County,CO,64.0724424865394
80549,Larimer County,CO,94.34654919236417
80602,Adams County,CO,69.50562897699461
80621,Weld County,CO,67.69456681350955
80631,Weld County,CO,3.6955457660303477
80634,Weld County,CO,8.81057268722467
80640,Adams County,CO,69.40773372491435
80701,Morgan County,CO,43.71023005384239
80751,Logan County,CO,30.20068526676456
80817,El Paso County,CO,41.65442976015663
80831,El Paso County,CO,85.70729319627998
80907,El Paso County,CO,41.50758688203622
80909,El Paso County,CO,14.4640234948605
80910,El Paso County,CO,14.635340186000978
80915,El Paso County,CO,83.60254527655408
80916,El Paso County,CO,24.473813020068526
80918,El Paso County,CO,33.87175721977484
80922,El Paso County,CO,45.12971120900636
80923,El Paso County,CO,51.19921683798335
81001,Pueblo County,CO,42.82917278511992
81003,Pueblo County,CO,76.38277043563387
81004,Pueblo County,CO,67.20509055310816
81005,Pueblo County,CO,25.012236906510033
81007,Pueblo County,CO,68.47772883015175
81050,Otero County,CO,65.24718551150269
81052,Prowers County,CO,93.53891336270192
81122,La Plata County,CO,88.93783651492903
81132,Rio Grande County,CO,99.43710230053843
81301,La Plata County,CO,44.199706314243755
81416,Delta County,CO,65.49192364170338
81505,Mesa County,CO,85.6093979441997
81520,Mesa County,CO,87.73861967694567
81611,Pitkin County,CO,97.43024963289281
81620,Eagle County,CO,99.11894273127754
81650,Garfield County,CO,72.49143416544298
06010,Hartford County,CT,6.950562897699461
06040,Hartford County,CT,24.498286833088596
06042,Hartford County,CT,26.431718061674008
06053,Hartford County,CT,5.237395986294665
06067,Hartford County,CT,59.593734703866865
06078,Hartford County,CT,86.63729809104258
06082,Hartford County,CT,10.523739598629467
06106,Hartford County,CT,1.8600097895252081
06108,Hartford County,CT,52.66764561918747
06109,Hartford County,CT,53.32843857072932
06112,Hartford County,CT,36.12334801762114
06114,Hartford County,CT,9.275575134605972
06118,Hartford County,CT,15.10034263338228
06268,Tolland County,CT,92.75575134605971
06401,New Haven County,CT,19.334312285854136
06405,New Haven County,CT,64.48849730788056
06410,New Haven County,CT,92.65785609397945
06447,Hartford County,CT,94.98286833088595
06457,Middlesex County,CT,3.3284385707293196
06468,Fairfield County,CT,75.4282917278512
06475,Middlesex County,CT,77.16593245227607
06483,New Haven County,CT,54.91923641703378
06488,New Haven County,CT,77.9246206558982
06489,Hartford County,CT,19.23641703377386
06511,New Haven County,CT,1.7376407244248653
06513,New Haven County,CT,12.334801762114537
06516,New Haven County,CT,3.108174253548703
06604,Fairfield County,CT,11.13558492413118
06605,Fairfield County,CT,22.148800783162017
06606,Fairfield County,CT,37.44493392070485
06614,Fairfield County,CT,47.28340675477239
06705,New Haven County,CT,13.509544787077827
06716,New Haven County,CT,54.845814977973575
06786,Litchfield County,CT,77.38619676945669
06790,Litchfield County,CT,2.3005384238864415
06810,Fairfield County,CT,8.590308370044053
06811,Fairfield County,CT,33.55359765051395
06825,Fairfield County,CT,78.83015173764072
06830,Fairfield County,CT,53.15712187958884
06851,Fairfield County,CT,47.748409202153695
06854,Fairfield County,CT,32.91727851199217
06902,Fairfield County,CT,42.535487028879096
19702,New Castle County,DE,8.370044052863436
19703,New Castle County,DE,49.09446891825747
19709,New Castle County,DE,12.016642192853647
19720,New Castle County,DE,0.8321096426823299
19805,New Castle County,DE,0.8565834557023984
19807,New Castle County,DE,97.43024963289281
19810,New Castle County,DE,76.57856093979441
19933,Sussex County,DE,60.817425354870295
19956,Sussex County,DE,35.58492413117964
19958,Sussex County,DE,22.026431718061673
19975,Sussex County,DE,96.3534018600098
19977,Kent County,DE,45.30102790014684
32011,Nassau County,FL,49.16789035731767
32025,Columbia County,FL,26.186979931473324
32034,Nassau County,FL,73.00538423886441
32043,Clay County,FL,32.28095937347039
32046,Nassau County,FL,73.44591287322565
32068,Clay County,FL,63.92559960841899
32097,Nassau County,FL,77.55751346059716
32114,Volusia County,FL,13.582966226138032
32119,Volusia County,FL,89.40283896231033
32127,Volusia County,FL,49.926578560939795
32141,Volusia County,FL,62.79980420949583
32148,Putnam County,FL,71.75721977484092
32159,Lake County,FL,84.41018110621636
32179,Marion County,FL,67.32745961820852
32204,Duval County,FL,55.2863436123348
32205,Duval County,FL,16.201664219285362
32207,Duval County,FL,10.058737151248165
32208,Duval County,FL,4.258443465491924
32209,Duval County,FL,27.77777777777778
32210,Duval County,FL,11.845325501713166
32218,Duval County,FL,11.257953989231522
32224,Duval County,FL,47.99314733235438
32225,Duval County,FL,17.79246206558982
32226,Duval County,FL,31.767009300048947
32246,Duval County,FL,34.11649534997553
32259,St. Johns County,FL,67.00930004894762
32277,Duval County,FL,13.387175721977485
32303,Leon County,FL,31.693587860988742
32304,Leon County,FL,77.06803720019579
32310,Leon County,FL,57.75819872736172
32333,Gadsden County,FL,78.63436123348018
32404,Bay County,FL,46.81840430739109
32405,Bay County,FL,49.510523739598625
32408,Bay County,FL,88.96231032794908
32466,Bay County,FL,84.65491923641704
32503,Escambia County,FL,42.070484581497794
32514,Escambia County,FL,14.194811551639747
32526,Escambia County,FL,31.54674498286833
32533,Escambia County,FL,52.1781693587861
32539,Okaloosa County,FL,27.92462065589819
32547,Okaloosa County,FL,29.637787567302986
32571,Santa Rosa County,FL,7.293196279980421
32577,Escambia County,FL,95.30102790014683
32578,Okaloosa County,FL,42.38864415075869
32601,Alachua County,FL,50.51395007342144
32608,Alachua County,FL,19.162995594713657
32643,Alachua County,FL,40.38179148311307
32712,Orange County,FL,82.03622124326971
32713,Volusia County,FL,79.73568281938326
32724,Volusia County,FL,43.53891336270191
32751,Orange County,FL,63.80323054331865
32771,Seminole County,FL,35.31571218795889
32780,Brevard County,FL,63.436123348017624
32789,Orange County,FL,64.48849730788056
32792,Orange County,FL,49.46157611355849
32803,Orange County,FL,93.75917767988253
32805,Orange County,FL,21.41458639255996
32807,Orange County,FL,82.99069995105238
32808,Orange County,FL,34.06754772393539
32810,Orange County,FL,27.2148800783162
32811,Orange County,FL,13.338228095937346
32812,Orange County,FL,24.351443954968182
32817,Orange County,FL,57.415565345080765
32822,Orange County,FL,10.890846793930494
32832,Orange County,FL,81.32648066568771
32835,Orange County,FL,47.89525208027411
32837,Orange County,FL,11.918746940773373
32839,Orange County,FL,79.68673519334313
32901,Brevard County,FL,45.37444933920705
32904,Brevard County,FL,36.12334801762114
32909,Brevard County,FL,27.312775330396477
32922,Brevard County,FL,37.10230053842389
32931,Brevard County,FL,87.59177679882526
32935,Brevard County,FL,10.841899167890357
32955,Brevard County,FL,38.1791483113069
32966,Indian River County,FL,68.84483602545276
32968,Indian River County,FL,75.99118942731278
33013,Miami-Dade County,FL,63.16691140479686
33015,Miami-Dade County,FL,40.308370044052865
33016,Miami-Dade County,FL,43.906020558002936
33020,Broward County,FL,18.94273127753304
33023,Broward County,FL,10.988742046010769
33024,Broward County,FL,18.477728830151737
33030,Miami-Dade County,FL,32.06069505628977
33032,Miami-Dade County,FL,29.148311306901615
33033,Miami-Dade County,FL,65.14929025942241
33034,Miami-Dade County,FL,46.69603524229075
33040,Monroe County,FL,31.840430739109156
33056,Miami-Dade County,FL,63.338228095937346
33068,Broward County,FL,32.378854625550666
33071,Broward County,FL,74.96328928046991
33125,Miami-Dade County,FL,82.25648556045032
33126,Miami-Dade County,FL,59.691629955947135
33132,Miami-Dade County,FL,98.31130690161527
33139,Miami-Dade County,FL,48.92315222711699
33140,Miami-Dade County,FL,73.22564855604503
33142,Miami-Dade County,FL,59.642682329907004
33144,Miami-Dade County,FL,93.14733235438081
33145,Miami-Dade County,FL,80.714635340186
33147,Miami-Dade County,FL,21.12090063631914
33150,Miami-Dade County,FL,40.357317670093
33156,Miami-Dade County,FL,74.96328928046991
33157,Miami-Dade County,FL,22.980910425844346
33160,Miami-Dade County,FL,57.415565345080765
33161,Miami-Dade County,FL,22.980910425844346
33162,Miami-Dade County,FL,48.042094958394514
33166,Miami-Dade County,FL,68.91825746451296
33177,Miami-Dade County,FL,66.76456191874695
33178,Miami-Dade County,FL,87.90993636808615
33180,Miami-Dade County,FL,91.80127263827704
33183,Miami-Dade County,FL,73.10327949094469
33186,Miami-Dade County,FL,39.57415565345081
33194,Miami-Dade County,FL,98.75183553597651
33314,Broward County,FL,59.1042584434655
33317,Broward County,FL,70.80274106705825
33322,Broward County,FL,61.7474302496329
33328,Broward County,FL,78.95252080274106
33404,Palm Beach County,FL,25.33039647577093
33407,Palm Beach County,FL,18.355359765051396
33411,Palm Beach County,FL,61.55163974547234
33413,Palm Beach County,FL,79.58883994126285
33415,Palm Beach County,FL,30.20068526676456
33418,Palm Beach County,FL,43.07391091532061
33430,Palm Beach County,FL,40.50416054821341
33432,Palm Beach County,FL,78.5364659813999
33458,Palm Beach County,FL,46.84287812041116
33460,Palm Beach County,FL,33.87175721977484
33463,Palm Beach County,FL,37.3225648556045
33470,Palm Beach County,FL,55.84924131179638
33498,Palm Beach County,FL,91.31179637787568
33523,Pasco County,FL,59.37347038668624
33527,Hillsborough County,FL,79.83357807146353
33534,Hillsborough County,FL,64.04796867351934
33541,Pasco County,FL,71.34116495349976
33563,Hillsborough County,FL,84.31228585413606
33566,Hillsborough County,FL,47.8218306412139
33567,Hillsborough County,FL,67.05824767498775
33570,Hillsborough County,FL,53.989231522271176
33578,Hillsborough County,FL,58.34557023984337
33592,Hillsborough County,FL,70.65589818893784
33594,Hillsborough County,FL,50.3915810083211
33598,Hillsborough County,FL,90.30837004405286
33602,Hillsborough County,FL,81.05726872246696
33603,Hillsborough County,FL,49.877630934899656
33604,Hillsborough County,FL,14.243759177679882
33605,Hillsborough County,FL,44.762604013705335
33609,Hillsborough County,FL,66.69114047968674
33610,Hillsborough County,FL,31.815956926089083
33612,Hillsborough County,FL,25.991189427312776
33613,Hillsborough County,FL,29.09936368086148
33615,Hillsborough County,FL,51.3215859030837
33617,Hillsborough County,FL,57.34214390602056
33619,Hillsborough County,FL,58.614782183064115
33629,Hillsborough County,FL,95.81497797356829
33701,Pinellas County,FL,35.46255506607929
33702,Pinellas County,FL,74.32697014194811
33704,Pinellas County,FL,80.714635340186
33705,Pinellas County,FL,17.572197748409202
33712,Pinellas County,FL,23.445912873225648
33716,Pinellas County,FL,89.59862946647088
33756,Pinellas County,FL,34.01860009789525
33763,Pinellas County,FL,80.34752814488498
33770,Pinellas County,FL,47.087616250611845
33778,Pinellas County,FL,82.08516886930984
33809,Polk County,FL,84.58149779735683
33810,Polk County,FL,49.31473323543808
33823,Polk County,FL,23.42143906020558
33830,Polk County,FL,24.008810572687224
33837,Polk County,FL,37.88546255506608
33838,Polk County,FL,97.91972589329417
33841,Polk County,FL,91.77679882525698
33843,Polk County,FL,97.08761625061184
33850,Polk County,FL,84.41018110621636
33860,Polk County,FL,50.024473813020066
33870,Highlands County,FL,17.865883504650025
33875,Highlands County,FL,87.68967205090553
33880,Polk County,FL,14.023494860499266
33884,Polk County,FL,79.17278511992168
33901,Lee County,FL,42.143906020558006
33905,Lee County,FL,24.59618208516887
33908,Lee County,FL,49.38815467449829
33913,Lee County,FL,76.97014194811551
33916,Lee County,FL,26.382770435633873
33919,Lee County,FL,47.89525208027411
33954,Charlotte County,FL,90.30837004405286
33967,Lee County,FL,47.748409202153695
33971,Lee County,FL,46.25550660792951
33973,Lee County,FL,83.33333333333334
33990,Lee County,FL,24.840920215369554
34109,Collier County,FL,89.86784140969164
34120,Collier County,FL,23.88644150758688
34207,Manatee County,FL,43.07391091532061
34234,Sarasota County,FL,28.095937347038667
34243,Manatee County,FL,48.97209985315712
34288,Sarasota County,FL,98.04209495839451
34293,Sarasota County,FL,36.04992657856094
34432,Marion County,FL,88.03230543318648
34470,Marion County,FL,38.66862457170827
34472,Marion County,FL,25.379344101811064
34479,Marion County,FL,83.2843857072932
34482,Marion County,FL,54.96818404307391
34608,Hernando County,FL,61.94322075379344
34614,Hernando County,FL,93.34312285854136
34639,Pasco County,FL,75.4282917278512
34652,Pasco County,FL,28.511992168379834
34683,Pinellas County,FL,54.576603034752814
34715,Lake County,FL,43.954968184043075
34731,Lake County,FL,80.27410670582476
34744,Osceola County,FL,49.46157611355849
34761,Orange County,FL,27.45961820851689
34785,Sumter County,FL,60.67058247674988
34947,St. Lucie County,FL,75.5017131669114
34952,St. Lucie County,FL,14.977973568281937
34953,St. Lucie County,FL,15.61429270680372
34957,Martin County,FL,37.934410181106216
34997,Martin County,FL,18.404307391091532
30008,Cobb County,GA,53.64659813999021
30011,Barrow County,GA,62.84875183553598
30014,Newton County,GA,16.177190406265296
30016,Newton County,GA,64.88007831620166
30017,Gwinnett County,GA,55.84924131179638
30024,Gwinnett County,GA,12.2858541360744
30025,Walton County,GA,69.84826235927557
30032,DeKalb County,GA,6.240822320117474
30033,DeKalb County,GA,77.04356338717572
30034,DeKalb County,GA,18.673519334312285
30040,Forsyth County,GA,15.7856093979442
30044,Gwinnett County,GA,11.28242780225159
30052,Walton County,GA,9.985315712187958
30054,Newton County,GA,62.383749388154676
30060,Cobb County,GA,26.823299069995105
30066,Cobb County,GA,35.193343122858536
30078,Gwinnett County,GA,50.073421439060205
30080,Cobb County,GA,41.14047968673519
30083,DeKalb County,GA,16.348507097405776
30084,DeKalb County,GA,52.912383749388155
30088,DeKalb County,GA,27.630934899657365
30096,Gwinnett County,GA,49.31473323543808
30102,Cherokee County,GA,35.02202643171806
30110,Haralson County,GA,82.77043563387176
30114,Cherokee County,GA,23.641703377386197
30120,Bartow County,GA,11.722956436612824
30121,Bartow County,GA,43.41654429760157
30122,Douglas County,GA,44.98286833088595
30127,Cobb County,GA,10.13215859030837
30132,Paulding County,GA,21.56142927068037
30134,Douglas County,GA,47.43024963289281
30135,Douglas County,GA,31.595692608908465
30153,Polk County,GA,64.65981399902104
30165,Floyd County,GA,15.320606950562897
30168,Cobb County,GA,49.216837983357806
30179,Carroll County,GA,47.087616250611845
30180,Carroll County,GA,13.680861478218306
30185,Carroll County,GA,95.61918746940773
30187,Douglas County,GA,70.7537934410181
30188,Cherokee County,GA,12.995594713656388
30189,Cherokee County,GA,41.65442976015663
30213,Fulton County,GA,42.51101321585903
30228,Henry County,GA,19.48115516397455
30233,Butts County,GA,48.042094958394514
30236,Clayton County,GA,54.674498286833085
30252,Henry County,GA,62.33480176211453
30260,Clayton County,GA,63.240332843857075
30268,Fulton County,GA,73.95986294664709
30274,Clayton County,GA,63.1424375917768
30276,Coweta County,GA,62.94664708761625
30277,Coweta County,GA,66.1771904062653
30281,Henry County,GA,79.22173274596183
30296,Clayton County,GA,90.62652961331375
30297,Clayton County,GA,46.426823299069994
30314,Fulton County,GA,31.620166421928538
30316,DeKalb County,GA,42.38864415075869
30318,Fulton County,GA,51.12579539892316
30329,DeKalb County,GA,82.28095937347038
30344,Fulton County,GA,31.669114047968673
30345,DeKalb County,GA,77.65540871267743
30349,Fulton County,GA,20.655898188937837
30360,DeKalb County,GA,91.50758688203622
30401,Emanuel County,GA,63.06901615271659
30427,Tattnall County,GA,80.42094958394517
30439,Candler County,GA,80.10279001468429
30461,Bulloch County,GA,68.15956926089085
30501,Hall County,GA,56.412139011257956
30504,Hall County,GA,92.09495839451787
30518,Gwinnett County,GA,61.08663729809104
30533,Lumpkin County,GA,56.558981889378366
30534,Dawson County,GA,65.29613313754284
30540,Gilmer County,GA,37.787567302985806
30547,Banks County,GA,99.85315712187959
30553,Franklin County,GA,86.44150758688204
30563,Habersham County,GA,94.41997063142438
30566,Hall County,GA,95.76603034752814
30655,Walton County,GA,23.76407244248654
30701,Gordon County,GA,19.676945668135097
30720,Whitfield County,GA,43.34312285854136
30721,Whitfield County,GA,46.377875673029855
30725,Walker County,GA,92.65785609397945
30728,Walker County,GA,25.281448849730786
30736,Catoosa County,GA,5.286343612334802
30813,Columbia County,GA,20.337738619676944
30815,Richmond County,GA,12.090063631913853
30901,Richmond County,GA,85.87860988742047
30906,Richmond County,GA,3.303964757709251
31005,Houston County,GA,96.20655898188937
31014,Bleckley County,GA,77.9246206558982
31021,Laurens County,GA,27.410670582476747
31023,Dodge County,GA,68.0372001957905
31029,Monroe County,GA,64.17033773861968
31030,Peach County,GA,94.49339207048459
31032,Jones County,GA,80.42094958394517
31088,Houston County,GA,34.2143906020558
31204,Bibb County,GA,20.631424375917767
31206,Bibb County,GA,19.187469407733726
31210,Bibb County,GA,93.68575624082231
31216,Bibb County,GA,92.85364659813999
31217,Bibb County,GA,81.25305922662751
31308,Bryan County,GA,94.00391581008321
31321,Bryan County,GA,96.62261380323054
31324,Bryan County,GA,75.86882036221243
31329,Effingham County,GA,90.82232011747429
31404,Chatham County,GA,40.89574155653451
31405,Chatham County,GA,38.00783162016642
31406,Chatham County,GA,40.920215369554576
31407,Chatham County,GA,97.33235438081253
31410,Chatham County,GA,81.13069016152717
31513,Appling County,GA,61.25795398923152
31533,Coffee County,GA,51.95790504160548
31545,Wayne County,GA,64.3906020558003
31601,Lowndes County,GA,48.11551639745472
31602,Lowndes County,GA,25.477239353891335
31620,Cook County,GA,69.45668135095447
31635,Lanier County,GA,93.48996573666177
31645,Berrien County,GA,98.80078316201664
31701,Dougherty County,GA,33.30885952031327
31705,Dougherty County,GA,18.673519334312285
31707,Dougherty County,GA,39.67205090553108
31719,Sumter County,GA,63.36270190895742
31721,Dougherty County,GA,68.55115026921194
31763,Lee County,GA,38.742046010768476
31791,Worth County,GA,41.16495349975526
31792,Thomas County,GA,22.515907978463044
31811,Harris County,GA,99.02104747919725
31903,Muscogee County,GA,21.634850709740576
31909,Muscogee County,GA,27.43514439549682
39828,Grady County,GA,60.817425354870295
39851,Clay County,GA,98.84973078805677
96701,Honolulu County,HI,89.37836514929026
96706,Honolulu County,HI,26.08908467939305
96707,Honolulu County,HI,59.42241801272638
96720,Hawaii County,HI,56.87714145863926
96732,Maui County,HI,95.1052373959863
96738,Hawaii County,HI,94.41997063142438
96740,Hawaii County,HI,51.027900146842875
96746,Kauai County,HI,84.14096916299559
96753,Maui County,HI,72.3935389133627
96754,Kauai County,HI,99.5349975526187
96761,Maui County,HI,85.41360744003916
96766,Kauai County,HI,86.3191385217817
96786,Honolulu County,HI,84.04307391091533
96789,Honolulu County,HI,43.83259911894273
96792,Honolulu County,HI,6.020558002936858
96793,Maui County,HI,94.88497307880567
96797,Honolulu County,HI,20.92511013215859
96813,Honolulu County,HI,22.099853157121878
96816,Honolulu County,HI,55.38423886441508
96817,Honolulu County,HI,5.849241311796378
96818,Honolulu County,HI,86.63729809104258
96822,Honolulu County,HI,27.6798825256975
83201,Bannock County,ID,13.48507097405776
83202,Bannock County,ID,41.727851199216836
83204,Bannock County,ID,41.874694077337246
83274,Bingham County,ID,79.90699951052373
83301,Twin Falls County,ID,1.3215859030837005
83318,Cassia County,ID,51.95790504160548
83333,Blaine County,ID,92.07048458149781
83336,Minidoka County,ID,97.13656387665198
83350,Minidoka County,ID,66.3240332843857
83401,Bonneville County,ID,8.002936857562409
83404,Bonneville County,ID,42.92706803720019
83406,Bonneville County,ID,83.65149290259423
83442,Jefferson County,ID,30.396475770925107
83501,Nez Perce County,ID,7.63582966226138
83607,Canyon County,ID,26.749877630934897
83617,Gem County,ID,62.94664708761625
83634,Ada County,ID,28.144884973078803
83642,Ada County,ID,37.20019579050416
83705,Ada County,ID,52.153695545766034
83706,Ada County,ID,17.91483113069016
83801,Kootenai County,ID,86.44150758688204
83835,Kootenai County,ID,45.59471365638766
83854,Kootenai County,ID,56.11845325501713
83864,Bonner County,ID,86.80861478218307
60004,Cook County,IL,47.52814488497308
60007,Cook County,IL,75.67302985805189
60008,Cook County,IL,59.44689182574645
60014,McHenry County,IL,14.659813999021049
60016,Cook County,IL,88.69309838472834
60018,Cook County,IL,91.01811062163485
60021,McHenry County,IL,96.94077337249144
60025,Cook County,IL,30.983847283406757
60026,Cook County,IL,95.83945178658834
60031,Lake County,IL,36.49045521292217
60033,McHenry County,IL,93.24522760646109
60042,McHenry County,IL,75.79539892315222
60050,McHenry County,IL,61.96769456681351
60051,McHenry County,IL,73.81302006852668
60053,Cook County,IL,70.23984336759666
60056,Cook County,IL,62.31032794909447
60060,Lake County,IL,36.368086147821835
60062,Cook County,IL,27.239353891336272
60068,Cook County,IL,27.92462065589819
60070,Cook County,IL,95.49681840430739
60074,Cook County,IL,65.002447381302
60076,Cook County,IL,89.45178658835047
60077,Cook County,IL,49.43710230053842
60084,Lake County,IL,66.05482134116495
60085,Lake County,IL,37.49388154674499
60089,Lake County,IL,27.802251590797844
60091,Cook County,IL,62.016642192853645
60101,DuPage County,IL,70.04405286343612
60102,McHenry County,IL,35.65834557023984
60107,Cook County,IL,39.32941752325012
60115,DeKalb County,IL,63.65638766519823
60120,Kane County,IL,50.171316691140476
60123,Kane County,IL,75.62408223201174
60126,DuPage County,IL,59.81399902104748
60131,Cook County,IL,64.48849730788056
60133,Cook County,IL,31.693587860988742
60134,Kane County,IL,67.08272148800783
60135,DeKalb County,IL,94.12628487518356
60137,DuPage County,IL,22.46696035242291
60139,DuPage County,IL,38.742046010768476
60140,Kane County,IL,65.14929025942241
60142,McHenry County,IL,29.76015663240333
60148,DuPage County,IL,32.47674987763094
60153,Cook County,IL,27.06803720019579
60154,Cook County,IL,40.455212922173274
60156,McHenry County,IL,23.813020068526676
60160,Cook County,IL,73.7151248164464
60163,Cook County,IL,98.87420460107684
60169,Cook County,IL,35.48702887909936
60174,Kane County,IL,33.8228095937347
60175,Kane County,IL,17.1071953010279
60181,DuPage County,IL,19.11404796867352
60185,DuPage County,IL,25.11013215859031
60188,DuPage County,IL,10.45031815956926
60189,DuPage County,IL,23.519334312285853
60190,DuPage County,IL,70.33773861967695
60192,Cook County,IL,82.99069995105238
60201,Cook County,IL,31.864904552129218
60304,Cook County,IL,46.573666177190404
60406,Cook County,IL,42.65785609397944
60408,Will County,IL,88.86441507586882
60409,Cook County,IL,72.22222222222221
60411,Cook County,IL,51.49290259422418
60416,Grundy County,IL,50.73421439060205
60417,Will County,IL,52.765540871267746
60423,Will County,IL,28.56093979441997
60429,Cook County,IL,61.28242780225159
60430,Cook County,IL,55.7513460597161
60438,Cook County,IL,67.37640724424865
60441,Will County,IL,44.54233969652472
60442,Will County,IL,73.7151248164464
60445,Cook County,IL,88.30151737640725
60449,Will County,IL,79.3196279980421
60451,Will County,IL,60.8908467939305
60452,Cook County,IL,37.56730298580519
60453,Cook County,IL,31.644640234948607
60455,Cook County,IL,71.73274596182085
60457,Cook County,IL,66.05482134116495
60458,Cook County,IL,76.45619187469408
60462,Cook County,IL,49.069995105237396
60464,Cook County,IL,91.6054821341165
60465,Cook County,IL,37.6407244248654
60466,Cook County,IL,71.70827214880077
60467,Cook County,IL,39.500734214390604
60469,Cook County,IL,99.2168379833578
60473,Cook County,IL,77.36172295643662
60482,Cook County,IL,61.52716593245228
60484,Will County,IL,97.13656387665198
60490,Will County,IL,50.70974057758198
60503,Will County,IL,77.41067058247675
60504,DuPage County,IL,23.861967694566815
60505,Kane County,IL,54.20949583945178
60510,Kane County,IL,23.641703377386197
60514,DuPage County,IL,89.76994615761136
60516,DuPage County,IL,82.81938325991189
60517,DuPage County,IL,27.484092021536956
60525,Cook County,IL,13.803230543318648
60526,Cook County,IL,66.1771904062653
60532,DuPage County,IL,33.52912383749388
60542,Kane County,IL,56.33871757219775
60543,Kendall County,IL,24.424865394028387
60544,Will County,IL,26.064610866372984
60545,Kendall County,IL,58.786098874204605
60554,Kane County,IL,84.04307391091533
60555,DuPage County,IL,61.64953499755262
60559,DuPage County,IL,32.20753793441018
60560,Kendall County,IL,31.032794909446892
60564,Will County,IL,25.673029858051883
60585,Will County,IL,44.66470876162506
60586,Will County,IL,32.55017131669114
60605,Cook County,IL,89.74547234459129
60608,Cook County,IL,78.63436123348018
60609,Cook County,IL,25.4282917278512
60612,Cook County,IL,10.425844346549193
60613,Cook County,IL,50.51395007342144
60615,Cook County,IL,78.4630445423397
60616,Cook County,IL,90.60205580029368
60617,Cook County,IL,52.44738130200686
60618,Cook County,IL,56.26529613313755
60619,Cook County,IL,34.703866862457176
60620,Cook County,IL,63.41164953499755
60621,Cook County,IL,23.470386686245718
60622,Cook County,IL,60.4992657856094
60623,Cook County,IL,18.722466960352424
60624,Cook County,IL,55.50660792951542
60625,Cook County,IL,83.11306901615272
60626,Cook County,IL,60.450318159569264
60628,Cook County,IL,18.60009789525208
60629,Cook County,IL,68.96720509055311
60630,Cook County,IL,77.141458639256
60631,Cook County,IL,54.821341164953495
60632,Cook County,IL,7.146353401860011
60633,Cook County,IL,96.67156142927068
60634,Cook County,IL,4.7479197258932935
60637,Cook County,IL,77.50856583455702
60638,Cook County,IL,4.429760156632404
60639,Cook County,IL,44.29760156632403
60640,Cook County,IL,42.24180127263828
60641,Cook County,IL,30.176211453744493
60642,Cook County,IL,72.29564366128243
60643,Cook County,IL,3.8668624571708268
60644,Cook County,IL,20.31326480665688
60645,Cook County,IL,60.00978952520802
60646,Cook County,IL,37.6407244248654
60647,Cook County,IL,73.05433186490455
60649,Cook County,IL,7.317670093000489
60651,Cook County,IL,66.29955947136564
60653,Cook County,IL,18.404307391091532
60655,Cook County,IL,87.22466960352423
60656,Cook County,IL,37.028879099363685
60657,Cook County,IL,75.23250122369065
60659,Cook County,IL,35.48702887909936
60707,Cook County,IL,40.920215369554576
60804,Cook County,IL,81.15516397454724
60805,Cook County,IL,64.09691629955947
60827,Cook County,IL,70.06852667645619
61008,Boone County,IL,57.39109153206069
61016,Winnebago County,IL,90.52863436123349
61032,Stephenson County,IL,58.17425354870289
61081,Whiteside County,IL,19.43220753793441
61101,Winnebago County,IL,70.19089574155653
61104,Winnebago County,IL,91.55653450807635
61109,Winnebago County,IL,33.03964757709251
61111,Winnebago County,IL,72.71169848262359
61115,Winnebago County,IL,74.37591776798826
61201,Rock Island County,IL,25.868820362212432
61244,Rock Island County,IL,84.11649534997552
61265,Rock Island County,IL,34.38570729319628
61350,LaSalle County,IL,36.8575624082232
61354,LaSalle County,IL,43.4654919236417
61443,Henry County,IL,51.68869309838473
61554,Tazewell County,IL,18.086147821830643
61603,Peoria County,IL,84.38570729319628
61605,Peoria County,IL,65.73666177190405
61610,Tazewell County,IL,95.71708272148801
61614,Peoria County,IL,66.69114047968674
61701,McLean County,IL,20.362212432697014
61761,McLean County,IL,27.75330396475771
61821,Champaign County,IL,29.71120900636319
61822,Champaign County,IL,75.79539892315222
61832,Vermilion County,IL,24.694077337249144
61846,Vermilion County,IL,94.640234948605
61866,Champaign County,IL,29.050416054821344
61938,Coles County,IL,33.50465002447381
61951,Moultrie County,IL,89.23152227116985
62012,Macoupin County,IL,85.85413607440039
62016,Greene County,IL,99.04552129221733
62040,Madison County,IL,41.28732256485561
62052,Jersey County,IL,61.28242780225159
62056,Montgomery County,IL,82.96622613803231
62088,Macoupin County,IL,89.76994615761136
62203,St. Clair County,IL,95.44787077826726
62207,St. Clair County,IL,99.14341654429761
62208,St. Clair County,IL,83.55359765051395
62232,St. Clair County,IL,95.54576603034752
62246,Bond County,IL,86.5394028389623
62269,St. Clair County,IL,84.92413117963778
62278,Randolph County,IL,96.86735193343124
62305,Adams County,IL,61.86979931473323
62401,Effingham County,IL,53.74449339207048
62521,Macon County,IL,50.881057268722465
62526,Macon County,IL,27.58198727361723
62703,Sangamon County,IL,52.81448849730788
62812,Franklin County,IL,74.0332843857073
62832,Perry County,IL,80.10279001468429
62858,Clay County,IL,99.73078805677925
62864,Jefferson County,IL,70.65589818893784
62901,Jackson County,IL,56.191874694077335
62948,Williamson County,IL,59.00636319138521
62952,Union County,IL,93.95496818404308
62959,Williamson County,IL,29.613313754282917
62966,Jackson County,IL,55.31081742535488
46001,Madison County,IN,58.516886930983844
46012,Madison County,IN,61.23348017621145
46052,Boone County,IN,29.931473323543806
46060,Hamilton County,IN,19.872736172295642
46062,Hamilton County,IN,49.02104747919726
46077,Boone County,IN,80.714635340186
46112,Hendricks County,IN,43.34312285854136
46131,Johnson County,IN,19.334312285854136
46203,Marion County,IN,3.98923152227117
46214,Marion County,IN,77.85119921683798
46219,Marion County,IN,5.97161037689672
46220,Marion County,IN,68.35535976505139
46224,Marion County,IN,19.750367107195302
46226,Marion County,IN,5.800293685756241
46227,Marion County,IN,4.380812530592267
46228,Marion County,IN,91.36074400391581
46235,Marion County,IN,11.184532550171317
46237,Marion County,IN,10.695056289769946
46240,Marion County,IN,86.63729809104258
46241,Marion County,IN,11.478218306412138
46250,Marion County,IN,72.09985315712188
46256,Marion County,IN,61.03768967205091
46259,Marion County,IN,88.98678414096916
46268,Marion County,IN,32.57464512971121
46303,Lake County,IN,33.45570239843367
46304,Porter County,IN,6.510034263338229
46307,Lake County,IN,17.74351443954968
46311,Lake County,IN,20.876162506118455
46321,Lake County,IN,23.15222711698483
46322,Lake County,IN,14.561918746940774
46324,Lake County,IN,9.30004894762604
46342,Lake County,IN,14.95349975526187
46368,Porter County,IN,0.8076358296622614
46373,Lake County,IN,18.8203622124327
46375,Lake County,IN,73.93538913362701
46383,Porter County,IN,3.450807635829662
46385,Porter County,IN,3.1815956926089086
46392,Jasper County,IN,58.786098874204605
46394,Lake County,IN,44.3220753793441
46403,Lake County,IN,59.324522760646104
46405,Lake County,IN,28.34067547723935
46408,Lake County,IN,34.850709740577585
46410,Lake County,IN,3.034752814488497
46514,Elkhart County,IN,81.44884973078806
46526,Elkhart County,IN,77.41067058247675
46534,Starke County,IN,44.34654919236417
46550,Elkhart County,IN,98.97209985315712
46574,St. Joseph County,IN,96.72050905531083
46613,St. Joseph County,IN,83.77386196769456
46619,St. Joseph County,IN,43.4654919236417
46737,Steuben County,IN,73.44591287322565
46750,Huntington County,IN,11.013215859030836
46767,Noble County,IN,95.52129221732746
46774,Allen County,IN,50.122369065100344
46783,Huntington County,IN,80.86147821830642
46803,Allen County,IN,96.79393049437103
46805,Allen County,IN,21.463534018600097
46806,Allen County,IN,16.421928536465984
46808,Allen County,IN,55.84924131179638
46815,Allen County,IN,74.74302496328929
46816,Allen County,IN,52.251590797846305
46825,Allen County,IN,61.45374449339207
46845,Allen County,IN,48.01762114537445
46901,Howard County,IN,18.746940773372494
46902,Howard County,IN,1.346059716103769
46923,Carroll County,IN,76.30934899657366
46962,Wabash County,IN,93.88154674498287
46975,Fulton County,IN,40.161527165932455
46992,Wabash County,IN,22.197748409202152
47150,Floyd County,IN,4.968184043073911
47167,Washington County,IN,39.4273127753304
47203,Bartholomew County,IN,76.5051395007342
47250,Jefferson County,IN,84.85070974057759
47302,Delaware County,IN,10.181106216348507
47303,Delaware County,IN,23.176700930004895
47304,Delaware County,IN,40.21047479197259
47336,Jay County,IN,98.6784140969163
47362,Henry County,IN,43.147332354380815
47371,Jay County,IN,92.36417033773861
47374,Wayne County,IN,13.11796377875673
47441,Greene County,IN,61.28242780225159
47460,Owen County,IN,69.65247185511502
47586,Perry County,IN,85.78071463534019
47601,Warrick County,IN,80.37200195790504
47630,Warrick County,IN,81.69358786098874
47670,Gibson County,IN,72.09985315712188
47711,Vanderburgh County,IN,17.15614292706804
47714,Vanderburgh County,IN,7.366617719040626
47715,Vanderburgh County,IN,18.94273127753304
47804,Vigo County,IN,80.29858051884483
47834,Clay County,IN,20.558002936857562
47842,Vermillion County,IN,59.44689182574645
47872,Parke County,IN,90.18600097895252
47905,Tippecanoe County,IN,64.14586392559961
47960,White County,IN,57.635829662261386
47993,Warren County,IN,99.29025942241802
50010,Story County,IA,47.038668624571706
50131,Polk County,IA,72.22222222222221
50158,Marshall County,IA,15.736661771904062
50263,Dallas County,IA,87.59177679882526
50266,Polk County,IA,71.4635340186001
50313,Polk County,IA,27.484092021536956
50314,Polk County,IA,68.15956926089085
50317,Polk County,IA,27.38619676945668
50320,Polk County,IA,71.21879588839941
50325,Polk County,IA,88.22809593734704
50428,Cerro Gordo County,IA,75.52618697993148
50701,Black Hawk County,IA,56.999510523739595
50702,Black Hawk County,IA,65.36955457660304
50703,Black Hawk County,IA,51.248164464023496
51103,Woodbury County,IA,36.612824278022515
51104,Woodbury County,IA,33.259911894273124
51105,Woodbury County,IA,59.07978463044542
51334,Emmet County,IA,57.12187958883994
51501,Pottawattamie County,IA,10.058737151248165
51503,Pottawattamie County,IA,41.727851199216836
51555,Harrison County,IA,73.37249143416544
52001,Dubuque County,IA,8.370044052863436
52002,Dubuque County,IA,67.13166911404797
52057,Delaware County,IA,82.28095937347038
52240,Johnson County,IA,12.408223201174744
52241,Johnson County,IA,34.336759667156144
52302,Linn County,IA,12.506118453255016
52333,Johnson County,IA,99.73078805677925
52361,Iowa County,IA,96.98972099853157
52402,Linn County,IA,60.205580029368576
52403,Linn County,IA,30.641213901125795
52404,Linn County,IA,3.81791483113069
52537,Davis County,IA,84.55702398433675
52544,Appanoose County,IA,80.88595203132648
52601,Des Moines County,IA,6.216348507097406
52645,Henry County,IA,99.29025942241802
52722,Scott County,IA,11.698482623592756
52730,Clinton County,IA,92.29074889867842
52732,Clinton County,IA,63.240332843857075
52742,Clinton County,IA,94.49339207048459
52804,Scott County,IA,35.43808125305923
52806,Scott County,IA,42.55996084189917
66012,Wyandotte County,KS,85.97650513950073
66025,Douglas County,KS,91.94811551639745
66046,Douglas County,KS,79.2462065589819
66049,Douglas County,KS,88.74204601076848
66061,Johnson County,KS,11.11111111111111
66067,Franklin County,KS,89.01125795398923
66101,Wyandotte County,KS,81.86490455212922
66103,Wyandotte County,KS,68.77141458639257
66104,Wyandotte County,KS,70.38668624571707
66106,Wyandotte County,KS,34.948604992657856
66112,Wyandotte County,KS,82.91727851199217
66203,Johnson County,KS,92.04601076847773
66206,Johnson County,KS,90.77337249143417
66212,Johnson County,KS,77.28830151737641
66223,Johnson County,KS,81.59569260890846
66434,Brown County,KS,89.20704845814979
66502,Riley County,KS,89.13362701908957
66538,Nemaha County,KS,93.3920704845815
66547,Pottawatomie County,KS,82.74596182085169
66607,Shawnee County,KS,77.41067058247675
66614,Shawnee County,KS,58.272148800783164
66617,Shawnee County,KS,97.30788056779247
66725,Cherokee County,KS,88.6441507586882
66801,Lyon County,KS,39.20704845814978
66901,Cloud County,KS,95.69260890846793
67005,Cowley County,KS,75.62408223201174
67010,Butler County,KS,69.45668135095447
67037,Sedgwick County,KS,86.04992657856094
67114,Harvey County,KS,72.63827704356338
67156,Cowley County,KS,70.2153695545766
67203,Sedgwick County,KS,62.70190895741556
67207,Sedgwick County,KS,76.82329906999512
67208,Sedgwick County,KS,72.63827704356338
67209,Sedgwick County,KS,97.50367107195301
67212,Sedgwick County,KS,53.15712187958884
67213,Sedgwick County,KS,52.93685756240822
67217,Sedgwick County,KS,74.47381302006852
67218,Sedgwick County,KS,89.52520802741067
67220,Sedgwick County,KS,98.82525697503671
67357,Labette County,KS,37.420460107684775
67401,Saline County,KS,12.041116005873716
67432,Clay County,KS,92.80469897209986
67460,McPherson County,KS,73.44591287322565
67501,Reno County,KS,59.1042584434655
67530,Barton County,KS,60.74400391581008
67701,Thomas County,KS,69.18746940773373
67871,Scott County,KS,55.72687224669603
40004,Nelson County,KY,39.06020558002937
40019,Henry County,KY,97.84630445423397
40031,Oldham County,KY,20.851688693098385
40059,Jefferson County,KY,73.17670093000488
40146,Breckinridge County,KY,92.85364659813999
40160,Hardin County,KY,55.7513460597161
40165,Bullitt County,KY,7.4400391581008325
40175,Hardin County,KY,47.57709251101321
40206,Jefferson County,KY,85.56045031815957
40207,Jefferson County,KY,62.92217327459618
40208,Jefferson County,KY,38.42388644150759
40215,Jefferson County,KY,10.352422907488986
40216,Jefferson County,KY,4.087126774351444
40218,Jefferson County,KY,7.170827214880078
40219,Jefferson County,KY,51.10132158590308
40228,Jefferson County,KY,56.901615271659324
40229,Jefferson County,KY,5.898188937836514
40241,Jefferson County,KY,39.8188937836515
40243,Jefferson County,KY,82.52569750367107
40299,Jefferson County,KY,76.04013705335291
40324,Scott County,KY,6.877141458639256
40336,Estill County,KY,42.82917278511992
40351,Rowan County,KY,12.750856583455702
40356,Jessamine County,KY,7.415565345080763
40383,Woodford County,KY,64.70876162506119
40402,Jackson County,KY,99.16789035731767
40447,Jackson County,KY,83.77386196769456
40475,Madison County,KY,3.5976505139500734
40508,Fayette County,KY,22.075379344101812
40514,Fayette County,KY,89.89231522271169
40517,Fayette County,KY,42.75575134605972
40741,Laurel County,KY,13.142437591776797
40744,Laurel County,KY,18.208516886930983
40828,Harlan County,KY,93.3186490455213
41008,Carroll County,KY,72.27116984826236
41011,Kenton County,KY,7.537934410181106
41015,Kenton County,KY,16.079295154185022
41017,Kenton County,KY,54.74791972589329
41031,Harrison County,KY,44.93392070484582
41035,Grant County,KY,34.11649534997553
41042,Boone County,KY,15.491923641703378
41051,Kenton County,KY,25.11013215859031
41101,Boyd County,KY,36.784140969163
41102,Boyd County,KY,12.359275575134605
41143,Carter County,KY,64.83113069016153
41164,Carter County,KY,56.97503671071953
41169,Greenup County,KY,85.41360744003916
41339,Breathitt County,KY,36.19676945668135
41649,Floyd County,KY,93.04943710230053
42003,McCracken County,KY,7.953989231522271
42025,Marshall County,KY,31.032794909446892
42101,Warren County,KY,17.841409691629956
42103,Warren County,KY,81.98727361722956
42104,Warren County,KY,80.93489965736663
42134,Simpson County,KY,40.79784630445423
42240,Christian County,KY,35.389133627019085
42262,Christian County,KY,93.26970141948115
42303,Daviess County,KY,45.34997552618698
42420,Henderson County,KY,22.736172295643662
42539,Casey County,KY,94.46891825746452
42647,McCreary County,KY,99.24131179637787
42743,Green County,KY,58.8595203132648
42748,Larue County,KY,80.49437102300539
42754,Grayson County,KY,50.09789525208027
70043,St. Bernard Parish,LA,32.8928046989721
70053,Jefferson Parish,LA,46.91629955947136
70056,Jefferson Parish,LA,1.6886930983847284
70058,Jefferson Parish,LA,0.6607929515418502
70068,St. John the Baptist Parish,LA,24.180127263827707
70072,Jefferson Parish,LA,23.127753303964756
70094,Jefferson Parish,LA,1.9334312285854134
70113,Orleans Parish,LA,54.4297601566324
70115,Orleans Parish,LA,10.205580029368576
70117,Orleans Parish,LA,1.6152716593245229
70118,Orleans Parish,LA,38.22809593734704
70126,Orleans Parish,LA,34.2143906020558
70127,Orleans Parish,LA,3.206069505628977
70128,Orleans Parish,LA,9.226627508565835
70301,Lafourche Parish,LA,8.247674987763093
70343,Terrebonne Parish,LA,86.88203622124327
70346,Ascension Parish,LA,34.948604992657856
70364,Terrebonne Parish,LA,3.3773861967694567
70380,St. Mary Parish,LA,12.94664708761625
70392,St. Mary Parish,LA,87.22466960352423
70433,St. Tammany Parish,LA,17.547723935389133
70444,Tangipahoa Parish,LA,70.23984336759666
70448,St. Tammany Parish,LA,26.603034752814487
70450,Washington Parish,LA,86.3925599608419
70460,St. Tammany Parish,LA,6.2897699461576115
70461,St. Tammany Parish,LA,9.202153695545766
70462,Livingston Parish,LA,48.65394028389623
70466,Tangipahoa Parish,LA,41.09153206069506
70501,Lafayette Parish,LA,0.4894762604013705
70508,Lafayette Parish,LA,8.418991678903573
70510,Vermilion Parish,LA,4.870288790993637
70512,St. Landry Parish,LA,54.50318159569261
70517,St. Martin Parish,LA,6.607929515418502
70520,Lafayette Parish,LA,13.631913852178169
70535,St. Landry Parish,LA,16.715614292706803
70544,Iberia Parish,LA,22.050905531081742
70546,Jefferson Davis Parish,LA,17.62114537444934
70563,Iberia Parish,LA,60.548213411649535
70570,St. Landry Parish,LA,0.2936857562408223
70586,Evangeline Parish,LA,55.31081742535488
70592,Lafayette Parish,LA,18.13509544787078
70601,Calcasieu Parish,LA,5.873715124816446
70633,Calcasieu Parish,LA,53.989231522271176
70663,Calcasieu Parish,LA,21.145374449339208
70710,West Baton Rouge Parish,LA,90.65100342633382
70737,Ascension Parish,LA,2.936857562408223
70760,Pointe Coupee Parish,LA,65.05139500734214
70769,Ascension Parish,LA,45.472344591287325
70791,East Baton Rouge Parish,LA,30.788056779246208
70802,East Baton Rouge Parish,LA,2.4963289280469896
70805,East Baton Rouge Parish,LA,22.124326970141947
70808,East Baton Rouge Parish,LA,32.011747430249635
70810,East Baton Rouge Parish,LA,3.5731767009300053
70814,East Baton Rouge Parish,LA,22.90748898678414
70815,East Baton Rouge Parish,LA,8.516886930983848
70816,East Baton Rouge Parish,LA,2.2515907978463043
70818,East Baton Rouge Parish,LA,70.87616250611846
71001,Bienville Parish,LA,76.77435144395497
71052,De Soto Parish,LA,25.721977484092022
71055,Webster Parish,LA,9.422418012726382
71104,Caddo Parish,LA,66.59324522760646
71107,Caddo Parish,LA,0.881057268722467
71109,Caddo Parish,LA,2.7165932452276063
71111,Bossier Parish,LA,2.006852667645619
71112,Bossier Parish,LA,6.436612824278022
71118,Caddo Parish,LA,12.114537444933921
71129,Caddo Parish,LA,62.285854136074406
71201,Ouachita Parish,LA,22.7851199216838
71227,Lincoln Parish,LA,98.48262359275574
71292,Ouachita Parish,LA,6.363191385217817
71295,Franklin Parish,LA,10.15663240332844
71360,Rapides Parish,LA,5.384238864415076
71457,Natchitoches Parish,LA,2.741067058247675
03903,York County,ME,78.90357317670093
04021,Cumberland County,ME,91.55653450807635
04043,York County,ME,54.20949583945178
04062,Cumberland County,ME,44.98286833088595
04072,York County,ME,62.62848751835536
04101,Cumberland County,ME,23.22564855604503
04103,Cumberland County,ME,12.701908957415565
04105,Cumberland County,ME,92.51101321585902
04106,Cumberland County,ME,22.980910425844346
04276,Oxford County,ME,53.03475281448849
04401,Penobscot County,ME,0.41605482134116495
04963,Kennebec County,ME,51.272638277043555
20601,Charles County,MD,59.25110132158591
20619,St. Mary's County,MD,82.28095937347038
20634,St. Mary's County,MD,95.98629466470877
20695,Charles County,MD,94.73813020068526
20716,Prince George's County,MD,56.289769946157605
20723,Howard County,MD,76.3582966226138
20747,Prince George's County,MD,34.41018110621635
20748,Prince George's County,MD,66.93587860988742
20759,Howard County,MD,98.40920215369555
20782,Prince George's County,MD,77.28830151737641
20784,Prince George's County,MD,59.740577581987274
20833,Montgomery County,MD,94.95839451786588
20874,Montgomery County,MD,33.7493881546745
20886,Montgomery County,MD,68.99167890357317
20901,Montgomery County,MD,70.46010768477728
20904,Montgomery County,MD,48.23788546255506
20906,Montgomery County,MD,41.50758688203622
21001,Harford County,MD,52.251590797846305
21014,Harford County,MD,28.24278022515908
21017,Harford County,MD,89.5007342143906
21040,Harford County,MD,48.53157121879589
21050,Harford County,MD,87.73861967694567
21061,Anne Arundel County,MD,4.503181595692609
21074,Carroll County,MD,72.76064610866374
21090,Anne Arundel County,MD,81.81595692608909
21093,Baltimore County,MD,65.85903083700441
21102,Carroll County,MD,85.26676456191875
21122,Anne Arundel County,MD,20.386686245717083
21128,Baltimore County,MD,94.49339207048459
21144,Anne Arundel County,MD,46.74498286833089
21146,Anne Arundel County,MD,85.95203132648066
21162,Baltimore County,MD,95.15418502202643
21207,Baltimore County,MD,44.199706314243755
21209,Baltimore County,MD,81.52227116984825
21215,Baltimore city,MD,3.4752814488497306
21224,Baltimore city,MD,8.859520313264808
21227,Baltimore County,MD,43.147332354380815
21234,Baltimore County,MD,8.883994126284875
21236,Baltimore County,MD,62.18795888399412
21403,Anne Arundel County,MD,81.79148311306902
21617,Queen Anne's County,MD,89.52520802741067
21703,Frederick County,MD,80.29858051884483
21710,Frederick County,MD,99.36368086147822
21791,Carroll County,MD,97.57709251101322
21797,Howard County,MD,95.39892315222713
21904,Cecil County,MD,92.80469897209986
01005,Worcester County,MA,62.45717082721488
01013,Hampden County,MA,64.58639255996084
01020,Hampden County,MA,87.07782672540382
01089,Hampden County,MA,69.7503671071953
01105,Hampden County,MA,84.70386686245716
01430,Worcester County,MA,98.60499265785609
01450,Middlesex County,MA,59.91189427312775
01507,Worcester County,MA,26.847772883015175
01543,Worcester County,MA,66.25061184532551
01569,Worcester County,MA,23.73959862946647
01570,Worcester County,MA,85.36465981399903
01581,Worcester County,MA,21.58590308370044
01603,Worcester County,MA,0.36710719530102787
01604,Worcester County,MA,57.80714635340186
01605,Worcester County,MA,0.26921194322075376
01701,Middlesex County,MA,86.12334801762115
01702,Middlesex County,MA,0.22026431718061676
01721,Middlesex County,MA,21.316691140479687
01742,Middlesex County,MA,42.90259422418013
01748,Middlesex County,MA,31.473323543808124
01757,Worcester County,MA,0.5384238864415075
01776,Middlesex County,MA,30.494371023005385
01801,Middlesex County,MA,0.17131669114047968
01810,Essex County,MA,6.681350954478709
01821,Middlesex County,MA,1.957905041605482
01834,Essex County,MA,99.48604992657856
01835,Essex County,MA,20.484581497797357
01840,Essex County,MA,40.308370044052865
01841,Essex County,MA,1.1257953989231522
01844,Essex County,MA,3.6465981399902105
01845,Essex County,MA,96.05971610376896
01850,Middlesex County,MA,3.401860009789525
01852,Middlesex County,MA,45.44787077826725
01887,Middlesex County,MA,2.7900146842878124
01902,Essex County,MA,1.0279001468428781
01906,Essex County,MA,96.64708761625062
01940,Essex County,MA,51.884483602545274
01970,Essex County,MA,3.010279001468429
02052,Norfolk County,MA,52.59422418012727
02053,Norfolk County,MA,36.31913852178169
02054,Norfolk County,MA,88.15467449828684
02056,Norfolk County,MA,87.51835535976505
02066,Plymouth County,MA,24.76749877630935
02081,Norfolk County,MA,87.49388154674497
02114,Suffolk County,MA,37.053352912383744
02115,Suffolk County,MA,2.5697503671071953
02116,Suffolk County,MA,8.223201174743025
02119,Suffolk County,MA,0
02121,Suffolk County,MA,1.3705335291238374
02122,Suffolk County,MA,5.041605482134116
02124,Suffolk County,MA,26.89672050905531
02126,Suffolk County,MA,63.485070974057756
02127,Suffolk County,MA,0.24473813020068524
02128,Suffolk County,MA,93.29417523250122
02131,Suffolk County,MA,83.23543808125305
02132,Suffolk County,MA,28.389623103279494
02135,Suffolk County,MA,1.4684287812041115
02138,Middlesex County,MA,5.947136563876652
02139,Middlesex County,MA,0.048947626040137054
02140,Middlesex County,MA,9.177679882525698
02144,Middlesex County,MA,40.920215369554576
02145,Middlesex County,MA,97.72393538913363
02149,Middlesex County,MA,81.74253548702887
02150,Suffolk County,MA,21.243269701419482
02151,Suffolk County,MA,92.3886441507587
02152,Suffolk County,MA,6.167400881057269
02169,Norfolk County,MA,0.07342143906020558
02170,Norfolk County,MA,54.11160058737151
02176,Middlesex County,MA,3.2550171316691143
02190,Norfolk County,MA,16.93587860988742
02301,Plymouth County,MA,20.6069505628977
02302,Plymouth County,MA,65.63876651982379
02332,Plymouth County,MA,63.97454723445913
02339,Plymouth County,MA,86.61282427802252
02343,Norfolk County,MA,25.942241801272637
02359,Plymouth County,MA,18.184043073910917
02360,Plymouth County,MA,45.32550171316691
02364,Plymouth County,MA,40.38179148311307
02368,Norfolk County,MA,0.39158100832109644
02370,Plymouth County,MA,7.758198727361723
02446,Norfolk County,MA,10.719530102790015
02467,Norfolk County,MA,35.805188448360255
02472,Middlesex County,MA,3.0592266275085658
02474,Middlesex County,MA,6.80372001957905
02536,Barnstable County,MA,93.46549192364171
02554,Nantucket County,MA,21.683798335780715
02601,Barnstable County,MA,1.6397454723445912
02632,Barnstable County,MA,37.273617229564366
02645,Barnstable County,MA,97.8952520802741
02649,Barnstable County,MA,96.15761135584924
02673,Barnstable County,MA,42.65785609397944
02703,Bristol County,MA,2.98580518844836
02720,Bristol County,MA,0.024473813020068527
02723,Bristol County,MA,0.7342143906020557
02724,Bristol County,MA,60.59716103768967
02740,Bristol County,MA,33.16201664219285
02760,Bristol County,MA,5.261869799314733
02762,Norfolk County,MA,97.55261869799314
02771,Bristol County,MA,26.847772883015175
02780,Bristol County,MA,1.2236906510034264
48009,Oakland County,MI,40.23494860499266
48017,Oakland County,MI,91.80127263827704
48021,Macomb County,MI,4.772393538913363
48025,Oakland County,MI,75.52618697993148
48030,Oakland County,MI,65.66324033284386
48033,Oakland County,MI,88.05677924620656
48034,Oakland County,MI,23.396965247185513
48038,Macomb County,MI,6.6324033284385715
48045,Macomb County,MI,46.98972099853157
48048,Macomb County,MI,66.86245717082721
48060,St. Clair County,MI,0.978952520802741
48066,Macomb County,MI,1.076847772883015
48072,Oakland County,MI,91.43416544297601
48073,Oakland County,MI,71.4635340186001
48075,Oakland County,MI,19.774840920215368
48080,Macomb County,MI,23.788546255506606
48081,Macomb County,MI,26.554087126774352
48082,Macomb County,MI,35.193343122858536
48088,Macomb County,MI,32.47674987763094
48092,Macomb County,MI,18.551150269211945
48093,Macomb County,MI,40.13705335291238
48094,Macomb County,MI,72.858541360744
48104,Washtenaw County,MI,35.0709740577582
48108,Washtenaw County,MI,25.648556045031818
48111,Wayne County,MI,2.8634361233480177
48122,Wayne County,MI,43.34312285854136
48126,Wayne County,MI,81.84043073910915
48127,Wayne County,MI,28.805677924620653
48135,Wayne County,MI,13.387175721977485
48141,Wayne County,MI,21.267743514439548
48146,Wayne County,MI,83.25991189427313
48150,Wayne County,MI,49.828683308859524
48154,Wayne County,MI,14.415075868820363
48162,Monroe County,MI,6.093979441997063
48165,Oakland County,MI,72.29564366128243
48166,Monroe County,MI,29.637787567302986
48167,Oakland County,MI,87.37151248164464
48174,Wayne County,MI,18.379833578071462
48180,Wayne County,MI,55.7513460597161
48182,Monroe County,MI,90.38179148311308
48184,Wayne County,MI,34.18991678903573
48186,Wayne County,MI,2.3739598629466467
48192,Wayne County,MI,9.936368086147821
48195,Wayne County,MI,14.145863925599608
48197,Washtenaw County,MI,0.5873715124816447
48198,Washtenaw County,MI,20.23984336759667
48201,Wayne County,MI,26.798825256975036
48202,Wayne County,MI,18.869309838472834
48203,Wayne County,MI,32.74596182085169
48204,Wayne County,MI,59.81399902104748
48205,Wayne County,MI,1.5173764072442486
48206,Wayne County,MI,16.593245227606463
48207,Wayne County,MI,10.572687224669604
48210,Wayne County,MI,15.369554576603035
48212,Wayne County,MI,45.276554087126776
48214,Wayne County,MI,11.086637298091043
48215,Wayne County,MI,24.52276064610866
48218,Wayne County,MI,64.3906020558003
48219,Wayne County,MI,30.053842388644153
48220,Oakland County,MI,34.01860009789525
48221,Wayne County,MI,14.537444933920703
48224,Wayne County,MI,0.6118453255017132
48225,Wayne County,MI,78.928046989721
48227,Wayne County,MI,1.0034263338228095
48228,Wayne County,MI,66.91140479686734
48230,Wayne County,MI,73.32354380812531
48234,Wayne County,MI,19.94615761135585
48235,Wayne County,MI,54.08712677435145
48238,Wayne County,MI,1.908957415565345
48301,Oakland County,MI,54.11160058737151
48302,Oakland County,MI,62.23690651003426
48306,Oakland County,MI,81.22858541360743
48307,Oakland County,MI,37.76309348996574
48310,Macomb County,MI,8.688203622124327
48315,Macomb County,MI,27.87567302985805
48317,Macomb County,MI,44.27312775330397
48322,Oakland County,MI,65.05139500734214
48324,Oakland County,MI,79.61331375428293
48326,Oakland County,MI,73.00538423886441
48331,Oakland County,MI,24.840920215369554
48334,Oakland County,MI,43.0004894762604
48336,Oakland County,MI,83.30885952031326
48340,Oakland County,MI,24.547234459128735
48341,Oakland County,MI,18.526676456191872
48342,Oakland County,MI,7.856093979441997
48348,Oakland County,MI,59.936368086147816
48350,Oakland County,MI,92.43759177679883
48360,Oakland County,MI,63.60744003915811
48362,Oakland County,MI,93.83259911894272
48375,Oakland County,MI,39.13362701908957
48377,Oakland County,MI,55.58002936857562
48380,Oakland County,MI,79.36857562408223
48381,Oakland County,MI,56.02055800293686
48386,Oakland County,MI,51.12579539892316
48390,Oakland County,MI,26.333822809593734
48393,Oakland County,MI,34.36123348017621
48415,Saginaw County,MI,36.808614782183064
48423,Genesee County,MI,20.190895741556535
48433,Genesee County,MI,41.50758688203622
48439,Genesee County,MI,51.12579539892316
48446,Lapeer County,MI,7.80714635340186
48451,Genesee County,MI,68.40430739109154
48471,Sanilac County,MI,68.35535976505139
48506,Genesee County,MI,14.366128242780224
48507,Genesee County,MI,45.22760646108664
48529,Genesee County,MI,89.81889378365149
48532,Genesee County,MI,26.186979931473324
48601,Saginaw County,MI,29.955947136563875
48602,Saginaw County,MI,39.76994615761136
48623,Saginaw County,MI,81.39990210474792
48642,Midland County,MI,10.621634850709741
48658,Arenac County,MI,78.19383259911893
48661,Ogemaw County,MI,43.41654429760157
48706,Bay County,MI,18.918257464512973
48732,Bay County,MI,41.727851199216836
48734,Saginaw County,MI,79.66226138032305
48746,Tuscola County,MI,74.0332843857073
48768,Tuscola County,MI,43.66128242780225
48801,Gratiot County,MI,35.63387175721978
48813,Eaton County,MI,78.38962310327949
48820,Clinton County,MI,60.37689672050905
48823,Ingham County,MI,21.855115026921194
48827,Eaton County,MI,29.56436612824278
48836,Livingston County,MI,42.36417033773862
48838,Montcalm County,MI,54.55212922173275
48849,Ionia County,MI,82.20753793441018
48854,Ingham County,MI,38.081253059226626
48858,Isabella County,MI,2.471855115026921
48866,Clinton County,MI,90.72442486539403
48893,Isabella County,MI,65.05139500734214
48910,Ingham County,MI,5.65345080763583
48911,Ingham County,MI,35.78071463534019
48917,Eaton County,MI,3.940283896231033
49006,Kalamazoo County,MI,38.44836025452766
49009,Kalamazoo County,MI,5.97161037689672
49010,Allegan County,MI,31.032794909446892
49014,Calhoun County,MI,10.254527655408713
49015,Calhoun County,MI,9.104258443465492
49024,Kalamazoo County,MI,15.981399902104748
49036,Branch County,MI,17.400881057268723
49037,Calhoun County,MI,7.929515418502203
49047,Cass County,MI,73.69065100342634
49057,Van Buren County,MI,91.87469407733725
49070,Allegan County,MI,99.63289280469897
49082,Branch County,MI,75.15907978463045
49090,Van Buren County,MI,46.940773372491435
49091,St. Joseph County,MI,32.819383259911895
49098,Berrien County,MI,87.3225648556045
49203,Jackson County,MI,3.2794909446891825
49221,Lenawee County,MI,1.4194811551639746
49247,Lenawee County,MI,64.8556045031816
49251,Ingham County,MI,86.63729809104258
49301,Kent County,MI,59.52031326480666
49306,Kent County,MI,82.91727851199217
49307,Mecosta County,MI,40.67547723935389
49315,Kent County,MI,69.2119432207538
49321,Kent County,MI,46.1086637298091
49333,Barry County,MI,59.66715614292707
49341,Kent County,MI,17.62114537444934
49345,Kent County,MI,62.84875183553598
49348,Allegan County,MI,55.70239843367597
49404,Ottawa County,MI,85.34018600097896
49417,Ottawa County,MI,71.26774351443956
49418,Kent County,MI,25.91776798825257
49419,Allegan County,MI,83.89623103279492
49423,Ottawa County,MI,27.851199216837983
49424,Ottawa County,MI,33.186490455212926
49428,Ottawa County,MI,40.67547723935389
49441,Muskegon County,MI,6.045031815956927
49450,Allegan County,MI,98.62946647087615
49456,Ottawa County,MI,66.96035242290749
49460,Ottawa County,MI,92.11943220753793
49464,Ottawa County,MI,40.08810572687225
49504,Kent County,MI,32.08516886930984
49505,Kent County,MI,64.95349975526187
49506,Kent County,MI,14.512971120900636
49508,Kent County,MI,15.638766519823788
49509,Kent County,MI,51.56632403328438
49519,Kent County,MI,9.055310817425354
49548,Kent County,MI,3.15712187958884
49684,Grand Traverse County,MI,45.12971120900636
49686,Grand Traverse County,MI,70.63142437591777
49696,Grand Traverse County,MI,69.3587860988742
49707,Alpena County,MI,53.573176700930006
49721,Cheboygan County,MI,71.9285364659814
49783,Chippewa County,MI,11.600587371512482
49801,Dickinson County,MI,53.32843857072932
49841,Marquette County,MI,49.55947136563877
49855,Marquette County,MI,32.08516886930984
49866,Marquette County,MI,47.185511502692115
55005,Anoka County,MN,99.51052373959864
55009,Goodhue County,MN,62.55506607929515
55013,Chisago County,MN,94.05286343612335
55014,Anoka County,MN,53.74449339207048
55016,Washington County,MN,63.97454723445913
55024,Dakota County,MN,91.16495349975526
55025,Washington County,MN,45.59471365638766
55044,Dakota County,MN,38.742046010768476
55046,Rice County,MN,98.2868330885952
55057,Rice County,MN,61.160058737151246
55060,Steele County,MN,60.30347528144885
55070,Anoka County,MN,94.12628487518356
55082,Washington County,MN,21.953010279001468
55103,Ramsey County,MN,83.08859520313266
55104,Ramsey County,MN,8.12530592266275
55106,Ramsey County,MN,61.84532550171317
55107,Ramsey County,MN,64.92902594224181
55109,Ramsey County,MN,82.57464512971121
55112,Ramsey County,MN,87.88546255506607
55117,Ramsey County,MN,34.50807635829663
55123,Dakota County,MN,75.52618697993148
55126,Ramsey County,MN,80.37200195790504
55128,Washington County,MN,36.68624571708272
55130,Ramsey County,MN,71.34116495349976
55302,Wright County,MN,94.29760156632403
55306,Dakota County,MN,84.80176211453745
55308,Sherburne County,MN,99.09446891825746
55311,Hennepin County,MN,50.440528634361236
55313,Wright County,MN,44.052863436123346
55316,Hennepin County,MN,83.77386196769456
55318,Carver County,MN,89.15810083210964
55319,Sherburne County,MN,99.38815467449828
55330,Sherburne County,MN,29.270680372001955
55331,Hennepin County,MN,95.15418502202643
55336,McLeod County,MN,61.404796867351926
55337,Dakota County,MN,57.415565345080765
55342,Renville County,MN,97.96867351933432
55343,Hennepin County,MN,66.47087616250612
55346,Hennepin County,MN,82.99069995105238
55347,Hennepin County,MN,57.415565345080765
55350,McLeod County,MN,17.44982868330886
55360,Carver County,MN,99.80420949583944
55369,Hennepin County,MN,22.760646108663728
55371,Mille Lacs County,MN,39.500734214390604
55372,Scott County,MN,49.97552618697993
55378,Scott County,MN,76.6030347528145
55379,Scott County,MN,48.65394028389623
55386,Carver County,MN,93.95496818404308
55403,Hennepin County,MN,45.2520802741067
55404,Hennepin County,MN,0.19579050416054822
55406,Hennepin County,MN,66.1771904062653
55413,Hennepin County,MN,29.88252569750367
55416,Hennepin County,MN,81.1062163485071
55417,Hennepin County,MN,37.56730298580519
55420,Hennepin County,MN,61.96769456681351
55422,Hennepin County,MN,72.3935389133627
55423,Hennepin County,MN,40.455212922173274
55424,Hennepin County,MN,94.640234948605
55426,Hennepin County,MN,50.90553108174254
55428,Hennepin County,MN,10.915320606950562
55429,Hennepin County,MN,28.658835046500247
55430,Hennepin County,MN,58.90846793930494
55433,Anoka County,MN,58.95741556534509
55434,Anoka County,MN,52.66764561918747
55437,Hennepin County,MN,80.49437102300539
55443,Hennepin County,MN,54.35633871757219
55444,Hennepin County,MN,46.231032794909446
55447,Hennepin County,MN,66.3240332843857
55449,Anoka County,MN,39.20704845814978
55454,Hennepin County,MN,78.21830641213901
55719,St. Louis County,MN,79.05041605482134
55720,Carlton County,MN,73.3969652471855
55803,St. Louis County,MN,85.21781693587862
55976,Olmsted County,MN,89.99021047479198
56001,Blue Earth County,MN,73.3969652471855
56071,Scott County,MN,83.38228095937346
56073,Brown County,MN,13.020068526676457
56143,Jackson County,MN,89.64757709251101
56156,Rock County,MN,88.79099363680861
56187,Nobles County,MN,84.75281448849731
56201,Kandiyohi County,MN,89.32941752325011
56265,Chippewa County,MN,68.91825746451296
56283,Redwood County,MN,87.73861967694567
56301,Stearns County,MN,31.25305922662751
56303,Stearns County,MN,54.20949583945178
56307,Stearns County,MN,99.58394517865884
56308,Douglas County,MN,69.16299559471366
56359,Mille Lacs County,MN,87.59177679882526
56379,Benton County,MN,51.34605971610377
56431,Aitkin County,MN,62.94664708761625
56470,Hubbard County,MN,84.75281448849731
56472,Crow Wing County,MN,60.76847772883015
56520,Wilkin County,MN,68.84483602545276
56529,Clay County,MN,83.6759667156143
56560,Clay County,MN,28.952520802741066
56572,Otter Tail County,MN,97.82183064121391
56601,Beltrami County,MN,16.39745472344591
56763,Roseau County,MN,94.90944689182574
38632,DeSoto County,MS,38.497307880567796
38637,DeSoto County,MS,36.93098384728341
38652,Union County,MS,68.28193832599119
38655,Lafayette County,MS,61.160058737151246
38671,DeSoto County,MS,21.659324522760645
38732,Bolivar County,MS,25.991189427312776
38843,Itawamba County,MS,67.93930494371023
39047,Rankin County,MS,41.33627019089574
39074,Scott County,MS,25.819872736172293
39114,Simpson County,MS,71.1453744493392
39117,Scott County,MS,40.62652961331376
39157,Madison County,MS,57.9295154185022
39160,Attala County,MS,99.68184043073911
39180,Warren County,MS,30.641213901125795
39213,Hinds County,MS,23.22564855604503
39452,George County,MS,15.565345080763581
39475,Lamar County,MS,91.18942731277532
39503,Harrison County,MS,4.7968673519334315
39645,Amite County,MS,88.49730788056779
63017,St. Louis County,MO,82.20753793441018
63031,St. Louis County,MO,9.61820851688693
63044,St. Louis County,MO,91.50758688203622
63050,Jefferson County,MO,65.49192364170338
63106,St. Louis city,MO,68.69799314733235
63112,St. Louis city,MO,41.33627019089574
63113,St. Louis city,MO,82.52569750367107
63116,St. Louis city,MO,58.19872736172296
63121,St. Louis County,MO,18.232990699951053
63122,St. Louis County,MO,47.57709251101321
63125,St. Louis County,MO,29.7846304454234
63126,St. Louis County,MO,83.6759667156143
63128,St. Louis County,MO,65.29613313754284
63136,St. Louis County,MO,3.108174253548703
63138,St. Louis County,MO,39.94126284875183
63141,St. Louis County,MO,73.7151248164464
63146,St. Louis County,MO,72.88301517376408
63147,St. Louis city,MO,47.52814488497308
63301,St. Charles County,MO,7.097405775819873
63367,St. Charles County,MO,45.717082721488005
63376,St. Charles County,MO,4.576603034752814
63401,Marion County,MO,35.193343122858536
63501,Adair County,MO,61.03768967205091
63640,St. Francois County,MO,63.16691140479686
63755,Cape Girardeau County,MO,53.40186000978952
63775,Perry County,MO,24.008810572687224
63780,Scott County,MO,77.72883015173764
63801,Scott County,MO,44.395496818404304
63873,New Madrid County,MO,92.75575134605971
64012,Cass County,MO,16.47087616250612
64024,Clay County,MO,9.838472834067549
64029,Jackson County,MO,26.994615761135588
64050,Jackson County,MO,8.3210964268233
64052,Jackson County,MO,4.723445912873226
64055,Jackson County,MO,19.383259911894275
64057,Jackson County,MO,30.812530592266274
64068,Clay County,MO,21.512481644640236
64078,Cass County,MO,59.05531081742536
64081,Jackson County,MO,33.70044052863436
64082,Jackson County,MO,86.58835046500245
64085,Ray County,MO,38.30151737640725
64086,Jackson County,MO,22.540381791483114
64108,Jackson County,MO,49.09446891825747
64110,Jackson County,MO,23.690651003426332
64114,Jackson County,MO,23.568281938325992
64118,Clay County,MO,31.399902104747916
64119,Clay County,MO,25.45276554087127
64124,Jackson County,MO,87.98335780714636
64127,Jackson County,MO,2.4229074889867843
64131,Jackson County,MO,31.767009300048947
64132,Jackson County,MO,8.12530592266275
64134,Jackson County,MO,6.5834557023984335
64137,Jackson County,MO,67.52325012236906
64138,Jackson County,MO,5.408712677435144
64151,Platte County,MO,82.62359275575135
64152,Platte County,MO,10.915320606950562
64155,Clay County,MO,88.10572687224669
64157,Clay County,MO,75.08565834557024
64424,Harrison County,MO,84.33675966715614
64465,Clinton County,MO,88.37493881546746
64485,Andrew County,MO,53.524229074889874
64501,Buchanan County,MO,80.49437102300539
64506,Buchanan County,MO,10.401370533529123
64633,Carroll County,MO,94.81155163974547
64804,Jasper County,MO,9.32452276064611
64844,Newton County,MO,96.0352422907489
65340,Saline County,MO,22.93196279980421
65613,Polk County,MO,46.15761135584924
65704,Wright County,MO,96.8918257464513
65708,Barry County,MO,59.54478707782672
65711,Wright County,MO,83.77386196769456
65806,Greene County,MO,77.16593245227607
59102,Yellowstone County,MT,66.54429760156633
59105,Yellowstone County,MT,81.91385217816935
59601,Lewis and Clark County,MT,65.93245227606461
59635,Lewis and Clark County,MT,90.18600097895252
59718,Gallatin County,MT,76.65198237885463
59804,Missoula County,MT,96.25550660792952
68008,Washington County,NE,95.34997552618698
68022,Douglas County,NE,66.05482134116495
68025,Dodge County,NE,23.07880567792462
68048,Cass County,NE,87.83651492902594
68104,Douglas County,NE,67.47430249632893
68105,Douglas County,NE,59.54478707782672
68107,Douglas County,NE,39.32941752325012
68108,Douglas County,NE,63.95007342143906
68111,Douglas County,NE,11.45374449339207
68112,Douglas County,NE,76.23592755751346
68116,Douglas County,NE,80.02936857562408
68127,Douglas County,NE,58.2476749877631
68128,Sarpy County,NE,74.59618208516888
68131,Douglas County,NE,94.86049926578562
68132,Douglas County,NE,67.93930494371023
68136,Sarpy County,NE,78.04698972099852
68144,Douglas County,NE,58.76162506118453
68154,Douglas County,NE,77.82672540381792
68164,Douglas County,NE,65.14929025942241
68310,Gage County,NE,83.57807146353402
68502,Lancaster County,NE,60.62163485070974
68504,Lancaster County,NE,72.3935389133627
68510,Lancaster County,NE,71.8551150269212
68516,Lancaster County,NE,56.999510523739595
68521,Lancaster County,NE,51.59079784630446
68701,Madison County,NE,38.59520313264807
68776,Dakota County,NE,73.59275575134606
69301,Box Butte County,NE,60.25452765540871
69341,Scotts Bluff County,NE,86.27019089574156
89101,Clark County,NV,50.63631913852178
89102,Clark County,NV,85.5359765051395
89103,Clark County,NV,74.52276064610867
89104,Clark County,NV,26.138032305433185
89107,Clark County,NV,73.51933431228585
89108,Clark County,NV,43.22075379344102
89109,Clark County,NV,94.640234948605
89110,Clark County,NV,61.111111111111114
89115,Clark County,NV,75.01223690651003
89117,Clark County,NV,22.27116984826236
89121,Clark County,NV,16.691140479686737
89128,Clark County,NV,38.839941262848754
89129,Clark County,NV,35.90308370044053
89134,Clark County,NV,75.2814488497308
89139,Clark County,NV,68.84483602545276
89141,Clark County,NV,90.43073910915321
89146,Clark County,NV,74.79197258932942
89147,Clark County,NV,63.729809104258436
89148,Clark County,NV,33.45570239843367
89169,Clark County,NV,41.972589329417524
89178,Clark County,NV,64.78218306412138
89406,Churchill County,NV,28.43857072931963
89408,Lyon County,NV,24.938815467449828
89431,Washoe County,NV,12.530592266275086
89433,Washoe County,NV,27.239353891336272
89434,Washoe County,NV,30.983847283406757
89502,Washoe County,NV,60.71953010279001
89509,Washoe County,NV,38.1057268722467
89512,Washoe County,NV,8.761625061184533
89521,Washoe County,NV,38.05677924620656
89523,Washoe County,NV,75.03671071953009
89701,Carson City,NV,26.456191874694078
89706,Carson City,NV,50.51395007342144
89801,Elko County,NV,83.72491434165443
03038,Rockingham County,NH,6.534508076358296
03051,Hillsborough County,NH,13.362701908957417
03060,Hillsborough County,NH,2.692119432207538
03063,Hillsborough County,NH,31.522271169848263
03076,Hillsborough County,NH,32.623592755751346
03077,Rockingham County,NH,61.64953499755262
03103,Hillsborough County,NH,15.712187958883995
03220,Belknap County,NH,86.5394028389623
03766,Grafton County,NH,90.47968673519334
03833,Rockingham County,NH,78.51199216837983
03865,Rockingham County,NH,56.24082232011748
03878,Strafford County,NH,76.16250611845325
07004,Essex County,NJ,94.98286833088595
07005,Morris County,NJ,21.365638766519822
07006,Essex County,NJ,50.195790504160556
07008,Middlesex County,NJ,15.540871267743514
07009,Essex County,NJ,74.5717082721488
07011,Passaic County,NJ,9.765051395007342
07017,Essex County,NJ,0.5139500734214391
07023,Union County,NJ,95.22760646108664
07026,Bergen County,NJ,8.296622613803232
07033,Union County,NJ,91.11600587371512
07044,Essex County,NJ,97.23445912873225
07046,Morris County,NJ,98.55604503181596
07047,Hudson County,NJ,14.12139011257954
07052,Essex County,NJ,8.051884483602546
07071,Bergen County,NJ,57.24424865394029
07080,Middlesex County,NJ,45.93734703866863
07083,Union County,NJ,8.663729809104257
07093,Hudson County,NJ,2.5452765540871267
07106,Essex County,NJ,1.8355359765051396
07109,Essex County,NJ,7.684777288301517
07204,Union County,NJ,90.92021536955458
07416,Sussex County,NJ,82.99069995105238
07452,Bergen County,NJ,97.96867351933432
07458,Bergen County,NJ,90.03915810083211
07461,Sussex County,NJ,27.606461086637296
07470,Passaic County,NJ,8.932941752325013
07508,Passaic County,NJ,17.79246206558982
07643,Bergen County,NJ,75.72197748409202
07704,Monmouth County,NJ,97.25893294175233
07712,Monmouth County,NJ,0.9300048947626041
07716,Monmouth County,NJ,88.47283406754772
07724,Monmouth County,NJ,16.32403328438571
07726,Monmouth County,NJ,18.60009789525208
07728,Monmouth County,NJ,8.100832109642681
07740,Monmouth County,NJ,2.838962310327949
07748,Monmouth County,NJ,17.91483113069016
07753,Monmouth County,NJ,2.080274106705825
07823,Warren County,NJ,55.65345080763583
07850,Morris County,NJ,70.94958394517866
07860,Sussex County,NJ,15.7856093979442
07901,Union County,NJ,67.37640724424865
07945,Morris County,NJ,90.52863436123349
07950,Morris County,NJ,81.00832109642683
07960,Morris County,NJ,59.936368086147816
08003,Camden County,NJ,48.31130690161527
08010,Burlington County,NJ,38.54625550660793
08016,Burlington County,NJ,9.862946647087616
08021,Camden County,NJ,4.331864904552129
08031,Camden County,NJ,63.754282917278516
08033,Camden County,NJ,56.999510523739595
08035,Camden County,NJ,88.86441507586882
08036,Burlington County,NJ,84.28781204111601
08051,Gloucester County,NJ,48.042094958394514
08052,Burlington County,NJ,16.837983357807147
08053,Burlington County,NJ,14.929025942241802
08057,Burlington County,NJ,50.122369065100344
08062,Gloucester County,NJ,24.44933920704846
08085,Gloucester County,NJ,13.974547234459129
08086,Gloucester County,NJ,66.81350954478708
08094,Gloucester County,NJ,2.520802741067058
08097,Gloucester County,NJ,98.94762604013705
08103,Camden County,NJ,1.7131669114047967
08105,Camden County,NJ,3.768967205090553
08108,Camden County,NJ,51.41948115516397
08109,Camden County,NJ,10.768477728830153
08110,Camden County,NJ,7.072931962799804
08234,Atlantic County,NJ,1.4439549681840431
08330,Atlantic County,NJ,50.930004894762604
08360,Cumberland County,NJ,0.12236906510034262
08540,Mercer County,NJ,25.23250122369065
08618,Mercer County,NJ,0.14684287812041116
08638,Mercer County,NJ,5.751346059716104
08690,Mercer County,NJ,65.46744982868331
08701,Ocean County,NJ,9.397944199706314
08753,Ocean County,NJ,0.6852667645619187
08759,Ocean County,NJ,4.845814977973569
08865,Warren County,NJ,1.811062163485071
08872,Middlesex County,NJ,44.860499265785606
87004,Sandoval County,NM,65.14929025942241
87031,Valencia County,NM,80.61674008810573
87105,Bernalillo County,NM,11.551639745472345
87106,Bernalillo County,NM,62.383749388154676
87108,Bernalillo County,NM,2.6676456191874696
87109,Bernalillo County,NM,9.544787077826726
87110,Bernalillo County,NM,5.628976994615761
87114,Bernalillo County,NM,20.827214880078316
87120,Bernalillo County,NM,4.1116005873715125
87121,Bernalillo County,NM,42.951541850220266
87123,Bernalillo County,NM,6.2897699461576115
87124,Sandoval County,NM,26.382770435633873
87144,Sandoval County,NM,40.822320117474305
87313,McKinley County,NM,71.75721977484092
87401,San Juan County,NM,9.373470386686247
87410,San Juan County,NM,55.531081742535484
87417,San Juan County,NM,98.13999021047479
87420,San Juan County,NM,52.74106705824767
87505,Santa Fe County,NM,30.151737640724424
87507,Santa Fe County,NM,21.047479197258934
87544,Los Alamos County,NM,81.03279490944689
87701,San Miguel County,NM,37.787567302985806
87740,Colfax County,NM,78.31620166421929
88001,Doa Ana County,NM,48.72736172295644
88005,Doa Ana County,NM,65.49192364170338
88007,Doa Ana County,NM,46.05971610376896
88011,Doa Ana County,NM,41.727851199216836
88012,Doa Ana County,NM,22.148800783162017
88021,Doa Ana County,NM,68.57562408223201
88063,Doa Ana County,NM,61.64953499755262
88101,Curry County,NM,4.185022026431718
88130,Roosevelt County,NM,57.415565345080765
88203,Chaves County,NM,39.8923152227117
88220,Eddy County,NM,12.26138032305433
88242,Lea County,NM,70.1419481155164
88260,Lea County,NM,27.87567302985805
88352,Otero County,NM,79.56436612824278
10003,New York County,NY,86.49045521292217
10007,New York County,NY,99.82868330885952
10013,New York County,NY,79.09936368086147
10014,New York County,NY,81.47332354380814
10016,New York County,NY,59.1776798825257
10022,New York County,NY,77.72883015173764
10023,New York County,NY,36.44150758688204
10024,New York County,NY,41.94811551639746
10029,New York County,NY,14.072442486539401
10030,New York County,NY,44.713656387665196
10031,New York County,NY,41.018110621634854
10033,New York County,NY,35.095447870778266
10040,New York County,NY,94.7136563876652
10065,New York County,NY,85.26676456191875
10302,Richmond County,NY,89.52520802741067
10303,Richmond County,NY,62.6774351443955
10304,Richmond County,NY,31.22858541360744
10306,Richmond County,NY,10.572687224669604
10451,Bronx County,NY,9.128732256485561
10452,Bronx County,NY,33.7493881546745
10453,Bronx County,NY,16.886930983847286
10454,Bronx County,NY,16.76456191874694
10455,Bronx County,NY,1.5418502202643172
10456,Bronx County,NY,8.712677435144396
10457,Bronx County,NY,14.855604503181596
10458,Bronx County,NY,28.365149290259424
10459,Bronx County,NY,57.146353401860004
10460,Bronx County,NY,6.265296133137543
10462,Bronx County,NY,16.44640234948605
10463,Bronx County,NY,19.309838472834066
10466,Bronx County,NY,27.728830151737643
10467,Bronx County,NY,29.980420949583948
10468,Bronx County,NY,4.552129221732746
10469,Bronx County,NY,9.81399902104748
10472,Bronx County,NY,53.08370044052864
10541,Putnam County,NY,84.6059716103769
10550,Westchester County,NY,14.806656877141458
10580,Westchester County,NY,95.6436612824278
10701,Westchester County,NY,0.34263338228095935
10705,Westchester County,NY,4.233969652471855
10952,Rockland County,NY,85.78071463534019
10970,Rockland County,NY,97.06314243759178
10977,Rockland County,NY,73.34801762114537
11105,Queens County,NY,49.04552129221732
11205,Kings County,NY,28.634361233480178
11206,Kings County,NY,0.7097405775819873
11207,Kings County,NY,13.925599608418992
11208,Kings County,NY,3.524229074889868
11210,Kings County,NY,88.54625550660793
11211,Kings County,NY,76.08908467939305
11212,Kings County,NY,38.277043563387174
11213,Kings County,NY,77.5330396475771
11214,Kings County,NY,69.23641703377386
11219,Kings County,NY,30.102790014684288
11220,Kings County,NY,1.1992168379833579
11223,Kings County,NY,11.869799314733235
11224,Kings County,NY,39.47626040137053
11226,Kings County,NY,61.50269211943221
11230,Kings County,NY,34.82623592755751
11231,Kings County,NY,28.707782672540382
11233,Kings County,NY,73.15222711698482
11234,Kings County,NY,40.55310817425355
11236,Kings County,NY,11.820851688693098
11360,Queens County,NY,96.98972099853157
11364,Queens County,NY,90.01468428781205
11365,Queens County,NY,37.273617229564366
11368,Queens County,NY,18.330885952031327
11370,Queens County,NY,70.85168869309838
11374,Queens County,NY,85.68281938325991
11420,Queens County,NY,69.84826235927557
11432,Queens County,NY,48.458149779735685
11435,Queens County,NY,5.139500734214391
11550,Nassau County,NY,89.42731277533039
11552,Nassau County,NY,92.63338228095938
11553,Nassau County,NY,87.39598629466471
11580,Nassau County,NY,78.75673029858052
11691,Queens County,NY,21.194322075379343
11704,Suffolk County,NY,76.94566813509545
11706,Suffolk County,NY,12.971120900636318
11725,Suffolk County,NY,81.30200685266765
11730,Suffolk County,NY,92.11943220753793
11738,Suffolk County,NY,82.08516886930984
11763,Suffolk County,NY,32.47674987763094
11767,Suffolk County,NY,95.88839941262849
11772,Suffolk County,NY,54.60107684777288
11779,Suffolk County,NY,62.94664708761625
11784,Suffolk County,NY,58.8595203132648
11787,Suffolk County,NY,93.41654429760156
12054,Albany County,NY,86.95545766030347
12110,Albany County,NY,67.81693587860988
12180,Rensselaer County,NY,0.46500244738130203
12189,Albany County,NY,27.704356338717574
12204,Albany County,NY,83.99412628487518
12206,Albany County,NY,11.16005873715125
12414,Greene County,NY,85.9275575134606
12534,Columbia County,NY,8.076358296622614
12550,Orange County,NY,54.69897209985316
12561,Ulster County,NY,89.64757709251101
12701,Sullivan County,NY,31.987273617229565
12754,Sullivan County,NY,73.54380812530592
12804,Warren County,NY,3.5487028879099367
12883,Essex County,NY,71.51248164464023
12901,Clinton County,NY,9.667156142927068
12921,Clinton County,NY,90.11257953989231
13021,Cayuga County,NY,1.0523739598629467
13027,Onondaga County,NY,6.999510523739598
13031,Onondaga County,NY,31.032794909446892
13032,Madison County,NY,20.704845814977972
13036,Oswego County,NY,48.11551639745472
13069,Oswego County,NY,2.0558002936857562
13088,Onondaga County,NY,68.99167890357317
13090,Onondaga County,NY,55.7513460597161
13104,Onondaga County,NY,40.23494860499266
13114,Oswego County,NY,48.38472834067547
13131,Oswego County,NY,86.88203622124327
13140,Cayuga County,NY,77.9246206558982
13142,Oswego County,NY,59.37347038668624
13148,Seneca County,NY,46.62261380323054
13204,Onondaga County,NY,5.48213411649535
13205,Onondaga County,NY,29.466470876162504
13209,Onondaga County,NY,33.84728340675478
13212,Onondaga County,NY,19.554576603034754
13308,Oneida County,NY,89.28046989721
13323,Oneida County,NY,59.1042584434655
13335,Otsego County,NY,88.13020068526677
13340,Herkimer County,NY,87.7141458639256
13734,Tioga County,NY,91.72785119921684
13790,Broome County,NY,4.062652961331375
13795,Broome County,NY,65.71218795888399
13803,Cortland County,NY,76.06461086637299
13815,Chenango County,NY,7.391091532060695
13820,Otsego County,NY,4.405286343612335
13838,Delaware County,NY,58.590308370044056
13850,Broome County,NY,8.61478218306412
13901,Broome County,NY,11.429270680372001
13905,Broome County,NY,5.726872246696035
14004,Erie County,NY,50.440528634361236
14006,Erie County,NY,57.73372491434166
14024,Wyoming County,NY,96.25550660792952
14031,Erie County,NY,78.48751835535977
14043,Erie County,NY,55.92266275085659
14048,Chautauqua County,NY,24.76749877630935
14051,Erie County,NY,28.5364659813999
14052,Erie County,NY,76.87224669603523
14075,Erie County,NY,56.093979441997064
14080,Erie County,NY,92.43759177679883
14085,Erie County,NY,78.38962310327949
14094,Niagara County,NY,43.61233480176212
14120,Niagara County,NY,1.6642192853646598
14127,Erie County,NY,33.13754282917279
14132,Niagara County,NY,54.20949583945178
14150,Erie County,NY,32.770435633871756
14201,Erie County,NY,35.144395496818404
14204,Erie County,NY,64.70876162506119
14206,Erie County,NY,51.664219285364666
14207,Erie County,NY,64.90455212922174
14208,Erie County,NY,17.523250122369067
14210,Erie County,NY,48.164464023494865
14211,Erie County,NY,41.483113069016156
14213,Erie County,NY,39.10915320606951
14214,Erie County,NY,19.62799804209496
14215,Erie County,NY,74.00881057268722
14216,Erie County,NY,80.2496328928047
14217,Erie County,NY,15.345080763582967
14218,Erie County,NY,10.230053842388644
14220,Erie County,NY,30.59226627508566
14221,Erie County,NY,48.213411649535
14223,Erie County,NY,17.131669114047966
14224,Erie County,NY,2.178169358786099
14225,Erie County,NY,3.7444933920704844
14226,Erie County,NY,52.56975036710719
14227,Erie County,NY,46.18208516886931
14228,Erie County,NY,34.09202153695546
14304,Niagara County,NY,13.46059716103769
14305,Niagara County,NY,2.15369554576603
14411,Orleans County,NY,16.372980910425845
14420,Monroe County,NY,8.345570239843369
14425,Ontario County,NY,9.446891825746452
14437,Livingston County,NY,31.25305922662751
14468,Monroe County,NY,71.04747919725894
14482,Genesee County,NY,39.72099853157122
14502,Wayne County,NY,16.495349975526185
14505,Wayne County,NY,51.83553597650514
14513,Wayne County,NY,1.9823788546255507
14519,Wayne County,NY,44.468918257464516
14550,Wyoming County,NY,97.20998531571219
14564,Ontario County,NY,10.621634850709741
14580,Monroe County,NY,2.7655408712677434
14586,Monroe County,NY,20.802741067058246
14607,Monroe County,NY,10.279001468428781
14609,Monroe County,NY,6.4610866372980915
14612,Monroe County,NY,18.844836025452764
14613,Monroe County,NY,62.04111600587372
14618,Monroe County,NY,9.006363191385217
14624,Monroe County,NY,20.97405775819873
14625,Monroe County,NY,35.193343122858536
14701,Chautauqua County,NY,35.97650513950074
14706,Cattaraugus County,NY,46.54919236417034
14710,Chautauqua County,NY,93.80812530592266
14739,Allegany County,NY,87.12677435144396
14760,Cattaraugus County,NY,4.47870778267254
14770,Cattaraugus County,NY,85.41360744003916
14775,Chautauqua County,NY,95.93734703866863
14787,Chautauqua County,NY,88.15467449828684
14801,Steuben County,NY,68.64904552129222
14810,Steuben County,NY,20.26431718061674
14830,Steuben County,NY,13.852178169358787
14843,Steuben County,NY,12.236906510034263
14883,Tioga County,NY,79.36857562408223
14892,Tioga County,NY,38.59520313264807
14895,Allegany County,NY,17.44982868330886
27012,Forsyth County,NC,18.893783651492903
27017,Surry County,NC,68.77141458639257
27020,Yadkin County,NC,61.60058737151248
27028,Davie County,NC,8.027410670582476
27030,Surry County,NC,16.984826235927557
27051,Forsyth County,NC,71.58590308370044
27104,Forsyth County,NC,17.98825256975037
27105,Forsyth County,NC,0.6363191385217817
27106,Forsyth County,NC,6.558981889378365
27107,Forsyth County,NC,1.49290259422418
27127,Forsyth County,NC,7.7337249143416535
27203,Randolph County,NC,16.005873715124817
27205,Randolph County,NC,28.43857072931963
27215,Alamance County,NC,4.527655408712677
27239,Davidson County,NC,58.54136074400391
27263,Randolph County,NC,31.42437591776799
27265,Guilford County,NC,11.037689672050906
27284,Forsyth County,NC,2.8144884973078805
27292,Davidson County,NC,1.5907978463044543
27298,Randolph County,NC,77.9980420949584
27306,Montgomery County,NC,64.26823299069994
27320,Rockingham County,NC,5.188448360254528
27330,Lee County,NC,43.8570729319628
27360,Davidson County,NC,1.2726382770435634
27401,Guilford County,NC,50.783162016642194
27403,Guilford County,NC,84.85070974057759
27405,Guilford County,NC,5.017131669114048
27406,Guilford County,NC,12.065589818893784
27410,Guilford County,NC,20.019579050416056
27510,Orange County,NC,79.3196279980421
27511,Wake County,NC,54.845814977973575
27519,Wake County,NC,36.44150758688204
27520,Johnston County,NC,20.460107684777288
27526,Wake County,NC,16.226138032305435
27536,Vance County,NC,17.27851199216838
27540,Wake County,NC,33.03964757709251
27557,Nash County,NC,89.15810083210964
27560,Wake County,NC,94.3220753793441
27587,Wake County,NC,12.60401370533529
27597,Wake County,NC,38.37493881546745
27604,Wake County,NC,21.316691140479687
27612,Wake County,NC,47.33235438081253
27613,Wake County,NC,71.58590308370044
27616,Wake County,NC,11.96769456681351
27703,Durham County,NC,46.64708761625061
27705,Durham County,NC,43.26970141948115
27707,Durham County,NC,28.781204111600587
27712,Durham County,NC,62.065589818893784
27801,Edgecombe County,NC,26.92119432207538
27809,Nash County,NC,95.83945178658834
27834,Pitt County,NC,18.037200195790504
27858,Pitt County,NC,67.30298580518846
27886,Edgecombe County,NC,23.98433675966716
27893,Wilson County,NC,32.59911894273127
27909,Pasquotank County,NC,6.412139011257954
27958,Currituck County,NC,85.26676456191875
28025,Cabarrus County,NC,25.305922662750856
28031,Mecklenburg County,NC,48.87420460107685
28034,Gaston County,NC,31.20411160058737
28054,Gaston County,NC,10.670582476749878
28056,Gaston County,NC,33.21096426823299
28078,Mecklenburg County,NC,19.995105237395986
28079,Union County,NC,35.11992168379833
28083,Cabarrus County,NC,18.086147821830643
28086,Cleveland County,NC,14.78218306412139
28104,Union County,NC,57.24424865394029
28105,Mecklenburg County,NC,79.2462065589819
28110,Union County,NC,12.848751835535976
28115,Iredell County,NC,62.35927557513461
28127,Stanly County,NC,92.11943220753793
28139,Rutherford County,NC,24.816446402349488
28144,Rowan County,NC,22.27116984826236
28147,Rowan County,NC,20.558002936857562
28152,Cleveland County,NC,24.88986784140969
28170,Anson County,NC,44.54233969652472
28205,Mecklenburg County,NC,11.30690161527166
28208,Mecklenburg County,NC,22.58932941752325
28210,Mecklenburg County,NC,41.067058247674986
28212,Mecklenburg County,NC,78.0714635340186
28213,Mecklenburg County,NC,15.761135584924132
28215,Mecklenburg County,NC,8.198727361722955
28216,Mecklenburg County,NC,22.834067547723937
28226,Mecklenburg County,NC,73.95986294664709
28269,Mecklenburg County,NC,6.7547723935389135
28270,Mecklenburg County,NC,49.706314243759174
28277,Mecklenburg County,NC,64.24375917767988
28278,Mecklenburg County,NC,49.38815467449829
28301,Cumberland County,NC,25.20802741067058
28303,Cumberland County,NC,43.63680861478218
28304,Cumberland County,NC,19.505628976994615
28306,Bladen County,NC,54.845814977973575
28311,Cumberland County,NC,14.561918746940774
28312,Cumberland County,NC,53.45080763582967
28314,Cumberland County,NC,19.11404796867352
28333,Wayne County,NC,53.524229074889874
28334,Sampson County,NC,16.544297601566324
28348,Cumberland County,NC,58.7126774351444
28351,Scotland County,NC,65.68771414586394
28352,Scotland County,NC,67.27851199216838
28376,Hoke County,NC,18.77141458639256
28377,Robeson County,NC,91.6054821341165
28386,Robeson County,NC,95.0318159569261
28401,New Hanover County,NC,4.698972099853157
28403,New Hanover County,NC,79.36857562408223
28411,New Hanover County,NC,24.302496328928047
28451,Brunswick County,NC,17.76798825256975
28458,Duplin County,NC,87.44493392070484
28461,Brunswick County,NC,30.298580518844837
28504,Lenoir County,NC,32.378854625550666
28532,Craven County,NC,61.42927068037201
28540,Onslow County,NC,15.516397454723446
28546,Onslow County,NC,15.394028389623104
28560,Craven County,NC,17.572197748409202
28562,Craven County,NC,27.484092021536956
28574,Onslow County,NC,58.29662261380323
28584,Carteret County,NC,68.0372001957905
28601,Catawba County,NC,31.497797356828194
28607,Watauga County,NC,72.95643661282428
28609,Catawba County,NC,81.15516397454724
28612,Burke County,NC,53.40186000978952
28621,Surry County,NC,89.0357317670093
28630,Caldwell County,NC,21.047479197258934
28655,Burke County,NC,31.938325991189426
28659,Wilkes County,NC,12.187958883994126
28677,Iredell County,NC,8.492413117963778
28681,Alexander County,NC,61.160058737151246
28697,Wilkes County,NC,52.59422418012727
28712,Transylvania County,NC,37.787567302985806
28732,Henderson County,NC,63.68086147821831
28734,Macon County,NC,35.56045031815957
28779,Jackson County,NC,45.766030347528144
28786,Haywood County,NC,23.176700930004895
28789,Jackson County,NC,84.53255017131669
28791,Henderson County,NC,71.1453744493392
28792,Henderson County,NC,19.848262359275576
28801,Buncombe County,NC,89.10915320606951
58078,Cass County,ND,67.47430249632893
58103,Cass County,ND,2.912383749388155
58104,Cass County,ND,72.73617229564367
58503,Burleigh County,ND,21.41458639255996
58538,Sioux County,ND,96.37787567302986
58554,Morton County,ND,24.082232011747433
58701,Ward County,ND,4.65002447381302
58703,Ward County,ND,65.34508076358296
43004,Franklin County,OH,28.756730298580518
43016,Franklin County,OH,50.3915810083211
43017,Franklin County,OH,50.63631913852178
43023,Licking County,OH,85.6093979441997
43025,Licking County,OH,90.65100342633382
43026,Franklin County,OH,11.355849241311796
43028,Knox County,OH,90.87126774351444
43035,Delaware County,OH,63.85217816935879
43054,Franklin County,OH,73.88644150758688
43055,Licking County,OH,62.212432697014194
43056,Licking County,OH,25.33039647577093
43062,Licking County,OH,58.56583455702399
43068,Franklin County,OH,23.543808125305922
43078,Champaign County,OH,21.73274596182085
43081,Franklin County,OH,13.044542339696525
43082,Delaware County,OH,80.1762114537445
43085,Franklin County,OH,83.16201664219285
43105,Fairfield County,OH,76.82329906999512
43110,Franklin County,OH,13.77875673029858
43113,Pickaway County,OH,30.837004405286343
43119,Franklin County,OH,14.145863925599608
43130,Fairfield County,OH,5.555555555555555
43138,Hocking County,OH,18.551150269211945
43147,Fairfield County,OH,14.219285364659815
43160,Fayette County,OH,6.705824767498776
43202,Franklin County,OH,71.75721977484092
43206,Franklin County,OH,49.75526186979932
43207,Franklin County,OH,39.20704845814978
43209,Franklin County,OH,36.19676945668135
43211,Franklin County,OH,46.426823299069994
43213,Franklin County,OH,23.07880567792462
43214,Franklin County,OH,36.368086147821835
43215,Franklin County,OH,26.603034752814487
43219,Franklin County,OH,67.86588350465003
43221,Franklin County,OH,56.75477239353891
43223,Franklin County,OH,32.966226138032305
43224,Franklin County,OH,15.418502202643172
43228,Franklin County,OH,1.1747430249632893
43229,Franklin County,OH,49.65736661771904
43230,Franklin County,OH,8.61478218306412
43231,Franklin County,OH,33.23543808125306
43232,Franklin County,OH,11.64953499755262
43235,Franklin County,OH,32.378854625550666
43302,Marion County,OH,0.4405286343612335
43314,Marion County,OH,98.99657366617718
43334,Morrow County,OH,68.57562408223201
43465,Wood County,OH,73.27459618208518
43466,Wood County,OH,98.6784140969163
43537,Lucas County,OH,17.30298580518845
43567,Fulton County,OH,36.68624571708272
43570,Williams County,OH,99.24131179637787
43606,Lucas County,OH,9.030837004405285
43607,Lucas County,OH,15.932452276064609
43608,Lucas County,OH,20.94958394517866
43609,Lucas County,OH,29.515418502202646
43612,Lucas County,OH,1.5663240332843857
43613,Lucas County,OH,24.326970141948117
43614,Lucas County,OH,4.894762604013706
43615,Lucas County,OH,10.548213411649535
43616,Lucas County,OH,29.393049437102302
43623,Lucas County,OH,15.834557023984337
43701,Muskingum County,OH,0.09789525208027411
43713,Belmont County,OH,48.92315222711699
43725,Guernsey County,OH,7.856093979441997
43731,Perry County,OH,63.68086147821831
43777,Muskingum County,OH,90.16152716593245
43830,Muskingum County,OH,68.69799314733235
43845,Coshocton County,OH,52.251590797846305
43938,Jefferson County,OH,39.67205090553108
43952,Jefferson County,OH,3.2305433186490458
44001,Lorain County,OH,17.351933431228588
44004,Ashtabula County,OH,7.831620166421928
44012,Lorain County,OH,22.41801272638277
44024,Geauga County,OH,33.55359765051395
44041,Ashtabula County,OH,30.641213901125795
44052,Lorain County,OH,8.883994126284875
44053,Lorain County,OH,3.352912383749388
44054,Lorain County,OH,23.592755751346058
44055,Lorain County,OH,41.99706314243759
44067,Summit County,OH,58.467939304943705
44070,Cuyahoga County,OH,13.313754282917278
44077,Lake County,OH,1.1502692119432207
44103,Cuyahoga County,OH,3.8913362701908953
44105,Cuyahoga County,OH,33.724914341654426
44106,Cuyahoga County,OH,45.69260890846794
44110,Cuyahoga County,OH,4.16054821341165
44111,Cuyahoga County,OH,0.31815956926089084
44114,Cuyahoga County,OH,20.06852667645619
44118,Cuyahoga County,OH,5.4331864904552125
44120,Cuyahoga County,OH,22.858541360744002
44121,Cuyahoga County,OH,22.687224669603523
44126,Cuyahoga County,OH,38.81546744982868
44129,Cuyahoga County,OH,32.13411649534997
44130,Cuyahoga County,OH,13.142437591776797
44135,Cuyahoga County,OH,0.9544787077826725
44137,Cuyahoga County,OH,2.227116984826236
44139,Cuyahoga County,OH,29.09936368086148
44146,Cuyahoga County,OH,2.594224180127264
44203,Summit County,OH,2.3494860499265786
44212,Medina County,OH,9.887420460107684
44221,Summit County,OH,7.660303475281449
44224,Summit County,OH,62.65296133137542
44236,Summit County,OH,87.00440528634361
44240,Portage County,OH,16.6421928536466
44256,Medina County,OH,11.625061184532552
44266,Portage County,OH,22.22222222222222
44270,Wayne County,OH,50.95447870778267
44301,Summit County,OH,19.016152716593247
44305,Summit County,OH,7.268722466960352
44310,Summit County,OH,4.8213411649535
44312,Summit County,OH,7.513460597161038
44314,Summit County,OH,15.907978463044541
44319,Summit County,OH,72.17327459618208
44446,Trumbull County,OH,6.828193832599119
44471,Mahoning County,OH,42.80469897209985
44485,Trumbull County,OH,9.251101321585903
44514,Mahoning County,OH,35.85413607440039
44601,Stark County,OH,2.9613313754282915
44632,Stark County,OH,77.72883015173764
44646,Stark County,OH,4.136074400391581
44654,Holmes County,OH,74.66960352422907
44662,Stark County,OH,66.47087616250612
44667,Wayne County,OH,53.866862457170825
44709,Stark County,OH,63.06901615271659
44720,Stark County,OH,17.498776309348997
44811,Sandusky County,OH,19.897209985315712
44820,Crawford County,OH,12.799804209495838
44857,Huron County,OH,44.199706314243755
44883,Seneca County,OH,9.593734703866863
44904,Richland County,OH,72.88301517376408
44905,Richland County,OH,91.94811551639745
44906,Richland County,OH,83.48017621145375
45005,Warren County,OH,56.85266764561919
45011,Butler County,OH,8.272148800783162
45013,Butler County,OH,1.1013215859030838
45014,Butler County,OH,53.69554576603035
45036,Warren County,OH,11.527165932452275
45044,Butler County,OH,14.757709251101323
45065,Warren County,OH,93.58786098874205
45069,Butler County,OH,13.215859030837004
45102,Clermont County,OH,23.88644150758688
45103,Clermont County,OH,16.152716593245227
45106,Clermont County,OH,37.3225648556045
45121,Brown County,OH,87.02887909936368
45123,Highland County,OH,53.79344101811062
45150,Clermont County,OH,59.81399902104748
45154,Brown County,OH,72.09985315712188
45171,Brown County,OH,80.61674008810573
45202,Hamilton County,OH,11.233480176211454
45204,Hamilton County,OH,80.42094958394517
45211,Hamilton County,OH,4.013705335291238
45212,Hamilton County,OH,71.5369554576603
45215,Hamilton County,OH,14.733235438081252
45216,Hamilton County,OH,45.766030347528144
45220,Hamilton County,OH,92.29074889867842
45225,Hamilton County,OH,84.6793930494371
45231,Hamilton County,OH,20.09300048947626
45232,Hamilton County,OH,67.93930494371023
45233,Hamilton County,OH,67.69456681350955
45236,Hamilton County,OH,74.32697014194811
45238,Hamilton County,OH,7.195301027900147
45240,Hamilton County,OH,15.27165932452276
45248,Hamilton County,OH,42.65785609397944
45320,Preble County,OH,27.826725403817914
45324,Greene County,OH,4.30739109153206
45342,Montgomery County,OH,5.163974547234459
45347,Preble County,OH,68.99167890357317
45365,Shelby County,OH,5.7758198727361725
45368,Clark County,OH,88.22809593734704
45373,Miami County,OH,17.327459618208515
45385,Greene County,OH,5.506607929515418
45402,Montgomery County,OH,43.56338717572198
45403,Montgomery County,OH,77.28830151737641
45406,Montgomery County,OH,54.33186490455213
45424,Montgomery County,OH,4.943710230053842
45439,Montgomery County,OH,39.158100832109646
45503,Clark County,OH,38.32599118942731
45601,Ross County,OH,2.2026431718061676
45638,Lawrence County,OH,1.7376407244248653
45645,Lawrence County,OH,91.6789035731767
45680,Lawrence County,OH,6.338717572197748
45690,Pike County,OH,36.02545276554087
45804,Allen County,OH,5.531081742535487
45805,Allen County,OH,6.705824767498776
45822,Mercer County,OH,60.352422907488986
45840,Hancock County,OH,0.7586882036221243
45872,Wood County,OH,80.61674008810573
45875,Putnam County,OH,85.78071463534019
73010,McClain County,OK,33.94517865883505
73013,Oklahoma County,OK,19.774840920215368
73018,Grady County,OK,68.25746451297113
73034,Oklahoma County,OK,17.205090553108175
73044,Logan County,OK,39.8188937836515
73052,Garvin County,OK,91.31179637787568
73071,Cleveland County,OK,13.754282917278513
73075,Garvin County,OK,81.54674498286833
73099,Canadian County,OK,51.93343122858541
73107,Oklahoma County,OK,40.773372491434166
73109,Oklahoma County,OK,53.989231522271176
73110,Oklahoma County,OK,10.107684777288302
73111,Oklahoma County,OK,54.11160058737151
73114,Oklahoma County,OK,43.0004894762604
73119,Oklahoma County,OK,13.240332843857072
73132,Oklahoma County,OK,43.22075379344102
73149,Oklahoma County,OK,98.36025452765541
73160,Cleveland County,OK,5.922662750856583
73443,Carter County,OK,90.92021536955458
73448,Love County,OK,78.95252080274106
73505,Comanche County,OK,44.51786588350465
73703,Garfield County,OK,40.52863436123348
73801,Woodward County,OK,52.93685756240822
74003,Osage County,OK,82.45227606461086
74010,Creek County,OK,95.20313264806657
74011,Tulsa County,OK,91.72785119921684
74017,Rogers County,OK,66.44640234948605
74019,Rogers County,OK,34.31228585413608
74023,Payne County,OK,55.11502692119432
74036,Rogers County,OK,65.95692608908467
74037,Tulsa County,OK,72.29564366128243
74055,Tulsa County,OK,41.65442976015663
74063,Tulsa County,OK,46.25550660792951
74066,Creek County,OK,54.40528634361234
74106,Tulsa County,OK,60.18110621634851
74110,Tulsa County,OK,96.54919236417034
74112,Tulsa County,OK,42.633382280959374
74115,Tulsa County,OK,79.09936368086147
74128,Tulsa County,OK,90.18600097895252
74132,Tulsa County,OK,95.88839941262849
74135,Tulsa County,OK,72.76064610866374
74137,Tulsa County,OK,70.5335291238375
74146,Tulsa County,OK,55.58002936857562
74361,Mayes County,OK,82.501223690651
74403,Muskogee County,OK,56.48556045031816
74432,McIntosh County,OK,76.30934899657366
74462,Haskell County,OK,89.84336759667157
74464,Cherokee County,OK,3.8423886441507586
74525,Atoka County,OK,80.20068526676457
74601,Kay County,OK,31.032794909446892
74631,Kay County,OK,92.97601566324033
74864,Lincoln County,OK,95.37444933920705
74884,Seminole County,OK,74.79197258932942
97008,Washington County,OR,46.426823299069994
97013,Clackamas County,OR,89.47626040137054
97026,Marion County,OR,99.87763093489966
97027,Clackamas County,OR,91.21390112579539
97030,Multnomah County,OR,36.53940283896231
97031,Hood River County,OR,60.37689672050905
97034,Clackamas County,OR,76.45619187469408
97038,Clackamas County,OR,58.3945178658835
97048,Columbia County,OR,86.19676945668135
97055,Clackamas County,OR,57.24424865394029
97060,Multnomah County,OR,29.368575624082233
97062,Washington County,OR,47.45472344591287
97068,Clackamas County,OR,55.996084189916786
97078,Washington County,OR,85.21781693587862
97113,Washington County,OR,61.62506118453255
97116,Washington County,OR,36.8575624082232
97123,Washington County,OR,11.576113558492414
97140,Washington County,OR,45.521292217327456
97206,Multnomah County,OR,6.975036710719531
97211,Multnomah County,OR,31.35095447870778
97212,Multnomah County,OR,53.94028389623104
97213,Multnomah County,OR,24.40039158100832
97218,Multnomah County,OR,64.29270680372002
97221,Multnomah County,OR,85.02202643171806
97222,Clackamas County,OR,52.37395986294665
97223,Washington County,OR,50.83210964268233
97225,Washington County,OR,87.73861967694567
97229,Washington County,OR,23.813020068526676
97230,Multnomah County,OR,64.17033773861968
97232,Multnomah County,OR,77.09251101321586
97233,Multnomah County,OR,8.737151248164464
97236,Multnomah County,OR,10.915320606950562
97266,Multnomah County,OR,55.041605482134116
97267,Clackamas County,OR,59.1776798825257
97301,Marion County,OR,6.1429270680372
97303,Marion County,OR,28.56093979441997
97317,Marion County,OR,63.82770435633872
97330,Benton County,OR,39.304943710230056
97362,Marion County,OR,97.25893294175233
97402,Lane County,OR,11.404796867351934
97404,Lane County,OR,79.02594224180127
97420,Coos County,OR,37.73861967694567
97423,Coos County,OR,85.97650513950073
97439,Lane County,OR,79.88252569750367
97471,Douglas County,OR,9.495839451786587
97478,Lane County,OR,25.526186979931474
97601,Klamath County,OR,36.661771904062654
97701,Deschutes County,OR,50.36710719530103
97702,Deschutes County,OR,66.59324522760646
97734,Jefferson County,OR,99.77973568281938
97741,Jefferson County,OR,66.3240332843857
97756,Deschutes County,OR,24.5717082721488
97838,Umatilla County,OR,70.92511013215858
15001,Beaver County,PA,11.502692119432208
15003,Beaver County,PA,93.00048947626041
15009,Beaver County,PA,68.15956926089085
15012,Westmoreland County,PA,50.34263338228095
15025,Allegheny County,PA,37.126774351443956
15033,Washington County,PA,88.6441507586882
15061,Beaver County,PA,80.59226627508565
15068,Westmoreland County,PA,39.01125795398923
15102,Allegheny County,PA,81.91385217816935
15106,Allegheny County,PA,46.1086637298091
15110,Allegheny County,PA,97.47919725893294
15132,Allegheny County,PA,27.165932452276063
15145,Allegheny County,PA,81.98727361722956
15201,Allegheny County,PA,48.31130690161527
15202,Allegheny County,PA,40.03915810083211
15204,Allegheny County,PA,56.142927068037196
15205,Allegheny County,PA,34.630445423396964
15206,Allegheny County,PA,71.12090063631913
15209,Allegheny County,PA,76.97014194811551
15210,Allegheny County,PA,7.97846304454234
15211,Allegheny County,PA,85.70729319627998
15214,Allegheny County,PA,42.02153695545766
15216,Allegheny County,PA,76.52961331375428
15224,Allegheny County,PA,72.05090553108174
15235,Allegheny County,PA,60.450318159569264
15236,Allegheny County,PA,83.52912383749388
15237,Allegheny County,PA,71.21879588839941
15241,Allegheny County,PA,66.86245717082721
15367,Washington County,PA,92.2173274596182
15370,Greene County,PA,38.570729319628
15401,Fayette County,PA,3.499755261869799
15601,Westmoreland County,PA,1.3950073421439062
15613,Westmoreland County,PA,55.090553108174255
15642,Westmoreland County,PA,12.677435144395496
15666,Westmoreland County,PA,72.98091042584434
15701,Indiana County,PA,12.187958883994126
15834,Cameron County,PA,57.146353401860004
15853,Elk County,PA,50.73421439060205
15902,Cambria County,PA,30.20068526676456
15905,Cambria County,PA,35.34018600097895
16001,Butler County,PA,24.131179637787568
16002,Butler County,PA,45.59471365638766
16059,Butler County,PA,96.69603524229075
16101,Lawrence County,PA,2.3984336759667158
16105,Lawrence County,PA,47.25893294175233
16125,Mercer County,PA,24.963289280469898
16145,Mercer County,PA,99.65736661771905
16148,Mercer County,PA,34.77728830151738
16201,Armstrong County,PA,19.92168379833578
16301,Venango County,PA,70.43563387175722
16323,Venango County,PA,40.23494860499266
16335,Crawford County,PA,4.919236417033774
16354,Crawford County,PA,57.635829662261386
16423,Erie County,PA,99.41262848751835
16428,Erie County,PA,77.58198727361723
16502,Erie County,PA,30.616740088105725
16505,Erie County,PA,60.86637298091042
16506,Erie County,PA,58.614782183064115
16510,Erie County,PA,61.820851688693104
16602,Blair County,PA,6.901615271659324
16678,Bedford County,PA,97.94419970631424
16686,Blair County,PA,47.47919725893294
16701,McKean County,PA,36.53940283896231
16749,McKean County,PA,89.64757709251101
16823,Centre County,PA,12.310327949094468
17013,Cumberland County,PA,41.43416544297602
17015,Cumberland County,PA,30.56779246206559
17020,Perry County,PA,74.645129711209
17022,Lancaster County,PA,9.153206069505629
17025,Cumberland County,PA,56.51003426333823
17033,Dauphin County,PA,55.43318649045521
17038,Lebanon County,PA,88.74204601076848
17046,Lebanon County,PA,4.2829172785119916
17050,Cumberland County,PA,13.264806656877143
17051,Mifflin County,PA,86.63729809104258
17055,Cumberland County,PA,17.62114537444934
17057,Dauphin County,PA,37.469407733724914
17103,Dauphin County,PA,26.57856093979442
17104,Dauphin County,PA,9.716103768967205
17112,Dauphin County,PA,9.348996573666177
17241,Cumberland County,PA,69.92168379833578
17257,Cumberland County,PA,13.852178169358787
17268,Franklin County,PA,36.612824278022515
17307,Adams County,PA,83.16201664219285
17331,York County,PA,37.20019579050416
17340,Adams County,PA,62.383749388154676
17356,York County,PA,18.306412139011258
17368,York County,PA,69.3587860988742
17370,York County,PA,96.5002447381302
17402,York County,PA,38.88888888888889
17403,York County,PA,0.9055310817425355
17404,York County,PA,5.457660303475281
17522,Lancaster County,PA,15.198237885462554
17543,Lancaster County,PA,13.925599608418992
17560,Lancaster County,PA,88.37493881546746
17701,Lycoming County,PA,12.824278022515909
17740,Lycoming County,PA,39.4273127753304
17751,Clinton County,PA,63.55849241311796
17801,Northumberland County,PA,11.380323054331864
17851,Northumberland County,PA,84.23886441507587
17856,Union County,PA,99.5349975526187
17857,Northumberland County,PA,56.43661282427802
17866,Northumberland County,PA,52.12922173274597
17921,Schuylkill County,PA,72.83406754772393
17948,Schuylkill County,PA,85.70729319627998
18011,Lehigh County,PA,87.59177679882526
18014,Northampton County,PA,30.298580518844837
18015,Northampton County,PA,3.671071953010279
18018,Lehigh County,PA,13.509544787077827
18034,Lehigh County,PA,79.76015663240334
18045,Northampton County,PA,60.67058247674988
18062,Lehigh County,PA,67.37640724424865
18066,Lehigh County,PA,94.00391581008321
18088,Northampton County,PA,58.10083210964269
18102,Lehigh County,PA,11.331375428291727
18103,Lehigh County,PA,2.1047479197258934
18202,Luzerne County,PA,34.850709740577585
18210,Carbon County,PA,66.59324522760646
18302,Monroe County,PA,40.7488986784141
18330,Monroe County,PA,84.14096916299559
18337,Pike County,PA,89.08467939304944
18411,Lackawanna County,PA,35.805188448360255
18447,Lackawanna County,PA,70.33773861967695
18466,Monroe County,PA,43.954968184043075
18505,Lackawanna County,PA,29.319627998042098
18603,Columbia County,PA,7.244248653940284
18634,Luzerne County,PA,30.396475770925107
18635,Luzerne County,PA,96.52471855115027
18640,Luzerne County,PA,30.029368575624083
18702,Luzerne County,PA,18.991678903573174
18707,Luzerne County,PA,46.25550660792951
18940,Bucks County,PA,50.95447870778267
18944,Bucks County,PA,42.04601076847773
19006,Montgomery County,PA,36.27019089574156
19010,Delaware County,PA,45.766030347528144
19012,Montgomery County,PA,85.87860988742047
19013,Delaware County,PA,39.158100832109646
19015,Delaware County,PA,24.64512971120901
19027,Montgomery County,PA,30.934899657366614
19050,Delaware County,PA,70.50905531081743
19053,Bucks County,PA,19.579050416054823
19063,Delaware County,PA,12.432697014194812
19064,Delaware County,PA,26.725403817914835
19072,Montgomery County,PA,57.611355849241306
19078,Delaware County,PA,55.31081742535488
19082,Delaware County,PA,5.066079295154185
19096,Montgomery County,PA,39.37836514929026
19104,Philadelphia County,PA,25.991189427312776
19107,Philadelphia County,PA,32.28095937347039
19111,Philadelphia County,PA,10.817425354870288
19114,Philadelphia County,PA,10.327949094468918
19115,Philadelphia County,PA,38.91336270190896
19116,Philadelphia County,PA,17.15614292706804
19122,Philadelphia County,PA,33.11306901615272
19124,Philadelphia County,PA,3.7200195790504162
19130,Philadelphia County,PA,25.819872736172293
19131,Philadelphia County,PA,15.834557023984337
19132,Philadelphia County,PA,2.276064610866373
19133,Philadelphia County,PA,33.259911894273124
19134,Philadelphia County,PA,9.520313264806656
19135,Philadelphia County,PA,32.84385707293197
19137,Philadelphia County,PA,55.40871267743515
19138,Philadelphia County,PA,29.0014684287812
19140,Philadelphia County,PA,8.174253548702888
19141,Philadelphia County,PA,3.4263338228095934
19142,Philadelphia County,PA,50.22026431718062
19143,Philadelphia County,PA,11.062163485070974
19144,Philadelphia County,PA,1.7865883504650026
19147,Philadelphia County,PA,9.985315712187958
19148,Philadelphia County,PA,40.84679393049437
19150,Philadelphia County,PA,20.43563387175722
19154,Philadelphia County,PA,8.565834557023983
19335,Chester County,PA,9.569260890846794
19341,Chester County,PA,93.78365149290259
19350,Chester County,PA,69.53010279001468
19352,Chester County,PA,84.50807635829662
19355,Chester County,PA,28.267254038179146
19380,Chester County,PA,5.677924620655898
19382,Chester County,PA,7.856093979441997
19403,Montgomery County,PA,38.15467449828683
19426,Montgomery County,PA,22.662750856583454
19454,Montgomery County,PA,30.73910915320607
19460,Chester County,PA,13.974547234459129
19504,Berks County,PA,93.93049437102302
19525,Montgomery County,PA,60.05873715124817
19540,Berks County,PA,66.3240332843857
19601,Berks County,PA,9.789525208027412
19604,Berks County,PA,5.580029368575625
19606,Berks County,PA,5.090553108174253
02816,Kent County,RI,16.666666666666664
02828,Providence County,RI,93.17180616740089
02840,Newport County,RI,29.7846304454234
02860,Providence County,RI,18.257464512971122
02879,Washington County,RI,58.93294175232501
02889,Kent County,RI,14.855604503181596
02891,Washington County,RI,45.98629466470876
02895,Providence County,RI,5.702398433675967
02916,Providence County,RI,93.22075379344102
02920,Providence County,RI,51.786588350465
29020,Kershaw County,SC,55.92266275085659
29047,Orangeburg County,SC,98.26235927557514
29053,Lexington County,SC,44.83602545276554
29067,Lancaster County,SC,82.13411649534997
29073,Lexington County,SC,43.73470386686245
29112,Orangeburg County,SC,95.32550171316691
29115,Orangeburg County,SC,24.351443954968182
29150,Sumter County,SC,23.592755751346058
29161,Florence County,SC,62.70190895741556
29168,Sumter County,SC,99.90210474791972
29169,Lexington County,SC,76.6030347528145
29170,Lexington County,SC,58.14977973568281
29203,Richland County,SC,25.501713166911404
29204,Richland County,SC,60.37689672050905
29205,Richland County,SC,69.99510523739599
29229,Richland County,SC,25.575134605971613
29302,Spartanburg County,SC,70.06852667645619
29306,Spartanburg County,SC,24.914341654429762
29316,Spartanburg County,SC,26.11355849241312
29323,Spartanburg County,SC,87.27361722956437
29325,Laurens County,SC,42.33969652471855
29335,Spartanburg County,SC,95.05628976994616
29340,Cherokee County,SC,63.21585903083701
29349,Spartanburg County,SC,47.72393538913363
29379,Union County,SC,21.047479197258934
29385,Spartanburg County,SC,94.17523250122369
29407,Charleston County,SC,26.651982378854626
29418,Charleston County,SC,26.529613313754286
29440,Georgetown County,SC,68.57562408223201
29445,Berkeley County,SC,46.96524718551151
29449,Charleston County,SC,80.7880567792462
29456,Dorchester County,SC,23.323543808125304
29472,Dorchester County,SC,75.89329417523251
29501,Florence County,SC,54.478707782672544
29505,Florence County,SC,36.172295643661286
29512,Marlboro County,SC,43.8570729319628
29527,Horry County,SC,71.43906020558003
29550,Darlington County,SC,64.36612824278023
29556,Williamsburg County,SC,52.47185511502692
29566,Horry County,SC,69.99510523739599
29569,Horry County,SC,69.08957415565345
29574,Marion County,SC,48.556045031815955
29579,Horry County,SC,42.290748898678416
29582,Horry County,SC,90.77337249143417
29585,Georgetown County,SC,87.02887909936368
29605,Greenville County,SC,65.83455702398435
29607,Greenville County,SC,17.08272148800783
29611,Greenville County,SC,6.387665198237885
29617,Greenville County,SC,59.1776798825257
29621,Anderson County,SC,90.5041605482134
29625,Anderson County,SC,55.62897699461576
29640,Pickens County,SC,43.906020558002936
29644,Greenville County,SC,39.598629466470875
29646,Greenwood County,SC,66.51982378854625
29650,Greenville County,SC,60.964268232990705
29651,Greenville County,SC,11.96769456681351
29661,Greenville County,SC,83.77386196769456
29673,Greenville County,SC,26.186979931473324
29678,Oconee County,SC,44.7870778267254
29680,Greenville County,SC,33.7493881546745
29681,Greenville County,SC,48.72736172295644
29687,Greenville County,SC,19.62799804209496
29689,Anderson County,SC,96.8918257464513
29691,Oconee County,SC,81.59569260890846
29697,Anderson County,SC,62.70190895741556
29706,Chester County,SC,21.78169358786099
29707,Lancaster County,SC,90.57758198727362
29710,York County,SC,77.6064610866373
29728,Chesterfield County,SC,73.88644150758688
29730,York County,SC,10.45031815956926
29732,York County,SC,20.09300048947626
29745,York County,SC,39.86784140969163
29801,Aiken County,SC,27.484092021536956
29829,Aiken County,SC,92.41311796377876
29841,Aiken County,SC,93.90602055800294
29851,Aiken County,SC,91.40969162995594
29860,Edgefield County,SC,91.11600587371512
29909,Beaufort County,SC,93.44101811062163
29910,Beaufort County,SC,86.3925599608419
29918,Hampton County,SC,99.19236417033774
57064,Lincoln County,SD,98.213411649535
57069,Clay County,SD,83.62701908957415
57077,Lincoln County,SD,99.97552618697993
57078,Yankton County,SD,60.62163485070974
57103,Minnehaha County,SD,64.68428781204112
57104,Minnehaha County,SD,71.31669114047968
57105,Minnehaha County,SD,33.65149290259423
57106,Minnehaha County,SD,83.4312285854136
57107,Minnehaha County,SD,98.45814977973568
57108,Lincoln County,SD,53.817914831130686
57110,Minnehaha County,SD,74.79197258932942
57201,Codington County,SD,70.94958394517866
57262,Roberts County,SD,99.33920704845815
57301,Davison County,SD,70.23984336759666
57311,Hanson County,SD,99.97552618697993
57339,Buffalo County,SD,99.0699951052374
57350,Beadle County,SD,44.49339207048458
57501,Hughes County,SD,62.70190895741556
57701,Pennington County,SD,10.499265785609397
57783,Lawrence County,SD,86.88203622124327
37013,Davidson County,TN,4.601076847772883
37027,Williamson County,TN,27.190406265296136
37034,Marshall County,TN,76.52961331375428
37040,Montgomery County,TN,14.390602055800294
37043,Montgomery County,TN,59.30004894762604
37055,Dickson County,TN,14.047968673519334
37058,Stewart County,TN,87.42046010768478
37075,Sumner County,TN,34.41018110621635
37076,Davidson County,TN,23.05433186490455
37086,Rutherford County,TN,34.483602545276554
37087,Wilson County,TN,36.24571708272149
37091,Marshall County,TN,61.918746940773374
37110,Warren County,TN,34.728340675477234
37128,Rutherford County,TN,16.91140479686735
37138,Davidson County,TN,38.91336270190896
37166,DeKalb County,TN,47.038668624571706
37167,Rutherford County,TN,69.06510034263337
37179,Williamson County,TN,82.64806656877141
37206,Davidson County,TN,21.75721977484092
37209,Davidson County,TN,20.09300048947626
37211,Davidson County,TN,40.112579539892316
37214,Davidson County,TN,48.825256975036716
37215,Davidson County,TN,91.6054821341165
37216,Davidson County,TN,35.144395496818404
37217,Davidson County,TN,29.344101811062163
37220,Davidson County,TN,94.78707782672541
37221,Davidson County,TN,56.63240332843857
37321,Rhea County,TN,17.719040626529615
37323,Bradley County,TN,63.87665198237885
37353,Bradley County,TN,97.62604013705335
37355,Coffee County,TN,22.540381791483114
37367,Bledsoe County,TN,53.30396475770925
37381,Rhea County,TN,78.38962310327949
37410,Hamilton County,TN,96.47577092511013
37601,Washington County,TN,8.95741556534508
37615,Washington County,TN,48.18893783651493
37620,Sullivan County,TN,6.167400881057269
37659,Washington County,TN,59.495839451786594
37663,Sullivan County,TN,60.13215859030837
37664,Sullivan County,TN,11.94322075379344
37686,Sullivan County,TN,78.63436123348018
37692,Unicoi County,TN,94.34654919236417
37709,Grainger County,TN,98.23788546255507
37716,Anderson County,TN,25.085658345570238
37745,Greene County,TN,15.418502202643172
37763,Roane County,TN,56.558981889378366
37803,Blount County,TN,20.72931962799804
37849,Knox County,TN,27.288301517376407
37857,Hawkins County,TN,21.855115026921194
37876,Sevier County,TN,21.708272148800784
37917,Knox County,TN,35.68281938325991
37919,Knox County,TN,75.30592266275086
37922,Knox County,TN,44.395496818404304
38012,Haywood County,TN,70.87616250611846
38017,Shelby County,TN,67.8903573176701
38018,Shelby County,TN,58.3945178658835
38024,Dyer County,TN,14.243759177679882
38052,Hardeman County,TN,97.11209006363191
38053,Shelby County,TN,70.46010768477728
38058,Tipton County,TN,86.19676945668135
38103,Shelby County,TN,95.05628976994616
38107,Shelby County,TN,29.19725893294175
38109,Shelby County,TN,5.310817425354871
38111,Shelby County,TN,12.579539892315223
38112,Shelby County,TN,91.06705824767499
38114,Shelby County,TN,13.191385217816936
38115,Shelby County,TN,13.6074400391581
38116,Shelby County,TN,9.911894273127754
38122,Shelby County,TN,75.40381791483112
38125,Shelby County,TN,75.25697503671071
38127,Shelby County,TN,43.04943710230054
38133,Shelby County,TN,69.84826235927557
38135,Shelby County,TN,74.42486539402839
38201,Carroll County,TN,71.63485070974059
38230,Weakley County,TN,98.16446402349486
38301,Madison County,TN,4.454233969652472
38315,McNairy County,TN,93.7102300538424
38340,Chester County,TN,54.62555066079295
38344,Carroll County,TN,63.50954478707783
38358,Gibson County,TN,45.521292217327456
38478,Giles County,TN,45.39892315222712
38501,Putnam County,TN,39.647577092511014
38506,Putnam County,TN,28.854625550660796
38555,Cumberland County,TN,26.749877630934897
38562,Jackson County,TN,81.76700930004894
38583,White County,TN,47.944199706314244
75002,Collin County,TX,63.240332843857075
75007,Denton County,TX,34.948604992657856
75009,Collin County,TX,81.15516397454724
75040,Dallas County,TX,36.93098384728341
75041,Dallas County,TX,31.42437591776799
75048,Dallas County,TX,63.60744003915811
75050,Dallas County,TX,29.637787567302986
75051,Dallas County,TX,29.393049437102302
75060,Dallas County,TX,28.658835046500247
75061,Dallas County,TX,73.07880567792462
75067,Denton County,TX,20.72931962799804
75068,Denton County,TX,19.725893294175233
75069,Collin County,TX,70.70484581497797
75070,Collin County,TX,8.443465491923643
75071,Collin County,TX,17.058247674987765
75074,Collin County,TX,41.60548213411649
75078,Collin County,TX,70.94958394517866
75092,Grayson County,TX,34.50807635829663
75093,Collin County,TX,35.90308370044053
75094,Collin County,TX,68.0372001957905
75098,Collin County,TX,43.66128242780225
75104,Dallas County,TX,45.5702398433676
75110,Navarro County,TX,29.88252569750367
75115,Dallas County,TX,13.093489965736662
75116,Dallas County,TX,91.21390112579539
75125,Ellis County,TX,94.10181106216349
75126,Kaufman County,TX,19.676945668135097
75146,Dallas County,TX,50.783162016642194
75149,Dallas County,TX,38.39941262848752
75150,Dallas County,TX,45.1786588350465
75154,Ellis County,TX,31.302006852667645
75159,Dallas County,TX,60.00978952520802
75169,Van Zandt County,TX,62.579539892315225
75181,Dallas County,TX,41.923641703377385
75203,Dallas County,TX,67.13166911404797
75211,Dallas County,TX,10.376896720509055
75216,Dallas County,TX,2.6186979931473324
75217,Dallas County,TX,3.9647577092511015
75220,Dallas County,TX,35.952031326480665
75227,Dallas County,TX,72.80959373470387
75228,Dallas County,TX,34.92413117963778
75231,Dallas County,TX,67.76798825256975
75232,Dallas County,TX,67.52325012236906
75235,Dallas County,TX,58.614782183064115
75238,Dallas County,TX,56.901615271659324
75243,Dallas County,TX,52.88790993636808
75244,Dallas County,TX,85.6093979441997
75252,Collin County,TX,56.33871757219775
75253,Dallas County,TX,97.13656387665198
75401,Hunt County,TX,45.08076358296623
75455,Titus County,TX,41.16495349975526
75474,Hunt County,TX,51.49290259422418
75501,Bowie County,TX,19.823788546255507
75503,Bowie County,TX,39.20704845814978
75602,Gregg County,TX,47.33235438081253
75603,Gregg County,TX,95.47234459128732
75605,Gregg County,TX,40.87126774351444
75672,Harrison County,TX,96.76945668135095
75701,Smith County,TX,23.27459618208517
75702,Smith County,TX,24.987763093489963
75704,Smith County,TX,79.68673519334313
75707,Smith County,TX,89.94126284875183
75708,Smith County,TX,89.64757709251101
75791,Smith County,TX,55.188448360254526
75801,Anderson County,TX,91.06705824767499
75803,Anderson County,TX,54.62555066079295
75835,Houston County,TX,57.635829662261386
75862,Trinity County,TX,83.89623103279492
75949,Angelina County,TX,99.95105237395985
75961,Nacogdoches County,TX,57.83162016642193
76001,Tarrant County,TX,42.82917278511992
76006,Tarrant County,TX,60.08321096426823
76009,Johnson County,TX,52.251590797846305
76010,Tarrant County,TX,36.53940283896231
76011,Tarrant County,TX,42.951541850220266
76014,Tarrant County,TX,36.27019089574156
76018,Tarrant County,TX,46.84287812041116
76021,Tarrant County,TX,22.41801272638277
76028,Johnson County,TX,5.335291238374939
76033,Johnson County,TX,24.253548702887908
76039,Tarrant County,TX,24.71855115026921
76048,Hood County,TX,30.88595203132648
76049,Hood County,TX,25.770925110132158
76052,Tarrant County,TX,76.89672050905531
76053,Tarrant County,TX,28.21830641213901
76063,Tarrant County,TX,7.562408223201175
76065,Ellis County,TX,27.630934899657365
76067,Palo Pinto County,TX,75.03671071953009
76102,Tarrant County,TX,63.901125795398926
76104,Tarrant County,TX,12.555066079295155
76105,Tarrant County,TX,10.719530102790015
76106,Tarrant County,TX,69.97063142437592
76107,Tarrant County,TX,28.928046989721
76108,Tarrant County,TX,26.333822809593734
76109,Tarrant County,TX,46.69603524229075
76110,Tarrant County,TX,30.494371023005385
76116,Tarrant County,TX,13.82770435633872
76119,Tarrant County,TX,53.499755261869794
76123,Tarrant County,TX,34.58149779735683
76126,Tarrant County,TX,67.52325012236906
76131,Tarrant County,TX,38.44836025452766
76132,Tarrant County,TX,53.25501713166911
76133,Tarrant County,TX,39.0357317670093
76134,Tarrant County,TX,16.054821341164953
76135,Tarrant County,TX,88.71757219774841
76137,Tarrant County,TX,11.64953499755262
76179,Tarrant County,TX,51.86000978952521
76180,Tarrant County,TX,64.43954968184043
76230,Montague County,TX,74.59618208516888
76240,Cooke County,TX,27.043563387175723
76244,Tarrant County,TX,67.22956436612824
76259,Denton County,TX,98.16446402349486
76262,Denton County,TX,82.59911894273128
76354,Wichita County,TX,74.13117963778757
76401,Erath County,TX,90.65100342633382
76446,Erath County,TX,96.37787567302986
76501,Bell County,TX,7.782672540381791
76504,Bell County,TX,45.49681840430739
76513,Bell County,TX,20.680372001957906
76542,Bell County,TX,7.464512971120901
76574,Williamson County,TX,37.2491434165443
76708,McLennan County,TX,34.58149779735683
76710,McLennan County,TX,75.30592266275086
76834,Coleman County,TX,92.55996084189917
76901,Tom Green County,TX,37.07782672540382
76903,Tom Green County,TX,64.61086637298091
76904,Tom Green County,TX,80.83700440528634
76932,Reagan County,TX,95.98629466470877
77004,Harris County,TX,16.96035242290749
77007,Harris County,TX,40.55310817425355
77009,Harris County,TX,33.40675477239354
77011,Harris County,TX,76.67645619187469
77013,Harris County,TX,81.54674498286833
77014,Harris County,TX,48.65394028389623
77015,Harris County,TX,27.09251101321586
77016,Harris County,TX,64.63534018600097
77017,Harris County,TX,76.16250611845325
77020,Harris County,TX,47.65051395007342
77022,Harris County,TX,43.954968184043075
77023,Harris County,TX,48.849730788056775
77025,Harris County,TX,85.07097405775819
77026,Harris County,TX,75.354870288791
77027,Harris County,TX,78.09593734703867
77028,Harris County,TX,37.787567302985806
77030,Harris County,TX,98.01762114537445
77032,Harris County,TX,75.99118942731278
77033,Harris County,TX,43.07391091532061
77034,Harris County,TX,77.90014684287812
77036,Harris County,TX,74.1801272638277
77038,Harris County,TX,91.38521781693588
77040,Harris County,TX,33.01517376407244
77043,Harris County,TX,75.15907978463045
77044,Harris County,TX,24.131179637787568
77048,Harris County,TX,87.17572197748409
77051,Harris County,TX,42.21732745961821
77053,Fort Bend County,TX,79.98042094958394
77055,Harris County,TX,47.50367107195301
77060,Harris County,TX,80.5677924620656
77062,Harris County,TX,49.265785609397945
77063,Harris County,TX,91.89916789035732
77069,Harris County,TX,82.13411649534997
77070,Harris County,TX,68.8203622124327
77072,Harris County,TX,42.143906020558006
77073,Harris County,TX,41.50758688203622
77074,Harris County,TX,70.7537934410181
77075,Harris County,TX,37.934410181106216
77076,Harris County,TX,42.070484581497794
77077,Harris County,TX,31.962799804209496
77080,Harris County,TX,93.09838472834068
77081,Harris County,TX,56.43661282427802
77082,Harris County,TX,84.97307880567793
77083,Harris County,TX,80.22515907978463
77084,Harris County,TX,28.12041116005874
77085,Harris County,TX,81.66911404796868
77086,Harris County,TX,92.02153695545766
77087,Harris County,TX,44.860499265785606
77088,Harris County,TX,71.90406265296133
77092,Harris County,TX,76.79882525697504
77093,Harris County,TX,29.7846304454234
77095,Harris County,TX,36.759667156142925
77301,Montgomery County,TX,44.34654919236417
77304,Montgomery County,TX,51.07684777288301
77316,Montgomery County,TX,67.32745961820852
77338,Harris County,TX,32.69701419481155
77339,Harris County,TX,46.01076847772883
77345,Harris County,TX,79.4664708761625
77346,Harris County,TX,42.46206558981889
77354,Montgomery County,TX,36.93098384728341
77355,Montgomery County,TX,47.8218306412139
77357,Montgomery County,TX,52.20264317180616
77372,Montgomery County,TX,85.1443954968184
77373,Harris County,TX,17.694566813509542
77375,Harris County,TX,43.26970141948115
77378,Montgomery County,TX,73.17670093000488
77379,Harris County,TX,15.075868820362212
77385,Montgomery County,TX,49.85315712187959
77388,Harris County,TX,32.32990699951052
77396,Harris County,TX,60.25452765540871
77407,Fort Bend County,TX,73.86196769456681
77414,Matagorda County,TX,32.45227606461087
77429,Harris County,TX,5.6045031815956925
77433,Harris County,TX,28.316201664219285
77447,Harris County,TX,87.17572197748409
77449,Harris County,TX,25.8932941752325
77459,Fort Bend County,TX,13.509544787077827
77471,Fort Bend County,TX,26.186979931473324
77479,Fort Bend County,TX,18.404307391091532
77489,Fort Bend County,TX,18.77141458639256
77494,Fort Bend County,TX,84.09202153695546
77502,Harris County,TX,86.83308859520314
77506,Harris County,TX,89.89231522271169
77511,Brazoria County,TX,33.431228585413606
77521,Harris County,TX,17.400881057268723
77523,Chambers County,TX,46.500244738130206
77532,Harris County,TX,28.389623103279494
77545,Fort Bend County,TX,58.29662261380323
77546,Galveston County,TX,78.83015173764072
77565,Galveston County,TX,80.10279001468429
77566,Brazoria County,TX,39.94126284875183
77573,Galveston County,TX,4.356338717572198
77578,Brazoria County,TX,57.146353401860004
77581,Brazoria County,TX,52.37395986294665
77583,Brazoria County,TX,39.72099853157122
77584,Brazoria County,TX,4.674498286833089
77586,Harris County,TX,36.49045521292217
77591,Galveston County,TX,44.909446891825745
77657,Hardin County,TX,77.67988252569751
77662,Orange County,TX,67.03377386196769
77840,Brazos County,TX,32.13411649534997
77845,Brazos County,TX,44.958394517865884
77868,Grimes County,TX,58.614782183064115
77901,Victoria County,TX,14.831130690161526
77904,Victoria County,TX,27.312775330396477
77905,Victoria County,TX,51.68869309838473
77984,Lavaca County,TX,98.6784140969163
78006,Kendall County,TX,78.78120411160059
78016,Medina County,TX,87.90993636808615
78028,Kerr County,TX,25.159079784630446
78040,Webb County,TX,28.830151737640726
78065,Atascosa County,TX,85.1443954968184
78108,Guadalupe County,TX,64.78218306412138
78109,Bexar County,TX,35.73176700930005
78130,Comal County,TX,13.28928046989721
78154,Guadalupe County,TX,65.81008321096427
78207,Bexar County,TX,11.747430249632892
78209,Bexar County,TX,53.13264806656876
78210,Bexar County,TX,14.561918746940774
78211,Bexar County,TX,41.2139011257954
78213,Bexar County,TX,33.94517865883505
78214,Bexar County,TX,82.4278022515908
78216,Bexar County,TX,30.88595203132648
78217,Bexar County,TX,58.3945178658835
78222,Bexar County,TX,57.34214390602056
78227,Bexar County,TX,24.253548702887908
78228,Bexar County,TX,51.272638277043555
78229,Bexar County,TX,40.62652961331376
78237,Bexar County,TX,18.477728830151737
78238,Bexar County,TX,65.95692608908467
78239,Bexar County,TX,51.68869309838473
78244,Bexar County,TX,49.65736661771904
78245,Bexar County,TX,65.3940283896231
78247,Bexar County,TX,86.75966715614292
78249,Bexar County,TX,78.87909936368087
78252,Bexar County,TX,91.85022026431719
78254,Bexar County,TX,82.69701419481154
78259,Bexar County,TX,69.7503671071953
78260,Bexar County,TX,76.11355849241312
78362,San Patricio County,TX,88.37493881546746
78372,Jim Wells County,TX,93.02496328928046
78380,Nueces County,TX,80.05384238864414
78414,Nueces County,TX,79.98042094958394
78501,Hidalgo County,TX,69.53010279001468
78520,Cameron County,TX,44.68918257464513
78521,Cameron County,TX,73.83749388154675
78538,Hidalgo County,TX,96.32892804698973
78542,Hidalgo County,TX,88.05677924620656
78552,Cameron County,TX,59.936368086147816
78560,Hidalgo County,TX,95.5702398433676
78572,Hidalgo County,TX,38.497307880567796
78575,Cameron County,TX,98.11551639745473
78577,Hidalgo County,TX,17.009300048947626
78582,Starr County,TX,58.223201174743025
78586,Cameron County,TX,31.35095447870778
78589,Hidalgo County,TX,27.09251101321586
78596,Hidalgo County,TX,64.17033773861968
78599,Hidalgo County,TX,93.17180616740089
78611,Burnet County,TX,72.17327459618208
78613,Williamson County,TX,21.169848262359274
78617,Travis County,TX,66.3240332843857
78628,Williamson County,TX,88.35046500244738
78634,Williamson County,TX,48.97209985315712
78640,Hays County,TX,29.074889867841406
78644,Caldwell County,TX,84.92413117963778
78654,Burnet County,TX,67.84140969162996
78660,Travis County,TX,16.030347528144883
78664,Williamson County,TX,32.64806656877142
78681,Williamson County,TX,44.101811062163485
78705,Travis County,TX,96.94077337249144
78717,Williamson County,TX,78.21830641213901
78723,Travis County,TX,79.90699951052373
78725,Travis County,TX,96.45129711209006
78726,Travis County,TX,97.65051395007343
78727,Travis County,TX,94.83602545276554
78728,Travis County,TX,74.20460107684778
78733,Travis County,TX,96.81840430739109
78744,Travis County,TX,53.94028389623104
78745,Travis County,TX,49.265785609397945
78746,Travis County,TX,69.23641703377386
78747,Travis County,TX,88.52178169358787
78752,Travis County,TX,89.35389133627018
78753,Travis County,TX,50.24473813020068
78758,Travis County,TX,74.52276064610867
78759,Travis County,TX,71.34116495349976
78801,Uvalde County,TX,51.90895741556535
78852,Maverick County,TX,44.395496818404304
78942,Lee County,TX,97.33235438081253
79104,Potter County,TX,98.92315222711699
79106,Potter County,TX,42.65785609397944
79336,Hockley County,TX,61.72295643661282
79339,Lamb County,TX,91.92364170337738
79364,Lubbock County,TX,87.10230053842388
79403,Lubbock County,TX,39.40283896231033
79411,Lubbock County,TX,97.33235438081253
79415,Lubbock County,TX,57.415565345080765
79423,Lubbock County,TX,51.81106216348507
79424,Lubbock County,TX,48.2868330885952
79512,Mitchell County,TX,79.637787567303
79705,Midland County,TX,16.2506118453255
79714,Andrews County,TX,44.98286833088595
79720,Howard County,TX,40.161527165932455
79756,Ward County,TX,88.20362212432697
79763,Ector County,TX,58.0029368575624
79764,Ector County,TX,76.2848751835536
79836,El Paso County,TX,97.77288301517376
79849,El Paso County,TX,96.74498286833088
79907,El Paso County,TX,25.23250122369065
79912,El Paso County,TX,16.12824278022516
79915,El Paso County,TX,41.38521781693588
79925,El Paso County,TX,61.111111111111114
79930,El Paso County,TX,90.43073910915321
79932,El Paso County,TX,77.16593245227607
79936,El Paso County,TX,6.093979441997063
84005,Utah County,UT,73.22564855604503
84009,Salt Lake County,UT,74.79197258932942
84015,Davis County,UT,12.457170827214881
84029,Tooele County,UT,47.69946157611356
84037,Davis County,UT,59.740577581987274
84040,Davis County,UT,69.65247185511502
84044,Salt Lake County,UT,30.837004405286343
84047,Salt Lake County,UT,16.10376896720509
84062,Utah County,UT,45.93734703866863
84065,Salt Lake County,UT,25.599608418991675
84066,Duchesne County,UT,49.24131179637787
84070,Salt Lake County,UT,38.00783162016642
84074,Tooele County,UT,11.796377875673029
84081,Salt Lake County,UT,72.68722466960352
84084,Salt Lake County,UT,68.4287812041116
84087,Davis County,UT,82.81938325991189
84088,Salt Lake County,UT,77.23935389133626
84096,Salt Lake County,UT,49.706314243759174
84104,Salt Lake County,UT,69.30983847283406
84105,Salt Lake County,UT,90.40626529613314
84107,Salt Lake County,UT,87.56730298580518
84115,Salt Lake County,UT,60.964268232990705
84116,Salt Lake County,UT,50.8565834557024
84117,Salt Lake County,UT,71.68379833578071
84118,Salt Lake County,UT,9.642682329907
84119,Salt Lake County,UT,28.707782672540382
84120,Salt Lake County,UT,64.34165442976015
84123,Salt Lake County,UT,75.69750367107196
84124,Salt Lake County,UT,73.10327949094469
84129,,UT,18.28193832599119
84401,Weber County,UT,30.20068526676456
84403,Weber County,UT,72.58932941752325
84404,Weber County,UT,11.869799314733235
84501,Carbon County,UT,52.496328928046985
84532,Grand County,UT,86.09887420460107
84604,Utah County,UT,94.56681350954479
84606,Utah County,UT,84.48360254527655
84651,Utah County,UT,63.06901615271659
84663,Utah County,UT,65.58981889378364
84701,Sevier County,UT,90.11257953989231
84720,Iron County,UT,79.76015663240334
84770,Washington County,UT,26.186979931473324
84780,Washington County,UT,66.74008810572687
05403,Chittenden County,VT,52.496328928046985
05478,Franklin County,VT,43.75917767988253
20105,Loudoun County,VA,79.76015663240334
20109,Prince William County,VA,55.188448360254526
20112,Prince William County,VA,89.0357317670093
20124,Fairfax County,VA,90.99363680861478
20132,Loudoun County,VA,96.59813999021047
20136,Prince William County,VA,92.60890846793932
20147,Loudoun County,VA,25.036710719530102
20148,Loudoun County,VA,92.95154185022027
20151,Fairfax County,VA,85.38913362701909
20152,Loudoun County,VA,70.70484581497797
20155,Prince William County,VA,49.09446891825747
20166,Loudoun County,VA,90.72442486539403
20170,Fairfax County,VA,54.11160058737151
20171,Fairfax County,VA,38.91336270190896
20181,Prince William County,VA,95.74155653450808
20191,Fairfax County,VA,65.05139500734214
22003,Fairfax County,VA,53.108174253548704
22015,Fairfax County,VA,86.29466470876163
22030,Fairfax County,VA,72.0753793441018
22032,Fairfax County,VA,54.35633871757219
22041,Fairfax County,VA,86.51492902594225
22043,Fairfax County,VA,62.579539892315225
22066,Fairfax County,VA,89.28046989721
22079,Fairfax County,VA,65.27165932452276
22124,Fairfax County,VA,82.64806656877141
22150,Fairfax County,VA,74.8898678414097
22152,Fairfax County,VA,44.17523250122369
22153,Fairfax County,VA,47.381302006852664
22191,Prince William County,VA,57.317670093000494
22193,Prince William County,VA,6.852667645619187
22201,Arlington County,VA,48.87420460107685
22202,Arlington County,VA,69.33431228585414
22203,Arlington County,VA,66.00587371512482
22205,Arlington County,VA,81.42437591776799
22206,Arlington County,VA,46.573666177190404
22207,Arlington County,VA,86.78414096916299
22301,Alexandria city,VA,96.133137542829175
22304,Alexandria city,VA,7.709251101321586
22305,Alexandria city,VA,66.5687714145864
22306,Fairfax County,VA,18.012726382770435
22310,Fairfax County,VA,74.93881546744983
22408,Spotsylvania County,VA,55.13950073421439
22485,King George County,VA,53.989231522271176
22546,Caroline County,VA,87.90993636808615
22551,Spotsylvania County,VA,49.6084189916789
22601,Winchester city,VA,49.5349975526187
22630,Warren County,VA,15.026921194322076
22655,Frederick County,VA,47.16103768967205
22801,Harrisonburg city,VA,29.735682819383257
22942,Louisa County,VA,75.77092511013215
23060,Henrico County,VA,51.59079784630446
23061,Gloucester County,VA,82.28095937347038
23150,Henrico County,VA,69.92168379833578
23185,James City County,VA,77.26382770435633
23192,Hanover County,VA,98.04209495839451
23220,Richmond city,VA,51.59079784630446
23223,Henrico County,VA,10.79295154185022
23224,Richmond city,VA,25.55066079295154
23225,Richmond city,VA,7.342143906020558
23228,Henrico County,VA,37.7141458639256
23235,Chesterfield County,VA,75.37934410181106
23294,Henrico County,VA,73.568281938326
23321,Chesapeake city,VA,35.41360744003916
23323,Chesapeake city,VA,22.24669603524229
23325,Chesapeake city,VA,66.76456191874695
23452,Virginia Beach city,VA,12.897699461576115
23453,Virginia Beach city,VA,36.31913852178169
23454,Virginia Beach city,VA,17.865883504650025
23455,Virginia Beach city,VA,30.494371023005385
23464,Virginia Beach city,VA,8.835046500244738
23602,Newport News city,VA,17.9637787567303
23606,Newport News city,VA,37.88546255506608
23607,Newport News city,VA,40.55310817425355
23666,Hampton city,VA,5.115026921194322
23834,Colonial Heights city,VA,34.287812041116005
23860,Hopewell city,VA,53.84238864415076
23927,Mecklenburg County,VA,97.65051395007343
24073,Montgomery County,VA,29.19725893294175
24112,Henry County,VA,8.98188937836515
24151,Franklin County,VA,67.8903573176701
24153,Salem city,VA,75.52618697993148
24210,Washington County,VA,23.348017621145374
24211,Washington County,VA,75.4282917278512
24343,Carroll County,VA,64.09691629955947
24368,Wythe County,VA,92.43759177679883
24382,Wythe County,VA,33.382280959373475
24401,Staunton city,VA,5.212922173274596
24501,Lynchburg city,VA,70.58247674987763
24523,Bedford County,VA,20.215369554576604
24540,Danville city,VA,16.78903573176701
24563,Pittsylvania County,VA,93.53891336270192
24588,Campbell County,VA,95.42339696524719
24614,Buchanan County,VA,49.16789035731767
98001,King County,WA,29.393049437102302
98003,King County,WA,17.254038179148314
98008,King County,WA,83.21096426823298
98012,Snohomish County,WA,72.02643171806167
98022,King County,WA,79.51541850220264
98026,Snohomish County,WA,57.70925110132159
98030,King County,WA,15.222711698482625
98031,King County,WA,28.87909936368086
98032,King County,WA,30.396475770925107
98038,King County,WA,56.901615271659324
98056,King County,WA,44.101811062163485
98058,King County,WA,20.044052863436125
98059,King County,WA,68.11062163485072
98075,King County,WA,73.61722956436613
98103,King County,WA,34.11649534997553
98106,King County,WA,50.48947626040137
98107,King County,WA,92.70680372001958
98108,King County,WA,64.70876162506119
98110,Kitsap County,WA,51.95790504160548
98112,King County,WA,44.54233969652472
98115,King County,WA,59.789525208027406
98116,King County,WA,60.4992657856094
98119,King County,WA,62.79980420949583
98122,King County,WA,46.67156142927068
98125,King County,WA,62.50611845325502
98144,King County,WA,18.06167400881057
98148,King County,WA,93.6123348017621
98155,King County,WA,67.6456191874694
98177,King County,WA,62.89769946157612
98198,King County,WA,64.4640234948605
98201,Snohomish County,WA,36.07440039158101
98203,Snohomish County,WA,34.630445423396964
98204,Snohomish County,WA,15.687714145863927
98208,Snohomish County,WA,62.163485070974055
98225,Whatcom County,WA,43.19627998042095
98226,Whatcom County,WA,58.125305922662754
98258,Snohomish County,WA,13.631913852178169
98271,Snohomish County,WA,31.54674498286833
98274,Skagit County,WA,52.98580518844837
98275,Snohomish County,WA,87.44493392070484
98277,Island County,WA,34.850709740577585
98282,Island County,WA,81.59569260890846
98290,Snohomish County,WA,29.295154185022028
98292,Snohomish County,WA,49.97552618697993
98294,Snohomish County,WA,88.570729319628
98321,Pierce County,WA,52.08027410670583
98354,Pierce County,WA,88.570729319628
98359,Kitsap County,WA,97.52814488497307
98360,Pierce County,WA,65.73666177190405
98362,Clallam County,WA,22.491434165442975
98371,Pierce County,WA,56.02055800293686
98374,Pierce County,WA,30.07831620166422
98390,Pierce County,WA,67.52325012236906
98391,Pierce County,WA,7.488986784140969
98404,Pierce County,WA,21.218795888399413
98407,Pierce County,WA,59.691629955947135
98422,Pierce County,WA,80.91042584434655
98444,Pierce County,WA,22.956436612824277
98445,Pierce County,WA,36.368086147821835
98501,Thurston County,WA,57.782672540381796
98516,Thurston County,WA,85.41360744003916
98584,Mason County,WA,21.58590308370044
98607,Clark County,WA,90.96916299559471
98632,Cowlitz County,WA,39.598629466470875
98662,Clark County,WA,69.60352422907489
98663,Clark County,WA,90.08810572687224
98664,Clark County,WA,78.31620166421929
98665,Clark County,WA,76.40724424865394
98671,Clark County,WA,78.78120411160059
98682,Clark County,WA,47.8218306412139
98801,Chelan County,WA,14.317180616740089
98802,Douglas County,WA,38.71757219774841
98826,Chelan County,WA,93.48996573666177
98837,Grant County,WA,19.43220753793441
98901,Yakima County,WA,43.75917767988253
98908,Yakima County,WA,25.379344101811064
98930,Yakima County,WA,82.28095937347038
98942,Yakima County,WA,68.47772883015175
99021,Spokane County,WA,93.6123348017621
99203,Spokane County,WA,78.09593734703867
99205,Spokane County,WA,63.36270190895742
99206,Spokane County,WA,33.30885952031327
99207,Spokane County,WA,72.49143416544298
99223,Spokane County,WA,85.07097405775819
99301,Franklin County,WA,69.62799804209496
99336,Benton County,WA,28.291727851199216
99337,Benton County,WA,48.604992657856094
99338,Benton County,WA,51.027900146842875
99354,Benton County,WA,29.148311306901615
20001,District of Columbia,DC,11.771904062652961
20002,District of Columbia,DC,14.904552129221733
20007,District of Columbia,DC,71.95301027900148
20009,District of Columbia,DC,19.505628976994615
20010,District of Columbia,DC,41.23837493881547
20011,District of Columbia,DC,20.77826725403818
20016,District of Columbia,DC,93.66128242780225
20018,District of Columbia,DC,29.858051884483604
20019,District of Columbia,DC,26.651982378854626
20020,District of Columbia,DC,0.5628976994615761
20032,District of Columbia,DC,2.0313264806656877
20037,District of Columbia,DC,95.66813509544787
24963,Monroe County,WV,99.6084189916789
25053,Boone County,WV,79.83357807146353
25309,Kanawha County,WV,58.05188448360254
25314,Kanawha County,WV,94.27312775330397
25411,Morgan County,WV,69.08957415565345
25425,Jefferson County,WV,74.66960352422907
25428,Berkeley County,WV,51.46842878120411
25504,Cabell County,WV,45.91287322564855
25523,Lincoln County,WV,98.48262359275574
25541,Cabell County,WV,84.26333822809595
25702,Cabell County,WV,84.63044542339696
25705,Cabell County,WV,9.740577581987274
25801,Raleigh County,WV,51.395007342143906
25832,Raleigh County,WV,96.5736661771904
26003,Ohio County,WV,2.129221732745962
26047,Hancock County,WV,73.61722956436613
26187,Wood County,WV,58.737151248164466
26330,Harrison County,WV,31.864904552129218
26452,Lewis County,WV,47.96867351933432
26505,Monongalia County,WV,4.209495839451787
26508,Monongalia County,WV,1.8844836025452765
26554,Marion County,WV,12.457170827214881
26651,Nicholas County,WV,74.91434165442976
53010,Fond du Lac County,WI,96.08418991678903
53040,Washington County,WI,97.7484092021537
53045,Waukesha County,WI,93.04943710230053
53051,Waukesha County,WI,31.32648066568771
53081,Sheboygan County,WI,8.786098874204601
53095,Washington County,WI,73.29906999510524
53097,Ozaukee County,WI,97.03866862457171
53110,Milwaukee County,WI,19.970631424375917
53115,Walworth County,WI,36.93098384728341
53143,Kenosha County,WI,10.034263338228095
53144,Kenosha County,WI,56.6813509544787
53150,Waukesha County,WI,55.13950073421439
53168,Kenosha County,WI,46.98972099853157
53185,Racine County,WI,47.087616250611845
53188,Waukesha County,WI,44.811551639745474
53204,Milwaukee County,WI,35.85413607440039
53205,Milwaukee County,WI,20.998531571218795
53206,Milwaukee County,WI,44.640234948605
53207,Milwaukee County,WI,15.834557023984337
53208,Milwaukee County,WI,5.335291238374939
53209,Milwaukee County,WI,46.35340186000979
53210,Milwaukee County,WI,38.91336270190896
53212,Milwaukee County,WI,7.219774840920215
53215,Milwaukee County,WI,13.069016152716593
53216,Milwaukee County,WI,16.568771414586394
53217,Milwaukee County,WI,76.40724424865394
53218,Milwaukee County,WI,2.8879099363680862
53220,Milwaukee County,WI,53.573176700930006
53221,Milwaukee County,WI,39.8923152227117
53222,Milwaukee County,WI,45.59471365638766
53224,Milwaukee County,WI,24.05775819872736
53226,Milwaukee County,WI,59.00636319138521
53227,Milwaukee County,WI,23.470386686245718
53402,Racine County,WI,15.663240332843856
53403,Racine County,WI,21.488007831620166
53405,Racine County,WI,2.32501223690651
53546,Rock County,WI,36.73519334312286
53548,Rock County,WI,15.173764072442486
53589,Dane County,WI,67.69456681350955
53590,Dane County,WI,26.162506118453255
53597,Dane County,WI,47.28340675477239
53704,Dane County,WI,4.992657856093979
53711,Dane County,WI,55.97161037689672
53713,Dane County,WI,40.99363680861478
53818,Grant County,WI,70.38668624571707
53959,Sauk County,WI,29.980420949583948
54002,St. Croix County,WI,85.56045031815957
54017,St. Croix County,WI,39.500734214390604
54023,St. Croix County,WI,98.58051884483604
54115,Brown County,WI,33.87175721977484
54140,Outagamie County,WI,87.98335780714636
54151,Marinette County,WI,90.82232011747429
54154,Oconto County,WI,82.81938325991189
54157,Marinette County,WI,74.4982868330886
54166,Shawano County,WI,86.14782183064122
54201,Kewaunee County,WI,98.04209495839451
54302,Brown County,WI,48.31130690161527
54304,Brown County,WI,12.77533039647577
54311,Brown County,WI,63.55849241311796
54406,Portage County,WI,99.4615761135585
54457,Wood County,WI,72.88301517376408
54467,Portage County,WI,81.9627998042095
54482,Portage County,WI,78.5364659813999
54494,Wood County,WI,19.285364659814
54520,Forest County,WI,97.84630445423397
54601,La Crosse County,WI,3.0837004405286343
54615,Jackson County,WI,61.3558492413118
54636,La Crosse County,WI,56.142927068037196
54646,Juneau County,WI,78.21830641213901
54650,La Crosse County,WI,41.727851199216836
54660,Monroe County,WI,71.34116495349976
54701,Eau Claire County,WI,65.002447381302
54703,Eau Claire County,WI,12.383749388154675
54727,Chippewa County,WI,98.53157121879589
54729,Chippewa County,WI,74.42486539402839
54751,Dunn County,WI,57.88056779246207
54758,Trempealeau County,WI,97.57709251101322
54806,Ashland County,WI,68.45325501713167
54829,Barron County,WI,94.05286343612335
54843,Sawyer County,WI,77.87567302985805
54880,Douglas County,WI,32.13411649534997
54901,Winnebago County,WI,16.495349975526185
54902,Winnebago County,WI,86.8575624082232
54911,Outagamie County,WI,26.92119432207538
54913,Outagamie County,WI,78.63436123348018
54914,Outagamie County,WI,45.056289769946154
54915,Outagamie County,WI,58.34557023984337
54923,Green Lake County,WI,87.83651492902594
54935,Fond du Lac County,WI,8.443465491923643
54942,Outagamie County,WI,92.2173274596182
54949,Waupaca County,WI,95.22760646108664
54956,Winnebago County,WI,48.48262359275575
54961,Waupaca County,WI,46.25550660792951
54981,Waupaca County,WI,52.20264317180616
82240,Goshen County,WY,85.11992168379834
82414,Park County,WY,65.58981889378364
82633,Converse County,WY,48.43367596671562
82716,Campbell County,WY,59.81399902104748
82930,Uinta County,WY,82.03622124326971
