ZipCode,county,state,Retirement
35214,Jefferson County,AL,43.64406779661017
35904,Etowah County,AL,64.83050847457628
85016,Maricopa County,AZ,37.71186440677966
85032,Maricopa County,AZ,28.389830508474578
85043,Maricopa County,AZ,72.45762711864407
85226,Maricopa County,AZ,75
85714,Pima County,AZ,63.983050847457626
86004,Coconino County,AZ,50
86045,Coconino County,AZ,80.9322033898305
72616,Carroll County,AR,85.59322033898306
90064,Los Angeles County,CA,55.08474576271186
90270,Los Angeles County,CA,92.79661016949152
90603,Los Angeles County,CA,56.355932203389834
91105,Los Angeles County,CA,73.30508474576271
91342,Los Angeles County,CA,75.42372881355932
91423,Los Angeles County,CA,67.37288135593221
92019,San Diego County,CA,49.152542372881356
92620,Orange County,CA,45.76271186440678
92705,Orange County,CA,57.6271186440678
92780,Orange County,CA,63.559322033898304
92833,Orange County,CA,93.64406779661016
92869,Orange County,CA,52.118644067796616
92883,Riverside County,CA,69.91525423728814
93648,Fresno County,CA,92.79661016949152
94534,Solano County,CA,46.61016949152542
94561,Contra Costa County,CA,51.69491525423729
95123,Santa Clara County,CA,30.93220338983051
95136,Santa Clara County,CA,70.33898305084746
95301,Merced County,CA,69.49152542372882
95403,Sonoma County,CA,41.94915254237288
95762,El Dorado County,CA,39.83050847457627
95834,Sacramento County,CA,94.49152542372882
80134,Douglas County,CO,79.66101694915254
80504,Boulder County,CO,27.54237288135593
06001,Hartford County,CT,77.11864406779661
06511,New Haven County,CT,12.288135593220339
32159,Lake County,FL,26.69491525423729
32922,Brevard County,FL,76.69491525423729
33028,Broward County,FL,84.7457627118644
33133,Miami-Dade County,FL,81.35593220338984
33142,Miami-Dade County,FL,25
33176,Miami-Dade County,FL,36.86440677966102
33328,Broward County,FL,82.62711864406779
33330,Broward County,FL,89.40677966101694
33434,Palm Beach County,FL,44.06779661016949
33715,Pinellas County,FL,97.03389830508475
33870,Highlands County,FL,32.20338983050847
33928,Lee County,FL,33.89830508474576
33948,Charlotte County,FL,42.79661016949153
34211,Manatee County,FL,83.05084745762711
34482,Marion County,FL,67.79661016949152
30035,DeKalb County,GA,47.45762711864407
30606,Clarke County,GA,30.08474576271186
30813,Columbia County,GA,43.22033898305085
30906,Richmond County,GA,57.20338983050848
31204,Bibb County,GA,31.779661016949152
96797,Honolulu County,HI,6.3559322033898304
60104,Cook County,IL,28.8135593220339
60148,DuPage County,IL,4.661016949152542
60411,Cook County,IL,11.440677966101696
60435,Will County,IL,10.59322033898305
60477,Cook County,IL,14.83050847457627
60527,DuPage County,IL,11.864406779661017
60609,Cook County,IL,19.915254237288135
60612,Cook County,IL,33.47457627118644
60619,Cook County,IL,3.8135593220338984
60640,Cook County,IL,8.050847457627118
61021,Lee County,IL,7.203389830508475
61252,Whiteside County,IL,97.45762711864407
61822,Champaign County,IL,54.66101694915254
46311,Lake County,IN,20.76271186440678
46561,St. Joseph County,IN,91.10169491525424
47112,Harrison County,IN,62.28813559322034
47906,Tippecanoe County,IN,96.61016949152543
50309,Polk County,IA,90.67796610169492
40965,Bell County,KY,33.05084745762712
41501,Pike County,KY,16.52542372881356
70094,Jefferson Parish,LA,18.64406779661017
70454,Tangipahoa Parish,LA,9.745762711864407
70777,East Feliciana Parish,LA,100
71106,Caddo Parish,LA,73.72881355932203
04102,Cumberland County,ME,40.67796610169492
04619,Washington County,ME,87.71186440677965
20783,Prince George's County,MD,86.01694915254238
21030,Baltimore County,MD,83.47457627118644
21209,Baltimore County,MD,88.5593220338983
21214,Baltimore city,MD,78.38983050847457
21216,Baltimore city,MD,25.847457627118644
21229,Baltimore city,MD,61.86440677966102
01581,Worcester County,MA,60.59322033898306
01607,Worcester County,MA,37.28813559322034
01801,Middlesex County,MA,0
01833,Essex County,MA,80.50847457627118
02038,Norfolk County,MA,17.796610169491526
02050,Plymouth County,MA,27.11864406779661
02062,Norfolk County,MA,13.135593220338984
02122,Suffolk County,MA,0.423728813559322
02138,Middlesex County,MA,5.084745762711865
02452,Middlesex County,MA,42.3728813559322
02472,Middlesex County,MA,7.627118644067797
48034,Oakland County,MI,58.05084745762712
48042,Macomb County,MI,30.508474576271187
48103,Washtenaw County,MI,1.2711864406779663
48111,Wayne County,MI,5.508474576271186
48116,Livingston County,MI,19.06779661016949
48178,Oakland County,MI,15.254237288135593
48214,Wayne County,MI,27.966101694915253
48236,Wayne County,MI,16.94915254237288
48309,Oakland County,MI,29.66101694915254
49022,Berrien County,MI,47.03389830508475
49286,Lenawee County,MI,48.728813559322035
49855,Marquette County,MI,19.491525423728813
55025,Washington County,MN,90.2542372881356
55316,Hennepin County,MN,96.1864406779661
55415,Hennepin County,MN,99.15254237288136
55912,Mower County,MN,66.10169491525424
56007,Freeborn County,MN,8.898305084745763
56560,Clay County,MN,3.389830508474576
63116,St. Louis city,MO,61.016949152542374
64015,Jackson County,MO,20.33898305084746
64030,Jackson County,MO,22.033898305084744
64052,Jackson County,MO,38.559322033898304
64106,Jackson County,MO,87.28813559322035
64110,Jackson County,MO,40.25423728813559
64123,Jackson County,MO,75.84745762711864
64131,Jackson County,MO,36.440677966101696
64735,Henry County,MO,45.33898305084746
68502,Lancaster County,NE,80.08474576271186
03431,Cheshire County,NH,31.35593220338983
03811,Rockingham County,NH,65.67796610169492
07306,Hudson County,NJ,97.88135593220339
08234,Atlantic County,NJ,15.677966101694915
87111,Bernalillo County,NM,13.559322033898304
10014,New York County,NY,86.4406779661017
10454,Bronx County,NY,4.23728813559322
10460,Bronx County,NY,16.101694915254235
11225,Kings County,NY,18.220338983050848
11236,Kings County,NY,8.47457627118644
11801,Nassau County,NY,55.50847457627118
12839,Washington County,NY,50.42372881355932
13044,Oswego County,NY,99.57627118644068
13323,Oneida County,NY,53.38983050847458
13617,St. Lawrence County,NY,36.016949152542374
13827,Tioga County,NY,35.59322033898305
13856,Delaware County,NY,38.983050847457626
14202,Erie County,NY,98.72881355932203
27012,Forsyth County,NC,2.9661016949152543
27104,Forsyth County,NC,5.932203389830509
27525,Franklin County,NC,66.52542372881356
27565,Granville County,NC,22.88135593220339
28731,Henderson County,NC,54.23728813559322
43081,Franklin County,OH,11.016949152542372
43082,Delaware County,OH,44.06779661016949
43085,Franklin County,OH,67.79661016949152
43110,Franklin County,OH,85.16949152542372
43206,Franklin County,OH,86.86440677966102
43232,Franklin County,OH,52.54237288135594
44012,Lorain County,OH,6.779661016949152
44028,Lorain County,OH,78.8135593220339
44030,Ashtabula County,OH,17.372881355932204
44035,Lorain County,OH,1.694915254237288
44040,Cuyahoga County,OH,95.33898305084746
44047,Ashtabula County,OH,59.7457627118644
44055,Lorain County,OH,23.30508474576271
44074,Lorain County,OH,49.57627118644068
44089,Erie County,OH,10.16949152542373
44124,Cuyahoga County,OH,2.5423728813559325
44131,Cuyahoga County,OH,58.89830508474576
44203,Summit County,OH,9.322033898305085
44306,Summit County,OH,77.54237288135593
44319,Summit County,OH,65.2542372881356
44839,Erie County,OH,41.52542372881356
45040,Warren County,OH,77.96610169491525
45169,Clinton County,OH,98.30508474576271
45680,Lawrence County,OH,32.6271186440678
73036,Canadian County,OK,68.64406779661016
97062,Washington County,OR,94.91525423728814
97211,Multnomah County,OR,58.47457627118644
97367,Lincoln County,OR,34.32203389830508
97527,Josephine County,OR,23.728813559322035
97601,Klamath County,OR,12.711864406779661
15108,Allegheny County,PA,20.76271186440678
15601,Westmoreland County,PA,0.847457627118644
15644,Westmoreland County,PA,35.16949152542373
15905,Cambria County,PA,38.13559322033898
16735,McKean County,PA,72.88135593220339
17007,Cumberland County,PA,91.94915254237289
17036,Dauphin County,PA,13.983050847457626
17111,Dauphin County,PA,34.74576271186441
17754,Lycoming County,PA,81.77966101694916
17847,Northumberland County,PA,51.271186440677965
18951,Bucks County,PA,21.610169491525426
19003,Montgomery County,PA,91.52542372881356
19136,Philadelphia County,PA,29.23728813559322
19147,Philadelphia County,PA,69.0677966101695
19149,Philadelphia County,PA,95.76271186440678
02860,Providence County,RI,14.40677966101695
02889,Kent County,RI,22.45762711864407
75119,Ellis County,TX,76.27118644067797
75208,Dallas County,TX,56.355932203389834
75209,Dallas County,TX,74.57627118644068
75604,Gregg County,TX,64.40677966101694
75701,Smith County,TX,74.15254237288136
76705,McLennan County,TX,44.91525423728814
77068,Harris County,TX,92.37288135593221
77316,Montgomery County,TX,66.94915254237289
77568,Galveston County,TX,89.83050847457628
77581,Brazoria County,TX,25.423728813559322
77905,Victoria County,TX,88.13559322033898
78220,Bexar County,TX,79.23728813559322
78244,Bexar County,TX,82.20338983050848
79720,Howard County,TX,59.32203389830508
84093,Salt Lake County,UT,52.96610169491526
84105,Salt Lake County,UT,72.03389830508475
84108,Salt Lake County,UT,60.16949152542372
84109,Salt Lake County,UT,55.932203389830505
84120,Salt Lake County,UT,24.576271186440678
05401,Chittenden County,VT,50.847457627118644
05488,Franklin County,VT,62.71186440677966
05495,Chittenden County,VT,70.33898305084746
23188,James City County,VA,2.11864406779661
24426,Alleghany County,VA,47.88135593220339
98104,King County,WA,41.10169491525424
98372,Pierce County,WA,62.71186440677966
98422,Pierce County,WA,71.1864406779661
98584,Mason County,WA,61.440677966101696
98597,Thurston County,WA,94.0677966101695
53094,Jefferson County,WI,71.61016949152543
53228,Milwaukee County,WI,46.186440677966104
53235,Milwaukee County,WI,84.32203389830508
53566,Green County,WI,24.152542372881356
53581,Richland County,WI,83.89830508474576
53704,Dane County,WI,88.98305084745762
53705,Dane County,WI,48.30508474576271
53711,Dane County,WI,53.813559322033896
54603,La Crosse County,WI,26.27118644067797
54904,Winnebago County,WI,39.40677966101695
