ZipCode,county,state,Adult
35173,Jefferson County,AL,55.74712643678161
36870,Lee County,AL,81.03448275862068
85225,Maricopa County,AZ,15.517241379310345
85233,Maricopa County,AZ,46.55172413793103
85283,Maricopa County,AZ,20.689655172413794
85306,Maricopa County,AZ,60.3448275862069
85323,Maricopa County,AZ,35.05747126436782
85706,Pima County,AZ,6.321839080459771
85711,Pima County,AZ,12.643678160919542
85745,Pima County,AZ,31.03448275862069
72034,Faulkner County,AR,56.896551724137936
90033,Los Angeles County,CA,51.14942528735632
90045,Los Angeles County,CA,67.24137931034483
90212,Los Angeles County,CA,91.95402298850574
90222,Los Angeles County,CA,69.54022988505747
91605,Los Angeles County,CA,54.59770114942529
91702,Los Angeles County,CA,34.48275862068966
92311,San Bernardino County,CA,39.08045977011494
93561,Kern County,CA,75.28735632183908
93726,Fresno County,CA,26.436781609195403
95032,Santa Clara County,CA,78.73563218390804
95206,San Joaquin County,CA,25.862068965517242
95382,Stanislaus County,CA,29.88505747126437
80701,Morgan County,CO,27.011494252873565
80906,El Paso County,CO,64.36781609195403
06082,Hartford County,CT,21.26436781609195
06470,Fairfield County,CT,84.48275862068965
32034,Nassau County,FL,56.32183908045977
32333,Gadsden County,FL,83.9080459770115
32826,Orange County,FL,82.18390804597702
32828,Orange County,FL,41.37931034482759
33133,Miami-Dade County,FL,77.01149425287356
33161,Miami-Dade County,FL,37.35632183908046
33184,Miami-Dade County,FL,78.16091954022988
33193,Miami-Dade County,FL,66.0919540229885
33415,Palm Beach County,FL,49.42528735632184
33467,Palm Beach County,FL,63.2183908045977
33584,Hillsborough County,FL,61.49425287356321
33952,Charlotte County,FL,31.60919540229885
34453,Citrus County,FL,73.5632183908046
30030,DeKalb County,GA,53.44827586206896
30134,Douglas County,GA,30.45977011494253
30153,Polk County,GA,47.12643678160919
30281,Henry County,GA,32.18390804597701
30655,Walton County,GA,37.93103448275862
31513,Appling County,GA,72.41379310344827
31701,Dougherty County,GA,52.87356321839081
31705,Dougherty County,GA,33.33333333333333
60014,McHenry County,IL,29.310344827586203
60081,McHenry County,IL,71.83908045977012
60481,Will County,IL,70.11494252873564
62411,Effingham County,IL,100
62522,Macon County,IL,62.06896551724138
46723,Whitley County,IN,90.80459770114942
46947,Cass County,IN,16.091954022988507
47150,Floyd County,IN,14.367816091954023
51301,Clay County,IA,57.47126436781609
52240,Johnson County,IA,25.287356321839084
40509,Fayette County,KY,36.7816091954023
70517,St. Martin Parish,LA,16.666666666666664
70589,St. Landry Parish,LA,95.40229885057471
70774,Ascension Parish,LA,99.42528735632183
04276,Oxford County,ME,66.66666666666666
04401,Penobscot County,ME,4.597701149425287
20872,Montgomery County,MD,93.67816091954023
01030,Hampden County,MA,55.172413793103445
01960,Essex County,MA,1.1494252873563218
02155,Middlesex County,MA,3.4482758620689653
02703,Bristol County,MA,2.8735632183908044
48219,Wayne County,MI,8.045977011494253
48238,Wayne County,MI,8.620689655172415
48642,Midland County,MI,22.413793103448278
48888,Montcalm County,MI,83.33333333333334
49007,Kalamazoo County,MI,44.252873563218394
49506,Kent County,MI,28.735632183908045
49631,Osceola County,MI,72.98850574712644
55057,Rice County,MN,94.25287356321839
55060,Steele County,MN,39.6551724137931
55313,Wright County,MN,60.91954022988506
55317,Carver County,MN,80.45977011494253
55330,Sherburne County,MN,47.701149425287355
55437,Hennepin County,MN,85.0574712643678
55792,St. Louis County,MN,38.50574712643678
56601,Beltrami County,MN,10.344827586206897
38769,Bolivar County,MS,98.85057471264368
39209,Hinds County,MS,28.160919540229884
63136,St. Louis County,MO,11.494252873563218
64468,Nodaway County,MO,68.39080459770115
65655,Ozark County,MO,98.27586206896551
65711,Wright County,MO,88.50574712643679
68310,Gage County,NE,87.93103448275862
89433,Washoe County,NV,44.827586206896555
89701,Carson City,NV,43.103448275862064
07032,Hudson County,NJ,24.71264367816092
07522,Passaic County,NJ,7.471264367816093
08021,Camden County,NJ,0.5747126436781609
08104,Camden County,NJ,2.2988505747126435
08332,Cumberland County,NJ,85.63218390804597
08759,Ocean County,NJ,70.6896551724138
87528,Rio Arriba County,NM,89.08045977011494
10036,New York County,NY,41.95402298850575
10305,Richmond County,NY,21.839080459770116
10456,Bronx County,NY,0
10701,Westchester County,NY,4.022988505747127
10705,Westchester County,NY,13.218390804597702
11581,Nassau County,NY,86.20689655172413
13207,Onondaga County,NY,33.90804597701149
14012,Niagara County,NY,97.12643678160919
14224,Erie County,NY,9.770114942528735
14228,Erie County,NY,54.02298850574713
14770,Cattaraugus County,NY,90.22988505747126
14850,Tompkins County,NY,9.195402298850574
27376,Moore County,NC,92.52873563218391
28202,Mecklenburg County,NC,91.37931034482759
43062,Licking County,OH,68.96551724137932
43230,Franklin County,OH,18.39080459770115
44095,Lake County,OH,24.137931034482758
44105,Cuyahoga County,OH,1.7241379310344827
44128,Cuyahoga County,OH,5.747126436781609
44706,Stark County,OH,35.63218390804598
45013,Butler County,OH,6.896551724137931
45822,Mercer County,OH,40.229885057471265
45887,Allen County,OH,93.10344827586206
74801,Pottawatomie County,OK,40.804597701149426
97132,Yamhill County,OR,43.67816091954023
97814,Baker County,OR,48.85057471264368
15137,Allegheny County,PA,63.793103448275865
15801,Clearfield County,PA,12.068965517241379
17403,York County,PA,18.96551724137931
17972,Schuylkill County,PA,65.51724137931035
19140,Philadelphia County,PA,5.172413793103448
02860,Providence County,RI,10.919540229885058
02919,Providence County,RI,45.97701149425287
29203,Richland County,SC,14.942528735632186
29642,Pickens County,SC,36.206896551724135
29673,Greenville County,SC,42.5287356321839
57401,Brown County,SD,20.114942528735632
37211,Davidson County,TN,23.563218390804597
37329,McMinn County,TN,79.88505747126436
37690,Washington County,TN,86.7816091954023
37863,Sevier County,TN,82.75862068965517
38242,Henry County,TN,77.58620689655173
38301,Madison County,TN,13.793103448275861
75044,Dallas County,TX,59.195402298850574
75052,Dallas County,TX,19.54022988505747
75650,Harrison County,TX,79.3103448275862
75662,Gregg County,TX,58.04597701149425
76001,Tarrant County,TX,59.77011494252874
76063,Tarrant County,TX,17.24137931034483
77018,Harris County,TX,50.57471264367817
77077,Harris County,TX,52.29885057471264
77479,Fort Bend County,TX,32.758620689655174
77550,Galveston County,TX,22.988505747126435
77587,Harris County,TX,81.60919540229885
78239,Bexar County,TX,64.36781609195403
78240,Bexar County,TX,50
78245,Bexar County,TX,62.643678160919535
78550,Cameron County,TX,48.275862068965516
78596,Hidalgo County,TX,74.13793103448276
78750,Travis County,TX,87.356321839080465
79731,Crane County,TX,95.97701149425288
84095,Salt Lake County,UT,45.40229885057471
84414,Weber County,UT,74.71264367816092
20106,Culpeper County,VA,96.55172413793103
22827,Rockingham County,VA,75.86206896551724
23523,Norfolk city,VA,89.08045977011494
24360,Wythe County,VA,94.82758620689656
98953,Yakima County,WA,97.70114942528735
25951,Summers County,WV,71.26436781609196
26416,Barbour County,WV,76.4367816091954
53147,Walworth County,WI,51.724137931034484
54650,La Crosse County,WI,58.620689655172406
54868,Barron County,WI,67.81609195402298
54880,Douglas County,WI,17.81609195402299
54914,Outagamie County,WI,27.586206896551722
