ZipCode,county,state,Youth,Pediatric
35214,Jefferson County,AL,NA,32.89902280130293
35243,Jefferson County,AL,80.58877644894204,NA
35805,Madison County,AL,77.46090156393744,NA
35806,Madison County,AL,98.89604415823368,NA
35904,Etowah County,AL,NA,87.29641693811075
36303,Houston County,AL,77.36890524379025,NA
36305,Houston County,AL,96.32014719411224,NA
36445,Monroe County,AL,94.29622815087396,NA
36701,Dallas County,AL,13.707451701931921,NA
36854,Chambers County,AL,45.90616375344986,NA
99502,Anchorage Municipality,AK,44.158233670653175,NA
99504,Anchorage Municipality,AK,8.371665133394664,NA
99507,Anchorage Municipality,AK,46.45814167433303,NA
99508,Anchorage Municipality,AK,29.254829806807724,NA
99576,Dillingham Census Area,AK,48.114075436982525,NA
99577,Anchorage Municipality,AK,43.882244710211594,NA
99901,Ketchikan Gateway Borough,AK,37.99448022079117,NA
85008,Maricopa County,AZ,31.830726770929164,NA
85009,Maricopa County,AZ,4.783808647654094,NA
85016,Maricopa County,AZ,65.77736890524379,NA
85206,Maricopa County,AZ,27.598896044158234,NA
85208,Maricopa County,AZ,30.45078196872125,NA
85251,Maricopa County,AZ,44.34222631094757,NA
85302,Maricopa County,AZ,22.723091076356948,NA
85349,Yuma County,AZ,31.646734130634773,NA
85364,Yuma County,AZ,10.579576816927323,NA
85374,Maricopa County,AZ,67.89328426862924,NA
85395,Maricopa County,AZ,86.66053357865685,NA
85530,Graham County,AZ,51.24195032198712,NA
85541,Gila County,AZ,55.565777368905245,NA
85711,Pima County,AZ,2.5758969641214353,NA
85716,Pima County,AZ,22.81508739650414,NA
85735,Pima County,AZ,60.34958601655934,NA
85742,Pima County,AZ,78.84084636614536,NA
86001,Coconino County,AZ,79.85280588776449,NA
86033,Navajo County,AZ,31.002759889604413,NA
86045,Coconino County,AZ,44.80220791168353,NA
86326,Yavapai County,AZ,95.49218031278748,NA
86503,Apache County,AZ,NA,7.166123778501629
86507,Apache County,AZ,93.7442502299908,NA
86538,Apache County,AZ,63.66145354185833,NA
71655,Drew County,AR,57.03771849126035,NA
71923,Clark County,AR,41.85832566697332,NA
72301,Crittenden County,AR,74.51701931922723,NA
72638,Carroll County,AR,80.22079116835327,NA
72712,Benton County,AR,46.274149034038636,NA
90007,Los Angeles County,CA,71.38914443422263,NA
90011,Los Angeles County,CA,49.03403863845446,NA
90019,Los Angeles County,CA,NA,92.18241042345277
90023,Los Angeles County,CA,26.862925482980682,NA
90024,Los Angeles County,CA,43.33026678932843,NA
90025,Los Angeles County,CA,72.76908923643055,NA
90027,Los Angeles County,CA,34.130634774609014,NA
90029,Los Angeles County,CA,49.86200551977921,NA
90057,Los Angeles County,CA,32.93468261269549,NA
90063,Los Angeles County,CA,32.198712051517944,NA
90248,Los Angeles County,CA,93.10027598896045,NA
90602,Los Angeles County,CA,17.295308187672493,NA
90621,Orange County,CA,41.03035878564857,NA
90712,Los Angeles County,CA,45.538178472861084,NA
90744,Los Angeles County,CA,29.990800367985283,NA
90806,Los Angeles County,CA,NA,28.338762214983714
90813,Los Angeles County,CA,22.999080036798528,NA
91042,Los Angeles County,CA,91.99632014719411,NA
91311,Los Angeles County,CA,33.854645814167434,NA
91387,Los Angeles County,CA,NA,84.03908794788273
91706,Los Angeles County,CA,44.52621895124195,NA
91762,San Bernardino County,CA,NA,23.452768729641694
91902,San Diego County,CA,87.12051517939283,NA
91915,San Diego County,CA,59.4296228150874,NA
91941,San Diego County,CA,67.1573137074517,NA
91950,San Diego County,CA,51.793928242870294,NA
92026,San Diego County,CA,21.71113155473781,NA
92054,San Diego County,CA,89.88040478380864,NA
92057,San Diego County,CA,NA,27.68729641693811
92102,San Diego County,CA,83.71665133394664,NA
92106,San Diego County,CA,70.00919963201471,NA
92111,San Diego County,CA,NA,31.596091205211724
92113,San Diego County,CA,13.523459061637535,NA
92122,San Diego County,CA,56.02575896964122,NA
92127,San Diego County,CA,74.14903403863845,NA
92223,Riverside County,CA,25.666973321067154,NA
92313,San Bernardino County,CA,89.60441582336706,NA
92359,San Bernardino County,CA,NA,76.54723127035831
92373,San Bernardino County,CA,20.607175712971483,NA
92407,San Bernardino County,CA,20.607175712971483,NA
92503,Riverside County,CA,22.907083716651332,NA
92509,Riverside County,CA,9.19963201471941,NA
92584,Riverside County,CA,31.002759889604413,NA
92805,Orange County,CA,NA,14.983713355048861
92882,Riverside County,CA,34.406623735050594,NA
93065,Ventura County,CA,64.48942042318308,NA
93306,Kern County,CA,19.043238270469182,NA
93311,Kern County,CA,38.17847286108555,NA
93458,Santa Barbara County,CA,40.29438822447102,NA
93510,Los Angeles County,CA,96.04415823367066,NA
93630,Fresno County,CA,33.94664213431462,NA
93638,Madera County,CA,29.53081876724931,NA
93702,Fresno County,CA,NA,27.36156351791531
93705,Fresno County,CA,11.315547378104876,NA
93710,Fresno County,CA,34.406623735050594,NA
93727,Fresno County,CA,6.347746090156393,9.120521172638437
93923,Monterey County,CA,99.81600735970562,NA
94010,San Mateo County,CA,39.926402943882245,NA
94066,San Mateo County,CA,78.65685372585097,NA
94080,San Mateo County,CA,50.50597976080957,NA
94086,Santa Clara County,CA,56.02575896964122,NA
94108,San Francisco County,CA,93.56025758969642,NA
94110,San Francisco County,CA,NA,34.85342019543974
94401,San Mateo County,CA,65.86936522539098,NA
94518,Contra Costa County,CA,NA,80.78175895765473
94521,Contra Costa County,CA,24.011039558417664,NA
94536,Alameda County,CA,69.08923643054278,NA
94541,Alameda County,CA,23.367065317387304,NA
94555,Alameda County,CA,81.87672493100277,NA
94565,Contra Costa County,CA,10.763569457221712,NA
94587,Alameda County,CA,47.65409383624655,NA
94591,Solano County,CA,70.65317387304508,NA
94612,Alameda County,CA,NA,61.88925081433225
94619,Alameda County,CA,64.67341306347745,NA
94806,Contra Costa County,CA,72.12511499540018,NA
94949,Marin County,CA,NA,65.14657980456026
95327,Tuolumne County,CA,94.20423183072677,NA
95348,Merced County,CA,11.315547378104876,NA
95376,San Joaquin County,CA,36.24655013799448,NA
95490,Mendocino County,CA,98.71205151793929,NA
95492,Sonoma County,CA,73.04507819687213,NA
95670,Sacramento County,CA,29.438822447102115,NA
95742,Sacramento County,CA,87.672493100276,NA
80003,Jefferson County,CO,15.915363385464582,NA
80011,Arapahoe County,CO,8.371665133394664,NA
80013,Arapahoe County,CO,NA,57.32899022801303
80015,Arapahoe County,CO,45.17019319227231,NA
80026,Boulder County,CO,48.482060717571294,NA
80102,Adams County,CO,67.06531738730452,NA
80104,Douglas County,CO,18.12327506899724,NA
80214,Jefferson County,CO,40.84636614535418,NA
80227,Jefferson County,CO,NA,28.013029315960914
80229,Adams County,CO,NA,14.332247557003258
80233,Adams County,CO,55.013799448022084,NA
80501,Boulder County,CO,18.031278748850045,NA
80524,Larimer County,CO,60.9935602575897,17.58957654723127
80550,Weld County,CO,36.706531738730455,NA
80602,Adams County,CO,32.474701011959525,NA
80610,Weld County,CO,96.04415823367066,NA
80903,El Paso County,CO,44.34222631094757,NA
80909,El Paso County,CO,NA,60.586319218241044
81082,Las Animas County,CO,70.92916283348666,NA
81401,Montrose County,CO,75.89696412143513,88.27361563517914
81504,Mesa County,CO,20.42318307267709,NA
81601,Garfield County,CO,97.148114075437,NA
06033,Hartford County,CT,NA,76.8729641693811
06040,Hartford County,CT,15.455381784728612,NA
06078,Hartford County,CT,65.13339466421343,NA
06109,Hartford County,CT,46.18215271389145,NA
06114,Hartford County,CT,35.970561177552895,NA
06413,Middlesex County,CT,57.03771849126035,NA
06416,Middlesex County,CT,63.66145354185833,NA
06450,New Haven County,CT,11.959521619135234,NA
06457,Middlesex County,CT,10.855565777368906,NA
06514,New Haven County,CT,20.883164673413063,NA
06790,Litchfield County,CT,11.039558417663294,NA
06851,Fairfield County,CT,27.230910763569455,NA
19709,New Castle County,DE,11.131554737810488,NA
19720,New Castle County,DE,56.57773689052438,NA
19803,New Castle County,DE,25.206991720331185,NA
19805,New Castle County,DE,NA,20.846905537459286
19904,Kent County,DE,49.12603495860166,NA
19953,Kent County,DE,87.672493100276,NA
32043,Clay County,FL,13.063477460901565,54.39739413680782
32068,Clay County,FL,35.23459061637534,NA
32080,St. Johns County,FL,NA,99.3485342019544
32211,Duval County,FL,88.04047838086476,NA
32225,Duval County,FL,58.32566697332106,96.09120521172639
32405,Bay County,FL,95.86016559337627,NA
32408,Bay County,FL,99.72401103955842,NA
32456,Gulf County,FL,87.30450781968722,NA
32539,Okaloosa County,FL,NA,42.99674267100978
32707,Seminole County,FL,NA,50.1628664495114
32765,Seminole County,FL,52.25390984360626,NA
32822,Orange County,FL,5.611775528978841,NA
32825,Orange County,FL,NA,17.263843648208468
32828,Orange County,FL,54.277828886844524,NA
33023,Broward County,FL,95.03219871205152,NA
33025,Broward County,FL,44.98620055197792,NA
33029,Broward County,FL,NA,30.944625407166125
33158,Miami-Dade County,FL,96.68813247470102,NA
33179,Miami-Dade County,FL,NA,36.807817589576544
33183,Miami-Dade County,FL,42.2263109475621,84.36482084690554
33194,Miami-Dade County,FL,99.44802207911684,NA
33321,Broward County,FL,NA,88.92508143322475
33325,Broward County,FL,47.19411223551057,NA
33406,Palm Beach County,FL,85.55657773689053,NA
33409,Palm Beach County,FL,NA,24.429967426710096
33417,Palm Beach County,FL,NA,98.0456026058632
33426,Palm Beach County,FL,98.98804047838087,NA
33428,Palm Beach County,FL,NA,86.64495114006515
33435,Palm Beach County,FL,71.29714811407544,NA
33444,Palm Beach County,FL,NA,99.0228013029316
33458,Palm Beach County,FL,96.59613615455382,NA
33463,Palm Beach County,FL,27.414903403863843,NA
33547,Hillsborough County,FL,76.08095676172954,NA
33559,Hillsborough County,FL,69.91720331186752,NA
33572,Hillsborough County,FL,74.33302667893284,NA
33578,Hillsborough County,FL,NA,73.9413680781759
33579,Hillsborough County,FL,43.146274149034035,NA
33597,Sumter County,FL,99.26402943882245,NA
33605,Hillsborough County,FL,61.453541858325664,NA
33610,Hillsborough County,FL,89.42042318307267,NA
33629,Hillsborough County,FL,60.71757129714811,NA
33647,Hillsborough County,FL,78.56485740570378,NA
33703,Pinellas County,FL,NA,97.39413680781759
33707,Pinellas County,FL,94.38822447102115,NA
33712,Pinellas County,FL,52.25390984360626,NA
33716,Pinellas County,FL,NA,57.00325732899023
33765,Pinellas County,FL,NA,69.38110749185668
33772,Pinellas County,FL,41.03035878564857,NA
33773,Pinellas County,FL,NA,91.85667752442997
33777,Pinellas County,FL,86.93652253909843,NA
33781,Pinellas County,FL,NA,73.28990228013029
33901,Lee County,FL,93.65225390984361,NA
33907,Lee County,FL,91.53633854645814,NA
33917,Lee County,FL,70.83716651333947,NA
33971,Lee County,FL,94.11223551057958,NA
33990,Lee County,FL,NA,50.4885993485342
34104,Collier County,FL,84.08463661453543,NA
34119,Collier County,FL,NA,63.51791530944625
34135,Lee County,FL,91.35234590616376,NA
34142,Collier County,FL,41.582336706531734,NA
34266,DeSoto County,FL,NA,23.12703583061889
34465,Citrus County,FL,94.48022079116836,NA
34470,Marion County,FL,30.542778288868444,NA
34602,Hernando County,FL,80.86476540938362,NA
34654,Pasco County,FL,90.43238270469182,NA
34668,Pasco County,FL,11.499540018399264,NA
34669,Pasco County,FL,66.42134314627415,40.71661237785016
34677,Pinellas County,FL,99.17203311867524,NA
34743,Osceola County,FL,21.619135234590615,NA
34746,Osceola County,FL,27.782888684452622,NA
34747,Osceola County,FL,NA,53.420195439739416
34953,St. Lucie County,FL,NA,16.286644951140065
34990,Martin County,FL,98.25206991720331,NA
30019,Gwinnett County,GA,12.97148114075437,NA
30067,Cobb County,GA,55.10579576816927,NA
30075,Fulton County,GA,14.627414903403862,NA
30076,Fulton County,GA,90.524379024839,NA
30135,Douglas County,GA,5.887764489420423,NA
30144,Cobb County,GA,57.7736890524379,NA
30223,Spalding County,GA,NA,35.17915309446254
30253,Henry County,GA,14.443422263109476,NA
30269,Fayette County,GA,55.565777368905245,NA
30274,Clayton County,GA,24.839006439742413,NA
30306,Fulton County,GA,92.27230910763569,NA
30331,Fulton County,GA,5.979760809567617,NA
30338,DeKalb County,GA,45.538178472861084,NA
30342,Fulton County,GA,59.15363385464582,NA
30401,Emanuel County,GA,85.64857405703772,NA
30458,Bulloch County,GA,50.68997240110396,NA
30507,Hall County,GA,37.074517019319224,NA
30563,Habersham County,GA,94.48022079116836,NA
30650,Morgan County,GA,91.90432382704692,NA
31324,Bryan County,GA,63.56945722171113,NA
31404,Chatham County,GA,27.138914443422262,NA
31520,Glynn County,GA,24.379024839006437,NA
31523,Glynn County,GA,74.88500459981601,NA
31701,Dougherty County,GA,60.34958601655934,NA
31705,Dougherty County,GA,22.539098436062556,NA
31707,Dougherty County,GA,31.186752529898804,NA
31714,Turner County,GA,96.8721251149954,NA
31771,Colquitt County,GA,83.80864765409383,NA
31794,Tift County,GA,51.70193192272309,NA
96744,Honolulu County,HI,NA,91.20521172638436
83221,Bingham County,ID,16.099356025758972,NA
83274,Bingham County,ID,NA,94.78827361563518
83301,Twin Falls County,ID,56.39374425022999,26.058631921824105
83318,Cassia County,ID,85.74057037718491,NA
83401,Bonneville County,ID,35.694572217111315,72.9641693811075
83402,Bonneville County,ID,80.68077276908923,38.43648208469055
83406,Bonneville County,ID,95.58417663293469,94.13680781758957
83427,Bonneville County,ID,99.63201471941122,NA
83440,Madison County,ID,NA,59.934853420195445
83442,Jefferson County,ID,NA,35.17915309446254
83605,Canyon County,ID,58.60165593376265,65.79804560260585
83607,Canyon County,ID,NA,18.566775244299674
83616,Ada County,ID,NA,51.14006514657981
83628,Owyhee County,ID,96.96412143514259,NA
83634,Ada County,ID,NA,83.38762214983714
83646,Ada County,ID,6.439742410303588,NA
83651,Canyon County,ID,NA,47.88273615635179
83660,Canyon County,ID,68.81324747010119,NA
83669,Ada County,ID,90.80036798528059,NA
83672,Washington County,ID,43.60625574977001,NA
83687,Canyon County,ID,74.88500459981601,NA
83705,Ada County,ID,NA,46.90553745928339
83805,Boundary County,ID,96.78012879484821,NA
83814,Kootenai County,ID,NA,53.74592833876222
83854,Kootenai County,ID,34.406623735050594,NA
60013,McHenry County,IL,37.258509659613615,NA
60091,Cook County,IL,32.198712051517944,NA
60099,Lake County,IL,83.53265869365225,NA
60106,DuPage County,IL,75.89696412143513,NA
60137,DuPage County,IL,14.259429622815087,NA
60202,Cook County,IL,NA,98.37133550488599
60423,Will County,IL,71.94112235510579,NA
60458,Cook County,IL,75.62097516099357,NA
60477,Cook County,IL,14.719411223551058,NA
60548,DeKalb County,IL,64.67341306347745,NA
60608,Cook County,IL,60.25758969641214,NA
60618,Cook County,IL,30.63477460901564,NA
60629,Cook County,IL,32.10671573137074,NA
60632,Cook County,IL,69.27322907083716,NA
60634,Cook County,IL,7.8196872125115,NA
60652,Cook County,IL,32.842686292548294,NA
60805,Cook County,IL,52.62189512419503,NA
61008,Boone County,IL,35.602575896964126,NA
61107,Winnebago County,IL,NA,98.69706840390879
61282,Rock Island County,IL,69.36522539098436,NA
61342,LaSalle County,IL,70.74517019319228,NA
61832,Vermilion County,IL,63.20147194112236,NA
62025,Madison County,IL,42.68629254829806,NA
62450,Richland County,IL,NA,100
62558,Sangamon County,IL,94.94020239190432,NA
62702,Sangamon County,IL,20.791168353265867,NA
62839,Clay County,IL,77.92088316467341,NA
62901,Jackson County,IL,85.28058877644894,NA
62918,Williamson County,IL,58.141674333026685,NA
46052,Boone County,IN,39.19043238270469,NA
46062,Hamilton County,IN,NA,57.65472312703584
46113,Marion County,IN,92.0883164673413,NA
46122,Hendricks County,IN,66.42134314627415,NA
46231,Marion County,IN,65.40938362465502,NA
46236,Marion County,IN,NA,90.87947882736157
46239,Marion County,IN,63.01747930082797,NA
46240,Marion County,IN,55.10579576816927,NA
46323,Lake County,IN,NA,85.34201954397395
46405,Lake County,IN,23.827046918123276,NA
46580,Kosciusko County,IN,76.90892364305428,NA
46614,St. Joseph County,IN,NA,82.08469055374593
46755,Noble County,IN,70.3771849126035,NA
46814,Allen County,IN,53.081876724931,NA
46992,Wabash County,IN,NA,62.866449511400646
47001,Dearborn County,IN,58.141674333026685,NA
47025,Dearborn County,IN,84.17663293468262,NA
47060,Dearborn County,IN,83.44066237350506,NA
47130,Clark County,IN,75.71297148114076,NA
47150,Floyd County,IN,NA,83.06188925081433
47201,Bartholomew County,IN,1.8399264029438822,NA
47220,Jackson County,IN,NA,89.25081433224756
47404,Monroe County,IN,93.92824287028519,NA
47421,Lawrence County,IN,55.93376264949402,87.62214983713355
47424,Greene County,IN,87.3965041398344,NA
47591,Knox County,IN,NA,71.33550488599349
47802,Vigo County,IN,76.72493100275989,NA
47933,Montgomery County,IN,55.473781048758056,NA
50009,Polk County,IA,NA,86.31921824104235
50022,Cass County,IA,74.88500459981601,NA
50036,Boone County,IA,73.59705611775529,NA
50072,Madison County,IA,93.7442502299908,NA
50315,Polk County,IA,NA,76.2214983713355
50316,Polk County,IA,78.2888684452622,NA
50428,Cerro Gordo County,IA,60.809567617295315,NA
50595,Hamilton County,IA,44.98620055197792,NA
50616,Floyd County,IA,58.693652253909846,NA
50701,Black Hawk County,IA,70.10119595216192,NA
50702,Black Hawk County,IA,41.306347746090154,NA
51104,Woodbury County,IA,89.51241950321987,NA
51503,Pottawattamie County,IA,42.41030358785648,NA
52068,Dubuque County,IA,99.54001839926403,NA
52302,Linn County,IA,86.84452621895124,NA
52339,Tama County,IA,73.68905243790248,NA
52402,Linn County,IA,49.770009199632014,NA
52403,Linn County,IA,NA,40.71661237785016
66102,Wyandotte County,KS,59.24563017479301,NA
66208,Johnson County,KS,34.406623735050594,NA
66604,Shawnee County,KS,90.15639374425022,NA
66614,Shawnee County,KS,50.78196872125115,NA
66801,Lyon County,KS,19.22723091076357,NA
67062,Harvey County,KS,87.12051517939283,NA
40162,Hardin County,KY,96.22815087396505,NA
40202,Jefferson County,KY,99.08003679852806,NA
40272,Jefferson County,KY,63.10947562097516,NA
40342,Anderson County,KY,NA,27.035830618892508
40456,Rockcastle County,KY,98.16007359705611,NA
40504,Fayette County,KY,60.625574977000916,NA
40508,Fayette County,KY,33.762649494020245,NA
40509,Fayette County,KY,83.62465501379944,NA
40511,Fayette County,KY,17.571297148114077,NA
40515,Fayette County,KY,NA,44.62540716612378
40965,Bell County,KY,44.52621895124195,NA
41005,Boone County,KY,24.011039558417664,NA
41042,Boone County,KY,NA,20.521172638436482
41051,Kenton County,KY,26.954921803127874,37.785016286644954
41056,Mason County,KY,39.926402943882245,38.762214983713356
41091,Boone County,KY,46.45814167433303,NA
41094,Boone County,KY,40.38638454461822,NA
41101,Boyd County,KY,14.811407543698252,NA
41129,Boyd County,KY,67.61729530818768,NA
41179,Lewis County,KY,69.36522539098436,NA
42003,McCracken County,KY,30.726770929162832,NA
42141,Barren County,KY,NA,48.20846905537459
42220,Todd County,KY,85.9245630174793,NA
42501,Pulaski County,KY,NA,42.01954397394137
70006,Jefferson Parish,LA,94.02023919043239,NA
70041,Plaquemines Parish,LA,NA,66.44951140065146
70058,Jefferson Parish,LA,0.18399264029438822,NA
70068,St. John the Baptist Parish,LA,47.83808647654094,NA
70119,Orleans Parish,LA,29.990800367985283,NA
70122,Orleans Parish,LA,NA,56.35179153094463
70123,Jefferson Parish,LA,85.37258509659613,NA
70354,Lafourche Parish,LA,57.405703771849126,NA
70461,St. Tammany Parish,LA,4.415823367065317,NA
70503,Lafayette Parish,LA,NA,5.863192182410423
70657,Beauregard Parish,LA,49.31002759889604,NA
70726,Livingston Parish,LA,6.071757129714812,NA
71006,Bossier Parish,LA,26.034958601655934,NA
71301,Rapides Parish,LA,7.451701931922723,NA
71303,Rapides Parish,LA,NA,46.579804560260584
71417,Grant Parish,LA,47.83808647654094,NA
03909,York County,ME,46.45814167433303,NA
04090,York County,ME,57.405703771849126,NA
04106,Cumberland County,ME,38.73045078196872,NA
04107,Cumberland County,ME,95.4001839926403,NA
04401,Penobscot County,ME,NA,23.778501628664493
04444,Penobscot County,ME,47.65409383624655,NA
04736,Aroostook County,ME,NA,29.967426710097723
04769,Aroostook County,ME,76.3569457221711,NA
04841,Knox County,ME,NA,48.85993485342019
04976,Somerset County,ME,18.675252989880406,NA
20723,Howard County,MD,42.502299908003685,NA
20772,Prince George's County,MD,38.638454461821524,NA
20871,Montgomery County,MD,53.35786568537259,NA
21001,Harford County,MD,78.196872125115,NA
21015,Harford County,MD,80.03679852805887,NA
21042,Howard County,MD,24.65501379944802,NA
21044,Howard County,MD,62.09751609935602,NA
21061,Anne Arundel County,MD,30.266789328426864,NA
21206,Baltimore city,MD,4.231830726770929,NA
21234,Baltimore County,MD,93.46826126954922,NA
21784,Carroll County,MD,19.687212511499542,NA
01013,Hampden County,MA,21.71113155473781,NA
01020,Hampden County,MA,47.56209751609936,NA
01075,Hampshire County,MA,NA,81.10749185667753
01105,Hampden County,MA,21.06715731370745,NA
01108,Hampden County,MA,12.235510579576816,4.5602605863192185
01109,Hampden County,MA,36.43054277828887,13.355048859934854
01201,Berkshire County,MA,28.978840846366143,NA
01420,Worcester County,MA,61.82152713891445,NA
01440,Worcester County,MA,64.39742410303589,NA
01469,Middlesex County,MA,92.91628334866606,NA
01540,Worcester County,MA,50.13799448022079,NA
01605,Worcester County,MA,10.027598896044159,NA
01760,Middlesex County,MA,40.6623735050598,NA
01824,Middlesex County,MA,39.374425022999084,NA
01841,Essex County,MA,0.09199632014719411,15.960912052117262
01843,Essex County,MA,2.2079116835326587,NA
01844,Essex County,MA,1.1959521619135236,NA
01854,Middlesex County,MA,1.7479300827966882,NA
01863,Middlesex County,MA,NA,68.40390879478826
01886,Middlesex County,MA,14.443422263109476,70.68403908794788
01938,Essex County,MA,71.8491260349586,NA
02052,Norfolk County,MA,37.71849126034959,NA
02072,Norfolk County,MA,72.40110395584176,NA
02090,Norfolk County,MA,54.00183992640294,NA
02115,Suffolk County,MA,NA,45.928338762214985
02124,Suffolk County,MA,2.8518859245630175,0.6514657980456027
02125,Suffolk County,MA,3.403863845446182,NA
02129,Suffolk County,MA,56.76172953081877,NA
02130,Suffolk County,MA,9.015639374425023,NA
02132,Suffolk County,MA,37.258509659613615,NA
02140,Middlesex County,MA,41.306347746090154,NA
02143,Middlesex County,MA,28.150873965041402,NA
02148,Middlesex County,MA,60.53357865685373,NA
02149,Middlesex County,MA,0.5519779208831647,NA
02150,Suffolk County,MA,26.494940202391902,21.49837133550489
02151,Suffolk County,MA,0.7359705611775529,NA
02152,Suffolk County,MA,11.959521619135234,NA
02169,Norfolk County,MA,17.019319227230913,NA
02171,Norfolk County,MA,NA,58.63192182410424
02176,Middlesex County,MA,19.779208831646734,NA
02324,Plymouth County,MA,26.678932842686294,NA
02332,Plymouth County,MA,66.32934682612695,NA
02339,Plymouth County,MA,68.16927322907084,NA
02446,Norfolk County,MA,10.211591536338545,NA
02467,Norfolk County,MA,15.363385464581416,NA
02474,Middlesex County,MA,23.551057957681692,NA
02476,Middlesex County,MA,29.7148114075437,NA
02540,Barnstable County,MA,46.45814167433303,NA
02557,Dukes County,MA,76.54093836246551,NA
02563,Barnstable County,MA,NA,97.71986970684038
02576,Plymouth County,MA,65.86936522539098,NA
02675,Barnstable County,MA,84.82060717571296,NA
02702,Bristol County,MA,83.16467341306347,NA
02703,Bristol County,MA,1.011959521619135,NA
02724,Bristol County,MA,9.475620975160993,NA
02744,Bristol County,MA,58.693652253909846,NA
02746,Bristol County,MA,56.301747930082804,NA
02748,Bristol County,MA,91.72033118675253,NA
02762,Norfolk County,MA,91.16835326586936,NA
02766,Bristol County,MA,98.3440662373505,NA
02769,Bristol County,MA,41.582336706531734,NA
02777,Bristol County,MA,16.375344986200552,NA
02780,Bristol County,MA,35.51057957681692,NA
02790,Bristol County,MA,97.88408463661453,NA
48021,Macomb County,MI,NA,49.5114006514658
48043,Macomb County,MI,40.84636614535418,NA
48044,Macomb County,MI,7.635694572217111,NA
48059,St. Clair County,MI,84.72861085556578,NA
48073,Oakland County,MI,51.609935602575895,NA
48084,Oakland County,MI,77.64489420423183,NA
48085,Oakland County,MI,78.47286108555657,NA
48089,Macomb County,MI,2.9438822447102115,NA
48091,Macomb County,MI,5.611775528978841,NA
48098,Oakland County,MI,88.40846366145354,NA
48108,Washtenaw County,MI,74.05703771849126,NA
48111,Wayne County,MI,64.94940202391905,NA
48125,Wayne County,MI,17.019319227230913,NA
48127,Wayne County,MI,9.659613615455381,NA
48150,Wayne County,MI,16.19135234590616,NA
48161,Monroe County,MI,NA,72.63843648208469
48166,Monroe County,MI,82.61269549218031,NA
48180,Wayne County,MI,25.94296228150874,NA
48183,Wayne County,MI,75.43698252069917,NA
48185,Wayne County,MI,3.771849126034959,NA
48187,Wayne County,MI,66.23735050597976,NA
48195,Wayne County,MI,54.46182152713891,NA
48197,Washtenaw County,MI,23.275068997240112,NA
48198,Washtenaw County,MI,10.303587856485741,NA
48208,Wayne County,MI,34.77460901563937,NA
48227,Wayne County,MI,14.995400183992642,NA
48228,Wayne County,MI,NA,12.052117263843648
48229,Wayne County,MI,42.04231830726771,NA
48301,Oakland County,MI,45.17019319227231,NA
48310,Macomb County,MI,59.06163753449862,NA
48316,Macomb County,MI,85.00459981600737,NA
48322,Oakland County,MI,78.74885004599817,58.95765472312704
48377,Oakland County,MI,54.277828886844524,NA
48382,Oakland County,MI,19.50321987120515,NA
48415,Saginaw County,MI,69.64121435142594,NA
48423,Genesee County,MI,61.63753449862005,NA
48446,Lapeer County,MI,84.4526218951242,NA
48473,Genesee County,MI,72.033118675253,NA
48509,Genesee County,MI,NA,71.66123778501628
48867,Shiawassee County,MI,4.507819687212511,NA
48910,Ingham County,MI,2.391904323827047,NA
49009,Kalamazoo County,MI,47.010119595216196,NA
49037,Calhoun County,MI,5.059797608095677,NA
49048,Kalamazoo County,MI,18.39926402943882,NA
49051,Calhoun County,MI,86.29254829806807,NA
49057,Van Buren County,MI,56.669733210671566,NA
49221,Lenawee County,MI,1.5639374425023,NA
49302,Kent County,MI,83.90064397424104,NA
49441,Muskegon County,MI,13.431462741490341,NA
49442,Muskegon County,MI,1.3799448022079117,NA
49509,Kent County,MI,14.167433302667892,NA
49512,Kent County,MI,65.86936522539098,NA
49765,Presque Isle County,MI,80.22079116835327,NA
55069,Chisago County,MN,97.51609935602575,NA
55071,Washington County,MN,NA,74.5928338762215
55104,Ramsey County,MN,63.66145354185833,NA
55106,Ramsey County,MN,NA,26.710097719869708
55112,Ramsey County,MN,77.82888684452622,NA
55117,Ramsey County,MN,57.31370745170194,NA
55120,Dakota County,MN,90.34038638454462,NA
55124,Dakota County,MN,76.81692732290708,NA
55125,Washington County,MN,73.68905243790248,NA
55126,Ramsey County,MN,NA,68.72964169381108
55129,Washington County,MN,NA,61.563517915309454
55302,Wright County,MN,77.00091996320147,NA
55303,Anoka County,MN,5.151793928242871,50.814332247557005
55316,Hennepin County,MN,62.557497700092,NA
55328,Wright County,MN,62.09751609935602,NA
55346,Hennepin County,MN,73.68905243790248,NA
55350,McLeod County,MN,NA,54.071661237785015
55378,Scott County,MN,43.054277828886846,NA
55387,Carver County,MN,80.22079116835327,NA
55398,Sherburne County,MN,80.22079116835327,NA
55403,Hennepin County,MN,86.75252989880404,NA
55404,Hennepin County,MN,28.88684452621895,NA
55406,Hennepin County,MN,58.87764489420423,52.11726384364821
55407,Hennepin County,MN,48.02207911683533,4.234527687296417
55411,Hennepin County,MN,6.807727690892364,NA
55416,Hennepin County,MN,21.159153633854647,NA
55417,Hennepin County,MN,53.633854645814175,NA
55423,Hennepin County,MN,74.79300827966881,NA
55427,Hennepin County,MN,90.89236430542779,NA
55430,Hennepin County,MN,35.78656853725851,NA
55431,Hennepin County,MN,69.36522539098436,NA
55912,Mower County,MN,22.171113155473783,NA
56031,Martin County,MN,65.31738730450782,NA
56063,Blue Earth County,MN,98.80404783808648,NA
56087,Brown County,MN,71.02115915363385,NA
56258,Lyon County,MN,77.18491260349586,NA
56308,Douglas County,MN,44.89420423183073,NA
56345,Morrison County,MN,NA,36.48208469055375
56479,Todd County,MN,41.306347746090154,NA
56510,Norman County,MN,93.28426862925483,NA
56567,Otter Tail County,MN,88.22447102115916,NA
56636,Itasca County,MN,51.057957681692734,NA
39046,Madison County,MS,12.78748850045998,NA
39073,Rankin County,MS,NA,45.928338762214985
39117,Scott County,MS,54.55381784728611,NA
39157,Madison County,MS,65.40938362465502,NA
39208,Rankin County,MS,30.726770929162832,NA
39328,Kemper County,MS,NA,95.11400651465797
39401,Forrest County,MS,84.36062557497699,NA
39402,Lamar County,MS,NA,24.104234527687296
39440,Jones County,MS,17.66329346826127,NA
39443,Jones County,MS,88.31646734130635,NA
39482,Lamar County,MS,79.6688132474701,NA
39501,Harrison County,MS,NA,8.469055374592834
39503,Harrison County,MS,50.229990800367986,NA
63011,St. Louis County,MO,85.09659613615456,NA
63050,Jefferson County,MO,44.52621895124195,NA
63109,St. Louis city,MO,47.102115915363385,NA
63301,St. Charles County,MO,8.003679852805888,NA
63368,St. Charles County,MO,7.267709291628336,NA
63459,Ralls County,MO,100,NA
63901,Butler County,MO,25.758969641214353,NA
64029,Jackson County,MO,17.939282428702853,NA
64030,Jackson County,MO,5.335786568537258,NA
64060,Clay County,MO,15.547378104875806,NA
64063,Jackson County,MO,35.78656853725851,NA
64093,Johnson County,MO,20.97516099356026,NA
64110,Jackson County,MO,26.5869365225391,NA
64112,Jackson County,MO,87.672493100276,NA
64113,Jackson County,MO,62.005519779208825,NA
64124,Jackson County,MO,86.20055197792088,24.429967426710096
64130,Jackson County,MO,6.2557497700092,NA
64131,Jackson County,MO,12.603495860165593,NA
64136,Jackson County,MO,91.44434222631095,NA
64152,Platte County,MO,9.383624655013799,NA
64154,Platte County,MO,73.96504139834407,NA
64155,Clay County,MO,27.69089236430543,NA
64156,Clay County,MO,79.11683532658694,NA
64429,Clinton County,MO,10.48758049678013,NA
64503,Buchanan County,MO,NA,19.54397394136808
64506,Buchanan County,MO,6.531738730450782,NA
65043,Callaway County,MO,NA,88.59934853420195
65202,Boone County,MO,1.2879484820607177,NA
65270,Randolph County,MO,13.155473781048757,NA
65401,Phelps County,MO,16.83532658693652,NA
65613,Polk County,MO,36.52253909843606,NA
65704,Wright County,MO,94.48022079116836,NA
59047,Park County,MT,97.79208831646734,NA
68164,Douglas County,NE,NA,69.70684039087948
68601,Platte County,NE,89.2364305427783,NA
89128,Clark County,NV,27.96688132474701,NA
89129,Clark County,NV,NA,41.36807817589577
89145,Clark County,NV,NA,90.22801302931596
89179,Clark County,NV,71.66513339466421,NA
89183,Clark County,NV,37.074517019319224,NA
89408,Lyon County,NV,31.922723091076357,NA
03042,Rockingham County,NH,95.95216191352345,NA
03054,Hillsborough County,NH,49.494020239190434,NA
07003,Essex County,NJ,28.058877644894203,NA
07010,Bergen County,NJ,49.494020239190434,NA
07017,Essex County,NJ,7.451701931922723,NA
07023,Union County,NJ,97.42410303587856,NA
07055,Passaic County,NJ,27.506899724011042,NA
07060,Union County,NJ,NA,34.20195439739413
07083,Union County,NJ,92.1803127874885,NA
07090,Union County,NJ,NA,80.13029315960912
07109,Essex County,NJ,NA,7.491856677524431
07111,Essex County,NJ,NA,44.299674267100976
07112,Essex County,NJ,NA,51.14006514657981
07202,Union County,NJ,NA,66.12377850162866
07206,Union County,NJ,NA,2.6058631921824107
07208,Union County,NJ,26.770929162833486,NA
07305,Hudson County,NJ,NA,34.527687296416936
07407,Bergen County,NJ,NA,71.00977198697068
07450,Bergen County,NJ,48.942042318307266,NA
07465,Passaic County,NJ,99.35602575896965,NA
07503,Passaic County,NJ,93.37626494940203,NA
07504,Passaic County,NJ,NA,21.172638436482085
07621,Bergen County,NJ,75.52897884084636,NA
07712,Monmouth County,NJ,13.615455381784727,NA
07724,Monmouth County,NJ,66.42134314627415,NA
07731,Monmouth County,NJ,22.447102115915364,NA
07874,Sussex County,NJ,73.41306347746091,NA
07940,Morris County,NJ,84.82060717571296,NA
08021,Camden County,NJ,2.667893284268629,NA
08043,Camden County,NJ,NA,89.57654723127035
08048,Burlington County,NJ,65.40938362465502,NA
08050,Ocean County,NJ,35.05059797608096,NA
08054,Burlington County,NJ,20.055197792088318,NA
08062,Gloucester County,NJ,13.799448022079117,NA
08085,Gloucester County,NJ,38.45446182152714,NA
08205,Atlantic County,NJ,20.3311867525299,NA
08215,Atlantic County,NJ,97.60809567617295,NA
08223,Cape May County,NJ,71.57313707451702,NA
08232,Atlantic County,NJ,NA,67.75244299674267
08515,Burlington County,NJ,91.62833486660533,NA
08534,Mercer County,NJ,59.4296228150874,NA
08540,Mercer County,NJ,42.96228150873965,NA
08619,Mercer County,NJ,24.011039558417664,NA
08629,Mercer County,NJ,95.12419503219871,NA
08701,Ocean County,NJ,21.251149954001843,13.029315960912053
08724,Ocean County,NJ,40.202391904323825,NA
08753,Ocean County,NJ,33.026678932842685,NA
08755,Ocean County,NJ,61.361545538178476,NA
08757,Ocean County,NJ,68.26126954921803,NA
08758,Ocean County,NJ,99.90800367985281,NA
08804,Hunterdon County,NJ,71.66513339466421,NA
08805,Somerset County,NJ,50.50597976080957,NA
08807,Somerset County,NJ,78.38086476540938,NA
08830,Middlesex County,NJ,48.758049678012874,NA
08831,Middlesex County,NJ,18.307267709291626,NA
08835,Somerset County,NJ,NA,62.21498371335505
08846,Middlesex County,NJ,96.41214351425943,NA
08873,Somerset County,NJ,42.318307267709294,78.17589576547232
08886,Warren County,NJ,96.50413983440662,NA
08901,Middlesex County,NJ,82.7046918123275,NA
87105,Bernalillo County,NM,18.951241950321986,NA
87106,Bernalillo County,NM,NA,45.60260586319218
87108,Bernalillo County,NM,NA,22.475570032573287
87301,McKinley County,NM,37.534498620055196,NA
87325,McKinley County,NM,64.67341306347745,NA
87401,San Juan County,NM,NA,22.80130293159609
87420,San Juan County,NM,40.47838086476541,NA
87506,Santa Fe County,NM,54.829806807727685,NA
87507,Santa Fe County,NM,35.23459061637534,NA
88001,Doa Ana County,NM,67.98528058877645,NA
88242,Lea County,NM,87.5804967801288,NA
10029,New York County,NY,NA,0
10030,New York County,NY,22.999080036798528,NA
10031,New York County,NY,74.60901563937442,NA
10032,New York County,NY,32.65869365225391,NA
10033,New York County,NY,16.83532658693652,NA
10303,Richmond County,NY,54.55381784728611,NA
10452,Bronx County,NY,1.1039558417663293,NA
10454,Bronx County,NY,48.114075436982525,16.938110749185668
10456,Bronx County,NY,8.187672493100276,0.32573289902280134
10458,Bronx County,NY,5.795768169273229,NA
10465,Bronx County,NY,37.81048758049678,NA
10467,Bronx County,NY,0.45998160073597055,1.3029315960912053
10468,Bronx County,NY,23.183072677092916,1.9543973941368076
10701,Westchester County,NY,NA,3.257328990228013
11206,Kings County,NY,NA,2.9315960912052117
11210,Kings County,NY,NA,19.86970684039088
11218,Kings County,NY,NA,8.794788273615636
11219,Kings County,NY,4.04783808647654,NA
11220,Kings County,NY,NA,0.9771986970684038
11224,Kings County,NY,15.087396504139836,NA
11225,Kings County,NY,17.47930082796688,NA
11229,Kings County,NY,29.7148114075437,NA
11232,Kings County,NY,67.80128794848206,NA
11234,Kings County,NY,NA,24.429967426710096
11236,Kings County,NY,NA,10.097719869706841
11238,Kings County,NY,68.62925482980681,NA
11354,Queens County,NY,13.983440662373505,NA
11368,Queens County,NY,14.075436982520701,NA
11373,Queens County,NY,3.6798528058877644,NA
11385,Queens County,NY,4.6918123275068995,6.840390879478828
11420,Queens County,NY,27.782888684452622,NA
11731,Suffolk County,NY,66.42134314627415,NA
11783,Nassau County,NY,NA,99.6742671009772
12303,Schenectady County,NY,28.61085556577737,NA
12508,Dutchess County,NY,53.35786568537259,NA
13027,Onondaga County,NY,36.89052437902484,NA
13090,Onondaga County,NY,22.539098436062556,NA
13211,Onondaga County,NY,81.87672493100277,NA
14207,Erie County,NY,17.019319227230913,NA
14210,Erie County,NY,35.23459061637534,NA
14220,Erie County,NY,59.61361545538178,NA
14304,Niagara County,NY,NA,52.44299674267101
14505,Wayne County,NY,51.517939282428706,NA
14526,Monroe County,NY,36.52253909843606,NA
14772,Cattaraugus County,NY,68.81324747010119,NA
27025,Rockingham County,NC,NA,49.8371335504886
27048,Rockingham County,NC,36.24655013799448,NA
27106,Forsyth County,NC,7.359705611775529,NA
27265,Guilford County,NC,NA,33.22475570032573
27332,Lee County,NC,NA,58.306188925081436
27520,Johnston County,NC,13.339466421343147,NA
27527,Johnston County,NC,90.524379024839,NA
27530,Wayne County,NC,36.79852805887764,NA
27574,Person County,NC,19.595216191352346,NA
27608,Wake County,NC,62.83348666053358,NA
27609,Wake County,NC,16.467341306347745,NA
27701,Durham County,NC,62.37350505979761,NA
27703,Durham County,NC,30.358785648574056,NA
27704,Durham County,NC,16.283348666053357,NA
27712,Durham County,NC,40.5703771849126,NA
27713,Durham County,NC,11.223551057957682,NA
27803,Nash County,NC,17.387304507819685,NA
27834,Pitt County,NC,58.41766329346826,NA
27909,Pasquotank County,NC,NA,14.006514657980457
27958,Currituck County,NC,57.7736890524379,NA
28025,Cabarrus County,NC,13.891444342226311,NA
28027,Cabarrus County,NC,NA,33.22475570032573
28054,Gaston County,NC,38.086476540938364,NA
28073,Cleveland County,NC,67.2493100275989,NA
28075,Cabarrus County,NC,80.12879484820607,NA
28079,Union County,NC,79.57681692732291,NA
28080,Lincoln County,NC,NA,85.66775244299674
28081,Cabarrus County,NC,79.30082796688133,NA
28083,Cabarrus County,NC,89.32842686292548,NA
28146,Rowan County,NC,56.02575896964122,NA
28152,Cleveland County,NC,52.62189512419503,NA
28208,Mecklenburg County,NC,4.875804967801288,NA
28215,Mecklenburg County,NC,50.41398344066237,29.64169381107492
28216,Mecklenburg County,NC,4.875804967801288,NA
28217,Mecklenburg County,NC,38.822447102115916,NA
28269,Mecklenburg County,NC,35.970561177552895,NA
28382,Sampson County,NC,68.26126954921803,NA
28398,Duplin County,NC,59.70561177552898,NA
28716,Haywood County,NC,48.85004599816008,NA
28785,Haywood County,NC,90.89236430542779,NA
28801,Buncombe County,NC,90.524379024839,NA
58103,Cass County,ND,18.12327506899724,NA
58201,Grand Forks County,ND,29.898804047838084,81.10749185667753
58301,Ramsey County,ND,73.5050597976081,NA
58503,Burleigh County,ND,66.88132474701011,NA
43004,Franklin County,OH,56.48574057037719,NA
43015,Delaware County,OH,4.323827046918123,NA
43044,Champaign County,OH,70.19319227230912,NA
43050,Knox County,OH,9.107635694572217,NA
43054,Franklin County,OH,35.05059797608096,NA
43055,Licking County,OH,2.02391904323827,5.537459283387622
43056,Licking County,OH,22.355105795768168,NA
43065,Delaware County,OH,60.16559337626495,NA
43068,Franklin County,OH,NA,43.32247557003257
43074,Delaware County,OH,97.70009199632015,NA
43076,Perry County,OH,79.30082796688133,NA
43081,Franklin County,OH,7.175712971481141,NA
43085,Franklin County,OH,95.76816927322908,NA
43119,Franklin County,OH,8.831646734130635,NA
43123,Franklin County,OH,68.99724011039558,12.703583061889251
43130,Fairfield County,OH,9.291628334866605,NA
43201,Franklin County,OH,NA,59.28338762214984
43206,Franklin County,OH,10.119595216191353,NA
43207,Franklin County,OH,62.741490340386385,NA
43209,Franklin County,OH,43.42226310947562,NA
43211,Franklin County,OH,1.6559337626494939,3.908794788273615
43213,Franklin County,OH,67.43330266789329,NA
43219,Franklin County,OH,8.27966881324747,NA
43220,Franklin County,OH,68.62925482980681,NA
43221,Franklin County,OH,33.11867525298988,NA
43227,Franklin County,OH,49.21803127874885,NA
43228,Franklin County,OH,0,NA
43230,Franklin County,OH,31.278748850046,11.400651465798045
43232,Franklin County,OH,39.650413983440664,53.09446254071661
43235,Franklin County,OH,95.67617295308187,NA
43302,Marion County,OH,33.39466421343146,6.514657980456026
43311,Logan County,OH,12.143514259429624,NA
43402,Wood County,OH,16.467341306347745,NA
43420,Sandusky County,OH,53.81784728610855,NA
43512,Defiance County,OH,10.671573137074516,NA
43528,Lucas County,OH,NA,75.57003257328991
43560,Lucas County,OH,3.035878564857406,NA
43605,Lucas County,OH,NA,15.309446254071663
43608,Lucas County,OH,2.483900643974241,NA
43609,Lucas County,OH,NA,57.65472312703584
43611,Lucas County,OH,82.52069917203312,NA
43612,Lucas County,OH,21.527138914443423,NA
43613,Lucas County,OH,24.56301747930083,54.72312703583062
43701,Muskingum County,OH,9.751609935602575,NA
43723,Guernsey County,OH,72.76908923643055,NA
43725,Guernsey County,OH,81.4167433302668,NA
43780,Guernsey County,OH,97.148114075437,NA
43812,Coshocton County,OH,26.310947562097514,NA
43822,Muskingum County,OH,64.0294388224471,NA
43920,Columbiana County,OH,21.34314627414903,NA
43947,Belmont County,OH,73.04507819687213,NA
44001,Lorain County,OH,NA,63.84364820846905
44047,Ashtabula County,OH,NA,32.24755700325733
44050,Lorain County,OH,58.04967801287948,NA
44054,Lorain County,OH,39.374425022999084,NA
44074,Lorain County,OH,NA,95.43973941368078
44094,Lake County,OH,NA,28.338762214983714
44095,Lake County,OH,50.96596136154554,NA
44102,Cuyahoga County,OH,NA,1.6286644951140066
44104,Cuyahoga County,OH,38.91444342226311,NA
44105,Cuyahoga County,OH,1.9319227230910765,NA
44108,Cuyahoga County,OH,NA,11.726384364820847
44109,Cuyahoga County,OH,0.27598896044158233,NA
44110,Cuyahoga County,OH,5.519779208831647,NA
44111,Cuyahoga County,OH,59.70561177552898,NA
44117,Cuyahoga County,OH,47.19411223551057,NA
44120,Cuyahoga County,OH,6.163753449862005,NA
44129,Cuyahoga County,OH,13.247470101195951,NA
44130,Cuyahoga County,OH,NA,31.27035830618892
44135,Cuyahoga County,OH,20.239190432382706,NA
44140,Cuyahoga County,OH,89.78840846366145,NA
44144,Cuyahoga County,OH,50.321987120515175,NA
44149,Cuyahoga County,OH,82.7966881324747,NA
44203,Summit County,OH,3.1278748850046,NA
44212,Medina County,OH,3.771849126034959,NA
44216,Summit County,OH,NA,42.671009771986974
44223,Summit County,OH,49.86200551977921,NA
44256,Medina County,OH,0.8279668813247469,NA
44266,Portage County,OH,NA,7.81758957654723
44306,Summit County,OH,3.219871205151794,NA
44310,Summit County,OH,NA,25.732899022801302
44314,Summit County,OH,3.9558417663293466,NA
44408,Columbiana County,OH,64.0294388224471,NA
44410,Trumbull County,OH,37.81048758049678,NA
44413,Columbiana County,OH,41.582336706531734,NA
44446,Trumbull County,OH,48.5740570377185,NA
44460,Columbiana County,OH,36.15455381784729,NA
44483,Trumbull County,OH,7.083716651333946,NA
44512,Mahoning County,OH,69.18123275068997,NA
44514,Mahoning County,OH,72.49310027598897,NA
44515,Mahoning County,OH,61.26954921803128,NA
44622,Tuscarawas County,OH,NA,66.77524429967427
44641,Stark County,OH,74.24103035878565,75.2442996742671
44646,Stark County,OH,80.77276908923643,NA
44685,Summit County,OH,25.0229990800368,NA
44691,Wayne County,OH,NA,10.749185667752444
44702,Stark County,OH,98.62005519779208,NA
44720,Stark County,OH,NA,72.31270358306189
44805,Ashland County,OH,7.911683532658693,NA
44820,Crawford County,OH,NA,9.77198697068404
44857,Huron County,OH,29.622815087396503,NA
44870,Erie County,OH,40.75436982520699,NA
44875,Richland County,OH,NA,69.70684039087948
44883,Seneca County,OH,11.683532658693652,NA
44906,Richland County,OH,6.6237350505979755,NA
45011,Butler County,OH,0.6439742410303588,NA
45013,Butler County,OH,1.3799448022079117,NA
45015,Butler County,OH,NA,84.69055374592834
45036,Warren County,OH,5.243790248390065,NA
45040,Warren County,OH,32.750689972401105,NA
45044,Butler County,OH,0.9199632014719411,NA
45066,Warren County,OH,83.99264029438822,NA
45069,Butler County,OH,NA,18.241042345276874
45102,Clermont County,OH,18.58325666973321,NA
45122,Clermont County,OH,44.06623735050598,NA
45123,Highland County,OH,31.922723091076357,NA
45150,Clermont County,OH,NA,77.19869706840392
45154,Brown County,OH,NA,46.90553745928339
45176,Clermont County,OH,NA,41.69381107491857
45177,Clinton County,OH,88.13247470101196,NA
45205,Hamilton County,OH,8.555657773689052,NA
45206,Hamilton County,OH,NA,35.17915309446254
45211,Hamilton County,OH,24.28702851885925,9.446254071661238
45215,Hamilton County,OH,10.395584176632934,30.618892508143325
45217,Hamilton County,OH,54.185832566697336,81.75895765472313
45223,Hamilton County,OH,52.52989880404784,NA
45224,Hamilton County,OH,53.26586936522539,NA
45229,Hamilton County,OH,NA,51.14006514657981
45231,Hamilton County,OH,17.75528978840846,3.5830618892508146
45237,Hamilton County,OH,81.50873965041399,NA
45238,Hamilton County,OH,3.3118675252989878,NA
45240,Hamilton County,OH,4.507819687212511,10.423452768729643
45247,Hamilton County,OH,66.78932842686292,NA
45320,Preble County,OH,39.74241030358785,NA
45331,Darke County,OH,21.435142594296227,NA
45335,Greene County,OH,76.54093836246551,NA
45385,Greene County,OH,18.491260349586017,NA
45424,Montgomery County,OH,NA,5.211726384364821
45432,Greene County,OH,29.990800367985283,NA
45449,Montgomery County,OH,8.923643054277829,NA
45458,Montgomery County,OH,77.73689052437902,NA
45503,Clark County,OH,84.5446182152714,64.16938110749186
45505,Clark County,OH,79.02483900643973,NA
45601,Ross County,OH,NA,37.13355048859935
45612,Ross County,OH,NA,71.9869706840391
45638,Lawrence County,OH,37.44250229990801,NA
45640,Jackson County,OH,38.362465501379944,NA
45680,Lawrence County,OH,23.73505059797608,NA
45692,Jackson County,OH,NA,29.31596091205212
45694,Scioto County,OH,88.50045998160073,NA
45697,Adams County,OH,NA,89.90228013029315
45729,Washington County,OH,87.672493100276,NA
45784,Washington County,OH,NA,40.390879478827365
45810,Hardin County,OH,47.19411223551057,NA
73075,Garvin County,OK,56.76172953081877,NA
73162,Oklahoma County,OK,73.04507819687213,NA
74133,Tulsa County,OK,NA,39.413680781758956
74571,Le Flore County,OK,74.70101195952162,NA
74820,Pontotoc County,OK,4.139834406623735,NA
97013,Clackamas County,OR,81.69273229070836,NA
97015,Clackamas County,OR,52.43790248390064,NA
97027,Clackamas County,OR,NA,60.26058631921825
97031,Hood River County,OR,31.55473781048758,NA
97032,Marion County,OR,NA,56.67752442996743
97034,Clackamas County,OR,89.97240110395585,NA
97058,Wasco County,OR,NA,83.71335504885994
97071,Marion County,OR,NA,22.149837133550488
97086,Clackamas County,OR,85.8325666973321,NA
97103,Clatsop County,OR,63.293468261269545,NA
97211,Multnomah County,OR,28.334866605335783,NA
97218,Multnomah County,OR,57.405703771849126,NA
97219,Multnomah County,OR,66.14535418583257,NA
97222,Clackamas County,OR,NA,59.60912052117264
97224,Washington County,OR,51.97792088316467,NA
97230,Multnomah County,OR,NA,26.058631921824105
97233,Multnomah County,OR,42.594296228150874,NA
97236,Multnomah County,OR,82.42870285188593,NA
97266,Multnomah County,OR,54.7378104875805,NA
97301,Marion County,OR,NA,31.921824104234524
97303,Marion County,OR,63.937442502299916,NA
97304,Polk County,OR,66.97332106715731,NA
97305,Marion County,OR,24.65501379944802,NA
97306,Marion County,OR,90.24839006439743,63.19218241042345
97338,Polk County,OR,82.24471021159154,NA
97378,Yamhill County,OR,76.08095676172954,NA
97496,Douglas County,OR,52.62189512419503,NA
97501,Jackson County,OR,71.11315547378105,NA
97703,Deschutes County,OR,92.3643054277829,NA
97838,Umatilla County,OR,45.722171113155476,NA
97862,Umatilla County,OR,43.23827046918123,NA
15042,Beaver County,PA,86.47654093836246,NA
15057,Washington County,PA,81.60073597056117,NA
15102,Allegheny County,PA,39.19043238270469,NA
15116,Allegheny County,PA,92.45630174793008,NA
15210,Allegheny County,PA,88.59245630174793,NA
15214,Allegheny County,PA,85.18859245630175,NA
15236,Allegheny County,PA,NA,96.41693811074919
15317,Washington County,PA,89.69641214351427,NA
15401,Fayette County,PA,55.84176632934683,NA
15801,Clearfield County,PA,16.467341306347745,NA
15825,Jefferson County,PA,72.95308187672494,NA
16335,Crawford County,PA,19.135234590616378,NA
16417,Erie County,PA,NA,79.47882736156352
16424,Crawford County,PA,97.05611775528979,NA
16509,Erie County,PA,NA,78.82736156351791
16511,Erie County,PA,45.90616375344986,NA
17036,Dauphin County,PA,61.72953081876725,NA
17225,Franklin County,PA,NA,77.52442996742671
17233,Fulton County,PA,94.84820607175713,NA
17331,York County,PA,49.40202391904324,49.185667752442995
17356,York County,PA,70.56117755289787,NA
17543,Lancaster County,PA,50.873965041398336,NA
17820,Columbia County,PA,NA,91.53094462540716
17842,Snyder County,PA,86.0165593376265,NA
17847,Northumberland County,PA,59.337626494940196,NA
17866,Northumberland County,PA,NA,93.81107491856677
17948,Schuylkill County,PA,NA,82.73615635179154
18018,Lehigh County,PA,72.21711131554738,NA
18036,Lehigh County,PA,15.639374425023,NA
18201,Luzerne County,PA,82.33670653173874,NA
18411,Lackawanna County,PA,80.86476540938362,NA
18640,Luzerne County,PA,21.8951241950322,NA
18902,Bucks County,PA,41.03035878564857,NA
18966,Bucks County,PA,39.0984360625575,NA
19004,Montgomery County,PA,92.54829806807727,NA
19015,Delaware County,PA,32.198712051517944,NA
19056,Bucks County,PA,93.10027598896045,NA
19082,Delaware County,PA,40.110395584176636,67.10097719869707
19087,Chester County,PA,88.77644894204232,NA
19107,Philadelphia County,PA,51.24195032198712,NA
19115,Philadelphia County,PA,92.82428702851885,NA
19116,Philadelphia County,PA,48.390064397424105,NA
19120,Philadelphia County,PA,NA,8.143322475570033
19124,Philadelphia County,PA,NA,4.88599348534202
19128,Philadelphia County,PA,42.1343146274149,NA
19130,Philadelphia County,PA,97.97608095676172,NA
19136,Philadelphia County,PA,79.20883164673414,NA
19140,Philadelphia County,PA,NA,16.612377850162865
19142,Philadelphia County,PA,88.9604415823367,NA
19151,Philadelphia County,PA,28.518859245630175,NA
19152,Philadelphia County,PA,67.70929162833487,25.407166123778502
19153,Philadelphia County,PA,64.30542778288869,NA
19355,Chester County,PA,93.00827966881324,NA
19401,Montgomery County,PA,72.30910763569457,NA
19428,Montgomery County,PA,NA,96.74267100977198
19473,Montgomery County,PA,97.33210671573137,NA
19560,Berks County,PA,NA,85.99348534201955
02861,Providence County,RI,24.839006439742413,NA
29070,Lexington County,SC,89.0524379024839,NA
29455,Charleston County,SC,95.2161913523459,NA
29464,Charleston County,SC,12.419503219871206,NA
29483,Dorchester County,SC,16.74333026678933,NA
29566,Horry County,SC,NA,92.83387622149837
29607,Greenville County,SC,68.07727690892365,NA
29611,Greenville County,SC,86.56853725850966,NA
29621,Anderson County,SC,28.334866605335783,NA
29627,Anderson County,SC,87.3965041398344,NA
29642,Pickens County,SC,33.57865685372585,NA
29650,Greenville County,SC,6.899724011039559,NA
29697,Anderson County,SC,45.722171113155476,NA
57106,Minnehaha County,SD,NA,33.876221498371336
57108,Lincoln County,SD,49.678012879484825,NA
37013,Davidson County,TN,10.9475620975161,NA
37080,Davidson County,TN,NA,77.85016286644951
37091,Marshall County,TN,NA,45.27687296416938
37122,Wilson County,TN,67.52529898804049,NA
37186,Sumner County,TN,59.98160073597057,NA
37206,Davidson County,TN,75.34498620055197,NA
37208,Davidson County,TN,90.06439742410303,NA
37217,Davidson County,TN,18.767249310027598,NA
37334,Lincoln County,TN,61.82152713891445,NA
37343,Hamilton County,TN,72.58509659613615,NA
37367,Bledsoe County,TN,12.5114995400184,NA
37407,Hamilton County,TN,48.114075436982525,NA
37416,Hamilton County,TN,90.89236430542779,NA
37601,Washington County,TN,79.94480220791168,NA
37641,Greene County,TN,55.28978840846366,NA
37659,Washington County,TN,46.09015639374425,NA
37664,Sullivan County,TN,21.98712051517939,NA
37743,Greene County,TN,33.21067157313708,NA
37745,Greene County,TN,11.775528978840846,NA
37813,Hamblen County,TN,33.94664213431462,NA
37830,Anderson County,TN,81.04875804967801,NA
37857,Hawkins County,TN,83.16467341306347,NA
37938,Knox County,TN,57.405703771849126,NA
38016,Shelby County,TN,70.46918123275069,NA
38017,Shelby County,TN,25.206991720331185,NA
38075,Hardeman County,TN,98.4360625574977,NA
38107,Shelby County,TN,39.83440662373505,NA
38109,Shelby County,TN,12.603495860165593,NA
38111,Shelby County,TN,NA,29.967426710097723
38116,Shelby County,TN,48.666053357865685,NA
38118,Shelby County,TN,31.462741490340385,NA
38127,Shelby County,TN,NA,55.048859934853425
38128,Shelby County,TN,23.91904323827047,NA
38141,Shelby County,TN,NA,37.45928338762215
38401,Maury County,TN,6.7157313707451705,NA
38506,Putnam County,TN,51.88592456301748,NA
75033,,TX,61.54553817847286,NA
75035,Collin County,TX,NA,46.90553745928339
75042,Dallas County,TX,NA,73.61563517915309
75054,Tarrant County,TX,89.14443422263109,NA
75056,Denton County,TX,62.28150873965041,60.586319218241044
75061,Dallas County,TX,71.20515179392825,NA
75070,Collin County,TX,19.963201471941122,NA
75087,Rockwall County,TX,21.98712051517939,NA
75088,Dallas County,TX,77.46090156393744,NA
75149,Dallas County,TX,NA,12.37785016286645
75227,Dallas County,TX,14.351425942962281,NA
75233,Dallas County,TX,53.081876724931,NA
75240,Dallas County,TX,NA,36.156351791530945
75491,Grayson County,TX,85.46458141674333,NA
75702,Smith County,TX,25.390984360625573,NA
75771,Smith County,TX,15.731370745170192,NA
75801,Anderson County,TX,NA,39.413680781758956
75964,Nacogdoches County,TX,39.0064397424103,55.37459283387622
76009,Johnson County,TX,82.98068077276909,NA
76013,Tarrant County,TX,NA,87.94788273615634
76017,Tarrant County,TX,52.161913523459056,NA
76082,Parker County,TX,54.92180312787488,NA
76104,Tarrant County,TX,NA,64.82084690553745
76110,Tarrant County,TX,91.26034958601656,NA
76115,Tarrant County,TX,NA,85.01628664495115
76119,Tarrant County,TX,9.843606255749771,NA
76234,Wise County,TX,59.70561177552898,NA
76502,Bell County,TX,38.17847286108555,NA
76528,Coryell County,TX,20.42318307267709,NA
76707,McLennan County,TX,22.171113155473783,NA
76901,Tom Green County,TX,91.72033118675253,NA
77007,Harris County,TX,94.75620975160993,NA
77025,Harris County,TX,33.30266789328427,NA
77034,Harris County,TX,NA,65.47231270358306
77037,Harris County,TX,NA,44.951140065146575
77040,Harris County,TX,42.870285188592455,NA
77043,Harris County,TX,73.3210671573137,NA
77044,Harris County,TX,33.48666053357866,NA
77053,Fort Bend County,TX,84.2686292548298,NA
77060,Harris County,TX,NA,86.97068403908796
77061,Harris County,TX,23.643054277828888,NA
77063,Harris County,TX,81.3247470101196,NA
77065,Harris County,TX,78.93284268629255,NA
77066,Harris County,TX,61.17755289788408,NA
77075,Harris County,TX,NA,13.355048859934854
77077,Harris County,TX,26.402943882244713,NA
77081,Harris County,TX,47.47010119595216,NA
77082,Harris County,TX,44.158233670653175,NA
77083,Harris County,TX,NA,42.01954397394137
77084,Harris County,TX,25.850965961361545,NA
77089,Harris County,TX,34.314627414903406,NA
77093,Harris County,TX,53.54185832566697,NA
77095,Harris County,TX,43.7902483900644,NA
77316,Montgomery County,TX,82.15271389144434,NA
77327,Liberty County,TX,NA,90.55374592833876
77336,Harris County,TX,19.411223551057958,NA
77356,Montgomery County,TX,NA,92.50814332247556
77386,Montgomery County,TX,NA,80.45602605863192
77407,Fort Bend County,TX,62.92548298068077,NA
77414,Matagorda County,TX,33.57865685372585,NA
77449,Harris County,TX,12.879484820607177,NA
77459,Fort Bend County,TX,83.07267709291628,NA
77469,Fort Bend County,TX,78.0128794848206,NA
77478,Fort Bend County,TX,46.45814167433303,NA
77494,Fort Bend County,TX,3.5878564857405704,NA
77505,Harris County,TX,77.00091996320147,NA
77532,Harris County,TX,31.370745170193192,NA
77536,Harris County,TX,82.8886844526219,NA
77539,Galveston County,TX,2.7598896044158234,NA
77545,Fort Bend County,TX,43.6982520699172,NA
77550,Galveston County,TX,NA,11.074918566775244
77568,Galveston County,TX,64.58141674333027,NA
77584,Brazoria County,TX,8.73965041398344,NA
77801,Brazos County,TX,55.28978840846366,NA
77803,Brazos County,TX,12.235510579576816,56.02605863192183
77807,Brazos County,TX,60.809567617295315,NA
78016,Medina County,TX,58.969641214351434,NA
78040,Webb County,TX,42.778288868445266,NA
78041,Webb County,TX,15.731370745170192,NA
78073,Bexar County,TX,86.93652253909843,NA
78102,Bee County,TX,NA,21.49837133550489
78109,Bexar County,TX,14.903403863845446,NA
78202,Bexar County,TX,62.557497700092,NA
78210,Bexar County,TX,19.22723091076357,NA
78223,Bexar County,TX,46.45814167433303,NA
78238,Bexar County,TX,25.48298068077277,NA
78253,Bexar County,TX,NA,68.07817589576547
78254,Bexar County,TX,NA,61.23778501628665
78332,Jim Wells County,TX,NA,6.188925081433225
78355,Brooks County,TX,56.76172953081877,NA
78374,San Patricio County,TX,75.71297148114076,NA
78380,Nueces County,TX,52.989880404783804,NA
78405,Nueces County,TX,81.78472861085557,NA
78410,Nueces County,TX,43.882244710211594,NA
78411,Nueces County,TX,25.114995400183993,NA
78417,Nueces County,TX,92.64029438822448,NA
78504,Hidalgo County,TX,NA,15.63517915309446
78520,Cameron County,TX,NA,32.57328990228013
78521,Cameron County,TX,98.06807727690892,43.648208469055376
78541,Hidalgo County,TX,NA,17.91530944625407
78542,Hidalgo County,TX,92.73229070837166,2.2801302931596092
78570,Hidalgo County,TX,NA,62.54071661237784
78577,Hidalgo County,TX,5.335786568537258,79.15309446254072
78586,Cameron County,TX,NA,94.46254071661238
78599,Hidalgo County,TX,NA,79.80456026058633
78624,Gillespie County,TX,NA,78.50162866449512
78634,Williamson County,TX,24.379024839006437,NA
78640,Hays County,TX,88.86844526218951,NA
78644,Caldwell County,TX,NA,48.534201954397396
78653,Travis County,TX,98.5280588776449,NA
78660,Travis County,TX,NA,20.195439739413683
78745,Travis County,TX,6.899724011039559,NA
78753,Travis County,TX,2.1159153633854646,NA
78754,Travis County,TX,NA,74.5928338762215
79601,Taylor County,TX,84.5446182152714,NA
79603,Taylor County,TX,27.04691812327507,NA
79606,Taylor County,TX,63.477460901563944,NA
79924,El Paso County,TX,7.727690892364306,NA
79925,El Paso County,TX,25.48298068077277,NA
79928,El Paso County,TX,69.64121435142594,NA
79935,El Paso County,TX,20.14719411223551,28.990228013029316
79938,El Paso County,TX,9.935602575896963,NA
84041,Davis County,UT,68.44526218951242,NA
84078,Uintah County,UT,2.2999080036798527,NA
84097,Utah County,UT,74.42502299908004,NA
84117,Salt Lake County,UT,37.534498620055196,NA
84120,Salt Lake County,UT,53.90984360625575,NA
84532,Grand County,UT,69.64121435142594,NA
05478,Franklin County,VT,NA,64.16938110749186
20109,Prince William County,VA,NA,19.218241042345277
20171,Fairfax County,VA,32.474701011959525,NA
22026,Prince William County,VA,51.057957681692734,NA
22181,Fairfax County,VA,54.09383624655014,NA
22203,Arlington County,VA,43.42226310947562,NA
22602,Frederick County,VA,53.633854645814175,NA
22630,Warren County,VA,NA,55.700325732899024
22701,Culpeper County,VA,15.271389144434222,NA
22903,Charlottesville city,VA,NA,97.06840390879479
22960,Orange County,VA,28.61085556577737,NA
23227,Henrico County,VA,62.4655013799448,NA
23321,Chesapeake city,VA,8.09567617295308,NA
23430,Isle of Wight County,VA,39.374425022999084,NA
23434,Suffolk city,VA,11.591536338546458,38.11074918566775
23452,Virginia Beach city,VA,11.775528978840846,NA
23454,Virginia Beach city,VA,29.16283348666053,NA
23462,Virginia Beach city,VA,8.647654093836247,NA
23503,Norfolk city,VA,63.38546458141674,NA
97003,NA,NA,65.40938362465502,NA
23703,Portsmouth city,VA,67.34130634774608,NA
24012,Roanoke city,VA,41.85832566697332,NA
24017,Roanoke city,VA,17.75528978840846,75.8957654723127
24060,Montgomery County,VA,59.98160073597057,NA
24179,Roanoke County,VA,45.17019319227231,39.08794788273616
24354,Smyth County,VA,NA,82.41042345276874
24641,Tazewell County,VA,81.2327506899724,NA
98023,King County,WA,71.38914443422263,NA
98055,King County,WA,57.7736890524379,NA
98056,King County,WA,45.17019319227231,NA
98118,King County,WA,26.12695492180313,NA
98121,King County,WA,74.88500459981601,NA
98155,King County,WA,34.95860165593376,NA
98199,King County,WA,38.45446182152714,NA
98208,Snohomish County,WA,76.44894204231831,NA
98221,Skagit County,WA,86.38454461821527,NA
98258,Snohomish County,WA,64.21343146274148,NA
98264,Whatcom County,WA,72.58509659613615,NA
98270,Snohomish County,WA,19.779208831646734,NA
98310,Kitsap County,WA,57.03771849126035,NA
98311,Kitsap County,WA,86.10855565777369,67.42671009771986
98360,Pierce County,WA,31.646734130634773,NA
98362,Clallam County,WA,75.25298988040478,NA
98363,Clallam County,WA,NA,93.15960912052117
98382,Clallam County,WA,34.77460901563937,NA
98383,Kitsap County,WA,NA,93.48534201954396
98391,Pierce County,WA,18.859245630174794,NA
98405,Pierce County,WA,16.007359705611776,NA
98444,Pierce County,WA,26.12695492180313,NA
98502,Thurston County,WA,52.62189512419503,NA
98503,Thurston County,WA,34.130634774609014,NA
98516,Thurston County,WA,78.1048758049678,NA
98597,Thurston County,WA,65.13339466421343,NA
98632,Cowlitz County,WA,70.19319227230912,NA
98665,Clark County,WA,64.94940202391905,NA
98826,Chelan County,WA,79.7608095676173,NA
98901,Yakima County,WA,83.16467341306347,NA
98902,Yakima County,WA,55.565777368905245,NA
98908,Yakima County,WA,NA,74.2671009771987
98936,Yakima County,WA,NA,95.43973941368078
99337,Benton County,WA,81.1407543698252,NA
20011,District of Columbia,DC,9.475620975160993,NA
20020,District of Columbia,DC,3.4958601655933763,70.35830618892508
24739,Mercer County,WV,NA,43.97394136807817
25430,Jefferson County,WV,51.24195032198712,NA
26101,Wood County,WV,NA,18.566775244299674
26501,Monongalia County,WV,29.346826126954923,NA
53074,Ozaukee County,WI,95.3081876724931,NA
53097,Ozaukee County,WI,76.08095676172954,NA
53158,Kenosha County,WI,23.367065317387304,NA
53185,Racine County,WI,NA,40.06514657980456
53189,Waukesha County,WI,28.242870285188594,NA
53190,Walworth County,WI,50.0459981600736,NA
53208,Milwaukee County,WI,NA,14.65798045602606
53215,Milwaukee County,WI,28.794848206071755,NA
53217,Milwaukee County,WI,46.36614535418583,NA
53223,Milwaukee County,WI,36.982520699172035,NA
53227,Milwaukee County,WI,NA,69.05537459283387
53525,Rock County,WI,81.87672493100277,NA
53538,Jefferson County,WI,NA,52.76872964169381
53551,Jefferson County,WI,77.27690892364305,NA
53716,Dane County,WI,27.32290708371665,NA
53818,Grant County,WI,52.06991720331187,NA
53959,Sauk County,WI,29.070837166513343,NA
53965,Sauk County,WI,30.726770929162832,NA
54165,Outagamie County,WI,58.50965961361545,NA
54220,Manitowoc County,WI,68.53725850965961,NA
54601,La Crosse County,WI,15.087396504139836,NA
54650,La Crosse County,WI,79.30082796688133,NA
54729,Chippewa County,WI,61.08555657773689,NA
54880,Douglas County,WI,0.36798528058877644,NA
54982,Waushara County,WI,88.68445262189513,NA
