ZipCode,county,state,Adult,Retirement,Geriatric
35022,Jefferson County,AL,NA,NA,20.13201320132013
35023,Jefferson County,AL,NA,13.559322033898304,NA
35043,Shelby County,AL,76.6826923076923,NA,NA
35209,Jefferson County,AL,NA,64.09861325115563,66.996699669967
35211,Jefferson County,AL,NA,NA,33.003300330033
35215,Jefferson County,AL,NA,35.59322033898305,34.32343234323432
35226,Jefferson County,AL,NA,21.879815100154083,NA
35243,Jefferson County,AL,NA,NA,98.34983498349835
35601,Morgan County,AL,NA,NA,29.372937293729372
35620,Limestone County,AL,NA,78.42835130970724,NA
35633,Lauderdale County,AL,NA,58.24345146379045,NA
35661,Colbert County,AL,84.13461538461539,NA,NA
35674,Colbert County,AL,33.894230769230774,NA,NA
35905,Etowah County,AL,NA,NA,90.42904290429043
35961,DeKalb County,AL,NA,96.45608628659477,NA
35962,DeKalb County,AL,NA,NA,94.05940594059405
35976,Marshall County,AL,NA,34.20647149460709,NA
36027,Barbour County,AL,39.18269230769231,NA,NA
36278,Randolph County,AL,NA,87.51926040061633,NA
36567,Baldwin County,AL,59.855769230769226,NA,NA
36870,Lee County,AL,NA,NA,72.93729372937293
99507,Anchorage Municipality,AK,NA,49.152542372881356,NA
85003,Maricopa County,AZ,NA,97.22650231124807,NA
85016,Maricopa County,AZ,NA,NA,63.03630363036304
85040,Maricopa County,AZ,NA,NA,73.26732673267327
85083,Maricopa County,AZ,NA,NA,87.12871287128714
85122,Pinal County,AZ,6.25,10.939907550077042,NA
85128,Pinal County,AZ,NA,54.853620955315876,NA
85132,Pinal County,AZ,37.25961538461539,NA,NA
85249,Maricopa County,AZ,45.67307692307692,NA,NA
85306,Maricopa County,AZ,NA,NA,56.43564356435643
85308,Maricopa County,AZ,32.45192307692308,NA,NA
85331,Maricopa County,AZ,54.08653846153846,78.12018489984591,NA
85338,Maricopa County,AZ,31.971153846153843,NA,NA
85340,Maricopa County,AZ,61.29807692307693,NA,NA
85363,Maricopa County,AZ,77.64423076923077,NA,NA
85365,Yuma County,AZ,NA,NA,11.55115511551155
85381,Maricopa County,AZ,NA,72.41910631741139,NA
85501,Gila County,AZ,NA,NA,75.9075907590759
85622,Pima County,AZ,NA,62.71186440677966,NA
85704,Pima County,AZ,NA,29.583975346687215,NA
85705,Pima County,AZ,NA,6.163328197226503,NA
85706,Pima County,AZ,2.644230769230769,NA,NA
85710,Pima County,AZ,32.69230769230769,NA,7.2607260726072615
85713,Pima County,AZ,5.528846153846153,NA,NA
85746,Pima County,AZ,10.336538461538462,NA,NA
86005,Coconino County,AZ,NA,69.02927580893683,NA
86323,Yavapai County,AZ,50.72115384615385,NA,NA
86401,Mohave County,AZ,34.13461538461539,NA,NA
71665,Cleveland County,AR,93.99038461538461,NA,NA
71671,Bradley County,AR,NA,NA,76.89768976897689
71857,Nevada County,AR,NA,96.14791987673344,NA
71913,Garland County,AR,NA,59.47611710323575,NA
72012,White County,AR,NA,NA,70.62706270627062
72034,Faulkner County,AR,NA,47.61171032357473,NA
72076,Pulaski County,AR,48.55769230769231,NA,NA
72081,White County,AR,NA,80.73959938366718,NA
72104,Hot Spring County,AR,NA,57.6271186440678,NA
72150,Grant County,AR,NA,93.99075500770417,NA
72703,Washington County,AR,89.90384615384616,NA,NA
72762,Washington County,AR,46.875,NA,NA
72823,Pope County,AR,NA,88.9060092449923,NA
72830,Johnson County,AR,76.20192307692307,NA,NA
72921,Crawford County,AR,75,NA,NA
72927,Logan County,AR,NA,78.73651771956857,NA
90011,Los Angeles County,CA,21.153846153846153,NA,NA
90016,Los Angeles County,CA,NA,22.496147919876734,NA
90017,Los Angeles County,CA,NA,79.35285053929123,NA
90020,Los Angeles County,CA,NA,51.771956856702616,NA
90036,Los Angeles County,CA,NA,NA,30.363036303630363
90038,Los Angeles County,CA,NA,70.72419106317412,NA
90042,Los Angeles County,CA,51.682692307692314,NA,NA
90046,Los Angeles County,CA,NA,23.42064714946071,NA
90066,Los Angeles County,CA,NA,31.741140215716484,NA
90201,Los Angeles County,CA,NA,68.87519260400616,NA
90249,Los Angeles County,CA,76.6826923076923,NA,NA
90250,Los Angeles County,CA,20.432692307692307,NA,NA
90265,Los Angeles County,CA,NA,90.13867488443759,NA
90277,Los Angeles County,CA,51.92307692307693,NA,NA
90280,Los Angeles County,CA,28.60576923076923,35.59322033898305,NA
90660,Los Angeles County,CA,25.721153846153843,NA,NA
90706,Los Angeles County,CA,21.875,NA,NA
90710,Los Angeles County,CA,98.79807692307693,NA,NA
90731,Los Angeles County,CA,27.64423076923077,NA,NA
90803,Los Angeles County,CA,NA,97.07241910631741,NA
90804,Los Angeles County,CA,43.99038461538461,NA,NA
90805,Los Angeles County,CA,14.423076923076922,NA,NA
91203,Los Angeles County,CA,NA,NA,78.87788778877888
91206,Los Angeles County,CA,NA,79.66101694915254,NA
91335,Los Angeles County,CA,NA,32.973805855161785,NA
91342,Los Angeles County,CA,NA,12.942989214175654,NA
91352,Los Angeles County,CA,NA,42.68104776579353,NA
91362,Ventura County,CA,NA,71.80277349768875,NA
91387,Los Angeles County,CA,NA,NA,75.24752475247524
91604,Los Angeles County,CA,NA,56.08628659476117,NA
91710,San Bernardino County,CA,NA,18.952234206471495,NA
91732,Los Angeles County,CA,NA,30.81664098613251,NA
91737,San Bernardino County,CA,73.3173076923077,NA,NA
91744,Los Angeles County,CA,NA,26.348228043143294,NA
91745,Los Angeles County,CA,NA,43.451463790446844,NA
91746,Los Angeles County,CA,NA,77.19568567026194,NA
91750,Los Angeles County,CA,NA,NA,30.693069306930692
91786,San Bernardino County,CA,NA,NA,74.91749174917491
91790,Los Angeles County,CA,51.20192307692307,NA,NA
91911,San Diego County,CA,NA,17.719568567026194,NA
91950,San Diego County,CA,36.05769230769231,NA,NA
92008,San Diego County,CA,NA,NA,40.92409240924093
92020,San Diego County,CA,NA,6.6255778120184905,NA
92056,San Diego County,CA,NA,NA,12.871287128712872
92065,San Diego County,CA,48.31730769230769,NA,NA
92071,San Diego County,CA,NA,38.674884437596305,NA
92118,San Diego County,CA,NA,63.790446841294305,NA
92128,San Diego County,CA,NA,75.80893682588598,NA
92203,Riverside County,CA,NA,NA,28.38283828382838
92211,Riverside County,CA,NA,NA,3.6303630363036308
92236,Riverside County,CA,NA,NA,91.41914191419141
92243,Imperial County,CA,NA,65.17719568567027,NA
92270,Riverside County,CA,NA,76.42526964560862,NA
92301,San Bernardino County,CA,62.25961538461539,NA,NA
92335,San Bernardino County,CA,NA,48.69029275808937,NA
92346,San Bernardino County,CA,NA,44.06779661016949,NA
92376,San Bernardino County,CA,31.25,15.716486902927581,NA
92503,Riverside County,CA,NA,NA,38.28382838283829
92555,Riverside County,CA,95.1923076923077,NA,NA
92603,Orange County,CA,82.45192307692307,NA,NA
92627,Orange County,CA,NA,30.0462249614792,NA
92630,Orange County,CA,31.009615384615387,NA,NA
92677,Orange County,CA,NA,NA,21.122112211221122
92708,Orange County,CA,35.09615384615385,NA,NA
92807,Orange County,CA,NA,NA,42.244224422442244
92832,Orange County,CA,NA,86.4406779661017,NA
92835,Orange County,CA,NA,NA,19.801980198019802
92845,Orange County,CA,NA,62.865947611710325,NA
92867,Orange County,CA,NA,52.54237288135594,NA
93003,Ventura County,CA,NA,20.33898305084746,NA
93004,Ventura County,CA,NA,76.73343605546995,NA
93012,Ventura County,CA,NA,42.06471494607088,26.4026402640264
93030,Ventura County,CA,47.83653846153847,NA,NA
93103,Santa Barbara County,CA,81.73076923076923,NA,NA
93257,Tulare County,CA,11.057692307692307,NA,NA
93277,Tulare County,CA,NA,51.00154083204931,NA
93291,Tulare County,CA,NA,NA,25.082508250825082
93311,Kern County,CA,NA,81.66409861325116,NA
93560,Kern County,CA,71.875,NA,NA
93619,Fresno County,CA,NA,40.67796610169492,NA
93725,Fresno County,CA,NA,NA,83.82838283828383
93940,Monterey County,CA,NA,NA,19.471947194719473
93955,Monterey County,CA,38.94230769230769,NA,NA
94066,San Mateo County,CA,NA,8.782742681047766,NA
94133,San Francisco County,CA,NA,44.99229583975347,NA
94134,San Francisco County,CA,NA,NA,27.39273927392739
94401,San Mateo County,CA,94.23076923076923,NA,NA
94520,Contra Costa County,CA,NA,NA,70.95709570957096
94533,Solano County,CA,19.71153846153846,NA,NA
94538,Alameda County,CA,NA,42.98921417565486,NA
94558,Napa County,CA,NA,53.004622496147924,NA
94560,Alameda County,CA,53.36538461538461,NA,NA
94571,Solano County,CA,NA,92.29583975346686,NA
94705,Alameda County,CA,99.03846153846155,NA,NA
95020,Santa Clara County,CA,29.567307692307693,NA,NA
95023,San Benito County,CA,NA,67.33436055469953,NA
95037,Santa Clara County,CA,55.28846153846154,66.2557781201849,NA
95051,Santa Clara County,CA,44.47115384615385,NA,NA
95076,Santa Cruz County,CA,NA,16.94915254237288,NA
95118,Santa Clara County,CA,59.61538461538461,NA,NA
95124,Santa Clara County,CA,NA,37.442218798151,NA
95125,Santa Clara County,CA,NA,21.263482280431433,NA
95128,Santa Clara County,CA,35.09615384615385,NA,NA
95204,San Joaquin County,CA,NA,NA,97.02970297029702
95354,Stanislaus County,CA,30.288461538461537,NA,NA
95355,Stanislaus County,CA,6.490384615384616,NA,NA
95366,San Joaquin County,CA,NA,NA,91.74917491749174
95407,Sonoma County,CA,NA,NA,61.386138613861384
95409,Sonoma County,CA,80.52884615384616,NA,NA
95605,Yolo County,CA,NA,NA,98.01980198019803
95628,Sacramento County,CA,NA,39.44530046224962,NA
95630,Sacramento County,CA,NA,17.103235747303543,NA
95667,El Dorado County,CA,NA,26.810477657935284,NA
95678,Placer County,CA,NA,NA,56.76567656765676
95687,Solano County,CA,NA,22.033898305084744,NA
95726,El Dorado County,CA,75.96153846153845,NA,NA
95742,Sacramento County,CA,NA,99.53775038520801,NA
95817,Sacramento County,CA,NA,66.56394453004623,NA
95833,Sacramento County,CA,NA,92.14175654853621,NA
95838,Sacramento County,CA,NA,93.52850539291218,NA
95864,Sacramento County,CA,NA,73.34360554699538,NA
95969,Butte County,CA,NA,6.00924499229584,NA
96003,Shasta County,CA,NA,24.65331278890601,NA
96080,Tehama County,CA,42.54807692307692,NA,NA
96094,Siskiyou County,CA,NA,65.63944530046226,NA
96097,Siskiyou County,CA,NA,55.62403697996918,NA
80003,Jefferson County,CO,45.19230769230769,NA,NA
80004,Jefferson County,CO,NA,NA,37.95379537953795
80011,Arapahoe County,CO,NA,32.973805855161785,NA
80014,Arapahoe County,CO,NA,59.93836671802774,NA
80122,Arapahoe County,CO,52.16346153846154,NA,NA
80126,Douglas County,CO,NA,NA,78.54785478547855
80130,Douglas County,CO,NA,77.96610169491525,NA
80226,Jefferson County,CO,NA,72.72727272727273,59.4059405940594
80228,Jefferson County,CO,53.84615384615385,NA,NA
80237,Denver County,CO,NA,58.24345146379045,NA
80260,Adams County,CO,46.15384615384615,NA,NA
80525,Larimer County,CO,NA,60.55469953775039,NA
80907,El Paso County,CO,NA,NA,49.17491749174918
80908,El Paso County,CO,NA,81.51001540832048,NA
80909,El Paso County,CO,20.673076923076923,NA,NA
80920,El Paso County,CO,56.97115384615385,NA,NA
81201,Chaffee County,CO,NA,90.9090909090909,NA
06002,Hartford County,CT,NA,29.121725731895225,NA
06037,Hartford County,CT,NA,56.39445300462249,39.603960396039604
06095,Hartford County,CT,NA,28.8135593220339,NA
06105,Hartford County,CT,NA,33.59013867488444,NA
06107,Hartford County,CT,94.71153846153845,67.95069337442219,NA
06413,Middlesex County,CT,59.13461538461539,NA,NA
06460,New Haven County,CT,NA,15.408320493066254,NA
06478,New Haven County,CT,NA,61.63328197226502,NA
06608,Fairfield County,CT,NA,92.75808936825885,NA
06610,Fairfield County,CT,24.759615384615387,NA,NA
06611,Fairfield County,CT,NA,NA,31.353135313531354
19709,New Castle County,DE,NA,71.34052388289676,NA
19720,New Castle County,DE,NA,2.6194144838212634,NA
19808,New Castle County,DE,NA,22.18798151001541,NA
19810,New Castle County,DE,NA,97.5346687211094,NA
32065,Clay County,FL,41.82692307692308,NA,NA
32086,St. Johns County,FL,NA,18.64406779661017,NA
32127,Volusia County,FL,NA,NA,24.09240924092409
32129,Volusia County,FL,NA,66.71802773497689,NA
32134,Marion County,FL,NA,96.61016949152543,NA
32159,Lake County,FL,NA,57.01078582434514,NA
32206,Duval County,FL,NA,NA,74.58745874587459
32224,Duval County,FL,NA,42.3728813559322,NA
32234,Duval County,FL,78.125,NA,NA
32246,Duval County,FL,NA,23.112480739599384,NA
32256,Duval County,FL,NA,37.59630200308167,NA
32257,Duval County,FL,NA,23.57473035439137,NA
32312,Leon County,FL,92.54807692307693,NA,NA
32413,Bay County,FL,NA,50.847457627118644,NA
32424,Calhoun County,FL,NA,75.19260400616334,NA
32446,Jackson County,FL,NA,60.86286594761171,NA
32448,Jackson County,FL,NA,78.12018489984591,NA
32503,Escambia County,FL,NA,13.251155624036981,NA
32514,Escambia County,FL,NA,12.326656394453005,NA
32541,Okaloosa County,FL,NA,38.058551617873654,NA
32571,Santa Rosa County,FL,NA,NA,87.45874587458746
32578,Okaloosa County,FL,NA,19.72265023112481,NA
32608,Alachua County,FL,27.403846153846157,NA,NA
32653,Alachua County,FL,NA,36.517719568567024,NA
32708,Seminole County,FL,NA,37.13405238828968,NA
32738,Volusia County,FL,36.29807692307692,NA,47.194719471947195
32776,Lake County,FL,NA,77.04160246533128,NA
32778,Lake County,FL,NA,75.19260400616334,NA
32779,Seminole County,FL,70.1923076923077,NA,NA
32825,Orange County,FL,NA,NA,44.884488448844884
32907,Brevard County,FL,NA,NA,74.25742574257426
32958,Indian River County,FL,NA,10.015408320493066,NA
32968,Indian River County,FL,NA,58.089368258859785,NA
33010,Miami-Dade County,FL,NA,39.753466872110934,NA
33012,Miami-Dade County,FL,NA,22.95839753466872,NA
33018,Miami-Dade County,FL,96.39423076923077,53.15870570107858,NA
33019,Broward County,FL,NA,77.50385208012327,NA
33021,Broward County,FL,NA,NA,5.6105610561056105
33025,Broward County,FL,NA,51.15562403697997,NA
33033,Miami-Dade County,FL,41.34615384615385,NA,NA
33063,Broward County,FL,NA,NA,12.541254125412541
33073,Broward County,FL,64.1826923076923,95.68567026194145,NA
33130,Miami-Dade County,FL,NA,61.94144838212635,NA
33156,Miami-Dade County,FL,NA,NA,45.87458745874587
33157,Miami-Dade County,FL,NA,21.571648690292758,NA
33161,Miami-Dade County,FL,33.65384615384615,NA,NA
33165,Miami-Dade County,FL,NA,34.05238828967643,NA
33175,Miami-Dade County,FL,NA,24.345146379044685,NA
33179,Miami-Dade County,FL,NA,NA,38.613861386138616
33190,Miami-Dade County,FL,NA,97.99691833590138,NA
33196,Miami-Dade County,FL,NA,61.78736517719569,NA
33321,Broward County,FL,NA,59.32203389830508,NA
33323,Broward County,FL,NA,72.57318952234206,NA
33406,Palm Beach County,FL,72.59615384615384,NA,NA
33409,Palm Beach County,FL,61.77884615384615,NA,NA
33431,Palm Beach County,FL,NA,52.2342064714946,NA
33445,Palm Beach County,FL,65.86538461538461,NA,NA
33458,Palm Beach County,FL,NA,57.781201848998464,NA
33467,Palm Beach County,FL,NA,25.423728813559322,NA
33484,Palm Beach County,FL,NA,30.354391371340522,2.6402640264026402
33556,Hillsborough County,FL,NA,61.325115562403695,NA
33559,Hillsborough County,FL,NA,82.43451463790447,NA
33605,Hillsborough County,FL,NA,76.27118644067797,NA
33611,Hillsborough County,FL,NA,81.97226502311248,NA
33619,Hillsborough County,FL,NA,NA,64.35643564356435
33709,Pinellas County,FL,NA,NA,48.18481848184818
33872,Highlands County,FL,NA,NA,84.48844884488449
33875,Highlands County,FL,NA,NA,44.224422442244226
33880,Polk County,FL,NA,NA,27.062706270627064
33912,Lee County,FL,NA,73.49768875192603,NA
33928,Lee County,FL,NA,NA,19.141914191419144
33966,Lee County,FL,NA,83.5130970724191,NA
33980,Charlotte County,FL,90.14423076923077,NA,NA
33983,Charlotte County,FL,67.0673076923077,NA,NA
34114,Collier County,FL,NA,NA,44.554455445544555
34119,Collier County,FL,42.30769230769231,NA,NA
34205,Manatee County,FL,31.490384615384613,NA,NA
34209,Manatee County,FL,61.057692307692314,22.342064714946073,NA
34221,Manatee County,FL,NA,27.426810477657938,NA
34232,Sarasota County,FL,46.394230769230774,NA,NA
34235,Sarasota County,FL,NA,55.007704160246526,NA
34241,Sarasota County,FL,NA,NA,46.864686468646866
34242,Sarasota County,FL,NA,79.04468412942988,NA
34275,Sarasota County,FL,NA,NA,49.504950495049506
34286,Sarasota County,FL,56.49038461538461,NA,NA
34434,Citrus County,FL,NA,NA,90.75907590759076
34668,Pasco County,FL,NA,NA,28.052805280528055
34695,Pinellas County,FL,NA,68.25885978428352,NA
34748,Lake County,FL,NA,NA,1.9801980198019802
34787,Orange County,FL,22.355769230769234,NA,NA
30004,Fulton County,GA,41.105769230769226,NA,NA
30016,Newton County,GA,NA,NA,47.85478547854785
30039,Gwinnett County,GA,NA,NA,43.23432343234324
30044,Gwinnett County,GA,NA,14.175654853620955,NA
30075,Fulton County,GA,NA,NA,43.23432343234324
30114,Cherokee County,GA,34.375,NA,NA
30115,Cherokee County,GA,NA,38.52080123266564,NA
30132,Paulding County,GA,NA,36.05546995377504,48.84488448844885
30180,Carroll County,GA,19.471153846153847,NA,NA
30189,Cherokee County,GA,NA,46.687211093990754,NA
30230,Troup County,GA,70.67307692307693,NA,NA
30269,Fayette County,GA,63.942307692307686,NA,NA
30318,Fulton County,GA,NA,94.45300462249615,NA
30533,Lumpkin County,GA,61.53846153846154,44.22187981510015,NA
30548,Jackson County,GA,NA,47.76579352850539,NA
30629,Madison County,GA,NA,95.37750385208012,NA
30643,Hart County,GA,NA,49.922958397534664,NA
30721,Whitfield County,GA,20.192307692307693,NA,NA
30741,Walker County,GA,16.58653846153846,52.54237288135594,NA
30750,Walker County,GA,99.27884615384616,NA,NA
30809,Columbia County,GA,NA,11.248073959938367,NA
30906,Richmond County,GA,NA,NA,17.16171617161716
30909,Richmond County,GA,23.317307692307693,NA,NA
31024,Putnam County,GA,NA,39.29121725731895,NA
31047,Houston County,GA,84.375,NA,NA
31052,Bibb County,GA,91.10576923076923,NA,NA
31503,Ware County,GA,NA,41.910631741140215,NA
31513,Appling County,GA,NA,68.7211093990755,NA
31709,Sumter County,GA,54.567307692307686,NA,NA
31793,Tift County,GA,NA,84.12942989214176,NA
31794,Tift County,GA,NA,18.181818181818183,NA
31820,Muscogee County,GA,91.34615384615384,NA,NA
96707,Honolulu County,HI,77.40384615384616,NA,NA
96720,Hawaii County,HI,NA,25.731895223420647,NA
83201,Bannock County,ID,NA,38.21263482280431,NA
83301,Twin Falls County,ID,NA,NA,0
83404,Bonneville County,ID,52.88461538461539,NA,NA
83501,Nez Perce County,ID,NA,NA,6.270627062706271
83642,Ada County,ID,NA,6.779661016949152,7.590759075907591
83843,Latah County,ID,82.21153846153845,NA,NA
60004,Cook County,IL,NA,8.320493066255779,NA
60008,Cook County,IL,NA,55.77812018489985,NA
60010,Lake County,IL,NA,12.172573189522343,NA
60035,Lake County,IL,NA,45.45454545454545,NA
60048,Lake County,IL,74.03846153846155,NA,NA
60067,Cook County,IL,NA,19.876733436055467,NA
60077,Cook County,IL,NA,29.429892141756547,NA
60120,Kane County,IL,NA,62.09553158705701,NA
60130,Cook County,IL,NA,NA,78.21782178217822
60134,Kane County,IL,NA,40.36979969183359,NA
60142,McHenry County,IL,NA,NA,2.31023102310231
60153,Cook County,IL,NA,25.577812018489986,80.85808580858085
60171,Cook County,IL,82.6923076923077,NA,NA
60174,Kane County,IL,NA,36.97996918335901,NA
60175,Kane County,IL,25.240384615384613,NA,NA
60185,DuPage County,IL,36.77884615384615,NA,NA
60193,Cook County,IL,64.66346153846155,NA,NA
60403,Will County,IL,57.932692307692314,NA,NA
60411,Cook County,IL,NA,8.628659476117104,NA
60435,Will County,IL,7.6923076923076925,NA,NA
60439,Cook County,IL,43.75,NA,NA
60453,Cook County,IL,12.5,NA,NA
60462,Cook County,IL,NA,4.468412942989214,NA
60467,Cook County,IL,NA,27.27272727272727,NA
60502,DuPage County,IL,NA,69.33744221879815,NA
60558,Cook County,IL,NA,NA,55.44554455445545
60564,Will County,IL,NA,25.26964560862866,NA
60625,Cook County,IL,8.413461538461538,NA,NA
60626,Cook County,IL,NA,33.7442218798151,NA
60631,Cook County,IL,NA,75.50077041602465,NA
60638,Cook County,IL,NA,NA,5.2805280528052805
60652,Cook County,IL,25.961538461538463,NA,NA
60655,Cook County,IL,26.442307692307693,NA,NA
60656,Cook County,IL,NA,NA,41.254125412541256
61021,Lee County,IL,NA,33.281972265023114,NA
61081,Whiteside County,IL,NA,NA,23.1023102310231
61108,Winnebago County,IL,NA,25.115562403698,NA
61350,LaSalle County,IL,NA,NA,26.732673267326735
61356,Bureau County,IL,68.50961538461539,NA,NA
61615,Peoria County,IL,72.83653846153845,NA,NA
61944,Edgar County,IL,72.35576923076923,NA,NA
62269,St. Clair County,IL,NA,NA,34.98349834983499
62301,Adams County,IL,NA,35.28505392912172,NA
46037,Hamilton County,IN,NA,35.130970724191066,NA
46060,Hamilton County,IN,NA,27.889060092449924,NA
46072,Tipton County,IN,NA,NA,59.07590759075908
46122,Hendricks County,IN,NA,70.41602465331279,NA
46151,Morgan County,IN,NA,20.801232665639446,NA
46168,Hendricks County,IN,39.90384615384615,NA,NA
46217,Marion County,IN,50.480769230769226,NA,NA
46219,Marion County,IN,58.41346153846154,NA,NA
46256,Marion County,IN,92.0673076923077,NA,NA
46304,Porter County,IN,NA,17.41140215716487,NA
46307,Lake County,IN,NA,NA,2.9702970297029703
46322,Lake County,IN,20.91346153846154,NA,NA
46375,Lake County,IN,NA,15.870570107858242,NA
46383,Porter County,IN,NA,NA,13.861386138613863
46385,Porter County,IN,NA,2.9275808936825887,NA
46392,Jasper County,IN,62.74038461538461,NA,NA
46615,St. Joseph County,IN,NA,90.29275808936826,NA
46816,Allen County,IN,NA,46.84129429892142,57.755775577557756
46835,Allen County,IN,NA,41.294298921417564,NA
46902,Howard County,IN,17.067307692307693,NA,NA
46936,Howard County,IN,70.67307692307693,NA,NA
46947,Cass County,IN,NA,NA,8.91089108910891
47012,Franklin County,IN,NA,80.89368258859785,NA
47240,Decatur County,IN,30.048076923076923,NA,NA
47720,Vanderburgh County,IN,NA,82.28043143297381,NA
50014,Story County,IA,NA,90.75500770416025,NA
50036,Boone County,IA,NA,NA,22.442244224422442
50213,Clarke County,IA,NA,77.50385208012327,NA
50219,Marion County,IA,NA,NA,67.65676567656766
50273,Madison County,IA,NA,95.0693374422188,NA
50313,Polk County,IA,NA,62.865947611710325,NA
50314,Polk County,IA,68.75,NA,NA
50325,Polk County,IA,NA,88.59784283513096,NA
50428,Cerro Gordo County,IA,NA,74.42218798151,NA
50441,Franklin County,IA,NA,48.536209553158706,NA
51104,Woodbury County,IA,NA,50.38520801232666,NA
51250,Sioux County,IA,NA,84.59167950693374,NA
52001,Dubuque County,IA,NA,24.19106317411402,NA
52241,Johnson County,IA,69.95192307692307,NA,NA
52246,Johnson County,IA,NA,NA,83.4983498349835
52601,Des Moines County,IA,9.85576923076923,75.96302003081664,14.521452145214523
52732,Clinton County,IA,NA,27.73497688751926,NA
66006,Douglas County,KS,NA,NA,97.35973597359737
66048,Leavenworth County,KS,NA,44.684129429892145,NA
66061,Johnson County,KS,NA,28.35130970724191,NA
66067,Franklin County,KS,56.730769230769226,NA,NA
66071,Miami County,KS,88.22115384615384,NA,NA
66205,Johnson County,KS,NA,NA,69.96699669966998
66213,Johnson County,KS,NA,74.73035439137135,NA
66218,Johnson County,KS,93.02884615384616,NA,NA
66618,Shawnee County,KS,96.15384615384616,NA,NA
66839,Coffey County,KS,94.95192307692307,NA,NA
67205,Sedgwick County,KS,NA,83.82126348228043,NA
67216,Sedgwick County,KS,NA,66.10169491525424,NA
67401,Saline County,KS,NA,21.10939907550077,NA
67601,Ellis County,KS,NA,NA,8.25082508250825
67735,Sherman County,KS,NA,79.19876733436055,NA
67901,Seward County,KS,NA,NA,80.85808580858085
40033,Marion County,KY,NA,65.79352850539291,NA
40160,Hardin County,KY,28.846153846153843,NA,NA
40213,Jefferson County,KY,NA,NA,62.04620462046204
40218,Jefferson County,KY,12.259615384615383,NA,NA
40228,Jefferson County,KY,61.77884615384615,64.56086286594761,NA
40324,Scott County,KY,11.778846153846153,NA,NA
40342,Anderson County,KY,33.17307692307692,NA,NA
40741,Laurel County,KY,NA,39.44530046224962,NA
40769,Whitley County,KY,30.76923076923077,NA,NA
40962,Clay County,KY,NA,20.03081664098613,NA
41001,Campbell County,KY,NA,67.64252696456087,NA
41015,Kenton County,KY,NA,NA,36.96369636963696
41040,Pendleton County,KY,62.5,NA,NA
41042,Boone County,KY,NA,NA,3.9603960396039604
41143,Carter County,KY,NA,46.99537750385208,NA
41339,Breathitt County,KY,NA,69.9537750385208,NA
41501,Pike County,KY,NA,NA,28.71287128712871
41749,Leslie County,KY,NA,98.15100154083206,NA
41858,Letcher County,KY,NA,58.55161787365177,NA
42001,McCracken County,KY,NA,20.955315870570107,NA
42025,Marshall County,KY,NA,NA,82.83828382838284
42301,Daviess County,KY,NA,8.47457627118644,NA
42717,Cumberland County,KY,NA,NA,71.94719471947195
42724,Hardin County,KY,95.67307692307693,NA,NA
70058,Jefferson Parish,LA,NA,10.323574730354391,NA
70065,Jefferson Parish,LA,NA,2.311248073959938,NA
70072,Jefferson Parish,LA,NA,2.465331278890601,NA
70403,Tangipahoa Parish,LA,NA,29.275808936825886,NA
70438,Washington Parish,LA,75.48076923076923,NA,NA
70443,Tangipahoa Parish,LA,NA,NA,55.775577557755774
70458,St. Tammany Parish,LA,4.807692307692308,NA,NA
70501,Lafayette Parish,LA,1.6826923076923077,NA,NA
70506,Lafayette Parish,LA,5.048076923076923,NA,NA
70560,Iberia Parish,LA,2.403846153846154,11.556240369799692,NA
70592,Lafayette Parish,LA,26.682692307692307,NA,NA
70770,East Baton Rouge Parish,LA,NA,99.07550077041603,NA
70809,East Baton Rouge Parish,LA,NA,47.303543913713405,NA
70816,East Baton Rouge Parish,LA,NA,NA,71.61716171617162
71111,Bossier Parish,LA,4.326923076923077,NA,NA
71241,Union Parish,LA,NA,74.884437596302,NA
71270,Lincoln Parish,LA,NA,57.93528505392912,NA
03909,York County,ME,53.125,NA,NA
04092,Cumberland County,ME,NA,61.47919876733437,NA
04093,York County,ME,NA,89.21417565485362,NA
04103,Cumberland County,ME,NA,NA,69.63696369636963
04210,Androscoggin County,ME,NA,7.858243451463791,NA
04240,Androscoggin County,ME,NA,NA,60.066006600660074
04401,Penobscot County,ME,NA,1.694915254237288,NA
04530,Sagadahoc County,ME,NA,44.53004622496148,NA
04736,Aroostook County,ME,50.96153846153846,NA,NA
04769,Aroostook County,ME,59.375,73.03543913713405,NA
20639,Calvert County,MD,NA,91.37134052388289,NA
20705,Prince George's County,MD,NA,70.57010785824345,NA
20736,Calvert County,MD,98.3173076923077,NA,NA
20854,Montgomery County,MD,NA,33.43605546995377,NA
20872,Montgomery County,MD,90.86538461538461,NA,NA
20874,Montgomery County,MD,NA,NA,89.43894389438944
20902,Montgomery County,MD,NA,60.24653312788906,NA
20906,Montgomery County,MD,NA,NA,12.211221122112212
21043,Howard County,MD,NA,42.21879815100154,NA
21114,Anne Arundel County,MD,60.817307692307686,NA,NA
21122,Anne Arundel County,MD,NA,65.0231124807396,NA
21128,Baltimore County,MD,NA,82.7426810477658,NA
21217,Baltimore city,MD,NA,17.257318952234208,NA
21220,Baltimore County,MD,NA,64.71494607087827,NA
21221,Baltimore County,MD,NA,21.417565485362093,NA
21227,Baltimore County,MD,NA,NA,29.042904290429046
21228,Baltimore County,MD,NA,NA,11.881188118811881
21237,Baltimore County,MD,NA,NA,41.584158415841586
21401,Anne Arundel County,MD,NA,31.124807395993837,NA
21403,Anne Arundel County,MD,NA,93.8366718027735,NA
21502,Allegany County,MD,NA,19.26040061633282,NA
21601,Talbot County,MD,NA,NA,32.67326732673268
21613,Dorchester County,MD,NA,53.929121725731896,NA
21651,Kent County,MD,100,NA,NA
21663,Talbot County,MD,99.51923076923077,NA,NA
21701,Frederick County,MD,NA,57.31895223420646,NA
21703,Frederick County,MD,NA,NA,79.20792079207921
21784,Carroll County,MD,53.605769230769226,NA,NA
21921,Cecil County,MD,NA,5.084745762711865,NA
01013,Hampden County,MA,NA,12.480739599383666,NA
01040,Hampden County,MA,NA,0,NA
01085,Hampden County,MA,NA,37.28813559322034,NA
01107,Hampden County,MA,NA,76.5793528505393,NA
01108,Hampden County,MA,37.74038461538461,NA,NA
01201,Berkshire County,MA,6.971153846153847,NA,24.422442244224424
01267,Berkshire County,MA,NA,NA,84.15841584158416
01420,Worcester County,MA,NA,16.178736517719567,NA
01440,Worcester County,MA,NA,7.395993836671804,NA
01462,Worcester County,MA,49.27884615384615,NA,NA
01464,Middlesex County,MA,NA,60.708782742681045,NA
01564,Worcester County,MA,NA,77.34976887519261,NA
01604,Worcester County,MA,NA,16.79506933744222,NA
01605,Worcester County,MA,NA,NA,0.33003300330033003
01720,Middlesex County,MA,32.21153846153847,NA,NA
01746,Middlesex County,MA,NA,96.91833590138675,NA
01748,Middlesex County,MA,NA,NA,55.115511551155116
01754,Middlesex County,MA,85.09615384615384,NA,NA
01801,Middlesex County,MA,NA,1.386748844375963,NA
01821,Middlesex County,MA,NA,47.14946070878274,NA
01824,Middlesex County,MA,NA,5.701078582434515,NA
01830,Essex County,MA,87.74038461538461,NA,NA
01834,Essex County,MA,NA,72.26502311248075,NA
01843,Essex County,MA,2.8846153846153846,NA,NA
01844,Essex County,MA,0.4807692307692308,NA,NA
01850,Middlesex County,MA,NA,19.41448382126348,NA
01852,Middlesex County,MA,NA,12.788906009244993,NA
01876,Middlesex County,MA,5.288461538461538,NA,NA
01880,Middlesex County,MA,NA,32.20338983050847,NA
01913,Essex County,MA,NA,8.012326656394453,NA
01940,Essex County,MA,81.97115384615384,NA,NA
01950,Essex County,MA,NA,NA,18.48184818481848
01960,Essex County,MA,NA,1.2326656394453006,NA
02061,Plymouth County,MA,NA,NA,90.0990099009901
02066,Plymouth County,MA,NA,NA,53.79537953795379
02081,Norfolk County,MA,NA,NA,35.64356435643564
02090,Norfolk County,MA,NA,NA,39.93399339933993
02118,Suffolk County,MA,NA,NA,5.9405940594059405
02119,Suffolk County,MA,NA,0.46224961479198773,NA
02120,Suffolk County,MA,NA,95.22342064714945,NA
02121,Suffolk County,MA,NA,0.9244992295839755,NA
02130,Suffolk County,MA,NA,NA,4.62046204620462
02131,Suffolk County,MA,NA,4.006163328197227,NA
02136,Suffolk County,MA,0.9615384615384616,NA,NA
02151,Suffolk County,MA,0.7211538461538461,NA,15.841584158415841
02169,Norfolk County,MA,0,1.078582434514638,NA
02301,Plymouth County,MA,NA,0.15408320493066258,NA
02421,Middlesex County,MA,NA,36.209553158705695,65.01650165016501
02472,Middlesex County,MA,65.14423076923077,NA,NA
02748,Bristol County,MA,NA,50.693374422187986,NA
02770,Plymouth County,MA,92.3076923076923,NA,NA
02771,Bristol County,MA,98.5576923076923,NA,NA
02780,Bristol County,MA,3.125,NA,NA
02790,Bristol County,MA,NA,24.80739599383667,NA
48001,St. Clair County,MI,NA,68.41294298921417,NA
48025,Oakland County,MI,NA,56.85670261941448,NA
48030,Oakland County,MI,NA,NA,86.79867986798679
48033,Oakland County,MI,NA,NA,21.782178217821784
48042,Macomb County,MI,18.75,NA,NA
48045,Macomb County,MI,21.394230769230766,NA,NA
48071,Oakland County,MI,22.83653846153846,NA,NA
48076,Oakland County,MI,NA,26.194144838212637,NA
48080,Macomb County,MI,34.61538461538461,NA,NA
48084,Oakland County,MI,90.625,NA,NA
48088,Macomb County,MI,NA,24.499229583975346,NA
48089,Macomb County,MI,NA,23.728813559322035,NA
48093,Macomb County,MI,NA,36.82588597842835,NA
48103,Washtenaw County,MI,NA,12.63482280431433,NA
48111,Wayne County,MI,NA,5.238828967642527,94.38943894389439
48124,Wayne County,MI,NA,23.882896764252695,NA
48133,Monroe County,MI,NA,84.43759630200309,NA
48183,Wayne County,MI,NA,NA,10.561056105610561
48186,Wayne County,MI,NA,9.553158705701078,NA
48188,Wayne County,MI,10.576923076923077,NA,NA
48192,Wayne County,MI,NA,30.970724191063177,NA
48197,Washtenaw County,MI,NA,NA,15.51155115511551
48203,Wayne County,MI,NA,NA,86.46864686468648
48212,Wayne County,MI,NA,11.710323574730355,NA
48235,Wayne County,MI,NA,NA,11.221122112211221
48236,Wayne County,MI,NA,NA,10.891089108910892
48237,Oakland County,MI,NA,18.798151001540834,NA
48312,Macomb County,MI,22.115384615384613,NA,NA
48313,Macomb County,MI,NA,55.46995377503852,NA
48326,Oakland County,MI,49.519230769230774,NA,NA
48346,Oakland County,MI,37.019230769230774,47.919876733436055,NA
48348,Oakland County,MI,NA,43.143297380585516,NA
48360,Oakland County,MI,65.38461538461539,NA,NA
48362,Oakland County,MI,NA,51.463790446841294,NA
48374,Oakland County,MI,NA,71.03235747303543,NA
48423,Genesee County,MI,28.125,NA,NA
48439,Genesee County,MI,NA,14.329738058551616,NA
48451,Genesee County,MI,69.23076923076923,NA,NA
48604,Saginaw County,MI,NA,50.53929121725732,NA
48615,Gratiot County,MI,NA,98.45916795069337,NA
48616,Saginaw County,MI,NA,NA,63.6963696369637
48624,Gladwin County,MI,NA,NA,22.112211221122113
48658,Arenac County,MI,79.08653846153845,NA,NA
48730,Iosco County,MI,NA,NA,64.02640264026402
48759,Huron County,MI,NA,84.89984591679507,NA
48823,Ingham County,MI,NA,NA,93.3993399339934
48843,Livingston County,MI,9.615384615384617,NA,NA
48864,Ingham County,MI,NA,44.8382126348228,NA
49009,Kalamazoo County,MI,NA,NA,13.531353135313532
49048,Kalamazoo County,MI,14.182692307692307,NA,NA
49065,Van Buren County,MI,69.47115384615384,NA,NA
49080,Allegan County,MI,42.06730769230769,NA,NA
49099,St. Joseph County,MI,95.91346153846155,NA,NA
49107,Berrien County,MI,NA,NA,93.06930693069307
49315,Kent County,MI,NA,NA,73.5973597359736
49319,Kent County,MI,NA,57.16486902927581,NA
49329,Montcalm County,MI,NA,85.67026194144837,NA
49337,Newaygo County,MI,NA,81.81818181818183,NA
49441,Muskegon County,MI,NA,3.5439137134052388,NA
49464,Ottawa County,MI,NA,34.66872110939907,NA
49503,Kent County,MI,NA,35.901386748844374,NA
49525,Kent County,MI,33.41346153846153,NA,NA
49770,Emmet County,MI,NA,94.76117103235747,NA
49807,Delta County,MI,NA,98.7673343605547,NA
49855,Marquette County,MI,NA,49.152542372881356,NA
49931,Houghton County,MI,81.25,NA,NA
55110,Ramsey County,MN,NA,36.36363636363637,NA
55112,Ramsey County,MN,NA,NA,72.60726072607261
55118,Dakota County,MN,NA,41.14021571648691,NA
55304,Anoka County,MN,40.144230769230774,NA,NA
55308,Sherburne County,MN,NA,98.61325115562404,NA
55379,Scott County,MN,23.557692307692307,NA,NA
55408,Hennepin County,MN,8.653846153846153,NA,NA
55428,Hennepin County,MN,NA,32.357473035439135,NA
55744,Itasca County,MN,NA,67.02619414483821,NA
55746,St. Louis County,MN,NA,31.432973805855163,NA
55812,St. Louis County,MN,95.4326923076923,NA,NA
55906,Olmsted County,MN,NA,93.0662557781202,NA
56093,Waseca County,MN,NA,48.38212634822804,NA
56229,Lyon County,MN,NA,100,NA
56362,Stearns County,MN,NA,NA,82.17821782178217
56472,Crow Wing County,MN,NA,NA,54.12541254125413
56636,Itasca County,MN,NA,69.64560862865947,NA
56721,Polk County,MN,NA,NA,67.32673267326733
38663,Tippah County,MS,NA,91.98767334360555,NA
38703,Washington County,MS,NA,76.73343605546995,NA
38821,Monroe County,MS,NA,65.48536209553158,NA
39042,Rankin County,MS,NA,NA,48.51485148514851
39145,Rankin County,MS,NA,93.22033898305084,NA
39208,Rankin County,MS,38.70192307692308,NA,NA
39211,Hinds County,MS,60.57692307692307,NA,NA
39307,Lauderdale County,MS,NA,NA,88.77887788778878
39429,Marion County,MS,NA,63.790446841294305,NA
39503,Harrison County,MS,7.9326923076923075,NA,NA
39667,Walthall County,MS,66.82692307692307,NA,NA
63011,St. Louis County,MO,66.10576923076923,NA,NA
63021,St. Louis County,MO,NA,60.0924499229584,NA
63028,Jefferson County,MO,NA,NA,43.89438943894389
63122,St. Louis County,MO,NA,NA,10.231023102310232
63126,St. Louis County,MO,84.61538461538461,NA,NA
63304,St. Charles County,MO,82.9326923076923,46.22496147919877,NA
63601,St. Francois County,MO,NA,52.38828967642527,NA
63901,Butler County,MO,12.01923076923077,NA,NA
64012,Cass County,MO,NA,58.705701078582436,NA
64024,Clay County,MO,NA,34.36055469953775,NA
64034,Jackson County,MO,83.65384615384616,NA,NA
64052,Jackson County,MO,NA,NA,81.51815181518151
64056,Jackson County,MO,NA,52.08012326656395,NA
64062,Ray County,MO,78.60576923076923,NA,NA
64081,Jackson County,MO,45.91346153846153,NA,NA
64098,Platte County,MO,96.63461538461539,NA,NA
64114,Jackson County,MO,NA,40.21571648690293,NA
64118,Clay County,MO,4.567307692307692,NA,NA
64133,Jackson County,MO,17.78846153846154,NA,NA
64134,Jackson County,MO,NA,NA,61.386138613861384
64157,Clay County,MO,30.288461538461537,NA,NA
64158,Clay County,MO,88.70192307692307,NA,NA
64506,Buchanan County,MO,NA,NA,1.65016501650165
64507,Buchanan County,MO,NA,36.67180277349769,NA
64747,Cass County,MO,97.59615384615384,NA,NA
65026,Miller County,MO,85.57692307692307,NA,NA
65043,Callaway County,MO,NA,NA,100
65201,Boone County,MO,NA,94.91525423728814,NA
65202,Boone County,MO,NA,NA,49.834983498349835
65203,Boone County,MO,NA,8.936825885978427,NA
65459,Pulaski County,MO,NA,84.89984591679507,NA
65704,Wright County,MO,NA,NA,98.67986798679867
65714,Christian County,MO,46.63461538461539,NA,NA
65804,Greene County,MO,NA,NA,15.181518151815181
59102,Yellowstone County,MT,NA,3.8520801232665636,NA
59301,Custer County,MT,NA,NA,73.92739273927393
59401,Cascade County,MT,NA,NA,34.65346534653465
59601,Lewis and Clark County,MT,NA,17.873651771956855,NA
59718,Gallatin County,MT,NA,NA,36.633663366336634
59801,Missoula County,MT,NA,63.17411402157165,NA
59860,Lake County,MT,NA,86.13251155624036,NA
59923,Lincoln County,MT,81.49038461538461,NA,NA
68022,Douglas County,NE,93.26923076923077,NA,NA
68144,Douglas County,NE,NA,NA,39.273927392739274
68147,Sarpy County,NE,NA,90.60092449922959,NA
68949,Phelps County,NE,97.11538461538461,NA,NA
69101,Lincoln County,NE,NA,NA,13.2013201320132
69337,Dawes County,NE,NA,80.12326656394453,NA
89123,Clark County,NV,74.27884615384616,NA,NA
89410,Douglas County,NV,NA,30.662557781201848,NA
89502,Washoe County,NV,16.826923076923077,NA,NA
89503,Washoe County,NV,57.21153846153846,NA,NA
89511,Washoe County,NV,NA,NA,41.914191419141915
89815,Elko County,NV,NA,NA,89.76897689768977
03062,Hillsborough County,NH,NA,NA,67.98679867986799
03110,Hillsborough County,NH,55.769230769230774,NA,NA
03253,Belknap County,NH,NA,NA,96.03960396039604
03431,Cheshire County,NH,NA,NA,32.34323432343234
03743,Sullivan County,NH,NA,38.82896764252696,66.66666666666666
03766,Grafton County,NH,NA,96.3020030816641,NA
07031,Bergen County,NJ,NA,67.4884437596302,NA
07059,Somerset County,NJ,80.04807692307693,NA,NA
07094,Hudson County,NJ,NA,NA,58.415841584158414
07661,Bergen County,NJ,NA,87.05701078582435,NA
07663,Bergen County,NJ,NA,NA,80.52805280528052
07712,Monmouth County,NJ,NA,4.622496147919876,NA
07728,Monmouth County,NJ,NA,13.097072419106318,NA
07960,Morris County,NJ,15.865384615384615,NA,NA
08016,Burlington County,NJ,94.47115384615384,NA,NA
08033,Camden County,NJ,NA,59.78428351309707,NA
08034,Camden County,NJ,NA,NA,62.37623762376238
08037,Atlantic County,NJ,NA,87.36517719568567,20.792079207920793
08055,Burlington County,NJ,NA,NA,33.663366336633665
08096,Gloucester County,NJ,NA,7.0878274268104775,16.5016501650165
08105,Camden County,NJ,NA,9.861325115562405,NA
08108,Camden County,NJ,NA,79.96918335901387,NA
08109,Camden County,NJ,16.105769230769234,NA,NA
08234,Atlantic County,NJ,NA,86.74884437596302,NA
08312,Gloucester County,NJ,NA,NA,93.72937293729373
08332,Cumberland County,NJ,NA,15.562403697996919,NA
08550,Mercer County,NJ,NA,NA,70.29702970297029
08620,Mercer County,NJ,NA,NA,77.22772277227723
08724,Ocean County,NJ,NA,48.228043143297384,NA
08750,Monmouth County,NJ,NA,97.84283513097073,NA
08822,Hunterdon County,NJ,NA,32.66563944530046,NA
87121,Bernalillo County,NM,18.028846153846153,NA,NA
87123,Bernalillo County,NM,10.096153846153847,NA,NA
87144,Sandoval County,NM,NA,NA,50.165016501650165
87501,Santa Fe County,NM,NA,NA,64.68646864686468
87505,Santa Fe County,NM,NA,5.3929121725731894,NA
87507,Santa Fe County,NM,NA,54.08320493066255,NA
87544,Los Alamos County,NM,NA,55.007704160246526,NA
88005,Doa Ana County,NM,NA,39.13713405238829,NA
88310,Otero County,NM,19.951923076923077,NA,53.46534653465347
88352,Otero County,NM,NA,NA,66.006600660066
10001,New York County,NY,NA,4.930662557781202,NA
10009,New York County,NY,31.73076923076923,NA,NA
10022,New York County,NY,NA,76.11710323574731,NA
10024,New York County,NY,75.24038461538461,NA,NA
10028,New York County,NY,96.875,NA,NA
10029,New York County,NY,NA,NA,6.9306930693069315
10301,Richmond County,NY,NA,NA,16.831683168316832
10303,Richmond County,NY,39.42307692307692,NA,NA
10456,Bronx County,NY,NA,0.30816640986132515,NA
10466,Bronx County,NY,NA,1.848998459167951,NA
10467,Bronx County,NY,NA,NA,1.3201320132013201
10510,Westchester County,NY,NA,91.52542372881356,NA
10562,Westchester County,NY,NA,62.557781201849,NA
10589,Westchester County,NY,NA,NA,46.53465346534654
10701,Westchester County,NY,NA,3.2357473035439135,NA
10805,Westchester County,NY,NA,99.38366718027734,NA
11102,Queens County,NY,NA,87.98151001540832,NA
11206,Kings County,NY,2.1634615384615383,NA,NA
11207,Kings County,NY,0.2403846153846154,NA,NA
11211,Kings County,NY,NA,19.106317411402156,NA
11218,Kings County,NY,NA,NA,6.6006600660066
11220,Kings County,NY,NA,NA,14.85148514851485
11223,Kings County,NY,NA,10.785824345146379,NA
11229,Kings County,NY,24.278846153846153,NA,20.462046204620464
11236,Kings County,NY,38.46153846153847,NA,NA
11372,Queens County,NY,NA,21.571648690292758,NA
11374,Queens County,NY,86.0576923076923,NA,NA
11375,Queens County,NY,71.39423076923077,NA,NA
11420,Queens County,NY,NA,33.89830508474576,NA
11516,Nassau County,NY,NA,95.53158705701078,NA
11726,Suffolk County,NY,68.26923076923077,NA,NA
11741,Suffolk County,NY,NA,63.32819722650231,NA
11782,Suffolk County,NY,NA,NA,66.33663366336634
11961,Suffolk County,NY,NA,NA,32.01320132013201
12061,Rensselaer County,NY,NA,97.68875192604007,NA
12065,Saratoga County,NY,NA,NA,56.10561056105611
12180,Rensselaer County,NY,27.163461538461537,NA,NA
12202,Albany County,NY,NA,59.01386748844376,NA
12828,Washington County,NY,NA,66.40986132511556,NA
12871,Saratoga County,NY,98.07692307692307,NA,NA
12912,Clinton County,NY,89.42307692307693,NA,NA
13031,Onondaga County,NY,NA,54.39137134052389,NA
13039,Onondaga County,NY,NA,85.20801232665639,NA
13088,Onondaga County,NY,NA,45.14637904468413,NA
13212,Onondaga County,NY,NA,54.699537750385204,NA
13413,Oneida County,NY,47.59615384615385,NA,NA
13601,Jefferson County,NY,3.8461538461538463,NA,NA
13619,Jefferson County,NY,NA,60.40061633281972,NA
13820,Otsego County,NY,7.211538461538461,NA,52.14521452145215
14006,Erie County,NY,NA,59.47611710323575,NA
14051,Erie County,NY,NA,45.60862865947612,NA
14052,Erie County,NY,NA,51.30970724191063,NA
14094,Niagara County,NY,1.201923076923077,2.157164869029276,NA
14170,Erie County,NY,NA,98.92141756548536,NA
14204,Erie County,NY,NA,53.77503852080123,NA
14216,Erie County,NY,NA,38.983050847457626,NA
14221,Erie County,NY,8.89423076923077,NA,NA
14428,Monroe County,NY,44.71153846153847,NA,NA
14454,Livingston County,NY,NA,77.8120184899846,NA
14476,Orleans County,NY,92.78846153846155,NA,NA
14487,Livingston County,NY,70.67307692307693,NA,NA
14513,Wayne County,NY,NA,2.773497688751926,NA
14580,Monroe County,NY,NA,0.6163328197226503,NA
14607,Monroe County,NY,15.384615384615385,NA,NA
14612,Monroe County,NY,1.4423076923076923,NA,NA
14624,Monroe County,NY,29.326923076923077,NA,NA
14760,Cattaraugus County,NY,NA,11.40215716486903,NA
14845,Chemung County,NY,NA,28.043143297380585,NA
27018,Yadkin County,NC,NA,69.49152542372882,NA
27030,Surry County,NC,NA,14.48382126348228,NA
27106,Forsyth County,NC,10.817307692307693,NA,NA
27127,Forsyth County,NC,12.740384615384615,NA,NA
27249,Guilford County,NC,NA,62.249614791987675,NA
27263,Randolph County,NC,43.02884615384615,NA,NA
27292,Davidson County,NC,4.086538461538462,NA,NA
27302,Alamance County,NC,NA,10.631741140215716,NA
27312,Chatham County,NC,NA,NA,68.97689768976898
27537,Vance County,NC,62.980769230769226,NA,NA
27573,Person County,NC,NA,51.92604006163328,NA
27577,Johnston County,NC,43.269230769230774,NA,NA
27703,Durham County,NC,NA,9.090909090909092,NA
27822,Wilson County,NC,NA,83.20493066255779,NA
27834,Pitt County,NC,5.769230769230769,NA,NA
27870,Halifax County,NC,54.32692307692307,NA,NA
27909,Pasquotank County,NC,NA,NA,17.82178217821782
27948,Dare County,NC,80.76923076923077,NA,NA
28078,Mecklenburg County,NC,NA,31.587057010785824,NA
28110,Union County,NC,18.509615384615387,14.946070878274268,NA
28134,Mecklenburg County,NC,NA,NA,85.8085808580858
28173,Union County,NC,37.980769230769226,NA,NA
28207,Mecklenburg County,NC,NA,NA,79.86798679867987
28212,Mecklenburg County,NC,NA,NA,63.366336633663366
28278,Mecklenburg County,NC,NA,74.11402157164869,NA
28379,Richmond County,NC,NA,27.11864406779661,NA
28451,Brunswick County,NC,NA,24.03697996918336,NA
28539,Onslow County,NC,NA,88.13559322033898,NA
28645,Caldwell County,NC,3.3653846153846154,NA,NA
28677,Iredell County,NC,NA,20.49306625577812,NA
28681,Alexander County,NC,NA,NA,50.495049504950494
28713,Swain County,NC,NA,NA,65.34653465346535
28778,Buncombe County,NC,NA,89.52234206471495,NA
28779,Jackson County,NC,NA,56.548536209553156,NA
28787,Buncombe County,NC,NA,71.64869029275809,NA
28792,Henderson County,NC,NA,83.35901386748844,NA
58078,Cass County,ND,NA,13.713405238828969,NA
58501,Burleigh County,ND,NA,NA,9.24092409240924
58503,Burleigh County,ND,29.807692307692307,NA,7.920792079207921
58554,Morton County,ND,NA,NA,39.93399339933993
43019,Knox County,OH,NA,71.9568567026194,NA
43040,Union County,OH,22.596153846153847,NA,NA
43074,Delaware County,OH,NA,82.58859784283513,NA
43080,Licking County,OH,NA,89.36825885978429,NA
43123,Franklin County,OH,26.923076923076923,NA,NA
43160,Fayette County,OH,11.298076923076923,NA,NA
43219,Franklin County,OH,NA,80.58551617873651,NA
43223,Franklin County,OH,NA,NA,57.0957095709571
43326,Hardin County,OH,NA,40.98613251155624,NA
43351,Wyandot County,OH,NA,48.844375963020035,NA
43402,Wood County,OH,NA,NA,17.491749174917494
43420,Sandusky County,OH,NA,14.946070878274268,NA
43466,Wood County,OH,NA,99.69183359013869,NA
43515,Fulton County,OH,NA,83.9753466872111,NA
43526,Defiance County,OH,NA,68.10477657935286,NA
43528,Lucas County,OH,79.8076923076923,NA,NA
43560,Lucas County,OH,NA,13.405238828967642,NA
43605,Lucas County,OH,1.9230769230769231,NA,NA
43615,Lucas County,OH,NA,3.697996918335902,NA
43812,Coshocton County,OH,21.634615384615387,NA,NA
43912,Belmont County,OH,NA,NA,72.27722772277228
43938,Jefferson County,OH,49.75961538461539,NA,NA
43952,Jefferson County,OH,NA,NA,31.683168316831683
44001,Lorain County,OH,NA,3.0816640986132513,NA
44030,Ashtabula County,OH,18.990384615384613,NA,NA
44035,Lorain County,OH,NA,NA,23.432343234323433
44040,Cuyahoga County,OH,NA,NA,97.6897689768977
44050,Lorain County,OH,NA,NA,51.48514851485149
44057,Lake County,OH,NA,16.486902927580893,NA
44070,Cuyahoga County,OH,NA,4.160246533127889,NA
44102,Cuyahoga County,OH,NA,37.750385208012325,NA
44123,Cuyahoga County,OH,NA,NA,36.303630363036305
44124,Cuyahoga County,OH,NA,NA,0.6600660066006601
44125,Cuyahoga County,OH,NA,7.704160246533127,NA
44134,Cuyahoga County,OH,NA,2.0030816640986133,NA
44144,Cuyahoga County,OH,NA,6.471494607087827,NA
44236,Summit County,OH,51.442307692307686,NA,NA
44266,Portage County,OH,52.644230769230774,NA,NA
44410,Trumbull County,OH,NA,26.040061633281976,NA
44460,Columbiana County,OH,NA,6.933744221879815,NA
44632,Stark County,OH,NA,97.38058551617874,NA
44685,Summit County,OH,NA,22.650231124807398,NA
44820,Crawford County,OH,NA,41.44838212634823,NA
45013,Butler County,OH,15.144230769230768,NA,NA
45036,Warren County,OH,NA,26.656394453004623,NA
45103,Clermont County,OH,NA,23.26656394453005,NA
45133,Highland County,OH,NA,20.184899845916796,NA
45142,Highland County,OH,NA,99.22958397534669,NA
45208,Hamilton County,OH,NA,96.76425269645608,NA
45213,Hamilton County,OH,89.66346153846155,NA,NA
45233,Hamilton County,OH,NA,NA,35.64356435643564
45245,Clermont County,OH,NA,45.76271186440678,NA
45309,Montgomery County,OH,NA,56.548536209553156,NA
45327,Montgomery County,OH,72.11538461538461,NA,NA
45331,Darke County,OH,NA,73.80585516178738,NA
45365,Shelby County,OH,NA,12.01848998459168,NA
45373,Miami County,OH,NA,42.83513097072419,NA
45385,Greene County,OH,NA,NA,8.58085808580858
45403,Montgomery County,OH,35.81730769230769,NA,NA
45404,Montgomery County,OH,NA,64.86902927580893,NA
45426,Montgomery County,OH,NA,34.36055469953775,NA
45431,Montgomery County,OH,68.99038461538461,NA,35.31353135313531
45502,Clark County,OH,73.07692307692307,NA,NA
45619,Lawrence County,OH,NA,52.85053929121726,NA
45680,Lawrence County,OH,NA,NA,85.14851485148515
45686,Gallia County,OH,79.32692307692307,NA,NA
45769,Meigs County,OH,NA,72.88135593220339,NA
45801,Allen County,OH,NA,22.80431432973806,NA
45885,Auglaize County,OH,40.625,NA,NA
73068,Cleveland County,OK,NA,62.40369799691834,NA
73078,Canadian County,OK,90.38461538461539,NA,NA
73110,Oklahoma County,OK,NA,34.9768875192604,NA
73129,Oklahoma County,OK,NA,89.98459167950693,NA
73159,Oklahoma County,OK,NA,26.964560862865948,NA
73170,Cleveland County,OK,NA,13.86748844375963,NA
73505,Comanche County,OK,NA,NA,4.9504950495049505
73507,Comanche County,OK,44.230769230769226,NA,NA
73644,Beckham County,OK,55.28846153846154,NA,NA
73701,Garfield County,OK,NA,32.04930662557781,NA
74012,Tulsa County,OK,NA,10.16949152542373,NA
74044,Creek County,OK,NA,83.05084745762711,NA
74048,Nowata County,OK,NA,88.28967642526965,NA
74136,Tulsa County,OK,NA,73.18952234206472,NA
74432,McIntosh County,OK,NA,46.379044684129425,NA
74728,McCurtain County,OK,73.5576923076923,NA,NA
74804,Pottawatomie County,OK,NA,NA,92.73927392739274
74864,Lincoln County,OK,NA,98.30508474576271,NA
74960,Adair County,OK,23.076923076923077,NA,NA
97005,Washington County,OR,47.11538461538461,NA,NA
97086,Clackamas County,OR,NA,NA,47.524752475247524
97224,Washington County,OR,86.53846153846155,NA,NA
97239,Multnomah County,OR,NA,NA,85.47854785478548
97305,Marion County,OR,NA,47.45762711864407,NA
97330,Benton County,OR,49.03846153846153,NA,NA
97351,Polk County,OR,68.02884615384616,NA,NA
97367,Lincoln County,OR,NA,31.895223420647152,NA
97404,Lane County,OR,57.45192307692307,NA,NA
97458,Coos County,OR,NA,NA,84.81848184818482
97504,Jackson County,OR,NA,11.093990755007704,NA
97601,Klamath County,OR,13.942307692307693,NA,NA
97701,Deschutes County,OR,NA,46.5331278890601,NA
97760,Jefferson County,OR,NA,NA,95.37953795379538
97838,Umatilla County,OR,48.07692307692308,NA,NA
97850,Union County,OR,87.25961538461539,NA,95.7095709570957
15071,Allegheny County,PA,NA,75.65485362095532,NA
15122,Allegheny County,PA,NA,80.43143297380585,NA
15220,Allegheny County,PA,NA,69.9537750385208,NA
15226,Allegheny County,PA,NA,54.54545454545454,NA
15342,Washington County,PA,NA,91.21725731895224,NA
15801,Clearfield County,PA,NA,NA,40.5940594059406
15909,Cambria County,PA,NA,81.20184899845917,NA
16226,Armstrong County,PA,NA,NA,58.745874587458744
16335,Crawford County,PA,NA,8.166409861325114,18.151815181518153
16801,Centre County,PA,38.22115384615385,NA,NA
16915,Potter County,PA,78.84615384615384,NA,NA
17013,Cumberland County,PA,17.307692307692307,NA,NA
17033,Dauphin County,PA,NA,54.23728813559322,NA
17036,Dauphin County,PA,NA,9.70724191063174,NA
17070,Cumberland County,PA,NA,NA,99.00990099009901
17110,Dauphin County,PA,45.43269230769231,NA,NA
17111,Dauphin County,PA,NA,5.546995377503852,NA
17113,Dauphin County,PA,43.50961538461539,NA,NA
17307,Adams County,PA,93.75,NA,NA
17315,York County,PA,NA,14.021571648690292,NA
17327,York County,PA,97.35576923076923,NA,NA
17368,York County,PA,NA,NA,90.75907590759076
17402,York County,PA,91.82692307692307,NA,24.752475247524753
17404,York County,PA,NA,44.37596302003082,NA
17408,York County,PA,NA,66.71802773497689,NA
17552,Lancaster County,PA,64.42307692307693,NA,NA
17701,Lycoming County,PA,NA,4.776579352850539,NA
17815,Columbia County,PA,13.461538461538462,NA,NA
17824,Northumberland County,PA,NA,72.11093990755008,NA
17846,Columbia County,PA,NA,99.84591679506933,NA
18017,Northampton County,PA,NA,NA,3.3003300330033
18020,Northampton County,PA,NA,NA,77.88778877887789
18062,Lehigh County,PA,NA,30.20030816640986,NA
18102,Lehigh County,PA,83.89423076923077,NA,NA
18210,Carbon County,PA,NA,NA,89.10891089108911
18252,Schuylkill County,PA,55.04807692307693,NA,NA
18301,Monroe County,PA,76.4423076923077,NA,NA
18328,Pike County,PA,NA,71.49460708782742,NA
18360,Monroe County,PA,25,NA,NA
18509,Lackawanna County,PA,NA,64.25269645608628,NA
18512,Lackawanna County,PA,NA,NA,57.42574257425742
18603,Columbia County,PA,NA,NA,42.57425742574257
18940,Bucks County,PA,58.65384615384615,NA,NA
18954,Bucks County,PA,91.58653846153845,NA,NA
18964,Montgomery County,PA,NA,81.35593220338984,NA
18966,Bucks County,PA,13.701923076923078,NA,NA
19006,Montgomery County,PA,NA,31.2788906009245,NA
19047,Bucks County,PA,77.88461538461539,NA,NA
19063,Delaware County,PA,NA,92.91217257318952,NA
19083,Delaware County,PA,NA,11.864406779661017,NA
19106,Philadelphia County,PA,NA,85.824345146379045,NA
19130,Philadelphia County,PA,NA,67.64252696456087,NA
19142,Philadelphia County,PA,74.75961538461539,NA,NA
19149,Philadelphia County,PA,NA,NA,29.7029702970297
19342,Delaware County,PA,NA,NA,60.396039603960396
19406,Montgomery County,PA,NA,35.43913713405239,NA
19426,Montgomery County,PA,32.93269230769231,63.63636363636363,NA
19462,Montgomery County,PA,69.71153846153845,NA,NA
02816,Kent County,RI,NA,NA,59.73597359735974
02852,Washington County,RI,NA,27.5808936825886,NA
02861,Providence County,RI,NA,85.97842835130972,NA
02920,Providence County,RI,26.201923076923077,15.254237288135593,NA
29053,Lexington County,SC,NA,68.56702619414484,NA
29067,Lancaster County,SC,NA,83.66718027734977,NA
29203,Richland County,SC,8.173076923076923,NA,NA
29414,Charleston County,SC,28.846153846153843,NA,29.7029702970297
29440,Georgetown County,SC,89.1826923076923,NA,62.70627062706271
29445,Berkeley County,SC,56.25,NA,NA
29451,Charleston County,SC,NA,93.37442218798151,NA
29488,Colleton County,SC,NA,NA,51.81518151815182
29505,Florence County,SC,NA,NA,76.23762376237624
29532,Darlington County,SC,NA,49.76887519260401,NA
29588,Horry County,SC,NA,40.36979969183359,NA
29650,Greenville County,SC,NA,41.75654853620955,NA
29673,Greenville County,SC,NA,18.335901386748844,NA
29803,Aiken County,SC,NA,7.550077041602465,NA
29902,Beaufort County,SC,NA,NA,77.55775577557755
29906,Beaufort County,SC,NA,NA,83.16831683168317
29909,Beaufort County,SC,NA,NA,16.17161716171617
37064,Williamson County,TN,NA,NA,22.772277227722775
37075,Sumner County,TN,12.980769230769232,NA,NA
37115,Davidson County,TN,9.134615384615383,NA,NA
37205,Davidson County,TN,NA,50.077041602465336,NA
37207,Davidson County,TN,9.375,NA,NA
37312,Bradley County,TN,NA,45.91679506933744,NA
37334,Lincoln County,TN,NA,28.96764252696456,NA
37604,Washington County,TN,16.346153846153847,NA,NA
37617,Sullivan County,TN,NA,61.17103235747303,NA
37659,Washington County,TN,NA,NA,23.762376237623762
37664,Sullivan County,TN,17.548076923076923,NA,NA
37826,McMinn County,TN,NA,90.29275808936826,NA
37830,Anderson County,TN,NA,NA,71.28712871287128
37865,Sevier County,TN,NA,NA,33.33333333333333
37877,Hamblen County,TN,NA,84.28351309707242,NA
38506,Putnam County,TN,NA,20.647149460708782,NA
75035,Collin County,TX,NA,NA,69.3069306930693
75040,Dallas County,TX,14.663461538461538,NA,NA
75044,Dallas County,TX,NA,85.51617873651772,NA
75048,Dallas County,TX,65.38461538461539,NA,NA
75050,Dallas County,TX,41.34615384615385,NA,NA
75052,Dallas County,TX,NA,NA,27.722772277227726
75056,Denton County,TX,NA,NA,60.726072607260726
75082,Collin County,TX,NA,40.06163328197226,NA
75088,Dallas County,TX,NA,73.95993836671802,NA
75093,Collin County,TX,47.355769230769226,NA,NA
75098,Collin County,TX,18.269230769230766,NA,NA
75126,Kaufman County,TX,27.884615384615387,NA,NA
75150,Dallas County,TX,NA,16.024653312788907,NA
75203,Dallas County,TX,NA,87.82742681047766,NA
75214,Dallas County,TX,67.78846153846155,NA,NA
75227,Dallas County,TX,15.625,67.18027734976889,NA
75253,Dallas County,TX,NA,79.50693374422187,NA
75559,Bowie County,TX,NA,87.05701078582435,NA
75645,Upshur County,TX,74.51923076923077,NA,NA
75703,Smith County,TX,28.365384615384613,NA,NA
75751,Henderson County,TX,NA,NA,37.62376237623762
75758,Henderson County,TX,NA,84.59167950693374,NA
75948,Sabine County,TX,NA,NA,82.50825082508251
76001,Tarrant County,TX,75.72115384615384,NA,NA
76011,Tarrant County,TX,NA,55.932203389830505,NA
76017,Tarrant County,TX,NA,29.738058551617875,NA
76018,Tarrant County,TX,56.00961538461539,NA,NA
76053,Tarrant County,TX,40.38461538461539,NA,NA
76058,Johnson County,TX,54.807692307692314,NA,NA
76065,Ellis County,TX,39.66346153846153,NA,NA
76119,Tarrant County,TX,6.009615384615385,NA,NA
76123,Tarrant County,TX,NA,NA,81.84818481848185
76126,Tarrant County,TX,NA,69.02927580893683,NA
76148,Tarrant County,TX,NA,78.5824345146379,NA
76226,Denton County,TX,NA,61.016949152542374,NA
76262,Denton County,TX,83.41346153846155,NA,NA
76513,Bell County,TX,NA,10.477657935285054,NA
76543,Bell County,TX,NA,19.568567026194145,NA
76550,Lampasas County,TX,NA,53.62095531587057,NA
76567,Milam County,TX,81.00961538461539,NA,NA
76692,Hill County,TX,NA,55.31587057010786,92.07920792079209
76903,Tom Green County,TX,40.86538461538461,NA,NA
77006,Harris County,TX,NA,NA,96.36963696369637
77011,Harris County,TX,NA,70.87827426810478,NA
77012,Harris County,TX,86.77884615384616,NA,NA
77016,Harris County,TX,NA,NA,42.9042904290429
77028,Harris County,TX,NA,NA,50.82508250825083
77029,Harris County,TX,63.46153846153846,NA,NA
77035,Harris County,TX,NA,48.99845916795069,NA
77041,Harris County,TX,NA,70.26194144838213,NA
77045,Harris County,TX,NA,85.36209553158706,NA
77053,Fort Bend County,TX,NA,53.46687211093991,NA
77071,Harris County,TX,NA,59.16795069337443,NA
77087,Harris County,TX,NA,NA,79.53795379537954
77095,Harris County,TX,79.5673076923077,NA,NA
77384,Montgomery County,TX,NA,86.28659476117103,NA
77385,Montgomery County,TX,58.17307692307693,NA,NA
77418,Austin County,TX,NA,89.83050847457628,NA
77449,Harris County,TX,NA,25.885978428351308,52.8052805280528
77450,Harris County,TX,37.5,NA,38.613861386138616
77480,Brazoria County,TX,NA,NA,88.44884488448845
77510,Galveston County,TX,60.33653846153846,NA,NA
77511,Brazoria County,TX,NA,43.6055469953775,NA
77521,Harris County,TX,58.894230769230774,NA,NA
77539,Galveston County,TX,NA,9.399075500770417,NA
77546,Galveston County,TX,NA,9.244992295839753,NA
77583,Brazoria County,TX,50,NA,NA
77708,Jefferson County,TX,77.16346153846155,NA,NA
77802,Brazos County,TX,NA,NA,9.900990099009901
77845,Brazos County,TX,7.451923076923077,NA,NA
78028,Kerr County,TX,NA,14.791987673343607,NA
78040,Webb County,TX,NA,37.90446841294299,NA
78041,Webb County,TX,36.53846153846153,NA,NA
78046,Webb County,TX,NA,26.502311248073962,NA
78064,Atascosa County,TX,71.39423076923077,NA,NA
78203,Bexar County,TX,NA,NA,92.4092409240924
78223,Bexar County,TX,NA,NA,31.02310231023102
78227,Bexar County,TX,35.57692307692308,NA,NA
78239,Bexar County,TX,NA,65.94761171032357,NA
78251,Bexar County,TX,NA,91.83359013867488,NA
78259,Bexar County,TX,70.4326923076923,NA,NA
78260,Bexar County,TX,NA,NA,88.11881188118812
78374,San Patricio County,TX,84.85576923076923,NA,NA
78613,Williamson County,TX,NA,16.33281972265023,NA
78642,Williamson County,TX,85.8173076923077,NA,NA
78660,Travis County,TX,23.798076923076923,NA,NA
78729,Williamson County,TX,NA,92.44992295839754,NA
78745,Travis County,TX,NA,NA,54.78547854785478
78749,Travis County,TX,86.29807692307693,NA,NA
79705,Midland County,TX,24.03846153846154,NA,NA
79761,Ector County,TX,48.79807692307692,NA,NA
79915,El Paso County,TX,NA,49.61479198767334,NA
84044,Salt Lake County,UT,NA,NA,86.13861386138613
84057,Utah County,UT,NA,NA,87.78877887788778
84058,Utah County,UT,NA,80.89368258859785,NA
84065,Salt Lake County,UT,NA,43.29738058551618,NA
84074,Tooele County,UT,3.6057692307692304,53.312788906009246,NA
84078,Uintah County,UT,13.221153846153847,NA,NA
84097,Utah County,UT,97.83653846153845,NA,NA
84102,Salt Lake County,UT,NA,NA,94.71947194719472
84109,Salt Lake County,UT,93.50961538461539,NA,NA
84115,Salt Lake County,UT,63.70192307692307,NA,NA
84117,Salt Lake County,UT,NA,64.25269645608628,NA
84129,,UT,NA,28.50539291217257,NA
84335,Cache County,UT,NA,88.4437596302003,NA
84401,Weber County,UT,NA,48.07395993836672,NA
84403,Weber County,UT,NA,NA,54.45544554455446
84651,Utah County,UT,NA,74.57627118644068,NA
84721,Iron County,UT,NA,63.32819722650231,NA
05401,Chittenden County,VT,NA,NA,46.2046204620462
05408,Chittenden County,VT,NA,73.6517719568567,NA
05468,Chittenden County,VT,NA,42.3728813559322,NA
05676,Washington County,VT,NA,91.67950693374422,NA
05701,Rutland County,VT,NA,58.85978428351309,NA
22041,Fairfax County,VA,NA,65.33127889060091,NA
22193,Prince William County,VA,11.538461538461538,NA,NA
22203,Arlington County,VA,NA,91.06317411402158,NA
22309,Fairfax County,VA,NA,NA,58.08580858085809
22407,Spotsylvania County,VA,NA,18.02773497688752,25.412541254125415
22601,Winchester city,VA,NA,NA,61.05610561056105
22701,Culpeper County,VA,NA,78.89060092449924,NA
22827,Rockingham County,VA,67.3076923076923,NA,NA
22947,Albemarle County,VA,NA,NA,99.33993399339934
22980,Waynesboro city,VA,6.730769230769231,NA,NA
23117,Louisa County,VA,NA,NA,68.64686468646865
23220,Richmond city,VA,NA,51.463790446841294,NA
23227,Henrico County,VA,NA,NA,25.742574257425744
23229,Henrico County,VA,NA,NA,21.45214521452145
23235,Chesterfield County,VA,52.40384615384615,NA,NA
23417,Accomack County,VA,NA,NA,99.66996699669967
23452,Virginia Beach city,VA,NA,NA,33.993399339933994
23455,Virginia Beach city,VA,NA,7.24191063174114,NA
23513,Norfolk city,VA,14.903846153846153,NA,NA
23707,Portsmouth city,VA,NA,38.366718027734976,NA
24064,Botetourt County,VA,NA,95.83975346687211,NA
24210,Washington County,VA,NA,NA,76.56765676567657
24266,Russell County,VA,NA,NA,68.31683168316832
24401,Staunton city,VA,NA,32.81972265023113,NA
24426,Alleghany County,VA,NA,86.59476117103236,NA
24502,Lynchburg city,VA,NA,43.759630200308166,14.19141914191419
98001,King County,WA,66.58653846153845,NA,NA
98003,King County,WA,25.48076923076923,NA,NA
98021,Snohomish County,WA,NA,45.300462249614796,NA
98059,King County,WA,44.95192307692308,NA,NA
98108,King County,WA,66.34615384615384,NA,NA
98125,King County,WA,64.90384615384616,NA,NA
98133,King County,WA,NA,71.1864406779661,NA
98198,King County,WA,NA,28.197226502311246,NA
98199,King County,WA,80.28846153846155,NA,NA
98258,Snohomish County,WA,19.230769230769234,NA,NA
98272,Snohomish County,WA,NA,41.60246533127889,NA
98277,Island County,WA,NA,24.961479198767332,NA
98294,Snohomish County,WA,87.98076923076923,NA,NA
98311,Kitsap County,WA,NA,49.46070878274268,NA
98312,Kitsap County,WA,NA,57.473035439137135,NA
98363,Clallam County,WA,NA,94.29892141756548,NA
98365,Jefferson County,WA,NA,82.89676425269646,NA
98370,Kitsap County,WA,NA,40.83204930662558,NA
98373,Pierce County,WA,63.22115384615385,NA,NA
98382,Clallam County,WA,NA,NA,0.9900990099009901
98626,Cowlitz County,WA,42.78846153846153,NA,NA
98801,Chelan County,WA,NA,6.317411402157165,NA
98815,Chelan County,WA,85.33653846153845,NA,NA
98823,Grant County,WA,NA,92.44992295839754,NA
98951,Yakima County,WA,87.01923076923077,NA,NA
99114,Stevens County,WA,73.79807692307693,NA,NA
99301,Franklin County,WA,NA,32.5115562403698,NA
99336,Benton County,WA,NA,NA,26.072607260726073
99337,Benton County,WA,NA,5.855161787365177,NA
99353,Benton County,WA,NA,56.240369799691834,NA
20009,District of Columbia,DC,NA,43.91371340523883,NA
24739,Mercer County,WV,NA,74.26810477657936,NA
25045,Kanawha County,WV,NA,NA,96.69966996699671
25302,Kanawha County,WV,NA,NA,52.475247524752476
25314,Kanawha County,WV,NA,87.67334360554699,NA
25506,Lincoln County,WV,88.9423076923077,NA,NA
26104,Wood County,WV,34.855769230769226,NA,NA
26150,Wood County,WV,67.54807692307693,NA,NA
26426,Harrison County,WV,NA,95.99383667180277,NA
26508,Monongalia County,WV,NA,4.314329738058552,NA
26554,Marion County,WV,NA,1.5408320493066257,NA
53005,Waukesha County,WI,NA,75.03852080123266,45.21452145214521
53029,Waukesha County,WI,NA,94.60708782742681,NA
53045,Waukesha County,WI,NA,86.90292758089369,NA
53066,Waukesha County,WI,NA,NA,75.57755775577559
53085,Sheboygan County,WI,NA,NA,95.04950495049505
53092,Ozaukee County,WI,88.46153846153845,NA,NA
53095,Washington County,WI,50.24038461538461,18.489984591679505,NA
53098,Dodge County,WI,NA,NA,80.19801980198021
53121,Walworth County,WI,NA,28.65947611710323,NA
53129,Milwaukee County,WI,NA,NA,51.15511551155115
53146,Waukesha County,WI,87.5,94.14483821263482,NA
53149,Waukesha County,WI,NA,69.79969183359015,NA
53150,Waukesha County,WI,NA,NA,45.54455445544555
53179,Kenosha County,WI,NA,89.6764252696456,NA
53186,Waukesha County,WI,24.519230769230766,NA,65.67656765676567
53189,Waukesha County,WI,NA,NA,37.29372937293729
53207,Milwaukee County,WI,NA,29.892141756548536,NA
53210,Milwaukee County,WI,NA,NA,53.135313531353134
53216,Milwaukee County,WI,NA,17.565485362095533,NA
53222,Milwaukee County,WI,NA,34.82280431432974,NA
53227,Milwaukee County,WI,NA,80.2773497688752,NA
53406,Racine County,WI,NA,16.486902927580893,NA
53511,Rock County,WI,NA,0.7704160246533128,NA
53534,Rock County,WI,78.36538461538461,NA,NA
53538,Jefferson County,WI,NA,93.68258859784284,NA
53546,Rock County,WI,NA,3.389830508474576,NA
53593,Dane County,WI,NA,46.070878274268104,NA
53711,Dane County,WI,NA,14.637904468412943,NA
53719,Dane County,WI,NA,39.907550077041606,NA
54024,Polk County,WI,NA,88.59784283513096,NA
54220,Manitowoc County,WI,NA,NA,9.570957095709572
54229,Brown County,WI,99.75961538461539,NA,NA
54467,Portage County,WI,60.09615384615385,NA,NA
54481,Portage County,WI,NA,50.231124807396,NA
54601,La Crosse County,WI,NA,NA,4.29042904290429
54646,Juneau County,WI,NA,89.06009244992296,NA
54656,Monroe County,WI,NA,82.12634822804314,18.81188118811881
54703,Eau Claire County,WI,NA,30.508474576271187,NA
54730,Dunn County,WI,NA,79.81510015408321,NA
82007,Laramie County,WY,57.692307692307686,NA,NA
82930,Uinta County,WY,83.17307692307693,NA,NA
