ZipCode,county,state,Adult,Retirement,Geriatric
35031,Blount County,AL,NA,NA,82.49258160237389
35040,Shelby County,AL,46.37096774193548,NA,NA
35126,Jefferson County,AL,51.20967741935484,NA,NA
35127,Jefferson County,AL,NA,57.3134328358209,NA
35613,Limestone County,AL,NA,NA,66.76557863501483
35650,Lawrence County,AL,NA,85.67164179104478,NA
35802,Madison County,AL,83.46774193548387,NA,NA
35811,Madison County,AL,NA,42.68656716417911,NA
35904,Etowah County,AL,41.935483870967744,NA,NA
36067,Autauga County,AL,96.37096774193549,NA,NA
36106,Montgomery County,AL,78.2258064516129,NA,NA
36111,Montgomery County,AL,NA,NA,76.55786350148368
36117,Montgomery County,AL,NA,NA,21.66172106824926
36201,Calhoun County,AL,NA,NA,62.61127596439169
36526,Baldwin County,AL,49.596774193548384,NA,NA
36532,Baldwin County,AL,NA,23.582089552238806,NA
36732,Marengo County,AL,NA,66.56716417910448,NA
99654,Matanuska-Susitna Borough,AK,33.87096774193548,NA,NA
85007,Maricopa County,AZ,NA,33.43283582089553,NA
85224,Maricopa County,AZ,NA,NA,49.554896142433236
85364,Yuma County,AZ,NA,NA,5.341246290801187
85706,Pima County,AZ,NA,38.2089552238806,NA
85713,Pima County,AZ,NA,8.955223880597014,NA
86047,Navajo County,AZ,NA,34.626865671641795,NA
86301,Yavapai County,AZ,NA,NA,16.913946587537094
86303,Yavapai County,AZ,NA,NA,50.445103857566764
86507,Apache County,AZ,NA,NA,100
72010,White County,AR,72.98387096774194,NA,NA
72143,White County,AR,NA,NA,34.124629080118694
72205,Pulaski County,AR,NA,NA,18.397626112759642
72401,Craighead County,AR,NA,NA,16.61721068249258
72501,Independence County,AR,NA,NA,30.56379821958457
90033,Los Angeles County,CA,NA,49.25373134328358,NA
90043,Los Angeles County,CA,NA,21.791044776119403,NA
90046,Los Angeles County,CA,NA,NA,8.605341246290802
90065,Los Angeles County,CA,NA,35.82089552238806,NA
90250,Los Angeles County,CA,NA,24.47761194029851,NA
90404,Los Angeles County,CA,NA,NA,78.33827893175074
90623,Orange County,CA,NA,80.59701492537313,NA
90703,Los Angeles County,CA,NA,NA,36.49851632047478
90731,Los Angeles County,CA,NA,NA,48.6646884272997
91207,Los Angeles County,CA,NA,81.7910447761194,NA
91360,Ventura County,CA,NA,77.01492537313432,NA
91390,Los Angeles County,CA,NA,71.64179104477611,NA
91710,San Bernardino County,CA,35.08064516129033,NA,NA
91745,Los Angeles County,CA,NA,NA,62.908011869436194
91754,Los Angeles County,CA,NA,NA,24.629080118694365
91768,Los Angeles County,CA,NA,NA,75.37091988130564
92026,San Diego County,CA,NA,NA,67.06231454005935
92103,San Diego County,CA,NA,NA,41.54302670623146
92129,San Diego County,CA,NA,48.059701492537314,NA
92227,Imperial County,CA,NA,NA,73.88724035608308
92240,Riverside County,CA,21.774193548387096,NA,NA
92253,Riverside County,CA,NA,NA,71.51335311572701
92264,Riverside County,CA,NA,NA,16.023738872403563
92363,San Bernardino County,CA,NA,74.02985074626865,NA
92503,Riverside County,CA,NA,82.68656716417911,NA
92584,Riverside County,CA,NA,56.11940298507463,NA
92663,Orange County,CA,NA,77.91044776119404,NA
93035,Ventura County,CA,NA,NA,67.95252225519289
93274,Tulare County,CA,NA,18.80597014925373,NA
93277,Tulare County,CA,NA,NA,31.15727002967359
93454,Santa Barbara County,CA,29.03225806451613,NA,NA
93710,Fresno County,CA,NA,48.95522388059702,NA
93726,Fresno County,CA,NA,47.16417910447761,NA
93907,Monterey County,CA,NA,92.23880597014926,NA
94002,San Mateo County,CA,NA,39.40298507462687,NA
94080,San Mateo County,CA,NA,NA,2.967359050445104
94087,Santa Clara County,CA,NA,NA,25.519287833827892
94107,San Francisco County,CA,NA,61.19402985074627,NA
94108,San Francisco County,CA,NA,NA,53.70919881305638
94507,Contra Costa County,CA,NA,66.86567164179105,NA
94513,Contra Costa County,CA,NA,NA,29.376854599406528
94558,Napa County,CA,NA,NA,4.747774480712167
94559,Napa County,CA,81.85483870967742,NA,NA
94561,Contra Costa County,CA,NA,NA,53.11572700296736
94621,Alameda County,CA,30.64516129032258,NA,NA
94903,Marin County,CA,NA,52.23880597014925,NA
95010,Santa Cruz County,CA,NA,87.76119402985074,NA
95355,Stanislaus County,CA,11.29032258064516,NA,NA
95366,San Joaquin County,CA,NA,78.50746268656717,NA
95367,Stanislaus County,CA,93.95161290322581,NA,NA
95380,Stanislaus County,CA,26.209677419354836,NA,NA
95901,Yuba County,CA,55.64516129032258,NA,NA
95953,Sutter County,CA,NA,89.8507462686567,NA
95961,Yuba County,CA,40.725806451612904,NA,NA
96001,Shasta County,CA,20.967741935483872,NA,NA
80247,Arapahoe County,CO,NA,NA,35.90504451038576
80634,Weld County,CO,NA,1.791044776119403,NA
80922,El Paso County,CO,54.43548387096774,NA,NA
81082,Las Animas County,CO,98.38709677419355,NA,NA
06042,Hartford County,CT,63.70967741935484,NA,NA
06053,Hartford County,CT,NA,26.268656716417908,NA
06057,Litchfield County,CT,NA,96.71641791044776,NA
06117,Hartford County,CT,91.93548387096774,NA,37.68545994065282
06238,Tolland County,CT,62.903225806451616,NA,NA
06281,Windham County,CT,NA,68.65671641791045,NA
06413,Middlesex County,CT,NA,NA,46.88427299703264
06489,Hartford County,CT,28.62903225806452,NA,NA
06517,New Haven County,CT,NA,43.28358208955223,NA
06518,New Haven County,CT,NA,73.43283582089552,NA
06762,New Haven County,CT,NA,88.65671641791046,NA
06776,Litchfield County,CT,58.06451612903226,33.134328358208954,NA
06807,Fairfield County,CT,94.75806451612904,NA,NA
06897,Fairfield County,CT,NA,72.53731343283583,NA
19702,New Castle County,DE,NA,18.507462686567163,NA
19707,New Castle County,DE,NA,62.68656716417911,NA
19713,New Castle County,DE,NA,NA,35.311572700296736
19720,New Castle County,DE,NA,NA,9.198813056379821
19803,New Castle County,DE,58.46774193548387,49.850746268656714,NA
19945,Sussex County,DE,NA,59.40298507462687,NA
32003,Clay County,FL,NA,NA,82.49258160237389
32132,Volusia County,FL,88.70967741935483,NA,NA
32206,Duval County,FL,NA,22.686567164179106,NA
32210,Duval County,FL,NA,NA,11.275964391691394
32218,Duval County,FL,5.241935483870968,NA,NA
32233,Duval County,FL,37.5,NA,NA
32401,Bay County,FL,35.483870967741936,NA,NA
32405,Bay County,FL,25.403225806451612,NA,51.92878338278932
32408,Bay County,FL,NA,86.56716417910447,NA
32424,Calhoun County,FL,NA,75.5223880597015,NA
32448,Jackson County,FL,NA,NA,90.20771513353115
32504,Escambia County,FL,NA,77.31343283582089,NA
32526,Escambia County,FL,NA,NA,9.792284866468842
32563,Santa Rosa County,FL,31.048387096774192,NA,NA
32571,Santa Rosa County,FL,15.32258064516129,NA,NA
32578,Okaloosa County,FL,74.19354838709677,NA,NA
32607,Alachua County,FL,NA,NA,86.94362017804154
32696,Levy County,FL,NA,NA,75.07418397626114
32701,Seminole County,FL,NA,NA,87.53709198813057
32703,Orange County,FL,22.983870967741936,NA,NA
32754,Brevard County,FL,NA,71.04477611940298,NA
32757,Lake County,FL,NA,NA,68.5459940652819
32780,Brevard County,FL,NA,17.611940298507463,NA
32801,Orange County,FL,NA,NA,70.91988130563797
32821,Orange County,FL,NA,NA,97.92284866468842
32822,Orange County,FL,NA,91.94029850746269,NA
32907,Brevard County,FL,NA,20.298507462686565,55.19287833827893
32920,Brevard County,FL,NA,67.46268656716417,NA
32927,Brevard County,FL,NA,75.22388059701493,NA
32935,Brevard County,FL,NA,43.88059701492537,NA
32940,Brevard County,FL,NA,NA,31.750741839762615
32952,Brevard County,FL,NA,NA,69.73293768545994
32953,Brevard County,FL,NA,20.597014925373134,NA
33021,Broward County,FL,44.75806451612903,NA,NA
33182,Miami-Dade County,FL,NA,95.52238805970148,NA
33323,Broward County,FL,75.40322580645162,NA,NA
33327,Broward County,FL,NA,90.74626865671642,NA
33442,Broward County,FL,NA,NA,11.572700296735905
33469,Palm Beach County,FL,NA,NA,28.486646884272997
33480,Palm Beach County,FL,NA,NA,68.84272997032642
33541,Pasco County,FL,NA,36.11940298507463,NA
33545,Pasco County,FL,NA,100,NA
33612,Hillsborough County,FL,14.112903225806454,NA,NA
33771,Pinellas County,FL,NA,NA,24.03560830860534
33772,Pinellas County,FL,NA,67.76119402985074,NA
33781,Pinellas County,FL,44.354838709677416,NA,NA
33876,Highlands County,FL,NA,NA,95.54896142433235
33952,Charlotte County,FL,NA,33.731343283582085,32.047477744807125
34119,Collier County,FL,NA,27.761194029850746,54.59940652818991
34229,Sarasota County,FL,NA,NA,78.63501483679525
34231,Sarasota County,FL,NA,NA,6.231454005934718
34237,Sarasota County,FL,NA,NA,91.69139465875371
34293,Sarasota County,FL,NA,NA,4.154302670623145
34472,Marion County,FL,87.90322580645162,NA,NA
34476,Marion County,FL,57.25806451612904,NA,NA
34480,Marion County,FL,NA,76.71641791044776,NA
34481,Marion County,FL,NA,27.164179104477608,NA
34606,Hernando County,FL,NA,NA,33.82789317507419
34957,Martin County,FL,NA,NA,16.913946587537094
34986,St. Lucie County,FL,NA,NA,10.089020771513352
30040,Forsyth County,GA,NA,NA,13.94658753709199
30046,Gwinnett County,GA,70.56451612903226,NA,NA
30054,Newton County,GA,64.11290322580645,NA,NA
30078,Gwinnett County,GA,NA,NA,60.534124629080125
30143,Pickens County,GA,59.67741935483871,NA,NA
30152,Cobb County,GA,54.03225806451613,72.23880597014926,NA
30230,Troup County,GA,70.16129032258065,NA,NA
30269,Fayette County,GA,NA,NA,55.78635014836796
30291,Fulton County,GA,NA,65.67164179104478,NA
30294,DeKalb County,GA,NA,53.43283582089552,NA
30513,Fannin County,GA,69.75806451612904,NA,NA
30577,Stephens County,GA,NA,NA,53.41246290801187
30642,Greene County,GA,NA,NA,68.84272997032642
30680,Barrow County,GA,NA,NA,29.673590504451035
30705,Murray County,GA,NA,NA,63.20474777448071
31036,Pulaski County,GA,NA,96.11940298507463,NA
31211,Bibb County,GA,64.91935483870968,NA,NA
31324,Bryan County,GA,74.59677419354838,NA,NA
31410,Chatham County,GA,81.45161290322581,NA,NA
31707,Dougherty County,GA,48.79032258064516,NA,NA
83301,Twin Falls County,ID,NA,44.17910447761194,NA
83646,Ada County,ID,NA,7.164179104477612,5.934718100890208
83703,Ada County,ID,NA,26.56716417910448,NA
83814,Kootenai County,ID,32.66129032258064,NA,NA
60016,Cook County,IL,NA,12.53731343283582,NA
60098,McHenry County,IL,29.838709677419356,NA,14.540059347181009
60115,DeKalb County,IL,NA,31.044776119402982,NA
60124,Kane County,IL,60.483870967741936,NA,NA
60137,DuPage County,IL,NA,30.74626865671642,NA
60156,McHenry County,IL,NA,NA,88.13056379821958
60160,Cook County,IL,NA,NA,45.103857566765576
60425,Cook County,IL,NA,68.05970149253731,NA
60436,Will County,IL,NA,81.49253731343283,NA
60438,Cook County,IL,NA,38.50746268656716,NA
60440,Will County,IL,NA,47.462686567164184,NA
60517,DuPage County,IL,37.096774193548384,NA,NA
60523,DuPage County,IL,NA,51.94029850746269,NA
60527,DuPage County,IL,NA,10.44776119402985,NA
60532,DuPage County,IL,42.74193548387097,NA,NA
60563,DuPage County,IL,43.145161290322584,NA,NA
60605,Cook County,IL,NA,NA,58.45697329376854
60618,Cook County,IL,NA,NA,18.694362017804153
60628,Cook County,IL,NA,3.582089552238806,NA
60638,Cook County,IL,NA,56.4179104477612,NA
60646,Cook County,IL,46.37096774193548,NA,NA
60654,Cook County,IL,64.51612903225806,NA,NA
61068,Ogle County,IL,NA,NA,85.16320474777447
61071,Whiteside County,IL,NA,NA,92.87833827893175
61520,Fulton County,IL,NA,NA,65.28189910979229
61611,Tazewell County,IL,NA,NA,44.510385756676556
61764,Livingston County,IL,NA,91.64179104477613,NA
61856,Piatt County,IL,NA,50.44776119402985,NA
62522,Macon County,IL,NA,NA,41.839762611275965
62918,Williamson County,IL,82.66129032258065,NA,NA
46012,Madison County,IN,NA,NA,33.23442136498516
46203,Marion County,IN,NA,NA,28.18991097922849
46218,Marion County,IN,NA,19.701492537313435,NA
46224,Marion County,IN,NA,NA,70.32640949554896
46227,Marion County,IN,NA,87.46268656716418,NA
46234,Marion County,IN,NA,48.656716417910445,NA
46254,Marion County,IN,NA,30.447761194029848,NA
46312,Lake County,IN,NA,NA,26.409495548961427
46321,Lake County,IN,NA,NA,24.33234421364985
46392,Jasper County,IN,NA,83.28358208955224,NA
46405,Lake County,IN,NA,48.35820895522388,NA
46410,Lake County,IN,10.483870967741936,NA,25.816023738872403
46507,Elkhart County,IN,NA,NA,94.06528189910979
46516,Elkhart County,IN,45.564516129032256,NA,NA
46534,Starke County,IN,NA,74.92537313432835,NA
46563,Marshall County,IN,NA,NA,54.59940652818991
46701,Noble County,IN,NA,70.1492537313433,NA
46933,Grant County,IN,87.09677419354838,NA,NA
47012,Franklin County,IN,NA,NA,77.1513353115727
47112,Harrison County,IN,NA,NA,64.39169139465875
47150,Floyd County,IN,NA,NA,23.738872403560833
47172,Clark County,IN,NA,60.895522388059696,NA
47331,Fayette County,IN,16.129032258064516,NA,NA
47362,Henry County,IN,NA,NA,10.682492581602373
47390,Randolph County,IN,NA,90.14925373134328,NA
47620,Posey County,IN,NA,85.07462686567165,NA
47710,Vanderburgh County,IN,NA,NA,43.62017804154303
47715,Vanderburgh County,IN,NA,NA,47.774480712166174
50049,Lucas County,IA,NA,NA,67.65578635014838
50158,Marshall County,IA,NA,NA,29.080118694362017
52057,Delaware County,IA,NA,NA,52.22551928783383
66030,Johnson County,KS,NA,55.52238805970149,NA
66606,Shawnee County,KS,77.82258064516128,NA,NA
66616,Shawnee County,KS,NA,94.32835820895522,NA
67204,Sedgwick County,KS,NA,65.07462686567163,NA
67357,Labette County,KS,NA,57.91044776119403,NA
67401,Saline County,KS,NA,NA,19.584569732937684
67530,Barton County,KS,63.306451612903224,NA,NA
67550,Pawnee County,KS,NA,NA,91.98813056379822
40031,Oldham County,KY,NA,79.40298507462687,NA
40324,Scott County,KY,NA,NA,37.0919881305638
40336,Estill County,KY,NA,NA,62.01780415430267
40701,Whitley County,KY,NA,61.49253731343284,26.112759643916917
40741,Laurel County,KY,NA,NA,47.18100890207715
40744,Laurel County,KY,27.419354838709676,54.328358208955216,NA
41008,Carroll County,KY,72.58064516129032,NA,NA
41017,Kenton County,KY,NA,NA,20.77151335311573
41091,Boone County,KY,65.32258064516128,NA,NA
41179,Lewis County,KY,NA,NA,99.70326409495549
41339,Breathitt County,KY,NA,68.35820895522387,NA
41465,Magoffin County,KY,NA,NA,78.93175074183976
41501,Pike County,KY,NA,14.328358208955224,NA
42025,Marshall County,KY,82.25806451612904,NA,31.454005934718097
42029,Marshall County,KY,NA,86.26865671641791,NA
42066,Graves County,KY,66.12903225806451,NA,NA
42220,Todd County,KY,NA,94.02985074626866,NA
42635,McCreary County,KY,NA,NA,98.51632047477746
42701,Hardin County,KY,NA,9.850746268656717,NA
70001,Jefferson Parish,LA,NA,9.55223880597015,NA
70003,Jefferson Parish,LA,NA,22.98507462686567,NA
70068,St. John the Baptist Parish,LA,NA,NA,30.267062314540063
70070,St. Charles Parish,LA,NA,NA,99.40652818991099
70127,Orleans Parish,LA,NA,78.80597014925374,NA
70364,Terrebonne Parish,LA,NA,23.88059701492537,NA
70374,Lafourche Parish,LA,NA,NA,86.35014836795251
70394,Lafourche Parish,LA,NA,NA,32.047477744807125
70435,St. Tammany Parish,LA,NA,17.91044776119403,NA
70454,Tangipahoa Parish,LA,NA,38.80597014925373,NA
70791,East Baton Rouge Parish,LA,NA,29.850746268656714,NA
70816,East Baton Rouge Parish,LA,8.46774193548387,NA,NA
71106,Caddo Parish,LA,NA,13.432835820895523,NA
03903,York County,ME,NA,99.1044776119403,NA
04102,Cumberland County,ME,NA,37.014925373134325,NA
04330,Kennebec County,ME,9.274193548387096,NA,NA
04468,Penobscot County,ME,NA,NA,67.35905044510386
04915,Waldo County,ME,NA,89.25373134328358,NA
04976,Somerset County,ME,NA,NA,17.50741839762611
20743,Prince George's County,MD,NA,NA,49.85163204747774
20783,Prince George's County,MD,75,NA,NA
21001,Harford County,MD,59.2741935483871,NA,NA
21045,Howard County,MD,NA,NA,89.31750741839762
21090,Anne Arundel County,MD,NA,NA,75.66765578635015
21093,Baltimore County,MD,NA,27.46268656716418,NA
21133,Baltimore County,MD,56.451612903225815,NA,NA
21208,Baltimore County,MD,NA,34.02985074626866,NA
21214,Baltimore city,MD,NA,NA,59.05044510385756
21227,Baltimore County,MD,NA,47.76119402985074,NA
21234,Baltimore County,MD,NA,NA,6.528189910979229
21629,Caroline County,MD,89.51612903225806,NA,NA
21727,Frederick County,MD,NA,NA,96.14243323442136
21901,Cecil County,MD,NA,89.55223880597015,76.26112759643917
21921,Cecil County,MD,NA,NA,20.474777448071215
01001,Hampden County,MA,NA,20,NA
01020,Hampden County,MA,6.048387096774194,NA,NA
01057,Hampden County,MA,95.96774193548387,NA,NA
01105,Hampden County,MA,4.032258064516129,NA,NA
01201,Berkshire County,MA,NA,NA,0.8902077151335311
01331,Worcester County,MA,6.451612903225806,NA,NA
01364,Franklin County,MA,NA,22.388059701492537,NA
01432,Middlesex County,MA,45.16129032258064,NA,NA
01570,Worcester County,MA,NA,NA,98.21958456973294
01757,Worcester County,MA,1.2096774193548387,NA,NA
01821,Middlesex County,MA,NA,1.4925373134328357,NA
01905,Essex County,MA,0.8064516129032258,NA,NA
01906,Essex County,MA,NA,58.507462686567166,NA
01960,Essex County,MA,0.4032258064516129,NA,NA
02048,Bristol County,MA,NA,NA,68.24925816023739
02053,Norfolk County,MA,71.37096774193549,NA,NA
02090,Norfolk County,MA,NA,NA,72.10682492581603
02093,Norfolk County,MA,55.24193548387096,NA,NA
02118,Suffolk County,MA,NA,6.865671641791045,77.44807121661721
02121,Suffolk County,MA,NA,64.17910447761194,NA
02124,Suffolk County,MA,33.064516129032256,NA,NA
02126,Suffolk County,MA,70.96774193548387,NA,NA
02128,Suffolk County,MA,0,NA,7.121661721068249
02129,Suffolk County,MA,34.67741935483871,28.65671641791045,NA
02139,Middlesex County,MA,NA,54.62686567164179,NA
02140,Middlesex County,MA,NA,85.37313432835822,NA
02360,Plymouth County,MA,NA,0,NA
02375,Bristol County,MA,75.80645161290323,NA,NA
02474,Middlesex County,MA,NA,NA,12.759643916913946
02476,Middlesex County,MA,NA,26.865671641791046,NA
02540,Barnstable County,MA,NA,NA,33.531157270029674
02723,Bristol County,MA,NA,97.01492537313433,NA
48015,Macomb County,MI,NA,52.83582089552239,NA
48021,Macomb County,MI,NA,18.208955223880597,NA
48025,Oakland County,MI,NA,NA,60.83086053412463
48035,Macomb County,MI,NA,NA,10.385756676557865
48036,Macomb County,MI,NA,28.955223880597014,NA
48044,Macomb County,MI,NA,5.6716417910447765,NA
48045,Macomb County,MI,24.596774193548388,NA,NA
48051,Macomb County,MI,56.048387096774185,NA,NA
48067,Oakland County,MI,NA,42.98507462686567,NA
48074,St. Clair County,MI,90.7258064516129,NA,NA
48076,Oakland County,MI,NA,NA,38.87240356083086
48092,Macomb County,MI,88.30645161290323,NA,NA
48093,Macomb County,MI,NA,37.61194029850746,NA
48111,Wayne County,MI,10.080645161290322,NA,NA
48117,Monroe County,MI,NA,63.28358208955224,NA
48135,Wayne County,MI,22.58064516129032,NA,NA
48141,Wayne County,MI,NA,17.313432835820898,NA
48146,Wayne County,MI,NA,16.716417910447763,NA
48161,Monroe County,MI,27.82258064516129,NA,NA
48162,Monroe County,MI,NA,83.5820895522388,NA
48167,Oakland County,MI,NA,NA,44.80712166172107
48182,Monroe County,MI,81.04838709677419,NA,NA
48187,Wayne County,MI,12.5,NA,NA
48198,Washtenaw County,MI,2.4193548387096775,NA,NA
48213,Wayne County,MI,13.709677419354838,NA,NA
48235,Wayne County,MI,2.0161290322580645,NA,NA
48240,Wayne County,MI,20.161290322580644,NA,NA
48304,Oakland County,MI,61.693548387096776,NA,NA
48306,Oakland County,MI,38.306451612903224,NA,NA
48307,Oakland County,MI,16.93548387096774,NA,NA
48322,Oakland County,MI,NA,NA,5.637982195845697
48346,Oakland County,MI,NA,49.55223880597015,NA
48350,Oakland County,MI,NA,NA,83.97626112759644
48371,Oakland County,MI,NA,NA,97.3293768545994
48430,Genesee County,MI,NA,NA,22.255192878338278
48625,Clare County,MI,NA,21.492537313432834,NA
48642,Midland County,MI,NA,NA,8.902077151335313
48657,Midland County,MI,NA,63.88059701492538,NA
48706,Bay County,MI,NA,1.1940298507462688,NA
48858,Isabella County,MI,NA,6.26865671641791,NA
49022,Berrien County,MI,53.62903225806451,NA,NA
49106,Berrien County,MI,NA,NA,89.91097922848664
49127,Berrien County,MI,NA,66.26865671641791,NA
49341,Kent County,MI,NA,25.07462686567164,NA
49417,Ottawa County,MI,NA,5.970149253731343,NA
49504,Kent County,MI,15.725806451612904,NA,NA
49617,Benzie County,MI,NA,NA,94.95548961424333
49646,Kalkaska County,MI,50.806451612903224,73.73134328358208,NA
49659,Antrim County,MI,92.74193548387096,NA,NA
49684,Grand Traverse County,MI,54.43548387096774,NA,NA
49685,Grand Traverse County,MI,50.403225806451616,NA,43.32344213649852
49686,Grand Traverse County,MI,NA,84.17910447761194,NA
49712,Charlevoix County,MI,79.83870967741935,NA,NA
49721,Cheboygan County,MI,47.17741935483871,NA,NA
49756,Montmorency County,MI,NA,74.6268656716418,NA
49770,Emmet County,MI,NA,NA,30.56379821958457
49801,Dickinson County,MI,NA,40.298507462686565,NA
49837,Delta County,MI,NA,51.64179104477612,NA
55045,Chisago County,MN,NA,69.55223880597015,NA
55412,Hennepin County,MN,32.25806451612903,NA,NA
55746,St. Louis County,MN,NA,NA,98.81305637982196
55912,Mower County,MN,NA,3.2835820895522385,NA
55944,Dodge County,MN,NA,NA,95.25222551928783
56031,Martin County,MN,NA,19.1044776119403,NA
56071,Scott County,MN,NA,NA,83.38278931750742
56164,Pipestone County,MN,NA,NA,47.47774480712167
56501,Becker County,MN,35.88709677419355,NA,NA
56701,Pennington County,MN,NA,NA,32.93768545994065
38852,Tishomingo County,MS,NA,85.97014925373134,NA
38967,Montgomery County,MS,NA,NA,84.27299703264094
39213,Hinds County,MS,NA,51.04477611940299,NA
39440,Jones County,MS,NA,99.40298507462687,97.62611275964392
39531,Harrison County,MS,NA,NA,91.3946587537092
39560,Harrison County,MS,NA,9.253731343283581,NA
63017,St. Louis County,MO,NA,NA,2.0771513353115725
63084,Franklin County,MO,52.016129032258064,NA,NA
63111,St. Louis city,MO,NA,50.14925373134328,NA
63136,St. Louis County,MO,NA,91.04477611940298,NA
63303,St. Charles County,MO,NA,NA,36.20178041543027
63367,St. Charles County,MO,NA,NA,58.160237388724035
63901,Butler County,MO,NA,57.01492537313433,NA
64012,Cass County,MO,NA,95.22388059701493,NA
64015,Jackson County,MO,14.919354838709678,NA,NA
64078,Cass County,MO,NA,79.70149253731343,NA
64134,Jackson County,MO,NA,36.417910447761194,NA
64505,Buchanan County,MO,29.435483870967744,NA,NA
64506,Buchanan County,MO,NA,94.92537313432837,NA
65270,Randolph County,MO,NA,NA,59.64391691394659
59102,Yellowstone County,MT,NA,4.179104477611941,NA
89130,Clark County,NV,NA,53.13432835820896,NA
89431,Washoe County,NV,21.370967741935484,NA,NA
89460,Douglas County,NV,NA,NA,50.74183976261127
03062,Hillsborough County,NH,NA,NA,15.43026706231454
03064,Hillsborough County,NH,27.016129032258064,NA,NA
03103,Hillsborough County,NH,NA,40.59701492537313,NA
03104,Hillsborough County,NH,NA,14.029850746268657,NA
03452,Cheshire County,NH,100,NA,NA
07003,Essex County,NJ,NA,27.761194029850746,NA
07005,Morris County,NJ,NA,NA,76.8545994065282
07112,Essex County,NJ,NA,NA,92.28486646884274
07461,Sussex County,NJ,NA,57.611940298507456,NA
07465,Passaic County,NJ,NA,NA,79.82195845697329
07649,Bergen County,NJ,NA,NA,86.64688427299704
07675,Bergen County,NJ,NA,NA,37.98219584569733
07712,Monmouth County,NJ,NA,4.776119402985075,NA
07724,Monmouth County,NJ,NA,NA,56.97329376854599
07728,Monmouth County,NJ,NA,14.925373134328357,4.451038575667656
07730,Monmouth County,NJ,NA,NA,65.57863501483679
07734,Monmouth County,NJ,NA,67.16417910447761,NA
07748,Monmouth County,NJ,NA,NA,60.23738872403561
07840,Warren County,NJ,NA,NA,77.74480712166172
08022,Burlington County,NJ,NA,94.6268656716418,NA
08030,Camden County,NJ,NA,NA,81.89910979228486
08087,Ocean County,NJ,NA,NA,15.133531157270031
08232,Atlantic County,NJ,NA,NA,65.8753709198813
08251,Cape May County,NJ,NA,74.32835820895522,NA
08302,Cumberland County,NJ,12.096774193548388,NA,NA
08318,Salem County,NJ,NA,NA,63.50148367952523
08690,Mercer County,NJ,NA,51.34328358208955,NA
08742,Ocean County,NJ,NA,41.492537313432834,NA
08757,Ocean County,NJ,NA,25.671641791044774,0.5934718100890208
08759,Ocean County,NJ,NA,14.626865671641792,0
08820,Middlesex County,NJ,NA,NA,19.881305637982198
08859,Middlesex County,NJ,NA,NA,42.72997032640949
08879,Middlesex County,NJ,31.451612903225808,NA,NA
08886,Warren County,NJ,NA,NA,83.67952522255193
87048,Sandoval County,NM,NA,NA,96.73590504451039
87144,Sandoval County,NM,19.758064516129032,NA,NA
87413,San Juan County,NM,50,NA,NA
87420,San Juan County,NM,NA,NA,86.05341246290801
87505,Santa Fe County,NM,7.258064516129033,NA,NA
87507,Santa Fe County,NM,NA,20.8955223880597,21.364985163204746
87740,Colfax County,NM,NA,NA,74.77744807121661
88005,Doa Ana County,NM,NA,39.1044776119403,NA
88310,Otero County,NM,NA,NA,54.00593471810089
10003,New York County,NY,NA,NA,19.287833827893174
10025,New York County,NY,NA,NA,1.483679525222552
10303,Richmond County,NY,36.693548387096776,NA,NA
10305,Richmond County,NY,18.951612903225808,NA,NA
10306,Richmond County,NY,19.35483870967742,NA,NA
10310,Richmond County,NY,69.35483870967742,NA,NA
10312,Richmond County,NY,NA,NA,21.068249258160236
10314,Richmond County,NY,NA,NA,8.011869436201781
10451,Bronx County,NY,31.85483870967742,NA,NA
10453,Bronx County,NY,NA,8.656716417910449,NA
10456,Bronx County,NY,2.82258064516129,NA,NA
10463,Bronx County,NY,NA,NA,2.6706231454005933
10467,Bronx County,NY,6.854838709677419,NA,NA
10469,Bronx County,NY,NA,7.761194029850746,NA
10475,Bronx County,NY,NA,11.044776119402986,NA
10552,Westchester County,NY,58.87096774193549,NA,NA
10566,Westchester County,NY,NA,NA,63.798219584569736
10710,Westchester County,NY,NA,NA,41.246290801186944
10952,Rockland County,NY,NA,82.38805970149254,NA
10956,Rockland County,NY,NA,NA,27.299703264094955
10990,Orange County,NY,NA,NA,72.70029673590504
11050,Nassau County,NY,NA,NA,28.783382789317507
11205,Kings County,NY,NA,19.402985074626866,NA
11218,Kings County,NY,NA,NA,90.80118694362018
11223,Kings County,NY,NA,45.07462686567164,NA
11236,Kings County,NY,51.61290322580645,NA,NA
11361,Queens County,NY,NA,NA,66.17210682492582
11373,Queens County,NY,NA,65.97014925373135,NA
11377,Queens County,NY,NA,NA,79.52522255192879
11429,Queens County,NY,NA,31.64179104477612,NA
11434,Queens County,NY,NA,16.417910447761194,NA
11558,Nassau County,NY,NA,93.43283582089552,NA
11691,Queens County,NY,NA,8.059701492537313,NA
11717,Suffolk County,NY,18.14516129032258,NA,NA
11733,Suffolk County,NY,NA,83.88059701492537,NA
11742,Suffolk County,NY,NA,NA,81.60237388724035
11754,Suffolk County,NY,90.32258064516128,NA,NA
11756,Nassau County,NY,NA,88.95522388059702,NA
11780,Suffolk County,NY,NA,NA,59.940652818991104
11801,Nassau County,NY,NA,50.74626865671642,NA
11901,Suffolk County,NY,NA,58.2089552238806,NA
12084,Albany County,NY,99.59677419354838,NA,NA
12090,Rensselaer County,NY,NA,78.2089552238806,NA
12095,Fulton County,NY,NA,32.23880597014925,NA
12303,Schenectady County,NY,NA,NA,34.718100890207715
12304,Schenectady County,NY,60.08064516129033,NA,NA
12309,Schenectady County,NY,NA,97.61194029850746,NA
12534,Columbia County,NY,NA,NA,75.96439169139467
12790,Sullivan County,NY,94.35483870967742,NA,NA
12901,Clinton County,NY,4.435483870967742,NA,NA
13053,Tompkins County,NY,97.98387096774194,NA,NA
13069,Oswego County,NY,NA,12.238805970149254,NA
13084,Onondaga County,NY,92.33870967741935,NA,NA
13088,Onondaga County,NY,NA,NA,57.566765578635014
13165,Seneca County,NY,68.95161290322581,NA,NA
13316,Oneida County,NY,NA,NA,91.0979228486647
13421,Madison County,NY,23.790322580645164,NA,NA
13477,Oneida County,NY,97.58064516129032,NA,NA
13654,St. Lawrence County,NY,96.7741935483871,NA,NA
13662,St. Lawrence County,NY,65.7258064516129,NA,39.16913946587537
13760,Broome County,NY,NA,4.776119402985075,NA
13850,Broome County,NY,NA,NA,45.6973293768546
13901,Broome County,NY,5.64516129032258,NA,NA
14011,Wyoming County,NY,67.33870967741935,NA,NA
14036,Genesee County,NY,NA,NA,94.3620178041543
14047,Erie County,NY,NA,NA,90.20771513353115
14048,Chautauqua County,NY,NA,41.19402985074627,NA
14075,Erie County,NY,NA,5.3731343283582085,NA
14092,Niagara County,NY,NA,46.865671641791046,NA
14098,Orleans County,NY,NA,98.50746268656717,NA
14127,Erie County,NY,42.33870967741936,15.522388059701491,NA
14136,Chautauqua County,NY,84.2741935483871,NA,NA
14207,Erie County,NY,NA,34.32835820895522,NA
14218,Erie County,NY,47.58064516129033,NA,85.7566765578635
14219,Erie County,NY,NA,NA,81.30563798219585
14220,Erie County,NY,38.70967741935484,25.37313432835821,57.86350148367953
14221,Erie County,NY,NA,NA,14.243323442136498
14225,Erie County,NY,NA,NA,73.29376854599407
14304,Niagara County,NY,NA,2.9850746268656714,NA
14424,Ontario County,NY,NA,10.149253731343283,NA
14425,Ontario County,NY,45.96774193548387,NA,NA
14428,Monroe County,NY,NA,81.19402985074626,NA
14432,Ontario County,NY,NA,77.61194029850746,80.41543026706232
14433,Wayne County,NY,79.03225806451613,NA,NA
14450,Monroe County,NY,3.225806451612903,NA,NA
14456,Ontario County,NY,10.887096774193548,29.55223880597015,NA
14502,Wayne County,NY,25.806451612903224,NA,NA
14522,Wayne County,NY,NA,NA,87.83382789317507
14527,Yates County,NY,68.54838709677419,60,NA
14530,Wyoming County,NY,72.17741935483872,NA,87.24035608308606
14532,Ontario County,NY,52.41935483870967,NA,NA
14551,Wayne County,NY,NA,62.38805970149254,NA
14569,Wyoming County,NY,83.06451612903226,59.1044776119403,NA
14609,Monroe County,NY,NA,0.2985074626865672,NA
14610,Monroe County,NY,NA,24.776119402985074,NA
14618,Monroe County,NY,NA,12.835820895522387,NA
14619,Monroe County,NY,NA,40,NA
14701,Chautauqua County,NY,3.6290322580645165,NA,NA
14715,Allegany County,NY,78.62903225806451,NA,NA
14779,Cattaraugus County,NY,62.096774193548384,81.7910447761194,NA
14837,Yates County,NY,NA,84.77611940298507,NA
14850,Tompkins County,NY,7.661290322580645,NA,NA
27011,Yadkin County,NC,NA,NA,58.45697329376854
27030,Surry County,NC,9.67741935483871,NA,1.1869436201780417
27103,Forsyth County,NC,NA,NA,13.649851632047477
27214,Guilford County,NC,76.61290322580645,NA,NA
27229,Montgomery County,NC,NA,NA,95.84569732937686
27284,Forsyth County,NC,NA,NA,3.2640949554896146
27292,Davidson County,NC,NA,0.5970149253731344,NA
27517,Orange County,NC,73.79032258064517,NA,NA
27530,Wayne County,NC,NA,21.19402985074627,NA
27589,Warren County,NC,NA,63.582089552238806,NA
27608,Wake County,NC,89.91935483870968,NA,NA
27610,Wake County,NC,NA,NA,27.596439169139465
27870,Halifax County,NC,22.177419354838708,NA,NA
28027,Cabarrus County,NC,NA,NA,23.44213649851632
28110,Union County,NC,NA,17.01492537313433,NA
28115,Iredell County,NC,NA,NA,32.640949554896146
28150,Cleveland County,NC,NA,39.701492537313435,NA
28376,Hoke County,NC,NA,80.29850746268656,NA
28461,Brunswick County,NC,NA,7.462686567164178,NA
28590,Pitt County,NC,NA,NA,61.72106824925816
28607,Watauga County,NC,84.67741935483872,NA,NA
28645,Caldwell County,NC,NA,34.92537313432836,NA
28731,Henderson County,NC,NA,NA,48.96142433234421
28739,Henderson County,NC,NA,NA,40.652818991097924
58075,Richland County,ND,NA,NA,93.76854599406528
58104,Cass County,ND,NA,43.582089552238806,NA
58701,Ward County,ND,12.903225806451612,NA,NA
43015,Delaware County,OH,NA,NA,6.824925816023739
43130,Fairfield County,OH,NA,2.3880597014925375,NA
43138,Hocking County,OH,NA,NA,34.42136498516321
43338,Morrow County,OH,79.43548387096774,NA,NA
43551,Wood County,OH,NA,NA,13.353115727002967
43567,Fulton County,OH,71.7741935483871,NA,NA
43613,Lucas County,OH,NA,23.283582089552237,NA
43614,Lucas County,OH,NA,41.7910447761194,NA
43950,Belmont County,OH,NA,NA,29.970326409495552
43952,Jefferson County,OH,NA,10.746268656716417,NA
44004,Ashtabula County,OH,1.6129032258064515,NA,72.99703264094956
44011,Lorain County,OH,28.225806451612907,NA,NA
44035,Lorain County,OH,NA,NA,5.044510385756676
44039,Lorain County,OH,48.38709677419355,NA,NA
44044,Lorain County,OH,NA,37.91044776119403,NA
44047,Ashtabula County,OH,NA,52.537313432835816,84.86646884272997
44052,Lorain County,OH,NA,2.0895522388059704,NA
44053,Lorain County,OH,NA,4.477611940298507,51.33531157270029
44054,Lorain County,OH,NA,NA,46.29080118694362
44074,Lorain County,OH,NA,NA,51.038575667655785
44092,Lake County,OH,95.56451612903226,NA,NA
44122,Cuyahoga County,OH,NA,NA,40.94955489614243
44123,Cuyahoga County,OH,NA,NA,93.17507418397626
44129,Cuyahoga County,OH,NA,64.4776119402985,NA
44132,Cuyahoga County,OH,NA,75.82089552238806,NA
44137,Cuyahoga County,OH,8.064516129032258,NA,NA
44202,Portage County,OH,NA,NA,39.762611275964396
44240,Portage County,OH,NA,NA,54.3026706231454
44266,Portage County,OH,11.693548387096774,NA,NA
44305,Summit County,OH,NA,NA,56.676557863501486
44310,Summit County,OH,13.306451612903224,NA,NA
44504,Mahoning County,OH,76.20967741935483,NA,NA
44614,Stark County,OH,NA,64.77611940298507,NA
44641,Stark County,OH,NA,45.67164179104478,NA
44691,Wayne County,OH,NA,30.149253731343283,NA
44706,Stark County,OH,NA,42.08955223880597,NA
44820,Crawford County,OH,NA,70.74626865671641,NA
44842,Ashland County,OH,95.16129032258065,NA,NA
45011,Butler County,OH,NA,NA,12.462908011869436
45236,Hamilton County,OH,NA,45.37313432835821,NA
45403,Montgomery County,OH,NA,96.41791044776119,NA
45769,Meigs County,OH,NA,72.83582089552239,NA
45840,Hancock County,OH,NA,NA,9.495548961424333
45879,Paulding County,OH,NA,91.34328358208955,NA
73045,Oklahoma County,OK,NA,NA,64.98516320474778
73069,Cleveland County,OK,NA,NA,43.02670623145401
73160,Cleveland County,OK,NA,68.95522388059702,NA
73401,Carter County,OK,NA,11.641791044776118,NA
73601,Custer County,OK,60.88709677419355,NA,NA
74133,Tulsa County,OK,NA,NA,11.869436201780417
74743,Choctaw County,OK,NA,NA,69.43620178041543
74745,McCurtain County,OK,NA,NA,82.19584569732937
74959,Le Flore County,OK,NA,NA,88.72403560830861
97080,Multnomah County,OR,NA,NA,38.27893175074184
97103,Clatsop County,OR,NA,46.26865671641791,NA
97206,Multnomah County,OR,NA,NA,37.388724035608305
97216,Multnomah County,OR,49.193548387096776,NA,NA
97351,Polk County,OR,NA,NA,99.10979228486647
97457,Douglas County,OR,NA,69.25373134328359,NA
97527,Josephine County,OR,NA,NA,23.14540059347181
15084,Allegheny County,PA,83.87096774193549,NA,NA
15120,Allegheny County,PA,67.74193548387096,NA,NA
15143,Allegheny County,PA,66.93548387096774,NA,NA
15205,Allegheny County,PA,43.54838709677419,NA,NA
15207,Allegheny County,PA,NA,69.85074626865672,NA
15208,Allegheny County,PA,NA,NA,59.34718100890207
15226,Allegheny County,PA,62.5,NA,NA
15235,Allegheny County,PA,86.69354838709677,NA,NA
15425,Fayette County,PA,NA,NA,35.60830860534125
15522,Bedford County,PA,NA,NA,52.52225519287834
15656,Westmoreland County,PA,66.53225806451613,NA,NA
15801,Clearfield County,PA,NA,NA,22.8486646884273
15825,Jefferson County,PA,40.32258064516129,NA,NA
15851,Jefferson County,PA,NA,NA,27.89317507418398
15902,Cambria County,PA,NA,NA,66.46884272997032
15909,Cambria County,PA,NA,NA,89.02077151335311
16001,Butler County,PA,NA,NA,3.857566765578635
16002,Butler County,PA,NA,36.71641791044776,NA
16117,Lawrence County,PA,NA,NA,27.002967359050444
16137,Mercer County,PA,NA,32.83582089552239,NA
16150,Mercer County,PA,85.48387096774194,NA,NA
16424,Crawford County,PA,NA,NA,81.00890207715133
16502,Erie County,PA,39.11290322580645,NA,NA
16602,Blair County,PA,NA,44.776119402985074,NA
16652,Huntingdon County,PA,36.29032258064516,NA,20.178041543026705
16749,McKean County,PA,NA,NA,84.56973293768546
16915,Potter County,PA,77.01612903225806,NA,NA
17022,Lancaster County,PA,NA,15.82089552238806,NA
17078,Lebanon County,PA,NA,NA,7.418397626112759
17202,Franklin County,PA,57.66129032258065,NA,NA
17331,York County,PA,NA,0.8955223880597015,14.836795252225517
17701,Lycoming County,PA,NA,NA,8.30860534124629
17737,Lycoming County,PA,NA,NA,89.61424332344214
17745,Clinton County,PA,NA,45.97014925373134,NA
17752,Lycoming County,PA,86.29032258064517,NA,NA
17815,Columbia County,PA,NA,11.343283582089553,NA
17851,Northumberland County,PA,NA,NA,46.58753709198813
17961,Schuylkill County,PA,NA,86.86567164179104,NA
18017,Northampton County,PA,NA,NA,3.5608308605341246
18042,Northampton County,PA,NA,3.880597014925373,18.991097922848667
18073,Montgomery County,PA,NA,NA,80.71216617210682
18080,Lehigh County,PA,41.53225806451613,NA,NA
18255,Carbon County,PA,85.08064516129032,NA,NA
18301,Monroe County,PA,NA,NA,36.49851632047478
18509,Lackawanna County,PA,NA,61.791044776119406,NA
18517,Lackawanna County,PA,NA,88.05970149253731,NA
18643,Luzerne County,PA,52.82258064516129,NA,NA
18834,Susquehanna County,PA,NA,98.2089552238806,NA
18938,Bucks County,PA,NA,NA,56.083086053412465
18944,Bucks County,PA,73.38709677419355,44.47761194029851,NA
18951,Bucks County,PA,NA,NA,62.31454005934718
19063,Delaware County,PA,NA,NA,12.166172106824925
19116,Philadelphia County,PA,NA,NA,26.706231454005934
19131,Philadelphia County,PA,NA,2.6865671641791042,NA
19132,Philadelphia County,PA,8.870967741935484,NA,NA
19426,Montgomery County,PA,NA,31.343283582089555,NA
19601,Berks County,PA,4.838709677419355,NA,NA
19609,Berks County,PA,99.19354838709677,NA,NA
02852,Washington County,RI,NA,76.11940298507463,35.01483679525222
02879,Washington County,RI,NA,35.223880597014926,NA
02886,Kent County,RI,30.241935483870968,NA,NA
02891,Washington County,RI,NA,25.970149253731346,NA
02914,Providence County,RI,39.91935483870967,NA,NA
29010,Lee County,SC,NA,NA,52.818991097922854
29306,Spartanburg County,SC,NA,NA,70.02967359050444
29307,Spartanburg County,SC,NA,NA,47.774480712166174
29379,Union County,SC,NA,NA,49.25816023738873
29410,Berkeley County,SC,68.14516129032258,NA,NA
29420,Dorchester County,SC,43.95161290322581,NA,NA
29445,Berkeley County,SC,24.193548387096776,NA,NA
29569,Horry County,SC,NA,56.71641791044776,NA
29640,Pickens County,SC,NA,22.08955223880597,NA
29649,Greenwood County,SC,NA,NA,15.727002967359049
29690,Greenville County,SC,NA,35.223880597014926,NA
29730,York County,SC,18.548387096774192,NA,NA
29910,Beaufort County,SC,NA,NA,71.2166172106825
57642,Corson County,SD,97.17741935483872,NA,NA
57783,Lawrence County,SD,NA,71.34328358208955,NA
37027,Williamson County,TN,NA,NA,18.100890207715135
37040,Montgomery County,TN,NA,NA,61.42433234421365
37058,Stewart County,TN,85.88709677419355,NA,NA
37064,Williamson County,TN,NA,16.119402985074625,NA
37069,Williamson County,TN,NA,73.13432835820896,NA
37075,Sumner County,TN,NA,6.567164179104477,NA
37167,Rutherford County,TN,NA,24.17910447761194,NA
37174,Williamson County,TN,NA,37.3134328358209,NA
37190,Cannon County,TN,NA,84.4776119402985,NA
37211,Davidson County,TN,NA,NA,70.62314540059347
37363,Hamilton County,TN,NA,40.8955223880597,NA
37388,Coffee County,TN,NA,42.38805970149254,NA
37601,Washington County,TN,NA,13.134328358208954,NA
37641,Greene County,TN,NA,NA,74.1839762611276
37643,Carter County,TN,14.516129032258066,NA,NA
37659,Washington County,TN,34.274193548387096,NA,NA
37664,Sullivan County,TN,20.56451612903226,NA,NA
37743,Greene County,TN,37.903225806451616,NA,NA
37771,Loudon County,TN,NA,54.92537313432836,NA
37825,Claiborne County,TN,NA,NA,78.04154302670622
37849,Knox County,TN,80.24193548387096,NA,NA
37912,Knox County,TN,26.61290322580645,NA,NA
38134,Shelby County,TN,NA,54.02985074626866,NA
38301,Madison County,TN,NA,NA,39.46587537091988
38310,McNairy County,TN,NA,99.70149253731343,NA
75563,Cass County,TX,NA,92.53731343283582,NA
75862,Trinity County,TX,NA,76.4179104477612,NA
76401,Erath County,TX,NA,NA,48.367952522255194
76424,Stephens County,TX,NA,NA,61.12759643916914
76502,Bell County,TX,NA,NA,0.2967359050445104
76549,Bell County,TX,NA,62.089552238805965,NA
76645,Hill County,TX,NA,62.68656716417911,NA
76711,McLennan County,TX,NA,NA,93.17507418397626
76712,McLennan County,TX,NA,NA,7.71513353115727
76903,Tom Green County,TX,NA,NA,42.13649851632047
77033,Harris County,TX,NA,NA,40.35608308605341
77040,Harris County,TX,NA,NA,57.27002967359051
77098,Harris County,TX,NA,87.16417910447761,NA
77338,Harris County,TX,41.12903225806452,NA,NA
77340,Walker County,TX,NA,NA,63.798219584569736
77414,Matagorda County,TX,NA,NA,51.632047477744806
77433,Harris County,TX,NA,NA,42.433234421364986
77447,Harris County,TX,NA,NA,88.13056379821958
77546,Galveston County,TX,NA,11.940298507462686,NA
77590,Galveston County,TX,NA,13.73134328358209,NA
77840,Brazos County,TX,NA,NA,72.40356083086054
77964,Lavaca County,TX,NA,NA,56.37982195845698
78045,Webb County,TX,23.387096774193548,NA,NA
78164,DeWitt County,TX,93.54838709677419,NA,NA
78207,Bexar County,TX,NA,15.223880597014924,NA
78228,Bexar County,TX,NA,NA,74.1839762611276
78229,Bexar County,TX,NA,82.98507462686567,NA
78250,Bexar County,TX,NA,80.8955223880597,NA
78414,Nueces County,TX,NA,NA,80.1186943620178
78521,Cameron County,TX,NA,79.1044776119403,NA
78611,Burnet County,TX,NA,NA,50.14836795252226
78669,Travis County,TX,NA,70.44776119402985,NA
79336,Hockley County,TX,NA,59.70149253731343,NA
79902,El Paso County,TX,NA,93.73134328358209,NA
79904,El Paso County,TX,NA,55.82089552238806,NA
79912,El Paso County,TX,NA,65.3731343283582,NA
79924,El Paso County,TX,NA,29.253731343283583,21.958456973293767
84335,Cache County,UT,NA,NA,96.14243323442136
84404,Weber County,UT,NA,NA,43.916913946587535
84780,Washington County,UT,NA,NA,45.103857566765576
84790,Washington County,UT,39.516129032258064,NA,NA
05143,Windsor County,VT,NA,90.44776119402985,NA
05301,Windham County,VT,NA,NA,45.99406528189911
05641,Washington County,VT,61.29032258064516,NA,NA
05676,Washington County,VT,87.5,NA,NA
05701,Rutland County,VT,NA,NA,64.68842729970326
20132,Loudoun County,VA,NA,97.31343283582089,NA
22151,Fairfax County,VA,NA,NA,85.45994065281899
22302,Alexandria city,VA,89.11290322580645,NA,NA
22405,Stafford County,VA,NA,NA,55.48961424332344
22546,Caroline County,VA,NA,60.59701492537314,NA
22701,Culpeper County,VA,25,NA,NA
22902,Charlottesville city,VA,NA,NA,40.0593471810089
22980,Waynesboro city,VA,NA,NA,24.92581602373887
23322,Chesapeake city,VA,NA,NA,16.320474777448073
23430,Isle of Wight County,VA,NA,32.537313432835816,NA
23462,Virginia Beach city,VA,17.741935483870968,NA,NA
24210,Washington County,VA,33.46774193548387,NA,NA
24244,Scott County,VA,80.64516129032258,NA,NA
24340,Washington County,VA,NA,80,NA
24540,Danville city,VA,NA,28.35820895522388,NA
24609,Tazewell County,VA,56.85483870967742,NA,97.03264094955489
98019,King County,WA,NA,92.83582089552239,NA
98284,Skagit County,WA,NA,58.805970149253724,NA
98292,Snohomish County,WA,98.79032258064517,NA,NA
98406,Pierce County,WA,NA,NA,44.21364985163205
98422,Pierce County,WA,NA,60.298507462686565,NA
98467,Pierce County,WA,NA,NA,79.22848664688428
98632,Cowlitz County,WA,NA,NA,2.3738872403560833
20002,District of Columbia,DC,NA,8.358208955223882,NA
20012,District of Columbia,DC,NA,NA,73.59050445103857
20016,District of Columbia,DC,NA,88.35820895522389,NA
20019,District of Columbia,DC,NA,NA,10.682492581602373
20024,District of Columbia,DC,77.41935483870968,NA,NA
25071,Kanawha County,WV,53.2258064516129,NA,NA
25387,Kanawha County,WV,NA,71.94029850746269,NA
25430,Jefferson County,WV,NA,NA,83.08605341246292
25550,Mason County,WV,NA,31.94029850746269,38.27893175074184
25701,Cabell County,WV,16.532258064516128,NA,NA
26757,Hampshire County,WV,NA,NA,71.81008902077151
53066,Waukesha County,WI,NA,NA,22.551928783382788
53098,Dodge County,WI,NA,53.73134328358209,NA
53130,Milwaukee County,WI,NA,95.82089552238806,NA
53214,Milwaukee County,WI,NA,NA,25.222551928783382
53221,Milwaukee County,WI,NA,NA,13.056379821958458
53227,Milwaukee County,WI,NA,54.92537313432836,17.804154302670625
53406,Racine County,WI,NA,NA,1.7804154302670623
53511,Rock County,WI,17.338709677419356,NA,92.58160237388724
53520,Green County,WI,NA,97.91044776119404,NA
53530,Lafayette County,WI,93.14516129032258,NA,NA
54022,Pierce County,WI,NA,46.56716417910447,NA
54121,Florence County,WI,91.12903225806451,NA,NA
54151,Marinette County,WI,NA,NA,94.3620178041543
54313,Brown County,WI,91.53225806451613,NA,NA
54481,Portage County,WI,NA,93.13432835820895,NA
54484,Marathon County,WI,NA,98.80597014925372,NA
54487,Lincoln County,WI,47.983870967741936,NA,NA
