ZipCode,county,state,Adult,Retirement,Geriatric
35020,Jefferson County,AL,44.957983193277315,NA,NA
35064,Jefferson County,AL,NA,69.2982456140351,NA
35118,Jefferson County,AL,NA,NA,94.94163424124513
35150,Talladega County,AL,42.226890756302524,NA,NA
35404,Tuscaloosa County,AL,NA,29.166666666666668,NA
35405,Tuscaloosa County,AL,NA,78.0701754385965,NA
35470,Sumter County,AL,NA,NA,99.61089494163424
35473,Tuscaloosa County,AL,NA,92.54385964912281,NA
35475,Tuscaloosa County,AL,52.10084033613446,NA,NA
35504,Walker County,AL,NA,NA,51.36186770428015
35603,Morgan County,AL,17.016806722689076,NA,NA
35613,Limestone County,AL,NA,42.32456140350877,NA
35622,Morgan County,AL,90.12605042016807,NA,NA
35648,Lauderdale County,AL,NA,95.39473684210526,NA
35750,Madison County,AL,NA,NA,71.59533073929961
36054,Elmore County,AL,NA,NA,80.93385214007782
36092,Elmore County,AL,46.42857142857143,NA,NA
36116,Montgomery County,AL,21.84873949579832,NA,NA
36278,Randolph County,AL,NA,84.4298245614035,NA
36305,Houston County,AL,60.50420168067227,NA,NA
36801,Lee County,AL,61.97478991596639,NA,NA
36867,Russell County,AL,NA,82.45614035087719,NA
85032,Maricopa County,AZ,14.915966386554622,NA,NA
85035,Maricopa County,AZ,16.80672268907563,NA,NA
85042,Maricopa County,AZ,NA,49.34210526315789,NA
85085,Maricopa County,AZ,67.01680672268907,NA,NA
85086,Maricopa County,AZ,NA,36.18421052631579,NA
85234,Maricopa County,AZ,66.17647058823529,NA,NA
85258,Maricopa County,AZ,67.22689075630252,NA,NA
85259,Maricopa County,AZ,79.2016806722689,NA,NA
85614,Pima County,AZ,NA,16.00877192982456,NA
85711,Pima County,AZ,8.61344537815126,NA,NA
85743,Pima County,AZ,43.0672268907563,NA,NA
86045,Coconino County,AZ,NA,34.42982456140351,NA
86406,Mohave County,AZ,50.63025210084034,NA,NA
86409,Mohave County,AZ,NA,23.026315789473685,NA
86440,Mohave County,AZ,NA,72.14912280701753,NA
72205,Pulaski County,AR,NA,88.37719298245614,17.898832684824903
72501,Independence County,AR,NA,NA,27.626459143968873
72762,Washington County,AR,48.529411764705884,NA,NA
72764,Washington County,AR,39.285714285714285,NA,NA
90015,Los Angeles County,CA,NA,72.58771929824562,NA
90043,Los Angeles County,CA,46.21848739495798,NA,NA
90044,Los Angeles County,CA,7.142857142857142,NA,NA
90046,Los Angeles County,CA,NA,18.421052631578945,NA
90067,Los Angeles County,CA,NA,NA,70.8171206225681
90069,Los Angeles County,CA,56.30252100840336,NA,NA
90270,Los Angeles County,CA,NA,87.93859649122807,NA
90274,Los Angeles County,CA,NA,93.85964912280701,NA
90505,Los Angeles County,CA,60.29411764705882,35.96491228070175,NA
90660,Los Angeles County,CA,NA,NA,22.17898832684825
90731,Los Angeles County,CA,32.142857142857146,NA,NA
90805,Los Angeles County,CA,NA,18.859649122807017,47.47081712062256
90806,Los Angeles County,CA,57.773109243697476,NA,NA
91010,Los Angeles County,CA,NA,90.13157894736842,NA
91202,Los Angeles County,CA,85.71428571428571,NA,NA
91344,Los Angeles County,CA,46.008403361344534,NA,NA
91387,Los Angeles County,CA,45.79831932773109,NA,70.42801556420234
91403,Los Angeles County,CA,NA,NA,36.57587548638132
91405,Los Angeles County,CA,44.747899159663866,NA,NA
91710,San Bernardino County,CA,37.60504201680672,NA,NA
91732,Los Angeles County,CA,NA,27.631578947368425,NA
91762,San Bernardino County,CA,35.50420168067227,NA,NA
91770,Los Angeles County,CA,51.68067226890757,39.69298245614035,NA
91786,San Bernardino County,CA,65.54621848739495,NA,NA
92028,San Diego County,CA,64.28571428571429,NA,NA
92069,San Diego County,CA,68.0672268907563,NA,NA
92130,San Diego County,CA,84.24369747899159,NA,NA
92225,Riverside County,CA,NA,NA,72.76264591439688
92253,Riverside County,CA,NA,NA,9.33852140077821
92324,San Bernardino County,CA,NA,NA,58.36575875486382
92335,San Bernardino County,CA,9.663865546218489,NA,NA
92630,Orange County,CA,NA,46.271929824561404,NA
92707,Orange County,CA,NA,NA,85.21400778210116
92802,Orange County,CA,NA,NA,40.07782101167315
93257,Tulare County,CA,NA,17.543859649122805,NA
93306,Kern County,CA,21.218487394957982,NA,NA
93307,Kern County,CA,13.23529411764706,NA,NA
93308,Kern County,CA,NA,NA,40.856031128404666
93612,Fresno County,CA,NA,80.92105263157895,NA
93923,Monterey County,CA,NA,51.09649122807017,NA
93940,Monterey County,CA,NA,24.12280701754386,NA
94010,San Mateo County,CA,NA,NA,78.98832684824903
94014,San Mateo County,CA,NA,23.464912280701753,NA
94063,San Mateo County,CA,NA,35.526315789473685,NA
94066,San Mateo County,CA,NA,37.06140350877193,NA
94110,San Francisco County,CA,NA,NA,74.31906614785993
94121,San Francisco County,CA,NA,NA,11.673151750972762
94132,San Francisco County,CA,NA,NA,38.91050583657588
94513,Contra Costa County,CA,NA,85.30701754385966,NA
94517,Contra Costa County,CA,92.64705882352942,NA,NA
94536,Alameda County,CA,32.983193277310924,17.105263157894736,NA
94546,Alameda County,CA,NA,54.60526315789473,NA
94597,Contra Costa County,CA,NA,66.66666666666666,NA
94612,Alameda County,CA,88.8655462184874,NA,NA
94707,Alameda County,CA,NA,92.98245614035088,NA
94945,Marin County,CA,NA,NA,59.143968871595334
95003,Santa Cruz County,CA,NA,NA,54.86381322957199
95120,Santa Clara County,CA,NA,NA,32.295719844357976
95126,Santa Clara County,CA,65.75630252100841,NA,NA
95337,San Joaquin County,CA,41.806722689075634,NA,NA
95361,Stanislaus County,CA,NA,NA,49.416342412451364
95404,Sonoma County,CA,NA,NA,21.78988326848249
95531,Del Norte County,CA,NA,44.73684210526316,NA
95603,Placer County,CA,NA,71.49122807017544,NA
95610,Sacramento County,CA,46.63865546218487,NA,NA
95621,Sacramento County,CA,87.81512605042016,NA,NA
95632,Sacramento County,CA,NA,67.98245614035088,NA
95670,Sacramento County,CA,NA,28.728070175438596,NA
95682,El Dorado County,CA,NA,34.64912280701755,NA
95843,Sacramento County,CA,NA,82.89473684210526,NA
95926,Butte County,CA,66.80672268907563,NA,NA
95945,Nevada County,CA,59.66386554621849,NA,23.73540856031128
95993,Sutter County,CA,NA,35.08771929824561,NA
96003,Shasta County,CA,44.537815126050425,NA,NA
80004,Jefferson County,CO,NA,52.41228070175439,NA
80005,Jefferson County,CO,NA,NA,65.75875486381322
80012,Arapahoe County,CO,11.134453781512606,NA,NA
80026,Boulder County,CO,62.39495798319328,NA,NA
80121,Arapahoe County,CO,NA,97.80701754385966,NA
80126,Douglas County,CO,NA,NA,76.26459143968872
80524,Larimer County,CO,NA,NA,42.023346303501945
80528,Larimer County,CO,NA,NA,99.22178988326849
80534,Weld County,CO,68.90756302521008,NA,NA
80601,Adams County,CO,34.87394957983193,33.33333333333333,NA
80631,Weld County,CO,8.193277310924369,NA,NA
80759,Yuma County,CO,NA,97.14912280701753,NA
80909,El Paso County,CO,25.42016806722689,NA,NA
81005,Pueblo County,CO,NA,NA,34.24124513618677
06040,Hartford County,CT,10.504201680672269,NA,NA
06067,Hartford County,CT,67.22689075630252,NA,NA
06238,Tolland County,CT,68.69747899159664,NA,NA
06443,New Haven County,CT,NA,28.07017543859649,NA
06450,New Haven County,CT,5.6722689075630255,NA,NA
06470,Fairfield County,CT,80.25210084033614,NA,NA
06489,Hartford County,CT,NA,NA,8.560311284046692
06512,New Haven County,CT,NA,17.763157894736842,NA
06517,New Haven County,CT,51.89075630252101,38.15789473684211,NA
06779,Litchfield County,CT,NA,83.55263157894737,NA
06804,Fairfield County,CT,70.7983193277311,87.71929824561403,NA
06830,Fairfield County,CT,NA,63.1578947368421,NA
19709,New Castle County,DE,NA,NA,27.237354085603112
19720,New Castle County,DE,2.100840336134454,2.850877192982456,NA
19802,New Castle County,DE,79.41176470588235,18.640350877192983,NA
19971,Sussex County,DE,NA,NA,30.739299610894943
32119,Volusia County,FL,NA,NA,50.19455252918288
32205,Duval County,FL,27.73109243697479,NA,NA
32207,Duval County,FL,17.647058823529413,NA,NA
32210,Duval County,FL,40.12605042016807,NA,NA
32224,Duval County,FL,NA,NA,32.68482490272373
32233,Duval County,FL,NA,NA,52.52918287937744
32246,Duval County,FL,NA,18.201754385964914,NA
32259,St. Johns County,FL,NA,NA,89.10505836575877
32305,Leon County,FL,83.82352941176471,NA,NA
32404,Bay County,FL,NA,49.780701754385966,NA
32504,Escambia County,FL,52.3109243697479,NA,NA
32514,Escambia County,FL,71.00840336134453,NA,NA
32578,Okaloosa County,FL,NA,NA,20.233463035019454
32605,Alachua County,FL,29.831932773109244,NA,NA
32693,Gilchrist County,FL,67.64705882352942,NA,NA
32712,Orange County,FL,NA,29.605263157894733,NA
32724,Volusia County,FL,NA,NA,22.17898832684825
32754,Brevard County,FL,73.10924369747899,NA,NA
32757,Lake County,FL,NA,NA,35.40856031128405
32765,Seminole County,FL,NA,37.280701754385966,NA
32798,Orange County,FL,NA,NA,82.87937743190662
32804,Orange County,FL,NA,86.40350877192982,NA
32808,Orange County,FL,15.756302521008402,NA,NA
32825,Orange County,FL,NA,NA,74.70817120622569
32935,Brevard County,FL,52.94117647058824,NA,NA
32940,Brevard County,FL,97.47899159663865,NA,NA
33034,Miami-Dade County,FL,59.87394957983193,NA,NA
33056,Miami-Dade County,FL,41.38655462184874,NA,NA
33063,Broward County,FL,NA,25,NA
33065,Broward County,FL,48.739495798319325,44.51754385964912,NA
33142,Miami-Dade County,FL,18.907563025210084,NA,NA
33187,Miami-Dade County,FL,78.78151260504201,NA,NA
33189,Miami-Dade County,FL,85.50420168067227,NA,NA
33331,Broward County,FL,NA,NA,66.14785992217898
33406,Palm Beach County,FL,75.21008403361344,NA,NA
33412,Palm Beach County,FL,NA,NA,85.60311284046692
33430,Palm Beach County,FL,53.36134453781513,NA,NA
33527,Hillsborough County,FL,NA,86.8421052631579,NA
33626,Hillsborough County,FL,NA,NA,92.60700389105058
33704,Pinellas County,FL,NA,93.42105263157895,NA
33764,Pinellas County,FL,71.42857142857143,NA,NA
33781,Pinellas County,FL,48.319327731092436,NA,NA
33903,Lee County,FL,NA,NA,24.124513618677042
33928,Lee County,FL,NA,57.89473684210527,NA
34223,Sarasota County,FL,NA,NA,29.961089494163424
34231,Sarasota County,FL,NA,NA,60.311284046692606
34239,Sarasota County,FL,77.10084033613445,NA,NA
34275,Sarasota County,FL,NA,NA,15.17509727626459
34285,Sarasota County,FL,NA,NA,12.45136186770428
34287,Sarasota County,FL,NA,25.438596491228072,NA
34293,Sarasota County,FL,49.36974789915966,NA,NA
34481,Marion County,FL,NA,22.149122807017545,NA
34608,Hernando County,FL,80.46218487394958,NA,NA
34746,Osceola County,FL,NA,NA,63.035019455252915
34950,St. Lucie County,FL,54.83193277310925,NA,NA
34990,Martin County,FL,83.40336134453781,NA,NA
34996,Martin County,FL,NA,57.45614035087719,NA
30014,Newton County,GA,NA,75.6578947368421,NA
30016,Newton County,GA,12.394957983193278,48.68421052631579,NA
30024,Gwinnett County,GA,NA,52.63157894736842,NA
30040,Forsyth County,GA,27.310924369747898,NA,NA
30071,Gwinnett County,GA,NA,83.99122807017544,NA
30084,DeKalb County,GA,NA,55.26315789473685,NA
30104,Polk County,GA,92.43697478991596,NA,NA
30106,Cobb County,GA,NA,NA,71.59533073929961
30120,Bartow County,GA,21.428571428571427,NA,NA
30127,Cobb County,GA,18.067226890756302,NA,NA
30143,Pickens County,GA,NA,31.57894736842105,NA
30188,Cherokee County,GA,23.319327731092436,NA,NA
30263,Coweta County,GA,10.714285714285714,NA,NA
30274,Clayton County,GA,NA,64.69298245614034,NA
30297,Clayton County,GA,NA,NA,93.77431906614785
30305,Fulton County,GA,NA,87.5,NA
30311,Fulton County,GA,NA,NA,68.8715953307393
30312,Fulton County,GA,NA,NA,85.99221789883269
30319,DeKalb County,GA,69.9579831932773,NA,NA
30344,Fulton County,GA,NA,35.74561403508772,NA
30506,Hall County,GA,31.092436974789916,NA,NA
30540,Gilmer County,GA,50.84033613445378,NA,NA
30564,Hall County,GA,NA,98.02631578947368,NA
30566,Hall County,GA,94.9579831932773,NA,NA
30666,Barrow County,GA,82.77310924369748,NA,NA
30735,Gordon County,GA,NA,NA,91.43968871595331
31005,Houston County,GA,NA,NA,80.1556420233463
31093,Houston County,GA,34.66386554621849,NA,NA
31204,Bibb County,GA,NA,23.903508771929825,NA
31331,McIntosh County,GA,90.96638655462185,NA,NA
31405,Chatham County,GA,NA,91.8859649122807,NA
31406,Chatham County,GA,54.41176470588235,NA,NA
31411,Chatham County,GA,NA,68.85964912280701,NA
31415,Chatham County,GA,71.84873949579831,NA,NA
31419,Chatham County,GA,NA,58.333333333333336,NA
31533,Coffee County,GA,NA,58.114035087719294,NA
31909,Muscogee County,GA,NA,NA,31.1284046692607
39817,Decatur County,GA,64.91596638655463,NA,NA
96720,Hawaii County,HI,NA,21.49122807017544,NA
96740,Hawaii County,HI,63.02521008403361,NA,NA
96741,Kauai County,HI,88.65546218487394,NA,NA
96743,Hawaii County,HI,NA,94.51754385964912,NA
96744,Honolulu County,HI,NA,2.4122807017543857,NA
96746,Kauai County,HI,NA,NA,87.15953307392996
96792,Honolulu County,HI,96.00840336134453,NA,NA
96817,Honolulu County,HI,NA,6.140350877192982,NA
96825,Honolulu County,HI,NA,NA,26.459143968871597
83210,Bingham County,ID,97.26890756302521,NA,NA
83301,Twin Falls County,ID,2.5210084033613445,NA,NA
83340,Blaine County,ID,NA,79.3859649122807,NA
83501,Nez Perce County,ID,NA,NA,5.447470817120623
83642,Ada County,ID,NA,32.23684210526316,NA
83704,Ada County,ID,NA,3.289473684210526,NA
83705,Ada County,ID,NA,44.07894736842105,NA
83815,Kootenai County,ID,NA,NA,15.953307392996107
83854,Kootenai County,ID,33.82352941176471,NA,NA
83869,Kootenai County,ID,97.05882352941177,NA,NA
60004,Cook County,IL,NA,91.22807017543859,NA
60016,Cook County,IL,NA,9.210526315789473,NA
60031,Lake County,IL,NA,NA,47.85992217898833
60081,McHenry County,IL,86.34453781512606,NA,NA
60085,Lake County,IL,NA,26.973684210526315,NA
60103,DuPage County,IL,29.6218487394958,20.175438596491226,NA
60153,Cook County,IL,40.54621848739496,21.271929824561404,NA
60178,DeKalb County,IL,NA,42.10526315789473,NA
60192,Cook County,IL,93.0672268907563,NA,NA
60193,Cook County,IL,NA,NA,60.70038910505836
60304,Cook County,IL,NA,51.31578947368421,NA
60409,Cook County,IL,31.512605042016805,NA,NA
60419,Cook County,IL,46.84873949579832,NA,NA
60446,Will County,IL,15.126050420168067,NA,96.10894941634241
60450,Grundy County,IL,25.630252100840334,14.25438596491228,NA
60451,Will County,IL,NA,12.719298245614036,NA
60490,Will County,IL,82.35294117647058,NA,NA
60521,DuPage County,IL,NA,81.57894736842105,58.754863813229576
60543,Kendall County,IL,NA,41.228070175438596,NA
60586,Will County,IL,14.705882352941178,NA,NA
60601,Cook County,IL,84.87394957983193,NA,NA
60609,Cook County,IL,10.92436974789916,NA,NA
60610,Cook County,IL,44.32773109243697,NA,52.14007782101168
60611,Cook County,IL,57.98319327731093,NA,NA
60618,Cook County,IL,34.45378151260504,NA,NA
60620,Cook County,IL,NA,3.070175438596491,NA
60625,Cook County,IL,NA,11.403508771929824,NA
60629,Cook County,IL,NA,3.9473684210526314,NA
60638,Cook County,IL,NA,32.45614035087719,NA
60804,Cook County,IL,20.798319327731093,NA,NA
60901,Kankakee County,IL,NA,41.00877192982456,NA
61032,Stephenson County,IL,NA,14.035087719298245,NA
61081,Whiteside County,IL,NA,NA,4.280155642023346
61310,Lee County,IL,NA,97.36842105263158,NA
61364,LaSalle County,IL,79.62184873949579,NA,NA
61554,Tazewell County,IL,75.42016806722688,38.377192982456144,NA
61727,De Witt County,IL,NA,NA,75.4863813229572
61802,Champaign County,IL,63.86554621848739,NA,NA
61846,Vermilion County,IL,93.4873949579832,NA,NA
62002,Madison County,IL,NA,NA,14.396887159533073
62234,Madison County,IL,52.52100840336135,NA,NA
62246,Bond County,IL,NA,NA,66.9260700389105
62278,Randolph County,IL,96.42857142857143,NA,NA
62450,Richland County,IL,85.08403361344537,NA,NA
62454,Crawford County,IL,NA,65.5701754385965,NA
62966,Jackson County,IL,NA,98.46491228070175,NA
46033,Hamilton County,IN,NA,NA,41.245136186770424
46062,Hamilton County,IN,61.34453781512605,NA,NA
46158,Morgan County,IN,NA,NA,21.011673151750973
46237,Marion County,IN,NA,NA,45.525291828793776
46311,Lake County,IN,NA,NA,24.5136186770428
46320,Lake County,IN,NA,44.95614035087719,NA
46383,Porter County,IN,NA,NA,13.229571984435799
46385,Porter County,IN,7.563025210084033,NA,NA
46410,Lake County,IN,NA,4.166666666666666,NA
46506,Marshall County,IN,89.28571428571429,NA,NA
46614,St. Joseph County,IN,60.924369747899156,NA,NA
46723,Whitley County,IN,NA,66.00877192982456,NA
46819,Allen County,IN,NA,63.59649122807017,NA
46902,Howard County,IN,2.73109243697479,NA,NA
46970,Miami County,IN,9.873949579831933,NA,NA
46975,Fulton County,IN,NA,NA,56.03112840466926
47001,Dearborn County,IN,96.84873949579831,NA,NA
47172,Clark County,IN,NA,NA,87.54863813229572
47201,Bartholomew County,IN,NA,10.087719298245613,45.13618677042802
47356,Henry County,IN,NA,62.28070175438597,NA
47374,Wayne County,IN,86.97478991596638,NA,NA
47441,Greene County,IN,69.32773109243698,NA,NA
47909,Tippecanoe County,IN,40.96638655462185,89.25438596491229,NA
50158,Marshall County,IA,26.89075630252101,NA,NA
50310,Polk County,IA,22.268907563025213,NA,NA
50317,Polk County,IA,40.7563025210084,NA,NA
51106,Woodbury County,IA,NA,42.98245614035088,NA
51566,Montgomery County,IA,NA,96.71052631578947,NA
51632,Page County,IA,74.36974789915966,NA,NA
52001,Dubuque County,IA,NA,19.517543859649123,NA
52136,Howard County,IA,80.0420168067227,NA,NA
52241,Johnson County,IA,47.689075630252105,51.75438596491229,NA
52310,Jones County,IA,NA,85.96491228070175,NA
52403,Linn County,IA,44.11764705882353,NA,NA
52806,Scott County,IA,NA,32.01754385964912,NA
66002,Atchison County,KS,NA,NA,89.88326848249028
66062,Johnson County,KS,38.445378151260506,NA,NA
66067,Franklin County,KS,NA,47.14912280701755,NA
66085,Johnson County,KS,NA,80.7017543859649,NA
66217,Johnson County,KS,NA,NA,80.54474708171206
66614,Shawnee County,KS,NA,NA,15.56420233463035
66801,Lyon County,KS,52.52100840336135,NA,NA
67156,Cowley County,KS,NA,74.56140350877193,NA
67214,Sedgwick County,KS,NA,NA,91.05058365758755
67410,Dickinson County,KS,NA,NA,87.93774319066148
67502,Reno County,KS,69.11764705882352,NA,NA
40004,Nelson County,KY,19.11764705882353,NA,NA
40033,Marion County,KY,NA,NA,95.71984435797665
40203,Jefferson County,KY,NA,34.868421052631575,NA
40272,Jefferson County,KY,13.445378151260504,NA,NA
40324,Scott County,KY,43.27731092436975,NA,NA
40336,Estill County,KY,56.09243697478992,45.39473684210527,NA
40353,Montgomery County,KY,22.899159663865547,NA,NA
40361,Bourbon County,KY,68.27731092436974,NA,NA
40422,Boyle County,KY,74.57983193277312,NA,82.10116731517509
40965,Bell County,KY,61.5546218487395,NA,NA
40977,Bell County,KY,NA,59.64912280701754,NA
41015,Kenton County,KY,81.5126050420168,NA,NA
41018,Kenton County,KY,NA,82.01754385964912,NA
41094,Boone County,KY,NA,91.00877192982456,NA
41175,Greenup County,KY,NA,81.7982456140351,NA
41311,Lee County,KY,NA,73.90350877192982,NA
42066,Graves County,KY,57.35294117647059,NA,NA
42104,Warren County,KY,NA,40.57017543859649,NA
42301,Daviess County,KY,9.243697478991598,NA,NA
42303,Daviess County,KY,NA,15.789473684210526,NA
42320,Ohio County,KY,NA,44.29824561403509,NA
42408,Hopkins County,KY,76.68067226890757,NA,NA
42633,Wayne County,KY,NA,30.701754385964914,NA
42754,Grayson County,KY,28.361344537815125,NA,NA
70075,St. Bernard Parish,LA,95.37815126050421,NA,NA
70114,Orleans Parish,LA,87.60504201680672,NA,NA
70116,Orleans Parish,LA,99.15966386554622,NA,NA
70117,Orleans Parish,LA,3.9915966386554618,NA,NA
70119,Orleans Parish,LA,NA,6.798245614035088,31.906614785992215
70301,Lafourche Parish,LA,15.336134453781513,NA,NA
70435,St. Tammany Parish,LA,NA,62.93859649122807,NA
70438,Washington Parish,LA,NA,11.842105263157894,NA
70458,St. Tammany Parish,LA,NA,20.394736842105264,NA
70461,St. Tammany Parish,LA,NA,86.8421052631579,NA
70503,Lafayette Parish,LA,39.705882352941174,NA,NA
70592,Lafayette Parish,LA,NA,59.42982456140351,NA
70665,Calcasieu Parish,LA,NA,NA,93.3852140077821
70714,East Baton Rouge Parish,LA,24.369747899159663,NA,NA
70809,East Baton Rouge Parish,LA,NA,43.42105263157895,NA
70818,East Baton Rouge Parish,LA,75,NA,NA
71047,Caddo Parish,LA,53.78151260504202,NA,NA
71055,Webster Parish,LA,NA,30.92105263157895,NA
71112,Bossier Parish,LA,NA,19.956140350877195,NA
71119,Caddo Parish,LA,NA,NA,61.86770428015564
71463,Allen Parish,LA,NA,92.10526315789474,NA
71486,Sabine Parish,LA,97.89915966386555,NA,NA
04092,Cumberland County,ME,NA,55.92105263157895,NA
04101,Cumberland County,ME,NA,NA,46.69260700389105
04103,Cumberland County,ME,NA,79.16666666666666,NA
04106,Cumberland County,ME,85.29411764705883,NA,NA
04444,Penobscot County,ME,73.52941176470588,NA,NA
04756,Aroostook County,ME,NA,NA,56.42023346303502
04917,Kennebec County,ME,96.21848739495799,NA,NA
20737,Prince George's County,MD,NA,91.66666666666666,NA
20747,Prince George's County,MD,47.89915966386555,NA,NA
20748,Prince George's County,MD,45.168067226890756,NA,NA
20785,Prince George's County,MD,NA,NA,63.42412451361867
20817,Montgomery County,MD,NA,70.17543859649122,NA
20853,Montgomery County,MD,77.94117647058823,NA,NA
21015,Harford County,MD,NA,NA,48.249027237354085
21034,Harford County,MD,NA,98.68421052631578,NA
21060,Anne Arundel County,MD,30.252100840336134,NA,NA
21074,Carroll County,MD,NA,83.33333333333334,NA
21114,Anne Arundel County,MD,92.85714285714286,NA,NA
21122,Anne Arundel County,MD,NA,10.964912280701753,NA
21133,Baltimore County,MD,91.59663865546219,NA,NA
21146,Anne Arundel County,MD,NA,41.885964912280706,NA
21158,Carroll County,MD,NA,56.79824561403509,NA
21207,Baltimore County,MD,NA,19.298245614035086,NA
21214,Baltimore city,MD,81.72268907563026,NA,NA
21220,Baltimore County,MD,17.857142857142858,NA,NA
21229,Baltimore city,MD,51.26050420168067,NA,NA
21239,Baltimore city,MD,NA,NA,59.92217898832685
21244,Baltimore County,MD,NA,32.67543859649123,NA
21784,Carroll County,MD,78.36134453781513,NA,NA
21794,Howard County,MD,100,NA,NA
21795,Washington County,MD,NA,99.12280701754386,NA
01020,Hampden County,MA,NA,NA,13.618677042801556
01089,Hampden County,MA,3.571428571428571,NA,NA
01106,Hampden County,MA,NA,67.10526315789474,NA
01201,Berkshire County,MA,8.403361344537815,0,NA
01267,Berkshire County,MA,NA,85.52631578947368,NA
01331,Worcester County,MA,NA,29.385964912280706,NA
01373,Franklin County,MA,99.78991596638656,NA,NA
01440,Worcester County,MA,1.050420168067227,NA,NA
01453,Worcester County,MA,NA,5.263157894736842,NA
01460,Middlesex County,MA,70.58823529411765,NA,NA
01475,Worcester County,MA,28.15126050420168,NA,NA
01701,Middlesex County,MA,NA,6.578947368421052,NA
01760,Middlesex County,MA,NA,7.236842105263158,NA
01776,Middlesex County,MA,43.48739495798319,NA,NA
01801,Middlesex County,MA,NA,0.6578947368421052,NA
01824,Middlesex County,MA,NA,6.359649122807018,NA
01826,Middlesex County,MA,56.51260504201681,NA,NA
01852,Middlesex County,MA,NA,1.0964912280701753,50.97276264591439
01867,Middlesex County,MA,NA,52.85087719298246,NA
01907,Essex County,MA,NA,95.17543859649122,NA
01923,Essex County,MA,NA,NA,2.7237354085603114
01938,Essex County,MA,NA,NA,71.20622568093385
01952,Essex County,MA,72.68907563025209,NA,NA
01970,Essex County,MA,NA,0.43859649122807015,NA
02053,Norfolk County,MA,NA,92.32456140350878,NA
02072,Norfolk County,MA,NA,NA,10.116731517509727
02115,Suffolk County,MA,NA,62.5,NA
02119,Suffolk County,MA,NA,19.078947368421055,NA
02130,Suffolk County,MA,NA,13.157894736842104,NA
02134,Suffolk County,MA,11.974789915966387,NA,NA
02140,Middlesex County,MA,17.22689075630252,NA,NA
02143,Middlesex County,MA,NA,8.991228070175438,NA
02148,Middlesex County,MA,NA,0.21929824561403508,NA
02151,Suffolk County,MA,18.69747899159664,NA,0.38910505836575876
02169,Norfolk County,MA,NA,NA,1.9455252918287937
02302,Plymouth County,MA,0.21008403361344538,NA,NA
02339,Plymouth County,MA,NA,NA,44.3579766536965
02346,Plymouth County,MA,NA,9.429824561403509,NA
02351,Plymouth County,MA,NA,19.736842105263158,NA
02452,Middlesex County,MA,NA,33.99122807017544,NA
02459,Middlesex County,MA,NA,50.877192982456144,NA
02460,Middlesex County,MA,63.65546218487395,NA,NA
02493,Middlesex County,MA,NA,93.2017543859649,NA
02540,Barnstable County,MA,NA,NA,64.2023346303502
02631,Barnstable County,MA,95.16806722689076,NA,NA
02648,Barnstable County,MA,NA,84.21052631578947,NA
02664,Barnstable County,MA,NA,NA,98.44357976653697
02703,Bristol County,MA,6.932773109243698,NA,NA
02719,Bristol County,MA,NA,43.20175438596491,NA
02720,Bristol County,MA,7.9831932773109235,NA,NA
48001,St. Clair County,MI,NA,61.40350877192983,NA
48009,Oakland County,MI,NA,53.94736842105263,NA
48017,Oakland County,MI,77.52100840336135,NA,NA
48035,Macomb County,MI,36.97478991596639,NA,8.171206225680933
48047,Macomb County,MI,NA,NA,31.517509727626457
48080,Macomb County,MI,NA,11.18421052631579,NA
48104,Washtenaw County,MI,48.109243697478995,NA,17.509727626459142
48118,Washtenaw County,MI,NA,58.55263157894737,NA
48152,Wayne County,MI,NA,27.850877192982455,NA
48154,Wayne County,MI,25.210084033613445,NA,NA
48164,Wayne County,MI,NA,64.47368421052632,NA
48184,Wayne County,MI,47.26890756302521,NA,NA
48185,Wayne County,MI,5.46218487394958,5.701754385964912,NA
48188,Wayne County,MI,12.394957983193278,NA,NA
48192,Wayne County,MI,NA,NA,33.07392996108949
48195,Wayne County,MI,24.789915966386555,NA,NA
48197,Washtenaw County,MI,NA,NA,47.081712062256805
48207,Wayne County,MI,NA,NA,49.80544747081712
48214,Wayne County,MI,20.3781512605042,21.052631578947366,NA
48221,Wayne County,MI,NA,4.824561403508771,NA
48224,Wayne County,MI,1.4705882352941175,49.122807017543856,NA
48230,Wayne County,MI,92.22689075630252,NA,NA
48238,Wayne County,MI,58.82352941176471,NA,NA
48306,Oakland County,MI,43.90756302521008,NA,NA
48315,Macomb County,MI,70.37815126050421,NA,NA
48324,Oakland County,MI,94.32773109243698,NA,NA
48331,Oakland County,MI,NA,16.666666666666664,NA
48348,Oakland County,MI,NA,40.131578947368425,NA
48381,Oakland County,MI,NA,76.09649122807018,NA
48382,Oakland County,MI,NA,89.91228070175438,NA
48390,Oakland County,MI,NA,NA,36.186770428015564
48441,Huron County,MI,96.63865546218487,NA,NA
48457,Genesee County,MI,80.88235294117648,NA,NA
48504,Genesee County,MI,17.436974789915965,NA,NA
48622,Clare County,MI,NA,NA,89.49416342412452
48640,Midland County,MI,36.344537815126046,NA,NA
48642,Midland County,MI,19.537815126050422,NA,NA
48651,Roscommon County,MI,NA,NA,95.3307392996109
48658,Arenac County,MI,91.17647058823529,NA,NA
48706,Bay County,MI,31.72268907563025,12.06140350877193,3.8910505836575875
48848,Shiawassee County,MI,NA,68.64035087719299,NA
48910,Ingham County,MI,NA,10.74561403508772,NA
48911,Ingham County,MI,5.88235294117647,NA,NA
49001,Kalamazoo County,MI,22.058823529411764,NA,NA
49008,Kalamazoo County,MI,NA,73.68421052631578,NA
49009,Kalamazoo County,MI,12.184873949579831,NA,NA
49031,Cass County,MI,91.38655462184873,NA,NA
49065,Van Buren County,MI,93.27731092436974,85.08771929824562,NA
49120,Berrien County,MI,NA,12.5,NA
49201,Jackson County,MI,NA,NA,7.003891050583658
49221,Lenawee County,MI,NA,65.13157894736842,NA
49250,Hillsdale County,MI,NA,69.73684210526315,NA
49404,Ottawa County,MI,NA,88.59649122807018,NA
49408,Allegan County,MI,NA,53.07017543859649,NA
49412,Newaygo County,MI,NA,78.28947368421053,NA
49415,Muskegon County,MI,84.66386554621849,NA,NA
49417,Ottawa County,MI,NA,NA,14.785992217898833
49442,Muskegon County,MI,2.3109243697478994,NA,NA
49507,Kent County,MI,4.831932773109244,NA,NA
49509,Kent County,MI,NA,62.06140350877193,NA
49685,Grand Traverse County,MI,53.78151260504202,NA,NA
49696,Grand Traverse County,MI,73.73949579831933,NA,NA
49707,Alpena County,MI,NA,16.447368421052634,NA
49712,Charlevoix County,MI,NA,70.39473684210526,NA
49855,Marquette County,MI,14.285714285714285,NA,NA
49930,Houghton County,MI,89.70588235294117,NA,NA
55102,Ramsey County,MN,75.63025210084034,NA,NA
55103,Ramsey County,MN,47.05882352941176,NA,NA
55306,Dakota County,MN,NA,60.74561403508771,NA
55317,Carver County,MN,76.47058823529412,NA,NA
55420,Hennepin County,MN,40.33613445378151,NA,NA
55421,Anoka County,MN,55.25210084033614,NA,NA
55422,Hennepin County,MN,NA,NA,43.96887159533074
55912,Mower County,MN,NA,20.833333333333336,6.614785992217899
56007,Freeborn County,MN,NA,NA,14.007782101167315
56057,Le Sueur County,MN,98.10924369747899,NA,NA
56425,Crow Wing County,MN,NA,NA,33.46303501945525
56560,Clay County,MN,28.781512605042014,NA,NA
38632,DeSoto County,MS,NA,NA,55.252918287937746
38663,Tippah County,MS,NA,70.6140350877193,NA
38804,Lee County,MS,NA,72.80701754385966,NA
39042,Rankin County,MS,NA,25.219298245614034,NA
39056,Hinds County,MS,64.70588235294117,NA,NA
39168,Smith County,MS,89.07563025210085,NA,NA
39209,Hinds County,MS,23.739495798319325,NA,84.8249027237354
39212,Hinds County,MS,22.689075630252102,NA,NA
39325,Lauderdale County,MS,NA,74.78070175438597,NA
39341,Noxubee County,MS,NA,NA,81.71206225680933
39345,Newton County,MS,NA,85.74561403508771,NA
39350,Neshoba County,MS,NA,57.01754385964912,NA
39452,George County,MS,NA,50.6578947368421,NA
39466,Pearl River County,MS,NA,NA,19.06614785992218
39503,Harrison County,MS,NA,3.508771929824561,NA
39560,Harrison County,MS,NA,NA,63.81322957198443
39759,Oktibbeha County,MS,NA,48.24561403508772,NA
63005,St. Louis County,MO,NA,96.05263157894737,NA
63010,Jefferson County,MO,NA,22.587719298245617,NA
63025,St. Louis County,MO,NA,NA,68.09338521400778
63042,St. Louis County,MO,NA,33.55263157894737,NA
63043,St. Louis County,MO,NA,43.640350877192986,NA
63105,St. Louis County,MO,NA,NA,96.49805447470817
63129,St. Louis County,MO,NA,NA,8.949416342412452
63368,St. Charles County,MO,NA,16.885964912280702,NA
63780,Scott County,MO,NA,NA,81.32295719844358
64015,Jackson County,MO,NA,NA,41.63424124513619
64079,Platte County,MO,59.03361344537815,NA,NA
64089,Clay County,MO,54.621848739495796,NA,NA
64109,Jackson County,MO,NA,30.263157894736842,NA
64133,Jackson County,MO,NA,22.807017543859647,NA
64145,Jackson County,MO,NA,90.5701754385965,NA
64155,Clay County,MO,NA,17.982456140350877,NA
64505,Buchanan County,MO,32.773109243697476,NA,NA
64836,Jasper County,MO,18.277310924369747,NA,NA
65037,Morgan County,MO,89.49579831932773,NA,NA
65560,Dent County,MO,58.61344537815126,NA,NA
65613,Polk County,MO,NA,31.140350877192986,NA
65721,Christian County,MO,NA,NA,43.57976653696498
59301,Custer County,MT,NA,62.71929824561403,NA
59602,Lewis and Clark County,MT,60.08403361344538,NA,NA
68110,Douglas County,NE,73.94957983193278,NA,NA
68144,Douglas County,NE,90.33613445378151,NA,NA
68164,Douglas County,NE,NA,NA,64.98054474708171
69162,Cheyenne County,NE,NA,NA,64.59143968871595
89117,Clark County,NV,NA,31.798245614035086,NA
89120,Clark County,NV,NA,76.97368421052632,NA
89128,Clark County,NV,NA,60.30701754385965,NA
89141,Clark County,NV,NA,NA,100
89145,Clark County,NV,NA,69.95614035087719,NA
89408,Lyon County,NV,38.02521008403361,NA,NA
89436,Washoe County,NV,NA,39.91228070175439,NA
89508,Washoe County,NV,NA,94.2982456140351,NA
89509,Washoe County,NV,NA,39.25438596491228,NA
03032,Rockingham County,NH,NA,67.32456140350878,NA
03037,Rockingham County,NH,NA,99.78070175438597,NA
03070,Hillsborough County,NH,98.52941176470588,NA,NA
03076,Hillsborough County,NH,88.4453781512605,48.90350877192983,NA
03102,Hillsborough County,NH,69.53781512605042,NA,NA
03303,Merrimack County,NH,69.74789915966386,NA,NA
03570,Coos County,NH,NA,NA,56.809338521400775
03773,Sullivan County,NH,90.33613445378151,NA,NA
03824,Strafford County,NH,NA,76.53508771929825,NA
03870,Rockingham County,NH,NA,82.23684210526315,NA
07055,Passaic County,NJ,NA,2.631578947368421,NA
07065,Union County,NJ,87.18487394957984,NA,NA
07105,Essex County,NJ,NA,NA,45.91439688715953
07305,Hudson County,NJ,4.621848739495799,NA,NA
07522,Passaic County,NJ,4.411764705882353,NA,NA
07677,Bergen County,NJ,95.58823529411765,NA,NA
07728,Monmouth County,NJ,72.89915966386555,NA,NA
07740,Monmouth County,NJ,6.512605042016808,NA,NA
07747,Monmouth County,NJ,34.2436974789916,NA,NA
07753,Monmouth County,NJ,86.5546218487395,NA,NA
08004,Camden County,NJ,56.9327731092437,NA,NA
08050,Ocean County,NJ,37.81512605042017,NA,NA
08057,Burlington County,NJ,62.18487394957983,NA,NA
08094,Gloucester County,NJ,NA,NA,75.87548638132296
08104,Camden County,NJ,NA,1.9736842105263157,NA
08260,Cape May County,NJ,NA,NA,55.6420233463035
08270,Cape May County,NJ,56.72268907563025,NA,NA
08527,Ocean County,NJ,NA,28.947368421052634,NA
08619,Mercer County,NJ,49.57983193277311,NA,NA
08755,Ocean County,NJ,NA,NA,57.58754863813229
08886,Warren County,NJ,81.30252100840336,NA,NA
87104,Bernalillo County,NM,NA,NA,59.53307392996109
87413,San Juan County,NM,NA,47.368421052631575,NA
87571,Taos County,NM,NA,43.859649122807014,NA
88310,Otero County,NM,NA,3.7280701754385963,NA
10009,New York County,NY,NA,NA,4.669260700389105
10010,New York County,NY,NA,49.56140350877193,NA
10026,New York County,NY,26.05042016806723,NA,NA
10033,New York County,NY,16.596638655462183,15.350877192982457,NA
10452,Bronx County,NY,NA,7.894736842105263,10.505836575875486
10453,Bronx County,NY,0,NA,NA
10459,Bronx County,NY,NA,NA,92.21789883268482
10940,Orange County,NY,NA,11.62280701754386,NA
10954,Rockland County,NY,NA,NA,77.431906614786
11050,Nassau County,NY,NA,47.80701754385965,NA
11203,Kings County,NY,NA,5.0438596491228065,7.782101167315175
11206,Kings County,NY,1.8907563025210083,NA,NA
11216,Kings County,NY,38.865546218487395,NA,19.45525291828794
11239,Kings County,NY,NA,64.03508771929825,NA
11355,Queens County,NY,NA,75,NA
11413,Queens County,NY,49.57983193277311,NA,NA
11420,Queens County,NY,NA,77.63157894736842,NA
11554,Nassau County,NY,NA,70.83333333333334,NA
11714,Nassau County,NY,NA,65.35087719298247,NA
11727,Suffolk County,NY,NA,26.535087719298247,NA
11741,Suffolk County,NY,87.18487394957984,NA,NA
11746,Suffolk County,NY,NA,36.40350877192983,NA
11772,Suffolk County,NY,NA,21.710526315789476,NA
11779,Suffolk County,NY,41.17647058823529,NA,NA
11795,Suffolk County,NY,NA,NA,25.680933852140075
11950,Suffolk County,NY,73.94957983193278,NA,NA
12010,Montgomery County,NY,NA,NA,6.22568093385214
12180,Rensselaer County,NY,NA,NA,54.08560311284047
12203,Albany County,NY,NA,35.30701754385965,NA
12302,Schenectady County,NY,42.857142857142854,NA,NA
12309,Schenectady County,NY,NA,NA,40.46692607003891
12801,Warren County,NY,19.95798319327731,NA,NA
12953,Franklin County,NY,NA,47.58771929824561,NA
12966,Franklin County,NY,NA,95.83333333333334,NA
12992,Clinton County,NY,58.40336134453782,NA,NA
13021,Cayuga County,NY,NA,NA,17.120622568093385
13032,Madison County,NY,65.96638655462185,NA,NA
13092,Cayuga County,NY,91.80672268907563,NA,NA
13118,Cayuga County,NY,NA,NA,97.66536964980544
13126,Oswego County,NY,NA,NA,11.284046692607005
13204,Onondaga County,NY,NA,94.73684210526315,NA
13207,Onondaga County,NY,NA,63.81578947368421,NA
13210,Onondaga County,NY,36.134453781512605,NA,78.59922178988327
13212,Onondaga County,NY,31.932773109243694,NA,NA
13350,Herkimer County,NY,NA,58.77192982456141,NA
13601,Jefferson County,NY,3.7815126050420167,NA,NA
13753,Delaware County,NY,NA,69.07894736842105,NA
13803,Cortland County,NY,78.57142857142857,NA,NA
13815,Chenango County,NY,NA,10.526315789473683,NA
13850,Broome County,NY,15.546218487394958,NA,NA
14009,Wyoming County,NY,82.14285714285714,NA,NA
14094,Niagara County,NY,1.2605042016806722,NA,NA
14127,Erie County,NY,NA,12.280701754385964,18.28793774319066
14132,Niagara County,NY,84.03361344537815,NA,NA
14174,Niagara County,NY,99.36974789915966,NA,NA
14206,Erie County,NY,13.025210084033615,NA,NA
14213,Erie County,NY,NA,36.84210526315789,NA
14222,Erie County,NY,NA,57.675438596491226,NA
14416,Genesee County,NY,NA,83.55263157894737,NA
14424,Ontario County,NY,16.386554621848738,NA,NA
14489,Wayne County,NY,NA,27.412280701754387,NA
14532,Ontario County,NY,NA,88.1578947368421,NA
14534,Monroe County,NY,28.57142857142857,NA,NA
14564,Ontario County,NY,19.537815126050422,NA,NA
14617,Monroe County,NY,NA,NA,29.571984435797667
14619,Monroe County,NY,NA,64.91228070175438,NA
14701,Chautauqua County,NY,49.159663865546214,1.3157894736842104,12.840466926070038
14821,Steuben County,NY,88.02521008403362,NA,NA
14845,Chemung County,NY,15.966386554621847,NA,79.37743190661479
14883,Tioga County,NY,81.09243697478992,NA,NA
27105,Forsyth County,NC,1.680672268907563,NA,NA
27106,Forsyth County,NC,12.815126050420167,NA,NA
27107,Forsyth County,NC,3.361344537815126,NA,NA
27263,Randolph County,NC,NA,46.71052631578947,NA
27265,Guilford County,NC,20.168067226890756,NA,NA
27284,Forsyth County,NC,6.302521008403361,NA,NA
27292,Davidson County,NC,NA,0.8771929824561403,NA
27302,Alamance County,NC,NA,9.649122807017543,NA
27332,Lee County,NC,38.655462184873954,NA,NA
27510,Orange County,NC,61.13445378151261,NA,NA
27539,Wake County,NC,60.71428571428571,NA,NA
27573,Person County,NC,45.378151260504204,NA,NA
27591,Wake County,NC,NA,48.46491228070175,NA
27704,Durham County,NC,11.554621848739496,NA,NA
27705,Durham County,NC,NA,39.473684210526315,NA
27707,Durham County,NC,NA,7.675438596491229,NA
27834,Pitt County,NC,6.722689075630252,NA,NA
27870,Halifax County,NC,NA,25.438596491228072,NA
27882,Nash County,NC,NA,79.82456140350878,NA
27890,Halifax County,NC,99.57983193277312,NA,NA
27983,Bertie County,NC,NA,NA,35.797665369649806
28027,Cabarrus County,NC,18.487394957983195,NA,NA
28103,Union County,NC,NA,68.2017543859649,NA
28214,Mecklenburg County,NC,30.672268907563026,NA,NA
28226,Mecklenburg County,NC,NA,39.03508771929825,NA
28315,Moore County,NC,73.31932773109243,NA,NA
28327,Moore County,NC,NA,NA,65.36964980544747
28372,Robeson County,NC,86.76470588235294,NA,NA
28376,Hoke County,NC,31.092436974789916,NA,NA
28391,Cumberland County,NC,NA,NA,98.83268482490273
28425,Pender County,NC,NA,52.19298245614035,NA
28469,Brunswick County,NC,NA,73.02631578947368,NA
28472,Columbus County,NC,37.39495798319328,NA,NA
28551,Lenoir County,NC,NA,75.21929824561403,NA
28560,Craven County,NC,30.04201680672269,NA,NA
28613,Catawba County,NC,42.016806722689076,33.771929824561404,NA
28655,Burke County,NC,26.47058823529412,NA,NA
28713,Swain County,NC,NA,51.973684210526315,NA
28768,Transylvania County,NC,NA,54.166666666666664,NA
58103,Cass County,ND,NA,15.570175438596493,NA
43017,Franklin County,OH,62.81512605042017,NA,NA
43019,Knox County,OH,NA,NA,69.64980544747081
43040,Union County,OH,NA,NA,21.40077821011673
43054,Franklin County,OH,NA,NA,61.08949416342413
43055,Licking County,OH,NA,40.78947368421053,NA
43078,Champaign County,OH,94.74789915966386,NA,NA
43081,Franklin County,OH,NA,NA,88.715953307393
43113,Pickaway County,OH,NA,NA,34.63035019455253
43123,Franklin County,OH,NA,7.017543859649122,NA
43130,Fairfield County,OH,0.8403361344537815,NA,NA
43223,Franklin County,OH,NA,53.289473684210535,NA
43227,Franklin County,OH,NA,NA,37.35408560311284
43558,Fulton County,OH,NA,41.44736842105263,NA
43571,Lucas County,OH,82.98319327731093,NA,NA
43607,Lucas County,OH,NA,16.228070175438596,92.99610894941634
43611,Lucas County,OH,NA,24.780701754385966,NA
43615,Lucas County,OH,NA,NA,35.019455252918284
43701,Muskingum County,OH,NA,NA,2.3346303501945527
43953,Jefferson County,OH,NA,71.05263157894737,NA
44017,Cuyahoga County,OH,36.97478991596639,NA,NA
44035,Lorain County,OH,NA,NA,0
44041,Ashtabula County,OH,NA,29.82456140350877,NA
44060,Lake County,OH,NA,NA,0.7782101167315175
44067,Summit County,OH,NA,15.131578947368421,NA
44092,Lake County,OH,NA,28.289473684210524,NA
44095,Lake County,OH,20.588235294117645,NA,NA
44102,Cuyahoga County,OH,NA,1.5350877192982455,NA
44106,Cuyahoga County,OH,10.294117647058822,NA,NA
44107,Cuyahoga County,OH,NA,2.1929824561403506,NA
44109,Cuyahoga County,OH,4.201680672268908,NA,NA
44111,Cuyahoga County,OH,0.6302521008403361,NA,62.64591439688716
44116,Cuyahoga County,OH,NA,NA,5.058365758754864
44126,Cuyahoga County,OH,NA,36.622807017543856,NA
44130,Cuyahoga County,OH,NA,NA,1.1673151750972763
44134,Cuyahoga County,OH,NA,14.912280701754385,NA
44142,Cuyahoga County,OH,NA,NA,48.63813229571984
44143,Cuyahoga County,OH,NA,NA,16.342412451361866
44147,Cuyahoga County,OH,NA,NA,61.478599221789885
44149,Cuyahoga County,OH,71.21848739495799,NA,NA
44221,Summit County,OH,13.865546218487395,NA,NA
44223,Summit County,OH,47.47899159663865,NA,NA
44266,Portage County,OH,8.823529411764707,NA,NA
44410,Trumbull County,OH,38.23529411764706,NA,NA
44425,Trumbull County,OH,32.35294117647059,NA,NA
44440,Trumbull County,OH,84.24369747899159,NA,NA
44515,Mahoning County,OH,10.084033613445378,NA,NA
44647,Stark County,OH,51.05042016806722,NA,NA
44663,Tuscarawas County,OH,NA,13.596491228070176,12.062256809338521
44683,Tuscarawas County,OH,72.26890756302521,NA,NA
44805,Ashland County,OH,NA,4.605263157894736,NA
44827,Crawford County,OH,NA,NA,73.15175097276264
44830,Seneca County,OH,NA,25.877192982456144,NA
44849,Wyandot County,OH,NA,100,NA
45005,Warren County,OH,NA,NA,28.404669260700388
45056,Butler County,OH,NA,NA,66.9260700389105
45154,Brown County,OH,NA,79.60526315789474,NA
45205,Hamilton County,OH,NA,46.71052631578947,NA
45208,Hamilton County,OH,NA,74.12280701754386,NA
45236,Hamilton County,OH,NA,NA,24.90272373540856
45405,Montgomery County,OH,24.579831932773107,NA,NA
45417,Montgomery County,OH,33.61344537815126,NA,NA
45420,Montgomery County,OH,27.100840336134453,NA,NA
45504,Clark County,OH,NA,95.39473684210526,NA
45505,Clark County,OH,64.07563025210085,NA,NA
45701,Athens County,OH,NA,NA,33.85214007782101
45750,Washington County,OH,27.941176470588236,NA,NA
45801,Allen County,OH,NA,NA,37.7431906614786
73051,Cleveland County,OK,NA,NA,88.32684824902724
73071,Cleveland County,OK,23.949579831932773,42.54385964912281,NA
73072,Cleveland County,OK,NA,54.824561403508774,NA
73115,Oklahoma County,OK,NA,82.67543859649122,NA
73122,Oklahoma County,OK,77.10084033613445,NA,NA
73401,Carter County,OK,NA,55.04385964912281,NA
73505,Comanche County,OK,23.52941176470588,NA,NA
74134,Tulsa County,OK,NA,NA,73.54085603112841
74403,Muskogee County,OK,NA,23.24561403508772,NA
97030,Multnomah County,OR,NA,14.473684210526317,NA
97103,Clatsop County,OR,78.15126050420169,NA,NA
97209,Multnomah County,OR,NA,53.72807017543859,NA
97212,Multnomah County,OR,65.12605042016807,NA,NA
97216,Multnomah County,OR,NA,57.23684210526315,38.52140077821012
97222,Clackamas County,OR,30.88235294117647,NA,NA
97224,Washington County,OR,NA,77.19298245614034,NA
97229,Washington County,OR,36.76470588235294,NA,NA
97239,Multnomah County,OR,NA,64.03508771929825,NA
97302,Marion County,OR,NA,38.81578947368421,NA
97367,Lincoln County,OR,NA,28.50877192982456,NA
97405,Lane County,OR,NA,53.50877192982456,NA
97420,Coos County,OR,NA,NA,73.92996108949417
97520,Jackson County,OR,NA,NA,62.2568093385214
97850,Union County,OR,NA,55.70175438596491,NA
15021,Washington County,PA,NA,NA,75.09727626459144
15025,Allegheny County,PA,NA,NA,53.69649805447471
15042,Beaver County,PA,NA,66.44736842105263,NA
15057,Washington County,PA,NA,86.8421052631579,NA
15084,Allegheny County,PA,NA,NA,83.65758754863813
15122,Allegheny County,PA,NA,NA,18.67704280155642
15132,Allegheny County,PA,11.76470588235294,NA,NA
15202,Allegheny County,PA,76.89075630252101,NA,NA
15205,Allegheny County,PA,NA,NA,54.474708171206224
15212,Allegheny County,PA,NA,33.114035087719294,NA
15226,Allegheny County,PA,68.4873949579832,NA,NA
15227,Allegheny County,PA,NA,78.94736842105263,NA
15243,Allegheny County,PA,85.92436974789915,NA,NA
15473,Fayette County,PA,NA,NA,86.38132295719845
15601,Westmoreland County,PA,2.941176470588235,NA,NA
15650,Westmoreland County,PA,NA,NA,9.72762645914397
15683,Westmoreland County,PA,74.78991596638656,NA,NA
15717,Indiana County,PA,NA,37.5,NA
15801,Clearfield County,PA,NA,5.921052631578947,20.622568093385212
16105,Lawrence County,PA,NA,25.877192982456144,NA
16121,Mercer County,PA,NA,NA,69.26070038910505
16125,Mercer County,PA,NA,45.17543859649123,NA
16254,Clarion County,PA,NA,99.56140350877193,NA
16509,Erie County,PA,34.03361344537815,NA,NA
16662,Blair County,PA,NA,71.71052631578947,NA
16841,Centre County,PA,NA,96.49122807017544,NA
16866,Centre County,PA,NA,61.8421052631579,NA
17042,Lebanon County,PA,42.64705882352941,NA,NA
17050,Cumberland County,PA,NA,8.771929824561402,NA
17111,Dauphin County,PA,NA,NA,36.964980544747085
17236,Franklin County,PA,NA,NA,84.04669260700389
17319,York County,PA,NA,60.96491228070175,NA
17366,York County,PA,83.61344537815127,NA,NA
17545,Lancaster County,PA,NA,NA,49.0272373540856
17552,Lancaster County,PA,NA,NA,44.74708171206226
17728,Lycoming County,PA,NA,NA,91.82879377431907
18064,Northampton County,PA,NA,51.53508771929825,NA
18067,Northampton County,PA,NA,24.561403508771928,NA
18102,Lehigh County,PA,0.42016806722689076,NA,NA
18103,Lehigh County,PA,NA,27.192982456140353,NA
18229,Carbon County,PA,NA,78.28947368421053,NA
18302,Monroe County,PA,NA,NA,70.03891050583657
18433,Lackawanna County,PA,NA,80.26315789473685,NA
18510,Lackawanna County,PA,NA,NA,94.55252918287937
18644,Luzerne County,PA,82.35294117647058,NA,NA
18655,Luzerne County,PA,NA,81.14035087719299,NA
18951,Bucks County,PA,19.327731092436977,NA,NA
18960,Bucks County,PA,NA,NA,83.26848249027238
18974,Bucks County,PA,NA,37.719298245614034,NA
18976,Bucks County,PA,NA,NA,39.688715953307394
19004,Montgomery County,PA,79.83193277310924,NA,NA
19007,Bucks County,PA,26.260504201680675,NA,NA
19013,Delaware County,PA,NA,NA,30.35019455252918
19020,Bucks County,PA,NA,8.552631578947368,NA
19034,Montgomery County,PA,NA,77.85087719298247,NA
19067,Bucks County,PA,NA,NA,10.894941634241246
19086,Delaware County,PA,93.90756302521008,NA,NA
19115,Philadelphia County,PA,NA,46.05263157894737,NA
19118,Philadelphia County,PA,94.53781512605042,NA,NA
19120,Philadelphia County,PA,NA,NA,42.4124513618677
19129,Philadelphia County,PA,NA,56.57894736842105,NA
19130,Philadelphia County,PA,39.91596638655462,30.043859649122805,NA
19134,Philadelphia County,PA,50.42016806722689,NA,NA
19141,Philadelphia County,PA,7.773109243697479,NA,NA
19403,Montgomery County,PA,NA,NA,5.836575875486381
19462,Montgomery County,PA,NA,91.44736842105263,NA
19508,Berks County,PA,NA,67.54385964912281,NA
19512,Berks County,PA,NA,NA,50.583657587548636
19518,Berks County,PA,50,NA,NA
19604,Berks County,PA,93.69747899159664,93.64035087719299,NA
19605,Berks County,PA,NA,NA,22.957198443579767
19606,Berks County,PA,NA,4.385964912280701,NA
19609,Berks County,PA,NA,94.07894736842105,NA
19610,Berks County,PA,NA,NA,23.346303501945524
02816,Kent County,RI,NA,NA,25.291828793774318
02859,Providence County,RI,89.91596638655463,NA,NA
02861,Providence County,RI,32.563025210084035,NA,NA
02886,Kent County,RI,NA,NA,7.392996108949417
02893,Kent County,RI,78.99159663865547,NA,NA
02910,Providence County,RI,51.470588235294116,NA,NA
29003,Bamberg County,SC,92.01680672268907,NA,NA
29010,Lee County,SC,NA,73.24561403508771,NA
29063,Richland County,SC,59.2436974789916,NA,NA
29108,Newberry County,SC,58.19327731092437,NA,NA
29115,Orangeburg County,SC,67.85714285714286,NA,NA
29223,Richland County,SC,NA,86.18421052631578,NA
29323,Spartanburg County,SC,55.88235294117647,NA,NA
29335,Spartanburg County,SC,NA,96.9298245614035,NA
29349,Spartanburg County,SC,26.680672268907564,NA,NA
29406,Charleston County,SC,25.840336134453786,NA,NA
29414,Charleston County,SC,NA,NA,28.793774319066145
29485,Dorchester County,SC,NA,NA,42.80155642023346
29488,Colleton County,SC,35.924369747899156,NA,NA
29536,Dillon County,SC,NA,75.43859649122807,NA
29625,Anderson County,SC,33.403361344537814,NA,NA
29627,Anderson County,SC,NA,49.780701754385966,NA
29707,Lancaster County,SC,NA,41.66666666666667,NA
29812,Barnwell County,SC,NA,48.026315789473685,NA
29817,Barnwell County,SC,NA,98.90350877192982,NA
29926,Beaufort County,SC,NA,54.385964912280706,NA
57105,Minnehaha County,SD,NA,38.59649122807017,NA
57501,Hughes County,SD,NA,56.14035087719298,NA
57701,Pennington County,SD,NA,13.37719298245614,NA
37064,Williamson County,TN,NA,12.938596491228072,NA
37067,Williamson County,TN,NA,61.18421052631579,NA
37075,Sumner County,TN,NA,5.482456140350877,NA
37091,Marshall County,TN,NA,NA,56.809338521400775
37096,Perry County,TN,NA,86.62280701754386,NA
37110,Warren County,TN,NA,NA,77.82101167315176
37367,Bledsoe County,TN,64.49579831932773,NA,NA
37601,Washington County,TN,16.176470588235293,NA,NA
37659,Washington County,TN,NA,24.342105263157894,NA
37748,Roane County,TN,35.294117647058826,NA,NA
37766,Campbell County,TN,NA,20.614035087719298,NA
37771,Loudon County,TN,NA,NA,72.37354085603113
37813,Hamblen County,TN,NA,94.95614035087719,NA
37830,Anderson County,TN,25,NA,NA
38019,Tipton County,TN,57.56302521008403,NA,NA
38053,Shelby County,TN,48.94957983193277,NA,28.01556420233463
38109,Shelby County,TN,11.344537815126051,NA,NA
38127,Shelby County,TN,9.033613445378151,NA,NA
38128,Shelby County,TN,53.57142857142857,NA,NA
38301,Madison County,TN,36.554621848739494,NA,NA
38401,Maury County,TN,NA,NA,19.844357976653697
38581,Warren County,TN,NA,96.27192982456141,NA
38583,White County,TN,NA,23.684210526315788,NA
75024,Collin County,TX,81.9327731092437,NA,NA
75076,Grayson County,TX,NA,NA,86.7704280155642
75088,Dallas County,TX,NA,40.35087719298245,NA
75181,Dallas County,TX,NA,89.47368421052632,NA
75204,Dallas County,TX,NA,84.64912280701753,NA
75211,Dallas County,TX,NA,17.324561403508774,NA
75214,Dallas County,TX,NA,NA,57.97665369649806
75218,Dallas County,TX,NA,80.48245614035088,NA
75223,Dallas County,TX,NA,71.9298245614035,NA
75227,Dallas County,TX,NA,60.08771929824561,NA
75229,Dallas County,TX,88.23529411764706,NA,NA
75234,Dallas County,TX,NA,NA,43.190661478599225
75440,Rains County,TX,NA,69.51754385964912,NA
75604,Gregg County,TX,41.38655462184874,NA,NA
75639,Panola County,TX,NA,98.24561403508771,NA
75701,Smith County,TX,NA,10.307017543859649,NA
75791,Smith County,TX,65.33613445378151,NA,NA
75904,Angelina County,TX,35.08403361344538,NA,NA
75961,Nacogdoches County,TX,NA,NA,79.76653696498055
76001,Tarrant County,TX,NA,71.27192982456141,NA
76008,Parker County,TX,76.05042016806722,NA,NA
76016,Tarrant County,TX,66.59663865546219,NA,NA
76110,Tarrant County,TX,43.48739495798319,NA,NA
76137,Tarrant County,TX,21.008403361344538,NA,NA
76148,Tarrant County,TX,NA,90.35087719298247,NA
76262,Denton County,TX,NA,NA,67.70428015564202
76384,Wilbarger County,TX,NA,NA,78.21011673151752
76504,Bell County,TX,NA,1.7543859649122806,NA
76513,Bell County,TX,54.20168067226891,NA,NA
76706,McLennan County,TX,35.714285714285715,NA,NA
76901,Tom Green County,TX,NA,26.75438596491228,NA
76904,Tom Green County,TX,NA,32.89473684210527,NA
77029,Harris County,TX,NA,59.86842105263158,NA
77045,Harris County,TX,59.45378151260504,NA,NA
77055,Harris County,TX,NA,50.43859649122807,NA
77056,Harris County,TX,NA,76.75438596491229,NA
77061,Harris County,TX,NA,73.46491228070175,NA
77081,Harris County,TX,66.38655462184873,NA,NA
77087,Harris County,TX,56.9327731092437,NA,NA
77304,Montgomery County,TX,63.23529411764706,NA,NA
77351,Polk County,TX,NA,NA,29.18287937743191
77357,Montgomery County,TX,NA,NA,97.27626459143968
77380,Montgomery County,TX,NA,50.21929824561403,NA
77407,Fort Bend County,TX,NA,89.03508771929825,NA
77465,Matagorda County,TX,86.1344537815126,NA,NA
77488,Wharton County,TX,NA,72.36842105263158,NA
77498,Fort Bend County,TX,55.67226890756303,NA,NA
77536,Harris County,TX,NA,81.35964912280701,NA
77550,Galveston County,TX,NA,42.76315789473684,NA
77573,Galveston County,TX,9.453781512605042,NA,NA
77630,Orange County,TX,42.436974789915965,NA,NA
77632,Orange County,TX,NA,60.526315789473685,NA
77979,Calhoun County,TX,70.16806722689076,NA,NA
78045,Webb County,TX,24.159663865546218,NA,NA
78046,Webb County,TX,NA,21.929824561403507,NA
78154,Guadalupe County,TX,NA,67.76315789473685,NA
78238,Bexar County,TX,71.63865546218487,NA,NA
78374,San Patricio County,TX,NA,90.78947368421053,NA
78516,Hidalgo County,TX,62.60504201680672,NA,NA
78633,Williamson County,TX,NA,NA,3.11284046692607
78664,Williamson County,TX,45.588235294117645,NA,NA
78666,Hays County,TX,NA,31.359649122807014,NA
78734,Travis County,TX,NA,NA,68.48249027237354
78741,Travis County,TX,NA,68.2017543859649,NA
78840,Val Verde County,TX,30.462184873949578,14.692982456140353,NA
79360,Gaines County,TX,53.15126050420168,NA,NA
79912,El Paso County,TX,27.521008403361346,NA,NA
79938,El Paso County,TX,33.193277310924366,NA,NA
84025,Davis County,UT,72.47899159663865,NA,NA
84067,Weber County,UT,NA,80.04385964912281,NA
84404,Weber County,UT,NA,63.377192982456144,NA
84405,Weber County,UT,NA,NA,94.16342412451361
84720,Iron County,UT,95.7983193277311,NA,NA
05201,Bennington County,VT,NA,NA,82.49027237354085
05465,Chittenden County,VT,NA,99.3421052631579,NA
05602,Washington County,VT,NA,30.482456140350877,NA
05701,Rutland County,VT,39.49579831932773,NA,NA
20148,Loudoun County,VA,NA,92.76315789473685,NA
20190,Fairfax County,VA,NA,NA,76.65369649805449
22304,Alexandria city,VA,14.07563025210084,NA,NA
22308,Fairfax County,VA,NA,NA,90.27237354085604
22485,King George County,VA,NA,46.49122807017544,NA
22801,Harrisonburg city,VA,NA,77.41228070175438,NA
23185,James City County,VA,NA,NA,1.556420233463035
23231,Henrico County,VA,NA,13.815789473684212,NA
23235,Chesterfield County,VA,77.73109243697479,NA,NA
23322,Chesapeake city,VA,55.46218487394958,NA,NA
23324,Chesapeake city,VA,98.73949579831933,NA,NA
23437,Suffolk city,VA,98.94957983193278,NA,NA
23451,Virginia Beach city,VA,NA,59.210526315789465,NA
23452,Virginia Beach city,VA,NA,8.114035087719298,NA
23454,Virginia Beach city,VA,NA,NA,26.07003891050584
23455,Virginia Beach city,VA,NA,8.333333333333332,NA
23606,Newport News city,VA,76.26050420168067,22.36842105263158,NA
23663,Hampton city,VA,72.05882352941177,NA,NA
23669,Hampton city,VA,NA,NA,38.13229571984436
23704,Portsmouth city,VA,29.20168067226891,NA,NA
24073,Montgomery County,VA,NA,45.614035087719294,NA
24523,Bedford County,VA,NA,34.21052631578947,NA
24590,Albemarle County,VA,NA,78.72807017543859,NA
24605,Tazewell County,VA,NA,66.22807017543859,NA
98001,King County,WA,94.11764705882352,NA,NA
98027,King County,WA,NA,37.93859649122807,NA
98032,King County,WA,83.19327731092437,NA,NA
98037,Snohomish County,WA,NA,NA,53.30739299610895
98115,King County,WA,NA,NA,26.848249027237355
98116,King County,WA,NA,55.48245614035088,NA
98133,King County,WA,29.411764705882355,NA,NA
98178,King County,WA,NA,58.99122807017544,NA
98203,Snohomish County,WA,NA,84.86842105263158,NA
98208,Snohomish County,WA,21.638655462184875,NA,NA
98239,Island County,WA,97.68907563025209,NA,NA
98250,San Juan County,WA,NA,NA,98.0544747081712
98273,Skagit County,WA,28.991596638655466,NA,NA
98362,Clallam County,WA,98.31932773109243,7.456140350877193,NA
98367,Kitsap County,WA,NA,NA,46.30350194552529
98380,Kitsap County,WA,NA,65.78947368421053,NA
98387,Pierce County,WA,NA,NA,51.75097276264592
98391,Pierce County,WA,13.655462184873949,9.868421052631579,NA
98444,Pierce County,WA,NA,56.35964912280702,NA
98467,Pierce County,WA,NA,61.622807017543856,NA
98520,Grays Harbor County,WA,63.4453781512605,NA,NA
98632,Cowlitz County,WA,NA,NA,3.501945525291829
98903,Yakima County,WA,NA,76.31578947368422,NA
99037,Spokane County,WA,NA,NA,90.6614785992218
99320,Benton County,WA,NA,74.12280701754386,NA
20002,District of Columbia,DC,5.2521008403361344,NA,39.29961089494164
20003,District of Columbia,DC,NA,NA,66.14785992217898
20019,District of Columbia,DC,3.1512605042016806,NA,NA
20032,District of Columbia,DC,5.042016806722689,NA,NA
24739,Mercer County,WV,NA,89.69298245614034,NA
25276,Roane County,WV,55.04201680672269,NA,NA
25880,Raleigh County,WV,75.84033613445378,75.87719298245614,NA
26003,Ohio County,WV,NA,NA,52.918287937743195
26105,Wood County,WV,50.21008403361344,NA,NA
26301,Harrison County,WV,7.352941176470589,NA,NA
26354,Taylor County,WV,NA,NA,77.04280155642024
26505,Monongalia County,WV,NA,NA,16.731517509727624
26601,Braxton County,WV,NA,97.58771929824562,NA
53142,Kenosha County,WI,NA,66.8859649122807,NA
53154,Milwaukee County,WI,23.10924369747899,NA,NA
53204,Milwaukee County,WI,6.092436974789916,NA,NA
53219,Milwaukee County,WI,NA,83.1140350877193,NA
53913,Sauk County,WI,39.075630252100844,45.83333333333333,NA
54403,Marathon County,WI,NA,26.31578947368421,NA
54703,Eau Claire County,WI,22.478991596638657,NA,NA
54880,Douglas County,WI,14.495798319327733,NA,NA
82007,Laramie County,WY,61.76470588235294,NA,NA
82072,Albany County,WY,NA,NA,96.88715953307393
82401,Washakie County,WY,NA,NA,84.43579766536965
82633,Converse County,WY,80.67226890756302,NA,NA
82701,Weston County,WY,NA,88.81578947368422,NA
82716,Campbell County,WY,90.75630252100841,NA,NA
