ZipCode,county,state,Adult,Retirement,Geriatric
35020,Jefferson County,AL,NA,NA,38.30409356725146
35022,Jefferson County,AL,NA,NA,71.19883040935673
35031,Blount County,AL,NA,NA,82.30994152046783
35034,Bibb County,AL,NA,NA,91.52046783625731
35057,Cullman County,AL,NA,NA,85.96491228070175
35179,Cullman County,AL,NA,NA,97.51461988304094
35242,Shelby County,AL,NA,NA,54.239766081871345
35611,Limestone County,AL,NA,24.732824427480914,NA
35633,Lauderdale County,AL,57.8005115089514,NA,NA
35634,Lauderdale County,AL,86.18925831202046,NA,NA
35660,Colbert County,AL,NA,NA,97.80701754385966
35672,Lawrence County,AL,75.1918158567775,NA,NA
35801,Madison County,AL,NA,NA,70.76023391812866
35805,Madison County,AL,NA,70.22900763358778,NA
36054,Elmore County,AL,NA,70.38167938931298,NA
36064,Montgomery County,AL,NA,93.74045801526718,NA
36092,Elmore County,AL,50.38363171355499,NA,NA
36104,Montgomery County,AL,58.82352941176471,NA,NA
36111,Montgomery County,AL,63.9386189258312,NA,NA
36116,Montgomery County,AL,25.31969309462916,NA,NA
36344,Geneva County,AL,92.58312020460357,NA,NA
36502,Escambia County,AL,72.63427109974424,NA,NA
36526,Baldwin County,AL,NA,NA,27.77777777777778
36695,Mobile County,AL,37.084398976982094,NA,NA
36703,Dallas County,AL,62.40409207161125,NA,NA
36853,Tallapoosa County,AL,NA,83.3587786259542,NA
36862,Chambers County,AL,NA,NA,97.36842105263158
99504,Anchorage Municipality,AK,NA,NA,53.216374269005854
99515,Anchorage Municipality,AK,NA,79.08396946564885,NA
99645,Matanuska-Susitna Borough,AK,56.77749360613811,NA,NA
85008,Maricopa County,AZ,NA,64.42748091603053,NA
85009,Maricopa County,AZ,16.36828644501279,NA,NA
85014,Maricopa County,AZ,NA,96.6412213740458,NA
85015,Maricopa County,AZ,NA,54.961832061068705,NA
85017,Maricopa County,AZ,NA,NA,94.73684210526315
85020,Maricopa County,AZ,41.94373401534527,NA,NA
85032,Maricopa County,AZ,NA,NA,45.614035087719294
85040,Maricopa County,AZ,23.273657289002557,NA,NA
85044,Maricopa County,AZ,NA,50.229007633587784,NA
85051,Maricopa County,AZ,17.135549872122763,NA,NA
85086,Maricopa County,AZ,NA,42.595419847328245,NA
85120,Pinal County,AZ,NA,NA,28.07017543859649
85138,Pinal County,AZ,NA,NA,72.51461988304094
85142,Maricopa County,AZ,NA,26.564885496183205,NA
85209,Maricopa County,AZ,NA,25.190839694656486,NA
85295,Maricopa County,AZ,NA,78.93129770992367,NA
85298,Maricopa County,AZ,NA,NA,94.5906432748538
85301,Maricopa County,AZ,NA,NA,26.169590643274855
85308,Maricopa County,AZ,NA,NA,35.526315789473685
85344,La Paz County,AZ,NA,36.94656488549619,NA
85345,Maricopa County,AZ,NA,10.381679389312977,36.25730994152047
85353,Maricopa County,AZ,35.54987212276215,NA,NA
85364,Yuma County,AZ,NA,NA,4.093567251461988
85365,Yuma County,AZ,NA,18.931297709923665,NA
85373,Maricopa County,AZ,NA,NA,15.935672514619883
85374,Maricopa County,AZ,NA,NA,5.701754385964912
85378,Maricopa County,AZ,NA,NA,87.57309941520468
85392,Maricopa County,AZ,NA,53.43511450381679,NA
85541,Gila County,AZ,NA,43.05343511450382,NA
85602,Cochise County,AZ,NA,NA,59.06432748538012
85615,Cochise County,AZ,NA,NA,87.28070175438597
85629,Pima County,AZ,NA,64.27480916030535,NA
85705,Pima County,AZ,NA,NA,36.25730994152047
85706,Pima County,AZ,NA,NA,42.98245614035088
85710,Pima County,AZ,NA,14.656488549618322,NA
85714,Pima County,AZ,NA,62.29007633587786,71.6374269005848
85716,Pima County,AZ,NA,NA,77.3391812865497
85718,Pima County,AZ,NA,NA,16.666666666666664
85745,Pima County,AZ,NA,NA,29.82456140350877
85756,Pima County,AZ,NA,68.09160305343511,NA
85929,Navajo County,AZ,NA,NA,78.0701754385965
85937,Navajo County,AZ,NA,NA,97.22222222222221
86301,Yavapai County,AZ,NA,NA,14.619883040935672
86327,Yavapai County,AZ,NA,NA,43.27485380116959
72015,Saline County,AR,NA,34.50381679389313,NA
72114,Pulaski County,AR,NA,89.61832061068702,NA
72176,Lonoke County,AR,87.97953964194375,NA,NA
72315,Mississippi County,AR,78.51662404092072,NA,NA
72401,Craighead County,AR,NA,9.770992366412214,NA
72653,Baxter County,AR,NA,NA,8.04093567251462
72837,Pope County,AR,NA,92.36641221374046,NA
72956,Crawford County,AR,NA,29.16030534351145,NA
90008,Los Angeles County,CA,NA,NA,23.24561403508772
90013,Los Angeles County,CA,NA,90.38167938931298,NA
90022,Los Angeles County,CA,NA,NA,88.59649122807018
90028,Los Angeles County,CA,NA,NA,70.32163742690058
90035,Los Angeles County,CA,NA,38.47328244274809,NA
90038,Los Angeles County,CA,NA,NA,77.48538011695906
90040,Los Angeles County,CA,NA,NA,89.18128654970761
90043,Los Angeles County,CA,NA,NA,32.45614035087719
90044,Los Angeles County,CA,NA,16.18320610687023,NA
90047,Los Angeles County,CA,18.67007672634271,NA,NA
90048,Los Angeles County,CA,NA,NA,73.53801169590643
90057,Los Angeles County,CA,NA,23.358778625954198,NA
90059,Los Angeles County,CA,NA,60.30534351145038,NA
90061,Los Angeles County,CA,NA,NA,98.39181286549707
90062,Los Angeles County,CA,NA,NA,51.16959064327485
90065,Los Angeles County,CA,NA,NA,52.19298245614035
90066,Los Angeles County,CA,NA,NA,84.35672514619883
90069,Los Angeles County,CA,55.754475703324815,NA,NA
90201,Los Angeles County,CA,NA,74.19847328244275,NA
90220,Los Angeles County,CA,NA,NA,37.719298245614034
90248,Los Angeles County,CA,NA,NA,90.93567251461988
90254,Los Angeles County,CA,NA,NA,83.91812865497076
90266,Los Angeles County,CA,NA,NA,59.7953216374269
90277,Los Angeles County,CA,NA,33.587786259541986,NA
90302,Los Angeles County,CA,NA,82.74809160305342,NA
90606,Los Angeles County,CA,NA,NA,44.29824561403509
90620,Orange County,CA,NA,NA,24.269005847953213
90638,Los Angeles County,CA,NA,39.23664122137404,NA
90716,Los Angeles County,CA,95.9079283887468,NA,NA
90731,Los Angeles County,CA,NA,26.717557251908396,NA
90745,Los Angeles County,CA,42.710997442455245,NA,NA
90808,Los Angeles County,CA,NA,44.58015267175573,NA
91001,Los Angeles County,CA,NA,NA,39.91228070175439
91007,Los Angeles County,CA,NA,NA,86.69590643274854
91321,Los Angeles County,CA,NA,NA,90.49707602339181
91354,Los Angeles County,CA,NA,82.59541984732824,NA
91355,Los Angeles County,CA,NA,NA,93.12865497076024
91356,Los Angeles County,CA,NA,NA,21.34502923976608
91360,Ventura County,CA,NA,81.83206106870229,NA
91387,Los Angeles County,CA,48.59335038363171,93.43511450381679,NA
91402,Los Angeles County,CA,NA,NA,28.362573099415204
91423,Los Angeles County,CA,NA,NA,76.46198830409357
91701,San Bernardino County,CA,NA,99.54198473282443,NA
91702,Los Angeles County,CA,NA,45.80152671755725,NA
91730,San Bernardino County,CA,NA,NA,80.26315789473685
91750,Los Angeles County,CA,NA,43.81679389312977,NA
91762,San Bernardino County,CA,NA,50.38167938931297,48.24561403508772
91763,San Bernardino County,CA,NA,75.26717557251908,55.99415204678363
91770,Los Angeles County,CA,NA,NA,12.719298245614036
91776,Los Angeles County,CA,95.14066496163683,NA,50
91786,San Bernardino County,CA,NA,NA,40.643274853801174
91790,Los Angeles County,CA,NA,NA,92.98245614035088
91901,San Diego County,CA,NA,NA,93.71345029239765
91977,San Diego County,CA,38.87468030690537,NA,NA
92025,San Diego County,CA,NA,58.01526717557252,NA
92029,San Diego County,CA,NA,NA,64.47368421052632
92071,San Diego County,CA,NA,40.458015267175576,NA
92103,San Diego County,CA,50.63938618925832,NA,NA
92107,San Diego County,CA,NA,73.58778625954199,NA
92114,San Diego County,CA,NA,67.63358778625954,NA
92123,San Diego County,CA,NA,46.56488549618321,NA
92128,San Diego County,CA,NA,NA,8.771929824561402
92154,San Diego County,CA,NA,NA,11.549707602339181
92211,Riverside County,CA,68.28644501278772,NA,NA
92231,Imperial County,CA,65.47314578005115,NA,NA
92314,San Bernardino County,CA,NA,NA,85.67251461988305
92345,San Bernardino County,CA,NA,12.977099236641221,NA
92376,San Bernardino County,CA,NA,14.198473282442748,NA
92404,San Bernardino County,CA,NA,83.20610687022901,NA
92411,San Bernardino County,CA,NA,43.358778625954194,NA
92503,Riverside County,CA,23.52941176470588,NA,NA
92544,Riverside County,CA,NA,NA,54.824561403508774
92555,Riverside County,CA,NA,90.53435114503817,NA
92582,Riverside County,CA,90.7928388746803,NA,NA
92586,Riverside County,CA,NA,48.70229007633588,20.906432748538013
92629,Orange County,CA,98.20971867007673,NA,NA
92646,Orange County,CA,NA,NA,6.871345029239766
92651,Orange County,CA,NA,NA,32.30994152046784
92807,Orange County,CA,NA,NA,41.95906432748538
92844,Orange County,CA,NA,93.12977099236642,NA
92845,Orange County,CA,NA,NA,60.96491228070175
92860,Riverside County,CA,NA,70.07633587786259,NA
92870,Orange County,CA,NA,23.053435114503817,NA
92886,Orange County,CA,NA,15.419847328244273,NA
93003,Ventura County,CA,NA,NA,75.58479532163743
93021,Ventura County,CA,NA,53.89312977099237,NA
93033,Ventura County,CA,NA,8.549618320610687,NA
93245,Kings County,CA,NA,NA,91.81286549707602
93257,Tulare County,CA,NA,NA,19.883040935672515
93401,San Luis Obispo County,CA,NA,57.55725190839694,NA
93534,Los Angeles County,CA,NA,NA,58.62573099415205
93610,Madera County,CA,NA,NA,89.91228070175438
93619,Fresno County,CA,NA,NA,53.07017543859649
94043,Santa Clara County,CA,72.37851662404093,NA,NA
94062,San Mateo County,CA,NA,NA,45.17543859649123
94116,San Francisco County,CA,NA,NA,9.210526315789473
94122,San Francisco County,CA,NA,NA,31.28654970760234
94134,San Francisco County,CA,NA,80.91603053435115,NA
94526,Contra Costa County,CA,NA,52.519083969465655,NA
94531,Contra Costa County,CA,79.02813299232737,NA,NA
94533,Solano County,CA,NA,NA,11.11111111111111
94544,Alameda County,CA,NA,11.297709923664122,NA
94551,Alameda County,CA,NA,58.01526717557252,NA
94565,Contra Costa County,CA,NA,5.801526717557252,NA
94566,Alameda County,CA,NA,NA,46.198830409356724
94583,Contra Costa County,CA,NA,NA,62.71929824561403
94587,Alameda County,CA,NA,20.763358778625953,11.695906432748536
94607,Alameda County,CA,NA,80.45801526717557,NA
94610,Alameda County,CA,NA,91.29770992366413,NA
94621,Alameda County,CA,34.78260869565217,NA,NA
94703,Alameda County,CA,NA,NA,81.14035087719299
94903,Marin County,CA,NA,NA,9.502923976608187
95014,Santa Clara County,CA,NA,NA,19.15204678362573
95060,Santa Cruz County,CA,NA,52.213740458015266,NA
95111,Santa Clara County,CA,NA,NA,69.73684210526315
95125,Santa Clara County,CA,NA,19.84732824427481,23.976608187134502
95132,Santa Clara County,CA,75.44757033248082,NA,NA
95135,Santa Clara County,CA,NA,NA,47.368421052631575
95204,San Joaquin County,CA,80.81841432225065,NA,NA
95207,San Joaquin County,CA,NA,29.770992366412212,NA
95220,San Joaquin County,CA,94.62915601023018,NA,NA
95252,Calaveras County,CA,NA,71.90839694656489,NA
95307,Stanislaus County,CA,NA,48.091603053435115,NA
95337,San Joaquin County,CA,NA,NA,64.32748538011695
95341,Merced County,CA,81.58567774936061,NA,NA
95354,Stanislaus County,CA,NA,61.221374045801525,NA
95370,Tuolumne County,CA,82.86445012787725,NA,NA
95404,Sonoma County,CA,NA,NA,20.321637426900587
95409,Sonoma County,CA,NA,NA,45.46783625730994
95422,Lake County,CA,NA,56.48854961832062,NA
95423,Lake County,CA,NA,NA,77.19298245614034
95470,Mendocino County,CA,96.9309462915601,NA,NA
95608,Sacramento County,CA,NA,NA,7.017543859649122
95648,Placer County,CA,NA,80.1526717557252,NA
95687,Solano County,CA,NA,NA,20.614035087719298
95691,Yolo County,CA,88.49104859335038,NA,NA
95826,Sacramento County,CA,NA,85.34351145038168,NA
95833,Sacramento County,CA,83.37595907928389,NA,NA
95835,Sacramento County,CA,NA,72.51908396946564,NA
95901,Yuba County,CA,NA,54.80916030534351,NA
95954,Butte County,CA,NA,36.79389312977099,NA
95966,Butte County,CA,12.27621483375959,NA,NA
96080,Tehama County,CA,NA,26.259541984732827,40.93567251461988
96097,Siskiyou County,CA,NA,61.832061068702295,NA
80010,Arapahoe County,CO,22.506393861892583,NA,NA
80014,Arapahoe County,CO,NA,26.412213740458014,NA
80030,Adams County,CO,NA,NA,82.45614035087719
80108,Douglas County,CO,52.685421994884905,NA,NA
80214,Jefferson County,CO,71.61125319693095,NA,NA
80227,Jefferson County,CO,60.10230179028133,NA,NA
80241,Adams County,CO,57.54475703324808,NA,NA
80260,Adams County,CO,NA,NA,63.59649122807017
80302,Boulder County,CO,NA,73.12977099236642,NA
80401,Jefferson County,CO,40.66496163682864,NA,NA
80504,Boulder County,CO,NA,24.274809160305345,NA
80631,Weld County,CO,10.230179028132993,25.49618320610687,NA
80831,El Paso County,CO,68.03069053708441,NA,NA
81001,Pueblo County,CO,NA,NA,51.60818713450293
81005,Pueblo County,CO,NA,63.05343511450382,NA
06033,Hartford County,CT,59.846547314578004,NA,NA
06066,Tolland County,CT,NA,NA,18.421052631578945
06067,Hartford County,CT,NA,68.54961832061068,NA
06074,Hartford County,CT,NA,NA,25.292397660818715
06105,Hartford County,CT,NA,NA,52.19298245614035
06118,Hartford County,CT,NA,NA,36.69590643274854
06234,Windham County,CT,NA,NA,77.77777777777779
06415,New London County,CT,79.28388746803068,NA,NA
06437,New Haven County,CT,97.69820971867009,NA,NA
06447,Hartford County,CT,NA,94.19847328244275,NA
06484,Fairfield County,CT,39.38618925831202,NA,NA
06489,Hartford County,CT,NA,15.267175572519085,NA
06511,New Haven County,CT,NA,NA,43.859649122807014
06512,New Haven County,CT,NA,21.679389312977097,NA
06515,New Haven County,CT,NA,74.65648854961832,NA
06614,Fairfield County,CT,NA,34.35114503816794,NA
06710,New Haven County,CT,NA,NA,96.49122807017544
06851,Fairfield County,CT,NA,82.90076335877863,NA
06854,Fairfield County,CT,NA,NA,59.64912280701754
06880,Fairfield County,CT,NA,NA,55.26315789473685
19713,New Castle County,DE,64.19437340153452,NA,NA
19720,New Castle County,DE,3.580562659846547,NA,NA
19802,New Castle County,DE,NA,22.900763358778626,NA
19901,Kent County,DE,NA,58.93129770992367,NA
19940,Sussex County,DE,NA,91.14503816793894,NA
19958,Sussex County,DE,66.24040920716112,NA,NA
19963,Sussex County,DE,38.107416879795394,NA,NA
19966,Sussex County,DE,29.66751918158568,NA,NA
19970,Sussex County,DE,NA,62.74809160305344,NA
19977,Kent County,DE,NA,NA,43.567251461988306
32034,Nassau County,FL,NA,NA,14.473684210526317
32084,St. Johns County,FL,NA,28.396946564885496,NA
32086,St. Johns County,FL,NA,NA,10.526315789473683
32091,Bradford County,FL,NA,NA,84.64912280701753
32097,Nassau County,FL,59.33503836317136,NA,94.15204678362574
32117,Volusia County,FL,NA,56.33587786259542,NA
32204,Duval County,FL,NA,NA,73.83040935672514
32209,Duval County,FL,NA,50.68702290076336,NA
32216,Duval County,FL,NA,NA,76.60818713450293
32217,Duval County,FL,89.769820971867,NA,NA
32219,Duval County,FL,49.10485933503836,NA,NA
32224,Duval County,FL,NA,NA,33.187134502923975
32225,Duval County,FL,NA,13.587786259541984,NA
32246,Duval County,FL,NA,22.137404580152673,NA
32250,Duval County,FL,NA,NA,27.485380116959064
32259,St. Johns County,FL,NA,NA,47.22222222222222
32303,Leon County,FL,NA,NA,51.31578947368421
32304,Leon County,FL,NA,90.99236641221374,NA
32347,Taylor County,FL,NA,86.56488549618321,NA
32351,Gadsden County,FL,NA,89.31297709923665,NA
32439,Walton County,FL,NA,NA,87.71929824561403
32526,Escambia County,FL,NA,40.30534351145038,7.163742690058479
32547,Okaloosa County,FL,45.52429667519181,NA,NA
32550,Walton County,FL,NA,58.778625954198475,NA
32569,Okaloosa County,FL,88.23529411764706,NA,NA
32669,Alachua County,FL,NA,NA,76.75438596491229
32703,Orange County,FL,28.388746803069054,16.48854961832061,NA
32708,Seminole County,FL,NA,NA,22.36842105263158
32724,Volusia County,FL,NA,63.05343511450382,NA
32732,Seminole County,FL,NA,97.70992366412213,NA
32792,Orange County,FL,NA,81.06870229007633,18.859649122807017
32805,Orange County,FL,NA,NA,61.111111111111114
32811,Orange County,FL,NA,44.42748091603053,NA
32812,Orange County,FL,NA,NA,21.637426900584796
32818,Orange County,FL,19.69309462915601,NA,NA
32828,Orange County,FL,NA,NA,63.59649122807017
32951,Brevard County,FL,NA,85.95419847328245,NA
33012,Miami-Dade County,FL,47.05882352941176,NA,NA
33013,Miami-Dade County,FL,70.58823529411765,NA,NA
33030,Miami-Dade County,FL,NA,94.9618320610687,NA
33031,Miami-Dade County,FL,98.9769820971867,NA,NA
33040,Monroe County,FL,NA,NA,58.91812865497076
33063,Broward County,FL,NA,29.465648854961835,43.12865497076023
33064,Broward County,FL,NA,15.725190839694655,44.29824561403509
33070,Monroe County,FL,99.48849104859335,NA,NA
33134,Miami-Dade County,FL,NA,58.473282442748086,NA
33140,Miami-Dade County,FL,77.49360613810742,NA,NA
33142,Miami-Dade County,FL,NA,18.778625954198475,NA
33157,Miami-Dade County,FL,38.61892583120204,NA,NA
33161,Miami-Dade County,FL,NA,81.22137404580153,NA
33165,Miami-Dade County,FL,NA,NA,73.24561403508771
33174,Miami-Dade County,FL,91.30434782608695,NA,NA
33179,Miami-Dade County,FL,NA,NA,40.35087719298245
33180,Miami-Dade County,FL,NA,NA,12.134502923976607
33186,Miami-Dade County,FL,NA,NA,24.561403508771928
33187,Miami-Dade County,FL,NA,NA,90.05847953216374
33308,Broward County,FL,NA,NA,3.9473684210526314
33311,Broward County,FL,32.22506393861892,19.236641221374047,NA
33316,Broward County,FL,NA,NA,74.85380116959064
33317,Broward County,FL,NA,47.32824427480916,NA
33321,Broward County,FL,NA,NA,26.75438596491228
33404,Palm Beach County,FL,NA,49.16030534351145,NA
33409,Palm Beach County,FL,65.98465473145781,NA,NA
33412,Palm Beach County,FL,NA,83.05343511450381,NA
33437,Palm Beach County,FL,NA,NA,0.43859649122807015
33460,Palm Beach County,FL,NA,65.19083969465649,NA
33462,Palm Beach County,FL,NA,76.79389312977099,NA
33470,Palm Beach County,FL,NA,NA,80.11695906432749
33496,Palm Beach County,FL,NA,NA,90.35087719298247
33541,Pasco County,FL,NA,37.25190839694656,NA
33547,Hillsborough County,FL,NA,NA,64.91228070175438
33565,Hillsborough County,FL,NA,NA,83.77192982456141
33579,Hillsborough County,FL,90.28132992327366,NA,NA
33604,Hillsborough County,FL,NA,NA,45.90643274853801
33612,Hillsborough County,FL,NA,NA,69.5906432748538
33613,Hillsborough County,FL,NA,53.282442748091604,NA
33617,Hillsborough County,FL,36.57289002557545,NA,48.9766081871345
33706,Pinellas County,FL,NA,72.36641221374046,NA
33708,Pinellas County,FL,NA,NA,95.02923976608187
33770,Pinellas County,FL,NA,NA,44.73684210526316
33773,Pinellas County,FL,67.51918158567774,NA,NA
33805,Polk County,FL,43.22250639386189,NA,NA
33815,Polk County,FL,NA,NA,82.89473684210526
33830,Polk County,FL,NA,47.02290076335878,NA
33852,Highlands County,FL,NA,18.16793893129771,NA
33884,Polk County,FL,NA,NA,26.608187134502927
33907,Lee County,FL,NA,NA,52.046783625730995
33909,Lee County,FL,NA,46.412213740458014,NA
33919,Lee County,FL,NA,50.53435114503817,NA
33952,Charlotte County,FL,NA,NA,64.61988304093568
33980,Charlotte County,FL,92.8388746803069,NA,NA
34113,Collier County,FL,NA,NA,35.8187134502924
34203,Manatee County,FL,NA,19.389312977099237,NA
34207,Manatee County,FL,NA,60.61068702290077,NA
34211,Manatee County,FL,NA,NA,76.90058479532163
34219,Manatee County,FL,NA,NA,67.83625730994152
34221,Manatee County,FL,NA,27.938931297709924,NA
34229,Sarasota County,FL,NA,NA,32.89473684210527
34242,Sarasota County,FL,NA,84.12213740458016,NA
34288,Sarasota County,FL,NA,78.47328244274809,NA
34446,Citrus County,FL,NA,62.44274809160305,NA
34471,Marion County,FL,NA,NA,86.54970760233918
34472,Marion County,FL,NA,57.25190839694656,NA
34481,Marion County,FL,NA,NA,9.7953216374269
34488,Marion County,FL,71.0997442455243,NA,NA
34652,Pasco County,FL,44.24552429667519,NA,NA
34667,Pasco County,FL,NA,27.175572519083968,NA
34746,Osceola County,FL,NA,49.46564885496183,NA
34788,Lake County,FL,NA,NA,30.263157894736842
34953,St. Lucie County,FL,7.161125319693094,NA,17.690058479532166
30004,Fulton County,GA,NA,73.43511450381679,NA
30017,Gwinnett County,GA,65.21739130434783,NA,NA
30030,DeKalb County,GA,NA,NA,75.29239766081871
30032,DeKalb County,GA,NA,NA,20.46783625730994
30052,Walton County,GA,NA,NA,58.187134502923975
30083,DeKalb County,GA,NA,33.2824427480916,NA
30088,DeKalb County,GA,NA,65.0381679389313,NA
30094,Rockdale County,GA,NA,32.213740458015266,NA
30097,Fulton County,GA,NA,59.23664122137404,41.228070175438596
30101,Cobb County,GA,NA,NA,39.32748538011696
30117,Carroll County,GA,36.0613810741688,NA,NA
30126,Cobb County,GA,NA,67.78625954198473,59.356725146198826
30127,Cobb County,GA,21.73913043478261,NA,NA
30147,Floyd County,GA,NA,99.38931297709924,NA
30157,Paulding County,GA,NA,NA,45.32163742690059
30187,Douglas County,GA,NA,NA,92.83625730994152
30223,Spalding County,GA,41.17647058823529,NA,30.701754385964914
30224,Spalding County,GA,NA,54.351145038167935,NA
30228,Henry County,GA,33.248081841432224,NA,NA
30238,Clayton County,GA,NA,63.81679389312978,NA
30276,Coweta County,GA,NA,97.55725190839695,NA
30281,Henry County,GA,NA,75.41984732824427,43.42105263157895
30291,Fulton County,GA,NA,72.82442748091603,86.8421052631579
30294,DeKalb County,GA,71.35549872122762,NA,NA
30311,Fulton County,GA,NA,NA,50.43859649122807
30312,Fulton County,GA,NA,56.18320610687023,NA
30313,Fulton County,GA,94.8849104859335,NA,NA
30318,Fulton County,GA,89.00255754475704,NA,NA
30328,Fulton County,GA,NA,NA,31.725146198830412
30331,Fulton County,GA,NA,7.022900763358779,NA
30415,Bulloch County,GA,83.88746803069054,NA,NA
30507,Hall County,GA,NA,NA,89.47368421052632
30528,White County,GA,54.73145780051151,NA,NA
30533,Lumpkin County,GA,NA,NA,54.385964912280706
30542,Hall County,GA,NA,41.98473282442748,NA
30549,Jackson County,GA,NA,58.3206106870229,NA
30643,Hart County,GA,NA,NA,83.62573099415205
30655,Walton County,GA,NA,NA,80.26315789473685
30656,Walton County,GA,NA,95.41984732824427,NA
30680,Barrow County,GA,25.063938618925828,NA,NA
30721,Whitfield County,GA,NA,46.717557251908396,NA
30736,Catoosa County,GA,13.554987212276215,NA,NA
30904,Richmond County,GA,NA,17.557251908396946,NA
31008,Peach County,GA,NA,61.37404580152672,NA
31015,Crisp County,GA,NA,NA,50.14619883040936
31032,Jones County,GA,83.63171355498721,NA,NA
31055,Telfair County,GA,98.46547314578005,NA,NA
31061,Baldwin County,GA,NA,28.702290076335878,NA
31088,Houston County,GA,NA,NA,15.058479532163743
31204,Bibb County,GA,NA,NA,37.42690058479532
31211,Bibb County,GA,NA,85.0381679389313,NA
31216,Bibb County,GA,NA,NA,72.80701754385966
31316,Long County,GA,NA,NA,93.85964912280701
31404,Chatham County,GA,54.47570332480819,NA,NA
31406,Chatham County,GA,NA,29.61832061068702,NA
31510,Bacon County,GA,NA,78.62595419847328,NA
31537,Charlton County,GA,NA,81.98473282442748,NA
31639,Berrien County,GA,NA,NA,61.111111111111114
31707,Dougherty County,GA,NA,93.2824427480916,NA
31750,Ben Hill County,GA,NA,NA,52.19298245614035
39845,Seminole County,GA,NA,84.42748091603053,NA
96707,Honolulu County,HI,NA,32.06106870229007,NA
96732,Maui County,HI,NA,NA,72.36842105263158
96744,Honolulu County,HI,23.785166240409207,NA,NA
96753,Maui County,HI,NA,NA,86.8421052631579
96761,Maui County,HI,NA,NA,95.90643274853801
96778,Hawaii County,HI,88.7468030690537,NA,NA
96817,Honolulu County,HI,43.73401534526854,NA,NA
96818,Honolulu County,HI,NA,NA,31.871345029239766
83301,Twin Falls County,ID,NA,0.45801526717557256,0.29239766081871343
83318,Cassia County,ID,NA,49.31297709923664,NA
83704,Ada County,ID,NA,23.51145038167939,NA
60002,Lake County,IL,NA,35.11450381679389,NA
60005,Cook County,IL,NA,NA,94.00584795321637
60018,Cook County,IL,NA,NA,41.37426900584795
60031,Lake County,IL,NA,61.98473282442748,NA
60061,Lake County,IL,NA,82.44274809160305,NA
60068,Cook County,IL,NA,NA,17.83625730994152
60076,Cook County,IL,NA,NA,14.181286549707602
60123,Kane County,IL,26.854219948849106,NA,NA
60124,Kane County,IL,NA,29.312977099236644,NA
60135,DeKalb County,IL,NA,83.51145038167938,NA
60137,DuPage County,IL,NA,69.92366412213741,NA
60152,McHenry County,IL,NA,57.099236641221374,NA
60155,Cook County,IL,NA,NA,69.15204678362574
60304,Cook County,IL,NA,NA,68.27485380116958
60416,Grundy County,IL,62.14833759590793,NA,NA
60422,Cook County,IL,NA,48.54961832061069,NA
60430,Cook County,IL,NA,NA,42.10526315789473
60448,Will County,IL,NA,NA,76.16959064327486
60450,Grundy County,IL,NA,NA,70.02923976608187
60453,Cook County,IL,16.879795396419436,7.175572519083969,NA
60455,Cook County,IL,NA,97.25190839694656,NA
60461,Cook County,IL,NA,NA,68.56725146198829
60481,Will County,IL,67.26342710997443,NA,NA
60487,Cook County,IL,NA,88.70229007633587,NA
60510,Kane County,IL,NA,81.37404580152672,NA
60515,DuPage County,IL,NA,NA,20.906432748538013
60523,DuPage County,IL,NA,NA,39.61988304093567
60544,Will County,IL,NA,24.12213740458015,NA
60546,Cook County,IL,NA,77.09923664122137,NA
60609,Cook County,IL,NA,NA,17.105263157894736
60614,Cook County,IL,NA,14.50381679389313,NA
60617,Cook County,IL,NA,NA,2.1929824561403506
60619,Cook County,IL,7.928388746803069,NA,1.461988304093567
60620,Cook County,IL,NA,23.206106870229007,NA
60623,Cook County,IL,9.718670076726342,NA,NA
60628,Cook County,IL,NA,3.0534351145038165,NA
60629,Cook County,IL,NA,3.5114503816793894,40.058479532163744
60630,Cook County,IL,NA,11.145038167938932,NA
60638,Cook County,IL,NA,6.106870229007633,NA
60640,Cook County,IL,NA,37.55725190839695,NA
60643,Cook County,IL,10.741687979539643,NA,NA
60644,Cook County,IL,34.271099744245525,NA,NA
60645,Cook County,IL,NA,20.15267175572519,NA
60646,Cook County,IL,NA,NA,95.76023391812866
60647,Cook County,IL,9.974424552429667,NA,NA
60655,Cook County,IL,NA,32.82442748091603,NA
60656,Cook County,IL,NA,NA,71.49122807017544
60659,Cook County,IL,NA,NA,41.66666666666667
60804,Cook County,IL,54.21994884910486,NA,NA
60942,Vermilion County,IL,NA,65.49618320610688,NA
60954,Kankakee County,IL,NA,88.3969465648855,NA
61021,Lee County,IL,NA,NA,2.923976608187134
61081,Whiteside County,IL,NA,NA,3.508771929824561
61265,Rock Island County,IL,NA,NA,45.02923976608187
61301,LaSalle County,IL,NA,68.70229007633588,NA
61701,McLean County,IL,34.52685421994885,NA,NA
61704,McLean County,IL,NA,78.16793893129771,NA
61821,Champaign County,IL,NA,50.839694656488554,NA
61846,Vermilion County,IL,NA,78.77862595419847,NA
61920,Coles County,IL,80.30690537084399,NA,NA
62220,St. Clair County,IL,NA,73.89312977099237,NA
62526,Macon County,IL,NA,NA,27.192982456140353
62704,Sangamon County,IL,NA,30.53435114503817,NA
62801,Marion County,IL,NA,NA,32.60233918128655
62906,Union County,IL,NA,77.55725190839695,NA
46016,Madison County,IN,NA,30.99236641221374,NA
46037,Hamilton County,IN,NA,NA,61.40350877192983
46074,Hamilton County,IN,NA,NA,62.57309941520468
46112,Hendricks County,IN,NA,NA,29.97076023391813
46158,Morgan County,IN,NA,NA,19.736842105263158
46203,Marion County,IN,11.253196930946292,NA,NA
46217,Marion County,IN,NA,NA,94.44444444444444
46218,Marion County,IN,11.508951406649617,NA,NA
46219,Marion County,IN,NA,NA,10.526315789473683
46224,Marion County,IN,NA,NA,38.88888888888889
46226,Marion County,IN,NA,13.129770992366414,NA
46228,Marion County,IN,93.60613810741688,NA,NA
46229,Marion County,IN,NA,34.65648854961832,NA
46231,Marion County,IN,NA,96.03053435114504,NA
46237,Marion County,IN,NA,NA,12.426900584795321
46268,Marion County,IN,48.33759590792839,NA,NA
46307,Lake County,IN,NA,NA,2.7777777777777777
46320,Lake County,IN,37.59590792838875,NA,NA
46373,Lake County,IN,NA,38.93129770992366,NA
46404,Lake County,IN,NA,NA,46.92982456140351
46405,Lake County,IN,NA,51.45038167938931,NA
46514,Elkhart County,IN,NA,20.916030534351147,NA
46561,St. Joseph County,IN,NA,91.45038167938931,NA
46706,DeKalb County,IN,NA,47.786259541984734,NA
46808,Allen County,IN,NA,66.10687022900763,NA
46952,Grant County,IN,NA,4.885496183206107,NA
47043,Switzerland County,IN,NA,98.62595419847328,NA
47122,Floyd County,IN,NA,92.82442748091603,NA
47129,Clark County,IN,NA,NA,57.748538011695906
47150,Floyd County,IN,NA,NA,20.175438596491226
47167,Washington County,IN,NA,NA,59.210526315789465
47331,Fayette County,IN,NA,70.53435114503816,36.54970760233918
47371,Jay County,IN,NA,32.51908396946565,NA
47460,Owen County,IN,NA,77.25190839694656,NA
47586,Perry County,IN,NA,74.04580152671755,NA
47711,Vanderburgh County,IN,NA,27.633587786259543,NA
47804,Vigo County,IN,NA,75.57251908396947,NA
47909,Tippecanoe County,IN,NA,NA,37.13450292397661
50021,Polk County,IA,NA,NA,88.88888888888889
50023,Polk County,IA,NA,NA,74.41520467836257
50313,Polk County,IA,NA,69.77099236641222,NA
50314,Polk County,IA,49.61636828644501,NA,95.46783625730994
50315,Polk County,IA,36.31713554987212,NA,NA
51031,Plymouth County,IA,NA,55.57251908396946,NA
51106,Woodbury County,IA,NA,51.14503816793893,NA
51501,Pottawattamie County,IA,4.603580562659847,NA,NA
51503,Pottawattamie County,IA,NA,3.3587786259541987,NA
52240,Johnson County,IA,26.598465473145783,NA,24.561403508771928
52246,Johnson County,IA,NA,NA,31.57894736842105
52302,Linn County,IA,26.854219948849106,NA,NA
52317,Johnson County,IA,53.96419437340153,NA,NA
52501,Wapello County,IA,NA,30.68702290076336,NA
52601,Des Moines County,IA,NA,NA,10.818713450292398
52761,Muscatine County,IA,NA,NA,22.514619883040936
66002,Atchison County,KS,73.40153452685422,NA,NA
66048,Leavenworth County,KS,NA,NA,33.91812865497076
66216,Johnson County,KS,NA,NA,77.046783625731
66611,Shawnee County,KS,NA,NA,65.93567251461988
66762,Crawford County,KS,66.49616368286445,NA,NA
67156,Cowley County,KS,92.07161125319693,NA,NA
67206,Sedgwick County,KS,NA,NA,74.41520467836257
67401,Saline County,KS,NA,NA,16.52046783625731
67665,Russell County,KS,NA,NA,69.00584795321637
67801,Ford County,KS,NA,NA,72.6608187134503
40160,Hardin County,KY,NA,84.27480916030534,NA
40175,Hardin County,KY,NA,71.7557251908397,NA
40211,Jefferson County,KY,15.856777493606138,74.80916030534351,NA
40220,Jefferson County,KY,42.19948849104859,NA,NA
40258,Jefferson County,KY,NA,40.61068702290076,NA
40291,Jefferson County,KY,NA,16.030534351145036,NA
40356,Jessamine County,KY,NA,23.51145038167939,NA
40403,Madison County,KY,NA,42.13740458015267,NA
40740,Laurel County,KY,NA,99.08396946564886,NA
40741,Laurel County,KY,27.621483375959077,NA,NA
40962,Clay County,KY,21.994884910485936,NA,NA
41042,Boone County,KY,NA,NA,3.8011695906432745
41051,Kenton County,KY,40.92071611253197,NA,NA
41071,Campbell County,KY,NA,35.26717557251908,NA
41102,Boyd County,KY,26.08695652173913,NA,NA
41143,Carter County,KY,NA,51.908396946564885,NA
41240,Johnson County,KY,59.07928388746802,NA,NA
41858,Letcher County,KY,NA,NA,57.30994152046783
42101,Warren County,KY,8.951406649616368,NA,NA
42167,Monroe County,KY,NA,NA,87.13450292397661
42210,Edmonson County,KY,NA,NA,92.54385964912281
42211,Trigg County,KY,NA,NA,50.58479532163743
42240,Christian County,KY,8.184143222506394,12.67175572519084,21.929824561403507
42330,Muhlenberg County,KY,NA,NA,99.56140350877193
42431,Hopkins County,KY,NA,27.938931297709924,NA
42653,McCreary County,KY,NA,96.79389312977099,NA
42754,Grayson County,KY,NA,41.06870229007634,NA
70003,Jefferson Parish,LA,NA,NA,3.216374269005848
70037,Plaquemines Parish,LA,98.72122762148338,NA,NA
70068,St. John the Baptist Parish,LA,NA,NA,62.28070175438597
70126,Orleans Parish,LA,NA,NA,17.543859649122805
70301,Lafourche Parish,LA,NA,7.480916030534352,NA
70403,Tangipahoa Parish,LA,NA,30.076335877862597,NA
70427,Washington Parish,LA,NA,21.984732824427482,NA
70431,St. Tammany Parish,LA,73.1457800511509,NA,NA
70435,St. Tammany Parish,LA,NA,15.572519083969466,NA
70461,St. Tammany Parish,LA,NA,NA,42.251461988304094
70501,Lafayette Parish,LA,2.557544757033248,NA,NA
70510,Vermilion Parish,LA,12.531969309462914,NA,NA
70535,St. Landry Parish,LA,NA,NA,28.21637426900585
70601,Calcasieu Parish,LA,NA,NA,25.438596491228072
70605,Calcasieu Parish,LA,20.971867007672635,NA,NA
70744,Livingston Parish,LA,82.35294117647058,NA,NA
70767,West Baton Rouge Parish,LA,NA,71.90839694656489,NA
71106,Caddo Parish,LA,NA,11.450381679389313,NA
71108,Caddo Parish,LA,NA,NA,72.22222222222221
71111,Bossier Parish,LA,NA,NA,30.116959064327485
71112,Bossier Parish,LA,NA,NA,32.01754385964912
71118,Caddo Parish,LA,NA,25.34351145038168,NA
71202,Ouachita Parish,LA,NA,28.24427480916031,46.783625730994146
71409,Rapides Parish,LA,NA,NA,98.09941520467837
71446,Vernon Parish,LA,13.043478260869565,NA,NA
04005,York County,ME,NA,3.816793893129771,NA
04274,Androscoggin County,ME,92.32736572890026,NA,NA
04281,Oxford County,ME,NA,NA,87.42690058479532
04426,Piscataquis County,ME,NA,85.80152671755725,NA
04605,Hancock County,ME,NA,NA,18.27485380116959
04976,Somerset County,ME,NA,NA,15.350877192982457
20613,Prince George's County,MD,NA,89.00763358778626,NA
20646,Charles County,MD,NA,NA,72.953216374269
20748,Prince George's County,MD,46.29156010230179,NA,NA
20772,Prince George's County,MD,NA,NA,81.87134502923976
20774,Prince George's County,MD,85.93350383631714,43.66412213740458,NA
20878,Montgomery County,MD,NA,NA,66.95906432748538
20906,Montgomery County,MD,NA,NA,9.649122807017543
21014,Harford County,MD,NA,31.603053435114504,NA
21054,Anne Arundel County,MD,87.46803069053708,NA,NA
21074,Carroll County,MD,NA,NA,89.61988304093568
21201,Baltimore city,MD,NA,51.6030534351145,NA
21202,Baltimore city,MD,NA,NA,74.12280701754386
21214,Baltimore city,MD,NA,NA,56.28654970760234
21225,Baltimore city,MD,39.130434782608695,NA,NA
21227,Baltimore County,MD,NA,NA,29.093567251461987
21502,Allegany County,MD,NA,NA,5.847953216374268
21655,Caroline County,MD,NA,NA,98.68421052631578
21740,Washington County,MD,NA,NA,26.31578947368421
21853,Somerset County,MD,NA,NA,96.05263157894737
01020,Hampden County,MA,NA,9.618320610687023,NA
01027,Hampshire County,MA,NA,42.595419847328245,NA
01056,Hampden County,MA,NA,NA,60.672514619883046
01069,Hampden County,MA,NA,44.58015267175573,NA
01085,Hampden County,MA,1.5345268542199488,1.3740458015267176,NA
01119,Hampden County,MA,NA,49.00763358778626,NA
01129,Hampden County,MA,NA,100,NA
01151,Hampden County,MA,NA,NA,82.60233918128655
01201,Berkshire County,MA,NA,NA,1.023391812865497
01220,Berkshire County,MA,NA,41.832061068702295,NA
01301,Franklin County,MA,13.810741687979538,NA,NA
01570,Worcester County,MA,5.626598465473146,NA,NA
01604,Worcester County,MA,0.7672634271099744,NA,NA
01605,Worcester County,MA,NA,NA,0.5847953216374269
01606,Worcester County,MA,NA,NA,40.78947368421053
01752,Middlesex County,MA,NA,NA,26.46198830409357
01757,Worcester County,MA,NA,4.122137404580153,NA
01826,Middlesex County,MA,NA,1.984732824427481,NA
01832,Essex County,MA,4.859335038363171,NA,NA
01850,Middlesex County,MA,NA,NA,73.09941520467837
01852,Middlesex County,MA,NA,NA,69.2982456140351
01902,Essex County,MA,NA,NA,81.43274853801171
01952,Essex County,MA,NA,NA,51.02339181286549
02081,Norfolk County,MA,NA,NA,37.280701754385966
02116,Suffolk County,MA,NA,NA,13.88888888888889
02118,Suffolk County,MA,NA,18.015267175572518,NA
02121,Suffolk County,MA,NA,0.15267175572519084,NA
02122,Suffolk County,MA,1.278772378516624,NA,NA
02124,Suffolk County,MA,NA,NA,89.76608187134502
02126,Suffolk County,MA,51.91815856777494,NA,NA
02135,Suffolk County,MA,5.115089514066496,NA,NA
02141,Middlesex County,MA,NA,80.30534351145037,NA
02145,Middlesex County,MA,5.88235294117647,NA,NA
02148,Middlesex County,MA,NA,0,0.8771929824561403
02150,Suffolk County,MA,0,NA,NA
02151,Suffolk County,MA,57.289002557544755,43.969465648854964,NA
02169,Norfolk County,MA,NA,16.793893129770993,NA
02170,Norfolk County,MA,NA,NA,21.783625730994153
02302,Plymouth County,MA,NA,NA,80.7017543859649
02351,Plymouth County,MA,NA,23.969465648854964,NA
02370,Plymouth County,MA,NA,65.64885496183206,NA
02451,Middlesex County,MA,NA,96.94656488549617,NA
02459,Middlesex County,MA,NA,NA,9.064327485380117
02467,Norfolk County,MA,NA,NA,28.947368421052634
02476,Middlesex County,MA,NA,26.106870229007633,NA
02536,Barnstable County,MA,NA,12.213740458015266,NA
02664,Barnstable County,MA,57.033248081841435,NA,NA
02720,Bristol County,MA,3.0690537084398977,NA,NA
02721,Bristol County,MA,NA,NA,8.47953216374269
02740,Bristol County,MA,NA,NA,0.14619883040935672
02760,Bristol County,MA,NA,89.92366412213741,NA
02790,Bristol County,MA,26.342710997442452,NA,27.631578947368425
48017,Oakland County,MI,NA,NA,62.86549707602339
48044,Macomb County,MI,NA,4.2748091603053435,NA
48054,St. Clair County,MI,90.7928388746803,NA,NA
48060,St. Clair County,MI,4.092071611253197,NA,NA
48066,Macomb County,MI,NA,38.62595419847328,NA
48067,Oakland County,MI,40.40920716112532,NA,NA
48075,Oakland County,MI,NA,31.90839694656489,NA
48080,Macomb County,MI,NA,12.366412213740457,NA
48082,Macomb County,MI,NA,NA,22.076023391812864
48083,Oakland County,MI,NA,NA,34.7953216374269
48088,Macomb County,MI,NA,NA,17.39766081871345
48111,Wayne County,MI,NA,4.427480916030534,NA
48122,Wayne County,MI,NA,91.6030534351145,NA
48131,Monroe County,MI,NA,88.09160305343512,NA
48135,Wayne County,MI,28.13299232736573,NA,NA
48152,Wayne County,MI,NA,32.97709923664122,7.602339181286549
48154,Wayne County,MI,NA,NA,5.409356725146199
48162,Monroe County,MI,NA,2.595419847328244,NA
48164,Wayne County,MI,NA,75.57251908396947,NA
48169,Livingston County,MI,NA,30.38167938931298,NA
48183,Wayne County,MI,37.34015345268542,NA,NA
48185,Wayne County,MI,NA,5.038167938931298,NA
48189,Washtenaw County,MI,NA,NA,67.98245614035088
48192,Wayne County,MI,NA,32.51908396946565,NA
48195,Wayne County,MI,NA,NA,16.08187134502924
48203,Wayne County,MI,NA,20.458015267175572,NA
48209,Wayne County,MI,58.567774936061376,NA,NA
48210,Wayne County,MI,30.179028132992325,NA,NA
48214,Wayne County,MI,NA,25.0381679389313,70.02923976608187
48215,Wayne County,MI,NA,NA,70.76023391812866
48234,Wayne County,MI,NA,52.67175572519084,21.49122807017544
48235,Wayne County,MI,NA,2.4427480916030535,NA
48236,Wayne County,MI,33.50383631713555,NA,41.66666666666667
48237,Oakland County,MI,24.808184143222505,17.099236641221374,NA
48329,Oakland County,MI,NA,NA,22.807017543859647
48331,Oakland County,MI,87.7237851662404,NA,NA
48335,Oakland County,MI,NA,NA,33.47953216374269
48346,Oakland County,MI,NA,NA,72.07602339181285
48359,Oakland County,MI,NA,NA,93.27485380116958
48381,Oakland County,MI,NA,58.93129770992367,NA
48446,Lapeer County,MI,17.902813299232736,NA,NA
48450,Sanilac County,MI,NA,86.56488549618321,NA
48503,Genesee County,MI,21.483375959079286,NA,NA
48601,Saginaw County,MI,NA,92.97709923664122,NA
48604,Saginaw County,MI,NA,56.94656488549619,NA
48624,Gladwin County,MI,NA,17.404580152671755,19.5906432748538
48640,Midland County,MI,11.76470588235294,NA,NA
48823,Ingham County,MI,NA,NA,81.72514619883042
48864,Ingham County,MI,NA,48.2442748091603,NA
48867,Shiawassee County,MI,9.462915601023019,NA,NA
49002,Kalamazoo County,MI,78.77237851662404,NA,NA
49009,Kalamazoo County,MI,NA,6.7175572519083975,NA
49013,Van Buren County,MI,NA,NA,82.01754385964912
49024,Kalamazoo County,MI,NA,20.610687022900763,NA
49048,Kalamazoo County,MI,20.460358056265985,NA,NA
49076,Eaton County,MI,93.35038363171356,NA,NA
49093,St. Joseph County,MI,NA,NA,32.89473684210527
49112,Cass County,MI,89.25831202046037,NA,NA
49247,Lenawee County,MI,NA,NA,97.6608187134503
49404,Ottawa County,MI,NA,93.89312977099237,NA
49449,Oceana County,MI,NA,95.26717557251908,NA
49464,Ottawa County,MI,NA,NA,29.678362573099413
49508,Kent County,MI,NA,7.786259541984733,NA
49684,Grand Traverse County,MI,NA,NA,20.760233918128655
49746,Montmorency County,MI,NA,NA,92.2514619883041
49858,Menominee County,MI,76.98209718670077,NA,NA
55016,Washington County,MN,70.84398976982096,88.54961832061069,NA
55082,Washington County,MN,36.828644501278774,NA,NA
55104,Ramsey County,MN,NA,76.33587786259542,NA
55119,Ramsey County,MN,16.11253196930946,NA,NA
55128,Washington County,MN,NA,59.541984732824424,NA
55303,Anoka County,MN,NA,34.961832061068705,NA
55304,Anoka County,MN,NA,NA,62.13450292397661
55313,Wright County,MN,NA,NA,61.69590643274854
55358,Wright County,MN,NA,98.93129770992365,NA
55404,Hennepin County,MN,NA,2.1374045801526718,NA
55407,Hennepin County,MN,NA,NA,79.09356725146199
55418,Hennepin County,MN,NA,37.86259541984733,NA
55423,Hennepin County,MN,NA,NA,35.08771929824561
55426,Hennepin County,MN,NA,NA,36.98830409356725
55429,Hennepin County,MN,NA,NA,53.80116959064327
55432,Anoka County,MN,NA,NA,58.47953216374269
55448,Anoka County,MN,NA,63.358778625954194,NA
55806,St. Louis County,MN,NA,94.65648854961832,NA
55947,Houston County,MN,79.79539641943734,NA,NA
56143,Jackson County,MN,NA,98.3206106870229,NA
56329,Benton County,MN,NA,NA,100
56431,Aitkin County,MN,NA,NA,24.561403508771928
56560,Clay County,MN,NA,NA,1.1695906432748537
56701,Pennington County,MN,95.65217391304348,NA,NA
38614,Coahoma County,MS,NA,69.31297709923663,NA
38654,DeSoto County,MS,NA,NA,28.801169590643276
38668,Tate County,MS,NA,NA,91.95906432748538
38801,Lee County,MS,42.45524296675192,NA,NA
38834,Alcorn County,MS,NA,NA,34.06432748538012
38843,Itawamba County,MS,NA,NA,94.88304093567251
39170,Hinds County,MS,NA,NA,96.78362573099415
39455,Lamar County,MS,NA,NA,95.32163742690058
39479,Covington County,MS,NA,NA,86.40350877192982
39573,Stone County,MS,NA,85.19083969465649,NA
39648,Pike County,MS,NA,54.19847328244275,NA
63011,St. Louis County,MO,NA,NA,4.385964912280701
63017,St. Louis County,MO,NA,NA,2.631578947368421
63031,St. Louis County,MO,NA,10.229007633587786,53.50877192982456
63033,St. Louis County,MO,NA,12.061068702290076,NA
63043,St. Louis County,MO,NA,52.36641221374045,NA
63107,St. Louis city,MO,NA,NA,71.05263157894737
63116,St. Louis city,MO,37.59590792838875,NA,NA
63120,St. Louis city,MO,64.70588235294117,NA,NA
63135,St. Louis County,MO,NA,NA,59.50292397660819
63136,St. Louis County,MO,NA,8.854961832061068,NA
63146,St. Louis County,MO,NA,NA,6.140350877192982
63301,St. Charles County,MO,16.624040920716112,NA,3.3625730994152043
63366,St. Charles County,MO,NA,28.549618320610687,NA
64012,Cass County,MO,NA,65.34351145038167,NA
64014,Jackson County,MO,55.24296675191815,NA,NA
64078,Cass County,MO,NA,84.58015267175573,NA
64081,Jackson County,MO,NA,NA,39.32748538011696
64118,Clay County,MO,NA,5.4961832061068705,NA
64119,Clay County,MO,13.299232736572892,NA,NA
64126,Jackson County,MO,96.16368286445012,NA,NA
64131,Jackson County,MO,NA,35.725190839694655,NA
64134,Jackson County,MO,NA,NA,93.56725146198829
64429,Clinton County,MO,NA,NA,61.98830409356725
65336,Johnson County,MO,99.74424552429667,NA,NA
65556,Pulaski County,MO,NA,NA,99.70760233918129
65616,Taney County,MO,NA,34.80916030534351,NA
65775,Howell County,MO,NA,33.89312977099237,NA
59270,Richland County,MT,NA,NA,53.65497076023392
59923,Lincoln County,MT,62.9156010230179,NA,NA
59937,Flathead County,MT,NA,73.74045801526718,NA
68111,Douglas County,NE,NA,36.18320610687023,NA
68116,Douglas County,NE,NA,64.42748091603053,NA
68128,Sarpy County,NE,NA,NA,94.2982456140351
68131,Douglas County,NE,NA,NA,85.52631578947368
68310,Gage County,NE,NA,NA,14.327485380116958
68801,Hall County,NE,83.12020460358056,NA,NA
69101,Lincoln County,NE,NA,63.51145038167939,NA
89103,Clark County,NV,NA,NA,58.77192982456141
89106,Clark County,NV,NA,NA,70.6140350877193
89108,Clark County,NV,NA,41.6793893129771,NA
89110,Clark County,NV,68.79795396419436,NA,NA
89117,Clark County,NV,NA,38.16793893129771,NA
89123,Clark County,NV,NA,34.045801526717554,NA
89130,Clark County,NV,NA,92.51908396946565,NA
89134,Clark County,NV,NA,51.7557251908397,10.087719298245613
89142,Clark County,NV,65.72890025575447,NA,NA
89147,Clark County,NV,NA,81.98473282442748,NA
89149,Clark County,NV,NA,56.030534351145036,NA
89156,Clark County,NV,NA,71.29770992366412,NA
89166,Clark County,NV,63.68286445012787,NA,NA
03077,Rockingham County,NH,69.0537084398977,NA,NA
03087,Rockingham County,NH,NA,NA,92.39766081871345
07001,Middlesex County,NJ,NA,NA,81.28654970760235
07009,Essex County,NJ,NA,NA,48.53801169590643
07031,Bergen County,NJ,NA,NA,66.52046783625731
07032,Hudson County,NJ,NA,NA,96.19883040935673
07039,Essex County,NJ,23.785166240409207,NA,NA
07052,Essex County,NJ,NA,72.21374045801527,NA
07055,Passaic County,NJ,NA,21.52671755725191,NA
07087,Hudson County,NJ,NA,NA,5.263157894736842
07106,Essex County,NJ,NA,NA,39.03508771929825
07107,Essex County,NJ,NA,NA,51.461988304093566
07111,Essex County,NJ,NA,NA,80.55555555555556
07304,Hudson County,NJ,3.8363171355498724,NA,NA
07401,Bergen County,NJ,NA,NA,98.24561403508771
07410,Bergen County,NJ,NA,25.64885496183206,NA
07480,Passaic County,NJ,NA,NA,67.10526315789474
07501,Passaic County,NJ,2.0460358056265986,NA,NA
07508,Passaic County,NJ,NA,45.343511450381676,NA
07522,Passaic County,NJ,6.138107416879795,NA,NA
07621,Bergen County,NJ,NA,NA,85.08771929824562
07626,Bergen County,NJ,NA,NA,92.10526315789474
07712,Monmouth County,NJ,NA,NA,22.807017543859647
07724,Monmouth County,NJ,NA,NA,54.09356725146199
07751,Monmouth County,NJ,NA,NA,82.7485380116959
07866,Morris County,NJ,NA,45.19083969465649,NA
07920,Somerset County,NJ,NA,NA,60.23391812865497
07922,Union County,NJ,NA,97.40458015267176,NA
08003,Camden County,NJ,NA,NA,16.95906432748538
08005,Ocean County,NJ,NA,70.53435114503816,15.204678362573098
08008,Ocean County,NJ,NA,88.2442748091603,NA
08009,Camden County,NJ,NA,NA,84.21052631578947
08012,Camden County,NJ,6.905370843989769,13.282442748091603,NA
08043,Camden County,NJ,NA,NA,52.63157894736842
08051,Gloucester County,NJ,NA,NA,79.82456140350878
08053,Burlington County,NJ,NA,NA,12.865497076023392
08069,Salem County,NJ,NA,79.54198473282442,54.385964912280706
08081,Camden County,NJ,NA,NA,63.888888888888886
08088,Burlington County,NJ,NA,NA,46.345029239766085
08090,Gloucester County,NJ,67.51918158567774,NA,NA
08102,Camden County,NJ,NA,66.7175572519084,NA
08104,Camden County,NJ,NA,NA,85.81871345029239
08270,Cape May County,NJ,80.05115089514067,NA,NA
08401,Atlantic County,NJ,NA,44.12213740458015,19.298245614035086
08610,Mercer County,NJ,NA,49.770992366412216,NA
08611,Mercer County,NJ,NA,32.97709923664122,NA
08629,Mercer County,NJ,NA,94.50381679389312,NA
08638,Mercer County,NJ,NA,NA,67.39766081871345
08648,Mercer County,NJ,NA,75.87786259541984,88.74269005847954
08701,Ocean County,NJ,NA,7.633587786259542,NA
08736,Monmouth County,NJ,NA,85.64885496183207,NA
08742,Ocean County,NJ,NA,43.51145038167939,NA
08757,Ocean County,NJ,NA,NA,0.7309941520467835
08759,Ocean County,NJ,NA,NA,0
08805,Somerset County,NJ,NA,80.61068702290076,NA
87002,Valencia County,NM,NA,59.23664122137404,NA
87031,Valencia County,NM,NA,NA,52.77777777777778
87107,Bernalillo County,NM,35.294117647058826,NA,NA
87110,Bernalillo County,NM,61.125319693094625,NA,NA
87112,Bernalillo County,NM,NA,8.091603053435115,NA
87123,Bernalillo County,NM,NA,3.6641221374045805,NA
87505,Santa Fe County,NM,6.3938618925831205,NA,NA
87532,Santa Fe County,NM,NA,45.343511450381676,NA
87740,Colfax County,NM,81.84143222506394,87.63358778625954,NA
88001,Doa Ana County,NM,NA,28.854961832061072,NA
88011,Doa Ana County,NM,NA,NA,23.684210526315788
88101,Curry County,NM,NA,NA,30.84795321637427
88220,Eddy County,NM,25.831202046035806,21.374045801526716,NA
10010,New York County,NY,85.42199488491049,NA,NA
10011,New York County,NY,NA,15.877862595419847,NA
10016,New York County,NY,39.64194373401534,NA,NA
10025,New York County,NY,NA,NA,2.4853801169590644
10029,New York County,NY,NA,42.900763358778626,NA
10035,New York County,NY,6.649616368286446,6.412213740458015,NA
10039,New York County,NY,NA,40.15267175572519,NA
10044,New York County,NY,NA,87.17557251908397,NA
10301,Richmond County,NY,18.414322250639387,NA,NA
10303,Richmond County,NY,NA,47.63358778625954,NA
10305,Richmond County,NY,NA,NA,63.30409356725146
10306,Richmond County,NY,NA,NA,11.257309941520468
10314,Richmond County,NY,NA,NA,5.555555555555555
10452,Bronx County,NY,NA,5.9541984732824424,NA
10457,Bronx County,NY,0.2557544757033248,NA,NA
10458,Bronx County,NY,NA,4.732824427480916,NA
10460,Bronx County,NY,NA,0.6106870229007634,NA
10466,Bronx County,NY,NA,1.0687022900763359,NA
10467,Bronx County,NY,NA,NA,12.573099415204677
10469,Bronx County,NY,NA,NA,4.5321637426900585
10472,Bronx County,NY,NA,14.80916030534351,66.81286549707602
10522,Westchester County,NY,NA,NA,74.41520467836257
10605,Westchester County,NY,NA,NA,34.21052631578947
10705,Westchester County,NY,NA,NA,28.50877192982456
10924,Orange County,NY,NA,NA,61.549707602339176
10989,Rockland County,NY,NA,NA,79.97076023391813
11003,Nassau County,NY,NA,60.91603053435114,NA
11004,Queens County,NY,NA,NA,62.86549707602339
11201,Kings County,NY,NA,19.083969465648856,NA
11206,Kings County,NY,NA,11.755725190839694,5.116959064327485
11207,Kings County,NY,NA,0.3053435114503817,NA
11208,Kings County,NY,NA,0.9160305343511451,NA
11212,Kings County,NY,1.0230179028132993,NA,5.994152046783626
11213,Kings County,NY,29.411764705882355,NA,NA
11214,Kings County,NY,50.89514066496164,NA,6.432748538011696
11224,Kings County,NY,23.017902813299234,29.923664122137406,2.046783625730994
11226,Kings County,NY,NA,41.52671755725191,NA
11231,Kings County,NY,NA,NA,50.29239766081871
11233,Kings County,NY,NA,NA,7.748538011695906
11234,Kings County,NY,NA,NA,67.2514619883041
11235,Kings County,NY,NA,NA,1.3157894736842104
11355,Queens County,NY,30.946291560102303,NA,NA
11365,Queens County,NY,NA,21.22137404580153,NA
11367,Queens County,NY,74.42455242966753,NA,NA
11368,Queens County,NY,NA,NA,13.157894736842104
11373,Queens County,NY,NA,54.50381679389314,NA
11385,Queens County,NY,NA,9.007633587786259,35.38011695906433
11421,Queens County,NY,NA,NA,44.15204678362573
11422,Queens County,NY,NA,NA,60.81871345029239
11557,Nassau County,NY,NA,NA,99.26900584795322
11590,Nassau County,NY,NA,NA,55.55555555555556
11691,Queens County,NY,NA,NA,51.900584795321635
11701,Suffolk County,NY,NA,NA,68.12865497076024
11727,Suffolk County,NY,NA,NA,38.59649122807017
11729,Suffolk County,NY,NA,64.73282442748092,NA
11735,Nassau County,NY,NA,NA,46.05263157894737
11763,Suffolk County,NY,NA,47.48091603053435,NA
11793,Nassau County,NY,NA,NA,37.86549707602339
11795,Suffolk County,NY,NA,NA,25.584795321637426
12180,Rensselaer County,NY,2.3017902813299234,NA,NA
12186,Albany County,NY,NA,NA,88.30409356725146
12210,Albany County,NY,82.6086956521739,NA,NA
12303,Schenectady County,NY,NA,NA,33.47953216374269
12306,Schenectady County,NY,35.0383631713555,NA,NA
12309,Schenectady County,NY,NA,NA,39.76608187134503
12553,Orange County,NY,NA,71.14503816793894,NA
12804,Warren County,NY,NA,42.44274809160306,NA
12816,Washington County,NY,NA,NA,71.9298245614035
13027,Onondaga County,NY,NA,14.045801526717558,NA
13057,Onondaga County,NY,NA,86.41221374045801,65.78947368421053
13069,Oswego County,NY,NA,9.16030534351145,NA
13140,Cayuga County,NY,94.37340153452686,NA,NA
13146,Wayne County,NY,NA,95.72519083969465,NA
13148,Seneca County,NY,NA,93.58778625954199,NA
13208,Onondaga County,NY,NA,NA,73.39181286549707
13215,Onondaga County,NY,53.452685421994886,NA,NA
13219,Onondaga County,NY,NA,51.908396946564885,NA
13332,Madison County,NY,NA,98.01526717557252,NA
13365,Herkimer County,NY,NA,84.7328244274809,NA
13790,Broome County,NY,NA,NA,74.26900584795322
13815,Chenango County,NY,NA,NA,27.339181286549707
13901,Broome County,NY,NA,47.93893129770993,NA
13905,Broome County,NY,NA,NA,3.070175438596491
14001,Erie County,NY,69.30946291560103,NA,NA
14032,Erie County,NY,84.65473145780051,NA,NA
14094,Niagara County,NY,NA,1.5267175572519083,NA
14208,Erie County,NY,31.9693094629156,27.022900763358777,NA
14211,Erie County,NY,10.230179028132993,NA,NA
14221,Erie County,NY,NA,NA,44.590643274853804
14227,Erie County,NY,59.590792838874684,NA,NA
14411,Orleans County,NY,NA,NA,86.11111111111111
14502,Wayne County,NY,NA,NA,66.37426900584795
14527,Yates County,NY,NA,26.717557251908396,NA
14606,Monroe County,NY,NA,10.534351145038167,NA
14622,Monroe County,NY,NA,17.251908396946565,NA
14772,Cattaraugus County,NY,90.02557544757033,NA,NA
14843,Steuben County,NY,25.575447570332482,NA,NA
27025,Rockingham County,NC,NA,79.38931297709924,NA
27028,Davie County,NC,NA,NA,15.789473684210526
27105,Forsyth County,NC,NA,1.8320610687022902,NA
27203,Randolph County,NC,30.69053708439898,NA,NA
27205,Randolph County,NC,NA,NA,39.1812865497076
27215,Alamance County,NC,NA,3.969465648854962,NA
27253,Alamance County,NC,NA,95.87786259541986,NA
27320,Rockingham County,NC,NA,NA,3.654970760233918
27332,Lee County,NC,NA,NA,75.73099415204678
27341,Randolph County,NC,96.41943734015345,NA,NA
27502,Wake County,NC,61.892583120204606,NA,NA
27504,Johnston County,NC,NA,NA,65.2046783625731
27522,Granville County,NC,NA,NA,91.66666666666666
27526,Wake County,NC,NA,20.30534351145038,NA
27529,Wake County,NC,NA,13.740458015267176,NA
27530,Wayne County,NC,17.647058823529413,NA,NA
27573,Person County,NC,47.82608695652174,NA,NA
27609,Wake County,NC,NA,NA,24.12280701754386
27870,Halifax County,NC,NA,69.61832061068702,NA
27889,Beaufort County,NC,NA,22.442748091603054,NA
27948,Dare County,NC,NA,NA,84.06432748538012
27954,Dare County,NC,NA,NA,97.07602339181285
28001,Stanly County,NC,NA,NA,50.58479532163743
28027,Cabarrus County,NC,22.25063938618926,NA,NA
28056,Gaston County,NC,50.127877237851656,50.0763358778626,NA
28078,Mecklenburg County,NC,NA,33.43511450381679,NA
28112,Union County,NC,NA,NA,34.941520467836256
28134,Mecklenburg County,NC,NA,NA,95.17543859649122
28170,Anson County,NC,NA,67.93893129770993,NA
28214,Mecklenburg County,NC,NA,52.97709923664122,NA
28217,Mecklenburg County,NC,53.452685421994886,NA,NA
28269,Mecklenburg County,NC,NA,NA,35.96491228070175
28304,Cumberland County,NC,64.45012787723785,NA,NA
28314,Cumberland County,NC,NA,38.3206106870229,NA
28340,Robeson County,NC,58.31202046035806,NA,NA
28348,Cumberland County,NC,NA,76.03053435114504,NA
28366,Sampson County,NC,NA,NA,73.68421052631578
28374,Moore County,NC,NA,NA,10.23391812865497
28387,Moore County,NC,91.81585677749361,NA,NA
28403,New Hanover County,NC,70.33248081841433,NA,NA
28405,New Hanover County,NC,NA,NA,48.68421052631579
28409,New Hanover County,NC,NA,13.893129770992365,NA
28443,Pender County,NC,NA,NA,66.22807017543859
28472,Columbus County,NC,NA,45.954198473282446,NA
28504,Lenoir County,NC,NA,NA,68.85964912280701
28562,Craven County,NC,NA,NA,11.403508771929824
28574,Onslow County,NC,NA,NA,93.42105263157895
28612,Burke County,NC,NA,NA,88.01169590643275
28675,Alleghany County,NC,NA,53.74045801526718,NA
28677,Iredell County,NC,NA,60.152671755725194,NA
28768,Transylvania County,NC,NA,66.25954198473283,NA
28782,Polk County,NC,NA,87.32824427480917,NA
58078,Cass County,ND,NA,12.82442748091603,NA
43082,Delaware County,OH,NA,41.37404580152671,NA
43138,Hocking County,OH,32.73657289002558,NA,NA
43147,Fairfield County,OH,NA,25.80152671755725,NA
43201,Franklin County,OH,51.150895140664964,NA,NA
43202,Franklin County,OH,75.95907928388746,NA,NA
43203,Franklin County,OH,NA,NA,89.32748538011695
43207,Franklin County,OH,14.322250639386189,NA,NA
43209,Franklin County,OH,NA,36.48854961832061,NA
43219,Franklin County,OH,NA,NA,38.15789473684211
43227,Franklin County,OH,27.877237851662407,NA,NA
43228,Franklin County,OH,NA,46.87022900763359,NA
43315,Morrow County,OH,NA,90.07633587786259,NA
43512,Defiance County,OH,NA,52.82442748091603,NA
43606,Lucas County,OH,19.948849104859335,NA,NA
43608,Lucas County,OH,NA,45.648854961832065,NA
43614,Lucas County,OH,12.787723785166241,NA,NA
43619,Wood County,OH,NA,NA,83.47953216374269
43812,Coshocton County,OH,NA,5.343511450381679,NA
43920,Columbiana County,OH,NA,8.702290076335878,NA
43964,Jefferson County,OH,NA,31.755725190839694,NA
44012,Lorain County,OH,NA,NA,6.578947368421052
44024,Geauga County,OH,NA,71.29770992366412,11.988304093567251
44052,Lorain County,OH,NA,1.2213740458015268,NA
44095,Lake County,OH,NA,NA,4.824561403508771
44103,Cuyahoga County,OH,10.997442455242968,10.992366412213741,NA
44104,Cuyahoga County,OH,5.3708439897698215,17.709923664122137,NA
44107,Cuyahoga County,OH,1.7902813299232736,NA,NA
44108,Cuyahoga County,OH,NA,30.839694656488547,NA
44109,Cuyahoga County,OH,NA,NA,27.923976608187136
44111,Cuyahoga County,OH,NA,40.916030534351144,NA
44120,Cuyahoga County,OH,4.3478260869565215,NA,NA
44122,Cuyahoga County,OH,NA,NA,4.970760233918129
44136,Cuyahoga County,OH,NA,6.259541984732825,NA
44137,Cuyahoga County,OH,NA,8.244274809160306,NA
44142,Cuyahoga County,OH,NA,16.335877862595417,NA
44146,Cuyahoga County,OH,8.439897698209718,NA,NA
44149,Cuyahoga County,OH,NA,14.961832061068703,NA
44256,Medina County,OH,24.55242966751918,NA,1.608187134502924
44301,Summit County,OH,NA,56.48854961832062,NA
44312,Summit County,OH,NA,40.76335877862595,NA
44320,Summit County,OH,51.66240409207161,NA,NA
44436,Mahoning County,OH,NA,NA,85.38011695906432
44440,Trumbull County,OH,NA,86.56488549618321,NA
44446,Trumbull County,OH,63.171355498721226,NA,NA
44460,Columbiana County,OH,NA,6.412213740458015,NA
44601,Stark County,OH,9.207161125319693,NA,NA
44622,Tuscarawas County,OH,NA,NA,15.64327485380117
44691,Wayne County,OH,32.992327365728904,NA,NA
44805,Ashland County,OH,15.601023017902813,NA,NA
44820,Crawford County,OH,27.365728900255753,NA,NA
44890,Huron County,OH,NA,97.09923664122138,NA
44903,Richland County,OH,NA,58.62595419847329,NA
45005,Warren County,OH,NA,NA,29.53216374269006
45013,Butler County,OH,NA,NA,25.146198830409354
45014,Butler County,OH,47.570332480818415,NA,NA
45069,Butler County,OH,NA,57.709923664122144,NA
45121,Brown County,OH,NA,NA,79.53216374269006
45150,Clermont County,OH,81.07416879795396,NA,NA
45171,Brown County,OH,84.39897698209718,NA,NA
45177,Clinton County,OH,NA,NA,43.71345029239766
45237,Hamilton County,OH,NA,NA,75.14619883040936
45240,Hamilton County,OH,NA,79.23664122137404,NA
45309,Montgomery County,OH,NA,NA,42.54385964912281
45324,Greene County,OH,NA,15.114503816793892,NA
45345,Montgomery County,OH,NA,NA,75.87719298245614
45416,Montgomery County,OH,NA,89.16030534351145,NA
45417,Montgomery County,OH,NA,13.435114503816795,NA
45420,Montgomery County,OH,NA,NA,71.78362573099415
45426,Montgomery County,OH,NA,NA,47.953216374269005
45431,Montgomery County,OH,49.87212276214834,NA,NA
45601,Ross County,OH,0.5115089514066496,NA,NA
45669,Lawrence County,OH,NA,18.473282442748094,NA
45693,Adams County,OH,NA,NA,78.0701754385965
45804,Allen County,OH,14.066496163682865,NA,NA
45840,Hancock County,OH,3.324808184143223,NA,NA
45895,Auglaize County,OH,NA,NA,38.30409356725146
73025,Oklahoma County,OK,68.54219948849105,NA,NA
73049,Oklahoma County,OK,NA,NA,96.6374269005848
73051,Cleveland County,OK,NA,98.1679389312977,NA
73065,McClain County,OK,97.9539641943734,NA,NA
73072,Cleveland County,OK,NA,67.17557251908397,NA
73111,Oklahoma County,OK,NA,67.32824427480915,NA
73118,Oklahoma County,OK,97.18670076726342,NA,NA
73533,Stephens County,OK,NA,NA,14.912280701754385
73701,Garfield County,OK,NA,33.74045801526718,NA
74021,Tulsa County,OK,NA,NA,76.0233918128655
74127,Tulsa County,OK,63.42710997442455,NA,NA
74133,Tulsa County,OK,NA,NA,8.625730994152047
74403,Muskogee County,OK,35.80562659846547,NA,NA
74441,Cherokee County,OK,NA,96.4885496183206,NA
74464,Cherokee County,OK,NA,16.6412213740458,NA
74960,Adair County,OK,NA,41.06870229007634,60.23391812865497
97031,Hood River County,OR,NA,NA,52.77777777777778
97038,Clackamas County,OR,NA,NA,62.86549707602339
97045,Clackamas County,OR,17.391304347826086,NA,NA
97070,Clackamas County,OR,NA,62.59541984732825,NA
97089,Clackamas County,OR,80.56265984654732,NA,NA
97103,Clatsop County,OR,NA,NA,18.71345029239766
97140,Washington County,OR,NA,64.73282442748092,NA
97206,Multnomah County,OR,NA,22.748091603053435,NA
97236,Multnomah County,OR,NA,92.06106870229007,NA
97401,Lane County,OR,NA,NA,68.42105263157895
97408,Lane County,OR,93.09462915601023,NA,NA
97477,Lane County,OR,29.15601023017903,NA,NA
97496,Douglas County,OR,56.26598465473146,NA,NA
97502,Jackson County,OR,NA,19.541984732824428,NA
97504,Jackson County,OR,NA,NA,4.239766081871345
97535,Jackson County,OR,NA,72.97709923664122,NA
97701,Deschutes County,OR,NA,NA,67.69005847953217
97739,Deschutes County,OR,79.53964194373401,NA,NA
97801,Umatilla County,OR,NA,80.76335877862594,NA
97838,Umatilla County,OR,NA,NA,42.39766081871345
15001,Beaver County,PA,24.296675191815854,NA,NA
15005,Beaver County,PA,NA,NA,56.4327485380117
15024,Allegheny County,PA,NA,77.86259541984732,NA
15025,Allegheny County,PA,NA,48.2442748091603,NA
15044,Allegheny County,PA,NA,NA,19.444444444444446
15074,Beaver County,PA,NA,60.45801526717557,NA
15089,Westmoreland County,PA,NA,84.885496183206115,NA
15136,Allegheny County,PA,32.48081841432225,NA,NA
15146,Allegheny County,PA,NA,NA,26.900584795321635
15205,Allegheny County,PA,NA,NA,54.97076023391813
15210,Allegheny County,PA,NA,43.20610687022901,46.345029239766085
15217,Allegheny County,PA,60.61381074168798,NA,NA
15218,Allegheny County,PA,NA,NA,80.84795321637426
15219,Allegheny County,PA,34.015345268542205,NA,NA
15220,Allegheny County,PA,NA,NA,49.122807017543856
15229,Allegheny County,PA,85.6777493606138,NA,NA
15236,Allegheny County,PA,NA,NA,8.333333333333332
15237,Allegheny County,PA,NA,NA,25.730994152046783
15522,Bedford County,PA,NA,NA,49.853801169590646
15613,Westmoreland County,PA,NA,NA,30.409356725146196
15701,Indiana County,PA,NA,NA,10.964912280701753
15851,Jefferson County,PA,NA,61.06870229007634,NA
15902,Cambria County,PA,NA,97.86259541984734,65.05847953216374
16066,Butler County,PA,NA,39.84732824427481,NA
16602,Blair County,PA,NA,10.839694656488549,NA
16735,McKean County,PA,71.86700767263427,NA,NA
16827,Centre County,PA,NA,NA,86.25730994152046
17042,Lebanon County,PA,NA,NA,16.374269005847953
17044,Mifflin County,PA,NA,NA,8.187134502923977
17050,Cumberland County,PA,NA,NA,17.251461988304094
17067,Lebanon County,PA,NA,NA,51.75438596491229
17109,Dauphin County,PA,NA,NA,29.239766081871345
17112,Dauphin County,PA,NA,30.229007633587784,NA
17113,Dauphin County,PA,46.80306905370844,NA,NA
17331,York County,PA,NA,0.7633587786259541,1.7543859649122806
17340,Adams County,PA,NA,50.99236641221374,NA
17406,York County,PA,NA,NA,14.76608187134503
17543,Lancaster County,PA,28.644501278772378,9.31297709923664,NA
17603,Lancaster County,PA,56.01023017902813,NA,6.725146198830409
17701,Lycoming County,PA,NA,NA,31.432748538011694
17777,Northumberland County,PA,NA,NA,90.78947368421053
17814,Columbia County,PA,NA,99.23664122137404,NA
17844,Union County,PA,NA,81.5267175572519,NA
17931,Schuylkill County,PA,NA,NA,77.92397660818715
18013,Northampton County,PA,NA,NA,47.514619883040936
18015,Northampton County,PA,NA,NA,13.011695906432749
18064,Northampton County,PA,NA,NA,15.497076023391813
18103,Lehigh County,PA,46.03580562659847,NA,NA
18334,Monroe County,PA,NA,99.69465648854961,NA
18360,Monroe County,PA,NA,NA,65.35087719298247
18411,Lackawanna County,PA,NA,NA,22.22222222222222
18424,Lackawanna County,PA,NA,NA,91.37426900584795
18508,Lackawanna County,PA,60.86956521739131,NA,NA
18702,Luzerne County,PA,NA,NA,6.140350877192982
18706,Luzerne County,PA,NA,36.030534351145036,NA
18801,Susquehanna County,PA,NA,69.00763358778626,NA
18964,Montgomery County,PA,NA,NA,60.526315789473685
18976,Bucks County,PA,52.94117647058824,NA,NA
19008,Delaware County,PA,NA,NA,41.52046783625731
19013,Delaware County,PA,NA,NA,91.08187134502924
19023,Delaware County,PA,NA,60,NA
19026,Delaware County,PA,20.20460358056266,NA,55.99415204678363
19040,Montgomery County,PA,NA,NA,28.654970760233915
19050,Delaware County,PA,NA,NA,69.88304093567251
19064,Delaware County,PA,NA,47.17557251908397,NA
19086,Delaware County,PA,66.75191815856778,NA,NA
19090,Montgomery County,PA,NA,90.83969465648855,NA
19104,Philadelphia County,PA,NA,57.404580152671755,NA
19120,Philadelphia County,PA,NA,4.580152671755725,NA
19130,Philadelphia County,PA,NA,35.57251908396947,NA
19131,Philadelphia County,PA,7.41687979539642,NA,7.456140350877193
19136,Philadelphia County,PA,NA,NA,37.86549707602339
19141,Philadelphia County,PA,NA,NA,30.555555555555557
19144,Philadelphia County,PA,NA,8.396946564885496,18.128654970760234
19150,Philadelphia County,PA,78.00511508951406,NA,NA
19153,Philadelphia County,PA,NA,NA,85.23391812865498
19342,Delaware County,PA,NA,NA,25
19348,Chester County,PA,NA,NA,77.63157894736842
19365,Chester County,PA,NA,NA,81.57894736842105
19382,Chester County,PA,NA,7.328244274809161,NA
19403,Montgomery County,PA,21.22762148337596,NA,NA
19462,Montgomery County,PA,NA,NA,78.3625730994152
19567,Berks County,PA,NA,NA,83.04093567251462
19601,Berks County,PA,NA,12.51908396946565,NA
19608,Berks County,PA,NA,22.137404580152673,NA
02816,Kent County,RI,NA,NA,23.830409356725145
02861,Providence County,RI,NA,NA,33.771929824561404
02882,Washington County,RI,NA,NA,34.21052631578947
02889,Kent County,RI,29.923273657289002,NA,NA
02895,Providence County,RI,NA,66.87022900763358,NA
02904,Providence County,RI,NA,16.946564885496183,NA
02909,Providence County,RI,NA,NA,38.74269005847953
29042,Bamberg County,SC,93.86189258312021,NA,NA
29072,Lexington County,SC,NA,NA,62.42690058479532
29115,Orangeburg County,SC,40.153452685421996,NA,NA
29138,Saluda County,SC,NA,NA,82.16374269005848
29205,Richland County,SC,NA,NA,63.450292397660824
29223,Richland County,SC,NA,25.954198473282442,10.380116959064328
29229,Richland County,SC,41.687979539641944,NA,NA
29301,Spartanburg County,SC,NA,38.93129770992366,NA
29316,Spartanburg County,SC,NA,NA,41.08187134502924
29325,Laurens County,SC,NA,60.76335877862596,NA
29335,Spartanburg County,SC,NA,NA,97.953216374269
29349,Spartanburg County,SC,NA,NA,55.84795321637427
29379,Union County,SC,78.26086956521739,NA,NA
29405,Charleston County,SC,61.63682864450127,NA,NA
29407,Charleston County,SC,NA,NA,14.035087719298245
29412,Charleston County,SC,NA,NA,9.7953216374269
29501,Florence County,SC,33.75959079283887,NA,NA
29506,Florence County,SC,47.82608695652174,NA,NA
29532,Darlington County,SC,84.91048593350384,NA,NA
29575,Horry County,SC,NA,87.78625954198473,NA
29576,Horry County,SC,97.44245524296676,10.687022900763358,13.450292397660817
29591,Florence County,SC,NA,NA,91.22807017543859
29611,Greenville County,SC,NA,NA,26.023391812865498
29626,Anderson County,SC,NA,76.4885496183206,NA
29671,Pickens County,SC,52.42966751918159,NA,NA
29681,Greenville County,SC,30.434782608695656,NA,NA
29689,Anderson County,SC,NA,83.81679389312977,NA
29693,Oconee County,SC,NA,NA,42.69005847953216
29709,Chesterfield County,SC,NA,96.33587786259542,NA
29745,York County,SC,NA,NA,68.56725146198829
29835,McCormick County,SC,NA,74.35114503816794,NA
29907,Beaufort County,SC,NA,NA,50.877192982456144
57103,Minnehaha County,SD,NA,2.900763358778626,NA
57104,Minnehaha County,SD,NA,NA,12.134502923976607
57301,Davison County,SD,87.21227621483376,NA,NA
57501,Hughes County,SD,70.076726342711,NA,NA
37013,Davidson County,TN,NA,55.11450381679389,NA
37022,Sumner County,TN,NA,92.21374045801527,NA
37030,Smith County,TN,72.89002557544757,NA,NA
37042,Montgomery County,TN,NA,39.38931297709924,NA
37062,Williamson County,TN,NA,83.66412213740459,NA
37066,Sumner County,TN,39.89769820971867,NA,NA
37076,Davidson County,TN,NA,31.45038167938931,NA
37091,Marshall County,TN,NA,82.29007633587786,57.45614035087719
37110,Warren County,TN,NA,NA,59.94152046783626
37115,Davidson County,TN,NA,21.83206106870229,NA
37122,Wilson County,TN,31.713554987212277,NA,NA
37148,Sumner County,TN,42.96675191815857,NA,NA
37207,Davidson County,TN,14.83375959079284,NA,NA
37209,Davidson County,TN,NA,NA,57.748538011695906
37211,Davidson County,TN,NA,NA,69.44444444444444
37221,Davidson County,TN,NA,NA,33.33333333333333
37303,McMinn County,TN,56.52173913043478,NA,NA
37312,Bradley County,TN,NA,49.92366412213741,NA
37327,Sequatchie County,TN,44.75703324808184,NA,NA
37367,Bledsoe County,TN,NA,89.77099236641222,NA
37402,Hamilton County,TN,96.67519181585678,NA,NA
37412,Hamilton County,TN,NA,87.93893129770993,NA
37604,Washington County,TN,NA,18.62595419847328,NA
37643,Carter County,TN,15.089514066496163,5.648854961832061,NA
37681,Washington County,TN,89.51406649616368,NA,NA
37756,Scott County,TN,99.23273657289002,NA,NA
37760,Jefferson County,TN,NA,NA,70.46783625730994
37766,Campbell County,TN,NA,24.427480916030532,NA
37774,Loudon County,TN,49.36061381074169,NA,NA
37803,Blount County,TN,NA,11.908396946564885,NA
37825,Claiborne County,TN,NA,NA,79.23976608187134
37865,Sevier County,TN,43.47826086956522,NA,NA
37869,Hancock County,TN,NA,95.1145038167939,NA
37917,Knox County,TN,NA,21.068702290076335,NA
37920,Knox County,TN,NA,14.351145038167939,NA
37931,Knox County,TN,NA,NA,79.67836257309942
38012,Haywood County,TN,NA,70.83969465648855,NA
38060,Fayette County,TN,NA,NA,83.33333333333334
38106,Shelby County,TN,19.437340153452684,NA,49.707602339181285
38108,Shelby County,TN,NA,NA,76.31578947368422
38122,Shelby County,TN,NA,NA,66.66666666666666
38128,Shelby County,TN,NA,36.6412213740458,NA
38141,Shelby County,TN,NA,94.19847328244275,NA
38242,Henry County,TN,NA,NA,44.88304093567251
38305,Madison County,TN,NA,9.465648854961833,13.304093567251464
38343,Gibson County,TN,NA,55.267175572519086,NA
38401,Maury County,TN,NA,NA,17.83625730994152
38583,White County,TN,NA,NA,21.198830409356724
75007,Denton County,TX,NA,24.427480916030532,NA
75023,Collin County,TX,NA,37.099236641221374,NA
75033,,TX,NA,NA,89.03508771929825
75034,Denton County,TX,41.432225063938624,NA,NA
75044,Dallas County,TX,NA,29.00763358778626,NA
75050,Dallas County,TX,85.16624040920716,NA,47.07602339181287
75051,Dallas County,TX,45.012787723785166,NA,NA
75057,Denton County,TX,81.32992327365729,NA,NA
75065,Denton County,TX,NA,NA,98.83040935672514
75069,Collin County,TX,NA,NA,57.163742690058484
75071,Collin County,TX,NA,30.99236641221374,NA
75087,Rockwall County,TX,NA,NA,58.333333333333336
75088,Dallas County,TX,NA,79.69465648854963,NA
75126,Kaufman County,TX,77.23785166240408,45.038167938931295,NA
75134,Dallas County,TX,NA,76.18320610687023,NA
75137,Dallas County,TX,NA,94.04580152671755,NA
75146,Dallas County,TX,84.14322250639387,NA,NA
75150,Dallas County,TX,NA,55.267175572519086,NA
75215,Dallas County,TX,31.202046035805626,NA,NA
75228,Dallas County,TX,51.406649616368284,NA,NA
75229,Dallas County,TX,NA,94.80916030534351,NA
75232,Dallas County,TX,NA,44.274809160305345,NA
75234,Dallas County,TX,NA,NA,44.005847953216374
75236,Dallas County,TX,NA,91.90839694656489,NA
75243,Dallas County,TX,NA,46.10687022900763,NA
75248,Dallas County,TX,60.35805626598465,NA,NA
75455,Titus County,TX,NA,NA,46.63742690058479
75482,Hopkins County,TX,NA,59.69465648854961,NA
75503,Bowie County,TX,NA,59.84732824427481,23.538011695906434
75754,Van Zandt County,TX,95.39641943734016,NA,75.43859649122807
75766,Cherokee County,TX,NA,6.870229007633588,NA
75801,Anderson County,TX,NA,73.2824427480916,NA
75803,Anderson County,TX,64.9616368286445,NA,NA
75831,Leon County,TX,NA,98.47328244274809,NA
75961,Nacogdoches County,TX,NA,78.01526717557252,78.94736842105263
76013,Tarrant County,TX,NA,62.74809160305344,NA
76015,Tarrant County,TX,76.72634271099744,NA,NA
76049,Hood County,TX,NA,17.862595419847327,NA
76052,Tarrant County,TX,NA,86.10687022900764,98.9766081871345
76065,Ellis County,TX,NA,36.33587786259542,NA
76087,Parker County,TX,NA,88.85496183206106,NA
76107,Tarrant County,TX,44.50127877237852,NA,NA
76133,Tarrant County,TX,22.762148337595907,NA,NA
76180,Tarrant County,TX,NA,35.87786259541985,NA
76234,Wise County,TX,NA,NA,61.8421052631579
76240,Cooke County,TX,NA,NA,48.099415204678365
76244,Tarrant County,TX,NA,56.48854961832062,NA
76262,Denton County,TX,NA,NA,67.54385964912281
76437,Eastland County,TX,NA,98.77862595419847,NA
76528,Coryell County,TX,62.65984654731458,NA,NA
76539,Lampasas County,TX,NA,NA,75
76574,Williamson County,TX,NA,19.69465648854962,NA
76643,McLennan County,TX,69.56521739130434,NA,NA
76645,Hill County,TX,76.21483375959079,NA,NA
76667,Limestone County,TX,NA,63.664122137404576,NA
76705,McLennan County,TX,NA,NA,27.046783625730995
76903,Tom Green County,TX,NA,NA,42.83625730994152
77007,Harris County,TX,NA,NA,73.83040935672514
77011,Harris County,TX,NA,NA,84.50292397660819
77014,Harris County,TX,NA,66.25954198473283,NA
77023,Harris County,TX,NA,NA,99.12280701754386
77031,Harris County,TX,NA,86.25954198473282,NA
77038,Harris County,TX,NA,92.67175572519083,NA
77042,Harris County,TX,NA,NA,71.34502923976608
77057,Harris County,TX,NA,85.49618320610686,NA
77070,Harris County,TX,NA,23.51145038167939,NA
77077,Harris County,TX,46.29156010230179,NA,NA
77083,Harris County,TX,NA,NA,32.748538011695906
77087,Harris County,TX,58.05626598465473,NA,NA
77092,Harris County,TX,NA,68.24427480916032,NA
77099,Harris County,TX,NA,NA,65.35087719298247
77339,Harris County,TX,NA,NA,35.08771929824561
77354,Montgomery County,TX,NA,90.22900763358778,36.84210526315789
77373,Harris County,TX,NA,27.480916030534353,NA
77377,Harris County,TX,NA,83.81679389312977,NA
77378,Montgomery County,TX,NA,NA,88.1578947368421
77381,Montgomery County,TX,NA,NA,47.66081871345029
77386,Montgomery County,TX,NA,51.29770992366412,NA
77459,Fort Bend County,TX,NA,46.25954198473283,NA
77494,Fort Bend County,TX,NA,54.045801526717554,NA
77502,Harris County,TX,54.987212276214834,62.13740458015267,NA
77520,Harris County,TX,NA,NA,49.122807017543856
77523,Chambers County,TX,NA,69.46564885496184,NA
77532,Harris County,TX,43.98976982097187,NA,NA
77539,Galveston County,TX,NA,10.076335877862595,NA
77551,Galveston County,TX,NA,67.02290076335878,NA
77581,Brazoria County,TX,NA,NA,30.994152046783626
77587,Harris County,TX,77.74936061381074,NA,NA
77590,Galveston County,TX,NA,NA,24.415204678362574
77707,Jefferson County,TX,NA,79.8473282442748,NA
77845,Brazos County,TX,NA,3.2061068702290076,NA
77957,Jackson County,TX,NA,76.94656488549619,NA
78003,Bandera County,TX,NA,NA,88.45029239766082
78023,Bexar County,TX,NA,NA,80.99415204678363
78040,Webb County,TX,NA,39.541984732824424,NA
78061,Frio County,TX,NA,90.68702290076335,NA
78064,Atascosa County,TX,74.68030690537084,NA,NA
78217,Bexar County,TX,NA,NA,78.3625730994152
78222,Bexar County,TX,NA,NA,79.23976608187134
78224,Bexar County,TX,NA,NA,78.65497076023392
78227,Bexar County,TX,NA,55.72519083969466,34.21052631578947
78232,Bexar County,TX,NA,78.16793893129771,49.41520467836257
78245,Bexar County,TX,28.9002557544757,NA,NA
78258,Bexar County,TX,NA,NA,56.87134502923976
78264,Bexar County,TX,86.70076726342711,NA,NA
78501,Hidalgo County,TX,NA,61.52671755725191,NA
78537,Hidalgo County,TX,NA,39.69465648854962,NA
78541,Hidalgo County,TX,NA,65.95419847328245,NA
78552,Cameron County,TX,NA,NA,57.45614035087719
78570,Hidalgo County,TX,NA,65.80152671755725,NA
78572,Hidalgo County,TX,NA,NA,47.80701754385965
78574,Hidalgo County,TX,NA,91.7557251908397,NA
78577,Hidalgo County,TX,31.45780051150895,NA,9.35672514619883
78589,Hidalgo County,TX,NA,37.70992366412214,NA
78596,Hidalgo County,TX,NA,NA,32.16374269005848
78606,Blanco County,TX,NA,NA,98.53801169590643
78629,Gonzales County,TX,NA,74.35114503816794,NA
78645,Travis County,TX,NA,NA,64.76608187134502
78654,Burnet County,TX,NA,40,NA
78657,Llano County,TX,NA,69.00763358778626,NA
78681,Williamson County,TX,NA,NA,23.24561403508772
78723,Travis County,TX,NA,74.9618320610687,NA
78724,Travis County,TX,NA,NA,84.7953216374269
78745,Travis County,TX,61.38107416879796,NA,NA
78753,Travis County,TX,NA,NA,55.70175438596491
79103,Potter County,TX,NA,95.57251908396947,NA
79107,Potter County,TX,NA,57.86259541984733,NA
79423,Lubbock County,TX,NA,20,NA
79761,Ector County,TX,53.196930946291566,NA,87.86549707602339
79772,Reeves County,TX,76.47058823529412,NA,NA
79903,El Paso County,TX,NA,NA,35.67251461988304
79905,El Paso County,TX,73.65728900255755,NA,NA
79924,El Paso County,TX,NA,NA,18.567251461988306
79925,El Paso County,TX,NA,54.656488549618324,NA
79930,El Paso County,TX,NA,NA,96.34502923976608
84045,Utah County,UT,73.91304347826086,NA,NA
84054,Davis County,UT,NA,76.6412213740458,NA
84065,Salt Lake County,UT,NA,NA,63.888888888888886
84078,Uintah County,UT,19.18158567774936,NA,NA
84094,Salt Lake County,UT,NA,49.61832061068702,NA
84096,Salt Lake County,UT,NA,63.969465648854964,NA
84116,Salt Lake County,UT,NA,71.6030534351145,NA
84119,Salt Lake County,UT,NA,75.1145038167939,NA
84120,Salt Lake County,UT,NA,NA,95.6140350877193
84770,Washington County,UT,82.09718670076727,NA,NA
20186,Fauquier County,VA,NA,NA,60.08771929824561
22026,Prince William County,VA,86.44501278772378,NA,NA
22043,Fairfax County,VA,69.82097186700767,NA,NA
22124,Fairfax County,VA,NA,80,NA
22152,Fairfax County,VA,NA,NA,35.96491228070175
22309,Fairfax County,VA,NA,NA,57.01754385964912
22401,Fredericksburg city,VA,NA,NA,58.040935672514614
22664,Shenandoah County,VA,NA,61.679389312977094,NA
22911,Albemarle County,VA,NA,66.5648854961832,NA
22980,Waynesboro city,VA,NA,NA,56.57894736842105
23111,Hanover County,VA,NA,NA,16.228070175438596
23112,Chesterfield County,VA,NA,27.328244274809162,NA
23117,Louisa County,VA,NA,NA,65.35087719298247
23188,James City County,VA,NA,1.6793893129770994,NA
23223,Henrico County,VA,NA,NA,29.239766081871345
23226,Richmond city,VA,NA,NA,56.72514619883041
23235,Chesterfield County,VA,NA,NA,19.005847953216374
23435,Suffolk city,VA,NA,35.41984732824427,NA
23455,Virginia Beach city,VA,NA,NA,1.9005847953216373
23464,Virginia Beach city,VA,NA,2.2900763358778624,2.3391812865497075
23502,Norfolk city,VA,38.36317135549872,31.297709923664126,40.2046783625731
23513,Norfolk city,VA,20.716112531969312,NA,NA
23518,Norfolk city,VA,45.26854219948849,NA,NA
23832,Chesterfield County,VA,47.31457800511509,NA,NA
23834,Colonial Heights city,VA,NA,67.48091603053436,NA
24012,Roanoke city,VA,NA,NA,31.140350877192986
24015,Roanoke city,VA,NA,77.40458015267176,NA
24017,Roanoke city,VA,NA,44.88549618320611,NA
24019,Roanoke County,VA,NA,27.78625954198473,NA
24073,Montgomery County,VA,NA,55.87786259541985,NA
24141,Radford city,VA,NA,NA,53.94736842105263
24151,Franklin County,VA,48.84910485933504,NA,NA
24201,Bristol city,VA,72.1227621483376,NA,NA
24273,Norton city,VA,NA,NA,84.94152046783626
24426,Alleghany County,VA,73.91304347826086,NA,NA
24522,Appomattox County,VA,94.11764705882352,NA,NA
24551,Bedford County,VA,NA,NA,48.83040935672515
24558,Halifax County,VA,NA,NA,64.18128654970761
98002,King County,WA,NA,37.25190839694656,NA
98003,King County,WA,NA,NA,23.099415204678362
98026,Snohomish County,WA,NA,32.36641221374046,NA
98037,Snohomish County,WA,NA,NA,54.67836257309941
98042,King County,WA,NA,9.923664122137405,NA
98052,King County,WA,NA,NA,13.742690058479532
98117,King County,WA,NA,96.18320610687023,NA
98198,King County,WA,NA,NA,55.11695906432749
98204,Snohomish County,WA,NA,NA,78.80116959064327
98321,Pierce County,WA,NA,NA,99.41520467836257
98362,Clallam County,WA,NA,NA,25.877192982456144
98445,Pierce County,WA,52.17391304347826,NA,NA
98541,Grays Harbor County,WA,74.68030690537084,NA,NA
98607,Clark County,WA,75.70332480818415,NA,NA
98926,Kittitas County,WA,NA,NA,20.029239766081872
98942,Yakima County,WA,NA,68.3969465648855,NA
99141,Stevens County,WA,90.53708439897699,NA,NA
99169,Adams County,WA,NA,99.84732824427482,NA
99218,Spokane County,WA,91.56010230179028,NA,NA
99301,Franklin County,WA,12.020460358056265,NA,NA
99352,Benton County,WA,NA,24.885496183206108,NA
20002,District of Columbia,DC,45.78005115089514,NA,NA
20011,District of Columbia,DC,NA,NA,4.678362573099415
20016,District of Columbia,DC,NA,53.12977099236641,NA
20019,District of Columbia,DC,NA,NA,90.2046783625731
20020,District of Columbia,DC,2.813299232736573,NA,22.660818713450293
25177,Kanawha County,WV,15.34526854219949,34.19847328244275,NA
25248,Jackson County,WV,NA,NA,99.85380116959064
25276,Roane County,WV,NA,72.67175572519083,NA
25302,Kanawha County,WV,NA,NA,48.39181286549707
25387,Kanawha County,WV,NA,NA,90.64327485380117
25701,Cabell County,WV,NA,53.58778625954198,NA
25801,Raleigh County,WV,NA,7.938931297709924,NA
26104,Wood County,WV,NA,NA,16.812865497076025
26164,Jackson County,WV,NA,89.46564885496183,NA
26201,Upshur County,WV,NA,NA,13.596491228070176
26452,Lewis County,WV,NA,NA,92.69005847953217
26505,Monongalia County,WV,NA,5.190839694656488,NA
26582,Marion County,WV,NA,77.70992366412214,NA
53027,Washington County,WI,67.0076726342711,NA,NA
53051,Waukesha County,WI,NA,63.969465648854964,8.91812865497076
53072,Waukesha County,WI,NA,42.29007633587786,40.49707602339181
53090,Washington County,WI,NA,NA,55.26315789473685
53140,Kenosha County,WI,NA,22.595419847328245,NA
53149,Waukesha County,WI,NA,NA,83.04093567251462
53151,Waukesha County,WI,NA,18.3206106870229,NA
53189,Waukesha County,WI,NA,NA,37.57309941520468
53202,Milwaukee County,WI,86.95652173913044,NA,NA
53204,Milwaukee County,WI,8.695652173913043,NA,NA
53209,Milwaukee County,WI,NA,NA,7.309941520467836
53210,Milwaukee County,WI,NA,NA,49.56140350877193
53211,Milwaukee County,WI,NA,NA,7.894736842105263
53214,Milwaukee County,WI,14.578005115089516,NA,NA
53216,Milwaukee County,WI,7.672634271099745,NA,NA
53223,Milwaukee County,WI,18.925831202046037,NA,NA
53402,Racine County,WI,NA,68.85496183206106,NA
53538,Jefferson County,WI,NA,38.01526717557252,NA
53705,Dane County,WI,100,NA,NA
53713,Dane County,WI,NA,87.02290076335878,NA
53717,Dane County,WI,NA,87.48091603053435,NA
53901,Columbia County,WI,NA,70.99236641221374,NA
53913,Sauk County,WI,NA,NA,11.842105263157894
54016,St. Croix County,WI,NA,48.854961832061065,NA
54022,Pierce County,WI,55.49872122762148,NA,NA
54157,Marinette County,WI,NA,NA,96.9298245614035
54467,Portage County,WI,NA,NA,53.3625730994152
54650,La Crosse County,WI,NA,38.62595419847328,NA
54880,Douglas County,WI,NA,2.7480916030534353,NA
54914,Outagamie County,WI,NA,NA,66.08187134502924
54935,Fond du Lac County,WI,18.15856777493606,11.603053435114504,NA
54956,Winnebago County,WI,NA,NA,34.64912280701755
82435,Park County,WY,NA,NA,45.760233918128655
82935,Sweetwater County,WY,NA,81.67938931297711,NA
