ZipCode,county,state,Youth,Adult,Retirement
35045,Chilton County,AL,55.81395348837209,NA,NA
35151,Talladega County,AL,NA,79.91004497751123,NA
35205,Jefferson County,AL,NA,83.65817091454272,NA
35217,Jefferson County,AL,NA,NA,67.3076923076923
35563,Marion County,AL,NA,NA,74.03846153846155
35619,Morgan County,AL,NA,80.8095952023988,NA
36089,Bullock County,AL,NA,63.26836581709146,NA
36502,Escambia County,AL,NA,40.479760119940025,NA
36526,Baldwin County,AL,NA,77.66116941529235,NA
36603,Mobile County,AL,NA,NA,87.98076923076923
99504,Anchorage Municipality,AK,13.488372093023257,47.22638680659671,NA
99603,Kenai Peninsula Borough,AK,NA,64.46776611694153,NA
99901,Ketchikan Gateway Borough,AK,NA,37.331334332833585,NA
85004,Maricopa County,AZ,88.83720930232558,NA,NA
85007,Maricopa County,AZ,NA,10.944527736131935,NA
85009,Maricopa County,AZ,NA,13.493253373313344,NA
85014,Maricopa County,AZ,NA,41.07946026986507,NA
85018,Maricopa County,AZ,NA,29.985007496251875,NA
85029,Maricopa County,AZ,11.627906976744185,NA,NA
85051,Maricopa County,AZ,NA,14.992503748125937,NA
85225,Maricopa County,AZ,NA,NA,31.25
85298,Maricopa County,AZ,24.651162790697676,NA,NA
85326,Maricopa County,AZ,8.372093023255815,NA,NA
85375,Maricopa County,AZ,NA,71.81409295352323,NA
85379,Maricopa County,AZ,NA,27.2863568215892,NA
85743,Pima County,AZ,NA,37.78110944527736,NA
72204,Pulaski County,AR,89.76744186046511,NA,NA
72801,Pope County,AR,NA,69.11544227886057,NA
72936,Sebastian County,AR,NA,81.55922038980509,NA
90012,Los Angeles County,CA,NA,74.06296851574213,NA
90018,Los Angeles County,CA,NA,33.43328335832084,NA
90029,Los Angeles County,CA,NA,NA,61.53846153846154
90043,Los Angeles County,CA,NA,61.169415292353825,NA
90059,Los Angeles County,CA,NA,30.434782608695656,NA
90061,Los Angeles County,CA,NA,78.86056971514243,NA
90245,Los Angeles County,CA,94.41860465116278,NA,NA
90254,Los Angeles County,CA,NA,86.20689655172413,NA
90262,Los Angeles County,CA,NA,30.284857571214392,NA
90292,Los Angeles County,CA,93.95348837209302,NA,NA
90640,Los Angeles County,CA,NA,30.584707646176913,NA
90660,Los Angeles County,CA,NA,50.82458770614693,NA
90715,Los Angeles County,CA,NA,73.01349325337331,NA
90723,Los Angeles County,CA,44.651162790697676,NA,NA
90731,Los Angeles County,CA,NA,73.61319340329835,NA
90807,Los Angeles County,CA,NA,66.56671664167916,50.480769230769226
91101,Los Angeles County,CA,NA,78.71064467766116,NA
91306,Los Angeles County,CA,NA,36.73163418290854,NA
91343,Los Angeles County,CA,46.04651162790698,NA,NA
91352,Los Angeles County,CA,NA,48.57571214392804,NA
91402,Los Angeles County,CA,NA,24.43778110944528,NA
91406,Los Angeles County,CA,NA,83.20839580209895,NA
91411,Los Angeles County,CA,NA,98.05097451274362,NA
91768,Los Angeles County,CA,NA,38.830584707646175,NA
91786,San Bernardino County,CA,NA,28.48575712143928,NA
91911,San Diego County,CA,NA,21.289355322338828,NA
91913,San Diego County,CA,NA,59.820089955022496,NA
91915,San Diego County,CA,NA,74.36281859070465,NA
91942,San Diego County,CA,NA,95.2023988005997,NA
92008,San Diego County,CA,NA,NA,82.21153846153845
92014,San Diego County,CA,NA,94.90254872563717,NA
92019,San Diego County,CA,57.674418604651166,NA,NA
92020,San Diego County,CA,NA,20.239880059970012,NA
92021,San Diego County,CA,NA,NA,77.88461538461539
92025,San Diego County,CA,NA,NA,89.42307692307693
92040,San Diego County,CA,NA,42.578710644677656,NA
92103,San Diego County,CA,NA,41.82908545727136,NA
92104,San Diego County,CA,NA,24.887556221889056,NA
92110,San Diego County,CA,78.13953488372093,NA,NA
92113,San Diego County,CA,NA,22.038980509745127,NA
92201,Riverside County,CA,NA,21.43928035982009,NA
92316,San Bernardino County,CA,NA,NA,67.78846153846155
92325,San Bernardino County,CA,98.13953488372093,NA,NA
92404,San Bernardino County,CA,9.30232558139535,NA,NA
92405,San Bernardino County,CA,NA,89.80509745127436,NA
92505,Riverside County,CA,NA,74.96251874062968,46.15384615384615
92506,Riverside County,CA,NA,90.4047976011994,NA
92548,Riverside County,CA,NA,84.1079460269865,NA
92571,Riverside County,CA,NA,57.721139430284865,NA
92583,Riverside County,CA,NA,51.424287856071956,NA
92612,Orange County,CA,NA,57.87106446776612,NA
92703,Orange County,CA,NA,35.38230884557721,NA
92868,Orange County,CA,NA,52.47376311844077,90.86538461538461
93427,Santa Barbara County,CA,NA,98.50074962518741,NA
93436,Santa Barbara County,CA,NA,15.892053973013493,NA
93555,Kern County,CA,NA,22.638680659670165,NA
93610,Madera County,CA,44.18604651162791,NA,NA
93706,Fresno County,CA,NA,20.689655172413794,NA
93950,Monterey County,CA,NA,88.00599700149925,NA
94103,San Francisco County,CA,NA,NA,21.634615384615387
94107,San Francisco County,CA,NA,NA,58.17307692307693
94112,San Francisco County,CA,30.697674418604652,21.88905547226387,NA
94301,Santa Clara County,CA,NA,82.3088455772114,NA
94552,Alameda County,CA,NA,NA,96.15384615384616
94553,Contra Costa County,CA,29.767441860465116,NA,NA
94583,Contra Costa County,CA,NA,45.57721139430285,NA
94603,Alameda County,CA,NA,42.27886056971514,NA
94610,Alameda County,CA,NA,NA,75.96153846153845
94612,Alameda County,CA,64.18604651162791,NA,NA
94702,Alameda County,CA,NA,73.01349325337331,NA
94803,Contra Costa County,CA,96.74418604651163,NA,NA
94941,Marin County,CA,NA,98.95052473763118,NA
95014,Santa Clara County,CA,NA,52.7736131934033,NA
95037,Santa Clara County,CA,59.06976744186046,NA,NA
95123,Santa Clara County,CA,NA,33.733133433283356,29.807692307692307
95354,Stanislaus County,CA,NA,29.38530734632684,NA
95382,Stanislaus County,CA,NA,22.188905547226387,NA
95422,Lake County,CA,NA,71.06446776611695,NA
95816,Sacramento County,CA,37.67441860465116,NA,NA
95965,Butte County,CA,NA,93.55322338830585,NA
95973,Butte County,CA,NA,NA,28.846153846153843
95988,Glenn County,CA,NA,85.45727136431785,NA
96003,Shasta County,CA,NA,60.569715142428784,NA
80012,Arapahoe County,CO,NA,11.544227886056973,NA
80022,Adams County,CO,NA,63.1184407796102,NA
80205,Denver County,CO,17.209302325581397,NA,NA
80211,Denver County,CO,33.95348837209302,NA,NA
80303,Boulder County,CO,NA,89.65517241379311,NA
80501,Boulder County,CO,NA,19.1904047976012,NA
80751,Logan County,CO,NA,NA,54.32692307692307
80911,El Paso County,CO,NA,37.631184407796106,NA
80916,El Paso County,CO,NA,32.53373313343329,NA
81003,Pueblo County,CO,NA,31.484257871064468,NA
81008,Pueblo County,CO,91.62790697674419,NA,NA
81212,Fremont County,CO,NA,36.28185907046477,NA
81520,Mesa County,CO,50.23255813953489,NA,NA
06033,Hartford County,CT,NA,48.125937031484256,NA
06051,Hartford County,CT,NA,69.86506746626686,23.076923076923077
06111,Hartford County,CT,NA,34.18290854572714,NA
06117,Hartford County,CT,NA,99.55022488755623,NA
06234,Windham County,CT,NA,73.46326836581709,NA
06239,Windham County,CT,NA,32.083958020989506,NA
06410,New Haven County,CT,54.88372093023256,NA,NA
06484,Fairfield County,CT,NA,77.21139430284857,NA
06511,New Haven County,CT,NA,5.097451274362818,NA
06605,Fairfield County,CT,NA,NA,53.84615384615385
06702,New Haven County,CT,NA,71.2143928035982,NA
06708,New Haven County,CT,NA,47.52623688155922,NA
06710,New Haven County,CT,NA,70.01499250374813,NA
06790,Litchfield County,CT,NA,NA,56.25
06795,Litchfield County,CT,NA,71.66416791604198,NA
06810,Fairfield County,CT,NA,15.742128935532234,NA
06811,Fairfield County,CT,NA,41.67916041979011,NA
06851,Fairfield County,CT,NA,96.55172413793103,NA
19711,New Castle County,DE,NA,52.023988005997005,NA
19805,New Castle County,DE,NA,3.7481259370314843,NA
19904,Kent County,DE,NA,13.343328335832084,NA
32211,Duval County,FL,NA,20.089955022488756,NA
32216,Duval County,FL,NA,44.227886056971514,NA
32220,Duval County,FL,NA,53.823088455772115,NA
32244,Duval County,FL,NA,6.296851574212893,NA
32408,Bay County,FL,NA,60.41979010494752,NA
32505,Escambia County,FL,NA,17.09145427286357,NA
32725,Volusia County,FL,28.37209302325581,NA,NA
32726,Lake County,FL,NA,78.26086956521739,NA
32789,Orange County,FL,NA,58.920539730134934,NA
32808,Orange County,FL,4.651162790697675,NA,NA
32822,Orange County,FL,NA,44.97751124437781,NA
32960,Indian River County,FL,NA,43.02848575712144,NA
33020,Broward County,FL,NA,64.76761619190404,NA
33023,Broward County,FL,18.6046511627907,NA,NA
33024,Broward County,FL,NA,26.83658170914543,NA
33032,Miami-Dade County,FL,NA,59.52023988005997,NA
33056,Miami-Dade County,FL,NA,79.46026986506747,NA
33060,Broward County,FL,40,NA,NA
33130,Miami-Dade County,FL,NA,NA,55.28846153846154
33136,Miami-Dade County,FL,NA,65.06746626686657,NA
33138,Miami-Dade County,FL,77.20930232558139,NA,NA
33142,Miami-Dade County,FL,NA,65.51724137931035,48.07692307692308
33145,Miami-Dade County,FL,NA,71.9640179910045,NA
33147,Miami-Dade County,FL,NA,28.93553223388306,NA
33157,Miami-Dade County,FL,NA,88.75562218890555,NA
33168,Miami-Dade County,FL,NA,56.67166416791605,NA
33169,Miami-Dade County,FL,NA,38.23088455772114,NA
33174,Miami-Dade County,FL,NA,80.95952023988005,NA
33177,Miami-Dade County,FL,61.395348837209305,NA,NA
33180,Miami-Dade County,FL,NA,67.46626686656671,NA
33184,Miami-Dade County,FL,NA,62.668665667166415,NA
33304,Broward County,FL,NA,64.91754122938531,NA
33308,Broward County,FL,NA,82.15892053973015,NA
33311,Broward County,FL,NA,26.536731634182907,NA
33312,Broward County,FL,NA,30.884557721139434,NA
33325,Broward County,FL,82.32558139534883,NA,NA
33327,Broward County,FL,NA,72.41379310344827,NA
33407,Palm Beach County,FL,NA,NA,98.07692307692307
33523,Pasco County,FL,75.81395348837209,NA,NA
33756,Pinellas County,FL,NA,NA,38.46153846153847
33781,Pinellas County,FL,NA,NA,37.5
33875,Highlands County,FL,80.93023255813954,NA,NA
33896,Polk County,FL,NA,76.91154422788605,NA
33909,Lee County,FL,NA,86.80659670164917,NA
33916,Lee County,FL,NA,34.33283358320839,NA
33950,Charlotte County,FL,NA,87.70614692653673,NA
34142,Collier County,FL,NA,NA,81.73076923076923
34221,Manatee County,FL,43.72093023255814,NA,NA
34239,Sarasota County,FL,73.95348837209302,NA,NA
34481,Marion County,FL,NA,60.26986506746626,NA
34491,Marion County,FL,47.906976744186046,NA,NA
34668,Pasco County,FL,NA,11.994002998500749,NA
34758,Osceola County,FL,NA,20.539730134932537,NA
34785,Sumter County,FL,NA,56.37181409295352,NA
34982,St. Lucie County,FL,37.67441860465116,NA,NA
30008,Cobb County,GA,NA,52.17391304347826,NA
30024,Gwinnett County,GA,NA,46.476761619190405,NA
30034,DeKalb County,GA,NA,72.86356821589204,NA
30120,Bartow County,GA,NA,19.490254872563717,NA
30125,Polk County,GA,NA,33.28335832083958,NA
30236,Clayton County,GA,NA,52.32383808095952,NA
30318,Fulton County,GA,23.25581395348837,25.487256371814095,NA
30331,Fulton County,GA,NA,16.64167916041979,NA
30344,Fulton County,GA,NA,39.73013493253374,NA
30349,Fulton County,GA,NA,8.545727136431784,NA
30458,Bulloch County,GA,29.30232558139535,NA,NA
30814,Columbia County,GA,NA,68.06596701649175,NA
30815,Richmond County,GA,20.46511627906977,NA,NA
31061,Baldwin County,GA,NA,26.38680659670165,NA
31217,Bibb County,GA,NA,72.56371814092954,NA
31707,Dougherty County,GA,NA,NA,39.90384615384615
31757,Thomas County,GA,68.83720930232559,NA,NA
31907,Muscogee County,GA,NA,NA,6.25
96782,Honolulu County,HI,NA,32.68365817091454,NA
96813,Honolulu County,HI,NA,29.535232383808097,NA
96817,Honolulu County,HI,20.930232558139537,NA,NA
83201,Bannock County,ID,15.813953488372093,NA,NA
83301,Twin Falls County,ID,NA,17.841079460269864,NA
83318,Cassia County,ID,NA,NA,43.75
83406,Bonneville County,ID,NA,NA,63.46153846153846
83686,Canyon County,ID,NA,8.845577211394302,NA
83704,Ada County,ID,91.16279069767442,NA,NA
83815,Kootenai County,ID,NA,32.23388305847077,NA
60005,Cook County,IL,NA,80.35982008995502,NA
60010,Lake County,IL,NA,35.532233883058474,NA
60013,McHenry County,IL,NA,96.40179910044976,NA
60016,Cook County,IL,NA,21.73913043478261,NA
60104,Cook County,IL,NA,NA,66.34615384615384
60107,Cook County,IL,63.72093023255814,NA,NA
60148,DuPage County,IL,NA,15.442278860569717,NA
60411,Cook County,IL,NA,50.97451274362819,NA
60426,Cook County,IL,NA,47.82608695652174,NA
60462,Cook County,IL,85.5813953488372,NA,NA
60466,Cook County,IL,NA,43.62818590704648,NA
60471,Cook County,IL,NA,92.65367316341829,NA
60472,Cook County,IL,NA,87.55622188905548,NA
60506,Kane County,IL,NA,23.53823088455772,NA
60614,Cook County,IL,NA,NA,98.5576923076923
60616,Cook County,IL,NA,NA,14.423076923076922
60619,Cook County,IL,NA,7.04647676161919,NA
60620,Cook County,IL,49.76744186046512,NA,NA
60628,Cook County,IL,NA,NA,7.6923076923076925
60629,Cook County,IL,20,NA,NA
60630,Cook County,IL,NA,21.13943028485757,NA
60632,Cook County,IL,53.95348837209303,NA,NA
60640,Cook County,IL,35.81395348837209,NA,NA
60641,Cook County,IL,NA,13.193403298350825,NA
60647,Cook County,IL,NA,28.035982008995504,24.519230769230766
60649,Cook County,IL,34.418604651162795,14.54272863568216,NA
60660,Cook County,IL,NA,NA,20.673076923076923
60707,Cook County,IL,NA,18.74062968515742,NA
60804,Cook County,IL,NA,18.590704647676162,NA
60914,Kankakee County,IL,NA,NA,25
60950,Kankakee County,IL,NA,96.85157421289355,NA
61021,Lee County,IL,11.162790697674419,NA,NA
61350,LaSalle County,IL,32.55813953488372,NA,NA
61364,LaSalle County,IL,81.86046511627907,NA,NA
62040,Madison County,IL,NA,18.89055472263868,NA
62207,St. Clair County,IL,NA,NA,84.61538461538461
62522,Macon County,IL,NA,47.976011994002995,NA
62960,Massac County,IL,87.90697674418605,NA,NA
62966,Jackson County,IL,76.27906976744187,NA,NA
46204,Marion County,IN,NA,71.51424287856072,NA
46208,Marion County,IN,NA,31.03448275862069,NA
46229,Marion County,IN,NA,21.58920539730135,NA
46235,Marion County,IN,NA,67.01649175412294,NA
46260,Marion County,IN,NA,41.37931034482759,NA
46268,Marion County,IN,NA,NA,65.86538461538461
46320,Lake County,IN,71.16279069767441,NA,NA
46321,Lake County,IN,NA,31.184407796101947,NA
46368,Porter County,IN,NA,NA,53.36538461538461
46410,Lake County,IN,NA,93.10344827586206,NA
46526,Elkhart County,IN,NA,NA,87.5
46538,Kosciusko County,IN,NA,99.85007496251875,NA
46540,Elkhart County,IN,NA,97.90104947526237,NA
46614,St. Joseph County,IN,NA,95.80209895052474,NA
46750,Huntington County,IN,76.74418604651163,NA,NA
46805,Allen County,IN,NA,93.7031484257871,NA
46806,Allen County,IN,NA,24.587706146926536,NA
46815,Allen County,IN,NA,86.3568215892054,NA
47025,Dearborn County,IN,38.604651162790695,NA,NA
47150,Floyd County,IN,NA,NA,12.5
47250,Jefferson County,IN,NA,54.72263868065967,NA
47302,Delaware County,IN,NA,17.09145427286357,NA
47304,Delaware County,IN,NA,NA,40.38461538461539
47362,Henry County,IN,NA,79.16041979010495,NA
47371,Jay County,IN,NA,NA,99.03846153846155
47441,Greene County,IN,NA,NA,90.38461538461539
50009,Polk County,IA,NA,56.8215892053973,NA
50266,Polk County,IA,NA,64.01799100449776,83.17307692307693
50315,Polk County,IA,NA,9.295352323838081,NA
50659,Chickasaw County,IA,NA,82.90854572713643,NA
51503,Pottawattamie County,IA,NA,NA,44.230769230769226
52404,Linn County,IA,NA,9.145427286356822,NA
52601,Des Moines County,IA,NA,12.293853073463268,NA
52722,Scott County,IA,NA,19.34032983508246,NA
52761,Muscatine County,IA,NA,NA,16.346153846153847
66049,Douglas County,KS,69.30232558139535,NA,NA
67216,Sedgwick County,KS,40.93023255813954,NA,NA
40220,Jefferson County,KY,86.9767441860465,NA,NA
40272,Jefferson County,KY,NA,13.943028485757122,NA
40444,Garrard County,KY,NA,49.17541229385307,NA
40517,Fayette County,KY,NA,67.9160419790105,NA
41011,Kenton County,KY,46.51162790697674,NA,NA
41040,Pendleton County,KY,NA,NA,76.92307692307693
41042,Boone County,KY,NA,6.146926536731634,NA
42539,Casey County,KY,67.90697674418604,NA,NA
70006,Jefferson Parish,LA,NA,NA,41.82692307692308
70056,Jefferson Parish,LA,NA,4.94752623688156,NA
70058,Jefferson Parish,LA,NA,41.22938530734633,NA
70072,Jefferson Parish,LA,NA,NA,26.923076923076923
70114,Orleans Parish,LA,6.511627906976744,NA,NA
70122,Orleans Parish,LA,NA,76.31184407796103,94.23076923076923
70360,Terrebonne Parish,LA,NA,NA,66.82692307692307
70392,St. Mary Parish,LA,NA,57.271364317841076,NA
70517,St. Martin Parish,LA,13.953488372093023,NA,NA
70525,Acadia Parish,LA,NA,NA,72.59615384615384
70570,St. Landry Parish,LA,NA,89.50524737631184,NA
70615,Calcasieu Parish,LA,NA,94.75262368815592,NA
70802,East Baton Rouge Parish,LA,NA,56.22188905547226,95.1923076923077
70805,East Baton Rouge Parish,LA,NA,91.75412293853074,NA
70810,East Baton Rouge Parish,LA,8.837209302325581,NA,NA
70814,East Baton Rouge Parish,LA,NA,91.60419790104947,NA
71108,Caddo Parish,LA,NA,10.494752623688155,NA
71225,Ouachita Parish,LA,NA,56.97151424287856,NA
71291,Ouachita Parish,LA,NA,NA,32.69230769230769
04005,York County,ME,19.069767441860467,NA,NA
04073,York County,ME,NA,81.25937031484258,NA
04101,Cumberland County,ME,NA,31.63418290854573,81.25
04530,Sagadahoc County,ME,NA,53.67316341829086,NA
04605,Hancock County,ME,NA,NA,51.442307692307686
04915,Waldo County,ME,NA,58.02098950524738,NA
20832,Montgomery County,MD,NA,93.4032983508246,NA
21042,Howard County,MD,NA,NA,48.55769230769231
21202,Baltimore city,MD,51.627906976744185,NA,NA
21215,Baltimore city,MD,NA,8.245877061469265,NA
21221,Baltimore County,MD,NA,18.4407796101949,NA
21222,Baltimore County,MD,56.27906976744186,5.247376311844078,NA
21223,Baltimore city,MD,39.06976744186046,NA,NA
21237,Baltimore County,MD,NA,46.17691154422789,NA
21239,Baltimore city,MD,NA,53.373313343328334,NA
21244,Baltimore County,MD,NA,39.58020989505248,NA
21613,Dorchester County,MD,NA,56.52173913043478,NA
21629,Caroline County,MD,NA,68.51574212893553,NA
01002,Hampshire County,MA,NA,34.48275862068966,NA
01062,Hampshire County,MA,NA,NA,59.61538461538461
01082,Hampshire County,MA,NA,81.40929535232384,NA
01108,Hampden County,MA,NA,22.488755622188904,NA
01109,Hampden County,MA,1.8604651162790697,NA,NA
01151,Hampden County,MA,NA,24.137931034482758,NA
01603,Worcester County,MA,NA,12.443778110944528,4.326923076923077
01606,Worcester County,MA,NA,16.79160419790105,NA
01609,Worcester County,MA,NA,NA,82.6923076923077
01610,Worcester County,MA,NA,0.4497751124437781,NA
01701,Middlesex County,MA,NA,33.13343328335832,NA
01702,Middlesex County,MA,NA,1.6491754122938531,NA
01730,Middlesex County,MA,NA,52.92353823088456,NA
01801,Middlesex County,MA,NA,46.326836581709145,NA
01841,Essex County,MA,0,NA,NA
01843,Essex County,MA,NA,42.87856071964018,NA
01844,Essex County,MA,NA,50.07496251874063,NA
01876,Middlesex County,MA,NA,75.86206896551724,24.03846153846154
01906,Essex County,MA,NA,62.81859070464768,NA
01915,Essex County,MA,NA,NA,30.288461538461537
01960,Essex County,MA,NA,0.8995502248875562,0.4807692307692308
02114,Suffolk County,MA,NA,54.12293853073463,NA
02118,Suffolk County,MA,NA,2.6986506746626686,NA
02119,Suffolk County,MA,NA,2.2488755622188905,NA
02122,Suffolk County,MA,52.55813953488372,NA,NA
02124,Suffolk County,MA,15.348837209302326,0.5997001499250375,NA
02125,Suffolk County,MA,NA,0.14992503748125938,57.21153846153846
02130,Suffolk County,MA,NA,NA,2.8846153846153846
02134,Suffolk County,MA,NA,75.41229385307346,NA
02135,Suffolk County,MA,NA,70.16491754122939,88.46153846153845
02138,Middlesex County,MA,NA,12.14392803598201,NA
02139,Middlesex County,MA,NA,NA,4.807692307692308
02141,Middlesex County,MA,NA,26.08695652173913,NA
02143,Middlesex County,MA,NA,60.86956521739131,14.903846153846153
02144,Middlesex County,MA,NA,45.72713643178411,NA
02149,Middlesex County,MA,NA,77.36131934032984,1.4423076923076923
02150,Suffolk County,MA,3.255813953488372,NA,NA
02301,Plymouth County,MA,NA,3.1484257871064467,NA
02302,Plymouth County,MA,NA,1.3493253373313343,NA
02368,Norfolk County,MA,NA,2.548725637181409,NA
02382,Plymouth County,MA,NA,23.68815592203898,NA
02420,Middlesex County,MA,NA,95.95202398800599,NA
02461,Middlesex County,MA,NA,NA,86.53846153846155
02474,Middlesex County,MA,NA,NA,51.92307692307693
02478,Middlesex County,MA,NA,59.37031484257871,NA
02648,Barnstable County,MA,NA,62.368815592203894,NA
02720,Bristol County,MA,NA,0,0.9615384615384616
02723,Bristol County,MA,7.906976744186046,3.2983508245877062,NA
02724,Bristol County,MA,NA,4.3478260869565215,NA
48033,Oakland County,MI,NA,37.181409295352324,NA
48059,St. Clair County,MI,NA,54.87256371814093,NA
48060,St. Clair County,MI,NA,59.67016491754122,NA
48067,Oakland County,MI,NA,32.38380809595202,NA
48072,Oakland County,MI,52.093023255813954,NA,NA
48080,Macomb County,MI,84.18604651162791,NA,18.75
48093,Macomb County,MI,NA,18.140929535232384,NA
48105,Washtenaw County,MI,NA,85.75712143928035,NA
48108,Washtenaw County,MI,NA,33.5832083958021,NA
48141,Wayne County,MI,NA,8.995502248875562,NA
48169,Livingston County,MI,NA,42.578710644677656,NA
48174,Wayne County,MI,NA,7.496251874062969,NA
48198,Washtenaw County,MI,2.7906976744186047,NA,18.269230769230766
48205,Wayne County,MI,3.7209302325581395,NA,NA
48213,Wayne County,MI,NA,11.094452773613193,NA
48228,Wayne County,MI,NA,2.0989505247376314,NA
48234,Wayne County,MI,NA,NA,20.192307692307693
48322,Oakland County,MI,79.53488372093022,NA,NA
48341,Oakland County,MI,24.651162790697676,NA,NA
48375,Oakland County,MI,NA,65.81709145427287,NA
48390,Oakland County,MI,35.81395348837209,NA,NA
48423,Genesee County,MI,NA,28.18590704647676,NA
48503,Genesee County,MI,NA,NA,86.0576923076923
48602,Saginaw County,MI,NA,91.1544227886057,NA
48640,Midland County,MI,19.53488372093023,NA,NA
48855,Livingston County,MI,NA,98.80059970014993,NA
49022,Berrien County,MI,NA,68.96551724137932,NA
49036,Branch County,MI,NA,25.63718140929535,NA
49306,Kent County,MI,NA,99.40029985007496,NA
49417,Ottawa County,MI,NA,NA,11.057692307692307
49418,Kent County,MI,NA,33.88305847076462,NA
49445,Muskegon County,MI,NA,55.472263868065966,NA
49504,Kent County,MI,NA,15.142428785607196,NA
49534,Kent County,MI,NA,92.50374812593704,NA
49546,Kent County,MI,NA,77.81109445277362,NA
49548,Kent County,MI,NA,7.646176911544228,NA
49802,Dickinson County,MI,NA,61.019490254872565,NA
49855,Marquette County,MI,NA,40.32983508245877,NA
55013,Chisago County,MN,98.13953488372093,NA,NA
55016,Washington County,MN,10.69767441860465,NA,NA
55040,Isanti County,MN,NA,NA,61.057692307692314
55060,Steele County,MN,31.627906976744185,NA,NA
55063,Pine County,MN,74.4186046511628,NA,NA
55075,Dakota County,MN,NA,58.47076461769115,NA
55101,Ramsey County,MN,NA,67.61619190404798,NA
55102,Ramsey County,MN,NA,64.31784107946027,NA
55107,Ramsey County,MN,NA,90.85457271364318,NA
55113,Ramsey County,MN,17.674418604651162,42.12893553223388,NA
55123,Dakota County,MN,24.186046511627907,NA,NA
55305,Hennepin County,MN,NA,88.9055472263868,NA
55404,Hennepin County,MN,5.5813953488372094,54.27286356821589,NA
55406,Hennepin County,MN,22.325581395348838,NA,NA
55407,Hennepin County,MN,NA,NA,69.71153846153845
55412,Hennepin County,MN,21.86046511627907,NA,NA
55416,Hennepin County,MN,34.883720930232556,NA,NA
55418,Hennepin County,MN,54.418604651162795,NA,NA
55419,Hennepin County,MN,34.883720930232556,97.0014992503748,NA
55420,Hennepin County,MN,NA,35.08245877061469,NA
55422,Hennepin County,MN,NA,NA,64.42307692307693
55423,Hennepin County,MN,NA,45.27736131934033,NA
55426,Hennepin County,MN,NA,NA,38.94230769230769
55427,Hennepin County,MN,NA,68.36581709145428,NA
55428,Hennepin County,MN,NA,17.991004497751124,NA
55429,Hennepin County,MN,NA,50.67466266866567,NA
55430,Hennepin County,MN,NA,NA,71.15384615384616
55746,St. Louis County,MN,NA,60.71964017991005,NA
55792,St. Louis County,MN,NA,87.10644677661169,NA
55805,St. Louis County,MN,NA,73.7631184407796,NA
55808,St. Louis County,MN,NA,84.40779610194903,NA
55812,St. Louis County,MN,NA,92.95352323838081,NA
55912,Mower County,MN,NA,NA,29.326923076923077
55987,Winona County,MN,NA,8.695652173913043,NA
56007,Freeborn County,MN,NA,41.52923538230884,NA
56201,Kandiyohi County,MN,65.58139534883722,NA,NA
56241,Yellow Medicine County,MN,NA,86.95652173913044,NA
56303,Stearns County,MN,NA,NA,92.78846153846155
56308,Douglas County,MN,6.046511627906977,23.988005997001498,75
56401,Crow Wing County,MN,NA,61.6191904047976,NA
56470,Hubbard County,MN,72.55813953488372,NA,NA
56529,Clay County,MN,NA,75.11244377811094,NA
56601,Beltrami County,MN,NA,24.28785607196402,NA
56721,Polk County,MN,NA,46.62668665667166,NA
38771,Sunflower County,MS,NA,NA,99.51923076923077
39501,Harrison County,MS,NA,44.827586206896555,NA
39503,Harrison County,MS,36.74418604651163,NA,NA
39540,Harrison County,MS,94.88372093023256,NA,NA
39553,Jackson County,MS,85.11627906976744,NA,NA
39701,Lowndes County,MS,62.32558139534884,NA,NA
63012,Jefferson County,MO,NA,89.35532233883059,NA
63017,St. Louis County,MO,NA,NA,15.865384615384615
63021,St. Louis County,MO,NA,38.53073463268366,NA
63026,St. Louis County,MO,NA,31.93403298350825,NA
63103,St. Louis city,MO,NA,74.2128935532234,NA
63108,St. Louis city,MO,NA,NA,46.63461538461539
63134,St. Louis County,MO,NA,58.920539730134934,NA
63147,St. Louis city,MO,NA,NA,74.51923076923077
63303,St. Charles County,MO,NA,NA,70.1923076923077
63501,Adair County,MO,NA,78.11094452773614,NA
63640,St. Francois County,MO,NA,36.13193403298351,NA
63670,Ste. Genevieve County,MO,NA,91.30434782608695,NA
63701,Cape Girardeau County,MO,NA,34.93253373313343,NA
63869,New Madrid County,MO,NA,91.904047976012,NA
63957,Wayne County,MO,NA,85.15742128935531,NA
64014,Jackson County,MO,NA,73.31334332833583,NA
64050,Jackson County,MO,NA,NA,21.153846153846153
64055,Jackson County,MO,NA,7.946026986506746,NA
64106,Jackson County,MO,NA,25.337331334332834,NA
64156,Clay County,MO,NA,97.75112443778112,NA
64505,Buchanan County,MO,32.093023255813954,NA,NA
64683,Grundy County,MO,39.53488372093023,NA,NA
65301,Pettis County,MO,NA,4.7976011994003,NA
65453,Crawford County,MO,NA,70.31484257871064,NA
65625,Barry County,MO,NA,NA,70.67307692307693
65714,Christian County,MO,27.44186046511628,NA,NA
65775,Howell County,MO,NA,52.623688155922046,NA
65802,Greene County,MO,NA,34.03298350824588,NA
59101,Yellowstone County,MT,NA,34.78260869565217,NA
59715,Gallatin County,MT,92.55813953488372,NA,NA
68105,Douglas County,NE,NA,92.05397301349325,NA
68108,Douglas County,NE,NA,86.50674662668666,NA
68138,Sarpy County,NE,82.7906976744186,NA,NA
68144,Douglas County,NE,NA,76.7616191904048,NA
68502,Lancaster County,NE,65.11627906976744,85.00749625187406,NA
68503,Lancaster County,NE,NA,60.11994002998501,NA
89107,Clark County,NV,NA,83.05847076461768,NA
89431,Washoe County,NV,NA,NA,83.65384615384616
89509,Washoe County,NV,NA,64.61769115442279,NA
89512,Washoe County,NV,NA,53.07346326836581,NA
03038,Rockingham County,NH,NA,12.893553223388308,NA
03103,Hillsborough County,NH,2.3255813953488373,NA,NA
03253,Belknap County,NH,NA,97.15142428785607,NA
03452,Cheshire County,NH,93.02325581395348,NA,NA
03766,Grafton County,NH,NA,NA,59.13461538461539
07003,Essex County,NJ,NA,9.745127436281859,NA
07017,Essex County,NJ,NA,2.848575712143928,NA
07018,Essex County,NJ,NA,6.446776611694154,NA
07020,Bergen County,NJ,NA,99.70014992503748,NA
07030,Hudson County,NJ,95.81395348837209,NA,NA
07044,Essex County,NJ,NA,96.10194902548726,NA
07052,Essex County,NJ,NA,15.592203898050974,NA
07087,Hudson County,NJ,NA,NA,31.73076923076923
07103,Essex County,NJ,NA,58.620689655172406,NA
07104,Essex County,NJ,NA,5.997001499250374,NA
07108,Essex County,NJ,NA,12.743628185907047,NA
07109,Essex County,NJ,NA,40.02998500749625,NA
07111,Essex County,NJ,NA,56.07196401799101,NA
07112,Essex County,NJ,NA,68.81559220389805,NA
07208,Union County,NJ,NA,14.24287856071964,NA
07305,Hudson County,NJ,NA,13.6431784107946,22.596153846153847
07407,Bergen County,NJ,NA,27.886056971514243,NA
07421,Passaic County,NJ,83.72093023255815,NA,NA
07438,Morris County,NJ,NA,74.81259370314842,NA
07470,Passaic County,NJ,NA,NA,6.730769230769231
07501,Passaic County,NJ,NA,55.322338830584705,NA
07522,Passaic County,NJ,NA,85.90704647676162,NA
07601,Bergen County,NJ,NA,23.838080959520237,NA
07605,Bergen County,NJ,NA,91.00449775112443,NA
07644,Bergen County,NJ,NA,NA,34.13461538461539
07657,Bergen County,NJ,73.0232558139535,NA,NA
07663,Bergen County,NJ,NA,50.22488755622189,NA
07675,Bergen County,NJ,NA,53.52323838080959,NA
07712,Monmouth County,NJ,NA,3.8980509745127434,47.59615384615385
07739,Monmouth County,NJ,NA,NA,68.75
07740,Monmouth County,NJ,0.46511627906976744,7.19640179910045,87.01923076923077
07748,Monmouth County,NJ,46.97674418604651,NA,NA
07753,Monmouth County,NJ,NA,5.697151424287856,NA
07764,Monmouth County,NJ,NA,90.70464767616193,NA
07885,Morris County,NJ,NA,68.21589205397302,NA
07940,Morris County,NJ,NA,86.65667166416792,NA
08029,Camden County,NJ,NA,NA,89.90384615384616
08037,Atlantic County,NJ,49.30232558139535,NA,NA
08070,Salem County,NJ,NA,75.71214392803599,NA
08093,Gloucester County,NJ,NA,77.5112443778111,NA
08096,Gloucester County,NJ,NA,98.20089955022489,NA
08105,Camden County,NJ,NA,1.4992503748125936,NA
08232,Atlantic County,NJ,NA,22.938530734632685,NA
08234,Atlantic County,NJ,NA,4.6476761619190405,NA
08401,Atlantic County,NJ,NA,72.26386806596702,5.769230769230769
08402,Atlantic County,NJ,NA,79.61019490254873,NA
08501,Monmouth County,NJ,100,NA,NA
08721,Ocean County,NJ,12.093023255813954,NA,NA
08724,Ocean County,NJ,NA,47.07646176911544,NA
08753,Ocean County,NJ,NA,NA,8.173076923076923
08807,Somerset County,NJ,NA,26.686656671664167,NA
08816,Middlesex County,NJ,NA,30.584707646176913,NA
08817,Middlesex County,NJ,NA,79.01049475262369,NA
08844,Somerset County,NJ,56.74418604651162,NA,NA
08854,Middlesex County,NJ,NA,8.395802098950526,NA
08859,Middlesex County,NJ,NA,44.07796101949025,NA
08861,Middlesex County,NJ,NA,1.9490254872563717,NA
08872,Middlesex County,NJ,NA,92.35382308845578,NA
87109,Bernalillo County,NM,NA,NA,85.57692307692307
87120,Bernalillo County,NM,14.418604651162791,NA,NA
87123,Bernalillo County,NM,NA,NA,45.19230769230769
87301,McKinley County,NM,NA,23.238380809595203,NA
87547,,NM,83.25581395348837,NA,NA
10001,New York County,NY,NA,36.8815592203898,10.576923076923077
10002,New York County,NY,NA,NA,5.288461538461538
10009,New York County,NY,NA,NA,91.82692307692307
10011,New York County,NY,NA,34.63268365817092,NA
10012,New York County,NY,NA,69.41529235382309,NA
10016,New York County,NY,NA,81.70914542728636,NA
10024,New York County,NY,NA,46.026986506746624,28.365384615384613
10025,New York County,NY,NA,55.62218890554723,NA
10026,New York County,NY,NA,22.338830584707647,NA
10027,New York County,NY,NA,72.11394302848576,17.307692307692307
10030,New York County,NY,NA,58.32083958020989,NA
10033,New York County,NY,NA,16.19190404797601,NA
10035,New York County,NY,NA,48.7256371814093,NA
10040,New York County,NY,NA,28.7856071964018,NA
10065,New York County,NY,NA,94.00299850074963,NA
10301,Richmond County,NY,NA,NA,41.34615384615385
10302,Richmond County,NY,NA,99.10044977511244,NA
10304,Richmond County,NY,NA,NA,49.519230769230774
10312,Richmond County,NY,NA,NA,80.28846153846155
10451,Bronx County,NY,NA,3.4482758620689653,NA
10452,Bronx County,NY,NA,88.45577211394303,NA
10453,Bronx County,NY,NA,NA,12.980769230769232
10455,Bronx County,NY,NA,35.68215892053973,77.40384615384616
10457,Bronx County,NY,70.69767441860465,82.6086956521739,NA
10458,Bronx County,NY,NA,55.77211394302849,NA
10459,Bronx County,NY,NA,NA,13.461538461538462
10461,Bronx County,NY,80.46511627906978,35.83208395802099,NA
10463,Bronx County,NY,NA,43.92803598200899,NA
10466,Bronx County,NY,NA,62.968515742128936,3.8461538461538463
10467,Bronx County,NY,NA,43.77811094452774,0
10468,Bronx County,NY,NA,70.76461769115441,69.23076923076923
10469,Bronx County,NY,97.20930232558139,NA,12.01923076923077
10472,Bronx County,NY,NA,70.4647676161919,NA
10473,Bronx County,NY,NA,NA,85.09615384615384
10522,Westchester County,NY,NA,89.95502248875562,NA
10543,Westchester County,NY,72.09302325581395,NA,79.32692307692307
10549,Westchester County,NY,NA,82.75862068965517,NA
10701,Westchester County,NY,NA,NA,7.211538461538461
10703,Westchester County,NY,NA,NA,58.17307692307693
10705,Westchester County,NY,NA,31.334332833583208,NA
10710,Westchester County,NY,NA,99.2503748125937,NA
10924,Orange County,NY,NA,81.10944527736132,78.84615384615384
10940,Orange County,NY,99.53488372093024,62.518740629685155,19.230769230769234
10941,Orange County,NY,NA,NA,91.34615384615384
10950,Orange County,NY,NA,83.95802098950524,NA
10989,Rockland County,NY,67.44186046511628,NA,NA
11003,Nassau County,NY,NA,97.30134932533733,NA
11040,Nassau County,NY,NA,69.7151424287856,NA
11106,Queens County,NY,69.76744186046511,44.527736131934034,NA
11205,Kings County,NY,NA,84.557721139430285,NA
11206,Kings County,NY,81.3953488372093,NA,33.65384615384615
11207,Kings County,NY,NA,0.29985007496251875,1.9230769230769231
11208,Kings County,NY,NA,NA,2.403846153846154
11211,Kings County,NY,NA,68.66566716641678,NA
11212,Kings County,NY,NA,1.0494752623688157,56.730769230769226
11213,Kings County,NY,NA,87.25637181409296,10.096153846153847
11214,Kings County,NY,NA,NA,15.384615384615385
11217,Kings County,NY,NA,90.25487256371814,NA
11220,Kings County,NY,NA,4.197901049475263,NA
11221,Kings County,NY,NA,92.80359820089956,27.884615384615387
11224,Kings County,NY,NA,NA,9.615384615384617
11226,Kings County,NY,NA,61.46926536731634,39.42307692307692
11229,Kings County,NY,45.58139534883721,NA,NA
11230,Kings County,NY,30.23255813953488,NA,NA
11232,Kings County,NY,NA,82.00899550224887,NA
11233,Kings County,NY,NA,49.77511244377811,NA
11234,Kings County,NY,33.48837209302326,NA,NA
11236,Kings County,NY,31.16279069767442,61.91904047976012,NA
11238,Kings County,NY,NA,19.04047976011994,NA
11354,Queens County,NY,NA,NA,35.57692307692308
11355,Queens County,NY,NA,62.06896551724138,NA
11356,Queens County,NY,NA,NA,71.63461538461539
11370,Queens County,NY,NA,63.56821589205397,NA
11373,Queens County,NY,NA,14.3928035982009,NA
11377,Queens County,NY,NA,88.30584707646177,NA
11412,Queens County,NY,NA,75.56221889055472,NA
11415,Queens County,NY,NA,93.25337331334332,NA
11417,Queens County,NY,NA,76.46176911544228,NA
11418,Queens County,NY,NA,40.929535232383806,NA
11420,Queens County,NY,NA,85.30734632683658,NA
11421,Queens County,NY,NA,95.35232383808095,NA
11423,Queens County,NY,NA,66.11694152923539,NA
11427,Queens County,NY,NA,NA,60.57692307692307
11428,Queens County,NY,NA,51.874062968515744,NA
11432,Queens County,NY,13.023255813953488,NA,NA
11434,Queens County,NY,NA,14.69265367316342,NA
11435,Queens County,NY,NA,11.244377811094452,NA
11530,Nassau County,NY,NA,75.11244377811094,NA
11542,Nassau County,NY,99.06976744186046,NA,NA
11550,Nassau County,NY,NA,48.87556221889056,NA
11575,Nassau County,NY,86.04651162790698,NA,NA
11691,Queens County,NY,NA,29.08545727136432,84.13461538461539
11701,Suffolk County,NY,NA,NA,57.692307692307686
11710,Nassau County,NY,NA,NA,92.3076923076923
11717,Suffolk County,NY,86.51162790697674,NA,NA
11720,Suffolk County,NY,NA,NA,63.942307692307686
11757,Suffolk County,NY,NA,NA,43.269230769230774
11934,Suffolk County,NY,NA,NA,93.75
11950,Suffolk County,NY,NA,98.35082458770614,NA
12010,Montgomery County,NY,80,5.397301349325337,NA
12118,Saratoga County,NY,NA,49.92503748125937,NA
12180,Rensselaer County,NY,7.441860465116279,80.0599700149925,NA
12189,Albany County,NY,NA,94.00299850074963,NA
12204,Albany County,NY,NA,NA,75.48076923076923
12205,Albany County,NY,NA,95.65217391304348,NA
12206,Albany County,NY,NA,89.05547226386807,NA
12306,Schenectady County,NY,NA,NA,97.59615384615384
12308,Schenectady County,NY,NA,93.85307346326837,NA
12401,Ulster County,NY,95.34883720930233,NA,NA
12570,Dutchess County,NY,NA,100,NA
12754,Sullivan County,NY,84.65116279069768,66.86656671664169,NA
12801,Warren County,NY,79.06976744186046,18.290854572713645,NA
12828,Washington County,NY,NA,38.08095952023988,NA
13045,Cortland County,NY,NA,4.497751124437781,NA
13082,Madison County,NY,NA,NA,80.76923076923077
13202,Onondaga County,NY,NA,49.32533733133433,NA
13203,Onondaga County,NY,16.27906976744186,NA,NA
13205,Onondaga County,NY,NA,13.043478260869565,NA
13208,Onondaga County,NY,53.02325581395348,NA,NA
13209,Onondaga County,NY,NA,84.70764617691154,NA
13210,Onondaga County,NY,NA,55.02248875562219,NA
13669,St. Lawrence County,NY,NA,79.3103448275862,NA
13760,Broome County,NY,NA,1.199400299850075,NA
13820,Otsego County,NY,NA,9.89505247376312,NA
13905,Broome County,NY,NA,2.39880059970015,NA
14094,Niagara County,NY,NA,38.68065967016492,NA
14131,Niagara County,NY,NA,66.26686656671664,NA
14214,Erie County,NY,NA,80.50974512743629,NA
14216,Erie County,NY,NA,84.25787106446776,NA
14467,Monroe County,NY,NA,69.26536731634184,NA
14559,Monroe County,NY,NA,NA,72.11538461538461
14604,Monroe County,NY,NA,95.05247376311844,NA
14608,Monroe County,NY,NA,76.61169415292353,NA
14609,Monroe County,NY,NA,80.65967016491754,NA
14611,Monroe County,NY,47.44186046511628,NA,NA
14612,Monroe County,NY,NA,39.430284857571216,NA
14615,Monroe County,NY,93.48837209302326,NA,NA
14616,Monroe County,NY,NA,4.0479760119940025,NA
14617,Monroe County,NY,NA,NA,62.5
14619,Monroe County,NY,NA,NA,73.07692307692307
14620,Monroe County,NY,NA,6.5967016491754125,NA
14621,Monroe County,NY,NA,15.292353823088456,NA
14623,Monroe County,NY,NA,NA,26.442307692307693
14701,Chautauqua County,NY,NA,NA,3.3653846153846154
14760,Cattaraugus County,NY,NA,10.044977511244378,NA
14807,Steuben County,NY,NA,95.50224887556223,NA
14810,Steuben County,NY,NA,28.335832083958024,NA
14901,Chemung County,NY,45.11627906976744,84.8575712143928,NA
27048,Rockingham County,NC,54.88372093023256,NA,NA
27103,Forsyth County,NC,NA,40.779610194902546,NA
27262,Guilford County,NC,NA,36.43178410794602,NA
27410,Guilford County,NC,70.23255813953489,NA,NA
27510,Orange County,NC,NA,49.47526236881559,NA
27517,Orange County,NC,51.162790697674424,NA,NA
27529,Wake County,NC,NA,76.16191904047976,NA
27573,Person County,NC,75.34883720930232,NA,NA
27577,Johnston County,NC,21.3953488372093,NA,NA
27615,Wake County,NC,NA,35.98200899550225,NA
27704,Durham County,NC,NA,11.694152923538232,NA
27823,Halifax County,NC,NA,61.31934032983508,NA
27828,Pitt County,NC,NA,55.172413793103445,NA
27858,Pitt County,NC,NA,NA,64.90384615384616
28115,Iredell County,NC,NA,19.940029985007495,NA
28206,Mecklenburg County,NC,NA,36.58170914542729,NA
28217,Mecklenburg County,NC,NA,44.377811094452774,NA
28273,Mecklenburg County,NC,NA,39.280359820089956,NA
28303,Cumberland County,NC,58.139534883720934,NA,NA
28311,Cumberland County,NC,NA,48.275862068965516,NA
28314,Cumberland County,NC,NA,65.21739130434783,NA
28401,New Hanover County,NC,NA,NA,35.09615384615385
28540,Onslow County,NC,NA,23.388305847076463,NA
28560,Craven County,NC,61.86046511627907,NA,NA
28659,Wilkes County,NC,NA,19.79010494752624,NA
28675,Alleghany County,NC,74.88372093023256,NA,NA
28715,Buncombe County,NC,48.372093023255815,NA,NA
28731,Henderson County,NC,NA,71.36431784107945,NA
28756,Polk County,NC,NA,83.80809595202399,NA
28792,Henderson County,NC,60.46511627906976,NA,NA
58103,Cass County,ND,1.3953488372093024,7.34632683658171,NA
58104,Cass County,ND,NA,NA,88.9423076923077
58201,Grand Forks County,ND,NA,27.436281859070466,11.538461538461538
58504,Burleigh County,ND,71.62790697674419,NA,NA
43081,Franklin County,OH,NA,20.389805097451273,NA
43138,Hocking County,OH,NA,26.986506746626688,NA
43206,Franklin County,OH,18.13953488372093,NA,NA
43222,Franklin County,OH,NA,47.52623688155922,NA
43229,Franklin County,OH,NA,6.896551724137931,NA
43302,Marion County,OH,NA,14.842578710644677,NA
43460,Wood County,OH,NA,63.718140929535224,NA
43512,Defiance County,OH,NA,NA,8.653846153846153
43606,Lucas County,OH,NA,16.34182908545727,NA
43613,Lucas County,OH,0.9302325581395349,NA,NA
43953,Jefferson County,OH,64.65116279069767,NA,NA
44004,Ashtabula County,OH,NA,65.6671664167916,NA
44052,Lorain County,OH,NA,16.041979010494753,NA
44053,Lorain County,OH,NA,8.095952023988005,NA
44060,Lake County,OH,NA,25.787106446776615,NA
44102,Cuyahoga County,OH,NA,10.344827586206897,NA
44103,Cuyahoga County,OH,NA,9.44527736131934,NA
44105,Cuyahoga County,OH,4.186046511627907,NA,NA
44107,Cuyahoga County,OH,NA,NA,25.961538461538463
44108,Cuyahoga County,OH,NA,3.598200899550225,NA
44111,Cuyahoga County,OH,NA,1.7991004497751124,NA
44114,Cuyahoga County,OH,78.6046511627907,NA,NA
44117,Cuyahoga County,OH,66.04651162790698,NA,NA
44121,Cuyahoga County,OH,NA,9.5952023988006,NA
44122,Cuyahoga County,OH,NA,NA,30.76923076923077
44129,Cuyahoga County,OH,NA,NA,19.71153846153846
44133,Cuyahoga County,OH,NA,87.40629685157421,NA
44135,Cuyahoga County,OH,NA,30.13493253373313,NA
44281,Medina County,OH,NA,57.42128935532234,NA
44311,Summit County,OH,90.23255813953487,NA,NA
44319,Summit County,OH,NA,NA,27.403846153846157
44321,Summit County,OH,NA,63.8680659670165,NA
44502,Mahoning County,OH,NA,59.97001499250375,NA
44691,Wayne County,OH,NA,NA,9.134615384615383
45176,Clermont County,OH,NA,NA,68.26923076923077
45202,Hamilton County,OH,28.837209302325583,45.42728635682159,NA
45206,Hamilton County,OH,53.48837209302325,NA,NA
45231,Hamilton County,OH,NA,NA,22.115384615384613
45238,Hamilton County,OH,NA,14.09295352323838,NA
45322,Montgomery County,OH,NA,35.23238380809595,NA
45365,Shelby County,OH,NA,11.84407796101949,NA
45503,Clark County,OH,NA,7.796101949025487,NA
45601,Ross County,OH,NA,0.7496251874062968,NA
45619,Lawrence County,OH,NA,24.887556221889056,NA
45701,Athens County,OH,NA,81.85907046476761,NA
73013,Oklahoma County,OK,NA,NA,13.942307692307693
73034,Oklahoma County,OK,89.30232558139535,NA,NA
73109,Oklahoma County,OK,NA,73.91304347826086,NA
73111,Oklahoma County,OK,NA,NA,54.807692307692314
73505,Comanche County,OK,NA,47.37631184407796,NA
74110,Tulsa County,OK,NA,70.91454272863568,NA
74136,Tulsa County,OK,NA,NA,42.78846153846153
74352,Mayes County,OK,NA,88.1559220389805,NA
74403,Muskogee County,OK,NA,29.235382308845576,NA
74849,Seminole County,OK,NA,94.45277361319341,NA
97008,Washington County,OR,NA,NA,47.11538461538461
97015,Clackamas County,OR,NA,45.87706146926537,NA
97034,Clackamas County,OR,87.90697674418605,NA,NA
97060,Multnomah County,OR,NA,37.93103448275862,NA
97211,Multnomah County,OR,NA,39.130434782608695,NA
97220,Multnomah County,OR,NA,NA,32.21153846153847
97266,Multnomah County,OR,NA,NA,36.53846153846153
97267,Clackamas County,OR,NA,31.784107946026985,NA
97321,Linn County,OR,42.7906976744186,NA,NA
97402,Lane County,OR,27.906976744186046,NA,NA
15005,Beaver County,PA,NA,92.20389805097452,NA
15009,Beaver County,PA,NA,NA,37.980769230769226
15131,Allegheny County,PA,NA,97.4512743628186,NA
15207,Allegheny County,PA,NA,48.425787106446776,NA
15219,Allegheny County,PA,NA,66.71664167916042,NA
15301,Washington County,PA,NA,24.737631184407796,NA
15320,Greene County,PA,NA,58.17091454272864,NA
16033,Butler County,PA,NA,89.20539730134932,NA
16801,Centre County,PA,97.67441860465115,NA,NA
17042,Lebanon County,PA,NA,20.98950524737631,NA
17104,Dauphin County,PA,NA,43.32833583208396,NA
17403,York County,PA,NA,29.83508245877061,NA
17522,Lancaster County,PA,NA,22.788605697151425,NA
17547,Lancaster County,PA,59.53488372093023,NA,NA
17801,Northumberland County,PA,26.51162790697674,NA,NA
17815,Columbia County,PA,22.790697674418606,NA,NA
17821,Montour County,PA,26.976744186046513,NA,NA
18015,Northampton County,PA,6.976744186046512,NA,NA
18018,Lehigh County,PA,NA,58.920539730134934,NA
18042,Northampton County,PA,NA,5.847076461769116,NA
18255,Carbon County,PA,NA,NA,62.980769230769226
18407,Lackawanna County,PA,60,NA,NA
18634,Luzerne County,PA,NA,38.3808095952024,NA
18704,Luzerne County,PA,NA,NA,17.78846153846154
19007,Bucks County,PA,40.93023255813954,NA,NA
19070,Delaware County,PA,NA,74.5127436281859,NA
19104,Philadelphia County,PA,14.883720930232558,NA,NA
19107,Philadelphia County,PA,NA,40.62968515742129,NA
19114,Philadelphia County,PA,NA,65.36731634182908,NA
19128,Philadelphia County,PA,NA,17.391304347826086,NA
19138,Philadelphia County,PA,NA,12.593703148425787,NA
19139,Philadelphia County,PA,9.767441860465116,NA,NA
19140,Philadelphia County,PA,NA,2.998500749625187,NA
19143,Philadelphia County,PA,NA,NA,33.17307692307692
19335,Chester County,PA,60.93023255813953,NA,NA
19601,Berks County,PA,NA,16.94152923538231,NA
19605,Berks County,PA,NA,NA,100
02816,Kent County,RI,NA,50.524737631184415,NA
02860,Providence County,RI,NA,57.5712143928036,NA
02861,Providence County,RI,NA,27.736131934032983,NA
02885,Bristol County,RI,NA,67.31634182908546,NA
02904,Providence County,RI,16.74418604651163,NA,NA
02906,Providence County,RI,NA,NA,79.8076923076923
29203,Richland County,SC,23.72093023255814,NA,25.48076923076923
29455,Charleston County,SC,NA,45.12743628185907,NA
29576,Horry County,SC,66.51162790697674,NA,NA
29585,Georgetown County,SC,NA,NA,44.71153846153847
29670,Anderson County,SC,NA,85.6071964017991,NA
29745,York County,SC,NA,44.527736131934034,NA
57104,Minnehaha County,SD,NA,51.2743628185907,NA
57770,Shannon County,SD,NA,NA,92.78846153846155
37013,Davidson County,TN,NA,10.194902548725636,NA
37086,Rutherford County,TN,26.046511627906977,NA,NA
37190,Cannon County,TN,NA,NA,73.5576923076923
37203,Davidson County,TN,NA,NA,60.09615384615385
37327,Sequatchie County,TN,NA,37.48125937031484,NA
37663,Sullivan County,TN,48.837209302325576,NA,NA
37862,Sevier County,TN,NA,32.98350824587706,NA
37917,Knox County,TN,NA,16.49175412293853,NA
37919,Knox County,TN,NA,NA,62.019230769230774
37923,Knox County,TN,NA,96.7016491754123,NA
38011,Tipton County,TN,NA,78.56071964017991,NA
38018,Shelby County,TN,NA,54.42278860569715,NA
38103,Shelby County,TN,NA,98.65067466266866,NA
38114,Shelby County,TN,NA,NA,34.61538461538461
38127,Shelby County,TN,NA,29.685157421289354,NA
38128,Shelby County,TN,NA,NA,37.019230769230774
38305,Madison County,TN,33.02325581395349,NA,NA
38583,White County,TN,NA,23.088455772113946,NA
75115,Dallas County,TX,NA,NA,23.557692307692307
75142,Kaufman County,TX,NA,NA,52.40384615384615
75211,Dallas County,TX,NA,17.541229385307346,NA
75216,Dallas County,TX,NA,42.4287856071964,NA
75237,Dallas County,TX,NA,NA,78.36538461538461
75426,Red River County,TX,NA,87.85607196401799,NA
75474,Hunt County,TX,NA,50.97451274362819,NA
75638,Morris County,TX,87.44186046511628,NA,NA
75961,Nacogdoches County,TX,NA,53.973013493253376,NA
76017,Tarrant County,TX,90.69767441860465,NA,NA
76039,Tarrant County,TX,NA,32.8335832083958,NA
76063,Tarrant County,TX,NA,NA,16.826923076923077
76105,Tarrant County,TX,NA,17.691154422788603,NA
76110,Tarrant County,TX,NA,NA,97.11538461538461
76112,Tarrant County,TX,NA,13.793103448275861,NA
76115,Tarrant County,TX,NA,77.06146926536732,NA
76132,Tarrant County,TX,NA,NA,49.03846153846153
76134,Tarrant County,TX,NA,70.61469265367316,NA
76164,Tarrant County,TX,NA,77.96101949025487,NA
76179,Tarrant County,TX,NA,26.236881559220386,NA
76502,Bell County,TX,12.558139534883722,NA,NA
76504,Bell County,TX,NA,83.50824587706147,NA
76513,Bell County,TX,5.116279069767442,74.66266866566717,NA
76574,Williamson County,TX,NA,64.16791604197901,NA
76706,McLennan County,TX,NA,NA,40.86538461538461
77004,Harris County,TX,66.97674418604652,25.187406296851574,42.30769230769231
77021,Harris County,TX,NA,90.55472263868066,NA
77061,Harris County,TX,NA,58.77061469265368,NA
77074,Harris County,TX,NA,63.41829085457271,NA
77080,Harris County,TX,NA,78.41079460269866,NA
77082,Harris County,TX,62.7906976744186,NA,NA
77092,Harris County,TX,NA,NA,55.769230769230774
77338,Harris County,TX,37.2093023255814,NA,NA
77477,Fort Bend County,TX,NA,97.60119940029985,NA
77489,Fort Bend County,TX,NA,82.45877061469265,NA
77498,Fort Bend County,TX,NA,46.62668665667166,NA
77520,Harris County,TX,NA,NA,50.96153846153846
77581,Brazoria County,TX,92.09302325581396,NA,NA
77612,Jasper County,TX,NA,NA,65.38461538461539
77845,Brazos County,TX,NA,62.21889055472264,NA
78040,Webb County,TX,NA,37.031484257871064,NA
78216,Bexar County,TX,NA,38.980509745127435,NA
78217,Bexar County,TX,NA,54.42278860569715,NA
78228,Bexar County,TX,NA,25.937031484257872,NA
78230,Bexar County,TX,NA,NA,50
78237,Bexar County,TX,NA,72.71364317841079,NA
78258,Bexar County,TX,NA,53.223388305847074,NA
78363,Kleberg County,TX,NA,69.56521739130434,NA
78415,Nueces County,TX,NA,NA,45.67307692307692
78633,Williamson County,TX,73.48837209302326,NA,NA
78801,Uvalde County,TX,NA,NA,96.63461538461539
78839,Zavala County,TX,NA,86.05697151424287,NA
78956,Fayette County,TX,NA,88.6056971514243,NA
79102,Potter County,TX,62.7906976744186,NA,NA
79106,Potter County,TX,42.32558139534884,NA,NA
79705,Midland County,TX,NA,NA,94.71153846153845
84104,Salt Lake County,UT,41.86046511627907,NA,NA
84120,Salt Lake County,UT,10.232558139534884,NA,NA
05401,Chittenden County,VT,NA,43.47826086956522,NA
05701,Rutland County,VT,96.27906976744185,NA,NA
22304,Alexandria city,VA,NA,51.724137931034484,NA
22312,Fairfax County,VA,NA,40.17991004497751,NA
22551,Spotsylvania County,VA,NA,50.37481259370315,NA
23224,Richmond city,VA,NA,10.794602698650674,NA
23320,Chesapeake city,VA,NA,94.60269865067467,NA
23323,Chesapeake city,VA,68.37209302325581,NA,NA
23324,Chesapeake city,VA,NA,79.76011994002998,NA
23430,Isle of Wight County,VA,58.6046511627907,NA,NA
23462,Virginia Beach city,VA,42.7906976744186,NA,NA
23661,Hampton city,VA,NA,51.57421289355323,NA
23803,Petersburg city,VA,NA,49.02548725637181,NA
23832,Chesterfield County,VA,50.697674418604656,NA,NA
23834,Colonial Heights city,VA,NA,61.76911544227887,NA
23847,Greensville County,VA,NA,57.12143928035982,NA
24016,Roanoke city,VA,NA,67.76611694152923,NA
24354,Smyth County,VA,57.20930232558139,NA,NA
24641,Tazewell County,VA,77.67441860465117,NA,NA
98022,King County,WA,NA,91.45427286356822,NA
98031,King County,WA,25.581395348837212,NA,NA
98101,King County,WA,NA,55.92203898050975,NA
98104,King County,WA,NA,41.97901049475262,NA
98126,King County,WA,NA,49.62518740629685,NA
98166,King County,WA,NA,66.26686656671664,NA
98168,King County,WA,NA,28.635682158920538,NA
98225,Whatcom County,WA,NA,46.92653673163419,NA
98367,Kitsap County,WA,NA,43.1784107946027,NA
98391,Pierce County,WA,NA,39.88005997001499,NA
20001,District of Columbia,DC,NA,19.640179910044978,NA
20010,District of Columbia,DC,NA,96.25187406296851,NA
20020,District of Columbia,DC,NA,27.586206896551722,NA
20032,District of Columbia,DC,NA,5.547226386806597,NA
25702,Cabell County,WV,NA,75.86206896551724,NA
53140,Kenosha County,WI,NA,11.394302848575713,NA
53142,Kenosha County,WI,NA,80.20989505247377,NA
53224,Milwaukee County,WI,NA,NA,76.4423076923077
53226,Milwaukee County,WI,NA,NA,36.05769230769231
53405,Racine County,WI,NA,6.746626686656672,NA
53548,Rock County,WI,NA,NA,52.88461538461539
53703,Dane County,WI,NA,65.96701649175412,NA
53704,Dane County,WI,NA,10.644677661169414,NA
54157,Marinette County,WI,NA,67.1664167916042,NA
54481,Portage County,WI,NA,83.35832083958022,NA
54494,Wood County,WI,NA,94.30284857571213,NA
54601,La Crosse County,WI,NA,27.136431784107945,NA
54751,Dunn County,WI,NA,90.10494752623688,NA
54806,Ashland County,WI,NA,NA,95.67307692307693
54914,Outagamie County,WI,NA,20.839580209895054,NA
82901,Sweetwater County,WY,40.46511627906977,NA,NA
