ZipCode,county,state,Adult,Retirement
35080,Shelby County,AL,55.602536997885835,NA
35126,Jefferson County,AL,50.317124735729394,NA
35150,Talladega County,AL,37.84355179704017,NA
35173,Jefferson County,AL,47.780126849894295,NA
35244,Jefferson County,AL,74.84143763213531,NA
35405,Tuscaloosa County,AL,8.24524312896406,NA
35406,Tuscaloosa County,AL,71.67019027484145,NA
35473,Tuscaloosa County,AL,52.64270613107822,NA
35501,Walker County,AL,63.00211416490487,NA
35546,Fayette County,AL,90.48625792811839,NA
35550,Walker County,AL,NA,86.0248447204969
35578,Walker County,AL,92.38900634249472,NA
35603,Morgan County,AL,NA,33.22981366459628
35613,Limestone County,AL,70.19027484143763,NA
35640,Morgan County,AL,NA,39.44099378881988
35760,Madison County,AL,93.65750528541226,NA
35769,Jackson County,AL,NA,74.84472049689441
35901,Etowah County,AL,33.192389006342495,NA
35903,Etowah County,AL,NA,30.124223602484474
35907,Etowah County,AL,92.81183932346723,NA
35967,DeKalb County,AL,NA,71.42857142857143
36067,Autauga County,AL,NA,47.82608695652174
36274,Randolph County,AL,NA,86.64596273291926
36301,Houston County,AL,17.547568710359407,NA
36323,Coffee County,AL,73.57293868921776,NA
36451,Clarke County,AL,86.89217758985201,NA
36542,Baldwin County,AL,76.53276955602537,NA
36571,Mobile County,AL,NA,73.6024844720497
36608,Mobile County,AL,73.36152219873149,47.82608695652174
36830,Lee County,AL,NA,63.35403726708074
36853,Tallapoosa County,AL,81.18393234672304,NA
99645,Matanuska-Susitna Borough,AK,52.43128964059197,NA
99654,Matanuska-Susitna Borough,AK,64.69344608879493,NA
85041,Maricopa County,AZ,NA,25.465838509316768
85048,Maricopa County,AZ,47.56871035940804,NA
85053,Maricopa County,AZ,44.18604651162791,NA
85118,Pinal County,AZ,NA,66.77018633540372
85209,Maricopa County,AZ,59.40803382663847,NA
85266,Maricopa County,AZ,NA,97.51552795031056
85364,Yuma County,AZ,2.3255813953488373,NA
85653,Pima County,AZ,34.6723044397463,NA
85714,Pima County,AZ,NA,62.11180124223602
85745,Pima County,AZ,23.678646934460886,NA
85901,Navajo County,AZ,49.471458773784356,NA
86326,Yavapai County,AZ,NA,23.91304347826087
71822,Little River County,AR,NA,75.46583850931677
72032,Faulkner County,AR,NA,45.03105590062112
72034,Faulkner County,AR,48.837209302325576,NA
72081,White County,AR,84.98942917547568,NA
72160,Arkansas County,AR,NA,93.7888198757764
72401,Craighead County,AR,14.16490486257928,NA
72404,Craighead County,AR,47.780126849894295,NA
72601,Boone County,AR,NA,68.01242236024845
72653,Baxter County,AR,NA,58.69565217391305
90016,Los Angeles County,CA,NA,23.60248447204969
90027,Los Angeles County,CA,55.81395348837209,NA
90031,Los Angeles County,CA,66.38477801268499,NA
90048,Los Angeles County,CA,75.47568710359408,NA
90069,Los Angeles County,CA,52.00845665961945,NA
90272,Los Angeles County,CA,NA,69.25465838509317
90292,Los Angeles County,CA,88.79492600422833,NA
90501,Los Angeles County,CA,NA,60.24844720496895
90703,Los Angeles County,CA,NA,35.40372670807454
90723,Los Angeles County,CA,49.89429175475687,NA
90803,Los Angeles County,CA,74.63002114164905,NA
91901,San Diego County,CA,60.46511627906976,NA
92019,San Diego County,CA,44.397463002114165,NA
92223,Riverside County,CA,28.118393234672308,NA
92234,Riverside County,CA,13.31923890063425,NA
92284,San Bernardino County,CA,25.158562367864697,NA
92407,San Bernardino County,CA,16.701902748414376,NA
92549,Riverside County,CA,NA,95.65217391304348
92595,Riverside County,CA,38.266384778012686,NA
92630,Orange County,CA,NA,19.25465838509317
92646,Orange County,CA,24.947145877378436,7.763975155279502
92683,Orange County,CA,NA,21.73913043478261
92806,Orange County,CA,53.48837209302325,NA
92870,Orange County,CA,34.46088794926004,NA
92886,Orange County,CA,28.752642706131077,NA
92887,Orange County,CA,NA,79.19254658385093
93001,Ventura County,CA,25.581395348837212,NA
93212,Kings County,CA,86.68076109936575,NA
93230,Kings County,CA,NA,15.527950310559005
93313,Kern County,CA,NA,54.347826086956516
93314,Kern County,CA,78.01268498942918,NA
93442,San Luis Obispo County,CA,82.4524312896406,NA
93555,Kern County,CA,23.890063424947147,NA
93562,San Bernardino County,CA,NA,96.8944099378882
94002,San Mateo County,CA,53.06553911205074,NA
94022,Santa Clara County,CA,NA,82.29813664596274
94114,San Francisco County,CA,45.87737843551797,NA
94116,San Francisco County,CA,NA,38.50931677018634
94558,Napa County,CA,29.59830866807611,NA
94582,Contra Costa County,CA,65.75052854122622,NA
94583,Contra Costa County,CA,49.68287526427061,NA
94589,Solano County,CA,56.65961945031712,NA
94598,Contra Costa County,CA,76.95560253699789,NA
94611,Alameda County,CA,84.56659619450318,NA
94920,Marin County,CA,89.21775898520085,NA
95127,Santa Clara County,CA,NA,45.65217391304348
95240,San Joaquin County,CA,NA,46.273291925465834
95361,Stanislaus County,CA,NA,30.745341614906835
95451,Lake County,CA,NA,51.24223602484472
95540,Humboldt County,CA,55.17970401691332,NA
95603,Placer County,CA,64.05919661733616,NA
95682,El Dorado County,CA,54.96828752642706,NA
95687,Solano County,CA,NA,23.29192546583851
95726,El Dorado County,CA,78.64693446088795,NA
95746,Placer County,CA,78.43551797040169,NA
95821,Sacramento County,CA,NA,31.366459627329192
95969,Butte County,CA,30.23255813953488,NA
96001,Shasta County,CA,20.084566596194502,NA
80016,Arapahoe County,CO,21.353065539112052,NA
80206,Denver County,CO,67.01902748414376,NA
80214,Jefferson County,CO,70.40169133192389,NA
80218,Denver County,CO,58.139534883720934,NA
80249,Denver County,CO,NA,76.3975155279503
80301,Boulder County,CO,NA,77.32919254658384
80547,Larimer County,CO,98.5200845665962,NA
80909,El Paso County,CO,NA,83.85093167701864
80917,El Paso County,CO,58.7737843551797,NA
81403,Montrose County,CO,76.32135306553911,NA
06066,Tolland County,CT,NA,20.496894409937887
06413,Middlesex County,CT,58.56236786469344,NA
06457,Middlesex County,CT,6.976744186046512,NA
06460,New Haven County,CT,NA,17.080745341614907
06704,New Haven County,CT,20.930232558139537,NA
06880,Fairfield County,CT,47.14587737843552,NA
06905,Fairfield County,CT,75.68710359408034,NA
19943,Kent County,DE,63.8477801268499,NA
19963,Sussex County,DE,NA,38.50931677018634
32011,Nassau County,FL,57.2938689217759,NA
32119,Volusia County,FL,NA,53.41614906832298
32208,Duval County,FL,NA,4.037267080745342
32210,Duval County,FL,2.748414376321353,5.590062111801243
32217,Duval County,FL,NA,46.58385093167702
32220,Duval County,FL,63.63636363636363,54.96894409937888
32257,Duval County,FL,23.46723044397463,NA
32501,Escambia County,FL,NA,42.54658385093168
32570,Santa Rosa County,FL,10.14799154334038,NA
32810,Orange County,FL,36.99788583509514,NA
32825,Orange County,FL,NA,16.77018633540373
32905,Brevard County,FL,57.082452431289646,NA
32922,Brevard County,FL,46.93446088794926,NA
32940,Brevard County,FL,NA,26.39751552795031
33012,Miami-Dade County,FL,43.34038054968288,NA
33062,Broward County,FL,68.07610993657505,NA
33169,Miami-Dade County,FL,NA,50.31055900621118
33316,Broward County,FL,96.82875264270614,NA
33319,Broward County,FL,40.803382663847785,NA
33558,Hillsborough County,FL,98.94291754756871,NA
33618,Hillsborough County,FL,75.05285412262155,NA
33702,Pinellas County,FL,50.10570824524313,NA
33881,Polk County,FL,NA,34.47204968944099
33928,Lee County,FL,NA,32.608695652173914
34109,Collier County,FL,74.4186046511628,NA
34114,Collier County,FL,NA,38.19875776397515
34684,Pinellas County,FL,NA,12.422360248447205
34972,Okeechobee County,FL,56.87103594080338,NA
34982,St. Lucie County,FL,NA,39.75155279503105
34983,St. Lucie County,FL,NA,29.19254658385093
34986,St. Lucie County,FL,46.723044397463006,NA
30028,Forsyth County,GA,NA,56.2111801242236
30052,Walton County,GA,17.12473572938689,NA
30066,Cobb County,GA,NA,27.32919254658385
30103,Bartow County,GA,67.23044397463002,NA
30121,Bartow County,GA,NA,57.14285714285714
30134,Douglas County,GA,54.54545454545454,NA
30173,Floyd County,GA,NA,96.58385093167702
30188,Cherokee County,GA,NA,16.149068322981368
30253,Henry County,GA,56.236786469344615,NA
30453,Tattnall County,GA,89.4291754756871,NA
30461,Bulloch County,GA,73.78435517970402,NA
30519,Gwinnett County,GA,NA,32.91925465838509
30534,Dawson County,GA,71.24735729386892,NA
30666,Barrow County,GA,84.14376321353065,NA
30701,Gordon County,GA,61.31078224101479,NA
30740,Whitfield County,GA,84.35517970401692,NA
30815,Richmond County,GA,19.873150105708245,NA
31015,Crisp County,GA,46.30021141649049,NA
31021,Laurens County,GA,82.66384778012686,NA
31087,Hancock County,GA,81.60676532769557,NA
31206,Bibb County,GA,28.541226215644823,NA
31408,Chatham County,GA,93.86892177589851,NA
31539,Jeff Davis County,GA,65.11627906976744,NA
31632,Lowndes County,GA,NA,83.22981366459628
31792,Thomas County,GA,NA,34.47204968944099
31794,Tift County,GA,NA,19.565217391304348
31904,Muscogee County,GA,30.021141649048626,NA
39845,Seminole County,GA,74.20718816067652,NA
96703,Kauai County,HI,99.36575052854123,NA
96797,Honolulu County,HI,8.0338266384778,NA
96822,Honolulu County,HI,NA,75.15527950310559
83201,Bannock County,ID,NA,41.30434782608695
83211,Power County,ID,82.8752642706131,NA
83338,Jerome County,ID,NA,25.77639751552795
83401,Bonneville County,ID,13.953488372093023,NA
83406,Bonneville County,ID,62.36786469344609,NA
83440,Madison County,ID,NA,72.04968944099379
83619,Payette County,ID,NA,68.63354037267081
83647,Elmore County,ID,NA,49.68944099378882
83686,Canyon County,ID,31.92389006342495,2.1739130434782608
83703,Ada County,ID,NA,27.018633540372672
60004,Cook County,IL,24.101479915433405,NA
60013,McHenry County,IL,80.76109936575054,NA
60025,Cook County,IL,NA,2.7950310559006213
60045,Lake County,IL,NA,24.22360248447205
60051,McHenry County,IL,76.74418604651163,NA
60060,Lake County,IL,NA,13.975155279503104
60077,Cook County,IL,NA,30.124223602484474
60155,Cook County,IL,NA,90.06211180124224
60191,DuPage County,IL,NA,91.92546583850931
60428,Cook County,IL,NA,82.91925465838509
60431,Will County,IL,NA,44.099378881987576
60445,Cook County,IL,53.276955602537,NA
60451,Will County,IL,NA,14.285714285714285
60525,Cook County,IL,NA,12.732919254658384
60565,DuPage County,IL,29.175475687103592,NA
60586,Will County,IL,61.09936575052855,NA
60619,Cook County,IL,NA,2.484472049689441
60628,Cook County,IL,NA,1.5527950310559007
60638,Cook County,IL,NA,7.142857142857142
60655,Cook County,IL,27.695560253699792,NA
60714,Cook County,IL,72.72727272727273,NA
60804,Cook County,IL,18.6046511627907,NA
61032,Stephenson County,IL,NA,18.633540372670808
61081,Whiteside County,IL,28.964059196617338,NA
61362,Bureau County,IL,88.58350951374207,NA
62363,Pike County,IL,97.88583509513742,NA
62522,Macon County,IL,80.12684989429175,NA
62863,Wabash County,IL,70.82452431289641,NA
46013,Madison County,IN,NA,21.11801242236025
46038,Hamilton County,IN,55.391120507399584,NA
46060,Hamilton County,IN,30.443974630021142,NA
46062,Hamilton County,IN,NA,18.32298136645963
46164,Johnson County,IN,99.15433403805497,NA
46168,Hendricks County,IN,NA,53.72670807453416
46224,Marion County,IN,NA,83.54037267080744
46350,LaPorte County,IN,32.76955602536998,NA
46375,Lake County,IN,61.733615221987314,NA
46392,Jasper County,IN,NA,87.5776397515528
46410,Lake County,IN,NA,1.8633540372670807
46506,Marshall County,IN,NA,89.13043478260869
46580,Kosciusko County,IN,NA,55.27950310559007
46714,Wells County,IN,NA,94.09937888198758
46750,Huntington County,IN,49.2600422832981,NA
46902,Howard County,IN,2.536997885835095,NA
47172,Clark County,IN,NA,65.83850931677019
47905,Tippecanoe County,IN,39.323467230443974,NA
47987,Fountain County,IN,93.02325581395348,NA
50595,Hamilton County,IA,91.12050739957716,NA
51360,Dickinson County,IA,NA,93.47826086956522
52001,Dubuque County,IA,14.587737843551796,NA
52003,Dubuque County,IA,NA,91.61490683229813
52761,Muscatine County,IA,10.359408033826638,NA
52803,Scott County,IA,NA,54.037267080745345
66012,Wyandotte County,KS,NA,91.30434782608695
66067,Franklin County,KS,NA,55.90062111801242
66605,Shawnee County,KS,NA,56.83229813664597
67114,Harvey County,KS,76.10993657505286,NA
67212,Sedgwick County,KS,60.25369978858352,NA
67213,Sedgwick County,KS,59.830866807610995,NA
67401,Saline County,KS,NA,22.67080745341615
67410,Dickinson County,KS,NA,71.11801242236024
40004,Nelson County,KY,NA,28.26086956521739
40023,Jefferson County,KY,94.29175475687104,NA
40078,Washington County,KY,98.73150105708245,NA
40165,Bullitt County,KY,12.684989429175475,NA
40214,Jefferson County,KY,NA,15.217391304347828
40229,Jefferson County,KY,10.782241014799155,NA
40242,Jefferson County,KY,79.9154334038055,NA
40391,Clark County,KY,NA,11.801242236024844
40456,Rockcastle County,KY,71.8816067653277,NA
40475,Madison County,KY,7.822410147991543,NA
40744,Laurel County,KY,NA,57.7639751552795
41010,Grant County,KY,96.40591966173362,NA
42025,Marshall County,KY,72.51585623678648,NA
42066,Graves County,KY,21.775898520084567,NA
42211,Trigg County,KY,59.61945031712473,NA
42301,Daviess County,KY,NA,10.248447204968944
42503,Pulaski County,KY,42.49471458773784,NA
42718,Taylor County,KY,39.112050739957716,NA
70072,Jefferson Parish,LA,0.8456659619450317,NA
70364,Terrebonne Parish,LA,7.399577167019028,NA
70422,Tangipahoa Parish,LA,24.312896405919663,NA
70448,St. Tammany Parish,LA,35.94080338266385,NA
70471,St. Tammany Parish,LA,40.169133192389005,NA
70506,Lafayette Parish,LA,4.2283298097251585,NA
70517,St. Martin Parish,LA,11.416490486257928,NA
70535,St. Landry Parish,LA,26.004228329809724,NA
70582,St. Martin Parish,LA,NA,43.47826086956522
70605,Calcasieu Parish,LA,NA,29.81366459627329
70665,Calcasieu Parish,LA,64.2706131078224,NA
70737,Ascension Parish,LA,5.9196617336152215,NA
70775,West Feliciana Parish,LA,66.59619450317125,NA
70810,East Baton Rouge Parish,LA,7.6109936575052854,NA
71055,Webster Parish,LA,15.856236786469344,37.577639751552795
71109,Caddo Parish,LA,4.651162790697675,NA
71111,Bossier Parish,LA,NA,12.732919254658384
71270,Lincoln Parish,LA,22.832980972515855,NA
71360,Rapides Parish,LA,NA,27.95031055900621
04092,Cumberland County,ME,37.2093023255814,NA
04240,Androscoggin County,ME,43.12896405919662,NA
04330,Kennebec County,ME,NA,4.3478260869565215
20607,Prince George's County,MD,NA,94.72049689440993
20646,Charles County,MD,NA,85.71428571428571
20650,St. Mary's County,MD,NA,89.44099378881988
21218,Baltimore city,MD,NA,11.180124223602485
21722,Washington County,MD,98.09725158562368,NA
21911,Cecil County,MD,NA,77.63975155279503
01104,Hampden County,MA,NA,0.3105590062111801
01604,Worcester County,MA,5.496828752642706,NA
01832,Essex County,MA,2.1141649048625792,NA
01887,Middlesex County,MA,5.07399577167019,NA
01950,Essex County,MA,88.16067653276956,NA
02026,Norfolk County,MA,NA,16.459627329192546
02045,Plymouth County,MA,NA,56.52173913043478
02120,Suffolk County,MA,NA,18.012422360248447
02126,Suffolk County,MA,NA,46.8944099378882
02127,Suffolk County,MA,1.0570824524312896,NA
02356,Bristol County,MA,73.99577167019028,NA
02601,Barnstable County,MA,2.9598308668076108,24.53416149068323
02649,Barnstable County,MA,NA,27.639751552795033
02668,Barnstable County,MA,NA,87.88819875776397
02703,Bristol County,MA,0.42283298097251587,NA
02740,Bristol County,MA,0,NA
48021,Macomb County,MI,9.725158562367865,NA
48026,Macomb County,MI,NA,76.70807453416148
48066,Macomb County,MI,NA,7.453416149068323
48071,Oakland County,MI,24.735729386892178,NA
48111,Wayne County,MI,5.2854122621564485,NA
48125,Wayne County,MI,NA,47.82608695652174
48165,Oakland County,MI,NA,90.6832298136646
48215,Wayne County,MI,NA,51.86335403726709
48238,Wayne County,MI,3.382663847780127,NA
48239,Wayne County,MI,8.456659619450317,NA
48240,Wayne County,MI,19.661733615221987,NA
48301,Oakland County,MI,NA,73.29192546583852
48423,Genesee County,MI,NA,22.981366459627328
48506,Genesee County,MI,23.044397463002113,NA
48507,Genesee County,MI,NA,31.67701863354037
48601,Saginaw County,MI,1.6913319238900635,NA
48603,Saginaw County,MI,NA,8.695652173913043
48640,Midland County,MI,NA,68.94409937888199
48706,Bay County,MI,NA,0.6211180124223602
48732,Bay County,MI,50.95137420718816,NA
48746,Tuscola County,MI,NA,75.46583850931677
48838,Montcalm County,MI,NA,31.05590062111801
48866,Clinton County,MI,90.27484143763213,NA
48911,Ingham County,MI,4.439746300211417,NA
49203,Jackson County,MI,6.765327695560254,NA
49224,Calhoun County,MI,51.58562367864693,NA
49228,Lenawee County,MI,89.64059196617336,NA
49315,Kent County,MI,NA,39.130434782608695
49431,Mason County,MI,32.346723044397464,NA
49783,Chippewa County,MI,19.45031712473573,NA
55057,Rice County,MN,67.44186046511628,NA
55106,Ramsey County,MN,4.862579281183932,NA
55112,Ramsey County,MN,38.6892177589852,NA
55119,Ramsey County,MN,11.839323467230443,NA
55350,McLeod County,MN,26.849894291754755,NA
55403,Hennepin County,MN,22.198731501057082,NA
55406,Hennepin County,MN,23.25581395348837,NA
55734,St. Louis County,MN,NA,77.95031055900621
55806,St. Louis County,MN,NA,63.975155279503106
56082,Nicollet County,MN,NA,85.40372670807453
38663,Tippah County,MS,67.65327695560254,NA
38732,Bolivar County,MS,NA,41.92546583850932
38827,Tishomingo County,MS,NA,100
38834,Alcorn County,MS,18.181818181818183,NA
38930,Leflore County,MS,68.49894291754757,NA
39056,Hinds County,MS,60.676532769556026,NA
39501,Harrison County,MS,NA,18.944099378881987
39503,Harrison County,MS,9.936575052854122,NA
39531,Harrison County,MS,NA,45.3416149068323
39553,Jackson County,MS,43.551797040169134,NA
39564,Jackson County,MS,NA,31.987577639751553
39571,Harrison County,MS,NA,36.33540372670808
39577,Stone County,MS,87.73784355179704,NA
39648,Pike County,MS,18.39323467230444,NA
63010,Jefferson County,MO,36.1522198731501,NA
63134,St. Louis County,MO,39.95771670190275,NA
63139,St. Louis city,MO,68.28752642706131,NA
63801,Scott County,MO,79.49260042283298,NA
64015,Jackson County,MO,11.627906976744185,NA
64106,Jackson County,MO,NA,63.66459627329193
64108,Jackson County,MO,NA,95.34161490683229
64117,Clay County,MO,35.095137420718814,NA
64151,Platte County,MO,30.655391120507396,NA
64155,Clay County,MO,21.56448202959831,NA
64633,Carroll County,MO,85.41226215644821,NA
64701,Cass County,MO,42.28329809725159,NA
64804,Jasper County,MO,15.433403805496829,NA
64870,Jasper County,MO,NA,62.732919254658384
65026,Miller County,MO,NA,74.53416149068323
65079,Camden County,MO,NA,92.2360248447205
65251,Callaway County,MO,28.32980972515856,NA
65559,Phelps County,MO,79.70401691331924,NA
65560,Dent County,MO,80.54968287526427,97.20496894409938
65775,Howell County,MO,91.75475687103594,NA
65807,Greene County,MO,NA,17.391304347826086
59875,Ravalli County,MT,NA,88.50931677018633
68117,Douglas County,NE,90.06342494714588,NA
68467,York County,NE,NA,97.82608695652173
69301,Box Butte County,NE,65.96194503171247,NA
89107,Clark County,NV,NA,65.21739130434783
89110,Clark County,NV,18.816067653276956,NA
89403,Lyon County,NV,35.30655391120507,NA
89502,Washoe County,NV,NA,21.428571428571427
89523,Washoe County,NV,NA,66.45962732919256
89701,Carson City,NV,35.72938689217759,NA
07002,Hudson County,NJ,9.30232558139535,NA
07016,Union County,NJ,95.56025369978859,NA
07032,Hudson County,NJ,68.71035940803382,NA
07059,Somerset County,NJ,83.50951374207189,NA
07081,Union County,NJ,NA,81.98757763975155
07306,Hudson County,NJ,NA,44.72049689440994
07735,Monmouth County,NJ,31.289640591966172,NA
07740,Monmouth County,NJ,NA,5.900621118012422
07885,Morris County,NJ,79.06976744186046,NA
08015,Burlington County,NJ,43.76321353065539,NA
08054,Burlington County,NJ,NA,13.354037267080745
08077,Burlington County,NJ,NA,64.90683229813664
08085,Gloucester County,NJ,NA,50.621118012422365
08234,Atlantic County,NJ,86.4693446088795,NA
08302,Cumberland County,NJ,NA,9.937888198757763
08330,Atlantic County,NJ,NA,90.37267080745342
08401,Atlantic County,NJ,0.21141649048625794,NA
08618,Mercer County,NJ,95.34883720930233,NA
88021,Doa Ana County,NM,NA,84.472049689441
88203,Chaves County,NM,17.970401691331926,NA
10001,New York County,NY,NA,3.7267080745341614
10024,New York County,NY,77.80126849894292,NA
10549,Westchester County,NY,90.9090909090909,NA
10567,Westchester County,NY,88.37209302325581,NA
11230,Kings County,NY,61.94503171247357,NA
11563,Nassau County,NY,93.44608879492601,NA
11701,Suffolk County,NY,87.9492600422833,NA
11721,Suffolk County,NY,NA,98.13664596273291
11754,Suffolk County,NY,80.33826638477801,NA
12010,Montgomery County,NY,3.5940803382663846,NA
12563,Putnam County,NY,NA,98.75776397515527
12953,Franklin County,NY,16.913319238900634,20.80745341614907
13045,Cortland County,NY,NA,9.316770186335404
13069,Oswego County,NY,42.706131078224104,NA
13073,Tompkins County,NY,54.33403805496829,NA
13212,Onondaga County,NY,29.175475687103592,NA
13332,Madison County,NY,NA,99.06832298136646
13421,Madison County,NY,22.621564482029598,NA
13760,Broome County,NY,0.6342494714587738,NA
13812,Tioga County,NY,97.25158562367865,NA
13815,Chenango County,NY,42.917547568710354,NA
13820,Otsego County,NY,8.879492600422834,NA
13825,Otsego County,NY,82.24101479915433,NA
14011,Wyoming County,NY,72.93868921775899,NA
14052,Erie County,NY,NA,55.590062111801245
14108,Niagara County,NY,NA,84.78260869565217
14132,Niagara County,NY,NA,82.6086956521739
14209,Erie County,NY,NA,73.91304347826086
14616,Monroe County,NY,32.98097251585624,NA
14619,Monroe County,NY,12.896405919661733,NA
14706,Cattaraugus County,NY,54.12262156448203,NA
14757,Chautauqua County,NY,93.02325581395348,NA
14830,Steuben County,NY,22.41014799154334,NA
14845,Chemung County,NY,15.010570824524313,NA
14867,Tompkins County,NY,NA,59.93788819875776
27104,Forsyth County,NC,59.19661733615222,NA
27205,Randolph County,NC,38.90063424947146,NA
27299,Davidson County,NC,85.83509513742071,NA
27320,Rockingham County,NC,NA,42.2360248447205
27358,Guilford County,NC,NA,67.3913043478261
27539,Wake County,NC,NA,65.21739130434783
27705,Durham County,NC,78.8583509513742,NA
27870,Halifax County,NC,21.141649048625794,NA
27958,Currituck County,NC,87.31501057082453,NA
28083,Cabarrus County,NC,27.906976744186046,NA
28110,Union County,NC,20.718816067653275,NA
28152,Cleveland County,NC,66.17336152219873,NA
28453,Duplin County,NC,97.67441860465115,NA
28466,Duplin County,NC,65.3276955602537,NA
28562,Craven County,NC,37.420718816067655,NA
28601,Catawba County,NC,NA,8.074534161490684
28655,Burke County,NC,NA,1.2422360248447204
28658,Catawba County,NC,41.2262156448203,NA
28804,Buncombe County,NC,81.3953488372093,NA
58103,Cass County,ND,5.708245243128964,NA
43015,Delaware County,OH,13.742071881606766,NA
43016,Franklin County,OH,58.350951374207185,NA
43026,Franklin County,OH,18.816067653276956,NA
43055,Licking County,OH,1.2684989429175475,NA
43125,Franklin County,OH,69.55602536997885,NA
43207,Franklin County,OH,1.4799154334038054,NA
43209,Franklin County,OH,NA,36.33540372670808
43302,Marion County,OH,13.530655391120508,NA
43351,Wyandot County,OH,38.47780126849894,NA
43420,Sandusky County,OH,9.513742071881607,51.5527950310559
43452,Ottawa County,OH,NA,34.161490683229815
43526,Defiance County,OH,NA,70.80745341614907
43551,Wood County,OH,78.22410147991543,NA
43560,Lucas County,OH,NA,13.664596273291925
43605,Lucas County,OH,14.376321353065538,NA
43609,Lucas County,OH,3.171247357293869,NA
43611,Lucas County,OH,12.473572938689218,NA
43614,Lucas County,OH,34.883720930232556,NA
43617,Lucas County,OH,96.61733615221986,NA
43619,Wood County,OH,62.15644820295984,NA
43725,Guernsey County,OH,60.887949260042284,NA
44035,Lorain County,OH,NA,0
44053,Lorain County,OH,7.188160676532769,NA
44138,Cuyahoga County,OH,31.501057082452434,NA
44149,Cuyahoga County,OH,41.43763213530655,NA
44230,Wayne County,OH,83.29809725158562,NA
44231,Portage County,OH,84.98942917547568,NA
44314,Summit County,OH,25.158562367864697,NA
44446,Trumbull County,OH,NA,17.70186335403727
44484,Trumbull County,OH,NA,11.490683229813664
44512,Mahoning County,OH,9.090909090909092,12.111801242236025
44691,Wayne County,OH,NA,3.1055900621118013
44714,Stark County,OH,92.17758985200845,NA
44720,Stark County,OH,27.061310782241016,NA
45015,Butler County,OH,NA,67.08074534161491
45208,Hamilton County,OH,NA,85.09316770186336
45227,Hamilton County,OH,46.088794926004226,NA
45230,Hamilton County,OH,NA,49.378881987577635
45238,Hamilton County,OH,42.071881606765324,NA
45320,Preble County,OH,37.63213530655391,NA
45371,Miami County,OH,51.79704016913319,NA
45504,Clark County,OH,NA,98.4472049689441
45659,Lawrence County,OH,82.02959830866807,NA
45660,Adams County,OH,71.03594080338267,NA
45680,Lawrence County,OH,11.20507399577167,NA
45723,Athens County,OH,87.10359408033827,NA
45732,Athens County,OH,90.69767441860465,NA
45750,Washington County,OH,10.570824524312897,NA
45885,Auglaize County,OH,NA,57.453416149068325
73013,Oklahoma County,OK,NA,8.074534161490684
73052,Garvin County,OK,91.33192389006342,NA
73064,Canadian County,OK,48.20295983086681,NA
73120,Oklahoma County,OK,40.38054968287527,NA
73128,Canadian County,OK,91.5433403805497,NA
73150,Oklahoma County,OK,NA,81.67701863354037
74006,Washington County,OK,NA,41.61490683229814
74008,Tulsa County,OK,91.9661733615222,51.86335403726709
74011,Tulsa County,OK,62.36786469344609,NA
74063,Tulsa County,OK,53.69978858350951,NA
74126,Tulsa County,OK,NA,86.95652173913044
74128,Tulsa County,OK,NA,86.33540372670807
74467,Wagoner County,OK,NA,59.3167701863354
74525,Atoka County,OK,83.93234672304439,NA
74937,Le Flore County,OK,NA,95.96273291925466
97078,Washington County,OR,NA,60.86956521739131
97086,Clackamas County,OR,50.7399577167019,NA
97212,Multnomah County,OR,NA,74.22360248447205
97220,Multnomah County,OR,33.61522198731501,NA
97301,Marion County,OR,NA,25.15527950310559
97394,Lincoln County,OR,NA,79.5031055900621
97439,Lane County,OR,NA,62.422360248447205
97487,Lane County,OR,NA,90.99378881987577
97838,Umatilla County,OR,16.0676532769556,NA
15068,Westmoreland County,PA,17.33615221987315,NA
15132,Allegheny County,PA,56.02536997885835,NA
15135,Allegheny County,PA,98.30866807610994,NA
15767,Jefferson County,PA,NA,92.54658385093167
15801,Clearfield County,PA,NA,35.09316770186335
15905,Cambria County,PA,NA,37.267080745341616
16301,Venango County,PA,NA,43.7888198757764
16316,Crawford County,PA,NA,69.56521739130434
16335,Crawford County,PA,NA,9.006211180124224
16424,Crawford County,PA,94.71458773784354,NA
16505,Erie County,PA,66.8076109936575,59.62732919254658
16803,Centre County,PA,57.71670190274841,NA
16830,Clearfield County,PA,26.42706131078224,NA
17025,Cumberland County,PA,77.3784355179704,NA
17042,Lebanon County,PA,NA,3.4161490683229814
17067,Lebanon County,PA,NA,78.57142857142857
17073,Lebanon County,PA,89.00634249471459,NA
17078,Lebanon County,PA,15.644820295983086,NA
17331,York County,PA,6.13107822410148,NA
17408,York County,PA,39.74630021141649,NA
17815,Columbia County,PA,15.221987315010571,NA
17824,Northumberland County,PA,97.25158562367865,NA
17837,Union County,PA,NA,42.857142857142854
17967,Schuylkill County,PA,99.57716701902748,NA
18038,Northampton County,PA,NA,99.68944099378882
18041,Montgomery County,PA,95.77167019027483,NA
18042,Northampton County,PA,4.0169133192389,NA
18049,Lehigh County,PA,41.64904862579281,NA
18074,Montgomery County,PA,96.19450317124736,NA
18201,Luzerne County,PA,17.758985200845668,NA
18444,Lackawanna County,PA,NA,72.67080745341616
18702,Luzerne County,PA,6.553911205073996,NA
18974,Bucks County,PA,NA,10.869565217391305
19053,Bucks County,PA,29.59830866807611,NA
19063,Delaware County,PA,20.29598308668076,NA
19067,Bucks County,PA,NA,6.211180124223603
19114,Philadelphia County,PA,48.41437632135307,22.36024844720497
19149,Philadelphia County,PA,6.342494714587738,NA
19311,Chester County,PA,85.41226215644821,NA
19464,Montgomery County,PA,3.8054968287526427,4.658385093167702
19530,Berks County,PA,71.24735729386892,NA
19555,Berks County,PA,NA,94.40993788819875
19610,Berks County,PA,NA,70.1863354037267
02871,Newport County,RI,NA,40.37267080745342
29045,Kershaw County,SC,70.61310782241014,NA
29161,Florence County,SC,68.92177589852008,NA
29205,Richland County,SC,NA,84.16149068322981
29412,Charleston County,SC,32.55813953488372,NA
29414,Charleston County,SC,31.712473572938688,NA
29449,Charleston County,SC,NA,78.88198757763976
29456,Dorchester County,SC,33.40380549682875,NA
29579,Horry County,SC,NA,33.54037267080746
57401,Brown County,SD,16.49048625792812,NA
37086,Rutherford County,TN,45.03171247357294,NA
37216,Davidson County,TN,45.45454545454545,NA
37312,Bradley County,TN,NA,47.20496894409938
37321,Rhea County,TN,27.27272727272727,NA
37347,Marion County,TN,75.05285412262155,NA
37354,Monroe County,TN,33.82663847780127,NA
37381,Rhea County,TN,81.60676532769557,NA
37643,Carter County,TN,10.993657505285412,NA
37771,Loudon County,TN,NA,58.07453416149069
37804,Blount County,TN,26.6384778012685,NA
37814,Hamblen County,TN,NA,26.70807453416149
37849,Knox County,TN,NA,50.931677018633536
37862,Sevier County,TN,80.97251585623678,NA
37921,Knox County,TN,27.48414376321353,NA
37931,Knox County,TN,40.59196617336152,NA
38040,Lauderdale County,TN,97.04016913319239,NA
38125,Shelby County,TN,51.162790697674424,NA
38134,Shelby County,TN,34.24947145877378,NA
38343,Gibson County,TN,44.60887949260042,NA
38382,Gibson County,TN,NA,81.05590062111801
38464,Lawrence County,TN,31.07822410147992,NA
38583,White County,TN,NA,28.57142857142857
75019,Dallas County,TX,51.37420718816068,NA
75023,Collin County,TX,NA,36.95652173913043
75039,Dallas County,TX,77.16701902748414,NA
75048,Dallas County,TX,69.76744186046511,NA
75061,Dallas County,TX,48.625792811839325,NA
75071,Collin County,TX,26.215644820295985,NA
75075,Collin County,TX,61.52219873150106,NA
75077,Denton County,TX,41.86046511627907,NA
75082,Collin County,TX,99.78858350951374,NA
75087,Rockwall County,TX,69.97885835095138,NA
75092,Grayson County,TX,NA,50
75116,Dallas County,TX,NA,87.26708074534162
75140,Van Zandt County,TX,NA,81.36645962732919
75143,Henderson County,TX,NA,61.80124223602485
75150,Dallas County,TX,21.987315010570825,NA
75165,Ellis County,TX,NA,26.08695652173913
75181,Dallas County,TX,NA,80.43478260869566
75204,Dallas County,TX,57.505285412262154,NA
75219,Dallas County,TX,NA,92.85714285714286
75229,Dallas County,TX,NA,45.962732919254655
75232,Dallas County,TX,NA,77.01863354037268
75238,Dallas County,TX,63.00211416490487,NA
75243,Dallas County,TX,12.26215644820296,NA
75601,Gregg County,TX,NA,76.08695652173914
75602,Gregg County,TX,NA,67.70186335403726
75785,Cherokee County,TX,64.90486257928119,NA
75949,Angelina County,TX,77.58985200845666,NA
76005,Tarrant County,TX,100,NA
76034,Tarrant County,TX,NA,64.28571428571429
76112,Tarrant County,TX,12.050739957716702,NA
76119,Tarrant County,TX,NA,6.832298136645963
76135,Tarrant County,TX,53.69978858350951,NA
76179,Tarrant County,TX,58.985200845665965,NA
76182,Tarrant County,TX,NA,35.714285714285715
76834,Coleman County,TX,NA,88.81987577639751
77032,Harris County,TX,79.28118393234672,NA
77060,Harris County,TX,NA,77.95031055900621
77064,Harris County,TX,NA,95.03105590062113
77069,Harris County,TX,84.77801268498943,NA
77073,Harris County,TX,50.52854122621564,NA
77074,Harris County,TX,NA,61.18012422360248
77080,Harris County,TX,67.65327695560254,NA
77081,Harris County,TX,62.7906976744186,NA
77084,Harris County,TX,NA,24.84472049689441
77090,Harris County,TX,NA,59.006211180124225
77095,Harris County,TX,46.51162790697674,NA
77302,Montgomery County,TX,NA,80.74534161490683
77345,Harris County,TX,NA,68.32298136645963
77346,Harris County,TX,NA,36.024844720496894
77375,Harris County,TX,20.507399577167018,NA
77379,Harris County,TX,NA,9.627329192546584
77406,Fort Bend County,TX,NA,29.503105590062113
77433,Harris County,TX,NA,19.875776397515526
77437,Wharton County,TX,60.04228329809725,NA
77471,Fort Bend County,TX,35.517970401691336,NA
77478,Fort Bend County,TX,83.08668076109936,NA
77479,Fort Bend County,TX,NA,20.18633540372671
77539,Galveston County,TX,19.23890063424947,NA
77546,Galveston County,TX,24.52431289640592,10.559006211180124
77573,Galveston County,TX,8.668076109936575,NA
77630,Orange County,TX,38.05496828752643,NA
77833,Washington County,TX,NA,64.59627329192547
77963,Goliad County,TX,94.9260042283298,NA
78028,Kerr County,TX,NA,14.596273291925465
78040,Webb County,TX,NA,40.683229813664596
78043,Webb County,TX,39.53488372093023,NA
78372,Jim Wells County,TX,92.60042283298098,NA
78624,Gillespie County,TX,NA,49.06832298136646
78834,Dimmit County,TX,89.85200845665962,NA
79602,Taylor County,TX,54.756871035940804,NA
79714,Andrews County,TX,52.85412262156448,NA
79720,Howard County,TX,49.04862579281184,NA
79762,Ector County,TX,NA,43.16770186335403
79904,El Paso County,TX,NA,61.49068322981367
84015,Davis County,UT,NA,47.51552795031056
84057,Utah County,UT,NA,80.12422360248446
84081,Salt Lake County,UT,NA,60.24844720496895
84088,Salt Lake County,UT,34.038054968287526,NA
84401,Weber County,UT,41.014799154334035,NA
84651,Utah County,UT,69.3446088794926,NA
84660,Utah County,UT,63.424947145877375,NA
05201,Bennington County,VT,45.66596194503171,NA
05641,Washington County,VT,NA,28.88198757763975
20112,Prince William County,VA,NA,79.8136645962733
20141,Loudoun County,VA,NA,99.37888198757764
22309,Fairfax County,VA,NA,52.484472049689444
22812,Rockingham County,VA,86.25792811839324,NA
22827,Rockingham County,VA,72.3044397463002,NA
22835,Page County,VA,56.236786469344615,NA
22851,Page County,VA,83.72093023255815,NA
22853,Rockingham County,VA,94.08033826638477,88.19875776397515
22901,Albemarle County,VA,32.1353065539112,NA
23228,Henrico County,VA,47.35729386892177,NA
23325,Chesapeake city,VA,73.15010570824523,NA
23430,Isle of Wight County,VA,NA,32.298136645962735
23453,Virginia Beach city,VA,NA,37.88819875776397
24219,Wise County,VA,NA,70.4968944099379
24333,Galax city,VA,45.243128964059196,53.105590062111794
24343,Carroll County,VA,NA,72.36024844720497
24360,Wythe County,VA,95.13742071881607,NA
24381,Carroll County,VA,94.29175475687104,NA
24401,Staunton city,VA,NA,4.968944099378882
24558,Halifax County,VA,87.52642706131078,NA
98031,King County,WA,NA,15.838509316770185
98125,King County,WA,36.78646934460888,NA
98273,Skagit County,WA,NA,14.596273291925465
98292,Snohomish County,WA,NA,40.06211180124223
98362,Clallam County,WA,NA,6.521739130434782
98363,Clallam County,WA,NA,40.993788819875775
98382,Clallam County,WA,NA,0.9316770186335404
98662,Clark County,WA,95.9830866807611,NA
98951,Yakima County,WA,NA,89.75155279503106
99354,Benton County,WA,NA,96.27329192546584
20020,District of Columbia,DC,1.9027484143763214,NA
25276,Roane County,WV,NA,69.87577639751554
25311,Kanawha County,WV,NA,63.04347826086957
25550,Mason County,WV,75.8985200845666,NA
25705,Cabell County,WV,NA,22.049689440993788
26505,Monongalia County,WV,NA,5.279503105590062
53005,Waukesha County,WI,69.13319238900634,NA
53066,Waukesha County,WI,36.57505285412262,NA
53081,Sheboygan County,WI,44.82029598308668,NA
53110,Milwaukee County,WI,30.866807610993657,NA
53129,Milwaukee County,WI,NA,65.83850931677019
53154,Milwaukee County,WI,52.21987315010571,NA
53186,Waukesha County,WI,57.928118393234676,NA
53210,Milwaukee County,WI,NA,54.6583850931677
53219,Milwaukee County,WI,NA,44.409937888198755
53225,Milwaukee County,WI,NA,72.98136645962732
53227,Milwaukee County,WI,64.48202959830867,58.07453416149069
53406,Racine County,WI,13.107822410147993,NA
53546,Rock County,WI,16.27906976744186,NA
53575,Dane County,WI,NA,71.73913043478261
53965,Sauk County,WI,65.53911205073996,NA
54016,St. Croix County,WI,43.97463002114165,NA
54114,Marinette County,WI,NA,93.16770186335404
54313,Brown County,WI,NA,33.54037267080746
54401,Marathon County,WI,36.36363636363637,NA
54901,Winnebago County,WI,25.792811839323466,NA
54902,Winnebago County,WI,NA,52.79503105590062
54915,Outagamie County,WI,NA,48.75776397515528
54935,Fond du Lac County,WI,14.799154334038056,NA
54983,Waupaca County,WI,86.04651162790698,NA
82001,Laramie County,WY,71.8816067653277,NA
