ZipCode,county,state,Youth,Adult,Retirement
35022,Jefferson County,AL,NA,38.41886269070735,NA
35043,Shelby County,AL,79.62085308056872,NA,NA
35071,Jefferson County,AL,NA,NA,67.46575342465754
35207,Jefferson County,AL,NA,64.35506241331484,NA
35212,Jefferson County,AL,NA,69.76421636615811,NA
35235,Jefferson County,AL,75.82938388625593,NA,NA
35404,Tuscaloosa County,AL,NA,16.36615811373093,NA
35476,Tuscaloosa County,AL,NA,NA,76.02739726027397
35570,Marion County,AL,NA,80.99861303744798,NA
35660,Colbert County,AL,NA,64.63245492371706,NA
35951,Marshall County,AL,NA,87.79472954230236,NA
36105,Montgomery County,AL,NA,NA,77.05479452054794
36107,Montgomery County,AL,NA,96.80998613037448,NA
36201,Calhoun County,AL,NA,NA,42.465753424657535
36605,Mobile County,AL,30.80568720379147,NA,NA
36606,Mobile County,AL,NA,NA,85.27397260273972
36744,Hale County,AL,NA,66.99029126213593,NA
36830,Lee County,AL,NA,62.55201109570042,NA
36832,Lee County,AL,NA,69.20943134535368,NA
99501,Anchorage Municipality,AK,NA,24.271844660194176,NA
99508,Anchorage Municipality,AK,NA,47.8502080443828,NA
99654,Matanuska-Susitna Borough,AK,91.9431279620853,NA,NA
99701,Fairbanks North Star Borough,AK,NA,35.367545076282944,NA
99801,Juneau City and Borough,AK,NA,NA,58.56164383561644
85007,Maricopa County,AZ,85.78199052132702,11.234396671289876,NA
85008,Maricopa County,AZ,NA,14.147018030513175,NA
85018,Maricopa County,AZ,NA,61.858529819694866,NA
85021,Maricopa County,AZ,NA,13.0374479889043,NA
85031,Maricopa County,AZ,NA,49.375866851595006,NA
85033,Maricopa County,AZ,NA,16.920943134535367,NA
85204,Maricopa County,AZ,NA,15.117891816920942,NA
85224,Maricopa County,AZ,NA,44.10540915395285,NA
85250,Maricopa County,AZ,NA,81.13730929264909,NA
85257,Maricopa County,AZ,81.04265402843602,NA,NA
85345,Maricopa County,AZ,NA,NA,11.986301369863012
85365,Yuma County,AZ,NA,69.4868238557559,NA
85648,Santa Cruz County,AZ,NA,NA,58.21917808219178
85711,Pima County,AZ,NA,9.986130374479888,NA
85713,Pima County,AZ,NA,NA,7.191780821917808
85716,Pima County,AZ,NA,NA,27.73972602739726
86301,Yavapai County,AZ,NA,62.82940360610264,NA
86314,Yavapai County,AZ,NA,NA,23.28767123287671
72031,Van Buren County,AR,NA,89.45908460471568,NA
72204,Pulaski County,AR,40.28436018957346,NA,NA
72206,Pulaski County,AR,62.55924170616114,NA,NA
72210,Pulaski County,AR,NA,82.52427184466019,NA
72687,Marion County,AR,NA,96.25520110957004,NA
72834,Yell County,AR,NA,91.95561719833564,NA
72923,Sebastian County,AR,91.4691943127962,NA,NA
90006,Los Angeles County,CA,NA,80.44382801664355,NA
90007,Los Angeles County,CA,NA,29.819694868238557,NA
90011,Los Angeles County,CA,NA,27.184466019417474,NA
90013,Los Angeles County,CA,NA,54.09153952843273,NA
90017,Los Angeles County,CA,NA,NA,72.94520547945206
90026,Los Angeles County,CA,NA,NA,35.61643835616438
90027,Los Angeles County,CA,NA,NA,49.31506849315068
90033,Los Angeles County,CA,NA,88.62690707350902,NA
90037,Los Angeles County,CA,NA,37.586685159500696,NA
90038,Los Angeles County,CA,NA,69.90291262135922,NA
90043,Los Angeles County,CA,NA,93.61997226074897,NA
90062,Los Angeles County,CA,NA,82.6629680998613,NA
90201,Los Angeles County,CA,NA,31.761442441054093,NA
90242,Los Angeles County,CA,NA,NA,49.65753424657534
90270,Los Angeles County,CA,NA,NA,95.2054794520548
90630,Orange County,CA,68.72037914691943,NA,NA
90703,Los Angeles County,CA,NA,58.252427184466015,NA
90744,Los Angeles County,CA,50.71090047393365,NA,NA
90805,Los Angeles County,CA,NA,19.694868238557557,NA
91204,Los Angeles County,CA,NA,75.4507628294036,NA
91344,Los Angeles County,CA,NA,43.5506241331484,NA
91355,Los Angeles County,CA,NA,83.63384188626907,NA
91362,Ventura County,CA,NA,NA,37.32876712328767
91406,Los Angeles County,CA,NA,50.762829403606105,NA
91710,San Bernardino County,CA,13.744075829383887,NA,NA
91711,Los Angeles County,CA,NA,NA,31.506849315068493
91731,Los Angeles County,CA,NA,64.21636615811373,NA
91732,Los Angeles County,CA,NA,65.88072122052705,NA
91764,San Bernardino County,CA,NA,37.03190013869626,NA
91776,Los Angeles County,CA,NA,98.47434119278779,NA
91911,San Diego County,CA,NA,55.20110957004161,NA
91932,San Diego County,CA,NA,69.34812760055479,NA
91942,San Diego County,CA,66.35071090047393,NA,NA
91945,San Diego County,CA,NA,57.42024965325936,NA
92008,San Diego County,CA,NA,NA,53.76712328767124
92020,San Diego County,CA,NA,24.687933425797503,NA
92026,San Diego County,CA,NA,53.398058252427184,NA
92101,San Diego County,CA,NA,59.500693481276,8.21917808219178
92103,San Diego County,CA,NA,NA,94.52054794520548
92111,San Diego County,CA,NA,NA,43.83561643835616
92120,San Diego County,CA,NA,70.73509015256589,NA
92154,San Diego County,CA,NA,NA,20.54794520547945
92173,San Diego County,CA,NA,78.36338418862691,NA
92227,Imperial County,CA,44.07582938388626,NA,NA
92240,Riverside County,CA,NA,24.549237170596395,NA
92301,San Bernardino County,CA,NA,80.30513176144244,NA
92373,San Bernardino County,CA,NA,NA,55.47945205479452
92392,San Bernardino County,CA,15.165876777251185,NA,NA
92509,Riverside County,CA,NA,NA,89.04109589041096
92532,Riverside County,CA,67.77251184834124,NA,NA
92563,Riverside County,CA,NA,33.287101248266296,NA
92612,Orange County,CA,NA,91.12343966712899,NA
92646,Orange County,CA,NA,99.16782246879335,NA
92701,Orange County,CA,NA,98.19694868238558,NA
92805,Orange County,CA,NA,27.877947295423024,NA
92832,Orange County,CA,NA,54.36893203883495,NA
92868,Orange County,CA,81.99052132701422,79.05686546463245,NA
93030,Ventura County,CA,NA,19.14008321775312,NA
93063,Ventura County,CA,34.59715639810427,NA,NA
93274,Tulare County,CA,27.488151658767773,NA,NA
93311,Kern County,CA,NA,NA,50.34246575342466
93436,Santa Barbara County,CA,NA,44.9375866851595,NA
93458,Santa Barbara County,CA,NA,15.39528432732316,NA
93560,Kern County,CA,NA,69.62552011095701,NA
93591,Los Angeles County,CA,NA,95.83911234396672,NA
93703,Fresno County,CA,NA,42.71844660194174,51.71232876712328
93705,Fresno County,CA,NA,33.42579750346741,NA
93722,Fresno County,CA,NA,10.124826629680998,NA
94002,San Mateo County,CA,NA,NA,36.3013698630137
94085,Santa Clara County,CA,84.36018957345972,NA,NA
94087,Santa Clara County,CA,NA,NA,42.80821917808219
94102,San Francisco County,CA,NA,32.31622746185853,NA
94103,San Francisco County,CA,NA,39.94452149791955,44.86301369863014
94117,San Francisco County,CA,NA,86.68515950069347,NA
94301,Santa Clara County,CA,NA,87.23994452149792,NA
94403,San Mateo County,CA,NA,NA,17.465753424657535
94509,Contra Costa County,CA,NA,NA,14.383561643835616
94531,Contra Costa County,CA,NA,NA,70.54794520547945
94577,Alameda County,CA,33.649289099526065,36.89320388349515,NA
94589,Solano County,CA,NA,57.00416088765603,NA
94605,Alameda County,CA,NA,26.907073509015255,NA
94606,Alameda County,CA,NA,73.09292649098474,NA
94611,Alameda County,CA,NA,NA,88.01369863013699
95117,Santa Clara County,CA,NA,NA,63.013698630136986
95205,San Joaquin County,CA,NA,48.95977808599168,NA
95206,San Joaquin County,CA,NA,NA,54.45205479452054
95348,Merced County,CA,NA,61.165048543689316,NA
95351,Stanislaus County,CA,NA,23.578363384188627,NA
95405,Sonoma County,CA,36.96682464454976,NA,NA
95407,Sonoma County,CA,NA,86.26907073509015,NA
95437,Mendocino County,CA,NA,NA,64.04109589041096
95521,Humboldt County,CA,NA,NA,70.8904109589041
95618,Yolo County,CA,NA,90.56865464632455,NA
95658,Placer County,CA,92.89099526066352,NA,NA
95816,Sacramento County,CA,41.23222748815166,72.5381414701803,NA
95823,Sacramento County,CA,NA,13.453536754507628,NA
95842,Sacramento County,CA,NA,43.96671289875174,NA
95864,Sacramento County,CA,NA,NA,66.78082191780823
95954,Butte County,CA,NA,NA,32.87671232876712
95973,Butte County,CA,NA,25.79750346740638,NA
95988,Glenn County,CA,NA,NA,61.64383561643836
96019,Shasta County,CA,NA,67.40638002773926,NA
96101,Modoc County,CA,100,NA,NA
80012,Arapahoe County,CO,NA,11.650485436893204,NA
80022,Adams County,CO,NA,17.753120665742024,NA
80214,Jefferson County,CO,NA,NA,60.61643835616438
80220,Denver County,CO,NA,NA,56.5068493150685
80303,Boulder County,CO,NA,88.07212205270459,NA
80503,Boulder County,CO,NA,61.30374479889043,NA
80521,Larimer County,CO,NA,96.53259361997226,NA
80631,Weld County,CO,NA,9.70873786407767,NA
80903,El Paso County,CO,NA,37.309292649098474,NA
81003,Pueblo County,CO,NA,35.64493758668516,NA
81004,Pueblo County,CO,40.758293838862556,NA,NA
81052,Prowers County,CO,NA,76.69902912621359,NA
06106,Hartford County,CT,NA,54.64632454923717,NA
06511,New Haven County,CT,NA,39.80582524271845,NA
06517,New Haven County,CT,NA,49.375866851595006,NA
06519,New Haven County,CT,59.71563981042654,NA,NA
06606,Fairfield County,CT,NA,88.90429958391124,NA
06704,New Haven County,CT,NA,89.18169209431346,NA
06706,New Haven County,CT,NA,76.28294036061027,NA
06854,Fairfield County,CT,NA,94.86823855755895,NA
06902,Fairfield County,CT,NA,86.54646324549236,NA
19702,New Castle County,DE,NA,16.22746185852982,NA
19711,New Castle County,DE,31.753554502369667,NA,NA
19720,New Castle County,DE,NA,3.19001386962552,NA
19971,Sussex County,DE,NA,NA,39.04109589041096
32046,Nassau County,FL,45.97156398104265,NA,NA
32084,St. Johns County,FL,NA,30.513176144244103,NA
32174,Volusia County,FL,NA,NA,11.301369863013697
32225,Duval County,FL,NA,NA,16.095890410958905
32226,Duval County,FL,NA,NA,47.6027397260274
32277,Duval County,FL,NA,53.95284327323162,NA
32505,Escambia County,FL,NA,63.24549237170597,NA
32506,Escambia County,FL,NA,15.39528432732316,NA
32609,Alachua County,FL,NA,NA,43.49315068493151
32780,Brevard County,FL,NA,76.42163661581137,NA
32804,Orange County,FL,NA,NA,93.4931506849315
32808,Orange County,FL,6.6350710900473935,NA,NA
32811,Orange County,FL,43.60189573459716,NA,NA
32908,Brevard County,FL,NA,85.71428571428571,NA
32935,Brevard County,FL,NA,50.20804438280167,NA
32960,Indian River County,FL,NA,46.3245492371706,NA
33010,Miami-Dade County,FL,NA,61.026352288488205,NA
33015,Miami-Dade County,FL,NA,70.87378640776699,NA
33023,Broward County,FL,NA,21.914008321775313,NA
33030,Miami-Dade County,FL,NA,95.5617198335645,NA
33032,Miami-Dade County,FL,22.274881516587676,NA,NA
33128,Miami-Dade County,FL,NA,92.6490984743412,NA
33136,Miami-Dade County,FL,99.0521327014218,NA,71.91780821917808
33137,Miami-Dade County,FL,NA,72.3994452149792,NA
33142,Miami-Dade County,FL,NA,70.45769764216367,NA
33147,Miami-Dade County,FL,NA,71.70596393897365,NA
33150,Miami-Dade County,FL,NA,82.38557558945908,55.821917808219176
33157,Miami-Dade County,FL,NA,NA,21.575342465753426
33177,Miami-Dade County,FL,25.118483412322274,NA,NA
33407,Palm Beach County,FL,NA,30.651872399445214,NA
33437,Palm Beach County,FL,NA,72.67683772538142,NA
33446,Palm Beach County,FL,81.51658767772511,NA,NA
33605,Hillsborough County,FL,NA,53.81414701803051,NA
33712,Pinellas County,FL,NA,NA,51.369863013698634
33809,Polk County,FL,NA,46.74063800277393,NA
33810,Polk County,FL,37.44075829383886,NA,NA
34112,Collier County,FL,NA,84.1886269070735,NA
34237,Sarasota County,FL,NA,55.75589459084605,NA
34471,Marion County,FL,83.88625592417061,NA,NA
34606,Hernando County,FL,NA,41.88626907073509,NA
34655,Pasco County,FL,27.96208530805687,NA,NA
34698,Pinellas County,FL,NA,NA,22.945205479452056
34747,Osceola County,FL,NA,94.45214979195562,NA
34759,Polk County,FL,NA,38.55755894590846,NA
30024,Gwinnett County,GA,77.72511848341233,NA,NA
30032,DeKalb County,GA,NA,14.008321775312066,NA
30034,DeKalb County,GA,20.85308056872038,NA,NA
30035,DeKalb County,GA,NA,NA,38.6986301369863
30046,Gwinnett County,GA,NA,45.90846047156727,NA
30047,Gwinnett County,GA,NA,57.28155339805825,NA
30062,Cobb County,GA,28.90995260663507,NA,NA
30068,Cobb County,GA,57.81990521327014,NA,NA
30083,DeKalb County,GA,20.379146919431278,NA,NA
30093,Gwinnett County,GA,NA,55.0624133148405,NA
30120,Bartow County,GA,NA,22.46879334257975,NA
30204,Lamar County,GA,NA,77.39251040221914,NA
30215,Fayette County,GA,NA,58.66851595006934,NA
30273,Clayton County,GA,NA,91.2621359223301,NA
30310,Fulton County,GA,NA,80.02773925104022,43.15068493150685
30311,Fulton County,GA,47.867298578199055,NA,NA
30314,Fulton County,GA,68.24644549763033,85.29819694868237,39.38356164383562
30316,DeKalb County,GA,NA,52.704576976421635,40.75342465753425
30318,Fulton County,GA,NA,83.35644937586684,NA
30331,Fulton County,GA,12.322274881516588,NA,NA
30341,DeKalb County,GA,NA,NA,67.8082191780822
30344,Fulton County,GA,NA,42.857142857142854,NA
30349,Fulton County,GA,9.47867298578199,9.29264909847434,NA
30354,Fulton County,GA,NA,60.887656033287094,NA
30458,Bulloch County,GA,NA,33.841886269070734,NA
30507,Hall County,GA,NA,42.44105409153953,NA
30673,Wilkes County,GA,NA,NA,82.87671232876713
30904,Richmond County,GA,NA,62.413314840499304,NA
30906,Richmond County,GA,NA,8.460471567267684,NA
30909,Richmond County,GA,NA,56.86546463245492,NA
31008,Peach County,GA,NA,41.60887656033287,NA
31044,Twiggs County,GA,NA,NA,99.65753424657534
31204,Bibb County,GA,NA,NA,29.45205479452055
31401,Chatham County,GA,NA,80.44382801664355,NA
31404,Chatham County,GA,NA,51.45631067961165,NA
31522,Glynn County,GA,NA,87.37864077669903,NA
31525,Glynn County,GA,NA,NA,56.16438356164384
31632,Lowndes County,GA,NA,73.23162274618585,NA
31643,Brooks County,GA,NA,63.52288488210819,NA
31907,Muscogee County,GA,NA,33.00970873786408,NA
96720,Hawaii County,HI,NA,33.56449375866852,NA
96744,Honolulu County,HI,NA,22.191400832177532,NA
96819,Honolulu County,HI,NA,45.49237170596394,15.41095890410959
83338,Jerome County,ID,NA,73.50901525658807,NA
83616,Ada County,ID,NA,47.57281553398058,NA
83651,Canyon County,ID,58.29383886255924,NA,NA
83686,Canyon County,ID,13.270142180094787,NA,NA
83702,Ada County,ID,NA,NA,19.863013698630137
83704,Ada County,ID,NA,18.58529819694868,NA
83835,Kootenai County,ID,NA,54.785020804438275,NA
83858,Kootenai County,ID,NA,71.42857142857143,NA
60044,Lake County,IL,NA,75.17337031900139,NA
60085,Lake County,IL,NA,95.14563106796116,NA
60098,McHenry County,IL,NA,32.038834951456316,NA
60160,Cook County,IL,58.767772511848335,NA,NA
60162,Cook County,IL,NA,72.95423023578364,NA
60201,Cook County,IL,36.018957345971565,NA,NA
60410,Will County,IL,NA,46.87933425797504,NA
60430,Cook County,IL,NA,60.332871012482656,NA
60441,Will County,IL,NA,25.104022191400833,NA
60452,Cook County,IL,NA,47.988904299583915,NA
60608,Cook County,IL,NA,NA,40.06849315068493
60612,Cook County,IL,NA,20.943134535367545,NA
60619,Cook County,IL,NA,28.57142857142857,NA
60625,Cook County,IL,NA,11.511789181692095,NA
60626,Cook County,IL,NA,NA,5.821917808219178
60628,Cook County,IL,NA,78.2246879334258,NA
60633,Cook County,IL,NA,81.69209431345354,57.87671232876712
60634,Cook County,IL,17.535545023696685,NA,NA
60639,Cook County,IL,NA,35.50624133148405,NA
60640,Cook County,IL,NA,NA,33.21917808219178
60643,Cook County,IL,27.014218009478675,NA,NA
60649,Cook County,IL,NA,42.302357836338416,NA
60660,Cook County,IL,NA,28.29403606102635,NA
61032,Stephenson County,IL,56.872037914691944,NA,NA
61201,Rock Island County,IL,45.023696682464454,NA,NA
61401,Knox County,IL,NA,NA,30.82191780821918
61615,Peoria County,IL,NA,70.18030513176144,NA
61801,Champaign County,IL,NA,NA,39.726027397260275
62052,Jersey County,IL,NA,NA,71.23287671232876
62204,St. Clair County,IL,NA,95.42302357836338,NA
62305,Adams County,IL,NA,90.84604715672677,NA
62656,Logan County,IL,87.67772511848341,NA,NA
62703,Sangamon County,IL,NA,30.79056865464632,NA
62901,Jackson County,IL,90.99526066350711,NA,NA
46016,Madison County,IN,NA,NA,57.534246575342465
46201,Marion County,IN,NA,20.665742024965326,NA
46204,Marion County,IN,NA,84.46601941747572,NA
46208,Marion County,IN,NA,NA,59.24657534246576
46219,Marion County,IN,NA,92.51040221914009,NA
46222,Marion County,IN,NA,64.77115117891817,NA
46229,Marion County,IN,76.30331753554502,NA,NA
46235,Marion County,IN,NA,22.052704576976424,NA
46254,Marion County,IN,72.03791469194313,NA,NA
46320,Lake County,IN,52.13270142180095,NA,87.67123287671232
46321,Lake County,IN,NA,85.85298196948682,NA
46360,LaPorte County,IN,NA,5.825242718446602,NA
46375,Lake County,IN,NA,71.15117891816921,NA
46403,Lake County,IN,NA,NA,89.72602739726028
46516,Elkhart County,IN,NA,18.446601941747574,NA
46563,Marshall County,IN,NA,NA,93.83561643835617
46714,Wells County,IN,NA,55.89459084604715,NA
46805,Allen County,IN,NA,NA,89.38356164383562
47025,Dearborn County,IN,NA,39.66712898751734,82.53424657534246
50010,Story County,IA,NA,95.00693481276005,NA
50266,Polk County,IA,NA,NA,69.52054794520548
50310,Polk County,IA,NA,23.1622746185853,NA
50311,Polk County,IA,97.1563981042654,NA,NA
50313,Polk County,IA,NA,38.83495145631068,NA
50702,Black Hawk County,IA,NA,41.19278779472954,NA
51104,Woodbury County,IA,NA,44.24410540915395,NA
51442,Crawford County,IA,NA,NA,83.21917808219177
51566,Montgomery County,IA,NA,92.23300970873787,NA
52233,Linn County,IA,65.40284360189574,NA,NA
52240,Johnson County,IA,29.85781990521327,23.43966712898752,NA
52402,Linn County,IA,NA,NA,26.71232876712329
52405,Linn County,IA,44.54976303317535,NA,NA
52501,Wapello County,IA,NA,14.979195561719832,NA
52632,Lee County,IA,NA,NA,61.3013698630137
52761,Muscatine County,IA,NA,12.482662968099861,13.356164383561644
66104,Wyandotte County,KS,NA,NA,37.67123287671233
67214,Sedgwick County,KS,80.09478672985783,NA,NA
67301,Montgomery County,KS,NA,NA,64.38356164383562
40204,Jefferson County,KY,89.0995260663507,NA,NA
40214,Jefferson County,KY,NA,7.766990291262135,NA
40215,Jefferson County,KY,NA,20.804438280166433,NA
40216,Jefferson County,KY,NA,10.263522884882107,NA
40218,Jefferson County,KY,NA,14.563106796116504,NA
40361,Bourbon County,KY,NA,63.6615811373093,NA
40769,Whitley County,KY,NA,NA,47.26027397260274
41701,Perry County,KY,NA,31.900138696255205,NA
42420,Henderson County,KY,NA,34.95145631067961,NA
42431,Hopkins County,KY,NA,25.52011095700416,NA
42501,Pulaski County,KY,NA,48.82108183079057,NA
42701,Hardin County,KY,NA,12.066574202496533,NA
70068,St. John the Baptist Parish,LA,86.7298578199052,NA,NA
70072,Jefferson Parish,LA,0,NA,NA
70114,Orleans Parish,LA,8.530805687203792,NA,NA
70117,Orleans Parish,LA,2.843601895734597,NA,NA
70122,Orleans Parish,LA,NA,NA,10.273972602739725
70426,Washington Parish,LA,74.40758293838863,NA,NA
70458,St. Tammany Parish,LA,NA,5.547850208044383,NA
70461,St. Tammany Parish,LA,NA,17.614424410540916,NA
70466,Tangipahoa Parish,LA,39.81042654028436,NA,NA
70501,Lafayette Parish,LA,NA,2.496532593619972,26.027397260273972
70535,St. Landry Parish,LA,24.644549763033176,NA,NA
70570,St. Landry Parish,LA,NA,1.6643550624133148,NA
70601,Calcasieu Parish,LA,NA,71.0124826629681,NA
70760,Pointe Coupee Parish,LA,NA,NA,76.36986301369863
70764,Iberville Parish,LA,NA,34.39667128987517,NA
70791,East Baton Rouge Parish,LA,NA,14.424410540915394,NA
70805,East Baton Rouge Parish,LA,7.5829383886255926,18.8626907073509,NA
70809,East Baton Rouge Parish,LA,NA,52.56588072122052,NA
70817,East Baton Rouge Parish,LA,9.95260663507109,NA,NA
71006,Bossier Parish,LA,NA,71.56726768377254,NA
71047,Caddo Parish,LA,NA,51.31761442441054,NA
71107,Caddo Parish,LA,46.91943127962085,NA,NA
71109,Caddo Parish,LA,NA,7.073509015256588,NA
71269,Richland Parish,LA,NA,NA,69.52054794520548
71302,Rapides Parish,LA,67.29857819905213,NA,NA
71343,Catahoula Parish,LA,NA,52.42718446601942,NA
04002,York County,ME,54.976303317535546,NA,NA
04005,York County,ME,NA,44.382801664355064,NA
04011,Cumberland County,ME,NA,51.87239944521498,NA
04039,Cumberland County,ME,NA,NA,67.12328767123287
04092,Cumberland County,ME,NA,38.69625520110957,NA
04102,Cumberland County,ME,NA,93.89736477115119,NA
04103,Cumberland County,ME,NA,23.855755894590846,NA
04294,Franklin County,ME,NA,85.15950069348128,NA
04412,Penobscot County,ME,58.767772511848335,NA,NA
04976,Somerset County,ME,35.07109004739337,79.750346740638,41.43835616438356
20636,St. Mary's County,MD,NA,NA,77.3972602739726
20743,Prince George's County,MD,96.6824644549763,73.37031900138696,NA
20748,Prince George's County,MD,NA,42.995839112343965,NA
20782,Prince George's County,MD,85.30805687203792,NA,NA
20785,Prince George's County,MD,NA,89.04299583911235,NA
20850,Montgomery County,MD,NA,80.16643550624133,NA
21050,Harford County,MD,73.45971563981043,NA,NA
21061,Anne Arundel County,MD,NA,54.23023578363384,NA
21133,Baltimore County,MD,18.95734597156398,NA,NA
21201,Baltimore city,MD,NA,79.19556171983356,NA
21206,Baltimore city,MD,NA,NA,12.32876712328767
21213,Baltimore city,MD,NA,21.63661581137309,NA
21214,Baltimore city,MD,NA,96.67128987517337,NA
21215,Baltimore city,MD,NA,32.17753120665742,NA
21217,Baltimore city,MD,NA,NA,17.123287671232877
21218,Baltimore city,MD,NA,36.47711511789182,11.643835616438356
21221,Baltimore County,MD,NA,NA,21.232876712328768
21222,Baltimore County,MD,15.639810426540285,40.915395284327325,NA
21224,Baltimore city,MD,NA,16.78224687933426,NA
21234,Baltimore County,MD,NA,NA,34.58904109589041
21239,Baltimore city,MD,NA,60.47156726768377,NA
21740,Washington County,MD,NA,81.55339805825243,NA
21921,Cecil County,MD,79.14691943127961,NA,NA
01020,Hampden County,MA,NA,23.02357836338419,NA
01040,Hampden County,MA,NA,NA,0
01060,Hampshire County,MA,NA,41.74757281553398,NA
01089,Hampden County,MA,NA,3.8834951456310676,NA
01105,Hampden County,MA,NA,NA,55.13698630136986
01331,Worcester County,MA,NA,NA,74.65753424657534
01420,Worcester County,MA,NA,0.27739251040221913,NA
01453,Worcester County,MA,71.09004739336493,NA,NA
01581,Worcester County,MA,47.39336492890995,NA,NA
01605,Worcester County,MA,NA,NA,6.164383561643835
01610,Worcester County,MA,NA,14.285714285714285,NA
01701,Middlesex County,MA,NA,37.17059639389736,NA
01747,Worcester County,MA,83.41232227488152,NA,NA
01772,Worcester County,MA,NA,86.40776699029125,NA
01801,Middlesex County,MA,NA,NA,9.931506849315069
01803,Middlesex County,MA,NA,NA,4.10958904109589
01835,Essex County,MA,NA,32.73231622746186,NA
01841,Essex County,MA,NA,26.768377253814148,NA
01843,Essex County,MA,6.161137440758294,NA,NA
01844,Essex County,MA,NA,NA,2.73972602739726
01852,Middlesex County,MA,10.42654028436019,NA,NA
01854,Middlesex County,MA,5.687203791469194,2.219140083217753,NA
01887,Middlesex County,MA,NA,58.52981969486824,NA
01902,Essex County,MA,NA,35.22884882108183,NA
01906,Essex County,MA,NA,2.912621359223301,NA
01915,Essex County,MA,NA,40.36061026352289,NA
01940,Essex County,MA,NA,98.6130374479889,NA
01949,Essex County,MA,NA,46.04715672676838,NA
02050,Plymouth County,MA,NA,NA,25
02054,Norfolk County,MA,NA,96.39389736477115,NA
02115,Suffolk County,MA,NA,45.76976421636616,NA
02121,Suffolk County,MA,NA,0.5547850208044383,45.54794520547945
02124,Suffolk County,MA,0.9478672985781991,0,0.3424657534246575
02127,Suffolk County,MA,96.2085308056872,NA,NA
02130,Suffolk County,MA,NA,1.3869625520110958,91.78082191780823
02138,Middlesex County,MA,NA,NA,5.136986301369863
02139,Middlesex County,MA,NA,27.045769764216367,NA
02140,Middlesex County,MA,NA,17.475728155339805,NA
02143,Middlesex County,MA,NA,5.6865464632454925,NA
02145,Middlesex County,MA,NA,25.93619972260749,7.534246575342466
02150,Suffolk County,MA,NA,NA,1.0273972602739725
02151,Suffolk County,MA,NA,0.13869625520110956,NA
02301,Plymouth County,MA,0.47393364928909953,2.6352288488210815,NA
02360,Plymouth County,MA,NA,1.1095700416088765,NA
02460,Middlesex County,MA,NA,NA,91.0958904109589
02639,Barnstable County,MA,NA,81.41470180305132,NA
02720,Bristol County,MA,5.213270142180095,8.876560332871012,71.57534246575342
02721,Bristol County,MA,NA,0.6934812760055479,NA
02724,Bristol County,MA,NA,73.9251040221914,88.6986301369863
02740,Bristol County,MA,16.587677725118482,NA,NA
02777,Bristol County,MA,8.056872037914692,NA,NA
48033,Oakland County,MI,NA,40.49930651872399,NA
48044,Macomb County,MI,NA,NA,5.47945205479452
48051,Macomb County,MI,NA,NA,34.93150684931507
48072,Oakland County,MI,80.56872037914692,NA,43.83561643835616
48081,Macomb County,MI,NA,NA,24.65753424657534
48108,Washtenaw County,MI,NA,37.7253814147018,NA
48116,Livingston County,MI,NA,29.403606102635226,NA
48186,Wayne County,MI,NA,NA,10.95890410958904
48197,Washtenaw County,MI,NA,43.27323162274618,NA
48198,Washtenaw County,MI,3.3175355450236967,NA,NA
48205,Wayne County,MI,NA,3.744798890429958,NA
48207,Wayne County,MI,21.32701421800948,70.59639389736478,NA
48208,Wayne County,MI,NA,99.02912621359224,NA
48209,Wayne County,MI,NA,26.21359223300971,NA
48219,Wayne County,MI,1.4218009478672986,NA,NA
48230,Wayne County,MI,NA,50.20804438280167,NA
48235,Wayne County,MI,NA,NA,81.5068493150685
48236,Wayne County,MI,37.91469194312796,NA,NA
48239,Wayne County,MI,NA,9.57004160887656,53.082191780821915
48458,Genesee County,MI,NA,31.345353675450767,NA
48640,Midland County,MI,52.60663507109005,NA,NA
48706,Bay County,MI,NA,NA,1.36986301369863
48708,Bay County,MI,NA,NA,6.506849315068493
48823,Ingham County,MI,NA,33.980582524271846,NA
48836,Livingston County,MI,NA,91.53952843273233,NA
48880,Gratiot County,MI,NA,NA,100
48911,Ingham County,MI,NA,NA,15.753424657534246
49022,Berrien County,MI,NA,10.540915395284326,NA
49048,Kalamazoo County,MI,NA,19.55617198335645,NA
49319,Kent County,MI,NA,58.945908460471564,NA
49503,Kent County,MI,NA,55.478502080443825,NA
49505,Kent County,MI,NA,26.49098474341193,NA
49507,Kent County,MI,NA,NA,23.972602739726025
49686,Grand Traverse County,MI,NA,96.9486823855756,NA
55044,Dakota County,MN,NA,49.375866851595006,NA
55076,Dakota County,MN,NA,86.13037447988904,NA
55077,Dakota County,MN,NA,96.11650485436894,NA
55113,Ramsey County,MN,NA,45.214979195561725,NA
55116,Ramsey County,MN,NA,61.99722607489597,NA
55118,Dakota County,MN,NA,49.09847434119279,NA
55123,Dakota County,MN,NA,NA,66.43835616438356
55313,Wright County,MN,23.22274881516588,NA,NA
55330,Sherburne County,MN,NA,77.11511789181692,NA
55343,Hennepin County,MN,NA,NA,95.54794520547945
55355,Meeker County,MN,NA,NA,94.86301369863014
55401,Hennepin County,MN,NA,91.81692094313453,NA
55404,Hennepin County,MN,NA,NA,22.26027397260274
55408,Hennepin County,MN,19.431279620853083,NA,78.76712328767124
55411,Hennepin County,MN,NA,18.723994452149793,NA
55415,Hennepin County,MN,NA,83.49514563106796,NA
55418,Hennepin County,MN,NA,57.69764216366158,33.56164383561644
55419,Hennepin County,MN,NA,67.96116504854369,NA
55423,Hennepin County,MN,NA,NA,77.73972602739725
55425,Hennepin County,MN,NA,NA,90.75342465753424
55427,Hennepin County,MN,51.18483412322274,NA,NA
55428,Hennepin County,MN,23.22274881516588,50.48543689320388,NA
55429,Hennepin County,MN,NA,13.592233009708737,NA
55431,Hennepin County,MN,NA,93.75866851595008,NA
55731,St. Louis County,MN,NA,98.3356449375867,NA
55792,St. Louis County,MN,NA,NA,79.7945205479452
55805,St. Louis County,MN,NA,78.64077669902912,NA
55811,St. Louis County,MN,NA,31.206657420249652,NA
55901,Olmsted County,MN,NA,27.739251040221912,NA
55912,Mower County,MN,NA,8.044382801664355,NA
56073,Brown County,MN,NA,79.33425797503467,NA
56377,Stearns County,MN,NA,68.23855755894591,NA
56431,Aitkin County,MN,NA,84.0499306518724,NA
56649,Koochiching County,MN,99.52606635071089,NA,NA
38606,Panola County,MS,NA,NA,86.64383561643835
39042,Rankin County,MS,NA,34.25797503467407,NA
39059,Copiah County,MS,48.81516587677725,NA,NA
39120,Adams County,MS,NA,84.32732316227461,NA
39170,Hinds County,MS,NA,74.06380027739252,NA
39203,Hinds County,MS,NA,76.8377253814147,NA
39209,Hinds County,MS,22.748815165876778,87.1012482662968,NA
39350,Neshoba County,MS,18.48341232227488,NA,NA
39437,Jones County,MS,NA,NA,65.75342465753424
39563,Jackson County,MS,NA,47.71151178918169,NA
63108,St. Louis city,MO,82.46445497630332,NA,NA
63110,St. Louis city,MO,NA,97.2260748959778,NA
63114,St. Louis County,MO,NA,56.03328710124826,NA
63115,St. Louis city,MO,NA,98.05825242718447,NA
63116,St. Louis city,MO,43.127962085308056,NA,NA
63118,St. Louis city,MO,35.07109004739337,NA,NA
63125,St. Louis County,MO,NA,41.05409153952843,NA
63129,St. Louis County,MO,NA,43.689320388349515,NA
63130,St. Louis County,MO,60.66350710900474,NA,NA
63136,St. Louis County,MO,NA,93.34257975034674,NA
63138,St. Louis County,MO,NA,91.40083217753121,NA
63841,Stoddard County,MO,NA,49.79195561719833,NA
63876,Dunklin County,MO,NA,99.44521497919555,NA
64068,Clay County,MO,NA,52.28848821081831,NA
64083,Cass County,MO,NA,36.615811373092924,NA
64106,Jackson County,MO,NA,29.26490984743412,97.6027397260274
64110,Jackson County,MO,NA,73.64771151178918,NA
64111,Jackson County,MO,NA,27.600554785020805,NA
64131,Jackson County,MO,NA,15.256588072122051,NA
64138,Jackson County,MO,NA,11.789181692094314,NA
64683,Grundy County,MO,42.18009478672986,NA,NA
64744,Cedar County,MO,NA,68.65464632454923,NA
64804,Jasper County,MO,NA,18.169209431345354,NA
65721,Christian County,MO,NA,53.25936199722607,NA
65775,Howell County,MO,NA,32.45492371705964,NA
65802,Greene County,MO,NA,11.373092926490985,18.835616438356166
68114,Douglas County,NE,NA,70.31900138696255,NA
68128,Sarpy County,NE,NA,71.98335644937586,NA
68137,Douglas County,NE,NA,51.17891816920943,NA
89104,Clark County,NV,NA,74.89597780859917,NA
89113,Clark County,NV,NA,67.54507628294036,NA
89115,Clark County,NV,NA,22.607489597780862,NA
89121,Clark County,NV,NA,28.71012482662968,NA
89146,Clark County,NV,NA,NA,73.63013698630137
89156,Clark County,NV,NA,80.72122052704577,NA
89183,Clark County,NV,NA,59.36199722607489,NA
89503,Washoe County,NV,NA,56.44937586685159,NA
03104,Hillsborough County,NH,NA,NA,14.726027397260275
07002,Hudson County,NJ,NA,NA,18.15068493150685
07003,Essex County,NJ,21.80094786729858,NA,NA
07009,Essex County,NJ,NA,71.84466019417476,NA
07011,Passaic County,NJ,NA,19.972260748959776,NA
07013,Passaic County,NJ,NA,NA,92.12328767123287
07017,Essex County,NJ,NA,53.6754507628294,NA
07026,Bergen County,NJ,NA,67.82246879334258,NA
07030,Hudson County,NJ,NA,NA,95.8904109589041
07045,Morris County,NJ,NA,NA,78.42465753424658
07060,Union County,NJ,9.004739336492891,NA,NA
07070,Bergen County,NJ,97.6303317535545,63.938973647711514,NA
07095,Middlesex County,NJ,NA,75.58945908460471,NA
07102,Essex County,NJ,NA,74.34119278779472,NA
07104,Essex County,NJ,NA,15.950069348127602,NA
07105,Essex County,NJ,NA,12.62135922330097,NA
07106,Essex County,NJ,62.08530805687204,NA,NA
07107,Essex County,NJ,7.109004739336493,NA,NA
07112,Essex County,NJ,NA,78.91816920943134,NA
07206,Union County,NJ,NA,32.87101248266297,NA
07304,Hudson County,NJ,NA,75.31206657420249,NA
07306,Hudson County,NJ,NA,5.270457697642163,NA
07405,Morris County,NJ,NA,94.1747572815534,NA
07436,Bergen County,NJ,90.04739336492891,NA,NA
07450,Bergen County,NJ,75.35545023696683,NA,NA
07501,Passaic County,NJ,NA,41.33148404993065,NA
07513,Passaic County,NJ,NA,99.72260748959778,NA
07522,Passaic County,NJ,NA,26.629680998613036,72.26027397260275
07644,Bergen County,NJ,NA,NA,80.47945205479452
07650,Bergen County,NJ,NA,62.55201109570042,81.84931506849315
07652,Bergen County,NJ,NA,95.97780859916783,25.684931506849317
07656,Bergen County,NJ,95.260663507109,NA,NA
07712,Monmouth County,NJ,NA,65.74202496532594,NA
07735,Monmouth County,NJ,NA,32.593619972260754,NA
07739,Monmouth County,NJ,NA,NA,86.98630136986301
07740,Monmouth County,NJ,38.862559241706165,7.212205270457697,NA
07827,Sussex County,NJ,NA,95.7004160887656,NA
07950,Morris County,NJ,NA,77.80859916782246,99.31506849315068
08009,Camden County,NJ,NA,56.310679611650485,NA
08033,Camden County,NJ,NA,61.44244105409153,NA
08037,Atlantic County,NJ,NA,NA,90.06849315068493
08046,Burlington County,NJ,NA,44.79889042995839,NA
08052,Burlington County,NJ,NA,NA,36.986301369863014
08060,Burlington County,NJ,NA,NA,59.93150684931506
08104,Camden County,NJ,NA,7.905686546463246,NA
08332,Cumberland County,NJ,25.59241706161137,24.410540915395284,NA
08360,Cumberland County,NJ,NA,7.489597780859916,NA
08518,Burlington County,NJ,NA,74.20249653259361,NA
08530,Hunterdon County,NJ,NA,NA,98.97260273972603
08611,Mercer County,NJ,NA,4.715672676837725,NA
08638,Mercer County,NJ,NA,12.89875173370319,NA
08721,Ocean County,NJ,70.61611374407583,NA,NA
08755,Ocean County,NJ,NA,26.352288488210817,NA
08759,Ocean County,NJ,NA,NA,92.8082191780822
08831,Middlesex County,NJ,NA,NA,90.41095890410958
08865,Warren County,NJ,NA,NA,8.561643835616438
08876,Somerset County,NJ,NA,21.35922330097087,NA
87102,Bernalillo County,NM,NA,23.994452149791957,NA
87104,Bernalillo County,NM,NA,76.14424410540916,NA
87105,Bernalillo County,NM,64.45497630331754,NA,NA
87106,Bernalillo County,NM,NA,23.300970873786408,NA
87108,Bernalillo County,NM,NA,NA,4.4520547945205475
87109,Bernalillo County,NM,57.345971563981045,NA,NA
87110,Bernalillo County,NM,NA,39.1123439667129,NA
87121,Bernalillo County,NM,NA,4.0221914008321775,NA
87124,Sandoval County,NM,NA,NA,6.8493150684931505
87410,San Juan County,NM,NA,60.05547850208044,NA
87505,Santa Fe County,NM,NA,4.5769764216366156,NA
88001,Doa Ana County,NM,12.796208530805686,NA,NA
88310,Otero County,NM,NA,NA,27.397260273972602
10001,New York County,NY,NA,87.93342579750347,32.19178082191781
10002,New York County,NY,71.56398104265402,52.011095700416085,NA
10003,New York County,NY,NA,51.59500693481276,NA
10004,New York County,NY,NA,NA,97.94520547945206
10009,New York County,NY,NA,NA,28.424657534246577
10011,New York County,NY,NA,38.141470180305134,NA
10016,New York County,NY,NA,89.32038834951457,NA
10018,New York County,NY,NA,82.10818307905686,72.6027397260274
10019,New York County,NY,NA,NA,52.3972602739726
10021,New York County,NY,NA,84.60471567267683,NA
10025,New York County,NY,NA,72.26074895977808,NA
10026,New York County,NY,NA,74.47988904299584,NA
10027,New York County,NY,NA,54.92371705963939,NA
10029,New York County,NY,NA,4.438280166435506,NA
10031,New York County,NY,NA,83.07905686546462,NA
10033,New York County,NY,NA,17.05963938973648,NA
10035,New York County,NY,NA,67.12898751733704,NA
10036,New York County,NY,54.02843601895735,NA,NA
10301,Richmond County,NY,NA,NA,54.794520547945204
10303,Richmond County,NY,NA,75.72815533980582,NA
10304,Richmond County,NY,14.691943127962084,NA,NA
10314,Richmond County,NY,NA,13.314840499306518,NA
10451,Bronx County,NY,NA,2.7739251040221915,NA
10452,Bronx County,NY,NA,97.78085991678225,NA
10453,Bronx County,NY,74.88151658767772,6.796116504854369,NA
10454,Bronx County,NY,NA,64.90984743411929,NA
10455,Bronx County,NY,NA,52.98196948682386,NA
10456,Bronx County,NY,NA,75.86685159500693,8.904109589041095
10457,Bronx County,NY,NA,0.8321775312066574,NA
10458,Bronx County,NY,NA,13.176144244105409,NA
10460,Bronx County,NY,NA,2.0804438280166435,NA
10461,Bronx County,NY,NA,90.98474341192788,45.20547945205479
10462,Bronx County,NY,NA,NA,3.4246575342465753
10463,Bronx County,NY,NA,8.599167822468793,62.671232876712324
10466,Bronx County,NY,NA,90.01386962552012,NA
10467,Bronx County,NY,NA,41.47018030513176,58.9041095890411
10468,Bronx County,NY,NA,1.5256588072122053,NA
10470,Bronx County,NY,61.137440758293835,NA,NA
10473,Bronx County,NY,NA,24.133148404993065,NA
10543,Westchester County,NY,92.41706161137441,64.49375866851595,NA
10550,Westchester County,NY,NA,66.57420249653259,NA
10583,Westchester County,NY,NA,99.30651872399446,NA
10703,Westchester County,NY,NA,NA,56.849315068493155
10924,Orange County,NY,NA,85.02080443828017,NA
10940,Orange County,NY,NA,88.2108183079057,92.46575342465754
10952,Rockland County,NY,NA,81.83079056865465,NA
11096,Nassau County,NY,NA,99.58391123439667,NA
11101,Queens County,NY,NA,54.50762829403606,NA
11203,Kings County,NY,NA,35.09015256588072,NA
11205,Kings County,NY,NA,39.94452149791955,NA
11206,Kings County,NY,NA,65.3259361997226,NA
11207,Kings County,NY,NA,4.160887656033287,NA
11208,Kings County,NY,NA,9.015256588072122,NA
11212,Kings County,NY,NA,1.248266296809986,78.08219178082192
11213,Kings County,NY,NA,77.94729542302358,NA
11215,Kings County,NY,NA,33.70319001386963,NA
11216,Kings County,NY,NA,37.447988904299585,NA
11217,Kings County,NY,NA,NA,25.34246575342466
11219,Kings County,NY,NA,NA,75
11221,Kings County,NY,NA,46.18585298196949,2.3972602739726026
11223,Kings County,NY,NA,NA,13.698630136986301
11224,Kings County,NY,NA,NA,83.9041095890411
11225,Kings County,NY,NA,89.59778085991678,NA
11226,Kings County,NY,NA,84.74341192787794,1.7123287671232876
11230,Kings County,NY,NA,45.35367545076283,NA
11233,Kings County,NY,NA,92.92649098474341,0.684931506849315
11234,Kings County,NY,NA,51.04022191400832,NA
11235,Kings County,NY,88.15165876777252,NA,NA
11236,Kings County,NY,NA,22.88488210818308,NA
11238,Kings County,NY,NA,NA,68.83561643835617
11354,Queens County,NY,NA,NA,96.91780821917808
11355,Queens County,NY,NA,28.43273231622746,NA
11357,Queens County,NY,NA,94.31345353675451,NA
11369,Queens County,NY,NA,92.09431345353676,NA
11372,Queens County,NY,NA,NA,21.575342465753426
11373,Queens County,NY,NA,42.0249653259362,NA
11377,Queens County,NY,NA,92.37170596393898,NA
11378,Queens County,NY,NA,59.084604715672675,NA
11385,Queens County,NY,NA,NA,9.58904109589041
11423,Queens County,NY,NA,92.7877947295423,38.35616438356164
11432,Queens County,NY,61.61137440758294,NA,NA
11435,Queens County,NY,NA,NA,70.2054794520548
11436,Queens County,NY,NA,NA,98.28767123287672
11501,Nassau County,NY,NA,97.91955617198336,NA
11552,Nassau County,NY,NA,73.7864077669903,83.56164383561644
11576,Nassau County,NY,NA,NA,93.15068493150685
11691,Queens County,NY,NA,60.74895977808599,47.94520547945205
11692,Queens County,NY,NA,81.2760055478502,NA
11693,Queens County,NY,NA,97.64216366158114,NA
11694,Queens County,NY,NA,NA,74.31506849315068
11703,Suffolk County,NY,NA,82.80166435506241,NA
11704,Suffolk County,NY,NA,97.50346740638003,NA
11740,Suffolk County,NY,NA,94.72954230235784,NA
11763,Suffolk County,NY,NA,43.41192787794729,NA
11779,Suffolk County,NY,NA,NA,40.41095890410959
11787,Suffolk County,NY,NA,97.0873786407767,NA
11801,Nassau County,NY,NA,55.617198335644936,NA
12010,Montgomery County,NY,NA,62.27461858529819,NA
12210,Albany County,NY,NA,NA,97.26027397260275
12302,Schenectady County,NY,NA,40.77669902912621,NA
12307,Schenectady County,NY,NA,NA,84.58904109589042
12308,Schenectady County,NY,NA,NA,63.6986301369863
12401,Ulster County,NY,93.36492890995261,NA,NA
12569,Dutchess County,NY,NA,91.67822468793344,NA
12983,Franklin County,NY,63.98104265402843,NA,NA
13045,Cortland County,NY,NA,NA,96.57534246575342
13166,Cayuga County,NY,NA,NA,79.1095890410959
13202,Onondaga County,NY,NA,56.72676837725381,NA
13204,Onondaga County,NY,NA,12.343966712898752,NA
13205,Onondaga County,NY,NA,66.01941747572816,NA
13210,Onondaga County,NY,NA,35.78363384188627,NA
13357,Herkimer County,NY,NA,35.78363384188627,NA
13617,St. Lawrence County,NY,94.7867298578199,NA,NA
13850,Broome County,NY,NA,NA,3.0821917808219177
14094,Niagara County,NY,NA,14.701803051317613,NA
14127,Erie County,NY,NA,NA,84.24657534246576
14204,Erie County,NY,NA,NA,75.34246575342466
14215,Erie County,NY,NA,1.9417475728155338,NA
14227,Erie County,NY,NA,NA,27.054794520547947
14304,Niagara County,NY,NA,82.24687933425797,NA
14305,Niagara County,NY,NA,75.03467406380028,NA
14450,Monroe County,NY,NA,NA,31.164383561643838
14456,Ontario County,NY,NA,8.321775312066574,NA
14469,Ontario County,NY,65.87677725118483,NA,NA
14569,Wyoming County,NY,NA,60.61026352288488,NA
14604,Monroe County,NY,NA,50.624133148404994,NA
14608,Monroe County,NY,95.73459715639811,NA,NA
14609,Monroe County,NY,NA,68.0998613037448,NA
14611,Monroe County,NY,34.12322274881517,7.350901525658807,16.43835616438356
14620,Monroe County,NY,NA,86.9625520110957,NA
14624,Monroe County,NY,NA,NA,16.78082191780822
27101,Forsyth County,NC,NA,89.875173370319,NA
27205,Randolph County,NC,51.65876777251185,NA,NA
27406,Guilford County,NC,NA,NA,30.136986301369863
27520,Johnston County,NC,NA,59.77808599167822,NA
27530,Wayne County,NC,NA,NA,20.205479452054796
27536,Vance County,NC,NA,29.680998613037445,NA
27546,Harnett County,NC,NA,94.59084604715673,NA
27603,Wake County,NC,93.8388625592417,NA,NA
27703,Durham County,NC,NA,NA,9.246575342465754
27704,Durham County,NC,NA,11.927877947295423,29.10958904109589
27707,Durham County,NC,29.383886255924168,40.221914008321775,NA
27886,Edgecombe County,NC,NA,36.1997226074896,NA
28001,Stanly County,NC,88.62559241706161,NA,NA
28025,Cabarrus County,NC,NA,10.957004160887656,NA
28052,Gaston County,NC,48.81516587677725,28.01664355062413,NA
28079,Union County,NC,NA,45.63106796116505,NA
28114,Rutherford County,NC,NA,93.48127600554785,NA
28139,Rutherford County,NC,NA,81.96948682385575,NA
28144,Rowan County,NC,NA,34.39667128987517,NA
28211,Mecklenburg County,NC,NA,94.03606102635229,NA
28212,Mecklenburg County,NC,NA,27.323162274618586,NA
28303,Cumberland County,NC,NA,88.3495145631068,NA
28377,Robeson County,NC,NA,NA,80.13698630136986
28401,New Hanover County,NC,NA,10.679611650485436,NA
28425,Pender County,NC,NA,88.3495145631068,NA
28472,Columbus County,NC,NA,NA,65.41095890410958
28625,Iredell County,NC,NA,17.891816920943135,NA
28732,Henderson County,NC,NA,65.46463245492372,NA
28752,McDowell County,NC,33.175355450236964,NA,NA
28762,McDowell County,NC,NA,NA,88.35616438356165
28904,Clay County,NC,NA,NA,59.589041095890416
43113,Pickaway County,OH,NA,NA,13.013698630136986
43123,Franklin County,OH,NA,31.06796116504854,NA
43143,Madison County,OH,87.20379146919431,NA,NA
43215,Franklin County,OH,77.25118483412322,NA,68.4931506849315
43224,Franklin County,OH,NA,5.9639389736477115,NA
43227,Franklin County,OH,NA,24.965325936199722,NA
43420,Sandusky County,OH,38.388625592417064,NA,NA
43512,Defiance County,OH,NA,3.6061026352288486,NA
43605,Lucas County,OH,NA,NA,22.602739726027394
43964,Jefferson County,OH,NA,27.461858529819693,NA
44035,Lorain County,OH,NA,0.4160887656033287,NA
44055,Lorain County,OH,NA,9.847434119278779,45.89041095890411
44057,Lake County,OH,NA,29.126213592233007,NA
44067,Summit County,OH,NA,NA,17.80821917808219
44077,Lake County,OH,32.22748815165877,NA,NA
44089,Erie County,OH,NA,63.938973647711514,NA
44095,Lake County,OH,NA,NA,7.876712328767123
44102,Cuyahoga County,OH,NA,21.497919556171983,35.273972602739725
44103,Cuyahoga County,OH,NA,52.843273231622746,14.04109589041096
44106,Cuyahoga County,OH,NA,NA,15.068493150684931
44107,Cuyahoga County,OH,4.265402843601896,NA,NA
44108,Cuyahoga County,OH,NA,18.030513176144243,NA
44110,Cuyahoga County,OH,NA,10.402219140083217,79.45205479452055
44111,Cuyahoga County,OH,NA,1.8030513176144243,NA
44112,Cuyahoga County,OH,NA,NA,3.767123287671233
44114,Cuyahoga County,OH,NA,93.20388349514563,NA
44120,Cuyahoga County,OH,NA,47.43411927877948,2.054794520547945
44124,Cuyahoga County,OH,NA,90.29126213592234,NA
44129,Cuyahoga County,OH,28.436018957345972,15.672676837725383,NA
44130,Cuyahoga County,OH,NA,59.91678224687933,NA
44135,Cuyahoga County,OH,NA,NA,33.9041095890411
44137,Cuyahoga County,OH,NA,6.102635228848821,NA
44144,Cuyahoga County,OH,24.170616113744074,12.76005547850208,NA
44212,Medina County,OH,50.23696682464455,NA,NA
44241,Portage County,OH,NA,NA,48.28767123287671
44320,Summit County,OH,NA,17.337031900138697,NA
44403,Trumbull County,OH,NA,77.25381414701803,NA
44481,Trumbull County,OH,NA,57.14285714285714,NA
44483,Trumbull County,OH,16.113744075829384,16.50485436893204,NA
44601,Stark County,OH,NA,8.183079056865465,NA
44704,Stark County,OH,NA,99.86130374479889,NA
44830,Seneca County,OH,NA,61.99722607489597,NA
44870,Erie County,OH,NA,2.3578363384188625,NA
44903,Richland County,OH,NA,20.249653259361995,NA
45013,Butler County,OH,3.7914691943127963,NA,NA
45044,Butler County,OH,NA,5.131761442441054,NA
45102,Clermont County,OH,NA,36.061026352288486,NA
45123,Highland County,OH,NA,78.50208044382802,NA
45176,Clermont County,OH,NA,60.19417475728155,NA
45202,Hamilton County,OH,63.03317535545023,NA,NA
45215,Hamilton County,OH,NA,66.29680998613038,NA
45219,Hamilton County,OH,78.67298578199052,NA,NA
45225,Hamilton County,OH,NA,62.96809986130375,NA
45230,Hamilton County,OH,NA,71.28987517337032,NA
45239,Hamilton County,OH,NA,68.79334257975034,NA
45242,Hamilton County,OH,NA,100,NA
45373,Miami County,OH,NA,NA,12.67123287671233
45403,Montgomery County,OH,26.540284360189574,36.754507628294036,NA
45426,Montgomery County,OH,NA,50.762829403606105,NA
45601,Ross County,OH,NA,0.9708737864077669,NA
45662,Scioto County,OH,NA,3.0513176144244105,NA
45879,Paulding County,OH,NA,48.40499306518724,NA
73064,Canadian County,OK,NA,NA,38.013698630136986
73118,Oklahoma County,OK,NA,84.88210818307905,NA
73701,Garfield County,OK,NA,NA,73.97260273972603
74301,Craig County,OK,NA,57.558945908460466,NA
74523,Pushmataha County,OK,NA,NA,76.71232876712328
74820,Pontotoc County,OK,NA,9.153952843273231,NA
74955,Sequoyah County,OK,42.65402843601896,NA,NA
97034,Clackamas County,OR,NA,NA,52.054794520547944
97106,Washington County,OR,NA,98.89042995839112,NA
97202,Multnomah County,OR,NA,28.9875173370319,NA
97206,Multnomah County,OR,NA,NA,66.0958904109589
97216,Multnomah County,OR,72.03791469194313,NA,NA
97236,Multnomah County,OR,NA,21.7753120665742,NA
97301,Marion County,OR,NA,57.9750346740638,NA
97355,Linn County,OR,NA,12.205270457697642,NA
97378,Yamhill County,OR,NA,77.53120665742024,NA
97401,Lane County,OR,NA,NA,60.273972602739725
97420,Coos County,OR,NA,48.26629680998613,NA
97470,Douglas County,OR,NA,NA,26.36986301369863
97471,Douglas County,OR,NA,19.41747572815534,NA
97501,Jackson County,OR,NA,76.56033287101248,NA
97527,Josephine County,OR,NA,43.13453536754508,NA
97850,Union County,OR,NA,NA,28.767123287671232
15022,Washington County,PA,NA,NA,69.17808219178082
15065,Allegheny County,PA,NA,61.58113730929264,NA
15104,Allegheny County,PA,NA,97.36477115117891,NA
15207,Allegheny County,PA,NA,56.171983356449374,NA
15212,Allegheny County,PA,NA,80.85991678224687,NA
15214,Allegheny County,PA,NA,NA,94.17808219178082
15217,Allegheny County,PA,NA,NA,48.63013698630137
15219,Allegheny County,PA,NA,NA,41.0958904109589
15226,Allegheny County,PA,NA,63.80027739251041,NA
15425,Fayette County,PA,NA,NA,23.63013698630137
15601,Westmoreland County,PA,NA,37.86407766990291,NA
15666,Westmoreland County,PA,NA,NA,84.93150684931507
16001,Butler County,PA,NA,3.467406380027739,NA
16101,Lawrence County,PA,NA,6.2413314840499305,NA
16301,Venango County,PA,NA,NA,65.06849315068493
16335,Crawford County,PA,NA,10.818307905686545,NA
16866,Centre County,PA,NA,NA,61.986301369863014
17013,Cumberland County,PA,53.55450236966824,NA,NA
17042,Lebanon County,PA,NA,NA,4.794520547945205
17113,Dauphin County,PA,41.70616113744076,NA,NA
17403,York County,PA,NA,19.27877947295423,NA
17522,Lancaster County,PA,NA,NA,10.616438356164384
18104,Lehigh County,PA,NA,14.840499306518723,NA
18360,Monroe County,PA,46.44549763033176,NA,NA
18431,Wayne County,PA,NA,NA,46.57534246575342
18518,Lackawanna County,PA,NA,76.00554785020805,NA
18651,Luzerne County,PA,98.5781990521327,NA,NA
19001,Montgomery County,PA,NA,53.536754507628295,NA
19004,Montgomery County,PA,NA,90.15256588072123,NA
19053,Bucks County,PA,NA,90.42995839112345,NA
19055,Bucks County,PA,NA,83.21775312066573,NA
19070,Delaware County,PA,NA,79.47295423023579,NA
19104,Philadelphia County,PA,NA,NA,86.3013698630137
19120,Philadelphia County,PA,NA,19.83356449375867,NA
19124,Philadelphia County,PA,NA,22.330097087378643,NA
19133,Philadelphia County,PA,NA,16.08876560332871,NA
19134,Philadelphia County,PA,NA,3.3287101248266295,NA
19137,Philadelphia County,PA,73.45971563981043,NA,NA
19142,Philadelphia County,PA,94.3127962085308,NA,NA
19143,Philadelphia County,PA,1.8957345971563981,NA,NA
19144,Philadelphia County,PA,14.218009478672986,90.70735090152566,NA
19146,Philadelphia County,PA,NA,83.91123439667129,NA
19150,Philadelphia County,PA,NA,NA,24.315068493150687
19311,Chester County,PA,NA,79.8890429958391,NA
19403,Montgomery County,PA,NA,20.527045769764214,NA
19464,Montgomery County,PA,NA,4.854368932038835,NA
19601,Berks County,PA,NA,20.110957004160888,NA
19608,Berks County,PA,NA,30.235783633841883,NA
02840,Newport County,RI,NA,NA,29.794520547945208
02904,Providence County,RI,64.92890995260665,NA,NA
02905,Providence County,RI,NA,39.528432732316226,NA
02909,Providence County,RI,NA,21.081830790568652,NA
02920,Providence County,RI,NA,30.374479889042995,NA
29203,Richland County,SC,NA,NA,64.72602739726028
29325,Laurens County,SC,NA,NA,48.97260273972603
29360,Laurens County,SC,NA,39.25104022191401,NA
29403,Charleston County,SC,NA,42.163661581137305,NA
29405,Charleston County,SC,NA,NA,35.95890410958904
29406,Charleston County,SC,NA,66.7128987517337,50
29466,Charleston County,SC,NA,46.601941747572816,NA
29483,Dorchester County,SC,NA,NA,19.52054794520548
29520,Chesterfield County,SC,NA,NA,52.73972602739726
29571,Marion County,SC,NA,NA,44.52054794520548
29709,Chesterfield County,SC,NA,82.94036061026353,NA
29803,Aiken County,SC,53.08056872037915,NA,NA
29851,Aiken County,SC,82.93838862559242,NA,NA
57501,Hughes County,SD,49.763033175355446,NA,NA
37058,Stewart County,TN,NA,NA,75.68493150684932
37072,Davidson County,TN,NA,NA,53.76712328767124
37110,Warren County,TN,NA,68.51595006934814,NA
37115,Davidson County,TN,NA,38.97364771151179,NA
37127,Rutherford County,TN,NA,58.391123439667126,NA
37160,Bedford County,TN,NA,21.220527045769764,NA
37322,Meigs County,TN,NA,NA,87.32876712328768
37355,Coffee County,TN,NA,34.812760055478506,NA
37405,Hamilton County,TN,NA,66.85159500693482,NA
37411,Hamilton County,TN,NA,65.0485436893204,NA
37601,Washington County,TN,26.066350710900476,NA,NA
37620,Sullivan County,TN,NA,13.869625520110956,NA
37665,Sullivan County,TN,89.57345971563981,NA,NA
37801,Blount County,TN,NA,59.63938973647711,NA
37830,Anderson County,TN,NA,NA,85.27397260273972
37918,Knox County,TN,NA,NA,20.89041095890411
37938,Knox County,TN,63.507109004739334,NA,NA
38016,Shelby County,TN,NA,49.930651872399444,NA
38068,Fayette County,TN,36.018957345971565,NA,NA
38106,Shelby County,TN,NA,17.198335644937586,NA
38109,Shelby County,TN,NA,38.00277392510402,NA
38111,Shelby County,TN,NA,23.71705963938974,NA
38114,Shelby County,TN,NA,NA,80.82191780821918
38115,Shelby County,TN,2.3696682464454977,26.0748959778086,NA
38116,Shelby County,TN,10.90047393364929,20.388349514563107,NA
38343,Gibson County,TN,NA,95.28432732316227,NA
75006,Dallas County,TX,NA,89.73647711511789,NA
75020,Grayson County,TX,54.502369668246445,NA,NA
75061,Dallas County,TX,55.92417061611374,NA,NA
75088,Dallas County,TX,NA,63.384188626907076,NA
75090,Grayson County,TX,NA,68.93203883495146,NA
75115,Dallas County,TX,NA,79.6116504854369,NA
75154,Ellis County,TX,NA,66.43550624133148,NA
75210,Dallas County,TX,70.14218009478674,NA,NA
75216,Dallas County,TX,NA,6.934812760055478,NA
75224,Dallas County,TX,NA,44.66019417475729,NA
75228,Dallas County,TX,NA,6.657420249653259,NA
75241,Dallas County,TX,NA,25.381414701803052,NA
75455,Titus County,TX,NA,51.73370319001387,NA
75707,Smith County,TX,NA,NA,41.78082191780822
75835,Houston County,TX,NA,61.719833564493754,NA
75901,Angelina County,TX,NA,36.33841886269071,NA
75904,Angelina County,TX,NA,34.11927877947296,NA
76012,Tarrant County,TX,72.98578199052133,NA,NA
76014,Tarrant County,TX,NA,46.463245492371705,NA
76105,Tarrant County,TX,NA,50.069348127600556,NA
76112,Tarrant County,TX,NA,58.80721220527045,NA
76114,Tarrant County,TX,NA,NA,46.23287671232877
76119,Tarrant County,TX,NA,8.737864077669903,NA
76248,Tarrant County,TX,60.18957345971564,NA,NA
76528,Coryell County,TX,NA,77.66990291262135,NA
76543,Bell County,TX,NA,58.113730929264904,NA
76574,Williamson County,TX,NA,47.156726768377254,NA
76707,McLennan County,TX,NA,65.18723994452151,NA
77021,Harris County,TX,NA,NA,34.24657534246575
77045,Harris County,TX,NA,55.33980582524271,NA
77078,Harris County,TX,NA,85.5755894590846,NA
77083,Harris County,TX,NA,NA,28.08219178082192
77089,Harris County,TX,NA,42.44105409153953,NA
77090,Harris County,TX,NA,86.82385575589458,NA
77414,Matagorda County,TX,NA,NA,36.64383561643836
77489,Fort Bend County,TX,NA,30.929264909847433,NA
77642,Jefferson County,TX,17.061611374407583,30.097087378640776,NA
77801,Brazos County,TX,NA,72.12205270457697,NA
78041,Webb County,TX,NA,NA,50.68493150684932
78130,Comal County,TX,NA,25.24271844660194,NA
78202,Bexar County,TX,69.66824644549763,NA,NA
78209,Bexar County,TX,NA,59.22330097087378,NA
78213,Bexar County,TX,11.374407582938389,NA,NA
78219,Bexar County,TX,NA,69.07073509015257,NA
78220,Bexar County,TX,NA,57.83633841886269,62.328767123287676
78222,Bexar County,TX,90.04739336492891,NA,NA
78410,Nueces County,TX,NA,87.65603328710125,NA
78501,Hidalgo County,TX,NA,45.07628294036061,NA
78520,Cameron County,TX,55.45023696682464,NA,NA
78521,Cameron County,TX,18.009478672985782,NA,NA
78538,Hidalgo County,TX,NA,85.43689320388349,NA
78541,Hidalgo County,TX,NA,48.68238557558946,NA
78629,Gonzales County,TX,NA,98.75173370319001,NA
78640,Hays County,TX,NA,40.6380027739251,NA
78759,Travis County,TX,NA,70.04160887656033,NA
79106,Potter County,TX,NA,53.12066574202496,NA
79603,Taylor County,TX,19.90521327014218,NA,NA
79703,Midland County,TX,NA,56.5880721220527,NA
84111,Salt Lake County,UT,NA,66.15811373092927,NA
84119,Salt Lake County,UT,NA,13.730929264909847,NA
84120,Salt Lake County,UT,NA,31.622746185852986,NA
84128,Salt Lake County,UT,NA,38.28016643550624,NA
84332,Cache County,UT,NA,NA,96.23287671232876
05401,Chittenden County,VT,NA,47.156726768377254,NA
05478,Franklin County,VT,84.36018957345972,NA,NA
20147,Loudoun County,VA,NA,NA,46.917808219178085
22079,Fairfax County,VA,39.33649289099526,NA,NA
22191,Prince William County,VA,NA,18.307905686546462,NA
22202,Arlington County,VA,NA,68.37725381414702,NA
22827,Rockingham County,VA,78.19905213270142,NA,NA
22901,Albemarle County,VA,NA,33.14840499306519,NA
22903,Charlottesville city,VA,NA,NA,19.17808219178082
22960,Orange County,VA,NA,NA,53.42465753424658
23060,Henrico County,VA,48.34123222748815,NA,NA
23222,Richmond city,VA,NA,19.00138696255201,NA
23223,Henrico County,VA,4.739336492890995,NA,NA
23234,Chesterfield County,VA,NA,NA,32.534246575342465
23235,Chesterfield County,VA,NA,72.81553398058253,NA
23464,Virginia Beach city,VA,69.19431279620854,NA,NA
23504,Norfolk city,VA,NA,28.155339805825243,NA
23505,Norfolk city,VA,NA,NA,31.84931506849315
23509,Norfolk city,VA,NA,65.60332871012483,NA
23970,Mecklenburg County,VA,66.35071090047393,NA,NA
24019,Roanoke County,VA,86.25592417061611,NA,NA
24151,Franklin County,VA,NA,43.828016643550626,NA
24273,Norton city,VA,76.77725118483413,NA,NA
24504,Lynchburg city,VA,NA,NA,63.35616438356164
24592,Halifax County,VA,NA,29.958391123439664,NA
98003,King County,WA,NA,29.542302357836338,NA
98023,King County,WA,11.848341232227488,NA,NA
98102,King County,WA,45.497630331753555,NA,NA
98104,King County,WA,NA,85.99167822468793,NA
98109,King County,WA,NA,NA,73.28767123287672
98119,King County,WA,NA,83.77253814147018,NA
98122,King County,WA,32.70142180094787,NA,NA
98125,King County,WA,NA,NA,60.95890410958904
98312,Kitsap County,WA,NA,74.61858529819695,NA
98337,Kitsap County,WA,NA,87.51733703190014,NA
98367,Kitsap County,WA,NA,47.01803051317614,NA
98390,Pierce County,WA,NA,67.26768377253815,NA
98604,Clark County,WA,56.39810426540285,NA,NA
98664,Clark County,WA,NA,74.75728155339806,NA
98802,Douglas County,WA,NA,49.237170596393895,NA
98901,Yakima County,WA,NA,88.76560332871013,NA
99202,Spokane County,WA,NA,NA,82.1917808219178
99336,Benton County,WA,NA,39.389736477115115,NA
99354,Benton County,WA,30.33175355450237,NA,NA
20001,District of Columbia,DC,NA,22.74618585298197,NA
20002,District of Columbia,DC,NA,NA,51.02739726027398
20011,District of Columbia,DC,NA,9.43134535367545,68.15068493150685
20032,District of Columbia,DC,NA,4.854368932038835,NA
25053,Boone County,WV,NA,NA,81.16438356164383
25701,Cabell County,WV,NA,NA,42.12328767123288
25901,Fayette County,WV,NA,44.521497919556175,NA
26003,Ohio County,WV,NA,5.409153952843273,18.493150684931507
26101,Wood County,WV,NA,4.2995839112343965,NA
26301,Harrison County,WV,NA,48.12760055478502,NA
26426,Harrison County,WV,NA,NA,85.95890410958904
53094,Jefferson County,WI,NA,76.97642163661581,NA
53186,Waukesha County,WI,NA,28.84882108183079,NA
53188,Waukesha County,WI,NA,25.52011095700416,NA
53210,Milwaukee County,WI,NA,31.484049930651874,NA
53213,Milwaukee County,WI,NA,48.40499306518724,NA
53215,Milwaukee County,WI,NA,24.826629680998614,NA
53216,Milwaukee County,WI,NA,6.38002773925104,NA
53218,Milwaukee County,WI,NA,7.628294036061026,NA
53223,Milwaukee County,WI,NA,16.643550624133148,NA
53403,Racine County,WI,NA,NA,91.43835616438356
53545,Rock County,WI,NA,63.10679611650486,NA
53551,Jefferson County,WI,NA,93.06518723994452,NA
53704,Dane County,WI,NA,11.095700416088766,NA
53717,Dane County,WI,NA,78.77947295423023,NA
53934,Adams County,WI,98.10426540284361,NA,NA
53948,Juneau County,WI,NA,NA,57.1917808219178
54220,Manitowoc County,WI,NA,6.51872399445215,NA
54241,Manitowoc County,WI,NA,78.08599167822469,NA
54449,Wood County,WI,NA,NA,98.63013698630137
54601,La Crosse County,WI,31.27962085308057,NA,30.47945205479452
54751,Dunn County,WI,NA,34.674063800277395,NA
54806,Ashland County,WI,NA,67.54507628294036,NA
54880,Douglas County,WI,NA,15.672676837725383,NA
54902,Winnebago County,WI,NA,52.1497919556172,NA
