ZipCode,county,state,Adult
35404,Tuscaloosa County,AL,59.14634146341463
35475,Tuscaloosa County,AL,48.78048780487805
99603,Kenai Peninsula Borough,AK,73.17073170731707
85382,Maricopa County,AZ,47.5609756097561
85546,Graham County,AZ,74.39024390243902
85749,Pima County,AZ,73.78048780487805
86001,Coconino County,AZ,76.82926829268293
72023,Lonoke County,AR,56.70731707317073
91706,Los Angeles County,CA,28.65853658536585
92075,San Diego County,CA,92.07317073170732
92404,San Bernardino County,CA,18.29268292682927
92832,Orange County,CA,55.487804878048784
94158,San Francisco County,CA,99.39024390243902
95322,Merced County,CA,90.85365853658537
95521,Humboldt County,CA,78.04878048780488
95758,Sacramento County,CA,52.4390243902439
80016,Arapahoe County,CO,25
80538,Larimer County,CO,13.414634146341465
81401,Montrose County,CO,91.46341463414635
06010,Hartford County,CT,1.8292682926829267
06241,Windham County,CT,57.92682926829268
32220,Duval County,FL,62.19512195121951
33134,Miami-Dade County,FL,98.78048780487805
33774,Pinellas County,FL,67.6829268292683
30108,Carroll County,GA,81.09756097560977
30127,Cobb County,GA,20.73170731707317
83442,Jefferson County,ID,41.46341463414634
60103,DuPage County,IL,30.48780487804878
60402,Cook County,IL,12.195121951219512
60546,Cook County,IL,71.95121951219512
60564,Will County,IL,36.58536585365854
60625,Cook County,IL,11.585365853658537
61704,McLean County,IL,65.85365853658537
62859,Hamilton County,IL,84.7560975609756
46140,Hancock County,IN,72.5609756097561
46176,Shelby County,IN,17.682926829268293
46304,Porter County,IN,15.24390243902439
46311,Lake County,IN,32.31707317073171
46360,LaPorte County,IN,42.68292682926829
47201,Bartholomew County,IN,39.02439024390244
50158,Marshall County,IA,29.268292682926827
51301,Clay County,IA,51.829268292682926
52002,Dubuque County,IA,86.58536585365853
66061,Johnson County,KS,50
66215,Johnson County,KS,69.51219512195121
66762,Crawford County,KS,61.58536585365854
67107,McPherson County,KS,100
40006,Trimble County,KY,87.1951219512195
41102,Boyd County,KY,24.390243902439025
42003,McCracken County,KY,17.073170731707318
42066,Graves County,KY,25.609756097560975
42071,Calloway County,KY,40.853658536585364
42303,Daviess County,KY,10.975609756097562
70447,St. Tammany Parish,LA,56.09756097560976
71291,Ouachita Parish,LA,35.97560975609756
04401,Penobscot County,ME,2.4390243902439024
01027,Hampshire County,MA,38.41463414634146
01040,Hampden County,MA,0.6097560975609756
01107,Hampden County,MA,46.95121951219512
01201,Berkshire County,MA,0
01440,Worcester County,MA,12.804878048780488
01460,Middlesex County,MA,79.26829268292683
01610,Worcester County,MA,6.097560975609756
02379,Plymouth County,MA,54.87804878048781
02446,Norfolk County,MA,21.951219512195124
02474,Middlesex County,MA,15.853658536585366
02538,Plymouth County,MA,93.29268292682927
02746,Bristol County,MA,3.6585365853658534
48026,Macomb County,MI,35.36585365853659
48152,Wayne County,MI,32.926829268292686
48220,Oakland County,MI,45.1219512195122
48503,Genesee County,MI,20.121951219512198
49001,Kalamazoo County,MI,23.170731707317074
49047,Cass County,MI,50.609756097560975
49048,Kalamazoo County,MI,63.41463414634146
49057,Van Buren County,MI,76.21951219512195
49083,Kalamazoo County,MI,80.48780487804879
49508,Kent County,MI,7.926829268292683
55124,Dakota County,MN,37.19512195121951
55412,Hennepin County,MN,9.75609756097561
55445,Hennepin County,MN,75
56401,Crow Wing County,MN,10.365853658536585
39574,Harrison County,MS,50.609756097560975
63601,St. Francois County,MO,42.073170731707314
64058,Jackson County,MO,70.1219512195122
64060,Clay County,MO,44.51219512195122
89433,Washoe County,NV,37.80487804878049
03032,Rockingham County,NH,77.4390243902439
07031,Bergen County,NJ,60.97560975609756
07035,Morris County,NJ,81.70731707317073
07062,Union County,NJ,78.65853658536585
07410,Bergen County,NJ,48.170731707317074
07960,Morris County,NJ,21.341463414634145
08853,Somerset County,NJ,96.95121951219512
87106,Bernalillo County,NM,23.78048780487805
87108,Bernalillo County,NM,9.146341463414634
87121,Bernalillo County,NM,5.487804878048781
88101,Curry County,NM,34.756097560975604
10704,Westchester County,NY,88.41463414634147
12401,Ulster County,NY,53.04878048780488
13365,Herkimer County,NY,33.53658536585366
14219,Erie County,NY,49.390243902439025
14534,Monroe County,NY,8.536585365853659
14608,Monroe County,NY,14.634146341463413
14612,Monroe County,NY,3.048780487804878
27030,Surry County,NC,65.2439024390244
27371,Montgomery County,NC,94.51219512195121
27713,Durham County,NC,27.439024390243905
27864,Edgecombe County,NC,85.97560975609755
27948,Dare County,NC,57.3170731707317
28115,Iredell County,NC,53.65853658536586
28311,Cumberland County,NC,28.04878048780488
58201,Grand Forks County,ND,31.70731707317073
43204,Franklin County,OH,6.707317073170732
43311,Logan County,OH,31.097560975609756
44004,Ashtabula County,OH,4.2682926829268295
44111,Cuyahoga County,OH,1.2195121951219512
44223,Summit County,OH,46.34146341463415
44903,Richland County,OH,19.51219512195122
45177,Clinton County,OH,26.21951219512195
45219,Hamilton County,OH,75.60975609756098
45601,Ross County,OH,7.317073170731707
73018,Grady County,OK,43.292682926829265
97089,Clackamas County,OR,96.34146341463415
97301,Marion County,OR,14.02439024390244
97392,Marion County,OR,87.8048780487805
16226,Armstrong County,PA,93.90243902439023
16301,Venango County,PA,89.02439024390245
16504,Erie County,PA,89.63414634146342
16701,McKean County,PA,18.902439024390244
16735,McKean County,PA,68.29268292682927
17011,Cumberland County,PA,29.268292682926827
17025,Cumberland County,PA,60.36585365853659
17340,Adams County,PA,66.46341463414635
18657,Wyoming County,PA,58.536585365853654
19382,Chester County,PA,16.463414634146343
02806,Bristol County,RI,67.07317073170732
57108,Lincoln County,SD,82.3170731707317
37055,Dickson County,TN,26.82926829268293
37645,Hawkins County,TN,85.36585365853658
37801,Blount County,TN,43.90243902439025
75013,Collin County,TX,97.5609756097561
75402,Hunt County,TX,70.73170731707317
76201,Denton County,TX,92.6829268292683
76706,McLennan County,TX,34.146341463414636
77039,Harris County,TX,84.14634146341463
79765,Ector County,TX,64.63414634146342
84074,Tooele County,UT,4.878048780487805
84103,Salt Lake County,UT,59.756097560975604
84404,Weber County,UT,22.5609756097561
20152,Loudoun County,VA,71.34146341463415
20194,Fairfax County,VA,83.53658536585365
22932,Albemarle County,VA,79.8780487804878
24426,Alleghany County,VA,45.73170731707317
98119,King County,WA,95.1219512195122
98409,Pierce County,WA,54.268292682926834
98922,Kittitas County,WA,95.73170731707317
99109,Stevens County,WA,98.17073170731707
99163,Whitman County,WA,68.90243902439023
99336,Benton County,WA,40.243902439024396
99352,Benton County,WA,39.63414634146341
25271,Jackson County,WV,62.80487804878049
53094,Jefferson County,WI,90.2439024390244
53233,Milwaukee County,WI,82.92682926829268
53901,Columbia County,WI,64.02439024390245
