ZipCode,county,state,Adult,Retirement,Geriatric
35223,Jefferson County,AL,NA,80.93385214007782,NA
35234,Jefferson County,AL,95.05494505494505,NA,NA
35242,Shelby County,AL,NA,NA,34.519572953736656
35244,Jefferson County,AL,NA,NA,58.362989323843415
35405,Tuscaloosa County,AL,10.989010989010989,NA,NA
35549,Walker County,AL,93.95604395604396,NA,NA
35579,Walker County,AL,NA,96.88715953307393,NA
35592,Lamar County,AL,NA,88.32684824902724,NA
35802,Madison County,AL,NA,NA,19.9288256227758
36081,Pike County,AL,NA,NA,94.30604982206405
36207,Calhoun County,AL,64.28571428571429,NA,NA
36604,Mobile County,AL,NA,94.55252918287937,NA
36701,Dallas County,AL,35.16483516483517,NA,NA
36862,Chambers County,AL,NA,NA,92.17081850533808
85016,Maricopa County,AZ,NA,76.26459143968872,NA
85208,Maricopa County,AZ,NA,NA,25.26690391459075
85257,Maricopa County,AZ,NA,71.20622568093385,38.43416370106761
85304,Maricopa County,AZ,60.43956043956044,70.03891050583657,NA
85351,Maricopa County,AZ,NA,10.116731517509727,NA
85353,Maricopa County,AZ,NA,NA,75.44483985765125
85363,Maricopa County,AZ,NA,NA,81.49466192170819
85392,Maricopa County,AZ,NA,55.252918287937746,NA
85541,Gila County,AZ,NA,NA,26.334519572953734
85719,Pima County,AZ,NA,42.023346303501945,NA
85742,Pima County,AZ,NA,55.252918287937746,NA
86301,Yavapai County,AZ,NA,31.906614785992215,NA
86514,Apache County,AZ,96.7032967032967,NA,NA
71953,Polk County,AR,NA,57.58754863813229,NA
72150,Grant County,AR,NA,NA,88.96797153024912
72501,Independence County,AR,NA,NA,28.11387900355872
72576,Fulton County,AR,NA,NA,96.08540925266904
90003,Los Angeles County,CA,NA,42.80155642023346,NA
90004,Los Angeles County,CA,53.84615384615385,NA,NA
90006,Los Angeles County,CA,NA,64.59143968871595,NA
90014,Los Angeles County,CA,91.20879120879121,NA,NA
90065,Los Angeles County,CA,NA,NA,54.804270462633454
90254,Los Angeles County,CA,NA,NA,88.25622775800713
90274,Los Angeles County,CA,NA,NA,41.637010676156585
90640,Los Angeles County,CA,72.52747252747253,NA,NA
90805,Los Angeles County,CA,NA,NA,91.81494661921708
91201,Los Angeles County,CA,NA,NA,61.92170818505338
91206,Los Angeles County,CA,NA,NA,40.569395017793596
91208,Los Angeles County,CA,NA,76.65369649805449,NA
91214,Los Angeles County,CA,NA,NA,46.263345195729535
91342,Los Angeles County,CA,28.57142857142857,NA,NA
91361,Ventura County,CA,92.85714285714286,NA,NA
91601,Los Angeles County,CA,NA,70.8171206225681,NA
91605,Los Angeles County,CA,NA,NA,55.871886120996436
91702,Los Angeles County,CA,NA,79.76653696498055,NA
91710,San Bernardino County,CA,43.40659340659341,NA,NA
91732,Los Angeles County,CA,48.9010989010989,NA,NA
91741,Los Angeles County,CA,NA,84.43579766536965,NA
91744,Los Angeles County,CA,25.82417582417583,NA,NA
91763,San Bernardino County,CA,NA,77.82101167315176,NA
91765,Los Angeles County,CA,NA,59.92217898832685,NA
91766,Los Angeles County,CA,NA,50.97276264591439,NA
91770,Los Angeles County,CA,NA,47.85992217898833,14.94661921708185
91775,Los Angeles County,CA,NA,NA,76.15658362989323
91776,Los Angeles County,CA,NA,66.9260700389105,53.736654804270465
92007,San Diego County,CA,93.4065934065934,NA,NA
92021,San Diego County,CA,21.978021978021978,NA,NA
92082,San Diego County,CA,NA,NA,72.59786476868328
92277,San Bernardino County,CA,NA,66.14785992217898,NA
92308,San Bernardino County,CA,NA,NA,39.8576512455516
92345,San Bernardino County,CA,NA,NA,24.199288256227756
92376,San Bernardino County,CA,12.637362637362637,NA,NA
92503,Riverside County,CA,NA,22.56809338521401,NA
92504,Riverside County,CA,NA,59.143968871595334,NA
92543,Riverside County,CA,NA,NA,50.88967971530249
92662,Orange County,CA,NA,NA,98.22064056939502
93265,Tulare County,CA,NA,NA,99.644128113879
93280,Kern County,CA,94.5054945054945,NA,NA
93306,Kern County,CA,29.120879120879124,NA,NA
93309,Kern County,CA,37.91208791208791,NA,NA
93314,Kern County,CA,85.16483516483517,NA,NA
93534,Los Angeles County,CA,42.30769230769231,NA,NA
93535,Los Angeles County,CA,14.285714285714285,NA,NA
93657,Fresno County,CA,NA,48.249027237354085,NA
93706,Fresno County,CA,30.76923076923077,NA,NA
93720,Fresno County,CA,NA,26.848249027237355,NA
93722,Fresno County,CA,13.736263736263737,NA,NA
93940,Monterey County,CA,NA,29.961089494163424,NA
94024,Santa Clara County,CA,NA,75.87548638132296,NA
94066,San Mateo County,CA,NA,11.284046692607005,NA
94070,San Mateo County,CA,NA,NA,57.29537366548043
94608,Alameda County,CA,NA,56.42023346303502,NA
95203,San Joaquin County,CA,NA,NA,95.01779359430606
95210,San Joaquin County,CA,46.7032967032967,NA,NA
95348,Merced County,CA,NA,NA,85.76512455516014
95457,Lake County,CA,NA,NA,88.61209964412812
95650,Placer County,CA,NA,84.8249027237354,NA
95661,Placer County,CA,NA,59.53307392996109,NA
95765,Placer County,CA,79.12087912087912,NA,NA
95817,Sacramento County,CA,84.06593406593407,NA,NA
95901,Yuba County,CA,31.318681318681318,NA,NA
96001,Shasta County,CA,NA,82.49027237354085,NA
96080,Tehama County,CA,51.64835164835166,NA,NA
80106,El Paso County,CO,NA,99.61089494163424,NA
80111,Arapahoe County,CO,75.27472527472527,NA,NA
80118,Douglas County,CO,NA,96.49805447470817,NA
80127,Jefferson County,CO,NA,54.474708171206224,NA
80751,Logan County,CO,NA,67.70428015564202,NA
81006,Pueblo County,CO,78.57142857142857,NA,NA
81501,Mesa County,CO,79.67032967032966,NA,NA
06096,Hartford County,CT,NA,85.60311284046692,NA
06108,Hartford County,CT,NA,62.64591439688716,NA
06450,New Haven County,CT,NA,NA,24.555160142348754
06706,New Haven County,CT,NA,68.48249027237354,NA
19701,New Castle County,DE,NA,17.120622568093385,NA
19804,New Castle County,DE,35.714285714285715,NA,NA
19805,New Castle County,DE,64.83516483516483,NA,NA
19904,Kent County,DE,19.230769230769234,NA,NA
19945,Sussex County,DE,NA,98.0544747081712,NA
19958,Sussex County,DE,NA,NA,83.27402135231317
19966,Sussex County,DE,31.868131868131865,NA,NA
19970,Sussex County,DE,NA,NA,95.72953736654804
19971,Sussex County,DE,NA,NA,98.93238434163702
19973,Sussex County,DE,NA,NA,70.46263345195729
32034,Nassau County,FL,NA,9.33852140077821,NA
32043,Clay County,FL,NA,NA,50.5338078291815
32055,Columbia County,FL,NA,NA,64.41281138790036
32080,St. Johns County,FL,NA,23.73540856031128,NA
32084,St. Johns County,FL,36.26373626373626,NA,NA
32092,St. Johns County,FL,NA,44.74708171206226,NA
32177,Putnam County,FL,NA,64.2023346303502,NA
32189,Putnam County,FL,NA,91.05058365758755,NA
32207,Duval County,FL,26.373626373626376,NA,NA
32210,Duval County,FL,3.296703296703297,NA,NA
32226,Duval County,FL,52.74725274725275,NA,NA
32246,Duval County,FL,22.52747252747253,NA,NA
32303,Leon County,FL,NA,50.583657587548636,NA
32312,Leon County,FL,NA,63.035019455252915,NA
32405,Bay County,FL,NA,32.68482490272373,NA
32504,Escambia County,FL,NA,NA,20.640569395017792
32505,Escambia County,FL,26.923076923076923,NA,NA
32506,Escambia County,FL,19.78021978021978,NA,NA
32541,Okaloosa County,FL,NA,NA,27.046263345195733
32570,Santa Rosa County,FL,NA,33.07392996108949,NA
32714,Seminole County,FL,NA,69.26070038910505,NA
32738,Volusia County,FL,NA,NA,48.04270462633452
32796,Brevard County,FL,NA,NA,33.45195729537366
32812,Orange County,FL,NA,NA,22.419928825622776
32839,Orange County,FL,NA,43.57976653696498,NA
33012,Miami-Dade County,FL,NA,NA,4.98220640569395
33025,Broward County,FL,NA,NA,37.36654804270463
33026,Broward County,FL,NA,NA,45.55160142348754
33042,Monroe County,FL,97.25274725274726,NA,NA
33125,Miami-Dade County,FL,NA,NA,10.676156583629894
33143,Miami-Dade County,FL,NA,73.54085603112841,NA
33157,Miami-Dade County,FL,NA,21.40077821011673,20.99644128113879
33165,Miami-Dade County,FL,NA,NA,3.9145907473309607
33166,Miami-Dade County,FL,NA,58.754863813229576,NA
33177,Miami-Dade County,FL,NA,54.86381322957199,NA
33182,Miami-Dade County,FL,NA,NA,80.0711743772242
33185,Miami-Dade County,FL,NA,NA,70.8185053380783
33308,Broward County,FL,NA,82.87937743190662,NA
33319,Broward County,FL,NA,NA,17.437722419928825
33351,Broward County,FL,77.47252747252747,NA,NA
33415,Palm Beach County,FL,50.54945054945055,NA,NA
33496,Palm Beach County,FL,NA,45.13618677042802,NA
33542,Pasco County,FL,62.08791208791209,NA,NA
33708,Pinellas County,FL,NA,68.09338521400778,NA
33713,Pinellas County,FL,NA,73.15175097276264,NA
33765,Pinellas County,FL,NA,NA,80.42704626334519
33773,Pinellas County,FL,NA,77.04280155642024,NA
33813,Polk County,FL,NA,53.30739299610895,NA
33852,Highlands County,FL,NA,NA,7.11743772241993
33908,Lee County,FL,NA,NA,0.7117437722419928
33912,Lee County,FL,NA,49.416342412451364,NA
33919,Lee County,FL,NA,14.785992217898833,NA
33990,Lee County,FL,87.91208791208791,NA,NA
34209,Manatee County,FL,NA,NA,59.430604982206404
34221,Manatee County,FL,NA,28.01556420233463,NA
34228,Sarasota County,FL,NA,NA,38.79003558718861
34241,Sarasota County,FL,NA,NA,47.686832740213525
34293,Sarasota County,FL,NA,6.614785992217899,NA
34601,Hernando County,FL,56.59340659340659,NA,NA
34653,Pasco County,FL,NA,36.186770428015564,NA
34655,Pasco County,FL,NA,26.459143968871597,NA
34689,Pinellas County,FL,NA,NA,19.572953736654807
34748,Lake County,FL,NA,9.72762645914397,NA
34949,St. Lucie County,FL,NA,83.26848249027238,NA
30040,Forsyth County,GA,NA,19.06614785992218,NA
30078,Gwinnett County,GA,67.58241758241759,NA,NA
30134,Douglas County,GA,NA,35.40856031128405,NA
30157,Paulding County,GA,34.61538461538461,NA,NA
30180,Carroll County,GA,NA,NA,70.1067615658363
30224,Spalding County,GA,NA,56.03112840466926,NA
30276,Coweta County,GA,76.92307692307693,NA,NA
30317,DeKalb County,GA,NA,NA,90.0355871886121
30523,Habersham County,GA,NA,NA,61.20996441281139
30529,Jackson County,GA,NA,NA,74.73309608540926
30656,Walton County,GA,71.42857142857143,NA,NA
30904,Richmond County,GA,NA,18.67704280155642,NA
31021,Laurens County,GA,NA,NA,49.8220640569395
31061,Baldwin County,GA,NA,29.571984435797667,NA
31419,Chatham County,GA,NA,37.7431906614786,NA
31525,Glynn County,GA,57.692307692307686,NA,NA
31539,Jeff Davis County,GA,NA,74.70817120622569,NA
31750,Ben Hill County,GA,NA,NA,54.804270462633454
31774,Irwin County,GA,86.26373626373626,NA,NA
31907,Muscogee County,GA,NA,3.11284046692607,NA
96701,Honolulu County,HI,NA,NA,10.320284697508896
83617,Gem County,ID,NA,NA,30.2491103202847
83651,Canyon County,ID,NA,NA,13.87900355871886
83704,Ada County,ID,88.46153846153845,NA,NA
83709,Ada County,ID,21.428571428571427,NA,NA
60005,Cook County,IL,NA,NA,27.402135231316727
60025,Cook County,IL,NA,NA,5.338078291814947
60044,Lake County,IL,NA,NA,61.92170818505338
60046,Lake County,IL,NA,NA,42.704626334519574
60056,Cook County,IL,NA,NA,6.761565836298933
60070,Cook County,IL,NA,NA,60.14234875444839
60098,McHenry County,IL,NA,NA,13.167259786476867
60115,DeKalb County,IL,78.02197802197803,NA,NA
60123,Kane County,IL,NA,NA,18.86120996441281
60143,DuPage County,IL,NA,78.21011673151752,NA
60160,Cook County,IL,58.791208791208796,NA,NA
60192,Cook County,IL,NA,NA,87.18861209964413
60426,Cook County,IL,NA,25.291828793774318,NA
60429,Cook County,IL,74.72527472527473,NA,NA
60438,Cook County,IL,NA,NA,67.97153024911033
60467,Cook County,IL,NA,NA,15.302491103202847
60481,Will County,IL,NA,60.70038910505836,NA
60564,Will County,IL,NA,26.07003891050584,NA
60612,Cook County,IL,57.14285714285714,NA,NA
60617,Cook County,IL,NA,NA,2.135231316725979
60643,Cook County,IL,NA,NA,7.473309608540925
60646,Cook County,IL,NA,49.80544747081712,NA
60707,Cook County,IL,28.021978021978022,NA,NA
60942,Vermilion County,IL,NA,65.75875486381322,NA
60954,Kankakee County,IL,NA,89.49416342412452,NA
61270,Whiteside County,IL,NA,NA,62.989323843416365
61354,LaSalle County,IL,NA,57.19844357976653,NA
61821,Champaign County,IL,49.45054945054945,NA,NA
61832,Vermilion County,IL,15.934065934065933,NA,NA
61938,Coles County,IL,NA,42.4124513618677,NA
62002,Madison County,IL,NA,NA,14.23487544483986
62204,St. Clair County,IL,85.71428571428571,NA,NA
62260,St. Clair County,IL,NA,92.99610894941634,NA
62450,Richland County,IL,NA,NA,39.50177935943061
62526,Macon County,IL,NA,7.003891050583658,NA
46016,Madison County,IN,54.395604395604394,NA,NA
46017,Madison County,IN,NA,81.71206225680933,NA
46052,Boone County,IN,50,NA,NA
46140,Hancock County,IN,69.23076923076923,NA,NA
46142,Johnson County,IN,NA,13.229571984435799,NA
46176,Shelby County,IN,NA,NA,34.16370106761566
46205,Marion County,IN,42.857142857142854,NA,NA
46226,Marion County,IN,NA,15.56420233463035,NA
46307,Lake County,IN,NA,NA,19.217081850533805
46310,Jasper County,IN,NA,NA,77.93594306049823
46324,Lake County,IN,NA,27.237354085603112,NA
46360,LaPorte County,IN,5.4945054945054945,NA,NA
46368,Porter County,IN,NA,NA,13.523131672597867
46408,Lake County,IN,NA,51.75097276264592,NA
46580,Kosciusko County,IN,NA,57.97665369649806,NA
46706,DeKalb County,IN,NA,NA,31.672597864768683
46825,Allen County,IN,45.05494505494506,NA,NA
46901,Howard County,IN,36.81318681318682,52.52918287937744,55.51601423487544
46902,Howard County,IN,NA,4.280155642023346,32.028469750889684
46936,Howard County,IN,NA,86.7704280155642,NA
46970,Miami County,IN,NA,22.957198443579767,29.8932384341637
47172,Clark County,IN,NA,NA,90.74733096085409
47401,Monroe County,IN,71.97802197802197,NA,NA
47403,Monroe County,IN,NA,60.311284046692606,NA
47710,Vanderburgh County,IN,NA,NA,43.41637010676156
47803,Vigo County,IN,NA,NA,72.24199288256227
47872,Parke County,IN,NA,NA,74.02135231316726
47906,Tippecanoe County,IN,NA,NA,30.604982206405694
50327,Polk County,IA,NA,95.3307392996109,NA
50428,Cerro Gordo County,IA,NA,52.14007782101168,NA
50613,Black Hawk County,IA,NA,NA,4.6263345195729535
52241,Johnson County,IA,NA,NA,83.62989323843416
52601,Des Moines County,IA,NA,93.77431906614785,NA
52641,Henry County,IA,NA,94.94163424124513,NA
66061,Johnson County,KS,27.472527472527474,78.59922178988327,NA
66071,Miami County,KS,NA,NA,75.08896797153025
67156,Cowley County,KS,NA,NA,45.90747330960854
40212,Jefferson County,KY,33.51648351648351,NA,NA
40216,Jefferson County,KY,NA,12.840466926070038,NA
40383,Woodford County,KY,NA,46.69260700389105,NA
41051,Kenton County,KY,NA,NA,49.11032028469751
41240,Johnson County,KY,NA,NA,98.57651245551602
41301,Wolfe County,KY,NA,89.10505836575877,NA
41465,Magoffin County,KY,NA,NA,95.37366548042705
41653,Floyd County,KY,NA,NA,35.231316725978644
41858,Letcher County,KY,NA,65.36964980544747,NA
42101,Warren County,KY,NA,15.953307392996107,NA
42653,McCreary County,KY,NA,NA,99.28825622775801
70001,Jefferson Parish,LA,NA,NA,37.72241992882562
70005,Jefferson Parish,LA,NA,NA,33.80782918149466
70301,Lafourche Parish,LA,NA,7.782101167315175,15.658362989323843
70360,Terrebonne Parish,LA,NA,NA,73.30960854092527
70363,Terrebonne Parish,LA,NA,NA,36.654804270462634
70364,Terrebonne Parish,LA,NA,NA,46.263345195729535
70374,Lafourche Parish,LA,44.505494505494504,NA,NA
70390,Assumption Parish,LA,NA,NA,97.50889679715303
70401,Tangipahoa Parish,LA,NA,NA,59.07473309608541
70422,Tangipahoa Parish,LA,NA,NA,73.66548042704626
70433,St. Tammany Parish,LA,NA,NA,5.6939501779359425
70444,Tangipahoa Parish,LA,NA,NA,94.66192170818505
70454,Tangipahoa Parish,LA,NA,NA,29.181494661921707
70471,St. Tammany Parish,LA,NA,NA,51.60142348754449
70510,Vermilion Parish,LA,16.483516483516482,NA,NA
70520,Lafayette Parish,LA,63.73626373626373,NA,NA
70526,Acadia Parish,LA,NA,72.37354085603113,NA
70601,Calcasieu Parish,LA,NA,7.392996108949417,NA
71112,Bossier Parish,LA,NA,64.98054474708171,NA
71129,Caddo Parish,LA,NA,71.59533073929961,NA
71241,Union Parish,LA,NA,NA,83.98576512455516
71270,Lincoln Parish,LA,NA,NA,53.380782918149464
04619,Washington County,ME,NA,NA,79.35943060498221
04769,Aroostook County,ME,NA,48.63813229571984,NA
20653,St. Mary's County,MD,NA,NA,91.45907473309609
20770,Prince George's County,MD,82.96703296703298,NA,NA
20815,Montgomery County,MD,86.81318681318682,NA,NA
20854,Montgomery County,MD,NA,NA,31.316725978647685
20878,Montgomery County,MD,NA,NA,71.17437722419929
20886,Montgomery County,MD,80.76923076923077,NA,NA
20902,Montgomery County,MD,NA,NA,68.32740213523132
21015,Harford County,MD,NA,NA,51.245551601423486
21030,Baltimore County,MD,75.82417582417582,NA,NA
21050,Harford County,MD,NA,NA,66.19217081850533
21061,Anne Arundel County,MD,NA,NA,22.064056939501782
21093,Baltimore County,MD,51.098901098901095,89.88326848249028,8.540925266903916
21133,Baltimore County,MD,NA,NA,38.07829181494662
21206,Baltimore city,MD,NA,12.062256809338521,NA
21208,Baltimore County,MD,NA,NA,12.811387900355871
21209,Baltimore County,MD,69.78021978021978,NA,NA
21213,Baltimore city,MD,NA,14.396887159533073,NA
21215,Baltimore city,MD,9.340659340659341,NA,NA
21218,Baltimore city,MD,14.835164835164836,NA,NA
21220,Baltimore County,MD,NA,34.63035019455253,NA
21222,Baltimore County,MD,4.945054945054945,1.9455252918287937,NA
21227,Baltimore County,MD,61.53846153846154,NA,NA
21228,Baltimore County,MD,NA,NA,12.099644128113878
21230,Baltimore city,MD,40.65934065934066,NA,NA
21236,Baltimore County,MD,48.35164835164835,NA,NA
21613,Dorchester County,MD,NA,87.15953307392996,86.47686832740213
21632,Caroline County,MD,NA,95.71984435797665,NA
21703,Frederick County,MD,68.13186813186813,NA,NA
21740,Washington County,MD,NA,67.31517509727627,NA
21742,Washington County,MD,NA,NA,35.94306049822064
21774,Frederick County,MD,92.3076923076923,NA,NA
21921,Cecil County,MD,NA,NA,57.65124555160143
01226,Berkshire County,MA,82.41758241758241,NA,NA
01760,Middlesex County,MA,NA,NA,8.896797153024911
01960,Essex County,MA,NA,NA,3.202846975088968
02120,Suffolk County,MA,6.043956043956044,NA,NA
02135,Suffolk County,MA,NA,NA,1.0676156583629894
02639,Barnstable County,MA,NA,NA,71.88612099644128
02653,Barnstable County,MA,NA,NA,48.39857651245551
48015,Macomb County,MI,NA,58.36575875486382,NA
48042,Macomb County,MI,NA,28.404669260700388,NA
48044,Macomb County,MI,NA,100,21.70818505338078
48060,St. Clair County,MI,1.6483516483516485,NA,NA
48088,Macomb County,MI,NA,24.5136186770428,NA
48135,Wayne County,MI,NA,NA,17.793594306049823
48152,Wayne County,MI,NA,NA,9.252669039145907
48154,Wayne County,MI,NA,NA,29.537366548042705
48167,Oakland County,MI,NA,NA,12.455516014234876
48168,Wayne County,MI,NA,NA,28.46975088967972
48178,Oakland County,MI,39.56043956043956,NA,NA
48184,Wayne County,MI,NA,NA,36.29893238434164
48185,Wayne County,MI,6.593406593406594,NA,NA
48186,Wayne County,MI,8.241758241758241,NA,NA
48187,Wayne County,MI,NA,NA,7.829181494661921
48188,Wayne County,MI,17.582417582417584,NA,NA
48212,Wayne County,MI,NA,NA,67.61565836298932
48220,Oakland County,MI,NA,NA,50.177935943060504
48238,Wayne County,MI,NA,16.731517509727624,NA
48307,Oakland County,MI,NA,21.011673151750973,NA
48314,Macomb County,MI,NA,NA,22.77580071174377
48317,Macomb County,MI,30.21978021978022,NA,NA
48340,Oakland County,MI,15.384615384615385,NA,NA
48503,Genesee County,MI,NA,19.45525291828794,NA
48601,Saginaw County,MI,NA,3.501945525291829,NA
48629,Roscommon County,MI,NA,74.31906614785993,86.83274021352312
48827,Eaton County,MI,NA,NA,52.66903914590747
48838,Montcalm County,MI,NA,33.85214007782101,NA
48858,Isabella County,MI,8.791208791208792,NA,NA
48911,Ingham County,MI,NA,15.17509727626459,NA
48917,Eaton County,MI,NA,NA,41.281138790035584
49045,Van Buren County,MI,81.86813186813187,NA,NA
49055,Van Buren County,MI,NA,NA,93.95017793594306
49230,Jackson County,MI,NA,52.918287937743195,NA
49423,Ottawa County,MI,17.032967032967033,NA,NA
49424,Ottawa County,MI,20.87912087912088,NA,NA
49735,Otsego County,MI,NA,NA,23.843416370106763
55042,Washington County,MN,100,NA,NA
55117,Ramsey County,MN,23.626373626373624,NA,NA
55378,Scott County,MN,62.637362637362635,NA,NA
55912,Mower County,MN,NA,NA,0.3558718861209964
56085,Brown County,MN,NA,NA,97.86476868327402
56265,Chippewa County,MN,NA,NA,34.87544483985765
56353,Mille Lacs County,MN,NA,87.93774319066148,NA
38732,Bolivar County,MS,NA,43.190661478599225,NA
65049,Camden County,MO,NA,NA,76.51245551601423
65270,Randolph County,MO,NA,NA,62.63345195729537
65355,Benton County,MO,59.89010989010989,NA,NA
65705,Lawrence County,MO,NA,NA,92.88256227758008
59330,Dawson County,MT,90.65934065934066,NA,NA
59635,Lewis and Clark County,MT,NA,NA,93.23843416370107
68516,Lancaster County,NE,NA,NA,43.77224199288256
89106,Clark County,NV,NA,73.92996108949417,NA
89122,Clark County,NV,NA,NA,47.330960854092524
89431,Washoe County,NV,NA,NA,63.345195729537366
89701,Carson City,NV,NA,47.47081712062256,NA
03087,Rockingham County,NH,NA,NA,63.70106761565836
03254,Carroll County,NH,NA,88.715953307393,NA
07002,Hudson County,NJ,NA,1.556420233463035,11.032028469750891
07008,Middlesex County,NJ,NA,NA,45.195729537366546
07009,Essex County,NJ,NA,NA,52.313167259786475
07094,Hudson County,NJ,NA,NA,61.56583629893239
07107,Essex County,NJ,NA,31.517509727626457,NA
07109,Essex County,NJ,NA,NA,26.690391459074732
07110,Essex County,NJ,NA,NA,56.58362989323843
07470,Passaic County,NJ,24.175824175824175,NA,NA
07727,Monmouth County,NJ,NA,87.54863813229572,NA
08204,Cape May County,NJ,NA,22.17898832684825,NA
08205,Atlantic County,NJ,NA,21.40077821011673,NA
08234,Atlantic County,NJ,NA,14.007782101167315,NA
08750,Monmouth County,NJ,NA,NA,100
08833,Hunterdon County,NJ,NA,90.6614785992218,NA
87108,Bernalillo County,NM,NA,5.447470817120623,NA
87111,Bernalillo County,NM,2.197802197802198,47.081712062256805,NA
87114,Bernalillo County,NM,10.43956043956044,NA,NA
87120,Bernalillo County,NM,NA,NA,60.4982206405694
87122,Bernalillo County,NM,NA,NA,87.90035587188612
88240,Lea County,NM,NA,17.509727626459142,NA
88310,Otero County,NM,NA,4.669260700389105,6.405693950177936
10029,New York County,NY,0,NA,NA
10460,Bronx County,NY,NA,0.38910505836575876,NA
10589,Westchester County,NY,NA,NA,46.97508896797153
11004,Queens County,NY,NA,92.60700389105058,NA
11215,Kings County,NY,NA,NA,16.72597864768683
11231,Kings County,NY,NA,NA,54.092526690391466
11372,Queens County,NY,NA,NA,9.608540925266903
11418,Queens County,NY,NA,53.69649805447471,41.99288256227758
11570,Nassau County,NY,NA,NA,40.213523131672595
11776,Suffolk County,NY,NA,61.478599221789885,NA
12010,Montgomery County,NY,NA,NA,6.049822064056939
12020,Saratoga County,NY,NA,NA,35.587188612099645
12072,Montgomery County,NY,98.9010989010989,NA,NA
13126,Oswego County,NY,NA,NA,65.83629893238434
13901,Broome County,NY,2.7472527472527473,NA,NA
14043,Erie County,NY,NA,30.35019455252918,NA
14094,Niagara County,NY,NA,2.3346303501945527,NA
14174,Niagara County,NY,NA,80.54474708171206,NA
14211,Erie County,NY,11.538461538461538,NA,NA
14218,Erie County,NY,NA,45.525291828793776,NA
14227,Erie County,NY,NA,NA,23.487544483985765
14437,Livingston County,NY,NA,NA,66.54804270462633
14472,Monroe County,NY,NA,30.739299610894943,NA
14513,Wayne County,NY,NA,2.7237354085603114,NA
14589,Wayne County,NY,NA,NA,81.85053380782918
14618,Monroe County,NY,NA,NA,14.23487544483986
14623,Monroe County,NY,NA,20.622568093385212,NA
14760,Cattaraugus County,NY,NA,50.19455252918288,NA
14830,Steuben County,NY,NA,33.46303501945525,42.34875444839858
27295,Davidson County,NC,NA,NA,2.8469750889679712
27349,Alamance County,NC,NA,NA,92.52669039145907
27405,Guilford County,NC,NA,13.618677042801556,21.352313167259787
27406,Guilford County,NC,47.8021978021978,NA,NA
27948,Dare County,NC,NA,75.4863813229572,NA
28269,Mecklenburg County,NC,18.681318681318682,NA,NA
28337,Bladen County,NC,73.07692307692307,NA,NA
28382,Sampson County,NC,NA,85.21400778210116,NA
28409,New Hanover County,NC,NA,16.342412451361866,NA
28630,Caldwell County,NC,39.010989010989015,NA,NA
28711,Buncombe County,NC,NA,NA,69.3950177935943
28792,Henderson County,NC,NA,10.505836575875486,NA
58504,Burleigh County,ND,NA,NA,18.505338078291814
43015,Delaware County,OH,20.32967032967033,NA,NA
43055,Licking County,OH,NA,0,NA
43146,Pickaway County,OH,NA,97.27626459143968,NA
43331,Logan County,OH,NA,94.16342412451361,NA
43412,Lucas County,OH,97.8021978021978,NA,NA
43512,Defiance County,OH,3.8461538461538463,5.058365758754864,NA
43554,Williams County,OH,99.45054945054946,NA,NA
43964,Jefferson County,OH,NA,35.019455252918284,NA
44004,Ashtabula County,OH,63.18681318681318,NA,NA
44022,Cuyahoga County,OH,NA,28.793774319066145,NA
44035,Lorain County,OH,NA,1.1673151750972763,0
44055,Lorain County,OH,NA,NA,77.58007117437722
44104,Cuyahoga County,OH,4.395604395604396,NA,NA
44203,Summit County,OH,7.6923076923076925,NA,NA
44236,Summit County,OH,60.98901098901099,NA,NA
44240,Portage County,OH,NA,61.08949416342413,NA
44266,Portage County,OH,13.186813186813188,NA,NA
44311,Summit County,OH,NA,86.38132295719845,NA
44314,Summit County,OH,NA,19.844357976653697,NA
44320,Summit County,OH,24.725274725274726,NA,NA
44410,Trumbull County,OH,43.956043956043956,NA,NA
44483,Trumbull County,OH,22.52747252747253,NA,NA
44805,Ashland County,OH,18.13186813186813,NA,NA
45011,Butler County,OH,1.098901098901099,NA,NA
45015,Butler County,OH,NA,71.98443579766537,NA
45150,Clermont County,OH,NA,32.295719844357976,NA
45205,Hamilton County,OH,NA,NA,87.54448398576513
45322,Montgomery County,OH,47.25274725274725,NA,NA
45373,Miami County,OH,NA,NA,33.096085409252666
45640,Jackson County,OH,NA,6.22568093385214,NA
45714,Washington County,OH,25.274725274725274,NA,NA
45750,Washington County,OH,NA,NA,1.7793594306049825
45760,Meigs County,OH,87.36263736263736,NA,NA
45801,Allen County,OH,NA,23.346303501945524,NA
45804,Allen County,OH,NA,24.90272373540856,NA
45879,Paulding County,OH,NA,78.98832684824903,NA
73034,Oklahoma County,OK,NA,NA,28.825622775800714
74014,Wagoner County,OK,NA,NA,48.754448398576514
74017,Rogers County,OK,52.197802197802204,NA,24.91103202846975
74104,Tulsa County,OK,89.01098901098901,NA,NA
74110,Tulsa County,OK,NA,81.32295719844358,NA
74112,Tulsa County,OK,NA,NA,66.90391459074732
74501,Pittsburg County,OK,NA,NA,32.38434163701068
74728,McCurtain County,OK,NA,NA,77.22419928825623
74745,McCurtain County,OK,70.87912087912088,NA,NA
74948,Sequoyah County,OK,70.32967032967034,NA,NA
97078,Washington County,OR,NA,NA,82.20640569395017
97113,Washington County,OR,NA,90.27237354085604,NA
97209,Multnomah County,OR,NA,NA,85.40925266903915
97224,Washington County,OR,59.34065934065934,NA,NA
97266,Multnomah County,OR,NA,NA,65.48042704626334
97386,Linn County,OR,NA,44.3579766536965,NA
97504,Jackson County,OR,NA,NA,25.97864768683274
15009,Beaver County,PA,NA,41.63424124513619,NA
15145,Allegheny County,PA,NA,84.04669260700389,NA
15317,Washington County,PA,NA,8.560311284046692,NA
15401,Fayette County,PA,9.89010989010989,NA,NA
15666,Westmoreland County,PA,NA,35.797665369649806,NA
15668,Westmoreland County,PA,NA,NA,30.96085409252669
15714,Cambria County,PA,NA,NA,85.05338078291815
15905,Cambria County,PA,NA,40.07782101167315,NA
16127,Mercer County,PA,NA,NA,58.718861209964416
16828,Centre County,PA,NA,NA,76.86832740213522
17043,Cumberland County,PA,NA,NA,97.15302491103202
17070,Cumberland County,PA,53.2967032967033,NA,NA
17325,Adams County,PA,NA,5.836575875486381,NA
17327,York County,PA,NA,97.66536964980544,NA
17340,Adams County,PA,NA,54.08560311284047,NA
17603,Lancaster County,PA,NA,8.171206225680933,NA
17960,Schuylkill County,PA,NA,92.21789883268482,NA
18018,Lehigh County,PA,NA,NA,9.9644128113879
18020,Northampton County,PA,NA,NA,23.131672597864767
18052,Lehigh County,PA,NA,38.13229571984436,NA
18103,Lehigh County,PA,32.967032967032964,NA,NA
18634,Luzerne County,PA,NA,46.30350194552529,NA
18643,Luzerne County,PA,NA,NA,49.11032028469751
18706,Luzerne County,PA,46.15384615384615,NA,NA
18951,Bucks County,PA,NA,NA,79.7153024911032
18966,Bucks County,PA,NA,NA,11.743772241992882
19031,Montgomery County,PA,NA,98.44357976653697,NA
19060,Delaware County,PA,NA,82.10116731517509,NA
19095,Montgomery County,PA,84.61538461538461,NA,NA
19120,Philadelphia County,PA,NA,NA,43.06049822064057
19124,Philadelphia County,PA,0.5494505494505495,NA,NA
19126,Philadelphia County,PA,NA,NA,84.34163701067615
19131,Philadelphia County,PA,7.142857142857142,NA,NA
19320,Chester County,PA,NA,12.45136186770428,NA
19380,Chester County,PA,NA,NA,4.270462633451958
19401,Montgomery County,PA,12.087912087912088,NA,NA
19460,Chester County,PA,NA,NA,20.284697508896798
19526,Berks County,PA,74.17582417582418,NA,NA
19602,Berks County,PA,NA,NA,68.68327402135232
02861,Providence County,RI,NA,31.1284046692607,NA
29020,Kershaw County,SC,NA,NA,55.871886120996436
29044,Richland County,SC,NA,NA,96.44128113879003
29206,Richland County,SC,NA,80.1556420233463,NA
29550,Darlington County,SC,NA,20.233463035019454,NA
29582,Horry County,SC,NA,NA,59.7864768683274
29591,Florence County,SC,NA,93.3852140077821,NA
29609,Greenville County,SC,NA,49.0272373540856,NA
29625,Anderson County,SC,38.46153846153847,NA,NA
29627,Anderson County,SC,65.38461538461539,NA,NA
29644,Greenville County,SC,NA,66.53696498054474,NA
29654,Anderson County,SC,NA,69.64980544747081,NA
29673,Greenville County,SC,NA,18.28793774319066,NA
29706,Chester County,SC,40.10989010989011,NA,NA
29709,Chesterfield County,SC,NA,96.10894941634241,NA
29803,Aiken County,SC,NA,8.949416342412452,NA
57006,Brookings County,SD,NA,45.91439688715953,NA
37036,Dickson County,TN,NA,98.83268482490273,NA
37087,Wilson County,TN,NA,25.680933852140075,NA
37146,Cheatham County,TN,95.6043956043956,NA,NA
37172,Robertson County,TN,NA,36.186770428015564,NA
37641,Greene County,TN,NA,63.81322957198443,NA
37659,Washington County,TN,41.75824175824176,NA,NA
37701,Blount County,TN,73.62637362637363,NA,NA
38002,Shelby County,TN,NA,NA,56.58362989323843
38017,Shelby County,TN,NA,NA,44.48398576512456
38117,Shelby County,TN,NA,NA,53.02491103202846
75062,Dallas County,TX,NA,36.964980544747085,NA
75149,Dallas County,TX,NA,68.8715953307393,NA
75238,Dallas County,TX,NA,91.43968871595331,NA
75652,Rusk County,TX,NA,NA,74.37722419928826
75773,Wood County,TX,NA,29.18287937743191,NA
76006,Tarrant County,TX,NA,NA,81.13879003558719
76017,Tarrant County,TX,NA,NA,32.74021352313167
76067,Palo Pinto County,TX,NA,62.2568093385214,NA
76354,Wichita County,TX,NA,NA,71.53024911032028
76901,Tom Green County,TX,NA,34.24124513618677,NA
76903,Tom Green County,TX,NA,56.42023346303502,NA
77007,Harris County,TX,58.24175824175825,NA,NA
77009,Harris County,TX,55.494505494505496,NA,NA
77019,Harris County,TX,NA,NA,84.69750889679716
77021,Harris County,TX,NA,NA,78.64768683274022
77053,Fort Bend County,TX,66.48351648351648,NA,NA
77055,Harris County,TX,NA,63.42412451361867,NA
77067,Harris County,TX,NA,83.65758754863813,NA
77071,Harris County,TX,NA,NA,65.12455516014235
77089,Harris County,TX,NA,37.35408560311284,NA
77090,Harris County,TX,NA,61.86770428015564,NA
77304,Montgomery County,TX,NA,NA,51.95729537366548
77320,Walker County,TX,NA,NA,68.68327402135232
77346,Harris County,TX,NA,38.91050583657588,NA
77379,Harris County,TX,NA,NA,11.387900355871885
77384,Montgomery County,TX,NA,91.82879377431907,NA
77429,Harris County,TX,NA,27.626459143968873,NA
77461,Fort Bend County,TX,NA,NA,90.39145907473309
77504,Harris County,TX,NA,NA,75.80071174377224
77515,Brazoria County,TX,NA,NA,37.01067615658363
77536,Harris County,TX,45.604395604395606,43.96887159533074,NA
77546,Galveston County,TX,NA,11.673151750972762,NA
77803,Brazos County,TX,34.065934065934066,NA,NA
77833,Washington County,TX,90.10989010989012,NA,NA
77995,Lavaca County,TX,NA,NA,58.00711743772242
78046,Webb County,TX,NA,NA,44.83985765124555
78516,Hidalgo County,TX,NA,NA,54.44839857651246
78589,Hidalgo County,TX,NA,NA,39.14590747330961
78611,Burnet County,TX,NA,NA,16.014234875444842
78624,Gillespie County,TX,81.31868131868131,NA,78.29181494661923
78748,Travis County,TX,NA,NA,69.7508896797153
78852,Maverick County,TX,NA,NA,18.14946619217082
79106,Potter County,TX,NA,NA,40.92526690391459
79707,Midland County,TX,NA,79.37743190661479,NA
84104,Salt Lake County,UT,NA,75.09727626459144,NA
84111,Salt Lake County,UT,NA,NA,89.32384341637011
84302,Box Elder County,UT,NA,NA,91.10320284697508
05250,Bennington County,VT,NA,NA,86.12099644128114
05478,Franklin County,VT,NA,38.52140077821012,NA
22407,Spotsylvania County,VA,NA,17.898832684824903,NA
23185,James City County,VA,NA,3.8910505836575875,NA
23464,Virginia Beach city,VA,NA,NA,2.491103202846975
23608,Newport News city,VA,NA,39.29961089494164,NA
23901,Prince Edward County,VA,NA,NA,64.05693950177937
24017,Roanoke city,VA,32.417582417582416,NA,NA
24091,Floyd County,VA,96.15384615384616,NA,NA
24230,Wise County,VA,NA,77.431906614786,NA
24293,Wise County,VA,56.043956043956044,NA,NA
24572,Amherst County,VA,68.68131868131869,NA,NA
24614,Buchanan County,VA,NA,NA,82.91814946619218
98038,King County,WA,NA,40.856031128404666,NA
98110,Kitsap County,WA,NA,40.46692607003891,NA
98221,Skagit County,WA,NA,NA,16.370106761565836
98296,Snohomish County,WA,54.94505494505495,NA,NA
98321,Pierce County,WA,NA,NA,82.56227758007117
98391,Pierce County,WA,NA,NA,64.76868327402136
98520,Grays Harbor County,WA,NA,51.36186770428015,NA
98823,Grant County,WA,NA,NA,80.78291814946618
98902,Yakima County,WA,NA,24.124513618677042,NA
98936,Yakima County,WA,NA,99.22178988326849,NA
99224,Spokane County,WA,91.75824175824175,NA,NA
99324,Walla Walla County,WA,NA,NA,67.25978647686833
99336,Benton County,WA,NA,0.7782101167315175,NA
99337,Benton County,WA,NA,NA,8.185053380782918
99350,Benton County,WA,NA,NA,60.854092526690394
99352,Benton County,WA,NA,NA,3.558718861209965
25508,Logan County,WV,NA,72.76264591439688,72.95373665480427
25601,Logan County,WV,76.37362637362637,NA,89.6797153024911
25670,Mingo County,WV,NA,NA,96.79715302491103
26101,Wood County,WV,NA,NA,16.72597864768683
26104,Wood County,WV,41.208791208791204,NA,NA
26301,Harrison County,WV,NA,10.894941634241246,NA
53110,Milwaukee County,WI,NA,NA,27.75800711743772
53130,Milwaukee County,WI,89.56043956043956,NA,NA
53140,Kenosha County,WI,NA,NA,25.622775800711743
53150,Waukesha County,WI,NA,41.245136186770424,NA
53154,Milwaukee County,WI,29.67032967032967,NA,NA
53186,Waukesha County,WI,67.03296703296702,39.688715953307394,NA
53189,Waukesha County,WI,NA,70.42801556420234,NA
53520,Green County,WI,NA,85.99221789883269,NA
53551,Jefferson County,WI,83.51648351648352,NA,NA
53589,Dane County,WI,80.21978021978022,NA,NA
54494,Wood County,WI,37.362637362637365,NA,NA
54880,Douglas County,WI,NA,NA,1.4234875444839856
82001,Laramie County,WY,NA,NA,44.128113879003564
82501,Fremont County,WY,NA,NA,79.00355871886121
82633,Converse County,WY,65.93406593406593,NA,NA
82701,Weston County,WY,98.35164835164835,NA,NA
82935,Sweetwater County,WY,NA,NA,93.59430604982207
