ZipCode,county,state,Adult,Retirement,Geriatric
35020,Jefferson County,AL,18.855218855218855,NA,NA
35040,Shelby County,AL,NA,74.48559670781893,NA
35124,Shelby County,AL,NA,40.94650205761317,NA
35208,Jefferson County,AL,43.43434343434344,NA,NA
35209,Jefferson County,AL,NA,67.48971193415639,NA
35406,Tuscaloosa County,AL,76.76767676767676,NA,NA
35640,Morgan County,AL,36.7003367003367,NA,NA
35750,Madison County,AL,NA,59.876543209876544,NA
36360,Dale County,AL,NA,NA,53.84615384615385
36530,Baldwin County,AL,NA,NA,96.02977667493796
36695,Mobile County,AL,36.36363636363637,NA,NA
36701,Dallas County,AL,NA,67.28395061728395,NA
36756,Perry County,AL,84.51178451178451,NA,NA
36784,Clarke County,AL,NA,84.36213991769547,NA
99503,Anchorage Municipality,AK,52.18855218855219,NA,NA
99576,Dillingham Census Area,AK,NA,NA,99.75186104218362
99835,Sitka City and Borough,AK,NA,79.62962962962963,92.55583126550869
85013,Maricopa County,AZ,54.20875420875421,NA,NA
85019,Maricopa County,AZ,42.76094276094276,NA,NA
85028,Maricopa County,AZ,NA,64.19753086419753,NA
85041,Maricopa County,AZ,NA,27.983539094650205,NA
85048,Maricopa County,AZ,NA,66.46090534979425,NA
85138,Pinal County,AZ,44.44444444444444,NA,NA
85142,Maricopa County,AZ,NA,30.864197530864196,NA
85204,Maricopa County,AZ,19.19191919191919,NA,NA
85225,Maricopa County,AZ,NA,33.1275720164609,NA
85283,Maricopa County,AZ,NA,29.835390946502056,NA
85301,Maricopa County,AZ,NA,NA,26.054590570719604
85345,Maricopa County,AZ,17.50841750841751,NA,NA
85350,Yuma County,AZ,NA,NA,73.44913151364764
85353,Maricopa County,AZ,69.36026936026936,NA,NA
85364,Yuma County,AZ,NA,5.349794238683128,NA
85615,Cochise County,AZ,NA,NA,89.33002481389578
85634,Pima County,AZ,NA,NA,85.35980148883374
85635,Cochise County,AZ,NA,NA,66.99751861042184
85706,Pima County,AZ,4.713804713804714,NA,NA
85714,Pima County,AZ,NA,NA,74.93796526054591
86045,Coconino County,AZ,NA,NA,46.40198511166253
86426,Mohave County,AZ,NA,56.37860082304527,NA
86503,Apache County,AZ,37.71043771043771,NA,NA
86505,Apache County,AZ,NA,75.92592592592592,NA
72113,Pulaski County,AR,NA,50,NA
72116,Pulaski County,AR,NA,NA,30.76923076923077
72120,Pulaski County,AR,NA,21.39917695473251,NA
72227,Pulaski County,AR,NA,98.14814814814815,55.33498759305211
72472,Poinsett County,AR,84.84848484848484,NA,NA
72764,Washington County,AR,41.75084175084175,NA,NA
90002,Los Angeles County,CA,NA,62.139917695473244,NA
90015,Los Angeles County,CA,NA,NA,77.1712158808933
90023,Los Angeles County,CA,NA,59.465020576131685,NA
90025,Los Angeles County,CA,60.94276094276094,NA,NA
90037,Los Angeles County,CA,NA,44.23868312757202,NA
90046,Los Angeles County,CA,55.55555555555556,NA,NA
90241,Los Angeles County,CA,NA,55.144032921810705,NA
90247,Los Angeles County,CA,NA,54.52674897119342,NA
90291,Los Angeles County,CA,90.9090909090909,NA,NA
90630,Orange County,CA,NA,58.8477366255144,NA
90631,Orange County,CA,NA,NA,56.32754342431762
90650,Los Angeles County,CA,NA,19.1358024691358,NA
90716,Los Angeles County,CA,97.3063973063973,NA,NA
90802,Los Angeles County,CA,NA,69.1358024691358,NA
90804,Los Angeles County,CA,50.16835016835017,NA,NA
91342,Los Angeles County,CA,57.57575757575758,NA,NA
91355,Los Angeles County,CA,NA,54.11522633744856,NA
91745,Los Angeles County,CA,NA,47.73662551440329,NA
92071,San Diego County,CA,28.95622895622896,NA,NA
92078,San Diego County,CA,NA,51.23456790123457,NA
92107,San Diego County,CA,NA,72.42798353909465,NA
92113,San Diego County,CA,NA,38.2716049382716,NA
92120,San Diego County,CA,NA,NA,47.39454094292804
92264,Riverside County,CA,52.52525252525253,NA,NA
92374,San Bernardino County,CA,NA,65.4320987654321,NA
92376,San Bernardino County,CA,NA,20.781893004115226,51.86104218362283
92407,San Bernardino County,CA,22.895622895622896,NA,NA
92509,Riverside County,CA,NA,41.76954732510288,NA
92584,Riverside County,CA,49.158249158249156,NA,NA
92610,Orange County,CA,92.5925925925926,NA,NA
92614,Orange County,CA,NA,64.40329218106996,NA
92626,Orange County,CA,47.13804713804714,47.325102880658434,NA
92627,Orange County,CA,NA,34.5679012345679,NA
92646,Orange County,CA,NA,73.86831275720165,NA
92647,Orange County,CA,NA,NA,14.1439205955335
92655,Orange County,CA,NA,82.09876543209876,NA
92672,Orange County,CA,71.38047138047138,NA,NA
92691,Orange County,CA,NA,NA,43.424317617866
92703,Orange County,CA,43.77104377104377,NA,NA
92780,Orange County,CA,NA,NA,36.47642679900744
92802,Orange County,CA,NA,78.18930041152264,NA
92821,Orange County,CA,NA,NA,28.287841191067
92845,Orange County,CA,80.8080808080808,NA,NA
92866,Orange County,CA,NA,NA,73.44913151364764
93010,Ventura County,CA,NA,28.600823045267486,NA
93060,Ventura County,CA,NA,NA,69.4789081885856
93304,Kern County,CA,NA,49.17695473251029,NA
93550,Los Angeles County,CA,NA,48.76543209876543,NA
93561,Kern County,CA,NA,56.17283950617284,NA
93722,Fresno County,CA,NA,NA,33.7468982630273
94025,San Mateo County,CA,NA,NA,25.55831265508685
94040,Santa Clara County,CA,NA,NA,68.23821339950372
94061,San Mateo County,CA,NA,NA,16.62531017369727
94063,San Mateo County,CA,NA,44.03292181069959,NA
94085,Santa Clara County,CA,88.55218855218855,NA,98.26302729528535
94086,Santa Clara County,CA,NA,96.50205761316872,NA
94103,San Francisco County,CA,NA,NA,13.151364764267989
94109,San Francisco County,CA,31.986531986531986,15.432098765432098,NA
94114,San Francisco County,CA,NA,NA,48.38709677419355
94115,San Francisco County,CA,NA,NA,11.910669975186105
94116,San Francisco County,CA,NA,40.32921810699588,NA
94118,San Francisco County,CA,NA,71.60493827160494,NA
94122,San Francisco County,CA,NA,NA,5.2109181141439205
94133,San Francisco County,CA,NA,49.794238683127574,NA
94134,San Francisco County,CA,NA,NA,62.531017369727046
94403,San Mateo County,CA,NA,55.55555555555556,NA
94404,San Mateo County,CA,NA,47.94238683127572,NA
94520,Contra Costa County,CA,70.37037037037037,64.60905349794238,NA
94541,Alameda County,CA,NA,NA,40.44665012406948
94558,Napa County,CA,NA,11.522633744855968,NA
94565,Contra Costa County,CA,NA,40.74074074074074,NA
94579,Alameda County,CA,88.21548821548821,NA,NA
94585,Solano County,CA,NA,NA,71.46401985111662
94587,Alameda County,CA,NA,NA,12.903225806451612
94611,Alameda County,CA,64.3097643097643,NA,NA
94619,Alameda County,CA,NA,61.52263374485597,NA
94803,Contra Costa County,CA,NA,NA,54.83870967741935
94903,Marin County,CA,NA,NA,40.94292803970223
95014,Santa Clara County,CA,NA,NA,18.610421836228287
95035,Santa Clara County,CA,NA,NA,18.858560794044664
95120,Santa Clara County,CA,NA,82.3045267489712,NA
95122,Santa Clara County,CA,NA,52.2633744855967,NA
95125,Santa Clara County,CA,53.198653198653204,NA,NA
95135,Santa Clara County,CA,NA,NA,48.13895781637717
95206,San Joaquin County,CA,NA,31.069958847736622,NA
95301,Merced County,CA,NA,65.02057613168725,NA
95304,San Joaquin County,CA,94.27609427609428,NA,NA
95326,Stanislaus County,CA,NA,NA,93.54838709677419
95336,San Joaquin County,CA,32.659932659932664,NA,NA
95350,Stanislaus County,CA,NA,18.106995884773664,NA
95356,Stanislaus County,CA,86.53198653198653,NA,NA
95531,Del Norte County,CA,NA,NA,68.98263027295285
95620,Solano County,CA,NA,NA,75.18610421836229
95623,El Dorado County,CA,99.32659932659934,NA,NA
95630,Sacramento County,CA,30.63973063973064,NA,NA
95648,Placer County,CA,NA,28.189300411522634,7.94044665012407
95670,Sacramento County,CA,37.03703703703704,NA,NA
95688,Solano County,CA,NA,62.34567901234568,NA
95694,Yolo County,CA,NA,NA,98.75930521091811
95817,Sacramento County,CA,NA,69.95884773662551,NA
95820,Sacramento County,CA,NA,43.20987654320987,91.81141439205956
95821,Sacramento County,CA,NA,35.18518518518518,NA
95823,Sacramento County,CA,NA,23.251028806584362,NA
95825,Sacramento County,CA,NA,NA,85.11166253101737
95827,Sacramento County,CA,72.05387205387206,70.78189300411523,NA
95835,Sacramento County,CA,72.72727272727273,NA,46.15384615384615
95838,Sacramento County,CA,NA,NA,63.0272952853598
95959,Nevada County,CA,NA,53.497942386831276,NA
80014,Arapahoe County,CO,NA,87.03703703703704,8.188585607940446
80015,Arapahoe County,CO,NA,NA,55.831265508684865
80110,Arapahoe County,CO,NA,84.97942386831275,NA
80113,Arapahoe County,CO,NA,NA,86.10421836228288
80121,Arapahoe County,CO,NA,NA,50.62034739454094
80122,Arapahoe County,CO,NA,NA,91.3151364764268
80138,Douglas County,CO,57.91245791245792,NA,NA
80209,Denver County,CO,NA,NA,97.27047146401985
80218,Denver County,CO,62.96296296296296,NA,NA
80233,Adams County,CO,NA,54.73251028806584,NA
80246,Denver County,CO,NA,96.09053497942386,NA
80301,Boulder County,CO,NA,NA,52.853598014888334
80439,Jefferson County,CO,82.82828282828282,NA,NA
80517,Larimer County,CO,NA,NA,83.62282878411911
80528,Larimer County,CO,NA,NA,90.32258064516128
80603,Weld County,CO,NA,89.30041152263375,NA
80634,Weld County,CO,NA,2.263374485596708,NA
80808,El Paso County,CO,NA,94.65020576131687,NA
80905,El Paso County,CO,NA,79.01234567901234,NA
80916,El Paso County,CO,40.74074074074074,NA,NA
81004,Pueblo County,CO,NA,34.15637860082305,NA
81082,Las Animas County,CO,68.68686868686868,NA,NA
81301,La Plata County,CO,NA,NA,51.1166253101737
81501,Mesa County,CO,48.821548821548824,NA,NA
06010,Hartford County,CT,NA,3.909465020576132,NA
06040,Hartford County,CT,14.814814814814813,NA,NA
06118,Hartford County,CT,NA,41.9753086419753,NA
06460,New Haven County,CT,NA,19.958847736625515,NA
06525,New Haven County,CT,NA,90.74074074074075,NA
06716,New Haven County,CT,67.67676767676768,NA,NA
19713,New Castle County,DE,33.670033670033675,NA,NA
19720,New Castle County,DE,5.05050505050505,NA,NA
19805,New Castle County,DE,NA,NA,29.528535980148884
19963,Sussex County,DE,38.04713804713805,NA,NA
32043,Clay County,FL,NA,NA,47.64267990074442
32073,Clay County,FL,27.946127946127948,NA,NA
32211,Duval County,FL,NA,45.267489711934154,NA
32317,Leon County,FL,NA,88.88888888888889,NA
32531,Okaloosa County,FL,NA,78.39506172839506,NA
32605,Alachua County,FL,NA,NA,20.843672456575682
32708,Seminole County,FL,NA,42.79835390946502,NA
32780,Brevard County,FL,45.45454545454545,NA,NA
32819,Orange County,FL,NA,74.8971193415638,NA
32955,Brevard County,FL,NA,26.337448559670783,NA
32966,Indian River County,FL,NA,35.59670781893004,NA
33004,Broward County,FL,NA,97.32510288065843,NA
33012,Miami-Dade County,FL,79.12457912457911,25.514403292181072,24.317617866004962
33014,Miami-Dade County,FL,NA,73.04526748971193,NA
33016,Miami-Dade County,FL,NA,58.64197530864198,NA
33018,Miami-Dade County,FL,79.7979797979798,NA,NA
33020,Broward County,FL,NA,NA,64.51612903225806
33021,Broward County,FL,53.535353535353536,85.80246913580247,NA
33024,Broward County,FL,NA,26.543209876543212,54.59057071960298
33028,Broward County,FL,NA,83.1275720164609,NA
33029,Broward County,FL,NA,66.0493827160494,47.8908188585608
33054,Miami-Dade County,FL,NA,NA,70.47146401985111
33125,Miami-Dade County,FL,NA,73.25102880658436,9.925558312655088
33126,Miami-Dade County,FL,NA,78.80658436213992,NA
33127,Miami-Dade County,FL,59.25925925925925,NA,NA
33133,Miami-Dade County,FL,NA,76.13168724279835,87.84119106699751
33135,Miami-Dade County,FL,NA,NA,21.339950372208435
33136,Miami-Dade County,FL,NA,NA,82.38213399503722
33137,Miami-Dade County,FL,NA,86.41975308641975,NA
33138,Miami-Dade County,FL,NA,62.96296296296296,44.91315136476427
33139,Miami-Dade County,FL,NA,NA,75.68238213399503
33140,Miami-Dade County,FL,NA,NA,56.575682382134
33142,Miami-Dade County,FL,NA,NA,52.605459057071954
33149,Miami-Dade County,FL,NA,91.1522633744856,88.33746898263027
33154,Miami-Dade County,FL,NA,80.8641975308642,NA
33156,Miami-Dade County,FL,NA,58.0246913580247,NA
33157,Miami-Dade County,FL,38.72053872053872,NA,NA
33169,Miami-Dade County,FL,NA,NA,57.32009925558312
33175,Miami-Dade County,FL,NA,NA,15.632754342431761
33178,Miami-Dade County,FL,NA,80.24691358024691,67.24565756823822
33180,Miami-Dade County,FL,NA,78.60082304526749,79.65260545905707
33181,Miami-Dade County,FL,NA,NA,73.94540942928039
33182,Miami-Dade County,FL,NA,87.24279835390946,NA
33186,Miami-Dade County,FL,NA,68.72427983539094,24.81389578163772
33304,Broward County,FL,NA,67.07818930041152,NA
33317,Broward County,FL,NA,47.53086419753087,41.935483870967744
33330,Broward County,FL,NA,87.44855967078189,NA
33401,Palm Beach County,FL,NA,NA,59.05707196029777
33409,Palm Beach County,FL,69.6969696969697,NA,NA
33435,Palm Beach County,FL,NA,58.230452674897116,NA
33455,Martin County,FL,NA,NA,11.166253101736972
33511,Hillsborough County,FL,NA,32.92181069958848,NA
33527,Hillsborough County,FL,NA,76.5432098765432,NA
33545,Pasco County,FL,89.22558922558923,NA,NA
33547,Hillsborough County,FL,82.49158249158249,NA,NA
33570,Hillsborough County,FL,NA,56.99588477366255,NA
33618,Hillsborough County,FL,NA,51.85185185185185,NA
33785,Pinellas County,FL,NA,97.7366255144033,NA
33844,Polk County,FL,NA,39.300411522633745,NA
33904,Lee County,FL,42.42424242424242,NA,6.20347394540943
33905,Lee County,FL,41.07744107744108,NA,NA
33908,Lee County,FL,NA,8.23045267489712,NA
33912,Lee County,FL,87.20538720538721,NA,NA
33947,Charlotte County,FL,NA,79.42386831275721,NA
34104,Collier County,FL,NA,NA,76.1786600496278
34476,Marion County,FL,62.2895622895623,NA,NA
34655,Pasco County,FL,NA,NA,16.87344913151365
34952,St. Lucie County,FL,NA,NA,6.9478908188585615
34974,Okeechobee County,FL,58.58585858585859,NA,NA
30032,DeKalb County,GA,16.835016835016837,NA,20.099255583126553
30039,Gwinnett County,GA,85.18518518518519,NA,NA
30058,DeKalb County,GA,NA,NA,52.10918114143921
30083,DeKalb County,GA,NA,NA,47.146401985111666
30125,Polk County,GA,NA,NA,72.20843672456576
30135,Douglas County,GA,NA,17.28395061728395,NA
30180,Carroll County,GA,26.262626262626267,NA,NA
30297,Clayton County,GA,60.26936026936027,NA,NA
30305,Fulton County,GA,NA,NA,71.96029776674938
30311,Fulton County,GA,20.53872053872054,NA,NA
30315,Fulton County,GA,NA,NA,35.73200992555831
30316,DeKalb County,GA,NA,NA,46.65012406947891
30317,DeKalb County,GA,NA,79.21810699588477,NA
30340,DeKalb County,GA,NA,90.3292181069959,NA
30513,Fannin County,GA,NA,NA,69.97518610421837
30533,Lumpkin County,GA,NA,48.559670781893004,NA
30548,Jackson County,GA,85.52188552188552,NA,NA
30809,Columbia County,GA,NA,16.666666666666664,28.53598014888337
30815,Richmond County,GA,NA,17.695473251028808,NA
30904,Richmond County,GA,NA,NA,95.53349875930522
30906,Richmond County,GA,NA,8.436213991769549,NA
31328,Chatham County,GA,NA,NA,98.51116625310173
31520,Glynn County,GA,55.892255892255896,NA,NA
31569,Camden County,GA,NA,98.76543209876543,NA
31705,Dougherty County,GA,32.996632996633,NA,NA
31768,Colquitt County,GA,NA,NA,57.81637717121588
39845,Seminole County,GA,NA,NA,72.7047146401985
96746,Kauai County,HI,70.37037037037037,NA,NA
96789,Honolulu County,HI,NA,12.962962962962962,NA
96793,Maui County,HI,NA,65.63786008230453,NA
96815,Honolulu County,HI,NA,28.80658436213992,18.36228287841191
96817,Honolulu County,HI,NA,NA,3.722084367245657
83221,Bingham County,ID,NA,22.839506172839506,NA
83406,Bonneville County,ID,89.56228956228956,NA,NA
83642,Ada County,ID,NA,NA,6.451612903225806
83669,Ada County,ID,96.96969696969697,NA,NA
60025,Cook County,IL,NA,NA,60.297766749379655
60077,Cook County,IL,61.95286195286195,NA,NA
60090,Cook County,IL,NA,81.27572016460906,NA
60148,DuPage County,IL,NA,8.847736625514404,NA
60154,Cook County,IL,NA,29.01234567901235,NA
60174,Kane County,IL,NA,42.592592592592595,NA
60189,DuPage County,IL,40.06734006734007,NA,NA
60302,Cook County,IL,NA,18.51851851851852,NA
60402,Cook County,IL,16.4983164983165,NA,NA
60426,Cook County,IL,83.83838383838383,NA,NA
60429,Cook County,IL,NA,NA,61.04218362282878
60515,DuPage County,IL,NA,38.68312757201646,NA
60554,Kane County,IL,90.23569023569024,NA,NA
60608,Cook County,IL,43.09764309764309,NA,NA
60609,Cook County,IL,NA,NA,17.866004962779154
60610,Cook County,IL,NA,NA,18.11414392059553
60615,Cook County,IL,NA,NA,82.87841191066998
60619,Cook County,IL,62.62626262626263,NA,NA
60628,Cook County,IL,NA,7.20164609053498,NA
60639,Cook County,IL,14.47811447811448,NA,NA
60640,Cook County,IL,NA,NA,8.436724565756824
60651,Cook County,IL,NA,13.374485596707819,15.136476426799009
61021,Lee County,IL,NA,11.316872427983538,NA
61107,Winnebago County,IL,NA,NA,17.3697270471464
61109,Winnebago County,IL,51.515151515151516,NA,NA
61354,LaSalle County,IL,NA,NA,64.26799007444168
61550,Tazewell County,IL,NA,NA,76.42679900744417
61727,De Witt County,IL,NA,NA,43.17617866004963
61801,Champaign County,IL,NA,NA,45.40942928039702
61802,Champaign County,IL,NA,35.80246913580247,NA
61821,Champaign County,IL,NA,50.617283950617285,10.669975186104217
61832,Vermilion County,IL,NA,14.814814814814813,NA
61853,Champaign County,IL,NA,NA,27.543424317617866
61856,Piatt County,IL,NA,NA,75.43424317617865
61874,Champaign County,IL,NA,NA,40.69478908188586
62230,Clinton County,IL,NA,92.79835390946502,NA
62471,Fayette County,IL,NA,57.20164609053497,NA
46013,Madison County,IN,35.69023569023569,NA,NA
46142,Johnson County,IN,47.474747474747474,NA,NA
46218,Marion County,IN,NA,23.662551440329217,NA
46307,Lake County,IN,NA,2.05761316872428,NA
46319,Lake County,IN,NA,30.246913580246915,NA
46391,LaPorte County,IN,NA,88.27160493827161,NA
46902,Howard County,IN,NA,6.172839506172839,NA
47172,Clark County,IN,71.71717171717171,NA,NA
47403,Monroe County,IN,63.97306397306397,NA,NA
47630,Warrick County,IN,NA,NA,68.4863523573201
50158,Marshall County,IA,NA,NA,26.550868486352357
50309,Polk County,IA,85.85858585858585,NA,NA
50316,Polk County,IA,46.464646464646464,NA,NA
50588,Buena Vista County,IA,NA,NA,88.83374689826302
50616,Floyd County,IA,NA,90.74074074074075,NA
51360,Dickinson County,IA,NA,NA,48.883374689826304
51534,Mills County,IA,64.98316498316498,NA,NA
52240,Johnson County,IA,NA,57.61316872427984,NA
52241,Johnson County,IA,NA,85.59670781893004,83.37468982630273
52246,Johnson County,IA,NA,66.8724279835391,NA
52403,Linn County,IA,NA,NA,32.00992555831266
52404,Linn County,IA,NA,21.810699588477366,NA
52531,Monroe County,IA,NA,84.77366255144034,NA
52641,Henry County,IA,NA,NA,51.61290322580645
52804,Scott County,IA,NA,NA,38.95781637717122
52806,Scott County,IA,25.589225589225588,NA,NA
66062,Johnson County,KS,15.488215488215488,NA,NA
66103,Wyandotte County,KS,NA,NA,97.76674937965261
66219,Johnson County,KS,NA,83.53909465020575,NA
40215,Jefferson County,KY,NA,NA,86.10421836228288
40216,Jefferson County,KY,13.468013468013467,NA,NA
40356,Jessamine County,KY,NA,NA,75.93052109181141
40515,Fayette County,KY,NA,NA,80.14888337468983
41051,Kenton County,KY,NA,39.09465020576132,NA
41143,Carter County,KY,NA,NA,93.05210918114145
41472,Morgan County,KY,NA,97.53086419753086,NA
41501,Pike County,KY,NA,17.48971193415638,NA
42071,Calloway County,KY,NA,NA,38.70967741935484
42261,Butler County,KY,63.63636363636363,NA,NA
42728,Adair County,KY,NA,44.650205761316876,NA
70043,St. Bernard Parish,LA,NA,67.90123456790124,NA
70065,Jefferson Parish,LA,NA,4.11522633744856,NA
70114,Orleans Parish,LA,NA,NA,57.07196029776674
70119,Orleans Parish,LA,NA,11.934156378600823,NA
70130,Orleans Parish,LA,NA,39.91769547325103,NA
70301,Lafourche Parish,LA,NA,13.580246913580247,NA
70447,St. Tammany Parish,LA,61.27946127946128,NA,NA
70508,Lafayette Parish,LA,NA,NA,27.791563275434246
70529,Lafayette Parish,LA,NA,95.26748971193416,NA
70560,Iberia Parish,LA,NA,17.078189300411523,NA
70726,Livingston Parish,LA,2.356902356902357,NA,NA
71006,Bossier Parish,LA,NA,71.19341563786008,NA
71047,Caddo Parish,LA,NA,NA,84.36724565756823
71115,Caddo Parish,LA,NA,NA,37.220843672456574
71203,Ouachita Parish,LA,NA,NA,68.73449131513648
71301,Rapides Parish,LA,NA,NA,63.52357320099256
71302,Rapides Parish,LA,NA,95.67901234567901,NA
04079,Cumberland County,ME,NA,NA,91.06699751861042
04090,York County,ME,66.32996632996633,NA,NA
04210,Androscoggin County,ME,NA,14.19753086419753,NA
04412,Penobscot County,ME,NA,NA,24.56575682382134
04730,Aroostook County,ME,NA,NA,66.50124069478908
04736,Aroostook County,ME,NA,45.67901234567901,NA
04743,Aroostook County,ME,NA,94.23868312757202,NA
04756,Aroostook County,ME,100,NA,NA
04849,Waldo County,ME,NA,96.29629629629629,NA
04901,Kennebec County,ME,9.427609427609427,NA,NA
20653,St. Mary's County,MD,68.01346801346801,NA,NA
20743,Prince George's County,MD,39.39393939393939,NA,NA
20853,Montgomery County,MD,NA,74.8971193415638,NA
21012,Anne Arundel County,MD,NA,NA,72.45657568238212
21029,Howard County,MD,NA,97.94238683127571,NA
21085,Harford County,MD,92.25589225589226,NA,NA
21108,Anne Arundel County,MD,NA,81.06995884773663,NA
21201,Baltimore city,MD,NA,51.64609053497943,NA
21202,Baltimore city,MD,NA,NA,77.66749379652606
21206,Baltimore city,MD,NA,15.843621399176955,59.801488833746895
21209,Baltimore County,MD,NA,62.757201646090536,NA
21215,Baltimore city,MD,NA,NA,8.6848635235732
21216,Baltimore city,MD,NA,25.102880658436217,NA
21220,Baltimore County,MD,NA,35.18518518518518,NA
21221,Baltimore County,MD,56.9023569023569,NA,NA
21222,Baltimore County,MD,8.080808080808081,NA,4.714640198511166
21234,Baltimore County,MD,NA,NA,25.806451612903224
21239,Baltimore city,MD,34.68013468013468,NA,NA
01020,Hampden County,MA,NA,NA,12.40694789081886
01057,Hampden County,MA,34.00673400673401,NA,NA
01118,Hampden County,MA,NA,NA,81.38957816377172
01510,Worcester County,MA,24.579124579124578,NA,NA
01543,Worcester County,MA,92.92929292929293,NA,NA
01545,Worcester County,MA,NA,19.958847736625515,NA
01602,Worcester County,MA,NA,58.43621399176955,NA
01604,Worcester County,MA,NA,2.674897119341564,NA
01773,Middlesex County,MA,NA,NA,94.04466501240695
01801,Middlesex County,MA,NA,NA,0.7444168734491315
01803,Middlesex County,MA,NA,NA,1.9851116625310175
01821,Middlesex County,MA,NA,NA,7.6923076923076925
01843,Essex County,MA,NA,NA,31.265508684863523
02021,Norfolk County,MA,NA,NA,7.196029776674938
02025,Norfolk County,MA,NA,81.48148148148148,NA
02062,Norfolk County,MA,NA,NA,50.62034739454094
02066,Plymouth County,MA,41.41414141414141,NA,NA
02111,Suffolk County,MA,NA,NA,88.08933002481389
02116,Suffolk County,MA,NA,4.938271604938271,NA
02119,Suffolk County,MA,0,16.049382716049383,NA
02121,Suffolk County,MA,0.6734006734006733,NA,NA
02126,Suffolk County,MA,NA,62.55144032921811,NA
02127,Suffolk County,MA,2.0202020202020203,NA,NA
02128,Suffolk County,MA,0.33670033670033667,NA,NA
02131,Suffolk County,MA,NA,53.90946502057613,NA
02135,Suffolk County,MA,NA,NA,0.9925558312655087
02136,Suffolk County,MA,NA,66.2551440329218,NA
02143,Middlesex County,MA,NA,15.020576131687244,NA
02148,Middlesex County,MA,NA,5.967078189300412,NA
02149,Middlesex County,MA,NA,1.2345679012345678,NA
02150,Suffolk County,MA,NA,NA,3.225806451612903
02155,Middlesex County,MA,NA,0.823045267489712,NA
02176,Middlesex County,MA,12.121212121212121,10.699588477366255,NA
02364,Plymouth County,MA,81.81818181818183,NA,NA
02420,Middlesex County,MA,40.4040404040404,NA,NA
02632,Barnstable County,MA,NA,50.82304526748971,NA
02675,Barnstable County,MA,NA,75.7201646090535,NA
02720,Bristol County,MA,NA,1.02880658436214,NA
02777,Bristol County,MA,12.794612794612794,NA,NA
48009,Oakland County,MI,56.56565656565656,NA,NA
48036,Macomb County,MI,31.64983164983165,NA,NA
48044,Macomb County,MI,NA,NA,19.35483870967742
48051,Macomb County,MI,60.60606060606061,NA,NA
48065,Macomb County,MI,NA,NA,59.30521091811415
48076,Oakland County,MI,NA,29.629629629629626,NA
48089,Macomb County,MI,NA,NA,90.57071960297766
48091,Macomb County,MI,NA,19.54732510288066,NA
48103,Washtenaw County,MI,NA,NA,1.7369727047146404
48108,Washtenaw County,MI,NA,NA,23.076923076923077
48111,Wayne County,MI,53.87205387205387,NA,NA
48118,Washtenaw County,MI,NA,69.54732510288066,NA
48124,Wayne County,MI,NA,61.31687242798354,NA
48130,Washtenaw County,MI,NA,74.07407407407408,NA
48152,Wayne County,MI,NA,9.053497942386832,NA
48154,Wayne County,MI,NA,12.139917695473251,NA
48164,Wayne County,MI,76.0942760942761,NA,NA
48166,Monroe County,MI,76.43097643097643,NA,NA
48167,Oakland County,MI,45.11784511784512,NA,11.910669975186105
48170,Wayne County,MI,18.51851851851852,4.526748971193416,NA
48174,Wayne County,MI,NA,18.930041152263374,NA
48180,Wayne County,MI,NA,72.22222222222221,NA
48184,Wayne County,MI,NA,27.36625514403292,NA
48187,Wayne County,MI,NA,3.7037037037037033,6.699751861042183
48192,Wayne County,MI,23.232323232323232,NA,NA
48197,Washtenaw County,MI,3.3670033670033668,NA,NA
48203,Wayne County,MI,NA,NA,37.220843672456574
48207,Wayne County,MI,NA,NA,49.62779156327544
48226,Wayne County,MI,NA,95.06172839506173,NA
48228,Wayne County,MI,NA,NA,32.25806451612903
48230,Wayne County,MI,NA,40.123456790123456,NA
48235,Wayne County,MI,3.7037037037037033,NA,NA
48237,Oakland County,MI,NA,NA,26.799007444168733
48239,Wayne County,MI,NA,NA,38.21339950372209
48301,Oakland County,MI,NA,74.2798353909465,42.92803970223325
48302,Oakland County,MI,NA,48.148148148148145,NA
48306,Oakland County,MI,77.44107744107744,60.08230452674898,NA
48310,Macomb County,MI,21.21212121212121,NA,NA
48314,Macomb County,MI,NA,NA,22.084367245657567
48322,Oakland County,MI,NA,40.534979423868315,24.069478908188586
48380,Oakland County,MI,NA,NA,84.61538461538461
48415,Saginaw County,MI,NA,NA,68.98263027295285
48504,Genesee County,MI,NA,45.884773662551446,NA
48602,Saginaw County,MI,6.0606060606060606,NA,NA
48653,Roscommon County,MI,NA,68.51851851851852,NA
48706,Bay County,MI,11.447811447811448,NA,NA
48823,Ingham County,MI,NA,31.275720164609055,NA
48837,Eaton County,MI,NA,37.03703703703704,61.29032258064516
48843,Livingston County,MI,NA,7.4074074074074066,NA
48917,Eaton County,MI,NA,NA,10.173697270471465
49007,Kalamazoo County,MI,43.77104377104377,NA,NA
49127,Berrien County,MI,NA,NA,51.1166253101737
49221,Lenawee County,MI,6.7340067340067336,NA,5.707196029776675
49323,Allegan County,MI,NA,91.56378600823045,NA
49333,Barry County,MI,NA,71.39917695473251,NA
49337,Newaygo County,MI,73.06397306397307,NA,NA
49341,Kent County,MI,NA,NA,57.5682382133995
49431,Mason County,MI,NA,61.934156378600825,NA
49441,Muskegon County,MI,NA,6.790123456790123,NA
49444,Muskegon County,MI,NA,24.485596707818928,NA
49546,Kent County,MI,NA,36.0082304526749,NA
49659,Antrim County,MI,NA,84.15637860082305,NA
49735,Otsego County,MI,NA,56.5843621399177,NA
49913,Houghton County,MI,NA,68.3127572016461,NA
55009,Goodhue County,MN,NA,60.49382716049383,NA
55016,Washington County,MN,NA,NA,63.77171215880894
55104,Ramsey County,MN,NA,NA,98.01488833746899
55116,Ramsey County,MN,71.04377104377105,NA,NA
55120,Dakota County,MN,NA,100,NA
55126,Ramsey County,MN,NA,69.75308641975309,NA
55303,Anoka County,MN,NA,37.65432098765432,NA
55305,Hennepin County,MN,81.48148148148148,NA,NA
55330,Sherburne County,MN,NA,43.62139917695473,NA
55334,Sibley County,MN,NA,99.1769547325103,NA
55343,Hennepin County,MN,47.81144781144781,NA,NA
55345,Hennepin County,MN,NA,NA,74.68982630272953
55347,Hennepin County,MN,NA,86.62551440329219,NA
55401,Hennepin County,MN,NA,88.68312757201646,NA
55406,Hennepin County,MN,NA,32.510288065843625,NA
55427,Hennepin County,MN,NA,63.580246913580254,NA
55430,Hennepin County,MN,NA,38.065843621399175,NA
55433,Anoka County,MN,39.73063973063973,NA,NA
55435,Hennepin County,MN,NA,NA,56.82382133995038
55437,Hennepin County,MN,NA,NA,53.349875930521094
55443,Hennepin County,MN,67.003367003367,NA,NA
55445,Hennepin County,MN,NA,86.0082304526749,NA
55720,Carlton County,MN,NA,87.65432098765432,NA
55901,Olmsted County,MN,NA,29.218106995884774,NA
55902,Olmsted County,MN,NA,NA,62.03473945409429
55947,Houston County,MN,NA,84.97942386831275,NA
55975,Fillmore County,MN,NA,NA,85.8560794044665
55976,Olmsted County,MN,NA,NA,77.41935483870968
55987,Winona County,MN,NA,NA,32.754342431761785
56007,Freeborn County,MN,NA,13.168724279835391,NA
56031,Martin County,MN,88.88888888888889,NA,NA
56258,Lyon County,MN,NA,NA,39.950372208436725
56352,Stearns County,MN,NA,NA,73.94540942928039
56362,Stearns County,MN,NA,NA,50.37220843672456
56367,Benton County,MN,99.66329966329967,NA,NA
56472,Crow Wing County,MN,NA,72.63374485596708,NA
56484,Cass County,MN,NA,NA,85.60794044665012
56501,Becker County,MN,NA,NA,82.6302729528536
56537,Otter Tail County,MN,NA,14.40329218106996,1.240694789081886
56560,Clay County,MN,NA,NA,0.49627791563275436
56572,Otter Tail County,MN,NA,68.10699588477365,NA
56573,Otter Tail County,MN,64.98316498316498,NA,NA
56601,Beltrami County,MN,10.437710437710438,NA,71.21588089330024
56762,Marshall County,MN,NA,98.559670781893,NA
38654,DeSoto County,MS,26.599326599326602,NA,NA
39090,Attala County,MS,73.4006734006734,NA,NA
39208,Rankin County,MS,74.07407407407408,NA,NA
39325,Lauderdale County,MS,98.65319865319864,NA,NA
39452,George County,MS,NA,24.897119341563787,NA
63028,Jefferson County,MO,NA,NA,41.19106699751861
63042,St. Louis County,MO,NA,43.00411522633745,NA
63121,St. Louis County,MO,32.323232323232325,NA,NA
63131,St. Louis County,MO,NA,76.74897119341564,NA
63141,St. Louis County,MO,NA,NA,29.776674937965257
63740,Scott County,MO,NA,92.5925925925926,NA
64014,Jackson County,MO,NA,36.21399176954733,NA
64030,Jackson County,MO,22.55892255892256,NA,NA
64055,Jackson County,MO,NA,12.757201646090536,NA
64068,Clay County,MO,NA,11.11111111111111,NA
64078,Cass County,MO,NA,NA,92.80397022332507
64108,Jackson County,MO,61.61616161616161,NA,NA
64110,Jackson County,MO,NA,NA,87.34491315136476
64127,Jackson County,MO,NA,39.711934156378604,NA
64130,Jackson County,MO,NA,NA,33.002481389578165
64133,Jackson County,MO,7.4074074074074066,NA,NA
64134,Jackson County,MO,NA,72.0164609053498,NA
64157,Clay County,MO,35.01683501683502,NA,NA
64735,Henry County,MO,NA,77.57201646090535,35.483870967741936
65201,Boone County,MO,51.178451178451176,NA,NA
65203,Boone County,MO,NA,15.22633744855967,NA
65559,Phelps County,MO,NA,NA,70.96774193548387
65625,Barry County,MO,NA,84.36213991769547,NA
65653,Taney County,MO,NA,NA,82.13399503722084
65807,Greene County,MO,NA,20.37037037037037,NA
59860,Lake County,MT,NA,46.913580246913575,NA
68048,Cass County,NE,NA,NA,86.848635235732
68110,Douglas County,NE,NA,NA,95.03722084367246
68516,Lancaster County,NE,NA,NA,42.18362282878412
89147,Clark County,NV,NA,NA,81.88585607940446
89149,Clark County,NV,66.66666666666666,NA,NA
89506,Washoe County,NV,23.56902356902357,NA,NA
89523,Washoe County,NV,NA,34.77366255144033,NA
89701,Carson City,NV,NA,NA,41.19106699751861
03244,Hillsborough County,NH,NA,NA,93.30024813895783
03431,Cheshire County,NH,NA,NA,5.459057071960298
03451,Cheshire County,NH,97.97979797979798,NA,NA
03458,Hillsborough County,NH,98.98989898989899,NA,NA
03773,Sullivan County,NH,83.16498316498317,NA,NA
03894,Carroll County,NH,NA,83.9506172839506,NA
07017,Essex County,NJ,3.0303030303030303,NA,NA
07031,Bergen County,NJ,NA,70.37037037037037,NA
07047,Hudson County,NJ,8.417508417508419,NA,NA
07067,Middlesex County,NJ,NA,76.95473251028807,NA
07073,Bergen County,NJ,67.003367003367,NA,NA
07104,Essex County,NJ,50.505050505050505,NA,NA
07107,Essex County,NJ,1.6835016835016834,NA,NA
07631,Bergen County,NJ,NA,60.90534979423868,NA
07670,Bergen County,NJ,NA,NA,58.06451612903226
08028,Gloucester County,NJ,NA,NA,63.27543424317618
08081,Camden County,NJ,NA,12.551440329218108,NA
08091,Camden County,NJ,89.8989898989899,NA,NA
08610,Mercer County,NJ,11.784511784511785,NA,NA
08721,Ocean County,NJ,28.619528619528616,NA,NA
08753,Ocean County,NJ,4.040404040404041,NA,NA
87104,Bernalillo County,NM,NA,NA,60.545905707196034
87105,Bernalillo County,NM,25.252525252525253,NA,NA
87107,Bernalillo County,NM,NA,25.308641975308642,NA
87313,McKinley County,NM,81.14478114478115,NA,NA
87701,San Miguel County,NM,NA,53.086419753086425,NA
88061,Grant County,NM,NA,70.57613168724279,NA
88063,Doa Ana County,NM,NA,89.7119341563786,NA
10017,New York County,NY,NA,68.93004115226337,NA
10025,New York County,NY,NA,1.646090534979424,NA
10032,New York County,NY,NA,NA,4.218362282878412
10034,New York County,NY,35.35353535353536,NA,NA
10035,New York County,NY,9.764309764309765,NA,11.41439205955335
10303,Richmond County,NY,74.74747474747475,NA,NA
10314,Richmond County,NY,NA,6.378600823045268,NA
10451,Bronx County,NY,NA,9.465020576131687,NA
10455,Bronx County,NY,NA,NA,81.14143920595534
10456,Bronx County,NY,NA,0,NA
10457,Bronx County,NY,NA,NA,39.45409429280397
10459,Bronx County,NY,NA,NA,23.573200992555833
10467,Bronx County,NY,NA,9.670781893004115,NA
10468,Bronx County,NY,NA,3.0864197530864197,NA
10469,Bronx County,NY,NA,NA,3.4739454094292808
10541,Putnam County,NY,NA,75.51440329218107,NA
10562,Westchester County,NY,NA,NA,37.71712158808933
10977,Rockland County,NY,NA,59.25925925925925,NA
11050,Nassau County,NY,NA,NA,95.7816377171216
11201,Kings County,NY,NA,NA,21.588089330024815
11204,Kings County,NY,NA,NA,5.955334987593052
11207,Kings County,NY,NA,1.440329218106996,NA
11211,Kings County,NY,NA,23.456790123456788,NA
11213,Kings County,NY,NA,NA,26.302729528535977
11216,Kings County,NY,15.824915824915825,12.345679012345679,NA
11217,Kings County,NY,NA,NA,49.37965260545906
11221,Kings County,NY,NA,5.1440329218107,NA
11223,Kings County,NY,NA,16.46090534979424,NA
11225,Kings County,NY,NA,NA,27.29528535980149
11372,Queens County,NY,NA,24.691358024691358,NA
11415,Queens County,NY,NA,NA,73.20099255583126
11418,Queens County,NY,NA,50.41152263374485,NA
11434,Queens County,NY,NA,NA,16.129032258064516
11542,Nassau County,NY,NA,NA,34.24317617866005
11743,Suffolk County,NY,NA,52.674897119341566,NA
11798,Suffolk County,NY,NA,NA,77.91563275434244
12020,Saratoga County,NY,NA,30.04115226337449,NA
12043,Schoharie County,NY,NA,NA,65.01240694789082
12203,Albany County,NY,NA,NA,33.25062034739454
12205,Albany County,NY,58.24915824915825,NA,NA
12553,Orange County,NY,79.46127946127946,NA,NA
12839,Washington County,NY,31.313131313131315,NA,NA
12983,Franklin County,NY,NA,54.93827160493827,NA
13021,Cayuga County,NY,NA,2.4691358024691357,NA
13027,Onondaga County,NY,NA,20.5761316872428,NA
13032,Madison County,NY,34.34343434343434,NA,NA
13045,Cortland County,NY,6.397306397306397,NA,NA
13104,Onondaga County,NY,NA,47.11934156378601,NA
13142,Oswego County,NY,NA,91.1522633744856,NA
13203,Onondaga County,NY,23.905723905723907,NA,NA
13205,Onondaga County,NY,17.845117845117844,NA,NA
13219,Onondaga County,NY,NA,52.2633744855967,NA
13340,Herkimer County,NY,NA,70.16460905349794,NA
13403,Oneida County,NY,NA,73.66255144032921,NA
13417,Oneida County,NY,NA,99.38271604938271,NA
13440,Oneida County,NY,NA,33.33333333333333,NA
13601,Jefferson County,NY,NA,NA,15.384615384615385
13617,St. Lawrence County,NY,NA,NA,41.19106699751861
13634,Jefferson County,NY,96.63299663299664,NA,NA
13662,St. Lawrence County,NY,NA,19.753086419753085,NA
13676,St. Lawrence County,NY,NA,77.1604938271605,NA
13753,Delaware County,NY,68.35016835016835,NA,NA
13760,Broome County,NY,NA,0.6172839506172839,NA
13901,Broome County,NY,NA,NA,11.662531017369728
14131,Niagara County,NY,94.94949494949495,NA,NA
14209,Erie County,NY,NA,NA,89.57816377171216
14210,Erie County,NY,NA,45.47325102880658,76.92307692307693
14211,Erie County,NY,13.131313131313133,NA,NA
14215,Erie County,NY,2.6936026936026933,NA,NA
14221,Erie County,NY,NA,NA,12.655086848635236
14227,Erie County,NY,28.28282828282828,NA,NA
14304,Niagara County,NY,25.925925925925924,NA,NA
14420,Monroe County,NY,20.2020202020202,NA,NA
14428,Monroe County,NY,50.841750841750844,NA,NA
14502,Wayne County,NY,NA,51.85185185185185,NA
14513,Wayne County,NY,9.090909090909092,NA,NA
14522,Wayne County,NY,NA,31.893004115226336,NA
14527,Yates County,NY,NA,NA,45.6575682382134
14564,Ontario County,NY,NA,NA,36.22828784119106
14580,Monroe County,NY,NA,0.205761316872428,NA
14608,Monroe County,NY,17.17171717171717,NA,NA
14613,Monroe County,NY,NA,37.242798353909464,NA
14618,Monroe County,NY,NA,NA,13.647642679900745
14622,Monroe County,NY,27.609427609427613,NA,NA
14624,Monroe County,NY,NA,NA,9.67741935483871
14837,Yates County,NY,NA,86.83127572016461,NA
14845,Chemung County,NY,21.548821548821547,NA,NA
14850,Tompkins County,NY,8.754208754208754,NA,NA
27006,Davie County,NC,NA,NA,16.377171215880892
27012,Forsyth County,NC,NA,48.35390946502058,NA
27018,Yadkin County,NC,NA,73.4567901234568,NA
27021,Stokes County,NC,NA,NA,19.851116625310176
27023,Forsyth County,NC,NA,NA,34.49131513647642
27040,Forsyth County,NC,73.73737373737373,NA,NA
27055,Yadkin County,NC,NA,88.47736625514403,NA
27103,Forsyth County,NC,NA,NA,28.03970223325062
27104,Forsyth County,NC,NA,9.876543209876543,21.83622828784119
27106,Forsyth County,NC,NA,4.320987654320987,10.918114143920596
27107,Forsyth County,NC,NA,26.748971193415638,NA
27127,Forsyth County,NC,NA,30.45267489711934,NA
27205,Randolph County,NC,45.79124579124579,NA,NA
27262,Guilford County,NC,NA,60.69958847736625,NA
27265,Guilford County,NC,NA,50.82304526748971,NA
27284,Forsyth County,NC,NA,NA,2.2332506203473943
27292,Davidson County,NC,NA,NA,3.970223325062035
27295,Davidson County,NC,NA,4.732510288065844,NA
27299,Davidson County,NC,NA,NA,99.25558312655087
27302,Alamance County,NC,NA,NA,23.82133995037221
27350,Randolph County,NC,NA,NA,99.0074441687345
27360,Davidson County,NC,NA,7.818930041152264,NA
27370,Randolph County,NC,NA,NA,78.66004962779157
27406,Guilford County,NC,7.07070707070707,NA,NA
27410,Guilford County,NC,NA,17.695473251028808,31.5136476426799
27511,Wake County,NC,NA,NA,70.22332506203473
27513,Wake County,NC,NA,55.96707818930041,NA
27557,Nash County,NC,93.60269360269359,NA,NA
27604,Wake County,NC,NA,43.415637860082306,NA
27855,Hertford County,NC,NA,NA,96.7741935483871
27864,Edgecombe County,NC,93.26599326599326,NA,NA
27944,Perquimans County,NC,NA,54.32098765432099,NA
28273,Mecklenburg County,NC,48.484848484848484,NA,NA
28277,Mecklenburg County,NC,NA,22.633744855967077,NA
28303,Cumberland County,NC,NA,NA,44.41687344913151
28304,Cumberland County,NC,NA,46.70781893004115,NA
28409,New Hanover County,NC,NA,71.81069958847736,NA
28461,Brunswick County,NC,NA,11.728395061728394,NA
28602,Catawba County,NC,NA,43.82716049382716,NA
28607,Watauga County,NC,NA,41.1522633744856,NA
28612,Burke County,NC,NA,NA,90.81885856079404
28786,Haywood County,NC,NA,NA,56.07940446650124
28792,Henderson County,NC,NA,NA,0.24813895781637718
58078,Cass County,ND,NA,51.440329218106996,NA
58103,Cass County,ND,NA,NA,1.488833746898263
58104,Cass County,ND,NA,NA,2.729528535980149
58201,Grand Forks County,ND,NA,10.2880658436214,NA
58329,Rolette County,ND,98.31649831649831,NA,NA
58703,Ward County,ND,NA,NA,22.58064516129032
43015,Delaware County,OH,NA,10.493827160493826,NA
43016,Franklin County,OH,NA,NA,39.20595533498759
43026,Franklin County,OH,NA,57.818930041152264,NA
43085,Franklin County,OH,NA,63.37448559670782,NA
43110,Franklin County,OH,NA,77.36625514403292,NA
43160,Fayette County,OH,18.181818181818183,NA,NA
43204,Franklin County,OH,NA,48.971193415637856,NA
43206,Franklin County,OH,NA,96.70781893004116,NA
43209,Franklin County,OH,NA,38.477366255144034,NA
43211,Franklin County,OH,15.151515151515152,36.831275720164605,NA
43214,Franklin County,OH,90.57239057239057,NA,44.66501240694789
43215,Franklin County,OH,NA,NA,78.66004962779157
43223,Franklin County,OH,NA,28.39506172839506,NA
43230,Franklin County,OH,20.875420875420875,NA,NA
43231,Franklin County,OH,NA,NA,80.39702233250621
43315,Morrow County,OH,65.65656565656566,NA,NA
43560,Lucas County,OH,NA,NA,21.09181141439206
43613,Lucas County,OH,5.723905723905724,NA,NA
43724,Noble County,OH,NA,NA,83.62282878411911
43938,Jefferson County,OH,54.882154882154886,NA,NA
44001,Lorain County,OH,NA,5.555555555555555,31.76178660049628
44004,Ashtabula County,OH,19.865319865319865,NA,14.392059553349876
44011,Lorain County,OH,NA,NA,9.429280397022332
44012,Lorain County,OH,NA,NA,33.25062034739454
44022,Cuyahoga County,OH,NA,31.68724279835391,NA
44035,Lorain County,OH,NA,2.880658436213992,NA
44039,Lorain County,OH,NA,NA,25.06203473945409
44041,Ashtabula County,OH,NA,NA,20.595533498759306
44052,Lorain County,OH,NA,NA,54.09429280397022
44053,Lorain County,OH,NA,NA,49.13151364764268
44054,Lorain County,OH,NA,NA,43.67245657568238
44055,Lorain County,OH,NA,83.7448559670782,NA
44056,Summit County,OH,NA,NA,86.60049627791562
44070,Cuyahoga County,OH,NA,8.024691358024691,NA
44087,Summit County,OH,46.12794612794613,NA,NA
44090,Lorain County,OH,NA,77.77777777777779,NA
44094,Lake County,OH,NA,6.995884773662551,29.280397022332505
44105,Cuyahoga County,OH,NA,10.08230452674897,NA
44109,Cuyahoga County,OH,1.0101010101010102,18.72427983539095,NA
44110,Cuyahoga County,OH,13.804713804713806,NA,NA
44111,Cuyahoga County,OH,NA,NA,43.920595533498755
44116,Cuyahoga County,OH,NA,NA,4.466501240694789
44123,Cuyahoga County,OH,NA,90.53497942386831,NA
44125,Cuyahoga County,OH,1.3468013468013467,13.991769547325102,NA
44126,Cuyahoga County,OH,NA,NA,34.98759305210918
44127,Cuyahoga County,OH,NA,NA,100
44129,Cuyahoga County,OH,19.52861952861953,NA,NA
44133,Cuyahoga County,OH,30.303030303030305,NA,NA
44134,Cuyahoga County,OH,NA,3.292181069958848,NA
44138,Cuyahoga County,OH,NA,61.111111111111114,NA
44139,Cuyahoga County,OH,NA,16.872427983539097,NA
44141,Cuyahoga County,OH,86.19528619528619,NA,NA
44143,Cuyahoga County,OH,NA,NA,48.635235732009924
44144,Cuyahoga County,OH,NA,39.50617283950617,NA
44145,Cuyahoga County,OH,22.22222222222222,7.613168724279835,23.325062034739457
44146,Cuyahoga County,OH,10.774410774410773,1.8518518518518516,NA
44203,Summit County,OH,NA,42.181069958847736,30.272952853598017
44266,Portage County,OH,NA,NA,4.962779156327544
44278,Summit County,OH,NA,46.09053497942387,NA
44310,Summit County,OH,NA,NA,81.6377171215881
44313,Summit County,OH,NA,NA,14.888337468982629
44321,Summit County,OH,NA,88.06584362139918,NA
44406,Mahoning County,OH,NA,31.275720164609055,NA
44718,Stark County,OH,NA,75.30864197530865,NA
44805,Ashland County,OH,NA,NA,22.332506203473944
44875,Richland County,OH,NA,NA,78.41191066997519
44890,Huron County,OH,NA,NA,58.06451612903226
44903,Richland County,OH,NA,23.045267489711936,NA
45036,Warren County,OH,24.915824915824917,NA,NA
45069,Butler County,OH,NA,22.016460905349795,NA
45103,Clermont County,OH,30.976430976430976,NA,NA
45220,Hamilton County,OH,95.62289562289563,NA,NA
45309,Montgomery County,OH,86.53198653198653,NA,NA
45331,Darke County,OH,NA,27.160493827160494,NA
45459,Montgomery County,OH,NA,59.053497942386834,NA
45638,Lawrence County,OH,NA,5.761316872427984,NA
45640,Jackson County,OH,NA,NA,10.421836228287841
45651,Vinton County,OH,NA,NA,79.15632754342433
45656,Jackson County,OH,NA,NA,70.71960297766749
45732,Athens County,OH,NA,NA,99.50372208436724
45895,Auglaize County,OH,33.33333333333333,NA,NA
73662,Beckham County,OK,NA,98.35390946502058,NA
74036,Rogers County,OK,77.77777777777779,NA,NA
74129,Tulsa County,OK,NA,80.65843621399176,NA
74301,Craig County,OK,NA,76.33744855967079,NA
74352,Mayes County,OK,NA,NA,92.05955334987593
74960,Adair County,OK,NA,NA,61.78660049627791
97007,Washington County,OR,NA,65.22633744855966,35.73200992555831
97009,Clackamas County,OR,91.58249158249158,NA,NA
97048,Columbia County,OR,91.91919191919192,NA,NA
97058,Wasco County,OR,NA,NA,36.72456575682382
97060,Multnomah County,OR,46.801346801346796,NA,NA
97070,Clackamas County,OR,NA,NA,31.017369727047146
97140,Washington County,OR,59.25925925925925,NA,NA
97229,Washington County,OR,NA,NA,37.96526054590571
97322,Linn County,OR,NA,NA,8.933002481389577
97367,Lincoln County,OR,NA,36.41975308641975,NA
97471,Douglas County,OR,NA,9.25925925925926,NA
15066,Beaver County,PA,77.10437710437711,NA,NA
15071,Allegheny County,PA,84.17508417508418,NA,NA
15219,Allegheny County,PA,NA,53.70370370370371,NA
15221,Allegheny County,PA,NA,27.77777777777778,NA
15237,Allegheny County,PA,NA,25.720164609053498,NA
15332,Washington County,PA,NA,77.9835390946502,NA
15342,Washington County,PA,NA,93.4156378600823,87.09677419354838
15701,Indiana County,PA,NA,20.98765432098765,NA
15904,Cambria County,PA,NA,38.88888888888889,NA
16506,Erie County,PA,72.39057239057239,NA,NA
16635,Blair County,PA,NA,NA,63.77171215880894
17042,Lebanon County,PA,NA,34.97942386831276,NA
17053,Perry County,PA,NA,NA,89.57816377171216
17057,Dauphin County,PA,NA,NA,39.70223325062035
17339,York County,PA,NA,89.09465020576131,NA
17356,York County,PA,64.64646464646465,NA,34.7394540942928
17363,York County,PA,82.15488215488216,NA,NA
17814,Columbia County,PA,NA,89.30041152263375,NA
17815,Columbia County,PA,NA,44.44444444444444,13.399503722084367
17821,Montour County,PA,NA,NA,40.198511166253105
17851,Northumberland County,PA,NA,NA,78.16377171215882
17857,Northumberland County,PA,NA,NA,61.29032258064516
17866,Northumberland County,PA,NA,NA,42.67990074441687
17870,Snyder County,PA,NA,33.744855967078195,NA
18109,Lehigh County,PA,29.629629629629626,NA,NA
18360,Monroe County,PA,NA,NA,14.640198511166252
18428,Pike County,PA,78.11447811447812,NA,NA
18603,Columbia County,PA,NA,55.349794238683124,NA
18651,Luzerne County,PA,NA,NA,60.7940446650124
18705,Luzerne County,PA,NA,NA,62.28287841191067
18822,Susquehanna County,PA,NA,NA,89.0818858560794
18847,Susquehanna County,PA,NA,NA,95.28535980148884
19067,Bucks County,PA,54.54545454545454,NA,NA
19106,Philadelphia County,PA,96.29629629629629,NA,NA
19107,Philadelphia County,PA,49.831649831649834,NA,NA
19115,Philadelphia County,PA,NA,22.22222222222222,NA
19119,Philadelphia County,PA,NA,55.76131687242798,NA
19132,Philadelphia County,PA,10.1010101010101,NA,NA
19134,Philadelphia County,PA,5.387205387205387,NA,NA
19139,Philadelphia County,PA,NA,10.905349794238683,NA
19154,Philadelphia County,PA,NA,NA,26.799007444168733
19320,Chester County,PA,NA,16.255144032921812,NA
19362,Chester County,PA,NA,92.38683127572016,NA
19426,Montgomery County,PA,37.37373737373738,NA,NA
19473,Montgomery County,PA,95.28619528619528,NA,NA
02886,Kent County,RI,NA,26.13168724279835,NA
02905,Providence County,RI,75.75757575757575,NA,NA
02915,Providence County,RI,NA,NA,67.4937965260546
29054,Lexington County,SC,NA,95.88477366255144,NA
29209,Richland County,SC,49.494949494949495,NA,NA
29223,Richland County,SC,27.27272727272727,NA,NA
29323,Spartanburg County,SC,NA,NA,91.56327543424318
29527,Horry County,SC,NA,80.04115226337449,NA
29540,Darlington County,SC,NA,97.11934156378601,NA
29576,Horry County,SC,NA,15.637860082304528,NA
29609,Greenville County,SC,NA,46.502057613168724,NA
29626,Anderson County,SC,NA,NA,54.83870967741935
29687,Greenville County,SC,NA,NA,15.88089330024814
29926,Beaufort County,SC,NA,63.16872427983539,NA
57006,Brookings County,SD,NA,NA,45.90570719602978
57105,Minnehaha County,SD,NA,NA,30.52109181141439
57108,Lincoln County,SD,NA,NA,69.72704714640199
57625,Dewey County,SD,NA,99.79423868312757,NA
37022,Sumner County,TN,87.87878787878788,NA,NA
37033,Hickman County,TN,NA,94.8559670781893,NA
37034,Marshall County,TN,NA,NA,90.07444168734492
37115,Davidson County,TN,NA,NA,32.50620347394541
37334,Lincoln County,TN,NA,33.95061728395062,NA
37377,Hamilton County,TN,NA,24.074074074074073,NA
37419,Hamilton County,TN,NA,93.20987654320987,NA
37641,Greene County,TN,NA,60.288065843621396,NA
37745,Greene County,TN,NA,NA,33.99503722084367
37748,Roane County,TN,36.02693602693603,NA,NA
37777,Blount County,TN,NA,NA,96.27791563275434
37830,Anderson County,TN,NA,27.572016460905353,NA
38305,Madison County,TN,14.14141414141414,NA,NA
38401,Maury County,TN,11.11111111111111,NA,NA
75042,Dallas County,TX,NA,NA,60.049627791563275
75054,Tarrant County,TX,NA,94.03292181069959,NA
75090,Grayson County,TX,52.861952861952865,NA,NA
75147,Kaufman County,TX,NA,85.39094650205762,NA
75217,Dallas County,TX,NA,13.786008230452676,NA
75218,Dallas County,TX,78.78787878787878,NA,NA
75225,Dallas County,TX,NA,57.20164609053497,NA
75287,Denton County,TX,NA,52.674897119341566,NA
75409,Collin County,TX,80.47138047138047,NA,NA
75460,Lamar County,TX,NA,70.98765432098766,NA
75604,Gregg County,TX,NA,NA,71.712158808933
75702,Smith County,TX,NA,NA,66.00496277915633
75801,Anderson County,TX,65.993265993266,NA,NA
75840,Freestone County,TX,94.61279461279462,NA,NA
76002,Tarrant County,TX,59.93265993265994,NA,NA
76050,Johnson County,TX,87.54208754208754,NA,NA
76111,Tarrant County,TX,NA,NA,76.67493796526055
76140,Tarrant County,TX,42.08754208754209,NA,NA
76164,Tarrant County,TX,NA,72.63374485596708,NA
76365,Clay County,TX,NA,79.62962962962963,NA
76502,Bell County,TX,NA,NA,0
76504,Bell County,TX,NA,3.4979423868312756,NA
76528,Coryell County,TX,NA,18.31275720164609,22.8287841191067
76706,McLennan County,TX,NA,NA,97.02233250620348
76708,McLennan County,TX,NA,82.92181069958848,83.12655086848635
76710,McLennan County,TX,NA,NA,66.74937965260546
77031,Harris County,TX,80.13468013468014,NA,NA
77042,Harris County,TX,NA,NA,74.44168734491315
77085,Harris County,TX,NA,83.33333333333334,NA
77096,Harris County,TX,NA,46.2962962962963,NA
77099,Harris County,TX,NA,41.56378600823045,NA
77358,Walker County,TX,NA,NA,94.78908188585608
77365,Montgomery County,TX,NA,61.72839506172839,NA
77449,Harris County,TX,16.161616161616163,NA,NA
77479,Fort Bend County,TX,NA,NA,28.78411910669975
77521,Harris County,TX,NA,NA,36.72456575682382
77550,Galveston County,TX,NA,NA,53.101736972704714
77551,Galveston County,TX,29.96632996632997,NA,58.80893300248139
77563,Galveston County,TX,NA,89.91769547325103,NA
77591,Galveston County,TX,NA,NA,49.87593052109181
77706,Jefferson County,TX,NA,NA,46.898263027295286
77802,Brazos County,TX,29.292929292929294,NA,9.181141439205955
77879,Burleson County,TX,NA,90.12345679012346,NA
78238,Bexar County,TX,NA,94.44444444444444,NA
78253,Bexar County,TX,NA,NA,67.99007444168734
78255,Bexar County,TX,NA,92.18106995884774,NA
78374,San Patricio County,TX,NA,NA,94.29280397022333
78526,Cameron County,TX,NA,63.991769547325106,NA
78537,Hidalgo County,TX,NA,74.69135802469135,NA
78577,Hidalgo County,TX,NA,25.925925925925924,NA
78584,Starr County,TX,70.03367003367003,NA,NA
78639,Llano County,TX,NA,NA,29.03225806451613
78657,Llano County,TX,NA,NA,96.52605459057072
78664,Williamson County,TX,NA,NA,20.34739454094293
78734,Travis County,TX,NA,NA,92.3076923076923
78757,Travis County,TX,93.93939393939394,NA,NA
79336,Hockley County,TX,NA,NA,65.2605459057072
79414,Lubbock County,TX,NA,NA,54.3424317617866
79424,Lubbock County,TX,NA,14.609053497942387,NA
79720,Howard County,TX,56.22895622895623,NA,NA
79915,El Paso County,TX,NA,NA,13.895781637717123
79936,El Paso County,TX,NA,22.42798353909465,NA
84010,Davis County,UT,NA,NA,19.602977667493796
84020,Salt Lake County,UT,NA,64.81481481481481,NA
84088,Salt Lake County,UT,NA,82.71604938271605,NA
84093,Salt Lake County,UT,NA,53.29218106995884,NA
84095,Salt Lake County,UT,NA,31.893004115226336,NA
84103,Salt Lake County,UT,NA,NA,67.74193548387096
84106,Salt Lake County,UT,NA,81.89300411522635,58.56079404466501
84109,Salt Lake County,UT,NA,NA,30.024813895781637
84115,Salt Lake County,UT,NA,37.242798353909464,NA
84404,Weber County,UT,NA,42.38683127572017,NA
84738,Washington County,UT,NA,NA,80.64516129032258
84770,Washington County,UT,NA,32.30452674897119,NA
05001,Windsor County,VT,NA,NA,84.863523573201
05403,Chittenden County,VT,NA,80.45267489711934,NA
05446,Chittenden County,VT,NA,45.06172839506173,NA
05488,Franklin County,VT,NA,59.67078189300411,NA
05661,Lamoille County,VT,NA,87.86008230452676,NA
05819,Caledonia County,VT,NA,NA,65.75682382133995
20109,Prince William County,VA,NA,86.21399176954732,NA
20110,Manassas city,VA,39.05723905723906,NA,NA
22191,Prince William County,VA,NA,67.6954732510288,NA
22902,Charlottesville city,VA,NA,36.62551440329218,NA
22963,Fluvanna County,VA,NA,NA,44.168734491315135
23089,New Kent County,VA,NA,93.00411522633745,NA
23464,Virginia Beach city,VA,21.885521885521886,NA,NA
24112,Henry County,VA,NA,NA,62.531017369727046
24277,Lee County,VA,NA,95.47325102880659,NA
24343,Carroll County,VA,NA,NA,84.11910669975185
24558,Halifax County,VA,91.24579124579124,NA,NA
98007,King County,WA,83.5016835016835,NA,NA
98028,King County,WA,NA,65.84362139917695,NA
98029,King County,WA,NA,63.78600823045267,NA
98052,King County,WA,NA,24.279835390946502,NA
98055,King County,WA,NA,69.34156378600824,NA
98102,King County,WA,75.42087542087542,NA,NA
98103,King County,WA,51.85185185185185,NA,NA
98104,King County,WA,NA,NA,55.33498759305211
98112,King County,WA,NA,66.66666666666666,NA
98115,King County,WA,NA,26.954732510288064,NA
98118,King County,WA,NA,37.86008230452675,NA
98155,King County,WA,NA,NA,72.95285359801488
98177,King County,WA,75.08417508417509,NA,NA
98273,Skagit County,WA,NA,19.34156378600823,NA
98387,Pierce County,WA,26.936026936026934,NA,NA
98801,Chelan County,WA,NA,NA,66.25310173697271
98802,Douglas County,WA,NA,NA,17.121588089330025
98831,Chelan County,WA,NA,99.58847736625515,NA
98901,Yakima County,WA,58.92255892255892,NA,NA
99223,Spokane County,WA,NA,NA,49.87593052109181
99338,Benton County,WA,63.2996632996633,NA,NA
99352,Benton County,WA,NA,NA,2.481389578163772
20010,District of Columbia,DC,NA,93.82716049382715,NA
25213,Putnam County,WV,NA,91.56378600823045,NA
25271,Jackson County,WV,NA,NA,93.79652605459057
25309,Kanawha County,WV,NA,91.9753086419753,NA
26041,Marshall County,WV,NA,23.868312757201647,NA
26101,Wood County,WV,NA,8.641975308641975,NA
26175,Tyler County,WV,95.95959595959596,NA,NA
26201,Upshur County,WV,NA,21.193415637860085,NA
26554,Marion County,WV,7.744107744107744,NA,NA
26726,Mineral County,WV,NA,41.358024691358025,NA
53029,Waukesha County,WI,NA,NA,52.357320099255574
53045,Waukesha County,WI,NA,49.382716049382715,NA
53051,Waukesha County,WI,48.148148148148145,NA,NA
53066,Waukesha County,WI,NA,NA,19.106699751861044
53094,Jefferson County,WI,NA,81.6872427983539,NA
53095,Washington County,WI,55.218855218855225,NA,NA
53098,Dodge County,WI,NA,NA,80.64516129032258
53105,Racine County,WI,NA,44.650205761316876,NA
53118,Waukesha County,WI,NA,NA,94.54094292803971
53132,Milwaukee County,WI,NA,NA,45.16129032258064
53151,Waukesha County,WI,44.78114478114478,NA,NA
53184,Walworth County,WI,97.64309764309765,NA,NA
53188,Waukesha County,WI,NA,21.604938271604937,NA
53189,Waukesha County,WI,NA,34.15637860082305,NA
53204,Milwaukee County,WI,NA,NA,64.51612903225806
53205,Milwaukee County,WI,4.377104377104377,NA,NA
53210,Milwaukee County,WI,12.457912457912458,NA,NA
53211,Milwaukee County,WI,69.02356902356902,NA,59.30521091811415
53212,Milwaukee County,WI,NA,NA,87.59305210918114
53213,Milwaukee County,WI,NA,NA,88.58560794044665
53217,Milwaukee County,WI,NA,30.45267489711934,NA
53218,Milwaukee County,WI,74.41077441077442,NA,NA
53222,Milwaukee County,WI,NA,NA,53.59801488833747
53226,Milwaukee County,WI,NA,NA,38.46153846153847
53511,Rock County,WI,NA,0.411522633744856,NA
53538,Jefferson County,WI,NA,NA,79.4044665012407
53546,Rock County,WI,NA,6.584362139917696,NA
53562,Dane County,WI,78.45117845117845,29.4238683127572,NA
53594,Jefferson County,WI,NA,96.91358024691358,NA
53704,Dane County,WI,NA,NA,35.235732009925556
53713,Dane County,WI,57.23905723905723,NA,NA
53714,Dane County,WI,NA,NA,65.50868486352357
53717,Dane County,WI,NA,NA,97.51861042183623
54001,Polk County,WI,NA,56.79012345679012,NA
54016,St. Croix County,WI,NA,49.58847736625515,NA
54481,Portage County,WI,24.242424242424242,NA,7.444168734491314
54601,La Crosse County,WI,NA,33.53909465020576,42.4317617866005
54650,La Crosse County,WI,NA,NA,2.977667493796526
54656,Monroe County,WI,NA,NA,17.617866004962778
54660,Monroe County,WI,NA,50.20576131687243,NA
54729,Chippewa County,WI,NA,NA,25.31017369727047
54771,Clark County,WI,NA,98.97119341563786,NA
54830,Burnett County,WI,NA,93.62139917695474,NA
54901,Winnebago County,WI,NA,32.71604938271605,NA
54915,Outagamie County,WI,38.38383838383838,NA,NA
54929,Waupaca County,WI,NA,82.51028806584361,NA
82834,Johnson County,WY,NA,NA,79.90074441687345
