ZipCode,county,state,Adult,Geriatric
35023,Jefferson County,AL,NA,21.243523316062177
35160,Talladega County,AL,NA,35.233160621761655
35242,Shelby County,AL,33.177570093457945,NA
35603,Morgan County,AL,17.289719626168225,NA
35768,Jackson County,AL,66.35514018691589,NA
35905,Etowah County,AL,90.65420560747664,NA
36092,Elmore County,AL,50,NA
36104,Montgomery County,AL,60.747663551401864,NA
36426,Escambia County,AL,62.149532710280376,NA
36445,Monroe County,AL,NA,100
99504,Anchorage Municipality,AK,22.429906542056074,NA
99654,Matanuska-Susitna Borough,AK,37.850467289719624,NA
85037,Maricopa County,AZ,25.70093457943925,NA
85208,Maricopa County,AZ,NA,26.94300518134715
85281,Maricopa County,AZ,NA,90.67357512953367
85282,Maricopa County,AZ,43.925233644859816,NA
85382,Maricopa County,AZ,NA,14.507772020725387
85607,Cochise County,AZ,28.971962616822427,NA
85706,Pima County,AZ,0.9345794392523363,NA
85710,Pima County,AZ,71.02803738317756,NA
85711,Pima County,AZ,34.112149532710276,NA
85746,Pima County,AZ,44.39252336448598,NA
86326,Yavapai County,AZ,25.233644859813083,NA
71603,Jefferson County,AR,NA,25.38860103626943
71923,Clark County,AR,NA,58.03108808290155
72543,Cleburne County,AR,NA,85.49222797927462
72703,Washington County,AR,NA,56.994818652849744
72761,Benton County,AR,NA,83.41968911917098
90047,Los Angeles County,CA,NA,27.461139896373055
90201,Los Angeles County,CA,68.69158878504673,NA
90404,Los Angeles County,CA,NA,95.85492227979275
90706,Los Angeles County,CA,NA,67.35751295336787
90807,Los Angeles County,CA,NA,50.77720207253886
91945,San Diego County,CA,94.85981308411215,NA
92064,San Diego County,CA,54.20560747663551,NA
92104,San Diego County,CA,NA,80.31088082901555
92130,San Diego County,CA,NA,81.34715025906736
92505,Riverside County,CA,NA,99.48186528497409
92553,Riverside County,CA,27.570093457943923,NA
92649,Orange County,CA,NA,39.37823834196891
92683,Orange County,CA,NA,4.145077720207254
93230,Kings County,CA,19.626168224299064,23.83419689119171
93550,Los Angeles County,CA,NA,51.29533678756477
94022,Santa Clara County,CA,NA,66.83937823834198
94403,San Mateo County,CA,NA,9.844559585492227
94901,Marin County,CA,NA,41.45077720207254
95008,Santa Clara County,CA,69.1588785046729,NA
95127,Santa Clara County,CA,42.99065420560748,NA
95519,Humboldt County,CA,75.70093457943925,NA
95531,Del Norte County,CA,NA,36.787564766839374
95667,El Dorado County,CA,69.62616822429906,NA
95901,Yuba County,CA,NA,59.58549222797927
95946,Nevada County,CA,NA,74.09326424870466
95973,Butte County,CA,24.299065420560748,NA
95988,Glenn County,CA,87.38317757009347,NA
80123,Jefferson County,CO,NA,36.787564766839374
80206,Denver County,CO,NA,80.82901554404145
81101,Alamosa County,CO,47.19626168224299,NA
06040,Hartford County,CT,NA,25.906735751295333
06066,Tolland County,CT,18.69158878504673,NA
06109,Hartford County,CT,NA,34.196891191709845
06418,New Haven County,CT,NA,72.02072538860104
06606,Fairfield County,CT,19.158878504672895,NA
32095,St. Johns County,FL,92.5233644859813,NA
32210,Duval County,FL,1.8691588785046727,NA
32217,Duval County,FL,74.76635514018692,NA
32233,Duval County,FL,NA,53.8860103626943
32505,Escambia County,FL,20.093457943925234,NA
32507,Escambia County,FL,NA,15.025906735751295
32526,Escambia County,FL,NA,7.253886010362693
32563,Santa Rosa County,FL,NA,26.42487046632124
32606,Alachua County,FL,35.046728971962615,NA
32804,Orange County,FL,87.85046728971963,77.720207253886
32812,Orange County,FL,NA,24.352331606217618
32901,Brevard County,FL,60.280373831775705,NA
32907,Brevard County,FL,NA,18.65284974093264
32967,Indian River County,FL,78.97196261682244,NA
33009,Broward County,FL,NA,8.290155440414509
33771,Pinellas County,FL,NA,22.797927461139896
33801,Polk County,FL,NA,52.331606217616574
33803,Polk County,FL,66.82242990654206,NA
33990,Lee County,FL,38.78504672897196,NA
34231,Sarasota County,FL,NA,3.6269430051813467
34233,Sarasota County,FL,NA,27.979274611398964
34285,Sarasota County,FL,NA,10.362694300518134
34601,Hernando County,FL,53.271028037383175,NA
30120,Bartow County,GA,NA,55.44041450777202
30125,Polk County,GA,72.89719626168224,NA
30741,Walker County,GA,NA,48.18652849740933
30817,Lincoln County,GA,85.51401869158879,NA
31320,Liberty County,GA,NA,98.96373056994818
31503,Ware County,GA,56.54205607476636,NA
31520,Glynn County,GA,NA,62.69430051813472
31634,Clinch County,GA,89.7196261682243,NA
31792,Thomas County,GA,35.51401869158878,NA
31794,Tift County,GA,NA,43.005181347150256
31907,Muscogee County,GA,NA,2.072538860103627
83647,Elmore County,ID,48.598130841121495,NA
60068,Cook County,IL,100,NA
60085,Lake County,IL,NA,61.13989637305699
60188,DuPage County,IL,20.5607476635514,NA
60201,Cook County,IL,NA,71.50259067357513
60477,Cook County,IL,26.635514018691588,NA
60586,Will County,IL,14.018691588785046,NA
60611,Cook County,IL,NA,8.808290155440414
60617,Cook County,IL,NA,16.06217616580311
60629,Cook County,IL,NA,7.772020725388601
61021,Lee County,IL,NA,1.5544041450777202
61853,Champaign County,IL,NA,33.160621761658035
62526,Macon County,IL,10.2803738317757,NA
62812,Franklin County,IL,NA,38.860103626943
62822,Franklin County,IL,99.53271028037383,NA
46012,Madison County,IN,40.18691588785047,NA
46214,Marion County,IN,86.44859813084112,NA
46237,Marion County,IN,21.49532710280374,NA
46350,LaPorte County,IN,6.5420560747663545,NA
46360,LaPorte County,IN,3.2710280373831773,NA
46383,Porter County,IN,NA,12.953367875647666
46582,Kosciusko County,IN,79.90654205607477,NA
46901,Howard County,IN,NA,5.699481865284974
47025,Dearborn County,IN,42.523364485981304,NA
47374,Wayne County,IN,NA,0
47421,Lawrence County,IN,NA,38.34196891191709
47438,Greene County,IN,93.45794392523365,NA
47446,Lawrence County,IN,NA,79.27461139896373
47725,Vanderburgh County,IN,88.3177570093458,NA
47834,Clay County,IN,33.64485981308411,NA
50014,Story County,IA,NA,56.476683937823836
50322,Polk County,IA,NA,89.11917098445595
50401,Cerro Gordo County,IA,11.214953271028037,NA
52101,Winneshiek County,IA,74.29906542056075,NA
52240,Johnson County,IA,NA,29.015544041450774
52403,Linn County,IA,45.794392523364486,NA
52501,Wapello County,IA,13.084112149532709,NA
52732,Clinton County,IA,NA,76.68393782383419
66203,Johnson County,KS,83.64485981308411,NA
66749,Allen County,KS,NA,60.10362694300518
67133,Butler County,KS,99.06542056074767,NA
67401,Saline County,KS,21.962616822429908,NA
67701,Thomas County,KS,78.03738317757009,NA
40057,Henry County,KY,95.7943925233645,NA
40220,Jefferson County,KY,40.654205607476634,NA
40229,Jefferson County,KY,NA,59.067357512953365
40241,Jefferson County,KY,NA,30.569948186528496
40359,Owen County,KY,85.04672897196261,NA
40962,Clay County,KY,NA,49.740932642487046
40965,Bell County,KY,64.48598130841121,NA
41144,Greenup County,KY,NA,76.16580310880829
41240,Johnson County,KY,61.6822429906542,NA
41501,Pike County,KY,NA,32.64248704663213
42001,McCracken County,KY,30.8411214953271,NA
42164,Allen County,KY,NA,75.12953367875647
42503,Pulaski County,KY,NA,69.94818652849742
70615,Calcasieu Parish,LA,23.364485981308412,NA
70648,Allen Parish,LA,NA,95.33678756476684
71107,Caddo Parish,LA,NA,29.533678756476682
71446,Vernon Parish,LA,8.878504672897195,NA
04101,Cumberland County,ME,71.49532710280374,NA
04103,Cumberland County,ME,NA,13.989637305699482
04240,Androscoggin County,ME,NA,1.0362694300518136
04429,Penobscot County,ME,NA,92.74611398963731
04605,Hancock County,ME,48.13084112149533,NA
04976,Somerset County,ME,NA,16.580310880829018
20744,Prince George's County,MD,50.467289719626166,NA
21207,Baltimore County,MD,22.897196261682243,NA
21214,Baltimore city,MD,65.42056074766354,NA
21234,Baltimore County,MD,16.355140186915886,NA
21740,Washington County,MD,93.92523364485982,NA
01605,Worcester County,MA,67.7570093457944,NA
01843,Essex County,MA,75.23364485981308,NA
01863,Middlesex County,MA,57.476635514018696,NA
01886,Middlesex County,MA,NA,47.66839378238342
01949,Essex County,MA,51.4018691588785,NA
02052,Norfolk County,MA,NA,88.60103626943005
02124,Suffolk County,MA,0,NA
02134,Suffolk County,MA,10.74766355140187,NA
02135,Suffolk County,MA,NA,10.880829015544041
02421,Middlesex County,MA,NA,46.1139896373057
02445,Norfolk County,MA,NA,32.12435233160622
02718,Bristol County,MA,83.17757009345794,NA
48033,Oakland County,MI,NA,20.207253886010363
48091,Macomb County,MI,4.672897196261682,NA
48183,Wayne County,MI,7.009345794392523,NA
48326,Oakland County,MI,81.77570093457945,NA
48430,Genesee County,MI,NA,19.689119170984455
48442,Oakland County,MI,51.86915887850467,NA
48461,Lapeer County,MI,NA,90.15544041450777
48624,Gladwin County,MI,NA,20.72538860103627
48651,Roscommon County,MI,NA,91.70984455958549
48723,Tuscola County,MI,29.439252336448597,NA
48867,Shiawassee County,MI,5.14018691588785,NA
48917,Eaton County,MI,NA,9.32642487046632
49506,Kent County,MI,NA,51.813471502590666
55021,Rice County,MN,73.36448598130842,NA
55369,Hennepin County,MN,36.44859813084112,NA
55405,Hennepin County,MN,NA,86.52849740932642
55412,Hennepin County,MN,57.943925233644855,NA
55418,Hennepin County,MN,28.504672897196258,NA
55720,Carlton County,MN,82.2429906542056,NA
55792,St. Louis County,MN,NA,23.316062176165804
55805,St. Louis County,MN,49.532710280373834,NA
56007,Freeborn County,MN,14.953271028037381,NA
56215,Swift County,MN,NA,87.56476683937824
56501,Becker County,MN,NA,92.2279792746114
56544,Becker County,MN,96.26168224299066,NA
38916,Calhoun County,MS,NA,97.92746113989638
38921,Tallahatchie County,MS,NA,93.26424870466322
38930,Leflore County,MS,NA,65.28497409326425
38965,Yalobusha County,MS,NA,69.94818652849742
63042,St. Louis County,MO,50.93457943925234,NA
63135,St. Louis County,MO,81.30841121495327,NA
63144,St. Louis County,MO,NA,96.89119170984456
63645,Madison County,MO,NA,49.22279792746114
63670,Ste. Genevieve County,MO,NA,60.62176165803109
64060,Clay County,MO,NA,65.80310880829016
64064,Jackson County,MO,56.074766355140184,NA
64076,Lafayette County,MO,NA,87.04663212435233
64139,Jackson County,MO,98.5981308411215,NA
64744,Cedar County,MO,NA,75.64766839378238
65251,Callaway County,MO,31.308411214953267,NA
65605,Lawrence County,MO,97.19626168224299,NA
59404,Cascade County,MT,NA,11.917098445595855
59912,Flathead County,MT,NA,52.84974093264248
68008,Washington County,NE,NA,64.24870466321244
68112,Douglas County,NE,84.57943925233646,NA
89801,Elko County,NV,NA,87.56476683937824
07052,Essex County,NJ,14.485981308411214,NA
07067,Middlesex County,NJ,NA,54.92227979274611
07081,Union County,NJ,89.25233644859813,NA
07110,Essex County,NJ,76.16822429906543,NA
08525,Mercer County,NJ,98.13084112149532,NA
08540,Mercer County,NJ,39.719626168224295,NA
08619,Mercer County,NJ,52.336448598130836,NA
08753,Ocean County,NJ,NA,63.730569948186535
08759,Ocean County,NJ,8.411214953271028,NA
08812,Middlesex County,NJ,72.42990654205607,NA
10016,New York County,NY,NA,24.870466321243523
10314,Richmond County,NY,NA,4.66321243523316
10543,Westchester County,NY,92.05607476635514,NA
11105,Queens County,NY,63.55140186915887,NA
12010,Montgomery County,NY,NA,5.181347150259067
12804,Warren County,NY,6.074766355140187,NA
13365,Herkimer County,NY,34.57943925233645,NA
13440,Oneida County,NY,NA,41.968911917098445
14150,Erie County,NY,3.7383177570093453,NA
14456,Ontario County,NY,NA,45.07772020725388
14590,Wayne County,NY,77.10280373831776,NA
14612,Monroe County,NY,0.46728971962616817,NA
14760,Cattaraugus County,NY,7.943925233644859,NA
14870,Steuben County,NY,NA,69.43005181347151
27101,Forsyth County,NC,94.39252336448598,NA
27534,Wayne County,NC,NA,31.606217616580313
27560,Wake County,NC,NA,91.19170984455958
27592,Wake County,NC,NA,79.79274611398964
27896,Wilson County,NC,54.67289719626168,NA
28023,Rowan County,NC,71.96261682242991,NA
28025,Cabarrus County,NC,9.345794392523365,NA
28054,Gaston County,NC,21.02803738317757,NA
28348,Cumberland County,NC,37.38317757009346,NA
28443,Pender County,NC,NA,73.05699481865285
28530,Pitt County,NC,90.65420560747664,NA
28645,Caldwell County,NC,NA,15.544041450777202
28655,Burke County,NC,2.803738317757009,NA
28694,Ashe County,NC,NA,78.23834196891191
28901,Cherokee County,NC,96.72897196261682,NA
58701,Ward County,ND,NA,0.5181347150259068
43074,Delaware County,OH,82.71028037383178,NA
43223,Franklin County,OH,4.205607476635514,NA
43512,Defiance County,OH,NA,47.15025906735752
43560,Lucas County,OH,NA,78.75647668393782
43615,Lucas County,OH,1.4018691588785046,NA
43935,Belmont County,OH,NA,67.35751295336787
44118,Cuyahoga County,OH,41.58878504672897,NA
44132,Cuyahoga County,OH,61.21495327102804,NA
44138,Cuyahoga County,OH,NA,21.761658031088082
44484,Trumbull County,OH,NA,17.098445595854923
44683,Tuscarawas County,OH,26.168224299065418,NA
45069,Butler County,OH,23.83177570093458,13.471502590673575
45176,Clermont County,OH,70.09345794392523,NA
45214,Hamilton County,OH,79.43925233644859,NA
45426,Montgomery County,OH,55.60747663551402,NA
45742,Washington County,OH,92.99065420560748,NA
73020,Oklahoma County,OK,NA,58.549222797927456
73108,Oklahoma County,OK,NA,96.37305699481865
73110,Oklahoma County,OK,NA,12.435233160621761
74127,Tulsa County,OK,NA,70.98445595854922
97038,Clackamas County,OR,90.18691588785047,NA
97070,Clackamas County,OR,67.28971962616822,35.233160621761655
97132,Yamhill County,OR,41.1214953271028,NA
97216,Multnomah County,OR,NA,42.487046632124354
97220,Multnomah County,OR,NA,44.04145077720207
97303,Marion County,OR,42.99065420560748,NA
97321,Linn County,OR,28.037383177570092,NA
97381,Marion County,OR,NA,84.4559585492228
97383,Marion County,OR,80.8411214953271,NA
97496,Douglas County,OR,NA,89.63730569948186
15009,Beaver County,PA,NA,36.26943005181347
15206,Allegheny County,PA,18.22429906542056,NA
15208,Allegheny County,PA,57.009345794392516,NA
15239,Allegheny County,PA,NA,45.59585492227979
15401,Fayette County,PA,5.607476635514018,NA
15690,Westmoreland County,PA,78.50467289719626,NA
16148,Mercer County,PA,NA,73.57512953367875
16504,Erie County,PA,65.88785046728972,NA
16508,Erie County,PA,55.140186915887845,NA
17003,Lebanon County,PA,88.78504672897196,NA
17022,Lancaster County,PA,17.75700934579439,NA
17042,Lebanon County,PA,59.813084112149525,NA
17046,Lebanon County,PA,7.476635514018691,NA
17109,Dauphin County,PA,NA,68.39378238341969
17543,Lancaster County,PA,NA,55.95854922279793
17948,Schuylkill County,PA,91.58878504672897,NA
18436,Wayne County,PA,NA,68.9119170984456
18612,Luzerne County,PA,NA,34.715025906735754
18651,Luzerne County,PA,NA,63.212435233160626
18702,Luzerne County,PA,NA,6.217616580310881
18706,Luzerne County,PA,NA,39.89637305699482
19001,Montgomery County,PA,NA,77.2020725388601
19002,Montgomery County,PA,39.25233644859813,NA
19138,Philadelphia County,PA,NA,28.497409326424872
19151,Philadelphia County,PA,12.149532710280374,NA
19382,Chester County,PA,49.06542056074766,NA
02861,Providence County,RI,32.242990654205606,37.82383419689119
02878,Newport County,RI,NA,61.6580310880829
02886,Kent County,RI,NA,6.7357512953367875
02893,Kent County,RI,36.915887850467286,NA
02904,Providence County,RI,NA,18.134715025906736
29302,Spartanburg County,SC,NA,62.17616580310881
29349,Spartanburg County,SC,63.084112149532714,NA
29379,Union County,SC,NA,84.97409326424871
29588,Horry County,SC,38.31775700934579,NA
29687,Greenville County,SC,31.775700934579437,NA
37075,Sumner County,TN,15.887850467289718,NA
37128,Rutherford County,TN,29.906542056074763,NA
37207,Davidson County,TN,NA,53.36787564766839
37217,Davidson County,TN,44.85981308411215,NA
37321,Rhea County,TN,30.373831775700932,NA
37329,McMinn County,TN,NA,94.30051813471503
37355,Coffee County,TN,35.981308411214954,NA
37379,Hamilton County,TN,NA,64.76683937823834
37777,Blount County,TN,64.95327102803739,NA
37918,Knox County,TN,12.616822429906541,NA
37919,Knox County,TN,58.41121495327103,NA
37934,Knox County,TN,80.37383177570094,NA
38068,Fayette County,TN,85.98130841121495,NA
38115,Shelby County,TN,24.766355140186917,NA
38464,Lawrence County,TN,32.71028037383177,NA
75078,Collin County,TX,NA,98.44559585492227
75241,Dallas County,TX,NA,19.170984455958546
75951,Jasper County,TX,52.80373831775701,NA
75966,Newton County,TX,NA,82.38341968911918
76028,Johnson County,TX,NA,11.398963730569948
76033,Johnson County,TX,NA,50.259067357512954
76126,Tarrant County,TX,77.57009345794393,NA
76230,Montague County,TX,NA,97.40932642487047
76667,Limestone County,TX,86.91588785046729,NA
76705,McLennan County,TX,NA,30.569948186528496
77021,Harris County,TX,NA,46.63212435233161
77066,Harris County,TX,NA,81.86528497409327
77087,Harris County,TX,NA,83.93782383419689
77095,Harris County,TX,NA,48.704663212435236
77406,Fort Bend County,TX,76.63551401869158,NA
77429,Harris County,TX,NA,22.279792746113987
77598,Harris County,TX,62.616822429906534,NA
78130,Comal County,TX,59.345794392523366,NA
78209,Bexar County,TX,68.22429906542055,NA
78216,Bexar County,TX,46.26168224299065,NA
78589,Hidalgo County,TX,42.05607476635514,NA
78934,Colorado County,TX,NA,57.51295336787565
79336,Hockley County,TX,NA,66.32124352331607
79360,Gaines County,TX,NA,54.40414507772021
79703,Midland County,TX,NA,93.78238341968913
84003,Utah County,UT,46.728971962616825,NA
84047,Salt Lake County,UT,27.102803738317753,NA
84119,Salt Lake County,UT,NA,40.932642487046635
05641,Washington County,VT,70.56074766355141,NA
20155,Prince William County,VA,64.01869158878505,NA
22304,Alexandria city,VA,13.551401869158877,NA
22980,Waynesboro city,VA,NA,3.1088082901554404
98003,King County,WA,95.32710280373831,NA
98031,King County,WA,NA,44.559585492227974
98058,King County,WA,NA,40.41450777202073
98284,Skagit County,WA,NA,17.616580310880828
98366,Kitsap County,WA,NA,30.05181347150259
98823,Grant County,WA,84.11214953271028,NA
20003,District of Columbia,DC,53.73831775700935,72.53886010362694
25801,Raleigh County,WV,11.682242990654206,NA
25918,Raleigh County,WV,97.66355140186917,NA
26508,Monongalia County,WV,45.32710280373832,NA
53083,Sheboygan County,WI,73.83177570093457,NA
53144,Kenosha County,WI,16.822429906542055,NA
53147,Walworth County,WI,47.66355140186916,NA
53189,Waukesha County,WI,58.87850467289719,NA
53215,Milwaukee County,WI,2.336448598130841,NA
53704,Dane County,WI,9.813084112149532,NA
53813,Grant County,WI,NA,94.81865284974094
53821,Crawford County,WI,NA,74.61139896373057
54016,St. Croix County,WI,NA,43.523316062176164
54217,Kewaunee County,WI,NA,86.01036269430051
54650,La Crosse County,WI,NA,2.5906735751295336
54913,Outagamie County,WI,NA,82.38341968911918
54935,Fond du Lac County,WI,15.42056074766355,NA
82801,Sheridan County,WY,NA,33.67875647668394
