ZipCode,county,state,Adult,Retirement,Geriatric
35064,Jefferson County,AL,60.550458715596335,NA,NA
35080,Shelby County,AL,NA,NA,89.25233644859813
35405,Tuscaloosa County,AL,NA,14.130434782608695,NA
35563,Marion County,AL,NA,88.04347826086956,NA
35645,Lauderdale County,AL,71.55963302752293,NA,NA
35976,Marshall County,AL,46.330275229357795,NA,NA
36081,Pike County,AL,80.27522935779817,68.75,NA
99517,Anchorage Municipality,AK,NA,78.53260869565217,NA
99709,Fairbanks North Star Borough,AK,NA,57.608695652173914,NA
85007,Maricopa County,AZ,NA,34.51086956521739,NA
85233,Maricopa County,AZ,NA,57.065217391304344,NA
85302,Maricopa County,AZ,26.605504587155966,NA,NA
85303,Maricopa County,AZ,NA,71.73913043478261,NA
85331,Maricopa County,AZ,NA,NA,61.6822429906542
85365,Yuma County,AZ,28.899082568807337,NA,NA
85616,Cochise County,AZ,NA,NA,95.32710280373831
86033,Navajo County,AZ,86.23853211009175,NA,NA
86326,Yavapai County,AZ,83.02752293577981,NA,NA
86409,Mohave County,AZ,NA,4.619565217391304,NA
71639,Desha County,AR,NA,NA,69.1588785046729
71913,Garland County,AR,NA,28.26086956521739,10.74766355140187
72103,Saline County,AR,81.65137614678899,NA,NA
72104,Hot Spring County,AR,57.798165137614674,NA,NA
72360,Lee County,AR,97.24770642201835,NA,NA
72450,Greene County,AR,22.477064220183486,NA,NA
72653,Baxter County,AR,NA,NA,7.476635514018691
72762,Washington County,AR,NA,NA,56.074766355140184
90005,Los Angeles County,CA,NA,77.17391304347827,68.69158878504673
90006,Los Angeles County,CA,66.5137614678899,NA,NA
90027,Los Angeles County,CA,NA,59.78260869565217,NA
90037,Los Angeles County,CA,34.862385321100916,NA,NA
90065,Los Angeles County,CA,NA,37.5,NA
90660,Los Angeles County,CA,NA,NA,25.233644859813083
90740,Orange County,CA,NA,45.92391304347826,NA
91104,Los Angeles County,CA,NA,53.80434782608695,NA
91214,Los Angeles County,CA,NA,NA,51.86915887850467
91303,Los Angeles County,CA,NA,85.86956521739131,NA
91304,Los Angeles County,CA,NA,54.347826086956516,NA
91316,Los Angeles County,CA,NA,NA,26.168224299065418
91367,Los Angeles County,CA,NA,52.17391304347826,NA
91706,Los Angeles County,CA,27.06422018348624,NA,NA
91709,San Bernardino County,CA,NA,29.076086956521742,NA
91710,San Bernardino County,CA,34.403669724770644,NA,NA
91723,Los Angeles County,CA,77.52293577981652,NA,NA
91731,Los Angeles County,CA,NA,61.684782608695656,NA
91761,San Bernardino County,CA,NA,35.05434782608695,NA
91791,Los Angeles County,CA,NA,51.902173913043484,NA
91901,San Diego County,CA,62.38532110091744,NA,NA
92014,San Diego County,CA,NA,84.23913043478261,NA
92021,San Diego County,CA,44.95412844036697,NA,NA
92129,San Diego County,CA,NA,50.27173913043478,52.336448598130836
92203,Riverside County,CA,NA,19.83695652173913,NA
92260,Riverside County,CA,NA,15.217391304347828,1.4018691588785046
92505,Riverside County,CA,NA,93.47826086956522,NA
92506,Riverside County,CA,72.01834862385321,NA,NA
92509,Riverside County,CA,NA,40.48913043478261,NA
92570,Riverside County,CA,40.825688073394495,NA,NA
92627,Orange County,CA,NA,32.33695652173913,NA
92629,Orange County,CA,NA,42.934782608695656,NA
92662,Orange County,CA,NA,NA,90.18691588785047
92677,Orange County,CA,NA,11.684782608695652,NA
92692,Orange County,CA,NA,26.08695652173913,NA
92804,Orange County,CA,NA,20.380434782608695,NA
92807,Orange County,CA,NA,75.27173913043478,NA
92831,Orange County,CA,78.44036697247707,NA,67.28971962616822
92860,Riverside County,CA,72.47706422018348,NA,NA
92867,Orange County,CA,NA,NA,35.981308411214954
92881,Riverside County,CA,NA,76.3586956521739,NA
92887,Orange County,CA,73.85321100917432,NA,NA
93004,Ventura County,CA,55.96330275229357,NA,NA
93022,Ventura County,CA,NA,NA,98.13084112149532
93060,Ventura County,CA,NA,92.11956521739131,NA
93210,Fresno County,CA,97.70642201834863,NA,NA
93263,Kern County,CA,92.66055045871559,NA,NA
93305,Kern County,CA,NA,85.05434782608695,NA
93307,Kern County,CA,NA,18.75,NA
93312,Kern County,CA,NA,46.73913043478261,NA
93313,Kern County,CA,NA,NA,82.71028037383178
93436,Santa Barbara County,CA,NA,16.847826086956523,NA
93534,Los Angeles County,CA,NA,41.30434782608695,NA
93550,Los Angeles County,CA,16.055045871559635,48.91304347826087,NA
93560,Kern County,CA,75.68807339449542,NA,NA
93643,Madera County,CA,NA,98.36956521739131,NA
93727,Fresno County,CA,NA,NA,41.58878504672897
93907,Monterey County,CA,NA,79.07608695652173,NA
94025,San Mateo County,CA,NA,39.130434782608695,NA
94134,San Francisco County,CA,NA,29.6195652173913,NA
94503,Napa County,CA,NA,NA,68.22429906542055
94510,Solano County,CA,NA,NA,70.56074766355141
94580,Alameda County,CA,NA,NA,60.280373831775705
94619,Alameda County,CA,NA,61.95652173913043,NA
95008,Santa Clara County,CA,NA,NA,27.102803738317753
95023,San Benito County,CA,NA,72.01086956521739,NA
95119,Santa Clara County,CA,NA,95.1086956521739,NA
95307,Stanislaus County,CA,31.65137614678899,NA,NA
95337,San Joaquin County,CA,38.53211009174312,NA,NA
95363,Stanislaus County,CA,93.11926605504587,NA,NA
95618,Yolo County,CA,NA,92.3913043478261,NA
95828,Sacramento County,CA,83.4862385321101,NA,NA
95831,Sacramento County,CA,NA,NA,25.70093457943925
95969,Butte County,CA,NA,36.41304347826087,NA
96101,Modoc County,CA,NA,95.92391304347827,NA
80122,Arapahoe County,CO,NA,55.97826086956522,NA
80219,Denver County,CO,6.422018348623854,NA,NA
80439,Jefferson County,CO,NA,53.53260869565217,NA
80516,Weld County,CO,NA,64.94565217391305,NA
80642,Weld County,CO,NA,99.18478260869566,NA
80701,Morgan County,CO,NA,NA,81.30841121495327
80723,Morgan County,CO,NA,NA,85.04672897196261
81005,Pueblo County,CO,NA,NA,72.42990654205607
06032,Hartford County,CT,NA,95.65217391304348,NA
06415,New London County,CT,55.04587155963303,NA,NA
06418,New Haven County,CT,NA,69.83695652173914,NA
06511,New Haven County,CT,NA,12.228260869565217,NA
06512,New Haven County,CT,NA,NA,15.42056074766355
06614,Fairfield County,CT,NA,NA,27.102803738317753
06798,Litchfield County,CT,NA,NA,67.7570093457944
06811,Fairfield County,CT,NA,30.706521739130434,NA
06820,Fairfield County,CT,NA,NA,81.77570093457945
06905,Fairfield County,CT,NA,NA,45.794392523364486
19713,New Castle County,DE,NA,31.25,NA
19901,Kent County,DE,NA,20.108695652173914,NA
19934,Kent County,DE,71.10091743119266,NA,NA
32024,Columbia County,FL,NA,43.75,NA
32060,Suwannee County,FL,NA,49.184782608695656,NA
32091,Bradford County,FL,NA,43.47826086956522,NA
32127,Volusia County,FL,NA,NA,28.504672897196258
32129,Volusia County,FL,NA,70.92391304347827,NA
32209,Duval County,FL,NA,NA,52.80373831775701
32244,Duval County,FL,NA,12.5,NA
32254,Duval County,FL,48.1651376146789,NA,NA
32536,Okaloosa County,FL,NA,27.717391304347828,NA
32563,Santa Rosa County,FL,NA,25.271739130434785,NA
32708,Seminole County,FL,44.4954128440367,NA,NA
32958,Indian River County,FL,NA,13.586956521739129,NA
33133,Miami-Dade County,FL,NA,NA,31.775700934579437
33139,Miami-Dade County,FL,NA,NA,9.345794392523365
33142,Miami-Dade County,FL,NA,NA,56.54205607476636
33150,Miami-Dade County,FL,52.293577981651374,NA,NA
33165,Miami-Dade County,FL,NA,37.22826086956522,NA
33187,Miami-Dade County,FL,NA,NA,74.76635514018692
33189,Miami-Dade County,FL,88.07339449541286,NA,NA
33415,Palm Beach County,FL,NA,69.02173913043478,NA
33435,Palm Beach County,FL,46.788990825688074,NA,NA
33437,Palm Beach County,FL,NA,NA,0.46728971962616817
33462,Palm Beach County,FL,NA,NA,46.26168224299065
33756,Pinellas County,FL,NA,NA,40.18691588785047
33919,Lee County,FL,NA,15.489130434782608,NA
33955,Charlotte County,FL,NA,68.20652173913044,NA
33982,Charlotte County,FL,NA,85.59782608695652,NA
34104,Collier County,FL,NA,NA,48.13084112149533
34119,Collier County,FL,NA,28.804347826086957,NA
34205,Manatee County,FL,NA,NA,77.10280373831776
34209,Manatee County,FL,NA,NA,22.429906542056074
34238,Sarasota County,FL,NA,41.84782608695652,NA
34436,Citrus County,FL,NA,80.70652173913044,NA
34446,Citrus County,FL,80.73394495412845,NA,NA
34652,Pasco County,FL,NA,NA,47.19626168224299
34743,Osceola County,FL,NA,64.13043478260869,NA
34949,St. Lucie County,FL,95.87155963302753,NA,NA
34950,St. Lucie County,FL,53.669724770642205,NA,NA
34996,Martin County,FL,NA,NA,28.971962616822427
30032,DeKalb County,GA,NA,13.31521739130435,NA
30126,Cobb County,GA,NA,88.8586956521739,NA
30182,Carroll County,GA,99.08256880733946,NA,NA
30215,Fayette County,GA,61.46788990825688,NA,NA
30241,Troup County,GA,28.440366972477065,NA,NA
30248,Henry County,GA,NA,63.04347826086957,NA
30534,Dawson County,GA,NA,35.32608695652174,NA
30605,Clarke County,GA,NA,55.16304347826087,NA
31008,Peach County,GA,NA,60.597826086956516,NA
31217,Bibb County,GA,NA,NA,96.26168224299066
31401,Chatham County,GA,66.5137614678899,NA,NA
31503,Ware County,GA,NA,45.65217391304348,NA
31601,Lowndes County,GA,27.522935779816514,NA,51.4018691588785
31620,Cook County,GA,NA,91.30434782608695,NA
96706,Honolulu County,HI,NA,14.402173913043478,NA
96813,Honolulu County,HI,NA,36.684782608695656,NA
96815,Honolulu County,HI,NA,NA,21.02803738317757
83605,Canyon County,ID,NA,25,NA
83647,Elmore County,ID,NA,51.63043478260869,NA
83672,Washington County,ID,NA,NA,66.35514018691589
83705,Ada County,ID,NA,NA,46.728971962616825
83835,Kootenai County,ID,NA,39.40217391304348,NA
83854,Kootenai County,ID,NA,23.641304347826086,NA
60015,Lake County,IL,NA,NA,17.75700934579439
60025,Cook County,IL,NA,5.434782608695652,NA
60033,McHenry County,IL,NA,NA,75.23364485981308
60047,Lake County,IL,NA,23.369565217391305,NA
60050,McHenry County,IL,37.61467889908257,NA,NA
60103,DuPage County,IL,NA,26.6304347826087,NA
60126,DuPage County,IL,NA,2.4456521739130435,NA
60133,Cook County,IL,NA,52.44565217391305,NA
60202,Cook County,IL,NA,86.1413043478261,NA
60450,Grundy County,IL,25.688073394495415,NA,NA
60555,DuPage County,IL,NA,79.34782608695652,NA
60601,Cook County,IL,NA,88.58695652173914,NA
60619,Cook County,IL,7.79816513761468,NA,NA
60621,Cook County,IL,NA,33.96739130434783,NA
60636,Cook County,IL,79.35779816513761,NA,24.299065420560748
60640,Cook County,IL,NA,38.315217391304344,NA
60643,Cook County,IL,NA,3.532608695652174,NA
60657,Cook County,IL,NA,14.673913043478262,NA
60659,Cook County,IL,NA,29.6195652173913,NA
61071,Whiteside County,IL,59.63302752293578,NA,NA
61081,Whiteside County,IL,NA,NA,2.803738317757009
61252,Whiteside County,IL,NA,96.73913043478261,NA
61265,Rock Island County,IL,45.412844036697244,NA,11.682242990654206
61820,Champaign County,IL,72.93577981651376,NA,NA
61920,Coles County,IL,NA,81.79347826086956,NA
62040,Madison County,IL,NA,11.41304347826087,NA
62521,Macon County,IL,NA,8.423913043478262,NA
62859,Hamilton County,IL,NA,NA,87.38317757009347
62959,Williamson County,IL,NA,19.565217391304348,NA
46038,Hamilton County,IN,60.09174311926605,56.25,NA
46052,Boone County,IN,NA,51.08695652173913,NA
46112,Hendricks County,IN,NA,50,NA
46113,Marion County,IN,67.88990825688074,NA,NA
46163,Hancock County,IN,NA,70.1086956521739,NA
46176,Shelby County,IN,NA,NA,5.607476635514018
46219,Marion County,IN,14.678899082568808,57.33695652173913,NA
46234,Marion County,IN,84.40366972477065,NA,NA
46235,Marion County,IN,NA,71.46739130434783,NA
46356,Lake County,IN,NA,36.141304347826086,NA
46368,Porter County,IN,NA,NA,11.214953271028037
46507,Elkhart County,IN,88.53211009174312,NA,NA
46514,Elkhart County,IN,NA,23.91304347826087,NA
46774,Allen County,IN,NA,45.380434782608695,NA
46952,Grant County,IN,NA,NA,19.626168224299064
47112,Harrison County,IN,NA,59.2391304347826,NA
47122,Floyd County,IN,89.44954128440367,NA,NA
47201,Bartholomew County,IN,14.220183486238533,NA,NA
47240,Decatur County,IN,NA,22.554347826086957,NA
47273,Jennings County,IN,100,NA,NA
47334,Delaware County,IN,NA,100,NA
47842,Vermillion County,IN,NA,72.28260869565217,NA
47906,Tippecanoe County,IN,NA,NA,37.38317757009346
47909,Tippecanoe County,IN,NA,NA,43.45794392523364
50022,Cass County,IA,NA,82.88043478260869,NA
51104,Woodbury County,IA,NA,54.61956521739131,NA
52404,Linn County,IA,11.009174311926607,NA,NA
52601,Des Moines County,IA,NA,16.032608695652172,NA
52806,Scott County,IA,NA,39.67391304347826,NA
66109,Wyandotte County,KS,NA,NA,35.046728971962615
66614,Shawnee County,KS,NA,58.152173913043484,NA
67114,Harvey County,KS,NA,NA,60.747663551401864
67735,Sherman County,KS,NA,83.15217391304348,NA
67835,Gray County,KS,99.54128440366972,NA,NA
67846,Finney County,KS,NA,NA,24.766355140186917
40108,Meade County,KY,NA,81.52173913043478,NA
40212,Jefferson County,KY,NA,NA,69.62616822429906
40218,Jefferson County,KY,NA,42.391304347826086,NA
40223,Jefferson County,KY,65.13761467889908,NA,NA
40241,Jefferson County,KY,51.8348623853211,NA,NA
40243,Jefferson County,KY,NA,NA,57.009345794392516
40324,Scott County,KY,NA,24.184782608695652,NA
40475,Madison County,KY,10.091743119266056,NA,21.962616822429908
40701,Whitley County,KY,NA,NA,87.85046728971963
41001,Campbell County,KY,NA,90.48913043478261,NA
41051,Kenton County,KY,NA,36.95652173913043,NA
42003,McCracken County,KY,NA,NA,35.51401869158878
42071,Calloway County,KY,40.36697247706422,44.83695652173913,NA
42141,Barren County,KY,NA,8.695652173913043,NA
42210,Edmonson County,KY,NA,NA,93.92523364485982
42240,Christian County,KY,8.256880733944955,70.65217391304348,NA
42501,Pulaski County,KY,NA,NA,42.05607476635514
42503,Pulaski County,KY,43.11926605504588,59.5108695652174,NA
42718,Taylor County,KY,NA,NA,8.411214953271028
42743,Green County,KY,NA,67.3913043478261,NA
70072,Jefferson Parish,LA,NA,23.097826086956523,NA
70301,Lafourche Parish,LA,NA,8.967391304347826,14.018691588785046
70438,Washington Parish,LA,94.95412844036697,NA,NA
70501,Lafayette Parish,LA,NA,26.902173913043477,NA
70570,St. Landry Parish,LA,NA,13.043478260869565,NA
70586,Evangeline Parish,LA,NA,NA,50.93457943925234
70592,Lafayette Parish,LA,NA,NA,83.64485981308411
70647,Calcasieu Parish,LA,NA,89.67391304347827,NA
70805,East Baton Rouge Parish,LA,4.128440366972478,NA,NA
70815,East Baton Rouge Parish,LA,NA,NA,42.99065420560748
71107,Caddo Parish,LA,NA,20.652173913043477,NA
71112,Bossier Parish,LA,15.59633027522936,NA,NA
71202,Ouachita Parish,LA,5.963302752293578,NA,NA
71360,Rapides Parish,LA,NA,30.434782608695656,NA
71457,Natchitoches Parish,LA,NA,NA,38.31775700934579
03901,York County,ME,65.59633027522935,NA,NA
04103,Cumberland County,ME,NA,NA,12.616822429906541
04210,Androscoggin County,ME,NA,10.597826086956522,NA
04240,Androscoggin County,ME,3.211009174311927,NA,NA
04276,Oxford County,ME,NA,NA,75.23364485981308
04401,Penobscot County,ME,2.7522935779816518,NA,NA
04572,Lincoln County,ME,NA,84.51086956521739,NA
04730,Aroostook County,ME,58.256880733944946,NA,NA
04849,Waldo County,ME,NA,NA,76.16822429906543
20817,Montgomery County,MD,NA,NA,66.82242990654206
20854,Montgomery County,MD,NA,NA,37.850467289719624
20905,Montgomery County,MD,NA,96.19565217391305,NA
21216,Baltimore city,MD,NA,24.456521739130434,NA
21239,Baltimore city,MD,NA,NA,29.439252336448597
21286,Baltimore County,MD,79.81651376146789,NA,NA
21620,Kent County,MD,84.86238532110092,NA,NA
21632,Caroline County,MD,85.77981651376146,NA,NA
21643,Dorchester County,MD,NA,NA,92.99065420560748
21901,Cecil County,MD,NA,NA,80.37383177570094
21911,Cecil County,MD,NA,76.90217391304348,NA
21921,Cecil County,MD,17.889908256880734,NA,NA
01089,Hampden County,MA,NA,NA,99.06542056074767
01106,Hampden County,MA,NA,NA,48.598130841121495
01108,Hampden County,MA,1.3761467889908259,NA,NA
01201,Berkshire County,MA,NA,0,NA
01226,Berkshire County,MA,NA,66.57608695652173,NA
01230,Berkshire County,MA,68.34862385321101,NA,NA
01420,Worcester County,MA,NA,17.66304347826087,NA
01585,Worcester County,MA,NA,97.82608695652173,NA
01602,Worcester County,MA,89.90825688073394,NA,NA
01702,Middlesex County,MA,NA,5.978260869565218,NA
01803,Middlesex County,MA,23.394495412844037,NA,NA
01915,Essex County,MA,NA,NA,0.9345794392523363
01923,Essex County,MA,NA,NA,2.336448598130841
01929,Essex County,MA,95.41284403669725,NA,NA
01950,Essex County,MA,NA,NA,20.093457943925234
01960,Essex County,MA,NA,0.5434782608695652,NA
02066,Plymouth County,MA,NA,47.28260869565217,NA
02151,Suffolk County,MA,NA,15.760869565217392,NA
02176,Middlesex County,MA,9.174311926605505,NA,NA
02346,Plymouth County,MA,13.302752293577983,NA,NA
02445,Norfolk County,MA,NA,NA,82.2429906542056
02481,Norfolk County,MA,NA,55.70652173913043,NA
02554,Nantucket County,MA,NA,54.891304347826086,NA
02649,Barnstable County,MA,NA,29.347826086956523,NA
02720,Bristol County,MA,NA,1.0869565217391304,NA
02721,Bristol County,MA,NA,5.163043478260869,NA
02723,Bristol County,MA,3.669724770642202,NA,NA
02771,Bristol County,MA,37.15596330275229,NA,NA
02780,Bristol County,MA,NA,1.6304347826086956,NA
48042,Macomb County,MI,NA,NA,29.906542056074763
48045,Macomb County,MI,26.146788990825687,NA,NA
48060,St. Clair County,MI,5.045871559633028,NA,NA
48073,Oakland County,MI,NA,35.32608695652174,NA
48082,Macomb County,MI,NA,39.94565217391305,NA
48133,Monroe County,MI,NA,NA,88.3177570093458
48141,Wayne County,MI,NA,17.391304347826086,NA
48161,Monroe County,MI,76.60550458715596,NA,NA
48166,Monroe County,MI,41.74311926605505,NA,NA
48197,Washtenaw County,MI,NA,NA,14.953271028037381
48203,Wayne County,MI,NA,22.282608695652172,NA
48235,Wayne County,MI,NA,NA,9.813084112149532
48239,Wayne County,MI,10.550458715596331,NA,NA
48312,Macomb County,MI,NA,17.119565217391305,NA
48315,Macomb County,MI,NA,57.88043478260869,NA
48363,Oakland County,MI,NA,91.57608695652173,NA
48390,Oakland County,MI,NA,38.58695652173913,NA
48442,Oakland County,MI,48.62385321100918,50.54347826086957,NA
48507,Genesee County,MI,NA,NA,42.523364485981304
48638,Saginaw County,MI,NA,46.19565217391305,NA
48708,Bay County,MI,NA,7.336956521739131,NA
48847,Gratiot County,MI,NA,86.68478260869566,NA
48848,Shiawassee County,MI,NA,77.44565217391305,NA
48867,Shiawassee County,MI,8.715596330275229,NA,NA
48917,Eaton County,MI,NA,7.880434782608696,NA
49024,Kalamazoo County,MI,NA,NA,28.037383177570092
49058,Barry County,MI,30.73394495412844,NA,NA
49103,Berrien County,MI,NA,NA,65.88785046728972
49418,Kent County,MI,NA,65.48913043478261,NA
49420,Oceana County,MI,70.64220183486239,NA,NA
49441,Muskegon County,MI,15.137614678899084,NA,NA
49442,Muskegon County,MI,5.5045871559633035,NA,NA
49445,Muskegon County,MI,NA,NA,65.42056074766354
49461,Muskegon County,MI,NA,96.73913043478261,NA
49855,Marquette County,MI,62.84403669724771,NA,NA
49913,Houghton County,MI,59.174311926605505,NA,NA
55116,Ramsey County,MN,67.43119266055045,NA,NA
55371,Mille Lacs County,MN,NA,NA,84.11214953271028
55404,Hennepin County,MN,0.9174311926605505,NA,NA
55421,Anoka County,MN,23.853211009174313,NA,NA
55428,Hennepin County,MN,22.018348623853214,NA,NA
55446,Hennepin County,MN,82.11009174311926,NA,NA
56156,Rock County,MN,NA,NA,39.25233644859813
56265,Chippewa County,MN,NA,58.96739130434783,NA
56308,Douglas County,MN,27.981651376146786,NA,NA
56378,Stearns County,MN,NA,NA,63.084112149532714
56560,Clay County,MN,NA,3.804347826086957,NA
38683,Tippah County,MS,70.18348623853211,NA,NA
38732,Bolivar County,MS,NA,NA,53.271028037383175
38916,Calhoun County,MS,NA,90.76086956521739,NA
39047,Rankin County,MS,53.21100917431193,NA,NA
39095,Holmes County,MS,NA,NA,98.5981308411215
39350,Neshoba County,MS,NA,31.521739130434785,NA
39503,Harrison County,MS,12.844036697247708,NA,NA
39564,Jackson County,MS,33.02752293577982,NA,NA
39652,Pike County,MS,NA,79.61956521739131,NA
63021,St. Louis County,MO,NA,NA,6.074766355140187
63050,Jefferson County,MO,NA,72.55434782608695,NA
63116,St. Louis city,MO,NA,56.79347826086957,NA
63122,St. Louis County,MO,NA,NA,6.5420560747663545
63139,St. Louis city,MO,NA,NA,78.50467289719626
63146,St. Louis County,MO,NA,NA,4.205607476635514
63640,St. Francois County,MO,NA,38.04347826086957,NA
63901,Butler County,MO,NA,NA,40.654205607476634
63935,Ripley County,MO,54.58715596330275,NA,NA
64040,Johnson County,MO,NA,85.32608695652173,NA
64093,Johnson County,MO,NA,NA,47.19626168224299
64123,Jackson County,MO,42.201834862385326,NA,NA
64492,Clinton County,MO,NA,99.72826086956522,NA
64831,McDonald County,MO,94.4954128440367,NA,NA
65203,Boone County,MO,NA,11.956521739130435,NA
65355,Benton County,MO,NA,NA,44.39252336448598
65536,Laclede County,MO,NA,38.58695652173913,NA
65804,Greene County,MO,NA,NA,13.551401869158877
59457,Fergus County,MT,NA,80.70652173913044,34.57943925233645
59864,Lake County,MT,91.74311926605505,NA,NA
69130,Dawson County,NE,NA,98.91304347826086,NA
89121,Clark County,NV,NA,NA,36.915887850467286
89128,Clark County,NV,NA,NA,53.73831775700935
89502,Washoe County,NV,22.477064220183486,NA,NA
89701,Carson City,NV,35.77981651376147,NA,NA
03049,Hillsborough County,NH,NA,73.36956521739131,NA
03103,Hillsborough County,NH,NA,11.141304347826086,NA
03452,Cheshire County,NH,NA,NA,91.1214953271028
03820,Strafford County,NH,NA,98.09782608695652,NA
03827,Rockingham County,NH,NA,97.55434782608695,NA
03878,Strafford County,NH,NA,70.1086956521739,NA
03885,Rockingham County,NH,NA,91.84782608695652,NA
07044,Essex County,NJ,NA,87.77173913043478,NA
07087,Hudson County,NJ,20.18348623853211,NA,3.2710280373831773
07093,Hudson County,NJ,NA,NA,95.7943925233645
07109,Essex County,NJ,NA,NA,30.8411214953271
07304,Hudson County,NJ,NA,NA,45.32710280373832
07442,Passaic County,NJ,NA,76.08695652173914,NA
07734,Monmouth County,NJ,86.69724770642202,NA,NA
07735,Monmouth County,NJ,NA,NA,78.97196261682244
07753,Monmouth County,NJ,NA,NA,7.943925233644859
07823,Warren County,NJ,64.6788990825688,NA,NA
07866,Morris County,NJ,NA,44.565217391304344,NA
07940,Morris County,NJ,NA,NA,86.44859813084112
08080,Gloucester County,NJ,NA,NA,32.71028037383177
08109,Camden County,NJ,21.55963302752294,NA,NA
08225,Atlantic County,NJ,NA,77.98913043478261,NA
08244,Atlantic County,NJ,NA,64.67391304347827,NA
08638,Mercer County,NJ,NA,41.03260869565217,NA
08701,Ocean County,NJ,NA,9.782608695652174,NA
08731,Ocean County,NJ,69.72477064220183,NA,NA
87122,Bernalillo County,NM,NA,97.28260869565217,NA
87566,Rio Arriba County,NM,NA,NA,100
88021,Doa Ana County,NM,NA,81.25,NA
88135,Curry County,NM,NA,99.45652173913044,NA
88203,Chaves County,NM,NA,19.293478260869566,NA
10003,New York County,NY,52.752293577981646,NA,NA
10024,New York County,NY,54.12844036697248,NA,NA
10312,Richmond County,NY,NA,NA,20.5607476635514
10701,Westchester County,NY,1.834862385321101,NA,NA
10918,Orange County,NY,NA,92.93478260869566,NA
11218,Kings County,NY,NA,NA,3.7383177570093453
11221,Kings County,NY,NA,2.989130434782609,NA
11355,Queens County,NY,NA,18.478260869565215,NA
11691,Queens County,NY,32.56880733944954,NA,NA
11704,Suffolk County,NY,NA,NA,30.373831775700932
11758,Nassau County,NY,NA,40.21739130434783,NA
11768,Suffolk County,NY,NA,87.5,NA
11942,Suffolk County,NY,NA,NA,97.66355140186917
12047,Albany County,NY,75.22935779816514,NA,NA
12078,Fulton County,NY,NA,NA,7.009345794392523
13365,Herkimer County,NY,33.48623853211009,NA,NA
13808,Otsego County,NY,98.62385321100918,NA,NA
14031,Erie County,NY,NA,75,NA
14215,Erie County,NY,2.293577981651376,NA,NA
14221,Erie County,NY,NA,1.9021739130434785,NA
14551,Wayne County,NY,50.45871559633027,NA,NA
14615,Monroe County,NY,NA,34.23913043478261,NA
14733,Chautauqua County,NY,82.11009174311926,NA,NA
14845,Chemung County,NY,18.34862385321101,NA,NA
27021,Stokes County,NC,NA,33.15217391304348,NA
27104,Forsyth County,NC,NA,6.521739130434782,NA
27105,Forsyth County,NC,NA,2.1739130434782608,NA
27107,Forsyth County,NC,NA,26.358695652173914,NA
27127,Forsyth County,NC,NA,4.3478260869565215,NA
27229,Montgomery County,NC,98.1651376146789,NA,NA
27295,Davidson County,NC,NA,2.717391304347826,NA
27330,Lee County,NC,NA,25.815217391304344,NA
27360,Davidson County,NC,NA,4.891304347826087,NA
27377,Guilford County,NC,NA,94.56521739130434,NA
27505,Harnett County,NC,NA,89.13043478260869,NA
27523,Wake County,NC,91.74311926605505,NA,NA
27549,Franklin County,NC,24.770642201834864,NA,NA
27577,Johnston County,NC,NA,69.56521739130434,NA
27613,Wake County,NC,NA,NA,57.943925233644855
27863,Wayne County,NC,NA,74.18478260869566,NA
28115,Iredell County,NC,NA,NA,36.44859813084112
28117,Iredell County,NC,NA,32.880434782608695,NA
28138,Rowan County,NC,NA,93.75,NA
28168,Lincoln County,NC,NA,NA,90.65420560747664
28209,Mecklenburg County,NC,NA,NA,73.83177570093457
28216,Mecklenburg County,NC,NA,16.304347826086957,NA
28270,Mecklenburg County,NC,NA,47.55434782608695,NA
28301,Cumberland County,NC,NA,NA,54.67289719626168
28360,Robeson County,NC,NA,NA,79.43925233644859
28401,New Hanover County,NC,NA,33.69565217391305,NA
28405,New Hanover County,NC,NA,NA,55.60747663551402
28451,Brunswick County,NC,NA,25.543478260869566,NA
28504,Lenoir County,NC,NA,63.315217391304344,NA
28601,Catawba County,NC,NA,74.72826086956522,NA
28659,Wilkes County,NC,NA,66.30434782608695,NA
28713,Swain County,NC,NA,92.66304347826086,NA
28759,Henderson County,NC,NA,71.19565217391305,NA
43113,Pickaway County,OH,17.431192660550458,NA,NA
43140,Madison County,OH,NA,NA,59.345794392523366
43613,Lucas County,OH,NA,NA,49.532710280373834
43701,Muskingum County,OH,0.45871559633027525,NA,NA
43953,Jefferson County,OH,NA,27.173913043478258,NA
44004,Ashtabula County,OH,NA,NA,1.8691588785046727
44035,Lorain County,OH,0,NA,NA
44095,Lake County,OH,NA,NA,31.308411214953267
44104,Cuyahoga County,OH,36.69724770642202,NA,NA
44230,Wayne County,OH,NA,NA,84.57943925233646
44254,Medina County,OH,NA,NA,77.57009345794393
44256,Medina County,OH,NA,0.8152173913043478,NA
44266,Portage County,OH,11.926605504587156,NA,NA
44306,Summit County,OH,12.385321100917432,NA,NA
44310,Summit County,OH,NA,22.01086956521739,55.140186915887845
44446,Trumbull County,OH,16.51376146788991,NA,NA
44460,Columbiana County,OH,NA,7.608695652173914,22.897196261682243
44481,Trumbull County,OH,NA,35.869565217391305,NA
44511,Mahoning County,OH,NA,NA,57.476635514018696
44515,Mahoning County,OH,NA,12.771739130434783,18.22429906542056
44703,Stark County,OH,NA,86.95652173913044,NA
44833,Crawford County,OH,NA,17.934782608695652,NA
45002,Hamilton County,OH,77.98165137614679,NA,NA
45005,Warren County,OH,11.46788990825688,NA,NA
45011,Butler County,OH,NA,NA,10.2803738317757
45207,Hamilton County,OH,NA,88.31521739130434,NA
45220,Hamilton County,OH,NA,NA,62.149532710280376
45231,Hamilton County,OH,9.63302752293578,NA,NA
45236,Hamilton County,OH,NA,48.09782608695652,NA
45244,Hamilton County,OH,NA,NA,97.19626168224299
45320,Preble County,OH,38.07339449541284,NA,NA
45342,Montgomery County,OH,NA,10.054347826086957,NA
45381,Preble County,OH,NA,75.81521739130434,NA
45385,Greene County,OH,NA,8.152173913043478,NA
45424,Montgomery County,OH,NA,42.66304347826087,5.14018691588785
45502,Clark County,OH,NA,59.78260869565217,NA
45506,Clark County,OH,93.57798165137615,NA,NA
45805,Allen County,OH,NA,28.532608695652172,NA
73036,Canadian County,OK,NA,65.76086956521739,NA
73110,Oklahoma County,OK,21.100917431192663,NA,NA
73129,Oklahoma County,OK,51.37614678899083,NA,NA
73160,Cleveland County,OK,NA,NA,8.878504672897195
73717,Woods County,OK,88.9908256880734,NA,NA
74745,McCurtain County,OK,NA,84.78260869565217,NA
74804,Pottawatomie County,OK,NA,46.46739130434783,NA
97103,Clatsop County,OR,NA,48.641304347826086,NA
97209,Multnomah County,OR,NA,63.58695652173913,NA
97222,Clackamas County,OR,NA,33.42391304347826,NA
97411,Coos County,OR,81.19266055045871,NA,NA
97424,Lane County,OR,43.57798165137615,NA,NA
97756,Deschutes County,OR,NA,20.92391304347826,NA
97814,Baker County,OR,41.284403669724774,NA,NA
15025,Allegheny County,PA,50.917431192660544,NA,NA
15106,Allegheny County,PA,57.3394495412844,NA,NA
15146,Allegheny County,PA,47.24770642201835,NA,NA
15202,Allegheny County,PA,NA,75.54347826086956,NA
15203,Allegheny County,PA,83.94495412844036,NA,NA
15221,Allegheny County,PA,NA,NA,16.355140186915886
15632,Westmoreland County,PA,NA,NA,61.21495327102804
15748,Indiana County,PA,87.61467889908256,NA,NA
16066,Butler County,PA,64.22018348623854,42.119565217391305,NA
16335,Crawford County,PA,NA,10.869565217391305,NA
16509,Erie County,PA,NA,NA,26.635514018691588
17015,Cumberland County,PA,NA,31.793478260869566,NA
17316,Adams County,PA,NA,79.8913043478261,NA
17339,York County,PA,NA,96.46739130434783,NA
17350,Adams County,PA,NA,NA,33.177570093457945
17364,York County,PA,NA,98.6413043478261,NA
17540,Lancaster County,PA,NA,NA,78.03738317757009
17603,Lancaster County,PA,NA,9.239130434782608,NA
18042,Northampton County,PA,6.8807339449541285,NA,19.158878504672895
18104,Lehigh County,PA,NA,4.076086956521739,NA
18407,Lackawanna County,PA,45.87155963302752,NA,NA
18801,Susquehanna County,PA,76.14678899082568,NA,NA
18938,Bucks County,PA,94.03669724770643,NA,NA
18969,Montgomery County,PA,63.76146788990825,NA,NA
19013,Delaware County,PA,NA,14.945652173913043,NA
19033,Delaware County,PA,NA,NA,92.5233644859813
19038,Montgomery County,PA,33.94495412844037,NA,NA
19040,Montgomery County,PA,50,NA,NA
19086,Delaware County,PA,NA,NA,71.96261682242991
19122,Philadelphia County,PA,44.03669724770643,NA,NA
19125,Philadelphia County,PA,49.08256880733945,NA,NA
19132,Philadelphia County,PA,7.339449541284404,NA,NA
19134,Philadelphia County,PA,4.587155963302752,NA,NA
19139,Philadelphia County,PA,NA,7.065217391304348,NA
19143,Philadelphia County,PA,69.26605504587155,NA,NA
19145,Philadelphia County,PA,NA,45.108695652173914,NA
19151,Philadelphia County,PA,16.972477064220186,NA,NA
19363,Chester County,PA,NA,73.09782608695652,NA
19382,Chester County,PA,NA,NA,17.289719626168225
19401,Montgomery County,PA,NA,60.32608695652174,NA
19605,Berks County,PA,30.275229357798167,NA,NA
19608,Berks County,PA,29.81651376146789,NA,NA
02852,Washington County,RI,NA,30.16304347826087,NA
02861,Providence County,RI,31.19266055045872,30.978260869565215,NA
02879,Washington County,RI,NA,NA,70.09345794392523
02889,Kent County,RI,NA,19.021739130434785,NA
02891,Washington County,RI,NA,NA,59.813084112149525
29003,Bamberg County,SC,NA,89.40217391304348,NA
29020,Kershaw County,SC,NA,NA,58.41121495327103
29053,Lexington County,SC,55.5045871559633,NA,NA
29206,Richland County,SC,NA,NA,63.55140186915887
29212,Lexington County,SC,NA,NA,54.20560747663551
29456,Dorchester County,SC,NA,NA,70.56074766355141
29464,Charleston County,SC,NA,NA,13.084112149532709
29574,Marion County,SC,NA,67.66304347826086,NA
29585,Georgetown County,SC,NA,50.815217391304344,NA
29671,Pickens County,SC,NA,NA,39.719626168224295
57103,Minnehaha County,SD,NA,3.260869565217391,NA
57104,Minnehaha County,SD,NA,6.7934782608695645,NA
57401,Brown County,SD,19.724770642201836,NA,NA
57785,Meade County,SD,90.36697247706422,NA,NA
37027,Williamson County,TN,NA,61.141304347826086,NA
37043,Montgomery County,TN,NA,21.467391304347828,NA
37080,Davidson County,TN,91.28440366972477,NA,NA
37091,Marshall County,TN,36.23853211009174,NA,NA
37128,Rutherford County,TN,NA,52.9891304347826,NA
37129,Rutherford County,TN,NA,32.065217391304344,NA
37174,Williamson County,TN,47.706422018348626,NA,NA
37214,Davidson County,TN,NA,83.69565217391305,NA
37221,Davidson County,TN,NA,27.98913043478261,NA
37330,Franklin County,TN,NA,89.94565217391305,NA
37355,Coffee County,TN,NA,53.2608695652174,NA
37377,Hamilton County,TN,NA,21.195652173913043,NA
37379,Hamilton County,TN,38.99082568807339,NA,NA
37380,Marion County,TN,NA,NA,89.7196261682243
37387,Grundy County,TN,NA,90.76086956521739,NA
37411,Hamilton County,TN,35.321100917431195,62.22826086956522,NA
37618,Sullivan County,TN,73.39449541284404,NA,NA
37743,Greene County,TN,NA,27.445652173913043,NA
37764,Sevier County,TN,NA,NA,71.49532710280374
37772,Loudon County,TN,NA,62.5,NA
37803,Blount County,TN,NA,NA,15.887850467289718
37849,Knox County,TN,NA,NA,48.598130841121495
37854,Roane County,TN,56.88073394495413,NA,NA
37857,Hawkins County,TN,NA,NA,73.36448598130842
37863,Sevier County,TN,NA,87.22826086956522,NA
37871,Jefferson County,TN,NA,74.45652173913044,NA
37938,Knox County,TN,NA,66.84782608695652,NA
38006,Crockett County,TN,NA,93.20652173913044,NA
38063,Lauderdale County,TN,42.6605504587156,NA,NA
38109,Shelby County,TN,NA,16.57608695652174,NA
38544,Putnam County,TN,NA,NA,92.05607476635514
75019,Dallas County,TX,NA,56.25,NA
75069,Collin County,TX,49.54128440366973,NA,NA
75126,Kaufman County,TX,NA,44.29347826086957,NA
75156,Henderson County,TX,NA,NA,64.95327102803739
75208,Dallas County,TX,61.00917431192661,NA,NA
75212,Dallas County,TX,NA,49.45652173913043,NA
75234,Dallas County,TX,NA,51.358695652173914,NA
75862,Trinity County,TX,87.1559633027523,NA,NA
76133,Tarrant County,TX,NA,21.73913043478261,NA
76179,Tarrant County,TX,NA,34.78260869565217,NA
76450,Young County,TX,NA,94.02173913043478,NA
76528,Coryell County,TX,29.357798165137616,NA,64.01869158878505
76801,Brown County,TX,NA,48.369565217391305,NA
76903,Tom Green County,TX,NA,54.07608695652174,NA
77048,Harris County,TX,NA,77.71739130434783,NA
77055,Harris County,TX,58.71559633027523,NA,NA
77056,Harris County,TX,NA,NA,50.467289719626166
77065,Harris County,TX,NA,44.02173913043478,NA
77067,Harris County,TX,74.31192660550458,NA,NA
77072,Harris County,TX,NA,NA,79.90654205607477
77077,Harris County,TX,NA,32.608695652173914,NA
77083,Harris County,TX,39.908256880733944,NA,NA
77092,Harris County,TX,56.42201834862385,NA,NA
77304,Montgomery County,TX,NA,83.15217391304348,NA
77339,Harris County,TX,NA,NA,38.78504672897196
77351,Polk County,TX,NA,NA,34.112149532710276
77356,Montgomery County,TX,NA,40.76086956521739,NA
77382,Montgomery County,TX,NA,NA,91.58878504672897
77396,Harris County,TX,68.80733944954129,NA,NA
77494,Fort Bend County,TX,19.26605504587156,NA,NA
77523,Chambers County,TX,NA,68.47826086956522,NA
77532,Harris County,TX,39.44954128440367,NA,NA
77541,Brazoria County,TX,NA,58.42391304347826,NA
77586,Harris County,TX,NA,67.93478260869566,NA
77833,Washington County,TX,NA,NA,12.149532710280374
77904,Victoria County,TX,NA,37.5,NA
77979,Calhoun County,TX,NA,NA,58.87850467289719
78064,Atascosa County,TX,NA,NA,96.72897196261682
78076,Zapata County,TX,NA,NA,88.78504672897196
78121,Wilson County,TX,NA,NA,94.39252336448598
78249,Bexar County,TX,NA,64.40217391304348,NA
78251,Bexar County,TX,NA,NA,64.48598130841121
78382,Aransas County,TX,85.3211009174312,NA,NA
78516,Hidalgo County,TX,NA,52.71739130434783,NA
78602,Bastrop County,TX,NA,65.21739130434783,NA
78611,Burnet County,TX,NA,NA,14.485981308411214
78701,Travis County,TX,90.82568807339449,NA,NA
78744,Travis County,TX,63.30275229357798,NA,NA
79762,Ector County,TX,NA,43.20652173913043,NA
79836,El Paso County,TX,96.3302752293578,NA,NA
79928,El Paso County,TX,NA,65.76086956521739,NA
84025,Davis County,UT,74.77064220183486,NA,NA
84066,Duchesne County,UT,NA,NA,94.85981308411215
84078,Uintah County,UT,18.807339449541285,NA,72.89719626168224
84092,Salt Lake County,UT,NA,47.01086956521739,NA
84108,Salt Lake County,UT,NA,NA,41.1214953271028
84741,Kane County,UT,NA,NA,93.45794392523365
05250,Bennington County,VT,NA,NA,86.91588785046729
05641,Washington County,VT,NA,80.16304347826086,NA
05676,Washington County,VT,NA,NA,85.51401869158879
20164,Loudoun County,VA,NA,67.11956521739131,NA
20171,Fairfax County,VA,NA,73.6413043478261,NA
20175,Loudoun County,VA,NA,NA,49.532710280373834
20186,Fauquier County,VA,NA,73.91304347826086,NA
22026,Prince William County,VA,NA,86.41304347826086,NA
22204,Arlington County,VA,NA,78.26086956521739,NA
22302,Alexandria city,VA,66.05504587155964,NA,NA
22407,Spotsylvania County,VA,20.642201834862387,NA,NA
22443,Westmoreland County,VA,NA,95.38043478260869,NA
22827,Rockingham County,VA,NA,NA,85.51401869158879
22902,Charlottesville city,VA,NA,NA,44.85981308411215
23061,Gloucester County,VA,NA,41.57608695652174,NA
23075,Henrico County,VA,61.92660550458715,NA,NA
23141,New Kent County,VA,NA,83.96739130434783,NA
23192,Hanover County,VA,96.78899082568807,NA,NA
23223,Henrico County,VA,NA,13.858695652173914,33.64485981308411
23231,Henrico County,VA,25.229357798165136,NA,NA
23235,Chesterfield County,VA,NA,NA,21.49532710280374
23434,Suffolk city,VA,NA,63.858695652173914,NA
23452,Virginia Beach city,VA,24.31192660550459,NA,NA
23455,Virginia Beach city,VA,NA,9.510869565217392,NA
23518,Norfolk city,VA,NA,NA,16.822429906542055
23803,Petersburg city,VA,13.761467889908257,NA,NA
23974,Lunenburg County,VA,NA,NA,80.8411214953271
24121,Bedford County,VA,NA,60.86956521739131,NA
24148,Henry County,VA,NA,82.06521739130434,NA
24179,Roanoke County,VA,NA,47.82608695652174,NA
24605,Tazewell County,VA,32.11009174311927,NA,NA
24641,Tazewell County,VA,78.89908256880734,NA,NA
24656,Buchanan County,VA,NA,94.83695652173914,NA
98106,King County,WA,NA,69.29347826086956,NA
98166,King County,WA,77.06422018348624,NA,NA
98239,Island County,WA,NA,62.77173913043478,NA
98321,Pierce County,WA,NA,NA,83.17757009345794
98367,Kitsap County,WA,NA,49.72826086956522,NA
98387,Pierce County,WA,NA,24.728260869565215,NA
98632,Cowlitz County,WA,NA,5.706521739130435,NA
98926,Kittitas County,WA,NA,NA,23.364485981308412
99206,Spokane County,WA,NA,NA,32.242990654205606
20020,District of Columbia,DC,NA,6.25,NA
25045,Kanawha County,WV,NA,NA,99.53271028037383
25427,Berkeley County,WV,NA,NA,74.29906542056075
25530,Wayne County,WV,NA,80.43478260869566,NA
25801,Raleigh County,WV,NA,10.326086956521738,NA
26187,Wood County,WV,NA,55.434782608695656,NA
26554,Marion County,WV,NA,1.358695652173913,NA
26651,Nicholas County,WV,NA,82.6086956521739,NA
26726,Mineral County,WV,NA,NA,62.616822429906534
53050,Dodge County,WI,NA,90.21739130434783,NA
53122,Waukesha County,WI,NA,NA,76.63551401869158
53151,Waukesha County,WI,NA,58.69565217391305,NA
53511,Rock County,WI,NA,0.2717391304347826,0
53546,Rock County,WI,NA,NA,4.672897196261682
53572,Dane County,WI,NA,76.63043478260869,NA
53575,Dane County,WI,NA,72.82608695652173,NA
53705,Dane County,WI,NA,78.80434782608695,NA
53717,Dane County,WI,NA,61.41304347826087,NA
54217,Kewaunee County,WI,NA,94.29347826086956,NA
54220,Manitowoc County,WI,NA,18.206521739130434,NA
54241,Manitowoc County,WI,NA,NA,43.925233644859816
54304,Brown County,WI,NA,NA,23.83177570093458
54409,Langlade County,WI,NA,22.82608695652174,NA
54494,Wood County,WI,NA,NA,18.69158878504673
54495,Wood County,WI,NA,82.33695652173914,NA
