ZipCode,county,state,Adult,Retirement
35007,Shelby County,AL,NA,36.45569620253165
35031,Blount County,AL,92.4087591240876,NA
35045,Chilton County,AL,NA,66.83544303797468
35124,Shelby County,AL,60,NA
35160,Talladega County,AL,44.37956204379562,NA
35456,Tuscaloosa County,AL,92.99270072992701,NA
35501,Walker County,AL,61.605839416058394,NA
35550,Walker County,AL,NA,81.26582278481013
35555,Fayette County,AL,NA,55.949367088607595
35565,Winston County,AL,65.4014598540146,NA
35603,Morgan County,AL,NA,32.91139240506329
35754,Morgan County,AL,84.67153284671532,NA
35952,Etowah County,AL,81.31386861313868,NA
35962,DeKalb County,AL,NA,88.86075949367088
36037,Butler County,AL,77.37226277372264,NA
36067,Autauga County,AL,34.89051094890511,NA
36081,Pike County,AL,76.64233576642336,NA
36201,Calhoun County,AL,27.299270072992698,NA
36532,Baldwin County,AL,55.76642335766423,NA
36567,Baldwin County,AL,58.54014598540146,NA
36606,Mobile County,AL,59.56204379562043,NA
99501,Anchorage Municipality,AK,22.18978102189781,NA
99508,Anchorage Municipality,AK,17.664233576642335,NA
99603,Kenai Peninsula Borough,AK,73.28467153284672,NA
99701,Fairbanks North Star Borough,AK,76.78832116788321,NA
99901,Ketchikan Gateway Borough,AK,NA,88.35443037974684
85008,Maricopa County,AZ,NA,84.55696202531645
85019,Maricopa County,AZ,36.496350364963504,NA
85022,Maricopa County,AZ,NA,28.10126582278481
85040,Maricopa County,AZ,19.562043795620436,NA
85128,Pinal County,AZ,NA,82.78481012658227
85132,Pinal County,AZ,99.41605839416059,NA
85138,Pinal County,AZ,78.83211678832117,NA
85205,Maricopa County,AZ,28.029197080291972,NA
85249,Maricopa County,AZ,43.06569343065693,NA
85255,Maricopa County,AZ,NA,85.56962025316456
85260,Maricopa County,AZ,NA,38.9873417721519
85281,Maricopa County,AZ,NA,95.9493670886076
85301,Maricopa County,AZ,5.401459854014599,NA
85338,Maricopa County,AZ,NA,44.050632911392405
85364,Yuma County,AZ,4.087591240875913,2.5316455696202533
85365,Yuma County,AZ,NA,21.265822784810126
85382,Maricopa County,AZ,45.54744525547445,43.79746835443038
85541,Gila County,AZ,46.86131386861314,NA
85701,Pima County,AZ,60,NA
85705,Pima County,AZ,4.233576642335766,NA
85718,Pima County,AZ,NA,70.12658227848101
86047,Navajo County,AZ,NA,64.55696202531645
86406,Mohave County,AZ,NA,75.18987341772151
71665,Cleveland County,AR,99.56204379562044,NA
72143,White County,AR,35.47445255474452,NA
72315,Mississippi County,AR,94.30656934306569,NA
72401,Craighead County,AR,NA,12.405063291139239
72472,Poinsett County,AR,NA,98.9873417721519
72501,Independence County,AR,NA,27.088607594936708
72653,Baxter County,AR,89.48905109489051,NA
90004,Los Angeles County,CA,42.18978102189781,NA
90017,Los Angeles County,CA,NA,92.91139240506328
90022,Los Angeles County,CA,35.03649635036496,NA
90029,Los Angeles County,CA,57.956204379562045,NA
90044,Los Angeles County,CA,7.883211678832117,NA
90065,Los Angeles County,CA,52.99270072992701,NA
90250,Los Angeles County,CA,NA,25.569620253164555
90260,Los Angeles County,CA,70.5109489051095,NA
90302,Los Angeles County,CA,85.10948905109488,NA
90621,Orange County,CA,55.18248175182482,NA
90631,Orange County,CA,34.306569343065696,NA
90803,Los Angeles County,CA,71.53284671532847,NA
91320,Ventura County,CA,60.58394160583942,NA
91326,Los Angeles County,CA,81.89781021897811,NA
91344,Los Angeles County,CA,42.48175182481752,NA
91354,Los Angeles County,CA,NA,91.64556962025317
91709,San Bernardino County,CA,32.408759124087595,NA
92010,San Diego County,CA,83.35766423357664,NA
92084,San Diego County,CA,NA,60.25316455696203
92101,San Diego County,CA,NA,10.632911392405063
92108,San Diego County,CA,80.43795620437956,NA
92109,San Diego County,CA,65.1094890510949,NA
92211,Riverside County,CA,NA,69.36708860759494
92262,Riverside County,CA,21.45985401459854,NA
92264,Riverside County,CA,NA,61.01265822784811
92324,San Bernardino County,CA,49.48905109489051,NA
92345,San Bernardino County,CA,10.948905109489052,NA
92504,Riverside County,CA,39.85401459854015,NA
92530,Riverside County,CA,NA,52.40506329113924
92649,Orange County,CA,52.40875912408759,NA
92672,Orange County,CA,NA,80.75949367088607
92821,Orange County,CA,58.3941605839416,NA
92869,Orange County,CA,56.78832116788322,NA
93030,Ventura County,CA,45.98540145985402,NA
93230,Kings County,CA,17.810218978102192,17.72151898734177
93257,Tulare County,CA,13.86861313868613,NA
93268,Kern County,CA,NA,85.0632911392405
93306,Kern County,CA,20.437956204379564,NA
93422,San Luis Obispo County,CA,44.23357664233576,NA
93612,Fresno County,CA,69.63503649635037,NA
93705,Fresno County,CA,NA,43.291139240506325
94109,San Francisco County,CA,28.467153284671532,NA
94121,San Francisco County,CA,NA,38.734177215189874
94127,San Francisco County,CA,NA,97.72151898734177
94521,Contra Costa County,CA,NA,39.24050632911392
94538,Alameda County,CA,90.36496350364963,NA
94547,Contra Costa County,CA,NA,71.39240506329114
94597,Contra Costa County,CA,67.00729927007299,70.63291139240506
94605,Alameda County,CA,24.817518248175183,NA
94705,Alameda County,CA,NA,87.0886075949367
94804,Contra Costa County,CA,NA,42.278481012658226
94806,Contra Costa County,CA,NA,54.43037974683544
94941,Marin County,CA,NA,41.265822784810126
95019,Santa Cruz County,CA,91.970802919708035,NA
95037,Santa Clara County,CA,NA,33.41772151898734
95119,Santa Clara County,CA,NA,94.68354430379748
95202,San Joaquin County,CA,29.34306569343066,NA
95215,San Joaquin County,CA,89.34306569343066,NA
95219,San Joaquin County,CA,NA,74.9367088607595
95242,San Joaquin County,CA,63.065693430656935,NA
95327,Tuolumne County,CA,82.77372262773723,55.18987341772152
95350,Stanislaus County,CA,18.83211678832117,NA
95355,Stanislaus County,CA,9.48905109489051,NA
95380,Stanislaus County,CA,80.14598540145985,21.012658227848103
95451,Lake County,CA,93.72262773722628,NA
95540,Humboldt County,CA,55.91240875912409,NA
95624,Sacramento County,CA,NA,26.83544303797468
95628,Sacramento County,CA,NA,40
95648,Placer County,CA,NA,26.075949367088608
95661,Placer County,CA,NA,50.8860759493671
95667,El Dorado County,CA,31.24087591240876,NA
95757,Sacramento County,CA,NA,55.44303797468354
95765,Placer County,CA,NA,65.82278481012658
95818,Sacramento County,CA,85.98540145985402,NA
95948,Butte County,CA,NA,94.17721518987342
95954,Butte County,CA,67.44525547445257,NA
95965,Butte County,CA,18.248175182481752,NA
95969,Butte County,CA,74.45255474452554,NA
96150,El Dorado County,CA,NA,98.73417721518987
80011,Arapahoe County,CO,77.81021897810218,NA
80134,Douglas County,CO,90.94890510948905,NA
80202,Denver County,CO,75.18248175182481,NA
80204,Denver County,CO,21.897810218978105,NA
80224,Denver County,CO,98.6861313868613,NA
80228,Jefferson County,CO,51.386861313868614,NA
80233,Adams County,CO,27.153284671532845,NA
80421,Park County,CO,NA,91.89873417721519
80524,Larimer County,CO,NA,96.20253164556962
80538,Larimer County,CO,NA,9.620253164556962
80634,Weld County,CO,NA,0.7594936708860759
80903,El Paso County,CO,35.76642335766424,NA
80917,El Paso County,CO,NA,51.13924050632911
81147,Archuleta County,CO,82.18978102189782,NA
06051,Hartford County,CT,20.29197080291971,NA
06511,New Haven County,CT,NA,11.89873417721519
06516,New Haven County,CT,NA,3.0379746835443036
19711,New Castle County,DE,NA,11.645569620253164
19713,New Castle County,DE,NA,30.37974683544304
19805,New Castle County,DE,2.9197080291970803,10.126582278481013
32055,Columbia County,FL,NA,59.49367088607595
32073,Clay County,FL,NA,28.607594936708864
32112,Putnam County,FL,91.24087591240875,NA
32174,Volusia County,FL,43.79562043795621,NA
32216,Duval County,FL,NA,30.126582278481013
32218,Duval County,FL,NA,2.7848101265822782
32233,Duval County,FL,37.22627737226277,NA
32277,Duval County,FL,52.700729927007295,NA
32413,Bay County,FL,NA,50.12658227848101
32435,Walton County,FL,88.17518248175182,NA
32505,Escambia County,FL,47.59124087591241,NA
32506,Escambia County,FL,15.328467153284672,NA
32514,Escambia County,FL,24.379562043795623,NA
32526,Escambia County,FL,15.036496350364963,NA
32533,Escambia County,FL,NA,20.506329113924053
32548,Okaloosa County,FL,60.29197080291971,NA
32619,Gilchrist County,FL,98.83211678832117,NA
32708,Seminole County,FL,42.91970802919708,NA
32750,Seminole County,FL,NA,99.49367088607595
32779,Seminole County,FL,NA,39.49367088607595
32809,Orange County,FL,45.839416058394164,NA
32824,Orange County,FL,41.16788321167883,NA
32837,Orange County,FL,20.875912408759124,NA
32940,Brevard County,FL,NA,58.734177215189874
32955,Brevard County,FL,47.2992700729927,NA
33027,Broward County,FL,37.518248175182485,NA
33040,Monroe County,FL,NA,42.025316455696206
33062,Broward County,FL,65.54744525547446,NA
33067,Broward County,FL,88.029197080291965,NA
33141,Miami-Dade County,FL,86.27737226277372,NA
33411,Palm Beach County,FL,NA,22.278481012658226
33413,Palm Beach County,FL,79.27007299270073,NA
33441,Broward County,FL,53.284671532846716,NA
33534,Hillsborough County,FL,67.5912408759124,NA
33610,Hillsborough County,FL,NA,37.21518987341772
33613,Hillsborough County,FL,39.416058394160586,47.59493670886076
33615,Hillsborough County,FL,28.905109489051096,32.40506329113924
33617,Hillsborough County,FL,32.7007299270073,NA
33710,Pinellas County,FL,NA,43.037974683544306
33711,Pinellas County,FL,NA,70.88607594936708
33907,Lee County,FL,NA,65.56962025316456
33909,Lee County,FL,40.87591240875913,NA
33914,Lee County,FL,NA,46.58227848101266
33917,Lee County,FL,82.91970802919708,NA
33948,Charlotte County,FL,NA,38.48101265822785
33971,Lee County,FL,54.16058394160584,NA
33993,Lee County,FL,NA,49.36708860759494
34205,Manatee County,FL,32.846715328467155,NA
34287,Sarasota County,FL,49.1970802919708,NA
34446,Citrus County,FL,NA,55.69620253164557
34448,Citrus County,FL,75.91240875912408,NA
34480,Marion County,FL,79.41605839416059,NA
34655,Pasco County,FL,61.459854014598534,58.48101265822785
34668,Pasco County,FL,38.394160583941606,NA
34684,Pinellas County,FL,NA,15.443037974683543
34748,Lake County,FL,49.63503649635037,NA
34761,Orange County,FL,NA,40.25316455696203
34769,Osceola County,FL,71.24087591240877,NA
34947,St. Lucie County,FL,50.51094890510949,NA
34951,St. Lucie County,FL,78.24817518248175,NA
30019,Gwinnett County,GA,NA,39.74683544303797
30024,Gwinnett County,GA,NA,25.31645569620253
30025,Walton County,GA,72.11678832116787,NA
30028,Forsyth County,GA,95.03649635036496,NA
30041,Forsyth County,GA,57.22627737226277,NA
30092,Gwinnett County,GA,58.1021897810219,NA
30093,Gwinnett County,GA,NA,77.46835443037975
30115,Cherokee County,GA,36.934306569343065,NA
30121,Bartow County,GA,NA,81.0126582278481
30127,Cobb County,GA,18.97810218978102,NA
30147,Floyd County,GA,86.86131386861314,NA
30263,Coweta County,GA,11.532846715328466,NA
30281,Henry County,GA,26.56934306569343,NA
30519,Gwinnett County,GA,NA,32.65822784810127
30542,Hall County,GA,49.34306569343065,NA
30577,Stephens County,GA,70.21897810218978,NA
30701,Gordon County,GA,NA,28.860759493670884
30741,Walker County,GA,19.708029197080293,NA
30809,Columbia County,GA,NA,14.430379746835442
30904,Richmond County,GA,NA,19.49367088607595
31005,Houston County,GA,77.95620437956204,83.0379746835443
31069,Houston County,GA,38.54014598540146,NA
31206,Bibb County,GA,58.978102189781026,NA
31406,Chatham County,GA,NA,29.873417721518987
31539,Jeff Davis County,GA,63.649635036496356,NA
31636,Lowndes County,GA,NA,58.22784810126582
96720,Hawaii County,HI,32.262773722627735,NA
96734,Honolulu County,HI,NA,60
96740,Hawaii County,HI,NA,57.974683544303794
96786,Honolulu County,HI,61.751824817518255,NA
96792,Honolulu County,HI,12.992700729927007,NA
83201,Bannock County,ID,52.846715328467155,NA
83202,Bannock County,ID,49.92700729927007,NA
83301,Twin Falls County,ID,4.37956204379562,NA
83634,Ada County,ID,37.81021897810219,NA
83686,Canyon County,ID,NA,3.79746835443038
83704,Ada County,ID,17.080291970802918,NA
83714,Ada County,ID,70.5109489051095,NA
83835,Kootenai County,ID,NA,88.10126582278481
83854,Kootenai County,ID,NA,23.037974683544306
60035,Lake County,IL,NA,15.949367088607595
60439,Cook County,IL,NA,49.87341772151899
60462,Cook County,IL,NA,5.3164556962025316
60510,Kane County,IL,34.74452554744526,NA
60527,DuPage County,IL,NA,11.139240506329113
60538,Kendall County,IL,NA,47.08860759493671
60564,Will County,IL,NA,25.82278481012658
60585,Will County,IL,52.26277372262774,NA
60612,Cook County,IL,19.27007299270073,NA
60625,Cook County,IL,11.97080291970803,NA
60639,Cook County,IL,10.218978102189782,NA
61008,Boone County,IL,NA,19.746835443037973
61101,Winnebago County,IL,NA,73.16455696202532
61108,Winnebago County,IL,NA,73.67088607594937
61111,Winnebago County,IL,NA,80.25316455696202
61265,Rock Island County,IL,NA,30.632911392405067
61616,Peoria County,IL,95.62043795620438,NA
61761,McLean County,IL,37.372262773722625,NA
61764,Livingston County,IL,NA,73.9240506329114
61866,Champaign County,IL,NA,66.32911392405063
62052,Jersey County,IL,65.25547445255474,NA
62206,St. Clair County,IL,82.48175182481752,NA
62521,Macon County,IL,13.284671532846716,NA
46143,Johnson County,IN,77.22627737226277,NA
46167,Hendricks County,IN,96.64233576642336,NA
46168,Hendricks County,IN,88.46715328467153,NA
46229,Marion County,IN,24.525547445255473,NA
46310,Jasper County,IN,49.78102189781022,NA
46322,Lake County,IN,24.963503649635037,NA
46360,LaPorte County,IN,6.569343065693431,NA
46385,Porter County,IN,8.613138686131387,NA
46394,Lake County,IN,51.67883211678832,NA
46528,Elkhart County,IN,70.07299270072993,NA
46562,Kosciusko County,IN,NA,91.39240506329114
46567,Kosciusko County,IN,93.13868613138686,NA
46710,Noble County,IN,88.32116788321169,NA
46818,Allen County,IN,66.56934306569343,NA
46901,Howard County,IN,2.18978102189781,NA
46952,Grant County,IN,85.40145985401459,NA
47040,Ohio County,IN,94.5985401459854,NA
47401,Monroe County,IN,NA,70.88607594936708
47501,Daviess County,IN,NA,25.063291139240505
47802,Vigo County,IN,24.087591240875913,NA
47904,Tippecanoe County,IN,NA,71.89873417721519
50009,Polk County,IA,83.7956204379562,NA
50265,Polk County,IA,91.0948905109489,NA
50315,Polk County,IA,69.48905109489051,NA
50320,Polk County,IA,72.7007299270073,NA
50428,Cerro Gordo County,IA,NA,45.56962025316456
50595,Hamilton County,IA,73.72262773722628,NA
50613,Black Hawk County,IA,73.57664233576642,NA
50801,Union County,IA,37.08029197080292,NA
51105,Woodbury County,IA,89.63503649635037,NA
51250,Sioux County,IA,93.28467153284672,NA
52240,Johnson County,IA,84.52554744525548,NA
52748,Scott County,IA,97.95620437956204,NA
52761,Muscatine County,IA,NA,13.924050632911392
66030,Johnson County,KS,NA,52.911392405063296
66032,Anderson County,KS,87.59124087591242,NA
66062,Johnson County,KS,54.30656934306569,NA
67005,Cowley County,KS,50.802919708029194,NA
40065,Shelby County,KY,38.68613138686132,NA
40165,Bullitt County,KY,14.890510948905108,NA
40175,Hardin County,KY,55.620437956204384,NA
40214,Jefferson County,KY,NA,17.21518987341772
40229,Jefferson County,KY,67.15328467153284,NA
40272,Jefferson County,KY,14.5985401459854,NA
40351,Rowan County,KY,NA,66.07594936708861
40353,Montgomery County,KY,51.240875912408754,NA
40391,Clark County,KY,9.197080291970803,NA
40403,Madison County,KY,67.2992700729927,NA
40484,Lincoln County,KY,64.67153284671532,NA
40504,Fayette County,KY,NA,58.9873417721519
40508,Fayette County,KY,91.53284671532846,NA
40511,Fayette County,KY,NA,46.32911392405064
41006,Pendleton County,KY,86.27737226277372,NA
41139,Greenup County,KY,39.56204379562044,NA
41219,Johnson County,KY,96.78832116788321,NA
41537,Letcher County,KY,NA,79.24050632911393
41701,Perry County,KY,30.656934306569344,NA
41858,Letcher County,KY,54.74452554744526,NA
42167,Monroe County,KY,88.61313868613139,NA
42376,Daviess County,KY,77.51824817518248,NA
42420,Henderson County,KY,33.43065693430657,NA
42501,Pulaski County,KY,47.44525547445255,NA
42503,Pulaski County,KY,NA,52.65822784810127
70002,Jefferson Parish,LA,43.503649635036496,NA
70118,Orleans Parish,LA,18.686131386861312,NA
70380,St. Mary Parish,LA,22.62773722627737,NA
70420,St. Tammany Parish,LA,99.85401459854015,NA
70426,Washington Parish,LA,95.47445255474453,NA
70433,St. Tammany Parish,LA,NA,8.860759493670885
70506,Lafayette Parish,LA,26.423357664233578,NA
70533,Vermilion Parish,LA,NA,86.07594936708861
70546,Jefferson Davis Parish,LA,29.05109489051095,NA
70570,St. Landry Parish,LA,1.4598540145985401,NA
70591,Jefferson Davis Parish,LA,91.38686131386862,NA
70775,West Feliciana Parish,LA,83.06569343065694,NA
71052,De Soto Parish,LA,64.81751824817519,NA
71111,Bossier Parish,LA,41.31386861313869,NA
71251,Jackson Parish,LA,44.52554744525548,NA
71263,West Carroll Parish,LA,NA,68.60759493670886
71270,Lincoln Parish,LA,24.671532846715326,NA
04038,Cumberland County,ME,76.05839416058394,NA
04043,York County,ME,81.02189781021897,NA
04240,Androscoggin County,ME,2.335766423357664,NA
04345,Kennebec County,ME,42.627737226277375,NA
04364,Kennebec County,ME,NA,83.29113924050633
04468,Penobscot County,ME,63.7956204379562,NA
04473,Penobscot County,ME,95.18248175182482,NA
04605,Hancock County,ME,NA,87.59493670886076
04864,Knox County,ME,99.7080291970803,NA
04963,Kennebec County,ME,87.15328467153284,NA
20817,Montgomery County,MD,72.99270072992701,NA
20841,Montgomery County,MD,100,NA
21009,Harford County,MD,45.69343065693431,NA
21211,Baltimore city,MD,67.88321167883211,NA
21213,Baltimore city,MD,NA,16.455696202531644
21218,Baltimore city,MD,10.802919708029197,NA
21224,Baltimore city,MD,16.35036496350365,NA
21239,Baltimore city,MD,NA,20.759493670886076
21401,Anne Arundel County,MD,56.058394160583944,NA
21710,Frederick County,MD,96.4963503649635,NA
21740,Washington County,MD,NA,27.341772151898734
01020,Hampden County,MA,4.671532846715328,NA
01089,Hampden County,MA,21.021897810218977,NA
01107,Hampden County,MA,NA,2.0253164556962027
01108,Hampden County,MA,11.824817518248175,NA
01301,Franklin County,MA,NA,37.721518987341774
01420,Worcester County,MA,NA,1.0126582278481013
01430,Worcester County,MA,88.75912408759125,NA
01507,Worcester County,MA,65.985401459854,NA
01603,Worcester County,MA,NA,1.5189873417721518
01609,Worcester County,MA,NA,5.5696202531645564
01801,Middlesex County,MA,1.167883211678832,NA
01826,Middlesex County,MA,4.817518248175182,NA
01830,Essex County,MA,NA,33.92405063291139
01835,Essex County,MA,31.24087591240876,NA
01845,Essex County,MA,27.883211678832115,NA
01851,Middlesex County,MA,15.182481751824817,NA
01852,Middlesex County,MA,69.92700729927007,NA
01945,Essex County,MA,NA,20.253164556962027
01952,Essex County,MA,90.8029197080292,NA
02062,Norfolk County,MA,41.8978102189781,NA
02081,Norfolk County,MA,NA,45.31645569620253
02139,Middlesex County,MA,0.145985401459854,NA
02143,Middlesex County,MA,6.423357664233577,NA
02148,Middlesex County,MA,0.43795620437956206,NA
02149,Middlesex County,MA,0,NA
02189,Norfolk County,MA,23.64963503649635,NA
02301,Plymouth County,MA,NA,86.58227848101265
02347,Plymouth County,MA,NA,96.9620253164557
02360,Plymouth County,MA,0.7299270072992701,NA
02451,Middlesex County,MA,NA,80.50632911392405
02452,Middlesex County,MA,NA,69.87341772151898
02478,Middlesex County,MA,NA,57.72151898734177
02721,Bristol County,MA,NA,4.30379746835443
02724,Bristol County,MA,4.525547445255475,NA
02745,Bristol County,MA,NA,9.113924050632912
02769,Bristol County,MA,71.38686131386861,NA
48030,Oakland County,MI,40.58394160583942,NA
48033,Oakland County,MI,NA,32.151898734177216
48071,Oakland County,MI,25.547445255474454,NA
48079,St. Clair County,MI,NA,56.708860759493675
48085,Oakland County,MI,29.927007299270077,NA
48091,Macomb County,MI,7.007299270072993,NA
48124,Wayne County,MI,19.854014598540147,83.79746835443038
48125,Wayne County,MI,NA,45.822784810126585
48126,Wayne County,MI,11.094890510948906,NA
48141,Wayne County,MI,9.343065693430656,NA
48166,Monroe County,MI,40.29197080291971,NA
48170,Wayne County,MI,89.19708029197079,NA
48182,Monroe County,MI,NA,41.01265822784811
48186,Wayne County,MI,27.00729927007299,NA
48203,Wayne County,MI,42.33576642335766,NA
48205,Wayne County,MI,59.270072992700726,NA
48206,Wayne County,MI,27.73722627737226,96.70886075949367
48213,Wayne County,MI,83.64963503649635,NA
48221,Wayne County,MI,6.131386861313868,NA
48223,Wayne County,MI,NA,84.30379746835443
48224,Wayne County,MI,2.4817518248175183,NA
48228,Wayne County,MI,1.6058394160583942,NA
48234,Wayne County,MI,30.364963503649633,NA
48238,Wayne County,MI,5.693430656934306,NA
48239,Wayne County,MI,9.05109489051095,NA
48314,Macomb County,MI,68.46715328467154,NA
48381,Oakland County,MI,NA,50.379746835443044
48412,Lapeer County,MI,89.05109489051095,NA
48601,Saginaw County,MI,1.897810218978102,NA
48625,Clare County,MI,NA,22.78481012658228
48708,Bay County,MI,8.905109489051096,NA
48768,Tuscola County,MI,76.2043795620438,NA
48867,Shiawassee County,MI,NA,7.088607594936709
49009,Kalamazoo County,MI,12.846715328467154,NA
49120,Berrien County,MI,NA,16.962025316455694
49203,Jackson County,MI,NA,7.59493670886076
49428,Ottawa County,MI,49.051094890510946,NA
49506,Kent County,MI,NA,72.15189873417721
49930,Houghton County,MI,74.01459854014598,NA
55009,Goodhue County,MN,66.13138686131387,NA
55011,Anoka County,MN,NA,97.9746835443038
55021,Rice County,MN,36.05839416058394,NA
55075,Dakota County,MN,38.68613138686132,NA
55076,Dakota County,MN,86.56934306569343,NA
55106,Ramsey County,MN,57.66423357664233,26.329113924050635
55107,Ramsey County,MN,68.32116788321167,NA
55112,Ramsey County,MN,80,NA
55117,Ramsey County,MN,90.07299270072993,NA
55125,Washington County,MN,66.86131386861314,NA
55302,Wright County,MN,92.7007299270073,NA
55303,Anoka County,MN,17.51824817518248,NA
55305,Hennepin County,MN,NA,73.41772151898735
55371,Mille Lacs County,MN,74.3065693430657,NA
55379,Scott County,MN,79.12408759124088,NA
55404,Hennepin County,MN,NA,2.278481012658228
55405,Hennepin County,MN,NA,74.68354430379746
55412,Hennepin County,MN,50.07299270072993,NA
55414,Hennepin County,MN,NA,89.62025316455696
55421,Anoka County,MN,NA,74.17721518987341
55430,Hennepin County,MN,18.394160583941606,33.67088607594937
55810,St. Louis County,MN,NA,46.07594936708861
55811,St. Louis County,MN,29.781021897810216,NA
55901,Olmsted County,MN,25.83941605839416,NA
56001,Blue Earth County,MN,NA,34.177215189873415
56031,Martin County,MN,70.8029197080292,NA
56093,Waseca County,MN,65.69343065693431,NA
56265,Chippewa County,MN,71.0948905109489,NA
56301,Stearns County,MN,NA,65.0632911392405
56304,Sherburne County,MN,NA,79.74683544303798
56345,Morrison County,MN,NA,68.35443037974683
56472,Crow Wing County,MN,83.21167883211679,NA
56482,Wadena County,MN,NA,93.92405063291139
56501,Becker County,MN,83.94160583941606,NA
56560,Clay County,MN,13.138686131386862,NA
56601,Beltrami County,MN,27.59124087591241,NA
56633,Hubbard County,MN,NA,88.86075949367088
56721,Polk County,MN,50.51094890510949,NA
38851,Chickasaw County,MS,NA,100
39090,Attala County,MS,63.94160583941606,NA
39117,Scott County,MS,48.9051094890511,NA
39157,Madison County,MS,NA,78.22784810126582
39301,Lauderdale County,MS,19.124087591240876,NA
39459,Jones County,MS,98.97810218978103,NA
39531,Harrison County,MS,94.45255474452556,NA
39563,Jackson County,MS,46.715328467153284,49.620253164556956
39701,Lowndes County,MS,62.04379562043796,NA
63103,St. Louis city,MO,81.45985401459855,NA
63131,St. Louis County,MO,84.81751824817519,NA
63366,St. Charles County,MO,12.700729927007298,4.050632911392405
63376,St. Charles County,MO,53.57664233576642,NA
63383,Warren County,MO,50.802919708029194,NA
63501,Adair County,MO,64.96350364963503,NA
63901,Butler County,MO,NA,23.79746835443038
64015,Jackson County,MO,13.72262773722628,NA
64050,Jackson County,MO,NA,48.10126582278481
64111,Jackson County,MO,78.39416058394161,NA
64118,Clay County,MO,NA,8.10126582278481
64134,Jackson County,MO,13.576642335766422,NA
64468,Nodaway County,MO,NA,54.936708860759495
65037,Morgan County,MO,87.88321167883211,NA
65041,Gasconade County,MO,97.08029197080292,NA
65201,Boone County,MO,42.77372262773723,NA
65301,Pettis County,MO,NA,36.20253164556962
65453,Crawford County,MO,NA,76.20253164556962
65804,Greene County,MO,58.24817518248175,96.45569620253166
59404,Cascade County,MT,NA,11.39240506329114
59405,Cascade County,MT,72.55474452554745,17.974683544303797
59701,Silver Bow County,MT,58.54014598540146,NA
59804,Missoula County,MT,NA,76.70886075949367
59840,Ravalli County,MT,72.4087591240876,NA
59870,Ravalli County,MT,85.83941605839416,NA
59901,Flathead County,MT,NA,82.27848101265823
68028,Sarpy County,NE,NA,94.9367088607595
68310,Gage County,NE,61.16788321167883,NA
68601,Platte County,NE,NA,42.78481012658228
89101,Clark County,NV,NA,61.26582278481013
89102,Clark County,NV,93.86861313868613,NA
89103,Clark County,NV,75.32846715328468,NA
89115,Clark County,NV,20.583941605839414,NA
89119,Clark County,NV,21.16788321167883,NA
89121,Clark County,NV,56.934306569343065,NA
89147,Clark County,NV,NA,47.34177215189874
89403,Lyon County,NV,36.2043795620438,NA
89408,Lyon County,NV,NA,67.34177215189874
89436,Washoe County,NV,23.21167883211679,NA
03038,Rockingham County,NH,NA,18.48101265822785
03060,Hillsborough County,NH,7.153284671532846,NA
03062,Hillsborough County,NH,NA,9.367088607594937
03103,Hillsborough County,NH,25.985401459854014,NA
03254,Carroll County,NH,NA,84.05063291139241
03281,Hillsborough County,NH,87.44525547445255,NA
03301,Merrimack County,NH,NA,13.670886075949367
03766,Grafton County,NH,87.00729927007299,NA
03867,Strafford County,NH,22.773722627737225,NA
07005,Morris County,NJ,32.11678832116788,NA
07008,Middlesex County,NJ,25.693430656934307,NA
07018,Essex County,NJ,6.715328467153285,NA
07087,Hudson County,NJ,46.42335766423358,NA
07103,Essex County,NJ,1.0218978102189782,NA
07419,Sussex County,NJ,NA,97.21518987341771
07420,Passaic County,NJ,74.8905109489051,NA
07644,Bergen County,NJ,NA,31.645569620253166
07666,Bergen County,NJ,14.452554744525548,NA
08016,Burlington County,NJ,3.64963503649635,NA
08081,Camden County,NJ,NA,8.354430379746836
08103,Camden County,NJ,5.255474452554744,NA
08618,Mercer County,NJ,0.8759124087591241,NA
08820,Middlesex County,NJ,43.21167883211679,NA
87004,Sandoval County,NM,91.82481751824818,NA
87020,Cibola County,NM,NA,72.65822784810126
87031,Valencia County,NM,28.32116788321168,NA
87107,Bernalillo County,NM,NA,23.544303797468356
87109,Bernalillo County,NM,17.37226277372263,NA
87121,Bernalillo County,NM,NA,31.139240506329113
87124,Sandoval County,NM,12.116788321167883,NA
87144,Sandoval County,NM,NA,21.772151898734176
87413,San Juan County,NM,48.613138686131386,NA
87505,Santa Fe County,NM,24.233576642335766,NA
88001,Doa Ana County,NM,56.4963503649635,NA
88231,Lea County,NM,NA,99.24050632911391
88310,Otero County,NM,NA,3.5443037974683547
88345,Lincoln County,NM,85.25547445255475,NA
10013,New York County,NY,78.54014598540145,NA
10014,New York County,NY,92.26277372262773,NA
10030,New York County,NY,23.065693430656932,NA
10461,Bronx County,NY,NA,19.240506329113924
10467,Bronx County,NY,0.291970802919708,NA
10468,Bronx County,NY,53.43065693430656,NA
10469,Bronx County,NY,3.5036496350364965,NA
10530,Westchester County,NY,NA,81.77215189873418
10591,Westchester County,NY,60.43795620437956,NA
10940,Orange County,NY,16.78832116788321,NA
11106,Queens County,NY,82.62773722627738,NA
11213,Kings County,NY,NA,5.063291139240507
11365,Queens County,NY,NA,23.29113924050633
11554,Nassau County,NY,76.35036496350365,NA
11747,Suffolk County,NY,NA,64.30379746835443
12590,Dutchess County,NY,75.62043795620438,NA
12901,Clinton County,NY,NA,4.556962025316456
12986,Franklin County,NY,88.75912408759125,NA
13090,Onondaga County,NY,16.05839416058394,NA
13118,Cayuga County,NY,NA,81.51898734177216
13208,Onondaga County,NY,12.554744525547445,NA
13215,Onondaga County,NY,48.32116788321168,NA
13440,Oneida County,NY,2.0437956204379564,4.810126582278481
14043,Erie County,NY,NA,29.11392405063291
14086,Erie County,NY,48.759124087591246,NA
14120,Niagara County,NY,5.109489051094891,NA
14226,Erie County,NY,NA,67.84810126582278
14454,Livingston County,NY,NA,78.9873417721519
14456,Ontario County,NY,8.175182481751825,NA
14467,Monroe County,NY,55.03649635036496,NA
14468,Monroe County,NY,17.226277372262775,NA
14472,Monroe County,NY,NA,29.620253164556964
14513,Wayne County,NY,5.839416058394161,NA
14589,Wayne County,NY,62.33576642335766,NA
14608,Monroe County,NY,NA,34.93670886075949
27023,Forsyth County,NC,NA,53.16455696202531
27052,Stokes County,NC,95.91240875912409,NA
27105,Forsyth County,NC,2.627737226277372,NA
27215,Alamance County,NC,10.510948905109489,NA
27262,Guilford County,NC,NA,56.45569620253165
27263,Randolph County,NC,80.58394160583941,NA
27278,Orange County,NC,NA,15.18987341772152
27284,Forsyth County,NC,7.445255474452554,0.5063291139240507
27288,Rockingham County,NC,14.306569343065693,NA
27302,Alamance County,NC,29.635036496350363,NA
27325,Moore County,NC,92.55474452554745,NA
27403,Guilford County,NC,62.62773722627737,NA
27501,Harnett County,NC,NA,44.303797468354425
27511,Wake County,NC,NA,31.39240506329114
27514,Orange County,NC,NA,29.367088607594937
27517,Orange County,NC,84.37956204379562,NA
27523,Wake County,NC,NA,90.88607594936708
27539,Wake County,NC,NA,60.75949367088608
27563,Warren County,NC,98.3941605839416,NA
27569,Johnston County,NC,68.75912408759123,NA
27574,Person County,NC,60.87591240875913,NA
27597,Wake County,NC,NA,54.177215189873415
27610,Wake County,NC,NA,31.89873417721519
27701,Durham County,NC,44.96350364963504,NA
27705,Durham County,NC,21.897810218978105,NA
27834,Pitt County,NC,7.591240875912408,NA
27870,Halifax County,NC,76.93430656934306,NA
27958,Currituck County,NC,93.57664233576642,NA
28021,Gaston County,NC,75.76642335766424,NA
28092,Lincoln County,NC,NA,14.936708860759493
28097,Stanly County,NC,89.92700729927007,NA
28110,Union County,NC,22.335766423357665,NA
28150,Cleveland County,NC,22.335766423357665,NA
28208,Mecklenburg County,NC,9.781021897810218,NA
28212,Mecklenburg County,NC,NA,52.151898734177216
28216,Mecklenburg County,NC,33.72262773722628,NA
28226,Mecklenburg County,NC,NA,90.12658227848101
28227,Mecklenburg County,NC,NA,18.9873417721519
28269,Mecklenburg County,NC,14.16058394160584,NA
28328,Sampson County,NC,NA,53.417721518987335
28358,Robeson County,NC,16.4963503649635,NA
28364,Robeson County,NC,69.34306569343066,NA
28377,Robeson County,NC,NA,85.82278481012658
28382,Sampson County,NC,74.59854014598541,NA
28403,New Hanover County,NC,NA,50.63291139240506
28478,Pender County,NC,96.2043795620438,NA
28501,Lenoir County,NC,96.35036496350365,NA
28602,Catawba County,NC,51.09489051094891,NA
28630,Caldwell County,NC,61.02189781021898,NA
28638,Caldwell County,NC,NA,62.278481012658226
28655,Burke County,NC,NA,3.2911392405063293
28681,Alexander County,NC,20.145985401459853,NA
28712,Transylvania County,NC,NA,67.08860759493672
28715,Buncombe County,NC,NA,77.72151898734178
28730,Buncombe County,NC,83.5036496350365,NA
28761,McDowell County,NC,95.76642335766424,NA
28787,Buncombe County,NC,NA,89.36708860759494
58075,Richland County,ND,NA,91.13924050632912
58104,Cass County,ND,80.72992700729927,NA
58401,Stutsman County,ND,NA,87.34177215189874
58601,Stark County,ND,68.9051094890511,86.07594936708861
58701,Ward County,ND,11.24087591240876,NA
43081,Franklin County,OH,NA,10.886075949367088
43123,Franklin County,OH,8.321167883211679,NA
43130,Fairfield County,OH,84.96350364963504,NA
43204,Franklin County,OH,25.255474452554743,NA
43207,Franklin County,OH,1.7518248175182483,NA
43211,Franklin County,OH,35.620437956204384,NA
43213,Franklin County,OH,10.072992700729927,NA
43227,Franklin County,OH,NA,37.46835443037975
43228,Franklin County,OH,NA,14.177215189873419
43229,Franklin County,OH,NA,36.708860759493675
43338,Morrow County,OH,NA,57.21518987341773
43420,Sandusky County,OH,11.386861313868613,NA
43607,Lucas County,OH,NA,21.518987341772153
43609,Lucas County,OH,5.547445255474453,NA
43616,Lucas County,OH,13.43065693430657,NA
43723,Guernsey County,OH,57.08029197080292,NA
43812,Coshocton County,OH,6.2773722627737225,34.43037974683544
43953,Jefferson County,OH,NA,26.582278481012654
44004,Ashtabula County,OH,NA,1.7721518987341773
44012,Lorain County,OH,33.13868613138686,NA
44030,Ashtabula County,OH,NA,16.70886075949367
44050,Lorain County,OH,66.71532846715328,NA
44053,Lorain County,OH,30.072992700729927,5.822784810126582
44077,Lake County,OH,3.9416058394160585,NA
44102,Cuyahoga County,OH,19.416058394160586,NA
44105,Cuyahoga County,OH,0.583941605839416,NA
44106,Cuyahoga County,OH,NA,16.20253164556962
44110,Cuyahoga County,OH,33.86861313868613,NA
44113,Cuyahoga County,OH,30.21897810218978,NA
44114,Cuyahoga County,OH,30.802919708029197,NA
44122,Cuyahoga County,OH,NA,28.354430379746837
44125,Cuyahoga County,OH,1.313868613138686,NA
44126,Cuyahoga County,OH,NA,92.65822784810128
44135,Cuyahoga County,OH,3.2116788321167884,NA
44142,Cuyahoga County,OH,27.44525547445256,NA
44236,Summit County,OH,NA,53.67088607594936
44256,Medina County,OH,36.64233576642336,NA
44305,Summit County,OH,NA,35.949367088607595
44601,Stark County,OH,7.737226277372263,NA
44622,Tuscarawas County,OH,61.31386861313869,NA
44707,Stark County,OH,56.35036496350365,NA
44708,Stark County,OH,NA,33.164556962025316
44720,Stark County,OH,28.759124087591243,NA
44833,Crawford County,OH,30.94890510948905,NA
44906,Richland County,OH,31.678832116788318,NA
45011,Butler County,OH,2.7737226277372264,NA
45013,Butler County,OH,3.795620437956204,NA
45044,Butler County,OH,NA,14.683544303797468
45102,Clermont County,OH,NA,55.949367088607595
45140,Clermont County,OH,NA,65.31645569620254
45202,Hamilton County,OH,19.854014598540147,NA
45211,Hamilton County,OH,32.992700729927,NA
45212,Hamilton County,OH,29.489051094890513,NA
45320,Preble County,OH,NA,35.69620253164557
45324,Greene County,OH,NA,48.60759493670886
45327,Montgomery County,OH,NA,75.69620253164557
45373,Miami County,OH,7.2992700729927,NA
45387,Greene County,OH,93.43065693430657,NA
45403,Montgomery County,OH,35.32846715328467,NA
45405,Montgomery County,OH,53.86861313868613,NA
45406,Montgomery County,OH,15.62043795620438,NA
45410,Montgomery County,OH,NA,60.25316455696203
45426,Montgomery County,OH,NA,35.189873417721515
45601,Ross County,OH,NA,0
45640,Jackson County,OH,NA,6.582278481012659
45651,Vinton County,OH,75.03649635036497,NA
45805,Allen County,OH,14.014598540145986,NA
45822,Mercer County,OH,64.23357664233576,NA
45891,Van Wert County,OH,NA,24.810126582278478
73013,Oklahoma County,OK,NA,10.379746835443038
73018,Grady County,OK,NA,89.87341772151899
73080,McClain County,OK,74.74452554744525,NA
73109,Oklahoma County,OK,59.70802919708029,NA
73120,Oklahoma County,OK,68.029197080291965,NA
73128,Canadian County,OK,97.51824817518249,NA
73135,Oklahoma County,OK,40.43795620437956,NA
73439,Marshall County,OK,68.17518248175183,NA
73662,Beckham County,OK,97.22627737226277,NA
74023,Payne County,OK,81.45985401459855,NA
74107,Tulsa County,OK,NA,67.59493670886076
74127,Tulsa County,OK,87.2992700729927,NA
74429,Wagoner County,OK,NA,88.60759493670885
74436,Muskogee County,OK,NA,92.40506329113924
74437,Okmulgee County,OK,77.66423357664235,NA
74441,Cherokee County,OK,81.16788321167884,NA
74868,Seminole County,OK,NA,84.81012658227847
74902,Le Flore County,OK,86.13138686131386,NA
97006,Washington County,OR,73.43065693430657,NA
97027,Clackamas County,OR,NA,76.20253164556962
97071,Marion County,OR,NA,54.68354430379747
97080,Multnomah County,OR,NA,20
97123,Washington County,OR,NA,46.835443037974684
97141,Tillamook County,OR,58.832116788321166,NA
97217,Multnomah County,OR,37.66423357664234,NA
97223,Washington County,OR,28.175182481751825,NA
97381,Marion County,OR,NA,61.518987341772146
97420,Coos County,OR,NA,40.50632911392405
97630,Lake County,OR,NA,63.79746835443038
97702,Deschutes County,OR,69.1970802919708,NA
97814,Baker County,OR,40,NA
97827,Union County,OR,98.54014598540147,NA
97838,Umatilla County,OR,NA,66.58227848101265
15025,Allegheny County,PA,46.56934306569343,NA
15074,Beaver County,PA,59.70802919708029,NA
15137,Allegheny County,PA,57.518248175182485,NA
15201,Allegheny County,PA,NA,47.848101265822784
15205,Allegheny County,PA,43.941605839416056,NA
15206,Allegheny County,PA,NA,22.025316455696203
15217,Allegheny County,PA,NA,22.278481012658226
15222,Allegheny County,PA,81.75182481751825,NA
15235,Allegheny County,PA,64.37956204379563,17.468354430379744
15237,Allegheny County,PA,NA,24.050632911392405
15461,Fayette County,PA,NA,93.67088607594937
15650,Westmoreland County,PA,15.474452554744525,NA
15902,Cambria County,PA,40.729927007299274,NA
16101,Lawrence County,PA,NA,7.341772151898734
16148,Mercer County,PA,44.08759124087591,NA
16509,Erie County,PA,31.97080291970803,NA
16510,Erie County,PA,84.08759124087591,NA
17003,Lebanon County,PA,43.35766423357664,NA
17011,Cumberland County,PA,26.13138686131387,NA
17042,Lebanon County,PA,23.357664233576642,NA
17044,Mifflin County,PA,NA,7.848101265822785
17059,Juniata County,PA,89.63503649635037,NA
17222,Franklin County,PA,NA,48.35443037974684
17363,York County,PA,NA,63.54430379746835
17403,York County,PA,3.065693430656934,NA
17517,Lancaster County,PA,NA,53.67088607594936
17543,Lancaster County,PA,23.795620437956206,NA
17545,Lancaster County,PA,NA,30.886075949367086
17601,Lancaster County,PA,NA,77.9746835443038
17701,Lycoming County,PA,NA,6.329113924050633
17724,Bradford County,PA,99.12408759124088,NA
17821,Montour County,PA,25.10948905109489,NA
17842,Snyder County,PA,NA,93.41772151898734
18018,Lehigh County,PA,53.13868613138686,NA
18064,Northampton County,PA,38.97810218978102,NA
18853,Bradford County,PA,95.32846715328466,NA
19067,Bucks County,PA,18.54014598540146,NA
19086,Delaware County,PA,NA,68.86075949367088
19116,Philadelphia County,PA,57.372262773722625,NA
19120,Philadelphia County,PA,3.3576642335766427,NA
19131,Philadelphia County,PA,6.86131386861314,NA
19132,Philadelphia County,PA,26.277372262773724,NA
19134,Philadelphia County,PA,33.284671532846716,NA
19140,Philadelphia County,PA,NA,9.873417721518987
19145,Philadelphia County,PA,8.467153284671532,NA
19146,Philadelphia County,PA,16.204379562043798,NA
19390,Chester County,PA,74.16058394160584,NA
19403,Montgomery County,PA,NA,6.075949367088607
19464,Montgomery County,PA,5.985401459854015,NA
19504,Berks County,PA,92.11678832116789,NA
19604,Berks County,PA,12.262773722627736,NA
02813,Washington County,RI,NA,62.78481012658228
02818,Kent County,RI,62.18978102189781,NA
02860,Providence County,RI,8.02919708029197,NA
02879,Washington County,RI,NA,34.68354430379747
02891,Washington County,RI,53.72262773722628,NA
02893,Kent County,RI,34.160583941605836,NA
02905,Providence County,RI,79.7080291970803,NA
02909,Providence County,RI,NA,90.63291139240506
02910,Providence County,RI,NA,63.037974683544306
02919,Providence County,RI,NA,62.0253164556962
29016,Richland County,SC,71.82481751824817,NA
29036,Lexington County,SC,NA,69.11392405063292
29102,Clarendon County,SC,51.97080291970803,NA
29456,Dorchester County,SC,34.5985401459854,NA
29483,Dorchester County,SC,16.934306569343065,NA
29527,Horry County,SC,73.13868613138686,NA
29576,Horry County,SC,NA,13.41772151898734
29585,Georgetown County,SC,84.23357664233576,NA
29601,Greenville County,SC,65.83941605839416,NA
29625,Anderson County,SC,31.532846715328468,NA
29645,Laurens County,SC,62.77372262773723,NA
29646,Greenwood County,SC,41.45985401459854,NA
29657,Pickens County,SC,45.4014598540146,NA
29662,Greenville County,SC,NA,56.9620253164557
29689,Anderson County,SC,NA,79.49367088607595
29706,Chester County,SC,61.8978102189781,NA
29708,York County,SC,71.970802919708035,NA
29926,Beaufort County,SC,90.51094890510949,NA
29936,Jasper County,SC,76.4963503649635,NA
57105,Minnehaha County,SD,NA,12.91139240506329
57110,Minnehaha County,SD,99.27007299270073,NA
57703,Pennington County,SD,63.357664233576635,NA
37082,Cheatham County,TN,92.84671532846716,NA
37110,Warren County,TN,16.642335766423358,NA
37153,Rutherford County,TN,97.8102189781022,NA
37185,Humphreys County,TN,NA,80
37186,Sumner County,TN,NA,76.9620253164557
37362,Polk County,TN,96.93430656934306,NA
37363,Hamilton County,TN,38.1021897810219,NA
37380,Marion County,TN,NA,91.89873417721519
37404,Hamilton County,TN,59.12408759124088,NA
37650,Unicoi County,TN,79.85401459854015,NA
37663,Sullivan County,TN,NA,59.24050632911393
37683,Johnson County,TN,51.386861313868614,NA
37801,Blount County,TN,15.766423357664234,NA
37818,Greene County,TN,96.05839416058394,NA
37826,McMinn County,TN,73.72262773722628,NA
37830,Anderson County,TN,54.01459854014598,NA
37857,Hawkins County,TN,32.55474452554745,NA
37912,Knox County,TN,29.1970802919708,NA
37920,Knox County,TN,NA,18.227848101265824
37931,Knox County,TN,40.14598540145985,NA
38111,Shelby County,TN,21.751824817518248,NA
38116,Shelby County,TN,17.956204379562042,NA
38127,Shelby County,TN,9.635036496350365,NA
38237,Weakley County,TN,NA,85.31645569620252
38305,Madison County,TN,9.927007299270073,NA
75007,Denton County,TX,44.67153284671533,NA
75051,Dallas County,TX,39.70802919708029,NA
75065,Denton County,TX,80.2919708029197,NA
75080,Dallas County,TX,NA,42.53164556962025
75090,Grayson County,TX,45.10948905109489,NA
75092,Grayson County,TX,43.64963503649635,NA
75160,Kaufman County,TX,NA,48.860759493670884
75206,Dallas County,TX,47.737226277372265,NA
75216,Dallas County,TX,45.25547445255474,NA
75243,Dallas County,TX,14.744525547445257,NA
75452,Fannin County,TX,98.24817518248176,NA
75709,Smith County,TX,NA,93.16455696202532
75762,Smith County,TX,NA,78.48101265822784
75766,Cherokee County,TX,91.67883211678833,NA
75773,Wood County,TX,66.13138686131387,NA
75783,Wood County,TX,94.8905109489051,NA
75862,Trinity County,TX,82.04379562043795,NA
76010,Tarrant County,TX,46.131386861313864,NA
76014,Tarrant County,TX,NA,44.55696202531645
76036,Tarrant County,TX,NA,82.53164556962025
76053,Tarrant County,TX,37.95620437956204,NA
76058,Johnson County,TX,52.55474452554745,NA
76116,Tarrant County,TX,NA,15.69620253164557
76133,Tarrant County,TX,48.02919708029197,NA
76140,Tarrant County,TX,NA,72.65822784810126
76502,Bell County,TX,70.94890510948905,NA
76504,Bell County,TX,10.656934306569344,NA
76539,Lampasas County,TX,NA,95.18987341772151
76549,Bell County,TX,23.503649635036496,NA
76708,McLennan County,TX,71.67883211678831,NA
76710,McLennan County,TX,50.21897810218978,NA
77005,Harris County,TX,NA,51.89873417721519
77015,Harris County,TX,78.68613138686132,NA
77018,Harris County,TX,69.05109489051094,NA
77024,Harris County,TX,57.81021897810219,NA
77034,Harris County,TX,NA,98.48101265822785
77099,Harris County,TX,50.36496350364964,NA
77306,Montgomery County,TX,NA,77.21518987341773
77346,Harris County,TX,21.313868613138688,NA
77433,Harris County,TX,38.24817518248175,NA
77449,Harris County,TX,11.678832116788321,NA
77504,Harris County,TX,98.10218978102189,NA
77539,Galveston County,TX,NA,12.658227848101266
77551,Galveston County,TX,70.36496350364963,NA
77706,Jefferson County,TX,NA,64.81012658227849
77803,Brazos County,TX,26.56934306569343,NA
77845,Brazos County,TX,10.364963503649635,NA
78028,Kerr County,TX,35.912408759124084,NA
78046,Webb County,TX,15.912408759124089,NA
78201,Bexar County,TX,23.795620437956206,NA
78213,Bexar County,TX,NA,59.74683544303797
78249,Bexar County,TX,56.20437956204379,NA
78363,Kleberg County,TX,55.32846715328466,NA
78410,Nueces County,TX,94.16058394160584,NA
78586,Cameron County,TX,41.605839416058394,NA
78626,Williamson County,TX,NA,45.063291139240505
78641,Williamson County,TX,21.605839416058394,NA
78654,Burnet County,TX,NA,69.62025316455697
79924,El Paso County,TX,41.021897810218974,NA
84081,Salt Lake County,UT,59.416058394160586,NA
84088,Salt Lake County,UT,NA,78.73417721518987
84106,Salt Lake County,UT,34.45255474452555,NA
84404,Weber County,UT,20.72992700729927,NA
84601,Utah County,UT,94.74452554744526,NA
05401,Chittenden County,VT,NA,98.22784810126582
05468,Chittenden County,VT,NA,43.54430379746835
05482,Chittenden County,VT,NA,82.02531645569621
20109,Prince William County,VA,31.094890510948904,NA
20171,Fairfax County,VA,47.88321167883212,NA
22153,Fairfax County,VA,55.47445255474452,NA
22206,Arlington County,VA,54.598540145985396,NA
22310,Fairfax County,VA,NA,63.29113924050633
22508,Orange County,VA,90.21897810218978,NA
22844,Shenandoah County,VA,79.56204379562044,NA
22902,Charlottesville city,VA,54.45255474452555,NA
23072,Gloucester County,VA,69.78102189781022,NA
23141,New Kent County,VA,94.01459854014598,NA
23223,Henrico County,VA,NA,62.53164556962025
23234,Chesterfield County,VA,48.46715328467153,NA
23452,Virginia Beach city,VA,NA,36.9620253164557
23456,Virginia Beach city,VA,NA,38.22784810126582
23502,Norfolk city,VA,33.57664233576642,NA
23509,Norfolk city,VA,39.270072992700726,NA
23513,Norfolk city,VA,18.1021897810219,NA
23601,Newport News city,VA,54.89051094890512,NA
23606,Newport News city,VA,47.153284671532845,NA
23663,Hampton city,VA,NA,51.392405063291136
23666,Hampton city,VA,NA,40.75949367088608
23669,Hampton city,VA,22.919708029197082,NA
23701,Portsmouth city,VA,NA,24.556962025316455
23707,Portsmouth city,VA,NA,37.9746835443038
23805,Petersburg city,VA,NA,57.46835443037974
24014,Roanoke city,VA,63.21167883211679,NA
24017,Roanoke city,VA,NA,41.77215189873418
24301,Pulaski County,VA,NA,49.11392405063291
24401,Staunton city,VA,NA,51.64556962025316
24501,Lynchburg city,VA,28.613138686131386,NA
24521,Amherst County,VA,90.65693430656935,NA
98022,King County,WA,56.64233576642336,NA
98024,King County,WA,NA,99.74683544303798
98030,King County,WA,25.401459854014597,NA
98036,Snohomish County,WA,44.81751824817518,NA
98038,King County,WA,NA,35.44303797468354
98055,King County,WA,85.54744525547446,86.83544303797468
98075,King County,WA,NA,70.37974683544303
98112,King County,WA,51.97080291970803,61.77215189873417
98115,King County,WA,35.18248175182482,NA
98119,King County,WA,NA,74.43037974683544
98264,Whatcom County,WA,NA,94.43037974683544
98275,Snohomish County,WA,NA,87.84810126582279
98362,Clallam County,WA,NA,8.354430379746836
98363,Clallam County,WA,NA,83.54430379746836
98367,Kitsap County,WA,46.277372262773724,75.44303797468355
98368,Jefferson County,WA,64.08759124087591,97.46835443037975
98404,Pierce County,WA,31.824817518248178,NA
98405,Pierce County,WA,60.72992700729927,NA
98532,Lewis County,WA,82.33576642335765,NA
98541,Grays Harbor County,WA,72.26277372262774,NA
98662,Clark County,WA,86.71532846715328,NA
98671,Clark County,WA,78.1021897810219,NA
98930,Yakima County,WA,80.87591240875912,NA
99156,Pend Oreille County,WA,NA,75.69620253164557
99208,Spokane County,WA,36.78832116788321,NA
99216,Spokane County,WA,NA,90.37974683544304
99301,Franklin County,WA,NA,6.8354430379746836
99324,Walla Walla County,WA,78.97810218978101,NA
99336,Benton County,WA,12.408759124087592,NA
99353,Benton County,WA,62.48175182481752,NA
25430,Jefferson County,WV,63.503649635036496,NA
25526,Putnam County,WV,NA,68.10126582278481
25601,Logan County,WV,66.13138686131387,NA
25840,Fayette County,WV,72.84671532846716,NA
26070,Brooke County,WV,68.61313868613139,NA
26105,Wood County,WV,NA,41.51898734177215
26330,Harrison County,WV,42.043795620437955,NA
26726,Mineral County,WV,39.12408759124087,NA
53050,Dodge County,WI,87.73722627737226,NA
53105,Racine County,WI,NA,12.151898734177214
53110,Milwaukee County,WI,30.51094890510949,NA
53140,Kenosha County,WI,36.35036496350365,24.30379746835443
53158,Kenosha County,WI,NA,27.59493670886076
53189,Waukesha County,WI,51.82481751824818,NA
53205,Milwaukee County,WI,NA,44.81012658227848
53206,Milwaukee County,WI,62.91970802919708,NA
53210,Milwaukee County,WI,8.75912408759124,NA
53215,Milwaukee County,WI,4.963503649635037,NA
53219,Milwaukee County,WI,NA,13.164556962025317
53402,Racine County,WI,NA,1.2658227848101267
53405,Racine County,WI,26.86131386861314,NA
53511,Rock County,WI,47.00729927007299,NA
53528,Dane County,WI,NA,95.44303797468355
53563,Rock County,WI,75.47445255474453,NA
53718,Dane County,WI,97.37226277372262,NA
54001,Polk County,WI,48.175182481751825,NA
54011,Pierce County,WI,97.66423357664233,NA
54166,Shawano County,WI,64.52554744525547,NA
54403,Marathon County,WI,41.75182481751825,NA
54449,Wood County,WI,NA,72.40506329113924
54481,Portage County,WI,NA,18.48101265822785
54501,Oneida County,WI,NA,71.64556962025317
54601,La Crosse County,WI,NA,0.25316455696202533
54901,Winnebago County,WI,NA,27.848101265822784
54914,Outagamie County,WI,67.73722627737226,NA
54915,Outagamie County,WI,34.01459854014598,NA
54982,Waushara County,WI,85.69343065693431,NA
82001,Laramie County,WY,NA,95.69620253164557
82435,Park County,WY,NA,64.0506329113924
82901,Sweetwater County,WY,77.08029197080292,NA
