ZipCode,county,state,Adult,Retirement,Geriatric
35111,Tuscaloosa County,AL,NA,32.151898734177216,NA
35118,Jefferson County,AL,NA,97.9746835443038,NA
35126,Jefferson County,AL,NA,NA,70.02724795640327
35217,Jefferson County,AL,49.87593052109181,NA,NA
35603,Morgan County,AL,NA,NA,28.065395095367844
35650,Lawrence County,AL,58.31265508684863,NA,NA
35750,Madison County,AL,NA,NA,74.38692098092643
35758,Madison County,AL,NA,NA,33.2425068119891
35906,Etowah County,AL,NA,75.69620253164557,NA
35961,DeKalb County,AL,95.03722084367246,NA,NA
36104,Montgomery County,AL,NA,75.44303797468355,NA
36117,Montgomery County,AL,NA,NA,20.16348773841962
36502,Escambia County,AL,NA,43.54430379746835,NA
36832,Lee County,AL,NA,88.60759493670885,NA
36853,Tallapoosa County,AL,80.89330024813896,NA,NA
99701,Fairbanks North Star Borough,AK,35.73200992555831,NA,NA
85004,Maricopa County,AZ,88.58560794044665,NA,NA
85008,Maricopa County,AZ,NA,62.278481012658226,NA
85014,Maricopa County,AZ,NA,57.72151898734177,NA
85020,Maricopa County,AZ,NA,NA,46.049046321525886
85021,Maricopa County,AZ,NA,34.68354430379747,NA
85035,Maricopa County,AZ,NA,61.26582278481013,NA
85043,Maricopa County,AZ,NA,NA,92.09809264305177
85131,Pinal County,AZ,77.66749379652606,NA,88.0108991825613
85140,Pinal County,AZ,NA,75.18987341772151,NA
85204,Maricopa County,AZ,12.655086848635236,NA,NA
85215,Maricopa County,AZ,80.64516129032258,NA,NA
85225,Maricopa County,AZ,10.173697270471465,NA,NA
85262,Maricopa County,AZ,NA,72.15189873417721,NA
85281,Maricopa County,AZ,36.972704714640194,NA,NA
85284,Maricopa County,AZ,NA,93.92405063291139,NA
85295,Maricopa County,AZ,NA,74.9367088607595,NA
85339,Maricopa County,AZ,NA,52.65822784810127,NA
85365,Yuma County,AZ,NA,NA,11.1716621253406
85379,Maricopa County,AZ,30.52109181141439,NA,NA
85607,Cochise County,AZ,27.29528535980149,NA,NA
85635,Cochise County,AZ,59.801488833746895,NA,NA
85710,Pima County,AZ,NA,16.455696202531644,NA
85715,Pima County,AZ,NA,92.40506329113924,NA
85755,Pima County,AZ,92.05955334987593,NA,NA
86314,Yavapai County,AZ,15.136476426799009,NA,NA
86336,Yavapai County,AZ,NA,63.54430379746835,NA
71913,Garland County,AR,NA,NA,11.989100817438691
72112,Jackson County,AR,NA,90.12658227848101,NA
72560,Stone County,AR,NA,61.77215189873417,NA
72764,Washington County,AR,NA,56.20253164556962,NA
90019,Los Angeles County,CA,NA,NA,10.626702997275205
90034,Los Angeles County,CA,44.91315136476427,53.67088607594936,NA
90035,Los Angeles County,CA,NA,NA,25.068119891008173
90044,Los Angeles County,CA,NA,17.72151898734177,NA
90049,Los Angeles County,CA,NA,NA,21.525885558583106
90230,Los Angeles County,CA,76.67493796526055,NA,NA
90242,Los Angeles County,CA,NA,56.708860759493675,NA
90280,Los Angeles County,CA,31.76178660049628,NA,NA
90301,Los Angeles County,CA,35.235732009925556,NA,NA
90606,Los Angeles County,CA,NA,NA,47.13896457765668
90631,Orange County,CA,66.99751861042184,NA,22.3433242506812
90731,Los Angeles County,CA,NA,27.088607594936708,NA
90744,Los Angeles County,CA,60.545905707196034,NA,NA
90808,Los Angeles County,CA,NA,42.53164556962025,NA
91205,Los Angeles County,CA,NA,NA,86.37602179836512
91331,Los Angeles County,CA,NA,18.48101265822785,34.87738419618528
91344,Los Angeles County,CA,NA,NA,20.435967302452315
91355,Los Angeles County,CA,NA,78.48101265822784,NA
91506,Los Angeles County,CA,NA,NA,79.83651226158038
91709,San Bernardino County,CA,NA,77.21518987341773,NA
91730,San Bernardino County,CA,19.35483870967742,NA,NA
91732,Los Angeles County,CA,NA,31.89873417721519,NA
91748,Los Angeles County,CA,NA,62.0253164556962,NA
91761,San Bernardino County,CA,NA,NA,80.65395095367847
91767,Los Angeles County,CA,41.687344913151364,NA,NA
91901,San Diego County,CA,83.12655086848635,NA,NA
91915,San Diego County,CA,84.61538461538461,NA,NA
92021,San Diego County,CA,13.647642679900745,NA,NA
92057,San Diego County,CA,NA,NA,39.782016348773844
92064,San Diego County,CA,51.86104218362283,NA,NA
92067,San Diego County,CA,NA,NA,62.39782016348774
92103,San Diego County,CA,NA,NA,75.20435967302453
92117,San Diego County,CA,NA,55.44303797468354,NA
92126,San Diego County,CA,NA,NA,45.50408719346049
92223,Riverside County,CA,29.03225806451613,NA,NA
92325,San Bernardino County,CA,94.78908188585608,NA,NA
92337,San Bernardino County,CA,NA,73.9240506329114,NA
92395,San Bernardino County,CA,26.799007444168733,NA,NA
92405,San Bernardino County,CA,46.898263027295286,NA,NA
92530,Riverside County,CA,35.483870967741936,NA,NA
92626,Orange County,CA,43.67245657568238,NA,NA
92629,Orange County,CA,NA,NA,38.41961852861036
92656,Orange County,CA,33.99503722084367,NA,NA
92672,Orange County,CA,66.50124069478908,NA,NA
92705,Orange County,CA,NA,53.417721518987335,NA
92805,Orange County,CA,25.31017369727047,NA,NA
92821,Orange County,CA,NA,NA,30.79019073569482
92860,Riverside County,CA,70.96774193548387,NA,NA
93030,Ventura County,CA,15.632754342431761,NA,NA
93063,Ventura County,CA,66.74937965260546,NA,NA
93257,Tulare County,CA,NA,NA,22.615803814713896
93312,Kern County,CA,40.44665012406948,NA,NA
93449,San Luis Obispo County,CA,NA,91.89873417721519,NA
93455,Santa Barbara County,CA,32.25806451612903,NA,NA
93536,Los Angeles County,CA,NA,53.16455696202531,NA
93550,Los Angeles County,CA,NA,NA,54.76839237057221
93618,Tulare County,CA,56.82382133995038,NA,NA
93702,Fresno County,CA,28.03970223325062,NA,NA
94028,San Mateo County,CA,NA,NA,61.03542234332425
94110,San Francisco County,CA,NA,59.74683544303797,NA
94115,San Francisco County,CA,NA,NA,12.26158038147139
94116,San Francisco County,CA,NA,NA,10.899182561307901
94122,San Francisco County,CA,NA,NA,34.05994550408719
94404,San Mateo County,CA,NA,NA,42.77929155313351
94503,Napa County,CA,NA,NA,67.30245231607628
94544,Alameda County,CA,NA,66.07594936708861,NA
94565,Contra Costa County,CA,NA,36.9620253164557,NA
94596,Contra Costa County,CA,NA,81.26582278481013,NA
94598,Contra Costa County,CA,NA,81.51898734177216,NA
94601,Alameda County,CA,45.90570719602978,NA,NA
94925,Marin County,CA,NA,NA,92.09809264305177
95003,Santa Cruz County,CA,NA,NA,59.12806539509536
95037,Santa Clara County,CA,NA,33.41772151898734,31.062670299727518
95124,Santa Clara County,CA,89.82630272952854,NA,NA
95126,Santa Clara County,CA,NA,80,NA
95127,Santa Clara County,CA,NA,NA,24.795640326975477
95128,Santa Clara County,CA,67.99007444168734,NA,NA
95340,Merced County,CA,NA,NA,43.32425068119891
95351,Stanislaus County,CA,NA,38.9873417721519,NA
95355,Stanislaus County,CA,NA,8.860759493670885,NA
95409,Sonoma County,CA,94.29280397022333,NA,NA
95423,Lake County,CA,NA,87.84810126582279,NA
95678,Placer County,CA,NA,34.43037974683544,NA
95682,El Dorado County,CA,60.297766749379655,NA,23.705722070844686
95776,Yolo County,CA,NA,84.81012658227847,NA
95835,Sacramento County,CA,67.24565756823822,NA,NA
95973,Butte County,CA,22.58064516129032,NA,17.71117166212534
96013,Shasta County,CA,99.25558312655087,NA,NA
80011,Arapahoe County,CO,5.459057071960298,NA,NA
80014,Arapahoe County,CO,31.265508684863523,NA,NA
80107,Elbert County,CO,87.34491315136476,NA,NA
80126,Douglas County,CO,53.59801488833747,NA,NA
80212,Denver County,CO,90.57071960297766,NA,NA
80528,Larimer County,CO,55.58312655086849,NA,NA
80538,Larimer County,CO,11.166253101736972,NA,NA
80908,El Paso County,CO,NA,83.54430379746836,NA
80909,El Paso County,CO,NA,NA,31.607629427792915
80922,El Paso County,CO,58.56079404466501,NA,NA
81301,La Plata County,CO,NA,NA,81.74386920980926
06074,Hartford County,CT,NA,53.92405063291139,NA
06082,Hartford County,CT,18.610421836228287,NA,NA
06105,Hartford County,CT,20.843672456575682,NA,NA
06111,Hartford County,CT,38.70967741935484,NA,37.32970027247956
06112,Hartford County,CT,NA,NA,61.58038147138964
06249,New London County,CT,NA,91.39240506329114,NA
06405,New Haven County,CT,42.67990074441687,28.10126582278481,NA
06413,Middlesex County,CT,62.531017369727046,NA,NA
06418,New Haven County,CT,NA,NA,68.39237057220708
06450,New Haven County,CT,NA,NA,24.52316076294278
06473,New Haven County,CT,87.09677419354838,NA,NA
06492,New Haven County,CT,20.34739454094293,NA,6.267029972752043
06511,New Haven County,CT,2.977667493796526,NA,NA
06512,New Haven County,CT,NA,NA,14.713896457765669
06513,New Haven County,CT,NA,9.367088607594937,NA
06905,Fairfield County,CT,NA,NA,43.869209809264305
19720,New Castle County,DE,33.7468982630273,NA,NA
19808,New Castle County,DE,NA,58.9873417721519,NA
19901,Kent County,DE,16.377171215880892,NA,NA
19904,Kent County,DE,63.27543424317618,NA,NA
32025,Columbia County,FL,39.20595533498759,NA,NA
32055,Columbia County,FL,NA,63.29113924050633,NA
32068,Clay County,FL,NA,NA,37.87465940054496
32082,St. Johns County,FL,NA,31.645569620253166,NA
32114,Volusia County,FL,22.8287841191067,NA,NA
32141,Volusia County,FL,NA,NA,45.23160762942779
32159,Lake County,FL,NA,23.544303797468356,NA
32162,Sumter County,FL,NA,1.7721518987341773,NA
32164,Flagler County,FL,34.49131513647642,NA,NA
32169,Volusia County,FL,NA,NA,58.58310626702997
32207,Duval County,FL,NA,10.379746835443038,NA
32209,Duval County,FL,2.729528535980149,NA,NA
32218,Duval County,FL,1.9851116625310175,NA,NA
32220,Duval County,FL,NA,NA,73.84196185286103
32234,Duval County,FL,NA,73.67088607594937,NA
32244,Duval County,FL,NA,NA,37.87465940054496
32309,Leon County,FL,74.44168734491315,NA,NA
32413,Bay County,FL,72.7047146401985,NA,NA
32435,Walton County,FL,77.41935483870968,NA,NA
32535,Escambia County,FL,NA,77.46835443037975,NA
32608,Alachua County,FL,NA,NA,26.975476839237057
32708,Seminole County,FL,47.146401985111666,NA,NA
32780,Brevard County,FL,NA,17.21518987341772,NA
32801,Orange County,FL,NA,NA,72.75204359673025
32809,Orange County,FL,NA,62.53164556962025,NA
32822,Orange County,FL,18.858560794044664,NA,NA
32829,Orange County,FL,NA,NA,99.1825613079019
32904,Brevard County,FL,NA,44.81012658227848,NA
32907,Brevard County,FL,NA,20.253164556962027,NA
32926,Brevard County,FL,NA,NA,17.43869209809264
32955,Brevard County,FL,NA,23.037974683544306,NA
32962,Indian River County,FL,NA,40.75949367088608,NA
33012,Miami-Dade County,FL,NA,NA,5.177111716621254
33029,Broward County,FL,NA,NA,50.13623978201635
33032,Miami-Dade County,FL,71.712158808933,66.83544303797468,NA
33067,Broward County,FL,76.92307692307693,NA,NA
33127,Miami-Dade County,FL,NA,66.58227848101265,NA
33136,Miami-Dade County,FL,NA,78.9873417721519,NA
33160,Miami-Dade County,FL,NA,35.189873417721515,50.95367847411444
33312,Broward County,FL,34.98759305210918,NA,NA
33328,Broward County,FL,NA,NA,74.11444141689373
33432,Palm Beach County,FL,NA,NA,28.337874659400548
33433,Palm Beach County,FL,NA,20.506329113924053,NA
33436,Palm Beach County,FL,NA,NA,13.623978201634879
33467,Palm Beach County,FL,NA,25.31645569620253,NA
33527,Hillsborough County,FL,NA,71.39240506329114,NA
33573,Hillsborough County,FL,NA,NA,3.2697547683923704
33579,Hillsborough County,FL,70.71960297766749,NA,NA
33602,Hillsborough County,FL,NA,78.22784810126582,NA
33612,Hillsborough County,FL,NA,37.21518987341772,72.20708446866485
33619,Hillsborough County,FL,36.72456575682382,NA,65.39509536784742
33647,Hillsborough County,FL,53.101736972704714,NA,NA
33705,Pinellas County,FL,NA,NA,77.3841961852861
33714,Pinellas County,FL,NA,NA,88.28337874659401
33765,Pinellas County,FL,NA,67.59493670886076,NA
33776,Pinellas County,FL,NA,NA,75.47683923705722
33777,Pinellas County,FL,NA,70.12658227848101,NA
33778,Pinellas County,FL,83.37468982630273,NA,NA
33841,Polk County,FL,92.80397022332507,NA,NA
33870,Highlands County,FL,NA,NA,10.354223433242508
33881,Polk County,FL,NA,33.41772151898734,NA
33884,Polk County,FL,NA,45.063291139240505,NA
33901,Lee County,FL,NA,NA,62.94277929155313
33909,Lee County,FL,NA,74.43037974683544,NA
33952,Charlotte County,FL,24.81389578163772,NA,NA
33966,Lee County,FL,NA,86.07594936708861,NA
34116,Collier County,FL,75.43424317617865,NA,NA
34145,Collier County,FL,NA,NA,27.79291553133515
34221,Manatee County,FL,39.70223325062035,NA,NA
34442,Citrus County,FL,92.05955334987593,NA,NA
34448,Citrus County,FL,NA,NA,80.10899182561307
34475,Marion County,FL,99.50372208436724,NA,NA
34476,Marion County,FL,61.78660049627791,NA,NA
34481,Marion County,FL,NA,26.83544303797468,NA
34601,Hernando County,FL,51.61290322580645,NA,NA
34607,Hernando County,FL,NA,NA,85.28610354223434
34638,Pasco County,FL,NA,90.88607594936708,NA
34652,Pasco County,FL,NA,NA,76.02179836512262
34655,Pasco County,FL,NA,94.68354430379748,NA
34667,Pasco County,FL,NA,NA,20.708446866485016
34698,Pinellas County,FL,NA,NA,15.531335149863759
34952,St. Lucie County,FL,NA,9.113924050632912,NA
34953,St. Lucie County,FL,3.722084367245657,NA,NA
30012,Rockdale County,GA,57.07196029776674,NA,NA
30075,Fulton County,GA,39.950372208436725,NA,NA
30083,DeKalb County,GA,NA,NA,48.228882833787466
30084,DeKalb County,GA,NA,63.79746835443038,NA
30093,Gwinnett County,GA,NA,77.9746835443038,NA
30121,Bartow County,GA,57.81637717121588,NA,NA
30132,Paulding County,GA,33.25062034739454,NA,NA
30135,Douglas County,GA,NA,46.835443037974684,NA
30157,Paulding County,GA,NA,NA,47.956403269754766
30188,Cherokee County,GA,NA,15.443037974683543,NA
30281,Henry County,GA,NA,17.974683544303797,NA
30340,DeKalb County,GA,NA,NA,64.30517711171662
30401,Emanuel County,GA,69.97518610421837,NA,NA
30506,Hall County,GA,29.776674937965257,NA,NA
30605,Clarke County,GA,NA,NA,64.57765667574932
30635,Elbert County,GA,NA,62.78481012658228,NA
30662,Franklin County,GA,92.05955334987593,NA,NA
30736,Catoosa County,GA,8.933002481389577,NA,NA
30906,Richmond County,GA,4.962779156327544,NA,NA
30907,Columbia County,GA,NA,10.126582278481013,31.33514986376022
30909,Richmond County,GA,NA,52.151898734177216,NA
31405,Chatham County,GA,NA,71.13924050632912,NA
31520,Glynn County,GA,NA,55.69620253164557,NA
31721,Dougherty County,GA,NA,64.0506329113924,NA
96706,Honolulu County,HI,NA,12.405063291139239,NA
96782,Honolulu County,HI,NA,NA,9.809264305177113
96797,Honolulu County,HI,6.699751861042183,NA,NA
83202,Bannock County,ID,NA,NA,70.29972752043598
83340,Blaine County,ID,NA,NA,87.73841961852861
83467,Lemhi County,ID,NA,68.10126582278481,NA
83501,Nez Perce County,ID,NA,NA,6.811989100817439
83617,Gem County,ID,NA,NA,67.57493188010899
83642,Ada County,ID,16.62531017369727,NA,NA
83669,Ada County,ID,96.02977667493796,NA,NA
83702,Ada County,ID,NA,56.45569620253165,NA
83714,Ada County,ID,NA,NA,12.534059945504087
83835,Kootenai County,ID,NA,69.11392405063292,NA
83858,Kootenai County,ID,NA,NA,94.00544959128065
83864,Bonner County,ID,NA,NA,90.73569482288828
60007,Cook County,IL,NA,52.911392405063296,NA
60008,Cook County,IL,67.4937965260546,NA,NA
60014,McHenry County,IL,NA,13.924050632911392,NA
60015,Lake County,IL,NA,76.9620253164557,NA
60016,Cook County,IL,NA,10.632911392405063,NA
60020,Lake County,IL,NA,60.75949367088608,NA
60069,Lake County,IL,NA,NA,36.23978201634878
60073,Lake County,IL,14.640198511166252,28.354430379746837,NA
60077,Cook County,IL,NA,30.126582278481013,NA
60089,Lake County,IL,NA,72.65822784810126,NA
60107,Cook County,IL,52.357320099255574,NA,NA
60124,Kane County,IL,64.01985111662532,NA,NA
60140,Kane County,IL,NA,NA,89.64577656675749
60142,McHenry County,IL,NA,NA,2.452316076294278
60164,Cook County,IL,NA,NA,58.03814713896458
60302,Cook County,IL,NA,NA,14.986376021798364
60438,Cook County,IL,NA,NA,32.9700272479564
60447,Grundy County,IL,NA,71.89873417721519,NA
60448,Will County,IL,NA,48.60759493670886,NA
60452,Cook County,IL,NA,42.78481012658228,NA
60471,Cook County,IL,69.72704714640199,NA,NA
60477,Cook County,IL,25.806451612903224,NA,NA
60480,Cook County,IL,NA,NA,88.8283378746594
60482,Cook County,IL,69.23076923076923,NA,NA
60505,Kane County,IL,NA,42.278481012658226,NA
60513,Cook County,IL,NA,NA,100
60516,DuPage County,IL,NA,NA,39.23705722070845
60517,DuPage County,IL,41.19106699751861,NA,NA
60563,DuPage County,IL,47.39454094292804,NA,NA
60607,Cook County,IL,NA,47.08860759493671,NA
60609,Cook County,IL,8.188585607940446,NA,18.80108991825613
60610,Cook County,IL,NA,21.518987341772153,NA
60619,Cook County,IL,NA,4.556962025316456,NA
60628,Cook County,IL,NA,NA,4.087193460490464
60632,Cook County,IL,NA,NA,26.70299727520436
60656,Cook County,IL,NA,45.31645569620253,NA
61073,Winnebago County,IL,NA,NA,49.59128065395095
61201,Rock Island County,IL,NA,NA,41.41689373297003
61520,Fulton County,IL,71.21588089330024,NA,NA
61530,Woodford County,IL,90.81885856079404,NA,NA
61554,Tazewell County,IL,NA,11.39240506329114,NA
61614,Peoria County,IL,NA,35.44303797468354,NA
61821,Champaign County,IL,NA,49.620253164556956,NA
61866,Champaign County,IL,NA,NA,64.03269754768392
62010,Madison County,IL,76.92307692307693,NA,NA
62012,Macoupin County,IL,NA,NA,99.72752043596729
62220,St. Clair County,IL,NA,69.87341772151898,NA
62233,Randolph County,IL,NA,NA,72.20708446866485
62258,St. Clair County,IL,NA,90.88607594936708,NA
62263,Washington County,IL,NA,NA,96.18528610354224
62441,Clark County,IL,NA,87.0886075949367,NA
62711,Sangamon County,IL,96.52605459057072,NA,NA
62821,White County,IL,NA,NA,79.01907356948229
46001,Madison County,IN,NA,NA,55.04087193460491
46016,Madison County,IN,13.399503722084367,NA,NA
46112,Hendricks County,IN,57.5682382133995,NA,NA
46124,Johnson County,IN,80.39702233250621,NA,NA
46140,Hancock County,IN,NA,54.68354430379747,16.62125340599455
46176,Shelby County,IN,14.1439205955335,NA,NA
46304,Porter County,IN,11.662531017369728,NA,NA
46311,Lake County,IN,NA,NA,25.885558583106267
46385,Porter County,IN,NA,NA,22.070844686648503
46506,Marshall County,IN,NA,NA,80.38147138964578
46526,Elkhart County,IN,NA,58.734177215189874,NA
46542,Kosciusko County,IN,NA,96.9620253164557,NA
46953,Grant County,IN,9.429280397022332,NA,NA
47012,Franklin County,IN,NA,97.46835443037975,NA
47150,Floyd County,IN,NA,7.848101265822785,NA
47302,Delaware County,IN,17.3697270471464,NA,NA
47356,Henry County,IN,NA,NA,85.55858310626702
47362,Henry County,IN,NA,NA,42.234332425068125
47408,Monroe County,IN,NA,NA,77.11171662125341
47441,Greene County,IN,NA,67.84810126582278,NA
47711,Vanderburgh County,IN,NA,27.59493670886076,NA
47885,Vigo County,IN,NA,NA,81.47138964577657
50047,Warren County,IA,91.3151364764268,NA,NA
50138,Marion County,IA,54.09429280397022,NA,NA
50158,Marshall County,IA,NA,NA,28.610354223433244
50613,Black Hawk County,IA,NA,12.658227848101266,4.904632152588556
50677,Bremer County,IA,NA,NA,50.40871934604905
51501,Pottawattamie County,IA,17.121588089330025,NA,NA
51601,Page County,IA,NA,NA,57.49318801089919
52245,Johnson County,IA,NA,39.49367088607595,NA
52246,Johnson County,IA,NA,NA,34.332425068119896
52302,Linn County,IA,NA,NA,43.596730245231605
52601,Des Moines County,IA,NA,14.177215189873419,NA
52732,Clinton County,IA,NA,NA,44.4141689373297
66002,Atchison County,KS,73.69727047146401,NA,NA
66049,Douglas County,KS,NA,36.708860759493675,NA
66219,Johnson County,KS,NA,79.74683544303798,NA
66614,Shawnee County,KS,NA,55.18987341772152,NA
67056,Harvey County,KS,NA,99.49367088607595,NA
67214,Sedgwick County,KS,68.98263027295285,NA,NA
67401,Saline County,KS,NA,NA,56.13079019073569
67432,Clay County,KS,NA,85.0632911392405,NA
67501,Reno County,KS,NA,NA,87.46594005449592
67502,Reno County,KS,NA,60,NA
40031,Oldham County,KY,32.754342431761785,54.43037974683544,76.566757493188
40162,Hardin County,KY,NA,NA,97.27520435967303
40215,Jefferson County,KY,NA,43.79746835443038,NA
40219,Jefferson County,KY,11.41439205955335,NA,NA
40229,Jefferson County,KY,10.421836228287841,NA,NA
40456,Rockcastle County,KY,72.20843672456576,NA,NA
40511,Fayette County,KY,NA,88.35443037974684,NA
40514,Fayette County,KY,NA,NA,77.65667574931881
40515,Fayette County,KY,50.62034739454094,NA,NA
40741,Laurel County,KY,21.83622828784119,NA,NA
40965,Bell County,KY,NA,31.39240506329114,NA
41014,Kenton County,KY,NA,85.56962025316456,NA
41048,Boone County,KY,NA,85.82278481012658,NA
41139,Greenup County,KY,NA,59.24050632911393,NA
42029,Marshall County,KY,73.44913151364764,NA,NA
42141,Barren County,KY,10.669975186104217,NA,NA
70003,Jefferson Parish,LA,NA,NA,44.141689373297005
70068,St. John the Baptist Parish,LA,NA,NA,29.70027247956403
70072,Jefferson Parish,LA,NA,3.2911392405063293,NA
70119,Orleans Parish,LA,3.225806451612903,NA,NA
70131,Orleans Parish,LA,12.655086848635236,NA,NA
70360,Terrebonne Parish,LA,NA,27.341772151898734,NA
70363,Terrebonne Parish,LA,2.481389578163772,NA,NA
70394,Lafourche Parish,LA,NA,NA,33.5149863760218
70420,St. Tammany Parish,LA,69.4789081885856,NA,NA
70426,Washington Parish,LA,NA,NA,82.28882833787466
70460,St. Tammany Parish,LA,NA,NA,46.59400544959128
70501,Lafayette Parish,LA,1.488833746898263,NA,NA
70520,Lafayette Parish,LA,NA,76.20253164556962,NA
70570,St. Landry Parish,LA,NA,10.886075949367088,NA
70592,Lafayette Parish,LA,NA,NA,83.37874659400545
71106,Caddo Parish,LA,4.218362282878412,NA,NA
71107,Caddo Parish,LA,NA,19.49367088607595,NA
71112,Bossier Parish,LA,NA,89.87341772151899,NA
71220,Morehouse Parish,LA,NA,NA,49.04632152588556
03904,York County,ME,74.93796526054591,NA,NA
04103,Cumberland County,ME,20.843672456575682,NA,NA
04330,Kennebec County,ME,NA,6.075949367088607,NA
04401,Penobscot County,ME,NA,1.2658227848101267,NA
04457,Penobscot County,ME,NA,69.62025316455697,NA
04468,Penobscot County,ME,NA,NA,90.46321525885558
04473,Penobscot County,ME,90.07444168734492,NA,NA
20646,Charles County,MD,73.20099255583126,NA,NA
20653,St. Mary's County,MD,65.01240694789082,NA,NA
20721,Prince George's County,MD,NA,68.35443037974683,NA
20745,Prince George's County,MD,NA,56.9620253164557,NA
20816,Montgomery County,MD,NA,92.65822784810128,NA
20871,Montgomery County,MD,85.35980148883374,NA,NA
20874,Montgomery County,MD,NA,NA,70.57220708446866
21009,Harford County,MD,48.883374689826304,NA,NA
21015,Harford County,MD,NA,58.48101265822785,NA
21060,Anne Arundel County,MD,28.53598014888337,NA,NA
21144,Anne Arundel County,MD,59.30521091811415,NA,NA
21146,Anne Arundel County,MD,NA,NA,61.85286103542234
21201,Baltimore city,MD,NA,NA,65.66757493188011
21214,Baltimore city,MD,NA,NA,58.855585831062676
21215,Baltimore city,MD,NA,NA,8.174386920980927
21224,Baltimore city,MD,14.888337468982629,NA,NA
21225,Baltimore city,MD,NA,NA,52.58855585831063
21226,Anne Arundel County,MD,NA,98.73417721518987,NA
21229,Baltimore city,MD,NA,NA,21.25340599455041
21601,Talbot County,MD,NA,NA,67.8474114441417
21632,Caroline County,MD,82.87841191066998,NA,NA
21701,Frederick County,MD,NA,60.50632911392405,NA
01013,Hampden County,MA,NA,48.10126582278481,NA
01020,Hampden County,MA,95.53349875930522,NA,NA
01062,Hampshire County,MA,72.45657568238212,NA,NA
01082,Hampshire County,MA,NA,NA,82.83378746594006
01085,Hampden County,MA,NA,1.5189873417721518,NA
01105,Hampden County,MA,88.83374689826302,NA,NA
01109,Hampden County,MA,NA,NA,96.45776566757493
01450,Middlesex County,MA,67.99007444168734,NA,NA
01462,Worcester County,MA,52.605459057071954,NA,NA
01527,Worcester County,MA,57.07196029776674,NA,34.60490463215259
01545,Worcester County,MA,NA,86.58227848101265,NA
01571,Worcester County,MA,NA,60.75949367088608,NA
01730,Middlesex County,MA,85.11166253101737,NA,NA
01760,Middlesex County,MA,NA,NA,41.14441416893733
01854,Middlesex County,MA,93.79652605459057,NA,NA
01915,Essex County,MA,NA,0.7594936708860759,NA
01923,Essex County,MA,NA,54.177215189873415,NA
01945,Essex County,MA,NA,87.59493670886076,NA
01950,Essex County,MA,68.73449131513648,24.810126582278478,18.52861035422343
02061,Plymouth County,MA,NA,NA,71.93460490463215
02115,Suffolk County,MA,NA,4.30379746835443,NA
02121,Suffolk County,MA,79.65260545905707,NA,NA
02136,Suffolk County,MA,1.240694789081886,NA,NA
02351,Plymouth County,MA,NA,24.30379746835443,NA
02421,Middlesex County,MA,NA,NA,66.7574931880109
02459,Middlesex County,MA,45.40942928039702,NA,NA
02472,Middlesex County,MA,NA,7.088607594936709,NA
02474,Middlesex County,MA,NA,NA,11.444141689373296
02536,Barnstable County,MA,22.084367245657567,NA,NA
02576,Plymouth County,MA,62.28287841191067,NA,NA
02747,Bristol County,MA,27.543424317617866,NA,NA
02760,Bristol County,MA,8.6848635235732,11.139240506329113,NA
48025,Oakland County,MI,NA,60.25316455696203,NA
48038,Macomb County,MI,11.910669975186105,NA,NA
48048,Macomb County,MI,72.95285359801488,NA,NA
48076,Oakland County,MI,32.00992555831266,NA,NA
48082,Macomb County,MI,NA,36.20253164556962,NA
48083,Oakland County,MI,59.05707196029777,NA,NA
48084,Oakland County,MI,NA,NA,59.67302452316077
48092,Macomb County,MI,NA,NA,31.607629427792915
48093,Macomb County,MI,NA,NA,19.07356948228883
48098,Oakland County,MI,NA,35.44303797468354,NA
48103,Washtenaw County,MI,NA,NA,1.6348773841961852
48125,Wayne County,MI,NA,49.11392405063291,NA
48126,Wayne County,MI,37.96526054590571,NA,NA
48135,Wayne County,MI,22.332506203473944,NA,NA
48141,Wayne County,MI,6.9478908188585615,NA,NA
48146,Wayne County,MI,6.451612903225806,NA,NA
48152,Wayne County,MI,NA,5.063291139240507,NA
48154,Wayne County,MI,NA,7.341772151898734,32.69754768392371
48162,Monroe County,MI,NA,3.5443037974683547,NA
48168,Wayne County,MI,NA,38.734177215189874,NA
48176,Washtenaw County,MI,42.18362282878412,NA,NA
48178,Oakland County,MI,NA,NA,7.629427792915531
48193,Wayne County,MI,55.831265508684865,NA,NA
48202,Wayne County,MI,NA,NA,86.64850136239782
48204,Wayne County,MI,NA,30.886075949367086,NA
48219,Wayne County,MI,NA,2.5316455696202533,13.896457765667575
48228,Wayne County,MI,51.1166253101737,NA,NA
48236,Wayne County,MI,NA,13.164556962025317,NA
48237,Oakland County,MI,NA,18.734177215189874,NA
48315,Macomb County,MI,NA,NA,27.247956403269757
48383,Oakland County,MI,NA,84.05063291139241,NA
48439,Genesee County,MI,NA,NA,11.716621253405995
48446,Lapeer County,MI,NA,NA,17.983651226158038
48503,Genesee County,MI,NA,NA,66.4850136239782
48609,Saginaw County,MI,NA,NA,56.403269754768395
48612,Gladwin County,MI,NA,NA,92.64305177111717
48623,Saginaw County,MI,NA,49.87341772151899,NA
48849,Ionia County,MI,83.87096774193549,NA,NA
48864,Ingham County,MI,70.47146401985111,NA,59.12806539509536
48867,Shiawassee County,MI,NA,6.582278481012659,NA
48880,Gratiot County,MI,NA,82.78481012658227,NA
48912,Ingham County,MI,NA,NA,73.02452316076294
49024,Kalamazoo County,MI,NA,21.772151898734176,NA
49076,Eaton County,MI,NA,95.18987341772151,NA
49090,Van Buren County,MI,59.553349875930515,NA,NA
49093,St. Joseph County,MI,NA,84.30379746835443,NA
49120,Berrien County,MI,13.151364764267989,NA,NA
49331,Kent County,MI,NA,43.291139240506325,NA
49332,Mecosta County,MI,NA,NA,92.91553133514986
49348,Allegan County,MI,NA,49.36708860759494,NA
49417,Ottawa County,MI,16.129032258064516,NA,NA
49423,Ottawa County,MI,NA,8.60759493670886,NA
49441,Muskegon County,MI,NA,NA,2.997275204359673
49449,Oceana County,MI,NA,93.16455696202532,NA
49525,Kent County,MI,NA,24.556962025316455,NA
49677,Osceola County,MI,NA,73.16455696202532,NA
49686,Grand Traverse County,MI,NA,NA,16.076294277929154
55101,Ramsey County,MN,NA,82.02531645569621,NA
55104,Ramsey County,MN,NA,NA,46.86648501362398
55106,Ramsey County,MN,NA,NA,48.501362397820166
55109,Ramsey County,MN,NA,NA,29.155313351498634
55110,Ramsey County,MN,NA,NA,37.60217983651226
55112,Ramsey County,MN,NA,25.82278481012658,NA
55125,Washington County,MN,NA,NA,40.87193460490463
55126,Ramsey County,MN,NA,67.34177215189874,NA
55129,Washington County,MN,NA,NA,85.01362397820164
55303,Anoka County,MN,16.87344913151365,NA,NA
55337,Dakota County,MN,66.00496277915633,NA,29.427792915531338
55350,McLeod County,MN,NA,NA,14.441416893732969
55422,Hennepin County,MN,NA,41.265822784810126,NA
55432,Anoka County,MN,23.076923076923077,NA,NA
55446,Hennepin County,MN,NA,NA,77.9291553133515
55448,Anoka County,MN,NA,NA,56.94822888283378
55792,St. Louis County,MN,NA,NA,93.46049046321527
55810,St. Louis County,MN,NA,NA,65.9400544959128
55906,Olmsted County,MN,NA,65.82278481012658,NA
56001,Blue Earth County,MN,64.76426799007444,NA,NA
56273,Kandiyohi County,MN,NA,95.69620253164557,NA
56303,Stearns County,MN,NA,76.70886075949367,NA
56308,Douglas County,MN,26.054590570719604,NA,NA
56601,Beltrami County,MN,26.302729528535977,NA,NA
56701,Pennington County,MN,NA,NA,35.42234332425068
38654,DeSoto County,MS,71.96029776674938,NA,NA
39051,Leake County,MS,47.64267990074442,NA,NA
39426,Pearl River County,MS,NA,39.74683544303797,NA
39573,Stone County,MS,NA,NA,89.91825613079018
63033,St. Louis County,MO,NA,NA,7.084468664850137
63111,St. Louis city,MO,93.05210918114145,NA,NA
63129,St. Louis County,MO,NA,NA,8.71934604904632
63131,St. Louis County,MO,NA,NA,57.765667574931875
63138,St. Louis County,MO,NA,50.12658227848101,NA
63367,St. Charles County,MO,89.0818858560794,NA,NA
63401,Marion County,MO,NA,89.36708860759494,NA
63664,Washington County,MO,NA,68.86075949367088,NA
63841,Stoddard County,MO,98.51116625310173,NA,NA
63863,Dunklin County,MO,84.11910669975185,NA,NA
64055,Jackson County,MO,5.2109181141439205,NA,NA
64068,Clay County,MO,7.196029776674938,NA,NA
64124,Jackson County,MO,NA,NA,85.83106267029973
64137,Jackson County,MO,NA,NA,60.76294277929155
64151,Platte County,MO,NA,NA,49.863760217983646
64157,Clay County,MO,33.49875930521092,NA,NA
64506,Buchanan County,MO,NA,6.8354430379746836,1.08991825613079
64673,Mercer County,MO,NA,99.74683544303798,NA
64701,Cass County,MO,44.168734491315135,NA,NA
64836,Jasper County,MO,17.617866004962778,NA,NA
65020,Camden County,MO,NA,NA,83.37874659400545
65251,Callaway County,MO,NA,NA,49.31880108991826
65803,Greene County,MO,7.94044665012407,NA,NA
59602,Lewis and Clark County,MT,NA,NA,38.69209809264305
59725,Beaverhead County,MT,NA,96.70886075949367,NA
59870,Ravalli County,MT,96.7741935483871,NA,NA
59901,Flathead County,MT,NA,21.265822784810126,NA
59923,Lincoln County,MT,NA,80.50632911392405,NA
68048,Cass County,NE,NA,NA,97.54768392370572
68128,Sarpy County,NE,NA,NA,81.19891008174388
68137,Douglas County,NE,NA,47.59493670886076,NA
68138,Sarpy County,NE,NA,91.64556962025317,NA
68154,Douglas County,NE,81.14143920595534,NA,NA
68310,Gage County,NE,85.60794044665012,NA,NA
68748,Madison County,NE,NA,100,NA
89120,Clark County,NV,75.93052109181141,NA,NA
89134,Clark County,NV,NA,NA,12.806539509536785
89141,Clark County,NV,NA,NA,95.36784741144415
89506,Washoe County,NV,17.866004962779154,NA,NA
03060,Hillsborough County,NH,NA,NA,16.62125340599455
03076,Hillsborough County,NH,46.40198511166253,NA,NA
03103,Hillsborough County,NH,3.970223325062035,NA,NA
03275,Merrimack County,NH,74.68982630272953,NA,NA
03301,Merrimack County,NH,NA,11.89873417721519,NA
03743,Sullivan County,NH,56.575682382134,NA,NA
03811,Rockingham County,NH,NA,61.518987341772146,NA
03841,Rockingham County,NH,93.54838709677419,NA,NA
03867,Strafford County,NH,NA,NA,5.449591280653951
07002,Hudson County,NJ,NA,88.86075949367088,NA
07020,Bergen County,NJ,NA,80.75949367088607,NA
07022,Bergen County,NJ,67.4937965260546,NA,NA
07107,Essex County,NJ,0.7444168734491315,NA,NA
07410,Bergen County,NJ,NA,63.037974683544306,NA
07502,Passaic County,NJ,37.71712158808933,NA,NA
07506,Passaic County,NJ,NA,57.46835443037974,NA
07719,Monmouth County,NJ,NA,NA,78.7465940054496
07726,Monmouth County,NJ,NA,26.329113924050635,NA
07731,Monmouth County,NJ,NA,39.24050632911392,NA
07940,Morris County,NJ,82.38213399503722,NA,NA
07950,Morris County,NJ,NA,NA,50.68119891008175
08003,Camden County,NJ,NA,40.50632911392405,NA
08012,Camden County,NJ,NA,NA,43.05177111716621
08016,Burlington County,NJ,NA,94.17721518987342,NA
08021,Camden County,NJ,NA,NA,35.967302452316076
08037,Atlantic County,NJ,13.895781637717123,NA,NA
08046,Burlington County,NJ,NA,NA,32.15258855585831
08050,Ocean County,NJ,NA,NA,23.978201634877383
08059,Camden County,NJ,NA,NA,98.63760217983652
08065,Burlington County,NJ,NA,96.20253164556962,NA
08078,Camden County,NJ,NA,NA,99.45504087193461
08080,Gloucester County,NJ,NA,NA,30.24523160762943
08081,Camden County,NJ,NA,7.59493670886076,NA
08090,Gloucester County,NJ,NA,94.43037974683544,NA
08091,Camden County,NJ,NA,95.44303797468355,NA
08232,Atlantic County,NJ,NA,26.075949367088608,NA
08610,Mercer County,NJ,NA,47.848101265822784,NA
08648,Mercer County,NJ,43.424317617866,NA,NA
08734,Ocean County,NJ,NA,90.63291139240506,NA
08742,Ocean County,NJ,NA,NA,35.14986376021799
08824,Middlesex County,NJ,NA,79.49367088607595,NA
08831,Middlesex County,NJ,NA,NA,1.3623978201634876
08857,Middlesex County,NJ,5.955334987593052,NA,NA
08861,Middlesex County,NJ,NA,NA,73.29700272479565
87002,Valencia County,NM,NA,NA,66.21253405994551
87105,Bernalillo County,NM,20.099255583126553,NA,NA
87420,San Juan County,NM,29.528535980148884,NA,NA
87544,Los Alamos County,NM,63.0272952853598,NA,NA
88021,Doa Ana County,NM,73.94540942928039,NA,NA
88310,Otero County,NM,23.82133995037221,NA,NA
10021,New York County,NY,NA,NA,16.348773841961854
10024,New York County,NY,NA,24.050632911392405,NA
10035,New York County,NY,3.4739454094292808,NA,NA
10036,New York County,NY,NA,NA,55.5858310626703
10037,New York County,NY,NA,94.9367088607595,NA
10305,Richmond County,NY,NA,15.949367088607595,NA
10312,Richmond County,NY,NA,25.063291139240505,NA
10453,Bronx County,NY,NA,0.25316455696202533,NA
10456,Bronx County,NY,0,NA,NA
10459,Bronx County,NY,NA,38.48101265822785,24.250681198910083
10465,Bronx County,NY,30.272952853598017,NA,NA
10471,Bronx County,NY,NA,NA,41.689373297002724
10553,Westchester County,NY,88.33746898263027,NA,NA
10701,Westchester County,NY,NA,NA,21.798365122615802
10950,Orange County,NY,NA,83.29113924050633,NA
10989,Rockland County,NY,NA,89.62025316455696,NA
11030,Nassau County,NY,NA,88.10126582278481,NA
11105,Queens County,NY,NA,NA,51.22615803814714
11206,Kings County,NY,NA,NA,5.722070844686648
11215,Kings County,NY,NA,NA,53.13351498637602
11220,Kings County,NY,NA,NA,13.35149863760218
11230,Kings County,NY,NA,NA,6.539509536784741
11234,Kings County,NY,NA,11.39240506329114,NA
11373,Queens County,NY,79.4044665012407,NA,NA
11434,Queens County,NY,12.40694789081886,NA,NA
11501,Nassau County,NY,91.56327543424318,NA,NA
11692,Queens County,NY,51.36476426799007,NA,NA
11710,Nassau County,NY,NA,NA,36.78474114441417
11757,Suffolk County,NY,NA,NA,26.430517711171664
11951,Suffolk County,NY,NA,NA,94.55040871934605
11968,Suffolk County,NY,NA,NA,82.01634877384197
12020,Saratoga County,NY,NA,26.582278481012654,NA
12123,Rensselaer County,NY,NA,98.48101265822785,NA
12144,Rensselaer County,NY,41.43920595533499,NA,NA
12206,Albany County,NY,19.106699751861044,NA,NA
12498,Ulster County,NY,NA,NA,93.73297002724796
12550,Orange County,NY,NA,NA,53.40599455040872
12563,Putnam County,NY,NA,NA,98.9100817438692
12801,Warren County,NY,NA,NA,69.75476839237056
12834,Washington County,NY,NA,69.36708860759494,NA
12920,Franklin County,NY,93.30024813895783,NA,NA
13027,Onondaga County,NY,NA,16.20253164556962,NA
13053,Tompkins County,NY,NA,98.22784810126582,NA
13066,Onondaga County,NY,NA,80.25316455696202,NA
13090,Onondaga County,NY,NA,64.55696202531645,NA
13126,Oswego County,NY,1.7369727047146404,NA,NA
13158,Cortland County,NY,97.27047146401985,NA,NA
13165,Seneca County,NY,NA,NA,71.11716621253406
13210,Onondaga County,NY,NA,NA,82.56130790190736
13309,Oneida County,NY,NA,74.43037974683544,NA
13440,Oneida County,NY,NA,4.810126582278481,NA
13606,Jefferson County,NY,98.26302729528535,NA,NA
13760,Broome County,NY,NA,NA,0.544959128065395
13790,Broome County,NY,NA,8.354430379746836,NA
13811,Tioga County,NY,80.14888337468983,NA,NA
13865,Broome County,NY,48.635235732009924,NA,NA
13901,Broome County,NY,2.2332506203473943,NA,NA
14094,Niagara County,NY,NA,2.0253164556962027,NA
14120,Niagara County,NY,NA,34.93670886075949,23.43324250681199
14207,Erie County,NY,5.707196029776675,NA,NA
14224,Erie County,NY,NA,NA,63.76021798365122
14227,Erie County,NY,24.069478908188586,NA,60.217983651226156
14505,Wayne County,NY,NA,68.35443037974683,NA
14572,Steuben County,NY,78.66004962779157,NA,NA
14580,Monroe County,NY,NA,NA,1.9073569482288828
14586,Monroe County,NY,32.50620347394541,NA,NA
14589,Wayne County,NY,34.7394540942928,NA,NA
14609,Monroe County,NY,0.49627791563275436,NA,NA
14615,Monroe County,NY,9.181141439205955,NA,NA
14701,Chautauqua County,NY,NA,36.45569620253165,NA
27104,Forsyth County,NC,NA,5.5696202531645564,NA
27105,Forsyth County,NC,NA,40.25316455696203,NA
27205,Randolph County,NC,42.4317617866005,NA,NA
27350,Randolph County,NC,NA,NA,80.92643051771117
27502,Wake County,NC,NA,NA,55.5858310626703
27511,Wake County,NC,64.51612903225806,NA,NA
27522,Granville County,NC,NA,NA,94.27792915531336
27529,Wake County,NC,24.317617866004962,NA,NA
27534,Wayne County,NC,NA,50.8860759493671,NA
27577,Johnston County,NC,NA,32.40506329113924,NA
27613,Wake County,NC,NA,NA,83.10626702997274
27614,Wake County,NC,86.10421836228288,35.949367088607595,NA
27703,Durham County,NC,NA,9.873417721518987,NA
27704,Durham County,NC,40.198511166253105,NA,NA
27705,Durham County,NC,NA,NA,18.256130790190735
27707,Durham County,NC,NA,8.10126582278481,NA
27870,Halifax County,NC,71.46401985111662,NA,NA
27909,Pasquotank County,NC,NA,12.151898734177214,NA
28078,Mecklenburg County,NC,31.017369727047146,NA,NA
28081,Cabarrus County,NC,21.339950372208435,NA,NA
28092,Lincoln County,NC,NA,NA,42.50681198910082
28168,Lincoln County,NC,NA,NA,98.09264305177112
28278,Mecklenburg County,NC,61.53846153846154,NA,NA
28340,Robeson County,NC,NA,67.08860759493672,NA
28374,Moore County,NC,NA,51.64556962025316,NA
28391,Cumberland County,NC,89.33002481389578,NA,NA
28443,Pender County,NC,NA,NA,68.93732970027247
28530,Pitt County,NC,86.35235732009926,NA,NA
28560,Craven County,NC,62.779156327543426,NA,NA
28562,Craven County,NC,NA,21.012658227848103,NA
28602,Catawba County,NC,NA,41.01265822784811,NA
28640,Ashe County,NC,NA,NA,84.19618528610354
28675,Alleghany County,NC,78.90818858560795,NA,NA
28731,Henderson County,NC,NA,50.63291139240506,NA
28786,Haywood County,NC,35.98014888337469,NA,NA
28804,Buncombe County,NC,NA,NA,89.10081743869209
58075,Richland County,ND,NA,93.41772151898734,NA
58078,Cass County,ND,NA,NA,52.31607629427793
58201,Grand Forks County,ND,NA,5.822784810126582,2.17983651226158
58237,Walsh County,ND,91.81141439205956,NA,NA
58301,Ramsey County,ND,NA,97.72151898734177,NA
58503,Burleigh County,ND,33.002481389578165,NA,NA
58504,Burleigh County,ND,NA,NA,17.166212534059948
43017,Franklin County,OH,NA,NA,36.51226158038147
43019,Knox County,OH,NA,72.9113924050633,NA
43026,Franklin County,OH,19.602977667493796,NA,NA
43054,Franklin County,OH,NA,65.56962025316456,NA
43074,Delaware County,OH,NA,NA,91.00817438692098
43085,Franklin County,OH,65.50868486352357,NA,NA
43209,Franklin County,OH,NA,NA,44.6866485013624
43214,Franklin County,OH,76.1786600496278,NA,NA
43224,Franklin County,OH,NA,14.430379746835442,NA
43326,Hardin County,OH,49.62779156327544,NA,NA
43515,Fulton County,OH,NA,86.83544303797468,NA
43543,Williams County,OH,NA,81.77215189873418,76.29427792915531
43611,Lucas County,OH,NA,NA,52.043596730245234
43613,Lucas County,OH,NA,23.79746835443038,NA
43616,Lucas County,OH,NA,NA,19.346049046321525
43623,Lucas County,OH,25.55831265508685,NA,NA
43964,Jefferson County,OH,25.06203473945409,NA,NA
44001,Lorain County,OH,NA,NA,7.3569482288828345
44022,Cuyahoga County,OH,81.38957816377172,NA,NA
44035,Lorain County,OH,0.24813895781637718,NA,NA
44057,Lake County,OH,NA,16.962025316455694,NA
44060,Lake County,OH,4.466501240694789,NA,NA
44077,Lake County,OH,NA,2.278481012658228,NA
44102,Cuyahoga County,OH,NA,NA,45.776566757493185
44107,Cuyahoga County,OH,0.9925558312655087,NA,NA
44112,Cuyahoga County,OH,5.955334987593052,NA,NA
44125,Cuyahoga County,OH,NA,9.620253164556962,NA
44130,Cuyahoga County,OH,NA,NA,0.2724795640326975
44135,Cuyahoga County,OH,15.88089330024814,NA,NA
44149,Cuyahoga County,OH,NA,16.70886075949367,NA
44212,Medina County,OH,NA,0.5063291139240507,NA
44221,Summit County,OH,NA,NA,13.079019073569482
44281,Medina County,OH,20.595533498759306,NA,NA
44333,Summit County,OH,NA,NA,40.59945504087194
44402,Trumbull County,OH,97.51861042183623,NA,NA
44507,Mahoning County,OH,52.853598014888334,NA,NA
44641,Stark County,OH,NA,NA,79.291553133515
44647,Stark County,OH,50.86848635235732,NA,NA
44709,Stark County,OH,NA,75.9493670886076,NA
44720,Stark County,OH,27.791563275434246,NA,NA
44721,Stark County,OH,NA,71.64556962025317,NA
44883,Seneca County,OH,NA,NA,56.675749318801095
44889,Huron County,OH,NA,85.31645569620252,NA
44907,Richland County,OH,NA,66.32911392405063,NA
45005,Warren County,OH,NA,NA,30.517711171662125
45036,Warren County,OH,19.851116625310176,NA,NA
45121,Brown County,OH,NA,78.73417721518987,NA
45211,Hamilton County,OH,7.444168734491314,NA,NA
45236,Hamilton County,OH,NA,NA,26.158038147138964
45238,Hamilton County,OH,NA,NA,8.991825613079019
45243,Hamilton County,OH,96.27791563275434,NA,NA
45304,Darke County,OH,87.84119106699751,NA,NA
45365,Shelby County,OH,9.925558312655088,NA,NA
45419,Montgomery County,OH,NA,NA,63.48773841961853
45426,Montgomery County,OH,53.349875930521094,NA,NA
45449,Montgomery County,OH,36.22828784119106,NA,NA
45601,Ross County,OH,NA,0,NA
45640,Jackson County,OH,85.8560794044665,32.65822784810127,NA
45662,Scioto County,OH,NA,NA,4.632152588555858
45801,Allen County,OH,NA,NA,97.00272479564033
45806,Allen County,OH,63.77171215880894,NA,NA
45879,Paulding County,OH,50.37220843672456,NA,NA
45895,Auglaize County,OH,NA,NA,86.10354223433242
73036,Canadian County,OK,41.935483870967744,NA,NA
73055,Stephens County,OK,NA,70.88607594936708,NA
73068,Cleveland County,OK,NA,65.0632911392405,NA
73099,Canadian County,OK,NA,5.3164556962025316,NA
73121,Oklahoma County,OK,NA,NA,91.00817438692098
73122,Oklahoma County,OK,78.90818858560795,NA,NA
73127,Oklahoma County,OK,NA,NA,67.0299727520436
73132,Oklahoma County,OK,NA,44.050632911392405,NA
73160,Cleveland County,OK,10.918114143920596,NA,NA
73505,Comanche County,OK,NA,15.69620253164557,NA
73651,Kiowa County,OK,95.7816377171216,NA,NA
74003,Osage County,OK,64.26799007444168,NA,NA
74008,Tulsa County,OK,NA,51.392405063291136,NA
74014,Wagoner County,OK,37.468982630272954,NA,NA
74017,Rogers County,OK,44.66501240694789,NA,NA
74063,Tulsa County,OK,NA,70.37974683544303,NA
74074,Payne County,OK,NA,40,NA
74104,Tulsa County,OK,82.13399503722084,NA,NA
74437,Okmulgee County,OK,NA,74.17721518987341,NA
74601,Kay County,OK,44.41687344913151,NA,70.84468664850137
74728,McCurtain County,OK,NA,NA,78.4741144414169
97062,Washington County,OR,60.049627791563275,NA,NA
97080,Multnomah County,OR,NA,19.240506329113924,NA
97103,Clatsop County,OR,NA,NA,73.56948228882834
97213,Multnomah County,OR,38.21339950372209,NA,NA
97322,Linn County,OR,NA,NA,8.446866485013624
97330,Benton County,OR,NA,NA,20.98092643051771
97367,Lincoln County,OR,70.22332506203473,NA,NA
97411,Coos County,OR,NA,NA,95.91280653950953
97448,Lane County,OR,NA,NA,89.91825613079018
97603,Klamath County,OR,NA,NA,4.35967302452316
97741,Jefferson County,OR,NA,NA,74.93188010899182
97760,Jefferson County,OR,NA,82.53164556962025,NA
15012,Westmoreland County,PA,NA,NA,39.509536784741144
15120,Allegheny County,PA,45.16129032258064,NA,NA
15202,Allegheny County,PA,77.91563275434244,NA,NA
15211,Allegheny County,PA,86.848635235732,NA,NA
15213,Allegheny County,PA,NA,NA,38.96457765667575
15214,Allegheny County,PA,NA,NA,63.21525885558583
15224,Allegheny County,PA,NA,NA,79.56403269754769
15226,Allegheny County,PA,NA,57.21518987341773,NA
15236,Allegheny County,PA,NA,29.873417721518987,NA
15317,Washington County,PA,28.78411910669975,NA,14.168937329700274
15417,Fayette County,PA,NA,84.55696202531645,NA
16502,Erie County,PA,NA,82.02531645569621,NA
16503,Erie County,PA,36.47642679900744,NA,NA
16511,Erie County,PA,NA,NA,91.55313351498637
16735,McKean County,PA,NA,NA,55.313351498637594
16833,Clearfield County,PA,NA,59.49367088607595,NA
16933,Tioga County,PA,NA,92.15189873417722,NA
17015,Cumberland County,PA,43.920595533498755,NA,NA
17022,Lancaster County,PA,15.384615384615385,NA,NA
17109,Dauphin County,PA,NA,51.64556962025316,NA
17111,Dauphin County,PA,NA,33.164556962025316,NA
17113,Dauphin County,PA,45.6575682382134,NA,NA
17236,Franklin County,PA,NA,NA,59.945504087193456
17257,Cumberland County,PA,23.325062034739457,NA,NA
17307,Adams County,PA,84.863523573201,NA,NA
17408,York County,PA,NA,14.683544303797468,NA
17870,Snyder County,PA,48.38709677419355,NA,NA
18013,Northampton County,PA,NA,42.025316455696206,NA
18052,Lehigh County,PA,NA,32.91139240506329,NA
18222,Luzerne County,PA,NA,NA,69.48228882833789
18508,Lackawanna County,PA,NA,45.822784810126585,NA
19027,Montgomery County,PA,NA,NA,23.160762942779293
19087,Chester County,PA,NA,22.78481012658228,NA
19103,Philadelphia County,PA,NA,22.531645569620252,NA
19131,Philadelphia County,PA,NA,2.7848101265822782,NA
19134,Philadelphia County,PA,NA,13.670886075949367,NA
19138,Philadelphia County,PA,NA,22.025316455696203,NA
19141,Philadelphia County,PA,NA,15.18987341772152,NA
19144,Philadelphia County,PA,NA,NA,19.891008174386922
19145,Philadelphia County,PA,4.714640198511166,NA,NA
19462,Montgomery County,PA,NA,NA,53.950953678474114
19506,Berks County,PA,NA,73.41772151898735,83.92370572207084
19604,Berks County,PA,NA,95.9493670886076,NA
02895,Providence County,RI,9.67741935483871,NA,NA
02907,Providence County,RI,40.94292803970223,NA,NA
29349,Spartanburg County,SC,NA,19.746835443037973,NA
29372,Spartanburg County,SC,NA,NA,94.82288828337875
29406,Charleston County,SC,NA,NA,68.93732970027247
29445,Berkeley County,SC,NA,25.569620253164555,NA
29560,Florence County,SC,97.02233250620348,NA,NA
29579,Horry County,SC,NA,NA,41.96185286103542
29707,Lancaster County,SC,NA,48.35443037974684,NA
29730,York County,SC,18.11414392059553,NA,NA
29841,Aiken County,SC,NA,NA,51.49863760217984
29910,Beaufort County,SC,68.4863523573201,NA,NA
29927,Jasper County,SC,NA,96.45569620253166,NA
57064,Lincoln County,SD,98.75930521091811,NA,NA
57108,Lincoln County,SD,NA,20,NA
57301,Davison County,SD,NA,33.92405063291139,NA
57702,Pennington County,SD,NA,17.468354430379744,NA
37042,Montgomery County,TN,23.573200992555833,37.9746835443038,NA
37090,Wilson County,TN,83.37468982630273,NA,NA
37167,Rutherford County,TN,NA,NA,40.05449591280654
37207,Davidson County,TN,NA,29.367088607594937,NA
37209,Davidson County,TN,31.5136476426799,NA,NA
37327,Sequatchie County,TN,NA,64.30379746835443,NA
37342,Coffee County,TN,NA,99.24050632911391,NA
37347,Marion County,TN,NA,NA,91.82561307901908
37398,Franklin County,TN,NA,55.949367088607595,NA
37421,Hamilton County,TN,NA,NA,25.61307901907357
37766,Campbell County,TN,NA,NA,33.787465940054496
37774,Loudon County,TN,NA,23.29113924050633,NA
37876,Sevier County,TN,NA,58.22784810126582,NA
37914,Knox County,TN,NA,NA,58.31062670299727
37934,Knox County,TN,76.42679900744417,NA,NA
38002,Shelby County,TN,86.60049627791562,NA,NA
38242,Henry County,TN,NA,NA,47.68392370572207
38363,Decatur County,TN,NA,NA,84.74114441416893
38401,Maury County,TN,NA,NA,19.618528610354225
38462,Lewis County,TN,NA,77.72151898734178,NA
38464,Lawrence County,TN,NA,30.37974683544304,NA
38506,Putnam County,TN,NA,20.759493670886076,NA
38544,Putnam County,TN,99.0074441687345,NA,NA
38585,Van Buren County,TN,94.54094292803971,NA,NA
75006,Dallas County,TX,NA,27.848101265822784,NA
75025,Collin County,TX,58.06451612903226,NA,NA
75040,Dallas County,TX,NA,28.860759493670884,NA
75087,Rockwall County,TX,NA,54.936708860759495,NA
75142,Kaufman County,TX,NA,NA,60.217983651226156
75154,Ellis County,TX,NA,NA,71.38964577656675
75181,Dallas County,TX,54.59057071960298,NA,NA
75212,Dallas County,TX,46.65012406947891,NA,NA
75229,Dallas County,TX,NA,46.58227848101266,NA
75232,Dallas County,TX,46.15384615384615,NA,NA
75474,Hunt County,TX,82.6302729528536,NA,NA
75605,Gregg County,TX,53.84615384615385,NA,NA
75650,Harrison County,TX,75.18610421836229,NA,NA
75707,Smith County,TX,90.32258064516128,NA,NA
75751,Henderson County,TX,NA,50.379746835443044,NA
75757,Smith County,TX,NA,41.77215189873418,NA
75979,Tyler County,TX,NA,NA,89.3732970027248
76021,Tarrant County,TX,34.24317617866005,NA,NA
76033,Johnson County,TX,NA,NA,53.67847411444142
76036,Tarrant County,TX,NA,NA,54.495912806539515
76086,Parker County,TX,NA,NA,35.694822888283376
76513,Bell County,TX,NA,NA,9.536784741144414
76710,McLennan County,TX,55.831265508684865,NA,NA
76825,McCulloch County,TX,NA,72.15189873417721,NA
76904,Tom Green County,TX,NA,NA,28.882833787465938
77058,Harris County,TX,79.90074441687345,NA,NA
77065,Harris County,TX,62.03473945409429,NA,NA
77071,Harris County,TX,NA,86.32911392405063,NA
77076,Harris County,TX,55.08684863523573,NA,NA
77088,Harris County,TX,NA,33.92405063291139,NA
77091,Harris County,TX,56.32754342431762,NA,NA
77379,Harris County,TX,NA,NA,10.08174386920981
77385,Montgomery County,TX,NA,NA,88.5558583106267
77450,Harris County,TX,NA,18.9873417721519,NA
77469,Fort Bend County,TX,28.03970223325062,NA,NA
77471,Fort Bend County,TX,39.20595533498759,NA,NA
77479,Fort Bend County,TX,29.280397022332505,NA,NA
77488,Wharton County,TX,66.25310173697271,NA,NA
77489,Fort Bend County,TX,29.776674937965257,NA,NA
77493,Harris County,TX,NA,83.79746835443038,NA
77504,Harris County,TX,NA,NA,74.65940054495913
77590,Galveston County,TX,NA,12.91139240506329,NA
77642,Jefferson County,TX,NA,NA,51.49863760217984
77871,Leon County,TX,NA,NA,65.12261580381471
78101,Bexar County,TX,NA,89.1139240506329,NA
78247,Bexar County,TX,54.3424317617866,NA,NA
78504,Hidalgo County,TX,NA,44.55696202531645,NA
78569,Willacy County,TX,99.75186104218362,NA,NA
78572,Hidalgo County,TX,NA,NA,5.994550408719346
78574,Hidalgo County,TX,37.220843672456574,NA,NA
78626,Williamson County,TX,NA,76.45569620253164,NA
78633,Williamson County,TX,NA,NA,2.7247956403269753
78640,Hays County,TX,NA,NA,62.125340599455036
78666,Hays County,TX,26.550868486352357,NA,NA
78717,Williamson County,TX,81.38957816377172,NA,NA
78735,Travis County,TX,NA,NA,76.83923705722071
78739,Travis County,TX,NA,NA,93.18801089918256
78744,Travis County,TX,NA,NA,87.19346049046321
78745,Travis County,TX,61.29032258064516,NA,NA
78840,Val Verde County,TX,NA,NA,9.264305177111716
78945,Fayette County,TX,NA,NA,71.66212534059946
79106,Potter County,TX,NA,NA,44.95912806539509
79108,Potter County,TX,78.41191066997519,NA,NA
79331,Dawson County,TX,87.59305210918114,NA,NA
79701,Midland County,TX,NA,65.31645569620254,NA
79761,Ector County,TX,91.06699751861042,NA,NA
79936,El Paso County,TX,NA,18.227848101265824,NA
84015,Davis County,UT,NA,48.60759493670886,NA
84047,Salt Lake County,UT,NA,45.822784810126585,NA
84058,Utah County,UT,NA,83.0379746835443,NA
84081,Salt Lake County,UT,30.76923076923077,NA,NA
84109,Salt Lake County,UT,65.01240694789082,NA,NA
84123,Salt Lake County,UT,NA,38.22784810126582,NA
84404,Weber County,UT,NA,37.46835443037975,NA
84780,Washington County,UT,NA,47.34177215189874,NA
05446,Chittenden County,VT,NA,NA,64.57765667574932
05701,Rutland County,VT,38.46153846153847,NA,NA
20148,Loudoun County,VA,NA,NA,97.82016348773843
20155,Prince William County,VA,61.04218362282878,44.303797468354425,NA
22026,Prince William County,VA,NA,NA,95.64032697547684
22030,Fairfax County,VA,NA,29.620253164556964,NA
22079,Fairfax County,VA,42.92803970223325,NA,NA
22204,Arlington County,VA,NA,46.32911392405064,NA
22546,Caroline County,VA,NA,87.34177215189874,NA
22911,Albemarle County,VA,NA,NA,27.520435967302454
22968,Greene County,VA,NA,NA,84.46866485013625
23061,Gloucester County,VA,NA,70.63291139240506,NA
23185,James City County,VA,NA,3.79746835443038,NA
23219,Richmond city,VA,100,NA,NA
23222,Richmond city,VA,49.13151364764268,NA,NA
23228,Henrico County,VA,50.12406947890818,NA,NA
23321,Chesapeake city,VA,48.13895781637717,NA,NA
23451,Virginia Beach city,VA,NA,NA,3.8147138964577656
23452,Virginia Beach city,VA,21.588089330024815,NA,NA
23464,Virginia Beach city,VA,NA,3.0379746835443036,NA
23602,Newport News city,VA,NA,28.607594936708864,NA
23608,Newport News city,VA,18.36228287841191,NA,NA
23847,Greensville County,VA,88.08933002481389,NA,NA
23868,Brunswick County,VA,89.57816377171216,NA,NA
24017,Roanoke city,VA,NA,43.037974683544306,NA
24018,Roanoke County,VA,NA,31.139240506329113,NA
24333,Galax city,VA,47.8908188585608,NA,NA
24416,Buena Vista city,VA,65.75682382133995,NA,NA
24502,Lynchburg city,VA,43.17617866004963,NA,NA
24551,Bedford County,VA,NA,NA,52.86103542234333
24592,Halifax County,VA,NA,NA,29.972752043596728
98022,King County,WA,NA,22.278481012658226,NA
98023,King County,WA,NA,13.41772151898734,NA
98027,King County,WA,NA,NA,54.223433242506815
98031,King County,WA,NA,14.936708860759493,NA
98053,King County,WA,74.19354838709677,NA,NA
98125,King County,WA,40.69478908188586,NA,NA
98199,King County,WA,NA,NA,57.22070844686649
98223,Snohomish County,WA,24.56575682382134,NA,NA
98233,Skagit County,WA,NA,NA,46.321525885558586
98274,Skagit County,WA,NA,41.51898734177215,NA
98363,Clallam County,WA,NA,93.67088607594937,NA
98372,Pierce County,WA,NA,57.974683544303794,NA
98406,Pierce County,WA,NA,52.40506329113924,NA
98408,Pierce County,WA,81.88585607940446,NA,NA
98422,Pierce County,WA,NA,64.81012658227849,NA
98498,Pierce County,WA,95.28535980148884,NA,NA
98541,Grays Harbor County,WA,NA,NA,98.36512261580381
98660,Clark County,WA,84.36724565756823,NA,NA
98671,Clark County,WA,94.04466501240695,NA,NA
98802,Douglas County,WA,52.10918114143921,29.11392405063291,NA
98812,Okanogan County,WA,NA,97.21518987341771,NA
98926,Kittitas County,WA,54.83870967741935,NA,22.888283378746593
99114,Stevens County,WA,77.91563275434244,NA,NA
99202,Spokane County,WA,NA,NA,86.92098092643052
99301,Franklin County,WA,NA,6.329113924050633,NA
99337,Benton County,WA,60.7940446650124,NA,NA
25177,Kanawha County,WV,NA,NA,14.986376021798364
25313,Kanawha County,WV,NA,51.13924050632911,NA
97003,NA,NA,55.08684863523573,NA,NA
25320,Kanawha County,WV,NA,90.37974683544304,NA
25504,Cabell County,WV,58.80893300248139,NA,NA
25701,Cabell County,WV,NA,NA,25.068119891008173
25705,Cabell County,WV,NA,NA,61.30790190735694
26354,Taylor County,WV,NA,45.56962025316456,NA
26444,Preston County,WV,98.01488833746899,NA,NA
26505,Monongalia County,WV,NA,NA,15.803814713896458
26554,Marion County,WV,NA,1.0126582278481013,3.5422343324250685
53029,Waukesha County,WI,97.76674937965261,NA,NA
53081,Sheboygan County,WI,14.392059553349876,NA,NA
53126,Racine County,WI,NA,NA,75.74931880108991
53142,Kenosha County,WI,NA,NA,37.05722070844686
53186,Waukesha County,WI,27.04714640198511,NA,NA
53190,Walworth County,WI,NA,NA,96.73024523160763
53191,Walworth County,WI,NA,98.9873417721519,NA
53206,Milwaukee County,WI,7.6923076923076925,NA,NA
53207,Milwaukee County,WI,NA,30.37974683544304,NA
53209,Milwaukee County,WI,NA,NA,7.901907356948229
53212,Milwaukee County,WI,12.158808933002481,NA,NA
53215,Milwaukee County,WI,NA,4.050632911392405,NA
53218,Milwaukee County,WI,NA,NA,40.32697547683924
53225,Milwaukee County,WI,8.436724565756824,37.721518987341774,NA
53402,Racine County,WI,NA,NA,0.8174386920980926
53511,Rock County,WI,NA,NA,0
53546,Rock County,WI,49.37965260545906,NA,NA
53581,Richland County,WI,NA,NA,68.66485013623979
53590,Dane County,WI,38.95781637717122,NA,NA
53711,Dane County,WI,NA,NA,47.41144414168937
53717,Dane County,WI,NA,NA,48.77384196185286
53950,Juneau County,WI,NA,NA,95.09536784741145
54017,St. Croix County,WI,NA,NA,68.11989100817438
54216,Kewaunee County,WI,NA,92.91139240506328,NA
54840,Burnett County,WI,NA,79.24050632911393,NA
54843,Sawyer County,WI,NA,NA,62.67029972752044
54868,Barron County,WI,NA,NA,32.42506811989101
54913,Outagamie County,WI,NA,81.0126582278481,NA
54952,Winnebago County,WI,75.68238213399503,NA,NA
54981,Waupaca County,WI,63.52357320099256,NA,NA
82201,Platte County,WY,NA,NA,77.9291553133515
