ZipCode,county,state,Adult,Retirement,Geriatric
35023,Jefferson County,AL,NA,12.996389891696749,NA
35094,Jefferson County,AL,NA,NA,77.25321888412017
35175,Marshall County,AL,NA,NA,96.99570815450643
35214,Jefferson County,AL,97.86096256684492,NA,NA
35215,Jefferson County,AL,NA,43.682310469314075,NA
35226,Jefferson County,AL,NA,22.743682310469314,NA
35242,Shelby County,AL,28.342245989304814,NA,NA
35404,Tuscaloosa County,AL,NA,36.462093862815884,NA
35406,Tuscaloosa County,AL,NA,NA,43.34763948497854
35475,Tuscaloosa County,AL,49.19786096256685,59.205776173285194,NA
35476,Tuscaloosa County,AL,94.11764705882352,NA,NA
35749,Madison County,AL,NA,60.64981949458483,NA
35901,Etowah County,AL,NA,41.87725631768953,NA
35907,Etowah County,AL,NA,NA,84.54935622317596
36344,Geneva County,AL,NA,89.89169675090253,NA
85020,Maricopa County,AZ,NA,39.35018050541516,NA
85119,Pinal County,AZ,68.98395721925134,NA,NA
85122,Pinal County,AZ,NA,52.707581227436826,NA
85255,Maricopa County,AZ,78.07486631016043,NA,NA
85266,Maricopa County,AZ,100,NA,NA
85297,Maricopa County,AZ,NA,NA,85.83690987124464
85374,Maricopa County,AZ,NA,NA,3.862660944206009
85383,Maricopa County,AZ,NA,42.238267148014444,NA
85396,Maricopa County,AZ,NA,63.898916967509024,NA
85615,Cochise County,AZ,NA,84.47653429602889,NA
85750,Pima County,AZ,NA,57.400722021660656,NA
85755,Pima County,AZ,NA,58.48375451263538,NA
86326,Yavapai County,AZ,NA,NA,20.171673819742487
86442,Mohave County,AZ,NA,6.859205776173286,NA
71671,Bradley County,AR,NA,NA,81.97424892703863
72023,Lonoke County,AR,NA,29.96389891696751,NA
72058,Faulkner County,AR,NA,83.39350180505414,NA
72118,Pulaski County,AR,NA,66.78700361010831,NA
72143,White County,AR,NA,NA,4.721030042918455
72204,Pulaski County,AR,NA,32.12996389891697,NA
72543,Cleburne County,AR,NA,68.95306859205776,NA
72703,Washington County,AR,NA,NA,65.66523605150213
72714,Benton County,AR,NA,74.36823104693141,NA
90007,Los Angeles County,CA,23.52941176470588,NA,NA
90012,Los Angeles County,CA,63.63636363636363,NA,NA
90018,Los Angeles County,CA,NA,NA,75.10729613733905
90028,Los Angeles County,CA,64.70588235294117,NA,NA
90046,Los Angeles County,CA,NA,NA,4.291845493562231
90063,Los Angeles County,CA,NA,NA,93.13304721030042
90066,Los Angeles County,CA,NA,34.65703971119133,NA
90255,Los Angeles County,CA,25.13368983957219,NA,NA
90605,Los Angeles County,CA,NA,NA,68.24034334763948
90630,Orange County,CA,45.45454545454545,NA,NA
90740,Orange County,CA,NA,51.985559566786996,23.605150214592275
90803,Los Angeles County,CA,NA,55.5956678700361,NA
91011,Los Angeles County,CA,NA,NA,72.53218884120172
91206,Los Angeles County,CA,NA,NA,47.21030042918455
91356,Los Angeles County,CA,NA,96.75090252707581,NA
91367,Los Angeles County,CA,NA,NA,62.231759656652365
91706,Los Angeles County,CA,19.786096256684495,NA,NA
91741,Los Angeles County,CA,79.67914438502673,NA,NA
91748,Los Angeles County,CA,68.44919786096256,NA,NA
91763,San Bernardino County,CA,62.03208556149733,NA,NA
92025,San Diego County,CA,44.919786096256686,NA,NA
92056,San Diego County,CA,NA,88.4476534296029,NA
92114,San Diego County,CA,NA,29.24187725631769,NA
92234,Riverside County,CA,8.55614973262032,NA,NA
92264,Riverside County,CA,NA,70.3971119133574,NA
92284,San Bernardino County,CA,NA,NA,65.23605150214593
92335,San Bernardino County,CA,NA,15.523465703971121,NA
92392,San Bernardino County,CA,NA,33.2129963898917,NA
92395,San Bernardino County,CA,NA,50.90252707581227,NA
92410,San Bernardino County,CA,29.946524064171122,NA,NA
92586,Riverside County,CA,NA,53.42960288808665,NA
92653,Orange County,CA,NA,60.28880866425993,NA
92705,Orange County,CA,NA,NA,21.888412017167383
92708,Orange County,CA,NA,15.162454873646208,NA
92801,Orange County,CA,NA,NA,43.776824034334766
92886,Orange County,CA,NA,17.689530685920577,NA
93001,Ventura County,CA,59.35828877005348,NA,NA
93030,Ventura County,CA,47.05882352941176,NA,NA
93063,Ventura County,CA,NA,28.51985559566787,NA
93221,Tulare County,CA,94.6524064171123,NA,NA
93313,Kern County,CA,NA,61.371841155234655,NA
93535,Los Angeles County,CA,31.016042780748666,NA,NA
93631,Fresno County,CA,NA,NA,84.97854077253218
93638,Madera County,CA,NA,54.151624548736464,NA
93657,Fresno County,CA,82.88770053475936,NA,NA
93730,Fresno County,CA,90.37433155080214,NA,NA
94015,San Mateo County,CA,NA,6.4981949458483745,NA
94024,Santa Clara County,CA,86.09625668449198,NA,NA
94025,San Mateo County,CA,NA,NA,28.75536480686695
94040,Santa Clara County,CA,NA,81.94945848375451,NA
94061,San Mateo County,CA,NA,NA,17.167381974248926
94070,San Mateo County,CA,NA,NA,63.519313304721024
94108,San Francisco County,CA,NA,NA,61.37339055793991
94127,San Francisco County,CA,NA,NA,63.94849785407726
94509,Contra Costa County,CA,16.577540106951872,NA,NA
94519,Contra Costa County,CA,NA,88.08664259927798,NA
94601,Alameda County,CA,42.24598930481284,NA,NA
94618,Alameda County,CA,NA,95.66787003610109,NA
94619,Alameda County,CA,NA,NA,82.40343347639485
94702,Alameda County,CA,NA,94.22382671480143,NA
94928,Sonoma County,CA,NA,51.624548736462096,NA
94941,Marin County,CA,NA,NA,38.197424892703864
95050,Santa Clara County,CA,NA,NA,57.5107296137339
95118,Santa Clara County,CA,60.962566844919785,NA,NA
95204,San Joaquin County,CA,NA,NA,72.96137339055794
95207,San Joaquin County,CA,16.042780748663102,NA,NA
95220,San Joaquin County,CA,97.32620320855615,NA,NA
95355,Stanislaus County,CA,NA,5.776173285198556,NA
95401,Sonoma County,CA,NA,58.844765342960294,NA
95476,Sonoma County,CA,NA,NA,67.81115879828327
95670,Sacramento County,CA,NA,NA,28.32618025751073
95817,Sacramento County,CA,NA,74.0072202166065,NA
95843,Sacramento County,CA,NA,NA,81.54506437768241
96080,Tehama County,CA,NA,NA,44.20600858369099
80002,Jefferson County,CO,NA,81.2274368231047,NA
80033,Jefferson County,CO,NA,68.23104693140795,NA
80112,Arapahoe County,CO,NA,NA,87.1244635193133
80126,Douglas County,CO,NA,64.62093862815884,94.4206008583691
80487,Routt County,CO,98.3957219251337,NA,NA
80503,Boulder County,CO,NA,NA,52.78969957081545
80524,Larimer County,CO,NA,28.880866425992778,NA
80537,Larimer County,CO,NA,13.718411552346572,NA
80701,Morgan County,CO,NA,NA,83.69098712446352
80817,El Paso County,CO,NA,89.53068592057761,NA
80915,El Paso County,CO,NA,82.31046931407943,NA
06479,Hartford County,CT,NA,NA,77.6824034334764
06513,New Haven County,CT,NA,NA,21.030042918454935
06516,New Haven County,CT,NA,26.353790613718413,NA
06824,Fairfield County,CT,NA,NA,86.69527896995707
06897,Fairfield County,CT,NA,NA,64.37768240343348
19701,New Castle County,DE,22.459893048128343,NA,NA
32034,Nassau County,FL,49.73262032085562,NA,NA
32063,Baker County,FL,NA,87.00361010830325,NA
32080,St. Johns County,FL,NA,NA,29.184549356223176
32081,St. Johns County,FL,NA,NA,93.56223175965665
32086,St. Johns County,FL,NA,NA,12.446351931330472
32112,Putnam County,FL,NA,90.97472924187726,NA
32224,Duval County,FL,NA,52.34657039711191,NA
32277,Duval County,FL,17.647058823529413,NA,NA
32304,Leon County,FL,55.61497326203209,NA,NA
32327,Wakulla County,FL,76.47058823529412,NA,NA
32405,Bay County,FL,NA,NA,16.738197424892704
32566,Santa Rosa County,FL,NA,24.187725631768952,NA
32569,Okaloosa County,FL,NA,96.028880866426,NA
32605,Alachua County,FL,NA,33.57400722021661,NA
32608,Alachua County,FL,NA,NA,29.613733905579398
32713,Volusia County,FL,84.49197860962568,NA,NA
32750,Seminole County,FL,66.84491978609626,NA,NA
32824,Orange County,FL,NA,73.28519855595668,NA
32909,Brevard County,FL,NA,33.935018050541515,NA
32976,Brevard County,FL,82.35294117647058,NA,NA
33021,Broward County,FL,88.23529411764706,NA,NA
33064,Broward County,FL,NA,61.01083032490975,NA
33138,Miami-Dade County,FL,NA,68.95306859205776,NA
33139,Miami-Dade County,FL,NA,NA,8.583690987124463
33160,Miami-Dade County,FL,NA,41.51624548736462,NA
33182,Miami-Dade County,FL,NA,91.69675090252709,NA
33404,Palm Beach County,FL,NA,54.51263537906137,NA
33434,Palm Beach County,FL,NA,NA,3.004291845493562
33542,Pasco County,FL,99.46524064171123,NA,NA
33810,Polk County,FL,NA,39.71119133574007,NA
33815,Polk County,FL,36.898395721925134,NA,NA
33830,Polk County,FL,32.085561497326204,NA,NA
33908,Lee County,FL,60.42780748663101,3.9711191335740073,NA
33917,Lee County,FL,NA,NA,13.733905579399142
34145,Collier County,FL,NA,NA,31.759656652360512
34232,Sarasota County,FL,NA,35.74007220216607,NA
34288,Sarasota County,FL,NA,79.06137184115524,NA
34482,Marion County,FL,64.171122994652407,NA,NA
34786,Orange County,FL,NA,NA,78.11158798283262
34787,Orange County,FL,NA,21.299638989169676,NA
34952,St. Lucie County,FL,NA,NA,6.008583690987124
34974,Okeechobee County,FL,NA,47.292418772563174,NA
30024,Gwinnett County,GA,NA,27.075812274368232,NA
30032,DeKalb County,GA,NA,9.025270758122744,NA
30040,Forsyth County,GA,NA,NA,11.158798283261802
30068,Cobb County,GA,NA,66.06498194945848,NA
30087,DeKalb County,GA,NA,NA,36.9098712446352
30088,DeKalb County,GA,NA,NA,90.98712446351931
30092,Gwinnett County,GA,NA,70.7581227436823,NA
30265,Coweta County,GA,50.80213903743316,NA,NA
30519,Gwinnett County,GA,NA,35.018050541516246,NA
30548,Jackson County,GA,NA,NA,70.3862660944206
30736,Catoosa County,GA,4.81283422459893,NA,NA
31005,Houston County,GA,NA,NA,86.26609442060087
31322,Chatham County,GA,NA,77.6173285198556,NA
96746,Kauai County,HI,NA,NA,91.41630901287554
96768,Maui County,HI,NA,92.7797833935018,NA
96782,Honolulu County,HI,NA,94.58483754512635,NA
96817,Honolulu County,HI,NA,NA,31.330472103004293
96826,Honolulu County,HI,NA,34.29602888086642,NA
83404,Bonneville County,ID,NA,NA,58.36909871244635
83646,Ada County,ID,NA,NA,1.2875536480686696
83651,Canyon County,ID,NA,8.664259927797833,NA
83661,Payette County,ID,NA,93.14079422382672,NA
83669,Ada County,ID,87.70053475935828,NA,NA
60002,Lake County,IL,NA,38.98916967509025,NA
60005,Cook County,IL,54.54545454545454,NA,NA
60076,Cook County,IL,75.40106951871658,NA,NA
60099,Lake County,IL,37.967914438502675,NA,NA
60119,Kane County,IL,NA,NA,92.27467811158799
60175,Kane County,IL,NA,38.628158844765345,NA
60473,Cook County,IL,NA,56.678700361010826,NA
60546,Cook County,IL,NA,48.014440433213,NA
60631,Cook County,IL,27.807486631016044,NA,NA
60649,Cook County,IL,7.4866310160427805,NA,NA
60651,Cook County,IL,NA,5.415162454873646,NA
61401,Knox County,IL,NA,31.046931407942242,NA
61764,Livingston County,IL,70.05347593582889,NA,NA
62226,St. Clair County,IL,41.711229946524064,NA,NA
46151,Morgan County,IN,NA,20.577617328519857,NA
46168,Hendricks County,IN,NA,NA,50.21459227467812
46176,Shelby County,IN,NA,8.303249097472925,NA
46219,Marion County,IN,NA,NA,12.446351931330472
46220,Marion County,IN,NA,53.068592057761734,NA
46229,Marion County,IN,NA,38.26714801444043,NA
46311,Lake County,IN,29.411764705882355,NA,NA
46322,Lake County,IN,18.71657754010695,NA,9.44206008583691
46368,Porter County,IN,NA,NA,13.304721030042918
46628,St. Joseph County,IN,47.593582887700535,NA,NA
46953,Grant County,IN,NA,NA,55.36480686695279
47240,Decatur County,IN,NA,NA,30.472103004291846
47304,Delaware County,IN,NA,49.09747292418773,NA
47331,Fayette County,IN,NA,11.552346570397113,NA
47421,Lawrence County,IN,NA,NA,39.05579399141631
47542,Dubois County,IN,NA,NA,79.82832618025752
47601,Warrick County,IN,NA,49.458483754512635,NA
47807,Vigo County,IN,44.38502673796791,NA,NA
52240,Johnson County,IA,15.508021390374333,NA,NA
52302,Linn County,IA,NA,40.43321299638989,NA
66047,Douglas County,KS,NA,87.36462093862815,NA
66749,Allen County,KS,NA,NA,69.09871244635193
67114,Harvey County,KS,77.54010695187165,NA,NA
67220,Sedgwick County,KS,NA,NA,98.28326180257511
67801,Ford County,KS,58.288770053475936,NA,NA
40065,Shelby County,KY,NA,31.40794223826715,NA
40222,Jefferson County,KY,NA,NA,26.609442060085836
40258,Jefferson County,KY,NA,NA,51.931330472103
40311,Nicholas County,KY,NA,89.16967509025271,NA
40503,Fayette County,KY,NA,71.11913357400722,NA
40509,Fayette County,KY,NA,46.57039711191336,NA
41091,Boone County,KY,72.19251336898395,NA,NA
41101,Boyd County,KY,NA,18.772563176895307,NA
41102,Boyd County,KY,14.973262032085561,NA,NA
42701,Hardin County,KY,70.58823529411765,NA,NA
70037,Plaquemines Parish,LA,NA,72.20216606498195,NA
70560,Iberia Parish,LA,1.06951871657754,NA,NA
70663,Calcasieu Parish,LA,NA,22.021660649819495,NA
70734,Ascension Parish,LA,89.3048128342246,NA,NA
70816,East Baton Rouge Parish,LA,2.13903743315508,NA,NA
71115,Caddo Parish,LA,NA,90.61371841155234,NA
71119,Caddo Parish,LA,NA,NA,72.1030042918455
71351,Avoyelles Parish,LA,NA,NA,74.2489270386266
71463,Allen Parish,LA,NA,NA,84.12017167381974
04073,York County,ME,NA,NA,14.163090128755366
04240,Androscoggin County,ME,NA,2.527075812274368,NA
04938,Franklin County,ME,50.26737967914438,NA,NA
20815,Montgomery County,MD,NA,NA,42.91845493562232
21013,Baltimore County,MD,NA,NA,89.27038626609442
21048,Carroll County,MD,90.9090909090909,NA,NA
21093,Baltimore County,MD,40.64171122994652,NA,6.866952789699571
21921,Cecil County,MD,10.16042780748663,NA,NA
01201,Berkshire County,MA,NA,0.36101083032490977,NA
01501,Worcester County,MA,NA,36.101083032490976,NA
01545,Worcester County,MA,NA,16.24548736462094,NA
01609,Worcester County,MA,NA,31.768953068592058,NA
01776,Middlesex County,MA,40.106951871657756,NA,NA
01880,Middlesex County,MA,NA,NA,51.072961373390555
01904,Essex County,MA,NA,11.191335740072201,NA
02043,Plymouth County,MA,NA,NA,94.84978540772532
02093,Norfolk County,MA,56.14973262032086,NA,NA
02144,Middlesex County,MA,NA,NA,18.025751072961373
02186,Norfolk County,MA,8.0213903743315509,NA,NA
02188,Norfolk County,MA,NA,44.4043321299639,NA
02446,Norfolk County,MA,NA,NA,7.296137339055794
02492,Norfolk County,MA,NA,29.602888086642597,45.92274678111588
02536,Barnstable County,MA,NA,NA,11.587982832618025
02726,Bristol County,MA,24.06417112299465,NA,NA
02740,Bristol County,MA,NA,0.7220216606498195,NA
48074,St. Clair County,MI,67.9144385026738,NA,NA
48075,Oakland County,MI,NA,NA,24.892703862660944
48088,Macomb County,MI,43.31550802139038,NA,NA
48128,Wayne County,MI,NA,85.5595667870036,NA
48130,Washtenaw County,MI,NA,NA,48.927038626609445
48169,Livingston County,MI,NA,NA,39.48497854077253
48198,Washtenaw County,MI,NA,11.913357400722022,NA
48206,Wayne County,MI,21.92513368983957,NA,NA
48313,Macomb County,MI,NA,NA,20.600858369098713
48314,Macomb County,MI,38.50267379679144,NA,NA
48380,Oakland County,MI,NA,84.11552346570397,NA
48381,Oakland County,MI,65.24064171122996,NA,NA
48601,Saginaw County,MI,NA,NA,2.1459227467811157
48661,Ogemaw County,MI,NA,61.73285198555957,NA
48708,Bay County,MI,2.6737967914438503,NA,NA
48837,Eaton County,MI,NA,36.8231046931408,NA
48906,Ingham County,MI,NA,NA,37.33905579399141
49285,Ingham County,MI,85.02673796791443,NA,NA
49307,Mecosta County,MI,79.14438502673798,NA,NA
49408,Allegan County,MI,77.00534759358288,67.87003610108303,NA
49445,Muskegon County,MI,NA,20.216606498194945,NA
49464,Ottawa County,MI,NA,NA,33.90557939914164
49506,Kent County,MI,NA,NA,18.88412017167382
49685,Grand Traverse County,MI,NA,NA,91.84549356223177
55119,Ramsey County,MN,39.57219251336899,NA,NA
55127,Ramsey County,MN,NA,NA,75.9656652360515
55404,Hennepin County,MN,0,NA,NA
55419,Hennepin County,MN,NA,64.98194945848375,NA
55429,Hennepin County,MN,5.88235294117647,NA,NA
55433,Anoka County,MN,NA,NA,45.493562231759654
55441,Hennepin County,MN,NA,91.33574007220217,NA
55443,Hennepin County,MN,NA,NA,66.95278969957081
56379,Benton County,MN,NA,NA,87.55364806866953
39047,Rankin County,MS,NA,NA,42.48927038626609
39110,Madison County,MS,NA,67.14801444043322,NA
39401,Forrest County,MS,NA,NA,33.47639484978541
39567,Jackson County,MS,NA,NA,99.14163090128756
63011,St. Louis County,MO,NA,NA,0.8583690987124464
63028,Jefferson County,MO,NA,NA,49.35622317596567
63043,St. Louis County,MO,NA,NA,30.90128755364807
63051,Jefferson County,MO,63.101604278074866,NA,NA
63103,St. Louis city,MO,87.16577540106952,NA,NA
63109,St. Louis city,MO,NA,48.73646209386281,NA
63123,St. Louis County,MO,NA,12.274368231046932,NA
63128,St. Louis County,MO,NA,23.104693140794225,NA
63130,St. Louis County,MO,NA,NA,47.63948497854077
63131,St. Louis County,MO,NA,NA,64.8068669527897
63304,St. Charles County,MO,25.668449197860966,NA,NA
63379,Lincoln County,MO,NA,NA,73.39055793991416
63385,St. Charles County,MO,11.76470588235294,NA,NA
63755,Cape Girardeau County,MO,NA,NA,39.91416309012876
64083,Cass County,MO,33.155080213903744,NA,NA
64505,Buchanan County,MO,NA,25.63176895306859,NA
64735,Henry County,MO,NA,78.33935018050542,NA
64801,Jasper County,MO,NA,NA,15.021459227467812
65203,Boone County,MO,NA,7.581227436823104,NA
65706,Webster County,MO,NA,NA,67.38197424892704
65791,Oregon County,MO,95.72192513368985,NA,NA
59404,Cascade County,MT,42.780748663101605,NA,NA
59715,Gallatin County,MT,NA,NA,21.45922746781116
59937,Flathead County,MT,NA,76.17328519855594,NA
68137,Douglas County,NE,51.87165775401069,NA,NA
68154,Douglas County,NE,NA,NA,62.66094420600859
68305,Nemaha County,NE,98.93048128342245,NA,NA
68701,Madison County,NE,NA,NA,44.63519313304721
68949,Phelps County,NE,NA,NA,69.95708154506438
89117,Clark County,NV,NA,NA,76.39484978540773
89403,Lyon County,NV,NA,45.48736462093863,NA
89406,Churchill County,NV,37.4331550802139,NA,NA
89431,Washoe County,NV,NA,46.20938628158845,NA
89436,Washoe County,NV,NA,9.386281588447654,NA
89503,Washoe County,NV,58.82352941176471,NA,NA
03051,Hillsborough County,NH,NA,18.4115523465704,NA
03446,Cheshire County,NH,NA,NA,68.6695278969957
03820,Strafford County,NH,NA,NA,9.012875536480687
03844,Rockingham County,NH,NA,99.27797833935018,NA
07012,Passaic County,NJ,83.42245989304813,NA,NA
07017,Essex County,NJ,0.53475935828877,NA,NA
07020,Bergen County,NJ,NA,87.72563176895306,NA
07032,Hudson County,NJ,NA,32.49097472924188,NA
07039,Essex County,NJ,52.406417112299465,NA,NA
07047,Hudson County,NJ,NA,99.63898916967509,NA
07103,Essex County,NJ,NA,14.440433212996389,NA
07109,Essex County,NJ,NA,NA,31.759656652360512
07607,Bergen County,NJ,NA,84.83754512635379,NA
08087,Ocean County,NJ,NA,14.079422382671481,NA
08527,Ocean County,NJ,NA,4.693140794223827,NA
08540,Mercer County,NJ,NA,41.15523465703971,NA
08833,Hunterdon County,NJ,NA,NA,99.57081545064378
08873,Somerset County,NJ,9.62566844919786,NA,NA
08876,Somerset County,NJ,NA,65.34296028880865,NA
87547,,NM,85.56149732620321,NA,NA
87701,San Miguel County,NM,NA,NA,53.21888412017167
88061,Grant County,NM,NA,75.09025270758123,NA
10009,New York County,NY,4.27807486631016,NA,0.4291845493562232
10019,New York County,NY,NA,NA,24.034334763948497
10035,New York County,NY,NA,NA,9.871244635193133
10040,New York County,NY,NA,NA,36.05150214592275
10306,Richmond County,NY,NA,59.92779783393502,NA
10455,Bronx County,NY,NA,46.931407942238266,NA
10547,Westchester County,NY,NA,NA,100
10573,Westchester County,NY,NA,NA,34.33476394849785
10589,Westchester County,NY,NA,NA,54.506437768240346
10591,Westchester County,NY,NA,77.9783393501805,NA
10941,Orange County,NY,NA,NA,80.68669527896995
10990,Orange County,NY,NA,44.4043321299639,NA
11203,Kings County,NY,NA,4.332129963898916,NA
11210,Kings County,NY,NA,22.382671480144403,NA
11233,Kings County,NY,NA,1.8050541516245486,NA
11249,Kings County,NY,66.31016042780749,NA,NA
11554,Nassau County,NY,54.01069518716578,NA,NA
11757,Suffolk County,NY,NA,NA,27.896995708154503
11772,Suffolk County,NY,NA,28.158844765342963,NA
11780,Suffolk County,NY,NA,NA,69.52789699570815
12047,Albany County,NY,NA,NA,57.08154506437768
12123,Rensselaer County,NY,NA,NA,97.85407725321889
12550,Orange County,NY,NA,NA,58.798283261802574
12561,Ulster County,NY,NA,98.55595667870037,NA
12571,Dutchess County,NY,91.44385026737967,NA,NA
12603,Dutchess County,NY,NA,62.093862815884485,NA
13090,Onondaga County,NY,11.229946524064172,NA,NA
13208,Onondaga County,NY,NA,44.04332129963899,NA
13367,Lewis County,NY,36.36363636363637,NA,NA
13669,St. Lawrence County,NY,NA,23.465703971119133,NA
13778,Chenango County,NY,NA,57.761732851985556,NA
13830,Chenango County,NY,NA,78.70036101083032,NA
14094,Niagara County,NY,NA,NA,26.180257510729614
14174,Niagara County,NY,NA,NA,96.13733905579399
14211,Erie County,NY,3.7433155080213902,NA,NA
14214,Erie County,NY,NA,NA,83.2618025751073
14226,Erie County,NY,NA,43.32129963898917,NA
14304,Niagara County,NY,18.181818181818183,NA,NA
14527,Yates County,NY,NA,NA,54.077253218884124
14617,Monroe County,NY,NA,2.888086642599278,NA
14727,Allegany County,NY,74.33155080213903,NA,NA
14850,Tompkins County,NY,NA,NA,32.61802575107296
14867,Tompkins County,NY,NA,64.25992779783394,NA
27215,Alamance County,NC,89.83957219251337,NA,NA
27520,Johnston County,NC,28.87700534759358,NA,NA
27565,Granville County,NC,17.11229946524064,NA,NA
27606,Wake County,NC,NA,53.79061371841155,NA
27610,Wake County,NC,NA,NA,27.038626609442062
27834,Pitt County,NC,NA,14.801444043321299,NA
28027,Cabarrus County,NC,NA,NA,79.39914163090128
28208,Mecklenburg County,NC,NA,NA,78.54077253218884
28212,Mecklenburg County,NC,NA,63.1768953068592,NA
28216,Mecklenburg County,NC,NA,13.357400722021662,NA
28328,Sampson County,NC,NA,NA,41.201716738197426
28461,Brunswick County,NC,39.037433155080215,NA,NA
28580,Greene County,NC,93.04812834224599,NA,NA
28640,Ashe County,NC,NA,92.4187725631769,NA
28645,Caldwell County,NC,NA,1.444043321299639,NA
28681,Alexander County,NC,13.903743315508022,NA,NA
28713,Swain County,NC,73.2620320855615,NA,NA
28806,Buncombe County,NC,NA,50.18050541516246,NA
58801,Williams County,ND,31.550802139037433,NA,NA
43040,Union County,OH,NA,NA,80.25751072961373
43085,Franklin County,OH,NA,69.67509025270758,NA
43113,Pickaway County,OH,41.17647058823529,NA,NA
43130,Fairfield County,OH,5.347593582887701,NA,NA
43140,Madison County,OH,33.68983957219251,NA,NA
43209,Franklin County,OH,NA,NA,46.3519313304721
43224,Franklin County,OH,1.6042780748663104,NA,NA
43230,Franklin County,OH,NA,NA,22.746781115879827
43449,Ottawa County,OH,69.5187165775401,NA,NA
43543,Williams County,OH,NA,NA,81.11587982832617
43615,Lucas County,OH,NA,NA,6.437768240343347
43616,Lucas County,OH,6.417112299465241,NA,NA
43845,Coshocton County,OH,NA,80.86642599277978,NA
44001,Lorain County,OH,NA,NA,5.150214592274678
44035,Lorain County,OH,NA,0,NA
44052,Lorain County,OH,NA,2.166064981949458,37.76824034334764
44092,Lake County,OH,NA,72.92418772563177,NA
44137,Cuyahoga County,OH,20.32085561497326,NA,NA
44142,Cuyahoga County,OH,NA,NA,16.30901287553648
44149,Cuyahoga County,OH,74.8663101604278,NA,NA
44203,Summit County,OH,NA,NA,3.4334763948497855
44221,Summit County,OH,9.090909090909092,NA,12.017167381974248
44240,Portage County,OH,NA,19.494584837545126,NA
44262,Summit County,OH,NA,NA,95.708154506437765
44266,Portage County,OH,NA,NA,2.1459227467811157
44320,Summit County,OH,13.368983957219251,17.328519855595665,NA
44410,Trumbull County,OH,NA,NA,54.93562231759657
44505,Mahoning County,OH,NA,42.59927797833935,NA
44647,Stark County,OH,48.1283422459893,NA,NA
44709,Stark County,OH,NA,NA,65.66523605150213
44721,Stark County,OH,81.81818181818183,NA,NA
44830,Seneca County,OH,NA,30.685920577617328,NA
44890,Huron County,OH,NA,66.4259927797834,NA
45014,Butler County,OH,NA,NA,19.313304721030043
45069,Butler County,OH,NA,18.050541516245488,NA
45150,Clermont County,OH,32.62032085561498,NA,NA
45177,Clinton County,OH,NA,NA,51.50214592274678
45202,Hamilton County,OH,NA,NA,87.98283261802575
45237,Hamilton County,OH,NA,23.826714801444044,NA
45404,Montgomery County,OH,52.94117647058824,NA,NA
45459,Montgomery County,OH,NA,20.938628158844764,NA
45505,Clark County,OH,26.203208556149733,NA,NA
45750,Washington County,OH,NA,1.083032490974729,NA
45771,Meigs County,OH,80.21390374331551,NA,NA
73034,Oklahoma County,OK,NA,95.30685920577618,NA
73099,Canadian County,OK,NA,NA,60.08583690987125
73112,Oklahoma County,OK,NA,57.03971119133574,NA
73401,Carter County,OK,6.951871657754011,NA,NA
73533,Stephens County,OK,NA,10.108303249097473,NA
74017,Rogers County,OK,NA,58.12274368231047,NA
74023,Payne County,OK,NA,62.8158844765343,NA
74059,Payne County,OK,NA,NA,89.69957081545064
74063,Tulsa County,OK,NA,NA,56.22317596566524
74134,Tulsa County,OK,71.65775401069519,NA,NA
74447,Okmulgee County,OK,NA,NA,48.497854077253216
97007,Washington County,OR,NA,NA,41.201716738197426
97058,Wasco County,OR,NA,NA,42.06008583690987
97123,Washington County,OR,NA,NA,22.317596566523605
97124,Washington County,OR,NA,NA,30.042918454935624
97141,Tillamook County,OR,NA,NA,75.53648068669528
97224,Washington County,OR,NA,75.45126353790613,NA
97239,Multnomah County,OR,NA,76.89530685920577,NA
97365,Lincoln County,OR,73.79679144385027,NA,NA
97415,Curry County,OR,NA,NA,23.17596566523605
97444,Curry County,OR,NA,79.42238267148014,NA
97470,Douglas County,OR,NA,27.79783393501805,NA
97478,Lane County,OR,34.75935828877005,NA,NA
97502,Jackson County,OR,NA,21.660649819494584,NA
97503,Jackson County,OR,61.49732620320856,NA,NA
97741,Jefferson County,OR,NA,NA,78.96995708154506
97814,Baker County,OR,NA,51.26353790613718,NA
15037,Allegheny County,PA,NA,73.6462093862816,NA
15122,Allegheny County,PA,48.663101604278076,NA,NA
15131,Allegheny County,PA,NA,90.25270758122743,NA
15220,Allegheny County,PA,NA,NA,59.65665236051502
15301,Washington County,PA,NA,3.2490974729241873,NA
16323,Venango County,PA,NA,NA,45.06437768240343
16354,Crawford County,PA,NA,NA,66.52360515021459
16509,Erie County,PA,NA,NA,24.463519313304722
16947,Bradford County,PA,92.51336898395722,NA,NA
17011,Cumberland County,PA,20.855614973262032,NA,NA
17050,Cumberland County,PA,NA,6.137184115523466,NA
17112,Dauphin County,PA,NA,3.6101083032490973,NA
17201,Franklin County,PA,NA,NA,15.879828326180256
17522,Lancaster County,PA,NA,50.54151624548736,NA
17976,Schuylkill County,PA,NA,93.86281588447653,NA
18042,Northampton County,PA,NA,NA,18.4549356223176
18707,Luzerne County,PA,NA,32.851985559566785,NA
18969,Montgomery County,PA,86.63101604278076,NA,NA
19010,Delaware County,PA,NA,NA,52.36051502145923
19013,Delaware County,PA,NA,NA,35.622317596566525
19014,Delaware County,PA,NA,NA,50.64377682403433
19056,Bucks County,PA,46.524064171122994,NA,NA
19116,Philadelphia County,PA,NA,12.63537906137184,NA
19382,Chester County,PA,NA,5.054151624548736,NA
19454,Montgomery County,PA,NA,NA,47.63948497854077
19465,Chester County,PA,51.33689839572193,NA,NA
19473,Montgomery County,PA,NA,NA,88.41201716738198
19610,Berks County,PA,NA,NA,24.892703862660944
02859,Providence County,RI,95.18716577540107,NA,NA
02891,Washington County,RI,56.68449197860963,NA,NA
02906,Providence County,RI,NA,NA,82.83261802575107
29205,Richland County,SC,NA,86.28158844765343,NA
29407,Charleston County,SC,NA,9.747292418772563,NA
29420,Dorchester County,SC,NA,85.92057761732852,NA
29492,Berkeley County,SC,NA,NA,93.99141630901288
29501,Florence County,SC,NA,15.523465703971121,NA
29505,Florence County,SC,45.98930481283423,NA,NA
29526,Horry County,SC,NA,7.9422382671480145,NA
29544,Horry County,SC,96.79144385026738,NA,NA
29605,Greenville County,SC,NA,10.830324909747292,NA
29617,Greenville County,SC,NA,NA,34.763948497854074
29640,Pickens County,SC,NA,NA,35.1931330472103
29642,Pickens County,SC,NA,16.967509025270758,NA
29702,Cherokee County,SC,NA,96.38989169675091,NA
29907,Beaufort County,SC,NA,NA,60.51502145922747
57078,Yankton County,SD,NA,65.70397111913357,NA
37067,Williamson County,TN,83.9572192513369,NA,NA
37129,Rutherford County,TN,12.834224598930483,NA,NA
37135,Williamson County,TN,NA,NA,98.71244635193133
37167,Rutherford County,TN,NA,27.436823104693143,NA
37211,Davidson County,TN,NA,NA,19.742489270386265
37397,Marion County,TN,NA,93.50180505415162,NA
37421,Hamilton County,TN,NA,NA,25.75107296137339
37601,Washington County,TN,12.299465240641712,NA,NA
37643,Carter County,TN,NA,NA,60.94420600858369
37774,Loudon County,TN,NA,25.992779783393498,NA
37870,Claiborne County,TN,NA,97.47292418772562,NA
38016,Shelby County,TN,NA,54.87364620938629,NA
38024,Dyer County,TN,NA,40.794223826714806,NA
38301,Madison County,TN,67.37967914438502,16.60649819494585,NA
38558,Cumberland County,TN,NA,59.56678700361011,NA
38572,Cumberland County,TN,NA,NA,71.24463519313305
75002,Collin County,TX,NA,NA,46.78111587982833
75024,Collin County,TX,NA,81.58844765342961,NA
75060,Dallas County,TX,72.72727272727273,NA,NA
75077,Denton County,TX,NA,56.317689530685925,NA
75098,Collin County,TX,NA,42.96028880866426,NA
75167,Ellis County,TX,NA,97.11191335740072,NA
75173,Collin County,TX,NA,100,NA
75248,Dallas County,TX,57.75401069518716,NA,NA
75401,Hunt County,TX,55.080213903743314,NA,NA
75457,Franklin County,TX,91.44385026737967,NA,NA
75503,Bowie County,TX,78.6096256684492,NA,NA
75605,Gregg County,TX,NA,NA,71.67381974248927
75758,Henderson County,TX,81.28342245989305,NA,NA
75803,Anderson County,TX,62.56684491978609,NA,NA
76010,Tarrant County,TX,NA,62.454873646209386,NA
76028,Johnson County,TX,NA,NA,10.300429184549357
76063,Tarrant County,TX,NA,10.469314079422382,NA
76092,Tarrant County,TX,NA,67.50902527075813,NA
76108,Tarrant County,TX,NA,26.714801444043324,NA
76131,Tarrant County,TX,NA,NA,96.56652360515021
76135,Tarrant County,TX,57.21925133689839,NA,NA
76140,Tarrant County,TX,35.294117647058826,NA,NA
76367,Wichita County,TX,NA,88.8086642599278,NA
76502,Bell County,TX,NA,NA,0
76513,Bell County,TX,3.2085561497326207,NA,NA
76522,Coryell County,TX,43.85026737967914,NA,NA
76542,Bell County,TX,NA,24.90974729241877,NA
76706,McLennan County,TX,NA,49.81949458483754,NA
77077,Harris County,TX,NA,NA,40.772532188841204
77096,Harris County,TX,NA,80.14440433212997,NA
77304,Montgomery County,TX,NA,NA,57.93991416309014
77371,San Jacinto County,TX,NA,92.05776173285199,NA
77381,Montgomery County,TX,NA,NA,56.65236051502146
77406,Fort Bend County,TX,NA,30.324909747292416,NA
77414,Matagorda County,TX,NA,48.375451263537904,NA
77437,Wharton County,TX,NA,68.59205776173285,NA
77445,Waller County,TX,NA,85.1985559566787,NA
77450,Harris County,TX,35.82887700534759,NA,NA
77459,Fort Bend County,TX,NA,NA,90.12875536480686
77479,Fort Bend County,TX,24.598930481283425,NA,NA
77541,Brazoria County,TX,NA,NA,90.55793991416309
78023,Bexar County,TX,NA,NA,88.8412017167382
78133,Comal County,TX,NA,75.81227436823104,NA
78207,Bexar County,TX,14.43850267379679,NA,NA
78501,Hidalgo County,TX,NA,NA,10.72961373390558
78577,Hidalgo County,TX,22.994652406417114,NA,NA
78624,Gillespie County,TX,NA,55.95667870036101,NA
78945,Fayette County,TX,NA,NA,76.82403433476395
79416,Lubbock County,TX,NA,NA,70.81545064377683
79424,Lubbock County,TX,NA,NA,58.798283261802574
79601,Taylor County,TX,NA,98.91696750902527,NA
79603,Taylor County,TX,NA,37.90613718411552,NA
79605,Taylor County,TX,NA,45.12635379061371,NA
79705,Midland County,TX,NA,37.18411552346571,NA
84043,Utah County,UT,NA,71.84115523465704,NA
84075,Davis County,UT,71.12299465240642,NA,NA
84098,Summit County,UT,NA,54.87364620938629,NA
84119,Salt Lake County,UT,NA,NA,40.343347639484975
84302,Box Elder County,UT,NA,NA,73.8197424892704
84337,Box Elder County,UT,93.58288770053476,NA,NA
84721,Iron County,UT,65.77540106951871,NA,NA
84790,Washington County,UT,NA,NA,1.7167381974248928
20186,Fauquier County,VA,NA,76.53429602888086,NA
22032,Fairfax County,VA,NA,79.42238267148014,NA
22124,Fairfax County,VA,NA,82.67148014440433,NA
22191,Prince William County,VA,NA,NA,61.80257510729614
22206,Arlington County,VA,NA,94.94584837545126,NA
22207,Arlington County,VA,NA,NA,49.78540772532189
22314,Alexandria city,VA,26.737967914438503,NA,NA
22824,Shenandoah County,VA,NA,83.39350180505414,NA
22902,Charlottesville city,VA,NA,35.37906137184115,NA
23139,Powhatan County,VA,NA,NA,53.648068669527895
23322,Chesapeake city,VA,NA,24.548736462093864,NA
23435,Suffolk city,VA,NA,40.07220216606498,NA
23601,Newport News city,VA,NA,80.14440433212997,NA
23666,Hampton city,VA,NA,NA,5.579399141630901
23701,Portsmouth city,VA,NA,25.27075812274368,63.0901287553648
24017,Roanoke city,VA,19.25133689839572,NA,NA
24101,Franklin County,VA,NA,NA,92.7038626609442
24124,Giles County,VA,NA,NA,97.42489270386267
24153,Salem city,VA,NA,NA,17.59656652360515
24368,Wythe County,VA,NA,97.83393501805054,NA
24401,Staunton city,VA,NA,NA,36.48068669527897
24441,Rockingham County,VA,75.93582887700535,NA,NA
24501,Lynchburg city,VA,NA,76.89530685920577,NA
24592,Halifax County,VA,NA,37.545126353790614,NA
98004,King County,WA,NA,72.20216606498195,NA
98029,King County,WA,NA,70.03610108303249,NA
98045,King County,WA,80.74866310160428,NA,NA
98057,King County,WA,NA,NA,95.27896995708154
98072,King County,WA,NA,63.537906137184116,NA
98133,King County,WA,NA,19.855595667870034,NA
98146,King County,WA,59.893048128342244,NA,NA
98403,Pierce County,WA,96.2566844919786,NA,NA
98498,Pierce County,WA,NA,NA,55.793991416309005
98503,Thurston County,WA,88.77005347593582,NA,NA
98584,Mason County,WA,30.481283422459892,NA,NA
98685,Clark County,WA,NA,74.72924187725631,NA
98908,Yakima County,WA,34.22459893048128,NA,NA
98922,Kittitas County,WA,NA,86.28158844765343,NA
99338,Benton County,WA,NA,71.48014440433214,NA
99362,Walla Walla County,WA,21.390374331550802,NA,7.725321888412018
20009,District of Columbia,DC,27.27272727272727,NA,NA
25177,Kanawha County,WV,NA,NA,15.450643776824036
25302,Kanawha County,WV,53.475935828877006,NA,NA
25670,Mingo County,WV,NA,83.03249097472924,NA
25701,Cabell County,WV,10.695187165775401,NA,NA
25801,Raleigh County,WV,NA,45.84837545126354,NA
26037,Brooke County,WV,NA,NA,74.2489270386266
26301,Harrison County,WV,NA,7.2202166064981945,NA
53012,Ozaukee County,WI,NA,NA,33.047210300429185
53051,Waukesha County,WI,NA,NA,8.15450643776824
53154,Milwaukee County,WI,NA,NA,38.62660944206009
53205,Milwaukee County,WI,NA,NA,85.40772532188842
53207,Milwaukee County,WI,NA,NA,27.467811158798284
53220,Milwaukee County,WI,NA,NA,14.592274678111588
53566,Green County,WI,NA,19.133574007220215,NA
54456,Clark County,WI,NA,98.19494584837545,NA
82414,Park County,WY,NA,47.65342960288809,NA
