ZipCode,county,state,Adult
35173,Jefferson County,AL,53.672316384180796
35184,Bibb County,AL,79.37853107344633
35475,Tuscaloosa County,AL,54.23728813559322
35613,Limestone County,AL,42.090395480225986
35758,Madison County,AL,38.4180790960452
35761,Madison County,AL,78.24858757062147
35954,Etowah County,AL,61.86440677966102
36107,Montgomery County,AL,94.63276836158192
99669,Kenai Peninsula Borough,AK,75.70621468926554
85029,Maricopa County,AZ,91.52542372881356
85033,Maricopa County,AZ,16.38418079096045
85225,Maricopa County,AZ,84.4632768361582
85297,Maricopa County,AZ,64.68926553672316
85301,Maricopa County,AZ,24.293785310734464
86323,Yavapai County,AZ,55.6497175141243
86326,Yavapai County,AZ,24.576271186440678
72450,Greene County,AR,19.491525423728813
72762,Washington County,AR,50
90034,Los Angeles County,CA,44.632768361581924
90045,Los Angeles County,CA,66.66666666666666
91340,Los Angeles County,CA,66.94915254237289
91750,Los Angeles County,CA,67.79661016949152
91786,San Bernardino County,CA,33.05084745762712
92014,San Diego County,CA,93.50282485875707
92104,San Diego County,CA,62.71186440677966
92223,Riverside County,CA,30.508474576271187
92240,Riverside County,CA,58.47457627118644
92264,Riverside County,CA,49.43502824858757
92503,Riverside County,CA,19.2090395480226
93010,Ventura County,CA,87.00564971751412
93422,San Luis Obispo County,CA,49.152542372881356
93446,San Luis Obispo County,CA,27.401129943502823
93720,Fresno County,CA,35.02824858757062
94110,San Francisco County,CA,12.994350282485875
94501,Alameda County,CA,38.13559322033898
94519,Contra Costa County,CA,89.26553672316385
94566,Alameda County,CA,85.31073446327684
94803,Contra Costa County,CA,87.57062146892656
94965,Marin County,CA,92.37288135593221
95060,Santa Cruz County,CA,77.11864406779661
95209,San Joaquin County,CA,48.87005649717514
95301,Merced County,CA,48.30508474576271
95354,Stanislaus County,CA,34.74576271186441
95667,El Dorado County,CA,32.48587570621469
95746,Placer County,CA,82.7683615819209
96007,Shasta County,CA,71.1864406779661
80003,Jefferson County,CO,47.175141242937855
80016,Arapahoe County,CO,22.598870056497177
80030,Adams County,CO,78.53107344632768
80134,Douglas County,CO,26.836158192090398
80220,Denver County,CO,35.87570621468927
80223,Denver County,CO,65.2542372881356
80501,Boulder County,CO,20.62146892655367
80525,Larimer County,CO,47.740112994350284
80526,Larimer County,CO,83.89830508474576
80550,Weld County,CO,30.7909604519774
80654,Morgan County,CO,99.15254237288136
80923,El Paso County,CO,64.40677966101694
81321,Montezuma County,CO,71.46892655367232
81504,Mesa County,CO,31.35593220338983
06019,Hartford County,CT,96.89265536723164
06415,New London County,CT,57.909604519774014
06705,New Haven County,CT,23.163841807909606
19808,New Castle County,DE,22.033898305084744
19977,Kent County,DE,23.44632768361582
32060,Suwannee County,FL,56.49717514124294
32137,Flagler County,FL,56.779661016949156
32207,Duval County,FL,17.796610169491526
32211,Duval County,FL,21.468926553672315
32226,Duval County,FL,44.632768361581924
32550,Walton County,FL,98.0225988700565
32583,Santa Rosa County,FL,27.11864406779661
32601,Alachua County,FL,63.84180790960452
32708,Seminole County,FL,47.45762711864407
33410,Palm Beach County,FL,54.80225988700565
33764,Pinellas County,FL,44.06779661016949
33914,Lee County,FL,40.67796610169492
30066,Cobb County,GA,49.717514124293785
30240,Troup County,GA,26.55367231638418
30906,Richmond County,GA,7.344632768361582
31410,Chatham County,GA,85.02824858757062
31545,Wayne County,GA,75.98870056497175
31553,Brantley County,GA,94.0677966101695
96818,Honolulu County,HI,56.21468926553672
96822,Honolulu County,HI,39.548022598870055
96826,Honolulu County,HI,43.50282485875706
83404,Bonneville County,ID,57.6271186440678
83605,Canyon County,ID,63.559322033898304
60110,Kane County,IL,51.9774011299435
60126,DuPage County,IL,11.016949152542372
60172,DuPage County,IL,65.81920903954803
60181,DuPage County,IL,31.07344632768362
60201,Cook County,IL,45.19774011299435
60432,Will County,IL,60.16949152542372
60510,Kane County,IL,36.15819209039548
60555,DuPage County,IL,74.01129943502825
60608,Cook County,IL,61.5819209039548
61081,Whiteside County,IL,80.50847457627118
61362,Bureau County,IL,90.11299435028248
46123,Hendricks County,IN,50.847457627118644
46167,Hendricks County,IN,97.74011299435028
46236,Marion County,IN,64.12429378531074
46307,Lake County,IN,2.2598870056497176
46350,LaPorte County,IN,35.59322033898305
46405,Lake County,IN,41.52542372881356
46818,Allen County,IN,40.96045197740113
47932,Fountain County,IN,90.3954802259887
50309,Polk County,IA,62.14689265536724
50316,Polk County,IA,76.27118644067797
50428,Cerro Gordo County,IA,98.87005649717514
51106,Woodbury County,IA,51.41242937853108
52404,Linn County,IA,9.6045197740113
52804,Scott County,IA,16.666666666666664
66223,Johnson County,KS,97.17514124293785
66701,Bourbon County,KS,68.64406779661016
66762,Crawford County,KS,70.90395480225989
40215,Jefferson County,KY,18.361581920903955
40422,Boyle County,KY,50.56497175141242
41018,Kenton County,KY,25.98870056497175
70006,Jefferson Parish,LA,54.51977401129944
70364,Terrebonne Parish,LA,7.627118644067797
70435,St. Tammany Parish,LA,55.932203389830505
70458,St. Tammany Parish,LA,5.367231638418079
70510,Vermilion Parish,LA,11.581920903954803
70517,St. Martin Parish,LA,13.559322033898304
70518,Lafayette Parish,LA,53.38983050847458
70533,Vermilion Parish,LA,62.994350282485875
70592,Lafayette Parish,LA,88.70056497175142
70611,Calcasieu Parish,LA,29.943502824858758
70769,Ascension Parish,LA,10.16949152542373
71082,Caddo Parish,LA,90.96045197740112
71112,Bossier Parish,LA,12.711864406779661
71115,Caddo Parish,LA,81.07344632768361
71129,Caddo Parish,LA,38.70056497175141
04093,York County,ME,83.05084745762711
21093,Baltimore County,MD,77.40112994350282
21204,Baltimore County,MD,73.72881355932203
21209,Baltimore County,MD,64.97175141242938
01075,Hampshire County,MA,4.23728813559322
01453,Worcester County,MA,8.757062146892656
01832,Essex County,MA,3.389830508474576
01852,Middlesex County,MA,0
01886,Middlesex County,MA,22.88135593220339
02050,Plymouth County,MA,20.33898305084746
02090,Norfolk County,MA,68.92655367231639
02126,Suffolk County,MA,0.5649717514124294
02130,Suffolk County,MA,8.192090395480225
02135,Suffolk County,MA,57.06214689265536
02148,Middlesex County,MA,0.847457627118644
02176,Middlesex County,MA,7.062146892655368
02347,Plymouth County,MA,89.54802259887006
02720,Bristol County,MA,46.04519774011299
02723,Bristol County,MA,33.33333333333333
48009,Oakland County,MI,81.63841807909604
48015,Macomb County,MI,83.33333333333334
48035,Macomb County,MI,10.451977401129943
48040,St. Clair County,MI,93.22033898305084
48067,Oakland County,MI,37.005649717514125
48070,Oakland County,MI,92.09039548022598
48072,Oakland County,MI,55.08474576271186
48076,Oakland County,MI,32.20338983050847
48080,Macomb County,MI,36.72316384180791
48084,Oakland County,MI,81.35593220338984
48089,Macomb County,MI,8.47457627118644
48134,Wayne County,MI,29.09604519774011
48135,Wayne County,MI,22.316384180790962
48150,Wayne County,MI,28.53107344632768
48154,Wayne County,MI,25.141242937853107
48161,Monroe County,MI,6.779661016949152
48162,Monroe County,MI,12.429378531073446
48168,Wayne County,MI,57.34463276836158
48173,Wayne County,MI,61.29943502824858
48187,Wayne County,MI,11.299435028248588
48236,Wayne County,MI,31.63841807909605
48301,Oakland County,MI,67.2316384180791
48307,Oakland County,MI,52.54237288135594
48314,Macomb County,MI,42.65536723163842
48316,Macomb County,MI,39.26553672316384
48317,Macomb County,MI,21.75141242937853
48322,Oakland County,MI,42.93785310734463
48371,Oakland County,MI,72.88135593220339
48382,Oakland County,MI,51.69491525423729
48393,Oakland County,MI,91.24293785310734
48446,Lapeer County,MI,14.689265536723164
48453,Sanilac County,MI,81.92090395480226
48455,Lapeer County,MI,96.61016949152543
48503,Genesee County,MI,18.07909604519774
48638,Saginaw County,MI,60.73446327683616
48842,Ingham County,MI,37.85310734463277
48881,Ionia County,MI,91.80790960451978
49012,Kalamazoo County,MI,96.32768361581921
49022,Berrien County,MI,9.887005649717514
49037,Calhoun County,MI,14.971751412429379
49065,Van Buren County,MI,78.8135593220339
49127,Berrien County,MI,82.485875706214685
49418,Kent County,MI,37.570621468926554
55051,Kanabec County,MN,84.7457627118644
55744,Itasca County,MN,68.36158192090396
56065,Blue Earth County,MN,98.58757062146893
39208,Rankin County,MS,88.4180790960452
39426,Pearl River County,MS,58.75706214689266
39565,Jackson County,MS,65.5367231638418
39759,Oktibbeha County,MS,69.77401129943502
63042,St. Louis County,MO,48.58757062146893
63461,Marion County,MO,98.30508474576271
63703,Cape Girardeau County,MO,61.016949152542374
64735,Henry County,MO,69.2090395480226
65201,Boone County,MO,46.32768361581921
59404,Cascade County,MT,77.96610169491525
59840,Ravalli County,MT,80.22598870056498
68028,Sarpy County,NE,97.45762711864407
68108,Douglas County,NE,75.14124293785311
68801,Hall County,NE,92.93785310734464
03042,Rockingham County,NH,80.7909604519774
03246,Belknap County,NH,79.66101694915254
07001,Middlesex County,NJ,69.2090395480226
07047,Hudson County,NJ,4.80225988700565
07083,Union County,NJ,16.101694915254235
07981,Morris County,NJ,94.91525423728814
08081,Camden County,NJ,11.864406779661017
08215,Atlantic County,NJ,72.03389830508475
08401,Atlantic County,NJ,0.2824858757062147
08723,Ocean County,NJ,48.0225988700565
11214,Kings County,NY,15.819209039548024
11234,Kings County,NY,19.774011299435028
11365,Queens County,NY,52.259887005649716
11701,Suffolk County,NY,87.85310734463276
13078,Onondaga County,NY,89.83050847457628
13346,Madison County,NY,70.05649717514125
13440,Oneida County,NY,2.824858757062147
13760,Broome County,NY,1.4124293785310735
13905,Broome County,NY,1.977401129943503
14043,Erie County,NY,33.89830508474576
14075,Erie County,NY,34.18079096045198
14420,Monroe County,NY,68.07909604519774
14450,Monroe County,NY,3.1073446327683616
14580,Monroe County,NY,1.1299435028248588
14840,Steuben County,NY,93.78531073446328
27105,Forsyth County,NC,15.254237288135593
27529,Wake County,NC,24.858757062146893
28147,Rowan County,NC,32.7683615819209
28539,Onslow County,NC,76.8361581920904
28612,Burke County,NC,66.10169491525424
43064,Madison County,OH,95.76271186440678
43221,Franklin County,OH,96.045197740113
43224,Franklin County,OH,5.649717514124294
43228,Franklin County,OH,3.672316384180791
43229,Franklin County,OH,5.932203389830509
43515,Fulton County,OH,70.62146892655367
43526,Defiance County,OH,86.4406779661017
43537,Lucas County,OH,29.37853107344633
43551,Wood County,OH,13.841807909604519
43616,Lucas County,OH,13.27683615819209
44035,Lorain County,OH,34.463276836158194
44055,Lorain County,OH,9.03954802259887
44095,Lake County,OH,20.056497175141246
44104,Cuyahoga County,OH,20.903954802259886
44113,Cuyahoga County,OH,7.909604519774012
44122,Cuyahoga County,OH,24.01129943502825
44125,Cuyahoga County,OH,1.694915254237288
44144,Cuyahoga County,OH,39.83050847457627
44432,Columbiana County,OH,66.38418079096046
44514,Mahoning County,OH,50.282485875706215
44720,Stark County,OH,29.66101694915254
44870,Erie County,OH,2.5423728813559325
44903,Richland County,OH,17.51412429378531
45044,Butler County,OH,5.084745762711865
45121,Brown County,OH,74.57627118644068
45320,Preble County,OH,40.11299435028249
45430,Greene County,OH,90.67796610169492
73093,McClain County,OK,99.71751412429379
73120,Oklahoma County,OK,42.3728813559322
73159,Oklahoma County,OK,46.61016949152542
73162,Oklahoma County,OK,52.824858757062145
74047,Tulsa County,OK,92.65536723163842
74056,Osage County,OK,94.35028248587571
74604,Kay County,OK,83.61581920903954
97009,Clackamas County,OR,95.48022598870057
97239,Multnomah County,OR,86.7231638418079
97303,Marion County,OR,99.43502824858757
97471,Douglas County,OR,16.94915254237288
97527,Josephine County,OR,45.48022598870056
15601,Westmoreland County,PA,3.954802259887006
16002,Butler County,PA,59.6045197740113
16137,Mercer County,PA,72.31638418079096
16214,Clarion County,PA,77.68361581920904
16801,Centre County,PA,84.18079096045197
17015,Cumberland County,PA,43.78531073446328
17042,Lebanon County,PA,23.44632768361582
17331,York County,PA,6.497175141242938
17345,York County,PA,72.88135593220339
17522,Lancaster County,PA,26.27118644067797
17821,Montour County,PA,25.70621468926554
18014,Northampton County,PA,43.22033898305085
18017,Northampton County,PA,27.966101694915253
18052,Lehigh County,PA,18.64406779661017
18055,Northampton County,PA,38.983050847457626
19006,Montgomery County,PA,79.94350282485875
19103,Philadelphia County,PA,45.76271186440678
19133,Philadelphia County,PA,46.89265536723164
19151,Philadelphia County,PA,14.124293785310735
19153,Philadelphia County,PA,86.15819209039547
19355,Chester County,PA,74.85875706214689
19607,Berks County,PA,63.2768361581921
29445,Berkeley County,SC,25.423728813559322
37066,Sumner County,TN,10.734463276836157
37363,Hamilton County,TN,41.24293785310734
37716,Anderson County,TN,73.44632768361582
37801,Blount County,TN,15.53672316384181
37803,Blount County,TN,33.61581920903955
37918,Knox County,TN,14.40677966101695
75040,Dallas County,TX,17.231638418079097
75951,Jasper County,TX,53.10734463276836
76226,Denton County,TX,71.75141242937853
77007,Harris County,TX,55.367231638418076
77084,Harris County,TX,12.146892655367232
77085,Harris County,TX,85.59322033898306
77418,Austin County,TX,87.28813559322035
77423,Waller County,TX,95.19774011299435
78251,Bexar County,TX,58.19209039548022
78574,Hidalgo County,TX,36.440677966101696
78584,Starr County,TX,70.33898305084746
78613,Williamson County,TX,82.20338983050848
78666,Hays County,TX,28.24858757062147
79549,Scurry County,TX,41.80790960451977
79705,Midland County,TX,27.683615819209038
79714,Andrews County,TX,59.32203389830508
84045,Utah County,UT,79.09604519774011
84065,Salt Lake County,UT,37.28813559322034
84790,Washington County,UT,44.35028248587571
22192,Prince William County,VA,18.926553672316384
22546,Caroline County,VA,75.42372881355932
22980,Waynesboro city,VA,9.322033898305085
24012,Roanoke city,VA,30.225988700564972
24019,Roanoke County,VA,59.03954802259888
24153,Salem city,VA,35.31073446327684
24477,Augusta County,VA,62.42937853107344
98028,King County,WA,76.55367231638418
98058,King County,WA,67.514124293785315
98116,King County,WA,88.13559322033898
98122,King County,WA,60.451977401129945
98208,Snohomish County,WA,21.1864406779661
98367,Kitsap County,WA,51.12994350282486
98368,Jefferson County,WA,72.59887005649718
98802,Douglas County,WA,53.954802259887
99166,Ferry County,WA,100
99205,Spokane County,WA,40.3954802259887
25404,Berkeley County,WV,74.29378531073446
26170,Pleasants County,WV,88.98305084745762
53029,Waukesha County,WI,85.87570621468926
53110,Milwaukee County,WI,31.92090395480226
53215,Milwaukee County,WI,4.519774011299435
53216,Milwaukee County,WI,6.214689265536723
54220,Manitowoc County,WI,28.8135593220339
82718,Campbell County,WY,59.887005649717516
