ZipCode,county,state,Adult,Retirement
35016,Marshall County,AL,NA,43.50736278447122
35022,Jefferson County,AL,NA,19.67871485943775
35058,Cullman County,AL,NA,77.10843373493977
35071,Jefferson County,AL,74.1514360313316,NA
35080,Shelby County,AL,61.35770234986945,NA
35085,Chilton County,AL,NA,89.69210174029452
35116,Jefferson County,AL,94.51697127937337,NA
35126,Jefferson County,AL,55.87467362924282,NA
35160,Talladega County,AL,NA,49.26372155287818
35173,Jefferson County,AL,53.00261096605744,NA
35210,Jefferson County,AL,NA,68.94243641231593
35214,Jefferson County,AL,34.85639686684073,NA
35216,Jefferson County,AL,57.57180156657964,NA
35222,Jefferson County,AL,NA,90.09370816599733
35223,Jefferson County,AL,89.42558746736292,NA
35242,Shelby County,AL,NA,14.859437751004014
35405,Tuscaloosa County,AL,NA,14.190093708165996
35555,Fayette County,AL,66.71018276762402,NA
35592,Lamar County,AL,NA,87.28246318607763
35613,Limestone County,AL,43.60313315926893,53.14591700133868
35620,Limestone County,AL,82.76762402088774,NA
35640,Morgan County,AL,NA,40.82998661311915
35758,Madison County,AL,40.73107049608355,NA
35806,Madison County,AL,78.72062663185379,NA
35950,Marshall County,AL,73.89033942558747,NA
35967,DeKalb County,AL,NA,71.8875502008032
36022,Elmore County,AL,73.36814621409921,NA
36037,Butler County,AL,60.18276762402088,NA
36083,Macon County,AL,NA,88.21954484605087
36526,Baldwin County,AL,NA,43.77510040160642
36535,Baldwin County,AL,NA,60.24096385542169
36571,Mobile County,AL,71.27937336814621,NA
36580,Baldwin County,AL,87.33681462140991,NA
36693,Mobile County,AL,58.61618798955613,NA
99502,Anchorage Municipality,AK,NA,80.18741633199464
99517,Anchorage Municipality,AK,65.14360313315926,NA
99576,Dillingham Census Area,AK,96.99738903394255,NA
85007,Maricopa County,AZ,11.74934725848564,NA
85016,Maricopa County,AZ,NA,72.02141900937082
85018,Maricopa County,AZ,37.72845953002611,NA
85041,Maricopa County,AZ,NA,27.17536813922356
85053,Maricopa County,AZ,NA,62.24899598393574
85085,Maricopa County,AZ,69.19060052219321,NA
85087,Maricopa County,AZ,NA,93.3065595716198
85119,Pinal County,AZ,70.75718015665797,NA
85128,Pinal County,AZ,73.10704960835508,NA
85208,Maricopa County,AZ,46.60574412532637,NA
85226,Maricopa County,AZ,57.96344647519582,NA
85251,Maricopa County,AZ,42.68929503916449,NA
85253,Maricopa County,AZ,NA,75.63587684069611
85255,Maricopa County,AZ,53.26370757180157,NA
85283,Maricopa County,AZ,19.5822454308094,NA
85297,Maricopa County,AZ,64.22976501305483,NA
85301,Maricopa County,AZ,NA,23.15930388219545
85308,Maricopa County,AZ,NA,19.544846050870145
85338,Maricopa County,AZ,37.59791122715404,NA
85351,Maricopa County,AZ,NA,43.90896921017403
85374,Maricopa County,AZ,NA,58.768406961178044
85381,Maricopa County,AZ,NA,76.03748326639894
85614,Pima County,AZ,NA,22.08835341365462
85648,Santa Cruz County,AZ,NA,69.34404283801874
85714,Pima County,AZ,NA,60.776439089692104
85730,Pima County,AZ,NA,64.2570281124498
85745,Pima County,AZ,NA,58.500669344042834
85746,Pima County,AZ,NA,86.74698795180723
85748,Pima County,AZ,82.8981723237598,NA
86301,Yavapai County,AZ,NA,32.1285140562249
86305,Yavapai County,AZ,NA,38.152610441767074
86351,Yavapai County,AZ,NA,80.18741633199464
86409,Mohave County,AZ,NA,5.087014725568943
86426,Mohave County,AZ,NA,59.036144578313255
86429,Mohave County,AZ,NA,61.31191432396251
86442,Mohave County,AZ,31.33159268929504,NA
86556,Apache County,AZ,NA,96.92101740294511
71909,Garland County,AR,NA,35.87684069611781
72076,Pulaski County,AR,52.74151436031331,NA
72114,Pulaski County,AR,79.37336814621409,NA
72143,White County,AR,39.686684073107045,12.315930388219545
72315,Mississippi County,AR,NA,53.41365461847389
72715,Benton County,AR,90.33942558746736,NA
90008,Los Angeles County,CA,NA,45.91700133868809
90025,Los Angeles County,CA,NA,97.45649263721553
90029,Los Angeles County,CA,64.09921671018277,NA
90035,Los Angeles County,CA,NA,86.61311914323963
90041,Los Angeles County,CA,NA,79.91967871485943
90277,Los Angeles County,CA,56.6579634464752,35.6091030789826
90301,Los Angeles County,CA,NA,77.64390896921017
90620,Orange County,CA,NA,40.963855421686745
90630,Orange County,CA,NA,23.694779116465863
90713,Los Angeles County,CA,NA,84.87282463186078
90720,Orange County,CA,74.54308093994779,NA
90810,Los Angeles County,CA,NA,85.40829986613119
91104,Los Angeles County,CA,45.822454308093995,NA
91202,Los Angeles County,CA,88.25065274151436,NA
91214,Los Angeles County,CA,81.98433420365535,NA
91304,Los Angeles County,CA,NA,56.62650602409639
91320,Ventura County,CA,NA,58.63453815261044
91505,Los Angeles County,CA,NA,81.25836680053547
91602,Los Angeles County,CA,NA,95.58232931726907
91607,Los Angeles County,CA,82.50652741514361,NA
91737,San Bernardino County,CA,79.89556135770235,NA
91792,Los Angeles County,CA,87.85900783289817,NA
91901,San Diego County,CA,65.53524804177546,NA
91910,San Diego County,CA,27.806788511749346,NA
91941,San Diego County,CA,61.096605744125334,NA
92010,San Diego County,CA,89.16449086161879,NA
92020,San Diego County,CA,24.281984334203656,9.63855421686747
92120,San Diego County,CA,80.54830287206266,NA
92126,San Diego County,CA,NA,36.27844712182062
92128,San Diego County,CA,75.06527415143603,NA
92131,San Diego County,CA,72.58485639686684,92.7710843373494
92231,Imperial County,CA,NA,87.01472556894244
92234,Riverside County,CA,15.013054830287206,2.2757697456492636
92240,Riverside County,CA,24.02088772845953,NA
92251,Imperial County,CA,NA,84.20348058902276
92264,Riverside County,CA,50.13054830287206,NA
92270,Riverside County,CA,NA,10.441767068273093
92308,San Bernardino County,CA,NA,29.31726907630522
92335,San Bernardino County,CA,10.052219321148826,NA
92562,Riverside County,CA,NA,37.21552878179384
92618,Orange County,CA,86.29242819843343,NA
92630,Orange County,CA,NA,73.22623828647924
92649,Orange County,CA,NA,31.593038821954483
92660,Orange County,CA,62.14099216710183,NA
92688,Orange County,CA,39.425587467362924,NA
92692,Orange County,CA,NA,26.506024096385545
92802,Orange County,CA,58.22454308093995,NA
92832,Orange County,CA,NA,68.54082998661312
92835,Orange County,CA,81.20104438642298,64.2570281124498
92869,Orange County,CA,62.271540469973885,NA
92883,Riverside County,CA,68.27676240208878,NA
93030,Ventura County,CA,NA,24.497991967871485
93063,Ventura County,CA,NA,27.443105756358772
93210,Fresno County,CA,77.9373368146214,NA
93305,Kern County,CA,74.93472584856397,NA
93308,Kern County,CA,30.93994778067885,33.065595716198125
93313,Kern County,CA,55.35248041775457,NA
93454,Santa Barbara County,CA,33.28981723237598,NA
93460,Santa Barbara County,CA,NA,96.78714859437751
93534,Los Angeles County,CA,39.1644908616188,NA
93550,Los Angeles County,CA,13.577023498694519,NA
94025,San Mateo County,CA,NA,40.02677376171352
94044,San Mateo County,CA,NA,30.254350736278447
94061,San Mateo County,CA,NA,84.33734939759037
94063,San Mateo County,CA,NA,44.712182061579654
94107,San Francisco County,CA,46.344647519582246,NA
94116,San Francisco County,CA,NA,40.42838018741633
94133,San Francisco County,CA,NA,51.27175368139224
94502,Alameda County,CA,95.69190600522192,NA
94538,Alameda County,CA,50.26109660574413,NA
94541,Alameda County,CA,26.631853785900784,NA
94544,Alameda County,CA,19.321148825065272,NA
94550,Alameda County,CA,NA,40.562248995983936
94559,Napa County,CA,NA,63.31994645247657
94583,Contra Costa County,CA,55.09138381201044,NA
94587,Alameda County,CA,NA,24.765729585006692
94601,Alameda County,CA,NA,72.95850066934403
94901,Marin County,CA,58.485639686684074,NA
95023,San Benito County,CA,NA,37.75100401606426
95050,Santa Clara County,CA,NA,61.71352074966533
95066,Santa Cruz County,CA,90.73107049608356,NA
95125,Santa Clara County,CA,50.91383812010444,NA
95131,Santa Clara County,CA,NA,89.02275769745648
95148,Santa Clara County,CA,NA,47.121820615796516
95205,San Joaquin County,CA,NA,58.23293172690763
95209,San Joaquin County,CA,50,NA
95240,San Joaquin County,CA,NA,49.9330655957162
95330,San Joaquin County,CA,NA,83.80187416331995
95336,San Joaquin County,CA,64.88250652741515,NA
95354,Stanislaus County,CA,36.29242819843342,NA
95366,San Joaquin County,CA,81.72323759791122,NA
95370,Tuolumne County,CA,NA,4.016064257028113
95407,Sonoma County,CA,62.532637075718014,NA
95503,Humboldt County,CA,NA,50.870147255689425
95667,El Dorado County,CA,NA,4.819277108433735
95670,Sacramento County,CA,68.9295039164491,NA
95695,Yolo County,CA,68.66840731070496,NA
95709,El Dorado County,CA,NA,83.93574297188755
95762,El Dorado County,CA,NA,72.55689424364124
95765,Placer County,CA,73.49869451697127,NA
95816,Sacramento County,CA,56.26631853785901,NA
95819,Sacramento County,CA,93.99477806788512,88.62115127175369
95822,Sacramento County,CA,41.90600522193211,NA
95946,Nevada County,CA,NA,70.41499330655957
95954,Butte County,CA,NA,38.42034805890228
95963,Glenn County,CA,74.67362924281984,NA
95965,Butte County,CA,NA,33.33333333333333
95973,Butte County,CA,NA,25.970548862115127
95993,Sutter County,CA,NA,44.310575635876845
96013,Shasta County,CA,99.21671018276761,NA
80012,Arapahoe County,CO,NA,31.860776439089694
80013,Arapahoe County,CO,10.313315926892951,NA
80031,Adams County,CO,NA,60.50870147255689
80109,Douglas County,CO,71.40992167101827,NA
80111,Arapahoe County,CO,72.45430809399478,NA
80112,Arapahoe County,CO,56.919060052219315,NA
80121,Arapahoe County,CO,92.81984334203656,NA
80204,Denver County,CO,23.237597911227155,NA
80214,Jefferson County,CO,43.73368146214099,NA
80226,Jefferson County,CO,NA,77.64390896921017
80233,Adams County,CO,NA,55.82329317269076
80237,Denver County,CO,75.71801566579634,NA
80504,Boulder County,CO,NA,26.907630522088354
80524,Larimer County,CO,33.15926892950392,NA
80528,Larimer County,CO,81.4621409921671,NA
80601,Adams County,CO,67.88511749347258,73.89558232931726
80602,Adams County,CO,77.80678851174935,NA
80634,Weld County,CO,3.263707571801567,NA
80751,Logan County,CO,NA,64.65863453815261
80923,El Paso County,CO,NA,94.51137884872824
81001,Pueblo County,CO,23.10704960835509,NA
81005,Pueblo County,CO,NA,25.702811244979916
81007,Pueblo County,CO,48.43342036553525,NA
81230,Gunnison County,CO,NA,98.52744310575636
81625,Moffat County,CO,42.42819843342037,NA
06010,Hartford County,CT,2.219321148825065,NA
06013,Hartford County,CT,92.55874673629243,NA
06040,Hartford County,CT,10.966057441253264,NA
06053,Hartford County,CT,NA,28.11244979919679
06066,Tolland County,CT,NA,59.036144578313255
06108,Hartford County,CT,32.5065274151436,NA
06118,Hartford County,CT,NA,42.03480589022758
06239,Windham County,CT,38.51174934725849,NA
06260,Windham County,CT,34.07310704960835,48.728246318607766
06277,Windham County,CT,84.07310704960835,NA
06437,New Haven County,CT,65.27415143603133,62.91834002677377
06460,New Haven County,CT,NA,18.473895582329316
06516,New Haven County,CT,NA,3.8821954484605086
06604,Fairfield County,CT,21.54046997389034,NA
06770,New Haven County,CT,26.370757180156655,NA
06776,Litchfield County,CT,31.723237597911226,NA
06801,Fairfield County,CT,72.0626631853786,NA
06902,Fairfield County,CT,22.715404699738905,NA
19901,Kent County,DE,19.06005221932115,NA
19958,Sussex County,DE,68.40731070496084,NA
19977,Kent County,DE,25.587467362924283,48.32663989290496
32043,Clay County,FL,46.866840731070496,NA
32073,Clay County,FL,59.92167101827677,NA
32082,St. Johns County,FL,NA,33.86880856760375
32086,St. Johns County,FL,NA,21.151271753681392
32137,Flagler County,FL,NA,38.42034805890228
32164,Flagler County,FL,NA,17.269076305220885
32208,Duval County,FL,1.3054830287206265,NA
32211,Duval County,FL,NA,47.389558232931726
32217,Duval County,FL,72.71540469973891,NA
32218,Duval County,FL,NA,3.748326639892905
32219,Duval County,FL,47.78067885117493,NA
32221,Duval County,FL,NA,85.80990629183401
32223,Duval County,FL,NA,71.3520749665328
32225,Duval County,FL,31.98433420365535,NA
32244,Duval County,FL,5.352480417754569,NA
32309,Leon County,FL,77.15404699738903,NA
32311,Leon County,FL,90.86161879895562,NA
32439,Walton County,FL,NA,71.4859437751004
32459,Walton County,FL,66.97127937336815,NA
32465,Gulf County,FL,89.81723237597912,NA
32514,Escambia County,FL,25.848563968668408,NA
32561,Santa Rosa County,FL,NA,81.92771084337349
32563,Santa Rosa County,FL,NA,61.71352074966533
32578,Okaloosa County,FL,57.04960835509139,NA
32618,Alachua County,FL,79.63446475195822,NA
32626,Levy County,FL,NA,91.56626506024097
32656,Clay County,FL,NA,87.14859437751004
32669,Alachua County,FL,69.32114882506526,NA
32779,Seminole County,FL,77.67624020887729,NA
32780,Brevard County,FL,NA,20.214190093708165
32826,Orange County,FL,NA,95.18072289156626
32837,Orange County,FL,NA,54.35073627844712
32901,Brevard County,FL,NA,51.137884872824635
32905,Brevard County,FL,NA,49.79919678714859
32907,Brevard County,FL,NA,22.356091030789827
32909,Brevard County,FL,42.297650130548305,NA
32934,Brevard County,FL,89.94778067885117,NA
32940,Brevard County,FL,NA,28.11244979919679
32955,Brevard County,FL,NA,25.568942436412318
32967,Indian River County,FL,NA,54.61847389558233
32968,Indian River County,FL,NA,62.38286479250335
33027,Broward County,FL,NA,43.1057563587684
33030,Miami-Dade County,FL,46.47519582245431,NA
33060,Broward County,FL,89.03394255874673,NA
33063,Broward County,FL,43.994778067885115,NA
33130,Miami-Dade County,FL,96.60574412532638,NA
33149,Miami-Dade County,FL,NA,91.03078982597054
33157,Miami-Dade County,FL,NA,24.364123159303883
33167,Miami-Dade County,FL,65.0130548302872,NA
33186,Miami-Dade County,FL,NA,35.20749665327978
33189,Miami-Dade County,FL,87.98955613577023,NA
33301,Broward County,FL,86.42297650130548,NA
33312,Broward County,FL,NA,21.4190093708166
33334,Broward County,FL,56.39686684073107,NA
33411,Palm Beach County,FL,NA,75.36813922356092
33428,Palm Beach County,FL,NA,57.69745649263721
33430,Palm Beach County,FL,54.83028720626631,NA
33433,Palm Beach County,FL,NA,23.025435073627847
33446,Palm Beach County,FL,83.9425587467363,NA
33463,Palm Beach County,FL,NA,41.49933065595716
33486,Palm Beach County,FL,NA,54.75234270414994
33496,Palm Beach County,FL,74.02088772845953,NA
33545,Pasco County,FL,NA,93.57429718875501
33707,Pinellas County,FL,NA,34.13654618473896
33715,Pinellas County,FL,NA,80.72289156626506
33760,Pinellas County,FL,NA,76.43908969210173
33767,Pinellas County,FL,NA,84.06961178045516
33809,Polk County,FL,51.827676240208874,NA
33901,Lee County,FL,NA,48.19277108433735
33919,Lee County,FL,NA,16.198125836680052
33966,Lee County,FL,NA,88.08567603748327
34119,Collier County,FL,44.64751958224543,NA
34219,Manatee County,FL,NA,65.32797858099063
34221,Manatee County,FL,NA,29.183400267737618
34266,DeSoto County,FL,NA,53.81526104417671
34446,Citrus County,FL,82.63707571801567,60.91030789825971
34475,Marion County,FL,NA,75.1004016064257
34608,Hernando County,FL,NA,52.610441767068274
34652,Pasco County,FL,43.34203655352481,NA
34655,Pasco County,FL,NA,27.84471218206158
34667,Pasco County,FL,46.21409921671018,NA
34695,Pinellas County,FL,74.28198433420366,NA
34744,Osceola County,FL,NA,42.704149933065594
34769,Osceola County,FL,49.34725848563969,NA
34772,Osceola County,FL,69.45169712793734,NA
34787,Orange County,FL,28.3289817232376,NA
34952,St. Lucie County,FL,NA,11.244979919678714
34997,Martin County,FL,NA,41.633199464524765
30005,Fulton County,GA,70.49608355091384,NA
30012,Rockdale County,GA,57.310704960835515,NA
30013,Rockdale County,GA,49.21671018276763,NA
30039,Gwinnett County,GA,41.64490861618799,NA
30045,Gwinnett County,GA,NA,74.16331994645248
30067,Cobb County,GA,85.37859007832898,NA
30083,DeKalb County,GA,29.634464751958223,NA
30102,Cherokee County,GA,50.26109660574413,NA
30223,Spalding County,GA,39.947780678851174,NA
30236,Clayton County,GA,NA,44.042838018741634
30248,Henry County,GA,60.96605744125326,NA
30253,Henry County,GA,NA,56.49263721552879
30263,Coweta County,GA,11.488250652741515,49.129852744310575
30269,Fayette County,GA,NA,55.287817938420346
30276,Coweta County,GA,72.84595300261097,NA
30296,Clayton County,GA,NA,73.36010709504686
30318,Fulton County,GA,31.462140992167104,NA
30326,Fulton County,GA,96.8668407310705,NA
30331,Fulton County,GA,18.79895561357702,NA
30340,DeKalb County,GA,84.46475195822454,NA
30434,Jefferson County,GA,98.69451697127938,NA
30507,Hall County,GA,NA,65.99732262382865
30518,Gwinnett County,GA,NA,38.82195448460509
30528,White County,GA,55.61357702349869,NA
30635,Elbert County,GA,66.31853785900783,NA
30680,Barrow County,GA,56.527415143603136,NA
30735,Gordon County,GA,NA,93.84203480589022
30738,Dade County,GA,NA,97.05488621151271
30815,Richmond County,GA,22.323759791122715,NA
31635,Lanier County,GA,93.86422976501305,NA
31773,Thomas County,GA,95.822454308094,NA
31774,Irwin County,GA,NA,91.29852744310575
31907,Muscogee County,GA,55.483028720626635,NA
31909,Muscogee County,GA,NA,29.451137884872825
39819,Decatur County,GA,80.93994778067885,NA
96701,Honolulu County,HI,37.467362924281986,NA
96720,Hawaii County,HI,36.422976501305484,NA
96795,Honolulu County,HI,NA,82.1954484605087
96797,Honolulu County,HI,8.224543080939947,NA
83201,Bannock County,ID,NA,42.971887550200805
83404,Bonneville County,ID,57.44125326370757,NA
83501,Nez Perce County,ID,NA,13.253012048192772
83616,Ada County,ID,NA,12.449799196787147
83706,Ada County,ID,NA,61.178045515394906
60010,Lake County,IL,41.64490861618799,NA
60014,McHenry County,IL,27.415143603133156,NA
60020,Lake County,IL,NA,62.11512717536814
60031,Lake County,IL,78.98172323759792,NA
60047,Lake County,IL,39.81723237597911,NA
60067,Cook County,IL,45.43080939947781,21.954484605087014
60090,Cook County,IL,58.7467362924282,30.655957161981256
60093,Cook County,IL,NA,55.15394912985274
60101,DuPage County,IL,NA,25.0334672021419
60104,Cook County,IL,42.95039164490861,NA
60107,Cook County,IL,53.52480417754569,NA
60120,Kane County,IL,NA,30.78982597054886
60123,Kane County,IL,NA,18.20615796519411
60124,Kane County,IL,NA,31.05756358768407
60126,DuPage County,IL,NA,3.0789825970548863
60136,Kane County,IL,98.30287206266318,NA
60173,Cook County,IL,93.47258485639686,NA
60174,Kane County,IL,NA,42.302543507362785
60302,Cook County,IL,36.81462140992167,NA
60402,Cook County,IL,12.402088772845952,NA
60432,Will County,IL,60.313315926892955,NA
60440,Will County,IL,NA,70.14725568942436
60451,Will County,IL,NA,17.402945113788487
60466,Cook County,IL,52.34986945169713,NA
60467,Cook County,IL,53.916449086161876,NA
60475,Will County,IL,NA,85.00669344042838
60482,Cook County,IL,NA,78.98259705488621
60506,Kane County,IL,61.22715404699739,NA
60516,DuPage County,IL,48.56396866840731,NA
60523,DuPage County,IL,85.24804177545691,NA
60525,Cook County,IL,25.718015665796344,NA
60545,Kendall County,IL,NA,82.73092369477911
60546,Cook County,IL,NA,44.712182061579654
60561,DuPage County,IL,NA,34.27041499330656
60564,Will County,IL,40.33942558746737,NA
60601,Cook County,IL,86.42297650130548,NA
60605,Cook County,IL,NA,80.45515394912985
60609,Cook County,IL,40.07832898172324,19.27710843373494
60616,Cook County,IL,39.295039164490866,NA
60618,Cook County,IL,8.485639686684072,NA
60619,Cook County,IL,6.527415143603134,NA
60623,Cook County,IL,7.180156657963447,NA
60626,Cook County,IL,21.148825065274153,NA
60630,Cook County,IL,NA,67.7376171352075
60638,Cook County,IL,NA,9.772423025435073
60643,Cook County,IL,8.87728459530026,NA
60646,Cook County,IL,NA,48.86211512717537
60649,Cook County,IL,14.490861618798956,NA
60652,Cook County,IL,NA,26.238286479250334
60655,Cook County,IL,32.114882506527415,NA
60657,Cook County,IL,56.78851174934726,NA
60660,Cook County,IL,NA,18.340026773761714
60827,Cook County,IL,NA,84.73895582329317
61032,Stephenson County,IL,NA,20.080321285140563
61270,Whiteside County,IL,94.25587467362925,NA
62024,Madison County,IL,93.73368146214099,NA
62206,St. Clair County,IL,70.23498694516971,NA
62208,St. Clair County,IL,NA,68.27309236947792
62401,Effingham County,IL,65.92689295039165,NA
62656,Logan County,IL,76.50130548302873,NA
62881,Marion County,IL,NA,79.38420348058902
46013,Madison County,IN,NA,21.5528781793842
46032,Hamilton County,IN,78.45953002610966,NA
46052,Boone County,IN,NA,53.6813922356091
46060,Hamilton County,IN,NA,30.120481927710845
46131,Johnson County,IN,NA,29.98661311914324
46143,Johnson County,IN,NA,56.35876840696118
46229,Marion County,IN,26.109660574412537,NA
46260,Marion County,IN,NA,51.941097724230254
46304,Porter County,IN,NA,20.615796519410978
46307,Lake County,IN,2.088772845953003,NA
46311,Lake County,IN,NA,19.946452476572958
46321,Lake County,IN,NA,18.741633199464523
46534,Starke County,IN,NA,80.58902275769746
46574,St. Joseph County,IN,NA,80.85676037483266
46580,Kosciusko County,IN,NA,58.366800535475235
46725,Whitley County,IN,NA,23.828647925033465
46733,Adams County,IN,NA,52.208835341365464
46750,Huntington County,IN,NA,28.647925033467203
46761,LaGrange County,IN,70.10443864229765,NA
46901,Howard County,IN,NA,4.551539491298527
47150,Floyd County,IN,11.618798955613578,NA
47167,Washington County,IN,NA,53.94912985274431
47240,Decatur County,IN,36.161879895561356,NA
47542,Dubois County,IN,97.65013054830287,NA
47591,Knox County,IN,NA,27.57697456492637
47630,Warrick County,IN,45.561357702349866,NA
47802,Vigo County,IN,NA,44.44444444444444
47805,Vigo County,IN,NA,75.90361445783132
47905,Tippecanoe County,IN,NA,55.55555555555556
50021,Polk County,IA,NA,97.72423025435074
50208,Jasper County,IA,NA,68.4069611780455
50316,Polk County,IA,95.03916449086162,NA
51546,Harrison County,IA,NA,100
52246,Johnson County,IA,NA,66.93440428380187
52302,Linn County,IA,22.97650130548303,NA
52402,Linn County,IA,20.887728459530024,NA
52404,Linn County,IA,8.7467362924282,NA
52405,Linn County,IA,41.514360313315926,NA
52653,Louisa County,IA,NA,97.85809906291834
52804,Scott County,IA,17.4934725848564,NA
52806,Scott County,IA,57.180156657963444,NA
66047,Douglas County,KS,NA,94.10977242302543
66212,Johnson County,KS,59.66057441253264,NA
67010,Butler County,KS,NA,88.48728246318608
67218,Sedgwick County,KS,NA,88.35341365461848
67401,Saline County,KS,22.193211488250654,24.096385542168676
67502,Reno County,KS,71.54046997389034,NA
67530,Barton County,KS,71.01827676240208,NA
67846,Finney County,KS,NA,76.84069611780455
67901,Seward County,KS,77.02349869451697,NA
40108,Meade County,KY,70.62663185378591,NA
40203,Jefferson County,KY,23.890339425587467,NA
40211,Jefferson County,KY,13.838120104438643,NA
40223,Jefferson County,KY,NA,48.59437751004016
40229,Jefferson County,KY,NA,22.48995983935743
40390,Jessamine County,KY,98.9556135770235,NA
40391,Clark County,KY,NA,14.323962516733602
40508,Fayette County,KY,37.0757180156658,NA
40511,Fayette County,KY,NA,53.279785809906286
41041,Fleming County,KY,76.2402088772846,NA
41042,Boone County,KY,47.127937336814625,NA
41056,Mason County,KY,44.90861618798956,NA
41164,Carter County,KY,NA,37.88487282463186
42001,McCracken County,KY,64.49086161879896,NA
42141,Barren County,KY,NA,10.575635876840696
42240,Christian County,KY,NA,16.599732262382865
70003,Jefferson Parish,LA,35.24804177545692,NA
70065,Jefferson Parish,LA,NA,2.5435073627844713
70068,St. John the Baptist Parish,LA,10.443864229765012,NA
70360,Terrebonne Parish,LA,12.010443864229766,NA
70377,Terrebonne Parish,LA,NA,98.79518072289156
70380,St. Mary Parish,LA,NA,32.79785809906292
70403,Tangipahoa Parish,LA,31.59268929503917,NA
70433,St. Tammany Parish,LA,NA,9.504685408299867
70438,Washington Parish,LA,NA,53.01204819277109
70448,St. Tammany Parish,LA,40.992167101827675,NA
70454,Tangipahoa Parish,LA,9.007832898172325,11.512717536813923
70501,Lafayette Parish,LA,15.404699738903393,NA
70605,Calcasieu Parish,LA,19.451697127937337,NA
70769,Ascension Parish,LA,38.642297650130544,NA
70805,East Baton Rouge Parish,LA,18.01566579634465,NA
71067,Bossier Parish,LA,NA,99.33065595716198
71075,Webster Parish,LA,NA,81.52610441767068
71082,Caddo Parish,LA,90.60052219321149,NA
71328,Rapides Parish,LA,63.70757180156657,NA
71334,Concordia Parish,LA,NA,81.79384203480589
04240,Androscoggin County,ME,14.75195822454308,NA
04274,Androscoggin County,ME,NA,95.98393574297188
04330,Kennebec County,ME,28.851174934725847,7.764390896921017
20619,St. Mary's County,MD,NA,89.42436412315931
20653,St. Mary's County,MD,NA,79.11646586345381
20736,Calvert County,MD,97.25848563968668,NA
20743,Prince George's County,MD,NA,71.75368139223562
20744,Prince George's County,MD,NA,42.8380187416332
20784,Prince George's County,MD,NA,77.24230254350736
20878,Montgomery County,MD,49.60835509138381,NA
20906,Montgomery County,MD,56.00522193211488,NA
21014,Harford County,MD,NA,34.002677376171356
21057,Baltimore County,MD,NA,97.99196787148594
21136,Baltimore County,MD,60.704960835509134,NA
21216,Baltimore city,MD,38.250652741514365,NA
21228,Baltimore County,MD,54.699738903394255,NA
21617,Queen Anne's County,MD,90.99216710182768,NA
21620,Kent County,MD,NA,63.05220883534136
21774,Frederick County,MD,87.46736292428199,NA
21793,Frederick County,MD,88.77284595300262,NA
21921,Cecil County,MD,NA,6.961178045515395
01057,Hampden County,MA,99.08616187989556,NA
01201,Berkshire County,MA,NA,67.33601070950469
01440,Worcester County,MA,NA,11.378848728246318
01463,Middlesex County,MA,47.911227154047,NA
01521,Hampden County,MA,NA,99.8661311914324
01569,Worcester County,MA,NA,36.27844712182062
01604,Worcester County,MA,0.7832898172323759,NA
01742,Middlesex County,MA,NA,41.900937081659976
01749,Middlesex County,MA,21.801566579634464,NA
01752,Middlesex County,MA,NA,14.591700133868809
01776,Middlesex County,MA,NA,45.78313253012048
01801,Middlesex County,MA,36.55352480417754,0.4016064257028112
01833,Essex County,MA,NA,73.49397590361446
01840,Essex County,MA,NA,58.90227576974565
01854,Middlesex County,MA,1.95822454308094,NA
01902,Essex County,MA,85.6396866840731,8.835341365461847
01915,Essex County,MA,91.51436031331592,NA
01940,Essex County,MA,NA,52.47657295850067
01960,Essex County,MA,6.005221932114883,NA
01970,Essex County,MA,NA,8.433734939759036
02026,Norfolk County,MA,86.81462140992167,NA
02119,Suffolk County,MA,0,NA
02121,Suffolk County,MA,NA,0.13386880856760375
02122,Suffolk County,MA,1.4360313315926894,NA
02125,Suffolk County,MA,NA,0.535475234270415
02128,Suffolk County,MA,0.26109660574412535,NA
02130,Suffolk County,MA,NA,1.3386880856760375
02131,Suffolk County,MA,1.6971279373368149,NA
02143,Middlesex County,MA,NA,12.717536813922356
02155,Middlesex County,MA,NA,0.2677376171352075
02170,Norfolk County,MA,34.33420365535248,NA
02176,Middlesex County,MA,NA,7.898259705488621
02339,Plymouth County,MA,NA,89.95983935742971
02360,Plymouth County,MA,0.9138381201044387,0
02459,Middlesex County,MA,46.083550913838124,NA
02467,Norfolk County,MA,51.174934725848566,NA
02472,Middlesex County,MA,NA,8.299866131191433
02476,Middlesex County,MA,NA,28.78179384203481
02536,Barnstable County,MA,24.673629242819846,15.66265060240964
02571,Plymouth County,MA,44.516971279373365,NA
02632,Barnstable County,MA,NA,90.36144578313254
02720,Bristol County,MA,16.057441253263708,NA
02766,Bristol County,MA,19.843342036553523,NA
02767,Bristol County,MA,NA,45.38152610441767
02771,Bristol County,MA,41.253263707571804,NA
02777,Bristol County,MA,7.702349869451696,NA
48001,St. Clair County,MI,70.36553524804178,NA
48005,Macomb County,MI,91.25326370757179,NA
48034,Oakland County,MI,NA,57.831325301204814
48035,Macomb County,MI,NA,11.646586345381527
48039,St. Clair County,MI,84.59530026109661,86.88085676037484
48045,Macomb County,MI,27.54569190600522,NA
48047,Macomb County,MI,NA,16.599732262382865
48060,St. Clair County,MI,3.524804177545692,6.291834002677376
48065,Macomb County,MI,NA,76.70682730923694
48088,Macomb County,MI,NA,26.37215528781794
48089,Macomb County,MI,7.5718015665796345,NA
48093,Macomb County,MI,NA,42.168674698795186
48103,Washtenaw County,MI,15.796344647519584,0.9370816599732262
48105,Washtenaw County,MI,NA,17.001338688085678
48108,Washtenaw County,MI,40.2088772845953,NA
48111,Wayne County,MI,51.56657963446475,NA
48118,Washtenaw County,MI,NA,70.68273092369478
48125,Wayne County,MI,NA,52.878179384203484
48126,Wayne County,MI,10.704960835509137,NA
48134,Wayne County,MI,63.18537859007834,NA
48135,Wayne County,MI,NA,26.639892904953143
48138,Wayne County,MI,91.64490861618799,NA
48146,Wayne County,MI,NA,17.938420348058905
48152,Wayne County,MI,35.639686684073105,6.693440428380187
48154,Wayne County,MI,NA,8.969210174029453
48162,Monroe County,MI,13.315926892950392,NA
48170,Wayne County,MI,NA,3.4805890227576977
48173,Wayne County,MI,60.835509138381205,NA
48174,Wayne County,MI,NA,17.13520749665328
48180,Wayne County,MI,NA,1.8741633199464525
48185,Wayne County,MI,5.221932114882506,NA
48186,Wayne County,MI,29.242819843342037,NA
48187,Wayne County,MI,10.835509138381202,2.4096385542168677
48188,Wayne County,MI,44.12532637075718,NA
48198,Washtenaw County,MI,2.8720626631853787,NA
48205,Wayne County,MI,4.830287206266318,NA
48207,Wayne County,MI,20.757180156657963,38.68808567603748
48224,Wayne County,MI,2.4804177545691903,NA
48235,Wayne County,MI,2.610966057441253,NA
48309,Oakland County,MI,36.684073107049606,NA
48310,Macomb County,MI,17.10182767624021,NA
48313,Macomb County,MI,NA,24.899598393574294
48316,Macomb County,MI,42.55874673629243,NA
48322,Oakland County,MI,44.25587467362924,NA
48329,Oakland County,MI,NA,23.427041499330656
48336,Oakland County,MI,NA,45.11378848728246
48340,Oakland County,MI,11.096605744125327,NA
48348,Oakland County,MI,38.90339425587467,NA
48353,Livingston County,MI,98.04177545691905,NA
48371,Oakland County,MI,NA,51.27175368139224
48381,Oakland County,MI,67.23237597911226,NA
48382,Oakland County,MI,52.219321148825074,NA
48390,Oakland County,MI,NA,39.75903614457831
48393,Oakland County,MI,NA,85.00669344042838
48451,Genesee County,MI,NA,76.57295850066934
48463,Genesee County,MI,92.03655352480418,NA
48640,Midland County,MI,9.921671018276761,NA
48746,Tuscola County,MI,80.80939947780679,NA
48801,Gratiot County,MI,50.65274151436031,NA
48820,Clinton County,MI,NA,51.80722891566265
48843,Livingston County,MI,13.185378590078328,5.220883534136546
48881,Ionia County,MI,NA,93.0388219544846
48911,Ingham County,MI,6.7885117493472595,NA
49017,Calhoun County,MI,NA,27.17536813922356
49024,Kalamazoo County,MI,NA,24.63186077643909
49048,Kalamazoo County,MI,18.66840731070496,NA
49090,Van Buren County,MI,NA,44.57831325301205
49093,St. Joseph County,MI,NA,41.231593038821956
49107,Berrien County,MI,NA,79.38420348058902
49112,Cass County,MI,NA,87.68406961178046
49203,Jackson County,MI,7.441253263707572,8.701472556894243
49221,Lenawee County,MI,4.569190600522193,5.756358768406962
49247,Lenawee County,MI,90.2088772845953,NA
49286,Lenawee County,MI,NA,50.602409638554214
49316,Kent County,MI,NA,50.0669344042838
49331,Kent County,MI,NA,46.85408299866131
49418,Kent County,MI,NA,88.75502008032129
49441,Muskegon County,MI,13.054830287206268,63.72155287817939
49444,Muskegon County,MI,NA,23.293172690763054
49525,Kent County,MI,38.1201044386423,NA
49677,Osceola County,MI,66.57963446475196,NA
49685,Grand Traverse County,MI,55.09138381201044,NA
49696,Grand Traverse County,MI,NA,73.76171352074967
49715,Chippewa County,MI,93.08093994778068,NA
49735,Otsego County,MI,35.37859007832898,NA
49783,Chippewa County,MI,22.06266318537859,NA
55021,Rice County,MN,NA,43.373493975903614
55063,Pine County,MN,NA,68.13922356091031
55104,Ramsey County,MN,16.187989556135772,NA
55124,Dakota County,MN,40.86161879895561,NA
55313,Wright County,MN,82.37597911227154,NA
55337,Dakota County,MN,36.945169712793735,NA
55376,Wright County,MN,85.77023498694517,NA
55426,Hennepin County,MN,NA,43.23962516733601
55437,Hennepin County,MN,85.50913838120104,NA
55438,Hennepin County,MN,90.46997389033943,NA
55806,St. Louis County,MN,30.026109660574413,NA
55987,Winona County,MN,8.355091383812011,NA
56001,Blue Earth County,MN,NA,38.01874163319947
56510,Norman County,MN,99.60835509138381,NA
56537,Otter Tail County,MN,19.19060052219321,NA
56573,Otter Tail County,MN,86.0313315926893,NA
56601,Beltrami County,MN,6.135770234986945,NA
38614,Coahoma County,MS,NA,66.93440428380187
38672,DeSoto County,MS,84.85639686684074,NA
38852,Tishomingo County,MS,59.00783289817232,NA
39110,Madison County,MS,NA,62.784471218206164
39339,Winston County,MS,73.7597911227154,NA
39571,Harrison County,MS,NA,38.28647925033467
39669,Wilkinson County,MS,97.12793733681463,NA
63026,St. Louis County,MO,NA,14.056224899598394
63049,Jefferson County,MO,NA,65.86345381526104
63114,St. Louis County,MO,27.93733681462141,NA
63129,St. Louis County,MO,NA,8.56760374832664
63366,St. Charles County,MO,NA,5.622489959839357
63376,St. Charles County,MO,NA,2.0080321285140563
63601,St. Francois County,MO,45.039164490861616,NA
63873,New Madrid County,MO,93.21148825065274,NA
63901,Butler County,MO,14.229765013054829,NA
64015,Jackson County,MO,NA,19.410977242302543
64024,Clay County,MO,69.71279373368147,NA
64060,Clay County,MO,NA,67.20214190093708
64064,Jackson County,MO,54.960835509138384,NA
64080,Cass County,MO,64.3603133159269,NA
64082,Jackson County,MO,NA,92.3694779116466
64106,Jackson County,MO,NA,93.44042838018741
64111,Jackson County,MO,88.38120104438643,NA
64113,Jackson County,MO,NA,66.26506024096386
64116,Clay County,MO,26.89295039164491,NA
64118,Clay County,MO,27.676240208877285,NA
64155,Clay County,MO,NA,25.301204819277107
64157,Clay County,MO,67.49347258485639,NA
64772,Vernon County,MO,NA,57.1619812583668
64801,Jasper County,MO,NA,16.46586345381526
64804,Jasper County,MO,NA,10.843373493975903
64831,McDonald County,MO,NA,90.76305220883533
64870,Jasper County,MO,NA,61.44578313253012
65020,Camden County,MO,NA,71.08433734939759
65202,Boone County,MO,11.879895561357703,NA
65301,Pettis County,MO,NA,10.174029451137885
59011,Sweet Grass County,MT,98.17232375979113,NA
59044,Yellowstone County,MT,NA,80.99062918340026
59068,Carbon County,MT,95.16971279373368,NA
59330,Dawson County,MT,NA,82.73092369477911
59405,Cascade County,MT,NA,19.143239625167336
59711,Deer Lodge County,MT,NA,68.00535475234271
59864,Lake County,MT,NA,98.25970548862115
68007,Douglas County,NE,NA,95.71619812583668
68008,Washington County,NE,NA,65.19410977242302
68131,Douglas County,NE,NA,91.16465863453816
68507,Lancaster County,NE,89.55613577023499,NA
68701,Madison County,NE,53.13315926892951,NA
68787,Wayne County,NE,NA,99.46452476572959
68818,Hamilton County,NE,NA,94.77911646586345
89123,Clark County,NV,NA,36.144578313253014
89141,Clark County,NV,NA,78.714859437751
89431,Washoe County,NV,NA,43.64123159303882
89434,Washoe County,NV,45.300261096605745,NA
89436,Washoe County,NV,25.45691906005222,NA
89506,Washoe County,NV,19.973890339425587,NA
89508,Washoe County,NV,NA,74.9665327978581
89511,Washoe County,NV,65.40469973890339,NA
03045,Hillsborough County,NH,88.64229765013056,NA
03104,Hillsborough County,NH,NA,15.528781793842034
03301,Merrimack County,NH,17.75456919060052,NA
03819,Rockingham County,NH,NA,98.66131191432396
03858,Rockingham County,NH,NA,95.85006693440428
03867,Strafford County,NH,NA,29.852744310575634
07017,Essex County,NJ,93.34203655352479,NA
07043,Essex County,NJ,NA,72.42302543507363
07052,Essex County,NJ,15.926892950391643,NA
07080,Middlesex County,NJ,59.7911227154047,NA
07087,Hudson County,NJ,3.6553524804177546,NA
07202,Union County,NJ,NA,11.11111111111111
07204,Union County,NJ,91.77545691906005,NA
07420,Passaic County,NJ,NA,99.06291834002677
07504,Passaic County,NJ,NA,77.37617135207496
07644,Bergen County,NJ,NA,34.805890227576974
07677,Bergen County,NJ,NA,91.83400267737618
07701,Monmouth County,NJ,77.28459530026109,NA
07712,Monmouth County,NJ,3.3942558746736298,NA
07871,Sussex County,NJ,59.268929503916446,NA
07932,Morris County,NJ,NA,94.64524765729585
08016,Burlington County,NJ,3.91644908616188,NA
08033,Camden County,NJ,87.0757180156658,NA
08046,Burlington County,NJ,29.89556135770235,NA
08052,Burlington County,NJ,30.548302872062667,NA
08057,Burlington County,NJ,62.66318537859008,NA
08093,Gloucester County,NJ,NA,75.2342704149933
08094,Gloucester County,NJ,30.287206266318538,NA
08105,Camden County,NJ,1.1749347258485638,13.654618473895583
08203,Atlantic County,NJ,94.64751958224544,NA
08401,Atlantic County,NJ,NA,2.8112449799196786
08527,Ocean County,NJ,9.138381201044385,7.630522088353414
08753,Ocean County,NJ,2.741514360313316,NA
08757,Ocean County,NJ,NA,4.417670682730924
08859,Middlesex County,NJ,NA,64.52476572958501
87120,Bernalillo County,NM,NA,51.00401606425703
87122,Bernalillo County,NM,NA,90.49531459170014
87124,Sandoval County,NM,12.140992167101828,NA
87566,Rio Arriba County,NM,95.30026109660574,NA
87567,Santa Fe County,NM,NA,99.19678714859438
88007,Doa Ana County,NM,83.5509138381201,59.303882195448466
88352,Otero County,NM,84.9869451697128,NA
10002,New York County,NY,NA,2.677376171352075
10005,New York County,NY,94.38642297650131,NA
10025,New York County,NY,NA,0.6693440428380187
10035,New York County,NY,NA,10.040160642570282
10036,New York County,NY,95.56135770234987,NA
10075,New York County,NY,86.16187989556136,NA
10304,Richmond County,NY,14.621409921671018,NA
10452,Bronx County,NY,0.6527415143603132,NA
10453,Bronx County,NY,30.678851174934724,NA
10456,Bronx County,NY,3.0026109660574414,NA
10458,Bronx County,NY,0.39164490861618795,NA
10461,Bronx County,NY,12.663185378590077,NA
10463,Bronx County,NY,33.28981723237598,NA
10467,Bronx County,NY,13.707571801566578,7.228915662650602
10530,Westchester County,NY,95.43080939947781,NA
10538,Westchester County,NY,NA,94.37751004016064
10580,Westchester County,NY,NA,92.10174029451139
11030,Nassau County,NY,NA,96.25167336010709
11106,Queens County,NY,54.177545691906005,NA
11214,Kings County,NY,NA,13.386880856760374
11219,Kings County,NY,63.9686684073107,NA
11224,Kings County,NY,20.626631853785902,NA
11230,Kings County,NY,NA,11.780455153949129
11231,Kings County,NY,73.62924281984334,NA
11238,Kings County,NY,NA,52.34270414993306
11360,Queens County,NY,NA,83.13253012048193
11362,Queens County,NY,NA,85.94377510040161
11385,Queens County,NY,NA,46.3186077643909
11413,Queens County,NY,NA,95.04685408299866
11418,Queens County,NY,NA,90.22757697456493
11422,Queens County,NY,92.95039164490862,NA
11434,Queens County,NY,14.882506527415144,17.8045515394913
11746,Suffolk County,NY,52.74151436031331,NA
11768,Suffolk County,NY,NA,95.31459170013386
11787,Suffolk County,NY,NA,39.223560910307896
11788,Suffolk County,NY,NA,78.045515394913
11801,Nassau County,NY,60.574412532637076,NA
12027,Saratoga County,NY,97.38903394255874,NA
12180,Rensselaer County,NY,NA,10.307898259705489
12414,Greene County,NY,NA,41.76706827309237
12550,Orange County,NY,34.72584856396867,NA
12771,Orange County,NY,69.9738903394256,NA
12804,Warren County,NY,NA,12.182061579651942
13021,Cayuga County,NY,4.046997389033943,1.7402945113788488
13029,Onondaga County,NY,75.19582245430809,NA
13045,Cortland County,NY,NA,12.048192771084338
13078,Onondaga County,NY,NA,76.97456492637215
13088,Onondaga County,NY,NA,51.67336010709504
13104,Onondaga County,NY,NA,48.460508701472556
13126,Oswego County,NY,NA,7.362784471218206
13146,Wayne County,NY,NA,93.97590361445783
13206,Onondaga County,NY,27.154046997389038,NA
13208,Onondaga County,NY,12.924281984334204,NA
13209,Onondaga County,NY,49.34725848563969,NA
13214,Onondaga County,NY,83.15926892950391,NA
13215,Onondaga County,NY,NA,56.09103078982597
13219,Onondaga County,NY,NA,54.08299866131191
13339,Montgomery County,NY,82.11488250652742,NA
13367,Lewis County,NY,72.19321148825065,NA
13403,Oneida County,NY,NA,72.69076305220884
13440,Oneida County,NY,NA,6.024096385542169
13460,Chenango County,NY,52.61096605744125,NA
13490,Oneida County,NY,NA,99.59839357429718
13617,St. Lawrence County,NY,37.206266318537864,NA
13622,Jefferson County,NY,NA,99.73226238286479
13732,Tioga County,NY,NA,46.050870147255694
13760,Broome County,NY,1.0443864229765014,NA
13778,Chenango County,NY,NA,54.21686746987952
13790,Broome County,NY,57.702349869451695,NA
13901,Broome County,NY,NA,4.28380187416332
14025,Erie County,NY,96.08355091383812,NA
14043,Erie County,NY,35.50913838120104,66.39892904953146
14047,Erie County,NY,NA,78.3132530120482
14094,Niagara County,NY,2.3498694516971277,20.883534136546185
14108,Niagara County,NY,NA,83.40026773761714
14120,Niagara County,NY,NA,8.032128514056225
14214,Erie County,NY,33.81201044386423,46.98795180722892
14225,Erie County,NY,8.616187989556137,NA
14228,Erie County,NY,77.41514360313316,NA
14411,Orleans County,NY,29.765013054830288,NA
14420,Monroe County,NY,16.449086161879894,NA
14425,Ontario County,NY,18.14621409921671,NA
14445,Monroe County,NY,NA,65.59571619812584
14450,Monroe County,NY,NA,49.531459170013385
14467,Monroe County,NY,NA,56.09103078982597
14468,Monroe County,NY,18.5378590078329,NA
14470,Orleans County,NY,48.9556135770235,NA
14472,Monroe County,NY,50.78328981723238,66.66666666666666
14482,Genesee County,NY,80.28720626631853,NA
14487,Livingston County,NY,78.59007832898173,NA
14526,Monroe County,NY,83.02872062663185,16.867469879518072
14534,Monroe County,NY,63.054830287206265,1.6064257028112447
14544,Yates County,NY,94.90861618798957,NA
14550,Wyoming County,NY,92.68929503916449,NA
14559,Monroe County,NY,NA,22.757697456492636
14569,Wyoming County,NY,67.23237597911226,NA
14580,Monroe County,NY,6.919060052219321,NA
14607,Monroe County,NY,NA,46.72021419009371
14616,Monroe County,NY,3.7859007832898173,9.906291834002676
14617,Monroe County,NY,6.266318537859007,NA
14620,Monroe County,NY,5.7441253263707575,NA
14623,Monroe County,NY,17.885117493472585,60.37483266398929
14624,Monroe County,NY,3.1331592689295036,NA
14625,Monroe County,NY,NA,47.92503346720214
14626,Monroe County,NY,18.407310704960835,NA
14741,Cattaraugus County,NY,100,NA
14840,Steuben County,NY,NA,83.26639892904953
14843,Steuben County,NY,22.58485639686684,NA
14905,Chemung County,NY,NA,68.67469879518072
27012,Forsyth County,NC,32.76762402088773,4.149933065595716
27021,Stokes County,NC,92.16710182767625,NA
27030,Surry County,NC,6.657963446475196,1.2048192771084338
27051,Forsyth County,NC,NA,74.56492637215528
27205,Randolph County,NC,43.21148825065274,NA
27284,Forsyth County,NC,31.853785900783286,1.07095046854083
27292,Davidson County,NC,23.49869451697128,NA
27312,Chatham County,NC,NA,21.01740294511379
27330,Lee County,NC,24.281984334203656,NA
27360,Davidson County,NC,NA,5.4886211512717535
27371,Montgomery County,NC,NA,84.47121820615796
27410,Guilford County,NC,NA,15.796519410977242
27530,Wayne County,NC,15.274151436031334,NA
27569,Johnston County,NC,75.58746736292427,NA
27587,Wake County,NC,NA,10.977242302543507
27591,Wake County,NC,60.052219321148826,NA
27603,Wake County,NC,23.759791122715406,27.84471218206158
27613,Wake County,NC,NA,39.625167336010705
27615,Wake County,NC,NA,15.127175368139223
27703,Durham County,NC,11.357702349869452,NA
27713,Durham County,NC,25.979112271540473,NA
27828,Pitt County,NC,NA,78.714859437751
27832,Northampton County,NC,99.34725848563968,NA
27892,Martin County,NC,NA,33.734939759036145
27896,Wilson County,NC,NA,76.03748326639894
28027,Cabarrus County,NC,20.365535248041773,NA
28056,Gaston County,NC,48.04177545691906,NA
28103,Union County,NC,NA,76.30522088353415
28117,Iredell County,NC,NA,34.404283801874165
28227,Mecklenburg County,NC,21.671018276762403,NA
28372,Robeson County,NC,NA,64.79250334672021
28409,New Hanover County,NC,NA,19.009370816599734
28465,Brunswick County,NC,NA,59.97322623828648
28557,Carteret County,NC,NA,45.64926372155288
28586,Craven County,NC,83.28981723237598,NA
28677,Iredell County,NC,16.840731070496084,NA
28697,Wilkes County,NC,64.75195822454309,NA
28704,Buncombe County,NC,NA,73.49397590361446
28719,Jackson County,NC,48.30287206266319,NA
28779,Jackson County,NC,59.39947780678851,NA
28786,Haywood County,NC,NA,20.74966532797858
28804,Buncombe County,NC,83.68146214099217,74.69879518072288
58201,Grand Forks County,ND,65.79634464751958,36.68005354752343
58503,Burleigh County,ND,NA,30.522088353413658
43016,Franklin County,OH,62.92428198433421,NA
43023,Licking County,OH,NA,82.73092369477911
43056,Licking County,OH,70.88772845953002,40.16064257028113
43068,Franklin County,OH,9.7911227154047,NA
43076,Perry County,OH,81.59268929503916,NA
43085,Franklin County,OH,NA,63.98929049531459
43123,Franklin County,OH,NA,9.103078982597054
43138,Hocking County,OH,32.375979112271544,NA
43205,Franklin County,OH,47.65013054830287,NA
43207,Franklin County,OH,1.8276762402088773,NA
43221,Franklin County,OH,NA,44.97991967871486
43223,Franklin County,OH,5.613577023498695,NA
43227,Franklin County,OH,24.804177545691903,NA
43232,Franklin County,OH,4.43864229765013,NA
43326,Hardin County,OH,51.827676240208874,NA
43410,Sandusky County,OH,NA,54.886211512717544
43502,Fulton County,OH,83.42036553524804,NA
43528,Lucas County,OH,NA,47.65729585006693
43613,Lucas County,OH,4.177545691906006,NA
43615,Lucas County,OH,4.308093994778068,NA
43725,Guernsey County,OH,46.73629242819843,NA
43731,Perry County,OH,NA,89.2904953145917
43830,Muskingum County,OH,NA,98.12583668005355
44004,Ashtabula County,OH,33.68146214099217,NA
44012,Lorain County,OH,37.72845953002611,NA
44035,Lorain County,OH,0.13054830287206268,NA
44050,Lorain County,OH,73.23759791122716,NA
44052,Lorain County,OH,67.1018276762402,NA
44070,Cuyahoga County,OH,NA,32.26238286479251
44087,Summit County,OH,43.472584856396864,NA
44094,Lake County,OH,19.712793733681462,NA
44104,Cuyahoga County,OH,78.06788511749347,NA
44111,Cuyahoga County,OH,1.5665796344647518,NA
44112,Cuyahoga County,OH,54.438642297650134,NA
44120,Cuyahoga County,OH,NA,2.9451137884872822
44137,Cuyahoga County,OH,5.483028720626632,11.914323962516733
44138,Cuyahoga County,OH,35.117493472584854,NA
44144,Cuyahoga County,OH,NA,9.236947791164658
44145,Cuyahoga County,OH,NA,5.35475234270415
44202,Portage County,OH,34.9869451697128,NA
44203,Summit County,OH,5.87467362924282,61.044176706827315
44281,Medina County,OH,23.237597911227155,NA
44314,Summit County,OH,28.98172323759791,NA
44413,Columbiana County,OH,NA,72.15528781793842
44438,Trumbull County,OH,72.32375979112271,NA
44512,Mahoning County,OH,NA,14.725568942436412
44622,Tuscarawas County,OH,36.0313315926893,71.2182061579652
44646,Stark County,OH,9.39947780678851,NA
44672,Mahoning County,OH,NA,81.39223560910308
44683,Tuscarawas County,OH,NA,92.6372155287818
44691,Wayne County,OH,NA,6.157965194109773
44830,Seneca County,OH,NA,32.663989290495316
44833,Crawford County,OH,NA,56.760374832663985
45011,Butler County,OH,48.17232375979113,25.167336010709505
45013,Butler County,OH,NA,3.3467202141900936
45042,Butler County,OH,21.409921671018274,NA
45044,Butler County,OH,NA,14.457831325301203
45067,Butler County,OH,60.313315926892955,NA
45069,Butler County,OH,NA,20.481927710843372
45103,Clermont County,OH,29.50391644908616,NA
45133,Highland County,OH,NA,22.22222222222222
45152,Warren County,OH,NA,83.53413654618474
45157,Clermont County,OH,NA,91.96787148594377
45220,Hamilton County,OH,NA,87.95180722891565
45224,Hamilton County,OH,22.45430809399478,NA
45227,Hamilton County,OH,51.43603133159269,NA
45238,Hamilton County,OH,NA,17.670682730923694
45240,Hamilton County,OH,NA,96.65327978580991
45242,Hamilton County,OH,NA,64.92637215528781
45309,Montgomery County,OH,NA,61.57965194109772
45327,Montgomery County,OH,NA,80.99062918340026
45331,Darke County,OH,28.590078328981722,26.77376171352075
45373,Miami County,OH,NA,13.92235609103079
45377,Montgomery County,OH,71.01827676240208,NA
45385,Greene County,OH,41.38381201044387,NA
45440,Montgomery County,OH,61.8798955613577,NA
45459,Montgomery County,OH,NA,23.828647925033465
45505,Clark County,OH,32.89817232375979,NA
45601,Ross County,OH,0.5221932114882507,NA
45619,Lawrence County,OH,62.40208877284596,NA
45631,Gallia County,OH,11.22715404699739,NA
45662,Scioto County,OH,NA,2.14190093708166
45806,Allen County,OH,64.62140992167102,NA
45822,Mercer County,OH,NA,34.53815261044177
45895,Auglaize County,OH,NA,34.93975903614458
73034,Oklahoma County,OK,63.315926892950394,NA
73072,Cleveland County,OK,30.678851174934724,NA
73099,Canadian County,OK,NA,7.095046854082998
73132,Oklahoma County,OK,57.83289817232375,NA
73401,Carter County,OK,13.968668407310705,NA
73505,Comanche County,OK,24.934725848563968,18.60776439089692
73507,Comanche County,OK,47.25848563968668,NA
73521,Jackson County,OK,68.66840731070496,NA
74006,Washington County,OK,58.09399477806788,NA
74008,Tulsa County,OK,68.01566579634465,NA
74015,Rogers County,OK,NA,89.5582329317269
74066,Creek County,OK,NA,40.29451137884873
74129,Tulsa County,OK,58.35509138381201,NA
74331,Delaware County,OK,NA,78.44712182061579
74365,Mayes County,OK,87.20626631853786,NA
74820,Pontotoc County,OK,NA,5.8902275769745644
74965,Adair County,OK,NA,92.50334672021418
97024,Multnomah County,OR,66.4490861618799,NA
97055,Clackamas County,OR,68.1462140992167,NA
97113,Washington County,OR,NA,95.44846050870147
97212,Multnomah County,OR,66.18798955613578,74.29718875502009
97330,Benton County,OR,NA,28.514056224899598
97355,Linn County,OR,NA,6.425702811244979
97381,Marion County,OR,NA,66.53279785809906
97467,Douglas County,OR,NA,70.28112449799197
97477,Lane County,OR,NA,32.93172690763052
97603,Klamath County,OR,NA,6.5595716198125835
97814,Baker County,OR,NA,47.791164658634536
97838,Umatilla County,OR,51.697127937336816,NA
97850,Union County,OR,42.03655352480418,NA
15001,Beaver County,PA,21.93211488250653,NA
15021,Washington County,PA,89.68668407310705,NA
15025,Allegheny County,PA,NA,50.33467202141901
15061,Beaver County,PA,63.577023498694516,NA
15120,Allegheny County,PA,45.95300261096606,NA
15129,Allegheny County,PA,NA,79.25033467202141
15136,Allegheny County,PA,NA,72.28915662650603
15139,Allegheny County,PA,96.21409921671018,NA
15146,Allegheny County,PA,78.19843342036553,NA
15210,Allegheny County,PA,15.66579634464752,45.51539491298527
15212,Allegheny County,PA,26.109660574412537,NA
15235,Allegheny County,PA,21.148825065274153,NA
15236,Allegheny County,PA,49.73890339425587,32.396251673360105
15301,Washington County,PA,30.156657963446477,NA
15370,Greene County,PA,NA,85.6760374832664
15644,Westmoreland County,PA,NA,36.94779116465863
15656,Westmoreland County,PA,74.28198433420366,NA
15683,Westmoreland County,PA,NA,62.51673360107095
15801,Clearfield County,PA,54.04699738903395,NA
15857,Elk County,PA,76.76240208877284,NA
16507,Erie County,PA,NA,94.91298527443107
16648,Blair County,PA,NA,38.95582329317269
16735,McKean County,PA,NA,67.8714859437751
16830,Clearfield County,PA,NA,32.53012048192771
17020,Perry County,PA,81.0704960835509,NA
17026,Lebanon County,PA,95.95300261096605,NA
17050,Cumberland County,PA,25.06527415143603,NA
17078,Lebanon County,PA,NA,46.4524765729585
17111,Dauphin County,PA,NA,7.49665327978581
17313,York County,PA,67.62402088772846,NA
17316,Adams County,PA,75.8485639686684,NA
17327,York County,PA,87.98955613577023,NA
17331,York County,PA,NA,0.8032128514056224
17402,York County,PA,20.496083550913838,NA
17516,Lancaster County,PA,NA,92.23560910307899
17522,Lancaster County,PA,28.198433420365536,NA
17603,Lancaster County,PA,9.26892950391645,NA
17745,Clinton County,PA,NA,49.26372155287818
17872,Northumberland County,PA,42.81984334203655,NA
18018,Lehigh County,PA,NA,10.7095046854083
18020,Northampton County,PA,44.38642297650131,NA
18045,Northampton County,PA,NA,18.072289156626507
18103,Lehigh County,PA,NA,87.55020080321285
18201,Luzerne County,PA,NA,26.104417670682732
18229,Carbon County,PA,72.97650130548303,NA
18330,Monroe County,PA,NA,85.27443105756359
18444,Lackawanna County,PA,84.33420365535248,NA
18510,Lackawanna County,PA,NA,90.62918340026773
18603,Columbia County,PA,14.360313315926893,NA
18612,Luzerne County,PA,NA,52.74431057563588
18634,Luzerne County,PA,NA,46.58634538152611
18661,Luzerne County,PA,84.20365535248042,75.50200803212851
18702,Luzerne County,PA,7.310704960835509,NA
18801,Susquehanna County,PA,79.24281984334203,NA
18966,Bucks County,PA,NA,12.851405622489958
19020,Bucks County,PA,7.963446475195822,NA
19057,Bucks County,PA,34.46475195822455,NA
19061,Delaware County,PA,78.85117493472585,NA
19114,Philadelphia County,PA,NA,22.89156626506024
19116,Philadelphia County,PA,31.070496083550914,16.198125836680052
19122,Philadelphia County,PA,NA,74.02945113788488
19128,Philadelphia County,PA,20.10443864229765,29.58500669344043
19133,Philadelphia County,PA,16.318537859007833,NA
19134,Philadelphia County,PA,18.27676240208877,15.930388219544847
19136,Philadelphia County,PA,12.27154046997389,NA
19143,Philadelphia County,PA,7.83289817232376,NA
19151,Philadelphia County,PA,14.099216710182768,NA
19154,Philadelphia County,PA,16.971279373368144,NA
19311,Chester County,PA,86.68407310704961,NA
19342,Delaware County,PA,50.52219321148825,NA
19403,Montgomery County,PA,NA,34.67202141900937
19406,Montgomery County,PA,48.825065274151434,NA
19422,Montgomery County,PA,NA,97.59036144578313
19438,Montgomery County,PA,NA,55.957161981258366
19440,Montgomery County,PA,62.793733681462136,NA
19446,Montgomery County,PA,NA,54.48460508701473
19473,Montgomery County,PA,NA,74.43105756358769
02806,Bristol County,RI,NA,69.21017402945114
02831,Providence County,RI,97.78067885117493,NA
02835,Newport County,RI,NA,86.2115127175368
02842,Newport County,RI,80.0261096605744,NA
02864,Providence County,RI,28.720626631853786,NA
02893,Kent County,RI,69.71279373368147,NA
02903,Providence County,RI,NA,83.66800535475234
02908,Providence County,RI,NA,40.963855421686745
02917,Providence County,RI,NA,77.64390896921017
29073,Lexington County,SC,24.02088772845953,NA
29169,Lexington County,SC,NA,61.98125836680054
29210,Richland County,SC,43.86422976501306,57.295850066934406
29306,Spartanburg County,SC,NA,69.61178045515395
29401,Charleston County,SC,97.911227154047,NA
29414,Charleston County,SC,NA,27.041499330655956
29440,Georgetown County,SC,48.69451697127937,NA
29445,Berkeley County,SC,27.284595300261095,NA
29501,Florence County,SC,34.595300261096604,NA
29576,Horry County,SC,NA,13.788487282463185
29620,Abbeville County,SC,83.81201044386422,NA
29680,Greenville County,SC,NA,33.065595716198125
29687,Greenville County,SC,33.81201044386423,NA
29745,York County,SC,54.177545691906005,57.42971887550201
29909,Beaufort County,SC,NA,18.741633199464523
57106,Minnehaha County,SD,25.195822454308093,NA
57301,Davison County,SD,51.04438642297651,NA
57601,Walworth County,SD,99.47780678851174,NA
37013,Davidson County,TN,10.574412532637076,NA
37035,Cheatham County,TN,99.86945169712794,NA
37040,Montgomery County,TN,NA,35.07362784471218
37043,Montgomery County,TN,38.38120104438642,NA
37066,Sumner County,TN,10.182767624020887,NA
37075,Sumner County,TN,17.232375979112273,36.54618473895582
37083,Macon County,TN,NA,36.813922356091034
37085,Rutherford County,TN,98.82506527415144,NA
37087,Wilson County,TN,NA,62.65060240963856
37115,Davidson County,TN,12.532637075718014,NA
37138,Davidson County,TN,80.15665796344648,59.303882195448466
37148,Sumner County,TN,42.16710182767624,NA
37172,Robertson County,TN,16.710182767624023,NA
37205,Davidson County,TN,NA,55.68942436412316
37206,Davidson County,TN,NA,44.17670682730924
37212,Davidson County,TN,91.90600522193212,NA
37217,Davidson County,TN,NA,59.57161981258366
37303,McMinn County,TN,NA,89.1566265060241
37334,Lincoln County,TN,38.77284595300261,NA
37343,Hamilton County,TN,25.195822454308093,NA
37377,Hamilton County,TN,NA,22.623828647925034
37405,Hamilton County,TN,76.37075718015666,NA
37421,Hamilton County,TN,NA,30.923694779116467
37748,Roane County,TN,37.206266318537864,NA
37803,Blount County,TN,NA,15.39491298527443
37830,Anderson County,TN,26.50130548302872,NA
38134,Shelby County,TN,39.03394255874674,NA
75002,Collin County,TX,23.62924281984334,29.71887550200803
75019,Dallas County,TX,NA,57.96519410977242
75023,Collin County,TX,NA,39.3574297188755
75032,Rockwall County,TX,61.8798955613577,NA
75034,Denton County,TX,NA,30.388219544846052
75035,Collin County,TX,71.93211488250653,NA
75043,Dallas County,TX,NA,20.34805890227577
75056,Denton County,TX,NA,35.475234270414994
75061,Dallas County,TX,NA,27.710843373493976
75068,Denton County,TX,34.20365535248042,NA
75069,Collin County,TX,NA,36.01070950468541
75078,Collin County,TX,79.11227154046998,NA
75135,Hunt County,TX,93.60313315926892,NA
75189,Rockwall County,TX,46.866840731070496,NA
75201,Dallas County,TX,NA,95.98393574297188
75205,Dallas County,TX,NA,91.43239625167337
75219,Dallas County,TX,54.56919060052219,63.45381526104418
75220,Dallas County,TX,51.30548302872062,NA
75234,Dallas County,TX,69.5822454308094,NA
75235,Dallas County,TX,NA,69.47791164658635
75238,Dallas County,TX,67.62402088772846,NA
75244,Dallas County,TX,NA,97.18875502008032
75401,Hunt County,TX,58.87728459530026,NA
75407,Collin County,TX,NA,70.95046854082999
75605,Gregg County,TX,NA,42.570281124497996
75704,Smith County,TX,NA,93.17269076305222
75771,Smith County,TX,NA,31.72690763052209
75904,Angelina County,TX,NA,16.06425702811245
75949,Angelina County,TX,81.33159268929504,NA
76006,Tarrant County,TX,NA,72.69076305220884
76008,Parker County,TX,79.50391644908616,NA
76049,Hood County,TX,NA,21.5528781793842
76092,Tarrant County,TX,66.84073107049609,NA
76108,Tarrant County,TX,40.60052219321149,NA
76133,Tarrant County,TX,NA,24.230254350736278
76148,Tarrant County,TX,43.08093994778068,NA
76164,Tarrant County,TX,71.80156657963447,NA
76234,Wise County,TX,71.54046997389034,NA
76244,Tarrant County,TX,NA,56.760374832663985
76248,Tarrant County,TX,66.0574412532637,47.52342704149933
76273,Grayson County,TX,88.77284595300262,NA
76302,Wichita County,TX,NA,74.8326639892905
76310,Wichita County,TX,89.29503916449086,NA
76450,Young County,TX,NA,70.41499330655957
76501,Bell County,TX,15.535248041775457,NA
76502,Bell County,TX,16.57963446475196,NA
76522,Coryell County,TX,47.38903394255875,NA
76708,McLennan County,TX,49.869451697127936,NA
76801,Brown County,TX,97.51958224543081,NA
76802,Brown County,TX,96.34464751958225,NA
77006,Harris County,TX,76.89295039164492,NA
77025,Harris County,TX,NA,71.61981258366801
77030,Harris County,TX,90.07832898172323,NA
77035,Harris County,TX,NA,55.42168674698795
77040,Harris County,TX,NA,31.860776439089694
77045,Harris County,TX,94.7780678851175,NA
77059,Harris County,TX,NA,63.58768406961178
77070,Harris County,TX,NA,25.83668005354752
77073,Harris County,TX,56.00522193211488,NA
77079,Harris County,TX,NA,60.6425702811245
77083,Harris County,TX,NA,28.915662650602407
77092,Harris County,TX,NA,65.72958500669344
77096,Harris County,TX,NA,48.058902275769746
77306,Montgomery County,TX,NA,81.52610441767068
77328,San Jacinto County,TX,NA,84.60508701472557
77338,Harris County,TX,47.51958224543081,NA
77339,Harris County,TX,NA,42.43641231593039
77345,Harris County,TX,NA,69.61178045515395
77373,Harris County,TX,NA,29.049531459170012
77381,Montgomery County,TX,68.5378590078329,NA
77388,Harris County,TX,NA,37.61713520749665
77406,Fort Bend County,TX,NA,31.459170013386885
77429,Harris County,TX,12.793733681462141,4.953145917001338
77441,Fort Bend County,TX,87.72845953002611,NA
77450,Harris County,TX,NA,21.285140562248998
77469,Fort Bend County,TX,NA,37.48326639892905
77477,Fort Bend County,TX,NA,46.1847389558233
77478,Fort Bend County,TX,85.11749347258485,NA
77488,Wharton County,TX,68.9295039164491,NA
77489,Fort Bend County,TX,32.637075718015666,NA
77493,Harris County,TX,NA,86.34538152610442
77546,Galveston County,TX,NA,12.985274431057563
77551,Galveston County,TX,29.112271540469976,NA
77571,Harris County,TX,NA,51.27175368139224
77573,Galveston County,TX,NA,28.380187416331992
77581,Brazoria County,TX,32.24543080939948,23.560910307898258
77590,Galveston County,TX,13.446475195822455,NA
77611,Orange County,TX,91.38381201044386,NA
77656,Hardin County,TX,59.530026109660575,NA
77659,Hardin County,TX,98.43342036553526,NA
77665,Chambers County,TX,87.59791122715404,NA
77706,Jefferson County,TX,NA,37.34939759036144
77845,Brazos County,TX,NA,4.685408299866131
77905,Victoria County,TX,63.838120104438644,NA
78045,Webb County,TX,NA,35.34136546184739
78101,Bexar County,TX,NA,90.89692101740295
78102,Bee County,TX,NA,73.09236947791165
78217,Bexar County,TX,NA,67.46987951807229
78258,Bexar County,TX,NA,69.87951807228916
78260,Bexar County,TX,82.24543080939948,NA
78418,Nueces County,TX,NA,78.5809906291834
78504,Hidalgo County,TX,41.12271540469974,NA
78583,Cameron County,TX,NA,93.70816599732262
78605,Burnet County,TX,NA,88.88888888888889
78613,Williamson County,TX,NA,19.812583668005352
78617,Travis County,TX,76.10966057441253,NA
78634,Williamson County,TX,NA,65.99732262382865
78642,Williamson County,TX,88.51174934725849,NA
78657,Llano County,TX,NA,66.80053547523427
78702,Travis County,TX,78.3289817232376,NA
78725,Travis County,TX,96.73629242819844,NA
78735,Travis County,TX,92.2976501305483,NA
78746,Travis County,TX,91.12271540469973,NA
78748,Travis County,TX,NA,68.80856760374833
79109,Randall County,TX,NA,77.37617135207496
79124,Potter County,TX,NA,96.3855421686747
79410,Lubbock County,TX,NA,97.32262382864792
79415,Lubbock County,TX,NA,70.01338688085677
79602,Taylor County,TX,NA,57.42971887550201
79603,Taylor County,TX,NA,70.81659973226239
79606,Taylor County,TX,NA,57.028112449799195
79762,Ector County,TX,NA,45.24765729585007
79924,El Paso County,TX,44.778067885117494,NA
84015,Davis County,UT,22.845953002610965,NA
84020,Salt Lake County,UT,45.16971279373368,NA
84029,Tooele County,UT,NA,94.24364123159303
84037,Davis County,UT,NA,65.46184738955823
84040,Davis County,UT,NA,86.47925033467202
84041,Davis County,UT,NA,63.05220883534136
84060,Summit County,UT,NA,89.82597054886212
84074,Tooele County,UT,4.699738903394255,NA
84108,Salt Lake County,UT,NA,58.099062918340024
84111,Salt Lake County,UT,75.32637075718016,NA
84115,Salt Lake County,UT,40.469973890339425,NA
84118,Salt Lake County,UT,18.929503916449086,NA
84332,Cache County,UT,NA,98.39357429718876
84335,Cache County,UT,92.42819843342036,NA
84790,Washington County,UT,NA,15.261044176706829
05255,Bennington County,VT,NA,98.92904953145917
05301,Windham County,VT,NA,31.191432396251674
05482,Chittenden County,VT,NA,85.94377510040161
05602,Washington County,VT,NA,39.49129852744311
05661,Lamoille County,VT,79.76501305483029,NA
20112,Prince William County,VA,NA,79.38420348058902
20147,Loudoun County,VA,39.55613577023499,NA
20155,Prince William County,VA,61.61879895561357,NA
20170,Fairfax County,VA,NA,49.66532797858099
20191,Fairfax County,VA,74.80417754569191,NA
22003,Fairfax County,VA,33.02872062663185,NA
22015,Fairfax County,VA,NA,50.20080321285141
22026,Prince William County,VA,NA,87.41633199464525
22039,Fairfax County,VA,81.8537859007833,NA
22079,Fairfax County,VA,NA,67.60374832663989
22101,Fairfax County,VA,NA,52.07496653279786
22102,Fairfax County,VA,76.50130548302873,NA
22124,Fairfax County,VA,NA,79.38420348058902
22150,Fairfax County,VA,NA,69.07630522088354
22201,Arlington County,VA,61.48825065274151,NA
22204,Arlington County,VA,31.070496083550914,NA
22207,Arlington County,VA,NA,47.25568942436412
22301,Alexandria city,VA,75.45691906005221,NA
22304,Alexandria city,VA,15.143603133159269,37.08165997322624
22309,Fairfax County,VA,29.3733681462141,NA
22314,Alexandria city,VA,NA,82.32931726907631
22315,Fairfax County,VA,59.13838120104439,NA
22554,Stafford County,VA,33.5509138381201,NA
22560,Essex County,VA,65.53524804177546,NA
22801,Harrisonburg city,VA,NA,39.08969210174029
22802,Harrisonburg city,VA,NA,82.59705488621151
22902,Charlottesville city,VA,26.89295039164491,NA
22960,Orange County,VA,NA,64.12315930388219
22963,Fluvanna County,VA,NA,55.020080321285135
23139,Powhatan County,VA,NA,50.602409638554214
23222,Richmond city,VA,NA,31.32530120481928
23228,Henrico County,VA,52.48041775456919,NA
23238,Henrico County,VA,86.94516971279373,NA
23322,Chesapeake city,VA,NA,25.435073627844712
23452,Virginia Beach city,VA,24.54308093994778,NA
23453,Virginia Beach city,VA,NA,39.892904953145916
23454,Virginia Beach city,VA,NA,13.520749665327978
23464,Virginia Beach city,VA,NA,3.2128514056224895
23487,Isle of Wight County,VA,NA,96.5194109772423
23502,Norfolk city,VA,37.989556135770236,NA
23608,Newport News city,VA,53.78590078328982,NA
23666,Hampton city,VA,NA,12.583668005354752
23669,Hampton city,VA,NA,14.99330655957162
24018,Roanoke County,VA,NA,33.60107095046854
24112,Henry County,VA,17.362924281984334,NA
24136,Giles County,VA,96.47519582245431,NA
24171,Patrick County,VA,NA,65.06024096385542
24211,Washington County,VA,NA,59.83935742971887
24401,Staunton city,VA,NA,8.165997322623829
24486,Augusta County,VA,99.73890339425587,NA
98007,King County,WA,NA,78.17938420348058
98020,Snohomish County,WA,NA,85.54216867469879
98056,King County,WA,NA,59.70548862115127
98270,Snohomish County,WA,20.234986945169712,NA
98284,Skagit County,WA,53.52480417754569,NA
98311,Kitsap County,WA,63.315926892950394,NA
98335,Pierce County,WA,61.74934725848564,NA
98362,Clallam County,WA,NA,9.370816599732262
98382,Clallam County,WA,NA,21.82061579651941
98445,Pierce County,WA,NA,60.107095046854084
98501,Thurston County,WA,NA,41.365461847389554
98512,Thurston County,WA,NA,75.76974564926373
98801,Chelan County,WA,26.762402088772845,NA
99163,Whitman County,WA,75.97911227154047,NA
99205,Spokane County,WA,NA,53.5475234270415
20002,District of Columbia,DC,5.091383812010443,NA
20010,District of Columbia,DC,55.74412532637075,NA
20011,District of Columbia,DC,8.093994778067886,NA
20020,District of Columbia,DC,NA,6.827309236947792
26041,Marshall County,WV,48.9556135770235,NA
26301,Harrison County,WV,7.049608355091384,NA
26554,Marion County,WV,4.960835509138381,NA
26757,Hampshire County,WV,NA,82.46318607764391
53085,Sheboygan County,WI,NA,92.7710843373494
53089,Waukesha County,WI,NA,91.70013386880856
53095,Washington County,WI,80.4177545691906,NA
53105,Racine County,WI,NA,13.119143239625167
53142,Kenosha County,WI,9.660574412532636,NA
53144,Kenosha County,WI,17.4934725848564,NA
53147,Walworth County,WI,45.69190600522193,NA
53206,Milwaukee County,WI,9.530026109660575,NA
53209,Milwaukee County,WI,NA,1.4725568942436411
53216,Milwaukee County,WI,6.266318537859007,NA
53221,Milwaukee County,WI,21.01827676240209,NA
53405,Racine County,WI,NA,48.99598393574297
53532,Dane County,WI,NA,87.81793842034806
53548,Rock County,WI,28.067885117493475,NA
53558,Dane County,WI,NA,80.05354752342704
53562,Dane County,WI,NA,63.85542168674698
53593,Dane County,WI,84.72584856396867,NA
53711,Dane County,WI,35.900783289817234,17.53681392235609
54017,St. Croix County,WI,NA,40.69611780455154
54022,Pierce County,WI,NA,50.46854082998661
54220,Manitowoc County,WI,30.417754569190603,NA
54302,Brown County,WI,28.459530026109658,NA
54451,Taylor County,WI,85.90078328981723,NA
54452,Lincoln County,WI,80.67885117493474,NA
54476,Marathon County,WI,77.54569190600522,NA
54487,Lincoln County,WI,53.394255874673625,NA
54660,Monroe County,WI,52.088772845953,NA
54703,Eau Claire County,WI,NA,33.467202141900934
54729,Chippewa County,WI,35.77023498694517,NA
54758,Trempealeau County,WI,98.43342036553526,NA
54853,Polk County,WI,94.12532637075718,NA
54880,Douglas County,WI,NA,3.614457831325301
54956,Winnebago County,WI,NA,35.7429718875502
82935,Sweetwater County,WY,NA,82.0615796519411
