ZipCode,county,state,Adult,Retirement,Geriatric
35146,St. Clair County,AL,80.54474708171206,NA,NA
35211,Jefferson County,AL,NA,25.263157894736842,NA
35214,Jefferson County,AL,36.57587548638132,NA,NA
35405,Tuscaloosa County,AL,NA,12.631578947368421,NA
35504,Walker County,AL,71.98443579766537,NA,NA
35603,Morgan County,AL,NA,73.42105263157895,NA
36092,Elmore County,AL,47.081712062256805,NA,NA
36117,Montgomery County,AL,37.35408560311284,NA,NA
36207,Calhoun County,AL,82.49027237354085,NA,NA
36467,Covington County,AL,NA,77.63157894736842,NA
99515,Anchorage Municipality,AK,NA,81.84210526315789,NA
85021,Maricopa County,AZ,15.17509727626459,NA,NA
85119,Pinal County,AZ,NA,45,NA
85120,Pinal County,AZ,NA,NA,32.093023255813954
85122,Pinal County,AZ,NA,46.05263157894737,NA
85207,Maricopa County,AZ,NA,28.68421052631579,NA
85365,Yuma County,AZ,31.906614785992215,NA,12.093023255813954
85634,Pima County,AZ,25.291828793774318,NA,NA
85643,Cochise County,AZ,89.10505836575877,NA,NA
85648,Santa Cruz County,AZ,NA,72.10526315789474,NA
85705,Pima County,AZ,5.447470817120623,NA,NA
85706,Pima County,AZ,NA,8.157894736842106,NA
85710,Pima County,AZ,NA,55.00000000000001,NA
85713,Pima County,AZ,NA,NA,22.790697674418606
86442,Mohave County,AZ,31.1284046692607,NA,NA
71901,Garland County,AR,87.54863813229572,NA,NA
72104,Hot Spring County,AR,58.754863813229576,NA,NA
72315,Mississippi County,AR,NA,49.21052631578947,NA
72837,Pope County,AR,86.38132295719845,NA,NA
72904,Sebastian County,AR,61.08949416342413,NA,NA
90022,Los Angeles County,CA,NA,NA,26.046511627906977
90037,Los Angeles County,CA,NA,NA,46.04651162790698
90040,Los Angeles County,CA,NA,NA,94.88372093023256
90041,Los Angeles County,CA,NA,83.15789473684211,NA
90042,Los Angeles County,CA,53.30739299610895,52.89473684210526,NA
90044,Los Angeles County,CA,8.171206225680933,NA,NA
90059,Los Angeles County,CA,38.91050583657588,NA,NA
90255,Los Angeles County,CA,NA,NA,78.6046511627907
90280,Los Angeles County,CA,NA,NA,44.18604651162791
90405,Los Angeles County,CA,NA,57.36842105263158,NA
90650,Los Angeles County,CA,NA,15.789473684210526,NA
90745,Los Angeles County,CA,74.31906614785993,NA,NA
91011,Los Angeles County,CA,NA,86.57894736842105,NA
91360,Ventura County,CA,NA,51.84210526315789,NA
91362,Ventura County,CA,66.53696498054474,NA,NA
91403,Los Angeles County,CA,NA,68.15789473684211,NA
91723,Los Angeles County,CA,NA,90.26315789473685,NA
91770,Los Angeles County,CA,NA,44.473684210526315,NA
91791,Los Angeles County,CA,NA,51.31578947368421,NA
92114,San Diego County,CA,NA,NA,31.627906976744185
92120,San Diego County,CA,79.37743190661479,NA,NA
92154,San Diego County,CA,NA,22.894736842105264,NA
92203,Riverside County,CA,NA,56.315789473684205,NA
92223,Riverside County,CA,NA,41.31578947368421,NA
92264,Riverside County,CA,NA,11.052631578947368,NA
92335,San Bernardino County,CA,12.062256809338521,NA,NA
92346,San Bernardino County,CA,NA,NA,61.86046511627907
92373,San Bernardino County,CA,NA,68.6842105263158,NA
92376,San Bernardino County,CA,37.7431906614786,NA,NA
92407,San Bernardino County,CA,NA,NA,93.48837209302326
92506,Riverside County,CA,NA,81.05263157894737,NA
92586,Riverside County,CA,NA,NA,24.651162790697676
92647,Orange County,CA,NA,NA,15.348837209302326
92867,Orange County,CA,NA,57.89473684210527,NA
92882,Riverside County,CA,32.68482490272373,NA,NA
93041,Ventura County,CA,NA,89.47368421052632,NA
93202,Kings County,CA,99.22178988326849,NA,NA
93203,Kern County,CA,85.21400778210116,NA,NA
93230,Kings County,CA,NA,16.57894736842105,NA
93274,Tulare County,CA,NA,NA,27.44186046511628
93304,Kern County,CA,26.459143968871597,NA,NA
93308,Kern County,CA,NA,31.31578947368421,NA
93514,Inyo County,CA,NA,93.42105263157895,NA
93535,Los Angeles County,CA,NA,38.421052631578945,NA
93551,Los Angeles County,CA,54.86381322957199,NA,NA
93619,Fresno County,CA,NA,80.52631578947368,NA
93703,Fresno County,CA,NA,63.421052631578945,NA
93730,Fresno County,CA,91.05058365758755,NA,NA
94089,Santa Clara County,CA,81.71206225680933,NA,NA
94117,San Francisco County,CA,40.07782101167315,NA,NA
94578,Alameda County,CA,NA,NA,52.093023255813954
94621,Alameda County,CA,35.797665369649806,NA,NA
95019,Santa Cruz County,CA,NA,97.36842105263158,92.55813953488372
95020,Santa Clara County,CA,NA,NA,93.95348837209302
95023,San Benito County,CA,NA,35.526315789473685,NA
95122,Santa Clara County,CA,NA,50.526315789473685,NA
95336,San Joaquin County,CA,63.42412451361867,NA,NA
95370,Tuolumne County,CA,NA,NA,75.34883720930232
95422,Lake County,CA,NA,NA,80.46511627906978
95630,Sacramento County,CA,NA,NA,26.51162790697674
95648,Placer County,CA,NA,NA,9.30232558139535
95667,El Dorado County,CA,NA,3.421052631578948,NA
95670,Sacramento County,CA,38.52140077821012,NA,NA
95765,Placer County,CA,NA,NA,69.76744186046511
95966,Butte County,CA,NA,NA,67.44186046511628
95993,Sutter County,CA,48.249027237354085,NA,NA
96093,Trinity County,CA,NA,94.73684210526315,NA
96150,El Dorado County,CA,NA,71.05263157894737,NA
80003,Jefferson County,CO,NA,58.15789473684211,NA
80005,Jefferson County,CO,NA,91.57894736842105,NA
80015,Arapahoe County,CO,NA,23.684210526315788,NA
80023,Broomfield County,CO,82.87937743190662,NA,NA
80033,Jefferson County,CO,NA,66.3157894736842,NA
80123,Jefferson County,CO,49.80544747081712,NA,NA
80128,Jefferson County,CO,NA,NA,79.53488372093022
80229,Adams County,CO,19.06614785992218,NA,NA
80233,Adams County,CO,29.571984435797667,NA,NA
80537,Larimer County,CO,NA,16.05263157894737,NA
80602,Adams County,CO,NA,60.26315789473684,NA
80701,Morgan County,CO,NA,46.31578947368421,NA
80909,El Paso County,CO,28.01556420233463,NA,NA
81101,Alamosa County,CO,46.30350194552529,NA,NA
81632,Eagle County,CO,NA,NA,98.13953488372093
06010,Hartford County,CT,NA,NA,4.186046511627907
06066,Tolland County,CT,22.56809338521401,NA,NA
06109,Hartford County,CT,64.59143968871595,NA,NA
06513,New Haven County,CT,NA,38.94736842105263,NA
06606,Fairfield County,CT,22.957198443579767,NA,NA
06611,Fairfield County,CT,NA,NA,33.95348837209302
06614,Fairfield County,CT,NA,NA,27.906976744186046
06704,New Haven County,CT,NA,NA,50.23255813953489
06791,Litchfield County,CT,97.27626459143968,NA,NA
06795,Litchfield County,CT,84.8249027237354,NA,NA
06801,Fairfield County,CT,NA,NA,68.37209302325581
06810,Fairfield County,CT,20.622568093385212,NA,NA
19720,New Castle County,DE,NA,2.368421052631579,NA
19977,Kent County,DE,NA,45.26315789473684,NA
32081,St. Johns County,FL,NA,96.57894736842105,NA
32119,Volusia County,FL,76.65369649805449,NA,NA
32137,Flagler County,FL,NA,NA,36.74418604651163
32210,Duval County,FL,6.22568093385214,NA,NA
32226,Duval County,FL,NA,59.73684210526316,NA
32404,Bay County,FL,NA,NA,24.186046511627907
32428,Washington County,FL,89.88326848249028,NA,NA
32506,Escambia County,FL,19.45525291828794,NA,NA
32533,Escambia County,FL,33.85214007782101,NA,NA
32571,Santa Rosa County,FL,17.898832684824903,NA,NA
32778,Lake County,FL,NA,67.36842105263158,NA
32780,Brevard County,FL,NA,55.78947368421052,NA
32907,Brevard County,FL,NA,22.105263157894736,NA
32953,Brevard County,FL,NA,60,NA
33010,Miami-Dade County,FL,NA,41.31578947368421,NA
33016,Miami-Dade County,FL,NA,60.526315789473685,NA
33066,Broward County,FL,NA,NA,20
33071,Broward County,FL,80.93385214007782,67.63157894736842,NA
33076,Broward County,FL,75.4863813229572,NA,NA
33138,Miami-Dade County,FL,73.15175097276264,NA,NA
33139,Miami-Dade County,FL,NA,NA,11.627906976744185
33142,Miami-Dade County,FL,NA,21.578947368421055,NA
33145,Miami-Dade County,FL,NA,NA,33.02325581395349
33309,Broward County,FL,NA,46.8421052631579,NA
33417,Palm Beach County,FL,NA,61.8421052631579,NA
33462,Palm Beach County,FL,70.8171206225681,NA,NA
33467,Palm Beach County,FL,NA,26.57894736842105,NA
33523,Pasco County,FL,NA,NA,64.18604651162791
33569,Hillsborough County,FL,77.431906614786,NA,NA
33573,Hillsborough County,FL,NA,NA,1.8604651162790697
33604,Hillsborough County,FL,NA,40.26315789473684,NA
33606,Hillsborough County,FL,NA,83.94736842105263,NA
33706,Pinellas County,FL,NA,74.47368421052632,NA
33713,Pinellas County,FL,NA,71.84210526315789,NA
33872,Highlands County,FL,NA,40.78947368421053,NA
33919,Lee County,FL,NA,14.473684210526317,NA
33948,Charlotte County,FL,NA,39.21052631578947,NA
33991,Lee County,FL,68.09338521400778,NA,NA
34135,Lee County,FL,50.583657587548636,NA,NA
34208,Manatee County,FL,NA,50.26315789473684,NA
34222,Manatee County,FL,NA,81.57894736842105,NA
34292,Sarasota County,FL,NA,95,NA
34436,Citrus County,FL,NA,84.73684210526315,NA
34481,Marion County,FL,NA,27.105263157894736,NA
34668,Pasco County,FL,NA,NA,32.55813953488372
34677,Pinellas County,FL,78.21011673151752,NA,NA
34748,Lake County,FL,24.124513618677042,NA,NA
34949,St. Lucie County,FL,NA,84.73684210526315,NA
34953,St. Lucie County,FL,NA,6.315789473684211,NA
34982,St. Lucie County,FL,NA,NA,56.27906976744186
34994,Martin County,FL,NA,NA,41.86046511627907
30076,Fulton County,GA,NA,NA,67.90697674418604
30087,DeKalb County,GA,NA,23.157894736842106,NA
30132,Paulding County,GA,NA,37.89473684210527,NA
30145,Bartow County,GA,NA,NA,91.16279069767442
30215,Fayette County,GA,62.2568093385214,NA,NA
30228,Henry County,GA,NA,66.05263157894737,NA
30240,Troup County,GA,NA,NA,37.67441860465116
30263,Coweta County,GA,13.618677042801556,NA,NA
30650,Morgan County,GA,NA,93.15789473684211,NA
30673,Wilkes County,GA,NA,NA,88.83720930232558
30741,Walker County,GA,23.73540856031128,NA,NA
30809,Columbia County,GA,NA,13.157894736842104,NA
30815,Richmond County,GA,24.90272373540856,NA,NA
30906,Richmond County,GA,NA,4.473684210526316,NA
31032,Jones County,GA,NA,84.21052631578947,97.20930232558139
31044,Twiggs County,GA,100,NA,NA
31047,Houston County,GA,NA,85.52631578947368,NA
31069,Houston County,GA,NA,47.63157894736842,NA
31088,Houston County,GA,NA,23.42105263157895,17.674418604651162
31204,Bibb County,GA,NA,30,NA
31405,Chatham County,GA,50.97276264591439,NA,76.27906976744187
31533,Coffee County,GA,NA,73.68421052631578,NA
31634,Clinch County,GA,88.32684824902724,NA,NA
31707,Dougherty County,GA,52.14007782101168,NA,NA
31763,Lee County,GA,NA,71.05263157894737,NA
39845,Seminole County,GA,NA,NA,81.3953488372093
96797,Honolulu County,HI,NA,5.526315789473684,NA
96813,Honolulu County,HI,NA,36.05263157894737,NA
83263,Franklin County,ID,NA,91.84210526315789,NA
83330,Gooding County,ID,89.49416342412452,NA,NA
83401,Bonneville County,ID,20.233463035019454,NA,NA
83404,Bonneville County,ID,NA,NA,58.139534883720934
83605,Canyon County,ID,30.739299610894943,24.736842105263158,NA
83607,Canyon County,ID,NA,32.89473684210527,NA
83686,Canyon County,ID,NA,NA,4.651162790697675
83703,Ada County,ID,NA,26.842105263157894,NA
83704,Ada County,ID,NA,NA,1.3953488372093024
83835,Kootenai County,ID,NA,NA,46.97674418604651
60120,Kane County,IL,NA,29.736842105263158,NA
60124,Kane County,IL,NA,30.526315789473685,NA
60142,McHenry County,IL,NA,10.789473684210527,NA
60178,DeKalb County,IL,NA,48.421052631578945,NA
60185,DuPage County,IL,41.245136186770424,NA,53.02325581395348
60188,DuPage County,IL,NA,NA,89.30232558139535
60193,Cook County,IL,NA,10.263157894736842,NA
60302,Cook County,IL,NA,NA,16.27906976744186
60422,Cook County,IL,83.65758754863813,NA,NA
60433,Will County,IL,NA,80.26315789473685,NA
60442,Will County,IL,80.1556420233463,86.31578947368422,NA
60451,Will County,IL,NA,NA,48.837209302325576
60505,Kane County,IL,NA,NA,55.81395348837209
60548,DeKalb County,IL,NA,72.63157894736842,NA
60610,Cook County,IL,NA,NA,21.3953488372093
60614,Cook County,IL,NA,NA,13.023255813953488
60619,Cook County,IL,NA,3.9473684210526314,NA
60625,Cook County,IL,14.396887159533073,NA,NA
60630,Cook County,IL,NA,NA,49.76744186046512
60637,Cook County,IL,NA,NA,23.25581395348837
60641,Cook County,IL,17.120622568093385,NA,NA
60646,Cook County,IL,NA,45.526315789473685,NA
60651,Cook County,IL,9.72762645914397,NA,NA
60655,Cook County,IL,NA,NA,79.06976744186046
61008,Boone County,IL,NA,20.263157894736842,72.55813953488372
61021,Lee County,IL,NA,6.578947368421052,NA
61350,LaSalle County,IL,93.3852140077821,NA,NA
61554,Tazewell County,IL,NA,NA,8.837209302325581
61614,Peoria County,IL,76.26459143968872,NA,NA
61761,McLean County,IL,NA,NA,35.348837209302324
61802,Champaign County,IL,63.81322957198443,NA,NA
61920,Coles County,IL,82.10116731517509,NA,NA
61951,Moultrie County,IL,NA,82.36842105263158,NA
62521,Macon County,IL,NA,7.894736842105263,NA
62526,Macon County,IL,14.785992217898833,NA,NA
62863,Wabash County,IL,NA,NA,35.81395348837209
46001,Madison County,IN,NA,65.52631578947368,NA
46012,Madison County,IN,41.63424124513619,NA,NA
46038,Hamilton County,IN,59.92217898832685,NA,NA
46052,Boone County,IN,NA,50,NA
46064,Madison County,IN,70.03891050583657,NA,NA
46124,Johnson County,IN,NA,76.84210526315789,NA
46131,Johnson County,IN,NA,28.421052631578945,NA
46135,Putnam County,IN,NA,67.89473684210526,NA
46176,Shelby County,IN,NA,NA,6.976744186046512
46208,Marion County,IN,39.29961089494164,NA,NA
46224,Marion County,IN,NA,NA,42.32558139534884
46260,Marion County,IN,NA,NA,42.7906976744186
46383,Porter County,IN,52.52918287937744,NA,13.953488372093023
46391,LaPorte County,IN,78.98832684824903,NA,NA
46721,DeKalb County,IN,92.99610894941634,NA,NA
46725,Whitley County,IN,NA,61.05263157894737,NA
46825,Allen County,IN,42.023346303501945,NA,NA
46902,Howard County,IN,5.836575875486381,2.631578947368421,NA
46952,Grant County,IN,NA,NA,20.930232558139537
47122,Floyd County,IN,NA,93.94736842105263,NA
47150,Floyd County,IN,NA,37.10526315789473,NA
47201,Bartholomew County,IN,15.56420233463035,NA,NA
47274,Jackson County,IN,NA,33.68421052631579,NA
47362,Henry County,IN,NA,11.578947368421053,NA
47803,Vigo County,IN,NA,58.42105263157895,NA
47978,Jasper County,IN,69.26070038910505,NA,NA
50401,Cerro Gordo County,IA,NA,NA,12.558139534883722
52544,Appanoose County,IA,44.74708171206226,NA,NA
66025,Douglas County,KS,NA,NA,95.34883720930233
66048,Leavenworth County,KS,NA,NA,87.90697674418605
66104,Wyandotte County,KS,NA,43.94736842105263,NA
66112,Wyandotte County,KS,NA,NA,82.32558139534883
66223,Johnson County,KS,NA,NA,63.25581395348837
40006,Trimble County,KY,NA,96.3157894736842,NA
40014,Oldham County,KY,NA,69.21052631578948,NA
40071,Spencer County,KY,55.6420233463035,NA,NA
40208,Jefferson County,KY,NA,92.63157894736842,NA
40216,Jefferson County,KY,38.13229571984436,NA,NA
40243,Jefferson County,KY,NA,86.05263157894737,NA
40258,Jefferson County,KY,NA,39.21052631578947,NA
40356,Jessamine County,KY,18.67704280155642,NA,NA
40361,Bourbon County,KY,NA,NA,65.58139534883722
40502,Fayette County,KY,63.035019455252915,NA,NA
41005,Boone County,KY,NA,56.05263157894736,NA
41031,Harrison County,KY,56.42023346303502,NA,NA
42025,Marshall County,KY,45.91439688715953,NA,NA
42240,Christian County,KY,NA,14.736842105263156,NA
42276,Logan County,KY,NA,63.1578947368421,NA
42718,Taylor County,KY,16.342412451361866,40.526315789473685,NA
42728,Adair County,KY,NA,NA,70.23255813953489
42748,Larue County,KY,84.43579766536965,NA,NA
70002,Jefferson Parish,LA,NA,33.421052631578945,NA
70003,Jefferson Parish,LA,NA,NA,21.86046511627907
70070,St. Charles Parish,LA,NA,70.52631578947368,NA
70114,Orleans Parish,LA,NA,NA,63.72093023255814
70346,Ascension Parish,LA,NA,NA,95.81395348837209
70401,Tangipahoa Parish,LA,NA,37.10526315789473,NA
70433,St. Tammany Parish,LA,7.782101167315175,NA,NA
70517,St. Martin Parish,LA,NA,19.736842105263158,NA
70560,Iberia Parish,LA,NA,82.89473684210526,NA
70601,Calcasieu Parish,LA,NA,NA,28.837209302325583
70737,Ascension Parish,LA,78.59922178988327,19.210526315789473,NA
70805,East Baton Rouge Parish,LA,4.669260700389105,NA,NA
71112,Bossier Parish,LA,NA,25.526315789473685,NA
04429,Penobscot County,ME,NA,NA,99.53488372093024
04736,Aroostook County,ME,NA,NA,30.697674418604652
04769,Aroostook County,ME,NA,82.10526315789474,NA
20601,Charles County,MD,NA,87.89473684210526,NA
20705,Prince George's County,MD,NA,78.94736842105263,NA
20743,Prince George's County,MD,NA,75,NA
20744,Prince George's County,MD,NA,38.68421052631579,NA
20874,Montgomery County,MD,47.85992217898833,NA,NA
21014,Harford County,MD,NA,32.10526315789474,NA
21043,Howard County,MD,NA,NA,56.74418604651162
21136,Baltimore County,MD,NA,52.10526315789473,NA
21146,Anne Arundel County,MD,NA,NA,66.04651162790698
21216,Baltimore city,MD,39.688715953307394,NA,NA
21220,Baltimore County,MD,NA,31.842105263157894,NA
21702,Frederick County,MD,NA,71.57894736842105,NA
21811,Worcester County,MD,NA,NA,19.53488372093023
01077,Hampden County,MA,NA,87.10526315789474,NA
01082,Hampshire County,MA,91.82879377431907,NA,NA
01220,Berkshire County,MA,NA,41.05263157894737,NA
01247,Berkshire County,MA,NA,10,NA
01440,Worcester County,MA,NA,9.210526315789473,NA
01550,Worcester County,MA,NA,2.1052631578947367,NA
01581,Worcester County,MA,NA,86.8421052631579,NA
01590,Worcester County,MA,95.71984435797665,NA,NA
01605,Worcester County,MA,1.9455252918287937,NA,NA
01702,Middlesex County,MA,11.284046692607005,NA,NA
01803,Middlesex County,MA,NA,NA,0.9302325581395349
01830,Essex County,MA,2.3346303501945527,NA,NA
01844,Essex County,MA,72.76264591439688,NA,NA
01886,Middlesex County,MA,NA,33.1578947368421,NA
01913,Essex County,MA,28.793774319066145,NA,NA
02030,Norfolk County,MA,94.55252918287937,NA,NA
02115,Suffolk County,MA,NA,NA,5.116279069767442
02119,Suffolk County,MA,0,NA,NA
02152,Suffolk County,MA,61.478599221789885,NA,NA
02155,Middlesex County,MA,1.1673151750972763,NA,NA
02184,Norfolk County,MA,NA,NA,8.372093023255815
02347,Plymouth County,MA,NA,92.36842105263158,NA
02368,Norfolk County,MA,3.8910505836575875,NA,NA
02472,Middlesex County,MA,NA,6.842105263157896,NA
02536,Barnstable County,MA,NA,NA,14.418604651162791
02739,Plymouth County,MA,NA,NA,83.25581395348837
02767,Bristol County,MA,NA,41.8421052631579,NA
48044,Macomb County,MI,9.33852140077821,NA,NA
48066,Macomb County,MI,NA,NA,7.441860465116279
48082,Macomb County,MI,49.0272373540856,NA,NA
48122,Wayne County,MI,NA,NA,91.62790697674419
48124,Wayne County,MI,NA,NA,39.06976744186046
48127,Wayne County,MI,NA,20.789473684210527,NA
48146,Wayne County,MI,NA,17.105263157894736,NA
48197,Washtenaw County,MI,NA,1.0526315789473684,NA
48217,Wayne County,MI,NA,NA,76.74418604651163
48220,Oakland County,MI,87.15953307392996,NA,NA
48221,Wayne County,MI,NA,NA,2.3255813953488373
48237,Oakland County,MI,NA,19.473684210526315,NA
48430,Genesee County,MI,NA,21.31578947368421,NA
48602,Saginaw County,MI,NA,NA,43.25581395348837
48706,Bay County,MI,NA,NA,3.255813953488372
48708,Bay County,MI,NA,7.368421052631578,NA
49009,Kalamazoo County,MI,15.953307392996107,NA,NA
49022,Berrien County,MI,NA,12.368421052631579,NA
49201,Jackson County,MI,10.116731517509727,NA,NA
49203,Jackson County,MI,8.560311284046692,NA,NA
49348,Allegan County,MI,NA,48.94736842105264,NA
49420,Oceana County,MI,74.70817120622569,NA,NA
49444,Muskegon County,MI,11.673151750972762,NA,NA
49709,Montmorency County,MI,NA,NA,89.76744186046511
49783,Chippewa County,MI,NA,NA,44.18604651162791
49931,Houghton County,MI,NA,NA,77.67441860465117
49938,Gogebic County,MI,73.92996108949417,NA,NA
55336,McLeod County,MN,NA,97.63157894736842,NA
55347,Hennepin County,MN,NA,67.10526315789474,NA
55803,St. Louis County,MN,NA,72.89473684210527,NA
56308,Douglas County,MN,29.961089494163424,NA,NA
56374,Stearns County,MN,NA,93.6842105263158,NA
38829,Prentiss County,MS,NA,42.63157894736842,NA
38967,Montgomery County,MS,NA,NA,93.02325581395348
39157,Madison County,MS,NA,85.26315789473684,NA
39180,Warren County,MS,NA,48.421052631578945,NA
39208,Rankin County,MS,NA,56.57894736842105,NA
39213,Hinds County,MS,NA,54.21052631578947,NA
39402,Lamar County,MS,NA,57.631578947368425,NA
39440,Jones County,MS,NA,60.78947368421053,NA
39452,George County,MS,29.18287937743191,NA,NA
39503,Harrison County,MS,12.840466926070038,NA,NA
39553,Jackson County,MS,NA,52.368421052631575,NA
63123,St. Louis County,MO,NA,14.210526315789473,NA
63127,St. Louis County,MO,NA,99.21052631578947,64.65116279069767
63135,St. Louis County,MO,34.63035019455253,NA,NA
63143,St. Louis County,MO,87.93774319066148,NA,NA
63304,St. Charles County,MO,NA,NA,18.13953488372093
63366,St. Charles County,MO,43.96887159533074,NA,NA
63376,St. Charles County,MO,NA,1.3157894736842104,NA
63775,Perry County,MO,NA,75.26315789473685,NA
63935,Ripley County,MO,NA,68.15789473684211,NA
64137,Jackson County,MO,NA,NA,90.69767441860465
64730,Bates County,MO,60.311284046692606,NA,NA
64735,Henry County,MO,NA,NA,40.93023255813954
65560,Dent County,MO,NA,53.68421052631579,NA
65613,Polk County,MO,NA,NA,16.74418604651163
65656,Stone County,MO,NA,NA,99.06976744186046
65775,Howell County,MO,86.7704280155642,NA,NA
65802,Greene County,MO,14.007782101167315,57.10526315789474,NA
65803,Greene County,MO,57.58754863813229,11.842105263157894,NA
65807,Greene County,MO,NA,17.36842105263158,NA
59405,Cascade County,MT,NA,18.157894736842106,NA
59457,Fergus County,MT,NA,95.78947368421052,NA
59808,Missoula County,MT,85.99221789883269,NA,64.65116279069767
89107,Clark County,NV,52.918287937743195,NA,NA
89128,Clark County,NV,51.75097276264592,NA,NA
89502,Washoe County,NV,NA,20.526315789473685,NA
89523,Washoe County,NV,NA,NA,57.674418604651166
03062,Hillsborough County,NH,51.36186770428015,NA,NA
03064,Hillsborough County,NH,33.07392996108949,NA,NA
03106,Merrimack County,NH,NA,50.526315789473685,NA
03431,Cheshire County,NH,NA,29.210526315789476,NA
03827,Rockingham County,NH,NA,97.89473684210527,NA
03857,Rockingham County,NH,NA,85.78947368421052,NA
03874,Rockingham County,NH,48.249027237354085,59.210526315789465,NA
03878,Strafford County,NH,NA,73.94736842105263,NA
07065,Union County,NJ,NA,35,NA
07072,Bergen County,NJ,91.43968871595331,NA,NA
07106,Essex County,NJ,NA,34.473684210526315,NA
07112,Essex County,NJ,NA,NA,43.72093023255814
07601,Bergen County,NJ,NA,5.263157894736842,NA
07801,Morris County,NJ,NA,31.05263157894737,NA
07866,Morris County,NJ,NA,42.89473684210526,NA
08016,Burlington County,NJ,60.70038910505836,NA,NA
08087,Ocean County,NJ,23.346303501945524,NA,NA
08108,Camden County,NJ,NA,NA,73.0232558139535
08318,Salem County,NJ,56.809338521400775,NA,NA
08527,Ocean County,NJ,NA,34.73684210526316,NA
08562,Burlington County,NJ,96.49805447470817,NA,NA
08618,Mercer County,NJ,0.7782101167315175,NA,NA
08628,Mercer County,NJ,67.70428015564202,NA,NA
08731,Ocean County,NJ,NA,47.89473684210526,NA
08741,Ocean County,NJ,NA,100,NA
08757,Ocean County,NJ,NA,NA,0
08861,Middlesex County,NJ,2.7237354085603114,NA,NA
87124,Sandoval County,NM,NA,63.94736842105263,NA
87313,McKinley County,NM,NA,NA,100
87507,Santa Fe County,NM,NA,22.63157894736842,NA
87701,San Miguel County,NM,NA,NA,50.697674418604656
88007,Doa Ana County,NM,NA,56.84210526315789,NA
88210,Eddy County,NM,75.09727626459144,65,NA
10001,New York County,NY,NA,5,NA
10024,New York County,NY,NA,NA,5.5813953488372094
10026,New York County,NY,NA,NA,38.139534883720934
10452,Bronx County,NY,0.38910505836575876,NA,NA
10469,Bronx County,NY,NA,35.26315789473684,NA
10550,Westchester County,NY,NA,25,NA
10566,Westchester County,NY,NA,75.52631578947368,NA
10940,Orange County,NY,21.40077821011673,NA,NA
11206,Kings County,NY,NA,NA,6.511627906976744
11207,Kings County,NY,NA,NA,9.767441860465116
11215,Kings County,NY,NA,33.94736842105263,NA
11218,Kings County,NY,NA,15,NA
11224,Kings County,NY,NA,NA,0.46511627906976744
11231,Kings County,NY,NA,NA,59.53488372093023
11233,Kings County,NY,NA,0.2631578947368421,NA
11235,Kings County,NY,NA,15.263157894736842,NA
11239,Kings County,NY,NA,NA,36.27906976744186
11566,Nassau County,NY,NA,NA,48.372093023255815
11710,Nassau County,NY,67.31517509727627,NA,NA
11720,Suffolk County,NY,NA,NA,31.16279069767442
11729,Suffolk County,NY,NA,NA,52.55813953488372
11787,Suffolk County,NY,NA,NA,68.83720930232559
12061,Rensselaer County,NY,NA,90.78947368421053,NA
12078,Fulton County,NY,6.614785992217899,NA,NA
12144,Rensselaer County,NY,NA,NA,85.5813953488372
12303,Schenectady County,NY,72.37354085603113,NA,NA
12885,Warren County,NY,77.82101167315176,NA,NA
12962,Clinton County,NY,NA,78.42105263157895,NA
13036,Oswego County,NY,NA,96.05263157894737,NA
13041,Onondaga County,NY,NA,83.6842105263158,NA
13077,Cortland County,NY,NA,72.36842105263158,NA
13309,Oneida County,NY,68.48249027237354,NA,NA
13452,Montgomery County,NY,84.04669260700389,NA,NA
13760,Broome County,NY,NA,0,NA
14094,Niagara County,NY,4.280155642023346,NA,NA
14208,Erie County,NY,NA,NA,74.88372093023256
14215,Erie County,NY,3.11284046692607,NA,NA
14472,Monroe County,NY,49.416342412451364,NA,NA
14482,Genesee County,NY,NA,75.78947368421053,NA
14519,Wayne County,NY,25.680933852140075,NA,NA
14533,Livingston County,NY,NA,99.73684210526315,NA
14621,Monroe County,NY,NA,1.5789473684210527,NA
14701,Chautauqua County,NY,NA,NA,13.488372093023257
14823,Steuben County,NY,81.32295719844358,NA,NA
14830,Steuben County,NY,NA,70.26315789473684,NA
27127,Forsyth County,NC,NA,3.684210526315789,NA
27217,Alamance County,NC,NA,10.526315789473683,NA
27288,Rockingham County,NC,NA,24.47368421052632,NA
27357,Rockingham County,NC,NA,91.05263157894737,NA
27406,Guilford County,NC,NA,0.5263157894736842,NA
27502,Wake County,NC,NA,NA,60.93023255813953
27516,Orange County,NC,NA,NA,61.395348837209305
27517,Orange County,NC,53.69649805447471,NA,NA
27520,Johnston County,NC,36.186770428015564,NA,NA
27522,Granville County,NC,NA,78.6842105263158,NA
27527,Johnston County,NC,NA,NA,70.69767441860465
27536,Vance County,NC,31.517509727626457,NA,NA
27576,Johnston County,NC,NA,NA,86.51162790697674
27577,Johnston County,NC,NA,NA,26.976744186046513
27587,Wake County,NC,NA,NA,17.209302325581397
27591,Wake County,NC,58.36575875486382,NA,NA
27610,Wake County,NC,NA,4.736842105263158,NA
27617,Wake County,NC,NA,79.47368421052632,NA
27863,Wayne County,NC,NA,77.36842105263158,NA
27893,Wilson County,NC,NA,NA,34.883720930232556
27932,Chowan County,NC,NA,44.73684210526316,NA
27983,Bertie County,NC,NA,89.21052631578948,39.53488372093023
28092,Lincoln County,NC,NA,13.94736842105263,NA
28227,Mecklenburg County,NC,NA,18.421052631578945,NA
28270,Mecklenburg County,NC,NA,NA,54.88372093023256
28303,Cumberland County,NC,NA,NA,51.162790697674424
28311,Cumberland County,NC,NA,NA,41.3953488372093
28312,Cumberland County,NC,64.98054474708171,NA,NA
28340,Robeson County,NC,56.809338521400775,NA,NA
28345,Richmond County,NC,NA,77.89473684210526,NA
28409,New Hanover County,NC,NA,17.63157894736842,NA
28412,New Hanover County,NC,47.47081712062256,NA,NA
28472,Columbus County,NC,40.46692607003891,NA,NA
28601,Catawba County,NC,NA,9.473684210526317,NA
28759,Henderson County,NC,93.77431906614785,NA,NA
43017,Franklin County,OH,NA,36.84210526315789,NA
43160,Fayette County,OH,45.525291828793776,NA,NA
43204,Franklin County,OH,7.003891050583658,NA,NA
43213,Franklin County,OH,10.894941634241246,NA,NA
43230,Franklin County,OH,NA,NA,23.72093023255814
43502,Fulton County,OH,NA,NA,77.20930232558139
43506,Williams County,OH,NA,26.31578947368421,NA
43545,Henry County,OH,NA,43.15789473684211,NA
43560,Lucas County,OH,NA,NA,25.581395348837212
43606,Lucas County,OH,NA,32.36842105263158,NA
44026,Geauga County,OH,NA,55.26315789473685,NA
44044,Lorain County,OH,NA,38.15789473684211,NA
44056,Summit County,OH,NA,NA,45.58139534883721
44110,Cuyahoga County,OH,NA,76.05263157894737,NA
44131,Cuyahoga County,OH,44.74708171206226,NA,NA
44230,Wayne County,OH,NA,NA,88.37209302325581
44260,Portage County,OH,NA,62.36842105263158,NA
44312,Summit County,OH,NA,9.736842105263158,NA
44405,Mahoning County,OH,NA,69.73684210526315,NA
44406,Mahoning County,OH,NA,NA,25.116279069767444
44432,Columbiana County,OH,NA,78.15789473684211,NA
44438,Trumbull County,OH,73.54085603112841,NA,NA
44460,Columbiana County,OH,NA,7.631578947368421,NA
44512,Mahoning County,OH,12.45136186770428,NA,NA
44614,Stark County,OH,NA,72.89473684210527,NA
44807,Seneca County,OH,97.66536964980544,NA,NA
44870,Erie County,OH,3.501945525291829,NA,NA
44890,Huron County,OH,NA,64.21052631578948,NA
44903,Richland County,OH,NA,NA,45.11627906976744
44906,Richland County,OH,36.964980544747085,NA,NA
45030,Hamilton County,OH,NA,NA,78.13953488372093
45039,Warren County,OH,50.19455252918288,NA,NA
45122,Clermont County,OH,NA,NA,81.86046511627907
45133,Highland County,OH,NA,21.842105263157897,NA
45232,Hamilton County,OH,NA,98.42105263157895,NA
45236,Hamilton County,OH,NA,45.526315789473685,NA
45238,Hamilton County,OH,NA,16.315789473684212,NA
45241,Hamilton County,OH,NA,37.631578947368425,NA
45323,Clark County,OH,95.3307392996109,NA,NA
45335,Greene County,OH,NA,NA,84.18604651162791
45342,Montgomery County,OH,NA,39.73684210526316,NA
45345,Montgomery County,OH,NA,80.78947368421052,NA
45381,Preble County,OH,NA,80,NA
45403,Montgomery County,OH,40.856031128404666,NA,NA
45661,Pike County,OH,92.21789883268482,NA,NA
45710,Athens County,OH,94.94163424124513,NA,NA
45840,Hancock County,OH,NA,1.8421052631578945,NA
45895,Auglaize County,OH,34.24124513618677,NA,NA
73068,Cleveland County,OK,71.59533073929961,NA,NA
73080,McClain County,OK,79.76653696498055,NA,NA
73084,Oklahoma County,OK,NA,NA,79.53488372093022
73501,Comanche County,OK,NA,49.473684210526315,NA
74010,Creek County,OK,88.715953307393,NA,NA
74014,Wagoner County,OK,NA,26.052631578947366,NA
74115,Tulsa County,OK,NA,76.57894736842105,NA
74133,Tulsa County,OK,NA,NA,11.162790697674419
74745,McCurtain County,OK,NA,87.63157894736841,NA
74873,Pottawatomie County,OK,NA,70,NA
97201,Multnomah County,OR,92.60700389105058,NA,NA
97203,Multnomah County,OR,42.4124513618677,NA,NA
97213,Multnomah County,OR,NA,61.8421052631579,NA
97306,Marion County,OR,NA,62.63157894736842,NA
97756,Deschutes County,OR,NA,21.052631578947366,NA
97850,Union County,OR,NA,28.947368421052634,NA
15085,Westmoreland County,PA,NA,81.3157894736842,NA
15137,Allegheny County,PA,61.86770428015564,NA,NA
15146,Allegheny County,PA,NA,32.631578947368425,NA
15210,Allegheny County,PA,NA,42.368421052631575,NA
15212,Allegheny County,PA,26.848249027237355,NA,NA
15217,Allegheny County,PA,NA,NA,22.325581395348838
15221,Allegheny County,PA,21.78988326848249,NA,NA
15228,Allegheny County,PA,NA,NA,71.16279069767441
15237,Allegheny County,PA,NA,NA,6.046511627906977
15905,Cambria County,PA,NA,36.578947368421055,NA
16125,Mercer County,PA,NA,54.473684210526315,NA
16323,Venango County,PA,NA,35.78947368421053,NA
16335,Crawford County,PA,13.229571984435799,NA,NA
16345,Warren County,PA,NA,99.47368421052632,NA
16686,Blair County,PA,59.143968871595334,NA,NA
17025,Cumberland County,PA,NA,58.684210526315795,NA
17036,Dauphin County,PA,26.07003891050584,NA,NA
17331,York County,PA,33.46303501945525,NA,NA
17362,York County,PA,98.0544747081712,49.73684210526316,NA
17403,York County,PA,5.058365758754864,NA,NA
18058,Monroe County,PA,77.04280155642024,NA,NA
18255,Carbon County,PA,NA,77.10526315789473,NA
18444,Lackawanna County,PA,59.53307392996109,NA,NA
18660,Luzerne County,PA,98.44357976653697,NA,NA
19030,Bucks County,PA,NA,76.31578947368422,NA
19111,Philadelphia County,PA,NA,4.2105263157894735,NA
19121,Philadelphia County,PA,NA,NA,72.09302325581395
19124,Philadelphia County,PA,1.556420233463035,NA,NA
19145,Philadelphia County,PA,NA,11.31578947368421,NA
19330,Chester County,PA,NA,NA,96.74418604651163
19382,Chester County,PA,NA,NA,18.6046511627907
19390,Chester County,PA,NA,NA,59.06976744186046
19446,Montgomery County,PA,19.844357976653697,NA,NA
19464,Montgomery County,PA,NA,6.052631578947368,NA
19607,Berks County,PA,NA,NA,14.883720930232558
02852,Washington County,RI,NA,28.157894736842103,NA
02865,Providence County,RI,70.42801556420234,NA,NA
02878,Newport County,RI,NA,98.15789473684211,NA
02888,Kent County,RI,NA,43.42105263157895,NA
02893,Kent County,RI,NA,NA,40.46511627906977
02921,Providence County,RI,NA,87.36842105263159,NA
29040,Sumter County,SC,96.10894941634241,NA,NA
29073,Lexington County,SC,55.252918287937746,NA,NA
29307,Spartanburg County,SC,NA,74.21052631578947,NA
29464,Charleston County,SC,NA,NA,55.348837209302324
29466,Charleston County,SC,NA,53.1578947368421,NA
29479,Berkeley County,SC,NA,94.47368421052632,NA
29486,Berkeley County,SC,NA,47.89473684210526,NA
29550,Darlington County,SC,NA,23.94736842105263,NA
29576,Horry County,SC,NA,12.105263157894736,15.813953488372093
29605,Greenville County,SC,27.237354085603112,13.684210526315791,29.767441860465116
29611,Greenville County,SC,NA,34.21052631578947,NA
29642,Pickens County,SC,NA,18.947368421052634,28.37209302325581
29662,Greenville County,SC,64.2023346303502,NA,NA
29680,Greenville County,SC,NA,31.31578947368421,NA
29710,York County,SC,NA,51.05263157894737,NA
57104,Minnehaha County,SD,NA,5.7894736842105265,NA
57730,Custer County,SD,NA,NA,84.65116279069768
37055,Dickson County,TN,57.97665369649806,NA,NA
37069,Williamson County,TN,NA,NA,90.23255813953487
37072,Davidson County,TN,NA,27.368421052631582,NA
37110,Warren County,TN,NA,NA,29.30232558139535
37306,Franklin County,TN,99.61089494163424,NA,NA
37308,Hamilton County,TN,98.83268482490273,NA,NA
37370,McMinn County,TN,90.27237354085604,NA,NA
37398,Franklin County,TN,NA,59.473684210526315,NA
37620,Sullivan County,TN,NA,17.894736842105264,NA
37658,Carter County,TN,NA,92.89473684210526,NA
37743,Greene County,TN,NA,2.8947368421052633,46.51162790697674
37745,Greene County,TN,NA,24.210526315789473,NA
37818,Greene County,TN,NA,88.42105263157895,NA
37874,Monroe County,TN,NA,53.68421052631579,NA
37876,Sevier County,TN,66.9260700389105,NA,NA
37909,Knox County,TN,83.26848249027238,NA,NA
37918,Knox County,TN,NA,NA,20.46511627906977
37921,Knox County,TN,32.295719844357976,NA,NA
38119,Shelby County,TN,NA,NA,71.62790697674419
38320,Benton County,TN,NA,79.47368421052632,NA
38358,Gibson County,TN,NA,NA,62.7906976744186
38401,Maury County,TN,NA,7.105263157894736,NA
38570,Overton County,TN,NA,70.52631578947368,NA
75002,Collin County,TX,NA,NA,47.44186046511628
75040,Dallas County,TX,NA,29.47368421052631,NA
75081,Dallas County,TX,NA,NA,66.97674418604652
75146,Dallas County,TX,NA,66.57894736842105,NA
75215,Dallas County,TX,30.35019455252918,NA,NA
75216,Dallas County,TX,NA,8.947368421052632,7.906976744186046
75217,Dallas County,TX,10.505836575875486,NA,NA
75230,Dallas County,TX,NA,NA,54.418604651162795
75233,Dallas County,TX,NA,NA,86.04651162790698
75243,Dallas County,TX,18.28793774319066,NA,NA
75248,Dallas County,TX,NA,27.89473684210526,38.604651162790695
75252,Collin County,TX,NA,61.578947368421055,NA
75426,Red River County,TX,96.88715953307393,NA,NA
75501,Bowie County,TX,35.40856031128405,NA,NA
75703,Smith County,TX,NA,3.1578947368421053,NA
75790,Van Zandt County,TX,NA,NA,94.41860465116278
75791,Smith County,TX,65.75875486381322,NA,NA
75803,Anderson County,TX,NA,NA,85.11627906976744
76001,Tarrant County,TX,54.08560311284047,NA,NA
76033,Johnson County,TX,NA,NA,58.6046511627907
76039,Tarrant County,TX,NA,64.47368421052632,NA
76063,Tarrant County,TX,NA,13.421052631578947,NA
76065,Ellis County,TX,42.4124513618677,NA,NA
76092,Tarrant County,TX,NA,64.73684210526316,NA
76106,Tarrant County,TX,NA,94.21052631578948,NA
76112,Tarrant County,TX,17.509727626459142,NA,NA
76132,Tarrant County,TX,NA,61.31578947368421,NA
76135,Tarrant County,TX,NA,68.94736842105263,NA
76801,Brown County,TX,NA,47.10526315789474,NA
76901,Tom Green County,TX,NA,NA,66.04651162790698
76905,Tom Green County,TX,NA,95.52631578947368,NA
77011,Harris County,TX,NA,79.21052631578948,NA
77044,Harris County,TX,NA,65.78947368421053,NA
77048,Harris County,TX,NA,NA,86.51162790697674
77071,Harris County,TX,NA,66.84210526315789,NA
77095,Harris County,TX,22.17898832684825,NA,NA
77318,Montgomery County,TX,94.16342412451361,NA,NA
77502,Harris County,TX,NA,62.89473684210526,NA
77523,Chambers County,TX,NA,69.47368421052632,NA
77590,Galveston County,TX,16.731517509727624,NA,NA
77662,Orange County,TX,NA,47.368421052631575,NA
77713,Jefferson County,TX,NA,NA,83.72093023255815
77802,Brazos County,TX,NA,NA,10.232558139534884
77905,Victoria County,TX,62.64591439688716,NA,NA
78006,Kendall County,TX,NA,NA,73.48837209302326
78041,Webb County,TX,NA,NA,30.23255813953488
78130,Comal County,TX,NA,22.36842105263158,NA
78209,Bexar County,TX,85.60311284046692,NA,NA
78405,Nueces County,TX,NA,88.94736842105263,NA
78620,Hays County,TX,NA,NA,87.44186046511628
79109,Randall County,TX,NA,44.21052631578947,NA
79336,Hockley County,TX,NA,NA,92.09302325581396
79403,Lubbock County,TX,NA,51.578947368421055,NA
79901,El Paso County,TX,NA,88.68421052631578,NA
79903,El Paso County,TX,NA,87.89473684210526,NA
79925,El Paso County,TX,NA,53.421052631578945,NA
79930,El Paso County,TX,NA,NA,60.46511627906976
84041,Davis County,UT,NA,90,NA
84047,Salt Lake County,UT,NA,46.578947368421055,NA
84054,Davis County,UT,75.87548638132296,NA,NA
84067,Weber County,UT,NA,63.68421052631579,NA
84084,Salt Lake County,UT,NA,NA,73.95348837209302
84109,Salt Lake County,UT,65.75875486381322,NA,NA
84117,Salt Lake County,UT,NA,NA,33.48837209302326
84121,Salt Lake County,UT,43.57976653696498,NA,NA
84129,,UT,NA,84.47368421052632,NA
05001,Windsor County,VT,NA,89.73684210526316,NA
05446,Chittenden County,VT,NA,NA,69.30232558139535
20176,Loudoun County,VA,NA,NA,57.20930232558139
22101,Fairfax County,VA,NA,NA,49.30232558139535
22153,Fairfax County,VA,NA,58.94736842105262,NA
22406,Stafford County,VA,NA,NA,53.95348837209303
22485,King George County,VA,65.36964980544747,NA,NA
22551,Spotsylvania County,VA,NA,92.10526315789474,NA
22603,Frederick County,VA,NA,74.73684210526315,NA
22802,Harrisonburg city,VA,NA,52.368421052631575,NA
22903,Charlottesville city,VA,NA,NA,37.2093023255814
23111,Hanover County,VA,NA,16.57894736842105,NA
23120,Chesterfield County,VA,NA,97.10526315789474,NA
23323,Chesapeake city,VA,NA,NA,82.7906976744186
23430,Isle of Wight County,VA,NA,NA,39.53488372093023
23455,Virginia Beach city,VA,NA,8.68421052631579,NA
23464,Virginia Beach city,VA,21.011673151750973,NA,NA
23703,Portsmouth city,VA,NA,30.789473684210527,NA
23901,Prince Edward County,VA,NA,82.63157894736842,NA
24012,Roanoke city,VA,NA,42.10526315789473,NA
24104,Bedford County,VA,NA,NA,97.67441860465115
24228,Dickenson County,VA,69.64980544747081,NA,NA
24361,Washington County,VA,NA,96.84210526315789,NA
24517,Campbell County,VA,NA,90.52631578947368,NA
24521,Amherst County,VA,NA,NA,74.4186046511628
24609,Tazewell County,VA,NA,95.26315789473684,NA
24656,Buchanan County,VA,NA,NA,98.6046511627907
98002,King County,WA,NA,36.31578947368421,NA
98012,Snohomish County,WA,NA,NA,19.069767441860467
98030,King County,WA,NA,NA,53.02325581395348
98092,King County,WA,27.626459143968873,NA,NA
98125,King County,WA,NA,NA,75.81395348837209
98126,King County,WA,NA,NA,80.93023255813954
98168,King County,WA,NA,NA,47.906976744186046
98208,Snohomish County,WA,24.5136186770428,NA,NA
98225,Whatcom County,WA,54.474708171206224,NA,NA
98239,Island County,WA,NA,65.26315789473685,NA
98296,Snohomish County,WA,46.69260700389105,NA,NA
98391,Pierce County,WA,NA,12.894736842105264,NA
98409,Pierce County,WA,56.03112840466926,NA,NA
98532,Lewis County,WA,NA,NA,62.32558139534884
98584,Mason County,WA,NA,20,NA
98589,Thurston County,WA,NA,98.68421052631578,NA
98672,Klickitat County,WA,NA,NA,96.27906976744185
98903,Yakima County,WA,71.20622568093385,NA,NA
99114,Stevens County,WA,NA,NA,60
99205,Spokane County,WA,43.190661478599225,NA,NA
99336,Benton County,WA,NA,0.7894736842105263,NA
99352,Benton County,WA,NA,NA,3.7209302325581395
20002,District of Columbia,DC,28.404669260700388,NA,NA
20003,District of Columbia,DC,NA,43.684210526315795,NA
20009,District of Columbia,DC,35.019455252918284,NA,NA
25411,Morgan County,WV,NA,55.52631578947368,NA
25443,Jefferson County,WV,NA,91.3157894736842,NA
25704,Wayne County,WV,NA,NA,51.627906976744185
26003,Ohio County,WV,NA,NA,2.7906976744186047
26070,Brooke County,WV,NA,NA,34.418604651162795
26201,Upshur County,WV,NA,18.684210526315788,NA
26508,Monongalia County,WV,NA,54.736842105263165,NA
26554,Marion County,WV,NA,15.526315789473685,NA
26726,Mineral County,WV,44.3579766536965,NA,NA
53143,Kenosha County,WI,NA,30.263157894736842,NA
53172,Milwaukee County,WI,NA,40,NA
53210,Milwaukee County,WI,8.949416342412452,NA,NA
53218,Milwaukee County,WI,NA,8.421052631578947,NA
53220,Milwaukee County,WI,NA,25.789473684210527,NA
53558,Dane County,WI,NA,83.42105263157895,NA
54216,Kewaunee County,WI,90.6614785992218,NA,NA
54220,Manitowoc County,WI,7.392996108949417,NA,NA
54311,Brown County,WI,NA,27.631578947368425,NA
54409,Langlade County,WI,NA,NA,10.69767441860465
54629,Buffalo County,WI,NA,98.94736842105263,NA
54904,Winnebago County,WI,68.8715953307393,NA,NA
