ZipCode,county,state,Adult,Retirement,Geriatric
35007,Shelby County,AL,NA,37.98828125,NA
35079,Blount County,AL,88.59556494192185,NA,NA
35180,Jefferson County,AL,NA,68.65234375,NA
35757,Madison County,AL,71.70010559662092,NA,NA
35901,Etowah County,AL,NA,NA,68.01541425818883
35950,Marshall County,AL,NA,NA,65.89595375722543
35957,Marshall County,AL,46.673706441393875,NA,NA
35971,DeKalb County,AL,93.8753959873284,NA,NA
35976,Marshall County,AL,47.0960929250264,NA,NA
36264,Cleburne County,AL,NA,85.25390625,NA
36265,Calhoun County,AL,NA,58.3984375,NA
36345,Henry County,AL,NA,81.34765625,NA
36460,Monroe County,AL,80.5702217529039,NA,NA
36874,Lee County,AL,NA,77.9296875,NA
99502,Anchorage Municipality,AK,51.8479408658923,NA,73.60308285163777
85014,Maricopa County,AZ,NA,83.10546875,NA
85022,Maricopa County,AZ,NA,28.22265625,NA
85051,Maricopa County,AZ,16.473072861668427,NA,NA
85086,Maricopa County,AZ,41.2882787750792,NA,NA
85138,Pinal County,AZ,40.44350580781415,NA,NA
85140,Pinal County,AZ,35.58606124604013,NA,NA
85260,Maricopa County,AZ,64.62513199577613,NA,NA
85303,Maricopa County,AZ,51.21436114044351,NA,NA
85395,Maricopa County,AZ,NA,46.19140625,NA
85622,Pima County,AZ,NA,NA,59.34489402697495
85704,Pima County,AZ,NA,NA,27.167630057803464
85705,Pima County,AZ,NA,7.51953125,NA
85710,Pima County,AZ,NA,NA,39.884393063583815
85711,Pima County,AZ,NA,47.65625,42.58188824662813
85715,Pima County,AZ,76.55755015839493,58.10546875,NA
85716,Pima County,AZ,20.274551214361143,27.1484375,NA
85718,Pima County,AZ,NA,NA,24.084778420038536
85737,Pima County,AZ,NA,77.5390625,49.13294797687861
85741,Pima County,AZ,NA,45.80078125,NA
85743,Pima County,AZ,82.47096092925025,28.02734375,NA
85745,Pima County,AZ,57.76135163674763,NA,NA
85746,Pima County,AZ,14.783526927138332,NA,52.79383429672448
85749,Pima County,AZ,97.2544878563886,38.76953125,NA
85750,Pima County,AZ,NA,78.61328125,NA
85901,Navajo County,AZ,NA,28.125,NA
86001,Coconino County,AZ,23.020063357972546,NA,NA
86004,Coconino County,AZ,NA,14.55078125,NA
86005,Coconino County,AZ,50.580781414994725,NA,NA
86047,Navajo County,AZ,NA,NA,96.72447013487476
86401,Mohave County,AZ,66.84266103484688,NA,NA
71671,Bradley County,AR,NA,87.3046875,NA
71909,Garland County,AR,NA,33.3984375,NA
72019,Saline County,AR,NA,46.2890625,NA
72143,White County,AR,NA,11.1328125,NA
72211,Pulaski County,AR,NA,NA,85.54913294797689
72227,Pulaski County,AR,NA,86.03515625,NA
72422,Clay County,AR,89.86272439281943,NA,NA
72450,Greene County,AR,22.1752903907075,NA,NA
72653,Baxter County,AR,NA,NA,15.028901734104046
72921,Crawford County,AR,NA,77.63671875,NA
90015,Los Angeles County,CA,92.60823653643084,NA,NA
90016,Los Angeles County,CA,83.42133051742344,NA,NA
90019,Los Angeles County,CA,41.60506863780359,NA,NA
90024,Los Angeles County,CA,77.29672650475185,56.15234375,81.69556840077071
90025,Los Angeles County,CA,57.233368532206974,68.9453125,47.591522157996145
90028,Los Angeles County,CA,NA,NA,47.20616570327553
90034,Los Angeles County,CA,NA,NA,41.61849710982659
90036,Los Angeles County,CA,NA,NA,37.37957610789981
90039,Los Angeles County,CA,80.8870116156283,NA,NA
90042,Los Angeles County,CA,NA,NA,36.03082851637765
90044,Los Angeles County,CA,NA,20.1171875,NA
90046,Los Angeles County,CA,NA,24.90234375,NA
90048,Los Angeles County,CA,76.55755015839493,NA,NA
90049,Los Angeles County,CA,90.49630411826821,75.78125,25.818882466281313
90064,Los Angeles County,CA,NA,49.70703125,NA
90065,Los Angeles County,CA,NA,35.9375,NA
90066,Los Angeles County,CA,NA,NA,32.947976878612714
90094,Los Angeles County,CA,93.8753959873284,NA,NA
90210,Los Angeles County,CA,91.55227032734953,90.13671875,NA
90212,Los Angeles County,CA,NA,88.671875,NA
90230,Los Angeles County,CA,NA,NA,53.5645472061657
90250,Los Angeles County,CA,26.399155227032733,NA,NA
90265,Los Angeles County,CA,NA,91.796875,79.76878612716763
90266,Los Angeles County,CA,61.98521647307286,NA,NA
90272,Los Angeles County,CA,NA,66.9921875,34.104046242774565
90278,Los Angeles County,CA,60.929250263991555,NA,NA
90291,Los Angeles County,CA,85.74445617740233,NA,NA
90405,Los Angeles County,CA,NA,54.00390625,NA
90631,Orange County,CA,NA,18.45703125,NA
90640,Los Angeles County,CA,NA,30.95703125,NA
90680,Orange County,CA,58.60612460401268,NA,NA
90740,Orange County,CA,68.32101372756073,NA,NA
90744,Los Angeles County,CA,NA,NA,68.01541425818883
90805,Los Angeles County,CA,19.957761351636748,NA,NA
91001,Los Angeles County,CA,NA,96.77734375,NA
91202,Los Angeles County,CA,85.53326293558607,NA,NA
91311,Los Angeles County,CA,NA,80.078125,NA
91335,Los Angeles County,CA,NA,NA,16.377649325626205
91351,Los Angeles County,CA,NA,73.6328125,NA
91387,Los Angeles County,CA,NA,41.015625,NA
91423,Los Angeles County,CA,69.90496304118268,NA,NA
91502,Los Angeles County,CA,NA,99.12109375,NA
91605,Los Angeles County,CA,NA,77.24609375,NA
91701,San Bernardino County,CA,27.13833157338965,NA,NA
91711,Los Angeles County,CA,80.04223864836325,NA,NA
91730,San Bernardino County,CA,22.38648363252376,NA,NA
91741,Los Angeles County,CA,NA,79.98046875,NA
91745,Los Angeles County,CA,NA,NA,33.33333333333333
91746,Los Angeles County,CA,NA,NA,80.92485549132948
91790,Los Angeles County,CA,52.58711721224921,NA,NA
91791,Los Angeles County,CA,78.03590285110876,NA,NA
91935,San Diego County,CA,96.51531151003168,NA,NA
91942,San Diego County,CA,NA,NA,65.51059730250482
91950,San Diego County,CA,37.69799366420274,NA,NA
92019,San Diego County,CA,NA,47.0703125,NA
92026,San Diego County,CA,54.69904963041182,NA,NA
92054,San Diego County,CA,43.92819429778247,NA,NA
92065,San Diego County,CA,49.841605068637804,NA,NA
92101,San Diego County,CA,NA,40.625,NA
92104,San Diego County,CA,29.46145723336853,NA,NA
92130,San Diego County,CA,NA,60.15625,NA
92234,Riverside County,CA,16.261879619852166,2.05078125,NA
92260,Riverside County,CA,NA,14.6484375,NA
92270,Riverside County,CA,NA,37.890625,NA
92311,San Bernardino County,CA,68.21541710665258,NA,NA
92325,San Bernardino County,CA,NA,83.69140625,NA
92345,San Bernardino County,CA,12.460401267159451,NA,NA
92557,Riverside County,CA,38.01478352692714,NA,NA
92603,Orange County,CA,NA,90.0390625,NA
92657,Orange County,CA,95.67053854276664,NA,NA
92677,Orange County,CA,34.63569165786694,11.03515625,NA
92679,Orange County,CA,NA,61.42578125,NA
92683,Orange County,CA,48.4688489968321,NA,NA
92688,Orange County,CA,38.43717001055966,NA,NA
92694,Orange County,CA,56.28299894403379,NA,NA
92782,Orange County,CA,77.5079197465681,NA,NA
92831,Orange County,CA,NA,43.84765625,NA
92832,Orange County,CA,55.649419218585,NA,NA
92833,Orange County,CA,50.36958817317846,NA,NA
92865,Orange County,CA,80.5702217529039,NA,NA
93001,Ventura County,CA,NA,30.859375,NA
93003,Ventura County,CA,NA,NA,20.809248554913296
93010,Ventura County,CA,35.05807814149947,26.46484375,15.414258188824661
93012,Ventura County,CA,67.05385427666315,NA,NA
93015,Ventura County,CA,86.58922914466737,NA,NA
93035,Ventura County,CA,67.37064413938754,NA,NA
93063,Ventura County,CA,NA,26.3671875,NA
93065,Ventura County,CA,17.423442449841605,NA,NA
93101,Santa Barbara County,CA,74.02323125659979,NA,NA
93286,Tulare County,CA,NA,NA,97.30250481695568
93305,Kern County,CA,42.977824709609294,NA,NA
93309,Kern County,CA,NA,30.6640625,NA
93312,Kern County,CA,NA,44.921875,NA
93610,Madera County,CA,71.80570221752905,NA,NA
93657,Fresno County,CA,NA,44.62890625,NA
93953,Monterey County,CA,NA,87.3046875,NA
94002,San Mateo County,CA,55.22703273495249,NA,NA
94024,Santa Clara County,CA,82.5765575501584,NA,NA
94025,San Mateo County,CA,NA,36.42578125,NA
94028,San Mateo County,CA,NA,NA,65.1252408477842
94062,San Mateo County,CA,NA,79.39453125,NA
94085,Santa Clara County,CA,83.9493136219641,NA,NA
94087,Santa Clara County,CA,NA,50.09765625,NA
94102,San Francisco County,CA,9.714889123548048,NA,NA
94103,San Francisco County,CA,NA,19.23828125,NA
94109,San Francisco County,CA,NA,13.28125,NA
94110,San Francisco County,CA,14.889123548046463,9.1796875,NA
94112,San Francisco County,CA,NA,6.54296875,6.9364161849710975
94114,San Francisco County,CA,76.02956705385428,NA,NA
94115,San Francisco County,CA,48.7856388595565,37.5,NA
94121,San Francisco County,CA,NA,94.140625,NA
94122,San Francisco County,CA,47.30728616684266,NA,NA
94127,San Francisco County,CA,NA,90.4296875,NA
94132,San Francisco County,CA,NA,NA,76.49325626204238
94301,Santa Clara County,CA,NA,95.80078125,NA
94306,Santa Clara County,CA,NA,NA,58.38150289017341
94501,Alameda County,CA,39.493136219640974,NA,NA
94502,Alameda County,CA,NA,NA,78.03468208092485
94513,Contra Costa County,CA,NA,25.29296875,NA
94533,Solano County,CA,NA,NA,19.07514450867052
94556,Contra Costa County,CA,NA,97.16796875,NA
94603,Alameda County,CA,NA,54.6875,NA
94611,Alameda County,CA,61.87961985216474,NA,NA
94803,Contra Costa County,CA,95.2481520591341,NA,NA
94806,Contra Costa County,CA,NA,24.31640625,NA
94901,Marin County,CA,54.2766631467793,NA,NA
94930,Marin County,CA,NA,96.484375,NA
94941,Marin County,CA,72.86166842661035,NA,NA
94945,Marin County,CA,97.14889123548046,NA,NA
94960,Marin County,CA,NA,80.37109375,89.98073217726397
95014,Santa Clara County,CA,NA,87.20703125,NA
95023,San Benito County,CA,60.71805702217529,NA,NA
95120,Santa Clara County,CA,NA,NA,39.113680154142585
95126,Santa Clara County,CA,64.30834213305174,NA,NA
95219,San Joaquin County,CA,NA,76.07421875,NA
95304,San Joaquin County,CA,89.54593453009504,NA,NA
95370,Tuolumne County,CA,NA,3.02734375,NA
95407,Sonoma County,CA,NA,56.4453125,NA
95453,Lake County,CA,NA,NA,69.17148362235068
95492,Sonoma County,CA,62.724392819429774,NA,NA
95531,Del Norte County,CA,83.73812038014783,NA,NA
95602,Placer County,CA,NA,49.31640625,NA
95608,Sacramento County,CA,40.86589229144668,NA,NA
95621,Sacramento County,CA,43.294614572333685,NA,29.09441233140655
95628,Sacramento County,CA,NA,72.265625,NA
95630,Sacramento County,CA,28.405491024287223,NA,NA
95632,Sacramento County,CA,NA,NA,90.7514450867052
95661,Placer County,CA,NA,54.19921875,NA
95670,Sacramento County,CA,NA,33.3984375,31.406551059730248
95673,Sacramento County,CA,NA,94.82421875,NA
95687,Solano County,CA,NA,23.828125,NA
95762,El Dorado County,CA,50.79197465681098,NA,NA
95814,Sacramento County,CA,NA,NA,91.90751445086705
95819,Sacramento County,CA,NA,86.9140625,NA
95820,Sacramento County,CA,51.10876451953538,NA,57.41811175337187
95822,Sacramento County,CA,NA,43.45703125,NA
95825,Sacramento County,CA,NA,NA,45.08670520231214
95827,Sacramento County,CA,NA,68.75,NA
95833,Sacramento County,CA,NA,60.9375,NA
95834,Sacramento County,CA,NA,76.7578125,NA
95838,Sacramento County,CA,36.74762407602957,NA,NA
95841,Sacramento County,CA,NA,NA,79.57610789980733
95864,Sacramento County,CA,NA,74.609375,50.09633911368015
95901,Yuba County,CA,25.87117212249208,NA,NA
95945,Nevada County,CA,57.127771911298844,NA,NA
95948,Butte County,CA,76.76874340021119,NA,NA
95949,Nevada County,CA,NA,NA,52.601156069364166
95969,Butte County,CA,32.840549102428724,NA,7.89980732177264
95987,Colusa County,CA,95.5649419218585,NA,NA
96002,Shasta County,CA,55.86061246040127,NA,NA
96007,Shasta County,CA,66.42027455121436,NA,NA
96080,Tehama County,CA,73.17845828933474,NA,NA
96094,Siskiyou County,CA,NA,89.84375,NA
96101,Modoc County,CA,NA,NA,91.52215799614643
80003,Jefferson County,CO,NA,54.98046875,NA
80005,Jefferson County,CO,58.39493136219641,NA,NA
80010,Arapahoe County,CO,NA,NA,67.4373795761079
80013,Arapahoe County,CO,NA,24.609375,NA
80014,Arapahoe County,CO,NA,NA,13.872832369942195
80015,Arapahoe County,CO,20.4857444561774,23.33984375,62.6204238921002
80026,Boulder County,CO,NA,NA,71.09826589595376
80027,Boulder County,CO,60.71805702217529,52.5390625,NA
80033,Jefferson County,CO,NA,61.328125,NA
80108,Douglas County,CO,85.32206969376979,59.765625,NA
80109,Douglas County,CO,NA,64.94140625,NA
80126,Douglas County,CO,77.29672650475185,NA,NA
80130,Douglas County,CO,90.3907074973601,NA,NA
80134,Douglas County,CO,27.87750791974657,NA,NA
80204,Denver County,CO,23.65364308342133,NA,NA
80206,Denver County,CO,69.06019007391764,NA,NA
80209,Denver County,CO,62.724392819429774,88.37890625,NA
80210,Denver County,CO,54.80464625131995,NA,73.79576107899807
80211,Denver County,CO,38.54276663146779,NA,NA
80214,Jefferson County,CO,42.13305174234424,NA,NA
80231,Denver County,CO,NA,60.44921875,NA
80233,Adams County,CO,28.616684266103487,NA,NA
80249,Denver County,CO,NA,91.89453125,NA
80435,Summit County,CO,NA,99.70703125,NA
80516,Weld County,CO,65.25871172122491,NA,NA
80525,Larimer County,CO,NA,11.81640625,NA
80601,Adams County,CO,NA,39.2578125,NA
80807,Kit Carson County,CO,96.40971488912355,NA,NA
80907,El Paso County,CO,NA,NA,55.29865125240848
80908,El Paso County,CO,81.83738120380147,NA,NA
81137,San Juan County,CO,97.46568109820485,NA,NA
81301,La Plata County,CO,NA,NA,57.996146435452786
81321,Montezuma County,CO,NA,62.3046875,NA
81504,Mesa County,CO,NA,55.95703125,NA
81601,Garfield County,CO,77.71911298838438,NA,NA
06001,Hartford County,CT,NA,67.87109375,NA
06002,Hartford County,CT,NA,30.078125,71.48362235067437
06010,Hartford County,CT,2.2175290390707496,2.1484375,NA
06032,Hartford County,CT,NA,71.19140625,NA
06035,Hartford County,CT,NA,NA,92.48554913294798
06042,Hartford County,CT,NA,NA,50.86705202312138
06053,Hartford County,CT,13.410770855332629,NA,NA
06070,Hartford County,CT,76.87434002111932,80.859375,NA
06074,Hartford County,CT,NA,NA,32.177263969171484
06095,Hartford County,CT,NA,29.6875,NA
06105,Hartford County,CT,23.864836325237594,NA,NA
06111,Hartford County,CT,39.38753959873284,NA,NA
06112,Hartford County,CT,NA,53.41796875,NA
06114,Hartford County,CT,19.429778247096095,NA,NA
06119,Hartford County,CT,91.97465681098205,NA,NA
06226,Windham County,CT,NA,NA,90.94412331406551
06249,New London County,CT,NA,91.50390625,NA
06415,New London County,CT,53.959873284054915,NA,NA
06426,Middlesex County,CT,NA,NA,78.9980732177264
06450,New Haven County,CT,NA,13.8671875,NA
06457,Middlesex County,CT,NA,9.375,NA
06511,New Haven County,CT,4.7518479408658925,NA,NA
06705,New Haven County,CT,25.131995776135163,NA,NA
06759,Litchfield County,CT,NA,89.0625,NA
06790,Litchfield County,CT,28.19429778247096,NA,NA
06880,Fairfield County,CT,NA,86.81640625,NA
06897,Fairfield County,CT,NA,NA,61.27167630057804
19701,New Castle County,DE,29.3558606124604,NA,NA
19702,New Castle County,DE,17.634635691657866,53.22265625,NA
19711,New Castle County,DE,NA,NA,58.76685934489403
19713,New Castle County,DE,NA,30.2734375,NA
19720,New Castle County,DE,NA,44.04296875,NA
19803,New Castle County,DE,NA,79.00390625,NA
19805,New Castle County,DE,NA,9.66796875,NA
19808,New Castle County,DE,24.920802534318902,24.12109375,NA
19901,Kent County,DE,NA,NA,28.13102119460501
19970,Sussex County,DE,NA,84.375,NA
19971,Sussex County,DE,70.6441393875396,NA,37.76493256262042
32068,Clay County,FL,NA,10.05859375,NA
32071,Suwannee County,FL,99.47201689545935,NA,NA
32218,Duval County,FL,3.695881731784583,NA,NA
32256,Duval County,FL,NA,NA,36.80154142581888
32266,Duval County,FL,97.571277719113,NA,NA
32308,Leon County,FL,73.28405491024287,NA,NA
32331,Madison County,FL,96.72650475184794,NA,NA
32446,Jackson County,FL,NA,63.0859375,NA
32459,Walton County,FL,NA,31.4453125,NA
32533,Escambia County,FL,31.46779303062302,NA,NA
32541,Okaloosa County,FL,66.2090813093981,NA,NA
32601,Alachua County,FL,60.929250263991555,NA,NA
32605,Alachua County,FL,NA,32.421875,NA
32724,Volusia County,FL,NA,NA,28.516377649325626
33025,Broward County,FL,NA,NA,46.05009633911368
33026,Broward County,FL,NA,58.30078125,NA
33040,Monroe County,FL,NA,73.828125,66.47398843930635
33069,Broward County,FL,NA,63.37890625,NA
33070,Monroe County,FL,99.68321013727561,NA,NA
33126,Miami-Dade County,FL,68.00422386483632,NA,NA
33169,Miami-Dade County,FL,43.189017951425555,NA,NA
33174,Miami-Dade County,FL,72.54487856388594,NA,NA
33196,Miami-Dade County,FL,NA,63.671875,NA
33317,Broward County,FL,NA,NA,51.445086705202314
33432,Palm Beach County,FL,NA,45.703125,NA
33437,Palm Beach County,FL,NA,NA,1.348747591522158
33477,Palm Beach County,FL,NA,NA,46.628131021194605
33538,Sumter County,FL,NA,94.23828125,NA
33572,Hillsborough County,FL,NA,59.08203125,NA
33605,Hillsborough County,FL,NA,78.80859375,NA
33634,Hillsborough County,FL,NA,89.74609375,NA
33801,Polk County,FL,25.659978880675823,NA,NA
33904,Lee County,FL,NA,18.84765625,NA
33912,Lee County,FL,81.9429778247096,NA,NA
33916,Lee County,FL,39.493136219640974,NA,NA
33922,Lee County,FL,NA,NA,97.6878612716763
33928,Lee County,FL,NA,32.91015625,25.048169556840076
33931,Lee County,FL,NA,65.13671875,NA
33957,Lee County,FL,NA,71.875,NA
33966,Lee County,FL,NA,85.83984375,86.51252408477842
34114,Collier County,FL,NA,NA,51.05973025048169
34119,Collier County,FL,43.50580781414995,NA,NA
34223,Sarasota County,FL,NA,55.2734375,NA
34236,Sarasota County,FL,NA,89.55078125,NA
34285,Sarasota County,FL,NA,20.80078125,NA
34292,Sarasota County,FL,89.7571277719113,NA,NA
34471,Marion County,FL,NA,46.77734375,NA
34610,Pasco County,FL,65.99788806758184,NA,NA
34652,Pasco County,FL,NA,53.3203125,NA
34711,Lake County,FL,NA,3.7109375,NA
34953,St. Lucie County,FL,6.75818373812038,NA,NA
30009,Fulton County,GA,NA,NA,99.61464354527938
30019,Gwinnett County,GA,NA,40.8203125,NA
30168,Cobb County,GA,NA,84.27734375,NA
30263,Coweta County,GA,12.988384371700107,NA,NA
30311,Fulton County,GA,17.95142555438226,NA,NA
30312,Fulton County,GA,NA,51.7578125,NA
30331,Fulton County,GA,20.06335797254488,9.08203125,NA
30350,Fulton County,GA,64.20274551214361,NA,NA
30474,Toombs County,GA,59.55649419218585,NA,NA
30519,Gwinnett County,GA,NA,NA,75.72254335260115
30707,Walker County,GA,42.76663146779303,NA,NA
30813,Columbia County,GA,NA,40.33203125,NA
31419,Chatham County,GA,35.480464625131994,NA,NA
31906,Muscogee County,GA,NA,42.67578125,NA
96701,Honolulu County,HI,NA,19.140625,NA
96744,Honolulu County,HI,22.49208025343189,NA,NA
96746,Kauai County,HI,65.46990496304119,NA,NA
96749,Hawaii County,HI,78.35269271383316,NA,NA
96766,Kauai County,HI,NA,71.77734375,NA
96789,Honolulu County,HI,NA,8.59375,NA
96792,Honolulu County,HI,60.295670538542765,NA,NA
96813,Honolulu County,HI,NA,35.546875,NA
96815,Honolulu County,HI,49.524815205913406,NA,NA
96825,Honolulu County,HI,NA,NA,54.52793834296724
83202,Bannock County,ID,NA,66.2109375,NA
83221,Bingham County,ID,29.672650475184792,20.41015625,NA
83301,Twin Falls County,ID,3.5902851108764517,NA,0.9633911368015413
83333,Blaine County,ID,NA,60.9375,NA
83544,Clearwater County,ID,93.03062302006336,NA,NA
83619,Payette County,ID,NA,NA,76.6859344894027
83705,Ada County,ID,62.09081309398099,NA,NA
60002,Lake County,IL,NA,NA,62.813102119460495
60004,Cook County,IL,27.03273495248152,NA,NA
60005,Cook County,IL,NA,NA,35.83815028901734
60007,Cook County,IL,NA,18.75,NA
60008,Cook County,IL,67.5818373812038,NA,NA
60010,Lake County,IL,NA,14.74609375,NA
60020,Lake County,IL,NA,NA,77.45664739884393
60022,Cook County,IL,NA,79.6875,NA
60025,Cook County,IL,NA,72.4609375,8.285163776493256
60026,Cook County,IL,NA,47.4609375,30.828516377649322
60033,McHenry County,IL,NA,91.89453125,78.22736030828517
60044,Lake County,IL,NA,95.99609375,NA
60048,Lake County,IL,NA,62.01171875,NA
60056,Cook County,IL,40.33790918690602,16.69921875,NA
60060,Lake County,IL,NA,16.40625,NA
60076,Cook County,IL,NA,59.47265625,NA
60077,Cook County,IL,NA,30.37109375,NA
60083,Lake County,IL,NA,68.45703125,NA
60089,Lake County,IL,NA,11.62109375,NA
60091,Cook County,IL,NA,23.92578125,NA
60106,DuPage County,IL,62.40760295670539,62.109375,38.921001926782274
60108,DuPage County,IL,58.60612460401268,NA,NA
60118,Kane County,IL,NA,65.625,NA
60126,DuPage County,IL,79.72544878563886,67.08984375,NA
60131,Cook County,IL,72.22808870116157,69.3359375,NA
60134,Kane County,IL,NA,NA,32.369942196531795
60139,DuPage County,IL,50.36958817317846,NA,NA
60148,DuPage County,IL,45.08975712777191,32.421875,NA
60155,Cook County,IL,79.93664202745512,NA,NA
60162,Cook County,IL,NA,NA,75.14450867052022
60164,Cook County,IL,NA,41.69921875,NA
60173,Cook County,IL,NA,90.52734375,NA
60176,Cook County,IL,79.1974656810982,NA,NA
60181,DuPage County,IL,32.418162618796195,31.25,NA
60187,DuPage County,IL,38.965153115100314,NA,NA
60193,Cook County,IL,NA,10.546875,NA
60201,Cook County,IL,NA,74.12109375,72.0616570327553
60202,Cook County,IL,59.66209081309398,NA,NA
60302,Cook County,IL,NA,15.52734375,NA
60304,Cook County,IL,NA,84.08203125,NA
60403,Will County,IL,NA,40.52734375,NA
60406,Cook County,IL,53.537486800422386,NA,NA
60430,Cook County,IL,64.73072861668426,NA,49.32562620423892
60433,Will County,IL,NA,NA,84.39306358381504
60435,Will County,IL,NA,10.9375,NA
60451,Will County,IL,52.16473072861668,NA,NA
60455,Cook County,IL,NA,NA,78.42003853564547
60456,Cook County,IL,NA,92.7734375,NA
60462,Cook County,IL,NA,5.17578125,NA
60464,Cook County,IL,NA,64.74609375,NA
60468,Will County,IL,94.61457233368532,NA,95.37572254335261
60477,Cook County,IL,81.30939809926082,NA,16.184971098265898
60478,Cook County,IL,90.60190073917634,NA,NA
60514,DuPage County,IL,NA,92.28515625,NA
60515,DuPage County,IL,NA,NA,27.552986512524086
60521,DuPage County,IL,87.22280887011615,NA,NA
60523,DuPage County,IL,NA,NA,45.857418111753375
60525,Cook County,IL,NA,14.84375,NA
60540,DuPage County,IL,30.93980992608237,NA,NA
60546,Cook County,IL,49.10242872228089,72.36328125,NA
60555,DuPage County,IL,NA,78.515625,NA
60559,DuPage County,IL,74.23442449841605,NA,NA
60564,Will County,IL,NA,NA,74.18111753371869
60605,Cook County,IL,NA,NA,64.16184971098265
60610,Cook County,IL,NA,57.71484375,24.66281310211946
60613,Cook County,IL,NA,34.765625,NA
60614,Cook County,IL,24.287222808870116,50.5859375,NA
60615,Cook County,IL,57.655755015839496,51.07421875,NA
60616,Cook County,IL,NA,10.3515625,NA
60617,Cook County,IL,8.870116156282998,NA,NA
60618,Cook County,IL,10.665258711721224,54.8828125,NA
60621,Cook County,IL,66.94825765575501,NA,NA
60622,Cook County,IL,38.64836325237592,NA,NA
60632,Cook County,IL,15.62829989440338,NA,NA
60634,Cook County,IL,37.80359028511088,NA,NA
60641,Cook County,IL,15.205913410770854,17.7734375,NA
60645,Cook County,IL,37.48680042238649,NA,NA
60653,Cook County,IL,31.784582893347412,NA,NA
60714,Cook County,IL,NA,NA,15.79961464354528
61021,Lee County,IL,NA,NA,5.5876685934489405
61032,Stephenson County,IL,NA,51.953125,NA
61061,Ogle County,IL,NA,NA,52.98651252408478
61068,Ogle County,IL,NA,NA,38.72832369942196
61081,Whiteside County,IL,32.629355860612456,NA,28.901734104046245
61310,Lee County,IL,NA,94.43359375,NA
61554,Tazewell County,IL,NA,NA,13.680154142581888
61571,Tazewell County,IL,NA,50.9765625,NA
61821,Champaign County,IL,NA,77.34375,17.148362235067438
61822,Champaign County,IL,NA,49.51171875,NA
61856,Piatt County,IL,NA,NA,48.747591522158
61866,Champaign County,IL,NA,68.84765625,NA
61953,Douglas County,IL,NA,98.6328125,NA
62040,Madison County,IL,22.80887011615628,NA,NA
62207,St. Clair County,IL,NA,81.8359375,NA
62454,Crawford County,IL,88.48996832101372,NA,NA
62526,Macon County,IL,NA,7.91015625,NA
62629,Sangamon County,IL,96.83210137275607,NA,98.45857418111753
62896,Franklin County,IL,NA,32.8125,NA
46011,Madison County,IN,NA,NA,42.96724470134875
46012,Madison County,IN,NA,22.265625,NA
46062,Hamilton County,IN,NA,51.26953125,NA
46077,Boone County,IN,82.78775079197466,NA,NA
46143,Johnson County,IN,25.87117212249208,NA,NA
46219,Marion County,IN,14.255543822597676,NA,NA
46221,Marion County,IN,NA,42.578125,NA
46260,Marion County,IN,NA,NA,45.664739884393065
46304,Porter County,IN,NA,20.01953125,NA
46349,Newton County,IN,93.55860612460401,NA,NA
46373,Lake County,IN,NA,37.6953125,NA
46405,Lake County,IN,NA,48.6328125,NA
46410,Lake County,IN,NA,3.515625,NA
46614,St. Joseph County,IN,58.81731784582893,NA,NA
46714,Wells County,IN,57.76135163674763,NA,NA
46750,Huntington County,IN,NA,27.05078125,NA
46783,Huntington County,IN,82.89334741288279,NA,NA
46970,Miami County,IN,12.249208025343188,NA,NA
46992,Wabash County,IN,NA,42.08984375,NA
47150,Floyd County,IN,NA,NA,26.97495183044316
47331,Fayette County,IN,17.212249208025344,NA,NA
47441,Greene County,IN,69.16578669482577,NA,NA
47713,Vanderburgh County,IN,63.252375923970426,NA,NA
47932,Fountain County,IN,97.9936642027455,NA,NA
50003,Dallas County,IA,96.62090813093981,NA,NA
50023,Polk County,IA,NA,78.90625,NA
50036,Boone County,IA,NA,90.8203125,NA
50316,Polk County,IA,82.259767687434,NA,NA
50322,Polk County,IA,NA,57.12890625,NA
50323,Dallas County,IA,NA,98.53515625,NA
50401,Cerro Gordo County,IA,59.87328405491025,NA,2.312138728323699
50428,Cerro Gordo County,IA,NA,75.9765625,NA
50501,Webster County,IA,NA,37.01171875,NA
50511,Kossuth County,IA,NA,NA,71.29094412331408
50616,Floyd County,IA,65.46990496304119,49.90234375,NA
50703,Black Hawk County,IA,30.623020063357977,NA,NA
51002,Buena Vista County,IA,NA,99.8046875,NA
51031,Plymouth County,IA,NA,51.07421875,NA
51106,Woodbury County,IA,49.31362196409715,NA,NA
51250,Sioux County,IA,NA,87.5,NA
51503,Pottawattamie County,IA,NA,3.41796875,NA
51566,Montgomery County,IA,75.71277719112989,NA,NA
51632,Page County,IA,NA,63.37890625,NA
52002,Dubuque County,IA,NA,NA,80.34682080924856
52233,Linn County,IA,NA,88.57421875,NA
52317,Johnson County,IA,77.19112988384371,NA,NA
52333,Johnson County,IA,NA,92.578125,NA
52577,Mahaska County,IA,NA,NA,26.39691714836224
52732,Clinton County,IA,23.970432946145724,NA,NA
52748,Scott County,IA,83.84371700105596,NA,NA
52803,Scott County,IA,36.008447729672646,NA,NA
52804,Scott County,IA,NA,36.23046875,NA
66043,Leavenworth County,KS,NA,92.08984375,NA
66044,Douglas County,KS,66.73706441393875,NA,NA
66062,Johnson County,KS,12.882787750791975,NA,NA
66112,Wyandotte County,KS,NA,72.75390625,NA
66206,Johnson County,KS,NA,80.17578125,NA
66609,Shawnee County,KS,91.65786694825766,NA,NA
66617,Shawnee County,KS,NA,82.71484375,NA
67206,Sedgwick County,KS,NA,NA,82.27360308285164
67601,Ellis County,KS,NA,20.5078125,NA
40031,Oldham County,KY,NA,NA,50.28901734104046
40160,Hardin County,KY,NA,52.734375,NA
40203,Jefferson County,KY,NA,NA,64.16184971098265
40241,Jefferson County,KY,NA,NA,34.48940269749518
40383,Woodford County,KY,NA,43.359375,NA
40391,Clark County,KY,NA,14.0625,NA
40444,Garrard County,KY,NA,52.05078125,NA
40504,Fayette County,KY,43.400211193241816,NA,NA
40965,Bell County,KY,28.722280887011614,31.8359375,NA
41005,Boone County,KY,61.140443505807816,NA,NA
41031,Harrison County,KY,NA,39.55078125,NA
41144,Greenup County,KY,NA,81.0546875,NA
41164,Carter County,KY,34.74128827877508,NA,NA
42001,McCracken County,KY,NA,NA,44.1233140655106
42167,Monroe County,KY,63.674762407602955,NA,NA
42437,Union County,KY,75.50158394931363,NA,NA
42642,Russell County,KY,NA,65.4296875,NA
42701,Hardin County,KY,NA,10.7421875,NA
70001,Jefferson Parish,LA,NA,10.64453125,NA
70002,Jefferson Parish,LA,46.884899683210136,NA,NA
70003,Jefferson Parish,LA,10.137275607180571,2.734375,5.780346820809249
70006,Jefferson Parish,LA,50.79197465681098,NA,NA
70065,Jefferson Parish,LA,4.223864836325237,NA,NA
70087,St. Charles Parish,LA,NA,90.234375,NA
70094,Jefferson Parish,LA,NA,17.578125,NA
70118,Orleans Parish,LA,21.330517423442448,NA,69.55684007707129
70123,Jefferson Parish,LA,21.541710665258712,NA,NA
70124,Orleans Parish,LA,NA,92.1875,NA
70125,Orleans Parish,LA,NA,69.82421875,NA
70380,St. Mary Parish,LA,NA,30.76171875,NA
70403,Tangipahoa Parish,LA,7.497360084477296,NA,NA
70452,St. Tammany Parish,LA,NA,NA,63.77649325626204
70458,St. Tammany Parish,LA,6.441393875395987,NA,NA
70460,St. Tammany Parish,LA,14.6779303062302,NA,NA
70471,St. Tammany Parish,LA,NA,22.94921875,NA
70501,Lafayette Parish,LA,NA,26.171875,NA
70520,Lafayette Parish,LA,25.343189017951424,NA,NA
70525,Acadia Parish,LA,49.947201689545935,NA,NA
70555,Vermilion Parish,LA,NA,85.44921875,NA
70634,Beauregard Parish,LA,NA,38.671875,NA
70647,Calcasieu Parish,LA,45.19535374868005,NA,NA
70663,Calcasieu Parish,LA,NA,23.6328125,NA
70769,Ascension Parish,LA,NA,38.4765625,NA
71047,Caddo Parish,LA,51.95353748680043,NA,NA
71111,Bossier Parish,LA,5.59662090813094,NA,NA
71203,Ouachita Parish,LA,NA,84.47265625,NA
71409,Rapides Parish,LA,NA,86.71875,NA
04005,York County,ME,NA,NA,17.341040462427745
04090,York County,ME,90.70749736008447,NA,NA
04092,Cumberland County,ME,40.76029567053855,NA,NA
04105,Cumberland County,ME,92.08025343189018,NA,NA
04240,Androscoggin County,ME,2.3231256599788805,NA,NA
04268,Oxford County,ME,NA,83.3984375,NA
04282,Androscoggin County,ME,NA,83.49609375,NA
04294,Franklin County,ME,88.70116156283,NA,NA
04330,Kennebec County,ME,45.7233368532207,54.1015625,NA
04345,Kennebec County,ME,NA,52.1484375,NA
04364,Kennebec County,ME,56.916578669482575,NA,NA
04401,Penobscot County,ME,44.13938753959874,1.5625,NA
04412,Penobscot County,ME,NA,NA,94.99036608863199
04619,Washington County,ME,79.83104540654699,NA,NA
04730,Aroostook County,ME,NA,48.33984375,NA
04736,Aroostook County,ME,52.27032734952481,NA,NA
04769,Aroostook County,ME,NA,44.7265625,NA
04841,Knox County,ME,NA,47.75390625,NA
04843,Knox County,ME,92.8194297782471,88.18359375,NA
04856,Knox County,ME,NA,93.9453125,NA
04901,Kennebec County,ME,5.385427666314678,45.01953125,9.05587668593449
04917,Kennebec County,ME,NA,NA,99.03660886319847
04938,Franklin County,ME,NA,57.32421875,NA
04963,Kennebec County,ME,NA,66.2109375,NA
04967,Somerset County,ME,NA,82.51953125,NA
04976,Somerset County,ME,NA,49.609375,NA
20678,Calvert County,MD,NA,78.22265625,NA
20774,Prince George's County,MD,44.24498416050686,NA,NA
20850,Montgomery County,MD,65.1531151003168,NA,NA
21014,Harford County,MD,71.27771911298838,NA,NA
21015,Harford County,MD,71.17212249208026,NA,NA
21030,Baltimore County,MD,NA,94.04296875,NA
21040,Harford County,MD,59.23970432946146,NA,NA
21042,Howard County,MD,NA,57.32421875,NA
21060,Anne Arundel County,MD,NA,41.40625,NA
21076,Anne Arundel County,MD,NA,NA,94.21965317919076
21113,Anne Arundel County,MD,NA,66.11328125,NA
21120,Baltimore County,MD,NA,NA,94.79768786127167
21122,Anne Arundel County,MD,33.157338965153116,NA,NA
21131,Baltimore County,MD,NA,96.875,NA
21157,Carroll County,MD,NA,NA,26.011560693641616
21202,Baltimore city,MD,42.661034846884895,NA,NA
21204,Baltimore County,MD,68.74340021119323,75.09765625,NA
21205,Baltimore city,MD,48.68004223864836,NA,NA
21206,Baltimore city,MD,NA,NA,30.63583815028902
21208,Baltimore County,MD,NA,34.08203125,18.689788053949904
21209,Baltimore County,MD,83.6325237592397,86.03515625,NA
21210,Baltimore city,MD,89.1235480464625,69.62890625,NA
21211,Baltimore city,MD,88.0675818373812,NA,NA
21212,Baltimore city,MD,91.02428722280888,NA,NA
21213,Baltimore city,MD,NA,15.33203125,NA
21214,Baltimore city,MD,59.76768743400211,NA,NA
21217,Baltimore city,MD,24.70960929250264,NA,NA
21218,Baltimore city,MD,37.06441393875396,NA,9.826589595375722
21219,Baltimore County,MD,NA,NA,75.14450867052022
21220,Baltimore County,MD,NA,31.640625,NA
21222,Baltimore County,MD,5.174234424498416,52.9296875,10.01926782273603
21224,Baltimore city,MD,84.16050686378036,93.06640625,37.1868978805395
21227,Baltimore County,MD,53.854276663146784,NA,NA
21228,Baltimore County,MD,51.5311510031679,44.82421875,NA
21229,Baltimore city,MD,21.013727560718056,NA,NA
21230,Baltimore city,MD,91.86906019007391,NA,NA
21234,Baltimore County,MD,NA,58.10546875,9.248554913294797
21236,Baltimore County,MD,40.23231256599789,NA,NA
21239,Baltimore city,MD,NA,NA,31.984585741811177
21401,Anne Arundel County,MD,27.455121436114045,NA,NA
21502,Allegany County,MD,NA,21.19140625,NA
21617,Queen Anne's County,MD,NA,96.97265625,NA
21703,Frederick County,MD,60.4012671594509,NA,NA
21750,Washington County,MD,NA,97.55859375,NA
21791,Carroll County,MD,NA,97.55859375,NA
21811,Worcester County,MD,56.49419218585005,NA,NA
21903,Cecil County,MD,94.82576557550159,NA,NA
01020,Hampden County,MA,NA,12.40234375,NA
01105,Hampden County,MA,NA,12.6953125,NA
01201,Berkshire County,MA,0.10559662090813093,NA,NA
01220,Berkshire County,MA,NA,40.91796875,NA
01230,Berkshire County,MA,NA,79.296875,NA
01247,Berkshire County,MA,7.074973600844774,NA,NA
01364,Franklin County,MA,47.20168954593453,NA,NA
01450,Middlesex County,MA,NA,71.97265625,NA
01460,Middlesex County,MA,42.02745512143611,NA,NA
01463,Middlesex County,MA,NA,50.48828125,NA
01501,Worcester County,MA,34.84688489968321,NA,NA
01520,Worcester County,MA,43.822597676874345,NA,NA
01527,Worcester County,MA,NA,NA,86.31984585741812
01543,Worcester County,MA,73.60084477296726,NA,NA
01545,Worcester County,MA,19.640971488912353,NA,20.23121387283237
01550,Worcester County,MA,1.0559662090813093,NA,NA
01571,Worcester County,MA,NA,NA,87.861271676300575
01581,Worcester County,MA,NA,NA,89.21001926782274
01583,Worcester County,MA,NA,88.18359375,NA
01604,Worcester County,MA,NA,18.9453125,NA
01609,Worcester County,MA,NA,5.37109375,NA
01701,Middlesex County,MA,38.75395987328405,NA,12.716763005780345
01702,Middlesex County,MA,1.1615628299894403,30.46875,NA
01720,Middlesex County,MA,NA,33.203125,NA
01730,Middlesex County,MA,NA,NA,22.736030828516377
01752,Middlesex County,MA,3.167898627243928,NA,NA
01754,Middlesex County,MA,NA,53.80859375,NA
01760,Middlesex County,MA,NA,57.51953125,NA
01772,Worcester County,MA,NA,79.1015625,NA
01776,Middlesex County,MA,43.50580781414995,41.9921875,NA
01801,Middlesex County,MA,NA,11.9140625,NA
01803,Middlesex County,MA,NA,NA,4.8169556840077075
01810,Essex County,MA,NA,NA,22.928709055876688
01821,Middlesex County,MA,NA,NA,42.77456647398844
01824,Middlesex County,MA,NA,7.12890625,12.33140655105973
01826,Middlesex County,MA,4.540654699049631,NA,NA
01830,Essex County,MA,1.478352692713833,7.421875,NA
01832,Essex County,MA,NA,11.23046875,NA
01841,Essex County,MA,26.293558606124606,NA,6.551059730250482
01844,Essex County,MA,NA,NA,8.670520231213873
01862,Middlesex County,MA,NA,93.359375,NA
01863,Middlesex County,MA,53.115100316789864,NA,NA
01867,Middlesex County,MA,60.190073917634635,9.9609375,NA
01876,Middlesex County,MA,NA,55.37109375,12.716763005780345
01880,Middlesex County,MA,8.342133051742344,6.34765625,NA
01886,Middlesex County,MA,NA,32.6171875,54.72061657032755
01887,Middlesex County,MA,7.708553326293559,21.77734375,27.360308285163775
01890,Middlesex County,MA,44.56177402323125,33.0078125,NA
01902,Essex County,MA,NA,NA,4.046242774566474
01905,Essex County,MA,1.2671594508975714,NA,NA
01906,Essex County,MA,NA,38.96484375,NA
01907,Essex County,MA,NA,67.28515625,NA
01913,Essex County,MA,NA,40.234375,NA
01915,Essex County,MA,29.778247096092926,NA,NA
01929,Essex County,MA,NA,96.2890625,NA
01930,Essex County,MA,NA,0.68359375,NA
01938,Essex County,MA,NA,17.67578125,48.16955684007707
01945,Essex County,MA,NA,21.875,NA
01950,Essex County,MA,NA,25.5859375,24.277456647398843
01960,Essex County,MA,0.6335797254487857,20.8984375,0.3853564547206166
01966,Essex County,MA,NA,NA,93.44894026974951
01969,Essex County,MA,NA,79.6875,NA
01970,Essex County,MA,0.8447729672650475,NA,NA
01982,Essex County,MA,NA,82.8125,NA
01983,Essex County,MA,83.21013727560718,80.95703125,NA
02021,Norfolk County,MA,NA,NA,12.524084778420038
02026,Norfolk County,MA,4.963041182682154,NA,53.371868978805395
02043,Plymouth County,MA,86.6948257655755,NA,NA
02045,Plymouth County,MA,NA,81.640625,NA
02052,Norfolk County,MA,83.52692713833157,60.25390625,NA
02067,Norfolk County,MA,NA,70.41015625,83.8150289017341
02081,Norfolk County,MA,24.076029567053855,NA,NA
02093,Norfolk County,MA,NA,77.44140625,NA
02111,Suffolk County,MA,89.33474128827878,95.8984375,NA
02113,Suffolk County,MA,96.19852164730729,NA,NA
02114,Suffolk County,MA,20.16895459345301,NA,NA
02116,Suffolk County,MA,17.31784582893347,2.63671875,21.772639691714836
02118,Suffolk County,MA,23.442449841605068,NA,NA
02119,Suffolk County,MA,NA,NA,6.74373795761079
02121,Suffolk County,MA,NA,0.1953125,NA
02122,Suffolk County,MA,1.3727560718057021,13.0859375,NA
02124,Suffolk County,MA,0,NA,NA
02126,Suffolk County,MA,0.21119324181626187,NA,23.121387283236995
02127,Suffolk County,MA,37.27560718057022,36.9140625,NA
02128,Suffolk County,MA,3.8014783526927136,58.88671875,NA
02129,Suffolk County,MA,67.79303062302007,62.59765625,90.5587668593449
02130,Suffolk County,MA,9.820485744456176,1.66015625,NA
02131,Suffolk County,MA,64.41393875395988,NA,NA
02132,Suffolk County,MA,NA,35.25390625,NA
02134,Suffolk County,MA,13.833157338965151,NA,NA
02135,Suffolk County,MA,23.125659978880677,10.44921875,NA
02136,Suffolk County,MA,NA,4.19921875,NA
02138,Middlesex County,MA,14.149947201689548,5.76171875,52.408477842003855
02139,Middlesex County,MA,10.348468848996832,NA,NA
02140,Middlesex County,MA,19.21858500527983,42.3828125,NA
02143,Middlesex County,MA,6.546990496304119,NA,NA
02144,Middlesex County,MA,NA,11.328125,NA
02149,Middlesex County,MA,56.38859556494192,8.7890625,NA
02150,Suffolk County,MA,NA,0.9765625,NA
02151,Suffolk County,MA,1.583949313621964,54.4921875,56.06936416184971
02152,Suffolk County,MA,14.46673706441394,8.30078125,14.450867052023122
02155,Middlesex County,MA,20.802534318901795,0.390625,11.946050096339114
02169,Norfolk County,MA,NA,5.95703125,NA
02171,Norfolk County,MA,31.890179514255546,NA,NA
02176,Middlesex County,MA,NA,6.8359375,NA
02180,Middlesex County,MA,14.57233368532207,NA,NA
02184,Norfolk County,MA,NA,8.3984375,NA
02186,Norfolk County,MA,62.61879619852164,61.62109375,NA
02190,Norfolk County,MA,NA,35.25390625,NA
02301,Plymouth County,MA,NA,0,NA
02339,Plymouth County,MA,69.27138331573389,NA,NA
02351,Plymouth County,MA,NA,25.48828125,NA
02360,Plymouth County,MA,7.9197465681098205,0.09765625,2.119460500963391
02368,Norfolk County,MA,2.1119324181626187,5.078125,62.23506743737958
02420,Middlesex County,MA,37.59239704329461,92.3828125,NA
02421,Middlesex County,MA,NA,NA,52.215799614643544
02445,Norfolk County,MA,81.5205913410771,68.06640625,NA
02446,Norfolk County,MA,NA,34.47265625,NA
02452,Middlesex County,MA,NA,NA,83.62235067437379
02453,Middlesex County,MA,11.08764519535375,NA,NA
02458,Middlesex County,MA,94.50897571277719,NA,NA
02459,Middlesex County,MA,74.12882787750792,NA,16.955684007707127
02461,Middlesex County,MA,91.34107708553326,NA,NA
02465,Middlesex County,MA,NA,NA,48.554913294797686
02467,Norfolk County,MA,48.57444561774023,30.078125,NA
02468,Middlesex County,MA,85.95564941921859,NA,NA
02472,Middlesex County,MA,8.553326293558607,NA,NA
02476,Middlesex County,MA,38.85955649419219,NA,NA
02478,Middlesex County,MA,55.43822597676874,25.68359375,41.811175337186896
02482,Norfolk County,MA,88.3843717001056,NA,NA
02492,Norfolk County,MA,NA,27.9296875,NA
02493,Middlesex County,MA,NA,68.1640625,NA
02494,Norfolk County,MA,82.36536430834214,NA,NA
02537,Barnstable County,MA,84.58289334741288,NA,NA
02568,Dukes County,MA,NA,NA,80.15414258188824
02601,Barnstable County,MA,NA,24.70703125,NA
02631,Barnstable County,MA,NA,89.2578125,NA
02638,Barnstable County,MA,NA,NA,96.14643545279384
02655,Barnstable County,MA,NA,98.92578125,NA
02675,Barnstable County,MA,NA,71.38671875,NA
02702,Bristol County,MA,NA,97.8515625,NA
02703,Bristol County,MA,8.236536430834214,NA,NA
02718,Bristol County,MA,NA,79.1015625,NA
02719,Bristol County,MA,NA,48.73046875,NA
02726,Bristol County,MA,NA,65.234375,NA
02740,Bristol County,MA,NA,NA,0.5780346820809248
02748,Bristol County,MA,NA,52.63671875,NA
02771,Bristol County,MA,40.12671594508976,NA,NA
48001,St. Clair County,MI,NA,69.04296875,NA
48021,Macomb County,MI,12.777191129883844,NA,NA
48026,Macomb County,MI,NA,NA,56.84007707129094
48030,Oakland County,MI,NA,59.86328125,NA
48033,Oakland County,MI,NA,33.10546875,NA
48035,Macomb County,MI,36.8532206969377,40.0390625,NA
48036,Macomb County,MI,29.989440337909183,NA,NA
48040,St. Clair County,MI,70.96092925026399,NA,NA
48044,Macomb County,MI,10.03167898627244,NA,NA
48045,Macomb County,MI,26.504751847940867,NA,NA
48047,Macomb County,MI,NA,47.94921875,NA
48054,St. Clair County,MI,87.85638859556494,NA,NA
48059,St. Clair County,MI,NA,44.23828125,NA
48065,Macomb County,MI,74.97360084477297,74.21875,NA
48071,Oakland County,MI,27.666314677930302,NA,NA
48073,Oakland County,MI,31.25659978880676,34.86328125,NA
48081,Macomb County,MI,NA,25.390625,NA
48084,Oakland County,MI,76.97993664202745,NA,NA
48085,Oakland County,MI,NA,28.3203125,NA
48089,Macomb County,MI,9.926082365364309,NA,NA
48093,Macomb County,MI,51.319957761351645,NA,NA
48094,Macomb County,MI,NA,49.31640625,NA
48101,Wayne County,MI,NA,NA,26.589595375722542
48103,Washtenaw County,MI,92.18585005279832,76.46484375,3.275529865125241
48104,Washtenaw County,MI,75.60718057022176,82.421875,NA
48105,Washtenaw County,MI,NA,16.015625,76.6859344894027
48108,Washtenaw County,MI,80.46462513199577,NA,NA
48111,Wayne County,MI,7.81414994720169,NA,82.85163776493256
48114,Livingston County,MI,51.63674762407603,62.40234375,NA
48116,Livingston County,MI,30.095036958817317,NA,NA
48117,Monroe County,MI,52.58711721224921,NA,NA
48124,Wayne County,MI,22.280887011615626,NA,NA
48126,Wayne County,MI,12.565997888067582,NA,20.03853564547206
48128,Wayne County,MI,NA,77.9296875,NA
48130,Washtenaw County,MI,NA,93.84765625,NA
48135,Wayne County,MI,25.02639915522703,25.68359375,NA
48138,Wayne County,MI,NA,58.59375,79.38342967244701
48141,Wayne County,MI,10.559662090813093,NA,NA
48146,Wayne County,MI,33.896515311510036,NA,NA
48152,Wayne County,MI,NA,5.56640625,14.258188824662813
48154,Wayne County,MI,NA,NA,10.404624277456648
48158,Washtenaw County,MI,NA,NA,85.35645472061657
48160,Washtenaw County,MI,NA,56.640625,NA
48162,Monroe County,MI,14.361140443505807,NA,20.423892100192678
48167,Oakland County,MI,70.53854276663147,NA,NA
48168,Wayne County,MI,NA,NA,36.60886319845857
48169,Livingston County,MI,NA,65.33203125,NA
48170,Wayne County,MI,15.839493136219641,43.65234375,NA
48174,Wayne County,MI,8.764519535374868,16.69921875,NA
48176,Washtenaw County,MI,81.62618796198522,NA,NA
48178,Oakland County,MI,64.94192185850054,46.6796875,NA
48180,Wayne County,MI,34.10770855332629,NA,NA
48182,Monroe County,MI,NA,41.69921875,NA
48183,Wayne County,MI,11.298838437170012,NA,48.94026974951831
48185,Wayne County,MI,NA,6.640625,11.753371868978805
48186,Wayne County,MI,NA,12.890625,NA
48187,Wayne County,MI,12.671594508975712,NA,NA
48188,Wayne County,MI,NA,8.0078125,NA
48189,Washtenaw County,MI,NA,80.6640625,NA
48192,Wayne County,MI,21.119324181626187,NA,NA
48197,Washtenaw County,MI,44.87856388595565,18.5546875,21.965317919075144
48198,Washtenaw County,MI,17.529039070749736,NA,NA
48203,Wayne County,MI,45.30095036958817,NA,NA
48208,Wayne County,MI,55.54382259767687,NA,NA
48212,Wayne County,MI,12.143611404435058,NA,NA
48214,Wayne County,MI,NA,26.07421875,NA
48220,Oakland County,MI,46.462513199577614,NA,NA
48223,Wayne County,MI,NA,71.09375,NA
48224,Wayne County,MI,2.534318901795143,NA,NA
48230,Wayne County,MI,NA,36.81640625,NA
48236,Wayne County,MI,NA,15.0390625,NA
48238,Wayne County,MI,NA,NA,38.15028901734104
48302,Oakland County,MI,92.92502639915523,NA,35.26011560693642
48304,Oakland County,MI,65.68109820485745,NA,NA
48310,Macomb County,MI,NA,13.671875,NA
48313,Macomb County,MI,NA,24.21875,NA
48315,Macomb County,MI,41.07708553326294,NA,NA
48316,Macomb County,MI,70.3273495248152,NA,NA
48323,Oakland County,MI,NA,NA,40.46242774566474
48335,Oakland County,MI,NA,90.625,NA
48348,Oakland County,MI,37.38120380147835,NA,NA
48350,Oakland County,MI,NA,98.4375,NA
48353,Livingston County,MI,91.76346356916578,84.86328125,NA
48357,Oakland County,MI,82.5765575501584,NA,NA
48371,Oakland County,MI,NA,NA,66.66666666666666
48380,Oakland County,MI,NA,75.68359375,NA
48386,Oakland County,MI,NA,42.28515625,NA
48390,Oakland County,MI,69.37697993664203,NA,NA
48393,Oakland County,MI,46.884899683210136,NA,NA
48423,Genesee County,MI,63.88595564941922,NA,NA
48429,Shiawassee County,MI,NA,67.7734375,NA
48430,Genesee County,MI,NA,NA,62.042389210019266
48439,Genesee County,MI,NA,16.89453125,17.726396917148364
48446,Lapeer County,MI,16.78986272439282,NA,NA
48455,Lapeer County,MI,81.20380147835269,NA,NA
48458,Genesee County,MI,32.52375923970433,NA,NA
48603,Saginaw County,MI,NA,39.74609375,NA
48609,Saginaw County,MI,NA,62.6953125,NA
48618,Midland County,MI,84.26610348468849,NA,NA
48623,Saginaw County,MI,NA,47.94921875,NA
48634,Bay County,MI,95.35374868004224,NA,NA
48640,Midland County,MI,12.038014783526927,NA,9.441233140655106
48642,Midland County,MI,21.964097148891234,8.203125,NA
48706,Bay County,MI,9.292502639915522,NA,NA
48708,Bay County,MI,51.00316789862725,NA,NA
48734,Saginaw County,MI,NA,74.4140625,NA
48759,Huron County,MI,NA,NA,76.6859344894027
48763,Iosco County,MI,NA,NA,81.5028901734104
48809,Ionia County,MI,NA,73.53515625,NA
48843,Livingston County,MI,71.91129883843716,27.734375,NA
48855,Livingston County,MI,NA,48.53515625,NA
48858,Isabella County,MI,7.1805702217529035,NA,NA
48867,Shiawassee County,MI,8.130939809926083,NA,NA
48893,Isabella County,MI,NA,NA,88.0539499036609
48895,Ingham County,MI,NA,80.56640625,NA
48911,Ingham County,MI,NA,16.30859375,NA
49006,Kalamazoo County,MI,50.263991552270326,NA,NA
49009,Kalamazoo County,MI,NA,8.88671875,NA
49015,Calhoun County,MI,48.36325237592397,NA,NA
49022,Berrien County,MI,NA,NA,23.50674373795761
49024,Kalamazoo County,MI,NA,24.0234375,31.213872832369944
49037,Calhoun County,MI,NA,32.71484375,NA
49065,Van Buren County,MI,74.7624076029567,NA,NA
49068,Calhoun County,MI,NA,45.5078125,NA
49073,Barry County,MI,NA,NA,96.53179190751445
49091,St. Joseph County,MI,45.51214361140444,NA,NA
49093,St. Joseph County,MI,32.20696937697994,NA,NA
49201,Jackson County,MI,10.876451953537487,NA,NA
49203,Jackson County,MI,NA,7.6171875,NA
49221,Lenawee County,MI,4.0126715945089755,NA,NA
49224,Calhoun County,MI,53.643083421330516,NA,NA
49251,Ingham County,MI,NA,82.12890625,NA
49253,Lenawee County,MI,NA,98.046875,NA
49265,Lenawee County,MI,NA,88.4765625,NA
49283,Jackson County,MI,99.78880675818374,NA,NA
49285,Ingham County,MI,81.62618796198522,NA,NA
49331,Kent County,MI,50.158394931362196,NA,NA
49341,Kent County,MI,30.834213305174234,NA,NA
49346,Mecosta County,MI,93.76979936642027,NA,NA
49404,Ottawa County,MI,85.53326293558607,NA,NA
49428,Ottawa County,MI,77.5079197465681,NA,NA
49431,Mason County,MI,NA,60.7421875,NA
49441,Muskegon County,MI,41.81626187961985,NA,4.624277456647398
49442,Muskegon County,MI,3.2734952481520594,NA,NA
49456,Ottawa County,MI,44.66737064413939,NA,NA
49464,Ottawa County,MI,77.08553326293558,NA,NA
49503,Kent County,MI,NA,NA,51.252408477842
49519,Kent County,MI,NA,64.453125,NA
49546,Kent County,MI,NA,NA,18.304431599229286
49548,Kent County,MI,9.081309398099261,NA,NA
49684,Grand Traverse County,MI,NA,27.44140625,NA
49696,Grand Traverse County,MI,75.18479408658922,NA,NA
49783,Chippewa County,MI,22.70327349524815,NA,NA
49801,Dickinson County,MI,63.04118268215417,NA,NA
49802,Dickinson County,MI,NA,89.55078125,NA
49855,Marquette County,MI,NA,17.96875,NA
55009,Goodhue County,MN,NA,NA,89.40269749518305
55328,Wright County,MN,NA,NA,66.85934489402698
55337,Dakota County,MN,NA,NA,35.64547206165704
55341,Wright County,MN,99.57761351636748,NA,NA
55347,Hennepin County,MN,65.89229144667371,NA,NA
55350,McLeod County,MN,30.728616684266104,NA,NA
55356,Hennepin County,MN,98.73284054910243,NA,NA
55364,Hennepin County,MN,NA,NA,94.60500963391137
55404,Hennepin County,MN,NA,2.5390625,NA
55408,Hennepin County,MN,NA,NA,91.71483622350675
55412,Hennepin County,MN,34.84688489968321,NA,NA
55422,Hennepin County,MN,NA,41.11328125,NA
55439,Hennepin County,MN,NA,NA,88.2466281310212
55720,Carlton County,MN,NA,NA,45.472061657032754
55721,Itasca County,MN,NA,100,NA
55734,St. Louis County,MN,NA,NA,66.08863198458575
55746,St. Louis County,MN,26.610348468848997,66.89453125,67.63005780346822
55792,St. Louis County,MN,37.17001055966209,NA,NA
55803,St. Louis County,MN,NA,81.54296875,NA
55804,St. Louis County,MN,69.69376979936642,36.42578125,63.19845857418112
55805,St. Louis County,MN,NA,NA,97.88053949903662
55810,St. Louis County,MN,87.64519535374869,NA,NA
55811,St. Louis County,MN,NA,4.8828125,74.95183044315993
55812,St. Louis County,MN,NA,NA,84.58574181117534
55912,Mower County,MN,NA,25.87890625,NA
55921,Houston County,MN,NA,81.4453125,66.28131021194605
55947,Houston County,MN,NA,83.984375,NA
55987,Winona County,MN,34.42449841605069,43.45703125,22.15799614643545
56007,Freeborn County,MN,NA,NA,2.697495183044316
56013,Faribault County,MN,NA,NA,77.45664739884393
56031,Martin County,MN,NA,NA,50.481695568400774
56081,Watonwan County,MN,79.61985216473073,70.1171875,NA
56093,Waseca County,MN,NA,NA,30.443159922928707
56101,Cottonwood County,MN,NA,71.58203125,NA
56164,Pipestone County,MN,NA,NA,53.179190751445084
56267,Stevens County,MN,66.31467793030623,NA,NA
56283,Redwood County,MN,NA,82.03125,NA
56334,Pope County,MN,NA,NA,68.97880539499036
56345,Morrison County,MN,NA,38.18359375,NA
56364,Morrison County,MN,NA,95.703125,NA
56444,Crow Wing County,MN,95.03695881731784,NA,NA
56470,Hubbard County,MN,NA,37.3046875,74.373795761079
56479,Todd County,MN,NA,NA,71.86897880539499
56482,Wadena County,MN,49.41921858500528,NA,NA
56501,Becker County,MN,NA,76.953125,85.74181117533719
56529,Clay County,MN,94.29778247096094,NA,NA
56560,Clay County,MN,NA,47.265625,15.992292870905588
56649,Koochiching County,MN,NA,57.6171875,NA
56721,Polk County,MN,78.66948257655754,NA,NA
56762,Marshall County,MN,NA,99.31640625,NA
39042,Rankin County,MS,NA,29.8828125,NA
39046,Madison County,MS,NA,53.515625,NA
39090,Attala County,MS,NA,NA,79.1907514450867
39305,Lauderdale County,MS,53.74868004223865,NA,NA
39466,Pearl River County,MS,NA,NA,24.470134874759154
39482,Lamar County,MS,85.42766631467794,NA,NA
39520,Hancock County,MS,NA,38.8671875,NA
63011,St. Louis County,MO,NA,19.43359375,NA
63026,St. Louis County,MO,NA,13.76953125,NA
63119,St. Louis County,MO,65.36430834213304,NA,NA
63401,Marion County,MO,48.04646251319958,NA,NA
63628,St. Francois County,MO,NA,64.55078125,NA
64012,Cass County,MO,59.97888067581837,NA,43.15992292870906
64029,Jackson County,MO,NA,77.05078125,NA
64064,Jackson County,MO,51.74234424498416,NA,NA
64078,Cass County,MO,67.15945089757128,NA,NA
64080,Cass County,MO,83.21013727560718,NA,NA
64081,Jackson County,MO,46.25131995776135,NA,NA
64089,Clay County,MO,77.93030623020063,NA,NA
64093,Johnson County,MO,NA,NA,49.90366088631985
64118,Clay County,MO,5.913410770855332,NA,NA
64131,Jackson County,MO,16.367476240760297,NA,NA
64151,Platte County,MO,32.946145723336855,NA,NA
64424,Harrison County,MO,84.79408658922914,NA,NA
64503,Buchanan County,MO,74.44561774023232,NA,50.67437379576107
64505,Buchanan County,MO,63.674762407602955,NA,NA
64506,Buchanan County,MO,NA,34.9609375,NA
64507,Buchanan County,MO,59.13410770855333,NA,NA
64735,Henry County,MO,NA,41.50390625,NA
65018,Moniteau County,MO,NA,NA,95.95375722543352
65201,Boone County,MO,NA,61.71875,NA
65202,Boone County,MO,NA,NA,21.57996146435453
65203,Boone County,MO,26.08236536430834,42.1875,NA
65336,Johnson County,MO,NA,99.90234375,NA
65340,Saline County,MO,NA,60.64453125,NA
65622,Dallas County,MO,NA,NA,60.69364161849711
65803,Greene County,MO,NA,NA,24.85549132947977
59404,Cascade County,MT,44.98416050686378,11.5234375,52.02312138728323
59405,Cascade County,MT,31.045406546990495,18.1640625,NA
68136,Sarpy County,NE,NA,87.6953125,NA
68137,Douglas County,NE,NA,NA,63.969171483622354
68467,York County,NE,NA,64.2578125,NA
68505,Lancaster County,NE,NA,NA,82.85163776493256
68516,Lancaster County,NE,NA,NA,51.83044315992292
68713,Holt County,NE,NA,99.4140625,NA
89138,Clark County,NV,87.7507919746568,NA,NA
89410,Douglas County,NV,NA,NA,43.93063583815029
89506,Washoe County,NV,21.541710665258712,NA,NA
03045,Hillsborough County,NH,67.89862724392819,NA,67.05202312138728
03053,Rockingham County,NH,29.250263991552274,NA,NA
03054,Hillsborough County,NH,33.36853220696938,NA,NA
03062,Hillsborough County,NH,21.22492080253432,NA,NA
03070,Hillsborough County,NH,92.29144667370645,NA,NA
03077,Rockingham County,NH,69.58817317845829,NA,NA
03087,Rockingham County,NH,NA,53.61328125,NA
03103,Hillsborough County,NH,6.863780359028511,NA,NA
03104,Hillsborough County,NH,NA,14.453125,NA
03249,Belknap County,NH,NA,69.53125,NA
03254,Carroll County,NH,NA,84.5703125,NA
03257,Merrimack County,NH,NA,NA,68.78612716763006
03301,Merrimack County,NH,NA,NA,8.863198458574182
03431,Cheshire County,NH,NA,63.18359375,59.73025048169557
03446,Cheshire County,NH,NA,NA,89.59537572254335
03452,Cheshire County,NH,NA,NA,72.44701348747591
03458,Hillsborough County,NH,NA,76.26953125,NA
03461,Cheshire County,NH,93.45300950369588,NA,NA
03570,Coos County,NH,87.0116156282999,NA,NA
03743,Sullivan County,NH,53.431890179514255,85.15625,38.34296724470135
03755,Grafton County,NH,NA,94.62890625,95.56840077071291
03766,Grafton County,NH,NA,89.35546875,83.42967244701349
03773,Sullivan County,NH,NA,67.67578125,NA
03820,Strafford County,NH,NA,39.0625,NA
03826,Rockingham County,NH,97.88806758183738,NA,NA
03840,Rockingham County,NH,99.04963041182681,NA,NA
03865,Rockingham County,NH,84.47729672650475,NA,NA
03874,Rockingham County,NH,NA,55.95703125,NA
07013,Passaic County,NJ,41.71066525871172,NA,NA
07026,Bergen County,NJ,NA,28.80859375,NA
07032,Hudson County,NJ,NA,31.93359375,NA
07036,Union County,NJ,11.826821541710665,NA,NA
07039,Essex County,NJ,22.49208025343189,37.20703125,NA
07041,Essex County,NJ,NA,NA,93.25626204238921
07045,Morris County,NJ,NA,85.83984375,NA
07059,Somerset County,NJ,NA,NA,85.16377649325626
07063,Union County,NJ,61.56282998944034,NA,NA
07083,Union County,NJ,18.373812038014783,NA,NA
07110,Essex County,NJ,NA,56.34765625,NA
07208,Union County,NJ,15.73389651531151,NA,NA
07302,Hudson County,NJ,NA,95.3125,NA
07410,Bergen County,NJ,49.63041182682154,NA,NA
07430,Bergen County,NJ,NA,50.68359375,NA
07438,Morris County,NJ,NA,NA,82.08092485549133
07601,Bergen County,NJ,NA,5.859375,NA
07630,Bergen County,NJ,98.31045406546991,NA,NA
07640,Bergen County,NJ,NA,87.79296875,NA
07670,Bergen County,NJ,NA,86.5234375,NA
07726,Monmouth County,NJ,NA,NA,70.13487475915221
07733,Monmouth County,NJ,83.10454065469905,NA,NA
07734,Monmouth County,NJ,23.231256599788807,NA,NA
07751,Monmouth County,NJ,NA,93.75,NA
07753,Monmouth County,NJ,6.019007391763464,NA,NA
07757,Monmouth County,NJ,NA,94.3359375,NA
07764,Monmouth County,NJ,87.96198521647307,NA,NA
07828,Morris County,NJ,98.9440337909187,NA,NA
07830,Hunterdon County,NJ,NA,98.73046875,NA
07840,Warren County,NJ,NA,NA,70.90558766859345
07920,Somerset County,NJ,80.35902851108764,59.9609375,67.82273603082851
07921,Somerset County,NJ,NA,97.265625,96.91714836223507
07922,Union County,NJ,NA,86.328125,NA
07960,Morris County,NJ,21.752903907074973,NA,92.10019267822736
08002,Camden County,NJ,NA,NA,75.72254335260115
08003,Camden County,NJ,NA,40.72265625,NA
08010,Burlington County,NJ,NA,NA,99.42196531791907
08012,Camden County,NJ,6.652587117212249,NA,46.82080924855491
08028,Gloucester County,NJ,NA,55.078125,NA
08048,Burlington County,NJ,NA,84.1796875,NA
08053,Burlington County,NJ,NA,61.23046875,NA
08055,Burlington County,NJ,NA,NA,40.655105973025044
08057,Burlington County,NJ,NA,54.78515625,NA
08062,Gloucester County,NJ,37.80359028511088,NA,NA
08087,Ocean County,NJ,NA,17.08984375,NA
08096,Gloucester County,NJ,NA,NA,22.350674373795762
08110,Camden County,NJ,15.417106652587117,97.36328125,NA
08204,Cape May County,NJ,NA,NA,36.80154142581888
08205,Atlantic County,NJ,NA,23.73046875,NA
08401,Atlantic County,NJ,NA,23.14453125,NA
08505,Burlington County,NJ,NA,NA,65.51059730250482
08512,Mercer County,NJ,NA,94.921875,NA
08540,Mercer County,NJ,NA,36.1328125,36.41618497109826
08610,Mercer County,NJ,9.503695881731785,NA,NA
08620,Mercer County,NJ,NA,83.69140625,NA
08750,Monmouth County,NJ,NA,98.2421875,NA
08757,Ocean County,NJ,NA,NA,1.7341040462427744
08759,Ocean County,NJ,NA,NA,0
08801,Hunterdon County,NJ,80.78141499472017,NA,NA
08807,Somerset County,NJ,NA,73.046875,NA
08822,Hunterdon County,NJ,25.237592397043297,34.5703125,NA
08831,Middlesex County,NJ,NA,38.57421875,NA
08833,Hunterdon County,NJ,94.1921858500528,NA,NA
08840,Middlesex County,NJ,NA,70.01953125,NA
08844,Somerset County,NJ,NA,58.0078125,NA
08850,Middlesex County,NJ,95.8817317845829,NA,NA
08854,Middlesex County,NJ,NA,45.21484375,NA
08873,Somerset County,NJ,NA,NA,23.892100192678228
08889,Hunterdon County,NJ,90.8130939809926,NA,NA
87002,Valencia County,NM,NA,53.80859375,NA
87026,Valencia County,NM,NA,99.21875,NA
87107,Bernalillo County,NM,64.51953537486801,NA,NA
87108,Bernalillo County,NM,NA,4.4921875,NA
87109,Bernalillo County,NM,48.99683210137275,NA,NA
87121,Bernalillo County,NM,NA,5.46875,NA
87571,Taos County,NM,54.91024287222809,NA,NA
88021,Doa Ana County,NM,NA,79.58984375,NA
10002,New York County,NY,3.907074973600845,NA,NA
10011,New York County,NY,NA,19.62890625,NA
10016,New York County,NY,36.642027455121436,NA,NA
10019,New York County,NY,NA,NA,27.9383429672447
10022,New York County,NY,NA,NA,30.057803468208093
10023,New York County,NY,NA,14.94140625,53.94990366088632
10024,New York County,NY,NA,25.1953125,NA
10025,New York County,NY,6.9693769799366425,1.07421875,NA
10028,New York County,NY,NA,31.4453125,NA
10029,New York County,NY,0.42238648363252373,NA,NA
10031,New York County,NY,10.2428722280887,16.40625,NA
10033,New York County,NY,18.796198521647305,NA,NA
10038,New York County,NY,75.39598732840548,NA,NA
10040,New York County,NY,NA,20.60546875,NA
10451,Bronx County,NY,NA,6.0546875,NA
10452,Bronx County,NY,18.057022175290392,NA,NA
10453,Bronx County,NY,NA,0.78125,NA
10454,Bronx County,NY,NA,32.32421875,33.71868978805395
10455,Bronx County,NY,4.329461457233368,NA,NA
10458,Bronx County,NY,NA,0.29296875,10.982658959537572
10459,Bronx County,NY,NA,9.5703125,NA
10461,Bronx County,NY,NA,19.82421875,NA
10463,Bronx County,NY,NA,NA,47.398843930635834
10466,Bronx County,NY,NA,NA,15.606936416184972
10467,Bronx County,NY,0.31678986272439286,NA,2.8901734104046244
10473,Bronx County,NY,NA,6.4453125,NA
10520,Westchester County,NY,NA,74.70703125,NA
10530,Westchester County,NY,NA,NA,58.38150289017341
10541,Putnam County,NY,84.89968321013728,91.11328125,60.308285163776496
10567,Westchester County,NY,NA,NA,88.6319845857418
10573,Westchester County,NY,NA,NA,37.57225433526011
10703,Westchester County,NY,NA,NA,59.15221579961464
10710,Westchester County,NY,NA,NA,48.36223506743738
10927,Rockland County,NY,NA,99.609375,NA
10941,Orange County,NY,NA,96.58203125,NA
10960,Rockland County,NY,NA,96.09375,NA
11096,Nassau County,NY,NA,93.1640625,NA
11201,Kings County,NY,NA,22.36328125,NA
11209,Kings County,NY,NA,21.38671875,NA
11223,Kings County,NY,NA,13.96484375,NA
11229,Kings County,NY,NA,NA,5.973025048169557
11233,Kings County,NY,1.689545934530095,NA,NA
11249,Kings County,NY,65.04751847940867,NA,NA
11368,Queens County,NY,8.658922914466736,NA,NA
11377,Queens County,NY,19.746568109820487,NA,NA
11378,Queens County,NY,NA,83.203125,NA
11420,Queens County,NY,47.51847940865892,NA,NA
11518,Nassau County,NY,NA,NA,98.26589595375722
11530,Nassau County,NY,NA,81.640625,NA
11735,Nassau County,NY,NA,60.546875,NA
11776,Suffolk County,NY,NA,55.46875,NA
11779,Suffolk County,NY,NA,48.33984375,NA
11780,Suffolk County,NY,NA,NA,65.3179190751445
11935,Suffolk County,NY,100,NA,NA
12010,Montgomery County,NY,5.4910242872228086,NA,NA
12037,Columbia County,NY,NA,NA,92.8709055876686
12078,Fulton County,NY,NA,9.765625,NA
12122,Schoharie County,NY,71.48891235480464,73.33984375,NA
12180,Rensselaer County,NY,2.428722280887012,NA,NA
12206,Albany County,NY,NA,48.92578125,NA
12901,Clinton County,NY,3.062302006335797,3.90625,NA
12946,Essex County,NY,NA,58.49609375,NA
12962,Clinton County,NY,NA,71.2890625,NA
12983,Franklin County,NY,NA,51.46484375,NA
12986,Franklin County,NY,63.99155227032735,NA,NA
13032,Madison County,NY,NA,44.53125,NA
13039,Onondaga County,NY,NA,63.28125,NA
13104,Onondaga County,NY,NA,45.3125,NA
13116,Onondaga County,NY,89.96832101372756,NA,NA
13165,Seneca County,NY,28.827877507919748,NA,NA
13204,Onondaga County,NY,NA,53.125,NA
13207,Onondaga County,NY,NA,70.703125,NA
13208,Onondaga County,NY,NA,38.0859375,NA
13323,Oneida County,NY,NA,49.21875,NA
13326,Otsego County,NY,70.432946145723335,82.91015625,NA
13327,Lewis County,NY,NA,96.19140625,NA
13340,Herkimer County,NY,NA,NA,68.59344894026975
13346,Madison County,NY,NA,54.58984375,NA
13348,Otsego County,NY,94.08658922914466,NA,NA
13350,Herkimer County,NY,NA,34.27734375,86.70520231213872
13357,Herkimer County,NY,36.325237592397045,NA,NA
13402,Madison County,NY,98.6272439281943,NA,NA
13407,Herkimer County,NY,82.15417106652588,NA,NA
13439,Otsego County,NY,80.25343189017951,NA,NA
13461,Oneida County,NY,89.01795142555439,98.046875,NA
13492,Oneida County,NY,62.93558606124604,NA,NA
13601,Jefferson County,NY,23.5480464625132,52.34375,22.54335260115607
13676,St. Lawrence County,NY,NA,NA,34.296724470134876
13732,Tioga County,NY,45.934530095036955,NA,72.83236994219652
13733,Chenango County,NY,86.16684266103485,NA,NA
13760,Broome County,NY,9.398099260823653,NA,32.5626204238921
13790,Broome County,NY,NA,NA,18.497109826589593
13815,Chenango County,NY,15.945089757127773,NA,NA
13820,Otsego County,NY,79.5142555438226,7.32421875,NA
13827,Tioga County,NY,70.96092925026399,34.66796875,57.22543352601156
13850,Broome County,NY,NA,NA,7.514450867052023
13856,Delaware County,NY,50.05279831045406,36.62109375,NA
13901,Broome County,NY,39.281942977824706,NA,NA
13905,Broome County,NY,1.7951425554382259,NA,NA
14020,Genesee County,NY,13.938753959873285,NA,NA
14043,Erie County,NY,34.31890179514255,NA,NA
14047,Erie County,NY,78.14149947201689,NA,NA
14048,Chautauqua County,NY,68.42661034846886,NA,NA
14103,Orleans County,NY,NA,NA,78.80539499036608
14120,Niagara County,NY,NA,NA,27.552986512524086
14210,Erie County,NY,NA,43.1640625,NA
14211,Erie County,NY,NA,17.48046875,NA
14213,Erie County,NY,NA,73.14453125,NA
14215,Erie County,NY,2.0063357972544877,NA,NA
14216,Erie County,NY,NA,39.94140625,NA
14220,Erie County,NY,15.522703273495248,26.5625,NA
14224,Erie County,NY,6.335797254487856,70.21484375,NA
14225,Erie County,NY,10.770855332629356,NA,NA
14226,Erie County,NY,NA,37.3046875,NA
14228,Erie County,NY,46.568109820485745,NA,NA
14304,Niagara County,NY,4.857444561774024,NA,NA
14414,Livingston County,NY,62.30200633579726,NA,NA
14424,Ontario County,NY,2.7455121436114043,NA,NA
14425,Ontario County,NY,NA,26.7578125,NA
14450,Monroe County,NY,19.1129883843717,1.171875,NA
14456,Ontario County,NY,NA,4.00390625,NA
14468,Monroe County,NY,48.89123548046462,NA,NA
14470,Orleans County,NY,46.25131995776135,NA,NA
14476,Orleans County,NY,93.34741288278775,NA,NA
14485,Livingston County,NY,78.14149947201689,NA,NA
14489,Wayne County,NY,33.57972544878564,NA,56.26204238921002
14502,Wayne County,NY,60.084477296726504,NA,73.21772639691714
14513,Wayne County,NY,26.187961985216475,NA,NA
14514,Monroe County,NY,66.52587117212249,NA,NA
14519,Wayne County,NY,24.39281942977825,NA,NA
14522,Wayne County,NY,NA,27.83203125,NA
14525,Genesee County,NY,NA,98.828125,NA
14532,Ontario County,NY,53.220696937697994,NA,NA
14534,Monroe County,NY,29.883843717001056,NA,NA
14559,Monroe County,NY,13.305174234424499,NA,NA
14561,Ontario County,NY,78.77507919746569,NA,NA
14564,Ontario County,NY,NA,18.26171875,NA
14580,Monroe County,NY,19.535374868004222,NA,NA
14605,Monroe County,NY,10.982048574445617,NA,NA
14610,Monroe County,NY,31.362196409714887,NA,NA
14612,Monroe County,NY,NA,1.3671875,NA
14617,Monroe County,NY,7.391763463569166,NA,NA
14618,Monroe County,NY,NA,43.75,NA
14621,Monroe County,NY,0.5279831045406547,NA,NA
14622,Monroe County,NY,NA,20.99609375,NA
14623,Monroe County,NY,19.32418162618796,NA,NA
14624,Monroe County,NY,18.479408658922914,37.79296875,NA
14626,Monroe County,NY,NA,3.125,11.368015414258188
14701,Chautauqua County,NY,NA,37.109375,NA
14727,Allegany County,NY,NA,76.26953125,NA
14750,Chautauqua County,NY,NA,89.453125,NA
14757,Chautauqua County,NY,NA,97.75390625,NA
14847,Seneca County,NY,89.65153115100317,NA,NA
14867,Tompkins County,NY,61.246040126715954,NA,NA
14870,Steuben County,NY,NA,66.796875,NA
27006,Davie County,NC,NA,26.953125,NA
27013,Rowan County,NC,NA,95.1171875,NA
27027,Rockingham County,NC,NA,NA,70.71290944123314
27040,Forsyth County,NC,92.39704329461456,28.3203125,NA
27055,Yadkin County,NC,NA,45.8984375,NA
27103,Forsyth County,NC,NA,38.37890625,2.5048169556840074
27104,Forsyth County,NC,NA,33.30078125,NA
27105,Forsyth County,NC,NA,NA,11.560693641618498
27106,Forsyth County,NC,14.994720168954592,73.73046875,NA
27107,Forsyth County,NC,NA,NA,3.8535645472061653
27127,Forsyth County,NC,16.578669482576558,NA,NA
27215,Alamance County,NC,NA,NA,44.89402697495183
27284,Forsyth County,NC,NA,16.11328125,6.165703275529865
27330,Lee County,NC,24.181626187961985,NA,NA
27410,Guilford County,NC,33.051742344244985,NA,NA
27502,Wake County,NC,60.50686378035903,NA,NA
27514,Orange County,NC,58.18373812038015,NA,NA
27517,Orange County,NC,NA,78.3203125,NA
27519,Wake County,NC,NA,52.1484375,NA
27523,Wake County,NC,NA,93.45703125,NA
27526,Wake County,NC,28.93347412882788,NA,NA
27539,Wake County,NC,58.28933474128828,NA,NA
27545,Wake County,NC,NA,48.2421875,NA
27565,Granville County,NC,NA,NA,33.140655105973025
27609,Wake County,NC,NA,33.7890625,NA
27610,Wake County,NC,8.447729672650475,NA,NA
27617,Wake County,NC,81.9429778247096,NA,NA
27701,Durham County,NC,47.62407602956705,NA,NA
27703,Durham County,NC,57.022175290390706,NA,NA
27705,Durham County,NC,23.65364308342133,13.37890625,NA
27707,Durham County,NC,NA,8.49609375,NA
27932,Chowan County,NC,NA,NA,43.54527938342967
27958,Currituck County,NC,NA,95.01953125,NA
28031,Mecklenburg County,NC,59.345300950369584,NA,NA
28078,Mecklenburg County,NC,63.569165786694825,NA,NA
28115,Iredell County,NC,23.336853220696938,NA,NA
28119,Anson County,NC,NA,NA,100
28303,Cumberland County,NC,NA,44.140625,NA
28305,Cumberland County,NC,NA,77.734375,NA
28311,Cumberland County,NC,NA,NA,44.3159922928709
28328,Sampson County,NC,35.691657866948255,NA,NA
28374,Moore County,NC,NA,50.390625,NA
28540,Onslow County,NC,NA,NA,37.957610789980734
28601,Catawba County,NC,16.050686378035902,NA,NA
28645,Caldwell County,NC,NA,NA,3.4682080924855487
28701,Buncombe County,NC,99.89440337909187,NA,NA
28711,Buncombe County,NC,NA,73.4375,NA
58075,Richland County,ND,NA,93.65234375,NA
58078,Cass County,ND,27.560718057022175,NA,NA
58103,Cass County,ND,NA,NA,3.0828516377649327
58104,Cass County,ND,NA,12.59765625,49.71098265895954
58201,Grand Forks County,ND,NA,NA,42.00385356454721
58203,Grand Forks County,ND,52.798310454065465,NA,NA
58501,Burleigh County,ND,NA,NA,64.54720616570327
58554,Morton County,ND,NA,62.79296875,NA
43015,Delaware County,OH,16.89545934530095,NA,NA
43016,Franklin County,OH,60.61246040126716,NA,NA
43023,Licking County,OH,NA,79.39453125,NA
43026,Franklin County,OH,NA,22.4609375,NA
43062,Licking County,OH,35.691657866948255,NA,NA
43068,Franklin County,OH,11.932418162618797,NA,NA
43102,Fairfield County,OH,97.78247096092925,NA,NA
43113,Pickaway County,OH,NA,NA,12.138728323699421
43160,Fayette County,OH,NA,22.55859375,63.39113680154143
43204,Franklin County,OH,26.927138331573392,NA,NA
43206,Franklin County,OH,NA,55.17578125,NA
43219,Franklin County,OH,NA,NA,43.73795761078998
43230,Franklin County,OH,18.162618796198522,NA,NA
43232,Franklin County,OH,NA,15.72265625,NA
43334,Morrow County,OH,74.65681098204857,NA,NA
43440,Ottawa County,OH,NA,74.51171875,NA
43452,Ottawa County,OH,NA,33.69140625,NA
43506,Williams County,OH,56.810982048574445,NA,NA
43551,Wood County,OH,NA,6.640625,NA
43560,Lucas County,OH,NA,15.8203125,NA
43606,Lucas County,OH,19.00739176346357,NA,NA
43607,Lucas County,OH,NA,NA,49.51830443159923
43609,Lucas County,OH,NA,39.453125,NA
43619,Wood County,OH,84.37170010559663,NA,NA
43701,Muskingum County,OH,0.7391763463569165,NA,NA
43812,Coshocton County,OH,NA,7.8125,NA
43906,Belmont County,OH,NA,46.875,NA
43912,Belmont County,OH,NA,49.12109375,NA
43920,Columbiana County,OH,11.19324181626188,NA,NA
43935,Belmont County,OH,47.83526927138332,NA,NA
43944,Jefferson County,OH,94.72016895459345,NA,NA
43947,Belmont County,OH,75.0791974656811,NA,NA
43964,Jefferson County,OH,27.13833157338965,NA,NA
44011,Lorain County,OH,32.312565997888065,61.1328125,NA
44012,Lorain County,OH,NA,7.03125,NA
44017,Cuyahoga County,OH,36.8532206969377,NA,33.911368015414254
44022,Cuyahoga County,OH,80.8870116156283,NA,NA
44023,Geauga County,OH,67.68743400211193,94.7265625,NA
44030,Ashtabula County,OH,24.498416050686377,NA,NA
44035,Lorain County,OH,NA,8.984375,0.7707129094412332
44039,Lorain County,OH,9.609292502639915,22.8515625,8.477842003853564
44044,Lorain County,OH,NA,NA,86.89788053949904
44052,Lorain County,OH,18.690601900739175,NA,11.175337186897881
44053,Lorain County,OH,NA,32.12890625,9.633911368015415
44056,Summit County,OH,NA,55.6640625,47.784200385356456
44057,Lake County,OH,NA,18.65234375,NA
44060,Lake County,OH,7.602956705385427,NA,1.5414258188824663
44067,Summit County,OH,NA,70.5078125,NA
44077,Lake County,OH,NA,2.24609375,NA
44087,Summit County,OH,NA,16.40625,29.865125240847785
44089,Erie County,OH,NA,71.484375,NA
44090,Lorain County,OH,59.0285110876452,NA,61.657032755298644
44094,Lake County,OH,21.43611404435058,26.85546875,NA
44102,Cuyahoga County,OH,3.37909186906019,NA,NA
44104,Cuyahoga County,OH,4.118268215417107,NA,NA
44106,Cuyahoga County,OH,12.35480464625132,NA,NA
44107,Cuyahoga County,OH,76.13516367476241,2.44140625,NA
44109,Cuyahoga County,OH,NA,16.2109375,NA
44111,Cuyahoga County,OH,13.093980992608238,21.2890625,NA
44115,Cuyahoga County,OH,62.19640971488912,NA,NA
44116,Cuyahoga County,OH,NA,63.76953125,NA
44119,Cuyahoga County,OH,52.37592397043295,NA,NA
44120,Cuyahoga County,OH,NA,57.8125,14.64354527938343
44121,Cuyahoga County,OH,11.510031678986273,NA,NA
44122,Cuyahoga County,OH,55.332629355860604,3.80859375,1.1560693641618496
44123,Cuyahoga County,OH,NA,59.27734375,42.19653179190752
44124,Cuyahoga County,OH,NA,2.34375,NA
44125,Cuyahoga County,OH,NA,9.86328125,NA
44126,Cuyahoga County,OH,85.85005279831044,41.89453125,NA
44129,Cuyahoga County,OH,NA,15.13671875,NA
44130,Cuyahoga County,OH,4.646251319957761,0.87890625,NA
44131,Cuyahoga County,OH,42.977824709609294,70.3125,34.68208092485549
44133,Cuyahoga County,OH,28.299894403379096,NA,NA
44135,Cuyahoga County,OH,2.956705385427666,NA,NA
44136,Cuyahoga County,OH,29.567053854276665,8.69140625,NA
44138,Cuyahoga County,OH,33.7909186906019,25,NA
44139,Cuyahoga County,OH,NA,75.29296875,NA
44140,Cuyahoga County,OH,NA,29.58984375,NA
44141,Cuyahoga County,OH,NA,82.6171875,NA
44142,Cuyahoga County,OH,29.039070749736005,52.9296875,NA
44143,Cuyahoga County,OH,NA,NA,3.6608863198458574
44144,Cuyahoga County,OH,13.727560718057022,NA,NA
44145,Cuyahoga County,OH,NA,3.61328125,7.7071290944123305
44147,Cuyahoga County,OH,75.81837381203802,NA,34.8747591522158
44149,Cuyahoga County,OH,43.71700105596621,50.87890625,NA
44201,Portage County,OH,NA,NA,90.36608863198458
44202,Portage County,OH,33.47412882787751,NA,13.102119460500964
44212,Medina County,OH,20.908130939809926,38.28125,NA
44236,Summit County,OH,52.9039070749736,83.30078125,NA
44256,Medina County,OH,NA,0.390625,NA
44266,Portage County,OH,NA,NA,10.211946050096339
44278,Summit County,OH,58.50052798310455,NA,NA
44280,Medina County,OH,93.66420274551214,NA,NA
44302,Summit County,OH,92.39704329461456,NA,NA
44303,Summit County,OH,NA,NA,92.67822736030828
44310,Summit County,OH,38.33157338965153,NA,NA
44312,Summit County,OH,16.156282998944032,NA,NA
44319,Summit County,OH,NA,58.69140625,NA
44320,Summit County,OH,NA,19.04296875,NA
44321,Summit County,OH,NA,43.9453125,NA
44402,Trumbull County,OH,NA,97.4609375,NA
44410,Trumbull County,OH,NA,NA,53.75722543352601
44446,Trumbull County,OH,NA,NA,21.38728323699422
44460,Columbiana County,OH,NA,NA,63.005780346820806
44511,Mahoning County,OH,25.55438225976769,NA,NA
44512,Mahoning County,OH,NA,14.16015625,NA
44601,Stark County,OH,NA,NA,14.065510597302506
44646,Stark County,OH,11.721224920802534,NA,NA
44662,Stark County,OH,NA,NA,70.52023121387283
44663,Tuscarawas County,OH,NA,69.7265625,NA
44685,Summit County,OH,45.4065469904963,NA,NA
44833,Crawford County,OH,33.157338965153116,NA,NA
44839,Erie County,OH,NA,39.35546875,NA
44857,Huron County,OH,NA,8.10546875,NA
44889,Huron County,OH,NA,60.3515625,NA
44906,Richland County,OH,34.21330517423443,NA,NA
45042,Butler County,OH,NA,36.328125,NA
45069,Butler County,OH,24.498416050686377,19.53125,NA
45123,Highland County,OH,NA,86.62109375,NA
45133,Highland County,OH,NA,56.25,23.699421965317917
45157,Clermont County,OH,NA,91.50390625,NA
45243,Hamilton County,OH,84.89968321013728,NA,NA
45417,Montgomery County,OH,NA,17.28515625,NA
45458,Montgomery County,OH,39.070749736008445,NA,NA
45601,Ross County,OH,17.00105596620908,12.3046875,39.4990366088632
45634,Vinton County,OH,94.29778247096094,NA,NA
45638,Lawrence County,OH,24.81520591341077,NA,29.47976878612717
45648,Scioto County,OH,NA,21.09375,NA
45651,Vinton County,OH,NA,56.54296875,82.65895953757226
45662,Scioto County,OH,NA,1.85546875,NA
45690,Pike County,OH,NA,18.06640625,81.88824662813103
45697,Adams County,OH,96.09292502639916,NA,NA
45714,Washington County,OH,20.696937697993665,NA,85.9344894026975
45750,Washington County,OH,1.9007391763463568,0.5859375,NA
45761,Athens County,OH,96.30411826821542,NA,NA
45801,Allen County,OH,NA,NA,43.15992292870906
45806,Allen County,OH,NA,NA,61.078998073217726
45840,Hancock County,OH,2.6399155227032733,NA,NA
45873,Paulding County,OH,98.20485744456178,NA,NA
45875,Putnam County,OH,86.48363252375924,NA,NA
73034,Oklahoma County,OK,30.20063357972545,NA,NA
73401,Carter County,OK,15.311510031678988,NA,NA
73505,Comanche County,OK,NA,17.87109375,NA
74006,Washington County,OK,54.17106652587117,NA,NA
74011,Tulsa County,OK,NA,NA,56.64739884393064
74432,McIntosh County,OK,NA,48.14453125,NA
74571,Le Flore County,OK,NA,NA,97.30250481695568
74604,Kay County,OK,NA,59.5703125,NA
74868,Seminole County,OK,NA,86.23046875,NA
97006,Washington County,OR,NA,31.640625,NA
97038,Clackamas County,OR,NA,81.93359375,NA
97045,Clackamas County,OR,NA,NA,21.19460500963391
97058,Wasco County,OR,40.86589229144668,NA,NA
97068,Clackamas County,OR,NA,57.2265625,NA
97202,Multnomah County,OR,NA,47.8515625,NA
97214,Multnomah County,OR,72.12249208025344,NA,NA
97215,Multnomah County,OR,88.80675818373813,NA,NA
97221,Multnomah County,OR,NA,95.21484375,NA
97224,Washington County,OR,51.95353748680043,NA,NA
97225,Washington County,OR,71.38331573389651,67.1875,NA
97405,Lane County,OR,72.01689545934529,NA,NA
97504,Jackson County,OR,22.914466737064416,NA,NA
97520,Jackson County,OR,79.30306230200634,NA,NA
97601,Klamath County,OR,NA,12.20703125,NA
97603,Klamath County,OR,NA,32.03125,7.129094412331407
97720,Harney County,OR,NA,93.1640625,NA
97814,Baker County,OR,NA,NA,81.31021194605009
97850,Union County,OR,70.11615628299894,NA,NA
97862,Umatilla County,OR,NA,NA,72.63969171483622
15017,Allegheny County,PA,68.84899683210138,NA,55.49132947976878
15065,Allegheny County,PA,NA,64.2578125,NA
15084,Allegheny County,PA,NA,89.84375,NA
15132,Allegheny County,PA,40.549102428722286,NA,NA
15202,Allegheny County,PA,NA,72.55859375,NA
15217,Allegheny County,PA,NA,23.046875,26.204238921001927
15227,Allegheny County,PA,NA,23.4375,NA
15239,Allegheny County,PA,NA,65.72265625,NA
15401,Fayette County,PA,NA,4.39453125,NA
15541,Somerset County,PA,99.15522703273496,NA,NA
15650,Westmoreland County,PA,17.106652587117214,NA,NA
15801,Clearfield County,PA,32.734952481520594,NA,NA
15851,Jefferson County,PA,70.85533262935586,NA,NA
15857,Elk County,PA,58.07814149947201,NA,NA
15902,Cambria County,PA,91.4466737064414,NA,NA
15904,Cambria County,PA,NA,35.7421875,25.240847784200387
15963,Somerset County,PA,NA,55.46875,NA
16001,Butler County,PA,NA,1.7578125,NA
16214,Clarion County,PA,73.389651531151,NA,NA
16335,Crawford County,PA,NA,10.15625,NA
16346,Venango County,PA,NA,NA,77.84200385356455
16365,Warren County,PA,NA,30.56640625,35.067437379576106
16373,Venango County,PA,99.36642027455122,NA,NA
16407,Erie County,PA,NA,65.8203125,NA
16503,Erie County,PA,36.114044350580784,NA,NA
16505,Erie County,PA,68.95459345300951,NA,NA
16510,Erie County,PA,NA,42.7734375,NA
16652,Huntingdon County,PA,NA,20.3125,NA
16735,McKean County,PA,72.96726504751848,NA,NA
16801,Centre County,PA,39.915522703273496,28.7109375,NA
16823,Centre County,PA,53.32629355860612,NA,NA
16827,Centre County,PA,91.129883843717,87.890625,NA
16833,Clearfield County,PA,NA,NA,74.56647398843931
16841,Centre County,PA,87.32840549102428,NA,NA
16858,Clearfield County,PA,94.93136219640972,NA,NA
16870,Centre County,PA,86.27243928194298,NA,NA
16875,Centre County,PA,NA,98.33984375,NA
17003,Lebanon County,PA,75.18479408658922,NA,NA
17011,Cumberland County,PA,28.088701161562827,NA,NA
17036,Dauphin County,PA,25.659978880675823,NA,NA
17042,Lebanon County,PA,5.068637803590286,NA,NA
17044,Mifflin County,PA,NA,35.44921875,NA
17050,Cumberland County,PA,NA,10.25390625,NA
17084,Mifflin County,PA,89.96832101372756,91.69921875,NA
17103,Dauphin County,PA,39.809926082365365,NA,NA
17104,Dauphin County,PA,20.591341077085534,NA,NA
17110,Dauphin County,PA,17.845828933474127,NA,NA
17111,Dauphin County,PA,18.268215417106653,NA,NA
17112,Dauphin County,PA,NA,4.6875,NA
17113,Dauphin County,PA,NA,NA,82.46628131021194
17241,Cumberland County,PA,NA,NA,77.26396917148362
17325,Adams County,PA,NA,4.58984375,NA
17331,York County,PA,8.025343189017951,NA,NA
17340,Adams County,PA,70.01055966209081,NA,NA
17349,York County,PA,90.28511087645195,NA,NA
17356,York County,PA,31.57338965153115,NA,NA
17404,York County,PA,NA,14.2578125,NA
17512,Lancaster County,PA,42.44984160506864,NA,NA
17543,Lancaster County,PA,55.86061246040127,12.01171875,NA
17603,Lancaster County,PA,11.615628299894404,NA,NA
17701,Lycoming County,PA,NA,5.6640625,10.597302504816955
17702,Lycoming County,PA,74.55121436114044,NA,NA
17745,Clinton County,PA,NA,46.484375,NA
17754,Lycoming County,PA,NA,74.90234375,NA
17756,Lycoming County,PA,NA,31.0546875,NA
17801,Northumberland County,PA,NA,22.65625,NA
17815,Columbia County,PA,48.25765575501584,11.42578125,19.845857418111752
17821,Montour County,PA,26.821541710665258,67.28515625,NA
17824,Northumberland County,PA,NA,73.2421875,NA
17842,Snyder County,PA,90.91869060190075,NA,NA
17844,Union County,PA,NA,78.125,NA
17847,Northumberland County,PA,NA,47.36328125,NA
17857,Northumberland County,PA,NA,78.7109375,NA
17870,Snyder County,PA,75.81837381203802,29.78515625,44.701348747591524
17872,Northumberland County,PA,NA,69.921875,NA
17901,Schuylkill County,PA,NA,NA,28.709055876685934
17931,Schuylkill County,PA,76.34635691657867,NA,NA
17948,Schuylkill County,PA,86.27243928194298,NA,NA
17972,Schuylkill County,PA,61.774023231256606,NA,NA
18013,Northampton County,PA,38.2259767687434,NA,NA
18015,Northampton County,PA,10.454065469904963,NA,NA
18017,Northampton County,PA,7.286166842661035,NA,NA
18020,Northampton County,PA,NA,29.98046875,NA
18040,Northampton County,PA,NA,43.1640625,NA
18042,Northampton County,PA,26.715945089757128,NA,NA
18045,Northampton County,PA,NA,50.1953125,NA
18088,Northampton County,PA,85.11087645195353,NA,NA
18109,Lehigh County,PA,27.771911298838436,NA,NA
18222,Luzerne County,PA,NA,NA,73.41040462427746
18224,Luzerne County,PA,NA,83.69140625,NA
18302,Monroe County,PA,NA,62.79296875,NA
18324,Pike County,PA,NA,91.30859375,NA
18337,Pike County,PA,89.22914466737065,NA,NA
18444,Lackawanna County,PA,57.97254487856388,NA,NA
18603,Columbia County,PA,NA,19.3359375,NA
18641,Luzerne County,PA,NA,69.04296875,NA
18702,Luzerne County,PA,32.101372756071804,NA,59.92292870905588
18704,Luzerne County,PA,47.412882787750796,NA,NA
18705,Luzerne County,PA,NA,NA,68.40077071290945
18853,Bradford County,PA,96.9376979936642,NA,NA
18901,Bucks County,PA,45.82893347412883,75,NA
18940,Bucks County,PA,NA,NA,83.23699421965318
18954,Bucks County,PA,NA,92.67578125,89.78805394990366
18966,Bucks County,PA,NA,NA,16.570327552986512
18974,Bucks County,PA,NA,12.109375,NA
19002,Montgomery County,PA,68.53220696937699,NA,60.5009633911368
19003,Montgomery County,PA,NA,68.5546875,NA
19006,Montgomery County,PA,NA,NA,47.97687861271676
19010,Delaware County,PA,56.071805702217524,72.8515625,99.22928709055877
19014,Delaware County,PA,NA,41.30859375,NA
19015,Delaware County,PA,38.12038014783527,NA,NA
19026,Delaware County,PA,49.208025343189014,33.59375,94.41233140655106
19027,Montgomery County,PA,NA,NA,79.96146435452793
19038,Montgomery County,PA,NA,NA,54.91329479768786
19040,Montgomery County,PA,NA,45.1171875,NA
19041,Delaware County,PA,NA,NA,93.83429672447014
19044,Montgomery County,PA,NA,91.2109375,NA
19046,Montgomery County,PA,45.61774023231256,NA,NA
19047,Bucks County,PA,NA,NA,32.75529865125241
19055,Bucks County,PA,NA,72.0703125,NA
19064,Delaware County,PA,NA,45.60546875,NA
19066,Montgomery County,PA,NA,97.94921875,NA
19067,Bucks County,PA,NA,NA,16.76300578034682
19072,Montgomery County,PA,NA,62.20703125,NA
19073,Delaware County,PA,NA,68.26171875,84.97109826589595
19076,Delaware County,PA,NA,83.0078125,NA
19083,Delaware County,PA,NA,14.35546875,NA
19087,Chester County,PA,NA,58.984375,75.52986512524085
19096,Montgomery County,PA,NA,39.0625,88.4393063583815
19103,Philadelphia County,PA,NA,90.33203125,29.28709055876686
19106,Philadelphia County,PA,NA,NA,87.28323699421965
19111,Philadelphia County,PA,3.4846884899683213,NA,NA
19115,Philadelphia County,PA,50.68637803590285,NA,NA
19116,Philadelphia County,PA,NA,15.4296875,30.2504816955684
19118,Philadelphia County,PA,NA,NA,80.73217726396918
19119,Philadelphia County,PA,NA,20.21484375,NA
19120,Philadelphia County,PA,NA,6.15234375,NA
19128,Philadelphia County,PA,NA,27.63671875,72.25433526011561
19134,Philadelphia County,PA,2.851108764519535,NA,NA
19139,Philadelphia County,PA,NA,7.2265625,NA
19140,Philadelphia County,PA,NA,9.47265625,NA
19143,Philadelphia County,PA,NA,1.26953125,NA
19145,Philadelphia County,PA,9.186906019007392,NA,NA
19150,Philadelphia County,PA,NA,25.09765625,NA
19301,Chester County,PA,NA,80.76171875,NA
19311,Chester County,PA,NA,92.48046875,NA
19312,Chester County,PA,64.09714889123548,NA,NA
19320,Chester County,PA,11.40443505807814,13.4765625,NA
19335,Chester County,PA,19.852164730728617,NA,NA
19348,Chester County,PA,NA,75.1953125,NA
19380,Chester County,PA,70.74973600844773,5.2734375,NA
19382,Chester County,PA,NA,9.27734375,NA
19401,Montgomery County,PA,NA,23.53515625,NA
19403,Montgomery County,PA,NA,52.83203125,NA
19406,Montgomery County,PA,46.14572333685322,93.5546875,55.8766859344894
19422,Montgomery County,PA,NA,36.62109375,98.07321772639692
19428,Montgomery County,PA,NA,NA,76.10789980732177
19446,Montgomery County,PA,NA,16.9921875,NA
19454,Montgomery County,PA,NA,88.8671875,NA
19460,Chester County,PA,NA,74.31640625,NA
19462,Montgomery County,PA,46.779303062302006,90.72265625,NA
19464,Montgomery County,PA,5.70221752903907,NA,NA
19510,Berks County,PA,NA,85.64453125,NA
19533,Berks County,PA,88.27877507919747,NA,NA
02840,Newport County,RI,NA,29.00390625,NA
02864,Providence County,RI,27.983104540654697,NA,NA
02882,Washington County,RI,NA,51.46484375,NA
02906,Providence County,RI,NA,NA,54.14258188824663
29401,Charleston County,SC,NA,NA,73.79576107899807
29403,Charleston County,SC,73.49524815205913,NA,NA
29407,Charleston County,SC,69.48257655755016,NA,NA
29412,Charleston County,SC,NA,22.16796875,17.91907514450867
29455,Charleston County,SC,NA,33.984375,42.38921001926782
29464,Charleston County,SC,73.81203801478352,24.51171875,NA
29485,Dorchester County,SC,29.039070749736005,NA,NA
29609,Greenville County,SC,41.18268215417107,NA,NA
29625,Anderson County,SC,34.00211193241816,NA,NA
29646,Greenwood County,SC,44.350580781415,NA,NA
29681,Greenville County,SC,NA,15.91796875,NA
57005,Minnehaha County,SD,NA,74.0234375,NA
57006,Brookings County,SD,NA,41.6015625,19.26782273603083
57049,Union County,SD,NA,91.30859375,NA
57078,Yankton County,SD,NA,NA,69.36416184971098
57103,Minnehaha County,SD,25.448785638859555,2.9296875,NA
57104,Minnehaha County,SD,NA,NA,20.616570327552985
57105,Minnehaha County,SD,NA,63.96484375,38.53564547206166
57106,Minnehaha County,SD,NA,53.7109375,31.79190751445087
57108,Lincoln County,SD,NA,72.16796875,NA
57301,Davison County,SD,NA,67.28515625,NA
57350,Beadle County,SD,NA,68.359375,NA
57501,Hughes County,SD,NA,63.37890625,35.45279383429673
57701,Pennington County,SD,NA,18.359375,NA
57717,Butte County,SD,NA,NA,84.20038535645472
57783,Lawrence County,SD,NA,42.7734375,NA
37013,Davidson County,TN,68.10982048574445,NA,NA
37027,Williamson County,TN,40.65469904963041,NA,NA
37115,Davidson County,TN,NA,NA,40.26974951830443
37207,Davidson County,TN,14.044350580781414,NA,NA
37218,Davidson County,TN,NA,NA,70.32755298651252
37355,Coffee County,TN,35.37486800422386,NA,NA
37405,Hamilton County,TN,74.34002111932418,NA,NA
37737,Blount County,TN,NA,81.15234375,NA
37743,Greene County,TN,NA,3.22265625,67.2447013487476
37919,Knox County,TN,NA,NA,45.27938342967245
37931,Knox County,TN,42.87222808870116,NA,NA
38012,Haywood County,TN,NA,66.015625,NA
38024,Dyer County,TN,56.49419218585005,NA,NA
38106,Shelby County,TN,47.94086589229145,NA,NA
38225,Weakley County,TN,89.44033790918691,NA,NA
38450,Wayne County,TN,98.41605068637803,NA,NA
38571,Cumberland County,TN,54.06546990496304,NA,NA
75006,Dallas County,TX,46.04012671594509,62.98828125,NA
75103,Van Zandt County,TX,NA,48.92578125,NA
75143,Henderson County,TX,62.51319957761352,NA,NA
75158,Kaufman County,TX,NA,99.51171875,NA
75182,Dallas County,TX,NA,99.0234375,NA
75214,Dallas County,TX,NA,59.66796875,NA
75228,Dallas County,TX,NA,21.97265625,NA
75248,Dallas County,TX,57.44456177402323,NA,NA
75402,Hunt County,TX,NA,50.78125,NA
75662,Gregg County,TX,52.48152059134108,NA,NA
75752,Henderson County,TX,NA,80.37109375,NA
75771,Smith County,TX,NA,29.296875,NA
75773,Wood County,TX,87.11721224920802,NA,NA
75961,Nacogdoches County,TX,NA,73.828125,NA
76013,Tarrant County,TX,NA,59.375,NA
76028,Johnson County,TX,13.51636747624076,NA,NA
76049,Hood County,TX,NA,21.58203125,NA
76067,Palo Pinto County,TX,NA,NA,57.80346820809249
76103,Tarrant County,TX,NA,NA,98.65125240847784
76226,Denton County,TX,NA,NA,86.89788053949904
76367,Wichita County,TX,NA,NA,92.10019267822736
76442,Comanche County,TX,NA,71.6796875,NA
76501,Bell County,TX,16.68426610348469,6.25,NA
76502,Bell County,TX,17.740232312565997,NA,NA
76504,Bell County,TX,NA,NA,8.092485549132949
76513,Bell County,TX,33.68532206969377,NA,1.9267822736030826
76520,Milam County,TX,NA,46.38671875,69.7495183044316
76522,Coryell County,TX,NA,12.79296875,NA
76528,Coryell County,TX,NA,NA,64.73988439306359
76539,Lampasas County,TX,NA,83.49609375,NA
76542,Bell County,TX,79.09186906019008,NA,NA
76548,Bell County,TX,NA,NA,46.4354527938343
76550,Lampasas County,TX,63.357972544878564,NA,NA
76574,Williamson County,TX,NA,23.2421875,47.01348747591522
76577,Milam County,TX,NA,97.0703125,NA
76706,McLennan County,TX,78.88067581837382,NA,63.58381502890174
77005,Harris County,TX,NA,82.2265625,NA
77012,Harris County,TX,86.90601900739176,NA,NA
77017,Harris County,TX,54.2766631467793,NA,NA
77022,Harris County,TX,54.2766631467793,NA,NA
77024,Harris County,TX,NA,40.13671875,NA
77030,Harris County,TX,88.17317845828934,NA,NA
77032,Harris County,TX,78.98627243928195,NA,NA
77039,Harris County,TX,NA,82.32421875,NA
77059,Harris County,TX,79.30306230200634,NA,NA
77062,Harris County,TX,NA,NA,60.115606936416185
77069,Harris County,TX,NA,45.3125,NA
77076,Harris County,TX,53.00950369588173,NA,NA
77079,Harris County,TX,73.91763463569166,NA,NA
77080,Harris County,TX,NA,66.40625,NA
77087,Harris County,TX,55.01583949313622,NA,NA
77094,Harris County,TX,NA,96.6796875,NA
77096,Harris County,TX,NA,44.3359375,NA
77339,Harris County,TX,56.177402323125655,NA,NA
77357,Montgomery County,TX,NA,72.55859375,NA
77373,Harris County,TX,61.45723336853221,NA,NA
77381,Montgomery County,TX,66.10348468848997,35.7421875,NA
77384,Montgomery County,TX,NA,88.76953125,NA
77386,Montgomery County,TX,NA,77.83203125,NA
77388,Harris County,TX,NA,34.9609375,NA
77406,Fort Bend County,TX,NA,29.00390625,NA
77429,Harris County,TX,13.621964097148892,NA,NA
77433,Harris County,TX,NA,20.703125,NA
77459,Fort Bend County,TX,NA,13.18359375,NA
77484,Waller County,TX,90.17951425554382,NA,NA
77535,Liberty County,TX,NA,46.484375,NA
77536,Harris County,TX,39.704329461457235,40.4296875,NA
77550,Galveston County,TX,22.06969376979937,15.625,10.789980732177264
77551,Galveston County,TX,NA,76.85546875,NA
77554,Galveston County,TX,NA,45.99609375,NA
77563,Galveston County,TX,NA,48.828125,56.45472061657033
77573,Galveston County,TX,NA,3.3203125,25.626204238921
77581,Brazoria County,TX,31.678986272439282,22.75390625,NA
77590,Galveston County,TX,NA,NA,31.021194605009633
77619,Jefferson County,TX,NA,NA,55.68400770712909
77625,Hardin County,TX,NA,76.46484375,NA
77627,Jefferson County,TX,NA,NA,57.61078998073218
77630,Orange County,TX,41.39387539598733,NA,NA
77640,Jefferson County,TX,NA,87.59765625,NA
77651,Jefferson County,TX,95.45934530095037,NA,NA
77659,Hardin County,TX,97.67687434002113,NA,NA
77662,Orange County,TX,NA,NA,58.95953757225434
77706,Jefferson County,TX,NA,67.96875,NA
77802,Brazos County,TX,27.34952481520591,21.6796875,NA
77807,Brazos County,TX,NA,NA,96.33911368015414
77840,Brazos County,TX,44.77296726504752,67.578125,NA
77845,Brazos County,TX,36.536430834213306,NA,NA
78102,Bee County,TX,76.24076029567054,NA,NA
78213,Bexar County,TX,NA,87.109375,NA
78222,Bexar County,TX,65.78669482576558,NA,NA
78336,San Patricio County,TX,NA,NA,80.92485549132948
78605,Burnet County,TX,NA,NA,91.32947976878613
78626,Williamson County,TX,NA,46.97265625,NA
78628,Williamson County,TX,72.54487856388594,NA,4.431599229287091
78629,Gonzales County,TX,86.80042238648363,NA,NA
78633,Williamson County,TX,NA,65.52734375,0.1926782273603083
78634,Williamson County,TX,NA,64.16015625,NA
78639,Llano County,TX,NA,88.0859375,69.7495183044316
78641,Williamson County,TX,NA,19.62890625,NA
78645,Travis County,TX,98.83843717001056,NA,NA
78654,Burnet County,TX,NA,39.6484375,21.001926782273603
78657,Llano County,TX,NA,64.84375,60.69364161849711
78660,Travis County,TX,28.511087645195353,NA,NA
78665,Williamson County,TX,NA,NA,41.42581888246628
78705,Travis County,TX,97.36008447729672,NA,NA
78748,Travis County,TX,NA,65.91796875,NA
79705,Midland County,TX,NA,34.1796875,NA
84042,Utah County,UT,96.9376979936642,NA,NA
84060,Summit County,UT,NA,89.0625,NA
84066,Duchesne County,UT,93.13621964097149,NA,NA
84078,Uintah County,UT,18.585005279831044,NA,NA
84088,Salt Lake County,UT,NA,51.46484375,NA
84093,Salt Lake County,UT,77.8247096092925,NA,NA
84096,Salt Lake County,UT,NA,84.66796875,NA
84098,Summit County,UT,64.83632523759239,NA,NA
84106,Salt Lake County,UT,35.90285110876452,NA,NA
84108,Salt Lake County,UT,NA,NA,40.847784200385355
84116,Salt Lake County,UT,30.30623020063358,NA,NA
84124,Salt Lake County,UT,NA,66.6015625,NA
05001,Windsor County,VT,NA,NA,88.82466281310212
05089,Windsor County,VT,95.14255543822597,NA,NA
05091,Windsor County,VT,NA,95.5078125,NA
05143,Windsor County,VT,NA,91.015625,NA
05201,Bennington County,VT,48.04646251319958,24.4140625,NA
05250,Bennington County,VT,NA,95.41015625,NA
05301,Windham County,VT,NA,28.90625,NA
05401,Chittenden County,VT,49.736008447729674,NA,NA
05404,Chittenden County,VT,NA,NA,90.94412331406551
05408,Chittenden County,VT,80.14783526927138,74.8046875,NA
05450,Franklin County,VT,NA,81.15234375,NA
05452,Chittenden County,VT,NA,35.9375,NA
05468,Chittenden County,VT,NA,87.98828125,NA
05641,Washington County,VT,NA,28.3203125,NA
05672,Lamoille County,VT,98.41605068637803,NA,NA
05733,Rutland County,VT,NA,70.60546875,NA
20169,Prince William County,VA,NA,NA,89.01734104046243
20175,Loudoun County,VA,70.22175290390707,NA,NA
20176,Loudoun County,VA,NA,60.05859375,NA
22153,Fairfax County,VA,NA,55.859375,NA
22180,Fairfax County,VA,78.56388595564941,NA,NA
22201,Arlington County,VA,59.345300950369584,NA,NA
22207,Arlington County,VA,NA,43.06640625,NA
22301,Alexandria city,VA,73.07286166842661,NA,NA
22304,Alexandria city,VA,NA,34.27734375,NA
22701,Culpeper County,VA,NA,19.82421875,NA
22801,Harrisonburg city,VA,NA,35.546875,26.78227360308285
22901,Albemarle County,VA,NA,27.34375,13.48747591522158
22903,Charlottesville city,VA,30.517423442449843,21.484375,40.07707129094412
22911,Albemarle County,VA,NA,92.96875,NA
22920,Nelson County,VA,NA,94.43359375,NA
22947,Albemarle County,VA,NA,90.91796875,NA
22963,Fluvanna County,VA,NA,49.70703125,NA
22968,Greene County,VA,NA,69.43359375,NA
22980,Waynesboro city,VA,NA,26.26953125,NA
23060,Henrico County,VA,61.66842661034847,NA,NA
23093,Louisa County,VA,NA,57.91015625,NA
23113,Chesterfield County,VA,NA,51.7578125,NA
23117,Louisa County,VA,NA,55.6640625,NA
23185,James City County,VA,NA,2.83203125,NA
23223,Henrico County,VA,NA,NA,36.22350674373796
23231,Henrico County,VA,NA,51.3671875,NA
23314,Isle of Wight County,VA,NA,NA,98.84393063583815
23320,Chesapeake city,VA,NA,49.90234375,44.3159922928709
23323,Chesapeake city,VA,35.26927138331573,NA,NA
23452,Virginia Beach city,VA,NA,59.1796875,NA
23453,Virginia Beach city,VA,NA,69.23828125,NA
23454,Virginia Beach city,VA,NA,12.5,NA
23455,Virginia Beach city,VA,NA,70.8984375,64.9325626204239
23456,Virginia Beach city,VA,NA,79.8828125,19.653179190751445
23462,Virginia Beach city,VA,NA,10.83984375,NA
23464,Virginia Beach city,VA,NA,42.96875,4.238921001926782
23502,Norfolk city,VA,NA,31.34765625,93.64161849710982
23505,Norfolk city,VA,NA,66.50390625,NA
23508,Norfolk city,VA,NA,64.0625,NA
23518,Norfolk city,VA,42.555438225976765,29.4921875,NA
23601,Newport News city,VA,NA,44.3359375,NA
23606,Newport News city,VA,NA,76.66015625,NA
23834,Colonial Heights city,VA,NA,62.5,NA
23851,Franklin city,VA,57.44456177402323,NA,NA
24015,Roanoke city,VA,73.60084477296726,NA,NA
24018,Roanoke County,VA,NA,31.15234375,NA
24073,Montgomery County,VA,42.344244984160504,NA,NA
24171,Patrick County,VA,NA,NA,62.42774566473989
24301,Pulaski County,VA,56.49419218585005,NA,NA
24333,Galax city,VA,47.62407602956705,NA,NA
24503,Lynchburg city,VA,NA,61.42578125,46.05009633911368
98003,King County,WA,30.41182682154171,56.8359375,NA
98006,King County,WA,NA,29.39453125,57.03275529865125
98012,Snohomish County,WA,31.995776135163673,27.24609375,NA
98020,Snohomish County,WA,NA,56.93359375,NA
98021,Snohomish County,WA,54.2766631467793,NA,NA
98023,King County,WA,NA,15.234375,NA
98026,Snohomish County,WA,35.1636747624076,NA,NA
98028,King County,WA,72.43928194297783,NA,NA
98033,King County,WA,63.04118268215417,NA,NA
98040,King County,WA,69.69376979936642,NA,NA
98042,King County,WA,NA,NA,28.32369942196532
98045,King County,WA,NA,80.2734375,NA
98070,King County,WA,93.24181626187962,NA,NA
98101,King County,WA,NA,NA,40.847784200385355
98102,King County,WA,71.59450897571278,NA,NA
98103,King County,WA,74.86800422386483,85.3515625,NA
98104,King County,WA,NA,NA,61.657032755298644
98108,King County,WA,72.3336853220697,NA,NA
98112,King County,WA,NA,65.0390625,NA
98115,King County,WA,86.06124604012672,NA,NA
98117,King County,WA,NA,NA,84.77842003853564
98125,King County,WA,NA,35.15625,39.691714836223504
98133,King County,WA,61.35163674762407,22.0703125,NA
98166,King County,WA,NA,50.29296875,NA
98177,King County,WA,NA,57.03125,NA
98188,King County,WA,NA,56.640625,NA
98199,King County,WA,NA,70.703125,NA
98208,Snohomish County,WA,NA,NA,51.637764932562625
98226,Whatcom County,WA,85.21647307286166,NA,NA
98233,Skagit County,WA,95.77613516367475,NA,NA
98239,Island County,WA,NA,85.546875,NA
98250,San Juan County,WA,NA,NA,95.76107899807322
98270,Snohomish County,WA,67.2650475184794,NA,NA
98273,Skagit County,WA,NA,17.3828125,13.294797687861271
98277,Island County,WA,NA,25.9765625,NA
98282,Island County,WA,NA,39.84375,NA
98284,Skagit County,WA,NA,60.83984375,NA
98290,Snohomish County,WA,NA,47.55859375,NA
98312,Kitsap County,WA,39.17634635691658,NA,NA
98331,Clallam County,WA,87.43400211193241,NA,NA
98373,Pierce County,WA,67.37064413938754,NA,NA
98375,Pierce County,WA,51.42555438225976,NA,NA
98388,Pierce County,WA,92.71383315733897,NA,NA
98422,Pierce County,WA,82.99894403379092,NA,NA
98465,Pierce County,WA,95.98732840549103,NA,NA
98626,Cowlitz County,WA,43.92819429778247,NA,NA
98632,Cowlitz County,WA,21.858500527983104,4.296875,5.202312138728324
98674,Cowlitz County,WA,91.23548046462513,NA,NA
98683,Clark County,WA,81.41499472016895,NA,NA
98801,Chelan County,WA,NA,7.71484375,NA
98802,Douglas County,WA,NA,28.61328125,NA
98816,Chelan County,WA,NA,75.87890625,NA
98826,Chelan County,WA,NA,72.94921875,NA
98840,Okanogan County,WA,NA,NA,99.8073217726397
98851,Grant County,WA,NA,NA,94.02697495183044
98902,Yakima County,WA,NA,NA,19.460500963391137
99216,Spokane County,WA,NA,NA,61.46435452793835
99301,Franklin County,WA,NA,6.8359375,NA
99352,Benton County,WA,41.49947201689546,NA,6.358381502890173
99354,Benton County,WA,42.13305174234424,NA,25.43352601156069
99362,Walla Walla County,WA,58.81731784582893,12.98828125,NA
20002,District of Columbia,DC,6.124604012671594,NA,NA
20009,District of Columbia,DC,63.463569165786694,46.09375,NA
20019,District of Columbia,DC,NA,4.1015625,NA
20032,District of Columbia,DC,5.70221752903907,NA,NA
24701,Mercer County,WV,31.15100316789863,NA,NA
25143,Kanawha County,WV,NA,NA,71.67630057803468
25387,Kanawha County,WV,76.4519535374868,NA,NA
25550,Mason County,WV,NA,32.2265625,41.23314065510597
25560,Putnam County,WV,NA,NA,76.10789980732177
25801,Raleigh County,WV,15.100316789862726,NA,NA
26003,Ohio County,WV,6.2302006335797255,1.953125,5.394990366088632
26037,Brooke County,WV,78.35269271383316,NA,NA
26062,Hancock County,WV,NA,NA,15.221579961464354
26070,Brooke County,WV,72.75607180570222,NA,NA
26170,Pleasants County,WV,87.53959873284055,NA,NA
26301,Harrison County,WV,8.97571277719113,NA,NA
26426,Harrison County,WV,NA,92.87109375,NA
26501,Monongalia County,WV,20.380147835269273,64.6484375,74.75915221579962
26508,Monongalia County,WV,5.279831045406547,4.6875,NA
26542,Preston County,WV,99.26082365364309,NA,NA
26554,Marion County,WV,4.435058078141499,1.46484375,NA
26570,Monongalia County,WV,98.09926082365365,NA,NA
53027,Washington County,WI,66.63146779303062,NA,NA
53051,Waukesha County,WI,44.45617740232313,NA,NA
53094,Jefferson County,WI,NA,NA,33.52601156069364
53115,Walworth County,WI,NA,70.99609375,78.61271676300578
53120,Walworth County,WI,NA,76.07421875,NA
53121,Walworth County,WI,NA,29.19921875,55.10597302504817
53126,Racine County,WI,NA,66.6015625,NA
53132,Milwaukee County,WI,40.021119324181626,NA,NA
53142,Kenosha County,WI,36.430834213305175,NA,NA
53144,Kenosha County,WI,18.90179514255544,NA,NA
53147,Walworth County,WI,NA,NA,93.0635838150289
53168,Kenosha County,WI,57.3389651531151,NA,NA
53179,Kenosha County,WI,84.68848996832101,NA,NA
53190,Walworth County,WI,NA,84.765625,NA
53211,Milwaukee County,WI,NA,NA,14.836223506743737
53219,Milwaukee County,WI,NA,NA,17.533718689788053
53222,Milwaukee County,WI,55.75501583949314,NA,59.53757225433526
53223,Milwaukee County,WI,NA,11.62109375,NA
53225,Milwaukee County,WI,13.199577613516366,NA,NA
53226,Milwaukee County,WI,NA,33.88671875,NA
53406,Racine County,WI,NA,NA,23.314065510597302
53511,Rock County,WI,0.9503695881731784,4.8828125,5.009633911368015
53528,Dane County,WI,NA,85.7421875,NA
53534,Rock County,WI,NA,52.44140625,NA
53536,Rock County,WI,NA,85.05859375,NA
53538,Jefferson County,WI,NA,NA,31.59922928709056
53545,Rock County,WI,36.219640971488914,54.39453125,NA
53546,Rock County,WI,NA,26.66015625,39.30635838150289
53548,Rock County,WI,NA,75.390625,NA
53558,Dane County,WI,NA,75.390625,NA
53562,Dane County,WI,NA,61.81640625,29.47976878612717
53581,Richland County,WI,NA,NA,73.02504816955684
53590,Dane County,WI,NA,41.2109375,NA
53593,Dane County,WI,81.09820485744457,NA,NA
53594,Jefferson County,WI,NA,96.38671875,NA
53597,Dane County,WI,NA,61.9140625,NA
53705,Dane County,WI,NA,75.5859375,18.11175337186898
53711,Dane County,WI,34.53009503695882,17.1875,18.88246628131021
53717,Dane County,WI,NA,58.7890625,NA
53719,Dane County,WI,NA,NA,87.66859344894027
53916,Dodge County,WI,41.92185850052798,NA,NA
53925,Columbia County,WI,88.80675818373813,NA,NA
53959,Sauk County,WI,NA,42.48046875,NA
54011,Pierce County,WI,NA,86.328125,NA
54143,Marinette County,WI,NA,54.296875,NA
54166,Shawano County,WI,68.6378035902851,NA,NA
54401,Marathon County,WI,NA,95.60546875,90.17341040462428
54403,Marathon County,WI,NA,NA,87.47591522157995
54451,Taylor County,WI,NA,NA,57.996146435452786
54452,Lincoln County,WI,NA,78.41796875,80.53949903660886
54455,Marathon County,WI,NA,63.76953125,NA
54476,Marathon County,WI,NA,88.96484375,97.10982658959537
54601,La Crosse County,WI,NA,13.57421875,7.321772639691715
54630,Trempealeau County,WI,NA,NA,84.00770712909441
54650,La Crosse County,WI,NA,37.59765625,NA
54660,Monroe County,WI,NA,47.16796875,NA
54669,La Crosse County,WI,84.05491024287223,77.1484375,NA
54730,Dunn County,WI,NA,NA,86.1271676300578
54751,Dunn County,WI,NA,27.44140625,NA
54880,Douglas County,WI,NA,24.8046875,NA
82435,Park County,WY,NA,NA,54.33526011560693
82718,Campbell County,WY,NA,NA,95.18304431599229
82801,Sheridan County,WY,NA,87.01171875,NA
82901,Sweetwater County,WY,55.12143611404435,NA,NA
82930,Uinta County,WY,NA,84.86328125,NA
