ZipCode,county,state,Adult
35077,Cullman County,AL,61.29032258064516
35222,Jefferson County,AL,89.78494623655914
35640,Morgan County,AL,36.55913978494624
99502,Anchorage Municipality,AK,54.3010752688172
85006,Maricopa County,AZ,88.70967741935483
85716,Pima County,AZ,18.817204301075268
85746,Pima County,AZ,45.69892473118279
86507,Apache County,AZ,91.39784946236558
90044,Los Angeles County,CA,8.064516129032258
90802,Los Angeles County,CA,52.1505376344086
90805,Los Angeles County,CA,18.27956989247312
90815,Los Angeles County,CA,86.55913978494624
91745,Los Angeles County,CA,69.89247311827957
91913,San Diego County,CA,74.19354838709677
92020,San Diego County,CA,73.11827956989248
92025,San Diego County,CA,51.075268817204304
92105,San Diego County,CA,17.741935483870968
92113,San Diego County,CA,25.268817204301076
92201,Riverside County,CA,56.98924731182796
92234,Riverside County,CA,15.591397849462366
92371,San Bernardino County,CA,95.6989247311828
92620,Orange County,CA,46.774193548387096
92867,Orange County,CA,60.215053763440864
94044,San Mateo County,CA,54.83870967741935
94124,San Francisco County,CA,27.419354838709676
94601,Alameda County,CA,75.26881720430107
95070,Santa Clara County,CA,79.56989247311827
95815,Sacramento County,CA,68.81720430107528
95828,Sacramento County,CA,43.01075268817204
95991,Sutter County,CA,94.08602150537635
80236,Denver County,CO,81.72043010752688
19802,New Castle County,DE,47.8494623655914
19809,New Castle County,DE,60.752688172043015
33055,Miami-Dade County,FL,53.76344086021505
33860,Polk County,FL,61.82795698924731
34219,Manatee County,FL,56.451612903225815
34974,Okeechobee County,FL,80.10752688172043
30739,Walker County,GA,93.54838709677419
31407,Chatham County,GA,85.48387096774194
96707,Honolulu County,HI,37.634408602150536
60423,Will County,IL,88.17204301075269
60462,Cook County,IL,29.56989247311828
60615,Cook County,IL,27.956989247311824
60634,Cook County,IL,12.903225806451612
60640,Cook County,IL,11.29032258064516
60707,Cook County,IL,78.49462365591397
61554,Tazewell County,IL,32.795698924731184
46356,Lake County,IN,34.40860215053764
46614,St. Joseph County,IN,58.602150537634415
47403,Monroe County,IN,64.51612903225806
52001,Dubuque County,IA,48.924731182795696
52240,Johnson County,IA,22.043010752688172
52241,Johnson County,IA,50
66085,Johnson County,KS,95.16129032258065
66111,Wyandotte County,KS,83.33333333333334
40219,Jefferson County,KY,15.053763440860216
42071,Calloway County,KY,44.086021505376344
42445,Caldwell County,KY,87.09677419354838
70058,Jefferson Parish,LA,2.6881720430107525
70115,Orleans Parish,LA,19.35483870967742
70301,Lafourche Parish,LA,97.31182795698925
70359,Terrebonne Parish,LA,96.23655913978494
70380,St. Mary Parish,LA,24.193548387096776
21076,Anne Arundel County,MD,83.87096774193549
02072,Norfolk County,MA,10.75268817204301
02139,Middlesex County,MA,0
02452,Middlesex County,MA,65.59139784946237
02467,Norfolk County,MA,50.53763440860215
48044,Macomb County,MI,8.60215053763441
48178,Oakland County,MI,68.27956989247312
48224,Wayne County,MI,2.1505376344086025
48843,Livingston County,MI,13.440860215053762
48850,Montcalm County,MI,86.02150537634408
49111,Berrien County,MI,98.9247311827957
49240,Jackson County,MI,84.40860215053763
55068,Dakota County,MN,66.66666666666666
55746,St. Louis County,MN,26.881720430107524
55812,St. Louis County,MN,77.95698924731182
56701,Pennington County,MN,20.967741935483872
56721,Polk County,MN,55.91397849462365
39094,Leake County,MS,97.84946236559139
63040,St. Louis County,MO,98.38709677419355
64055,Jackson County,MO,33.87096774193548
65556,Pulaski County,MO,99.46236559139786
68117,Douglas County,NE,90.86021505376344
89148,Clark County,NV,49.46236559139785
03570,Coos County,NH,72.58064516129032
03801,Rockingham County,NH,53.2258064516129
07424,Passaic County,NJ,41.39784946236559
07514,Passaic County,NJ,33.33333333333333
08050,Ocean County,NJ,39.247311827956985
08060,Burlington County,NJ,16.666666666666664
08091,Camden County,NJ,96.7741935483871
08270,Cape May County,NJ,81.18279569892472
08330,Atlantic County,NJ,31.72043010752688
87013,Sandoval County,NM,94.6236559139785
87313,McKinley County,NM,76.88172043010752
10451,Bronx County,NY,4.301075268817205
10473,Bronx County,NY,23.118279569892472
10475,Bronx County,NY,26.344086021505376
11208,Kings County,NY,0.5376344086021506
11691,Queens County,NY,10.21505376344086
11951,Suffolk County,NY,70.96774193548387
12180,Rensselaer County,NY,1.6129032258064515
12308,Schenectady County,NY,40.32258064516129
12804,Warren County,NY,9.13978494623656
13165,Seneca County,NY,30.107526881720432
13202,Onondaga County,NY,59.13978494623656
13778,Chenango County,NY,65.05376344086021
14075,Erie County,NY,9.67741935483871
14760,Cattaraugus County,NY,11.827956989247312
27330,Lee County,NC,23.655913978494624
28311,Cumberland County,NC,57.52688172043011
28425,Pender County,NC,69.35483870967742
28677,Iredell County,NC,17.20430107526882
43103,Pickaway County,OH,89.24731182795699
43223,Franklin County,OH,7.526881720430108
43227,Franklin County,OH,24.731182795698924
43420,Sandusky County,OH,12.365591397849462
43612,Lucas County,OH,6.451612903225806
43723,Guernsey County,OH,62.365591397849464
44117,Cuyahoga County,OH,44.623655913978496
44120,Cuyahoga County,OH,4.838709677419355
44123,Cuyahoga County,OH,30.64516129032258
44128,Cuyahoga County,OH,3.763440860215054
44129,Cuyahoga County,OH,66.12903225806451
44137,Cuyahoga County,OH,6.989247311827956
44641,Stark County,OH,92.47311827956989
45237,Hamilton County,OH,32.25806451612903
45449,Montgomery County,OH,37.096774193548384
45805,Allen County,OH,46.236559139784944
73018,Grady County,OK,48.38709677419355
97303,Marion County,OR,73.65591397849462
15108,Allegheny County,PA,41.935483870967744
15219,Allegheny County,PA,34.946236559139784
15332,Washington County,PA,82.79569892473118
15425,Fayette County,PA,84.94623655913979
15857,Elk County,PA,28.49462365591398
17754,Lycoming County,PA,67.20430107526882
17842,Snyder County,PA,79.03225806451613
18974,Bucks County,PA,22.58064516129032
19115,Philadelphia County,PA,19.892473118279568
19125,Philadelphia County,PA,76.34408602150538
19138,Philadelphia County,PA,14.516129032258066
19139,Philadelphia County,PA,5.376344086021505
19140,Philadelphia County,PA,3.225806451612903
19143,Philadelphia County,PA,1.0752688172043012
19147,Philadelphia County,PA,70.43010752688173
02864,Providence County,RI,29.03225806451613
02909,Providence County,RI,52.1505376344086
29445,Berkeley County,SC,25.806451612903224
57702,Pennington County,SD,58.06451612903226
37604,Washington County,TN,21.50537634408602
37620,Sullivan County,TN,13.978494623655912
75035,Collin County,TX,40.32258064516129
75211,Dallas County,TX,20.43010752688172
75901,Angelina County,TX,38.17204301075269
76033,Johnson County,TX,38.70967741935484
76065,Ellis County,TX,42.473118279569896
76901,Tom Green County,TX,51.61290322580645
77024,Harris County,TX,63.97849462365591
78046,Webb County,TX,16.129032258064516
78757,Travis County,TX,90.32258064516128
79907,El Paso County,TX,39.784946236559136
84098,Summit County,UT,67.20430107526882
84121,Salt Lake County,UT,43.54838709677419
22201,Arlington County,VA,59.67741935483871
23060,Henrico County,VA,63.44086021505376
23233,Henrico County,VA,93.01075268817203
24201,Bristol city,VA,47.31182795698925
98023,King County,WA,91.93548387096774
98040,King County,WA,72.04301075268818
98059,King County,WA,75.80645161290323
98117,King County,WA,62.903225806451616
98168,King County,WA,35.483870967741936
98198,King County,WA,45.16129032258064
98512,Thurston County,WA,80.64516129032258
98532,Lewis County,WA,71.50537634408603
98584,Mason County,WA,36.02150537634409
98802,Douglas County,WA,77.41935483870968
98902,Yakima County,WA,31.182795698924732
20015,District of Columbia,DC,100
26170,Pleasants County,WV,87.63440860215054
26554,Marion County,WV,5.913978494623656
53045,Waukesha County,WI,82.25806451612904
54153,Oconto County,WI,74.73118279569893
54603,La Crosse County,WI,55.376344086021504
