ZipCode,county,state,Adult,Retirement,Geriatric
35010,Tallapoosa County,AL,33.33333333333333,NA,NA
35031,Blount County,AL,92.63157894736842,NA,NA
35042,Bibb County,AL,95.96491228070175,NA,NA
35045,Chilton County,AL,NA,58.77034358047016,NA
35111,Tuscaloosa County,AL,65.26315789473685,NA,NA
35208,Jefferson County,AL,60.877192982456144,NA,NA
35244,Jefferson County,AL,41.578947368421055,NA,NA
35401,Tuscaloosa County,AL,NA,61.66365280289331,NA
35404,Tuscaloosa County,AL,NA,56.23869801084991,NA
35462,Greene County,AL,NA,NA,83.94495412844036
35563,Marion County,AL,NA,75.04520795660035,NA
35616,Colbert County,AL,94.21052631578948,NA,NA
35634,Lauderdale County,AL,76.49122807017544,NA,NA
35640,Morgan County,AL,56.666666666666664,NA,NA
35650,Lawrence County,AL,NA,63.83363471971067,NA
35748,Madison County,AL,NA,81.374321880651,NA
36093,Elmore County,AL,66.84210526315789,NA,NA
36105,Montgomery County,AL,NA,87.88426763110307,NA
36201,Calhoun County,AL,23.333333333333332,41.22965641952984,NA
36271,Calhoun County,AL,80.87719298245614,NA,NA
36272,Calhoun County,AL,41.228070175438596,NA,NA
36426,Escambia County,AL,NA,49.728752260397826,NA
36541,Mobile County,AL,NA,94.39421338155516,NA
36582,Mobile County,AL,67.89473684210526,NA,NA
36618,Mobile County,AL,NA,88.06509945750453,NA
99501,Anchorage Municipality,AK,20,NA,NA
99502,Anchorage Municipality,AK,43.50877192982456,NA,NA
99654,Matanuska-Susitna Borough,AK,33.1578947368421,NA,NA
99901,Ketchikan Gateway Borough,AK,NA,69.8010849909584,NA
85009,Maricopa County,AZ,63.859649122807014,NA,NA
85031,Maricopa County,AZ,NA,NA,77.98165137614679
85035,Maricopa County,AZ,14.736842105263156,NA,NA
85040,Maricopa County,AZ,NA,45.20795660036166,NA
85085,Maricopa County,AZ,NA,NA,78.44036697247707
85120,Pinal County,AZ,NA,NA,88.07339449541286
85122,Pinal County,AZ,NA,36.52802893309223,NA
85132,Pinal County,AZ,59.64912280701754,NA,NA
85201,Maricopa County,AZ,NA,27.848101265822784,NA
85202,Maricopa County,AZ,NA,38.87884267631103,NA
85210,Maricopa County,AZ,NA,45.388788426763114,NA
85212,Maricopa County,AZ,NA,76.67269439421338,NA
85225,Maricopa County,AZ,NA,23.32730560578662,NA
85226,Maricopa County,AZ,46.14035087719298,NA,NA
85326,Maricopa County,AZ,NA,63.65280289330922,NA
85381,Maricopa County,AZ,NA,82.09764918625679,NA
85602,Cochise County,AZ,NA,NA,57.798165137614674
85603,Cochise County,AZ,NA,64.19529837251356,NA
85629,Pima County,AZ,NA,NA,77.52293577981652
85634,Pima County,AZ,NA,24.593128390596743,NA
85653,Pima County,AZ,NA,92.2242314647378,NA
85714,Pima County,AZ,NA,48.10126582278481,NA
85742,Pima County,AZ,NA,68.53526220614829,NA
86047,Navajo County,AZ,NA,82.64014466546112,NA
86334,Yavapai County,AZ,NA,94.9367088607595,NA
86442,Mohave County,AZ,NA,33.09222423146474,NA
71901,Garland County,AR,83.15789473684211,NA,NA
72114,Pulaski County,AR,NA,76.31103074141049,96.3302752293578
72315,Mississippi County,AR,NA,39.602169981916816,NA
72335,St. Francis County,AR,90.87719298245615,NA,NA
72616,Carroll County,AR,NA,70.5244122965642,NA
72650,Searcy County,AR,NA,89.33092224231464,NA
72703,Washington County,AR,93.50877192982456,NA,NA
72764,Washington County,AR,98.94736842105263,NA,NA
72923,Sebastian County,AR,96.84210526315789,NA,NA
90004,Los Angeles County,CA,NA,97.64918625678119,NA
90007,Los Angeles County,CA,67.54385964912281,NA,NA
90022,Los Angeles County,CA,NA,37.613019891500905,NA
90023,Los Angeles County,CA,NA,47.01627486437613,NA
90026,Los Angeles County,CA,NA,31.464737793851715,NA
90027,Los Angeles County,CA,NA,NA,18.34862385321101
90029,Los Angeles County,CA,52.45614035087719,NA,NA
90042,Los Angeles County,CA,NA,40.86799276672694,NA
90059,Los Angeles County,CA,NA,45.56962025316456,NA
90061,Los Angeles County,CA,NA,60.21699819168174,NA
90062,Los Angeles County,CA,NA,73.59855334538878,NA
90260,Los Angeles County,CA,NA,86.61844484629296,NA
90602,Los Angeles County,CA,NA,73.23688969258589,NA
90603,Los Angeles County,CA,NA,42.857142857142854,NA
90650,Los Angeles County,CA,15.964912280701753,NA,22.93577981651376
90660,Los Angeles County,CA,NA,NA,23.394495412844037
90670,Los Angeles County,CA,NA,99.09584086799276,NA
90701,Los Angeles County,CA,NA,77.21518987341773,NA
90710,Los Angeles County,CA,97.19298245614036,NA,NA
90723,Los Angeles County,CA,43.684210526315795,NA,NA
91006,Los Angeles County,CA,75.78947368421053,NA,NA
91024,Los Angeles County,CA,NA,NA,84.40366972477065
91356,Los Angeles County,CA,NA,NA,23.853211009174313
91702,Los Angeles County,CA,NA,64.01446654611212,NA
91711,Los Angeles County,CA,NA,26.582278481012654,NA
91722,Los Angeles County,CA,NA,87.34177215189874,NA
91732,Los Angeles County,CA,NA,26.220614828209765,NA
91766,Los Angeles County,CA,61.75438596491228,NA,NA
91770,Los Angeles County,CA,NA,NA,13.761467889908257
92021,San Diego County,CA,NA,13.200723327305605,NA
92026,San Diego County,CA,NA,39.24050632911392,NA
92029,San Diego County,CA,NA,88.78842676311031,NA
92056,San Diego County,CA,45.78947368421053,NA,NA
92057,San Diego County,CA,NA,NA,66.97247706422019
92110,San Diego County,CA,NA,71.42857142857143,NA
92113,San Diego County,CA,NA,57.50452079566004,NA
92203,Riverside County,CA,39.122807017543856,NA,NA
92211,Riverside County,CA,87.36842105263159,NA,NA
92223,Riverside County,CA,NA,81.73598553345388,NA
92231,Imperial County,CA,NA,73.41772151898735,7.339449541284404
92236,Riverside County,CA,NA,84.26763110307414,NA
92252,San Bernardino County,CA,NA,69.98191681735986,NA
92260,Riverside County,CA,NA,NA,39.44954128440367
92311,San Bernardino County,CA,NA,89.69258589511753,NA
92345,San Bernardino County,CA,8.070175438596491,NA,26.146788990825687
92411,San Bernardino County,CA,89.29824561403508,NA,NA
92567,Riverside County,CA,91.9298245614035,NA,NA
92570,Riverside County,CA,NA,37.251356238698015,NA
92595,Riverside County,CA,NA,89.5117540687161,NA
92596,Riverside County,CA,NA,97.46835443037975,NA
92637,Orange County,CA,NA,27.48643761301989,NA
92647,Orange County,CA,NA,18.264014466546115,NA
92648,Orange County,CA,24.561403508771928,NA,NA
92705,Orange County,CA,62.4561403508772,NA,NA
92807,Orange County,CA,NA,NA,82.11009174311926
92821,Orange County,CA,75.96491228070175,NA,NA
92887,Orange County,CA,88.59649122807018,NA,NA
93003,Ventura County,CA,NA,NA,13.302752293577983
93223,Tulare County,CA,NA,92.58589511754069,NA
93247,Tulare County,CA,68.94736842105263,NA,NA
93274,Tulare County,CA,5.263157894736842,NA,NA
93277,Tulare County,CA,22.105263157894736,NA,NA
93306,Kern County,CA,NA,31.103074141048825,NA
93309,Kern County,CA,28.24561403508772,NA,NA
93444,San Luis Obispo County,CA,NA,50.99457504520796,NA
93534,Los Angeles County,CA,33.68421052631579,NA,NA
93638,Madera County,CA,42.280701754385966,NA,NA
93648,Fresno County,CA,90.17543859649123,NA,NA
93657,Fresno County,CA,NA,90.23508137432188,NA
94041,Santa Clara County,CA,83.33333333333334,NA,NA
94080,San Mateo County,CA,29.64912280701754,NA,NA
94103,San Francisco County,CA,NA,15.732368896925857,NA
94112,San Francisco County,CA,NA,NA,2.293577981651376
94124,San Francisco County,CA,84.91228070175438,NA,NA
94303,San Mateo County,CA,NA,23.688969258589513,NA
94501,Alameda County,CA,NA,64.55696202531645,NA
94521,Contra Costa County,CA,NA,NA,85.3211009174312
94601,Alameda County,CA,NA,30.018083182640144,NA
94602,Alameda County,CA,NA,87.70343580470163,NA
94903,Marin County,CA,NA,NA,37.61467889908257
95120,Santa Clara County,CA,NA,NA,31.65137614678899
95124,Santa Clara County,CA,NA,60.397830018083184,NA
95127,Santa Clara County,CA,74.21052631578947,NA,56.42201834862385
95136,Santa Clara County,CA,50,96.74502712477397,NA
95219,San Joaquin County,CA,NA,65.82278481012658,NA
95222,Calaveras County,CA,NA,NA,67.88990825688074
95340,Merced County,CA,NA,42.495479204339965,NA
95350,Stanislaus County,CA,NA,NA,18.807339449541285
95380,Stanislaus County,CA,NA,17.359855334538878,NA
95382,Stanislaus County,CA,NA,NA,38.99082568807339
95388,Merced County,CA,84.3859649122807,NA,NA
95608,Sacramento County,CA,NA,17.17902350813743,NA
95953,Sutter County,CA,71.9298245614035,NA,NA
95966,Butte County,CA,NA,7.414104882459313,NA
80003,Jefferson County,CO,NA,44.66546112115732,NA
80012,Arapahoe County,CO,8.947368421052632,NA,NA
80107,Elbert County,CO,NA,66.54611211573237,NA
80120,Arapahoe County,CO,NA,NA,43.11926605504588
80127,Jefferson County,CO,40.87719298245614,NA,NA
80205,Denver County,CO,NA,28.20976491862568,NA
80211,Denver County,CO,NA,38.517179023508135,NA
80223,Denver County,CO,53.68421052631579,NA,NA
80224,Denver County,CO,76.31578947368422,NA,NA
80421,Park County,CO,NA,96.9258589511754,NA
80524,Larimer County,CO,27.54385964912281,NA,NA
80634,Weld County,CO,NA,1.2658227848101267,NA
80751,Logan County,CO,63.68421052631579,NA,NA
80904,El Paso County,CO,NA,84.08679927667269,NA
81004,Pueblo County,CO,NA,NA,39.908256880733944
81321,Montezuma County,CO,86.14035087719299,NA,NA
06042,Hartford County,CT,35.43859649122807,NA,NA
06078,Hartford County,CT,NA,NA,82.56880733944955
06108,Hartford County,CT,26.31578947368421,NA,NA
06413,Middlesex County,CT,75.26315789473685,NA,NA
06484,Fairfield County,CT,NA,24.77396021699819,NA
06492,New Haven County,CT,NA,NA,6.422018348623854
06514,New Haven County,CT,32.280701754385966,NA,NA
06516,New Haven County,CT,NA,3.79746835443038,NA
06606,Fairfield County,CT,15.964912280701753,NA,NA
06608,Fairfield County,CT,NA,84.99095840867993,NA
06614,Fairfield County,CT,NA,91.32007233273056,NA
06705,New Haven County,CT,NA,98.73417721518987,NA
06712,New Haven County,CT,NA,67.99276672694394,NA
06902,Fairfield County,CT,NA,10.488245931283906,NA
19701,New Castle County,DE,NA,15.551537070524413,NA
19713,New Castle County,DE,54.385964912280706,NA,NA
19802,New Castle County,DE,NA,NA,48.1651376146789
19945,Sussex County,DE,NA,NA,61.46788990825688
19973,Sussex County,DE,12.982456140350877,17.90235081374322,NA
32043,Clay County,FL,NA,47.19710669077758,NA
32177,Putnam County,FL,NA,NA,42.201834862385326
32207,Duval County,FL,NA,34.53887884267631,NA
32211,Duval County,FL,NA,34.9005424954792,NA
32219,Duval County,FL,98.42105263157895,NA,NA
32225,Duval County,FL,25.263157894736842,NA,NA
32244,Duval County,FL,NA,NA,33.94495412844037
32309,Leon County,FL,NA,57.68535262206148,NA
32401,Bay County,FL,34.91228070175438,NA,NA
32435,Walton County,FL,NA,81.19349005424955,NA
32506,Escambia County,FL,64.73684210526316,82.82097649186257,NA
32526,Escambia County,FL,11.578947368421053,NA,NA
32583,Santa Rosa County,FL,22.982456140350877,NA,NA
32680,Dixie County,FL,68.59649122807018,NA,NA
32754,Brevard County,FL,64.91228070175438,NA,NA
32757,Lake County,FL,NA,77.03435804701627,NA
32778,Lake County,FL,50.877192982456144,NA,NA
32804,Orange County,FL,NA,NA,97.70642201834863
32805,Orange County,FL,NA,NA,60.550458715596335
32818,Orange County,FL,14.385964912280702,NA,NA
32826,Orange County,FL,NA,NA,76.60550458715596
32835,Orange County,FL,NA,95.66003616636529,NA
32940,Brevard County,FL,79.2982456140351,NA,NA
32953,Brevard County,FL,NA,NA,15.59633027522936
32962,Indian River County,FL,NA,NA,72.93577981651376
32963,Indian River County,FL,NA,NA,14.678899082568808
32966,Indian River County,FL,90.17543859649123,25.85895117540687,NA
33014,Miami-Dade County,FL,NA,59.13200723327306,NA
33015,Miami-Dade County,FL,69.64912280701753,77.75768535262206,NA
33020,Broward County,FL,27.192982456140353,NA,NA
33176,Miami-Dade County,FL,57.54385964912281,NA,NA
33179,Miami-Dade County,FL,NA,52.62206148282098,NA
33304,Broward County,FL,NA,53.70705244122965,NA
33311,Broward County,FL,25.438596491228072,62.74864376130199,NA
33315,Broward County,FL,NA,NA,95.87155963302753
33319,Broward County,FL,38.24561403508772,NA,NA
33322,Broward County,FL,60.526315789473685,NA,NA
33415,Palm Beach County,FL,38.59649122807017,NA,NA
33444,Palm Beach County,FL,NA,57.86618444846293,NA
33446,Palm Beach County,FL,95.78947368421052,NA,NA
33473,Palm Beach County,FL,NA,79.02350813743219,NA
33523,Pasco County,FL,57.89473684210527,NA,NA
33541,Pasco County,FL,NA,28.933092224231466,NA
33604,Hillsborough County,FL,NA,31.645569620253166,NA
33614,Hillsborough County,FL,32.45614035087719,NA,NA
33712,Pinellas County,FL,87.01754385964912,NA,56.88073394495413
33713,Pinellas County,FL,44.91228070175438,NA,NA
33759,Pinellas County,FL,63.1578947368421,NA,NA
33837,Polk County,FL,NA,39.963833634719705,NA
33873,Hardee County,FL,NA,NA,48.62385321100918
33904,Lee County,FL,NA,NA,64.6788990825688
33912,Lee County,FL,74.21052631578947,NA,NA
33917,Lee County,FL,NA,44.303797468354425,NA
33983,Charlotte County,FL,NA,62.38698010849909,NA
34119,Collier County,FL,NA,NA,68.34862385321101
34205,Manatee County,FL,31.05263157894737,NA,NA
34234,Sarasota County,FL,NA,NA,36.69724770642202
34291,Sarasota County,FL,NA,76.13019891500905,NA
34471,Marion County,FL,NA,NA,73.85321100917432
34653,Pasco County,FL,25.6140350877193,NA,NA
34655,Pasco County,FL,56.14035087719298,NA,NA
34669,Pasco County,FL,NA,60.03616636528029,NA
34684,Pinellas County,FL,NA,12.115732368896925,NA
34691,Pasco County,FL,87.19298245614036,NA,NA
34748,Lake County,FL,NA,49.186256781193485,0.9174311926605505
34761,Orange County,FL,NA,32.730560578661844,NA
34990,Martin County,FL,NA,21.15732368896926,NA
30030,DeKalb County,GA,89.64912280701755,NA,NA
30032,DeKalb County,GA,NA,NA,22.477064220183486
30062,Cobb County,GA,39.29824561403509,NA,NA
30084,DeKalb County,GA,53.85964912280702,NA,NA
30087,DeKalb County,GA,NA,46.65461121157324,NA
30120,Bartow County,GA,87.71929824561403,NA,NA
30127,Cobb County,GA,NA,26.763110307414106,NA
30238,Clayton County,GA,NA,48.4629294755877,NA
30241,Troup County,GA,24.210526315789473,42.13381555153707,NA
30248,Henry County,GA,NA,48.824593128390596,NA
30263,Coweta County,GA,59.29824561403508,NA,NA
30291,Fulton County,GA,73.15789473684211,NA,NA
30311,Fulton County,GA,12.80701754385965,NA,NA
30312,Fulton County,GA,NA,42.67631103074141,NA
30315,Fulton County,GA,NA,NA,34.403669724770644
30349,Fulton County,GA,NA,11.030741410488245,NA
30525,Rabun County,GA,NA,72.33273056057867,NA
30650,Morgan County,GA,56.315789473684205,NA,NA
30680,Barrow County,GA,NA,19.168173598553345,NA
30701,Gordon County,GA,NA,NA,47.706422018348626
30753,Chattooga County,GA,NA,NA,89.44954128440367
31021,Laurens County,GA,73.68421052631578,NA,NA
31024,Putnam County,GA,48.07017543859649,61.48282097649186,NA
31047,Houston County,GA,78.24561403508771,NA,NA
31204,Bibb County,GA,28.771929824561404,NA,NA
31211,Bibb County,GA,61.929824561403514,NA,NA
31406,Chatham County,GA,NA,97.10669077757686,NA
31407,Chatham County,GA,78.42105263157895,NA,NA
96706,Honolulu County,HI,8.596491228070176,NA,NA
96740,Hawaii County,HI,75.08771929824562,NA,NA
96744,Honolulu County,HI,NA,3.25497287522604,NA
96786,Honolulu County,HI,70.87719298245614,NA,NA
96817,Honolulu County,HI,NA,5.605786618444846,NA
83350,Minidoka County,ID,64.21052631578948,NA,NA
83401,Bonneville County,ID,NA,62.56781193490054,NA
83501,Nez Perce County,ID,82.28070175438596,NA,NA
83605,Canyon County,ID,NA,19.529837251356238,NA
83686,Canyon County,ID,NA,NA,2.7522935779816518
83704,Ada County,ID,15.6140350877193,NA,NA
83709,Ada County,ID,NA,NA,3.669724770642202
83854,Kootenai County,ID,55.78947368421052,NA,NA
60013,McHenry County,IL,72.28070175438597,NA,NA
60020,Lake County,IL,NA,NA,68.80733944954129
60048,Lake County,IL,NA,22.06148282097649,86.23853211009175
60073,Lake County,IL,NA,NA,43.11926605504588
60134,Kane County,IL,NA,NA,58.256880733944946
60153,Cook County,IL,36.31578947368421,NA,NA
60155,Cook County,IL,NA,90.05424954792043,NA
60169,Cook County,IL,NA,71.24773960216999,NA
60176,Cook County,IL,86.8421052631579,NA,NA
60185,DuPage County,IL,34.385964912280706,NA,NA
60192,Cook County,IL,NA,71.97106690777576,NA
60403,Will County,IL,NA,32.368896925858955,NA
60406,Cook County,IL,NA,80.83182640144665,NA
60409,Cook County,IL,26.842105263157894,NA,NA
60411,Cook County,IL,63.50877192982456,NA,NA
60419,Cook County,IL,NA,58.95117540687161,NA
60425,Cook County,IL,NA,60.57866184448463,NA
60440,Will County,IL,17.894736842105264,13.924050632911392,NA
60453,Cook County,IL,11.75438596491228,NA,NA
60504,DuPage County,IL,NA,48.282097649186255,NA
60525,Cook County,IL,NA,12.839059674502712,NA
60527,DuPage County,IL,NA,9.403254972875226,NA
60552,LaSalle County,IL,97.89473684210527,NA,NA
60561,DuPage County,IL,NA,26.40144665461121,NA
60605,Cook County,IL,50.526315789473685,NA,NA
60612,Cook County,IL,42.80701754385965,NA,NA
60618,Cook County,IL,30.175438596491226,NA,NA
60619,Cook County,IL,59.473684210526315,NA,NA
60621,Cook County,IL,NA,27.66726943942134,NA
60629,Cook County,IL,5.43859649122807,38.698010849909586,NA
60630,Cook County,IL,NA,11.39240506329114,NA
60638,Cook County,IL,NA,NA,5.045871559633028
60640,Cook County,IL,NA,46.835443037974684,NA
60649,Cook County,IL,11.052631578947368,NA,NA
60651,Cook County,IL,NA,NA,15.137614678899084
60653,Cook County,IL,NA,54.61121157323689,NA
60655,Cook County,IL,NA,26.763110307414106,NA
60660,Cook County,IL,23.859649122807017,NA,NA
61443,Henry County,IL,75.43859649122807,NA,NA
61455,McDonough County,IL,NA,NA,32.11009174311927
61614,Peoria County,IL,NA,58.58951175406871,NA
61832,Vermilion County,IL,8.24561403508772,NA,NA
61866,Champaign County,IL,63.33333333333333,NA,NA
61920,Coles County,IL,47.192982456140356,NA,NA
61938,Coles County,IL,65.08771929824562,NA,NA
62040,Madison County,IL,NA,8.679927667269439,16.51376146788991
62095,Madison County,IL,NA,93.67088607594937,NA
62234,Madison County,IL,42.98245614035088,NA,NA
62260,St. Clair County,IL,NA,78.48101265822784,NA
62301,Adams County,IL,31.57894736842105,NA,NA
62439,Lawrence County,IL,72.98245614035088,NA,NA
62521,Macon County,IL,NA,30.198915009041592,NA
62526,Macon County,IL,NA,6.148282097649186,NA
62629,Sangamon County,IL,NA,90.41591320072332,NA
62906,Union County,IL,90,NA,NA
46176,Shelby County,IN,NA,NA,8.256880733944955
46219,Marion County,IN,70,NA,NA
46220,Marion County,IN,NA,37.43218806509946,NA
46226,Marion County,IN,37.01754385964912,NA,NA
46260,Marion County,IN,NA,38.33634719710669,NA
46304,Porter County,IN,NA,NA,27.981651376146786
46312,Lake County,IN,NA,NA,25.688073394495415
46323,Lake County,IN,NA,15.913200723327305,NA
46324,Lake County,IN,15.43859649122807,NA,NA
46383,Porter County,IN,NA,53.16455696202531,NA
46385,Porter County,IN,27.017543859649123,NA,NA
46526,Elkhart County,IN,NA,47.377938517179025,NA
46544,St. Joseph County,IN,41.75438596491228,NA,69.72477064220183
46545,St. Joseph County,IN,78.59649122807018,NA,NA
46563,Marshall County,IN,NA,20.43399638336347,NA
46628,St. Joseph County,IN,NA,67.45027124773961,NA
46806,Allen County,IN,23.50877192982456,NA,NA
46816,Allen County,IN,25.789473684210527,NA,NA
46902,Howard County,IN,70.35087719298245,NA,7.79816513761468
46953,Grant County,IN,NA,10.849909584086799,NA
46970,Miami County,IN,58.245614035087726,NA,NA
47150,Floyd County,IN,NA,6.50994575045208,NA
47201,Bartholomew County,IN,NA,11.754068716094032,12.385321100917432
47331,Fayette County,IN,NA,37.9746835443038,NA
47374,Wayne County,IN,20.350877192982455,4.159132007233273,NA
47403,Monroe County,IN,NA,86.25678119349006,NA
47546,Dubois County,IN,NA,NA,28.899082568807337
47598,Pike County,IN,NA,99.81916817359856,NA
47601,Warrick County,IN,NA,33.634719710669074,NA
47714,Vanderburgh County,IN,11.228070175438596,NA,NA
47715,Vanderburgh County,IN,NA,32.00723327305606,NA
47807,Vigo County,IN,40.70175438596491,NA,NA
50309,Polk County,IA,50.35087719298246,NA,NA
50436,Winnebago County,IA,NA,89.1500904159132,NA
50501,Webster County,IA,NA,29.475587703435806,NA
50801,Union County,IA,61.228070175438596,NA,NA
51247,Sioux County,IA,NA,99.45750452079565,NA
51601,Page County,IA,80.35087719298247,NA,NA
52001,Dubuque County,IA,NA,79.74683544303798,NA
52101,Winneshiek County,IA,NA,52.07956600361664,NA
52240,Johnson County,IA,19.12280701754386,NA,NA
52403,Linn County,IA,NA,81.55515370705244,33.02752293577982
52632,Lee County,IA,36.84210526315789,28.75226039783002,NA
52761,Muscatine County,IA,50.175438596491226,NA,NA
52804,Scott County,IA,NA,29.294755877034355,NA
52806,Scott County,IA,18.947368421052634,NA,NA
66062,Johnson County,KS,8.421052631578947,NA,NA
66067,Franklin County,KS,72.45614035087719,NA,NA
66104,Wyandotte County,KS,NA,NA,52.752293577981646
66106,Wyandotte County,KS,82.98245614035088,NA,NA
66212,Johnson County,KS,NA,14.647377938517177,NA
66604,Shawnee County,KS,NA,NA,35.77981651376147
66614,Shawnee County,KS,NA,16.817359855334537,NA
67005,Cowley County,KS,45.08771929824562,NA,NA
67060,Sedgwick County,KS,95.08771929824562,NA,NA
67501,Reno County,KS,NA,59.49367088607595,NA
40004,Nelson County,KY,69.2982456140351,NA,NA
40014,Oldham County,KY,NA,NA,88.53211009174312
40071,Spencer County,KY,46.666666666666664,NA,NA
40206,Jefferson County,KY,NA,66.18444846292948,NA
40210,Jefferson County,KY,37.89473684210527,NA,NA
40212,Jefferson County,KY,22.63157894736842,30.37974683544304,NA
40216,Jefferson County,KY,NA,NA,11.009174311926607
40219,Jefferson County,KY,NA,19.349005424954793,NA
40258,Jefferson County,KY,20.526315789473685,NA,NA
40291,Jefferson County,KY,NA,43.21880650994575,NA
40351,Rowan County,KY,NA,57.32368896925859,NA
40356,Jessamine County,KY,11.403508771929824,NA,NA
40383,Woodford County,KY,NA,76.49186256781194,NA
40504,Fayette County,KY,NA,50.27124773960217,NA
40505,Fayette County,KY,NA,55.51537070524412,NA
40741,Laurel County,KY,NA,NA,42.6605504587156
40831,Harlan County,KY,NA,51.89873417721519,NA
40962,Clay County,KY,NA,17.540687160940323,NA
41008,Carroll County,KY,91.22807017543859,NA,NA
41011,Kenton County,KY,76.66666666666667,NA,NA
41014,Kenton County,KY,NA,NA,99.08256880733946
41035,Grant County,KY,NA,96.56419529837251,NA
41042,Boone County,KY,NA,5.424954792043399,NA
41071,Campbell County,KY,97.01754385964912,NA,NA
41076,Campbell County,KY,NA,95.11754068716094,NA
41091,Boone County,KY,NA,NA,54.12844036697248
41129,Boyd County,KY,85.78947368421052,NA,NA
41858,Letcher County,KY,49.122807017543856,NA,NA
42029,Marshall County,KY,99.47368421052632,NA,NA
42031,Hickman County,KY,NA,80.10849909584087,NA
42066,Graves County,KY,NA,18.083182640144667,NA
42240,Christian County,KY,NA,NA,24.770642201834864
42301,Daviess County,KY,NA,9.22242314647378,NA
42420,Henderson County,KY,31.929824561403507,NA,NA
42445,Caldwell County,KY,NA,76.85352622061484,NA
42642,Russell County,KY,NA,54.06871609403255,NA
42754,Grayson County,KY,66.14035087719297,NA,NA
70094,Jefferson Parish,LA,4.2105263157894735,NA,NA
70115,Orleans Parish,LA,NA,19.710669077757686,NA
70122,Orleans Parish,LA,4.385964912280701,NA,NA
70123,Jefferson Parish,LA,NA,16.636528028933093,NA
70380,St. Mary Parish,LA,NA,25.135623869801083,NA
70392,St. Mary Parish,LA,NA,61.84448462929476,NA
70427,Washington Parish,LA,NA,NA,28.440366972477065
70433,St. Tammany Parish,LA,NA,6.6907775768535265,NA
70507,Lafayette Parish,LA,88.94736842105263,NA,NA
70517,St. Martin Parish,LA,10.350877192982457,NA,NA
70538,St. Mary Parish,LA,38.771929824561404,NA,NA
70560,Iberia Parish,LA,12.982456140350877,NA,NA
70563,Iberia Parish,LA,NA,51.35623869801085,NA
70570,St. Landry Parish,LA,1.0526315789473684,35.081374321880645,NA
70578,Acadia Parish,LA,19.824561403508774,NA,NA
70726,Livingston Parish,LA,NA,7.05244122965642,NA
70802,East Baton Rouge Parish,LA,5.614035087719298,NA,44.03669724770643
70806,East Baton Rouge Parish,LA,NA,NA,35.321100917431195
70810,East Baton Rouge Parish,LA,6.842105263157896,NA,NA
71040,Claiborne Parish,LA,NA,98.55334538878843,NA
71103,Caddo Parish,LA,70.7017543859649,NA,NA
71107,Caddo Parish,LA,2.807017543859649,NA,NA
71108,Caddo Parish,LA,NA,NA,71.55963302752293
71112,Bossier Parish,LA,37.719298245614034,NA,NA
71118,Caddo Parish,LA,NA,21.338155515370705,17.889908256880734
71202,Ouachita Parish,LA,3.8596491228070176,NA,NA
71301,Rapides Parish,LA,6.315789473684211,NA,NA
71302,Rapides Parish,LA,NA,47.920433996383366,NA
71346,Rapides Parish,LA,NA,98.19168173598554,NA
71457,Natchitoches Parish,LA,NA,20.976491862567812,NA
04043,York County,ME,NA,NA,59.174311926605505
04072,York County,ME,NA,16.455696202531644,NA
04074,Cumberland County,ME,57.19298245614035,NA,NA
04210,Androscoggin County,ME,NA,7.956600361663653,NA
04444,Penobscot County,ME,65.26315789473685,NA,NA
04457,Penobscot County,ME,60,NA,NA
04605,Hancock County,ME,NA,19.89150090415913,NA
04756,Aroostook County,ME,NA,NA,55.04587155963303
04901,Kennebec County,ME,NA,20.253164556962027,NA
04930,Penobscot County,ME,NA,87.52260397830018,NA
20772,Prince George's County,MD,67.19298245614034,NA,NA
20832,Montgomery County,MD,NA,67.63110307414105,NA
20877,Montgomery County,MD,NA,97.83001808318264,NA
21014,Harford County,MD,NA,78.30018083182641,NA
21207,Baltimore County,MD,NA,NA,16.972477064220186
21216,Baltimore city,MD,88.7719298245614,NA,NA
21230,Baltimore city,MD,32.631578947368425,NA,NA
21231,Baltimore city,MD,NA,55.69620253164557,NA
21236,Baltimore County,MD,NA,62.0253164556962,27.522935779816514
21401,Anne Arundel County,MD,22.45614035087719,NA,NA
21502,Allegany County,MD,93.33333333333333,NA,NA
01027,Hampshire County,MA,NA,88.60759493670885,NA
01085,Hampden County,MA,1.4035087719298245,NA,NA
01089,Hampden County,MA,18.771929824561404,NA,NA
01104,Hampden County,MA,1.2280701754385965,NA,NA
01201,Berkshire County,MA,0,0.18083182640144665,NA
01226,Berkshire County,MA,NA,51.17540687160941,NA
01331,Worcester County,MA,3.508771929824561,NA,NA
01463,Middlesex County,MA,NA,NA,94.4954128440367
01757,Worcester County,MA,12.105263157894736,NA,NA
01832,Essex County,MA,NA,9.041591320072333,NA
01854,Middlesex County,MA,NA,96.02169981916818,5.963302752293578
01864,Middlesex County,MA,NA,NA,90.36697247706422
01913,Essex County,MA,NA,8.1374321880651,NA
01930,Essex County,MA,57.719298245614034,NA,NA
02048,Bristol County,MA,NA,12.296564195298371,NA
02072,Norfolk County,MA,NA,NA,10.550458715596331
02115,Suffolk County,MA,NA,NA,25.229357798165136
02122,Suffolk County,MA,NA,95.47920433996383,NA
02124,Suffolk County,MA,NA,NA,72.47706422018348
02150,Suffolk County,MA,0.3508771929824561,NA,NA
02559,Barnstable County,MA,NA,78.48101265822784,NA
02649,Barnstable County,MA,34.03508771929825,NA,NA
02724,Bristol County,MA,3.1578947368421053,NA,NA
02740,Bristol County,MA,NA,83.00180831826401,NA
48044,Macomb County,MI,6.666666666666667,NA,NA
48075,Oakland County,MI,28.07017543859649,NA,NA
48093,Macomb County,MI,17.543859649122805,NA,NA
48098,Oakland County,MI,50.526315789473685,NA,NA
48164,Wayne County,MI,NA,60.94032549728752,NA
48176,Washtenaw County,MI,62.28070175438597,NA,NA
48183,Wayne County,MI,45.96491228070175,NA,NA
48192,Wayne County,MI,NA,55.33453887884268,NA
48206,Wayne County,MI,NA,24.050632911392405,NA
48208,Wayne County,MI,NA,NA,80.27522935779817
48214,Wayne County,MI,17.719298245614034,NA,NA
48217,Wayne County,MI,NA,85.35262206148282,NA
48218,Wayne County,MI,NA,70.34358047016275,NA
48221,Wayne County,MI,NA,NA,52.293577981651374
48234,Wayne County,MI,NA,86.4376130198915,NA
48237,Oakland County,MI,18.421052631578945,NA,NA
48238,Wayne County,MI,21.578947368421055,NA,NA
48307,Oakland County,MI,NA,NA,87.61467889908256
48375,Oakland County,MI,80.52631578947368,NA,NA
48390,Oakland County,MI,NA,72.875226039783,NA
48439,Genesee County,MI,80.17543859649123,NA,NA
48509,Genesee County,MI,NA,66.36528028933093,NA
48602,Saginaw County,MI,NA,34.177215189873415,NA
48603,Saginaw County,MI,NA,31.28390596745027,NA
48609,Saginaw County,MI,NA,NA,86.69724770642202
48708,Bay County,MI,81.75438596491227,NA,NA
48801,Gratiot County,MI,41.05263157894737,NA,NA
48867,Shiawassee County,MI,NA,75.76853526220614,NA
48912,Ingham County,MI,NA,NA,69.26605504587155
49037,Calhoun County,MI,12.280701754385964,NA,NA
49047,Cass County,MI,95.43859649122807,NA,NA
49057,Van Buren County,MI,NA,63.29113924050633,NA
49319,Kent County,MI,53.1578947368421,NA,NA
49423,Ottawa County,MI,9.473684210526317,NA,NA
49428,Ottawa County,MI,NA,69.62025316455697,NA
49431,Mason County,MI,30.350877192982455,NA,NA
49503,Kent County,MI,NA,NA,38.53211009174312
49525,Kent County,MI,NA,20.61482820976492,NA
49651,Missaukee County,MI,NA,80.28933092224231,NA
49696,Grand Traverse County,MI,NA,94.03254972875226,NA
49930,Houghton County,MI,NA,60.75949367088608,62.84403669724771
55037,Pine County,MN,88.0701754385965,NA,NA
55103,Ramsey County,MN,NA,NA,88.9908256880734
55109,Ramsey County,MN,NA,52.44122965641953,NA
55316,Hennepin County,MN,55.96491228070175,NA,NA
55404,Hennepin County,MN,NA,NA,78.89908256880734
55406,Hennepin County,MN,78.94736842105263,NA,NA
55407,Hennepin County,MN,NA,NA,50
55412,Hennepin County,MN,NA,30.92224231464738,NA
55432,Anoka County,MN,NA,35.98553345388788,NA
55720,Carlton County,MN,NA,34.719710669077756,NA
55746,St. Louis County,MN,79.64912280701755,NA,NA
55792,St. Louis County,MN,NA,24.95479204339964,NA
55806,St. Louis County,MN,NA,NA,93.57798165137615
55810,St. Louis County,MN,NA,39.42133815551537,NA
55812,St. Louis County,MN,84.56140350877193,NA,NA
55901,Olmsted County,MN,NA,49.90958408679928,NA
55906,Olmsted County,MN,NA,53.8878842676311,NA
55912,Mower County,MN,6.140350877192982,NA,NA
56482,Wadena County,MN,NA,NA,98.1651376146789
56649,Koochiching County,MN,99.82456140350877,NA,NA
38635,Marshall County,MS,NA,NA,91.28440366972477
38654,DeSoto County,MS,21.052631578947366,18.44484629294756,NA
38663,Tippah County,MS,92.10526315789474,NA,NA
38703,Washington County,MS,NA,68.35443037974683,NA
38801,Lee County,MS,35.78947368421053,NA,NA
38804,Lee County,MS,NA,83.90596745027125,NA
38866,Lee County,MS,90.17543859649123,NA,NA
38965,Yalobusha County,MS,NA,63.11030741410488,NA
39074,Scott County,MS,34.73684210526316,NA,NA
39153,Smith County,MS,96.49122807017544,NA,NA
39157,Madison County,MS,56.84210526315789,NA,NA
39209,Hinds County,MS,NA,NA,81.19266055045871
39212,Hinds County,MS,45.438596491228076,NA,NA
39213,Hinds County,MS,NA,41.952983725135624,NA
39301,Lauderdale County,MS,16.666666666666664,NA,NA
39428,Covington County,MS,67.71929824561404,NA,NA
39437,Jones County,MS,NA,96.20253164556962,NA
39525,Hancock County,MS,NA,43.037974683544306,NA
39562,Jackson County,MS,47.89473684210526,NA,NA
39574,Harrison County,MS,NA,43.76130198915009,NA
39601,Lincoln County,MS,NA,82.45931283905968,NA
39652,Pike County,MS,62.98245614035088,NA,NA
39702,Lowndes County,MS,34.21052631578947,NA,NA
63021,St. Louis County,MO,NA,9.584086799276673,NA
63033,St. Louis County,MO,13.333333333333334,12.47739602169982,NA
63038,St. Louis County,MO,98.24561403508771,NA,NA
63080,Franklin County,MO,NA,42.31464737793852,NA
63111,St. Louis city,MO,NA,40.50632911392405,NA
63118,St. Louis city,MO,28.947368421052634,NA,NA
63121,St. Louis County,MO,NA,67.8119349005425,NA
63125,St. Louis County,MO,NA,23.688969258589513,NA
63136,St. Louis County,MO,NA,8.860759493670885,NA
63138,St. Louis County,MO,NA,39.78300180831826,NA
63383,Warren County,MO,45.08771929824562,NA,NA
63801,Scott County,MO,47.01754385964912,NA,NA
64014,Jackson County,MO,NA,27.124773960217,NA
64030,Jackson County,MO,15.789473684210526,NA,NA
64080,Cass County,MO,52.98245614035088,62.92947558770343,NA
64118,Clay County,MO,4.56140350877193,NA,NA
64124,Jackson County,MO,NA,52.26039783001808,NA
64126,Jackson County,MO,98.0701754385965,NA,NA
64844,Newton County,MO,NA,98.91500904159132,NA
65202,Boone County,MO,NA,NA,65.13761467889908
65251,Callaway County,MO,53.333333333333336,NA,NA
65270,Randolph County,MO,51.92982456140351,NA,NA
65712,Lawrence County,MO,NA,NA,85.77981651376146
65807,Greene County,MO,51.05263157894737,NA,NA
59803,Missoula County,MT,NA,NA,94.95412844036697
68111,Douglas County,NE,NA,86.79927667269439,NA
68521,Lancaster County,NE,97.54385964912281,NA,63.76146788990825
89103,Clark County,NV,NA,46.292947558770344,NA
89108,Clark County,NV,61.578947368421055,NA,NA
89122,Clark County,NV,NA,39.059674502712475,NA
89129,Clark County,NV,NA,73.77938517179024,NA
89134,Clark County,NV,NA,NA,11.46788990825688
89434,Washoe County,NV,NA,28.390596745027125,NA
89445,Humboldt County,NV,68.77192982456141,NA,NA
89502,Washoe County,NV,NA,16.998191681735985,NA
89506,Washoe County,NV,89.82456140350877,NA,NA
03038,Rockingham County,NH,52.10526315789473,NA,NA
03042,Rockingham County,NH,NA,72.51356238698011,NA
03077,Rockingham County,NH,NA,56.41952983725136,NA
03103,Hillsborough County,NH,NA,8.499095840867993,NA
03246,Belknap County,NH,NA,NA,19.724770642201836
03773,Sullivan County,NH,NA,56.6003616636528,NA
03820,Strafford County,NH,19.473684210526315,NA,NA
03878,Strafford County,NH,95.26315789473684,NA,NA
07012,Passaic County,NJ,NA,75.5877034358047,NA
07017,Essex County,NJ,27.89473684210526,NA,NA
07065,Union County,NJ,20.87719298245614,NA,NA
07073,Bergen County,NJ,54.736842105263165,NA,NA
07107,Essex County,NJ,NA,52.98372513562387,NA
07111,Essex County,NJ,NA,7.233273056057866,NA
07307,Hudson County,NJ,8.771929824561402,NA,NA
07642,Bergen County,NJ,NA,90.59674502712477,NA
07728,Monmouth County,NJ,71.75438596491229,NA,NA
07730,Monmouth County,NJ,NA,64.91862567811934,NA
07753,Monmouth County,NJ,NA,NA,8.715596330275229
07866,Morris County,NJ,54.91228070175439,NA,NA
08028,Gloucester County,NJ,16.315789473684212,NA,NA
08052,Burlington County,NJ,NA,33.273056057866185,NA
08068,Burlington County,NJ,NA,54.43037974683544,NA
08085,Gloucester County,NJ,NA,40.3254972875226,NA
08088,Burlington County,NJ,NA,NA,44.95412844036697
08093,Gloucester County,NJ,NA,88.96925858951175,NA
08536,Middlesex County,NJ,NA,83.3634719710669,NA
08618,Mercer County,NJ,0.7017543859649122,NA,NA
08701,Ocean County,NJ,NA,NA,1.3761467889908259
08757,Ocean County,NJ,NA,21.518987341772153,NA
08807,Somerset County,NJ,52.807017543859644,NA,NA
08809,Hunterdon County,NJ,NA,NA,92.66055045871559
08820,Middlesex County,NJ,NA,21.699819168173597,NA
08854,Middlesex County,NJ,NA,36.166365280289334,NA
87001,Sandoval County,NM,NA,96.38336347197107,NA
87020,Cibola County,NM,68.24561403508773,NA,NA
87102,Bernalillo County,NM,19.649122807017545,NA,NA
87105,Bernalillo County,NM,NA,3.9783001808318263,NA
87106,Bernalillo County,NM,NA,32.5497287522604,NA
87109,Bernalillo County,NM,NA,14.466546112115733,9.63302752293578
87110,Bernalillo County,NM,NA,8.1374321880651,NA
87402,San Juan County,NM,88.24561403508771,NA,NA
87420,San Juan County,NM,53.50877192982456,54.249547920434,NA
88101,Curry County,NM,NA,43.76130198915009,NA
10023,New York County,NY,NA,NA,3.211009174311927
10033,New York County,NY,13.859649122807017,NA,NA
10036,New York County,NY,NA,37.79385171790235,NA
10314,Richmond County,NY,9.824561403508772,NA,NA
10451,Bronx County,NY,2.631578947368421,NA,NA
10453,Bronx County,NY,14.035087719298245,NA,NA
10456,Bronx County,NY,0.17543859649122806,0,NA
10457,Bronx County,NY,4.736842105263158,NA,NA
10459,Bronx County,NY,NA,7.775768535262206,NA
10460,Bronx County,NY,NA,0.7233273056057866,NA
10463,Bronx County,NY,NA,4.3399638336347195,NA
10466,Bronx County,NY,NA,NA,9.174311926605505
10467,Bronx County,NY,NA,0.5424954792043399,NA
10469,Bronx County,NY,NA,NA,4.128440366972478
10530,Westchester County,NY,NA,72.51356238698011,NA
10549,Westchester County,NY,NA,85.89511754068717,NA
10603,Westchester County,NY,64.3859649122807,NA,NA
10940,Orange County,NY,NA,13.01989150090416,NA
10977,Rockland County,NY,55.08771929824562,NA,NA
11208,Kings County,NY,NA,1.0849909584086799,NA
11212,Kings County,NY,NA,NA,6.8807339449541285
11216,Kings County,NY,NA,6.329113924050633,NA
11221,Kings County,NY,NA,3.4358047016274864,NA
11224,Kings County,NY,16.842105263157894,NA,NA
11226,Kings County,NY,NA,NA,10.091743119266056
11238,Kings County,NY,NA,NA,34.862385321100916
11368,Queens County,NY,NA,75.9493670886076,NA
11373,Queens County,NY,64.03508771929825,NA,NA
11414,Queens County,NY,NA,NA,46.788990825688074
11563,Nassau County,NY,73.33333333333333,NA,NA
11598,Nassau County,NY,96.3157894736842,NA,NA
11706,Suffolk County,NY,77.89473684210526,NA,NA
11731,Suffolk County,NY,NA,79.38517179023508,NA
11787,Suffolk County,NY,74.03508771929825,NA,NA
11793,Nassau County,NY,NA,77.57685352622062,NA
11798,Suffolk County,NY,NA,92.94755877034359,NA
12010,Montgomery County,NY,NA,4.882459312839059,NA
12203,Albany County,NY,96.66666666666667,NA,NA
12571,Dutchess County,NY,83.50877192982456,NA,NA
12866,Saratoga County,NY,39.473684210526315,NA,NA
12901,Clinton County,NY,2.982456140350877,NA,NA
12953,Franklin County,NY,NA,86.07594936708861,NA
13027,Onondaga County,NY,NA,75.22603978300181,NA
13202,Onondaga County,NY,73.33333333333333,NA,NA
13760,Broome County,NY,16.49122807017544,NA,NA
14215,Erie County,NY,NA,5.786618444846293,NA
14467,Monroe County,NY,NA,69.07775768535262,NA
14472,Monroe County,NY,NA,24.412296564195298,NA
14526,Monroe County,NY,NA,14.10488245931284,NA
14534,Monroe County,NY,NA,1.62748643761302,NA
14569,Wyoming County,NY,NA,49.36708860759494,NA
14572,Steuben County,NY,NA,61.30198915009042,NA
14606,Monroe County,NY,2.456140350877193,NA,NA
14609,Monroe County,NY,NA,10.669077757685352,NA
14616,Monroe County,NY,91.05263157894737,NA,NA
14621,Monroe County,NY,NA,16.2748643761302,NA
14623,Monroe County,NY,15.263157894736842,NA,NA
14625,Monroe County,NY,NA,NA,55.96330275229357
14892,Tioga County,NY,NA,95.84086799276673,NA
27028,Davie County,NC,12.456140350877194,NA,NA
27048,Rockingham County,NC,61.929824561403514,NA,NA
27253,Alamance County,NC,13.508771929824562,NA,NA
27278,Orange County,NC,NA,NA,16.055045871559635
27288,Rockingham County,NC,38.421052631578945,NA,NA
27298,Randolph County,NC,NA,55.87703435804702,NA
27302,Alamance County,NC,NA,36.166365280289334,NA
27316,Randolph County,NC,NA,NA,73.39449541284404
27379,Caswell County,NC,92.98245614035088,NA,NA
27401,Guilford County,NC,24.385964912280702,NA,NA
27501,Harnett County,NC,NA,78.11934900542495,NA
27549,Franklin County,NC,46.666666666666664,NA,NA
27573,Person County,NC,39.824561403508774,NA,NA
27576,Johnston County,NC,NA,93.12839059674502,NA
27591,Wake County,NC,48.24561403508772,NA,NA
27592,Wake County,NC,59.82456140350877,NA,NA
27615,Wake County,NC,NA,38.155515370705245,NA
27703,Durham County,NC,NA,9.764918625678119,24.31192660550459
27704,Durham County,NC,60.70175438596491,NA,NA
27713,Durham County,NC,48.421052631578945,NA,NA
27803,Nash County,NC,95.6140350877193,NA,NA
27834,Pitt County,NC,NA,NA,83.4862385321101
27850,Halifax County,NC,80,66.72694394213381,NA
27858,Pitt County,NC,NA,NA,46.330275229357795
27883,Wilson County,NC,94.91228070175438,NA,NA
27886,Edgecombe County,NC,33.50877192982456,NA,NA
27892,Martin County,NC,97.36842105263158,NA,NA
27948,Dare County,NC,NA,56.05786618444847,NA
28016,Gaston County,NC,89.12280701754386,NA,NA
28023,Rowan County,NC,NA,71.60940325497288,NA
28025,Cabarrus County,NC,NA,78.84267631103074,NA
28027,Cabarrus County,NC,NA,5.967450271247739,NA
28086,Cleveland County,NC,21.929824561403507,NA,NA
28092,Lincoln County,NC,NA,11.934900542495479,NA
28112,Union County,NC,82.45614035087719,NA,NA
28124,Cabarrus County,NC,86.31578947368422,NA,NA
28139,Rutherford County,NC,NA,47.739602169981914,NA
28144,Rowan County,NC,31.403508771929822,NA,NA
28208,Mecklenburg County,NC,7.719298245614035,NA,NA
28217,Mecklenburg County,NC,NA,79.20433996383363,NA
28262,Mecklenburg County,NC,71.57894736842105,NA,NA
28303,Cumberland County,NC,NA,35.62386980108499,NA
28379,Richmond County,NC,14.736842105263156,NA,NA
28383,Robeson County,NC,71.2280701754386,NA,NA
28384,Bladen County,NC,74.21052631578947,NA,NA
28387,Moore County,NC,NA,66.00361663652802,NA
28409,New Hanover County,NC,NA,15.18987341772152,NA
28451,Brunswick County,NC,NA,NA,70.18348623853211
28504,Lenoir County,NC,NA,49.00542495479204,NA
28516,Carteret County,NC,61.05263157894737,NA,NA
28601,Catawba County,NC,64.56140350877193,NA,NA
28602,Catawba County,NC,77.19298245614034,NA,NA
28630,Caldwell County,NC,70.52631578947368,NA,NA
28638,Caldwell County,NC,44.21052631578947,NA,NA
28650,Catawba County,NC,NA,NA,98.62385321100918
28675,Alleghany County,NC,85.43859649122807,NA,NA
28690,Burke County,NC,44.56140350877193,NA,NA
28752,McDowell County,NC,NA,12.658227848101266,NA
28792,Henderson County,NC,NA,NA,0
28904,Clay County,NC,NA,NA,45.87155963302752
58075,Richland County,ND,NA,93.49005424954791,NA
58203,Grand Forks County,ND,44.03508771929825,NA,NA
43078,Champaign County,OH,56.49122807017544,NA,NA
43130,Fairfield County,OH,1.5789473684210527,NA,NA
43207,Franklin County,OH,1.7543859649122806,NA,NA
43228,Franklin County,OH,NA,NA,20.18348623853211
43326,Hardin County,OH,NA,33.45388788426763,NA
43351,Wyandot County,OH,37.19298245614035,NA,NA
43506,Williams County,OH,48.59649122807018,NA,NA
43526,Defiance County,OH,82.63157894736842,NA,58.71559633027523
43551,Wood County,OH,NA,NA,40.36697247706422
43560,Lucas County,OH,49.473684210526315,NA,NA
43605,Lucas County,OH,55.26315789473685,NA,NA
43607,Lucas County,OH,5.087719298245614,NA,NA
43612,Lucas County,OH,3.3333333333333335,NA,NA
43701,Muskingum County,OH,5.964912280701754,NA,NA
43713,Belmont County,OH,93.15789473684211,NA,NA
43845,Coshocton County,OH,98.59649122807016,NA,NA
44001,Lorain County,OH,NA,3.616636528028933,NA
44047,Ashtabula County,OH,81.57894736842105,NA,NA
44052,Lorain County,OH,13.684210526315791,2.1699819168173597,NA
44055,Lorain County,OH,7.192982456140351,NA,NA
44057,Lake County,OH,NA,NA,75.22935779816514
44067,Summit County,OH,82.80701754385966,NA,NA
44077,Lake County,OH,NA,2.5316455696202533,NA
44089,Erie County,OH,33.68421052631579,NA,NA
44102,Cuyahoga County,OH,NA,16.09403254972875,NA
44108,Cuyahoga County,OH,NA,5.244122965641953,NA
44112,Cuyahoga County,OH,6.491228070175438,NA,NA
44113,Cuyahoga County,OH,NA,85.17179023508137,NA
44117,Cuyahoga County,OH,37.368421052631575,NA,NA
44118,Cuyahoga County,OH,35.96491228070175,NA,NA
44120,Cuyahoga County,OH,NA,3.074141048824593,NA
44122,Cuyahoga County,OH,47.719298245614034,NA,29.357798165137616
44133,Cuyahoga County,OH,23.157894736842106,NA,NA
44134,Cuyahoga County,OH,NA,30.560578661844485,NA
44146,Cuyahoga County,OH,NA,84.62929475587704,NA
44256,Medina County,OH,NA,NA,0.45871559633027525
44266,Portage County,OH,7.368421052631578,NA,NA
44301,Summit County,OH,27.368421052631582,NA,NA
44444,Trumbull County,OH,43.333333333333336,NA,NA
44460,Columbiana County,OH,NA,6.871609403254973,NA
44683,Tuscarawas County,OH,NA,81.91681735985533,NA
44708,Stark County,OH,NA,90.77757685352623,NA
44720,Stark County,OH,83.6842105263158,NA,NA
44870,Erie County,OH,2.1052631578947367,NA,NA
45044,Butler County,OH,NA,NA,19.26605504587156
45106,Clermont County,OH,79.47368421052632,NA,NA
45123,Highland County,OH,NA,NA,36.23853211009174
45216,Hamilton County,OH,NA,52.80289330922242,NA
45217,Hamilton County,OH,NA,67.99276672694394,NA
45231,Hamilton County,OH,28.24561403508772,85.53345388788426,NA
45239,Hamilton County,OH,NA,28.028933092224236,NA
45244,Hamilton County,OH,NA,37.070524412296564,NA
45246,Hamilton County,OH,NA,54.97287522603978,NA
45305,Greene County,OH,NA,70.5244122965642,79.35779816513761
45342,Montgomery County,OH,NA,NA,53.669724770642205
45387,Greene County,OH,99.29824561403508,NA,NA
45429,Montgomery County,OH,NA,71.06690777576854,NA
45440,Montgomery County,OH,NA,59.3128390596745,NA
45502,Clark County,OH,84.21052631578947,NA,NA
45505,Clark County,OH,NA,86.98010849909585,NA
45601,Ross County,OH,0.5263157894736842,NA,NA
45612,Ross County,OH,NA,69.98191681735986,NA
45724,Washington County,OH,96.14035087719299,NA,NA
45750,Washington County,OH,1.9298245614035088,NA,NA
45804,Allen County,OH,36.49122807017544,NA,53.21100917431193
45805,Allen County,OH,10.526315789473683,NA,NA
45840,Hancock County,OH,NA,2.7124773960216997,NA
73012,Oklahoma County,OK,67.01754385964912,NA,NA
73071,Cleveland County,OK,NA,13.5623869801085,NA
73106,Oklahoma County,OK,NA,80.6509945750452,NA
73114,Oklahoma County,OK,45.438596491228076,NA,NA
73115,Oklahoma County,OK,49.29824561403508,NA,NA
73127,Oklahoma County,OK,42.45614035087719,NA,NA
73135,Oklahoma County,OK,NA,46.473779385171795,NA
73139,Oklahoma County,OK,NA,50.81374321880651,NA
73150,Oklahoma County,OK,NA,83.7251356238698,NA
73170,Cleveland County,OK,28.596491228070175,NA,NA
73401,Carter County,OK,NA,75.40687160940325,NA
73501,Comanche County,OK,NA,67.08860759493672,NA
74014,Wagoner County,OK,NA,20.795660036166367,NA
74112,Tulsa County,OK,81.22807017543859,NA,NA
74133,Tulsa County,OK,NA,91.86256781193491,NA
74145,Tulsa County,OK,85.96491228070175,NA,NA
74432,McIntosh County,OK,99.12280701754386,NA,NA
74436,Muskogee County,OK,NA,94.57504520795659,NA
74501,Pittsburg County,OK,69.12280701754386,NA,NA
74701,Bryan County,OK,NA,44.12296564195298,NA
74820,Pontotoc County,OK,NA,4.701627486437613,NA
74868,Seminole County,OK,NA,83.18264014466547,NA
97015,Clackamas County,OR,NA,58.04701627486437,NA
97123,Washington County,OR,18.24561403508772,NA,NA
97146,Clatsop County,OR,NA,61.12115732368897,NA
97230,Multnomah County,OR,20.701754385964914,NA,NA
97306,Marion County,OR,NA,NA,55.5045871559633
97355,Linn County,OR,NA,NA,66.05504587155964
97360,Linn County,OR,NA,99.63833634719711,NA
97402,Lane County,OR,NA,NA,80.73394495412845
97415,Curry County,OR,NA,NA,21.55963302752294
97420,Coos County,OR,NA,32.91139240506329,NA
97423,Coos County,OR,91.75438596491227,NA,NA
97424,Lane County,OR,86.49122807017544,NA,NA
97477,Lane County,OR,21.403508771929825,NA,NA
97496,Douglas County,OR,46.31578947368421,NA,NA
97501,Jackson County,OR,NA,9.945750452079565,NA
97504,Jackson County,OR,NA,11.573236889692586,NA
97702,Deschutes County,OR,NA,30.74141048824593,NA
97703,Deschutes County,OR,NA,59.6745027124774,NA
97850,Union County,OR,NA,22.965641952983727,NA
15037,Allegheny County,PA,71.9298245614035,NA,NA
15057,Washington County,PA,NA,NA,92.20183486238533
15211,Allegheny County,PA,NA,65.46112115732369,NA
15215,Allegheny County,PA,NA,74.86437613019892,NA
15234,Allegheny County,PA,NA,80.83182640144665,NA
15243,Allegheny County,PA,NA,NA,31.19266055045872
15301,Washington County,PA,5.7894736842105265,62.20614828209765,NA
15317,Washington County,PA,NA,48.64376130198915,NA
15613,Westmoreland County,PA,NA,NA,62.38532110091744
15650,Westmoreland County,PA,40,NA,NA
16001,Butler County,PA,NA,1.9891500904159132,NA
16066,Butler County,PA,55.614035087719294,NA,NA
16125,Mercer County,PA,NA,68.89692585895118,NA
16602,Blair County,PA,NA,11.211573236889691,NA
16701,McKean County,PA,NA,NA,87.1559633027523
16915,Potter County,PA,NA,54.79204339963834,NA
17003,Lebanon County,PA,NA,93.30922242314648,NA
17013,Cumberland County,PA,NA,15.009041591320072,NA
17015,Cumberland County,PA,38.94736842105263,NA,NA
17042,Lebanon County,PA,3.684210526315789,NA,NA
17061,Dauphin County,PA,93.6842105263158,NA,NA
17078,Lebanon County,PA,NA,79.56600361663652,NA
17104,Dauphin County,PA,NA,29.8372513562387,NA
17110,Dauphin County,PA,NA,21.880650994575046,NA
17113,Dauphin County,PA,39.64912280701755,NA,NA
17325,Adams County,PA,NA,5.063291139240507,NA
17331,York County,PA,NA,0.9041591320072333,NA
17345,York County,PA,58.77192982456141,NA,NA
17368,York County,PA,65.96491228070175,NA,NA
17501,Lancaster County,PA,NA,NA,79.81651376146789
17540,Lancaster County,PA,NA,NA,70.64220183486239
17545,Lancaster County,PA,NA,NA,81.65137614678899
17552,Lancaster County,PA,NA,NA,84.86238532110092
17777,Northumberland County,PA,NA,NA,71.10091743119266
17847,Northumberland County,PA,54.385964912280706,NA,NA
18017,Northampton County,PA,NA,NA,1.834862385321101
18036,Lehigh County,PA,79.82456140350878,NA,NA
18042,Northampton County,PA,4.912280701754386,NA,NA
18102,Lehigh County,PA,29.29824561403509,56.9620253164557,NA
18360,Monroe County,PA,NA,NA,14.220183486238533
18503,Lackawanna County,PA,NA,92.76672694394213,NA
18504,Lackawanna County,PA,27.54385964912281,NA,NA
18518,Lackawanna County,PA,NA,NA,83.02752293577981
18603,Columbia County,PA,10.87719298245614,NA,NA
18944,Bucks County,PA,NA,NA,97.24770642201835
18966,Bucks County,PA,NA,33.815551537070526,NA
19002,Montgomery County,PA,NA,NA,20.642201834862387
19004,Montgomery County,PA,NA,NA,65.59633027522935
19040,Montgomery County,PA,NA,NA,29.81651376146789
19061,Delaware County,PA,25.087719298245613,NA,NA
19104,Philadelphia County,PA,35.08771929824561,NA,NA
19116,Philadelphia County,PA,NA,13.381555153707053,NA
19125,Philadelphia County,PA,NA,44.846292947558766,NA
19129,Philadelphia County,PA,NA,53.52622061482821,NA
19131,Philadelphia County,PA,NA,2.8933092224231465,NA
19401,Montgomery County,PA,30.526315789473685,NA,NA
19403,Montgomery County,PA,NA,74.32188065099457,NA
19426,Montgomery County,PA,31.75438596491228,NA,NA
19428,Montgomery County,PA,78.0701754385965,NA,NA
19534,Berks County,PA,NA,99.27667269439421,NA
19604,Berks County,PA,NA,29.11392405063291,NA
02852,Washington County,RI,NA,22.78481012658228,NA
02908,Providence County,RI,NA,29.65641952983725,NA
29010,Lee County,SC,98.7719298245614,NA,NA
29040,Sumter County,SC,NA,100,NA
29102,Clarendon County,SC,99.64912280701755,NA,NA
29115,Orangeburg County,SC,NA,27.305605786618447,NA
29118,Orangeburg County,SC,NA,80.47016274864376,NA
29135,Calhoun County,SC,94.38596491228071,NA,NA
29150,Sumter County,SC,NA,66.72694394213381,NA
29161,Florence County,SC,92.28070175438596,NA,NA
29349,Spartanburg County,SC,22.280701754385966,NA,NA
29403,Charleston County,SC,76.14035087719299,NA,NA
29405,Charleston County,SC,NA,31.82640144665461,NA
29412,Charleston County,SC,NA,NA,40.36697247706422
29488,Colleton County,SC,32.10526315789474,NA,NA
29550,Darlington County,SC,74.73684210526315,NA,NA
29566,Horry County,SC,66.49122807017544,NA,NA
29571,Marion County,SC,NA,NA,100
29572,Horry County,SC,91.40350877192982,NA,NA
29577,Horry County,SC,NA,NA,47.24770642201835
29588,Horry County,SC,NA,NA,21.55963302752294
29617,Greenville County,SC,32.80701754385965,NA,NA
29627,Anderson County,SC,49.824561403508774,NA,NA
29640,Pickens County,SC,NA,47.55877034358047,NA
29644,Greenville County,SC,NA,NA,63.30275229357798
29673,Greenville County,SC,NA,43.399638336347195,NA
29678,Oconee County,SC,47.54385964912281,NA,NA
29693,Oconee County,SC,90.70175438596492,NA,NA
29706,Chester County,SC,30.87719298245614,NA,NA
29732,York County,SC,NA,20.07233273056058,NA
29841,Aiken County,SC,43.859649122807014,NA,NA
29902,Beaufort County,SC,66.66666666666666,NA,NA
57719,Pennington County,SD,NA,70.88607594936708,NA
57783,Lawrence County,SD,81.05263157894737,NA,NA
37062,Williamson County,TN,NA,NA,93.11926605504587
37066,Sumner County,TN,NA,7.59493670886076,NA
37072,Davidson County,TN,54.21052631578947,NA,NA
37076,Davidson County,TN,NA,25.678119349005424,NA
37130,Rutherford County,TN,NA,25.49728752260398,NA
37172,Robertson County,TN,12.631578947368421,NA,NA
37206,Davidson County,TN,71.05263157894737,NA,NA
37208,Davidson County,TN,22.807017543859647,49.90958408679928,NA
37210,Davidson County,TN,72.63157894736842,NA,NA
37303,McMinn County,TN,46.49122807017544,NA,NA
37311,Bradley County,TN,NA,NA,90.82568807339449
37312,Bradley County,TN,NA,NA,94.03669724770643
37388,Coffee County,TN,30,NA,NA
37404,Hamilton County,TN,54.03508771929825,NA,NA
37701,Blount County,TN,59.122807017543856,NA,NA
37722,Cocke County,TN,78.7719298245614,NA,NA
37745,Greene County,TN,NA,18.9873417721519,NA
37748,Roane County,TN,31.2280701754386,NA,NA
37764,Sevier County,TN,81.9298245614035,NA,NA
37771,Loudon County,TN,NA,45.02712477396022,NA
37803,Blount County,TN,29.122807017543863,NA,NA
37807,Union County,TN,NA,69.07775768535262,NA
37821,Cocke County,TN,NA,24.23146473779385,NA
37830,Anderson County,TN,48.771929824561404,NA,NA
37917,Knox County,TN,NA,18.806509945750452,NA
37920,Knox County,TN,9.298245614035087,NA,NA
38006,Crockett County,TN,87.89473684210526,NA,NA
38106,Shelby County,TN,14.210526315789473,NA,NA
38109,Shelby County,TN,9.12280701754386,NA,NA
38116,Shelby County,TN,42.10526315789473,NA,49.54128440366973
38133,Shelby County,TN,66.14035087719297,NA,NA
38221,Benton County,TN,91.57894736842105,NA,NA
38544,Putnam County,TN,55.43859649122807,NA,NA
38574,Putnam County,TN,69.47368421052632,NA,NA
38583,White County,TN,49.64912280701754,NA,NA
75056,Denton County,TX,100,NA,NA
75062,Dallas County,TX,77.71929824561403,NA,NA
75088,Dallas County,TX,NA,36.708860759493675,NA
75104,Dallas County,TX,21.228070175438596,NA,NA
75114,Kaufman County,TX,NA,98.37251356238697,NA
75115,Dallas County,TX,20.175438596491226,NA,NA
75142,Kaufman County,TX,51.75438596491229,NA,NA
75159,Dallas County,TX,NA,65.0994575045208,NA
75201,Dallas County,TX,67.36842105263158,NA,NA
75203,Dallas County,TX,NA,94.75587703435805,NA
75209,Dallas County,TX,79.12280701754386,NA,NA
75211,Dallas County,TX,42.45614035087719,NA,NA
75216,Dallas County,TX,NA,68.71609403254972,NA
75217,Dallas County,TX,7.368421052631578,NA,NA
75224,Dallas County,TX,NA,NA,44.4954128440367
75244,Dallas County,TX,NA,73.05605786618446,NA
75287,Denton County,TX,NA,40.14466546112116,NA
75442,Collin County,TX,85.26315789473684,NA,NA
75457,Franklin County,TX,NA,83.54430379746836,NA
75474,Hunt County,TX,52.28070175438596,NA,NA
75501,Bowie County,TX,NA,NA,41.284403669724774
75633,Panola County,TX,NA,NA,75.68807339449542
75644,Upshur County,TX,58.59649122807018,NA,NA
75645,Upshur County,TX,69.82456140350877,NA,NA
75701,Smith County,TX,NA,NA,5.5045871559633035
75904,Angelina County,TX,NA,91.68173598553345,NA
75979,Tyler County,TX,75.6140350877193,NA,NA
76036,Tarrant County,TX,72.80701754385966,NA,77.06422018348624
76067,Palo Pinto County,TX,NA,NA,49.08256880733945
76106,Tarrant County,TX,NA,17.72151898734177,67.43119266055045
76112,Tarrant County,TX,NA,13.743218806509946,NA
76140,Tarrant County,TX,80.7017543859649,35.2622061482821,NA
76180,Tarrant County,TX,NA,28.57142857142857,NA
76266,Denton County,TX,NA,NA,96.78899082568807
76504,Bell County,TX,7.894736842105263,NA,NA
76657,McLennan County,TX,94.56140350877193,NA,NA
76825,McCulloch County,TX,NA,63.29113924050633,NA
76903,Tom Green County,TX,37.54385964912281,NA,38.07339449541284
77003,Harris County,TX,87.54385964912281,NA,NA
77009,Harris County,TX,NA,NA,54.58715596330275
77016,Harris County,TX,74.91228070175438,NA,NA
77026,Harris County,TX,44.73684210526316,43.58047016274864,NA
77029,Harris County,TX,NA,57.14285714285714,NA
77033,Harris County,TX,NA,85.71428571428571,NA
77035,Harris County,TX,NA,41.41048824593128,NA
77045,Harris County,TX,NA,51.71790235081374,NA
77057,Harris County,TX,NA,45.56962025316456,NA
77059,Harris County,TX,NA,74.50271247739603,NA
77062,Harris County,TX,NA,87.16094032549728,NA
77064,Harris County,TX,32.98245614035088,NA,NA
77074,Harris County,TX,NA,NA,89.90825688073394
77077,Harris County,TX,NA,26.03978300180832,NA
77083,Harris County,TX,NA,22.24231464737794,NA
77084,Harris County,TX,9.649122807017543,NA,NA
77316,Montgomery County,TX,NA,88.42676311030742,NA
77328,San Jacinto County,TX,68.0701754385965,NA,NA
77336,Harris County,TX,81.40350877192982,NA,NA
77429,Harris County,TX,NA,4.520795660036167,NA
77433,Harris County,TX,NA,NA,72.01834862385321
77469,Fort Bend County,TX,NA,NA,37.15596330275229
77479,Fort Bend County,TX,25.964912280701753,NA,NA
77489,Fort Bend County,TX,26.666666666666668,NA,NA
77505,Harris County,TX,NA,50.45207956600362,NA
77539,Galveston County,TX,18.070175438596493,NA,NA
77546,Galveston County,TX,NA,10.126582278481013,NA
77550,Galveston County,TX,17.017543859649123,NA,NA
77551,Galveston County,TX,NA,91.13924050632912,NA
77554,Galveston County,TX,NA,NA,57.3394495412844
77566,Brazoria County,TX,NA,77.9385171790235,NA
77568,Galveston County,TX,NA,67.26943942133815,NA
77590,Galveston County,TX,38.07017543859649,NA,NA
77640,Jefferson County,TX,NA,51.5370705244123,NA
77705,Jefferson County,TX,NA,NA,60.09174311926605
77803,Brazos County,TX,NA,35.44303797468354,NA
77957,Jackson County,TX,NA,NA,61.00917431192661
77979,Calhoun County,TX,61.40350877192983,NA,NA
78003,Bandera County,TX,NA,94.2133815551537,NA
78028,Kerr County,TX,34.56140350877193,14.828209764918626,NA
78040,Webb County,TX,62.807017543859644,NA,NA
78046,Webb County,TX,NA,NA,41.74311926605505
78124,Guadalupe County,TX,92.45614035087719,NA,NA
78148,Bexar County,TX,NA,82.27848101265823,NA
78207,Bexar County,TX,60.35087719298245,NA,21.100917431192663
78210,Bexar County,TX,21.75438596491228,41.591320072332735,NA
78213,Bexar County,TX,40.526315789473685,NA,NA
78221,Bexar County,TX,40.17543859649123,92.40506329113924,NA
78227,Bexar County,TX,NA,69.43942133815551,NA
78251,Bexar County,TX,NA,65.28028933092224,NA
78264,Bexar County,TX,77.01754385964912,NA,74.31192660550458
78332,Jim Wells County,TX,94.03508771929825,NA,NA
78380,Nueces County,TX,NA,55.15370705244123,NA
78410,Nueces County,TX,NA,64.73779385171791,NA
78415,Nueces County,TX,65.78947368421053,NA,NA
78418,Nueces County,TX,NA,64.376130198915,NA
78520,Cameron County,TX,47.368421052631575,NA,NA
78552,Cameron County,TX,58.42105263157895,NA,NA
78573,Hidalgo County,TX,NA,NA,26.605504587155966
78574,Hidalgo County,TX,NA,79.92766726943941,NA
78577,Hidalgo County,TX,NA,NA,59.63302752293578
78582,Starr County,TX,NA,33.815551537070526,NA
78586,Cameron County,TX,NA,NA,30.275229357798167
78621,Bastrop County,TX,58.94736842105262,NA,NA
78639,Llano County,TX,85.08771929824562,NA,NA
78666,Hays County,TX,23.684210526315788,NA,NA
78747,Travis County,TX,NA,84.26763110307414,NA
78753,Travis County,TX,51.578947368421055,NA,NA
78756,Travis County,TX,NA,89.87341772151899,NA
78801,Uvalde County,TX,52.63157894736842,88.24593128390596,NA
78852,Maverick County,TX,NA,NA,95.41284403669725
79108,Potter County,TX,NA,98.01084990958408,NA
79109,Randall County,TX,NA,35.80470162748644,NA
79201,Childress County,TX,97.71929824561404,NA,NA
79364,Lubbock County,TX,NA,74.14104882459313,NA
79413,Lubbock County,TX,NA,NA,30.73394495412844
79414,Lubbock County,TX,NA,NA,51.8348623853211
79416,Lubbock County,TX,44.3859649122807,72.15189873417721,NA
79603,Taylor County,TX,26.49122807017544,NA,NA
79707,Midland County,TX,30.701754385964914,NA,NA
79902,El Paso County,TX,77.36842105263158,NA,NA
79905,El Paso County,TX,NA,45.56962025316456,NA
79936,El Paso County,TX,10,NA,NA
84065,Salt Lake County,UT,NA,NA,61.92660550458715
84119,Salt Lake County,UT,NA,NA,66.5137614678899
84120,Salt Lake County,UT,NA,NA,74.77064220183486
84302,Box Elder County,UT,NA,91.500904159132,NA
84335,Cache County,UT,NA,95.29837251356238,NA
84404,Weber County,UT,18.596491228070175,NA,NA
05641,Washington County,VT,29.47368421052631,NA,12.844036697247708
20110,Manassas city,VA,NA,NA,45.412844036697244
20112,Prince William County,VA,NA,65.64195298372513,NA
22191,Prince William County,VA,NA,25.31645569620253,NA
22192,Prince William County,VA,17.36842105263158,NA,NA
22304,Alexandria city,VA,11.929824561403509,NA,NA
22308,Fairfax County,VA,NA,NA,51.37614678899083
22405,Stafford County,VA,48.94736842105264,NA,NA
22556,Stafford County,VA,NA,56.78119349005425,NA
22560,Essex County,VA,NA,NA,99.54128440366972
22601,Winchester city,VA,73.85964912280701,NA,NA
22655,Frederick County,VA,NA,90.95840867992767,NA
22802,Harrisonburg city,VA,NA,NA,76.14678899082568
22911,Albemarle County,VA,62.63157894736842,NA,NA
23005,Hanover County,VA,82.10526315789474,NA,NA
23009,King William County,VA,NA,84.81012658227847,NA
23093,Louisa County,VA,51.40350877192983,NA,NA
23111,Hanover County,VA,NA,NA,50.45871559633027
23112,Chesterfield County,VA,NA,22.423146473779383,NA
23223,Henrico County,VA,NA,53.34538878842676,NA
23229,Henrico County,VA,86.66666666666667,NA,NA
23234,Chesterfield County,VA,17.192982456140353,NA,NA
23320,Chesapeake city,VA,51.2280701754386,NA,NA
23324,Chesapeake city,VA,84.73684210526315,NA,NA
23325,Chesapeake city,VA,NA,50.63291139240506,NA
23430,Isle of Wight County,VA,57.36842105263158,NA,NA
23462,Virginia Beach city,VA,NA,49.54792043399638,NA
23464,Virginia Beach city,VA,NA,18.625678119349008,NA
23505,Norfolk city,VA,35.6140350877193,NA,NA
23701,Portsmouth city,VA,41.40350877192983,NA,NA
23704,Portsmouth city,VA,24.912280701754387,NA,NA
23803,Petersburg city,VA,36.140350877192986,NA,NA
23805,Petersburg city,VA,85.6140350877193,NA,NA
23836,Chesterfield County,VA,NA,71.79023508137432,NA
23842,Prince George County,VA,89.47368421052632,NA,NA
24084,Pulaski County,VA,70.17543859649122,NA,NA
24112,Henry County,VA,14.561403508771932,14.285714285714285,NA
24523,Bedford County,VA,NA,NA,33.48623853211009
24540,Danville city,VA,24.035087719298247,22.60397830018083,NA
24550,Campbell County,VA,NA,74.68354430379746,NA
24572,Amherst County,VA,88.42105263157895,NA,NA
98188,King County,WA,NA,46.1121157323689,NA
98365,Jefferson County,WA,NA,73.96021699819168,NA
98382,Clallam County,WA,NA,2.3508137432188065,NA
98404,Pierce County,WA,NA,34.35804701627486,NA
98661,Clark County,WA,41.929824561403514,NA,NA
99109,Stevens County,WA,NA,97.2875226039783,NA
99114,Stevens County,WA,NA,58.22784810126582,NA
99206,Spokane County,WA,40.35087719298245,NA,NA
99216,Spokane County,WA,77.54385964912281,NA,NA
20001,District of Columbia,DC,NA,NA,32.56880733944954
20011,District of Columbia,DC,7.017543859649122,NA,4.587155963302752
20012,District of Columbia,DC,71.40350877192982,NA,NA
20019,District of Columbia,DC,NA,40.6871609403255,NA
20020,District of Columbia,DC,NA,NA,91.74311926605505
25177,Kanawha County,WV,10.175438596491228,NA,NA
25312,Kanawha County,WV,92.80701754385964,NA,NA
25401,Berkeley County,WV,NA,93.85171790235081,NA
25428,Berkeley County,WV,93.85964912280701,NA,NA
25526,Putnam County,WV,NA,59.85533453887884,NA
25880,Raleigh County,WV,68.42105263157895,NA,NA
26201,Upshur County,WV,NA,15.370705244122965,NA
26301,Harrison County,WV,25.964912280701753,NA,NA
26378,Lewis County,WV,94.73684210526315,NA,NA
26416,Barbour County,WV,NA,32.00723327305606,NA
26508,Monongalia County,WV,4.035087719298246,NA,NA
26554,Marion County,WV,19.298245614035086,NA,NA
53005,Waukesha County,WI,36.666666666666664,NA,NA
53027,Washington County,WI,NA,36.88969258589512,NA
53061,Calumet County,WI,83.85964912280703,NA,NA
53095,Washington County,WI,NA,NA,27.06422018348624
53104,Kenosha County,WI,NA,58.40867992766727,NA
53132,Milwaukee County,WI,NA,NA,11.926605504587156
53144,Kenosha County,WI,15.087719298245613,23.146473779385172,NA
53149,Waukesha County,WI,60.175438596491226,NA,NA
53154,Milwaukee County,WI,NA,10.30741410488246,NA
53202,Milwaukee County,WI,NA,77.39602169981917,NA
53204,Milwaukee County,WI,24.736842105263158,NA,NA
53208,Milwaukee County,WI,NA,23.508137432188065,NA
53209,Milwaukee County,WI,2.280701754385965,1.4466546112115732,NA
53212,Milwaukee County,WI,10.701754385964913,NA,NA
53219,Milwaukee County,WI,57.01754385964912,NA,NA
53221,Milwaukee County,WI,NA,92.04339963833634,NA
53511,Rock County,WI,0.8771929824561403,0.3616636528028933,NA
53590,Dane County,WI,35.26315789473684,NA,NA
53597,Dane County,WI,NA,NA,50.917431192660544
53901,Columbia County,WI,58.07017543859649,NA,NA
53950,Juneau County,WI,76.84210526315789,NA,NA
54001,Polk County,WI,43.15789473684211,44.48462929475588,NA
54115,Brown County,WI,65.6140350877193,NA,NA
54220,Manitowoc County,WI,NA,1.8083182640144666,NA
54501,Oneida County,WI,NA,NA,17.431192660550458
54603,La Crosse County,WI,NA,NA,64.22018348623854
54729,Chippewa County,WI,29.82456140350877,NA,NA
54755,Buffalo County,WI,84.03508771929825,NA,NA
54937,Fond du Lac County,WI,NA,41.591320072332735,NA
54971,Fond du Lac County,WI,NA,41.048824593128394,NA
