ZipCode,county,state,Retirement,Geriatric
35212,Jefferson County,AL,NA,91.8918918918919
35214,Jefferson County,AL,36.80649526387009,NA
35216,Jefferson County,AL,NA,42.34234234234234
35223,Jefferson County,AL,75.10148849797022,71.17117117117117
35570,Marion County,AL,91.74560216508796,NA
35976,Marshall County,AL,33.01759133964817,NA
36027,Barbour County,AL,55.61569688768606,NA
36081,Pike County,AL,64.27604871447903,NA
36544,Mobile County,AL,NA,95.94594594594594
36606,Mobile County,AL,74.96617050067658,NA
36608,Mobile County,AL,77.26657645466847,NA
36804,Lee County,AL,91.33964817320704,NA
36877,Lee County,AL,65.8998646820027,NA
99507,Anchorage Municipality,AK,47.6319350473613,NA
99508,Anchorage Municipality,AK,35.453315290933695,NA
99835,Sitka City and Borough,AK,76.31935047361299,NA
85008,Maricopa County,AZ,NA,84.38438438438438
85018,Maricopa County,AZ,NA,49.249249249249246
85040,Maricopa County,AZ,NA,71.32132132132132
85042,Maricopa County,AZ,53.72124492557511,NA
85118,Pinal County,AZ,63.734776725304464,NA
85120,Pinal County,AZ,32.47631935047362,NA
85140,Pinal County,AZ,41.27198917456021,NA
85193,Pinal County,AZ,NA,99.84984984984985
85205,Maricopa County,AZ,NA,22.67267267267267
85254,Maricopa County,AZ,31.393775372124495,NA
85301,Maricopa County,AZ,84.84438430311232,NA
85339,Maricopa County,AZ,81.46143437077131,NA
85344,La Paz County,AZ,67.79431664411368,NA
85349,Yuma County,AZ,NA,86.93693693693693
85364,Yuma County,AZ,NA,4.054054054054054
85546,Graham County,AZ,63.734776725304464,NA
85614,Pima County,AZ,53.044654939106906,NA
85634,Pima County,AZ,26.79296346414073,NA
85643,Cochise County,AZ,86.33288227334236,NA
85716,Pima County,AZ,24.49255751014885,NA
85748,Pima County,AZ,NA,58.70870870870871
86045,Coconino County,AZ,37.21244925575101,NA
86301,Yavapai County,AZ,NA,17.26726726726727
86303,Yavapai County,AZ,87.95669824086603,NA
86503,Apache County,AZ,NA,44.294294294294296
86511,Apache County,AZ,NA,98.7987987987988
71667,Lincoln County,AR,NA,66.36636636636636
71909,Garland County,AR,NA,13.363363363363364
71913,Garland County,AR,58.72801082543978,NA
72021,Monroe County,AR,92.5575101488498,NA
72104,Hot Spring County,AR,56.56292286874154,NA
72205,Pulaski County,AR,NA,19.21921921921922
72209,Pulaski County,AR,66.17050067658998,NA
72223,Pulaski County,AR,58.59269282814614,NA
72401,Craighead County,AR,8.525033829499323,NA
90003,Los Angeles County,CA,NA,53.453453453453456
90012,Los Angeles County,CA,NA,65.76576576576578
90022,Los Angeles County,CA,NA,22.972972972972975
90069,Los Angeles County,CA,46.9553450608931,NA
90221,Los Angeles County,CA,NA,46.996996996997
90262,Los Angeles County,CA,82.54397834912042,NA
90275,Los Angeles County,CA,NA,9.30930930930931
90302,Los Angeles County,CA,NA,88.73873873873875
90304,Los Angeles County,CA,NA,99.54954954954955
90604,Los Angeles County,CA,NA,65.16516516516516
90605,Los Angeles County,CA,NA,57.35735735735735
90620,Orange County,CA,34.37077131258457,NA
90680,Orange County,CA,71.85385656292287,NA
90715,Los Angeles County,CA,NA,95.7957957957958
90720,Orange County,CA,57.1041948579161,NA
90731,Los Angeles County,CA,NA,45.4954954954955
90745,Los Angeles County,CA,64.41136671177267,NA
90805,Los Angeles County,CA,NA,79.27927927927928
91326,Los Angeles County,CA,95.53450608930987,NA
91342,Los Angeles County,CA,11.637347767253045,35.585585585585584
91355,Los Angeles County,CA,79.29634641407307,NA
91360,Ventura County,CA,NA,19.36936936936937
91390,Los Angeles County,CA,73.07171853856563,93.09309309309309
91402,Los Angeles County,CA,NA,79.27927927927928
91606,Los Angeles County,CA,NA,40.54054054054054
91722,Los Angeles County,CA,85.38565629228687,NA
91733,Los Angeles County,CA,66.84709066305818,NA
91744,Los Angeles County,CA,23.81596752368065,NA
91748,Los Angeles County,CA,56.833558863328825,NA
91754,Los Angeles County,CA,55.751014884979696,NA
91755,Los Angeles County,CA,NA,75.82582582582582
91770,Los Angeles County,CA,40.73071718538566,NA
91932,San Diego County,CA,96.34641407307171,NA
92019,San Diego County,CA,75.77807848443842,NA
92021,San Diego County,CA,11.772665764546684,NA
92026,San Diego County,CA,NA,81.08108108108108
92040,San Diego County,CA,NA,28.678678678678676
92064,San Diego County,CA,69.82408660351827,NA
92104,San Diego County,CA,NA,92.7927927927928
92106,San Diego County,CA,61.163734776725306,NA
92111,San Diego County,CA,NA,60.36036036036037
92113,San Diego County,CA,84.57374830852503,NA
92114,San Diego County,CA,60.487144790257105,NA
92117,San Diego County,CA,NA,72.22222222222221
92128,San Diego County,CA,NA,10.81081081081081
92154,San Diego County,CA,19.621109607577807,13.513513513513514
92201,Riverside County,CA,NA,60.96096096096096
92220,Riverside County,CA,60.622462787550745,NA
92231,Imperial County,CA,65.35859269282814,NA
92234,Riverside County,CA,1.8944519621109608,NA
92243,Imperial County,CA,NA,19.51951951951952
92307,San Bernardino County,CA,NA,40.69069069069069
92336,San Bernardino County,CA,15.290933694181327,NA
92504,Riverside County,CA,NA,32.88288288288289
92586,Riverside County,CA,42.760487144790254,NA
92603,Orange County,CA,89.98646820027064,72.82282282282281
92604,Orange County,CA,NA,56.75675675675676
92630,Orange County,CA,50.20297699594046,NA
92648,Orange County,CA,NA,52.552552552552555
92672,Orange County,CA,51.55615696887686,NA
92673,Orange County,CA,61.97564276048715,97.5975975975976
92692,Orange County,CA,NA,10.21021021021021
92708,Orange County,CA,46.2787550744249,NA
92804,Orange County,CA,NA,56.006006006006004
92805,Orange County,CA,39.242219215155615,NA
92806,Orange County,CA,57.64546684709067,NA
92843,Orange County,CA,49.52638700947226,NA
92870,Orange County,CA,21.515561569688767,NA
93030,Ventura County,CA,NA,27.627627627627625
93117,Santa Barbara County,CA,72.39512855209743,NA
93309,Kern County,CA,27.198917456021647,NA
93401,San Luis Obispo County,CA,49.52638700947226,NA
93510,Los Angeles County,CA,NA,96.3963963963964
93534,Los Angeles County,CA,NA,59.60960960960961
93536,Los Angeles County,CA,NA,47.147147147147145
93614,Madera County,CA,NA,93.54354354354354
93706,Fresno County,CA,37.75372124492557,NA
93711,Fresno County,CA,34.912043301759134,NA
93722,Fresno County,CA,NA,32.732732732732735
93726,Fresno County,CA,89.71583220568336,NA
93727,Fresno County,CA,NA,33.78378378378378
94002,San Mateo County,CA,37.07713125845737,NA
94015,San Mateo County,CA,7.983761840324763,4.504504504504505
94019,San Mateo County,CA,NA,81.38138138138137
94022,Santa Clara County,CA,NA,88.28828828828829
94044,San Mateo County,CA,NA,74.02402402402403
94061,San Mateo County,CA,50.608930987821374,NA
94080,San Mateo County,CA,NA,2.5525525525525525
94085,Santa Clara County,CA,94.5872801082544,NA
94102,San Francisco County,CA,6.495263870094722,NA
94109,San Francisco County,CA,NA,24.924924924924923
94112,San Francisco County,CA,31.123139377537214,NA
94115,San Francisco County,CA,NA,12.462462462462462
94121,San Francisco County,CA,NA,11.861861861861863
94123,San Francisco County,CA,NA,53.9039039039039
94124,San Francisco County,CA,19.485791610284167,NA
94127,San Francisco County,CA,67.11772665764548,NA
94132,San Francisco County,CA,62.5169147496617,NA
94303,San Mateo County,CA,26.251691474966172,NA
94403,San Mateo County,CA,NA,41.291291291291294
94520,Contra Costa County,CA,59.810554803788904,NA
94531,Contra Costa County,CA,NA,39.93993993993994
94538,Alameda County,CA,41.13667117726658,NA
94539,Alameda County,CA,52.232746955345064,NA
94558,Napa County,CA,6.089309878213803,NA
94561,Contra Costa County,CA,NA,50.30030030030031
94568,Alameda County,CA,NA,80.03003003003003
94582,Contra Costa County,CA,71.71853856562923,NA
94588,Alameda County,CA,92.01623815967524,NA
94602,Alameda County,CA,56.021650879566984,NA
94941,Marin County,CA,NA,30.78078078078078
95014,Santa Clara County,CA,59.945872801082544,NA
95111,Santa Clara County,CA,NA,37.53753753753754
95113,Santa Clara County,CA,NA,100
95125,Santa Clara County,CA,NA,59.75975975975976
95133,Santa Clara County,CA,90.93369418132612,NA
95247,Calaveras County,CA,NA,75.37537537537537
95330,San Joaquin County,CA,81.7320703653586,NA
95482,Mendocino County,CA,NA,33.18318318318318
95490,Mendocino County,CA,NA,56.45645645645646
95608,Sacramento County,CA,NA,8.408408408408409
95610,Sacramento County,CA,73.88362652232748,NA
95628,Sacramento County,CA,NA,24.174174174174173
95630,Sacramento County,CA,49.25575101488498,NA
95670,Sacramento County,CA,65.76454668470907,NA
95688,Solano County,CA,57.7807848443843,NA
95758,Sacramento County,CA,43.5723951285521,NA
95817,Sacramento County,CA,NA,74.17417417417418
95820,Sacramento County,CA,NA,48.348348348348345
95821,Sacramento County,CA,NA,36.486486486486484
95822,Sacramento County,CA,93.36941813261164,NA
95824,Sacramento County,CA,59.1339648173207,NA
95825,Sacramento County,CA,NA,36.786786786786784
95966,Butte County,CA,NA,59.909909909909906
96080,Tehama County,CA,NA,73.57357357357357
80003,Jefferson County,CO,NA,87.23723723723724
80012,Arapahoe County,CO,26.65764546684709,70.87087087087087
80014,Arapahoe County,CO,NA,8.708708708708707
80016,Arapahoe County,CO,16.102841677943168,NA
80023,Broomfield County,CO,76.58998646820027,NA
80107,Elbert County,CO,76.86062246278755,NA
80111,Arapahoe County,CO,NA,68.31831831831832
80121,Arapahoe County,CO,NA,49.0990990990991
80122,Arapahoe County,CO,95.2638700947226,NA
80124,Douglas County,CO,83.89715832205682,NA
80132,El Paso County,CO,56.292286874154264,NA
80204,Denver County,CO,60.893098782138026,NA
80233,Adams County,CO,NA,33.633633633633636
80301,Boulder County,CO,NA,50.9009009009009
80302,Boulder County,CO,NA,89.63963963963964
80439,Jefferson County,CO,NA,69.21921921921921
80525,Larimer County,CO,NA,8.258258258258259
80602,Adams County,CO,53.45060893098782,NA
80734,Phillips County,CO,99.72936400541272,NA
80904,El Paso County,CO,60.757780784844385,NA
80907,El Paso County,CO,NA,46.246246246246244
81004,Pueblo County,CO,27.604871447902575,NA
81006,Pueblo County,CO,70.77131258457375,75.07507507507508
81008,Pueblo County,CO,NA,80.48048048048048
81201,Chaffee County,CO,73.34235453315291,NA
81230,Gunnison County,CO,99.05277401894452,NA
06067,Hartford County,CT,NA,63.51351351351351
06084,Tolland County,CT,NA,55.1051051051051
06098,Litchfield County,CT,NA,38.88888888888889
06514,New Haven County,CT,NA,31.98198198198198
06604,Fairfield County,CT,NA,61.41141141141141
06708,New Haven County,CT,32.34100135317997,NA
06759,Litchfield County,CT,89.58051420838972,NA
06810,Fairfield County,CT,19.350473612990527,NA
06830,Fairfield County,CT,NA,12.312312312312311
06902,Fairfield County,CT,8.660351826792963,NA
19808,New Castle County,DE,NA,7.207207207207207
32011,Nassau County,FL,53.58592692828146,NA
32034,Nassau County,FL,57.37483085250338,47.5975975975976
32040,Baker County,FL,NA,88.88888888888889
32073,Clay County,FL,NA,21.47147147147147
32082,St. Johns County,FL,NA,23.273273273273272
32127,Volusia County,FL,36.129905277401896,NA
32128,Volusia County,FL,57.91610284167794,NA
32162,Sumter County,FL,NA,1.6516516516516515
32174,Volusia County,FL,39.918809201623816,NA
32224,Duval County,FL,40.59539918809202,NA
32225,Duval County,FL,NA,45.645645645645644
32277,Duval County,FL,NA,60.06006006006006
32311,Leon County,FL,NA,89.03903903903904
32344,Jefferson County,FL,NA,94.8948948948949
32547,Okaloosa County,FL,82.13802435723952,NA
32606,Alachua County,FL,25.710419485791608,NA
32656,Clay County,FL,NA,57.65765765765766
32708,Seminole County,FL,35.047361299052774,NA
32779,Seminole County,FL,NA,37.38738738738739
32789,Orange County,FL,NA,47.44744744744745
32792,Orange County,FL,NA,20.87087087087087
32817,Orange County,FL,64.00541271989174,NA
32821,Orange County,FL,89.30987821380243,NA
32825,Orange County,FL,13.802435723951287,NA
32828,Orange County,FL,NA,88.58858858858859
32837,Orange County,FL,78.89039242219215,NA
32920,Brevard County,FL,69.68876860622463,NA
32966,Indian River County,FL,28.416779431664413,NA
33009,Broward County,FL,NA,10.36036036036036
33010,Miami-Dade County,FL,38.29499323410013,NA
33012,Miami-Dade County,FL,55.34506089309878,NA
33015,Miami-Dade County,FL,NA,74.32432432432432
33016,Miami-Dade County,FL,NA,23.423423423423422
33020,Broward County,FL,23.951285520974288,NA
33021,Broward County,FL,NA,5.255255255255255
33024,Broward County,FL,21.650879566982407,NA
33027,Broward County,FL,35.994587280108256,NA
33029,Broward County,FL,NA,78.97897897897897
33030,Miami-Dade County,FL,77.80784844384303,NA
33063,Broward County,FL,26.38700947225981,NA
33125,Miami-Dade County,FL,34.776725304465494,NA
33127,Miami-Dade County,FL,88.90392422192151,NA
33131,Miami-Dade County,FL,NA,98.1981981981982
33133,Miami-Dade County,FL,37.48308525033829,62.46246246246246
33134,Miami-Dade County,FL,82.67929634641408,NA
33135,Miami-Dade County,FL,NA,90.09009009009009
33136,Miami-Dade County,FL,81.59675236806495,NA
33137,Miami-Dade County,FL,86.60351826792963,93.24324324324324
33141,Miami-Dade County,FL,33.28822733423545,NA
33142,Miami-Dade County,FL,NA,70.42042042042041
33144,Miami-Dade County,FL,65.08795669824087,NA
33145,Miami-Dade County,FL,93.9106901217862,NA
33147,Miami-Dade County,FL,32.61163734776725,NA
33155,Miami-Dade County,FL,29.093369418132614,NA
33157,Miami-Dade County,FL,20.29769959404601,NA
33161,Miami-Dade County,FL,NA,34.53453453453454
33180,Miami-Dade County,FL,NA,14.714714714714713
33183,Miami-Dade County,FL,70.63599458728011,NA
33312,Broward County,FL,NA,86.33633633633634
33313,Broward County,FL,NA,40.24024024024024
33314,Broward County,FL,83.7618403247632,84.23423423423422
33317,Broward County,FL,42.08389715832206,NA
33321,Broward County,FL,NA,4.954954954954955
33322,Broward County,FL,NA,12.012012012012011
33328,Broward County,FL,75.91339648173206,NA
33410,Palm Beach County,FL,NA,29.57957957957958
33412,Palm Beach County,FL,NA,87.08708708708708
33415,Palm Beach County,FL,NA,50.6006006006006
33432,Palm Beach County,FL,41.94857916102841,NA
33437,Palm Beach County,FL,17.456021650879567,NA
33442,Broward County,FL,NA,9.75975975975976
33455,Martin County,FL,21.24492557510149,NA
33462,Palm Beach County,FL,71.44790257104194,NA
33484,Palm Beach County,FL,NA,1.8018018018018018
33487,Palm Beach County,FL,NA,39.33933933933934
33511,Hillsborough County,FL,25.84573748308525,NA
33543,Pasco County,FL,NA,76.12612612612612
33565,Hillsborough County,FL,NA,86.78678678678679
33572,Hillsborough County,FL,55.751014884979696,NA
33647,Hillsborough County,FL,74.01894451962112,NA
33706,Pinellas County,FL,90.5277401894452,NA
33761,Pinellas County,FL,NA,38.73873873873874
33771,Pinellas County,FL,NA,22.07207207207207
33781,Pinellas County,FL,NA,36.63663663663664
33825,Highlands County,FL,NA,21.17117117117117
33852,Highlands County,FL,18.132611637347768,NA
33860,Polk County,FL,NA,71.32132132132132
33897,Polk County,FL,68.74154262516915,NA
33917,Lee County,FL,17.591339648173207,NA
33919,Lee County,FL,11.907983761840326,NA
33928,Lee County,FL,30.040595399188092,NA
33980,Charlotte County,FL,NA,59.45945945945946
34114,Collier County,FL,33.96481732070365,NA
34119,Collier County,FL,NA,19.51951951951952
34134,Lee County,FL,58.86332882273342,NA
34145,Collier County,FL,40.054127198917456,NA
34233,Sarasota County,FL,NA,24.324324324324326
34238,Sarasota County,FL,NA,6.306306306306306
34433,Citrus County,FL,88.4979702300406,NA
34436,Citrus County,FL,79.43166441136671,NA
34476,Marion County,FL,NA,25.825825825825827
34491,Marion County,FL,30.446549391069013,NA
34609,Hernando County,FL,22.19215155615697,NA
34684,Pinellas County,FL,10.148849797023004,NA
34698,Pinellas County,FL,NA,16.966966966966968
34769,Osceola County,FL,47.090663058186735,NA
34952,St. Lucie County,FL,NA,8.108108108108109
34994,Martin County,FL,NA,36.03603603603604
30033,DeKalb County,GA,71.17726657645467,NA
30035,DeKalb County,GA,41.5426251691475,NA
30043,Gwinnett County,GA,11.231393775372124,NA
30084,DeKalb County,GA,NA,64.86486486486487
30115,Cherokee County,GA,NA,64.11411411411412
30116,Carroll County,GA,46.41407307171853,NA
30144,Cobb County,GA,NA,51.5015015015015
30213,Fulton County,GA,62.65223274695535,NA
30253,Henry County,GA,NA,39.63963963963964
30281,Henry County,GA,NA,75.52552552552552
30286,Upson County,GA,NA,50.45045045045045
30315,Fulton County,GA,23.13937753721245,NA
30324,Fulton County,GA,97.02300405953991,NA
30328,Fulton County,GA,67.65899864682002,NA
30417,Evans County,GA,87.55074424898511,NA
30506,Hall County,GA,18.944519621109606,NA
30633,Madison County,GA,88.63328822733423,NA
30635,Elbert County,GA,87.28010825439783,NA
30701,Gordon County,GA,79.16102841677943,NA
30707,Walker County,GA,NA,81.68168168168168
30741,Walker County,GA,18.538565629228685,NA
30815,Richmond County,GA,76.99594046008119,NA
30828,Warren County,GA,99.18809201623816,NA
30906,Richmond County,GA,4.871447902571042,17.56756756756757
31525,Glynn County,GA,62.38159675236806,69.66966966966966
31639,Berrien County,GA,76.04871447902572,NA
96771,Hawaii County,HI,97.9702300405954,NA
96792,Honolulu County,HI,NA,26.276276276276278
96815,Honolulu County,HI,23.410013531799727,NA
83642,Ada County,ID,NA,7.957957957957958
83704,Ada County,ID,NA,2.4024024024024024
60004,Cook County,IL,38.02435723951286,NA
60014,McHenry County,IL,12.313937753721245,NA
60026,Cook County,IL,44.113667117726656,NA
60060,Lake County,IL,NA,43.69369369369369
60073,Lake County,IL,78.61975642760487,NA
60098,McHenry County,IL,11.907983761840326,NA
60107,Cook County,IL,35.453315290933695,NA
60110,Kane County,IL,58.18673883626523,NA
60123,Kane County,IL,13.802435723951287,NA
60124,Kane County,IL,61.299052774018946,NA
60126,DuPage County,IL,NA,62.612612612612615
60133,Cook County,IL,NA,71.32132132132132
60185,DuPage County,IL,26.116373477672532,NA
60192,Cook County,IL,96.21109607577807,NA
60201,Cook County,IL,NA,30.630630630630627
60430,Cook County,IL,NA,74.77477477477478
60431,Will County,IL,NA,63.06306306306306
60435,Will County,IL,38.43031123139377,18.16816816816817
60439,Cook County,IL,NA,58.85885885885885
60440,Will County,IL,44.9255751014885,NA
60451,Will County,IL,13.125845737483086,NA
60455,Cook County,IL,45.87280108254398,NA
60459,Cook County,IL,51.420838971583215,NA
60465,Cook County,IL,91.61028416779432,NA
60546,Cook County,IL,37.88903924221921,NA
60609,Cook County,IL,14.343707713125845,NA
60615,Cook County,IL,69.01217861975643,NA
60617,Cook County,IL,17.997293640054128,17.117117117117118
60621,Cook County,IL,NA,37.987987987987985
60623,Cook County,IL,NA,15.165165165165165
60630,Cook County,IL,NA,75.97597597597597
60636,Cook County,IL,25.43978349120433,NA
60640,Cook County,IL,33.15290933694182,NA
60643,Cook County,IL,NA,33.33333333333333
60646,Cook County,IL,41.67794316644114,24.774774774774773
60653,Cook County,IL,28.28146143437077,26.276276276276278
60657,Cook County,IL,10.284167794316645,NA
61021,Lee County,IL,31.799729364005415,39.03903903903904
61032,Stephenson County,IL,NA,12.912912912912914
61048,Stephenson County,IL,NA,95.64564564564564
61061,Ogle County,IL,72.25981055480379,NA
61068,Ogle County,IL,50.3382949932341,NA
61071,Whiteside County,IL,48.44384303112314,64.56456456456456
61072,Winnebago County,IL,NA,93.84384384384384
61073,Winnebago County,IL,NA,46.6966966966967
61081,Whiteside County,IL,NA,57.05705705705706
61088,Winnebago County,IL,97.83491204330176,NA
61107,Winnebago County,IL,NA,51.651651651651655
61201,Rock Island County,IL,NA,35.73573573573574
61350,LaSalle County,IL,65.49391069012178,NA
61455,McDonough County,IL,NA,31.08108108108108
61603,Peoria County,IL,NA,84.53453453453453
61604,Peoria County,IL,NA,16.216216216216218
61614,Peoria County,IL,68.33558863328822,NA
61801,Champaign County,IL,NA,44.44444444444444
61821,Champaign County,IL,77.67253044654939,12.162162162162163
61866,Champaign County,IL,67.9296346414073,NA
62033,Macoupin County,IL,97.69959404600812,NA
62204,St. Clair County,IL,NA,97.14714714714715
62208,St. Clair County,IL,NA,55.70570570570571
62278,Randolph County,IL,NA,65.31531531531532
62526,Macon County,IL,32.070365358592696,27.027027027027028
62650,Morgan County,IL,66.03518267929634,NA
62704,Sangamon County,IL,NA,13.663663663663664
46012,Madison County,IN,19.215155615696887,30.180180180180184
46013,Madison County,IN,52.09742895805142,65.61561561561562
46016,Madison County,IN,28.146143437077132,NA
46060,Hamilton County,IN,25.57510148849797,NA
46069,Hamilton County,IN,91.47496617050066,NA
46112,Hendricks County,IN,NA,28.97897897897898
46113,Marion County,IN,71.04194857916103,NA
46140,Hancock County,IN,NA,18.31831831831832
46143,Johnson County,IN,48.57916102841678,NA
46219,Marion County,IN,17.320703653585927,13.063063063063062
46224,Marion County,IN,45.73748308525033,NA
46229,Marion County,IN,31.25845737483085,NA
46231,Marion County,IN,89.30987821380243,NA
46260,Marion County,IN,NA,37.53753753753754
46278,Marion County,IN,NA,89.1891891891892
46304,Porter County,IN,50.06765899864683,NA
46320,Lake County,IN,NA,72.67267267267268
46323,Lake County,IN,15.967523680649526,NA
46375,Lake County,IN,14.614343707713125,NA
46392,Jasper County,IN,85.7916102841678,NA
46552,St. Joseph County,IN,NA,90.39039039039038
46928,Grant County,IN,97.56427604871448,NA
46970,Miami County,IN,NA,66.66666666666666
46975,Fulton County,IN,43.16644113667118,NA
47201,Bartholomew County,IN,42.2192151556157,NA
47250,Jefferson County,IN,NA,53.003003003003
47374,Wayne County,IN,2.9769959404600814,0.7507507507507507
47401,Monroe County,IN,NA,60.51051051051051
47441,Greene County,IN,66.44113667117728,NA
47501,Daviess County,IN,NA,21.77177177177177
47586,Perry County,IN,91.06901217861976,NA
47601,Warrick County,IN,39.106901217861974,NA
47807,Vigo County,IN,77.53721244925575,NA
47904,Tippecanoe County,IN,NA,74.47447447447448
50003,Dallas County,IA,98.24086603518268,NA
50125,Warren County,IA,86.19756427604871,NA
50314,Polk County,IA,NA,84.68468468468468
50315,Polk County,IA,21.921515561569688,NA
50320,Polk County,IA,62.78755074424899,NA
51031,Plymouth County,IA,NA,45.34534534534534
51250,Sioux County,IA,87.41542625169147,NA
51334,Emmet County,IA,48.17320703653586,NA
52245,Johnson County,IA,NA,48.64864864864865
52246,Johnson County,IA,NA,29.72972972972973
52405,Linn County,IA,72.93640054127198,NA
52537,Davis County,IA,94.04600811907984,NA
52632,Lee County,IA,NA,63.96396396396396
52722,Scott County,IA,61.8403247631935,NA
52803,Scott County,IA,NA,67.11711711711712
66030,Johnson County,KS,85.52097428958051,NA
66047,Douglas County,KS,NA,54.20420420420421
66061,Johnson County,KS,3.924221921515562,NA
66112,Wyandotte County,KS,NA,74.62462462462463
66720,Neosho County,KS,72.80108254397834,NA
66762,Crawford County,KS,NA,53.153153153153156
66901,Cloud County,KS,NA,78.52852852852853
67301,Montgomery County,KS,NA,69.96996996996997
67701,Thomas County,KS,82.67929634641408,NA
40206,Jefferson County,KY,76.18403247631935,NA
40291,Jefferson County,KY,16.23815967523681,NA
40324,Scott County,KY,NA,33.033033033033036
40351,Rowan County,KY,13.261163734776726,NA
40356,Jessamine County,KY,NA,41.74174174174174
40361,Bourbon County,KY,NA,58.55855855855856
40391,Clark County,KY,NA,23.723723723723726
40403,Madison County,KY,NA,24.624624624624623
40962,Clay County,KY,NA,49.549549549549546
41018,Kenton County,KY,23.68064952638701,NA
41051,Kenton County,KY,32.74695534506089,NA
41056,Mason County,KY,NA,54.80480480480481
41143,Carter County,KY,NA,54.35435435435435
41501,Pike County,KY,43.5723951285521,NA
41749,Leslie County,KY,98.6468200270636,NA
42211,Trigg County,KY,42.35453315290933,80.18018018018019
42240,Christian County,KY,44.65493910690122,NA
70003,Jefferson Parish,LA,NA,2.8528528528528527
70043,St. Bernard Parish,LA,64.14073071718539,NA
70065,Jefferson Parish,LA,NA,3.453453453453453
70124,Orleans Parish,LA,NA,54.35435435435435
70461,St. Tammany Parish,LA,18.67388362652233,NA
70507,Lafayette Parish,LA,NA,78.37837837837837
70517,St. Martin Parish,LA,NA,36.186186186186184
70760,Pointe Coupee Parish,LA,85.65629228687416,NA
70769,Ascension Parish,LA,NA,60.66066066066066
70815,East Baton Rouge Parish,LA,35.182679296346414,NA
70817,East Baton Rouge Parish,LA,13.396481732070365,NA
71078,De Soto Parish,LA,NA,95.4954954954955
71107,Caddo Parish,LA,18.403247631935045,NA
71241,Union Parish,LA,NA,53.153153153153156
71457,Natchitoches Parish,LA,21.921515561569688,NA
71486,Sabine Parish,LA,99.86468200270636,NA
04039,Cumberland County,ME,74.42489851150202,NA
04079,Cumberland County,ME,NA,67.41741741741741
04090,York County,ME,27.875507442489848,NA
04102,Cumberland County,ME,NA,58.25825825825825
04750,Aroostook County,ME,NA,99.69969969969969
20723,Howard County,MD,73.47767253044654,NA
20878,Montgomery County,MD,NA,68.01801801801803
20912,Montgomery County,MD,98.37618403247632,NA
21113,Anne Arundel County,MD,NA,52.25225225225225
21201,Baltimore city,MD,78.48443843031123,NA
21207,Baltimore County,MD,NA,17.86786786786787
21216,Baltimore city,MD,20.974289580514206,NA
21217,Baltimore city,MD,15.832205683355886,NA
21222,Baltimore County,MD,1.7591339648173208,NA
21239,Baltimore city,MD,NA,25.525525525525527
21401,Anne Arundel County,MD,29.36400541271989,NA
21502,Allegany County,MD,NA,6.756756756756757
01040,Hampden County,MA,NA,11.26126126126126
01226,Berkshire County,MA,NA,65.91591591591592
01451,Worcester County,MA,NA,87.83783783783784
01473,Worcester County,MA,39.377537212449255,NA
01475,Worcester County,MA,NA,32.432432432432435
01536,Worcester County,MA,80.64952638700947,NA
01545,Worcester County,MA,NA,14.414414414414415
01550,Worcester County,MA,21.10960757780785,NA
01581,Worcester County,MA,50.87956698240866,NA
01604,Worcester County,MA,1.6238159675236805,NA
01605,Worcester County,MA,0.40595399188092013,NA
01609,Worcester County,MA,NA,5.405405405405405
01730,Middlesex County,MA,48.714479025710425,NA
01778,Middlesex County,MA,NA,83.03303303303304
01810,Essex County,MA,14.073071718538566,NA
01833,Essex County,MA,70.23004059539919,NA
01915,Essex County,MA,0.5412719891745602,NA
01923,Essex County,MA,NA,1.5015015015015014
01960,Essex County,MA,NA,0.15015015015015015
02072,Norfolk County,MA,7.171853856562922,NA
02115,Suffolk County,MA,NA,3.903903903903904
02125,Suffolk County,MA,NA,35.28528528528528
02127,Suffolk County,MA,34.10013531799729,NA
02128,Suffolk County,MA,1.2178619756427604,5.105105105105105
02131,Suffolk County,MA,4.059539918809202,NA
02135,Suffolk County,MA,7.848443843031124,63.36336336336337
02141,Middlesex County,MA,NA,42.04204204204204
02143,Middlesex County,MA,NA,92.94294294294293
02148,Middlesex County,MA,0,NA
02150,Suffolk County,MA,NA,4.654654654654655
02152,Suffolk County,MA,6.7658998646820026,37.23723723723724
02155,Middlesex County,MA,0.13531799729364005,NA
02171,Norfolk County,MA,NA,72.97297297297297
02180,Middlesex County,MA,54.93910690121786,NA
02186,Norfolk County,MA,23.27469553450609,NA
02302,Plymouth County,MA,NA,4.804804804804805
02446,Norfolk County,MA,5.683355886332882,NA
02467,Norfolk County,MA,NA,28.22822822822823
02492,Norfolk County,MA,NA,40.090090090090094
02493,Middlesex County,MA,NA,50.9009009009009
02675,Barnstable County,MA,NA,42.492492492492495
02719,Bristol County,MA,45.19621109607578,NA
02760,Bristol County,MA,8.930987821380242,NA
02790,Bristol County,MA,NA,27.47747747747748
48030,Oakland County,MI,NA,97.8978978978979
48038,Macomb County,MI,NA,4.2042042042042045
48042,Macomb County,MI,25.16914749661705,25.675675675675674
48065,Macomb County,MI,73.07171853856563,NA
48075,Oakland County,MI,NA,58.408408408408405
48080,Macomb County,MI,10.690121786197563,NA
48085,Oakland County,MI,NA,43.69369369369369
48088,Macomb County,MI,NA,20.57057057057057
48095,Macomb County,MI,NA,90.84084084084084
48103,Washtenaw County,MI,NA,15.915915915915916
48104,Washtenaw County,MI,67.11772665764548,18.46846846846847
48105,Washtenaw County,MI,12.584573748308525,51.35135135135135
48108,Washtenaw County,MI,28.68741542625169,NA
48111,Wayne County,MI,NA,25.225225225225223
48116,Livingston County,MI,87.00947225981055,61.86186186186187
48127,Wayne County,MI,52.503382949932345,NA
48128,Wayne County,MI,78.34912043301759,NA
48130,Washtenaw County,MI,NA,41.591591591591595
48131,Monroe County,MI,96.75236806495265,NA
48141,Wayne County,MI,NA,29.429429429429426
48146,Wayne County,MI,NA,24.024024024024023
48150,Wayne County,MI,20.027063599458728,NA
48152,Wayne County,MI,5.006765899864682,NA
48154,Wayne County,MI,6.630581867388363,5.8558558558558556
48160,Washtenaw County,MI,NA,56.75675675675676
48162,Monroe County,MI,NA,14.564564564564563
48167,Oakland County,MI,NA,42.792792792792795
48168,Wayne County,MI,NA,98.64864864864865
48169,Livingston County,MI,80.78484438430311,NA
48176,Washtenaw County,MI,NA,55.55555555555556
48178,Oakland County,MI,NA,7.3573573573573565
48180,Wayne County,MI,14.479025710419485,NA
48184,Wayne County,MI,NA,35.43543543543544
48185,Wayne County,MI,NA,7.657657657657657
48187,Wayne County,MI,2.165087956698241,82.88288288288288
48197,Washtenaw County,MI,14.749661705006767,NA
48198,Washtenaw County,MI,75.50744248985114,NA
48206,Wayne County,MI,61.56968876860623,NA
48207,Wayne County,MI,NA,17.71771771771772
48210,Wayne County,MI,52.63870094722598,72.37237237237237
48214,Wayne County,MI,22.59810554803789,NA
48236,Wayne County,MI,NA,11.561561561561561
48237,Oakland County,MI,17.050067658998646,28.07807807807808
48240,Wayne County,MI,NA,62.91291291291291
48301,Oakland County,MI,69.95940460081191,76.27627627627628
48307,Oakland County,MI,NA,14.114114114114114
48312,Macomb County,MI,47.22598105548038,NA
48313,Macomb County,MI,20.70365358592693,NA
48334,Oakland County,MI,NA,37.987987987987985
48336,Oakland County,MI,71.58322056833559,62.16216216216216
48357,Oakland County,MI,NA,94.14414414414415
48360,Oakland County,MI,60.216508795669824,NA
48375,Oakland County,MI,NA,47.8978978978979
48380,Oakland County,MI,75.37212449255752,NA
48381,Oakland County,MI,NA,45.94594594594595
48382,Oakland County,MI,96.617050067659,NA
48421,Lapeer County,MI,83.22056833558862,NA
48430,Genesee County,MI,NA,21.32132132132132
48433,Genesee County,MI,NA,70.27027027027027
48624,Gladwin County,MI,51.6914749661705,NA
48836,Livingston County,MI,NA,66.81681681681681
48843,Livingston County,MI,93.64005412719891,NA
48893,Isabella County,MI,NA,83.33333333333334
48917,Eaton County,MI,NA,61.711711711711715
49001,Kalamazoo County,MI,83.89715832205682,NA
49007,Kalamazoo County,MI,84.70906630581867,NA
49058,Barry County,MI,35.317997293640055,NA
49323,Allegan County,MI,97.42895805142085,NA
49343,Kent County,MI,82.00270635994588,NA
49424,Ottawa County,MI,9.742895805142084,NA
49426,Ottawa County,MI,69.55345060893099,NA
49431,Mason County,MI,NA,22.07207207207207
49454,Mason County,MI,NA,96.09609609609609
49464,Ottawa County,MI,NA,28.82882882882883
49938,Gogebic County,MI,45.6021650879567,NA
49953,Ontonagon County,MI,NA,60.810810810810814
55014,Anoka County,MN,95.9404600811908,NA
55016,Washington County,MN,94.72259810554804,NA
55021,Rice County,MN,36.40054127198917,NA
55060,Steele County,MN,NA,45.7957957957958
55063,Pine County,MN,63.1935047361299,NA
55066,Goodhue County,MN,16.914749661705006,NA
55072,Pine County,MN,NA,99.24924924924925
55113,Ramsey County,MN,NA,22.822822822822822
55122,Dakota County,MN,60.081190798376184,NA
55126,Ramsey County,MN,NA,56.15615615615616
55303,Anoka County,MN,66.5764546684709,NA
55304,Anoka County,MN,39.648173207036535,NA
55343,Hennepin County,MN,NA,39.489489489489486
55344,Hennepin County,MN,93.50473612990527,98.94894894894894
55350,McLeod County,MN,NA,15.615615615615615
55379,Scott County,MN,74.28958051420838,NA
55404,Hennepin County,MN,87.68606224627875,NA
55405,Hennepin County,MN,NA,94.44444444444444
55407,Hennepin County,MN,29.905277401894452,NA
55408,Hennepin County,MN,NA,94.29429429429429
55410,Hennepin County,MN,96.48173207036535,NA
55413,Hennepin County,MN,43.437077131258455,82.43243243243244
55423,Hennepin County,MN,NA,68.46846846846847
55424,Hennepin County,MN,NA,98.04804804804806
55432,Anoka County,MN,88.36265223274695,NA
55433,Anoka County,MN,NA,39.78978978978979
55438,Hennepin County,MN,NA,81.23123123123122
55720,Carlton County,MN,NA,37.08708708708709
55803,St. Louis County,MN,NA,30.33033033033033
55804,St. Louis County,MN,NA,83.18318318318319
55811,St. Louis County,MN,4.600811907983761,NA
55812,St. Louis County,MN,89.1745602165088,NA
55901,Olmsted County,MN,23.545331529093367,NA
55904,Olmsted County,MN,34.64140730717185,NA
55912,Mower County,MN,22.32746955345061,0.3003003003003003
55987,Winona County,MN,NA,32.28228228228228
56007,Freeborn County,MN,55.074424898511495,44.8948948948949
56031,Martin County,MN,84.16779431664412,62.312312312312315
56073,Brown County,MN,NA,35.88588588588589
56215,Swift County,MN,NA,81.68168168168168
56347,Todd County,MN,NA,75.67567567567568
56352,Stearns County,MN,NA,73.27327327327328
56515,Otter Tail County,MN,NA,88.43843843843844
56537,Otter Tail County,MN,7.7131258457374825,59.009009009009006
56560,Clay County,MN,3.3829499323410013,10.96096096096096
56572,Otter Tail County,MN,NA,96.69669669669669
56601,Beltrami County,MN,11.502029769959405,63.213213213213216
56716,Polk County,MN,70.09472259810555,NA
39111,Simpson County,MS,NA,87.98798798798799
39168,Smith County,MS,88.76860622462787,NA
39213,Hinds County,MS,NA,44.14414414414414
39429,Marion County,MS,63.46414073071719,57.95795795795796
39452,George County,MS,20.43301759133965,NA
39507,Harrison County,MS,NA,11.711711711711711
39601,Lincoln County,MS,73.61299052774018,NA
63010,Jefferson County,MO,24.357239512855212,NA
63017,St. Louis County,MO,NA,2.2522522522522523
63025,St. Louis County,MO,NA,95.34534534534535
63026,St. Louis County,MO,NA,53.753753753753756
63034,St. Louis County,MO,NA,48.7987987987988
63069,Franklin County,MO,NA,59.15915915915916
63080,Franklin County,MO,80.92016238159675,NA
63111,St. Louis city,MO,46.54939106901218,NA
63123,St. Louis County,MO,11.366711772665765,2.7027027027027026
63124,St. Louis County,MO,76.58998646820027,NA
63130,St. Louis County,MO,NA,40.24024024024024
63368,St. Charles County,MO,NA,16.666666666666664
63379,Lincoln County,MO,NA,31.23123123123123
64050,Jackson County,MO,15.020297699594046,NA
64078,Cass County,MO,82.94993234100136,NA
64081,Jackson County,MO,NA,38.43843843843844
64089,Clay County,MO,66.98240866035182,NA
64116,Clay County,MO,38.836265223274694,NA
64117,Clay County,MO,40.189445196211096,NA
64124,Jackson County,MO,88.09201623815967,NA
64127,Jackson County,MO,68.47090663058187,NA
64130,Jackson County,MO,NA,32.58258258258258
64151,Platte County,MO,48.03788903924222,NA
64154,Platte County,MO,80.37889039242219,NA
64506,Buchanan County,MO,66.71177266576454,NA
64730,Bates County,MO,NA,82.13213213213213
64735,Henry County,MO,NA,34.53453453453454
65203,Boone County,MO,NA,5.7057057057057055
65251,Callaway County,MO,NA,45.94594594594595
59102,Yellowstone County,MT,NA,28.52852852852853
59715,Gallatin County,MT,67.38836265223274,NA
59801,Missoula County,MT,62.92286874154263,NA
68131,Douglas County,NE,NA,87.68768768768768
68526,Lancaster County,NE,NA,97.44744744744744
69153,Keith County,NE,94.31664411366711,NA
89108,Clark County,NV,NA,31.53153153153153
89122,Clark County,NV,NA,44.5945945945946
89142,Clark County,NV,92.82814614343707,NA
89441,Washoe County,NV,70.36535859269283,NA
03032,Rockingham County,NH,72.66576454668471,NA
03079,Rockingham County,NH,NA,23.873873873873876
03087,Rockingham County,NH,83.49120433017592,NA
03281,Hillsborough County,NH,NA,86.03603603603604
03301,Merrimack County,NH,NA,25.975975975975974
03446,Cheshire County,NH,NA,57.95795795795796
03811,Rockingham County,NH,NA,91.5915915915916
07003,Essex County,NJ,24.62787550744249,NA
07006,Essex County,NJ,44.51962110960758,NA
07018,Essex County,NJ,20.83897158322057,NA
07032,Hudson County,NJ,28.822733423545333,NA
07039,Essex County,NJ,34.50608930987821,NA
07047,Hudson County,NJ,0.6765899864682002,NA
07080,Middlesex County,NJ,93.09878213802436,NA
07103,Essex County,NJ,1.3531799729364005,NA
07111,Essex County,NJ,98.51150202976996,NA
07203,Union County,NJ,NA,83.63363363363364
07480,Passaic County,NJ,NA,68.61861861861863
07605,Bergen County,NJ,90.79837618403248,NA
07626,Bergen County,NJ,98.78213802435724,NA
07643,Bergen County,NJ,NA,91.5915915915916
07869,Morris County,NJ,42.760487144790254,NA
07882,Warren County,NJ,84.97970230040596,NA
07981,Morris County,NJ,NA,89.4894894894895
08005,Ocean County,NJ,28.416779431664413,NA
08060,Burlington County,NJ,NA,73.72372372372372
08085,Gloucester County,NJ,NA,89.93993993993993
08226,Cape May County,NJ,NA,54.65465465465466
08330,Atlantic County,NJ,NA,77.02702702702703
08527,Ocean County,NJ,NA,6.456456456456457
08753,Ocean County,NJ,3.5182679296346415,10.66066066066066
08820,Middlesex County,NJ,NA,20.12012012012012
08831,Middlesex County,NJ,NA,1.2012012012012012
08844,Somerset County,NJ,54.53315290933695,NA
87110,Bernalillo County,NM,NA,9.90990990990991
87121,Bernalillo County,NM,NA,24.474474474474476
87123,Bernalillo County,NM,NA,15.915915915915916
87124,Sandoval County,NM,7.442489851150203,NA
10001,New York County,NY,NA,44.74474474474475
10002,New York County,NY,NA,1.0510510510510511
10009,New York County,NY,60.35182679296346,NA
10011,New York County,NY,NA,13.213213213213212
10019,New York County,NY,56.156968876860624,NA
10030,New York County,NY,NA,50
10032,New York County,NY,6.089309878213803,27.77777777777778
10033,New York County,NY,NA,14.264264264264265
10038,New York County,NY,NA,52.85285285285285
10308,Richmond County,NY,NA,69.66966966966966
10453,Bronx County,NY,NA,15.315315315315313
10454,Bronx County,NY,NA,26.576576576576578
10456,Bronx County,NY,8.254397834912043,NA
10458,Bronx County,NY,5.142083897158322,NA
10460,Bronx County,NY,1.0825439783491204,NA
10461,Bronx County,NY,NA,23.123123123123122
10462,Bronx County,NY,NA,67.56756756756756
10463,Bronx County,NY,23.00405953991881,NA
10473,Bronx County,NY,5.2774018944519625,NA
10475,Bronx County,NY,38.971583220568334,NA
10520,Westchester County,NY,93.77537212449256,NA
10550,Westchester County,NY,21.380243572395127,NA
10573,Westchester County,NY,63.59945872801083,NA
10701,Westchester County,NY,2.706359945872801,NA
10705,Westchester County,NY,59.53991880920162,NA
10940,Orange County,NY,11.096075778078484,18.76876876876877
10977,Rockland County,NY,NA,47.2972972972973
11207,Kings County,NY,NA,9.60960960960961
11209,Kings County,NY,NA,12.762762762762764
11210,Kings County,NY,NA,65.01501501501501
11212,Kings County,NY,0.2706359945872801,NA
11225,Kings County,NY,NA,63.813813813813816
11226,Kings County,NY,17.861975642760484,NA
11230,Kings County,NY,NA,6.006006006006006
11357,Queens County,NY,41.81326116373478,NA
11370,Queens County,NY,87.8213802435724,NA
11374,Queens County,NY,22.46278755074425,NA
11385,Queens County,NY,NA,32.13213213213213
11419,Queens County,NY,NA,41.44144144144144
11432,Queens County,NY,NA,25.375375375375377
11550,Nassau County,NY,48.3085250338295,NA
11743,Suffolk County,NY,45.46684709066306,NA
11758,Nassau County,NY,NA,18.91891891891892
11768,Suffolk County,NY,86.60351826792963,NA
11901,Suffolk County,NY,56.4276048714479,NA
12009,Albany County,NY,NA,82.58258258258259
12018,Rensselaer County,NY,NA,85.88588588588588
12054,Albany County,NY,85.1150202976996,NA
12065,Saratoga County,NY,15.155615696887686,NA
12198,Rensselaer County,NY,NA,85.28528528528528
12302,Schenectady County,NY,NA,26.726726726726728
12303,Schenectady County,NY,NA,30.930930930930934
13057,Onondaga County,NY,NA,94.74474474474475
13066,Onondaga County,NY,50.47361299052774,NA
13214,Onondaga County,NY,91.8809201623816,NA
13617,St. Lawrence County,NY,NA,41.891891891891895
13815,Chenango County,NY,NA,27.177177177177175
13856,Delaware County,NY,33.82949932341001,NA
13901,Broome County,NY,2.841677943166441,NA
14020,Genesee County,NY,10.554803788903925,NA
14120,Niagara County,NY,5.818673883626523,NA
14215,Erie County,NY,NA,52.1021021021021
14216,Erie County,NY,NA,82.28228228228228
14219,Erie County,NY,48.84979702300406,NA
14226,Erie County,NY,69.2828146143437,NA
14450,Monroe County,NY,0.9472259810554804,NA
14519,Wayne County,NY,25.033829499323414,NA
14527,Yates County,NY,24.08660351826793,NA
14546,Monroe County,NY,99.3234100135318,NA
14605,Monroe County,NY,51.15020297699594,NA
14613,Monroe County,NY,31.52909336941813,NA
14617,Monroe County,NY,3.1123139377537212,NA
14620,Monroe County,NY,14.073071718538566,NA
14701,Chautauqua County,NY,1.4884979702300407,NA
14871,Chemung County,NY,NA,97.2972972972973
27006,Davie County,NC,NA,18.01801801801802
27104,Forsyth County,NC,NA,3.6036036036036037
27106,Forsyth County,NC,NA,0.6006006006006006
27282,Guilford County,NC,NA,62.01201201201201
27312,Chatham County,NC,16.644113667117725,NA
27316,Randolph County,NC,92.15155615696887,NA
27403,Guilford County,NC,64.5466847090663,NA
27410,Guilford County,NC,NA,7.057057057057057
27504,Johnston County,NC,87.1447902571042,NA
27510,Orange County,NC,NA,94.5945945945946
27513,Wake County,NC,82.4086603518268,NA
27540,Wake County,NC,78.75507442489851,NA
27546,Harnett County,NC,77.26657645466847,NA
27572,Person County,NC,86.06224627875507,NA
27587,Wake County,NC,79.97293640054127,NA
27591,Wake County,NC,96.07577807848445,NA
27597,Wake County,NC,54.80378890392422,NA
27614,Wake County,NC,33.55886332882274,NA
27704,Durham County,NC,NA,31.681681681681685
27705,Durham County,NC,NA,19.96996996996997
27707,Durham County,NC,34.23545331529093,NA
27713,Durham County,NC,49.39106901217862,NA
27803,Nash County,NC,41.00135317997294,NA
27804,Nash County,NC,NA,83.78378378378379
27886,Edgecombe County,NC,40.189445196211096,NA
27962,Washington County,NC,81.19079837618403,NA
28215,Mecklenburg County,NC,16.373477672530445,NA
28269,Mecklenburg County,NC,59.26928281461434,NA
28303,Cumberland County,NC,NA,43.54354354354354
28403,New Hanover County,NC,NA,30.03003003003003
28562,Craven County,NC,20.16238159675237,NA
28638,Caldwell County,NC,NA,54.054054054054056
28650,Catawba County,NC,79.56698240866035,NA
28771,Graham County,NC,NA,86.63663663663664
58078,Cass County,ND,45.06089309878214,NA
58103,Cass County,ND,36.265223274695536,1.3513513513513513
58104,Cass County,ND,9.066305818673884,3.153153153153153
58203,Grand Forks County,ND,54.26251691474966,NA
58301,Ramsey County,ND,61.299052774018946,NA
43055,Licking County,OH,NA,42.94294294294294
43076,Perry County,OH,75.23680649526388,NA
43130,Fairfield County,OH,17.185385656292286,NA
43204,Franklin County,OH,42.48985115020298,NA
43206,Franklin County,OH,NA,56.30630630630631
43209,Franklin County,OH,67.52368064952638,NA
43212,Franklin County,OH,91.2043301759134,NA
43213,Franklin County,OH,15.696887686062247,NA
43219,Franklin County,OH,NA,35.13513513513514
43235,Franklin County,OH,NA,87.53753753753753
43302,Marion County,OH,2.029769959404601,NA
43614,Lucas County,OH,59.40460081190798,NA
43617,Lucas County,OH,NA,90.990990990991
43725,Guernsey County,OH,5.953991880920163,NA
44001,Lorain County,OH,2.435723951285521,NA
44011,Lorain County,OH,22.868741542625166,39.189189189189186
44012,Lorain County,OH,NA,7.807807807807808
44022,Cuyahoga County,OH,NA,20.42042042042042
44024,Geauga County,OH,NA,13.813813813813812
44026,Geauga County,OH,47.902571041948576,NA
44028,Lorain County,OH,68.06495263870094,48.048048048048045
44030,Ashtabula County,OH,12.449255751014885,34.98498498498498
44041,Ashtabula County,OH,NA,22.372372372372375
44062,Geauga County,OH,NA,89.33933933933935
44087,Summit County,OH,12.719891745602165,3.7537537537537538
44089,Erie County,OH,NA,73.42342342342343
44092,Lake County,OH,30.17591339648173,NA
44094,Lake County,OH,3.1123139377537212,NA
44103,Cuyahoga County,OH,9.607577807848443,30.48048048048048
44112,Cuyahoga County,OH,24.76319350473613,NA
44120,Cuyahoga County,OH,2.3004059539918806,NA
44122,Cuyahoga County,OH,3.7889039242219216,NA
44124,Cuyahoga County,OH,64.95263870094723,6.906906906906906
44125,Cuyahoga County,OH,70.90663058186739,NA
44126,Cuyahoga County,OH,NA,69.36936936936937
44133,Cuyahoga County,OH,9.336941813261165,NA
44145,Cuyahoga County,OH,3.6535859269282813,NA
44146,Cuyahoga County,OH,12.855209742895804,29.87987987987988
44224,Summit County,OH,NA,79.87987987987988
44256,Medina County,OH,NA,0.9009009009009009
44260,Portage County,OH,54.397834912043294,NA
44281,Medina County,OH,NA,48.94894894894895
44286,Summit County,OH,NA,83.93393393393393
44303,Summit County,OH,NA,96.84684684684684
44312,Summit County,OH,NA,21.62162162162162
44313,Summit County,OH,NA,15.465465465465467
44320,Summit County,OH,15.426251691474965,91.44144144144144
44333,Summit County,OH,NA,34.83483483483483
44404,Trumbull County,OH,99.45872801082544,NA
44406,Mahoning County,OH,25.304465493910687,22.52252252252252
44410,Trumbull County,OH,22.73342354533153,NA
44512,Mahoning County,OH,9.878213802435724,16.366366366366368
44601,Stark County,OH,7.307171853856563,9.00900900900901
44657,Stark County,OH,58.05142083897158,NA
44667,Wayne County,OH,NA,71.77177177177178
44706,Stark County,OH,NA,78.82882882882883
44708,Stark County,OH,30.717185385656293,NA
44730,Stark County,OH,NA,84.83483483483484
44820,Crawford County,OH,8.389715832205685,NA
44870,Erie County,OH,37.34776725304466,NA
44890,Huron County,OH,56.968876860622466,NA
44907,Richland County,OH,63.32882273342354,NA
45013,Butler County,OH,39.783491204330176,4.354354354354354
45036,Warren County,OH,NA,37.83783783783784
45042,Butler County,OH,85.25033829499323,NA
45069,Butler County,OH,49.79702300405954,NA
45103,Clermont County,OH,NA,50
45177,Clinton County,OH,30.446549391069013,NA
45211,Hamilton County,OH,26.928281461434374,NA
45212,Hamilton County,OH,NA,68.76876876876878
45230,Hamilton County,OH,44.65493910690122,NA
45233,Hamilton County,OH,NA,34.234234234234236
45249,Hamilton County,OH,NA,93.84384384384384
45309,Montgomery County,OH,NA,40.99099099099099
45322,Montgomery County,OH,76.45466847090663,NA
45331,Darke County,OH,21.78619756427605,NA
45377,Montgomery County,OH,NA,54.95495495495496
45429,Montgomery County,OH,29.76995940460081,NA
45430,Greene County,OH,95.66982408660351,NA
45692,Jackson County,OH,30.987821380243574,NA
45694,Scioto County,OH,19.891745602165088,NA
45764,Athens County,OH,68.6062246278755,NA
45805,Allen County,OH,NA,27.32732732732733
45806,Allen County,OH,NA,53.6036036036036
45822,Mercer County,OH,NA,20.72072072072072
73008,Oklahoma County,OK,53.99188092016238,NA
73044,Logan County,OK,10.825439783491204,NA
74006,Washington County,OK,NA,64.26426426426426
74012,Tulsa County,OK,NA,9.45945945945946
74023,Payne County,OK,NA,73.12312312312312
74145,Tulsa County,OK,NA,82.73273273273273
74462,Haskell County,OK,NA,76.72672672672672
74631,Kay County,OK,89.03924221921515,NA
74804,Pottawatomie County,OK,NA,68.16816816816817
97023,Clackamas County,OR,NA,95.1951951951952
97062,Washington County,OR,58.99864682002707,NA
97205,Multnomah County,OR,NA,87.98798798798799
97224,Washington County,OR,32.205683355886336,NA
97230,Multnomah County,OR,10.960757780784844,NA
97236,Multnomah County,OR,24.08660351826793,NA
97266,Multnomah County,OR,NA,61.41141141141141
15037,Allegheny County,PA,NA,64.56456456456456
15057,Washington County,PA,NA,78.07807807807808
15104,Allegheny County,PA,NA,59.30930930930931
15116,Allegheny County,PA,NA,92.04204204204204
15143,Allegheny County,PA,41.40730717185386,NA
15208,Allegheny County,PA,92.42219215155616,NA
15226,Allegheny County,PA,NA,34.08408408408408
15235,Allegheny County,PA,13.531799729364005,NA
15236,Allegheny County,PA,NA,10.51051051051051
15478,Fayette County,PA,NA,86.48648648648648
16002,Butler County,PA,NA,29.129129129129126
16046,Butler County,PA,72.12449255751014,NA
16125,Mercer County,PA,47.767253044654936,NA
16148,Mercer County,PA,NA,7.5075075075075075
16201,Armstrong County,PA,38.700947225981054,NA
16602,Blair County,PA,9.472259810554803,NA
16830,Clearfield County,PA,NA,48.4984984984985
17011,Cumberland County,PA,NA,15.765765765765765
17025,Cumberland County,PA,52.90933694181326,NA
17042,Lebanon County,PA,28.010825439783492,19.81981981981982
17055,Cumberland County,PA,47.496617050067655,NA
17067,Lebanon County,PA,93.234100135318,NA
17111,Dauphin County,PA,5.412719891745602,NA
17112,Dauphin County,PA,4.330175913396482,NA
17545,Lancaster County,PA,28.95805142083897,NA
17552,Lancaster County,PA,33.42354533152909,NA
17554,Lancaster County,PA,NA,99.09909909909909
17777,Northumberland County,PA,94.99323410013531,NA
17815,Columbia County,PA,8.119079837618404,13.963963963963963
17821,Montour County,PA,78.07848443843031,66.96696696696696
17824,Northumberland County,PA,97.15832205683355,NA
17847,Northumberland County,PA,94.85791610284167,NA
17857,Northumberland County,PA,NA,60.96096096096096
18020,Northampton County,PA,NA,57.80780780780781
18103,Lehigh County,PA,4.7361299052774015,NA
18407,Lackawanna County,PA,49.93234100135318,NA
18603,Columbia County,PA,15.561569688768607,NA
18640,Luzerne County,PA,30.311231393775373,NA
18641,Luzerne County,PA,NA,71.02102102102103
18969,Montgomery County,PA,NA,70.12012012012012
19006,Montgomery County,PA,29.499323410013535,NA
19015,Delaware County,PA,40.46008119079838,NA
19023,Delaware County,PA,53.179972936400546,NA
19064,Delaware County,PA,NA,38.288288288288285
19073,Delaware County,PA,NA,16.516516516516518
19081,Delaware County,PA,90.25710419485792,92.1921921921922
19086,Delaware County,PA,70.50067658998647,NA
19095,Montgomery County,PA,80.51420838971583,NA
19131,Philadelphia County,PA,NA,8.85885885885886
19143,Philadelphia County,PA,NA,9.15915915915916
19342,Delaware County,PA,NA,25.075075075075077
19363,Chester County,PA,68.74154262516915,NA
19426,Montgomery County,PA,NA,49.6996996996997
19446,Montgomery County,PA,12.855209742895804,NA
19468,Montgomery County,PA,31.66441136671177,NA
19522,Berks County,PA,NA,47.74774774774775
19541,Berks County,PA,97.2936400541272,NA
19560,Berks County,PA,81.0554803788904,NA
02893,Kent County,RI,NA,33.933933933933936
02906,Providence County,RI,NA,45.04504504504504
29118,Orangeburg County,SC,NA,86.18618618618619
29307,Spartanburg County,SC,90.39242219215156,NA
29334,Spartanburg County,SC,80.24357239512855,NA
29455,Charleston County,SC,30.85250338294993,NA
29575,Horry County,SC,NA,76.57657657657657
29577,Horry County,SC,47.22598105548038,NA
29582,Horry County,SC,51.96211096075778,NA
29642,Pickens County,SC,14.884979702300406,NA
29707,Lancaster County,SC,NA,21.92192192192192
29803,Aiken County,SC,7.577807848443843,NA
57030,Minnehaha County,SD,100,NA
57033,Minnehaha County,SD,99.59404600811908,NA
57078,Yankton County,SD,85.92692828146143,NA
57103,Minnehaha County,SD,2.571041948579161,6.156156156156156
57105,Minnehaha County,SD,9.201623815967523,NA
57252,Grant County,SD,NA,84.98498498498499
37033,Hickman County,TN,NA,95.04504504504504
37075,Sumner County,TN,5.548037889039242,NA
37076,Davidson County,TN,NA,36.186186186186184
37101,Humphreys County,TN,NA,90.39039039039038
37115,Davidson County,TN,NA,31.83183183183183
37185,Humphreys County,TN,NA,78.22822822822822
37211,Davidson County,TN,18.26792963464141,NA
37212,Davidson County,TN,NA,85.43543543543544
37214,Davidson County,TN,51.0148849797023,NA
37343,Hamilton County,TN,NA,56.606606606606604
37363,Hamilton County,TN,38.15967523680649,NA
37406,Hamilton County,TN,69.41813261163735,NA
37411,Hamilton County,TN,NA,85.58558558558559
37604,Washington County,TN,18.80920162381597,NA
37620,Sullivan County,TN,NA,16.816816816816818
37743,Greene County,TN,43.031123139377534,NA
37754,Anderson County,TN,98.10554803788904,NA
37763,Roane County,TN,71.98917456021651,NA
37804,Blount County,TN,16.373477672530445,NA
37849,Knox County,TN,46.00811907983762,NA
38351,Henderson County,TN,NA,72.07207207207207
75023,Collin County,TX,NA,51.95195195195195
75032,Rockwall County,TX,NA,42.19219219219219
75060,Dallas County,TX,36.40054127198917,NA
75088,Dallas County,TX,74.56021650879568,NA
75103,Van Zandt County,TX,NA,43.24324324324324
75104,Dallas County,TX,26.522327469553453,NA
75126,Kaufman County,TX,NA,62.76276276276276
75143,Henderson County,TX,54.53315290933695,NA
75146,Dallas County,TX,58.18673883626523,NA
75203,Dallas County,TX,NA,80.93093093093093
75217,Dallas County,TX,35.859269282814616,NA
75224,Dallas County,TX,36.80649526387009,NA
75248,Dallas County,TX,77.80784844384303,NA
75703,Smith County,TX,NA,1.951951951951952
75707,Smith County,TX,46.54939106901218,NA
75708,Smith County,TX,NA,92.34234234234235
75771,Smith County,TX,NA,15.015015015015015
75783,Wood County,TX,27.06359945872801,61.261261261261254
75789,Smith County,TX,61.02841677943166,NA
76010,Tarrant County,TX,NA,97.74774774774775
76017,Tarrant County,TX,NA,31.38138138138138
76043,Somervell County,TX,95.66982408660351,NA
76048,Hood County,TX,29.63464140730717,NA
76049,Hood County,TX,17.726657645466847,NA
76058,Johnson County,TX,92.5575101488498,NA
76106,Tarrant County,TX,NA,69.51951951951952
76116,Tarrant County,TX,NA,20.27027027027027
76244,Tarrant County,TX,NA,72.52252252252252
76513,Bell County,TX,NA,10.06006006006006
76634,Bosque County,TX,NA,85.73573573573574
76667,Limestone County,TX,56.698240866035185,NA
76707,McLennan County,TX,NA,84.08408408408408
76708,McLennan County,TX,NA,80.78078078078079
76821,Runnels County,TX,90.66305818673884,NA
76825,McCulloch County,TX,NA,76.87687687687688
77005,Harris County,TX,52.63870094722598,NA
77040,Harris County,TX,61.97564276048715,NA
77043,Harris County,TX,NA,71.77177177177178
77048,Harris County,TX,74.15426251691474,NA
77056,Harris County,TX,84.4384303112314,NA
77082,Harris County,TX,NA,55.4054054054054
77087,Harris County,TX,52.368064952638704,NA
77327,Liberty County,TX,72.53044654939107,NA
77328,San Jacinto County,TX,83.35588633288228,NA
77354,Montgomery County,TX,73.74830852503383,NA
77365,Montgomery County,TX,57.1041948579161,NA
77386,Montgomery County,TX,78.21380243572395,NA
77429,Harris County,TX,24.76319350473613,NA
77478,Fort Bend County,TX,44.38430311231394,NA
77479,Fort Bend County,TX,51.285520974289575,NA
77502,Harris County,TX,55.20974289580515,NA
77504,Harris County,TX,NA,91.14114114114115
77510,Galveston County,TX,NA,80.63063063063063
77535,Liberty County,TX,NA,77.32732732732732
77536,Harris County,TX,NA,79.12912912912913
77539,Galveston County,TX,8.795669824086604,NA
77550,Galveston County,TX,12.178619756427606,6.606606606606606
77551,Galveston County,TX,77.13125845737483,NA
77563,Galveston County,TX,45.33152909336942,NA
77581,Brazoria County,TX,19.756427604871448,NA
77590,Galveston County,TX,NA,77.62762762762763
77627,Jefferson County,TX,57.51014884979703,NA
77707,Jefferson County,TX,74.69553450608932,NA
77802,Brazos County,TX,NA,38.58858858858859
77859,Robertson County,TX,71.17726657645467,NA
77904,Victoria County,TX,32.88227334235454,NA
78006,Kendall County,TX,NA,66.21621621621621
78040,Webb County,TX,NA,49.3993993993994
78041,Webb County,TX,20.56833558863329,NA
78043,Webb County,TX,88.22733423545331,NA
78070,Comal County,TX,83.085250338295,NA
78108,Guadalupe County,TX,92.28687415426252,NA
78114,Wilson County,TX,NA,70.57057057057057
78239,Bexar County,TX,NA,69.06906906906907
78380,Nueces County,TX,64.68200270635994,NA
78415,Nueces County,TX,46.54939106901218,NA
78501,Hidalgo County,TX,NA,12.612612612612612
78516,Hidalgo County,TX,NA,50.9009009009009
78541,Hidalgo County,TX,86.87415426251691,NA
78572,Hidalgo County,TX,16.77943166441137,27.927927927927925
78573,Hidalgo County,TX,43.301759133964815,NA
78577,Hidalgo County,TX,NA,41.14114114114114
78589,Hidalgo County,TX,NA,73.72372372372372
78654,Burnet County,TX,96.88768606224627,NA
78730,Travis County,TX,98.91745602165088,NA
78956,Fayette County,TX,NA,96.24624624624624
79512,Mitchell County,TX,NA,79.72972972972973
79927,El Paso County,TX,NA,60.210210210210214
79938,El Paso County,TX,NA,66.06606606606607
84009,Salt Lake County,UT,55.48037889039242,NA
84010,Davis County,UT,NA,75.22522522522522
84057,Utah County,UT,NA,98.49849849849849
84084,Salt Lake County,UT,37.61840324763194,66.51651651651652
84094,Salt Lake County,UT,43.5723951285521,NA
84103,Salt Lake County,UT,68.20027063599458,NA
84104,Salt Lake County,UT,NA,92.64264264264264
84106,Salt Lake County,UT,79.70230040595399,NA
84108,Salt Lake County,UT,82.27334235453316,NA
84116,Salt Lake County,UT,83.62652232746956,NA
84119,Salt Lake County,UT,NA,33.48348348348348
84120,Salt Lake County,UT,NA,77.92792792792793
84121,Salt Lake County,UT,NA,19.06906906906907
84123,Salt Lake County,UT,35.72395128552097,NA
84124,Salt Lake County,UT,64.81732070365359,78.67867867867868
84341,Cache County,UT,95.12855209742895,NA
84741,Kane County,UT,NA,92.49249249249249
05401,Chittenden County,VT,43.978349120433016,NA
05403,Chittenden County,VT,44.2489851150203,NA
05468,Chittenden County,VT,NA,85.13513513513513
05478,Franklin County,VT,NA,76.42642642642643
05482,Chittenden County,VT,NA,55.85585585585585
05701,Rutland County,VT,NA,43.393393393393396
22003,Fairfax County,VA,NA,45.19519519519519
22030,Fairfax County,VA,80.10825439783491,NA
22066,Fairfax County,VA,84.30311231393776,NA
22152,Fairfax County,VA,65.2232746955345,NA
22202,Arlington County,VA,NA,93.3933933933934
22302,Alexandria city,VA,65.49391069012178,NA
22901,Albemarle County,VA,NA,8.558558558558559
23188,James City County,VA,NA,0.45045045045045046
23454,Virginia Beach city,VA,NA,26.126126126126124
23509,Norfolk city,VA,NA,90.69069069069069
23661,Hampton city,VA,NA,74.77477477477478
23669,Hampton city,VA,10.419485791610285,NA
23927,Mecklenburg County,VA,NA,87.38738738738738
24018,Roanoke County,VA,27.74018944519621,NA
24175,Botetourt County,VA,89.71583220568336,NA
24333,Galax city,VA,48.9851150202977,NA
24503,Lynchburg city,VA,58.18673883626523,NA
98005,King County,WA,79.70230040595399,NA
98011,King County,WA,NA,77.32732732732732
98023,King County,WA,NA,23.573573573573572
98033,King County,WA,27.33423545331529,NA
98036,Snohomish County,WA,NA,67.86786786786787
98042,King County,WA,39.512855209742895,NA
98059,King County,WA,25.98105548037889,NA
98107,King County,WA,NA,81.98198198198197
98122,King County,WA,95.39918809201625,NA
98125,King County,WA,31.935047361299052,NA
98133,King County,WA,NA,10.96096096096096
98136,King County,WA,NA,96.54654654654654
98166,King County,WA,NA,96.996996996997
98177,King County,WA,NA,50.750750750750754
98178,King County,WA,66.30581867388364,NA
98274,Skagit County,WA,38.56562922868741,NA
98402,Pierce County,WA,NA,93.69369369369369
98584,Mason County,WA,51.82679296346414,NA
98801,Chelan County,WA,53.31529093369418,5.555555555555555
98816,Chelan County,WA,75.50744248985114,91.29129129129129
99208,Spokane County,WA,NA,11.411411411411411
99216,Spokane County,WA,94.04600811907984,NA
99324,Walla Walla County,WA,NA,64.26426426426426
20002,District of Columbia,DC,6.901217861975644,NA
20005,District of Columbia,DC,81.7320703653586,NA
20009,District of Columbia,DC,74.83085250338294,NA
20016,District of Columbia,DC,46.14343707713126,NA
20019,District of Columbia,DC,4.194857916102842,NA
24740,Mercer County,WV,NA,43.69369369369369
24801,McDowell County,WV,NA,99.3993993993994
25302,Kanawha County,WV,53.85656292286875,NA
25560,Putnam County,WV,NA,70.72072072072072
25701,Cabell County,WV,13.667117726657645,NA
25705,Cabell County,WV,19.079837618403246,NA
26037,Brooke County,WV,NA,68.91891891891892
26301,Harrison County,WV,NA,21.02102102102102
26330,Harrison County,WV,NA,65.31531531531532
26416,Barbour County,WV,NA,81.53153153153153
26505,Monongalia County,WV,6.359945872801083,17.417417417417415
26508,Monongalia County,WV,4.330175913396482,NA
26554,Marion County,WV,NA,3.003003003003003
53005,Waukesha County,WI,NA,43.093093093093096
53029,Waukesha County,WI,NA,49.849849849849846
53061,Calumet County,WI,94.45196211096076,NA
53081,Sheboygan County,WI,NA,55.25525525525525
53083,Sheboygan County,WI,92.96346414073072,NA
53095,Washington County,WI,50.74424898511503,NA
53098,Dodge County,WI,NA,46.246246246246244
53105,Racine County,WI,NA,28.37837837837838
53121,Walworth County,WI,61.70500676589986,NA
53129,Milwaukee County,WI,62.24627875507443,NA
53142,Kenosha County,WI,NA,67.71771771771772
53147,Walworth County,WI,NA,46.846846846846844
53154,Milwaukee County,WI,NA,67.26726726726727
53172,Milwaukee County,WI,36.67117726657646,NA
53185,Racine County,WI,49.12043301759134,NA
53204,Milwaukee County,WI,NA,63.51351351351351
53207,Milwaukee County,WI,63.05818673883626,NA
53213,Milwaukee County,WI,NA,42.492492492492495
53214,Milwaukee County,WI,NA,57.20720720720721
53220,Milwaukee County,WI,NA,46.546546546546544
53228,Milwaukee County,WI,NA,36.93693693693694
53406,Racine County,WI,NA,2.1021021021021022
53511,Rock County,WI,27.46955345060893,0
53528,Dane County,WI,86.468200270636,NA
53538,Jefferson County,WI,33.69418132611637,NA
53545,Rock County,WI,NA,48.1981981981982
53546,Rock County,WI,NA,52.4024024024024
53551,Jefferson County,WI,NA,77.17717717717719
53566,Green County,WI,NA,40.69069069069069
53581,Richland County,WI,81.32611637347767,89.63963963963964
53705,Dane County,WI,42.625169147496614,NA
53713,Dane County,WI,54.12719891745602,NA
53821,Crawford County,WI,79.02571041948579,NA
53949,Marquette County,WI,NA,83.33333333333334
54017,St. Croix County,WI,69.14749661705007,NA
54115,Brown County,WI,29.22868741542625,NA
54313,Brown County,WI,NA,26.876876876876878
54467,Portage County,WI,NA,52.702702702702695
54494,Wood County,WI,NA,18.61861861861862
54601,La Crosse County,WI,0.8119079837618403,57.507507507507505
54603,La Crosse County,WI,NA,14.864864864864865
54650,La Crosse County,WI,7.036535859269283,3.303303303303303
54656,Monroe County,WI,NA,51.80180180180181
54667,Vernon County,WI,NA,79.57957957957959
54720,Eau Claire County,WI,NA,98.34834834834835
54848,Rusk County,WI,89.98646820027064,NA
54880,Douglas County,WI,40.8660351826793,77.77777777777779
54893,Burnett County,WI,NA,80.33033033033034
54902,Winnebago County,WI,NA,34.234234234234236
54904,Winnebago County,WI,NA,90.24024024024024
54935,Fond du Lac County,WI,10.013531799729364,NA
82801,Sheridan County,WY,59.67523680649527,29.27927927927928
