ZipCode,county,state,Adult,Retirement,Geriatric
35016,Marshall County,AL,NA,39.666666666666664,NA
35022,Jefferson County,AL,NA,16,NA
35023,Jefferson County,AL,NA,NA,19.94750656167979
35184,Bibb County,AL,NA,78.66666666666666,NA
35216,Jefferson County,AL,NA,51,NA
35405,Tuscaloosa County,AL,51.633986928104584,NA,NA
35453,Tuscaloosa County,AL,55.119825708061,68.66666666666667,NA
35475,Tuscaloosa County,AL,NA,50.66666666666667,NA
35555,Fayette County,AL,66.4488017429194,NA,NA
35594,Marion County,AL,82.13507625272331,NA,NA
35601,Morgan County,AL,NA,13.833333333333334,NA
35633,Lauderdale County,AL,NA,60.66666666666667,NA
35674,Colbert County,AL,NA,48.833333333333336,NA
35960,Cherokee County,AL,NA,77.16666666666666,NA
36277,Calhoun County,AL,NA,NA,96.3254593175853
36303,Houston County,AL,24.618736383442265,NA,NA
36502,Escambia County,AL,NA,NA,59.31758530183727
36535,Baldwin County,AL,NA,21.166666666666668,NA
36575,Mobile County,AL,NA,NA,90.5511811023622
36580,Baldwin County,AL,NA,87.33333333333333,86.08923884514435
36613,Mobile County,AL,83.2244008714597,NA,NA
36869,Russell County,AL,NA,62.5,NA
36870,Lee County,AL,NA,NA,67.71653543307087
36877,Lee County,AL,NA,67.66666666666666,93.96325459317585
99611,Kenai Peninsula Borough,AK,NA,49.166666666666664,NA
99645,Matanuska-Susitna Borough,AK,NA,67.33333333333333,NA
99709,Fairbanks North Star Borough,AK,66.23093681917211,NA,NA
99801,Juneau City and Borough,AK,NA,67.16666666666666,NA
99901,Ketchikan Gateway Borough,AK,NA,53.166666666666664,NA
85020,Maricopa County,AZ,87.14596949891067,NA,NA
85041,Maricopa County,AZ,NA,61,NA
85225,Maricopa County,AZ,NA,29.5,NA
85286,Maricopa County,AZ,35.72984749455338,NA,NA
85339,Maricopa County,AZ,NA,52.83333333333333,NA
85373,Maricopa County,AZ,NA,50,NA
85377,Maricopa County,AZ,NA,NA,97.11286089238845
85622,Pima County,AZ,NA,94.66666666666667,NA
86303,Yavapai County,AZ,NA,NA,48.55643044619423
86314,Yavapai County,AZ,16.99346405228758,NA,8.136482939632545
86401,Mohave County,AZ,9.586056644880173,NA,NA
86403,Mohave County,AZ,NA,57.49999999999999,NA
86404,Mohave County,AZ,NA,NA,40.15748031496063
86406,Mohave County,AZ,NA,NA,28.871391076115486
71602,Jefferson County,AR,NA,71,58.53018372703412
71852,Howard County,AR,NA,83.33333333333334,NA
71909,Garland County,AR,NA,NA,10.498687664041995
71913,Garland County,AR,71.0239651416122,26.666666666666668,44.35695538057743
71953,Polk County,AR,NA,54,35.69553805774278
72032,Faulkner County,AR,NA,44.5,NA
72034,Faulkner County,AR,49.89106753812636,50.33333333333333,14.960629921259844
72104,Hot Spring County,AR,57.29847494553377,NA,NA
72360,Lee County,AR,NA,95.16666666666667,NA
72712,Benton County,AR,NA,NA,41.46981627296588
72740,Madison County,AR,NA,NA,88.9763779527559
72756,Benton County,AR,60.78431372549019,NA,NA
72758,Benton County,AR,NA,56.833333333333336,NA
72901,Sebastian County,AR,NA,69.33333333333334,NA
72916,Sebastian County,AR,NA,NA,95.53805774278216
72958,Scott County,AR,NA,88.33333333333333,NA
90004,Los Angeles County,CA,44.226579520697165,NA,NA
90043,Los Angeles County,CA,NA,NA,30.971128608923888
90505,Los Angeles County,CA,NA,41.333333333333336,NA
90638,Los Angeles County,CA,NA,NA,27.034120734908136
91605,Los Angeles County,CA,NA,77.66666666666666,NA
91745,Los Angeles County,CA,NA,46,NA
91767,Los Angeles County,CA,NA,NA,47.24409448818898
91786,San Bernardino County,CA,NA,34.5,NA
91910,San Diego County,CA,26.797385620915033,NA,NA
92008,San Diego County,CA,NA,NA,40.68241469816273
92064,San Diego County,CA,NA,38.166666666666664,NA
92128,San Diego County,CA,NA,49,NA
92211,Riverside County,CA,NA,NA,2.8871391076115485
92240,Riverside County,CA,NA,70.33333333333334,NA
92253,Riverside County,CA,45.09803921568628,NA,NA
92284,San Bernardino County,CA,NA,28.333333333333332,NA
92311,San Bernardino County,CA,NA,NA,45.93175853018373
92324,San Bernardino County,CA,21.13289760348584,NA,NA
92399,San Bernardino County,CA,31.808278867102395,NA,24.93438320209974
92544,Riverside County,CA,NA,48,NA
92624,Orange County,CA,NA,98.33333333333333,NA
92651,Orange County,CA,NA,NA,62.72965879265092
92806,Orange County,CA,NA,61.83333333333333,NA
92808,Orange County,CA,NA,81.16666666666667,NA
92821,Orange County,CA,NA,49.666666666666664,61.417322834645674
92835,Orange County,CA,NA,NA,18.11023622047244
92867,Orange County,CA,NA,NA,29.92125984251969
92870,Orange County,CA,NA,NA,12.860892388451445
92886,Orange County,CA,31.590413943355124,NA,NA
92887,Orange County,CA,74.29193899782135,NA,NA
93010,Ventura County,CA,NA,62.16666666666667,7.611548556430446
93033,Ventura County,CA,12.200435729847495,NA,NA
93103,Santa Barbara County,CA,NA,NA,93.1758530183727
93311,Kern County,CA,62.745098039215684,NA,NA
93420,San Luis Obispo County,CA,NA,95,NA
93433,San Luis Obispo County,CA,93.89978213507625,NA,NA
93611,Fresno County,CA,38.77995642701525,NA,NA
94002,San Mateo County,CA,NA,40,NA
94010,San Mateo County,CA,NA,NA,41.20734908136483
94044,San Mateo County,CA,NA,28.999999999999996,NA
94102,San Francisco County,CA,8.061002178649238,6.666666666666667,NA
94112,San Francisco County,CA,NA,5.833333333333333,NA
94116,San Francisco County,CA,57.08061002178649,NA,NA
94122,San Francisco County,CA,NA,NA,77.69028871391076
94131,San Francisco County,CA,65.79520697167756,NA,NA
94301,Santa Clara County,CA,NA,NA,82.93963254593176
94403,San Mateo County,CA,NA,17.5,NA
94549,Contra Costa County,CA,NA,84.33333333333334,NA
94563,Contra Costa County,CA,NA,77.83333333333333,NA
94565,Contra Costa County,CA,22.004357298474943,NA,NA
94571,Solano County,CA,NA,NA,56.16797900262467
94587,Alameda County,CA,36.38344226579521,NA,NA
94603,Alameda County,CA,46.84095860566449,NA,NA
94619,Alameda County,CA,NA,59.66666666666667,NA
94621,Alameda County,CA,32.89760348583878,NA,NA
95125,Santa Clara County,CA,NA,21.5,NA
95205,San Joaquin County,CA,NA,54.666666666666664,NA
95330,San Joaquin County,CA,80.61002178649237,NA,NA
95337,San Joaquin County,CA,NA,43.166666666666664,NA
95503,Humboldt County,CA,NA,47,NA
95521,Humboldt County,CA,84.0958605664488,NA,NA
95531,Del Norte County,CA,NA,NA,32.28346456692913
95616,Yolo County,CA,NA,NA,70.60367454068242
95658,Placer County,CA,NA,92.16666666666666,NA
95662,Sacramento County,CA,NA,NA,37.00787401574803
95685,Amador County,CA,NA,97.16666666666667,NA
95747,Placer County,CA,NA,40.5,NA
95762,El Dorado County,CA,49.23747276688453,NA,NA
95776,Yolo County,CA,NA,84.83333333333334,NA
95842,Sacramento County,CA,NA,NA,75.59055118110236
95966,Butte County,CA,10.675381263616558,NA,NA
95988,Glenn County,CA,83.00653594771242,NA,NA
95991,Sutter County,CA,NA,NA,39.63254593175853
95993,Sutter County,CA,NA,41,NA
96094,Siskiyou County,CA,NA,67.5,NA
96161,Nevada County,CA,NA,NA,76.9028871391076
80017,Arapahoe County,CO,NA,48.5,NA
80026,Boulder County,CO,NA,NA,61.942257217847775
80031,Adams County,CO,NA,NA,49.86876640419948
80112,Arapahoe County,CO,NA,82.83333333333334,NA
80211,Denver County,CO,38.344226579520694,NA,NA
80222,Denver County,CO,NA,78.5,NA
80237,Denver County,CO,NA,60.66666666666667,NA
80246,Denver County,CO,NA,NA,81.10236220472441
80465,Jefferson County,CO,NA,89.83333333333333,NA
80516,Weld County,CO,NA,86.33333333333333,NA
80537,Larimer County,CO,NA,NA,20.209973753280842
80615,Weld County,CO,NA,NA,89.23884514435696
80631,Weld County,CO,NA,25.666666666666664,NA
80634,Weld County,CO,NA,1.8333333333333333,NA
80701,Morgan County,CO,72.76688453159042,NA,NA
80817,El Paso County,CO,52.723311546840954,NA,NA
80909,El Paso County,CO,25.70806100217865,NA,NA
81005,Pueblo County,CO,NA,23.5,NA
81007,Pueblo County,CO,NA,41.833333333333336,NA
81321,Montezuma County,CO,NA,63,NA
81625,Moffat County,CO,40.95860566448802,NA,NA
06019,Hartford County,CT,NA,92.5,NA
06032,Hartford County,CT,NA,72.66666666666667,NA
06051,Hartford County,CT,NA,18.333333333333332,NA
06053,Hartford County,CT,10.893246187363834,NA,NA
06111,Hartford County,CT,NA,87.66666666666667,NA
06239,Windham County,CT,36.60130718954248,NA,NA
06450,New Haven County,CT,NA,NA,23.35958005249344
06478,New Haven County,CT,NA,NA,63.25459317585301
06492,New Haven County,CT,NA,11.166666666666666,NA
06513,New Haven County,CT,NA,8.166666666666666,NA
06606,Fairfield County,CT,NA,68,NA
06790,Litchfield County,CT,NA,NA,31.496062992125985
06791,Litchfield County,CT,96.07843137254902,NA,NA
06870,Fairfield County,CT,NA,92.83333333333333,NA
06880,Fairfield County,CT,48.366013071895424,NA,NA
06902,Fairfield County,CT,72.1132897603486,NA,NA
19701,New Castle County,DE,NA,52.83333333333333,NA
19702,New Castle County,DE,NA,18,NA
19709,New Castle County,DE,NA,20.166666666666664,NA
19713,New Castle County,DE,NA,31,33.07086614173229
19720,New Castle County,DE,2.832244008714597,NA,NA
19802,New Castle County,DE,NA,84.33333333333334,NA
19803,New Castle County,DE,62.96296296296296,NA,NA
19804,New Castle County,DE,61.6557734204793,NA,NA
19806,New Castle County,DE,NA,73,NA
19956,Sussex County,DE,NA,76.66666666666667,NA
19977,Kent County,DE,23.965141612200437,NA,NA
32068,Clay County,FL,NA,NA,64.30446194225722
32084,St. Johns County,FL,30.501089324618736,28.666666666666668,NA
32092,St. Johns County,FL,50.98039215686274,NA,NA
32118,Volusia County,FL,NA,64.33333333333333,NA
32127,Volusia County,FL,NA,39.33333333333333,NA
32132,Volusia County,FL,NA,71.33333333333334,NA
32205,Duval County,FL,NA,34.333333333333336,NA
32207,Duval County,FL,NA,NA,51.181102362204726
32211,Duval County,FL,21.78649237472767,NA,NA
32218,Duval County,FL,3.485838779956427,NA,NA
32225,Duval County,FL,NA,14.666666666666666,NA
32233,Duval County,FL,NA,39,NA
32259,St. Johns County,FL,NA,NA,47.76902887139108
32404,Bay County,FL,NA,21.666666666666668,NA
32504,Escambia County,FL,49.45533769063181,NA,NA
32541,Okaloosa County,FL,NA,38.83333333333333,NA
32605,Alachua County,FL,NA,32.33333333333333,NA
32712,Orange County,FL,NA,NA,20.99737532808399
32780,Brevard County,FL,NA,NA,5.2493438320209975
33025,Broward County,FL,NA,55.333333333333336,NA
33040,Monroe County,FL,NA,NA,57.48031496062992
33043,Monroe County,FL,NA,96.33333333333334,NA
33134,Miami-Dade County,FL,NA,NA,28.608923884514436
33156,Miami-Dade County,FL,NA,NA,45.40682414698163
33322,Broward County,FL,NA,NA,8.398950131233596
33428,Palm Beach County,FL,NA,53.833333333333336,NA
33449,Palm Beach County,FL,NA,97.5,NA
33462,Palm Beach County,FL,70.1525054466231,NA,NA
33570,Hillsborough County,FL,NA,56.49999999999999,NA
33708,Pinellas County,FL,NA,NA,64.82939632545933
33715,Pinellas County,FL,NA,NA,65.61679790026247
33852,Highlands County,FL,60.348583877995644,NA,NA
33898,Polk County,FL,NA,68.5,NA
34135,Lee County,FL,NA,NA,9.448818897637794
34208,Manatee County,FL,NA,49.5,NA
34209,Manatee County,FL,NA,22.166666666666668,19.42257217847769
34237,Sarasota County,FL,58.605664488017425,NA,NA
34759,Polk County,FL,NA,NA,58.79265091863517
34952,St. Lucie County,FL,NA,60.333333333333336,NA
34957,Martin County,FL,NA,NA,14.698162729658792
34996,Martin County,FL,NA,65.5,NA
30012,Rockdale County,GA,NA,NA,61.942257217847775
30016,Newton County,GA,13.28976034858388,NA,NA
30028,Forsyth County,GA,NA,NA,74.01574803149606
30047,Gwinnett County,GA,NA,26.5,NA
30076,Fulton County,GA,NA,44,NA
30083,DeKalb County,GA,61.22004357298475,NA,NA
30135,Douglas County,GA,64.4880174291939,12,NA
30180,Carroll County,GA,NA,NA,62.99212598425197
30214,Fayette County,GA,NA,40.666666666666664,NA
30253,Henry County,GA,NA,52.5,41.46981627296588
30269,Fayette County,GA,71.45969498910677,NA,NA
30286,Upson County,GA,49.01960784313725,NA,NA
30312,Fulton County,GA,NA,52.5,NA
30314,Fulton County,GA,NA,47.16666666666667,NA
30316,DeKalb County,GA,54.03050108932462,NA,46.194225721784775
30318,Fulton County,GA,29.411764705882355,NA,NA
30350,Fulton County,GA,NA,96,NA
30517,Jackson County,GA,NA,82,NA
30538,Stephens County,GA,99.78213507625271,NA,NA
30907,Columbia County,GA,NA,9.833333333333332,NA
31024,Putnam County,GA,56.644880174291934,NA,NA
31404,Chatham County,GA,NA,41.16666666666667,NA
31523,Glynn County,GA,NA,72,NA
31714,Turner County,GA,76.68845315904139,NA,NA
31774,Irwin County,GA,80.82788671023965,NA,NA
31791,Worth County,GA,NA,62,NA
31792,Thomas County,GA,35.294117647058826,33.83333333333333,NA
31820,Muscogee County,GA,NA,NA,99.47506561679789
31903,Muscogee County,GA,NA,NA,98.9501312335958
31904,Muscogee County,GA,NA,92.33333333333333,NA
31906,Muscogee County,GA,73.20261437908496,NA,NA
31907,Muscogee County,GA,NA,NA,19.160104986876643
39837,Miller County,GA,74.50980392156863,NA,NA
39842,Terrell County,GA,67.3202614379085,NA,NA
96706,Honolulu County,HI,39.651416122004356,NA,NA
96744,Honolulu County,HI,51.4161220043573,2.666666666666667,NA
96789,Honolulu County,HI,NA,7.333333333333333,NA
96816,Honolulu County,HI,33.11546840958606,NA,NA
83204,Bannock County,ID,NA,NA,90.02624671916011
83211,Power County,ID,NA,91.83333333333333,NA
83401,Bonneville County,ID,15.686274509803921,NA,NA
83402,Bonneville County,ID,NA,46.833333333333336,NA
83406,Bonneville County,ID,NA,72.5,NA
83442,Jefferson County,ID,NA,NA,71.65354330708661
83616,Ada County,ID,NA,NA,11.023622047244094
83651,Canyon County,ID,18.51851851851852,NA,NA
83702,Ada County,ID,31.154684095860567,NA,NA
83706,Ada County,ID,NA,NA,16.27296587926509
83713,Ada County,ID,NA,15.166666666666668,NA
83801,Kootenai County,ID,94.77124183006535,NA,NA
83856,Bonner County,ID,NA,NA,96.8503937007874
60025,Cook County,IL,NA,NA,3.937007874015748
60104,Cook County,IL,41.394335511982575,27.166666666666668,NA
60148,DuPage County,IL,NA,4.666666666666667,NA
60152,McHenry County,IL,NA,NA,55.90551181102362
60172,DuPage County,IL,64.92374727668845,NA,NA
60177,Kane County,IL,59.25925925925925,NA,NA
60178,DeKalb County,IL,95.20697167755992,NA,NA
60201,Cook County,IL,NA,NA,6.036745406824147
60302,Cook County,IL,NA,NA,13.648293963254593
60423,Will County,IL,NA,22.666666666666664,NA
60432,Will County,IL,NA,71.66666666666667,NA
60433,Will County,IL,62.527233115468405,NA,NA
60439,Cook County,IL,NA,NA,23.097112860892388
60441,Will County,IL,NA,63.83333333333333,NA
60442,Will County,IL,NA,81.33333333333333,NA
60451,Will County,IL,20.915032679738562,NA,NA
60487,Cook County,IL,NA,73.33333333333333,NA
60491,Will County,IL,NA,28.000000000000004,NA
60502,DuPage County,IL,52.28758169934641,NA,NA
60503,Will County,IL,82.35294117647058,NA,NA
60504,DuPage County,IL,NA,NA,75.32808398950131
60505,Kane County,IL,32.24400871459695,NA,75.8530183727034
60516,DuPage County,IL,NA,64.5,NA
60559,DuPage County,IL,NA,47.5,NA
60565,DuPage County,IL,32.02614379084967,NA,NA
60608,Cook County,IL,11.11111111111111,NA,NA
60616,Cook County,IL,NA,8.833333333333334,NA
60617,Cook County,IL,NA,19.166666666666668,1.837270341207349
60637,Cook County,IL,NA,11.333333333333332,NA
60643,Cook County,IL,8.932461873638346,NA,NA
60649,Cook County,IL,NA,7.666666666666666,NA
60954,Kankakee County,IL,77.12418300653596,NA,NA
61074,Carroll County,IL,88.01742919389977,NA,NA
61102,Winnebago County,IL,NA,NA,68.24146981627297
61103,Winnebago County,IL,54.248366013071895,NA,NA
61108,Winnebago County,IL,56.86274509803921,NA,NA
61109,Winnebago County,IL,NA,NA,53.018372703412076
61111,Winnebago County,IL,NA,55.50000000000001,NA
61115,Winnebago County,IL,92.37472766884531,NA,NA
61264,Rock Island County,IL,89.32461873638344,NA,NA
61265,Rock Island County,IL,NA,31.833333333333336,NA
61341,LaSalle County,IL,NA,86,NA
61364,LaSalle County,IL,NA,55.833333333333336,NA
61525,Peoria County,IL,NA,NA,86.3517060367454
61821,Champaign County,IL,NA,NA,8.923884514435695
61953,Douglas County,IL,NA,NA,73.75328083989501
62016,Greene County,IL,98.47494553376906,NA,NA
62056,Montgomery County,IL,NA,69,NA
62226,St. Clair County,IL,NA,62.83333333333333,24.93438320209974
62230,Clinton County,IL,NA,99.33333333333333,NA
62254,St. Clair County,IL,NA,96.66666666666667,NA
62260,St. Clair County,IL,NA,NA,97.9002624671916
62301,Adams County,IL,NA,37.666666666666664,NA
62526,Macon County,IL,NA,6.833333333333333,NA
62565,Shelby County,IL,84.0958605664488,NA,NA
62629,Sangamon County,IL,NA,88.5,NA
62704,Sangamon County,IL,NA,NA,11.286089238845145
62837,Wayne County,IL,NA,70,NA
62864,Jefferson County,IL,47.49455337690632,NA,NA
62881,Marion County,IL,NA,76,NA
62896,Franklin County,IL,75.38126361655773,NA,NA
46052,Boone County,IN,NA,49.333333333333336,NA
46060,Hamilton County,IN,NA,NA,33.85826771653544
46074,Hamilton County,IN,NA,NA,60.367454068241464
46077,Boone County,IN,NA,65.66666666666666,NA
46176,Shelby County,IN,16.55773420479303,NA,NA
46229,Marion County,IN,25.054466230936818,34.66666666666667,NA
46303,Lake County,IN,NA,41.66666666666667,NA
46307,Lake County,IN,NA,14.000000000000002,NA
46311,Lake County,IN,NA,16.666666666666664,24.409448818897637
46312,Lake County,IN,NA,NA,22.83464566929134
46319,Lake County,IN,NA,27,NA
46321,Lake County,IN,35.947712418300654,15,21.522309711286088
46322,Lake County,IN,58.387799564270146,NA,NA
46341,Porter County,IN,65.359477124183,NA,NA
46342,Lake County,IN,5.228758169934641,NA,NA
46350,LaPorte County,IN,9.15032679738562,NA,NA
46360,LaPorte County,IN,NA,NA,51.44356955380578
46375,Lake County,IN,NA,15.833333333333332,NA
46394,Lake County,IN,NA,56.00000000000001,NA
46403,Lake County,IN,69.06318082788671,NA,NA
46410,Lake County,IN,NA,27.833333333333332,NA
46514,Elkhart County,IN,NA,22.333333333333332,NA
46530,St. Joseph County,IN,78.64923747276688,NA,NA
46574,St. Joseph County,IN,NA,76.33333333333333,NA
46619,St. Joseph County,IN,NA,NA,70.86614173228347
46725,Whitley County,IN,NA,21,NA
46733,Adams County,IN,42.91938997821351,NA,NA
46755,Noble County,IN,NA,38.333333333333336,57.21784776902887
46774,Allen County,IN,NA,43.666666666666664,NA
46806,Allen County,IN,28.322440087145967,NA,NA
46808,Allen County,IN,33.769063180827885,NA,NA
47331,Fayette County,IN,15.904139433551197,NA,NA
47630,Warrick County,IN,NA,NA,31.23359580052493
50313,Polk County,IA,40.74074074074074,NA,NA
50316,Polk County,IA,NA,54.833333333333336,NA
50327,Polk County,IA,NA,NA,78.74015748031496
51104,Woodbury County,IA,NA,53.333333333333336,NA
51106,Woodbury County,IA,NA,NA,37.270341207349084
52031,Jackson County,IA,NA,98.16666666666667,NA
52310,Jones County,IA,90.6318082788671,NA,NA
52353,Washington County,IA,NA,74.5,NA
52402,Linn County,IA,NA,25.5,NA
66061,Johnson County,KS,NA,NA,80.31496062992126
66064,Miami County,KS,88.88888888888889,NA,NA
66071,Miami County,KS,NA,NA,69.81627296587926
66203,Johnson County,KS,NA,67.83333333333333,NA
66215,Johnson County,KS,NA,42.833333333333336,NA
66611,Shawnee County,KS,NA,NA,63.77952755905512
66749,Allen County,KS,NA,NA,56.69291338582677
67005,Cowley County,KS,NA,NA,91.0761154855643
67410,Dickinson County,KS,NA,90.16666666666666,NA
67502,Reno County,KS,NA,NA,50.13123359580053
67601,Ellis County,KS,42.26579520697168,NA,NA
40212,Jefferson County,KY,27.233115468409586,NA,NA
40218,Jefferson County,KY,14.161220043572984,NA,NA
40242,Jefferson County,KY,NA,71,NA
40330,Mercer County,KY,53.37690631808278,NA,NA
40356,Jessamine County,KY,14.596949891067537,NA,NA
40444,Garrard County,KY,NA,53.5,NA
40484,Lincoln County,KY,70.37037037037037,83.5,NA
40744,Laurel County,KY,NA,NA,73.49081364829397
41015,Kenton County,KY,NA,NA,36.22047244094488
41101,Boyd County,KY,NA,82.33333333333334,NA
41501,Pike County,KY,11.982570806100219,NA,NA
41514,Pike County,KY,90.6318082788671,NA,NA
42003,McCracken County,KY,NA,14.333333333333334,NA
42220,Todd County,KY,NA,81.66666666666667,NA
42301,Daviess County,KY,9.586056644880173,NA,NA
42437,Union County,KY,NA,90.33333333333333,NA
42503,Pulaski County,KY,NA,58.166666666666664,NA
42539,Casey County,KY,90.19607843137256,NA,NA
42728,Adair County,KY,87.36383442265794,NA,NA
70005,Jefferson Parish,LA,NA,NA,6.824146981627297
70062,Jefferson Parish,LA,NA,31.5,NA
70072,Jefferson Parish,LA,NA,2.833333333333333,NA
70126,Orleans Parish,LA,NA,57.99999999999999,NA
70401,Tangipahoa Parish,LA,NA,37.5,NA
70438,Washington Parish,LA,NA,12.333333333333334,NA
70443,Tangipahoa Parish,LA,NA,NA,54.330708661417326
70506,Lafayette Parish,LA,NA,16.166666666666664,NA
70508,Lafayette Parish,LA,45.969498910675384,19.666666666666664,28.346456692913385
70517,St. Martin Parish,LA,84.9673202614379,NA,NA
70518,Lafayette Parish,LA,NA,NA,89.501312335958
70535,St. Landry Parish,LA,NA,NA,27.821522309711288
70548,Vermilion Parish,LA,NA,75.5,NA
70560,Iberia Parish,LA,NA,11.666666666666666,NA
70578,Acadia Parish,LA,22.440087145969496,NA,NA
70583,Lafayette Parish,LA,47.712418300653596,NA,NA
70706,Livingston Parish,LA,79.520697167756,NA,NA
70711,Livingston Parish,LA,NA,82.16666666666667,NA
70726,Livingston Parish,LA,2.178649237472767,7.5,NA
70737,Ascension Parish,LA,NA,16.333333333333332,NA
70754,Livingston Parish,LA,NA,NA,74.2782152230971
70809,East Baton Rouge Parish,LA,NA,NA,36.74540682414698
71037,Bossier Parish,LA,NA,54.333333333333336,NA
71112,Bossier Parish,LA,NA,NA,30.446194225721783
71220,Morehouse Parish,LA,18.954248366013072,43.333333333333336,NA
71241,Union Parish,LA,82.78867102396515,76.83333333333333,NA
71295,Franklin Parish,LA,NA,NA,41.99475065616798
71303,Rapides Parish,LA,NA,73.16666666666667,NA
71446,Vernon Parish,LA,NA,NA,59.580052493438316
71483,Winn Parish,LA,NA,69.83333333333334,NA
03909,York County,ME,NA,NA,71.12860892388451
04002,York County,ME,NA,47.333333333333336,NA
04072,York County,ME,40.305010893246184,NA,NA
04073,York County,ME,57.9520697167756,NA,NA
04086,Sagadahoc County,ME,94.33551198257081,NA,NA
04102,Cumberland County,ME,35.5119825708061,NA,NA
04103,Cumberland County,ME,NA,NA,47.506561679790025
04240,Androscoggin County,ME,NA,18.666666666666668,NA
04268,Oxford County,ME,NA,NA,76.11548556430446
04605,Hancock County,ME,NA,NA,70.07874015748031
04743,Aroostook County,ME,NA,NA,73.22834645669292
04901,Kennebec County,ME,4.793028322440087,NA,NA
04917,Kennebec County,ME,NA,89.16666666666667,NA
20639,Calvert County,MD,79.73856209150327,NA,NA
20653,St. Mary's County,MD,NA,75.83333333333333,NA
21213,Baltimore city,MD,NA,12.666666666666668,NA
21224,Baltimore city,MD,NA,NA,29.133858267716533
01062,Hampshire County,MA,NA,66,NA
01151,Hampden County,MA,NA,51.66666666666667,NA
01201,Berkshire County,MA,1.5250544662309369,3.3333333333333335,0.5249343832020997
01267,Berkshire County,MA,NA,NA,88.71391076115486
01473,Worcester County,MA,70.80610021786492,NA,NA
01534,Worcester County,MA,73.63834422657952,NA,NA
01545,Worcester County,MA,NA,NA,12.073490813648293
01562,Worcester County,MA,84.74945533769062,NA,NA
01570,Worcester County,MA,NA,NA,16.79790026246719
01581,Worcester County,MA,34.42265795206972,NA,NA
01583,Worcester County,MA,77.34204793028321,NA,NA
01605,Worcester County,MA,NA,0.6666666666666667,NA
01606,Worcester County,MA,NA,14.499999999999998,NA
01844,Essex County,MA,NA,3.166666666666667,NA
01876,Middlesex County,MA,6.535947712418301,NA,NA
01880,Middlesex County,MA,6.971677559912854,NA,NA
01913,Essex County,MA,NA,8.5,NA
02122,Suffolk County,MA,1.7429193899782136,NA,NA
02124,Suffolk County,MA,0,NA,NA
02135,Suffolk County,MA,21.350762527233115,NA,NA
02139,Middlesex County,MA,NA,NA,8.661417322834646
02140,Middlesex County,MA,NA,10,NA
02143,Middlesex County,MA,NA,86.5,NA
02176,Middlesex County,MA,NA,6.166666666666667,NA
02301,Plymouth County,MA,NA,0,NA
02368,Norfolk County,MA,NA,NA,18.37270341207349
02446,Norfolk County,MA,NA,5.833333333333333,NA
02467,Norfolk County,MA,94.98910675381264,NA,NA
02540,Barnstable County,MA,55.33769063180828,NA,NA
02554,Nantucket County,MA,80.17429193899783,NA,NA
02642,Barnstable County,MA,NA,NA,92.91338582677166
02702,Bristol County,MA,88.45315904139433,NA,NA
02720,Bristol County,MA,0.2178649237472767,NA,NA
02726,Bristol County,MA,NA,NA,44.09448818897638
02738,Plymouth County,MA,NA,89,NA
02740,Bristol County,MA,NA,0.16666666666666669,NA
02746,Bristol County,MA,NA,83.66666666666667,NA
02777,Bristol County,MA,8.278867102396514,NA,NA
02780,Bristol County,MA,0.4357298474945534,NA,NA
48035,Macomb County,MI,NA,NA,37.53280839895013
48038,Macomb County,MI,NA,4.333333333333334,NA
48044,Macomb County,MI,NA,54.833333333333336,NA
48045,Macomb County,MI,26.143790849673206,NA,NA
48047,Macomb County,MI,NA,13,NA
48048,Macomb County,MI,NA,90,NA
48060,St. Clair County,MI,NA,52.33333333333333,NA
48062,Macomb County,MI,NA,NA,97.63779527559055
48081,Macomb County,MI,NA,23.833333333333336,NA
48085,Oakland County,MI,NA,64,NA
48089,Macomb County,MI,NA,NA,46.71916010498688
48114,Livingston County,MI,86.9281045751634,NA,NA
48161,Monroe County,MI,7.4074074074074066,NA,NA
48169,Livingston County,MI,NA,NA,32.808398950131235
48176,Washtenaw County,MI,41.61220043572985,NA,NA
48186,Wayne County,MI,45.751633986928105,NA,NA
48207,Wayne County,MI,20.47930283224401,NA,NA
48307,Oakland County,MI,NA,74.33333333333333,NA
48329,Oakland County,MI,NA,20.833333333333336,NA
48336,Oakland County,MI,33.33333333333333,NA,NA
48348,Oakland County,MI,37.03703703703704,NA,NA
48371,Oakland County,MI,NA,NA,57.74278215223097
48374,Oakland County,MI,75.59912854030502,NA,NA
48386,Oakland County,MI,62.091503267973856,NA,NA
48420,Genesee County,MI,NA,NA,72.70341207349081
48430,Genesee County,MI,27.01525054466231,NA,NA
48433,Genesee County,MI,52.505446623093675,NA,NA
48441,Huron County,MI,NA,82.66666666666667,NA
48442,Oakland County,MI,47.05882352941176,NA,NA
48444,Lapeer County,MI,92.81045751633987,NA,NA
48446,Lapeer County,MI,15.468409586056644,23.666666666666668,NA
48458,Genesee County,MI,65.57734204793029,55.666666666666664,51.70603674540683
48462,Oakland County,MI,NA,73.5,NA
48473,Genesee County,MI,43.57298474945534,NA,NA
48504,Genesee County,MI,NA,43.833333333333336,NA
48505,Genesee County,MI,NA,54.833333333333336,NA
48506,Genesee County,MI,74.94553376906318,38.666666666666664,NA
48509,Genesee County,MI,NA,77.16666666666666,NA
48529,Genesee County,MI,90.41394335511983,NA,NA
48532,Genesee County,MI,39.869281045751634,39.5,NA
48609,Saginaw County,MI,NA,NA,78.4776902887139
48625,Clare County,MI,29.847494553376908,NA,43.044619422572175
48650,Bay County,MI,80.3921568627451,NA,NA
48653,Roscommon County,MI,NA,66.83333333333333,NA
48706,Bay County,MI,31.372549019607842,1.5,NA
48708,Bay County,MI,7.625272331154684,NA,NA
48732,Bay County,MI,52.94117647058824,48.333333333333336,NA
48821,Eaton County,MI,92.15686274509804,NA,NA
48827,Eaton County,MI,NA,33.5,NA
48837,Eaton County,MI,57.29847494553377,NA,NA
48842,Ingham County,MI,NA,38,NA
48843,Livingston County,MI,12.854030501089325,NA,NA
48858,Isabella County,MI,46.40522875816993,NA,7.086614173228346
48867,Shiawassee County,MI,NA,NA,34.38320209973753
48893,Isabella County,MI,NA,NA,80.83989501312337
48911,Ingham County,MI,NA,13.666666666666666,26.246719160104988
48912,Ingham County,MI,NA,NA,69.5538057742782
49008,Kalamazoo County,MI,NA,51.33333333333333,NA
49048,Kalamazoo County,MI,18.082788671023962,NA,NA
49058,Barry County,MI,NA,96.5,NA
49080,Allegan County,MI,43.35511982570806,NA,NA
49120,Berrien County,MI,NA,49.666666666666664,13.385826771653544
49201,Jackson County,MI,8.714596949891067,NA,NA
49234,Jackson County,MI,99.56427015250546,NA,NA
49417,Ottawa County,MI,18.30065359477124,5,NA
49425,Muskegon County,MI,100,NA,NA
49442,Muskegon County,MI,19.389978213507625,NA,NA
49445,Muskegon County,MI,NA,20.5,NA
49519,Kent County,MI,NA,30.333333333333336,NA
49686,Grand Traverse County,MI,NA,NA,15.485564304461944
49740,Emmet County,MI,NA,NA,67.71653543307087
49765,Presque Isle County,MI,NA,NA,72.44094488188976
49841,Marquette County,MI,NA,74.66666666666667,NA
49858,Menominee County,MI,NA,95.33333333333334,NA
49935,Iron County,MI,NA,66.5,NA
55038,Washington County,MN,NA,85.5,NA
55082,Washington County,MN,NA,24.666666666666668,44.61942257217848
55109,Ramsey County,MN,44.88017429193899,NA,NA
55116,Ramsey County,MN,NA,98.66666666666667,NA
55118,Dakota County,MN,48.80174291938998,NA,21.25984251968504
55317,Carver County,MN,77.77777777777779,NA,NA
55398,Sherburne County,MN,NA,87.5,NA
55403,Hennepin County,MN,95.42483660130719,NA,NA
55404,Hennepin County,MN,NA,NA,35.958005249343834
55410,Hennepin County,MN,85.18518518518519,NA,NA
55412,Hennepin County,MN,34.85838779956427,NA,NA
55422,Hennepin County,MN,64.70588235294117,NA,NA
55430,Hennepin County,MN,NA,99.16666666666667,NA
55434,Anoka County,MN,NA,59.333333333333336,NA
55443,Hennepin County,MN,NA,45.33333333333333,NA
55454,Hennepin County,MN,NA,NA,97.3753280839895
55721,Itasca County,MN,98.91067538126362,NA,NA
55746,St. Louis County,MN,NA,NA,26.77165354330709
55803,St. Louis County,MN,NA,NA,77.95275590551181
55901,Olmsted County,MN,27.450980392156865,NA,NA
55902,Olmsted County,MN,NA,62.33333333333333,NA
55921,Houston County,MN,86.71023965141612,NA,NA
56081,Watonwan County,MN,NA,70.83333333333334,NA
56085,Brown County,MN,NA,76.5,NA
56164,Pipestone County,MN,72.98474945533769,NA,45.66929133858268
56320,Stearns County,MN,NA,NA,82.41469816272966
56345,Morrison County,MN,NA,NA,11.548556430446194
56347,Todd County,MN,NA,81.83333333333334,NA
56352,Stearns County,MN,NA,NA,70.34120734908137
56358,Kanabec County,MN,99.34640522875817,NA,NA
56378,Stearns County,MN,NA,78.33333333333333,NA
56379,Benton County,MN,NA,78.66666666666666,NA
56468,Crow Wing County,MN,NA,NA,62.46719160104986
56470,Hubbard County,MN,NA,37.666666666666664,NA
56472,Crow Wing County,MN,NA,69.16666666666667,NA
56501,Becker County,MN,71.67755991285402,NA,NA
56529,Clay County,MN,NA,99,NA
56560,Clay County,MN,NA,4,7.874015748031496
56572,Otter Tail County,MN,NA,65.66666666666666,NA
56573,Otter Tail County,MN,NA,NA,61.15485564304461
39157,Madison County,MS,NA,NA,91.86351706036746
39204,Hinds County,MS,23.74727668845316,NA,NA
39301,Lauderdale County,MS,19.825708061002178,NA,NA
39443,Jones County,MS,66.88453159041394,NA,NA
39501,Harrison County,MS,NA,80.83333333333333,NA
39503,Harrison County,MS,38.12636165577342,24.166666666666668,NA
39540,Harrison County,MS,79.95642701525054,NA,NA
39556,Hancock County,MS,65.14161220043573,NA,NA
39564,Jackson County,MS,34.20479302832244,32.166666666666664,NA
39648,Pike County,MS,71.24183006535948,NA,NA
63011,St. Louis County,MO,NA,17.166666666666668,NA
63017,St. Louis County,MO,NA,10.5,NA
63028,Jefferson County,MO,NA,NA,43.30708661417323
63033,St. Louis County,MO,NA,NA,6.299212598425196
63050,Jefferson County,MO,NA,NA,76.64041994750657
63069,Franklin County,MO,76.90631808278867,NA,NA
63077,Franklin County,MO,NA,69.66666666666667,NA
63084,Franklin County,MO,53.812636165577345,NA,NA
63108,St. Louis city,MO,NA,54.166666666666664,NA
63113,St. Louis city,MO,66.01307189542483,NA,NA
63119,St. Louis County,MO,NA,75,NA
63136,St. Louis County,MO,7.18954248366013,85.83333333333333,NA
63301,St. Charles County,MO,NA,NA,19.68503937007874
63366,St. Charles County,MO,12.636165577342048,NA,NA
63368,St. Charles County,MO,NA,NA,13.910761154855644
63390,Warren County,MO,89.76034858387798,NA,NA
63660,Washington County,MO,NA,100,NA
63701,Cape Girardeau County,MO,NA,NA,93.43832020997375
63764,Bollinger County,MO,NA,94.83333333333334,NA
63775,Perry County,MO,NA,68.83333333333333,NA
63801,Scott County,MO,NA,29.166666666666668,NA
63834,Mississippi County,MO,NA,84,NA
63841,Stoddard County,MO,78.43137254901961,NA,NA
63857,Dunklin County,MO,NA,51.83333333333333,NA
63869,New Madrid County,MO,96.29629629629629,NA,NA
63901,Butler County,MO,NA,22.833333333333332,NA
64012,Cass County,MO,NA,25.166666666666664,NA
64037,Lafayette County,MO,NA,79.33333333333333,NA
64052,Jackson County,MO,10.457516339869281,NA,NA
64055,Jackson County,MO,NA,7.166666666666667,NA
64076,Lafayette County,MO,NA,NA,79.26509186351706
64081,Jackson County,MO,46.187363834422655,NA,NA
64086,Jackson County,MO,NA,40.166666666666664,NA
64113,Jackson County,MO,NA,88.16666666666667,NA
64130,Jackson County,MO,6.318082788671024,NA,NA
64131,Jackson County,MO,15.032679738562091,NA,NA
64133,Jackson County,MO,92.5925925925926,NA,NA
64439,Platte County,MO,98.0392156862745,NA,NA
64505,Buchanan County,MO,98.69281045751634,NA,NA
64759,Barton County,MO,81.04575163398692,NA,NA
64801,Jasper County,MO,13.507625272331156,NA,13.123359580052494
64836,Jasper County,MO,NA,NA,76.37795275590551
65041,Gasconade County,MO,96.94989106753813,NA,NA
65536,Laclede County,MO,NA,37.166666666666664,NA
65548,Howell County,MO,NA,88,NA
65605,Lawrence County,MO,76.25272331154684,NA,NA
65608,Douglas County,MO,NA,NA,85.56430446194226
65667,Wright County,MO,NA,NA,100
65689,Texas County,MO,NA,NA,91.33858267716536
65706,Webster County,MO,NA,66.5,NA
65714,Christian County,MO,NA,NA,38.320209973753286
65721,Christian County,MO,81.69934640522875,63.5,NA
65738,Greene County,MO,NA,77.5,NA
65803,Greene County,MO,10.239651416122005,NA,17.585301837270343
59102,Yellowstone County,MT,44.008714596949886,NA,NA
59635,Lewis and Clark County,MT,NA,87.83333333333333,NA
59801,Missoula County,MT,64.27015250544662,NA,NA
59840,Ravalli County,MT,94.11764705882352,NA,NA
59901,Flathead County,MT,NA,2.5,94.750656167979
59912,Flathead County,MT,NA,NA,51.96850393700787
59917,Lincoln County,MT,NA,93,NA
68130,Douglas County,NE,NA,NA,90.28871391076116
69101,Lincoln County,NE,NA,59.5,NA
89134,Clark County,NV,NA,NA,44.61942257217848
89434,Washoe County,NV,NA,NA,34.90813648293963
03079,Rockingham County,NH,NA,17.333333333333336,NA
03254,Carroll County,NH,NA,84.83333333333334,NA
03755,Grafton County,NH,NA,94,NA
03860,Carroll County,NH,NA,91.16666666666666,NA
03862,Rockingham County,NH,NA,NA,83.46456692913385
03867,Strafford County,NH,22.875816993464053,28.166666666666668,NA
07012,Passaic County,NJ,NA,NA,71.65354330708661
07035,Morris County,NJ,63.61655773420479,NA,NA
07055,Passaic County,NJ,NA,3,NA
07103,Essex County,NJ,0.8714596949891068,NA,NA
07438,Morris County,NJ,NA,95.5,NA
07446,Bergen County,NJ,NA,97.66666666666667,NA
07456,Passaic County,NJ,NA,91.66666666666666,NA
07480,Passaic County,NJ,NA,72.33333333333334,NA
07506,Passaic County,NJ,93.02832244008714,NA,NA
07522,Passaic County,NJ,NA,32,NA
07644,Bergen County,NJ,40.95860566448802,32.5,NA
07726,Monmouth County,NJ,30.93681917211329,NA,NA
07928,Morris County,NJ,NA,NA,84.7769028871391
07974,Union County,NJ,NA,NA,87.4015748031496
08070,Salem County,NJ,NA,52,NA
08611,Mercer County,NJ,NA,NA,65.87926509186352
08759,Ocean County,NJ,NA,1.3333333333333335,NA
08865,Warren County,NJ,NA,NA,61.679790026246714
87105,Bernalillo County,NM,3.7037037037037033,NA,NA
87571,Taos County,NM,55.99128540305011,50.33333333333333,NA
10027,New York County,NY,NA,11.5,NA
10044,New York County,NY,NA,NA,83.98950131233596
10458,Bronx County,NY,NA,45,NA
10462,Bronx County,NY,NA,86.16666666666667,NA
10467,Bronx County,NY,NA,NA,1.574803149606299
10990,Orange County,NY,NA,NA,40.94488188976378
11208,Kings County,NY,1.0893246187363834,NA,NA
11691,Queens County,NY,NA,6.5,NA
11768,Suffolk County,NY,NA,NA,95.8005249343832
12401,Ulster County,NY,21.350762527233115,NA,NA
12534,Columbia County,NY,16.122004357298476,NA,NA
12771,Orange County,NY,68.62745098039215,NA,NA
12834,Washington County,NY,69.71677559912854,NA,NA
12921,Clinton County,NY,NA,93.33333333333333,NA
13066,Onondaga County,NY,NA,NA,71.39107611548556
13126,Oswego County,NY,3.2679738562091507,NA,NA
13323,Oneida County,NY,68.84531590413944,NA,NA
13413,Oneida County,NY,47.276688453159046,NA,NA
13421,Madison County,NY,24.836601307189543,NA,NA
13433,Lewis County,NY,96.73202614379085,NA,NA
13613,St. Lawrence County,NY,NA,95.83333333333334,NA
13662,St. Lawrence County,NY,NA,14.166666666666666,NA
13849,Otsego County,NY,NA,91,NA
14036,Genesee County,NY,NA,96.16666666666667,NA
14047,Erie County,NY,NA,NA,93.7007874015748
14072,Erie County,NY,41.830065359477125,NA,NA
14094,Niagara County,NY,NA,17.833333333333336,NA
14120,Niagara County,NY,4.139433551198257,NA,NA
14127,Erie County,NY,NA,13.333333333333334,NA
14132,Niagara County,NY,NA,77.83333333333333,NA
14167,Wyoming County,NY,97.60348583877996,NA,NA
14217,Erie County,NY,59.25925925925925,NA,NA
14304,Niagara County,NY,NA,23.333333333333332,NA
14305,Niagara County,NY,NA,35.833333333333336,NA
14414,Livingston County,NY,63.834422657952075,47.66666666666667,NA
14456,Ontario County,NY,NA,30.166666666666668,NA
14513,Wayne County,NY,4.57516339869281,NA,NA
14569,Wyoming County,NY,67.53812636165577,NA,NA
14580,Monroe County,NY,NA,0.33333333333333337,NA
14609,Monroe County,NY,NA,1,NA
14810,Steuben County,NY,32.6797385620915,NA,NA
14818,Schuyler County,NY,97.38562091503267,NA,NA
14850,Tompkins County,NY,4.357298474945534,4.5,NA
14873,Steuben County,NY,NA,98.5,NA
14880,Allegany County,NY,NA,93.66666666666667,NA
27006,Davie County,NC,NA,26,NA
27021,Stokes County,NC,40.08714596949891,NA,NA
27104,Forsyth County,NC,NA,NA,3.149606299212598
27205,Randolph County,NC,NA,NA,38.05774278215223
27330,Lee County,NC,NA,NA,59.84251968503938
27526,Wake County,NC,NA,NA,78.21522309711287
27529,Wake County,NC,25.49019607843137,NA,NA
27539,Wake County,NC,NA,NA,79.52755905511812
27574,Person County,NC,NA,80.66666666666666,NA
27587,Wake County,NC,NA,7.833333333333334,15.223097112860891
27603,Wake County,NC,NA,25.833333333333336,NA
27604,Wake County,NC,NA,40.33333333333333,NA
27610,Wake County,NC,NA,4.833333333333333,NA
27703,Durham County,NC,NA,63.16666666666667,NA
27713,Durham County,NC,NA,17,NA
27893,Wilson County,NC,NA,23.166666666666664,NA
27944,Perquimans County,NC,67.75599128540306,NA,NA
28083,Cabarrus County,NC,30.28322440087146,NA,NA
28086,Cleveland County,NC,75.16339869281046,NA,NA
28227,Mecklenburg County,NC,NA,15.666666666666668,NA
28379,Richmond County,NC,16.775599128540307,NA,NA
28461,Brunswick County,NC,43.13725490196079,NA,NA
28472,Columbus County,NC,36.81917211328976,NA,NA
28605,Watauga County,NC,91.06753812636165,NA,NA
28609,Catawba County,NC,NA,NA,96.06299212598425
28642,Yadkin County,NC,NA,73.5,NA
28655,Burke County,NC,5.664488017429194,NA,NA
28657,Avery County,NC,NA,64.16666666666667,NA
28714,Yancey County,NC,68.40958605664488,NA,NA
28731,Henderson County,NC,NA,50.83333333333333,NA
28732,Henderson County,NC,NA,NA,82.41469816272966
28792,Henderson County,NC,32.46187363834422,NA,NA
28803,Buncombe County,NC,NA,32.5,NA
58072,Barnes County,ND,NA,79.5,NA
58078,Cass County,ND,NA,13.166666666666666,NA
58103,Cass County,ND,6.753812636165578,18.5,48.031496062992126
58104,Cass County,ND,NA,10.333333333333334,2.6246719160104988
58201,Grand Forks County,ND,NA,NA,2.099737532808399
58501,Burleigh County,ND,50.54466230936819,NA,NA
58504,Burleigh County,ND,NA,68.16666666666666,NA
58703,Ward County,ND,NA,NA,22.57217847769029
43040,Union County,OH,NA,18.833333333333332,NA
43055,Licking County,OH,1.9607843137254901,NA,NA
43062,Licking County,OH,NA,30.833333333333336,NA
43123,Franklin County,OH,NA,7.000000000000001,NA
43125,Franklin County,OH,72.54901960784314,61.33333333333333,NA
43130,Fairfield County,OH,11.546840958605664,NA,NA
43232,Franklin County,OH,3.9215686274509802,NA,NA
43338,Morrow County,OH,NA,59.833333333333336,NA
43465,Wood County,OH,NA,NA,86.61417322834646
43506,Williams County,OH,NA,24.833333333333332,NA
43558,Fulton County,OH,55.55555555555556,NA,NA
43560,Lucas County,OH,26.57952069716776,NA,NA
43607,Lucas County,OH,27.886710239651418,NA,NA
43615,Lucas County,OH,37.254901960784316,27.500000000000004,65.35433070866141
43701,Muskingum County,OH,NA,0.5,NA
43812,Coshocton County,OH,5.010893246187364,NA,NA
43832,Tuscarawas County,OH,NA,64.83333333333333,NA
44012,Lorain County,OH,NA,NA,34.120734908136484
44023,Geauga County,OH,NA,43.333333333333336,NA
44030,Ashtabula County,OH,23.093681917211327,NA,NA
44035,Lorain County,OH,2.3965141612200433,NA,NA
44039,Lorain County,OH,NA,2.3333333333333335,NA
44047,Ashtabula County,OH,NA,98,NA
44053,Lorain County,OH,NA,NA,5.774278215223097
44054,Lorain County,OH,86.49237472766885,NA,NA
44056,Summit County,OH,67.10239651416123,NA,NA
44070,Cuyahoga County,OH,NA,52.166666666666664,4.724409448818897
44076,Ashtabula County,OH,77.99564270152506,NA,NA
44089,Erie County,OH,NA,61.5,NA
44108,Cuyahoga County,OH,2.6143790849673203,NA,77.16535433070865
44110,Cuyahoga County,OH,NA,37.333333333333336,NA
44112,Cuyahoga County,OH,NA,NA,66.66666666666666
44118,Cuyahoga County,OH,NA,81,NA
44121,Cuyahoga County,OH,9.368191721132897,NA,NA
44124,Cuyahoga County,OH,25.925925925925924,NA,NA
44125,Cuyahoga County,OH,NA,NA,35.43307086614173
44130,Cuyahoga County,OH,NA,NA,0
44131,Cuyahoga County,OH,NA,54.50000000000001,5.511811023622047
44134,Cuyahoga County,OH,NA,NA,3.674540682414698
44136,Cuyahoga County,OH,NA,NA,10.761154855643044
44137,Cuyahoga County,OH,5.88235294117647,NA,NA
44145,Cuyahoga County,OH,NA,28.833333333333332,NA
44146,Cuyahoga County,OH,NA,50.16666666666667,NA
44147,Cuyahoga County,OH,NA,NA,27.559055118110237
44212,Medina County,OH,NA,0.8333333333333334,NA
44231,Portage County,OH,NA,99.83333333333333,NA
44236,Summit County,OH,NA,58.833333333333336,NA
44240,Portage County,OH,NA,19.833333333333332,17.322834645669293
44256,Medina County,OH,NA,5.5,NA
44312,Summit County,OH,NA,NA,20.47244094488189
44406,Mahoning County,OH,NA,NA,21.784776902887142
44410,Trumbull County,OH,69.93464052287581,NA,NA
44436,Mahoning County,OH,NA,83.16666666666667,NA
44481,Trumbull County,OH,84.53159041394336,NA,NA
44483,Trumbull County,OH,NA,NA,16.010498687664043
44485,Trumbull County,OH,17.429193899782135,NA,NA
44615,Carroll County,OH,NA,90.66666666666666,NA
44657,Stark County,OH,NA,85.66666666666667,NA
44667,Wayne County,OH,NA,NA,68.76640419947506
44685,Summit County,OH,NA,NA,24.671916010498688
44706,Stark County,OH,NA,42.16666666666667,NA
44708,Stark County,OH,NA,82.5,NA
44709,Stark County,OH,NA,76.16666666666667,54.06824146981627
44720,Stark County,OH,NA,NA,10.236220472440944
44805,Ashland County,OH,NA,4.166666666666666,22.30971128608924
44857,Huron County,OH,NA,36.666666666666664,NA
44905,Richland County,OH,NA,69.5,NA
45011,Butler County,OH,NA,NA,42.51968503937008
45013,Butler County,OH,NA,NA,4.4619422572178475
45030,Hamilton County,OH,81.26361655773421,NA,NA
45039,Warren County,OH,NA,87.16666666666667,NA
45040,Warren County,OH,NA,36.333333333333336,NA
45068,Warren County,OH,NA,NA,66.40419947506561
45107,Clinton County,OH,NA,84,NA
45202,Hamilton County,OH,NA,NA,79.79002624671917
45205,Hamilton County,OH,NA,NA,81.88976377952756
45208,Hamilton County,OH,NA,NA,85.30183727034121
45230,Hamilton County,OH,51.19825708061002,NA,NA
45231,Hamilton County,OH,7.8431372549019605,NA,NA
45243,Hamilton County,OH,NA,NA,60.892388451443566
45245,Clermont County,OH,NA,NA,63.51706036745407
45338,Preble County,OH,NA,NA,99.21259842519686
45403,Montgomery County,OH,NA,75.66666666666667,NA
45416,Montgomery County,OH,NA,NA,88.4514435695538
45419,Montgomery County,OH,NA,73.83333333333333,NA
45458,Montgomery County,OH,NA,NA,26.509186351706038
45601,Ross County,OH,0.6535947712418301,NA,6.561679790026247
45619,Lawrence County,OH,NA,56.833333333333336,NA
45628,Ross County,OH,NA,NA,75.06561679790026
45631,Gallia County,OH,69.28104575163398,NA,92.38845144356955
45640,Jackson County,OH,NA,5.166666666666667,NA
45651,Vinton County,OH,79.08496732026144,NA,NA
45662,Scioto County,OH,NA,2,3.4120734908136483
45669,Lawrence County,OH,18.736383442265794,NA,NA
45680,Lawrence County,OH,13.071895424836603,NA,NA
45694,Scioto County,OH,29.193899782135073,NA,NA
45750,Washington County,OH,NA,5.666666666666666,NA
45822,Mercer County,OH,NA,NA,17.84776902887139
73003,Oklahoma County,OK,NA,NA,43.832020997375324
73013,Oklahoma County,OK,NA,8,NA
73020,Oklahoma County,OK,NA,26.333333333333332,81.36482939632546
73034,Oklahoma County,OK,61.43790849673203,67,NA
73055,Stephens County,OK,NA,71.83333333333334,NA
73065,McClain County,OK,NA,NA,85.03937007874016
73069,Cleveland County,OK,NA,NA,43.569553805774284
73072,Cleveland County,OK,28.540305010893245,NA,NA
73103,Oklahoma County,OK,98.25708061002179,NA,NA
73110,Oklahoma County,OK,NA,NA,9.186351706036746
73115,Oklahoma County,OK,NA,86.83333333333333,NA
73120,Oklahoma County,OK,42.70152505446623,NA,46.981627296587924
73132,Oklahoma County,OK,NA,44.166666666666664,36.48293963254593
73159,Oklahoma County,OK,NA,26.833333333333332,NA
73162,Oklahoma County,OK,NA,NA,17.060367454068242
73170,Cleveland County,OK,NA,13.5,NA
73401,Carter County,OK,63.39869281045751,9.5,NA
73443,Carter County,OK,NA,99.5,NA
73446,Marshall County,OK,NA,89.66666666666666,NA
73448,Love County,OK,83.66013071895425,NA,NA
73505,Comanche County,OK,NA,14.833333333333334,24.146981627296586
73507,Comanche County,OK,NA,31.166666666666664,NA
73701,Garfield County,OK,NA,NA,58.00524934383202
74003,Osage County,OK,95.42483660130719,NA,NA
74008,Tulsa County,OK,67.97385620915033,NA,NA
74012,Tulsa County,OK,NA,NA,7.349081364829396
74020,Pawnee County,OK,NA,NA,83.2020997375328
74037,Tulsa County,OK,NA,84.66666666666667,NA
74059,Payne County,OK,NA,NA,82.1522309711286
74344,Delaware County,OK,NA,53.666666666666664,49.60629921259843
74401,Muskogee County,OK,NA,57.833333333333336,NA
74426,McIntosh County,OK,89.97821350762527,NA,64.82939632545933
74464,Cherokee County,OK,34.64052287581699,NA,NA
74501,Pittsburg County,OK,NA,NA,32.54593175853018
74578,Latimer County,OK,NA,NA,95.01312335958005
74604,Kay County,OK,NA,NA,48.29396325459317
97009,Clackamas County,OR,NA,79.66666666666666,NA
97023,Clackamas County,OR,NA,88.83333333333333,NA
97031,Hood River County,OR,69.49891067538127,NA,NA
97116,Washington County,OR,77.5599128540305,NA,NA
97128,Yamhill County,OR,19.607843137254903,NA,NA
97132,Yamhill County,OR,NA,30,NA
97221,Multnomah County,OR,NA,NA,84.51443569553805
97222,Clackamas County,OR,30.718954248366014,NA,NA
97230,Multnomah County,OR,NA,12.166666666666668,NA
97317,Marion County,OR,NA,NA,86.8766404199475
97322,Linn County,OR,13.943355119825709,NA,NA
97365,Lincoln County,OR,NA,72.83333333333334,NA
97367,Lincoln County,OR,NA,NA,53.54330708661418
97415,Curry County,OR,NA,25.333333333333336,NA
97527,Josephine County,OR,NA,NA,18.89763779527559
97601,Klamath County,OR,NA,10.166666666666666,NA
97603,Klamath County,OR,50.326797385620914,NA,22.04724409448819
97756,Deschutes County,OR,NA,19.5,NA
97801,Umatilla County,OR,NA,26.166666666666664,NA
97838,Umatilla County,OR,NA,NA,72.17847769028872
15202,Allegheny County,PA,50.108932461873636,NA,NA
15301,Washington County,PA,6.1002178649237475,NA,NA
15317,Washington County,PA,NA,NA,11.811023622047244
15473,Fayette County,PA,NA,NA,84.25196850393701
15627,Westmoreland County,PA,NA,94.33333333333334,NA
15632,Westmoreland County,PA,87.58169934640523,NA,NA
15666,Westmoreland County,PA,NA,66.33333333333333,NA
15668,Westmoreland County,PA,NA,59.166666666666664,NA
15701,Indiana County,PA,NA,NA,9.973753280839896
15905,Cambria County,PA,NA,37,NA
15906,Cambria County,PA,NA,66.16666666666666,NA
15943,Cambria County,PA,NA,NA,99.73753280839895
16046,Butler County,PA,85.83877995642702,NA,NA
16101,Lawrence County,PA,28.104575163398692,NA,37.79527559055118
16117,Lawrence County,PA,NA,NA,23.62204724409449
16125,Mercer County,PA,NA,79.83333333333333,NA
16137,Mercer County,PA,NA,33,NA
16146,Mercer County,PA,24.183006535947712,NA,NA
16509,Erie County,PA,33.98692810457516,NA,NA
16510,Erie County,PA,NA,43,NA
16602,Blair County,PA,13.725490196078432,NA,NA
17022,Lancaster County,PA,17.21132897603486,NA,NA
17034,Dauphin County,PA,NA,97.33333333333334,NA
17050,Cumberland County,PA,23.311546840958606,NA,NA
17057,Dauphin County,PA,NA,15.5,NA
17059,Juniata County,PA,NA,NA,46.45669291338583
17074,Perry County,PA,NA,85.16666666666667,NA
17078,Lebanon County,PA,17.647058823529413,NA,NA
17236,Franklin County,PA,86.05664488017429,NA,NA
17320,Adams County,PA,NA,NA,60.367454068241464
17331,York County,PA,NA,NA,1.3123359580052494
17366,York County,PA,NA,95.66666666666667,NA
17543,Lancaster County,PA,NA,42.5,NA
17569,Lancaster County,PA,NA,86.66666666666667,NA
17724,Bradford County,PA,NA,94.16666666666667,NA
18013,Northampton County,PA,37.908496732026144,NA,NA
18015,Northampton County,PA,8.49673202614379,NA,NA
18017,Northampton County,PA,NA,3.6666666666666665,83.72703412073491
18018,Lehigh County,PA,NA,71.5,39.37007874015748
18036,Lehigh County,PA,NA,68.33333333333333,96.58792650918635
18040,Northampton County,PA,NA,NA,39.107611548556434
18042,Northampton County,PA,5.446623093681917,NA,NA
18045,Northampton County,PA,38.77995642701525,51.16666666666667,NA
18049,Lehigh County,PA,43.790849673202615,NA,NA
18052,Lehigh County,PA,20.697167755991288,33.666666666666664,NA
18062,Lehigh County,PA,44.44444444444444,NA,25.45931758530184
18067,Northampton County,PA,NA,79,68.50393700787401
18069,Lehigh County,PA,NA,NA,87.66404199475065
18080,Lehigh County,PA,76.03485838779956,75.16666666666667,NA
18102,Lehigh County,PA,1.3071895424836601,56.666666666666664,NA
18103,Lehigh County,PA,26.361655773420477,31.666666666666664,NA
18104,Lehigh County,PA,14.37908496732026,NA,NA
18250,Carbon County,PA,NA,98.83333333333333,NA
18326,Monroe County,PA,97.1677559912854,NA,NA
18360,Monroe County,PA,NA,45.83333333333333,NA
18436,Wayne County,PA,55.773420479302835,NA,NA
18466,Monroe County,PA,89.10675381263616,NA,NA
18612,Luzerne County,PA,56.42701525054466,NA,NA
18661,Luzerne County,PA,NA,NA,89.76377952755905
18938,Bucks County,PA,NA,NA,52.493438320209975
19038,Montgomery County,PA,36.165577342047925,NA,NA
19055,Bucks County,PA,52.069716775599126,NA,NA
19111,Philadelphia County,PA,3.0501089324618738,NA,NA
19116,Philadelphia County,PA,NA,12.833333333333332,NA
19120,Philadelphia County,PA,NA,5.333333333333334,NA
19134,Philadelphia County,PA,NA,12.5,NA
19342,Delaware County,PA,NA,46.666666666666664,NA
75072,NA,NA,97.82135076252723,NA,NA
19460,Chester County,PA,NA,23,NA
19465,Chester County,PA,NA,NA,60.10498687664042
19468,Montgomery County,PA,NA,35.16666666666667,NA
19522,Berks County,PA,NA,36.5,NA
19525,Montgomery County,PA,NA,45.166666666666664,NA
19608,Berks County,PA,NA,NA,72.96587926509186
19610,Berks County,PA,NA,NA,56.43044619422572
02871,Newport County,RI,63.18082788671025,NA,NA
02906,Providence County,RI,54.90196078431373,NA,NA
29078,Kershaw County,SC,78.86710239651417,NA,NA
29360,Laurens County,SC,NA,40.666666666666664,NA
29440,Georgetown County,SC,45.53376906318083,NA,NA
29550,Darlington County,SC,41.830065359477125,NA,NA
29569,Horry County,SC,46.62309368191721,NA,NA
29609,Greenville County,SC,NA,44.83333333333333,NA
29644,Greenville County,SC,49.673202614379086,NA,NA
29646,Greenwood County,SC,NA,NA,25.72178477690289
29649,Greenwood County,SC,66.66666666666666,NA,12.598425196850393
29654,Anderson County,SC,NA,64.66666666666666,NA
29730,York County,SC,20.26143790849673,NA,NA
29835,McCormick County,SC,NA,70.16666666666667,NA
57042,Lake County,SD,NA,NA,38.84514435695538
57104,Minnehaha County,SD,NA,NA,12.335958005249344
57106,Minnehaha County,SD,NA,NA,4.199475065616798
57401,Brown County,SD,NA,NA,1.0498687664041995
57702,Pennington County,SD,NA,93.5,NA
37303,McMinn County,TN,22.657952069716774,NA,NA
37743,Greene County,TN,NA,3.833333333333333,NA
37745,Greene County,TN,59.694989106753816,NA,NA
37748,Roane County,TN,35.07625272331155,NA,NA
37763,Roane County,TN,NA,41.833333333333336,NA
37766,Campbell County,TN,NA,24.166666666666668,NA
37801,Blount County,TN,NA,11.833333333333334,NA
37807,Union County,TN,NA,80.5,NA
37849,Knox County,TN,40.52287581699346,NA,NA
37882,Blount County,TN,NA,90.5,NA
37885,Monroe County,TN,NA,NA,94.22572178477691
37914,Knox County,TN,37.47276688453159,NA,NA
37918,Knox County,TN,NA,21.833333333333332,NA
37920,Knox County,TN,NA,15.333333333333332,30.183727034120732
37921,Knox County,TN,NA,56.833333333333336,NA
37932,Knox County,TN,NA,65,NA
37934,Knox County,TN,78.21350762527233,NA,NA
38555,Cumberland County,TN,NA,39.666666666666664,27.296587926509186
75001,Dallas County,TX,89.54248366013073,NA,NA
75002,Collin County,TX,22.22222222222222,NA,NA
75007,Denton County,TX,NA,24.166666666666668,NA
75025,Collin County,TX,56.209150326797385,56.333333333333336,NA
75039,Dallas County,TX,NA,97,NA
75074,Collin County,TX,NA,32.83333333333333,NA
75075,Collin County,TX,NA,34,NA
75080,Dallas County,TX,NA,NA,14.435695538057743
75143,Henderson County,TX,NA,58.833333333333336,NA
75169,Van Zandt County,TX,72.33115468409585,NA,NA
75204,Dallas County,TX,NA,NA,98.16272965879264
75228,Dallas County,TX,NA,NA,55.643044619422575
75248,Dallas County,TX,58.82352941176471,NA,NA
75401,Hunt County,TX,NA,83.83333333333334,67.45406824146981
75402,Hunt County,TX,NA,80.33333333333333,NA
75410,Wood County,TX,NA,80,NA
75455,Titus County,TX,51.85185185185185,NA,NA
75457,Franklin County,TX,91.28540305010894,92.5,NA
75640,Upshur County,TX,91.93899782135077,NA,NA
75652,Rusk County,TX,NA,NA,69.29133858267717
75709,Smith County,TX,NA,81.5,NA
75757,Smith County,TX,NA,91.33333333333333,NA
75773,Wood County,TX,NA,NA,80.5774278215223
76017,Tarrant County,TX,NA,31.333333333333336,NA
76086,Parker County,TX,59.912854030501094,NA,NA
76087,Parker County,TX,68.1917211328976,NA,56.95538057742782
76116,Tarrant County,TX,24.40087145969499,NA,NA
76123,Tarrant County,TX,NA,65.16666666666666,NA
76131,Tarrant County,TX,NA,NA,80.0524934383202
76133,Tarrant County,TX,20.043572984749456,21.333333333333336,NA
76179,Tarrant County,TX,NA,NA,53.805774278215225
76182,Tarrant County,TX,NA,35.333333333333336,NA
76226,Denton County,TX,NA,63.66666666666667,NA
76266,Denton County,TX,NA,74.83333333333333,NA
76401,Erath County,TX,NA,NA,74.54068241469817
76446,Erath County,TX,NA,NA,87.92650918635171
76501,Bell County,TX,15.250544662309368,NA,NA
76502,Bell County,TX,NA,57.666666666666664,NA
76504,Bell County,TX,NA,19,NA
76513,Bell County,TX,NA,1.1666666666666667,58.26771653543307
76520,Milam County,TX,NA,46.33333333333333,NA
76522,Coryell County,TX,75.81699346405229,NA,NA
76543,Bell County,TX,28.9760348583878,NA,NA
76643,McLennan County,TX,NA,61.66666666666667,NA
76706,McLennan County,TX,NA,42.333333333333336,NA
76712,McLennan County,TX,42.48366013071895,NA,NA
76849,Kimble County,TX,96.51416122004358,NA,NA
77011,Harris County,TX,81.91721132897604,NA,NA
77013,Harris County,TX,85.40305010893246,NA,NA
77015,Harris County,TX,71.89542483660131,NA,NA
77025,Harris County,TX,94.55337690631809,NA,NA
77040,Harris County,TX,NA,30.666666666666664,NA
77044,Harris County,TX,NA,NA,77.42782152230971
77057,Harris County,TX,NA,83,NA
77077,Harris County,TX,NA,NA,35.170603674540686
77084,Harris County,TX,12.418300653594772,NA,NA
77095,Harris County,TX,17.86492374727669,NA,NA
77304,Montgomery County,TX,61.87363834422658,NA,NA
77327,Liberty County,TX,85.62091503267973,74.16666666666667,NA
77339,Harris County,TX,NA,38.5,91.60104986876641
77345,Harris County,TX,83.87799564270153,NA,59.055118110236215
77357,Montgomery County,TX,NA,NA,90.81364829396325
77373,Harris County,TX,30.065359477124183,NA,NA
77385,Montgomery County,TX,NA,NA,98.4251968503937
77388,Harris County,TX,NA,36,NA
77445,Waller County,TX,NA,NA,85.8267716535433
77459,Fort Bend County,TX,NA,10.666666666666668,NA
77504,Harris County,TX,93.68191721132898,NA,NA
77511,Brazoria County,TX,16.33986928104575,NA,NA
77551,Galveston County,TX,NA,27.333333333333332,NA
77568,Galveston County,TX,NA,28.499999999999996,NA
77586,Harris County,TX,47.930283224400874,NA,NA
77656,Hardin County,TX,NA,61.16666666666667,NA
77662,Orange County,TX,NA,NA,50.91863517060368
77706,Jefferson County,TX,NA,34.833333333333336,NA
77707,Jefferson County,TX,NA,92,NA
78028,Kerr County,TX,38.56209150326798,NA,NA
78114,Wilson County,TX,54.68409586056645,NA,NA
78596,Hidalgo County,TX,NA,NA,30.708661417322837
78626,Williamson County,TX,58.16993464052288,NA,NA
78664,Williamson County,TX,NA,NA,55.118110236220474
78735,Travis County,TX,NA,93.16666666666666,NA
78745,Travis County,TX,60.56644880174292,NA,NA
79106,Potter County,TX,NA,NA,42.25721784776903
79364,Lubbock County,TX,88.23529411764706,NA,NA
79414,Lubbock County,TX,NA,NA,51.96850393700787
79424,Lubbock County,TX,NA,8.666666666666668,NA
79603,Taylor County,TX,NA,NA,40.419947506561684
79714,Andrews County,TX,NA,89.16666666666667,NA
84029,Tooele County,UT,59.04139433551199,NA,NA
84065,Salt Lake County,UT,39.433551198257085,NA,NA
84075,Davis County,UT,NA,NA,98.68766404199475
84096,Salt Lake County,UT,NA,60.5,NA
84098,Summit County,UT,NA,NA,94.48818897637796
84102,Salt Lake County,UT,NA,NA,66.14173228346458
84107,Salt Lake County,UT,NA,44.166666666666664,NA
84120,Salt Lake County,UT,NA,19.333333333333332,NA
84121,Salt Lake County,UT,NA,NA,16.535433070866144
84337,Box Elder County,UT,91.72113289760348,NA,NA
84655,Utah County,UT,NA,91.5,NA
05403,Chittenden County,VT,64.05228758169935,NA,NA
05408,Chittenden County,VT,82.57080610021787,NA,NA
05488,Franklin County,VT,81.26361655773421,58.5,NA
05641,Washington County,VT,33.551198257080614,NA,NA
20106,Culpeper County,VA,NA,NA,88.18897637795276
20147,Loudoun County,VA,NA,57.333333333333336,NA
20171,Fairfax County,VA,NA,NA,78.74015748031496
20176,Loudoun County,VA,NA,60,NA
20191,Fairfax County,VA,NA,65.33333333333333,NA
22310,Fairfax County,VA,53.15904139433552,NA,NA
22520,Westmoreland County,VA,NA,80,NA
22602,Frederick County,VA,50.76252723311547,NA,NA
22630,Warren County,VA,NA,89.5,NA
22701,Culpeper County,VA,NA,NA,28.083989501312335
22843,Augusta County,VA,95.86056644880175,NA,NA
22902,Charlottesville city,VA,25.272331154684096,NA,NA
22911,Albemarle County,VA,73.42047930283225,62.66666666666667,NA
22920,Nelson County,VA,NA,93.83333333333333,NA
22963,Fluvanna County,VA,NA,NA,45.14435695538058
22973,Greene County,VA,NA,NA,81.62729658792651
23002,Amelia County,VA,NA,87,NA
23060,Henrico County,VA,NA,NA,42.78215223097113
23072,Gloucester County,VA,NA,70.5,NA
23093,Louisa County,VA,NA,58.666666666666664,NA
23112,Chesterfield County,VA,NA,27.666666666666668,NA
23139,Powhatan County,VA,70.58823529411765,NA,NA
23185,James City County,VA,37.690631808278866,NA,NA
23188,James City County,VA,NA,2.166666666666667,0.26246719160104987
23223,Henrico County,VA,NA,11,NA
23226,Richmond city,VA,NA,NA,55.38057742782152
23228,Henrico County,VA,NA,35,NA
23231,Henrico County,VA,NA,16.5,NA
23235,Chesterfield County,VA,NA,45.5,NA
23236,Chesterfield County,VA,NA,46.166666666666664,NA
23434,Suffolk city,VA,NA,9,NA
23451,Virginia Beach city,VA,NA,78.16666666666666,2.3622047244094486
23462,Virginia Beach city,VA,NA,9.166666666666666,NA
23464,Virginia Beach city,VA,NA,22,NA
23509,Norfolk city,VA,NA,NA,67.19160104986877
23518,Norfolk city,VA,74.07407407407408,NA,NA
23666,Hampton city,VA,NA,9.333333333333334,NA
23703,Portsmouth city,VA,NA,NA,33.59580052493438
23707,Portsmouth city,VA,NA,72,NA
23832,Chesterfield County,VA,NA,48.66666666666667,NA
24124,Giles County,VA,NA,NA,95.2755905511811
24151,Franklin County,VA,44.66230936819172,NA,NA
24153,Salem city,VA,NA,NA,15.748031496062993
24230,Wise County,VA,NA,90.83333333333333,NA
24301,Pulaski County,VA,57.29847494553377,NA,69.02887139107612
24333,Galax city,VA,NA,NA,54.59317585301837
24370,Smyth County,VA,NA,60,NA
24503,Lynchburg city,VA,NA,NA,38.582677165354326
24521,Amherst County,VA,83.2244008714597,NA,NA
24531,Pittsylvania County,VA,93.24618736383442,NA,NA
98002,King County,WA,NA,36.833333333333336,NA
98003,King County,WA,NA,NA,23.62204724409449
98022,King County,WA,NA,22.5,NA
98030,King County,WA,NA,NA,74.80314960629921
98101,King County,WA,NA,NA,34.645669291338585
98118,King County,WA,NA,35.5,NA
98121,King County,WA,53.59477124183007,NA,NA
98133,King County,WA,62.309368191721134,NA,NA
98198,King County,WA,NA,29.333333333333332,NA
98199,King County,WA,NA,NA,53.28083989501312
98221,Skagit County,WA,NA,20,14.173228346456693
98274,Skagit County,WA,NA,41.5,NA
98290,Snohomish County,WA,NA,48.16666666666667,NA
98335,Pierce County,WA,NA,35.66666666666667,NA
98338,Pierce County,WA,NA,34.166666666666664,NA
98371,Pierce County,WA,NA,56.166666666666664,NA
98382,Clallam County,WA,NA,NA,0.7874015748031495
98408,Pierce County,WA,NA,58.333333333333336,NA
98520,Grays Harbor County,WA,NA,NA,52.75590551181102
98531,Lewis County,WA,73.8562091503268,NA,NA
98532,Lewis County,WA,NA,85.33333333333334,NA
98563,Grays Harbor County,WA,NA,NA,64.04199475065617
98591,Lewis County,WA,NA,94.5,NA
98597,Thurston County,WA,NA,75.33333333333333,NA
98611,Cowlitz County,WA,99.12854030501089,NA,NA
98661,Clark County,WA,48.148148148148145,NA,NA
98671,Clark County,WA,NA,76.83333333333333,NA
98801,Chelan County,WA,NA,NA,29.396325459317584
98802,Douglas County,WA,NA,29.833333333333336,NA
98815,Chelan County,WA,86.27450980392157,NA,NA
98902,Yakima County,WA,28.75816993464052,NA,NA
98903,Yakima County,WA,NA,NA,92.6509186351706
98908,Yakima County,WA,39.21568627450981,45.666666666666664,NA
98922,Kittitas County,WA,NA,79.16666666666666,NA
99004,Spokane County,WA,91.50326797385621,NA,NA
99301,Franklin County,WA,10.021786492374728,6.166666666666667,NA
99320,Benton County,WA,NA,NA,92.1259842519685
99336,Benton County,WA,NA,1.6666666666666667,4.986876640419948
99352,Benton County,WA,NA,NA,20.73490813648294
99354,Benton County,WA,NA,96.83333333333334,NA
25414,Jefferson County,WV,NA,NA,54.85564304461942
25550,Mason County,WV,48.5838779956427,NA,NA
25704,Wayne County,WV,29.411764705882355,NA,NA
25705,Cabell County,WV,NA,20.166666666666664,NA
25801,Raleigh County,WV,NA,8.333333333333332,NA
26003,Ohio County,WV,NA,39.166666666666664,39.89501312335958
26037,Brooke County,WV,NA,NA,64.56692913385827
26062,Hancock County,WV,NA,25,NA
26187,Wood County,WV,NA,NA,48.55643044619423
26330,Harrison County,WV,NA,NA,29.658792650918635
53066,Waukesha County,WI,NA,10.833333333333334,18.635170603674542
53073,Sheboygan County,WI,NA,74,NA
53095,Washington County,WI,NA,18.166666666666668,NA
53105,Racine County,WI,NA,42.66666666666667,NA
53110,Milwaukee County,WI,NA,33.166666666666664,NA
53121,Walworth County,WI,NA,30.5,NA
53126,Racine County,WI,79.08496732026144,NA,NA
53132,Milwaukee County,WI,NA,NA,9.711286089238845
53143,Kenosha County,WI,19.172113289760347,29.666666666666668,NA
53149,Waukesha County,WI,87.7995642701525,NA,NA
53154,Milwaukee County,WI,NA,NA,32.020997375328086
53168,Kenosha County,WI,NA,70.66666666666667,NA
53184,Walworth County,WI,NA,99.66666666666667,NA
53188,Waukesha County,WI,23.52941176470588,NA,NA
53202,Milwaukee County,WI,NA,44.666666666666664,NA
53208,Milwaukee County,WI,11.328976034858387,NA,NA
53209,Milwaukee County,WI,NA,88.66666666666667,NA
53210,Milwaukee County,WI,NA,17.666666666666668,NA
53214,Milwaukee County,WI,11.76470588235294,9.666666666666666,NA
53221,Milwaukee County,WI,NA,20.666666666666668,NA
53224,Milwaukee County,WI,NA,51.5,NA
53235,Milwaukee County,WI,NA,NA,66.66666666666666
53405,Racine County,WI,NA,3.5000000000000004,NA
53406,Racine County,WI,14.814814814814813,NA,NA
53533,Iowa County,WI,93.4640522875817,NA,NA
53545,Rock County,WI,NA,NA,49.343832020997375
53546,Rock County,WI,NA,NA,31.758530183727036
53916,Dodge County,WI,NA,NA,25.984251968503933
54002,St. Croix County,WI,NA,97.83333333333334,NA
54022,Pierce County,WI,54.248366013071895,NA,NA
54115,Brown County,WI,76.47058823529412,NA,NA
54216,Kewaunee County,WI,88.45315904139433,NA,NA
54220,Manitowoc County,WI,NA,16.833333333333332,NA
54235,Door County,WI,61.00217864923747,24,NA
54241,Manitowoc County,WI,NA,36.16666666666667,87.13910761154857
54302,Brown County,WI,60.130718954248366,NA,NA
54303,Brown County,WI,45.31590413943355,NA,NA
54304,Brown County,WI,NA,46.5,NA
54313,Brown County,WI,NA,33.33333333333333,NA
54451,Taylor County,WI,NA,NA,50.65616797900262
54501,Oneida County,WI,NA,NA,50.39370078740157
54660,Monroe County,WI,NA,47.833333333333336,NA
54904,Winnebago County,WI,NA,NA,49.08136482939632
54956,Winnebago County,WI,27.66884531590414,NA,33.33333333333333
82001,Laramie County,WY,74.7276688453159,NA,NA
82801,Sheridan County,WY,NA,63.16666666666667,NA
