ZipCode,county,state,Adult
35114,Shelby County,AL,95.37815126050421
85015,Maricopa County,AZ,23.949579831932773
85757,Pima County,AZ,30.672268907563026
86004,Coconino County,AZ,10.504201680672269
86401,Mohave County,AZ,14.705882352941178
72703,Washington County,AR,87.81512605042016
90044,Los Angeles County,CA,34.03361344537815
90247,Los Angeles County,CA,66.38655462184873
91331,Los Angeles County,CA,16.386554621848738
92020,San Diego County,CA,26.89075630252101
92054,San Diego County,CA,53.36134453781513
92102,San Diego County,CA,44.11764705882353
92114,San Diego County,CA,37.39495798319328
92123,San Diego County,CA,78.99159663865547
92505,Riverside County,CA,59.66386554621849
92545,Riverside County,CA,52.10084033613446
92620,Orange County,CA,54.621848739495796
92692,Orange County,CA,48.319327731092436
92832,Orange County,CA,69.74789915966386
93905,Monterey County,CA,43.27731092436975
94111,San Francisco County,CA,96.63865546218487
94118,San Francisco County,CA,69.32773109243698
94122,San Francisco County,CA,60.924369747899156
94523,Contra Costa County,CA,80.25210084033614
94541,Alameda County,CA,28.991596638655466
94952,Sonoma County,CA,88.23529411764706
95366,San Joaquin County,CA,89.07563025210085
95762,El Dorado County,CA,64.70588235294117
95822,Sacramento County,CA,47.05882352941176
80219,Denver County,CO,6.722689075630252
06071,Tolland County,CT,90.75630252100841
06095,Hartford County,CT,48.739495798319325
06226,Windham County,CT,22.268907563025213
06423,Middlesex County,CT,99.57983193277312
06516,New Haven County,CT,11.76470588235294
19938,Kent County,DE,93.27731092436974
32177,Putnam County,FL,57.14285714285714
32208,Duval County,FL,2.100840336134454
32210,Duval County,FL,5.042016806722689
32244,Duval County,FL,9.243697478991598
32259,St. Johns County,FL,55.88235294117647
32579,Okaloosa County,FL,96.21848739495799
33012,Miami-Dade County,FL,56.30252100840336
33127,Miami-Dade County,FL,70.16806722689076
33312,Broward County,FL,40.7563025210084
33403,Palm Beach County,FL,89.91596638655463
33542,Pasco County,FL,68.4873949579832
33569,Hillsborough County,FL,87.39495798319328
33884,Polk County,FL,73.52941176470588
33907,Lee County,FL,61.34453781512605
33936,Lee County,FL,62.60504201680672
34234,Sarasota County,FL,49.57983193277311
34957,Martin County,FL,88.65546218487394
30016,Newton County,GA,17.22689075630252
30039,Gwinnett County,GA,45.79831932773109
30044,Gwinnett County,GA,66.80672268907563
30060,Cobb County,GA,44.957983193277315
30083,DeKalb County,GA,31.512605042016805
30260,Clayton County,GA,83.19327731092437
30318,Fulton County,GA,32.773109243697476
30319,DeKalb County,GA,81.9327731092437
30755,Whitfield County,GA,75.21008403361344
31206,Bibb County,GA,35.714285714285715
31719,Sumter County,GA,83.61344537815127
31909,Muscogee County,GA,47.89915966386555
83835,Kootenai County,ID,71.00840336134453
60010,Lake County,IL,45.79831932773109
60074,Cook County,IL,51.68067226890757
60156,McHenry County,IL,42.857142857142854
60201,Cook County,IL,85.71428571428571
60402,Cook County,IL,15.546218487394958
60447,Grundy County,IL,71.84873949579831
60619,Cook County,IL,31.932773109243694
60621,Cook County,IL,41.596638655462186
60804,Cook County,IL,25.210084033613445
61604,Peoria County,IL,84.03361344537815
62526,Macon County,IL,15.966386554621847
62901,Jackson County,IL,77.31092436974791
46034,Hamilton County,IN,98.31932773109243
46268,Marion County,IN,56.72268907563025
46360,LaPorte County,IN,8.403361344537815
47906,Tippecanoe County,IN,68.90756302521008
50701,Black Hawk County,IA,39.91596638655462
66048,Leavenworth County,KS,37.81512605042017
66112,Wyandotte County,KS,92.85714285714286
66801,Lyon County,KS,65.12605042016807
67801,Ford County,KS,73.10924369747899
40004,Nelson County,KY,24.369747899159663
40213,Jefferson County,KY,41.17647058823529
41042,Boone County,KY,8.823529411764707
41169,Greenup County,KY,81.09243697478992
41701,Perry County,KY,76.05042016806722
42064,Crittenden County,KY,82.35294117647058
70043,St. Bernard Parish,LA,21.008403361344538
70094,Jefferson Parish,LA,7.142857142857142
70507,Lafayette Parish,LA,53.36134453781513
70805,East Baton Rouge Parish,LA,4.621848739495799
70817,East Baton Rouge Parish,LA,39.075630252100844
20646,Charles County,MD,86.1344537815126
21122,Anne Arundel County,MD,12.605042016806722
21216,Baltimore city,MD,41.596638655462186
01510,Worcester County,MA,25.630252100840334
01540,Worcester County,MA,47.47899159663865
01852,Middlesex County,MA,0
02149,Middlesex County,MA,0.42016806722689076
02155,Middlesex County,MA,1.680672268907563
02370,Plymouth County,MA,19.747899159663866
02474,Middlesex County,MA,18.067226890756302
48080,Macomb County,MI,42.436974789915965
48103,Washtenaw County,MI,20.168067226890756
48120,Wayne County,MI,85.29411764705883
48166,Monroe County,MI,52.52100840336135
48224,Wayne County,MI,2.941176470588235
48393,Oakland County,MI,59.2436974789916
48601,Saginaw County,MI,2.5210084033613445
48813,Eaton County,MI,44.537815126050425
49009,Kalamazoo County,MI,16.80672268907563
49256,Lenawee County,MI,99.15966386554622
49509,Kent County,MI,17.647058823529413
49770,Emmet County,MI,91.59663865546219
55128,Washington County,MN,62.60504201680672
55416,Hennepin County,MN,52.94117647058824
55912,Mower County,MN,10.92436974789916
55917,Steele County,MN,100
56031,Martin County,MN,58.82352941176471
56058,Le Sueur County,MN,94.11764705882352
56470,Hubbard County,MN,79.83193277310924
38863,Pontotoc County,MS,76.89075630252101
39110,Madison County,MS,45.79831932773109
39532,Harrison County,MS,53.36134453781513
63017,St. Louis County,MO,75.63025210084034
63385,St. Charles County,MO,60.08403361344538
63801,Scott County,MO,27.310924369747898
64131,Jackson County,MO,19.327731092436977
64735,Henry County,MO,39.49579831932773
59102,Yellowstone County,MT,55.04201680672269
89131,Clark County,NV,60.50420168067227
89142,Clark County,NV,77.73109243697479
03087,Rockingham County,NH,64.28571428571429
03848,Rockingham County,NH,84.45378151260505
07726,Monmouth County,NJ,34.87394957983193
08094,Gloucester County,NJ,10.084033613445378
08103,Camden County,NJ,5.88235294117647
08701,Ocean County,NJ,4.201680672268908
08865,Warren County,NJ,6.302521008403361
87112,Bernalillo County,NM,18.907563025210084
87544,Los Alamos County,NM,74.36974789915966
10452,Bronx County,NY,9.663865546218489
10467,Bronx County,NY,0.8403361344537815
10573,Westchester County,NY,93.69747899159664
11423,Queens County,NY,65.54621848739495
11798,Suffolk County,NY,97.47899159663865
12010,Montgomery County,NY,7.563025210084033
12065,Saratoga County,NY,71.42857142857143
12303,Schenectady County,NY,81.5126050420168
13021,Cayuga County,NY,23.52941176470588
13131,Oswego County,NY,94.53781512605042
14043,Erie County,NY,38.655462184873954
14103,Orleans County,NY,55.46218487394958
14621,Monroe County,NY,1.2605042016806722
27028,Davie County,NC,20.588235294117645
27406,Guilford County,NC,5.46218487394958
27523,Wake County,NC,97.05882352941177
27610,Wake County,NC,11.344537815126051
28040,Rutherford County,NC,90.33613445378151
28056,Gaston County,NC,58.40336134453782
28205,Mecklenburg County,NC,24.789915966386555
28681,Alexander County,NC,26.05042016806723
43004,Franklin County,OH,50.42016806722689
43085,Franklin County,OH,76.47058823529412
43213,Franklin County,OH,13.445378151260504
44052,Lorain County,OH,3.7815126050420167
44115,Cuyahoga County,OH,74.78991596638656
44266,Portage County,OH,13.025210084033615
44471,Mahoning County,OH,67.64705882352942
44484,Trumbull County,OH,32.35294117647059
44906,Richland County,OH,38.23529411764706
45225,Hamilton County,OH,79.41176470588235
45231,Hamilton County,OH,12.184873949579831
73052,Garvin County,OK,97.89915966386555
73071,Cleveland County,OK,28.15126050420168
74015,Rogers County,OK,94.9579831932773
74063,Tulsa County,OK,72.26890756302521
74115,Tulsa County,OK,45.378151260504204
74133,Tulsa County,OK,36.134453781512605
74960,Adair County,OK,29.831932773109244
97116,Washington County,OR,63.4453781512605
97140,Washington County,OR,70.16806722689076
97217,Multnomah County,OR,49.159663865546214
17013,Cumberland County,PA,26.47058823529412
17046,Lebanon County,PA,14.285714285714285
17313,York County,PA,78.15126050420169
17356,York County,PA,34.45378151260504
17362,York County,PA,80.67226890756302
17543,Lancaster County,PA,28.57142857142857
17752,Lycoming County,PA,95.7983193277311
19602,Berks County,PA,15.126050420168067
29927,Jasper County,SC,91.17647058823529
57104,Minnehaha County,SD,33.61344537815126
37167,Rutherford County,TN,31.092436974789916
37208,Davidson County,TN,29.411764705882355
37311,Bradley County,TN,40.33613445378151
37814,Hamblen County,TN,36.554621848739494
37917,Knox County,TN,22.689075630252102
38116,Shelby County,TN,23.10924369747899
38506,Putnam County,TN,50.84033613445378
75070,Collin County,TX,21.428571428571427
75243,Dallas County,TX,18.487394957983195
76051,Tarrant County,TX,36.97478991596639
76180,Tarrant County,TX,51.26050420168067
76205,Denton County,TX,92.01680672268907
76262,Denton County,TX,57.56302521008403
76667,Limestone County,TX,72.68907563025209
76704,McLennan County,TX,98.73949579831933
77489,Fort Bend County,TX,35.294117647058826
77586,Harris County,TX,62.18487394957983
77630,Orange County,TX,50
78610,Hays County,TX,84.87394957983193
78654,Burnet County,TX,86.97478991596638
78852,Maverick County,TX,68.0672268907563
05401,Chittenden County,VT,63.86554621848739
22102,Fairfax County,VA,86.5546218487395
22124,Fairfax County,VA,92.43697478991596
22302,Alexandria city,VA,78.57142857142857
22942,Louisa County,VA,89.49579831932773
23434,Suffolk city,VA,21.84873949579832
23454,Virginia Beach city,VA,33.193277310924366
23669,Hampton city,VA,27.73109243697479
99202,Spokane County,WA,73.94957983193278
20032,District of Columbia,DC,7.9831932773109235
26505,Monongalia County,WV,13.865546218487395
53205,Milwaukee County,WI,3.361344537815126
53207,Milwaukee County,WI,30.252100840336134
53228,Milwaukee County,WI,82.77310924369748
53913,Sauk County,WI,43.69747899159664
54017,St. Croix County,WI,65.96638655462185
54143,Marinette County,WI,61.76470588235294
54303,Brown County,WI,57.98319327731093
54902,Winnebago County,WI,67.22689075630252
