ZipCode,county,state,Youth,Adult
35016,Marshall County,AL,NA,53.86819484240688
35064,Jefferson County,AL,NA,61.74785100286533
35133,Blount County,AL,84.75336322869956,NA
35208,Jefferson County,AL,NA,40.114613180515754
35211,Jefferson County,AL,NA,46.41833810888252
35242,Shelby County,AL,NA,65.4727793696275
35503,Walker County,AL,83.85650224215246,NA
35802,Madison County,AL,NA,68.33810888252148
35950,Marshall County,AL,NA,41.833810888252145
35976,Marshall County,AL,NA,76.50429799426934
36037,Butler County,AL,NA,58.45272206303726
36049,Crenshaw County,AL,NA,93.83954154727793
36054,Elmore County,AL,NA,67.1919770773639
36117,Montgomery County,AL,NA,34.38395415472779
36360,Dale County,AL,NA,47.70773638968481
36582,Mobile County,AL,NA,49.570200573065904
36804,Lee County,AL,75.7847533632287,NA
36853,Tallapoosa County,AL,85.65022421524664,NA
99501,Anchorage Municipality,AK,NA,22.206303724928368
85008,Maricopa County,AZ,NA,13.753581661891118
85019,Maricopa County,AZ,57.847533632286996,NA
85022,Maricopa County,AZ,NA,19.62750716332378
85029,Maricopa County,AZ,NA,24.498567335243553
85035,Maricopa County,AZ,48.87892376681614,NA
85050,Maricopa County,AZ,69.50672645739911,NA
85142,Maricopa County,AZ,NA,10.028653295128938
85203,Maricopa County,AZ,NA,82.23495702005731
85205,Maricopa County,AZ,34.97757847533632,NA
85208,Maricopa County,AZ,NA,44.412607449856736
85209,Maricopa County,AZ,NA,63.75358166189111
85210,Maricopa County,AZ,NA,24.068767908309454
85296,Maricopa County,AZ,NA,34.52722063037249
85302,Maricopa County,AZ,NA,60.02865329512894
85340,Maricopa County,AZ,NA,66.33237822349571
85363,Maricopa County,AZ,NA,92.83667621776505
85641,Pima County,AZ,NA,59.742120343839545
85701,Pima County,AZ,NA,64.89971346704871
85706,Pima County,AZ,0,NA
85711,Pima County,AZ,4.932735426008969,34.95702005730659
85737,Pima County,AZ,NA,86.24641833810888
86004,Coconino County,AZ,NA,6.876790830945559
86315,Yavapai County,AZ,NA,93.40974212034384
86326,Yavapai County,AZ,NA,25.358166189111746
72076,Pulaski County,AR,44.843049327354265,NA
72106,Faulkner County,AR,99.55156950672645,NA
72118,Pulaski County,AR,NA,64.32664756446992
72204,Pulaski County,AR,NA,52.29226361031518
72209,Pulaski County,AR,NA,54.15472779369628
72301,Crittenden County,AR,74.88789237668162,NA
72703,Washington County,AR,86.99551569506725,NA
72837,Pope County,AR,NA,86.38968481375359
90011,Los Angeles County,CA,NA,74.49856733524355
90044,Los Angeles County,CA,NA,7.306590257879657
90404,Los Angeles County,CA,91.03139013452915,NA
91001,Los Angeles County,CA,NA,58.73925501432665
91352,Los Angeles County,CA,NA,27.363896848137536
91364,Los Angeles County,CA,87.89237668161435,NA
91790,Los Angeles County,CA,NA,53.86819484240688
91910,San Diego County,CA,37.66816143497758,NA
92020,San Diego County,CA,NA,22.77936962750716
92064,San Diego County,CA,NA,96.99140401146131
92123,San Diego County,CA,NA,67.76504297994269
92201,Riverside County,CA,NA,25.501432664756447
92240,Riverside County,CA,NA,22.492836676217763
92284,San Bernardino County,CA,NA,60.88825214899713
92532,Riverside County,CA,88.78923766816143,NA
92648,Orange County,CA,NA,29.942693409742123
92677,Orange County,CA,NA,34.240687679083095
92703,Orange County,CA,53.81165919282511,NA
93308,Kern County,CA,NA,29.512893982808023
93550,Los Angeles County,CA,NA,43.26647564469914
94102,San Francisco County,CA,NA,8.166189111747851
94501,Alameda County,CA,NA,39.25501432664756
94509,Contra Costa County,CA,NA,22.349570200573066
94520,Contra Costa County,CA,58.29596412556054,NA
94565,Contra Costa County,CA,21.524663677130047,NA
95035,Santa Clara County,CA,NA,50.1432664756447
95209,San Joaquin County,CA,NA,47.56446991404012
95818,Sacramento County,CA,80.71748878923766,NA
95821,Sacramento County,CA,46.18834080717489,43.553008595988544
95835,Sacramento County,CA,NA,69.05444126074498
95901,Yuba County,CA,33.6322869955157,NA
95926,Butte County,CA,23.318385650224215,NA
95945,Nevada County,CA,66.3677130044843,NA
80004,Jefferson County,CO,NA,82.09169054441261
80022,Adams County,CO,63.22869955156951,NA
80033,Jefferson County,CO,NA,50.5730659025788
80123,Jefferson County,CO,NA,48.13753581661891
80124,Douglas County,CO,NA,66.04584527220631
80210,Denver County,CO,NA,57.02005730659025
80401,Jefferson County,CO,NA,96.84813753581662
80501,Boulder County,CO,NA,20.630372492836678
80526,Larimer County,CO,NA,37.96561604584527
80550,Weld County,CO,NA,31.51862464183381
80904,El Paso County,CO,NA,64.75644699140402
80909,El Paso County,CO,NA,26.21776504297994
81005,Pueblo County,CO,NA,38.25214899713467
06040,Hartford County,CT,NA,10.315186246418339
06042,Hartford County,CT,NA,95.27220630372493
06051,Hartford County,CT,NA,19.91404011461318
06098,Litchfield County,CT,NA,77.36389684813754
06106,Hartford County,CT,NA,24.641833810888254
06109,Hartford County,CT,73.99103139013454,NA
06112,Hartford County,CT,NA,86.96275071633238
06118,Hartford County,CT,NA,74.92836676217765
06410,New Haven County,CT,NA,69.19770773638967
06489,Hartford County,CT,NA,64.46991404011462
06511,New Haven County,CT,43.04932735426009,NA
06513,New Haven County,CT,NA,5.444126074498568
06516,New Haven County,CT,NA,7.4498567335243555
06519,New Haven County,CT,NA,25.214899713467048
06708,New Haven County,CT,NA,23.925501432664756
06770,New Haven County,CT,NA,25.644699140401144
06776,Litchfield County,CT,61.43497757847533,NA
06786,Litchfield County,CT,NA,99.7134670487106
06810,Fairfield County,CT,NA,46.561604584527224
06850,Fairfield County,CT,NA,72.92263610315186
19938,Kent County,DE,NA,66.9054441260745
32068,Clay County,FL,NA,12.320916905444127
32086,St. Johns County,FL,NA,43.553008595988544
32207,Duval County,FL,NA,18.05157593123209
32208,Duval County,FL,NA,1.5759312320916905
32221,Duval County,FL,NA,31.37535816618911
32250,Duval County,FL,83.40807174887892,61.46131805157593
32577,Escambia County,FL,NA,94.98567335243553
32641,Alachua County,FL,NA,26.93409742120344
33155,Miami-Dade County,FL,NA,75.07163323782235
33175,Miami-Dade County,FL,NA,57.44985673352435
33176,Miami-Dade County,FL,34.08071748878923,NA
33319,Broward County,FL,NA,43.12320916905444
33417,Palm Beach County,FL,NA,59.16905444126075
33455,Martin County,FL,NA,93.12320916905445
33566,Hillsborough County,FL,NA,60.31518624641834
33706,Pinellas County,FL,NA,88.68194842406876
33713,Pinellas County,FL,NA,55.15759312320917
33908,Lee County,FL,NA,61.60458452722063
33936,Lee County,FL,84.75336322869956,NA
33967,Lee County,FL,NA,60.17191977077364
34236,Sarasota County,FL,NA,88.10888252148997
30033,DeKalb County,GA,NA,99.14040114613181
30114,Cherokee County,GA,44.39461883408072,NA
30125,Polk County,GA,NA,38.68194842406877
30153,Polk County,GA,NA,42.12034383954155
30340,DeKalb County,GA,NA,83.5243553008596
30349,Fulton County,GA,7.623318385650224,NA
30701,Gordon County,GA,NA,32.23495702005731
30736,Catoosa County,GA,NA,39.39828080229226
31210,Bibb County,GA,NA,63.03724928366762
31320,Liberty County,GA,NA,78.79656160458453
31553,Brantley County,GA,96.41255605381166,NA
31904,Muscogee County,GA,NA,32.37822349570201
96707,Honolulu County,HI,63.67713004484305,NA
96720,Hawaii County,HI,47.08520179372198,66.6189111747851
96727,Hawaii County,HI,NA,89.82808022922636
96744,Honolulu County,HI,NA,85.53008595988538
96748,Maui County,HI,NA,90.97421203438395
96750,Hawaii County,HI,NA,96.56160458452722
96813,Honolulu County,HI,38.56502242152467,NA
83301,Twin Falls County,ID,NA,5.157593123209169
83605,Canyon County,ID,NA,62.17765042979943
83634,Ada County,ID,86.54708520179372,NA
83686,Canyon County,ID,NA,33.5243553008596
83815,Kootenai County,ID,NA,36.67621776504298
60016,Cook County,IL,NA,58.59598853868195
60047,Lake County,IL,NA,38.39541547277937
60050,McHenry County,IL,NA,39.97134670487106
60060,Lake County,IL,26.905829596412556,49.4269340974212
60085,Lake County,IL,32.73542600896861,NA
60178,DeKalb County,IL,NA,57.163323782234954
60411,Cook County,IL,NA,13.18051575931232
60422,Cook County,IL,91.03139013452915,NA
60453,Cook County,IL,13.452914798206278,NA
60459,Cook County,IL,NA,35.24355300859599
60465,Cook County,IL,NA,87.53581661891118
60538,Kendall County,IL,NA,61.31805157593123
60609,Cook County,IL,25.56053811659193,10.744985673352435
60612,Cook County,IL,NA,51.57593123209169
60614,Cook County,IL,NA,23.20916905444126
60616,Cook County,IL,28.699551569506728,NA
60617,Cook County,IL,17.48878923766816,NA
60625,Cook County,IL,NA,78.22349570200574
60626,Cook County,IL,NA,69.91404011461319
60637,Cook County,IL,NA,15.759312320916905
60645,Cook County,IL,NA,97.27793696275072
60651,Cook County,IL,NA,8.882521489971348
61021,Lee County,IL,NA,33.0945558739255
61109,Winnebago County,IL,NA,45.55873925501432
61111,Winnebago County,IL,NA,51.43266475644699
61244,Rock Island County,IL,78.9237668161435,NA
61739,Livingston County,IL,NA,94.26934097421203
61821,Champaign County,IL,NA,42.83667621776504
61822,Champaign County,IL,NA,80.80229226361033
62040,Madison County,IL,NA,53.72492836676218
62305,Adams County,IL,NA,71.34670487106017
62401,Effingham County,IL,77.13004484304933,NA
62618,Cass County,IL,NA,99.2836676217765
62629,Sangamon County,IL,NA,89.97134670487105
62702,Sangamon County,IL,NA,27.793696275071632
62959,Williamson County,IL,NA,42.550143266475644
62966,Jackson County,IL,NA,65.61604584527221
46120,Putnam County,IN,82.0627802690583,NA
46201,Marion County,IN,NA,51.00286532951289
46239,Marion County,IN,NA,56.87679083094556
46250,Marion County,IN,NA,78.36676217765043
46368,Porter County,IN,34.97757847533632,NA
46375,Lake County,IN,14.349775784753364,NA
46507,Elkhart County,IN,NA,87.67908309455588
46514,Elkhart County,IN,NA,64.18338108882521
46517,Elkhart County,IN,NA,91.11747851002865
46613,St. Joseph County,IN,NA,98.71060171919771
46733,Adams County,IN,NA,73.63896848137536
46806,Allen County,IN,NA,28.36676217765043
46815,Allen County,IN,NA,33.95415472779369
46816,Allen County,IN,83.85650224215246,NA
46901,Howard County,IN,9.865470852017937,NA
46902,Howard County,IN,NA,19.484240687679083
46947,Cass County,IN,NA,79.79942693409741
47201,Bartholomew County,IN,NA,11.89111747851003
47274,Jackson County,IN,28.699551569506728,NA
47362,Henry County,IN,NA,22.063037249283667
47371,Jay County,IN,NA,56.73352435530086
47374,Wayne County,IN,NA,23.49570200573066
47446,Lawrence County,IN,NA,69.34097421203438
47546,Dubois County,IN,NA,53.581661891117484
47711,Vanderburgh County,IN,NA,62.607449856733524
47714,Vanderburgh County,IN,17.937219730941703,NA
47804,Vigo County,IN,94.61883408071749,NA
47960,White County,IN,NA,67.47851002865329
50009,Polk County,IA,NA,70.63037249283668
50023,Polk County,IA,NA,67.76504297994269
50158,Marshall County,IA,NA,27.650429799426934
50266,Polk County,IA,NA,77.79369627507164
50310,Polk County,IA,NA,21.060171919770774
50311,Polk County,IA,NA,52.00573065902579
50401,Cerro Gordo County,IA,NA,12.034383954154727
50501,Webster County,IA,NA,26.64756446991404
51106,Woodbury County,IA,NA,49.8567335243553
52001,Dubuque County,IA,19.730941704035875,46.27507163323782
52101,Winneshiek County,IA,NA,72.06303724928367
52136,Howard County,IA,NA,83.3810888252149
52240,Johnson County,IA,62.33183856502242,21.346704871060172
52241,Johnson County,IA,49.327354260089685,NA
52302,Linn County,IA,NA,21.63323782234957
52632,Lee County,IA,NA,40.97421203438395
52776,Muscatine County,IA,NA,97.70773638968481
52804,Scott County,IA,NA,16.6189111747851
52806,Scott County,IA,36.32286995515695,NA
52807,Scott County,IA,NA,80.37249283667622
66071,Miami County,KS,NA,74.35530085959886
66109,Wyandotte County,KS,NA,55.014326647564474
66111,Wyandotte County,KS,NA,84.67048710601719
66209,Johnson County,KS,NA,81.08882521489971
66212,Johnson County,KS,70.4035874439462,NA
67052,Sedgwick County,KS,NA,92.26361031518626
67209,Sedgwick County,KS,NA,98.56733524355302
67401,Saline County,KS,NA,20.916905444126073
67665,Russell County,KS,NA,89.39828080229226
40118,Jefferson County,KY,NA,56.446991404011456
40203,Jefferson County,KY,NA,56.30372492836676
40210,Jefferson County,KY,NA,42.40687679083094
40351,Rowan County,KY,51.569506726457405,NA
40359,Owen County,KY,NA,81.9484240687679
40475,Madison County,KY,NA,52.865329512893986
40504,Fayette County,KY,39.46188340807175,NA
41071,Campbell County,KY,NA,76.07449856733524
41102,Boyd County,KY,55.15695067264574,NA
42301,Daviess County,KY,NA,36.38968481375358
42408,Hopkins County,KY,NA,79.22636103151862
42501,Pulaski County,KY,NA,50.85959885386819
70112,Orleans Parish,LA,NA,95.98853868194843
70114,Orleans Parish,LA,6.726457399103139,NA
70118,Orleans Parish,LA,NA,18.33810888252149
70130,Orleans Parish,LA,NA,74.06876790830945
70431,St. Tammany Parish,LA,NA,75.21489971346705
70450,Washington Parish,LA,NA,87.96561604584528
70592,Lafayette Parish,LA,17.040358744394617,NA
70634,Beauregard Parish,LA,9.417040358744394,NA
70802,East Baton Rouge Parish,LA,NA,6.73352435530086
71107,Caddo Parish,LA,NA,3.8681948424068766
04005,York County,ME,NA,15.902578796561603
04074,Cumberland County,ME,NA,68.48137535816619
04101,Cumberland County,ME,NA,36.24641833810888
04102,Cumberland County,ME,NA,35.673352435530084
04401,Penobscot County,ME,NA,43.98280802292264
04444,Penobscot County,ME,NA,100
04901,Kennebec County,ME,NA,6.017191977077363
04957,Somerset County,ME,NA,75.78796561604585
20706,Prince George's County,MD,70.85201793721974,NA
20746,Prince George's County,MD,87.4439461883408,NA
20814,Montgomery County,MD,NA,98.8538681948424
21216,Baltimore city,MD,56.502242152466366,NA
21218,Baltimore city,MD,13.004484304932735,NA
21230,Baltimore city,MD,NA,90.11461318051576
21532,Allegany County,MD,96.8609865470852,NA
21620,Kent County,MD,93.72197309417041,NA
21629,Caroline County,MD,NA,81.08882521489971
01001,Hampden County,MA,NA,99.5702005730659
01028,Hampden County,MA,NA,44.55587392550143
01056,Hampden County,MA,NA,17.048710601719197
01085,Hampden County,MA,NA,27.07736389684814
01089,Hampden County,MA,NA,5.300859598853868
01108,Hampden County,MA,0.4484304932735426,NA
01201,Berkshire County,MA,2.242152466367713,NA
01301,Franklin County,MA,NA,11.318051575931232
01420,Worcester County,MA,NA,0.28653295128939826
01440,Worcester County,MA,NA,75.50143266475645
01453,Worcester County,MA,NA,8.595988538681947
01501,Worcester County,MA,78.47533632286996,NA
01545,Worcester County,MA,46.63677130044843,NA
01603,Worcester County,MA,NA,2.148997134670487
01609,Worcester County,MA,NA,73.20916905444126
01702,Middlesex County,MA,NA,1.7191977077363898
01721,Middlesex County,MA,NA,33.810888252149
01752,Middlesex County,MA,NA,4.7277936962750715
01760,Middlesex County,MA,NA,10.17191977077364
01810,Essex County,MA,NA,13.46704871060172
01835,Essex County,MA,NA,32.95128939828081
01902,Essex County,MA,NA,36.10315186246418
01906,Essex County,MA,20.62780269058296,NA
01950,Essex County,MA,73.54260089686099,NA
02118,Suffolk County,MA,NA,0
02121,Suffolk County,MA,NA,0.42979942693409745
02124,Suffolk County,MA,5.829596412556054,NA
02128,Suffolk County,MA,NA,58.88252148997135
02129,Suffolk County,MA,NA,18.911174785100286
02131,Suffolk County,MA,NA,11.174785100286533
02139,Middlesex County,MA,NA,26.07449856733524
02149,Middlesex County,MA,NA,0.14326647564469913
02150,Suffolk County,MA,NA,0.5730659025787965
02191,Norfolk County,MA,51.569506726457405,NA
02360,Plymouth County,MA,NA,1.146131805157593
02364,Plymouth County,MA,71.74887892376681,NA
02478,Middlesex County,MA,59.64125560538116,NA
02653,Barnstable County,MA,NA,99.8567335243553
02673,Barnstable County,MA,NA,55.15759312320917
02703,Bristol County,MA,NA,1.2893982808022924
02723,Bristol County,MA,NA,16.045845272206304
02745,Bristol County,MA,40.80717488789238,NA
02762,Norfolk County,MA,NA,57.59312320916905
02767,Bristol County,MA,81.16591928251121,NA
48066,Macomb County,MI,NA,4.871060171919771
48067,Oakland County,MI,NA,69.48424068767909
48104,Washtenaw County,MI,NA,47.85100286532951
48141,Wayne County,MI,NA,9.025787965616045
48166,Monroe County,MI,NA,42.693409742120345
48170,Wayne County,MI,NA,14.040114613180515
48174,Wayne County,MI,49.775784753363226,NA
48198,Washtenaw County,MI,3.1390134529147984,NA
48206,Wayne County,MI,NA,61.891117478510026
48209,Wayne County,MI,NA,24.641833810888254
48213,Wayne County,MI,NA,38.96848137535817
48224,Wayne County,MI,NA,2.722063037249284
48229,Wayne County,MI,NA,82.52148997134671
48230,Wayne County,MI,NA,52.14899713467048
48237,Oakland County,MI,NA,20.487106017191977
48328,Oakland County,MI,NA,39.11174785100287
48346,Oakland County,MI,65.02242152466367,38.39541547277937
48413,Huron County,MI,NA,50.5730659025788
48617,Clare County,MI,NA,72.20630372492836
48661,Ogemaw County,MI,61.88340807174888,NA
48708,Bay County,MI,NA,51.862464183381086
48911,Ingham County,MI,NA,29.799426934097422
48917,Eaton County,MI,NA,35.100286532951294
49013,Van Buren County,MI,81.16591928251121,NA
49224,Calhoun County,MI,NA,55.587392550143264
49337,Newaygo County,MI,NA,94.84240687679083
49348,Allegan County,MI,NA,33.3810888252149
49508,Kent County,MI,NA,6.59025787965616
49707,Alpena County,MI,NA,31.94842406876791
49868,Luce County,MI,82.51121076233184,NA
55025,Washington County,MN,41.70403587443946,88.82521489971347
55044,Dakota County,MN,NA,51.28939828080229
55066,Goodhue County,MN,NA,45.702005730659025
55102,Ramsey County,MN,NA,31.23209169054441
55104,Ramsey County,MN,NA,45.41547277936962
55116,Ramsey County,MN,NA,68.0515759312321
55119,Ramsey County,MN,NA,43.40974212034384
55130,Ramsey County,MN,NA,87.39255014326648
55303,Anoka County,MN,39.91031390134529,NA
55305,Hennepin County,MN,NA,98.13753581661892
55311,Hennepin County,MN,NA,84.81375358166189
55316,Hennepin County,MN,31.390134529147986,NA
55318,Carver County,MN,NA,59.598853868194844
55350,McLeod County,MN,NA,98.99713467048711
55369,Hennepin County,MN,16.143497757847534,35.53008595988539
55404,Hennepin County,MN,6.278026905829597,35.95988538681949
55408,Hennepin County,MN,NA,60.458452722063036
55419,Hennepin County,MN,NA,45.98853868194843
55422,Hennepin County,MN,69.05829596412556,NA
55426,Hennepin County,MN,NA,62.89398280802292
55427,Hennepin County,MN,NA,80.94555873925502
55428,Hennepin County,MN,NA,19.197707736389685
55429,Hennepin County,MN,NA,79.94269340974212
55433,Anoka County,MN,NA,36.53295128939828
55445,Hennepin County,MN,NA,91.69054441260745
55448,Anoka County,MN,NA,41.54727793696275
55449,Anoka County,MN,59.19282511210763,51.719197707736384
55454,Hennepin County,MN,NA,93.26647564469914
55720,Carlton County,MN,56.95067264573991,NA
55744,Itasca County,MN,NA,65.90257879656161
55792,St. Louis County,MN,NA,37.392550143266476
55806,St. Louis County,MN,47.98206278026906,NA
55807,St. Louis County,MN,NA,48.71060171919771
55904,Olmsted County,MN,38.11659192825112,NA
55976,Olmsted County,MN,NA,95.84527220630372
55987,Winona County,MN,NA,66.189111747851
56007,Freeborn County,MN,NA,15.472779369627506
56073,Brown County,MN,NA,23.065902578796564
56164,Pipestone County,MN,NA,73.06590257879655
56201,Kandiyohi County,MN,NA,44.55587392550143
56303,Stearns County,MN,38.56502242152467,32.37822349570201
56304,Sherburne County,MN,NA,61.03151862464183
56347,Todd County,MN,NA,82.9512893982808
56472,Crow Wing County,MN,71.30044843049326,NA
56560,Clay County,MN,NA,2.292263610315186
38858,Monroe County,MS,NA,96.27507163323781
39042,Rankin County,MS,NA,87.10601719197709
39154,Hinds County,MS,NA,85.10028653295129
39194,Yazoo County,MS,65.91928251121077,NA
39208,Rankin County,MS,95.51569506726457,NA
39209,Hinds County,MS,53.81165919282511,NA
39532,Harrison County,MS,24.663677130044842,NA
39553,Jackson County,MS,42.600896860986545,NA
39565,Jackson County,MS,73.09417040358744,NA
63020,Jefferson County,MO,NA,63.467048710601716
63034,St. Louis County,MO,NA,63.89684813753582
63084,Franklin County,MO,NA,54.72779369627507
63108,St. Louis city,MO,NA,78.65329512893983
63111,St. Louis city,MO,NA,34.81375358166189
63118,St. Louis city,MO,NA,33.2378223495702
63125,St. Louis County,MO,NA,42.97994269340974
63136,St. Louis County,MO,2.690582959641256,NA
63628,St. Francois County,MO,32.28699551569507,NA
63670,Ste. Genevieve County,MO,NA,89.68481375358166
63701,Cape Girardeau County,MO,NA,71.34670487106017
63775,Perry County,MO,NA,36.96275071633238
63825,Stoddard County,MO,98.20627802690582,NA
63857,Dunklin County,MO,NA,44.126074498567334
64015,Jackson County,MO,NA,13.03724928366762
64024,Clay County,MO,NA,17.908309455587393
64029,Jackson County,MO,NA,71.91977077363897
64083,Cass County,MO,NA,37.53581661891118
64093,Johnson County,MO,41.25560538116592,NA
64131,Jackson County,MO,NA,14.326647564469914
64157,Clay County,MO,18.385650224215247,NA
64424,Harrison County,MO,64.57399103139014,NA
64505,Buchanan County,MO,NA,32.664756446991404
64801,Jasper County,MO,NA,13.32378223495702
65203,Boone County,MO,NA,25.787965616045845
65548,Howell County,MO,NA,94.55587392550143
65613,Polk County,MO,NA,58.30945558739254
65616,Taney County,MO,NA,37.67908309455588
65686,Stone County,MO,NA,95.55873925501433
65802,Greene County,MO,NA,11.031518624641834
65804,Greene County,MO,NA,30.945558739255013
65807,Greene County,MO,NA,28.939828080229223
59457,Fergus County,MT,95.96412556053812,NA
59801,Missoula County,MT,58.29596412556054,NA
68106,Douglas County,NE,NA,97.56446991404012
69361,Scotts Bluff County,NE,NA,77.65042979942693
89118,Clark County,NV,NA,86.67621776504298
89706,Carson City,NV,NA,62.46418338108882
03060,Hillsborough County,NH,NA,70.91690544412607
03064,Hillsborough County,NH,10.31390134529148,NA
03104,Hillsborough County,NH,20.179372197309416,NA
03246,Belknap County,NH,NA,93.55300859598854
03275,Merrimack County,NH,50.224215246636774,NA
03281,Hillsborough County,NH,NA,78.08022922636103
03867,Strafford County,NH,NA,23.638968481375358
07002,Hudson County,NJ,NA,2.005730659025788
07024,Bergen County,NJ,NA,34.67048710601719
07040,Essex County,NJ,NA,97.85100286532952
07060,Union County,NJ,NA,7.020057306590258
07070,Bergen County,NJ,NA,69.77077363896849
07087,Hudson County,NJ,NA,68.76790830945558
07103,Essex County,NJ,NA,7.736389684813753
07107,Essex County,NJ,NA,9.885386819484241
07201,Union County,NJ,NA,7.593123209169055
07304,Hudson County,NJ,NA,17.478510028653297
07424,Passaic County,NJ,NA,39.541547277936964
07663,Bergen County,NJ,75.7847533632287,NA
07712,Monmouth County,NJ,NA,4.011461318051576
07740,Monmouth County,NJ,NA,30.37249283667622
07746,Monmouth County,NJ,NA,77.93696275071633
07753,Monmouth County,NJ,NA,6.446991404011461
08005,Ocean County,NJ,NA,18.624641833810887
08030,Camden County,NJ,NA,21.91977077363897
08054,Burlington County,NJ,NA,94.12607449856733
08060,Burlington County,NJ,65.47085201793722,NA
08069,Salem County,NJ,50.672645739910315,NA
08075,Burlington County,NJ,NA,14.756446991404012
08080,Gloucester County,NJ,8.520179372197308,NA
08088,Burlington County,NJ,89.23766816143498,NA
08102,Camden County,NJ,NA,8.022922636103152
08105,Camden County,NJ,NA,44.269340974212035
08107,Camden County,NJ,NA,30.659025787965614
08203,Atlantic County,NJ,NA,94.41260744985674
08205,Atlantic County,NJ,NA,16.7621776504298
08360,Cumberland County,NJ,NA,1.002865329512894
08611,Mercer County,NJ,NA,6.303724928366762
08721,Ocean County,NJ,NA,59.45558739255014
08724,Ocean County,NJ,NA,9.598853868194842
08753,Ocean County,NJ,NA,2.865329512893983
08817,Middlesex County,NJ,NA,21.48997134670487
08844,Somerset County,NJ,30.04484304932735,NA
08873,Somerset County,NJ,NA,15.04297994269341
87002,Valencia County,NM,NA,50.429799426934096
87108,Bernalillo County,NM,NA,29.656160458452725
87110,Bernalillo County,NM,NA,11.74785100286533
87701,San Miguel County,NM,93.27354260089686,NA
88001,Doa Ana County,NM,43.946188340807176,NA
88203,Chaves County,NM,NA,19.054441260744987
10001,New York County,NY,NA,12.607449856733524
10003,New York County,NY,NA,53.00859598853869
10014,New York County,NY,89.68609865470853,NA
10025,New York County,NY,22.869955156950674,27.793696275071632
10026,New York County,NY,NA,26.790830945558742
10027,New York County,NY,26.45739910313901,78.51002865329512
10029,New York County,NY,NA,0.7163323782234957
10030,New York County,NY,NA,73.35243553008596
10032,New York County,NY,NA,10.458452722063036
10033,New York County,NY,NA,76.79083094555874
10035,New York County,NY,NA,44.985673352435526
10075,New York County,NY,NA,98.28080229226362
10301,Richmond County,NY,NA,46.561604584527224
10314,Richmond County,NY,NA,12.464183381088825
10451,Bronx County,NY,NA,3.5816618911174785
10453,Bronx County,NY,NA,16.332378223495702
10454,Bronx County,NY,NA,29.083094555873924
10455,Bronx County,NY,12.10762331838565,NA
10456,Bronx County,NY,NA,25.931232091690543
10459,Bronx County,NY,NA,25.07163323782235
10461,Bronx County,NY,NA,40.68767908309456
10466,Bronx County,NY,NA,89.25501432664757
10467,Bronx County,NY,NA,90.83094555873924
10469,Bronx County,NY,NA,4.441260744985674
10541,Putnam County,NY,NA,87.24928366762178
10570,Westchester County,NY,NA,97.134670487106
10598,Westchester County,NY,90.5829596412556,NA
10603,Westchester County,NY,NA,74.78510028653295
10701,Westchester County,NY,NA,80.65902578796562
10962,Rockland County,NY,NA,98.42406876790831
11102,Queens County,NY,NA,47.277936962750715
11201,Kings County,NY,NA,20.773638968481375
11203,Kings County,NY,NA,35.816618911174785
11220,Kings County,NY,NA,18.76790830945559
11223,Kings County,NY,NA,54.58452722063038
11226,Kings County,NY,NA,20.34383954154728
11233,Kings County,NY,NA,28.08022922636103
11234,Kings County,NY,NA,70.20057306590259
11235,Kings County,NY,NA,84.09742120343839
11355,Queens County,NY,NA,28.796561604584525
11368,Queens County,NY,NA,95.70200573065902
11369,Queens County,NY,NA,57.73638968481375
11377,Queens County,NY,21.076233183856502,NA
11435,Queens County,NY,NA,83.0945558739255
11550,Nassau County,NY,NA,11.461318051575931
11704,Suffolk County,NY,NA,57.879656160458445
11738,Suffolk County,NY,NA,85.81661891117479
11746,Suffolk County,NY,66.81614349775785,NA
12010,Montgomery County,NY,NA,6.160458452722064
12047,Albany County,NY,NA,96.13180515759312
12078,Fulton County,NY,NA,5.587392550143266
12180,Rensselaer County,NY,NA,14.469914040114611
12203,Albany County,NY,NA,38.825214899713465
12304,Schenectady County,NY,NA,63.89684813753582
12534,Columbia County,NY,NA,15.329512893982807
12550,Orange County,NY,NA,64.89971346704871
12803,Saratoga County,NY,NA,92.55014326647564
12804,Warren County,NY,45.73991031390135,32.808022922636106
12809,Washington County,NY,NA,91.97707736389685
13069,Oswego County,NY,NA,88.25214899713467
13077,Cortland County,NY,68.16143497757847,NA
13088,Onondaga County,NY,NA,28.223495702005728
13116,Onondaga County,NY,NA,90.40114613180515
13152,Onondaga County,NY,97.30941704035875,NA
13203,Onondaga County,NY,NA,69.62750716332378
13205,Onondaga County,NY,NA,12.750716332378223
13208,Onondaga County,NY,NA,12.177650429799428
13212,Onondaga County,NY,37.219730941704036,NA
13214,Onondaga County,NY,NA,99.42693409742121
13440,Oneida County,NY,NA,13.896848137535816
13865,Broome County,NY,NA,77.22063037249283
14057,Erie County,NY,NA,91.54727793696274
14092,Niagara County,NY,90.13452914798206,NA
14120,Niagara County,NY,NA,5.873925501432665
14141,Erie County,NY,NA,82.52148997134671
14174,Niagara County,NY,NA,80.22922636103151
14212,Erie County,NY,77.57847533632287,NA
14222,Erie County,NY,NA,97.99426934097421
14225,Erie County,NY,NA,9.169054441260744
14304,Niagara County,NY,57.399103139013455,NA
14411,Orleans County,NY,47.08520179372198,NA
14424,Ontario County,NY,NA,3.4383954154727796
14502,Wayne County,NY,NA,28.510028653295127
14526,Monroe County,NY,NA,75.35816618911176
14532,Ontario County,NY,NA,54.87106017191977
14580,Monroe County,NY,NA,0.8595988538681949
14604,Monroe County,NY,NA,79.65616045845272
14606,Monroe County,NY,NA,16.7621776504298
14607,Monroe County,NY,60.53811659192825,92.69340974212035
14611,Monroe County,NY,NA,71.77650429799426
14612,Monroe County,NY,NA,2.4355300859598854
14623,Monroe County,NY,NA,48.28080229226361
14624,Monroe County,NY,NA,3.151862464183381
14626,Monroe County,NY,NA,4.297994269340974
14701,Chautauqua County,NY,NA,3.7249283667621778
14733,Chautauqua County,NY,NA,92.97994269340974
14750,Chautauqua County,NY,NA,85.24355300859598
14850,Tompkins County,NY,NA,67.47851002865329
14870,Steuben County,NY,NA,84.2406876790831
14871,Chemung County,NY,NA,88.96848137535817
27103,Forsyth County,NC,NA,15.18624641833811
27127,Forsyth County,NC,NA,14.613180515759314
27262,Guilford County,NC,NA,41.40401146131805
27278,Orange County,NC,NA,22.492836676217763
27284,Forsyth County,NC,NA,7.163323782234957
27516,Orange County,NC,NA,64.61318051575931
27573,Person County,NC,NA,44.84240687679083
27701,Durham County,NC,NA,47.99426934097421
27703,Durham County,NC,NA,10.601719197707736
27705,Durham County,NC,80.26905829596413,NA
27858,Pitt County,NC,NA,27.22063037249284
27874,Halifax County,NC,95.06726457399103,NA
28144,Rowan County,NC,NA,35.38681948424069
28203,Mecklenburg County,NC,NA,82.8080229226361
28206,Mecklenburg County,NC,NA,72.63610315186246
28208,Mecklenburg County,NC,NA,9.742120343839542
28212,Mecklenburg County,NC,NA,59.02578796561605
28214,Mecklenburg County,NC,NA,30.515759312320917
28215,Mecklenburg County,NC,NA,64.89971346704871
28262,Mecklenburg County,NC,32.73542600896861,NA
28303,Cumberland County,NC,NA,56.59025787965616
28304,Cumberland County,NC,NA,32.09169054441261
28311,Cumberland County,NC,NA,26.36103151862464
28345,Richmond County,NC,NA,83.810888252149
28401,New Hanover County,NC,NA,37.82234957020057
28602,Catawba County,NC,NA,21.776504297994272
28681,Alexander County,NC,NA,19.770773638968482
28732,Henderson County,NC,NA,72.77936962750717
28787,Buncombe County,NC,NA,66.7621776504298
58501,Burleigh County,ND,NA,52.43553008595988
43016,Franklin County,OH,NA,62.32091690544412
43055,Licking County,OH,NA,11.60458452722063
43081,Franklin County,OH,NA,23.20916905444126
43160,Fayette County,OH,NA,13.61031518624642
43201,Franklin County,OH,NA,76.36103151862464
43203,Franklin County,OH,NA,87.82234957020057
43215,Franklin County,OH,NA,39.68481375358166
43222,Franklin County,OH,NA,88.53868194842407
43227,Franklin County,OH,NA,23.78223495702006
43338,Morrow County,OH,NA,89.54154727793696
43608,Lucas County,OH,NA,8.739255014326648
43713,Belmont County,OH,NA,61.174785100286535
43953,Jefferson County,OH,23.766816143497756,NA
44012,Lorain County,OH,43.49775784753363,NA
44035,Lorain County,OH,8.071748878923767,NA
44039,Lorain County,OH,NA,7.8796561604584525
44044,Lorain County,OH,NA,48.567335243553
44060,Lake County,OH,NA,48.853868194842406
44106,Cuyahoga County,OH,NA,58.02292263610315
44111,Cuyahoga County,OH,NA,26.504297994269344
44112,Cuyahoga County,OH,11.210762331838566,NA
44114,Cuyahoga County,OH,NA,79.51289398280802
44117,Cuyahoga County,OH,NA,41.977077363896846
44118,Cuyahoga County,OH,NA,60.74498567335244
44125,Cuyahoga County,OH,NA,1.8624641833810889
44126,Cuyahoga County,OH,NA,78.93982808022922
44134,Cuyahoga County,OH,NA,8.30945558739255
44142,Cuyahoga County,OH,63.67713004484305,NA
44145,Cuyahoga County,OH,NA,17.621776504297994
44212,Medina County,OH,NA,4.584527220630372
44221,Summit County,OH,40.35874439461883,NA
44266,Portage County,OH,NA,9.455587392550143
44288,Portage County,OH,NA,86.81948424068769
44303,Summit County,OH,NA,72.49283667621776
44307,Summit County,OH,NA,45.27220630372493
44321,Summit County,OH,NA,91.40401146131805
44403,Trumbull County,OH,NA,84.9570200573066
44436,Mahoning County,OH,99.10313901345292,NA
44483,Trumbull County,OH,NA,16.189111747851005
44654,Holmes County,OH,NA,80.08595988538681
44708,Stark County,OH,NA,62.03438395415473
44805,Ashland County,OH,NA,12.893982808022923
44870,Erie County,OH,1.345291479820628,NA
44883,Seneca County,OH,NA,68.62464183381088
44903,Richland County,OH,NA,50.286532951289395
44907,Richland County,OH,NA,41.117478510028654
45036,Warren County,OH,NA,20.057306590257877
45044,Butler County,OH,1.7937219730941705,NA
45102,Clermont County,OH,34.52914798206278,36.81948424068768
45103,Clermont County,OH,82.95964125560538,75.64469914040114
45106,Clermont County,OH,NA,50
45107,Clinton County,OH,NA,83.66762177650429
45121,Brown County,OH,NA,71.34670487106017
45177,Clinton County,OH,42.152466367713004,NA
45202,Hamilton County,OH,NA,70.34383954154728
45206,Hamilton County,OH,26.00896860986547,NA
45207,Hamilton County,OH,NA,81.66189111747852
45212,Hamilton County,OH,NA,31.088825214899714
45215,Hamilton County,OH,NA,74.64183381088824
45236,Hamilton County,OH,NA,53.29512893982808
45245,Clermont County,OH,NA,63.180515759312314
45356,Miami County,OH,4.0358744394618835,NA
45365,Shelby County,OH,10.762331838565023,NA
45377,Montgomery County,OH,NA,70.05730659025788
45416,Montgomery County,OH,NA,93.55300859598854
45429,Montgomery County,OH,NA,74.21203438395415
45804,Allen County,OH,NA,40.257879656160455
45833,Allen County,OH,67.2645739910314,NA
45840,Hancock County,OH,NA,3.29512893982808
73132,Oklahoma County,OK,NA,55.873925501432666
74006,Washington County,OK,NA,56.16045845272206
74107,Tulsa County,OK,NA,85.38681948424069
74403,Muskogee County,OK,NA,34.097421203438394
74801,Pottawatomie County,OK,NA,38.108882521489974
97030,Multnomah County,OR,30.493273542600896,NA
97045,Clackamas County,OR,NA,14.899713467048711
97123,Washington County,OR,NA,20.20057306590258
97458,Coos County,OR,NA,95.12893982808023
15044,Allegheny County,PA,NA,90.68767908309455
15074,Beaver County,PA,NA,86.10315186246417
15101,Allegheny County,PA,75.7847533632287,NA
15146,Allegheny County,PA,NA,47.421203438395416
15203,Allegheny County,PA,NA,84.38395415472779
15205,Allegheny County,PA,NA,76.64756446991404
15220,Allegheny County,PA,NA,70.77363896848138
15222,Allegheny County,PA,NA,86.53295128939828
15238,Allegheny County,PA,NA,96.41833810888252
15239,Allegheny County,PA,NA,82.378223495702
15683,Westmoreland County,PA,NA,90.54441260744986
15851,Jefferson County,PA,29.596412556053814,NA
16001,Butler County,PA,NA,5.014326647564469
16063,Butler County,PA,NA,94.69914040114614
16346,Venango County,PA,92.37668161434978,NA
16433,Crawford County,PA,NA,79.08309455587393
16503,Erie County,PA,88.34080717488789,NA
16508,Erie County,PA,NA,52.43553008595988
16509,Erie County,PA,NA,33.6676217765043
16648,Blair County,PA,NA,59.885386819484246
17033,Dauphin County,PA,4.484304932735426,NA
17103,Dauphin County,PA,14.798206278026907,71.06017191977078
17110,Dauphin County,PA,NA,15.616045845272206
17315,York County,PA,NA,29.22636103151863
17350,Adams County,PA,NA,59.31232091690545
17401,York County,PA,NA,45.12893982808023
17777,Northumberland County,PA,NA,89.11174785100286
17801,Northumberland County,PA,27.3542600896861,NA
17872,Northumberland County,PA,NA,41.260744985673355
17972,Schuylkill County,PA,68.16143497757847,NA
18015,Northampton County,PA,7.174887892376682,NA
18018,Lehigh County,PA,NA,24.212034383954155
18037,Lehigh County,PA,NA,75.93123209169055
18045,Northampton County,PA,69.95515695067265,NA
18643,Luzerne County,PA,NA,80.37249283667622
19006,Montgomery County,PA,NA,48.99713467048711
19007,Bucks County,PA,48.4304932735426,NA
19029,Delaware County,PA,NA,92.12034383954155
19032,Delaware County,PA,NA,81.80515759312321
19036,Delaware County,PA,NA,54.297994269340975
19056,Bucks County,PA,NA,49.14040114613181
19063,Delaware County,PA,NA,55.15759312320917
19087,Chester County,PA,NA,51.146131805157594
19107,Philadelphia County,PA,NA,85.95988538681948
19132,Philadelphia County,PA,31.838565022421523,NA
19134,Philadelphia County,PA,NA,4.154727793696275
19140,Philadelphia County,PA,0.8968609865470852,NA
19144,Philadelphia County,PA,11.659192825112108,NA
19148,Philadelphia County,PA,15.246636771300448,NA
19341,Chester County,PA,NA,73.63896848137536
19403,Montgomery County,PA,NA,18.19484240687679
02860,Providence County,RI,NA,63.61031518624641
02874,Washington County,RI,74.43946188340807,NA
02903,Providence County,RI,NA,77.07736389684814
02908,Providence County,RI,NA,84.5272206303725
29036,Lexington County,SC,NA,70.48710601719198
29169,Lexington County,SC,NA,57.306590257879655
29316,Spartanburg County,SC,45.2914798206278,NA
29466,Charleston County,SC,16.591928251121075,NA
29483,Dorchester County,SC,NA,17.335243553008596
29541,Florence County,SC,75.33632286995515,NA
29687,Greenville County,SC,30.493273542600896,NA
57103,Minnehaha County,SD,NA,24.355300859598856
57104,Minnehaha County,SD,NA,63.323782234957015
57106,Minnehaha County,SD,27.802690582959645,NA
57350,Beadle County,SD,NA,81.51862464183381
57401,Brown County,SD,NA,17.765042979942695
37027,Williamson County,TN,NA,40.40114613180516
37064,Williamson County,TN,NA,46.84813753581662
37067,Williamson County,TN,NA,83.95415472779369
37091,Marshall County,TN,79.37219730941703,NA
37115,Davidson County,TN,19.282511210762333,NA
37129,Rutherford County,TN,NA,17.191977077363894
37148,Sumner County,TN,NA,40.40114613180516
37208,Davidson County,TN,NA,27.507163323782237
37221,Davidson County,TN,60.0896860986547,NA
37334,Lincoln County,TN,NA,37.106017191977074
37604,Washington County,TN,NA,19.340974212034386
37641,Greene County,TN,NA,71.20343839541547
37660,Sullivan County,TN,24.2152466367713,NA
37665,Sullivan County,TN,NA,95.41547277936962
37763,Roane County,TN,NA,66.4756446991404
37801,Blount County,TN,22.421524663677133,NA
37840,Roane County,TN,NA,73.49570200573066
37854,Roane County,TN,NA,58.16618911174785
75013,Collin County,TX,62.78026905829597,NA
75201,Dallas County,TX,NA,77.50716332378224
75205,Dallas County,TX,NA,65.7593123209169
75703,Smith County,TX,56.05381165919282,NA
76060,Tarrant County,TX,92.82511210762333,NA
76104,Tarrant County,TX,NA,55.730659025787965
76179,Tarrant County,TX,NA,30.802292263610315
76542,Bell County,TX,NA,14.183381088825215
76543,Bell County,TX,12.556053811659194,NA
76549,Bell County,TX,8.968609865470851,NA
76712,McLennan County,TX,25.112107623318387,NA
76904,Tom Green County,TX,21.973094170403588,NA
77007,Harris County,TX,NA,52.72206303724928
77044,Harris County,TX,NA,37.106017191977074
77058,Harris County,TX,79.82062780269058,NA
77085,Harris County,TX,NA,85.67335243553008
77486,Brazoria County,TX,NA,93.98280802292264
77489,Fort Bend County,TX,NA,31.805157593123205
77550,Galveston County,TX,52.91479820627802,NA
78040,Webb County,TX,NA,41.69054441260745
78114,Wilson County,TX,NA,56.01719197707736
78201,Bexar County,TX,NA,24.92836676217765
78211,Bexar County,TX,NA,53.43839541547278
78218,Bexar County,TX,5.381165919282512,NA
78229,Bexar County,TX,55.60538116591929,NA
78240,Bexar County,TX,NA,43.83954154727794
78577,Hidalgo County,TX,NA,29.369627507163326
78612,Bastrop County,TX,86.09865470852019,NA
78624,Gillespie County,TX,NA,90.25787965616045
78730,Travis County,TX,NA,91.11747851002865
78741,Travis County,TX,NA,88.39541547277938
79404,Lubbock County,TX,51.569506726457405,NA
79603,Taylor County,TX,NA,31.661891117478508
84005,Utah County,UT,NA,79.22636103151862
84116,Salt Lake County,UT,53.81165919282511,62.75071633237822
84321,Cache County,UT,18.83408071748879,NA
84335,Cache County,UT,NA,91.83381088825216
84660,Utah County,UT,NA,66.9054441260745
22182,Fairfax County,VA,78.02690582959642,NA
22202,Arlington County,VA,NA,76.21776504297995
22980,Waynesboro city,VA,NA,9.312320916905444
23227,Henrico County,VA,NA,42.12034383954155
23453,Virginia Beach city,VA,NA,49.14040114613181
23462,Virginia Beach city,VA,NA,18.48137535816619
23701,Portsmouth city,VA,NA,48.42406876790831
23704,Portsmouth city,VA,NA,30.08595988538682
23707,Portsmouth city,VA,NA,54.44126074498568
23901,Prince Edward County,VA,91.92825112107623,NA
24016,Roanoke city,VA,71.74887892376681,NA
24112,Henry County,VA,NA,16.475644699140403
24153,Salem city,VA,35.874439461883405,67.3352435530086
24273,Norton city,VA,97.75784753363229,NA
24382,Wythe County,VA,NA,45.98853868194843
24426,Alleghany County,VA,NA,46.99140401146132
24501,Lynchburg city,VA,NA,30.229226361031518
98109,King County,WA,NA,60.60171919770774
98275,Snohomish County,WA,51.12107623318386,NA
98367,Kitsap County,WA,NA,49.713467048710605
98375,Pierce County,WA,36.771300448430495,NA
98512,Thurston County,WA,NA,81.37535816618912
98664,Clark County,WA,NA,83.2378223495702
99208,Spokane County,WA,15.695067264573993,NA
99223,Spokane County,WA,NA,68.91117478510029
20011,District of Columbia,DC,NA,8.45272206303725
20020,District of Columbia,DC,NA,2.5787965616045847
25404,Berkeley County,WV,NA,39.82808022922636
25405,Berkeley County,WV,NA,76.93409742120345
26201,Upshur County,WV,27.802690582959645,NA
26508,Monongalia County,WV,3.587443946188341,NA
53005,Waukesha County,WI,NA,40.83094555873926
53022,Washington County,WI,67.71300448430493,NA
53024,Ozaukee County,WI,60.98654708520179,NA
53027,Washington County,WI,NA,92.40687679083095
53081,Sheboygan County,WI,NA,47.134670487106014
53089,Waukesha County,WI,NA,65.32951289398281
53105,Racine County,WI,NA,45.845272206303726
53154,Milwaukee County,WI,NA,22.77936962750716
53188,Waukesha County,WI,13.901345291479823,NA
53209,Milwaukee County,WI,NA,3.0085959885386817
53215,Milwaukee County,WI,NA,5.730659025787966
53228,Milwaukee County,WI,NA,72.34957020057307
53235,Milwaukee County,WI,NA,68.19484240687679
53511,Rock County,WI,NA,1.4326647564469914
53523,Dane County,WI,98.65470852017937,NA
53549,Jefferson County,WI,71.74887892376681,NA
53562,Dane County,WI,NA,96.70487106017191
53704,Dane County,WI,NA,10.888252148997136
53711,Dane County,WI,53.36322869955157,NA
53713,Dane County,WI,NA,53.15186246418339
53934,Adams County,WI,94.17040358744396,NA
54555,Price County,WI,NA,97.42120343839542
54703,Eau Claire County,WI,NA,21.20343839541547
54893,Burnett County,WI,100,NA
54901,Winnebago County,WI,NA,28.510028653295127
82001,Laramie County,WY,NA,73.92550143266476
