ZipCode,county,state,Adult,Retirement,Geriatric
35004,St. Clair County,AL,75.42932628797885,NA,NA
35016,Marshall County,AL,NA,30.711206896551722,NA
35020,Jefferson County,AL,NA,22.683189655172413,NA
35022,Jefferson County,AL,31.638044914134746,NA,NA
35040,Shelby County,AL,40.02642007926024,NA,NA
35054,St. Clair County,AL,NA,82.54310344827587,NA
35057,Cullman County,AL,64.79524438573316,NA,NA
35064,Jefferson County,AL,NA,67.51077586206897,NA
35068,Jefferson County,AL,87.38441215323645,NA,NA
35072,Coosa County,AL,NA,72.73706896551724,NA
35077,Cullman County,AL,NA,58.620689655172406,NA
35094,Jefferson County,AL,50.330250990752965,NA,NA
35120,St. Clair County,AL,87.12021136063409,67.51077586206897,NA
35121,Blount County,AL,NA,NA,66.96035242290749
35124,Shelby County,AL,NA,NA,88.10572687224669
35125,St. Clair County,AL,NA,60.23706896551724,NA
35126,Jefferson County,AL,43.13077939233818,85.18318965517241,68.10572687224669
35150,Talladega County,AL,NA,NA,44.669603524229075
35173,Jefferson County,AL,81.83619550858653,32.112068965517246,NA
35175,Marshall County,AL,98.8771466314399,NA,NA
35186,Shelby County,AL,97.75429326287978,NA,NA
35205,Jefferson County,AL,NA,92.29525862068965,NA
35222,Jefferson County,AL,NA,83.89008620689656,NA
35226,Jefferson County,AL,NA,48.491379310344826,NA
35228,Jefferson County,AL,NA,90.67887931034483,NA
35242,Shelby County,AL,NA,8.997844827586206,NA
35244,Jefferson County,AL,67.37120211360634,NA,NA
35404,Tuscaloosa County,AL,NA,NA,89.86784140969164
35405,Tuscaloosa County,AL,63.936591809775436,88.63146551724138,38.14977973568282
35473,Tuscaloosa County,AL,NA,NA,87.04845814977973
35475,Tuscaloosa County,AL,NA,90.30172413793103,NA
35476,Tuscaloosa County,AL,88.0449141347424,NA,NA
35553,Winston County,AL,NA,90.19396551724138,NA
35555,Fayette County,AL,NA,NA,76.65198237885463
35570,Marion County,AL,56.34081902245707,44.98922413793103,NA
35601,Morgan County,AL,9.114927344782034,79.90301724137932,62.11453744493392
35611,Limestone County,AL,64.46499339498018,NA,NA
35614,Limestone County,AL,64.06869220607662,NA,NA
35640,Morgan County,AL,NA,28.23275862068966,45.198237885462554
35670,Morgan County,AL,71.26816380449141,68.53448275862068,NA
35673,Morgan County,AL,82.1664464993395,NA,99.29515418502203
35674,Colbert County,AL,NA,70.74353448275862,NA
35750,Madison County,AL,49.27344782034346,NA,90.30837004405286
35757,Madison County,AL,61.88903566710701,NA,NA
35758,Madison County,AL,NA,30.387931034482758,NA
35773,Madison County,AL,NA,55.6573275862069,NA
35802,Madison County,AL,NA,55.603448275862064,NA
35803,Madison County,AL,54.09511228533685,NA,25.37444933920705
35805,Madison County,AL,65.05944517833554,NA,NA
35806,Madison County,AL,95.70673712021136,79.57974137931035,NA
35901,Etowah County,AL,27.873183619550858,27.69396551724138,NA
35904,Etowah County,AL,NA,49.353448275862064,NA
35950,Marshall County,AL,NA,48.76077586206897,83.87665198237886
35956,Etowah County,AL,68.56010568031704,NA,NA
35960,Cherokee County,AL,NA,NA,94.80176211453745
35978,DeKalb County,AL,96.56538969616909,NA,NA
35980,Marshall County,AL,93.13077939233818,NA,NA
35986,DeKalb County,AL,NA,70.58189655172413,NA
36027,Barbour County,AL,NA,NA,97.62114537444934
36037,Butler County,AL,NA,NA,81.3215859030837
36066,Autauga County,AL,NA,NA,48.1057268722467
36067,Autauga County,AL,NA,NA,68.45814977973568
36078,Elmore County,AL,43.85733157199472,NA,NA
36092,Elmore County,AL,36.78996036988111,46.2823275862069,NA
36093,Elmore County,AL,67.10700132100396,NA,NA
36201,Calhoun County,AL,NA,NA,92.07048458149781
36274,Randolph County,AL,NA,77.10129310344827,NA
36301,Houston County,AL,NA,42.07974137931034,NA
36303,Houston County,AL,NA,64.17025862068965,NA
36401,Conecuh County,AL,NA,NA,89.0748898678414
36426,Escambia County,AL,NA,NA,65.19823788546255
36526,Baldwin County,AL,NA,30.98060344827586,NA
36530,Baldwin County,AL,78.13738441215324,NA,NA
36532,Baldwin County,AL,47.95244385733157,17.834051724137932,NA
36535,Baldwin County,AL,NA,77.31681034482759,NA
36542,Baldwin County,AL,88.70541611624834,NA,NA
36545,Clarke County,AL,82.62879788639366,NA,NA
36549,Baldwin County,AL,NA,60.775862068965516,NA
36571,Mobile County,AL,59.313077939233814,NA,NA
36580,Baldwin County,AL,NA,93.80387931034483,NA
36608,Mobile County,AL,NA,39.49353448275862,NA
36609,Mobile County,AL,49.14134742404227,NA,NA
36618,Mobile County,AL,NA,NA,68.63436123348018
36619,Mobile County,AL,NA,60.560344827586206,NA
36703,Dallas County,AL,NA,50.43103448275862,NA
36854,Chambers County,AL,NA,NA,67.7533039647577
36862,Chambers County,AL,NA,94.82758620689656,NA
36867,Russell County,AL,NA,NA,60.352422907488986
99504,Anchorage Municipality,AK,NA,33.674568965517246,NA
99577,Anchorage Municipality,AK,63.606340819022456,NA,NA
99654,Matanuska-Susitna Borough,AK,NA,65.89439655172413,NA
99669,Kenai Peninsula Borough,AK,NA,46.713362068965516,NA
99709,Fairbanks North Star Borough,AK,NA,75.32327586206897,NA
99712,Fairbanks North Star Borough,AK,74.43857331571995,NA,NA
99835,Sitka City and Borough,AK,77.01453104359312,NA,NA
85008,Maricopa County,AZ,9.04887714663144,18.049568965517242,NA
85013,Maricopa County,AZ,NA,58.24353448275862,NA
85020,Maricopa County,AZ,82.56274768824306,NA,41.497797356828194
85021,Maricopa County,AZ,NA,59.213362068965516,NA
85023,Maricopa County,AZ,NA,50.70043103448276,NA
85028,Maricopa County,AZ,88.24306472919419,NA,79.38325991189427
85029,Maricopa County,AZ,NA,33.7823275862069,42.819383259911895
85032,Maricopa County,AZ,NA,NA,42.907488986784145
85042,Maricopa County,AZ,NA,76.83189655172413,NA
85044,Maricopa County,AZ,42.53632760898283,NA,NA
85048,Maricopa County,AZ,NA,55.765086206896555,NA
85142,Maricopa County,AZ,NA,19.558189655172413,NA
85201,Maricopa County,AZ,9.313077939233818,25.48491379310345,NA
85207,Maricopa County,AZ,NA,54.525862068965516,NA
85212,Maricopa County,AZ,NA,55.2801724137931,NA
85213,Maricopa County,AZ,NA,48.168103448275865,NA
85224,Maricopa County,AZ,NA,35.9375,NA
85248,Maricopa County,AZ,NA,22.413793103448278,4.140969162995595
85253,Maricopa County,AZ,96.10303830911494,NA,NA
85255,Maricopa County,AZ,NA,67.13362068965517,NA
85257,Maricopa County,AZ,89.96036988110964,NA,NA
85258,Maricopa County,AZ,57.85997357992074,NA,NA
85260,Maricopa County,AZ,NA,NA,19.11894273127753
85262,Maricopa County,AZ,NA,65.67887931034483,NA
85266,Maricopa County,AZ,NA,89.65517241379311,NA
85282,Maricopa County,AZ,62.48348745046235,NA,NA
85283,Maricopa County,AZ,40.686922060766186,NA,NA
85296,Maricopa County,AZ,26.28797886393659,NA,NA
85301,Maricopa County,AZ,NA,NA,60
85302,Maricopa County,AZ,NA,NA,47.9295154185022
85303,Maricopa County,AZ,42.00792602377807,NA,NA
85306,Maricopa County,AZ,NA,88.73922413793103,NA
85308,Maricopa County,AZ,27.14663143989432,NA,NA
85323,Maricopa County,AZ,54.491413474240424,NA,NA
85326,Maricopa County,AZ,NA,NA,91.71806167400881
85335,Maricopa County,AZ,NA,46.012931034482754,NA
85345,Maricopa County,AZ,8.3223249669749,NA,31.365638766519822
85350,Yuma County,AZ,NA,84.05172413793103,NA
85351,Maricopa County,AZ,NA,31.41163793103448,36.651982378854626
85363,Maricopa County,AZ,74.37252311756936,NA,78.76651982378856
85367,Yuma County,AZ,NA,42.51077586206897,NA
85373,Maricopa County,AZ,70.93791281373845,NA,14.273127753303966
85379,Maricopa County,AZ,23.712021136063406,NA,NA
85381,Maricopa County,AZ,NA,66.70258620689656,NA
85387,Maricopa County,AZ,NA,67.83405172413794,NA
85395,Maricopa County,AZ,85.46895640686922,NA,NA
85396,Maricopa County,AZ,NA,47.19827586206897,NA
85501,Gila County,AZ,NA,56.95043103448276,NA
85541,Gila County,AZ,40.158520475561424,32.866379310344826,NA
85546,Graham County,AZ,41.14927344782034,NA,NA
85602,Cochise County,AZ,NA,73.32974137931035,NA
85621,Santa Cruz County,AZ,NA,NA,30.484581497797357
85641,Pima County,AZ,75.69352708058125,NA,NA
85643,Cochise County,AZ,NA,92.5646551724138,NA
85650,Cochise County,AZ,NA,49.89224137931034,NA
85653,Pima County,AZ,NA,NA,90.9251101321586
85711,Pima County,AZ,6.142668428005284,NA,NA
85712,Pima County,AZ,NA,37.39224137931034,NA
85730,Pima County,AZ,NA,NA,44.669603524229075
85737,Pima County,AZ,NA,40.140086206896555,NA
85739,Pinal County,AZ,54.7556142668428,NA,NA
85748,Pima County,AZ,74.43857331571995,NA,NA
85756,Pima County,AZ,28.07133421400264,NA,NA
85901,Navajo County,AZ,NA,NA,54.36123348017621
85937,Navajo County,AZ,75.82562747688243,NA,NA
86004,Coconino County,AZ,60.03963011889035,NA,NA
86005,Coconino County,AZ,NA,61.96120689655172,NA
86303,Yavapai County,AZ,NA,NA,46.079295154185026
86305,Yavapai County,AZ,NA,26.83189655172414,49.42731277533039
86314,Yavapai County,AZ,NA,16.379310344827587,38.23788546255506
86315,Yavapai County,AZ,NA,NA,91.71806167400881
86326,Yavapai County,AZ,17.8335535006605,16.163793103448278,NA
86336,Yavapai County,AZ,73.38177014531043,NA,NA
86406,Mohave County,AZ,NA,53.178879310344826,NA
86409,Mohave County,AZ,NA,2.3706896551724137,NA
86426,Mohave County,AZ,70.60766182298546,NA,NA
86442,Mohave County,AZ,NA,6.896551724137931,16.211453744493394
86505,Apache County,AZ,53.83091149273448,NA,NA
71854,Miller County,AR,NA,NA,28.193832599118945
71923,Clark County,AR,NA,56.303879310344826,NA
71929,Hot Spring County,AR,95.64068692206077,NA,NA
72007,Lonoke County,AR,85.86525759577279,NA,NA
72010,White County,AR,71.20211360634082,NA,NA
72015,Saline County,AR,NA,NA,89.95594713656388
72022,Saline County,AR,NA,54.57974137931034,NA
72058,Faulkner County,AR,94.45178335535006,NA,NA
72081,White County,AR,NA,47.68318965517241,NA
72120,Pulaski County,AR,64.33289299867899,NA,NA
72204,Pulaski County,AR,NA,23.38362068965517,NA
72205,Pulaski County,AR,69.81505944517833,NA,NA
72396,Cross County,AR,NA,62.446120689655174,NA
72401,Craighead County,AR,NA,NA,13.039647577092511
72404,Craighead County,AR,40.88507265521796,64.54741379310344,NA
72450,Greene County,AR,NA,NA,24.140969162995596
72501,Independence County,AR,26.486129458388376,80.65732758620689,61.85022026431718
72543,Cleburne County,AR,80.51519154557464,NA,NA
72601,Boone County,AR,NA,NA,15.330396475770925
72634,Marion County,AR,99.20739762219286,NA,NA
72653,Baxter County,AR,91.8097754293263,NA,NA
72701,Washington County,AR,88.63936591809775,NA,NA
72714,Benton County,AR,NA,59.536637931034484,NA
72740,Madison County,AR,NA,94.98922413793103,NA
72756,Benton County,AR,NA,NA,56.74008810572687
72758,Benton County,AR,49.207397622192865,NA,NA
72762,Washington County,AR,NA,NA,47.841409691629956
72801,Pope County,AR,74.70277410832232,NA,NA
72941,Sebastian County,AR,NA,93.04956896551724,NA
72947,Crawford County,AR,NA,NA,91.10132158590308
72956,Crawford County,AR,NA,55.172413793103445,NA
90007,Los Angeles County,CA,NA,50.43103448275862,NA
90012,Los Angeles County,CA,NA,NA,27.048458149779737
90019,Los Angeles County,CA,NA,53.55603448275862,NA
90023,Los Angeles County,CA,82.49669749009247,NA,62.907488986784145
90025,Los Angeles County,CA,NA,NA,7.753303964757709
90027,Los Angeles County,CA,NA,NA,13.744493392070483
90036,Los Angeles County,CA,56.14266842800528,NA,NA
90046,Los Angeles County,CA,42.07397622192867,50.5926724137931,NA
90048,Los Angeles County,CA,NA,52.478448275862064,NA
90049,Los Angeles County,CA,NA,38.362068965517246,NA
90057,Los Angeles County,CA,NA,17.24137931034483,NA
90059,Los Angeles County,CA,NA,NA,60.70484581497797
90068,Los Angeles County,CA,NA,69.88146551724138,NA
90069,Los Angeles County,CA,44.517833553500665,NA,NA
90077,Los Angeles County,CA,NA,NA,71.71806167400881
90210,Los Angeles County,CA,NA,NA,14.977973568281937
90241,Los Angeles County,CA,72.65521796565389,NA,NA
90247,Los Angeles County,CA,42.27212681638045,NA,NA
90250,Los Angeles County,CA,NA,18.103448275862068,NA
90275,Los Angeles County,CA,NA,31.19612068965517,34.096916299559474
90277,Los Angeles County,CA,43.72523117569353,NA,NA
90280,Los Angeles County,CA,NA,28.60991379310345,NA
90602,Los Angeles County,CA,79.19418758256275,NA,58.23788546255506
90604,Los Angeles County,CA,NA,47.09051724137931,78.59030837004404
90605,Los Angeles County,CA,45.90488771466315,NA,NA
90620,Orange County,CA,39.96036988110964,NA,NA
90630,Orange County,CA,NA,15.247844827586206,NA
90638,Los Angeles County,CA,45.2443857331572,NA,85.02202643171806
90650,Los Angeles County,CA,12.351387054161163,NA,NA
90680,Orange County,CA,NA,NA,65.28634361233479
90703,Los Angeles County,CA,NA,26.07758620689655,NA
90706,Los Angeles County,CA,18.56010568031704,NA,NA
90712,Los Angeles County,CA,NA,NA,77.79735682819383
90717,Los Angeles County,CA,77.4108322324967,NA,NA
90720,Orange County,CA,NA,NA,62.907488986784145
90745,Los Angeles County,CA,31.968295904887718,NA,16.123348017621144
90802,Los Angeles County,CA,88.50726552179657,NA,NA
90805,Los Angeles County,CA,NA,17.1875,NA
90815,Los Angeles County,CA,40.75297225891678,NA,NA
91040,Los Angeles County,CA,92.33817701453104,NA,NA
91103,Los Angeles County,CA,NA,74.46120689655173,NA
91104,Los Angeles County,CA,NA,NA,35.68281938325991
91202,Los Angeles County,CA,NA,NA,21.674008810572687
91204,Los Angeles County,CA,76.02377807133422,NA,NA
91206,Los Angeles County,CA,NA,NA,8.722466960352424
91302,Los Angeles County,CA,NA,88.52370689655173,NA
91331,Los Angeles County,CA,NA,13.36206896551724,NA
91344,Los Angeles County,CA,NA,NA,16.299559471365637
91352,Los Angeles County,CA,48.21664464993395,NA,NA
91355,Los Angeles County,CA,NA,NA,58.6784140969163
91362,Ventura County,CA,80.58124174372523,NA,NA
91364,Los Angeles County,CA,75.16512549537649,61.36853448275862,NA
91387,Los Angeles County,CA,65.12549537648613,32.2198275862069,NA
91405,Los Angeles County,CA,NA,34.91379310344828,NA
91423,Los Angeles County,CA,NA,53.23275862068966,NA
91501,Los Angeles County,CA,NA,74.40732758620689,NA
91604,Los Angeles County,CA,NA,NA,39.03083700440529
91706,Los Angeles County,CA,19.484808454425362,26.185344827586203,NA
91709,San Bernardino County,CA,NA,19.881465517241377,NA
91724,Los Angeles County,CA,NA,NA,68.28193832599119
91755,Los Angeles County,CA,NA,83.9978448275862,NA
91776,Los Angeles County,CA,NA,81.03448275862068,NA
91786,San Bernardino County,CA,NA,NA,71.62995594713657
91902,San Diego County,CA,NA,76.61637931034483,NA
91910,San Diego County,CA,18.890356671070013,23.545258620689655,NA
91911,San Diego County,CA,NA,12.931034482758621,NA
92004,San Diego County,CA,NA,99.35344827586206,NA
92009,San Diego County,CA,96.3672391017173,NA,NA
92020,San Diego County,CA,NA,28.07112068965517,NA
92028,San Diego County,CA,NA,41.325431034482754,NA
92029,San Diego County,CA,76.1558784676354,NA,NA
92054,San Diego County,CA,NA,53.7176724137931,NA
92056,San Diego County,CA,93.92338177014531,NA,9.60352422907489
92101,San Diego County,CA,NA,6.411637931034483,NA
92103,San Diego County,CA,NA,NA,37.709251101321584
92116,San Diego County,CA,65.5878467635403,NA,NA
92117,San Diego County,CA,46.3672391017173,NA,NA
92118,San Diego County,CA,NA,NA,32.33480176211454
92126,San Diego County,CA,NA,NA,38.85462555066079
92131,San Diego County,CA,NA,66.70258620689656,82.73127753303964
92154,San Diego County,CA,30.250990752972257,NA,NA
92201,Riverside County,CA,NA,12.230603448275861,NA
92203,Riverside County,CA,78.46763540290621,NA,24.933920704845818
92211,Riverside County,CA,58.388375165125495,5.765086206896552,NA
92223,Riverside County,CA,NA,32.38146551724138,NA
92231,Imperial County,CA,NA,9.482758620689655,NA
92243,Imperial County,CA,NA,NA,15.15418502202643
92252,San Bernardino County,CA,98.08454425363277,NA,NA
92260,Riverside County,CA,NA,94.9353448275862,NA
92262,Riverside County,CA,NA,NA,96.65198237885463
92264,Riverside County,CA,66.64464993394981,NA,12.070484581497798
92270,Riverside County,CA,NA,78.87931034482759,80.35242290748899
92336,San Bernardino County,CA,NA,12.176724137931034,NA
92399,San Bernardino County,CA,NA,14.76293103448276,NA
92407,San Bernardino County,CA,39.82826948480845,NA,NA
92508,Riverside County,CA,NA,66.10991379310344,NA
92555,Riverside County,CA,76.42007926023778,NA,NA
92562,Riverside County,CA,NA,NA,34.27312775330397
92563,Riverside County,CA,NA,33.459051724137936,NA
92570,Riverside County,CA,34.015852047556145,NA,NA
92591,Riverside County,CA,NA,NA,62.731277533039645
92606,Orange County,CA,NA,76.9396551724138,NA
92610,Orange County,CA,NA,91.8103448275862,NA
92618,Orange County,CA,88.1770145310436,NA,NA
92624,Orange County,CA,NA,NA,99.55947136563876
92629,Orange County,CA,64.20079260237782,NA,NA
92637,Orange County,CA,NA,24.461206896551722,37.797356828193834
92646,Orange County,CA,NA,5.334051724137931,NA
92647,Orange County,CA,NA,NA,11.013215859030836
92648,Orange County,CA,21.79656538969617,NA,NA
92653,Orange County,CA,NA,NA,43.08370044052863
92656,Orange County,CA,NA,89.81681034482759,NA
92662,Orange County,CA,NA,NA,86.78414096916299
92663,Orange County,CA,NA,NA,53.83259911894274
92675,Orange County,CA,NA,NA,34.5374449339207
92677,Orange County,CA,NA,32.48922413793103,NA
92683,Orange County,CA,NA,83.29741379310344,NA
92688,Orange County,CA,29.854689564068693,NA,NA
92691,Orange County,CA,NA,15.625,NA
92692,Orange County,CA,NA,17.67241379310345,NA
92706,Orange County,CA,72.06076618229855,NA,NA
92833,Orange County,CA,41.21532364597093,NA,NA
92835,Orange County,CA,NA,NA,53.03964757709251
92845,Orange County,CA,68.22985468956408,56.57327586206896,60.176211453744486
92868,Orange County,CA,53.96301188903567,NA,NA
92870,Orange County,CA,58.520475561426686,NA,11.71806167400881
92881,Riverside County,CA,NA,65.67887931034483,NA
93001,Ventura County,CA,20.277410832232498,NA,NA
93021,Ventura County,CA,48.87714663143989,42.025862068965516,NA
93023,Ventura County,CA,NA,49.084051724137936,NA
93030,Ventura County,CA,NA,NA,24.31718061674009
93065,Ventura County,CA,10.435931307793924,NA,NA
93221,Tulare County,CA,69.74900924702774,NA,NA
93230,Kings County,CA,NA,10.991379310344827,NA
93257,Tulare County,CA,NA,15.948275862068966,NA
93268,Kern County,CA,NA,93.69612068965517,NA
93277,Tulare County,CA,18.956406869220608,NA,NA
93314,Kern County,CA,72.39101717305152,NA,NA
93455,Santa Barbara County,CA,NA,22.521551724137932,10.308370044052863
93458,Santa Barbara County,CA,NA,NA,42.37885462555066
93534,Los Angeles County,CA,NA,NA,57.797356828193834
93535,Los Angeles County,CA,6.406869220607662,NA,NA
93536,Los Angeles County,CA,NA,43.75,NA
93551,Los Angeles County,CA,44.253632760898284,87.01508620689656,NA
93560,Kern County,CA,87.64861294583883,NA,NA
93612,Fresno County,CA,36.12945838837516,NA,36.29955947136564
93614,Madera County,CA,NA,72.79094827586206,NA
93622,Fresno County,CA,95.112285336856,NA,NA
93635,Merced County,CA,NA,37.5,NA
93654,Fresno County,CA,NA,66.59482758620689,NA
93657,Fresno County,CA,NA,67.83405172413794,NA
93662,Fresno County,CA,NA,85.29094827586206,NA
93702,Fresno County,CA,NA,NA,74.62555066079295
93705,Fresno County,CA,NA,35.075431034482754,NA
93711,Fresno County,CA,NA,NA,30.396475770925107
93720,Fresno County,CA,NA,53.286637931034484,NA
93722,Fresno County,CA,NA,10.398706896551724,NA
93726,Fresno County,CA,NA,39.224137931034484,NA
93727,Fresno County,CA,NA,NA,31.101321585903086
93901,Monterey County,CA,72.5231175693527,NA,NA
93955,Monterey County,CA,NA,59.91379310344828,NA
94010,San Mateo County,CA,70.2113606340819,NA,8.105726872246697
94019,San Mateo County,CA,NA,51.34698275862068,NA
94022,Santa Clara County,CA,NA,71.12068965517241,NA
94025,San Mateo County,CA,NA,27.747844827586203,21.85022026431718
94080,San Mateo County,CA,NA,NA,36.12334801762114
94086,Santa Clara County,CA,NA,NA,50.83700440528634
94102,San Francisco County,CA,NA,26.885775862068968,NA
94103,San Francisco County,CA,NA,12.607758620689655,NA
94107,San Francisco County,CA,NA,NA,43.9647577092511
94108,San Francisco County,CA,NA,NA,49.867841409691636
94110,San Francisco County,CA,NA,NA,19.64757709251101
94112,San Francisco County,CA,NA,3.9870689655172415,NA
94114,San Francisco County,CA,66.97490092470278,NA,NA
94121,San Francisco County,CA,NA,NA,9.162995594713657
94134,San Francisco County,CA,NA,NA,23.612334801762113
94303,San Mateo County,CA,NA,NA,21.3215859030837
94506,Contra Costa County,CA,65.38969616908851,NA,NA
94507,Contra Costa County,CA,NA,61.47629310344828,NA
94509,Contra Costa County,CA,NA,8.890086206896552,NA
94517,Contra Costa County,CA,NA,94.71982758620689,78.41409691629956
94526,Contra Costa County,CA,NA,84.80603448275862,NA
94539,Alameda County,CA,NA,NA,70.30837004405286
94544,Alameda County,CA,12.61558784676354,NA,52.42290748898678
94549,Contra Costa County,CA,NA,50.754310344827594,27.488986784140966
94551,Alameda County,CA,NA,44.665948275862064,NA
94555,Alameda County,CA,NA,NA,98.50220264317181
94556,Contra Costa County,CA,NA,87.33836206896551,NA
94561,Contra Costa County,CA,NA,NA,49.25110132158591
94563,Contra Costa County,CA,NA,71.28232758620689,NA
94566,Alameda County,CA,NA,62.28448275862068,43.348017621145374
94568,Alameda County,CA,43.46103038309115,NA,NA
94577,Alameda County,CA,NA,NA,29.955947136563875
94578,Alameda County,CA,NA,NA,41.93832599118943
94580,Alameda County,CA,NA,NA,54.008810572687224
94583,Contra Costa County,CA,NA,NA,62.290748898678416
94585,Solano County,CA,NA,NA,69.42731277533039
94588,Alameda County,CA,NA,NA,56.12334801762115
94591,Solano County,CA,NA,30.549568965517242,NA
94598,Contra Costa County,CA,NA,75.3771551724138,NA
94602,Alameda County,CA,NA,NA,62.46696035242291
94603,Alameda County,CA,NA,NA,68.54625550660793
94605,Alameda County,CA,NA,NA,79.73568281938326
94608,Alameda County,CA,NA,42.94181034482759,NA
94610,Alameda County,CA,NA,NA,34.44933920704846
94612,Alameda County,CA,NA,73.38362068965517,NA
94618,Alameda County,CA,NA,87.71551724137932,NA
94708,Alameda County,CA,NA,NA,71.1013215859031
94806,Contra Costa County,CA,NA,15.786637931034484,NA
94903,Marin County,CA,NA,NA,38.76651982378855
94904,Marin County,CA,NA,85.5603448275862,NA
94920,Marin County,CA,NA,NA,74.8898678414097
94928,Sonoma County,CA,NA,35.075431034482754,NA
94930,Marin County,CA,NA,97.84482758620689,NA
94947,Marin County,CA,NA,40.463362068965516,NA
94949,Marin County,CA,71.79656538969617,62.769396551724135,NA
94954,Sonoma County,CA,68.69220607661823,NA,26.16740088105727
95014,Santa Clara County,CA,NA,NA,16.82819383259912
95070,Santa Clara County,CA,NA,NA,14.537444933920703
95116,Santa Clara County,CA,NA,42.7801724137931,NA
95118,Santa Clara County,CA,NA,NA,57.97356828193833
95120,Santa Clara County,CA,NA,42.72629310344828,NA
95124,Santa Clara County,CA,NA,NA,35.770925110132154
95207,San Joaquin County,CA,15.785997357992073,NA,NA
95240,San Joaquin County,CA,NA,NA,76.74008810572687
95242,San Joaquin County,CA,NA,NA,91.8942731277533
95301,Merced County,CA,66.11624834874505,NA,NA
95322,Merced County,CA,91.14927344782035,NA,NA
95336,San Joaquin County,CA,23.11756935270806,NA,20.176211453744493
95337,San Joaquin County,CA,61.228533685601064,NA,NA
95350,Stanislaus County,CA,12.87978863936592,NA,14.008810572687224
95354,Stanislaus County,CA,55.61426684280053,NA,NA
95355,Stanislaus County,CA,5.878467635402906,NA,NA
95356,Stanislaus County,CA,92.9326287978864,NA,NA
95361,Stanislaus County,CA,33.883751651254954,NA,NA
95370,Tuolumne County,CA,NA,1.8857758620689655,4.669603524229075
95376,San Joaquin County,CA,67.17305151915455,NA,NA
95377,San Joaquin County,CA,57.66182298546896,NA,NA
95404,Sonoma County,CA,NA,NA,19.03083700440529
95407,Sonoma County,CA,NA,46.98275862068966,NA
95437,Mendocino County,CA,NA,32.974137931034484,NA
95453,Lake County,CA,NA,NA,86.07929515418502
95467,Lake County,CA,NA,96.60560344827587,NA
95482,Mendocino County,CA,NA,18.75,NA
95501,Humboldt County,CA,NA,26.77801724137931,NA
95503,Humboldt County,CA,94.38573315719947,38.362068965517246,49.16299559471366
95521,Humboldt County,CA,76.55217965653897,NA,NA
95620,Solano County,CA,NA,84.10560344827587,NA
95624,Sacramento County,CA,NA,NA,34.36123348017621
95632,Sacramento County,CA,NA,87.82327586206897,NA
95670,Sacramento County,CA,27.410832232496695,NA,NA
95677,Placer County,CA,NA,NA,98.41409691629957
95695,Yolo County,CA,NA,45.3125,NA
95762,El Dorado County,CA,NA,28.55603448275862,NA
95815,Sacramento County,CA,55.28401585204755,NA,NA
95816,Sacramento County,CA,NA,92.07974137931035,NA
95821,Sacramento County,CA,NA,NA,33.30396475770925
95826,Sacramento County,CA,NA,76.34698275862068,NA
95828,Sacramento County,CA,NA,58.566810344827594,NA
95901,Yuba County,CA,17.635402906208718,NA,56.82819383259912
95928,Butte County,CA,NA,NA,19.911894273127754
95954,Butte County,CA,NA,NA,67.48898678414096
95963,Glenn County,CA,63.14398943196829,NA,NA
95966,Butte County,CA,7.331571994715984,NA,NA
95969,Butte County,CA,NA,4.4719827586206895,NA
95973,Butte County,CA,17.040951122853368,17.45689655172414,NA
95991,Sutter County,CA,51.78335535006605,NA,NA
95993,Sutter County,CA,NA,31.627155172413797,23.17180616740088
96001,Shasta County,CA,15.389696169088507,NA,NA
96080,Tehama County,CA,NA,NA,36.47577092511013
80002,Jefferson County,CO,NA,88.57758620689656,NA
80010,Arapahoe County,CO,13.408190224570674,NA,NA
80011,Arapahoe County,CO,4.821664464993395,NA,NA
80013,Arapahoe County,CO,7.133421400264201,16.10991379310345,NA
80014,Arapahoe County,CO,NA,19.450431034482758,NA
80015,Arapahoe County,CO,12.285336856010568,NA,NA
80020,Broomfield County,CO,NA,25.808189655172413,NA
80022,Adams County,CO,NA,NA,70.04405286343612
80108,Douglas County,CO,39.49801849405548,NA,NA
80111,Arapahoe County,CO,93.79128137384413,NA,NA
80112,Arapahoe County,CO,NA,46.65948275862069,NA
80126,Douglas County,CO,42.47027741083223,NA,91.62995594713657
80127,Jefferson County,CO,38.30911492734479,NA,NA
80128,Jefferson County,CO,NA,88.25431034482759,NA
80132,El Paso County,CO,NA,NA,69.51541850220264
80134,Douglas County,CO,76.35402906208718,NA,90.83700440528635
80138,Douglas County,CO,NA,90.57112068965517,NA
80202,Denver County,CO,NA,85.99137931034483,NA
80204,Denver County,CO,15.918097754293262,54.633620689655174,NA
80207,Denver County,CO,34.80845442536328,NA,NA
80210,Denver County,CO,45.11228533685601,NA,NA
80220,Denver County,CO,27.14663143989432,82.54310344827587,NA
80222,Denver County,CO,34.28005284015852,NA,NA
80228,Jefferson County,CO,NA,47.09051724137931,NA
80234,Adams County,CO,NA,57.866379310344826,NA
80239,Denver County,CO,NA,72.68318965517241,NA
80241,Adams County,CO,NA,60.290948275862064,NA
80260,Adams County,CO,66.31439894319684,NA,NA
80421,Park County,CO,NA,90.73275862068965,NA
80433,Jefferson County,CO,92.53632760898283,NA,NA
80470,Jefferson County,CO,99.14134742404227,NA,NA
80487,Routt County,CO,93.46103038309114,NA,NA
80501,Boulder County,CO,14.927344782034346,NA,NA
80503,Boulder County,CO,NA,NA,86.16740088105726
80517,Larimer County,CO,NA,39.709051724137936,NA
80525,Larimer County,CO,NA,7.489224137931035,NA
80537,Larimer County,CO,NA,41.05603448275862,NA
80538,Larimer County,CO,8.124174372523116,5.226293103448276,NA
80543,Weld County,CO,91.4795244385733,NA,NA
80547,Larimer County,CO,97.68824306472919,NA,NA
80550,Weld County,CO,22.919418758256274,NA,NA
80631,Weld County,CO,5.746367239101717,18.48060344827586,NA
80634,Weld County,CO,47.29194187582563,NA,NA
80701,Morgan County,CO,NA,NA,44.93392070484582
80723,Morgan County,CO,86.19550858652576,NA,81.05726872246696
80759,Yuma County,CO,NA,95.42025862068965,NA
80817,El Paso County,CO,NA,97.19827586206897,NA
80906,El Paso County,CO,NA,NA,26.079295154185022
80907,El Paso County,CO,NA,52.69396551724138,NA
80909,El Paso County,CO,NA,41.64870689655172,NA
80910,El Paso County,CO,NA,NA,69.33920704845815
80916,El Paso County,CO,NA,58.4051724137931,NA
81001,Pueblo County,CO,15.71994715984148,34.69827586206897,NA
81003,Pueblo County,CO,28.13738441215324,NA,NA
81005,Pueblo County,CO,NA,50.9698275862069,NA
81252,Custer County,CO,NA,96.28232758620689,NA
81301,La Plata County,CO,NA,NA,47.9295154185022
81401,Montrose County,CO,NA,31.950431034482758,61.76211453744494
81403,Montrose County,CO,NA,89.60129310344827,NA
81413,Delta County,CO,NA,89.76293103448276,NA
81504,Mesa County,CO,NA,NA,64.1409691629956
81520,Mesa County,CO,61.55878467635403,NA,NA
81601,Garfield County,CO,NA,96.55172413793103,NA
81623,Garfield County,CO,NA,83.02801724137932,NA
06010,Hartford County,CT,NA,76.02370689655173,NA
06062,Hartford County,CT,48.018494055482165,57.758620689655174,NA
06076,Tolland County,CT,NA,NA,66.87224669603525
06095,Hartford County,CT,NA,21.767241379310345,NA
06105,Hartford County,CT,16.050198150594454,NA,NA
06106,Hartford County,CT,NA,NA,23.348017621145374
06111,Hartford County,CT,NA,NA,30.13215859030837
06226,Windham County,CT,55.35006605019815,NA,NA
06237,Tolland County,CT,NA,92.45689655172413,NA
06238,Tolland County,CT,NA,53.609913793103445,NA
06260,Windham County,CT,NA,36.69181034482759,NA
06401,New Haven County,CT,NA,53.771551724137936,NA
06403,New Haven County,CT,NA,83.67456896551724,NA
06405,New Haven County,CT,NA,NA,8.01762114537445
06413,Middlesex County,CT,51.1889035667107,NA,NA
06450,New Haven County,CT,NA,56.411637931034484,NA
06451,New Haven County,CT,18.56010568031704,NA,NA
06457,Middlesex County,CT,NA,NA,6.431718061674009
06460,New Haven County,CT,51.849405548216644,11.368534482758621,NA
06473,New Haven County,CT,NA,24.137931034482758,NA
06483,New Haven County,CT,NA,88.41594827586206,NA
06484,Fairfield County,CT,28.731836195508585,NA,NA
06489,Hartford County,CT,53.10435931307794,NA,NA
06511,New Haven County,CT,3.1704095112285335,NA,NA
06513,New Haven County,CT,NA,NA,52.24669603524229
06517,New Haven County,CT,41.21532364597093,34.428879310344826,NA
06606,Fairfield County,CT,NA,25.915948275862068,NA
06706,New Haven County,CT,49.53764861294584,NA,NA
06770,New Haven County,CT,NA,NA,20.088105726872246
06776,Litchfield County,CT,NA,NA,51.80616740088105
06790,Litchfield County,CT,NA,NA,4.757709251101322
06810,Fairfield County,CT,NA,14.92456896551724,NA
06811,Fairfield County,CT,NA,54.741379310344826,NA
06824,Fairfield County,CT,NA,NA,51.18942731277533
06831,Fairfield County,CT,NA,57.48922413793104,NA
06850,Fairfield County,CT,NA,28.60991379310345,NA
06897,Fairfield County,CT,87.18626155878468,NA,NA
06902,Fairfield County,CT,15.587846763540291,NA,NA
06905,Fairfield County,CT,NA,NA,36.2114537444934
06906,Fairfield County,CT,97.02774108322325,NA,NA
19701,New Castle County,DE,NA,12.230603448275861,NA
19702,New Castle County,DE,10.501981505944517,NA,NA
19711,New Castle County,DE,NA,NA,13.832599118942731
19720,New Castle County,DE,1.9815059445178336,NA,NA
19802,New Castle County,DE,NA,16.864224137931032,NA
19803,New Castle County,DE,NA,41.64870689655172,NA
19804,New Castle County,DE,21.994715984147952,NA,NA
19807,New Castle County,DE,NA,97.30603448275862,NA
19810,New Castle County,DE,NA,29.84913793103448,NA
19901,Kent County,DE,NA,13.577586206896552,NA
19904,Kent County,DE,NA,11.153017241379311,20.26431718061674
19930,Sussex County,DE,NA,NA,90.22026431718062
19945,Sussex County,DE,NA,80.76508620689656,NA
19958,Sussex County,DE,26.55217965653897,NA,NA
19963,Sussex County,DE,27.807133421400266,NA,NA
19968,Sussex County,DE,64.66314398943197,37.553879310344826,NA
19971,Sussex County,DE,NA,68.85775862068965,NA
19975,Sussex County,DE,85.99735799207397,NA,NA
32003,Clay County,FL,NA,NA,55.24229074889868
32034,Nassau County,FL,41.743725231175695,5.872844827586207,NA
32040,Baker County,FL,NA,NA,96.12334801762114
32068,Clay County,FL,33.15719947159842,6.088362068965517,NA
32080,St. Johns County,FL,NA,17.13362068965517,21.938325991189426
32082,St. Johns County,FL,47.42404227212681,NA,NA
32087,Baker County,FL,89.36591809775429,NA,NA
32141,Volusia County,FL,NA,85.72198275862068,NA
32162,Sumter County,FL,NA,1.1314655172413792,NA
32168,Volusia County,FL,NA,NA,60.440528634361236
32176,Volusia County,FL,83.15719947159842,NA,NA
32206,Duval County,FL,79.85468956406869,NA,NA
32207,Duval County,FL,NA,NA,49.25110132158591
32209,Duval County,FL,44.319682959048876,NA,NA
32210,Duval County,FL,NA,26.29310344827586,NA
32211,Duval County,FL,NA,34.321120689655174,NA
32218,Duval County,FL,2.4438573315719947,36.36853448275862,NA
32222,Duval County,FL,NA,NA,84.22907488986783
32224,Duval County,FL,48.282694848084546,35.452586206896555,NA
32225,Duval County,FL,NA,NA,11.189427312775331
32226,Duval County,FL,35.667107001321,NA,NA
32244,Duval County,FL,NA,NA,30.30837004405286
32246,Duval County,FL,37.45046235138705,16.540948275862068,NA
32254,Duval County,FL,38.70541611624835,NA,NA
32256,Duval County,FL,25.62747688243065,NA,25.991189427312776
32257,Duval County,FL,18.361955085865258,NA,NA
32258,Duval County,FL,NA,26.99353448275862,NA
32259,St. Johns County,FL,35.99735799207397,NA,NA
32413,Bay County,FL,NA,NA,67.66519823788546
32425,Holmes County,FL,72.91941875825627,47.68318965517241,NA
32433,Walton County,FL,NA,NA,61.93832599118942
32446,Jackson County,FL,NA,95.25862068965517,NA
32466,Bay County,FL,NA,82.00431034482759,NA
32504,Escambia County,FL,NA,NA,17.09251101321586
32505,Escambia County,FL,13.210039630118892,NA,NA
32506,Escambia County,FL,NA,NA,10.572687224669604
32507,Escambia County,FL,59.5112285336856,NA,45.72687224669604
32514,Escambia County,FL,NA,NA,6.784140969162995
32526,Escambia County,FL,73.57992073976222,NA,NA
32536,Okaloosa County,FL,86.9220607661823,NA,NA
32539,Okaloosa County,FL,NA,19.935344827586206,NA
32547,Okaloosa County,FL,NA,NA,79.38325991189427
32550,Walton County,FL,NA,45.42025862068966,NA
32566,Santa Rosa County,FL,56.93527080581242,NA,NA
32570,Santa Rosa County,FL,NA,3.2327586206896552,NA
32571,Santa Rosa County,FL,9.379128137384413,NA,NA
32606,Alachua County,FL,NA,20.79741379310345,NA
32609,Alachua County,FL,NA,NA,70.57268722466961
32615,Alachua County,FL,53.6327608982827,NA,NA
32680,Dixie County,FL,NA,67.29525862068965,NA
32702,Lake County,FL,NA,NA,83.08370044052863
32707,Seminole County,FL,NA,NA,37.180616740088105
32714,Seminole County,FL,NA,NA,98.06167400881057
32725,Volusia County,FL,28.66578599735799,30.495689655172413,NA
32735,Lake County,FL,92.53632760898283,93.91163793103449,NA
32750,Seminole County,FL,56.869220607661816,NA,NA
32757,Lake County,FL,NA,55.495689655172406,NA
32765,Seminole County,FL,90.42272126816381,NA,NA
32779,Seminole County,FL,NA,NA,33.74449339207048
32780,Brevard County,FL,NA,NA,3.524229074889868
32784,Lake County,FL,NA,NA,76.0352422907489
32798,Orange County,FL,NA,99.51508620689656,NA
32812,Orange County,FL,NA,68.85775862068965,NA
32824,Orange County,FL,NA,NA,34.97797356828194
32836,Orange County,FL,NA,78.44827586206897,NA
32904,Brevard County,FL,NA,36.099137931034484,NA
32907,Brevard County,FL,NA,14.601293103448276,NA
32909,Brevard County,FL,NA,24.084051724137932,NA
32951,Brevard County,FL,NA,76.88577586206897,NA
32952,Brevard County,FL,NA,37.82327586206897,NA
32955,Brevard County,FL,90.95112285336856,NA,NA
32958,Indian River County,FL,58.12417437252312,NA,NA
33004,Broward County,FL,NA,61.04525862068966,NA
33010,Miami-Dade County,FL,55.482166446499335,32.38146551724138,NA
33012,Miami-Dade County,FL,NA,16.487068965517242,20.792951541850222
33014,Miami-Dade County,FL,NA,85.50646551724138,NA
33020,Broward County,FL,NA,19.342672413793103,NA
33027,Broward County,FL,NA,NA,48.458149779735685
33062,Broward County,FL,NA,20.689655172413794,NA
33063,Broward County,FL,62.87978863936592,NA,NA
33065,Broward County,FL,NA,42.564655172413794,NA
33069,Broward County,FL,NA,NA,10.13215859030837
33125,Miami-Dade County,FL,NA,28.825431034482758,NA
33127,Miami-Dade County,FL,NA,NA,65.63876651982379
33129,Miami-Dade County,FL,NA,NA,73.568281938326
33134,Miami-Dade County,FL,NA,NA,25.63876651982379
33136,Miami-Dade County,FL,NA,NA,78.32599118942731
33140,Miami-Dade County,FL,NA,NA,17.973568281938327
33142,Miami-Dade County,FL,NA,14.385775862068966,NA
33143,Miami-Dade County,FL,70.93791281373845,NA,NA
33155,Miami-Dade County,FL,NA,23.760775862068968,NA
33157,Miami-Dade County,FL,NA,NA,17.797356828193834
33158,Miami-Dade County,FL,NA,98.27586206896551,NA
33160,Miami-Dade County,FL,NA,27.532327586206897,NA
33169,Miami-Dade County,FL,NA,41.16379310344828,NA
33177,Miami-Dade County,FL,35.53500660501982,41.918103448275865,NA
33182,Miami-Dade County,FL,NA,93.42672413793103,NA
33184,Miami-Dade County,FL,87.31836195508586,NA,NA
33305,Broward County,FL,NA,NA,82.90748898678414
33309,Broward County,FL,NA,NA,87.48898678414096
33311,Broward County,FL,NA,14.76293103448276,NA
33316,Broward County,FL,NA,86.20689655172413,NA
33323,Broward County,FL,NA,67.45689655172413,NA
33328,Broward County,FL,NA,69.88146551724138,NA
33404,Palm Beach County,FL,NA,38.73922413793103,NA
33408,Palm Beach County,FL,85.79920739762218,NA,NA
33413,Palm Beach County,FL,NA,84.64439655172413,NA
33415,Palm Beach County,FL,NA,90.78663793103449,NA
33418,Palm Beach County,FL,NA,21.012931034482758,NA
33426,Palm Beach County,FL,NA,NA,44.052863436123346
33432,Palm Beach County,FL,NA,NA,23.524229074889867
33434,Palm Beach County,FL,NA,30.926724137931032,NA
33437,Palm Beach County,FL,NA,13.631465517241379,NA
33441,Broward County,FL,NA,54.14870689655172,NA
33446,Palm Beach County,FL,NA,58.13577586206896,NA
33458,Palm Beach County,FL,NA,NA,22.555066079295155
33463,Palm Beach County,FL,NA,28.771551724137932,49.60352422907489
33473,Palm Beach County,FL,NA,NA,99.73568281938327
33478,Palm Beach County,FL,NA,NA,95.68281938325991
33486,Palm Beach County,FL,NA,71.98275862068965,NA
33487,Palm Beach County,FL,82.76089828269485,NA,NA
33549,Hillsborough County,FL,NA,74.94612068965517,NA
33556,Hillsborough County,FL,NA,54.956896551724135,NA
33565,Hillsborough County,FL,NA,NA,58.6784140969163
33566,Hillsborough County,FL,NA,NA,77.70925110132158
33573,Hillsborough County,FL,NA,NA,15.066079295154186
33606,Hillsborough County,FL,NA,89.70905172413794,NA
33615,Hillsborough County,FL,51.51915455746368,24.568965517241377,NA
33629,Hillsborough County,FL,83.55350066050198,NA,NA
33703,Pinellas County,FL,NA,66.64870689655173,NA
33706,Pinellas County,FL,84.28005284015853,NA,NA
33707,Pinellas County,FL,NA,73.86853448275862,19.559471365638768
33711,Pinellas County,FL,NA,65.2478448275862,NA
33759,Pinellas County,FL,62.615587846763546,NA,43.08370044052863
33760,Pinellas County,FL,NA,66.86422413793103,NA
33764,Pinellas County,FL,NA,39.762931034482754,57.3568281938326
33773,Pinellas County,FL,NA,62.230603448275865,NA
33774,Pinellas County,FL,NA,NA,81.67400881057269
33781,Pinellas County,FL,NA,27.64008620689655,NA
33823,Polk County,FL,28.46763540290621,NA,NA
33825,Highlands County,FL,NA,10.883620689655173,16.740088105726873
33830,Polk County,FL,NA,NA,66.16740088105728
33837,Polk County,FL,NA,40.30172413793103,NA
33870,Highlands County,FL,NA,NA,8.634361233480176
33880,Polk County,FL,45.83883751651255,NA,NA
33901,Lee County,FL,NA,35.61422413793103,NA
33903,Lee County,FL,NA,74.13793103448276,NA
33904,Lee County,FL,NA,NA,4.933920704845815
33905,Lee County,FL,NA,69.55818965517241,NA
33907,Lee County,FL,67.23910171730515,NA,50.5726872246696
33908,Lee County,FL,90.81902245706736,44.019396551724135,0.4405286343612335
33913,Lee County,FL,NA,NA,75.50660792951543
33917,Lee County,FL,NA,NA,42.731277533039645
33919,Lee County,FL,NA,58.7823275862069,2.555066079295154
33928,Lee County,FL,NA,NA,51.71806167400881
33948,Charlotte County,FL,NA,63.36206896551724,77.3568281938326
33950,Charlotte County,FL,NA,22.844827586206897,NA
33957,Lee County,FL,NA,64.0625,NA
33966,Lee County,FL,NA,NA,79.73568281938326
33967,Lee County,FL,48.018494055482165,NA,NA
33974,Lee County,FL,NA,NA,99.64757709251101
33991,Lee County,FL,NA,62.661637931034484,NA
33993,Lee County,FL,NA,44.450431034482754,NA
34105,Collier County,FL,NA,61.63793103448276,NA
34112,Collier County,FL,NA,28.23275862068966,NA
34116,Collier County,FL,NA,89.0625,NA
34120,Collier County,FL,NA,34.59051724137931,NA
34135,Lee County,FL,NA,10.075431034482758,NA
34145,Collier County,FL,NA,NA,23.259911894273127
34203,Manatee County,FL,NA,NA,11.98237885462555
34221,Manatee County,FL,NA,20.09698275862069,88.45814977973568
34222,Manatee County,FL,67.56935270805813,NA,NA
34224,Charlotte County,FL,84.34610303830911,NA,NA
34228,Sarasota County,FL,NA,85.9375,NA
34238,Sarasota County,FL,NA,NA,28.370044052863435
34241,Sarasota County,FL,NA,55.54956896551724,NA
34243,Manatee County,FL,NA,17.995689655172413,5.3744493392070485
34266,DeSoto County,FL,29.260237780713343,NA,NA
34275,Sarasota County,FL,66.7107001321004,NA,NA
34285,Sarasota County,FL,NA,13.36206896551724,NA
34288,Sarasota County,FL,95.77278731836195,NA,NA
34446,Citrus County,FL,NA,49.24568965517241,NA
34453,Citrus County,FL,NA,85.39870689655173,NA
34472,Marion County,FL,NA,73.76077586206897,NA
34476,Marion County,FL,NA,29.95689655172414,59.38325991189427
34481,Marion County,FL,NA,NA,9.86784140969163
34482,Marion County,FL,80.18494055482167,53.44827586206896,NA
34613,Hernando County,FL,NA,59.428879310344826,27.665198237885463
34638,Pasco County,FL,NA,86.20689655172413,NA
34655,Pasco County,FL,NA,NA,14.713656387665196
34667,Pasco County,FL,NA,19.82758620689655,NA
34741,Osceola County,FL,NA,NA,97.97356828193833
34746,Osceola County,FL,87.25231175693527,NA,NA
34748,Lake County,FL,59.90752972258917,NA,1.145374449339207
34787,Orange County,FL,NA,NA,17.62114537444934
34952,St. Lucie County,FL,NA,5.657327586206897,NA
34974,Okeechobee County,FL,NA,31.30387931034483,NA
34984,St. Lucie County,FL,NA,66.32543103448276,NA
30002,DeKalb County,GA,97.6221928665786,NA,NA
30004,Fulton County,GA,NA,27.478448275862068,NA
30013,Rockdale County,GA,NA,53.01724137931034,NA
30014,Newton County,GA,20.607661822985467,NA,NA
30016,Newton County,GA,33.949801849405546,14.547413793103448,NA
30019,Gwinnett County,GA,NA,31.573275862068968,93.83259911894272
30024,Gwinnett County,GA,NA,17.887931034482758,NA
30025,Walton County,GA,NA,78.07112068965517,NA
30032,DeKalb County,GA,NA,NA,19.295154185022025
30034,DeKalb County,GA,NA,16.594827586206897,NA
30039,Gwinnett County,GA,31.90224570673712,NA,NA
30041,Forsyth County,GA,67.04095112285337,7.866379310344827,51.45374449339207
30043,Gwinnett County,GA,NA,58.51293103448276,41.3215859030837
30044,Gwinnett County,GA,14.332892998678995,10.29094827586207,39.118942731277535
30046,Gwinnett County,GA,80.84544253632761,44.88146551724138,NA
30047,Gwinnett County,GA,49.339498018494055,19.127155172413794,NA
30052,Walton County,GA,12.681638044914134,30.064655172413797,20.52863436123348
30058,DeKalb County,GA,NA,21.120689655172413,48.63436123348018
30062,Cobb County,GA,NA,NA,22.819383259911895
30066,Cobb County,GA,NA,NA,28.898678414096917
30067,Cobb County,GA,NA,84.10560344827587,NA
30068,Cobb County,GA,NA,49.67672413793103,NA
30071,Gwinnett County,GA,NA,83.40517241379311,NA
30075,Fulton County,GA,NA,NA,73.3920704845815
30084,DeKalb County,GA,NA,54.040948275862064,62.907488986784145
30093,Gwinnett County,GA,NA,71.55172413793103,NA
30094,Rockdale County,GA,38.0449141347424,NA,NA
30101,Cobb County,GA,20.47556142668428,NA,NA
30107,Cherokee County,GA,83.68560105680316,NA,NA
30110,Haralson County,GA,80.25099075297226,NA,NA
30116,Carroll County,GA,NA,41.810344827586206,NA
30117,Carroll County,GA,26.023778071334213,NA,NA
30120,Bartow County,GA,15.059445178335535,NA,NA
30132,Paulding County,GA,NA,78.44827586206897,NA
30134,Douglas County,GA,18.692206076618227,NA,52.863436123348016
30152,Cobb County,GA,45.508586525759576,NA,NA
30157,Paulding County,GA,NA,18.857758620689655,NA
30179,Carroll County,GA,NA,95.85129310344827,NA
30180,Carroll County,GA,NA,78.125,NA
30188,Cherokee County,GA,44.91413474240423,42.349137931034484,NA
30189,Cherokee County,GA,43.32892998678996,NA,NA
30214,Fayette County,GA,NA,NA,70.39647577092512
30215,Fayette County,GA,51.651254953764855,NA,NA
30220,Coweta County,GA,NA,90.89439655172413,NA
30236,Clayton County,GA,NA,31.51939655172414,NA
30240,Troup County,GA,19.550858652575958,NA,NA
30241,Troup County,GA,21.400264200792602,NA,NA
30252,Henry County,GA,NA,NA,64.93392070484582
30253,Henry County,GA,NA,NA,37.268722466960355
30263,Coweta County,GA,75.29722589167768,NA,NA
30265,Coweta County,GA,42.07397622192867,NA,NA
30291,Fulton County,GA,31.505944517833555,NA,NA
30295,Pike County,GA,NA,99.46120689655173,NA
30296,Clayton County,GA,NA,62.446120689655174,NA
30306,Fulton County,GA,85.7331571994716,NA,96.91629955947137
30310,Fulton County,GA,17.37120211360634,11.422413793103448,NA
30311,Fulton County,GA,10.634081902245708,NA,NA
30312,Fulton County,GA,49.735799207397626,43.372844827586206,NA
30315,Fulton County,GA,23.051519154557464,NA,NA
30316,DeKalb County,GA,NA,40.786637931034484,NA
30318,Fulton County,GA,22.126816380449142,NA,26.784140969162994
30327,Fulton County,GA,NA,61.36853448275862,54.801762114537446
30328,Fulton County,GA,56.07661822985469,NA,NA
30329,DeKalb County,GA,NA,79.14870689655173,NA
30331,Fulton County,GA,NA,5.280172413793103,NA
30349,Fulton County,GA,5.284015852047556,NA,NA
30436,Toombs County,GA,75.49537648612946,70.42025862068965,NA
30457,Treutlen County,GA,NA,NA,94.62555066079295
30458,Bulloch County,GA,NA,76.72413793103449,NA
30510,Habersham County,GA,NA,99.19181034482759,NA
30513,Fannin County,GA,NA,61.9073275862069,NA
30517,Jackson County,GA,NA,NA,89.51541850220265
30533,Lumpkin County,GA,NA,69.34267241379311,NA
30542,Hall County,GA,NA,32.165948275862064,89.69162995594714
30548,Jackson County,GA,NA,71.92887931034483,92.59911894273128
30553,Franklin County,GA,NA,78.23275862068965,NA
30557,Stephens County,GA,NA,91.43318965517241,NA
30656,Walton County,GA,53.5006605019815,NA,NA
30680,Barrow County,GA,72.45706737120211,16.217672413793103,NA
30741,Walker County,GA,14.200792602377806,NA,NA
30747,Chattooga County,GA,40.81902245706737,NA,NA
30805,Richmond County,GA,NA,99.40732758620689,NA
30809,Columbia County,GA,NA,37.015086206896555,NA
30815,Richmond County,GA,NA,9.375,NA
30817,Lincoln County,GA,94.51783355350067,82.32758620689656,NA
30824,McDuffie County,GA,NA,70.95905172413794,NA
30907,Columbia County,GA,NA,7.543103448275862,NA
30909,Richmond County,GA,NA,60.9375,NA
31015,Crisp County,GA,NA,NA,48.986784140969164
31021,Laurens County,GA,32.16644649933949,NA,NA
31024,Putnam County,GA,74.57067371202115,31.03448275862069,NA
31027,Laurens County,GA,81.43989431968296,80.33405172413794,NA
31032,Jones County,GA,NA,71.55172413793103,NA
31061,Baldwin County,GA,22.721268163804492,NA,NA
31088,Houston County,GA,NA,15.40948275862069,NA
31093,Houston County,GA,NA,NA,36.38766519823788
31211,Bibb County,GA,NA,NA,85.55066079295153
31217,Bibb County,GA,NA,NA,81.1453744493392
31220,Bibb County,GA,NA,78.60991379310344,NA
31305,McIntosh County,GA,NA,NA,98.14977973568281
31324,Bryan County,GA,73.24966974900924,NA,NA
31401,Chatham County,GA,NA,NA,87.66519823788546
31406,Chatham County,GA,NA,21.39008620689655,NA
31407,Chatham County,GA,81.24174372523117,NA,NA
31410,Chatham County,GA,NA,34.752155172413794,NA
31419,Chatham County,GA,27.410832232496695,NA,NA
31503,Ware County,GA,42.73447820343461,67.51077586206897,NA
31525,Glynn County,GA,41.809775429326294,NA,NA
31537,Charlton County,GA,56.40686922060766,NA,NA
31548,Camden County,GA,46.829590488771466,NA,NA
31602,Lowndes County,GA,NA,NA,29.33920704845815
31705,Dougherty County,GA,23.249669749009247,NA,NA
31707,Dougherty County,GA,NA,NA,43.61233480176212
31714,Turner County,GA,NA,NA,68.19383259911895
31750,Ben Hill County,GA,NA,21.65948275862069,NA
31788,Colquitt County,GA,NA,69.18103448275862,NA
31907,Muscogee County,GA,25.297225891677677,1.7780172413793105,64.58149779735682
31909,Muscogee County,GA,NA,81.35775862068965,79.29515418502203
39845,Seminole County,GA,66.11624834874505,NA,70.04405286343612
96701,Honolulu County,HI,NA,12.55387931034483,NA
96706,Honolulu County,HI,NA,36.9073275862069,NA
96734,Honolulu County,HI,NA,7.5969827586206895,NA
96741,Kauai County,HI,NA,NA,96.2114537444934
96746,Kauai County,HI,NA,59.59051724137932,NA
96756,Kauai County,HI,NA,NA,95.24229074889868
96792,Honolulu County,HI,NA,17.349137931034484,NA
96816,Honolulu County,HI,NA,61.853448275862064,NA
96817,Honolulu County,HI,NA,4.202586206896552,3.3480176211453743
96819,Honolulu County,HI,NA,9.967672413793103,NA
96821,Honolulu County,HI,NA,63.254310344827594,NA
83201,Bannock County,ID,NA,NA,29.074889867841406
83202,Bannock County,ID,NA,57.8125,NA
83204,Bannock County,ID,NA,51.88577586206896,NA
83211,Power County,ID,NA,NA,93.215859030837
83221,Bingham County,ID,21.20211360634082,NA,74.8898678414097
83274,Bingham County,ID,77.21268163804491,NA,NA
83333,Blaine County,ID,72.78731836195509,NA,NA
83338,Jerome County,ID,45.04623513870541,NA,NA
83340,Blaine County,ID,NA,92.1875,NA
83350,Minidoka County,ID,NA,NA,75.94713656387665
83401,Bonneville County,ID,NA,32.650862068965516,NA
83402,Bonneville County,ID,82.82694848084545,NA,NA
83404,Bonneville County,ID,96.96169088507266,89.97844827586206,47.31277533039648
83406,Bonneville County,ID,89.16776750330251,NA,NA
83442,Jefferson County,ID,85.40290620871862,NA,NA
83445,Fremont County,ID,98.28269484808455,NA,NA
83467,Lemhi County,ID,77.34478203434611,NA,57.268722466960355
83501,Nez Perce County,ID,NA,7.650862068965517,3.8766519823788546
83530,Idaho County,ID,NA,74.6228448275862,NA
83544,Clearwater County,ID,NA,86.47629310344827,NA
83605,Canyon County,ID,21.136063408190225,NA,NA
83607,Canyon County,ID,NA,23.868534482758623,NA
83642,Ada County,ID,NA,4.741379310344827,NA
83646,Ada County,ID,7.9920739762219295,26.34698275862069,3.0837004405286343
83647,Elmore County,ID,NA,97.35991379310344,NA
83660,Canyon County,ID,NA,89.11637931034483,NA
83686,Canyon County,ID,5.416116248348745,NA,NA
83687,Canyon County,ID,61.69088507265522,NA,40.61674008810573
83702,Ada County,ID,NA,65.30172413793103,NA
83703,Ada County,ID,NA,19.342672413793103,NA
83704,Ada County,ID,NA,36.04525862068966,NA
83706,Ada County,ID,NA,50,NA
83709,Ada County,ID,NA,2.747844827586207,NA
83713,Ada County,ID,NA,72.62931034482759,NA
83716,Ada County,ID,NA,31.627155172413797,NA
83835,Kootenai County,ID,90.22457067371202,NA,NA
60004,Cook County,IL,64.39894319682959,NA,NA
60005,Cook County,IL,NA,NA,24.75770925110132
60013,McHenry County,IL,46.697490092470275,NA,NA
60014,McHenry County,IL,NA,9.913793103448276,NA
60016,Cook County,IL,NA,NA,5.286343612334802
60020,Lake County,IL,NA,NA,70.66079295154185
60025,Cook County,IL,NA,NA,2.8193832599118944
60026,Cook County,IL,83.81770145310435,NA,NA
60030,Lake County,IL,NA,NA,67.13656387665198
60033,McHenry County,IL,NA,65.35560344827587,NA
60035,Lake County,IL,NA,NA,1.4977973568281937
60042,McHenry County,IL,73.05151915455747,NA,NA
60046,Lake County,IL,NA,NA,39.118942731277535
60050,McHenry County,IL,31.43989431968296,NA,NA
60051,McHenry County,IL,82.43064729194187,NA,30.837004405286343
60061,Lake County,IL,54.557463672391016,NA,NA
60067,Cook County,IL,NA,46.2823275862069,NA
60074,Cook County,IL,34.147952443857335,NA,NA
60077,Cook County,IL,NA,22.252155172413794,6.607929515418502
60085,Lake County,IL,56.803170409511225,NA,NA
60097,McHenry County,IL,NA,60.883620689655174,NA
60099,Lake County,IL,NA,NA,63.7885462555066
60101,DuPage County,IL,NA,NA,13.215859030837004
60110,Kane County,IL,NA,80.71120689655173,NA
60123,Kane County,IL,15.653896961690887,NA,NA
60136,Kane County,IL,90.15852047556143,NA,NA
60137,DuPage County,IL,NA,22.306034482758623,NA
60139,DuPage County,IL,69.28665785997357,NA,NA
60142,McHenry County,IL,NA,7.327586206896551,13.392070484581497
60154,Cook County,IL,70.47556142668428,NA,NA
60160,Cook County,IL,NA,96.17456896551724,NA
60164,Cook County,IL,32.496697490092465,33.24353448275862,NA
60172,DuPage County,IL,NA,33.081896551724135,NA
60174,Kane County,IL,37.31836195508586,NA,NA
60187,DuPage County,IL,NA,NA,31.541850220264315
60190,DuPage County,IL,87.45046235138706,NA,NA
60191,DuPage County,IL,NA,42.7801724137931,NA
60201,Cook County,IL,NA,NA,4.317180616740088
60401,Will County,IL,NA,70.20474137931035,NA
60406,Cook County,IL,NA,95.20474137931035,NA
60409,Cook County,IL,NA,24.94612068965517,NA
60416,Grundy County,IL,50.72655217965654,NA,69.0748898678414
60417,Will County,IL,52.57595772787318,61.79956896551724,NA
60423,Will County,IL,33.42140026420079,NA,NA
60435,Will County,IL,7.397622192866579,6.519396551724138,13.56828193832599
60439,Cook County,IL,NA,NA,20.616740088105725
60440,Will County,IL,NA,9.859913793103448,NA
60445,Cook County,IL,NA,43.103448275862064,NA
60446,Will County,IL,NA,29.74137931034483,NA
60447,Grundy County,IL,NA,65.40948275862068,NA
60452,Cook County,IL,NA,66.54094827586206,NA
60453,Cook County,IL,9.64332892998679,NA,NA
60459,Cook County,IL,27.01453104359313,NA,NA
60461,Cook County,IL,NA,84.48275862068965,NA
60464,Cook County,IL,NA,NA,58.590308370044056
60468,Will County,IL,NA,85.61422413793103,NA
60506,Kane County,IL,19.616908850726553,NA,NA
60517,DuPage County,IL,NA,NA,40.17621145374449
60523,DuPage County,IL,76.81638044914135,NA,NA
60525,Cook County,IL,17.437252311756936,9.213362068965516,NA
60540,DuPage County,IL,NA,NA,29.60352422907489
60541,Kendall County,IL,NA,99.24568965517241,NA
60544,Will County,IL,30.647291941875825,NA,NA
60546,Cook County,IL,NA,NA,37.88546255506608
60564,Will County,IL,59.577278731836195,NA,NA
60585,Will County,IL,NA,48.32974137931034,NA
60586,Will County,IL,NA,23.49137931034483,59.20704845814978
60607,Cook County,IL,NA,39.0625,NA
60608,Cook County,IL,NA,70.3125,5.814977973568282
60609,Cook County,IL,NA,11.476293103448276,15.682819383259911
60610,Cook County,IL,NA,15.463362068965516,NA
60616,Cook County,IL,NA,6.357758620689655,NA
60618,Cook County,IL,5.614266842800529,14.11637931034483,NA
60619,Cook County,IL,NA,NA,27.224669603524227
60621,Cook County,IL,57.397622192866585,NA,NA
60626,Cook County,IL,13.936591809775429,NA,NA
60628,Cook County,IL,NA,NA,2.026431718061674
60629,Cook County,IL,4.16116248348745,NA,NA
60630,Cook County,IL,NA,68.75,NA
60632,Cook County,IL,NA,NA,22.11453744493392
60638,Cook County,IL,6.67107001321004,4.9030172413793105,NA
60639,Cook County,IL,NA,NA,72.0704845814978
60640,Cook County,IL,6.0105680317040955,NA,32.77533039647577
60641,Cook County,IL,NA,11.260775862068966,NA
60643,Cook County,IL,NA,NA,5.462555066079295
60644,Cook County,IL,5.085865257595773,NA,NA
60645,Cook County,IL,29.590488771466315,NA,NA
60649,Cook County,IL,NA,5.549568965517242,79.03083700440529
60651,Cook County,IL,5.5482166446499335,NA,NA
60657,Cook County,IL,15.323645970937912,NA,NA
60914,Kankakee County,IL,26.221928665786,14.70905172413793,NA
60970,Iroquois County,IL,69.61690885072656,NA,NA
61008,Boone County,IL,26.420079260237785,NA,NA
61081,Whiteside County,IL,NA,10.614224137931034,NA
61101,Winnebago County,IL,38.57331571994716,NA,90.66079295154185
61102,Winnebago County,IL,NA,NA,69.86784140969164
61115,Winnebago County,IL,71.4663143989432,NA,NA
61240,Rock Island County,IL,NA,94.88146551724138,NA
61241,Henry County,IL,NA,NA,93.65638766519824
61254,Henry County,IL,NA,66.91810344827587,NA
61265,Rock Island County,IL,37.714663143989426,NA,64.31718061674009
61350,LaSalle County,IL,NA,NA,22.995594713656388
61354,LaSalle County,IL,NA,43.265086206896555,77.62114537444934
61356,Bureau County,IL,95.2443857331572,NA,NA
61362,Bureau County,IL,NA,83.45905172413794,NA
61443,Henry County,IL,NA,NA,18.590308370044053
61523,Peoria County,IL,81.37384412153237,NA,NA
61607,Peoria County,IL,73.71202113606341,NA,NA
61704,McLean County,IL,31.04359313077939,33.997844827586206,NA
61705,McLean County,IL,71.99471598414794,NA,NA
61738,Woodford County,IL,96.4993394980185,NA,NA
61801,Champaign County,IL,NA,NA,41.85022026431718
61920,Coles County,IL,NA,NA,71.89427312775331
61938,Coles County,IL,NA,62.877155172413794,NA
61951,Moultrie County,IL,NA,68.10344827586206,NA
62002,Madison County,IL,84.14795244385733,NA,NA
62035,Madison County,IL,NA,NA,34.18502202643172
62040,Madison County,IL,14.861294583883753,NA,NA
62049,Montgomery County,IL,NA,80.8728448275862,NA
62088,Macoupin County,IL,99.07529722589167,NA,NA
62095,Madison County,IL,75.36327608982828,NA,NA
62206,St. Clair County,IL,58.2562747688243,NA,NA
62207,St. Clair County,IL,97.35799207397622,NA,NA
62221,St. Clair County,IL,NA,67.51077586206897,NA
62226,St. Clair County,IL,35.006605019815055,NA,NA
62230,Clinton County,IL,NA,87.39224137931035,NA
62234,Madison County,IL,NA,NA,19.823788546255507
62236,Monroe County,IL,95.3104359313078,NA,NA
62254,St. Clair County,IL,NA,99.08405172413794,NA
62258,St. Clair County,IL,NA,86.20689655172413,NA
62305,Adams County,IL,NA,51.02370689655172,NA
62363,Pike County,IL,NA,NA,65.63876651982379
62522,Macon County,IL,NA,42.7801724137931,NA
62526,Macon County,IL,NA,4.525862068965517,60.61674008810572
62615,Sangamon County,IL,NA,97.57543103448276,NA
62626,Macoupin County,IL,NA,NA,39.82378854625551
62650,Morgan County,IL,72.19286657859973,84.375,NA
62675,Menard County,IL,NA,92.13362068965517,NA
62703,Sangamon County,IL,NA,21.336206896551722,NA
62707,Sangamon County,IL,NA,NA,99.91189427312776
62806,Edwards County,IL,98.48084544253632,NA,NA
62832,Perry County,IL,NA,NA,42.99559471365639
62839,Clay County,IL,NA,69.88146551724138,NA
62859,Hamilton County,IL,94.18758256274768,NA,NA
62960,Massac County,IL,NA,NA,87.84140969162996
46001,Madison County,IN,NA,52.370689655172406,NA
46011,Madison County,IN,NA,15.301724137931034,32.51101321585903
46012,Madison County,IN,30.58124174372523,NA,NA
46013,Madison County,IN,NA,14.00862068965517,63.259911894273124
46017,Madison County,IN,66.77675033025099,NA,NA
46032,Hamilton County,IN,NA,49.67672413793103,NA
46033,Hamilton County,IN,78.5997357992074,22.306034482758623,NA
46037,Hamilton County,IN,NA,28.39439655172414,NA
46038,Hamilton County,IN,NA,44.396551724137936,NA
46041,Clinton County,IN,26.55217965653897,NA,NA
46055,Hancock County,IN,NA,86.36853448275862,NA
46060,Hamilton County,IN,NA,20.474137931034484,NA
46062,Hamilton County,IN,86.45970937912814,NA,NA
46064,Madison County,IN,NA,NA,93.92070484581497
46077,Boone County,IN,NA,57.38146551724138,NA
46107,Marion County,IN,49.60369881109643,NA,NA
46112,Hendricks County,IN,NA,NA,26.25550660792951
46113,Marion County,IN,NA,64.00862068965517,NA
46122,Hendricks County,IN,71.334214002642,63.20043103448276,NA
46131,Johnson County,IN,NA,54.47198275862068,NA
46135,Putnam County,IN,56.60501981505944,NA,NA
46142,Johnson County,IN,NA,36.422413793103445,NA
46143,Johnson County,IN,17.635402906208718,NA,NA
46151,Morgan County,IN,48.150594451783356,NA,NA
46167,Hendricks County,IN,NA,91.21767241379311,NA
46168,Hendricks County,IN,NA,44.127155172413794,NA
46176,Shelby County,IN,NA,81.89655172413794,NA
46201,Marion County,IN,13.143989431968295,NA,NA
46203,Marion County,IN,NA,NA,23.43612334801762
46214,Marion County,IN,NA,36.853448275862064,69.2511013215859
46220,Marion County,IN,NA,NA,44.58149779735683
46222,Marion County,IN,NA,NA,54.008810572687224
46226,Marion County,IN,NA,59.428879310344826,NA
46227,Marion County,IN,6.605019815059446,3.6099137931034484,NA
46234,Marion County,IN,NA,71.76724137931035,NA
46235,Marion County,IN,NA,59.59051724137932,NA
46240,Marion County,IN,NA,64.33189655172413,NA
46241,Marion County,IN,NA,27.101293103448278,NA
46250,Marion County,IN,NA,56.14224137931034,NA
46268,Marion County,IN,NA,NA,26.519823788546255
46303,Lake County,IN,NA,81.08836206896551,NA
46307,Lake County,IN,NA,10.775862068965516,15.418502202643172
46310,Jasper County,IN,43.196829590488775,NA,NA
46322,Lake County,IN,18.295904887714663,79.6875,9.427312775330396
46342,Lake County,IN,NA,77.7478448275862,NA
46350,LaPorte County,IN,26.882430647291944,NA,NA
46360,LaPorte County,IN,36.327608982826945,NA,NA
46366,Starke County,IN,NA,95.09698275862068,NA
46368,Porter County,IN,11.29458388375165,26.50862068965517,NA
46383,Porter County,IN,NA,21.551724137931032,NA
46391,LaPorte County,IN,NA,82.75862068965517,NA
46410,Lake County,IN,4.7556142668428,NA,NA
46514,Elkhart County,IN,22.85336856010568,NA,NA
46528,Elkhart County,IN,NA,64.97844827586206,NA
46544,St. Joseph County,IN,67.43725231175694,NA,NA
46552,St. Joseph County,IN,91.08322324966976,NA,NA
46563,Marshall County,IN,33.55350066050198,NA,NA
46614,St. Joseph County,IN,48.67899603698811,NA,NA
46617,St. Joseph County,IN,97.55614266842801,NA,NA
46701,Noble County,IN,NA,64.97844827586206,NA
46714,Wells County,IN,NA,71.33620689655173,NA
46725,Whitley County,IN,23.513870541611624,NA,NA
46733,Adams County,IN,NA,39.17025862068966,NA
46750,Huntington County,IN,14.134742404227213,NA,19.20704845814978
46777,Wells County,IN,NA,NA,91.27753303964758
46805,Allen County,IN,25.891677675033026,NA,NA
46808,Allen County,IN,25.429326287978864,NA,NA
46815,Allen County,IN,25.825627476882428,NA,NA
46818,Allen County,IN,32.76089828269485,NA,NA
46835,Allen County,IN,NA,NA,22.643171806167402
46902,Howard County,IN,14.663143989431967,2.0474137931034484,NA
46952,Grant County,IN,NA,3.771551724137931,NA
46970,Miami County,IN,NA,16.002155172413794,28.28193832599119
46996,Pulaski County,IN,68.75825627476883,NA,NA
47012,Franklin County,IN,NA,77.37068965517241,NA
47043,Switzerland County,IN,NA,97.09051724137932,NA
47129,Clark County,IN,NA,41.325431034482754,NA
47130,Clark County,IN,NA,NA,28.01762114537445
47167,Washington County,IN,41.611624834874505,NA,NA
47201,Bartholomew County,IN,NA,82.86637931034483,NA
47240,Decatur County,IN,80.71334214002643,NA,22.378854625550662
47250,Jefferson County,IN,89.89431968295905,79.04094827586206,NA
47274,Jackson County,IN,NA,24.299568965517242,25.37444933920705
47302,Delaware County,IN,NA,25.21551724137931,NA
47304,Delaware County,IN,NA,33.297413793103445,NA
47320,Delaware County,IN,99.60369881109644,NA,NA
47331,Fayette County,IN,65.19154557463672,NA,NA
47348,Blackford County,IN,55.01981505944518,NA,NA
47356,Henry County,IN,NA,NA,82.02643171806167
47362,Henry County,IN,NA,8.028017241379311,NA
47374,Wayne County,IN,NA,38.577586206896555,NA
47394,Randolph County,IN,NA,80.54956896551724,NA
47424,Greene County,IN,83.35535006605019,NA,NA
47433,Owen County,IN,96.76354029062088,NA,NA
47460,Owen County,IN,NA,64.97844827586206,NA
47501,Daviess County,IN,NA,NA,18.325991189427313
47546,Dubois County,IN,71.66446499339499,NA,NA
47553,Martin County,IN,79.52443857331572,NA,NA
47601,Warrick County,IN,50.46235138705416,65.94827586206897,38.06167400881058
47610,Warrick County,IN,87.0541611624835,NA,NA
47630,Warrick County,IN,NA,50,NA
47635,Spencer County,IN,NA,90.94827586206897,NA
47665,Gibson County,IN,NA,100,NA
47670,Gibson County,IN,92.99867899603699,NA,64.22907488986785
47712,Vanderburgh County,IN,NA,81.57327586206897,NA
47714,Vanderburgh County,IN,82.23249669749009,NA,78.23788546255507
47715,Vanderburgh County,IN,NA,30.872844827586203,NA
47802,Vigo County,IN,NA,31.896551724137932,NA
47804,Vigo County,IN,NA,62.877155172413794,NA
47805,Vigo County,IN,NA,98.22198275862068,NA
47842,Vermillion County,IN,NA,59.859913793103445,NA
47904,Tippecanoe County,IN,NA,66.10991379310344,NA
47905,Tippecanoe County,IN,NA,NA,46.25550660792951
47932,Fountain County,IN,NA,NA,80.70484581497797
47978,Jasper County,IN,NA,83.94396551724138,NA
50009,Polk County,IA,NA,95.95905172413794,NA
50010,Story County,IA,NA,NA,64.84581497797357
50036,Boone County,IA,NA,44.28879310344828,73.03964757709251
50111,Polk County,IA,NA,NA,95.50660792951543
50311,Polk County,IA,NA,NA,98.32599118942731
50316,Polk County,IA,33.751651254953764,NA,NA
50317,Polk County,IA,NA,71.22844827586206,NA
50501,Webster County,IA,NA,61.47629310344828,NA
50613,Black Hawk County,IA,40.422721268163805,37.06896551724138,NA
50677,Bremer County,IA,NA,56.46551724137932,NA
50701,Black Hawk County,IA,NA,18.211206896551722,11.45374449339207
50702,Black Hawk County,IA,63.408190224570674,NA,NA
50703,Black Hawk County,IA,NA,23.65301724137931,NA
51001,Plymouth County,IA,NA,99.89224137931035,NA
51054,Woodbury County,IA,94.58388375165126,NA,NA
51104,Woodbury County,IA,36.78996036988111,NA,NA
51105,Woodbury County,IA,NA,81.51939655172413,NA
51501,Pottawattamie County,IA,12.747688243064728,7.112068965517242,NA
51576,Pottawattamie County,IA,98.15059445178336,NA,NA
52001,Dubuque County,IA,NA,51.293103448275865,NA
52003,Dubuque County,IA,NA,84.64439655172413,NA
52246,Johnson County,IA,NA,55.980603448275865,NA
52302,Linn County,IA,44.18758256274769,NA,35.947136563876654
52402,Linn County,IA,NA,52.855603448275865,29.427312775330392
52403,Linn County,IA,NA,31.35775862068966,NA
52404,Linn County,IA,NA,12.5,25.198237885462554
52501,Wapello County,IA,NA,NA,24.405286343612335
52537,Davis County,IA,NA,68.85775862068965,NA
52544,Appanoose County,IA,NA,NA,42.6431718061674
52577,Mahaska County,IA,30.05284015852048,NA,NA
52601,Des Moines County,IA,33.68560105680317,NA,NA
52641,Henry County,IA,63.0779392338177,NA,NA
52722,Scott County,IA,NA,87.1228448275862,NA
52732,Clinton County,IA,16.18229854689564,NA,37.44493392070485
52748,Scott County,IA,NA,95.52801724137932,NA
52803,Scott County,IA,28.20343461030383,44.450431034482754,NA
66002,Atchison County,KS,65.25759577278731,NA,NA
66025,Douglas County,KS,NA,NA,89.2511013215859
66043,Leavenworth County,KS,NA,NA,87.9295154185022
66044,Douglas County,KS,57.133421400264204,NA,NA
66047,Douglas County,KS,NA,NA,97.26872246696036
66048,Leavenworth County,KS,NA,95.3125,NA
66071,Miami County,KS,NA,74.03017241379311,NA
66083,Johnson County,KS,65.78599735799207,94.01939655172413,NA
66104,Wyandotte County,KS,NA,81.84267241379311,NA
66109,Wyandotte County,KS,NA,NA,63.17180616740088
66206,Johnson County,KS,NA,NA,98.94273127753304
66209,Johnson County,KS,NA,34.859913793103445,NA
66210,Johnson County,KS,NA,57.866379310344826,NA
66215,Johnson County,KS,NA,81.46551724137932,NA
66221,Johnson County,KS,NA,NA,84.40528634361235
66223,Johnson County,KS,NA,78.77155172413794,NA
66441,Geary County,KS,NA,82.38146551724138,NA
66611,Shawnee County,KS,84.21400264200793,NA,NA
66614,Shawnee County,KS,56.671070013210034,NA,12.158590308370044
66713,Cherokee County,KS,NA,NA,52.158590308370044
66749,Allen County,KS,66.77675033025099,NA,NA
67005,Cowley County,KS,NA,64.4396551724138,NA
67114,Harvey County,KS,69.35270805812418,NA,NA
67205,Sedgwick County,KS,NA,NA,87.31277533039648
67214,Sedgwick County,KS,NA,93.21120689655173,NA
67217,Sedgwick County,KS,NA,68.21120689655173,NA
67301,Montgomery County,KS,NA,65.46336206896551,NA
67401,Saline County,KS,NA,NA,15.242290748898679
67432,Clay County,KS,NA,NA,79.11894273127753
67473,Osborne County,KS,NA,93.04956896551724,NA
67801,Ford County,KS,NA,NA,73.30396475770925
67880,Grant County,KS,NA,NA,95.59471365638767
40004,Nelson County,KY,41.479524438573314,NA,NA
40008,Nelson County,KY,NA,97.57543103448276,NA
40023,Jefferson County,KY,91.01717305151915,NA,NA
40031,Oldham County,KY,25.23117569352708,NA,NA
40033,Marion County,KY,NA,58.728448275862064,NA
40162,Hardin County,KY,NA,88.79310344827587,NA
40206,Jefferson County,KY,57.992073976221924,NA,NA
40207,Jefferson County,KY,NA,25.969827586206897,NA
40210,Jefferson County,KY,NA,NA,93.568281938326
40216,Jefferson County,KY,NA,8.405172413793103,NA
40217,Jefferson County,KY,62.219286657859975,NA,NA
40223,Jefferson County,KY,NA,36.637931034482754,NA
40228,Jefferson County,KY,80.77939233817702,NA,NA
40241,Jefferson County,KY,41.94187582562748,NA,NA
40245,Jefferson County,KY,67.70145310435932,NA,NA
40258,Jefferson County,KY,73.8441215323646,30.603448275862068,40.17621145374449
40272,Jefferson County,KY,NA,11.85344827586207,NA
40299,Jefferson County,KY,27.675033025099076,NA,NA
40312,Powell County,KY,73.51387054161162,NA,NA
40324,Scott County,KY,87.97886393659181,49.56896551724138,NA
40330,Mercer County,KY,43.59313077939234,73.27586206896551,NA
40353,Montgomery County,KY,NA,23.060344827586206,NA
40356,Jessamine County,KY,35.402906208718626,NA,NA
40361,Bourbon County,KY,74.83487450462351,NA,NA
40380,Powell County,KY,97.09379128137384,NA,NA
40383,Woodford County,KY,NA,NA,55.41850220264317
40391,Clark County,KY,NA,36.74568965517241,NA
40403,Madison County,KY,62.021136063408186,NA,NA
40422,Boyle County,KY,38.837516512549534,NA,90.04405286343612
40444,Garrard County,KY,NA,93.85775862068965,NA
40475,Madison County,KY,NA,6.842672413793103,NA
40484,Lincoln County,KY,58.98282694848085,NA,NA
40503,Fayette County,KY,NA,NA,90.39647577092511
40511,Fayette County,KY,92.7344782034346,NA,NA
40701,Whitley County,KY,68.49405548216644,NA,NA
40962,Clay County,KY,13.34214002642008,NA,NA
40965,Bell County,KY,NA,23.4375,NA
41008,Carroll County,KY,88.37516512549539,NA,91.18942731277532
41011,Kenton County,KY,NA,NA,39.735682819383264
41015,Kenton County,KY,20.409511228533685,NA,NA
41040,Pendleton County,KY,56.20871862615587,NA,NA
41056,Mason County,KY,NA,56.519396551724135,NA
41101,Boyd County,KY,12.021136063408191,92.83405172413794,NA
41139,Greenup County,KY,62.87978863936592,NA,NA
41164,Carter County,KY,55.680317040951124,26.61637931034483,NA
41179,Lewis County,KY,50.72655217965654,NA,NA
41472,Morgan County,KY,86.12945838837517,NA,NA
41501,Pike County,KY,NA,NA,94.27312775330397
41653,Floyd County,KY,NA,NA,32.0704845814978
42001,McCracken County,KY,52.3117569352708,47.41379310344828,NA
42003,McCracken County,KY,10.171730515191546,NA,NA
42071,Calloway County,KY,77.54293262879789,NA,35.24229074889868
42103,Warren County,KY,NA,NA,88.81057268722466
42127,Barren County,KY,NA,NA,99.38325991189427
42141,Barren County,KY,NA,NA,7.400881057268722
42164,Allen County,KY,NA,47.4676724137931,NA
42303,Daviess County,KY,57.79392338177014,NA,NA
42327,McLean County,KY,NA,96.98275862068965,NA
42345,Muhlenberg County,KY,NA,NA,54.18502202643172
42347,Ohio County,KY,NA,84.32112068965517,NA
42420,Henderson County,KY,NA,8.72844827586207,NA
42431,Hopkins County,KY,16.974900924702773,NA,NA
42437,Union County,KY,86.98811096433289,NA,NA
42701,Hardin County,KY,31.638044914134746,NA,NA
42743,Green County,KY,81.70409511228533,NA,NA
70005,Jefferson Parish,LA,NA,NA,5.110132158590308
70056,Jefferson Parish,LA,NA,97.89870689655173,NA
70065,Jefferson Parish,LA,NA,1.5625,2.290748898678414
70068,St. John the Baptist Parish,LA,NA,NA,24.75770925110132
70072,Jefferson Parish,LA,0.59445178335535,NA,NA
70094,Jefferson Parish,LA,NA,11.045258620689655,NA
70122,Orleans Parish,LA,3.6988110964332894,NA,NA
70125,Orleans Parish,LA,74.30647291941875,NA,NA
70127,Orleans Parish,LA,NA,NA,61.14537444933921
70339,Assumption Parish,LA,66.44649933949802,NA,NA
70346,Ascension Parish,LA,38.24306472919419,58.02801724137932,NA
70363,Terrebonne Parish,LA,NA,83.51293103448276,33.92070484581498
70364,Terrebonne Parish,LA,4.887714663143989,51.77801724137932,NA
70401,Tangipahoa Parish,LA,NA,61.099137931034484,NA
70403,Tangipahoa Parish,LA,NA,22.14439655172414,NA
70426,Washington Parish,LA,NA,NA,93.03964757709251
70433,St. Tammany Parish,LA,NA,NA,3.1718061674008813
70435,St. Tammany Parish,LA,14.72919418758256,NA,63.87665198237885
70437,St. Tammany Parish,LA,50,NA,NA
70438,Washington Parish,LA,NA,NA,12.422907488986784
70446,Tangipahoa Parish,LA,NA,98.92241379310344,NA
70452,St. Tammany Parish,LA,79.06208718626155,NA,NA
70458,St. Tammany Parish,LA,NA,1.9396551724137931,NA
70462,Livingston Parish,LA,48.94319682959049,NA,NA
70466,Tangipahoa Parish,LA,71.4002642007926,NA,NA
70471,St. Tammany Parish,LA,NA,83.78232758620689,NA
70503,Lafayette Parish,LA,NA,NA,33.74449339207048
70506,Lafayette Parish,LA,NA,NA,20.26431718061674
70507,Lafayette Parish,LA,NA,39.27801724137931,NA
70508,Lafayette Parish,LA,NA,64.27801724137932,NA
70512,St. Landry Parish,LA,NA,65.46336206896551,NA
70517,St. Martin Parish,LA,NA,13.685344827586206,NA
70518,Lafayette Parish,LA,40.4887714663144,NA,72.86343612334801
70520,Lafayette Parish,LA,NA,37.93103448275862,NA
70526,Acadia Parish,LA,NA,57.27370689655172,NA
70535,St. Landry Parish,LA,77.4768824306473,NA,24.58149779735683
70538,St. Mary Parish,LA,NA,72.84482758620689,NA
70546,Jefferson Davis Parish,LA,NA,51.45474137931034,NA
70554,Evangeline Parish,LA,NA,73.16810344827587,NA
70570,St. Landry Parish,LA,0.726552179656539,NA,NA
70578,Acadia Parish,LA,16.314398943196828,NA,NA
70583,Lafayette Parish,LA,39.16776750330251,NA,NA
70586,Evangeline Parish,LA,NA,29.47198275862069,NA
70605,Calcasieu Parish,LA,12.813738441215325,NA,NA
70633,Calcasieu Parish,LA,79.7886393659181,NA,NA
70663,Calcasieu Parish,LA,5.48216644649934,15.517241379310345,NA
70669,Calcasieu Parish,LA,NA,55.11853448275862,NA
70706,Livingston Parish,LA,NA,NA,97.00440528634361
70722,East Feliciana Parish,LA,68.03170409511229,NA,NA
70726,Livingston Parish,LA,0.9247027741083224,NA,NA
70737,Ascension Parish,LA,60.898282694848085,NA,65.1101321585903
70767,West Baton Rouge Parish,LA,NA,59.105603448275865,94.97797356828194
70769,Ascension Parish,LA,NA,29.90301724137931,NA
70770,East Baton Rouge Parish,LA,NA,99.83836206896551,NA
70788,Iberville Parish,LA,NA,NA,99.82378854625551
70791,East Baton Rouge Parish,LA,34.94055482166446,NA,NA
70807,East Baton Rouge Parish,LA,NA,55.441810344827594,NA
70808,East Baton Rouge Parish,LA,NA,NA,74.27312775330397
70809,East Baton Rouge Parish,LA,NA,40.894396551724135,NA
70815,East Baton Rouge Parish,LA,54.22721268163805,NA,NA
70817,East Baton Rouge Parish,LA,NA,41.86422413793103,NA
71037,Bossier Parish,LA,NA,44.18103448275862,NA
71047,Caddo Parish,LA,NA,41.540948275862064,NA
71055,Webster Parish,LA,NA,NA,48.1057268722467
71103,Caddo Parish,LA,43.59313077939234,NA,NA
71105,Caddo Parish,LA,NA,NA,71.45374449339207
71106,Caddo Parish,LA,NA,8.782327586206897,NA
71108,Caddo Parish,LA,NA,NA,73.12775330396477
71109,Caddo Parish,LA,NA,18.426724137931032,NA
71111,Bossier Parish,LA,NA,39.0625,NA
71115,Caddo Parish,LA,NA,79.36422413793103,NA
71118,Caddo Parish,LA,NA,NA,48.28193832599119
71119,Caddo Parish,LA,NA,95.74353448275862,NA
71202,Ouachita Parish,LA,NA,NA,43.87665198237885
71225,Ouachita Parish,LA,60.17173051519155,NA,NA
71263,West Carroll Parish,LA,NA,NA,50.308370044052865
71269,Richland Parish,LA,NA,71.76724137931035,NA
71291,Ouachita Parish,LA,NA,NA,18.94273127753304
71295,Franklin Parish,LA,NA,75.75431034482759,NA
71327,Avoyelles Parish,LA,91.34742404227212,NA,NA
71360,Rapides Parish,LA,NA,20.150862068965516,NA
71409,Rapides Parish,LA,94.0554821664465,93.31896551724138,NA
71446,Vernon Parish,LA,47.09379128137384,29.57974137931034,NA
71483,Winn Parish,LA,NA,61.691810344827594,NA
03901,York County,ME,NA,75.43103448275862,NA
04005,York County,ME,NA,2.9633620689655173,NA
04046,York County,ME,NA,NA,65.02202643171806
04090,York County,ME,NA,23.060344827586206,NA
04103,Cumberland County,ME,NA,15.732758620689655,NA
04105,Cumberland County,ME,NA,72.09051724137932,NA
04106,Cumberland County,ME,27.939233817701453,NA,NA
04107,Cumberland County,ME,91.7437252311757,NA,NA
04280,Androscoggin County,ME,99.47159841479525,NA,NA
04330,Kennebec County,ME,NA,25.377155172413797,NA
04364,Kennebec County,ME,46.76354029062087,NA,NA
04412,Penobscot County,ME,NA,64.76293103448276,NA
04444,Penobscot County,ME,65.85204755614267,NA,NA
04572,Lincoln County,ME,57.52972258916776,NA,NA
04730,Aroostook County,ME,NA,70.79741379310344,NA
04901,Kennebec County,ME,3.4346103038309117,NA,NA
04967,Somerset County,ME,NA,97.79094827586206,NA
04976,Somerset County,ME,10.766182298546896,NA,NA
20650,St. Mary's County,MD,88.96961690885072,NA,NA
20653,St. Mary's County,MD,NA,69.28879310344827,NA
20685,Calvert County,MD,NA,88.25431034482759,NA
20705,Prince George's County,MD,NA,63.900862068965516,NA
20708,Prince George's County,MD,NA,86.53017241379311,NA
20715,Prince George's County,MD,NA,65.19396551724138,NA
20732,Calvert County,MD,98.41479524438573,NA,NA
20735,Prince George's County,MD,NA,58.83620689655172,NA
20745,Prince George's County,MD,NA,NA,82.29074889867842
20747,Prince George's County,MD,NA,51.34698275862068,NA
20772,Prince George's County,MD,NA,72.95258620689656,NA
20872,Montgomery County,MD,NA,98.16810344827587,NA
20874,Montgomery County,MD,NA,51.45474137931034,NA
20878,Montgomery County,MD,80.38309114927344,NA,NA
20886,Montgomery County,MD,66.05019815059445,NA,NA
20904,Montgomery County,MD,48.414795244385736,NA,NA
20910,Montgomery County,MD,NA,71.4978448275862,NA
21014,Harford County,MD,32.95904887714663,NA,NA
21030,Baltimore County,MD,60.634081902245704,NA,NA
21042,Howard County,MD,58.91677675033024,NA,NA
21043,Howard County,MD,NA,67.72629310344827,NA
21050,Harford County,MD,NA,NA,61.3215859030837
21061,Anne Arundel County,MD,NA,NA,18.237885462555067
21085,Harford County,MD,61.030383091149275,NA,NA
21122,Anne Arundel County,MD,24.834874504623514,NA,NA
21144,Anne Arundel County,MD,47.35799207397623,NA,NA
21215,Baltimore city,MD,NA,52.1551724137931,NA
21217,Baltimore city,MD,45.376486129458385,NA,NA
21222,Baltimore County,MD,NA,62.39224137931034,NA
21226,Anne Arundel County,MD,93.06472919418758,NA,NA
21236,Baltimore County,MD,31.770145310435932,NA,NA
21239,Baltimore city,MD,NA,14.27801724137931,NA
21502,Allegany County,MD,17.569352708058126,NA,NA
21550,Garrett County,MD,NA,34.91379310344828,NA
21629,Caroline County,MD,96.4332892998679,NA,NA
21702,Frederick County,MD,90.29062087186261,NA,NA
21742,Washington County,MD,NA,60.021551724137936,NA
21811,Worcester County,MD,46.49933949801849,NA,14.801762114537445
01002,Hampshire County,MA,NA,43.53448275862069,NA
01020,Hampden County,MA,NA,NA,10.220264317180616
01069,Hampden County,MA,NA,NA,62.731277533039645
01082,Hampshire County,MA,NA,28.987068965517242,NA
01104,Hampden County,MA,NA,6.573275862068965,NA
01109,Hampden County,MA,NA,NA,6.079295154185022
01129,Hampden County,MA,NA,48.00646551724138,NA
01201,Berkshire County,MA,NA,74.19181034482759,21.409691629955947
01220,Berkshire County,MA,NA,31.788793103448278,NA
01230,Berkshire County,MA,NA,NA,54.44933920704845
01267,Berkshire County,MA,NA,NA,93.48017621145375
01301,Franklin County,MA,31.241743725231174,NA,NA
01331,Worcester County,MA,3.2364597093791283,NA,31.629955947136562
01364,Franklin County,MA,NA,15.894396551724139,NA
01432,Middlesex County,MA,NA,NA,87.13656387665199
01440,Worcester County,MA,1.0568031704095113,5.711206896551724,NA
01450,Middlesex County,MA,58.190224570673706,86.96120689655173,NA
01464,Middlesex County,MA,NA,54.310344827586206,NA
01510,Worcester County,MA,NA,75.53879310344827,NA
01520,Worcester County,MA,NA,42.133620689655174,NA
01527,Worcester County,MA,NA,NA,63.87665198237885
01532,Worcester County,MA,39.03566710700132,NA,NA
01550,Worcester County,MA,49.07529722589168,1.7241379310344827,NA
01570,Worcester County,MA,NA,17.510775862068968,NA
01571,Worcester County,MA,NA,51.23922413793104,NA
01602,Worcester County,MA,NA,NA,53.74449339207048
01609,Worcester County,MA,NA,57.2198275862069,NA
01702,Middlesex County,MA,0.6605019815059445,3.1788793103448274,NA
01749,Middlesex County,MA,NA,28.717672413793103,NA
01754,Middlesex County,MA,NA,45.689655172413794,NA
01757,Worcester County,MA,1.3870541611624834,NA,NA
01775,Middlesex County,MA,NA,80.28017241379311,NA
01776,Middlesex County,MA,NA,NA,52.59911894273128
01778,Middlesex County,MA,NA,39.38577586206897,NA
01801,Middlesex County,MA,0.5284015852047557,NA,NA
01803,Middlesex County,MA,NA,NA,1.4096916299559472
01835,Essex County,MA,54.29326287978864,NA,NA
01840,Essex County,MA,82.29854689564068,NA,NA
01841,Essex County,MA,NA,0.10775862068965517,NA
01844,Essex County,MA,42.998678996036986,35.668103448275865,NA
01850,Middlesex County,MA,NA,13.84698275862069,73.48017621145374
01851,Middlesex County,MA,NA,NA,17.885462555066077
01860,Essex County,MA,NA,NA,82.29074889867842
01863,Middlesex County,MA,43.92338177014531,NA,NA
01886,Middlesex County,MA,NA,24.137931034482758,NA
01890,Middlesex County,MA,NA,NA,39.82378854625551
01913,Essex County,MA,NA,6.0344827586206895,NA
01930,Essex County,MA,NA,4.6875,NA
01945,Essex County,MA,NA,NA,24.05286343612335
01950,Essex County,MA,NA,68.80387931034483,NA
01969,Essex County,MA,NA,90.51724137931035,NA
01982,Essex County,MA,NA,77.26293103448276,NA
02021,Norfolk County,MA,NA,57.59698275862068,5.726872246696035
02038,Norfolk County,MA,8.784676354029063,90.2478448275862,NA
02072,Norfolk County,MA,5.812417437252312,5.010775862068965,NA
02090,Norfolk County,MA,NA,NA,84.05286343612335
02119,Suffolk County,MA,7.7278731836195504,NA,NA
02120,Suffolk County,MA,NA,11.530172413793103,NA
02121,Suffolk County,MA,NA,0.16163793103448276,NA
02124,Suffolk County,MA,1.321003963011889,NA,0.5286343612334802
02131,Suffolk County,MA,NA,NA,1.9383259911894273
02135,Suffolk County,MA,2.7080581241743724,NA,NA
02148,Middlesex County,MA,NA,NA,6.343612334801763
02151,Suffolk County,MA,0.8586525759577279,0,NA
02155,Middlesex County,MA,0.26420079260237783,NA,0.2643171806167401
02184,Norfolk County,MA,NA,NA,5.991189427312775
02186,Norfolk County,MA,NA,NA,15.594713656387665
02301,Plymouth County,MA,0.13210039630118892,0.05387931034482758,NA
02302,Plymouth County,MA,0.4623513870541612,NA,NA
02322,Norfolk County,MA,NA,94.39655172413794,NA
02333,Plymouth County,MA,24.30647291941876,NA,NA
02351,Plymouth County,MA,NA,68.53448275862068,NA
02356,Bristol County,MA,NA,82.11206896551724,NA
02446,Norfolk County,MA,NA,3.9870689655172415,NA
02452,Middlesex County,MA,NA,NA,44.052863436123346
02472,Middlesex County,MA,NA,96.44396551724138,NA
02478,Middlesex County,MA,NA,NA,31.80616740088106
02492,Norfolk County,MA,NA,20.635775862068968,NA
02554,Nantucket County,MA,NA,43.911637931034484,59.03083700440529
02559,Barnstable County,MA,NA,NA,73.74449339207048
02568,Dukes County,MA,NA,33.62068965517241,NA
02571,Plymouth County,MA,34.67635402906209,NA,NA
02576,Plymouth County,MA,51.12285336856011,NA,NA
02631,Barnstable County,MA,NA,38.362068965517246,NA
02632,Barnstable County,MA,NA,NA,30.7488986784141
02648,Barnstable County,MA,NA,57.48922413793104,NA
02657,Barnstable County,MA,NA,98.76077586206897,NA
02673,Barnstable County,MA,NA,NA,88.19383259911893
02675,Barnstable County,MA,NA,63.4698275862069,NA
02703,Bristol County,MA,0.19815059445178335,NA,NA
02719,Bristol County,MA,NA,NA,83.70044052863436
02721,Bristol County,MA,2.8401585204755615,NA,NA
02740,Bristol County,MA,NA,2.101293103448276,0
02744,Bristol County,MA,NA,99.6228448275862,NA
02745,Bristol County,MA,35.99735799207397,NA,74.44933920704845
02746,Bristol County,MA,69.0885072655218,NA,NA
02748,Bristol County,MA,NA,44.77370689655172,NA
02760,Bristol County,MA,NA,7.758620689655173,NA
02771,Bristol County,MA,NA,38.03879310344828,NA
02777,Bristol County,MA,NA,9.267241379310345,NA
02780,Bristol County,MA,0,NA,NA
48001,St. Clair County,MI,NA,91.91810344827587,72.68722466960352
48003,Lapeer County,MI,81.10964332892999,NA,NA
48017,Oakland County,MI,NA,NA,62.46696035242291
48025,Oakland County,MI,NA,NA,58.32599118942732
48026,Macomb County,MI,NA,65.46336206896551,NA
48040,St. Clair County,MI,NA,NA,76.91629955947137
48043,Macomb County,MI,24.702774108322327,NA,NA
48044,Macomb County,MI,NA,NA,18.06167400881057
48045,Macomb County,MI,NA,60.452586206896555,NA
48051,Macomb County,MI,NA,28.933189655172413,NA
48075,Oakland County,MI,24.240422721268164,NA,57.09251101321586
48076,Oakland County,MI,NA,18.96551724137931,NA
48081,Macomb County,MI,NA,17.618534482758623,NA
48089,Macomb County,MI,24.76882430647292,NA,NA
48091,Macomb County,MI,21.532364597093792,11.045258620689655,NA
48092,Macomb County,MI,NA,15.57112068965517,NA
48093,Macomb County,MI,42.20607661822985,NA,15.770925110132158
48103,Washtenaw County,MI,10.23778071334214,0.5926724137931034,NA
48105,Washtenaw County,MI,NA,NA,33.56828193832599
48108,Washtenaw County,MI,30.449141347424042,NA,NA
48111,Wayne County,MI,NA,24.622844827586206,NA
48114,Livingston County,MI,NA,19.989224137931032,48.72246696035242
48118,Washtenaw County,MI,NA,25.43103448275862,NA
48122,Wayne County,MI,NA,97.03663793103449,NA
48126,Wayne County,MI,NA,31.950431034482758,NA
48128,Wayne County,MI,NA,NA,74.00881057268722
48138,Wayne County,MI,NA,88.20043103448276,NA
48141,Wayne County,MI,25.69352708058124,11.637931034482758,NA
48152,Wayne County,MI,NA,NA,33.65638766519824
48158,Washtenaw County,MI,64.99339498018493,NA,NA
48160,Washtenaw County,MI,NA,47.036637931034484,NA
48164,Wayne County,MI,62.15323645970938,NA,NA
48170,Wayne County,MI,NA,NA,1.8502202643171806
48176,Washtenaw County,MI,32.826948480845445,NA,NA
48178,Oakland County,MI,NA,8.943965517241379,NA
48180,Wayne County,MI,NA,NA,1.6740088105726871
48182,Monroe County,MI,NA,65.625,NA
48183,Wayne County,MI,6.340819022457067,3.6637931034482754,NA
48185,Wayne County,MI,36.393659180977544,4.094827586206897,NA
48187,Wayne County,MI,NA,1.5086206896551724,NA
48188,Wayne County,MI,NA,4.579741379310344,NA
48192,Wayne County,MI,40.35667107001321,NA,NA
48198,Washtenaw County,MI,NA,NA,55.85903083700441
48202,Wayne County,MI,84.01585204755614,NA,NA
48203,Wayne County,MI,10.303830911492733,NA,NA
48204,Wayne County,MI,29.392338177014533,NA,NA
48207,Wayne County,MI,NA,93.96551724137932,NA
48212,Wayne County,MI,6.869220607661823,NA,NA
48213,Wayne County,MI,59.84147952443857,19.01939655172414,NA
48214,Wayne County,MI,14.266842800528401,NA,NA
48219,Wayne County,MI,NA,1.6163793103448276,NA
48221,Wayne County,MI,47.6221928665786,3.394396551724138,NA
48224,Wayne County,MI,1.453104359313078,NA,NA
48229,Wayne County,MI,47.49009247027741,NA,NA
48230,Wayne County,MI,NA,27.90948275862069,NA
48238,Wayne County,MI,46.433289299867894,NA,NA
48239,Wayne County,MI,NA,31.46551724137931,34.713656387665196
48240,Wayne County,MI,NA,NA,60.88105726872247
48306,Oakland County,MI,NA,48.814655172413794,NA
48309,Oakland County,MI,NA,19.773706896551722,NA
48310,Macomb County,MI,NA,NA,70.7488986784141
48327,Oakland County,MI,54.359313077939234,NA,NA
48334,Oakland County,MI,72.85336856010568,NA,NA
48342,Oakland County,MI,NA,27.96336206896552,NA
48346,Oakland County,MI,94.71598414795245,NA,NA
48348,Oakland County,MI,NA,36.314655172413794,NA
48350,Oakland County,MI,NA,NA,86.2555066079295
48359,Oakland County,MI,79.39233817701454,NA,NA
48360,Oakland County,MI,NA,54.25646551724138,NA
48371,Oakland County,MI,58.65257595772787,NA,NA
48377,Oakland County,MI,NA,64.54741379310344,NA
48382,Oakland County,MI,NA,85.29094827586206,NA
48383,Oakland County,MI,NA,NA,65.37444933920705
48386,Oakland County,MI,NA,66.48706896551724,NA
48420,Genesee County,MI,NA,34.213362068965516,NA
48423,Genesee County,MI,24.50462351387054,NA,NA
48429,Shiawassee County,MI,92.00792602377807,NA,94.7136563876652
48433,Genesee County,MI,43.26287978863937,NA,NA
48442,Oakland County,MI,38.77146631439894,40.19396551724138,NA
48446,Lapeer County,MI,36.19550858652576,17.40301724137931,NA
48450,Sanilac County,MI,NA,77.69396551724138,NA
48455,Lapeer County,MI,NA,63.146551724137936,NA
48462,Oakland County,MI,NA,87.06896551724138,NA
48503,Genesee County,MI,13.011889035667107,NA,NA
48504,Genesee County,MI,12.549537648612946,NA,NA
48507,Genesee County,MI,6.803170409511229,NA,NA
48602,Saginaw County,MI,NA,7.435344827586207,NA
48603,Saginaw County,MI,NA,30.441810344827587,57.621145374449334
48604,Saginaw County,MI,NA,43.85775862068966,NA
48609,Saginaw County,MI,63.01188903566711,NA,NA
48612,Gladwin County,MI,50.85865257595773,NA,NA
48616,Saginaw County,MI,NA,39.978448275862064,NA
48625,Clare County,MI,22.39101717305152,NA,NA
48638,Saginaw County,MI,NA,35.290948275862064,NA
48656,Roscommon County,MI,NA,80.11853448275862,NA
48661,Ogemaw County,MI,44.38573315719947,44.935344827586206,NA
48706,Bay County,MI,NA,NA,17.004405286343612
48708,Bay County,MI,4.953764861294584,4.795258620689656,NA
48730,Iosco County,MI,92.86657859973579,NA,85.72687224669605
48732,Bay County,MI,NA,NA,46.87224669603524
48746,Tuscola County,MI,NA,64.4396551724138,NA
48750,Iosco County,MI,NA,52.478448275862064,55.682819383259904
48756,Ogemaw County,MI,NA,NA,95.94713656387665
48768,Tuscola County,MI,44.71598414795244,NA,NA
48813,Eaton County,MI,NA,43.31896551724138,NA
48820,Clinton County,MI,NA,38.793103448275865,NA
48823,Ingham County,MI,81.04359313077939,NA,NA
48836,Livingston County,MI,43.989431968295904,NA,NA
48837,Eaton County,MI,85.33685601056803,25.48491379310345,NA
48840,Ingham County,MI,NA,55.064655172413794,NA
48842,Ingham County,MI,NA,29.148706896551722,80.79295154185021
48849,Ionia County,MI,NA,68.53448275862068,NA
48855,Livingston County,MI,84.4782034346103,NA,61.585903083700444
48867,Shiawassee County,MI,4.689564068692206,NA,NA
48872,Shiawassee County,MI,NA,90.625,NA
48888,Montcalm County,MI,74.63672391017172,NA,NA
48911,Ingham County,MI,NA,40.625,22.026431718061673
48912,Ingham County,MI,70.73976221928666,NA,NA
48917,Eaton County,MI,NA,NA,8.898678414096917
49002,Kalamazoo County,MI,25.957727873183618,NA,NA
49004,Kalamazoo County,MI,NA,41.97198275862069,NA
49006,Kalamazoo County,MI,NA,54.040948275862064,NA
49010,Allegan County,MI,NA,35.3448275862069,92.42290748898678
49014,Calhoun County,MI,69.15455746367239,NA,NA
49017,Calhoun County,MI,23.11756935270806,NA,NA
49024,Kalamazoo County,MI,20.145310435931307,NA,NA
49048,Kalamazoo County,MI,NA,NA,10.837004405286343
49053,Kalamazoo County,MI,72.19286657859973,NA,NA
49058,Barry County,MI,NA,NA,40.352422907488986
49073,Barry County,MI,NA,97.14439655172413,NA
49080,Allegan County,MI,NA,33.35129310344828,NA
49103,Berrien County,MI,NA,97.68318965517241,NA
49120,Berrien County,MI,9.841479524438574,10.237068965517242,NA
49201,Jackson County,MI,NA,NA,5.1982378854625555
49221,Lenawee County,MI,2.5759577278731833,2.8017241379310347,NA
49224,Calhoun County,MI,83.4214002642008,NA,NA
49228,Lenawee County,MI,NA,85.77586206896551,NA
49234,Jackson County,MI,NA,98.0603448275862,NA
49240,Jackson County,MI,78.07133421400265,NA,NA
49269,Jackson County,MI,83.94980184940555,NA,NA
49301,Kent County,MI,NA,NA,68.89867841409692
49315,Kent County,MI,NA,28.17887931034483,NA
49321,Kent County,MI,NA,48.86853448275862,NA
49330,Kent County,MI,NA,96.12068965517241,NA
49337,Newaygo County,MI,NA,78.66379310344827,NA
49341,Kent County,MI,NA,18.318965517241377,NA
49343,Kent County,MI,NA,NA,90.57268722466961
49415,Muskegon County,MI,NA,NA,94.00881057268722
49421,Oceana County,MI,NA,NA,86.69603524229075
49423,Ottawa County,MI,32.36459709379128,5.387931034482758,NA
49428,Ottawa County,MI,NA,23.22198275862069,10.92511013215859
49441,Muskegon County,MI,33.3553500660502,NA,NA
49442,Muskegon County,MI,50.13210039630119,2.2629310344827585,4.405286343612335
49444,Muskegon County,MI,NA,15.086206896551724,NA
49445,Muskegon County,MI,29.06208718626156,NA,NA
49454,Mason County,MI,NA,83.67456896551724,NA
49456,Ottawa County,MI,35.93130779392338,NA,52.68722466960353
49457,Muskegon County,MI,61.228533685601064,NA,NA
49506,Kent County,MI,NA,33.56681034482759,NA
49507,Kent County,MI,3.500660501981506,NA,NA
49508,Kent County,MI,48.34874504623514,NA,NA
49509,Kent County,MI,8.850726552179657,NA,NA
49519,Kent County,MI,NA,NA,29.251101321585903
49660,Manistee County,MI,NA,20.3125,NA
49677,Osceola County,MI,53.96301188903567,66.0021551724138,54.27312775330396
49686,Grand Traverse County,MI,NA,18.53448275862069,NA
49707,Alpena County,MI,23.8441215323646,NA,NA
49712,Charlevoix County,MI,90.75297225891677,NA,NA
49735,Otsego County,MI,NA,13.739224137931034,NA
49738,Crawford County,MI,64.20079260237782,NA,NA
49765,Presque Isle County,MI,NA,NA,95.41850220264317
49770,Emmet County,MI,NA,NA,25.198237885462554
49783,Chippewa County,MI,NA,NA,35.41850220264317
49837,Delta County,MI,NA,NA,51.013215859030836
49855,Marquette County,MI,10.039630118890356,NA,NA
49866,Marquette County,MI,NA,96.60560344827587,NA
49938,Gogebic County,MI,60.23778071334214,NA,NA
49953,Ontonagon County,MI,NA,80.44181034482759,NA
55024,Dakota County,MN,40.95112285336856,NA,NA
55033,Dakota County,MN,23.381770145310433,46.497844827586206,NA
55060,Steele County,MN,NA,22.790948275862068,44.31718061674009
55066,Goodhue County,MN,96.63143989431968,NA,NA
55079,Chisago County,MN,72.32496697490093,NA,NA
55082,Washington County,MN,NA,51.99353448275862,NA
55106,Ramsey County,MN,NA,18.372844827586206,NA
55112,Ramsey County,MN,33.22324966974901,NA,NA
55117,Ramsey County,MN,11.030383091149274,NA,NA
55130,Ramsey County,MN,68.22985468956408,NA,NA
55303,Anoka County,MN,NA,NA,34.889867841409696
55313,Wright County,MN,NA,93.3728448275862,NA
55342,Renville County,MN,NA,98.76077586206897,NA
55343,Hennepin County,MN,NA,NA,36.91629955947137
55346,Hennepin County,MN,NA,83.83620689655173,NA
55378,Scott County,MN,NA,79.79525862068965,NA
55403,Hennepin County,MN,17.107001321003963,NA,NA
55406,Hennepin County,MN,NA,20.743534482758623,NA
55414,Hennepin County,MN,NA,66.32543103448276,NA
55420,Hennepin County,MN,83.22324966974901,47.30603448275862,NA
55421,Anoka County,MN,15.191545574636725,NA,NA
55422,Hennepin County,MN,23.447820343461032,NA,NA
55434,Anoka County,MN,88.11096433289299,NA,NA
55435,Hennepin County,MN,NA,NA,54.88986784140969
55438,Hennepin County,MN,NA,NA,51.27753303964758
55731,St. Louis County,MN,NA,NA,88.28193832599119
55804,St. Louis County,MN,NA,27.747844827586203,NA
55811,St. Louis County,MN,NA,NA,1.2334801762114538
55901,Olmsted County,MN,NA,NA,89.2511013215859
55902,Olmsted County,MN,NA,NA,92.33480176211454
55912,Mower County,MN,22.5891677675033,1.9935344827586208,NA
55976,Olmsted County,MN,NA,85.77586206896551,NA
55981,Wabasha County,MN,NA,NA,95.15418502202643
56001,Blue Earth County,MN,NA,26.67025862068966,NA
56003,Nicollet County,MN,NA,60.129310344827594,NA
56031,Martin County,MN,NA,75.70043103448276,NA
56073,Brown County,MN,NA,NA,1.5859030837004406
56093,Waseca County,MN,NA,NA,57.53303964757709
56187,Nobles County,MN,56.53896961690885,NA,NA
56201,Kandiyohi County,MN,NA,NA,77.5330396475771
56303,Stearns County,MN,NA,38.63146551724138,NA
56304,Sherburne County,MN,48.94319682959049,NA,NA
56308,Douglas County,MN,NA,8.351293103448276,NA
56320,Stearns County,MN,NA,NA,83.25991189427313
56347,Todd County,MN,NA,74.73060344827587,NA
56374,Stearns County,MN,NA,NA,94.09691629955947
56378,Stearns County,MN,NA,NA,56.21145374449339
56431,Aitkin County,MN,83.48745046235139,33.35129310344828,21.409691629955947
56482,Wadena County,MN,NA,46.821120689655174,NA
56484,Cass County,MN,86.39365918097755,NA,NA
56501,Becker County,MN,NA,NA,13.832599118942731
56572,Otter Tail County,MN,NA,83.56681034482759,NA
56649,Koochiching County,MN,NA,47.89870689655172,NA
56716,Polk County,MN,NA,92.61853448275862,NA
38614,Coahoma County,MS,82.36459709379128,NA,NA
38654,DeSoto County,MS,NA,15.67887931034483,NA
38663,Tippah County,MS,NA,69.45043103448276,NA
38666,Panola County,MS,NA,NA,88.63436123348018
38801,Lee County,MS,NA,40.678879310344826,NA
38843,Itawamba County,MS,NA,92.67241379310344,NA
38852,Tishomingo County,MS,NA,94.07327586206897,NA
38860,Chickasaw County,MS,NA,95.90517241379311,NA
38865,Alcorn County,MS,NA,94.28879310344827,NA
38901,Grenada County,MS,47.02774108322325,NA,NA
38916,Calhoun County,MS,NA,85.61422413793103,NA
38930,Leflore County,MS,60.36988110964333,NA,NA
39042,Rankin County,MS,NA,56.25,NA
39047,Rankin County,MS,NA,32.8125,NA
39073,Rankin County,MS,NA,NA,65.90308370044052
39092,Scott County,MS,89.2338177014531,NA,NA
39117,Scott County,MS,42.53632760898283,NA,NA
39157,Madison County,MS,56.20871862615587,NA,NA
39170,Hinds County,MS,NA,NA,86.34361233480176
39175,Hinds County,MS,NA,NA,86.34361233480176
39180,Warren County,MS,34.87450462351387,NA,NA
39183,Warren County,MS,53.170409511228534,NA,NA
39191,Copiah County,MS,NA,76.45474137931035,94.36123348017621
39202,Hinds County,MS,NA,99.67672413793103,NA
39203,Hinds County,MS,77.74108322324967,NA,NA
39301,Lauderdale County,MS,96.03698811096433,38.30818965517241,NA
39305,Lauderdale County,MS,89.49801849405549,91.37931034482759,NA
39345,Newton County,MS,73.97622192866578,NA,NA
39350,Neshoba County,MS,NA,87.60775862068965,NA
39355,Clarke County,MS,NA,92.72629310344827,NA
39364,Lauderdale County,MS,99.73579920739762,99.56896551724138,NA
39402,Lamar County,MS,NA,NA,46.16740088105727
39426,Pearl River County,MS,NA,31.03448275862069,NA
39437,Jones County,MS,51.45310435931307,NA,NA
39443,Jones County,MS,NA,NA,43.7885462555066
39466,Pearl River County,MS,48.74504623513871,11.58405172413793,NA
39501,Harrison County,MS,NA,NA,58.502202643171806
39503,Harrison County,MS,46.30118890356671,NA,NA
39520,Hancock County,MS,NA,NA,50.7488986784141
39530,Harrison County,MS,NA,NA,85.81497797356829
39553,Jackson County,MS,36.65785997357992,NA,NA
39563,Jackson County,MS,39.89431968295905,NA,NA
39564,Jackson County,MS,NA,23.92241379310345,NA
39573,Stone County,MS,NA,75.91594827586206,NA
39648,Pike County,MS,14.464993394980185,42.133620689655174,NA
39653,Franklin County,MS,NA,99.73060344827587,NA
39667,Walthall County,MS,63.14398943196829,NA,NA
39730,Monroe County,MS,67.30515191545574,NA,NA
39740,Lowndes County,MS,93.52708058124173,NA,NA
63011,St. Louis County,MO,NA,12.769396551724139,NA
63017,St. Louis County,MO,79.45838837516513,NA,NA
63028,Jefferson County,MO,NA,16.756465517241377,39.118942731277535
63031,St. Louis County,MO,12.15323645970938,7.974137931034483,NA
63033,St. Louis County,MO,NA,NA,4.581497797356828
63034,St. Louis County,MO,NA,44.019396551724135,NA
63042,St. Louis County,MO,37.51651254953765,NA,NA
63043,St. Louis County,MO,NA,71.65948275862068,59.55947136563877
63044,St. Louis County,MO,NA,58.620689655172406,NA
63050,Jefferson County,MO,NA,60.668103448275865,NA
63107,St. Louis city,MO,NA,64.97844827586206,NA
63108,St. Louis city,MO,NA,90.84051724137932,NA
63110,St. Louis city,MO,70.93791281373845,NA,NA
63111,St. Louis city,MO,NA,72.14439655172413,NA
63115,St. Louis city,MO,68.16380449141347,NA,NA
63116,St. Louis city,MO,NA,NA,88.54625550660793
63120,St. Louis city,MO,53.36856010568032,NA,93.12775330396475
63122,St. Louis County,MO,NA,17.564655172413794,NA
63123,St. Louis County,MO,74.9669749009247,NA,NA
63126,St. Louis County,MO,NA,68.85775862068965,NA
63127,St. Louis County,MO,NA,NA,56.21145374449339
63129,St. Louis County,MO,NA,4.418103448275862,6.8722466960352415
63132,St. Louis County,MO,73.38177014531043,NA,NA
63134,St. Louis County,MO,NA,NA,61.14537444933921
63137,St. Louis County,MO,NA,33.94396551724138,NA
63139,St. Louis city,MO,NA,82.48922413793103,NA
63141,St. Louis County,MO,NA,NA,26.87224669603524
63146,St. Louis County,MO,NA,26.07758620689655,NA
63303,St. Charles County,MO,84.4782034346103,NA,NA
63304,St. Charles County,MO,NA,9.698275862068966,NA
63353,Pike County,MO,97.82034346103038,NA,NA
63366,St. Charles County,MO,33.22324966974901,NA,NA
63376,St. Charles County,MO,7.001321003963012,NA,NA
63379,Lincoln County,MO,67.96565389696168,NA,NA
63385,St. Charles County,MO,38.0449141347424,NA,NA
63501,Adair County,MO,NA,55.38793103448276,NA
63552,Macon County,MO,70.80581241743725,NA,NA
63601,St. Francois County,MO,NA,45.959051724137936,NA
63628,St. Francois County,MO,79.32628797886395,NA,NA
63640,St. Francois County,MO,NA,76.99353448275862,NA
63670,Ste. Genevieve County,MO,NA,NA,94.8898678414097
63701,Cape Girardeau County,MO,31.307793923381773,NA,NA
63740,Scott County,MO,NA,87.23060344827587,NA
63775,Perry County,MO,57.92602377807133,26.45474137931034,NA
63780,Scott County,MO,NA,NA,80.44052863436123
63801,Scott County,MO,16.710700132100396,NA,68.98678414096916
63825,Stoddard County,MO,98.94319682959049,NA,NA
63830,Pemiscot County,MO,NA,NA,89.42731277533039
63841,Stoddard County,MO,69.48480845442536,62.82327586206896,NA
63857,Dunklin County,MO,35.006605019815055,NA,NA
63901,Butler County,MO,9.247027741083222,NA,NA
64012,Cass County,MO,20.805812417437252,52.42456896551724,32.68722466960352
64014,Jackson County,MO,15.125495376486128,NA,NA
64015,Jackson County,MO,8.718626155878468,NA,NA
64024,Clay County,MO,40.22457067371202,NA,NA
64029,Jackson County,MO,60.43593130779392,NA,NA
64030,Jackson County,MO,NA,12.71551724137931,NA
64034,Jackson County,MO,92.47027741083224,NA,NA
64050,Jackson County,MO,NA,43.103448275862064,NA
64057,Jackson County,MO,NA,92.94181034482759,NA
64060,Clay County,MO,NA,NA,61.3215859030837
64062,Ray County,MO,47.15984147952444,NA,NA
64067,Lafayette County,MO,NA,NA,85.90308370044053
64070,Jackson County,MO,NA,98.32974137931035,NA
64078,Cass County,MO,NA,74.73060344827587,NA
64079,Platte County,MO,NA,37.122844827586206,NA
64085,Ray County,MO,NA,54.633620689655174,NA
64093,Johnson County,MO,86.65785997357992,91.91810344827587,NA
64106,Jackson County,MO,NA,NA,90.7488986784141
64111,Jackson County,MO,NA,83.62068965517241,87.5770925110132
64113,Jackson County,MO,NA,55.334051724137936,NA
64116,Clay County,MO,63.73844121532365,33.189655172413794,NA
64118,Clay County,MO,35.270805812417436,NA,60.26431718061674
64128,Jackson County,MO,NA,22.575431034482758,NA
64129,Jackson County,MO,NA,66.97198275862068,NA
64130,Jackson County,MO,NA,46.44396551724138,NA
64131,Jackson County,MO,73.778071334214,NA,NA
64132,Jackson County,MO,NA,44.827586206896555,NA
64133,Jackson County,MO,2.906208718626156,NA,NA
64137,Jackson County,MO,NA,NA,83.52422907488986
64138,Jackson County,MO,NA,11.314655172413794,NA
64151,Platte County,MO,NA,11.907327586206897,NA
64152,Platte County,MO,13.936591809775429,NA,NA
64155,Clay County,MO,62.41743725231176,16.271551724137932,83.34801762114537
64157,Clay County,MO,26.1558784676354,55.01077586206896,NA
64485,Andrew County,MO,53.302509907529725,NA,NA
64489,Gentry County,MO,98.67899603698811,NA,NA
64505,Buchanan County,MO,24.438573315719946,NA,NA
64506,Buchanan County,MO,41.41347424042272,NA,0.7929515418502203
64628,Linn County,MO,NA,84.80603448275862,84.14096916299559
64759,Barton County,MO,NA,96.92887931034483,NA
64772,Vernon County,MO,62.08718626155878,43.803879310344826,NA
64801,Jasper County,MO,NA,9.806034482758621,NA
64804,Jasper County,MO,11.624834874504623,79.3103448275862,8.81057268722467
64836,Jasper County,MO,90.09247027741083,NA,11.894273127753303
64850,Newton County,MO,37.58256274768824,NA,NA
64870,Jasper County,MO,36.591809775429326,NA,NA
65041,Gasconade County,MO,NA,93.64224137931035,75.85903083700441
65084,Morgan County,MO,NA,85.07543103448276,NA
65201,Boone County,MO,NA,NA,96.47577092511013
65202,Boone County,MO,7.5297225891677675,NA,NA
65203,Boone County,MO,18.09775429326288,7.273706896551724,NA
65240,Boone County,MO,97.15984147952443,NA,NA
65251,Callaway County,MO,22.98546895640687,45.797413793103445,NA
65301,Pettis County,MO,2.642007926023778,5.064655172413793,24.493392070484582
65340,Saline County,MO,NA,51.724137931034484,NA
65355,Benton County,MO,70.87186261558784,NA,32.863436123348016
65401,Phelps County,MO,93.39498018494055,NA,NA
65441,Crawford County,MO,NA,87.55387931034483,NA
65536,Laclede County,MO,NA,NA,21.057268722466958
65565,Crawford County,MO,NA,NA,88.63436123348018
65583,Pulaski County,MO,75.89167767503302,NA,NA
65606,Oregon County,MO,NA,NA,90.48458149779735
65608,Douglas County,MO,NA,94.77370689655173,NA
65613,Polk County,MO,46.23513870541612,NA,NA
65622,Dallas County,MO,NA,NA,52.24669603524229
65672,Taney County,MO,NA,NA,58.94273127753304
65714,Christian County,MO,NA,37.769396551724135,NA
65757,Greene County,MO,NA,91.91810344827587,NA
65775,Howell County,MO,NA,25,NA
65802,Greene County,MO,NA,13.793103448275861,NA
65803,Greene County,MO,NA,35.237068965517246,NA
65804,Greene County,MO,NA,NA,45.11013215859031
65807,Greene County,MO,20.93791281373844,NA,NA
59072,Musselshell County,MT,NA,81.41163793103449,NA
59102,Yellowstone County,MT,NA,2.6400862068965516,25.726872246696036
59105,Yellowstone County,MT,79.12813738441216,NA,NA
59230,Valley County,MT,94.98018494055482,NA,NA
59401,Cascade County,MT,74.17437252311757,58.189655172413794,NA
59404,Cascade County,MT,NA,7.165948275862069,NA
59602,Lewis and Clark County,MT,85.66710700132101,NA,67.31277533039648
59715,Gallatin County,MT,42.27212681638045,NA,NA
59840,Ravalli County,MT,NA,78.17887931034483,NA
59860,Lake County,MT,NA,36.15301724137931,NA
59912,Flathead County,MT,NA,46.605603448275865,NA
59923,Lincoln County,MT,95.90488771466315,44.98922413793103,NA
59937,Flathead County,MT,NA,NA,55.15418502202644
68007,Douglas County,NE,NA,94.1271551724138,NA
68022,Douglas County,NE,63.80449141347424,74.29956896551724,50.48458149779735
68046,Sarpy County,NE,55.15191545574637,NA,NA
68104,Douglas County,NE,19.352708058124175,NA,NA
68105,Douglas County,NE,81.96829590488771,NA,NA
68106,Douglas County,NE,NA,NA,47.136563876651984
68116,Douglas County,NE,NA,51.88577586206896,NA
68128,Sarpy County,NE,71.79656538969617,NA,NA
68135,Douglas County,NE,60.56803170409511,NA,NA
68152,Douglas County,NE,NA,NA,79.91189427312774
68164,Douglas County,NE,NA,NA,87.9295154185022
68701,Madison County,NE,41.08322324966975,NA,36.56387665198238
68776,Dakota County,NE,88.83751651254954,NA,NA
68787,Wayne County,NE,NA,97.19827586206897,NA
68845,Buffalo County,NE,76.55217965653897,NA,NA
89108,Clark County,NV,15.852047556142669,NA,NA
89121,Clark County,NV,NA,82.8125,NA
89122,Clark County,NV,NA,NA,42.46696035242291
89145,Clark County,NV,NA,69.18103448275862,NA
89146,Clark County,NV,NA,NA,82.55506607929516
89148,Clark County,NV,37.18626155878468,NA,NA
89156,Clark County,NV,95.17833553500661,NA,NA
89166,Clark County,NV,94.12153236459709,NA,NA
89403,Lyon County,NV,NA,NA,63.524229074889874
89408,Lyon County,NV,29.98678996036988,28.07112068965517,NA
89410,Douglas County,NV,NA,73.70689655172413,NA
89423,Douglas County,NV,74.70277410832232,NA,NA
89433,Washoe County,NV,32.03434610303831,NA,71.27753303964758
89434,Washoe County,NV,NA,26.40086206896552,NA
89451,Washoe County,NV,NA,93.75,NA
89502,Washoe County,NV,NA,14.170258620689655,NA
89503,Washoe County,NV,NA,34.05172413793103,63.34801762114537
89506,Washoe County,NV,NA,22.898706896551722,NA
89509,Washoe County,NV,NA,NA,24.140969162995596
89511,Washoe County,NV,NA,20.150862068965516,NA
89701,Carson City,NV,30.9775429326288,NA,NA
89706,Carson City,NV,50.528401585204755,NA,NA
03034,Rockingham County,NH,NA,96.875,NA
03049,Hillsborough County,NH,NA,61.691810344827594,76.74008810572687
03053,Rockingham County,NH,NA,17.079741379310345,31.718061674008812
03054,Hillsborough County,NH,NA,NA,85.19823788546256
03060,Hillsborough County,NH,4.557463672391017,NA,NA
03062,Hillsborough County,NH,NA,49.46120689655172,NA
03063,Hillsborough County,NH,NA,NA,30.92511013215859
03076,Hillsborough County,NH,36.525759577278734,46.76724137931034,NA
03087,Rockingham County,NH,40.290620871862615,NA,NA
03102,Hillsborough County,NH,14.99339498018494,NA,5.022026431718062
03103,Hillsborough County,NH,NA,NA,80.26431718061674
03104,Hillsborough County,NH,NA,NA,22.202643171806166
03110,Hillsborough County,NH,NA,NA,42.290748898678416
03234,Merrimack County,NH,NA,88.6853448275862,NA
03773,Sullivan County,NH,NA,NA,97.44493392070484
03820,Strafford County,NH,NA,30.226293103448278,NA
03833,Rockingham County,NH,NA,NA,78.14977973568283
03842,Rockingham County,NH,NA,72.46767241379311,NA
03860,Carroll County,NH,NA,86.58405172413794,NA
03867,Strafford County,NH,45.1783355350066,NA,3.2599118942731278
03874,Rockingham County,NH,NA,87.17672413793103,NA
07001,Middlesex County,NJ,55.41611624834874,NA,98.76651982378854
07002,Hudson County,NJ,NA,NA,37.53303964757709
07003,Essex County,NJ,27.741083223249667,NA,NA
07011,Passaic County,NJ,NA,19.288793103448278,NA
07013,Passaic County,NJ,33.02509907529723,NA,NA
07017,Essex County,NJ,NA,10.668103448275861,NA
07026,Bergen County,NJ,NA,NA,37.88546255506608
07032,Hudson County,NJ,99.53764861294584,NA,NA
07036,Union County,NJ,6.472919418758257,NA,NA
07040,Essex County,NJ,67.50330250990753,NA,NA
07042,Essex County,NJ,NA,76.67025862068965,NA
07066,Union County,NJ,NA,NA,96.0352422907489
07107,Essex County,NJ,NA,42.61853448275862,NA
07109,Essex County,NJ,NA,NA,59.91189427312775
07306,Hudson County,NJ,90.554821664465,NA,NA
07307,Hudson County,NJ,NA,NA,28.72246696035242
07410,Bergen County,NJ,39.63011889035667,NA,NA
07421,Passaic County,NJ,NA,86.36853448275862,NA
07450,Bergen County,NJ,70.01321003963011,NA,NA
07470,Passaic County,NJ,NA,NA,26.69603524229075
07503,Passaic County,NJ,NA,80.0646551724138,NA
07506,Passaic County,NJ,NA,48.11422413793103,NA
07524,Passaic County,NJ,22.787318361955087,NA,NA
07648,Bergen County,NJ,98.48084544253632,NA,NA
07652,Bergen County,NJ,NA,18.157327586206897,NA
07666,Bergen County,NJ,9.180977542932629,NA,NA
07726,Monmouth County,NJ,68.89035667107001,NA,NA
07731,Monmouth County,NJ,NA,63.52370689655172,NA
07748,Monmouth County,NJ,NA,NA,57.97356828193833
07753,Monmouth County,NJ,NA,NA,7.929515418502203
07821,Sussex County,NJ,NA,NA,96.56387665198238
07960,Morris County,NJ,NA,NA,16.47577092511013
08010,Burlington County,NJ,NA,67.13362068965517,NA
08012,Camden County,NJ,NA,10.506465517241379,35.24229074889868
08022,Burlington County,NJ,NA,NA,78.06167400881058
08034,Camden County,NJ,27.278731836195508,NA,NA
08055,Burlington County,NJ,NA,49.353448275862064,NA
08062,Gloucester County,NJ,NA,NA,77.1806167400881
08069,Salem County,NJ,36.459709379128135,NA,53.83259911894274
08075,Burlington County,NJ,64.59709379128138,NA,NA
08083,Camden County,NJ,NA,NA,93.74449339207048
08086,Gloucester County,NJ,NA,92.88793103448276,NA
08094,Gloucester County,NJ,21.003963011889034,NA,NA
08103,Camden County,NJ,73.9101717305152,NA,NA
08210,Cape May County,NJ,NA,NA,46.87224669603524
08232,Atlantic County,NJ,19.0224570673712,NA,NA
08302,Cumberland County,NJ,NA,6.68103448275862,NA
08527,Ocean County,NJ,26.68428005284016,NA,NA
08533,Ocean County,NJ,NA,92.34913793103449,NA
08620,Mercer County,NJ,NA,78.39439655172413,NA
08690,Mercer County,NJ,NA,73.0603448275862,44.40528634361233
08721,Ocean County,NJ,18.692206076618227,NA,NA
08723,Ocean County,NJ,NA,48.706896551724135,NA
08724,Ocean County,NJ,NA,NA,12.863436123348018
08731,Ocean County,NJ,NA,70.36637931034483,NA
08755,Ocean County,NJ,NA,NA,7.136563876651983
08757,Ocean County,NJ,NA,NA,0.1762114537444934
08812,Middlesex County,NJ,NA,98.54525862068965,NA
08837,Middlesex County,NJ,NA,NA,55.947136563876654
08844,Somerset County,NJ,32.628797886393656,NA,NA
08854,Middlesex County,NJ,5.151915455746367,NA,NA
08861,Middlesex County,NJ,NA,3.071120689655172,NA
08865,Warren County,NJ,3.302509907529723,NA,NA
87031,Valencia County,NM,NA,21.443965517241377,NA
87035,Torrance County,NM,84.94055482166446,NA,NA
87043,Sandoval County,NM,99.93394980184941,NA,NA
87048,Sandoval County,NM,NA,96.71336206896551,NA
87102,Bernalillo County,NM,16.116248348745046,NA,54.53744493392071
87105,Bernalillo County,NM,14.795244385733158,74.56896551724138,11.806167400881057
87106,Bernalillo County,NM,NA,64.81681034482759,NA
87107,Bernalillo County,NM,NA,49.89224137931034,NA
87108,Bernalillo County,NM,85.53500660501982,NA,NA
87111,Bernalillo County,NM,NA,7.8125,NA
87112,Bernalillo County,NM,9.445178335535006,NA,23.788546255506606
87114,Bernalillo County,NM,NA,40.19396551724138,22.46696035242291
87120,Bernalillo County,NM,27.410832232496695,69.71982758620689,NA
87121,Bernalillo County,NM,NA,23.545258620689655,NA
87123,Bernalillo County,NM,8.256274768824307,NA,45.4625550660793
87124,Sandoval County,NM,30.911492734478202,NA,8.458149779735683
87144,Sandoval County,NM,NA,NA,45.286343612334804
87501,Santa Fe County,NM,NA,57.435344827586206,NA
87505,Santa Fe County,NM,NA,NA,8.458149779735683
87506,Santa Fe County,NM,NA,70.15086206896551,NA
87507,Santa Fe County,NM,54.887714663143996,NA,16.0352422907489
88001,Doa Ana County,NM,20.211360634081903,NA,NA
88005,Doa Ana County,NM,NA,30.81896551724138,NA
88011,Doa Ana County,NM,NA,35.668103448275865,NA
88021,Doa Ana County,NM,NA,NA,89.77973568281938
88101,Curry County,NM,6.53896961690885,25.323275862068968,NA
88203,Chaves County,NM,58.58652575957728,NA,NA
88210,Eddy County,NM,NA,52.10129310344828,NA
88220,Eddy County,NM,NA,16.002155172413794,NA
88240,Lea County,NM,4.095112285336857,NA,NA
88260,Lea County,NM,61.36063408190224,NA,NA
88310,Otero County,NM,17.96565389696169,NA,4.229074889867841
88352,Otero County,NM,NA,NA,63.61233480176212
10002,New York County,NY,NA,NA,0.6167400881057269
10023,New York County,NY,NA,NA,2.7312775330396475
10026,New York County,NY,NA,NA,67.40088105726872
10030,New York County,NY,16.90885072655218,NA,NA
10032,New York County,NY,NA,NA,3.700440528634361
10303,Richmond County,NY,32.10039630118891,NA,NA
10312,Richmond County,NY,NA,NA,15.94713656387665
10451,Bronx County,NY,1.8494055482166447,NA,NA
10453,Bronx County,NY,NA,0.3232758620689655,NA
10455,Bronx County,NY,NA,NA,12.511013215859032
10460,Bronx County,NY,NA,NA,8.370044052863436
10475,Bronx County,NY,NA,7.004310344827585,NA
10514,Westchester County,NY,96.69749009247028,NA,NA
10516,Putnam County,NY,NA,96.06681034482759,NA
10528,Westchester County,NY,87.91281373844122,NA,NA
10530,Westchester County,NY,NA,76.5625,48.54625550660793
10591,Westchester County,NY,NA,NA,56.47577092511013
10703,Westchester County,NY,29.722589167767506,NA,NA
10705,Westchester County,NY,NA,NA,25.022026431718064
10965,Rockland County,NY,NA,92.24137931034483,NA
11020,Nassau County,NY,NA,88.46982758620689,NA
11021,Nassau County,NY,NA,NA,77.1806167400881
11106,Queens County,NY,NA,NA,33.392070484581495
11206,Kings County,NY,NA,8.997844827586206,NA
11208,Kings County,NY,NA,9.159482758620689,13.215859030837004
11211,Kings County,NY,78.86393659180978,NA,NA
11212,Kings County,NY,0.33025099075297226,NA,NA
11214,Kings County,NY,10.700132100396301,NA,NA
11219,Kings County,NY,NA,NA,9.691629955947137
11225,Kings County,NY,NA,10.721982758620689,NA
11226,Kings County,NY,NA,NA,8.28193832599119
11229,Kings County,NY,NA,14.0625,NA
11233,Kings County,NY,0.9907529722589168,NA,NA
11235,Kings County,NY,NA,10.02155172413793,NA
11358,Queens County,NY,NA,NA,45.903083700440526
11360,Queens County,NY,NA,72.41379310344827,40.969162995594715
11377,Queens County,NY,NA,80.49568965517241,NA
11379,Queens County,NY,NA,50.10775862068966,NA
11420,Queens County,NY,NA,60.50646551724138,NA
11421,Queens County,NY,NA,NA,41.23348017621145
11428,Queens County,NY,NA,NA,74.09691629955947
11432,Queens County,NY,19.74900924702774,4.633620689655173,NA
11520,Nassau County,NY,NA,NA,32.33480176211454
11530,Nassau County,NY,NA,75.05387931034483,NA
11714,Nassau County,NY,NA,64.22413793103449,NA
11726,Suffolk County,NY,NA,77.10129310344827,NA
11741,Suffolk County,NY,62.615587846763546,NA,NA
11743,Suffolk County,NY,NA,40.94827586206897,NA
11771,Nassau County,NY,NA,NA,78.94273127753304
11787,Suffolk County,NY,NA,NA,23.9647577092511
11901,Suffolk County,NY,NA,51.13146551724138,NA
11951,Suffolk County,NY,57.72787318361955,NA,NA
12033,Rensselaer County,NY,98.01849405548217,NA,NA
12047,Albany County,NY,22.060766182298547,NA,NA
12065,Saratoga County,NY,NA,12.122844827586206,NA
12078,Fulton County,NY,3.038309114927345,5.818965517241379,NA
12090,Rensselaer County,NY,NA,72.52155172413794,NA
12143,Albany County,NY,83.68560105680316,NA,NA
12144,Rensselaer County,NY,NA,66.05603448275862,47.66519823788546
12148,Saratoga County,NY,NA,NA,85.63876651982379
12182,Rensselaer County,NY,39.76221928665786,NA,NA
12203,Albany County,NY,59.709379128137385,NA,NA
12210,Albany County,NY,48.414795244385736,NA,NA
12302,Schenectady County,NY,33.81770145310436,NA,NA
12303,Schenectady County,NY,NA,87.66163793103449,NA
12306,Schenectady County,NY,25.033025099075296,NA,NA
12413,Greene County,NY,NA,97.73706896551724,NA
12414,Greene County,NY,NA,78.55603448275862,NA
12528,Ulster County,NY,NA,87.98491379310344,NA
12571,Dutchess County,NY,87.64861294583883,NA,NA
12822,Saratoga County,NY,NA,87.5,NA
12828,Washington County,NY,NA,NA,51.98237885462555
12839,Washington County,NY,NA,NA,50.92511013215859
12866,Saratoga County,NY,NA,6.25,NA
12953,Franklin County,NY,12.417437252311757,NA,NA
12983,Franklin County,NY,39.56406869220608,NA,NA
13021,Cayuga County,NY,NA,0.8620689655172413,NA
13032,Madison County,NY,NA,35.560344827586206,NA
13035,Madison County,NY,NA,65.84051724137932,NA
13045,Cortland County,NY,59.97357992073976,6.142241379310344,NA
13053,Tompkins County,NY,70.54161162483487,NA,NA
13057,Onondaga County,NY,81.30779392338177,NA,NA
13060,Onondaga County,NY,99.66974900924703,NA,NA
13077,Cortland County,NY,86.8560105680317,NA,NA
13090,Onondaga County,NY,10.83223249669749,20.851293103448278,NA
13101,Cortland County,NY,NA,90.46336206896551,NA
13104,Onondaga County,NY,NA,36.47629310344828,NA
13112,Onondaga County,NY,98.34874504623514,NA,NA
13126,Oswego County,NY,NA,NA,8.986784140969164
13215,Onondaga County,NY,NA,NA,66.96035242290749
13219,Onondaga County,NY,NA,40.51724137931034,NA
13323,Oneida County,NY,57.46367239101717,NA,NA
13339,Montgomery County,NY,44.58388375165126,NA,NA
13346,Madison County,NY,NA,46.174568965517246,NA
13348,Otsego County,NY,92.40422721268163,NA,NA
13438,Oneida County,NY,NA,NA,97.88546255506608
13440,Oneida County,NY,22.655217965653897,NA,NA
13778,Chenango County,NY,52.90620871862616,NA,NA
13820,Otsego County,NY,NA,NA,12.951541850220263
13838,Delaware County,NY,57.133421400264204,NA,NA
13849,Otsego County,NY,68.62615587846763,NA,NA
13865,Broome County,NY,38.63936591809776,NA,NA
13901,Broome County,NY,NA,NA,40.08810572687225
13905,Broome County,NY,1.1228533685601056,NA,NA
14094,Niagara County,NY,NA,1.1853448275862069,NA
14218,Erie County,NY,NA,32.327586206896555,NA
14225,Erie County,NY,NA,NA,37.3568281938326
14411,Orleans County,NY,NA,31.950431034482758,NA
14424,Ontario County,NY,NA,0.3771551724137931,11.541850220264317
14437,Livingston County,NY,89.76221928665787,NA,NA
14450,Monroe County,NY,11.42668428005284,NA,NA
14466,Ontario County,NY,92.20607661822986,NA,NA
14467,Monroe County,NY,47.556142668428,NA,NA
14517,Livingston County,NY,NA,95.15086206896551,NA
14532,Ontario County,NY,NA,87.76939655172413,NA
14580,Monroe County,NY,NA,2.9094827586206895,NA
14604,Monroe County,NY,70.2774108322325,NA,NA
14606,Monroe County,NY,1.7833553500660502,NA,NA
14609,Monroe County,NY,8.45442536327609,NA,NA
14616,Monroe County,NY,2.1136063408190227,NA,NA
14617,Monroe County,NY,NA,2.1551724137931036,NA
14624,Monroe County,NY,1.6512549537648615,0.9698275862068966,NA
14625,Monroe County,NY,NA,NA,83.43612334801762
14626,Monroe County,NY,NA,NA,4.845814977973569
14701,Chautauqua County,NY,11.492734478203435,12.015086206896552,9.779735682819384
14727,Allegany County,NY,63.34214002642008,NA,NA
14760,Cattaraugus County,NY,6.737120211360634,NA,NA
14779,Cattaraugus County,NY,NA,77.10129310344827,NA
14830,Steuben County,NY,NA,73.11422413793103,NA
14850,Tompkins County,NY,3.368560105680317,3.34051724137931,NA
14867,Tompkins County,NY,50.99075297225891,NA,NA
14873,Steuben County,NY,94.58388375165126,NA,NA
14891,Schuyler County,NY,NA,62.60775862068966,NA
14904,Chemung County,NY,66.38044914134741,NA,NA
27018,Yadkin County,NC,64.00264200792603,NA,NA
27023,Forsyth County,NC,NA,87.93103448275862,NA
27028,Davie County,NC,NA,28.502155172413797,NA
27030,Surry County,NC,4.491413474240423,NA,NA
27040,Forsyth County,NC,NA,20.959051724137932,NA
27052,Stokes County,NC,NA,NA,54.713656387665196
27055,Yadkin County,NC,88.57331571994716,NA,NA
27104,Forsyth County,NC,NA,NA,2.378854625550661
27106,Forsyth County,NC,NA,NA,9.33920704845815
27127,Forsyth County,NC,9.973579920739763,19.504310344827587,NA
27217,Alamance County,NC,8.58652575957728,6.627155172413793,NA
27244,Alamance County,NC,NA,68.3728448275862,NA
27260,Guilford County,NC,NA,42.40301724137931,NA
27263,Randolph County,NC,35.33685601056803,NA,NA
27278,Orange County,NC,16.44649933949802,NA,NA
27284,Forsyth County,NC,NA,10.129310344827585,NA
27288,Rockingham County,NC,8.982826948480845,NA,NA
27295,Davidson County,NC,14.53104359313078,NA,NA
27302,Alamance County,NC,NA,36.206896551724135,NA
27306,Montgomery County,NC,62.351387054161165,NA,NA
27312,Chatham County,NC,NA,13.254310344827585,NA
27317,Randolph County,NC,43.72523117569353,NA,NA
27341,Randolph County,NC,93.19682959048878,NA,NA
27349,Alamance County,NC,NA,70.52801724137932,NA
27360,Davidson County,NC,NA,2.478448275862069,NA
27370,Randolph County,NC,61.55878467635403,NA,NA
27405,Guilford County,NC,NA,NA,53.56828193832599
27406,Guilford County,NC,NA,NA,14.449339207048459
27407,Guilford County,NC,NA,26.939655172413797,NA
27504,Johnston County,NC,51.981505944517835,53.01724137931034,NA
27517,Orange County,NC,NA,54.849137931034484,NA
27520,Johnston County,NC,NA,24.51508620689655,NA
27524,Johnston County,NC,NA,85.23706896551724,69.77973568281939
27536,Vance County,NC,NA,23.976293103448278,NA
27549,Franklin County,NC,16.6446499339498,NA,NA
27569,Johnston County,NC,NA,77.53232758620689,NA
27576,Johnston County,NC,NA,46.012931034482754,NA
27577,Johnston County,NC,NA,NA,19.73568281938326
27587,Wake County,NC,NA,5.603448275862069,NA
27592,Wake County,NC,NA,NA,73.83259911894274
27603,Wake County,NC,16.248348745046233,NA,NA
27604,Wake County,NC,NA,31.19612068965517,53.3920704845815
27606,Wake County,NC,NA,38.25431034482759,NA
27609,Wake County,NC,NA,NA,83.9647577092511
27610,Wake County,NC,NA,3.4482758620689653,NA
27613,Wake County,NC,NA,27.262931034482758,50.22026431718062
27858,Pitt County,NC,19.154557463672393,32.70474137931034,44.40528634361233
27886,Edgecombe County,NC,28.92998678996037,35.3448275862069,NA
27889,Beaufort County,NC,53.36856010568032,NA,NA
27893,Wilson County,NC,NA,50.43103448275862,28.898678414096917
27909,Pasquotank County,NC,NA,8.405172413793103,14.889867841409693
27948,Dare County,NC,77.67503302509907,NA,NA
27958,Currituck County,NC,81.90224570673712,NA,NA
28001,Stanly County,NC,70.14531043593131,64.33189655172413,NA
28023,Rowan County,NC,NA,75.96982758620689,NA
28025,Cabarrus County,NC,30.38309114927345,9.321120689655173,NA
28027,Cabarrus County,NC,40.95112285336856,46.390086206896555,NA
28033,Lincoln County,NC,NA,99.94612068965517,NA
28036,Mecklenburg County,NC,74.9009247027741,NA,NA
28043,Rutherford County,NC,NA,NA,74.80176211453744
28078,Mecklenburg County,NC,53.69881109643329,94.55818965517241,NA
28079,Union County,NC,NA,39.762931034482754,NA
28083,Cabarrus County,NC,52.04755614266843,NA,NA
28086,Cleveland County,NC,18.428005284015853,NA,41.14537444933921
28088,Rowan County,NC,99.80184940554821,NA,NA
28092,Lincoln County,NC,16.77675033025099,NA,NA
28103,Union County,NC,68.82430647291942,NA,NA
28104,Union County,NC,55.812417437252314,NA,NA
28110,Union County,NC,44.78203434610304,NA,11.189427312775331
28120,Gaston County,NC,46.63143989431968,NA,NA
28128,Stanly County,NC,NA,96.01293103448276,NA
28139,Rutherford County,NC,29.788639365918097,48.97629310344828,NA
28146,Rowan County,NC,54.95376486129459,35.883620689655174,NA
28152,Cleveland County,NC,NA,NA,78.41409691629956
28163,Stanly County,NC,NA,96.22844827586206,NA
28166,Iredell County,NC,NA,NA,96.74008810572687
28168,Lincoln County,NC,61.16248348745046,NA,NA
28170,Anson County,NC,NA,54.849137931034484,NA
28173,Union County,NC,NA,89.49353448275862,NA
28205,Mecklenburg County,NC,14.398943196829592,53.609913793103445,NA
28208,Mecklenburg County,NC,NA,NA,36.74008810572687
28209,Mecklenburg County,NC,NA,84.53663793103449,NA
28213,Mecklenburg County,NC,19.815059445178335,NA,NA
28216,Mecklenburg County,NC,NA,10.183189655172415,NA
28217,Mecklenburg County,NC,NA,NA,69.60352422907489
28270,Mecklenburg County,NC,NA,36.5301724137931,76.2114537444934
28304,Cumberland County,NC,23.91017173051519,NA,NA
28312,Cumberland County,NC,NA,38.362068965517246,NA
28326,Harnett County,NC,72.65521796565389,NA,NA
28327,Moore County,NC,NA,NA,65.63876651982379
28334,Sampson County,NC,20.871862615587848,NA,NA
28348,Cumberland County,NC,28.401585204755612,NA,55.50660792951542
28358,Robeson County,NC,37.978863936591814,NA,NA
28376,Hoke County,NC,52.64200792602378,NA,NA
28401,New Hanover County,NC,NA,24.353448275862068,NA
28403,New Hanover County,NC,60.96433289299868,NA,NA
28431,Columbus County,NC,92.27212681638045,NA,NA
28461,Brunswick County,NC,NA,4.364224137931035,NA
28463,Columbus County,NC,NA,63.577586206896555,NA
28504,Lenoir County,NC,NA,NA,33.03964757709251
28601,Catawba County,NC,52.77410832232496,NA,NA
28613,Catawba County,NC,32.694848084544255,NA,NA
28625,Iredell County,NC,NA,45.20474137931034,NA
28630,Caldwell County,NC,25.495376486129455,NA,NA
28640,Ashe County,NC,NA,82.16594827586206,NA
28645,Caldwell County,NC,2.509907529722589,0.26939655172413796,NA
28655,Burke County,NC,3.896961690885073,37.661637931034484,NA
28657,Avery County,NC,NA,81.95043103448276,NA
28658,Catawba County,NC,63.47424042272127,80.54956896551724,NA
28659,Wilkes County,NC,15.455746367239101,NA,NA
28690,Burke County,NC,NA,72.03663793103449,NA
28694,Ashe County,NC,NA,61.584051724137936,NA
28697,Wilkes County,NC,52.443857331572,47.575431034482754,NA
28705,Mitchell County,NC,NA,75.21551724137932,NA
28711,Buncombe County,NC,80.44914134742405,66.32543103448276,87.22466960352423
28712,Transylvania County,NC,NA,NA,7.224669603524229
28714,Yancey County,NC,NA,67.83405172413794,NA
28715,Buncombe County,NC,67.76750330250991,41.271551724137936,NA
28716,Haywood County,NC,NA,NA,38.23788546255506
28719,Jackson County,NC,37.05416116248349,NA,NA
28734,Macon County,NC,55.54821664464994,49.299568965517246,2.643171806167401
28752,McDowell County,NC,NA,38.84698275862069,58.32599118942732
28761,McDowell County,NC,NA,69.61206896551724,NA
28777,Mitchell County,NC,NA,91.70258620689656,NA
28778,Buncombe County,NC,NA,NA,75.41850220264317
28779,Jackson County,NC,45.77278731836196,NA,NA
28782,Polk County,NC,NA,98.00646551724138,NA
28786,Haywood County,NC,NA,12.984913793103448,NA
28787,Buncombe County,NC,NA,NA,66.34361233480176
28791,Henderson County,NC,NA,NA,10.66079295154185
28803,Buncombe County,NC,NA,NA,19.383259911894275
28806,Buncombe County,NC,NA,NA,29.16299559471366
58078,Cass County,ND,19.352708058124175,NA,NA
58103,Cass County,ND,NA,1.293103448275862,NA
58201,Grand Forks County,ND,23.778071334214,NA,NA
58501,Burleigh County,ND,42.40422721268164,NA,NA
58504,Burleigh County,ND,89.2998678996037,NA,NA
58801,Williams County,ND,28.599735799207398,41.64870689655172,NA
43015,Delaware County,OH,NA,3.9331896551724137,3.4361233480176208
43017,Franklin County,OH,NA,27.424568965517242,NA
43021,Delaware County,OH,NA,74.6228448275862,NA
43026,Franklin County,OH,14.597093791281374,NA,NA
43028,Knox County,OH,NA,69.82758620689656,NA
43035,Delaware County,OH,61.75693527080581,NA,NA
43040,Union County,OH,19.28665785997358,45.63577586206897,NA
43055,Licking County,OH,0.7926023778071334,37.71551724137931,NA
43056,Licking County,OH,59.24702774108322,NA,NA
43061,Delaware County,OH,98.7450462351387,NA,NA
43062,Licking County,OH,NA,21.982758620689655,NA
43068,Franklin County,OH,NA,6.734913793103449,NA
43078,Champaign County,OH,55.746367239101716,NA,NA
43081,Franklin County,OH,NA,53.771551724137936,NA
43113,Pickaway County,OH,NA,8.243534482758621,NA
43119,Franklin County,OH,17.899603698811095,NA,NA
43123,Franklin County,OH,NA,27.316810344827587,NA
43125,Franklin County,OH,NA,NA,71.54185022026431
43130,Fairfield County,OH,7.85997357992074,NA,NA
43138,Hocking County,OH,52.443857331572,21.066810344827587,NA
43160,Fayette County,OH,NA,NA,18.502202643171806
43202,Franklin County,OH,NA,NA,96.38766519823788
43206,Franklin County,OH,32.89299867899604,NA,NA
43213,Franklin County,OH,NA,73.97629310344827,NA
43214,Franklin County,OH,39.233817701453106,NA,NA
43223,Franklin County,OH,NA,NA,55.06607929515418
43227,Franklin County,OH,NA,30.010775862068968,NA
43228,Franklin County,OH,2.3117569352708056,8.512931034482758,NA
43229,Franklin County,OH,4.227212681638045,NA,NA
43302,Marion County,OH,NA,1.4008620689655173,NA
43326,Hardin County,OH,67.89960369881109,NA,NA
43334,Morrow County,OH,86.26155878467635,NA,NA
43344,Union County,OH,91.94187582562748,NA,NA
43351,Wyandot County,OH,NA,72.35991379310344,86.96035242290749
43402,Wood County,OH,NA,NA,13.656387665198238
43440,Ottawa County,OH,NA,98.70689655172413,NA
43452,Ottawa County,OH,NA,NA,41.67400881057269
43502,Fulton County,OH,NA,NA,96.29955947136564
43506,Williams County,OH,18.031704095112286,NA,NA
43512,Defiance County,OH,2.7741083223249667,2.693965517241379,NA
43528,Lucas County,OH,NA,34.752155172413794,NA
43551,Wood County,OH,78.33553500660501,25.700431034482758,NA
43558,Fulton County,OH,45.310435931307794,89.4396551724138,NA
43560,Lucas County,OH,NA,NA,19.471365638766517
43567,Fulton County,OH,67.63540290620872,NA,NA
43605,Lucas County,OH,24.63672391017173,48.383620689655174,80.08810572687224
43606,Lucas County,OH,66.90885072655219,NA,NA
43607,Lucas County,OH,19.947159841479525,NA,NA
43609,Lucas County,OH,34.015852047556145,NA,NA
43611,Lucas County,OH,35.204755614266844,NA,NA
43613,Lucas County,OH,NA,51.077586206896555,NA
43614,Lucas County,OH,NA,NA,49.51541850220264
43615,Lucas County,OH,NA,76.29310344827587,5.638766519823789
43616,Lucas County,OH,8.520475561426684,NA,NA
43701,Muskingum County,OH,11.096433289299867,0.21551724137931033,NA
43731,Perry County,OH,NA,NA,99.20704845814979
43793,Monroe County,OH,NA,67.99568965517241,NA
43822,Muskingum County,OH,80.9114927344782,NA,NA
43912,Belmont County,OH,NA,NA,68.72246696035242
43952,Jefferson County,OH,NA,6.950431034482758,NA
43953,Jefferson County,OH,54.689564068692206,NA,NA
44004,Ashtabula County,OH,NA,57.327586206896555,NA
44017,Cuyahoga County,OH,28.996036988110962,NA,NA
44022,Cuyahoga County,OH,NA,20.420258620689655,NA
44024,Geauga County,OH,NA,9.590517241379311,64.40528634361233
44026,Geauga County,OH,NA,NA,77.09251101321586
44035,Lorain County,OH,NA,1.0237068965517242,0.0881057268722467
44039,Lorain County,OH,5.019815059445178,1.670258620689655,NA
44052,Lorain County,OH,NA,NA,4.493392070484582
44054,Lorain County,OH,90.02642007926023,29.310344827586203,41.497797356828194
44057,Lake County,OH,NA,NA,10.748898678414097
44062,Geauga County,OH,NA,NA,87.40088105726872
44070,Cuyahoga County,OH,NA,21.713362068965516,NA
44072,Geauga County,OH,NA,80.17241379310344,NA
44077,Lake County,OH,2.2457067371202113,NA,NA
44087,Summit County,OH,NA,40.678879310344826,NA
44095,Lake County,OH,59.44517833553501,NA,NA
44102,Cuyahoga County,OH,7.26552179656539,NA,NA
44103,Cuyahoga County,OH,NA,NA,28.45814977973568
44105,Cuyahoga County,OH,0.06605019815059446,3.8254310344827585,NA
44107,Cuyahoga County,OH,1.1889035667107,NA,NA
44108,Cuyahoga County,OH,1.915455746367239,NA,NA
44109,Cuyahoga County,OH,NA,0.7004310344827587,NA
44111,Cuyahoga County,OH,39.69616908850727,1.3469827586206895,NA
44113,Cuyahoga County,OH,NA,30.17241379310345,NA
44120,Cuyahoga County,OH,2.179656538969617,NA,6.960352422907488
44121,Cuyahoga County,OH,NA,NA,52.863436123348016
44122,Cuyahoga County,OH,NA,2.586206896551724,NA
44128,Cuyahoga County,OH,NA,0.7543103448275862,0.881057268722467
44129,Cuyahoga County,OH,36.26155878467635,9.375,NA
44130,Cuyahoga County,OH,3.104359313077939,53.394396551724135,NA
44132,Cuyahoga County,OH,NA,94.61206896551724,NA
44133,Cuyahoga County,OH,NA,8.243534482758621,NA
44134,Cuyahoga County,OH,NA,1.0775862068965518,21.233480176211454
44135,Cuyahoga County,OH,11.889035667107,NA,74.53744493392071
44136,Cuyahoga County,OH,21.070013210039633,4.956896551724138,NA
44137,Cuyahoga County,OH,71.73051519154558,NA,NA
44139,Cuyahoga County,OH,NA,8.836206896551724,NA
44141,Cuyahoga County,OH,76.55217965653897,NA,NA
44142,Cuyahoga County,OH,20.739762219286657,13.038793103448276,NA
44143,Cuyahoga County,OH,NA,NA,1.0572687224669604
44145,Cuyahoga County,OH,NA,2.4245689655172415,67.9295154185022
44146,Cuyahoga County,OH,4.425363276089828,NA,4.052863436123348
44149,Cuyahoga County,OH,63.67239101717305,NA,10.044052863436123
44201,Portage County,OH,NA,74.08405172413794,NA
44202,Portage County,OH,24.9669749009247,13.523706896551724,6.167400881057269
44203,Summit County,OH,20.343461030383093,5.172413793103448,NA
44212,Medina County,OH,NA,5.441810344827586,1.762114537444934
44216,Summit County,OH,NA,NA,92.95154185022027
44221,Summit County,OH,35.7331571994716,12.338362068965516,NA
44224,Summit County,OH,NA,5.118534482758621,NA
44236,Summit County,OH,NA,NA,82.11453744493392
44260,Portage County,OH,NA,48.54525862068966,NA
44270,Wayne County,OH,77.87318361955086,NA,NA
44280,Medina County,OH,91.14927344782035,NA,NA
44281,Medina County,OH,15.918097754293262,9.105603448275861,68.37004405286343
44286,Summit County,OH,NA,84.21336206896551,NA
44301,Summit County,OH,NA,43.64224137931034,NA
44306,Summit County,OH,NA,26.023706896551722,NA
44312,Summit County,OH,9.709379128137384,NA,NA
44314,Summit County,OH,48.8110964332893,NA,NA
44320,Summit County,OH,11.360634081902246,12.392241379310345,NA
44333,Summit County,OH,NA,NA,32.51101321585903
44406,Mahoning County,OH,NA,20.25862068965517,NA
44410,Trumbull County,OH,NA,52.640086206896555,NA
44432,Columbiana County,OH,NA,86.09913793103449,NA
44446,Trumbull County,OH,8.91677675033025,NA,NA
44481,Trumbull County,OH,65.71994715984147,NA,NA
44483,Trumbull County,OH,NA,68.04956896551724,NA
44505,Mahoning County,OH,24.17437252311757,NA,NA
44511,Mahoning County,OH,45.70673712021136,23.70689655172414,49.95594713656388
44512,Mahoning County,OH,29.392338177014533,NA,NA
44514,Mahoning County,OH,NA,NA,15.506607929515418
44601,Stark County,OH,NA,83.35129310344827,NA
44618,Wayne County,OH,NA,66.97198275862068,NA
44641,Stark County,OH,NA,NA,22.90748898678414
44646,Stark County,OH,NA,82.4353448275862,NA
44657,Stark County,OH,NA,53.125,NA
44662,Stark County,OH,NA,50.754310344827594,NA
44663,Tuscarawas County,OH,NA,12.015086206896552,80.88105726872247
44672,Mahoning County,OH,NA,NA,72.95154185022027
44683,Tuscarawas County,OH,75.95772787318363,NA,NA
44691,Wayne County,OH,NA,3.0172413793103448,NA
44705,Stark County,OH,47.6882430647292,NA,NA
44706,Stark County,OH,55.01981505944518,NA,NA
44708,Stark County,OH,50.39630118890357,NA,NA
44709,Stark County,OH,NA,69.39655172413794,53.65638766519824
44714,Stark County,OH,NA,62.28448275862068,NA
44805,Ashland County,OH,NA,2.855603448275862,NA
44811,Sandusky County,OH,NA,45.85129310344828,NA
44824,Erie County,OH,NA,98.11422413793103,NA
44830,Seneca County,OH,84.67635402906208,22.14439655172414,NA
44833,Crawford County,OH,NA,NA,78.8546255506608
44842,Ashland County,OH,84.87450462351387,84.80603448275862,NA
44846,Erie County,OH,99.40554821664465,NA,NA
44857,Huron County,OH,NA,NA,46.69603524229075
44870,Erie County,OH,1.2549537648612945,1.4547413793103448,3.6123348017621146
44883,Seneca County,OH,NA,77.85560344827587,NA
44889,Huron County,OH,75.0990752972259,NA,NA
44905,Richland County,OH,NA,NA,57.621145374449334
45005,Warren County,OH,NA,NA,77.97356828193833
45011,Butler County,OH,1.5852047556142668,NA,9.07488986784141
45013,Butler County,OH,NA,15.84051724137931,NA
45030,Hamilton County,OH,44.98018494055482,NA,NA
45039,Warren County,OH,NA,81.68103448275862,NA
45067,Butler County,OH,NA,69.1271551724138,NA
45069,Butler County,OH,16.77675033025099,NA,42.114537444933916
45103,Clermont County,OH,49.339498018494055,NA,NA
45120,Clermont County,OH,94.84808454425362,NA,NA
45123,Highland County,OH,NA,53.502155172413794,NA
45140,Clermont County,OH,NA,10.344827586206897,NA
45150,Clermont County,OH,NA,21.875,NA
45176,Clermont County,OH,NA,NA,95.33039647577093
45209,Hamilton County,OH,NA,NA,78.6784140969163
45211,Hamilton County,OH,6.274768824306473,22.09051724137931,NA
45215,Hamilton County,OH,NA,NA,27.312775330396477
45216,Hamilton County,OH,NA,55.765086206896555,NA
45227,Hamilton County,OH,38.969616908850725,NA,51.013215859030836
45229,Hamilton County,OH,NA,23.329741379310345,NA
45231,Hamilton County,OH,80.05284015852048,62.446120689655174,NA
45236,Hamilton County,OH,42.8665785997358,36.799568965517246,NA
45238,Hamilton County,OH,NA,NA,34.008810572687224
45239,Hamilton County,OH,11.162483487450462,NA,NA
45240,Hamilton County,OH,NA,35.82974137931034,NA
45245,Clermont County,OH,NA,39.008620689655174,NA
45248,Hamilton County,OH,NA,NA,18.766519823788546
45255,Hamilton County,OH,NA,69.07327586206897,NA
45309,Montgomery County,OH,NA,NA,38.6784140969163
45322,Montgomery County,OH,31.505944517833555,39.27801724137931,NA
45342,Montgomery County,OH,NA,NA,17.356828193832598
45359,Miami County,OH,NA,98.38362068965517,NA
45369,Clark County,OH,98.61294583883752,NA,NA
45373,Miami County,OH,4.623513870541611,35.668103448275865,29.691629955947135
45385,Greene County,OH,NA,29.20258620689655,NA
45402,Montgomery County,OH,44.58388375165126,NA,NA
45404,Montgomery County,OH,NA,57.650862068965516,NA
45406,Montgomery County,OH,NA,32.92025862068966,NA
45417,Montgomery County,OH,NA,NA,59.647577092511014
45426,Montgomery County,OH,NA,60.991379310344826,46.519823788546255
45440,Montgomery County,OH,95.57463672391016,NA,NA
45459,Montgomery County,OH,NA,NA,77.44493392070486
45502,Clark County,OH,NA,47.790948275862064,NA
45503,Clark County,OH,75.23117569352709,8.189655172413794,8.193832599118943
45505,Clark County,OH,52.84015852047557,NA,NA
45601,Ross County,OH,3.963011889035667,NA,NA
45629,Scioto County,OH,74.10832232496698,NA,NA
45656,Jackson County,OH,77.80713342140027,NA,88.89867841409692
45662,Scioto County,OH,NA,NA,2.4669603524229076
45690,Pike County,OH,11.55878467635403,NA,NA
45692,Jackson County,OH,86.65785997357992,NA,NA
45693,Adams County,OH,NA,81.25,NA
45701,Athens County,OH,NA,42.94181034482759,NA
45714,Washington County,OH,NA,85.45258620689656,NA
45750,Washington County,OH,NA,NA,0.9691629955947136
45761,Athens County,OH,NA,99.78448275862068,NA
45764,Athens County,OH,82.10039630118891,NA,NA
45769,Meigs County,OH,52.377807133421406,NA,NA
45805,Allen County,OH,NA,NA,61.057268722466965
45813,Paulding County,OH,NA,99.29956896551724,NA
45822,Mercer County,OH,29.920739762219284,NA,16.387665198237887
45840,Hancock County,OH,1.7173051519154559,64.70905172413794,NA
45856,Putnam County,OH,NA,90.14008620689656,NA
45885,Auglaize County,OH,33.61955085865257,NA,76.91629955947137
45891,Van Wert County,OH,NA,17.726293103448278,NA
45895,Auglaize County,OH,23.645970937912814,NA,NA
73003,Oklahoma County,OK,NA,49.78448275862069,NA
73030,Murray County,OK,NA,79.36422413793103,NA
73034,Oklahoma County,OK,21.730515191545575,NA,26.343612334801765
73045,Oklahoma County,OK,72.5891677675033,NA,NA
73052,Garvin County,OK,NA,92.40301724137932,NA
73064,Canadian County,OK,NA,NA,72.24669603524228
73065,McClain County,OK,NA,NA,86.87224669603523
73071,Cleveland County,OK,NA,NA,60.440528634361236
73075,Garvin County,OK,NA,NA,81.58590308370044
73078,Canadian County,OK,NA,NA,98.85462555066078
73099,Canadian County,OK,51.915455746367236,3.7176724137931036,14.185022026431717
73107,Oklahoma County,OK,NA,37.28448275862069,NA
73110,Oklahoma County,OK,NA,28.23275862068966,NA
73111,Oklahoma County,OK,NA,81.19612068965517,NA
73112,Oklahoma County,OK,28.797886393659184,NA,NA
73115,Oklahoma County,OK,NA,33.7823275862069,NA
73118,Oklahoma County,OK,85.13870541611624,NA,NA
73130,Oklahoma County,OK,NA,68.42672413793103,59.735682819383264
73132,Oklahoma County,OK,NA,35.18318965517241,NA
73135,Oklahoma County,OK,34.47820343461031,NA,NA
73160,Cleveland County,OK,61.9550858652576,NA,NA
73162,Oklahoma County,OK,NA,12.392241379310345,50.04405286343613
73165,Cleveland County,OK,75.0330250990753,NA,NA
73401,Carter County,OK,NA,NA,81.85022026431719
73446,Marshall County,OK,77.87318361955086,NA,NA
73448,Love County,OK,76.1558784676354,NA,NA
73501,Comanche County,OK,NA,40.08620689655172,NA
73521,Jackson County,OK,NA,NA,42.02643171806167
73644,Beckham County,OK,NA,80.22629310344827,NA
73701,Garfield County,OK,NA,24.78448275862069,NA
73801,Woodward County,OK,52.70805812417437,64.92456896551724,NA
74006,Washington County,OK,44.45178335535007,NA,25.55066079295154
74008,Tulsa County,OK,80.9114927344782,NA,45.55066079295154
74011,Tulsa County,OK,NA,36.584051724137936,NA
74012,Tulsa County,OK,NA,8.135775862068966,NA
74019,Rogers County,OK,37.58256274768824,NA,67.84140969162996
74020,Pawnee County,OK,79.19418758256275,NA,NA
74029,Washington County,OK,88.90356671070013,NA,NA
74037,Tulsa County,OK,NA,92.72629310344827,NA
74047,Tulsa County,OK,NA,96.39008620689656,NA
74055,Tulsa County,OK,43.32892998678996,20.851293103448278,NA
74056,Osage County,OK,NA,NA,97.79735682819384
74059,Payne County,OK,NA,NA,83.17180616740089
74063,Tulsa County,OK,46.829590488771466,NA,NA
74074,Payne County,OK,NA,NA,30.66079295154185
74079,Lincoln County,OK,NA,95.52801724137932,94.44933920704845
74105,Tulsa County,OK,NA,69.77370689655173,NA
74112,Tulsa County,OK,NA,NA,61.4977973568282
74132,Tulsa County,OK,NA,82.86637931034483,NA
74133,Tulsa County,OK,24.108322324966974,47.30603448275862,NA
74137,Tulsa County,OK,NA,45.474137931034484,NA
74145,Tulsa County,OK,55.9445178335535,NA,NA
74344,Delaware County,OK,NA,43.911637931034484,47.22466960352423
74361,Mayes County,OK,53.566710700132106,NA,NA
74401,Muskogee County,OK,NA,47.252155172413794,61.67400881057269
74421,Okmulgee County,OK,NA,94.66594827586206,NA
74429,Wagoner County,OK,NA,NA,89.60352422907489
74436,Muskogee County,OK,NA,91.05603448275862,NA
74441,Cherokee County,OK,79.98678996036989,NA,NA
74447,Okmulgee County,OK,NA,82.65086206896551,38.41409691629956
74451,Cherokee County,OK,NA,90.03232758620689,NA
74462,Haskell County,OK,NA,78.77155172413794,NA
74464,Cherokee County,OK,NA,13.308189655172415,35.15418502202643
74525,Atoka County,OK,NA,72.84482758620689,NA
74701,Bryan County,OK,NA,NA,38.85462555066079
74804,Pottawatomie County,OK,99.27344782034346,NA,NA
74820,Pontotoc County,OK,5.217965653896962,NA,NA
74848,Hughes County,OK,66.44649933949802,NA,NA
74868,Seminole County,OK,59.18097754293263,NA,NA
74948,Sequoyah County,OK,52.97225891677675,NA,NA
74960,Adair County,OK,19.682959048877148,30.657327586206897,NA
74965,Adair County,OK,81.63804491413474,NA,99.47136563876651
97013,Clackamas County,OR,NA,NA,51.629955947136565
97024,Multnomah County,OR,NA,NA,84.31718061674009
97038,Clackamas County,OR,81.57199471598415,NA,NA
97051,Columbia County,OR,NA,65.67887931034483,NA
97058,Wasco County,OR,NA,22.413793103448278,NA
97068,Clackamas County,OR,NA,77.04741379310344,NA
97071,Marion County,OR,NA,48.922413793103445,NA
97078,Washington County,OR,NA,77.90948275862068,NA
97089,Clackamas County,OR,NA,71.06681034482759,NA
97123,Washington County,OR,NA,40.40948275862069,NA
97138,Clatsop County,OR,NA,NA,59.118942731277535
97201,Multnomah County,OR,NA,68.15732758620689,NA
97205,Multnomah County,OR,NA,NA,85.99118942731278
97211,Multnomah County,OR,NA,NA,59.471365638766514
97218,Multnomah County,OR,NA,93.26508620689656,NA
97230,Multnomah County,OR,NA,58.35129310344828,NA
97304,Polk County,OR,NA,87.28448275862068,NA
97330,Benton County,OR,NA,18.80387931034483,NA
97338,Polk County,OR,NA,NA,80.96916299559471
97355,Linn County,OR,7.793923381770146,3.2866379310344827,NA
97365,Lincoln County,OR,NA,NA,45.991189427312776
97367,Lincoln County,OR,NA,24.73060344827586,NA
97401,Lane County,OR,NA,59.321120689655174,NA
97404,Lane County,OR,48.414795244385736,NA,NA
97405,Lane County,OR,NA,52.58620689655172,NA
97415,Curry County,OR,95.50858652575957,NA,NA
97420,Coos County,OR,NA,NA,39.559471365638764
97439,Lane County,OR,NA,50.269396551724135,47.75330396475771
97457,Douglas County,OR,NA,86.79956896551724,NA
97462,Douglas County,OR,89.36591809775429,NA,NA
97470,Douglas County,OR,NA,18.211206896551722,NA
97471,Douglas County,OR,NA,3.5021551724137927,NA
97501,Jackson County,OR,5.680317040951123,NA,NA
97502,Jackson County,OR,31.836195508586524,NA,NA
97504,Jackson County,OR,NA,8.566810344827585,2.8193832599118944
97524,Jackson County,OR,65.38969616908851,NA,NA
97527,Josephine County,OR,NA,13.469827586206899,NA
97601,Klamath County,OR,NA,54.79525862068966,NA
97720,Harney County,OR,NA,97.95258620689656,NA
97756,Deschutes County,OR,58.45442536327609,14.331896551724139,NA
97801,Umatilla County,OR,NA,NA,89.0748898678414
97814,Baker County,OR,NA,NA,39.559471365638764
97838,Umatilla County,OR,11.756935270805812,NA,NA
97850,Union County,OR,NA,20.52801724137931,NA
97862,Umatilla County,OR,87.45046235138706,NA,NA
97913,Malheur County,OR,96.23513870541612,NA,NA
15001,Beaver County,PA,NA,NA,17.26872246696035
15005,Beaver County,PA,NA,NA,55.24229074889868
15037,Allegheny County,PA,NA,NA,62.290748898678416
15120,Allegheny County,PA,35.79920739762219,NA,NA
15132,Allegheny County,PA,NA,NA,35.770925110132154
15133,Allegheny County,PA,96.82959048877147,NA,NA
15206,Allegheny County,PA,NA,NA,13.127753303964756
15208,Allegheny County,PA,NA,NA,55.77092511013216
15217,Allegheny County,PA,NA,15.140086206896552,NA
15223,Allegheny County,PA,NA,75.64655172413794,NA
15236,Allegheny County,PA,37.780713342140025,21.767241379310345,NA
15237,Allegheny County,PA,NA,16.648706896551722,NA
15301,Washington County,PA,4.29326287978864,NA,NA
15332,Washington County,PA,NA,NA,71.98237885462555
15417,Fayette County,PA,NA,78.28663793103449,NA
15501,Somerset County,PA,NA,39.762931034482754,NA
15552,Somerset County,PA,91.87582562747689,NA,NA
15601,Westmoreland County,PA,NA,0.5387931034482759,NA
15613,Westmoreland County,PA,NA,41.43318965517241,NA
15632,Westmoreland County,PA,NA,82.00431034482759,NA
15644,Westmoreland County,PA,NA,59.05172413793104,NA
15701,Indiana County,PA,15.455746367239101,NA,NA
15717,Indiana County,PA,79.92073976221928,NA,NA
15824,Jefferson County,PA,NA,92.45689655172413,NA
15834,Cameron County,PA,NA,58.94396551724138,NA
16001,Butler County,PA,2.3778071334214,NA,NA
16037,Butler County,PA,95.83883751651256,NA,NA
16055,Butler County,PA,NA,78.01724137931035,NA
16125,Mercer County,PA,NA,NA,7.665198237885463
16137,Mercer County,PA,NA,24.353448275862068,NA
16146,Mercer County,PA,17.305151915455745,NA,NA
16150,Mercer County,PA,59.709379128137385,NA,NA
16201,Armstrong County,PA,NA,NA,43.43612334801762
16335,Crawford County,PA,30.184940554821665,NA,NA
16407,Erie County,PA,NA,57.165948275862064,NA
16426,Erie County,PA,99.33949801849406,98.65301724137932,NA
16442,Erie County,PA,98.81109643328931,NA,NA
16502,Erie County,PA,NA,76.1853448275862,NA
16509,Erie County,PA,NA,75.16163793103449,19.911894273127754
16602,Blair County,PA,NA,NA,17.356828193832598
16801,Centre County,PA,NA,NA,40.79295154185022
16830,Clearfield County,PA,NA,21.92887931034483,NA
16915,Potter County,PA,NA,NA,54.97797356828193
17011,Cumberland County,PA,NA,13.954741379310345,NA
17015,Cumberland County,PA,NA,NA,28.810572687224667
17022,Lancaster County,PA,NA,10.560344827586206,NA
17036,Dauphin County,PA,NA,7.920258620689655,NA
17050,Cumberland County,PA,NA,6.303879310344827,NA
17055,Cumberland County,PA,51.585204755614264,NA,NA
17067,Lebanon County,PA,NA,67.24137931034483,NA
17078,Lebanon County,PA,NA,NA,3.7885462555066076
17103,Dauphin County,PA,NA,59.213362068965516,NA
17110,Dauphin County,PA,37.25231175693527,19.01939655172414,NA
17111,Dauphin County,PA,NA,3.8793103448275863,NA
17201,Franklin County,PA,7.463672391017173,NA,NA
17225,Franklin County,PA,NA,86.04525862068965,NA
17257,Cumberland County,PA,NA,91.54094827586206,NA
17268,Franklin County,PA,11.822985468956407,NA,NA
17347,York County,PA,NA,92.99568965517241,NA
17362,York County,PA,81.77014531043592,NA,NA
17363,York County,PA,70.93791281373845,NA,NA
17532,Lancaster County,PA,100,NA,NA
17543,Lancaster County,PA,17.503302509907527,NA,NA
17545,Lancaster County,PA,78.665785997358,NA,NA
17552,Lancaster County,PA,NA,27.370689655172413,NA
17554,Lancaster County,PA,90.68692206076618,NA,NA
17557,Lancaster County,PA,NA,NA,41.76211453744493
17745,Clinton County,PA,76.48612945838838,NA,NA
17754,Lycoming County,PA,54.82166446499339,NA,NA
17815,Columbia County,PA,11.228533685601057,7.058189655172415,NA
17844,Union County,PA,NA,89.87068965517241,NA
17857,Northumberland County,PA,NA,40.786637931034484,NA
17866,Northumberland County,PA,NA,NA,40.969162995594715
17872,Northumberland County,PA,NA,29.25646551724138,NA
18015,Northampton County,PA,NA,NA,11.101321585903083
18020,Northampton County,PA,NA,22.036637931034484,NA
18031,Lehigh County,PA,NA,87.8771551724138,NA
18037,Lehigh County,PA,NA,NA,96.82819383259911
18042,Northampton County,PA,3.830911492734478,2.5323275862068964,NA
18052,Lehigh County,PA,13.738441215323647,NA,NA
18062,Lehigh County,PA,79.7225891677675,22.683189655172413,NA
18071,Carbon County,PA,NA,NA,87.7533039647577
18091,Northampton County,PA,NA,NA,59.82378854625551
18092,Lehigh County,PA,NA,97.46767241379311,NA
18103,Lehigh County,PA,18.494055482166445,NA,NA
18104,Lehigh County,PA,9.445178335535006,NA,2.2026431718061676
18201,Luzerne County,PA,NA,79.47198275862068,25.11013215859031
18222,Luzerne County,PA,NA,NA,66.78414096916299
18252,Schuylkill County,PA,45.574636723910174,NA,NA
18504,Lackawanna County,PA,23.513870541611624,34.536637931034484,NA
18509,Lackawanna County,PA,NA,57.058189655172406,NA
18603,Columbia County,PA,NA,12.661637931034484,NA
18634,Luzerne County,PA,63.540290620871865,NA,NA
18644,Luzerne County,PA,NA,NA,74.36123348017621
18657,Wyoming County,PA,NA,NA,83.78854625550662
18704,Luzerne County,PA,NA,NA,5.903083700440528
18705,Luzerne County,PA,89.03566710700133,NA,NA
18940,Bucks County,PA,87.58256274768824,NA,NA
18954,Bucks County,PA,74.24042272126816,NA,NA
18966,Bucks County,PA,NA,94.34267241379311,NA
18974,Bucks County,PA,NA,33.890086206896555,NA
18977,Bucks County,PA,NA,NA,79.55947136563877
19001,Montgomery County,PA,45.442536327608984,NA,NA
19004,Montgomery County,PA,90.4887714663144,NA,NA
19010,Delaware County,PA,NA,NA,40.440528634361236
19013,Delaware County,PA,13.540290620871861,NA,NA
19020,Bucks County,PA,NA,NA,9.515418502202644
19023,Delaware County,PA,NA,46.55172413793103,88.37004405286343
19026,Delaware County,PA,12.087186261558784,NA,NA
19047,Bucks County,PA,NA,NA,92.15859030837005
19050,Delaware County,PA,NA,37.446120689655174,NA
19056,Bucks County,PA,NA,NA,70.83700440528634
19060,Delaware County,PA,NA,70.25862068965517,NA
19061,Delaware County,PA,NA,79.20258620689656,NA
19073,Delaware County,PA,NA,NA,12.77533039647577
19075,Montgomery County,PA,93.59313077939234,NA,94.18502202643172
19082,Delaware County,PA,NA,18.642241379310345,NA
19090,Montgomery County,PA,NA,NA,44.052863436123346
19095,Montgomery County,PA,NA,NA,82.11453744493392
19114,Philadelphia County,PA,NA,14.76293103448276,NA
19115,Philadelphia County,PA,13.474240422721268,NA,NA
19116,Philadelphia County,PA,50.660501981505945,NA,NA
19119,Philadelphia County,PA,NA,44.98922413793103,33.480176211453745
19120,Philadelphia County,PA,27.60898282694848,NA,39.38325991189428
19121,Philadelphia County,PA,6.07661822985469,NA,NA
19122,Philadelphia County,PA,NA,63.03879310344828,NA
19124,Philadelphia County,PA,NA,6.788793103448276,NA
19128,Philadelphia County,PA,13.276089828269486,NA,NA
19131,Philadelphia County,PA,36.723910171730516,NA,NA
19134,Philadelphia County,PA,2.0475561426684283,NA,NA
19136,Philadelphia County,PA,NA,19.612068965517242,NA
19138,Philadelphia County,PA,NA,NA,21.145374449339208
19140,Philadelphia County,PA,1.5191545574636725,NA,31.18942731277533
19141,Philadelphia County,PA,NA,NA,26.607929515418505
19143,Philadelphia County,PA,0.3963011889035667,0.4849137931034483,NA
19144,Philadelphia County,PA,NA,6.196120689655173,NA
19145,Philadelphia County,PA,40.62087186261559,NA,NA
19147,Philadelphia County,PA,NA,20.3125,NA
19152,Philadelphia County,PA,69.48480845442536,NA,NA
19335,Chester County,PA,11.955085865257596,NA,NA
19342,Delaware County,PA,NA,NA,21.58590308370044
19363,Chester County,PA,NA,61.15301724137932,NA
19382,Chester County,PA,10.105680317040951,5.495689655172414,48.370044052863435
19390,Chester County,PA,NA,50.86206896551724,48.72246696035242
19401,Montgomery County,PA,83.09114927344781,NA,NA
19403,Montgomery County,PA,NA,NA,3.9647577092511015
19422,Montgomery County,PA,NA,27.85560344827586,NA
19446,Montgomery County,PA,NA,10.452586206896552,NA
19460,Chester County,PA,NA,50.10775862068966,NA
19462,Montgomery County,PA,NA,NA,48.72246696035242
19464,Montgomery County,PA,3.5667107001321003,NA,NA
19468,Montgomery County,PA,NA,59.375,NA
19475,Chester County,PA,86.52575957727873,NA,NA
19512,Berks County,PA,NA,NA,49.77973568281938
19525,Montgomery County,PA,NA,NA,70.83700440528634
19526,Berks County,PA,NA,49.622844827586206,NA
19540,Berks County,PA,NA,48.00646551724138,NA
19605,Berks County,PA,NA,29.47198275862069,NA
19606,Berks County,PA,30.515191545574638,NA,NA
19607,Berks County,PA,NA,63.84698275862068,NA
19609,Berks County,PA,95.04623513870541,NA,NA
02806,Bristol County,RI,61.42668428005285,NA,NA
02809,Bristol County,RI,NA,NA,32.24669603524229
02816,Kent County,RI,NA,40.0323275862069,NA
02842,Newport County,RI,NA,73.4375,NA
02860,Providence County,RI,NA,NA,71.80616740088107
02864,Providence County,RI,NA,NA,56.651982378854626
02879,Washington County,RI,NA,27.04741379310345,NA
02886,Kent County,RI,NA,16.97198275862069,5.5506607929515415
02888,Kent County,RI,NA,34.321120689655174,NA
02889,Kent County,RI,NA,12.877155172413794,NA
02891,Washington County,RI,45.90488771466315,NA,NA
02893,Kent County,RI,73.64597093791282,NA,NA
02909,Providence County,RI,13.606340819022458,NA,NA
02911,Providence County,RI,NA,47.89870689655172,NA
29073,Lexington County,SC,NA,30.064655172413797,NA
29078,Kershaw County,SC,69.88110964332893,NA,NA
29102,Clarendon County,SC,NA,45.366379310344826,NA
29108,Newberry County,SC,NA,41.2176724137931,NA
29150,Sumter County,SC,NA,19.719827586206897,NA
29180,Fairfield County,SC,68.95640686922061,NA,NA
29205,Richland County,SC,NA,72.14439655172413,NA
29212,Lexington County,SC,NA,NA,45.37444933920705
29406,Charleston County,SC,NA,NA,66.431718061674
29407,Charleston County,SC,NA,36.26077586206897,12.334801762114537
29410,Berkeley County,SC,NA,NA,65.55066079295155
29412,Charleston County,SC,NA,14.601293103448276,NA
29414,Charleston County,SC,25.36327608982827,17.887931034482758,NA
29418,Charleston County,SC,31.04359313077939,NA,NA
29420,Dorchester County,SC,NA,NA,97.70925110132158
29440,Georgetown County,SC,65.65389696169089,NA,NA
29445,Berkeley County,SC,NA,52.80172413793104,NA
29449,Charleston County,SC,91.41347424042272,88.36206896551724,NA
29455,Charleston County,SC,NA,25.16163793103448,NA
29456,Dorchester County,SC,28.335535006605017,NA,NA
29461,Berkeley County,SC,55.21796565389696,NA,NA
29464,Charleston County,SC,NA,49.137931034482754,11.629955947136564
29466,Charleston County,SC,NA,NA,69.0748898678414
29477,Dorchester County,SC,84.4121532364597,NA,NA
29485,Dorchester County,SC,NA,57.004310344827594,NA
29486,Berkeley County,SC,NA,NA,66.6079295154185
29488,Colleton County,SC,NA,NA,46.34361233480176
29492,Berkeley County,SC,NA,91.16379310344827,NA
29505,Florence County,SC,39.03566710700132,NA,NA
29510,Georgetown County,SC,NA,75.59267241379311,NA
29526,Horry County,SC,NA,7.327586206896551,NA
29532,Darlington County,SC,51.2549537648613,72.57543103448276,NA
29540,Darlington County,SC,NA,94.39655172413794,NA
29554,Williamsburg County,SC,NA,83.1896551724138,NA
29560,Florence County,SC,NA,56.896551724137936,NA
29569,Horry County,SC,NA,NA,67.22466960352423
29571,Marion County,SC,56.73712021136063,NA,68.81057268722466
29576,Horry County,SC,89.56406869220608,NA,NA
29577,Horry County,SC,NA,NA,45.55066079295154
29579,Horry County,SC,NA,24.78448275862069,NA
29583,Florence County,SC,NA,NA,92.68722466960352
29585,Georgetown County,SC,NA,40.30172413793103,NA
29588,Horry County,SC,NA,87.44612068965517,NA
29605,Greenville County,SC,18.09775429326288,NA,NA
29611,Greenville County,SC,8.388375165125495,NA,NA
29615,Greenville County,SC,NA,28.987068965517242,NA
29620,Abbeville County,SC,NA,94.18103448275862,NA
29624,Anderson County,SC,NA,43.53448275862069,NA
29640,Pickens County,SC,NA,66.8103448275862,NA
29642,Pickens County,SC,25.75957727873184,NA,NA
29646,Greenwood County,SC,35.13870541611625,37.877155172413794,NA
29649,Greenwood County,SC,NA,NA,65.37444933920705
29666,Greenwood County,SC,NA,NA,85.2863436123348
29673,Greenville County,SC,30.779392338177015,NA,NA
29680,Greenville County,SC,NA,22.629310344827587,NA
29690,Greenville County,SC,83.2892998678996,NA,NA
29702,Cherokee County,SC,NA,70.09698275862068,NA
29708,York County,SC,NA,54.202586206896555,NA
29720,Lancaster County,SC,NA,20.58189655172414,20.969162995594715
29730,York County,SC,13.672391017173052,NA,NA
29732,York County,SC,NA,85.12931034482759,NA
29745,York County,SC,NA,73.65301724137932,NA
29801,Aiken County,SC,32.23249669749009,NA,NA
29803,Aiken County,SC,34.61030383091149,NA,NA
29835,McCormick County,SC,76.1558784676354,61.96120689655172,NA
29841,Aiken County,SC,42.932628797886395,NA,46.784140969163
29853,Barnwell County,SC,96.89564068692206,NA,NA
29907,Beaufort County,SC,NA,70.95905172413794,NA
57005,Minnehaha County,SD,NA,88.09267241379311,NA
57006,Brookings County,SD,NA,NA,10.396475770925111
57078,Yankton County,SD,58.98282694848085,NA,NA
57103,Minnehaha County,SD,17.239101717305154,NA,NA
57106,Minnehaha County,SD,NA,NA,2.9955947136563874
57701,Pennington County,SD,NA,NA,7.048458149779736
57702,Pennington County,SD,75.62747688243064,NA,NA
57783,Lawrence County,SD,NA,34.105603448275865,29.955947136563875
37013,Davidson County,TN,7.199471598414796,11.637931034482758,NA
37015,Cheatham County,TN,NA,68.31896551724138,NA
37025,Hickman County,TN,77.87318361955086,NA,NA
37027,Williamson County,TN,NA,NA,14.096916299559473
37042,Montgomery County,TN,NA,29.79525862068966,NA
37043,Montgomery County,TN,28.797886393659184,NA,NA
37055,Dickson County,TN,46.10303830911493,NA,NA
37066,Sumner County,TN,7.067371202113606,NA,NA
37073,Robertson County,TN,78.99603698811096,NA,91.45374449339208
37075,Sumner County,TN,10.96433289299868,NA,NA
37076,Davidson County,TN,28.005284015852048,NA,NA
37087,Wilson County,TN,11.690885072655217,NA,NA
37096,Perry County,TN,NA,86.85344827586206,NA
37122,Wilson County,TN,22.192866578599734,NA,NA
37138,Davidson County,TN,69.41875825627477,45.52801724137931,NA
37146,Cheatham County,TN,88.77146631439894,NA,NA
37148,Sumner County,TN,NA,NA,55.50660792951542
37153,Rutherford County,TN,NA,99.13793103448276,NA
37167,Rutherford County,TN,20.673712021136065,NA,NA
37187,Dickson County,TN,65.25759577278731,NA,NA
37188,Robertson County,TN,76.02377807133422,NA,NA
37204,Davidson County,TN,NA,NA,90.13215859030838
37205,Davidson County,TN,NA,NA,15.859030837004406
37207,Davidson County,TN,8.058124174372523,NA,NA
37211,Davidson County,TN,13.936591809775429,NA,NA
37212,Davidson County,TN,NA,91.43318965517241,NA
37214,Davidson County,TN,NA,NA,56.0352422907489
37216,Davidson County,TN,NA,NA,99.03083700440529
37303,McMinn County,TN,16.512549537648614,NA,NA
37321,Rhea County,TN,51.71730515191546,NA,NA
37323,Bradley County,TN,61.822985468956404,NA,NA
37330,Franklin County,TN,82.69484808454426,NA,NA
37331,McMinn County,TN,65.91809775429326,NA,NA
37334,Lincoln County,TN,29.260237780713343,NA,NA
37343,Hamilton County,TN,NA,48.383620689655174,NA
37353,Bradley County,TN,90.3566710700132,NA,NA
37356,Grundy County,TN,99.8678996036988,NA,NA
37367,Bledsoe County,TN,53.170409511228534,NA,NA
37379,Hamilton County,TN,NA,56.196120689655174,NA
37385,Monroe County,TN,69.15455746367239,NA,NA
37398,Franklin County,TN,NA,76.23922413793103,NA
37405,Hamilton County,TN,NA,70.04310344827587,NA
37601,Washington County,TN,NA,8.081896551724139,NA
37618,Sullivan County,TN,84.4782034346103,NA,NA
37620,Sullivan County,TN,71.53236459709379,NA,NA
37642,Hawkins County,TN,NA,NA,63.61233480176212
37643,Carter County,TN,NA,4.849137931034483,NA
37664,Sullivan County,TN,15.257595772787319,NA,NA
37665,Sullivan County,TN,NA,NA,81.76211453744493
37711,Hawkins County,TN,NA,77.37068965517241,NA
37722,Cocke County,TN,NA,91.64870689655173,NA
37748,Roane County,TN,26.75033025099075,NA,34.801762114537446
37760,Jefferson County,TN,NA,67.34913793103449,NA
37763,Roane County,TN,NA,33.02801724137931,NA
37766,Campbell County,TN,NA,NA,26.96035242290749
37774,Loudon County,TN,NA,NA,25.903083700440526
37801,Blount County,TN,36.9220607661823,NA,25.814977973568283
37803,Blount County,TN,25.09907529722589,58.081896551724135,12.687224669603525
37811,Hawkins County,TN,NA,95.47413793103449,NA
37814,Hamblen County,TN,NA,19.181034482758623,27.488986784140966
37820,Jefferson County,TN,75.75957727873184,NA,NA
37821,Cocke County,TN,NA,21.282327586206897,NA
37826,McMinn County,TN,69.0224570673712,NA,NA
37830,Anderson County,TN,18.229854689564068,NA,NA
37846,Loudon County,TN,93.26287978863937,NA,NA
37849,Knox County,TN,60.7661822985469,NA,NA
37857,Hawkins County,TN,NA,NA,92.51101321585902
37862,Sevier County,TN,30.11889035667107,43.480603448275865,NA
37876,Sevier County,TN,26.354029062087186,NA,68.01762114537445
37885,Monroe County,TN,NA,74.73060344827587,NA
37914,Knox County,TN,NA,29.41810344827586,NA
37917,Knox County,TN,NA,NA,75.68281938325991
37918,Knox County,TN,9.445178335535006,77.58620689655173,NA
37920,Knox County,TN,NA,NA,27.929515418502206
37921,Knox County,TN,NA,95.63577586206897,72.33480176211454
37924,Knox County,TN,82.95904887714663,NA,NA
37931,Knox County,TN,91.54557463672391,NA,NA
37934,Knox County,TN,NA,66.27155172413794,NA
38004,Tipton County,TN,NA,NA,84.66960352422907
38008,Hardeman County,TN,NA,NA,70.48458149779736
38109,Shelby County,TN,7.661822985468956,10.9375,24.669603524229075
38111,Shelby County,TN,NA,NA,38.59030837004405
38115,Shelby County,TN,NA,NA,67.57709251101322
38117,Shelby County,TN,NA,91.32543103448276,NA
38118,Shelby County,TN,12.87978863936592,NA,NA
38120,Shelby County,TN,NA,89.17025862068965,NA
38135,Shelby County,TN,71.53236459709379,NA,NA
38301,Madison County,TN,NA,11.961206896551724,31.8942731277533
38315,McNairy County,TN,91.28137384412153,NA,NA
38401,Maury County,TN,NA,NA,52.0704845814978
38462,Lewis County,TN,NA,70.63577586206897,NA
38478,Giles County,TN,NA,52.316810344827594,NA
38501,Putnam County,TN,NA,NA,20.881057268722465
38506,Putnam County,TN,NA,NA,28.54625550660793
38544,Putnam County,TN,54.62351387054161,NA,NA
38555,Cumberland County,TN,31.175693527080583,30.711206896551722,23.700440528634363
38558,Cumberland County,TN,NA,42.241379310344826,NA
38571,Cumberland County,TN,NA,34.105603448275865,NA
38572,Cumberland County,TN,NA,77.80172413793103,NA
75001,Dallas County,TX,NA,95.6896551724138,NA
75002,Collin County,TX,NA,70.79741379310344,NA
75006,Dallas County,TX,37.12021136063408,NA,NA
75009,Collin County,TX,NA,NA,84.93392070484582
75020,Grayson County,TX,38.44121532364597,27.209051724137932,NA
75021,Grayson County,TX,NA,NA,92.86343612334802
75023,Collin County,TX,NA,60.668103448275865,NA
75025,Collin County,TX,NA,NA,56.21145374449339
75028,Denton County,TX,NA,NA,69.86784140969164
75033,,TX,57.33157199471598,NA,NA
75034,Denton County,TX,59.379128137384406,NA,NA
75050,Dallas County,TX,63.27608982826949,84.59051724137932,NA
75052,Dallas County,TX,NA,NA,60.792951541850215
75057,Denton County,TX,NA,77.64008620689656,NA
75061,Dallas County,TX,41.809775429326294,18.588362068965516,NA
75062,Dallas County,TX,NA,NA,37.092511013215855
75067,Denton County,TX,25.09907529722589,NA,NA
75070,Collin County,TX,NA,33.13577586206897,NA
75076,Grayson County,TX,NA,97.41379310344827,NA
75077,Denton County,TX,63.87054161162483,70.79741379310344,NA
75080,Dallas County,TX,NA,88.03879310344827,NA
75081,Dallas County,TX,NA,71.33620689655173,58.14977973568281
75087,Rockwall County,TX,62.28533685601057,NA,NA
75088,Dallas County,TX,81.96829590488771,NA,84.84581497797356
75089,Dallas County,TX,NA,84.21336206896551,NA
75090,Grayson County,TX,NA,NA,51.27753303964758
75092,Grayson County,TX,37.846763540290624,NA,NA
75093,Collin County,TX,NA,NA,64.75770925110133
75098,Collin County,TX,61.49273447820344,NA,NA
75104,Dallas County,TX,NA,21.497844827586206,NA
75115,Dallas County,TX,NA,NA,74.09691629955947
75119,Ellis County,TX,44.055482166446495,58.94396551724138,NA
75126,Kaufman County,TX,24.042272126816382,NA,NA
75134,Dallas County,TX,NA,63.415948275862064,NA
75142,Kaufman County,TX,NA,NA,56.91629955947136
75149,Dallas County,TX,NA,NA,35.59471365638767
75150,Dallas County,TX,45.640686922060766,61.206896551724135,NA
75154,Ellis County,TX,NA,80.98060344827587,NA
75156,Henderson County,TX,NA,NA,56.91629955947136
75165,Ellis County,TX,21.334214002642007,18.69612068965517,NA
75169,Van Zandt County,TX,NA,58.297413793103445,NA
75181,Dallas County,TX,93.72523117569352,88.95474137931035,NA
75189,Rockwall County,TX,64.92734478203434,69.50431034482759,NA
75205,Dallas County,TX,54.359313077939234,62.06896551724138,NA
75206,Dallas County,TX,NA,52.963362068965516,NA
75208,Dallas County,TX,NA,73.8146551724138,NA
75209,Dallas County,TX,56.40686922060766,58.459051724137936,NA
75211,Dallas County,TX,41.34742404227213,NA,NA
75214,Dallas County,TX,NA,NA,57.44493392070484
75217,Dallas County,TX,6.208718626155878,NA,35.41850220264317
75218,Dallas County,TX,64.53104359313078,NA,51.541850220264315
75225,Dallas County,TX,NA,NA,28.01762114537445
75227,Dallas County,TX,NA,59.80603448275862,NA
75228,Dallas County,TX,38.17701453104359,NA,NA
75230,Dallas County,TX,NA,37.984913793103445,NA
75231,Dallas County,TX,NA,NA,84.49339207048459
75234,Dallas County,TX,NA,40.51724137931034,40.61674008810573
75240,Dallas County,TX,NA,88.84698275862068,NA
75243,Dallas County,TX,NA,35.021551724137936,33.215859030837
75244,Dallas County,TX,NA,NA,81.1453744493392
75287,Denton County,TX,32.562747688243064,NA,NA
75402,Hunt County,TX,NA,43.049568965517246,NA
75409,Collin County,TX,NA,79.74137931034483,NA
75454,Collin County,TX,90.88507265521797,NA,NA
75455,Titus County,TX,NA,NA,43.43612334801762
75457,Franklin County,TX,87.64861294583883,89.54741379310344,NA
75474,Hunt County,TX,NA,49.515086206896555,NA
75482,Hopkins County,TX,NA,NA,35.06607929515418
75494,Wood County,TX,78.26948480845442,NA,51.80616740088105
75497,Wood County,TX,NA,72.30603448275862,NA
75601,Gregg County,TX,85.07265521796566,NA,92.2466960352423
75604,Gregg County,TX,32.36459709379128,NA,NA
75605,Gregg County,TX,42.800528401585204,29.6875,60.969162995594715
75633,Panola County,TX,66.5785997357992,NA,NA
75638,Morris County,TX,NA,NA,85.46255506607929
75640,Upshur County,TX,88.24306472919419,NA,NA
75652,Rusk County,TX,NA,NA,94.5374449339207
75657,Marion County,TX,86.78996036988111,NA,NA
75662,Gregg County,TX,NA,NA,91.01321585903084
75672,Harrison County,TX,NA,NA,53.12775330396475
75701,Smith County,TX,28.20343461030383,NA,NA
75702,Smith County,TX,NA,NA,86.51982378854626
75703,Smith County,TX,85.00660501981507,NA,74.7136563876652
75704,Smith County,TX,76.94848084544253,NA,NA
75706,Smith County,TX,77.14663143989432,NA,NA
75708,Smith County,TX,NA,77.37068965517241,NA
75709,Smith County,TX,NA,74.51508620689656,NA
75751,Henderson County,TX,NA,85.02155172413794,NA
75757,Smith County,TX,NA,91.27155172413794,82.4669603524229
75758,Henderson County,TX,NA,93.58836206896551,97.18061674008811
75762,Smith County,TX,86.26155878467635,NA,NA
75763,Anderson County,TX,NA,78.34051724137932,66.431718061674
75766,Cherokee County,TX,NA,28.879310344827587,NA
75773,Wood County,TX,NA,71.33620689655173,62.643171806167395
75783,Wood County,TX,94.25363276089828,NA,99.11894273127754
75789,Smith County,TX,NA,NA,98.6784140969163
75803,Anderson County,TX,53.76486129458389,NA,NA
75901,Angelina County,TX,29.06208718626156,NA,32.158590308370044
75904,Angelina County,TX,NA,70.47413793103449,NA
75935,Shelby County,TX,65.98414795244386,NA,82.81938325991189
75951,Jasper County,TX,NA,NA,33.12775330396476
75964,Nacogdoches County,TX,52.245706737120216,NA,NA
75965,Nacogdoches County,TX,NA,74.35344827586206,NA
75966,Newton County,TX,92.8005284015852,NA,NA
76001,Tarrant County,TX,NA,69.66594827586206,NA
76010,Tarrant County,TX,56.010568031704096,NA,NA
76013,Tarrant County,TX,NA,50.915948275862064,NA
76016,Tarrant County,TX,NA,16.97198275862069,28.634361233480178
76017,Tarrant County,TX,NA,56.68103448275862,66.25550660792952
76020,Tarrant County,TX,NA,NA,50.5726872246696
76021,Tarrant County,TX,NA,79.95689655172413,NA
76033,Johnson County,TX,29.52443857331572,NA,NA
76034,Tarrant County,TX,NA,80.38793103448276,NA
76036,Tarrant County,TX,NA,48.22198275862069,NA
76040,Tarrant County,TX,NA,61.26077586206896,NA
76048,Hood County,TX,89.63011889035667,24.030172413793103,35.947136563876654
76049,Hood County,TX,NA,63.793103448275865,NA
76051,Tarrant County,TX,24.30647291941876,NA,NA
76053,Tarrant County,TX,NA,NA,40.881057268722465
76058,Johnson County,TX,74.04227212681637,NA,NA
76063,Tarrant County,TX,35.60105680317041,8.674568965517242,NA
76067,Palo Pinto County,TX,43.52708058124175,NA,NA
76078,Wise County,TX,NA,98.59913793103449,NA
76085,Parker County,TX,80.64729194187582,48.97629310344828,NA
76087,Parker County,TX,NA,32.2198275862069,NA
76104,Tarrant County,TX,NA,53.34051724137932,NA
76110,Tarrant County,TX,NA,41.109913793103445,NA
76112,Tarrant County,TX,NA,9.752155172413794,NA
76114,Tarrant County,TX,34.74240422721268,NA,NA
76117,Tarrant County,TX,NA,28.01724137931034,NA
76119,Tarrant County,TX,NA,28.448275862068968,NA
76120,Tarrant County,TX,NA,75.43103448275862,NA
76131,Tarrant County,TX,NA,53.933189655172406,NA
76132,Tarrant County,TX,NA,NA,75.77092511013215
76133,Tarrant County,TX,NA,15.301724137931034,NA
76135,Tarrant County,TX,46.829590488771466,NA,NA
76140,Tarrant County,TX,59.577278731836195,NA,NA
76148,Tarrant County,TX,33.091149273447826,NA,NA
76180,Tarrant County,TX,NA,26.50862068965517,23.876651982378856
76182,Tarrant County,TX,NA,26.239224137931032,NA
76201,Denton County,TX,72.91941875825627,NA,NA
76208,Denton County,TX,NA,39.547413793103445,NA
76226,Denton County,TX,57.001321003963014,NA,NA
76227,Denton County,TX,NA,88.14655172413794,NA
76230,Montague County,TX,71.79656538969617,62.661637931034484,NA
76234,Wise County,TX,NA,79.04094827586206,NA
76240,Cooke County,TX,NA,60.129310344827594,NA
76244,Tarrant County,TX,NA,43.64224137931034,NA
76247,Denton County,TX,97.42404227212683,NA,NA
76258,Denton County,TX,88.44121532364598,NA,NA
76310,Wichita County,TX,NA,89.00862068965517,NA
76384,Wilbarger County,TX,NA,51.13146551724138,NA
76426,Wise County,TX,NA,59.9676724137931,NA
76442,Comanche County,TX,NA,NA,52.51101321585902
76504,Bell County,TX,6.935270805812417,NA,NA
76513,Bell County,TX,NA,21.60560344827586,NA
76520,Milam County,TX,58.78467635402907,NA,NA
76542,Bell County,TX,NA,16.648706896551722,12.599118942731277
76543,Bell County,TX,21.268163804491415,NA,NA
76548,Bell County,TX,64.72919418758256,NA,NA
76550,Lampasas County,TX,79.6565389696169,NA,NA
76633,McLennan County,TX,NA,98.86853448275862,NA
76634,Bosque County,TX,NA,59.59051724137932,NA
76657,McLennan County,TX,NA,75.75431034482759,NA
76692,Hill County,TX,87.84676354029062,NA,NA
76708,McLennan County,TX,NA,NA,80.1762114537445
76710,McLennan County,TX,NA,NA,10.484581497797357
76801,Brown County,TX,72.12681638044914,NA,NA
76849,Kimble County,TX,NA,86.74568965517241,NA
76901,Tom Green County,TX,68.42800528401585,NA,NA
76903,Tom Green County,TX,NA,NA,85.37444933920705
76904,Tom Green County,TX,78.20343461030383,NA,NA
77014,Harris County,TX,95.3764861294584,NA,NA
77019,Harris County,TX,NA,NA,97.3568281938326
77027,Harris County,TX,NA,63.254310344827594,NA
77028,Harris County,TX,NA,NA,45.81497797356828
77038,Harris County,TX,NA,86.69181034482759,NA
77040,Harris County,TX,NA,NA,53.30396475770925
77055,Harris County,TX,NA,77.90948275862068,NA
77057,Harris County,TX,NA,46.928879310344826,NA
77058,Harris County,TX,97.88639365918098,NA,NA
77059,Harris County,TX,NA,52.69396551724138,NA
77064,Harris County,TX,57.59577278731837,NA,NA
77069,Harris County,TX,NA,NA,58.6784140969163
77070,Harris County,TX,NA,17.295258620689655,29.691629955947135
77071,Harris County,TX,50.99075297225891,NA,NA
77074,Harris County,TX,NA,NA,73.83259911894274
77076,Harris County,TX,NA,83.24353448275862,NA
77077,Harris County,TX,35.86525759577279,NA,NA
77078,Harris County,TX,NA,52.855603448275865,NA
77083,Harris County,TX,33.48745046235139,NA,NA
77084,Harris County,TX,7.926023778071334,16.325431034482758,95.77092511013215
77085,Harris County,TX,78.92998678996037,74.24568965517241,NA
77090,Harris County,TX,NA,NA,64.49339207048457
77091,Harris County,TX,NA,39.38577586206897,NA
77092,Harris County,TX,NA,NA,73.65638766519824
77095,Harris County,TX,NA,56.8426724137931,NA
77096,Harris County,TX,NA,35.452586206896555,76.47577092511013
77301,Montgomery County,TX,NA,73.59913793103449,NA
77320,Walker County,TX,NA,59.15948275862068,NA
77327,Liberty County,TX,80.11889035667107,NA,NA
77339,Harris County,TX,NA,29.63362068965517,30.220264317180618
77355,Montgomery County,TX,NA,38.95474137931034,NA
77356,Montgomery County,TX,NA,29.310344827586203,NA
77357,Montgomery County,TX,78.5336856010568,NA,NA
77375,Harris County,TX,73.18361955085865,27.586206896551722,NA
77378,Montgomery County,TX,69.88110964332893,79.52586206896551,NA
77379,Harris County,TX,18.82430647291942,NA,59.29515418502203
77380,Montgomery County,TX,NA,48.275862068965516,NA
77384,Montgomery County,TX,NA,83.13577586206897,NA
77385,Montgomery County,TX,50.264200792602374,NA,NA
77388,Harris County,TX,NA,76.07758620689656,NA
77406,Fort Bend County,TX,NA,21.174568965517242,NA
77429,Harris County,TX,61.09643328929987,2.3168103448275863,18.854625550660792
77433,Harris County,TX,NA,45.258620689655174,NA
77437,Wharton County,TX,53.03830911492734,NA,NA
77447,Harris County,TX,NA,93.53448275862068,NA
77449,Harris County,TX,NA,NA,47.31277533039648
77469,Fort Bend County,TX,22.324966974900924,NA,NA
77471,Fort Bend County,TX,30.779392338177015,49.78448275862069,NA
77478,Fort Bend County,TX,NA,39.60129310344828,43.70044052863436
77479,Fort Bend County,TX,NA,NA,26.343612334801765
77494,Fort Bend County,TX,NA,11.206896551724139,NA
77498,Fort Bend County,TX,NA,73.22198275862068,NA
77502,Harris County,TX,NA,49.137931034482754,NA
77511,Brazoria County,TX,10.568031704095112,8.620689655172415,NA
77515,Brazoria County,TX,NA,NA,34.5374449339207
77520,Harris County,TX,89.69616908850726,NA,NA
77521,Harris County,TX,22.258916776750333,NA,NA
77531,Brazoria County,TX,NA,73.54525862068965,NA
77535,Liberty County,TX,93.9894319682959,37.28448275862069,NA
77551,Galveston County,TX,NA,19.612068965517242,NA
77568,Galveston County,TX,26.882430647291944,NA,53.21585903083701
77571,Harris County,TX,21.598414795244388,NA,46.6079295154185
77573,Galveston County,TX,28.533685601056803,2.209051724137931,NA
77581,Brazoria County,TX,NA,47.521551724137936,NA
77583,Brazoria County,TX,NA,59.752155172413794,NA
77584,Brazoria County,TX,NA,NA,69.69162995594714
77611,Orange County,TX,NA,76.40086206896551,NA
77619,Jefferson County,TX,83.88375165125495,NA,NA
77625,Hardin County,TX,93.65918097754293,NA,NA
77627,Jefferson County,TX,NA,96.76724137931035,NA
77630,Orange County,TX,NA,25.646551724137932,72.77533039647577
77632,Orange County,TX,NA,60.07543103448276,NA
77642,Jefferson County,TX,22.457067371202115,NA,NA
77659,Hardin County,TX,NA,96.33620689655173,NA
77665,Chambers County,TX,NA,81.30387931034483,NA
77707,Jefferson County,TX,86.59180977542933,NA,NA
77802,Brazos County,TX,19.088507265521795,NA,NA
77808,Brazos County,TX,77.21268163804491,51.831896551724135,NA
77830,Grimes County,TX,99.00924702774108,NA,NA
77836,Burleson County,TX,NA,40.94827586206897,NA
77840,Brazos County,TX,NA,NA,72.4229074889868
77845,Brazos County,TX,NA,18.911637931034484,14.625550660792952
77864,Madison County,TX,NA,96.4978448275862,NA
77868,Grimes County,TX,NA,33.459051724137936,NA
77901,Victoria County,TX,NA,15.193965517241379,21.762114537444933
77904,Victoria County,TX,60.83223249669749,27.155172413793103,NA
77995,Lavaca County,TX,NA,64.87068965517241,NA
78015,Bexar County,TX,NA,NA,93.3920704845815
78026,Atascosa County,TX,NA,NA,84.49339207048459
78028,Kerr County,TX,NA,10.829741379310345,NA
78040,Webb County,TX,NA,NA,13.480176211453745
78045,Webb County,TX,NA,24.676724137931032,NA
78046,Webb County,TX,NA,19.181034482758623,41.409691629955944
78061,Frio County,TX,NA,82.70474137931035,NA
78070,Comal County,TX,NA,74.94612068965517,NA
78076,Zapata County,TX,NA,NA,84.75770925110132
78102,Bee County,TX,67.8335535006605,NA,NA
78108,Guadalupe County,TX,62.81373844121533,63.900862068965516,NA
78130,Comal County,TX,NA,NA,6.6960352422907485
78133,Comal County,TX,49.9339498018494,NA,NA
78201,Bexar County,TX,NA,14.385775862068966,NA
78210,Bexar County,TX,NA,42.672413793103445,NA
78211,Bexar County,TX,NA,78.66379310344827,NA
78223,Bexar County,TX,NA,NA,27.400881057268723
78228,Bexar County,TX,51.38705416116248,NA,NA
78244,Bexar County,TX,49.86789960369881,NA,NA
78250,Bexar County,TX,NA,45.581896551724135,NA
78253,Bexar County,TX,46.03698811096433,NA,NA
78254,Bexar County,TX,NA,63.577586206896555,NA
78255,Bexar County,TX,NA,86.90732758620689,NA
78260,Bexar County,TX,NA,79.63362068965517,NA
78363,Kleberg County,TX,NA,NA,57.885462555066084
78374,San Patricio County,TX,NA,91.59482758620689,NA
78410,Nueces County,TX,70.40951122853369,NA,NA
78414,Nueces County,TX,50.19815059445178,NA,81.4977973568282
78503,Hidalgo County,TX,58.98282694848085,NA,NA
78521,Cameron County,TX,NA,NA,40.52863436123348
78577,Hidalgo County,TX,21.466314398943197,16.756465517241377,NA
78586,Cameron County,TX,NA,37.230603448275865,NA
78596,Hidalgo County,TX,NA,45.689655172413794,NA
78602,Bastrop County,TX,NA,53.98706896551724,NA
78621,Bastrop County,TX,58.718626155878475,NA,NA
78624,Gillespie County,TX,NA,39.924568965517246,75.33039647577093
78640,Hays County,TX,NA,31.788793103448278,NA
78654,Burnet County,TX,NA,30.334051724137932,NA
78665,Williamson County,TX,40.4887714663144,NA,NA
78666,Hays County,TX,NA,NA,17.180616740088105
78723,Travis County,TX,50,NA,NA
78734,Travis County,TX,NA,58.890086206896555,NA
78735,Travis County,TX,NA,NA,73.21585903083701
78745,Travis County,TX,NA,48.65301724137931,NA
78746,Travis County,TX,66.24834874504624,81.57327586206897,NA
78750,Travis County,TX,NA,NA,52.77533039647577
78754,Travis County,TX,NA,84.42887931034483,NA
78758,Travis County,TX,43.064729194187585,NA,NA
78759,Travis County,TX,68.22985468956408,NA,NA
78840,Val Verde County,TX,NA,12.823275862068966,NA
78957,Bastrop County,TX,NA,80.92672413793103,NA
79106,Potter County,TX,44.121532364597094,NA,NA
79107,Potter County,TX,NA,NA,60.08810572687224
79109,Randall County,TX,NA,82.27370689655173,NA
79110,Randall County,TX,NA,NA,86.6079295154185
79118,Randall County,TX,NA,73.92241379310344,NA
79121,Randall County,TX,NA,93.42672413793103,NA
79316,Terry County,TX,NA,64.11637931034483,NA
79323,Yoakum County,TX,NA,98.97629310344827,NA
79412,Lubbock County,TX,48.61294583883752,NA,NA
79413,Lubbock County,TX,NA,NA,27.841409691629952
79423,Lubbock County,TX,NA,NA,27.75330396475771
79510,Callahan County,TX,NA,NA,97.53303964757708
79549,Scurry County,TX,NA,NA,50.308370044052865
79556,Nolan County,TX,NA,NA,47.57709251101321
79602,Taylor County,TX,NA,85.88362068965517,NA
79603,Taylor County,TX,NA,25.808189655172413,NA
79605,Taylor County,TX,30.647291941875825,NA,54.62555066079295
79606,Taylor County,TX,50.59445178335535,NA,NA
79707,Midland County,TX,NA,34.644396551724135,NA
79720,Howard County,TX,NA,44.55818965517241,NA
79735,Pecos County,TX,NA,79.25646551724138,NA
79762,Ector County,TX,50.92470277410832,32.59698275862069,NA
79763,Ector County,TX,NA,NA,62.20264317180617
79821,El Paso County,TX,97.15984147952443,NA,NA
79838,El Paso County,TX,NA,NA,93.30396475770925
79902,El Paso County,TX,92.00792602377807,NA,NA
79903,El Paso County,TX,78.79788639365918,NA,NA
79905,El Paso County,TX,NA,NA,77.79735682819383
79912,El Paso County,TX,NA,76.13146551724138,NA
79924,El Paso County,TX,NA,71.17456896551724,NA
79925,El Paso County,TX,NA,NA,29.515418502202646
79930,El Paso County,TX,NA,63.577586206896555,NA
79934,El Paso County,TX,NA,89.17025862068965,NA
79936,El Paso County,TX,8.190224570673713,13.14655172413793,NA
79938,El Paso County,TX,24.50462351387054,NA,NA
84003,Utah County,UT,NA,52.26293103448276,NA
84005,Utah County,UT,70.01321003963011,NA,NA
84029,Tooele County,UT,NA,90.94827586206897,NA
84057,Utah County,UT,55.878467635402906,NA,NA
84067,Weber County,UT,NA,50.377155172413794,NA
84074,Tooele County,UT,NA,14.493534482758621,NA
84088,Salt Lake County,UT,29.656538969616907,NA,71.01321585903084
84094,Salt Lake County,UT,NA,38.900862068965516,NA
84102,Salt Lake County,UT,NA,81.14224137931035,NA
84105,Salt Lake County,UT,NA,55.765086206896555,NA
84109,Salt Lake County,UT,54.09511228533685,NA,NA
84116,Salt Lake County,UT,21.92866578599736,25.05387931034483,NA
84118,Salt Lake County,UT,12.219286657859973,NA,NA
84120,Salt Lake County,UT,NA,46.228448275862064,NA
84121,Salt Lake County,UT,NA,11.745689655172415,49.691629955947135
84129,,UT,NA,21.228448275862068,NA
84302,Box Elder County,UT,68.09775429326288,86.63793103448276,NA
84332,Cache County,UT,NA,NA,95.8590308370044
84501,Carbon County,UT,NA,NA,79.20704845814977
84648,Juab County,UT,85.99735799207397,NA,NA
84651,Utah County,UT,NA,89.33189655172413,NA
84701,Sevier County,UT,NA,NA,98.23788546255507
84720,Iron County,UT,NA,62.877155172413794,NA
84721,Iron County,UT,NA,83.08189655172413,NA
84737,Washington County,UT,NA,55.22629310344828,NA
84790,Washington County,UT,35.468956406869225,NA,NA
05001,Windsor County,VT,77.60898282694848,NA,NA
05143,Windsor County,VT,NA,86.15301724137932,NA
05201,Bennington County,VT,NA,NA,81.40969162995594
05401,Chittenden County,VT,NA,NA,42.20264317180617
05408,Chittenden County,VT,NA,68.48060344827587,NA
05452,Chittenden County,VT,NA,60.560344827586206,NA
05477,Chittenden County,VT,NA,96.82112068965517,NA
05478,Franklin County,VT,NA,25.10775862068966,NA
05701,Rutland County,VT,NA,6.4655172413793105,NA
05743,Rutland County,VT,98.21664464993395,NA,NA
20109,Prince William County,VA,24.90092470277411,79.79525862068965,NA
20112,Prince William County,VA,64.13474240422721,NA,NA
20121,Fairfax County,VA,92.66842800528401,NA,NA
20169,Prince William County,VA,NA,61.314655172413794,82.55506607929516
20176,Loudoun County,VA,NA,NA,46.43171806167401
20191,Fairfax County,VA,NA,56.734913793103445,NA
22030,Fairfax County,VA,23.31571994715984,NA,NA
22032,Fairfax County,VA,NA,66.97198275862068,NA
22033,Fairfax County,VA,49.735799207397626,NA,NA
22039,Fairfax County,VA,NA,NA,81.93832599118943
22043,Fairfax County,VA,60.700132100396296,70.6896551724138,NA
22046,Falls Church city,VA,95.97093791281374,NA,NA
22102,Fairfax County,VA,64.86129458388376,NA,76.0352422907489
22152,Fairfax County,VA,NA,NA,31.277533039647576
22153,Fairfax County,VA,47.886393659180975,NA,NA
22181,Fairfax County,VA,NA,90.03232758620689,NA
22182,Fairfax County,VA,NA,74.73060344827587,NA
22191,Prince William County,VA,38.90356671070013,23.006465517241377,NA
22192,Prince William County,VA,13.870541611624834,NA,NA
22193,Prince William County,VA,NA,13.900862068965516,NA
22205,Arlington County,VA,78.665785997358,NA,NA
22207,Arlington County,VA,NA,34.26724137931034,NA
22304,Alexandria city,VA,9.841479524438574,25.592672413793103,NA
22308,Fairfax County,VA,73.24966974900924,NA,NA
22309,Fairfax County,VA,20.541611624834875,NA,NA
22312,Fairfax County,VA,NA,55.92672413793104,NA
22314,Alexandria city,VA,NA,41.43318965517241,NA
22315,Fairfax County,VA,NA,51.5625,NA
22407,Spotsylvania County,VA,12.48348745046235,13.038793103448276,NA
22485,King George County,VA,NA,45.150862068965516,NA
22520,Westmoreland County,VA,NA,72.95258620689656,NA
22601,Winchester city,VA,NA,89.38577586206897,NA
22602,Frederick County,VA,NA,NA,47.48898678414097
22603,Frederick County,VA,NA,84.80603448275862,NA
22657,Shenandoah County,VA,NA,NA,36.91629955947137
22701,Culpeper County,VA,NA,44.7198275862069,NA
22801,Harrisonburg city,VA,34.34610303830912,NA,18.14977973568282
22815,Rockingham County,VA,42.668428005284014,NA,NA
22824,Shenandoah County,VA,NA,NA,76.29955947136564
22835,Page County,VA,NA,42.40301724137931,36.82819383259912
22851,Page County,VA,77.08058124174373,NA,NA
22901,Albemarle County,VA,NA,NA,31.982378854625548
22903,Charlottesville city,VA,NA,63.73922413793104,NA
22911,Albemarle County,VA,NA,NA,23.083700440528634
22939,Augusta County,VA,85.93130779392338,67.40301724137932,NA
22980,Waynesboro city,VA,5.9445178335535,NA,39.82378854625551
23040,Cumberland County,VA,97.95244385733157,NA,NA
23111,Hanover County,VA,40.02642007926024,NA,NA
23112,Chesterfield County,VA,34.5442536327609,NA,NA
23139,Powhatan County,VA,NA,NA,91.54185022026432
23150,Henrico County,VA,NA,71.875,NA
23185,James City County,VA,NA,1.8318965517241377,NA
23188,James City County,VA,NA,31.14224137931034,0.3524229074889868
23192,Hanover County,VA,97.29194187582563,NA,NA
23226,Richmond city,VA,NA,50.5926724137931,NA
23229,Henrico County,VA,57.001321003963014,32.543103448275865,17.62114537444934
23234,Chesterfield County,VA,13.80449141347424,NA,NA
23235,Chesterfield County,VA,NA,NA,16.47577092511013
23236,Chesterfield County,VA,NA,37.17672413793103,NA
23237,Chesterfield County,VA,NA,50.10775862068966,NA
23294,Henrico County,VA,NA,NA,79.55947136563877
23321,Chesapeake city,VA,NA,NA,17.53303964757709
23322,Chesapeake city,VA,NA,NA,12.158590308370044
23323,Chesapeake city,VA,27.080581241743722,NA,NA
23430,Isle of Wight County,VA,NA,24.137931034482758,31.453744493392072
23434,Suffolk city,VA,NA,31.73491379310345,NA
23451,Virginia Beach city,VA,NA,NA,37.62114537444934
23452,Virginia Beach city,VA,NA,NA,31.013215859030836
23454,Virginia Beach city,VA,93.85733157199472,NA,NA
23456,Virginia Beach city,VA,47.22589167767503,5.926724137931035,NA
23462,Virginia Beach city,VA,13.0779392338177,NA,NA
23487,Isle of Wight County,VA,84.74240422721269,NA,NA
23504,Norfolk city,VA,20.01321003963012,NA,NA
23505,Norfolk city,VA,NA,23.760775862068968,NA
23509,Norfolk city,VA,NA,73.49137931034483,NA
23601,Newport News city,VA,NA,NA,22.290748898678416
23608,Newport News city,VA,41.545574636723906,NA,NA
23662,Poquoson city,VA,NA,NA,79.91189427312774
23663,Hampton city,VA,NA,94.23491379310344,NA
23666,Hampton city,VA,7.595772787318363,NA,NA
23669,Hampton city,VA,NA,NA,6.5198237885462555
23701,Portsmouth city,VA,NA,16.864224137931032,80.61674008810573
23703,Portsmouth city,VA,NA,56.088362068965516,NA
23707,Portsmouth city,VA,NA,NA,72.59911894273128
23824,Nottoway County,VA,NA,NA,75.24229074889868
23831,Chesterfield County,VA,NA,NA,38.502202643171806
23851,Franklin city,VA,47.754293262879784,NA,NA
23860,Hopewell city,VA,23.976221928665787,54.36422413793104,NA
23924,Mecklenburg County,VA,NA,89.87068965517241,NA
23944,Lunenburg County,VA,94.31968295904888,NA,NA
23970,Mecklenburg County,VA,NA,NA,56.47577092511013
24012,Roanoke city,VA,22.523117569352706,32.70474137931034,27.13656387665198
24073,Montgomery County,VA,NA,43.21120689655172,NA
24078,Henry County,VA,NA,80.01077586206897,NA
24095,Bedford County,VA,93.32892998678997,NA,NA
24121,Bedford County,VA,NA,NA,70.04405286343612
24153,Salem city,VA,26.75033025099075,NA,NA
24179,Roanoke County,VA,NA,NA,42.55506607929516
24210,Washington County,VA,NA,68.26508620689656,NA
24219,Wise County,VA,32.29854689564069,NA,NA
24224,Russell County,VA,NA,75.21551724137932,NA
24266,Russell County,VA,58.322324966974904,NA,NA
24301,Pulaski County,VA,46.49933949801849,NA,NA
24330,Grayson County,VA,89.10171730515192,81.78879310344827,NA
24340,Washington County,VA,NA,75.10775862068965,NA
24354,Smyth County,VA,NA,30.280172413793103,NA
24360,Wythe County,VA,91.6116248348745,NA,83.52422907488986
24401,Staunton city,VA,NA,75.86206896551724,NA
24416,Buena Vista city,VA,NA,NA,72.51101321585904
24450,Rockbridge County,VA,NA,44.3426724137931,NA
24477,Augusta County,VA,76.75033025099076,NA,NA
24504,Lynchburg city,VA,NA,NA,85.11013215859032
24523,Bedford County,VA,NA,NA,29.867841409691632
24592,Halifax County,VA,NA,25.700431034482758,NA
24614,Buchanan County,VA,97.49009247027742,93.15732758620689,NA
98020,Snohomish County,WA,NA,NA,63.436123348017624
98023,King County,WA,19.154557463672393,9.536637931034484,NA
98029,King County,WA,NA,53.771551724137936,NA
98038,King County,WA,NA,NA,45.02202643171806
98042,King County,WA,NA,7.704741379310345,NA
98057,King County,WA,NA,56.303879310344826,NA
98087,Snohomish County,WA,NA,41.5948275862069,NA
98115,King County,WA,NA,17.726293103448278,NA
98116,King County,WA,58.85072655217966,NA,NA
98146,King County,WA,49.471598414795245,NA,NA
98177,King County,WA,NA,NA,50.13215859030837
98203,Snohomish County,WA,37.912813738441216,NA,NA
98225,Whatcom County,WA,NA,NA,91.36563876651982
98233,Skagit County,WA,73.05151915455747,44.234913793103445,NA
98239,Island County,WA,NA,52.209051724137936,53.480176211453745
98249,Island County,WA,NA,NA,97.09251101321586
98258,Snohomish County,WA,17.17305151915456,38.685344827586206,NA
98270,Snohomish County,WA,NA,23.16810344827586,NA
98271,Snohomish County,WA,NA,42.241379310344826,NA
98273,Skagit County,WA,21.66446499339498,NA,6.255506607929516
98277,Island County,WA,NA,52.047413793103445,NA
98338,Pierce County,WA,38.37516512549538,NA,NA
98362,Clallam County,WA,27.344782034346103,NA,22.73127753303965
98371,Pierce County,WA,NA,NA,39.47136563876652
98372,Pierce County,WA,NA,48.54525862068966,NA
98375,Pierce County,WA,70.3434610303831,NA,NA
98382,Clallam County,WA,NA,46.12068965517241,NA
98387,Pierce County,WA,NA,16.433189655172413,NA
98390,Pierce County,WA,NA,64.54741379310344,NA
98404,Pierce County,WA,NA,33.728448275862064,NA
98407,Pierce County,WA,57.992073976221924,38.0926724137931,NA
98408,Pierce County,WA,NA,47.8448275862069,NA
98467,Pierce County,WA,NA,60.775862068965516,NA
98503,Thurston County,WA,NA,NA,30.572687224669604
98520,Grays Harbor County,WA,51.2549537648613,NA,NA
98569,Grays Harbor County,WA,94.84808454425362,NA,NA
98584,Mason County,WA,26.089828269484812,NA,NA
98607,Clark County,WA,NA,NA,75.59471365638767
98682,Clark County,WA,NA,35.991379310344826,NA
98815,Chelan County,WA,NA,91.8103448275862,NA
98816,Chelan County,WA,NA,89.27801724137932,NA
98848,Grant County,WA,84.74240422721269,NA,NA
98901,Yakima County,WA,44.84808454425363,38.0926724137931,NA
98902,Yakima County,WA,NA,97.52155172413794,64.05286343612335
98903,Yakima County,WA,NA,95.36637931034483,NA
98908,Yakima County,WA,92.14002642007925,56.627155172413794,9.955947136563877
98926,Kittitas County,WA,NA,NA,18.41409691629956
98930,Yakima County,WA,79.52443857331572,NA,NA
98951,Yakima County,WA,NA,82.21982758620689,NA
99019,Spokane County,WA,NA,90.35560344827587,NA
99156,Pend Oreille County,WA,81.50594451783356,NA,NA
99207,Spokane County,WA,NA,NA,57.180616740088105
99208,Spokane County,WA,31.307793923381773,NA,NA
99212,Spokane County,WA,NA,NA,71.18942731277534
99223,Spokane County,WA,57.26552179656539,NA,NA
99301,Franklin County,WA,NA,4.148706896551724,7.577092511013215
99336,Benton County,WA,NA,0.646551724137931,NA
99337,Benton County,WA,20.079260237780712,NA,NA
99352,Benton County,WA,NA,95.79741379310344,2.1145374449339207
99353,Benton County,WA,NA,78.93318965517241,NA
20002,District of Columbia,DC,3.7648612945838837,NA,NA
20003,District of Columbia,DC,NA,34.428879310344826,NA
20009,District of Columbia,DC,69.68295904887715,NA,NA
20011,District of Columbia,DC,5.3500660501981505,NA,NA
20018,District of Columbia,DC,34.41215323645971,NA,NA
20020,District of Columbia,DC,NA,3.556034482758621,NA
20032,District of Columbia,DC,3.5667107001321003,NA,NA
25045,Kanawha County,WV,NA,91.75646551724138,NA
25071,Kanawha County,WV,NA,90.40948275862068,NA
25143,Kanawha County,WV,NA,NA,64.66960352422907
25177,Kanawha County,WV,NA,25.26939655172414,NA
25302,Kanawha County,WV,NA,47.62931034482759,47.048458149779734
25303,Kanawha County,WV,82.89299867899604,NA,NA
25306,Kanawha County,WV,NA,76.77801724137932,NA
25312,Kanawha County,WV,81.10964332892999,NA,NA
25413,Berkeley County,WV,89.82826948480846,NA,NA
25425,Jefferson County,WV,NA,55.71120689655172,88.89867841409692
25438,Jefferson County,WV,83.02509907529722,NA,NA
25508,Logan County,WV,85.27080581241744,57.650862068965516,NA
25526,Putnam County,WV,NA,28.987068965517242,NA
25541,Cabell County,WV,NA,67.78017241379311,NA
25601,Logan County,WV,NA,54.36422413793104,NA
97003,NA,NA,NA,NA,82.90748898678414
25661,Mingo County,WV,NA,NA,76.38766519823788
25801,Raleigh County,WV,8.652575957727873,5.980603448275862,7.488986784140969
26003,Ohio County,WV,47.82034346103038,1.2392241379310345,NA
26062,Hancock County,WV,NA,NA,7.841409691629956
26105,Wood County,WV,39.2998678996037,NA,NA
26164,Jackson County,WV,NA,81.73491379310344,NA
26201,Upshur County,WV,NA,11.799568965517242,NA
26250,Barbour County,WV,NA,95.04310344827587,NA
26301,Harrison County,WV,NA,NA,16.651982378854626
26330,Harrison County,WV,NA,72.2521551724138,NA
26426,Harrison County,WV,85.20475561426684,NA,NA
26431,Harrison County,WV,NA,60.290948275862064,NA
26452,Lewis County,WV,NA,23.275862068965516,NA
26505,Monongalia County,WV,NA,4.256465517241379,NA
26508,Monongalia County,WV,17.76750330250991,3.125,NA
26554,Marion County,WV,2.97225891677675,51.67025862068966,NA
26726,Mineral County,WV,62.54953764861294,NA,NA
53017,Washington County,WI,NA,98.38362068965517,NA
53024,Ozaukee County,WI,NA,46.875,NA
53037,Washington County,WI,NA,76.45474137931035,NA
53042,Manitowoc County,WI,95.44253632760899,NA,NA
53045,Waukesha County,WI,NA,38.200431034482754,NA
53050,Dodge County,WI,NA,84.7521551724138,NA
53051,Waukesha County,WI,NA,68.69612068965517,NA
53061,Calumet County,WI,NA,88.90086206896551,NA
53066,Waukesha County,WI,NA,NA,16.916299559471366
53074,Ozaukee County,WI,NA,63.0926724137931,NA
53081,Sheboygan County,WI,10.898282694848085,NA,NA
53089,Waukesha County,WI,53.83091149273448,NA,72.15859030837004
53095,Washington County,WI,NA,13.20043103448276,NA
53098,Dodge County,WI,NA,45.85129310344828,NA
53105,Racine County,WI,10.369881109643329,NA,62.02643171806167
53115,Walworth County,WI,39.43196829590489,NA,NA
53120,Walworth County,WI,85.60105680317041,NA,NA
53122,Waukesha County,WI,NA,NA,71.27753303964758
53126,Racine County,WI,NA,NA,98.59030837004406
53129,Milwaukee County,WI,62.74768824306472,55.980603448275865,NA
53130,Milwaukee County,WI,91.6776750330251,NA,NA
53132,Milwaukee County,WI,NA,66.21767241379311,NA
53140,Kenosha County,WI,NA,50.32327586206896,20.704845814977972
53142,Kenosha County,WI,NA,14.97844827586207,NA
53147,Walworth County,WI,NA,NA,44.84581497797357
53150,Waukesha County,WI,80.31704095112285,NA,NA
53151,Waukesha County,WI,NA,14.224137931034484,66.69603524229075
53168,Kenosha County,WI,NA,62.122844827586206,NA
53172,Milwaukee County,WI,29.194187582562748,NA,NA
53186,Waukesha County,WI,NA,26.67025862068966,NA
53202,Milwaukee County,WI,38.50726552179656,NA,NA
53204,Milwaukee County,WI,21.862615587846765,NA,NA
53209,Milwaukee County,WI,NA,0.8081896551724138,NA
53212,Milwaukee County,WI,NA,9.590517241379311,NA
53214,Milwaukee County,WI,NA,7.219827586206897,NA
53215,Milwaukee County,WI,16.57859973579921,NA,32.95154185022026
53218,Milwaukee County,WI,60.501981505944514,NA,NA
53219,Milwaukee County,WI,39.365918097754296,NA,NA
53220,Milwaukee County,WI,NA,51.5625,76.56387665198238
53221,Milwaukee County,WI,NA,15.032327586206899,9.251101321585903
53224,Milwaukee County,WI,NA,NA,49.07488986784141
53402,Racine County,WI,4.0290620871862615,NA,11.365638766519824
53406,Racine County,WI,9.775429326287979,NA,1.3215859030837005
53511,Rock County,WI,NA,NA,14.36123348017621
53534,Rock County,WI,NA,44.55818965517241,NA
53545,Rock County,WI,NA,82.97413793103449,NA
53562,Dane County,WI,NA,80.81896551724138,NA
53711,Dane County,WI,NA,NA,75.15418502202643
53821,Crawford County,WI,75.56142668428005,NA,NA
53948,Juneau County,WI,NA,56.78879310344828,NA
53963,Dodge County,WI,83.61955085865259,NA,NA
54001,Polk County,WI,NA,99.03017241379311,NA
54016,St. Croix County,WI,36.98811096433289,NA,NA
54017,St. Croix County,WI,41.677675033025096,NA,65.90308370044052
54020,Polk County,WI,NA,78.98706896551724,80.44052863436123
54110,Calumet County,WI,96.23513870541612,NA,NA
54115,Brown County,WI,37.384412153236454,91.05603448275862,NA
54121,Florence County,WI,90.62087186261559,NA,NA
54151,Marinette County,WI,NA,57.974137931034484,NA
54166,Shawano County,WI,NA,NA,75.06607929515418
54201,Kewaunee County,WI,NA,NA,91.98237885462555
54220,Manitowoc County,WI,4.359313077939234,0.9159482758620688,20.440528634361232
54235,Door County,WI,49.66974900924703,NA,NA
54241,Manitowoc County,WI,52.04755614266843,NA,NA
54304,Brown County,WI,16.380449141347427,NA,18.6784140969163
54313,Brown County,WI,NA,24.78448275862069,NA
54401,Marathon County,WI,60.30383091149274,57.058189655172406,NA
54409,Langlade County,WI,30.250990752972257,NA,7.224669603524229
54451,Taylor County,WI,78.40158520475562,NA,NA
54452,Lincoln County,WI,70.60766182298546,NA,NA
54476,Marathon County,WI,NA,NA,43.08370044052863
54494,Wood County,WI,NA,4.310344827586207,NA
54499,Shawano County,WI,NA,NA,100
54521,Vilas County,WI,NA,62.122844827586206,NA
54601,La Crosse County,WI,NA,0.43103448275862066,NA
54661,Trempealeau County,WI,94.78203434610305,NA,NA
54701,Eau Claire County,WI,34.147952443857335,NA,65.90308370044052
54703,Eau Claire County,WI,NA,22.898706896551722,NA
54729,Chippewa County,WI,25.561426684280054,NA,NA
54751,Dunn County,WI,NA,20.04310344827586,NA
54806,Ashland County,WI,65.38969616908851,NA,NA
54822,Barron County,WI,NA,98.49137931034483,92.77533039647578
54868,Barron County,WI,NA,36.96120689655172,NA
54880,Douglas County,WI,NA,NA,0.7048458149779736
54902,Winnebago County,WI,NA,43.42672413793103,NA
54915,Outagamie County,WI,NA,39.60129310344828,NA
54923,Green Lake County,WI,84.08190224570674,NA,NA
54956,Winnebago County,WI,19.88110964332893,NA,NA
54963,Winnebago County,WI,60.10568031704096,NA,NA
54981,Waupaca County,WI,52.179656538969624,37.60775862068966,NA
82070,Albany County,WY,76.81638044914135,NA,NA
82240,Goshen County,WY,NA,71.71336206896551,NA
82401,Washakie County,WY,NA,NA,95.06607929515418
82701,Weston County,WY,96.16908850726553,NA,NA
82718,Campbell County,WY,46.16908850726552,60.39870689655172,NA
82834,Johnson County,WY,NA,94.50431034482759,NA
