ZipCode,county,state,Adult
35071,Jefferson County,AL,80.3088803088803
35244,Jefferson County,AL,54.054054054054056
36542,Baldwin County,AL,84.16988416988417
36618,Mobile County,AL,79.53667953667953
85614,Pima County,AZ,80.6949806949807
72601,Boone County,AR,62.16216216216216
90023,Los Angeles County,CA,42.084942084942085
90042,Los Angeles County,CA,60.231660231660236
90723,Los Angeles County,CA,59.45945945945946
92071,San Diego County,CA,28.185328185328185
92117,San Diego County,CA,64.0926640926641
92392,San Bernardino County,CA,21.235521235521233
92703,Orange County,CA,43.24324324324324
92843,Orange County,CA,41.6988416988417
93202,Kings County,CA,98.06949806949807
93442,San Luis Obispo County,CA,87.64478764478764
93555,Kern County,CA,27.7992277992278
93933,Monterey County,CA,72.97297297297297
94109,San Francisco County,CA,30.888030888030887
95112,Santa Clara County,CA,42.471042471042466
95355,Stanislaus County,CA,9.266409266409266
95367,Stanislaus County,CA,61.77606177606177
95814,Sacramento County,CA,91.5057915057915
95966,Butte County,CA,40.54054054054054
80033,Jefferson County,CO,56.37065637065637
80206,Denver County,CO,76.06177606177607
80223,Denver County,CO,71.81467181467181
80906,El Paso County,CO,69.4980694980695
81625,Moffat County,CO,44.4015444015444
06112,Hartford County,CT,18.91891891891892
06114,Hartford County,CT,18.146718146718147
06260,Windham County,CT,35.907335907335906
06489,Hartford County,CT,35.13513513513514
06779,Litchfield County,CT,89.96138996138995
06798,Litchfield County,CT,94.5945945945946
32084,St. Johns County,FL,32.818532818532816
32303,Leon County,FL,49.42084942084942
32533,Escambia County,FL,32.818532818532816
32605,Alachua County,FL,31.66023166023166
32708,Seminole County,FL,52.509652509652504
32746,Seminole County,FL,60.61776061776062
32837,Orange County,FL,23.93822393822394
33313,Broward County,FL,24.324324324324326
33709,Pinellas County,FL,57.14285714285714
33825,Highlands County,FL,57.91505791505791
34112,Collier County,FL,62.93436293436293
34668,Pasco County,FL,13.8996138996139
34787,Orange County,FL,28.57142857142857
30260,Clayton County,GA,78.76447876447877
30273,Clayton County,GA,67.56756756756756
30635,Elbert County,GA,72.2007722007722
83686,Canyon County,ID,8.880308880308881
60013,McHenry County,IL,64.47876447876449
60031,Lake County,IL,55.21235521235521
60035,Lake County,IL,50.57915057915058
60160,Cook County,IL,58.68725868725869
60192,Cook County,IL,89.57528957528957
60409,Cook County,IL,33.97683397683397
60517,DuPage County,IL,78.37837837837837
60558,Cook County,IL,94.20849420849422
60615,Cook County,IL,27.413127413127413
60634,Cook County,IL,11.96911196911197
60653,Cook County,IL,33.59073359073359
46140,Hancock County,IN,69.88416988416989
46307,Lake County,IN,2.3166023166023164
46356,Lake County,IN,35.521235521235525
47371,Jay County,IN,62.54826254826254
47610,Warrick County,IN,91.8918918918919
50801,Union County,IA,44.01544401544402
52001,Dubuque County,IA,16.988416988416986
66002,Atchison County,KS,81.85328185328186
66206,Johnson County,KS,93.05019305019306
66215,Johnson County,KS,81.08108108108108
66223,Johnson County,KS,88.8030888030888
40211,Jefferson County,KY,15.444015444015443
41075,Campbell County,KY,77.60617760617761
41701,Perry County,KY,37.06563706563706
42141,Barren County,KY,14.285714285714285
42167,Monroe County,KY,72.58687258687259
70115,Orleans Parish,LA,20.84942084942085
70116,Orleans Parish,LA,55.98455598455598
70785,Livingston Parish,LA,20.077220077220076
71052,De Soto Parish,LA,76.06177606177607
71343,Catahoula Parish,LA,61.003861003861005
71457,Natchitoches Parish,LA,7.335907335907336
04062,Cumberland County,ME,63.32046332046332
04064,York County,ME,81.46718146718148
20659,St. Mary's County,MD,70.27027027027027
01060,Hampshire County,MA,47.49034749034749
01069,Hampden County,MA,68.72586872586872
01201,Berkshire County,MA,1.5444015444015444
01757,Worcester County,MA,50.19305019305019
01876,Middlesex County,MA,77.99227799227799
01923,Essex County,MA,3.474903474903475
01930,Essex County,MA,3.088803088803089
02136,Suffolk County,MA,1.9305019305019304
02332,Plymouth County,MA,79.53667953667953
02453,Middlesex County,MA,9.652509652509652
02576,Plymouth County,MA,67.95366795366795
02720,Bristol County,MA,76.83397683397683
02740,Bristol County,MA,0
02743,Bristol County,MA,86.87258687258688
02747,Bristol County,MA,30.501930501930502
02748,Bristol County,MA,45.94594594594595
02766,Bristol County,MA,20.463320463320464
02769,Bristol County,MA,53.28185328185329
48071,Oakland County,MI,28.957528957528954
48101,Wayne County,MI,26.254826254826252
48150,Wayne County,MI,30.115830115830118
48439,Genesee County,MI,14.671814671814673
48506,Genesee County,MI,27.027027027027028
48624,Gladwin County,MI,42.857142857142854
48650,Bay County,MI,84.94208494208493
48838,Montcalm County,MI,36.67953667953668
49010,Allegan County,MI,48.26254826254826
49417,Ottawa County,MI,19.69111969111969
49464,Ottawa County,MI,57.52895752895753
49503,Kent County,MI,12.355212355212355
49508,Kent County,MI,6.563706563706563
49519,Kent County,MI,17.760617760617762
49525,Kent County,MI,86.10038610038609
49668,Wexford County,MI,96.91119691119691
55082,Washington County,MN,38.996138996138995
55106,Ramsey County,MN,31.27413127413127
55420,Hennepin County,MN,77.22007722007721
55805,St. Louis County,MN,51.35135135135135
55901,Olmsted County,MN,29.343629343629345
56377,Stearns County,MN,83.01158301158301
63080,Franklin County,MO,50.965250965250966
63303,St. Charles County,MO,25.482625482625483
63801,Scott County,MO,24.71042471042471
64429,Clinton County,MO,56.75675675675676
65202,Boone County,MO,13.127413127413126
59714,Gallatin County,MT,73.35907335907336
03051,Hillsborough County,NH,25.096525096525095
03053,Rockingham County,NH,29.72972972972973
03063,Hillsborough County,NH,89.1891891891892
03106,Merrimack County,NH,85.71428571428571
03743,Sullivan County,NH,61.38996138996139
03857,Rockingham County,NH,93.82239382239382
07661,Bergen County,NJ,96.13899613899613
07663,Bergen County,NJ,67.18146718146718
08097,Gloucester County,NJ,100
08110,Camden County,NJ,47.87644787644788
08619,Mercer County,NJ,54.440154440154444
08854,Middlesex County,NJ,8.494208494208493
87120,Bernalillo County,NM,10.038610038610038
87144,Sandoval County,NM,22.779922779922778
88242,Lea County,NM,83.3976833976834
10003,New York County,NY,59.07335907335908
10035,New York County,NY,6.177606177606178
10566,Westchester County,NY,63.7065637065637
12047,Albany County,NY,68.33976833976834
12057,Washington County,NY,99.22779922779922
12184,Columbia County,NY,87.25868725868726
12189,Albany County,NY,44.78764478764479
13027,Onondaga County,NY,15.83011583011583
13209,Onondaga County,NY,52.8957528957529
13365,Herkimer County,NY,39.38223938223938
13676,St. Lawrence County,NY,37.83783783783784
13820,Otsego County,NY,10.81081081081081
14006,Erie County,NY,74.13127413127413
14012,Niagara County,NY,97.2972972972973
14204,Erie County,NY,46.71814671814672
14414,Livingston County,NY,71.42857142857143
14559,Monroe County,NY,12.741312741312742
14580,Monroe County,NY,18.53281853281853
14609,Monroe County,NY,0.7722007722007722
27610,Wake County,NC,7.722007722007722
27850,Halifax County,NC,94.98069498069498
28023,Rowan County,NC,74.5173745173745
28211,Mecklenburg County,NC,34.36293436293436
28314,Cumberland County,NC,34.74903474903475
28403,New Hanover County,NC,43.62934362934363
58701,Ward County,ND,11.583011583011583
43076,Perry County,OH,84.94208494208493
43231,Franklin County,OH,52.123552123552116
43950,Belmont County,OH,44.78764478764479
44035,Lorain County,OH,0.3861003861003861
44107,Cuyahoga County,OH,15.057915057915059
44128,Cuyahoga County,OH,17.374517374517374
44256,Medina County,OH,4.247104247104247
44444,Trumbull County,OH,58.301158301158296
44505,Mahoning County,OH,36.293436293436294
44707,Stark County,OH,65.63706563706563
45231,Hamilton County,OH,8.108108108108109
73103,Oklahoma County,OK,98.84169884169884
74107,Tulsa County,OK,70.65637065637065
74464,Cherokee County,OK,38.61003861003861
97266,Multnomah County,OR,37.45173745173745
15009,Beaver County,PA,81.85328185328186
15044,Allegheny County,PA,69.1119691119691
15061,Beaver County,PA,88.41698841698842
15068,Westmoreland County,PA,21.62162162162162
15146,Allegheny County,PA,53.66795366795367
15212,Allegheny County,PA,26.640926640926644
15601,Westmoreland County,PA,3.861003861003861
16226,Armstrong County,PA,75.67567567567568
17059,Juniata County,PA,86.48648648648648
17331,York County,PA,32.432432432432435
17701,Lycoming County,PA,4.633204633204633
17844,Union County,PA,79.15057915057915
19066,Montgomery County,PA,88.03088803088804
19124,Philadelphia County,PA,1.1583011583011582
19134,Philadelphia County,PA,2.7027027027027026
19382,Chester County,PA,16.602316602316602
19541,Berks County,PA,98.45559845559846
02809,Bristol County,RI,64.86486486486487
02830,Providence County,RI,95.36679536679536
02838,Providence County,RI,97.68339768339769
02864,Providence County,RI,66.02316602316603
02878,Newport County,RI,83.78378378378379
02885,Bristol County,RI,84.55598455598455
02895,Providence County,RI,66.79536679536679
02896,Providence County,RI,95.75289575289575
02909,Providence County,RI,22.393822393822393
02914,Providence County,RI,49.80694980694981
02919,Providence County,RI,45.559845559845556
29164,Aiken County,SC,96.52509652509652
29617,Greenville County,SC,40.15444015444015
29669,Anderson County,SC,70.65637065637065
29907,Beaufort County,SC,92.66409266409266
37076,Davidson County,TN,39.768339768339764
37312,Bradley County,TN,47.10424710424711
37406,Hamilton County,TN,73.74517374517374
75116,Dallas County,TX,93.43629343629344
75154,Ellis County,TX,48.64864864864865
75225,Dallas County,TX,82.62548262548263
75227,Dallas County,TX,22.00772200772201
76086,Parker County,TX,65.25096525096525
76137,Tarrant County,TX,23.552123552123554
76442,Comanche County,TX,90.34749034749035
76661,Falls County,TX,92.27799227799228
77539,Galveston County,TX,23.166023166023166
77630,Orange County,TX,46.33204633204633
78041,Webb County,TX,40.92664092664093
78642,Williamson County,TX,90.73359073359073
78664,Williamson County,TX,51.737451737451735
79423,Lubbock County,TX,32.04633204633205
84790,Washington County,UT,49.034749034749034
22207,Arlington County,VA,59.84555984555985
23692,York County,VA,91.11969111969111
23831,Chesterfield County,VA,41.312741312741316
24401,Staunton city,VA,13.513513513513514
98034,King County,WA,38.22393822393823
98258,Snohomish County,WA,25.868725868725868
99301,Franklin County,WA,11.196911196911197
26003,Ohio County,WV,5.7915057915057915
26501,Monongalia County,WV,55.5984555984556
26505,Monongalia County,WV,10.424710424710424
26508,Monongalia County,WV,5.405405405405405
53036,Jefferson County,WI,99.61389961389962
53181,Kenosha County,WI,66.40926640926641
53215,Milwaukee County,WI,5.019305019305019
53405,Racine County,WI,6.94980694980695
53532,Dane County,WI,75.2895752895753
53546,Rock County,WI,19.305019305019304
54143,Marinette County,WI,54.826254826254825
54880,Douglas County,WI,16.216216216216218
54904,Winnebago County,WI,74.9034749034749
