ZipCode,county,state,Youth,Pediatric,Adult,Retirement
35010,Tallapoosa County,AL,NA,NA,39.33547695605573,NA
35022,Jefferson County,AL,NA,NA,NA,16.08832807570978
35085,Chilton County,AL,NA,NA,NA,95.58359621451105
35180,Jefferson County,AL,NA,NA,NA,67.50788643533123
35206,Jefferson County,AL,NA,NA,NA,47.3186119873817
35226,Jefferson County,AL,NA,NA,52.62593783494105,NA
35242,Shelby County,AL,NA,NA,NA,11.67192429022082
35462,Greene County,AL,NA,NA,NA,93.69085173501577
35470,Sumter County,AL,NA,NA,NA,95.89905362776025
35570,Marion County,AL,NA,NA,94.21221864951768,53.94321766561514
35586,Lamar County,AL,NA,NA,NA,97.16088328075709
35601,Morgan County,AL,NA,NA,NA,13.880126182965299
35611,Limestone County,AL,NA,NA,NA,59.305993690851736
35630,Lauderdale County,AL,NA,NA,34.29796355841372,NA
35756,Limestone County,AL,NA,NA,81.9935691318328,NA
35758,Madison County,AL,NA,NA,NA,39.43217665615142
35763,Madison County,AL,NA,NA,81.45766345123259,NA
35802,Madison County,AL,NA,NA,72.56162915326902,NA
35811,Madison County,AL,NA,NA,44.48017148981779,NA
35904,Etowah County,AL,NA,NA,80.27867095391211,NA
36027,Barbour County,AL,NA,NA,42.443729903536976,NA
36064,Montgomery County,AL,69.46236559139784,NA,NA,NA
36111,Montgomery County,AL,NA,NA,68.59592711682744,NA
36117,Montgomery County,AL,NA,44.221105527638194,NA,NA
36265,Calhoun County,AL,NA,71.85929648241206,NA,NA
36278,Randolph County,AL,NA,86.93467336683418,NA,NA
36303,Houston County,AL,NA,NA,26.259378349410508,NA
36360,Dale County,AL,NA,NA,50.80385852090033,NA
36420,Covington County,AL,NA,NA,59.056806002143624,NA
36535,Baldwin County,AL,48.817204301075265,NA,NA,NA
36561,Baldwin County,AL,NA,NA,98.39228295819936,NA
36607,Mobile County,AL,NA,NA,NA,85.8044164037855
36695,Mobile County,AL,NA,NA,37.83494105037513,NA
99502,Anchorage Municipality,AK,NA,NA,57.234726688102896,NA
99504,Anchorage Municipality,AK,13.978494623655912,NA,NA,NA
99517,Anchorage Municipality,AK,NA,NA,68.38156484458734,NA
85008,Maricopa County,AZ,NA,10.050251256281408,NA,NA
85009,Maricopa County,AZ,NA,NA,15.434083601286176,NA
85012,Maricopa County,AZ,NA,NA,NA,96.84542586750788
85013,Maricopa County,AZ,NA,NA,53.91211146838156,NA
85031,Maricopa County,AZ,30.752688172043012,NA,NA,NA
85037,Maricopa County,AZ,NA,NA,28.510182207931408,NA
85044,Maricopa County,AZ,NA,NA,21.221864951768488,NA
85051,Maricopa County,AZ,57.41935483870968,NA,NA,NA
85138,Pinal County,AZ,NA,53.266331658291456,NA,NA
85202,Maricopa County,AZ,NA,NA,21.972132904608788,NA
85204,Maricopa County,AZ,NA,NA,47.58842443729904,NA
85234,Maricopa County,AZ,32.68817204301075,NA,NA,NA
85249,Maricopa County,AZ,NA,NA,49.62486602357985,NA
85260,Maricopa County,AZ,NA,NA,70.84673097534834,NA
85283,Maricopa County,AZ,40,NA,NA,26.498422712933756
85286,Maricopa County,AZ,27.526881720430108,NA,NA,NA
85298,Maricopa County,AZ,NA,NA,74.91961414790997,NA
85326,Maricopa County,AZ,NA,NA,32.261521972132904,NA
85335,Maricopa County,AZ,56.344086021505376,NA,NA,NA
85344,La Paz County,AZ,NA,NA,40.836012861736336,35.646687697160885
85349,Yuma County,AZ,NA,NA,NA,86.1198738170347
85364,Yuma County,AZ,NA,NA,4.394426580921758,NA
85374,Maricopa County,AZ,NA,NA,NA,18.61198738170347
85629,Pima County,AZ,NA,NA,74.81243301178992,NA
85648,Santa Cruz County,AZ,NA,NA,NA,63.40694006309149
85704,Pima County,AZ,NA,NA,51.446945337620576,NA
85718,Pima County,AZ,NA,NA,64.20150053590568,NA
85743,Pima County,AZ,NA,NA,77.81350482315112,NA
86045,Coconino County,AZ,NA,5.025125628140704,NA,NA
86538,Apache County,AZ,97.41935483870968,NA,NA,NA
71602,Jefferson County,AR,NA,NA,NA,70.66246056782335
71635,Ashley County,AR,NA,NA,NA,57.413249211356465
71655,Drew County,AR,87.52688172043011,NA,NA,NA
71953,Polk County,AR,NA,NA,NA,52.6813880126183
72401,Craighead County,AR,23.225806451612904,NA,NA,NA
72416,Craighead County,AR,NA,NA,87.67416934619507,NA
72703,Washington County,AR,NA,NA,81.13612004287245,NA
72714,Benton County,AR,92.25806451612904,NA,NA,NA
72764,Washington County,AR,NA,NA,40.728831725616296,NA
90001,Los Angeles County,CA,NA,63.31658291457286,NA,NA
90003,Los Angeles County,CA,NA,17.587939698492463,38.90675241157556,NA
90006,Los Angeles County,CA,65.3763440860215,NA,71.81136120042872,NA
90011,Los Angeles County,CA,NA,NA,27.759914255091108,NA
90022,Los Angeles County,CA,35.26881720430107,NA,NA,NA
90023,Los Angeles County,CA,NA,NA,40.62165058949625,NA
90026,Los Angeles County,CA,52.473118279569896,NA,NA,NA
90042,Los Angeles County,CA,NA,NA,NA,88.32807570977917
90043,Los Angeles County,CA,41.935483870967744,NA,NA,NA
90044,Los Angeles County,CA,NA,NA,NA,18.29652996845426
90045,Los Angeles County,CA,NA,NA,69.56055734190782,NA
90057,Los Angeles County,CA,NA,73.86934673366834,NA,NA
90064,Los Angeles County,CA,NA,NA,30.760986066452308,49.8422712933754
90069,Los Angeles County,CA,NA,NA,60.021436227224015,NA
90201,Los Angeles County,CA,38.494623655913976,NA,NA,NA
90220,Los Angeles County,CA,NA,NA,NA,55.520504731861195
90221,Los Angeles County,CA,NA,NA,11.789924973204716,NA
90222,Los Angeles County,CA,NA,NA,72.9903536977492,NA
90241,Los Angeles County,CA,NA,60.80402010050251,NA,NA
90255,Los Angeles County,CA,46.88172043010753,NA,NA,NA
90274,Los Angeles County,CA,NA,NA,NA,60.56782334384858
90278,Los Angeles County,CA,NA,NA,66.02357984994642,NA
90403,Los Angeles County,CA,NA,NA,73.52625937834941,NA
90405,Los Angeles County,CA,NA,NA,87.88853161843515,NA
90503,Los Angeles County,CA,NA,NA,82.10075026795283,NA
90504,Los Angeles County,CA,NA,NA,90.46087888531619,NA
90605,Los Angeles County,CA,NA,NA,62.27224008574491,NA
90660,Los Angeles County,CA,NA,NA,66.55948553054662,NA
90703,Los Angeles County,CA,NA,NA,66.2379421221865,NA
90706,Los Angeles County,CA,NA,NA,28.188638799571276,NA
90712,Los Angeles County,CA,NA,96.4824120603015,NA,NA
90731,Los Angeles County,CA,NA,NA,82.63665594855306,NA
90802,Los Angeles County,CA,NA,NA,55.62700964630225,NA
90810,Los Angeles County,CA,61.935483870967744,NA,NA,NA
91104,Los Angeles County,CA,NA,NA,NA,50.473186119873816
91201,Los Angeles County,CA,NA,NA,NA,64.35331230283911
91304,Los Angeles County,CA,NA,NA,53.69774919614147,NA
91306,Los Angeles County,CA,NA,NA,43.944265809217576,NA
91331,Los Angeles County,CA,NA,NA,NA,18.92744479495268
91343,Los Angeles County,CA,NA,NA,NA,48.26498422712934
91344,Los Angeles County,CA,NA,80.90452261306532,NA,NA
91351,Los Angeles County,CA,NA,NA,88.21007502679528,NA
91361,Ventura County,CA,75.48387096774194,NA,NA,NA
91362,Ventura County,CA,NA,NA,71.16827438370846,NA
91387,Los Angeles County,CA,NA,65.82914572864321,48.767416934619504,NA
91601,Los Angeles County,CA,55.6989247311828,NA,NA,NA
91605,Los Angeles County,CA,79.56989247311827,NA,NA,NA
91730,San Bernardino County,CA,36.774193548387096,NA,NA,NA
91744,Los Angeles County,CA,24.946236559139784,NA,NA,NA
91762,San Bernardino County,CA,NA,NA,38.263665594855304,NA
91766,Los Angeles County,CA,NA,NA,43.944265809217576,NA
91768,Los Angeles County,CA,NA,NA,47.05251875669882,NA
91770,Los Angeles County,CA,NA,NA,55.30546623794213,NA
91780,Los Angeles County,CA,NA,NA,NA,85.17350157728707
91910,San Diego County,CA,NA,31.155778894472363,NA,NA
91911,San Diego County,CA,31.397849462365592,NA,NA,NA
92020,San Diego County,CA,NA,27.1356783919598,NA,NA
92071,San Diego County,CA,52.473118279569896,NA,NA,NA
92082,San Diego County,CA,74.6236559139785,NA,NA,NA
92131,San Diego County,CA,NA,NA,75.77706323687032,NA
92227,Imperial County,CA,NA,24.623115577889447,NA,NA
92231,Imperial County,CA,NA,NA,36.227224008574495,NA
92240,Riverside County,CA,NA,NA,24.22293676312969,NA
92264,Riverside County,CA,NA,NA,50.69667738478027,NA
92301,San Bernardino County,CA,53.76344086021505,NA,NA,46.37223974763407
92345,San Bernardino County,CA,NA,26.13065326633166,NA,NA
92377,San Bernardino County,CA,NA,NA,83.38692390139335,NA
92392,San Bernardino County,CA,NA,NA,NA,34.06940063091483
92394,San Bernardino County,CA,NA,NA,93.03322615219722,NA
92407,San Bernardino County,CA,38.70967741935484,NA,NA,NA
92408,San Bernardino County,CA,NA,NA,93.14040728831725,NA
92504,Riverside County,CA,NA,NA,45.659163987138264,NA
92530,Riverside County,CA,NA,48.743718592964825,NA,NA
92562,Riverside County,CA,32.25806451612903,NA,NA,NA
92570,Riverside County,CA,55.91397849462365,NA,NA,NA
92571,Riverside County,CA,NA,NA,43.51554126473741,NA
92620,Orange County,CA,57.8494623655914,NA,NA,NA
92626,Orange County,CA,70.10752688172043,NA,NA,NA
92627,Orange County,CA,47.31182795698925,NA,22.29367631296892,NA
92649,Orange County,CA,64.30107526881721,NA,NA,NA
92677,Orange County,CA,NA,88.44221105527639,NA,NA
92679,Orange County,CA,NA,NA,66.02357984994642,NA
92691,Orange County,CA,57.634408602150536,NA,NA,NA
92703,Orange County,CA,NA,NA,75.45551982851019,NA
92807,Orange County,CA,NA,NA,62.80814576634513,NA
92833,Orange County,CA,NA,58.291457286432156,NA,NA
92881,Riverside County,CA,89.03225806451613,NA,NA,NA
92887,Orange County,CA,NA,NA,78.56377277599142,NA
93001,Ventura County,CA,NA,NA,30.010718113612008,NA
93013,Santa Barbara County,CA,98.70967741935483,NA,NA,NA
93033,Ventura County,CA,NA,NA,13.504823151125404,NA
93060,Ventura County,CA,NA,22.613065326633166,NA,NA
93065,Ventura County,CA,NA,NA,17.14898177920686,NA
93101,Santa Barbara County,CA,NA,NA,92.06859592711683,NA
93215,Kern County,CA,NA,NA,64.63022508038586,NA
93247,Tulare County,CA,88.6021505376344,NA,NA,NA
93436,Santa Barbara County,CA,11.612903225806452,NA,NA,NA
93444,San Luis Obispo County,CA,NA,NA,86.60235798499464,NA
93454,Santa Barbara County,CA,NA,NA,69.2390139335477,NA
93455,Santa Barbara County,CA,NA,47.73869346733669,NA,NA
93458,Santa Barbara County,CA,16.559139784946236,NA,NA,NA
93535,Los Angeles County,CA,23.010752688172044,NA,38.049303322615216,NA
93550,Los Angeles County,CA,NA,NA,15.112540192926044,NA
93551,Los Angeles County,CA,NA,NA,59.69989281886387,NA
93638,Madera County,CA,NA,NA,20.042872454448016,NA
93647,Tulare County,CA,NA,NA,92.39013933547695,NA
93648,Fresno County,CA,94.19354838709677,NA,88.96034297963558,NA
93654,Fresno County,CA,37.634408602150536,NA,NA,NA
93704,Fresno County,CA,NA,NA,56.91318327974276,NA
93705,Fresno County,CA,NA,29.145728643216078,NA,NA
93706,Fresno County,CA,NA,34.67336683417086,NA,NA
93721,Fresno County,CA,NA,97.48743718592965,NA,NA
94030,San Mateo County,CA,NA,NA,NA,83.91167192429022
94040,Santa Clara County,CA,NA,87.43718592964824,NA,NA
94044,San Mateo County,CA,NA,NA,58.09217577706324,NA
94087,Santa Clara County,CA,NA,NA,82.95819935691318,NA
94103,San Francisco County,CA,NA,NA,14.255091103965704,NA
94107,San Francisco County,CA,91.18279569892474,NA,NA,NA
94114,San Francisco County,CA,NA,NA,51.661307609860664,NA
94124,San Francisco County,CA,40,NA,NA,NA
94509,Contra Costa County,CA,NA,NA,60.235798499464096,NA
94530,Contra Costa County,CA,NA,NA,NA,60.88328075709779
94545,Alameda County,CA,NA,NA,81.2433011789925,NA
94551,Alameda County,CA,NA,NA,53.59056806002144,NA
94553,Contra Costa County,CA,NA,NA,45.659163987138264,NA
94558,Napa County,CA,NA,NA,34.40514469453376,NA
94559,Napa County,CA,NA,NA,67.7384780278671,NA
94578,Alameda County,CA,NA,NA,55.09110396570204,NA
94610,Alameda County,CA,86.66666666666667,NA,NA,NA
94611,Alameda County,CA,NA,NA,NA,25.236593059936908
94621,Alameda County,CA,NA,23.115577889447238,NA,NA
94903,Marin County,CA,63.87096774193548,NA,95.92711682743837,NA
95035,Santa Clara County,CA,NA,NA,54.23365487674169,NA
95113,Santa Clara County,CA,NA,NA,NA,98.42271293375394
95123,Santa Clara County,CA,NA,NA,40.943193997856376,NA
95128,Santa Clara County,CA,95.6989247311828,NA,NA,NA
95336,San Joaquin County,CA,48.17204301075269,NA,33.33333333333333,NA
95350,Stanislaus County,CA,NA,NA,82.20793140407288,NA
95351,Stanislaus County,CA,NA,NA,23.365487674169348,NA
95355,Stanislaus County,CA,42.58064516129032,NA,NA,NA
95360,Stanislaus County,CA,93.11827956989247,NA,NA,NA
95376,San Joaquin County,CA,NA,NA,31.511254019292608,NA
95388,Merced County,CA,NA,NA,93.46195069667739,NA
95404,Sonoma County,CA,NA,NA,90.56806002143622,NA
95467,Lake County,CA,96.7741935483871,NA,NA,NA
95630,Sacramento County,CA,NA,NA,30.117899249732048,NA
95662,Sacramento County,CA,NA,NA,90.13933547695605,NA
95693,Sacramento County,CA,99.56989247311829,NA,NA,NA
95762,El Dorado County,CA,54.19354838709678,NA,NA,NA
95828,Sacramento County,CA,NA,NA,43.729903536977496,NA
95831,Sacramento County,CA,NA,NA,63.022508038585215,NA
95835,Sacramento County,CA,NA,NA,73.09753483386923,65.93059936908517
95841,Sacramento County,CA,NA,NA,NA,80.4416403785489
95954,Butte County,CA,NA,NA,44.58735262593784,35.33123028391167
96003,Shasta County,CA,53.5483870967742,NA,NA,NA
96067,Siskiyou County,CA,NA,NA,96.78456591639872,NA
80011,Arapahoe County,CO,NA,8.542713567839195,NA,NA
80021,Jefferson County,CO,NA,NA,65.4876741693462,NA
80022,Adams County,CO,NA,NA,18.863879957127548,NA
80127,Jefferson County,CO,NA,NA,50.91103965702036,NA
80134,Douglas County,CO,9.89247311827957,NA,29.260450160771708,NA
80138,Douglas County,CO,37.634408602150536,NA,NA,NA
80204,Denver County,CO,NA,NA,23.79421221864952,61.82965299684543
80207,Denver County,CO,30.752688172043012,NA,NA,NA
80221,Adams County,CO,NA,NA,35.90568060021436,NA
80222,Denver County,CO,NA,NA,45.98070739549839,NA
80233,Adams County,CO,NA,NA,80.70739549839229,NA
80239,Denver County,CO,NA,NA,27.224008574490888,NA
80260,Adams County,CO,7.526881720430108,NA,NA,NA
80504,Boulder County,CO,NA,53.768844221105525,NA,NA
80526,Larimer County,CO,NA,67.33668341708542,40.08574490889603,NA
80543,Weld County,CO,NA,96.4824120603015,NA,NA
80603,Weld County,CO,NA,NA,NA,98.10725552050474
80631,Weld County,CO,NA,NA,9.753483386923902,NA
80634,Weld County,CO,NA,NA,3.429796355841372,NA
80645,Weld County,CO,NA,NA,95.81993569131832,NA
80817,El Paso County,CO,66.66666666666666,NA,NA,NA
80909,El Paso County,CO,NA,38.19095477386934,NA,NA
80910,El Paso County,CO,58.70967741935483,NA,NA,NA
80917,El Paso County,CO,NA,NA,67.09539121114683,NA
81001,Pueblo County,CO,NA,NA,23.47266881028939,NA
81504,Mesa County,CO,NA,NA,69.2390139335477,NA
81507,Mesa County,CO,68.81720430107528,NA,NA,NA
81521,Mesa County,CO,NA,NA,74.16934619506966,NA
06051,Hartford County,CT,NA,18.090452261306535,NA,NA
06066,Tolland County,CT,NA,51.75879396984925,NA,NA
06082,Hartford County,CT,25.161290322580644,NA,NA,NA
06084,Tolland County,CT,NA,98.99497487437185,NA,NA
06106,Hartford County,CT,NA,NA,6.216505894962487,NA
06109,Hartford County,CT,73.33333333333333,NA,NA,NA
06112,Hartford County,CT,NA,NA,18.971061093247588,NA
06250,Tolland County,CT,99.35483870967742,NA,NA,NA
06443,New Haven County,CT,NA,NA,73.84780278670954,NA
06460,New Haven County,CT,NA,NA,32.475884244372985,NA
06473,New Haven County,CT,66.66666666666666,NA,NA,NA
06484,Fairfield County,CT,74.40860215053763,NA,NA,NA
06511,New Haven County,CT,NA,9.547738693467336,6.109324758842444,NA
06513,New Haven County,CT,NA,NA,5.787781350482315,NA
06514,New Haven County,CT,NA,NA,NA,34.70031545741325
06515,New Haven County,CT,44.73118279569893,NA,NA,NA
06516,New Haven County,CT,NA,NA,54.662379421221864,NA
06704,New Haven County,CT,NA,NA,24.65166130760986,NA
06776,Litchfield County,CT,NA,NA,66.77384780278672,NA
06795,Litchfield County,CT,NA,NA,87.13826366559485,NA
06870,Fairfield County,CT,NA,NA,91.7470525187567,NA
06878,Fairfield County,CT,92.25806451612904,NA,NA,NA
06903,Fairfield County,CT,NA,NA,88.7459807073955,NA
19720,New Castle County,DE,NA,21.105527638190953,3.751339764201501,2.8391167192429023
19801,New Castle County,DE,NA,NA,41.90782422293676,NA
19805,New Castle County,DE,63.2258064516129,NA,NA,NA
19943,Kent County,DE,65.3763440860215,NA,NA,NA
19947,Sussex County,DE,NA,NA,48.44587352625938,NA
19968,Sussex County,DE,NA,NA,NA,45.74132492113564
19971,Sussex County,DE,85.3763440860215,NA,NA,NA
32052,Hamilton County,FL,NA,NA,NA,83.59621451104101
32066,Lafayette County,FL,NA,NA,97.42765273311898,NA
32080,St. Johns County,FL,NA,NA,76.09860664523043,NA
32081,St. Johns County,FL,NA,NA,95.39121114683816,NA
32084,St. Johns County,FL,NA,NA,32.90460878885316,NA
32086,St. Johns County,FL,NA,NA,46.51661307609861,NA
32162,Sumter County,FL,NA,NA,NA,1.8927444794952681
32222,Duval County,FL,NA,91.4572864321608,NA,NA
32327,Wakulla County,FL,90.75268817204301,NA,NA,NA
32425,Holmes County,FL,NA,NA,59.4855305466238,NA
32465,Gulf County,FL,83.01075268817203,NA,NA,NA
32466,Bay County,FL,NA,NA,89.60342979635584,NA
32503,Escambia County,FL,NA,NA,NA,13.249211356466878
32504,Escambia County,FL,NA,NA,55.519828510182215,NA
32514,Escambia County,FL,NA,NA,26.902465166130764,NA
32570,Santa Rosa County,FL,NA,NA,11.89710610932476,NA
32579,Okaloosa County,FL,NA,82.41206030150754,NA,NA
32735,Lake County,FL,NA,NA,96.46302250803859,NA
32773,Seminole County,FL,NA,NA,52.840300107181136,NA
32780,Brevard County,FL,NA,NA,43.40836012861736,NA
32805,Orange County,FL,44.516129032258064,NA,NA,NA
32811,Orange County,FL,NA,15.07537688442211,NA,NA
32824,Orange County,FL,NA,NA,46.94533762057878,NA
32825,Orange County,FL,NA,NA,35.58413719185423,NA
32837,Orange County,FL,NA,40.7035175879397,NA,NA
32935,Brevard County,FL,NA,NA,21.007502679528404,NA
32955,Brevard County,FL,80,NA,NA,NA
32967,Indian River County,FL,NA,NA,51.23258306538049,NA
33016,Miami-Dade County,FL,NA,NA,60.45016077170418,NA
33023,Broward County,FL,18.9247311827957,NA,NA,NA
33040,Monroe County,FL,NA,NA,NA,42.586750788643535
33056,Miami-Dade County,FL,NA,NA,76.7416934619507,NA
33063,Broward County,FL,NA,NA,45.230439442658096,NA
33064,Broward County,FL,NA,22.110552763819097,NA,NA
33131,Miami-Dade County,FL,NA,NA,92.92604501607717,NA
33133,Miami-Dade County,FL,85.3763440860215,NA,NA,NA
33142,Miami-Dade County,FL,NA,NA,20.257234726688104,NA
33144,Miami-Dade County,FL,NA,NA,95.06966773847803,NA
33155,Miami-Dade County,FL,NA,NA,79.31404072883173,NA
33160,Miami-Dade County,FL,78.70967741935485,NA,NA,NA
33161,Miami-Dade County,FL,21.50537634408602,NA,NA,NA
33165,Miami-Dade County,FL,NA,NA,65.05894962486603,NA
33169,Miami-Dade County,FL,NA,NA,46.19506966773847,NA
33179,Miami-Dade County,FL,39.784946236559136,NA,NA,NA
33185,Miami-Dade County,FL,NA,NA,83.4941050375134,NA
33190,Miami-Dade County,FL,NA,NA,97.85637727759914,NA
33311,Broward County,FL,4.731182795698925,NA,NA,NA
33312,Broward County,FL,NA,30.65326633165829,NA,NA
33415,Palm Beach County,FL,50.10752688172043,NA,NA,NA
33434,Palm Beach County,FL,NA,100,NA,NA
33435,Palm Beach County,FL,NA,NA,50.37513397642015,NA
33467,Palm Beach County,FL,79.35483870967742,NA,62.486602357985,NA
33487,Palm Beach County,FL,NA,NA,NA,41.32492113564668
33542,Pasco County,FL,NA,NA,61.41479099678456,NA
33543,Pasco County,FL,NA,NA,61.95069667738478,NA
33563,Hillsborough County,FL,NA,NA,52.41157556270096,NA
33596,Hillsborough County,FL,NA,NA,89.17470525187568,NA
33612,Hillsborough County,FL,NA,NA,41.37191854233655,NA
33613,Hillsborough County,FL,NA,NA,45.01607717041801,NA
33705,Pinellas County,FL,NA,NA,31.72561629153269,NA
33708,Pinellas County,FL,98.27956989247312,NA,NA,NA
33712,Pinellas County,FL,NA,58.291457286432156,NA,NA
33714,Pinellas County,FL,NA,NA,61.62915326902465,NA
33844,Polk County,FL,NA,NA,41.47909967845659,NA
33850,Polk County,FL,81.29032258064515,NA,NA,NA
33853,Polk County,FL,NA,NA,72.2400857449089,NA
33870,Highlands County,FL,NA,NA,NA,30.28391167192429
33873,Hardee County,FL,NA,NA,78.9924973204716,NA
33914,Lee County,FL,NA,NA,NA,13.564668769716087
33917,Lee County,FL,NA,NA,NA,19.873817034700316
33947,Charlotte County,FL,NA,NA,NA,76.02523659305994
33952,Charlotte County,FL,NA,55.27638190954774,NA,NA
34112,Collier County,FL,70.10752688172043,NA,NA,NA
34114,Collier County,FL,NA,NA,84.56591639871382,NA
34117,Collier County,FL,NA,NA,97.64201500535906,NA
34208,Manatee County,FL,NA,NA,29.79635584137192,NA
34210,Manatee County,FL,NA,NA,88.10289389067523,NA
34211,Manatee County,FL,NA,NA,NA,79.17981072555204
34234,Sarasota County,FL,NA,NA,43.837084673097536,NA
34243,Manatee County,FL,NA,NA,64.7374062165059,NA
34293,Sarasota County,FL,NA,NA,51.87566988210075,NA
34453,Citrus County,FL,NA,NA,76.84887459807074,NA
34471,Marion County,FL,NA,NA,57.663451232583064,NA
34474,Marion County,FL,NA,NA,68.27438370846731,NA
34608,Hernando County,FL,NA,NA,75.2411575562701,NA
34613,Hernando County,FL,NA,NA,79.42122186495176,NA
34655,Pasco County,FL,24.301075268817204,NA,NA,NA
34668,Pasco County,FL,NA,NA,13.933547695605572,NA
34677,Pinellas County,FL,NA,77.38693467336684,NA,NA
34741,Osceola County,FL,NA,NA,26.580921757770632,NA
34746,Osceola County,FL,NA,NA,39.442658092175776,NA
34758,Osceola County,FL,60.64516129032258,NA,NA,NA
34947,St. Lucie County,FL,NA,61.80904522613066,NA,NA
34953,St. Lucie County,FL,NA,NA,7.288317256162916,5.678233438485805
30004,Fulton County,GA,NA,NA,NA,36.59305993690852
30008,Cobb County,GA,NA,NA,69.56055734190782,NA
30011,Barrow County,GA,85.16129032258064,NA,NA,NA
30012,Rockdale County,GA,NA,NA,84.13719185423365,NA
30013,Rockdale County,GA,NA,NA,NA,61.198738170347
30016,Newton County,GA,NA,33.66834170854271,NA,NA
30030,DeKalb County,GA,NA,NA,49.41050375133976,NA
30035,DeKalb County,GA,NA,NA,63.558413719185424,NA
30038,DeKalb County,GA,NA,NA,78.67095391211146,49.21135646687697
30040,Forsyth County,GA,NA,NA,NA,54.889589905362776
30044,Gwinnett County,GA,NA,NA,21.436227224008576,NA
30046,Gwinnett County,GA,NA,NA,51.76848874598071,NA
30054,Newton County,GA,NA,NA,75.77706323687032,NA
30076,Fulton County,GA,NA,NA,67.52411575562701,NA
30083,DeKalb County,GA,15.483870967741936,NA,NA,NA
30088,DeKalb County,GA,NA,79.89949748743719,NA,NA
30097,Fulton County,GA,NA,97.98994974874373,NA,NA
30102,Cherokee County,GA,NA,NA,50.91103965702036,NA
30127,Cobb County,GA,NA,48.24120603015075,19.721329046087888,NA
30135,Douglas County,GA,NA,NA,68.48874598070739,NA
30223,Spalding County,GA,39.35483870967742,NA,40.40728831725616,NA
30241,Troup County,GA,NA,62.311557788944725,NA,NA
30260,Clayton County,GA,NA,63.81909547738693,NA,NA
30286,Upson County,GA,NA,NA,82.42229367631298,NA
30311,Fulton County,GA,NA,NA,17.684887459807076,NA
30314,Fulton County,GA,NA,NA,47.48124330117899,NA
30317,DeKalb County,GA,NA,NA,90.78242229367632,NA
30319,DeKalb County,GA,NA,NA,75.56270096463022,NA
30350,Fulton County,GA,55.26881720430108,NA,NA,NA
30354,Fulton County,GA,NA,NA,NA,73.81703470031546
30401,Emanuel County,GA,61.29032258064516,74.37185929648241,NA,NA
30411,Wheeler County,GA,NA,NA,99.78563772775992,NA
30506,Hall County,GA,49.67741935483871,NA,NA,NA
30507,Hall County,GA,61.505376344086024,NA,NA,NA
30512,Union County,GA,NA,NA,79.09967845659163,NA
30521,Franklin County,GA,93.76344086021506,NA,NA,NA
30528,White County,GA,NA,NA,57.87781350482315,NA
30542,Hall County,GA,NA,NA,57.663451232583064,NA
30566,Hall County,GA,91.61290322580645,NA,NA,NA
30650,Morgan County,GA,80.86021505376344,NA,NA,NA
30655,Walton County,GA,NA,NA,39.228295819935695,NA
30680,Barrow County,GA,NA,NA,22.615219721329048,NA
30705,Murray County,GA,NA,52.26130653266332,NA,NA
30710,Whitfield County,GA,91.82795698924731,NA,NA,NA
30738,Dade County,GA,NA,NA,93.67631296891747,NA
30802,Columbia County,GA,NA,NA,NA,87.69716088328076
30813,Columbia County,GA,NA,NA,35.36977491961415,NA
30828,Warren County,GA,94.40860215053763,NA,NA,NA
30904,Richmond County,GA,NA,71.85929648241206,NA,NA
30906,Richmond County,GA,7.956989247311828,NA,8.681672025723474,NA
31008,Peach County,GA,NA,NA,NA,56.15141955835961
31021,Laurens County,GA,NA,NA,42.765273311897104,NA
31029,Monroe County,GA,NA,76.38190954773869,NA,NA
31204,Bibb County,GA,NA,NA,35.79849946409432,NA
31312,Effingham County,GA,NA,NA,NA,92.42902208201893
31322,Chatham County,GA,86.23655913978494,NA,NA,NA
31503,Ware County,GA,NA,NA,57.449088960342976,NA
31548,Camden County,GA,NA,NA,85.10182207931403,NA
31601,Lowndes County,GA,NA,NA,29.04608788853162,NA
31639,Berrien County,GA,NA,82.41206030150754,NA,NA
31709,Sumter County,GA,NA,85.42713567839196,NA,NA
31779,Mitchell County,GA,NA,NA,NA,72.55520504731862
31903,Muscogee County,GA,NA,NA,36.97749196141479,NA
31907,Muscogee County,GA,NA,NA,NA,3.4700315457413247
96707,Honolulu County,HI,NA,NA,NA,33.4384858044164
96744,Honolulu County,HI,NA,NA,57.9849946409432,NA
96768,Maui County,HI,84.08602150537634,NA,NA,NA
96790,Maui County,HI,NA,NA,97.53483386923901,NA
96793,Maui County,HI,NA,NA,92.60450160771704,NA
96817,Honolulu County,HI,22.795698924731184,NA,NA,NA
96825,Honolulu County,HI,82.79569892473118,NA,NA,NA
96826,Honolulu County,HI,NA,NA,46.62379421221865,NA
83202,Bannock County,ID,33.5483870967742,NA,NA,NA
83402,Bonneville County,ID,3.4408602150537635,NA,NA,NA
83440,Madison County,ID,NA,37.185929648241206,NA,NA
83501,Nez Perce County,ID,NA,NA,NA,8.832807570977918
83644,Canyon County,ID,NA,NA,NA,51.10410094637224
83647,Elmore County,ID,NA,NA,NA,77.60252365930599
83716,Ada County,ID,81.93548387096774,NA,NA,NA
83854,Kootenai County,ID,NA,NA,36.33440514469453,NA
60007,Cook County,IL,NA,NA,NA,16.7192429022082
60014,McHenry County,IL,NA,NA,NA,48.580441640378545
60020,Lake County,IL,NA,NA,NA,58.359621451104104
60048,Lake County,IL,NA,NA,NA,26.813880126182966
60051,McHenry County,IL,NA,NA,57.341907824222936,NA
60062,Cook County,IL,64.08602150537635,NA,42.658092175777064,NA
60090,Cook County,IL,75.6989247311828,NA,NA,NA
60091,Cook County,IL,57.204301075268816,NA,NA,NA
60101,DuPage County,IL,55.483870967741936,NA,NA,NA
60102,McHenry County,IL,NA,NA,NA,41.95583596214511
60120,Kane County,IL,NA,NA,30.86816720257235,NA
60124,Kane County,IL,NA,NA,NA,29.96845425867508
60126,DuPage County,IL,13.333333333333334,NA,11.254019292604502,NA
60148,DuPage County,IL,NA,NA,48.660235798499464,NA
60153,Cook County,IL,NA,NA,75.66988210075026,NA
60154,Cook County,IL,79.13978494623656,NA,NA,NA
60177,Kane County,IL,53.118279569892465,NA,NA,NA
60189,DuPage County,IL,NA,NA,38.79957127545552,NA
60190,DuPage County,IL,NA,NA,NA,72.55520504731862
60193,Cook County,IL,NA,NA,42.336548767416936,NA
60416,Grundy County,IL,62.58064516129033,NA,NA,NA
60422,Cook County,IL,NA,NA,86.28081457663451,NA
60429,Cook County,IL,NA,NA,74.70525187566989,NA
60451,Will County,IL,14.623655913978496,NA,NA,NA
60468,Will County,IL,NA,NA,96.57020364415862,NA
60487,Cook County,IL,NA,NA,61.95069667738478,NA
60504,DuPage County,IL,NA,NA,84.88745980707395,NA
60523,DuPage County,IL,75.91397849462366,NA,NA,NA
60540,DuPage County,IL,NA,NA,32.047159699892816,NA
60545,Kendall County,IL,NA,NA,73.09753483386923,NA
60546,Cook County,IL,NA,NA,53.161843515541264,NA
60560,Kendall County,IL,NA,NA,47.159699892818864,NA
60561,DuPage County,IL,NA,NA,64.09431939978563,NA
60565,DuPage County,IL,NA,NA,69.77491961414792,NA
60608,Cook County,IL,NA,NA,12.64737406216506,NA
60612,Cook County,IL,30.32258064516129,NA,NA,NA
60622,Cook County,IL,NA,NA,40.19292604501607,NA
60623,Cook County,IL,NA,NA,8.252947481243302,NA
60624,Cook County,IL,NA,NA,18.006430868167204,NA
60626,Cook County,IL,24.086021505376344,NA,NA,NA
60630,Cook County,IL,NA,NA,26.473740621650588,NA
60640,Cook County,IL,40,NA,NA,NA
60643,Cook County,IL,NA,NA,37.19185423365487,NA
60644,Cook County,IL,29.24731182795699,NA,NA,NA
60654,Cook County,IL,NA,NA,75.9914255091104,NA
60655,Cook County,IL,NA,NA,32.69024651661307,NA
60804,Cook County,IL,NA,NA,21.54340836012862,NA
60805,Cook County,IL,NA,NA,77.38478027867095,NA
61101,Winnebago County,IL,81.29032258064515,NA,NA,NA
61201,Rock Island County,IL,NA,NA,41.264737406216504,NA
61550,Tazewell County,IL,96.7741935483871,NA,NA,NA
61554,Tazewell County,IL,NA,NA,NA,43.53312302839117
61704,McLean County,IL,NA,NA,41.69346195069667,NA
61821,Champaign County,IL,NA,NA,46.08788853161844,NA
62025,Madison County,IL,NA,NA,NA,41.6403785488959
62650,Morgan County,IL,NA,NA,58.62808145766345,NA
62881,Marion County,IL,NA,NA,NA,92.11356466876973
62946,Saline County,IL,NA,NA,NA,73.18611987381703
46131,Johnson County,IN,NA,NA,34.19078242229367,NA
46151,Morgan County,IN,NA,58.291457286432156,NA,22.082018927444793
46218,Marion County,IN,NA,NA,10.718113612004288,NA
46219,Marion County,IN,NA,NA,NA,19.242902208201894
46224,Marion County,IN,NA,NA,34.61950696677385,78.23343848580441
46226,Marion County,IN,NA,NA,NA,14.195583596214512
46236,Marion County,IN,NA,NA,66.66666666666666,NA
46241,Marion County,IN,NA,26.633165829145728,NA,NA
46250,Marion County,IN,NA,NA,93.2475884244373,NA
46319,Lake County,IN,29.89247311827957,NA,NA,NA
46323,Lake County,IN,NA,NA,NA,17.665615141955836
46360,LaPorte County,IN,NA,NA,7.07395498392283,NA
46368,Porter County,IN,3.225806451612903,NA,NA,NA
46383,Porter County,IN,3.870967741935484,NA,NA,4.416403785488959
46385,Porter County,IN,NA,NA,NA,3.1545741324921135
46404,Lake County,IN,NA,NA,NA,51.419558359621455
46405,Lake County,IN,NA,73.36683417085426,NA,NA
46514,Elkhart County,IN,NA,30.15075376884422,NA,NA
46517,Elkhart County,IN,67.52688172043011,NA,NA,NA
46528,Elkhart County,IN,NA,NA,80.17148981779206,NA
46534,Starke County,IN,NA,NA,60.9860664523044,NA
46815,Allen County,IN,46.45161290322581,NA,NA,NA
46835,Allen County,IN,NA,NA,36.655948553054664,NA
46901,Howard County,IN,NA,NA,2.8938906752411575,NA
46992,Wabash County,IN,NA,NA,37.51339764201501,NA
47130,Clark County,IN,16.129032258064516,NA,10.932475884244374,NA
47302,Delaware County,IN,NA,NA,19.828510182207932,NA
47303,Delaware County,IN,NA,NA,38.58520900321543,NA
47715,Vanderburgh County,IN,NA,NA,33.86923901393355,NA
47803,Vigo County,IN,NA,NA,NA,55.83596214511041
47909,Tippecanoe County,IN,NA,NA,42.765273311897104,NA
50111,Polk County,IA,NA,NA,90.2465166130761,NA
50312,Polk County,IA,NA,NA,NA,84.54258675078864
50317,Polk County,IA,NA,NA,13.183279742765272,NA
50320,Polk County,IA,NA,NA,53.26902465166131,NA
50321,Polk County,IA,NA,NA,90.67524115755627,NA
50401,Cerro Gordo County,IA,NA,NA,13.719185423365488,NA
50501,Webster County,IA,NA,78.89447236180904,NA,NA
50677,Bremer County,IA,NA,NA,NA,62.77602523659306
51031,Plymouth County,IA,NA,60.80402010050251,NA,NA
51201,O'Brien County,IA,86.88172043010752,NA,NA,NA
51503,Pottawattamie County,IA,6.021505376344086,NA,NA,NA
51534,Mills County,IA,NA,NA,67.7384780278671,NA
52246,Johnson County,IA,NA,57.286432160804026,NA,NA
52361,Iowa County,IA,NA,NA,NA,99.36908517350159
52601,Des Moines County,IA,NA,NA,14.683815648445876,NA
52627,Lee County,IA,NA,NA,48.231511254019296,NA
52773,Scott County,IA,NA,NA,98.28510182207931,NA
52804,Scott County,IA,NA,NA,18.64951768488746,NA
66018,Johnson County,KS,NA,NA,95.4983922829582,NA
66030,Johnson County,KS,42.58064516129032,NA,NA,NA
66053,Miami County,KS,95.91397849462365,NA,NA,NA
66207,Johnson County,KS,NA,NA,NA,74.13249211356468
66216,Johnson County,KS,42.58064516129032,NA,NA,NA
66441,Geary County,KS,NA,NA,NA,62.46056782334385
66763,Crawford County,KS,99.78494623655914,NA,NA,NA
67735,Sherman County,KS,NA,NA,91.96141479099678,NA
67846,Finney County,KS,NA,NA,60.87888531618435,NA
40004,Nelson County,KY,NA,NA,NA,28.706624605678233
40175,Hardin County,KY,NA,50.25125628140703,NA,NA
40220,Jefferson County,KY,NA,65.32663316582915,NA,NA
40229,Jefferson County,KY,17.419354838709676,NA,14.040728831725616,NA
40272,Jefferson County,KY,NA,NA,15.862808145766344,NA
40353,Montgomery County,KY,NA,NA,23.90139335476956,NA
40383,Woodford County,KY,NA,NA,77.92068595927117,NA
40403,Madison County,KY,NA,NA,25.080385852090032,NA
40504,Fayette County,KY,NA,39.19597989949749,NA,NA
40509,Fayette County,KY,NA,NA,36.87031082529475,NA
40741,Laurel County,KY,48.17204301075269,NA,24.866023579849948,NA
40962,Clay County,KY,26.666666666666668,NA,NA,NA
40965,Bell County,KY,42.58064516129032,NA,NA,NA
41001,Campbell County,KY,41.075268817204304,NA,NA,NA
41011,Kenton County,KY,NA,NA,NA,28.075709779179807
41101,Boyd County,KY,7.096774193548387,NA,NA,NA
41164,Carter County,KY,NA,NA,37.08467309753483,NA
41169,Greenup County,KY,NA,NA,73.63344051446946,NA
41501,Pike County,KY,NA,NA,13.39764201500536,NA
41537,Letcher County,KY,93.54838709677419,NA,NA,NA
41653,Floyd County,KY,NA,NA,48.12433011789925,NA
42101,Warren County,KY,15.698924731182796,NA,NA,NA
42141,Barren County,KY,NA,NA,14.14790996784566,NA
42210,Edmonson County,KY,NA,NA,NA,99.6845425867508
42240,Christian County,KY,27.526881720430108,NA,31.189710610932476,NA
42408,Hopkins County,KY,93.76344086021506,NA,NA,NA
42431,Hopkins County,KY,NA,NA,61.843515541264736,NA
42503,Pulaski County,KY,NA,56.28140703517588,NA,NA
42539,Casey County,KY,NA,66.33165829145729,NA,NA
42602,Clinton County,KY,NA,NA,86.49517684887459,NA
42629,Russell County,KY,NA,NA,92.81886387995712,NA
42633,Wayne County,KY,NA,NA,57.556270096463024,NA
42701,Hardin County,KY,NA,NA,12.968917470525188,NA
42728,Adair County,KY,NA,NA,58.41371918542336,NA
70003,Jefferson Parish,LA,4.516129032258064,NA,NA,NA
70005,Jefferson Parish,LA,NA,NA,37.727759914255095,NA
70037,Plaquemines Parish,LA,NA,NA,87.45980707395499,NA
70058,Jefferson Parish,LA,NA,NA,3.215434083601286,NA
70072,Jefferson Parish,LA,NA,NA,38.47802786709539,NA
70094,Jefferson Parish,LA,NA,NA,62.70096463022507,NA
70114,Orleans Parish,LA,NA,39.698492462311556,NA,NA
70117,Orleans Parish,LA,NA,NA,NA,17.034700315457414
70119,Orleans Parish,LA,NA,NA,25.937834941050376,NA
70301,Lafourche Parish,LA,1.7204301075268817,NA,84.994640943194,NA
70427,Washington Parish,LA,NA,NA,NA,24.9211356466877
70435,St. Tammany Parish,LA,NA,NA,NA,17.350157728706623
70438,Washington Parish,LA,NA,NA,15.219721329046088,NA
70441,St. Helena Parish,LA,NA,NA,NA,99.05362776025235
70448,St. Tammany Parish,LA,NA,NA,41.80064308681672,NA
70460,St. Tammany Parish,LA,14.838709677419354,NA,NA,NA
70461,St. Tammany Parish,LA,34.40860215053764,NA,NA,NA
70471,St. Tammany Parish,LA,NA,NA,NA,22.397476340694006
70501,Lafayette Parish,LA,NA,NA,16.291532690246516,NA
70503,Lafayette Parish,LA,NA,NA,41.157556270096464,NA
70506,Lafayette Parish,LA,NA,10.552763819095476,NA,NA
70510,Vermilion Parish,LA,NA,NA,NA,38.801261829652994
70560,Iberia Parish,LA,19.13978494623656,NA,NA,NA
70570,St. Landry Parish,LA,NA,NA,1.607717041800643,NA
70582,St. Martin Parish,LA,NA,NA,33.547695605573416,NA
70583,Lafayette Parish,LA,NA,NA,52.62593783494105,69.71608832807571
70605,Calcasieu Parish,LA,89.89247311827957,NA,NA,NA
70607,Calcasieu Parish,LA,NA,NA,15.969989281886388,NA
70647,Calcasieu Parish,LA,NA,NA,79.95712754555198,NA
70663,Calcasieu Parish,LA,NA,NA,NA,23.34384858044164
70760,Pointe Coupee Parish,LA,NA,NA,NA,82.96529968454259
70810,East Baton Rouge Parish,LA,NA,NA,9.110396570203644,NA
70815,East Baton Rouge Parish,LA,NA,NA,17.684887459807076,NA
70820,East Baton Rouge Parish,LA,NA,NA,96.35584137191854,NA
71082,Caddo Parish,LA,NA,NA,NA,89.27444794952682
71106,Caddo Parish,LA,NA,NA,7.82422293676313,NA
71107,Caddo Parish,LA,NA,7.537688442211055,NA,NA
71108,Caddo Parish,LA,28.602150537634408,NA,NA,NA
71282,Madison Parish,LA,46.02150537634409,NA,NA,NA
71417,Grant Parish,LA,98.06451612903226,NA,NA,NA
03901,York County,ME,88.17204301075269,NA,NA,NA
04011,Cumberland County,ME,NA,75.87939698492463,NA,27.129337539432175
04074,Cumberland County,ME,NA,NA,72.66881028938906,NA
04210,Androscoggin County,ME,49.89247311827957,NA,NA,NA
04572,Lincoln County,ME,NA,NA,NA,81.70347003154575
04743,Aroostook County,ME,NA,93.96984924623115,NA,NA
04901,Kennebec County,ME,NA,NA,6.752411575562702,NA
04976,Somerset County,ME,34.193548387096776,NA,18.220793140407288,NA
20603,Charles County,MD,NA,NA,72.45444801714899,NA
20646,Charles County,MD,67.31182795698925,NA,NA,NA
20706,Prince George's County,MD,NA,NA,NA,55.20504731861199
20708,Prince George's County,MD,NA,NA,NA,71.29337539432177
20744,Prince George's County,MD,NA,NA,49.839228295819936,NA
20772,Prince George's County,MD,NA,NA,52.518756698821015,NA
20832,Montgomery County,MD,NA,NA,93.89067524115757,NA
20895,Montgomery County,MD,77.84946236559139,NA,NA,NA
20906,Montgomery County,MD,NA,NA,58.30653804930333,NA
21009,Harford County,MD,NA,NA,51.87566988210075,NA
21042,Howard County,MD,NA,NA,74.38370846730975,NA
21122,Anne Arundel County,MD,NA,NA,NA,11.987381703470032
21146,Anne Arundel County,MD,NA,NA,NA,47.634069400630914
21202,Baltimore city,MD,NA,NA,45.55198285101822,NA
21214,Baltimore city,MD,NA,NA,64.95176848874597,NA
21227,Baltimore County,MD,NA,NA,59.37834941050375,NA
21237,Baltimore County,MD,NA,NA,NA,90.22082018927445
21613,Dorchester County,MD,65.16129032258064,NA,NA,NA
01107,Hampden County,MA,NA,NA,NA,2.2082018927444795
01108,Hampden County,MA,NA,NA,1.822079314040729,NA
01119,Hampden County,MA,NA,NA,18.435155412647376,NA
01201,Berkshire County,MA,NA,NA,0,NA
01220,Berkshire County,MA,89.46236559139786,NA,NA,NA
01240,Berkshire County,MA,98.9247311827957,NA,NA,NA
01247,Berkshire County,MA,NA,NA,88.53161843515541,NA
01267,Berkshire County,MA,70.75268817204301,NA,NA,NA
01376,Franklin County,MA,64.30107526881721,NA,NA,NA
01440,Worcester County,MA,NA,NA,2.1436227224008575,NA
01462,Worcester County,MA,62.58064516129033,NA,55.841371918542336,NA
01469,Middlesex County,MA,NA,NA,80.92175777063237,NA
01475,Worcester County,MA,NA,NA,65.16613076098606,NA
01503,Worcester County,MA,NA,NA,99.46409431939979,NA
01507,Worcester County,MA,NA,NA,42.229367631296896,NA
01510,Worcester County,MA,NA,NA,NA,10.094637223974763
01535,Worcester County,MA,83.01075268817203,NA,NA,NA
01590,Worcester County,MA,NA,NA,77.491961414791,NA
01603,Worcester County,MA,NA,NA,2.465166130760986,NA
01604,Worcester County,MA,5.806451612903226,NA,NA,NA
01605,Worcester County,MA,0.43010752688172044,NA,NA,NA
01702,Middlesex County,MA,NA,NA,1.3933547695605575,NA
01720,Middlesex County,MA,NA,NA,37.62057877813505,NA
01748,Middlesex County,MA,NA,69.34673366834171,NA,NA
01754,Middlesex County,MA,NA,NA,89.38906752411575,NA
01757,Worcester County,MA,NA,NA,NA,5.047318611987381
01775,Middlesex County,MA,NA,NA,90.9967845659164,NA
01801,Middlesex County,MA,14.193548387096774,NA,NA,NA
01821,Middlesex County,MA,NA,NA,27.009646302250808,NA
01824,Middlesex County,MA,NA,NA,37.942122186495176,NA
01832,Essex County,MA,NA,NA,39.01393354769561,NA
01841,Essex County,MA,NA,1.507537688442211,33.762057877813504,NA
01844,Essex County,MA,NA,NA,1.2861736334405145,NA
01851,Middlesex County,MA,NA,NA,3.0010718113612005,NA
01863,Middlesex County,MA,74.6236559139785,NA,NA,NA
01880,Middlesex County,MA,NA,NA,32.79742765273312,NA
01890,Middlesex County,MA,61.0752688172043,NA,NA,NA
01904,Essex County,MA,NA,NA,12.004287245444802,NA
01915,Essex County,MA,NA,NA,2.3579849946409435,NA
01940,Essex County,MA,NA,NA,67.41693461950696,NA
01950,Essex County,MA,NA,NA,21.65058949624866,NA
02038,Norfolk County,MA,43.655913978494624,NA,NA,NA
02052,Norfolk County,MA,NA,NA,68.16720257234726,NA
02093,Norfolk County,MA,NA,NA,NA,76.34069400630915
02118,Suffolk County,MA,NA,14.07035175879397,0.3215434083601286,NA
02119,Suffolk County,MA,NA,NA,0.10718113612004287,NA
02121,Suffolk County,MA,NA,NA,4.823151125401929,NA
02122,Suffolk County,MA,25.376344086021508,NA,1.714898177920686,NA
02124,Suffolk County,MA,NA,0.5025125628140703,NA,NA
02127,Suffolk County,MA,NA,NA,1.5005359056806002,NA
02129,Suffolk County,MA,NA,NA,20.15005359056806,NA
02131,Suffolk County,MA,NA,36.18090452261307,NA,NA
02136,Suffolk County,MA,NA,NA,2.572347266881029,NA
02138,Middlesex County,MA,31.827956989247312,NA,NA,NA
02139,Middlesex County,MA,10.10752688172043,NA,NA,NA
02140,Middlesex County,MA,NA,NA,18.756698821007504,NA
02145,Middlesex County,MA,2.5806451612903225,NA,NA,NA
02151,Suffolk County,MA,NA,NA,0.21436227224008575,0
02169,Norfolk County,MA,NA,NA,5.251875669882101,NA
02176,Middlesex County,MA,NA,62.8140703517588,NA,NA
02184,Norfolk County,MA,45.16129032258064,NA,NA,NA
02302,Plymouth County,MA,NA,NA,1.1789924973204717,91.48264984227129
02324,Plymouth County,MA,NA,NA,12.433011789924974,NA
02338,Plymouth County,MA,NA,NA,85.7449088960343,NA
02368,Norfolk County,MA,NA,13.5678391959799,NA,NA
02445,Norfolk County,MA,56.98924731182796,NA,NA,NA
02532,Barnstable County,MA,NA,NA,NA,52.05047318611987
02568,Dukes County,MA,NA,NA,76.52733118971061,NA
02601,Barnstable County,MA,NA,46.733668341708544,NA,NA
02721,Bristol County,MA,NA,NA,0.5359056806002144,NA
02780,Bristol County,MA,NA,NA,0.4287245444801715,NA
48009,Oakland County,MI,NA,NA,NA,84.85804416403786
48025,Oakland County,MI,77.63440860215054,NA,NA,NA
48038,Macomb County,MI,18.064516129032256,NA,45.87352625937835,4.100946372239748
48043,Macomb County,MI,NA,NA,NA,54.57413249211357
48059,St. Clair County,MI,NA,NA,NA,44.164037854889585
48071,Oakland County,MI,NA,NA,NA,36.27760252365931
48075,Oakland County,MI,NA,NA,34.83386923901393,NA
48076,Oakland County,MI,NA,NA,70.31082529474813,NA
48084,Oakland County,MI,NA,NA,NA,74.44794952681389
48092,Macomb County,MI,NA,NA,33.11897106109325,23.65930599369085
48093,Macomb County,MI,51.182795698924735,NA,NA,NA
48098,Oakland County,MI,NA,NA,64.84458735262594,NA
48103,Washtenaw County,MI,NA,NA,69.989281886388,NA
48105,Washtenaw County,MI,33.33333333333333,NA,NA,NA
48114,Livingston County,MI,50.32258064516129,NA,NA,NA
48116,Livingston County,MI,NA,NA,31.404072883172564,NA
48125,Wayne County,MI,NA,NA,25.29474812433012,NA
48127,Wayne County,MI,NA,NA,44.80171489817792,NA
48140,Monroe County,MI,NA,NA,99.2497320471597,NA
48141,Wayne County,MI,NA,NA,9.646302250803858,NA
48146,Wayne County,MI,NA,NA,9.217577706323688,NA
48158,Washtenaw County,MI,NA,NA,NA,77.28706624605678
48161,Monroe County,MI,NA,NA,33.976420150053585,NA
48162,Monroe County,MI,NA,NA,14.362272240085744,NA
48168,Wayne County,MI,NA,NA,84.03001071811362,NA
48170,Wayne County,MI,27.956989247311824,NA,NA,NA
48174,Wayne County,MI,7.311827956989248,NA,NA,NA
48183,Wayne County,MI,NA,45.7286432160804,NA,NA
48188,Wayne County,MI,8.38709677419355,NA,NA,NA
48192,Wayne County,MI,25.806451612903224,NA,NA,NA
48193,Wayne County,MI,NA,NA,NA,59.93690851735016
48195,Wayne County,MI,40.86021505376344,NA,NA,NA
48198,Washtenaw County,MI,4.301075268817205,NA,3.322615219721329,NA
48202,Wayne County,MI,NA,NA,33.654876741693464,NA
48203,Wayne County,MI,NA,NA,16.827438370846732,NA
48205,Wayne County,MI,NA,NA,5.57341907824223,NA
48213,Wayne County,MI,NA,NA,12.32583065380493,NA
48219,Wayne County,MI,1.935483870967742,NA,NA,NA
48221,Wayne County,MI,NA,NA,27.54555198285102,NA
48228,Wayne County,MI,2.3655913978494625,NA,NA,NA
48230,Wayne County,MI,NA,NA,83.27974276527331,NA
48234,Wayne County,MI,NA,NA,NA,14.511041009463725
48235,Wayne County,MI,NA,11.557788944723619,NA,NA
48239,Wayne County,MI,NA,33.165829145728644,36.12004287245445,NA
48240,Wayne County,MI,NA,NA,22.40085744908896,NA
48301,Oakland County,MI,NA,NA,70.09646302250803,NA
48304,Oakland County,MI,NA,NA,72.02572347266882,NA
48309,Oakland County,MI,55.91397849462365,NA,NA,NA
48315,Macomb County,MI,NA,NA,43.30117899249732,NA
48316,Macomb County,MI,56.55913978494623,NA,NA,NA
48341,Oakland County,MI,NA,63.81909547738693,NA,NA
48350,Oakland County,MI,NA,NA,94.53376205787781,NA
48359,Oakland County,MI,86.23655913978494,NA,NA,NA
48383,Oakland County,MI,88.38709677419355,NA,NA,NA
48446,Lapeer County,MI,47.956989247311824,NA,NA,NA
48532,Genesee County,MI,61.72043010752688,NA,NA,NA
48602,Saginaw County,MI,NA,NA,4.608788853161844,NA
48617,Clare County,MI,NA,NA,76.20578778135048,NA
48626,Saginaw County,MI,NA,NA,86.06645230439443,NA
48661,Ogemaw County,MI,NA,NA,59.80707395498393,NA
48726,Tuscola County,MI,NA,NA,98.92818863879957,NA
48734,Saginaw County,MI,NA,NA,NA,74.44794952681389
48808,Clinton County,MI,NA,NA,NA,86.75078864353313
48875,Ionia County,MI,NA,NA,83.17256162915328,NA
48917,Eaton County,MI,12.473118279569892,NA,9.967845659163988,NA
49015,Calhoun County,MI,NA,56.78391959798995,NA,31.545741324921135
49057,Van Buren County,MI,NA,NA,83.81564844587352,NA
49083,Kalamazoo County,MI,NA,NA,NA,63.09148264984227
49224,Calhoun County,MI,NA,NA,NA,56.782334384858046
49285,Ingham County,MI,NA,NA,NA,75.70977917981072
49307,Mecosta County,MI,NA,78.39195979899498,NA,NA
49323,Allegan County,MI,90.32258064516128,NA,NA,NA
49417,Ottawa County,MI,37.41935483870968,NA,53.37620578778135,NA
49423,Ottawa County,MI,12.043010752688172,NA,NA,NA
49442,Muskegon County,MI,NA,NA,4.287245444801715,NA
49456,Ottawa County,MI,NA,NA,NA,28.391167192429023
49507,Kent County,MI,NA,6.532663316582915,NA,NA
49519,Kent County,MI,23.655913978494624,NA,NA,NA
49720,Charlevoix County,MI,NA,69.34673366834171,NA,NA
49738,Crawford County,MI,NA,NA,NA,66.5615141955836
49802,Dickinson County,MI,NA,NA,79.63558413719186,NA
49931,Houghton County,MI,80.43010752688173,NA,NA,NA
55103,Ramsey County,MN,NA,44.72361809045226,NA,NA
55107,Ramsey County,MN,50.32258064516129,NA,NA,NA
55125,Washington County,MN,NA,NA,43.944265809217576,NA
55311,Hennepin County,MN,39.13978494623656,NA,NA,NA
55316,Hennepin County,MN,NA,NA,NA,82.64984227129337
55347,Hennepin County,MN,36.12903225806451,NA,NA,NA
55369,Hennepin County,MN,NA,42.211055276381906,NA,NA
55371,Mille Lacs County,MN,NA,NA,55.841371918542336,NA
55378,Scott County,MN,NA,NA,61.7363344051447,NA
55379,Scott County,MN,28.172043010752688,NA,NA,NA
55391,Hennepin County,MN,76.12903225806451,NA,NA,NA
55403,Hennepin County,MN,48.60215053763441,NA,NA,NA
55411,Hennepin County,MN,NA,NA,19.078242229367632,NA
55416,Hennepin County,MN,NA,NA,46.40943193997856,NA
55421,Anoka County,MN,NA,NA,75.34833869239014,NA
55422,Hennepin County,MN,NA,NA,68.91747052518757,NA
55430,Hennepin County,MN,NA,20.603015075376884,NA,NA
55433,Anoka County,MN,44.086021505376344,NA,NA,NA
55434,Anoka County,MN,NA,92.46231155778895,NA,NA
55445,Hennepin County,MN,64.94623655913978,NA,NA,NA
55731,St. Louis County,MN,NA,NA,NA,90.85173501577287
55744,Itasca County,MN,NA,NA,18.113612004287248,NA
55746,St. Louis County,MN,NA,NA,28.081457663451232,NA
55804,St. Louis County,MN,NA,NA,NA,37.53943217665615
55812,St. Louis County,MN,NA,NA,82.85101822079314,NA
55904,Olmsted County,MN,NA,NA,39.657020364415864,NA
55992,Goodhue County,MN,NA,NA,99.35691318327974,NA
56071,Scott County,MN,68.81720430107528,NA,NA,NA
56164,Pipestone County,MN,NA,NA,NA,81.07255520504731
38618,Tate County,MS,NA,NA,86.92390139335477,NA
38635,Marshall County,MS,71.18279569892472,NA,NA,NA
38703,Washington County,MS,NA,NA,NA,78.86435331230284
38821,Monroe County,MS,NA,NA,66.34512325830654,NA
38863,Pontotoc County,MS,73.9784946236559,NA,NA,57.72870662460568
38901,Grenada County,MS,NA,NA,85.20900321543408,NA
38922,Yalobusha County,MS,NA,NA,94.42658092175778,NA
39059,Copiah County,MS,NA,NA,82.7438370846731,NA
39092,Scott County,MS,NA,NA,93.9978563772776,NA
39180,Warren County,MS,NA,NA,46.838156484458736,NA
39206,Hinds County,MS,17.20430107526882,NA,NA,NA
39401,Forrest County,MS,NA,46.231155778894475,NA,NA
39452,George County,MS,NA,NA,64.41586280814576,NA
39475,Lamar County,MS,NA,83.41708542713567,NA,NA
39501,Harrison County,MS,NA,NA,20.79314040728832,NA
39503,Harrison County,MS,NA,12.562814070351758,NA,NA
39560,Harrison County,MS,NA,NA,63.45123258306538,NA
39773,Clay County,MS,72.68817204301075,NA,NA,NA
63011,St. Louis County,MO,NA,NA,77.17041800643086,NA
63012,Jefferson County,MO,NA,NA,99.03536977491962,NA
63108,St. Louis city,MO,60,NA,NA,NA
63129,St. Louis County,MO,NA,68.34170854271356,NA,NA
63136,St. Louis County,MO,4.086021505376344,NA,NA,NA
63385,St. Charles County,MO,NA,NA,18.435155412647376,NA
63701,Cape Girardeau County,MO,NA,NA,NA,39.74763406940063
63801,Scott County,MO,NA,NA,24.97320471596999,NA
63857,Dunklin County,MO,36.344086021505376,36.68341708542713,NA,NA
63901,Butler County,MO,NA,29.64824120603015,15.755627009646304,NA
64012,Cass County,MO,NA,NA,30.54662379421222,NA
64014,Jackson County,MO,16.989247311827956,NA,NA,NA
64015,Jackson County,MO,65.3763440860215,NA,NA,NA
64030,Jackson County,MO,11.182795698924732,NA,NA,NA
64050,Jackson County,MO,NA,NA,NA,15.772870662460567
64062,Ray County,MO,NA,74.87437185929649,NA,NA
64064,Jackson County,MO,NA,NA,57.12754555198285,NA
64081,Jackson County,MO,NA,NA,88.85316184351554,NA
64089,Clay County,MO,NA,NA,NA,67.19242902208202
64093,Johnson County,MO,NA,NA,NA,69.08517350157729
64109,Jackson County,MO,NA,NA,31.29689174705252,NA
64110,Jackson County,MO,NA,NA,39.12111468381565,NA
64111,Jackson County,MO,NA,NA,64.52304394426581,NA
64117,Clay County,MO,34.83870967741935,NA,NA,NA
64119,Clay County,MO,NA,NA,40.51446945337621,NA
64123,Jackson County,MO,NA,NA,46.730975348338696,NA
64127,Jackson County,MO,NA,NA,7.717041800643088,NA
64131,Jackson County,MO,NA,NA,47.69560557341908,NA
64133,Jackson County,MO,NA,NA,5.680600214362272,NA
64134,Jackson County,MO,NA,NA,NA,37.22397476340694
64151,Platte County,MO,NA,NA,NA,15.457413249211358
64155,Clay County,MO,NA,NA,25.401929260450164,NA
64468,Nodaway County,MO,70.96774193548387,NA,NA,NA
64501,Buchanan County,MO,NA,47.23618090452261,NA,NA
64744,Cedar County,MO,NA,NA,NA,80.7570977917981
65203,Boone County,MO,NA,NA,NA,8.517350157728707
65251,Callaway County,MO,NA,NA,33.01178992497321,NA
65301,Pettis County,MO,NA,NA,5.359056806002144,NA
65753,Christian County,MO,NA,NA,99.67845659163987,NA
65775,Howell County,MO,NA,NA,35.47695605573419,NA
65803,Greene County,MO,NA,NA,11.468381564844588,NA
65807,Greene County,MO,NA,NA,30.653804930332264,NA
65810,Greene County,MO,NA,NA,89.06752411575563,NA
59404,Cascade County,MT,NA,NA,NA,7.886435331230284
59803,Missoula County,MT,NA,NA,88.31725616291533,NA
59864,Lake County,MT,NA,NA,NA,87.06624605678233
68104,Douglas County,NE,NA,NA,28.831725616291532,NA
68123,Sarpy County,NE,NA,NA,NA,86.43533123028391
68154,Douglas County,NE,NA,NA,85.31618435155413,NA
68164,Douglas County,NE,NA,NA,91.53269024651661,NA
68522,Lancaster County,NE,89.6774193548387,NA,NA,NA
69341,Scotts Bluff County,NE,NA,NA,NA,81.38801261829653
89110,Clark County,NV,49.46236559139785,NA,NA,NA
89115,Clark County,NV,NA,NA,22.508038585209004,NA
89118,Clark County,NV,96.7741935483871,NA,NA,NA
89119,Clark County,NV,NA,NA,NA,47.003154574132495
89121,Clark County,NV,47.096774193548384,NA,NA,NA
89130,Clark County,NV,NA,NA,59.163987138263664,NA
89145,Clark County,NV,NA,NA,NA,75.0788643533123
89149,Clark County,NV,NA,NA,69.13183279742765,NA
89403,Lyon County,NV,NA,68.34170854271356,41.05037513397642,NA
89436,Washoe County,NV,NA,NA,25.616291532690244,NA
89447,Lyon County,NV,NA,NA,97.96355841371918,NA
89502,Washoe County,NV,51.182795698924735,NA,NA,NA
89503,Washoe County,NV,NA,NA,NA,42.90220820189275
89506,Washoe County,NV,NA,NA,19.935691318327976,NA
89521,Washoe County,NV,NA,NA,54.555198285101824,NA
89701,Carson City,NV,NA,NA,NA,43.84858044164038
03053,Rockingham County,NH,NA,NA,65.27331189710611,NA
03102,Hillsborough County,NH,NA,NA,22.186495176848876,NA
03301,Merrimack County,NH,NA,NA,NA,10.725552050473187
03801,Rockingham County,NH,45.59139784946237,NA,NA,NA
03878,Strafford County,NH,78.49462365591397,81.4070351758794,NA,NA
07002,Hudson County,NJ,NA,NA,NA,1.5772870662460567
07003,Essex County,NJ,17.634408602150536,NA,10.503751339764202,NA
07006,Essex County,NJ,NA,NA,NA,47.94952681388013
07017,Essex County,NJ,NA,NA,3.1082529474812435,NA
07018,Essex County,NJ,NA,NA,7.395498392282958,NA
07032,Hudson County,NJ,NA,NA,22.936763129689176,NA
07050,Essex County,NJ,83.87096774193549,NA,NA,NA
07060,Union County,NJ,NA,4.522613065326634,NA,NA
07086,Hudson County,NJ,NA,NA,96.2486602357985,NA
07105,Essex County,NJ,20.43010752688172,NA,NA,NA
07106,Essex County,NJ,NA,35.175879396984925,NA,NA
07108,Essex County,NJ,NA,NA,66.88102893890675,NA
07110,Essex County,NJ,NA,NA,79.20685959271168,NA
07111,Essex County,NJ,NA,NA,8.896034297963558,NA
07201,Union County,NJ,NA,6.030150753768844,NA,NA
07202,Union County,NJ,NA,2.512562814070352,NA,NA
07203,Union County,NJ,NA,NA,28.724544480171488,NA
07205,Union County,NJ,NA,NA,84.2443729903537,NA
07208,Union County,NJ,NA,NA,NA,24.290220820189273
07304,Hudson County,NJ,NA,NA,37.29903536977492,NA
07305,Hudson County,NJ,NA,NA,NA,39.11671924290221
07403,Passaic County,NJ,NA,NA,60.77170418006431,NA
07407,Bergen County,NJ,NA,NA,34.61950696677385,NA
07418,Sussex County,NJ,NA,NA,99.89281886387997,NA
07423,Bergen County,NJ,NA,NA,NA,100
07462,Sussex County,NJ,NA,98.49246231155779,NA,NA
07501,Passaic County,NJ,NA,NA,2.679528403001072,NA
07504,Passaic County,NJ,NA,57.286432160804026,NA,NA
07631,Bergen County,NJ,NA,NA,31.618435155412648,NA
07675,Bergen County,NJ,NA,NA,71.38263665594855,NA
07719,Monmouth County,NJ,77.20430107526882,NA,NA,NA
07728,Monmouth County,NJ,NA,NA,49.19614147909968,NA
07734,Monmouth County,NJ,NA,NA,23.04394426580922,NA
07740,Monmouth County,NJ,1.2903225806451613,NA,NA,NA
07753,Monmouth County,NJ,NA,40.20100502512563,NA,NA
07840,Warren County,NJ,NA,NA,37.40621650589496,33.12302839116719
07849,Morris County,NJ,NA,NA,98.17792068595928,NA
07871,Sussex County,NJ,NA,NA,NA,80.12618296529969
07874,Sussex County,NJ,NA,NA,81.35048231511254,NA
07932,Morris County,NJ,90.53763440860216,NA,NA,94.00630914826499
08002,Camden County,NJ,NA,NA,59.59271168274384,NA
08003,Camden County,NJ,NA,NA,80.06430868167203,NA
08012,Camden County,NJ,NA,NA,7.181136120042872,NA
08021,Camden County,NJ,6.236559139784946,NA,NA,NA
08030,Camden County,NJ,NA,86.4321608040201,NA,NA
08034,Camden County,NJ,75.26881720430107,NA,NA,NA
08046,Burlington County,NJ,71.3978494623656,NA,30.439442658092176,NA
08052,Burlington County,NJ,NA,71.35678391959799,NA,NA
08053,Burlington County,NJ,NA,NA,63.665594855305464,NA
08080,Gloucester County,NJ,9.46236559139785,NA,NA,NA
08205,Atlantic County,NJ,NA,NA,71.70418006430869,NA
08244,Atlantic County,NJ,NA,NA,39.97856377277599,NA
08251,Cape May County,NJ,NA,NA,56.69882100750267,NA
08344,Gloucester County,NJ,NA,NA,96.67738478027867,NA
08520,Mercer County,NJ,NA,NA,57.020364415862815,NA
08527,Ocean County,NJ,24.301075268817204,NA,NA,NA
08611,Mercer County,NJ,13.333333333333334,NA,NA,NA
08618,Mercer County,NJ,NA,3.5175879396984926,NA,NA
08619,Mercer County,NJ,NA,NA,81.77920685959272,NA
08701,Ocean County,NJ,NA,NA,52.30439442658093,NA
08724,Ocean County,NJ,NA,NA,10.289389067524116,NA
08848,Hunterdon County,NJ,NA,NA,NA,94.3217665615142
08861,Middlesex County,NJ,NA,NA,70.63236870310826,NA
08865,Warren County,NJ,NA,NA,NA,7.255520504731862
08879,Middlesex County,NJ,NA,NA,36.763129689174704,NA
08901,Middlesex County,NJ,NA,NA,6.430868167202572,NA
87031,Valencia County,NM,NA,NA,66.45230439442658,NA
87112,Bernalillo County,NM,NA,NA,16.184351554126476,NA
87114,Bernalillo County,NM,NA,NA,9.431939978563774,NA
87123,Bernalillo County,NM,NA,18.592964824120603,NA,NA
87124,Sandoval County,NM,NA,NA,NA,6.940063091482649
87410,San Juan County,NM,88.81720430107526,NA,NA,69.4006309148265
87416,San Juan County,NM,NA,55.778894472361806,NA,NA
87505,Santa Fe County,NM,NA,23.618090452261306,6.32368703108253,NA
87701,San Miguel County,NM,NA,NA,81.88638799571275,NA
88061,Grant County,NM,85.3763440860215,NA,NA,NA
88130,Roosevelt County,NM,81.29032258064515,NA,NA,NA
88340,Otero County,NM,NA,NA,89.71061093247589,NA
10002,New York County,NY,NA,NA,41.58628081457664,NA
10023,New York County,NY,NA,NA,NA,12.618296529968454
10029,New York County,NY,NA,0,0.7502679528403001,NA
10033,New York County,NY,78.06451612903226,NA,NA,19.558359621451103
10452,Bronx County,NY,NA,NA,0.857449088960343,NA
10456,Bronx County,NY,0,NA,NA,NA
10457,Bronx County,NY,2.1505376344086025,NA,NA,NA
10461,Bronx County,NY,NA,NA,13.290460878885316,NA
10467,Bronx County,NY,NA,NA,0.6430868167202572,NA
10543,Westchester County,NY,79.78494623655914,NA,NA,NA
10550,Westchester County,NY,NA,NA,27.867095391211144,NA
10567,Westchester County,NY,92.68817204301075,NA,NA,NA
10708,Westchester County,NY,97.63440860215053,NA,NA,NA
10920,Rockland County,NY,NA,NA,NA,94.95268138801262
11021,Nassau County,NY,NA,89.44723618090453,NA,91.16719242902208
11208,Kings County,NY,NA,NA,1.0718113612004287,NA
11212,Kings County,NY,3.010752688172043,NA,NA,NA
11213,Kings County,NY,60.43010752688171,NA,NA,NA
11219,Kings County,NY,9.032258064516128,9.045226130653267,15.326902465166132,NA
11220,Kings County,NY,0.21505376344086022,1.0050251256281406,NA,NA
11224,Kings County,NY,NA,NA,20.578778135048232,NA
11226,Kings County,NY,6.881720430107527,NA,5.144694533762058,NA
11233,Kings County,NY,NA,NA,2.0364415862808145,NA
11238,Kings County,NY,45.376344086021504,NA,NA,NA
11412,Queens County,NY,NA,NA,NA,46.05678233438486
11420,Queens County,NY,NA,16.08040201005025,NA,NA
11422,Queens County,NY,NA,NA,89.81779206859592,58.0441640378549
11432,Queens County,NY,NA,NA,29.36763129689175,NA
11516,Nassau County,NY,NA,NA,99.57127545551982,NA
11518,Nassau County,NY,NA,NA,96.14147909967846,NA
11550,Nassau County,NY,NA,NA,12.861736334405144,NA
11561,Nassau County,NY,NA,NA,78.02786709539122,NA
11580,Nassau County,NY,NA,NA,NA,53.62776025236593
11706,Suffolk County,NY,NA,NA,24.54448017148982,NA
11951,Suffolk County,NY,NA,NA,NA,88.64353312302839
11967,Suffolk County,NY,85.3763440860215,NA,NA,NA
12078,Fulton County,NY,24.731182795698924,25.628140703517587,NA,NA
12110,Albany County,NY,NA,95.97989949748744,NA,NA
12159,Albany County,NY,NA,NA,97.10610932475883,NA
12182,Rensselaer County,NY,33.5483870967742,NA,NA,NA
12306,Schenectady County,NY,NA,NA,36.01286173633441,NA
12569,Dutchess County,NY,NA,NA,NA,89.58990536277602
12845,Warren County,NY,NA,NA,91.21114683815648,NA
12866,Saratoga County,NY,NA,NA,16.077170418006432,NA
12962,Clinton County,NY,NA,NA,68.70310825294747,NA
13021,Cayuga County,NY,NA,NA,4.180064308681672,NA
13033,Cayuga County,NY,NA,NA,94.31939978563773,NA
13037,Madison County,NY,NA,NA,65.59485530546624,NA
13039,Onondaga County,NY,58.49462365591398,NA,NA,NA
13068,Tompkins County,NY,NA,NA,NA,87.06624605678233
13126,Oswego County,NY,6.666666666666667,NA,NA,NA
13156,Cayuga County,NY,NA,NA,97.7491961414791,NA
13159,Onondaga County,NY,NA,NA,88.31725616291533,NA
13203,Onondaga County,NY,NA,NA,20.685959271168276,NA
13204,Onondaga County,NY,NA,NA,NA,54.25867507886435
13316,Oneida County,NY,77.20430107526882,NA,NA,NA
13348,Otsego County,NY,NA,NA,96.03429796355842,NA
13619,Jefferson County,NY,15.913978494623656,NA,NA,NA
13732,Tioga County,NY,69.89247311827957,NA,NA,NA
13733,Chenango County,NY,87.95698924731182,NA,NA,NA
13760,Broome County,NY,NA,NA,0.964630225080386,NA
13790,Broome County,NY,NA,NA,NA,6.309148264984227
13820,Otsego County,NY,NA,NA,10.82529474812433,NA
13827,Tioga County,NY,NA,NA,24.437299035369776,NA
13850,Broome County,NY,NA,NA,17.89924973204716,NA
13901,Broome County,NY,NA,NA,5.037513397642015,NA
14075,Erie County,NY,NA,NA,9.539121114683816,NA
14092,Niagara County,NY,NA,NA,54.983922829581985,NA
14120,Niagara County,NY,NA,NA,6.002143622722401,NA
14208,Erie County,NY,NA,NA,NA,27.444794952681388
14211,Erie County,NY,NA,28.14070351758794,NA,NA
14214,Erie County,NY,NA,NA,NA,43.217665615141954
14221,Erie County,NY,NA,NA,12.968917470525188,NA
14305,Niagara County,NY,NA,NA,6.966773847802786,NA
14424,Ontario County,NY,NA,63.81909547738693,3.536977491961415,NA
14437,Livingston County,NY,NA,NA,47.37406216505895,NA
14456,Ontario County,NY,27.09677419354839,NA,33.22615219721329,NA
14487,Livingston County,NY,70.53763440860214,NA,NA,NA
14489,Wayne County,NY,60.86021505376345,NA,NA,NA
14513,Wayne County,NY,NA,NA,6.645230439442658,NA
14526,Monroe County,NY,NA,NA,NA,12.933753943217665
14527,Yates County,NY,63.2258064516129,NA,NA,NA
14544,Yates County,NY,NA,NA,NA,95.26813880126183
14580,Monroe County,NY,0.8602150537634409,NA,42.01500535905681,NA
14606,Monroe County,NY,NA,NA,NA,10.410094637223976
14608,Monroe County,NY,NA,34.17085427135678,14.790996784565916,NA
14609,Monroe County,NY,4.946236559139785,NA,NA,NA
14611,Monroe County,NY,NA,NA,NA,16.40378548895899
14621,Monroe County,NY,NA,7.035175879396985,NA,NA
14701,Chautauqua County,NY,NA,NA,3.858520900321544,NA
14807,Steuben County,NY,NA,NA,NA,94.6372239747634
14812,Schuyler County,NY,NA,93.96984924623115,NA,NA
14845,Chemung County,NY,NA,NA,18.327974276527332,NA
14850,Tompkins County,NY,NA,NA,6.538049303322616,NA
27011,Yadkin County,NC,NA,NA,87.35262593783494,NA
27017,Surry County,NC,NA,NA,80.81457663451232,NA
27103,Forsyth County,NC,44.086021505376344,NA,NA,NA
27127,Forsyth County,NC,NA,23.618090452261306,NA,NA
27217,Alamance County,NC,NA,NA,15.005359056806004,7.570977917981073
27284,Forsyth County,NC,NA,NA,8.145766345123258,0.9463722397476341
27330,Lee County,NC,NA,NA,24.330117899249732,NA
27344,Chatham County,NC,NA,NA,51.446945337620576,NA
27360,Davidson County,NC,NA,NA,4.501607717041801,NA
27377,Guilford County,NC,94.40860215053763,NA,NA,NA
27403,Guilford County,NC,87.74193548387098,NA,NA,NA
27501,Harnett County,NC,83.01075268817203,NA,NA,NA
27504,Johnston County,NC,NA,NA,87.56698821007502,NA
27518,Wake County,NC,NA,NA,89.81779206859592,NA
27522,Granville County,NC,84.3010752688172,NA,NA,NA
27530,Wayne County,NC,NA,NA,NA,21.766561514195583
27536,Vance County,NC,NA,54.2713567839196,NA,NA
27565,Granville County,NC,NA,NA,61.09324758842444,NA
27573,Person County,NC,NA,NA,79.63558413719186,NA
27592,Wake County,NC,NA,NA,NA,89.90536277602523
27603,Wake County,NC,13.763440860215054,NA,NA,NA
27613,Wake County,NC,NA,NA,54.019292604501615,NA
27615,Wake County,NC,NA,NA,76.63451232583066,NA
27834,Pitt County,NC,28.817204301075268,NA,NA,NA
27889,Beaufort County,NC,NA,NA,69.88210075026795,NA
27893,Wilson County,NC,NA,NA,16.720257234726688,NA
27909,Pasquotank County,NC,52.04301075268817,NA,NA,NA
28043,Rutherford County,NC,NA,NA,NA,71.60883280757098
28052,Gaston County,NC,18.494623655913976,NA,NA,NA
28056,Gaston County,NC,NA,67.33668341708542,NA,NA
28073,Cleveland County,NC,NA,85.92964824120602,NA,NA
28112,Union County,NC,53.97849462365591,NA,NA,NA
28117,Iredell County,NC,51.61290322580645,NA,NA,NA
28146,Rowan County,NC,NA,NA,71.06109324758843,44.479495268138805
28152,Cleveland County,NC,NA,35.175879396984925,NA,NA
28164,Gaston County,NC,NA,NA,83.06538049303323,NA
28207,Mecklenburg County,NC,NA,NA,NA,93.05993690851734
28208,Mecklenburg County,NC,NA,NA,10.39657020364416,NA
28209,Mecklenburg County,NC,NA,NA,NA,64.98422712933754
28213,Mecklenburg County,NC,NA,NA,29.474812433011788,NA
28214,Mecklenburg County,NC,NA,NA,31.939978563772776,NA
28216,Mecklenburg County,NC,NA,15.577889447236181,NA,NA
28270,Mecklenburg County,NC,NA,NA,65.38049303322614,NA
28301,Cumberland County,NC,NA,48.743718592964825,NA,NA
28311,Cumberland County,NC,NA,NA,27.652733118971064,NA
28318,Sampson County,NC,NA,93.46733668341709,NA,NA
28333,Wayne County,NC,NA,NA,NA,77.91798107255521
28340,Robeson County,NC,NA,79.39698492462311,NA,NA
28390,Harnett County,NC,72.25806451612902,NA,NA,NA
28401,New Hanover County,NC,NA,NA,11.682743837084674,NA
28412,New Hanover County,NC,NA,NA,17.363344051446948,NA
28472,Columbus County,NC,NA,NA,39.764201500535904,NA
28504,Lenoir County,NC,NA,NA,48.55305466237942,NA
28540,Onslow County,NC,NA,NA,28.938906752411576,NA
28551,Lenoir County,NC,NA,90.95477386934674,NA,NA
28570,Carteret County,NC,NA,NA,83.70846730975349,NA
28657,Avery County,NC,NA,NA,NA,62.14511041009464
28731,Henderson County,NC,NA,NA,87.03108252947482,NA
28754,Madison County,NC,NA,NA,94.96248660235798,NA
28761,McDowell County,NC,NA,NA,82.31511254019293,NA
58501,Burleigh County,ND,NA,NA,NA,29.33753943217666
58503,Burleigh County,ND,NA,NA,36.548767416934616,NA
43015,Delaware County,OH,NA,NA,16.505894962486604,NA
43026,Franklin County,OH,NA,5.527638190954774,NA,NA
43055,Licking County,OH,NA,NA,1.929260450160772,NA
43078,Champaign County,OH,NA,27.63819095477387,NA,NA
43105,Fairfield County,OH,NA,NA,84.67309753483387,NA
43119,Franklin County,OH,NA,12.060301507537687,NA,NA
43123,Franklin County,OH,NA,NA,8.360128617363344,NA
43138,Hocking County,OH,NA,41.70854271356784,NA,NA
43224,Franklin County,OH,NA,3.015075376884422,NA,NA
43227,Franklin County,OH,3.655913978494624,NA,NA,NA
43232,Franklin County,OH,NA,2.0100502512562812,NA,NA
43315,Morrow County,OH,58.27956989247311,NA,NA,NA
43420,Sandusky County,OH,NA,NA,11.57556270096463,NA
43512,Defiance County,OH,NA,NA,5.466237942122187,NA
43560,Lucas County,OH,7.741935483870968,NA,NA,NA
43567,Fulton County,OH,NA,NA,52.947481243301176,NA
43607,Lucas County,OH,NA,NA,NA,20.82018927444795
43612,Lucas County,OH,NA,NA,5.894962486602358,NA
43725,Guernsey County,OH,21.0752688172043,NA,NA,NA
43812,Coshocton County,OH,NA,NA,6.859592711682744,NA
43906,Belmont County,OH,NA,NA,51.12540192926045,NA
43920,Columbiana County,OH,NA,31.65829145728643,10.182207931404074,NA
43938,Jefferson County,OH,NA,NA,56.37727759914255,NA
43943,Jefferson County,OH,NA,NA,89.4962486602358,NA
43950,Belmont County,OH,NA,NA,43.08681672025724,NA
43952,Jefferson County,OH,NA,NA,8.57449088960343,NA
44011,Lorain County,OH,34.40860215053764,NA,NA,NA
44017,Cuyahoga County,OH,NA,NA,NA,38.170347003154575
44030,Ashtabula County,OH,45.806451612903224,NA,NA,NA
44035,Lorain County,OH,NA,NA,3.644158628081458,NA
44053,Lorain County,OH,82.58064516129032,NA,8.788853161843516,NA
44054,Lorain County,OH,65.3763440860215,NA,NA,NA
44067,Summit County,OH,NA,NA,NA,17.981072555205046
44070,Cuyahoga County,OH,NA,NA,NA,4.73186119873817
44081,Lake County,OH,95.05376344086022,NA,NA,NA
44095,Lake County,OH,NA,NA,21.329046087888532,NA
44105,Cuyahoga County,OH,NA,NA,NA,0.31545741324921134
44106,Cuyahoga County,OH,NA,NA,11.361200428724544,NA
44107,Cuyahoga County,OH,NA,NA,14.89817792068596,NA
44108,Cuyahoga County,OH,NA,16.582914572864322,NA,NA
44109,Cuyahoga County,OH,1.0752688172043012,NA,NA,NA
44110,Cuyahoga County,OH,NA,NA,10.610932475884244,NA
44111,Cuyahoga County,OH,NA,NA,12.111468381564846,NA
44123,Cuyahoga County,OH,NA,NA,NA,26.18296529968454
44125,Cuyahoga County,OH,NA,NA,11.14683815648446,NA
44135,Cuyahoga County,OH,NA,NA,4.072883172561629,NA
44138,Cuyahoga County,OH,NA,NA,NA,25.86750788643533
44139,Cuyahoga County,OH,31.61290322580645,NA,45.01607717041801,NA
44143,Cuyahoga County,OH,NA,NA,NA,12.302839116719243
44146,Cuyahoga County,OH,NA,43.71859296482412,NA,1.2618296529968454
44202,Portage County,OH,NA,NA,35.69131832797427,NA
44223,Summit County,OH,NA,NA,50.160771704180064,NA
44224,Summit County,OH,NA,NA,23.258306538049304,NA
44256,Medina County,OH,1.5053763440860215,NA,NA,0.6309148264984227
44278,Summit County,OH,84.94623655913979,NA,NA,NA
44286,Summit County,OH,NA,NA,94.85530546623794,NA
44306,Summit County,OH,NA,NA,38.69239013933547,NA
44312,Summit County,OH,35.6989247311828,NA,NA,NA
44319,Summit County,OH,NA,NA,54.76956055734191,NA
44432,Columbiana County,OH,NA,NA,69.45337620578779,NA
44438,Trumbull County,OH,NA,NA,75.13397642015005,NA
44460,Columbiana County,OH,NA,NA,NA,6.624605678233439
44473,Trumbull County,OH,NA,NA,95.17684887459808,NA
44505,Mahoning County,OH,NA,NA,34.51232583065381,NA
44506,Mahoning County,OH,NA,NA,97.32047159699893,NA
44511,Mahoning County,OH,NA,NA,NA,33.753943217665615
44614,Stark County,OH,NA,NA,79.84994640943194,NA
44647,Stark County,OH,NA,NA,54.448017148981776,NA
44685,Summit County,OH,NA,NA,48.767416934619504,NA
44833,Crawford County,OH,NA,25.125628140703515,NA,NA
44870,Erie County,OH,NA,NA,2.786709539121115,NA
44903,Richland County,OH,NA,14.572864321608039,19.292604501607716,NA
45014,Butler County,OH,NA,NA,16.613076098606644,NA
45066,Warren County,OH,36.774193548387096,NA,NA,NA
45211,Hamilton County,OH,NA,NA,NA,32.17665615141956
45223,Hamilton County,OH,35.913978494623656,NA,NA,NA
45344,Clark County,OH,71.3978494623656,NA,NA,NA
45373,Miami County,OH,NA,32.1608040201005,NA,NA
45404,Montgomery County,OH,NA,NA,58.7352625937835,NA
45405,Montgomery County,OH,NA,NA,26.688102893890676,NA
45406,Montgomery County,OH,NA,NA,48.98177920685959,NA
45414,Montgomery County,OH,22.58064516129032,NA,NA,NA
45432,Greene County,OH,NA,NA,74.59807073954984,NA
45504,Clark County,OH,NA,NA,93.35476956055734,NA
45640,Jackson County,OH,NA,NA,8.038585209003216,NA
45663,Scioto County,OH,NA,NA,54.019292604501615,NA
45742,Washington County,OH,NA,NA,91.21114683815648,NA
45750,Washington County,OH,NA,NA,2.2508038585209005,NA
45801,Allen County,OH,NA,NA,NA,24.605678233438486
45832,Van Wert County,OH,NA,NA,NA,97.47634069400631
73003,Oklahoma County,OK,NA,NA,NA,57.09779179810725
73020,Oklahoma County,OK,NA,NA,43.62272240085745,NA
73064,Canadian County,OK,NA,77.88944723618091,NA,NA
73110,Oklahoma County,OK,26.451612903225808,NA,19.506966773847804,NA
73112,Oklahoma County,OK,26.236559139784948,NA,NA,NA
73115,Oklahoma County,OK,NA,NA,63.236870310825296,NA
73120,Oklahoma County,OK,NA,NA,45.444801714898176,29.02208201892745
73122,Oklahoma County,OK,NA,87.43718592964824,NA,NA
73505,Comanche County,OK,NA,NA,NA,14.826498422712934
73521,Jackson County,OK,NA,NA,72.34726688102894,NA
73529,Stephens County,OK,80,NA,NA,NA
73533,Stephens County,OK,NA,NA,23.687031082529476,NA
73737,Major County,OK,95.91397849462365,NA,NA,NA
74006,Washington County,OK,42.1505376344086,NA,59.91425509110396,NA
74012,Tulsa County,OK,NA,NA,27.438370846730976,NA
74110,Tulsa County,OK,NA,NA,86.81672025723472,NA
74134,Tulsa County,OK,NA,NA,76.84887459807074,NA
74137,Tulsa County,OK,NA,NA,81.56484458735262,NA
74464,Cherokee County,OK,NA,NA,9.860664523043944,NA
74501,Pittsburg County,OK,38.064516129032256,NA,NA,NA
74601,Kay County,OK,NA,NA,47.159699892818864,NA
74820,Pontotoc County,OK,NA,NA,NA,3.7854889589905363
74848,Hughes County,OK,86.88172043010752,NA,NA,NA
74962,Sequoyah County,OK,NA,NA,96.89174705251877,NA
74966,Le Flore County,OK,92.68817204301075,NA,NA,NA
97009,Clackamas County,OR,NA,NA,NA,79.81072555205047
97027,Clackamas County,OR,NA,NA,82.52947481243301,NA
97045,Clackamas County,OR,NA,59.798994974874375,NA,NA
97062,Washington County,OR,NA,NA,NA,61.51419558359621
97116,Washington County,OR,NA,81.90954773869346,NA,NA
97201,Multnomah County,OR,NA,NA,92.71168274383709,NA
97203,Multnomah County,OR,NA,NA,42.97963558413719,NA
97211,Multnomah County,OR,NA,NA,NA,53.31230283911672
97217,Multnomah County,OR,69.6774193548387,NA,NA,NA
97266,Multnomah County,OR,NA,NA,35.155412647374064,NA
97301,Marion County,OR,NA,NA,14.576634512325832,NA
97303,Marion County,OR,NA,54.2713567839196,44.69453376205787,NA
97322,Linn County,OR,NA,NA,15.541264737406216,NA
97338,Polk County,OR,68.81720430107528,NA,NA,40.37854889589905
97411,Coos County,OR,NA,NA,84.45873526259379,NA
97423,Coos County,OR,NA,88.94472361809045,NA,NA
97426,Lane County,OR,98.49462365591398,NA,NA,NA
97479,Douglas County,OR,NA,NA,76.42015005359056,NA
97504,Jackson County,OR,NA,NA,21.864951768488748,NA
97535,Jackson County,OR,NA,84.42211055276381,NA,NA
15063,Washington County,PA,NA,NA,68.70310825294747,NA
15102,Allegheny County,PA,NA,NA,69.02465166130762,NA
15207,Allegheny County,PA,NA,NA,85.95927116827438,NA
15212,Allegheny County,PA,15.268817204301074,NA,NA,NA
15216,Allegheny County,PA,NA,NA,NA,50.78864353312302
15236,Allegheny County,PA,NA,NA,50.26795284030011,31.861198738170348
15401,Fayette County,PA,NA,NA,9.003215434083602,NA
15601,Westmoreland County,PA,NA,NA,4.930332261521972,NA
15666,Westmoreland County,PA,NA,NA,56.162915326902464,NA
15701,Indiana County,PA,NA,NA,23.15112540192926,NA
15767,Jefferson County,PA,NA,NA,65.91639871382637,NA
15824,Jefferson County,PA,NA,NA,NA,83.2807570977918
16063,Butler County,PA,NA,99.49748743718592,NA,NA
16101,Lawrence County,PA,NA,NA,7.609860664523044,NA
16242,Clarion County,PA,NA,NA,94.64094319399786,NA
16354,Crawford County,PA,NA,NA,NA,96.52996845425868
16417,Erie County,PA,NA,NA,83.92282958199357,NA
16701,McKean County,PA,NA,45.22613065326633,NA,NA
16915,Potter County,PA,NA,NA,85.53054662379421,NA
17036,Dauphin County,PA,5.591397849462366,NA,NA,NA
17042,Lebanon County,PA,NA,NA,25.723472668810288,NA
17045,Perry County,PA,93.33333333333333,NA,NA,NA
17050,Cumberland County,PA,31.182795698924732,NA,NA,NA
17055,Cumberland County,PA,NA,NA,31.832797427652732,NA
17070,Cumberland County,PA,62.1505376344086,NA,NA,NA
17110,Dauphin County,PA,32.47311827956989,NA,NA,NA
17112,Dauphin County,PA,NA,NA,86.17363344051448,NA
17222,Franklin County,PA,71.82795698924731,NA,NA,NA
17325,Adams County,PA,NA,NA,26.79528403001072,NA
17350,Adams County,PA,NA,NA,63.77277599142551,NA
17363,York County,PA,92.04301075268818,NA,NA,NA
17509,Lancaster County,PA,NA,NA,100,NA
17543,Lancaster County,PA,NA,NA,26.366559485530544,NA
17554,Lancaster County,PA,NA,NA,86.28081457663451,NA
17603,Lancaster County,PA,NA,NA,38.37084673097535,NA
17701,Lycoming County,PA,NA,NA,NA,5.3627760252365935
17821,Montour County,PA,NA,NA,28.29581993569132,NA
17870,Snyder County,PA,NA,NA,51.339764201500536,NA
18032,Lehigh County,PA,78.27956989247312,NA,NA,NA
18049,Lehigh County,PA,NA,NA,91.85423365487674,NA
18071,Carbon County,PA,NA,NA,55.41264737406216,NA
18072,Northampton County,PA,NA,NA,89.28188638799571,NA
18201,Luzerne County,PA,NA,NA,56.59163987138264,NA
18222,Luzerne County,PA,NA,NA,85.53054662379421,65.61514195583597
18324,Pike County,PA,NA,NA,78.34941050375134,NA
18360,Monroe County,PA,NA,NA,65.80921757770632,11.041009463722396
18424,Lackawanna County,PA,NA,NA,NA,88.01261829652996
18518,Lackawanna County,PA,87.31182795698925,NA,NA,NA
18702,Luzerne County,PA,NA,NA,8.467309753483388,NA
18960,Bucks County,PA,89.24731182795699,NA,NA,NA
18974,Bucks County,PA,NA,NA,NA,9.46372239747634
19026,Delaware County,PA,NA,NA,19.185423365487676,NA
19038,Montgomery County,PA,NA,NA,73.41907824222936,NA
19081,Delaware County,PA,NA,NA,97.21329046087888,NA
19083,Delaware County,PA,54.83870967741935,NA,NA,NA
19094,Delaware County,PA,NA,NA,NA,85.48895899053628
19111,Philadelphia County,PA,NA,NA,4.715969989281887,NA
19119,Philadelphia County,PA,NA,NA,27.331189710610932,NA
19120,Philadelphia County,PA,6.451612903225806,13.06532663316583,NA,NA
19124,Philadelphia County,PA,NA,NA,NA,40.694006309148264
19134,Philadelphia County,PA,NA,NA,3.965702036441586,NA
19135,Philadelphia County,PA,NA,19.09547738693467,17.041800643086816,NA
19138,Philadelphia County,PA,NA,NA,NA,23.974763406940063
19139,Philadelphia County,PA,NA,NA,NA,35.01577287066246
19140,Philadelphia County,PA,NA,8.040201005025125,62.165058949624864,NA
19144,Philadelphia County,PA,NA,NA,25.509110396570208,NA
19149,Philadelphia County,PA,NA,21.608040201005025,NA,NA
19320,Chester County,PA,NA,NA,38.156484458735264,NA
19380,Chester County,PA,NA,NA,13.612004287245444,NA
19406,Montgomery County,PA,NA,NA,80.60021436227224,NA
19428,Montgomery County,PA,95.48387096774194,NA,NA,NA
19446,Montgomery County,PA,10.32258064516129,NA,NA,NA
19462,Montgomery County,PA,NA,NA,NA,88.95899053627761
19468,Montgomery County,PA,NA,NA,43.19399785637727,NA
19604,Berks County,PA,11.827956989247312,NA,NA,NA
19606,Berks County,PA,NA,NA,12.218649517684888,NA
19607,Berks County,PA,NA,NA,65.70203644158627,NA
02818,Kent County,RI,78.92473118279571,NA,NA,NA
02830,Providence County,RI,NA,NA,85.85209003215434,NA
02840,Newport County,RI,NA,NA,NA,30.5993690851735
02852,Washington County,RI,55.053763440860216,NA,NA,NA
02863,Providence County,RI,NA,NA,67.7384780278671,NA
02864,Providence County,RI,32.68817204301075,NA,NA,NA
02865,Providence County,RI,65.3763440860215,NA,NA,NA
02879,Washington County,RI,NA,NA,NA,35.96214511041009
02886,Kent County,RI,NA,NA,35.262593783494104,NA
02908,Providence County,RI,NA,NA,44.37299035369775,NA
29016,Richland County,SC,NA,NA,81.02893890675242,NA
29044,Richland County,SC,NA,NA,NA,96.21451104100946
29115,Orangeburg County,SC,72.47311827956989,NA,39.87138263665595,NA
29161,Florence County,SC,NA,NA,76.31296891747053,NA
29170,Lexington County,SC,NA,NA,72.77599142550912,NA
29204,Richland County,SC,NA,NA,74.27652733118971,NA
29209,Richland County,SC,NA,NA,48.231511254019296,NA
29223,Richland County,SC,NA,60.30150753768844,26.04501607717042,NA
29301,Spartanburg County,SC,42.365591397849464,NA,NA,NA
29322,Spartanburg County,SC,96.34408602150538,NA,NA,NA
29340,Cherokee County,SC,NA,90.45226130653266,NA,52.99684542586751
29341,Cherokee County,SC,NA,NA,50.053590568060024,NA
29360,Laurens County,SC,16.129032258064516,NA,NA,NA
29466,Charleston County,SC,14.408602150537634,NA,NA,NA
29485,Dorchester County,SC,NA,NA,NA,32.49211356466877
29501,Florence County,SC,NA,NA,34.941050375133976,NA
29520,Chesterfield County,SC,NA,NA,80.38585209003215,NA
29569,Horry County,SC,59.78494623655914,42.211055276381906,NA,NA
29577,Horry County,SC,NA,NA,NA,50.1577287066246
29585,Georgetown County,SC,NA,NA,NA,76.97160883280758
29605,Greenville County,SC,NA,NA,NA,11.35646687697161
29657,Pickens County,SC,NA,NA,NA,60.252365930599375
29671,Pickens County,SC,NA,83.91959798994975,53.054662379421224,NA
29690,Greenville County,SC,83.01075268817203,NA,NA,NA
29720,Lancaster County,SC,NA,NA,16.934619506966776,NA
29910,Beaufort County,SC,58.70967741935483,NA,NA,NA
29926,Beaufort County,SC,NA,NA,95.17684887459808,NA
29936,Jasper County,SC,84.73118279569893,NA,NA,NA
57104,Minnehaha County,SD,20,NA,NA,NA
57702,Pennington County,SD,NA,NA,63.9871382636656,NA
37013,Davidson County,TN,NA,NA,NA,15.141955835962145
37029,Dickson County,TN,NA,NA,98.71382636655949,NA
37043,Montgomery County,TN,NA,NA,NA,22.71293375394322
37064,Williamson County,TN,19.35483870967742,NA,NA,NA
37087,Wilson County,TN,22.365591397849464,NA,NA,NA
37091,Marshall County,TN,NA,NA,NA,49.52681388012618
37101,Humphreys County,TN,NA,84.42211055276381,NA,NA
37110,Warren County,TN,33.11827956989247,NA,NA,NA
37128,Rutherford County,TN,NA,76.38190954773869,31.082529474812432,NA
37130,Rutherford County,TN,20.64516129032258,NA,NA,32.49211356466877
37146,Cheatham County,TN,NA,NA,93.56913183279742,NA
37160,Bedford County,TN,NA,NA,20.364415862808148,NA
37167,Rutherford County,TN,NA,38.69346733668342,NA,NA
37172,Robertson County,TN,46.666666666666664,NA,NA,NA
37210,Davidson County,TN,NA,NA,63.87995712754555,NA
37211,Davidson County,TN,NA,10.552763819095476,NA,NA
37218,Davidson County,TN,NA,NA,56.80600214362273,NA
37221,Davidson County,TN,NA,NA,71.4898177920686,NA
37303,McMinn County,TN,NA,40.7035175879397,NA,NA
37312,Bradley County,TN,48.817204301075265,NA,NA,NA
37321,Rhea County,TN,NA,NA,66.9882100750268,NA
37327,Sequatchie County,TN,73.9784946236559,NA,NA,NA
37406,Hamilton County,TN,NA,NA,72.13290460878885,NA
37421,Hamilton County,TN,NA,NA,30.97534833869239,NA
37601,Washington County,TN,21.935483870967744,NA,NA,NA
37604,Washington County,TN,36.344086021505376,NA,NA,20.50473186119874
37615,Washington County,TN,80.43010752688173,NA,NA,NA
37617,Sullivan County,TN,NA,NA,78.13504823151125,NA
37660,Sullivan County,TN,NA,NA,9.32475884244373,NA
37664,Sullivan County,TN,NA,NA,22.829581993569132,NA
37743,Greene County,TN,NA,NA,77.06323687031083,NA
37754,Anderson County,TN,NA,NA,93.78349410503752,NA
37801,Blount County,TN,21.29032258064516,NA,17.14898177920686,NA
37840,Roane County,TN,NA,NA,78.45659163987139,NA
37849,Knox County,TN,NA,43.21608040201005,NA,NA
37854,Roane County,TN,NA,NA,NA,59.62145110410094
37870,Claiborne County,TN,NA,NA,95.60557341907824,NA
37877,Hamblen County,TN,72.90322580645162,NA,NA,NA
37923,Knox County,TN,30.53763440860215,NA,NA,NA
37934,Knox County,TN,73.54838709677419,NA,NA,NA
38024,Dyer County,TN,NA,NA,62.59378349410504,NA
38057,Fayette County,TN,NA,NA,99.14255091103966,NA
38068,Fayette County,TN,NA,NA,85.31618435155413,NA
38109,Shelby County,TN,NA,NA,12.540192926045016,NA
38114,Shelby County,TN,54.623655913978496,NA,NA,NA
38118,Shelby County,TN,NA,NA,19.614147909967848,NA
38127,Shelby County,TN,NA,NA,10.07502679528403,NA
38134,Shelby County,TN,NA,NA,NA,82.33438485804416
38141,Shelby County,TN,NA,NA,50.58949624866024,91.7981072555205
38230,Weakley County,TN,NA,NA,98.60664523043944,NA
75001,Dallas County,TX,97.63440860215053,NA,NA,NA
75002,Collin County,TX,NA,NA,24.008574490889604,NA
75006,Dallas County,TX,NA,NA,49.51768488745981,NA
75010,Denton County,TX,NA,NA,71.59699892818864,NA
75025,Collin County,TX,NA,NA,91.10396570203643,NA
75044,Dallas County,TX,33.97849462365591,NA,58.949624866023576,29.652996845425868
75074,Collin County,TX,NA,66.83417085427136,58.41371918542336,NA
75081,Dallas County,TX,NA,NA,74.49088960342979,NA
75087,Rockwall County,TX,NA,NA,44.90889603429796,NA
75088,Dallas County,TX,NA,NA,NA,44.79495268138801
75093,Collin County,TX,28.817204301075268,NA,NA,NA
75104,Dallas County,TX,54.19354838709678,NA,NA,NA
75159,Dallas County,TX,73.76344086021506,NA,NA,NA
75161,Kaufman County,TX,NA,93.96984924623115,NA,NA
75169,Van Zandt County,TX,90.10752688172043,NA,NA,NA
75189,Rockwall County,TX,47.52688172043011,NA,NA,NA
75206,Dallas County,TX,NA,NA,55.09110396570204,NA
75211,Dallas County,TX,10.53763440860215,NA,NA,NA
75216,Dallas County,TX,NA,NA,7.931404072883172,NA
75225,Dallas County,TX,76.98924731182795,NA,NA,NA
75232,Dallas County,TX,NA,NA,NA,41.00946372239748
75241,Dallas County,TX,26.666666666666668,NA,NA,NA
75254,Dallas County,TX,51.82795698924731,NA,NA,NA
75604,Gregg County,TX,NA,49.74874371859296,NA,NA
75662,Gregg County,TX,28.387096774193548,NA,NA,NA
75672,Harrison County,TX,68.60215053763442,NA,NA,NA
75683,Upshur County,TX,99.13978494623656,NA,NA,NA
75831,Leon County,TX,NA,NA,98.82100750267952,NA
75965,Nacogdoches County,TX,76.55913978494624,NA,NA,NA
76006,Tarrant County,TX,NA,NA,74.06216505894963,NA
76014,Tarrant County,TX,NA,NA,NA,45.110410094637224
76018,Tarrant County,TX,NA,NA,NA,58.99053627760252
76028,Johnson County,TX,40.64516129032258,NA,12.754555198285104,NA
76048,Hood County,TX,36.774193548387096,NA,NA,NA
76082,Parker County,TX,NA,NA,84.78027867095392,NA
76092,Tarrant County,TX,NA,NA,70.41800643086816,NA
76102,Tarrant County,TX,91.18279569892474,NA,NA,NA
76112,Tarrant County,TX,NA,NA,15.64844587352626,NA
76116,Tarrant County,TX,NA,NA,26.04501607717042,NA
76131,Tarrant County,TX,NA,NA,54.87674169346195,NA
76133,Tarrant County,TX,NA,NA,NA,23.02839116719243
76137,Tarrant County,TX,NA,NA,21.972132904608788,21.13564668769716
76227,Denton County,TX,NA,NA,71.16827438370846,NA
76244,Tarrant County,TX,NA,NA,28.617363344051448,NA
76248,Tarrant County,TX,62.365591397849464,NA,NA,NA
76262,Denton County,TX,NA,NA,49.08896034297964,NA
76301,Wichita County,TX,NA,NA,49.94640943193998,NA
76310,Wichita County,TX,NA,NA,NA,75.39432176656152
76504,Bell County,TX,9.247311827956988,NA,NA,NA
76513,Bell County,TX,7.956989247311828,NA,NA,NA
76542,Bell County,TX,18.27956989247312,NA,NA,NA
76567,Milam County,TX,NA,NA,87.13826366559485,NA
76571,Bell County,TX,NA,NA,92.49732047159699,NA
76705,McLennan County,TX,NA,NA,NA,40.063091482649845
76707,McLennan County,TX,11.397849462365592,NA,NA,NA
77016,Harris County,TX,64.73118279569893,NA,NA,NA
77021,Harris County,TX,NA,NA,NA,37.85488958990536
77024,Harris County,TX,NA,NA,67.20257234726688,NA
77025,Harris County,TX,NA,NA,NA,66.24605678233438
77045,Harris County,TX,39.35483870967742,NA,NA,NA
77048,Harris County,TX,76.12903225806451,NA,NA,NA
77067,Harris County,TX,43.655913978494624,NA,NA,NA
77070,Harris County,TX,NA,NA,49.732047159699896,NA
77077,Harris County,TX,NA,69.34673366834171,47.80278670953912,NA
77083,Harris County,TX,21.50537634408602,NA,NA,NA
77084,Harris County,TX,13.118279569892474,NA,NA,NA
77087,Harris County,TX,NA,NA,NA,82.01892744479495
77089,Harris County,TX,NA,NA,NA,34.38485804416404
77098,Harris County,TX,NA,NA,90.35369774919614,NA
77303,Montgomery County,TX,NA,NA,NA,79.49526813880126
77316,Montgomery County,TX,NA,NA,79.42122186495176,NA
77336,Harris County,TX,NA,NA,90.88960342979635,NA
77338,Harris County,TX,41.50537634408602,NA,NA,NA
77339,Harris County,TX,NA,NA,62.37942122186495,NA
77356,Montgomery County,TX,76.77419354838709,NA,NA,NA
77357,Montgomery County,TX,52.903225806451616,NA,67.63129689174706,NA
77362,Montgomery County,TX,NA,NA,94.7481243301179,NA
77379,Harris County,TX,12.258064516129032,NA,NA,NA
77386,Montgomery County,TX,30.107526881720432,NA,NA,48.89589905362776
77389,Harris County,TX,53.333333333333336,NA,NA,NA
77396,Harris County,TX,32.043010752688176,NA,NA,NA
77406,Fort Bend County,TX,NA,NA,NA,30.5993690851735
77418,Austin County,TX,NA,NA,NA,72.2397476340694
77429,Harris County,TX,10.967741935483872,NA,NA,NA
77433,Harris County,TX,NA,32.1608040201005,NA,NA
77459,Fort Bend County,TX,20,NA,NA,NA
77469,Fort Bend County,TX,23.440860215053764,NA,NA,NA
77489,Fort Bend County,TX,NA,NA,33.440514469453376,NA
77505,Harris County,TX,NA,NA,70.52518756698821,NA
77511,Brazoria County,TX,NA,NA,17.470525187566988,NA
77523,Chambers County,TX,NA,NA,62.80814576634513,NA
77539,Galveston County,TX,NA,NA,21.757770632368704,NA
77541,Brazoria County,TX,38.70967741935484,NA,NA,NA
77545,Fort Bend County,TX,41.075268817204304,80.40201005025126,NA,NA
77551,Galveston County,TX,NA,NA,29.903536977491964,27.444794952681388
77619,Jefferson County,TX,72.04301075268818,NA,NA,NA
77705,Jefferson County,TX,41.50537634408602,NA,NA,NA
77706,Jefferson County,TX,NA,NA,51.87566988210075,NA
77802,Brazos County,TX,50.752688172043015,NA,NA,NA
77836,Burleson County,TX,NA,NA,71.81136120042872,NA
77845,Brazos County,TX,9.67741935483871,NA,11.039657020364416,NA
77901,Victoria County,TX,15.053763440860216,NA,NA,NA
77964,Lavaca County,TX,NA,NA,NA,70.03154574132492
78046,Webb County,TX,NA,4.0201005025125625,17.577706323687032,NA
78130,Comal County,TX,NA,NA,25.187566988210076,NA
78154,Guadalupe County,TX,NA,NA,NA,73.50157728706624
78204,Bexar County,TX,68.38709677419355,NA,NA,NA
78217,Bexar County,TX,NA,NA,72.88317256162915,NA
78218,Bexar County,TX,NA,NA,NA,51.73501577287066
78221,Bexar County,TX,59.56989247311828,NA,NA,NA
78223,Bexar County,TX,NA,NA,56.27009646302251,NA
78232,Bexar County,TX,72.90322580645162,NA,NA,NA
78237,Bexar County,TX,NA,NA,68.06002143622723,NA
78242,Bexar County,TX,56.774193548387096,NA,NA,67.82334384858044
78245,Bexar County,TX,NA,20.100502512562816,NA,NA
78251,Bexar County,TX,NA,NA,60.342979635584136,NA
78254,Bexar County,TX,20.86021505376344,NA,NA,NA
78258,Bexar County,TX,NA,NA,70.95391211146838,NA
78261,Bexar County,TX,67.0967741935484,NA,NA,NA
78336,San Patricio County,TX,NA,91.95979899497488,NA,NA
78363,Kleberg County,TX,NA,NA,63.344051446945336,NA
78503,Hidalgo County,TX,82.36559139784946,NA,NA,NA
78504,Hidalgo County,TX,NA,NA,42.01500535905681,NA
78537,Hidalgo County,TX,25.591397849462368,NA,NA,NA
78559,Cameron County,TX,NA,NA,92.17577706323688,NA
78570,Hidalgo County,TX,22.1505376344086,NA,NA,NA
78573,Hidalgo County,TX,NA,16.582914572864322,59.27116827438371,NA
78578,Cameron County,TX,NA,NA,95.71275455519829,NA
78586,Cameron County,TX,NA,52.76381909547738,NA,NA
78660,Travis County,TX,19.78494623655914,NA,30.22508038585209,NA
78666,Hays County,TX,NA,NA,NA,36.90851735015773
78704,Travis County,TX,NA,74.87437185929649,73.31189710610933,NA
78758,Travis County,TX,49.24731182795699,NA,NA,NA
78840,Val Verde County,TX,17.634408602150536,NA,NA,NA
78852,Maverick County,TX,NA,NA,84.35155412647374,NA
78942,Lee County,TX,NA,93.96984924623115,NA,NA
79403,Lubbock County,TX,NA,NA,55.73419078242229,NA
79404,Lubbock County,TX,NA,NA,NA,90.53627760252367
79423,Lubbock County,TX,NA,NA,32.36870310825295,NA
79602,Taylor County,TX,46.236559139784944,NA,NA,NA
79701,Midland County,TX,34.83870967741935,NA,NA,NA
79756,Ward County,TX,NA,NA,77.59914255091104,NA
79763,Ector County,TX,12.688172043010754,NA,NA,NA
79764,Ector County,TX,29.462365591397848,NA,60.664523043944264,68.45425867507886
79772,Reeves County,TX,59.354838709677416,NA,NA,NA
79924,El Paso County,TX,NA,19.597989949748744,NA,NA
79930,El Paso County,TX,50.967741935483865,NA,NA,NA
79936,El Paso County,TX,NA,NA,14.362272240085744,NA
84010,Davis County,UT,NA,NA,44.265809217577704,NA
84014,Davis County,UT,NA,NA,NA,78.54889589905363
84032,Wasatch County,UT,63.01075268817205,NA,NA,NA
84043,Utah County,UT,NA,NA,48.01714898177921,NA
84044,Salt Lake County,UT,NA,NA,78.77813504823152,NA
84065,Salt Lake County,UT,44.73118279569893,NA,NA,NA
84075,Davis County,UT,NA,NA,NA,84.22712933753942
84078,Uintah County,UT,5.376344086021505,NA,NA,NA
84084,Salt Lake County,UT,NA,NA,NA,71.92429022082018
84087,Davis County,UT,NA,NA,88.63879957127546,NA
84094,Salt Lake County,UT,NA,NA,NA,46.68769716088328
84096,Salt Lake County,UT,NA,NA,NA,58.67507886435332
84123,Salt Lake County,UT,NA,NA,23.579849946409432,NA
84404,Weber County,UT,NA,NA,22.615219721329048,NA
84501,Carbon County,UT,52.25806451612903,NA,NA,NA
84532,Grand County,UT,NA,NA,96.89174705251877,NA
84790,Washington County,UT,59.13978494623656,NA,NA,NA
05156,Windsor County,VT,NA,NA,70.20364415862808,NA
05461,Chittenden County,VT,NA,NA,NA,98.73817034700315
05855,Orleans County,VT,NA,NA,NA,76.65615141955836
20111,Prince William County,VA,NA,NA,58.19935691318327,70.347003154574125
20136,Prince William County,VA,67.52688172043011,NA,73.7406216505895,NA
20147,Loudoun County,VA,NA,NA,40.30010718113612,NA
20190,Fairfax County,VA,NA,NA,86.70953912111469,NA
22033,Fairfax County,VA,67.52688172043011,NA,NA,NA
22042,Fairfax County,VA,43.44086021505376,NA,56.37727759914255,NA
22046,Falls Church city,VA,NA,NA,98.07073954983923,NA
22205,Arlington County,VA,74.6236559139785,NA,NA,NA
22301,Alexandria city,VA,81.0752688172043,NA,NA,NA
22306,Fairfax County,VA,90.96774193548387,NA,32.475884244372985,NA
22309,Fairfax County,VA,NA,NA,30.332261521972132,NA
22312,Fairfax County,VA,NA,NA,47.80278670953912,NA
22314,Alexandria city,VA,NA,NA,34.08360128617363,NA
22401,Fredericksburg city,VA,63.655913978494624,NA,NA,NA
22405,Stafford County,VA,60,NA,NA,NA
22546,Caroline County,VA,NA,NA,77.27759914255091,NA
22827,Rockingham County,VA,NA,NA,NA,64.35331230283911
22844,Shenandoah County,VA,96.55913978494624,NA,NA,NA
22902,Charlottesville city,VA,NA,NA,27.116827438370844,NA
22960,Orange County,VA,NA,NA,70.7395498392283,NA
22980,Waynesboro city,VA,8.817204301075268,NA,NA,NA
23185,James City County,VA,NA,NA,73.95498392282958,NA
23225,Richmond city,VA,NA,NA,NA,21.451104100946374
23228,Henrico County,VA,NA,28.643216080402013,NA,NA
23233,Henrico County,VA,NA,NA,NA,70.97791798107255
23235,Chesterfield County,VA,NA,NA,58.842443729903536,NA
23320,Chesapeake city,VA,27.09677419354839,NA,NA,NA
23462,Virginia Beach city,VA,16.559139784946236,NA,NA,NA
23464,Virginia Beach city,VA,NA,NA,NA,2.5236593059936907
23602,Newport News city,VA,NA,NA,67.30975348338693,NA
23607,Newport News city,VA,NA,NA,21.114683815648448,NA
23608,Newport News city,VA,NA,NA,20.471596998928188,NA
24012,Roanoke city,VA,NA,NA,32.154340836012864,NA
24018,Roanoke County,VA,65.3763440860215,NA,NA,NA
24112,Henry County,VA,NA,37.68844221105528,NA,NA
24148,Henry County,VA,NA,89.44723618090453,NA,NA
24293,Wise County,VA,NA,NA,54.340836012861736,NA
24333,Galax city,VA,NA,50.753768844221106,NA,NA
24381,Carroll County,VA,NA,NA,NA,93.05993690851734
24630,Tazewell County,VA,95.26881720430107,NA,NA,NA
98004,King County,WA,NA,NA,NA,63.722397476340696
98012,Snohomish County,WA,10.75268817204301,NA,NA,NA
98021,Snohomish County,WA,NA,NA,60.557341907824224,NA
98042,King County,WA,18.70967741935484,NA,NA,9.779179810725552
98043,Snohomish County,WA,82.15053763440861,NA,NA,NA
98055,King County,WA,NA,NA,NA,64.03785488958991
98058,King County,WA,NA,NA,35.048231511254016,NA
98059,King County,WA,NA,NA,49.30332261521972,NA
98065,King County,WA,84.3010752688172,NA,NA,NA
98115,King County,WA,38.064516129032256,NA,NA,NA
98168,King County,WA,NA,NA,NA,31.230283911671926
98178,King County,WA,NA,NA,60.12861736334405,NA
98201,Snohomish County,WA,NA,NA,52.19721329046087,NA
98230,Whatcom County,WA,NA,NA,NA,65.29968454258676
98257,Skagit County,WA,NA,NA,98.39228295819936,NA
98258,Snohomish County,WA,NA,NA,25.830653804930332,NA
98277,Island County,WA,NA,NA,50.482315112540185,NA
98290,Snohomish County,WA,NA,NA,45.337620578778136,NA
98354,Pierce County,WA,NA,NA,91.63987138263666,NA
98367,Kitsap County,WA,NA,NA,53.483386923901385,NA
98372,Pierce County,WA,NA,NA,NA,56.46687697160884
98374,Pierce County,WA,NA,NA,46.30225080385852,NA
98387,Pierce County,WA,19.56989247311828,NA,NA,NA
98391,Pierce County,WA,35.26881720430107,NA,NA,NA
98404,Pierce County,WA,NA,NA,36.441586280814576,NA
98498,Pierce County,WA,NA,NA,61.20042872454447,NA
98503,Thurston County,WA,NA,NA,90.03215434083602,NA
98531,Lewis County,WA,NA,NA,78.2422293676313,NA
98541,Grays Harbor County,WA,NA,NA,81.56484458735262,NA
98563,Grays Harbor County,WA,NA,NA,92.28295819935691,NA
98597,Thurston County,WA,NA,NA,94.10503751339763,NA
98612,Wahkiakum County,WA,NA,NA,NA,92.74447949526814
98682,Clark County,WA,NA,NA,64.30868167202573,NA
98684,Clark County,WA,NA,70.85427135678391,NA,NA
98685,Clark County,WA,NA,NA,NA,66.8769716088328
98848,Grant County,WA,NA,NA,91.42550911039658,NA
99114,Stevens County,WA,NA,NA,NA,68.76971608832808
99163,Whitman County,WA,NA,NA,78.88531618435155,NA
99336,Benton County,WA,NA,NA,13.826366559485532,NA
99337,Benton County,WA,23.870967741935484,NA,29.689174705251876,5.993690851735016
99350,Benton County,WA,NA,NA,87.9957127545552,NA
99352,Benton County,WA,29.677419354838708,NA,NA,NA
99362,Walla Walla County,WA,NA,51.256281407035175,NA,NA
20002,District of Columbia,DC,NA,NA,27.974276527331188,NA
20010,District of Columbia,DC,NA,NA,83.60128617363344,NA
20016,District of Columbia,DC,NA,NA,77.70632368703109,NA
20019,District of Columbia,DC,8.60215053763441,NA,NA,NA
20020,District of Columbia,DC,NA,NA,16.39871382636656,NA
20024,District of Columbia,DC,NA,NA,63.12968917470525,NA
25213,Putnam County,WV,94.40860215053763,NA,NA,NA
25560,Putnam County,WV,NA,NA,NA,68.13880126182966
26206,Webster County,WV,NA,NA,NA,97.79179810725552
26354,Taylor County,WV,NA,NA,53.80493033226153,NA
26554,Marion County,WV,12.903225806451612,NA,NA,NA
53024,Ozaukee County,WI,58.06451612903226,NA,NA,NA
53027,Washington County,WI,NA,NA,NA,45.42586750788644
53081,Sheboygan County,WI,NA,NA,NA,25.55205047318612
53090,Washington County,WI,NA,71.85929648241206,NA,NA
53143,Kenosha County,WI,NA,NA,19.39978563772776,NA
53147,Walworth County,WI,NA,NA,NA,38.48580441640379
53151,Waukesha County,WI,NA,NA,42.55091103965702,20.189274447949526
53154,Milwaukee County,WI,NA,NA,NA,9.14826498422713
53172,Milwaukee County,WI,NA,NA,39.442658092175776,NA
53185,Racine County,WI,NA,NA,NA,52.36593059936908
53189,Waukesha County,WI,NA,NA,61.521972132904615,NA
53207,Milwaukee County,WI,NA,NA,29.581993569131832,NA
53209,Milwaukee County,WI,2.795698924731183,NA,NA,NA
53215,Milwaukee County,WI,NA,NA,24.758842443729904,NA
53216,Milwaukee County,WI,5.161290322580645,NA,NA,NA
53221,Milwaukee County,WI,NA,NA,20.90032154340836,NA
53223,Milwaukee County,WI,NA,NA,NA,8.201892744479496
53228,Milwaukee County,WI,68.17204301075269,NA,NA,NA
53405,Racine County,WI,NA,NA,7.502679528403002,NA
53511,Rock County,WI,0.6451612903225806,NA,NA,NA
53548,Rock County,WI,NA,NA,28.403001071811364,NA
53719,Dane County,WI,NA,NA,61.20042872454447,NA
54017,St. Croix County,WI,NA,NA,55.841371918542336,NA
54020,Polk County,WI,NA,NA,80.49303322615219,NA
54143,Marinette County,WI,47.74193548387097,NA,NA,NA
54302,Brown County,WI,NA,NA,29.153269024651664,NA
54304,Brown County,WI,NA,NA,24.115755627009648,NA
54487,Lincoln County,WI,NA,NA,NA,42.27129337539432
54747,Trempealeau County,WI,100,NA,NA,NA
54751,Dunn County,WI,26.021505376344084,NA,NA,NA
54848,Rusk County,WI,NA,NA,87.78135048231512,NA
54929,Waupaca County,WI,NA,92.96482412060301,NA,NA
82801,Sheridan County,WY,NA,NA,74.91961414790997,NA
