ZipCode,county,state,Adult,Retirement,Geriatric
35010,Tallapoosa County,AL,NA,35.32608695652174,29.111531190926275
35020,Jefferson County,AL,NA,32.608695652173914,NA
35058,Cullman County,AL,NA,78.80434782608695,NA
35064,Jefferson County,AL,63.06122448979592,NA,NA
35079,Blount County,AL,NA,81.65760869565217,NA
35124,Shelby County,AL,66.3265306122449,NA,NA
35210,Jefferson County,AL,NA,69.70108695652173,NA
35222,Jefferson County,AL,92.24489795918367,NA,NA
35228,Jefferson County,AL,NA,83.28804347826086,NA
35453,Tuscaloosa County,AL,56.12244897959183,NA,NA
35563,Marion County,AL,NA,88.58695652173914,NA
35611,Limestone County,AL,26.73469387755102,NA,NA
35674,Colbert County,AL,NA,51.49456521739131,NA
35816,Madison County,AL,72.24489795918367,NA,NA
35905,Etowah County,AL,99.18367346938776,NA,NA
36067,Autauga County,AL,NA,80.57065217391305,NA
36108,Montgomery County,AL,NA,70.92391304347827,NA
36117,Montgomery County,AL,NA,39.94565217391305,NA
36201,Calhoun County,AL,29.591836734693878,NA,NA
36301,Houston County,AL,19.79591836734694,NA,NA
36467,Covington County,AL,NA,74.04891304347827,NA
36527,Baldwin County,AL,NA,86.00543478260869,NA
36541,Mobile County,AL,NA,83.15217391304348,NA
36701,Dallas County,AL,NA,32.744565217391305,53.119092627599244
36703,Dallas County,AL,NA,NA,79.20604914933837
36870,Lee County,AL,NA,NA,74.29111531190927
36877,Lee County,AL,82.24489795918367,NA,NA
99503,Anchorage Municipality,AK,NA,77.44565217391305,NA
99603,Kenai Peninsula Borough,AK,NA,59.2391304347826,NA
99701,Fairbanks North Star Borough,AK,36.93877551020408,NA,83.7429111531191
99801,Juneau City and Borough,AK,50.61224489795918,NA,NA
85008,Maricopa County,AZ,14.69387755102041,NA,NA
85022,Maricopa County,AZ,NA,30.706521739130434,NA
85029,Maricopa County,AZ,24.285714285714285,NA,NA
85037,Maricopa County,AZ,NA,65.625,NA
85122,Pinal County,AZ,NA,68.34239130434783,NA
85131,Pinal County,AZ,NA,75.95108695652173,NA
85206,Maricopa County,AZ,NA,NA,10.207939508506616
85212,Maricopa County,AZ,NA,66.84782608695652,NA
85248,Maricopa County,AZ,58.97959183673469,NA,4.914933837429111
85260,Maricopa County,AZ,NA,41.57608695652174,NA
85268,Maricopa County,AZ,NA,NA,71.83364839319471
85282,Maricopa County,AZ,NA,NA,70.51039697542532
85616,Cochise County,AZ,NA,NA,95.46313799621929
85711,Pima County,AZ,NA,NA,99.24385633270322
85712,Pima County,AZ,55.51020408163265,48.369565217391305,NA
85730,Pima County,AZ,NA,29.21195652173913,NA
85745,Pima County,AZ,NA,19.429347826086957,NA
85901,Navajo County,AZ,NA,30.570652173913043,NA
86047,Navajo County,AZ,NA,71.60326086956522,NA
86314,Yavapai County,AZ,16.53061224489796,NA,NA
86326,Yavapai County,AZ,NA,24.592391304347828,NA
86409,Mohave County,AZ,10.408163265306122,NA,NA
71603,Jefferson County,AR,68.77551020408164,NA,NA
71913,Garland County,AR,NA,NA,11.531190926275993
71923,Clark County,AR,NA,68.07065217391305,NA
71968,Garland County,AR,NA,NA,99.05482041587902
72104,Hot Spring County,AR,84.89795918367346,62.5,NA
72112,Jackson County,AR,NA,92.3913043478261,NA
72143,White County,AR,NA,NA,5.293005671077505
72315,Mississippi County,AR,54.285714285714285,NA,NA
72404,Craighead County,AR,51.22448979591837,NA,NA
72422,Clay County,AR,93.06122448979592,NA,NA
72715,Benton County,AR,NA,NA,20.03780718336484
72904,Sebastian County,AR,93.46938775510203,67.25543478260869,NA
90006,Los Angeles County,CA,NA,62.09239130434783,NA
90018,Los Angeles County,CA,40,33.15217391304348,NA
90027,Los Angeles County,CA,NA,59.91847826086957,NA
90031,Los Angeles County,CA,71.63265306122449,NA,NA
90035,Los Angeles County,CA,NA,73.77717391304348,NA
90038,Los Angeles County,CA,NA,75.27173913043478,NA
90044,Los Angeles County,CA,NA,NA,35.34971644612476
90045,Los Angeles County,CA,NA,NA,42.53308128544423
90046,Los Angeles County,CA,53.265306122448976,NA,NA
90047,Los Angeles County,CA,NA,12.635869565217392,NA
90063,Los Angeles County,CA,NA,47.01086956521739,NA
90064,Los Angeles County,CA,63.6734693877551,NA,NA
90066,Los Angeles County,CA,NA,NA,27.599243856332706
90210,Los Angeles County,CA,98.57142857142858,NA,NA
90265,Los Angeles County,CA,NA,NA,77.31568998109641
90266,Los Angeles County,CA,64.6938775510204,NA,NA
90501,Los Angeles County,CA,NA,60.32608695652174,NA
90503,Los Angeles County,CA,NA,45.108695652173914,NA
90631,Orange County,CA,NA,NA,21.361058601134218
90680,Orange County,CA,60.61224489795919,NA,NA
90712,Los Angeles County,CA,NA,NA,81.85255198487712
90715,Los Angeles County,CA,NA,93.20652173913044,NA
90732,Los Angeles County,CA,NA,67.66304347826086,NA
90807,Los Angeles County,CA,53.06122448979592,NA,NA
91007,Los Angeles County,CA,NA,NA,47.25897920604915
91011,Los Angeles County,CA,NA,84.23913043478261,NA
91042,Los Angeles County,CA,NA,55.027173913043484,NA
91107,Los Angeles County,CA,NA,NA,40.07561436672968
91206,Los Angeles County,CA,NA,NA,64.27221172022685
91316,Los Angeles County,CA,NA,NA,24.574669187145556
91320,Ventura County,CA,66.93877551020408,NA,NA
91331,Los Angeles County,CA,NA,19.972826086956523,NA
91340,Los Angeles County,CA,NA,87.22826086956522,NA
91402,Los Angeles County,CA,NA,NA,28.92249527410208
91405,Los Angeles County,CA,NA,NA,48.20415879017013
91505,Los Angeles County,CA,NA,80.84239130434783,NA
91701,San Bernardino County,CA,27.755102040816325,NA,51.03969754253308
91706,Los Angeles County,CA,28.367346938775512,NA,NA
91731,Los Angeles County,CA,NA,62.22826086956522,NA
91740,Los Angeles County,CA,65.71428571428571,NA,NA
91744,Los Angeles County,CA,NA,NA,56.14366729678639
91762,San Bernardino County,CA,NA,NA,52.36294896030246
91765,Los Angeles County,CA,NA,95.38043478260869,NA
91786,San Bernardino County,CA,NA,35.733695652173914,NA
91791,Los Angeles County,CA,NA,52.71739130434783,NA
91911,San Diego County,CA,NA,NA,8.128544423440454
92009,San Diego County,CA,NA,44.70108695652174,NA
92057,San Diego County,CA,NA,61.82065217391305,NA
92103,San Diego County,CA,NA,51.766304347826086,NA
92105,San Diego County,CA,NA,NA,54.06427221172023
92115,San Diego County,CA,33.87755102040816,44.97282608695652,NA
92130,San Diego County,CA,NA,62.77173913043478,NA
92154,San Diego County,CA,NA,NA,13.23251417769376
92173,San Diego County,CA,NA,77.58152173913044,NA
92211,Riverside County,CA,NA,9.239130434782608,NA
92220,Riverside County,CA,NA,NA,26.27599243856333
92234,Riverside County,CA,NA,1.2228260869565217,NA
92241,Riverside County,CA,NA,83.69565217391305,NA
92253,Riverside County,CA,NA,NA,9.262759924385634
92260,Riverside County,CA,NA,13.179347826086957,11.153119092627598
92270,Riverside County,CA,NA,NA,19.659735349716446
92311,San Bernardino County,CA,NA,56.3858695652174,NA
92354,San Bernardino County,CA,NA,72.96195652173914,NA
92407,San Bernardino County,CA,NA,NA,69.18714555765595
92505,Riverside County,CA,NA,54.891304347826086,NA
92507,Riverside County,CA,44.285714285714285,NA,NA
92530,Riverside County,CA,69.79591836734694,NA,NA
92544,Riverside County,CA,50.204081632653065,NA,NA
92585,Riverside County,CA,NA,87.77173913043478,NA
92586,Riverside County,CA,NA,NA,23.81852551984877
92630,Orange County,CA,NA,19.021739130434785,NA
92647,Orange County,CA,NA,22.82608695652174,NA
92651,Orange County,CA,NA,NA,32.32514177693761
92653,Orange County,CA,NA,55.84239130434783,NA
92683,Orange County,CA,NA,21.059782608695652,NA
92708,Orange County,CA,38.57142857142858,NA,NA
92805,Orange County,CA,NA,NA,72.5897920604915
92807,Orange County,CA,58.57142857142858,NA,NA
92808,Orange County,CA,NA,94.97282608695652,NA
92821,Orange County,CA,NA,NA,29.867674858223065
92832,Orange County,CA,NA,NA,92.43856332703214
92835,Orange County,CA,NA,88.8586956521739,20.604914933837428
92840,Orange County,CA,NA,NA,24.007561436672965
92868,Orange County,CA,NA,82.06521739130434,NA
93003,Ventura County,CA,NA,NA,13.799621928166353
93004,Ventura County,CA,NA,53.39673913043478,NA
93013,Santa Barbara County,CA,NA,NA,98.67674858223062
93036,Ventura County,CA,NA,54.07608695652174,NA
93065,Ventura County,CA,NA,21.603260869565215,NA
93230,Kings County,CA,NA,NA,23.629489603024574
93240,Kern County,CA,93.26530612244898,NA,NA
93247,Tulare County,CA,NA,88.72282608695652,NA
93268,Kern County,CA,NA,NA,96.03024574669186
93304,Kern County,CA,25.71428571428571,NA,NA
93305,Kern County,CA,NA,60.597826086956516,NA
93306,Kern County,CA,NA,40.48913043478261,NA
93307,Kern County,CA,NA,NA,81.28544423440454
93312,Kern County,CA,NA,46.46739130434783,NA
93436,Santa Barbara County,CA,NA,16.304347826086957,NA
93444,San Luis Obispo County,CA,62.04081632653061,NA,NA
93560,Kern County,CA,80.40816326530611,NA,NA
93711,Fresno County,CA,69.59183673469389,NA,NA
93720,Fresno County,CA,NA,28.532608695652172,47.82608695652174
93905,Monterey County,CA,NA,NA,73.91304347826086
93930,Monterey County,CA,NA,91.03260869565217,NA
94112,San Francisco County,CA,25.918367346938776,NA,NA
94114,San Francisco County,CA,NA,56.79347826086957,NA
94116,San Francisco County,CA,NA,39.266304347826086,NA
94124,San Francisco County,CA,26.3265306122449,NA,NA
94551,Alameda County,CA,50.40816326530613,56.65760869565217,NA
94558,Napa County,CA,33.06122448979592,NA,NA
94588,Alameda County,CA,NA,NA,61.05860113421549
94612,Alameda County,CA,78.36734693877551,NA,NA
94945,Marin County,CA,NA,NA,63.51606805293005
94952,Sonoma County,CA,79.18367346938776,NA,NA
95003,Santa Cruz County,CA,NA,76.63043478260869,NA
95023,San Benito County,CA,NA,36.82065217391305,NA
95066,Santa Cruz County,CA,NA,NA,89.03591682419659
95076,Santa Cruz County,CA,NA,18.206521739130434,70.32136105860114
95110,Santa Clara County,CA,NA,NA,95.27410207939508
95117,Santa Clara County,CA,NA,NA,68.62003780718337
95122,Santa Clara County,CA,NA,52.17391304347826,NA
95125,Santa Clara County,CA,NA,23.369565217391305,NA
95206,San Joaquin County,CA,NA,29.483695652173914,51.417769376181475
95327,Tuolumne County,CA,NA,61.141304347826086,NA
95350,Stanislaus County,CA,18.571428571428573,NA,NA
95368,Stanislaus County,CA,83.46938775510205,NA,NA
95370,Tuolumne County,CA,NA,26.6304347826087,NA
95380,Stanislaus County,CA,30.20408163265306,NA,NA
95437,Mendocino County,CA,NA,NA,30.056710775047257
95448,Sonoma County,CA,NA,48.09782608695652,NA
95482,Mendocino County,CA,39.183673469387756,NA,NA
95519,Humboldt County,CA,NA,NA,95.08506616257088
95816,Sacramento County,CA,NA,NA,78.26086956521739
95825,Sacramento County,CA,NA,NA,39.31947069943289
95901,Yuba County,CA,25.102040816326532,NA,NA
95954,Butte County,CA,NA,37.90760869565217,NA
95959,Nevada County,CA,NA,53.125,NA
95963,Glenn County,CA,74.28571428571429,NA,NA
95966,Butte County,CA,NA,8.559782608695652,26.27599243856333
95969,Butte County,CA,NA,NA,2.4574669187145557
96021,Tehama County,CA,NA,93.07065217391305,NA
80002,Jefferson County,CO,86.53061224489797,NA,80.52930056710775
80120,Arapahoe County,CO,NA,52.9891304347826,NA
80211,Denver County,CO,NA,50.67934782608695,NA
80215,Jefferson County,CO,NA,82.33695652173914,NA
80224,Denver County,CO,NA,NA,55.765595463138
80237,Denver County,CO,75.91836734693878,NA,NA
80465,Jefferson County,CO,87.95918367346938,NA,NA
80516,Weld County,CO,NA,64.94565217391305,NA
80528,Larimer County,CO,NA,74.32065217391305,NA
80537,Larimer County,CO,22.448979591836736,NA,NA
80550,Weld County,CO,NA,NA,49.7164461247637
80642,Weld County,CO,NA,99.04891304347827,NA
80910,El Paso County,CO,NA,59.64673913043478,NA
80918,El Paso County,CO,NA,38.17934782608695,NA
81003,Pueblo County,CO,NA,83.55978260869566,NA
81005,Pueblo County,CO,39.59183673469388,25.13586956521739,36.672967863894144
81052,Prowers County,CO,NA,NA,99.8109640831758
81101,Alamosa County,CO,NA,57.20108695652174,NA
81137,San Juan County,CO,NA,NA,98.86578449905483
81301,La Plata County,CO,NA,43.34239130434783,NA
06040,Hartford County,CT,NA,NA,24.763705103969755
06053,Hartford County,CT,NA,28.26086956521739,NA
06082,Hartford County,CT,NA,13.994565217391305,NA
06117,Hartford County,CT,73.06122448979592,NA,NA
06226,Windham County,CT,NA,47.55434782608695,NA
06238,Tolland County,CT,NA,NA,82.41965973534971
06255,Windham County,CT,NA,92.52717391304348,NA
06405,New Haven County,CT,NA,NA,9.45179584120983
06410,New Haven County,CT,NA,44.15760869565217,NA
06418,New Haven County,CT,NA,70.65217391304348,NA
06450,New Haven County,CT,NA,NA,25.51984877126654
06477,New Haven County,CT,NA,NA,71.64461247637051
06488,New Haven County,CT,NA,NA,43.667296786389414
06489,Hartford County,CT,NA,18.070652173913043,NA
06514,New Haven County,CT,36.734693877551024,NA,NA
06610,Fairfield County,CT,NA,NA,55.19848771266541
06716,New Haven County,CT,NA,66.03260869565217,NA
06770,New Haven County,CT,NA,NA,24.95274102079395
06790,Litchfield County,CT,6.73469387755102,NA,NA
19709,New Castle County,DE,NA,21.467391304347828,NA
19805,New Castle County,DE,NA,9.103260869565217,NA
19904,Kent County,DE,NA,16.168478260869566,NA
19939,Sussex County,DE,NA,NA,84.31001890359168
19966,Sussex County,DE,NA,8.28804347826087,NA
32112,Putnam County,FL,96.12244897959184,NA,NA
32119,Volusia County,FL,77.3469387755102,55.97826086956522,NA
32127,Volusia County,FL,NA,40.76086956521739,26.84310018903592
32128,Volusia County,FL,NA,NA,42.722117202268436
32137,Flagler County,FL,NA,6.521739130434782,NA
32207,Duval County,FL,18.367346938775512,NA,NA
32208,Duval County,FL,1.4285714285714286,NA,NA
32223,Duval County,FL,NA,35.869565217391305,NA
32226,Duval County,FL,46.326530612244895,NA,NA
32233,Duval County,FL,42.04081632653061,NA,NA
32244,Duval County,FL,6.530612244897959,NA,NA
32250,Duval County,FL,NA,34.23913043478261,NA
32401,Bay County,FL,NA,NA,41.209829867674856
32405,Bay County,FL,62.857142857142854,NA,NA
32439,Walton County,FL,NA,72.28260869565217,NA
32456,Gulf County,FL,NA,62.5,NA
32606,Alachua County,FL,NA,NA,2.6465028355387523
32641,Alachua County,FL,NA,61.00543478260869,NA
32714,Seminole County,FL,NA,NA,42.911153119092624
32789,Orange County,FL,NA,NA,51.22873345935728
32825,Orange County,FL,NA,NA,45.55765595463138
32922,Brevard County,FL,NA,71.73913043478261,NA
32926,Brevard County,FL,NA,46.875,18.90359168241966
32937,Brevard County,FL,75.3061224489796,NA,NA
32953,Brevard County,FL,NA,21.73913043478261,NA
32976,Brevard County,FL,NA,NA,19.092627599243855
33033,Miami-Dade County,FL,44.89795918367347,NA,NA
33037,Monroe County,FL,NA,91.84782608695652,NA
33063,Broward County,FL,NA,NA,10.58601134215501
33066,Broward County,FL,NA,NA,18.525519848771268
33067,Broward County,FL,NA,NA,66.5406427221172
33125,Miami-Dade County,FL,NA,NA,9.640831758034027
33134,Miami-Dade County,FL,78.77551020408163,56.92934782608695,NA
33140,Miami-Dade County,FL,NA,NA,21.550094517958414
33141,Miami-Dade County,FL,61.42857142857143,NA,NA
33143,Miami-Dade County,FL,82.44897959183673,70.1086956521739,NA
33150,Miami-Dade County,FL,53.673469387755105,NA,NA
33155,Miami-Dade County,FL,NA,33.559782608695656,NA
33156,Miami-Dade County,FL,NA,58.96739130434783,NA
33169,Miami-Dade County,FL,NA,NA,60.113421550094515
33175,Miami-Dade County,FL,NA,25.951086956521742,NA
33186,Miami-Dade County,FL,52.85714285714286,NA,NA
33417,Palm Beach County,FL,NA,60.46195652173913,NA
33434,Palm Beach County,FL,NA,41.84782608695652,NA
33436,Palm Beach County,FL,NA,52.71739130434783,NA
33441,Broward County,FL,NA,65.35326086956522,NA
33442,Broward County,FL,NA,86.27717391304348,NA
33444,Palm Beach County,FL,NA,95.5163043478261,NA
33472,Palm Beach County,FL,NA,NA,22.495274102079396
33573,Hillsborough County,FL,NA,23.097826086956523,NA
33594,Hillsborough County,FL,NA,NA,56.71077504725898
33618,Hillsborough County,FL,NA,NA,34.02646502835538
33710,Pinellas County,FL,NA,NA,41.965973534971646
33716,Pinellas County,FL,92.44897959183673,89.13043478260869,NA
33823,Polk County,FL,NA,47.96195652173913,NA
33830,Polk County,FL,NA,47.41847826086957,NA
33870,Highlands County,FL,NA,31.38586956521739,NA
33872,Highlands County,FL,NA,NA,21.73913043478261
33875,Highlands County,FL,NA,NA,44.423440453686204
33897,Polk County,FL,NA,NA,72.0226843100189
33903,Lee County,FL,64.28571428571429,NA,NA
33913,Lee County,FL,NA,69.56521739130434,NA
33953,Charlotte County,FL,NA,92.25543478260869,NA
33981,Charlotte County,FL,93.87755102040816,NA,NA
34110,Collier County,FL,NA,54.75543478260869,NA
34116,Collier County,FL,NA,63.99456521739131,NA
34145,Collier County,FL,NA,79.34782608695652,NA
34232,Sarasota County,FL,49.183673469387756,NA,NA
34233,Sarasota County,FL,NA,NA,25.89792060491493
34235,Sarasota County,FL,NA,NA,71.45557655954632
34238,Sarasota County,FL,NA,40.625,55.009451795841215
34243,Manatee County,FL,61.42857142857143,NA,NA
34287,Sarasota County,FL,NA,31.793478260869566,NA
34461,Citrus County,FL,86.12244897959184,NA,NA
34471,Marion County,FL,NA,NA,46.880907372400756
34481,Marion County,FL,NA,29.076086956521742,NA
34684,Pinellas County,FL,NA,12.907608695652172,NA
34689,Pinellas County,FL,NA,41.71195652173913,NA
34736,Lake County,FL,76.73469387755102,NA,NA
34746,Osceola County,FL,NA,NA,69.37618147448015
34788,Lake County,FL,68.16326530612244,NA,NA
30024,Gwinnett County,GA,NA,NA,39.130434782608695
30032,DeKalb County,GA,13.877551020408163,NA,NA
30040,Forsyth County,GA,NA,NA,12.287334593572778
30043,Gwinnett County,GA,NA,13.858695652173914,46.12476370510397
30058,DeKalb County,GA,NA,31.25,NA
30060,Cobb County,GA,41.224489795918366,NA,NA
30082,Cobb County,GA,NA,NA,74.48015122873346
30126,Cobb County,GA,NA,65.76086956521739,NA
30127,Cobb County,GA,NA,33.83152173913043,NA
30214,Fayette County,GA,NA,NA,39.69754253308129
30215,Fayette County,GA,86.93877551020408,NA,NA
30217,Heard County,GA,NA,96.33152173913044,NA
30224,Spalding County,GA,NA,54.483695652173914,NA
30294,DeKalb County,GA,43.87755102040816,NA,NA
30314,Fulton County,GA,NA,NA,51.60680529300568
30328,Fulton County,GA,NA,NA,31.568998109640834
30506,Hall County,GA,NA,21.331521739130434,NA
30512,Union County,GA,NA,NA,43.47826086956522
30519,Gwinnett County,GA,NA,35.190217391304344,NA
30673,Wilkes County,GA,NA,NA,84.87712665406427
30680,Barrow County,GA,NA,NA,28.35538752362949
30906,Richmond County,GA,NA,NA,16.257088846880908
30907,Columbia County,GA,NA,10.869565217391305,NA
31005,Houston County,GA,NA,NA,83.1758034026465
31014,Bleckley County,GA,NA,75.81521739130434,NA
31023,Dodge County,GA,NA,NA,82.23062381852552
31092,Dooly County,GA,NA,NA,95.84120982986768
31093,Houston County,GA,NA,NA,41.39886578449906
31204,Bibb County,GA,NA,NA,37.80718336483932
31210,Bibb County,GA,64.08163265306122,NA,45.17958412098299
31216,Bibb County,GA,NA,95.78804347826086,NA
31316,Long County,GA,94.08163265306122,NA,NA
31415,Chatham County,GA,76.12244897959184,NA,NA
31503,Ware County,GA,NA,45.244565217391305,53.875236294896034
31510,Bacon County,GA,NA,NA,53.497164461247635
31601,Lowndes County,GA,NA,NA,47.06994328922495
31721,Dougherty County,GA,77.75510204081633,NA,NA
31730,Mitchell County,GA,82.6530612244898,NA,NA
31793,Tift County,GA,NA,88.99456521739131,NA
31794,Tift County,GA,NA,NA,39.88657844990548
96720,Hawaii County,HI,NA,NA,69.56521739130434
83301,Twin Falls County,ID,NA,0.5434782608695652,NA
83330,Gooding County,ID,NA,83.96739130434783,NA
83338,Jerome County,ID,NA,63.722826086956516,NA
83404,Bonneville County,ID,NA,81.52173913043478,NA
83455,Teton County,ID,NA,99.59239130434783,NA
83501,Nez Perce County,ID,NA,NA,4.3478260869565215
83647,Elmore County,ID,NA,52.44565217391305,NA
83704,Ada County,ID,NA,NA,1.5122873345935728
83705,Ada County,ID,NA,15.896739130434783,NA
83713,Ada County,ID,NA,16.983695652173914,NA
83814,Kootenai County,ID,NA,43.07065217391305,NA
60002,Lake County,IL,NA,36.41304347826087,NA
60012,McHenry County,IL,85.51020408163265,NA,NA
60025,Cook County,IL,NA,3.804347826086957,NA
60031,Lake County,IL,NA,NA,52.17391304347826
60045,Lake County,IL,NA,NA,12.476370510396976
60050,McHenry County,IL,41.42857142857143,NA,NA
60051,McHenry County,IL,NA,28.940217391304344,NA
60056,Cook County,IL,41.83673469387755,NA,NA
60060,Lake County,IL,NA,15.217391304347828,NA
60068,Cook County,IL,NA,39.130434782608695,NA
60070,Cook County,IL,NA,NA,58.60113421550095
60073,Lake County,IL,NA,NA,47.63705103969754
60089,Lake County,IL,NA,10.597826086956522,NA
60103,DuPage County,IL,NA,26.358695652173914,NA
60108,DuPage County,IL,NA,30.298913043478258,NA
60120,Kane County,IL,NA,30.842391304347828,52.36294896030246
60140,Kane County,IL,NA,NA,90.73724007561437
60143,DuPage County,IL,NA,74.59239130434783,NA
60148,DuPage County,IL,NA,5.0271739130434785,NA
60152,McHenry County,IL,NA,NA,62.003780718336486
60153,Cook County,IL,NA,27.309782608695656,NA
60156,McHenry County,IL,38.36734693877551,NA,NA
60173,Cook County,IL,NA,NA,92.62759924385632
60174,Kane County,IL,47.755102040816325,NA,NA
60176,Cook County,IL,95.10204081632652,NA,NA
60178,DeKalb County,IL,NA,51.222826086956516,NA
60189,DuPage County,IL,NA,24.86413043478261,NA
60194,Cook County,IL,NA,NA,77.12665406427222
60202,Cook County,IL,NA,87.22826086956522,NA
60402,Cook County,IL,12.857142857142856,NA,NA
60403,Will County,IL,NA,NA,47.25897920604915
60409,Cook County,IL,NA,NA,33.64839319470699
60435,Will County,IL,NA,10.054347826086957,NA
60436,Will County,IL,NA,NA,60.68052930056711
60491,Will County,IL,NA,29.891304347826086,NA
60502,DuPage County,IL,54.48979591836734,NA,NA
60506,Kane County,IL,NA,28.396739130434785,NA
60525,Cook County,IL,NA,NA,12.854442344045369
60532,DuPage County,IL,NA,NA,43.28922495274102
60558,Cook County,IL,NA,NA,57.655954631379956
60559,DuPage County,IL,NA,49.72826086956522,NA
60564,Will County,IL,NA,27.173913043478258,NA
60605,Cook County,IL,NA,48.91304347826087,NA
60608,Cook County,IL,NA,NA,7.561436672967864
60609,Cook County,IL,NA,17.255434782608695,NA
60611,Cook County,IL,NA,21.875,NA
60613,Cook County,IL,30.816326530612244,36.005434782608695,NA
60621,Cook County,IL,38.163265306122454,NA,NA
60623,Cook County,IL,8.36734693877551,NA,NA
60630,Cook County,IL,24.693877551020407,NA,NA
60637,Cook County,IL,47.55102040816326,NA,NA
60638,Cook County,IL,NA,NA,3.5916824196597354
60644,Cook County,IL,NA,12.228260869565217,NA
60651,Cook County,IL,NA,NA,50.2835538752363
60653,Cook County,IL,NA,33.016304347826086,NA
60657,Cook County,IL,21.63265306122449,49.184782608695656,NA
60827,Cook County,IL,NA,NA,62.57088846880907
61021,Lee County,IL,66.53061224489795,NA,NA
61073,Winnebago County,IL,67.14285714285714,NA,NA
61101,Winnebago County,IL,NA,45.244565217391305,NA
61111,Winnebago County,IL,NA,NA,51.79584120982986
61356,Bureau County,IL,NA,66.57608695652173,40.831758034026464
61550,Tazewell County,IL,NA,NA,43.85633270321361
61554,Tazewell County,IL,NA,NA,7.9395085066162565
61603,Peoria County,IL,68.16326530612244,NA,NA
61604,Peoria County,IL,42.6530612244898,NA,NA
61920,Coles County,IL,56.326530612244895,55.434782608695656,NA
62025,Madison County,IL,NA,44.02173913043478,NA
62221,St. Clair County,IL,NA,NA,63.32703213610586
62223,St. Clair County,IL,NA,NA,48.96030245746692
62249,Madison County,IL,79.79591836734694,NA,32.136105860113425
62260,St. Clair County,IL,NA,90.21739130434783,NA
62301,Adams County,IL,NA,NA,21.928166351606805
62521,Macon County,IL,43.87755102040816,NA,3.0245746691871456
62703,Sangamon County,IL,NA,NA,44.045368620037806
62837,Wayne County,IL,NA,73.50543478260869,NA
62896,Franklin County,IL,NA,34.375,NA
62946,Saline County,IL,NA,77.30978260869566,NA
46011,Madison County,IN,NA,NA,73.34593572778829
46013,Madison County,IN,35.30612244897959,NA,NA
46016,Madison County,IN,15.918367346938775,NA,41.39886578449906
46052,Boone County,IN,NA,52.03804347826087,NA
46062,Hamilton County,IN,61.836734693877546,NA,NA
46112,Hendricks County,IN,NA,81.11413043478261,NA
46122,Hendricks County,IN,NA,74.72826086956522,NA
46140,Hancock County,IN,NA,19.565217391304348,NA
46163,Hancock County,IN,NA,71.33152173913044,NA
46168,Hendricks County,IN,42.244897959183675,NA,44.99054820415879
46176,Shelby County,IN,NA,84.91847826086956,35.53875236294896
46229,Marion County,IN,NA,NA,38.37429111531191
46241,Marion County,IN,NA,NA,54.25330812854442
46260,Marion County,IN,47.3469387755102,NA,NA
46307,Lake County,IN,NA,0.9510869565217392,NA
46324,Lake County,IN,NA,29.347826086956523,NA
46360,LaPorte County,IN,6.326530612244897,NA,NA
46368,Porter County,IN,3.2653061224489797,1.0869565217391304,NA
46403,Lake County,IN,NA,NA,68.99810964083176
46410,Lake County,IN,NA,3.532608695652174,NA
46501,Marshall County,IN,91.22448979591836,NA,NA
46514,Elkhart County,IN,NA,24.456521739130434,NA
46562,Kosciusko County,IN,99.79591836734694,NA,NA
46703,Steuben County,IN,NA,40.08152173913043,NA
46725,Whitley County,IN,NA,NA,30.434782608695656
46767,Noble County,IN,90.20408163265307,NA,NA
46825,Allen County,IN,41.0204081632653,NA,NA
46902,Howard County,IN,NA,NA,6.238185255198488
46952,Grant County,IN,NA,5.298913043478261,NA
47025,Dearborn County,IN,43.26530612244898,NA,NA
47111,Clark County,IN,57.14285714285714,NA,NA
47112,Harrison County,IN,NA,59.5108695652174,NA
47122,Floyd County,IN,92.04081632653062,NA,NA
47150,Floyd County,IN,NA,38.858695652173914,NA
47203,Bartholomew County,IN,37.95918367346939,23.369565217391305,NA
47220,Jackson County,IN,NA,95.1086956521739,NA
47240,Decatur County,IN,NA,24.04891304347826,NA
47302,Delaware County,IN,18.979591836734695,NA,NA
47362,Henry County,IN,NA,NA,8.695652173913043
47460,Owen County,IN,NA,NA,98.29867674858222
47670,Gibson County,IN,81.42857142857143,NA,NA
47711,Vanderburgh County,IN,NA,65.48913043478261,NA
47712,Vanderburgh County,IN,53.87755102040816,NA,NA
47834,Clay County,IN,34.285714285714285,54.61956521739131,NA
47885,Vigo County,IN,NA,75,NA
47933,Montgomery County,IN,NA,47.690217391304344,NA
47978,Jasper County,IN,70.40816326530613,NA,NA
50014,Story County,IA,88.9795918367347,NA,NA
50022,Cass County,IA,NA,84.10326086956522,NA
50138,Marion County,IA,NA,63.17934782608695,NA
50213,Clarke County,IA,NA,94.70108695652173,NA
50219,Marion County,IA,NA,NA,32.70321361058601
50266,Polk County,IA,80.81632653061224,NA,NA
50401,Cerro Gordo County,IA,NA,NA,10.775047258979207
50613,Black Hawk County,IA,NA,NA,2.2684310018903595
51201,O'Brien County,IA,NA,NA,61.05860113421549
51250,Sioux County,IA,89.18367346938776,NA,NA
51360,Dickinson County,IA,NA,NA,51.98487712665406
51442,Crawford County,IA,NA,97.14673913043478,NA
51503,Pottawattamie County,IA,NA,50.95108695652174,NA
52240,Johnson County,IA,NA,21.195652173913043,NA
52601,Des Moines County,IA,NA,NA,12.665406427221171
52632,Lee County,IA,NA,NA,67.48582230623819
52748,Scott County,IA,NA,NA,96.21928166351607
66044,Douglas County,KS,70,NA,NA
66062,Johnson County,KS,NA,82.20108695652173,NA
66064,Miami County,KS,91.02040816326532,NA,NA
66604,Shawnee County,KS,NA,42.66304347826087,NA
66614,Shawnee County,KS,NA,20.516304347826086,NA
66617,Shawnee County,KS,NA,86.1413043478261,NA
66762,Crawford County,KS,68.57142857142857,NA,NA
67114,Harvey County,KS,NA,NA,58.97920604914933
40069,Washington County,KY,NA,88.45108695652173,NA
40118,Jefferson County,KY,55.714285714285715,NA,NA
40143,Breckinridge County,KY,NA,NA,85.06616257088847
40160,Hardin County,KY,34.48979591836735,NA,NA
40216,Jefferson County,KY,NA,11.684782608695652,NA
40218,Jefferson County,KY,NA,41.03260869565217,NA
40222,Jefferson County,KY,NA,66.30434782608695,NA
40228,Jefferson County,KY,67.75510204081633,NA,NA
40242,Jefferson County,KY,84.08163265306122,NA,NA
40243,Jefferson County,KY,88.16326530612245,NA,54.63137996219282
40245,Jefferson County,KY,NA,42.391304347826086,NA
40272,Jefferson County,KY,NA,55.16304347826087,NA
40324,Scott County,KY,NA,NA,35.72778827977316
40342,Anderson County,KY,NA,NA,75.80340264650283
40390,Jessamine County,KY,NA,97.28260869565217,NA
40391,Clark County,KY,10,NA,NA
40403,Madison County,KY,NA,42.79891304347826,NA
40456,Rockcastle County,KY,75.71428571428571,NA,NA
40475,Madison County,KY,9.591836734693878,NA,NA
40484,Lincoln County,KY,71.83673469387755,NA,NA
40503,Fayette County,KY,69.18367346938776,NA,NA
40505,Fayette County,KY,24.897959183673468,NA,NA
40508,Fayette County,KY,35.51020408163265,NA,NA
40514,Fayette County,KY,NA,91.84782608695652,NA
40744,Laurel County,KY,NA,58.28804347826087,NA
41016,Kenton County,KY,NA,NA,90.92627599243856
41031,Harrison County,KY,56.93877551020409,NA,NA
41035,Grant County,KY,NA,86.54891304347827,NA
41094,Boone County,KY,NA,71.73913043478261,NA
41141,Lewis County,KY,NA,98.50543478260869,NA
41144,Greenup County,KY,NA,56.52173913043478,NA
42001,McCracken County,KY,NA,22.418478260869566,NA
42071,Calloway County,KY,NA,44.83695652173913,NA
42240,Christian County,KY,NA,14.266304347826086,NA
42320,Ohio County,KY,NA,91.16847826086956,NA
42445,Caldwell County,KY,NA,67.11956521739131,NA
42642,Russell County,KY,NA,NA,66.1625708884688
42718,Taylor County,KY,43.46938775510204,64.13043478260869,NA
42743,Green County,KY,NA,66.71195652173914,NA
42748,Larue County,KY,NA,75.13586956521739,NA
70003,Jefferson Parish,LA,NA,NA,20.415879017013232
70114,Orleans Parish,LA,NA,35.59782608695652,NA
70115,Orleans Parish,LA,NA,25,NA
70117,Orleans Parish,LA,NA,18.478260869565215,NA
70119,Orleans Parish,LA,5.510204081632653,NA,NA
70126,Orleans Parish,LA,7.551020408163265,NA,19.848771266540645
70128,Orleans Parish,LA,NA,33.96739130434783,NA
70301,Lafourche Parish,LA,NA,NA,14.933837429111533
70346,Ascension Parish,LA,NA,NA,75.61436672967864
70360,Terrebonne Parish,LA,NA,NA,38.18525519848771
70364,Terrebonne Parish,LA,NA,26.766304347826086,78.82797731568998
70374,Lafourche Parish,LA,95.91836734693877,NA,NA
70458,St. Tammany Parish,LA,NA,2.4456521739130435,NA
70501,Lafayette Parish,LA,NA,NA,32.89224952741021
70503,Lafayette Parish,LA,40.40816326530612,27.98913043478261,NA
70508,Lafayette Parish,LA,NA,NA,29.678638941398866
70520,Lafayette Parish,LA,NA,49.04891304347826,NA
70529,Lafayette Parish,LA,50.816326530612244,NA,90.92627599243856
70563,Iberia Parish,LA,NA,NA,85.82230623818525
70570,St. Landry Parish,LA,NA,NA,17.20226843100189
70578,Acadia Parish,LA,22.653061224489797,NA,NA
70592,Lafayette Parish,LA,NA,NA,83.5538752362949
70615,Calcasieu Parish,LA,23.46938775510204,NA,NA
70663,Calcasieu Parish,LA,34.69387755102041,NA,NA
70722,East Feliciana Parish,LA,NA,100,NA
70737,Ascension Parish,LA,NA,73.36956521739131,NA
70802,East Baton Rouge Parish,LA,7.346938775510205,NA,NA
70805,East Baton Rouge Parish,LA,NA,30.978260869565215,NA
70816,East Baton Rouge Parish,LA,NA,NA,36.48393194706994
71105,Caddo Parish,LA,NA,48.641304347826086,40.45368620037807
71106,Caddo Parish,LA,NA,NA,15.311909262759924
71109,Caddo Parish,LA,NA,27.853260869565215,NA
71129,Caddo Parish,LA,NA,69.29347826086956,NA
71201,Ouachita Parish,LA,36.53061224489796,NA,NA
71241,Union Parish,LA,NA,80.16304347826086,NA
71254,East Carroll Parish,LA,NA,NA,88.27977315689981
71457,Natchitoches Parish,LA,NA,NA,33.83742911153119
03903,York County,ME,85.3061224489796,NA,NA
04046,York County,ME,NA,75.95108695652173,NA
04073,York County,ME,25.510204081632654,NA,NA
04103,Cumberland County,ME,NA,NA,70.69943289224952
04107,Cumberland County,ME,NA,98.91304347826086,NA
04210,Androscoggin County,ME,NA,9.782608695652174,NA
04401,Penobscot County,ME,NA,15.081521739130435,NA
04619,Washington County,ME,NA,NA,79.96219281663515
04742,Aroostook County,ME,81.63265306122449,NA,94.3289224952741
04756,Aroostook County,ME,NA,NA,61.43667296786389
04976,Somerset County,ME,NA,16.032608695652172,NA
20657,Calvert County,MD,NA,85.46195652173914,NA
20774,Prince George's County,MD,45.91836734693878,43.34239130434783,NA
20784,Prince George's County,MD,NA,79.07608695652173,NA
20837,Montgomery County,MD,NA,99.86413043478261,NA
20866,Montgomery County,MD,NA,92.79891304347827,NA
20904,Montgomery County,MD,NA,53.2608695652174,NA
21001,Harford County,MD,NA,66.16847826086956,NA
21029,Howard County,MD,95.10204081632652,NA,NA
21037,Anne Arundel County,MD,72.6530612244898,NA,NA
21043,Howard County,MD,NA,45.516304347826086,NA
21050,Harford County,MD,NA,NA,66.91871455576559
21054,Anne Arundel County,MD,88.77551020408163,NA,NA
21163,Howard County,MD,97.95918367346938,NA,NA
21205,Baltimore city,MD,NA,77.58152173913044,NA
21215,Baltimore city,MD,NA,NA,38.56332703213611
21217,Baltimore city,MD,NA,18.61413043478261,NA
21222,Baltimore County,MD,NA,19.293478260869566,NA
21225,Baltimore city,MD,NA,NA,52.93005671077504
21228,Baltimore County,MD,NA,11.41304347826087,NA
21230,Baltimore city,MD,NA,55.29891304347826,NA
21234,Baltimore County,MD,NA,7.336956521739131,NA
21237,Baltimore County,MD,54.89795918367347,NA,NA
21286,Baltimore County,MD,83.26530612244898,NA,NA
21550,Garrett County,MD,NA,NA,15.879017013232513
21601,Talbot County,MD,71.22448979591837,NA,NA
21613,Dorchester County,MD,NA,96.73913043478261,59.168241965973536
21620,Kent County,MD,NA,63.17934782608695,48.582230623818525
21655,Caroline County,MD,NA,97.96195652173914,NA
21795,Washington County,MD,96.3265306122449,NA,NA
21911,Cecil County,MD,78.57142857142857,77.98913043478261,NA
01033,Hampshire County,MA,NA,NA,81.85255198487712
01056,Hampden County,MA,NA,NA,43.10018903591683
01085,Hampden County,MA,NA,18.88586956521739,6.427221172022684
01104,Hampden County,MA,NA,0.2717391304347826,NA
01109,Hampden County,MA,0.20408163265306123,NA,NA
01201,Berkshire County,MA,1.2244897959183674,NA,NA
01247,Berkshire County,MA,NA,9.646739130434783,NA
01432,Middlesex County,MA,49.59183673469388,74.04891304347827,NA
01450,Middlesex County,MA,NA,NA,86.01134215500946
01473,Worcester County,MA,NA,NA,96.97542533081285
01510,Worcester County,MA,NA,NA,37.42911153119093
01606,Worcester County,MA,17.755102040816325,NA,NA
01610,Worcester County,MA,0.6122448979591837,NA,NA
01701,Middlesex County,MA,39.795918367346935,NA,NA
01702,Middlesex County,MA,NA,4.755434782608696,28.166351606805296
01746,Middlesex County,MA,NA,39.40217391304348,NA
01757,Worcester County,MA,NA,4.891304347826087,NA
01772,Worcester County,MA,NA,NA,75.42533081285444
01803,Middlesex County,MA,21.224489795918366,NA,NA
01826,Middlesex County,MA,NA,1.9021739130434785,NA
01844,Essex County,MA,1.0204081632653061,NA,NA
01851,Middlesex County,MA,2.4489795918367347,NA,NA
01876,Middlesex County,MA,31.22448979591837,NA,NA
01906,Essex County,MA,NA,NA,77.50472589792061
01923,Essex County,MA,NA,NA,0.945179584120983
01938,Essex County,MA,NA,16.304347826086957,NA
01945,Essex County,MA,42.857142857142854,NA,NA
02038,Norfolk County,MA,NA,72.41847826086956,NA
02072,Norfolk County,MA,54.69387755102041,NA,NA
02124,Suffolk County,MA,0,NA,NA
02126,Suffolk County,MA,NA,NA,16.824196597353495
02127,Suffolk County,MA,NA,6.7934782608695645,NA
02134,Suffolk County,MA,NA,NA,56.33270321361059
02176,Middlesex County,MA,8.571428571428571,NA,NA
02445,Norfolk County,MA,NA,NA,67.29678638941398
02451,Middlesex County,MA,NA,NA,56.89981096408317
02466,Middlesex County,MA,87.55102040816325,NA,NA
02472,Middlesex County,MA,8.16326530612245,NA,NA
02474,Middlesex County,MA,NA,26.766304347826086,10.396975425330812
02532,Barnstable County,MA,NA,56.25,NA
02540,Barnstable County,MA,NA,39.67391304347826,NA
02563,Barnstable County,MA,NA,NA,57.46691871455577
02631,Barnstable County,MA,NA,89.80978260869566,NA
02703,Bristol County,MA,NA,NA,30.245746691871457
02766,Bristol County,MA,NA,8.423913043478262,NA
02769,Bristol County,MA,NA,61.95652173913043,NA
02780,Bristol County,MA,NA,0.6793478260869565,NA
48026,Macomb County,MI,NA,43.20652173913043,NA
48038,Macomb County,MI,14.285714285714285,NA,NA
48047,Macomb County,MI,15.306122448979592,NA,NA
48072,Oakland County,MI,NA,NA,54.63137996219282
48073,Oakland County,MI,NA,36.27717391304348,NA
48080,Macomb County,MI,NA,13.31521739130435,NA
48081,Macomb County,MI,NA,25.679347826086957,NA
48088,Macomb County,MI,NA,26.08695652173913,NA
48093,Macomb County,MI,20.408163265306122,NA,NA
48097,St. Clair County,MI,NA,87.5,NA
48104,Washtenaw County,MI,NA,37.36413043478261,NA
48124,Wayne County,MI,NA,25.407608695652172,NA
48134,Wayne County,MI,NA,46.33152173913043,NA
48141,Wayne County,MI,10.204081632653061,NA,NA
48162,Monroe County,MI,NA,2.1739130434782608,NA
48166,Monroe County,MI,NA,39.67391304347826,NA
48169,Livingston County,MI,49.38775510204081,NA,NA
48182,Monroe County,MI,NA,43.61413043478261,48.39319470699433
48184,Wayne County,MI,NA,26.4945652173913,NA
48187,Wayne County,MI,11.83673469387755,NA,NA
48195,Wayne County,MI,NA,9.918478260869565,NA
48197,Washtenaw County,MI,NA,NA,15.122873345935728
48205,Wayne County,MI,4.8979591836734695,NA,NA
48207,Wayne County,MI,NA,38.04347826086957,NA
48223,Wayne County,MI,13.673469387755102,NA,NA
48224,Wayne County,MI,2.6530612244897958,NA,NA
48225,Wayne County,MI,72.44897959183673,NA,NA
48227,Wayne County,MI,NA,NA,24.38563327032136
48228,Wayne County,MI,NA,NA,34.02646502835538
48229,Wayne County,MI,59.183673469387756,NA,NA
48234,Wayne County,MI,NA,15.760869565217392,NA
48236,Wayne County,MI,NA,NA,9.829867674858223
48302,Oakland County,MI,NA,89.53804347826086,NA
48348,Oakland County,MI,NA,NA,59.35727788279773
48390,Oakland County,MI,NA,38.58695652173913,NA
48423,Genesee County,MI,NA,23.777173913043477,NA
48439,Genesee County,MI,NA,15.489130434782608,10.964083175803403
48441,Huron County,MI,NA,NA,68.24196597353497
48442,Oakland County,MI,NA,51.902173913043484,NA
48446,Lapeer County,MI,NA,NA,19.281663516068054
48450,Sanilac County,MI,NA,95.65217391304348,NA
48458,Genesee County,MI,32.857142857142854,NA,NA
48601,Saginaw County,MI,2.2448979591836733,NA,NA
48602,Saginaw County,MI,4.285714285714286,NA,NA
48638,Saginaw County,MI,NA,45.65217391304348,NA
48647,Oscoda County,MI,91.42857142857143,NA,NA
48706,Bay County,MI,NA,14.945652173913043,NA
48723,Tuscola County,MI,NA,NA,42.34404536862004
48734,Saginaw County,MI,NA,79.4836956521739,NA
48843,Livingston County,MI,NA,NA,8.31758034026465
48848,Shiawassee County,MI,NA,78.53260869565217,NA
48867,Shiawassee County,MI,NA,5.842391304347826,NA
48917,Eaton County,MI,NA,7.4728260869565215,NA
49009,Kalamazoo County,MI,13.26530612244898,NA,NA
49010,Allegan County,MI,NA,NA,50.0945179584121
49021,Eaton County,MI,NA,NA,86.95652173913044
49083,Kalamazoo County,MI,NA,68.47826086956522,NA
49319,Kent County,MI,NA,NA,94.89603024574669
49323,Allegan County,MI,85.71428571428571,NA,NA
49418,Kent County,MI,NA,65.21739130434783,NA
49441,Muskegon County,MI,NA,2.989130434782609,NA
49442,Muskegon County,MI,4.081632653061225,NA,32.514177693761816
49444,Muskegon County,MI,NA,22.554347826086957,NA
49461,Muskegon County,MI,NA,90.08152173913044,NA
49505,Kent County,MI,NA,27.717391304347828,NA
49721,Cheboygan County,MI,NA,NA,37.24007561436673
49735,Otsego County,MI,67.3469387755102,NA,NA
49770,Emmet County,MI,NA,54.21195652173913,NA
49855,Marquette County,MI,NA,72.82608695652173,NA
49920,Iron County,MI,NA,61.684782608695656,NA
55025,Washington County,MN,NA,98.09782608695652,NA
55044,Dakota County,MN,51.83673469387755,NA,NA
55075,Dakota County,MN,43.46938775510204,NA,NA
55113,Ramsey County,MN,NA,48.09782608695652,NA
55318,Carver County,MN,59.795918367346935,NA,NA
55328,Wright County,MN,NA,93.88586956521739,NA
55371,Mille Lacs County,MN,NA,NA,83.93194706994329
55379,Scott County,MN,29.38775510204082,NA,NA
55407,Hennepin County,MN,NA,5.163043478260869,NA
55428,Hennepin County,MN,20.20408163265306,NA,NA
55733,Carlton County,MN,98.9795918367347,NA,NA
56001,Blue Earth County,MN,NA,37.5,NA
56156,Rock County,MN,NA,NA,34.97164461247637
56258,Lyon County,MN,75.10204081632654,NA,NA
56265,Chippewa County,MN,NA,85.46195652173914,NA
56378,Stearns County,MN,NA,NA,61.81474480151229
56387,Stearns County,MN,NA,NA,77.882797731569
56464,Wadena County,MN,87.75510204081633,NA,NA
56560,Clay County,MN,NA,3.125,NA
38632,DeSoto County,MS,NA,94.42934782608695,NA
38654,DeSoto County,MS,NA,NA,29.300567107750474
38666,Panola County,MS,NA,97.69021739130434,NA
38732,Bolivar County,MS,NA,41.16847826086957,49.52741020793951
38824,Prentiss County,MS,NA,NA,75.23629489603024
38829,Prentiss County,MS,NA,44.565217391304344,NA
38901,Grenada County,MS,NA,68.88586956521739,NA
39150,Claiborne County,MS,99.59183673469387,NA,NA
39211,Hinds County,MS,NA,NA,86.38941398865785
39213,Hinds County,MS,NA,NA,46.502835538752365
39350,Neshoba County,MS,NA,68.20652173913044,NA
39402,Lamar County,MS,NA,58.016304347826086,NA
39501,Harrison County,MS,20,NA,NA
39503,Harrison County,MS,NA,NA,69.94328922495274
39531,Harrison County,MS,NA,46.059782608695656,NA
39581,Jackson County,MS,NA,NA,87.33459357277883
39648,Pike County,MS,20.816326530612244,NA,NA
39666,Pike County,MS,76.93877551020408,NA,NA
39773,Clay County,MS,NA,69.83695652173914,76.55954631379961
63012,Jefferson County,MO,97.55102040816327,NA,NA
63031,St. Louis County,MO,17.551020408163264,NA,NA
63034,St. Louis County,MO,65.10204081632654,NA,NA
63108,St. Louis city,MO,51.63265306122449,NA,65.40642722117202
63111,St. Louis city,MO,NA,53.66847826086957,NA
63112,St. Louis city,MO,NA,69.29347826086956,NA
63114,St. Louis County,MO,26.93877551020408,NA,NA
63128,St. Louis County,MO,74.6938775510204,NA,5.671077504725898
63146,St. Louis County,MO,NA,NA,5.482041587901701
63367,St. Charles County,MO,NA,72.01086956521739,NA
63775,Perry County,MO,NA,37.22826086956522,NA
63841,Stoddard County,MO,52.44897959183673,NA,NA
64012,Cass County,MO,NA,27.581521739130434,NA
64053,Jackson County,MO,NA,94.29347826086956,NA
64056,Jackson County,MO,NA,57.472826086956516,NA
64062,Ray County,MO,NA,80.02717391304348,NA
64082,Jackson County,MO,NA,NA,80.34026465028356
64083,Cass County,MO,38.775510204081634,NA,NA
64086,Jackson County,MO,36.12244897959184,NA,NA
64093,Johnson County,MO,NA,38.45108695652174,NA
64114,Jackson County,MO,NA,NA,31.379962192816635
64131,Jackson County,MO,NA,36.95652173913043,NA
64133,Jackson County,MO,5.1020408163265305,NA,NA
64138,Jackson County,MO,NA,16.57608695652174,NA
64507,Buchanan County,MO,NA,NA,88.27977315689981
64730,Bates County,MO,NA,72.69021739130434,NA
64850,Newton County,MO,NA,NA,76.93761814744802
65041,Gasconade County,MO,NA,NA,80.15122873345936
65536,Laclede County,MO,NA,NA,63.51606805293005
65608,Douglas County,MO,NA,82.47282608695652,NA
65712,Lawrence County,MO,NA,84.23913043478261,NA
65714,Christian County,MO,NA,48.77717391304348,NA
65721,Christian County,MO,NA,NA,46.69187145557656
65802,Greene County,MO,NA,NA,20.226843100189036
65803,Greene County,MO,12.040816326530612,NA,NA
65804,Greene County,MO,NA,NA,14.744801512287333
65807,Greene County,MO,NA,NA,5.8601134215500945
65810,Greene County,MO,NA,NA,63.13799621928167
59230,Valley County,MT,NA,94.02173913043478,NA
59404,Cascade County,MT,NA,NA,12.098298676748582
59405,Cascade County,MT,NA,NA,6.994328922495274
59602,Lewis and Clark County,MT,NA,33.28804347826087,NA
59644,Broadwater County,MT,NA,NA,96.59735349716446
59801,Missoula County,MT,65.3061224489796,NA,NA
59864,Lake County,MT,NA,90.48913043478261,NA
59923,Lincoln County,MT,87.14285714285714,NA,NA
68025,Dodge County,NE,37.142857142857146,NA,NA
68110,Douglas County,NE,78.9795918367347,NA,NA
69153,Keith County,NE,NA,NA,76.74858223062382
69301,Box Butte County,NE,71.42857142857143,71.19565217391305,70.88846880907373
89103,Clark County,NV,NA,59.375,NA
89122,Clark County,NV,27.95918367346939,NA,NA
89403,Lyon County,NV,40.20408163265306,NA,NA
89431,Washoe County,NV,22.244897959183675,NA,NA
89436,Washoe County,NV,NA,NA,44.801512287334596
89502,Washoe County,NV,20.612244897959183,NA,NA
89503,Washoe County,NV,NA,NA,68.80907372400756
89801,Elko County,NV,NA,70.38043478260869,NA
03045,Hillsborough County,NH,70.61224489795919,NA,NA
03051,Hillsborough County,NH,NA,NA,64.08317580340265
03062,Hillsborough County,NH,NA,NA,13.988657844990549
03102,Hillsborough County,NH,NA,NA,6.805293005671078
03431,Cheshire County,NH,NA,30.16304347826087,NA
03452,Cheshire County,NH,NA,73.6413043478261,NA
03841,Rockingham County,NH,94.28571428571428,NA,NA
03885,Rockingham County,NH,NA,97.55434782608695,NA
07013,Passaic County,NJ,NA,NA,50.661625708884685
07054,Morris County,NJ,NA,NA,71.07750472589792
07063,Union County,NJ,NA,99.45652173913044,NA
07065,Union County,NJ,NA,NA,85.63327032136105
07087,Hudson County,NJ,NA,NA,4.158790170132325
07094,Hudson County,NJ,NA,NA,97.35349716446125
07202,Union County,NJ,NA,8.831521739130435,NA
07203,Union County,NJ,NA,58.69565217391305,NA
07304,Hudson County,NJ,NA,NA,75.04725897920605
07442,Passaic County,NJ,NA,76.7663043478261,NA
07470,Passaic County,NJ,NA,2.5815217391304346,NA
07652,Bergen County,NJ,NA,93.34239130434783,NA
07660,Bergen County,NJ,NA,85.19021739130434,NA
07675,Bergen County,NJ,NA,80.70652173913044,NA
07719,Monmouth County,NJ,NA,NA,79.58412098298678
07722,Monmouth County,NJ,NA,97.01086956521739,NA
07724,Monmouth County,NJ,NA,NA,85.25519848771268
07726,Monmouth County,NJ,NA,28.804347826086957,NA
07731,Monmouth County,NJ,NA,NA,70.13232514177695
07734,Monmouth County,NJ,90.40816326530611,NA,NA
07740,Monmouth County,NJ,NA,6.25,34.40453686200378
07920,Somerset County,NJ,NA,NA,65.40642722117202
07936,Morris County,NJ,90.61224489795919,NA,NA
08003,Camden County,NJ,NA,NA,19.47069943289225
08009,Camden County,NJ,NA,NA,89.413988657845
08016,Burlington County,NJ,62.65306122448979,NA,NA
08054,Burlington County,NJ,NA,13.586956521739129,NA
08081,Camden County,NJ,1.6326530612244898,NA,NA
08105,Camden County,NJ,NA,NA,45.746691871455575
08204,Cape May County,NJ,NA,23.91304347826087,NA
08244,Atlantic County,NJ,NA,64.80978260869566,NA
08401,Atlantic County,NJ,NA,1.766304347826087,NA
08611,Mercer County,NJ,NA,70.24456521739131,NA
08618,Mercer County,NJ,0.8163265306122449,NA,NA
08701,Ocean County,NJ,NA,9.375,NA
08731,Ocean County,NJ,NA,NA,90.35916824196597
08742,Ocean County,NJ,NA,NA,31.758034026465026
08755,Ocean County,NJ,24.489795918367346,NA,NA
08759,Ocean County,NJ,NA,NA,0
08826,Hunterdon County,NJ,97.75510204081633,NA,97.16446124763705
08861,Middlesex County,NJ,NA,95.92391304347827,NA
08863,Middlesex County,NJ,NA,93.47826086956522,NA
08902,Middlesex County,NJ,NA,NA,71.07750472589792
87043,Sandoval County,NM,NA,82.88043478260869,NA
87102,Bernalillo County,NM,NA,NA,58.41209829867675
87104,Bernalillo County,NM,NA,75.54347826086956,NA
87106,Bernalillo County,NM,21.836734693877553,NA,NA
87108,Bernalillo County,NM,NA,4.483695652173913,NA
87114,Bernalillo County,NM,9.795918367346939,NA,NA
87120,Bernalillo County,NM,11.020408163265307,13.043478260869565,NA
87121,Bernalillo County,NM,NA,33.28804347826087,NA
87122,Bernalillo County,NM,NA,72.14673913043478,NA
87144,Sandoval County,NM,NA,93.75,NA
88021,Doa Ana County,NM,NA,82.47282608695652,NA
88240,Lea County,NM,29.183673469387756,NA,NA
88340,Otero County,NM,89.38775510204081,NA,NA
10009,New York County,NY,10.612244897959183,NA,NA
10011,New York County,NY,NA,18.75,NA
10027,New York County,NY,NA,12.5,NA
10031,New York County,NY,NA,15.217391304347828,20.982986767485823
10301,Richmond County,NY,NA,NA,16.068052930056712
10309,Richmond County,NY,60.40816326530612,NA,NA
10310,Richmond County,NY,48.57142857142857,NA,NA
10452,Bronx County,NY,7.142857142857142,NA,10.01890359168242
10454,Bronx County,NY,NA,NA,27.788279773156898
10456,Bronx County,NY,3.061224489795918,NA,NA
10461,Bronx County,NY,NA,NA,77.6937618147448
10462,Bronx County,NY,NA,3.3967391304347823,NA
10468,Bronx County,NY,NA,NA,6.61625708884688
10469,Bronx County,NY,NA,NA,3.213610586011342
10705,Westchester County,NY,NA,29.483695652173914,NA
10801,Westchester County,NY,34.08163265306122,NA,NA
10804,Westchester County,NY,NA,NA,81.66351606805293
10913,Rockland County,NY,NA,NA,99.62192816635161
10940,Orange County,NY,NA,13.722826086956522,NA
10956,Rockland County,NY,NA,NA,26.08695652173913
11102,Queens County,NY,NA,50.67934782608695,NA
11210,Kings County,NY,NA,78.125,NA
11211,Kings County,NY,NA,20.108695652173914,NA
11212,Kings County,NY,NA,0,NA
11215,Kings County,NY,NA,NA,16.6351606805293
11218,Kings County,NY,NA,14.402173913043478,4.536862003780719
11221,Kings County,NY,NA,2.309782608695652,NA
11224,Kings County,NY,NA,4.3478260869565215,NA
11226,Kings County,NY,NA,20.652173913043477,NA
11233,Kings County,NY,1.8367346938775513,0.4076086956521739,8.5066162570888455
11236,Kings County,NY,NA,6.929347826086957,NA
11238,Kings County,NY,NA,13.451086956521738,NA
11356,Queens County,NY,80.20408163265306,NA,NA
11357,Queens County,NY,NA,NA,33.2703213610586
11367,Queens County,NY,NA,NA,55.954631379962194
11368,Queens County,NY,NA,NA,14.555765595463138
11428,Queens County,NY,NA,76.7663043478261,94.1398865784499
11554,Nassau County,NY,55.91836734693878,NA,NA
11563,Nassau County,NY,NA,NA,82.6086956521739
11572,Nassau County,NY,NA,NA,44.61247637051039
11691,Queens County,NY,NA,6.385869565217392,NA
11704,Suffolk County,NY,NA,52.309782608695656,NA
11706,Suffolk County,NY,NA,NA,73.15689981096408
11725,Suffolk County,NY,NA,NA,56.52173913043478
11729,Suffolk County,NY,NA,NA,48.01512287334593
11753,Nassau County,NY,98.16326530612245,NA,NA
11757,Suffolk County,NY,NA,NA,26.65406427221172
11763,Suffolk County,NY,46.73469387755102,NA,NA
11780,Suffolk County,NY,NA,NA,62.75992438563327
12010,Montgomery County,NY,NA,4.076086956521739,NA
12065,Saratoga County,NY,NA,55.57065217391305,NA
12198,Rensselaer County,NY,NA,NA,87.14555765595463
12538,Dutchess County,NY,94.48979591836735,NA,NA
12542,Ulster County,NY,NA,99.32065217391305,NA
12901,Clinton County,NY,3.877551020408163,NA,NA
13021,Cayuga County,NY,37.755102040816325,NA,NA
13118,Cayuga County,NY,NA,85.46195652173914,NA
13152,Onondaga County,NY,NA,NA,78.82797731568998
13440,Oneida County,NY,14.897959183673471,NA,NA
13617,St. Lawrence County,NY,35.714285714285715,NA,NA
13901,Broome County,NY,4.489795918367347,NA,NA
13905,Broome County,NY,2.0408163265306123,NA,NA
14120,Niagara County,NY,NA,5.570652173913043,NA
14206,Erie County,NY,NA,NA,76.18147448015122
14217,Erie County,NY,NA,20.244565217391305,48.96030245746692
14221,Erie County,NY,NA,1.4945652173913044,NA
14224,Erie County,NY,NA,7.744565217391304,NA
14226,Erie County,NY,NA,NA,63.89413988657845
14424,Ontario County,NY,NA,0.1358695652173913,NA
14450,Monroe County,NY,NA,NA,3.9697542533081283
14514,Monroe County,NY,68.9795918367347,NA,NA
14569,Wyoming County,NY,NA,NA,86.76748582230623
14616,Monroe County,NY,3.6734693877551026,NA,NA
14623,Monroe County,NY,NA,23.641304347826086,NA
14701,Chautauqua County,NY,NA,NA,11.342155009451796
14727,Allegany County,NY,74.6938775510204,NA,NA
14733,Chautauqua County,NY,84.6938775510204,NA,NA
14845,Chemung County,NY,48.775510204081634,NA,NA
14867,Tompkins County,NY,NA,60.05434782608695,NA
27011,Yadkin County,NC,NA,NA,59.54631379962193
27012,Forsyth County,NC,32.04081632653061,2.717391304347826,NA
27025,Rockingham County,NC,NA,79.61956521739131,NA
27103,Forsyth County,NC,NA,8.016304347826086,NA
27105,Forsyth County,NC,NA,1.6304347826086956,NA
27106,Forsyth County,NC,14.081632653061224,NA,NA
27107,Forsyth County,NC,NA,26.222826086956523,1.1342155009451798
27203,Randolph County,NC,92.65306122448979,NA,NA
27217,Alamance County,NC,44.69387755102041,NA,NA
27265,Guilford County,NC,NA,14.130434782608695,NA
27306,Montgomery County,NC,73.67346938775509,NA,NA
27341,Randolph County,NC,NA,NA,97.73156899810964
27401,Guilford County,NC,80,NA,NA
27403,Guilford County,NC,NA,94.83695652173914,NA
27405,Guilford County,NC,NA,NA,22.306238185255197
27406,Guilford County,NC,4.6938775510204085,NA,NA
27502,Wake County,NC,NA,NA,55.3875236294896
27510,Orange County,NC,61.224489795918366,NA,NA
27519,Wake County,NC,NA,56.1141304347826,NA
27520,Johnston County,NC,NA,34.78260869565217,NA
27525,Franklin County,NC,57.75510204081633,NA,NA
27527,Johnston County,NC,NA,NA,67.67485822306239
27530,Wayne County,NC,NA,22.01086956521739,NA
27534,Wayne County,NC,36.3265306122449,NA,NA
27545,Wake County,NC,NA,51.49456521739131,NA
27549,Franklin County,NC,NA,35.05434782608695,NA
27591,Wake County,NC,58.16326530612245,NA,NA
27703,Durham County,NC,12.244897959183673,NA,NA
27707,Durham County,NC,NA,60.733695652173914,NA
27803,Nash County,NC,NA,NA,97.92060491493385
27909,Pasquotank County,NC,NA,NA,18.525519848771268
27932,Chowan County,NC,NA,46.46739130434783,NA
27983,Bertie County,NC,NA,NA,36.86200378071834
28023,Rowan County,NC,NA,58.42391304347826,NA
28043,Rutherford County,NC,85.10204081632654,42.119565217391305,NA
28075,Cabarrus County,NC,NA,75.67934782608695,NA
28092,Lincoln County,NC,NA,12.364130434782608,NA
28110,Union County,NC,23.06122448979592,NA,14.177693761814744
28146,Rowan County,NC,NA,46.19565217391305,NA
28147,Rowan County,NC,66.73469387755102,NA,NA
28210,Mecklenburg County,NC,54.08163265306123,NA,NA
28212,Mecklenburg County,NC,26.122448979591837,NA,NA
28213,Mecklenburg County,NC,28.775510204081634,NA,NA
28216,Mecklenburg County,NC,NA,52.58152173913043,62.38185255198487
28270,Mecklenburg County,NC,NA,47.14673913043478,NA
28304,Cumberland County,NC,NA,46.73913043478261,NA
28314,Cumberland County,NC,32.244897959183675,NA,NA
28365,Wayne County,NC,NA,NA,78.0718336483932
28390,Harnett County,NC,NA,67.79891304347827,NA
28401,New Hanover County,NC,NA,34.51086956521739,NA
28405,New Hanover County,NC,NA,NA,53.119092627599244
28411,New Hanover County,NC,38.9795918367347,NA,NA
28425,Pender County,NC,NA,62.90760869565217,NA
28512,Carteret County,NC,NA,NA,92.81663516068053
28546,Onslow County,NC,NA,51.08695652173913,NA
28625,Iredell County,NC,16.93877551020408,19.70108695652174,NA
28673,Catawba County,NC,NA,90.35326086956522,NA
28711,Buncombe County,NC,88.36734693877551,NA,NA
28712,Transylvania County,NC,51.02040816326531,NA,NA
28719,Jackson County,NC,NA,64.67391304347827,NA
28786,Haywood County,NC,NA,19.157608695652172,NA
28791,Henderson County,NC,NA,NA,13.42155009451796
28792,Henderson County,NC,NA,64.40217391304348,NA
28803,Buncombe County,NC,52.04081632653062,NA,NA
58504,Burleigh County,ND,NA,NA,18.336483931947072
58701,Ward County,ND,NA,8.152173913043478,NA
58703,Ward County,ND,45.102040816326536,NA,61.62570888468809
43019,Knox County,OH,73.46938775510205,NA,NA
43021,Delaware County,OH,NA,NA,93.95085066162571
43031,Licking County,OH,NA,NA,85.44423440453687
43055,Licking County,OH,NA,NA,2.0793950850661624
43062,Licking County,OH,37.55102040816327,NA,NA
43068,Franklin County,OH,NA,10.326086956521738,NA
43082,Delaware County,OH,NA,41.84782608695652,NA
43103,Pickaway County,OH,NA,71.05978260869566,NA
43213,Franklin County,OH,11.428571428571429,NA,NA
43229,Franklin County,OH,NA,7.880434782608696,NA
43230,Franklin County,OH,NA,NA,22.873345935727787
43338,Morrow County,OH,NA,62.3641304347826,NA
43402,Wood County,OH,NA,14.673913043478262,NA
43450,Wood County,OH,NA,99.18478260869566,NA
43616,Lucas County,OH,74.08163265306122,NA,NA
43620,Lucas County,OH,73.26530612244898,NA,NA
43701,Muskingum County,OH,NA,NA,0.3780718336483932
44003,Ashtabula County,OH,NA,77.85326086956522,NA
44012,Lorain County,OH,NA,5.706521739130435,NA
44035,Lorain County,OH,0.40816326530612246,NA,NA
44060,Lake County,OH,NA,NA,0.1890359168241966
44076,Ashtabula County,OH,81.0204081632653,NA,NA
44090,Lorain County,OH,60.816326530612244,NA,NA
44104,Cuyahoga County,OH,NA,NA,81.47448015122873
44127,Cuyahoga County,OH,64.48979591836735,NA,NA
44128,Cuyahoga County,OH,NA,NA,0.7561436672967864
44136,Cuyahoga County,OH,NA,NA,13.043478260869565
44138,Cuyahoga County,OH,NA,NA,23.062381852551987
44144,Cuyahoga County,OH,NA,6.657608695652175,NA
44203,Summit County,OH,47.14285714285714,NA,4.725897920604915
44221,Summit County,OH,15.714285714285714,NA,NA
44223,Summit County,OH,NA,54.347826086956516,NA
44230,Wayne County,OH,NA,NA,84.49905482041588
44241,Portage County,OH,NA,22.554347826086957,NA
44312,Summit County,OH,NA,41.30434782608695,22.68431001890359
44320,Summit County,OH,16.73469387755102,18.342391304347828,NA
44406,Mahoning County,OH,NA,30.027173913043477,NA
44432,Columbiana County,OH,NA,74.45652173913044,NA
44460,Columbiana County,OH,NA,NA,22.117202268431
44484,Trumbull County,OH,NA,11.548913043478262,NA
44511,Mahoning County,OH,NA,69.97282608695652,NA
44512,Mahoning County,OH,NA,NA,15.500945179584122
44514,Mahoning County,OH,NA,32.065217391304344,NA
44515,Mahoning County,OH,NA,11.005434782608695,17.76937618147448
44663,Tuscarawas County,OH,NA,17.66304347826087,NA
44685,Summit County,OH,46.93877551020408,NA,NA
44691,Wayne County,OH,NA,4.211956521739131,11.720226843100189
44708,Stark County,OH,29.795918367346943,NA,NA
44813,Richland County,OH,79.38775510204081,83.83152173913044,NA
44820,Crawford County,OH,NA,44.29347826086957,NA
44830,Seneca County,OH,NA,32.33695652173913,NA
44833,Crawford County,OH,NA,17.934782608695652,NA
44883,Seneca County,OH,17.346938775510203,NA,NA
45005,Warren County,OH,35.10204081632653,17.391304347826086,NA
45011,Butler County,OH,NA,2.0380434782608696,NA
45014,Butler County,OH,46.53061224489796,NA,NA
45056,Butler County,OH,70.20408163265306,NA,72.2117202268431
45171,Brown County,OH,NA,87.5,NA
45202,Hamilton County,OH,NA,NA,84.68809073724007
45211,Hamilton County,OH,NA,32.20108695652174,NA
45214,Hamilton County,OH,49.795918367346935,NA,NA
45215,Hamilton County,OH,NA,38.72282608695652,31.190926275992435
45229,Hamilton County,OH,31.63265306122449,NA,NA
45230,Hamilton County,OH,NA,51.358695652173914,NA
45238,Hamilton County,OH,NA,53.53260869565217,NA
45239,Hamilton County,OH,16.3265306122449,NA,NA
45240,Hamilton County,OH,27.55102040816326,45.92391304347826,NA
45251,Hamilton County,OH,53.46938775510204,NA,76.37051039697542
45305,Greene County,OH,NA,NA,86.57844990548205
45338,Preble County,OH,NA,91.71195652173914,NA
45342,Montgomery County,OH,12.448979591836734,74.86413043478261,NA
45365,Shelby County,OH,13.061224489795919,NA,NA
45373,Miami County,OH,7.755102040816326,11.277173913043478,NA
45381,Preble County,OH,NA,76.49456521739131,NA
45385,Greene County,OH,NA,7.608695652173914,7.750472589792061
45403,Montgomery County,OH,84.48979591836735,NA,NA
45410,Montgomery County,OH,NA,65.76086956521739,NA
45414,Montgomery County,OH,NA,53.940217391304344,NA
45431,Montgomery County,OH,NA,NA,37.42911153119093
45432,Greene County,OH,NA,NA,88.65784499054821
45449,Montgomery County,OH,NA,50,NA
45458,Montgomery County,OH,40.61224489795918,45.78804347826087,NA
45459,Montgomery County,OH,NA,59.78260869565217,NA
45656,Jackson County,OH,NA,NA,92.06049149338375
45660,Adams County,OH,74.48979591836735,NA,NA
45662,Scioto County,OH,NA,NA,1.890359168241966
45669,Lawrence County,OH,18.16326530612245,NA,NA
45693,Adams County,OH,50,NA,NA
45694,Scioto County,OH,NA,22.96195652173913,NA
45769,Meigs County,OH,NA,NA,66.72967863894141
73030,Murray County,OK,85.91836734693878,NA,NA
73089,Grady County,OK,NA,67.52717391304348,NA
73111,Oklahoma County,OK,65.91836734693878,NA,NA
73119,Oklahoma County,OK,23.6734693877551,NA,NA
73130,Oklahoma County,OK,NA,NA,65.78449905482042
73507,Comanche County,OK,NA,32.47282608695652,NA
73703,Garfield County,OK,NA,17.79891304347826,NA
73750,Kingfisher County,OK,NA,NA,95.65217391304348
74010,Creek County,OK,90,NA,NA
74019,Rogers County,OK,NA,NA,72.77882797731569
74044,Creek County,OK,NA,88.31521739130434,NA
74075,Payne County,OK,NA,61.41304347826087,NA
74133,Tulsa County,OK,NA,22.146739130434785,NA
74361,Mayes County,OK,NA,NA,81.09640831758034
74501,Pittsburg County,OK,NA,NA,33.459357277882795
74578,Latimer County,OK,97.34693877551021,NA,NA
74953,Le Flore County,OK,83.87755102040816,NA,NA
74955,Sequoyah County,OK,NA,57.88043478260869,NA
97080,Multnomah County,OR,NA,20.78804347826087,NA
97219,Multnomah County,OR,62.244897959183675,NA,NA
97239,Multnomah County,OR,NA,NA,58.034026465028354
97301,Marion County,OR,13.46938775510204,NA,NA
97305,Marion County,OR,28.163265306122447,NA,NA
97405,Lane County,OR,NA,NA,49.33837429111531
97439,Lane County,OR,NA,NA,16.446124763705104
97601,Klamath County,OR,NA,NA,40.64272211720227
97702,Deschutes County,OR,NA,40.21739130434783,NA
97756,Deschutes County,OR,NA,NA,37.051039697542535
97760,Jefferson County,OR,NA,NA,97.54253308128544
15026,Beaver County,PA,100,NA,NA
15122,Allegheny County,PA,NA,85.32608695652173,NA
15132,Allegheny County,PA,NA,25.543478260869566,NA
15139,Allegheny County,PA,NA,NA,62.75992438563327
15146,Allegheny County,PA,NA,NA,27.977315689981097
15206,Allegheny County,PA,NA,22.146739130434785,NA
15208,Allegheny County,PA,NA,NA,60.86956521739131
15221,Allegheny County,PA,NA,NA,15.689981096408317
15236,Allegheny County,PA,NA,31.657608695652172,NA
15632,Westmoreland County,PA,NA,NA,60.113421550094515
15801,Clearfield County,PA,9.183673469387756,NA,NA
15902,Cambria County,PA,45.30612244897959,NA,NA
16146,Mercer County,PA,NA,76.7663043478261,NA
16417,Erie County,PA,NA,NA,87.33459357277883
16438,Erie County,PA,NA,72.55434782608695,NA
16504,Erie County,PA,NA,NA,66.351606805293
16823,Centre County,PA,NA,16.71195652173913,NA
16870,Centre County,PA,97.14285714285714,NA,NA
17013,Cumberland County,PA,NA,NA,17.76937618147448
17036,Dauphin County,PA,NA,NA,25.14177693761815
17046,Lebanon County,PA,NA,25.271739130434785,NA
17109,Dauphin County,PA,27.346938775510203,NA,29.489603024574667
17111,Dauphin County,PA,NA,5.434782608695652,NA
17201,Franklin County,PA,39.38775510204081,NA,NA
17316,Adams County,PA,76.32653061224491,NA,NA
17331,York County,PA,7.959183673469387,NA,NA
17345,York County,PA,NA,76.3586956521739,NA
17402,York County,PA,19.183673469387756,NA,NA
17777,Northumberland County,PA,91.83673469387756,NA,NA
17837,Union County,PA,NA,42.52717391304348,NA
18042,Northampton County,PA,6.122448979591836,NA,NA
18052,Lehigh County,PA,NA,NA,20.793950850661624
18078,Lehigh County,PA,94.6938775510204,NA,NA
18103,Lehigh County,PA,5.918367346938775,NA,NA
18201,Luzerne County,PA,NA,25.815217391304344,NA
18235,Carbon County,PA,NA,NA,35.916824196597354
18353,Monroe County,PA,87.34693877551021,NA,NA
18360,Monroe County,PA,30.408163265306122,11.956521739130435,14.366729678638942
18403,Lackawanna County,PA,NA,83.42391304347827,NA
18431,Wayne County,PA,NA,57.608695652173914,NA
18472,Wayne County,PA,NA,90.625,NA
18509,Lackawanna County,PA,NA,NA,67.86389413988658
18643,Luzerne County,PA,NA,NA,49.9054820415879
18704,Luzerne County,PA,NA,NA,57.84499054820416
18707,Luzerne County,PA,NA,NA,42.15500945179584
19007,Bucks County,PA,26.53061224489796,NA,NA
19020,Bucks County,PA,9.387755102040817,NA,NA
19027,Montgomery County,PA,76.53061224489795,NA,23.440453686200378
19033,Delaware County,PA,NA,NA,92.24952741020795
19124,Philadelphia County,PA,NA,10.46195652173913,NA
19131,Philadelphia County,PA,28.97959183673469,NA,NA
19132,Philadelphia County,PA,NA,15.625,NA
19134,Philadelphia County,PA,3.4693877551020407,NA,NA
19135,Philadelphia County,PA,NA,39.53804347826087,NA
19139,Philadelphia County,PA,NA,5.978260869565218,NA
19141,Philadelphia County,PA,8.979591836734693,NA,NA
19151,Philadelphia County,PA,15.10204081632653,NA,NA
19154,Philadelphia County,PA,NA,NA,28.544423440453688
19312,Chester County,PA,NA,NA,98.10964083175804
19320,Chester County,PA,11.224489795918368,NA,NA
19330,Chester County,PA,NA,NA,93.19470699432893
19343,Chester County,PA,96.93877551020408,NA,NA
19382,Chester County,PA,NA,NA,17.580340264650285
19401,Montgomery County,PA,NA,60.190217391304344,NA
19428,Montgomery County,PA,NA,NA,73.53497164461248
19475,Chester County,PA,78.16326530612245,NA,72.4007561436673
19525,Montgomery County,PA,70.81632653061224,NA,NA
19547,Berks County,PA,NA,89.40217391304348,NA
19601,Berks County,PA,17.959183673469386,NA,NA
19602,Berks County,PA,12.653061224489795,NA,NA
19605,Berks County,PA,32.6530612244898,NA,NA
02813,Washington County,RI,NA,67.93478260869566,NA
02816,Kent County,RI,NA,14.402173913043478,NA
02852,Washington County,RI,NA,81.38586956521739,NA
02860,Providence County,RI,NA,NA,3.780718336483932
02879,Washington County,RI,NA,NA,31.947069943289225
02882,Washington County,RI,NA,NA,34.593572778827976
02885,Bristol County,RI,NA,NA,74.85822306238185
02888,Kent County,RI,NA,NA,40.831758034026464
29016,Richland County,SC,NA,78.80434782608695,NA
29053,Lexington County,SC,56.53061224489796,NA,NA
29073,Lexington County,SC,72.85714285714285,NA,NA
29108,Newberry County,SC,57.55102040816327,NA,NA
29154,Sumter County,SC,52.6530612244898,91.30434782608695,NA
29206,Richland County,SC,NA,NA,94.7069943289225
29212,Lexington County,SC,NA,NA,50.85066162570888
29316,Spartanburg County,SC,40.816326530612244,NA,NA
29360,Laurens County,SC,NA,NA,62.19281663516069
29420,Dorchester County,SC,NA,81.79347826086956,NA
29455,Charleston County,SC,NA,71.46739130434783,NA
29461,Berkeley County,SC,NA,34.91847826086957,NA
29485,Dorchester County,SC,NA,NA,44.234404536862
29526,Horry County,SC,NA,10.733695652173914,NA
29560,Florence County,SC,NA,69.02173913043478,NA
29569,Horry County,SC,47.95918367346938,61.54891304347826,NA
29572,Horry County,SC,NA,86.41304347826086,78.44990548204159
29574,Marion County,SC,NA,66.9836956521739,NA
29642,Pickens County,SC,NA,NA,27.410207939508506
29666,Greenwood County,SC,NA,NA,89.60302457466919
29671,Pickens County,SC,NA,NA,35.16068052930057
29681,Greenville County,SC,NA,14.673913043478262,NA
29687,Greenville County,SC,81.83673469387756,NA,NA
29710,York County,SC,NA,NA,48.77126654064272
29909,Beaufort County,SC,NA,16.847826086956523,NA
57033,Minnehaha County,SD,98.77551020408163,NA,NA
57104,Minnehaha County,SD,31.428571428571427,NA,NA
57301,Davison County,SD,NA,NA,60.49149338374291
37055,Dickson County,TN,57.95918367346938,NA,NA
37064,Williamson County,TN,48.36734693877551,NA,NA
37066,Sumner County,TN,NA,8.967391304347826,NA
37069,Williamson County,TN,NA,NA,88.09073724007561
37082,Cheatham County,TN,96.53061224489797,NA,NA
37086,Rutherford County,TN,NA,63.58695652173913,NA
37087,Wilson County,TN,17.142857142857142,27.03804347826087,NA
37128,Rutherford County,TN,NA,NA,65.97353497164461
37138,Davidson County,TN,52.244897959183675,NA,90.17013232514176
37172,Robertson County,TN,16.122448979591837,NA,54.44234404536862
37174,Williamson County,TN,79.59183673469387,NA,NA
37209,Davidson County,TN,NA,NA,87.90170132325142
37210,Davidson County,TN,60,NA,NA
37217,Davidson County,TN,44.48979591836735,NA,NA
37312,Bradley County,TN,NA,50.54347826086957,NA
37323,Bradley County,TN,43.06122448979592,NA,NA
37324,Franklin County,TN,NA,92.93478260869566,NA
37385,Monroe County,TN,NA,62.90760869565217,NA
37387,Grundy County,TN,NA,NA,100
37620,Sullivan County,TN,NA,17.119565217391305,NA
37641,Greene County,TN,NA,60.86956521739131,NA
37659,Washington County,TN,NA,NA,25.330812854442343
37737,Blount County,TN,91.63265306122449,NA,NA
37743,Greene County,TN,63.469387755102034,28.125,NA
37748,Roane County,TN,35.714285714285715,NA,NA
37762,Campbell County,TN,99.38775510204081,NA,NA
37801,Blount County,TN,NA,12.771739130434783,NA
37885,Monroe County,TN,NA,84.51086956521739,NA
37912,Knox County,TN,NA,58.152173913043484,NA
37923,Knox County,TN,NA,42.255434782608695,NA
37932,Knox County,TN,83.06122448979592,NA,NA
38105,Shelby County,TN,88.57142857142857,NA,NA
38114,Shelby County,TN,23.26530612244898,NA,NA
38115,Shelby County,TN,24.081632653061224,NA,NA
38127,Shelby County,TN,10.816326530612246,NA,NA
38462,Lewis County,TN,NA,80.84239130434783,NA
38551,Clay County,TN,NA,NA,98.48771266540642
38555,Cumberland County,TN,NA,41.440217391304344,NA
38558,Cumberland County,TN,NA,NA,39.31947069943289
38570,Overton County,TN,NA,69.02173913043478,NA
75007,Denton County,TX,NA,NA,34.78260869565217
75019,Dallas County,TX,NA,92.11956521739131,NA
75021,Grayson County,TX,NA,NA,80.71833648393195
75044,Dallas County,TX,55.306122448979586,31.11413043478261,NA
75051,Dallas County,TX,NA,NA,68.43100189035917
75068,Denton County,TX,33.46938775510204,NA,NA
75074,Collin County,TX,NA,33.96739130434783,NA
75077,Denton County,TX,45.714285714285715,NA,NA
75092,Grayson County,TX,NA,NA,50.472589792060496
75098,Collin County,TX,22.857142857142858,NA,NA
75126,Kaufman County,TX,33.265306122448976,44.42934782608695,NA
75143,Henderson County,TX,NA,NA,89.22495274102079
75147,Kaufman County,TX,89.59183673469387,NA,NA
75160,Kaufman County,TX,NA,55.70652173913043,NA
75208,Dallas County,TX,63.87755102040816,NA,NA
75211,Dallas County,TX,19.387755102040817,24.320652173913043,40.26465028355388
75215,Dallas County,TX,30,NA,55.576559546313796
75216,Dallas County,TX,30.612244897959183,NA,7.372400756143667
75232,Dallas County,TX,NA,43.88586956521739,NA
75241,Dallas County,TX,NA,35.46195652173913,NA
75287,Denton County,TX,NA,NA,88.84688090737241
75559,Bowie County,TX,NA,89.94565217391305,NA
75657,Marion County,TX,NA,NA,91.30434782608695
75703,Smith County,TX,NA,3.260869565217391,NA
75762,Smith County,TX,77.9591836734694,NA,NA
75763,Anderson County,TX,96.73469387755102,NA,NA
75791,Smith County,TX,NA,NA,30.812854442344044
75935,Shelby County,TX,NA,80.29891304347827,NA
75972,San Augustine County,TX,72.0408163265306,NA,NA
76016,Tarrant County,TX,67.55102040816327,NA,NA
76022,Tarrant County,TX,NA,82.74456521739131,NA
76049,Hood County,TX,NA,NA,25.708884688090738
76051,Tarrant County,TX,33.6734693877551,37.63586956521739,NA
76052,Tarrant County,TX,84.28571428571429,NA,NA
76063,Tarrant County,TX,15.510204081632653,NA,NA
76065,Ellis County,TX,NA,37.77173913043478,NA
76092,Tarrant County,TX,NA,63.45108695652174,NA
76103,Tarrant County,TX,65.91836734693878,NA,NA
76110,Tarrant County,TX,NA,NA,52.74102079395085
76112,Tarrant County,TX,83.6734693877551,NA,NA
76119,Tarrant County,TX,NA,7.065217391304348,27.032136105860115
76123,Tarrant County,TX,48.97959183673469,NA,NA
76131,Tarrant County,TX,51.42857142857142,NA,NA
76133,Tarrant County,TX,19.591836734693878,23.233695652173914,NA
76148,Tarrant County,TX,NA,NA,90.54820415879017
76179,Tarrant County,TX,NA,NA,57.088846880907376
76182,Tarrant County,TX,NA,36.005434782608695,NA
76208,Denton County,TX,62.44897959183674,NA,NA
76234,Wise County,TX,NA,NA,66.91871455576559
76248,Tarrant County,TX,65.51020408163265,NA,NA
76431,Wise County,TX,NA,98.2336956521739,NA
76504,Bell County,TX,11.63265306122449,NA,2.835538752362949
76801,Brown County,TX,NA,48.505434782608695,83.36483931947069
76905,Tom Green County,TX,NA,94.02173913043478,NA
77056,Harris County,TX,NA,NA,46.31379962192816
77065,Harris County,TX,NA,NA,38.9413988657845
77072,Harris County,TX,NA,NA,79.77315689981096
77078,Harris County,TX,NA,64.2663043478261,NA
77083,Harris County,TX,NA,NA,33.0812854442344
77302,Montgomery County,TX,NA,NA,58.034026465028354
77346,Harris County,TX,22.040816326530614,NA,NA
77362,Montgomery County,TX,95.51020408163265,NA,NA
77365,Montgomery County,TX,NA,NA,93.57277882797732
77381,Montgomery County,TX,NA,38.315217391304344,NA
77385,Montgomery County,TX,NA,NA,89.98109640831758
77388,Harris County,TX,NA,NA,64.27221172022685
77418,Austin County,TX,NA,96.19565217391305,NA
77433,Harris County,TX,NA,19.83695652173913,NA
77450,Harris County,TX,NA,20.380434782608695,NA
77469,Fort Bend County,TX,31.020408163265305,NA,NA
77498,Fort Bend County,TX,NA,94.56521739130434,NA
77511,Brazoria County,TX,NA,12.092391304347826,NA
77514,Chambers County,TX,NA,90.76086956521739,99.4328922495274
77539,Galveston County,TX,21.020408163265305,NA,31.001890359168243
77545,Fort Bend County,TX,NA,NA,93.19470699432893
77586,Harris County,TX,NA,67.3913043478261,91.87145557655954
77590,Galveston County,TX,14.489795918367346,NA,NA
77591,Galveston County,TX,56.734693877551024,NA,NA
77611,Orange County,TX,NA,85.46195652173914,NA
77612,Jasper County,TX,NA,79.8913043478261,NA
77642,Jefferson County,TX,NA,34.64673913043478,NA
77703,Jefferson County,TX,NA,NA,93.57277882797732
77705,Jefferson County,TX,45.51020408163266,65.08152173913044,NA
77802,Brazos County,TX,NA,20.92391304347826,9.073724007561438
77901,Victoria County,TX,NA,NA,27.22117202268431
77984,Lavaca County,TX,NA,90.76086956521739,NA
78028,Kerr County,TX,NA,NA,6.049149338374291
78108,Guadalupe County,TX,73.87755102040816,NA,NA
78109,Bexar County,TX,NA,86.82065217391305,NA
78130,Comal County,TX,23.877551020408163,58.69565217391305,NA
78155,Guadalupe County,TX,25.30612244897959,NA,NA
78213,Bexar County,TX,47.95918367346938,NA,NA
78223,Bexar County,TX,NA,31.793478260869566,NA
78228,Bexar County,TX,NA,NA,24.196597353497165
78233,Bexar County,TX,NA,57.33695652173913,NA
78237,Bexar County,TX,31.83673469387755,NA,NA
78251,Bexar County,TX,NA,NA,87.71266540642722
78355,Brooks County,TX,NA,NA,96.40831758034027
78363,Kleberg County,TX,59.38775510204082,NA,NA
78408,Nueces County,TX,86.3265306122449,NA,NA
78414,Nueces County,TX,NA,86.54891304347827,NA
78415,Nueces County,TX,NA,NA,57.27788279773157
78418,Nueces County,TX,NA,79.75543478260869,NA
78504,Hidalgo County,TX,NA,NA,59.92438563327032
78550,Cameron County,TX,NA,NA,28.544423440453688
78573,Hidalgo County,TX,NA,49.86413043478261,NA
78582,Starr County,TX,69.18367346938776,NA,NA
78613,Williamson County,TX,NA,NA,5.103969754253308
78644,Caldwell County,TX,94.6938775510204,NA,NA
78664,Williamson County,TX,NA,36.95652173913043,NA
78717,Williamson County,TX,NA,97.41847826086956,NA
78945,Fayette County,TX,NA,NA,73.72400756143668
79410,Lubbock County,TX,NA,97.82608695652173,NA
79416,Lubbock County,TX,NA,58.559782608695656,NA
79512,Mitchell County,TX,NA,86.95652173913044,NA
79549,Scurry County,TX,NA,78.66847826086956,NA
79762,Ector County,TX,NA,42.934782608695656,NA
79915,El Paso County,TX,NA,NA,13.610586011342155
84025,Davis County,UT,77.3469387755102,92.66304347826086,NA
84032,Wasatch County,UT,NA,79.21195652173914,NA
84041,Davis County,UT,NA,88.04347826086956,NA
84043,Utah County,UT,NA,70.5163043478261,NA
84044,Salt Lake County,UT,NA,89.67391304347827,NA
84078,Uintah County,UT,NA,NA,72.96786389413988
84093,Salt Lake County,UT,NA,NA,65.02835538752363
84098,Summit County,UT,NA,50.27173913043478,NA
84108,Salt Lake County,UT,NA,NA,36.10586011342155
84128,Salt Lake County,UT,41.42857142857143,70.78804347826086,NA
84404,Weber County,UT,21.428571428571427,NA,NA
84663,Utah County,UT,NA,96.46739130434783,NA
05156,Windsor County,VT,NA,66.30434782608695,NA
05401,Chittenden County,VT,NA,50.40760869565217,NA
05443,Addison County,VT,NA,77.17391304347827,NA
05450,Franklin County,VT,NA,NA,96.78638941398866
05491,Addison County,VT,NA,NA,86.01134215500946
05855,Orleans County,VT,NA,81.25,NA
20110,Manassas city,VA,37.3469387755102,NA,NA
20120,Fairfax County,VA,NA,78.26086956521739,NA
20165,Loudoun County,VA,70.81632653061224,NA,NA
20171,Fairfax County,VA,NA,91.57608695652173,NA
20175,Loudoun County,VA,NA,NA,45.36862003780718
20186,Fauquier County,VA,NA,NA,65.02835538752363
22026,Prince William County,VA,NA,87.77173913043478,NA
22030,Fairfax County,VA,81.22448979591836,NA,41.77693761814745
22033,Fairfax County,VA,NA,64.53804347826086,NA
22153,Fairfax County,VA,NA,85.05434782608695,NA
22180,Fairfax County,VA,NA,NA,64.65028355387523
22191,Prince William County,VA,NA,32.880434782608695,NA
22192,Prince William County,VA,NA,NA,89.79206049149339
22206,Arlington County,VA,58.77551020408164,NA,NA
22314,Alexandria city,VA,32.44897959183673,NA,NA
22482,Lancaster County,VA,NA,NA,84.12098298676749
22560,Essex County,VA,NA,NA,80.90737240075615
22802,Harrisonburg city,VA,58.36734693877551,NA,NA
22902,Charlottesville city,VA,NA,NA,38.752362948960304
23040,Cumberland County,VA,NA,96.05978260869566,NA
23061,Gloucester County,VA,NA,40.35326086956522,NA
23075,Henrico County,VA,64.89795918367346,NA,NA
23111,Hanover County,VA,NA,NA,74.66918714555766
23116,Hanover County,VA,NA,57.065217391304344,NA
23141,New Kent County,VA,NA,84.64673913043478,NA
23223,Henrico County,VA,NA,11.684782608695652,NA
23229,Henrico County,VA,NA,NA,20.982986767485823
23452,Virginia Beach city,VA,NA,NA,7.183364839319471
23455,Virginia Beach city,VA,NA,8.695652173913043,0.5671077504725899
23456,Virginia Beach city,VA,NA,9.510869565217392,NA
23462,Virginia Beach city,VA,18.775510204081634,NA,NA
23505,Norfolk city,VA,NA,33.559782608695656,NA
23518,Norfolk city,VA,NA,NA,16.824196597353495
23847,Greensville County,VA,NA,68.75,NA
24014,Roanoke city,VA,NA,31.521739130434785,NA
24016,Roanoke city,VA,55.10204081632652,NA,NA
24055,Henry County,VA,NA,NA,64.83931947069944
24091,Floyd County,VA,95.71428571428572,NA,NA
24121,Bedford County,VA,NA,61.277173913043484,NA
24179,Roanoke County,VA,NA,47.28260869565217,NA
24201,Bristol city,VA,46.12244897959184,78.39673913043478,NA
24354,Smyth County,VA,NA,40.76086956521739,NA
24368,Wythe County,VA,NA,95.1086956521739,NA
24431,Augusta County,VA,NA,99.72826086956522,NA
24504,Lynchburg city,VA,60,NA,NA
24614,Buchanan County,VA,NA,75.27173913043478,NA
24639,Tazewell County,VA,98.36734693877551,NA,NA
24641,Tazewell County,VA,82.85714285714286,NA,NA
24651,Tazewell County,VA,NA,84.78260869565217,NA
98010,King County,WA,90.81632653061224,NA,NA
98012,Snohomish County,WA,NA,29.483695652173914,NA
98198,King County,WA,NA,30.434782608695656,NA
98236,Island County,WA,NA,80.43478260869566,NA
98292,Snohomish County,WA,63.26530612244898,NA,NA
98321,Pierce County,WA,NA,NA,82.98676748582231
98329,Pierce County,WA,77.14285714285715,NA,NA
98332,Pierce County,WA,89.79591836734694,NA,82.6086956521739
98335,Pierce County,WA,NA,36.54891304347826,NA
98354,Pierce County,WA,NA,73.91304347826086,NA
98360,Pierce County,WA,75.51020408163265,NA,NA
98367,Kitsap County,WA,NA,50.1358695652174,NA
98370,Kitsap County,WA,NA,43.75,NA
98382,Clallam County,WA,NA,1.358695652173913,NA
98387,Pierce County,WA,NA,24.728260869565215,NA
98403,Pierce County,WA,NA,98.36956521739131,NA
98407,Pierce County,WA,NA,49.45652173913043,NA
98445,Pierce County,WA,NA,58.96739130434783,NA
98467,Pierce County,WA,NA,73.09782608695652,NA
98532,Lewis County,WA,NA,NA,58.79017013232514
98584,Mason County,WA,34.89795918367347,NA,NA
98604,Clark County,WA,NA,NA,59.73534971644613
98611,Cowlitz County,WA,NA,75.95108695652173,NA
98626,Cowlitz County,WA,NA,68.61413043478261,NA
98632,Cowlitz County,WA,NA,3.940217391304348,NA
98660,Clark County,WA,NA,NA,94.5179584120983
98672,Klickitat County,WA,NA,98.6413043478261,NA
99205,Spokane County,WA,42.44897959183673,NA,NA
99324,Walla Walla County,WA,NA,NA,67.86389413988658
99336,Benton County,WA,NA,0.8152173913043478,3.402646502835539
20002,District of Columbia,DC,NA,7.201086956521739,NA
20007,District of Columbia,DC,NA,NA,69.75425330812854
20009,District of Columbia,DC,NA,47.82608695652174,NA
20019,District of Columbia,DC,NA,3.6684782608695654,NA
25130,Boone County,WV,NA,87.09239130434783,NA
25411,Morgan County,WV,92.85714285714286,NA,NA
25414,Jefferson County,WV,86.73469387755102,NA,NA
25427,Berkeley County,WV,NA,NA,73.91304347826086
25428,Berkeley County,WV,NA,96.875,NA
25438,Jefferson County,WV,NA,NA,91.68241965973534
25550,Mason County,WV,NA,NA,36.29489603024575
25704,Wayne County,WV,NA,38.858695652173914,NA
26003,Ohio County,WV,NA,NA,1.7013232514177694
26062,Hancock County,WV,NA,27.309782608695656,NA
26431,Harrison County,WV,NA,NA,78.63894139886578
26505,Monongalia County,WV,NA,36.684782608695656,NA
26508,Monongalia County,WV,5.714285714285714,4.619565217391304,NA
26537,Preston County,WV,57.3469387755102,63.858695652173914,NA
26554,Marion County,WV,5.3061224489795915,NA,NA
53045,Waukesha County,WI,NA,49.59239130434783,NA
53066,Waukesha County,WI,NA,11.141304347826086,NA
53089,Waukesha County,WI,NA,NA,75.99243856332704
53118,Waukesha County,WI,93.6734693877551,NA,NA
53146,Waukesha County,WI,NA,NA,79.20604914933837
53172,Milwaukee County,WI,NA,NA,30.623818525519848
53179,Kenosha County,WI,67.9591836734694,NA,NA
53181,Kenosha County,WI,61.0204081632653,NA,NA
53206,Milwaukee County,WI,NA,10.190217391304348,NA
53209,Milwaukee County,WI,2.857142857142857,NA,NA
53210,Milwaukee County,WI,8.775510204081632,NA,NA
53213,Milwaukee County,WI,NA,NA,45.93572778827977
53227,Milwaukee County,WI,NA,NA,17.391304347826086
53405,Racine County,WI,6.938775510204081,NA,NA
53511,Rock County,WI,NA,17.527173913043477,1.3232514177693762
53532,Dane County,WI,NA,88.17934782608695,NA
53546,Rock County,WI,NA,2.8532608695652173,NA
53548,Rock County,WI,27.142857142857142,NA,NA
53559,Dane County,WI,NA,NA,93.00567107750473
53562,Dane County,WI,NA,28.532608695652172,NA
53597,Dane County,WI,59.591836734693885,NA,NA
53705,Dane County,WI,NA,49.184782608695656,11.909262759924385
53818,Grant County,WI,NA,89.2663043478261,NA
53821,Crawford County,WI,NA,81.92934782608695,NA
54121,Florence County,WI,NA,96.60326086956522,NA
54136,Outagamie County,WI,NA,98.77717391304348,NA
54143,Marinette County,WI,NA,57.74456521739131,NA
54151,Marinette County,WI,80.61224489795919,NA,NA
54220,Manitowoc County,WI,NA,NA,8.88468809073724
54241,Manitowoc County,WI,NA,NA,37.99621928166352
54301,Brown County,WI,82.0408163265306,NA,NA
54302,Brown County,WI,28.57142857142857,NA,NA
54304,Brown County,WI,NA,NA,23.251417769376182
54451,Taylor County,WI,NA,NA,53.68620037807184
54494,Wood County,WI,NA,6.114130434782608,18.147448015122876
54646,Juneau County,WI,NA,91.44021739130434,NA
54701,Eau Claire County,WI,NA,24.184782608695652,NA
54853,Polk County,WI,NA,93.61413043478261,NA
54963,Winnebago County,WI,NA,NA,91.30434782608695
54971,Fond du Lac County,WI,NA,53.80434782608695,NA
82501,Fremont County,WY,NA,73.2336956521739,NA
82716,Campbell County,WY,NA,82.88043478260869,NA
