ZipCode,county,state,Adult,Retirement,Geriatric
35004,St. Clair County,AL,94.56869009584665,NA,NA
35062,Jefferson County,AL,NA,82.92181069958848,NA
35217,Jefferson County,AL,NA,78.80658436213992,NA
35226,Jefferson County,AL,NA,NA,24.71590909090909
35401,Tuscaloosa County,AL,NA,NA,52.27272727272727
35405,Tuscaloosa County,AL,10.223642172523961,NA,NA
35406,Tuscaloosa County,AL,NA,78.39506172839506,92.89772727272727
35470,Sumter County,AL,NA,NA,97.1590909090909
35473,Tuscaloosa County,AL,NA,NA,71.30681818181817
35592,Lamar County,AL,NA,94.8559670781893,NA
35661,Colbert County,AL,NA,74.07407407407408,NA
35758,Madison County,AL,NA,NA,31.818181818181817
35759,Madison County,AL,NA,89.30041152263375,NA
35905,Etowah County,AL,NA,93.4156378600823,NA
35907,Etowah County,AL,NA,NA,82.10227272727273
36207,Calhoun County,AL,NA,60.69958847736625,NA
36274,Randolph County,AL,NA,NA,97.72727272727273
36420,Covington County,AL,NA,72.42798353909465,NA
36535,Baldwin County,AL,NA,88.47736625514403,NA
36542,Baldwin County,AL,NA,67.90123456790124,NA
36571,Mobile County,AL,71.56549520766772,NA,NA
36693,Mobile County,AL,NA,NA,65.3409090909091
36830,Lee County,AL,NA,NA,59.94318181818182
85008,Maricopa County,AZ,NA,85.59670781893004,NA
85019,Maricopa County,AZ,37.06070287539936,NA,NA
85022,Maricopa County,AZ,NA,28.39506172839506,50.56818181818182
85028,Maricopa County,AZ,77.63578274760383,63.37448559670782,NA
85053,Maricopa County,AZ,NA,85.18518518518519,NA
85085,Maricopa County,AZ,69.6485623003195,NA,NA
85212,Maricopa County,AZ,57.82747603833865,NA,NA
85331,Maricopa County,AZ,55.27156549520767,NA,NA
85374,Maricopa County,AZ,NA,19.1358024691358,NA
85382,Maricopa County,AZ,NA,NA,16.193181818181817
85635,Cochise County,AZ,NA,51.028806584362144,NA
85641,Pima County,AZ,59.105431309904155,NA,NA
85937,Navajo County,AZ,83.38658146964856,NA,NA
86301,Yavapai County,AZ,NA,30.04115226337449,NA
86314,Yavapai County,AZ,NA,NA,11.931818181818182
86326,Yavapai County,AZ,NA,22.633744855967077,58.80681818181818
86327,Yavapai County,AZ,NA,NA,46.02272727272727
86429,Mohave County,AZ,89.45686900958466,NA,NA
86442,Mohave County,AZ,NA,NA,20.454545454545457
71923,Clark County,AR,NA,65.63786008230453,NA
72117,Pulaski County,AR,NA,NA,81.5340909090909
72120,Pulaski County,AR,75.71884984025559,NA,NA
72404,Craighead County,AR,NA,95.06172839506173,NA
72601,Boone County,AR,NA,NA,19.03409090909091
72653,Baxter County,AR,NA,20.5761316872428,NA
72715,Benton County,AR,NA,61.72839506172839,NA
72756,Benton County,AR,NA,NA,63.63636363636363
72758,Benton County,AR,60.383386581469644,NA,NA
90024,Los Angeles County,CA,NA,NA,7.1022727272727275
90034,Los Angeles County,CA,NA,80.45267489711934,NA
90069,Los Angeles County,CA,54.9520766773163,NA,NA
90210,Los Angeles County,CA,NA,47.73662551440329,NA
90212,Los Angeles County,CA,90.73482428115017,NA,NA
90262,Los Angeles County,CA,69.6485623003195,NA,NA
90266,Los Angeles County,CA,NA,79.62962962962963,NA
90621,Orange County,CA,58.146964856230035,NA,NA
91352,Los Angeles County,CA,NA,NA,63.63636363636363
91355,Los Angeles County,CA,NA,51.23456790123457,NA
91602,Los Angeles County,CA,NA,96.29629629629629,NA
91790,Los Angeles County,CA,89.77635782747603,NA,NA
91911,San Diego County,CA,NA,NA,9.090909090909092
91942,San Diego County,CA,NA,NA,64.77272727272727
91950,San Diego County,CA,35.46325878594249,NA,NA
92009,San Diego County,CA,68.69009584664538,NA,NA
92011,San Diego County,CA,83.70607028753993,NA,NA
92040,San Diego County,CA,NA,26.748971193415638,NA
92056,San Diego County,CA,NA,33.744855967078195,78.69318181818183
92071,San Diego County,CA,NA,NA,24.431818181818183
92111,San Diego County,CA,NA,NA,26.420454545454547
92113,San Diego County,CA,NA,35.80246913580247,NA
92115,San Diego County,CA,NA,43.00411522633745,NA
92128,San Diego County,CA,NA,48.35390946502058,NA
92211,Riverside County,CA,NA,9.053497942386832,NA
92336,San Bernardino County,CA,NA,16.872427983539097,NA
92557,Riverside County,CA,36.102236421725244,NA,NA
92584,Riverside County,CA,46.00638977635783,NA,NA
92626,Orange County,CA,43.76996805111821,NA,NA
92653,Orange County,CA,NA,NA,80.68181818181817
92801,Orange County,CA,NA,NA,42.89772727272727
92806,Orange County,CA,NA,NA,43.75
92807,Orange County,CA,NA,NA,44.60227272727273
92831,Orange County,CA,NA,43.20987654320987,NA
92840,Orange County,CA,NA,38.2716049382716,NA
92868,Orange County,CA,87.53993610223642,NA,NA
92886,Orange County,CA,29.712460063897762,17.901234567901234,NA
93003,Ventura County,CA,17.89137380191693,NA,NA
93021,Ventura County,CA,60.063897763578275,NA,NA
93023,Ventura County,CA,NA,83.9506172839506,NA
93063,Ventura County,CA,NA,25.720164609053498,NA
93065,Ventura County,CA,17.57188498402556,NA,NA
93308,Kern County,CA,NA,NA,42.61363636363637
93312,Kern County,CA,38.019169329073485,NA,NA
93314,Kern County,CA,NA,95.47325102880659,NA
93535,Los Angeles County,CA,NA,39.711934156378604,NA
93551,Los Angeles County,CA,81.15015974440894,NA,NA
93609,Fresno County,CA,96.1661341853035,NA,NA
93618,Tulare County,CA,54.31309904153354,NA,NA
93637,Madera County,CA,NA,91.35802469135803,59.09090909090909
93638,Madera County,CA,19.808306709265175,NA,NA
93644,Madera County,CA,NA,NA,92.61363636363636
93662,Fresno County,CA,NA,71.60493827160494,NA
93711,Fresno County,CA,NA,NA,34.94318181818182
93723,Fresno County,CA,NA,NA,88.63636363636364
93727,Fresno County,CA,NA,25.514403292181072,NA
93933,Monterey County,CA,67.41214057507987,NA,NA
94043,Santa Clara County,CA,NA,69.95884773662551,NA
94062,San Mateo County,CA,NA,NA,49.715909090909086
94066,San Mateo County,CA,NA,NA,13.068181818181818
94087,Santa Clara County,CA,NA,51.64609053497943,NA
94112,San Francisco County,CA,NA,NA,3.6931818181818183
94118,San Francisco County,CA,82.74760383386581,NA,NA
94133,San Francisco County,CA,NA,46.2962962962963,NA
94134,San Francisco County,CA,NA,NA,28.125
94501,Alameda County,CA,NA,44.03292181069959,NA
94509,Contra Costa County,CA,NA,12.757201646090536,NA
94513,Contra Costa County,CA,NA,NA,28.97727272727273
94531,Contra Costa County,CA,NA,51.440329218106996,NA
94549,Contra Costa County,CA,NA,59.67078189300411,NA
94552,Alameda County,CA,NA,NA,95.45454545454545
94556,Contra Costa County,CA,NA,NA,78.97727272727273
94559,Napa County,CA,NA,60.90534979423868,NA
94578,Alameda County,CA,NA,NA,80.11363636363636
94580,Alameda County,CA,NA,NA,61.07954545454546
94590,Solano County,CA,27.79552715654952,63.580246913580254,NA
94603,Alameda County,CA,NA,NA,75.2840909090909
94709,Alameda County,CA,NA,95.26748971193416,NA
94803,Contra Costa County,CA,NA,NA,59.375
94804,Contra Costa County,CA,NA,42.592592592592595,NA
94903,Marin County,CA,NA,NA,78.125
94920,Marin County,CA,NA,81.27572016460906,NA
95014,Santa Clara County,CA,NA,NA,21.306818181818183
95032,Santa Clara County,CA,NA,NA,50.28409090909091
95116,Santa Clara County,CA,44.72843450479233,NA,NA
95117,Santa Clara County,CA,NA,NA,70.45454545454545
95118,Santa Clara County,CA,NA,NA,86.36363636363636
95119,Santa Clara County,CA,NA,94.65020576131687,NA
95120,Santa Clara County,CA,NA,52.88065843621399,NA
95129,Santa Clara County,CA,NA,NA,47.44318181818182
95203,San Joaquin County,CA,84.02555910543131,NA,NA
95355,Stanislaus County,CA,NA,NA,25.28409090909091
95404,Sonoma County,CA,NA,28.80658436213992,NA
95409,Sonoma County,CA,NA,48.971193415637856,NA
95476,Sonoma County,CA,NA,36.62551440329218,NA
95608,Sacramento County,CA,NA,NA,8.238636363636363
95660,Sacramento County,CA,NA,58.64197530864198,NA
95667,El Dorado County,CA,NA,4.11522633744856,NA
95678,Placer County,CA,NA,NA,61.93181818181818
95682,El Dorado County,CA,NA,41.1522633744856,NA
95747,Placer County,CA,NA,NA,11.079545454545455
95823,Sacramento County,CA,NA,NA,68.4659090909091
95843,Sacramento County,CA,64.21725239616613,NA,NA
95969,Butte County,CA,NA,6.995884773662551,NA
80011,Arapahoe County,CO,NA,NA,94.88636363636364
80015,Arapahoe County,CO,NA,21.39917695473251,NA
80033,Jefferson County,CO,NA,62.34567901234568,NA
80111,Arapahoe County,CO,73.1629392971246,64.19753086419753,NA
80121,Arapahoe County,CO,NA,NA,55.39772727272727
80124,Douglas County,CO,NA,81.6872427983539,NA
80202,Denver County,CO,NA,NA,85.22727272727273
80227,Jefferson County,CO,NA,NA,56.25
80247,Arapahoe County,CO,39.29712460063898,NA,NA
80301,Boulder County,CO,NA,NA,57.67045454545454
80503,Boulder County,CO,NA,55.144032921810705,NA
80525,Larimer County,CO,NA,NA,7.670454545454546
80526,Larimer County,CO,NA,NA,35.79545454545455
80537,Larimer County,CO,NA,NA,61.07954545454546
80603,Weld County,CO,NA,NA,98.86363636363636
80903,El Paso County,CO,71.24600638977637,NA,NA
80917,El Paso County,CO,64.21725239616613,NA,NA
80920,El Paso County,CO,NA,61.52263374485597,NA
81006,Pueblo County,CO,NA,90.53497942386831,NA
81067,Otero County,CO,NA,NA,91.47727272727273
81201,Chaffee County,CO,NA,96.09053497942386,NA
81301,La Plata County,CO,NA,NA,55.68181818181818
81501,Mesa County,CO,76.03833865814697,NA,NA
81503,Mesa County,CO,92.97124600638978,NA,NA
81505,Mesa County,CO,89.1373801916933,NA,NA
06032,Hartford County,CT,NA,74.69135802469135,NA
06040,Hartford County,CT,NA,NA,24.147727272727273
06053,Hartford County,CT,NA,26.543209876543212,NA
06413,Middlesex County,CT,63.578274760383394,NA,NA
06419,Middlesex County,CT,NA,NA,86.93181818181817
06437,New Haven County,CT,NA,NA,34.659090909090914
06450,New Haven County,CT,NA,44.23868312757202,NA
06475,Middlesex County,CT,NA,59.053497942386834,NA
06483,New Haven County,CT,NA,59.25925925925925,NA
06489,Hartford County,CT,NA,17.28395061728395,9.659090909090908
06516,New Haven County,CT,8.626198083067091,NA,NA
06604,Fairfield County,CT,20.12779552715655,NA,NA
06614,Fairfield County,CT,NA,NA,65.05681818181817
06708,New Haven County,CT,NA,36.0082304526749,NA
06712,New Haven County,CT,91.69329073482429,NA,NA
06840,Fairfield County,CT,77.95527156549521,NA,NA
06883,Fairfield County,CT,NA,93.00411522633745,NA
19709,New Castle County,DE,NA,NA,28.40909090909091
19711,New Castle County,DE,NA,42.38683127572017,NA
19713,New Castle County,DE,NA,30.45267489711934,NA
19720,New Castle County,DE,NA,2.880658436213992,NA
19802,New Castle County,DE,16.61341853035144,NA,NA
19810,New Castle County,DE,55.59105431309904,NA,NA
19901,Kent County,DE,NA,19.54732510288066,NA
19947,Sussex County,DE,NA,41.76954732510288,NA
19958,Sussex County,DE,NA,4.526748971193416,NA
32003,Clay County,FL,NA,NA,62.78409090909091
32065,Clay County,FL,NA,37.65432098765432,NA
32068,Clay County,FL,62.61980830670927,NA,NA
32073,Clay County,FL,23.642172523961662,NA,NA
32082,St. Johns County,FL,NA,NA,79.26136363636364
32084,St. Johns County,FL,NA,27.983539094650205,NA
32086,St. Johns County,FL,NA,18.72427983539095,NA
32164,Flagler County,FL,33.86581469648562,NA,NA
32207,Duval County,FL,NA,10.699588477366255,NA
32208,Duval County,FL,NA,5.967078189300412,NA
32211,Duval County,FL,NA,42.79835390946502,NA
32246,Duval County,FL,NA,23.868312757201647,NA
32433,Walton County,FL,NA,NA,69.60227272727273
32501,Escambia County,FL,NA,NA,57.38636363636363
32505,Escambia County,FL,NA,NA,72.72727272727273
32506,Escambia County,FL,NA,18.106995884773664,NA
32714,Seminole County,FL,NA,NA,43.75
32726,Lake County,FL,NA,49.17695473251029,NA
32789,Orange County,FL,NA,91.9753086419753,NA
32803,Orange County,FL,75.07987220447284,NA,NA
32832,Orange County,FL,86.26198083067092,NA,NA
32940,Brevard County,FL,NA,NA,5.3977272727272725
32963,Indian River County,FL,NA,NA,51.70454545454546
33133,Miami-Dade County,FL,NA,NA,28.693181818181817
33135,Miami-Dade County,FL,NA,NA,23.011363636363637
33308,Broward County,FL,NA,50.82304526748971,NA
33414,Palm Beach County,FL,46.325878594249204,NA,NA
33441,Broward County,FL,NA,NA,46.30681818181818
33446,Palm Beach County,FL,NA,NA,4.261363636363636
33496,Palm Beach County,FL,NA,41.56378600823045,NA
33544,Pasco County,FL,81.46964856230032,NA,NA
33647,Hillsborough County,FL,50.798722044728436,NA,NA
33707,Pinellas County,FL,NA,31.68724279835391,NA
33880,Polk County,FL,23.003194888178914,NA,NA
33908,Lee County,FL,NA,NA,0.2840909090909091
33916,Lee County,FL,NA,70.37037037037037,NA
33966,Lee County,FL,NA,97.7366255144033,NA
34110,Collier County,FL,80.19169329073482,NA,NA
34233,Sarasota County,FL,78.27476038338658,NA,NA
34293,Sarasota County,FL,48.881789137380196,NA,NA
34653,Pasco County,FL,NA,32.098765432098766,NA
34953,St. Lucie County,FL,NA,34.97942386831276,NA
34987,St. Lucie County,FL,NA,NA,93.18181818181817
30014,Newton County,GA,NA,NA,68.18181818181817
30038,DeKalb County,GA,NA,88.88888888888889,83.80681818181817
30043,Gwinnett County,GA,22.364217252396166,NA,NA
30052,Walton County,GA,19.488817891373802,NA,NA
30064,Cobb County,GA,NA,82.51028806584361,NA
30067,Cobb County,GA,NA,NA,76.42045454545455
30083,DeKalb County,GA,NA,32.30452674897119,NA
30096,Gwinnett County,GA,61.0223642172524,NA,NA
30097,Fulton County,GA,NA,55.349794238683124,NA
30224,Spalding County,GA,NA,52.2633744855967,NA
30238,Clayton County,GA,52.715654952076676,NA,NA
30240,Troup County,GA,76.35782747603834,NA,NA
30253,Henry County,GA,25.559105431309902,NA,NA
30286,Upson County,GA,NA,53.70370370370371,NA
30305,Fulton County,GA,NA,NA,39.48863636363637
30312,Fulton County,GA,NA,NA,68.75
30315,Fulton County,GA,NA,26.337448559670783,NA
30319,DeKalb County,GA,NA,56.79012345679012,26.704545454545453
30339,Cobb County,GA,NA,NA,83.23863636363636
30467,Screven County,GA,NA,63.78600823045267,NA
30474,Toombs County,GA,60.70287539936102,NA,NA
30507,Hall County,GA,NA,NA,76.13636363636364
30517,Jackson County,GA,NA,80.8641975308642,NA
30528,White County,GA,51.75718849840255,NA,NA
30540,Gilmer County,GA,NA,NA,50.85227272727273
30548,Jackson County,GA,NA,NA,67.32954545454545
30563,Habersham County,GA,NA,96.70781893004116,NA
30601,Clarke County,GA,NA,71.19341563786008,NA
30646,Madison County,GA,NA,86.62551440329219,NA
30656,Walton County,GA,NA,NA,80.9659090909091
30673,Wilkes County,GA,NA,89.91769547325103,NA
30809,Columbia County,GA,NA,11.934156378600823,NA
30907,Columbia County,GA,NA,NA,30.39772727272727
31211,Bibb County,GA,NA,NA,88.06818181818183
31602,Lowndes County,GA,NA,NA,33.80681818181818
31721,Dougherty County,GA,76.6773162939297,NA,NA
31909,Muscogee County,GA,NA,NA,32.38636363636363
96706,Honolulu County,HI,12.779552715654951,NA,NA
96817,Honolulu County,HI,NA,NA,5.113636363636364
83202,Bannock County,ID,NA,67.48971193415639,NA
83221,Bingham County,ID,NA,18.51851851851852,NA
83401,Bonneville County,ID,66.13418530351439,NA,NA
83402,Bonneville County,ID,NA,46.09053497942387,NA
83605,Canyon County,ID,NA,NA,38.92045454545455
83607,Canyon County,ID,NA,31.893004115226336,NA
83655,Payette County,ID,100,NA,NA
83661,Payette County,ID,NA,66.0493827160494,NA
83686,Canyon County,ID,NA,NA,3.977272727272727
60007,Cook County,IL,80.5111821086262,NA,NA
60101,DuPage County,IL,26.837060702875398,NA,17.045454545454543
60124,Kane County,IL,NA,NA,40.909090909090914
60148,DuPage County,IL,NA,NA,12.784090909090908
60409,Cook County,IL,29.073482428115017,NA,NA
60423,Will County,IL,41.21405750798722,NA,NA
60441,Will County,IL,NA,28.600823045267486,NA
60447,Grundy County,IL,NA,NA,89.20454545454545
60462,Cook County,IL,NA,5.555555555555555,NA
60477,Cook County,IL,NA,NA,11.647727272727272
60504,DuPage County,IL,NA,NA,81.25
60525,Cook County,IL,56.54952076677316,NA,NA
60526,Cook County,IL,NA,NA,40.05681818181818
60561,DuPage County,IL,59.424920127795524,NA,NA
60607,Cook County,IL,NA,46.913580246913575,NA
60614,Cook County,IL,NA,16.049382716049383,NA
60619,Cook County,IL,NA,NA,0.8522727272727272
60626,Cook County,IL,NA,7.20164609053498,NA
60629,Cook County,IL,NA,NA,10.511363636363637
60631,Cook County,IL,NA,NA,22.727272727272727
60634,Cook County,IL,NA,38.88888888888889,NA
60646,Cook County,IL,NA,NA,80.39772727272727
60649,Cook County,IL,65.17571884984025,40.32921810699588,NA
60651,Cook County,IL,NA,39.300411522633745,NA
60653,Cook County,IL,NA,NA,27.556818181818183
61072,Winnebago County,IL,NA,88.68312757201646,NA
61265,Rock Island County,IL,NA,66.8724279835391,NA
61364,LaSalle County,IL,56.23003194888179,NA,NA
61614,Peoria County,IL,NA,NA,23.295454545454543
61615,Peoria County,IL,NA,62.96296296296296,NA
61866,Champaign County,IL,NA,72.0164609053498,NA
62002,Madison County,IL,NA,19.753086419753085,NA
62010,Madison County,IL,NA,NA,70.17045454545455
62024,Madison County,IL,NA,89.7119341563786,NA
62305,Adams County,IL,72.84345047923323,NA,NA
62471,Fayette County,IL,NA,56.17283950617284,NA
62563,Sangamon County,IL,98.08306709265176,NA,NA
62702,Sangamon County,IL,NA,37.4485596707819,NA
46011,Madison County,IN,50.159744408945684,NA,NA
46016,Madison County,IN,NA,31.069958847736622,NA
46052,Boone County,IN,NA,79.01234567901234,NA
46077,Boone County,IN,NA,67.07818930041152,NA
46112,Hendricks County,IN,NA,47.94238683127572,NA
46151,Morgan County,IN,NA,57.61316872427984,NA
46173,Rush County,IN,NA,44.8559670781893,NA
46236,Marion County,IN,NA,49.58847736625515,NA
46256,Marion County,IN,NA,87.24279835390946,NA
46268,Marion County,IN,NA,45.267489711934154,NA
46307,Lake County,IN,NA,1.8518518518518516,19.318181818181817
46368,Porter County,IN,6.070287539936102,NA,NA
46375,Lake County,IN,NA,16.46090534979424,NA
46383,Porter County,IN,9.26517571884984,NA,NA
46580,Kosciusko County,IN,NA,NA,30.96590909090909
46628,St. Joseph County,IN,NA,48.76543209876543,NA
46706,DeKalb County,IN,46.96485623003195,NA,NA
46737,Steuben County,IN,NA,86.21399176954732,NA
46755,Noble County,IN,26.517571884984026,NA,NA
46783,Huntington County,IN,85.3035143769968,NA,NA
46806,Allen County,IN,NA,40.123456790123456,NA
46807,Allen County,IN,NA,NA,94.60227272727273
46815,Allen County,IN,NA,NA,18.46590909090909
46818,Allen County,IN,40.2555910543131,NA,NA
46845,Allen County,IN,59.7444089456869,NA,NA
46901,Howard County,IN,5.111821086261981,3.909465020576132,NA
46952,Grant County,IN,NA,33.1275720164609,57.95454545454546
46953,Grant County,IN,NA,11.11111111111111,NA
47112,Harrison County,IN,57.50798722044729,NA,NA
47172,Clark County,IN,NA,65.4320987654321,NA
47203,Bartholomew County,IN,NA,21.193415637860085,NA
47265,Jennings County,IN,NA,NA,49.14772727272727
47712,Vanderburgh County,IN,51.43769968051119,NA,NA
47803,Vigo County,IN,NA,82.09876543209876,NA
47804,Vigo County,IN,NA,74.2798353909465,NA
47933,Montgomery County,IN,NA,45.06172839506173,NA
50201,Story County,IA,NA,NA,67.04545454545455
50263,Dallas County,IA,NA,78.60082304526749,NA
50461,Mitchell County,IA,NA,NA,86.64772727272727
50644,Buchanan County,IA,NA,77.9835390946502,NA
50701,Black Hawk County,IA,32.26837060702875,NA,NA
50703,Black Hawk County,IA,NA,67.48971193415639,NA
51351,Dickinson County,IA,NA,NA,96.30681818181817
52240,Johnson County,IA,NA,NA,26.136363636363637
52404,Linn County,IA,10.86261980830671,NA,NA
52722,Scott County,IA,20.766773162939298,80.24691358024691,NA
66046,Douglas County,KS,NA,81.48148148148148,NA
66048,Leavenworth County,KS,67.0926517571885,45.884773662551446,NA
66061,Johnson County,KS,NA,4.938271604938271,NA
66062,Johnson County,KS,NA,15.020576131687244,NA
66067,Franklin County,KS,NA,54.93827160493827,NA
66109,Wyandotte County,KS,NA,NA,70.73863636363636
66209,Johnson County,KS,NA,NA,32.67045454545455
66227,Johnson County,KS,NA,99.79423868312757,NA
66503,Riley County,KS,NA,NA,99.14772727272727
40033,Marion County,KY,NA,69.34156378600824,NA
40065,Shelby County,KY,NA,NA,66.19318181818183
40211,Jefferson County,KY,15.335463258785943,NA,NA
40215,Jefferson County,KY,NA,43.415637860082306,NA
40228,Jefferson County,KY,NA,66.2551440329218,NA
40258,Jefferson County,KY,NA,40.534979423868315,NA
40342,Anderson County,KY,NA,56.5843621399177,NA
40508,Fayette County,KY,32.587859424920126,NA,NA
40509,Fayette County,KY,31.948881789137378,NA,NA
40511,Fayette County,KY,38.33865814696485,96.91358024691358,NA
41014,Kenton County,KY,52.39616613418531,NA,NA
41035,Grant County,KY,47.6038338658147,NA,NA
41042,Boone County,KY,NA,6.584362139917696,NA
41071,Campbell County,KY,25.878594249201274,NA,NA
41101,Boyd County,KY,NA,19.34156378600823,NA
41144,Greenup County,KY,NA,54.73251028806584,NA
42211,Trigg County,KY,64.85623003194888,NA,NA
42301,Daviess County,KY,11.501597444089457,NA,NA
42303,Daviess County,KY,NA,55.55555555555556,NA
42420,Henderson County,KY,NA,NA,17.329545454545457
42748,Larue County,KY,84.98402555910543,NA,NA
70047,St. Charles Parish,LA,NA,69.54732510288066,NA
70068,St. John the Baptist Parish,LA,NA,NA,29.829545454545453
70122,Orleans Parish,LA,NA,10.493827160493826,NA
70364,Terrebonne Parish,LA,8.945686900958465,NA,NA
70380,St. Mary Parish,LA,NA,NA,94.0340909090909
70508,Lafayette Parish,LA,NA,NA,69.88636363636364
70578,Acadia Parish,LA,21.72523961661342,NA,NA
70607,Calcasieu Parish,LA,NA,64.81481481481481,NA
70726,Livingston Parish,LA,3.8338658146964857,NA,NA
70814,East Baton Rouge Parish,LA,34.185303514377,NA,NA
71105,Caddo Parish,LA,NA,87.65432098765432,NA
71107,Caddo Parish,LA,NA,20.16460905349794,NA
71111,Bossier Parish,LA,NA,13.786008230452676,NA
71112,Bossier Parish,LA,NA,24.485596707818928,NA
71270,Lincoln Parish,LA,NA,60.08230452674898,NA
71328,Rapides Parish,LA,85.62300319488818,76.5432098765432,NA
71360,Rapides Parish,LA,13.418530351437699,NA,27.84090909090909
71463,Allen Parish,LA,61.980830670926515,NA,NA
03908,York County,ME,NA,58.0246913580247,NA
04239,Franklin County,ME,NA,NA,93.75
04401,Penobscot County,ME,4.792332268370607,NA,NA
04841,Knox County,ME,NA,47.53086419753087,NA
20601,Charles County,MD,NA,83.53909465020575,NA
20650,St. Mary's County,MD,NA,86.21399176954732,NA
20705,Prince George's County,MD,NA,75.1028806584362,NA
20774,Prince George's County,MD,NA,86.0082304526749,NA
20878,Montgomery County,MD,NA,60.90534979423868,NA
20895,Montgomery County,MD,NA,NA,92.04545454545455
21044,Howard County,MD,NA,87.44855967078189,NA
21222,Baltimore County,MD,42.81150159744409,NA,NA
21237,Baltimore County,MD,NA,90.12345679012346,NA
21532,Allegany County,MD,NA,NA,75.56818181818183
21784,Carroll County,MD,NA,58.230452674897116,NA
01030,Hampden County,MA,NA,NA,79.82954545454545
01108,Hampden County,MA,NA,5.349794238683128,NA
01129,Hampden County,MA,94.88817891373802,NA,NA
01201,Berkshire County,MA,0,NA,NA
01331,Worcester County,MA,7.0287539936102235,NA,NA
01420,Worcester County,MA,NA,16.666666666666664,NA
01440,Worcester County,MA,NA,8.847736625514404,NA
01527,Worcester County,MA,NA,27.36625514403292,NA
01545,Worcester County,MA,NA,NA,15.340909090909092
01570,Worcester County,MA,NA,77.1604938271605,NA
01602,Worcester County,MA,NA,57.407407407407405,NA
01604,Worcester County,MA,NA,NA,2.556818181818182
01801,Middlesex County,MA,2.8753993610223643,NA,NA
01810,Essex County,MA,NA,NA,17.613636363636363
01844,Essex County,MA,2.5559105431309903,NA,NA
01902,Essex County,MA,NA,0.411522633744856,NA
01905,Essex County,MA,3.1948881789137378,NA,NA
01923,Essex County,MA,NA,NA,1.9886363636363635
01949,Essex County,MA,48.56230031948881,NA,NA
02050,Plymouth County,MA,52.07667731629393,NA,NA
02114,Suffolk County,MA,NA,38.68312757201646,NA
02120,Suffolk County,MA,7.348242811501597,NA,NA
02125,Suffolk County,MA,0.6389776357827476,NA,NA
02141,Middlesex County,MA,NA,25.925925925925924,NA
02150,Suffolk County,MA,NA,0.823045267489712,NA
02155,Middlesex County,MA,1.9169329073482428,NA,NA
02169,Norfolk County,MA,NA,NA,0
02453,Middlesex County,MA,11.182108626198083,NA,NA
02472,Middlesex County,MA,NA,70.57613168724279,NA
02476,Middlesex County,MA,NA,26.954732510288064,NA
02478,Middlesex County,MA,55.91054313099042,NA,NA
02645,Barnstable County,MA,NA,NA,64.48863636363636
02703,Bristol County,MA,1.5974440894568689,NA,NA
02719,Bristol County,MA,47.284345047923324,NA,NA
02723,Bristol County,MA,5.7507987220447285,NA,NA
02740,Bristol County,MA,NA,0.205761316872428,NA
02747,Bristol County,MA,NA,50.20576131687243,NA
48042,Macomb County,MI,NA,NA,26.988636363636363
48101,Wayne County,MI,NA,NA,60.79545454545454
48111,Wayne County,MI,NA,32.510288065843625,NA
48114,Livingston County,MI,NA,NA,56.25
48135,Wayne County,MI,22.683706070287542,NA,NA
48228,Wayne County,MI,3.5143769968051117,NA,NA
48230,Wayne County,MI,NA,37.03703703703704,NA
48348,Oakland County,MI,34.82428115015975,NA,NA
48377,Oakland County,MI,NA,75.7201646090535,NA
48420,Genesee County,MI,NA,NA,45.73863636363637
48439,Genesee County,MI,NA,NA,13.636363636363635
48444,Lapeer County,MI,NA,76.95473251028807,NA
48446,Lapeer County,MI,NA,24.074074074074073,NA
48602,Saginaw County,MI,6.3897763578274756,NA,NA
48726,Tuscola County,MI,NA,81.89300411522635,NA
48730,Iosco County,MI,NA,NA,69.31818181818183
48843,Livingston County,MI,NA,NA,85.51136363636364
48910,Ingham County,MI,NA,12.962962962962962,NA
48917,Eaton County,MI,NA,NA,12.215909090909092
49001,Kalamazoo County,MI,53.99361022364217,NA,NA
49024,Kalamazoo County,MI,NA,NA,25.568181818181817
49097,Kalamazoo County,MI,66.45367412140575,NA,NA
49120,Berrien County,MI,NA,14.40329218106996,NA
49127,Berrien County,MI,NA,72.0164609053498,NA
49201,Jackson County,MI,NA,NA,35.22727272727273
49203,Jackson County,MI,NA,NA,36.36363636363637
49221,Lenawee County,MI,NA,5.1440329218107,6.8181818181818175
49346,Mecosta County,MI,NA,70.16460905349794,NA
49401,Ottawa County,MI,NA,83.1275720164609,NA
49419,Allegan County,MI,88.17891373801918,NA,NA
49426,Ottawa County,MI,39.936102236421725,NA,NA
49428,Ottawa County,MI,NA,NA,15.625
49442,Muskegon County,MI,NA,NA,6.534090909090909
49456,Ottawa County,MI,NA,NA,20.738636363636363
49503,Kent County,MI,12.460063897763577,NA,NA
49504,Kent County,MI,NA,NA,8.522727272727272
49507,Kent County,MI,NA,NA,44.88636363636363
49548,Kent County,MI,NA,13.580246913580247,NA
55025,Washington County,MN,56.54952076677316,NA,NA
55056,Chisago County,MN,93.29073482428115,NA,NA
55109,Ramsey County,MN,NA,29.4238683127572,NA
55113,Ramsey County,MN,NA,NA,23.579545454545457
55116,Ramsey County,MN,NA,NA,51.42045454545454
55125,Washington County,MN,NA,NA,38.35227272727273
55130,Ramsey County,MN,NA,79.42386831275721,NA
55376,Wright County,MN,85.94249201277955,NA,NA
55411,Hennepin County,MN,NA,16.049382716049383,NA
55439,Hennepin County,MN,NA,90.74074074074075,NA
55720,Carlton County,MN,NA,NA,40.625
55987,Winona County,MN,NA,22.22222222222222,NA
56073,Brown County,MN,NA,12.139917695473251,NA
56283,Redwood County,MN,NA,NA,82.67045454545455
56601,Beltrami County,MN,NA,1.646090534979424,NA
39073,Rankin County,MS,NA,NA,73.57954545454545
39482,Lamar County,MS,NA,90.94650205761316,NA
39503,Harrison County,MS,NA,3.292181069958848,NA
63031,St. Louis County,MO,NA,NA,73.29545454545455
63034,St. Louis County,MO,NA,54.11522633744856,NA
63042,St. Louis County,MO,NA,NA,74.14772727272727
63115,St. Louis city,MO,NA,80.8641975308642,NA
63122,St. Louis County,MO,NA,24.279835390946502,NA
63128,St. Louis County,MO,75.39936102236422,21.810699588477366,NA
63146,St. Louis County,MO,NA,NA,33.23863636363637
63376,St. Charles County,MO,NA,2.05761316872428,NA
63640,St. Francois County,MO,NA,36.21399176954733,NA
63701,Cape Girardeau County,MO,NA,85.39094650205762,NA
63801,Scott County,MO,NA,28.189300411522634,NA
63901,Butler County,MO,NA,23.662551440329217,NA
63957,Wayne County,MO,94.24920127795528,92.18106995884774,NA
64012,Cass County,MO,NA,NA,38.35227272727273
64058,Jackson County,MO,NA,96.50205761316872,NA
64063,Jackson County,MO,NA,NA,77.27272727272727
64086,Jackson County,MO,33.54632587859425,NA,NA
64119,Clay County,MO,NA,76.13168724279835,NA
64131,Jackson County,MO,NA,35.59670781893004,NA
64132,Jackson County,MO,17.252396166134183,NA,NA
64134,Jackson County,MO,NA,36.831275720164605,NA
64506,Buchanan County,MO,NA,6.790123456790123,NA
64801,Jasper County,MO,NA,14.19753086419753,NA
65041,Gasconade County,MO,NA,NA,95.17045454545455
65078,Morgan County,MO,NA,93.62139917695474,NA
65301,Pettis County,MO,NA,8.23045267489712,NA
65560,Dent County,MO,NA,52.674897119341566,NA
65653,Taney County,MO,92.65175718849841,NA,NA
65742,Webster County,MO,NA,76.33744855967079,NA
65803,Greene County,MO,NA,11.316872427983538,19.886363636363637
59101,Yellowstone County,MT,37.69968051118211,NA,NA
59404,Cascade County,MT,NA,NA,47.72727272727273
59701,Silver Bow County,MT,NA,NA,89.48863636363636
68028,Sarpy County,NE,80.83067092651757,NA,NA
68127,Douglas County,NE,NA,NA,87.7840909090909
68134,Douglas County,NE,NA,NA,58.52272727272727
68136,Sarpy County,NE,NA,95.88477366255144,NA
89406,Churchill County,NV,NA,30.65843621399177,NA
89410,Douglas County,NV,NA,NA,39.77272727272727
89502,Washoe County,NV,NA,NA,90.05681818181817
89523,Washoe County,NV,NA,NA,54.82954545454546
89706,Carson City,NV,NA,71.60493827160494,NA
03054,Hillsborough County,NH,30.670926517571885,17.695473251028808,NA
03079,Rockingham County,NH,NA,18.31275720164609,NA
03103,Hillsborough County,NH,NA,9.876543209876543,NA
03225,Belknap County,NH,99.04153354632588,NA,NA
03235,Merrimack County,NH,NA,NA,47.159090909090914
03833,Rockingham County,NH,NA,36.41975308641975,30.681818181818183
03865,Rockingham County,NH,68.370607028754,NA,NA
07003,Essex County,NJ,NA,27.160493827160494,NA
07008,Middlesex County,NJ,NA,NA,48.57954545454545
07103,Essex County,NJ,NA,14.814814814814813,NA
07305,Hudson County,NJ,0.9584664536741214,NA,NA
07419,Sussex County,NJ,87.8594249201278,NA,NA
07461,Sussex County,NJ,NA,59.876543209876544,NA
07501,Passaic County,NJ,NA,15.432098765432098,NA
07927,Morris County,NJ,NA,98.35390946502058,NA
08016,Burlington County,NJ,NA,NA,34.375
08037,Atlantic County,NJ,47.92332268370607,NA,NA
08043,Camden County,NJ,NA,22.016460905349795,NA
08045,Camden County,NJ,NA,100,NA
08046,Burlington County,NJ,NA,NA,31.25
08093,Gloucester County,NJ,NA,NA,95.73863636363636
08690,Mercer County,NJ,NA,53.29218106995884,51.98863636363637
87004,Sandoval County,NM,NA,78.18930041152264,NA
87102,Bernalillo County,NM,21.08626198083067,NA,NA
87107,Bernalillo County,NM,NA,23.251028806584362,NA
87110,Bernalillo County,NM,14.376996805111823,NA,NA
87420,San Juan County,NM,28.434504792332266,NA,NA
87505,Santa Fe County,NM,NA,NA,11.363636363636363
88005,Doa Ana County,NM,NA,40.94650205761317,NA
88011,Doa Ana County,NM,NA,NA,25
88012,Doa Ana County,NM,69.32907348242811,NA,NA
88201,Chaves County,NM,NA,NA,53.97727272727273
10009,New York County,NY,32.9073482428115,NA,NA
10456,Bronx County,NY,0.3194888178913738,NA,NA
10472,Bronx County,NY,NA,NA,53.125
10541,Putnam County,NY,NA,74.8971193415638,NA
11021,Nassau County,NY,NA,NA,53.40909090909091
11023,Nassau County,NY,NA,NA,85.79545454545455
11205,Kings County,NY,41.533546325878596,NA,NA
11206,Kings County,NY,5.431309904153355,NA,NA
11216,Kings County,NY,12.140575079872203,NA,NA
11219,Kings County,NY,NA,NA,13.352272727272727
11224,Kings County,NY,NA,NA,1.7045454545454544
11234,Kings County,NY,NA,NA,16.477272727272727
11238,Kings County,NY,NA,13.991769547325102,NA
11249,Kings County,NY,NA,NA,73.01136363636364
11377,Queens County,NY,NA,70.98765432098766,NA
11563,Nassau County,NY,NA,NA,57.10227272727273
12508,Dutchess County,NY,NA,NA,90.9090909090909
12533,Dutchess County,NY,83.06709265175719,NA,NA
12553,Orange County,NY,NA,88.27160493827161,NA
12561,Ulster County,NY,NA,NA,88.63636363636364
12921,Clinton County,NY,NA,97.94238683127571,NA
12974,Essex County,NY,93.9297124600639,NA,NA
13057,Onondaga County,NY,NA,83.33333333333334,NA
13077,Cortland County,NY,61.66134185303515,NA,NA
13159,Onondaga County,NY,NA,NA,98.29545454545455
13348,Otsego County,NY,95.84664536741214,NA,NA
13440,Oneida County,NY,4.472843450479233,NA,NA
13820,Otsego County,NY,11.821086261980831,NA,NA
13827,Tioga County,NY,NA,34.5679012345679,NA
14086,Erie County,NY,NA,NA,63.06818181818182
14213,Erie County,NY,NA,42.181069958847736,NA
14220,Erie County,NY,NA,26.13168724279835,NA
14466,Ontario County,NY,NA,98.559670781893,NA
14534,Monroe County,NY,NA,NA,4.545454545454546
14580,Monroe County,NY,NA,NA,2.272727272727273
14608,Monroe County,NY,15.015974440894569,NA,NA
14738,Chautauqua County,NY,NA,92.79835390946502,NA
27030,Surry County,NC,7.987220447284344,NA,12.5
27105,Forsyth County,NC,NA,NA,35.22727272727273
27106,Forsyth County,NC,42.49201277955272,2.674897119341564,NA
27127,Forsyth County,NC,NA,4.320987654320987,5.965909090909091
27249,Guilford County,NC,79.87220447284345,NA,NA
27278,Orange County,NC,NA,77.77777777777779,NA
27288,Rockingham County,NC,43.45047923322684,NA,NA
27370,Randolph County,NC,90.41533546325878,NA,NA
27376,Moore County,NC,NA,NA,91.47727272727273
27408,Guilford County,NC,NA,55.76131687242798,NA
27520,Johnston County,NC,NA,NA,52.55681818181818
27577,Johnston County,NC,45.367412140575084,NA,NA
27604,Wake County,NC,NA,NA,60.51136363636363
27713,Durham County,NC,NA,NA,16.761363636363637
27863,Wayne County,NC,NA,73.4567901234568,NA
28021,Gaston County,NC,NA,NA,89.77272727272727
28086,Cleveland County,NC,58.46645367412141,NA,NA
28314,Cumberland County,NC,NA,NA,45.17045454545455
28333,Wayne County,NC,65.814696485623,NA,NA
28345,Richmond County,NC,NA,73.86831275720165,NA
28365,Wayne County,NC,NA,NA,79.54545454545455
28376,Hoke County,NC,NA,NA,76.98863636363636
28401,New Hanover County,NC,NA,NA,58.23863636363637
28411,New Hanover County,NC,35.14376996805112,NA,48.29545454545455
28501,Lenoir County,NC,45.04792332268371,NA,NA
28675,Alleghany County,NC,NA,NA,77.27272727272727
28694,Ashe County,NC,90.73482428115017,NA,NA
28712,Transylvania County,NC,NA,NA,10.227272727272728
28714,Yancey County,NC,88.81789137380191,NA,NA
28716,Haywood County,NC,NA,41.358024691358025,NA
28734,Macon County,NC,NA,8.024691358024691,91.19318181818183
28785,Haywood County,NC,NA,66.46090534979425,NA
28804,Buncombe County,NC,NA,75.51440329218107,NA
58078,Cass County,ND,25.23961661341853,NA,NA
58401,Stutsman County,ND,NA,NA,76.70454545454545
43019,Knox County,OH,74.76038338658148,NA,NA
43056,Licking County,OH,36.42172523961661,NA,NA
43072,Champaign County,OH,NA,97.53086419753086,NA
43119,Franklin County,OH,NA,48.559670781893004,NA
43130,Fairfield County,OH,NA,NA,3.4090909090909087
43138,Hocking County,OH,NA,NA,33.52272727272727
43140,Madison County,OH,35.78274760383386,NA,NA
43143,Madison County,OH,NA,NA,96.02272727272727
43209,Franklin County,OH,49.201277955271564,NA,NA
43214,Franklin County,OH,NA,43.82716049382716,NA
43227,Franklin County,OH,NA,NA,38.06818181818182
43402,Wood County,OH,NA,NA,17.897727272727273
43420,Sandusky County,OH,NA,NA,21.59090909090909
43449,Ottawa County,OH,72.20447284345049,NA,NA
43452,Ottawa County,OH,NA,91.56378600823045,NA
43512,Defiance County,OH,53.35463258785943,NA,NA
43537,Lucas County,OH,NA,13.168724279835391,NA
43607,Lucas County,OH,46.64536741214057,NA,NA
43611,Lucas County,OH,15.974440894568689,NA,NA
43615,Lucas County,OH,NA,4.732510288065844,NA
43616,Lucas County,OH,NA,NA,19.602272727272727
43619,Wood County,OH,NA,94.23868312757202,NA
43812,Coshocton County,OH,NA,57.20164609053497,NA
43953,Jefferson County,OH,31.309904153354633,NA,NA
44024,Geauga County,OH,NA,92.38683127572016,NA
44035,Lorain County,OH,NA,2.4691358024691357,NA
44055,Lorain County,OH,10.543130990415335,NA,NA
44060,Lake County,OH,NA,0.6172839506172839,NA
44062,Geauga County,OH,91.3738019169329,NA,NA
44072,Geauga County,OH,NA,85.80246913580247,NA
44074,Lorain County,OH,NA,NA,54.26136363636363
44087,Summit County,OH,NA,NA,63.35227272727273
44125,Cuyahoga County,OH,NA,9.465020576131687,NA
44126,Cuyahoga County,OH,NA,NA,36.93181818181818
44133,Cuyahoga County,OH,NA,11.728395061728394,NA
44134,Cuyahoga County,OH,9.584664536741213,NA,4.829545454545454
44147,Cuyahoga County,OH,NA,29.835390946502056,NA
44149,Cuyahoga County,OH,NA,NA,47.72727272727273
44203,Summit County,OH,NA,8.436213991769549,NA
44212,Medina County,OH,19.169329073482427,NA,NA
44221,Summit County,OH,NA,73.25102880658436,NA
44224,Summit County,OH,NA,58.8477366255144,NA
44231,Portage County,OH,NA,87.03703703703704,NA
44236,Summit County,OH,NA,NA,37.784090909090914
44256,Medina County,OH,NA,NA,14.772727272727273
44266,Portage County,OH,NA,6.378600823045268,NA
44303,Summit County,OH,NA,70.78189300411523,NA
44305,Summit County,OH,NA,37.242798353909464,NA
44312,Summit County,OH,NA,9.670781893004115,NA
44471,Mahoning County,OH,NA,75.30864197530865,NA
44691,Wayne County,OH,29.39297124600639,NA,NA
44833,Crawford County,OH,30.35143769968051,NA,NA
44837,Huron County,OH,NA,NA,100
44842,Ashland County,OH,NA,99.1769547325103,NA
44857,Huron County,OH,22.044728434504794,7.4074074074074066,NA
44883,Seneca County,OH,49.52076677316294,NA,NA
45014,Butler County,OH,NA,NA,18.75
45015,Butler County,OH,NA,66.46090534979425,NA
45036,Warren County,OH,20.447284345047922,NA,NA
45039,Warren County,OH,NA,63.991769547325106,NA
45140,Clermont County,OH,56.54952076677316,NA,NA
45231,Hamilton County,OH,NA,NA,13.920454545454545
45239,Hamilton County,OH,NA,34.36213991769547,NA
45241,Hamilton County,OH,NA,37.86008230452675,NA
45255,Hamilton County,OH,NA,77.57201646090535,NA
45322,Montgomery County,OH,NA,47.11934156378601,NA
45383,Miami County,OH,96.48562300319489,NA,NA
45385,Greene County,OH,13.738019169329075,NA,NA
45420,Montgomery County,OH,NA,NA,43.465909090909086
45601,Ross County,OH,1.2779552715654952,0,NA
45640,Jackson County,OH,63.897763578274756,68.93004115226337,NA
45680,Lawrence County,OH,NA,NA,36.64772727272727
45697,Adams County,OH,98.40255591054313,NA,NA
45750,Washington County,OH,4.15335463258786,NA,NA
45769,Meigs County,OH,NA,NA,67.89772727272727
45805,Allen County,OH,NA,NA,29.261363636363637
45891,Van Wert County,OH,NA,24.897119341563787,29.545454545454547
73005,Caddo County,OK,NA,93.62139917695474,NA
73036,Canadian County,OK,40.57507987220447,NA,NA
73049,Oklahoma County,OK,NA,82.71604938271605,NA
73064,Canadian County,OK,NA,NA,43.18181818181818
73065,McClain County,OK,88.49840255591054,NA,NA
73080,McClain County,OK,NA,76.5432098765432,NA
73120,Oklahoma County,OK,42.17252396166134,NA,NA
73129,Oklahoma County,OK,NA,NA,77.8409090909091
73130,Oklahoma County,OK,NA,77.36625514403292,NA
73132,Oklahoma County,OK,54.632587859424916,NA,NA
73170,Cleveland County,OK,NA,49.382716049382715,8.806818181818182
73401,Carter County,OK,15.654952076677317,NA,NA
74011,Tulsa County,OK,NA,44.44444444444444,NA
74012,Tulsa County,OK,24.600638977635782,NA,NA
74020,Pawnee County,OK,NA,NA,86.93181818181817
74044,Creek County,OK,NA,NA,97.44318181818183
74104,Tulsa County,OK,NA,90.3292181069959,NA
74105,Tulsa County,OK,NA,NA,64.20454545454545
74135,Tulsa County,OK,NA,NA,36.07954545454545
74401,Muskogee County,OK,NA,57.818930041152264,NA
74462,Haskell County,OK,NA,84.36213991769547,NA
74464,Cherokee County,OK,NA,18.930041152263374,NA
74820,Pontotoc County,OK,9.904153354632587,NA,NA
97070,Clackamas County,OR,NA,59.465020576131685,NA
97086,Clackamas County,OR,NA,68.51851851851852,NA
97132,Yamhill County,OR,37.38019169329074,NA,NA
97146,Clatsop County,OR,NA,74.48559670781893,NA
97220,Multnomah County,OR,NA,NA,43.75
97221,Multnomah County,OR,NA,83.7448559670782,88.35227272727273
97222,Clackamas County,OR,28.115015974440894,NA,NA
97223,Washington County,OR,27.15654952076677,60.288065843621396,NA
97230,Multnomah County,OR,NA,NA,15.056818181818182
97306,Marion County,OR,NA,NA,96.5909090909091
97322,Linn County,OR,NA,12.551440329218108,NA
97471,Douglas County,OR,NA,80.65843621399176,NA
97479,Douglas County,OR,74.12140575079871,NA,NA
97801,Umatilla County,OR,70.6070287539936,NA,NA
15009,Beaver County,PA,95.52715654952077,39.09465020576132,NA
15102,Allegheny County,PA,86.90095846645367,NA,NA
15129,Allegheny County,PA,78.59424920127796,NA,NA
15135,Allegheny County,PA,NA,98.14814814814815,NA
15212,Allegheny County,PA,NA,39.91769547325103,NA
15235,Allegheny County,PA,NA,15.22633744855967,7.954545454545454
15613,Westmoreland County,PA,NA,50,NA
15650,Westmoreland County,PA,NA,53.086419753086425,NA
15748,Indiana County,PA,NA,NA,84.6590909090909
15801,Clearfield County,PA,NA,NA,2.840909090909091
15845,Elk County,PA,92.33226837060703,NA,NA
15905,Cambria County,PA,NA,NA,21.022727272727273
16117,Lawrence County,PA,51.118210862619804,NA,NA
16611,Huntingdon County,PA,NA,99.38271604938271,NA
16830,Clearfield County,PA,27.47603833865815,NA,NA
17033,Dauphin County,PA,30.990415335463258,NA,NA
17045,Perry County,PA,99.68051118210862,NA,NA
17109,Dauphin County,PA,24.920127795527154,NA,NA
17111,Dauphin County,PA,NA,6.172839506172839,NA
17201,Franklin County,PA,NA,20.781893004115226,NA
17257,Cumberland County,PA,NA,NA,83.52272727272727
17331,York County,PA,NA,1.440329218106996,NA
17403,York County,PA,18.849840255591054,NA,NA
17545,Lancaster County,PA,NA,67.28395061728395,NA
17745,Clinton County,PA,73.80191693290735,NA,NA
18017,Northampton County,PA,7.667731629392971,NA,NA
18045,Northampton County,PA,NA,NA,9.943181818181818
18049,Lehigh County,PA,NA,41.9753086419753,71.5909090909091
18052,Lehigh County,PA,NA,NA,21.875
18062,Lehigh County,PA,NA,NA,65.625
18064,Northampton County,PA,NA,NA,18.181818181818183
18109,Lehigh County,PA,NA,47.325102880658434,NA
18411,Lackawanna County,PA,48.242811501597444,NA,NA
18444,Lackawanna County,PA,NA,73.4567901234568,NA
18642,Luzerne County,PA,NA,NA,84.375
18914,Bucks County,PA,NA,NA,65.9090909090909
18969,Montgomery County,PA,NA,72.63374485596708,NA
19018,Delaware County,PA,26.198083067092654,NA,NA
19047,Bucks County,PA,NA,15.637860082304528,27.27272727272727
19082,Delaware County,PA,NA,61.72839506172839,NA
19124,Philadelphia County,PA,NA,10.2880658436214,NA
19132,Philadelphia County,PA,NA,14.609053497942387,NA
19141,Philadelphia County,PA,NA,NA,31.53409090909091
19143,Philadelphia County,PA,2.2364217252396164,NA,NA
19150,Philadelphia County,PA,NA,NA,37.5
19311,Chester County,PA,NA,91.1522633744856,NA
19403,Montgomery County,PA,NA,5.761316872427984,5.681818181818182
19426,Montgomery County,PA,70.28753993610223,NA,NA
19438,Montgomery County,PA,NA,53.29218106995884,NA
19475,Chester County,PA,NA,NA,75
19504,Berks County,PA,95.2076677316294,NA,NA
02814,Providence County,RI,NA,84.97942386831275,NA
02818,Kent County,RI,NA,NA,41.19318181818182
29078,Kershaw County,SC,NA,72.8395061728395,NA
29115,Orangeburg County,SC,NA,NA,48.86363636363637
29127,Newberry County,SC,NA,NA,84.0909090909091
29407,Charleston County,SC,NA,NA,81.81818181818183
29414,Charleston County,SC,NA,25.102880658436217,30.113636363636363
29431,Berkeley County,SC,93.61022364217251,NA,NA
29445,Berkeley County,SC,NA,NA,41.76136363636363
29455,Charleston County,SC,NA,NA,37.215909090909086
29461,Berkeley County,SC,31.629392971246006,NA,NA
29466,Charleston County,SC,NA,52.05761316872428,NA
29483,Dorchester County,SC,NA,NA,54.54545454545454
29550,Darlington County,SC,NA,NA,40.340909090909086
29576,Horry County,SC,NA,11.522633744855968,NA
29617,Greenville County,SC,NA,NA,71.02272727272727
29640,Pickens County,SC,NA,NA,31.818181818181817
29671,Pickens County,SC,NA,62.139917695473244,NA
29693,Oconee County,SC,NA,NA,45.45454545454545
29728,Chesterfield County,SC,79.2332268370607,NA,NA
29803,Aiken County,SC,NA,9.25925925925926,NA
29829,Aiken County,SC,NA,NA,90.3409090909091
29920,Beaufort County,SC,NA,60.49382716049383,NA
29936,Jasper County,SC,NA,82.3045267489712,NA
57106,Minnehaha County,SD,NA,33.95061728395062,NA
57702,Pennington County,SD,NA,17.48971193415638,NA
37027,Williamson County,TN,38.65814696485623,NA,NA
37055,Dickson County,TN,23.322683706070286,NA,NA
37083,Macon County,TN,NA,34.15637860082305,NA
37091,Marshall County,TN,NA,80.04115226337449,NA
37115,Davidson County,TN,NA,22.839506172839506,NA
37210,Davidson County,TN,58.78594249201278,NA,NA
37211,Davidson County,TN,NA,19.958847736625515,NA
37343,Hamilton County,TN,NA,21.604938271604937,NA
37379,Hamilton County,TN,NA,30.246913580246915,NA
37615,Washington County,TN,NA,NA,62.5
37643,Carter County,TN,NA,7.818930041152264,NA
37650,Unicoi County,TN,NA,NA,46.590909090909086
37664,Sullivan County,TN,NA,46.502057613168724,NA
37681,Washington County,TN,NA,98.76543209876543,NA
37716,Anderson County,TN,NA,29.4238683127572,NA
37745,Greene County,TN,NA,22.42798353909465,NA
37763,Roane County,TN,NA,NA,56.81818181818182
37814,Hamblen County,TN,30.031948881789138,NA,NA
37821,Cocke County,TN,16.93290734824281,NA,NA
37849,Knox County,TN,38.977635782747605,NA,NA
37918,Knox County,TN,16.293929712460063,NA,NA
37920,Knox County,TN,13.099041533546327,15.843621399176955,NA
38012,Haywood County,TN,77.31629392971246,NA,NA
38024,Dyer County,TN,23.961661341853034,NA,NA
38305,Madison County,TN,NA,10.905349794238683,NA
38572,Cumberland County,TN,NA,NA,67.61363636363636
75002,Collin County,TX,21.405750798722046,NA,NA
75019,Dallas County,TX,NA,54.52674897119342,NA
75024,Collin County,TX,NA,NA,69.0340909090909
75034,Denton County,TX,NA,NA,39.20454545454545
75038,Dallas County,TX,NA,NA,99.7159090909091
75041,Dallas County,TX,NA,71.39917695473251,NA
75060,Dallas County,TX,NA,40.74074074074074,NA
75069,Collin County,TX,NA,33.33333333333333,23.863636363636363
75071,Collin County,TX,NA,31.069958847736622,NA
75089,Dallas County,TX,NA,69.1358024691358,NA
75092,Grayson County,TX,NA,49.794238683127574,NA
75146,Dallas County,TX,NA,62.55144032921811,NA
75181,Dallas County,TX,NA,NA,98.57954545454545
75203,Dallas County,TX,NA,68.3127572016461,NA
75209,Dallas County,TX,NA,68.51851851851852,NA
75225,Dallas County,TX,NA,56.17283950617284,32.95454545454545
75244,Dallas County,TX,NA,84.15637860082305,NA
75605,Gregg County,TX,NA,39.50617283950617,NA
75670,Harrison County,TX,NA,89.50617283950618,NA
75672,Harrison County,TX,NA,62.96296296296296,NA
75707,Smith County,TX,NA,89.09465020576131,NA
75773,Wood County,TX,NA,NA,14.204545454545455
75789,Smith County,TX,NA,64.60905349794238,NA
76067,Palo Pinto County,TX,NA,97.32510288065843,NA
76117,Tarrant County,TX,33.22683706070288,NA,NA
76244,Tarrant County,TX,NA,53.70370370370371,NA
76272,Cooke County,TX,NA,92.5925925925926,NA
76309,Wichita County,TX,NA,NA,74.43181818181817
76502,Bell County,TX,NA,1.02880658436214,NA
76513,Bell County,TX,NA,1.2345679012345678,NA
76548,Bell County,TX,45.68690095846645,NA,NA
76643,McLennan County,TX,73.48242811501598,NA,NA
76706,McLennan County,TX,NA,NA,22.443181818181817
77012,Harris County,TX,NA,NA,87.5
77020,Harris County,TX,NA,54.32098765432099,NA
77021,Harris County,TX,34.504792332268366,NA,NA
77026,Harris County,TX,NA,NA,66.76136363636364
77028,Harris County,TX,49.84025559105431,NA,NA
77038,Harris County,TX,NA,NA,93.4659090909091
77040,Harris County,TX,NA,NA,60.22727272727273
77049,Harris County,TX,67.41214057507987,NA,NA
77057,Harris County,TX,NA,56.99588477366255,NA
77061,Harris County,TX,NA,NA,94.31818181818183
77089,Harris County,TX,NA,32.92181069958848,71.875
77095,Harris County,TX,NA,12.345679012345679,NA
77340,Walker County,TX,86.5814696485623,NA,NA
77345,Harris County,TX,NA,NA,66.47727272727273
77346,Harris County,TX,NA,35.18518518518518,NA
77356,Montgomery County,TX,69.00958466453673,NA,NA
77379,Harris County,TX,NA,10.08230452674897,NA
77388,Harris County,TX,NA,35.390946502057616,NA
77401,Harris County,TX,NA,NA,82.95454545454545
77406,Fort Bend County,TX,NA,29.01234567901235,NA
77429,Harris County,TX,14.057507987220447,NA,NA
77532,Harris County,TX,40.894568690095845,NA,NA
77573,Galveston County,TX,NA,62.757201646090536,NA
77705,Jefferson County,TX,44.40894568690096,NA,NA
77708,Jefferson County,TX,NA,NA,99.43181818181817
77954,DeWitt County,TX,71.56549520766772,58.43621399176955,NA
78006,Kendall County,TX,NA,NA,72.1590909090909
78045,Webb County,TX,NA,32.71604938271605,NA
78212,Bexar County,TX,NA,NA,78.4090909090909
78221,Bexar County,TX,NA,51.85185185185185,NA
78258,Bexar County,TX,68.05111821086261,NA,NA
78734,Travis County,TX,NA,NA,75.85227272727273
78747,Travis County,TX,NA,NA,90.625
78947,Lee County,TX,NA,99.58847736625515,NA
79329,Lubbock County,TX,96.80511182108627,NA,NA
79331,Dawson County,TX,72.52396166134186,NA,NA
79510,Callahan County,TX,NA,NA,86.07954545454545
79512,Mitchell County,TX,84.66453674121406,NA,NA
79605,Taylor County,TX,36.74121405750799,NA,NA
79606,Taylor County,TX,63.25878594249201,NA,NA
79905,El Paso County,TX,76.99680511182109,NA,NA
84009,Salt Lake County,UT,NA,84.5679012345679,NA
84074,Tooele County,UT,6.7092651757188495,20.37037037037037,NA
84078,Uintah County,UT,18.53035143769968,NA,NA
84097,Utah County,UT,NA,NA,92.04545454545455
84105,Salt Lake County,UT,NA,65.02057613168725,NA
84115,Salt Lake County,UT,NA,34.77366255144033,NA
84119,Salt Lake County,UT,14.696485623003195,NA,NA
84124,Salt Lake County,UT,NA,68.10699588477365,52.84090909090909
84302,Box Elder County,UT,NA,NA,73.86363636363636
84401,Weber County,UT,NA,50.617283950617285,NA
84404,Weber County,UT,53.674121405750796,38.477366255144034,NA
84663,Utah County,UT,NA,NA,84.94318181818183
84721,Iron County,UT,NA,65.84362139917695,NA
84770,Washington County,UT,NA,NA,7.386363636363637
84790,Washington County,UT,NA,13.374485596707819,NA
05301,Windham County,VT,92.01277955271566,NA,NA
05401,Chittenden County,VT,NA,NA,49.43181818181818
05468,Chittenden County,VT,NA,43.62139917695473,NA
05478,Franklin County,VT,81.78913738019169,NA,NA
05495,Chittenden County,VT,NA,64.19753086419753,NA
20110,Manassas city,VA,NA,NA,51.13636363636363
20136,Prince William County,VA,NA,NA,96.875
20169,Prince William County,VA,78.91373801916933,NA,NA
20170,Fairfax County,VA,NA,45.47325102880658,NA
22030,Fairfax County,VA,28.753993610223645,NA,NA
22039,Fairfax County,VA,NA,91.76954732510289,NA
22193,Prince William County,VA,44.08945686900959,55.96707818930041,NA
22306,Fairfax County,VA,NA,45.67901234567901,NA
22312,Fairfax County,VA,NA,65.22633744855966,NA
22801,Harrisonburg city,VA,43.13099041533546,NA,NA
22802,Harrisonburg city,VA,24.281150159744406,NA,NA
22840,Rockingham County,VA,NA,98.97119341563786,NA
22901,Albemarle County,VA,NA,NA,62.21590909090909
22980,Waynesboro city,VA,NA,3.4979423868312756,NA
23061,Gloucester County,VA,87.22044728434504,NA,NA
23093,Louisa County,VA,62.30031948881789,NA,NA
23113,Chesterfield County,VA,84.34504792332268,NA,NA
23150,Henrico County,VA,NA,79.83539094650206,NA
23185,James City County,VA,NA,3.0864197530864197,NA
23192,Hanover County,VA,97.76357827476039,NA,NA
23233,Henrico County,VA,82.42811501597444,NA,NA
23321,Chesapeake city,VA,NA,NA,22.15909090909091
23322,Chesapeake city,VA,NA,23.251028806584362,NA
23434,Suffolk city,VA,18.210862619808307,NA,NA
23451,Virginia Beach city,VA,NA,NA,3.125
23455,Virginia Beach city,VA,NA,8.641975308641975,15.909090909090908
23510,Norfolk city,VA,NA,NA,72.44318181818183
23513,Norfolk city,VA,NA,NA,20.170454545454543
23860,Hopewell city,VA,NA,27.572016460905353,NA
24073,Montgomery County,VA,NA,NA,98.01136363636364
24179,Roanoke County,VA,NA,44.650205761316876,NA
24219,Wise County,VA,90.09584664536742,NA,NA
24360,Wythe County,VA,NA,95.47325102880659,NA
24401,Staunton city,VA,NA,NA,6.25
98007,King County,WA,NA,NA,53.69318181818182
98033,King County,WA,NA,NA,25.85227272727273
98040,King County,WA,NA,NA,42.32954545454545
98053,King County,WA,NA,NA,50
98058,King County,WA,NA,20.98765432098765,NA
98104,King County,WA,NA,NA,59.65909090909091
98106,King County,WA,62.939297124600635,NA,NA
98116,King County,WA,NA,NA,74.7159090909091
98198,King County,WA,41.853035143769965,NA,NA
98251,Snohomish County,WA,97.44408945686901,NA,NA
98277,Island County,WA,NA,NA,46.875
98362,Clallam County,WA,NA,7.613168724279835,NA
98382,Clallam County,WA,53.03514376996805,NA,0.5681818181818182
98387,Pierce County,WA,NA,23.045267489711936,NA
98503,Thurston County,WA,NA,50.20576131687243,NA
98662,Clark County,WA,NA,NA,41.47727272727273
98823,Grant County,WA,82.10862619808307,79.21810699588477,NA
98826,Chelan County,WA,NA,75.92592592592592,NA
98901,Yakima County,WA,NA,88.06584362139918,42.04545454545455
98953,Yakima County,WA,97.12460063897763,NA,NA
99016,Spokane County,WA,98.7220447284345,NA,NA
99205,Spokane County,WA,NA,48.148148148148145,NA
99207,Spokane County,WA,50.47923322683706,NA,NA
99301,Franklin County,WA,NA,NA,10.795454545454545
99338,Benton County,WA,NA,31.48148148148148,NA
99352,Benton County,WA,NA,25.308641975308642,NA
20024,District of Columbia,DC,NA,61.31687242798354,NA
25071,Kanawha County,WV,NA,93.00411522633745,NA
25143,Kanawha County,WV,NA,69.54732510288066,NA
25302,Kanawha County,WV,NA,NA,54.82954545454546
25427,Berkeley County,WV,65.49520766773162,NA,NA
25526,Putnam County,WV,NA,38.065843621399175,NA
25530,Wayne County,WV,74.4408945686901,NA,NA
25560,Putnam County,WV,NA,94.44444444444444,NA
26041,Marshall County,WV,NA,87.86008230452676,NA
26330,Harrison County,WV,NA,29.218106995884774,NA
26753,Mineral County,WV,NA,84.77366255144034,NA
53005,Waukesha County,WI,39.61661341853035,NA,NA
53014,Calumet County,WI,NA,86.83127572016461,NA
53150,Waukesha County,WI,66.77316293929712,NA,NA
53158,Kenosha County,WI,NA,27.77777777777778,NA
53204,Milwaukee County,WI,8.30670926517572,NA,NA
53209,Milwaukee County,WI,NA,NA,9.375
53220,Milwaukee County,WI,NA,24.691358024691358,NA
53223,Milwaukee County,WI,NA,NA,14.488636363636365
53224,Milwaukee County,WI,70.92651757188499,NA,NA
53226,Milwaukee County,WI,NA,33.53909465020576,NA
53402,Racine County,WI,NA,NA,1.4204545454545454
53406,Racine County,WI,NA,2.263374485596708,NA
53546,Rock County,WI,NA,3.7037037037037033,NA
54028,St. Croix County,WI,99.36102236421725,NA,NA
54139,Oconto County,WI,NA,97.11934156378601,NA
54157,Marinette County,WI,79.55271565495208,NA,NA
54217,Kewaunee County,WI,NA,94.03292181069959,NA
54220,Manitowoc County,WI,NA,17.078189300411523,NA
54304,Brown County,WI,NA,NA,61.64772727272727
54313,Brown County,WI,61.34185303514377,NA,NA
54401,Marathon County,WI,NA,30.864197530864196,NA
54451,Taylor County,WI,NA,NA,55.68181818181818
54660,Monroe County,WI,NA,46.70781893004115,NA
54701,Eau Claire County,WI,NA,NA,34.090909090909086
54880,Douglas County,WI,NA,NA,1.1363636363636365
54904,Winnebago County,WI,NA,73.04526748971193,NA
54937,Fond du Lac County,WI,NA,52.46913580246913,NA
82633,Converse County,WY,NA,NA,82.38636363636364
