ZipCode,county,state,Youth,Pediatric,Adult
35007,Shelby County,AL,NA,NA,60.34063260340633
35206,Jefferson County,AL,NA,44.935543278084715,NA
35211,Jefferson County,AL,NA,55.24861878453039,NA
35235,Jefferson County,AL,NA,55.80110497237569,63.017031630170315
35601,Morgan County,AL,20.094562647754138,NA,NA
35622,Morgan County,AL,72.81323877068559,NA,NA
35660,Colbert County,AL,NA,NA,76.64233576642336
35905,Etowah County,AL,NA,74.40147329650092,NA
35976,Marshall County,AL,NA,57.0902394106814,NA
35980,Marshall County,AL,NA,NA,96.83698296836984
36116,Montgomery County,AL,NA,NA,85.88807785888078
36575,Mobile County,AL,NA,NA,66.18004866180048
36804,Lee County,AL,NA,73.48066298342542,NA
99654,Matanuska-Susitna Borough,AK,35.22458628841608,NA,NA
85003,Maricopa County,AZ,NA,NA,87.59124087591242
85007,Maricopa County,AZ,NA,NA,17.27493917274939
85008,Maricopa County,AZ,NA,NA,21.897810218978105
85016,Maricopa County,AZ,36.40661938534279,NA,NA
85029,Maricopa County,AZ,NA,42.9097605893186,NA
85042,Maricopa County,AZ,NA,23.204419889502763,NA
85050,Maricopa County,AZ,63.829787234042556,NA,NA
85122,Pinal County,AZ,NA,8.655616942909761,14.841849148418493
85131,Pinal County,AZ,70.6855791962175,NA,NA
85143,Pinal County,AZ,87.70685579196218,NA,NA
85210,Maricopa County,AZ,NA,51.93370165745856,NA
85256,Maricopa County,AZ,92.43498817966903,NA,NA
85305,Maricopa County,AZ,83.451536643026,NA,NA
85340,Maricopa County,AZ,NA,83.97790055248619,NA
85365,Yuma County,AZ,NA,NA,35.03649635036496
85542,Gila County,AZ,NA,99.6316758747698,NA
85621,Santa Cruz County,AZ,NA,11.602209944751381,NA
85653,Pima County,AZ,NA,NA,99.7566909975669
85705,Pima County,AZ,11.11111111111111,NA,NA
85706,Pima County,AZ,0.4728132387706856,NA,NA
85756,Pima County,AZ,37.5886524822695,NA,NA
85901,Navajo County,AZ,NA,NA,60.82725060827251
86004,Coconino County,AZ,20.803782505910164,20.257826887661142,NA
86033,Navajo County,AZ,NA,13.075506445672191,NA
86044,San Juan County,AZ,NA,59.30018416206262,NA
86556,Apache County,AZ,NA,NA,100
72023,Lonoke County,AR,39.479905437352244,NA,NA
72160,Arkansas County,AR,NA,NA,92.94403892944038
90003,Los Angeles County,CA,NA,14.732965009208105,NA
90007,Los Angeles County,CA,NA,NA,35.76642335766424
90016,Los Angeles County,CA,60.047281323877066,NA,NA
90031,Los Angeles County,CA,67.61229314420804,NA,NA
90044,Los Angeles County,CA,NA,NA,12.895377128953772
90057,Los Angeles County,CA,52.95508274231678,NA,NA
90262,Los Angeles County,CA,NA,NA,42.579075425790755
90403,Los Angeles County,CA,NA,NA,75.91240875912408
90713,Los Angeles County,CA,73.28605200945626,NA,NA
90723,Los Angeles County,CA,47.75413711583924,NA,NA
90813,Los Angeles County,CA,NA,NA,39.416058394160586
91320,Ventura County,CA,77.77777777777779,NA,NA
91362,Ventura County,CA,72.10401891252955,NA,NA
91731,Los Angeles County,CA,NA,NA,45.98540145985402
91754,Los Angeles County,CA,NA,NA,90.2676399026764
92019,San Diego County,CA,30.023640661938533,NA,NA
92173,San Diego County,CA,NA,NA,70.8029197080292
92211,Riverside County,CA,85.1063829787234,NA,NA
92354,San Bernardino County,CA,64.0661938534279,NA,NA
92373,San Bernardino County,CA,37.35224586288416,NA,NA
92394,San Bernardino County,CA,NA,NA,57.66423357664233
92509,Riverside County,CA,47.04491725768322,NA,NA
92553,Riverside County,CA,NA,13.996316758747698,NA
92555,Riverside County,CA,60.7565011820331,NA,NA
92592,Riverside County,CA,17.02127659574468,NA,NA
92675,Orange County,CA,NA,NA,72.01946472019465
92801,Orange County,CA,NA,NA,41.84914841849148
92804,Orange County,CA,NA,NA,22.871046228710462
92807,Orange County,CA,68.79432624113475,NA,NA
93277,Tulare County,CA,NA,NA,31.630170316301705
93280,Kern County,CA,NA,NA,82.23844282238443
93309,Kern County,CA,NA,NA,38.44282238442822
93534,Los Angeles County,CA,47.99054373522459,NA,NA
93551,Los Angeles County,CA,64.53900709219859,NA,NA
93610,Madera County,CA,NA,NA,79.07542579075427
93625,Fresno County,CA,NA,73.48066298342542,NA
93638,Madera County,CA,NA,NA,27.00729927007299
93654,Fresno County,CA,NA,28.360957642725598,NA
93703,Fresno County,CA,NA,NA,80.2919708029197
93705,Fresno County,CA,NA,NA,72.74939172749392
93706,Fresno County,CA,NA,NA,30.413625304136254
94116,San Francisco County,CA,NA,NA,63.990267639902676
94587,Alameda County,CA,NA,NA,44.76885644768856
95062,Santa Cruz County,CA,NA,NA,79.80535279805353
95242,San Joaquin County,CA,NA,63.35174953959485,NA
95338,Mariposa County,CA,NA,63.35174953959485,NA
95531,Del Norte County,CA,NA,48.98710865561694,NA
95946,Nevada County,CA,90.30732860520094,NA,NA
95966,Butte County,CA,NA,20.257826887661142,NA
96001,Shasta County,CA,NA,NA,29.44038929440389
96007,Shasta County,CA,NA,96.50092081031308,NA
80010,Arapahoe County,CO,54.60992907801418,NA,NA
80033,Jefferson County,CO,NA,NA,58.88077858880778
80104,Douglas County,CO,33.33333333333333,NA,NA
80134,Douglas County,CO,10.401891252955082,NA,NA
80227,Jefferson County,CO,NA,38.48987108655617,NA
80487,Routt County,CO,89.59810874704492,NA,NA
80601,Adams County,CO,76.35933806146572,NA,40.87591240875913
80916,El Paso County,CO,NA,15.101289134438305,NA
80925,El Paso County,CO,NA,93.92265193370166,NA
06002,Hartford County,CT,NA,92.63351749539595,NA
06040,Hartford County,CT,NA,18.047882136279927,NA
06051,Hartford County,CT,NA,NA,6.082725060827251
06053,Hartford County,CT,NA,NA,17.761557177615572
06088,Hartford County,CT,NA,96.13259668508287,NA
06108,Hartford County,CT,NA,NA,36.982968369829685
06416,Middlesex County,CT,NA,NA,77.85888077858881
06457,Middlesex County,CT,NA,53.591160220994475,13.86861313868613
06492,New Haven County,CT,NA,57.0902394106814,NA
06512,New Haven County,CT,NA,NA,30.656934306569344
06513,New Haven County,CT,NA,NA,6.81265206812652
06515,New Haven County,CT,NA,33.33333333333333,NA
06518,New Haven County,CT,84.63356973995272,NA,NA
06712,New Haven County,CT,NA,NA,93.18734793187348
06759,Litchfield County,CT,NA,NA,94.64720194647201
06776,Litchfield County,CT,NA,NA,35.27980535279806
06790,Litchfield County,CT,NA,27.624309392265197,NA
06851,Fairfield County,CT,NA,NA,88.07785888077859
19703,New Castle County,DE,NA,NA,66.66666666666666
19720,New Castle County,DE,NA,NA,41.119221411192214
19904,Kent County,DE,21.98581560283688,60.957642725598525,NA
19938,Kent County,DE,NA,NA,73.2360097323601
19973,Sussex County,DE,NA,24.49355432780847,24.574209245742093
19977,Kent County,DE,NA,81.76795580110497,NA
32060,Suwannee County,FL,47.5177304964539,NA,NA
32063,Baker County,FL,NA,78.26887661141805,NA
32128,Volusia County,FL,88.17966903073287,NA,NA
32174,Volusia County,FL,NA,63.16758747697975,NA
32206,Duval County,FL,NA,NA,30.170316301703163
32209,Duval County,FL,NA,NA,7.0559610705596105
32221,Duval County,FL,NA,NA,36.496350364963504
32233,Duval County,FL,87.2340425531915,NA,NA
32258,Duval County,FL,NA,99.4475138121547,NA
32259,St. Johns County,FL,NA,NA,52.311435523114355
32303,Leon County,FL,NA,70.1657458563536,NA
32327,Wakulla County,FL,NA,52.48618784530387,NA
32347,Taylor County,FL,NA,NA,90.02433090024331
32401,Bay County,FL,NA,46.224677716390424,NA
32505,Escambia County,FL,NA,23.204419889502763,NA
32507,Escambia County,FL,2.127659574468085,NA,NA
32577,Escambia County,FL,77.06855791962175,NA,NA
32606,Alachua County,FL,41.60756501182033,NA,NA
32618,Alachua County,FL,NA,85.6353591160221,NA
32757,Lake County,FL,NA,88.39779005524862,NA
32817,Orange County,FL,NA,56.537753222836095,NA
32905,Brevard County,FL,NA,53.22283609576427,NA
32966,Indian River County,FL,NA,94.47513812154696,NA
33023,Broward County,FL,NA,13.259668508287293,NA
33027,Broward County,FL,NA,NA,49.63503649635037
33029,Broward County,FL,NA,NA,67.15328467153284
33030,Miami-Dade County,FL,NA,NA,52.55474452554745
33063,Broward County,FL,NA,43.278084714548804,NA
33125,Miami-Dade County,FL,NA,70.3499079189687,NA
33143,Miami-Dade County,FL,NA,NA,85.40145985401459
33165,Miami-Dade County,FL,33.09692671394799,26.519337016574585,NA
33309,Broward County,FL,NA,17.495395948434624,NA
33313,Broward County,FL,NA,14.548802946593002,NA
33324,Broward County,FL,NA,47.697974217311234,NA
33411,Palm Beach County,FL,NA,NA,47.688564476885645
33527,Hillsborough County,FL,NA,58.195211786372006,NA
33543,Pasco County,FL,NA,NA,63.74695863746959
33549,Hillsborough County,FL,NA,69.42909760589319,NA
33566,Hillsborough County,FL,NA,76.61141804788214,NA
33609,Hillsborough County,FL,NA,91.16022099447514,NA
33612,Hillsborough County,FL,NA,52.67034990791897,NA
33705,Pinellas County,FL,NA,NA,35.523114355231144
33771,Pinellas County,FL,NA,68.32412523020258,53.52798053527981
33803,Polk County,FL,NA,NA,67.63990267639902
33805,Polk County,FL,NA,NA,49.148418491484186
33810,Polk County,FL,NA,36.095764272559855,NA
33813,Polk County,FL,NA,NA,67.39659367396594
33830,Polk County,FL,28.368794326241137,NA,NA
33880,Polk County,FL,NA,27.255985267034994,NA
33881,Polk County,FL,93.14420803782507,NA,NA
33907,Lee County,FL,NA,99.2633517495396,NA
33909,Lee County,FL,NA,41.25230202578269,NA
33919,Lee County,FL,97.39952718676122,NA,NA
33967,Lee County,FL,NA,NA,65.93673965936739
33976,Lee County,FL,69.97635933806147,NA,NA
34116,Collier County,FL,49.40898345153664,NA,NA
34210,Manatee County,FL,86.52482269503547,NA,NA
34475,Marion County,FL,NA,46.224677716390424,NA
34652,Pasco County,FL,NA,NA,50.85158150851582
34689,Pinellas County,FL,83.92434988179669,NA,NA
34746,Osceola County,FL,NA,NA,45.25547445255474
34748,Lake County,FL,NA,74.21731123388582,NA
34759,Polk County,FL,7.5650118203309695,NA,NA
34785,Sumter County,FL,NA,39.59484346224678,NA
30032,DeKalb County,GA,NA,NA,20.92457420924574
30046,Gwinnett County,GA,NA,37.20073664825046,NA
30067,Cobb County,GA,NA,59.30018416206262,NA
30078,Gwinnett County,GA,NA,55.432780847145494,NA
30101,Cobb County,GA,29.314420803782504,NA,NA
30127,Cobb County,GA,NA,39.59484346224678,26.763990267639905
30144,Cobb County,GA,NA,NA,87.34793187347933
30217,Heard County,GA,NA,NA,75.4257907542579
30248,Henry County,GA,NA,83.60957642725599,NA
30253,Henry County,GA,NA,NA,32.846715328467155
30260,Clayton County,GA,NA,62.246777163904234,NA
30312,Fulton County,GA,NA,58.195211786372006,NA
30324,Fulton County,GA,NA,93.92265193370166,NA
30344,Fulton County,GA,NA,72.19152854511971,NA
30513,Fannin County,GA,NA,NA,81.75182481751825
30533,Lumpkin County,GA,NA,67.40331491712708,NA
30601,Clarke County,GA,24.58628841607565,NA,NA
30710,Whitfield County,GA,NA,96.68508287292818,NA
30906,Richmond County,GA,29.078014184397162,NA,NA
31548,Camden County,GA,NA,73.84898710865562,NA
31714,Turner County,GA,NA,95.39594843462247,NA
31750,Ben Hill County,GA,56.973995271867615,NA,NA
31768,Colquitt County,GA,NA,NA,39.17274939172749
31904,Muscogee County,GA,NA,71.8232044198895,NA
96701,Honolulu County,HI,NA,NA,42.092457420924575
96706,Honolulu County,HI,NA,44.01473296500921,NA
96720,Hawaii County,HI,NA,41.988950276243095,NA
96727,Hawaii County,HI,58.86524822695035,NA,NA
96792,Honolulu County,HI,NA,31.860036832412526,NA
96813,Honolulu County,HI,35.69739952718676,NA,NA
96817,Honolulu County,HI,NA,17.12707182320442,NA
83274,Bingham County,ID,NA,NA,88.56447688564477
83301,Twin Falls County,ID,4.0189125295508275,NA,27.980535279805352
83467,Lemhi County,ID,NA,95.76427255985267,NA
83607,Canyon County,ID,25.059101654846334,NA,NA
83642,Ada County,ID,21.04018912529551,NA,NA
83854,Kootenai County,ID,NA,NA,39.90267639902677
60002,Lake County,IL,NA,95.39594843462247,NA
60005,Cook County,IL,62.174940898345156,NA,NA
60013,McHenry County,IL,NA,NA,64.47688564476886
60045,Lake County,IL,61.22931442080378,NA,NA
60056,Cook County,IL,27.423167848699766,NA,NA
60060,Lake County,IL,26.95035460992908,NA,NA
60062,Cook County,IL,NA,NA,48.661800486618006
60085,Lake County,IL,NA,79.55801104972376,74.69586374695864
60107,Cook County,IL,39.952718676122934,89.31860036832413,NA
60139,DuPage County,IL,NA,87.29281767955801,59.36739659367397
60181,DuPage County,IL,53.191489361702125,NA,NA
60187,DuPage County,IL,39.00709219858156,NA,NA
60411,Cook County,IL,52.00945626477541,NA,21.41119221411192
60420,Livingston County,IL,90.78014184397163,NA,NA
60438,Cook County,IL,NA,NA,52.798053527980535
60452,Cook County,IL,NA,NA,57.907542579075425
60491,Will County,IL,63.35697399527187,NA,NA
60510,Kane County,IL,65.95744680851064,NA,NA
60526,Cook County,IL,NA,100,NA
60545,Kendall County,IL,50.11820330969267,NA,NA
60548,DeKalb County,IL,85.81560283687944,NA,NA
60565,DuPage County,IL,NA,NA,37.469586374695865
60616,Cook County,IL,NA,NA,45.742092457420924
60618,Cook County,IL,9.929078014184398,NA,NA
60619,Cook County,IL,67.37588652482269,NA,NA
60622,Cook County,IL,NA,NA,46.715328467153284
60629,Cook County,IL,52.4822695035461,NA,NA
60640,Cook County,IL,38.53427895981088,NA,NA
60641,Cook County,IL,78.72340425531915,NA,NA
60644,Cook County,IL,27.18676122931442,NA,NA
60645,Cook County,IL,20.33096926713948,NA,NA
60659,Cook County,IL,NA,NA,56.447688564476884
61032,Stephenson County,IL,55.082742316784874,NA,NA
61080,Winnebago County,IL,NA,NA,95.86374695863748
61103,Winnebago County,IL,NA,NA,61.80048661800487
61265,Rock Island County,IL,NA,81.76795580110497,NA
61554,Tazewell County,IL,NA,NA,83.94160583941606
61604,Peoria County,IL,NA,92.08103130755065,NA
61802,Champaign County,IL,90.0709219858156,NA,NA
61832,Vermilion County,IL,23.167848699763592,NA,NA
62294,Madison County,IL,79.90543735224587,NA,NA
62301,Adams County,IL,NA,64.64088397790056,NA
62305,Adams County,IL,NA,NA,77.61557177615572
62521,Macon County,IL,NA,97.97421731123389,NA
46016,Madison County,IN,NA,NA,53.04136253041363
46052,Boone County,IN,NA,86.1878453038674,NA
46143,Johnson County,IN,NA,41.988950276243095,NA
46204,Marion County,IN,NA,79.37384898710866,NA
46219,Marion County,IN,NA,99.8158379373849,19.464720194647203
46229,Marion County,IN,18.203309692671397,33.51749539594843,NA
46234,Marion County,IN,NA,52.302025782688766,NA
46236,Marion County,IN,NA,68.69244935543279,NA
46307,Lake County,IN,91.48936170212765,NA,NA
46319,Lake County,IN,NA,77.53222836095765,NA
46321,Lake County,IN,NA,NA,43.552311435523116
46323,Lake County,IN,15.602836879432624,NA,NA
46342,Lake County,IN,NA,51.38121546961326,9.002433090024331
46360,LaPorte County,IN,17.257683215130022,NA,NA
46383,Porter County,IN,2.8368794326241136,NA,14.355231143552311
46385,Porter County,IN,NA,59.30018416206262,NA
46394,Lake County,IN,NA,NA,62.530413625304135
46404,Lake County,IN,NA,NA,40.632603406326034
46408,Lake County,IN,NA,NA,55.71776155717762
46507,Elkhart County,IN,NA,88.95027624309392,NA
46517,Elkhart County,IN,NA,60.22099447513812,NA
46534,Starke County,IN,NA,NA,62.77372262773723
46561,St. Joseph County,IN,NA,66.85082872928176,NA
46563,Marshall County,IN,NA,34.25414364640884,NA
46582,Kosciusko County,IN,NA,NA,84.67153284671532
46601,St. Joseph County,IN,99.52718676122932,94.47513812154696,NA
46614,St. Joseph County,IN,21.27659574468085,89.68692449355433,NA
46628,St. Joseph County,IN,NA,86.3720073664825,NA
46725,Whitley County,IN,NA,87.10865561694291,NA
46755,Noble County,IN,NA,92.44935543278085,NA
46774,Allen County,IN,NA,65.56169429097606,NA
46793,DeKalb County,IN,96.45390070921985,81.21546961325967,NA
46806,Allen County,IN,53.90070921985816,45.30386740331492,NA
46808,Allen County,IN,NA,NA,85.64476885644768
46818,Allen County,IN,NA,98.52670349907919,NA
46825,Allen County,IN,10.16548463356974,45.48802946593002,NA
46928,Grant County,IN,NA,81.76795580110497,NA
46947,Cass County,IN,61.938534278959814,NA,19.22141119221411
46970,Miami County,IN,76.8321513002364,92.81767955801105,NA
46992,Wabash County,IN,NA,NA,42.33576642335766
47001,Dearborn County,IN,81.56028368794325,NA,NA
47006,Ripley County,IN,NA,98.89502762430939,NA
47130,Clark County,IN,NA,75.50644567219152,NA
47201,Bartholomew County,IN,NA,NA,18.734793187347933
47240,Decatur County,IN,89.36170212765957,NA,NA
47303,Delaware County,IN,NA,99.0791896869245,74.93917274939173
47304,Delaware County,IN,NA,83.97790055248619,NA
47330,Wayne County,IN,NA,NA,92.21411192214111
47374,Wayne County,IN,NA,NA,50.60827250608273
47403,Monroe County,IN,45.62647754137116,NA,NA
47441,Greene County,IN,81.7966903073286,NA,NA
47591,Knox County,IN,33.56973995271868,NA,NA
47610,Warrick County,IN,90.78014184397163,NA,NA
47805,Vigo County,IN,NA,95.21178637200737,NA
47906,Tippecanoe County,IN,NA,NA,63.26034063260341
47918,Fountain County,IN,NA,94.47513812154696,NA
50126,Hardin County,IA,91.725768321513,NA,NA
50801,Union County,IA,NA,NA,48.9051094890511
51501,Pottawattamie County,IA,NA,25.96685082872928,NA
52136,Howard County,IA,95.0354609929078,NA,NA
52240,Johnson County,IA,NA,76.79558011049724,NA
52246,Johnson County,IA,43.262411347517734,NA,NA
52302,Linn County,IA,NA,40.147329650092075,NA
52349,Benton County,IA,83.92434988179669,NA,NA
52501,Wapello County,IA,NA,NA,23.114355231143552
52632,Lee County,IA,NA,57.826887661141804,49.63503649635037
52802,Scott County,IA,NA,60.957642725598525,NA
66025,Douglas County,KS,73.28605200945626,NA,NA
66212,Johnson County,KS,51.06382978723404,NA,NA
40059,Jefferson County,KY,NA,88.58195211786372,NA
40165,Bullitt County,KY,NA,58.74769797421732,NA
40210,Jefferson County,KY,NA,36.279926335174956,NA
40211,Jefferson County,KY,NA,65.37753222836096,NA
40216,Jefferson County,KY,17.494089834515368,NA,NA
40219,Jefferson County,KY,NA,69.9815837937385,NA
40258,Jefferson County,KY,37.825059101654844,NA,NA
40291,Jefferson County,KY,NA,40.88397790055249,NA
40324,Scott County,KY,NA,30.20257826887661,NA
40330,Mercer County,KY,NA,48.61878453038674,NA
40422,Boyle County,KY,NA,NA,57.17761557177615
40475,Madison County,KY,NA,13.627992633517497,NA
40511,Fayette County,KY,NA,26.335174953959484,NA
40769,Whitley County,KY,NA,30.018416206261513,NA
41048,Boone County,KY,38.53427895981088,NA,NA
41143,Carter County,KY,26.24113475177305,NA,NA
41171,Elliott County,KY,98.81796690307328,NA,NA
41701,Perry County,KY,NA,NA,71.53284671532847
42141,Barren County,KY,NA,21.54696132596685,NA
42240,Christian County,KY,NA,23.204419889502763,NA
42276,Logan County,KY,56.50118203309693,NA,NA
42301,Daviess County,KY,NA,50.64456721915286,NA
42347,Ohio County,KY,85.57919621749409,NA,NA
42366,Daviess County,KY,86.99763593380615,NA,NA
42420,Henderson County,KY,29.78723404255319,NA,NA
42431,Hopkins County,KY,53.90070921985816,NA,NA
42501,Pulaski County,KY,78.01418439716312,NA,NA
70003,Jefferson Parish,LA,NA,NA,14.5985401459854
70058,Jefferson Parish,LA,NA,NA,3.8929440389294405
70068,St. John the Baptist Parish,LA,NA,3.867403314917127,NA
70072,Jefferson Parish,LA,NA,0.7366482504604052,NA
70121,Jefferson Parish,LA,NA,NA,58.63746958637469
70131,Orleans Parish,LA,NA,9.392265193370166,NA
70364,Terrebonne Parish,LA,7.328605200945626,NA,NA
70401,Tangipahoa Parish,LA,13.238770685579196,NA,NA
70446,Tangipahoa Parish,LA,NA,21.915285451197054,NA
70458,St. Tammany Parish,LA,NA,3.683241252302026,NA
70460,St. Tammany Parish,LA,NA,7.734806629834254,NA
70466,Tangipahoa Parish,LA,NA,88.95027624309392,NA
70506,Lafayette Parish,LA,NA,60.773480662983424,NA
70535,St. Landry Parish,LA,NA,NA,33.57664233576642
70757,Iberville Parish,LA,NA,60.957642725598525,NA
70802,East Baton Rouge Parish,LA,3.309692671394799,NA,NA
70805,East Baton Rouge Parish,LA,NA,4.41988950276243,NA
70807,East Baton Rouge Parish,LA,NA,27.992633517495396,NA
71001,Bienville Parish,LA,NA,37.93738489871086,NA
71037,Bossier Parish,LA,NA,20.810313075506446,NA
71111,Bossier Parish,LA,8.747044917257684,NA,NA
71118,Caddo Parish,LA,NA,8.47145488029466,NA
71351,Avoyelles Parish,LA,NA,8.103130755064457,NA
04027,York County,ME,NA,80.66298342541437,NA
04071,Cumberland County,ME,81.08747044917257,NA,NA
04083,York County,ME,NA,NA,97.5669099756691
04092,Cumberland County,ME,32.15130023640662,NA,NA
04101,Cumberland County,ME,22.69503546099291,NA,NA
04103,Cumberland County,ME,NA,NA,78.58880778588808
04106,Cumberland County,ME,NA,NA,43.30900243309003
04240,Androscoggin County,ME,NA,35.91160220994475,3.64963503649635
04250,Androscoggin County,ME,NA,91.52854511970534,NA
04270,Oxford County,ME,NA,88.76611418047882,NA
04280,Androscoggin County,ME,71.8676122931442,NA,NA
04282,Androscoggin County,ME,NA,93.00184162062615,NA
04330,Kennebec County,ME,NA,NA,10.46228710462287
04468,Penobscot County,ME,81.08747044917257,NA,NA
04530,Sagadahoc County,ME,65.48463356973994,NA,NA
04654,Washington County,ME,NA,71.27071823204419,NA
04730,Aroostook County,ME,NA,55.432780847145494,NA
04736,Aroostook County,ME,NA,40.699815837937386,NA
04769,Aroostook County,ME,NA,82.50460405156538,NA
04843,Knox County,ME,NA,92.08103130755065,NA
04927,Kennebec County,ME,NA,67.95580110497238,NA
04938,Franklin County,ME,NA,57.826887661141804,NA
20695,Charles County,MD,85.34278959810875,NA,NA
20746,Prince George's County,MD,61.22931442080378,NA,NA
20770,Prince George's County,MD,NA,NA,82.7250608272506
20850,Montgomery County,MD,48.69976359338061,NA,NA
20874,Montgomery County,MD,51.30023640661938,NA,NA
20879,Montgomery County,MD,76.12293144208037,NA,NA
21030,Baltimore County,MD,84.86997635933807,NA,NA
21042,Howard County,MD,42.31678486997636,NA,NA
21044,Howard County,MD,39.952718676122934,NA,NA
21054,Anne Arundel County,MD,89.83451536643025,NA,NA
21085,Harford County,MD,79.43262411347519,NA,NA
21090,Anne Arundel County,MD,91.96217494089835,NA,NA
21108,Anne Arundel County,MD,95.50827423167848,NA,NA
21113,Anne Arundel County,MD,58.392434988179666,NA,NA
21114,Anne Arundel County,MD,94.08983451536643,NA,NA
21117,Baltimore County,MD,94.56264775413712,NA,NA
21122,Anne Arundel County,MD,76.59574468085107,NA,NA
21128,Baltimore County,MD,97.16312056737588,NA,NA
21144,Anne Arundel County,MD,45.62647754137116,NA,NA
21146,Anne Arundel County,MD,68.08510638297872,NA,NA
21204,Baltimore County,MD,69.97635933806147,NA,NA
21209,Baltimore County,MD,64.77541371158392,NA,NA
21210,Baltimore city,MD,92.67139479905437,NA,NA
21216,Baltimore city,MD,NA,NA,44.28223844282238
21224,Baltimore city,MD,31.44208037825059,NA,NA
21228,Baltimore County,MD,79.19621749408984,NA,NA
21229,Baltimore city,MD,43.02600472813239,NA,NA
21244,Baltimore County,MD,20.56737588652482,NA,NA
21740,Washington County,MD,17.96690307328605,NA,NA
21784,Carroll County,MD,82.97872340425532,NA,NA
21801,Wicomico County,MD,61.702127659574465,NA,NA
01013,Hampden County,MA,NA,22.099447513812155,NA
01040,Hampden County,MA,NA,2.209944751381215,NA
01105,Hampden County,MA,NA,5.893186003683241,5.109489051094891
01108,Hampden County,MA,10.638297872340425,85.451197053407,NA
01118,Hampden County,MA,NA,34.806629834254146,NA
01267,Berkshire County,MA,NA,NA,86.37469586374696
01504,Worcester County,MA,77.30496453900709,NA,NA
01516,Worcester County,MA,72.10401891252955,NA,NA
01540,Worcester County,MA,82.74231678486997,NA,NA
01550,Worcester County,MA,NA,4.051565377532229,1.70316301703163
01581,Worcester County,MA,44.91725768321513,NA,NA
01603,Worcester County,MA,NA,NA,2.9197080291970803
01609,Worcester County,MA,NA,14.917127071823206,4.866180048661801
01610,Worcester County,MA,NA,NA,8.02919708029197
01701,Middlesex County,MA,23.167848699763592,18.23204419889503,NA
01721,Middlesex County,MA,NA,NA,40.14598540145985
01742,Middlesex County,MA,NA,68.69244935543279,NA
01760,Middlesex County,MA,17.73049645390071,NA,NA
01778,Middlesex County,MA,41.60756501182033,NA,NA
01810,Essex County,MA,59.10165484633569,NA,NA
01830,Essex County,MA,NA,55.98526703499079,NA
01841,Essex County,MA,NA,0.5524861878453038,NA
01844,Essex County,MA,NA,24.861878453038674,NA
01845,Essex County,MA,NA,NA,34.0632603406326
01854,Middlesex County,MA,24.113475177304963,NA,NA
01862,Middlesex County,MA,74.46808510638297,NA,NA
01867,Middlesex County,MA,NA,NA,33.57664233576642
01902,Essex County,MA,8.037825059101655,0.9208103130755065,62.28710462287105
01940,Essex County,MA,86.7612293144208,NA,68.85644768856449
01960,Essex County,MA,6.382978723404255,12.338858195211786,NA
02048,Bristol County,MA,NA,16.94290976058932,NA
02066,Plymouth County,MA,63.12056737588653,NA,NA
02090,Norfolk County,MA,NA,NA,72.26277372262774
02118,Suffolk County,MA,NA,NA,0.24330900243309003
02119,Suffolk County,MA,5.200945626477541,NA,0
02120,Suffolk County,MA,NA,11.233885819521179,NA
02121,Suffolk County,MA,NA,1.841620626151013,NA
02124,Suffolk County,MA,NA,0,3.40632603406326
02125,Suffolk County,MA,NA,NA,0.7299270072992701
02127,Suffolk County,MA,18.912529550827422,NA,NA
02129,Suffolk County,MA,NA,NA,27.25060827250608
02130,Suffolk County,MA,NA,NA,28.467153284671532
02131,Suffolk County,MA,NA,54.88029465930019,NA
02134,Suffolk County,MA,NA,36.64825046040516,NA
02136,Suffolk County,MA,NA,2.0257826887661143,NA
02143,Middlesex County,MA,NA,NA,9.48905109489051
02145,Middlesex County,MA,NA,19.70534069981584,NA
02148,Middlesex County,MA,NA,1.4732965009208103,NA
02151,Suffolk County,MA,NA,33.70165745856354,NA
02155,Middlesex County,MA,4.25531914893617,NA,NA
02169,Norfolk County,MA,NA,NA,0.9732360097323601
02184,Norfolk County,MA,NA,NA,9.975669099756692
02189,Norfolk County,MA,NA,NA,31.143552311435524
02191,Norfolk County,MA,NA,NA,69.82968369829685
02301,Plymouth County,MA,4.7281323877068555,NA,NA
02302,Plymouth County,MA,NA,NA,28.953771289537713
02368,Norfolk County,MA,NA,9.760589318600369,98.54014598540147
02492,Norfolk County,MA,NA,83.60957642725599,NA
02536,Barnstable County,MA,44.680851063829785,NA,NA
02703,Bristol County,MA,1.8912529550827424,18.60036832412523,NA
02720,Bristol County,MA,NA,22.099447513812155,53.771289537712896
02723,Bristol County,MA,NA,47.697974217311234,NA
02724,Bristol County,MA,NA,NA,5.59610705596107
02740,Bristol County,MA,1.6548463356973995,NA,61.55717761557178
02769,Bristol County,MA,NA,NA,54.98783454987834
02777,Bristol County,MA,8.274231678486997,60.957642725598525,NA
02780,Bristol County,MA,NA,37.93738489871086,NA
48035,Macomb County,MI,NA,NA,16.05839416058394
48038,Macomb County,MI,NA,63.90423572744015,NA
48065,Macomb County,MI,NA,NA,81.50851581508516
48066,Macomb County,MI,NA,16.574585635359114,NA
48073,Oakland County,MI,NA,NA,83.69829683698296
48091,Macomb County,MI,NA,NA,11.678832116788321
48103,Washtenaw County,MI,21.749408983451538,NA,NA
48184,Wayne County,MI,NA,91.34438305709024,NA
48185,Wayne County,MI,NA,NA,9.732360097323602
48197,Washtenaw County,MI,NA,15.285451197053407,NA
48204,Wayne County,MI,NA,NA,16.30170316301703
48210,Wayne County,MI,13.711583924349883,NA,NA
48224,Wayne County,MI,0.9456264775413712,NA,NA
48235,Wayne County,MI,NA,48.25046040515654,NA
48331,Oakland County,MI,NA,NA,46.228710462287104
48341,Oakland County,MI,NA,NA,36.73965936739659
48423,Genesee County,MI,NA,58.74769797421732,NA
48430,Genesee County,MI,38.061465721040186,NA,NA
48504,Genesee County,MI,NA,45.67219152854512,26.277372262773724
48506,Genesee County,MI,NA,68.50828729281768,NA
48507,Genesee County,MI,NA,71.63904235727439,NA
48602,Saginaw County,MI,NA,85.8195211786372,NA
48607,Saginaw County,MI,NA,57.0902394106814,NA
48708,Bay County,MI,NA,50.46040515653776,NA
48723,Tuscola County,MI,NA,NA,34.306569343065696
48746,Tuscola County,MI,NA,NA,97.08029197080292
48750,Iosco County,MI,NA,93.00184162062615,NA
48823,Ingham County,MI,NA,NA,41.3625304136253
48843,Livingston County,MI,NA,30.939226519337016,NA
48858,Isabella County,MI,NA,65.56169429097606,NA
48876,Eaton County,MI,69.73995271867612,NA,NA
48906,Ingham County,MI,24.349881796690305,NA,NA
49008,Kalamazoo County,MI,NA,76.05893186003682,NA
49009,Kalamazoo County,MI,NA,NA,19.464720194647203
49056,Van Buren County,MI,89.12529550827422,NA,NA
49090,Van Buren County,MI,NA,65.56169429097606,NA
49269,Jackson County,MI,87.94326241134752,NA,NA
49417,Ottawa County,MI,NA,66.66666666666666,NA
49424,Ottawa County,MI,NA,55.06445672191529,NA
49431,Mason County,MI,NA,NA,40.38929440389295
49444,Muskegon County,MI,NA,NA,15.815085158150852
49456,Ottawa County,MI,NA,NA,52.06812652068127
49505,Kent County,MI,30.023640661938533,NA,NA
49506,Kent County,MI,67.61229314420804,NA,NA
49508,Kent County,MI,NA,19.70534069981584,NA
49525,Kent County,MI,NA,91.71270718232044,43.06569343065693
49534,Kent County,MI,60.28368794326241,NA,NA
49546,Kent County,MI,NA,NA,47.201946472019465
49660,Manistee County,MI,51.77304964539007,NA,NA
49738,Crawford County,MI,NA,78.45303867403315,NA
55014,Anoka County,MN,NA,NA,71.04622871046229
55044,Dakota County,MN,55.7919621749409,NA,59.36739659367397
55106,Ramsey County,MN,NA,4.6040515653775325,NA
55118,Dakota County,MN,NA,NA,94.40389294403893
55124,Dakota County,MN,NA,NA,47.93187347931874
55125,Washington County,MN,NA,76.05893186003682,NA
55303,Anoka County,MN,11.82033096926714,NA,NA
55311,Hennepin County,MN,NA,69.42909760589319,NA
55318,Carver County,MN,22.69503546099291,NA,NA
55344,Hennepin County,MN,NA,63.90423572744015,NA
55369,Hennepin County,MN,16.548463356973993,NA,NA
55404,Hennepin County,MN,NA,NA,1.9464720194647203
55416,Hennepin County,MN,NA,72.00736648250461,NA
55417,Hennepin County,MN,NA,NA,57.907542579075425
55418,Hennepin County,MN,NA,29.097605893186003,NA
55419,Hennepin County,MN,12.529550827423167,NA,54.50121654501216
55422,Hennepin County,MN,NA,NA,37.22627737226277
55428,Hennepin County,MN,82.03309692671394,NA,NA
55429,Hennepin County,MN,NA,NA,19.951338199513383
55431,Hennepin County,MN,NA,83.05709023941068,NA
55443,Hennepin County,MN,NA,NA,37.95620437956204
55709,Itasca County,MN,97.87234042553192,NA,NA
55744,Itasca County,MN,NA,36.46408839779006,NA
55792,St. Louis County,MN,52.71867612293144,NA,NA
55807,St. Louis County,MN,NA,69.06077348066299,NA
55901,Olmsted County,MN,NA,NA,32.60340632603406
55902,Olmsted County,MN,NA,NA,86.13138686131386
55975,Fillmore County,MN,NA,98.34254143646409,NA
55987,Winona County,MN,NA,NA,39.416058394160586
56058,Le Sueur County,MN,NA,NA,91.48418491484185
56069,Le Sueur County,MN,NA,96.68508287292818,NA
56073,Brown County,MN,NA,NA,78.83211678832117
56265,Chippewa County,MN,NA,97.79005524861878,NA
56303,Stearns County,MN,NA,10.681399631675875,71.28953771289538
56334,Pope County,MN,NA,NA,97.8102189781022
56345,Morrison County,MN,NA,26.887661141804784,NA
56379,Benton County,MN,NA,NA,68.3698296836983
56387,Stearns County,MN,98.581560283687935,NA,NA
56557,Norman County,MN,NA,NA,89.53771289537713
56560,Clay County,MN,NA,NA,3.1630170316301705
56601,Beltrami County,MN,6.1465721040189125,NA,10.948905109489052
56633,Hubbard County,MN,NA,88.21362799263352,NA
56649,Koochiching County,MN,NA,NA,64.72019464720195
38655,Lafayette County,MS,NA,NA,76.88564476885644
38866,Lee County,MS,NA,51.56537753222836,NA
39194,Yazoo County,MS,57.21040189125296,NA,NA
39213,Hinds County,MS,NA,NA,44.038929440389296
39307,Lauderdale County,MS,NA,43.646408839779006,NA
39350,Neshoba County,MS,NA,6.445672191528545,NA
39402,Lamar County,MS,NA,35.35911602209944,NA
39503,Harrison County,MS,NA,9.023941068139964,NA
39773,Clay County,MS,NA,NA,73.72262773722628
63026,St. Louis County,MO,NA,44.01473296500921,NA
63107,St. Louis city,MO,NA,NA,72.50608272506082
63108,St. Louis city,MO,NA,87.29281767955801,NA
63113,St. Louis city,MO,NA,41.988950276243095,NA
63115,St. Louis city,MO,NA,25.04604051565378,NA
63119,St. Louis County,MO,NA,50.82872928176796,NA
63125,St. Louis County,MO,NA,NA,51.09489051094891
63136,St. Louis County,MO,NA,59.11602209944752,NA
63137,St. Louis County,MO,25.295508274231675,28.913443830570902,NA
63143,St. Louis County,MO,NA,90.42357274401473,NA
63301,St. Charles County,MO,16.312056737588655,NA,NA
63376,St. Charles County,MO,NA,21.731123388581953,NA
63379,Lincoln County,MO,NA,NA,36.25304136253041
63401,Marion County,MO,NA,80.29465930018415,NA
63501,Adair County,MO,NA,66.85082872928176,NA
63640,St. Francois County,MO,NA,NA,49.39172749391727
63775,Perry County,MO,NA,NA,45.01216545012166
63873,New Madrid County,MO,NA,NA,95.62043795620438
64014,Jackson County,MO,46.09929078014184,NA,NA
64024,Clay County,MO,NA,NA,26.520681265206814
64029,Jackson County,MO,32.15130023640662,NA,NA
64052,Jackson County,MO,19.62174940898345,NA,NA
64068,Clay County,MO,NA,NA,15.085158150851582
64078,Cass County,MO,NA,52.85451197053407,NA
64089,Clay County,MO,NA,67.95580110497238,NA
64093,Johnson County,MO,NA,NA,43.79562043795621
64133,Jackson County,MO,NA,NA,6.569343065693431
64138,Jackson County,MO,NA,21.36279926335175,NA
64151,Platte County,MO,NA,52.85451197053407,NA
64505,Buchanan County,MO,62.88416075650118,NA,NA
64683,Grundy County,MO,66.43026004728132,NA,NA
64730,Bates County,MO,67.139479905437355,NA,NA
64836,Jasper County,MO,NA,NA,75.669099756691
64870,Jasper County,MO,NA,34.99079189686925,NA
65020,Camden County,MO,NA,30.755064456721914,NA
65201,Boone County,MO,NA,33.88581952117864,NA
65301,Pettis County,MO,NA,17.863720073664823,NA
65401,Phelps County,MO,NA,NA,46.95863746958637
65622,Dallas County,MO,NA,75.50644567219152,NA
65656,Stone County,MO,NA,81.76795580110497,NA
65711,Wright County,MO,NA,82.50460405156538,NA
65714,Christian County,MO,57.68321513002365,NA,NA
65775,Howell County,MO,NA,NA,38.929440389294406
65802,Greene County,MO,48.69976359338061,NA,NA
65803,Greene County,MO,NA,13.443830570902392,NA
65804,Greene County,MO,34.2789598108747,NA,NA
59323,Rosebud County,MT,94.32624113475178,NA,NA
59808,Missoula County,MT,56.50118203309693,NA,NA
68104,Douglas County,NE,30.969267139479907,NA,31.873479318734795
68111,Douglas County,NE,NA,36.83241252302026,NA
68114,Douglas County,NE,NA,NA,84.91484184914842
68137,Douglas County,NE,NA,NA,95.1338199513382
68521,Lancaster County,NE,NA,58.195211786372006,NA
89101,Clark County,NV,NA,NA,34.54987834549878
89102,Clark County,NV,NA,NA,59.854014598540154
89103,Clark County,NV,59.57446808510638,NA,NA
89104,Clark County,NV,30.023640661938533,NA,NA
89123,Clark County,NV,NA,NA,61.0705596107056
89128,Clark County,NV,NA,90.05524861878453,NA
03051,Hillsborough County,NH,NA,NA,63.503649635036496
03062,Hillsborough County,NH,25.768321513002363,NA,NA
03820,Strafford County,NH,NA,60.957642725598525,NA
03867,Strafford County,NH,NA,24.49355432780847,NA
07002,Hudson County,NJ,NA,7.366482504604052,2.4330900243309004
07017,Essex County,NJ,15.839243498817968,5.3406998158379375,NA
07032,Hudson County,NJ,NA,9.576427255985267,NA
07042,Essex County,NJ,NA,NA,90.99756690997567
07065,Union County,NJ,84.39716312056737,NA,NA
07087,Hudson County,NJ,12.293144208037825,NA,NA
07103,Essex County,NJ,NA,78.08471454880295,NA
07106,Essex County,NJ,NA,32.04419889502763,NA
07107,Essex County,NJ,28.841607565011824,34.43830570902394,NA
07108,Essex County,NJ,NA,2.578268876611418,NA
07109,Essex County,NJ,NA,8.83977900552486,NA
07208,Union County,NJ,NA,NA,86.61800486618006
07304,Hudson County,NJ,NA,29.46593001841621,41.605839416058394
07305,Hudson County,NJ,46.808510638297875,NA,22.14111922141119
07307,Hudson County,NJ,41.13475177304964,66.29834254143645,NA
07461,Sussex County,NJ,NA,91.71270718232044,NA
07506,Passaic County,NJ,74.46808510638297,NA,NA
07508,Passaic County,NJ,NA,12.89134438305709,NA
07601,Bergen County,NJ,NA,NA,54.74452554744526
07626,Bergen County,NJ,98.3451536643026,NA,NA
07631,Bergen County,NJ,NA,93.73848987108656,NA
07643,Bergen County,NJ,94.79905437352247,NA,NA
07666,Bergen County,NJ,NA,NA,22.38442822384428
07731,Monmouth County,NJ,39.2434988179669,NA,NA
07738,Monmouth County,NJ,88.65248226950354,NA,NA
07740,Monmouth County,NJ,0.7092198581560284,18.41620626151013,NA
07750,Monmouth County,NJ,95.98108747044918,NA,NA
07821,Sussex County,NJ,NA,84.71454880294658,88.80778588807786
07836,Morris County,NJ,87.47044917257683,NA,NA
07920,Somerset County,NJ,NA,NA,99.27007299270073
07932,Morris County,NJ,NA,NA,93.43065693430657
08005,Ocean County,NJ,NA,20.810313075506446,NA
08021,Camden County,NJ,NA,11.049723756906078,NA
08030,Camden County,NJ,NA,NA,78.34549878345499
08046,Burlington County,NJ,NA,NA,11.19221411192214
08054,Burlington County,NJ,36.64302600472813,NA,NA
08066,Gloucester County,NJ,NA,69.24493554327809,NA
08075,Burlington County,NJ,60.99290780141844,NA,NA
08085,Gloucester County,NJ,NA,62.06261510128913,NA
08103,Camden County,NJ,NA,88.02946593001842,NA
08105,Camden County,NJ,NA,90.79189686924494,NA
08110,Camden County,NJ,NA,44.38305709023941,NA
08244,Atlantic County,NJ,72.81323877068559,NA,NA
08332,Cumberland County,NJ,NA,4.23572744014733,NA
08401,Atlantic County,NJ,NA,NA,0.48661800486618007
08610,Mercer County,NJ,77.54137115839244,54.14364640883977,NA
08690,Mercer County,NJ,70.6855791962175,NA,NA
08742,Ocean County,NJ,40.42553191489361,NA,NA
08753,Ocean County,NJ,35.9338061465721,NA,NA
08757,Ocean County,NJ,75.177304964539,NA,NA
08816,Middlesex County,NJ,83.21513002364065,NA,NA
08873,Somerset County,NJ,18.439716312056735,NA,23.844282238442823
08884,Middlesex County,NJ,NA,NA,89.05109489051095
08901,Middlesex County,NJ,NA,1.4732965009208103,NA
87031,Valencia County,NM,NA,49.90791896869245,NA
87035,Torrance County,NM,NA,93.00184162062615,NA
87105,Bernalillo County,NM,NA,NA,6.326034063260341
87107,Bernalillo County,NM,NA,44.38305709023941,NA
87108,Bernalillo County,NM,NA,NA,56.69099756690997
87110,Bernalillo County,NM,46.57210401891253,NA,NA
87121,Bernalillo County,NM,NA,3.4990791896869244,NA
87505,Santa Fe County,NM,19.148936170212767,87.29281767955801,7.785888077858881
88001,Doa Ana County,NM,NA,18.96869244935543,NA
88203,Chaves County,NM,NA,23.941068139963168,NA
88240,Lea County,NM,NA,26.151012891344383,NA
10003,New York County,NY,NA,NA,61.31386861313869
10011,New York County,NY,NA,NA,91.72749391727494
10022,New York County,NY,NA,NA,87.8345498783455
10023,New York County,NY,NA,72.74401473296501,NA
10025,New York County,NY,NA,22.83609576427256,NA
10029,New York County,NY,NA,15.837937384898712,1.2165450121654502
10030,New York County,NY,NA,48.43462246777164,NA
10033,New York County,NY,NA,NA,55.961070559610704
10038,New York County,NY,NA,46.96132596685083,NA
10039,New York County,NY,NA,27.255985267034994,NA
10040,New York County,NY,NA,10.865561694290976,NA
10303,Richmond County,NY,NA,34.622467771639045,NA
10306,Richmond County,NY,NA,NA,27.73722627737226
10310,Richmond County,NY,NA,90.42357274401473,NA
10314,Richmond County,NY,13.002364066193852,NA,NA
10451,Bronx County,NY,7.092198581560284,2.9465930018416207,NA
10452,Bronx County,NY,NA,54.69613259668509,1.4598540145985401
10453,Bronx County,NY,80.6146572104019,NA,NA
10454,Bronx County,NY,NA,21.178637200736645,NA
10455,Bronx County,NY,NA,79.92633517495395,NA
10456,Bronx County,NY,NA,NA,4.13625304136253
10457,Bronx County,NY,1.1820330969267139,0.3683241252302026,NA
10459,Bronx County,NY,NA,14.3646408839779,NA
10460,Bronx County,NY,NA,6.998158379373849,NA
10462,Bronx County,NY,NA,2.7624309392265194,NA
10467,Bronx County,NY,NA,3.314917127071823,NA
10468,Bronx County,NY,NA,1.289134438305709,NA
10469,Bronx County,NY,NA,19.337016574585636,NA
10475,Bronx County,NY,NA,36.83241252302026,NA
10567,Westchester County,NY,NA,62.246777163904234,NA
10573,Westchester County,NY,63.593380614657214,NA,NA
10595,Westchester County,NY,NA,NA,89.78102189781022
10606,Westchester County,NY,NA,NA,89.29440389294405
10701,Westchester County,NY,NA,8.287292817679557,NA
10705,Westchester County,NY,NA,NA,15.571776155717762
10940,Orange County,NY,NA,NA,25.060827250608277
11101,Queens County,NY,NA,81.39963167587477,NA
11102,Queens County,NY,52.24586288416076,NA,NA
11206,Kings County,NY,11.583924349881796,2.394106813996317,NA
11210,Kings County,NY,NA,NA,51.58150851581509
11212,Kings County,NY,NA,16.758747697974215,NA
11213,Kings County,NY,55.319148936170215,NA,7.542579075425791
11216,Kings County,NY,NA,23.941068139963168,NA
11220,Kings County,NY,NA,3.1307550644567224,NA
11221,Kings County,NY,NA,59.852670349907925,NA
11365,Queens County,NY,NA,NA,84.18491484184915
11373,Queens County,NY,NA,NA,22.62773722627737
11375,Queens County,NY,NA,NA,82.9683698296837
11428,Queens County,NY,NA,NA,70.55961070559611
11433,Queens County,NY,69.50354609929079,89.87108655616943,NA
11434,Queens County,NY,66.19385342789597,7.550644567219153,23.357664233576642
11510,Nassau County,NY,41.371158392434985,NA,NA
11691,Queens County,NY,NA,16.390423572744016,NA
11692,Queens County,NY,65.01182033096927,NA,NA
11701,Suffolk County,NY,NA,47.32965009208103,76.39902676399026
11716,Suffolk County,NY,NA,NA,97.08029197080292
11717,Suffolk County,NY,49.645390070921984,NA,NA
11726,Suffolk County,NY,NA,86.0036832412523,NA
11772,Suffolk County,NY,NA,27.624309392265197,NA
11967,Suffolk County,NY,NA,25.04604051565378,NA
12203,Albany County,NY,NA,NA,47.44525547445255
12206,Albany County,NY,NA,NA,28.710462287104622
12210,Albany County,NY,NA,74.76979742173113,NA
12550,Orange County,NY,NA,40.515653775322285,NA
12570,Dutchess County,NY,NA,NA,98.29683698296837
12571,Dutchess County,NY,NA,NA,94.16058394160584
12601,Dutchess County,NY,NA,22.467771639042358,NA
12866,Saratoga County,NY,26.713947990543733,NA,NA
13021,Cayuga County,NY,7.801418439716312,NA,NA
13029,Onondaga County,NY,93.61702127659575,NA,NA
13069,Oswego County,NY,5.4373522458628845,NA,8.75912408759124
13126,Oswego County,NY,NA,90.23941068139963,NA
13132,Oswego County,NY,90.30732860520094,NA,NA
13159,Onondaga County,NY,93.3806146572104,NA,NA
13204,Onondaga County,NY,NA,NA,48.41849148418492
13205,Onondaga County,NY,NA,26.703499079189687,NA
13212,Onondaga County,NY,34.751773049645394,NA,NA
13215,Onondaga County,NY,NA,NA,60.09732360097324
13326,Otsego County,NY,71.39479905437352,NA,NA
13350,Herkimer County,NY,NA,NA,42.82238442822384
13605,Jefferson County,NY,NA,NA,96.35036496350365
13754,Broome County,NY,91.96217494089835,NA,NA
13760,Broome County,NY,NA,32.96500920810313,13.62530413625304
13820,Otsego County,NY,NA,45.67219152854512,NA
13905,Broome County,NY,NA,62.98342541436463,2.67639902676399
14150,Erie County,NY,NA,NA,10.218978102189782
14170,Erie County,NY,NA,NA,98.05352798053528
14206,Erie County,NY,43.97163120567376,41.43646408839779,NA
14210,Erie County,NY,NA,NA,32.11678832116788
14213,Erie County,NY,NA,81.39963167587477,NA
14221,Erie County,NY,NA,NA,18.248175182481752
14222,Erie County,NY,NA,NA,87.10462287104623
14223,Erie County,NY,86.28841607565012,NA,NA
14564,Ontario County,NY,28.132387706855795,NA,NA
14586,Monroe County,NY,31.914893617021278,NA,NA
14590,Wayne County,NY,75.41371158392435,NA,NA
14609,Monroe County,NY,NA,50.82872928176796,NA
14610,Monroe County,NY,NA,NA,84.18491484184915
14618,Monroe County,NY,88.4160756501182,NA,NA
14621,Monroe County,NY,19.62174940898345,6.077348066298343,NA
14701,Chautauqua County,NY,6.619385342789598,NA,4.622871046228711
14760,Cattaraugus County,NY,NA,63.35174953959485,NA
14807,Steuben County,NY,NA,NA,93.91727493917274
14810,Steuben County,NY,NA,64.45672191528546,NA
14830,Steuben County,NY,23.167848699763592,NA,NA
14843,Steuben County,NY,NA,32.59668508287293,NA
14904,Chemung County,NY,NA,85.2670349907919,95.37712895377129
27106,Forsyth County,NC,NA,25.04604051565378,NA
27107,Forsyth County,NC,NA,6.077348066298343,NA
27295,Davidson County,NC,8.51063829787234,NA,NA
27330,Lee County,NC,38.297872340425535,NA,NA
27332,Lee County,NC,NA,54.32780847145487,NA
27401,Guilford County,NC,NA,NA,68.1265206812652
27511,Wake County,NC,NA,NA,71.77615571776155
27560,Wake County,NC,58.156028368794324,NA,NA
27606,Wake County,NC,NA,NA,55.23114355231144
28081,Cabarrus County,NC,42.08037825059102,46.224677716390424,NA
28090,Cleveland County,NC,66.903073286052,NA,NA
28105,Mecklenburg County,NC,NA,72.37569060773481,NA
28203,Mecklenburg County,NC,NA,86.92449355432781,NA
28208,Mecklenburg County,NC,NA,12.52302025782689,NA
28211,Mecklenburg County,NC,42.78959810874704,NA,NA
28213,Mecklenburg County,NC,NA,NA,66.42335766423358
28214,Mecklenburg County,NC,NA,32.41252302025783,NA
28215,Mecklenburg County,NC,NA,9.94475138121547,NA
28216,Mecklenburg County,NC,NA,71.08655616942909,NA
28227,Mecklenburg County,NC,25.53191489361702,NA,29.1970802919708
28306,Bladen County,NC,NA,40.88397790055249,NA
28352,Scotland County,NC,54.84633569739953,NA,NA
28401,New Hanover County,NC,NA,NA,16.78832116788321
28472,Columbus County,NC,NA,38.48987108655617,NA
28501,Lenoir County,NC,NA,72.74401473296501,NA
28574,Onslow County,NC,NA,NA,73.96593673965937
28580,Greene County,NC,NA,NA,83.45498783454988
28655,Burke County,NC,NA,NA,9.245742092457421
28719,Jackson County,NC,NA,16.022099447513813,NA
28779,Jackson County,NC,NA,NA,63.990267639902676
28806,Buncombe County,NC,NA,48.61878453038674,NA
58103,Cass County,ND,NA,31.123388581952117,12.165450121654501
58203,Grand Forks County,ND,43.97163120567376,NA,NA
58701,Ward County,ND,NA,80.47882136279927,NA
43068,Franklin County,OH,0.2364066193853428,NA,NA
43110,Franklin County,OH,12.056737588652481,NA,NA
43160,Fayette County,OH,13.711583924349883,NA,51.338199513382
43204,Franklin County,OH,NA,37.75322283609576,NA
43206,Franklin County,OH,18.67612293144208,NA,NA
43207,Franklin County,OH,11.347517730496454,4.972375690607735,NA
43211,Franklin County,OH,NA,NA,17.0316301703163
43213,Franklin County,OH,NA,NA,15.328467153284672
43219,Franklin County,OH,NA,10.497237569060774,NA
43227,Franklin County,OH,2.6004728132387704,NA,NA
43228,Franklin County,OH,4.964539007092199,0.1841620626151013,5.35279805352798
43229,Franklin County,OH,0,NA,NA
43235,Franklin County,OH,9.456264775413711,NA,NA
43316,Wyandot County,OH,91.25295508274232,NA,NA
43551,Wood County,OH,NA,NA,21.654501216545015
43606,Lucas County,OH,NA,44.935543278084715,NA
43614,Lucas County,OH,NA,43.83057090239411,NA
43731,Perry County,OH,NA,67.40331491712708,NA
43952,Jefferson County,OH,NA,37.20073664825046,NA
44004,Ashtabula County,OH,NA,6.8139963167587485,NA
44011,Lorain County,OH,NA,39.042357274401475,NA
44052,Lorain County,OH,NA,19.152854511970535,NA
44057,Lake County,OH,NA,11.970534069981584,NA
44060,Lake County,OH,NA,NA,11.922141119221411
44095,Lake County,OH,9.219858156028367,NA,NA
44109,Cuyahoga County,OH,9.692671394799055,NA,NA
44110,Cuyahoga County,OH,NA,39.226519337016576,NA
44122,Cuyahoga County,OH,NA,NA,30.900243309002434
44125,Cuyahoga County,OH,NA,NA,2.18978102189781
44129,Cuyahoga County,OH,NA,22.65193370165746,NA
44137,Cuyahoga County,OH,NA,NA,53.284671532846716
44147,Cuyahoga County,OH,44.91725768321513,NA,NA
44203,Summit County,OH,NA,5.156537753222836,NA
44212,Medina County,OH,NA,14.180478821362799,NA
44306,Summit County,OH,NA,7.918968692449356,NA
44676,Wayne County,OH,NA,83.97790055248619,NA
44683,Tuscarawas County,OH,NA,83.42541436464089,NA
44685,Summit County,OH,NA,32.04419889502763,NA
44691,Wayne County,OH,NA,32.96500920810313,NA
44706,Stark County,OH,64.30260047281324,27.992633517495396,NA
44833,Crawford County,OH,62.64775413711584,NA,NA
44846,Erie County,OH,92.67139479905437,NA,NA
45011,Butler County,OH,10.874704491725769,NA,24.087591240875913
45013,Butler County,OH,3.7825059101654848,10.128913443830571,NA
45044,Butler County,OH,NA,4.788213627992634,NA
45067,Butler County,OH,NA,43.0939226519337,NA
45103,Clermont County,OH,NA,31.675874769797424,33.09002433090024
45150,Clermont County,OH,NA,73.84898710865562,NA
45154,Brown County,OH,NA,38.30570902394107,NA
45204,Hamilton County,OH,NA,66.11418047882137,NA
45211,Hamilton County,OH,15.36643026004728,NA,NA
45215,Hamilton County,OH,19.38534278959811,NA,NA
45220,Hamilton County,OH,96.6903073286052,NA,NA
45224,Hamilton County,OH,NA,24.30939226519337,NA
45230,Hamilton County,OH,69.97635933806147,NA,NA
45231,Hamilton County,OH,NA,10.313075506445673,NA
45232,Hamilton County,OH,79.90543735224587,41.804788213627994,NA
45236,Hamilton County,OH,NA,95.02762430939227,NA
45240,Hamilton County,OH,NA,12.154696132596685,NA
45246,Hamilton County,OH,NA,35.17495395948435,NA
45338,Preble County,OH,NA,84.71454880294658,NA
45345,Montgomery County,OH,NA,60.957642725598525,NA
45368,Clark County,OH,NA,NA,92.7007299270073
45403,Montgomery County,OH,NA,NA,45.49878345498784
45416,Montgomery County,OH,NA,79.55801104972376,NA
45424,Montgomery County,OH,43.73522458628842,NA,NA
45614,Gallia County,OH,NA,47.51381215469613,NA
45631,Gallia County,OH,NA,15.65377532228361,NA
45644,Ross County,OH,NA,67.40331491712708,NA
45662,Scioto County,OH,3.546099290780142,NA,NA
45760,Meigs County,OH,NA,46.224677716390424,NA
45804,Allen County,OH,22.458628841607563,NA,NA
45833,Allen County,OH,79.90543735224587,NA,NA
45840,Hancock County,OH,NA,NA,4.37956204379562
73080,McClain County,OK,NA,75.13812154696133,NA
73114,Oklahoma County,OK,NA,49.90791896869245,NA
73115,Oklahoma County,OK,NA,48.98710865561694,NA
73120,Oklahoma County,OK,NA,70.71823204419888,NA
73701,Garfield County,OK,NA,63.90423572744015,NA
73801,Woodward County,OK,NA,NA,70.07299270072993
74403,Muskogee County,OK,NA,53.77532228360957,NA
74820,Pontotoc County,OK,NA,13.627992633517497,NA
97005,Washington County,OR,NA,NA,56.934306569343065
97006,Washington County,OR,73.75886524822694,NA,NA
97045,Clackamas County,OR,NA,NA,23.600973236009732
97103,Clatsop County,OR,NA,74.95395948434623,NA
97124,Washington County,OR,NA,NA,33.33333333333333
97218,Multnomah County,OR,NA,72.55985267034991,NA
97229,Washington County,OR,NA,80.11049723756905,NA
97236,Multnomah County,OR,NA,51.19705340699816,NA
97301,Marion County,OR,NA,NA,20.437956204379564
97305,Marion County,OR,42.31678486997636,NA,NA
97380,Lincoln County,OR,NA,86.3720073664825,NA
97420,Coos County,OR,NA,NA,58.3941605839416
97471,Douglas County,OR,NA,NA,25.304136253041364
97603,Klamath County,OR,NA,NA,28.223844282238442
97838,Umatilla County,OR,23.87706855791962,NA,NA
97850,Union County,OR,NA,66.48250460405156,NA
15005,Beaver County,PA,NA,NA,99.02676399026764
15074,Beaver County,PA,NA,83.24125230202579,NA
15084,Allegheny County,PA,NA,80.66298342541437,NA
15102,Allegheny County,PA,NA,NA,70.31630170316302
15104,Allegheny County,PA,NA,62.246777163904234,NA
15108,Allegheny County,PA,35.46099290780142,NA,NA
15132,Allegheny County,PA,NA,NA,18.491484184914842
15202,Allegheny County,PA,NA,69.42909760589319,NA
15207,Allegheny County,PA,99.05437352245863,NA,NA
15218,Allegheny County,PA,NA,89.31860036832413,NA
15222,Allegheny County,PA,NA,56.537753222836095,NA
15301,Washington County,PA,NA,NA,55.47445255474452
15401,Fayette County,PA,14.657210401891252,NA,NA
15601,Westmoreland County,PA,NA,NA,5.839416058394161
15748,Indiana County,PA,NA,78.45303867403315,NA
15801,Clearfield County,PA,NA,NA,37.71289537712895
15905,Cambria County,PA,65.48463356973994,NA,NA
16037,Butler County,PA,100,NA,NA
16101,Lawrence County,PA,NA,NA,10.70559610705596
16105,Lawrence County,PA,98.10874704491725,NA,NA
16125,Mercer County,PA,NA,49.90791896869245,NA
16201,Armstrong County,PA,NA,NA,38.19951338199513
16652,Huntingdon County,PA,NA,NA,48.175182481751825
17013,Cumberland County,PA,NA,44.38305709023941,NA
17046,Lebanon County,PA,53.42789598108747,NA,NA
17057,Dauphin County,PA,80.85106382978722,NA,NA
17066,Huntingdon County,PA,73.99527186761229,NA,NA
17103,Dauphin County,PA,NA,31.491712707182316,NA
17201,Franklin County,PA,21.513002364066196,NA,NA
17257,Cumberland County,PA,NA,NA,31.386861313868614
17325,Adams County,PA,NA,70.3499079189687,NA
17331,York County,PA,NA,39.226519337016576,12.408759124087592
17401,York County,PA,NA,25.78268876611418,NA
17522,Lancaster County,PA,48.46335697399527,75.50644567219152,NA
17532,Lancaster County,PA,99.29078014184397,NA,NA
17603,Lancaster County,PA,NA,9.208103130755065,NA
17751,Clinton County,PA,NA,86.3720073664825,NA
17801,Northumberland County,PA,93.85342789598108,NA,NA
17815,Columbia County,PA,53.664302600472816,NA,NA
17870,Snyder County,PA,NA,NA,56.20437956204379
18013,Northampton County,PA,57.446808510638306,NA,NA
18038,Northampton County,PA,96.6903073286052,NA,NA
18040,Northampton County,PA,NA,93.55432780847146,NA
18344,Monroe County,PA,NA,96.68508287292818,NA
18433,Lackawanna County,PA,NA,96.68508287292818,NA
18452,Lackawanna County,PA,NA,76.97974217311234,NA
18504,Lackawanna County,PA,NA,49.53959484346225,NA
18505,Lackawanna County,PA,NA,33.88581952117864,NA
18509,Lackawanna County,PA,NA,75.13812154696133,NA
18512,Lackawanna County,PA,NA,94.29097605893186,NA
18643,Luzerne County,PA,NA,NA,62.04379562043796
18964,Montgomery County,PA,NA,NA,79.31873479318735
18969,Montgomery County,PA,NA,NA,98.78345498783455
18976,Bucks County,PA,60.520094562647756,NA,NA
19015,Delaware County,PA,NA,95.94843462246777,NA
19063,Delaware County,PA,NA,NA,29.927007299270077
19104,Philadelphia County,PA,NA,18.60036832412523,NA
19124,Philadelphia County,PA,NA,15.285451197053407,NA
19131,Philadelphia County,PA,14.420803782505912,NA,NA
19134,Philadelphia County,PA,NA,29.2817679558011,NA
19135,Philadelphia County,PA,NA,35.543278084714544,NA
19136,Philadelphia County,PA,NA,46.04051565377532,NA
19140,Philadelphia County,PA,NA,6.629834254143646,NA
19141,Philadelphia County,PA,NA,NA,14.111922141119221
19143,Philadelphia County,PA,NA,25.04604051565378,NA
19144,Philadelphia County,PA,NA,28.5451197053407,NA
19362,Chester County,PA,NA,84.71454880294658,NA
19464,Montgomery County,PA,NA,NA,8.27250608272506
19508,Berks County,PA,55.7919621749409,NA,NA
19526,Berks County,PA,NA,NA,77.12895377128953
19601,Berks County,PA,NA,NA,25.790754257907544
19602,Berks County,PA,NA,NA,65.69343065693431
19604,Berks County,PA,12.76595744680851,NA,NA
19611,Berks County,PA,NA,NA,82.23844282238443
02852,Washington County,RI,50.59101654846335,NA,NA
02860,Providence County,RI,NA,NA,13.138686131386862
02871,Newport County,RI,57.919621749408975,NA,NA
02879,Washington County,RI,NA,NA,75.18248175182481
02908,Providence County,RI,39.479905437352244,NA,NA
02920,Providence County,RI,40.66193853427896,NA,NA
29033,Lexington County,SC,95.27186761229315,NA,NA
29072,Lexington County,SC,NA,70.71823204419888,NA
29073,Lexington County,SC,NA,54.51197053406999,NA
29118,Orangeburg County,SC,78.95981087470449,NA,NA
29160,Lexington County,SC,NA,98.15837937384899,NA
29306,Spartanburg County,SC,NA,NA,46.47201946472019
29307,Spartanburg County,SC,NA,NA,67.88321167883211
29316,Spartanburg County,SC,66.66666666666666,NA,NA
29330,Spartanburg County,SC,NA,NA,86.86131386861314
29341,Cherokee County,SC,58.392434988179666,NA,NA
29369,Spartanburg County,SC,75.65011820330969,NA,NA
29405,Charleston County,SC,40.8983451536643,NA,NA
29406,Charleston County,SC,NA,16.022099447513813,NA
29485,Dorchester County,SC,NA,28.7292817679558,66.90997566909975
29486,Berkeley County,SC,28.60520094562648,NA,NA
29575,Horry County,SC,82.03309692671394,NA,NA
29609,Greenville County,SC,NA,NA,94.8905109489051
29627,Anderson County,SC,14.184397163120568,NA,NA
29651,Greenville County,SC,NA,41.43646408839779,NA
29687,Greenville County,SC,30.023640661938533,NA,NA
29707,Lancaster County,SC,NA,NA,83.21167883211679
57078,Yankton County,SD,83.68794326241135,NA,NA
57702,Pennington County,SD,NA,NA,65.20681265206812
37013,Davidson County,TN,NA,29.65009208103131,16.54501216545012
37064,Williamson County,TN,NA,NA,81.26520681265207
37110,Warren County,TN,32.860520094562645,NA,NA
37115,Davidson County,TN,NA,49.355432780847146,NA
37160,Bedford County,TN,NA,NA,27.49391727493917
37172,Robertson County,TN,NA,30.386740331491712,NA
37179,Williamson County,TN,82.03309692671394,NA,NA
37209,Davidson County,TN,NA,NA,38.44282238442822
37327,Sequatchie County,TN,68.08510638297872,NA,NA
37354,Monroe County,TN,NA,84.5303867403315,NA
37397,Marion County,TN,NA,NA,88.32116788321169
37406,Hamilton County,TN,NA,NA,73.47931873479318
37411,Hamilton County,TN,NA,30.386740331491712,NA
37620,Sullivan County,TN,NA,NA,20.68126520681265
37742,Loudon County,TN,NA,NA,80.04866180048663
37757,Campbell County,TN,NA,87.29281767955801,NA
37763,Roane County,TN,NA,NA,90.51094890510949
37766,Campbell County,TN,NA,NA,44.52554744525548
37820,Jefferson County,TN,NA,97.60589318600368,NA
37830,Anderson County,TN,NA,51.56537753222836,NA
37876,Sevier County,TN,NA,90.97605893186004,NA
38019,Tipton County,TN,65.24822695035462,NA,NA
38063,Lauderdale County,TN,56.26477541371159,NA,NA
38109,Shelby County,TN,NA,NA,18.004866180048662
38128,Shelby County,TN,14.657210401891252,27.071823204419886,NA
38133,Shelby County,TN,NA,46.96132596685083,NA
38261,Obion County,TN,26.47754137115839,NA,NA
38372,Hardin County,TN,NA,NA,59.12408759124088
38401,Maury County,TN,NA,NA,12.652068126520682
38472,Giles County,TN,99.76359338061465,NA,NA
75021,Grayson County,TX,NA,81.03130755064457,NA
75032,Rockwall County,TX,72.10401891252955,NA,NA
75167,Ellis County,TX,95.74468085106383,NA,NA
75203,Dallas County,TX,NA,NA,80.7785888077859
75236,Dallas County,TX,NA,NA,69.09975669099757
75243,Dallas County,TX,1.4184397163120568,NA,NA
75407,Collin County,TX,NA,60.40515653775322,NA
75638,Morris County,TX,NA,NA,96.10705596107056
75647,Gregg County,TX,NA,NA,69.34306569343066
75684,Rusk County,TX,NA,71.27071823204419,NA
75791,Smith County,TX,NA,42.7255985267035,NA
76013,Tarrant County,TX,44.44444444444444,NA,NA
76112,Tarrant County,TX,22.22222222222222,NA,NA
76148,Tarrant County,TX,NA,NA,50.36496350364964
76179,Tarrant County,TX,NA,NA,68.61313868613139
76208,Denton County,TX,49.1725768321513,NA,NA
76513,Bell County,TX,NA,42.5414364640884,NA
76528,Coryell County,TX,NA,17.311233885819522,NA
76542,Bell County,TX,78.4869976359338,NA,NA
76548,Bell County,TX,NA,32.78084714548803,NA
76661,Falls County,TX,NA,96.13259668508287,NA
77021,Harris County,TX,NA,62.246777163904234,NA
77038,Harris County,TX,NA,38.48987108655617,NA
77045,Harris County,TX,NA,23.756906077348066,NA
77055,Harris County,TX,NA,NA,64.96350364963503
77056,Harris County,TX,NA,NA,81.02189781021897
77080,Harris County,TX,NA,NA,77.37226277372264
77301,Montgomery County,TX,NA,40.331491712707184,NA
77346,Harris County,TX,26.004728132387704,NA,NA
77379,Harris County,TX,13.47517730496454,31.123388581952117,NA
77414,Matagorda County,TX,54.37352245862884,NA,NA
77449,Harris County,TX,5.673758865248227,NA,NA
77459,Fort Bend County,TX,49.881796690307326,NA,NA
77511,Brazoria County,TX,34.04255319148936,NA,NA
77539,Galveston County,TX,6.619385342789598,NA,NA
77550,Galveston County,TX,NA,56.353591160220994,NA
77642,Jefferson County,TX,NA,NA,36.009732360097324
77979,Calhoun County,TX,NA,NA,78.1021897810219
78006,Kendall County,TX,NA,72.74401473296501,NA
78108,Guadalupe County,TX,NA,76.97974217311234,NA
78207,Bexar County,TX,NA,5.524861878453039,NA
78210,Bexar County,TX,34.751773049645394,NA,NA
78211,Bexar County,TX,NA,7.18232044198895,NA
78217,Bexar County,TX,NA,NA,74.45255474452554
78218,Bexar County,TX,NA,22.83609576427256,NA
78225,Bexar County,TX,NA,56.9060773480663,NA
78250,Bexar County,TX,16.07565011820331,NA,NA
78254,Bexar County,TX,NA,NA,54.257907542579076
78374,San Patricio County,TX,NA,NA,90.75425790754258
78384,Duval County,TX,NA,72.74401473296501,NA
78414,Nueces County,TX,NA,74.40147329650092,NA
78416,Nueces County,TX,75.65011820330969,NA,NA
78521,Cameron County,TX,NA,1.1049723756906076,NA
78526,Cameron County,TX,NA,12.52302025782689,NA
78574,Hidalgo County,TX,NA,11.41804788213628,NA
78577,Hidalgo County,TX,NA,5.70902394106814,NA
78613,Williamson County,TX,59.810874704491724,NA,NA
78641,Williamson County,TX,33.80614657210402,NA,NA
78681,Williamson County,TX,NA,76.97974217311234,NA
78702,Travis County,TX,NA,NA,81.99513381995133
78749,Travis County,TX,85.81560283687944,NA,NA
79764,Ector County,TX,27.423167848699766,NA,NA
79936,El Paso County,TX,NA,NA,20.194647201946474
84029,Tooele County,UT,NA,NA,65.45012165450122
84062,Utah County,UT,36.17021276595745,NA,NA
84094,Salt Lake County,UT,29.314420803782504,NA,NA
84129,,UT,31.20567375886525,NA,NA
84651,Utah County,UT,36.87943262411347,NA,NA
84655,Utah County,UT,NA,98.71086556169429,NA
05819,Caledonia County,VT,79.66903073286052,NA,NA
20111,Prince William County,VA,NA,29.65009208103131,NA
20164,Loudoun County,VA,NA,NA,51.82481751824818
20165,Loudoun County,VA,51.536643026004725,NA,NA
22150,Fairfax County,VA,16.78486997635934,NA,NA
22206,Arlington County,VA,NA,82.50460405156538,NA
22407,Spotsylvania County,VA,NA,NA,25.790754257907544
22960,Orange County,VA,NA,47.697974217311234,NA
22980,Waynesboro city,VA,8.983451536643026,NA,91.970802919708035
23075,Henrico County,VA,NA,52.117863720073665,NA
23114,Chesterfield County,VA,NA,78.45303867403315,NA
23222,Richmond city,VA,NA,NA,57.420924574209245
23225,Richmond city,VA,NA,17.67955801104972,NA
23226,Richmond city,VA,NA,NA,93.67396593673966
23231,Henrico County,VA,NA,19.521178637200737,NA
23237,Chesterfield County,VA,NA,35.543278084714544,NA
23238,Henrico County,VA,NA,60.036832412523026,NA
23323,Chesapeake city,VA,46.335697399527184,NA,NA
23324,Chesapeake city,VA,NA,19.70534069981584,NA
23464,Virginia Beach city,VA,NA,NA,24.817518248175183
23661,Hampton city,VA,NA,NA,69.58637469586375
23704,Portsmouth city,VA,NA,NA,34.79318734793188
23831,Chesterfield County,VA,NA,20.257826887661142,NA
23847,Greensville County,VA,NA,39.59484346224678,NA
24019,Roanoke County,VA,68.79432624113475,NA,NA
24087,Montgomery County,VA,NA,76.05893186003682,NA
24112,Henry County,VA,NA,55.98526703499079,NA
24171,Patrick County,VA,NA,NA,80.5352798053528
24179,Roanoke County,VA,NA,53.22283609576427,NA
24210,Washington County,VA,NA,77.53222836095765,NA
24354,Smyth County,VA,NA,NA,50.121654501216554
24401,Staunton city,VA,NA,NA,17.51824817518248
98019,King County,WA,96.2174940898345,NA,NA
98058,King County,WA,50.59101654846335,NA,NA
98059,King County,WA,50.35460992907801,NA,NA
98103,King County,WA,74.46808510638297,NA,NA
98258,Snohomish County,WA,43.498817966903076,NA,NA
98290,Snohomish County,WA,NA,NA,79.56204379562044
98329,Pierce County,WA,73.99527186761229,NA,NA
98375,Pierce County,WA,NA,NA,60.58394160583942
98391,Pierce County,WA,34.2789598108747,NA,NA
98408,Pierce County,WA,NA,78.45303867403315,NA
98531,Lewis County,WA,NA,77.53222836095765,NA
98597,Thurston County,WA,69.26713947990544,NA,NA
98662,Clark County,WA,NA,NA,96.59367396593674
98908,Yakima County,WA,59.10165484633569,NA,NA
99027,Spokane County,WA,NA,96.68508287292818,NA
99208,Spokane County,WA,NA,64.64088397790056,NA
99224,Spokane County,WA,71.15839243498819,NA,NA
99301,Franklin County,WA,2.3640661938534278,NA,NA
99336,Benton County,WA,NA,NA,18.97810218978102
20010,District of Columbia,DC,62.4113475177305,NA,NA
20019,District of Columbia,DC,NA,57.6427255985267,NA
20032,District of Columbia,DC,NA,NA,8.27250608272506
24739,Mercer County,WV,NA,NA,72.99270072992701
24740,Mercer County,WV,NA,NA,92.45742092457421
25401,Berkeley County,WV,55.55555555555556,NA,NA
97003,NA,NA,NA,53.77532228360957,NA
25425,Jefferson County,WV,88.65248226950354,NA,NA
25702,Cabell County,WV,NA,NA,91.24087591240875
25705,Cabell County,WV,NA,NA,25.547445255474454
25801,Raleigh County,WV,NA,NA,21.16788321167883
26003,Ohio County,WV,NA,43.462246777163905,NA
26201,Upshur County,WV,27.423167848699766,NA,NA
26301,Harrison County,WV,NA,NA,13.381995133819952
26362,Ritchie County,WV,NA,NA,99.51338199513383
26508,Monongalia County,WV,4.491725768321513,NA,NA
53027,Washington County,WI,78.01418439716312,NA,73.96593673965937
53105,Racine County,WI,NA,66.85082872928176,NA
53110,Milwaukee County,WI,NA,NA,85.15815085158151
53142,Kenosha County,WI,32.62411347517731,NA,NA
53144,Kenosha County,WI,NA,49.53959484346225,NA
53151,Waukesha County,WI,36.87943262411347,NA,NA
53185,Racine County,WI,47.28132387706856,NA,NA
53188,Waukesha County,WI,15.130023640661939,NA,NA
53215,Milwaukee County,WI,3.0732860520094563,NA,7.2992700729927
53216,Milwaukee County,WI,5.91016548463357,NA,11.435523114355231
53402,Racine County,WI,NA,NA,32.360097323600975
53511,Rock County,WI,31.678486997635936,11.602209944751381,NA
53534,Rock County,WI,68.5579196217494,NA,NA
53545,Rock County,WI,NA,64.64088397790056,NA
53581,Richland County,WI,NA,60.40515653775322,NA
53704,Dane County,WI,NA,37.20073664825046,NA
53901,Columbia County,WI,NA,NA,76.15571776155717
54107,Shawano County,WI,97.63593380614657,NA,NA
54241,Manitowoc County,WI,71.39479905437352,NA,NA
54301,Brown County,WI,NA,64.64088397790056,NA
54303,Brown County,WI,NA,NA,54.01459854014598
54603,La Crosse County,WI,NA,78.45303867403315,NA
54701,Eau Claire County,WI,48.226950354609926,NA,NA
54703,Eau Claire County,WI,NA,NA,29.683698296836987
54751,Dunn County,WI,24.58628841607565,NA,NA
54915,Outagamie County,WI,45.39007092198582,NA,NA
54935,Fond du Lac County,WI,NA,NA,24.330900243309003
