ZipCode,county,state,Adult,Retirement,Geriatric
35010,Tallapoosa County,AL,32.146829810901004,57.48299319727891,25.5278310940499
35043,Shelby County,AL,70.85650723025584,NA,NA
35044,Talladega County,AL,NA,NA,92.7063339731286
35054,St. Clair County,AL,NA,81.29251700680273,NA
35057,Cullman County,AL,82.64738598442715,NA,NA
35079,Blount County,AL,92.65850945494995,NA,NA
35124,Shelby County,AL,56.17352614015573,NA,NA
35125,St. Clair County,AL,NA,59.29705215419501,NA
35147,Shelby County,AL,93.32591768631812,NA,NA
35160,Talladega County,AL,NA,35.374149659863946,NA
35173,Jefferson County,AL,NA,30.952380952380953,NA
35184,Bibb County,AL,66.51835372636262,NA,NA
35206,Jefferson County,AL,NA,37.641723356009074,57.19769673704415
35211,Jefferson County,AL,13.5706340378198,NA,NA
35213,Jefferson County,AL,NA,NA,56.4299424184261
35214,Jefferson County,AL,NA,30.045351473922903,NA
35216,Jefferson County,AL,46.82981090100111,NA,NA
35226,Jefferson County,AL,NA,15.192743764172336,NA
35242,Shelby County,AL,NA,9.750566893424036,NA
35243,Jefferson County,AL,NA,47.3922902494331,NA
35244,Jefferson County,AL,41.26807563959956,NA,NA
35401,Tuscaloosa County,AL,64.73859844271412,NA,NA
35405,Tuscaloosa County,AL,6.340378197997776,NA,NA
35406,Tuscaloosa County,AL,NA,NA,66.79462571976967
35553,Winston County,AL,NA,96.25850340136054,NA
35570,Marion County,AL,NA,NA,87.90786948176583
35601,Morgan County,AL,11.234705228031146,57.82312925170068,25.719769673704413
35611,Limestone County,AL,22.35817575083426,69.1609977324263,NA
35613,Limestone County,AL,35.706340378198,NA,NA
35614,Limestone County,AL,NA,74.37641723356009,NA
35630,Lauderdale County,AL,NA,26.190476190476193,NA
35633,Lauderdale County,AL,NA,49.77324263038549,NA
35650,Lawrence County,AL,71.52391546162403,NA,NA
35673,Morgan County,AL,80.20022246941045,NA,NA
35674,Colbert County,AL,31.03448275862069,NA,NA
35748,Madison County,AL,76.64071190211345,64.05895691609977,NA
35749,Madison County,AL,NA,42.290249433106574,NA
35754,Morgan County,AL,92.21357063403782,NA,NA
35757,Madison County,AL,82.31368186874305,NA,NA
35773,Madison County,AL,58.620689655172406,NA,NA
35801,Madison County,AL,NA,57.02947845804989,NA
35803,Madison County,AL,56.95216907675194,NA,NA
35810,Madison County,AL,27.697441601779754,NA,NA
35811,Madison County,AL,NA,90.9297052154195,NA
35907,Etowah County,AL,NA,NA,75.81573896353166
35950,Marshall County,AL,62.736373748609566,NA,NA
35954,Etowah County,AL,73.08120133481646,NA,NA
36027,Barbour County,AL,34.14905450500556,NA,NA
36117,Montgomery County,AL,70.18909899888766,NA,NA
36203,Calhoun County,AL,42.04671857619577,NA,NA
36426,Escambia County,AL,49.83314794215795,NA,NA
36526,Baldwin County,AL,69.07675194660735,30.158730158730158,NA
36535,Baldwin County,AL,NA,NA,28.598848368522074
36549,Baldwin County,AL,NA,59.863945578231295,NA
36744,Hale County,AL,NA,96.03174603174604,NA
36862,Chambers County,AL,76.97441601779755,NA,NA
99502,Anchorage Municipality,AK,43.82647385984427,NA,NA
99518,Anchorage Municipality,AK,NA,79.36507936507937,NA
99577,Anchorage Municipality,AK,63.18131256952169,NA,NA
85016,Maricopa County,AZ,NA,26.077097505668934,NA
85018,Maricopa County,AZ,58.509454949944384,NA,NA
85020,Maricopa County,AZ,NA,25.283446712018144,NA
85194,Pinal County,AZ,NA,NA,99.04030710172745
85206,Maricopa County,AZ,NA,NA,8.829174664107486
85212,Maricopa County,AZ,50.055617352614014,NA,NA
85331,Maricopa County,AZ,94.54949944382648,NA,NA
85373,Maricopa County,AZ,NA,89.00226757369614,NA
85374,Maricopa County,AZ,NA,NA,70.24952015355086
85375,Maricopa County,AZ,NA,15.532879818594104,NA
85382,Maricopa County,AZ,NA,33.900226757369616,NA
85607,Cochise County,AZ,52.169076751946605,NA,NA
85622,Pima County,AZ,NA,NA,47.408829174664106
85710,Pima County,AZ,NA,NA,5.950095969289827
85711,Pima County,AZ,NA,37.868480725623584,31.285988483685223
85713,Pima County,AZ,NA,49.43310657596372,NA
85730,Pima County,AZ,NA,NA,86.56429942418427
85743,Pima County,AZ,NA,19.727891156462583,NA
85750,Pima County,AZ,NA,38.54875283446712,81.7658349328215
86004,Coconino County,AZ,NA,70.40816326530613,NA
86301,Yavapai County,AZ,NA,NA,12.476007677543185
86326,Yavapai County,AZ,21.357063403781982,NA,97.88867562380038
86404,Mohave County,AZ,NA,42.857142857142854,NA
86406,Mohave County,AZ,NA,NA,60.84452975047985
71730,Union County,AR,NA,20.634920634920633,NA
71913,Garland County,AR,72.52502780867631,NA,NA
72010,White County,AR,NA,76.75736961451247,NA
72116,Pulaski County,AR,88.32035595105673,NA,NA
72204,Pulaski County,AR,NA,21.882086167800455,NA
72404,Craighead County,AR,79.86651835372636,NA,NA
72432,Poinsett County,AR,NA,92.06349206349206,NA
72653,Baxter County,AR,75.86206896551724,NA,NA
72712,Benton County,AR,NA,66.21315192743764,NA
72714,Benton County,AR,NA,58.27664399092971,NA
72715,Benton County,AR,NA,NA,88.67562380038387
72761,Benton County,AR,NA,NA,73.51247600767753
90026,Los Angeles County,CA,NA,29.365079365079367,NA
90033,Los Angeles County,CA,NA,NA,39.15547024952015
90035,Los Angeles County,CA,NA,61.791383219954646,NA
90047,Los Angeles County,CA,14.015572858731925,NA,NA
90049,Los Angeles County,CA,NA,36.281179138321995,18.234165067178505
90056,Los Angeles County,CA,99.6662958843159,NA,NA
90067,Los Angeles County,CA,NA,NA,68.71401151631477
90069,Los Angeles County,CA,47.27474972191324,NA,NA
90212,Los Angeles County,CA,NA,NA,58.54126679462573
90232,Los Angeles County,CA,NA,84.4671201814059,NA
90242,Los Angeles County,CA,63.40378197997776,NA,NA
90266,Los Angeles County,CA,54.06006674082313,NA,NA
90503,Los Angeles County,CA,NA,33.21995464852608,NA
90505,Los Angeles County,CA,NA,NA,28.79078694817658
90620,Orange County,CA,41.601779755283644,NA,NA
90712,Los Angeles County,CA,NA,72.78911564625851,NA
90717,Los Angeles County,CA,74.08231368186874,NA,NA
90740,Orange County,CA,NA,68.14058956916101,NA
90744,Los Angeles County,CA,51.279199110122356,NA,NA
90745,Los Angeles County,CA,NA,21.99546485260771,NA
90803,Los Angeles County,CA,89.65517241379311,NA,NA
90807,Los Angeles County,CA,NA,NA,47.216890595009595
91011,Los Angeles County,CA,NA,74.82993197278913,NA
91040,Los Angeles County,CA,NA,54.30839002267574,NA
91105,Los Angeles County,CA,NA,54.761904761904766,NA
91311,Los Angeles County,CA,NA,90.02267573696146,NA
91343,Los Angeles County,CA,69.74416017797553,NA,NA
91354,Los Angeles County,CA,68.63181312569522,95.3514739229025,NA
91355,Los Angeles County,CA,NA,39.455782312925166,NA
91360,Ventura County,CA,NA,72.33560090702947,NA
91601,Los Angeles County,CA,90.10011123470522,NA,NA
91731,Los Angeles County,CA,NA,49.2063492063492,NA
91789,Los Angeles County,CA,NA,50.56689342403629,NA
91911,San Diego County,CA,NA,NA,6.71785028790787
91941,San Diego County,CA,NA,36.054421768707485,NA
91977,San Diego County,CA,NA,19.841269841269842,NA
92019,San Diego County,CA,NA,82.19954648526077,NA
92020,San Diego County,CA,NA,5.442176870748299,NA
92021,San Diego County,CA,NA,56.916099773242635,NA
92040,San Diego County,CA,NA,17.913832199546487,NA
92075,San Diego County,CA,80.86763070077865,NA,NA
92103,San Diego County,CA,39.377085650723025,NA,NA
92106,San Diego County,CA,95.77308120133482,NA,NA
92108,San Diego County,CA,75.75083426028921,NA,NA
92117,San Diego County,CA,49.2769744160178,44.67120181405896,NA
92118,San Diego County,CA,NA,NA,31.09404990403071
92126,San Diego County,CA,37.81979977753059,NA,NA
92131,San Diego County,CA,NA,NA,80.03838771593091
92211,Riverside County,CA,60.40044493882091,49.65986394557823,NA
92220,Riverside County,CA,NA,88.54875283446711,NA
92223,Riverside County,CA,54.39377085650723,31.405895691609974,NA
92253,Riverside County,CA,NA,50.34013605442177,NA
92260,Riverside County,CA,NA,10.204081632653061,NA
92284,San Bernardino County,CA,23.470522803114573,NA,NA
92335,San Bernardino County,CA,7.675194660734149,NA,NA
92336,San Bernardino County,CA,48.60956618464961,NA,NA
92373,San Bernardino County,CA,NA,NA,85.41266794625719
92376,San Bernardino County,CA,NA,12.131519274376418,NA
92407,San Bernardino County,CA,58.843159065628484,NA,NA
92410,San Bernardino County,CA,29.14349276974416,NA,NA
92530,Riverside County,CA,71.0789766407119,NA,NA
92532,Riverside County,CA,61.179087875417125,NA,NA
92544,Riverside County,CA,NA,37.41496598639456,NA
92545,Riverside County,CA,NA,29.47845804988662,NA
92563,Riverside County,CA,29.03225806451613,NA,NA
92646,Orange County,CA,65.07230255839822,NA,NA
92648,Orange County,CA,NA,NA,50.8637236084453
92653,Orange County,CA,NA,NA,42.994241842610364
92706,Orange County,CA,NA,NA,57.58157389635316
92806,Orange County,CA,NA,79.25170068027211,NA
92807,Orange County,CA,NA,NA,38.00383877159309
92821,Orange County,CA,NA,38.66213151927438,NA
92831,Orange County,CA,NA,NA,84.83685220729367
92841,Orange County,CA,64.73859844271412,NA,NA
92870,Orange County,CA,60.51167964404895,NA,NA
93001,Ventura County,CA,NA,21.201814058956916,NA
93003,Ventura County,CA,38.9321468298109,NA,NA
93013,Santa Barbara County,CA,NA,89.90929705215419,NA
93036,Ventura County,CA,76.64071190211345,NA,NA
93065,Ventura County,CA,12.903225806451612,NA,NA
93257,Tulare County,CA,10.567296996662959,NA,NA
93263,Kern County,CA,67.40823136818688,NA,NA
93274,Tulare County,CA,39.15461624026697,NA,NA
93292,Tulare County,CA,NA,24.37641723356009,NA
93436,Santa Barbara County,CA,14.126807563959956,NA,NA
93455,Santa Barbara County,CA,28.47608453837597,NA,10.748560460652591
93514,Inyo County,CA,NA,83.90022675736961,NA
93711,Fresno County,CA,NA,84.58049886621315,NA
93720,Fresno County,CA,NA,70.63492063492063,NA
93940,Monterey County,CA,NA,20.294784580498867,NA
94019,San Mateo County,CA,NA,NA,77.35124760076776
94022,Santa Clara County,CA,NA,NA,60.46065259117083
94122,San Francisco County,CA,40.266963292547274,NA,NA
94403,San Mateo County,CA,43.60400444938821,NA,NA
94531,Contra Costa County,CA,30.14460511679644,NA,NA
94580,Alameda County,CA,67.74193548387096,NA,NA
94591,Solano County,CA,NA,29.47845804988662,NA
95051,Santa Clara County,CA,NA,NA,32.629558541266796
95065,Santa Cruz County,CA,NA,93.08390022675736,NA
95125,Santa Clara County,CA,NA,NA,22.264875239923224
95126,Santa Clara County,CA,77.75305895439377,NA,NA
95340,Merced County,CA,NA,NA,35.70057581573896
95370,Tuolumne County,CA,NA,50,NA
95377,San Joaquin County,CA,59.84427141268076,NA,NA
95448,Sonoma County,CA,NA,35.374149659863946,NA
95451,Lake County,CA,68.18687430478309,NA,NA
95501,Humboldt County,CA,NA,25.623582766439913,NA
95519,Humboldt County,CA,NA,NA,57.77351247600768
95540,Humboldt County,CA,NA,NA,49.32821497120921
95619,El Dorado County,CA,NA,NA,96.73704414587331
95630,Sacramento County,CA,NA,41.83673469387755,NA
95776,Yolo County,CA,77.97552836484984,NA,NA
95826,Sacramento County,CA,45.60622914349277,NA,NA
95835,Sacramento County,CA,NA,NA,42.226487523992326
95838,Sacramento County,CA,59.95550611790878,NA,NA
95926,Butte County,CA,NA,18.480725623582767,NA
95954,Butte County,CA,NA,25.736961451247165,NA
95965,Butte County,CA,NA,21.428571428571427,NA
95969,Butte County,CA,NA,45.57823129251701,NA
95991,Sutter County,CA,NA,NA,35.12476007677543
96007,Shasta County,CA,NA,49.09297052154195,NA
96080,Tehama County,CA,36.92992213570634,NA,NA
80016,Arapahoe County,CO,NA,13.038548752834467,NA
80021,Jefferson County,CO,73.97107897664071,NA,NA
80026,Boulder County,CO,NA,38.208616780045354,NA
80112,Arapahoe County,CO,NA,91.60997732426304,NA
80122,Arapahoe County,CO,NA,42.290249433106574,NA
80129,Douglas County,CO,65.07230255839822,NA,NA
80134,Douglas County,CO,NA,27.2108843537415,NA
80209,Denver County,CO,NA,54.08163265306123,NA
80210,Denver County,CO,47.60845383759733,NA,NA
80214,Jefferson County,CO,NA,58.843537414965986,NA
80223,Denver County,CO,NA,NA,94.81765834932821
80227,Jefferson County,CO,NA,82.53968253968253,NA
80228,Jefferson County,CO,NA,45.80498866213152,NA
80231,Denver County,CO,33.25917686318131,NA,NA
80232,Jefferson County,CO,NA,71.20181405895691,NA
80401,Jefferson County,CO,NA,72.56235827664399,NA
80503,Boulder County,CO,57.61957730812013,NA,NA
80521,Larimer County,CO,86.09566184649611,NA,NA
80550,Weld County,CO,27.1412680756396,NA,NA
80634,Weld County,CO,NA,NA,7.485604606525912
80701,Morgan County,CO,NA,91.9501133786848,NA
80723,Morgan County,CO,NA,62.698412698412696,NA
80904,El Paso County,CO,NA,51.92743764172335,NA
80908,El Paso County,CO,74.41601779755284,NA,NA
80918,El Paso County,CO,39.265850945494996,77.55102040816327,NA
81004,Pueblo County,CO,NA,21.31519274376417,NA
81005,Pueblo County,CO,NA,NA,64.87523992322457
81144,Rio Grande County,CO,NA,NA,68.13819577735126
81401,Montrose County,CO,NA,30.839002267573694,NA
81403,Montrose County,CO,NA,88.20861678004536,NA
81625,Moffat County,CO,93.99332591768632,NA,NA
06071,Tolland County,CT,87.76418242491657,NA,NA
06098,Litchfield County,CT,78.75417130144605,NA,NA
06249,New London County,CT,97.44160177975529,NA,NA
06255,Windham County,CT,83.31479421579533,NA,NA
06405,New Haven County,CT,NA,NA,56.62188099808061
06443,New Haven County,CT,NA,56.575963718820866,NA
06461,New Haven County,CT,NA,NA,82.91746641074856
06483,New Haven County,CT,NA,48.1859410430839,NA
06511,New Haven County,CT,NA,7.369614512471655,NA
06513,New Haven County,CT,NA,29.024943310657598,NA
06516,New Haven County,CT,55.06117908787542,1.9274376417233559,NA
06604,Fairfield County,CT,NA,26.87074829931973,NA
06770,New Haven County,CT,NA,NA,21.689059500959694
06824,Fairfield County,CT,NA,NA,49.90403071017274
06830,Fairfield County,CT,NA,NA,9.404990403071018
06883,Fairfield County,CT,NA,89.56916099773242,97.31285988483685
06902,Fairfield County,CT,19.13236929922136,NA,68.52207293666027
06905,Fairfield County,CT,NA,93.19727891156462,NA
19804,New Castle County,DE,25.695216907675196,NA,NA
19808,New Castle County,DE,19.911012235817573,NA,NA
19810,New Castle County,DE,NA,NA,27.06333973128599
19960,Sussex County,DE,NA,82.99319727891157,NA
32008,Suwannee County,FL,79.64404894327029,NA,NA
32081,St. Johns County,FL,NA,73.80952380952381,NA
32084,St. Johns County,FL,NA,19.27437641723356,28.982725527831093
32128,Volusia County,FL,NA,NA,37.04414587332054
32129,Volusia County,FL,NA,NA,33.78119001919386
32130,Volusia County,FL,NA,NA,93.47408829174664
32132,Volusia County,FL,NA,62.698412698412696,NA
32174,Volusia County,FL,40.04449388209122,NA,NA
32207,Duval County,FL,16.35150166852058,NA,NA
32216,Duval County,FL,NA,NA,58.92514395393474
32220,Duval County,FL,58.39822024471635,NA,NA
32221,Duval County,FL,NA,NA,37.61996161228407
32224,Duval County,FL,51.16796440489433,33.6734693877551,NA
32246,Duval County,FL,13.904338153503893,NA,NA
32258,Duval County,FL,NA,NA,53.74280230326296
32409,Bay County,FL,82.8698553948832,NA,NA
32431,Jackson County,FL,NA,NA,81.95777351247601
32459,Walton County,FL,57.063403781979986,21.768707482993197,NA
32503,Escambia County,FL,NA,38.095238095238095,NA
32531,Okaloosa County,FL,NA,67.80045351473923,NA
32535,Escambia County,FL,67.63070077864293,NA,NA
32563,Santa Rosa County,FL,29.588431590656285,NA,NA
32566,Santa Rosa County,FL,58.954393770856505,NA,NA
32571,Santa Rosa County,FL,11.67964404894327,NA,NA
32578,Okaloosa County,FL,NA,NA,18.426103646833013
32605,Alachua County,FL,NA,22.56235827664399,NA
32608,Alachua County,FL,55.28364849833148,59.63718820861678,NA
32609,Alachua County,FL,18.5761957730812,NA,NA
32618,Alachua County,FL,NA,99.54648526077098,NA
32643,Alachua County,FL,NA,66.78004535147393,NA
32707,Seminole County,FL,NA,NA,36.85220729366603
32714,Seminole County,FL,NA,53.51473922902494,NA
32750,Seminole County,FL,90.32258064516128,NA,NA
32778,Lake County,FL,NA,18.027210884353742,NA
32779,Seminole County,FL,NA,30.385487528344672,NA
32822,Orange County,FL,17.686318131256954,NA,NA
32909,Brevard County,FL,NA,NA,36.660268714011515
32920,Brevard County,FL,NA,62.01814058956916,NA
32926,Brevard County,FL,NA,34.467120181405896,15.355086372360843
32958,Indian River County,FL,NA,8.503401360544217,NA
33025,Broward County,FL,NA,NA,34.357005758157385
33076,Broward County,FL,NA,NA,53.35892514395394
33139,Miami-Dade County,FL,NA,NA,8.445297504798464
33160,Miami-Dade County,FL,NA,26.417233560090704,NA
33177,Miami-Dade County,FL,NA,39.229024943310655,NA
33189,Miami-Dade County,FL,NA,91.38321995464852,NA
33193,Miami-Dade County,FL,NA,75.85034013605441,NA
33308,Broward County,FL,NA,39.1156462585034,NA
33401,Palm Beach County,FL,NA,64.85260770975057,NA
33413,Palm Beach County,FL,NA,83.21995464852607,NA
33418,Palm Beach County,FL,NA,20.408163265306122,NA
33441,Broward County,FL,NA,79.93197278911565,NA
33442,Broward County,FL,NA,59.750566893424036,NA
33484,Palm Beach County,FL,NA,NA,1.727447216890595
33545,Pasco County,FL,78.08676307007786,NA,NA
33594,Hillsborough County,FL,52.28031145717463,NA,NA
33613,Hillsborough County,FL,NA,NA,71.59309021113243
33629,Hillsborough County,FL,NA,96.3718820861678,NA
33708,Pinellas County,FL,NA,NA,64.49136276391555
33709,Pinellas County,FL,NA,77.32426303854876,NA
33713,Pinellas County,FL,45.82869855394883,NA,NA
33761,Pinellas County,FL,NA,61.451247165532884,NA
33801,Polk County,FL,NA,32.53968253968254,NA
33810,Polk County,FL,NA,NA,22.456813819577732
33823,Polk County,FL,59.399332591768626,NA,NA
33903,Lee County,FL,NA,22.22222222222222,NA
33904,Lee County,FL,NA,80.38548752834467,NA
33905,Lee County,FL,NA,NA,37.81190019193858
33907,Lee County,FL,NA,NA,48.17658349328215
33908,Lee County,FL,73.63737486095661,NA,NA
33909,Lee County,FL,NA,33.44671201814059,NA
33912,Lee County,FL,NA,NA,48.94433781190019
33913,Lee County,FL,71.7463848720801,21.65532879818594,42.61036468330134
33917,Lee County,FL,NA,13.60544217687075,11.324376199616124
33919,Lee County,FL,NA,NA,3.262955854126679
33928,Lee County,FL,71.96885428253616,NA,51.0556621880998
33948,Charlotte County,FL,NA,29.931972789115648,NA
33971,Lee County,FL,49.49944382647386,NA,NA
33972,Lee County,FL,NA,NA,92.32245681381957
33976,Lee County,FL,81.53503893214683,NA,NA
33993,Lee County,FL,41.71301446051168,NA,NA
34145,Collier County,FL,86.4293659621802,NA,NA
34231,Sarasota County,FL,70.07786429365962,NA,NA
34234,Sarasota County,FL,NA,33.10657596371882,NA
34238,Sarasota County,FL,NA,NA,4.990403071017274
34288,Sarasota County,FL,88.54282536151278,NA,NA
34465,Citrus County,FL,NA,NA,59.11708253358925
34470,Marion County,FL,42.714126807563964,NA,NA
34488,Marion County,FL,NA,NA,77.73512476007679
34491,Marion County,FL,53.9488320355951,NA,NA
34743,Osceola County,FL,NA,51.47392290249433,NA
34744,Osceola County,FL,24.24916573971079,NA,NA
34759,Polk County,FL,NA,33.6734693877551,NA
34786,Orange County,FL,NA,NA,67.56238003838772
34951,St. Lucie County,FL,NA,NA,50.287907869481764
34997,Martin County,FL,NA,NA,4.222648752399232
30004,Fulton County,GA,NA,59.97732426303855,NA
30005,Fulton County,GA,NA,67.12018140589569,NA
30009,Fulton County,GA,NA,65.64625850340136,NA
30014,Newton County,GA,NA,55.78231292517006,NA
30016,Newton County,GA,36.15127919911012,NA,NA
30022,Fulton County,GA,NA,NA,44.913627639155465
30030,DeKalb County,GA,NA,NA,72.93666026871402
30052,Walton County,GA,NA,28.57142857142857,NA
30060,Cobb County,GA,33.59288097886541,NA,NA
30062,Cobb County,GA,NA,NA,23.224568138195778
30078,Gwinnett County,GA,NA,NA,56.046065259117086
30087,DeKalb County,GA,NA,77.66439909297053,NA
30096,Gwinnett County,GA,65.96218020022246,NA,NA
30102,Cherokee County,GA,40.3781979977753,NA,NA
30106,Cobb County,GA,58.28698553948832,NA,NA
30122,Douglas County,GA,48.05339265850945,NA,NA
30125,Polk County,GA,32.59176863181313,NA,NA
30135,Douglas County,GA,NA,55.89569160997733,NA
30144,Cobb County,GA,31.47942157953281,NA,NA
30152,Cobb County,GA,92.43604004449388,NA,NA
30153,Polk County,GA,62.8476084538376,NA,NA
30180,Carroll County,GA,48.275862068965516,NA,NA
30188,Cherokee County,GA,NA,11.337868480725625,NA
30214,Fayette County,GA,NA,NA,66.60268714011515
30233,Butts County,GA,NA,NA,91.74664107485604
30277,Coweta County,GA,63.51501668520578,NA,NA
30281,Henry County,GA,23.470522803114573,NA,NA
30293,Meriwether County,GA,98.99888765294772,NA,NA
30316,DeKalb County,GA,NA,38.66213151927438,NA
30319,DeKalb County,GA,NA,NA,83.30134357005758
30344,Fulton County,GA,NA,31.292517006802722,NA
30417,Evans County,GA,NA,93.99092970521542,NA
30427,Tattnall County,GA,NA,NA,76.96737044145874
30436,Toombs County,GA,72.63626251390434,NA,82.14971209213053
30519,Gwinnett County,GA,NA,NA,93.66602687140116
30523,Habersham County,GA,NA,NA,90.40307101727447
30536,Gilmer County,GA,NA,70.29478458049887,NA
30606,Clarke County,GA,NA,80.04535147392289,NA
30736,Catoosa County,GA,NA,14.058956916099774,NA
30809,Columbia County,GA,NA,35.034013605442176,NA
30833,Jefferson County,GA,98.33147942157953,NA,NA
30906,Richmond County,GA,NA,4.081632653061225,NA
31014,Bleckley County,GA,NA,64.96598639455783,NA
31023,Dodge County,GA,NA,62.47165532879818,NA
31093,Houston County,GA,NA,24.03628117913832,NA
31210,Bibb County,GA,NA,NA,40.11516314779271
31313,Liberty County,GA,NA,64.73922902494331,NA
31331,McIntosh County,GA,86.65183537263627,NA,NA
31404,Chatham County,GA,NA,31.065759637188208,NA
31406,Chatham County,GA,69.74416017797553,20.975056689342402,NA
31410,Chatham County,GA,88.87652947719688,NA,NA
31516,Pierce County,GA,NA,58.50340136054422,NA
31548,Camden County,GA,49.49944382647386,NA,NA
31560,Wayne County,GA,95.21690767519466,NA,NA
31569,Camden County,GA,91.32369299221357,NA,NA
31730,Mitchell County,GA,NA,78.34467120181405,NA
31768,Colquitt County,GA,NA,NA,53.16698656429942
31904,Muscogee County,GA,NA,63.26530612244898,NA
31909,Muscogee County,GA,61.73526140155728,NA,NA
96706,Honolulu County,HI,50.61179087875417,NA,NA
96744,Honolulu County,HI,NA,NA,2.8790786948176583
96768,Maui County,HI,NA,NA,92.51439539347409
96816,Honolulu County,HI,28.698553948832036,NA,NA
96818,Honolulu County,HI,44.16017797552836,NA,NA
96819,Honolulu County,HI,14.57174638487208,NA,NA
83204,Bannock County,ID,44.938820912124584,NA,NA
83301,Twin Falls County,ID,NA,8.616780045351474,NA
83318,Cassia County,ID,NA,37.188208616780045,NA
83401,Bonneville County,ID,NA,NA,43.37811900191939
83402,Bonneville County,ID,NA,NA,89.82725527831093
83404,Bonneville County,ID,46.49610678531702,38.435374149659864,NA
83440,Madison County,ID,NA,98.4126984126984,NA
83467,Lemhi County,ID,93.65962180200222,NA,NA
83605,Canyon County,ID,24.805339265850947,NA,NA
83616,Ada County,ID,NA,7.142857142857142,NA
83634,Ada County,ID,34.92769744160178,NA,NA
83642,Ada County,ID,15.906562847608456,NA,NA
83651,Canyon County,ID,NA,33.560090702947846,NA
83686,Canyon County,ID,6.451612903225806,NA,2.6871401151631478
83687,Canyon County,ID,NA,NA,40.69097888675624
83702,Ada County,ID,NA,14.512471655328799,NA
83704,Ada County,ID,NA,NA,15.547024952015356
83815,Kootenai County,ID,60.06674082313682,NA,NA
83843,Latah County,ID,54.2825361512792,NA,NA
83854,Kootenai County,ID,28.9210233592881,NA,NA
60016,Cook County,IL,49.38820912124583,NA,NA
60030,Lake County,IL,36.70745272525028,NA,NA
60033,McHenry County,IL,NA,NA,94.04990403071018
60042,McHenry County,IL,70.52280311457174,95.91836734693877,NA
60045,Lake County,IL,70.41156840934372,NA,NA
60050,McHenry County,IL,NA,23.922902494331066,NA
60051,McHenry County,IL,NA,51.247165532879826,NA
60068,Cook County,IL,62.06896551724138,NA,NA
60073,Lake County,IL,NA,52.38095238095239,NA
60081,McHenry County,IL,NA,66.78004535147393,NA
60089,Lake County,IL,94.88320355951056,NA,NA
60098,McHenry County,IL,NA,NA,10.9404990403071
60106,DuPage County,IL,54.83870967741935,NA,28.406909788867562
60115,DeKalb County,IL,35.15016685205784,NA,NA
60126,DuPage County,IL,NA,15.079365079365079,NA
60134,Kane County,IL,NA,31.746031746031743,NA
60137,DuPage County,IL,NA,54.53514739229025,NA
60142,McHenry County,IL,NA,NA,1.3435700575815739
60143,DuPage County,IL,74.86095661846495,NA,NA
60145,DeKalb County,IL,96.55172413793103,NA,NA
60160,Cook County,IL,43.937708565072306,NA,NA
60181,DuPage County,IL,27.474972191323694,NA,NA
60185,DuPage County,IL,32.48053392658509,NA,NA
60402,Cook County,IL,9.232480533926585,NA,NA
60406,Cook County,IL,45.82869855394883,NA,NA
60420,Livingston County,IL,NA,86.39455782312925,NA
60424,Grundy County,IL,NA,99.09297052154194,NA
60435,Will County,IL,NA,6.91609977324263,NA
60441,Will County,IL,NA,19.954648526077097,NA
60480,Cook County,IL,NA,98.9795918367347,NA
60482,Cook County,IL,NA,NA,78.1190019193858
60501,Cook County,IL,NA,97.39229024943312,NA
60504,DuPage County,IL,32.03559510567297,NA,NA
60513,Cook County,IL,NA,NA,79.65451055662189
60525,Cook County,IL,NA,NA,61.42034548944337
60543,Kendall County,IL,60.17797552836485,37.07482993197279,NA
60559,DuPage County,IL,NA,36.734693877551024,NA
60560,Kendall County,IL,37.1523915461624,NA,NA
60586,Will County,IL,55.83982202447163,NA,NA
60610,Cook County,IL,NA,46.3718820861678,NA
60618,Cook County,IL,6.674082313681868,NA,NA
60624,Cook County,IL,13.681868743047831,NA,NA
60630,Cook County,IL,NA,NA,40.49904030710173
60631,Cook County,IL,56.50723025583982,NA,NA
60639,Cook County,IL,30.81201334816463,NA,NA
60641,Cook County,IL,NA,11.45124716553288,52.5911708253359
60645,Cook County,IL,NA,NA,17.65834932821497
60655,Cook County,IL,26.696329254727473,NA,NA
60707,Cook County,IL,NA,NA,81.19001919385796
61025,Jo Daviess County,IL,NA,NA,95.39347408829175
61032,Stephenson County,IL,NA,12.698412698412698,NA
61115,Winnebago County,IL,80.7563959955506,80.49886621315193,NA
61201,Rock Island County,IL,84.53837597330367,NA,NA
61244,Rock Island County,IL,NA,NA,31.669865642994242
61265,Rock Island County,IL,NA,55.21541950113379,NA
61443,Henry County,IL,NA,NA,19.961612284069098
61701,McLean County,IL,69.2992213570634,NA,NA
61802,Champaign County,IL,76.0845383759733,NA,NA
62025,Madison County,IL,58.73192436040044,NA,55.85412667946257
62095,Madison County,IL,86.76307007786428,NA,NA
62246,Bond County,IL,NA,NA,63.91554702495201
62263,Washington County,IL,NA,NA,98.84836852207293
62278,Randolph County,IL,NA,NA,61.228406909788866
62401,Effingham County,IL,NA,44.33106575963719,NA
62702,Sangamon County,IL,23.35928809788654,NA,NA
62837,Wayne County,IL,NA,84.24036281179139,NA
62859,Hamilton County,IL,NA,NA,93.85796545105566
62864,Jefferson County,IL,78.86540600667408,NA,NA
46013,Madison County,IN,30.03337041156841,NA,NA
46036,Madison County,IN,52.72525027808677,NA,NA
46037,Hamilton County,IN,NA,26.984126984126984,NA
46052,Boone County,IN,NA,NA,41.26679462571977
46064,Madison County,IN,NA,46.14512471655329,93.09021113243762
46142,Johnson County,IN,37.04115684093437,NA,NA
46143,Johnson County,IN,NA,12.585034013605442,NA
46151,Morgan County,IN,22.58064516129032,14.73922902494331,NA
46203,Marion County,IN,30.255839822024473,NA,NA
46217,Marion County,IN,69.6329254727475,55.55555555555556,34.93282149712092
46222,Marion County,IN,44.048943270300335,NA,NA
46229,Marion County,IN,63.29254727474972,NA,32.437619961612285
46234,Marion County,IN,74.972191323693,NA,NA
46235,Marion County,IN,18.13125695216908,NA,NA
46237,Marion County,IN,17.46384872080089,NA,NA
46241,Marion County,IN,18.687430478309235,NA,47.02495201535509
46254,Marion County,IN,NA,NA,90.97888675623801
46256,Marion County,IN,61.29032258064516,NA,NA
46321,Lake County,IN,NA,11.904761904761903,NA
46323,Lake County,IN,NA,42.17687074829932,NA
46350,LaPorte County,IN,7.119021134593993,NA,NA
46360,LaPorte County,IN,22.58064516129032,NA,NA
46383,Porter County,IN,5.89543937708565,NA,10.36468330134357
46394,Lake County,IN,81.97997775305895,NA,NA
46405,Lake County,IN,35.37263626251391,NA,NA
46408,Lake County,IN,NA,36.507936507936506,NA
46516,Elkhart County,IN,15.127919911012237,NA,NA
46614,St. Joseph County,IN,NA,43.99092970521542,NA
46737,Steuben County,IN,NA,NA,54.894433781190024
46767,Noble County,IN,95.43937708565072,NA,NA
46774,Allen County,IN,52.05784204671857,NA,NA
46807,Allen County,IN,43.270300333704114,NA,NA
46835,Allen County,IN,29.254727474972192,NA,NA
46901,Howard County,IN,NA,17.573696145124718,NA
46947,Cass County,IN,9.899888765294772,NA,NA
46970,Miami County,IN,NA,15.646258503401361,NA
46992,Wabash County,IN,NA,32.31292517006803,NA
47006,Ripley County,IN,NA,NA,82.34165067178503
47119,Floyd County,IN,NA,NA,79.27063339731286
47165,Washington County,IN,NA,88.88888888888889,NA
47201,Bartholomew County,IN,9.454949944382648,NA,11.708253358925145
47265,Jennings County,IN,21.023359288097886,NA,NA
47274,Jackson County,IN,NA,74.94331065759637,60.65259117082533
47302,Delaware County,IN,16.46273637374861,NA,NA
47401,Monroe County,IN,NA,86.16780045351474,NA
47581,Martin County,IN,92.32480533926585,NA,NA
47630,Warrick County,IN,37.37486095661847,NA,NA
47710,Vanderburgh County,IN,31.81312569521691,NA,NA
47711,Vanderburgh County,IN,NA,NA,47.79270633397313
47714,Vanderburgh County,IN,NA,63.49206349206349,NA
47720,Vanderburgh County,IN,NA,79.02494331065759,NA
47802,Vigo County,IN,21.245828698553947,NA,NA
47805,Vigo County,IN,53.281423804226925,NA,NA
47885,Vigo County,IN,NA,64.62585034013605,NA
50009,Polk County,IA,NA,99.20634920634922,NA
50501,Webster County,IA,NA,60.997732426303855,NA
50677,Bremer County,IA,NA,81.40589569160997,75.43186180422265
50701,Black Hawk County,IA,78.64293659621802,NA,NA
50702,Black Hawk County,IA,63.07007786429366,70.74829931972789,NA
50703,Black Hawk County,IA,NA,NA,27.447216890595012
51031,Plymouth County,IA,71.85761957730811,NA,NA
51104,Woodbury County,IA,NA,NA,73.12859884836853
51250,Sioux County,IA,NA,93.87755102040816,NA
51503,Pottawattamie County,IA,NA,3.1746031746031744,NA
52001,Dubuque County,IA,13.236929922135706,49.31972789115646,NA
52002,Dubuque County,IA,NA,NA,69.48176583493282
52052,Clayton County,IA,NA,NA,81.38195777351248
52101,Winneshiek County,IA,NA,NA,60.076775431861805
52241,Johnson County,IA,39.71078976640712,NA,NA
52302,Linn County,IA,NA,77.21088435374149,NA
52314,Linn County,IA,99.77753058954394,NA,NA
52402,Linn County,IA,NA,17.233560090702948,NA
52404,Linn County,IA,NA,41.269841269841265,NA
52501,Wapello County,IA,NA,NA,24.95201535508637
52537,Davis County,IA,79.19911012235818,NA,NA
52722,Scott County,IA,81.0901001112347,NA,20.92130518234165
66018,Johnson County,KS,NA,95.80498866213152,NA
66030,Johnson County,KS,NA,NA,99.61612284069098
66061,Johnson County,KS,80.42269187986652,85.37414965986395,64.68330134357005
66062,Johnson County,KS,49.94438264738598,10.884353741496598,46.83301343570058
66083,Johnson County,KS,NA,94.44444444444444,NA
66106,Wyandotte County,KS,NA,NA,62.95585412667947
66204,Johnson County,KS,NA,52.26757369614512,NA
66210,Johnson County,KS,NA,55.66893424036281,NA
66215,Johnson County,KS,63.51501668520578,NA,66.98656429942419
66221,Johnson County,KS,NA,NA,94.43378119001919
66223,Johnson County,KS,NA,NA,52.783109404990405
66434,Brown County,KS,NA,81.74603174603175,NA
66441,Geary County,KS,NA,NA,75.62380038387715
67601,Ellis County,KS,85.20578420467186,85.03401360544217,52.01535508637236
67637,Ellis County,KS,97.21913236929922,NA,NA
67880,Grant County,KS,NA,NA,94.6257197696737
40013,Nelson County,KY,87.98665183537263,NA,NA
40047,Bullitt County,KY,27.030033370411566,NA,NA
40059,Jefferson County,KY,NA,53.28798185941043,NA
40065,Shelby County,KY,35.595105672969964,NA,NA
40165,Bullitt County,KY,11.902113459399333,12.35827664399093,NA
40203,Jefferson County,KY,70.63403781979977,NA,NA
40207,Jefferson County,KY,NA,76.53061224489795,NA
40214,Jefferson County,KY,NA,39.342403628117914,NA
40215,Jefferson County,KY,NA,67.91383219954649,NA
40216,Jefferson County,KY,7.230255839822025,9.183673469387756,NA
40218,Jefferson County,KY,54.727474972191324,NA,NA
40219,Jefferson County,KY,36.04004449388209,NA,NA
40220,Jefferson County,KY,NA,NA,19.385796545105567
40241,Jefferson County,KY,NA,NA,59.309021113243766
40258,Jefferson County,KY,19.688542825361512,NA,NA
40272,Jefferson County,KY,NA,40.362811791383216,NA
40291,Jefferson County,KY,NA,NA,27.63915547024952
40299,Jefferson County,KY,NA,NA,15.547024952015356
40324,Scott County,KY,10.901001112347053,NA,NA
40336,Estill County,KY,46.162402669632925,NA,NA
40342,Anderson County,KY,70.96774193548387,NA,NA
40356,Jessamine County,KY,37.4860956618465,NA,NA
40380,Powell County,KY,62.291434927697445,NA,NA
40383,Woodford County,KY,NA,NA,80.23032629558541
40391,Clark County,KY,57.28587319243604,NA,NA
40403,Madison County,KY,19.799777530589544,NA,NA
40422,Boyle County,KY,NA,71.65532879818595,NA
40444,Garrard County,KY,NA,74.14965986394559,NA
40484,Lincoln County,KY,NA,46.71201814058957,NA
40505,Fayette County,KY,21.134593993325918,NA,NA
40517,Fayette County,KY,NA,32.08616780045352,NA
40741,Laurel County,KY,NA,79.47845804988663,NA
40744,Laurel County,KY,26.918798665183534,NA,71.017274472168907
41004,Bracken County,KY,94.9944382647386,NA,NA
41015,Kenton County,KY,NA,NA,31.477927063339735
41042,Boone County,KY,3.8932146829810903,4.535147392290249,NA
41048,Boone County,KY,72.08008898776419,NA,NA
41051,Kenton County,KY,NA,59.410430839002274,NA
41102,Boyd County,KY,NA,NA,21.113243761996163
41129,Boyd County,KY,44.71635150166852,NA,NA
41139,Greenup County,KY,NA,46.93877551020408,87.71593090211132
42025,Marshall County,KY,90.98998887652948,NA,NA
42027,Graves County,KY,NA,99.88662131519274,NA
42066,Graves County,KY,20.24471635150167,NA,NA
42071,Calloway County,KY,NA,NA,67.75431861804223
42101,Warren County,KY,53.50389321468298,NA,NA
42164,Allen County,KY,NA,NA,65.06717850287907
42345,Muhlenberg County,KY,NA,94.67120181405896,NA
42408,Hopkins County,KY,NA,NA,85.98848368522073
42718,Taylor County,KY,NA,NA,7.869481765834934
42754,Grayson County,KY,74.41601779755284,NA,NA
70058,Jefferson Parish,LA,NA,34.24036281179138,NA
70068,St. John the Baptist Parish,LA,48.49833147942158,NA,NA
70072,Jefferson Parish,LA,NA,1.473922902494331,NA
70119,Orleans Parish,LA,NA,4.875283446712018,NA
70128,Orleans Parish,LA,40.82313681868743,NA,NA
70301,Lafourche Parish,LA,2.0022246941045605,NA,NA
70401,Tangipahoa Parish,LA,NA,60.317460317460316,NA
70403,Tangipahoa Parish,LA,4.671857619577309,NA,54.510556621881
70422,Tangipahoa Parish,LA,72.8587319243604,66.55328798185941,NA
70433,St. Tammany Parish,LA,NA,NA,43.7619961612284
70446,Tangipahoa Parish,LA,NA,99.65986394557824,NA
70454,Tangipahoa Parish,LA,6.896551724137931,29.47845804988662,26.29558541266795
70462,Livingston Parish,LA,NA,NA,96.3531669865643
70471,St. Tammany Parish,LA,NA,14.852607709750568,NA
70503,Lafayette Parish,LA,NA,17.346938775510203,NA
70508,Lafayette Parish,LA,NA,13.83219954648526,NA
70518,Lafayette Parish,LA,NA,60.090702947845806,NA
70543,Acadia Parish,LA,96.32925472747496,NA,NA
70546,Jefferson Davis Parish,LA,25.917686318131256,NA,NA
70560,Iberia Parish,LA,13.793103448275861,69.61451247165533,NA
70586,Evangeline Parish,LA,13.348164627363737,NA,NA
70592,Lafayette Parish,LA,26.807563959955505,NA,NA
70601,Calcasieu Parish,LA,NA,5.782312925170068,NA
70634,Beauregard Parish,LA,NA,28.458049886621318,NA
70663,Calcasieu Parish,LA,6.562847608453838,NA,NA
70665,Calcasieu Parish,LA,31.25695216907675,NA,NA
70669,Calcasieu Parish,LA,NA,52.49433106575964,NA
70726,Livingston Parish,LA,NA,28.2312925170068,NA
70769,Ascension Parish,LA,7.897664071190211,NA,NA
70770,East Baton Rouge Parish,LA,NA,97.84580498866214,NA
70785,Livingston Parish,LA,41.490545050055616,NA,NA
70807,East Baton Rouge Parish,LA,10.233592880978867,NA,NA
70815,East Baton Rouge Parish,LA,38.82091212458287,NA,NA
71104,Caddo Parish,LA,NA,55.89569160997733,NA
71106,Caddo Parish,LA,NA,95.23809523809523,NA
71107,Caddo Parish,LA,2.5583982202447166,44.89795918367347,NA
71109,Caddo Parish,LA,4.560622914349278,NA,NA
71115,Caddo Parish,LA,NA,NA,32.82149712092131
71118,Caddo Parish,LA,NA,NA,13.24376199616123
71291,Ouachita Parish,LA,NA,NA,20.537428023032632
71301,Rapides Parish,LA,NA,25.283446712018144,NA
71360,Rapides Parish,LA,8.898776418242491,NA,NA
71418,Caldwell Parish,LA,38.598442714126804,NA,NA
71457,Natchitoches Parish,LA,NA,16.439909297052154,NA
04011,Cumberland County,ME,NA,NA,13.62763915547025
04073,York County,ME,NA,23.356009070294785,NA
04102,Cumberland County,ME,30.589543937708562,NA,NA
04240,Androscoggin County,ME,NA,29.138321995464857,1.1516314779270633
04281,Oxford County,ME,NA,NA,62.18809980806142
04605,Hancock County,ME,NA,48.86621315192744,NA
04849,Waldo County,ME,NA,NA,67.17850287907869
04901,Kennebec County,ME,NA,NA,3.8387715930902107
04930,Penobscot County,ME,NA,78.91156462585033,NA
20603,Charles County,MD,NA,79.13832199546485,NA
20646,Charles County,MD,64.51612903225806,NA,NA
20736,Calvert County,MD,98.77641824249166,NA,NA
20853,Montgomery County,MD,NA,63.15192743764172,NA
20855,Montgomery County,MD,NA,NA,96.54510556621881
21009,Harford County,MD,40.934371523915466,NA,NA
21060,Anne Arundel County,MD,26.140155728587317,NA,NA
21204,Baltimore County,MD,NA,69.04761904761905,NA
21220,Baltimore County,MD,41.935483870967744,NA,NA
21229,Baltimore city,MD,NA,14.285714285714285,NA
21239,Baltimore city,MD,NA,91.49659863945578,NA
21401,Anne Arundel County,MD,NA,22.448979591836736,NA
21502,Allegany County,MD,NA,NA,61.99616122840691
21619,Queen Anne's County,MD,NA,89.22902494331065,NA
21787,Carroll County,MD,NA,NA,74.4721689059501
21804,Wicomico County,MD,NA,44.67120181405896,30.518234165067177
21811,Worcester County,MD,NA,NA,15.163147792706333
21851,Worcester County,MD,87.65294771968854,NA,NA
01020,Hampden County,MA,18.909899888765295,NA,NA
01077,Hampden County,MA,NA,NA,72.7447216890595
01085,Hampden County,MA,1.1123470522803114,NA,NA
01095,Hampden County,MA,NA,89.1156462585034,NA
01119,Hampden County,MA,14.46051167964405,NA,NA
01220,Berkshire County,MA,NA,30.725623582766442,NA
01238,Berkshire County,MA,NA,NA,95.58541266794626
01247,Berkshire County,MA,4.226918798665183,NA,NA
01267,Berkshire County,MA,NA,61.111111111111114,NA
01364,Franklin County,MA,83.64849833147943,NA,NA
01420,Worcester County,MA,NA,12.471655328798185,NA
01432,Middlesex County,MA,NA,62.698412698412696,NA
01440,Worcester County,MA,9.343715239154617,NA,NA
01450,Middlesex County,MA,NA,NA,79.07869481765835
01463,Middlesex County,MA,NA,40.249433106575964,NA
01464,Middlesex County,MA,NA,51.8140589569161,NA
01468,Worcester County,MA,98.88765294771969,NA,NA
01501,Worcester County,MA,NA,NA,18.618042226487525
01545,Worcester County,MA,NA,11.791383219954648,NA
01550,Worcester County,MA,0.6674082313681869,NA,NA
01566,Worcester County,MA,NA,NA,78.69481765834932
01588,Worcester County,MA,NA,NA,86.37236084452975
01602,Worcester County,MA,5.228031145717464,NA,NA
01605,Worcester County,MA,0.8898776418242491,NA,NA
01609,Worcester County,MA,NA,3.968253968253968,NA
01610,Worcester County,MA,NA,NA,47.98464491362764
01702,Middlesex County,MA,NA,21.08843537414966,NA
01721,Middlesex County,MA,NA,NA,57.19769673704415
01742,Middlesex County,MA,46.273637374860954,NA,59.69289827255279
01748,Middlesex County,MA,76.19577308120134,NA,NA
01754,Middlesex County,MA,NA,44.10430839002268,NA
01760,Middlesex County,MA,76.4182424916574,NA,NA
01776,Middlesex County,MA,NA,32.08616780045352,NA
01801,Middlesex County,MA,6.896551724137931,NA,NA
01810,Essex County,MA,NA,40.022675736961446,NA
01821,Middlesex County,MA,NA,NA,6.525911708253358
01826,Middlesex County,MA,3.225806451612903,NA,NA
01844,Essex County,MA,0.778642936596218,NA,NA
01862,Middlesex County,MA,NA,83.10657596371883,NA
01876,Middlesex County,MA,5.005561735261402,13.83219954648526,NA
01886,Middlesex County,MA,NA,93.42403628117914,NA
01905,Essex County,MA,NA,5.1020408163265305,NA
01960,Essex County,MA,NA,NA,0
01982,Essex County,MA,63.95995550611791,NA,NA
02030,Norfolk County,MA,85.87319243604004,NA,NA
02056,Norfolk County,MA,88.2091212458287,69.27437641723357,NA
02119,Suffolk County,MA,0,NA,NA
02121,Suffolk County,MA,0.22246941045606228,NA,NA
02124,Suffolk County,MA,NA,0,NA
02127,Suffolk County,MA,20.912124582869858,NA,NA
02129,Suffolk County,MA,NA,18.70748299319728,38.771593090211134
02131,Suffolk County,MA,1.0011123470522802,NA,NA
02134,Suffolk County,MA,NA,97.1655328798186,NA
02136,Suffolk County,MA,NA,20.861678004535147,NA
02138,Middlesex County,MA,9.788654060066742,NA,NA
02139,Middlesex County,MA,71.19021134593993,0.7936507936507936,NA
02143,Middlesex County,MA,22.469410456062292,NA,NA
02151,Suffolk County,MA,1.2235817575083427,NA,NA
02155,Middlesex County,MA,16.129032258064516,NA,NA
02169,Norfolk County,MA,NA,NA,44.72168905950096
02186,Norfolk County,MA,NA,93.65079365079364,NA
02189,Norfolk County,MA,84.76084538375973,47.3922902494331,NA
02190,Norfolk County,MA,52.39154616240267,83.6734693877551,NA
02301,Plymouth County,MA,0.33370411568409347,NA,NA
02302,Plymouth County,MA,0.5561735261401557,NA,NA
02339,Plymouth County,MA,NA,NA,85.79654510556622
02368,Norfolk County,MA,26.585094549499445,NA,NA
02370,Plymouth County,MA,NA,70.06802721088435,NA
02420,Middlesex County,MA,96.88542825361512,NA,NA
02421,Middlesex County,MA,NA,27.43764172335601,NA
02459,Middlesex County,MA,NA,78.68480725623583,58.73320537428023
02465,Middlesex County,MA,81.20133481646273,NA,NA
02472,Middlesex County,MA,NA,NA,61.036468330134355
02474,Middlesex County,MA,79.97775305895439,NA,NA
02476,Middlesex County,MA,60.95661846496107,NA,NA
02478,Middlesex County,MA,20.689655172413794,NA,NA
02481,Norfolk County,MA,49.165739710789765,NA,NA
02492,Norfolk County,MA,NA,19.387755102040817,NA
02532,Barnstable County,MA,NA,41.383219954648524,NA
02540,Barnstable County,MA,82.20244716351502,NA,NA
02559,Barnstable County,MA,NA,NA,89.63531669865642
02631,Barnstable County,MA,NA,36.281179138321995,33.20537428023032
02649,Barnstable County,MA,NA,NA,14.779270633397312
02653,Barnstable County,MA,NA,73.69614512471655,NA
02657,Barnstable County,MA,NA,99.77324263038548,NA
02673,Barnstable County,MA,NA,92.51700680272108,NA
02675,Barnstable County,MA,NA,NA,40.88291746641075
02703,Bristol County,MA,NA,31.97278911564626,NA
02718,Bristol County,MA,NA,72.78911564625851,NA
02723,Bristol County,MA,2.1134593993325916,NA,NA
02745,Bristol County,MA,NA,47.61904761904761,NA
02747,Bristol County,MA,25.361512791991103,NA,NA
02762,Norfolk County,MA,NA,69.72789115646259,NA
02766,Bristol County,MA,NA,NA,97.50479846449136
02790,Bristol County,MA,NA,NA,59.88483685220729
48042,Macomb County,MI,NA,18.820861678004537,NA
48044,Macomb County,MI,NA,43.08390022675737,NA
48075,Oakland County,MI,28.03114571746385,NA,NA
48093,Macomb County,MI,NA,62.244897959183675,NA
48103,Washtenaw County,MI,37.708565072302555,NA,NA
48116,Livingston County,MI,25.472747497219135,11.224489795918368,NA
48125,Wayne County,MI,71.412680756396,NA,NA
48167,Oakland County,MI,NA,NA,9.980806142034549
48168,Wayne County,MI,NA,29.25170068027211,NA
48170,Wayne County,MI,11.568409343715238,NA,NA
48176,Washtenaw County,MI,NA,16.89342403628118,NA
48180,Wayne County,MI,2.2246941045606228,NA,NA
48186,Wayne County,MI,4.338153503893214,NA,NA
48198,Washtenaw County,MI,NA,36.621315192743765,NA
48206,Wayne County,MI,24.47163515016685,NA,NA
48214,Wayne County,MI,18.020022246941046,NA,NA
48221,Wayne County,MI,NA,NA,1.9193857965451053
48225,Wayne County,MI,33.70411568409344,NA,NA
48235,Wayne County,MI,NA,1.5873015873015872,NA
48236,Wayne County,MI,27.808676307007786,NA,NA
48302,Oakland County,MI,NA,NA,24.95201535508637
48313,Macomb County,MI,NA,15.306122448979592,NA
48322,Oakland County,MI,NA,NA,41.8426103646833
48323,Oakland County,MI,47.38598442714127,NA,NA
48328,Oakland County,MI,NA,NA,29.174664107485604
48340,Oakland County,MI,8.231368186874304,97.50566893424036,NA
48346,Oakland County,MI,NA,NA,38.1957773512476
48383,Oakland County,MI,98.5539488320356,NA,NA
48415,Saginaw County,MI,NA,NA,62.76391554702495
48420,Genesee County,MI,NA,NA,69.86564299424184
48421,Lapeer County,MI,NA,75.17006802721087,NA
48423,Genesee County,MI,NA,NA,33.97312859884837
48444,Lapeer County,MI,NA,68.59410430839003,NA
48446,Lapeer County,MI,91.21245828698554,NA,NA
48458,Genesee County,MI,NA,NA,48.56046065259117
48461,Lapeer County,MI,NA,94.33106575963718,NA
48462,Oakland County,MI,84.20467185761957,NA,NA
48507,Genesee County,MI,7.786429365962181,NA,NA
48602,Saginaw County,MI,NA,7.596371882086168,NA
48603,Saginaw County,MI,35.03893214682981,63.832199546485256,NA
48624,Gladwin County,MI,33.14794215795328,NA,NA
48629,Roscommon County,MI,NA,82.6530612244898,NA
48637,Saginaw County,MI,92.1023359288098,NA,NA
48638,Saginaw County,MI,92.880978865406007,81.06575963718821,NA
48640,Midland County,MI,NA,NA,4.030710172744722
48647,Oscoda County,MI,NA,NA,86.9481765834933
48650,Bay County,MI,85.42825361512793,NA,NA
48655,Saginaw County,MI,77.8642936596218,92.17687074829932,NA
48658,Arenac County,MI,NA,NA,88.48368522072937
48706,Bay County,MI,5.3392658509454956,NA,NA
48708,Bay County,MI,5.672969966629588,NA,NA
48734,Saginaw County,MI,93.54838709677419,NA,NA
48744,Tuscola County,MI,NA,NA,85.6046065259117
48827,Eaton County,MI,NA,23.809523809523807,46.257197696737045
48836,Livingston County,MI,45.383759733036705,42.517006802721085,NA
48837,Eaton County,MI,NA,NA,57.965451055662186
48842,Ingham County,MI,NA,27.55102040816326,NA
48843,Livingston County,MI,10.122358175750835,NA,NA
48867,Shiawassee County,MI,NA,NA,29.750479846449135
48875,Ionia County,MI,90.87875417130145,NA,NA
49001,Kalamazoo County,MI,19.021134593993324,NA,NA
49002,Kalamazoo County,MI,82.53615127919912,73.58276643990929,72.16890595009598
49004,Kalamazoo County,MI,63.73748609566184,73.01587301587301,NA
49008,Kalamazoo County,MI,77.19688542825361,NA,77.15930902111324
49009,Kalamazoo County,MI,35.483870967741936,86.73469387755102,71.40115163147792
49010,Allegan County,MI,NA,NA,43.953934740882914
49014,Calhoun County,MI,NA,NA,74.08829174664108
49015,Calhoun County,MI,81.97997775305895,53.6281179138322,NA
49017,Calhoun County,MI,NA,NA,54.31861804222648
49024,Kalamazoo County,MI,73.1924360400445,NA,88.09980806142035
49037,Calhoun County,MI,84.98331479421579,82.42630385487529,NA
49045,Van Buren County,MI,66.62958843159066,NA,NA
49046,Barry County,MI,89.43270300333704,47.16553287981859,NA
49048,Kalamazoo County,MI,15.795328142380422,NA,11.900191938579654
49056,Van Buren County,MI,94.77196885428253,NA,NA
49057,Van Buren County,MI,85.31701890989989,NA,NA
49065,Van Buren County,MI,83.20355951056729,NA,NA
49071,Van Buren County,MI,94.21579532814238,NA,NA
49079,Van Buren County,MI,NA,87.41496598639455,98.65642994241843
49085,Berrien County,MI,NA,67.00680272108843,NA
49087,Kalamazoo County,MI,NA,91.83673469387756,95.77735124760078
49090,Van Buren County,MI,NA,79.47845804988663,NA
49093,St. Joseph County,MI,NA,61.224489795918366,NA
49097,Kalamazoo County,MI,77.0856507230256,NA,NA
49099,St. Joseph County,MI,NA,NA,90.7869481765835
49107,Berrien County,MI,60.51167964404895,NA,NA
49201,Jackson County,MI,29.699666295884313,NA,NA
49203,Jackson County,MI,5.561735261401557,NA,NA
49221,Lenawee County,MI,3.0033370411568407,3.4013605442176873,NA
49224,Calhoun County,MI,NA,92.29024943310658,NA
49242,Hillsdale County,MI,40.48943270300334,NA,NA
49270,Monroe County,MI,NA,89.45578231292517,NA
49304,Lake County,MI,NA,95.578231292517,NA
49306,Kent County,MI,77.30812013348165,NA,NA
49315,Kent County,MI,39.48832035595105,NA,34.16506717850288
49321,Kent County,MI,NA,NA,65.25911708253359
49341,Kent County,MI,NA,96.5986394557823,NA
49343,Kent County,MI,NA,90.36281179138322,NA
49345,Kent County,MI,81.31256952169078,NA,NA
49408,Allegan County,MI,68.29810901001112,NA,NA
49412,Newaygo County,MI,NA,46.03174603174603,50.67178502879079
49418,Kent County,MI,91.43492769744161,NA,NA
49424,Ottawa County,MI,38.487208008898776,NA,NA
49431,Mason County,MI,29.477196885428253,17.006802721088434,NA
49442,Muskegon County,MI,2.8921023359288096,NA,NA
49444,Muskegon County,MI,NA,66.3265306122449,19.769673704414586
49464,Ottawa County,MI,NA,60.544217687074834,NA
49503,Kent County,MI,NA,NA,39.923224568138195
49506,Kent County,MI,21.802002224694107,NA,15.930902111324377
49507,Kent County,MI,NA,NA,84.06909788867563
49509,Kent County,MI,NA,NA,46.449136276391556
49519,Kent County,MI,NA,NA,62.571976967370446
49546,Kent County,MI,NA,56.34920634920635,NA
49686,Grand Traverse County,MI,NA,70.18140589569161,NA
49696,Grand Traverse County,MI,83.53726362625139,NA,NA
49735,Otsego County,MI,NA,63.94557823129252,NA
49738,Crawford County,MI,NA,83.33333333333334,NA
49783,Chippewa County,MI,44.38264738598443,NA,NA
49837,Delta County,MI,NA,NA,49.32821497120921
49849,Marquette County,MI,NA,42.06349206349206,NA
49855,Marquette County,MI,12.235817575083425,59.523809523809526,NA
49866,Marquette County,MI,NA,66.09977324263039,NA
49913,Houghton County,MI,72.74749721913237,82.31292517006803,NA
49938,Gogebic County,MI,NA,38.88888888888889,NA
55016,Washington County,MN,NA,87.52834467120182,NA
55024,Dakota County,MN,42.380422691879865,NA,NA
55033,Dakota County,MN,NA,NA,76.00767754318618
55051,Kanabec County,MN,74.19354838709677,NA,41.074856046065264
55075,Dakota County,MN,NA,NA,65.83493282149712
55103,Ramsey County,MN,77.53058954393771,NA,NA
55110,Ramsey County,MN,NA,78.79818594104309,NA
55113,Ramsey County,MN,86.87430478309233,NA,NA
55122,Dakota County,MN,57.39710789766407,NA,NA
55128,Washington County,MN,NA,91.15646258503402,NA
55303,Anoka County,MN,NA,58.049886621315196,NA
55340,Hennepin County,MN,98.44271412680756,NA,NA
55376,Wright County,MN,NA,NA,73.89635316698656
55391,Hennepin County,MN,NA,70.97505668934241,NA
55404,Hennepin County,MN,7.341490545050055,NA,NA
55408,Hennepin County,MN,8.78754171301446,NA,NA
55411,Hennepin County,MN,NA,12.244897959183673,NA
55427,Hennepin County,MN,47.1635150166852,NA,NA
55429,Hennepin County,MN,NA,30.158730158730158,NA
55432,Anoka County,MN,20.467185761957733,NA,NA
55433,Anoka County,MN,NA,NA,69.09788867562379
55811,St. Louis County,MN,NA,40.58956916099773,NA
55912,Mower County,MN,NA,2.494331065759637,NA
55944,Dodge County,MN,82.42491657397107,NA,NA
55947,Houston County,MN,NA,47.73242630385487,NA
55981,Wabasha County,MN,93.10344827586206,NA,NA
55987,Winona County,MN,6.229143492769744,NA,NA
56001,Blue Earth County,MN,56.61846496106785,NA,NA
56031,Martin County,MN,65.51724137931035,NA,NA
56093,Waseca County,MN,NA,NA,21.8809980806142
56267,Stevens County,MN,NA,43.65079365079365,NA
56308,Douglas County,MN,NA,9.070294784580499,4.414587332053743
56359,Mille Lacs County,MN,81.86874304783093,NA,NA
56378,Stearns County,MN,NA,NA,80.61420345489442
56470,Hubbard County,MN,NA,27.09750566893424,NA
56482,Wadena County,MN,NA,45.69160997732426,NA
56501,Becker County,MN,NA,18.140589569160998,13.81957773512476
56515,Otter Tail County,MN,NA,NA,85.22072936660268
56537,Otter Tail County,MN,NA,6.235827664399093,NA
56560,Clay County,MN,NA,2.8344671201814062,8.253358925143955
56601,Beltrami County,MN,NA,NA,25.335892514395393
56701,Pennington County,MN,17.797552836484982,NA,NA
38632,DeSoto County,MS,NA,NA,53.550863723608444
38751,Sunflower County,MS,NA,NA,80.99808061420346
38901,Grenada County,MS,NA,NA,34.548944337811896
38930,Leflore County,MS,33.70411568409344,NA,NA
39056,Hinds County,MS,NA,91.72335600907029,NA
39073,Rankin County,MS,NA,NA,62.95585412667947
39119,Covington County,MS,87.20800889877643,NA,NA
39145,Rankin County,MS,NA,96.48526077097506,NA
39157,Madison County,MS,NA,73.35600907029477,NA
39180,Warren County,MS,NA,NA,30.326295585412666
39194,Yazoo County,MS,NA,63.718820861678005,NA
39202,Hinds County,MS,NA,98.75283446712018,NA
39301,Lauderdale County,MS,74.3047830923248,NA,NA
39305,Lauderdale County,MS,46.60734149054505,43.65079365079365,NA
39307,Lauderdale County,MS,NA,58.390022675736965,NA
39325,Lauderdale County,MS,NA,NA,100
39336,Newton County,MS,99.88876529477196,NA,NA
39345,Newton County,MS,NA,NA,95.20153550863724
39355,Clarke County,MS,95.99555061179088,NA,NA
39365,Neshoba County,MS,96.21802002224695,85.71428571428571,NA
39507,Harrison County,MS,NA,24.829931972789115,NA
39553,Jackson County,MS,NA,93.31065759637188,NA
39601,Lincoln County,MS,NA,80.95238095238095,NA
39730,Monroe County,MS,NA,55.32879818594104,NA
63011,St. Louis County,MO,NA,12.925170068027212,NA
63031,St. Louis County,MO,NA,NA,5.3742802303262955
63042,St. Louis County,MO,83.42602892102336,NA,NA
63052,Jefferson County,MO,NA,47.95918367346938,NA
63084,Franklin County,MO,NA,41.383219954648524,NA
63105,St. Louis County,MO,88.09788654060067,NA,NA
63108,St. Louis city,MO,NA,41.950113378684804,83.6852207293666
63117,St. Louis County,MO,89.9888765294772,NA,NA
63128,St. Louis County,MO,NA,NA,5.182341650671785
63136,St. Louis County,MO,NA,6.6893424036281175,NA
63139,St. Louis city,MO,NA,54.08163265306123,NA
63141,St. Louis County,MO,69.41045606229143,NA,NA
63146,St. Louis County,MO,NA,24.6031746031746,NA
63303,St. Charles County,MO,78.30923248053394,NA,NA
63368,St. Charles County,MO,35.92880978865406,NA,NA
63385,St. Charles County,MO,NA,9.523809523809524,NA
63701,Cape Girardeau County,MO,NA,NA,20.153550863723606
63935,Ripley County,MO,45.16129032258064,51.70068027210885,99.80806142034548
64012,Cass County,MO,NA,50.79365079365079,NA
64020,Lafayette County,MO,NA,98.1859410430839,NA
64024,Clay County,MO,16.240266963292544,NA,NA
64030,Jackson County,MO,16.017797552836484,NA,NA
64055,Jackson County,MO,NA,5.328798185941043,11.516314779270633
64064,Jackson County,MO,NA,NA,75.04798464491363
64068,Clay County,MO,6.7853170189099,25.056689342403626,92.89827255278311
64080,Cass County,MO,NA,86.05442176870748,NA
64081,Jackson County,MO,65.85094549499443,NA,NA
64083,Cass County,MO,NA,28.68480725623583,NA
64116,Clay County,MO,21.69076751946607,NA,NA
64118,Clay County,MO,NA,NA,23.80038387715931
64119,Clay County,MO,8.453837597330367,14.625850340136054,NA
64123,Jackson County,MO,NA,NA,74.85604606525912
64134,Jackson County,MO,10.456062291434929,NA,NA
64506,Buchanan County,MO,16.68520578420467,4.761904761904762,NA
64633,Carroll County,MO,NA,78.2312925170068,NA
64644,Caldwell County,MO,96.1067853170189,NA,NA
64804,Jasper County,MO,NA,NA,8.637236084452974
64836,Jasper County,MO,16.57397107897664,NA,NA
64843,McDonald County,MO,96.99666295884316,NA,NA
65026,Miller County,MO,59.17686318131257,64.39909297052154,NA
65049,Camden County,MO,NA,76.19047619047619,NA
65202,Boone County,MO,NA,15.759637188208616,NA
65301,Pettis County,MO,18.798665183537263,NA,NA
65401,Phelps County,MO,32.70300333704116,61.33786848072562,24.37619961612284
65453,Crawford County,MO,NA,71.42857142857143,NA
65459,Pulaski County,MO,NA,80.27210884353741,NA
65548,Howell County,MO,90.21134593993327,NA,NA
65559,Phelps County,MO,NA,87.64172335600907,NA
65565,Crawford County,MO,NA,NA,87.5239923224568
65583,Pulaski County,MO,87.43047830923248,NA,NA
65606,Oregon County,MO,99.22135706340379,NA,NA
65656,Stone County,MO,NA,84.35374149659864,NA
65706,Webster County,MO,NA,NA,52.97504798464492
65711,Wright County,MO,NA,68.70748299319727,NA
65721,Christian County,MO,47.4972191323693,NA,NA
65737,Stone County,MO,NA,NA,70.63339731285988
65738,Greene County,MO,NA,71.20181405895691,66.41074856046065
65781,Greene County,MO,NA,87.18820861678005,NA
65791,Oregon County,MO,NA,97.05215419501134,82.34165067178503
65793,Howell County,MO,NA,97.84580498866214,NA
65802,Greene County,MO,NA,13.378684807256235,NA
65803,Greene County,MO,NA,53.40136054421769,17.46641074856046
65804,Greene County,MO,NA,25.510204081632654,NA
65810,Greene County,MO,94.3270300333704,NA,55.470249520153544
59047,Park County,MT,NA,54.98866213151927,44.33781190019194
59711,Deer Lodge County,MT,NA,NA,54.12667946257198
59901,Flathead County,MT,28.364849833147943,1.2471655328798186,NA
59923,Lincoln County,MT,NA,NA,56.23800383877159
68005,Sarpy County,NE,NA,81.97278911564626,NA
68008,Washington County,NE,NA,NA,94.24184261036469
68104,Douglas County,NE,22.914349276974416,NA,NA
68310,Gage County,NE,NA,NA,64.29942418426103
68434,Seward County,NE,NA,77.77777777777779,NA
68506,Lancaster County,NE,64.293659621802007,NA,NA
68516,Lancaster County,NE,57.8420467185762,NA,NA
68803,Hall County,NE,NA,40.816326530612244,NA
69101,Lincoln County,NE,48.83203559510567,NA,NA
69162,Cheyenne County,NE,68.74304783092325,NA,NA
69301,Box Butte County,NE,86.31813125695217,NA,NA
89117,Clark County,NV,30.255839822024473,NA,NA
89128,Clark County,NV,NA,58.730158730158735,NA
89145,Clark County,NV,67.07452725250278,NA,NA
89147,Clark County,NV,35.26140155728587,NA,NA
89149,Clark County,NV,55.39488320355951,NA,NA
89434,Washoe County,NV,NA,58.95691609977324,30.134357005758154
03033,Hillsborough County,NH,81.42380422691879,NA,NA
03038,Rockingham County,NH,10.344827586206897,NA,70.63339731285988
03049,Hillsborough County,NH,NA,84.12698412698413,NA
03060,Hillsborough County,NH,4.4493882091212456,NA,NA
03079,Rockingham County,NH,13.125695216907676,NA,NA
03102,Hillsborough County,NH,NA,10.657596371882086,NA
03103,Hillsborough County,NH,4.004449388209121,30.612244897959183,48.94433781190019
03104,Hillsborough County,NH,11.345939933259176,NA,NA
03106,Merrimack County,NH,NA,88.77551020408163,NA
03110,Hillsborough County,NH,50.38932146829811,NA,NA
03275,Merrimack County,NH,83.75973303670744,NA,NA
03773,Sullivan County,NH,NA,NA,70.44145873320538
03801,Rockingham County,NH,NA,67.23356009070295,NA
03820,Strafford County,NH,NA,NA,9.213051823416507
03835,Strafford County,NH,NA,85.26077097505669,NA
03867,Strafford County,NH,NA,18.820861678004537,NA
03874,Rockingham County,NH,NA,NA,44.145873320537426
03894,Carroll County,NH,NA,75.39682539682539,NA
07003,Essex County,NJ,NA,18.594104308390023,NA
07035,Morris County,NJ,75.52836484983315,NA,NA
07054,Morris County,NJ,85.09454949944383,NA,NA
07070,Bergen County,NJ,NA,NA,58.157389635316704
07072,Bergen County,NJ,97.55283648498332,NA,NA
07079,Essex County,NJ,93.77085650723026,NA,NA
07080,Middlesex County,NJ,NA,NA,61.80422264875239
07106,Essex County,NJ,NA,23.69614512471655,NA
07410,Bergen County,NJ,84.42714126807564,NA,NA
07422,Sussex County,NJ,NA,94.10430839002267,NA
07461,Sussex County,NJ,34.260289210233594,48.86621315192744,NA
07508,Passaic County,NJ,NA,67.3469387755102,45.68138195777352
07643,Bergen County,NJ,100,NA,NA
07656,Bergen County,NJ,NA,NA,75.23992322456814
07726,Monmouth County,NJ,67.853170189099,NA,NA
07728,Monmouth County,NJ,71.63515016685206,NA,NA
07734,Monmouth County,NJ,NA,61.904761904761905,NA
07735,Monmouth County,NJ,28.587319243604004,NA,NA
07748,Monmouth County,NJ,NA,48.63945578231292,55.66218809980806
07860,Sussex County,NJ,NA,18.140589569160998,NA
07882,Warren County,NJ,NA,NA,63.91554702495201
08002,Camden County,NJ,NA,NA,31.861804222648754
08021,Camden County,NJ,0.11123470522803114,NA,NA
08029,Camden County,NJ,NA,98.29931972789116,NA
08033,Camden County,NJ,NA,51.36054421768708,NA
08034,Camden County,NJ,NA,NA,59.50095969289827
08079,Salem County,NJ,NA,35.827664399092974,NA
08081,Camden County,NJ,1.3348164627363739,NA,NA
08096,Gloucester County,NJ,NA,6.00907029478458,NA
08210,Cape May County,NJ,NA,NA,45.87332053742802
08223,Cape May County,NJ,91.87986651835372,NA,NA
08226,Cape May County,NJ,50.834260289210235,NA,NA
08360,Cumberland County,NJ,15.461624026696331,NA,NA
08690,Mercer County,NJ,NA,40.476190476190474,NA
08723,Ocean County,NJ,13.459399332591767,NA,NA
08753,Ocean County,NJ,NA,3.2879818594104306,NA
08759,Ocean County,NJ,NA,0.11337868480725624,NA
08822,Hunterdon County,NJ,NA,NA,72.36084452975048
08831,Middlesex County,NJ,27.363737486095662,NA,NA
08857,Middlesex County,NJ,NA,10.884353741496598,NA
08879,Middlesex County,NJ,NA,NA,92.13051823416507
87002,Valencia County,NM,42.04671857619577,NA,NA
87004,Sandoval County,NM,NA,NA,66.21880998080614
87031,Valencia County,NM,25.583982202447164,NA,NA
87104,Bernalillo County,NM,NA,NA,83.10940499040306
87106,Bernalillo County,NM,45.49499443826474,65.87301587301587,NA
87109,Bernalillo County,NM,41.37931034482759,NA,56.813819577735124
87110,Bernalillo County,NM,NA,50.45351473922902,NA
87111,Bernalillo County,NM,NA,NA,91.55470249520154
87112,Bernalillo County,NM,NA,6.349206349206349,24.184261036468328
87121,Bernalillo County,NM,3.114571746384872,NA,NA
87123,Bernalillo County,NM,NA,NA,44.913627639155465
87124,Sandoval County,NM,8.565072302558399,73.12925170068027,7.869481765834934
87144,Sandoval County,NM,NA,45.46485260770975,NA
87506,Santa Fe County,NM,87.09677419354838,37.528344671201815,NA
87532,Santa Fe County,NM,33.37041156840934,NA,NA
87557,Taos County,NM,NA,NA,78.3109404990403
88061,Grant County,NM,NA,59.183673469387756,NA
88101,Curry County,NM,65.7397107897664,NA,4.606525911708253
88130,Roosevelt County,NM,58.175750834260285,65.07936507936508,NA
88201,Chaves County,NM,NA,NA,87.1401151631478
88203,Chaves County,NM,NA,42.7437641723356,NA
10029,New York County,NY,NA,NA,0.5758157389635317
10038,New York County,NY,39.71078976640712,NA,NA
10075,New York County,NY,NA,NA,12.667946257197697
10459,Bronx County,NY,36.26251390433816,NA,NA
10460,Bronx County,NY,1.4460511679644048,NA,NA
10462,Bronx County,NY,NA,NA,6.142034548944338
10472,Bronx County,NY,NA,0.45351473922902497,NA
10473,Bronx County,NY,NA,4.308390022675737,6.90978886756238
10504,Westchester County,NY,NA,95.01133786848072,NA
10550,Westchester County,NY,NA,NA,78.50287907869482
10801,Westchester County,NY,NA,NA,27.83109404990403
11106,Queens County,NY,NA,NA,33.589251439539346
11234,Kings County,NY,43.71523915461624,NA,NA
11355,Queens County,NY,NA,12.811791383219957,NA
11365,Queens County,NY,NA,NA,26.29558541266795
11575,Nassau County,NY,30.700778642936594,NA,NA
11706,Suffolk County,NY,NA,24.6031746031746,NA
11756,Nassau County,NY,NA,NA,36.46833013435701
11772,Suffolk County,NY,28.25361512791991,NA,NA
11968,Suffolk County,NY,NA,NA,76.3915547024952
12053,Schenectady County,NY,97.33036707452726,NA,NA
12072,Montgomery County,NY,95.32814238042269,NA,NA
12180,Rensselaer County,NY,1.7797552836484982,NA,NA
12184,Columbia County,NY,87.31924360400444,NA,NA
12308,Schenectady County,NY,32.92547274749722,NA,NA
12414,Greene County,NY,43.04783092324806,NA,NA
12524,Dutchess County,NY,NA,85.82766439909297,NA
12571,Dutchess County,NY,NA,90.702947845805,NA
12804,Warren County,NY,NA,31.519274376417233,NA
12828,Washington County,NY,NA,NA,51.24760076775432
12833,Saratoga County,NY,91.7686318131257,NA,NA
12962,Clinton County,NY,55.172413793103445,NA,NA
13021,Cayuga County,NY,NA,0.3401360544217687,NA
13069,Oswego County,NY,3.6707452725250276,NA,NA
13078,Onondaga County,NY,NA,67.68707482993197,NA
13104,Onondaga County,NY,43.38153503893214,NA,NA
13212,Onondaga County,NY,55.72858731924361,NA,NA
13323,Oneida County,NY,NA,39.002267573696145,NA
13357,Herkimer County,NY,31.25695216907675,NA,NA
13365,Herkimer County,NY,NA,56.80272108843537,NA
13408,Madison County,NY,87.43047830923248,NA,NA
13440,Oneida County,NY,1.557285873192436,NA,NA
13460,Chenango County,NY,41.71301446051168,NA,NA
13790,Broome County,NY,NA,NA,10.556621880998081
13833,Broome County,NY,63.84872080088988,NA,NA
13901,Broome County,NY,NA,2.6077097505668934,NA
14009,Wyoming County,NY,74.6384872080089,NA,NA
14020,Genesee County,NY,73.74860956618465,NA,NA
14094,Niagara County,NY,1.668520578420467,NA,NA
14139,Erie County,NY,99.33259176863181,NA,NA
14174,Niagara County,NY,NA,68.82086167800453,NA
14201,Erie County,NY,NA,60.204081632653065,NA
14215,Erie County,NY,NA,4.648526077097506,NA
14216,Erie County,NY,24.694104560622915,NA,NA
14218,Erie County,NY,42.60289210233593,NA,NA
14221,Erie County,NY,9.010011123470523,NA,NA
14224,Erie County,NY,22.135706340378196,NA,NA
14304,Niagara County,NY,3.4482758620689653,NA,NA
14411,Orleans County,NY,24.360400444938822,NA,NA
14437,Livingston County,NY,NA,NA,60.26871401151631
14445,Monroe County,NY,61.512791991101224,NA,NA
14450,Monroe County,NY,2.4471635150166855,NA,NA
14489,Wayne County,NY,NA,21.99546485260771,NA
14526,Monroe County,NY,12.569521690767518,NA,NA
14534,Monroe County,NY,NA,0.22675736961451248,NA
14612,Monroe County,NY,NA,NA,25.911708253358924
14616,Monroe County,NY,NA,5.555555555555555,NA
14617,Monroe County,NY,NA,2.7210884353741496,NA
14620,Monroe County,NY,4.115684093437152,NA,NA
14624,Monroe County,NY,14.238042269187986,NA,NA
14626,Monroe County,NY,NA,2.380952380952381,NA
14701,Chautauqua County,NY,29.92213570634038,NA,NA
14760,Cattaraugus County,NY,47.830923248053395,NA,NA
14850,Tompkins County,NY,NA,41.156462585034014,NA
14870,Steuben County,NY,NA,56.4625850340136,NA
14904,Chemung County,NY,66.18464961067853,NA,NA
27006,Davie County,NC,NA,NA,13.24376199616123
27028,Davie County,NC,55.951056729699665,NA,NA
27105,Forsyth County,NC,1.8909899888765296,NA,NA
27127,Forsyth County,NC,NA,3.061224489795918,NA
27215,Alamance County,NC,NA,3.6281179138321997,NA
27217,Alamance County,NC,NA,7.029478458049887,NA
27233,Randolph County,NC,97.77530589543937,NA,NA
27239,Davidson County,NC,59.06562847608454,NA,NA
27260,Guilford County,NC,19.577308120133484,NA,NA
27284,Forsyth County,NC,4.894327030033371,NA,NA
27295,Davidson County,NC,18.24249165739711,NA,NA
27298,Randolph County,NC,97.99777530589544,NA,NA
27504,Johnston County,NC,75.41713014460511,NA,NA
27517,Orange County,NC,45.16129032258064,NA,NA
27526,Wake County,NC,NA,NA,16.122840690978887
27530,Wayne County,NC,NA,NA,23.41650671785029
27603,Wake County,NC,19.35483870967742,NA,NA
27615,Wake County,NC,NA,9.863945578231291,NA
27707,Durham County,NC,NA,NA,14.971209213051823
27801,Edgecombe County,NC,33.9265850945495,NA,NA
27809,Nash County,NC,NA,93.5374149659864,NA
27856,Nash County,NC,NA,52.721088435374156,NA
27896,Wilson County,NC,42.93659621802002,NA,NA
27909,Pasquotank County,NC,NA,9.183673469387756,NA
27932,Chowan County,NC,NA,86.96145124716553,NA
27948,Dare County,NC,NA,57.14285714285714,NA
27949,Dare County,NC,NA,NA,74.6641074856046
28001,Stanly County,NC,56.284760845383765,65.19274376417233,NA
28025,Cabarrus County,NC,NA,56.575963718820866,35.892514395393476
28027,Cabarrus County,NC,59.733036707452726,NA,NA
28052,Gaston County,NC,23.24805339265851,51.13378684807256,NA
28054,Gaston County,NC,17.352614015572858,51.587301587301596,89.25143953934742
28097,Stanly County,NC,NA,97.27891156462584,NA
28112,Union County,NC,38.70967741935484,NA,NA
28114,Rutherford County,NC,80.97886540600668,NA,NA
28120,Gaston County,NC,NA,NA,57.00575815738963
28127,Stanly County,NC,85.65072302558399,NA,NA
28138,Rowan County,NC,52.947719688542826,NA,NA
28146,Rowan County,NC,NA,68.48072562358276,NA
28147,Rowan County,NC,77.64182424916574,NA,NA
28170,Anson County,NC,NA,88.66213151927438,NA
28209,Mecklenburg County,NC,NA,NA,65.4510556621881
28215,Mecklenburg County,NC,12.680756395995552,43.197278911564624,NA
28270,Mecklenburg County,NC,51.724137931034484,NA,NA
28277,Mecklenburg County,NC,62.62513904338154,NA,NA
28314,Cumberland County,NC,NA,61.564625850340136,NA
28315,Moore County,NC,82.98109010011123,NA,NA
28337,Bladen County,NC,NA,50.68027210884354,NA
28345,Richmond County,NC,NA,84.92063492063492,NA
28358,Robeson County,NC,NA,NA,14.203454894433781
28376,Hoke County,NC,NA,NA,91.93857965451056
28384,Bladen County,NC,NA,94.7845804988662,NA
28387,Moore County,NC,NA,87.98185941043084,NA
28391,Cumberland County,NC,NA,92.40362811791383,NA
28409,New Hanover County,NC,NA,NA,54.702495201535505
28469,Brunswick County,NC,NA,NA,76.1996161228407
28501,Lenoir County,NC,NA,33.33333333333333,NA
28540,Onslow County,NC,23.136818687430477,NA,NA
28551,Lenoir County,NC,NA,74.48979591836735,NA
28594,Carteret County,NC,99.44382647385984,NA,NA
28601,Catawba County,NC,NA,28.91156462585034,NA
28604,Watauga County,NC,88.43159065628477,NA,NA
28610,Catawba County,NC,NA,86.84807256235828,NA
28613,Catawba County,NC,34.81646273637375,29.47845804988662,NA
28655,Burke County,NC,NA,35.600907029478456,NA
28658,Catawba County,NC,NA,65.41950113378685,NA
28681,Alexander County,NC,18.46496106785317,NA,NA
28690,Burke County,NC,NA,72.67573696145124,NA
28719,Jackson County,NC,65.40600667408232,NA,NA
28721,Haywood County,NC,64.40489432703004,NA,NA
28739,Henderson County,NC,NA,35.26077097505669,NA
28741,Macon County,NC,NA,80.72562358276643,NA
28777,Mitchell County,NC,NA,57.936507936507944,NA
28779,Jackson County,NC,48.9432703003337,48.63945578231292,NA
28791,Henderson County,NC,95.66184649610679,NA,NA
28803,Buncombe County,NC,NA,22.67573696145125,NA
28804,Buncombe County,NC,NA,65.19274376417233,NA
28904,Clay County,NC,NA,57.256235827664405,NA
28906,Cherokee County,NC,NA,72.10884353741497,NA
58078,Cass County,ND,22.914349276974416,NA,13.051823416506716
58103,Cass County,ND,53.83759733036707,43.87755102040816,44.52975047984645
58104,Cass County,ND,27.586206896551722,8.049886621315192,2.495201535508637
58201,Grand Forks County,ND,55.506117908787544,NA,NA
58401,Stutsman County,ND,NA,59.070294784580504,NA
58504,Burleigh County,ND,NA,24.94331065759637,76.77543186180422
58703,Ward County,ND,36.373748609566185,NA,NA
43017,Franklin County,OH,74.74972191323694,83.78684807256236,NA
43028,Knox County,OH,NA,NA,79.84644913627639
43040,Union County,OH,NA,13.492063492063492,20.34548944337812
43064,Madison County,OH,NA,95.69160997732426,NA
43078,Champaign County,OH,29.810901001112345,NA,NA
43110,Franklin County,OH,NA,6.802721088435375,NA
43140,Madison County,OH,32.36929922135706,23.46938775510204,NA
43143,Madison County,OH,NA,NA,77.54318618042227
43204,Franklin County,OH,22.024471635150167,9.63718820861678,NA
43205,Franklin County,OH,37.93103448275862,NA,71.20921305182341
43206,Franklin County,OH,NA,45.01133786848073,NA
43207,Franklin County,OH,NA,NA,14.39539347408829
43221,Franklin County,OH,NA,NA,93.09021113243762
43228,Franklin County,OH,42.269187986651836,NA,NA
43229,Franklin County,OH,NA,5.895691609977324,17.85028790786948
43230,Franklin County,OH,NA,10.430839002267573,NA
43235,Franklin County,OH,NA,NA,24.56813819577735
43302,Marion County,OH,37.59733036707453,NA,NA
43311,Logan County,OH,NA,26.303854875283445,NA
43420,Sandusky County,OH,8.120133481646272,83.44671201814059,NA
43537,Lucas County,OH,NA,NA,22.072936660268713
43551,Wood County,OH,10.789766407119021,NA,NA
43558,Fulton County,OH,NA,37.301587301587304,NA
43606,Lucas County,OH,14.68298109010011,22.33560090702948,NA
43611,Lucas County,OH,11.7908787541713,NA,NA
43613,Lucas County,OH,17.018909899888765,NA,NA
43614,Lucas County,OH,8.342602892102335,7.2562358276643995,14.587332053742802
43615,Lucas County,OH,32.25806451612903,NA,NA
43616,Lucas County,OH,NA,7.709750566893423,17.274472168905948
43920,Columbiana County,OH,NA,6.575963718820861,NA
43935,Belmont County,OH,86.98553948832036,NA,NA
43950,Belmont County,OH,34.48275862068966,NA,NA
43952,Jefferson County,OH,NA,NA,27.2552783109405
43964,Jefferson County,OH,64.62736373748609,NA,NA
44001,Lorain County,OH,25.806451612903224,NA,NA
44004,Ashtabula County,OH,NA,0.9070294784580499,NA
44017,Cuyahoga County,OH,NA,26.75736961451247,NA
44026,Geauga County,OH,NA,NA,23.99232245681382
44035,Lorain County,OH,NA,NA,0.19193857965451055
44041,Ashtabula County,OH,NA,25.170068027210885,NA
44044,Lorain County,OH,40.934371523915466,NA,NA
44057,Lake County,OH,NA,NA,42.994241842610364
44060,Lake County,OH,NA,5.215419501133787,NA
44067,Summit County,OH,NA,13.151927437641723,9.788867562380037
44070,Cuyahoga County,OH,NA,3.8548752834467117,NA
44076,Ashtabula County,OH,67.96440489432703,NA,NA
44090,Lorain County,OH,NA,32.99319727891156,NA
44105,Cuyahoga County,OH,NA,NA,2.3032629558541267
44112,Cuyahoga County,OH,56.39599555061179,NA,NA
44120,Cuyahoga County,OH,NA,1.3605442176870748,NA
44122,Cuyahoga County,OH,NA,NA,0.3838771593090211
44130,Cuyahoga County,OH,NA,NA,5.566218809980806
44131,Cuyahoga County,OH,NA,62.358276643990926,NA
44132,Cuyahoga County,OH,NA,71.65532879818595,NA
44133,Cuyahoga County,OH,23.804226918798665,NA,NA
44139,Cuyahoga County,OH,NA,NA,12.092130518234164
44143,Cuyahoga County,OH,NA,10.090702947845804,NA
44201,Portage County,OH,NA,74.60317460317461,NA
44212,Medina County,OH,2.7808676307007785,NA,NA
44223,Summit County,OH,NA,NA,63.72360844529751
44230,Wayne County,OH,73.5261401557286,NA,NA
44231,Portage County,OH,NA,98.63945578231292,NA
44236,Summit County,OH,NA,NA,65.64299424184262
44256,Medina County,OH,NA,NA,42.41842610364684
44281,Medina County,OH,NA,36.16780045351474,12.859884836852206
44305,Summit County,OH,11.457174638487208,26.643990929705215,NA
44306,Summit County,OH,7.452725250278086,NA,NA
44406,Mahoning County,OH,NA,19.047619047619047,NA
44410,Trumbull County,OH,NA,17.12018140589569,NA
44425,Trumbull County,OH,NA,17.46031746031746,NA
44481,Trumbull County,OH,24.026696329254726,NA,NA
44485,Trumbull County,OH,NA,24.263038548752835,NA
44512,Mahoning County,OH,NA,NA,12.284069097888676
44514,Mahoning County,OH,40.711902113459395,NA,NA
44615,Carroll County,OH,NA,NA,62.38003838771593
44622,Tuscarawas County,OH,NA,87.3015873015873,NA
44641,Stark County,OH,NA,35.147392290249435,NA
44646,Stark County,OH,NA,8.390022675736962,NA
44657,Stark County,OH,72.19132369299221,NA,NA
44662,Stark County,OH,64.07119021134594,NA,61.61228406909789
44702,Stark County,OH,73.30367074527253,NA,NA
44720,Stark County,OH,NA,76.30385487528345,NA
44813,Richland County,OH,NA,NA,71.97696737044146
44820,Crawford County,OH,NA,NA,21.30518234165067
44827,Crawford County,OH,NA,NA,69.28982725527831
44870,Erie County,OH,NA,13.718820861678005,NA
45011,Butler County,OH,NA,1.8140589569160999,NA
45013,Butler County,OH,NA,1.7006802721088436,NA
45040,Warren County,OH,NA,NA,21.497120921305182
45042,Butler County,OH,NA,NA,38.57965451055662
45044,Butler County,OH,3.781979977753059,81.51927437641724,NA
45066,Warren County,OH,NA,NA,89.44337811900192
45102,Clermont County,OH,NA,47.84580498866213,NA
45206,Hamilton County,OH,NA,60.8843537414966,NA
45247,Hamilton County,OH,NA,67.46031746031747,NA
45251,Hamilton County,OH,NA,49.54648526077097,NA
45255,Hamilton County,OH,57.50834260289211,NA,NA
45331,Darke County,OH,72.96996662958844,NA,NA
45356,Miami County,OH,76.30700778642937,NA,NA
45377,Montgomery County,OH,NA,NA,51.82341650671785
45381,Preble County,OH,93.43715239154616,NA,NA
45385,Greene County,OH,NA,NA,6.333973128598848
45406,Montgomery County,OH,12.458286985539488,NA,NA
45429,Montgomery County,OH,36.818687430478306,NA,NA
45431,Montgomery County,OH,NA,NA,30.710172744721685
45434,Greene County,OH,NA,57.709750566893426,NA
45458,Montgomery County,OH,NA,68.36734693877551,NA
45503,Clark County,OH,NA,8.73015873015873,NA
45628,Ross County,OH,NA,45.12471655328798,NA
45638,Lawrence County,OH,NA,2.0408163265306123,NA
45640,Jackson County,OH,4.78309232480534,4.195011337868481,NA
45656,Jackson County,OH,52.61401557285873,NA,NA
45662,Scioto County,OH,NA,NA,3.071017274472169
45750,Washington County,OH,NA,NA,0.9596928982725527
45769,Meigs County,OH,54.94994438264739,NA,NA
45786,Washington County,OH,NA,98.86621315192744,NA
45805,Allen County,OH,10.678531701890991,NA,NA
45822,Mercer County,OH,86.54060066740823,NA,77.92706333973129
45833,Allen County,OH,53.61512791991101,NA,NA
45840,Hancock County,OH,2.3359288097886544,1.0204081632653061,NA
73008,Oklahoma County,OK,NA,78.11791383219955,NA
73025,Oklahoma County,OK,60.734149054505004,NA,NA
73034,Oklahoma County,OK,NA,NA,26.103646833013432
73071,Cleveland County,OK,48.38709677419355,NA,NA
73072,Cleveland County,OK,24.805339265850947,NA,NA
73080,McClain County,OK,NA,67.57369614512471,NA
73084,Oklahoma County,OK,68.74304783092325,NA,NA
73107,Oklahoma County,OK,NA,69.27437641723357,NA
73116,Oklahoma County,OK,NA,91.04308390022676,NA
73120,Oklahoma County,OK,NA,52.15419501133787,NA
73139,Oklahoma County,OK,46.273637374860954,NA,NA
73401,Carter County,OK,11.012235817575084,NA,52.207293666026864
73505,Comanche County,OK,NA,39.795918367346935,NA
73644,Beckham County,OK,48.720800889877644,NA,NA
73701,Garfield County,OK,NA,23.582766439909296,NA
74021,Tulsa County,OK,NA,53.06122448979592,NA
74053,Rogers County,OK,NA,87.07482993197279,NA
74074,Payne County,OK,NA,NA,29.366602687140116
74133,Tulsa County,OK,NA,NA,7.677543186180421
74137,Tulsa County,OK,66.85205784204672,NA,33.397312859884835
74464,Cherokee County,OK,NA,43.31065759637188,NA
74743,Choctaw County,OK,NA,NA,66.02687140115164
74801,Pottawatomie County,OK,NA,51.02040816326531,NA
74820,Pontotoc County,OK,6.0066740823136815,3.5147392290249435,NA
74848,Hughes County,OK,66.29588431590656,NA,NA
97006,Washington County,OR,27.252502780867633,NA,NA
97009,Clackamas County,OR,NA,97.73242630385488,NA
97013,Clackamas County,OR,NA,NA,50.287907869481764
97038,Clackamas County,OR,NA,75.73696145124717,NA
97045,Clackamas County,OR,NA,7.8231292517006805,NA
97055,Clackamas County,OR,96.66295884315906,93.7641723356009,NA
97062,Washington County,OR,90.43381535038932,NA,NA
97086,Clackamas County,OR,NA,98.07256235827666,NA
97103,Clatsop County,OR,46.60734149054505,35.714285714285715,NA
97123,Washington County,OR,NA,57.36961451247166,NA
97124,Washington County,OR,NA,NA,22.84069097888676
97140,Washington County,OR,89.87764182424917,NA,NA
97201,Multnomah County,OR,NA,94.5578231292517,NA
97206,Multnomah County,OR,NA,48.29931972789115,NA
97213,Multnomah County,OR,NA,78.45804988662131,NA
97217,Multnomah County,OR,62.18020022246941,NA,NA
97220,Multnomah County,OR,71.30144605116796,NA,NA
97222,Clackamas County,OR,NA,22.67573696145125,NA
97229,Washington County,OR,31.92436040044494,NA,NA
97230,Multnomah County,OR,20.133481646273637,10.317460317460316,NA
97233,Multnomah County,OR,NA,83.44671201814059,NA
97267,Clackamas County,OR,31.590656284760843,NA,17.08253358925144
97322,Linn County,OR,11.123470522803114,NA,7.1017274472168905
97325,Marion County,OR,75.63959955506118,NA,NA
97330,Benton County,OR,NA,17.687074829931973,NA
97333,Benton County,OR,NA,NA,47.60076775431862
97338,Polk County,OR,66.0734149054505,NA,NA
97351,Polk County,OR,NA,76.41723356009071,NA
97367,Lincoln County,OR,61.846496106785324,NA,NA
97374,Linn County,OR,NA,77.09750566893425,NA
97383,Marion County,OR,NA,NA,81.38195777351248
97401,Lane County,OR,84.87208008898777,NA,NA
97415,Curry County,OR,39.59955506117909,69.84126984126983,NA
97424,Lane County,OR,64.18242491657396,NA,NA
97439,Lane County,OR,NA,15.98639455782313,NA
97470,Douglas County,OR,NA,NA,35.31669865642994
97478,Lane County,OR,61.0678531701891,NA,NA
97501,Jackson County,OR,NA,7.369614512471655,NA
97502,Jackson County,OR,34.03781979977753,NA,NA
97504,Jackson County,OR,44.60511679644049,NA,3.6468330134357005
97801,Umatilla County,OR,NA,70.52154195011337,NA
97838,Umatilla County,OR,NA,12.01814058956916,NA
97862,Umatilla County,OR,52.72525027808677,NA,NA
97882,Umatilla County,OR,70.63403781979977,NA,NA
15001,Beaver County,PA,NA,NA,19.193857965451055
15012,Westmoreland County,PA,NA,40.136054421768705,NA
15065,Allegheny County,PA,NA,52.94784580498866,NA
15068,Westmoreland County,PA,NA,NA,3.45489443378119
15133,Allegheny County,PA,97.10789766407119,NA,NA
15136,Allegheny County,PA,NA,78.00453514739229,39.731285988483684
15147,Allegheny County,PA,NA,60.657596371882086,NA
15202,Allegheny County,PA,43.159065628476085,NA,NA
15204,Allegheny County,PA,NA,NA,74.28023032629558
15214,Allegheny County,PA,NA,NA,96.92898272552783
15227,Allegheny County,PA,NA,46.59863945578231,NA
15301,Washington County,PA,NA,53.85487528344671,NA
15320,Greene County,PA,62.5139043381535,NA,NA
15323,Washington County,PA,93.88209121245829,NA,NA
15401,Fayette County,PA,NA,3.741496598639456,NA
15478,Fayette County,PA,80.53392658509455,NA,NA
15642,Westmoreland County,PA,19.243604004449388,NA,NA
15767,Jefferson County,PA,25.25027808676307,NA,NA
15774,Indiana County,PA,NA,99.43310657596372,NA
15801,Clearfield County,PA,5.784204671857619,NA,NA
15824,Jefferson County,PA,89.09899888765295,NA,NA
15902,Cambria County,PA,36.48498331479422,NA,NA
15909,Cambria County,PA,78.42046718576195,NA,NA
16001,Butler County,PA,NA,41.723356009070294,NA
16101,Lawrence County,PA,NA,NA,16.50671785028791
16148,Mercer County,PA,NA,14.965986394557824,NA
16226,Armstrong County,PA,NA,72.22222222222221,NA
16301,Venango County,PA,40.60066740823137,NA,NA
16316,Crawford County,PA,NA,58.16326530612245,NA
16335,Crawford County,PA,NA,6.462585034013606,NA
16403,Crawford County,PA,80.31145717463849,NA,NA
16508,Erie County,PA,69.18798665183537,NA,NA
16510,Erie County,PA,NA,86.621315192743765,NA
16601,Blair County,PA,NA,NA,69.67370441458733
16701,McKean County,PA,NA,68.25396825396825,NA
16830,Clearfield County,PA,75.08342602892102,NA,NA
16915,Potter County,PA,NA,54.98866213151927,NA
17013,Cumberland County,PA,NA,11.564625850340136,NA
17025,Cumberland County,PA,29.36596218020022,NA,NA
17036,Dauphin County,PA,20.800889877641822,80.8390022675737,NA
17055,Cumberland County,PA,25.917686318131256,NA,NA
17065,Cumberland County,PA,82.75862068965517,NA,NA
17084,Mifflin County,PA,NA,85.82766439909297,NA
17109,Dauphin County,PA,NA,39.795918367346935,NA
17112,Dauphin County,PA,15.016685205784205,NA,NA
17201,Franklin County,PA,NA,14.17233560090703,NA
17202,Franklin County,PA,NA,NA,42.034548944337814
17222,Franklin County,PA,NA,NA,29.558541266794624
17236,Franklin County,PA,78.9766407119021,NA,NA
17320,Adams County,PA,NA,92.63038548752834,NA
17331,York County,PA,NA,47.27891156462585,11.132437619961612
17340,Adams County,PA,NA,71.54195011337869,NA
17362,York County,PA,59.51056729699666,NA,NA
17404,York County,PA,9.121245828698555,NA,NA
17406,York County,PA,79.42157953281423,NA,NA
17601,Lancaster County,PA,NA,39.569160997732425,NA
17603,Lancaster County,PA,NA,28.34467120181406,NA
17801,Northumberland County,PA,18.35372636262514,NA,NA
17821,Montour County,PA,NA,10.54421768707483,NA
17976,Schuylkill County,PA,72.41379310344827,NA,NA
18042,Northampton County,PA,NA,19.614512471655328,NA
18067,Northampton County,PA,NA,20.521541950113377,NA
18069,Lehigh County,PA,NA,NA,88.29174664107485
18078,Lehigh County,PA,NA,66.55328798185941,NA
18201,Luzerne County,PA,NA,16.3265306122449,NA
18202,Luzerne County,PA,40.155728587319246,NA,NA
18249,Luzerne County,PA,89.32146829810901,NA,NA
18301,Monroe County,PA,30.478309232480534,NA,NA
18360,Monroe County,PA,NA,34.807256235827666,NA
18505,Lackawanna County,PA,NA,NA,42.80230326295585
18512,Lackawanna County,PA,53.39265850945495,94.21768707482994,NA
18702,Luzerne County,PA,5.450500556173527,NA,NA
18706,Luzerne County,PA,NA,87.75510204081633,NA
18901,Bucks County,PA,NA,68.82086167800453,NA
18902,Bucks County,PA,80.08898776418243,NA,NA
18940,Bucks County,PA,NA,NA,43.5700575815739
18974,Bucks County,PA,NA,7.936507936507936,NA
19007,Bucks County,PA,22.246941045606228,NA,NA
19012,Montgomery County,PA,NA,98.52607709750568,NA
19044,Montgomery County,PA,NA,64.05895691609977,NA
19055,Bucks County,PA,69.9666295884316,NA,NA
19066,Montgomery County,PA,98.10901001112346,NA,NA
19111,Philadelphia County,PA,NA,NA,9.596928982725528
19119,Philadelphia County,PA,NA,84.80725623582767,NA
19123,Philadelphia County,PA,NA,64.28571428571429,NA
19125,Philadelphia County,PA,40.934371523915466,NA,NA
19131,Philadelphia County,PA,NA,1.1337868480725624,NA
19134,Philadelphia County,PA,2.6696329254727478,NA,NA
19143,Philadelphia County,PA,66.74082313681868,NA,NA
19146,Philadelphia County,PA,NA,16.213151927437643,NA
19147,Philadelphia County,PA,NA,19.160997732426306,NA
19149,Philadelphia County,PA,5.116796440489433,NA,NA
19151,Philadelphia County,PA,NA,41.383219954648524,NA
19320,Chester County,PA,NA,8.843537414965986,NA
19363,Chester County,PA,49.05450500556173,NA,NA
19382,Chester County,PA,NA,28.00453514739229,NA
19422,Montgomery County,PA,NA,88.3219954648526,NA
19425,Chester County,PA,87.87541713014461,NA,NA
19426,Montgomery County,PA,NA,54.87528344671202,46.64107485604607
19460,Chester County,PA,NA,NA,18.809980806142036
19540,Berks County,PA,NA,46.25850340136054,NA
19608,Berks County,PA,26.362625139043384,NA,39.34740882917466
02806,Bristol County,RI,61.957730812013345,NA,NA
02809,Bristol County,RI,72.30255839822024,NA,NA
02852,Washington County,RI,NA,80.15873015873017,NA
02879,Washington County,RI,79.64404894327029,NA,NA
02889,Kent County,RI,21.913236929922135,NA,NA
02891,Washington County,RI,NA,NA,19.001919385796544
02893,Kent County,RI,NA,NA,78.88675623800384
02896,Providence County,RI,73.85984427141268,NA,NA
02909,Providence County,RI,16.796440489432705,NA,NA
02910,Providence County,RI,42.49165739710789,NA,NA
02920,Providence County,RI,NA,11.678004535147393,NA
29045,Kershaw County,SC,62.95884315906562,NA,NA
29067,Lancaster County,SC,76.86318131256952,NA,NA
29072,Lexington County,SC,23.915461624026698,NA,NA
29102,Clarendon County,SC,NA,NA,87.3320537428023
29150,Sumter County,SC,NA,18.367346938775512,NA
29206,Richland County,SC,97.66407119021135,NA,NA
29229,Richland County,SC,32.81423804226919,NA,NA
29301,Spartanburg County,SC,28.142380422691883,NA,NA
29302,Spartanburg County,SC,NA,62.01814058956916,NA
29376,Spartanburg County,SC,94.9944382647386,NA,NA
29403,Charleston County,SC,NA,53.17460317460318,NA
29405,Charleston County,SC,51.94660734149055,NA,NA
29414,Charleston County,SC,NA,16.780045351473923,NA
29455,Charleston County,SC,43.49276974416018,NA,NA
29461,Berkeley County,SC,NA,NA,38.38771593090211
29464,Charleston County,SC,NA,NA,62.95585412667947
29479,Berkeley County,SC,NA,86.5079365079365,NA
29575,Horry County,SC,NA,48.07256235827664,41.65067178502879
29588,Horry County,SC,NA,31.746031746031743,NA
29607,Greenville County,SC,NA,17.800453514739228,NA
29627,Anderson County,SC,NA,NA,79.46257197696737
29630,Pickens County,SC,NA,73.24263038548753,NA
29646,Greenwood County,SC,37.263626251390434,NA,NA
29666,Greenwood County,SC,NA,NA,84.45297504798465
29687,Greenville County,SC,27.919911012235815,NA,NA
29707,Lancaster County,SC,66.96329254727475,NA,NA
29720,Lancaster County,SC,NA,71.88208616780045,NA
29730,York County,SC,16.907675194660733,NA,NA
29910,Beaufort County,SC,NA,84.6938775510204,NA
29924,Hampton County,SC,NA,NA,96.1612284069098
57103,Minnehaha County,SD,NA,NA,4.798464491362764
57105,Minnehaha County,SD,NA,8.16326530612245,NA
57106,Minnehaha County,SD,20.02224694104561,4.421768707482993,22.648752399232247
57108,Lincoln County,SD,NA,NA,5.758157389635317
57110,Minnehaha County,SD,44.71635150166852,NA,NA
57702,Pennington County,SD,NA,90.24943310657596,NA
37015,Cheatham County,TN,NA,34.69387755102041,NA
37027,Williamson County,TN,NA,NA,14.011516314779271
37042,Montgomery County,TN,NA,63.038548752834465,NA
37055,Dickson County,TN,NA,32.87981859410431,NA
37061,Houston County,TN,78.1979977753059,NA,NA
37066,Sumner County,TN,NA,6.122448979591836,NA
37075,Sumner County,TN,39.93325917686318,44.10430839002268,7.293666026871401
37076,Davidson County,TN,NA,NA,33.01343570057582
37083,Macon County,TN,NA,24.149659863945576,NA
37086,Rutherford County,TN,66.40711902113459,NA,NA
37087,Wilson County,TN,15.239154616240267,16.55328798185941,24.760076775431862
37128,Rutherford County,TN,25.027808676307007,NA,NA
37129,Rutherford County,TN,14.794215795328142,NA,NA
37138,Davidson County,TN,NA,75.62358276643991,NA
37144,Lincoln County,TN,NA,100,NA
37148,Sumner County,TN,NA,34.58049886621315,NA
37160,Bedford County,TN,NA,NA,30.902111324376197
37166,DeKalb County,TN,50.50055617352614,NA,NA
37172,Robertson County,TN,NA,23.015873015873016,NA
37206,Davidson County,TN,NA,30.498866213151928,NA
37210,Davidson County,TN,50.723025583982206,NA,NA
37211,Davidson County,TN,NA,NA,16.314779270633398
37321,Rhea County,TN,26.251390433815352,NA,NA
37412,Hamilton County,TN,NA,48.41269841269841,NA
37601,Washington County,TN,NA,8.276643990929704,NA
37643,Carter County,TN,10.011123470522804,NA,NA
37650,Unicoi County,TN,NA,34.12698412698413,NA
37660,Sullivan County,TN,6.117908787541713,NA,NA
37664,Sullivan County,TN,76.52947719688544,NA,NA
37701,Blount County,TN,NA,82.87981859410431,NA
37737,Blount County,TN,92.54727474972191,90.702947845805,89.0595009596929
37742,Loudon County,TN,NA,96.71201814058958,NA
37766,Campbell County,TN,NA,16.55328798185941,NA
37771,Loudon County,TN,46.0511679644049,45.3514739229025,NA
37772,Loudon County,TN,NA,49.77324263038549,82.72552783109404
37777,Blount County,TN,83.09232480533927,NA,97.12092130518234
37801,Blount County,TN,12.903225806451612,81.85941043083899,NA
37803,Blount County,TN,28.809788654060064,90.47619047619048,NA
37804,Blount County,TN,NA,87.86848072562358,88.8675623800384
37840,Roane County,TN,NA,43.53741496598639,NA
37865,Sevier County,TN,34.59399332591769,NA,NA
37870,Claiborne County,TN,89.21023359288098,NA,NA
37876,Sevier County,TN,70.30033370411569,NA,NA
37885,Monroe County,TN,NA,75.05668934240363,98.2725527831094
37886,Blount County,TN,77.41935483870968,NA,NA
37917,Knox County,TN,14.905450500556173,15.419501133786847,NA
37918,Knox County,TN,NA,46.48526077097506,NA
37919,Knox County,TN,NA,27.32426303854875,NA
37921,Knox County,TN,26.473859844271413,NA,NA
37924,Knox County,TN,NA,94.89795918367348,NA
37932,Knox County,TN,NA,54.421768707483,NA
37934,Knox County,TN,NA,32.426303854875286,NA
38001,Crockett County,TN,91.54616240266962,NA,NA
38024,Dyer County,TN,21.579532814238043,NA,NA
38115,Shelby County,TN,20.57842046718576,NA,NA
38330,Gibson County,TN,NA,NA,99.23224568138195
38343,Gibson County,TN,NA,84.01360544217688,NA
38501,Putnam County,TN,17.24137931034483,74.03628117913831,55.27831094049904
38555,Cumberland County,TN,33.481646273637374,NA,NA
38574,Putnam County,TN,NA,NA,97.69673704414588
38583,White County,TN,NA,NA,20.72936660268714
75019,Dallas County,TX,45.717463848720804,NA,NA
75020,Grayson County,TX,NA,NA,36.08445297504799
75022,Denton County,TX,90.76751946607341,NA,NA
75025,Collin County,TX,47.71968854282536,NA,90.59500959692899
75033,,TX,59.288097886540605,NA,NA
75042,Dallas County,TX,NA,80.61224489795919,NA
75043,Dallas County,TX,17.908787541713014,NA,NA
75052,Dallas County,TX,15.572858731924361,NA,NA
75067,Denton County,TX,NA,76.87074829931973,NA
75070,Collin County,TX,NA,90.58956916099773,NA
75081,Dallas County,TX,60.84538375973304,NA,NA
75093,Collin County,TX,NA,23.12925170068027,28.023032629558543
75103,Van Zandt County,TX,68.96551724137932,NA,NA
75135,Hunt County,TX,95.55061179087876,NA,NA
75149,Dallas County,TX,NA,NA,35.31669865642994
75161,Kaufman County,TX,NA,NA,91.36276391554703
75165,Ellis County,TX,25.139043381535036,NA,NA
75219,Dallas County,TX,NA,NA,37.04414587332054
75220,Dallas County,TX,83.98220244716352,NA,NA
75225,Dallas County,TX,65.62847608453838,85.4875283446712,NA
75231,Dallas County,TX,NA,52.83446712018141,NA
75235,Dallas County,TX,79.53281423804228,NA,NA
75287,Denton County,TX,34.705228031145715,NA,NA
75407,Collin County,TX,54.61624026696329,NA,NA
75410,Wood County,TX,NA,73.46938775510205,NA
75457,Franklin County,TX,NA,88.09523809523809,NA
75474,Hunt County,TX,53.17018909899889,NA,NA
75482,Hopkins County,TX,51.05672969966629,76.64399092970523,34.74088291746641
75602,Gregg County,TX,NA,55.44217687074829,NA
75638,Morris County,TX,NA,NA,84.64491362763916
75662,Gregg County,TX,NA,24.489795918367346,NA
75701,Smith County,TX,NA,35.941043083900226,NA
75752,Henderson County,TX,91.99110122358177,NA,NA
75765,Wood County,TX,NA,NA,46.06525911708253
75771,Smith County,TX,NA,NA,85.98848368522073
75904,Angelina County,TX,58.06451612903226,NA,31.861804222648754
75935,Shelby County,TX,NA,70.86167800453515,NA
75949,Angelina County,TX,94.43826473859845,NA,NA
75965,Nacogdoches County,TX,NA,74.71655328798185,NA
76015,Tarrant County,TX,NA,60.770975056689345,NA
76017,Tarrant County,TX,NA,54.6485260770975,NA
76020,Tarrant County,TX,NA,NA,48.17658349328215
76039,Tarrant County,TX,NA,50.11337868480725,NA
76040,Tarrant County,TX,39.04338153503893,NA,NA
76067,Palo Pinto County,TX,NA,45.91836734693878,NA
76073,Wise County,TX,88.76529477196885,NA,NA
76086,Parker County,TX,NA,46.82539682539682,NA
76087,Parker County,TX,NA,65.5328798185941,NA
76092,Tarrant County,TX,NA,50.22675736961452,NA
76105,Tarrant County,TX,17.57508342602892,92.85714285714286,NA
76106,Tarrant County,TX,NA,14.399092970521544,NA
76114,Tarrant County,TX,36.59621802002225,NA,NA
76116,Tarrant County,TX,NA,9.977324263038549,NA
76137,Tarrant County,TX,75.86206896551724,NA,NA
76155,Tarrant County,TX,NA,99.31972789115646,NA
76179,Tarrant County,TX,53.726362625139046,NA,NA
76230,Montague County,TX,NA,63.378684807256235,NA
76234,Wise County,TX,NA,48.52607709750567,NA
76244,Tarrant County,TX,22.58064516129032,NA,NA
76248,Tarrant County,TX,55.61735261401557,NA,NA
76262,Denton County,TX,38.15350389321468,NA,NA
76273,Grayson County,TX,NA,61.67800453514739,NA
76424,Stephens County,TX,61.62402669632926,NA,NA
76458,Jack County,TX,90.65628476084538,NA,NA
76501,Bell County,TX,12.235817575083425,NA,NA
76504,Bell County,TX,NA,0.6802721088435374,NA
76513,Bell County,TX,NA,8.956916099773244,NA
76528,Coryell County,TX,67.5194660734149,NA,NA
76542,Bell County,TX,12.013348164627363,NA,NA
76705,McLennan County,TX,15.350389321468297,85.60090702947846,23.608445297504797
76712,McLennan County,TX,NA,NA,26.87140115163148
76904,Tom Green County,TX,NA,27.55102040816326,NA
77025,Harris County,TX,NA,58.50340136054422,NA
77036,Harris County,TX,NA,NA,45.489443378119006
77042,Harris County,TX,97.8865406006674,NA,NA
77056,Harris County,TX,NA,45.23809523809524,NA
77057,Harris County,TX,NA,NA,51.439539347408825
77059,Harris County,TX,85.76195773081201,NA,NA
77062,Harris County,TX,51.50166852057843,NA,NA
77063,Harris County,TX,57.730812013348164,NA,NA
77064,Harris County,TX,59.62180200222469,NA,NA
77065,Harris County,TX,52.502780867630705,NA,NA
77074,Harris County,TX,67.18576195773082,78.57142857142857,NA
77084,Harris County,TX,NA,15.873015873015872,NA
77086,Harris County,TX,57.95328142380423,NA,NA
77092,Harris County,TX,48.16462736373748,NA,NA
77094,Harris County,TX,NA,NA,90.21113243761995
77339,Harris County,TX,NA,28.117913832199548,NA
77375,Harris County,TX,47.052280311457174,NA,NA
77377,Harris County,TX,NA,42.63038548752834,NA
77381,Montgomery County,TX,NA,25.850340136054424,NA
77382,Montgomery County,TX,NA,79.70521541950113,NA
77386,Montgomery County,TX,NA,38.208616780045354,NA
77407,Fort Bend County,TX,69.52169076751946,NA,NA
77429,Harris County,TX,34.37152391546162,NA,NA
77433,Harris County,TX,9.67741935483871,NA,NA
77437,Wharton County,TX,NA,NA,41.45873320537428
77441,Fort Bend County,TX,NA,NA,99.42418426103646
77445,Waller County,TX,NA,NA,95.96928982725528
77459,Fort Bend County,TX,20.355951056729698,NA,NA
77469,Fort Bend County,TX,NA,NA,37.42802303262956
77471,Fort Bend County,TX,NA,NA,73.70441458733205
77478,Fort Bend County,TX,NA,37.755102040816325,NA
77510,Galveston County,TX,NA,89.68253968253968,NA
77511,Brazoria County,TX,56.729699666295886,NA,NA
77515,Brazoria County,TX,NA,22.90249433106576,NA
77531,Brazoria County,TX,86.20689655172413,NA,NA
77546,Galveston County,TX,NA,NA,28.21497120921305
77551,Galveston County,TX,NA,71.08843537414967,NA
77554,Galveston County,TX,NA,NA,55.08637236084453
77562,Harris County,TX,67.18576195773082,NA,NA
77573,Galveston County,TX,NA,2.947845804988662,NA
77584,Brazoria County,TX,8.008898776418242,NA,NA
77591,Galveston County,TX,47.94215795328142,NA,NA
77803,Brazos County,TX,23.470522803114573,NA,NA
77833,Washington County,TX,38.26473859844272,NA,NA
77836,Burleson County,TX,NA,71.99546485260771,NA
77840,Brazos County,TX,85.98442714126807,NA,NA
77904,Victoria County,TX,NA,25.963718820861676,90.01919385796545
78133,Comal County,TX,NA,NA,71.78502879078695
78155,Guadalupe County,TX,21.46829810901001,NA,NA
78211,Bexar County,TX,44.16017797552836,NA,NA
78362,San Patricio County,TX,NA,82.76643990929705,NA
78413,Nueces County,TX,62.40266963292548,NA,NA
78501,Hidalgo County,TX,NA,NA,10.17274472168906
78504,Hidalgo County,TX,NA,34.35374149659864,NA
78573,Hidalgo County,TX,46.82981090100111,36.848072562358276,NA
78574,Hidalgo County,TX,31.590656284760843,NA,NA
78599,Hidalgo County,TX,NA,NA,80.42226487523992
78624,Gillespie County,TX,NA,37.98185941043084,72.552783109405
78629,Gonzales County,TX,NA,NA,53.93474088291747
78633,Williamson County,TX,NA,NA,1.5355086372360844
78639,Llano County,TX,NA,81.17913832199547,NA
78861,Medina County,TX,68.07563959955506,NA,NA
79106,Potter County,TX,NA,NA,83.49328214971209
79606,Taylor County,TX,NA,40.929705215419496,NA
79701,Midland County,TX,NA,53.74149659863946,NA
79705,Midland County,TX,NA,76.07709750566893,NA
79762,Ector County,TX,NA,31.63265306122449,NA
79765,Ector County,TX,91.10122358175751,NA,NA
79902,El Paso County,TX,NA,73.92290249433107,NA
79912,El Paso County,TX,24.137931034482758,NA,NA
79915,El Paso County,TX,44.493882091212456,NA,NA
84041,Davis County,UT,NA,NA,67.37044145873321
84121,Salt Lake County,UT,NA,60.430839002267575,NA
84302,Box Elder County,UT,NA,64.5124716553288,63.53166986564299
84321,Cache County,UT,79.3103448275862,NA,NA
84337,Box Elder County,UT,84.6496106785317,NA,NA
84404,Weber County,UT,NA,27.89115646258503,NA
84414,Weber County,UT,NA,89.79591836734694,NA
84790,Washington County,UT,NA,NA,23.032629558541267
20110,Manassas city,VA,30.923248053392662,NA,NA
20112,Prince William County,VA,NA,69.50113378684807,NA
20155,Prince William County,VA,NA,34.01360544217687,NA
20171,Fairfax County,VA,68.40934371523916,NA,NA
20191,Fairfax County,VA,NA,81.63265306122449,NA
22015,Fairfax County,VA,80.64516129032258,NA,NA
22039,Fairfax County,VA,91.65739710789767,NA,NA
22201,Arlington County,VA,NA,91.26984126984127,NA
22206,Arlington County,VA,50.055617352614014,85.14739229024943,NA
22209,Arlington County,VA,95.88431590656285,NA,NA
22303,Fairfax County,VA,NA,NA,68.33013435700576
22304,Alexandria city,VA,12.124582869855395,57.596371882086174,NA
22408,Spotsylvania County,VA,56.84093437152391,NA,NA
22801,Harrisonburg city,VA,NA,NA,19.577735124760075
23060,Henrico County,VA,75.3058954393771,NA,NA
23111,Hanover County,VA,NA,11.11111111111111,NA
23139,Powhatan County,VA,NA,96.82539682539682,NA
23141,New Kent County,VA,NA,75.39682539682539,NA
23185,James City County,VA,60.28921023359288,2.1541950113378685,NA
23229,Henrico County,VA,NA,NA,68.71401151631477
23235,Chesterfield County,VA,NA,NA,18.042226487523994
23434,Suffolk city,VA,57.17463848720801,NA,NA
23602,Newport News city,VA,NA,19.501133786848072,NA
23664,Hampton city,VA,NA,NA,70.05758157389636
23701,Portsmouth city,VA,NA,NA,16.89059500959693
23707,Portsmouth city,VA,NA,28.68480725623583,NA
23831,Chesterfield County,VA,NA,74.26303854875283,NA
23832,Chesterfield County,VA,NA,NA,58.157389635316704
23970,Mecklenburg County,VA,78.53170189098999,77.77777777777779,80.80614203454894
24012,Roanoke city,VA,NA,65.98639455782312,NA
24153,Salem city,VA,NA,13.26530612244898,NA
24171,Patrick County,VA,NA,52.04081632653062,NA
24201,Bristol city,VA,NA,NA,40.30710172744721
24210,Washington County,VA,31.145717463848722,NA,38.963531669865645
24260,Russell County,VA,NA,NA,91.17082533589252
24333,Galax city,VA,NA,96.93877551020408,NA
24477,Augusta County,VA,73.41490545050056,NA,NA
24630,Tazewell County,VA,96.440489432703,NA,NA
24637,Tazewell County,VA,85.53948832035594,NA,NA
98001,King County,WA,NA,63.60544217687075,NA
98020,Snohomish County,WA,NA,86.28117913832199,NA
98022,King County,WA,51.39043381535039,NA,NA
98029,King County,WA,NA,79.81859410430839,98.46449136276392
98032,King County,WA,NA,34.92063492063492,NA
98059,King County,WA,38.26473859844272,NA,NA
98075,King County,WA,NA,65.75963718820861,NA
98077,King County,WA,NA,88.43537414965986,NA
98092,King County,WA,NA,41.043083900226755,NA
98110,Kitsap County,WA,NA,26.53061224489796,NA
98112,King County,WA,NA,53.96825396825397,NA
98115,King County,WA,NA,NA,83.6852207293666
98117,King County,WA,NA,42.97052154195011,NA
98122,King County,WA,50.27808676307007,NA,NA
98223,Snohomish County,WA,NA,NA,36.2763915547025
98258,Snohomish County,WA,NA,36.961451247165535,NA
98282,Island County,WA,NA,NA,39.53934740882917
98296,Snohomish County,WA,38.04226918798665,55.89569160997733,NA
98329,Pierce County,WA,64.73859844271412,NA,NA
98359,Kitsap County,WA,94.6607341490545,NA,NA
98382,Clallam County,WA,NA,NA,0.7677543186180422
98387,Pierce County,WA,NA,NA,50.09596928982726
98406,Pierce County,WA,NA,40.702947845804985,NA
98445,Pierce County,WA,84.09343715239154,NA,NA
98498,Pierce County,WA,NA,43.31065759637188,NA
98506,Thurston County,WA,89.54393770856507,NA,NA
98632,Cowlitz County,WA,17.130144605116797,NA,NA
98663,Clark County,WA,83.87096774193549,NA,NA
98682,Clark County,WA,50.94549499443827,NA,NA
98801,Chelan County,WA,NA,4.988662131519274,NA
98902,Yakima County,WA,NA,96.14512471655328,NA
98908,Yakima County,WA,84.31590656284762,9.410430839002268,NA
98942,Yakima County,WA,NA,52.49433106575964,NA
98944,Yakima County,WA,94.10456062291435,NA,NA
99201,Spokane County,WA,75.19466073414905,NA,NA
99203,Spokane County,WA,NA,NA,98.0806142034549
99216,Spokane County,WA,56.0622914349277,NA,NA
99320,Benton County,WA,NA,90.1360544217687,NA
99324,Walla Walla County,WA,98.66518353726363,NA,NA
99336,Benton County,WA,9.56618464961068,66.43990929705215,NA
99354,Benton County,WA,35.81757508342603,NA,NA
20019,District of Columbia,DC,NA,20.74829931972789,NA
24701,Mercer County,WV,NA,19.954648526077097,NA
25414,Jefferson County,WV,53.058954393770854,NA,NA
26062,Hancock County,WV,8.676307007786429,NA,NA
26101,Wood County,WV,3.5595105672969964,NA,NA
26170,Pleasants County,WV,81.64627363737486,NA,NA
26554,Marion County,WV,NA,NA,2.111324376199616
26651,Nicholas County,WV,99.11012235817576,NA,NA
26757,Hampshire County,WV,NA,72.44897959183673,NA
53014,Calumet County,WI,NA,NA,67.94625719769674
53024,Ozaukee County,WI,NA,NA,16.698656429942417
53045,Waukesha County,WI,NA,69.95464852607711,NA
53089,Waukesha County,WI,NA,62.585034013605444,NA
53092,Ozaukee County,WI,NA,31.065759637188208,NA
53098,Dodge County,WI,NA,75.85034013605441,NA
53104,Kenosha County,WI,NA,NA,84.26103646833013
53105,Racine County,WI,12.791991101223582,32.76643990929705,NA
53110,Milwaukee County,WI,NA,23.24263038548753,NA
53140,Kenosha County,WI,NA,16.099773242630384,NA
53142,Kenosha County,WI,7.563959955506118,NA,NA
53143,Kenosha County,WI,NA,20.181405895691608,NA
53144,Kenosha County,WI,NA,NA,76.58349328214972
53147,Walworth County,WI,NA,NA,86.75623800383877
53172,Milwaukee County,WI,NA,NA,26.67946257197697
53181,Kenosha County,WI,NA,77.32426303854876,95.00959692898272
53202,Milwaukee County,WI,NA,NA,29.942418426103647
53215,Milwaukee County,WI,3.337041156840934,NA,NA
53219,Milwaukee County,WI,15.684093437152391,NA,NA
53222,Milwaukee County,WI,NA,NA,48.56046065259117
53223,Milwaukee County,WI,14.349276974416018,NA,NA
53225,Milwaukee County,WI,61.40155728587319,NA,NA
53405,Racine County,WI,NA,2.2675736961451247,NA
53511,Rock County,WI,0.44493882091212456,NA,NA
53545,Rock County,WI,NA,44.44444444444444,NA
53551,Jefferson County,WI,NA,68.02721088435374,NA
53590,Dane County,WI,33.03670745272525,NA,NA
53593,Dane County,WI,93.2146829810901,NA,NA
53703,Dane County,WI,68.52057842046719,NA,NA
53711,Dane County,WI,NA,10.770975056689343,NA
53719,Dane County,WI,NA,NA,51.439539347408825
53959,Sauk County,WI,NA,NA,85.02879078694818
54001,Polk County,WI,42.82536151279199,44.5578231292517,NA
54115,Brown County,WI,NA,55.89569160997733,52.39923224568138
54139,Oconto County,WI,NA,95.12471655328798,NA
54140,Outagamie County,WI,NA,92.97052154195012,NA
54143,Marinette County,WI,79.08787541713015,NA,NA
54153,Oconto County,WI,92.99221357063404,76.98412698412699,NA
54166,Shawano County,WI,NA,89.34240362811792,NA
54201,Kewaunee County,WI,88.54282536151278,NA,NA
54216,Kewaunee County,WI,81.75750834260289,NA,NA
54220,Manitowoc County,WI,24.582869855394883,0.5668934240362812,NA
54241,Manitowoc County,WI,54.17130144605117,NA,32.24568138195777
54302,Brown County,WI,65.29477196885428,NA,NA
54304,Brown County,WI,19.46607341490545,NA,NA
54313,Brown County,WI,51.61290322580645,75.28344671201815,NA
54401,Marathon County,WI,NA,21.541950113378686,NA
54467,Portage County,WI,99.55506117908787,27.77777777777778,NA
54487,Lincoln County,WI,NA,32.6530612244898,NA
54501,Oneida County,WI,90.54505005561735,NA,NA
54521,Vilas County,WI,NA,95.46485260770974,NA
54552,Price County,WI,98.2202447163515,NA,NA
54603,La Crosse County,WI,45.05005561735261,NA,NA
54650,La Crosse County,WI,NA,5.6689342403628125,NA
54661,Trempealeau County,WI,92.76974416017798,NA,NA
54701,Eau Claire County,WI,NA,46.93877551020408,NA
54751,Dunn County,WI,NA,NA,9.021113243761997
54843,Sawyer County,WI,NA,97.61904761904762,NA
54848,Rusk County,WI,88.98776418242491,NA,NA
54901,Winnebago County,WI,51.83537263626251,NA,NA
54904,Winnebago County,WI,NA,NA,45.297504798464495
54913,Outagamie County,WI,NA,NA,73.32053742802303
54915,Outagamie County,WI,NA,92.7437641723356,49.71209213051823
54940,Waupaca County,WI,96.7741935483871,NA,NA
54961,Waupaca County,WI,49.49944382647386,NA,NA
54963,Winnebago County,WI,NA,82.08616780045351,NA
54971,Fond du Lac County,WI,NA,39.682539682539684,NA
54981,Waupaca County,WI,54.50500556173527,NA,NA
54986,Winnebago County,WI,89.76640711902112,NA,NA
82001,Laramie County,WY,NA,50.90702947845806,NA
