ZipCode,county,state,Youth,Pediatric,Adult,Retirement,Geriatric
35005,Jefferson County,AL,90.41713641488163,NA,NA,NA,NA
35064,Jefferson County,AL,NA,NA,70.39800995024875,NA,NA
35160,Talladega County,AL,10.935738444193912,NA,NA,NA,NA
35212,Jefferson County,AL,NA,NA,83.95522388059702,NA,NA
35214,Jefferson County,AL,NA,NA,40.547263681592035,NA,NA
35215,Jefferson County,AL,NA,NA,12.935323383084576,NA,NA
35226,Jefferson County,AL,NA,NA,83.83084577114428,NA,NA
35405,Tuscaloosa County,AL,18.940248027057496,NA,NA,NA,NA
35456,Tuscaloosa County,AL,NA,NA,97.2636815920398,NA,NA
35613,Limestone County,AL,43.85569334836528,NA,NA,NA,NA
35661,Colbert County,AL,NA,NA,74.75124378109453,NA,NA
35673,Morgan County,AL,NA,82.55528255528255,NA,NA,NA
35803,Madison County,AL,NA,81.57248157248156,NA,NA,NA
35810,Madison County,AL,NA,26.289926289926292,NA,NA,NA
35901,Etowah County,AL,47.12514092446449,NA,NA,NA,NA
35950,Marshall County,AL,NA,NA,NA,NA,89.17525773195877
36024,Elmore County,AL,90.41713641488163,NA,NA,NA,NA
36108,Montgomery County,AL,63.35963923337091,NA,NA,NA,NA
36111,Montgomery County,AL,NA,78.37837837837837,NA,NA,NA
36201,Calhoun County,AL,62.79594137542277,NA,NA,NA,NA
36265,Calhoun County,AL,NA,NA,61.69154228855721,NA,NA
36305,Houston County,AL,NA,NA,NA,72.36842105263158,NA
36340,Geneva County,AL,NA,90.41769041769042,NA,NA,NA
36869,Russell County,AL,76.32468996617813,NA,65.04975124378109,NA,NA
36870,Lee County,AL,89.28974069898534,NA,84.5771144278607,NA,NA
99503,Anchorage Municipality,AK,NA,NA,56.46766169154229,NA,NA
99507,Anchorage Municipality,AK,NA,NA,42.16417910447761,NA,NA
99508,Anchorage Municipality,AK,NA,27.027027027027028,NA,NA,NA
99576,Dillingham Census Area,AK,NA,NA,94.65174129353234,NA,NA
99709,Fairbanks North Star Borough,AK,NA,NA,NA,63.48684210526315,NA
99835,Sitka City and Borough,AK,NA,NA,NA,83.55263157894737,NA
85003,Maricopa County,AZ,97.29425028184893,NA,NA,NA,NA
85008,Maricopa County,AZ,10.4847801578354,NA,NA,NA,NA
85013,Maricopa County,AZ,NA,NA,58.08457711442786,NA,NA
85015,Maricopa County,AZ,23.449830890642616,NA,NA,NA,NA
85017,Maricopa County,AZ,NA,NA,NA,79.27631578947368,NA
85019,Maricopa County,AZ,62.232243517474636,NA,NA,NA,NA
85027,Maricopa County,AZ,34.83652762119504,73.71007371007371,NA,NA,NA
85031,Maricopa County,AZ,NA,23.587223587223587,NA,75,NA
85032,Maricopa County,AZ,27.50845546786922,NA,NA,NA,NA
85033,Maricopa County,AZ,NA,NA,NA,NA,73.71134020618557
85034,Maricopa County,AZ,96.50507328072153,NA,NA,NA,NA
85040,Maricopa County,AZ,NA,38.82063882063882,77.98507462686567,NA,NA
85041,Maricopa County,AZ,6.200676437429538,NA,NA,NA,NA
85043,Maricopa County,AZ,54.002254791431795,NA,NA,NA,NA
85044,Maricopa County,AZ,42.27733934611049,NA,NA,NA,NA
85048,Maricopa County,AZ,NA,NA,58.457711442786064,NA,NA
85201,Maricopa County,AZ,NA,NA,18.1592039800995,NA,NA
85202,Maricopa County,AZ,NA,NA,26.865671641791046,NA,NA
85207,Maricopa County,AZ,NA,NA,35.57213930348259,NA,NA
85212,Maricopa County,AZ,NA,NA,67.03980099502488,NA,NA
85224,Maricopa County,AZ,NA,NA,54.850746268656714,NA,NA
85234,Maricopa County,AZ,39.346110484780155,NA,NA,NA,NA
85268,Maricopa County,AZ,NA,NA,NA,64.47368421052632,NA
85295,Maricopa County,AZ,NA,NA,47.636815920398014,NA,NA
85296,Maricopa County,AZ,NA,NA,41.91542288557214,NA,NA
85301,Maricopa County,AZ,NA,NA,7.08955223880597,NA,NA
85302,Maricopa County,AZ,NA,NA,34.57711442786069,32.56578947368421,NA
85303,Maricopa County,AZ,24.126268320180383,NA,NA,NA,NA
85349,Yuma County,AZ,NA,NA,NA,71.71052631578947,NA
85367,Yuma County,AZ,96.73055242390079,NA,NA,NA,NA
85374,Maricopa County,AZ,46.56144306651635,NA,NA,NA,NA
85379,Maricopa County,AZ,40.24802705749718,NA,NA,NA,NA
85501,Gila County,AZ,NA,NA,81.8407960199005,NA,NA
85530,Graham County,AZ,NA,NA,90.54726368159204,NA,NA
85607,Cochise County,AZ,NA,24.57002457002457,NA,82.23684210526315,NA
85614,Pima County,AZ,NA,NA,NA,NA,6.185567010309279
85615,Cochise County,AZ,97.06877113866967,NA,NA,NA,NA
85622,Pima County,AZ,NA,NA,NA,NA,55.154639175257735
85634,Pima County,AZ,NA,NA,28.60696517412935,NA,NA
85635,Cochise County,AZ,NA,NA,33.08457711442786,NA,NA
85648,Santa Cruz County,AZ,80.94701240135288,NA,NA,NA,NA
85705,Pima County,AZ,NA,NA,5.348258706467662,NA,NA
85706,Pima County,AZ,11.161217587373168,NA,21.766169154228855,NA,NA
85710,Pima County,AZ,NA,NA,NA,21.052631578947366,NA
85712,Pima County,AZ,53.551296505073275,NA,NA,NA,NA
85719,Pima County,AZ,45.659526493799326,NA,NA,NA,NA
85739,Pinal County,AZ,NA,NA,NA,34.868421052631575,NA
85741,Pima County,AZ,NA,NA,41.29353233830846,NA,NA
85745,Pima County,AZ,NA,NA,33.70646766169154,23.684210526315788,NA
85748,Pima County,AZ,NA,NA,NA,78.28947368421053,NA
85756,Pima County,AZ,43.85569334836528,20.39312039312039,NA,NA,NA
85757,Pima County,AZ,NA,NA,35.69651741293532,63.81578947368421,NA
85941,Apache County,AZ,NA,NA,51.11940298507462,NA,NA
86033,Navajo County,AZ,NA,NA,90.17412935323384,NA,NA
86045,Coconino County,AZ,NA,NA,33.582089552238806,NA,NA
86047,Navajo County,AZ,64.14881623449831,NA,NA,NA,NA
86326,Yavapai County,AZ,33.70913190529876,NA,NA,NA,NA
86401,Mohave County,AZ,NA,NA,NA,10.855263157894738,NA
86409,Mohave County,AZ,45.32130777903044,NA,NA,NA,NA
86503,Apache County,AZ,34.04735062006765,NA,42.91044776119403,NA,NA
86507,Apache County,AZ,95.6031567080045,NA,NA,NA,NA
86510,Navajo County,AZ,NA,NA,88.43283582089553,99.3421052631579,NA
86538,Apache County,AZ,92.3337091319053,NA,NA,NA,NA
71601,Jefferson County,AR,NA,NA,73.88059701492537,NA,NA
71602,Jefferson County,AR,NA,NA,71.64179104477611,NA,NA
71730,Union County,AR,NA,NA,56.840796019900495,NA,NA
72012,White County,AR,NA,NA,NA,78.94736842105263,NA
72022,Saline County,AR,NA,NA,NA,71.05263157894737,NA
72081,White County,AR,NA,NA,NA,64.80263157894737,NA
72120,Pulaski County,AR,NA,NA,53.233830845771145,NA,NA
72150,Grant County,AR,NA,NA,87.31343283582089,NA,NA
72204,Pulaski County,AR,NA,NA,NA,NA,89.69072164948454
72223,Pulaski County,AR,NA,NA,88.68159203980099,NA,NA
72227,Pulaski County,AR,NA,NA,NA,90.46052631578947,NA
72764,Washington County,AR,NA,NA,46.64179104477612,NA,NA
72956,Crawford County,AR,NA,NA,58.83084577114428,NA,NA
90001,Los Angeles County,CA,NA,31.203931203931205,NA,75.6578947368421,NA
90004,Los Angeles County,CA,NA,NA,53.98009950248757,NA,NA
90007,Los Angeles County,CA,NA,NA,NA,66.77631578947368,NA
90011,Los Angeles County,CA,NA,10.319410319410318,32.33830845771145,NA,NA
90012,Los Angeles County,CA,83.99098083427283,NA,NA,NA,NA
90018,Los Angeles County,CA,NA,57.24815724815725,NA,NA,NA
90019,Los Angeles County,CA,NA,NA,NA,NA,13.402061855670103
90025,Los Angeles County,CA,NA,NA,NA,44.07894736842105,NA
90034,Los Angeles County,CA,NA,75.42997542997543,NA,NA,NA
90037,Los Angeles County,CA,NA,NA,46.517412935323385,NA,NA
90043,Los Angeles County,CA,NA,NA,NA,26.31578947368421,NA
90047,Los Angeles County,CA,NA,NA,21.393034825870647,NA,NA
90059,Los Angeles County,CA,62.45772266065389,NA,NA,NA,NA
90061,Los Angeles County,CA,94.3630214205186,NA,NA,NA,NA
90064,Los Angeles County,CA,NA,88.45208845208845,NA,NA,NA
90201,Los Angeles County,CA,NA,NA,40.17412935323383,NA,NA
90232,Los Angeles County,CA,NA,NA,NA,93.0921052631579,NA
90248,Los Angeles County,CA,NA,NA,93.65671641791045,NA,NA
90255,Los Angeles County,CA,80.608793686584,NA,NA,NA,NA
90260,Los Angeles County,CA,NA,NA,NA,NA,67.0103092783505
90602,Los Angeles County,CA,NA,NA,97.76119402985076,NA,NA
90603,Los Angeles County,CA,NA,NA,NA,61.8421052631579,NA
90606,Los Angeles County,CA,73.84441939120632,NA,NA,NA,NA
90620,Orange County,CA,NA,NA,NA,46.05263157894737,NA
90640,Los Angeles County,CA,53.213077790304396,NA,NA,NA,NA
90706,Los Angeles County,CA,19.729425028184895,NA,NA,NA,NA
90715,Los Angeles County,CA,NA,NA,90.79601990049751,NA,NA
90731,Los Angeles County,CA,30.32694475760992,NA,NA,NA,NA
90745,Los Angeles County,CA,71.58962795941376,NA,NA,NA,NA
90805,Los Angeles County,CA,NA,54.791154791154796,NA,NA,NA
91001,Los Angeles County,CA,NA,NA,67.28855721393035,NA,NA
91016,Los Angeles County,CA,NA,50.61425061425061,NA,NA,NA
91040,Los Angeles County,CA,NA,NA,NA,NA,77.31958762886599
91104,Los Angeles County,CA,NA,98.03439803439802,NA,NA,NA
91205,Los Angeles County,CA,NA,NA,NA,60.19736842105263,NA
91331,Los Angeles County,CA,NA,29.72972972972973,NA,NA,NA
91335,Los Angeles County,CA,63.134160090191656,38.08353808353808,NA,NA,NA
91342,Los Angeles County,CA,65.2762119503946,NA,26.741293532338307,NA,NA
91343,Los Angeles County,CA,NA,NA,NA,NA,39.69072164948454
91344,Los Angeles County,CA,NA,NA,54.353233830845774,31.25,NA
91345,Los Angeles County,CA,NA,NA,91.04477611940298,NA,NA
91350,Los Angeles County,CA,NA,NA,73.38308457711443,NA,NA
91356,Los Angeles County,CA,NA,NA,85.69651741293532,NA,NA
91360,Ventura County,CA,NA,NA,NA,NA,20.103092783505154
91364,Los Angeles County,CA,96.73055242390079,NA,NA,NA,NA
91405,Los Angeles County,CA,84.6674182638106,NA,52.98507462686567,NA,NA
91504,Los Angeles County,CA,NA,92.62899262899262,NA,NA,NA
91706,Los Angeles County,CA,NA,NA,68.65671641791045,NA,NA
91709,San Bernardino County,CA,NA,NA,42.039800995024876,NA,NA
91723,Los Angeles County,CA,98.30890642615559,NA,NA,NA,NA
91733,Los Angeles County,CA,NA,65.1105651105651,NA,NA,NA
91767,Los Angeles County,CA,NA,NA,49.75124378109453,NA,NA
91770,Los Angeles County,CA,NA,NA,58.95522388059702,NA,NA
91790,Los Angeles County,CA,NA,NA,NA,60.526315789473685,NA
91901,San Diego County,CA,NA,NA,NA,NA,67.5257731958763
91910,San Diego County,CA,NA,NA,34.07960199004975,NA,NA
91911,San Diego County,CA,NA,NA,30.845771144278604,NA,NA
91932,San Diego County,CA,NA,NA,83.5820895522388,NA,NA
91945,San Diego County,CA,NA,77.14987714987716,NA,NA,NA
92021,San Diego County,CA,NA,38.08353808353808,NA,NA,NA
92025,San Diego County,CA,55.69334836527621,16.707616707616708,NA,NA,NA
92027,San Diego County,CA,NA,18.91891891891892,NA,NA,NA
92084,San Diego County,CA,NA,42.01474201474201,NA,NA,NA
92102,San Diego County,CA,NA,NA,NA,NA,78.8659793814433
92104,San Diego County,CA,65.95264937993235,NA,NA,NA,NA
92105,San Diego County,CA,61.78128523111612,NA,NA,NA,NA
92113,San Diego County,CA,NA,18.67321867321867,NA,NA,NA
92122,San Diego County,CA,NA,NA,NA,74.3421052631579,NA
92123,San Diego County,CA,NA,NA,NA,53.94736842105263,NA
92126,San Diego County,CA,NA,NA,NA,40.46052631578947,NA
92129,San Diego County,CA,NA,NA,67.7860696517413,NA,NA
92173,San Diego County,CA,NA,NA,73.00995024875621,NA,NA
92225,Riverside County,CA,NA,NA,NA,96.71052631578947,NA
92231,Imperial County,CA,91.31905298759865,NA,NA,NA,NA
92240,Riverside County,CA,81.73618940248028,NA,NA,NA,NA
92250,Imperial County,CA,94.02480270574972,NA,NA,NA,NA
92262,Riverside County,CA,51.40924464487034,NA,NA,NA,NA
92301,San Bernardino County,CA,60.42841037204059,NA,NA,NA,NA
92307,San Bernardino County,CA,NA,NA,37.06467661691542,NA,NA
92311,San Bernardino County,CA,NA,NA,45.27363184079602,NA,NA
92324,San Bernardino County,CA,NA,NA,26.368159203980102,NA,NA
92335,San Bernardino County,CA,NA,13.513513513513514,NA,NA,NA
92346,San Bernardino County,CA,59.301014656144304,NA,NA,NA,NA
92354,San Bernardino County,CA,NA,NA,NA,NA,58.76288659793815
92376,San Bernardino County,CA,29.19954904171364,NA,13.184079601990051,NA,NA
92377,San Bernardino County,CA,NA,NA,NA,85.85526315789474,NA
92392,San Bernardino County,CA,49.83089064261556,NA,NA,NA,NA
92394,San Bernardino County,CA,NA,58.96805896805897,NA,NA,NA
92410,San Bernardino County,CA,NA,NA,NA,37.17105263157895,NA
92506,Riverside County,CA,NA,NA,NA,50.6578947368421,NA
92530,Riverside County,CA,51.29650507328072,NA,NA,NA,NA
92543,Riverside County,CA,NA,NA,NA,NA,51.546391752577314
92555,Riverside County,CA,71.70236753100339,NA,NA,NA,NA
92562,Riverside County,CA,38.21871476888388,NA,NA,NA,NA
92570,Riverside County,CA,NA,NA,NA,55.5921052631579,NA
92571,Riverside County,CA,NA,NA,NA,87.82894736842105,NA
92620,Orange County,CA,85.34385569334837,NA,NA,NA,NA
92626,Orange County,CA,NA,NA,NA,NA,33.50515463917525
92648,Orange County,CA,NA,NA,37.56218905472637,NA,NA
92701,Orange County,CA,NA,27.27272727272727,NA,NA,NA
92704,Orange County,CA,35.51296505073281,NA,NA,NA,NA
92708,Orange County,CA,NA,NA,NA,19.407894736842106,NA
92801,Orange County,CA,NA,NA,42.53731343283582,41.776315789473685,NA
92802,Orange County,CA,NA,NA,64.42786069651741,NA,NA
92808,Orange County,CA,NA,NA,NA,NA,77.83505154639175
92831,Orange County,CA,NA,NA,61.940298507462686,NA,NA
92832,Orange County,CA,68.32018038331455,NA,NA,NA,NA
92835,Orange County,CA,NA,NA,NA,NA,22.68041237113402
92840,Orange County,CA,48.59075535512965,NA,NA,NA,NA
92880,Riverside County,CA,NA,NA,28.48258706467662,NA,NA
92886,Orange County,CA,45.659526493799326,NA,NA,NA,NA
93003,Ventura County,CA,NA,NA,20.771144278606965,NA,NA
93010,Ventura County,CA,68.32018038331455,72.23587223587224,NA,NA,NA
93012,Ventura County,CA,NA,NA,NA,52.960526315789465,31.958762886597935
93030,Ventura County,CA,NA,NA,NA,NA,32.47422680412371
93033,Ventura County,CA,2.593010146561443,5.159705159705159,NA,NA,NA
93036,Ventura County,CA,NA,NA,39.92537313432835,59.210526315789465,NA
93041,Ventura County,CA,74.06989853438557,NA,NA,NA,NA
93063,Ventura County,CA,NA,NA,NA,31.57894736842105,NA
93101,Santa Barbara County,CA,NA,50.61425061425061,NA,NA,NA
93105,Santa Barbara County,CA,97.40698985343855,NA,NA,NA,NA
93210,Fresno County,CA,NA,85.25798525798525,NA,NA,NA
93230,Kings County,CA,60.65388951521984,NA,NA,NA,NA
93250,Kern County,CA,NA,NA,93.78109452736318,NA,NA
93277,Tulare County,CA,NA,NA,NA,23.355263157894736,NA
93280,Kern County,CA,NA,NA,83.2089552238806,NA,NA
93306,Kern County,CA,NA,NA,27.114427860696516,NA,NA
93307,Kern County,CA,NA,16.953316953316953,NA,NA,NA
93420,San Luis Obispo County,CA,83.31454340473506,NA,NA,NA,NA
93436,Santa Barbara County,CA,NA,14.250614250614252,NA,NA,NA
93446,San Luis Obispo County,CA,54.227733934611045,NA,NA,NA,NA
93454,Santa Barbara County,CA,NA,30.22113022113022,NA,NA,NA
93534,Los Angeles County,CA,58.73731679819617,NA,NA,NA,NA
93535,Los Angeles County,CA,NA,11.547911547911548,13.432835820895523,NA,NA
93543,Los Angeles County,CA,92.67192784667418,83.04668304668304,NA,NA,NA
93555,Kern County,CA,40.58624577226607,NA,NA,NA,NA
93612,Fresno County,CA,NA,41.52334152334152,NA,NA,NA
93618,Tulare County,CA,NA,NA,63.681592039801,NA,NA
93638,Madera County,CA,8.568207440811724,NA,24.253731343283583,NA,NA
93701,Fresno County,CA,NA,49.14004914004914,NA,NA,NA
93702,Fresno County,CA,49.154453213077794,NA,NA,NA,NA
93705,Fresno County,CA,24.80270574971815,NA,NA,NA,NA
93706,Fresno County,CA,35.174746335963924,NA,29.47761194029851,NA,NA
93722,Fresno County,CA,3.720405862457723,NA,NA,NA,NA
93940,Monterey County,CA,NA,NA,NA,34.53947368421053,NA
94010,San Mateo County,CA,NA,NA,60.57213930348259,NA,NA
94085,Santa Clara County,CA,NA,NA,NA,NA,92.26804123711341
94087,Santa Clara County,CA,NA,NA,NA,59.210526315789465,NA
94102,San Francisco County,CA,NA,67.81326781326781,NA,NA,NA
94115,San Francisco County,CA,86.92220969560316,NA,NA,NA,NA
94118,San Francisco County,CA,NA,NA,65.92039800995025,NA,NA
94124,San Francisco County,CA,44.983089064261556,NA,NA,NA,NA
94134,San Francisco County,CA,NA,56.26535626535627,NA,NA,NA
94303,San Mateo County,CA,NA,NA,NA,35.19736842105263,NA
94501,Alameda County,CA,NA,NA,NA,54.60526315789473,NA
94533,Solano County,CA,NA,NA,29.975124378109452,NA,NA
94541,Alameda County,CA,48.13979706877114,NA,31.343283582089555,NA,NA
94544,Alameda County,CA,NA,NA,NA,17.434210526315788,NA
94568,Alameda County,CA,NA,NA,86.19402985074626,NA,NA
94577,Alameda County,CA,37.429537767756486,NA,NA,NA,NA
94580,Alameda County,CA,NA,NA,NA,NA,60.30927835051546
94587,Alameda County,CA,NA,NA,44.15422885572139,26.644736842105267,NA
94590,Solano County,CA,76.55016910935738,NA,NA,NA,NA
94603,Alameda County,CA,NA,43.73464373464373,NA,NA,NA
94608,Alameda County,CA,NA,NA,NA,NA,59.79381443298969
94619,Alameda County,CA,NA,NA,NA,NA,80.9278350515464
95008,Santa Clara County,CA,NA,NA,73.88059701492537,NA,NA
95037,Santa Clara County,CA,NA,NA,66.04477611940298,NA,NA
95050,Santa Clara County,CA,NA,NA,78.23383084577115,NA,NA
95112,Santa Clara County,CA,NA,NA,47.01492537313433,NA,NA
95123,Santa Clara County,CA,74.85907553551297,NA,NA,NA,NA
95127,Santa Clara County,CA,NA,NA,50,NA,NA
95202,San Joaquin County,CA,NA,NA,72.01492537313433,NA,NA
95207,San Joaquin County,CA,NA,NA,28.233830845771145,NA,NA
95209,San Joaquin County,CA,87.71138669673056,NA,NA,NA,NA
95301,Merced County,CA,51.07102593010146,NA,NA,NA,NA
95307,Stanislaus County,CA,NA,NA,NA,56.57894736842105,NA
95328,Stanislaus County,CA,99.32356257046223,NA,NA,NA,NA
95341,Merced County,CA,NA,48.64864864864865,NA,NA,NA
95350,Stanislaus County,CA,NA,53.8083538083538,NA,NA,NA
95355,Stanislaus County,CA,47.68883878241263,NA,NA,NA,NA
95358,Stanislaus County,CA,NA,NA,NA,NA,69.58762886597938
95363,Stanislaus County,CA,95.94137542277339,NA,NA,NA,NA
95380,Stanislaus County,CA,NA,40.2948402948403,NA,NA,NA
95383,Tuolumne County,CA,NA,NA,NA,90.13157894736842,NA
95403,Sonoma County,CA,NA,NA,58.582089552238806,NA,NA
95482,Mendocino County,CA,NA,NA,45.646766169154226,NA,NA
95492,Sonoma County,CA,NA,NA,72.76119402985076,NA,NA
95531,Del Norte County,CA,85.9075535512965,NA,NA,NA,NA
95616,Yolo County,CA,NA,NA,NA,73.02631578947368,NA
95642,Amador County,CA,NA,NA,98.38308457711443,NA,NA
95670,Sacramento County,CA,59.63923337091319,NA,NA,NA,NA
95677,Placer County,CA,NA,NA,NA,NA,86.08247422680412
95758,Sacramento County,CA,64.03607666290868,NA,NA,NA,NA
95762,El Dorado County,CA,61.10484780157835,NA,NA,NA,NA
95825,Sacramento County,CA,NA,NA,58.333333333333336,NA,NA
95826,Sacramento County,CA,NA,NA,NA,64.14473684210526,NA
95827,Sacramento County,CA,NA,78.37837837837837,NA,NA,NA
95838,Sacramento County,CA,NA,NA,NA,NA,67.5257731958763
95841,Sacramento County,CA,NA,NA,NA,86.18421052631578,NA
95842,Sacramento County,CA,88.83878241262683,NA,NA,NA,NA
95901,Yuba County,CA,40.135287485907554,NA,NA,NA,NA
95928,Butte County,CA,NA,NA,42.66169154228855,NA,NA
95954,Butte County,CA,NA,70.76167076167076,NA,NA,NA
95963,Glenn County,CA,85.9075535512965,NA,NA,NA,NA
95969,Butte County,CA,87.9368658399098,NA,NA,NA,NA
96003,Shasta County,CA,NA,NA,52.48756218905473,NA,NA
80004,Jefferson County,CO,45.997745208568205,NA,NA,NA,NA
80011,Arapahoe County,CO,18.1510710259301,NA,11.069651741293532,NA,NA
80012,Arapahoe County,CO,NA,NA,NA,35.85526315789473,NA
80015,Arapahoe County,CO,NA,NA,23.258706467661693,NA,NA
80020,Broomfield County,CO,19.052987598647125,NA,NA,NA,NA
80113,Arapahoe County,CO,NA,NA,69.77611940298507,NA,NA
80134,Douglas County,CO,10.259301014656144,NA,NA,NA,NA
80136,Adams County,CO,NA,NA,98.88059701492537,NA,NA
80202,Denver County,CO,93.23562570462232,NA,NA,NA,NA
80204,Denver County,CO,NA,NA,NA,NA,90.20618556701031
80210,Denver County,CO,NA,NA,65.04975124378109,NA,NA
80214,Jefferson County,CO,NA,NA,50.74626865671642,NA,NA
80220,Denver County,CO,48.81623449830891,NA,NA,NA,NA
80228,Jefferson County,CO,61.89402480270575,NA,64.55223880597015,NA,NA
80237,Denver County,CO,NA,89.68058968058969,NA,NA,NA
80247,Arapahoe County,CO,NA,NA,48.134328358208954,NA,NA
80303,Boulder County,CO,NA,NA,85.82089552238806,NA,NA
80503,Boulder County,CO,NA,NA,NA,63.1578947368421,NA
80513,Larimer County,CO,NA,NA,82.96019900497512,NA,NA
80644,Weld County,CO,NA,NA,99.50248756218906,NA,NA
80701,Morgan County,CO,NA,87.96068796068795,NA,NA,NA
80723,Morgan County,CO,81.510710259301,NA,NA,NA,NA
80907,El Paso County,CO,63.58511837655016,NA,NA,NA,NA
80909,El Paso County,CO,47.350620067643746,NA,31.8407960199005,NA,NA
80915,El Paso County,CO,NA,NA,75,NA,NA
80916,El Paso County,CO,59.864712514092446,45.45454545454545,NA,NA,NA
80919,El Paso County,CO,NA,NA,78.73134328358209,NA,NA
80923,El Paso County,CO,NA,NA,71.39303482587064,NA,NA
81005,Pueblo County,CO,NA,NA,NA,67.10526315789474,NA
81054,Bent County,CO,NA,99.75429975429975,NA,NA,NA
81401,Montrose County,CO,56.25704622322435,NA,NA,NA,NA
81501,Mesa County,CO,NA,NA,53.482587064676615,NA,NA
81650,Garfield County,CO,NA,84.02948402948402,NA,NA,NA
06001,Hartford County,CT,NA,NA,85.44776119402985,NA,NA
06010,Hartford County,CT,6.313416009019165,NA,NA,NA,NA
06051,Hartford County,CT,NA,17.936117936117938,NA,NA,NA
06071,Tolland County,CT,NA,99.26289926289927,NA,NA,NA
06096,Hartford County,CT,NA,NA,NA,NA,96.90721649484536
06105,Hartford County,CT,60.20293122886133,NA,NA,NA,NA
06108,Hartford County,CT,39.68432919954904,NA,39.17910447761194,NA,NA
06226,Windham County,CT,NA,31.941031941031937,NA,NA,NA
06401,New Haven County,CT,NA,59.7051597051597,NA,NA,NA
06422,Middlesex County,CT,NA,NA,89.55223880597015,NA,NA
06450,New Haven County,CT,26.719278466741827,NA,69.27860696517413,NA,NA
06457,Middlesex County,CT,NA,NA,NA,13.157894736842104,NA
06460,New Haven County,CT,NA,NA,38.55721393034826,NA,NA
06461,New Haven County,CT,NA,NA,92.53731343283582,NA,NA
06473,New Haven County,CT,NA,NA,NA,NA,23.195876288659793
06492,New Haven County,CT,NA,NA,NA,17.105263157894736,NA
06511,New Haven County,CT,13.979706877113868,NA,29.228855721393032,NA,NA
06513,New Haven County,CT,60.09019165727171,NA,NA,NA,NA
06514,New Haven County,CT,NA,NA,43.407960199004975,NA,NA
06604,Fairfield County,CT,50.50732807215332,NA,NA,NA,NA
06708,New Haven County,CT,NA,45.7002457002457,NA,NA,NA
06770,New Haven County,CT,NA,NA,31.094527363184078,NA,NA
06790,Litchfield County,CT,24.46448703494927,NA,NA,NA,NA
06810,Fairfield County,CT,NA,NA,20.8955223880597,NA,NA
06811,Fairfield County,CT,NA,NA,55.223880597014926,NA,NA
06851,Fairfield County,CT,NA,NA,68.53233830845771,NA,NA
06901,Fairfield County,CT,NA,97.54299754299754,NA,NA,NA
06902,Fairfield County,CT,NA,NA,27.860696517412936,NA,NA
19709,New Castle County,DE,24.689966178128522,NA,NA,NA,NA
19801,New Castle County,DE,93.34836527621195,NA,NA,NA,NA
19975,Sussex County,DE,NA,NA,98.00995024875621,NA,NA
32025,Columbia County,FL,38.21871476888388,NA,NA,NA,NA
32043,Clay County,FL,NA,NA,54.1044776119403,NA,NA
32055,Columbia County,FL,57.94813979706878,NA,NA,NA,NA
32064,Suwannee County,FL,NA,NA,89.05472636815921,NA,NA
32065,Clay County,FL,NA,NA,51.243781094527364,NA,NA
32073,Clay County,FL,91.20631341600902,NA,NA,NA,NA
32080,St. Johns County,FL,74.29537767756483,NA,NA,NA,NA
32084,St. Johns County,FL,64.26155580608793,NA,NA,NA,NA
32117,Volusia County,FL,NA,NA,75.49751243781094,NA,NA
32119,Volusia County,FL,NA,83.04668304668304,NA,NA,NA
32162,Sumter County,FL,NA,NA,NA,NA,3.608247422680412
32164,Flagler County,FL,44.306651634723785,NA,NA,NA,NA
32177,Putnam County,FL,48.365276211950395,63.882063882063875,NA,NA,NA
32205,Duval County,FL,48.81623449830891,NA,NA,NA,NA
32208,Duval County,FL,67.64374295377678,NA,NA,NA,NA
32210,Duval County,FL,NA,16.216216216216218,NA,NA,NA
32211,Duval County,FL,48.13979706877114,NA,NA,NA,NA
32216,Duval County,FL,NA,NA,59.70149253731343,NA,NA
32219,Duval County,FL,88.16234498308907,86.97788697788698,NA,NA,NA
32225,Duval County,FL,27.846674182638104,NA,NA,NA,NA
32244,Duval County,FL,NA,NA,8.208955223880597,NA,NA
32257,Duval County,FL,NA,NA,32.83582089552239,NA,NA
32258,Duval County,FL,NA,NA,NA,43.75,NA
32301,Leon County,FL,NA,NA,NA,NA,70.10309278350515
32305,Leon County,FL,NA,76.65847665847666,NA,NA,NA
32308,Leon County,FL,94.58850056369785,NA,NA,NA,NA
32348,Taylor County,FL,NA,NA,NA,88.81578947368422,NA
32401,Bay County,FL,66.06538895152198,NA,NA,NA,NA
32424,Calhoun County,FL,NA,NA,78.1094527363184,NA,NA
32425,Holmes County,FL,91.8827508455468,NA,NA,NA,NA
32433,Walton County,FL,NA,NA,69.65174129353234,NA,NA
32503,Escambia County,FL,56.93348365276212,NA,63.059701492537314,NA,NA
32505,Escambia County,FL,19.503945885005635,29.72972972972973,NA,NA,NA
32526,Escambia County,FL,51.40924464487034,36.11793611793612,NA,NA,NA
32539,Okaloosa County,FL,NA,71.99017199017199,49.50248756218906,NA,NA
32565,Santa Rosa County,FL,NA,NA,86.06965174129353,NA,NA
32570,Santa Rosa County,FL,NA,NA,14.55223880597015,7.894736842105263,NA
32579,Okaloosa County,FL,NA,NA,94.40298507462687,NA,NA
32605,Alachua County,FL,NA,NA,NA,38.81578947368421,NA
32608,Alachua County,FL,NA,NA,10.820895522388058,NA,NA
32641,Alachua County,FL,NA,39.06633906633907,NA,NA,NA
32653,Alachua County,FL,NA,NA,NA,NA,46.391752577319586
32707,Seminole County,FL,NA,NA,NA,66.44736842105263,NA
32724,Volusia County,FL,NA,NA,64.30348258706468,NA,NA
32738,Volusia County,FL,NA,36.85503685503686,45.398009950248756,NA,NA
32779,Seminole County,FL,NA,NA,NA,NA,40.72164948453608
32805,Orange County,FL,48.81623449830891,NA,NA,NA,NA
32807,Orange County,FL,NA,NA,NA,69.07894736842105,NA
32808,Orange County,FL,5.975197294250282,NA,NA,NA,NA
32811,Orange County,FL,50.50732807215332,NA,NA,NA,NA
32818,Orange County,FL,24.126268320180383,28.501228501228503,NA,NA,NA
32821,Orange County,FL,94.02480270574972,NA,NA,NA,NA
32822,Orange County,FL,NA,19.656019656019655,NA,NA,NA
32825,Orange County,FL,32.694475760992106,NA,NA,NA,NA
32829,Orange County,FL,NA,81.32678132678133,NA,NA,NA
32833,Orange County,FL,NA,NA,NA,93.42105263157895,NA
32835,Orange County,FL,79.70687711386697,NA,NA,NA,NA
32836,Orange County,FL,NA,NA,94.90049751243781,NA,NA
32839,Orange County,FL,17.023675310033823,NA,NA,NA,NA
32901,Brevard County,FL,81.510710259301,NA,NA,NA,NA
32908,Brevard County,FL,NA,NA,94.27860696517413,NA,NA
32909,Brevard County,FL,NA,NA,48.134328358208954,NA,NA
32926,Brevard County,FL,NA,68.05896805896806,NA,NA,NA
32927,Brevard County,FL,76.55016910935738,NA,NA,NA,NA
32935,Brevard County,FL,NA,NA,NA,51.64473684210527,NA
32967,Indian River County,FL,NA,NA,56.96517412935324,NA,NA
33004,Broward County,FL,90.98083427282975,NA,NA,NA,NA
33009,Broward County,FL,NA,61.91646191646192,NA,NA,NA
33010,Miami-Dade County,FL,NA,30.95823095823096,NA,NA,NA
33012,Miami-Dade County,FL,NA,14.004914004914005,NA,NA,NA
33014,Miami-Dade County,FL,NA,46.43734643734644,NA,NA,NA
33015,Miami-Dade County,FL,NA,NA,60.820895522388064,NA,NA
33023,Broward County,FL,22.322435174746335,NA,NA,NA,NA
33024,Broward County,FL,NA,NA,NA,29.605263157894733,NA
33025,Broward County,FL,NA,NA,39.30348258706468,NA,NA
33026,Broward County,FL,73.16798196166854,NA,NA,NA,NA
33027,Broward County,FL,NA,NA,49.004975124378106,NA,NA
33030,Miami-Dade County,FL,NA,NA,NA,83.88157894736842,NA
33035,Miami-Dade County,FL,85.00563697857947,NA,NA,NA,NA
33037,Monroe County,FL,97.06877113866967,NA,NA,NA,NA
33055,Miami-Dade County,FL,31.003382187147686,NA,60.32338308457711,NA,NA
33066,Broward County,FL,92.3337091319053,NA,NA,NA,NA
33067,Broward County,FL,NA,NA,NA,NA,65.97938144329896
33068,Broward County,FL,54.904171364148816,NA,NA,NA,NA
33125,Miami-Dade County,FL,NA,NA,NA,NA,12.371134020618557
33128,Miami-Dade County,FL,NA,60.93366093366094,NA,NA,NA
33130,Miami-Dade County,FL,NA,NA,88.80597014925374,NA,NA
33135,Miami-Dade County,FL,NA,35.38083538083538,82.46268656716418,NA,NA
33145,Miami-Dade County,FL,NA,NA,89.92537313432835,NA,32.98969072164948
33155,Miami-Dade County,FL,74.29537767756483,NA,NA,NA,NA
33156,Miami-Dade County,FL,NA,NA,95.52238805970148,NA,NA
33157,Miami-Dade County,FL,72.82976324689966,20.884520884520885,NA,NA,NA
33162,Miami-Dade County,FL,78.91770011273958,NA,NA,NA,NA
33166,Miami-Dade County,FL,NA,88.45208845208845,NA,NA,NA
33168,Miami-Dade County,FL,NA,NA,NA,NA,84.02061855670104
33170,Miami-Dade County,FL,NA,NA,NA,93.75,NA
33175,Miami-Dade County,FL,25.70462232243517,NA,NA,NA,NA
33177,Miami-Dade County,FL,23.111612175873734,NA,NA,NA,NA
33183,Miami-Dade County,FL,74.85907553551297,NA,NA,NA,NA
33196,Miami-Dade County,FL,49.83089064261556,NA,NA,NA,NA
33309,Broward County,FL,NA,23.587223587223587,NA,NA,NA
33311,Broward County,FL,4.284103720405862,NA,10.199004975124378,NA,NA
33319,Broward County,FL,NA,NA,51.3681592039801,NA,NA
33323,Broward County,FL,NA,NA,87.18905472636816,NA,NA
33324,Broward County,FL,NA,NA,NA,56.9078947368421,NA
33325,Broward County,FL,NA,NA,NA,74.01315789473685,NA
33327,Broward County,FL,NA,NA,NA,93.75,90.72164948453609
33404,Palm Beach County,FL,NA,64.37346437346437,46.14427860696517,NA,NA
33409,Palm Beach County,FL,71.25140924464488,NA,NA,NA,NA
33426,Palm Beach County,FL,NA,89.68058968058969,NA,NA,NA
33428,Palm Beach County,FL,NA,70.02457002457002,NA,NA,NA
33542,Pasco County,FL,NA,NA,65.04975124378109,NA,NA
33604,Hillsborough County,FL,16.798196166854567,NA,NA,NA,NA
33605,Hillsborough County,FL,77.33934611048478,NA,NA,NA,NA
33610,Hillsborough County,FL,12.063134160090192,NA,NA,47.03947368421053,NA
33614,Hillsborough County,FL,75.98647125140926,NA,NA,NA,NA
33615,Hillsborough County,FL,NA,39.80343980343981,NA,NA,55.670103092783506
33617,Hillsborough County,FL,NA,NA,NA,42.76315789473684,NA
33619,Hillsborough County,FL,41.713641488162345,NA,NA,NA,NA
33701,Pinellas County,FL,NA,NA,NA,72.03947368421053,NA
33705,Pinellas County,FL,NA,48.894348894348894,NA,NA,NA
33711,Pinellas County,FL,NA,63.882063882063875,NA,NA,NA
33713,Pinellas County,FL,NA,53.31695331695332,64.05472636815921,NA,NA
33761,Pinellas County,FL,NA,NA,92.28855721393035,NA,NA
33770,Pinellas County,FL,NA,NA,67.53731343283582,NA,NA
33771,Pinellas County,FL,NA,NA,NA,41.118421052631575,NA
33773,Pinellas County,FL,97.63246899661782,NA,NA,NA,NA
33801,Polk County,FL,NA,NA,30.223880597014922,NA,NA
33805,Polk County,FL,NA,NA,48.6318407960199,NA,NA
33810,Polk County,FL,42.95377677564825,NA,NA,NA,NA
33830,Polk County,FL,34.83652762119504,NA,NA,NA,NA
33844,Polk County,FL,NA,24.815724815724817,NA,NA,NA
33850,Polk County,FL,NA,NA,91.54228855721394,NA,NA
33880,Polk County,FL,NA,NA,30.472636815920396,NA,NA
33881,Polk County,FL,67.41826381059752,NA,NA,NA,NA
33898,Polk County,FL,NA,NA,68.03482587064677,NA,NA
33904,Lee County,FL,61.89402480270575,NA,NA,NA,NA
33905,Lee County,FL,NA,44.717444717444714,NA,NA,NA
33912,Lee County,FL,94.92671927846675,NA,NA,NA,NA
33982,Charlotte County,FL,NA,NA,82.08955223880598,NA,NA
34104,Collier County,FL,NA,NA,63.30845771144279,NA,NA
34109,Collier County,FL,88.83878241262683,NA,NA,NA,NA
34142,Collier County,FL,NA,22.85012285012285,NA,NA,NA
34203,Manatee County,FL,55.80608793686584,NA,NA,NA,NA
34205,Manatee County,FL,NA,53.8083538083538,NA,NA,NA
34221,Manatee County,FL,NA,68.05896805896806,NA,NA,38.144329896907216
34231,Sarasota County,FL,76.55016910935738,NA,62.68656716417911,NA,NA
34285,Sarasota County,FL,NA,NA,92.03980099502488,NA,NA
34475,Marion County,FL,34.2728297632469,NA,NA,NA,NA
34609,Hernando County,FL,52.423900789177004,NA,NA,NA,NA
34668,Pasco County,FL,25.47914317925592,NA,16.29353233830846,NA,NA
34690,Pasco County,FL,NA,85.995085995086,NA,NA,NA
34746,Osceola County,FL,NA,NA,44.527363184079604,NA,NA
34748,Lake County,FL,NA,NA,61.56716417910447,NA,NA
34753,Lake County,FL,NA,82.06388206388206,NA,NA,NA
34758,Osceola County,FL,32.2435174746336,NA,NA,NA,NA
34759,Polk County,FL,NA,22.604422604422606,NA,NA,NA
34772,Osceola County,FL,57.72266065388951,NA,NA,NA,NA
34947,St. Lucie County,FL,86.24577226606539,NA,NA,NA,NA
34950,St. Lucie County,FL,NA,61.67076167076168,NA,NA,NA
34974,Okeechobee County,FL,NA,NA,64.17910447761194,NA,NA
34983,St. Lucie County,FL,NA,NA,28.73134328358209,NA,NA
34986,St. Lucie County,FL,NA,NA,57.711442786069654,NA,NA
34997,Martin County,FL,NA,NA,NA,11.842105263157894,NA
30005,Fulton County,GA,NA,90.41769041769042,NA,NA,NA
30008,Cobb County,GA,NA,NA,73.00995024875621,NA,NA
30011,Barrow County,GA,NA,88.20638820638821,NA,NA,NA
30030,DeKalb County,GA,76.2119503945885,NA,NA,NA,NA
30039,Gwinnett County,GA,51.97294250281848,NA,NA,NA,NA
30040,Forsyth County,GA,NA,NA,69.5273631840796,NA,NA
30052,Walton County,GA,43.17925591882751,NA,NA,NA,NA
30060,Cobb County,GA,78.35400225479144,NA,NA,NA,NA
30067,Cobb County,GA,67.98196166854565,NA,NA,NA,NA
30075,Fulton County,GA,NA,NA,78.85572139303483,NA,NA
30083,DeKalb County,GA,NA,NA,70.39800995024875,NA,NA
30088,DeKalb County,GA,72.6042841037204,NA,NA,NA,NA
30102,Cherokee County,GA,72.37880496054116,NA,NA,NA,NA
30125,Polk County,GA,NA,NA,46.01990049751244,NA,NA
30126,Cobb County,GA,NA,65.84766584766585,NA,NA,NA
30127,Cobb County,GA,NA,52.08845208845209,NA,38.48684210526316,NA
30165,Floyd County,GA,NA,NA,NA,35.526315789473685,NA
30179,Carroll County,GA,NA,NA,67.53731343283582,NA,NA
30184,Bartow County,GA,NA,NA,95.8955223880597,NA,NA
30213,Fulton County,GA,NA,NA,63.43283582089553,NA,NA
30217,Heard County,GA,NA,NA,77.363184079602,NA,NA
30236,Clayton County,GA,58.73731679819617,NA,NA,NA,NA
30273,Clayton County,GA,70.01127395715896,NA,NA,NA,NA
30281,Henry County,GA,40.81172491544532,NA,NA,NA,NA
30305,Fulton County,GA,34.04735062006765,NA,NA,NA,NA
30311,Fulton County,GA,55.2423900789177,NA,NA,NA,NA
30312,Fulton County,GA,NA,NA,NA,61.18421052631579,NA
30315,Fulton County,GA,NA,33.415233415233416,NA,NA,NA
30316,DeKalb County,GA,55.80608793686584,NA,NA,NA,NA
30317,DeKalb County,GA,NA,NA,80.22388059701493,NA,NA
30329,DeKalb County,GA,NA,NA,NA,NA,70.61855670103093
30331,Fulton County,GA,13.641488162344984,NA,NA,NA,NA
30349,Fulton County,GA,9.357384441939121,NA,NA,NA,NA
30350,Fulton County,GA,NA,NA,NA,NA,66.49484536082474
30461,Bulloch County,GA,NA,NA,82.33830845771143,NA,NA
30467,Screven County,GA,76.09921082299887,NA,NA,NA,NA
30510,Habersham County,GA,NA,NA,NA,97.03947368421053,NA
30620,Barrow County,GA,NA,NA,79.22885572139303,NA,NA
30635,Elbert County,GA,NA,91.8918918918919,NA,NA,NA
30655,Walton County,GA,29.763246899661784,NA,NA,NA,NA
30680,Barrow County,GA,43.51747463359639,NA,NA,NA,NA
30808,McDuffie County,GA,NA,NA,98.6318407960199,NA,NA
30814,Columbia County,GA,NA,NA,86.94029850746269,NA,NA
30824,McDuffie County,GA,NA,NA,57.58706467661692,NA,NA
30830,Burke County,GA,84.21645997745209,NA,NA,NA,NA
30901,Richmond County,GA,95.49041713641489,NA,NA,NA,NA
31015,Crisp County,GA,NA,NA,57.46268656716418,NA,NA
31061,Baldwin County,GA,NA,NA,NA,NA,36.597938144329895
31082,Washington County,GA,NA,NA,91.29353233830845,NA,NA
31206,Bibb County,GA,36.076662908680944,NA,NA,NA,NA
31211,Bibb County,GA,NA,86.73218673218673,NA,NA,NA
31217,Bibb County,GA,79.70687711386697,NA,NA,NA,NA
31308,Bryan County,GA,98.98534385569336,NA,NA,NA,NA
31415,Chatham County,GA,NA,82.30958230958231,NA,NA,NA
31602,Lowndes County,GA,NA,NA,46.39303482587065,NA,NA
31632,Lowndes County,GA,NA,NA,87.43781094527363,NA,NA
31639,Berrien County,GA,NA,NA,84.95024875621891,NA,NA
31794,Tift County,GA,NA,NA,36.940298507462686,NA,NA
31903,Muscogee County,GA,NA,63.14496314496314,NA,NA,NA
39823,Early County,GA,NA,NA,74.12935323383084,NA,NA
39854,Quitman County,GA,NA,NA,99.12935323383084,NA,NA
96706,Honolulu County,HI,NA,NA,15.17412935323383,NA,NA
96707,Honolulu County,HI,NA,84.76658476658476,NA,NA,NA
96717,Honolulu County,HI,NA,92.62899262899262,NA,NA,NA
96741,Kauai County,HI,NA,NA,NA,NA,99.48453608247422
96766,Kauai County,HI,NA,NA,78.35820895522389,NA,NA
96815,Honolulu County,HI,NA,NA,57.960199004975124,NA,NA
96817,Honolulu County,HI,27.17023675310034,NA,NA,NA,NA
96818,Honolulu County,HI,NA,90.17199017199017,NA,NA,NA
96819,Honolulu County,HI,18.1510710259301,NA,NA,NA,NA
96826,Honolulu County,HI,NA,NA,51.741293532338304,NA,NA
83301,Twin Falls County,ID,NA,NA,NA,2.302631578947368,NA
83341,Twin Falls County,ID,NA,NA,NA,99.67105263157895,NA
83401,Bonneville County,ID,NA,NA,NA,NA,48.45360824742268
83402,Bonneville County,ID,1.9165727170236753,NA,NA,83.22368421052632,NA
83605,Canyon County,ID,9.92108229988726,NA,NA,NA,NA
83661,Payette County,ID,NA,NA,90.4228855721393,NA,NA
83705,Ada County,ID,39.79706877113867,NA,NA,NA,NA
60004,Cook County,IL,NA,NA,33.83084577114428,NA,NA
60010,Lake County,IL,NA,NA,47.885572139303484,NA,NA
60013,McHenry County,IL,NA,NA,NA,43.42105263157895,NA
60025,Cook County,IL,NA,NA,NA,7.236842105263158,NA
60046,Lake County,IL,53.88951521984217,NA,NA,NA,NA
60050,McHenry County,IL,NA,NA,NA,76.31578947368422,17.525773195876287
60068,Cook County,IL,NA,NA,NA,NA,22.164948453608247
60074,Cook County,IL,NA,NA,50.99502487562189,NA,NA
60103,DuPage County,IL,NA,NA,71.51741293532339,NA,NA
60110,Kane County,IL,NA,NA,NA,69.73684210526315,NA
60123,Kane County,IL,NA,NA,NA,19.736842105263158,NA
60126,DuPage County,IL,17.587373167981962,NA,NA,NA,NA
60134,Kane County,IL,NA,NA,53.73134328358209,NA,NA
60137,DuPage County,IL,NA,NA,NA,36.84210526315789,NA
60148,DuPage County,IL,NA,NA,19.402985074626866,NA,NA
60174,Kane County,IL,75.76099210822998,NA,NA,NA,NA
60189,DuPage County,IL,NA,NA,NA,NA,34.02061855670103
60190,DuPage County,IL,NA,NA,83.45771144278606,NA,NA
60193,Cook County,IL,36.865839909808344,NA,NA,14.473684210526317,NA
60302,Cook County,IL,NA,NA,42.28855721393035,NA,18.04123711340206
60404,Will County,IL,NA,NA,52.736318407960205,NA,NA
60410,Will County,IL,49.49267192784668,NA,NA,NA,NA
60426,Cook County,IL,NA,NA,88.05970149253731,NA,NA
60438,Cook County,IL,NA,NA,54.22885572139303,NA,NA
60441,Will County,IL,NA,NA,29.1044776119403,NA,NA
60453,Cook County,IL,NA,NA,NA,12.5,NA
60457,Cook County,IL,NA,NA,81.34328358208955,NA,NA
60462,Cook County,IL,58.73731679819617,NA,NA,8.223684210526317,NA
60465,Cook County,IL,90.41713641488163,NA,NA,NA,NA
60467,Cook County,IL,NA,NA,60.07462686567165,NA,NA
60473,Cook County,IL,NA,NA,66.66666666666666,NA,NA
60513,Cook County,IL,NA,NA,50.373134328358205,NA,NA
60525,Cook County,IL,20.067643742953777,NA,NA,NA,NA
60540,DuPage County,IL,NA,NA,37.93532338308458,NA,NA
60543,Kendall County,IL,NA,NA,45.149253731343286,NA,NA
60546,Cook County,IL,NA,NA,NA,49.34210526315789,NA
60561,DuPage County,IL,77.11386696730553,NA,68.40796019900498,NA,NA
60563,DuPage County,IL,NA,NA,82.71144278606965,NA,NA
60615,Cook County,IL,51.86020293122886,NA,NA,NA,NA
60621,Cook County,IL,35.28748590755355,NA,NA,NA,NA
60624,Cook County,IL,NA,NA,21.144278606965177,NA,NA
60628,Cook County,IL,22.547914317925592,NA,NA,NA,NA
60637,Cook County,IL,36.865839909808344,NA,NA,NA,NA
60643,Cook County,IL,28.07215332581736,NA,NA,30.592105263157894,9.278350515463918
60657,Cook County,IL,NA,NA,27.736318407960198,NA,NA
60707,Cook County,IL,NA,NA,26.119402985074625,NA,NA
61008,Boone County,IL,NA,NA,NA,25,NA
61021,Lee County,IL,NA,NA,NA,NA,4.639175257731959
61032,Stephenson County,IL,66.06538895152198,NA,NA,NA,NA
61071,Whiteside County,IL,NA,NA,NA,21.710526315789476,NA
61109,Winnebago County,IL,NA,NA,54.72636815920397,NA,NA
61265,Rock Island County,IL,NA,NA,56.343283582089555,NA,NA
61525,Peoria County,IL,99.09808342728297,NA,NA,NA,NA
61614,Peoria County,IL,NA,NA,NA,44.40789473684211,NA
61801,Champaign County,IL,89.96617812852311,NA,NA,NA,NA
61832,Vermilion County,IL,NA,NA,NA,NA,9.793814432989691
62025,Madison County,IL,NA,NA,76.7412935323383,NA,NA
62040,Madison County,IL,NA,NA,NA,NA,18.556701030927837
62269,St. Clair County,IL,69.33483652762119,NA,NA,NA,NA
62549,Macon County,IL,91.65727170236752,NA,NA,88.1578947368421,NA
62568,Christian County,IL,73.50620067643743,NA,NA,NA,NA
62650,Morgan County,IL,NA,NA,NA,41.776315789473685,NA
62656,Logan County,IL,NA,NA,NA,74.67105263157895,NA
62863,Wabash County,IL,NA,NA,NA,NA,34.5360824742268
62959,Williamson County,IL,95.26493799323562,NA,NA,NA,19.587628865979383
46013,Madison County,IN,NA,NA,42.41293532338308,NA,NA
46036,Madison County,IN,NA,NA,89.80099502487562,NA,NA
46168,Hendricks County,IN,63.6978579481398,NA,NA,NA,NA
46201,Marion County,IN,18.038331454340472,NA,NA,NA,NA
46203,Marion County,IN,39.45885005636979,NA,42.78606965174129,NA,NA
46205,Marion County,IN,NA,NA,45.52238805970149,NA,NA
46208,Marion County,IN,NA,58.72235872235873,NA,NA,NA
46219,Marion County,IN,NA,NA,16.54228855721393,24.342105263157894,NA
46222,Marion County,IN,43.06651634723788,NA,NA,NA,NA
46224,Marion County,IN,28.29763246899662,NA,NA,NA,40.20618556701031
46235,Marion County,IN,45.659526493799326,NA,NA,NA,NA
46236,Marion County,IN,82.07440811724915,NA,NA,NA,NA
46254,Marion County,IN,NA,NA,NA,NA,83.50515463917526
46304,Porter County,IN,NA,NA,NA,22.697368421052634,NA
46307,Lake County,IN,NA,NA,3.233830845771144,NA,NA
46312,Lake County,IN,NA,40.04914004914005,NA,NA,28.865979381443296
46323,Lake County,IN,16.347237880496053,NA,NA,NA,93.29896907216495
46342,Lake County,IN,NA,NA,33.45771144278607,NA,NA
46356,Lake County,IN,NA,NA,NA,NA,53.09278350515464
46360,LaPorte County,IN,NA,NA,8.084577114427862,NA,NA
46368,Porter County,IN,NA,NA,4.477611940298507,NA,NA
46383,Porter County,IN,NA,45.94594594594595,NA,NA,NA
46391,LaPorte County,IN,80.15783540022548,NA,NA,NA,NA
46392,Jasper County,IN,NA,NA,77.11442786069652,NA,NA
46410,Lake County,IN,NA,NA,NA,6.907894736842106,NA
46514,Elkhart County,IN,NA,32.67813267813268,NA,NA,NA
46613,St. Joseph County,IN,98.87260428410372,NA,NA,NA,NA
46807,Allen County,IN,NA,NA,60.447761194029844,NA,NA
46825,Allen County,IN,9.695603156708005,NA,NA,NA,NA
46845,Allen County,IN,52.98759864712515,NA,NA,NA,NA
47111,Clark County,IN,77.90304396843291,NA,NA,NA,NA
47150,Floyd County,IN,NA,NA,67.16417910447761,NA,NA
47170,Scott County,IN,NA,NA,NA,NA,82.9896907216495
47201,Bartholomew County,IN,5.0732807215332585,NA,NA,NA,NA
47274,Jackson County,IN,NA,NA,37.18905472636816,NA,NA
47331,Fayette County,IN,13.979706877113868,NA,NA,NA,NA
47353,Union County,IN,NA,NA,96.64179104477611,NA,NA
47452,Orange County,IN,95.82863585118376,NA,NA,NA,NA
47501,Daviess County,IN,NA,NA,NA,29.93421052631579,NA
47630,Warrick County,IN,NA,87.46928746928747,NA,NA,NA
47714,Vanderburgh County,IN,NA,58.96805896805897,NA,NA,NA
47802,Vigo County,IN,6.087936865839909,NA,30.597014925373134,NA,NA
47807,Vigo County,IN,NA,NA,55.970149253731336,NA,NA
47842,Vermillion County,IN,NA,NA,NA,77.63157894736842,NA
47978,Jasper County,IN,72.26606538895152,NA,NA,NA,NA
50049,Lucas County,IA,NA,NA,NA,NA,76.28865979381443
50109,Dallas County,IA,100,NA,NA,NA,NA
50158,Marshall County,IA,NA,NA,35.07462686567165,NA,NA
50171,Poweshiek County,IA,NA,NA,99.37810945273633,NA,NA
50208,Jasper County,IA,46.89966178128523,NA,NA,NA,NA
50313,Polk County,IA,61.10484780157835,NA,NA,NA,NA
50315,Polk County,IA,26.155580608793688,NA,12.686567164179104,NA,NA
50317,Polk County,IA,33.14543404735062,NA,15.796019900497512,NA,NA
50401,Cerro Gordo County,IA,NA,NA,16.044776119402986,NA,NA
50501,Webster County,IA,NA,NA,32.46268656716418,NA,NA
50536,Palo Alto County,IA,NA,NA,NA,91.11842105263158,NA
50613,Black Hawk County,IA,53.43855693348365,NA,NA,NA,NA
50616,Floyd County,IA,NA,NA,75.74626865671642,NA,NA
50801,Union County,IA,NA,NA,NA,62.17105263157895,NA
51103,Woodbury County,IA,73.16798196166854,NA,NA,NA,NA
51334,Emmet County,IA,83.0890642615558,NA,NA,NA,NA
52001,Dubuque County,IA,20.631341600901916,NA,20.522388059701495,NA,NA
52246,Johnson County,IA,NA,NA,70.27363184079603,NA,NA
52404,Linn County,IA,NA,NA,12.56218905472637,NA,NA
52501,Wapello County,IA,NA,NA,18.65671641791045,NA,NA
52627,Lee County,IA,NA,67.07616707616708,NA,NA,NA
52632,Lee County,IA,NA,NA,49.004975124378106,NA,NA
52641,Henry County,IA,NA,NA,80.4726368159204,NA,NA
52722,Scott County,IA,NA,NA,26.990049751243784,NA,NA
66025,Douglas County,KS,NA,NA,95.64676616915423,NA,NA
66109,Wyandotte County,KS,NA,NA,63.80597014925373,NA,NA
66218,Johnson County,KS,NA,NA,98.75621890547264,NA,NA
67206,Sedgwick County,KS,NA,NA,96.26865671641791,NA,NA
67214,Sedgwick County,KS,NA,NA,NA,NA,95.87628865979381
67871,Scott County,KS,NA,NA,74.75124378109453,NA,NA
40057,Henry County,KY,96.50507328072153,NA,NA,NA,NA
40071,Spencer County,KY,80.94701240135288,NA,NA,NA,NA
40160,Hardin County,KY,55.2423900789177,NA,41.16915422885572,NA,NA
40175,Hardin County,KY,NA,55.03685503685504,NA,NA,NA
40203,Jefferson County,KY,NA,NA,28.35820895522388,NA,NA
40208,Jefferson County,KY,61.55580608793687,NA,NA,NA,NA
40211,Jefferson County,KY,34.61104847801578,NA,NA,NA,NA
40213,Jefferson County,KY,NA,78.37837837837837,NA,NA,NA
40214,Jefferson County,KY,23.675310033821873,NA,NA,NA,NA
40218,Jefferson County,KY,29.19954904171364,NA,NA,NA,NA
40219,Jefferson County,KY,27.62119503945885,NA,NA,NA,NA
40220,Jefferson County,KY,47.80157835400225,NA,NA,NA,NA
40299,Jefferson County,KY,50.28184892897407,NA,NA,27.302631578947366,NA
40324,Scott County,KY,NA,NA,17.537313432835823,NA,NA
40330,Mercer County,KY,NA,NA,62.810945273631845,NA,NA
40342,Anderson County,KY,NA,NA,43.28358208955223,NA,NA
40351,Rowan County,KY,57.271702367531006,NA,NA,NA,NA
40475,Madison County,KY,NA,16.216216216216218,NA,NA,NA
40503,Fayette County,KY,NA,NA,76.49253731343283,NA,NA
40508,Fayette County,KY,NA,64.61916461916462,NA,NA,NA
40511,Fayette County,KY,39.00789177001127,NA,NA,NA,NA
40517,Fayette County,KY,NA,56.01965601965602,NA,NA,NA
40965,Bell County,KY,NA,43.980343980343974,NA,NA,NA
41011,Kenton County,KY,NA,NA,53.35820895522389,NA,NA
41015,Kenton County,KY,69.7857948139797,NA,NA,NA,NA
41071,Campbell County,KY,61.89402480270575,NA,NA,NA,NA
41094,Boone County,KY,73.50620067643743,NA,NA,NA,NA
41102,Boyd County,KY,NA,NA,NA,24.671052631578945,NA
41164,Carter County,KY,50.50732807215332,NA,NA,NA,NA
41472,Morgan County,KY,93.46110484780158,NA,NA,NA,NA
42001,McCracken County,KY,57.384441939120634,NA,NA,NA,NA
42041,Fulton County,KY,NA,NA,91.4179104477612,NA,NA
42088,Graves County,KY,NA,NA,99.87562189054727,NA,NA
42101,Warren County,KY,NA,23.587223587223587,NA,NA,NA
42103,Warren County,KY,NA,NA,NA,NA,76.80412371134021
42104,Warren County,KY,52.311161217587376,NA,NA,NA,NA
42211,Trigg County,KY,NA,NA,72.51243781094527,NA,NA
42276,Logan County,KY,NA,NA,65.54726368159204,NA,NA
42303,Daviess County,KY,NA,NA,14.054726368159203,NA,NA
42366,Daviess County,KY,93.46110484780158,NA,NA,NA,NA
42437,Union County,KY,92.89740698985344,NA,NA,NA,NA
42635,McCreary County,KY,NA,NA,93.53233830845771,96.05263157894737,NA
70001,Jefferson Parish,LA,NA,4.914004914004914,NA,NA,NA
70003,Jefferson Parish,LA,NA,NA,11.691542288557214,NA,NA
70005,Jefferson Parish,LA,NA,NA,NA,NA,8.762886597938143
70006,Jefferson Parish,LA,60.766629086809466,NA,NA,NA,NA
70047,St. Charles Parish,LA,NA,NA,79.35323383084577,NA,NA
70056,Jefferson Parish,LA,NA,NA,6.8407960199004965,NA,NA
70058,Jefferson Parish,LA,0.4509582863585118,NA,NA,NA,NA
70062,Jefferson Parish,LA,NA,NA,59.950248756218905,NA,NA
70072,Jefferson Parish,LA,0.11273957158962795,NA,NA,NA,NA
70114,Orleans Parish,LA,NA,9.336609336609335,NA,NA,NA
70115,Orleans Parish,LA,NA,NA,24.378109452736318,NA,NA
70122,Orleans Parish,LA,1.1273957158962795,8.845208845208845,NA,NA,NA
70123,Jefferson Parish,LA,NA,NA,NA,NA,11.34020618556701
70128,Orleans Parish,LA,NA,71.007371007371,NA,NA,71.1340206185567
70301,Lafourche Parish,LA,NA,NA,3.9800995024875623,NA,NA
70345,Lafourche Parish,LA,54.227733934611045,NA,NA,NA,NA
70354,Lafourche Parish,LA,NA,60.44226044226044,NA,NA,NA
70359,Terrebonne Parish,LA,NA,16.953316953316953,NA,NA,NA
70363,Terrebonne Parish,LA,NA,NA,5.597014925373134,NA,41.23711340206185
70390,Assumption Parish,LA,41.26268320180383,NA,NA,NA,NA
70394,Lafourche Parish,LA,NA,NA,61.318407960199,NA,NA
70401,Tangipahoa Parish,LA,NA,NA,NA,NA,59.27835051546392
70426,Washington Parish,LA,NA,NA,71.64179104477611,NA,NA
70433,St. Tammany Parish,LA,6.538895152198422,NA,NA,NA,NA
70454,Tangipahoa Parish,LA,8.793686583990981,NA,NA,NA,NA
70466,Tangipahoa Parish,LA,NA,NA,61.19402985074627,NA,NA
70506,Lafayette Parish,LA,11.273957158962796,10.565110565110565,NA,NA,NA
70507,Lafayette Parish,LA,NA,NA,81.46766169154229,NA,NA
70508,Lafayette Parish,LA,NA,32.67813267813268,55.09950248756219,NA,NA
70510,Vermilion Parish,LA,NA,NA,14.427860696517413,NA,NA
70517,St. Martin Parish,LA,18.714768883878243,NA,NA,NA,NA
70518,Lafayette Parish,LA,99.54904171364149,NA,NA,NA,NA
70538,St. Mary Parish,LA,NA,NA,80.84577114427861,NA,NA
70582,St. Martin Parish,LA,14.768883878241262,NA,39.55223880597015,NA,NA
70592,Lafayette Parish,LA,NA,17.936117936117938,NA,NA,NA
70714,East Baton Rouge Parish,LA,NA,62.40786240786241,NA,NA,NA
70764,Iberville Parish,LA,47.80157835400225,NA,NA,NA,NA
70812,East Baton Rouge Parish,LA,NA,51.5970515970516,NA,NA,NA
70815,East Baton Rouge Parish,LA,NA,19.164619164619165,NA,NA,NA
70816,East Baton Rouge Parish,LA,NA,NA,NA,41.44736842105263,NA
71037,Bossier Parish,LA,15.558060879368659,NA,NA,NA,NA
71047,Caddo Parish,LA,91.99549041713641,NA,NA,NA,NA
71103,Caddo Parish,LA,NA,NA,62.810945273631845,NA,NA
71104,Caddo Parish,LA,33.25817361894025,NA,NA,NA,NA
71107,Caddo Parish,LA,NA,NA,4.72636815920398,NA,NA
71203,Ouachita Parish,LA,NA,NA,12.189054726368159,NA,NA
71302,Rapides Parish,LA,NA,NA,NA,NA,48.96907216494845
71322,Avoyelles Parish,LA,86.58399098083427,NA,NA,NA,NA
71360,Rapides Parish,LA,19.616685456595263,NA,NA,NA,NA
03909,York County,ME,80.27057497181511,NA,NA,NA,NA
04002,York County,ME,64.26155580608793,NA,NA,NA,NA
04011,Cumberland County,ME,NA,NA,NA,32.89473684210527,NA
04062,Cumberland County,ME,64.82525366403607,NA,NA,NA,NA
04073,York County,ME,30.101465614430666,NA,30.970149253731343,NA,NA
04079,Cumberland County,ME,NA,NA,NA,NA,74.22680412371135
04102,Cumberland County,ME,NA,NA,43.159203980099505,NA,NA
04239,Franklin County,ME,NA,95.33169533169533,NA,NA,NA
04240,Androscoggin County,ME,NA,NA,18.53233830845771,NA,NA
04330,Kennebec County,ME,4.96054114994363,NA,NA,NA,NA
04401,Penobscot County,ME,NA,16.953316953316953,NA,3.289473684210526,NA
04444,Penobscot County,ME,NA,NA,NA,72.69736842105263,NA
04654,Washington County,ME,NA,NA,NA,98.35526315789474,NA
04742,Aroostook County,ME,74.85907553551297,NA,NA,NA,NA
04769,Aroostook County,ME,NA,NA,NA,53.289473684210535,52.0618556701031
04976,Somerset County,ME,NA,62.65356265356266,NA,NA,NA
20616,Charles County,MD,99.77452085682074,NA,NA,NA,NA
20782,Prince George's County,MD,89.96617812852311,NA,NA,NA,NA
21012,Anne Arundel County,MD,NA,NA,NA,NA,77.83505154639175
21117,Baltimore County,MD,44.64487034949267,NA,NA,NA,NA
21213,Baltimore city,MD,NA,NA,25.24875621890547,NA,NA
21216,Baltimore city,MD,60.42841037204059,NA,NA,NA,NA
21217,Baltimore city,MD,6.877113866967305,NA,NA,NA,NA
21221,Baltimore County,MD,NA,NA,NA,NA,68.55670103092784
21225,Baltimore city,MD,53.551296505073275,NA,NA,NA,NA
21228,Baltimore County,MD,NA,NA,NA,16.447368421052634,NA
21601,Talbot County,MD,NA,NA,77.7363184079602,NA,NA
21617,Queen Anne's County,MD,NA,NA,94.02985074626866,NA,NA
21921,Cecil County,MD,NA,NA,NA,NA,21.1340206185567
01082,Hampshire County,MA,NA,NA,32.46268656716418,NA,NA
01089,Hampden County,MA,NA,43.980343980343974,NA,NA,NA
01105,Hampden County,MA,13.077790304396844,NA,NA,NA,NA
01108,Hampden County,MA,11.499436302142051,NA,NA,NA,NA
01109,Hampden County,MA,2.367531003382187,NA,0.3731343283582089,NA,NA
01151,Hampden County,MA,82.41262683201805,NA,NA,NA,NA
01331,Worcester County,MA,NA,64.61916461916462,NA,NA,NA
01420,Worcester County,MA,NA,3.43980343980344,NA,NA,NA
01440,Worcester County,MA,NA,NA,NA,13.815789473684212,NA
01453,Worcester County,MA,NA,NA,NA,1.644736842105263,NA
01507,Worcester County,MA,NA,NA,47.51243781094527,NA,NA
01520,Worcester County,MA,NA,NA,52.11442786069652,NA,NA
01550,Worcester County,MA,NA,NA,NA,27.631578947368425,NA
01606,Worcester County,MA,NA,NA,23.134328358208954,NA,NA
01607,Worcester County,MA,NA,NA,17.16417910447761,NA,NA
01702,Middlesex County,MA,37.31679819616686,NA,NA,NA,NA
01754,Middlesex County,MA,NA,NA,NA,NA,87.11340206185567
01757,Worcester County,MA,NA,NA,NA,NA,24.22680412371134
01801,Middlesex County,MA,NA,12.530712530712531,NA,NA,NA
01821,Middlesex County,MA,NA,NA,7.338308457711443,NA,NA
01826,Middlesex County,MA,NA,NA,NA,5.263157894736842,NA
01830,Essex County,MA,14.430665163472378,NA,NA,9.210526315789473,NA
01832,Essex County,MA,NA,NA,24.00497512437811,NA,NA
01841,Essex County,MA,6.426155580608793,NA,NA,NA,NA
01850,Middlesex County,MA,12.62683201803833,NA,NA,NA,NA
01854,Middlesex County,MA,NA,NA,3.109452736318408,NA,NA
01880,Middlesex County,MA,NA,NA,NA,8.552631578947368,NA
01902,Essex County,MA,7.5535512965050735,NA,0.7462686567164178,NA,NA
01904,Essex County,MA,NA,NA,14.676616915422885,NA,NA
01905,Essex County,MA,19.27846674182638,11.302211302211303,2.36318407960199,NA,NA
01923,Essex County,MA,NA,NA,NA,NA,3.0927835051546393
01930,Essex County,MA,NA,NA,NA,10.197368421052632,NA
01938,Essex County,MA,NA,NA,NA,59.86842105263158,NA
01952,Essex County,MA,NA,NA,68.90547263681593,NA,54.123711340206185
01970,Essex County,MA,NA,9.828009828009828,NA,NA,NA
02118,Suffolk County,MA,26.042841037204056,NA,0.24875621890547264,NA,6.701030927835052
02119,Suffolk County,MA,NA,2.9484029484029484,0.12437810945273632,NA,NA
02121,Suffolk County,MA,NA,NA,NA,0.6578947368421052,NA
02122,Suffolk County,MA,NA,8.5995085995086,NA,NA,NA
02124,Suffolk County,MA,NA,NA,NA,0,NA
02125,Suffolk County,MA,NA,NA,1.1194029850746268,NA,NA
02126,Suffolk County,MA,NA,NA,1.4925373134328357,NA,NA
02129,Suffolk County,MA,NA,NA,24.62686567164179,NA,NA
02130,Suffolk County,MA,NA,NA,40.42288557213931,NA,NA
02131,Suffolk County,MA,NA,NA,2.736318407960199,NA,NA
02139,Middlesex County,MA,NA,NA,0.6218905472636816,NA,NA
02148,Middlesex County,MA,NA,1.71990171990172,0,NA,NA
02149,Middlesex County,MA,NA,NA,0.4975124378109453,NA,NA
02151,Suffolk County,MA,NA,NA,2.8606965174129355,NA,NA
02169,Norfolk County,MA,NA,NA,1.2437810945273633,NA,NA
02301,Plymouth County,MA,0.2254791431792559,NA,NA,NA,1.0309278350515463
02343,Norfolk County,MA,69.44757609921083,NA,NA,NA,NA
02346,Plymouth County,MA,NA,NA,NA,15.789473684210526,NA
02368,Norfolk County,MA,77.33934611048478,NA,NA,NA,NA
02453,Middlesex County,MA,NA,NA,13.308457711442786,NA,NA
02474,Middlesex County,MA,NA,NA,NA,NA,14.432989690721648
02482,Norfolk County,MA,NA,NA,NA,84.86842105263158,NA
02536,Barnstable County,MA,54.56595264937994,NA,NA,NA,NA
02568,Dukes County,MA,NA,NA,79.72636815920397,NA,NA
02639,Barnstable County,MA,NA,NA,91.91542288557214,NA,NA
02664,Barnstable County,MA,NA,NA,64.92537313432835,45.06578947368421,NA
02703,Bristol County,MA,NA,NA,1.9900497512437811,NA,NA
02720,Bristol County,MA,NA,NA,29.975124378109452,NA,NA
02721,Bristol County,MA,22.322435174746335,NA,1.3681592039800996,NA,NA
02723,Bristol County,MA,NA,NA,4.228855721393035,NA,NA
02746,Bristol County,MA,NA,12.285012285012286,3.6069651741293534,NA,NA
48021,Macomb County,MI,NA,NA,NA,23.026315789473685,NA
48026,Macomb County,MI,NA,NA,44.40298507462687,NA,NA
48036,Macomb County,MI,NA,NA,NA,34.21052631578947,NA
48047,Macomb County,MI,20.067643742953777,NA,18.034825870646767,NA,NA
48059,St. Clair County,MI,NA,93.36609336609337,NA,NA,NA
48065,Macomb County,MI,74.06989853438557,NA,NA,NA,NA
48066,Macomb County,MI,NA,NA,4.975124378109453,11.513157894736842,NA
48067,Oakland County,MI,NA,NA,NA,NA,73.19587628865979
48082,Macomb County,MI,NA,NA,NA,NA,28.865979381443296
48083,Oakland County,MI,56.25704622322435,NA,NA,NA,NA
48089,Macomb County,MI,NA,28.255528255528255,11.442786069651742,NA,NA
48091,Macomb County,MI,NA,30.71253071253071,9.577114427860696,NA,NA
48094,Macomb County,MI,NA,NA,59.82587064676616,NA,NA
48111,Wayne County,MI,NA,NA,10.074626865671641,NA,NA
48127,Wayne County,MI,NA,NA,16.91542288557214,NA,NA
48130,Washtenaw County,MI,NA,NA,NA,NA,80.41237113402062
48135,Wayne County,MI,39.57158962795941,NA,NA,NA,NA
48141,Wayne County,MI,NA,NA,12.064676616915424,NA,NA
48154,Wayne County,MI,NA,NA,31.716417910447763,NA,NA
48161,Monroe County,MI,NA,NA,10.696517412935323,NA,NA
48167,Oakland County,MI,NA,NA,48.756218905472636,NA,NA
48169,Livingston County,MI,NA,NA,NA,NA,36.08247422680412
48174,Wayne County,MI,6.6516347237880495,NA,NA,NA,NA
48180,Wayne County,MI,17.474633596392334,10.073710073710075,NA,NA,NA
48185,Wayne County,MI,8.90642615558061,NA,NA,NA,NA
48187,Wayne County,MI,NA,NA,14.303482587064675,NA,NA
48188,Wayne County,MI,7.7790304396843295,NA,NA,NA,NA
48198,Washtenaw County,MI,2.818489289740699,NA,4.104477611940299,NA,NA
48205,Wayne County,MI,NA,NA,6.0945273631840795,NA,NA
48207,Wayne County,MI,19.95490417136415,58.96805896805897,NA,NA,NA
48209,Wayne County,MI,28.29763246899662,NA,NA,NA,NA
48213,Wayne County,MI,NA,NA,15.049751243781095,NA,NA
48214,Wayne County,MI,51.97294250281848,NA,NA,NA,NA
48217,Wayne County,MI,89.17700112739571,NA,NA,NA,NA
48221,Wayne County,MI,32.91995490417137,25.307125307125304,7.587064676616915,NA,NA
48223,Wayne County,MI,18.489289740698986,NA,NA,NA,NA
48224,Wayne County,MI,NA,14.742014742014742,NA,NA,NA
48227,Wayne County,MI,33.25817361894025,NA,NA,NA,NA
48228,Wayne County,MI,15.89627959413754,5.651105651105651,2.6119402985074625,NA,NA
48234,Wayne County,MI,NA,NA,11.318407960199005,NA,NA
48235,Wayne County,MI,6.989853438556934,NA,3.8557213930348255,NA,NA
48236,Wayne County,MI,NA,NA,NA,NA,12.886597938144329
48238,Wayne County,MI,12.175873731679818,NA,NA,NA,NA
48239,Wayne County,MI,NA,NA,NA,NA,41.75257731958763
48314,Macomb County,MI,NA,NA,NA,NA,27.835051546391753
48315,Macomb County,MI,51.97294250281848,NA,NA,NA,NA
48329,Oakland County,MI,61.44306651634723,NA,NA,NA,29.896907216494846
48340,Oakland County,MI,NA,NA,NA,43.09210526315789,NA
48342,Oakland County,MI,NA,NA,19.029850746268657,NA,NA
48356,Oakland County,MI,NA,NA,97.51243781094527,NA,NA
48377,Oakland County,MI,86.35851183765502,NA,NA,NA,NA
48439,Genesee County,MI,23.337091319052988,NA,NA,NA,NA
48446,Lapeer County,MI,NA,NA,53.60696517412935,NA,NA
48461,Lapeer County,MI,92.10822998872604,NA,NA,NA,NA
48504,Genesee County,MI,15.332581736189402,NA,NA,NA,NA
48506,Genesee County,MI,NA,NA,31.592039800995025,NA,51.03092783505154
48507,Genesee County,MI,NA,31.44963144963145,NA,NA,NA
48601,Saginaw County,MI,NA,NA,3.3582089552238807,NA,NA
48602,Saginaw County,MI,3.9458850056369785,NA,5.223880597014925,NA,NA
48622,Clare County,MI,NA,NA,80.59701492537313,NA,NA
48625,Clare County,MI,NA,80.34398034398035,NA,NA,NA
48640,Midland County,MI,NA,NA,13.930348258706468,NA,NA
48647,Oscoda County,MI,NA,NA,NA,95.06578947368422,NA
48650,Bay County,MI,66.06538895152198,NA,NA,NA,NA
48653,Roscommon County,MI,NA,NA,94.5273631840796,NA,NA
48657,Midland County,MI,NA,NA,NA,NA,54.123711340206185
48723,Tuscola County,MI,73.16798196166854,NA,NA,29.276315789473685,NA
48854,Ingham County,MI,NA,NA,58.2089552238806,NA,NA
48858,Isabella County,MI,NA,NA,8.955223880597014,NA,NA
48884,Montcalm County,MI,94.02480270574972,NA,NA,NA,NA
48911,Ingham County,MI,NA,49.631449631449634,NA,NA,NA
49001,Kalamazoo County,MI,43.51747463359639,NA,NA,NA,61.34020618556701
49015,Calhoun County,MI,25.140924464487036,NA,NA,NA,NA
49022,Berrien County,MI,NA,NA,44.02985074626866,NA,NA
49065,Van Buren County,MI,84.6674182638106,NA,NA,NA,NA
49107,Berrien County,MI,NA,NA,92.16417910447761,NA,NA
49203,Jackson County,MI,NA,NA,10.945273631840797,9.539473684210527,NA
49221,Lenawee County,MI,25.25366403607666,NA,NA,NA,NA
49242,Hillsdale County,MI,82.75084554678692,NA,NA,NA,NA
49307,Mecosta County,MI,NA,81.57248157248156,60.94527363184079,NA,NA
49408,Allegan County,MI,41.48816234498309,NA,NA,NA,NA
49423,Ottawa County,MI,NA,NA,NA,NA,7.216494845360824
49424,Ottawa County,MI,NA,NA,20.024875621890548,NA,NA
49426,Ottawa County,MI,NA,NA,NA,46.381578947368425,NA
49431,Mason County,MI,25.591882750845546,NA,NA,NA,NA
49444,Muskegon County,MI,21.195039458850058,NA,NA,NA,NA
49503,Kent County,MI,14.317925591882751,NA,NA,NA,NA
49504,Kent County,MI,NA,NA,NA,NA,10.824742268041238
49507,Kent County,MI,1.8038331454340473,NA,7.462686567164178,NA,NA
49508,Kent County,MI,NA,55.528255528255535,34.950248756218905,NA,NA
49509,Kent County,MI,32.35625704622323,NA,NA,NA,NA
49633,Kalkaska County,MI,NA,NA,93.90547263681593,NA,NA
49660,Manistee County,MI,94.47576099210822,NA,NA,NA,NA
49677,Osceola County,MI,87.37316798196166,NA,NA,NA,NA
49686,Grand Traverse County,MI,NA,NA,NA,31.907894736842106,NA
49712,Charlevoix County,MI,93.79932356257046,NA,NA,NA,NA
49920,Iron County,MI,NA,NA,NA,NA,79.89690721649485
55038,Washington County,MN,78.01578354002254,NA,NA,NA,NA
55041,Wabasha County,MN,95.71589627959413,NA,NA,NA,NA
55045,Chisago County,MN,91.65727170236752,NA,NA,NA,NA
55051,Kanabec County,MN,NA,83.53808353808354,NA,NA,NA
55063,Pine County,MN,NA,NA,82.58706467661692,NA,61.855670103092784
55066,Goodhue County,MN,NA,NA,NA,24.013157894736842,11.855670103092782
55082,Washington County,MN,NA,NA,NA,67.76315789473685,NA
55104,Ramsey County,MN,NA,NA,19.65174129353234,NA,NA
55116,Ramsey County,MN,NA,NA,NA,66.11842105263158,NA
55122,Dakota County,MN,NA,77.88697788697789,NA,70.39473684210526,NA
55130,Ramsey County,MN,NA,34.88943488943489,NA,NA,NA
55311,Hennepin County,MN,43.85569334836528,NA,NA,NA,NA
55313,Wright County,MN,NA,NA,64.6766169154229,NA,NA
55337,Dakota County,MN,NA,55.03685503685504,NA,NA,NA
55355,Meeker County,MN,87.03494926719279,NA,NA,NA,NA
55362,Wright County,MN,NA,47.91154791154791,76.11940298507463,NA,NA
55369,Hennepin County,MN,NA,NA,43.03482587064676,NA,NA
55401,Hennepin County,MN,NA,NA,NA,NA,100
55403,Hennepin County,MN,NA,99.5085995085995,65.79601990049751,NA,NA
55406,Hennepin County,MN,28.635851183765503,NA,NA,NA,NA
55407,Hennepin County,MN,NA,4.668304668304668,9.07960199004975,NA,NA
55409,Hennepin County,MN,NA,71.25307125307125,NA,NA,NA
55411,Hennepin County,MN,34.49830890642615,4.176904176904177,NA,NA,NA
55421,Anoka County,MN,NA,49.385749385749385,NA,56.25,43.29896907216495
55423,Hennepin County,MN,NA,NA,NA,48.35526315789473,NA
55425,Hennepin County,MN,NA,66.33906633906635,NA,NA,NA
55429,Hennepin County,MN,NA,NA,50.24875621890548,NA,NA
55433,Anoka County,MN,NA,NA,43.90547263681592,NA,NA
55434,Anoka County,MN,66.06538895152198,NA,NA,NA,NA
55437,Hennepin County,MN,68.32018038331455,NA,NA,NA,NA
55443,Hennepin County,MN,44.983089064261556,NA,NA,NA,NA
55448,Anoka County,MN,NA,NA,NA,NA,56.70103092783505
55454,Hennepin County,MN,94.81397970687712,NA,NA,NA,NA
55734,St. Louis County,MN,NA,NA,NA,NA,62.88659793814433
55746,St. Louis County,MN,40.58624577226607,NA,81.59203980099502,NA,NA
55901,Olmsted County,MN,NA,NA,NA,32.23684210526316,NA
55904,Olmsted County,MN,NA,NA,44.65174129353234,NA,NA
55912,Mower County,MN,NA,NA,NA,5.921052631578947,NA
55921,Houston County,MN,NA,NA,NA,NA,63.4020618556701
55947,Houston County,MN,NA,NA,NA,65.46052631578947,NA
55987,Winona County,MN,NA,21.13022113022113,11.940298507462686,NA,NA
56082,Nicollet County,MN,NA,NA,NA,86.51315789473685,NA
56093,Waseca County,MN,NA,NA,78.85572139303483,NA,NA
56097,Faribault County,MN,NA,85.995085995086,NA,NA,NA
56308,Douglas County,MN,NA,NA,NA,16.776315789473685,NA
56362,Stearns County,MN,NA,NA,97.01492537313433,NA,NA
56364,Morrison County,MN,NA,94.5945945945946,NA,NA,NA
56431,Aitkin County,MN,NA,NA,NA,50.32894736842105,NA
56473,Cass County,MN,NA,85.5036855036855,NA,NA,NA
56560,Clay County,MN,1.2401352874859075,NA,37.3134328358209,NA,NA
56572,Otter Tail County,MN,97.85794813979707,NA,NA,NA,NA
56601,Beltrami County,MN,29.988726042841034,NA,NA,NA,NA
56633,Hubbard County,MN,NA,NA,NA,79.60526315789474,NA
56649,Koochiching County,MN,NA,50.122850122850124,NA,NA,NA
56721,Polk County,MN,NA,NA,63.80597014925373,NA,NA
56763,Roseau County,MN,96.95603156708005,NA,NA,NA,NA
38643,Quitman County,MS,NA,100,NA,NA,NA
38668,Tate County,MS,NA,NA,NA,89.14473684210526,NA
38701,Washington County,MS,NA,46.43734643734644,NA,NA,NA
38703,Washington County,MS,60.20293122886133,NA,NA,NA,NA
38804,Lee County,MS,NA,NA,NA,84.21052631578947,NA
38863,Pontotoc County,MS,80.608793686584,NA,NA,NA,NA
38866,Lee County,MS,NA,NA,NA,86.8421052631579,NA
39042,Rankin County,MS,33.70913190529876,NA,NA,NA,NA
39059,Copiah County,MS,NA,NA,84.95024875621891,NA,NA
39090,Attala County,MS,NA,NA,77.86069651741293,NA,NA
39150,Claiborne County,MS,NA,NA,NA,91.44736842105263,NA
39183,Warren County,MS,87.71138669673056,NA,NA,NA,NA
39189,Leake County,MS,NA,NA,97.88557213930348,NA,NA
39204,Hinds County,MS,8.004509582863585,NA,29.601990049751244,NA,NA
39209,Hinds County,MS,NA,NA,NA,57.23684210526315,NA
39213,Hinds County,MS,22.77339346110485,21.62162162162162,NA,NA,NA
39218,Rankin County,MS,NA,NA,90.54726368159204,NA,NA
39426,Pearl River County,MS,NA,NA,NA,48.68421052631579,NA
39501,Harrison County,MS,23.562570462232244,NA,NA,NA,NA
39503,Harrison County,MS,NA,32.432432432432435,NA,NA,NA
39520,Hancock County,MS,NA,NA,NA,47.69736842105263,NA
39532,Harrison County,MS,65.50169109357384,NA,NA,NA,NA
39540,Harrison County,MS,NA,NA,85.94527363184079,NA,NA
39648,Pike County,MS,67.19278466741827,NA,NA,NA,NA
39701,Lowndes County,MS,77.11386696730553,NA,NA,NA,NA
39702,Lowndes County,MS,21.307779030439683,NA,NA,NA,NA
63021,St. Louis County,MO,69.7857948139797,NA,NA,NA,NA
63033,St. Louis County,MO,NA,32.67813267813268,NA,NA,NA
63103,St. Louis city,MO,NA,NA,NA,NA,96.3917525773196
63106,St. Louis city,MO,71.25140924464488,NA,NA,NA,NA
63111,St. Louis city,MO,71.81510710259302,NA,NA,NA,NA
63122,St. Louis County,MO,NA,NA,NA,28.947368421052634,NA
63125,St. Louis County,MO,66.85456595264938,NA,NA,NA,NA
63128,St. Louis County,MO,NA,NA,80.59701492537313,NA,NA
63137,St. Louis County,MO,29.87598647125141,NA,NA,NA,NA
63146,St. Louis County,MO,NA,NA,NA,NA,7.731958762886598
63147,St. Louis city,MO,88.50056369785794,NA,NA,NA,93.81443298969072
63303,St. Charles County,MO,NA,75.42997542997543,NA,NA,NA
63367,St. Charles County,MO,NA,NA,66.29353233830845,NA,NA
63379,Lincoln County,MO,36.52762119503946,NA,NA,NA,NA
63383,Warren County,MO,NA,NA,NA,51.973684210526315,NA
63385,St. Charles County,MO,19.39120631341601,NA,NA,17.763157894736842,NA
63701,Cape Girardeau County,MO,NA,52.825552825552826,NA,NA,NA
63857,Dunklin County,MO,74.63359639233371,NA,NA,NA,NA
63957,Wayne County,MO,97.40698985343855,NA,NA,NA,NA
64030,Jackson County,MO,13.077790304396844,NA,NA,NA,NA
64050,Jackson County,MO,14.205186020293123,NA,NA,NA,NA
64057,Jackson County,MO,NA,NA,NA,NA,53.608247422680414
64063,Jackson County,MO,NA,NA,47.38805970149254,NA,NA
64064,Jackson County,MO,61.10484780157835,NA,NA,NA,NA
64068,Clay County,MO,0.6764374295377678,NA,NA,NA,NA
64083,Cass County,MO,NA,NA,44.776119402985074,NA,NA
64118,Clay County,MO,13.303269447576099,NA,NA,NA,NA
64127,Jackson County,MO,13.416009019165728,NA,NA,NA,NA
64128,Jackson County,MO,21.42051860202931,NA,NA,NA,NA
64132,Jackson County,MO,NA,NA,19.65174129353234,NA,NA
64133,Jackson County,MO,NA,51.105651105651106,NA,NA,NA
64137,Jackson County,MO,NA,NA,82.2139303482587,NA,NA
64138,Jackson County,MO,23.788049605411498,NA,NA,20.065789473684212,NA
64150,Platte County,MO,NA,91.8918918918919,NA,NA,NA
64152,Platte County,MO,NA,76.65847665847666,NA,NA,NA
64429,Clinton County,MO,NA,NA,58.70646766169154,NA,NA
64468,Nodaway County,MO,NA,NA,75.12437810945273,NA,NA
64501,Buchanan County,MO,87.59864712514093,NA,NA,NA,NA
64601,Livingston County,MO,NA,NA,NA,52.30263157894737,NA
64730,Bates County,MO,79.25591882750845,NA,NA,NA,NA
64759,Barton County,MO,86.80947012401353,NA,NA,NA,NA
64801,Jasper County,MO,NA,NA,17.288557213930346,NA,NA
64856,McDonald County,MO,NA,NA,98.2587064676617,NA,NA
64870,Jasper County,MO,NA,NA,NA,NA,75.25773195876289
65270,Randolph County,MO,NA,NA,37.81094527363184,NA,NA
65301,Pettis County,MO,12.73957158962796,NA,NA,12.171052631578947,NA
65340,Saline County,MO,67.98196166854565,NA,NA,NA,NA
65536,Laclede County,MO,NA,24.324324324324326,NA,NA,NA
65605,Lawrence County,MO,84.10372040586246,NA,NA,NA,NA
65606,Oregon County,MO,92.89740698985344,NA,NA,NA,NA
65613,Polk County,MO,67.98196166854565,NA,NA,NA,NA
65737,Stone County,MO,NA,82.80098280098281,NA,NA,NA
65803,Greene County,MO,NA,NA,NA,NA,21.649484536082475
65804,Greene County,MO,NA,NA,38.930348258706466,NA,NA
59405,Cascade County,MT,NA,NA,NA,20.723684210526315,NA
59701,Silver Bow County,MT,NA,NA,NA,NA,47.93814432989691
59802,Missoula County,MT,NA,NA,89.6766169154229,NA,NA
68105,Douglas County,NE,85.23111612175873,NA,NA,NA,NA
68110,Douglas County,NE,NA,88.45208845208845,NA,NA,NA
68131,Douglas County,NE,74.85907553551297,NA,NA,NA,NA
68135,Douglas County,NE,NA,NA,NA,77.30263157894737,NA
68147,Sarpy County,NE,NA,NA,92.7860696517413,NA,NA
68701,Madison County,NE,54.904171364148816,NA,NA,NA,NA
69101,Lincoln County,NE,NA,NA,NA,28.618421052631575,NA
69361,Scotts Bluff County,NE,80.04509582863585,NA,NA,70.06578947368422,NA
89102,Clark County,NV,NA,77.39557739557739,NA,NA,NA
89106,Clark County,NV,NA,70.02457002457002,NA,NA,NA
89110,Clark County,NV,56.59526493799324,NA,NA,NA,NA
89115,Clark County,NV,39.79706877113867,NA,62.56218905472637,NA,NA
89121,Clark County,NV,NA,NA,36.44278606965174,NA,NA
89128,Clark County,NV,57.384441939120634,NA,NA,77.63157894736842,NA
89142,Clark County,NV,NA,NA,75.3731343283582,NA,NA
89147,Clark County,NV,86.35851183765502,NA,NA,NA,NA
89148,Clark County,NV,65.7271702367531,NA,NA,NA,NA
89156,Clark County,NV,NA,NA,NA,NA,97.42268041237114
89169,Clark County,NV,98.64712514092446,NA,NA,NA,NA
89403,Lyon County,NV,53.551296505073275,NA,NA,NA,NA
89408,Lyon County,NV,NA,NA,45.8955223880597,NA,NA
89410,Douglas County,NV,83.8782412626832,NA,NA,NA,NA
89431,Washoe County,NV,NA,NA,NA,NA,30.927835051546392
89433,Washoe County,NV,NA,NA,NA,65.78947368421053,NA
89502,Washoe County,NV,20.856820744081173,NA,NA,NA,NA
89503,Washoe County,NV,NA,NA,68.65671641791045,NA,NA
89506,Washoe County,NV,41.26268320180383,NA,24.129353233830848,NA,NA
89511,Washoe County,NV,NA,NA,NA,33.55263157894737,NA
03064,Hillsborough County,NH,13.528748590755354,NA,NA,NA,NA
03102,Hillsborough County,NH,NA,NA,NA,NA,8.24742268041237
03103,Hillsborough County,NH,2.480270574971815,NA,8.333333333333332,NA,NA
03275,Merrimack County,NH,56.59526493799324,NA,NA,NA,NA
03301,Merrimack County,NH,NA,NA,NA,16.11842105263158,NA
03773,Sullivan County,NH,NA,NA,87.68656716417911,NA,NA
03820,Strafford County,NH,37.0913190529876,NA,28.109452736318406,NA,NA
03833,Rockingham County,NH,NA,NA,47.2636815920398,NA,NA
03842,Rockingham County,NH,NA,98.77149877149877,NA,NA,NA
03867,Strafford County,NH,34.38556933483653,NA,NA,33.55263157894737,NA
07012,Passaic County,NJ,79.0304396843292,NA,NA,NA,NA
07017,Essex County,NJ,NA,NA,NA,19.078947368421055,NA
07032,Hudson County,NJ,NA,NA,NA,37.17105263157895,NA
07047,Hudson County,NJ,41.713641488162345,NA,NA,NA,NA
07060,Union County,NJ,NA,3.9312039312039313,NA,NA,NA
07087,Hudson County,NJ,NA,3.6855036855036856,NA,NA,NA
07093,Hudson County,NJ,21.871476888387825,NA,36.56716417910448,NA,NA
07102,Essex County,NJ,70.68771138669673,NA,11.194029850746269,NA,NA
07103,Essex County,NJ,NA,NA,NA,3.9473684210526314,NA
07106,Essex County,NJ,8.117249154453212,NA,NA,NA,NA
07107,Essex County,NJ,NA,NA,2.2388059701492535,NA,NA
07202,Union County,NJ,NA,7.125307125307126,36.318407960199,NA,NA
07206,Union County,NJ,10.372040586245772,NA,NA,NA,NA
07208,Union County,NJ,NA,37.83783783783784,NA,NA,NA
07305,Hudson County,NJ,7.328072153325817,NA,NA,NA,NA
07470,Passaic County,NJ,NA,NA,21.641791044776117,NA,NA
07512,Passaic County,NJ,NA,NA,NA,95.72368421052632,NA
07514,Passaic County,NJ,NA,NA,39.800995024875625,NA,NA
07657,Bergen County,NJ,NA,NA,NA,84.53947368421053,NA
07728,Monmouth County,NJ,10.822998872604284,NA,NA,NA,NA
07828,Morris County,NJ,NA,NA,66.91542288557214,NA,NA
08005,Ocean County,NJ,NA,NA,NA,73.35526315789474,NA
08016,Burlington County,NJ,NA,NA,NA,68.0921052631579,NA
08021,Camden County,NJ,NA,NA,23.88059701492537,NA,NA
08028,Gloucester County,NJ,NA,NA,23.6318407960199,NA,NA
08037,Atlantic County,NJ,NA,NA,NA,25.32894736842105,NA
08043,Camden County,NJ,NA,NA,NA,26.973684210526315,NA
08050,Ocean County,NJ,NA,NA,45.646766169154226,NA,NA
08060,Burlington County,NJ,NA,NA,20.64676616915423,NA,NA
08077,Burlington County,NJ,NA,NA,41.417910447761194,NA,NA
08079,Salem County,NJ,NA,NA,81.09452736318407,NA,NA
08081,Camden County,NJ,NA,15.724815724815725,NA,NA,NA
08091,Camden County,NJ,84.55467869222097,NA,NA,NA,NA
08103,Camden County,NJ,NA,NA,6.965174129353234,NA,NA
08105,Camden County,NJ,5.749718151071026,NA,NA,NA,NA
08110,Camden County,NJ,NA,NA,17.786069651741293,NA,NA
08205,Atlantic County,NJ,NA,NA,NA,25.986842105263158,NA
08210,Cape May County,NJ,NA,NA,NA,91.77631578947368,NA
08401,Atlantic County,NJ,3.6076662908680945,2.211302211302211,0.9950248756218906,NA,NA
08701,Ocean County,NJ,0,0.9828009828009828,4.601990049751244,NA,NA
08723,Ocean County,NJ,41.60090191657272,NA,NA,NA,NA
08742,Ocean County,NJ,NA,NA,NA,80.5921052631579,NA
08861,Middlesex County,NJ,4.735062006764374,NA,NA,NA,NA
08873,Somerset County,NJ,NA,NA,19.27860696517413,NA,NA
08901,Middlesex County,NJ,43.74295377677565,1.71990171990172,NA,NA,NA
87001,Sandoval County,NM,NA,51.5970515970516,NA,NA,NA
87013,Sandoval County,NM,NA,NA,NA,99.01315789473685,NA
87105,Bernalillo County,NM,NA,7.862407862407863,NA,NA,NA
87106,Bernalillo County,NM,28.635851183765503,NA,NA,NA,NA
87108,Bernalillo County,NM,16.57271702367531,NA,9.701492537313433,NA,31.443298969072163
87114,Bernalillo County,NM,NA,NA,40.92039800995025,NA,NA
87120,Bernalillo County,NM,NA,NA,NA,NA,25.257731958762886
87121,Bernalillo County,NM,NA,NA,6.343283582089552,NA,NA
87123,Bernalillo County,NM,24.01352874859076,NA,NA,NA,NA
87124,Sandoval County,NM,31.4543404735062,NA,NA,NA,NA
87301,McKinley County,NM,69.10935738444194,NA,NA,NA,NA
87325,McKinley County,NM,NA,NA,96.76616915422885,NA,NA
87327,Cibola County,NM,NA,NA,75.99502487562188,NA,NA
87401,San Juan County,NM,41.1499436302142,NA,NA,NA,NA
87528,Rio Arriba County,NM,83.0890642615558,NA,91.7910447761194,NA,NA
87701,San Miguel County,NM,NA,59.7051597051597,NA,57.56578947368421,NA
88005,Doa Ana County,NM,NA,NA,51.49253731343284,NA,NA
88008,Doa Ana County,NM,NA,NA,96.14427860696517,NA,NA
88030,Luna County,NM,77.0011273957159,NA,70.39800995024875,NA,NA
88061,Grant County,NM,NA,69.04176904176904,79.97512437810946,NA,NA
88101,Curry County,NM,35.062006764374296,NA,NA,NA,NA
88220,Eddy County,NM,67.3055242390079,NA,NA,NA,NA
88240,Lea County,NM,NA,NA,8.582089552238806,NA,NA
88260,Lea County,NM,NA,NA,49.37810945273632,NA,NA
10001,New York County,NY,NA,NA,16.666666666666664,NA,NA
10002,New York County,NY,NA,NA,NA,4.934210526315789,NA
10014,New York County,NY,NA,NA,90.29850746268657,NA,NA
10018,New York County,NY,NA,NA,NA,NA,93.81443298969072
10025,New York County,NY,25.70462232243517,NA,8.45771144278607,NA,NA
10026,New York County,NY,NA,NA,33.2089552238806,NA,NA
10029,New York County,NY,NA,0,1.7412935323383085,NA,NA
10031,New York County,NY,NA,11.793611793611793,NA,NA,NA
10034,New York County,NY,70.34949267192785,NA,NA,NA,NA
10035,New York County,NY,20.856820744081173,NA,NA,NA,NA
10037,New York County,NY,78.46674182638105,NA,NA,NA,NA
10038,New York County,NY,77.67756482525367,NA,NA,49.01315789473684,56.18556701030928
10039,New York County,NY,NA,NA,NA,NA,43.81443298969072
10040,New York County,NY,54.904171364148816,NA,40.79601990049751,NA,NA
10075,New York County,NY,NA,NA,NA,70.72368421052632,NA
10302,Richmond County,NY,83.54002254791432,NA,NA,NA,NA
10303,Richmond County,NY,86.58399098083427,NA,48.134328358208954,NA,NA
10304,Richmond County,NY,15.670800450958286,NA,NA,NA,NA
10305,Richmond County,NY,NA,NA,NA,20.394736842105264,NA
10310,Richmond County,NY,50.28184892897407,NA,NA,NA,NA
10451,Bronx County,NY,33.59639233370913,NA,NA,NA,NA
10452,Bronx County,NY,1.6910935738444193,NA,1.8656716417910446,NA,NA
10454,Bronx County,NY,11.61217587373168,NA,NA,NA,NA
10455,Bronx County,NY,15.44532130777903,NA,NA,NA,NA
10456,Bronx County,NY,5.636978579481398,NA,4.353233830845771,0.3289473684210526,NA
10457,Bronx County,NY,NA,NA,NA,1.9736842105263157,NA
10458,Bronx County,NY,NA,0.7371007371007371,28.855721393034827,0.9868421052631579,NA
10459,Bronx County,NY,37.88049605411499,5.405405405405405,30.34825870646766,NA,NA
10460,Bronx County,NY,0.7891770011273956,2.457002457002457,NA,2.9605263157894735,NA
10461,Bronx County,NY,27.395715896279594,NA,NA,NA,NA
10462,Bronx County,NY,NA,NA,NA,33.223684210526315,NA
10465,Bronx County,NY,NA,NA,39.67661691542288,NA,NA
10466,Bronx County,NY,NA,3.194103194103194,NA,NA,NA
10467,Bronx County,NY,10.710259301014656,0.4914004914004914,NA,NA,NA
10473,Bronx County,NY,NA,19.901719901719904,NA,NA,NA
10532,Westchester County,NY,NA,NA,NA,NA,95.36082474226805
10549,Westchester County,NY,NA,NA,NA,NA,88.65979381443299
10580,Westchester County,NY,NA,NA,NA,94.4078947368421,NA
10605,Westchester County,NY,89.62795941375423,NA,NA,NA,NA
10701,Westchester County,NY,NA,NA,NA,30.92105263157895,NA
10703,Westchester County,NY,83.54002254791432,NA,NA,NA,NA
10977,Rockland County,NY,NA,NA,74.25373134328358,NA,NA
11003,Nassau County,NY,NA,NA,NA,NA,46.90721649484536
11106,Queens County,NY,NA,NA,60.19900497512438,NA,NA
11203,Kings County,NY,49.379932356257044,NA,NA,NA,NA
11205,Kings County,NY,62.45772266065389,NA,NA,NA,NA
11206,Kings County,NY,NA,2.7027027027027026,NA,NA,NA
11209,Kings County,NY,NA,61.91646191646192,NA,NA,NA
11210,Kings County,NY,61.55580608793687,NA,NA,NA,NA
11212,Kings County,NY,54.11499436302142,1.2285012285012284,2.1144278606965177,NA,NA
11213,Kings County,NY,30.89064261555806,NA,NA,NA,NA
11216,Kings County,NY,NA,30.46683046683047,67.41293532338308,NA,NA
11219,Kings County,NY,9.131905298759865,NA,NA,NA,NA
11220,Kings County,NY,30.665163472378804,0.2457002457002457,NA,NA,NA
11223,Kings County,NY,NA,NA,27.363184079601986,NA,NA
11224,Kings County,NY,33.70913190529876,5.896805896805897,NA,NA,NA
11226,Kings County,NY,NA,NA,47.13930348258707,NA,NA
11230,Kings County,NY,39.23337091319053,NA,NA,NA,NA
11234,Kings County,NY,43.17925591882751,NA,25.621890547263682,NA,NA
11236,Kings County,NY,NA,NA,5.845771144278607,NA,NA
11238,Kings County,NY,49.6054114994363,NA,NA,NA,NA
11239,Kings County,NY,NA,NA,NA,NA,35.051546391752574
11355,Queens County,NY,14.543404735062007,6.6339066339066335,36.19402985074627,NA,NA
11361,Queens County,NY,NA,NA,NA,81.57894736842105,NA
11367,Queens County,NY,NA,NA,55.970149253731336,NA,NA
11368,Queens County,NY,46.89966178128523,14.496314496314497,NA,NA,NA
11369,Queens County,NY,42.05186020293123,NA,NA,NA,NA
11372,Queens County,NY,21.98421645997745,29.238329238329236,NA,NA,NA
11373,Queens County,NY,8.680947012401354,6.388206388206388,NA,NA,NA
11377,Queens County,NY,NA,NA,22.512437810945272,NA,NA
11416,Queens County,NY,77.33934611048478,NA,NA,NA,NA
11423,Queens County,NY,NA,60.44226044226044,NA,NA,NA
11429,Queens County,NY,NA,NA,NA,37.82894736842105,NA
11432,Queens County,NY,52.649379932356254,NA,NA,9.868421052631579,NA
11433,Queens County,NY,55.46786922209696,NA,NA,NA,NA
11554,Nassau County,NY,NA,94.84029484029483,NA,NA,NA
11590,Nassau County,NY,NA,NA,55.72139303482587,NA,NA
11717,Suffolk County,NY,22.886133032694474,NA,NA,NA,NA
11942,Suffolk County,NY,NA,NA,100,NA,NA
11951,Suffolk County,NY,NA,72.48157248157248,NA,NA,NA
11967,Suffolk County,NY,69.67305524239008,NA,NA,NA,NA
12018,Rensselaer County,NY,NA,NA,NA,NA,88.14432989690721
12019,Saratoga County,NY,NA,NA,NA,67.43421052631578,NA
12033,Rensselaer County,NY,NA,NA,93.1592039800995,NA,NA
12075,Columbia County,NY,99.88726042841037,NA,NA,NA,NA
12118,Saratoga County,NY,50.50732807215332,NA,NA,NA,NA
12180,Rensselaer County,NY,NA,37.34643734643734,NA,NA,NA
12188,Saratoga County,NY,NA,93.36609336609337,NA,NA,NA
12202,Albany County,NY,80.38331454340474,NA,NA,NA,NA
12208,Albany County,NY,54.56595264937994,NA,NA,NA,NA
12210,Albany County,NY,NA,NA,69.15422885572139,NA,NA
12302,Schenectady County,NY,NA,NA,50.49751243781094,NA,NA
12306,Schenectady County,NY,NA,NA,NA,76.97368421052632,NA
12401,Ulster County,NY,NA,NA,27.238805970149254,55.26315789473685,NA
12428,Ulster County,NY,NA,NA,89.30348258706468,NA,NA
12590,Dutchess County,NY,NA,77.88697788697789,NA,71.38157894736842,NA
12701,Sullivan County,NY,NA,NA,NA,76.64473684210526,NA
12822,Saratoga County,NY,NA,NA,81.71641791044776,NA,NA
12828,Washington County,NY,NA,NA,50.87064676616916,NA,NA
12831,Saratoga County,NY,NA,NA,NA,58.223684210526315,NA
12993,Essex County,NY,NA,NA,99.25373134328358,NA,NA
13045,Cortland County,NY,NA,NA,26.492537313432834,NA,NA
13068,Tompkins County,NY,NA,NA,84.20398009950249,NA,NA
13073,Tompkins County,NY,80.38331454340474,NA,NA,NA,NA
13074,Oswego County,NY,NA,NA,85.3233830845771,NA,NA
13088,Onondaga County,NY,NA,NA,70.02487562189054,NA,NA
13104,Onondaga County,NY,65.38895152198421,NA,NA,NA,NA
13118,Cayuga County,NY,NA,NA,83.08457711442786,NA,NA
13135,Oswego County,NY,NA,NA,71.8905472636816,NA,NA
13167,Oswego County,NY,NA,NA,NA,98.68421052631578,NA
13204,Onondaga County,NY,NA,NA,15.547263681592039,NA,NA
13205,Onondaga County,NY,NA,NA,NA,NA,44.84536082474227
13208,Onondaga County,NY,31.905298759864714,NA,NA,NA,NA
13210,Onondaga County,NY,NA,NA,43.78109452736319,NA,NA
13340,Herkimer County,NY,80.94701240135288,NA,NA,NA,NA
13357,Herkimer County,NY,NA,NA,77.11442786069652,NA,NA
13413,Oneida County,NY,NA,NA,57.2139303482587,NA,NA
13440,Oneida County,NY,NA,NA,3.482587064676617,NA,NA
13601,Jefferson County,NY,NA,NA,6.467661691542288,NA,NA
13642,St. Lawrence County,NY,58.286358511837655,NA,NA,NA,NA
13660,St. Lawrence County,NY,96.27959413754228,NA,NA,NA,NA
13733,Chenango County,NY,89.28974069898534,NA,NA,NA,NA
13754,Broome County,NY,NA,NA,79.60199004975125,NA,NA
13778,Chenango County,NY,NA,NA,72.88557213930348,NA,NA
13790,Broome County,NY,76.88838782412627,NA,NA,NA,NA
13815,Chenango County,NY,36.52762119503946,NA,NA,18.092105263157894,NA
13820,Otsego County,NY,NA,NA,13.681592039800993,NA,NA
13827,Tioga County,NY,NA,81.08108108108108,NA,NA,NA
13901,Broome County,NY,NA,NA,5.472636815920398,6.25,15.463917525773196
13905,Broome County,NY,2.931228861330327,NA,NA,NA,NA
14006,Erie County,NY,88.16234498308907,NA,NA,NA,NA
14042,Cattaraugus County,NY,NA,NA,91.66666666666666,NA,NA
14094,Niagara County,NY,11.048478015783541,NA,NA,NA,NA
14120,Niagara County,NY,NA,NA,NA,NA,26.804123711340207
14207,Erie County,NY,NA,NA,NA,40.78947368421053,NA
14211,Erie County,NY,NA,NA,12.313432835820896,NA,NA
14215,Erie County,NY,NA,47.665847665847664,2.9850746268656714,NA,NA
14218,Erie County,NY,NA,NA,24.502487562189053,NA,NA
14220,Erie County,NY,NA,NA,17.91044776119403,NA,NA
14224,Erie County,NY,NA,NA,33.95522388059701,NA,NA
14305,Niagara County,NY,NA,NA,7.960199004975125,NA,NA
14420,Monroe County,NY,NA,NA,20.398009950248756,NA,NA
14422,Genesee County,NY,NA,NA,95.77114427860697,NA,NA
14424,Ontario County,NY,NA,NA,21.890547263681594,NA,NA
14425,Ontario County,NY,21.08229988726043,NA,22.63681592039801,NA,NA
14428,Monroe County,NY,NA,NA,54.353233830845774,NA,NA
14456,Ontario County,NY,31.116121758737318,NA,10.323383084577115,NA,NA
14464,Monroe County,NY,71.13866967305525,NA,NA,NA,NA
14489,Wayne County,NY,NA,NA,40.67164179104478,NA,NA
14513,Wayne County,NY,NA,NA,NA,5.592105263157895,NA
14526,Monroe County,NY,NA,NA,NA,NA,30.412371134020617
14548,Ontario County,NY,NA,NA,NA,80.26315789473685,NA
14559,Monroe County,NY,NA,NA,67.91044776119402,NA,NA
14564,Ontario County,NY,NA,97.2972972972973,NA,NA,NA
14589,Wayne County,NY,NA,95.33169533169533,NA,NA,NA
14606,Monroe County,NY,NA,40.78624078624078,NA,NA,NA
14609,Monroe County,NY,NA,NA,1.616915422885572,NA,NA
14615,Monroe County,NY,NA,NA,15.422885572139302,NA,NA
14757,Chautauqua County,NY,98.08342728297632,NA,NA,NA,NA
14891,Schuyler County,NY,NA,NA,93.03482587064677,NA,NA
14895,Allegany County,NY,70.46223224351748,NA,NA,NA,NA
14901,Chemung County,NY,NA,NA,NA,NA,92.78350515463917
14904,Chemung County,NY,NA,NA,36.069651741293534,NA,NA
27011,Yadkin County,NC,89.28974069898534,NA,NA,NA,NA
27028,Davie County,NC,NA,NA,NA,11.18421052631579,NA
27030,Surry County,NC,NA,NA,9.45273631840796,NA,NA
27045,Forsyth County,NC,91.43179255918827,NA,NA,NA,NA
27055,Yadkin County,NC,NA,72.48157248157248,NA,NA,NA
27101,Forsyth County,NC,NA,71.49877149877149,NA,NA,NA
27105,Forsyth County,NC,3.3821871476888385,31.941031941031937,NA,NA,NA
27214,Guilford County,NC,NA,NA,88.18407960199005,NA,NA
27262,Guilford County,NC,NA,NA,49.50248756218906,NA,49.48453608247423
27284,Forsyth County,NC,NA,53.8083538083538,9.950248756218906,NA,NA
27320,Rockingham County,NC,21.758737316798197,NA,NA,NA,NA
27330,Lee County,NC,44.7576099210823,NA,NA,NA,NA
27379,Caswell County,NC,NA,96.31449631449631,NA,NA,NA
27405,Guilford County,NC,35.73844419391206,NA,NA,NA,NA
27406,Guilford County,NC,10.146561443066517,NA,NA,NA,NA
27407,Guilford County,NC,42.615558060879366,NA,24.75124378109453,NA,NA
27520,Johnston County,NC,NA,NA,74.6268656716418,39.80263157894737,NA
27529,Wake County,NC,28.861330326944756,NA,NA,NA,NA
27542,Johnston County,NC,NA,NA,78.60696517412936,NA,NA
27546,Harnett County,NC,NA,NA,71.01990049751244,NA,NA
27565,Granville County,NC,NA,NA,28.980099502487562,62.82894736842105,NA
27576,Johnston County,NC,63.6978579481398,NA,NA,NA,NA
27587,Wake County,NC,22.886133032694474,NA,NA,NA,NA
27591,Wake County,NC,NA,85.995085995086,NA,NA,NA
27592,Wake County,NC,NA,NA,NA,78.61842105263158,NA
27610,Wake County,NC,3.269447576099211,NA,NA,NA,63.91752577319587
27613,Wake County,NC,68.65839909808342,NA,NA,NA,NA
27616,Wake County,NC,NA,36.60933660933661,27.611940298507463,NA,NA
27701,Durham County,NC,78.69222096956031,NA,NA,NA,NA
27705,Durham County,NC,26.719278466741827,NA,NA,NA,NA
27801,Edgecombe County,NC,NA,62.65356265356266,NA,NA,NA
27803,Nash County,NC,38.66967305524239,NA,NA,NA,NA
27831,Northampton County,NC,NA,88.45208845208845,NA,NA,NA
27834,Pitt County,NC,6.764374295377677,NA,NA,NA,NA
27851,Wilson County,NC,NA,NA,97.636815920398,NA,NA
27864,Edgecombe County,NC,NA,NA,93.40796019900498,NA,NA
27870,Halifax County,NC,NA,63.39066339066339,NA,NA,NA
27882,Nash County,NC,NA,98.28009828009829,NA,NA,NA
27910,Hertford County,NC,NA,NA,NA,NA,64.43298969072166
27944,Perquimans County,NC,NA,80.34398034398035,75.24875621890547,NA,NA
27948,Dare County,NC,56.482525366403614,NA,NA,NA,NA
28021,Gaston County,NC,82.52536640360766,NA,NA,NA,NA
28025,Cabarrus County,NC,NA,NA,14.800995024875622,NA,NA
28027,Cabarrus County,NC,NA,NA,NA,8.881578947368421,NA
28083,Cabarrus County,NC,NA,NA,38.930348258706466,NA,NA
28147,Rowan County,NC,NA,65.1105651105651,NA,NA,NA
28150,Cleveland County,NC,36.3021420518602,NA,NA,NA,NA
28203,Mecklenburg County,NC,74.85907553551297,NA,NA,NA,NA
28205,Mecklenburg County,NC,NA,NA,25.870646766169152,NA,NA
28212,Mecklenburg County,NC,NA,NA,32.71144278606965,NA,NA
28213,Mecklenburg County,NC,26.944757609921083,NA,NA,NA,NA
28215,Mecklenburg County,NC,NA,12.776412776412776,20.149253731343283,NA,NA
28227,Mecklenburg County,NC,NA,NA,25.99502487562189,NA,NA
28269,Mecklenburg County,NC,NA,NA,17.412935323383085,NA,NA
28303,Cumberland County,NC,NA,NA,NA,52.63157894736842,NA
28306,Bladen County,NC,67.08004509582864,NA,NA,NA,NA
28311,Cumberland County,NC,NA,NA,32.21393034825871,NA,NA
28314,Cumberland County,NC,NA,19.164619164619165,NA,NA,NA
28345,Richmond County,NC,83.54002254791432,NA,NA,NA,NA
28352,Scotland County,NC,NA,NA,34.701492537313435,NA,NA
28364,Robeson County,NC,NA,NA,53.10945273631841,NA,NA
28371,Robeson County,NC,NA,69.04176904176904,NA,NA,NA
28376,Hoke County,NC,NA,34.3980343980344,NA,NA,45.36082474226804
28391,Cumberland County,NC,NA,91.8918918918919,NA,NA,NA
28398,Duplin County,NC,90.304396843292,NA,NA,NA,NA
28401,New Hanover County,NC,59.41375422773394,NA,NA,NA,NA
28405,New Hanover County,NC,58.39909808342728,NA,NA,NA,NA
28411,New Hanover County,NC,NA,NA,45.024875621890544,NA,NA
28425,Pender County,NC,NA,NA,76.3681592039801,NA,NA
28443,Pender County,NC,NA,NA,66.7910447761194,NA,NA
28570,Carteret County,NC,87.26042841037204,NA,NA,NA,NA
28586,Craven County,NC,NA,NA,88.18407960199005,NA,NA
28625,Iredell County,NC,NA,56.26535626535627,NA,NA,NA
28642,Yadkin County,NC,66.5163472378805,NA,NA,79.93421052631578,NA
28645,Caldwell County,NC,7.440811724915446,NA,NA,NA,NA
28655,Burke County,NC,NA,35.872235872235876,NA,NA,NA
28678,Alexander County,NC,NA,90.41769041769042,NA,NA,NA
28713,Swain County,NC,88.04960541149943,NA,NA,NA,NA
28716,Haywood County,NC,NA,NA,NA,NA,45.876288659793815
28761,McDowell County,NC,NA,NA,NA,82.89473684210526,NA
28777,Mitchell County,NC,70.91319052987599,NA,NA,NA,NA
28787,Buncombe County,NC,NA,NA,75.49751243781094,NA,NA
28789,Jackson County,NC,NA,83.78378378378379,NA,NA,NA
58078,Cass County,ND,NA,NA,NA,18.75,NA
58104,Cass County,ND,42.390078917700116,NA,NA,NA,NA
58201,Grand Forks County,ND,38.10597519729425,NA,NA,NA,NA
58316,Rolette County,ND,NA,66.83046683046683,NA,NA,NA
58501,Burleigh County,ND,NA,NA,60.69651741293532,NA,NA
58801,Williams County,ND,16.00901916572717,NA,NA,NA,NA
43015,Delaware County,OH,NA,NA,73.00995024875621,NA,NA
43017,Franklin County,OH,NA,10.81081081081081,NA,NA,NA
43026,Franklin County,OH,15.107102593010147,NA,NA,NA,NA
43028,Knox County,OH,NA,NA,NA,NA,39.175257731958766
43055,Licking County,OH,5.2987598647125145,7.616707616707617,NA,NA,NA
43056,Licking County,OH,46.56144306651635,NA,NA,NA,NA
43068,Franklin County,OH,4.284103720405862,NA,13.805970149253731,NA,NA
43081,Franklin County,OH,NA,31.695331695331696,NA,NA,NA
43102,Fairfield County,OH,92.67192784667418,NA,NA,NA,NA
43119,Franklin County,OH,56.82074408117249,NA,NA,NA,NA
43123,Franklin County,OH,NA,6.142506142506143,NA,NA,NA
43130,Fairfield County,OH,NA,NA,15.671641791044777,NA,NA
43138,Hocking County,OH,62.68320180383314,NA,NA,NA,NA
43202,Franklin County,OH,NA,79.36117936117935,NA,NA,NA
43204,Franklin County,OH,12.965050732807216,NA,NA,NA,NA
43205,Franklin County,OH,48.365276211950395,20.638820638820636,54.353233830845774,NA,NA
43207,Franklin County,OH,11.950394588500563,14.987714987714988,NA,NA,NA
43209,Franklin County,OH,45.997745208568205,NA,NA,NA,NA
43211,Franklin County,OH,4.1713641488162345,NA,NA,NA,NA
43214,Franklin County,OH,73.05524239007892,NA,NA,NA,NA
43219,Franklin County,OH,1.4656144306651635,NA,NA,NA,NA
43224,Franklin County,OH,13.86696730552424,1.4742014742014742,NA,NA,NA
43227,Franklin County,OH,2.029312288613303,15.47911547911548,NA,NA,NA
43228,Franklin County,OH,0.3382187147688839,NA,NA,NA,NA
43229,Franklin County,OH,NA,7.371007371007371,NA,NA,NA
43230,Franklin County,OH,NA,NA,21.019900497512438,NA,NA
43302,Marion County,OH,4.8478015783540025,9.582309582309582,3.731343283582089,NA,NA
43326,Hardin County,OH,95.26493799323562,NA,NA,NA,NA
43420,Sandusky County,OH,3.0439684329199546,NA,NA,NA,NA
43440,Ottawa County,OH,NA,NA,NA,81.9078947368421,NA
43512,Defiance County,OH,3.1567080045095826,NA,NA,NA,NA
43522,Wood County,OH,NA,NA,98.88059701492537,NA,NA
43543,Williams County,OH,NA,NA,77.61194029850746,NA,NA
43567,Fulton County,OH,78.01578354002254,NA,NA,NA,NA
43605,Lucas County,OH,NA,NA,20.273631840796018,NA,NA
43606,Lucas County,OH,16.1217587373168,NA,22.263681592039802,NA,NA
43608,Lucas County,OH,5.862457722660654,70.51597051597052,NA,NA,NA
43609,Lucas County,OH,11.386696730552424,NA,7.213930348258707,NA,NA
43610,Lucas County,OH,NA,69.77886977886978,NA,NA,NA
43612,Lucas County,OH,NA,NA,6.218905472636816,NA,NA
43613,Lucas County,OH,NA,NA,5.099502487562189,NA,NA
43623,Lucas County,OH,77.67756482525367,NA,35.32338308457712,NA,NA
43701,Muskingum County,OH,NA,18.42751842751843,9.328358208955224,NA,2.0618556701030926
43812,Coshocton County,OH,NA,NA,33.33333333333333,NA,NA
43952,Jefferson County,OH,NA,49.631449631449634,10.572139303482588,NA,NA
44001,Lorain County,OH,51.40924464487034,NA,NA,NA,NA
44004,Ashtabula County,OH,NA,NA,NA,4.605263157894736,NA
44012,Lorain County,OH,47.12514092446449,NA,NA,NA,NA
44022,Cuyahoga County,OH,NA,NA,NA,NA,20.618556701030926
44035,Lorain County,OH,0.5636978579481398,NA,NA,NA,NA
44039,Lorain County,OH,14.994363021420517,NA,NA,NA,NA
44044,Lorain County,OH,62.232243517474636,NA,NA,NA,NA
44047,Ashtabula County,OH,NA,58.23095823095823,NA,NA,NA
44052,Lorain County,OH,NA,26.78132678132678,NA,NA,NA
44055,Lorain County,OH,2.254791431792559,NA,NA,NA,NA
44056,Summit County,OH,83.31454340473506,NA,NA,NA,NA
44057,Lake County,OH,50.95828635851184,NA,NA,NA,NA
44060,Lake County,OH,NA,41.27764127764127,NA,NA,NA
44067,Summit County,OH,NA,NA,43.53233830845771,NA,NA
44070,Cuyahoga County,OH,NA,NA,NA,7.565789473684211,NA
44074,Lorain County,OH,NA,NA,84.32835820895522,NA,NA
44094,Lake County,OH,36.3021420518602,NA,NA,NA,NA
44102,Cuyahoga County,OH,3.494926719278467,6.87960687960688,0.8706467661691543,NA,NA
44104,Cuyahoga County,OH,NA,28.992628992628994,5.970149253731343,NA,NA
44105,Cuyahoga County,OH,5.186020293122886,NA,NA,1.3157894736842104,NA
44106,Cuyahoga County,OH,NA,66.09336609336609,NA,NA,NA
44111,Cuyahoga County,OH,NA,NA,2.4875621890547266,NA,NA
44112,Cuyahoga County,OH,14.543404735062007,NA,NA,NA,NA
44115,Cuyahoga County,OH,62.79594137542277,NA,NA,NA,NA
44118,Cuyahoga County,OH,31.34160090191657,NA,NA,NA,NA
44121,Cuyahoga County,OH,85.68207440811724,NA,NA,NA,NA
44122,Cuyahoga County,OH,NA,NA,NA,NA,0
44123,Cuyahoga County,OH,57.384441939120634,NA,NA,NA,NA
44126,Cuyahoga County,OH,NA,NA,59.20398009950249,NA,NA
44128,Cuyahoga County,OH,NA,25.307125307125304,NA,NA,2.5773195876288657
44132,Cuyahoga County,OH,NA,69.04176904176904,NA,NA,NA
44133,Cuyahoga County,OH,NA,NA,NA,54.276315789473685,NA
44135,Cuyahoga County,OH,NA,15.233415233415235,NA,NA,NA
44137,Cuyahoga County,OH,54.79143179255919,NA,NA,NA,NA
44138,Cuyahoga County,OH,NA,76.16707616707616,NA,NA,NA
44139,Cuyahoga County,OH,37.65501691093574,NA,50.49751243781094,NA,NA
44140,Cuyahoga County,OH,NA,NA,NA,36.18421052631579,NA
44143,Cuyahoga County,OH,NA,57.24815724815725,75.87064676616916,NA,NA
44144,Cuyahoga County,OH,NA,34.15233415233415,NA,NA,NA
44145,Cuyahoga County,OH,NA,NA,22.885572139303484,NA,NA
44146,Cuyahoga County,OH,70.23675310033822,47.91154791154791,NA,NA,NA
44149,Cuyahoga County,OH,45.997745208568205,89.43488943488943,NA,NA,NA
44203,Summit County,OH,7.1025930101465615,8.108108108108109,8.706467661691542,NA,NA
44224,Summit County,OH,17.36189402480271,NA,NA,NA,NA
44256,Medina County,OH,0.9019165727170236,51.35135135135135,NA,NA,NA
44287,Wayne County,OH,NA,76.41277641277642,NA,NA,NA
44305,Summit County,OH,8.117249154453212,NA,NA,NA,57.73195876288659
44306,Summit County,OH,7.5535512965050735,NA,13.557213930348258,NA,NA
44310,Summit County,OH,NA,21.375921375921376,NA,NA,NA
44312,Summit County,OH,NA,42.26044226044226,NA,NA,NA
44314,Summit County,OH,NA,13.75921375921376,98.13432835820896,25.657894736842106,NA
44425,Trumbull County,OH,26.268320180383313,NA,40.298507462686565,NA,NA
44438,Trumbull County,OH,NA,NA,NA,82.56578947368422,NA
44460,Columbiana County,OH,NA,28.00982800982801,NA,NA,NA
44481,Trumbull County,OH,65.7271702367531,NA,NA,NA,NA
44483,Trumbull County,OH,NA,NA,21.26865671641791,NA,NA
44509,Mahoning County,OH,41.713641488162345,NA,NA,NA,NA
44511,Mahoning County,OH,29.4250281848929,NA,NA,NA,NA
44512,Mahoning County,OH,45.32130777903044,26.535626535626534,NA,NA,NA
44615,Carroll County,OH,NA,68.7960687960688,NA,NA,NA
44688,Stark County,OH,NA,91.4004914004914,NA,NA,NA
44706,Stark County,OH,NA,33.660933660933665,NA,NA,NA
44707,Stark County,OH,NA,NA,69.02985074626866,NA,NA
44714,Stark County,OH,NA,NA,76.11940298507463,NA,NA
44718,Stark County,OH,NA,NA,86.81592039800995,NA,NA
44720,Stark County,OH,NA,NA,37.6865671641791,NA,NA
44805,Ashland County,OH,NA,NA,17.039800995024876,NA,NA
44811,Sandusky County,OH,63.246899661781285,NA,NA,NA,NA
44830,Seneca County,OH,NA,37.34643734643734,NA,NA,NA
44890,Huron County,OH,44.306651634723785,NA,48.88059701492538,NA,NA
44903,Richland County,OH,NA,NA,23.383084577114428,NA,NA
45005,Warren County,OH,17.81285231116122,NA,NA,NA,NA
45039,Warren County,OH,63.35963923337091,NA,57.33830845771144,NA,NA
45042,Butler County,OH,NA,NA,25.497512437810943,NA,NA
45044,Butler County,OH,1.0146561443066515,NA,NA,NA,NA
45056,Butler County,OH,84.21645997745209,NA,NA,NA,NA
45069,Butler County,OH,11.724915445321308,NA,NA,NA,NA
45102,Clermont County,OH,40.81172491544532,NA,NA,NA,NA
45171,Brown County,OH,NA,NA,NA,89.80263157894737,NA
45202,Hamilton County,OH,70.91319052987599,NA,25.74626865671642,NA,NA
45205,Hamilton County,OH,18.714768883878243,NA,NA,NA,NA
45206,Hamilton County,OH,66.96730552423901,NA,NA,NA,NA
45209,Hamilton County,OH,NA,NA,94.77611940298507,NA,NA
45211,Hamilton County,OH,NA,13.267813267813267,NA,NA,NA
45219,Hamilton County,OH,NA,NA,NA,87.5,NA
45223,Hamilton County,OH,NA,53.8083538083538,NA,NA,NA
45227,Hamilton County,OH,59.07553551296505,NA,NA,NA,NA
45230,Hamilton County,OH,81.96166854565952,NA,NA,NA,NA
45231,Hamilton County,OH,9.470124013528748,NA,NA,NA,NA
45238,Hamilton County,OH,7.891770011273957,NA,NA,NA,NA
45240,Hamilton County,OH,10.597519729425029,NA,34.452736318407965,NA,NA
45246,Hamilton County,OH,NA,44.717444717444714,81.96517412935323,NA,NA
45248,Hamilton County,OH,NA,NA,NA,NA,23.711340206185564
45255,Hamilton County,OH,78.80496054114995,NA,NA,NA,NA
45320,Preble County,OH,71.81510710259302,NA,NA,NA,NA
45344,Clark County,OH,47.80157835400225,NA,NA,NA,NA
45356,Miami County,OH,NA,NA,18.65671641791045,15.131578947368421,NA
45373,Miami County,OH,NA,NA,9.82587064676617,NA,NA
45385,Greene County,OH,9.808342728297632,25.307125307125304,NA,NA,NA
45402,Montgomery County,OH,60.766629086809466,NA,NA,NA,NA
45406,Montgomery County,OH,NA,NA,73.75621890547264,NA,NA
45417,Montgomery County,OH,19.84216459977452,NA,NA,NA,NA
45420,Montgomery County,OH,NA,NA,35.199004975124375,NA,NA
45424,Montgomery County,OH,53.325817361894025,NA,NA,NA,NA
45426,Montgomery County,OH,NA,NA,NA,44.73684210526316,NA
45506,Clark County,OH,96.16685456595265,NA,NA,NA,NA
45601,Ross County,OH,30.552423900789176,4.422604422604422,NA,NA,NA
45638,Lawrence County,OH,50.16910935738444,NA,NA,NA,NA
45648,Scioto County,OH,NA,NA,31.218905472636816,NA,NA
45653,Scioto County,OH,98.42164599774522,NA,NA,NA,NA
45661,Pike County,OH,NA,NA,56.71641791044776,NA,94.84536082474226
45662,Scioto County,OH,2.705749718151071,NA,NA,NA,NA
45669,Lawrence County,OH,NA,65.6019656019656,NA,NA,NA
45686,Gallia County,OH,NA,79.36117936117935,NA,NA,NA
45694,Scioto County,OH,NA,NA,37.43781094527363,NA,NA
45769,Meigs County,OH,NA,NA,72.38805970149254,NA,NA
45801,Allen County,OH,21.53325817361894,NA,NA,NA,NA
45804,Allen County,OH,NA,NA,48.00995024875622,NA,NA
45805,Allen County,OH,NA,NA,86.69154228855722,NA,NA
45822,Mercer County,OH,NA,57.98525798525799,NA,NA,NA
45840,Hancock County,OH,19.165727170236753,NA,NA,NA,NA
45850,Allen County,OH,98.19616685456594,NA,NA,NA,NA
73008,Oklahoma County,OK,NA,NA,74.37810945273633,NA,NA
73018,Grady County,OK,55.46786922209696,NA,NA,NA,NA
73030,Murray County,OK,75.64825253664036,NA,NA,NA,NA
73108,Oklahoma County,OK,NA,68.05896805896806,NA,NA,NA
73127,Oklahoma County,OK,NA,NA,59.452736318407965,NA,NA
73129,Oklahoma County,OK,40.24802705749718,NA,NA,NA,NA
73160,Cleveland County,OK,24.46448703494927,NA,16.417910447761194,NA,NA
73401,Carter County,OK,NA,NA,17.66169154228856,NA,NA
73521,Jackson County,OK,NA,NA,NA,65.13157894736842,NA
73527,Comanche County,OK,NA,93.36609336609337,NA,NA,NA
73701,Garfield County,OK,NA,NA,54.975124378109456,NA,NA
74055,Tulsa County,OK,NA,NA,62.06467661691543,NA,NA
74074,Payne County,OK,NA,NA,NA,NA,37.628865979381445
74365,Mayes County,OK,95.94137542277339,NA,NA,NA,NA
74429,Wagoner County,OK,85.9075535512965,NA,NA,NA,NA
74447,Okmulgee County,OK,74.74633596392334,NA,NA,NA,NA
74464,Cherokee County,OK,31.679819616685457,NA,12.810945273631841,NA,NA
74501,Pittsburg County,OK,NA,NA,59.32835820895522,NA,NA
74804,Pottawatomie County,OK,NA,NA,NA,53.61842105263158,NA
74820,Pontotoc County,OK,NA,NA,NA,NA,25.773195876288657
74849,Seminole County,OK,98.53438556933483,NA,NA,NA,NA
74859,Okfuskee County,OK,85.56933483652762,NA,NA,NA,NA
74960,Adair County,OK,31.905298759864714,NA,NA,NA,NA
74965,Adair County,OK,NA,NA,NA,94.73684210526315,NA
74966,Le Flore County,OK,NA,NA,NA,NA,97.9381443298969
97007,Washington County,OR,20.40586245772266,NA,NA,NA,NA
97034,Clackamas County,OR,NA,NA,87.56218905472637,NA,NA
97123,Washington County,OR,NA,NA,26.616915422885572,18.421052631578945,NA
97124,Washington County,OR,64.71251409244645,52.579852579852584,NA,NA,NA
97128,Yamhill County,OR,NA,72.48157248157248,NA,NA,NA
97229,Washington County,OR,NA,NA,44.27860696517413,NA,NA
97230,Multnomah County,OR,38.78241262683202,NA,NA,NA,NA
97236,Multnomah County,OR,NA,NA,25.37313432835821,NA,NA
97303,Marion County,OR,NA,NA,NA,55.5921052631579,NA
97305,Marion County,OR,NA,44.47174447174447,NA,NA,NA
97322,Linn County,OR,NA,NA,51.99004975124378,NA,NA
97424,Lane County,OR,NA,NA,NA,45.39473684210527,NA
97471,Douglas County,OR,NA,NA,NA,NA,14.948453608247423
97477,Lane County,OR,NA,60.93366093366094,NA,NA,42.78350515463917
97496,Douglas County,OR,NA,NA,64.6766169154229,NA,NA
97540,Jackson County,OR,NA,NA,NA,96.38157894736842,NA
97630,Lake County,OR,99.54904171364149,NA,NA,NA,NA
97850,Union County,OR,NA,27.51842751842752,NA,NA,NA
97913,Malheur County,OR,NA,NA,95.39800995024875,NA,NA
15068,Westmoreland County,PA,NA,56.75675675675676,24.875621890547265,NA,NA
15201,Allegheny County,PA,NA,NA,69.40298507462687,NA,NA
15214,Allegheny County,PA,NA,34.64373464373464,NA,NA,NA
15219,Allegheny County,PA,NA,72.48157248157248,NA,NA,NA
15234,Allegheny County,PA,72.37880496054116,NA,NA,NA,NA
15236,Allegheny County,PA,15.219842164599775,NA,NA,NA,NA
15425,Fayette County,PA,NA,NA,40.049751243781095,NA,NA
15857,Elk County,PA,NA,NA,NA,14.144736842105262,NA
15902,Cambria County,PA,NA,NA,51.61691542288557,NA,NA
15906,Cambria County,PA,92.10822998872604,NA,NA,NA,NA
16001,Butler County,PA,21.98421645997745,NA,NA,NA,NA
16101,Lawrence County,PA,NA,NA,8.83084577114428,NA,NA
16121,Mercer County,PA,87.37316798196166,NA,NA,NA,NA
16125,Mercer County,PA,74.85907553551297,NA,NA,NA,NA
16146,Mercer County,PA,NA,NA,29.850746268656714,NA,NA
16159,Mercer County,PA,NA,NA,NA,NA,84.5360824742268
16407,Erie County,PA,NA,NA,84.45273631840796,NA,NA
16505,Erie County,PA,75.53551296505073,NA,NA,NA,NA
16507,Erie County,PA,NA,NA,87.81094527363184,NA,NA
16510,Erie County,PA,NA,73.95577395577395,NA,NA,NA
16601,Blair County,PA,31.4543404735062,NA,NA,10.526315789473683,NA
16652,Huntingdon County,PA,NA,NA,47.76119402985074,NA,NA
16701,McKean County,PA,NA,NA,NA,28.289473684210524,NA
16901,Tioga County,PA,NA,80.0982800982801,NA,NA,NA
17019,York County,PA,NA,NA,73.50746268656717,NA,NA
17022,Lancaster County,PA,12.401352874859075,NA,NA,NA,NA
17025,Cumberland County,PA,NA,NA,41.7910447761194,NA,NA
17033,Dauphin County,PA,NA,NA,NA,NA,26.288659793814436
17036,Dauphin County,PA,NA,NA,NA,NA,28.350515463917525
17042,Lebanon County,PA,9.019165727170236,NA,NA,NA,NA
17109,Dauphin County,PA,35.400225479143174,NA,NA,NA,NA
17331,York County,PA,7.1025930101465615,NA,NA,NA,NA
17512,Lancaster County,PA,70.5749718151071,NA,NA,NA,NA
17701,Lycoming County,PA,10.033821871476889,NA,6.592039800995026,NA,NA
17702,Lycoming County,PA,85.00563697857947,NA,NA,NA,NA
17751,Clinton County,PA,NA,94.34889434889435,NA,NA,NA
17752,Lycoming County,PA,97.74520856820745,NA,NA,NA,NA
17764,Clinton County,PA,NA,96.56019656019656,NA,NA,NA
17901,Schuylkill County,PA,NA,NA,34.32835820895522,NA,NA
17963,Schuylkill County,PA,NA,NA,NA,NA,86.5979381443299
18015,Northampton County,PA,NA,NA,NA,NA,17.010309278350515
18020,Northampton County,PA,32.581736189402484,NA,NA,NA,NA
18037,Lehigh County,PA,NA,NA,82.83582089552239,NA,NA
18042,Northampton County,PA,NA,22.11302211302211,7.835820895522389,NA,NA
18052,Lehigh County,PA,59.75197294250282,NA,NA,NA,NA
18072,Northampton County,PA,NA,NA,NA,92.43421052631578,NA
18102,Lehigh County,PA,12.514092446448705,NA,11.81592039800995,NA,NA
18103,Lehigh County,PA,NA,NA,7.711442786069651,NA,NA
18109,Lehigh County,PA,NA,NA,34.82587064676617,NA,NA
18232,Carbon County,PA,NA,96.56019656019656,NA,NA,NA
18301,Monroe County,PA,64.9379932356257,43.48894348894349,NA,NA,NA
18337,Pike County,PA,NA,NA,NA,75.98684210526315,NA
18360,Monroe County,PA,NA,NA,36.81592039800995,NA,NA
18505,Lackawanna County,PA,32.807215332581734,NA,NA,NA,47.42268041237113
18518,Lackawanna County,PA,88.50056369785794,NA,NA,NA,91.75257731958763
19006,Montgomery County,PA,NA,95.33169533169533,NA,NA,NA
19013,Delaware County,PA,17.925591882750847,NA,25,NA,NA
19023,Delaware County,PA,NA,NA,38.681592039801,NA,NA
19032,Delaware County,PA,95.15219842164599,NA,NA,NA,NA
19061,Delaware County,PA,38.21871476888388,NA,NA,NA,NA
19064,Delaware County,PA,NA,NA,79.1044776119403,NA,NA
19067,Bucks County,PA,NA,NA,NA,NA,13.917525773195877
19083,Delaware County,PA,23.788049605411498,NA,NA,NA,NA
19115,Philadelphia County,PA,NA,NA,NA,22.36842105263158,NA
19120,Philadelphia County,PA,32.46899661781285,NA,NA,NA,NA
19121,Philadelphia County,PA,18.1510710259301,NA,13.059701492537313,NA,NA
19122,Philadelphia County,PA,NA,67.56756756756756,NA,NA,NA
19124,Philadelphia County,PA,4.509582863585118,NA,12.437810945273633,NA,NA
19133,Philadelphia County,PA,16.459977452085685,NA,NA,NA,NA
19134,Philadelphia County,PA,NA,NA,4.850746268656716,NA,NA
19135,Philadelphia County,PA,20.293122886133034,19.901719901719904,NA,NA,NA
19139,Philadelphia County,PA,NA,36.11793611793612,NA,NA,NA
19140,Philadelphia County,PA,NA,NA,19.900497512437813,NA,NA
19142,Philadelphia County,PA,NA,NA,50.124378109452735,NA,NA
19143,Philadelphia County,PA,NA,NA,11.567164179104477,NA,NA
19144,Philadelphia County,PA,NA,NA,29.35323383084577,NA,NA
19145,Philadelphia County,PA,13.75422773393461,NA,NA,NA,NA
19152,Philadelphia County,PA,NA,NA,59.452736318407965,NA,NA
19154,Philadelphia County,PA,18.60202931228861,NA,NA,NA,NA
19382,Chester County,PA,NA,NA,19.029850746268657,NA,NA
19428,Montgomery County,PA,NA,NA,55.472636815920396,NA,NA
19438,Montgomery County,PA,NA,NA,56.21890547263681,NA,NA
19464,Montgomery County,PA,NA,47.174447174447174,NA,NA,NA
19567,Berks County,PA,NA,NA,95.27363184079603,NA,NA
19602,Berks County,PA,NA,NA,NA,36.51315789473684,NA
19606,Berks County,PA,NA,NA,NA,NA,19.072164948453608
19611,Berks County,PA,88.38782412626833,NA,NA,NA,NA
02806,Bristol County,RI,NA,NA,79.8507462686567,NA,NA
02861,Providence County,RI,NA,NA,NA,NA,35.56701030927835
02871,Newport County,RI,NA,NA,NA,47.368421052631575,NA
29003,Bamberg County,SC,NA,NA,96.39303482587064,NA,NA
29061,Richland County,SC,NA,NA,84.5771144278607,NA,NA
29067,Lancaster County,SC,NA,NA,NA,90.78947368421053,NA
29209,Richland County,SC,NA,NA,53.85572139303483,NA,NA
29306,Spartanburg County,SC,NA,NA,NA,75.32894736842105,NA
29323,Spartanburg County,SC,82.63810597519729,NA,NA,NA,NA
29330,Spartanburg County,SC,NA,87.46928746928747,NA,NA,NA
29349,Spartanburg County,SC,NA,NA,NA,NA,27.31958762886598
29365,Spartanburg County,SC,NA,NA,NA,73.68421052631578,NA
29405,Charleston County,SC,NA,28.746928746928745,NA,NA,NA
29420,Dorchester County,SC,NA,58.23095823095823,NA,NA,NA
29445,Berkeley County,SC,NA,NA,31.965174129353237,NA,NA
29527,Horry County,SC,NA,77.39557739557739,NA,NA,NA
29577,Horry County,SC,NA,NA,NA,NA,50
29579,Horry County,SC,NA,NA,63.18407960199005,NA,NA
29605,Greenville County,SC,29.086809470124013,NA,NA,NA,NA
29624,Anderson County,SC,44.193912063134164,NA,NA,NA,NA
29684,Anderson County,SC,NA,NA,97.13930348258707,NA,NA
29710,York County,SC,78.01578354002254,85.74938574938575,NA,NA,NA
29715,York County,SC,65.50169109357384,NA,NA,NA,NA
29910,Beaufort County,SC,NA,84.02948402948402,NA,NA,NA
57105,Minnehaha County,SD,NA,NA,55.348258706467654,NA,NA
57107,Minnehaha County,SD,97.85794813979707,NA,NA,NA,NA
57262,Roberts County,SD,85.456595264938,NA,NA,NA,NA
57301,Davison County,SD,NA,NA,57.08955223880597,NA,NA
57717,Butte County,SD,NA,NA,NA,85.19736842105263,NA
57719,Pennington County,SD,NA,NA,NA,62.5,NA
37013,Davidson County,TN,24.351747463359636,NA,14.17910447761194,NA,NA
37014,Williamson County,TN,NA,NA,NA,100,NA
37042,Montgomery County,TN,NA,39.06633906633907,NA,NA,NA
37055,Dickson County,TN,NA,NA,30.721393034825873,NA,NA
37115,Davidson County,TN,20.518602029312287,NA,NA,NA,NA
37130,Rutherford County,TN,24.80270574971815,NA,NA,NA,NA
37148,Sumner County,TN,59.97745208568207,NA,NA,54.93421052631579,NA
37166,DeKalb County,TN,NA,NA,NA,NA,60.824742268041234
37167,Rutherford County,TN,17.023675310033823,NA,NA,NA,NA
37172,Robertson County,TN,NA,36.85503685503686,NA,NA,NA
37184,Wilson County,TN,99.43630214205186,NA,NA,NA,NA
37205,Davidson County,TN,NA,NA,NA,60.85526315789473,NA
37206,Davidson County,TN,NA,NA,NA,NA,87.62886597938144
37210,Davidson County,TN,NA,NA,68.1592039800995,NA,NA
37212,Davidson County,TN,NA,NA,NA,97.36842105263158,NA
37645,Hawkins County,TN,NA,NA,93.28358208955224,NA,NA
37663,Sullivan County,TN,63.021420518602035,NA,NA,NA,NA
37664,Sullivan County,TN,NA,NA,27.487562189054728,NA,NA
37686,Sullivan County,TN,93.91206313416009,NA,NA,NA,NA
37743,Greene County,TN,28.29763246899662,NA,NA,6.578947368421052,NA
37752,Claiborne County,TN,90.86809470124012,NA,NA,NA,NA
37757,Campbell County,TN,NA,NA,NA,80.92105263157895,NA
37803,Blount County,TN,42.728297632469,NA,NA,NA,NA
37818,Greene County,TN,NA,NA,NA,89.47368421052632,NA
37821,Cocke County,TN,NA,NA,19.5273631840796,NA,NA
37847,Scott County,TN,NA,NA,98.50746268656717,NA,NA
37862,Sevier County,TN,66.62908680947012,NA,NA,NA,NA
37865,Sevier County,TN,NA,NA,49.004975124378106,NA,NA
37886,Blount County,TN,NA,84.02948402948402,NA,NA,NA
37912,Knox County,TN,34.61104847801578,NA,NA,NA,NA
37915,Knox County,TN,NA,NA,95.8955223880597,NA,NA
37921,Knox County,TN,NA,NA,38.18407960199005,NA,NA
37923,Knox County,TN,36.18940248027058,NA,NA,NA,NA
38018,Shelby County,TN,58.060879368658405,NA,76.86567164179104,NA,NA
38024,Dyer County,TN,12.288613303269448,NA,NA,NA,NA
38063,Lauderdale County,TN,NA,NA,81.21890547263682,NA,NA
38109,Shelby County,TN,NA,NA,15.298507462686567,NA,NA
38114,Shelby County,TN,NA,NA,NA,39.14473684210527,NA
38115,Shelby County,TN,1.5783540022547913,NA,29.726368159203982,NA,NA
38116,Shelby County,TN,NA,NA,23.507462686567166,NA,NA
38117,Shelby County,TN,NA,NA,80.09950248756219,NA,NA
38118,Shelby County,TN,40.47350620067644,NA,NA,NA,NA
38119,Shelby County,TN,79.70687711386697,NA,NA,NA,NA
38122,Shelby County,TN,54.227733934611045,NA,NA,NA,NA
38127,Shelby County,TN,3.720405862457723,NA,NA,NA,NA
38128,Shelby County,TN,15.783540022547914,NA,NA,NA,NA
38581,Warren County,TN,NA,NA,90.92039800995025,NA,NA
75007,Denton County,TX,37.429537767756486,NA,NA,NA,NA
75010,Denton County,TX,38.89515219842165,NA,NA,NA,NA
75025,Collin County,TX,NA,NA,87.81094527363184,NA,NA
75028,Denton County,TX,NA,NA,65.4228855721393,NA,NA
75034,Denton County,TX,32.91995490417137,NA,46.26865671641791,NA,NA
75041,Dallas County,TX,NA,NA,NA,NA,57.21649484536082
75042,Dallas County,TX,NA,NA,72.636815920398,NA,NA
75043,Dallas County,TX,NA,NA,NA,22.039473684210524,NA
75051,Dallas County,TX,16.685456595264938,26.044226044226043,NA,NA,NA
75052,Dallas County,TX,17.700112739571587,NA,NA,NA,NA
75061,Dallas County,TX,45.32130777903044,NA,NA,NA,NA
75067,Denton County,TX,52.98759864712515,NA,NA,NA,NA
75071,Collin County,TX,NA,67.07616707616708,NA,NA,NA
75074,Collin County,TX,NA,53.31695331695332,NA,NA,NA
75080,Dallas County,TX,NA,63.39066339066339,NA,NA,NA
75090,Grayson County,TX,36.52762119503946,NA,NA,NA,NA
75092,Grayson County,TX,NA,NA,56.59203980099502,NA,NA
75093,Collin County,TX,NA,NA,NA,39.473684210526315,NA
75103,Van Zandt County,TX,NA,NA,85.19900497512438,NA,NA
75110,Navarro County,TX,37.88049605411499,NA,NA,NA,NA
75119,Ellis County,TX,NA,NA,63.43283582089553,NA,NA
75126,Kaufman County,TX,NA,NA,NA,NA,69.0721649484536
75137,Dallas County,TX,NA,NA,NA,81.25,NA
75142,Kaufman County,TX,NA,72.48157248157248,NA,NA,NA
75146,Dallas County,TX,37.20405862457722,NA,NA,NA,NA
75149,Dallas County,TX,NA,17.69041769041769,NA,NA,NA
75154,Ellis County,TX,23.22435174746336,NA,NA,NA,NA
75159,Dallas County,TX,NA,74.2014742014742,NA,NA,NA
75181,Dallas County,TX,NA,NA,62.43781094527363,NA,NA
75212,Dallas County,TX,NA,27.51842751842752,NA,NA,NA
75215,Dallas County,TX,25.70462232243517,NA,NA,NA,NA
75217,Dallas County,TX,5.5242390078917705,11.056511056511056,NA,12.828947368421053,NA
75219,Dallas County,TX,NA,97.05159705159704,NA,NA,NA
75229,Dallas County,TX,52.76211950394588,NA,NA,NA,NA
75243,Dallas County,TX,NA,NA,18.407960199004975,NA,NA
75249,Dallas County,TX,79.25591882750845,NA,NA,NA,NA
75253,Dallas County,TX,42.50281848928974,NA,NA,NA,NA
75287,Denton County,TX,27.73393461104848,NA,NA,NA,NA
75401,Hunt County,TX,67.75648252536641,NA,NA,NA,NA
75402,Hunt County,TX,NA,NA,NA,NA,79.38144329896907
75442,Collin County,TX,87.14768883878241,NA,NA,NA,NA
75455,Titus County,TX,NA,NA,61.442786069651746,NA,NA
75495,Grayson County,TX,98.64712514092446,NA,NA,NA,NA
75602,Gregg County,TX,25.366403607666292,NA,NA,NA,NA
75670,Harrison County,TX,56.14430665163472,NA,NA,NA,NA
75686,Camp County,TX,82.75084554678692,NA,NA,NA,NA
75702,Smith County,TX,NA,NA,NA,49.67105263157895,NA
75704,Smith County,TX,NA,NA,89.42786069651741,NA,NA
75771,Smith County,TX,35.851183765501695,NA,NA,NA,NA
75948,Sabine County,TX,NA,NA,NA,NA,85.56701030927834
75949,Angelina County,TX,NA,99.01719901719902,NA,NA,NA
75966,Newton County,TX,NA,98.28009828009829,NA,NA,NA
76009,Johnson County,TX,71.47688838782412,NA,NA,NA,NA
76010,Tarrant County,TX,NA,NA,22.761194029850746,NA,72.68041237113401
76012,Tarrant County,TX,31.679819616685457,NA,NA,NA,NA
76020,Tarrant County,TX,46.786922209695604,NA,NA,NA,NA
76033,Johnson County,TX,44.983089064261556,NA,NA,NA,NA
76063,Tarrant County,TX,NA,38.57493857493858,NA,NA,NA
76086,Parker County,TX,69.10935738444194,NA,NA,NA,NA
76092,Tarrant County,TX,NA,NA,74.50248756218906,NA,NA
76105,Tarrant County,TX,NA,21.867321867321866,NA,NA,NA
76106,Tarrant County,TX,21.98421645997745,NA,NA,NA,NA
76108,Tarrant County,TX,35.51296505073281,NA,NA,NA,NA
76110,Tarrant County,TX,NA,NA,51.865671641791046,NA,NA
76111,Tarrant County,TX,NA,NA,80.97014925373134,NA,NA
76112,Tarrant County,TX,26.944757609921083,NA,NA,NA,NA
76116,Tarrant County,TX,14.881623449830892,55.77395577395578,NA,NA,NA
76120,Tarrant County,TX,NA,NA,NA,97.69736842105263,NA
76134,Tarrant County,TX,NA,42.75184275184275,35.82089552238806,NA,NA
76140,Tarrant County,TX,NA,NA,46.766169154228855,NA,NA
76179,Tarrant County,TX,NA,NA,38.308457711442784,NA,NA
76205,Denton County,TX,84.21645997745209,NA,NA,NA,NA
76244,Tarrant County,TX,NA,NA,NA,61.51315789473685,NA
76301,Wichita County,TX,NA,NA,55.472636815920396,NA,NA
76306,Wichita County,TX,68.88387824126269,NA,91.16915422885572,NA,NA
76502,Bell County,TX,16.910935738444195,NA,NA,NA,NA
76504,Bell County,TX,NA,9.090909090909092,NA,NA,NA
76520,Milam County,TX,NA,NA,92.41293532338308,NA,NA
76528,Coryell County,TX,NA,23.34152334152334,NA,NA,NA
76706,McLennan County,TX,30.777903043968436,35.38083538083538,NA,NA,NA
76904,Tom Green County,TX,25.02818489289741,NA,NA,NA,NA
77020,Harris County,TX,66.62908680947012,NA,NA,NA,NA
77021,Harris County,TX,NA,NA,43.656716417910445,NA,NA
77024,Harris County,TX,NA,NA,NA,NA,38.659793814432994
77035,Harris County,TX,NA,NA,49.875621890547265,NA,NA
77036,Harris County,TX,37.767756482525364,NA,NA,NA,NA
77042,Harris County,TX,NA,NA,79.47761194029852,NA,NA
77044,Harris County,TX,29.537767756482523,NA,NA,NA,NA
77060,Harris County,TX,NA,41.03194103194103,71.26865671641791,NA,NA
77062,Harris County,TX,57.72266065388951,NA,NA,NA,NA
77066,Harris County,TX,NA,NA,76.99004975124379,NA,NA
77072,Harris County,TX,31.905298759864714,NA,NA,NA,NA
77075,Harris County,TX,64.26155580608793,NA,NA,NA,NA
77078,Harris County,TX,NA,NA,NA,69.4078947368421,NA
77087,Harris County,TX,71.81510710259302,NA,NA,NA,NA
77089,Harris County,TX,30.43968432919955,39.55773955773956,NA,NA,NA
77090,Harris County,TX,NA,66.33906633906635,NA,NA,NA
77095,Harris County,TX,NA,NA,23.00995024875622,NA,NA
77301,Montgomery County,TX,42.728297632469,NA,NA,NA,NA
77306,Montgomery County,TX,NA,NA,94.15422885572139,NA,NA
77338,Harris County,TX,NA,35.13513513513514,NA,NA,NA
77340,Walker County,TX,NA,NA,NA,88.48684210526315,NA
77345,Harris County,TX,NA,NA,NA,NA,65.4639175257732
77357,Montgomery County,TX,NA,52.08845208845209,NA,NA,NA
77378,Montgomery County,TX,46.33596392333709,NA,NA,NA,NA
77385,Montgomery County,TX,NA,NA,70.8955223880597,NA,NA
77450,Harris County,TX,NA,NA,46.89054726368159,NA,NA
77489,Fort Bend County,TX,NA,NA,39.30348258706468,NA,NA
77539,Galveston County,TX,NA,NA,26.119402985074625,NA,NA
77550,Galveston County,TX,NA,42.26044226044226,NA,NA,NA
77562,Harris County,TX,NA,NA,83.70646766169155,NA,NA
77563,Galveston County,TX,79.25591882750845,NA,NA,NA,NA
77566,Brazoria County,TX,71.81510710259302,NA,NA,NA,NA
77591,Galveston County,TX,NA,43.24324324324324,NA,NA,NA
77656,Hardin County,TX,NA,NA,66.4179104477612,NA,NA
77840,Brazos County,TX,49.6054114994363,NA,NA,NA,NA
77845,Brazos County,TX,NA,NA,NA,NA,4.123711340206185
77901,Victoria County,TX,NA,NA,32.960199004975124,NA,NA
78002,Bexar County,TX,90.41713641488163,NA,NA,NA,NA
78006,Kendall County,TX,NA,NA,NA,NA,72.16494845360825
78041,Webb County,TX,35.851183765501695,NA,NA,NA,NA
78046,Webb County,TX,1.3528748590755355,NA,NA,NA,NA
78065,Atascosa County,TX,NA,92.62899262899262,NA,NA,NA
78114,Wilson County,TX,64.26155580608793,NA,NA,57.89473684210527,NA
78119,Karnes County,TX,93.46110484780158,NA,NA,NA,NA
78121,Wilson County,TX,NA,NA,90.04975124378109,NA,NA
78140,Gonzales County,TX,99.2108229988726,NA,99.6268656716418,NA,NA
78154,Guadalupe County,TX,82.2998872604284,NA,NA,NA,NA
78201,Bexar County,TX,60.766629086809466,NA,NA,NA,NA
78204,Bexar County,TX,NA,74.69287469287468,NA,NA,NA
78207,Bexar County,TX,4.6223224351747465,NA,NA,NA,NA
78210,Bexar County,TX,42.05186020293123,NA,NA,NA,NA
78214,Bexar County,TX,47.463359639233374,NA,NA,NA,NA
78218,Bexar County,TX,NA,29.238329238329236,NA,NA,NA
78221,Bexar County,TX,30.101465614430666,NA,NA,NA,NA
78223,Bexar County,TX,NA,NA,25.12437810945274,NA,NA
78224,Bexar County,TX,52.76211950394588,NA,NA,NA,NA
78227,Bexar County,TX,NA,NA,44.776119402985074,NA,NA
78228,Bexar County,TX,NA,8.353808353808354,NA,NA,NA
78233,Bexar County,TX,26.493799323562573,NA,NA,NA,NA
78237,Bexar County,TX,21.645997745208568,NA,NA,27.960526315789476,NA
78238,Bexar County,TX,NA,56.75675675675676,NA,NA,NA
78240,Bexar County,TX,NA,57.24815724815725,NA,NA,NA
78242,Bexar County,TX,26.268320180383313,22.358722358722357,NA,NA,NA
78244,Bexar County,TX,NA,41.52334152334152,70.77114427860697,NA,NA
78251,Bexar County,TX,NA,45.94594594594595,NA,NA,NA
78368,San Patricio County,TX,89.74069898534385,NA,NA,NA,NA
78387,San Patricio County,TX,NA,NA,96.51741293532339,NA,NA
78418,Nueces County,TX,NA,74.44717444717445,NA,NA,NA
78504,Hidalgo County,TX,46.33596392333709,NA,NA,NA,NA
78521,Cameron County,TX,17.249154453213077,NA,NA,NA,NA
78539,Hidalgo County,TX,NA,NA,89.17910447761194,NA,NA
78542,Hidalgo County,TX,9.244644870349493,NA,NA,NA,NA
78582,Starr County,TX,NA,NA,76.49253731343283,NA,NA
78596,Hidalgo County,TX,48.59075535512965,NA,NA,NA,NA
78702,Travis County,TX,81.28523111612176,NA,NA,NA,NA
78703,Travis County,TX,NA,NA,96.8905472636816,NA,NA
78721,Travis County,TX,94.92671927846675,NA,NA,NA,NA
78722,Travis County,TX,NA,NA,99.75124378109453,NA,NA
78723,Travis County,TX,51.18376550169109,NA,NA,NA,NA
78724,Travis County,TX,NA,NA,NA,NA,91.23711340206185
78728,Travis County,TX,NA,NA,85.57213930348259,NA,NA
78738,Travis County,TX,NA,NA,87.06467661691542,NA,NA
78745,Travis County,TX,NA,NA,NA,NA,58.24742268041238
78753,Travis County,TX,NA,NA,71.14427860696517,NA,NA
78754,Travis County,TX,NA,NA,NA,92.76315789473685,NA
79414,Lubbock County,TX,82.75084554678692,NA,NA,NA,NA
79549,Scurry County,TX,NA,80.34398034398035,NA,NA,NA
79606,Taylor County,TX,65.16347237880497,NA,NA,NA,NA
79745,Winkler County,TX,NA,NA,NA,98.02631578947368,NA
79763,Ector County,TX,16.234498308906424,NA,NA,NA,NA
79912,El Paso County,TX,NA,NA,35.9452736318408,NA,NA
79915,El Paso County,TX,NA,NA,61.69154228855721,NA,NA
79935,El Paso County,TX,43.404735062006765,NA,NA,NA,NA
84010,Davis County,UT,NA,NA,NA,NA,24.742268041237114
84029,Tooele County,UT,NA,NA,68.28358208955224,NA,NA
84047,Salt Lake County,UT,NA,NA,69.90049751243781,NA,NA
84065,Salt Lake County,UT,49.267192784667415,NA,NA,NA,NA
84067,Weber County,UT,88.50056369785794,NA,NA,NA,NA
84074,Tooele County,UT,NA,NA,5.721393034825871,NA,NA
84078,Uintah County,UT,NA,NA,21.51741293532338,NA,NA
84094,Salt Lake County,UT,NA,NA,NA,NA,75.25773195876289
84116,Salt Lake County,UT,NA,NA,NA,95.39473684210526,NA
84119,Salt Lake County,UT,NA,NA,16.791044776119403,NA,NA
84337,Box Elder County,UT,NA,NA,95.02487562189054,NA,NA
84663,Utah County,UT,69.44757609921083,NA,NA,NA,NA
84701,Sevier County,UT,NA,NA,NA,NA,98.96907216494846
05733,Rutland County,VT,NA,NA,NA,NA,82.4742268041237
20148,Loudoun County,VA,NA,NA,NA,92.10526315789474,NA
20152,Loudoun County,VA,91.5445321307779,NA,NA,NA,NA
22042,Fairfax County,VA,78.57948139797068,NA,NA,NA,NA
22079,Fairfax County,VA,85.79481397970687,NA,NA,NA,NA
22150,Fairfax County,VA,NA,NA,62.06467661691543,NA,NA
22303,Fairfax County,VA,NA,NA,80.34825870646766,NA,NA
22304,Alexandria city,VA,NA,NA,NA,NA,44.329896907216494
22309,Fairfax County,VA,NA,15.970515970515969,NA,NA,NA
22315,Fairfax County,VA,NA,NA,NA,NA,81.44329896907216
22401,Fredericksburg city,VA,70.68771138669673,60.93366093366094,NA,NA,NA
22407,Spotsylvania County,VA,27.846674182638104,NA,NA,NA,NA
22485,King George County,VA,NA,NA,73.50746268656717,NA,NA
22551,Spotsylvania County,VA,51.40924464487034,NA,NA,NA,NA
22554,Stafford County,VA,28.07215332581736,NA,NA,NA,NA
22802,Harrisonburg city,VA,28.861330326944756,NA,NA,58.55263157894737,NA
22827,Rockingham County,VA,84.6674182638106,NA,NA,NA,NA
22901,Albemarle County,VA,NA,NA,41.54228855721393,NA,10.309278350515463
22968,Greene County,VA,NA,NA,72.2636815920398,NA,NA
22980,Waynesboro city,VA,38.55693348365276,42.997542997543,NA,NA,NA
23024,Louisa County,VA,67.75648252536641,NA,NA,NA,NA
23075,Henrico County,VA,NA,NA,72.13930348258707,NA,NA
23112,Chesterfield County,VA,NA,60.1965601965602,NA,NA,NA
23188,James City County,VA,NA,NA,NA,NA,0.5154639175257731
23222,Richmond city,VA,47.576099210822996,NA,NA,NA,NA
23223,Henrico County,VA,3.9458850056369785,NA,NA,NA,NA
23224,Richmond city,VA,12.852311161217585,NA,14.925373134328357,NA,NA
23225,Richmond city,VA,NA,NA,18.28358208955224,NA,NA
23320,Chesapeake city,VA,31.116121758737318,NA,NA,NA,NA
23323,Chesapeake city,VA,56.93348365276212,NA,NA,42.43421052631579,NA
23324,Chesapeake city,VA,NA,NA,97.38805970149254,NA,NA
23434,Suffolk city,VA,NA,NA,NA,NA,15.979381443298967
23451,Virginia Beach city,VA,NA,NA,48.507462686567166,NA,5.154639175257731
23452,Virginia Beach city,VA,26.606538895152198,NA,NA,NA,NA
23454,Virginia Beach city,VA,NA,NA,38.059701492537314,NA,NA
23455,Virginia Beach city,VA,82.07440811724915,NA,NA,13.486842105263158,NA
23462,Virginia Beach city,VA,NA,NA,NA,14.802631578947366,NA
23487,Isle of Wight County,VA,NA,85.01228501228502,NA,NA,NA
23505,Norfolk city,VA,72.94250281848929,NA,NA,NA,NA
23508,Norfolk city,VA,NA,NA,NA,NA,71.1340206185567
23509,Norfolk city,VA,81.39797068771138,NA,NA,NA,NA
23513,Norfolk city,VA,49.83089064261556,40.2948402948403,NA,NA,NA
23518,Norfolk city,VA,NA,NA,NA,NA,52.57731958762887
23523,Norfolk city,VA,NA,45.20884520884521,NA,NA,NA
23701,Portsmouth city,VA,33.25817361894025,NA,NA,NA,NA
23707,Portsmouth city,VA,41.037204058624575,NA,62.31343283582089,NA,NA
23834,Colonial Heights city,VA,52.423900789177004,NA,NA,NA,NA
23838,Chesterfield County,VA,NA,NA,NA,NA,81.95876288659794
24014,Roanoke city,VA,NA,NA,NA,NA,62.371134020618555
24112,Henry County,VA,NA,NA,22.01492537313433,NA,NA
24201,Bristol city,VA,NA,NA,NA,51.31578947368421,NA
24219,Wise County,VA,68.9966178128523,NA,NA,NA,NA
24244,Scott County,VA,NA,90.41769041769042,NA,NA,NA
24260,Russell County,VA,79.25591882750845,NA,78.48258706467661,NA,NA
24293,Wise County,VA,NA,71.74447174447175,NA,NA,NA
24422,Alleghany County,VA,NA,NA,NA,87.17105263157895,NA
24426,Alleghany County,VA,NA,74.93857493857494,NA,NA,NA
24501,Lynchburg city,VA,39.120631341600905,NA,NA,NA,NA
24605,Tazewell County,VA,NA,NA,41.04477611940299,NA,NA
24641,Tazewell County,VA,74.29537767756483,NA,NA,NA,NA
98004,King County,WA,NA,NA,NA,NA,37.11340206185567
98008,King County,WA,55.80608793686584,NA,NA,NA,NA
98038,King County,WA,NA,NA,NA,45.723684210526315,NA
98042,King County,WA,NA,NA,22.388059701492537,NA,NA
98043,Snohomish County,WA,NA,NA,NA,85.52631578947368,NA
98065,King County,WA,NA,NA,88.55721393034825,NA,NA
98075,King County,WA,81.8489289740699,NA,NA,NA,NA
98103,King County,WA,NA,NA,55.84577114427861,NA,NA
98122,King County,WA,NA,NA,NA,NA,50
98144,King County,WA,NA,NA,38.80597014925373,NA,NA
98223,Snohomish County,WA,NA,NA,31.965174129353237,NA,NA
98226,Whatcom County,WA,NA,79.85257985257985,NA,NA,NA
98275,Snohomish County,WA,56.93348365276212,NA,NA,NA,NA
98277,Island County,WA,80.608793686584,NA,NA,NA,NA
98282,Island County,WA,NA,NA,NA,48.026315789473685,NA
98310,Kitsap County,WA,88.83878241262683,NA,NA,NA,NA
98367,Kitsap County,WA,NA,NA,84.07960199004975,NA,NA
98382,Clallam County,WA,NA,NA,NA,NA,1.5463917525773196
98383,Kitsap County,WA,NA,NA,NA,NA,74.74226804123711
98387,Pierce County,WA,22.66065388951522,NA,NA,NA,NA
98391,Pierce County,WA,NA,NA,18.90547263681592,NA,NA
98404,Pierce County,WA,NA,NA,41.54228855721393,NA,NA
98499,Pierce County,WA,NA,NA,52.363184079601986,NA,NA
98503,Thurston County,WA,NA,NA,77.363184079602,58.55263157894737,NA
98661,Clark County,WA,NA,NA,57.83582089552238,NA,NA
98662,Clark County,WA,NA,NA,NA,NA,42.2680412371134
98684,Clark County,WA,94.58850056369785,NA,NA,NA,NA
98801,Chelan County,WA,NA,NA,31.467661691542286,NA,NA
98802,Douglas County,WA,29.537767756482523,NA,59.079601990049746,NA,NA
98902,Yakima County,WA,79.0304396843292,NA,36.691542288557216,NA,NA
98926,Kittitas County,WA,NA,87.22358722358723,NA,NA,NA
99006,Spokane County,WA,NA,NA,92.66169154228857,NA,NA
99141,Stevens County,WA,NA,NA,92.91044776119402,NA,NA
99336,Benton County,WA,NA,NA,16.169154228855724,3.618421052631579,NA
99344,Adams County,WA,NA,95.0859950859951,NA,NA,NA
99352,Benton County,WA,NA,NA,NA,30.263157894736842,NA
99362,Walla Walla County,WA,72.6042841037204,NA,NA,15.460526315789474,NA
20002,District of Columbia,DC,NA,48.402948402948404,NA,NA,NA
20011,District of Columbia,DC,58.62457722660653,NA,NA,NA,NA
20019,District of Columbia,DC,8.117249154453212,NA,NA,NA,NA
20020,District of Columbia,DC,8.455467869222097,13.022113022113022,NA,NA,NA
20032,District of Columbia,DC,11.724915445321308,NA,NA,NA,NA
24701,Mercer County,WV,NA,NA,38.43283582089552,NA,NA
24740,Mercer County,WV,NA,52.825552825552826,NA,NA,NA
25309,Kanawha County,WV,44.306651634723785,NA,NA,NA,NA
25405,Berkeley County,WV,NA,NA,83.33333333333334,NA,NA
25419,Berkeley County,WV,NA,NA,86.44278606965175,NA,NA
25504,Cabell County,WV,NA,NA,66.54228855721394,NA,NA
25550,Mason County,WV,NA,NA,NA,38.15789473684211,NA
26037,Brooke County,WV,NA,NA,86.56716417910447,NA,NA
26155,Wetzel County,WV,NA,NA,NA,68.42105263157895,NA
26170,Pleasants County,WV,96.3923337091319,NA,NA,NA,NA
26201,Upshur County,WV,NA,24.815724815724817,NA,NA,NA
53012,Ozaukee County,WI,NA,NA,86.31840796019901,NA,NA
53014,Calumet County,WI,NA,91.4004914004914,NA,NA,NA
53051,Waukesha County,WI,NA,NA,52.61194029850746,NA,NA
53120,Walworth County,WI,NA,93.36609336609337,NA,NA,NA
53140,Kenosha County,WI,NA,46.43734643734644,NA,NA,NA
53143,Kenosha County,WI,27.28297632468997,NA,23.756218905472636,NA,NA
53144,Kenosha County,WI,NA,NA,22.139303482587064,NA,NA
53158,Kenosha County,WI,NA,NA,NA,NA,64.94845360824742
53189,Waukesha County,WI,58.060879368658405,NA,NA,NA,NA
53204,Milwaukee County,WI,NA,33.90663390663391,NA,NA,NA
53205,Milwaukee County,WI,70.12401352874859,NA,NA,NA,NA
53207,Milwaukee County,WI,NA,NA,35.32338308457712,NA,NA
53208,Milwaukee County,WI,NA,23.095823095823096,NA,NA,NA
53209,Milwaukee County,WI,NA,NA,NA,4.276315789473684,NA
53212,Milwaukee County,WI,NA,NA,52.23880597014925,NA,NA
53214,Milwaukee County,WI,NA,NA,15.92039800995025,NA,NA
53215,Milwaukee County,WI,2.142051860202931,NA,6.7164179104477615,NA,NA
53216,Milwaukee County,WI,NA,NA,9.203980099502488,NA,NA
53218,Milwaukee County,WI,5.411499436302142,12.039312039312039,NA,NA,NA
53222,Milwaukee County,WI,NA,NA,66.04477611940298,NA,NA
53225,Milwaukee County,WI,9.582863585118377,NA,NA,46.71052631578947,NA
53405,Racine County,WI,NA,50.368550368550366,NA,NA,NA
53546,Rock County,WI,44.7576099210823,NA,NA,NA,NA
53548,Rock County,WI,NA,75.42997542997543,34.20398009950249,68.75,NA
53563,Rock County,WI,NA,NA,NA,50.98684210526315,NA
53566,Green County,WI,58.39909808342728,NA,NA,NA,NA
53581,Richland County,WI,92.55918827508455,NA,NA,NA,NA
53703,Dane County,WI,NA,NA,84.82587064676616,NA,NA
53711,Dane County,WI,20.631341600901916,NA,NA,NA,NA
53713,Dane County,WI,NA,NA,61.06965174129353,NA,NA
53719,Dane County,WI,76.32468996617813,NA,NA,50,NA
53813,Grant County,WI,89.74069898534385,NA,NA,NA,NA
53901,Columbia County,WI,NA,78.37837837837837,NA,NA,NA
53913,Sauk County,WI,NA,NA,NA,NA,16.49484536082474
53959,Sauk County,WI,59.07553551296505,NA,NA,NA,NA
54025,St. Croix County,WI,89.96617812852311,NA,NA,NA,NA
54162,Brown County,WI,91.0935738444194,NA,NA,NA,NA
54166,Shawano County,WI,75.87373167981961,NA,NA,NA,NA
54235,Door County,WI,NA,NA,70.1492537313433,NA,NA
54304,Brown County,WI,NA,75.18427518427518,NA,NA,NA
54313,Brown County,WI,NA,NA,NA,40.131578947368425,NA
54403,Marathon County,WI,NA,NA,52.86069651741293,NA,NA
54409,Langlade County,WI,NA,47.420147420147416,NA,NA,NA
54452,Lincoln County,WI,73.84441939120632,NA,NA,NA,NA
54481,Portage County,WI,39.79706877113867,NA,NA,21.38157894736842,NA
54601,La Crosse County,WI,NA,NA,10.44776119402985,2.631578947368421,5.670103092783505
54603,La Crosse County,WI,68.65839909808342,NA,NA,NA,NA
54646,Juneau County,WI,NA,97.54299754299754,88.93034825870647,NA,NA
54650,La Crosse County,WI,64.9379932356257,NA,NA,NA,NA
54667,Vernon County,WI,NA,NA,NA,NA,85.05154639175258
54701,Eau Claire County,WI,59.52649379932357,NA,NA,NA,NA
54703,Eau Claire County,WI,NA,NA,27.985074626865668,NA,NA
54720,Eau Claire County,WI,NA,NA,NA,NA,98.4536082474227
54727,Chippewa County,WI,NA,95.33169533169533,NA,NA,NA
54801,Washburn County,WI,NA,NA,95.02487562189054,NA,NA
54868,Barron County,WI,63.923337091319056,NA,NA,NA,NA
54971,Fond du Lac County,WI,73.50620067643743,NA,NA,NA,NA
54981,Waupaca County,WI,67.41826381059752,NA,NA,NA,NA
82604,Natrona County,WY,92.89740698985344,NA,NA,NA,NA
82901,Sweetwater County,WY,NA,NA,65.67164179104478,NA,NA
