ZipCode,county,state,Adult,Retirement,Geriatric
35023,Jefferson County,AL,35.08771929824561,NA,NA
35179,Cullman County,AL,NA,85.5595667870036,NA
35204,Jefferson County,AL,69.5906432748538,NA,NA
35242,Shelby County,AL,NA,NA,9.248554913294797
35546,Fayette County,AL,89.47368421052632,NA,NA
35748,Madison County,AL,NA,78.51985559566786,NA
35811,Madison County,AL,NA,NA,41.47398843930636
35956,Etowah County,AL,NA,NA,93.4971098265896
36108,Montgomery County,AL,46.198830409356724,NA,NA
36117,Montgomery County,AL,NA,NA,23.699421965317917
36544,Mobile County,AL,NA,91.87725631768953,NA
36551,Baldwin County,AL,73.09941520467837,NA,NA
36701,Dallas County,AL,32.748538011695906,NA,NA
99501,Anchorage Municipality,AK,NA,NA,86.9942196531792
85007,Maricopa County,AZ,NA,74.18772563176896,NA
85009,Maricopa County,AZ,NA,32.31046931407942,NA
85014,Maricopa County,AZ,NA,62.8158844765343,NA
85029,Maricopa County,AZ,NA,NA,53.612716763005785
85225,Maricopa County,AZ,NA,35.018050541516246,NA
85233,Maricopa County,AZ,NA,60.108303249097474,NA
85263,Maricopa County,AZ,NA,NA,93.9306358381503
85305,Maricopa County,AZ,NA,NA,100
85340,Maricopa County,AZ,NA,84.29602888086643,NA
85344,La Paz County,AZ,NA,43.14079422382672,NA
85395,Maricopa County,AZ,NA,52.888086642599276,NA
85607,Cochise County,AZ,NA,53.42960288808665,NA
85623,Pinal County,AZ,NA,NA,95.52023121387283
85635,Cochise County,AZ,29.239766081871345,NA,NA
85710,Pima County,AZ,NA,57.942238267148014,NA
85730,Pima County,AZ,NA,NA,55.63583815028902
85745,Pima County,AZ,29.82456140350877,NA,34.104046242774565
85756,Pima County,AZ,40.93567251461988,NA,NA
85929,Navajo County,AZ,NA,NA,86.27167630057804
86303,Yavapai County,AZ,NA,50.722021660649816,NA
86305,Yavapai County,AZ,NA,42.7797833935018,NA
86326,Yavapai County,AZ,27.485380116959064,28.158844765342963,NA
86333,Yavapai County,AZ,NA,NA,87.28323699421965
86403,Mohave County,AZ,NA,61.55234657039711,NA
86404,Mohave County,AZ,NA,59.38628158844765,NA
71655,Drew County,AR,NA,NA,78.17919075144508
72015,Saline County,AR,NA,75.09025270758123,NA
72020,White County,AR,NA,NA,80.49132947976878
72076,Pulaski County,AR,54.385964912280706,NA,NA
72120,Pulaski County,AR,NA,NA,47.398843930635834
72209,Pulaski County,AR,NA,74.90974729241877,NA
72223,Pulaski County,AR,NA,NA,51.87861271676301
72370,Mississippi County,AR,NA,NA,95.23121387283237
72401,Craighead County,AR,NA,NA,19.36416184971098
90006,Los Angeles County,CA,NA,NA,44.94219653179191
90008,Los Angeles County,CA,NA,49.81949458483754,NA
90011,Los Angeles County,CA,NA,53.24909747292419,NA
90033,Los Angeles County,CA,NA,56.317689530685925,NA
90037,Los Angeles County,CA,NA,NA,45.95375722543353
90044,Los Angeles County,CA,NA,22.92418772563177,NA
90046,Los Angeles County,CA,NA,NA,7.514450867052023
90048,Los Angeles County,CA,NA,NA,50
90210,Los Angeles County,CA,NA,55.415162454873645,NA
90280,Los Angeles County,CA,NA,NA,45.08670520231214
90405,Los Angeles County,CA,NA,NA,91.61849710982659
90601,Los Angeles County,CA,NA,NA,45.52023121387283
90604,Los Angeles County,CA,NA,NA,35.115606936416185
90717,Los Angeles County,CA,NA,NA,60.115606936416185
90720,Orange County,CA,NA,66.60649819494586,NA
90740,Orange County,CA,NA,NA,26.878612716763005
90744,Los Angeles County,CA,NA,63.35740072202166,NA
90745,Los Angeles County,CA,NA,NA,23.843930635838152
91006,Los Angeles County,CA,NA,NA,68.9306358381503
91205,Los Angeles County,CA,NA,NA,29.76878612716763
91303,Los Angeles County,CA,78.94736842105263,NA,NA
91304,Los Angeles County,CA,NA,NA,56.5028901734104
91316,Los Angeles County,CA,NA,NA,28.468208092485547
91325,Los Angeles County,CA,NA,71.84115523465704,NA
91342,Los Angeles County,CA,NA,NA,42.48554913294797
91351,Los Angeles County,CA,NA,80.14440433212997,88.58381502890174
91367,Los Angeles County,CA,59.06432748538012,NA,NA
91403,Los Angeles County,CA,NA,NA,75.86705202312139
91505,Los Angeles County,CA,NA,83.5740072202166,NA
91602,Los Angeles County,CA,NA,99.45848375451264,NA
91604,Los Angeles County,CA,NA,64.62093862815884,NA
91709,San Bernardino County,CA,39.1812865497076,NA,NA
91710,San Bernardino County,CA,NA,23.826714801444044,NA
91764,San Bernardino County,CA,NA,NA,73.121387283237
91911,San Diego County,CA,NA,NA,10.54913294797688
91977,San Diego County,CA,NA,34.65703971119133,NA
92009,San Diego County,CA,NA,NA,49.421965317919074
92011,San Diego County,CA,NA,70.93862815884476,NA
92037,San Diego County,CA,NA,57.5812274368231,NA
92056,San Diego County,CA,NA,NA,50.28901734104046
92057,San Diego County,CA,NA,NA,74.42196531791907
92058,San Diego County,CA,NA,NA,86.70520231213872
92081,San Diego County,CA,NA,NA,59.39306358381503
92084,San Diego County,CA,61.40350877192983,NA,48.554913294797686
92104,San Diego County,CA,NA,44.22382671480145,NA
92113,San Diego County,CA,NA,NA,58.8150289017341
92118,San Diego County,CA,NA,NA,41.32947976878613
92231,Imperial County,CA,NA,88.8086642599278,NA
92243,Imperial County,CA,NA,72.3826714801444,NA
92270,Riverside County,CA,NA,NA,2.745664739884393
92284,San Bernardino County,CA,NA,NA,61.849710982658955
92336,San Bernardino County,CA,NA,21.119133574007222,NA
92354,San Bernardino County,CA,NA,NA,61.1271676300578
92374,San Bernardino County,CA,NA,NA,82.22543352601156
92395,San Bernardino County,CA,NA,NA,42.630057803468205
92407,San Bernardino County,CA,NA,NA,71.67630057803468
92411,San Bernardino County,CA,NA,NA,85.54913294797689
92508,Riverside County,CA,NA,NA,89.30635838150289
92562,Riverside County,CA,NA,NA,43.641618497109825
92595,Riverside County,CA,NA,NA,72.25433526011561
92629,Orange County,CA,NA,NA,38.58381502890174
92651,Orange County,CA,NA,54.151624548736464,NA
92677,Orange County,CA,38.01169590643275,NA,NA
92683,Orange County,CA,19.883040935672515,NA,NA
92688,Orange County,CA,NA,NA,94.21965317919076
92692,Orange County,CA,43.859649122807014,NA,NA
92694,Orange County,CA,NA,79.06137184115524,NA
92801,Orange County,CA,NA,NA,45.3757225433526
92804,Orange County,CA,NA,NA,27.167630057803464
92805,Orange County,CA,NA,NA,93.35260115606935
92806,Orange County,CA,NA,NA,47.398843930635834
92808,Orange County,CA,72.51461988304094,NA,NA
92831,Orange County,CA,NA,51.26353790613718,69.36416184971098
92835,Orange County,CA,74.85380116959064,NA,24.13294797687861
92860,Riverside County,CA,NA,NA,95.37572254335261
92869,Orange County,CA,NA,NA,52.16763005780347
92886,Orange County,CA,NA,NA,27.74566473988439
93004,Ventura County,CA,58.47953216374269,NA,NA
93021,Ventura County,CA,NA,NA,83.95953757225433
93230,Kings County,CA,NA,56.85920577617328,NA
93292,Tulare County,CA,NA,NA,59.2485549132948
93306,Kern County,CA,NA,47.11191335740072,NA
93312,Kern County,CA,NA,NA,89.16184971098265
93436,Santa Barbara County,CA,NA,NA,16.329479768786126
93534,Los Angeles County,CA,NA,NA,67.05202312138728
93610,Madera County,CA,NA,87.00361010830325,NA
93618,Tulare County,CA,NA,79.42238267148014,NA
93703,Fresno County,CA,NA,64.8014440433213,NA
93908,Monterey County,CA,NA,86.82310469314079,NA
94010,San Mateo County,CA,NA,42.238267148014444,NA
94014,San Mateo County,CA,NA,NA,11.560693641618498
94043,Santa Clara County,CA,NA,NA,56.358381502890175
94070,San Mateo County,CA,NA,NA,59.6820809248555
94080,San Mateo County,CA,NA,NA,3.1791907514450863
94087,Santa Clara County,CA,NA,NA,65.60693641618496
94103,San Francisco County,CA,NA,21.660649819494584,NA
94107,San Francisco County,CA,NA,NA,54.91329479768786
94301,Santa Clara County,CA,90.64327485380117,NA,NA
94509,Contra Costa County,CA,NA,16.425992779783392,NA
94534,Solano County,CA,NA,51.985559566786996,NA
94539,Alameda County,CA,NA,61.01083032490975,NA
94541,Alameda County,CA,NA,NA,48.41040462427746
94544,Alameda County,CA,NA,NA,60.40462427745664
94546,Alameda County,CA,56.14035087719298,NA,NA
94561,Contra Costa County,CA,NA,55.23465703971119,NA
94568,Alameda County,CA,NA,NA,58.092485549132945
94578,Alameda County,CA,NA,NA,52.601156069364166
94580,Alameda County,CA,NA,71.29963898916968,NA
94583,Contra Costa County,CA,NA,NA,70.95375722543352
94705,Alameda County,CA,NA,93.14079422382672,NA
94707,Alameda County,CA,NA,NA,80.20231213872833
94901,Marin County,CA,NA,NA,40.7514450867052
94903,Marin County,CA,70.76023391812866,NA,NA
94952,Sonoma County,CA,NA,NA,83.38150289017341
94965,Marin County,CA,NA,NA,79.91329479768787
95037,Santa Clara County,CA,NA,40.794223826714806,NA
95046,Santa Clara County,CA,NA,NA,99.71098265895954
95050,Santa Clara County,CA,NA,89.16967509025271,NA
95135,Santa Clara County,CA,NA,NA,84.39306358381504
95205,San Joaquin County,CA,NA,NA,81.21387283236994
95219,San Joaquin County,CA,NA,83.21299638989169,NA
95223,Calaveras County,CA,NA,NA,94.94219653179191
95337,San Joaquin County,CA,NA,50.18050541516246,NA
95358,Stanislaus County,CA,34.50292397660819,56.49819494584838,NA
95370,Tuolumne County,CA,32.16374269005848,6.4981949458483745,NA
95380,Stanislaus County,CA,NA,25.27075812274368,NA
95401,Sonoma County,CA,NA,NA,48.12138728323699
95404,Sonoma County,CA,NA,NA,26.300578034682083
95409,Sonoma County,CA,NA,NA,16.907514450867055
95422,Lake County,CA,NA,58.48375451263538,NA
95448,Sonoma County,CA,NA,53.068592057761734,NA
95482,Mendocino County,CA,NA,NA,39.45086705202312
95490,Mendocino County,CA,NA,NA,64.73988439306359
95608,Sacramento County,CA,NA,24.90974729241877,NA
95758,Sacramento County,CA,NA,NA,44.36416184971098
95822,Sacramento County,CA,NA,NA,25
95926,Butte County,CA,NA,33.03249097472924,NA
95993,Sutter County,CA,52.63157894736842,NA,NA
96064,Siskiyou County,CA,NA,NA,98.84393063583815
80021,Jefferson County,CO,NA,62.093862815884485,NA
80118,Douglas County,CO,NA,NA,91.90751445086705
80138,Douglas County,CO,NA,NA,74.13294797687861
80231,Denver County,CO,NA,66.4259927797834,59.97109826589595
80525,Larimer County,CO,50.877192982456144,NA,NA
80903,El Paso County,CO,NA,NA,89.88439306358381
80918,El Paso County,CO,NA,42.96028880866426,NA
81006,Pueblo County,CO,NA,NA,79.76878612716763
81007,Pueblo County,CO,NA,49.277978339350184,NA
81008,Pueblo County,CO,NA,92.96028880866426,NA
81089,Huerfano County,CO,NA,NA,85.69364161849711
81101,Alamosa County,CO,48.53801169590643,NA,NA
81122,La Plata County,CO,NA,NA,97.39884393063583
81137,San Juan County,CO,95.32163742690058,NA,NA
81301,La Plata County,CO,NA,49.458483754512635,NA
81401,Montrose County,CO,NA,48.375451263537904,NA
81501,Mesa County,CO,NA,NA,76.58959537572254
06029,Tolland County,CT,NA,NA,58.52601156069365
06053,Hartford County,CT,NA,NA,49.566473988439306
06106,Hartford County,CT,NA,17.689530685920577,NA
06108,Hartford County,CT,NA,62.27436823104693,NA
06111,Hartford County,CT,NA,50.361010830324915,NA
06405,New Haven County,CT,NA,33.935018050541515,12.138728323699421
06415,New London County,CT,NA,NA,77.45664739884393
06443,New Haven County,CT,68.42105263157895,NA,NA
06473,New Haven County,CT,NA,NA,24.566473988439306
06477,New Haven County,CT,NA,80.86642599277978,NA
06478,New Haven County,CT,NA,NA,72.97687861271676
06484,Fairfield County,CT,NA,NA,19.07514450867052
06489,Hartford County,CT,NA,58.664259927797836,NA
06511,New Haven County,CT,NA,13.898916967509026,NA
06512,New Haven County,CT,NA,27.978339350180505,NA
06513,New Haven County,CT,23.976608187134502,NA,NA
06515,New Haven County,CT,NA,NA,43.786127167630056
06610,Fairfield County,CT,NA,61.73285198555957,NA
06615,Fairfield County,CT,NA,63.35740072202166,NA
06820,Fairfield County,CT,NA,NA,84.53757225433526
06830,Fairfield County,CT,NA,NA,49.71098265895954
06850,Fairfield County,CT,NA,NA,63.005780346820806
06851,Fairfield County,CT,NA,NA,32.947976878612714
06880,Fairfield County,CT,NA,NA,64.30635838150289
06890,Fairfield County,CT,NA,98.55595667870037,NA
19720,New Castle County,DE,NA,28.880866425992778,NA
19947,Sussex County,DE,NA,NA,56.5028901734104
19958,Sussex County,DE,NA,7.761732851985561,NA
19977,Kent County,DE,NA,82.31046931407943,NA
32060,Suwannee County,FL,NA,54.69314079422383,NA
32066,Lafayette County,FL,NA,98.19494584837545,NA
32068,Clay County,FL,NA,NA,38.4393063583815
32084,St. Johns County,FL,NA,NA,37.861271676300575
32112,Putnam County,FL,NA,NA,96.67630057803468
32159,Lake County,FL,NA,29.96389891696751,NA
32162,Sumter County,FL,NA,4.1516245487364625,NA
32205,Duval County,FL,NA,41.335740072202164,NA
32207,Duval County,FL,NA,NA,58.67052023121387
32209,Duval County,FL,NA,NA,16.61849710982659
32218,Duval County,FL,NA,6.31768953068592,NA
32221,Duval County,FL,NA,43.501805054151625,NA
32256,Duval County,FL,NA,NA,33.959537572254334
32303,Leon County,FL,NA,NA,58.8150289017341
32533,Escambia County,FL,NA,24.90974729241877,NA
32566,Santa Rosa County,FL,NA,28.51985559566787,NA
32605,Alachua County,FL,NA,NA,27.3121387283237
32606,Alachua County,FL,NA,NA,30.057803468208093
32615,Alachua County,FL,NA,62.996389891696744,NA
32641,Alachua County,FL,30.994152046783626,NA,NA
32668,Levy County,FL,NA,84.83754512635379,NA
32680,Dixie County,FL,NA,80.68592057761734,NA
32778,Lake County,FL,NA,32.67148014440433,NA
32784,Lake County,FL,NA,NA,83.09248554913295
32822,Orange County,FL,NA,NA,35.83815028901734
32836,Orange County,FL,NA,88.4476534296029,NA
32935,Brevard County,FL,21.637426900584796,NA,NA
32960,Indian River County,FL,NA,49.09747292418773,NA
32963,Indian River County,FL,NA,NA,17.63005780346821
33027,Broward County,FL,NA,NA,6.6473988439306355
33060,Broward County,FL,NA,58.30324909747292,NA
33071,Broward County,FL,NA,NA,74.27745664739885
33131,Miami-Dade County,FL,89.47368421052632,NA,NA
33133,Miami-Dade County,FL,NA,NA,32.51445086705203
33134,Miami-Dade County,FL,NA,NA,33.67052023121387
33143,Miami-Dade County,FL,NA,NA,79.47976878612717
33157,Miami-Dade County,FL,NA,NA,24.710982658959537
33311,Broward County,FL,NA,NA,31.502890173410403
33321,Broward County,FL,NA,31.5884476534296,NA
33331,Broward County,FL,NA,87.90613718411552,NA
33404,Palm Beach County,FL,NA,NA,46.96531791907515
33408,Palm Beach County,FL,NA,NA,89.73988439306359
33414,Palm Beach County,FL,50.29239766081871,NA,NA
33417,Palm Beach County,FL,NA,NA,25.289017341040466
33480,Palm Beach County,FL,NA,NA,41.040462427745666
33573,Hillsborough County,FL,NA,NA,2.601156069364162
33615,Hillsborough County,FL,33.33333333333333,NA,NA
33763,Pinellas County,FL,NA,NA,46.24277456647399
33770,Pinellas County,FL,NA,NA,52.312138728323696
33805,Polk County,FL,43.27485380116959,NA,NA
33809,Polk County,FL,NA,NA,36.27167630057804
33830,Polk County,FL,NA,NA,93.0635838150289
33870,Highlands County,FL,NA,NA,12.572254335260116
33904,Lee County,FL,NA,21.299638989169676,NA
34108,Collier County,FL,NA,61.91335740072203,NA
34113,Collier County,FL,77.19298245614034,NA,NA
34207,Manatee County,FL,NA,NA,56.06936416184971
34228,Sarasota County,FL,NA,NA,45.664739884393065
34237,Sarasota County,FL,NA,75.9927797833935,NA
34285,Sarasota County,FL,NA,NA,68.64161849710982
34452,Citrus County,FL,NA,NA,78.61271676300578
34476,Marion County,FL,64.32748538011695,NA,NA
34655,Pasco County,FL,NA,NA,21.53179190751445
34787,Orange County,FL,31.57894736842105,NA,NA
30022,Fulton County,GA,44.44444444444444,NA,NA
30039,Gwinnett County,GA,NA,NA,49.13294797687861
30044,Gwinnett County,GA,22.22222222222222,NA,NA
30052,Walton County,GA,NA,NA,29.335260115606935
30062,Cobb County,GA,NA,NA,31.647398843930635
30080,Cobb County,GA,NA,65.88447653429603,NA
30143,Pickens County,GA,NA,44.04332129963899,NA
30175,Pickens County,GA,NA,91.33574007220217,NA
30349,Fulton County,GA,NA,15.342960288808664,NA
30512,Union County,GA,NA,NA,48.69942196531792
30559,Fannin County,GA,NA,94.40433212996389,NA
30650,Morgan County,GA,66.08187134502924,NA,92.63005780346822
30828,Warren County,GA,NA,94.58483754512635,NA
30907,Columbia County,GA,NA,NA,34.2485549132948
31015,Crisp County,GA,53.216374269005854,NA,NA
31322,Chatham County,GA,76.60818713450293,NA,NA
31533,Coffee County,GA,NA,NA,72.6878612716763
31714,Turner County,GA,NA,NA,74.71098265895954
31774,Irwin County,GA,NA,93.68231046931407,NA
96707,Honolulu County,HI,NA,NA,59.104046242774565
96720,Hawaii County,HI,NA,31.40794223826715,NA
96746,Kauai County,HI,NA,NA,91.32947976878613
96792,Honolulu County,HI,NA,30.324909747292416,NA
83274,Bingham County,ID,83.04093567251462,NA,NA
83301,Twin Falls County,ID,5.263157894736842,NA,NA
83350,Minidoka County,ID,NA,NA,82.8034682080925
83401,Bonneville County,ID,NA,48.91696750902527,NA
83467,Lemhi County,ID,NA,NA,66.90751445086705
83642,Ada County,ID,NA,10.469314079422382,NA
83660,Canyon County,ID,NA,NA,93.78612716763006
83687,Canyon County,ID,25.730994152046783,22.021660649819495,NA
83704,Ada County,ID,NA,29.96389891696751,NA
83709,Ada County,ID,NA,NA,5.346820809248555
83713,Ada County,ID,NA,57.761732851985556,NA
83815,Kootenai County,ID,41.52046783625731,NA,NA
83856,Bonner County,ID,NA,NA,98.98843930635837
60002,Lake County,IL,NA,41.87725631768953,NA
60004,Cook County,IL,30.409356725146196,NA,NA
60014,McHenry County,IL,NA,18.231046931407942,24.421965317919074
60015,Lake County,IL,NA,31.768953068592058,20.3757225433526
60025,Cook County,IL,NA,NA,5.057803468208093
60030,Lake County,IL,NA,NA,18.497109826589593
60035,Lake County,IL,NA,17.509025270758123,NA
60076,Cook County,IL,NA,29.783393501805055,18.641618497109828
60077,Cook County,IL,NA,37.18411552346571,NA
60083,Lake County,IL,NA,NA,97.10982658959537
60107,Cook County,IL,NA,46.3898916967509,NA
60130,Cook County,IL,NA,NA,81.35838150289018
60137,DuPage County,IL,NA,37.36462093862816,NA
60142,McHenry County,IL,NA,NA,1.8786127167630058
60154,Cook County,IL,NA,NA,92.48554913294798
60164,Cook County,IL,NA,79.78339350180505,NA
60177,Kane County,IL,NA,60.28880866425993,NA
60302,Cook County,IL,NA,18.050541516245488,NA
60402,Cook County,IL,NA,12.454873646209386,35.26011560693642
60409,Cook County,IL,NA,NA,37.42774566473989
60433,Will County,IL,NA,NA,84.2485549132948
60439,Cook County,IL,NA,NA,29.47976878612717
60441,Will County,IL,NA,NA,42.052023121387286
60466,Cook County,IL,NA,NA,53.46820809248555
60502,DuPage County,IL,NA,77.07581227436823,NA
60515,DuPage County,IL,NA,43.14079422382672,NA
60521,DuPage County,IL,NA,67.14801444043322,NA
60546,Cook County,IL,NA,NA,47.832369942196536
60559,DuPage County,IL,NA,54.332129963898915,NA
60561,DuPage County,IL,NA,38.628158844765345,NA
60608,Cook County,IL,NA,NA,9.393063583815028
60609,Cook County,IL,NA,NA,23.121387283236995
60610,Cook County,IL,NA,NA,23.265895953757227
60611,Cook County,IL,NA,NA,12.861271676300579
60613,Cook County,IL,NA,41.69675090252707,NA
60614,Cook County,IL,25.146198830409354,NA,NA
60616,Cook County,IL,NA,NA,26.011560693641616
60617,Cook County,IL,NA,NA,57.22543352601156
60619,Cook County,IL,NA,NA,1.4450867052023122
60620,Cook County,IL,NA,6.137184115523466,NA
60628,Cook County,IL,NA,7.039711191335741,NA
60630,Cook County,IL,NA,NA,50.72254335260116
60634,Cook County,IL,NA,11.191335740072201,NA
60636,Cook County,IL,NA,NA,63.72832369942196
60637,Cook County,IL,NA,NA,25.722543352601157
60638,Cook County,IL,NA,NA,32.369942196531795
60639,Cook County,IL,NA,44.94584837545126,NA
60641,Cook County,IL,NA,19.855595667870034,NA
60644,Cook County,IL,NA,NA,56.936416184971094
60649,Cook County,IL,NA,11.732851985559567,20.809248554913296
60651,Cook County,IL,NA,NA,17.77456647398844
60654,Cook County,IL,NA,86.10108303249098,NA
60656,Cook County,IL,NA,52.166064981949454,NA
60942,Vermilion County,IL,NA,67.32851985559567,NA
61068,Ogle County,IL,NA,59.205776173285194,NA
61081,Whiteside County,IL,35.67251461988304,NA,NA
61107,Winnebago County,IL,NA,NA,22.832369942196532
61341,LaSalle County,IL,NA,NA,91.47398843930635
61362,Bureau County,IL,NA,NA,48.69942196531792
62056,Montgomery County,IL,NA,NA,88.15028901734104
62298,Monroe County,IL,NA,70.3971119133574,NA
62439,Lawrence County,IL,NA,NA,84.10404624277457
62656,Logan County,IL,NA,NA,54.76878612716764
62959,Williamson County,IL,NA,NA,21.09826589595376
46012,Madison County,IN,NA,NA,36.5606936416185
46016,Madison County,IN,18.128654970760234,NA,NA
46032,Hamilton County,IN,NA,64.25992779783394,NA
46120,Putnam County,IN,NA,94.22382671480143,NA
46140,Hancock County,IN,NA,NA,20.664739884393065
46142,Johnson County,IN,NA,NA,27.601156069364162
46201,Marion County,IN,NA,NA,83.52601156069365
46202,Marion County,IN,NA,76.3537906137184,NA
46222,Marion County,IN,NA,NA,62.861271676300575
46234,Marion County,IN,NA,NA,75.43352601156069
46268,Marion County,IN,NA,NA,34.68208092485549
46304,Porter County,IN,NA,NA,30.346820809248555
46307,Lake County,IN,NA,3.429602888086643,NA
46324,Lake County,IN,20.46783625730994,NA,NA
46360,LaPorte County,IN,NA,NA,21.38728323699422
46514,Elkhart County,IN,NA,27.79783393501805,NA
46526,Elkhart County,IN,NA,NA,43.4971098265896
46637,St. Joseph County,IN,NA,NA,92.91907514450867
46723,Whitley County,IN,NA,NA,97.54335260115607
46750,Huntington County,IN,NA,NA,26.589595375722542
46795,LaGrange County,IN,NA,96.93140794223827,NA
46804,Allen County,IN,NA,NA,76.44508670520231
46806,Allen County,IN,NA,46.20938628158845,NA
46808,Allen County,IN,NA,NA,71.09826589595376
46947,Cass County,IN,NA,NA,42.77456647398844
46970,Miami County,IN,NA,NA,36.41618497109826
47203,Bartholomew County,IN,NA,NA,15.462427745664739
47362,Henry County,IN,NA,15.523465703971121,NA
47720,Vanderburgh County,IN,NA,65.34296028880865,NA
50014,Story County,IA,NA,NA,61.70520231213873
50112,Poweshiek County,IA,NA,NA,97.83236994219652
50158,Marshall County,IA,NA,NA,69.07514450867052
50313,Polk County,IA,NA,NA,94.50867052023122
50401,Cerro Gordo County,IA,12.865497076023392,NA,1.0115606936416186
50501,Webster County,IA,NA,NA,30.78034682080925
50595,Hamilton County,IA,NA,91.51624548736463,NA
51503,Pottawattamie County,IA,NA,7.581227436823104,NA
51576,Pottawattamie County,IA,98.83040935672514,NA,NA
52240,Johnson County,IA,NA,NA,30.20231213872832
52245,Johnson County,IA,NA,NA,57.51445086705203
52349,Benton County,IA,NA,88.26714801444044,NA
52353,Washington County,IA,NA,NA,61.41618497109826
52404,Linn County,IA,NA,21.48014440433213,NA
52806,Scott County,IA,NA,44.4043321299639,NA
66048,Leavenworth County,KS,NA,NA,37.57225433526011
66062,Johnson County,KS,11.11111111111111,NA,NA
66067,Franklin County,KS,NA,59.92779783393502,NA
66101,Wyandotte County,KS,NA,NA,94.65317919075144
66720,Neosho County,KS,73.68421052631578,NA,NA
67212,Sedgwick County,KS,NA,NA,53.03468208092485
67215,Sedgwick County,KS,99.41520467836257,NA,NA
67410,Dickinson County,KS,NA,NA,71.38728323699422
67460,McPherson County,KS,NA,NA,69.21965317919076
67665,Russell County,KS,NA,NA,77.3121387283237
67801,Ford County,KS,NA,67.68953068592057,NA
67846,Finney County,KS,NA,NA,64.59537572254335
40013,Nelson County,KY,NA,NA,99.56647398843931
40220,Jefferson County,KY,NA,NA,24.85549132947977
40223,Jefferson County,KY,NA,52.34657039711191,57.36994219653179
40351,Rowan County,KY,NA,19.314079422382672,31.358381502890175
40353,Montgomery County,KY,NA,37.725631768953065,NA
40419,Lincoln County,KY,NA,NA,99.13294797687861
40505,Fayette County,KY,NA,NA,62.42774566473989
40508,Fayette County,KY,NA,72.56317689530685,NA
40701,Whitley County,KY,11.695906432748536,NA,NA
41042,Boone County,KY,7.017543859649122,NA,NA
41071,Campbell County,KY,NA,42.418772563176894,NA
42003,McCracken County,KY,NA,NA,35.69364161849711
42301,Daviess County,KY,NA,13.176895306859207,NA
42544,Pulaski County,KY,NA,83.39350180505414,NA
70122,Orleans Parish,LA,6.432748538011696,NA,NA
70507,Lafayette Parish,LA,47.953216374269005,NA,NA
70560,Iberia Parish,LA,NA,NA,34.53757225433526
70810,East Baton Rouge Parish,LA,NA,33.2129963898917,NA
71105,Caddo Parish,LA,NA,NA,44.797687861271676
03904,York County,ME,NA,NA,69.65317919075144
04011,Cumberland County,ME,NA,32.851985559566785,NA
04092,Cumberland County,ME,NA,69.67509025270758,51.15606936416185
04105,Cumberland County,ME,NA,NA,54.6242774566474
04210,Androscoggin County,ME,NA,11.913357400722022,12.283236994219653
04281,Oxford County,ME,NA,70.21660649819495,NA
04345,Kennebec County,ME,NA,NA,72.54335260115607
04401,Penobscot County,ME,15.789473684210526,NA,NA
04841,Knox County,ME,NA,NA,86.5606936416185
04901,Kennebec County,ME,NA,30.505415162454874,NA
04938,Franklin County,ME,NA,87.72563176895306,NA
20706,Prince George's County,MD,NA,NA,86.41618497109826
20715,Prince George's County,MD,NA,NA,75.57803468208093
20747,Prince George's County,MD,NA,66.24548736462094,NA
20904,Montgomery County,MD,NA,56.49819494584838,NA
21030,Baltimore County,MD,NA,NA,73.55491329479769
21037,Anne Arundel County,MD,NA,NA,77.02312138728324
21043,Howard County,MD,NA,51.44404332129964,NA
21202,Baltimore city,MD,NA,87.36462093862815,NA
21221,Baltimore County,MD,NA,80.32490974729242,NA
21234,Baltimore County,MD,NA,10.830324909747292,NA
21239,Baltimore city,MD,NA,NA,30.924855491329478
21502,Allegany County,MD,NA,NA,7.225433526011561
21663,Talbot County,MD,NA,NA,98.26589595375722
21740,Washington County,MD,NA,NA,31.79190751445087
21804,Wicomico County,MD,NA,NA,40.31791907514451
21817,Somerset County,MD,NA,NA,84.6820809248555
21901,Cecil County,MD,NA,76.17328519855594,NA
01020,Hampden County,MA,NA,14.620938628158845,NA
01060,Hampshire County,MA,NA,55.77617328519856,NA
01085,Hampden County,MA,NA,NA,8.38150289017341
01105,Hampden County,MA,NA,NA,99.85549132947978
01151,Hampden County,MA,NA,57.2202166064982,NA
01267,Berkshire County,MA,NA,76.3537906137184,NA
01440,Worcester County,MA,NA,NA,11.849710982658959
01453,Worcester County,MA,NA,1.263537906137184,NA
01460,Middlesex County,MA,NA,65.16245487364621,NA
01469,Middlesex County,MA,NA,NA,78.46820809248555
01545,Worcester County,MA,NA,20.216606498194945,NA
01569,Worcester County,MA,NA,40.61371841155235,NA
01581,Worcester County,MA,38.59649122807017,NA,65.89595375722543
01603,Worcester County,MA,NA,4.693140794223827,NA
01604,Worcester County,MA,NA,NA,2.312138728323699
01606,Worcester County,MA,NA,NA,11.705202312138727
01610,Worcester County,MA,1.1695906432748537,NA,NA
01702,Middlesex County,MA,NA,NA,6.069364161849711
01720,Middlesex County,MA,NA,73.46570397111914,NA
01746,Middlesex County,MA,NA,NA,59.53757225433526
01747,Worcester County,MA,NA,NA,96.96531791907515
01760,Middlesex County,MA,NA,10.108303249097473,NA
01778,Middlesex County,MA,NA,NA,62.28323699421965
01803,Middlesex County,MA,NA,NA,20.953757225433524
01821,Middlesex County,MA,NA,NA,10.260115606936417
01876,Middlesex County,MA,NA,5.234657039711191,NA
01887,Middlesex County,MA,NA,5.054151624548736,NA
01890,Middlesex County,MA,NA,39.71119133574007,NA
01907,Essex County,MA,56.72514619883041,41.15523465703971,19.653179190751445
01915,Essex County,MA,NA,2.166064981949458,NA
01921,Essex County,MA,NA,92.23826714801444,NA
01949,Essex County,MA,NA,NA,69.79768786127167
01960,Essex County,MA,1.7543859649122806,NA,0
02043,Plymouth County,MA,NA,57.03971119133574,NA
02072,Norfolk County,MA,NA,45.12635379061371,13.005780346820808
02114,Suffolk County,MA,NA,45.667870036101085,NA
02115,Suffolk County,MA,NA,6.859205776173286,NA
02119,Suffolk County,MA,NA,0.36101083032490977,3.901734104046243
02121,Suffolk County,MA,NA,NA,5.780346820809249
02124,Suffolk County,MA,NA,12.63537906137184,NA
02127,Suffolk County,MA,NA,NA,80.05780346820809
02130,Suffolk County,MA,NA,NA,4.913294797687861
02131,Suffolk County,MA,4.093567251461988,NA,3.3236994219653178
02132,Suffolk County,MA,13.450292397660817,3.6101083032490973,NA
02138,Middlesex County,MA,NA,9.025270758122744,NA
02139,Middlesex County,MA,NA,NA,14.16184971098266
02141,Middlesex County,MA,NA,NA,49.85549132947977
02143,Middlesex County,MA,NA,49.63898916967509,NA
02144,Middlesex County,MA,NA,13.357400722021662,NA
02145,Middlesex County,MA,NA,12.274368231046932,NA
02148,Middlesex County,MA,NA,0.5415162454873645,NA
02151,Suffolk County,MA,0.5847953216374269,0,6.358381502890173
02152,Suffolk County,MA,NA,NA,10.69364161849711
02169,Norfolk County,MA,NA,0.7220216606498195,NA
02180,Middlesex County,MA,NA,NA,13.294797687861271
02191,Norfolk County,MA,85.38011695906432,NA,NA
02301,Plymouth County,MA,0,NA,NA
02302,Plymouth County,MA,2.923976608187134,NA,NA
02333,Plymouth County,MA,NA,NA,80.78034682080924
02360,Plymouth County,MA,NA,NA,0.8670520231213872
02421,Middlesex County,MA,NA,45.30685920577617,NA
02458,Middlesex County,MA,NA,54.87364620938629,NA
02459,Middlesex County,MA,NA,NA,13.439306358381502
02461,Middlesex County,MA,75.43859649122807,NA,NA
02467,Norfolk County,MA,NA,36.8231046931408,NA
02474,Middlesex County,MA,NA,NA,13.872832369942195
02476,Middlesex County,MA,NA,32.12996389891697,NA
02482,Norfolk County,MA,NA,NA,82.08092485549133
02532,Barnstable County,MA,NA,59.02527075812274,NA
02536,Barnstable County,MA,NA,NA,15.751445086705202
02554,Nantucket County,MA,NA,58.844765342960294,NA
02556,Barnstable County,MA,NA,NA,95.08670520231213
02645,Barnstable County,MA,NA,70.57761732851986,NA
02649,Barnstable County,MA,NA,33.39350180505416,NA
02675,Barnstable County,MA,NA,NA,80.92485549132948
02703,Bristol County,MA,NA,1.9855595667870036,NA
02721,Bristol County,MA,NA,NA,12.427745664739884
02744,Bristol County,MA,NA,40.07220216606498,NA
02747,Bristol County,MA,NA,NA,70.37572254335261
48025,Oakland County,MI,NA,89.35018050541517,NA
48038,Macomb County,MI,NA,NA,4.76878612716763
48044,Macomb County,MI,NA,39.35018050541516,NA
48067,Oakland County,MI,NA,NA,72.83236994219652
48079,St. Clair County,MI,NA,64.4404332129964,NA
48082,Macomb County,MI,NA,NA,29.190751445086704
48105,Washtenaw County,MI,NA,NA,2.4566473988439306
48111,Wayne County,MI,NA,9.2057761732852,NA
48117,Monroe County,MI,NA,72.20216606498195,NA
48118,Washtenaw County,MI,NA,NA,31.79190751445087
48130,Washtenaw County,MI,NA,NA,48.98843930635838
48150,Wayne County,MI,NA,NA,52.02312138728323
48162,Monroe County,MI,NA,5.956678700361011,NA
48169,Livingston County,MI,NA,37.00361010830325,NA
48176,Washtenaw County,MI,NA,31.046931407942242,NA
48183,Wayne County,MI,NA,NA,12.716763005780345
48184,Wayne County,MI,NA,30.866425992779785,NA
48197,Washtenaw County,MI,4.678362573099415,NA,NA
48205,Wayne County,MI,NA,18.231046931407942,NA
48221,Wayne County,MI,5.847953216374268,NA,2.8901734104046244
48228,Wayne County,MI,NA,NA,37.716763005780344
48237,Oakland County,MI,NA,NA,33.09248554913295
48331,Oakland County,MI,NA,NA,32.080924855491325
48377,Oakland County,MI,NA,NA,33.67052023121387
48390,Oakland County,MI,NA,NA,40.31791907514451
48439,Genesee County,MI,NA,NA,14.450867052023122
48442,Oakland County,MI,NA,NA,65.17341040462428
48532,Genesee County,MI,NA,NA,54.04624277456648
48602,Saginaw County,MI,NA,14.079422382671481,NA
48629,Roscommon County,MI,NA,NA,89.59537572254335
48638,Saginaw County,MI,78.3625730994152,NA,NA
48642,Midland County,MI,NA,NA,8.236994219653178
48706,Bay County,MI,NA,2.707581227436823,NA
48708,Bay County,MI,8.187134502923977,NA,63.8728323699422
48732,Bay County,MI,74.26900584795322,NA,NA
48809,Ionia County,MI,66.66666666666666,NA,NA
48843,Livingston County,MI,NA,8.303249097472925,NA
48858,Isabella County,MI,NA,NA,10.69364161849711
48867,Shiawassee County,MI,NA,NA,8.670520231213873
48911,Ingham County,MI,NA,NA,31.069364161849713
49012,Kalamazoo County,MI,94.15204678362574,NA,NA
49036,Branch County,MI,NA,NA,33.38150289017341
49045,Van Buren County,MI,92.98245614035088,NA,NA
49047,Cass County,MI,NA,71.11913357400722,NA
49201,Jackson County,MI,NA,NA,38.72832369942196
49203,Jackson County,MI,NA,NA,8.815028901734104
49269,Jackson County,MI,NA,NA,92.34104046242774
49307,Mecosta County,MI,NA,NA,98.41040462427746
49328,Allegan County,MI,98.24561403508771,NA,NA
49426,Ottawa County,MI,NA,45.48736462093863,NA
49428,Ottawa County,MI,NA,38.08664259927797,NA
49503,Kent County,MI,12.280701754385964,NA,NA
49507,Kent County,MI,NA,29.24187725631769,NA
49546,Kent County,MI,NA,NA,15.173410404624278
49663,Wexford County,MI,NA,98.014440433213,NA
49868,Luce County,MI,NA,NA,69.94219653179191
55009,Goodhue County,MN,NA,63.1768953068592,NA
55060,Steele County,MN,NA,NA,55.057803468208085
55105,Ramsey County,MN,NA,NA,79.62427745664739
55313,Wright County,MN,NA,NA,69.36416184971098
55318,Carver County,MN,NA,NA,74.42196531791907
55404,Hennepin County,MN,NA,NA,41.61849710982659
55428,Hennepin County,MN,NA,NA,36.84971098265896
55444,Hennepin County,MN,NA,78.33935018050542,NA
55448,Anoka County,MN,NA,65.52346570397111,NA
55449,Anoka County,MN,NA,NA,90.7514450867052
55901,Olmsted County,MN,NA,31.949458483754512,NA
55904,Olmsted County,MN,NA,NA,38.15028901734104
55987,Winona County,MN,NA,5.595667870036101,1.7341040462427744
56001,Blue Earth County,MN,NA,NA,52.45664739884393
56003,Nicollet County,MN,NA,NA,98.69942196531792
56031,Martin County,MN,NA,NA,14.017341040462428
56470,Hubbard County,MN,NA,44.584837545126355,40.17341040462428
56482,Wadena County,MN,NA,87.18411552346569,NA
56560,Clay County,MN,NA,7.400722021660649,NA
56636,Itasca County,MN,NA,77.79783393501805,NA
38671,DeSoto County,MS,NA,59.56678700361011,NA
39204,Hinds County,MS,NA,90.07220216606498,NA
39328,Kemper County,MS,NA,NA,99.27745664739885
39465,Forrest County,MS,NA,95.84837545126354,NA
39601,Lincoln County,MS,NA,51.624548736462096,NA
63025,St. Louis County,MO,NA,NA,75.28901734104046
63028,Jefferson County,MO,NA,NA,49.27745664739884
63049,Jefferson County,MO,NA,70.03610108303249,NA
63052,Jefferson County,MO,NA,63.898916967509024,NA
63089,Franklin County,MO,88.30409356725146,NA,NA
63090,Franklin County,MO,NA,55.95667870036101,NA
63107,St. Louis city,MO,NA,NA,78.90173410404624
63114,St. Louis County,MO,61.98830409356725,NA,NA
63122,St. Louis County,MO,NA,30.685920577617328,NA
63127,St. Louis County,MO,NA,NA,66.04046242774567
63129,St. Louis County,MO,NA,9.927797833935017,NA
63146,St. Louis County,MO,NA,NA,7.947976878612717
63368,St. Charles County,MO,NA,27.075812274368232,NA
63376,St. Charles County,MO,NA,NA,5.202312138728324
63379,Lincoln County,MO,NA,NA,37.283236994219656
63385,St. Charles County,MO,19.298245614035086,NA,NA
64037,Lafayette County,MO,NA,84.47653429602889,NA
64040,Johnson County,MO,NA,NA,96.24277456647398
64050,Jackson County,MO,NA,20.75812274368231,NA
64052,Jackson County,MO,10.526315789473683,NA,NA
64055,Jackson County,MO,NA,91.69675090252709,NA
64081,Jackson County,MO,NA,47.292418772563174,NA
64155,Clay County,MO,NA,28.700361010830328,NA
65202,Boone County,MO,NA,NA,17.91907514450867
65203,Boone County,MO,28.07017543859649,NA,34.971098265895954
65251,Callaway County,MO,NA,NA,55.346820809248555
65355,Benton County,MO,NA,NA,76.878612716763
65559,Phelps County,MO,NA,NA,76.30057803468208
65686,Stone County,MO,NA,85.74007220216606,NA
59047,Park County,MT,NA,NA,55.78034682080924
59102,Yellowstone County,MT,NA,NA,1.300578034682081
59401,Cascade County,MT,NA,72.56317689530685,NA
59404,Cascade County,MT,NA,NA,15.028901734104046
59405,Cascade County,MT,NA,20.397111913357403,NA
59457,Fergus County,MT,NA,NA,34.82658959537572
59501,Hill County,MT,NA,90.97472924187726,NA
59701,Silver Bow County,MT,NA,NA,82.65895953757226
59801,Missoula County,MT,NA,71.48014440433214,NA
59875,Ravalli County,MT,NA,90.25270758122743,NA
59911,Flathead County,MT,NA,65.70397111913357,NA
59923,Lincoln County,MT,NA,NA,67.34104046242774
68025,Dodge County,NE,NA,NA,11.127167630057803
68106,Douglas County,NE,NA,NA,85.26011560693641
68132,Douglas County,NE,70.17543859649122,NA,NA
68137,Douglas County,NE,NA,NA,63.4393063583815
68505,Lancaster County,NE,NA,93.32129963898917,NA
68901,Adams County,NE,NA,50.54151624548736,NA
69361,Scotts Bluff County,NE,NA,90.43321299638988,NA
89104,Clark County,NV,NA,NA,52.74566473988439
89123,Clark County,NV,NA,NA,56.5028901734104
89431,Washoe County,NV,24.561403508771928,NA,NA
03051,Hillsborough County,NH,NA,23.646209386281587,NA
03062,Hillsborough County,NH,NA,NA,17.341040462427745
03076,Hillsborough County,NH,NA,NA,67.77456647398844
03222,Grafton County,NH,NA,86.28158844765343,NA
03281,Hillsborough County,NH,NA,NA,90.46242774566474
03431,Cheshire County,NH,NA,34.29602888086642,NA
03755,Grafton County,NH,NA,96.75090252707581,NA
03833,Rockingham County,NH,NA,NA,34.39306358381503
03868,Strafford County,NH,NA,NA,47.25433526011561
03878,Strafford County,NH,NA,73.6462093862816,NA
07010,Bergen County,NJ,NA,69.31407942238266,NA
07026,Bergen County,NJ,NA,35.92057761732852,NA
07054,Morris County,NJ,NA,NA,38.00578034682081
07055,Passaic County,NJ,NA,5.776173285198556,NA
07607,Bergen County,NJ,NA,NA,86.1271676300578
07675,Bergen County,NJ,NA,NA,39.59537572254335
07836,Morris County,NJ,NA,NA,66.1849710982659
07885,Morris County,NJ,NA,82.12996389891697,NA
08031,Camden County,NJ,NA,80.50541516245488,NA
08043,Camden County,NJ,NA,NA,22.6878612716763
08075,Burlington County,NJ,16.95906432748538,NA,NA
08087,Ocean County,NJ,NA,NA,16.76300578034682
08090,Gloucester County,NJ,NA,86.46209386281588,NA
08221,Atlantic County,NJ,NA,NA,92.1965317919075
08512,Mercer County,NJ,NA,NA,98.121387283237
08722,Ocean County,NJ,NA,89.89169675090253,NA
08854,Middlesex County,NJ,NA,15.884476534296029,NA
08865,Warren County,NJ,NA,12.996389891696749,NA
87102,Bernalillo County,NM,NA,NA,63.29479768786127
87108,Bernalillo County,NM,7.602339181286549,NA,NA
87112,Bernalillo County,NM,NA,NA,5.924855491329479
87114,Bernalillo County,NM,9.35672514619883,NA,NA
87121,Bernalillo County,NM,NA,8.844765342960288,NA
87402,San Juan County,NM,NA,91.15523465703971,NA
87420,San Juan County,NM,NA,71.66064981949458,NA
87507,Santa Fe County,NM,NA,NA,23.55491329479769
88001,Doa Ana County,NM,NA,NA,54.190751445086704
10003,New York County,NY,NA,NA,22.254335260115607
10011,New York County,NY,NA,22.563176895306857,NA
10022,New York County,NY,NA,NA,29.046242774566473
10029,New York County,NY,NA,NA,22.109826589595375
10032,New York County,NY,NA,9.566787003610107,NA
10033,New York County,NY,NA,NA,16.907514450867055
10035,New York County,NY,NA,NA,50.144508670520224
10036,New York County,NY,NA,53.61010830324909,NA
10037,New York County,NY,NA,61.371841155234655,NA
10075,New York County,NY,NA,68.95306859205776,NA
10303,Richmond County,NY,NA,52.707581227436826,NA
10452,Bronx County,NY,NA,1.8050541516245486,NA
10456,Bronx County,NY,NA,0.18050541516245489,NA
10458,Bronx County,NY,NA,NA,36.70520231213873
10460,Bronx County,NY,NA,2.527075812274368,NA
10466,Bronx County,NY,NA,3.790613718411552,NA
10467,Bronx County,NY,NA,0.9025270758122743,NA
10470,Bronx County,NY,94.73684210526315,NA,77.89017341040463
10471,Bronx County,NY,NA,NA,42.919075144508675
10472,Bronx County,NY,NA,NA,18.063583815028903
10473,Bronx County,NY,NA,9.386281588447654,NA
10512,Putnam County,NY,NA,NA,67.63005780346822
10570,Westchester County,NY,NA,NA,94.79768786127167
10801,Westchester County,NY,36.84210526315789,NA,NA
10804,Westchester County,NY,NA,NA,84.6820809248555
11203,Kings County,NY,NA,NA,64.16184971098265
11204,Kings County,NY,NA,NA,8.092485549132949
11208,Kings County,NY,2.3391812865497075,NA,NA
11210,Kings County,NY,NA,27.256317689530686,NA
11214,Kings County,NY,NA,14.620938628158845,NA
11233,Kings County,NY,NA,NA,10.982658959537572
11235,Kings County,NY,NA,NA,0.7225433526011561
11249,Kings County,NY,NA,NA,73.26589595375722
11357,Queens County,NY,NA,NA,37.138728323699425
11362,Queens County,NY,NA,87.54512635379061,NA
11365,Queens County,NY,NA,NA,35.40462427745665
11368,Queens County,NY,NA,NA,17.485549132947977
11375,Queens County,NY,NA,NA,7.658959537572255
11426,Queens County,NY,NA,NA,91.76300578034682
11428,Queens County,NY,NA,NA,80.63583815028902
11516,Nassau County,NY,NA,NA,97.25433526011561
11553,Nassau County,NY,NA,NA,64.88439306358381
11747,Suffolk County,NY,NA,73.28519855595668,NA
11755,Suffolk County,NY,NA,NA,65.02890173410405
11779,Suffolk County,NY,NA,NA,40.895953757225435
11946,Suffolk County,NY,NA,NA,64.01734104046243
12010,Montgomery County,NY,NA,8.483754512635379,NA
12043,Schoharie County,NY,NA,76.71480144404332,NA
12065,Saratoga County,NY,NA,20.938628158844764,NA
12157,Schoharie County,NY,91.22807017543859,NA,NA
12180,Rensselaer County,NY,NA,NA,9.971098265895954
12508,Dutchess County,NY,NA,81.94945848375451,NA
12569,Dutchess County,NY,NA,94.04332129963899,NA
12572,Dutchess County,NY,NA,96.20938628158845,NA
12603,Dutchess County,NY,NA,NA,38.72832369942196
12771,Orange County,NY,NA,NA,72.25433526011561
12839,Washington County,NY,NA,55.054151624548744,NA
12885,Warren County,NY,71.34502923976608,NA,NA
12953,Franklin County,NY,NA,24.368231046931406,NA
13027,Onondaga County,NY,14.619883040935672,NA,NA
13031,Onondaga County,NY,NA,NA,70.52023121387283
13035,Madison County,NY,NA,79.96389891696751,NA
13039,Onondaga County,NY,49.122807017543856,NA,NA
13114,Oswego County,NY,63.1578947368421,NA,NA
13326,Otsego County,NY,NA,NA,36.127167630057805
13367,Lewis County,NY,NA,NA,77.45664739884393
13601,Jefferson County,NY,NA,21.841155234657037,NA
13655,St. Lawrence County,NY,NA,99.27797833935018,NA
13815,Chenango County,NY,NA,NA,32.80346820809248
13850,Broome County,NY,NA,6.678700361010831,NA
14051,Erie County,NY,45.02923976608187,NA,NA
14094,Niagara County,NY,NA,4.332129963898916,NA
14127,Erie County,NY,NA,18.592057761732853,NA
14217,Erie County,NY,NA,24.0072202166065,NA
14450,Monroe County,NY,NA,NA,6.502890173410404
14564,Ontario County,NY,NA,20.577617328519857,NA
14572,Steuben County,NY,NA,78.70036101083032,NA
14589,Wayne County,NY,39.76608187134503,NA,NA
14609,Monroe County,NY,NA,2.3465703971119134,NA
14619,Monroe County,NY,NA,48.014440433213,NA
14850,Tompkins County,NY,NA,NA,32.22543352601156
14892,Tioga County,NY,NA,NA,95.95375722543352
27006,Davie County,NC,NA,NA,20.08670520231214
27020,Yadkin County,NC,NA,92.59927797833934,NA
27028,Davie County,NC,NA,44.765342960288805,NA
27030,Surry County,NC,NA,3.2490974729241873,NA
27104,Forsyth County,NC,NA,NA,4.190751445086705
27105,Forsyth County,NC,NA,24.729241877256317,NA
27284,Forsyth County,NC,NA,NA,3.4682080924855487
27330,Lee County,NC,NA,66.06498194945848,NA
27401,Guilford County,NC,NA,NA,61.1271676300578
27405,Guilford County,NC,NA,NA,25.578034682080926
27455,Guilford County,NC,NA,NA,53.03468208092485
27509,Granville County,NC,NA,NA,96.67630057803468
27510,Orange County,NC,NA,95.66787003610109,NA
27514,Orange County,NC,NA,36.28158844765343,NA
27517,Orange County,NC,NA,83.93501805054152,NA
27525,Franklin County,NC,NA,66.96750902527076,NA
27540,Wake County,NC,NA,NA,89.01734104046243
27545,Wake County,NC,NA,55.5956678700361,NA
27597,Wake County,NC,NA,NA,71.67630057803468
27604,Wake County,NC,NA,48.194945848375454,NA
27607,Wake County,NC,NA,NA,88.4393063583815
27615,Wake County,NC,NA,16.967509025270758,NA
27707,Durham County,NC,NA,NA,21.53179190751445
27712,Durham County,NC,NA,47.47292418772563,NA
27858,Pitt County,NC,NA,NA,55.202312138728324
27863,Wayne County,NC,NA,77.25631768953069,NA
27891,Nash County,NC,NA,95.12635379061372,NA
28043,Rutherford County,NC,NA,47.833935018050546,NA
28110,Union County,NC,NA,19.67509025270758,NA
28127,Stanly County,NC,NA,NA,93.20809248554913
28372,Robeson County,NC,NA,68.23104693140795,NA
28403,New Hanover County,NC,NA,60.64981949458483,NA
28461,Brunswick County,NC,NA,9.747292418772563,NA
28462,Brunswick County,NC,NA,NA,83.8150289017341
28645,Caldwell County,NC,NA,1.6245487364620936,NA
28651,Wilkes County,NC,81.28654970760235,NA,NA
28655,Burke County,NC,NA,31.227436823104693,10.404624277456648
28658,Catawba County,NC,46.783625730994146,NA,NA
28714,Yancey County,NC,67.2514619883041,NA,NA
28716,Haywood County,NC,NA,NA,48.26589595375722
28778,Buncombe County,NC,NA,NA,81.9364161849711
58104,Cass County,ND,NA,15.162454873646208,NA
58401,Stutsman County,ND,NA,NA,46.67630057803468
43019,Knox County,OH,NA,NA,94.36416184971098
43050,Knox County,OH,NA,7.2202166064981945,NA
43068,Franklin County,OH,NA,67.87003610108303,NA
43140,Madison County,OH,NA,40.43321299638989,NA
43162,Madison County,OH,NA,NA,78.90173410404624
43205,Franklin County,OH,NA,62.63537906137184,NA
43212,Franklin County,OH,NA,NA,70.66473988439307
43213,Franklin County,OH,NA,NA,45.23121387283237
43229,Franklin County,OH,NA,11.371841155234657,NA
43230,Franklin County,OH,NA,NA,26.156069364161848
43311,Logan County,OH,NA,NA,53.90173410404624
43357,Logan County,OH,NA,NA,71.67630057803468
43420,Sandusky County,OH,NA,NA,24.277456647398843
43465,Wood County,OH,NA,75.27075812274369,NA
43518,Williams County,OH,NA,96.028880866426,NA
43567,Fulton County,OH,NA,46.3898916967509,NA
43604,Lucas County,OH,84.21052631578947,NA,NA
43606,Lucas County,OH,NA,NA,81.0693641618497
43614,Lucas County,OH,NA,NA,21.242774566473987
43777,Muskingum County,OH,NA,97.65342960288808,NA
43812,Coshocton County,OH,NA,NA,13.728323699421965
43920,Columbiana County,OH,NA,12.815884476534295,NA
43938,Jefferson County,OH,NA,NA,73.69942196531792
43964,Jefferson County,OH,NA,38.44765342960289,NA
44012,Lorain County,OH,NA,NA,8.526011560693641
44022,Cuyahoga County,OH,NA,NA,22.976878612716764
44023,Geauga County,OH,NA,NA,51.01156069364162
44035,Lorain County,OH,NA,NA,14.595375722543352
44040,Cuyahoga County,OH,NA,98.73646209386283,NA
44052,Lorain County,OH,NA,3.9711191335740073,7.803468208092486
44054,Lorain County,OH,NA,NA,51.300578034682076
44060,Lake County,OH,NA,NA,0.2890173410404624
44070,Cuyahoga County,OH,NA,NA,5.635838150289017
44074,Lorain County,OH,NA,54.51263537906137,85.11560693641619
44089,Erie County,OH,NA,12.093862815884476,NA
44094,Lake County,OH,21.052631578947366,NA,NA
44102,Cuyahoga County,OH,NA,23.465703971119133,NA
44105,Cuyahoga County,OH,NA,1.083032490974729,NA
44106,Cuyahoga County,OH,NA,NA,22.398843930635838
44111,Cuyahoga County,OH,NA,4.512635379061372,15.606936416184972
44112,Cuyahoga County,OH,NA,7.9422382671480145,NA
44121,Cuyahoga County,OH,NA,NA,60.83815028901734
44122,Cuyahoga County,OH,NA,NA,0.1445086705202312
44124,Cuyahoga County,OH,NA,NA,7.369942196531793
44125,Cuyahoga County,OH,NA,NA,9.826589595375722
44128,Cuyahoga County,OH,NA,NA,1.5895953757225432
44130,Cuyahoga County,OH,NA,NA,0.4335260115606936
44136,Cuyahoga County,OH,NA,10.649819494584838,NA
44137,Cuyahoga County,OH,NA,NA,30.63583815028902
44139,Cuyahoga County,OH,NA,NA,17.196531791907514
44141,Cuyahoga County,OH,NA,NA,75.57803468208093
44143,Cuyahoga County,OH,NA,17.328519855595665,NA
44144,Cuyahoga County,OH,NA,43.86281588447653,NA
44145,Cuyahoga County,OH,NA,NA,4.624277456647398
44146,Cuyahoga County,OH,NA,3.068592057761733,6.9364161849710975
44147,Cuyahoga County,OH,NA,36.462093862815884,NA
44149,Cuyahoga County,OH,47.368421052631575,NA,NA
44203,Summit County,OH,NA,NA,7.08092485549133
44221,Summit County,OH,16.374269005847953,NA,15.895953757225435
44236,Summit County,OH,NA,27.617328519855594,NA
44241,Portage County,OH,NA,26.714801444043324,NA
44256,Medina County,OH,NA,1.444043321299639,NA
44281,Medina County,OH,NA,16.787003610108304,NA
44307,Summit County,OH,NA,NA,90.17341040462428
44310,Summit County,OH,NA,26.895306859205775,NA
44333,Summit County,OH,NA,NA,41.61849710982659
44460,Columbiana County,OH,NA,11.010830324909747,NA
44504,Mahoning County,OH,95.90643274853801,NA,NA
44512,Mahoning County,OH,NA,NA,18.352601156069365
44515,Mahoning County,OH,NA,14.440433212996389,20.520231213872833
44685,Summit County,OH,NA,28.158844765342963,29.91329479768786
44714,Stark County,OH,NA,77.9783393501805,NA
44870,Erie County,OH,NA,NA,6.213872832369942
44883,Seneca County,OH,NA,NA,22.54335260115607
45039,Warren County,OH,NA,NA,80.34682080924856
45040,Warren County,OH,NA,NA,27.89017341040462
45068,Warren County,OH,NA,NA,76.01156069364163
45069,Butler County,OH,NA,22.20216606498195,52.89017341040463
45140,Clermont County,OH,NA,18.772563176895307,NA
45177,Clinton County,OH,NA,NA,50.57803468208093
45227,Hamilton County,OH,NA,52.52707581227437,NA
45229,Hamilton County,OH,NA,38.26714801444043,NA
45238,Hamilton County,OH,15.204678362573098,NA,NA
45248,Hamilton County,OH,57.30994152046783,NA,NA
45365,Shelby County,OH,NA,NA,28.32369942196532
45426,Montgomery County,OH,NA,NA,57.08092485549133
45612,Ross County,OH,NA,85.01805054151625,NA
45648,Scioto County,OH,60.23391812865497,NA,NA
45663,Scioto County,OH,NA,67.50902527075813,NA
45701,Athens County,OH,NA,NA,39.30635838150289
45805,Allen County,OH,14.035087719298245,NA,NA
45833,Allen County,OH,64.91228070175438,NA,NA
45840,Hancock County,OH,NA,NA,9.68208092485549
45885,Auglaize County,OH,NA,NA,55.92485549132948
45895,Auglaize County,OH,NA,39.53068592057762,NA
73005,Caddo County,OK,84.7953216374269,NA,NA
73013,Oklahoma County,OK,36.25730994152047,NA,NA
73045,Oklahoma County,OK,NA,72.92418772563177,NA
73110,Oklahoma County,OK,NA,NA,15.31791907514451
73401,Carter County,OK,NA,13.537906137184116,NA
73801,Woodward County,OK,NA,NA,79.33526011560693
74008,Tulsa County,OK,NA,57.2202166064982,NA
74010,Creek County,OK,NA,NA,93.64161849710982
74346,Delaware County,OK,NA,81.58844765342961,NA
74370,Ottawa County,OK,NA,99.63898916967509,NA
74421,Okmulgee County,OK,97.6608187134503,NA,NA
74820,Pontotoc County,OK,NA,NA,26.445086705202314
97007,Washington County,OR,NA,33.754512635379065,NA
97034,Clackamas County,OR,NA,88.8086642599278,NA
97035,Clackamas County,OR,NA,68.05054151624549,NA
97078,Washington County,OR,NA,NA,87.138728323699425
97123,Washington County,OR,23.391812865497073,NA,NA
97141,Tillamook County,OR,NA,NA,74.85549132947978
97215,Multnomah County,OR,NA,77.25631768953069,NA
97222,Clackamas County,OR,NA,NA,47.10982658959538
97236,Multnomah County,OR,NA,32.49097472924188,NA
97267,Clackamas County,OR,NA,46.931407942238266,NA
97305,Marion County,OR,NA,56.13718411552347,63.150289017341045
97322,Linn County,OR,NA,16.24548736462094,NA
97338,Polk County,OR,NA,48.73646209386281,NA
97381,Marion County,OR,NA,70.57761732851986,NA
97392,Marion County,OR,NA,92.05776173285199,NA
97439,Lane County,OR,63.74269005847953,NA,19.797687861271676
97457,Douglas County,OR,NA,NA,92.77456647398844
97479,Douglas County,OR,NA,NA,51.445086705202314
97525,Jackson County,OR,NA,88.08664259927798,NA
97526,Josephine County,OR,NA,NA,51.58959537572254
97754,Crook County,OR,NA,27.436823104693143,NA
15001,Beaver County,PA,22.807017543859647,NA,NA
15009,Beaver County,PA,NA,45.84837545126354,NA
15017,Allegheny County,PA,NA,82.49097472924187,NA
15063,Washington County,PA,65.49707602339181,NA,NA
15068,Westmoreland County,PA,NA,NA,4.479768786127168
15108,Allegheny County,PA,NA,NA,11.271676300578035
15122,Allegheny County,PA,NA,NA,21.820809248554912
15137,Allegheny County,PA,NA,NA,67.1965317919075
15203,Allegheny County,PA,81.87134502923976,NA,NA
15206,Allegheny County,PA,NA,NA,19.508670520231213
15209,Allegheny County,PA,NA,NA,58.38150289017341
15212,Allegheny County,PA,NA,78.15884476534296,NA
15213,Allegheny County,PA,NA,NA,39.16184971098266
15226,Allegheny County,PA,69.00584795321637,NA,NA
15232,Allegheny County,PA,NA,NA,89.88439306358381
15237,Allegheny County,PA,NA,NA,31.213872832369944
15238,Allegheny County,PA,NA,NA,40.60693641618497
15825,Jefferson County,PA,NA,51.80505415162455,NA
15834,Cameron County,PA,NA,74.36823104693141,NA
15902,Cambria County,PA,NA,59.74729241877257,NA
15906,Cambria County,PA,NA,NA,82.51445086705202
16226,Armstrong County,PA,87.71929824561403,NA,NA
16354,Crawford County,PA,NA,NA,62.42774566473989
16509,Erie County,PA,NA,NA,28.61271676300578
16510,Erie County,PA,NA,50,25.86705202312139
16652,Huntingdon County,PA,NA,23.28519855595668,NA
16801,Centre County,PA,NA,NA,14.739884393063585
17003,Lebanon County,PA,NA,NA,88.15028901734104
17036,Dauphin County,PA,26.900584795321635,NA,NA
17044,Mifflin County,PA,NA,NA,46.09826589595375
17055,Cumberland County,PA,NA,20.03610108303249,NA
17070,Cumberland County,PA,NA,NA,74.85549132947978
17202,Franklin County,PA,NA,NA,16.184971098265898
17362,York County,PA,NA,83.75451263537906,NA
17404,York County,PA,NA,16.60649819494585,NA
17522,Lancaster County,PA,NA,NA,9.53757225433526
17527,Lancaster County,PA,93.56725146198829,NA,NA
17543,Lancaster County,PA,NA,NA,8.815028901734104
17821,Montour County,PA,NA,NA,3.7572254335260116
17963,Schuylkill County,PA,75.43859649122807,NA,NA
18042,Northampton County,PA,NA,34.47653429602888,NA
18045,Northampton County,PA,NA,NA,44.07514450867052
18103,Lehigh County,PA,NA,8.664259927797833,11.416184971098266
18222,Luzerne County,PA,NA,75.45126353790613,NA
18301,Monroe County,PA,NA,NA,73.98843930635837
18421,Susquehanna County,PA,NA,95.30685920577618,NA
18612,Luzerne County,PA,59.06432748538012,NA,NA
18707,Luzerne County,PA,NA,NA,46.53179190751445
18966,Bucks County,PA,NA,NA,13.150289017341041
19006,Montgomery County,PA,NA,38.8086642599278,NA
19014,Delaware County,PA,NA,48.55595667870036,NA
19032,Delaware County,PA,NA,97.47292418772562,NA
19057,Bucks County,PA,NA,72.0216606498195,NA
19083,Delaware County,PA,NA,NA,28.179190751445088
19103,Philadelphia County,PA,NA,NA,65.3179190751445
19114,Philadelphia County,PA,NA,25.992779783393498,NA
19118,Philadelphia County,PA,NA,79.6028880866426,NA
19119,Philadelphia County,PA,NA,23.104693140794225,NA
19123,Philadelphia County,PA,NA,NA,87.71676300578035
19124,Philadelphia County,PA,3.508771929824561,NA,NA
19130,Philadelphia County,PA,NA,NA,57.947976878612714
19131,Philadelphia County,PA,NA,5.415162454873646,NA
19132,Philadelphia County,PA,NA,18.95306859205776,NA
19134,Philadelphia County,PA,NA,NA,46.38728323699422
19143,Philadelphia County,PA,NA,NA,43.35260115606936
19147,Philadelphia County,PA,NA,NA,57.80346820809249
19148,Philadelphia County,PA,NA,NA,16.473988439306357
19401,Montgomery County,PA,NA,NA,39.017341040462426
19406,Montgomery County,PA,NA,76.89530685920577,NA
19454,Montgomery County,PA,NA,53.61010830324909,NA
19460,Chester County,PA,NA,29.24187725631769,NA
19465,Chester County,PA,NA,NA,69.94219653179191
19468,Montgomery County,PA,NA,41.51624548736462,NA
19475,Chester County,PA,NA,86.64259927797833,NA
19506,Berks County,PA,NA,NA,87.42774566473989
19525,Montgomery County,PA,NA,NA,77.74566473988439
02818,Kent County,RI,NA,NA,43.93063583815029
02860,Providence County,RI,NA,15.703971119133575,NA
02889,Kent County,RI,28.654970760233915,22.743682310469314,NA
02910,Providence County,RI,54.97076023391813,NA,NA
29020,Kershaw County,SC,NA,75.81227436823104,NA
29169,Lexington County,SC,NA,NA,50.86705202312138
29405,Charleston County,SC,NA,NA,61.41618497109826
29407,Charleston County,SC,NA,NA,18.20809248554913
29412,Charleston County,SC,NA,NA,14.884393063583815
29479,Berkeley County,SC,NA,NA,95.8092485549133
29532,Darlington County,SC,NA,NA,71.24277456647398
29536,Dillon County,SC,NA,85.1985559566787,NA
29569,Horry County,SC,51.461988304093566,NA,NA
29572,Horry County,SC,NA,NA,81.5028901734104
29657,Pickens County,SC,NA,66.78700361010831,NA
29715,York County,SC,NA,NA,67.91907514450867
29860,Edgefield County,SC,NA,NA,73.41040462427746
29907,Beaufort County,SC,NA,NA,86.84971098265896
29909,Beaufort County,SC,NA,NA,19.21965317919075
57006,Brookings County,SD,NA,NA,16.040462427745663
57108,Lincoln County,SD,NA,25.451263537906136,NA
37027,Williamson County,TN,42.10526315789473,NA,NA
37064,Williamson County,TN,NA,19.133574007220215,NA
37069,Williamson County,TN,NA,81.76895306859205,NA
37075,Sumner County,TN,NA,40.974729241877256,NA
37083,Macon County,TN,85.96491228070175,NA,NA
37122,Wilson County,TN,NA,NA,33.23699421965318
37217,Davidson County,TN,NA,60.83032490974729,NA
37330,Franklin County,TN,NA,NA,85.83815028901735
37356,Grundy County,TN,NA,99.81949458483754,NA
37404,Hamilton County,TN,NA,81.2274368231047,NA
37421,Hamilton County,TN,NA,35.37906137184115,NA
37617,Sullivan County,TN,NA,NA,81.79190751445087
37660,Sullivan County,TN,8.771929824561402,NA,NA
37738,Sevier County,TN,NA,95.48736462093864,NA
37803,Blount County,TN,NA,NA,18.786127167630056
37865,Sevier County,TN,NA,51.08303249097473,NA
37912,Knox County,TN,NA,61.191335740072205,NA
38257,Obion County,TN,NA,NA,90.60693641618496
38506,Putnam County,TN,NA,26.173285198555956,NA
75013,Collin County,TX,53.80116959064327,NA,NA
75044,Dallas County,TX,NA,35.55956678700361,NA
75052,Dallas County,TX,NA,14.259927797833935,NA
75062,Dallas County,TX,NA,39.891696750902526,NA
75074,Collin County,TX,NA,38.98916967509025,NA
75076,Grayson County,TX,NA,NA,91.1849710982659
75078,Collin County,TX,71.9298245614035,NA,NA
75080,Dallas County,TX,60.81871345029239,NA,NA
75087,Rockwall County,TX,NA,60.46931407942239,NA
75115,Dallas County,TX,NA,NA,27.45664739884393
75203,Dallas County,TX,NA,NA,87.861271676300575
75206,Dallas County,TX,55.55555555555556,NA,65.7514450867052
75212,Dallas County,TX,NA,NA,54.33526011560693
75216,Dallas County,TX,NA,NA,9.104046242774565
75224,Dallas County,TX,NA,47.65342960288809,82.94797687861272
75228,Dallas County,TX,NA,NA,28.757225433526013
75230,Dallas County,TX,NA,53.97111913357401,NA
75232,Dallas County,TX,NA,NA,88.58381502890174
75238,Dallas County,TX,NA,NA,51.73410404624278
75402,Hunt County,TX,NA,58.12274368231047,NA
75474,Hunt County,TX,NA,63.718411552346566,NA
75570,Bowie County,TX,NA,NA,90.7514450867052
75692,Harrison County,TX,97.07602339181285,NA,NA
75948,Sabine County,TX,NA,NA,85.83815028901735
76048,Hood County,TX,NA,73.10469314079423,78.32369942196532
76049,Hood County,TX,NA,24.548736462093864,NA
76106,Tarrant County,TX,NA,25.812274368231048,NA
76110,Tarrant County,TX,NA,96.38989169675091,NA
76116,Tarrant County,TX,NA,17.14801444043321,NA
76201,Denton County,TX,NA,97.83393501805054,NA
76384,Wilbarger County,TX,NA,NA,83.67052023121387
76442,Comanche County,TX,NA,NA,60.54913294797688
76502,Bell County,TX,NA,NA,2.8901734104046244
76520,Milam County,TX,NA,82.85198555956678,35.54913294797688
76528,Coryell County,TX,NA,NA,66.47398843930635
76542,Bell County,TX,NA,29.602888086642597,NA
76549,Bell County,TX,26.31578947368421,NA,NA
76821,Runnels County,TX,91.22807017543859,NA,NA
77021,Harris County,TX,NA,NA,53.32369942196532
77089,Harris County,TX,NA,40.25270758122744,NA
77095,Harris County,TX,NA,NA,56.21387283236994
77388,Harris County,TX,49.707602339181285,NA,NA
77429,Harris County,TX,NA,7.9422382671480145,NA
77450,Harris County,TX,NA,24.187725631768952,NA
77469,Fort Bend County,TX,NA,42.057761732851986,NA
77478,Fort Bend County,TX,NA,NA,54.47976878612717
77642,Jefferson County,TX,NA,NA,57.51445086705203
77840,Brazos County,TX,NA,74.54873646209387,NA
77845,Brazos County,TX,NA,NA,2.167630057803468
78006,Kendall County,TX,80.11695906432749,NA,NA
78040,Webb County,TX,NA,46.3898916967509,NA
78043,Webb County,TX,NA,NA,85.40462427745665
78045,Webb County,TX,NA,NA,68.35260115606935
78154,Guadalupe County,TX,NA,NA,66.61849710982659
78207,Bexar County,TX,NA,NA,25.14450867052023
78251,Bexar County,TX,NA,82.67148014440433,NA
78415,Nueces County,TX,NA,NA,62.42774566473989
78550,Cameron County,TX,45.614035087719294,NA,NA
78552,Cameron County,TX,NA,NA,66.76300578034682
78573,Hidalgo County,TX,57.89473684210527,NA,NA
78602,Bastrop County,TX,NA,90.7942238267148,NA
78620,Hays County,TX,NA,92.4187725631769,NA
78628,Williamson County,TX,NA,NA,2.023121387283237
78633,Williamson County,TX,NA,NA,10.115606936416185
78634,Williamson County,TX,NA,NA,98.55491329479769
78639,Llano County,TX,NA,81.40794223826715,NA
78665,Williamson County,TX,NA,35.1985559566787,75.14450867052022
78717,Williamson County,TX,79.53216374269006,NA,NA
78723,Travis County,TX,NA,77.6173285198556,NA
78727,Travis County,TX,NA,NA,95.66473988439307
78734,Travis County,TX,NA,73.6462093862816,NA
78738,Travis County,TX,NA,NA,90.3179190751445
78840,Val Verde County,TX,NA,22.382671480144403,NA
78861,Medina County,TX,NA,NA,82.36994219653178
79106,Potter County,TX,NA,46.02888086642599,NA
79336,Hockley County,TX,NA,NA,69.94219653179191
79407,Lubbock County,TX,NA,68.41155234657039,NA
79424,Lubbock County,TX,NA,NA,19.942196531791907
79602,Taylor County,TX,61.98830409356725,NA,NA
79701,Midland County,TX,NA,NA,83.23699421965318
79735,Pecos County,TX,NA,89.53068592057761,NA
79756,Ward County,TX,NA,89.53068592057761,NA
79765,Ector County,TX,NA,94.7653429602888,NA
79924,El Paso County,TX,NA,34.11552346570397,NA
79935,El Paso County,TX,NA,NA,84.97109826589595
84009,Salt Lake County,UT,NA,64.8014440433213,NA
84093,Salt Lake County,UT,NA,NA,68.0635838150289
84094,Salt Lake County,UT,NA,98.91696750902527,73.69942196531792
84095,Salt Lake County,UT,42.69005847953216,NA,NA
84108,Salt Lake County,UT,83.62573099415205,NA,NA
84109,Salt Lake County,UT,NA,NA,35.982658959537574
84119,Salt Lake County,UT,NA,NA,39.884393063583815
84302,Box Elder County,UT,NA,78.88086642599278,NA
84701,Sevier County,UT,NA,NA,96.09826589595376
84770,Washington County,UT,NA,69.49458483754512,NA
05156,Windsor County,VT,NA,69.85559566787003,NA
05201,Bennington County,VT,NA,NA,38.29479768786127
05602,Washington County,VT,NA,NA,53.75722543352601
05641,Washington County,VT,37.42690058479532,NA,NA
22482,Lancaster County,VA,NA,NA,88.0057803468208
22554,Stafford County,VA,NA,50.90252707581227,NA
22603,Frederick County,VA,NA,75.45126353790613,NA
22827,Rockingham County,VA,NA,74.0072202166065,NA
22835,Page County,VA,NA,NA,45.809248554913296
22851,Page County,VA,NA,68.41155234657039,NA
22901,Albemarle County,VA,NA,33.57400722021661,NA
22902,Charlottesville city,VA,NA,NA,42.19653179190752
22960,Orange County,VA,92.39766081871345,NA,92.05202312138728
22980,Waynesboro city,VA,9.941520467836257,NA,4.046242774566474
23060,Henrico County,VA,NA,85.92057761732852,NA
23188,James City County,VA,NA,4.873646209386282,NA
23222,Richmond city,VA,NA,36.101083032490976,42.919075144508675
23430,Isle of Wight County,VA,NA,39.16967509025271,NA
23434,Suffolk city,VA,18.71345029239766,NA,NA
23451,Virginia Beach city,VA,NA,NA,25.289017341040466
23452,Virginia Beach city,VA,NA,11.552346570397113,NA
23453,Virginia Beach city,VA,NA,43.682310469314075,NA
23454,Virginia Beach city,VA,NA,NA,5.491329479768786
23502,Norfolk city,VA,NA,NA,44.653179190751445
23509,Norfolk city,VA,NA,NA,76.73410404624278
23513,Norfolk city,VA,NA,85.37906137184116,NA
23834,Colonial Heights city,VA,NA,NA,61.994219653179194
23860,Hopewell city,VA,NA,NA,67.48554913294798
23875,Prince George County,VA,NA,79.2418772563177,NA
23890,Sussex County,VA,NA,94.94584837545126,NA
24018,Roanoke County,VA,NA,37.545126353790614,NA
24141,Radford city,VA,NA,83.03249097472924,NA
24148,Henry County,VA,81.87134502923976,NA,NA
24151,Franklin County,VA,NA,NA,65.46242774566474
24153,Salem city,VA,NA,NA,20.23121387283237
24201,Bristol city,VA,NA,NA,50.433526011560694
24333,Galax city,VA,NA,NA,63.4393063583815
24401,Staunton city,VA,NA,NA,6.791907514450866
24426,Alleghany County,VA,52.046783625730995,NA,NA
24540,Danville city,VA,NA,68.7725631768953,NA
24541,Danville city,VA,40.35087719298245,NA,NA
24550,Campbell County,VA,NA,97.29241877256317,NA
98003,King County,WA,NA,26.173285198555956,NA
98006,King County,WA,NA,36.64259927797834,NA
98023,King County,WA,NA,NA,28.901734104046245
98031,King County,WA,NA,NA,47.97687861271676
98032,King County,WA,NA,NA,91.04046242774567
98037,Snohomish County,WA,NA,63.898916967509024,NA
98042,King County,WA,NA,14.981949458483754,NA
98051,King County,WA,NA,99.09747292418773,NA
98072,King County,WA,NA,NA,60.26011560693642
98101,King County,WA,NA,NA,39.59537572254335
98109,King County,WA,NA,NA,59.6820809248555
98133,King County,WA,NA,25.63176895306859,NA
98144,King County,WA,33.91812865497076,NA,NA
98155,King County,WA,NA,NA,44.50867052023121
98199,King County,WA,NA,NA,88.8728323699422
98221,Skagit County,WA,NA,NA,18.930635838150287
98223,Snohomish County,WA,NA,NA,78.90173410404624
98229,Whatcom County,WA,NA,69.13357400722022,NA
98236,Island County,WA,96.49122807017544,NA,NA
98239,Island County,WA,NA,NA,62.138728323699425
98264,Whatcom County,WA,NA,NA,60.69364161849711
98270,Snohomish County,WA,NA,37.90613718411552,NA
98271,Snohomish County,WA,NA,NA,60.83815028901734
98277,Island County,WA,NA,NA,14.30635838150289
98284,Skagit County,WA,NA,NA,58.236994219653184
98362,Clallam County,WA,NA,10.288808664259928,NA
98363,Clallam County,WA,NA,NA,42.34104046242775
98382,Clallam County,WA,NA,NA,1.1560693641618496
98387,Pierce County,WA,NA,29.061371841155236,NA
98391,Pierce County,WA,NA,16.064981949458485,NA
98402,Pierce County,WA,80.7017543859649,NA,NA
98403,Pierce County,WA,NA,96.57039711191335,NA
98408,Pierce County,WA,NA,62.454873646209386,NA
98409,Pierce County,WA,NA,NA,77.16763005780348
98444,Pierce County,WA,NA,NA,68.4971098265896
98466,Pierce County,WA,NA,42.59927797833935,NA
98516,Thurston County,WA,86.54970760233918,NA,NA
98524,Mason County,WA,100,NA,NA
98584,Mason County,WA,NA,NA,32.65895953757225
98631,Pacific County,WA,NA,NA,97.6878612716763
98685,Clark County,WA,NA,NA,71.38728323699422
98802,Douglas County,WA,NA,35.55956678700361,21.965317919075144
98844,Okanogan County,WA,NA,98.37545126353791,NA
98903,Yakima County,WA,NA,NA,68.20809248554913
99201,Spokane County,WA,NA,84.11552346570397,NA
20001,District of Columbia,DC,NA,19.494584837545126,NA
20018,District of Columbia,DC,NA,NA,46.82080924855491
20020,District of Columbia,DC,17.543859649122805,NA,29.6242774566474
25015,Kanawha County,WV,NA,93.50180505415162,NA
25177,Kanawha County,WV,NA,74.54873646209387,NA
25304,Kanawha County,WV,NA,80.86642599277978,NA
25702,Cabell County,WV,NA,97.11191335740072,NA
26062,Hancock County,WV,NA,NA,11.99421965317919
26301,Harrison County,WV,NA,NA,23.98843930635838
26431,Harrison County,WV,NA,NA,81.64739884393065
26554,Marion County,WV,NA,2.888086642599278,3.6127167630057806
53010,Fond du Lac County,WI,NA,NA,96.53179190751445
53051,Waukesha County,WI,NA,NA,47.687861271676304
53089,Waukesha County,WI,NA,NA,78.61271676300578
53090,Washington County,WI,NA,NA,64.30635838150289
53098,Dodge County,WI,NA,NA,55.49132947976878
53110,Milwaukee County,WI,NA,NA,33.38150289017341
53122,Waukesha County,WI,NA,NA,78.03468208092485
53144,Kenosha County,WI,NA,34.83754512635379,NA
53149,Waukesha County,WI,NA,NA,66.1849710982659
53202,Milwaukee County,WI,NA,NA,39.884393063583815
53209,Milwaukee County,WI,NA,NA,41.90751445086705
53212,Milwaukee County,WI,NA,17.870036101083034,NA
53214,Milwaukee County,WI,NA,13.718411552346572,28.034682080924856
53221,Milwaukee County,WI,NA,26.534296028880867,NA
53222,Milwaukee County,WI,NA,NA,87.42774566473989
53226,Milwaukee County,WI,NA,NA,44.21965317919075
53228,Milwaukee County,WI,NA,NA,43.20809248554913
53235,Milwaukee County,WI,NA,NA,76.15606936416185
53405,Racine County,WI,NA,NA,72.10982658959537
53538,Jefferson County,WI,NA,NA,30.491329479768787
53546,Rock County,WI,NA,NA,36.99421965317919
53566,Green County,WI,NA,NA,13.583815028901732
53581,Richland County,WI,NA,84.65703971119135,NA
53594,Jefferson County,WI,NA,NA,93.9306358381503
53704,Dane County,WI,NA,NA,41.18497109826589
53705,Dane County,WI,NA,NA,70.8092485549133
53717,Dane County,WI,NA,88.62815884476535,NA
53901,Columbia County,WI,67.83625730994152,NA,NA
53948,Juneau County,WI,77.77777777777779,NA,NA
53950,Juneau County,WI,NA,93.86281588447653,NA
54002,St. Croix County,WI,87.13450292397661,NA,NA
54220,Manitowoc County,WI,NA,NA,0.5780346820809248
54235,Door County,WI,NA,NA,23.410404624277454
54452,Lincoln County,WI,NA,NA,27.02312138728324
54484,Marathon County,WI,NA,NA,96.38728323699422
54521,Vilas County,WI,88.88888888888889,NA,NA
54601,La Crosse County,WI,NA,NA,4.335260115606936
54650,La Crosse County,WI,NA,NA,26.589595375722542
54728,Barron County,WI,NA,90.61371841155234,NA
54738,Eau Claire County,WI,NA,100,NA
54848,Rusk County,WI,NA,92.7797833935018,NA
54944,Outagamie County,WI,NA,NA,99.42196531791907
54971,Fond du Lac County,WI,NA,NA,68.78612716763006
54986,Winnebago County,WI,NA,NA,97.97687861271676
82240,Goshen County,WY,NA,NA,89.45086705202311
