ZipCode,county,state,Adult,Retirement,Geriatric
35063,Walker County,AL,91.04477611940298,NA,NA
35226,Jefferson County,AL,77.61194029850746,NA,NA
35401,Tuscaloosa County,AL,NA,NA,40.08438818565401
35810,Madison County,AL,25.07462686567164,NA,NA
36507,Baldwin County,AL,31.94029850746269,NA,NA
36532,Baldwin County,AL,NA,50.51975051975052,NA
36604,Mobile County,AL,NA,NA,92.40506329113924
99654,Matanuska-Susitna Borough,AK,NA,35.96673596673597,NA
99835,Sitka City and Borough,AK,NA,66.94386694386695,NA
85019,Maricopa County,AZ,NA,60.70686070686071,NA
85040,Maricopa County,AZ,NA,46.36174636174636,NA
85051,Maricopa County,AZ,NA,74.42827442827443,NA
85201,Maricopa County,AZ,NA,NA,30.801687763713083
85234,Maricopa County,AZ,NA,45.94594594594595,NA
85248,Maricopa County,AZ,NA,NA,7.172995780590717
85349,Yuma County,AZ,69.25373134328359,NA,NA
85621,Santa Cruz County,AZ,NA,64.65696465696466,NA
85706,Pima County,AZ,NA,8.108108108108109,NA
85712,Pima County,AZ,17.91044776119403,39.5010395010395,NA
85715,Pima County,AZ,90.14925373134328,NA,NA
85743,Pima County,AZ,NA,25.155925155925157,NA
85746,Pima County,AZ,NA,62.16216216216216,NA
85937,Navajo County,AZ,NA,NA,92.82700421940928
86406,Mohave County,AZ,NA,22.66112266112266,NA
86409,Mohave County,AZ,8.059701492537313,NA,NA
86413,Mohave County,AZ,NA,NA,81.0126582278481
86442,Mohave County,AZ,NA,9.771309771309772,NA
86538,Apache County,AZ,98.80597014925372,99.37629937629939,NA
72011,Saline County,AR,NA,91.47609147609148,NA
72022,Saline County,AR,NA,NA,55.27426160337553
72023,Lonoke County,AR,48.35820895522388,NA,NA
72143,White County,AR,30.149253731343283,NA,7.59493670886076
72501,Independence County,AR,NA,22.453222453222455,NA
90016,Los Angeles County,CA,37.014925373134325,NA,NA
90020,Los Angeles County,CA,68.05970149253731,NA,NA
90026,Los Angeles County,CA,NA,63.61746361746362,NA
90033,Los Angeles County,CA,NA,41.78794178794179,NA
90037,Los Angeles County,CA,80,NA,NA
90068,Los Angeles County,CA,NA,86.6943866943867,NA
90260,Los Angeles County,CA,NA,59.45945945945946,NA
90277,Los Angeles County,CA,NA,NA,43.88185654008439
90305,Los Angeles County,CA,93.43283582089552,NA,NA
90601,Los Angeles County,CA,NA,79.002079002079,NA
90604,Los Angeles County,CA,NA,NA,27.004219409282697
90703,Los Angeles County,CA,NA,59.25155925155925,58.22784810126582
90810,Los Angeles County,CA,NA,89.1891891891892,NA
91007,Los Angeles County,CA,NA,NA,65.82278481012658
91105,Los Angeles County,CA,NA,96.46569646569647,NA
91326,Los Angeles County,CA,53.13432835820896,NA,NA
91730,San Bernardino County,CA,NA,61.74636174636174,NA
91731,Los Angeles County,CA,NA,49.272349272349274,NA
91763,San Bernardino County,CA,NA,82.95218295218295,NA
91911,San Diego County,CA,NA,62.78586278586279,NA
91950,San Diego County,CA,NA,30.561330561330564,NA
91977,San Diego County,CA,28.65671641791045,25.363825363825367,NA
92019,San Diego County,CA,NA,NA,60.337552742616026
92126,San Diego County,CA,NA,NA,34.59915611814346
92154,San Diego County,CA,NA,NA,13.080168776371309
92270,Riverside County,CA,NA,32.640332640332645,NA
92376,San Bernardino County,CA,8.656716417910449,NA,NA
92562,Riverside County,CA,20.8955223880597,NA,NA
92584,Riverside County,CA,NA,48.232848232848234,NA
92585,Riverside County,CA,67.16417910447761,NA,NA
92586,Riverside County,CA,NA,NA,17.72151898734177
92648,Orange County,CA,23.582089552238806,NA,NA
92656,Orange County,CA,NA,40.74844074844075,NA
92704,Orange County,CA,NA,NA,32.91139240506329
92821,Orange County,CA,NA,NA,26.582278481012654
92882,Riverside County,CA,NA,32.016632016632016,NA
92886,Orange County,CA,NA,16.008316008316008,NA
92887,Orange County,CA,NA,64.65696465696466,NA
93036,Ventura County,CA,NA,NA,98.31223628691983
93063,Ventura County,CA,NA,22.03742203742204,NA
93065,Ventura County,CA,NA,NA,16.033755274261605
93223,Tulare County,CA,NA,NA,85.65400843881856
93263,Kern County,CA,NA,97.5051975051975,NA
93420,San Luis Obispo County,CA,56.11940298507463,NA,NA
93534,Los Angeles County,CA,NA,62.99376299376299,NA
93704,Fresno County,CA,NA,46.98544698544699,NA
93905,Monterey County,CA,30.447761194029848,NA,NA
94027,San Mateo County,CA,90.44776119402985,NA,NA
94108,San Francisco County,CA,89.8507462686567,NA,NA
94133,San Francisco County,CA,NA,40.33264033264034,NA
94501,Alameda County,CA,NA,65.07276507276507,19.831223628691983
94513,Contra Costa County,CA,27.761194029850746,21.205821205821206,NA
94544,Alameda County,CA,NA,11.434511434511435,NA
94549,Contra Costa County,CA,NA,48.85654885654886,NA
94568,Alameda County,CA,NA,NA,43.037974683544306
94577,Alameda County,CA,NA,30.14553014553015,NA
94597,Contra Costa County,CA,60.59701492537314,NA,NA
94602,Alameda County,CA,NA,74.63617463617463,NA
94949,Marin County,CA,90.74626865671642,NA,NA
95035,Santa Clara County,CA,40.59701492537313,NA,NA
95116,Santa Clara County,CA,36.71641791044776,NA,NA
95120,Santa Clara County,CA,NA,43.24324324324324,NA
95205,San Joaquin County,CA,86.56716417910447,NA,NA
95377,San Joaquin County,CA,NA,92.72349272349273,NA
95380,Stanislaus County,CA,NA,NA,47.257383966244724
95451,Lake County,CA,66.26865671641791,NA,NA
95453,Lake County,CA,NA,96.25779625779626,NA
95476,Sonoma County,CA,NA,NA,52.742616033755276
95624,Sacramento County,CA,NA,22.245322245322246,NA
95650,Placer County,CA,NA,98.75259875259876,NA
95662,Sacramento County,CA,NA,53.84615384615385,NA
95822,Sacramento County,CA,91.94029850746269,NA,NA
95901,Yuba County,CA,NA,97.92099792099792,NA
95988,Glenn County,CA,NA,NA,72.15189873417721
80010,Arapahoe County,CO,NA,38.66943866943867,NA
80017,Arapahoe County,CO,NA,NA,96.62447257383965
80205,Denver County,CO,34.02985074626866,NA,NA
80241,Adams County,CO,NA,60.08316008316008,NA
80524,Larimer County,CO,NA,53.638253638253644,NA
80922,El Paso County,CO,71.34328358208955,NA,NA
81144,Rio Grande County,CO,NA,NA,62.0253164556962
81201,Chaffee County,CO,NA,NA,75.10548523206751
81416,Delta County,CO,NA,NA,79.32489451476793
81521,Mesa County,CO,NA,59.04365904365905,NA
06037,Hartford County,CT,NA,NA,32.48945147679325
06066,Tolland County,CT,NA,17.463617463617464,NA
06118,Hartford County,CT,NA,92.51559251559252,NA
06401,New Haven County,CT,NA,NA,39.24050632911392
06410,New Haven County,CT,NA,36.17463617463618,NA
06484,Fairfield County,CT,NA,69.85446985446985,NA
06517,New Haven County,CT,NA,37.21413721413722,NA
06708,New Haven County,CT,70.74626865671641,NA,NA
19709,New Castle County,DE,NA,94.5945945945946,NA
19933,Sussex County,DE,NA,58.83575883575883,NA
19963,Sussex County,DE,NA,61.53846153846154,NA
32034,Nassau County,FL,NA,33.679833679833685,NA
32063,Baker County,FL,NA,NA,75.9493670886076
32086,St. Johns County,FL,NA,16.632016632016633,NA
32097,Nassau County,FL,46.865671641791046,NA,NA
32110,Flagler County,FL,57.3134328358209,NA,NA
32162,Sumter County,FL,NA,16.424116424116423,NA
32169,Volusia County,FL,NA,90.64449064449065,NA
32413,Bay County,FL,NA,44.49064449064449,NA
32503,Escambia County,FL,44.47761194029851,NA,NA
32535,Escambia County,FL,65.07462686567163,NA,NA
32561,Santa Rosa County,FL,NA,86.9022869022869,NA
32640,Putnam County,FL,NA,60.08316008316008,NA
32669,Alachua County,FL,NA,56.54885654885655,NA
32738,Volusia County,FL,NA,NA,38.39662447257383
32825,Orange County,FL,26.268656716417908,NA,NA
33024,Broward County,FL,NA,NA,47.257383966244724
33064,Broward County,FL,NA,16.216216216216218,NA
33127,Miami-Dade County,FL,NA,56.96465696465697,NA
33134,Miami-Dade County,FL,NA,44.90644490644491,NA
33189,Miami-Dade County,FL,NA,72.14137214137214,NA
33315,Broward County,FL,NA,NA,76.79324894514767
33401,Palm Beach County,FL,53.73134328358209,NA,NA
33410,Palm Beach County,FL,NA,29.72972972972973,NA
33411,Palm Beach County,FL,NA,19.12681912681913,NA
33446,Palm Beach County,FL,NA,71.3097713097713,NA
33610,Hillsborough County,FL,NA,62.57796257796257,NA
33771,Pinellas County,FL,NA,NA,16.877637130801688
33812,Polk County,FL,95.52238805970148,NA,NA
33823,Polk County,FL,NA,NA,71.72995780590718
33875,Highlands County,FL,NA,NA,81.85654008438819
33897,Polk County,FL,82.68656716417911,NA,NA
33901,Lee County,FL,NA,NA,74.68354430379746
33905,Lee County,FL,NA,51.143451143451145,NA
33908,Lee County,FL,48.059701492537314,NA,NA
33974,Lee County,FL,67.76119402985074,NA,NA
34208,Manatee County,FL,NA,40.95634095634096,NA
34223,Sarasota County,FL,78.80597014925374,NA,NA
34428,Citrus County,FL,76.11940298507463,NA,NA
34787,Orange County,FL,61.791044776119406,NA,NA
34983,St. Lucie County,FL,NA,NA,95.78059071729957
34996,Martin County,FL,NA,56.75675675675676,NA
30022,Fulton County,GA,NA,38.87733887733888,NA
30110,Haralson County,GA,NA,70.68607068607069,NA
30135,Douglas County,GA,13.134328358208954,NA,NA
30152,Cobb County,GA,46.26865671641791,NA,NA
30228,Henry County,GA,24.776119402985074,NA,NA
30248,Henry County,GA,NA,76.92307692307693,NA
30260,Clayton County,GA,88.65671641791046,NA,NA
30263,Coweta County,GA,NA,11.642411642411643,NA
30308,Fulton County,GA,63.28358208955224,NA,NA
30349,Fulton County,GA,7.462686567164178,NA,NA
30458,Bulloch County,GA,NA,60.4989604989605,NA
30548,Jackson County,GA,73.73134328358208,NA,NA
30605,Clarke County,GA,70.1492537313433,NA,NA
30643,Hart County,GA,76.71641791044776,NA,NA
30809,Columbia County,GA,NA,11.226611226611228,NA
30909,Richmond County,GA,NA,15.176715176715177,NA
31061,Baldwin County,GA,NA,25.571725571725572,NA
31316,Long County,GA,98.50746268656717,NA,NA
31419,Chatham County,GA,NA,80.66528066528068,NA
31525,Glynn County,GA,NA,NA,97.0464135021097
31721,Dougherty County,GA,83.88059701492537,NA,NA
31792,Thomas County,GA,NA,29.521829521829524,NA
31794,Tift County,GA,NA,44.49064449064449,NA
31906,Muscogee County,GA,NA,NA,49.36708860759494
31909,Muscogee County,GA,NA,68.60706860706861,NA
39845,Seminole County,GA,84.4776119402985,NA,NA
96720,Hawaii County,HI,NA,21.82952182952183,NA
96741,Kauai County,HI,83.28358208955224,NA,NA
96789,Honolulu County,HI,18.507462686567163,NA,NA
96797,Honolulu County,HI,NA,29.313929313929314,NA
83301,Twin Falls County,ID,NA,NA,0
83338,Jerome County,ID,NA,86.07068607068608,NA
83501,Nez Perce County,ID,13.432835820895523,NA,NA
83616,Ada County,ID,NA,35.343035343035346,NA
83642,Ada County,ID,NA,31.600831600831604,NA
83703,Ada County,ID,48.656716417910445,23.492723492723496,NA
83706,Ada County,ID,49.850746268656714,NA,44.303797468354425
83860,Bonner County,ID,NA,76.29937629937629,NA
83861,Benewah County,ID,NA,77.75467775467776,NA
60020,Lake County,IL,NA,49.68814968814969,NA
60025,Cook County,IL,NA,4.781704781704782,NA
60026,Cook County,IL,NA,NA,21.518987341772153
60053,Cook County,IL,64.4776119402985,NA,NA
60060,Lake County,IL,NA,69.23076923076923,NA
60076,Cook County,IL,NA,20.997920997921,NA
60110,Kane County,IL,NA,51.767151767151766,NA
60137,DuPage County,IL,27.164179104477608,NA,NA
60173,Cook County,IL,98.2089552238806,NA,NA
60176,Cook County,IL,69.85074626865672,NA,NA
60193,Cook County,IL,NA,NA,24.894514767932492
60201,Cook County,IL,NA,19.95841995841996,NA
60402,Cook County,IL,11.641791044776118,34.511434511434516,NA
60417,Will County,IL,51.64179104477612,NA,NA
60423,Will County,IL,NA,48.44074844074844,NA
60426,Cook County,IL,NA,50.311850311850314,NA
60440,Will County,IL,17.01492537313433,NA,NA
60450,Grundy County,IL,NA,15.592515592515593,NA
60451,Will County,IL,75.5223880597015,NA,NA
60453,Cook County,IL,82.98507462686567,NA,NA
60462,Cook County,IL,NA,NA,69.62025316455697
60466,Cook County,IL,NA,71.72557172557173,NA
60477,Cook County,IL,NA,11.85031185031185,NA
60482,Cook County,IL,NA,65.9043659043659,NA
60532,DuPage County,IL,NA,65.48856548856548,NA
60540,DuPage County,IL,NA,NA,28.691983122362867
60544,Will County,IL,31.044776119402982,NA,NA
60565,DuPage County,IL,NA,18.295218295218298,NA
60617,Cook County,IL,NA,NA,3.79746835443038
60626,Cook County,IL,NA,6.237006237006238,NA
60631,Cook County,IL,25.970149253731346,NA,NA
60632,Cook County,IL,12.835820895522387,NA,NA
60640,Cook County,IL,8.358208955223882,NA,NA
60641,Cook County,IL,35.223880597014926,NA,NA
60643,Cook County,IL,54.328358208955216,NA,NA
60644,Cook County,IL,NA,NA,14.767932489451477
60646,Cook County,IL,40.8955223880597,NA,NA
60649,Cook County,IL,NA,NA,82.70042194092827
60651,Cook County,IL,NA,7.6923076923076925,NA
60660,Cook County,IL,NA,14.96881496881497,NA
60707,Cook County,IL,NA,NA,31.223628691983123
61019,Stephenson County,IL,NA,83.57588357588358,NA
61021,Lee County,IL,NA,6.029106029106029,NA
61073,Winnebago County,IL,NA,NA,89.87341772151899
61525,Peoria County,IL,NA,NA,78.48101265822784
61739,Livingston County,IL,NA,NA,94.9367088607595
61873,Champaign County,IL,NA,90.43659043659044,NA
62269,St. Clair County,IL,NA,34.0956340956341,NA
62286,Randolph County,IL,NA,86.27858627858627,NA
62448,Jasper County,IL,NA,NA,64.13502109704642
62821,White County,IL,92.23880597014926,NA,NA
62959,Williamson County,IL,34.626865671641795,NA,NA
46060,Hamilton County,IN,NA,NA,29.957805907172997
46222,Marion County,IN,NA,25.779625779625782,NA
46237,Marion County,IN,NA,NA,13.502109704641349
46239,Marion County,IN,NA,NA,88.18565400843882
46312,Lake County,IN,14.925373134328357,NA,NA
46322,Lake County,IN,NA,NA,11.39240506329114
46375,Lake County,IN,NA,43.86694386694387,NA
46383,Porter County,IN,6.567164179104477,NA,NA
46407,Lake County,IN,NA,96.67359667359668,NA
46410,Lake County,IN,NA,NA,78.05907172995781
46783,Huntington County,IN,NA,90.22869022869024,NA
46818,Allen County,IN,NA,39.70893970893971,NA
46902,Howard County,IN,NA,39.2931392931393,NA
46923,Carroll County,IN,NA,91.8918918918919,NA
46933,Grant County,IN,NA,63.82536382536382,NA
47012,Franklin County,IN,NA,NA,69.19831223628692
47025,Dearborn County,IN,NA,70.47817047817048,NA
47150,Floyd County,IN,NA,6.860706860706861,NA
47167,Washington County,IN,42.68656716417911,NA,NA
47374,Wayne County,IN,NA,40.12474012474013,NA
47403,Monroe County,IN,50.44776119402985,NA,NA
47501,Daviess County,IN,57.611940298507456,NA,NA
47711,Vanderburgh County,IN,NA,NA,45.14767932489451
47834,Clay County,IN,NA,42.82744282744283,NA
50036,Boone County,IA,NA,NA,51.89873417721519
50158,Marshall County,IA,21.19402985074627,NA,NA
50501,Webster County,IA,NA,31.392931392931395,NA
50613,Black Hawk County,IA,41.7910447761194,NA,5.485232067510549
50616,Floyd County,IA,NA,42.41164241164241,NA
51106,Woodbury County,IA,NA,68.3991683991684,NA
51250,Sioux County,IA,NA,98.96049896049897,NA
51351,Dickinson County,IA,NA,NA,72.9957805907173
51401,Carroll County,IA,NA,NA,50.210970464135016
52240,Johnson County,IA,59.1044776119403,NA,NA
52404,Linn County,IA,NA,NA,26.160337552742618
52641,Henry County,IA,NA,NA,43.037974683544306
66043,Leavenworth County,KS,69.55223880597015,NA,NA
66086,Leavenworth County,KS,NA,NA,80.16877637130801
66212,Johnson County,KS,NA,13.92931392931393,NA
66610,Shawnee County,KS,NA,99.16839916839916,NA
66614,Shawnee County,KS,NA,17.87941787941788,NA
66616,Shawnee County,KS,NA,NA,70.46413502109705
67124,Pratt County,KS,NA,NA,59.91561181434599
67209,Sedgwick County,KS,87.46268656716418,NA,NA
67530,Barton County,KS,79.70149253731343,NA,NA
67846,Finney County,KS,NA,20.16632016632017,NA
40004,Nelson County,KY,16.417910447761194,NA,NA
40047,Bullitt County,KY,51.34328358208955,NA,NA
40241,Jefferson County,KY,66.86567164179105,NA,NA
40313,Rowan County,KY,NA,NA,98.73417721518987
40324,Scott County,KY,NA,NA,30.37974683544304
40977,Bell County,KY,68.65671641791045,NA,NA
41051,Kenton County,KY,NA,30.76923076923077,NA
42003,McCracken County,KY,NA,14.553014553014554,NA
42025,Marshall County,KY,NA,36.590436590436596,NA
42066,Graves County,KY,NA,18.711018711018713,NA
42141,Barren County,KY,NA,7.484407484407485,NA
42171,Warren County,KY,70.44776119402985,NA,NA
42320,Ohio County,KY,NA,42.61954261954262,NA
42366,Daviess County,KY,NA,85.44698544698545,NA
42420,Henderson County,KY,8.955223880597014,89.81288981288982,NA
42718,Taylor County,KY,NA,8.93970893970894,NA
70113,Orleans Parish,LA,25.37313432835821,NA,NA
70115,Orleans Parish,LA,16.119402985074625,NA,NA
70121,Jefferson Parish,LA,41.19402985074627,NA,NA
70360,Terrebonne Parish,LA,NA,NA,73.41772151898735
70380,St. Mary Parish,LA,NA,NA,62.869198312236286
70438,Washington Parish,LA,12.53731343283582,NA,NA
70441,St. Helena Parish,LA,NA,90.85239085239085,NA
70445,St. Tammany Parish,LA,72.23880597014926,NA,NA
70461,St. Tammany Parish,LA,NA,NA,63.29113924050633
70512,St. Landry Parish,LA,52.537313432835816,NA,NA
70538,St. Mary Parish,LA,NA,NA,46.835443037974684
70570,St. Landry Parish,LA,1.4925373134328357,NA,NA
70584,St. Landry Parish,LA,77.91044776119404,NA,NA
70633,Calcasieu Parish,LA,NA,NA,67.08860759493672
70726,Livingston Parish,LA,NA,NA,49.789029535864984
70802,East Baton Rouge Parish,LA,22.08955223880597,NA,NA
70809,East Baton Rouge Parish,LA,NA,41.16424116424117,NA
71055,Webster Parish,LA,NA,74.22037422037423,NA
71104,Caddo Parish,LA,NA,57.7962577962578,NA
71112,Bossier Parish,LA,49.25373134328358,NA,NA
71342,La Salle Parish,LA,NA,78.5862785862786,NA
04046,York County,ME,NA,NA,56.9620253164557
04064,York County,ME,NA,37.00623700623701,NA
04097,Cumberland County,ME,95.82089552238806,NA,NA
04210,Androscoggin County,ME,NA,8.731808731808732,NA
04240,Androscoggin County,ME,NA,33.471933471933475,NA
04294,Franklin County,ME,97.01492537313433,NA,NA
04401,Penobscot County,ME,2.3880597014925375,NA,NA
04901,Kennebec County,ME,5.3731343283582085,NA,NA
04950,Somerset County,ME,NA,63.409563409563404,NA
04957,Somerset County,ME,NA,93.34719334719335,NA
04963,Kennebec County,ME,NA,57.380457380457386,NA
20732,Calvert County,MD,94.32835820895522,NA,NA
20772,Prince George's County,MD,40,NA,NA
20874,Montgomery County,MD,38.80597014925373,NA,NA
20904,Montgomery County,MD,47.76119402985074,NA,NA
21043,Howard County,MD,NA,37.83783783783784,NA
21044,Howard County,MD,40.298507462686565,NA,NA
21061,Anne Arundel County,MD,10.149253731343283,NA,NA
21085,Harford County,MD,NA,NA,62.447257383966246
21157,Carroll County,MD,NA,NA,16.455696202531644
21163,Howard County,MD,99.1044776119403,NA,NA
21206,Baltimore city,MD,NA,NA,21.09704641350211
21220,Baltimore County,MD,NA,27.85862785862786,NA
21842,Worcester County,MD,NA,NA,36.708860759493675
01002,Hampshire County,MA,31.64179104477612,NA,NA
01027,Hampshire County,MA,74.32835820895522,NA,NA
01040,Hampden County,MA,NA,NA,23.20675105485232
01073,Hampshire County,MA,NA,75.88357588357589,NA
01107,Hampden County,MA,22.686567164179106,NA,NA
01201,Berkshire County,MA,1.1940298507462688,NA,NA
01247,Berkshire County,MA,NA,8.523908523908524,NA
01301,Franklin County,MA,NA,63.20166320166321,NA
01420,Worcester County,MA,NA,2.079002079002079,NA
01450,Middlesex County,MA,NA,NA,72.57383966244726
01463,Middlesex County,MA,NA,82.32848232848234,NA
01569,Worcester County,MA,85.67164179104478,NA,NA
01570,Worcester County,MA,NA,49.48024948024948,NA
01749,Middlesex County,MA,17.313432835820898,NA,NA
01754,Middlesex County,MA,55.223880597014926,NA,NA
01801,Middlesex County,MA,NA,24.532224532224532,NA
01803,Middlesex County,MA,NA,93.55509355509356,NA
01821,Middlesex County,MA,NA,1.6632016632016633,NA
01824,Middlesex County,MA,NA,93.76299376299376,NA
01832,Essex County,MA,NA,64.44906444906445,NA
01863,Middlesex County,MA,NA,51.35135135135135,NA
01867,Middlesex County,MA,22.98507462686567,NA,NA
01887,Middlesex County,MA,6.26865671641791,NA,NA
01905,Essex County,MA,1.791044776119403,NA,NA
01906,Essex County,MA,2.9850746268656714,NA,NA
01907,Essex County,MA,NA,58.62785862785863,NA
01944,Essex County,MA,NA,NA,83.12236286919831
01945,Essex County,MA,NA,NA,25.31645569620253
01949,Essex County,MA,NA,56.34095634095634,NA
01960,Essex County,MA,29.55223880597015,NA,4.641350210970464
01966,Essex County,MA,NA,77.54677754677755,NA
02021,Norfolk County,MA,NA,NA,9.282700421940929
02043,Plymouth County,MA,NA,NA,61.60337552742617
02045,Plymouth County,MA,NA,98.54469854469855,NA
02135,Suffolk County,MA,NA,70.06237006237006,NA
02144,Middlesex County,MA,NA,9.97920997920998,NA
02148,Middlesex County,MA,5.074626865671641,3.9501039501039505,NA
02150,Suffolk County,MA,NA,0.6237006237006237,NA
02176,Middlesex County,MA,NA,5.8212058212058215,NA
02301,Plymouth County,MA,17.611940298507463,NA,94.09282700421942
02478,Middlesex County,MA,NA,65.48856548856548,NA
02493,Middlesex County,MA,NA,NA,44.72573839662447
02760,Bristol County,MA,31.343283582089555,NA,NA
02766,Bristol County,MA,NA,8.316008316008316,NA
02790,Bristol County,MA,NA,76.50727650727652,NA
48035,Macomb County,MI,10.44776119402985,NA,NA
48103,Washtenaw County,MI,NA,1.2474012474012475,NA
48111,Wayne County,MI,NA,45.11434511434512,NA
48116,Livingston County,MI,23.283582089552237,NA,10.548523206751055
48135,Wayne County,MI,NA,76.0914760914761,NA
48146,Wayne County,MI,26.56716417910448,NA,NA
48164,Wayne County,MI,81.19402985074626,NA,NA
48176,Washtenaw County,MI,NA,50.935550935550935,NA
48185,Wayne County,MI,5.970149253731343,NA,NA
48195,Wayne County,MI,19.701492537313435,NA,NA
48197,Washtenaw County,MI,2.6865671641791042,NA,NA
48235,Wayne County,MI,NA,NA,54.43037974683544
48238,Wayne County,MI,4.776119402985075,NA,NA
48239,Wayne County,MI,NA,9.147609147609149,NA
48240,Wayne County,MI,NA,47.19334719334719,NA
48301,Oakland County,MI,NA,NA,35.86497890295359
48315,Macomb County,MI,NA,17.671517671517673,NA
48324,Oakland County,MI,NA,72.76507276507277,NA
48415,Saginaw County,MI,NA,53.43035343035343,NA
48451,Genesee County,MI,NA,95.63409563409564,NA
48455,Lapeer County,MI,NA,83.16008316008316,NA
48507,Genesee County,MI,NA,57.58835758835759,NA
48642,Midland County,MI,57.01492537313433,NA,NA
48656,Roscommon County,MI,NA,76.71517671517671,NA
48706,Bay County,MI,NA,1.4553014553014554,NA
48708,Bay County,MI,NA,31.80873180873181,NA
48730,Iosco County,MI,NA,NA,76.37130801687763
48750,Iosco County,MI,NA,NA,52.320675105485236
48808,Clinton County,MI,89.25373134328358,NA,NA
48838,Montcalm County,MI,25.671641791044774,NA,NA
49002,Kalamazoo County,MI,NA,27.650727650727653,NA
49007,Kalamazoo County,MI,NA,72.97297297297297,NA
49010,Allegan County,MI,61.49253731343284,38.25363825363826,NA
49014,Calhoun County,MI,66.56716417910448,NA,NA
49024,Kalamazoo County,MI,NA,47.81704781704782,NA
49053,Kalamazoo County,MI,NA,NA,83.54430379746836
49080,Allegan County,MI,NA,35.75883575883576,NA
49098,Berrien County,MI,NA,88.56548856548856,NA
49107,Berrien County,MI,NA,96.04989604989605,NA
49221,Lenawee County,MI,4.179104477611941,NA,NA
49345,Kent County,MI,59.40298507462687,NA,NA
49346,Mecosta County,MI,88.95522388059702,NA,NA
49349,Newaygo County,MI,NA,NA,87.34177215189874
49412,Newaygo County,MI,NA,47.60914760914761,NA
49423,Ottawa County,MI,11.940298507462686,NA,NA
49441,Muskegon County,MI,33.134328358208954,NA,NA
49442,Muskegon County,MI,NA,4.365904365904366,NA
49444,Muskegon County,MI,NA,NA,85.23206751054853
49507,Kent County,MI,20.298507462686565,NA,NA
49740,Emmet County,MI,NA,52.18295218295218,NA
49746,Montmorency County,MI,NA,NA,83.96624472573839
49770,Emmet County,MI,NA,NA,89.45147679324894
49849,Marquette County,MI,NA,88.14968814968816,NA
49854,Schoolcraft County,MI,72.83582089552239,NA,NA
49938,Gogebic County,MI,NA,41.37214137214137,NA
55063,Pine County,MN,NA,79.002079002079,NA
55109,Ramsey County,MN,NA,25.987525987525988,NA
55113,Ramsey County,MN,NA,NA,18.143459915611814
55352,Scott County,MN,NA,79.83367983367984,NA
55371,Mille Lacs County,MN,NA,61.95426195426196,NA
55406,Hennepin County,MN,NA,24.94802494802495,NA
55407,Hennepin County,MN,NA,5.197505197505198,NA
55912,Mower County,MN,NA,NA,0.8438818565400843
55927,Dodge County,MN,NA,100,NA
56031,Martin County,MN,NA,NA,10.970464135021098
56379,Benton County,MN,NA,94.8024948024948,NA
56537,Otter Tail County,MN,NA,NA,2.109704641350211
56573,Otter Tail County,MN,75.82089552238806,NA,NA
38652,Union County,MS,83.5820895522388,NA,NA
38655,Lafayette County,MS,58.2089552238806,NA,NA
38703,Washington County,MS,NA,69.64656964656965,NA
39180,Warren County,MS,36.11940298507463,NA,NA
39213,Hinds County,MS,NA,87.52598752598753,NA
39350,Neshoba County,MS,NA,27.234927234927238,NA
39503,Harrison County,MS,11.044776119402986,NA,NA
39525,Hancock County,MS,NA,NA,57.80590717299579
63021,St. Louis County,MO,35.82089552238806,NA,NA
63033,St. Louis County,MO,NA,12.474012474012476,NA
63049,Jefferson County,MO,NA,87.31808731808732,NA
63109,St. Louis city,MO,NA,35.550935550935556,NA
63130,St. Louis County,MO,42.98507462686567,NA,NA
63135,St. Louis County,MO,NA,27.442827442827443,NA
63301,St. Charles County,MO,NA,3.7422037422037424,NA
63343,Lincoln County,MO,92.83582089552239,NA,NA
63376,St. Charles County,MO,NA,NA,54.008438818565395
63640,St. Francois County,MO,NA,30.97713097713098,NA
64050,Jackson County,MO,NA,15.384615384615385,NA
64068,Clay County,MO,NA,29.93762993762994,NA
64113,Jackson County,MO,55.82089552238806,NA,NA
64118,Clay County,MO,NA,6.652806652806653,NA
64127,Jackson County,MO,NA,31.185031185031185,NA
64134,Jackson County,MO,NA,NA,74.26160337552743
64506,Buchanan County,MO,NA,NA,1.6877637130801686
64601,Livingston County,MO,NA,95.84199584199584,NA
64701,Cass County,MO,61.19402985074627,NA,NA
64730,Bates County,MO,NA,59.87525987525988,NA
64801,Jasper County,MO,12.238805970149254,NA,NA
65202,Boone County,MO,NA,NA,14.345991561181433
65251,Callaway County,MO,NA,NA,67.51054852320675
65301,Pettis County,MO,4.477611940298507,NA,NA
65355,Benton County,MO,86.86567164179104,NA,NA
65583,Pulaski County,MO,NA,NA,82.27848101265823
65622,Dallas County,MO,NA,NA,48.10126582278481
65708,Barry County,MO,79.1044776119403,NA,NA
65785,Cedar County,MO,NA,NA,53.58649789029536
59301,Custer County,MT,97.61194029850746,NA,NA
59602,Lewis and Clark County,MT,73.13432835820896,28.274428274428274,NA
59711,Deer Lodge County,MT,NA,56.13305613305614,NA
59718,Gallatin County,MT,28.955223880597014,NA,NA
59875,Ravalli County,MT,NA,94.17879417879418,NA
68008,Washington County,NE,97.31343283582089,NA,NA
68025,Dodge County,NE,28.35820895522388,NA,NA
68048,Cass County,NE,96.71641791044776,NA,NA
68107,Douglas County,NE,42.38805970149254,NA,NA
68135,Douglas County,NE,93.13432835820895,NA,NA
68521,Lancaster County,NE,49.55223880597015,NA,NA
68524,Lancaster County,NE,96.41791044776119,NA,NA
69337,Dawes County,NE,NA,NA,73.83966244725738
69361,Scotts Bluff County,NE,NA,51.975051975051976,NA
89108,Clark County,NV,NA,NA,29.11392405063291
89123,Clark County,NV,NA,NA,41.77215189873418
89139,Clark County,NV,NA,67.77546777546777,NA
89147,Clark County,NV,NA,41.58004158004158,NA
89403,Lyon County,NV,30.74626865671642,NA,NA
89406,Churchill County,NV,NA,55.71725571725572,NA
89410,Douglas County,NV,NA,NA,60.75949367088608
89436,Washoe County,NV,46.56716417910447,NA,NA
03038,Rockingham County,NH,NA,NA,19.40928270042194
03053,Rockingham County,NH,22.388059701492537,NA,NA
03229,Merrimack County,NH,NA,97.71309771309772,NA
03276,Merrimack County,NH,NA,NA,93.67088607594937
03874,Rockingham County,NH,NA,91.68399168399168,NA
07011,Passaic County,NJ,NA,82.74428274428274,NA
07017,Essex County,NJ,NA,14.137214137214137,NA
07047,Hudson County,NJ,94.02985074626866,NA,NA
07055,Passaic County,NJ,NA,NA,24.050632911392405
07076,Union County,NJ,NA,NA,67.9324894514768
07202,Union County,NJ,NA,49.8960498960499,NA
07410,Bergen County,NJ,NA,22.66112266112266,NA
07419,Sussex County,NJ,NA,78.37837837837837,NA
07719,Monmouth County,NJ,NA,NA,66.66666666666666
07726,Monmouth County,NJ,NA,23.284823284823286,NA
07747,Monmouth County,NJ,26.865671641791046,NA,NA
07751,Monmouth County,NJ,NA,86.9022869022869,NA
07901,Union County,NJ,91.34328358208955,NA,NA
08050,Ocean County,NJ,NA,NA,20.253164556962027
08091,Camden County,NJ,77.01492537313432,NA,NA
08104,Camden County,NJ,0.8955223880597015,NA,NA
08234,Atlantic County,NJ,NA,12.266112266112266,NA
08512,Mercer County,NJ,NA,99.7920997920998,NA
08618,Mercer County,NJ,0.5970149253731344,NA,NA
08816,Middlesex County,NJ,28.059701492537314,NA,NA
87111,Bernalillo County,NM,3.582089552238806,NA,NA
87144,Sandoval County,NM,57.91044776119403,NA,NA
87313,McKinley County,NM,65.67164179104478,NA,NA
87420,San Juan County,NM,NA,78.79417879417879,NA
88101,Curry County,NM,9.55223880597015,NA,NA
88201,Chaves County,NM,27.46268656716418,NA,NA
88240,Lea County,NM,21.492537313432834,NA,NA
88242,Lea County,NM,64.17910447761194,NA,NA
10023,New York County,NY,NA,NA,22.362869198312236
10035,New York County,NY,NA,7.0686070686070686,NA
10453,Bronx County,NY,0.2985074626865672,NA,NA
10469,Bronx County,NY,NA,NA,5.9071729957805905
10701,Westchester County,NY,NA,4.158004158004158,NA
10960,Rockland County,NY,74.92537313432835,NA,NA
11237,Kings County,NY,NA,69.02286902286903,NA
11420,Queens County,NY,NA,73.38877338877339,NA
11579,Nassau County,NY,100,NA,NA
12010,Montgomery County,NY,NA,4.98960498960499,NA
12019,Saratoga County,NY,63.582089552238806,NA,NA
12198,Rensselaer County,NY,NA,75.25987525987526,NA
12413,Greene County,NY,NA,85.86278586278586,NA
12804,Warren County,NY,NA,9.563409563409564,NA
13021,Cayuga County,NY,NA,NA,59.07172995780591
13027,Onondaga County,NY,NA,NA,34.177215189873415
13032,Madison County,NY,NA,88.98128898128898,NA
13135,Oswego County,NY,50.74626865671642,NA,NA
13142,Oswego County,NY,NA,92.0997920997921,NA
13413,Oneida County,NY,NA,55.50935550935551,NA
13460,Chenango County,NY,78.2089552238806,NA,NA
13605,Jefferson County,NY,NA,71.3097713097713,NA
13662,St. Lawrence County,NY,NA,14.345114345114347,NA
13733,Chenango County,NY,56.4179104477612,NA,NA
13815,Chenango County,NY,NA,NA,25.738396624472575
13862,Broome County,NY,58.2089552238806,NA,NA
14086,Erie County,NY,16.716417910447763,NA,NA
14094,Niagara County,NY,2.0895522388059704,2.494802494802495,21.940928270042196
14141,Erie County,NY,NA,NA,90.29535864978902
14206,Erie County,NY,NA,23.7006237006237,NA
14209,Erie County,NY,NA,92.931392931392935,NA
14227,Erie County,NY,NA,66.52806652806653,NA
14420,Monroe County,NY,NA,73.8045738045738,NA
14428,Monroe County,NY,NA,45.53014553014553,NA
14450,Monroe County,NY,NA,1.0395010395010396,NA
14456,Ontario County,NY,NA,90.02079002079002,NA
14469,Ontario County,NY,NA,72.34927234927235,NA
14505,Wayne County,NY,50.14925373134328,61.33056133056133,NA
14513,Wayne County,NY,NA,20.582120582120584,NA
14527,Yates County,NY,21.791044776119403,NA,NA
14534,Monroe County,NY,NA,1.8711018711018712,NA
14559,Monroe County,NY,NA,46.77754677754678,NA
14580,Monroe County,NY,NA,NA,3.375527426160337
14612,Monroe County,NY,NA,13.305613305613306,NA
14617,Monroe County,NY,NA,23.076923076923077,NA
14618,Monroe County,NY,NA,54.67775467775468,NA
14619,Monroe County,NY,NA,34.303534303534306,NA
14624,Monroe County,NY,59.70149253731343,NA,NA
14626,Monroe County,NY,3.2835820895522385,NA,NA
14701,Chautauqua County,NY,NA,2.2869022869022873,NA
14760,Cattaraugus County,NY,9.850746268656717,NA,NA
14850,Tompkins County,NY,20,NA,54.85232067510548
27045,Forsyth County,NC,NA,NA,51.47679324894515
27104,Forsyth County,NC,NA,5.405405405405405,5.063291139240507
27295,Davidson County,NC,NA,3.3264033264033266,4.219409282700422
27306,Montgomery County,NC,81.7910447761194,NA,NA
27312,Chatham County,NC,NA,NA,13.924050632911392
27330,Lee County,NC,NA,NA,55.69620253164557
27410,Guilford County,NC,NA,NA,8.016877637130802
27529,Wake County,NC,NA,43.03534303534304,NA
27540,Wake County,NC,38.50746268656716,NA,NA
27549,Franklin County,NC,NA,85.03118503118503,NA
27565,Granville County,NC,NA,16.632016632016633,NA
27576,Johnston County,NC,47.16417910447761,NA,NA
28081,Cabarrus County,NC,NA,67.56756756756756,NA
28164,Gaston County,NC,NA,64.03326403326403,NA
28216,Mecklenburg County,NC,NA,NA,20.675105485232066
28227,Mecklenburg County,NC,NA,43.45114345114345,NA
28328,Sampson County,NC,NA,19.334719334719335,NA
28383,Robeson County,NC,68.95522388059702,NA,NA
28546,Onslow County,NC,NA,67.15176715176715,NA
28645,Caldwell County,NC,NA,NA,2.9535864978902953
28678,Alexander County,NC,91.64179104477613,NA,NA
28751,Haywood County,NC,NA,80.45738045738045,NA
28752,McDowell County,NC,14.328358208955224,NA,NA
28804,Buncombe County,NC,NA,NA,56.118143459915615
58103,Cass County,ND,NA,NA,2.5316455696202533
58503,Burleigh County,ND,NA,83.36798336798337,NA
58504,Burleigh County,ND,NA,95.21829521829522,NA
58801,Williams County,ND,NA,NA,41.35021097046413
43068,Franklin County,OH,NA,35.13513513513514,NA
43162,Madison County,OH,82.38805970149254,NA,NA
43204,Franklin County,OH,5.6716417910447765,NA,NA
43235,Franklin County,OH,37.91044776119403,NA,NA
43302,Marion County,OH,24.17910447761194,NA,NA
43410,Sandusky County,OH,NA,41.995841995842,NA
43440,Ottawa County,OH,NA,85.23908523908524,NA
43452,Ottawa County,OH,NA,NA,65.40084388185655
43551,Wood County,OH,NA,NA,12.236286919831224
43821,Muskingum County,OH,NA,83.78378378378379,NA
43845,Coshocton County,OH,51.04477611940299,NA,NA
43907,Harrison County,OH,NA,NA,87.76371308016878
43920,Columbiana County,OH,NA,9.355509355509357,NA
44021,Geauga County,OH,NA,91.26819126819127,NA
44026,Geauga County,OH,NA,43.65904365904366,NA
44044,Lorain County,OH,NA,NA,45.9915611814346
44057,Lake County,OH,NA,NA,38.81856540084388
44070,Cuyahoga County,OH,NA,26.195426195426197,NA
44077,Lake County,OH,71.04477611940298,NA,NA
44095,Lake County,OH,NA,NA,6.751054852320674
44102,Cuyahoga County,OH,0,NA,NA
44105,Cuyahoga County,OH,NA,0,NA
44109,Cuyahoga County,OH,NA,13.513513513513514,NA
44112,Cuyahoga County,OH,NA,24.116424116424117,NA
44129,Cuyahoga County,OH,NA,12.681912681912683,NA
44130,Cuyahoga County,OH,NA,0.4158004158004158,0.42194092827004215
44141,Cuyahoga County,OH,74.02985074626865,NA,NA
44216,Summit County,OH,NA,75.67567567567568,NA
44223,Summit County,OH,85.07462686567165,NA,NA
44236,Summit County,OH,NA,19.542619542619544,NA
44256,Medina County,OH,NA,0.2079002079002079,NA
44301,Summit County,OH,23.88059701492537,NA,NA
44320,Summit County,OH,15.223880597014924,15.800415800415802,NA
44460,Columbiana County,OH,NA,7.0686070686070686,NA
44485,Trumbull County,OH,15.522388059701491,NA,NA
44511,Mahoning County,OH,NA,28.482328482328484,NA
44515,Mahoning County,OH,10.746268656716417,NA,NA
44646,Stark County,OH,8.955223880597014,11.01871101871102,NA
44691,Wayne County,OH,NA,64.24116424116424,NA
44857,Huron County,OH,18.80597014925373,NA,NA
45106,Clermont County,OH,NA,54.469854469854475,NA
45133,Highland County,OH,NA,18.503118503118504,NA
45208,Hamilton County,OH,NA,NA,57.383966244725734
45212,Hamilton County,OH,NA,47.81704781704782,NA
45216,Hamilton County,OH,NA,77.96257796257797,NA
45238,Hamilton County,OH,NA,59.66735966735966,NA
45309,Montgomery County,OH,NA,49.064449064449065,NA
45356,Miami County,OH,NA,37.62993762993763,NA
45631,Gallia County,OH,11.343283582089553,NA,NA
45662,Scioto County,OH,60.895522388059696,NA,NA
45663,Scioto County,OH,NA,NA,78.90295358649789
73008,Oklahoma County,OK,52.83582089552239,NA,NA
73034,Oklahoma County,OK,NA,NA,56.540084388185655
73071,Cleveland County,OK,NA,NA,97.46835443037975
73072,Cleveland County,OK,48.95522388059702,NA,NA
73096,Custer County,OK,NA,66.11226611226611,NA
74129,Tulsa County,OK,45.37313432835821,NA,NA
74361,Mayes County,OK,NA,NA,98.73417721518987
74437,Okmulgee County,OK,71.94029850746269,NA,NA
74523,Pushmataha County,OK,85.97014925373134,NA,NA
97005,Washington County,OR,NA,NA,33.33333333333333
97034,Clackamas County,OR,NA,NA,29.535864978902953
97045,Clackamas County,OR,37.61194029850746,NA,NA
97068,Clackamas County,OR,NA,74.01247401247402,NA
97089,Clackamas County,OR,87.76119402985074,NA,NA
97113,Washington County,OR,NA,NA,59.49367088607595
97222,Clackamas County,OR,NA,28.690228690228693,NA
97355,Linn County,OR,NA,44.07484407484408,NA
97439,Lane County,OR,NA,NA,15.18987341772152
97459,Coos County,OR,NA,NA,95.35864978902954
97470,Douglas County,OR,88.05970149253731,NA,NA
97501,Jackson County,OR,43.582089552238806,NA,NA
97754,Crook County,OR,NA,NA,27.848101265822784
97814,Baker County,OR,NA,92.3076923076923,NA
15003,Beaver County,PA,NA,75.05197505197505,NA
15017,Allegheny County,PA,NA,NA,90.71729957805907
15074,Beaver County,PA,52.23880597014925,NA,NA
15108,Allegheny County,PA,32.23880597014925,NA,NA
15206,Allegheny County,PA,NA,47.4012474012474,NA
15212,Allegheny County,PA,NA,32.84823284823285,NA
15218,Allegheny County,PA,NA,NA,50.63291139240506
15221,Allegheny County,PA,NA,50.72765072765073,NA
15229,Allegheny County,PA,NA,NA,70.042194092827
15236,Allegheny County,PA,NA,26.403326403326403,NA
15237,Allegheny County,PA,NA,20.79002079002079,NA
15401,Fayette County,PA,6.865671641791045,NA,NA
15601,Westmoreland County,PA,3.880597014925373,NA,NA
15650,Westmoreland County,PA,13.73134328358209,NA,NA
15905,Cambria County,PA,77.31343283582089,NA,NA
16232,Clarion County,PA,NA,NA,63.71308016877637
16314,Crawford County,PA,NA,82.53638253638253,NA
16415,Erie County,PA,NA,NA,91.56118143459916
16801,Centre County,PA,NA,NA,11.814345991561181
17003,Lebanon County,PA,NA,NA,71.30801687763713
17044,Mifflin County,PA,NA,6.4449064449064455,NA
17046,Lebanon County,PA,62.98507462686567,NA,NA
17057,Dauphin County,PA,15.82089552238806,NA,NA
17082,Juniata County,PA,NA,95.42619542619542,NA
17257,Cumberland County,PA,NA,21.62162162162162,NA
17315,York County,PA,80.29850746268656,NA,NA
17325,Adams County,PA,NA,26.819126819126822,NA
17349,York County,PA,NA,NA,91.9831223628692
17356,York County,PA,65.3731343283582,NA,NA
17403,York County,PA,NA,3.118503118503119,NA
17408,York County,PA,NA,13.721413721413722,NA
17801,Northumberland County,PA,NA,18.711018711018713,NA
17820,Columbia County,PA,NA,NA,84.38818565400844
17821,Montour County,PA,NA,13.097713097713099,NA
17851,Northumberland County,PA,NA,69.43866943866944,NA
18015,Northampton County,PA,7.761194029850746,NA,NA
18017,Northampton County,PA,NA,71.93347193347194,NA
18020,Northampton County,PA,NA,26.611226611226613,NA
18344,Monroe County,PA,99.40298507462687,NA,NA
18436,Wayne County,PA,45.67164179104478,NA,NA
18508,Lackawanna County,PA,NA,NA,70.88607594936708
18610,Monroe County,PA,68.35820895522387,NA,NA
18612,Luzerne County,PA,NA,67.35966735966737,NA
18655,Luzerne County,PA,NA,94.17879417879418,NA
18951,Bucks County,PA,NA,NA,22.78481012658228
19010,Delaware County,PA,NA,NA,35.44303797468354
19014,Delaware County,PA,34.32835820895522,NA,NA
19015,Delaware County,PA,29.850746268656714,NA,NA
19020,Bucks County,PA,7.164179104477612,NA,NA
19057,Bucks County,PA,NA,57.17255717255717,NA
19073,Delaware County,PA,NA,NA,58.64978902953587
19083,Delaware County,PA,NA,12.058212058212058,NA
19106,Philadelphia County,PA,NA,NA,48.9451476793249
19114,Philadelphia County,PA,42.08955223880597,NA,NA
19115,Philadelphia County,PA,NA,44.28274428274428,NA
19125,Philadelphia County,PA,NA,46.15384615384615,NA
19135,Philadelphia County,PA,NA,32.224532224532226,NA
19144,Philadelphia County,PA,19.402985074626866,NA,NA
19149,Philadelphia County,PA,NA,55.301455301455306,NA
19380,Chester County,PA,NA,NA,86.91983122362869
19565,Berks County,PA,65.97014925373135,NA,NA
19605,Berks County,PA,24.47761194029851,NA,NA
19606,Berks County,PA,NA,4.5738045738045745,NA
19608,Berks County,PA,64.77611940298507,NA,NA
02809,Bristol County,RI,NA,29.10602910602911,NA
02828,Providence County,RI,NA,97.2972972972973,NA
02840,Newport County,RI,34.92537313432836,NA,NA
02861,Providence County,RI,NA,NA,28.270042194092827
02905,Providence County,RI,NA,36.38253638253639,NA
02908,Providence County,RI,60.298507462686565,NA,NA
29212,Lexington County,SC,76.4179104477612,NA,NA
29323,Spartanburg County,SC,NA,80.87318087318087,NA
29349,Spartanburg County,SC,20.597014925373134,NA,NA
29372,Spartanburg County,SC,97.91044776119404,NA,NA
29379,Union County,SC,NA,NA,40.50632911392405
29407,Charleston County,SC,NA,72.97297297297297,NA
29588,Horry County,SC,NA,NA,17.29957805907173
29621,Anderson County,SC,NA,17.04781704781705,NA
29926,Beaufort County,SC,88.35820895522389,NA,NA
57106,Minnehaha County,SD,NA,5.613305613305614,NA
57110,Minnehaha County,SD,44.17910447761194,NA,NA
57301,Davison County,SD,NA,NA,64.55696202531645
57339,Buffalo County,SD,95.22388059701493,NA,NA
57719,Pennington County,SD,NA,70.89397089397089,NA
57783,Lawrence County,SD,80.59701492537313,NA,NA
37110,Warren County,TN,NA,21.413721413721415,NA
37129,Rutherford County,TN,NA,NA,39.66244725738397
37135,Williamson County,TN,NA,85.65488565488566,NA
37174,Williamson County,TN,NA,62.37006237006237,64.9789029535865
37207,Davidson County,TN,NA,NA,45.56962025316456
37216,Davidson County,TN,NA,NA,68.77637130801688
37311,Bradley County,TN,NA,30.353430353430355,NA
37312,Bradley County,TN,NA,80.24948024948026,NA
37397,Marion County,TN,NA,80.87318087318087,NA
37419,Hamilton County,TN,NA,84.61538461538461,NA
37601,Washington County,TN,NA,10.81081081081081,NA
37616,Greene County,TN,NA,81.28898128898129,NA
37617,Sullivan County,TN,NA,NA,66.24472573839662
37763,Roane County,TN,54.02985074626866,NA,NA
37813,Hamblen County,TN,NA,53.01455301455301,NA
37820,Jefferson County,TN,NA,72.55717255717255,NA
37865,Sevier County,TN,32.83582089552239,NA,NA
37932,Knox County,TN,NA,55.92515592515592,NA
38111,Shelby County,TN,18.208955223880597,NA,NA
38343,Gibson County,TN,NA,NA,88.60759493670885
38401,Maury County,TN,NA,46.56964656964657,NA
38462,Lewis County,TN,NA,67.98336798336798,NA
38556,Fentress County,TN,NA,33.88773388773389,NA
38581,Warren County,TN,NA,99.58419958419958,NA
75020,Grayson County,TX,NA,NA,32.06751054852321
75023,Collin County,TX,NA,73.5966735966736,NA
75025,Collin County,TX,NA,45.32224532224532,NA
75048,Dallas County,TX,NA,NA,97.8902953586498
75056,Denton County,TX,NA,58.21205821205822,NA
75090,Grayson County,TX,39.701492537313435,NA,NA
75115,Dallas County,TX,19.1044776119403,NA,NA
75180,Dallas County,TX,NA,58.41995841995842,NA
75211,Dallas County,TX,NA,19.75051975051975,NA
75212,Dallas County,TX,62.38805970149254,NA,NA
75224,Dallas County,TX,NA,NA,77.21518987341773
75455,Titus County,TX,NA,NA,77.63713080168776
75482,Hopkins County,TX,NA,45.73804573804574,NA
75657,Marion County,TX,84.77611940298507,NA,NA
75707,Smith County,TX,NA,NA,94.51476793248945
75708,Smith County,TX,NA,89.6049896049896,NA
75755,Upshur County,TX,94.6268656716418,NA,NA
75801,Anderson County,TX,NA,60.91476091476091,NA
75803,Anderson County,TX,NA,68.81496881496881,NA
75844,Houston County,TX,NA,93.97089397089398,NA
76006,Tarrant County,TX,NA,NA,93.24894514767934
76011,Tarrant County,TX,45.07462686567164,NA,NA
76111,Tarrant County,TX,NA,88.77338877338877,NA
76112,Tarrant County,TX,NA,12.889812889812891,NA
76301,Wichita County,TX,39.1044776119403,NA,NA
76550,Lampasas County,TX,NA,NA,42.19409282700422
76645,Hill County,TX,NA,NA,84.81012658227847
76655,McLennan County,TX,NA,68.1912681912682,NA
76705,McLennan County,TX,87.16417910447761,NA,NA
77004,Harris County,TX,NA,38.04573804573805,NA
77016,Harris County,TX,NA,75.25987525987526,NA
77064,Harris County,TX,NA,34.92723492723493,NA
77066,Harris County,TX,NA,84.1995841995842,NA
77073,Harris County,TX,43.88059701492537,NA,NA
77075,Harris County,TX,41.19402985074627,NA,NA
77090,Harris County,TX,NA,NA,86.49789029535864
77316,Montgomery County,TX,62.089552238805965,51.559251559251564,NA
77382,Montgomery County,TX,51.94029850746269,NA,NA
77386,Montgomery County,TX,54.92537313432836,NA,NA
77429,Harris County,TX,32.537313432835816,NA,NA
77437,Wharton County,TX,NA,NA,36.28691983122363
77459,Fort Bend County,TX,NA,54.88565488565489,NA
77546,Galveston County,TX,NA,10.395010395010395,NA
77551,Galveston County,TX,NA,23.90852390852391,NA
77573,Galveston County,TX,45.67164179104478,NA,NA
77619,Jefferson County,TX,NA,98.33679833679834,NA
77708,Jefferson County,TX,NA,NA,99.57805907172997
77833,Washington County,TX,NA,24.324324324324326,NA
77904,Victoria County,TX,NA,NA,18.9873417721519
78155,Guadalupe County,TX,NA,27.027027027027028,NA
78163,Comal County,TX,NA,87.94178794178794,NA
78209,Bexar County,TX,NA,NA,31.645569620253166
78212,Bexar County,TX,NA,93.13929313929314,NA
78226,Bexar County,TX,84.17910447761194,NA,NA
78240,Bexar County,TX,36.11940298507463,NA,NA
78248,Bexar County,TX,82.08955223880598,NA,NA
78363,Kleberg County,TX,47.462686567164184,NA,NA
78390,San Patricio County,TX,96.11940298507463,NA,NA
78526,Cameron County,TX,NA,52.80665280665281,NA
78537,Hidalgo County,TX,NA,33.056133056133056,NA
78589,Hidalgo County,TX,NA,61.12266112266113,NA
78634,Williamson County,TX,NA,54.26195426195426,NA
78657,Llano County,TX,NA,NA,48.10126582278481
79403,Lubbock County,TX,NA,81.70478170478171,NA
79416,Lubbock County,TX,NA,NA,24.47257383966245
79735,Pecos County,TX,NA,74.84407484407485,NA
79927,El Paso County,TX,71.64179104477611,NA,NA
84014,Davis County,UT,80.8955223880597,NA,NA
84041,Davis County,UT,29.253731343283583,NA,NA
84092,Salt Lake County,UT,NA,38.46153846153847,NA
84093,Salt Lake County,UT,NA,81.91268191268192,NA
84103,Salt Lake County,UT,53.43283582089552,NA,NA
84111,Salt Lake County,UT,NA,NA,75.52742616033755
84119,Salt Lake County,UT,33.43283582089553,NA,NA
84123,Salt Lake County,UT,NA,NA,37.130801687763714
84129,,UT,NA,95.01039501039502,NA
84403,Weber County,UT,NA,53.01455301455301,NA
84765,Washington County,UT,89.55223880597015,NA,NA
84770,Washington County,UT,NA,NA,8.438818565400844
05201,Bennington County,VT,63.88059701492538,NA,NA
05301,Windham County,VT,75.22388059701493,NA,NA
05482,Chittenden County,VT,NA,89.3970893970894,81.43459915611815
05602,Washington County,VT,NA,82.12058212058211,NA
20132,Loudoun County,VA,85.37313432835822,NA,NA
20166,Loudoun County,VA,92.53731343283582,NA,NA
22015,Fairfax County,VA,43.28358208955223,NA,NA
22101,Fairfax County,VA,79.40298507462687,NA,NA
22201,Arlington County,VA,NA,81.4968814968815,NA
22554,Stafford County,VA,81.49253731343283,NA,NA
22572,Richmond County,VA,NA,77.33887733887734,NA
22728,Fauquier County,VA,99.70149253731343,NA,NA
22903,Charlottesville city,VA,NA,18.08731808731809,NA
22963,Fluvanna County,VA,NA,42.20374220374221,NA
22973,Greene County,VA,NA,91.06029106029106,NA
22980,Waynesboro city,VA,NA,NA,18.565400843881857
23061,Gloucester County,VA,NA,33.264033264033266,NA
23114,Chesterfield County,VA,NA,79.41787941787942,NA
23188,James City County,VA,NA,2.9106029106029108,NA
23224,Richmond city,VA,NA,28.06652806652807,NA
23235,Chesterfield County,VA,NA,39.08523908523909,NA
23237,Chesterfield County,VA,NA,84.82328482328482,NA
23325,Chesapeake city,VA,NA,NA,35.0210970464135
23452,Virginia Beach city,VA,NA,7.900207900207901,8.860759493670885
23464,Virginia Beach city,VA,14.626865671641792,NA,NA
23518,Norfolk city,VA,NA,NA,15.611814345991561
23602,Newport News city,VA,NA,24.74012474012474,NA
23606,Newport News city,VA,NA,52.5987525987526,NA
23607,Newport News city,VA,NA,37.42203742203743,NA
23669,Hampton city,VA,NA,NA,10.126582278481013
23692,York County,VA,NA,40.54054054054054,NA
24014,Roanoke city,VA,NA,55.09355509355509,NA
24016,Roanoke city,VA,44.776119402985074,NA,NA
24179,Roanoke County,VA,NA,NA,37.552742616033754
24184,Franklin County,VA,93.73134328358209,NA,NA
24502,Lynchburg city,VA,NA,NA,12.658227848101266
24504,Lynchburg city,VA,73.43283582089552,NA,NA
98021,Snohomish County,WA,NA,66.73596673596674,40.50632911392405
98026,Snohomish County,WA,NA,79.62577962577963,NA
98029,King County,WA,NA,52.18295218295218,NA
98031,King County,WA,NA,14.760914760914762,NA
98032,King County,WA,35.52238805970149,NA,NA
98034,King County,WA,NA,NA,27.42616033755274
98040,King County,WA,NA,NA,80.59071729957806
98042,King County,WA,54.62686567164179,NA,NA
98092,King County,WA,72.53731343283583,NA,NA
98101,King County,WA,56.71641791044776,NA,NA
98103,King County,WA,39.40298507462687,NA,NA
98110,Kitsap County,WA,86.26865671641791,NA,NA
98112,King County,WA,NA,NA,53.16455696202531
98155,King County,WA,38.2089552238806,NA,NA
98201,Snohomish County,WA,NA,39.91683991683992,NA
98223,Snohomish County,WA,NA,17.255717255717258,NA
98250,San Juan County,WA,NA,NA,68.35443037974683
98272,Snohomish County,WA,NA,36.7983367983368,NA
98328,Pierce County,WA,74.6268656716418,NA,NA
98332,Pierce County,WA,78.50746268656717,NA,NA
98362,Clallam County,WA,NA,NA,23.628691983122362
98370,Kitsap County,WA,60,NA,NA
98382,Clallam County,WA,NA,2.7027027027027026,NA
98387,Pierce County,WA,NA,20.374220374220375,NA
98391,Pierce County,WA,37.3134328358209,NA,NA
98403,Pierce County,WA,NA,87.73388773388774,NA
98407,Pierce County,WA,NA,NA,33.755274261603375
98444,Pierce County,WA,NA,54.054054054054056,NA
98499,Pierce County,WA,NA,70.27027027027027,NA
98848,Grant County,WA,NA,96.88149688149689,NA
99114,Stevens County,WA,67.46268656716417,NA,NA
99350,Benton County,WA,NA,77.13097713097713,NA
99362,Walla Walla County,WA,NA,10.602910602910603,NA
20001,District of Columbia,DC,NA,84.40748440748442,NA
20011,District of Columbia,DC,NA,66.32016632016632,6.329113924050633
20020,District of Columbia,DC,NA,28.8981288981289,NA
20032,District of Columbia,DC,NA,NA,61.18143459915611
25177,Kanawha County,WV,33.731343283582085,NA,NA
25306,Kanawha County,WV,NA,NA,79.74683544303798
25309,Kanawha County,WV,55.52238805970149,NA,NA
25404,Berkeley County,WV,NA,34.71933471933472,NA
26250,Barbour County,WV,NA,NA,86.07594936708861
26261,Nicholas County,WV,94.92537313432837,NA,NA
26301,Harrison County,WV,NA,10.187110187110187,NA
26354,Taylor County,WV,NA,65.28066528066529,37.9746835443038
26570,Monongalia County,WV,NA,98.12889812889813,NA
53081,Sheboygan County,WI,NA,48.64864864864865,NA
53095,Washington County,WI,NA,NA,91.13924050632912
53190,Walworth County,WI,NA,50.1039501039501,NA
53202,Milwaukee County,WI,NA,78.17047817047818,NA
53208,Milwaukee County,WI,NA,NA,46.41350210970464
53402,Racine County,WI,NA,NA,1.2658227848101267
53511,Rock County,WI,NA,NA,9.70464135021097
53534,Rock County,WI,NA,70.89397089397089,NA
53719,Dane County,WI,NA,NA,50.63291139240506
54016,St. Croix County,WI,62.68656716417911,86.48648648648648,NA
54151,Marinette County,WI,NA,88.35758835758836,NA
54220,Manitowoc County,WI,NA,32.432432432432435,NA
54601,La Crosse County,WI,NA,0.8316008316008316,NA
54880,Douglas County,WI,NA,3.5343035343035343,NA
54935,Fond du Lac County,WI,14.029850746268657,NA,NA
82007,Laramie County,WY,NA,83.991683991684,NA
82009,Laramie County,WY,NA,NA,42.616033755274266
82240,Goshen County,WY,NA,NA,89.0295358649789
82435,Park County,WY,NA,58.004158004158,NA
82601,Natrona County,WY,NA,97.0893970893971,NA
82701,Weston County,WY,NA,NA,100
82801,Sheridan County,WY,58.805970149253724,NA,NA
82834,Johnson County,WY,NA,80.04158004158003,NA
82901,Sweetwater County,WY,NA,NA,96.20253164556962
