ZipCode,county,state,Adult
85008,Maricopa County,AZ,10.69767441860465
85018,Maricopa County,AZ,28.837209302325583
85029,Maricopa County,AZ,20.46511627906977
85139,Pinal County,AZ,47.906976744186046
85331,Maricopa County,AZ,51.162790697674424
85653,Pima County,AZ,32.093023255813954
85711,Pima County,AZ,58.139534883720934
85713,Pima County,AZ,5.116279069767442
91786,San Bernardino County,CA,87.90697674418605
91789,Los Angeles County,CA,92.09302325581396
91942,San Diego County,CA,56.74418604651162
92881,Riverside County,CA,88.83720930232558
94303,San Mateo County,CA,24.186046511627907
95350,Stanislaus County,CA,60.93023255813953
95603,Placer County,CA,60
95667,El Dorado County,CA,57.674418604651166
95678,Placer County,CA,89.76744186046511
06001,Hartford County,CT,93.95348837209302
06820,Fairfield County,CT,66.04651162790698
32008,Suwannee County,FL,90.23255813953487
32038,Columbia County,FL,70.23255813953489
32539,Okaloosa County,FL,33.48837209302326
33040,Monroe County,FL,37.67441860465116
33065,Broward County,FL,41.3953488372093
33180,Miami-Dade County,FL,72.55813953488372
33326,Broward County,FL,71.62790697674419
33410,Palm Beach County,FL,70.69767441860465
33525,Pasco County,FL,61.86046511627907
33612,Hillsborough County,FL,8.837209302325581
33905,Lee County,FL,31.16279069767442
34488,Marion County,FL,63.72093023255814
34736,Lake County,FL,84.18604651162791
30106,Cobb County,GA,80.93023255813954
30253,Henry County,GA,23.25581395348837
30286,Upson County,GA,45.58139534883721
30461,Bulloch County,GA,67.44186046511628
30601,Clarke County,GA,81.86046511627907
83204,Bannock County,ID,46.97674418604651
83704,Ada County,ID,14.418604651162791
60402,Cook County,IL,76.27906976744187
60538,Kendall County,IL,53.02325581395348
60643,Cook County,IL,6.511627906976744
60901,Kankakee County,IL,13.953488372093023
61832,Vermilion County,IL,7.441860465116279
62040,Madison County,IL,17.209302325581397
46241,Marion County,IN,72.09302325581395
46816,Allen County,IN,94.41860465116278
47126,Clark County,IN,97.20930232558139
52001,Dubuque County,IA,13.023255813953488
52732,Clinton County,IA,18.6046511627907
66062,Johnson County,KS,7.906976744186046
66104,Wyandotte County,KS,24.651162790697676
40047,Bullitt County,KY,26.046511627906977
41102,Boyd County,KY,62.7906976744186
42086,McCracken County,KY,90.69767441860465
42345,Muhlenberg County,KY,50.23255813953489
70114,Orleans Parish,LA,31.627906976744185
70517,St. Martin Parish,LA,36.27906976744186
70543,Acadia Parish,LA,98.6046511627907
71118,Caddo Parish,LA,73.48837209302326
04106,Cumberland County,ME,59.53488372093023
04412,Penobscot County,ME,57.20930232558139
21403,Anne Arundel County,MD,55.81395348837209
01082,Hampshire County,MA,20.930232558139537
01105,Hampden County,MA,14.883720930232558
01534,Worcester County,MA,64.18604651162791
01801,Middlesex County,MA,6.976744186046512
01843,Essex County,MA,28.37209302325581
02128,Suffolk County,MA,16.27906976744186
02132,Suffolk County,MA,34.418604651162795
02151,Suffolk County,MA,1.3953488372093024
02184,Norfolk County,MA,3.7209302325581395
02466,Middlesex County,MA,79.06976744186046
02601,Barnstable County,MA,19.069767441860467
48045,Macomb County,MI,95.81395348837209
48150,Wayne County,MI,78.13953488372093
48154,Wayne County,MI,52.093023255813954
48182,Monroe County,MI,54.418604651162795
48422,Sanilac County,MI,84.65116279069768
48732,Bay County,MI,73.0232558139535
48801,Gratiot County,MI,85.11627906976744
48911,Ingham County,MI,4.186046511627907
49006,Kalamazoo County,MI,44.18604651162791
49013,Van Buren County,MI,91.16279069767442
49048,Kalamazoo County,MI,69.76744186046511
49341,Kent County,MI,54.88372093023256
49420,Oceana County,MI,63.25581395348837
49503,Kent County,MI,8.372093023255815
49651,Missaukee County,MI,78.6046511627907
49720,Charlevoix County,MI,75.81395348837209
55009,Goodhue County,MN,62.32558139534884
55317,Carver County,MN,100
55408,Hennepin County,MN,9.30232558139535
56007,Freeborn County,MN,38.604651162790695
56073,Brown County,MN,50.697674418604656
39059,Copiah County,MS,93.02325581395348
39110,Madison County,MS,33.02325581395349
39520,Hancock County,MS,26.51162790697674
63106,St. Louis city,MO,92.55813953488372
63108,St. Louis city,MO,45.11627906976744
63303,St. Charles County,MO,20
63366,St. Charles County,MO,82.32558139534883
63368,St. Charles County,MO,83.25581395348837
63390,Warren County,MO,64.65116279069767
64093,Johnson County,MO,29.30232558139535
64114,Jackson County,MO,30.23255813953488
64134,Jackson County,MO,35.81395348837209
59701,Silver Bow County,MT,55.81395348837209
68117,Douglas County,NE,85.5813953488372
89410,Douglas County,NV,89.30232558139535
07002,Hudson County,NJ,0.9302325581395349
07305,Hudson County,NJ,3.255813953488372
07481,Bergen County,NJ,82.7906976744186
07950,Morris County,NJ,86.04651162790698
08033,Camden County,NJ,80
08057,Burlington County,NJ,53.48837209302325
08205,Atlantic County,NJ,40.93023255813954
08501,Monmouth County,NJ,97.67441860465115
87105,Bernalillo County,NM,2.7906976744186047
87106,Bernalillo County,NM,47.44186046511628
87571,Taos County,NM,94.88372093023256
10002,New York County,NY,74.88372093023256
10029,New York County,NY,0.46511627906976744
10302,Richmond County,NY,66.51162790697674
10472,Bronx County,NY,1.8604651162790697
10941,Orange County,NY,65.58139534883722
11230,Kings County,NY,68.37209302325581
11413,Queens County,NY,41.86046511627907
11691,Queens County,NY,5.5813953488372094
11792,Suffolk County,NY,93.48837209302326
11801,Nassau County,NY,74.4186046511628
12180,Rensselaer County,NY,2.3255813953488373
12804,Warren County,NY,65.11627906976744
12953,Franklin County,NY,42.7906976744186
13104,Onondaga County,NY,46.51162790697674
13357,Herkimer County,NY,29.767441860465116
13850,Broome County,NY,13.488372093023257
14432,Ontario County,NY,30.697674418604652
14470,Orleans County,NY,39.06976744186046
14533,Livingston County,NY,95.34883720930233
14612,Monroe County,NY,12.093023255813954
27292,Davidson County,NC,49.30232558139535
27406,Guilford County,NC,18.13953488372093
28303,Cumberland County,NC,49.76744186046512
28339,Harnett County,NC,77.67441860465117
58078,Cass County,ND,21.86046511627907
58104,Cass County,ND,26.976744186046513
43055,Licking County,OH,9.767441860465116
44022,Cuyahoga County,OH,91.62790697674419
44102,Cuyahoga County,OH,0
45069,Butler County,OH,19.53488372093023
45133,Highland County,OH,17.674418604651162
45223,Hamilton County,OH,36.74418604651163
45244,Hamilton County,OH,46.04651162790698
45331,Darke County,OH,22.325581395348838
45640,Jackson County,OH,4.651162790697675
74955,Sequoyah County,OK,75.34883720930232
97206,Multnomah County,OR,11.162790697674419
97223,Washington County,OR,25.116279069767444
97233,Multnomah County,OR,40
97266,Multnomah County,OR,27.44186046511628
97402,Lane County,OR,16.74418604651163
97501,Jackson County,OR,27.906976744186046
15205,Allegheny County,PA,40.46511627906977
16023,Butler County,PA,96.74418604651163
16142,Lawrence County,PA,99.06976744186046
16602,Blair County,PA,10.232558139534884
17044,Mifflin County,PA,34.883720930232556
18603,Columbia County,PA,11.627906976744185
18976,Bucks County,PA,44.651162790697676
19050,Delaware County,PA,25.581395348837212
19103,Philadelphia County,PA,38.139534883720934
19124,Philadelphia County,PA,6.046511627906977
19140,Philadelphia County,PA,67.90697674418604
19462,Montgomery County,PA,39.53488372093023
19464,Montgomery County,PA,37.2093023255814
02818,Kent County,RI,59.06976744186046
02889,Kent County,RI,21.3953488372093
29223,Richland County,SC,51.627906976744185
29627,Anderson County,SC,52.55813953488372
37211,Davidson County,TN,15.348837209302326
75044,Dallas County,TX,48.372093023255815
75081,Dallas County,TX,61.395348837209305
77084,Harris County,TX,76.74418604651163
77098,Harris County,TX,99.53488372093024
77362,Montgomery County,TX,86.9767441860465
77378,Montgomery County,TX,71.16279069767441
77382,Montgomery County,TX,96.27906976744185
77586,Harris County,TX,42.32558139534884
77833,Washington County,TX,66.97674418604652
77957,Jackson County,TX,98.13953488372093
78573,Hidalgo County,TX,48.837209302325576
78730,Travis County,TX,86.51162790697674
79109,Randall County,TX,32.55813953488372
79415,Lubbock County,TX,58.6046511627907
84107,Salt Lake County,UT,33.95348837209302
84111,Salt Lake County,UT,83.72093023255815
24014,Roanoke city,VA,60.46511627906976
24018,Roanoke County,VA,68.83720930232559
24148,Henry County,VA,77.20930232558139
98020,Snohomish County,WA,88.37209302325581
98112,King County,WA,73.95348837209302
98144,King County,WA,55.348837209302324
98290,Snohomish County,WA,35.348837209302324
98902,Yakima County,WA,23.72093023255814
99202,Spokane County,WA,53.95348837209303
99207,Spokane County,WA,81.3953488372093
20003,District of Columbia,DC,43.72093023255814
53104,Kenosha County,WI,69.30232558139535
53213,Milwaukee County,WI,43.25581395348837
54143,Marinette County,WI,87.44186046511628
54154,Oconto County,WI,79.53488372093022
54481,Portage County,WI,15.813953488372093
54880,Douglas County,WI,12.558139534883722
54956,Winnebago County,WI,22.790697674418606
54983,Waupaca County,WI,80.46511627906978
