ZipCode,county,state,Adult,Retirement,Geriatric
35020,Jefferson County,AL,NA,NA,32.20338983050847
35031,Blount County,AL,78.24561403508771,NA,NA
35044,Talladega County,AL,89.47368421052632,NA,95.48022598870057
35068,Jefferson County,AL,92.63157894736842,NA,NA
35072,Coosa County,AL,NA,81.23393316195373,NA
35150,Talladega County,AL,85.6140350877193,NA,NA
35204,Jefferson County,AL,NA,NA,61.016949152542374
35462,Greene County,AL,NA,95.88688946015425,NA
99603,Kenai Peninsula Borough,AK,NA,NA,70.90395480225989
85021,Maricopa County,AZ,NA,34.96143958868895,NA
85022,Maricopa County,AZ,NA,NA,44.632768361581924
85032,Maricopa County,AZ,NA,26.221079691516707,43.22033898305085
85204,Maricopa County,AZ,17.543859649122805,NA,NA
85251,Maricopa County,AZ,NA,55.26992287917738,NA
85308,Maricopa County,AZ,NA,NA,29.66101694915254
85345,Maricopa County,AZ,NA,11.825192802056556,NA
85364,Yuma County,AZ,NA,23.39331619537275,NA
85375,Maricopa County,AZ,NA,NA,0.5649717514124294
85603,Cochise County,AZ,NA,76.60668380462725,NA
85629,Pima County,AZ,NA,NA,94.91525423728814
85635,Cochise County,AZ,NA,91.51670951156812,NA
85658,Pima County,AZ,81.05263157894737,NA,NA
85701,Pima County,AZ,NA,81.49100257069408,NA
85712,Pima County,AZ,26.666666666666668,NA,NA
85741,Pima County,AZ,NA,47.81491002570694,NA
85742,Pima County,AZ,NA,80.46272493573264,NA
86314,Yavapai County,AZ,21.052631578947366,NA,NA
86442,Mohave County,AZ,NA,10.796915167095115,NA
86505,Apache County,AZ,87.71929824561403,NA,NA
71753,Columbia County,AR,NA,69.9228791773779,NA
71953,Polk County,AR,NA,NA,30.7909604519774
72032,Faulkner County,AR,46.666666666666664,NA,NA
72450,Greene County,AR,NA,25.19280205655527,NA
72736,Benton County,AR,NA,NA,94.35028248587571
90004,Los Angeles County,CA,NA,38.56041131105398,NA
90011,Los Angeles County,CA,29.82456140350877,NA,NA
90039,Los Angeles County,CA,NA,79.17737789203085,NA
90049,Los Angeles County,CA,NA,NA,18.07909604519774
90242,Los Angeles County,CA,NA,NA,75.98870056497175
90270,Los Angeles County,CA,87.01754385964912,NA,NA
90292,Los Angeles County,CA,77.54385964912281,NA,NA
90620,Orange County,CA,NA,36.246786632390744,NA
90631,Orange County,CA,NA,NA,18.64406779661017
90703,Los Angeles County,CA,67.36842105263158,NA,NA
90805,Los Angeles County,CA,NA,NA,47.740112994350284
91030,Los Angeles County,CA,NA,94.34447300771208,NA
91040,Los Angeles County,CA,NA,68.38046272493573,70.05649717514125
91205,Los Angeles County,CA,75.43859649122807,NA,NA
91311,Los Angeles County,CA,NA,NA,53.38983050847458
91316,Los Angeles County,CA,NA,56.29820051413882,NA
91324,Los Angeles County,CA,NA,NA,78.53107344632768
91326,Los Angeles County,CA,NA,NA,37.005649717514125
91367,Los Angeles County,CA,NA,NA,16.666666666666664
91405,Los Angeles County,CA,51.92982456140351,NA,NA
91605,Los Angeles County,CA,NA,50.38560411311054,NA
91913,San Diego County,CA,91.9298245614035,NA,NA
92122,San Diego County,CA,NA,NA,47.175141242937855
92211,Riverside County,CA,NA,NA,0
92227,Imperial County,CA,NA,NA,39.26553672316384
92231,Imperial County,CA,40.35087719298245,NA,NA
92392,San Bernardino County,CA,23.50877192982456,NA,NA
92395,San Bernardino County,CA,NA,45.75835475578406,NA
92399,San Bernardino County,CA,37.54385964912281,NA,NA
92404,San Bernardino County,CA,21.403508771929825,NA,NA
92553,Riverside County,CA,32.98245614035088,NA,NA
92704,Orange County,CA,NA,NA,35.59322033898305
92801,Orange County,CA,42.10526315789473,NA,NA
92804,Orange County,CA,16.842105263157894,NA,NA
93003,Ventura County,CA,19.298245614035086,NA,NA
93010,Ventura County,CA,72.28070175438597,NA,NA
93065,Ventura County,CA,18.596491228070175,NA,NA
93240,Kern County,CA,NA,NA,98.0225988700565
93285,Kern County,CA,100,97.17223650385604,NA
93307,Kern County,CA,16.140350877192983,NA,NA
93422,San Luis Obispo County,CA,NA,48.84318766066838,NA
93458,Santa Barbara County,CA,NA,30.848329048843187,NA
93555,Kern County,CA,30.526315789473685,NA,29.943502824858758
93619,Fresno County,CA,NA,NA,51.12994350282486
93727,Fresno County,CA,17.894736842105264,NA,NA
93906,Monterey County,CA,NA,45.24421593830334,NA
93933,Monterey County,CA,NA,48.329048843187664,NA
94102,San Francisco County,CA,NA,8.483290488431876,NA
94114,San Francisco County,CA,NA,82.77634961439588,NA
94118,San Francisco County,CA,62.807017543859644,NA,NA
94123,San Francisco County,CA,NA,95.37275064267352,NA
94133,San Francisco County,CA,NA,NA,23.44632768361582
94565,Contra Costa County,CA,NA,9.511568123393316,NA
94602,Alameda County,CA,NA,63.239074550128535,NA
94702,Alameda County,CA,NA,NA,68.07909604519774
95023,San Benito County,CA,NA,NA,40.67796610169492
95060,Santa Cruz County,CA,NA,52.44215938303341,NA
95066,Santa Cruz County,CA,NA,NA,85.02824858757062
95125,Santa Clara County,CA,NA,NA,22.033898305084744
95126,Santa Clara County,CA,71.2280701754386,NA,62.994350282485875
95135,Santa Clara County,CA,NA,NA,46.89265536723164
95148,Santa Clara County,CA,NA,43.958868894601544,NA
95204,San Joaquin County,CA,62.4561403508772,NA,NA
95205,San Joaquin County,CA,NA,55.78406169665809,NA
95206,San Joaquin County,CA,NA,26.735218508997427,NA
95356,Stanislaus County,CA,NA,45.24421593830334,NA
95370,Tuolumne County,CA,32.280701754385966,4.627249357326478,NA
95422,Lake County,CA,65.6140350877193,NA,NA
95437,Mendocino County,CA,NA,41.90231362467866,NA
95492,Sonoma County,CA,69.82456140350877,NA,NA
95602,Placer County,CA,NA,53.213367609254504,NA
95630,Sacramento County,CA,NA,87.66066838046272,NA
95661,Placer County,CA,NA,92.80205655526991,95.76271186440678
95667,El Dorado County,CA,NA,66.58097686375322,NA
95747,Placer County,CA,NA,NA,9.322033898305085
95776,Yolo County,CA,88.42105263157895,NA,NA
95816,Sacramento County,CA,82.45614035087719,NA,NA
95831,Sacramento County,CA,NA,NA,83.61581920903954
80010,Arapahoe County,CO,NA,NA,61.5819209039548
80015,Arapahoe County,CO,NA,21.85089974293059,NA
80227,Jefferson County,CO,NA,89.97429305912597,NA
80525,Larimer County,CO,NA,11.053984575835475,NA
80631,Weld County,CO,10.175438596491228,NA,NA
80723,Morgan County,CO,79.64912280701755,NA,NA
80751,Logan County,CO,NA,NA,65.81920903954803
80907,El Paso County,CO,NA,NA,78.8135593220339
80915,El Paso County,CO,NA,77.37789203084833,NA
80916,El Paso County,CO,NA,NA,96.32768361581921
81211,Chaffee County,CO,NA,NA,85.87570621468926
06513,New Haven County,CT,5.263157894736842,NA,NA
06516,New Haven County,CT,36.140350877192986,NA,NA
06519,New Haven County,CT,28.771929824561404,NA,NA
06706,New Haven County,CT,64.91228070175438,NA,NA
06770,New Haven County,CT,NA,25.449871465295633,NA
06851,Fairfield County,CT,NA,NA,24.01129943502825
06854,Fairfield County,CT,NA,73.7789203084833,NA
19801,New Castle County,DE,45.614035087719294,NA,NA
19805,New Castle County,DE,NA,NA,24.576271186440678
19808,New Castle County,DE,NA,NA,7.909604519774012
19977,Kent County,DE,27.719298245614034,NA,NA
32011,Nassau County,FL,NA,NA,49.717514124293785
32060,Suwannee County,FL,57.54385964912281,NA,NA
32073,Clay County,FL,NA,NA,18.361581920903955
32097,Nassau County,FL,NA,NA,79.37853107344633
32141,Volusia County,FL,NA,NA,38.13559322033898
32209,Duval County,FL,NA,14.652956298200515,NA
32218,Duval County,FL,NA,NA,19.491525423728813
32317,Leon County,FL,96.14035087719299,NA,NA
32327,Wakulla County,FL,NA,NA,77.68361581920904
32425,Holmes County,FL,59.64912280701754,59.89717223650386,NA
32435,Walton County,FL,NA,73.26478149100257,NA
32456,Gulf County,FL,90.17543859649123,NA,72.03389830508475
32505,Escambia County,FL,NA,41.645244215938305,NA
32569,Okaloosa County,FL,90.52631578947368,NA,NA
32578,Okaloosa County,FL,NA,57.326478149100254,NA
32606,Alachua County,FL,NA,27.76349614395887,NA
32607,Alachua County,FL,56.84210526315789,NA,NA
32626,Levy County,FL,NA,92.2879177377892,NA
32763,Volusia County,FL,65.96491228070175,NA,NA
32780,Brevard County,FL,NA,17.223650385604113,NA
32792,Orange County,FL,NA,51.156812339331616,NA
32796,Brevard County,FL,NA,NA,68.64406779661016
32810,Orange County,FL,NA,59.383033419023135,NA
32822,Orange County,FL,NA,NA,25.423728813559322
32839,Orange County,FL,NA,40.3598971722365,NA
32909,Brevard County,FL,47.01754385964912,NA,NA
32960,Indian River County,FL,NA,NA,41.52542372881356
33025,Broward County,FL,36.49122807017544,NA,NA
33056,Miami-Dade County,FL,NA,50.128534704370175,NA
33069,Broward County,FL,NA,NA,10.734463276836157
33133,Miami-Dade County,FL,NA,41.131105398457585,NA
33142,Miami-Dade County,FL,23.859649122807017,NA,NA
33175,Miami-Dade County,FL,NA,63.75321336760925,NA
33301,Broward County,FL,NA,90.23136246786633,NA
33308,Broward County,FL,NA,NA,4.80225988700565
33324,Broward County,FL,NA,NA,46.04519774011299
33406,Palm Beach County,FL,NA,NA,68.92655367231639
33437,Palm Beach County,FL,NA,19.02313624678663,NA
33458,Palm Beach County,FL,NA,24.164524421593832,NA
33462,Palm Beach County,FL,NA,NA,37.85310734463277
33486,Palm Beach County,FL,NA,NA,53.954802259887
33549,Hillsborough County,FL,NA,83.03341902313625,NA
33573,Hillsborough County,FL,NA,21.336760925449873,2.5423728813559325
33584,Hillsborough County,FL,NA,69.66580976863753,NA
33609,Hillsborough County,FL,NA,60.411311053984576,NA
33629,Hillsborough County,FL,NA,NA,56.21468926553672
33811,Polk County,FL,NA,72.75064267352185,97.17514124293785
33815,Polk County,FL,NA,71.97943444730078,NA
33880,Polk County,FL,28.421052631578945,NA,23.728813559322035
33914,Lee County,FL,NA,15.167095115681233,NA
33971,Lee County,FL,84.21052631578947,NA,NA
33983,Charlotte County,FL,77.89473684210526,NA,NA
34285,Sarasota County,FL,NA,NA,62.71186440677966
34286,Sarasota County,FL,NA,NA,74.29378531073446
34431,Marion County,FL,NA,86.63239074550128,NA
34677,Pinellas County,FL,NA,NA,51.9774011299435
34996,Martin County,FL,NA,NA,22.88135593220339
30041,Forsyth County,GA,67.01754385964912,NA,NA
30083,DeKalb County,GA,33.33333333333333,NA,NA
30087,DeKalb County,GA,NA,20.822622107969153,NA
30263,Coweta County,GA,NA,12.596401028277635,NA
30291,Fulton County,GA,46.31578947368421,NA,NA
30309,Fulton County,GA,NA,NA,87.28813559322035
30331,Fulton County,GA,22.45614035087719,37.275064267352185,NA
30344,Fulton County,GA,NA,41.38817480719794,NA
30458,Bulloch County,GA,41.75438596491228,NA,NA
30549,Jackson County,GA,NA,NA,64.68926553672316
30605,Clarke County,GA,61.40350877192983,NA,94.0677966101695
30606,Clarke County,GA,NA,NA,24.293785310734464
30633,Madison County,GA,87.36842105263159,89.46015424164524,80.50847457627118
30643,Hart County,GA,NA,NA,60.16949152542372
30662,Franklin County,GA,93.33333333333333,NA,NA
30680,Barrow County,GA,NA,62.46786632390745,NA
30814,Columbia County,GA,82.80701754385966,NA,NA
30830,Burke County,GA,NA,65.29562982005142,NA
30909,Richmond County,GA,31.929824561403507,NA,NA
31015,Crisp County,GA,NA,33.16195372750643,NA
31206,Bibb County,GA,37.19298245614035,NA,NA
31533,Coffee County,GA,NA,71.2082262210797,NA
31554,Coffee County,GA,99.29824561403508,NA,NA
31558,Camden County,GA,NA,NA,73.72881355932203
31701,Dougherty County,GA,52.98245614035088,NA,NA
31906,Muscogee County,GA,NA,43.70179948586118,NA
39823,Early County,GA,NA,77.89203084832906,NA
96701,Honolulu County,HI,72.63157894736842,NA,NA
96744,Honolulu County,HI,NA,3.5989717223650386,NA
83201,Bannock County,ID,NA,NA,27.401129943502823
83221,Bingham County,ID,NA,NA,41.24293785310734
83274,Bingham County,ID,NA,91.00257069408741,NA
83330,Gooding County,ID,NA,82.26221079691517,NA
83404,Bonneville County,ID,NA,NA,48.87005649717514
83607,Canyon County,ID,NA,32.390745501285345,NA
83705,Ada County,ID,NA,15.938303341902312,NA
60018,Cook County,IL,NA,37.789203084832906,NA
60044,Lake County,IL,NA,NA,57.909604519774014
60045,Lake County,IL,NA,61.95372750642674,NA
60090,Cook County,IL,NA,NA,14.40677966101695
60098,McHenry County,IL,NA,NA,11.864406779661017
60123,Kane County,IL,26.31578947368421,NA,NA
60131,Cook County,IL,76.84210526315789,NA,NA
60133,Cook County,IL,NA,52.95629820051414,NA
60137,DuPage County,IL,NA,NA,11.016949152542372
60154,Cook County,IL,NA,NA,25.70621468926554
60169,Cook County,IL,NA,NA,43.50282485875706
60189,DuPage County,IL,43.50877192982456,NA,NA
60201,Cook County,IL,NA,NA,7.062146892655368
60302,Cook County,IL,NA,50.6426735218509,NA
60411,Cook County,IL,NA,10.539845758354756,NA
60431,Will County,IL,NA,43.18766066838046,NA
60445,Cook County,IL,NA,54.24164524421594,NA
60452,Cook County,IL,NA,NA,33.33333333333333
60459,Cook County,IL,42.45614035087719,NA,73.72881355932203
60462,Cook County,IL,NA,31.362467866323907,NA
60463,Cook County,IL,NA,NA,59.03954802259888
60465,Cook County,IL,NA,NA,80.22598870056498
60467,Cook County,IL,NA,NA,13.27683615819209
60477,Cook County,IL,NA,12.853470437017995,62.14689265536724
60504,DuPage County,IL,NA,63.49614395886889,NA
60505,Kane County,IL,NA,NA,78.8135593220339
60544,Will County,IL,NA,NA,97.74011299435028
60609,Cook County,IL,NA,NA,17.796610169491526
60611,Cook County,IL,NA,NA,81.07344632768361
60617,Cook County,IL,9.12280701754386,NA,NA
60620,Cook County,IL,NA,4.370179948586118,NA
60628,Cook County,IL,9.473684210526317,NA,3.389830508474576
60646,Cook County,IL,NA,47.30077120822622,NA
60653,Cook County,IL,35.78947368421053,NA,NA
60655,Cook County,IL,NA,32.390745501285345,NA
60657,Cook County,IL,NA,13.624678663239074,NA
61036,Jo Daviess County,IL,NA,NA,74.57627118644068
61231,Mercer County,IL,NA,NA,79.94350282485875
61350,LaSalle County,IL,NA,33.41902313624679,NA
61520,Fulton County,IL,NA,NA,25.141242937853107
61821,Champaign County,IL,NA,50.6426735218509,NA
62226,St. Clair County,IL,50.877192982456144,26.735218508997427,NA
62526,Macon County,IL,14.385964912280702,NA,NA
62681,Schuyler County,IL,NA,83.29048843187661,NA
62711,Sangamon County,IL,90.87719298245615,NA,NA
62966,Jackson County,IL,NA,NA,30.225988700564972
46013,Madison County,IN,NA,NA,24.576271186440678
46032,Hamilton County,IN,NA,NA,19.2090395480226
46033,Hamilton County,IN,NA,NA,35.87570621468927
46072,Tipton County,IN,NA,NA,57.06214689265536
46106,Johnson County,IN,NA,90.74550128534705,NA
46131,Johnson County,IN,38.24561403508772,NA,NA
46158,Morgan County,IN,NA,28.020565552699228,NA
46204,Marion County,IN,77.19298245614034,NA,NA
46226,Marion County,IN,48.07017543859649,NA,NA
46307,Lake County,IN,2.1052631578947367,NA,NA
46324,Lake County,IN,NA,NA,42.090395480225986
46350,LaPorte County,IN,NA,8.740359897172237,NA
46545,St. Joseph County,IN,NA,NA,34.463276836158194
46750,Huntington County,IN,NA,NA,20.33898305084746
46777,Wells County,IN,98.59649122807016,NA,NA
46818,Allen County,IN,47.719298245614034,NA,NA
46901,Howard County,IN,16.49122807017544,NA,NA
46902,Howard County,IN,NA,4.884318766066838,NA
46933,Grant County,IN,NA,93.573264781491,NA
47122,Floyd County,IN,NA,93.31619537275064,NA
47167,Washington County,IN,NA,NA,61.29943502824858
47203,Bartholomew County,IN,NA,NA,11.299435028248588
47394,Randolph County,IN,NA,NA,80.7909604519774
47401,Monroe County,IN,NA,74.80719794344472,NA
47404,Monroe County,IN,NA,74.80719794344472,NA
47408,Monroe County,IN,NA,94.34447300771208,NA
47670,Gibson County,IN,NA,NA,66.66666666666666
47713,Vanderburgh County,IN,70.17543859649122,NA,NA
47715,Vanderburgh County,IN,NA,40.87403598971722,NA
47720,Vanderburgh County,IN,NA,NA,35.02824858757062
47834,Clay County,IN,39.29824561403509,NA,NA
47905,Tippecanoe County,IN,NA,53.98457583547558,NA
47960,White County,IN,NA,NA,31.63841807909605
50129,Greene County,IA,NA,NA,97.45762711864407
50323,Dallas County,IA,NA,NA,91.24293785310734
50428,Cerro Gordo County,IA,NA,49.10025706940874,NA
50588,Buena Vista County,IA,86.31578947368422,NA,NA
50659,Chickasaw County,IA,NA,NA,89.83050847457628
50677,Bremer County,IA,NA,89.20308483290489,NA
50702,Black Hawk County,IA,49.824561403508774,NA,NA
51334,Emmet County,IA,NA,NA,53.10734463276836
51534,Mills County,IA,NA,73.52185089974293,NA
52404,Linn County,IA,10.526315789473683,NA,NA
52632,Lee County,IA,NA,35.732647814910024,NA
52732,Clinton County,IA,27.017543859649123,NA,NA
66104,Wyandotte County,KS,67.71929824561404,NA,NA
66441,Geary County,KS,NA,88.68894601542416,NA
66604,Shawnee County,KS,NA,87.40359897172236,32.7683615819209
66614,Shawnee County,KS,NA,19.28020565552699,46.61016949152542
66901,Cloud County,KS,NA,NA,99.43502824858757
67042,Butler County,KS,NA,94.85861182519281,NA
67213,Sedgwick County,KS,NA,NA,85.31073446327684
67214,Sedgwick County,KS,75.78947368421053,NA,NA
40047,Bullitt County,KY,35.43859649122807,NA,NA
40210,Jefferson County,KY,NA,59.6401028277635,NA
40517,Fayette County,KY,NA,42.159383033419026,NA
41018,Kenton County,KY,NA,NA,84.18079096045197
41040,Pendleton County,KY,NA,92.03084832904884,NA
41056,Mason County,KY,50.175438596491226,NA,NA
41522,Pike County,KY,NA,NA,92.37288135593221
41653,Floyd County,KY,NA,NA,31.07344632768362
42001,McCracken County,KY,NA,20.051413881748072,32.20338983050847
42025,Marshall County,KY,NA,42.9305912596401,NA
42103,Warren County,KY,NA,NA,89.26553672316385
42240,Christian County,KY,7.719298245614035,NA,NA
42261,Butler County,KY,68.42105263157895,NA,NA
70003,Jefferson Parish,LA,NA,NA,2.824858757062147
70065,Jefferson Parish,LA,NA,NA,4.23728813559322
70117,Orleans Parish,LA,NA,17.737789203084834,NA
70119,Orleans Parish,LA,5.614035087719298,NA,NA
70460,St. Tammany Parish,LA,15.087719298245613,80.719794344473,NA
70461,St. Tammany Parish,LA,NA,19.53727506426735,NA
70510,Vermilion Parish,LA,NA,NA,38.983050847457626
70526,Acadia Parish,LA,NA,69.40874035989717,NA
70548,Vermilion Parish,LA,NA,77.12082262210797,NA
70555,Vermilion Parish,LA,85.96491228070175,NA,NA
70570,St. Landry Parish,LA,1.4035087719298245,NA,NA
70714,East Baton Rouge Parish,LA,NA,NA,75.14124293785311
70739,East Baton Rouge Parish,LA,NA,69.1516709511568,NA
70748,East Feliciana Parish,LA,NA,97.17223650385604,NA
70760,Pointe Coupee Parish,LA,NA,NA,92.65536723163842
70788,Iberville Parish,LA,NA,99.22879177377892,NA
71112,Bossier Parish,LA,15.43859649122807,NA,NA
71118,Caddo Parish,LA,76.49122807017544,NA,NA
71232,Richland Parish,LA,NA,NA,71.75141242937853
71260,Union Parish,LA,95.43859649122807,NA,NA
71295,Franklin Parish,LA,NA,57.0694087403599,NA
71302,Rapides Parish,LA,NA,61.18251928020566,NA
71342,La Salle Parish,LA,NA,68.63753213367609,NA
71373,Concordia Parish,LA,NA,NA,90.96045197740112
03908,York County,ME,NA,60.15424164524421,NA
04064,York County,ME,NA,75.32133676092545,NA
04578,Lincoln County,ME,NA,94.08740359897172,NA
04927,Kennebec County,ME,NA,98.20051413881748,NA
20706,Prince George's County,MD,63.859649122807014,NA,NA
20711,Anne Arundel County,MD,NA,NA,90.11299435028248
20748,Prince George's County,MD,52.28070175438596,NA,NA
20774,Prince George's County,MD,NA,NA,38.4180790960452
20874,Montgomery County,MD,53.333333333333336,NA,NA
21213,Baltimore city,MD,24.912280701754387,NA,NA
21221,Baltimore County,MD,NA,22.36503856041131,NA
21750,Washington County,MD,NA,NA,77.40112994350282
01105,Hampden County,MA,4.2105263157894735,NA,NA
01702,Middlesex County,MA,NA,NA,6.214689265536723
01757,Worcester County,MA,NA,54.75578406169666,NA
01821,Middlesex County,MA,NA,1.7994858611825193,NA
01852,Middlesex County,MA,NA,14.395886889460154,NA
01887,Middlesex County,MA,8.421052631578947,NA,NA
01902,Essex County,MA,NA,NA,15.53672316384181
01906,Essex County,MA,NA,10.025706940874036,NA
01913,Essex County,MA,30.87719298245614,NA,NA
01923,Essex County,MA,4.56140350877193,NA,NA
01945,Essex County,MA,48.421052631578945,NA,NA
02093,Norfolk County,MA,63.50877192982456,NA,NA
02119,Suffolk County,MA,NA,NA,3.954802259887006
02121,Suffolk County,MA,0,NA,NA
02125,Suffolk County,MA,0.3508771929824561,NA,NA
02134,Suffolk County,MA,14.736842105263156,NA,NA
02176,Middlesex County,MA,NA,7.455012853470437,NA
02420,Middlesex County,MA,NA,61.43958868894601,NA
02673,Barnstable County,MA,NA,NA,46.32768361581921
02703,Bristol County,MA,1.0526315789473684,NA,NA
02723,Bristol County,MA,NA,5.141388174807198,NA
48021,Macomb County,MI,12.631578947368421,NA,NA
48051,Macomb County,MI,NA,36.760925449871465,NA
48060,St. Clair County,MI,3.1578947368421053,NA,NA
48062,Macomb County,MI,85.26315789473684,NA,NA
48089,Macomb County,MI,NA,NA,44.06779661016949
48103,Washtenaw County,MI,NA,NA,1.694915254237288
48104,Washtenaw County,MI,54.03508771929825,NA,NA
48131,Monroe County,MI,NA,86.11825192802056,NA
48166,Monroe County,MI,NA,36.50385604113111,NA
48197,Washtenaw County,MI,NA,67.09511568123393,NA
48208,Wayne County,MI,63.1578947368421,NA,NA
48212,Wayne County,MI,NA,13.110539845758353,NA
48223,Wayne County,MI,NA,39.0745501285347,NA
48227,Wayne County,MI,3.8596491228070176,NA,NA
48235,Wayne County,MI,2.456140350877193,3.8560411311053984,NA
48237,Oakland County,MI,NA,18.76606683804627,NA
48238,Wayne County,MI,6.315789473684211,NA,NA
48309,Oakland County,MI,NA,26.47814910025707,NA
48323,Oakland County,MI,60.35087719298245,NA,NA
48386,Oakland County,MI,68.0701754385965,NA,NA
48444,Lapeer County,MI,NA,76.86375321336762,NA
48458,Genesee County,MI,NA,56.555269922879184,NA
48461,Lapeer County,MI,NA,87.91773778920309,NA
48505,Genesee County,MI,NA,56.041131105398456,NA
48602,Saginaw County,MI,NA,NA,34.74576271186441
48813,Eaton County,MI,NA,NA,27.11864406779661
48823,Ingham County,MI,NA,NA,31.35593220338983
48836,Livingston County,MI,NA,NA,66.94915254237289
48858,Isabella County,MI,NA,7.197943444730077,NA
48911,Ingham County,MI,NA,15.424164524421593,NA
49036,Branch County,MI,NA,23.65038560411311,NA
49093,St. Joseph County,MI,NA,NA,27.683615819209038
49203,Jackson County,MI,9.824561403508772,NA,NA
49337,Newaygo County,MI,NA,61.95372750642674,NA
49341,Kent County,MI,34.73684210526316,NA,NA
49345,Kent County,MI,NA,NA,76.27118644067797
49349,Newaygo County,MI,NA,93.83033419023135,NA
49417,Ottawa County,MI,22.105263157894736,NA,NA
49420,Oceana County,MI,NA,84.31876606683805,NA
49423,Ottawa County,MI,47.368421052631575,NA,NA
49431,Mason County,MI,40.70175438596491,64.78149100257069,NA
49449,Oceana County,MI,NA,94.85861182519281,NA
49504,Kent County,MI,NA,NA,8.47457627118644
49506,Kent County,MI,NA,42.41645244215938,NA
49508,Kent County,MI,NA,39.33161953727507,NA
49525,Kent County,MI,NA,NA,31.92090395480226
49548,Kent County,MI,NA,NA,26.55367231638418
49930,Houghton County,MI,NA,92.54498714652956,NA
55016,Washington County,MN,NA,NA,63.84180790960452
55033,Dakota County,MN,NA,96.1439588688946,65.5367231638418
55040,Isanti County,MN,NA,NA,89.54802259887006
55044,Dakota County,MN,81.40350877192982,NA,NA
55051,Kanabec County,MN,NA,38.81748071979435,40.11299435028249
55060,Steele County,MN,NA,NA,93.78531073446328
55063,Pine County,MN,NA,NA,58.19209039548022
55075,Dakota County,MN,NA,NA,70.90395480225989
55076,Dakota County,MN,65.26315789473685,58.09768637532133,NA
55082,Washington County,MN,NA,24.93573264781491,NA
55102,Ramsey County,MN,NA,39.588688946015424,NA
55104,Ramsey County,MN,NA,40.616966580976865,NA
55106,Ramsey County,MN,8.070175438596491,NA,43.78531073446328
55110,Ramsey County,MN,NA,NA,28.8135593220339
55112,Ramsey County,MN,NA,NA,16.101694915254235
55117,Ramsey County,MN,71.57894736842105,NA,NA
55118,Dakota County,MN,NA,NA,20.62146892655367
55124,Dakota County,MN,45.26315789473684,NA,NA
55303,Anoka County,MN,22.807017543859647,NA,NA
55304,Anoka County,MN,NA,43.958868894601544,64.40677966101694
55311,Hennepin County,MN,NA,NA,72.31638418079096
55313,Wright County,MN,61.05263157894737,NA,NA
55318,Carver County,MN,64.21052631578948,NA,NA
55328,Wright County,MN,NA,95.62982005141389,NA
55343,Hennepin County,MN,NA,NA,37.28813559322034
55349,Wright County,MN,NA,98.97172236503856,NA
55350,McLeod County,MN,NA,NA,12.994350282485875
55362,Wright County,MN,NA,NA,84.7457627118644
55369,Hennepin County,MN,NA,47.04370179948586,NA
55374,Hennepin County,MN,NA,97.94344473007712,NA
55379,Scott County,MN,NA,48.0719794344473,NA
55391,Hennepin County,MN,NA,79.43444730077121,NA
55404,Hennepin County,MN,NA,3.3419023136246784,NA
55406,Hennepin County,MN,NA,27.506426735218508,NA
55408,Hennepin County,MN,NA,NA,64.97175141242938
55417,Hennepin County,MN,NA,NA,79.66101694915254
55421,Anoka County,MN,NA,NA,35.31073446327684
55430,Hennepin County,MN,74.03508771929825,35.2185089974293,48.0225988700565
55432,Anoka County,MN,NA,NA,58.47457627118644
55433,Anoka County,MN,43.15789473684211,NA,37.570621468926554
55434,Anoka County,MN,NA,62.724935732647815,NA
55436,Hennepin County,MN,NA,84.06169665809769,NA
55442,Hennepin County,MN,NA,84.57583547557842,NA
55443,Hennepin County,MN,NA,NA,55.367231638418076
55447,Hennepin County,MN,NA,NA,96.61016949152543
55448,Anoka County,MN,NA,NA,81.92090395480226
55449,Anoka County,MN,NA,72.49357326478149,NA
55720,Carlton County,MN,NA,43.958868894601544,NA
55734,St. Louis County,MN,NA,76.09254498714652,NA
55744,Itasca County,MN,NA,NA,6.497175141242938
55792,St. Louis County,MN,74.73684210526315,NA,88.70056497175142
55804,St. Louis County,MN,NA,NA,18.926553672316384
55805,St. Louis County,MN,NA,71.72236503856041,NA
55806,St. Louis County,MN,NA,64.52442159383034,NA
55807,St. Louis County,MN,NA,NA,55.08474576271186
55810,St. Louis County,MN,NA,51.156812339331616,NA
55811,St. Louis County,MN,NA,NA,50.282485875706215
56011,Scott County,MN,NA,NA,82.20338983050848
56073,Brown County,MN,NA,NA,2.2598870056497176
56085,Brown County,MN,NA,NA,76.55367231638418
56345,Morrison County,MN,NA,37.53213367609254,NA
56401,Crow Wing County,MN,11.929824561403509,5.912596401028278,5.084745762711865
56425,Crow Wing County,MN,89.82456140350877,NA,27.966101694915253
56442,Crow Wing County,MN,NA,NA,59.6045197740113
56470,Hubbard County,MN,NA,NA,30.508474576271187
56484,Cass County,MN,NA,86.37532133676092,NA
56501,Becker County,MN,NA,NA,70.62146892655367
56572,Otter Tail County,MN,NA,NA,88.4180790960452
56701,Pennington County,MN,NA,NA,25.98870056497175
56721,Polk County,MN,58.94736842105262,89.7172236503856,NA
38635,Marshall County,MS,NA,NA,76.8361581920904
39301,Lauderdale County,MS,NA,NA,62.42937853107344
39328,Kemper County,MS,NA,NA,96.89265536723164
39345,Newton County,MS,NA,NA,87.85310734463276
39452,George County,MS,NA,22.62210796915167,NA
39466,Pearl River County,MS,31.57894736842105,NA,NA
39652,Pike County,MS,91.57894736842105,NA,NA
39701,Lowndes County,MS,72.98245614035088,NA,NA
39705,Lowndes County,MS,73.33333333333333,NA,NA
63125,St. Louis County,MO,NA,NA,12.146892655367232
63132,St. Louis County,MO,NA,NA,39.83050847457627
63133,St. Louis County,MO,83.50877192982456,NA,NA
63301,St. Charles County,MO,NA,NA,3.389830508474576
63348,St. Charles County,MO,NA,78.1491002570694,NA
63366,St. Charles County,MO,NA,NA,9.03954802259887
63376,St. Charles County,MO,12.280701754385964,NA,NA
63764,Bollinger County,MO,NA,96.91516709511568,NA
63801,Scott County,MO,NA,NA,15.819209039548024
63841,Stoddard County,MO,81.75438596491227,NA,NA
64085,Ray County,MO,NA,NA,45.19774011299435
64119,Clay County,MO,12.982456140350877,NA,NA
64506,Buchanan County,MO,NA,35.47557840616967,NA
64633,Carroll County,MO,NA,NA,78.24858757062147
64772,Vernon County,MO,NA,55.012853470437015,NA
65202,Boone County,MO,13.333333333333334,NA,NA
65301,Pettis County,MO,NA,9.768637532133676,NA
65548,Howell County,MO,NA,NA,86.15819209039547
65616,Taney County,MO,NA,NA,21.1864406779661
65619,Greene County,MO,NA,NA,95.19774011299435
65804,Greene County,MO,NA,NA,13.559322033898304
59019,Stillwater County,MT,NA,99.48586118251927,NA
59047,Park County,MT,NA,NA,45.76271186440678
59330,Dawson County,MT,88.7719298245614,NA,NA
59635,Lewis and Clark County,MT,NA,87.91773778920309,NA
68333,Saline County,NE,NA,NA,93.22033898305084
68506,Lancaster County,NE,NA,51.9280205655527,NA
68521,Lancaster County,NE,NA,NA,67.79661016949152
89120,Clark County,NV,NA,NA,63.2768361581921
89122,Clark County,NV,NA,NA,42.3728813559322
89156,Clark County,NV,71.9298245614035,NA,NA
89406,Churchill County,NV,NA,30.334190231362467,NA
89447,Lyon County,NV,NA,85.8611825192802,NA
89502,Washoe County,NV,NA,NA,28.53107344632768
89506,Washoe County,NV,23.157894736842106,NA,NA
89511,Washoe County,NV,NA,67.3521850899743,NA
89512,Washoe County,NV,20.350877192982455,NA,NA
89521,Washoe County,NV,55.78947368421052,NA,NA
89523,Washoe County,NV,NA,NA,48.30508474576271
89801,Elko County,NV,NA,70.69408740359897,NA
03076,Hillsborough County,NH,NA,58.86889460154242,NA
03102,Hillsborough County,NH,NA,87.146529562982,NA
03301,Merrimack County,NH,NA,12.082262210796916,NA
03570,Coos County,NH,NA,NA,56.779661016949156
03811,Rockingham County,NH,NA,NA,98.87005649717514
03860,Carroll County,NH,NA,NA,99.71751412429379
07104,Essex County,NJ,0.7017543859649122,NA,NA
07108,Essex County,NJ,1.7543859649122806,NA,NA
07410,Bergen County,NJ,NA,NA,26.836158192090398
07481,Bergen County,NJ,NA,NA,59.32203389830508
08610,Mercer County,NJ,NA,49.61439588688946,NA
08611,Mercer County,NJ,NA,32.904884318766065,NA
08755,Ocean County,NJ,NA,NA,8.757062146892656
08759,Ocean County,NJ,NA,NA,1.4124293785310735
87031,Valencia County,NM,34.385964912280706,NA,NA
87111,Bernalillo County,NM,NA,11.311053984575835,NA
87120,Bernalillo County,NM,NA,NA,19.774011299435028
87507,Santa Fe County,NM,40,NA,NA
88063,Doa Ana County,NM,NA,NA,81.63841807909604
88242,Lea County,NM,80.7017543859649,NA,NA
10025,New York County,NY,NA,0.7712082262210797,NA
10028,New York County,NY,NA,NA,16.94915254237288
10037,New York County,NY,44.91228070175438,NA,NA
10462,Bronx County,NY,NA,5.3984575835475574,NA
10466,Bronx County,NY,NA,2.313624678663239,NA
10467,Bronx County,NY,NA,0.5141388174807198,NA
10473,Bronx County,NY,NA,6.683804627249357,NA
10924,Orange County,NY,92.28070175438596,NA,NA
10940,Orange County,NY,NA,14.138817480719796,NA
11010,Nassau County,NY,NA,NA,39.548022598870055
11209,Kings County,NY,39.64912280701755,NA,NA
11216,Kings County,NY,NA,NA,50.847457627118644
11413,Queens County,NY,54.385964912280706,NA,NA
11417,Queens County,NY,NA,NA,69.77401129943502
11421,Queens County,NY,NA,NA,40.3954802259887
11434,Queens County,NY,17.192982456140353,NA,NA
11542,Nassau County,NY,NA,NA,69.49152542372882
11743,Suffolk County,NY,78.59649122807018,NA,NA
11754,Suffolk County,NY,NA,NA,90.11299435028248
11756,Nassau County,NY,NA,NA,35.87570621468927
11769,Suffolk County,NY,NA,93.05912596401028,NA
11776,Suffolk County,NY,NA,57.84061696658098,NA
11778,Suffolk County,NY,NA,NA,84.4632768361582
11789,Suffolk County,NY,NA,98.45758354755783,NA
11790,Suffolk County,NY,NA,NA,68.36158192090396
11801,Nassau County,NY,NA,NA,41.80790960451977
12065,Saratoga County,NY,NA,16.966580976863753,NA
12550,Orange County,NY,38.94736842105263,NA,NA
12553,Orange County,NY,NA,70.95115681233933,NA
12701,Sullivan County,NY,NA,90.48843187660668,NA
12790,Sullivan County,NY,NA,NA,98.30508474576271
12883,Essex County,NY,NA,NA,75.42372881355932
12901,Clinton County,NY,NA,NA,7.344632768361582
13021,Cayuga County,NY,NA,NA,15.254237288135593
13044,Oswego County,NY,95.78947368421052,NA,NA
13126,Oswego County,NY,NA,6.683804627249357,NA
13212,Onondaga County,NY,NA,NA,53.954802259887
13350,Herkimer County,NY,NA,NA,91.52542372881356
13413,Oneida County,NY,NA,30.077120822622106,NA
13476,Oneida County,NY,NA,99.74293059125964,NA
13477,Oneida County,NY,99.64912280701755,NA,NA
13601,Jefferson County,NY,NA,NA,14.124293785310735
13617,St. Lawrence County,NY,NA,NA,38.70056497175141
13642,St. Lawrence County,NY,NA,85.08997429305913,NA
13660,St. Lawrence County,NY,96.84210526315789,NA,NA
13669,St. Lawrence County,NY,NA,23.13624678663239,NA
13748,Broome County,NY,96.49122807017544,NA,NA
13790,Broome County,NY,11.228070175438596,NA,NA
13850,Broome County,NY,19.649122807017545,NA,NA
14150,Erie County,NY,6.666666666666667,NA,NA
14411,Orleans County,NY,NA,74.293059125964,NA
14467,Monroe County,NY,NA,54.24164524421594,NA
14580,Monroe County,NY,NA,0.2570694087403599,NA
14623,Monroe County,NY,NA,NA,73.1638418079096
14701,Chautauqua County,NY,NA,2.056555269922879,NA
14830,Steuben County,NY,NA,31.10539845758355,NA
14901,Chemung County,NY,NA,58.354755784061695,NA
27012,Forsyth County,NC,36.84210526315789,NA,NA
27104,Forsyth County,NC,35.08771929824561,6.426735218508997,NA
27253,Alamance County,NC,20.701754385964914,NA,NA
27260,Guilford County,NC,NA,NA,54.80225988700565
27265,Guilford County,NC,25.6140350877193,NA,NA
27371,Montgomery County,NC,NA,NA,94.63276836158192
27401,Guilford County,NC,NA,NA,52.824858757062145
27513,Wake County,NC,66.3157894736842,55.52699228791774,NA
27514,Orange County,NC,NA,67.86632390745501,NA
27519,Wake County,NC,54.736842105263165,NA,NA
27522,Granville County,NC,NA,NA,93.22033898305084
27560,Wake County,NC,78.94736842105263,NA,NA
27565,Granville County,NC,NA,18.251928020565554,NA
27587,Wake County,NC,NA,NA,14.971751412429379
27615,Wake County,NC,NA,13.881748071979436,NA
27705,Durham County,NC,NA,NA,17.231638418079097
27870,Halifax County,NC,NA,NA,36.440677966101696
28027,Cabarrus County,NC,NA,8.226221079691516,NA
28078,Mecklenburg County,NC,NA,NA,65.2542372881356
28139,Rutherford County,NC,44.56140350877193,NA,NA
28173,Union County,NC,NA,49.3573264781491,NA
28227,Mecklenburg County,NC,NA,NA,22.598870056497177
28360,Robeson County,NC,NA,65.55269922879178,NA
28625,Iredell County,NC,NA,18.50899742930591,NA
28677,Iredell County,NC,18.947368421052634,NA,NA
28786,Haywood County,NC,NA,17.994858611825194,NA
28801,Buncombe County,NC,NA,NA,99.15254237288136
58103,Cass County,ND,NA,NA,13.559322033898304
58201,Grand Forks County,ND,NA,56.81233933161953,NA
43055,Licking County,OH,NA,1.0282776349614395,NA
43130,Fairfield County,OH,NA,2.827763496143959,NA
43502,Fulton County,OH,94.38596491228071,NA,NA
43545,Henry County,OH,NA,44.73007712082262,NA
43567,Fulton County,OH,NA,NA,85.59322033898306
43724,Noble County,OH,80.35087719298247,NA,NA
43725,Guernsey County,OH,NA,7.969151670951156,NA
43756,Morgan County,OH,NA,NA,61.86440677966102
44004,Ashtabula County,OH,18.24561403508772,NA,NA
44022,Cuyahoga County,OH,NA,NA,17.51412429378531
44035,Lorain County,OH,2.807017543859649,NA,4.519774011299435
44081,Lake County,OH,NA,82.51928020565553,NA
44119,Cuyahoga County,OH,NA,46.52956298200514,NA
44130,Cuyahoga County,OH,NA,NA,0.2824858757062147
44140,Cuyahoga County,OH,NA,29.30591259640103,NA
44256,Medina County,OH,NA,NA,1.1299435028248588
44281,Medina County,OH,NA,NA,14.689265536723164
44408,Columbiana County,OH,NA,NA,42.93785310734463
44410,Trumbull County,OH,NA,NA,42.65536723163842
44460,Columbiana County,OH,NA,NA,53.672316384180796
44601,Stark County,OH,8.771929824561402,NA,NA
44663,Tuscarawas County,OH,NA,NA,9.6045197740113
44805,Ashland County,OH,NA,28.277634961439592,NA
44857,Huron County,OH,27.368421052631582,NA,NA
45013,Butler County,OH,NA,4.113110539845758,5.649717514124294
45036,Warren County,OH,NA,NA,33.89830508474576
45040,Warren County,OH,NA,NA,20.903954802259886
45150,Clermont County,OH,NA,29.562982005141386,29.09604519774011
45206,Hamilton County,OH,57.89473684210527,NA,NA
45233,Hamilton County,OH,79.2982456140351,NA,NA
45236,Hamilton County,OH,NA,NA,21.468926553672315
45247,Hamilton County,OH,NA,NA,23.163841807909606
45248,Hamilton County,OH,NA,61.696658097686374,NA
45327,Montgomery County,OH,NA,NA,83.89830508474576
45419,Montgomery County,OH,NA,74.55012853470437,NA
45424,Montgomery County,OH,NA,NA,7.627118644067797
45459,Montgomery County,OH,NA,21.079691516709513,NA
45601,Ross County,OH,NA,0,NA
45640,Jackson County,OH,NA,NA,9.887005649717514
45686,Gallia County,OH,84.56140350877193,NA,NA
73080,McClain County,OK,NA,75.57840616966581,NA
73139,Oklahoma County,OK,59.29824561403508,NA,NA
73160,Cleveland County,OK,NA,5.655526992287918,NA
73162,Oklahoma County,OK,NA,17.480719794344473,NA
73505,Comanche County,OK,NA,NA,5.367231638418079
73533,Stephens County,OK,NA,12.339331619537274,NA
74006,Washington County,OK,60,NA,NA
74017,Rogers County,OK,50.526315789473685,NA,NA
74055,Tulsa County,OK,NA,67.60925449871465,NA
74135,Tulsa County,OK,NA,43.44473007712082,NA
74434,Muskogee County,OK,NA,84.83290488431876,NA
74447,Okmulgee County,OK,73.68421052631578,NA,75.70621468926554
74501,Pittsburg County,OK,56.14035087719298,NA,NA
74859,Okfuskee County,OK,NA,88.94601542416453,NA
74960,Adair County,OK,NA,39.84575835475578,NA
97004,Clackamas County,OR,NA,97.68637532133675,NA
97030,Multnomah County,OR,55.08771929824562,NA,NA
97045,Clackamas County,OR,NA,NA,12.711864406779661
97055,Clackamas County,OR,NA,53.72750642673522,NA
97068,Clackamas County,OR,NA,NA,51.41242937853108
97071,Marion County,OR,NA,NA,50
97141,Tillamook County,OR,NA,83.80462724935732,NA
97202,Multnomah County,OR,NA,51.670951156812336,NA
97205,Multnomah County,OR,95.08771929824562,NA,NA
97220,Multnomah County,OR,NA,30.59125964010283,NA
97223,Washington County,OR,NA,24.67866323907455,NA
97236,Multnomah County,OR,25.263157894736842,NA,NA
97304,Polk County,OR,NA,NA,83.05084745762711
97374,Linn County,OR,NA,98.7146529562982,NA
97403,Lane County,OR,98.24561403508771,NA,NA
97415,Curry County,OR,NA,65.03856041131105,NA
97423,Coos County,OR,NA,75.57840616966581,NA
97471,Douglas County,OR,NA,6.169665809768637,NA
97525,Jackson County,OR,NA,96.40102827763496,NA
97526,Josephine County,OR,NA,NA,40.96045197740113
97537,Jackson County,OR,83.15789473684211,NA,NA
97603,Klamath County,OR,NA,32.13367609254499,NA
97702,Deschutes County,OR,51.578947368421055,NA,NA
97703,Deschutes County,OR,NA,73.00771208226222,NA
97814,Baker County,OR,NA,46.27249357326478,NA
15001,Beaver County,PA,NA,16.452442159383033,NA
15022,Washington County,PA,NA,79.69151670951156,NA
15089,Westmoreland County,PA,84.91228070175438,NA,NA
15101,Allegheny County,PA,NA,53.470437017994854,NA
15132,Allegheny County,PA,14.035087719298245,23.90745501285347,NA
15212,Allegheny County,PA,29.122807017543863,NA,NA
15234,Allegheny County,PA,88.0701754385965,NA,NA
15301,Washington County,PA,7.368421052631578,NA,NA
15478,Fayette County,PA,NA,64.26735218508998,NA
15537,Bedford County,PA,NA,66.83804627249359,NA
15601,Westmoreland County,PA,4.912280701754386,1.5424164524421593,NA
15642,Westmoreland County,PA,NA,NA,6.779661016949152
15714,Cambria County,PA,82.10526315789474,NA,NA
15767,Jefferson County,PA,66.66666666666666,NA,NA
16001,Butler County,PA,24.210526315789473,NA,NA
16037,Butler County,PA,97.89473684210527,NA,NA
16055,Butler County,PA,89.12280701754386,NA,NA
16365,Warren County,PA,42.80701754385965,NA,NA
16407,Erie County,PA,NA,NA,90.67796610169492
16441,Erie County,PA,NA,NA,77.96610169491525
16508,Erie County,PA,NA,NA,73.44632768361582
16509,Erie County,PA,NA,71.46529562982005,NA
16601,Blair County,PA,NA,9.254498714652955,NA
16602,Blair County,PA,15.789473684210526,NA,NA
16801,Centre County,PA,NA,NA,10.451977401129943
16830,Clearfield County,PA,NA,29.82005141388175,NA
16915,Potter County,PA,NA,NA,55.6497175141243
16947,Bradford County,PA,NA,NA,96.045197740113
17074,Perry County,PA,74.3859649122807,NA,NA
17090,Perry County,PA,97.54385964912281,NA,NA
17402,York County,PA,NA,10.282776349614396,NA
17408,York County,PA,NA,15.681233933161954,NA
17543,Lancaster County,PA,NA,NA,8.192090395480225
17603,Lancaster County,PA,NA,38.303341902313626,NA
18014,Northampton County,PA,NA,35.98971722365039,NA
18017,Northampton County,PA,7.017543859649122,NA,NA
18042,Northampton County,PA,NA,NA,16.38418079096045
18058,Monroe County,PA,NA,NA,55.932203389830505
18337,Pike County,PA,NA,NA,57.34463276836158
18505,Lackawanna County,PA,49.122807017543856,NA,NA
19020,Bucks County,PA,NA,NA,10.16949152542373
19053,Bucks County,PA,NA,33.67609254498715,NA
19064,Delaware County,PA,NA,47.55784061696658,NA
19082,Delaware County,PA,NA,65.80976863753213,63.84180790960452
19106,Philadelphia County,PA,NA,NA,51.9774011299435
19107,Philadelphia County,PA,NA,49.87146529562982,NA
19120,Philadelphia County,PA,3.508771929824561,NA,NA
19138,Philadelphia County,PA,NA,22.87917737789203,NA
19143,Philadelphia County,PA,NA,1.2853470437017995,NA
19149,Philadelphia County,PA,NA,68.12339331619538,NA
19320,Chester County,PA,11.578947368421053,NA,NA
19401,Montgomery County,PA,NA,22.10796915167095,NA
19464,Montgomery County,PA,NA,34.70437017994858,NA
19475,Chester County,PA,NA,83.54755784061697,NA
19526,Berks County,PA,NA,85.60411311053984,NA
19607,Berks County,PA,34.03508771929825,NA,NA
19610,Berks County,PA,NA,NA,57.6271186440678
02816,Kent County,RI,NA,14.910025706940875,21.75141242937853
02840,Newport County,RI,49.473684210526315,28.53470437017995,NA
02863,Providence County,RI,NA,64.01028277634961,NA
02871,Newport County,RI,69.12280701754386,NA,NA
02905,Providence County,RI,NA,42.673521850899746,NA
02906,Providence County,RI,NA,46.01542416452442,NA
02910,Providence County,RI,NA,NA,60.16949152542372
29039,Orangeburg County,SC,NA,NA,100
29128,Sumter County,SC,NA,100,NA
29204,Richland County,SC,NA,70.4370179948586,NA
29445,Berkeley County,SC,29.47368421052631,NA,NA
29588,Horry County,SC,43.859649122807014,NA,NA
29615,Greenville County,SC,NA,37.01799485861182,NA
29640,Pickens County,SC,NA,85.34704370179949,NA
29671,Pickens County,SC,NA,66.0668380462725,82.7683615819209
29680,Greenville County,SC,53.333333333333336,NA,NA
29801,Aiken County,SC,NA,48.58611825192802,NA
29829,Aiken County,SC,NA,NA,88.98305084745762
29906,Beaufort County,SC,NA,60.66838046272493,NA
57103,Minnehaha County,SD,NA,NA,26.27118644067797
57703,Pennington County,SD,NA,78.66323907455013,NA
37064,Williamson County,TN,NA,NA,20.056497175141246
37076,Davidson County,TN,NA,31.876606683804624,NA
37321,Rhea County,TN,68.77192982456141,NA,NA
37322,Meigs County,TN,69.47368421052632,NA,NA
37604,Washington County,TN,NA,19.794344473007712,NA
37701,Blount County,TN,NA,NA,67.514124293785315
37748,Roane County,TN,NA,28.79177377892031,NA
37760,Jefferson County,TN,NA,NA,72.59887005649718
37801,Blount County,TN,NA,13.367609254498714,NA
37876,Sevier County,TN,41.40350877192983,NA,NA
38114,Shelby County,TN,NA,NA,50.56497175141242
38242,Henry County,TN,NA,37.789203084832906,NA
38468,Lawrence County,TN,NA,87.91773778920309,NA
75010,Denton County,TX,NA,78.40616966580977,NA
75032,Rockwall County,TX,NA,52.185089974293064,NA
75035,Collin County,TX,NA,52.69922879177378,NA
75061,Dallas County,TX,NA,25.70694087403599,NA
75063,Dallas County,TX,NA,NA,86.7231638418079
75068,Denton County,TX,38.59649122807017,NA,NA
75119,Ellis County,TX,58.245614035087726,NA,NA
75143,Henderson County,TX,NA,60.9254498714653,NA
75149,Dallas County,TX,NA,29.048843187660665,NA
75206,Dallas County,TX,NA,NA,56.49717514124294
75214,Dallas County,TX,50.877192982456144,NA,NA
75215,Dallas County,TX,NA,62.98200514138818,NA
75217,Dallas County,TX,10.87719298245614,NA,NA
75223,Dallas County,TX,NA,78.9203084832905,91.80790960451978
75230,Dallas County,TX,NA,NA,44.35028248587571
75231,Dallas County,TX,52.63157894736842,NA,NA
75244,Dallas County,TX,NA,NA,82.485875706214685
75672,Harrison County,TX,NA,66.32390745501286,NA
75704,Smith County,TX,NA,76.34961439588689,66.38418079096046
75979,Tyler County,TX,NA,72.23650385604114,NA
76010,Tarrant County,TX,21.75438596491228,NA,NA
76051,Tarrant County,TX,NA,NA,63.559322033898304
76104,Tarrant County,TX,NA,NA,66.10169491525424
76114,Tarrant County,TX,NA,NA,72.88135593220339
76208,Denton County,TX,64.56140350877193,NA,NA
76244,Tarrant County,TX,NA,81.74807197943444,NA
76248,Tarrant County,TX,NA,44.987146529562985,NA
76262,Denton County,TX,NA,NA,69.2090395480226
76365,Clay County,TX,94.03508771929825,NA,NA
76550,Lampasas County,TX,NA,NA,49.43502824858757
76567,Milam County,TX,86.66666666666667,NA,NA
76821,Runnels County,TX,NA,91.25964010282776,NA
76901,Tom Green County,TX,NA,31.619537275064268,NA
77028,Harris County,TX,55.43859649122807,NA,NA
77088,Harris County,TX,NA,33.933161953727506,NA
77407,Fort Bend County,TX,NA,77.6349614395887,NA
77505,Harris County,TX,NA,NA,58.75706214689266
77541,Brazoria County,TX,NA,57.58354755784062,NA
77581,Brazoria County,TX,NA,20.565552699228792,NA
77591,Galveston County,TX,62.10526315789474,NA,NA
77627,Jefferson County,TX,NA,NA,49.152542372881356
77836,Burleson County,TX,NA,NA,67.2316384180791
78130,Comal County,TX,NA,59.12596401028277,NA
78210,Bexar County,TX,NA,NA,47.45762711864407
78520,Cameron County,TX,61.75438596491228,NA,NA
78628,Williamson County,TX,NA,NA,1.977401129943503
78639,Llano County,TX,92.98245614035088,NA,NA
78640,Hays County,TX,NA,NA,60.73446327683616
78657,Llano County,TX,NA,NA,51.69491525423729
78942,Lee County,TX,NA,NA,74.85875706214689
79336,Hockley County,TX,76.14035087719299,NA,NA
79382,Lubbock County,TX,NA,NA,92.93785310734464
84047,Salt Lake County,UT,32.631578947368425,NA,NA
84088,Salt Lake County,UT,75.08771929824562,NA,NA
84109,Salt Lake County,UT,70.87719298245614,NA,NA
84128,Salt Lake County,UT,45.96491228070175,NA,NA
05156,Windsor County,VT,70.52631578947368,NA,NA
05701,Rutland County,VT,NA,NA,11.581920903954803
05819,Caledonia County,VT,NA,NA,87.57062146892656
22003,Fairfax County,VA,NA,25.96401028277635,NA
22630,Warren County,VA,30.175438596491226,NA,NA
22701,Culpeper County,VA,31.2280701754386,NA,NA
22920,Nelson County,VA,NA,NA,98.58757062146893
22963,Fluvanna County,VA,NA,NA,76.8361581920904
23111,Hanover County,VA,NA,16.195372750642672,NA
23188,James City County,VA,NA,3.0848329048843186,NA
23222,Richmond city,VA,NA,NA,33.05084745762712
23223,Henrico County,VA,44.21052631578947,NA,NA
23608,Newport News city,VA,24.561403508771928,NA,NA
24060,Montgomery County,VA,NA,NA,52.54237288135594
24078,Henry County,VA,NA,86.88946015424165,NA
24401,Staunton city,VA,13.684210526315791,7.712082262210797,NA
24540,Danville city,VA,33.68421052631579,NA,34.18079096045198
98005,King County,WA,NA,NA,45.48022598870056
98012,Snohomish County,WA,NA,26.735218508997427,NA
98021,Snohomish County,WA,NA,NA,44.91525423728814
98037,Snohomish County,WA,NA,NA,54.51977401129944
98038,King County,WA,41.05263157894737,NA,NA
98057,King County,WA,NA,68.89460154241645,NA
98058,King County,WA,NA,21.59383033419023,NA
98072,King County,WA,NA,58.61182519280206,NA
98074,King County,WA,NA,NA,81.35593220338984
98103,King County,WA,NA,40.102827763496144,NA
98104,King County,WA,94.73684210526315,NA,NA
98310,Kitsap County,WA,NA,NA,36.72316384180791
98329,Pierce County,WA,NA,80.97686375321337,NA
98338,Pierce County,WA,NA,34.19023136246786,NA
98362,Clallam County,WA,NA,8.997429305912597,NA
98365,Jefferson County,WA,NA,96.65809768637533,NA
98382,Clallam County,WA,NA,NA,0.847457627118644
98387,Pierce County,WA,28.07017543859649,NA,NA
98503,Thurston County,WA,NA,NA,29.37853107344633
98611,Cowlitz County,WA,NA,74.03598971722364,NA
98620,Klickitat County,WA,NA,69.9228791773779,NA
98640,Pacific County,WA,NA,NA,86.7231638418079
98661,Clark County,WA,NA,NA,33.61581920903955
98902,Yakima County,WA,NA,24.42159383033419,NA
98922,Kittitas County,WA,NA,80.20565552699229,NA
99141,Stevens County,WA,91.22807017543859,NA,NA
20005,District of Columbia,DC,NA,82.0051413881748,NA
20011,District of Columbia,DC,NA,NA,5.932203389830509
20017,District of Columbia,DC,NA,NA,59.887005649717516
25015,Kanawha County,WV,NA,91.77377892030847,NA
25071,Kanawha County,WV,60.35087719298245,NA,NA
25177,Kanawha County,WV,NA,34.19023136246786,NA
25302,Kanawha County,WV,NA,NA,48.30508474576271
25304,Kanawha County,WV,NA,NA,70.33898305084746
25313,Kanawha County,WV,NA,NA,86.4406779661017
25701,Cabell County,WV,20,NA,NA
26101,Wood County,WV,5.964912280701754,NA,NA
26554,Marion County,WV,NA,NA,3.1073446327683616
26726,Mineral County,WV,48.771929824561404,NA,NA
26757,Hampshire County,WV,NA,79.94858611825192,NA
53095,Washington County,WI,NA,NA,22.033898305084744
53219,Milwaukee County,WI,NA,11.568123393316196,NA
53402,Racine County,WI,NA,2.570694087403599,NA
53406,Racine County,WI,NA,16.709511568123396,NA
53713,Dane County,WI,57.19298245614035,NA,NA
54001,Polk County,WI,56.49122807017544,NA,NA
54022,Pierce County,WI,58.59649122807018,NA,92.09039548022598
54481,Portage County,WI,25.964912280701753,NA,NA
54494,Wood County,WI,37.54385964912281,NA,NA
54703,Eau Claire County,WI,NA,NA,28.24858757062147
54729,Chippewa County,WI,NA,20.308483290488432,NA
54801,Washburn County,WI,NA,NA,71.46892655367232
54806,Ashland County,WI,80,NA,NA
54830,Burnett County,WI,97.19298245614036,NA,NA
54840,Burnett County,WI,93.6842105263158,NA,NA
54868,Barron County,WI,NA,NA,88.13559322033898
54874,Douglas County,WI,98.94736842105263,NA,NA
54880,Douglas County,WI,NA,46.7866323907455,12.429378531073446
82240,Goshen County,WY,NA,NA,83.33333333333334
82718,Campbell County,WY,83.85964912280703,NA,NA
