ZipCode,county,state,Retirement,Geriatric
35404,Tuscaloosa County,AL,NA,78.12995245641838
35672,Lawrence County,AL,NA,92.23454833597464
35673,Morgan County,AL,92.02127659574468,NA
35757,Madison County,AL,NA,90.96671949286846
35769,Jackson County,AL,NA,74.48494453248811
36067,Autauga County,AL,53.45744680851063,NA
36081,Pike County,AL,NA,95.8795562599049
36301,Houston County,AL,NA,25.990491283676704
36305,Houston County,AL,71.27659574468085,NA
36426,Escambia County,AL,NA,71.94928684627575
36617,Mobile County,AL,NA,70.36450079239303
36619,Mobile County,AL,NA,85.41996830427892
99504,Anchorage Municipality,AK,47.07446808510639,NA
85120,Pinal County,AZ,40.159574468085104,NA
85201,Maricopa County,AZ,36.43617021276596,NA
85250,Maricopa County,AZ,89.36170212765957,NA
85255,Maricopa County,AZ,NA,29.4770206022187
85258,Maricopa County,AZ,NA,35.657686212361334
85326,Maricopa County,AZ,NA,64.97622820919176
85351,Maricopa County,AZ,NA,0.9508716323296356
85381,Maricopa County,AZ,NA,46.592709984152144
85541,Gila County,AZ,NA,30.903328050713153
85653,Pima County,AZ,42.02127659574468,NA
85737,Pima County,AZ,NA,46.43423137876387
85935,Navajo County,AZ,97.07446808510637,NA
86301,Yavapai County,AZ,NA,19.334389857369256
86305,Yavapai County,AZ,38.82978723404255,NA
86406,Mohave County,AZ,67.2872340425532,NA
71730,Union County,AR,NA,34.54833597464342
72002,Saline County,AR,76.59574468085107,NA
72076,Pulaski County,AR,41.22340425531915,NA
72086,Lonoke County,AR,NA,94.29477020602218
72104,Hot Spring County,AR,NA,60.538827258320126
72315,Mississippi County,AR,53.98936170212766,NA
72501,Independence County,AR,NA,32.48811410459588
72616,Carroll County,AR,NA,96.98890649762282
72701,Washington County,AR,73.93617021276596,NA
72703,Washington County,AR,NA,94.92868462757528
72704,Washington County,AR,NA,95.24564183835183
72714,Benton County,AR,NA,64.18383518225039
72715,Benton County,AR,NA,23.296354992076072
72740,Madison County,AR,98.13829787234043,NA
72802,Pope County,AR,NA,70.20602218700476
72921,Crawford County,AR,NA,80.3486529318542
90036,Los Angeles County,CA,NA,33.12202852614897
90255,Los Angeles County,CA,NA,74.80190174326465
90501,Los Angeles County,CA,NA,92.86846275752774
90606,Los Angeles County,CA,NA,50.396196513470684
90638,Los Angeles County,CA,43.61702127659575,NA
90640,Los Angeles County,CA,33.51063829787234,NA
90660,Los Angeles County,CA,40.691489361702125,NA
91208,Los Angeles County,CA,NA,76.70364500792392
91343,Los Angeles County,CA,NA,41.83835182250396
91784,San Bernardino County,CA,NA,42.313787638668785
92020,San Diego County,CA,NA,34.7068145800317
92028,San Diego County,CA,NA,47.22662440570523
92105,San Diego County,CA,NA,58.00316957210776
92118,San Diego County,CA,NA,39.936608557844686
92270,Riverside County,CA,7.180851063829788,NA
92354,San Bernardino County,CA,NA,61.17274167987322
92683,Orange County,CA,21.54255319148936,NA
93063,Ventura County,CA,28.98936170212766,NA
93454,Santa Barbara County,CA,NA,45.00792393026941
93618,Tulare County,CA,78.98936170212765,NA
93924,Monterey County,CA,NA,94.45324881141046
93940,Monterey County,CA,32.180851063829785,NA
94024,Santa Clara County,CA,NA,65.13470681458003
94109,San Francisco County,CA,NA,29.952456418383516
94510,Solano County,CA,NA,73.53407290015848
94546,Alameda County,CA,68.35106382978722,26.148969889064976
94547,Contra Costa County,CA,80.0531914893617,NA
94708,Alameda County,CA,NA,78.12995245641838
94903,Marin County,CA,NA,12.836767036450079
95116,Santa Clara County,CA,57.180851063829785,NA
95126,Santa Clara County,CA,NA,68.46275752773376
95355,Stanislaus County,CA,7.446808510638298,NA
95380,Stanislaus County,CA,NA,59.90491283676703
95403,Sonoma County,CA,NA,17.9080824088748
95409,Sonoma County,CA,NA,16.798732171156892
95501,Humboldt County,CA,38.56382978723404,80.19017432646592
95610,Sacramento County,CA,49.734042553191486,NA
95667,El Dorado County,CA,NA,1.7432646592709984
95762,El Dorado County,CA,42.819148936170215,NA
95834,Sacramento County,CA,83.77659574468085,NA
95835,Sacramento County,CA,NA,52.45641838351822
95838,Sacramento County,CA,NA,67.67036450079239
95926,Butte County,CA,31.117021276595747,NA
95948,Butte County,CA,NA,65.2931854199683
95954,Butte County,CA,73.40425531914893,NA
95961,Yuba County,CA,NA,93.026941362916
95969,Butte County,CA,4.787234042553192,NA
95991,Sutter County,CA,NA,44.532488114104595
96080,Tehama County,CA,30.851063829787233,NA
80012,Arapahoe County,CO,NA,21.077654516640255
80017,Arapahoe County,CO,53.72340425531915,NA
80026,Boulder County,CO,NA,70.68145800316957
80107,Elbert County,CO,83.77659574468085,NA
80120,Arapahoe County,CO,NA,52.139461172741676
80132,El Paso County,CO,65.42553191489363,NA
80210,Denver County,CO,61.43617021276596,NA
80905,El Paso County,CO,82.4468085106383,NA
80910,El Paso County,CO,63.03191489361703,NA
81001,Pueblo County,CO,48.40425531914894,NA
81004,Pueblo County,CO,NA,49.44532488114105
81005,Pueblo County,CO,26.329787234042552,38.03486529318542
81007,Pueblo County,CO,NA,84.78605388272584
81008,Pueblo County,CO,93.35106382978722,NA
81240,Fremont County,CO,NA,90.80824088748018
06032,Hartford County,CT,NA,82.7258320126783
06067,Hartford County,CT,71.01063829787235,NA
06071,Tolland County,CT,90.95744680851064,NA
06117,Hartford County,CT,NA,37.717908082408876
06460,New Haven County,CT,NA,71.15689381933439
06470,Fairfield County,CT,NA,79.7147385103011
06483,New Haven County,CT,NA,70.5229793977813
06488,New Haven County,CT,43.351063829787236,NA
06708,New Haven County,CT,39.8936170212766,NA
06716,New Haven County,CT,70.2127659574468,NA
06779,Litchfield County,CT,NA,77.81299524564183
06790,Litchfield County,CT,NA,6.3391442155309035
06880,Fairfield County,CT,68.61702127659575,NA
06902,Fairfield County,CT,NA,5.229793977812995
19707,New Castle County,DE,NA,50.55467511885895
19709,New Castle County,DE,NA,31.537242472266243
19711,New Castle County,DE,9.574468085106384,NA
19713,New Castle County,DE,33.244680851063826,NA
19720,New Castle County,DE,1.0638297872340425,NA
19802,New Castle County,DE,25,NA
19805,New Castle County,DE,NA,33.75594294770206
19808,New Castle County,DE,NA,7.131537242472266
32033,St. Johns County,FL,94.68085106382979,NA
32065,Clay County,FL,NA,78.92234548335975
32080,St. Johns County,FL,25.53191489361702,NA
32137,Flagler County,FL,5.585106382978723,NA
32159,Lake County,FL,NA,33.28050713153724
32162,Sumter County,FL,0.26595744680851063,3.011093502377179
32174,Volusia County,FL,11.170212765957446,NA
32208,Duval County,FL,3.723404255319149,43.74009508716323
32209,Duval County,FL,14.627659574468085,NA
32217,Duval County,FL,51.59574468085106,NA
32219,Duval County,FL,72.3404255319149,NA
32221,Duval County,FL,NA,45.95879556259905
32225,Duval County,FL,NA,17.27416798732171
32244,Duval County,FL,NA,37.24247226624406
32254,Duval County,FL,74.20212765957447,NA
32301,Leon County,FL,77.92553191489363,NA
32308,Leon County,FL,NA,38.193343898573694
32310,Leon County,FL,NA,97.78129952456418
32439,Walton County,FL,NA,72.10776545166404
32460,Jackson County,FL,NA,97.93977812995246
32503,Escambia County,FL,15.425531914893616,NA
32506,Escambia County,FL,NA,16.64025356576862
32507,Escambia County,FL,12.76595744680851,NA
32526,Escambia County,FL,8.77659574468085,NA
32570,Santa Rosa County,FL,NA,11.727416798732172
32726,Lake County,FL,NA,40.09508716323296
32751,Orange County,FL,NA,52.931854199683045
32757,Lake County,FL,NA,38.985736925515056
32776,Lake County,FL,NA,94.61172741679873
32806,Orange County,FL,84.57446808510637,NA
32819,Orange County,FL,77.3936170212766,NA
32820,Orange County,FL,NA,97.46434231378764
32908,Brevard County,FL,88.82978723404256,NA
32909,Brevard County,FL,35.638297872340424,NA
32926,Brevard County,FL,50.26595744680851,NA
32931,Brevard County,FL,72.07446808510637,NA
32935,Brevard County,FL,NA,24.722662440570524
32952,Brevard County,FL,NA,21.236133122028527
32955,Brevard County,FL,25.53191489361702,NA
32966,Indian River County,FL,NA,19.01743264659271
33021,Broward County,FL,27.393617021276594,NA
33040,Monroe County,FL,47.340425531914896,NA
33063,Broward County,FL,NA,12.995245641838352
33150,Miami-Dade County,FL,NA,69.09667194928684
33162,Miami-Dade County,FL,66.75531914893617,NA
33182,Miami-Dade County,FL,NA,83.35974643423137
33313,Broward County,FL,46.54255319148936,NA
33426,Palm Beach County,FL,NA,54.04120443740095
33428,Palm Beach County,FL,NA,19.492868462757528
33434,Palm Beach County,FL,NA,5.705229793977813
33437,Palm Beach County,FL,NA,0.15847860538827258
33442,Broward County,FL,NA,10.618066561014263
33445,Palm Beach County,FL,NA,66.08557844690966
33473,Palm Beach County,FL,NA,93.6608557844691
33496,Palm Beach County,FL,NA,6.9730586370839935
33541,Pasco County,FL,NA,23.771790808240887
33563,Hillsborough County,FL,65.95744680851064,NA
33607,Hillsborough County,FL,NA,62.75752773375595
33611,Hillsborough County,FL,64.8936170212766,NA
33618,Hillsborough County,FL,NA,36.450079239302696
33629,Hillsborough County,FL,NA,87.95562599049128
33706,Pinellas County,FL,NA,42.789223454833596
33710,Pinellas County,FL,81.11702127659575,NA
33884,Polk County,FL,NA,31.378763866877975
33898,Polk County,FL,NA,51.66402535657686
33919,Lee County,FL,NA,3.8034865293185423
33950,Charlotte County,FL,NA,27.575277337559427
33957,Lee County,FL,78.72340425531915,NA
33981,Charlotte County,FL,76.06382978723404,NA
33990,Lee County,FL,44.9468085106383,NA
34103,Collier County,FL,NA,38.35182250396196
34108,Collier County,FL,NA,32.9635499207607
34109,Collier County,FL,62.5,66.40253565768622
34110,Collier County,FL,NA,15.055467511885896
34112,Collier County,FL,NA,22.979397781299525
34120,Collier County,FL,47.87234042553192,NA
34134,Lee County,FL,67.81914893617021,NA
34145,Collier County,FL,48.67021276595745,31.2202852614897
34203,Manatee County,FL,NA,18.38351822503962
34207,Manatee County,FL,NA,54.83359746434231
34209,Manatee County,FL,24.20212765957447,NA
34292,Sarasota County,FL,NA,13.312202852614895
34471,Marion County,FL,NA,51.347068145800314
34476,Marion County,FL,NA,30.269413629160063
34684,Pinellas County,FL,NA,13.787638668779714
34758,Osceola County,FL,55.053191489361694,NA
30024,Gwinnett County,GA,NA,41.83835182250396
30032,DeKalb County,GA,NA,26.62440570522979
30041,Forsyth County,GA,10.638297872340425,NA
30075,Fulton County,GA,NA,48.01901743264659
30076,Fulton County,GA,48.93617021276596,NA
30083,DeKalb County,GA,NA,52.931854199683045
30096,Gwinnett County,GA,33.77659574468085,NA
30121,Bartow County,GA,61.170212765957444,NA
30144,Cobb County,GA,NA,58.9540412044374
30153,Polk County,GA,NA,87.00475435816165
30252,Henry County,GA,NA,71.6323296354992
30281,Henry County,GA,59.840425531914896,NA
30310,Fulton County,GA,16.75531914893617,NA
30327,Fulton County,GA,NA,62.28209191759112
30340,DeKalb County,GA,NA,67.35340729001584
30345,DeKalb County,GA,83.51063829787235,NA
30349,Fulton County,GA,10.904255319148938,NA
30501,Hall County,GA,72.6063829787234,NA
30506,Hall County,GA,22.606382978723406,NA
30513,Fannin County,GA,75.79787234042553,NA
30518,Gwinnett County,GA,39.361702127659576,NA
30534,Dawson County,GA,NA,65.76862123613311
30548,Jackson County,GA,55.58510638297872,NA
30606,Clarke County,GA,NA,32.01267828843106
30607,Clarke County,GA,NA,95.08716323296355
30628,Madison County,GA,97.6063829787234,NA
30643,Hart County,GA,NA,64.65927099841522
30662,Franklin County,GA,NA,92.55150554675119
30707,Walker County,GA,68.08510638297872,NA
30813,Columbia County,GA,44.680851063829785,NA
30909,Richmond County,GA,NA,28.367670364500793
31503,Ware County,GA,NA,57.36925515055468
31833,Troup County,GA,NA,96.67194928684627
96720,Hawaii County,HI,28.45744680851064,NA
96819,Honolulu County,HI,NA,24.088748019017434
83201,Bannock County,ID,NA,35.49920760697306
83530,Idaho County,ID,86.96808510638297,NA
83607,Canyon County,ID,NA,89.85736925515056
83616,Ada County,ID,NA,16.00633914421553
83704,Ada County,ID,26.861702127659576,NA
60015,Lake County,IL,30.0531914893617,NA
60020,Lake County,IL,NA,77.4960380348653
60025,Cook County,IL,3.1914893617021276,4.437400950871632
60035,Lake County,IL,NA,20.760697305863708
60048,Lake County,IL,30.585106382978722,NA
60076,Cook County,IL,NA,18.700475435816163
60098,McHenry County,IL,14.361702127659576,15.055467511885896
60106,DuPage County,IL,68.88297872340425,NA
60142,McHenry County,IL,9.840425531914894,2.694136291600634
60185,DuPage County,IL,NA,52.6148969889065
60443,Cook County,IL,NA,49.28684627575277
60455,Cook County,IL,55.85106382978723,NA
60477,Cook County,IL,NA,12.202852614896988
60561,DuPage County,IL,NA,69.88906497622821
60625,Cook County,IL,NA,21.394611727416798
60626,Cook County,IL,5.319148936170213,NA
60645,Cook County,IL,23.670212765957448,NA
60649,Cook County,IL,7.712765957446808,NA
60827,Cook County,IL,61.702127659574465,NA
61109,Winnebago County,IL,52.3936170212766,NA
61282,Rock Island County,IL,NA,90.33280507131536
61301,LaSalle County,IL,NA,63.39144215530903
61443,Henry County,IL,57.446808510638306,25.198098256735342
61520,Fulton County,IL,NA,34.0729001584786
61944,Edgar County,IL,61.96808510638297,NA
61951,Moultrie County,IL,NA,83.8351822503962
62056,Montgomery County,IL,NA,59.42947702060222
62205,St. Clair County,IL,86.43617021276596,NA
62206,St. Clair County,IL,NA,91.60063391442155
62226,St. Clair County,IL,NA,29.635499207606976
62260,St. Clair County,IL,93.08510638297872,NA
62704,Sangamon County,IL,NA,16.164817749603806
62711,Sangamon County,IL,NA,47.22662440570523
62839,Clay County,IL,83.24468085106383,NA
62960,Massac County,IL,82.97872340425532,NA
46016,Madison County,IN,34.840425531914896,NA
46062,Hamilton County,IN,17.5531914893617,NA
46143,Johnson County,IN,17.5531914893617,NA
46201,Marion County,IN,39.09574468085106,NA
46204,Marion County,IN,NA,98.41521394611728
46229,Marion County,IN,NA,41.20443740095087
46350,LaPorte County,IN,NA,20.126782884310618
46360,LaPorte County,IN,NA,20.760697305863708
46375,Lake County,IN,NA,27.099841521394612
46552,St. Joseph County,IN,96.54255319148936,NA
46567,Kosciusko County,IN,96.27659574468085,NA
46614,St. Joseph County,IN,60.37234042553191,NA
46706,DeKalb County,IN,NA,35.8161648177496
46804,Allen County,IN,28.723404255319153,40.253565768621236
46901,Howard County,IN,1.8617021276595744,6.022187004754358
47240,Decatur County,IN,NA,30.58637083993661
47362,Henry County,IN,11.436170212765957,NA
47441,Greene County,IN,NA,60.063391442155314
47715,Vanderburgh County,IN,NA,15.847860538827257
47802,Vigo County,IN,45.21276595744681,37.5594294770206
47918,Fountain County,IN,NA,87.48019017432647
50126,Hardin County,IA,NA,66.24405705229795
50158,Marshall County,IA,NA,31.695721077654515
50401,Cerro Gordo County,IA,NA,1.2678288431061806
50595,Hamilton County,IA,NA,73.85103011093503
50613,Black Hawk County,IA,12.23404255319149,4.120443740095087
51106,Woodbury County,IA,54.25531914893617,NA
51351,Dickinson County,IA,NA,87.63866877971473
51501,Pottawattamie County,IA,NA,32.80507131537242
52246,Johnson County,IA,NA,34.389857369255154
52544,Appanoose County,IA,52.92553191489362,NA
52601,Des Moines County,IA,NA,14.896988906497624
52732,Clinton County,IA,NA,45.64183835182251
66062,Johnson County,KS,15.957446808510639,NA
66086,Leavenworth County,KS,NA,94.13629160063391
66203,Johnson County,KS,NA,69.73058637083994
66215,Johnson County,KS,NA,43.10618066561015
66224,Johnson County,KS,NA,92.55150554675119
67147,Sedgwick County,KS,96.80851063829788,NA
67501,Reno County,KS,NA,89.38193343898574
40165,Bullitt County,KY,57.71276595744681,NA
40215,Jefferson County,KY,NA,89.06497622820919
40222,Jefferson County,KY,NA,28.84310618066561
40291,Jefferson County,KY,19.414893617021274,NA
40330,Mercer County,KY,59.04255319148937,NA
40351,Rowan County,KY,NA,31.061806656101425
40356,Jessamine County,KY,26.861702127659576,NA
40383,Woodford County,KY,48.138297872340424,NA
40403,Madison County,KY,46.01063829787234,29.00158478605388
40509,Fayette County,KY,NA,44.849445324881145
40741,Laurel County,KY,NA,51.50554675118859
41017,Kenton County,KY,22.872340425531913,NA
41042,Boone County,KY,NA,3.6450079239302693
41240,Johnson County,KY,NA,74.16798732171156
41339,Breathitt County,KY,77.6595744680851,93.50237717908082
41522,Pike County,KY,NA,94.61172741679873
42003,McCracken County,KY,16.48936170212766,NA
42071,Calloway County,KY,47.6063829787234,NA
42141,Barren County,KY,NA,9.8256735340729
42303,Daviess County,KY,20.74468085106383,NA
42330,Muhlenberg County,KY,NA,82.7258320126783
70001,Jefferson Parish,LA,NA,10.301109350237718
70003,Jefferson Parish,LA,1.3297872340425532,NA
70124,Orleans Parish,LA,80.31914893617021,NA
70345,Lafourche Parish,LA,NA,80.03169572107765
70512,St. Landry Parish,LA,79.52127659574468,NA
70563,Iberia Parish,LA,NA,62.12361331220285
70663,Calcasieu Parish,LA,NA,47.22662440570523
71111,Bossier Parish,LA,13.563829787234042,NA
71203,Ouachita Parish,LA,NA,97.1473851030111
04090,York County,ME,34.308510638297875,NA
04210,Androscoggin County,ME,NA,11.251980982567353
04473,Penobscot County,ME,NA,82.56735340729001
04901,Kennebec County,ME,NA,4.91283676703645
20735,Prince George's County,MD,NA,67.82884310618067
20854,Montgomery County,MD,37.765957446808514,NA
21014,Harford County,MD,NA,75.91125198098257
21078,Harford County,MD,NA,68.77971473851031
21085,Harford County,MD,NA,78.76386687797148
21108,Anne Arundel County,MD,NA,99.68304278922345
21146,Anne Arundel County,MD,52.92553191489362,NA
21206,Baltimore city,MD,11.96808510638298,NA
21212,Baltimore city,MD,NA,37.87638668779715
21230,Baltimore city,MD,57.97872340425532,NA
21901,Cecil County,MD,NA,83.51822503961965
21918,Cecil County,MD,99.7340425531915,NA
01056,Hampden County,MA,NA,79.87321711568937
01119,Hampden County,MA,NA,99.84152139461173
01720,Middlesex County,MA,NA,42.63074484944532
01748,Middlesex County,MA,NA,61.33122028526149
01760,Middlesex County,MA,5.851063829787234,NA
01841,Essex County,MA,NA,25.51505546751189
01902,Essex County,MA,NA,2.535657686212361
01905,Essex County,MA,NA,55.62599049128367
01913,Essex County,MA,9.042553191489363,NA
01938,Essex County,MA,NA,45.32488114104596
01970,Essex County,MA,NA,6.497622820919176
02148,Middlesex County,MA,27.659574468085108,NA
02301,Plymouth County,MA,NA,1.109350237717908
02445,Norfolk County,MA,NA,32.17115689381934
02494,Norfolk County,MA,NA,48.652931854199686
02537,Barnstable County,MA,NA,79.55625990491284
02633,Barnstable County,MA,NA,65.45166402535658
02638,Barnstable County,MA,NA,84.9445324881141
02642,Barnstable County,MA,96.01063829787235,NA
02721,Bristol County,MA,NA,11.410459587955627
02745,Bristol County,MA,6.648936170212766,NA
02777,Bristol County,MA,NA,39.61965134706815
48072,Oakland County,MI,58.77659574468085,NA
48088,Macomb County,MI,NA,22.503961965134707
48126,Wayne County,MI,NA,16.48177496038035
48154,Wayne County,MI,NA,5.54675118858954
48161,Monroe County,MI,21.808510638297875,39.144215530903324
48230,Wayne County,MI,41.755319148936174,NA
48240,Wayne County,MI,NA,68.30427892234549
48314,Macomb County,MI,43.08510638297872,27.892234548335974
48446,Lapeer County,MI,NA,21.870047543581617
48506,Genesee County,MI,NA,55.467511885895405
48603,Saginaw County,MI,NA,10.142630744849445
48640,Midland County,MI,14.095744680851062,NA
48647,Oscoda County,MI,NA,93.34389857369256
48732,Bay County,MI,NA,56.57686212361332
48746,Tuscola County,MI,NA,88.74801901743264
48801,Gratiot County,MI,NA,33.914421553090335
48837,Eaton County,MI,36.43617021276596,NA
48850,Montcalm County,MI,NA,93.026941362916
48854,Ingham County,MI,NA,64.34231378763867
48888,Montcalm County,MI,NA,75.59429477020603
49090,Van Buren County,MI,NA,74.64342313787638
49203,Jackson County,MI,5.053191489361701,NA
49251,Ingham County,MI,NA,97.62282091917591
49421,Oceana County,MI,NA,91.75911251980983
49426,Ottawa County,MI,NA,25.83201267828843
49460,Ottawa County,MI,NA,91.28367670364501
49504,Kent County,MI,NA,8.082408874801903
49519,Kent County,MI,NA,72.42472266244057
49525,Kent County,MI,NA,40.41204437400951
49546,Kent County,MI,35.1063829787234,14.73851030110935
49548,Kent County,MI,13.031914893617023,NA
49685,Grand Traverse County,MI,NA,48.811410459587954
49738,Crawford County,MI,NA,87.3217115689382
49855,Marquette County,MI,NA,27.733755942947703
49931,Houghton County,MI,NA,73.85103011093503
55008,Isanti County,MN,NA,74.32646592709983
55013,Chisago County,MN,NA,81.29952456418383
55016,Washington County,MN,89.09574468085107,NA
55033,Dakota County,MN,NA,32.64659270998415
55075,Dakota County,MN,NA,75.91125198098257
55106,Ramsey County,MN,NA,53.24881141045958
55113,Ramsey County,MN,51.06382978723404,27.258320126782888
55116,Ramsey County,MN,NA,53.88272583201268
55118,Dakota County,MN,46.808510638297875,NA
55119,Ramsey County,MN,NA,43.89857369255151
55125,Washington County,MN,NA,40.729001584786054
55127,Ramsey County,MN,NA,75.1188589540412
55128,Washington County,MN,NA,52.6148969889065
55331,Hennepin County,MN,78.45744680851064,NA
55407,Hennepin County,MN,NA,58.478605388272584
55418,Hennepin County,MN,41.22340425531915,NA
55426,Hennepin County,MN,NA,39.77812995245642
55427,Hennepin County,MN,NA,57.05229793977813
55433,Anoka County,MN,NA,45.48335974643423
55441,Hennepin County,MN,89.62765957446808,NA
55443,Hennepin County,MN,NA,62.4405705229794
55449,Anoka County,MN,74.46808510638297,NA
55901,Olmsted County,MN,NA,49.128367670364504
55902,Olmsted County,MN,NA,66.87797147385103
55987,Winona County,MN,NA,2.0602218700475436
56073,Brown County,MN,12.5,NA
56156,Rock County,MN,NA,37.08399366085578
56464,Wadena County,MN,94.14893617021278,NA
56601,Beltrami County,MN,NA,1.4263074484944533
38701,Washington County,MS,NA,98.57369255150554
38852,Tishomingo County,MS,91.48936170212765,NA
39180,Warren County,MS,NA,38.66877971473851
39466,Pearl River County,MS,NA,22.028526148969892
39532,Harrison County,MS,20.47872340425532,NA
39577,Stone County,MS,NA,87.00475435816165
63010,Jefferson County,MO,NA,22.18700475435816
63028,Jefferson County,MO,NA,48.17749603803487
63033,St. Louis County,MO,NA,6.180665610142631
63077,Franklin County,MO,75.2659574468085,NA
63084,Franklin County,MO,93.88297872340425,46.275752773375594
63107,St. Louis city,MO,79.25531914893617,NA
63114,St. Louis County,MO,NA,40.57052297939778
63119,St. Louis County,MO,NA,7.923930269413629
63129,St. Louis County,MO,NA,9.033280507131538
63146,St. Louis County,MO,37.234042553191486,NA
63301,St. Charles County,MO,NA,3.328050713153724
63304,St. Charles County,MO,NA,19.968304278922343
63366,St. Charles County,MO,2.6595744680851063,NA
63376,St. Charles County,MO,NA,4.754358161648177
63650,Iron County,MO,95.47872340425532,NA
63701,Cape Girardeau County,MO,44.41489361702128,25.673534072900157
63755,Cape Girardeau County,MO,85.90425531914893,NA
63857,Dunklin County,MO,NA,78.44690966719493
64052,Jackson County,MO,40.95744680851064,NA
64080,Cass County,MO,NA,88.27258320126784
64085,Ray County,MO,NA,54.199683042789225
64106,Jackson County,MO,65.69148936170212,NA
64152,Platte County,MO,40.42553191489361,NA
64505,Buchanan County,MO,25.53191489361702,NA
64744,Cedar County,MO,86.70212765957447,NA
64836,Jasper County,MO,NA,18.225039619651348
65049,Camden County,MO,NA,79.39778129952457
65065,Camden County,MO,NA,67.98732171156894
65066,Gasconade County,MO,91.75531914893617,NA
65202,Boone County,MO,NA,18.066561014263076
65401,Phelps County,MO,18.351063829787233,84.46909667194929
65559,Phelps County,MO,95.74468085106383,NA
65583,Pulaski County,MO,92.2872340425532,95.56259904912837
65619,Greene County,MO,NA,96.19651347068145
65625,Barry County,MO,NA,77.33755942947703
65711,Wright County,MO,NA,81.61648177496038
65714,Christian County,MO,NA,43.264659270998415
65721,Christian County,MO,NA,51.188589540412046
65742,Webster County,MO,NA,63.23296354992076
65775,Howell County,MO,NA,53.56576862123613
65802,Greene County,MO,NA,23.454833597464344
65803,Greene County,MO,11.702127659574469,59.42947702060222
65807,Greene County,MO,NA,6.814580031695722
59102,Yellowstone County,MT,NA,1.5847860538827259
59840,Ravalli County,MT,NA,44.057052297939784
68132,Douglas County,NE,91.22340425531915,NA
68310,Gage County,NE,NA,18.858954041204438
68434,Seward County,NE,NA,78.44690966719493
68510,Lancaster County,NE,NA,80.98256735340729
68516,Lancaster County,NE,NA,49.44532488114105
68847,Buffalo County,NE,NA,58.63708399366085
89118,Clark County,NV,NA,89.69889064976229
89145,Clark County,NV,81.64893617021278,NA
89147,Clark County,NV,55.319148936170215,NA
89433,Washoe County,NV,64.36170212765957,NA
89434,Washoe County,NV,NA,38.51030110935024
89509,Washoe County,NV,NA,68.1458003169572
89512,Washoe County,NV,NA,81.77496038034865
03038,Rockingham County,NH,17.02127659574468,NA
03052,Hillsborough County,NH,81.38297872340425,NA
03054,Hillsborough County,NH,18.882978723404257,NA
03087,Rockingham County,NH,60.63829787234043,NA
03461,Cheshire County,NH,97.87234042553192,NA
03878,Strafford County,NH,NA,71.79080824088749
07014,Passaic County,NJ,99.20212765957447,NA
07022,Bergen County,NJ,NA,67.0364500792393
07026,Bergen County,NJ,NA,46.11727416798732
07075,Bergen County,NJ,NA,86.05388272583201
07094,Hudson County,NJ,NA,63.70839936608558
07104,Essex County,NJ,2.127659574468085,NA
07110,Essex County,NJ,NA,59.11251980982567
07401,Bergen County,NJ,98.93617021276596,NA
07410,Bergen County,NJ,29.78723404255319,35.182250396196515
07430,Bergen County,NJ,86.17021276595744,NA
07607,Bergen County,NJ,NA,85.57844690966719
07652,Bergen County,NJ,NA,12.361331220285262
07728,Monmouth County,NJ,NA,3.4865293185419968
07734,Monmouth County,NJ,NA,68.62123613312204
07753,Monmouth County,NJ,NA,11.09350237717908
08005,Ocean County,NJ,NA,19.809825673534075
08022,Burlington County,NJ,NA,85.10301109350237
08037,Atlantic County,NJ,NA,23.93026941362916
08046,Burlington County,NJ,29.521276595744684,NA
08053,Burlington County,NJ,29.25531914893617,NA
08083,Camden County,NJ,76.86170212765957,NA
08091,Camden County,NJ,NA,96.35499207606973
08232,Atlantic County,NJ,NA,70.99841521394612
08312,Gloucester County,NJ,94.9468085106383,NA
08330,Atlantic County,NJ,NA,51.66402535657686
08527,Ocean County,NJ,4.521276595744681,NA
08619,Mercer County,NJ,NA,56.1014263074485
08620,Mercer County,NJ,NA,95.4041204437401
08648,Mercer County,NJ,NA,54.67511885895404
08701,Ocean County,NJ,8.51063829787234,2.8526148969889067
08723,Ocean County,NJ,NA,41.0459587955626
08724,Ocean County,NJ,NA,19.17591125198098
08734,Ocean County,NJ,94.41489361702128,NA
08753,Ocean County,NJ,2.393617021276596,11.568938193343898
08757,Ocean County,NJ,NA,0.4754358161648178
08759,Ocean County,NJ,NA,0
08857,Middlesex County,NJ,15.957446808510639,NA
08861,Middlesex County,NJ,NA,22.820919175911254
08879,Middlesex County,NJ,NA,71.47385103011094
87532,Santa Fe County,NM,NA,56.418383518225035
88005,Doa Ana County,NM,NA,51.98098256735341
10010,New York County,NY,63.03191489361703,NA
10019,New York County,NY,NA,26.782884310618066
10040,New York County,NY,NA,34.23137876386688
10562,Westchester County,NY,NA,93.97781299524564
11010,Nassau County,NY,NA,48.96988906497623
11203,Kings County,NY,NA,8.240887480190175
11206,Kings County,NY,0,NA
11224,Kings County,NY,NA,2.218700475435816
11234,Kings County,NY,NA,55.150554675118855
11372,Queens County,NY,NA,64.02535657686212
11385,Queens County,NY,NA,36.925515055467514
11427,Queens County,NY,NA,67.19492868462757
11590,Nassau County,NY,NA,26.94136291600634
11692,Queens County,NY,75,NA
11702,Suffolk County,NY,NA,86.37083993660856
11706,Suffolk County,NY,NA,57.68621236133122
11721,Suffolk County,NY,NA,99.52456418383518
11725,Suffolk County,NY,NA,23.613312202852615
11727,Suffolk County,NY,NA,42.313787638668785
11743,Suffolk County,NY,NA,16.323296354992074
11746,Suffolk County,NY,NA,9.19175911251981
11752,Suffolk County,NY,NA,89.06497622820919
11757,Suffolk County,NY,NA,29.635499207606976
11795,Suffolk County,NY,NA,30.427892234548338
12309,Schenectady County,NY,NA,77.97147385103011
12522,Dutchess County,NY,NA,100
12534,Columbia County,NY,NA,16.957210776545168
13104,Onondaga County,NY,50.53191489361703,NA
13118,Cayuga County,NY,NA,95.72107765451663
13219,Onondaga County,NY,54.52127659574468,NA
13346,Madison County,NY,87.2340425531915,NA
13790,Broome County,NY,NA,91.9175911251981
14072,Erie County,NY,39.62765957446808,NA
14092,Niagara County,NY,NA,50.55467511885895
14221,Erie County,NY,NA,51.03011093502378
14224,Erie County,NY,NA,47.068145800316955
14519,Wayne County,NY,31.382978723404253,NA
14701,Chautauqua County,NY,NA,14.263074484944532
27028,Davie County,NC,42.5531914893617,NA
27107,Forsyth County,NC,NA,2.3771790808240887
27215,Alamance County,NC,NA,8.716323296354993
27288,Rockingham County,NC,NA,42.94770206022187
27511,Wake County,NC,NA,37.400950871632325
27604,Wake County,NC,NA,61.489698890649755
27823,Halifax County,NC,NA,87.79714738510302
28025,Cabarrus County,NC,NA,10.935023771790808
28079,Union County,NC,NA,44.69096671949287
28081,Cabarrus County,NC,NA,86.6877971473851
28110,Union County,NC,NA,17.27416798732171
28412,New Hanover County,NC,NA,30.11093502377179
28601,Catawba County,NC,NA,20.44374009508716
28607,Watauga County,NC,NA,46.90966719492869
28621,Surry County,NC,56.64893617021277,NA
28625,Iredell County,NC,19.9468085106383,NA
28630,Caldwell County,NC,45.744680851063826,NA
28705,Mitchell County,NC,NA,88.11410459587957
28712,Transylvania County,NC,NA,9.508716323296355
28734,Macon County,NC,6.382978723404255,3.9619651347068143
28739,Henderson County,NC,NA,9.350237717908081
28741,Macon County,NC,90.69148936170212,NA
28752,McDowell County,NC,13.297872340425531,29.160063391442154
28759,Henderson County,NC,NA,57.2107765451664
28768,Transylvania County,NC,67.5531914893617,NA
28778,Buncombe County,NC,NA,81.93343898573693
28786,Haywood County,NC,19.680851063829788,NA
28787,Buncombe County,NC,79.52127659574468,NA
28791,Henderson County,NC,NA,53.40729001584786
28792,Henderson County,NC,9.308510638297872,NA
28806,Buncombe County,NC,80.58510638297872,NA
58301,Ramsey County,ND,NA,67.35340729001584
58504,Burleigh County,ND,NA,20.44374009508716
58701,Ward County,ND,NA,1.9017432646592711
58703,Ward County,ND,NA,28.209191759112517
43021,Delaware County,OH,NA,80.50713153724247
43025,Licking County,OH,87.7659574468085,NA
43110,Franklin County,OH,NA,69.09667194928684
43138,Hocking County,OH,NA,35.97464342313788
43204,Franklin County,OH,NA,44.21553090332805
43207,Franklin County,OH,NA,76.38668779714739
43224,Franklin County,OH,54.78723404255319,NA
43232,Franklin County,OH,15.159574468085108,NA
43235,Franklin County,OH,NA,31.85419968304279
43302,Marion County,OH,NA,4.27892234548336
43334,Morrow County,OH,NA,99.20760697305863
43605,Lucas County,OH,NA,86.52931854199683
43938,Jefferson County,OH,NA,73.69255150554676
43964,Jefferson County,OH,NA,72.74167987321711
44060,Lake County,OH,NA,0.31695721077654515
44104,Cuyahoga County,OH,21.01063829787234,NA
44125,Cuyahoga County,OH,NA,7.765451664025356
44203,Summit County,OH,6.914893617021277,5.863708399366086
44212,Medina County,OH,NA,3.1695721077654517
44266,Portage County,OH,NA,5.388272583201268
44301,Summit County,OH,59.308510638297875,NA
44310,Summit County,OH,23.404255319148938,NA
44313,Summit County,OH,17.287234042553195,NA
44319,Summit County,OH,NA,22.345483359746435
44436,Mahoning County,OH,NA,90.49128367670365
44512,Mahoning County,OH,NA,18.54199683042789
44612,Tuscarawas County,OH,NA,88.4310618066561
44646,Stark County,OH,NA,20.28526148969889
44663,Tuscarawas County,OH,NA,12.678288431061807
44691,Wayne County,OH,NA,14.421553090332806
44708,Stark County,OH,35.90425531914894,NA
44720,Stark County,OH,NA,15.372424722662439
45011,Butler County,OH,NA,12.519809825673534
45013,Butler County,OH,0.7978723404255319,NA
45014,Butler County,OH,21.27659574468085,21.71156893819334
45069,Butler County,OH,19.148936170212767,NA
45103,Clermont County,OH,NA,58.16164817749604
45140,Clermont County,OH,NA,24.405705229793977
45244,Hamilton County,OH,NA,77.4960380348653
45246,Hamilton County,OH,NA,90.01584786053883
45432,Greene County,OH,NA,64.50079239302694
45601,Ross County,OH,0.5319148936170213,NA
45619,Lawrence County,OH,NA,89.54041204437401
45640,Jackson County,OH,3.9893617021276597,NA
45692,Jackson County,OH,36.96808510638298,NA
73003,Oklahoma County,OK,64.62765957446808,NA
73013,Oklahoma County,OK,8.24468085106383,11.885895404120443
73034,Oklahoma County,OK,52.659574468085104,NA
73064,Canadian County,OK,49.46808510638298,NA
73096,Custer County,OK,82.4468085106383,NA
73099,Canadian County,OK,4.25531914893617,NA
73111,Oklahoma County,OK,69.68085106382979,NA
73115,Oklahoma County,OK,NA,39.461172741679874
73135,Oklahoma County,OK,87.5,NA
73160,Cleveland County,OK,NA,66.56101426307448
73170,Cleveland County,OK,NA,8.399366085578446
73701,Garfield County,OK,NA,29.160063391442154
73703,Garfield County,OK,NA,10.45958795562599
74006,Washington County,OK,NA,69.57210776545166
74011,Tulsa County,OK,NA,55.942947702060216
74012,Tulsa County,OK,71.54255319148936,NA
74014,Wagoner County,OK,66.22340425531915,53.724247226624414
74020,Pawnee County,OK,NA,97.30586370839937
74063,Tulsa County,OK,43.88297872340425,NA
74129,Tulsa County,OK,84.30851063829788,NA
74133,Tulsa County,OK,22.872340425531913,11.885895404120443
74145,Tulsa County,OK,NA,61.806656101426306
74601,Kay County,OK,62.76595744680851,NA
74604,Kay County,OK,NA,54.516640253565775
74820,Pontotoc County,OK,2.925531914893617,NA
74871,Pontotoc County,OK,100,NA
97055,Clackamas County,OR,NA,54.35816164817749
97206,Multnomah County,OR,24.73404255319149,NA
97330,Benton County,OR,30.319148936170215,NA
97355,Linn County,OR,NA,7.448494453248812
97471,Douglas County,OR,NA,13.153724247226625
97526,Josephine County,OR,36.17021276595745,NA
97527,Josephine County,OR,20.212765957446805,NA
97532,Josephine County,OR,NA,96.513470681458
97739,Deschutes County,OR,NA,80.82408874801902
97850,Union County,OR,NA,49.76228209191759
15129,Allegheny County,PA,81.91489361702128,NA
15137,Allegheny County,PA,NA,64.81774960380349
15229,Allegheny County,PA,NA,56.89381933438986
15522,Bedford County,PA,NA,57.84469096671949
15530,Somerset County,PA,NA,85.73692551505546
15601,Westmoreland County,PA,NA,0.7923930269413629
15904,Cambria County,PA,NA,22.979397781299525
15931,Cambria County,PA,66.48936170212765,NA
15946,Cambria County,PA,89.8936170212766,NA
16063,Butler County,PA,NA,60.697305863708394
16127,Mercer County,PA,NA,24.564183835182252
16142,Lawrence County,PA,NA,92.07606973058637
16510,Erie County,PA,NA,25.039619651347067
16701,McKean County,PA,24.46808510638298,NA
16830,Clearfield County,PA,32.97872340425532,NA
16866,Centre County,PA,NA,55.62599049128367
17025,Cumberland County,PA,NA,73.21711568938193
17053,Perry County,PA,NA,98.25673534072901
17055,Cumberland County,PA,NA,7.6069730586370845
17078,Lebanon County,PA,10.106382978723403,NA
17113,Dauphin County,PA,NA,82.0919175911252
17202,Franklin County,PA,NA,15.530903328050712
17316,Adams County,PA,85.1063829787234,NA
17543,Lancaster County,PA,10.372340425531915,NA
17948,Schuylkill County,PA,NA,99.04912836767036
18011,Lehigh County,PA,99.46808510638297,NA
18013,Northampton County,PA,NA,54.99207606973059
18018,Lehigh County,PA,NA,44.37400950871632
18049,Lehigh County,PA,NA,70.83993660855784
18052,Lehigh County,PA,NA,24.088748019017434
18062,Lehigh County,PA,NA,65.61014263074485
18067,Northampton County,PA,32.4468085106383,41.521394611727416
18102,Lehigh County,PA,62.23404255319149,NA
18103,Lehigh County,PA,3.4574468085106385,9.667194928684628
18104,Lehigh County,PA,NA,47.70206022187005
18249,Luzerne County,PA,NA,98.09825673534073
18411,Lackawanna County,PA,60.90425531914894,NA
18517,Lackawanna County,PA,NA,88.58954041204437
18612,Luzerne County,PA,NA,35.02377179080824
18702,Luzerne County,PA,NA,6.656101426307448
19006,Montgomery County,PA,35.37234042553192,NA
19010,Delaware County,PA,46.27659574468085,NA
19018,Delaware County,PA,NA,61.96513470681458
19020,Bucks County,PA,NA,13.47068145800317
19027,Montgomery County,PA,38.297872340425535,NA
19053,Bucks County,PA,NA,48.17749603803487
19067,Bucks County,PA,6.117021276595745,46.75118858954041
19111,Philadelphia County,PA,NA,13.629160063391444
19128,Philadelphia County,PA,31.914893617021278,NA
19440,Montgomery County,PA,NA,69.09667194928684
19510,Berks County,PA,97.3404255319149,NA
19608,Berks County,PA,NA,48.49445324881141
02852,Washington County,RI,NA,36.13312202852615
02860,Providence County,RI,NA,5.071315372424722
02879,Washington County,RI,NA,34.7068145800317
02882,Washington County,RI,NA,73.05863708399366
02920,Providence County,RI,NA,9.984152139461171
29020,Kershaw County,SC,38.03191489361702,NA
29063,Richland County,SC,NA,58.32012678288431
29072,Lexington County,SC,31.648936170212767,NA
29102,Clarendon County,SC,NA,56.25990491283677
29180,Fairfield County,SC,NA,84.62757527733757
29306,Spartanburg County,SC,NA,76.8621236133122
29418,Charleston County,SC,88.56382978723404,NA
29617,Greenville County,SC,NA,33.43898573692552
29645,Laurens County,SC,80.85106382978722,NA
29649,Greenwood County,SC,60.1063829787234,NA
29662,Greenville County,SC,65.1595744680851,NA
29669,Anderson County,SC,NA,86.2123613312203
29670,Anderson County,SC,88.03191489361703,NA
29673,Greenville County,SC,NA,63.86687797147385
29687,Greenville County,SC,23.93617021276596,NA
57106,Minnehaha County,SD,NA,4.595879556259905
57108,Lincoln County,SD,22.340425531914892,NA
37013,Davidson County,TN,NA,75.27733755942948
37043,Montgomery County,TN,NA,43.58161648177496
37055,Dickson County,TN,NA,62.59904912836767
37064,Williamson County,TN,NA,26.465927099841522
37066,Sumner County,TN,7.9787234042553195,NA
37067,Williamson County,TN,73.40425531914893,NA
37072,Davidson County,TN,69.41489361702128,NA
37075,Sumner County,TN,NA,8.874801901743265
37110,Warren County,TN,28.191489361702125,NA
37122,Wilson County,TN,27.925531914893615,NA
37130,Rutherford County,TN,34.57446808510639,NA
37148,Sumner County,TN,NA,63.074484944532486
37205,Davidson County,TN,56.91489361702128,22.66244057052298
37216,Davidson County,TN,NA,84.31061806656102
37343,Hamilton County,TN,64.09574468085107,27.416798732171156
37347,Marion County,TN,NA,93.81933438985737
37381,Rhea County,TN,NA,68.93819334389858
37604,Washington County,TN,22.074468085106382,NA
37615,Washington County,TN,NA,62.75752773375595
37664,Sullivan County,TN,NA,30.744849445324878
37743,Greene County,TN,1.5957446808510638,NA
37774,Loudon County,TN,26.595744680851062,NA
37804,Blount County,TN,NA,32.32963549920761
37849,Knox County,TN,56.11702127659575,NA
37909,Knox County,TN,NA,74.96038034865293
37919,Knox County,TN,42.28723404255319,NA
37923,Knox County,TN,NA,70.04754358161648
37934,Knox County,TN,NA,49.920760697305866
38301,Madison County,TN,NA,39.3026941362916
38506,Putnam County,TN,NA,35.182250396196515
38558,Cumberland County,TN,85.63829787234043,42.15530903328051
75075,Collin County,TX,NA,50.237717908082416
75093,Collin County,TX,NA,71.31537242472267
75103,Van Zandt County,TX,NA,50.079239302694134
75243,Dallas County,TX,NA,41.679873217115684
75702,Smith County,TX,45.47872340425532,NA
75901,Angelina County,TX,NA,75.43581616481775
75904,Angelina County,TX,13.829787234042554,NA
75949,Angelina County,TX,NA,98.8906497622821
76017,Tarrant County,TX,NA,36.29160063391442
76021,Tarrant County,TX,NA,33.597464342313785
76049,Hood County,TX,NA,28.68462757527734
76182,Tarrant County,TX,37.5,NA
76801,Brown County,TX,51.329787234042556,58.795562599049134
77099,Harris County,TX,NA,72.2662440570523
77304,Montgomery County,TX,NA,56.735340729001585
77520,Harris County,TX,NA,57.36925515055468
77550,Galveston County,TX,14.893617021276595,NA
77840,Brazos County,TX,72.87234042553192,NA
77901,Victoria County,TX,NA,65.76862123613311
78006,Kendall County,TX,63.56382978723404,NA
78065,Atascosa County,TX,NA,85.10301109350237
78109,Bexar County,TX,88.03191489361703,NA
78209,Bexar County,TX,NA,45.16640253565768
78212,Bexar County,TX,NA,80.66561014263075
78221,Bexar County,TX,NA,83.67670364500792
78227,Bexar County,TX,58.24468085106383,36.608557844690964
78231,Bexar County,TX,NA,96.83042789223455
78240,Bexar County,TX,NA,41.36291600633915
78244,Bexar County,TX,82.18085106382979,NA
78248,Bexar County,TX,92.5531914893617,NA
78249,Bexar County,TX,68.88297872340425,NA
78250,Bexar County,TX,NA,76.2282091917591
78501,Hidalgo County,TX,NA,14.580031695721077
78566,Cameron County,TX,90.1595744680851,NA
78610,Hays County,TX,76.32978723404256,NA
78611,Burnet County,TX,67.02127659574468,NA
78613,Williamson County,TX,18.085106382978726,NA
78621,Bastrop County,TX,NA,76.54516640253566
78624,Gillespie County,TX,NA,52.29793977812995
78665,Williamson County,TX,NA,38.82725832012678
78731,Travis County,TX,90.42553191489363,NA
78734,Travis County,TX,NA,75.7527733755943
78737,Hays County,TX,92.81914893617021,NA
78747,Travis County,TX,NA,98.73217115689383
78749,Travis County,TX,NA,85.89540412044374
78840,Val Verde County,TX,NA,10.776545166402537
78861,Medina County,TX,NA,82.40887480190175
79605,Taylor County,TX,44.148936170212764,26.30744849445325
84092,Salt Lake County,UT,50,NA
84107,Salt Lake County,UT,49.202127659574465,NA
84108,Salt Lake County,UT,59.57446808510638,NA
84302,Box Elder County,UT,NA,72.90015847860539
84321,Cache County,UT,73.13829787234043,NA
84737,Washington County,UT,70.74468085106383,NA
05602,Washington County,VT,NA,83.04278922345483
05641,Washington County,VT,NA,17.11568938193344
20121,Fairfax County,VA,78.19148936170212,NA
20164,Loudoun County,VA,70.47872340425532,NA
20169,Prince William County,VA,74.7340425531915,NA
20175,Loudoun County,VA,75.53191489361703,NA
20191,Fairfax County,VA,NA,82.25039619651348
22033,Fairfax County,VA,NA,86.84627575277337
22102,Fairfax County,VA,NA,83.2012678288431
22150,Fairfax County,VA,NA,28.526148969889064
22304,Alexandria city,VA,NA,79.08082408874802
22309,Fairfax County,VA,NA,63.39144215530903
22312,Fairfax County,VA,71.80851063829788,NA
22408,Spotsylvania County,VA,63.829787234042556,NA
22815,Rockingham County,VA,NA,60.063391442155314
23111,Hanover County,VA,NA,21.553090332805073
23139,Powhatan County,VA,NA,50.871632329635496
23188,James City County,VA,NA,0.6339144215530903
23666,Hampton city,VA,NA,7.290015847860539
23701,Portsmouth city,VA,25,NA
23851,Franklin city,VA,NA,77.17908082408876
23927,Mecklenburg County,VA,NA,90.49128367670365
24014,Roanoke city,VA,32.71276595744681,88.90649762282092
24018,Roanoke County,VA,34.04255319148936,NA
24060,Montgomery County,VA,NA,60.855784469096676
24065,Franklin County,VA,NA,91.44215530903328
24073,Montgomery County,VA,58.51063829787234,NA
24087,Montgomery County,VA,98.67021276595744,NA
24112,Henry County,VA,15.691489361702127,NA
24151,Franklin County,VA,56.38297872340425,NA
24256,Dickenson County,VA,95.2127659574468,NA
24592,Halifax County,VA,NA,91.12519809825673
98032,King County,WA,50.797872340425535,NA
98045,King County,WA,NA,92.39302694136292
98155,King County,WA,NA,43.42313787638668
98168,King County,WA,NA,47.70206022187005
98199,King County,WA,76.86170212765957,NA
98229,Whatcom County,WA,69.9468085106383,NA
98247,Whatcom County,WA,98.40425531914893,NA
98264,Whatcom County,WA,NA,60.38034865293186
98271,Snohomish County,WA,NA,61.014263074484944
98402,Pierce County,WA,NA,96.03803486529318
98445,Pierce County,WA,NA,81.14104595879556
98506,Thurston County,WA,NA,76.8621236133122
98902,Yakima County,WA,NA,15.689381933438987
99021,Spokane County,WA,NA,99.3660855784469
24901,Greenbrier County,WV,NA,79.2393026941363
25064,Kanawha County,WV,NA,84.15213946117274
25530,Wayne County,WV,85.37234042553192,NA
26155,Wetzel County,WV,NA,73.21711568938193
53005,Waukesha County,WI,NA,81.45800316957211
53027,Washington County,WI,NA,72.58320126782884
53104,Kenosha County,WI,NA,90.1743264659271
53129,Milwaukee County,WI,NA,55.30903328050714
53147,Walworth County,WI,NA,83.99366085578447
53151,Waukesha County,WI,NA,17.74960380348653
53188,Waukesha County,WI,18.617021276595743,NA
53208,Milwaukee County,WI,NA,59.42947702060222
53215,Milwaukee County,WI,NA,8.55784469096672
53219,Milwaukee County,WI,NA,13.787638668779714
53220,Milwaukee County,WI,NA,17.591125198098258
53562,Dane County,WI,NA,27.892234548335974
53593,Dane County,WI,NA,61.64817749603804
54016,St. Croix County,WI,52.12765957446809,45.800316957210775
54022,Pierce County,WI,51.86170212765957,NA
54115,Brown County,WI,NA,25.356576862123614
54241,Manitowoc County,WI,NA,40.88748019017432
54311,Brown County,WI,NA,24.881141045958795
54401,Marathon County,WI,NA,19.6513470681458
54403,Marathon County,WI,NA,14.104595879556259
54452,Lincoln County,WI,84.8404255319149,NA
54703,Eau Claire County,WI,NA,36.76703645007924
54843,Sawyer County,WI,NA,66.71949286846277
54942,Outagamie County,WI,93.61702127659575,NA
54952,Winnebago County,WI,NA,59.27099841521395
