ZipCode,county,state,Youth,Adult,Retirement,Geriatric
35005,Jefferson County,AL,NA,NA,NA,91.50943396226415
35007,Shelby County,AL,NA,NA,NA,68.55345911949685
35020,Jefferson County,AL,NA,NA,NA,36.16352201257861
35040,Shelby County,AL,NA,49.2845786963434,NA,NA
35057,Cullman County,AL,NA,74.40381558028616,NA,NA
35071,Jefferson County,AL,75.44483985765125,NA,NA,NA
35080,Shelby County,AL,NA,59.45945945945946,72.04724409448819,NA
35085,Chilton County,AL,78.29181494661923,NA,NA,NA
35094,Jefferson County,AL,NA,60.89030206677265,NA,NA
35117,Jefferson County,AL,NA,89.98410174880763,NA,NA
35121,Blount County,AL,NA,84.8966613672496,NA,NA
35222,Jefferson County,AL,NA,91.41494435612083,NA,NA
35405,Tuscaloosa County,AL,NA,9.85691573926868,NA,NA
35550,Walker County,AL,NA,NA,82.67716535433071,NA
35592,Lamar County,AL,19.572953736654807,NA,NA,NA
35619,Morgan County,AL,NA,96.02543720190779,NA,NA
35630,Lauderdale County,AL,NA,NA,67.91338582677166,NA
35670,Morgan County,AL,71.88612099644128,NA,NA,NA
35749,Madison County,AL,NA,48.330683624801274,NA,NA
35750,Madison County,AL,NA,NA,55.118110236220474,NA
35758,Madison County,AL,NA,70.27027027027027,NA,NA
35802,Madison County,AL,NA,NA,NA,17.61006289308176
36033,Butler County,AL,NA,NA,NA,99.37106918238993
36037,Butler County,AL,79.7153024911032,NA,NA,NA
36066,Autauga County,AL,NA,NA,56.69291338582677,NA
36106,Montgomery County,AL,NA,96.34340222575517,NA,NA
36109,Montgomery County,AL,NA,NA,NA,43.39622641509434
36111,Montgomery County,AL,NA,NA,NA,81.44654088050315
36203,Calhoun County,AL,NA,NA,NA,77.9874213836478
36312,Houston County,AL,90.39145907473309,NA,NA,NA
36360,Dale County,AL,NA,NA,NA,93.08176100628931
36526,Baldwin County,AL,NA,51.669316375198726,NA,NA
36545,Clarke County,AL,NA,89.1891891891892,NA,NA
36608,Mobile County,AL,NA,NA,NA,60.37735849056604
36609,Mobile County,AL,NA,59.93640699523053,NA,NA
36870,Lee County,AL,NA,78.85532591414945,NA,NA
99611,Kenai Peninsula Borough,AK,NA,NA,NA,75.15723270440252
99835,Sitka City and Borough,AK,NA,60.413354531001595,76.37795275590551,NA
85006,Maricopa County,AZ,NA,43.72019077901431,NA,NA
85009,Maricopa County,AZ,NA,NA,86.41732283464567,NA
85020,Maricopa County,AZ,39.50177935943061,39.268680445151034,NA,NA
85021,Maricopa County,AZ,NA,NA,31.88976377952756,NA
85031,Maricopa County,AZ,NA,50.39745627980922,NA,NA
85131,Pinal County,AZ,NA,NA,71.8503937007874,NA
85201,Maricopa County,AZ,NA,16.69316375198728,NA,NA
85208,Maricopa County,AZ,NA,85.37360890302067,NA,NA
85233,Maricopa County,AZ,NA,41.33545310015898,NA,NA
85248,Maricopa County,AZ,74.37722419928826,58.18759936406995,NA,NA
85255,Maricopa County,AZ,NA,NA,41.338582677165356,NA
85258,Maricopa County,AZ,NA,68.83942766295708,NA,NA
85268,Maricopa County,AZ,NA,NA,54.330708661417326,NA
85286,Maricopa County,AZ,NA,NA,NA,92.76729559748428
85304,Maricopa County,AZ,NA,53.10015898251193,NA,NA
85310,Maricopa County,AZ,NA,76.6295707472178,NA,NA
85326,Maricopa County,AZ,36.29893238434164,NA,NA,NA
85335,Maricopa County,AZ,NA,NA,NA,83.64779874213836
85365,Yuma County,AZ,NA,NA,NA,10.69182389937107
85375,Maricopa County,AZ,NA,NA,NA,0.9433962264150944
85379,Maricopa County,AZ,NA,NA,56.69291338582677,NA
85615,Cochise County,AZ,96.79715302491103,NA,NA,NA
85622,Pima County,AZ,NA,NA,NA,52.51572327044025
85643,Cochise County,AZ,NA,88.39427662957074,NA,NA
85705,Pima County,AZ,NA,3.97456279809221,NA,NA
85710,Pima County,AZ,NA,36.248012718600954,NA,NA
86305,Yavapai County,AZ,NA,93.32273449920508,34.25196850393701,NA
86314,Yavapai County,AZ,NA,18.60095389507154,NA,65.09433962264151
86327,Yavapai County,AZ,NA,NA,60.23622047244095,NA
86401,Mohave County,AZ,NA,37.20190779014308,NA,NA
86413,Mohave County,AZ,NA,59.77742448330684,NA,NA
86503,Apache County,AZ,NA,NA,NA,44.65408805031446
71603,Jefferson County,AR,32.028469750889684,36.40699523052464,NA,NA
71655,Drew County,AR,NA,NA,NA,75.78616352201259
71923,Clark County,AR,NA,NA,NA,59.43396226415094
72046,Lonoke County,AR,NA,96.97933227344993,NA,NA
72143,White County,AR,NA,NA,NA,5.345911949685535
72543,Cleburne County,AR,NA,65.50079491255963,NA,NA
72560,Stone County,AR,NA,76.6295707472178,NA,NA
72631,Carroll County,AR,NA,NA,NA,94.9685534591195
72703,Washington County,AR,62.989323843416365,NA,NA,NA
72704,Washington County,AR,NA,NA,81.49606299212599,NA
90005,Los Angeles County,CA,NA,NA,74.01574803149606,NA
90016,Los Angeles County,CA,NA,NA,23.228346456692915,NA
90018,Los Angeles County,CA,NA,NA,81.69291338582677,NA
90034,Los Angeles County,CA,NA,73.76788553259142,NA,NA
90035,Los Angeles County,CA,74.02135231316726,NA,NA,NA
90046,Los Angeles County,CA,NA,NA,NA,30.50314465408805
90047,Los Angeles County,CA,76.86832740213522,NA,NA,NA
90065,Los Angeles County,CA,NA,56.75675675675676,NA,NA
90210,Los Angeles County,CA,NA,NA,89.56692913385827,NA
90220,Los Angeles County,CA,NA,NA,53.54330708661418,NA
90222,Los Angeles County,CA,NA,67.88553259141494,NA,NA
90230,Los Angeles County,CA,NA,78.21939586645469,NA,NA
90277,Los Angeles County,CA,NA,55.16693163751988,NA,NA
90291,Los Angeles County,CA,NA,NA,56.10236220472441,NA
90305,Los Angeles County,CA,NA,94.11764705882352,NA,NA
90503,Los Angeles County,CA,NA,49.60254372019078,NA,NA
90620,Orange County,CA,NA,49.12559618441971,NA,NA
90640,Los Angeles County,CA,NA,NA,NA,27.044025157232703
90710,Los Angeles County,CA,NA,81.39904610492846,NA,NA
90717,Los Angeles County,CA,NA,83.6248012718601,NA,NA
90802,Los Angeles County,CA,NA,NA,65.74803149606299,NA
90815,Los Angeles County,CA,NA,NA,37.20472440944882,NA
91331,Los Angeles County,CA,NA,NA,NA,69.18238993710692
91340,Los Angeles County,CA,NA,NA,NA,74.52830188679245
91352,Los Angeles County,CA,NA,27.344992050874406,NA,NA
91355,Los Angeles County,CA,NA,NA,NA,63.83647798742138
91731,Los Angeles County,CA,NA,NA,58.26771653543307,NA
91739,San Bernardino County,CA,NA,NA,60.43307086614173,NA
92008,San Diego County,CA,NA,50.5564387917329,NA,NA
92028,San Diego County,CA,NA,85.05564387917329,NA,NA
92103,San Diego County,CA,NA,45.94594594594595,NA,40.25157232704403
92115,San Diego County,CA,35.94306049822064,NA,41.53543307086614,NA
92122,San Diego County,CA,NA,NA,65.15748031496062,NA
92124,San Diego County,CA,NA,NA,91.73228346456693,NA
92211,Riverside County,CA,NA,NA,NA,3.1446540880503147
92227,Imperial County,CA,NA,NA,83.26771653543307,NA
92234,Riverside County,CA,NA,17.170111287758345,NA,NA
92243,Imperial County,CA,33.45195729537366,NA,NA,NA
92270,Riverside County,CA,NA,NA,NA,16.666666666666664
92274,Riverside County,CA,NA,75.03974562798092,NA,NA
92392,San Bernardino County,CA,12.099644128113878,NA,NA,NA
92395,San Bernardino County,CA,NA,29.411764705882355,NA,NA
92399,San Bernardino County,CA,53.02491103202846,NA,20.669291338582678,NA
92404,San Bernardino County,CA,NA,NA,29.133858267716533,NA
92503,Riverside County,CA,NA,NA,22.83464566929134,NA
92583,Riverside County,CA,NA,63.27503974562798,NA,NA
92620,Orange County,CA,NA,44.19713831478537,NA,NA
92629,Orange County,CA,NA,NA,NA,32.075471698113205
92656,Orange County,CA,34.16370106761566,NA,NA,NA
92660,Orange County,CA,NA,NA,NA,44.9685534591195
92703,Orange County,CA,NA,40.06359300476948,NA,NA
92801,Orange County,CA,NA,NA,66.14173228346458,NA
92802,Orange County,CA,NA,NA,41.732283464566926,NA
92831,Orange County,CA,NA,54.213036565977745,NA,NA
92841,Orange County,CA,NA,NA,NA,81.13207547169812
92860,Riverside County,CA,NA,72.49602543720191,NA,NA
92868,Orange County,CA,NA,64.86486486486487,NA,NA
92869,Orange County,CA,NA,NA,NA,44.339622641509436
92879,Riverside County,CA,NA,NA,NA,97.48427672955975
92881,Riverside County,CA,NA,NA,73.4251968503937,NA
93001,Ventura County,CA,40.569395017793596,NA,NA,NA
93010,Ventura County,CA,NA,35.453100158982515,NA,NA
93221,Tulare County,CA,NA,79.17329093799682,NA,NA
93230,Kings County,CA,NA,67.72655007949126,NA,NA
93304,Kern County,CA,NA,NA,45.2755905511811,NA
93307,Kern County,CA,NA,NA,NA,82.70440251572327
93442,San Luis Obispo County,CA,NA,NA,78.54330708661418,87.42138364779875
93458,Santa Barbara County,CA,14.94661921708185,NA,NA,NA
93514,Inyo County,CA,NA,NA,68.50393700787401,NA
93561,Kern County,CA,66.90391459074732,NA,NA,NA
93611,Fresno County,CA,NA,NA,34.645669291338585,NA
93637,Madera County,CA,NA,NA,NA,57.23270440251572
93657,Fresno County,CA,NA,57.5516693163752,NA,NA
93705,Fresno County,CA,NA,NA,74.40944881889764,NA
93722,Fresno County,CA,NA,NA,15.551181102362206,NA
93901,Monterey County,CA,NA,55.325914149443555,NA,NA
93927,Monterey County,CA,NA,74.72178060413354,NA,NA
93955,Monterey County,CA,NA,NA,33.07086614173229,NA
94019,San Mateo County,CA,NA,81.08108108108108,NA,NA
94025,San Mateo County,CA,55.871886120996436,48.807631160572335,NA,NA
94061,San Mateo County,CA,NA,NA,52.362204724409445,NA
94063,San Mateo County,CA,NA,NA,38.188976377952756,NA
94112,San Francisco County,CA,NA,25.75516693163752,NA,NA
94116,San Francisco County,CA,NA,NA,NA,10.377358490566039
94121,San Francisco County,CA,NA,NA,37.40157480314961,NA
94403,San Mateo County,CA,NA,NA,NA,41.19496855345912
94507,Contra Costa County,CA,NA,NA,69.09448818897637,NA
94509,Contra Costa County,CA,NA,NA,13.188976377952756,NA
94534,Solano County,CA,NA,NA,74.80314960629921,NA
94538,Alameda County,CA,NA,NA,NA,16.9811320754717
94544,Alameda County,CA,NA,19.71383147853736,NA,NA
94583,Contra Costa County,CA,61.92170818505338,NA,NA,NA
94605,Alameda County,CA,NA,NA,NA,30.18867924528302
94702,Alameda County,CA,NA,63.751987281399046,NA,NA
94706,Alameda County,CA,NA,NA,84.05511811023622,NA
94952,Sonoma County,CA,NA,NA,NA,46.855345911949684
95008,Santa Clara County,CA,NA,85.69157392686805,NA,NA
95014,Santa Clara County,CA,NA,NA,59.84251968503938,NA
95035,Santa Clara County,CA,NA,NA,45.86614173228347,NA
95037,Santa Clara County,CA,NA,NA,NA,27.67295597484277
95076,Santa Cruz County,CA,NA,51.51033386327504,NA,NA
95111,Santa Clara County,CA,NA,NA,NA,88.9937106918239
95112,Santa Clara County,CA,NA,NA,38.38582677165354,NA
95126,Santa Clara County,CA,NA,93.48171701112878,NA,NA
95340,Merced County,CA,NA,NA,51.37795275590551,NA
95348,Merced County,CA,NA,NA,63.77952755905512,NA
95425,Sonoma County,CA,NA,NA,NA,87.73584905660378
95621,Sacramento County,CA,28.46975088967972,NA,68.89763779527559,NA
95632,Sacramento County,CA,NA,NA,39.76377952755906,NA
95662,Sacramento County,CA,NA,68.04451510333863,NA,NA
95667,El Dorado County,CA,NA,33.54531001589825,NA,1.5723270440251573
95747,Placer County,CA,65.83629893238434,NA,NA,NA
95757,Sacramento County,CA,84.34163701067615,NA,NA,NA
95815,Sacramento County,CA,62.63345195729537,NA,NA,NA
95823,Sacramento County,CA,NA,NA,18.700787401574804,NA
95824,Sacramento County,CA,NA,NA,NA,80.81761006289308
95825,Sacramento County,CA,NA,NA,88.58267716535433,NA
95827,Sacramento County,CA,NA,NA,67.32283464566929,NA
95928,Butte County,CA,NA,NA,82.28346456692913,NA
95946,Nevada County,CA,NA,NA,65.94488188976378,NA
95949,Nevada County,CA,NA,NA,80.11811023622047,NA
96003,Shasta County,CA,NA,NA,NA,22.955974842767297
96013,Shasta County,CA,NA,97.93322734499205,NA,NA
80014,Arapahoe County,CO,24.555160142348754,NA,NA,NA
80015,Arapahoe County,CO,NA,NA,NA,58.17610062893082
80016,Arapahoe County,CO,NA,NA,NA,56.60377358490566
80022,Adams County,CO,NA,NA,91.14173228346458,NA
80023,Broomfield County,CO,46.97508896797153,NA,NA,NA
80026,Boulder County,CO,NA,NA,47.63779527559055,NA
80031,Adams County,CO,51.95729537366548,NA,NA,NA
80123,Jefferson County,CO,NA,47.21780604133545,NA,NA
80126,Douglas County,CO,NA,NA,NA,80.50314465408806
80134,Douglas County,CO,NA,27.662957074721778,NA,NA
80219,Denver County,CO,NA,5.723370429252783,NA,NA
80227,Jefferson County,CO,65.12455516014235,NA,NA,NA
80241,Adams County,CO,82.91814946619218,NA,67.51968503937007,NA
80401,Jefferson County,CO,NA,NA,49.40944881889764,NA
80470,Jefferson County,CO,93.95017793594306,NA,NA,NA
80503,Boulder County,CO,50.88967971530249,NA,NA,NA
80538,Larimer County,CO,NA,72.81399046104929,NA,NA
80621,Weld County,CO,NA,NA,76.96850393700787,NA
80634,Weld County,CO,NA,NA,1.7716535433070866,NA
80808,El Paso County,CO,NA,96.82034976152623,NA,NA
80831,El Paso County,CO,62.27758007117438,NA,NA,NA
80910,El Paso County,CO,NA,26.232114467408586,NA,NA
80915,El Paso County,CO,30.96085409252669,NA,NA,NA
80921,El Paso County,CO,NA,84.10174880763115,NA,NA
81001,Pueblo County,CO,38.79003558718861,NA,NA,NA
81006,Pueblo County,CO,NA,72.65500794912559,NA,NA
81147,Archuleta County,CO,NA,NA,56.496062992125985,NA
81301,La Plata County,CO,NA,NA,NA,50.943396226415096
81321,Montezuma County,CO,NA,66.61367249602543,NA,NA
81504,Mesa County,CO,NA,85.214626391096985,NA,NA
81506,Mesa County,CO,79.00355871886121,NA,NA,NA
06106,Hartford County,CT,NA,5.405405405405405,NA,25.157232704402517
06111,Hartford County,CT,NA,39.42766295707472,NA,NA
06119,Hartford County,CT,NA,NA,98.22834645669292,NA
06226,Windham County,CT,23.487544483985765,NA,43.30708661417323,NA
06451,New Haven County,CT,NA,NA,93.89763779527559,NA
06488,New Haven County,CT,NA,NA,83.66141732283464,NA
06492,New Haven County,CT,NA,23.211446740858506,NA,NA
06511,New Haven County,CT,10.320284697508896,NA,NA,NA
06512,New Haven County,CT,NA,24.6422893481717,NA,NA
06513,New Haven County,CT,NA,4.769475357710652,NA,NA
06517,New Haven County,CT,NA,NA,40.74803149606299,NA
06518,New Haven County,CT,NA,NA,NA,29.245283018867923
06605,Fairfield County,CT,NA,NA,85.8267716535433,NA
06615,Fairfield County,CT,NA,49.92050874403816,NA,NA
06790,Litchfield County,CT,NA,NA,2.559055118110236,NA
06801,Fairfield County,CT,NA,70.42925278219397,NA,NA
06811,Fairfield County,CT,NA,45.62798092209857,NA,NA
06840,Fairfield County,CT,NA,NA,75.39370078740157,NA
06851,Fairfield County,CT,NA,NA,50.196850393700785,26.729559748427672
06902,Fairfield County,CT,29.181494661921707,NA,NA,NA
19713,New Castle County,DE,NA,32.432432432432435,NA,NA
19802,New Castle County,DE,NA,NA,NA,50
19804,New Castle County,DE,NA,30.047694753577108,NA,NA
19805,New Castle County,DE,NA,3.0206677265500796,NA,NA
19934,Kent County,DE,86.47686832740213,NA,NA,NA
19962,Kent County,DE,NA,74.88076311605724,NA,NA
19966,Sussex County,DE,41.637010676156585,NA,NA,NA
19977,Kent County,DE,NA,24.96025437201908,NA,NA
32043,Clay County,FL,NA,44.67408585055644,NA,NA
32068,Clay County,FL,NA,NA,NA,31.761006289308174
32081,St. Johns County,FL,NA,NA,81.2992125984252,NA
32097,Nassau County,FL,NA,NA,35.039370078740156,NA
32137,Flagler County,FL,NA,NA,7.480314960629922,NA
32168,Volusia County,FL,NA,NA,NA,26.41509433962264
32174,Volusia County,FL,NA,NA,42.125984251968504,NA
32209,Duval County,FL,NA,41.17647058823529,NA,NA
32210,Duval County,FL,2.135231316725979,NA,NA,NA
32216,Duval County,FL,60.14234875444839,NA,NA,65.40880503144653
32218,Duval County,FL,NA,52.62321144674086,NA,NA
32220,Duval County,FL,NA,66.29570747217805,NA,NA
32244,Duval County,FL,NA,6.359300476947535,NA,NA
32250,Duval County,FL,NA,60.095389507154216,NA,NA
32256,Duval County,FL,NA,NA,NA,27.358490566037734
32257,Duval County,FL,NA,58.66454689984102,NA,NA
32259,St. Johns County,FL,37.01067615658363,NA,NA,47.79874213836478
32424,Calhoun County,FL,NA,NA,76.77165354330708,NA
32433,Walton County,FL,NA,NA,NA,67.61006289308176
32435,Walton County,FL,NA,78.53736089030207,NA,91.19496855345912
32465,Gulf County,FL,NA,NA,NA,96.54088050314465
32608,Alachua County,FL,NA,NA,50.196850393700785,NA
32696,Levy County,FL,NA,98.72813990461049,NA,NA
32703,Orange County,FL,NA,24.80127186009539,NA,NA
32754,Brevard County,FL,NA,75.516693163752,NA,NA
32771,Seminole County,FL,NA,NA,33.661417322834644,NA
32796,Brevard County,FL,NA,NA,27.36220472440945,31.446540880503143
32837,Orange County,FL,NA,22.575516693163753,NA,NA
32839,Orange County,FL,12.811387900355871,NA,NA,NA
32952,Brevard County,FL,NA,NA,NA,15.09433962264151
32953,Brevard County,FL,NA,NA,20.275590551181104,NA
32955,Brevard County,FL,NA,49.76152623211447,NA,NA
33012,Miami-Dade County,FL,NA,NA,NA,3.7735849056603774
33024,Broward County,FL,NA,30.842607313195547,NA,NA
33054,Miami-Dade County,FL,NA,88.23529411764706,NA,NA
33060,Broward County,FL,NA,NA,NA,32.38993710691824
33130,Miami-Dade County,FL,NA,NA,NA,58.490566037735846
33135,Miami-Dade County,FL,NA,NA,95.47244094488188,NA
33142,Miami-Dade County,FL,NA,97.13831478537361,NA,NA
33143,Miami-Dade County,FL,NA,80.28616852146264,NA,NA
33144,Miami-Dade County,FL,80.42704626334519,NA,NA,NA
33166,Miami-Dade County,FL,NA,NA,NA,46.22641509433962
33176,Miami-Dade County,FL,NA,68.362480127186,NA,NA
33185,Miami-Dade County,FL,NA,NA,NA,71.38364779874213
33311,Broward County,FL,4.270462633451958,NA,NA,NA
33313,Broward County,FL,NA,NA,38.582677165354326,NA
33328,Broward County,FL,NA,NA,NA,39.62264150943396
33404,Palm Beach County,FL,NA,NA,99.21259842519686,NA
33411,Palm Beach County,FL,59.07473309608541,NA,NA,NA
33446,Palm Beach County,FL,57.65124555160143,NA,NA,3.459119496855346
33614,Hillsborough County,FL,NA,NA,NA,34.59119496855346
33616,Hillsborough County,FL,NA,97.45627980922097,NA,NA
33647,Hillsborough County,FL,NA,51.669316375198726,NA,NA
33705,Pinellas County,FL,NA,NA,NA,79.55974842767296
33764,Pinellas County,FL,NA,43.87917329093799,NA,NA
33781,Pinellas County,FL,NA,NA,NA,74.84276729559748
33881,Polk County,FL,NA,NA,31.299212598425196,NA
34109,Collier County,FL,NA,NA,NA,23.270440251572328
34222,Manatee County,FL,72.95373665480427,NA,NA,NA
34251,Manatee County,FL,NA,95.38950715421304,NA,NA
34481,Marion County,FL,NA,NA,NA,11.0062893081761
34601,Hernando County,FL,NA,NA,NA,40.56603773584906
34602,Hernando County,FL,NA,92.68680445151033,NA,NA
34668,Pasco County,FL,NA,14.149443561208267,NA,NA
34688,Pinellas County,FL,NA,NA,NA,84.27672955974843
34715,Lake County,FL,NA,56.27980922098569,NA,NA
34744,Osceola County,FL,NA,NA,36.417322834645674,NA
34753,Lake County,FL,NA,95.23052464228935,NA,NA
34759,Polk County,FL,NA,40.06359300476948,NA,NA
34986,St. Lucie County,FL,NA,NA,NA,7.232704402515723
34997,Martin County,FL,NA,NA,NA,4.40251572327044
30022,Fulton County,GA,NA,NA,42.71653543307087,NA
30034,DeKalb County,GA,NA,NA,23.62204724409449,NA
30045,Gwinnett County,GA,NA,58.50556438791733,NA,NA
30060,Cobb County,GA,NA,70.58823529411765,NA,NA
30062,Cobb County,GA,22.77580071174377,NA,NA,NA
30078,Gwinnett County,GA,NA,61.208267090620026,NA,NA
30084,DeKalb County,GA,97.50889679715303,NA,NA,NA
30102,Cherokee County,GA,65.12455516014235,NA,NA,NA
30107,Cherokee County,GA,85.76512455516014,NA,NA,NA
30114,Cherokee County,GA,NA,NA,NA,35.84905660377358
30126,Cobb County,GA,NA,44.51510333863275,NA,NA
30143,Pickens County,GA,NA,NA,35.43307086614173,NA
30214,Fayette County,GA,NA,NA,37.59842519685039,NA
30228,Henry County,GA,NA,32.273449920508746,NA,NA
30230,Troup County,GA,NA,NA,NA,95.59748427672956
30240,Troup County,GA,13.523131672597867,NA,NA,NA
30265,Coweta County,GA,NA,NA,38.582677165354326,NA
30274,Clayton County,GA,NA,41.0174880763116,NA,NA
30294,DeKalb County,GA,NA,42.76629570747218,NA,NA
30309,Fulton County,GA,NA,NA,54.92125984251969,NA
30350,Fulton County,GA,52.313167259786475,NA,NA,NA
30401,Emanuel County,GA,NA,NA,NA,82.38993710691824
30417,Evans County,GA,77.58007117437722,NA,NA,NA
30458,Bulloch County,GA,33.096085409252666,NA,NA,NA
30504,Hall County,GA,NA,80.9220985691574,NA,NA
30512,Union County,GA,NA,NA,48.62204724409449,NA
30533,Lumpkin County,GA,NA,NA,NA,59.11949685534591
30606,Clarke County,GA,48.39857651245551,NA,NA,NA
30669,Greene County,GA,NA,99.52305246422894,NA,NA
30673,Wilkes County,GA,NA,NA,70.2755905511811,NA
30710,Whitfield County,GA,NA,NA,91.33858267716536,NA
30813,Columbia County,GA,80.0711743772242,NA,NA,NA
30904,Richmond County,GA,NA,NA,19.291338582677163,NA
30906,Richmond County,GA,NA,32.11446740858506,NA,NA
30909,Richmond County,GA,NA,NA,50.98425196850393,NA
31419,Chatham County,GA,NA,36.56597774244833,NA,NA
31503,Ware County,GA,NA,NA,NA,51.257861635220124
31510,Bacon County,GA,NA,NA,NA,85.22012578616352
31516,Pierce County,GA,NA,NA,66.92913385826772,NA
31750,Ben Hill County,GA,NA,59.14149443561209,NA,NA
39817,Decatur County,GA,NA,64.22893481717011,NA,NA
96708,Maui County,HI,NA,NA,NA,99.68553459119497
96734,Honolulu County,HI,NA,NA,11.023622047244094,NA
96766,Kauai County,HI,69.7508896797153,NA,NA,NA
96782,Honolulu County,HI,NA,NA,NA,9.433962264150944
96789,Honolulu County,HI,NA,24.165341812400637,NA,NA
96792,Honolulu County,HI,NA,NA,NA,24.21383647798742
96817,Honolulu County,HI,NA,NA,7.086614173228346,NA
96818,Honolulu County,HI,NA,53.4181240063593,32.677165354330704,NA
96821,Honolulu County,HI,NA,NA,70.66929133858267,NA
96825,Honolulu County,HI,57.29537366548043,NA,NA,NA
96826,Honolulu County,HI,NA,73.13195548489666,NA,NA
83338,Jerome County,ID,68.68327402135232,NA,NA,NA
83642,Ada County,ID,NA,NA,8.070866141732283,NA
83646,Ada County,ID,59.430604982206404,41.49443561208267,NA,NA
83651,Canyon County,ID,27.75800711743772,NA,NA,NA
83686,Canyon County,ID,NA,53.25914149443561,NA,NA
83713,Ada County,ID,NA,NA,16.92913385826772,NA
83716,Ada County,ID,NA,NA,71.45669291338582,NA
83801,Kootenai County,ID,NA,NA,87.99212598425197,NA
83814,Kootenai County,ID,NA,35.6120826709062,NA,NA
83858,Kootenai County,ID,NA,NA,64.1732283464567,NA
60002,Lake County,IL,NA,NA,32.874015748031496,NA
60015,Lake County,IL,NA,NA,25.590551181102363,NA
60018,Cook County,IL,NA,62.9570747217806,NA,NA
60051,McHenry County,IL,NA,52.78219395866455,NA,NA
60062,Cook County,IL,NA,NA,5.708661417322835,NA
60068,Cook County,IL,NA,NA,35.62992125984252,NA
60093,Cook County,IL,NA,NA,79.92125984251969,NA
60097,McHenry County,IL,90.74733096085409,NA,NA,NA
60107,Cook County,IL,NA,50.87440381558028,NA,NA
60110,Kane County,IL,NA,48.64864864864865,NA,NA
60126,DuPage County,IL,NA,12.241653418124006,NA,NA
60130,Cook County,IL,70.46263345195729,NA,NA,NA
60135,DeKalb County,IL,NA,NA,81.88976377952756,NA
60142,McHenry County,IL,NA,43.56120826709062,NA,2.515723270440252
60152,McHenry County,IL,NA,77.10651828298887,NA,NA
60175,Kane County,IL,NA,29.88871224165342,NA,NA
60190,DuPage County,IL,NA,NA,72.24409448818898,NA
60416,Grundy County,IL,NA,61.84419713831478,NA,NA
60419,Cook County,IL,NA,45.78696343402226,NA,NA
60438,Cook County,IL,NA,NA,36.61417322834646,NA
60439,Cook County,IL,NA,74.40381558028616,NA,NA
60462,Cook County,IL,NA,NA,NA,8.49056603773585
60467,Cook County,IL,NA,NA,26.37795275590551,NA
60481,Will County,IL,53.380782918149464,NA,NA,NA
60510,Kane County,IL,42.704626334519574,NA,NA,NA
60516,DuPage County,IL,NA,NA,NA,33.33333333333333
60526,Cook County,IL,27.402135231316727,NA,NA,NA
60552,LaSalle County,IL,NA,NA,98.81889763779527,NA
60560,Kendall County,IL,50.177935943060504,NA,NA,NA
60564,Will County,IL,27.75800711743772,NA,NA,NA
60565,DuPage County,IL,NA,32.591414944356124,NA,NA
60585,Will County,IL,NA,56.59777424483307,NA,NA
60608,Cook County,IL,23.131672597864767,NA,NA,NA
60609,Cook County,IL,NA,NA,NA,16.352201257861633
60610,Cook County,IL,79.00355871886121,44.03815580286168,NA,NA
60612,Cook County,IL,NA,83.94276629570747,NA,NA
60617,Cook County,IL,NA,NA,2.7559055118110236,2.20125786163522
60618,Cook County,IL,NA,NA,19.488188976377952,NA
60620,Cook County,IL,NA,7.94912559618442,4.330708661417323,NA
60628,Cook County,IL,NA,8.267090620031796,NA,NA
60632,Cook County,IL,27.046263345195733,NA,NA,NA
60633,Cook County,IL,NA,NA,64.76377952755905,NA
60638,Cook County,IL,NA,11.605723370429253,NA,NA
60641,Cook County,IL,NA,16.216216216216218,NA,18.867924528301888
60646,Cook County,IL,NA,87.75834658187598,NA,NA
60660,Cook County,IL,NA,28.934817170111288,NA,NA
60707,Cook County,IL,NA,NA,10.236220472440944,NA
60714,Cook County,IL,NA,NA,NA,9.119496855345911
60901,Kankakee County,IL,NA,NA,13.582677165354331,NA
60970,Iroquois County,IL,NA,NA,NA,49.37106918238994
61107,Winnebago County,IL,56.58362989323843,NA,NA,NA
61109,Winnebago County,IL,NA,NA,46.06299212598425,NA
61265,Rock Island County,IL,NA,NA,NA,11.635220125786164
61342,LaSalle County,IL,NA,NA,76.18110236220473,NA
61455,McDonough County,IL,NA,84.57869634340223,NA,NA
61821,Champaign County,IL,NA,NA,46.653543307086615,NA
62024,Madison County,IL,NA,NA,NA,69.49685534591194
62049,Montgomery County,IL,NA,94.91255961844197,NA,NA
62234,Madison County,IL,NA,NA,NA,20.125786163522015
62448,Jasper County,IL,NA,NA,NA,78.9308176100629
62450,Richland County,IL,NA,87.12241653418124,NA,NA
62521,Macon County,IL,NA,NA,NA,23.58490566037736
62681,Schuyler County,IL,NA,NA,NA,98.11320754716981
62711,Sangamon County,IL,84.34163701067615,NA,NA,NA
62712,Sangamon County,IL,NA,NA,NA,85.53459119496856
62812,Franklin County,IL,NA,80.12718600953896,NA,NA
46016,Madison County,IN,NA,17.488076311605724,NA,NA
46037,Hamilton County,IN,49.11032028469751,NA,NA,NA
46077,Boone County,IN,72.95373665480427,NA,NA,NA
46112,Hendricks County,IN,NA,NA,77.55905511811024,NA
46163,Hancock County,IN,NA,86.64546899841018,NA,NA
46218,Marion County,IN,NA,NA,20.078740157480315,NA
46219,Marion County,IN,NA,41.971383147853736,NA,NA
46221,Marion County,IN,NA,NA,73.81889763779527,NA
46224,Marion County,IN,NA,64.54689984101749,NA,NA
46226,Marion County,IN,NA,13.831478537360889,NA,NA
46228,Marion County,IN,NA,NA,NA,77.04402515723271
46237,Marion County,IN,NA,NA,38.976377952755904,NA
46319,Lake County,IN,30.2491103202847,NA,NA,NA
46320,Lake County,IN,NA,NA,NA,93.39622641509435
46321,Lake County,IN,NA,NA,16.73228346456693,NA
46324,Lake County,IN,NA,NA,NA,45.28301886792453
46368,Porter County,IN,2.8469750889679712,NA,NA,NA
46373,Lake County,IN,NA,31.319554848966614,83.46456692913385,NA
46383,Porter County,IN,NA,NA,5.511811023622047,NA
46392,Jasper County,IN,NA,NA,95.2755905511811,NA
46410,Lake County,IN,NA,NA,NA,21.069182389937108
46516,Elkhart County,IN,67.25978647686833,NA,NA,NA
46530,St. Joseph County,IN,53.380782918149464,NA,NA,NA
46710,Noble County,IN,NA,93.1637519872814,NA,NA
46725,Whitley County,IN,NA,31.955484896661368,NA,28.61635220125786
46733,Adams County,IN,NA,NA,NA,42.138364779874216
46737,Steuben County,IN,NA,NA,96.06299212598425,NA
46750,Huntington County,IN,NA,21.303656597774246,NA,NA
46774,Allen County,IN,NA,NA,NA,60.062893081761004
46818,Allen County,IN,NA,NA,45.07874015748031,NA
46835,Allen County,IN,NA,NA,NA,24.528301886792452
46902,Howard County,IN,NA,NA,44.48818897637795,NA
46978,Cass County,IN,NA,98.09220985691573,NA,NA
47265,Jennings County,IN,NA,NA,33.267716535433074,NA
47348,Blackford County,IN,NA,NA,NA,47.48427672955975
47371,Jay County,IN,NA,NA,30.118110236220474,NA
47374,Wayne County,IN,NA,4.92845786963434,NA,NA
47408,Monroe County,IN,NA,NA,NA,78.61635220125787
47546,Dubois County,IN,NA,53.57710651828299,NA,NA
47586,Perry County,IN,NA,NA,69.29133858267717,NA
47720,Vanderburgh County,IN,NA,74.24483306836248,NA,NA
47725,Vanderburgh County,IN,NA,NA,67.1259842519685,NA
47882,Sullivan County,IN,NA,NA,74.80314960629921,NA
47920,Tippecanoe County,IN,97.86476868327402,NA,NA,NA
50009,Polk County,IA,NA,69.9523052464229,NA,NA
50310,Polk County,IA,NA,22.73449920508744,NA,NA
50315,Polk County,IA,NA,55.00794912559619,NA,NA
50317,Polk County,IA,NA,13.513513513513514,NA,NA
50461,Mitchell County,IA,NA,NA,95.86614173228347,NA
50595,Hamilton County,IA,NA,NA,87.5984251968504,NA
50801,Union County,IA,NA,40.85850556438791,NA,NA
51601,Page County,IA,NA,68.83942766295708,NA,NA
52240,Johnson County,IA,NA,NA,19.88188976377953,NA
52310,Jones County,IA,NA,NA,NA,90.88050314465409
52403,Linn County,IA,NA,NA,37.99212598425197,NA
52405,Linn County,IA,NA,70.90620031796503,NA,NA
52501,Wapello County,IA,NA,NA,28.543307086614174,NA
52556,Jefferson County,IA,NA,NA,86.22047244094489,NA
52601,Des Moines County,IA,NA,14.94435612082671,14.960629921259844,NA
52722,Scott County,IA,NA,22.257551669316374,28.1496062992126,NA
52742,Clinton County,IA,NA,NA,NA,90.25157232704403
52803,Scott County,IA,NA,NA,NA,70.44025157232704
52807,Scott County,IA,NA,NA,NA,70.12578616352201
66012,Wyandotte County,KS,NA,88.87122416534181,NA,NA
66048,Leavenworth County,KS,50.5338078291815,NA,NA,NA
66210,Johnson County,KS,NA,75.99364069952306,NA,NA
66215,Johnson County,KS,NA,90.30206677265501,NA,NA
66503,Riley County,KS,NA,NA,NA,95.28301886792453
66547,Pottawatomie County,KS,87.54448398576513,NA,NA,NA
66720,Neosho County,KS,88.96797153024912,79.4912559618442,NA,NA
67501,Reno County,KS,NA,68.5214626391097,NA,NA
67665,Russell County,KS,75.44483985765125,NA,NA,NA
67846,Finney County,KS,NA,NA,NA,19.18238993710692
40047,Bullitt County,KY,NA,NA,53.14960629921261,NA
40210,Jefferson County,KY,NA,42.92527821939587,NA,NA
40228,Jefferson County,KY,NA,65.81875993640699,NA,NA
40324,Scott County,KY,NA,16.375198728139907,NA,NA
40361,Bourbon County,KY,NA,37.51987281399046,NA,NA
40422,Boyle County,KY,NA,NA,47.047244094488185,NA
40505,Fayette County,KY,NA,25.43720190779014,NA,NA
40701,Whitley County,KY,NA,NA,12.598425196850393,NA
41014,Kenton County,KY,NA,53.89507154213037,NA,NA
41048,Boone County,KY,NA,NA,NA,88.67924528301887
41094,Boone County,KY,66.19217081850533,NA,NA,NA
41144,Greenup County,KY,NA,NA,52.16535433070866,NA
41169,Greenup County,KY,NA,68.68044515103338,NA,NA
41175,Greenup County,KY,NA,NA,NA,61.0062893081761
41522,Pike County,KY,NA,73.60890302066773,NA,NA
42001,McCracken County,KY,NA,NA,NA,36.16352201257861
42141,Barren County,KY,NA,14.308426073131955,NA,NA
42240,Christian County,KY,NA,6.836248012718602,NA,NA
42539,Casey County,KY,NA,75.67567567567568,NA,NA
42701,Hardin County,KY,NA,NA,NA,5.660377358490567
42718,Taylor County,KY,NA,NA,NA,9.748427672955975
70003,Jefferson Parish,LA,NA,33.86327503974563,NA,NA
70006,Jefferson Parish,LA,74.73309608540926,NA,NA,NA
70065,Jefferson Parish,LA,NA,NA,3.346456692913386,NA
70070,St. Charles Parish,LA,NA,NA,88.77952755905511,NA
70072,Jefferson Parish,LA,NA,11.446740858505565,NA,NA
70125,Orleans Parish,LA,15.302491103202847,NA,NA,NA
70128,Orleans Parish,LA,NA,94.75357710651828,NA,NA
70130,Orleans Parish,LA,NA,NA,NA,88.36477987421384
70131,Orleans Parish,LA,17.793594306049823,NA,NA,NA
70301,Lafourche Parish,LA,NA,NA,8.858267716535433,NA
70363,Terrebonne Parish,LA,NA,4.292527821939586,NA,NA
70374,Lafourche Parish,LA,NA,38.63275039745628,NA,NA
70441,St. Helena Parish,LA,NA,NA,96.25984251968504,NA
70444,Tangipahoa Parish,LA,43.41637010676156,47.05882352941176,NA,NA
70458,St. Tammany Parish,LA,NA,26.86804451510334,NA,NA
70548,Vermilion Parish,LA,NA,NA,NA,89.937106918239
70570,St. Landry Parish,LA,NA,1.2718600953895072,NA,51.57232704402516
70586,Evangeline Parish,LA,NA,NA,NA,43.710691823899374
70601,Calcasieu Parish,LA,NA,NA,8.46456692913386,NA
70663,Calcasieu Parish,LA,NA,NA,22.04724409448819,NA
70734,Ascension Parish,LA,77.22419928825623,NA,NA,NA
70764,Iberville Parish,LA,NA,NA,57.677165354330704,NA
70769,Ascension Parish,LA,NA,81.71701112877582,NA,NA
70811,East Baton Rouge Parish,LA,NA,NA,NA,98.74213836477988
70815,East Baton Rouge Parish,LA,NA,NA,84.4488188976378,NA
71055,Webster Parish,LA,NA,18.75993640699523,NA,NA
71103,Caddo Parish,LA,NA,54.8489666136725,NA,NA
71118,Caddo Parish,LA,21.70818505338078,NA,NA,NA
71203,Ouachita Parish,LA,NA,NA,24.015748031496063,NA
71302,Rapides Parish,LA,NA,NA,55.51181102362205,NA
71457,Natchitoches Parish,LA,NA,NA,24.803149606299215,NA
03901,York County,ME,NA,NA,NA,81.76100628930818
04021,Cumberland County,ME,NA,NA,NA,78.30188679245283
04073,York County,ME,NA,NA,NA,12.264150943396226
04074,Cumberland County,ME,NA,NA,54.7244094488189,37.735849056603776
04096,Cumberland County,ME,NA,NA,96.45669291338582,NA
04106,Cumberland County,ME,NA,36.88394276629571,NA,NA
04345,Kennebec County,ME,NA,45.151033386327505,NA,NA
04401,Penobscot County,ME,NA,NA,NA,0.628930817610063
04841,Knox County,ME,NA,NA,46.45669291338583,NA
04930,Penobscot County,ME,NA,NA,NA,82.0754716981132
04950,Somerset County,ME,66.19217081850533,NA,NA,NA
20639,Calvert County,MD,75.08896797153025,NA,NA,NA
20744,Prince George's County,MD,NA,NA,37.00787401574803,NA
20748,Prince George's County,MD,NA,NA,NA,49.056603773584904
20815,Montgomery County,MD,NA,81.39904610492846,NA,NA
21035,Anne Arundel County,MD,NA,NA,92.32283464566929,NA
21061,Anne Arundel County,MD,NA,NA,NA,77.67295597484278
21113,Anne Arundel County,MD,NA,NA,64.56692913385827,NA
21205,Baltimore city,MD,NA,47.37678855325914,NA,NA
21206,Baltimore city,MD,NA,NA,12.007874015748031,NA
21208,Baltimore County,MD,NA,NA,31.10236220472441,NA
21212,Baltimore city,MD,NA,NA,NA,33.9622641509434
21215,Baltimore city,MD,NA,9.062003179650238,NA,NA
21217,Baltimore city,MD,61.20996441281139,NA,NA,NA
21218,Baltimore city,MD,NA,12.082670906200319,NA,NA
21221,Baltimore County,MD,NA,NA,22.04724409448819,NA
21222,Baltimore County,MD,12.455516014234876,NA,NA,NA
21234,Baltimore County,MD,28.46975088967972,NA,NA,NA
21502,Allegany County,MD,NA,NA,18.89763779527559,NA
21536,Garrett County,MD,NA,100,NA,NA
21660,Caroline County,MD,NA,97.61526232114467,NA,NA
21666,Queen Anne's County,MD,81.49466192170819,NA,NA,NA
21713,Washington County,MD,NA,NA,NA,94.0251572327044
21811,Worcester County,MD,NA,NA,59.4488188976378,NA
21842,Worcester County,MD,NA,NA,85.8267716535433,NA
21921,Cecil County,MD,NA,NA,6.299212598425196,NA
01030,Hampden County,MA,44.48398576512456,NA,NA,NA
01075,Hampshire County,MA,NA,NA,51.181102362204726,NA
01151,Hampden County,MA,NA,28.61685214626391,NA,NA
01201,Berkshire County,MA,NA,NA,0.39370078740157477,NA
01453,Worcester County,MA,NA,0.9538950715421303,NA,NA
01540,Worcester County,MA,NA,40.69952305246423,NA,NA
01562,Worcester County,MA,NA,NA,NA,25.78616352201258
01602,Worcester County,MA,NA,8.108108108108109,21.25984251968504,NA
01604,Worcester County,MA,NA,0.6359300476947536,NA,NA
01605,Worcester County,MA,0.3558718861209964,NA,NA,NA
01606,Worcester County,MA,NA,NA,95.07874015748031,NA
01609,Worcester County,MA,NA,3.1796502384737675,NA,NA
01610,Worcester County,MA,71.17437722419929,NA,NA,NA
01702,Middlesex County,MA,NA,1.1128775834658187,NA,NA
01742,Middlesex County,MA,NA,NA,69.88188976377953,NA
01754,Middlesex County,MA,NA,NA,52.95275590551181,NA
01760,Middlesex County,MA,NA,37.67885532591415,NA,NA
01801,Middlesex County,MA,NA,94.4356120826709,NA,NA
01821,Middlesex County,MA,NA,5.88235294117647,32.08661417322835,NA
01854,Middlesex County,MA,NA,NA,94.29133858267717,4.716981132075472
01867,Middlesex County,MA,NA,NA,9.645669291338582,13.522012578616351
01876,Middlesex County,MA,NA,NA,3.149606299212598,34.90566037735849
01902,Essex County,MA,NA,NA,0.5905511811023622,NA
01904,Essex County,MA,NA,NA,12.992125984251967,NA
01907,Essex County,MA,99.28825622775801,NA,NA,NA
01913,Essex County,MA,41.99288256227758,NA,NA,NA
01921,Essex County,MA,NA,NA,NA,96.22641509433963
01938,Essex County,MA,NA,46.42289348171701,NA,NA
01940,Essex County,MA,NA,NA,46.25984251968504,NA
01945,Essex County,MA,NA,NA,82.48031496062993,NA
01960,Essex County,MA,NA,NA,6.496062992125983,NA
02021,Norfolk County,MA,NA,92.84578696343402,88.9763779527559,NA
02026,Norfolk County,MA,NA,5.246422893481717,NA,NA
02035,Norfolk County,MA,NA,34.34022257551669,NA,NA
02045,Plymouth County,MA,NA,34.97615262321145,NA,NA
02066,Plymouth County,MA,NA,81.87599364069952,NA,NA
02119,Suffolk County,MA,NA,NA,0.19685039370078738,NA
02124,Suffolk County,MA,0,NA,NA,NA
02135,Suffolk County,MA,NA,NA,10.039370078740157,NA
02138,Middlesex County,MA,NA,61.04928457869634,NA,NA
02148,Middlesex County,MA,NA,0,24.606299212598426,NA
02152,Suffolk County,MA,NA,42.130365659777425,NA,NA
02170,Norfolk County,MA,NA,32.75039745627981,NA,NA
02302,Plymouth County,MA,NA,NA,1.968503937007874,NA
02351,Plymouth County,MA,NA,18.441971383147855,NA,NA
02368,Norfolk County,MA,NA,NA,NA,17.29559748427673
02459,Middlesex County,MA,NA,NA,55.70866141732284,NA
02467,Norfolk County,MA,29.537366548042705,NA,NA,NA
02476,Middlesex County,MA,NA,38.15580286168522,NA,NA
02482,Norfolk County,MA,NA,NA,79.33070866141733,NA
02493,Middlesex County,MA,67.97153024911033,NA,NA,NA
02718,Bristol County,MA,NA,NA,93.7007874015748,NA
02760,Bristol County,MA,NA,12.87758346581876,NA,NA
02767,Bristol County,MA,54.804270462633454,NA,NA,NA
02780,Bristol County,MA,NA,0.1589825119236884,1.574803149606299,NA
48001,St. Clair County,MI,NA,NA,68.11023622047244,NA
48026,Macomb County,MI,NA,NA,39.173228346456696,NA
48035,Macomb County,MI,14.23487544483986,NA,NA,NA
48036,Macomb County,MI,NA,NA,61.023622047244096,NA
48038,Macomb County,MI,16.014234875444842,NA,NA,NA
48042,Macomb County,MI,20.99644128113879,NA,NA,NA
48043,Macomb County,MI,NA,33.38632750397456,NA,NA
48044,Macomb County,MI,NA,9.220985691573928,6.102362204724409,NA
48051,Macomb County,MI,56.22775800711744,NA,NA,NA
48071,Oakland County,MI,NA,27.503974562798096,NA,NA
48101,Wayne County,MI,47.330960854092524,NA,NA,NA
48105,Washtenaw County,MI,NA,39.90461049284579,NA,NA
48116,Livingston County,MI,NA,NA,85.62992125984252,NA
48134,Wayne County,MI,NA,NA,NA,41.509433962264154
48138,Wayne County,MI,NA,92.36883942766295,83.85826771653542,NA
48141,Wayne County,MI,NA,53.73608903020668,NA,NA
48146,Wayne County,MI,NA,9.538950715421304,NA,NA
48150,Wayne County,MI,31.672597864768683,NA,NA,NA
48154,Wayne County,MI,NA,NA,7.874015748031496,NA
48161,Monroe County,MI,7.473309608540925,50.07949125596184,19.68503937007874,NA
48166,Monroe County,MI,NA,43.40222575516693,NA,NA
48167,Oakland County,MI,NA,NA,25.984251968503933,NA
48174,Wayne County,MI,5.338078291814947,NA,NA,NA
48180,Wayne County,MI,NA,2.7027027027027026,NA,NA
48187,Wayne County,MI,NA,12.559618441971383,NA,NA
48188,Wayne County,MI,NA,NA,7.677165354330709,NA
48192,Wayne County,MI,NA,19.71383147853736,NA,NA
48197,Washtenaw County,MI,NA,2.384737678855326,NA,NA
48207,Wayne County,MI,NA,20.82670906200318,NA,NA
48209,Wayne County,MI,NA,57.23370429252782,NA,NA
48215,Wayne County,MI,NA,37.83783783783784,NA,NA
48217,Wayne County,MI,NA,65.65977742448331,NA,NA
48221,Wayne County,MI,NA,58.34658187599364,NA,NA
48223,Wayne County,MI,90.0355871886121,NA,NA,NA
48228,Wayne County,MI,NA,1.4308426073131957,NA,NA
48239,Wayne County,MI,NA,10.01589825119237,NA,NA
48302,Oakland County,MI,76.15658362989323,NA,NA,NA
48307,Oakland County,MI,NA,NA,21.8503937007874,NA
48322,Oakland County,MI,NA,NA,NA,44.0251572327044
48327,Oakland County,MI,NA,33.70429252782194,72.83464566929135,NA
48336,Oakland County,MI,NA,NA,NA,25.471698113207548
48341,Oakland County,MI,23.843416370106763,NA,NA,NA
48439,Genesee County,MI,NA,15.262321144674084,15.748031496062993,NA
48451,Genesee County,MI,NA,75.3577106518283,NA,NA
48471,Sanilac County,MI,NA,75.19872813990462,NA,NA
48602,Saginaw County,MI,NA,3.815580286168521,NA,NA
48640,Midland County,MI,NA,NA,NA,4.088050314465408
48706,Bay County,MI,7.829181494661921,NA,NA,2.8301886792452833
48708,Bay County,MI,NA,8.90302066772655,NA,NA
48823,Ingham County,MI,NA,35.294117647058826,NA,NA
48827,Eaton County,MI,NA,NA,NA,84.90566037735849
48837,Eaton County,MI,NA,NA,31.496062992125985,NA
48838,Montcalm County,MI,NA,33.068362480127185,NA,NA
48843,Livingston County,MI,NA,14.626391096979333,NA,NA
48846,Ionia County,MI,NA,NA,48.031496062992126,NA
48858,Isabella County,MI,NA,NA,NA,7.547169811320755
48888,Montcalm County,MI,NA,NA,77.95275590551181,NA
49021,Eaton County,MI,NA,NA,70.86614173228347,NA
49022,Berrien County,MI,NA,11.76470588235294,NA,NA
49036,Branch County,MI,NA,NA,24.21259842519685,NA
49038,Berrien County,MI,NA,NA,61.811023622047244,NA
49048,Kalamazoo County,MI,35.231316725978644,NA,NA,NA
49068,Calhoun County,MI,NA,NA,43.30708661417323,NA
49087,Kalamazoo County,MI,NA,NA,90.74803149606299,NA
49093,St. Joseph County,MI,NA,31.63751987281399,NA,NA
49097,Kalamazoo County,MI,NA,NA,70.47244094488188,NA
49107,Berrien County,MI,85.40925266903915,NA,NA,NA
49120,Berrien County,MI,NA,NA,15.354330708661418,NA
49203,Jackson County,MI,NA,NA,7.283464566929133,NA
49230,Jackson County,MI,NA,71.86009538950715,NA,NA
49240,Jackson County,MI,NA,NA,83.07086614173228,NA
49242,Hillsdale County,MI,NA,NA,NA,45.911949685534594
49319,Kent County,MI,NA,62.79809220985692,NA,NA
49321,Kent County,MI,NA,NA,NA,73.58490566037736
49327,Newaygo County,MI,NA,NA,74.60629921259843,NA
49341,Kent County,MI,NA,NA,25.393700787401574,NA
49412,Newaygo County,MI,63.70106761565836,NA,NA,NA
49417,Ottawa County,MI,NA,77.42448330683625,NA,NA
49423,Ottawa County,MI,10.676156583629894,NA,NA,NA
49444,Muskegon County,MI,NA,NA,54.52755905511811,NA
49445,Muskegon County,MI,NA,37.36089030206677,NA,NA
49507,Kent County,MI,NA,NA,23.4251968503937,NA
49508,Kent County,MI,NA,NA,9.251968503937007,NA
49525,Kent County,MI,NA,NA,58.661417322834644,NA
49546,Kent County,MI,NA,38.79173290937997,30.511811023622048,NA
49749,Cheboygan County,MI,NA,NA,NA,95.9119496855346
49783,Chippewa County,MI,NA,21.62162162162162,NA,NA
49802,Dickinson County,MI,NA,91.25596184419715,NA,NA
49829,Delta County,MI,NA,NA,78.93700787401575,NA
55011,Anoka County,MN,NA,NA,90.94488188976378,NA
55016,Washington County,MN,NA,NA,58.85826771653543,NA
55037,Pine County,MN,NA,94.27662957074722,NA,NA
55045,Chisago County,MN,NA,NA,71.65354330708661,NA
55106,Ramsey County,MN,NA,7.472178060413355,NA,NA
55108,Ramsey County,MN,NA,87.28139904610492,NA,NA
55115,Washington County,MN,NA,90.62003179650239,NA,NA
55119,Ramsey County,MN,NA,16.534181240063592,NA,NA
55125,Washington County,MN,NA,NA,89.76377952755905,NA
55130,Ramsey County,MN,NA,48.171701112877585,NA,NA
55303,Anoka County,MN,9.252669039145907,NA,NA,NA
55304,Anoka County,MN,NA,NA,40.354330708661415,NA
55317,Carver County,MN,NA,77.90143084260731,NA,NA
55343,Hennepin County,MN,NA,44.35612082670906,NA,NA
55374,Hennepin County,MN,77.93594306049823,NA,NA,NA
55379,Scott County,MN,NA,28.45786963434022,NA,NA
55411,Hennepin County,MN,NA,3.338632750397456,NA,NA
55413,Hennepin County,MN,NA,NA,45.47244094488189,NA
55416,Hennepin County,MN,83.27402135231317,NA,NA,NA
55417,Hennepin County,MN,NA,NA,78.74015748031496,NA
55418,Hennepin County,MN,NA,NA,35.23622047244094,NA
55427,Hennepin County,MN,NA,55.80286168521462,NA,NA
55430,Hennepin County,MN,26.690391459074732,NA,NA,NA
55441,Hennepin County,MN,NA,89.66613672496025,NA,NA
55802,St. Louis County,MN,NA,76.31160572337043,NA,NA
55976,Olmsted County,MN,82.56227758007117,NA,NA,NA
55987,Winona County,MN,NA,34.181240063593,NA,NA
56073,Brown County,MN,NA,24.324324324324326,NA,NA
56093,Waseca County,MN,NA,NA,79.52755905511812,NA
56156,Rock County,MN,NA,NA,58.07086614173228,NA
56303,Stearns County,MN,NA,NA,NA,92.45283018867924
56352,Stearns County,MN,NA,NA,97.83464566929135,NA
56377,Stearns County,MN,NA,NA,87.20472440944881,NA
56401,Crow Wing County,MN,NA,37.0429252782194,NA,NA
56442,Crow Wing County,MN,NA,NA,NA,63.20754716981132
56464,Wadena County,MN,NA,85.53259141494436,NA,NA
56482,Wadena County,MN,29.8932384341637,NA,NA,NA
56560,Clay County,MN,NA,61.685214626391094,NA,NA
56701,Pennington County,MN,NA,21.144674085850557,NA,NA
38614,Coahoma County,MS,NA,52.46422893481717,NA,NA
38635,Marshall County,MS,NA,NA,86.61417322834646,NA
38643,Quitman County,MS,NA,NA,100,NA
38654,DeSoto County,MS,NA,NA,22.440944881889763,NA
38663,Tippah County,MS,NA,98.5691573926868,NA,NA
38901,Grenada County,MS,NA,NA,NA,38.36477987421384
39042,Rankin County,MS,NA,36.089030206677265,NA,NA
39069,Jefferson County,MS,83.98576512455516,NA,96.8503937007874,NA
39073,Rankin County,MS,54.804270462633454,NA,NA,NA
39272,Hinds County,MS,NA,79.3322734499205,NA,NA
39503,Harrison County,MS,NA,NA,NA,29.559748427672954
39507,Harrison County,MS,NA,NA,32.48031496062992,NA
39553,Jackson County,MS,NA,44.992050874403816,NA,NA
39564,Jackson County,MS,NA,34.65818759936407,NA,98.42767295597484
63026,St. Louis County,MO,NA,NA,42.71653543307087,NA
63033,St. Louis County,MO,NA,NA,NA,54.40251572327044
63043,St. Louis County,MO,NA,NA,48.818897637795274,NA
63049,Jefferson County,MO,NA,NA,NA,74.21383647798741
63106,St. Louis city,MO,NA,NA,73.03149606299213,NA
63116,St. Louis city,MO,44.128113879003564,NA,NA,83.64779874213836
63141,St. Louis County,MO,NA,79.96820349761526,NA,NA
63146,St. Louis County,MO,NA,NA,NA,5.9748427672955975
63368,St. Charles County,MO,NA,NA,NA,13.836477987421384
63664,Washington County,MO,NA,NA,68.7007874015748,NA
63873,New Madrid County,MO,NA,NA,94.48818897637796,NA
64012,Cass County,MO,NA,28.7758346581876,NA,NA
64014,Jackson County,MO,NA,22.416534181240063,NA,NA
64015,Jackson County,MO,NA,NA,17.322834645669293,NA
64024,Clay County,MO,NA,49.44356120826709,NA,NA
64029,Jackson County,MO,NA,40.38155802861685,NA,NA
64052,Jackson County,MO,NA,NA,NA,84.59119496855347
64055,Jackson County,MO,NA,8.744038155802862,NA,11.949685534591195
64068,Clay County,MO,NA,10.651828298887123,NA,NA
64086,Jackson County,MO,NA,NA,94.09448818897637,NA
64098,Platte County,MO,NA,96.66136724960255,NA,NA
64106,Jackson County,MO,NA,NA,58.46456692913385,NA
64113,Jackson County,MO,NA,66.77265500794913,NA,NA
64127,Jackson County,MO,39.8576512455516,NA,NA,NA
64424,Harrison County,MO,NA,NA,82.08661417322834,NA
64507,Buchanan County,MO,NA,NA,36.22047244094488,NA
64601,Livingston County,MO,NA,NA,NA,20.754716981132077
65018,Moniteau County,MO,NA,93.64069952305246,NA,NA
65026,Miller County,MO,NA,88.07631160572336,NA,NA
65065,Camden County,MO,NA,NA,69.48818897637796,NA
65201,Boone County,MO,NA,45.310015898251194,NA,NA
65203,Boone County,MO,NA,NA,NA,28.30188679245283
65251,Callaway County,MO,NA,NA,NA,47.79874213836478
65270,Randolph County,MO,NA,77.26550079491255,91.53543307086615,NA
65301,Pettis County,MO,NA,4.451510333863275,NA,NA
65667,Wright County,MO,NA,NA,99.80314960629921,NA
59044,Yellowstone County,MT,NA,NA,97.44094488188976,NA
59602,Lewis and Clark County,MT,NA,NA,NA,32.38993710691824
59801,Missoula County,MT,NA,NA,63.582677165354326,NA
59870,Ravalli County,MT,NA,91.57392686804452,NA,NA
59901,Flathead County,MT,NA,33.227344992050874,NA,NA
68111,Douglas County,NE,NA,70.11128775834659,NA,NA
68114,Douglas County,NE,NA,78.69634340222575,NA,NA
68131,Douglas County,NE,NA,NA,90.5511811023622,NA
68132,Douglas County,NE,NA,NA,96.65354330708661,NA
68135,Douglas County,NE,NA,70.74721780604133,NA,NA
68137,Douglas County,NE,NA,89.0302066772655,NA,NA
68502,Lancaster County,NE,NA,NA,69.68503937007874,NA
68512,Lancaster County,NE,NA,NA,92.51968503937007,NA
68701,Madison County,NE,NA,50.23847376788553,NA,NA
68826,Merrick County,NE,NA,NA,89.96062992125984,NA
68949,Phelps County,NE,NA,NA,NA,64.46540880503144
89106,Clark County,NV,NA,NA,NA,76.10062893081762
89107,Clark County,NV,NA,NA,61.811023622047244,NA
89121,Clark County,NV,NA,NA,28.346456692913385,NA
89129,Clark County,NV,NA,NA,NA,67.9245283018868
89408,Lyon County,NV,NA,NA,35.826771653543304,NA
89447,Lyon County,NV,NA,NA,84.05511811023622,NA
89460,Douglas County,NV,NA,75.83465818759937,NA,NA
89503,Washoe County,NV,NA,NA,39.960629921259844,NA
89512,Washoe County,NV,NA,18.124006359300477,NA,NA
89801,Elko County,NV,NA,NA,89.37007874015748,NA
03054,Hillsborough County,NH,48.754448398576514,NA,NA,NA
03060,Hillsborough County,NH,NA,7.154213036565977,NA,NA
03064,Hillsborough County,NH,NA,30.52464228934817,NA,NA
03076,Hillsborough County,NH,NA,44.83306836248013,NA,NA
03079,Rockingham County,NH,NA,17.647058823529413,NA,NA
03087,Rockingham County,NH,NA,98.88712241653418,NA,NA
03104,Hillsborough County,NH,NA,NA,13.779527559055119,NA
03220,Belknap County,NH,NA,NA,74.80314960629921,NA
03244,Hillsborough County,NH,NA,93.0047694753577,NA,NA
03431,Cheshire County,NH,NA,NA,26.77165354330709,NA
03570,Coos County,NH,NA,NA,NA,62.264150943396224
03867,Strafford County,NH,NA,24.483306836248012,NA,NA
03874,Rockingham County,NH,NA,NA,53.74015748031496,NA
07002,Hudson County,NJ,NA,NA,NA,39.937106918238996
07009,Essex County,NJ,NA,NA,NA,50.62893081761006
07016,Union County,NJ,NA,NA,40.74803149606299,NA
07024,Bergen County,NJ,NA,NA,72.44094488188976,NA
07036,Union County,NJ,NA,89.82511923688395,NA,NA
07108,Essex County,NJ,NA,15.421303656597773,NA,NA
07111,Essex County,NJ,NA,NA,9.05511811023622,NA
07410,Bergen County,NJ,NA,48.330683624801274,NA,NA
07730,Monmouth County,NJ,NA,NA,43.7007874015748,NA
07747,Monmouth County,NJ,NA,NA,NA,56.289308176100626
07860,Sussex County,NJ,NA,28.298887122416534,NA,NA
07946,Morris County,NJ,98.93238434163702,NA,NA,NA
08004,Camden County,NJ,NA,NA,57.874015748031496,NA
08016,Burlington County,NJ,NA,3.6565977742448332,NA,NA
08028,Gloucester County,NJ,NA,NA,53.34645669291339,NA
08034,Camden County,NJ,NA,NA,94.88188976377953,NA
08037,Atlantic County,NJ,NA,NA,21.456692913385826,NA
08043,Camden County,NJ,NA,NA,NA,16.037735849056602
08053,Burlington County,NJ,NA,82.51192368839428,75.98425196850394,NA
08077,Burlington County,NJ,NA,NA,60.03937007874016,NA
08085,Gloucester County,NJ,NA,25.27821939586645,NA,NA
08096,Gloucester County,NJ,NA,91.7329093799682,NA,NA
08108,Camden County,NJ,NA,NA,NA,68.23899371069182
08232,Atlantic County,NJ,NA,27.027027027027028,NA,NA
08527,Ocean County,NJ,NA,10.81081081081081,NA,NA
08540,Mercer County,NJ,NA,NA,34.84251968503937,NA
08620,Mercer County,NJ,NA,83.14785373608903,NA,NA
08648,Mercer County,NJ,69.3950177935943,NA,NA,NA
08690,Mercer County,NJ,NA,NA,NA,47.16981132075472
08722,Ocean County,NJ,NA,79.65023847376789,NA,NA
08753,Ocean County,NJ,8.896797153024911,NA,NA,NA
08755,Ocean County,NJ,NA,NA,19.094488188976378,NA
08812,Middlesex County,NJ,NA,69.47535771065183,NA,NA
08816,Middlesex County,NJ,NA,36.72496025437202,NA,NA
08823,Somerset County,NJ,99.644128113879,NA,NA,NA
08859,Middlesex County,NJ,NA,97.77424483306835,NA,NA
08865,Warren County,NJ,6.405693950177936,NA,NA,NA
87105,Bernalillo County,NM,NA,4.133545310015898,NA,NA
87106,Bernalillo County,NM,NA,22.89348171701113,NA,NA
87109,Bernalillo County,NM,NA,19.236883942766294,NA,NA
87110,Bernalillo County,NM,NA,71.38314785373609,NA,NA
87121,Bernalillo County,NM,NA,NA,5.905511811023622,NA
87410,San Juan County,NM,NA,NA,NA,67.29559748427673
87505,Santa Fe County,NM,NA,NA,6.496062992125983,NA
87571,Taos County,NM,NA,90.14308426073131,49.21259842519685,NA
87701,San Miguel County,NM,NA,NA,49.01574803149607,NA
88001,Doa Ana County,NM,84.34163701067615,NA,NA,NA
88240,Lea County,NM,NA,6.677265500794912,NA,NA
10009,New York County,NY,NA,35.771065182829886,NA,NA
10024,New York County,NY,NA,95.70747217806041,NA,NA
10036,New York County,NY,NA,38.79173290937997,NA,NA
10039,New York County,NY,NA,NA,NA,38.9937106918239
10065,New York County,NY,95.37366548042705,NA,NA,NA
10453,Bronx County,NY,NA,0.47694753577106513,NA,NA
10456,Bronx County,NY,NA,NA,0,NA
10457,Bronx County,NY,NA,0.3179650238473768,NA,NA
10460,Bronx County,NY,1.7793594306049825,NA,NA,NA
10463,Bronx County,NY,NA,NA,NA,56.60377358490566
10467,Bronx County,NY,1.0676156583629894,NA,NA,NA
10468,Bronx County,NY,NA,NA,2.1653543307086616,NA
10472,Bronx County,NY,NA,2.066772655007949,NA,NA
10530,Westchester County,NY,NA,NA,NA,51.886792452830186
10591,Westchester County,NY,NA,NA,98.03149606299213,NA
10595,Westchester County,NY,95.72953736654804,NA,NA,NA
11102,Queens County,NY,52.66903914590747,NA,NA,NA
11206,Kings County,NY,NA,NA,1.3779527559055118,NA
11208,Kings County,NY,NA,0.7949125596184419,NA,NA
11214,Kings County,NY,NA,NA,NA,6.60377358490566
11215,Kings County,NY,NA,NA,30.708661417322837,NA
11226,Kings County,NY,NA,NA,NA,8.80503144654088
11231,Kings County,NY,NA,NA,42.322834645669296,NA
11233,Kings County,NY,NA,13.672496025437203,NA,NA
11355,Queens County,NY,NA,29.252782193958666,NA,NA
11368,Queens County,NY,NA,NA,18.11023622047244,NA
11385,Queens County,NY,NA,67.0906200317965,NA,NA
11428,Queens County,NY,NA,NA,NA,78.9308176100629
11545,Nassau County,NY,86.12099644128114,NA,NA,NA
11552,Nassau County,NY,NA,NA,NA,52.83018867924528
11554,Nassau County,NY,54.44839857651246,NA,NA,NA
11725,Suffolk County,NY,NA,NA,63.976377952755904,NA
11946,Suffolk County,NY,NA,NA,NA,88.0503144654088
11961,Suffolk County,NY,NA,NA,NA,69.81132075471697
12010,Montgomery County,NY,NA,6.041335453100159,NA,NA
12054,Albany County,NY,82.20640569395017,NA,NA,NA
12065,Saratoga County,NY,NA,25.119236883942765,NA,NA
12144,Rensselaer County,NY,NA,NA,39.56692913385827,NA
12180,Rensselaer County,NY,6.049822064056939,NA,NA,NA
12203,Albany County,NY,NA,69.79332273449921,NA,33.0188679245283
12414,Greene County,NY,NA,NA,36.023622047244096,NA
12580,Dutchess County,NY,NA,NA,NA,99.05660377358491
12804,Warren County,NY,NA,9.379968203497615,NA,NA
12901,Clinton County,NY,15.658362989323843,19.395866454689983,5.118110236220472,NA
13073,Tompkins County,NY,NA,NA,65.35433070866141,NA
13090,Onondaga County,NY,NA,46.26391096979332,NA,NA
13165,Seneca County,NY,NA,60.254372019077906,20.866141732283463,NA
13205,Onondaga County,NY,NA,15.580286168521463,NA,NA
13215,Onondaga County,NY,NA,88.71224165341812,NA,NA
13219,Onondaga County,NY,NA,NA,48.22834645669291,NA
13346,Madison County,NY,NA,65.97774244833067,NA,NA
13363,Oneida County,NY,96.08540925266904,NA,NA,NA
13421,Madison County,NY,NA,NA,51.574803149606296,NA
13440,Oneida County,NY,NA,1.9077901430842605,NA,NA
13461,Oneida County,NY,NA,90.46104928457869,NA,NA
13732,Tioga County,NY,NA,NA,NA,70.75471698113208
13778,Chenango County,NY,NA,NA,NA,71.0691823899371
13827,Tioga County,NY,35.587188612099645,NA,NA,NA
13850,Broome County,NY,25.26690391459075,NA,NA,NA
14072,Erie County,NY,NA,42.289348171701114,NA,NA
14132,Niagara County,NY,NA,64.70588235294117,NA,NA
14206,Erie County,NY,NA,16.05723370429253,NA,NA
14210,Erie County,NY,25.26690391459075,NA,NA,NA
14211,Erie County,NY,NA,10.492845786963434,NA,NA
14213,Erie County,NY,NA,NA,39.37007874015748,NA
14218,Erie County,NY,NA,20.190779014308426,NA,NA
14420,Monroe County,NY,NA,17.8060413354531,NA,NA
14454,Livingston County,NY,NA,72.17806041335453,NA,NA
14522,Wayne County,NY,NA,34.49920508744038,NA,NA
14568,Wayne County,NY,NA,86.16852146263912,NA,NA
14586,Monroe County,NY,NA,65.18282988871225,NA,NA
14604,Monroe County,NY,NA,52.14626391096979,NA,NA
14607,Monroe County,NY,53.380782918149464,NA,NA,NA
14612,Monroe County,NY,49.8220640569395,NA,NA,NA
14615,Monroe County,NY,NA,13.036565977742448,NA,NA
14619,Monroe County,NY,NA,16.85214626391097,NA,NA
14620,Monroe County,NY,NA,NA,16.535433070866144,NA
14701,Chautauqua County,NY,NA,2.8616852146263914,NA,NA
14715,Allegany County,NY,NA,82.98887122416534,NA,NA
14779,Cattaraugus County,NY,NA,67.24960254372019,NA,NA
14843,Steuben County,NY,NA,NA,29.7244094488189,NA
14845,Chemung County,NY,NA,NA,NA,29.874213836477985
14871,Chemung County,NY,NA,96.18441971383149,NA,NA
27105,Forsyth County,NC,NA,NA,NA,6.289308176100629
27106,Forsyth County,NC,NA,NA,3.937007874015748,NA
27127,Forsyth County,NC,NA,NA,4.724409448818897,NA
27214,Guilford County,NC,87.18861209964413,NA,NA,NA
27253,Alamance County,NC,NA,NA,17.913385826771652,NA
27265,Guilford County,NC,NA,NA,14.566929133858267,NA
27295,Davidson County,NC,NA,NA,4.133858267716536,NA
27302,Alamance County,NC,NA,NA,NA,22.32704402515723
27332,Lee County,NC,NA,38.15580286168522,NA,NA
27407,Guilford County,NC,38.07829181494662,NA,NA,NA
27513,Wake County,NC,NA,61.526232114467405,NA,NA
27514,Orange County,NC,NA,NA,27.95275590551181,NA
27517,Orange County,NC,NA,NA,26.968503937007878,NA
27521,Harnett County,NC,NA,90.77901430842607,NA,NA
27529,Wake County,NC,NA,NA,NA,14.779874213836477
27530,Wayne County,NC,NA,NA,NA,24.842767295597483
27542,Johnston County,NC,NA,NA,74.21259842519686,NA
27546,Harnett County,NC,64.41281138790036,NA,NA,NA
27565,Granville County,NC,NA,NA,18.503937007874015,NA
27572,Person County,NC,NA,87.28139904610492,NA,NA
27573,Person County,NC,NA,NA,NA,54.088050314465406
27577,Johnston County,NC,NA,74.0858505564388,NA,NA
27603,Wake County,NC,13.167259786476867,55.96184419713831,NA,NA
27703,Durham County,NC,NA,NA,10.826771653543307,NA
27705,Durham County,NC,19.572953736654807,NA,NA,15.723270440251572
27828,Pitt County,NC,NA,68.04451510333863,NA,NA
27858,Pitt County,NC,NA,27.186009538950717,NA,NA
27949,Dare County,NC,NA,89.34817170111288,NA,NA
27958,Currituck County,NC,NA,NA,NA,93.71069182389937
28021,Gaston County,NC,NA,55.484896661367245,NA,NA
28031,Mecklenburg County,NC,NA,NA,40.15748031496063,NA
28034,Gaston County,NC,72.24199288256227,NA,NA,NA
28052,Gaston County,NC,NA,27.980922098569156,NA,NA
28056,Gaston County,NC,NA,45.46899841017488,NA,NA
28092,Lincoln County,NC,30.604982206405694,NA,NA,NA
28117,Iredell County,NC,NA,31.001589825119236,NA,NA
28139,Rutherford County,NC,NA,NA,55.31496062992126,NA
28147,Rowan County,NC,NA,NA,47.834645669291334,NA
28166,Iredell County,NC,68.32740213523132,NA,NA,NA
28210,Mecklenburg County,NC,88.25622775800713,NA,NA,NA
28211,Mecklenburg County,NC,NA,31.4785373608903,NA,NA
28216,Mecklenburg County,NC,NA,11.287758346581876,15.157480314960631,22.0125786163522
28269,Mecklenburg County,NC,NA,15.89825119236884,NA,NA
28273,Mecklenburg County,NC,39.8576512455516,NA,NA,NA
28326,Harnett County,NC,NA,NA,62.99212598425197,NA
28328,Sampson County,NC,31.316725978647685,NA,NA,NA
28348,Cumberland County,NC,24.91103202846975,NA,NA,NA
28379,Richmond County,NC,32.028469750889684,NA,NA,NA
28458,Duplin County,NC,NA,89.50715421303657,NA,NA
28462,Brunswick County,NC,22.064056939501782,NA,NA,NA
28465,Brunswick County,NC,NA,NA,54.13385826771654,NA
28467,Brunswick County,NC,87.54448398576513,NA,NA,NA
28513,Pitt County,NC,NA,78.37837837837837,NA,NA
28551,Lenoir County,NC,NA,83.78378378378379,NA,NA
28580,Greene County,NC,NA,NA,79.7244094488189,NA
28655,Burke County,NC,14.590747330960854,NA,NA,NA
28677,Iredell County,NC,NA,NA,20.47244094488189,NA
28714,Yancey County,NC,NA,66.93163751987281,NA,NA
28768,Transylvania County,NC,NA,84.41971383147853,NA,NA
28791,Henderson County,NC,NA,NA,27.165354330708663,NA
28792,Henderson County,NC,NA,32.909379968203496,NA,NA
58078,Cass County,ND,NA,NA,NA,14.465408805031446
58103,Cass County,ND,NA,7.631160572337042,NA,NA
43008,Licking County,OH,NA,95.86645468998411,NA,NA
43011,Knox County,OH,NA,NA,90.35433070866141,NA
43017,Franklin County,OH,NA,NA,68.30708661417323,NA
43026,Franklin County,OH,NA,21.462639109697935,NA,NA
43028,Knox County,OH,NA,NA,93.11023622047244,NA
43035,Delaware County,OH,NA,72.33704292527821,NA,NA
43055,Licking County,OH,NA,1.5898251192368837,1.1811023622047243,NA
43056,Licking County,OH,NA,NA,NA,55.9748427672956
43062,Licking County,OH,NA,NA,63.38582677165354,NA
43065,Delaware County,OH,NA,NA,27.559055118110237,NA
43125,Franklin County,OH,NA,NA,85.23622047244095,NA
43147,Fairfield County,OH,NA,82.1939586645469,NA,NA
43206,Franklin County,OH,3.202846975088968,NA,NA,NA
43207,Franklin County,OH,NA,1.7488076311605723,NA,NA
43223,Franklin County,OH,NA,6.518282988871224,NA,NA
43230,Franklin County,OH,NA,NA,14.173228346456693,NA
43311,Logan County,OH,NA,63.43402225755167,NA,NA
43460,Wood County,OH,NA,92.52782193958664,NA,NA
43521,Fulton County,OH,92.52669039145907,99.04610492845786,NA,NA
43560,Lucas County,OH,NA,82.67090620031796,NA,NA
43605,Lucas County,OH,NA,2.5437201907790143,NA,NA
43623,Lucas County,OH,NA,NA,NA,68.86792452830188
43719,Belmont County,OH,96.08540925266904,NA,NA,NA
43725,Guernsey County,OH,NA,17.329093799682035,NA,NA
43731,Perry County,OH,NA,71.86009538950715,87.99212598425197,NA
43756,Morgan County,OH,95.01779359430606,NA,NA,NA
43812,Coshocton County,OH,NA,NA,34.44881889763779,NA
43935,Belmont County,OH,NA,46.5818759936407,NA,NA
43947,Belmont County,OH,NA,NA,NA,94.33962264150944
43952,Jefferson County,OH,NA,8.426073131955485,NA,NA
43968,Columbiana County,OH,NA,NA,62.20472440944882,NA
44001,Lorain County,OH,NA,NA,24.409448818897637,NA
44004,Ashtabula County,OH,NA,2.2257551669316373,3.543307086614173,NA
44024,Geauga County,OH,NA,NA,14.37007874015748,NA
44047,Ashtabula County,OH,NA,NA,NA,80.18867924528303
44055,Lorain County,OH,NA,34.81717011128776,NA,NA
44089,Erie County,OH,NA,37.99682034976153,9.84251968503937,NA
44090,Lorain County,OH,NA,NA,NA,57.54716981132076
44094,Lake County,OH,NA,20.03179650238474,NA,NA
44109,Cuyahoga County,OH,0.7117437722419928,NA,NA,NA
44118,Cuyahoga County,OH,NA,83.30683624801271,NA,NA
44120,Cuyahoga County,OH,NA,NA,NA,7.861635220125786
44121,Cuyahoga County,OH,NA,11.128775834658187,NA,NA
44122,Cuyahoga County,OH,NA,NA,NA,0.3144654088050315
44132,Cuyahoga County,OH,NA,NA,47.047244094488185,36.79245283018868
44143,Cuyahoga County,OH,NA,35.13513513513514,NA,NA
44146,Cuyahoga County,OH,NA,6.995230524642289,NA,NA
44254,Medina County,OH,NA,NA,NA,94.65408805031447
44256,Medina County,OH,NA,NA,NA,1.257861635220126
44266,Portage County,OH,NA,NA,NA,5.031446540880504
44281,Medina County,OH,NA,23.52941176470588,NA,NA
44305,Summit County,OH,5.6939501779359425,NA,NA,NA
44306,Summit County,OH,NA,NA,32.08661417322835,NA
44333,Summit County,OH,78.29181494661923,NA,NA,NA
44446,Trumbull County,OH,48.04270462633452,NA,NA,NA
44460,Columbiana County,OH,NA,54.054054054054056,NA,NA
44505,Mahoning County,OH,NA,NA,NA,31.132075471698112
44515,Mahoning County,OH,NA,11.92368839427663,NA,NA
44621,Tuscarawas County,OH,92.17081850533808,NA,NA,NA
44663,Tuscarawas County,OH,51.60142348754449,15.103338632750399,NA,NA
44691,Wayne County,OH,NA,8.585055643879173,NA,NA
44708,Stark County,OH,NA,NA,30.905511811023622,NA
44714,Stark County,OH,NA,66.45468998410175,NA,NA
44811,Sandusky County,OH,NA,NA,NA,73.89937106918238
44830,Seneca County,OH,NA,19.07790143084261,NA,NA
44905,Richland County,OH,NA,NA,NA,62.893081761006286
44906,Richland County,OH,43.06049822064057,NA,NA,NA
44907,Richland County,OH,47.686832740213525,NA,NA,NA
45013,Butler County,OH,NA,60.57233704292527,23.031496062992126,NA
45040,Warren County,OH,NA,NA,33.46456692913386,NA
45103,Clermont County,OH,26.334519572953734,NA,57.08661417322835,NA
45106,Clermont County,OH,NA,48.807631160572335,NA,NA
45133,Highland County,OH,NA,21.939586645468996,NA,NA
45140,Clermont County,OH,8.185053380782918,NA,NA,NA
45208,Hamilton County,OH,89.32384341637011,NA,NA,NA
45211,Hamilton County,OH,NA,10.969793322734498,NA,NA
45219,Hamilton County,OH,97.86476868327402,NA,NA,NA
45224,Hamilton County,OH,NA,NA,81.10236220472441,NA
45231,Hamilton County,OH,NA,NA,18.30708661417323,NA
45238,Hamilton County,OH,NA,NA,49.60629921259843,NA
45249,Hamilton County,OH,70.8185053380783,NA,NA,NA
45331,Darke County,OH,NA,NA,NA,35.53459119496855
45342,Montgomery County,OH,NA,NA,NA,18.238993710691823
45356,Miami County,OH,NA,63.59300476947536,NA,NA
45373,Miami County,OH,NA,7.3131955484896665,12.204724409448819,NA
45390,Darke County,OH,NA,NA,NA,100
45409,Montgomery County,OH,94.66192170818505,NA,NA,NA
45417,Montgomery County,OH,NA,10.174880763116057,NA,NA
45420,Montgomery County,OH,22.419928825622776,NA,NA,NA
45426,Montgomery County,OH,NA,52.30524642289348,NA,NA
45449,Montgomery County,OH,NA,NA,93.11023622047244,NA
45458,Montgomery County,OH,NA,NA,11.811023622047244,NA
45459,Montgomery County,OH,NA,NA,NA,83.01886792452831
45631,Gallia County,OH,NA,NA,10.433070866141732,28.930817610062892
45662,Scioto County,OH,3.558718861209965,NA,2.3622047244094486,NA
45692,Jackson County,OH,NA,NA,66.33858267716536,NA
45714,Washington County,OH,NA,19.554848966613672,NA,NA
45801,Allen County,OH,NA,13.354531001589825,NA,NA
45875,Putnam County,OH,91.81494661921708,NA,NA,NA
73064,Canadian County,OK,NA,NA,42.51968503937008,NA
73077,Noble County,OK,NA,NA,82.8740157480315,NA
73080,McClain County,OK,NA,79.80922098569158,NA,NA
73120,Oklahoma County,OK,44.83985765124555,NA,NA,NA
73159,Oklahoma County,OK,NA,NA,NA,40.88050314465409
73179,Oklahoma County,OK,NA,95.54848966613673,NA,NA
73737,Major County,OK,NA,NA,99.01574803149606,NA
74012,Tulsa County,OK,NA,NA,12.401574803149607,NA
74301,Craig County,OK,NA,NA,71.06299212598425,NA
74354,Ottawa County,OK,34.519572953736656,NA,NA,NA
97015,Clackamas County,OR,NA,NA,67.71653543307087,NA
97027,Clackamas County,OR,NA,NA,77.36220472440945,NA
97034,Clackamas County,OR,NA,NA,57.28346456692913,NA
97038,Clackamas County,OR,NA,67.56756756756756,NA,NA
97060,Multnomah County,OR,NA,72.97297297297297,NA,NA
97068,Clackamas County,OR,NA,NA,NA,55.660377358490564
97124,Washington County,OR,NA,NA,55.90551181102362,NA
97132,Yamhill County,OR,NA,NA,62.59842519685039,NA
97223,Washington County,OR,45.90747330960854,62.00317965023847,NA,NA
97232,Multnomah County,OR,NA,93.95866454689984,NA,NA
97236,Multnomah County,OR,NA,NA,26.181102362204722,NA
97301,Marion County,OR,NA,14.785373608903022,NA,NA
97302,Marion County,OR,40.569395017793596,NA,NA,NA
97321,Linn County,OR,NA,29.093799682034977,NA,NA
97330,Benton County,OR,NA,50.71542130365659,NA,NA
97355,Linn County,OR,18.14946619217082,NA,NA,NA
97408,Lane County,OR,86.83274021352312,NA,NA,NA
97444,Curry County,OR,NA,NA,NA,72.32704402515722
97446,Linn County,OR,NA,NA,97.04724409448819,NA
97471,Douglas County,OR,NA,47.69475357710652,NA,NA
97477,Lane County,OR,NA,25.59618441971383,NA,NA
97478,Lane County,OR,NA,38.47376788553259,44.881889763779526,NA
97502,Jackson County,OR,NA,NA,21.653543307086615,NA
97503,Jackson County,OR,NA,63.910969793322735,NA,NA
15001,Beaver County,PA,64.76868327402136,NA,NA,NA
15003,Beaver County,PA,NA,NA,84.64566929133859,NA
15057,Washington County,PA,NA,NA,71.25984251968504,NA
15061,Beaver County,PA,NA,NA,NA,57.54716981132076
15068,Westmoreland County,PA,51.245551601423486,20.5087440381558,NA,NA
15074,Beaver County,PA,NA,64.3879173290938,NA,NA
15108,Allegheny County,PA,37.72241992882562,NA,NA,NA
15120,Allegheny County,PA,NA,73.9268680445151,NA,NA
15208,Allegheny County,PA,NA,54.531001589825124,NA,NA
15210,Allegheny County,PA,NA,NA,NA,46.540880503144656
15211,Allegheny County,PA,NA,NA,75.78740157480314,NA
15234,Allegheny County,PA,NA,85.85055643879174,NA,NA
15235,Allegheny County,PA,NA,NA,16.141732283464567,NA
15501,Somerset County,PA,NA,81.24006359300478,NA,NA
15601,Westmoreland County,PA,4.98220640569395,NA,NA,NA
15613,Westmoreland County,PA,NA,NA,NA,27.9874213836478
15627,Westmoreland County,PA,NA,NA,72.63779527559055,NA
15642,Westmoreland County,PA,NA,55.643879173290934,NA,NA
15658,Westmoreland County,PA,NA,76.15262321144675,NA,NA
15801,Clearfield County,PA,NA,NA,66.53543307086615,NA
15853,Elk County,PA,63.345195729537366,NA,NA,NA
15906,Cambria County,PA,NA,56.91573926868044,NA,NA
16046,Butler County,PA,NA,NA,73.22834645669292,NA
16101,Lawrence County,PA,11.743772241992882,NA,NA,NA
16412,Erie County,PA,NA,NA,NA,97.79874213836479
16441,Erie County,PA,91.10320284697508,NA,NA,NA
16508,Erie County,PA,45.195729537366546,NA,NA,NA
16510,Erie County,PA,NA,39.7456279809221,NA,NA
16823,Centre County,PA,NA,23.052464228934817,NA,NA
17013,Cumberland County,PA,NA,21.78060413354531,NA,NA
17111,Dauphin County,PA,NA,46.10492845786963,NA,NA
17201,Franklin County,PA,NA,NA,NA,14.150943396226415
17268,Franklin County,PA,NA,18.91891891891892,22.63779527559055,NA
17404,York County,PA,NA,59.61844197138315,13.385826771653544,NA
17512,Lancaster County,PA,NA,42.92527821939587,NA,NA
17756,Lycoming County,PA,NA,NA,29.330708661417322,NA
17821,Montour County,PA,NA,26.70906200317965,14.763779527559054,NA
17837,Union County,PA,NA,NA,37.79527559055118,NA
17844,Union County,PA,NA,NA,77.75590551181102,NA
17954,Schuylkill County,PA,NA,82.35294117647058,NA,NA
18015,Northampton County,PA,NA,10.333863275039745,NA,12.89308176100629
18055,Northampton County,PA,NA,NA,51.77165354330708,NA
18072,Northampton County,PA,NA,86.96343402225754,NA,NA
18078,Lehigh County,PA,NA,NA,91.92913385826772,NA
18102,Lehigh County,PA,1.4234875444839856,NA,NA,NA
18103,Lehigh County,PA,NA,NA,29.92125984251969,NA
18202,Luzerne County,PA,NA,92.05087440381558,NA,NA
18661,Luzerne County,PA,97.15302491103202,NA,NA,NA
18706,Luzerne County,PA,61.56583629893239,NA,33.85826771653544,NA
18708,Luzerne County,PA,NA,NA,NA,53.459119496855344
18810,Bradford County,PA,NA,83.46581875993641,NA,NA
18951,Bucks County,PA,NA,20.82670906200318,NA,NA
19001,Montgomery County,PA,NA,NA,93.50393700787401,NA
19027,Montgomery County,PA,81.85053380782918,NA,NA,NA
19032,Delaware County,PA,NA,93.79968203497614,NA,NA
19041,Delaware County,PA,NA,NA,NA,75.47169811320755
19050,Delaware County,PA,NA,NA,12.795275590551181,NA
19106,Philadelphia County,PA,NA,NA,62.79527559055118,NA
19111,Philadelphia County,PA,9.9644128113879,NA,5.31496062992126,NA
19114,Philadelphia County,PA,NA,20.349761526232115,NA,NA
19131,Philadelphia County,PA,NA,NA,3.740157480314961,NA
19139,Philadelphia County,PA,NA,22.098569157392685,NA,NA
19144,Philadelphia County,PA,NA,5.087440381558029,NA,NA
19148,Philadelphia County,PA,NA,NA,NA,12.578616352201259
19151,Philadelphia County,PA,NA,NA,NA,63.52201257861635
19312,Chester County,PA,NA,65.02384737678855,NA,NA
19335,Chester County,PA,NA,NA,13.976377952755906,NA
19382,Chester County,PA,NA,NA,8.661417322834646,NA
19390,Chester County,PA,56.58362989323843,NA,57.48031496062992,NA
19426,Montgomery County,PA,NA,NA,28.937007874015748,NA
19468,Montgomery County,PA,59.7864768683274,NA,NA,NA
19522,Berks County,PA,NA,64.06995230524643,NA,NA
19526,Berks County,PA,NA,NA,56.2992125984252,NA
19601,Berks County,PA,NA,3.4976152623211445,NA,NA
02806,Bristol County,RI,NA,NA,64.96062992125984,NA
02818,Kent County,RI,NA,NA,NA,37.42138364779874
02822,Washington County,RI,NA,90.93799682034977,NA,NA
02860,Providence County,RI,NA,NA,11.220472440944881,NA
02885,Bristol County,RI,NA,80.44515103338632,NA,NA
02889,Kent County,RI,NA,26.550079491255964,NA,NA
02891,Washington County,RI,NA,NA,NA,17.92452830188679
02893,Kent County,RI,NA,NA,NA,35.22012578616352
02914,Providence County,RI,NA,NA,NA,21.069182389937108
02915,Providence County,RI,NA,76.47058823529412,NA,NA
29010,Lee County,SC,NA,73.29093799682035,NA,NA
29020,Kershaw County,SC,NA,NA,NA,54.71698113207547
29063,Richland County,SC,NA,58.028616852146264,NA,NA
29073,Lexington County,SC,NA,24.006359300476948,NA,NA
29102,Clarendon County,SC,NA,NA,52.55905511811023,NA
29112,Orangeburg County,SC,NA,NA,92.1259842519685,NA
29154,Sumter County,SC,NA,51.03338632750397,NA,NA
29170,Lexington County,SC,NA,NA,75.59055118110236,NA
29212,Lexington County,SC,94.30604982206405,NA,NA,NA
29302,Spartanburg County,SC,NA,76.94753577106518,NA,NA
29303,Spartanburg County,SC,NA,NA,NA,50.314465408805034
29349,Spartanburg County,SC,NA,NA,NA,19.49685534591195
29369,Spartanburg County,SC,NA,NA,61.22047244094488,NA
29405,Charleston County,SC,NA,29.570747217806044,NA,NA
29414,Charleston County,SC,NA,65.34181240063593,NA,NA
29445,Berkeley County,SC,NA,26.073131955484897,NA,NA
29456,Dorchester County,SC,NA,NA,NA,72.0125786163522
29464,Charleston County,SC,NA,NA,NA,47.79874213836478
29486,Berkeley County,SC,NA,58.82352941176471,NA,NA
29505,Florence County,SC,54.804270462633454,NA,NA,NA
29550,Darlington County,SC,NA,42.289348171701114,NA,NA
29568,Horry County,SC,NA,NA,59.645669291338585,NA
29585,Georgetown County,SC,NA,NA,47.44094488188976,NA
29588,Horry County,SC,43.77224199288256,NA,NA,NA
29591,Florence County,SC,NA,NA,97.24409448818898,NA
29607,Greenville County,SC,NA,29.72972972972973,NA,NA
29621,Anderson County,SC,NA,NA,NA,11.320754716981133
29625,Anderson County,SC,NA,34.02225755166931,NA,NA
29649,Greenwood County,SC,NA,NA,NA,13.20754716981132
29651,Greenville County,SC,46.619217081850536,NA,NA,NA
29673,Greenville County,SC,NA,NA,NA,61.94968553459119
29691,Oconee County,SC,NA,84.73767885532591,NA,NA
29710,York County,SC,NA,NA,48.4251968503937,NA
29730,York County,SC,NA,NA,NA,42.45283018867924
29732,York County,SC,NA,NA,23.818897637795274,NA
29832,Edgefield County,SC,NA,99.20508744038156,NA,NA
29835,McCormick County,SC,NA,NA,NA,85.84905660377359
29860,Edgefield County,SC,NA,NA,90.15748031496062,NA
29928,Beaufort County,SC,NA,NA,61.61417322834646,NA
57006,Brookings County,SD,81.13879003558719,NA,NA,NA
57078,Yankton County,SD,NA,69.63434022257552,NA,NA
57104,Minnehaha County,SD,NA,NA,6.889763779527559,NA
57201,Codington County,SD,NA,NA,NA,41.82389937106918
57301,Davison County,SD,NA,NA,NA,19.81132075471698
57350,Beadle County,SD,NA,NA,66.73228346456693,NA
57401,Brown County,SD,NA,NA,8.267716535433072,NA
57430,Marshall County,SD,NA,97.2972972972973,NA,NA
57702,Pennington County,SD,93.59430604982207,NA,NA,NA
57703,Pennington County,SD,NA,NA,92.71653543307087,NA
37013,Davidson County,TN,NA,12.400635930047695,NA,NA
37098,Hickman County,TN,NA,78.060413354531,NA,NA
37110,Warren County,TN,NA,18.282988871224166,NA,NA
37115,Davidson County,TN,17.437722419928825,NA,NA,NA
37186,Sumner County,TN,NA,86.3275039745628,NA,NA
37205,Davidson County,TN,NA,NA,50.78740157480315,NA
37206,Davidson County,TN,NA,86.80445151033386,NA,NA
37221,Davidson County,TN,NA,NA,25.787401574803148,NA
37303,McMinn County,TN,NA,NA,NA,38.05031446540881
37327,Sequatchie County,TN,NA,NA,60.43307086614173,NA
37379,Hamilton County,TN,NA,41.65341812400636,NA,NA
37381,Rhea County,TN,NA,82.82988871224165,NA,NA
37398,Franklin County,TN,NA,NA,53.937007874015755,NA
37412,Hamilton County,TN,NA,51.35135135135135,NA,NA
37601,Washington County,TN,NA,NA,11.41732283464567,NA
37620,Sullivan County,TN,NA,NA,17.125984251968504,NA
37660,Sullivan County,TN,NA,9.697933227344992,NA,NA
37664,Sullivan County,TN,NA,NA,NA,23.89937106918239
37743,Greene County,TN,NA,14.467408585055644,NA,NA
37748,Roane County,TN,36.654804270462634,NA,NA,NA
37830,Anderson County,TN,NA,NA,25.196850393700785,NA
37841,Scott County,TN,NA,NA,NA,89.62264150943396
37865,Sevier County,TN,NA,NA,41.92913385826771,NA
37912,Knox County,TN,NA,30.36565977742448,NA,NA
37920,Knox County,TN,NA,13.195548489666137,NA,NA
38012,Haywood County,TN,NA,NA,64.37007874015748,NA
38109,Shelby County,TN,4.6263345195729535,NA,NA,NA
38125,Shelby County,TN,42.34875444839858,NA,NA,NA
38133,Shelby County,TN,71.53024911032028,NA,NA,NA
38301,Madison County,TN,NA,NA,17.716535433070867,NA
38401,Maury County,TN,NA,7.790143084260731,NA,NA
38468,Lawrence County,TN,NA,NA,87.00787401574803,NA
38501,Putnam County,TN,NA,NA,NA,22.641509433962266
75006,Dallas County,TX,NA,NA,61.417322834645674,NA
75007,Denton County,TX,73.66548042704626,NA,85.03937007874016,NA
75038,Dallas County,TX,NA,61.367249602543716,NA,NA
75044,Dallas County,TX,NA,80.7631160572337,NA,NA
75051,Dallas County,TX,45.55160142348754,NA,NA,NA
75061,Dallas County,TX,9.608540925266903,NA,NA,NA
75068,Denton County,TX,NA,NA,NA,66.35220125786164
75074,Collin County,TX,18.86120996441281,NA,NA,NA
75089,Dallas County,TX,NA,NA,65.5511811023622,NA
75115,Dallas County,TX,16.014234875444842,NA,NA,NA
75150,Dallas County,TX,NA,NA,17.519685039370078,NA
75159,Dallas County,TX,NA,69.31637519872814,NA,NA
75206,Dallas County,TX,NA,NA,99.40944881889764,NA
75219,Dallas County,TX,NA,51.987281399046104,NA,NA
75229,Dallas County,TX,NA,73.44992050874404,NA,NA
75474,Hunt County,TX,NA,62.16216216216216,NA,NA
75494,Wood County,TX,NA,NA,89.1732283464567,NA
75650,Harrison County,TX,88.61209964412812,NA,NA,NA
75783,Wood County,TX,NA,NA,NA,64.77987421383648
76008,Parker County,TX,NA,77.74244833068363,NA,NA
76034,Tarrant County,TX,NA,NA,59.055118110236215,NA
76049,Hood County,TX,NA,39.109697933227345,NA,62.57861635220125
76108,Tarrant County,TX,NA,NA,25,NA
76111,Tarrant County,TX,NA,98.25119236883943,NA,NA
76116,Tarrant County,TX,11.032028469750891,NA,NA,NA
76133,Tarrant County,TX,NA,20.66772655007949,NA,NA
76135,Tarrant County,TX,NA,NA,87.79527559055119,NA
76148,Tarrant County,TX,NA,NA,51.96850393700787,NA
76210,Denton County,TX,NA,57.39268680445151,NA,NA
76226,Denton County,TX,NA,87.91732909379968,NA,NA
76244,Tarrant County,TX,6.761565836298933,NA,NA,NA
76248,Tarrant County,TX,NA,NA,NA,38.67924528301887
76401,Erath County,TX,58.00711743772242,NA,NA,NA
76502,Bell County,TX,NA,NA,NA,0
76520,Milam County,TX,NA,NA,44.29133858267716,NA
76549,Bell County,TX,7.11743772241993,NA,NA,NA
76643,McLennan County,TX,NA,71.06518282988871,NA,NA
76705,McLennan County,TX,NA,NA,NA,26.10062893081761
76706,McLennan County,TX,23.843416370106763,NA,NA,NA
76710,McLennan County,TX,NA,NA,40.55118110236221,NA
76903,Tom Green County,TX,NA,42.60731319554849,NA,NA
77015,Harris County,TX,NA,40.54054054054054,NA,NA
77033,Harris County,TX,NA,NA,NA,36.79245283018868
77045,Harris County,TX,67.61565836298932,NA,NA,NA
77069,Harris County,TX,NA,NA,43.110236220472444,63.83647798742138
77070,Harris County,TX,NA,NA,NA,30.81761006289308
77082,Harris County,TX,NA,NA,NA,59.74842767295597
77083,Harris County,TX,NA,NA,26.574803149606304,NA
77098,Harris County,TX,NA,88.55325914149444,NA,NA
77301,Montgomery County,TX,38.43416370106761,NA,NA,NA
77327,Liberty County,TX,NA,NA,NA,71.69811320754717
77328,San Jacinto County,TX,60.4982206405694,NA,NA,NA
77354,Montgomery County,TX,NA,48.012718600953896,NA,NA
77371,San Jacinto County,TX,NA,NA,86.81102362204724,NA
77375,Harris County,TX,NA,23.52941176470588,NA,NA
77379,Harris County,TX,NA,NA,59.251968503937,NA
77384,Montgomery County,TX,NA,NA,98.4251968503937,NA
77401,Harris County,TX,NA,NA,92.91338582677166,NA
77418,Austin County,TX,98.57651245551602,NA,NA,NA
77429,Harris County,TX,NA,NA,4.921259842519685,NA
77433,Harris County,TX,NA,13.990461049284578,NA,NA
77515,Brazoria County,TX,NA,NA,NA,89.30817610062893
77539,Galveston County,TX,NA,52.94117647058824,NA,NA
77546,Galveston County,TX,20.640569395017792,NA,NA,NA
77568,Galveston County,TX,NA,35.930047694753576,NA,NA
77573,Galveston County,TX,34.87544483985765,NA,4.52755905511811,NA
77581,Brazoria County,TX,33.80782918149466,NA,NA,NA
77590,Galveston County,TX,NA,15.73926868044515,NA,NA
77619,Jefferson County,TX,NA,NA,NA,49.685534591194966
77630,Orange County,TX,25.97864768683274,NA,NA,NA
77657,Hardin County,TX,NA,NA,NA,66.0377358490566
77665,Chambers County,TX,NA,87.5993640699523,NA,NA
77901,Victoria County,TX,NA,26.391096979332275,NA,NA
77954,DeWitt County,TX,NA,NA,NA,53.144654088050316
78028,Kerr County,TX,NA,NA,15.94488188976378,NA
78059,Medina County,TX,NA,NA,95.66929133858267,NA
78218,Bexar County,TX,NA,47.85373608903021,NA,NA
78233,Bexar County,TX,19.217081850533805,NA,NA,NA
78244,Bexar County,TX,NA,60.57233704292527,NA,86.47798742138365
78633,Williamson County,TX,NA,NA,0.984251968503937,NA
78657,Llano County,TX,NA,NA,62.99212598425197,NA
78734,Travis County,TX,83.27402135231317,NA,NA,NA
78748,Travis County,TX,58.718861209964416,NA,NA,NA
78852,Maverick County,TX,NA,56.43879173290938,NA,NA
79118,Randall County,TX,58.00711743772242,NA,NA,NA
79347,Bailey County,TX,NA,NA,NA,90.56603773584906
79414,Lubbock County,TX,NA,NA,NA,55.0314465408805
79603,Taylor County,TX,NA,31.160572337042925,NA,NA
79705,Midland County,TX,18.505338078291814,NA,NA,NA
79707,Midland County,TX,13.87900355871886,NA,NA,NA
79714,Andrews County,TX,46.263345195729535,NA,NA,NA
79782,Martin County,TX,NA,91.8918918918919,NA,NA
79915,El Paso County,TX,NA,NA,50,NA
84015,Davis County,UT,NA,23.370429252782195,NA,NA
84062,Utah County,UT,39.14590747330961,NA,NA,NA
84065,Salt Lake County,UT,69.03914590747331,NA,NA,NA
84074,Tooele County,UT,NA,4.610492845786964,NA,NA
84075,Davis County,UT,NA,NA,NA,96.85534591194968
84095,Salt Lake County,UT,20.284697508896798,NA,NA,NA
84115,Salt Lake County,UT,NA,NA,NA,58.80503144654088
84121,Salt Lake County,UT,NA,41.81240063593005,NA,NA
84123,Salt Lake County,UT,NA,71.2241653418124,NA,NA
84129,,UT,NA,30.683624801271858,27.755905511811026,NA
84321,Cache County,UT,16.014234875444842,NA,NA,NA
84405,Weber County,UT,72.59786476868328,NA,NA,NA
84532,Grand County,UT,NA,NA,NA,87.10691823899371
84651,Utah County,UT,NA,71.38314785373609,NA,NA
84660,Utah County,UT,NA,66.13672496025437,NA,NA
84737,Washington County,UT,NA,82.0349761526232,62.40157480314961,NA
05403,Chittenden County,VT,NA,62.9570747217806,NA,NA
05468,Chittenden County,VT,NA,67.24960254372019,NA,NA
05661,Lamoille County,VT,NA,NA,87.4015748031496,NA
20111,Prince William County,VA,NA,54.213036565977745,NA,NA
20120,Fairfax County,VA,60.4982206405694,NA,NA,NA
20136,Prince William County,VA,NA,69.15739268680446,NA,NA
20176,Loudoun County,VA,NA,47.53577106518283,NA,NA
22003,Fairfax County,VA,NA,31.79650238473768,NA,NA
22025,Prince William County,VA,NA,NA,76.5748031496063,NA
22039,Fairfax County,VA,NA,80.60413354531002,NA,NA
22124,Fairfax County,VA,NA,95.07154213036566,NA,NA
22152,Fairfax County,VA,NA,NA,NA,34.276729559748425
22191,Prince William County,VA,NA,NA,NA,53.77358490566038
22203,Arlington County,VA,NA,94.5945945945946,NA,NA
22315,Fairfax County,VA,NA,56.91573926868044,NA,NA
22407,Spotsylvania County,VA,20.99644128113879,NA,NA,NA
22701,Culpeper County,VA,NA,27.662957074721778,NA,NA
22963,Fluvanna County,VA,NA,NA,NA,43.08176100628931
22980,Waynesboro city,VA,NA,54.68998410174881,NA,NA
23005,Hanover County,VA,NA,NA,NA,76.41509433962264
23059,Henrico County,VA,64.05693950177937,NA,NA,60.691823899371066
23060,Henrico County,VA,NA,62.63910969793323,52.75590551181102,NA
23075,Henrico County,VA,NA,NA,80.90551181102363,NA
23111,Hanover County,VA,NA,NA,NA,15.40880503144654
23113,Chesterfield County,VA,NA,NA,NA,45.59748427672956
23221,Richmond city,VA,NA,NA,NA,83.33333333333334
23228,Henrico County,VA,NA,NA,NA,20.440251572327046
23229,Henrico County,VA,NA,NA,98.62204724409449,NA
23234,Chesterfield County,VA,3.9145907473309607,NA,NA,NA
23322,Chesapeake city,VA,NA,NA,NA,72.64150943396226
23434,Suffolk city,VA,NA,17.965023847376788,NA,NA
23455,Virginia Beach city,VA,NA,NA,NA,1.8867924528301887
23602,Newport News city,VA,NA,NA,78.1496062992126,NA
23666,Hampton city,VA,NA,12.71860095389507,10.62992125984252,6.918238993710692
23860,Hopewell city,VA,32.74021352313167,NA,NA,NA
24112,Henry County,VA,37.36654804270463,NA,NA,NA
24121,Bedford County,VA,NA,86.3275039745628,NA,NA
24136,Giles County,VA,NA,96.34340222575517,NA,NA
24301,Pulaski County,VA,NA,57.869634340222575,NA,NA
24501,Lynchburg city,VA,NA,30.047694753577108,NA,NA
24502,Lynchburg city,VA,NA,NA,43.89763779527559,NA
24504,Lynchburg city,VA,NA,58.9825119236884,NA,NA
24521,Amherst County,VA,NA,NA,80.31496062992126,NA
24541,Danville city,VA,NA,NA,30.314960629921263,NA
24549,Pittsylvania County,VA,NA,99.84101748807632,NA,NA
24572,Amherst County,VA,NA,62.48012718600954,NA,NA
24637,Tazewell County,VA,NA,NA,99.60629921259843,NA
98005,King County,WA,NA,NA,NA,48.742138364779876
98008,King County,WA,NA,86.00953895071542,NA,NA
98023,King County,WA,NA,59.30047694753577,NA,NA
98031,King County,WA,NA,NA,16.338582677165352,NA
98056,King County,WA,NA,NA,94.68503937007874,61.32075471698113
98059,King County,WA,NA,NA,NA,66.35220125786164
98092,King County,WA,NA,25.914149443561207,NA,NA
98166,King County,WA,NA,NA,49.803149606299215,NA
98198,King County,WA,NA,NA,78.34645669291339,NA
98204,Snohomish County,WA,NA,NA,46.653543307086615,NA
98208,Snohomish County,WA,NA,NA,NA,79.87421383647799
98223,Snohomish County,WA,16.014234875444842,NA,NA,39.308176100628934
98233,Skagit County,WA,NA,NA,NA,42.76729559748428
98247,Whatcom County,WA,NA,NA,NA,97.16981132075472
98249,Island County,WA,NA,NA,NA,86.16352201257862
98275,Snohomish County,WA,NA,71.70111287758345,NA,NA
98328,Pierce County,WA,91.45907473309609,NA,NA,NA
98338,Pierce County,WA,NA,46.5818759936407,NA,91.82389937106919
98365,Jefferson County,WA,NA,NA,85.43307086614173,NA
98373,Pierce County,WA,NA,NA,NA,73.27044025157232
98375,Pierce County,WA,NA,NA,NA,86.79245283018868
98382,Clallam County,WA,NA,NA,2.952755905511811,NA
98422,Pierce County,WA,NA,62.32114467408585,NA,NA
98503,Thurston County,WA,NA,NA,NA,72.95597484276729
98604,Clark County,WA,NA,NA,70.07874015748031,NA
98611,Cowlitz County,WA,92.52669039145907,NA,NA,NA
98837,Grant County,WA,NA,NA,29.527559055118108,NA
98855,Okanogan County,WA,NA,NA,97.63779527559055,NA
98901,Yakima County,WA,NA,56.120826709062,NA,NA
99208,Spokane County,WA,76.51245551601423,NA,NA,10.062893081761008
99336,Benton County,WA,NA,NA,31.69291338582677,NA
99354,Benton County,WA,NA,NA,28.74015748031496,NA
99362,Walla Walla County,WA,NA,28.139904610492845,NA,NA
20003,District of Columbia,DC,NA,NA,40.74803149606299,NA
20010,District of Columbia,DC,NA,NA,45.66929133858268,NA
20019,District of Columbia,DC,NA,NA,NA,8.176100628930817
20032,District of Columbia,DC,8.540925266903916,6.200317965023848,NA,NA
24901,Greenbrier County,WV,NA,NA,NA,76.72955974842768
25504,Cabell County,WV,NA,57.710651828298886,NA,NA
25506,Lincoln County,WV,NA,90.93799682034977,NA,NA
25550,Mason County,WV,NA,NA,NA,33.33333333333333
25601,Logan County,WV,NA,NA,60.82677165354331,NA
25661,Mingo County,WV,NA,46.89984101748807,NA,NA
25801,Raleigh County,WV,NA,NA,9.448818897637794,NA
26101,Wood County,WV,NA,5.5643879173290935,NA,NA
26301,Harrison County,WV,80.78291814946618,NA,NA,NA
26505,Monongalia County,WV,41.281138790035584,NA,NA,NA
26554,Marion County,WV,70.1067615658363,NA,NA,NA
26582,Marion County,WV,NA,NA,73.62204724409449,NA
26726,Mineral County,WV,NA,NA,NA,61.63522012578616
53029,Waukesha County,WI,NA,NA,79.13385826771653,NA
53066,Waukesha County,WI,NA,NA,11.614173228346457,NA
53085,Sheboygan County,WI,NA,98.41017488076311,NA,NA
53090,Washington County,WI,NA,NA,80.51181102362204,NA
53097,Ozaukee County,WI,93.23843416370107,NA,NA,NA
53103,Waukesha County,WI,NA,99.68203497615262,NA,NA
53142,Kenosha County,WI,NA,NA,21.062992125984252,NA
53186,Waukesha County,WI,NA,NA,34.05511811023622,NA
53208,Milwaukee County,WI,NA,NA,NA,55.34591194968554
53209,Milwaukee County,WI,2.491103202846975,NA,NA,NA
53210,Milwaukee County,WI,NA,NA,NA,52.20125786163522
53235,Milwaukee County,WI,99.644128113879,NA,NA,NA
53402,Racine County,WI,NA,NA,36.811023622047244,NA
53405,Racine County,WI,11.387900355871885,NA,NA,NA
53406,Racine County,WI,NA,17.011128775834656,NA,NA
53516,Lafayette County,WI,89.32384341637011,NA,NA,NA
53549,Jefferson County,WI,NA,NA,NA,65.72327044025157
53555,Columbia County,WI,NA,NA,88.38582677165354,NA
53590,Dane County,WI,NA,39.58664546899841,NA,21.69811320754717
53703,Dane County,WI,NA,79.01430842607313,NA,NA
53704,Dane County,WI,NA,NA,50.59055118110236,NA
53718,Dane County,WI,NA,77.58346581875993,NA,NA
53818,Grant County,WI,NA,92.20985691573927,NA,NA
53913,Sauk County,WI,49.11032028469751,NA,NA,NA
54001,Polk County,WI,NA,51.19236883942766,NA,NA
54130,Outagamie County,WI,NA,NA,84.84251968503938,NA
54241,Manitowoc County,WI,NA,84.26073131955485,NA,NA
54302,Brown County,WI,NA,NA,44.09448818897638,NA
54304,Brown County,WI,NA,23.84737678855326,NA,NA
54403,Marathon County,WI,NA,NA,80.70866141732283,NA
54601,La Crosse County,WI,NA,NA,0.7874015748031495,NA
54650,La Crosse County,WI,NA,NA,NA,18.553459119496853
54701,Eau Claire County,WI,NA,43.24324324324324,NA,NA
54853,Polk County,WI,NA,99.36406995230524,NA,NA
54911,Outagamie County,WI,NA,NA,NA,66.98113207547169
54915,Outagamie County,WI,NA,NA,76.96850393700787,NA
54961,Waupaca County,WI,NA,NA,44.68503937007874,NA
54981,Waupaca County,WI,NA,NA,NA,92.13836477987421
82609,Natrona County,WY,NA,NA,NA,77.35849056603774
