ZipCode,county,state,Adult
36693,Mobile County,AL,59.35828877005348
99801,Juneau City and Borough,AK,49.19786096256685
85205,Maricopa County,AZ,24.598930481283425
85308,Maricopa County,AZ,29.946524064171122
86034,Navajo County,AZ,95.18716577540107
86401,Mohave County,AZ,9.62566844919786
92027,San Diego County,CA,46.524064171122994
92064,San Diego County,CA,52.406417112299465
92104,San Diego County,CA,63.101604278074866
93455,Santa Barbara County,CA,28.87700534759358
94578,Alameda County,CA,53.475935828877006
95010,Santa Cruz County,CA,100
95315,Merced County,CA,94.11764705882352
95337,San Joaquin County,CA,38.50267379679144
95482,Mendocino County,CA,34.22459893048128
95687,Solano County,CA,81.28342245989305
95963,Glenn County,CA,71.12299465240642
80013,Arapahoe County,CO,10.16042780748663
80130,Douglas County,CO,74.8663101604278
80138,Douglas County,CO,57.75401069518716
06092,Hartford County,CT,97.32620320855615
06606,Fairfield County,CT,17.647058823529413
06706,New Haven County,CT,62.56684491978609
32148,Putnam County,FL,75.93582887700535
32277,Duval County,FL,19.786096256684495
32780,Brevard County,FL,86.09625668449198
32958,Indian River County,FL,67.9144385026738
33076,Broward County,FL,71.65775401069519
34428,Citrus County,FL,83.9572192513369
30019,Gwinnett County,GA,35.294117647058826
30102,Cherokee County,GA,47.593582887700535
30345,DeKalb County,GA,80.74866310160428
30906,Richmond County,GA,6.417112299465241
31331,McIntosh County,GA,90.9090909090909
31620,Cook County,GA,72.19251336898395
96720,Hawaii County,HI,29.411764705882355
60110,Kane County,IL,49.73262032085562
60517,DuPage County,IL,36.898395721925134
61111,Winnebago County,IL,54.54545454545454
61342,LaSalle County,IL,84.49197860962568
62040,Madison County,IL,18.71657754010695
46236,Marion County,IN,63.63636363636363
46563,Marshall County,IN,39.57219251336899
50703,Black Hawk County,IA,25.668449197860966
52501,Wapello County,IA,65.24064171122996
40218,Jefferson County,KY,13.903743315508022
42330,Muhlenberg County,KY,70.05347593582889
42647,McCreary County,KY,96.79144385026738
71108,Caddo Parish,LA,10.695187165775401
04260,Cumberland County,ME,92.51336898395722
20854,Montgomery County,MD,88.23529411764706
21713,Washington County,MD,93.58288770053476
21921,Cecil County,MD,14.973262032085561
01033,Hampshire County,MA,89.3048128342246
01060,Hampshire County,MA,40.64171122994652
01462,Worcester County,MA,55.080213903743314
01606,Worcester County,MA,17.11229946524064
01915,Essex County,MA,0.53475935828877
02144,Middlesex County,MA,56.14973262032086
02324,Plymouth County,MA,97.86096256684492
02360,Plymouth County,MA,0
02382,Plymouth County,MA,91.97860962566845
02472,Middlesex County,MA,5.88235294117647
02571,Plymouth County,MA,12.834224598930483
48066,Macomb County,MI,2.6737967914438503
49201,Jackson County,MI,7.4866310160427805
49265,Lenawee County,MI,88.77005347593582
49506,Kent County,MI,21.390374331550802
55341,Wright County,MN,98.93048128342245
55387,Carver County,MN,73.2620320855615
55424,Hennepin County,MN,93.04812834224599
56701,Pennington County,MN,18.181818181818183
63080,Franklin County,MO,43.85026737967914
63385,St. Charles County,MO,16.577540106951872
63851,Pemiscot County,MO,80.21390374331551
64129,Jackson County,MO,50.26737967914438
64870,Jasper County,MO,44.38502673796791
68005,Sarpy County,NE,65.77540106951871
68147,Sarpy County,NE,98.3957219251337
07046,Morris County,NJ,95.72192513368985
08027,Gloucester County,NJ,96.2566844919786
08057,Burlington County,NJ,82.88770053475936
08096,Gloucester County,NJ,4.27807486631016
08753,Ocean County,NJ,1.06951871657754
87105,Bernalillo County,NM,3.7433155080213902
88260,Lea County,NM,70.58823529411765
10027,New York County,NY,4.81283422459893
10466,Bronx County,NY,37.967914438502675
11203,Kings County,NY,8.55614973262032
11413,Queens County,NY,74.33155080213903
11967,Suffolk County,NY,28.342245989304814
12701,Sullivan County,NY,42.780748663101605
12754,Sullivan County,NY,77.54010695187165
12866,Saratoga County,NY,14.43850267379679
13090,Onondaga County,NY,45.98930481283423
13219,Onondaga County,NY,59.893048128342244
13224,Onondaga County,NY,46.524064171122994
14058,Genesee County,NY,99.46524064171123
14220,Erie County,NY,13.368983957219251
14223,Erie County,NY,25.13368983957219
14450,Monroe County,NY,2.13903743315508
27217,Alamance County,NC,11.76470588235294
27295,Davidson County,NC,3.2085561497326207
28328,Sampson County,NC,31.550802139037433
28371,Robeson County,NC,87.70053475935828
43031,Licking County,OH,79.14438502673798
43064,Madison County,OH,90.37433155080214
43613,Lucas County,OH,83.42245989304813
44053,Lorain County,OH,6.951871657754011
44103,Cuyahoga County,OH,8.0213903743315509
44281,Medina County,OH,19.25133689839572
45102,Clermont County,OH,85.02673796791443
45373,Miami County,OH,5.347593582887701
45429,Montgomery County,OH,41.711229946524064
45840,Hancock County,OH,1.6042780748663104
73068,Cleveland County,OK,68.98395721925134
73132,Oklahoma County,OK,58.82352941176471
73942,Texas County,OK,73.79679144385027
74014,Wagoner County,OK,32.62032085561498
97027,Clackamas County,OR,77.00534759358288
97071,Marion County,OR,60.42780748663101
97352,Marion County,OR,91.44385026737967
97405,Lane County,OR,87.16577540106952
97913,Malheur County,OR,89.83957219251337
15003,Beaver County,PA,69.5187165775401
15221,Allegheny County,PA,48.663101604278076
16365,Warren County,PA,66.84491978609626
17046,Lebanon County,PA,9.090909090909092
18013,Northampton County,PA,33.68983957219251
18634,Luzerne County,PA,41.17647058823529
19083,Delaware County,PA,24.06417112299465
19135,Philadelphia County,PA,44.919786096256686
19140,Philadelphia County,PA,15.508021390374333
19608,Berks County,PA,26.203208556149733
29325,Laurens County,SC,58.288770053475936
29456,Dorchester County,SC,32.085561497326204
29485,Dorchester County,SC,22.994652406417114
29801,Aiken County,SC,36.898395721925134
29841,Aiken County,SC,57.21925133689839
37027,Williamson County,TN,36.36363636363637
37334,Lincoln County,TN,33.155080213903744
37412,Hamilton County,TN,55.61497326203209
38135,Shelby County,TN,78.07486631016043
75070,Collin County,TX,16.042780748663102
75206,Dallas County,TX,53.475935828877006
75214,Dallas County,TX,42.24598930481284
75235,Dallas County,TX,67.37967914438502
75551,Cass County,TX,79.67914438502673
76017,Tarrant County,TX,27.807486631016044
76020,Tarrant County,TX,64.70588235294117
76051,Tarrant County,TX,66.31016042780749
76131,Tarrant County,TX,52.94117647058824
76706,McLennan County,TX,31.016042780748666
77075,Harris County,TX,51.87165775401069
77450,Harris County,TX,34.75935828877005
77459,Fort Bend County,TX,20.32085561497326
77530,Harris County,TX,60.962566844919785
77539,Galveston County,TX,56.14973262032086
77901,Victoria County,TX,21.92513368983957
78028,Kerr County,TX,68.44919786096256
78259,Bexar County,TX,72.72727272727273
78729,Williamson County,TX,75.40106951871658
79423,Lubbock County,TX,64.171122994652407
84043,Utah County,UT,43.31550802139038
84081,Salt Lake County,UT,27.27272727272727
84102,Salt Lake County,UT,78.6096256684492
84129,,UT,26.737967914438503
22201,Arlington County,VA,82.35294117647058
23228,Henrico County,VA,51.33689839572193
23320,Chesapeake city,VA,23.52941176470588
23836,Chesterfield County,VA,94.6524064171123
23847,Greensville County,VA,85.56149732620321
24073,Montgomery County,VA,40.106951871657756
24293,Wise County,VA,50.80213903743316
98023,King County,WA,22.459893048128343
98036,Snohomish County,WA,48.1283422459893
98092,King County,WA,61.49732620320856
98102,King County,WA,86.63101604278076
98125,King County,WA,35.294117647058826
98362,Clallam County,WA,30.481283422459892
99205,Spokane County,WA,38.50267379679144
20007,District of Columbia,DC,76.47058823529412
25177,Kanawha County,WV,11.229946524064172
25801,Raleigh County,WV,12.299465240641712
26431,Harrison County,WV,81.28342245989305
26508,Monongalia County,WV,20.855614973262032
53597,Dane County,WI,62.03208556149733
54303,Brown County,WI,45.45454545454545
