ZipCode,county,state,Adult,Retirement,Geriatric
35020,Jefferson County,AL,NA,NA,30.123674911660775
35022,Jefferson County,AL,NA,NA,16.342756183745582
35023,Jefferson County,AL,NA,NA,17.137809187279153
35043,Shelby County,AL,NA,92.81221922731356,NA
35071,Jefferson County,AL,NA,87.24168912848158,NA
35077,Cullman County,AL,NA,NA,60.600706713780916
35080,Shelby County,AL,53.06122448979592,85.35489667565139,NA
35125,St. Clair County,AL,NA,NA,80.47703180212014
35150,Talladega County,AL,66.3265306122449,NA,NA
35216,Jefferson County,AL,NA,NA,91.34275618374559
35235,Jefferson County,AL,NA,NA,63.339222614840985
35474,Hale County,AL,59.863945578231295,NA,NA
35555,Fayette County,AL,81.97278911564626,NA,NA
35611,Limestone County,AL,NA,19.946091644204852,NA
35640,Morgan County,AL,29.931972789115648,62.98292902066487,NA
35661,Colbert County,AL,NA,NA,50
35674,Colbert County,AL,30.612244897959183,NA,NA
35740,Jackson County,AL,99.82993197278913,NA,NA
35750,Madison County,AL,NA,NA,92.93286219081273
35759,Madison County,AL,87.92517006802721,NA,73.93992932862191
35801,Madison County,AL,NA,NA,63.78091872791519
35811,Madison County,AL,36.904761904761905,NA,NA
35816,Madison County,AL,86.05442176870748,NA,NA
35960,Cherokee County,AL,NA,70.88948787061994,NA
35967,DeKalb County,AL,59.523809523809526,NA,NA
36066,Autauga County,AL,NA,NA,72.96819787985865
36083,Macon County,AL,NA,79.51482479784366,NA
36093,Elmore County,AL,72.10884353741497,NA,NA
36109,Montgomery County,AL,43.36734693877551,NA,NA
36116,Montgomery County,AL,NA,NA,72.08480565371025
36301,Houston County,AL,NA,NA,65.7243816254417
36401,Conecuh County,AL,NA,96.58580413297393,NA
36502,Escambia County,AL,NA,36.38814016172507,NA
36535,Baldwin County,AL,NA,17.07097933513028,NA
36582,Mobile County,AL,NA,91.01527403414195,NA
36611,Mobile County,AL,NA,97.39442946990117,NA
36695,Mobile County,AL,NA,NA,36.21908127208481
36701,Dallas County,AL,NA,73.13566936208446,43.37455830388692
36801,Lee County,AL,NA,80.68283917340521,NA
36830,Lee County,AL,NA,NA,75.70671378091873
99501,Anchorage Municipality,AK,NA,62.8032345013477,NA
99577,Anchorage Municipality,AK,68.87755102040816,NA,NA
99645,Matanuska-Susitna Borough,AK,NA,NA,90.90106007067138
85014,Maricopa County,AZ,NA,NA,78.4452296819788
85016,Maricopa County,AZ,39.1156462585034,NA,NA
85018,Maricopa County,AZ,NA,78.97574123989219,NA
85020,Maricopa County,AZ,NA,28.12219227313567,NA
85021,Maricopa County,AZ,12.074829931972788,NA,NA
85029,Maricopa County,AZ,NA,35.22012578616352,NA
85031,Maricopa County,AZ,73.46938775510205,NA,NA
85040,Maricopa County,AZ,NA,47.2596585804133,NA
85041,Maricopa County,AZ,NA,NA,51.76678445229682
85085,Maricopa County,AZ,NA,NA,94.78798586572438
85123,Pinal County,AZ,NA,78.70619946091644,NA
85143,Pinal County,AZ,NA,NA,68.63957597173145
85201,Maricopa County,AZ,NA,27.67295597484277,NA
85207,Maricopa County,AZ,53.74149659863946,NA,NA
85209,Maricopa County,AZ,NA,20.395327942497754,NA
85224,Maricopa County,AZ,NA,37.19676549865229,NA
85233,Maricopa County,AZ,NA,NA,73.40989399293287
85248,Maricopa County,AZ,NA,NA,25.353356890459366
85263,Maricopa County,AZ,NA,NA,86.04240282685512
85266,Maricopa County,AZ,NA,NA,88.86925795053003
85301,Maricopa County,AZ,5.272108843537415,48.24797843665768,NA
85345,Maricopa County,AZ,NA,NA,60.512367491166074
85364,Yuma County,AZ,NA,19.227313566936207,NA
85375,Maricopa County,AZ,98.29931972789116,NA,NA
85544,Gila County,AZ,NA,NA,95.6713780918728
85615,Cochise County,AZ,NA,87.96046720575022,NA
85634,Pima County,AZ,NA,56.334231805929925,NA
85710,Pima County,AZ,NA,NA,58.8339222614841
85718,Pima County,AZ,NA,NA,15.19434628975265
85743,Pima County,AZ,NA,22.282120395327944,NA
85745,Pima County,AZ,NA,45.28301886792453,23.586572438162545
85746,Pima County,AZ,NA,NA,39.13427561837456
85750,Pima County,AZ,NA,71.6082659478886,NA
86001,Coconino County,AZ,47.44897959183674,NA,NA
86045,Coconino County,AZ,NA,NA,68.99293286219081
86303,Yavapai County,AZ,NA,36.02875112309075,NA
86314,Yavapai County,AZ,NA,NA,34.89399293286219
86322,Yavapai County,AZ,NA,NA,76.85512367491167
86326,Yavapai County,AZ,NA,18.238993710691823,NA
86409,Mohave County,AZ,28.401360544217685,NA,NA
71603,Jefferson County,AR,NA,NA,19.081272084805654
71639,Desha County,AR,NA,NA,57.50883392226148
71701,Ouachita County,AR,NA,46.540880503144656,NA
71730,Union County,AR,NA,NA,25.08833922261484
71913,Garland County,AR,NA,NA,37.80918727915194
72002,Saline County,AR,NA,NA,96.02473498233216
72010,White County,AR,75,NA,NA
72076,Pulaski County,AR,NA,30.2785265049416,NA
72081,White County,AR,NA,NA,89.31095406360424
72086,Lonoke County,AR,84.35374149659864,NA,NA
72143,White County,AR,NA,NA,45.75971731448763
72206,Pulaski County,AR,NA,23.71967654986523,NA
72301,Crittenden County,AR,76.0204081632653,NA,76.14840989399293
72315,Mississippi County,AR,NA,40.34141958670261,NA
72450,Greene County,AR,NA,20.754716981132077,NA
72529,Sharp County,AR,NA,92.81221922731356,NA
72631,Carroll County,AR,NA,NA,87.89752650176679
72650,Searcy County,AR,96.25850340136054,NA,NA
72653,Baxter County,AR,NA,NA,33.30388692579505
72701,Washington County,AR,NA,NA,64.04593639575971
72727,Washington County,AR,NA,99.91015274034142,NA
72764,Washington County,AR,NA,NA,90.19434628975264
72801,Pope County,AR,NA,NA,88.16254416961131
72802,Pope County,AR,NA,NA,56.360424028268554
72834,Yell County,AR,NA,73.4052111410602,NA
72901,Sebastian County,AR,NA,NA,88.07420494699647
72904,Sebastian County,AR,NA,55.43575920934411,NA
90011,Los Angeles County,CA,22.27891156462585,NA,79.50530035335689
90018,Los Angeles County,CA,NA,NA,28.79858657243816
90019,Los Angeles County,CA,NA,NA,65.2826855123675
90023,Los Angeles County,CA,NA,49.59568733153639,NA
90026,Los Angeles County,CA,41.49659863945578,NA,NA
90043,Los Angeles County,CA,NA,NA,92.75618374558304
90044,Los Angeles County,CA,NA,13.477088948787062,NA
90059,Los Angeles County,CA,30.102040816326532,NA,NA
90065,Los Angeles County,CA,77.21088435374149,NA,NA
90220,Los Angeles County,CA,NA,46.99011680143755,NA
90221,Los Angeles County,CA,NA,30.54806828391734,NA
90222,Los Angeles County,CA,62.755102040816325,NA,81.00706713780919
90232,Los Angeles County,CA,NA,NA,80.56537102473497
90248,Los Angeles County,CA,NA,NA,87.63250883392226
90266,Los Angeles County,CA,NA,NA,21.113074204946997
90403,Los Angeles County,CA,99.14965986394559,NA,NA
90404,Los Angeles County,CA,NA,49.23629829290206,NA
90602,Los Angeles County,CA,NA,50.13477088948787,NA
90630,Orange County,CA,NA,82.47978436657682,NA
90631,Orange County,CA,NA,11.859838274932615,NA
90640,Los Angeles County,CA,NA,24.438454627133872,NA
90710,Los Angeles County,CA,NA,NA,61.925795053003526
90715,Los Angeles County,CA,NA,68.01437556154536,NA
90802,Los Angeles County,CA,NA,NA,81.80212014134275
90804,Los Angeles County,CA,40.30612244897959,NA,NA
90810,Los Angeles County,CA,52.21088435374149,NA,NA
91010,Los Angeles County,CA,NA,54.71698113207547,NA
91106,Los Angeles County,CA,90.98639455782312,NA,NA
91107,Los Angeles County,CA,NA,NA,31.537102473498237
91202,Los Angeles County,CA,NA,58.310871518418686,NA
91205,Los Angeles County,CA,NA,42.497753818508535,NA
91206,Los Angeles County,CA,NA,46.45103324348607,NA
91301,Los Angeles County,CA,NA,NA,78.26855123674912
91306,Los Angeles County,CA,NA,NA,68.81625441696113
91311,Los Angeles County,CA,NA,44.0251572327044,NA
91316,Los Angeles County,CA,NA,NA,18.727915194346288
91326,Los Angeles County,CA,59.693877551020414,NA,NA
91343,Los Angeles County,CA,NA,NA,30.742049469964666
91345,Los Angeles County,CA,NA,99.37106918238993,NA
91364,Los Angeles County,CA,NA,NA,34.62897526501767
91403,Los Angeles County,CA,74.65986394557824,NA,29.681978798586574
91405,Los Angeles County,CA,NA,NA,39.840989399293285
91406,Los Angeles County,CA,NA,NA,44.34628975265017
91606,Los Angeles County,CA,NA,NA,35.07067137809187
91702,Los Angeles County,CA,NA,86.43306379155436,NA
91710,San Bernardino County,CA,NA,64.42048517520216,NA
91711,Los Angeles County,CA,NA,25.87601078167116,NA
91722,Los Angeles County,CA,NA,NA,96.90812720848056
91733,Los Angeles County,CA,NA,NA,48.32155477031802
91740,Los Angeles County,CA,NA,45.37286612758311,NA
91744,Los Angeles County,CA,NA,NA,15.282685512367491
91765,Los Angeles County,CA,60.8843537414966,NA,NA
91790,Los Angeles County,CA,NA,88.85893980233602,NA
91901,San Diego County,CA,NA,NA,81.2720848056537
91911,San Diego County,CA,NA,94.24977538185085,NA
91932,San Diego County,CA,NA,94.78885893980234,NA
91950,San Diego County,CA,NA,28.661275831087153,NA
92008,San Diego County,CA,44.5578231292517,53.36927223719676,NA
92019,San Diego County,CA,NA,39.083557951482476,NA
92057,San Diego County,CA,NA,77.5381850853549,NA
92064,San Diego County,CA,NA,63.701707097933514,NA
92067,San Diego County,CA,NA,NA,52.561837455830386
92069,San Diego County,CA,63.435374149659864,NA,NA
92078,San Diego County,CA,NA,NA,18.90459363957597
92103,San Diego County,CA,NA,NA,34.45229681978799
92139,San Diego County,CA,NA,63.25247079964061,NA
92154,San Diego County,CA,NA,16.262353998203054,10.60070671378092
92201,Riverside County,CA,NA,12.488769092542677,NA
92227,Imperial County,CA,NA,49.685534591194966,NA
92231,Imperial County,CA,NA,NA,46.113074204947
92243,Imperial County,CA,NA,73.67475292003593,45.053003533568905
92251,Imperial County,CA,NA,NA,74.46996466431095
92260,Riverside County,CA,NA,NA,0.7067137809187279
92276,Riverside County,CA,NA,NA,95.31802120141343
92301,San Bernardino County,CA,NA,38.81401617250674,NA
92324,San Bernardino County,CA,NA,33.9622641509434,NA
92335,San Bernardino County,CA,NA,10.781671159029651,NA
92336,San Bernardino County,CA,NA,NA,34.187279151943464
92407,San Bernardino County,CA,NA,42.22821203953279,NA
92410,San Bernardino County,CA,28.57142857142857,NA,NA
92567,Riverside County,CA,85.71428571428571,NA,NA
92570,Riverside County,CA,NA,38.454627133872414,NA
92606,Orange County,CA,NA,NA,83.92226148409894
92646,Orange County,CA,NA,NA,6.27208480565371
92704,Orange County,CA,87.58503401360545,NA,NA
92802,Orange County,CA,48.29931972789115,NA,86.57243816254417
93030,Ventura County,CA,NA,17.69991015274034,NA
93033,Ventura County,CA,11.73469387755102,NA,NA
93215,Kern County,CA,NA,89.21832884097036,NA
93306,Kern County,CA,NA,NA,32.59717314487632
93436,Santa Barbara County,CA,NA,72.23719676549865,NA
93505,Kern County,CA,NA,NA,92.57950530035336
93550,Los Angeles County,CA,NA,38.63432165318958,NA
93611,Fresno County,CA,NA,NA,47.61484098939929
93636,Madera County,CA,NA,88.94878706199461,NA
93720,Fresno County,CA,28.91156462585034,NA,NA
94010,San Mateo County,CA,NA,NA,8.215547703180212
94015,San Mateo County,CA,NA,7.008086253369273,NA
94024,Santa Clara County,CA,NA,NA,79.77031802120142
94044,San Mateo County,CA,NA,84.45642407906558,NA
94080,San Mateo County,CA,NA,NA,15.989399293286219
94112,San Francisco County,CA,NA,NA,17.93286219081272
94116,San Francisco County,CA,NA,NA,9.363957597173144
94121,San Francisco County,CA,NA,NA,9.540636042402827
94122,San Francisco County,CA,NA,NA,4.946996466431095
94124,San Francisco County,CA,NA,16.082659478885894,40.724381625441694
94505,Contra Costa County,CA,NA,76.10062893081762,NA
94506,Contra Costa County,CA,NA,NA,70.14134275618375
94509,Contra Costa County,CA,NA,8.80503144654088,NA
94531,Contra Costa County,CA,NA,NA,33.92226148409894
94538,Alameda County,CA,NA,NA,15.547703180212014
94541,Alameda County,CA,NA,NA,35.159010600706715
94558,Napa County,CA,NA,5.121293800539084,2.4734982332155475
94577,Alameda County,CA,NA,83.01886792452831,NA
94579,Alameda County,CA,NA,NA,38.42756183745583
94587,Alameda County,CA,NA,NA,57.3321554770318
94596,Contra Costa County,CA,NA,NA,51.9434628975265
94606,Alameda County,CA,NA,NA,53.79858657243817
94612,Alameda County,CA,70.91836734693877,NA,NA
95008,Santa Clara County,CA,NA,40.97035040431267,NA
95010,Santa Cruz County,CA,NA,NA,90.63604240282686
95023,San Benito County,CA,25,NA,38.16254416961131
95051,Santa Clara County,CA,NA,NA,30.03533568904594
95124,Santa Clara County,CA,NA,NA,33.12720848056537
95205,San Joaquin County,CA,NA,NA,67.49116607773851
95207,San Joaquin County,CA,NA,NA,67.04946996466431
95209,San Joaquin County,CA,NA,48.42767295597484,53.091872791519435
95212,San Joaquin County,CA,NA,76.99910152740341,NA
95228,Calaveras County,CA,NA,75.6513926325247,NA
95240,San Joaquin County,CA,NA,NA,41.51943462897527
95334,Merced County,CA,NA,NA,95.40636042402826
95351,Stanislaus County,CA,NA,32.97394429469901,NA
95356,Stanislaus County,CA,37.244897959183675,NA,NA
95357,Stanislaus County,CA,NA,69.45193171608265,NA
95358,Stanislaus County,CA,NA,41.59928122192273,55.12367491166078
95380,Stanislaus County,CA,NA,15.00449236298293,NA
95389,Mariposa County,CA,NA,93.08176100628931,NA
95403,Sonoma County,CA,NA,32.79424977538185,NA
95448,Sonoma County,CA,NA,NA,66.43109540636041
95476,Sonoma County,CA,NA,NA,18.551236749116608
95490,Mendocino County,CA,NA,73.04582210242587,NA
95602,Placer County,CA,NA,NA,25.4416961130742
95608,Sacramento County,CA,NA,NA,29.328621908127207
95618,Yolo County,CA,NA,NA,52.73851590106007
95661,Placer County,CA,NA,74.84276729559748,NA
95667,El Dorado County,CA,NA,NA,10.68904593639576
95682,El Dorado County,CA,NA,NA,66.6077738515901
95695,Yolo County,CA,91.49659863945578,NA,NA
95820,Sacramento County,CA,NA,NA,89.75265017667844
95822,Sacramento County,CA,NA,36.02875112309075,NA
95826,Sacramento County,CA,NA,47.7088948787062,NA
95834,Sacramento County,CA,93.19727891156462,NA,NA
95966,Butte County,CA,NA,6.199460916442049,20.406360424028268
95969,Butte County,CA,NA,5.211141060197664,NA
95993,Sutter County,CA,NA,33.78256963162624,NA
96001,Shasta County,CA,47.61904761904761,NA,37.72084805653711
96003,Shasta County,CA,NA,NA,88.69257950530034
96080,Tehama County,CA,NA,92.18328840970351,NA
96101,Modoc County,CA,NA,NA,96.5547703180212
80022,Adams County,CO,NA,79.06558849955077,NA
80219,Denver County,CO,5.442176870748299,NA,NA
80224,Denver County,CO,NA,NA,45.40636042402827
80226,Jefferson County,CO,NA,68.28391734052111,NA
80233,Adams County,CO,NA,43.84546271338724,NA
80403,Jefferson County,CO,NA,NA,63.16254416961131
80501,Boulder County,CO,NA,NA,59.275618374558306
80503,Boulder County,CO,NA,NA,37.985865724381625
80526,Larimer County,CO,78.2312925170068,NA,NA
80537,Larimer County,CO,NA,NA,17.402826855123674
80602,Adams County,CO,NA,47.88858939802336,NA
80723,Morgan County,CO,88.26530612244898,NA,NA
80910,El Paso County,CO,84.18367346938776,NA,NA
80911,El Paso County,CO,NA,NA,43.72791519434629
81067,Otero County,CO,NA,NA,97.43816254416961
81144,Rio Grande County,CO,NA,NA,86.92579505300353
81425,Montrose County,CO,NA,96.04672057502246,NA
81650,Garfield County,CO,NA,99.1015274034142,NA
06010,Hartford County,CT,NA,14.914645103324348,2.385159010600707
06026,Hartford County,CT,NA,NA,99.55830388692578
06032,Hartford County,CT,NA,NA,83.56890459363959
06040,Hartford County,CT,32.6530612244898,NA,NA
06051,Hartford County,CT,NA,14.375561545372866,NA
06082,Hartford County,CT,NA,78.07726864330637,NA
06110,Hartford County,CT,NA,NA,68.28621908127208
06239,Windham County,CT,NA,NA,72.1731448763251
06241,Windham County,CT,NA,95.14824797843666,NA
06268,Tolland County,CT,92.85714285714286,NA,NA
06405,New Haven County,CT,67.51700680272108,NA,NA
06422,Middlesex County,CT,NA,82.1203953279425,NA
06437,New Haven County,CT,NA,NA,27.73851590106007
06443,New Haven County,CT,NA,NA,72.43816254416961
06457,Middlesex County,CT,NA,NA,6.713780918727916
06460,New Haven County,CT,NA,42.76729559748428,NA
06475,Middlesex County,CT,77.72108843537416,NA,NA
06484,Fairfield County,CT,NA,NA,42.667844522968196
06489,Hartford County,CT,NA,NA,77.8268551236749
06492,New Haven County,CT,NA,37.64600179694519,NA
06605,Fairfield County,CT,NA,79.24528301886792,NA
06606,Fairfield County,CT,NA,NA,76.5017667844523
06614,Fairfield County,CT,NA,27.583108715184185,NA
06708,New Haven County,CT,NA,NA,77.56183745583039
06770,New Haven County,CT,21.768707482993197,NA,NA
06820,Fairfield County,CT,NA,NA,71.81978798586573
06830,Fairfield County,CT,NA,NA,9.982332155477032
06877,Fairfield County,CT,73.12925170068027,NA,26.060070671378092
06880,Fairfield County,CT,43.707482993197274,NA,NA
06905,Fairfield County,CT,NA,41.32973944294699,NA
19701,New Castle County,DE,NA,NA,37.014134275618375
19802,New Castle County,DE,NA,NA,42.226148409893995
19901,Kent County,DE,62.074829931972786,14.465408805031446,NA
19904,Kent County,DE,NA,42.138364779874216,NA
19945,Sussex County,DE,NA,52.650494159928115,NA
19952,Kent County,DE,NA,49.865229110512125,NA
19973,Sussex County,DE,NA,NA,11.307420494699647
32003,Clay County,FL,53.2312925170068,NA,NA
32024,Columbia County,FL,NA,NA,67.40282685512368
32055,Columbia County,FL,NA,NA,52.82685512367491
32060,Suwannee County,FL,47.10884353741497,NA,NA
32068,Clay County,FL,NA,NA,88.60424028268551
32128,Volusia County,FL,NA,NA,34.09893992932862
32132,Volusia County,FL,NA,64.06109613656783,NA
32137,Flagler County,FL,NA,NA,5.742049469964664
32189,Putnam County,FL,NA,92.63252470799641,NA
32208,Duval County,FL,NA,4.492362982929021,NA
32220,Duval County,FL,NA,45.103324348607366,NA
32223,Duval County,FL,NA,NA,69.34628975265018
32224,Duval County,FL,NA,NA,74.73498233215548
32225,Duval County,FL,25.850340136054424,NA,NA
32226,Duval County,FL,NA,85.44474393530997,NA
32244,Duval County,FL,NA,7.277628032345014,NA
32250,Duval County,FL,54.08163265306123,NA,NA
32258,Duval County,FL,NA,NA,77.73851590106007
32303,Leon County,FL,39.795918367346935,NA,NA
32308,Leon County,FL,NA,54.71698113207547,NA
32404,Bay County,FL,NA,NA,17.75618374558304
32405,Bay County,FL,NA,NA,13.51590106007067
32433,Walton County,FL,NA,66.0377358490566,NA
32439,Walton County,FL,NA,61.36567834681043,NA
32456,Gulf County,FL,85.03401360544217,NA,NA
32503,Escambia County,FL,NA,59.65858041329739,NA
32531,Okaloosa County,FL,NA,68.01437556154536,NA
32547,Okaloosa County,FL,NA,NA,44.69964664310954
32578,Okaloosa County,FL,NA,NA,16.431095406360424
32656,Clay County,FL,NA,NA,78.00353356890459
32707,Seminole County,FL,NA,77.71787960467206,NA
32724,Volusia County,FL,NA,NA,18.19787985865724
32725,Volusia County,FL,NA,89.12848158131177,NA
32746,Seminole County,FL,NA,NA,74.1166077738516
32763,Volusia County,FL,NA,NA,19.964664310954063
32780,Brevard County,FL,NA,80.50314465408806,3.9752650176678443
32801,Orange County,FL,NA,NA,62.63250883392226
32808,Orange County,FL,41.156462585034014,NA,NA
32809,Orange County,FL,NA,51.482479784366575,NA
32811,Orange County,FL,20.068027210884352,NA,NA
32822,Orange County,FL,NA,20.934411500449237,NA
32825,Orange County,FL,NA,10.96136567834681,NA
32907,Brevard County,FL,NA,NA,15.371024734982333
32926,Brevard County,FL,NA,68.73315363881402,14.664310954063604
32927,Brevard County,FL,NA,70.53009883198563,NA
32934,Brevard County,FL,NA,NA,65.98939929328623
32940,Brevard County,FL,61.904761904761905,NA,44.25795053003533
32948,Indian River County,FL,93.5374149659864,NA,NA
32952,Brevard County,FL,NA,69.7214734950584,NA
32966,Indian River County,FL,NA,25.60646900269542,42.40282685512368
33012,Miami-Dade County,FL,NA,NA,19.699646643109542
33015,Miami-Dade County,FL,94.38775510204081,37.37646001796946,NA
33016,Miami-Dade County,FL,NA,NA,50.35335689045937
33021,Broward County,FL,NA,NA,22.968197879858657
33060,Broward County,FL,33.33333333333333,NA,NA
33062,Broward County,FL,NA,22.10242587601078,2.8268551236749118
33063,Broward County,FL,NA,NA,66.25441696113074
33068,Broward County,FL,NA,NA,64.2226148409894
33071,Broward County,FL,NA,53.54896675651393,NA
33125,Miami-Dade County,FL,NA,31.536388140161726,NA
33129,Miami-Dade County,FL,NA,NA,93.46289752650176
33138,Miami-Dade County,FL,65.47619047619048,NA,NA
33139,Miami-Dade County,FL,79.421768707483,NA,9.010600706713781
33140,Miami-Dade County,FL,NA,60.82659478885895,NA
33142,Miami-Dade County,FL,NA,15.184186882300091,13.780918727915195
33147,Miami-Dade County,FL,NA,29.469901168014374,NA
33157,Miami-Dade County,FL,NA,17.52021563342318,NA
33161,Miami-Dade County,FL,NA,NA,77.20848056537103
33167,Miami-Dade County,FL,81.12244897959184,NA,NA
33176,Miami-Dade County,FL,NA,NA,53.71024734982333
33186,Miami-Dade County,FL,NA,NA,53.4452296819788
33189,Miami-Dade County,FL,84.6938775510204,NA,NA
33193,Miami-Dade County,FL,57.31292517006803,NA,NA
33304,Broward County,FL,NA,81.40161725067385,NA
33321,Broward County,FL,NA,NA,3.8869257950530036
33322,Broward County,FL,NA,NA,9.89399293286219
33334,Broward County,FL,NA,43.93530997304582,NA
33407,Palm Beach County,FL,NA,NA,95.49469964664311
33413,Palm Beach County,FL,79.59183673469387,NA,NA
33418,Palm Beach County,FL,NA,22.731356693620842,NA
33432,Palm Beach County,FL,78.74149659863946,NA,NA
33433,Palm Beach County,FL,NA,NA,1.1484098939929328
33437,Palm Beach County,FL,NA,NA,0.17667844522968199
33449,Palm Beach County,FL,NA,NA,69.1696113074205
33460,Palm Beach County,FL,82.31292517006803,NA,59.45229681978799
33472,Palm Beach County,FL,NA,NA,17.314487632508836
33486,Palm Beach County,FL,82.99319727891157,NA,NA
33498,Palm Beach County,FL,NA,NA,46.81978798586572
33525,Pasco County,FL,NA,NA,59.62897526501767
33541,Pasco County,FL,NA,62.17430368373764,NA
33556,Hillsborough County,FL,NA,NA,57.50883392226148
33603,Hillsborough County,FL,NA,NA,89.13427561837456
33604,Hillsborough County,FL,NA,33.06379155435759,NA
33617,Hillsborough County,FL,NA,28.481581311769993,NA
33635,Hillsborough County,FL,NA,58.58041329739443,NA
33701,Pinellas County,FL,NA,NA,49.02826855123675
33712,Pinellas County,FL,31.122448979591837,NA,NA
33761,Pinellas County,FL,NA,NA,78.886925795053
33762,Pinellas County,FL,NA,NA,99.29328621908127
33781,Pinellas County,FL,NA,62.44384546271339,NA
33801,Polk County,FL,NA,NA,45.31802120141343
33811,Polk County,FL,NA,NA,84.98233215547704
33825,Highlands County,FL,NA,86.34321653189578,NA
33843,Polk County,FL,NA,70.08086253369272,NA
33852,Highlands County,FL,NA,65.1392632524708,NA
33860,Polk County,FL,NA,NA,62.014134275618375
33898,Polk County,FL,97.61904761904762,NA,NA
33905,Lee County,FL,NA,NA,65.19434628975264
33907,Lee County,FL,NA,NA,45.22968197879859
33916,Lee County,FL,NA,NA,63.957597173144876
33919,Lee County,FL,NA,NA,2.65017667844523
33952,Charlotte County,FL,NA,59.74842767295597,24.646643109540637
34145,Collier County,FL,NA,NA,21.819787985865723
34208,Manatee County,FL,NA,NA,53.26855123674912
34210,Manatee County,FL,NA,NA,87.27915194346289
34229,Sarasota County,FL,NA,NA,26.67844522968198
34241,Sarasota County,FL,NA,NA,40.01766784452297
34242,Sarasota County,FL,NA,NA,41.784452296819794
34243,Manatee County,FL,NA,NA,6.18374558303887
34266,DeSoto County,FL,32.142857142857146,NA,NA
34275,Sarasota County,FL,NA,95.23809523809523,NA
34453,Citrus County,FL,NA,NA,80.21201413427562
34471,Marion County,FL,NA,NA,38.957597173144876
34472,Marion County,FL,33.843537414965986,NA,NA
34473,Marion County,FL,NA,52.83018867924528,95.0530035335689
34475,Marion County,FL,NA,NA,81.62544169611307
34481,Marion County,FL,NA,NA,37.80918727915194
34484,Sumter County,FL,NA,94.07008086253369,NA
34488,Marion County,FL,93.87755102040816,NA,NA
34491,Marion County,FL,NA,NA,48.14487632508834
34606,Hernando County,FL,NA,NA,58.12720848056537
34654,Pasco County,FL,NA,74.21383647798741,NA
34683,Pinellas County,FL,NA,40.071877807726864,NA
34684,Pinellas County,FL,NA,9.074573225516621,NA
34689,Pinellas County,FL,NA,NA,15.459363957597173
34691,Pasco County,FL,81.63265306122449,71.96765498652292,NA
34711,Lake County,FL,NA,3.4141958670260557,20.671378091872793
34736,Lake County,FL,NA,NA,71.99646643109541
34787,Orange County,FL,NA,NA,16.696113074204945
34788,Lake County,FL,NA,23.98921832884097,23.939929328621908
34945,St. Lucie County,FL,NA,98.6522911051213,NA
34952,St. Lucie County,FL,NA,NA,28.533568904593636
34953,St. Lucie County,FL,5.952380952380952,NA,NA
34972,Okeechobee County,FL,79.25170068027211,NA,NA
34974,Okeechobee County,FL,NA,33.513027852650495,NA
30008,Cobb County,GA,NA,NA,68.46289752650176
30011,Barrow County,GA,NA,NA,82.42049469964664
30028,Forsyth County,GA,NA,45.73225516621743,NA
30034,DeKalb County,GA,90.64625850340136,NA,NA
30039,Gwinnett County,GA,NA,NA,93.37455830388693
30041,Forsyth County,GA,25.170068027210885,NA,NA
30043,Gwinnett County,GA,20.238095238095237,NA,NA
30075,Fulton County,GA,NA,NA,36.042402826855124
30087,DeKalb County,GA,NA,16.621743036837376,NA
30088,DeKalb County,GA,36.054421768707485,NA,NA
30106,Cobb County,GA,61.224489795918366,NA,NA
30117,Carroll County,GA,NA,NA,23.32155477031802
30120,Bartow County,GA,18.027210884353742,NA,NA
30125,Polk County,GA,NA,NA,92.04946996466431
30134,Douglas County,GA,NA,NA,47.17314487632509
30152,Cobb County,GA,NA,NA,63.60424028268551
30153,Polk County,GA,NA,NA,76.23674911660777
30157,Paulding County,GA,NA,NA,40.19434628975265
30217,Heard County,GA,84.8639455782313,NA,NA
30220,Coweta County,GA,87.07482993197279,NA,NA
30223,Spalding County,GA,33.6734693877551,NA,99.64664310954063
30224,Spalding County,GA,NA,83.10871518418689,NA
30230,Troup County,GA,71.42857142857143,NA,NA
30240,Troup County,GA,NA,NA,27.915194346289752
30241,Troup County,GA,NA,43.39622641509434,62.36749116607774
30252,Henry County,GA,35.714285714285715,NA,NA
30268,Fulton County,GA,NA,NA,76.41342756183745
30281,Henry County,GA,NA,NA,37.27915194346289
30291,Fulton County,GA,NA,NA,56.8904593639576
30310,Fulton County,GA,NA,NA,40.282685512367486
30312,Fulton County,GA,NA,44.38454627133873,NA
30318,Fulton County,GA,NA,73.13566936208446,NA
30331,Fulton County,GA,NA,NA,13.162544169611307
30360,DeKalb County,GA,NA,89.30817610062893,NA
30427,Tattnall County,GA,NA,83.19856244384546,NA
30518,Gwinnett County,GA,NA,29.020664869721475,NA
30519,Gwinnett County,GA,NA,NA,61.74911660777384
30536,Gilmer County,GA,95.40816326530613,NA,NA
30548,Jackson County,GA,NA,41.23989218328841,80.91872791519434
30635,Elbert County,GA,NA,91.91374663072777,NA
30650,Morgan County,GA,NA,58.310871518418686,NA
30656,Walton County,GA,96.7687074829932,NA,NA
30680,Barrow County,GA,NA,NA,55.03533568904594
30705,Murray County,GA,80.95238095238095,NA,NA
30738,Dade County,GA,NA,NA,93.90459363957598
30740,Whitfield County,GA,NA,NA,95.58303886925795
30741,Walker County,GA,17.17687074829932,NA,NA
30813,Columbia County,GA,NA,33.153638814016176,NA
30815,Richmond County,GA,NA,9.254267744833783,NA
30828,Warren County,GA,96.42857142857143,NA,NA
30830,Burke County,GA,NA,51.75202156334232,NA
30901,Richmond County,GA,NA,77.26864330637916,NA
30907,Columbia County,GA,96.5986394557823,7.187780772686433,NA
31015,Crisp County,GA,NA,26.41509433962264,NA
31021,Laurens County,GA,NA,NA,40.90106007067138
31061,Baldwin County,GA,NA,22.371967654986523,27.385159010600706
31093,Houston County,GA,NA,27.22371967654987,NA
31206,Bibb County,GA,NA,43.755615453728666,NA
31211,Bibb County,GA,66.49659863945578,NA,NA
31513,Appling County,GA,64.96598639455783,NA,NA
31520,Glynn County,GA,85.54421768707483,NA,NA
31533,Coffee County,GA,NA,NA,57.95053003533569
31535,Coffee County,GA,NA,78.25696316262353,NA
31602,Lowndes County,GA,NA,36.837376460017964,NA
31632,Lowndes County,GA,NA,71.51841868823001,NA
31639,Berrien County,GA,NA,NA,54.77031802120141
31707,Dougherty County,GA,NA,NA,70.0530035335689
31763,Lee County,GA,NA,57.322551662174305,NA
31793,Tift County,GA,NA,79.87421383647799,NA
31794,Tift County,GA,NA,NA,31.360424028268554
31903,Muscogee County,GA,28.741496598639454,37.10691823899371,NA
31904,Muscogee County,GA,58.50340136054422,NA,NA
31906,Muscogee County,GA,NA,67.29559748427673,NA
31907,Muscogee County,GA,NA,NA,2.208480565371025
39817,Decatur County,GA,NA,NA,88.51590106007066
39828,Grady County,GA,NA,63.52201257861635,91.87279151943463
96701,Honolulu County,HI,29.761904761904763,NA,NA
96712,Honolulu County,HI,NA,94.9685534591195,NA
96720,Hawaii County,HI,NA,20.844564240790657,NA
96778,Hawaii County,HI,NA,NA,87.19081272084806
96782,Honolulu County,HI,NA,NA,64.66431095406361
96789,Honolulu County,HI,NA,NA,9.275618374558304
96792,Honolulu County,HI,NA,19.047619047619047,NA
83301,Twin Falls County,ID,NA,0.8086253369272237,NA
83544,Clearwater County,ID,NA,NA,82.15547703180212
83634,Ada County,ID,NA,39.17340521114106,NA
83647,Elmore County,ID,NA,NA,67.6678445229682
83714,Ada County,ID,NA,NA,10.335689045936396
83815,Kootenai County,ID,NA,81.22192273135668,NA
60004,Cook County,IL,NA,6.828391734052111,6.625441696113074
60014,McHenry County,IL,22.108843537414966,NA,NA
60015,Lake County,IL,NA,52.650494159928115,NA
60025,Cook County,IL,NA,NA,2.9151943462897525
60026,Cook County,IL,NA,39.892183288409704,NA
60030,Lake County,IL,NA,NA,12.102473498233216
60044,Lake County,IL,NA,NA,51.23674911660777
60050,McHenry County,IL,NA,NA,41.96113074204947
60053,Cook County,IL,NA,NA,70.58303886925795
60062,Cook County,IL,NA,NA,0.26501766784452296
60067,Cook County,IL,NA,14.734950584007187,NA
60076,Cook County,IL,NA,NA,12.36749116607774
60085,Lake County,IL,NA,25.067385444743934,20.58303886925795
60091,Cook County,IL,NA,NA,11.66077738515901
60099,Lake County,IL,NA,34.32165318957772,NA
60102,McHenry County,IL,NA,NA,40.01766784452297
60118,Kane County,IL,NA,NA,94.43462897526503
60119,Kane County,IL,NA,NA,84.36395759717314
60123,Kane County,IL,NA,42.58760107816711,44.87632508833922
60126,DuPage County,IL,NA,NA,4.063604240282685
60131,Cook County,IL,67.51700680272108,NA,NA
60142,McHenry County,IL,NA,NA,13.33922261484099
60148,DuPage County,IL,NA,4.22282120395328,NA
60153,Cook County,IL,NA,NA,42.49116607773852
60175,Kane County,IL,NA,NA,60.86572438162544
60193,Cook County,IL,NA,NA,22.084805653710244
60302,Cook County,IL,NA,59.299191374663074,NA
60404,Will County,IL,39.625850340136054,NA,NA
60410,Will County,IL,43.02721088435374,NA,NA
60411,Cook County,IL,NA,7.0979335130278525,NA
60416,Grundy County,IL,NA,91.7340521114106,NA
60417,Will County,IL,NA,NA,84.62897526501767
60419,Cook County,IL,NA,62.62353998203055,NA
60422,Cook County,IL,NA,38.90386343216532,NA
60435,Will County,IL,NA,NA,13.604240282685511
60436,Will County,IL,NA,48.158131176999106,NA
60438,Cook County,IL,NA,NA,73.0565371024735
60440,Will County,IL,NA,9.613656783468103,NA
60442,Will County,IL,NA,NA,95.75971731448763
60446,Will County,IL,NA,NA,80.3886925795053
60452,Cook County,IL,72.78911564625851,NA,NA
60453,Cook County,IL,57.48299319727891,NA,4.681978798586572
60455,Cook County,IL,NA,41.41958670260557,NA
60462,Cook County,IL,NA,24.707996406109615,7.597173144876325
60467,Cook County,IL,45.23809523809524,NA,NA
60502,DuPage County,IL,75.34013605442176,NA,NA
60505,Kane County,IL,NA,66.93620844564241,NA
60527,DuPage County,IL,46.25850340136054,NA,NA
60532,DuPage County,IL,NA,NA,35.600706713780916
60540,DuPage County,IL,56.12244897959183,23.00089847259659,NA
60543,Kendall County,IL,32.482993197278915,NA,NA
60544,Will County,IL,NA,NA,72.26148409893993
60563,DuPage County,IL,NA,NA,18.109540636042404
60565,DuPage County,IL,NA,15.45372866127583,NA
60608,Cook County,IL,NA,NA,6.448763250883392
60611,Cook County,IL,NA,NA,8.8339222614841
60617,Cook County,IL,NA,NA,12.7208480565371
60620,Cook County,IL,66.15646258503402,NA,NA
60624,Cook County,IL,NA,21.38364779874214,NA
60625,Cook County,IL,NA,NA,44.96466431095406
60626,Cook County,IL,NA,28.84097035040431,NA
60630,Cook County,IL,20.74829931972789,38.00539083557952,NA
60632,Cook County,IL,NA,23.360287511230908,NA
60633,Cook County,IL,NA,NA,98.14487632508833
60634,Cook County,IL,NA,5.840071877807727,NA
60640,Cook County,IL,NA,5.3908355795148255,NA
60641,Cook County,IL,NA,NA,17.84452296819788
60642,Cook County,IL,72.95918367346938,NA,NA
60644,Cook County,IL,NA,NA,60.07067137809188
60645,Cook County,IL,32.31292517006803,NA,NA
60647,Cook County,IL,NA,15.363881401617252,58.48056537102474
60651,Cook County,IL,NA,32.075471698113205,NA
60653,Cook County,IL,NA,25.247079964061097,NA
60654,Cook County,IL,NA,89.75741239892183,NA
60659,Cook County,IL,42.17687074829932,NA,34.717314487632514
60660,Cook County,IL,24.829931972789115,NA,NA
60942,Vermilion County,IL,86.90476190476191,NA,NA
60954,Kankakee County,IL,72.27891156462584,NA,NA
61016,Winnebago County,IL,89.79591836734694,NA,NA
61036,Jo Daviess County,IL,97.27891156462584,NA,NA
61061,Ogle County,IL,NA,66.75651392632524,NA
61068,Ogle County,IL,NA,NA,25.795053003533567
61071,Whiteside County,IL,NA,12.219227313566936,NA
61072,Winnebago County,IL,NA,59.02964959568733,NA
61081,Whiteside County,IL,NA,41.15004492362983,18.374558303886925
61088,Winnebago County,IL,NA,86.61275831087151,NA
61108,Winnebago County,IL,NA,20.30548068283917,NA
61201,Rock Island County,IL,34.183673469387756,25.60646900269542,30.47703180212014
61270,Whiteside County,IL,NA,NA,51.590106007067135
61282,Rock Island County,IL,NA,NA,81.36042402826855
61342,LaSalle County,IL,NA,90.83557951482479,NA
61350,LaSalle County,IL,NA,58.84995507637017,NA
61455,McDonough County,IL,NA,NA,75
61520,Fulton County,IL,NA,47.079964061096135,NA
61525,Peoria County,IL,NA,NA,84.98233215547704
61550,Tazewell County,IL,NA,61.99460916442049,NA
61727,De Witt County,IL,NA,64.95956873315365,NA
61761,McLean County,IL,NA,NA,26.501766784452297
61821,Champaign County,IL,38.265306122448976,NA,75.44169611307422
61834,Vermilion County,IL,NA,NA,91.69611307420494
61853,Champaign County,IL,NA,NA,55.918727915194346
61866,Champaign County,IL,37.58503401360544,NA,NA
62002,Madison County,IL,NA,NA,10.86572438162544
62025,Madison County,IL,NA,NA,20.318021201413426
62033,Macoupin County,IL,NA,74.84276729559748,NA
62049,Montgomery County,IL,NA,NA,83.30388692579506
62088,Macoupin County,IL,NA,NA,80.12367491166079
62246,Bond County,IL,NA,88.58939802336029,NA
62249,Madison County,IL,NA,NA,25.618374558303884
62278,Randolph County,IL,NA,NA,56.53710247349824
62301,Adams County,IL,NA,31.176999101527404,NA
62521,Macon County,IL,NA,NA,3.4452296819787986
62618,Cass County,IL,NA,90.56603773584906,NA
62629,Sangamon County,IL,NA,81.40161725067385,NA
62702,Sangamon County,IL,23.809523809523807,NA,NA
62801,Marion County,IL,NA,22.911051212938006,NA
62832,Perry County,IL,NA,92.72237196765498,NA
62837,Wayne County,IL,NA,NA,94.96466431095406
62881,Marion County,IL,NA,NA,34.01060070671378
62918,Williamson County,IL,NA,67.20575022461814,NA
46036,Madison County,IN,NA,NA,62.80918727915194
46037,Hamilton County,IN,NA,31.08715184186882,NA
46052,Boone County,IN,NA,NA,67.49116607773851
46064,Madison County,IN,NA,48.96675651392633,NA
46072,Tipton County,IN,NA,96.13656783468105,NA
46077,Boone County,IN,NA,57.41239892183289,NA
46123,Hendricks County,IN,NA,35.309973045822105,24.91166077738516
46131,Johnson County,IN,NA,21.92273135669362,87.80918727915194
46168,Hendricks County,IN,NA,73.49505840071878,NA
46176,Shelby County,IN,NA,7.726864330637915,NA
46205,Marion County,IN,32.99319727891156,NA,NA
46221,Marion County,IN,NA,NA,90.54770318021201
46222,Marion County,IN,17.517006802721088,NA,NA
46226,Marion County,IN,NA,9.973045822102426,NA
46228,Marion County,IN,74.14965986394559,NA,64.92932862190813
46237,Marion County,IN,16.666666666666664,NA,NA
46303,Lake County,IN,NA,NA,84.09893992932862
46307,Lake County,IN,1.7006802721088436,1.078167115902965,NA
46311,Lake County,IN,NA,12.578616352201259,20.141342756183743
46312,Lake County,IN,NA,NA,67.84452296819788
46319,Lake County,IN,NA,53.1895777178796,NA
46322,Lake County,IN,NA,69.09254267744835,NA
46360,LaPorte County,IN,23.12925170068027,NA,14.575971731448764
46368,Porter County,IN,NA,10.242587601078167,NA
46383,Porter County,IN,NA,23.809523809523807,NA
46385,Porter County,IN,NA,NA,75.8833922261484
46404,Lake County,IN,29.081632653061224,NA,83.83392226148409
46405,Lake County,IN,NA,71.33872416891285,NA
46526,Elkhart County,IN,49.82993197278912,NA,NA
46530,St. Joseph County,IN,NA,NA,51.50176678445229
46544,St. Joseph County,IN,42.517006802721085,47.52920035938904,NA
46561,St. Joseph County,IN,NA,NA,96.99646643109541
46563,Marshall County,IN,NA,19.31716082659479,NA
46580,Kosciusko County,IN,41.3265306122449,NA,23.763250883392224
46614,St. Joseph County,IN,53.57142857142857,NA,NA
46703,Steuben County,IN,NA,NA,29.063604240282686
46725,Whitley County,IN,NA,16.801437556154536,NA
46733,Adams County,IN,38.435374149659864,NA,NA
46804,Allen County,IN,88.09523809523809,NA,NA
46806,Allen County,IN,NA,88.76909254267746,97.52650176678446
46808,Allen County,IN,NA,52.11141060197664,NA
46816,Allen County,IN,NA,NA,50.17667844522968
46825,Allen County,IN,NA,54.357592093441156,NA
46845,Allen County,IN,52.55102040816326,NA,NA
46902,Howard County,IN,4.421768707482993,20.035938903863432,NA
46962,Wabash County,IN,NA,NA,58.03886925795053
46970,Miami County,IN,9.693877551020408,18.149146451033243,NA
47203,Bartholomew County,IN,30.952380952380953,NA,NA
47250,Jefferson County,IN,NA,NA,46.5547703180212
47304,Delaware County,IN,NA,85.71428571428571,NA
47331,Fayette County,IN,NA,NA,6.36042402826855
47362,Henry County,IN,NA,36.477987421383645,NA
47371,Jay County,IN,NA,25.78616352201258,40.54770318021201
47501,Daviess County,IN,NA,NA,17.491166077738516
47546,Dubois County,IN,85.8843537414966,NA,NA
47586,Perry County,IN,63.60544217687075,NA,56.80212014134276
47610,Warrick County,IN,NA,NA,96.64310954063605
47620,Posey County,IN,NA,NA,83.03886925795054
47630,Warrick County,IN,NA,18.328840970350406,NA
47711,Vanderburgh County,IN,NA,71.15902964959568,NA
47803,Vigo County,IN,89.45578231292517,NA,29.41696113074205
47834,Clay County,IN,NA,NA,82.95053003533569
47872,Parke County,IN,NA,NA,86.39575971731449
47909,Tippecanoe County,IN,NA,NA,29.770318021201415
47933,Montgomery County,IN,NA,38.274932614555254,NA
50009,Polk County,IA,NA,78.52650494159928,NA
50023,Polk County,IA,NA,72.0575022461815,NA
50315,Polk County,IA,NA,NA,80.74204946996466
50401,Cerro Gordo County,IA,NA,NA,0.6183745583038869
50701,Black Hawk County,IA,NA,20.664869721473494,NA
50702,Black Hawk County,IA,NA,70.61994609164421,NA
50703,Black Hawk County,IA,NA,NA,25.176678445229683
51031,Plymouth County,IA,78.06122448979592,NA,NA
51103,Woodbury County,IA,NA,55.43575920934411,NA
51104,Woodbury County,IA,40.816326530612244,NA,NA
51106,Woodbury County,IA,NA,NA,30.830388692579508
51566,Montgomery County,IA,NA,NA,78.62190812720848
51632,Page County,IA,71.5986394557823,NA,NA
52001,Dubuque County,IA,NA,19.58670260557053,NA
52404,Linn County,IA,NA,NA,23.0565371024735
52577,Mahaska County,IA,NA,35.669362084456424,47.52650176678445
52601,Des Moines County,IA,12.585034013605442,NA,NA
52632,Lee County,IA,65.98639455782312,NA,82.06713780918727
52732,Clinton County,IA,47.95918367346938,NA,NA
52761,Muscatine County,IA,NA,37.735849056603776,19.6113074204947
52802,Scott County,IA,NA,96.40610961365678,NA
52807,Scott County,IA,NA,NA,90.81272084805654
66046,Douglas County,KS,93.36734693877551,NA,NA
66048,Leavenworth County,KS,NA,NA,75.17667844522968
66053,Miami County,KS,NA,98.56244384546271,NA
66062,Johnson County,KS,NA,NA,13.957597173144876
66202,Johnson County,KS,NA,NA,94.87632508833921
66216,Johnson County,KS,NA,NA,41.96113074204947
66223,Johnson County,KS,NA,NA,49.20494699646643
66227,Johnson County,KS,98.63945578231292,NA,NA
66502,Riley County,KS,NA,89.937106918239,NA
66604,Shawnee County,KS,NA,34.052111410601974,30.565371024734983
66713,Cherokee County,KS,NA,83.37825696316263,NA
66736,Wilson County,KS,NA,NA,86.66077738515902
66749,Allen County,KS,71.08843537414967,NA,NA
67002,Butler County,KS,NA,NA,85.7773851590106
67005,Cowley County,KS,NA,65.85804132973945,NA
67203,Sedgwick County,KS,NA,58.310871518418686,NA
67213,Sedgwick County,KS,NA,NA,80.03533568904594
67901,Seward County,KS,NA,66.4869721473495,NA
40004,Nelson County,KY,NA,NA,32.685512367491164
40033,Marion County,KY,52.89115646258503,NA,NA
40059,Jefferson County,KY,74.31972789115646,NA,NA
40071,Spencer County,KY,NA,43.486073674752916,NA
40165,Bullitt County,KY,NA,NA,39.75265017667844
40216,Jefferson County,KY,NA,NA,9.717314487632509
40218,Jefferson County,KY,NA,32.70440251572327,47.879858657243815
40245,Jefferson County,KY,NA,NA,50.44169611307421
40311,Nicholas County,KY,NA,96.67565139263252,NA
40330,Mercer County,KY,NA,44.20485175202156,NA
40356,Jessamine County,KY,NA,NA,35.95406360424028
40383,Woodford County,KY,68.19727891156462,NA,NA
40391,Clark County,KY,NA,37.915543575920935,NA
40729,Laurel County,KY,77.55102040816327,NA,NA
40741,Laurel County,KY,19.727891156462583,NA,68.7279151943463
40744,Laurel County,KY,NA,NA,67.226148409894
40831,Harlan County,KY,NA,54.896675651392634,NA
40962,Clay County,KY,NA,76.01078167115904,NA
40965,Bell County,KY,NA,57.502246181491465,NA
41017,Kenton County,KY,NA,16.352201257861633,NA
41042,Boone County,KY,40.476190476190474,NA,NA
41056,Mason County,KY,NA,NA,47.70318021201413
41071,Campbell County,KY,NA,NA,75.08833922261485
41076,Campbell County,KY,66.83673469387756,NA,NA
41143,Carter County,KY,NA,40.700808625336926,NA
41311,Lee County,KY,NA,93.9802336028751,NA
42001,McCracken County,KY,26.53061224489796,16.442048517520217,30.123674911660775
42025,Marshall County,KY,NA,NA,24.293286219081274
42029,Marshall County,KY,NA,93.1716082659479,85.42402826855124
42038,Lyon County,KY,NA,NA,90.98939929328623
42041,Fulton County,KY,NA,78.4366576819407,NA
42066,Graves County,KY,NA,15.992812219227314,NA
42101,Warren County,KY,NA,10.69182389937107,NA
42104,Warren County,KY,NA,NA,70.40636042402826
42141,Barren County,KY,NA,63.7915543575921,NA
42171,Warren County,KY,76.70068027210884,NA,NA
42261,Butler County,KY,NA,93.44115004492363,NA
42303,Daviess County,KY,NA,NA,15.81272084805654
42320,Ohio County,KY,45.91836734693878,NA,NA
42351,Hancock County,KY,87.41496598639455,NA,NA
42420,Henderson County,KY,NA,8.7151841868823,NA
42431,Hopkins County,KY,NA,NA,24.11660777385159
42445,Caldwell County,KY,64.28571428571429,NA,NA
42544,Pulaski County,KY,NA,70.97933513027853,NA
70003,Jefferson Parish,LA,79.08163265306123,NA,NA
70005,Jefferson Parish,LA,NA,NA,6.095406360424029
70047,St. Charles Parish,LA,NA,NA,61.572438162544174
70072,Jefferson Parish,LA,NA,NA,4.770318021201414
70085,St. Bernard Parish,LA,NA,99.19137466307278,NA
70094,Jefferson Parish,LA,NA,10.512129380053908,NA
70122,Orleans Parish,LA,5.612244897959184,NA,NA
70123,Jefferson Parish,LA,NA,NA,31.978798586572438
70344,Terrebonne Parish,LA,NA,97.12488769092543,NA
70345,Lafourche Parish,LA,71.5986394557823,NA,NA
70360,Terrebonne Parish,LA,10.714285714285714,NA,NA
70364,Terrebonne Parish,LA,8.333333333333332,NA,NA
70403,Tangipahoa Parish,LA,NA,56.424079065588494,NA
70426,Washington Parish,LA,NA,NA,90.10600706713781
70427,Washington Parish,LA,NA,NA,21.643109540636043
70443,Tangipahoa Parish,LA,22.61904761904762,NA,NA
70458,St. Tammany Parish,LA,NA,2.6954177897574128,NA
70471,St. Tammany Parish,LA,NA,48.42767295597484,NA
70501,Lafayette Parish,LA,1.870748299319728,NA,NA
70506,Lafayette Parish,LA,NA,NA,51.060070671378085
70510,Vermilion Parish,LA,NA,NA,66.34275618374559
70512,St. Landry Parish,LA,NA,66.66666666666666,NA
70515,Evangeline Parish,LA,NA,95.95687331536388,NA
70517,St. Martin Parish,LA,12.925170068027212,46.091644204851754,30.653710247349824
70525,Acadia Parish,LA,NA,NA,50.17667844522968
70526,Acadia Parish,LA,NA,98.74213836477988,NA
70538,St. Mary Parish,LA,NA,NA,46.37809187279152
70544,Iberia Parish,LA,NA,92.27313566936208,NA
70560,Iberia Parish,LA,2.380952380952381,NA,NA
70563,Iberia Parish,LA,33.50340136054422,NA,NA
70570,St. Landry Parish,LA,NA,7.637017070979335,NA
70578,Acadia Parish,LA,19.047619047619047,NA,NA
70586,Evangeline Parish,LA,NA,NA,38.33922261484099
70615,Calcasieu Parish,LA,NA,60.19766397124887,NA
70633,Calcasieu Parish,LA,58.16326530612245,NA,88.95759717314488
70663,Calcasieu Parish,LA,NA,17.4303683737646,NA
70706,Livingston Parish,LA,NA,50.494159928122194,NA
70714,East Baton Rouge Parish,LA,NA,43.21653189577718,NA
70737,Ascension Parish,LA,NA,NA,83.74558303886926
70748,East Feliciana Parish,LA,NA,NA,76.67844522968198
70767,West Baton Rouge Parish,LA,NA,99.01168014375563,NA
70774,Ascension Parish,LA,NA,NA,73.23321554770318
70785,Livingston Parish,LA,NA,NA,75.26501766784452
70805,East Baton Rouge Parish,LA,NA,22.551662174303683,NA
70806,East Baton Rouge Parish,LA,13.095238095238097,NA,NA
70816,East Baton Rouge Parish,LA,6.292517006802721,NA,NA
71067,Bossier Parish,LA,81.4625850340136,NA,NA
71075,Webster Parish,LA,NA,71.42857142857143,NA
71106,Caddo Parish,LA,NA,NA,89.39929328621908
71111,Bossier Parish,LA,NA,39.35309973045822,NA
71112,Bossier Parish,LA,NA,68.8230008984726,NA
71115,Caddo Parish,LA,NA,NA,30.3886925795053
71203,Ouachita Parish,LA,NA,18.957771787960468,NA
71220,Morehouse Parish,LA,NA,35.93890386343217,NA
71241,Union Parish,LA,NA,96.94519317160827,NA
71295,Franklin Parish,LA,NA,75.38185085354897,NA
71301,Rapides Parish,LA,NA,28.12219227313567,NA
71351,Avoyelles Parish,LA,NA,87.51123090745733,NA
71418,Caldwell Parish,LA,NA,67.74483378256963,NA
71435,Caldwell Parish,LA,NA,NA,99.73498233215548
71446,Vernon Parish,LA,NA,31.805929919137466,NA
71483,Winn Parish,LA,35.8843537414966,NA,NA
03901,York County,ME,NA,75.02246181491465,NA
03908,York County,ME,NA,NA,67.75618374558304
04009,Cumberland County,ME,NA,72.59658580413297,NA
04032,Cumberland County,ME,NA,86.61275831087151,NA
04038,Cumberland County,ME,NA,70.26055705300989,NA
04062,Cumberland County,ME,NA,94.42946990116802,NA
04064,York County,ME,70.06802721088435,NA,NA
04101,Cumberland County,ME,NA,NA,41.69611307420495
04106,Cumberland County,ME,62.244897959183675,NA,NA
04240,Androscoggin County,ME,NA,NA,1.0600706713780919
04276,Oxford County,ME,NA,67.83468104222821,62.80918727915194
04281,Oxford County,ME,NA,55.0763701707098,NA
04401,Penobscot County,ME,NA,60.287511230907455,21.024734982332156
04457,Penobscot County,ME,65.1360544217687,NA,NA
04462,Penobscot County,ME,NA,74.03414195867026,NA
04530,Sagadahoc County,ME,NA,NA,50.08833922261484
04578,Lincoln County,ME,NA,86.61275831087151,NA
04605,Hancock County,ME,NA,68.55345911949685,15.724381625441698
04730,Aroostook County,ME,51.19047619047619,NA,NA
04742,Aroostook County,ME,NA,NA,92.13780918727915
04743,Aroostook County,ME,NA,NA,66.51943462897526
04769,Aroostook County,ME,NA,NA,59.98233215547704
04841,Knox County,ME,NA,NA,85.60070671378092
04843,Knox County,ME,NA,55.884995507637015,NA
04901,Kennebec County,ME,NA,NA,3.53356890459364
04930,Penobscot County,ME,NA,77.5381850853549,NA
04957,Somerset County,ME,70.74829931972789,NA,NA
04976,Somerset County,ME,NA,NA,13.074204946996467
20650,St. Mary's County,MD,NA,NA,58.48056537102474
20705,Prince George's County,MD,NA,65.04941599281221,NA
20724,Anne Arundel County,MD,NA,93.80053908355795,NA
20748,Prince George's County,MD,NA,NA,41.43109540636043
20784,Prince George's County,MD,NA,67.9245283018868,NA
20814,Montgomery County,MD,NA,69.18238993710692,NA
20854,Montgomery County,MD,57.993197278911566,NA,NA
20877,Montgomery County,MD,NA,74.66307277628033,NA
20882,Montgomery County,MD,80.61224489795919,NA,NA
21014,Harford County,MD,NA,57.59209344115005,NA
21044,Howard County,MD,NA,54.896675651392634,NA
21045,Howard County,MD,NA,60.5570530098832,NA
21046,Howard County,MD,NA,NA,92.57950530035336
21093,Baltimore County,MD,NA,21.293800539083556,NA
21157,Carroll County,MD,NA,38.454627133872414,NA
21205,Baltimore city,MD,83.16326530612244,NA,NA
21206,Baltimore city,MD,NA,8.265947888589398,NA
21207,Baltimore County,MD,19.5578231292517,18.867924528301888,NA
21209,Baltimore County,MD,NA,52.38095238095239,NA
21213,Baltimore city,MD,16.83673469387755,9.344115004492364,NA
21215,Baltimore city,MD,NA,NA,71.37809187279152
21216,Baltimore city,MD,31.462585034013607,NA,NA
21217,Baltimore city,MD,NA,NA,40.45936395759717
21220,Baltimore County,MD,NA,NA,24.558303886925795
21224,Baltimore city,MD,NA,NA,23.40989399293286
21228,Baltimore County,MD,NA,8.355795148247978,NA
21229,Baltimore city,MD,NA,15.54357592093441,47.08480565371025
21239,Baltimore city,MD,NA,14.824797843665769,NA
21502,Allegany County,MD,NA,NA,25.97173144876325
21620,Kent County,MD,NA,51.30278526504941,NA
21632,Caroline County,MD,NA,75.56154537286612,NA
21754,Frederick County,MD,99.65986394557824,NA,NA
21804,Wicomico County,MD,97.95918367346938,NA,NA
21863,Worcester County,MD,NA,87.33153638814017,NA
01013,Hampden County,MA,2.7210884353741496,NA,NA
01027,Hampshire County,MA,NA,NA,48.409893992932865
01040,Hampden County,MA,NA,0,NA
01056,Hampden County,MA,NA,30.997304582210244,NA
01069,Hampden County,MA,NA,NA,56.27208480565371
01089,Hampden County,MA,NA,NA,19.78798586572438
01201,Berkshire County,MA,4.931972789115646,NA,0.5300353356890459
01240,Berkshire County,MA,NA,99.46091644204851,NA
01247,Berkshire County,MA,NA,NA,16.166077738515902
01376,Franklin County,MA,NA,61.09613656783468,78.886925795053
01450,Middlesex County,MA,NA,NA,77.03180212014135
01464,Middlesex County,MA,NA,53.99820305480682,NA
01523,Worcester County,MA,NA,43.5759209344115,NA
01527,Worcester County,MA,NA,NA,25
01543,Worcester County,MA,94.89795918367348,NA,NA
01545,Worcester County,MA,NA,NA,77.65017667844522
01550,Worcester County,MA,NA,84.54627133872417,NA
01583,Worcester County,MA,95.74829931972789,NA,NA
01602,Worcester County,MA,NA,NA,17.137809187279153
01604,Worcester County,MA,NA,1.3477088948787064,1.5017667844522968
01610,Worcester County,MA,NA,2.785265049415993,NA
01701,Middlesex County,MA,NA,NA,48.67491166077739
01747,Worcester County,MA,NA,NA,74.1166077738516
01757,Worcester County,MA,NA,81.85085354896675,NA
01772,Worcester County,MA,NA,NA,98.93992932862191
01776,Middlesex County,MA,NA,34.95058400718778,NA
01801,Middlesex County,MA,NA,NA,37.102473498233216
01803,Middlesex County,MA,NA,NA,14.310954063604239
01810,Essex County,MA,NA,11.230907457322552,NA
01821,Middlesex County,MA,NA,27.85265049415993,70.58303886925795
01824,Middlesex County,MA,NA,5.031446540880504,NA
01826,Middlesex County,MA,NA,49.50584007187781,NA
01835,Essex County,MA,NA,76.37017070979336,NA
01843,Essex County,MA,NA,NA,26.76678445229682
01845,Essex County,MA,NA,NA,17.491166077738516
01860,Essex County,MA,NA,73.76460017969451,77.29681978798587
01906,Essex County,MA,NA,6.109613656783468,5.123674911660777
01915,Essex County,MA,NA,7.547169811320755,59.8939929328622
01960,Essex County,MA,24.489795918367346,26.68463611859838,32.86219081272085
01982,Essex County,MA,NA,76.28032345013477,NA
02048,Bristol County,MA,17.346938775510203,NA,NA
02050,Plymouth County,MA,96.08843537414967,NA,22.879858657243815
02052,Norfolk County,MA,90.47619047619048,NA,NA
02061,Plymouth County,MA,NA,NA,98.76325088339223
02062,Norfolk County,MA,NA,NA,43.72791519434629
02114,Suffolk County,MA,NA,NA,37.19081272084806
02115,Suffolk County,MA,NA,2.8751123090745736,NA
02118,Suffolk County,MA,NA,0.2695417789757413,NA
02119,Suffolk County,MA,NA,NA,2.2968197879858656
02124,Suffolk County,MA,0,NA,NA
02125,Suffolk County,MA,NA,NA,6.890459363957597
02126,Suffolk County,MA,NA,NA,85.33568904593639
02127,Suffolk County,MA,NA,NA,66.16607773851591
02128,Suffolk County,MA,4.081632653061225,NA,NA
02136,Suffolk County,MA,NA,NA,5.212014134275619
02145,Middlesex County,MA,NA,6.64869721473495,NA
02149,Middlesex County,MA,NA,0.628930817610063,43.28621908127209
02150,Suffolk County,MA,5.1020408163265305,NA,NA
02152,Suffolk County,MA,NA,NA,7.1554770318021195
02155,Middlesex County,MA,NA,NA,16.519434628975265
02169,Norfolk County,MA,NA,NA,0.35335689045936397
02180,Middlesex County,MA,NA,NA,9.010600706713781
02189,Norfolk County,MA,20.408163265306122,NA,NA
02301,Plymouth County,MA,NA,0.08984725965858043,NA
02360,Plymouth County,MA,NA,NA,54.85865724381625
02375,Bristol County,MA,NA,96.85534591194968,NA
02446,Norfolk County,MA,NA,NA,7.06713780918728
02459,Middlesex County,MA,NA,49.95507637017071,NA
02472,Middlesex County,MA,NA,NA,38.78091872791519
02474,Middlesex County,MA,NA,19.85624438454627,NA
02476,Middlesex County,MA,NA,53.09973045822103,NA
02559,Barnstable County,MA,NA,82.30008984725966,NA
02639,Barnstable County,MA,NA,NA,84.89399293286219
02645,Barnstable County,MA,NA,95.8670260557053,NA
02649,Barnstable County,MA,64.45578231292517,NA,73.40989399293287
02703,Bristol County,MA,0.6802721088435374,NA,NA
02720,Bristol County,MA,NA,0.44923629829290207,NA
02743,Bristol County,MA,NA,57.053009883198555,NA
02744,Bristol County,MA,NA,NA,47.879858657243815
02745,Bristol County,MA,40.136054421768705,NA,NA
02748,Bristol County,MA,NA,NA,19.346289752650176
02767,Bristol County,MA,NA,66.39712488769092,74.29328621908127
02777,Bristol County,MA,NA,70.79964061096136,NA
48003,Lapeer County,MI,83.50340136054422,NA,NA
48015,Macomb County,MI,NA,45.462713387241685,NA
48021,Macomb County,MI,9.863945578231291,NA,23.851590106007066
48038,Macomb County,MI,NA,41.95867026055705,NA
48044,Macomb County,MI,46.08843537414966,4.5822102425876015,NA
48047,Macomb County,MI,NA,NA,82.86219081272085
48059,St. Clair County,MI,NA,NA,19.257950530035338
48062,Macomb County,MI,NA,72.77628032345014,NA
48064,St. Clair County,MI,NA,98.02336028751122,NA
48066,Macomb County,MI,NA,31.626235399820306,NA
48071,Oakland County,MI,23.299319727891156,NA,36.57243816254417
48075,Oakland County,MI,NA,57.7717879604672,NA
48076,Oakland County,MI,27.721088435374146,NA,28.975265017667844
48083,Oakland County,MI,NA,88.14016172506739,NA
48089,Macomb County,MI,8.503401360544217,NA,NA
48091,Macomb County,MI,NA,61.81491464510332,34.187279151943464
48093,Macomb County,MI,NA,31.98562443845463,NA
48094,Macomb County,MI,44.89795918367347,NA,NA
48095,Macomb County,MI,NA,NA,94.25795053003534
48098,Oakland County,MI,NA,NA,41.60777385159011
48103,Washtenaw County,MI,NA,NA,0.9717314487632509
48111,Wayne County,MI,NA,26.504941599281224,20.936395759717314
48114,Livingston County,MI,46.42857142857143,NA,NA
48117,Monroe County,MI,75.51020408163265,NA,NA
48127,Wayne County,MI,NA,65.49865229110512,NA
48146,Wayne County,MI,27.89115646258503,NA,68.37455830388693
48150,Wayne County,MI,NA,16.89128481581312,NA
48154,Wayne County,MI,NA,29.73944294699012,NA
48162,Monroe County,MI,NA,36.56783468104223,NA
48170,Wayne County,MI,NA,2.515723270440252,NA
48178,Oakland County,MI,NA,8.89487870619946,5.830388692579505
48180,Wayne County,MI,50.68027210884354,NA,1.678445229681979
48183,Wayne County,MI,NA,4.672057502246182,NA
48185,Wayne County,MI,NA,4.941599281221923,47.349823321554766
48187,Wayne County,MI,NA,1.9766397124887691,NA
48188,Wayne County,MI,NA,29.110512129380055,NA
48191,Washtenaw County,MI,NA,NA,86.92579505300353
48197,Washtenaw County,MI,2.0408163265306123,1.1680143755615455,NA
48198,Washtenaw County,MI,27.55102040816326,NA,NA
48204,Wayne County,MI,NA,24.887690925426774,56.09540636042403
48209,Wayne County,MI,NA,40.16172506738545,82.68551236749117
48210,Wayne County,MI,NA,NA,92.31448763250883
48212,Wayne County,MI,NA,57.23270440251572,NA
48213,Wayne County,MI,NA,NA,90.01766784452296
48214,Wayne County,MI,NA,NA,79.06360424028269
48218,Wayne County,MI,67.3469387755102,NA,NA
48219,Wayne County,MI,21.428571428571427,NA,NA
48221,Wayne County,MI,NA,NA,1.76678445229682
48227,Wayne County,MI,3.061224489795918,NA,18.639575971731446
48228,Wayne County,MI,1.3605442176870748,NA,NA
48230,Wayne County,MI,NA,83.55795148247978,NA
48234,Wayne County,MI,NA,NA,84.18727915194346
48235,Wayne County,MI,2.2108843537414966,NA,9.187279151943462
48239,Wayne County,MI,NA,65.67834681042228,NA
48302,Oakland County,MI,NA,NA,71.73144876325088
48306,Oakland County,MI,NA,NA,63.339222614840985
48307,Oakland County,MI,15.476190476190476,NA,NA
48312,Macomb County,MI,NA,11.141060197663972,NA
48315,Macomb County,MI,NA,14.645103324348607,21.554770318021202
48316,Macomb County,MI,NA,NA,73.58657243816255
48322,Oakland County,MI,NA,NA,51.67844522968198
48356,Oakland County,MI,NA,90.29649595687331,NA
48359,Oakland County,MI,NA,91.82389937106919,NA
48386,Oakland County,MI,NA,80.41329739442948,NA
48415,Saginaw County,MI,NA,53.81850853548967,NA
48420,Genesee County,MI,NA,67.47529200359389,NA
48430,Genesee County,MI,52.04081632653062,NA,NA
48439,Genesee County,MI,NA,NA,10.159010600706713
48441,Huron County,MI,NA,74.66307277628033,NA
48458,Genesee County,MI,NA,96.31626235399821,NA
48504,Genesee County,MI,15.306122448979592,NA,NA
48601,Saginaw County,MI,NA,NA,82.50883392226149
48602,Saginaw County,MI,3.9115646258503403,NA,NA
48609,Saginaw County,MI,NA,53.908355795148246,NA
48612,Gladwin County,MI,NA,NA,62.014134275618375
48622,Clare County,MI,68.5374149659864,NA,NA
48638,Saginaw County,MI,NA,NA,49.82332155477032
48642,Midland County,MI,16.49659863945578,NA,NA
48661,Ogemaw County,MI,NA,NA,24.469964664310954
48708,Bay County,MI,45.06802721088435,NA,NA
48723,Tuscola County,MI,NA,NA,33.745583038869256
48756,Ogemaw County,MI,94.21768707482994,NA,NA
48836,Livingston County,MI,NA,NA,83.48056537102474
48838,Montcalm County,MI,NA,56.963162623539986,NA
48842,Ingham County,MI,NA,NA,46.024734982332156
48843,Livingston County,MI,12.244897959183673,21.92273135669362,NA
48854,Ingham County,MI,NA,46.900269541778975,NA
48855,Livingston County,MI,68.02721088435374,NA,NA
48858,Isabella County,MI,6.63265306122449,NA,NA
48867,Shiawassee County,MI,NA,69.36208445642407,NA
48892,Ingham County,MI,90.1360544217687,NA,NA
48906,Ingham County,MI,NA,NA,25.265017667844525
48917,Eaton County,MI,NA,NA,65.45936395759718
49001,Kalamazoo County,MI,18.367346938775512,NA,NA
49012,Kalamazoo County,MI,NA,97.75381850853549,NA
49014,Calhoun County,MI,NA,24.528301886792452,NA
49017,Calhoun County,MI,NA,20.125786163522015,NA
49046,Barry County,MI,81.80272108843538,NA,NA
49090,Van Buren County,MI,NA,NA,59.54063604240283
49093,St. Joseph County,MI,NA,92.99191374663073,NA
49107,Berrien County,MI,NA,87.33153638814017,NA
49120,Berrien County,MI,39.965986394557824,NA,NA
49201,Jackson County,MI,NA,22.821203953279426,28.003533568904594
49202,Jackson County,MI,NA,NA,77.3851590106007
49203,Jackson County,MI,NA,28.751123090745732,NA
49221,Lenawee County,MI,NA,3.5938903863432166,NA
49315,Kent County,MI,NA,NA,78.09187279151944
49321,Kent County,MI,92.68707482993197,76.90925426774483,NA
49345,Kent County,MI,NA,NA,66.69611307420494
49408,Allegan County,MI,NA,NA,99.1166077738516
49418,Kent County,MI,34.35374149659864,NA,NA
49423,Ottawa County,MI,NA,NA,4.41696113074205
49424,Ottawa County,MI,NA,NA,32.95053003533569
49431,Mason County,MI,NA,NA,76.76678445229682
49442,Muskegon County,MI,3.4013605442176873,NA,NA
49456,Ottawa County,MI,NA,54.088050314465406,NA
49508,Kent County,MI,6.122448979591836,NA,NA
49519,Kent County,MI,NA,NA,58.3922261484099
49601,Wexford County,MI,NA,42.22821203953279,NA
49659,Antrim County,MI,72.61904761904762,NA,NA
49660,Manistee County,MI,35.034013605442176,21.743036837376458,21.908127208480565
49663,Wexford County,MI,NA,NA,91.96113074204946
49684,Grand Traverse County,MI,NA,NA,49.381625441696116
49707,Alpena County,MI,NA,NA,87.10247349823321
49746,Montmorency County,MI,NA,91.2848158131177,NA
49756,Montmorency County,MI,97.10884353741497,NA,NA
49829,Delta County,MI,NA,NA,54.416961130742045
49837,Delta County,MI,NA,44.474393530997304,NA
49878,Delta County,MI,NA,78.25696316262353,NA
49913,Houghton County,MI,NA,NA,33.39222614840989
55009,Goodhue County,MN,65.64625850340136,NA,NA
55016,Washington County,MN,NA,NA,55.12367491166078
55021,Rice County,MN,NA,32.88409703504043,NA
55025,Washington County,MN,49.65986394557823,NA,54.06360424028268
55044,Dakota County,MN,NA,50.76370170709793,NA
55056,Chisago County,MN,74.48979591836735,NA,NA
55104,Ramsey County,MN,NA,NA,68.19787985865725
55106,Ramsey County,MN,25.34013605442177,NA,NA
55109,Ramsey County,MN,NA,23.180592991913745,NA
55119,Ramsey County,MN,NA,73.94429469901168,NA
55124,Dakota County,MN,NA,NA,38.60424028268552
55130,Ramsey County,MN,NA,NA,86.21908127208481
55313,Wright County,MN,76.53061224489795,NA,NA
55318,Carver County,MN,NA,54.53728661275831,NA
55330,Sherburne County,MN,NA,33.692722371967655,NA
55337,Dakota County,MN,NA,18.68823000898473,22.34982332155477
55343,Hennepin County,MN,NA,NA,33.657243816254415
55364,Hennepin County,MN,NA,69.2722371967655,100
55378,Scott County,MN,NA,95.32794249775381,NA
55404,Hennepin County,MN,NA,17.61006289308176,NA
55416,Hennepin County,MN,38.605442176870746,NA,NA
55418,Hennepin County,MN,NA,30.2785265049416,NA
55426,Hennepin County,MN,NA,NA,61.21908127208481
55431,Hennepin County,MN,56.80272108843537,NA,84.80565371024736
55433,Anoka County,MN,31.292517006802722,NA,33.8339222614841
55435,Hennepin County,MN,NA,NA,49.734982332155475
55437,Hennepin County,MN,NA,NA,73.76325088339223
55441,Hennepin County,MN,NA,NA,62.014134275618375
55744,Itasca County,MN,13.60544217687075,NA,NA
55803,St. Louis County,MN,63.095238095238095,26.5947888589398,25.706713780918726
55808,St. Louis County,MN,NA,NA,93.55123674911661
55912,Mower County,MN,NA,81.94070080862534,39.399293286219084
56001,Blue Earth County,MN,NA,NA,39.04593639575972
56007,Freeborn County,MN,NA,31.356693620844567,NA
56101,Cottonwood County,MN,NA,NA,61.30742049469965
56156,Rock County,MN,NA,97.93351302785265,NA
56175,Lyon County,MN,NA,92.45283018867924,NA
56187,Nobles County,MN,NA,32.52470799640611,NA
56258,Lyon County,MN,NA,46.18149146451033,NA
56308,Douglas County,MN,NA,NA,55.74204946996466
56347,Todd County,MN,NA,NA,66.69611307420494
56377,Stearns County,MN,NA,NA,57.42049469964664
56401,Crow Wing County,MN,NA,55.79514824797843,NA
56425,Crow Wing County,MN,NA,NA,58.657243816254415
56431,Aitkin County,MN,NA,80.05390835579514,53.4452296819788
56560,Clay County,MN,NA,NA,8.657243816254418
56601,Beltrami County,MN,6.802721088435375,NA,NA
38632,DeSoto County,MS,NA,56.60377358490566,NA
38635,Marshall County,MS,NA,80.14375561545373,NA
38683,Tippah County,MS,NA,NA,96.28975265017668
38834,Alcorn County,MS,NA,NA,27.385159010600706
38850,Chickasaw County,MS,NA,NA,99.91166077738515
38852,Tishomingo County,MS,NA,55.70530098831986,NA
38901,Grenada County,MS,NA,NA,32.50883392226148
38915,Calhoun County,MS,NA,NA,99.82332155477032
39038,Humphreys County,MS,NA,96.22641509433963,NA
39046,Madison County,MS,NA,45.911949685534594,NA
39051,Leake County,MS,NA,51.93171608265948,64.92932862190813
39056,Hinds County,MS,NA,NA,74.82332155477032
39110,Madison County,MS,NA,51.21293800539084,NA
39145,Rankin County,MS,NA,NA,84.7173144876325
39208,Rankin County,MS,NA,45.82210242587601,NA
39209,Hinds County,MS,67.85714285714286,NA,NA
39301,Lauderdale County,MS,NA,NA,81.18374558303887
39365,Neshoba County,MS,75.17006802721087,NA,NA
39402,Lamar County,MS,NA,NA,42.13780918727915
39428,Covington County,MS,NA,93.62084456424078,NA
39440,Jones County,MS,NA,48.78706199460917,NA
39466,Pearl River County,MS,NA,43.66576819407008,NA
39501,Harrison County,MS,NA,12.668463611859837,NA
39503,Harrison County,MS,10.034013605442176,NA,NA
39531,Harrison County,MS,NA,NA,86.74911660777384
39560,Harrison County,MS,NA,51.66217430368374,NA
39565,Jackson County,MS,NA,32.25516621743037,NA
39567,Jackson County,MS,NA,76.81940700808624,NA
39601,Lincoln County,MS,NA,NA,77.91519434628975
39773,Clay County,MS,NA,57.95148247978437,NA
63017,St. Louis County,MO,NA,NA,14.487632508833922
63020,Jefferson County,MO,NA,65.76819407008087,71.20141342756183
63021,St. Louis County,MO,NA,34.8607367475292,6.5371024734982335
63026,St. Louis County,MO,NA,37.55615453728661,NA
63034,St. Louis County,MO,NA,NA,43.109540636042404
63042,St. Louis County,MO,NA,NA,58.92226148409894
63051,Jefferson County,MO,NA,58.58041329739443,NA
63077,Franklin County,MO,86.39455782312925,NA,NA
63088,St. Louis County,MO,98.9795918367347,NA,NA
63104,St. Louis city,MO,92.17687074829932,NA,NA
63108,St. Louis city,MO,NA,44.74393530997305,NA
63109,St. Louis city,MO,NA,34.681042228212036,NA
63112,St. Louis city,MO,NA,NA,53.621908127208485
63121,St. Louis County,MO,26.360544217687078,NA,NA
63125,St. Louis County,MO,NA,NA,10.424028268551238
63127,St. Louis County,MO,NA,NA,92.226148409894
63129,St. Louis County,MO,NA,NA,31.272084805653712
63132,St. Louis County,MO,NA,NA,37.63250883392226
63134,St. Louis County,MO,NA,76.63971248876909,NA
63135,St. Louis County,MO,73.63945578231292,NA,NA
63136,St. Louis County,MO,7.8231292517006805,NA,NA
63301,St. Charles County,MO,NA,NA,17.04946996466431
63303,St. Charles County,MO,NA,NA,6.007067137809187
63304,St. Charles County,MO,NA,82.74932614555256,NA
63353,Pike County,MO,NA,NA,81.80212014134275
63366,St. Charles County,MO,NA,NA,51.85512367491166
63367,St. Charles County,MO,NA,NA,95.14134275618375
63368,St. Charles County,MO,NA,17.340521114106018,NA
63376,St. Charles County,MO,NA,12.039532794249777,NA
63379,Lincoln County,MO,26.02040816326531,NA,NA
63383,Warren County,MO,NA,36.298292902066486,36.92579505300353
63401,Marion County,MO,NA,41.86882300089847,63.51590106007067
63645,Madison County,MO,NA,91.19496855345912,43.46289752650176
63664,Washington County,MO,NA,NA,52.561837455830386
63701,Cape Girardeau County,MO,NA,NA,48.76325088339223
63703,Cape Girardeau County,MO,93.02721088435374,NA,NA
63830,Pemiscot County,MO,NA,78.79604672057502,NA
63845,Mississippi County,MO,NA,92.00359389038636,NA
63857,Dunklin County,MO,NA,NA,63.074204946996474
64015,Jackson County,MO,NA,NA,93.19787985865725
64062,Ray County,MO,50.85034013605442,NA,NA
64075,Jackson County,MO,NA,82.03054806828392,NA
64086,Jackson County,MO,NA,NA,44.16961130742049
64093,Johnson County,MO,NA,76.19047619047619,NA
64117,Clay County,MO,NA,68.28391734052111,71.02473498233216
64131,Jackson County,MO,91.83673469387756,NA,NA
64424,Harrison County,MO,NA,89.66756513926325,NA
64429,Clinton County,MO,NA,NA,55.3886925795053
64468,Nodaway County,MO,NA,NA,47.70318021201413
64485,Andrew County,MO,NA,51.39263252470799,NA
64506,Buchanan County,MO,85.37414965986395,NA,NA
64507,Buchanan County,MO,24.149659863945576,NA,NA
64628,Linn County,MO,NA,NA,79.85865724381625
64633,Carroll County,MO,NA,96.7654986522911,69.52296819787986
64701,Cass County,MO,NA,NA,49.91166077738516
64801,Jasper County,MO,NA,NA,41.254416961130744
64804,Jasper County,MO,NA,NA,74.02826855123675
64870,Jasper County,MO,NA,50.58400718778078,NA
65079,Camden County,MO,NA,NA,78.4452296819788
65201,Boone County,MO,NA,79.42497753818508,NA
65202,Boone County,MO,10.54421768707483,86.43306379155436,70.93639575971731
65203,Boone County,MO,69.04761904761905,35.04043126684636,4.5053003533568905
65233,Cooper County,MO,96.93877551020408,54.17789757412399,NA
65251,Callaway County,MO,86.73469387755102,NA,NA
65301,Pettis County,MO,NA,5.660377358490567,NA
65340,Saline County,MO,NA,NA,61.572438162544174
65355,Benton County,MO,NA,15.27403414195867,NA
65401,Phelps County,MO,NA,44.294699011680144,NA
65483,Texas County,MO,NA,80.95238095238095,NA
65536,Laclede County,MO,NA,NA,20.49469964664311
65559,Phelps County,MO,76.87074829931973,NA,61.39575971731449
65560,Dent County,MO,50,NA,NA
65583,Pulaski County,MO,78.91156462585033,NA,NA
65610,Christian County,MO,NA,84.99550763701707,NA
65616,Taney County,MO,63.60544217687075,NA,NA
65686,Stone County,MO,NA,74.303683737646,NA
65689,Texas County,MO,90.81632653061224,NA,88.33922261484098
65775,Howell County,MO,NA,NA,40.37102473498233
65803,Greene County,MO,NA,NA,46.20141342756184
65804,Greene County,MO,NA,NA,11.57243816254417
65807,Greene County,MO,NA,43.03683737646002,NA
65810,Greene County,MO,82.6530612244898,NA,NA
59230,Valley County,MT,NA,NA,65.81272084805654
59270,Richland County,MT,NA,NA,97.1731448763251
59405,Cascade County,MT,NA,NA,47.26148409893993
59601,Lewis and Clark County,MT,NA,NA,89.2226148409894
59714,Gallatin County,MT,60.03401360544217,NA,NA
59715,Gallatin County,MT,NA,NA,16.07773851590106
59808,Missoula County,MT,NA,77.26864330637916,NA
59828,Ravalli County,MT,NA,90.3863432165319,NA
68022,Douglas County,NE,NA,NA,86.30742049469966
68028,Sarpy County,NE,NA,90.74573225516622,NA
68107,Douglas County,NE,NA,75.74123989218329,NA
68124,Douglas County,NE,NA,NA,54.328621908127204
68137,Douglas County,NE,NA,70.70979335130278,NA
68352,Jefferson County,NE,NA,NA,75.61837455830388
68507,Lancaster County,NE,NA,89.4878706199461,NA
68516,Lancaster County,NE,NA,NA,37.36749116607774
68521,Lancaster County,NE,NA,NA,83.65724381625441
68847,Buffalo County,NE,NA,70.35040431266847,NA
68850,Dawson County,NE,NA,74.39353099730458,NA
69001,Red Willow County,NE,NA,85.80413297394429,NA
69101,Lincoln County,NE,20.578231292517007,NA,81.71378091872792
89101,Clark County,NV,NA,55.16621743036837,96.73144876325088
89108,Clark County,NV,18.877551020408163,NA,NA
89115,Clark County,NV,18.197278911564627,NA,NA
89123,Clark County,NV,NA,NA,42.579505300353354
89410,Douglas County,NV,NA,NA,96.20141342756183
89502,Washoe County,NV,NA,75.47169811320755,NA
89509,Washoe County,NV,NA,92.54267744833783,NA
89512,Washoe County,NV,13.77551020408163,NA,NA
03031,Hillsborough County,NH,NA,81.40161725067385,NA
03038,Rockingham County,NH,12.755102040816327,NA,67.13780918727915
03049,Hillsborough County,NH,NA,63.162623539982036,NA
03051,Hillsborough County,NH,NA,14.106019766397123,NA
03054,Hillsborough County,NH,NA,12.93800539083558,NA
03060,Hillsborough County,NH,NA,35.489667565139264,13.869257950530034
03062,Hillsborough County,NH,44.047619047619044,NA,NA
03103,Hillsborough County,NH,NA,33.78256963162624,NA
03220,Belknap County,NH,NA,68.64330637915543,NA
03235,Merrimack County,NH,NA,60.64690026954178,66.96113074204946
03275,Merrimack County,NH,NA,37.46630727762803,NA
03301,Merrimack County,NH,NA,NA,3.180212014134275
03431,Cheshire County,NH,NA,NA,45.583038869257955
03446,Cheshire County,NH,NA,NA,78.26855123674912
03820,Strafford County,NH,NA,NA,9.628975265017669
03833,Rockingham County,NH,NA,30.00898472596586,23.674911660777383
03844,Rockingham County,NH,99.48979591836735,NA,NA
03867,Strafford County,NH,19.897959183673468,NA,3.7985865724381624
03870,Rockingham County,NH,NA,79.60467205750224,NA
03874,Rockingham County,NH,41.83673469387755,NA,41.07773851590106
03885,Rockingham County,NH,NA,NA,89.84098939929329
07002,Hudson County,NJ,NA,NA,8.745583038869258
07008,Middlesex County,NJ,NA,NA,94.52296819787986
07024,Bergen County,NJ,NA,34.23180592991914,96.46643109540636
07033,Union County,NJ,NA,95.05840071877807,NA
07036,Union County,NJ,NA,NA,24.823321554770317
07055,Passaic County,NJ,NA,2.4258760107816713,NA
07069,Somerset County,NJ,NA,NA,97.87985865724382
07087,Hudson County,NJ,NA,3.9532794249775383,NA
07094,Hudson County,NJ,NA,NA,50.53003533568905
07103,Essex County,NJ,1.0204081632653061,10.062893081761008,NA
07107,Essex County,NJ,NA,42.94699011680144,NA
07108,Essex County,NJ,NA,NA,57.86219081272085
07112,Essex County,NJ,NA,29.649595687331537,NA
07201,Union County,NJ,7.993197278911565,NA,NA
07205,Union County,NJ,91.66666666666666,NA,NA
07206,Union County,NJ,NA,29.559748427672954,NA
07304,Hudson County,NJ,NA,NA,31.713780918727913
07307,Hudson County,NJ,NA,NA,26.236749116607772
07405,Morris County,NJ,NA,NA,53.091872791519435
07410,Bergen County,NJ,43.53741496598639,NA,NA
07430,Bergen County,NJ,NA,NA,38.78091872791519
07470,Passaic County,NJ,NA,NA,4.593639575971731
07652,Bergen County,NJ,NA,NA,35.24734982332156
07666,Bergen County,NJ,NA,NA,69.69964664310953
07726,Monmouth County,NJ,NA,21.20395327942498,NA
07730,Monmouth County,NJ,NA,NA,57.155477031802114
07840,Warren County,NJ,NA,NA,90.45936395759718
07940,Morris County,NJ,NA,63.52201257861635,NA
07945,Morris County,NJ,NA,NA,87.54416961130742
08037,Atlantic County,NJ,NA,16.172506738544474,47.349823321554766
08050,Ocean County,NJ,NA,26.325247079964058,NA
08052,Burlington County,NJ,NA,34.77088948787062,46.28975265017668
08055,Burlington County,NJ,NA,NA,84.54063604240282
08088,Burlington County,NJ,NA,NA,69.78798586572438
08096,Gloucester County,NJ,NA,5.929919137466308,NA
08102,Camden County,NJ,NA,53.00988319856245,NA
08204,Cape May County,NJ,NA,17.69991015274034,82.24381625441696
08210,Cape May County,NJ,NA,36.92722371967655,NA
08302,Cumberland County,NJ,NA,52.920035938903865,NA
08332,Cumberland County,NJ,NA,11.320754716981133,NA
08401,Atlantic County,NJ,NA,2.336028751123091,NA
08402,Atlantic County,NJ,NA,77.26864330637916,NA
08518,Burlington County,NJ,NA,91.55435759209344,NA
08530,Hunterdon County,NJ,NA,95.77717879604673,NA
08535,Monmouth County,NJ,NA,96.49595687331536,NA
08536,Middlesex County,NJ,NA,87.6010781671159,NA
08540,Mercer County,NJ,NA,62.264150943396224,NA
08559,Hunterdon County,NJ,NA,91.55435759209344,NA
08628,Mercer County,NJ,NA,72.32704402515722,NA
08701,Ocean County,NJ,NA,NA,1.2367491166077738
08721,Ocean County,NJ,NA,44.923629829290206,NA
08724,Ocean County,NJ,NA,41.77897574123989,NA
08734,Ocean County,NJ,NA,84.09703504043127,NA
08753,Ocean County,NJ,NA,3.234501347708895,8.303886925795052
08755,Ocean County,NJ,NA,NA,7.6855123674911665
08759,Ocean County,NJ,33.16326530612245,39.62264150943396,5.565371024734982
08816,Middlesex County,NJ,NA,20.575022461814914,NA
08820,Middlesex County,NJ,NA,NA,15.106007067137808
08831,Middlesex County,NJ,NA,NA,0.7950530035335688
08857,Middlesex County,NJ,NA,10.332434860736747,NA
08859,Middlesex County,NJ,44.72789115646258,NA,NA
87106,Bernalillo County,NM,18.537414965986397,NA,NA
87108,Bernalillo County,NM,NA,24.16891284815813,NA
87109,Bernalillo County,NM,NA,9.883198562443846,NA
87110,Bernalillo County,NM,NA,NA,63.869257950530034
87114,Bernalillo County,NM,NA,NA,21.46643109540636
87124,Sandoval County,NM,NA,NA,8.480565371024735
87301,McKinley County,NM,NA,NA,64.57597173144876
87323,McKinley County,NM,NA,NA,98.32155477031802
87505,Santa Fe County,NM,NA,4.761904761904762,NA
87507,Santa Fe County,NM,28.2312925170068,NA,NA
88101,Curry County,NM,NA,4.8517520215633425,NA
88240,Lea County,NM,NA,NA,21.996466431095406
88260,Lea County,NM,NA,33.33333333333333,NA
88310,Otero County,NM,NA,NA,57.773851590106005
10009,New York County,NY,8.843537414965986,3.324348607367475,NA
10018,New York County,NY,NA,NA,83.92226148409894
10022,New York County,NY,NA,71.6082659478886,NA
10025,New York County,NY,NA,0.8984725965858041,1.325088339222615
10026,New York County,NY,NA,NA,75.79505300353357
10030,New York County,NY,NA,71.78796046720575,NA
10031,New York County,NY,NA,9.793351302785265,NA
10040,New York County,NY,NA,14.016172506738545,NA
10301,Richmond County,NY,13.435374149659864,NA,NA
10304,Richmond County,NY,NA,49.14645103324349,NA
10306,Richmond County,NY,NA,11.05121293800539,NA
10452,Bronx County,NY,NA,NA,34.98233215547703
10453,Bronx County,NY,14.285714285714285,5.480682839173405,NA
10456,Bronx County,NY,NA,16.9811320754717,1.8551236749116609
10457,Bronx County,NY,NA,0.3593890386343217,NA
10458,Bronx County,NY,NA,NA,5.212014134275619
10459,Bronx County,NY,NA,NA,19.434628975265017
10463,Bronx County,NY,NA,2.964959568733154,2.0318021201413425
10468,Bronx County,NY,NA,NA,46.908127208480565
10469,Bronx County,NY,3.231292517006803,28.30188679245283,NA
10470,Bronx County,NY,NA,NA,62.985865724381625
10472,Bronx County,NY,NA,NA,11.837455830388691
10475,Bronx County,NY,NA,NA,5.035335689045936
10509,Putnam County,NY,NA,NA,83.03886925795054
10532,Westchester County,NY,NA,NA,99.02826855123675
10550,Westchester County,NY,NA,18.418688230008982,NA
10566,Westchester County,NY,NA,61.81491464510332,NA
10589,Westchester County,NY,NA,NA,39.48763250883392
10606,Westchester County,NY,80.27210884353741,NA,NA
10918,Orange County,NY,NA,NA,98.67491166077738
10924,Orange County,NY,NA,NA,54.85865724381625
11103,Queens County,NY,NA,NA,92.31448763250883
11204,Kings County,NY,NA,NA,5.6537102473498235
11205,Kings County,NY,NA,NA,60.15901060070671
11206,Kings County,NY,NA,NA,84.2756183745583
11208,Kings County,NY,NA,39.26325247079964,43.197879858657245
11211,Kings County,NY,NA,84.36657681940702,NA
11212,Kings County,NY,NA,NA,26.148409893992934
11213,Kings County,NY,NA,24.61814914645103,54.50530035335689
11214,Kings County,NY,NA,NA,28.180212014134277
11215,Kings County,NY,NA,25.96585804132974,NA
11220,Kings County,NY,3.571428571428571,3.1446540880503147,NA
11221,Kings County,NY,NA,2.605570530098832,4.240282685512367
11229,Kings County,NY,24.65986394557823,NA,2.1201413427561837
11230,Kings County,NY,NA,90.20664869721473,NA
11231,Kings County,NY,NA,90.02695417789758,NA
11233,Kings County,NY,NA,NA,7.420494699646643
11234,Kings County,NY,NA,7.726864330637915,NA
11235,Kings County,NY,NA,NA,8.92226148409894
11236,Kings County,NY,NA,30.90745732255166,5.918727915194346
11355,Queens County,NY,NA,12.668463611859837,NA
11357,Queens County,NY,NA,38.095238095238095,NA
11358,Queens County,NY,NA,48.96675651392633,NA
11360,Queens County,NY,NA,72.4168912848158,NA
11372,Queens County,NY,NA,NA,7.332155477031802
11373,Queens County,NY,NA,NA,46.73144876325088
11375,Queens County,NY,NA,NA,5.477031802120141
11385,Queens County,NY,NA,NA,59.36395759717315
11427,Queens County,NY,NA,NA,54.59363957597173
11434,Queens County,NY,NA,NA,43.551236749116605
11550,Nassau County,NY,NA,12.129380053908356,NA
11554,Nassau County,NY,48.46938775510204,NA,NA
11566,Nassau County,NY,NA,NA,36.83745583038869
11590,Nassau County,NY,NA,25.336927223719673,18.021201413427562
11691,Queens County,NY,NA,NA,15.01766784452297
11704,Suffolk County,NY,NA,NA,21.20141342756184
11706,Suffolk County,NY,48.80952380952381,NA,NA
11714,Nassau County,NY,NA,65.5884995507637,NA
11715,Suffolk County,NY,NA,99.82030548068283,NA
11717,Suffolk County,NY,15.816326530612246,NA,NA
11746,Suffolk County,NY,NA,NA,50.70671378091873
11751,Suffolk County,NY,NA,NA,71.20141342756183
11779,Suffolk County,NY,NA,NA,29.50530035335689
11784,Suffolk County,NY,NA,NA,71.5547703180212
11787,Suffolk County,NY,NA,98.02336028751122,NA
11788,Suffolk County,NY,NA,NA,82.59717314487632
11795,Suffolk County,NY,NA,NA,53.97526501766784
11967,Suffolk County,NY,NA,NA,96.37809187279152
12019,Saratoga County,NY,NA,50.85354896675651,NA
12065,Saratoga County,NY,NA,12.398921832884097,NA
12078,Fulton County,NY,36.224489795918366,NA,52.473498233215544
12110,Albany County,NY,NA,NA,37.36749116607774
12134,Fulton County,NY,NA,NA,98.40989399293287
12159,Albany County,NY,NA,NA,60.86572438162544
12203,Albany County,NY,NA,NA,28.26855123674912
12206,Albany County,NY,46.59863945578231,NA,NA
12208,Albany County,NY,NA,NA,85.51236749116607
12401,Ulster County,NY,NA,NA,73.32155477031802
12414,Greene County,NY,NA,NA,98.23321554770318
12446,Ulster County,NY,NA,85.2650494159928,NA
12508,Dutchess County,NY,NA,NA,60.42402826855123
12528,Ulster County,NY,NA,98.29290206648697,NA
12549,Orange County,NY,NA,94.33962264150944,NA
12550,Orange County,NY,NA,NA,43.90459363957597
12590,Dutchess County,NY,NA,NA,39.13427561837456
12601,Dutchess County,NY,25.510204081632654,NA,NA
12701,Sullivan County,NY,NA,NA,99.20494699646643
12790,Sullivan County,NY,NA,83.64779874213836,NA
12817,Warren County,NY,NA,97.66397124887692,NA
12831,Saratoga County,NY,NA,41.509433962264154,NA
12839,Washington County,NY,NA,39.532794249775385,NA
12883,Essex County,NY,NA,67.11590296495957,65.54770318021201
12901,Clinton County,NY,NA,3.6837376460017968,NA
12912,Clinton County,NY,88.60544217687075,NA,NA
12962,Clinton County,NY,57.6530612244898,NA,NA
13027,Onondaga County,NY,NA,11.500449236298294,65.63604240282686
13030,Madison County,NY,NA,NA,89.92932862190813
13031,Onondaga County,NY,39.285714285714285,48.33782569631626,55.830388692579504
13045,Cortland County,NY,4.591836734693878,6.55884995507637,NA
13074,Oswego County,NY,NA,84.81581311769992,NA
13090,Onondaga County,NY,NA,22.461814914645103,NA
13135,Oswego County,NY,NA,76.72955974842768,NA
13165,Seneca County,NY,NA,15.813117699910153,NA
13203,Onondaga County,NY,NA,NA,59.717314487632514
13212,Onondaga County,NY,NA,NA,48.49823321554771
13219,Onondaga County,NY,49.48979591836735,40.700808625336926,83.3922261484099
13309,Oneida County,NY,NA,68.19407008086253,NA
13340,Herkimer County,NY,NA,60.64690026954178,NA
13421,Madison County,NY,21.598639455782312,NA,NA
13440,Oneida County,NY,NA,97.57412398921834,NA
13617,St. Lawrence County,NY,NA,92.36298292902066,NA
13760,Broome County,NY,0.8503401360544218,4.31266846361186,NA
13778,Chenango County,NY,NA,40.88050314465409,NA
13790,Broome County,NY,NA,NA,38.515901060070675
13827,Tioga County,NY,NA,27.942497753818508,NA
13830,Chenango County,NY,NA,86.25336927223721,NA
13833,Broome County,NY,NA,94.5193171608266,NA
13849,Otsego County,NY,NA,84.72596585804133,NA
13850,Broome County,NY,NA,NA,19.169611307420496
13901,Broome County,NY,34.69387755102041,NA,10.070671378091872
13905,Broome County,NY,NA,NA,63.69257950530035
14031,Erie County,NY,NA,65.31895777178795,NA
14043,Erie County,NY,28.061224489795915,NA,NA
14048,Chautauqua County,NY,NA,79.78436657681941,NA
14072,Erie County,NY,NA,29.20035938903863,NA
14075,Erie County,NY,NA,NA,8.568904593639576
14120,Niagara County,NY,NA,NA,49.64664310954063
14132,Niagara County,NY,58.50340136054422,NA,NA
14211,Erie County,NY,NA,10.422282120395328,NA
14219,Erie County,NY,NA,44.56424079065589,NA
14220,Erie County,NY,NA,21.024258760107816,NA
14226,Erie County,NY,NA,31.176999101527404,NA
14227,Erie County,NY,NA,70.1707097933513,NA
14304,Niagara County,NY,NA,36.74752920035939,NA
14424,Ontario County,NY,2.5510204081632653,NA,40.98939929328622
14433,Wayne County,NY,51.87074829931972,NA,NA
14489,Wayne County,NY,NA,25.516621743036836,NA
14502,Wayne County,NY,NA,40.61096136567834,NA
14532,Ontario County,NY,NA,67.02605570530099,NA
14580,Monroe County,NY,0.5102040816326531,NA,NA
14609,Monroe County,NY,0.3401360544217687,0.7187780772686434,14.840989399293287
14617,Monroe County,NY,7.142857142857142,NA,NA
14619,Monroe County,NY,NA,33.42318059299191,NA
14623,Monroe County,NY,NA,NA,64.31095406360424
14624,Monroe County,NY,NA,1.4375561545372868,NA
14845,Chemung County,NY,NA,22.10242587601078,NA
14886,Tompkins County,NY,NA,55.884995507637015,NA
14892,Tioga County,NY,NA,46.720575022461816,NA
14895,Allegany County,NY,NA,34.50134770889488,NA
14904,Chemung County,NY,NA,34.32165318957772,NA
27023,Forsyth County,NC,NA,NA,28.533568904593636
27243,Orange County,NC,NA,99.5507637017071,NA
27244,Alamance County,NC,95.23809523809523,NA,NA
27263,Randolph County,NC,NA,NA,58.215547703180214
27278,Orange County,NC,19.217687074829932,NA,NA
27288,Rockingham County,NC,NA,NA,31.890459363957596
27292,Davidson County,NC,NA,8.176100628930817,NA
27295,Davidson County,NC,34.01360544217687,NA,NA
27299,Davidson County,NC,83.33333333333334,NA,NA
27316,Randolph County,NC,NA,NA,68.1095406360424
27317,Randolph County,NC,76.19047619047619,NA,NA
27377,Guilford County,NC,NA,61.54537286612758,NA
27406,Guilford County,NC,NA,NA,44.78798586572438
27501,Harnett County,NC,NA,68.91284815813118,NA
27513,Wake County,NC,NA,45.103324348607366,NA
27529,Wake County,NC,21.93877551020408,NA,14.13427561837456
27534,Wayne County,NC,NA,NA,22.173144876325086
27536,Vance County,NC,NA,NA,15.81272084805654
27545,Wake County,NC,NA,40.43126684636118,NA
27571,Wake County,NC,NA,97.75381850853549,NA
27587,Wake County,NC,NA,NA,12.897526501766784
27609,Wake County,NC,NA,27.044025157232703,NA
27617,Wake County,NC,79.76190476190477,NA,NA
27704,Durham County,NC,11.054421768707483,NA,NA
27712,Durham County,NC,NA,64.77987421383648,NA
27809,Nash County,NC,NA,NA,99.46996466431095
27834,Pitt County,NC,7.482993197278912,NA,38.60424028268552
27870,Halifax County,NC,NA,NA,64.13427561837456
27909,Pasquotank County,NC,NA,8.53548966756514,NA
28012,Gaston County,NC,56.4625850340136,NA,NA
28018,Rutherford County,NC,NA,93.35130278526505,NA
28025,Cabarrus County,NC,NA,9.164420485175203,NA
28031,Mecklenburg County,NC,NA,35.57951482479784,NA
28054,Gaston County,NC,NA,NA,24.381625441696116
28075,Cabarrus County,NC,85.20408163265306,NA,NA
28081,Cabarrus County,NC,48.12925170068027,NA,NA
28086,Cleveland County,NC,NA,NA,38.07420494699647
28117,Iredell County,NC,NA,NA,42.226148409893995
28144,Rowan County,NC,NA,82.30008984725966,NA
28146,Rowan County,NC,NA,81.04222821203953,76.59010600706713
28215,Mecklenburg County,NC,NA,13.656783468104223,NA
28216,Mecklenburg County,NC,NA,NA,51.32508833922261
28227,Mecklenburg County,NC,NA,11.680143755615454,85.86572438162544
28269,Mecklenburg County,NC,NA,21.47349505840072,NA
28278,Mecklenburg County,NC,NA,NA,93.81625441696113
28304,Cumberland County,NC,NA,98.83198562443846,NA
28306,Bladen County,NC,59.183673469387756,NA,30.918727915194346
28315,Moore County,NC,70.578231292517,NA,NA
28328,Sampson County,NC,NA,17.879604672057503,NA
28348,Cumberland County,NC,NA,64.60017969451933,NA
28358,Robeson County,NC,14.1156462585034,NA,NA
28384,Bladen County,NC,54.93197278911565,NA,NA
28457,Pender County,NC,68.36734693877551,NA,NA
28462,Brunswick County,NC,NA,NA,70.75971731448763
28469,Brunswick County,NC,NA,NA,72.70318021201413
28472,Columbus County,NC,NA,NA,36.57243816254417
28540,Onslow County,NC,52.721088435374156,NA,NA
28562,Craven County,NC,NA,17.07097933513028,NA
28602,Catawba County,NC,NA,95.50763701707098,NA
28612,Burke County,NC,NA,75.83108715184187,NA
28638,Caldwell County,NC,NA,56.24438454627134,NA
28645,Caldwell County,NC,4.2517006802721085,5.300988319856245,12.190812720848058
28655,Burke County,NC,89.96598639455783,NA,NA
28713,Swain County,NC,NA,78.52650494159928,NA
28721,Haywood County,NC,69.72789115646259,NA,NA
28739,Henderson County,NC,NA,NA,62.544169611307424
28752,McDowell County,NC,NA,NA,52.82685512367491
28778,Buncombe County,NC,NA,83.82749326145552,NA
28786,Haywood County,NC,NA,45.01347708894879,16.784452296819786
28804,Buncombe County,NC,78.57142857142857,NA,NA
58078,Cass County,ND,NA,60.01796945193172,NA
58701,Ward County,ND,NA,64.240790655885,0.88339222614841
43026,Franklin County,OH,46.93877551020408,15.633423180592992,NA
43050,Knox County,OH,26.700680272108844,NA,NA
43068,Franklin County,OH,9.35374149659864,NA,NA
43085,Franklin County,OH,NA,NA,41.254416961130744
43105,Fairfield County,OH,77.38095238095238,NA,64.39929328621908
43110,Franklin County,OH,NA,6.918238993710692,NA
43113,Pickaway County,OH,NA,NA,60.33568904593639
43130,Fairfield County,OH,NA,14.195867026055705,NA
43160,Fayette County,OH,56.292517006802726,48.06828391734052,NA
43204,Franklin County,OH,NA,NA,32.773851590106005
43207,Franklin County,OH,11.394557823129253,59.928122192273136,NA
43211,Franklin County,OH,10.374149659863946,NA,NA
43219,Franklin County,OH,40.64625850340136,NA,NA
43230,Franklin County,OH,NA,NA,17.6678445229682
43232,Franklin County,OH,17.857142857142858,NA,NA
43302,Marion County,OH,26.87074829931973,1.7969451931716083,NA
43326,Hardin County,OH,NA,80.14375561545373,NA
43338,Morrow County,OH,NA,50.673854447439346,NA
43512,Defiance County,OH,NA,3.5040431266846364,NA
43515,Fulton County,OH,61.05442176870748,NA,NA
43526,Defiance County,OH,92.51700680272108,NA,53.88692579505301
43605,Lucas County,OH,NA,NA,45.14134275618375
43607,Lucas County,OH,6.462585034013606,NA,NA
43612,Lucas County,OH,NA,72.95597484276729,38.25088339222615
43613,Lucas County,OH,73.9795918367347,NA,NA
43614,Lucas County,OH,10.204081632653061,NA,NA
43623,Lucas County,OH,NA,20.485175202156334,NA
43713,Belmont County,OH,NA,87.87061994609164,NA
43725,Guernsey County,OH,NA,NA,18.81625441696113
43764,Perry County,OH,92.3469387755102,60.91644204851752,NA
43830,Muskingum County,OH,NA,89.30817610062893,NA
43906,Belmont County,OH,NA,38.72416891284816,NA
43964,Jefferson County,OH,22.95918367346939,NA,NA
44001,Lorain County,OH,NA,73.58490566037736,NA
44003,Ashtabula County,OH,NA,85.98382749326146,NA
44012,Lorain County,OH,NA,NA,28.26855123674912
44024,Geauga County,OH,NA,9.433962264150944,NA
44035,Lorain County,OH,NA,1.527403414195867,0.08833922261484099
44039,Lorain County,OH,NA,2.0664869721473496,NA
44044,Lorain County,OH,NA,NA,45.936395759717314
44052,Lorain County,OH,NA,13.20754716981132,NA
44055,Lorain County,OH,60.544217687074834,NA,NA
44057,Lake County,OH,NA,NA,10.954063604240282
44060,Lake County,OH,NA,0.5390835579514826,NA
44070,Cuyahoga County,OH,NA,NA,21.37809187279152
44092,Lake County,OH,38.945578231292515,NA,7.950530035335689
44094,Lake County,OH,NA,3.054806828391734,NA
44102,Cuyahoga County,OH,3.741496598639456,NA,NA
44105,Cuyahoga County,OH,NA,NA,64.75265017667844
44107,Cuyahoga County,OH,1.530612244897959,2.15633423180593,NA
44109,Cuyahoga County,OH,0.17006802721088435,NA,NA
44111,Cuyahoga County,OH,NA,14.555256064690028,NA
44112,Cuyahoga County,OH,NA,NA,80.8303886925795
44120,Cuyahoga County,OH,NA,76.54986522911051,NA
44122,Cuyahoga County,OH,NA,NA,4.151943462897526
44123,Cuyahoga County,OH,NA,NA,29.858657243816257
44125,Cuyahoga County,OH,NA,NA,29.50530035335689
44127,Cuyahoga County,OH,56.97278911564626,NA,NA
44134,Cuyahoga County,OH,NA,13.387241689128482,NA
44135,Cuyahoga County,OH,2.891156462585034,49.41599281221923,66.87279151943463
44136,Cuyahoga County,OH,NA,NA,57.243816254416956
44137,Cuyahoga County,OH,NA,6.46900269541779,NA
44138,Cuyahoga County,OH,NA,18.508535489667565,NA
44145,Cuyahoga County,OH,NA,NA,2.7385159010600706
44147,Cuyahoga County,OH,NA,23.450134770889488,NA
44216,Summit County,OH,NA,50.85354896675651,NA
44224,Summit County,OH,18.70748299319728,NA,NA
44231,Portage County,OH,NA,NA,68.55123674911661
44256,Medina County,OH,NA,0.17969451931716085,NA
44310,Summit County,OH,NA,49.32614555256065,NA
44313,Summit County,OH,NA,NA,11.219081272084805
44410,Trumbull County,OH,NA,NA,83.21554770318022
44425,Trumbull County,OH,NA,21.114106019766396,NA
44446,Trumbull County,OH,NA,43.306379155435756,NA
44481,Trumbull County,OH,24.31972789115646,NA,93.28621908127208
44484,Trumbull County,OH,55.27210884353742,8.44564240790656,NA
44485,Trumbull County,OH,NA,NA,28.71024734982332
44505,Mahoning County,OH,NA,NA,27.65017667844523
44507,Mahoning County,OH,45.57823129251701,NA,NA
44515,Mahoning County,OH,NA,35.39982030548068,NA
44601,Stark County,OH,57.14285714285714,NA,NA
44614,Stark County,OH,NA,NA,72.34982332155478
44644,Carroll County,OH,NA,80.7726864330638,NA
44685,Summit County,OH,NA,77.17879604672058,20.229681978798585
44688,Stark County,OH,NA,99.73045822102425,NA
44691,Wayne County,OH,NA,4.0431266846361185,NA
44706,Stark County,OH,NA,89.57771787960466,NA
44708,Stark County,OH,NA,NA,13.957597173144876
44709,Stark County,OH,NA,69.7214734950584,NA
44805,Ashland County,OH,NA,3.7735849056603774,NA
44811,Sandusky County,OH,NA,NA,61.130742049469966
44827,Crawford County,OH,NA,66.30727762803235,NA
44851,Huron County,OH,NA,98.92183288409704,NA
44857,Huron County,OH,NA,70.44025157232704,NA
44903,Richland County,OH,NA,13.926325247079966,NA
45013,Butler County,OH,NA,NA,3.091872791519435
45036,Warren County,OH,65.1360544217687,NA,31.537102473498237
45040,Warren County,OH,27.2108843537415,61.63522012578616,NA
45042,Butler County,OH,17.006802721088434,NA,NA
45044,Butler County,OH,5.782312925170068,NA,NA
45102,Clermont County,OH,31.97278911564626,NA,NA
45122,Clermont County,OH,NA,72.86612758310872,NA
45150,Clermont County,OH,63.26530612244898,NA,NA
45215,Hamilton County,OH,22.448979591836736,NA,NA
45227,Hamilton County,OH,NA,NA,45.84805653710247
45231,Hamilton County,OH,NA,13.566936208445643,NA
45236,Hamilton County,OH,NA,NA,68.81625441696113
45237,Hamilton County,OH,NA,NA,39.92932862190813
45240,Hamilton County,OH,NA,37.01707097933513,NA
45244,Hamilton County,OH,NA,93.26145552560648,NA
45246,Hamilton County,OH,NA,NA,81.00706713780919
45255,Hamilton County,OH,NA,NA,35.600706713780916
45320,Preble County,OH,NA,30.63791554357592,NA
45322,Montgomery County,OH,NA,39.71248876909254,NA
45331,Darke County,OH,53.40136054421769,NA,NA
45338,Preble County,OH,NA,83.64779874213836,NA
45342,Montgomery County,OH,NA,64.6900269541779,NA
45345,Montgomery County,OH,NA,NA,70.14134275618375
45356,Miami County,OH,NA,8.086253369272237,19.78798586572438
45365,Shelby County,OH,54.421768707483,NA,NA
45371,Miami County,OH,NA,47.43935309973046,NA
45377,Montgomery County,OH,NA,NA,48.23321554770318
45403,Montgomery County,OH,NA,69.00269541778977,NA
45405,Montgomery County,OH,21.08843537414966,NA,NA
45417,Montgomery County,OH,NA,NA,21.73144876325088
45420,Montgomery County,OH,23.97959183673469,65.22911051212938,NA
45424,Montgomery County,OH,NA,NA,59.01060070671378
45426,Montgomery County,OH,NA,NA,42.75618374558304
45429,Montgomery County,OH,69.38775510204081,NA,NA
45434,Greene County,OH,NA,82.929020664869725,NA
45601,Ross County,OH,70.23809523809523,NA,NA
45612,Ross County,OH,NA,73.31536388140162,NA
45640,Jackson County,OH,NA,58.760107816711596,9.80565371024735
45648,Scioto County,OH,50.34013605442177,NA,NA
45661,Pike County,OH,41.66666666666667,NA,NA
45669,Lawrence County,OH,NA,NA,91.78445229681978
45692,Jackson County,OH,NA,60.1078167115903,NA
45693,Adams County,OH,42.68707482993197,NA,NA
45694,Scioto County,OH,NA,16.711590296495956,NA
45701,Athens County,OH,94.04761904761905,NA,NA
45879,Paulding County,OH,NA,NA,72.6148409893993
45891,Van Wert County,OH,NA,19.67654986522911,NA
45895,Auglaize County,OH,NA,NA,30.123674911660775
73013,Oklahoma County,OK,NA,NA,8.392226148409893
73026,Cleveland County,OK,NA,NA,70.14134275618375
73034,Oklahoma County,OK,55.44217687074829,NA,NA
73045,Oklahoma County,OK,NA,NA,56.360424028268554
73068,Cleveland County,OK,NA,NA,99.38162544169612
73096,Custer County,OK,NA,69.45193171608265,NA
73099,Canadian County,OK,NA,NA,85.68904593639576
73108,Oklahoma County,OK,NA,64.33063791554358,NA
73111,Oklahoma County,OK,NA,NA,50.79505300353356
73120,Oklahoma County,OK,NA,NA,11.130742049469964
73122,Oklahoma County,OK,NA,85.62443845462714,NA
73127,Oklahoma County,OK,44.21768707482993,NA,56.62544169611308
73132,Oklahoma County,OK,NA,NA,95.22968197879858
73150,Oklahoma County,OK,NA,70.97933513027853,NA
73165,Cleveland County,OK,NA,97.03504043126685,NA
73505,Comanche County,OK,NA,NA,20.053003533568905
73533,Stephens County,OK,65.81632653061224,8.62533692722372,12.985865724381625
73701,Garfield County,OK,NA,26.774483378256964,NA
74003,Osage County,OK,NA,67.65498652291106,NA
74011,Tulsa County,OK,NA,37.82569631626235,NA
74012,Tulsa County,OK,NA,NA,7.508833922261485
74014,Wagoner County,OK,31.63265306122449,NA,NA
74023,Payne County,OK,NA,75.2021563342318,NA
74055,Tulsa County,OK,NA,NA,27.12014134275618
74056,Osage County,OK,NA,86.97214734950583,NA
74075,Payne County,OK,NA,NA,39.6643109540636
74106,Tulsa County,OK,32.82312925170068,NA,NA
74112,Tulsa County,OK,86.56462585034014,NA,NA
74115,Tulsa County,OK,NA,NA,55.47703180212014
74126,Tulsa County,OK,NA,77.088948787062,NA
74132,Tulsa County,OK,NA,81.6711590296496,NA
74301,Craig County,OK,54.761904761904766,NA,NA
74467,Wagoner County,OK,NA,48.697214734950585,NA
74501,Pittsburg County,OK,NA,69.90116801437556,NA
74701,Bryan County,OK,79.76190476190477,NA,NA
74728,McCurtain County,OK,73.29931972789116,NA,68.02120141342756
74743,Choctaw County,OK,NA,NA,61.48409893992933
74804,Pottawatomie County,OK,NA,NA,75.53003533568905
74820,Pontotoc County,OK,8.673469387755102,55.25606469002695,NA
74868,Seminole County,OK,NA,NA,60.68904593639576
74960,Adair County,OK,23.46938775510204,NA,NA
74965,Adair County,OK,84.52380952380952,NA,NA
97007,Washington County,OR,NA,21.83288409703504,NA
97008,Washington County,OR,NA,NA,29.063604240282686
97023,Clackamas County,OR,98.46938775510205,NA,NA
97058,Wasco County,OR,36.734693877551024,NA,NA
97080,Multnomah County,OR,NA,NA,28.4452296819788
97123,Washington County,OR,17.687074829931973,NA,NA
97146,Clatsop County,OR,NA,NA,77.47349823321554
97206,Multnomah County,OR,NA,NA,59.805653710247356
97209,Multnomah County,OR,NA,79.15543575920935,NA
97214,Multnomah County,OR,NA,NA,98.0565371024735
97220,Multnomah County,OR,30.782312925170068,NA,34.54063604240283
97222,Clackamas County,OR,NA,58.04132973944295,NA
97232,Multnomah County,OR,NA,NA,65.90106007067138
97317,Marion County,OR,NA,NA,85.24734982332156
97355,Linn County,OR,11.224489795918368,NA,NA
97402,Lane County,OR,NA,85.53459119496856,NA
97501,Jackson County,OR,NA,NA,22.261484098939928
97527,Josephine County,OR,NA,45.64240790655885,16.96113074204947
97540,Jackson County,OR,NA,NA,69.87632508833921
97702,Deschutes County,OR,NA,78.16711590296495,NA
97754,Crook County,OR,NA,67.38544474393531,NA
97801,Umatilla County,OR,NA,NA,60.7773851590106
15005,Beaver County,PA,80.10204081632652,NA,NA
15037,Allegheny County,PA,NA,59.38903863432166,NA
15044,Allegheny County,PA,NA,NA,16.872791519434628
15066,Beaver County,PA,94.72789115646259,NA,NA
15068,Westmoreland County,PA,NA,6.738544474393531,NA
15108,Allegheny County,PA,NA,NA,51.41342756183745
15116,Allegheny County,PA,82.48299319727892,NA,NA
15120,Allegheny County,PA,69.5578231292517,NA,NA
15122,Allegheny County,PA,NA,47.52920035938904,14.752650176678445
15126,Allegheny County,PA,88.77551020408163,NA,NA
15132,Allegheny County,PA,NA,19.40700808625337,NA
15136,Allegheny County,PA,NA,30.18867924528302,NA
15202,Allegheny County,PA,NA,66.12758310871519,NA
15205,Allegheny County,PA,NA,46.63072776280324,49.20494699646643
15206,Allegheny County,PA,NA,NA,12.632508833922262
15212,Allegheny County,PA,50.17006802721088,32.34501347708895,NA
15220,Allegheny County,PA,NA,84.09703504043127,44.081272084805654
15227,Allegheny County,PA,NA,17.25067385444744,NA
15234,Allegheny County,PA,NA,84.00718778077268,NA
15237,Allegheny County,PA,NA,NA,3.2685512367491167
15301,Washington County,PA,6.972789115646258,NA,NA
15317,Washington County,PA,NA,6.289308176100629,NA
15401,Fayette County,PA,NA,24.079065588499553,NA
15478,Fayette County,PA,NA,NA,79.41696113074205
15530,Somerset County,PA,NA,NA,94.08127208480566
15668,Westmoreland County,PA,NA,NA,26.413427561837455
15714,Cambria County,PA,91.15646258503402,NA,NA
15825,Jefferson County,PA,NA,NA,70.49469964664311
15902,Cambria County,PA,NA,45.55256064690027,NA
15904,Cambria County,PA,NA,29.290206648697215,46.37809187279152
15906,Cambria County,PA,NA,NA,69.25795053003534
15931,Cambria County,PA,NA,51.57232704402516,NA
15963,Somerset County,PA,NA,47.16981132075472,NA
16101,Lawrence County,PA,63.94557823129252,28.03234501347709,NA
16105,Lawrence County,PA,NA,24.258760107816713,NA
16125,Mercer County,PA,NA,NA,8.03886925795053
16127,Mercer County,PA,NA,46.81042228212039,75.97173144876325
16137,Mercer County,PA,64.1156462585034,NA,NA
16142,Lawrence County,PA,NA,NA,56.8904593639576
16146,Mercer County,PA,NA,34.59119496855346,NA
16229,Armstrong County,PA,NA,NA,97.79151943462897
16323,Venango County,PA,45.74829931972789,28.57142857142857,NA
16354,Crawford County,PA,NA,57.053009883198555,NA
16426,Erie County,PA,NA,98.38274932614556,NA
16505,Erie County,PA,NA,NA,48.851590106007066
16506,Erie County,PA,NA,NA,33.215547703180206
16508,Erie County,PA,NA,NA,64.48763250883393
16601,Blair County,PA,9.183673469387756,NA,NA
16652,Huntingdon County,PA,NA,NA,74.64664310954063
16701,McKean County,PA,14.965986394557824,NA,NA
16830,Clearfield County,PA,NA,NA,12.809187279151942
16933,Tioga County,PA,NA,NA,97.70318021201413
17011,Cumberland County,PA,23.639455782312925,NA,NA
17019,York County,PA,58.16326530612245,NA,NA
17046,Lebanon County,PA,NA,19.137466307277627,NA
17057,Dauphin County,PA,NA,11.590296495956872,87.36749116607774
17070,Cumberland County,PA,NA,85.89398023360287,NA
17074,Perry County,PA,NA,NA,98.58657243816255
17103,Dauphin County,PA,NA,60.37735849056604,NA
17109,Dauphin County,PA,NA,42.857142857142854,NA
17111,Dauphin County,PA,NA,27.22371967654987,NA
17222,Franklin County,PA,NA,44.11500449236298,NA
17225,Franklin County,PA,50.34013605442177,NA,NA
17236,Franklin County,PA,NA,NA,88.16254416961131
17241,Cumberland County,PA,NA,72.68643306379155,NA
17315,York County,PA,NA,9.703504043126685,NA
17319,York County,PA,61.39455782312925,NA,NA
17362,York County,PA,NA,NA,39.57597173144876
17370,York County,PA,88.43537414965986,NA,NA
17402,York County,PA,NA,NA,3.0035335689045937
17403,York County,PA,NA,2.2461814914645104,NA
17404,York County,PA,NA,8.89487870619946,NA
17557,Lancaster County,PA,NA,98.47259658580413,NA
17578,Lancaster County,PA,NA,NA,97.26148409893993
17579,Lancaster County,PA,NA,NA,87.45583038869258
17701,Lycoming County,PA,NA,4.40251572327044,44.434628975265014
17745,Clinton County,PA,NA,38.36477987421384,NA
17815,Columbia County,PA,14.795918367346939,NA,NA
17866,Northumberland County,PA,NA,77.9874213836478,NA
17901,Schuylkill County,PA,NA,NA,18.286219081272083
18013,Northampton County,PA,NA,80.3234501347709,71.46643109540636
18014,Northampton County,PA,68.70748299319727,NA,NA
18037,Lehigh County,PA,NA,NA,72.79151943462897
18064,Northampton County,PA,NA,18.598382749326145,NA
18080,Lehigh County,PA,NA,86.61275831087151,NA
18201,Luzerne County,PA,NA,NA,22.614840989399294
18431,Wayne County,PA,80.4421768707483,NA,NA
18444,Lackawanna County,PA,NA,NA,54.68197879858657
18452,Lackawanna County,PA,NA,94.69901168014376,NA
18504,Lackawanna County,PA,NA,35.669362084456424,52.82685512367491
18603,Columbia County,PA,NA,12.93800539083558,NA
18610,Monroe County,PA,97.44897959183673,NA,NA
18642,Luzerne County,PA,NA,87.6010781671159,NA
18655,Luzerne County,PA,NA,NA,67.93286219081273
18702,Luzerne County,PA,8.16326530612245,NA,NA
18801,Susquehanna County,PA,NA,56.15453728661276,NA
18969,Montgomery County,PA,59.353741496598644,NA,NA
18974,Bucks County,PA,NA,7.457322551662174,1.5901060070671376
18976,Bucks County,PA,NA,68.46361185983828,NA
19008,Delaware County,PA,NA,30.727762803234505,NA
19010,Delaware County,PA,NA,NA,94.1696113074205
19041,Delaware County,PA,NA,82.65947888589398,NA
19046,Montgomery County,PA,NA,51.123090745732256,NA
19053,Bucks County,PA,NA,NA,36.130742049469966
19054,Bucks County,PA,55.61224489795919,NA,NA
19056,Bucks County,PA,NA,78.8858939802336,NA
19057,Bucks County,PA,NA,57.861635220125784,NA
19064,Delaware County,PA,NA,NA,31.802120141342755
19067,Bucks County,PA,NA,NA,35.3356890459364
19072,Montgomery County,PA,NA,79.96406109613656,NA
19082,Delaware County,PA,NA,52.11141060197664,NA
19090,Montgomery County,PA,NA,69.45193171608265,NA
19094,Delaware County,PA,NA,79.3351302785265,NA
19103,Philadelphia County,PA,NA,NA,18.462897526501767
19104,Philadelphia County,PA,34.523809523809526,NA,43.02120141342756
19107,Philadelphia County,PA,NA,NA,98.4982332155477
19114,Philadelphia County,PA,NA,47.97843665768194,NA
19116,Philadelphia County,PA,NA,9.523809523809524,NA
19122,Philadelphia County,PA,NA,NA,69.43462897526503
19124,Philadelphia County,PA,1.1904761904761905,NA,NA
19126,Philadelphia County,PA,NA,87.151841868823,NA
19128,Philadelphia County,PA,NA,NA,26.236749116607772
19131,Philadelphia County,PA,75.68027210884354,NA,NA
19134,Philadelphia County,PA,NA,NA,33.56890459363957
19135,Philadelphia County,PA,58.843537414965986,NA,NA
19141,Philadelphia County,PA,NA,NA,24.204946996466433
19142,Philadelphia County,PA,NA,35.130278526504945,NA
19143,Philadelphia County,PA,NA,0.9883198562443846,NA
19145,Philadelphia County,PA,NA,7.996406109613657,NA
19149,Philadelphia County,PA,7.653061224489796,NA,82.3321554770318
19151,Philadelphia County,PA,NA,12.848158131176998,NA
19152,Philadelphia County,PA,44.21768707482993,NA,NA
19341,Chester County,PA,NA,NA,42.84452296819788
19342,Delaware County,PA,NA,NA,20.759717314487634
19363,Chester County,PA,NA,62.53369272237197,NA
19382,Chester County,PA,NA,NA,13.604240282685511
19403,Montgomery County,PA,15.646258503401361,NA,4.858657243816254
19406,Montgomery County,PA,NA,NA,71.64310954063605
19438,Montgomery County,PA,NA,NA,24.73498233215548
19460,Chester County,PA,20.918367346938776,NA,NA
19464,Montgomery County,PA,NA,27.762803234501348,NA
19468,Montgomery County,PA,36.564625850340136,NA,NA
19473,Montgomery County,PA,NA,91.2848158131177,NA
19475,Chester County,PA,NA,75.02246181491465,NA
19512,Berks County,PA,89.1156462585034,NA,NA
19606,Berks County,PA,NA,NA,13.250883392226148
02809,Bristol County,RI,NA,92.09344115004492,NA
02813,Washington County,RI,NA,NA,80.21201413427562
02822,Washington County,RI,NA,NA,97.34982332155478
02861,Providence County,RI,27.040816326530614,NA,NA
02879,Washington County,RI,NA,NA,57.685512367491164
02888,Kent County,RI,NA,NA,33.03886925795053
02889,Kent County,RI,NA,13.2973944294699,NA
02893,Kent County,RI,30.4421768707483,NA,NA
02895,Providence County,RI,11.904761904761903,NA,NA
02911,Providence County,RI,NA,NA,54.15194346289752
02914,Providence County,RI,NA,NA,18.90459363957597
02919,Providence County,RI,NA,23.89937106918239,NA
02920,Providence County,RI,NA,NA,7.862190812720849
02921,Providence County,RI,NA,90.11680143755616,NA
29044,Richland County,SC,NA,NA,91.6077738515901
29045,Kershaw County,SC,NA,NA,94.69964664310953
29053,Lexington County,SC,49.14965986394558,NA,NA
29059,Orangeburg County,SC,NA,84.63611859838275,NA
29072,Lexington County,SC,NA,NA,22.791519434628977
29073,Lexington County,SC,76.36054421768708,NA,NA
29138,Saluda County,SC,NA,66.12758310871519,NA
29150,Sumter County,SC,NA,NA,16.25441696113074
29204,Richland County,SC,NA,NA,95.93639575971731
29306,Spartanburg County,SC,NA,58.13117699910153,NA
29360,Laurens County,SC,NA,65.31895777178795,NA
29407,Charleston County,SC,NA,NA,12.014134275618375
29472,Dorchester County,SC,NA,NA,91.25441696113074
29485,Dorchester County,SC,NA,NA,36.30742049469965
29488,Colleton County,SC,30.272108843537417,NA,NA
29510,Georgetown County,SC,59.013605442176875,NA,NA
29512,Marlboro County,SC,NA,97.214734950584,NA
29526,Horry County,SC,NA,53.728661275831094,NA
29566,Horry County,SC,71.08843537414967,NA,NA
29568,Horry County,SC,NA,53.279424977538184,NA
29576,Horry County,SC,NA,NA,11.484098939929329
29605,Greenville County,SC,NA,NA,21.289752650176677
29621,Anderson County,SC,NA,13.836477987421384,NA
29624,Anderson County,SC,NA,NA,54.24028268551236
29627,Anderson County,SC,NA,NA,49.46996466431096
29644,Greenville County,SC,NA,52.47079964061096,NA
29649,Greenwood County,SC,NA,74.48337825696316,NA
29657,Pickens County,SC,42.3469387755102,NA,NA
29666,Greenwood County,SC,NA,NA,96.113074204947
29670,Anderson County,SC,NA,NA,79.68197879858657
29690,Greenville County,SC,NA,29.290206648697215,NA
29707,Lancaster County,SC,NA,39.80233602875112,NA
29801,Aiken County,SC,NA,NA,36.484098939929325
29803,Aiken County,SC,NA,6.379155435759209,NA
29842,Aiken County,SC,NA,87.06199460916442,NA
29860,Edgefield County,SC,NA,NA,58.745583038869256
29909,Beaufort County,SC,NA,11.410601976639713,NA
57005,Minnehaha County,SD,NA,NA,87.72084805653711
57006,Brookings County,SD,NA,NA,76.9434628975265
57042,Lake County,SD,NA,NA,32.24381625441696
57103,Minnehaha County,SD,49.31972789115646,NA,NA
57104,Minnehaha County,SD,NA,NA,10.777385159010601
57105,Minnehaha County,SD,NA,7.9065588499550765,NA
57108,Lincoln County,SD,NA,NA,27.03180212014134
57350,Beadle County,SD,NA,61.27583108715184,NA
57401,Brown County,SD,15.136054421768709,5.750224618149147,NA
57501,Hughes County,SD,NA,88.40970350404312,NA
57701,Pennington County,SD,15.98639455782313,NA,NA
57702,Pennington County,SD,NA,NA,7.243816254416961
37033,Hickman County,TN,NA,NA,91.16607773851591
37075,Sumner County,TN,NA,NA,31.007067137809187
37076,Davidson County,TN,NA,NA,62.27915194346289
37115,Davidson County,TN,NA,NA,27.56183745583039
37122,Wilson County,TN,NA,NA,22.703180212014136
37138,Davidson County,TN,NA,46.00179694519318,NA
37167,Rutherford County,TN,NA,NA,60.24734982332155
37174,Williamson County,TN,NA,31.805929919137466,NA
37203,Davidson County,TN,88.94557823129252,NA,NA
37207,Davidson County,TN,NA,23.270440251572328,NA
37208,Davidson County,TN,52.38095238095239,NA,NA
37209,Davidson County,TN,27.380952380952383,NA,NA
37218,Davidson County,TN,45.40816326530612,NA,NA
37221,Davidson County,TN,NA,NA,74.91166077738515
37303,McMinn County,TN,19.387755102040817,67.56513926325248,NA
37307,Polk County,TN,NA,79.60467205750224,NA
37323,Bradley County,TN,36.904761904761905,NA,NA
37330,Franklin County,TN,NA,82.83917340521114,NA
37354,Monroe County,TN,NA,35.669362084456424,NA
37363,Hamilton County,TN,NA,NA,73.85159010600707
37404,Hamilton County,TN,57.82312925170068,NA,NA
37415,Hamilton County,TN,NA,48.876909254267744,NA
37601,Washington County,TN,NA,NA,20.848056537102476
37617,Sullivan County,TN,NA,54.26774483378257,NA
37620,Sullivan County,TN,12.414965986394558,NA,NA
37642,Hawkins County,TN,NA,NA,56.8904593639576
37643,Carter County,TN,NA,NA,14.39929328621908
37650,Unicoi County,TN,89.28571428571429,NA,NA
37659,Washington County,TN,31.802721088435376,NA,NA
37743,Greene County,TN,NA,NA,8.12720848056537
37748,Roane County,TN,NA,NA,32.24381625441696
37764,Sevier County,TN,NA,88.23000898472596,NA
37772,Loudon County,TN,NA,NA,79.9469964664311
37801,Blount County,TN,NA,NA,23.233215547703182
37804,Blount County,TN,NA,13.656783468104223,NA
37849,Knox County,TN,NA,NA,66.07773851590106
37857,Hawkins County,TN,29.25170068027211,NA,NA
37861,Grainger County,TN,NA,56.51392632524708,NA
37862,Sevier County,TN,NA,NA,79.15194346289752
37873,Hawkins County,TN,98.12925170068027,NA,NA
37879,Claiborne County,TN,NA,61.09613656783468,NA
37886,Blount County,TN,82.14285714285714,NA,NA
37890,Jefferson County,TN,66.66666666666666,NA,NA
37918,Knox County,TN,NA,NA,14.929328621908128
37921,Knox County,TN,NA,85.17520215633422,NA
37922,Knox County,TN,NA,72.50673854447439,NA
37931,Knox County,TN,NA,50.22461814914645,NA
38002,Shelby County,TN,NA,NA,94.6113074204947
38016,Shelby County,TN,NA,39.4429469901168,NA
38024,Dyer County,TN,NA,28.930817610062892,NA
38053,Shelby County,TN,NA,NA,23.14487632508834
38059,Dyer County,TN,NA,NA,91.07773851590106
38106,Shelby County,TN,14.45578231292517,NA,NA
38119,Shelby County,TN,NA,90.65588499550763,NA
38122,Shelby County,TN,NA,60.467205750224615,NA
38125,Shelby County,TN,NA,63.07277628032345,73.67491166077738
38127,Shelby County,TN,9.013605442176871,NA,NA
38138,Shelby County,TN,NA,NA,36.74911660777385
38201,Carroll County,TN,NA,64.51033243486074,NA
38242,Henry County,TN,NA,32.16531895777179,39.31095406360424
38301,Madison County,TN,9.523809523809524,NA,NA
38344,Carroll County,TN,NA,NA,96.81978798586573
38351,Henderson County,TN,NA,NA,78.18021201413427
38358,Gibson County,TN,NA,55.34591194968554,49.02826855123675
38363,Decatur County,TN,NA,77.80772686433065,NA
38483,Lawrence County,TN,89.62585034013605,NA,NA
38485,Wayne County,TN,NA,83.19856244384546,NA
38501,Putnam County,TN,16.3265306122449,NA,NA
38506,Putnam County,TN,NA,95.4177897574124,NA
38555,Cumberland County,TN,NA,NA,70.84805653710248
38556,Fentress County,TN,NA,33.24348607367475,NA
38558,Cumberland County,TN,NA,42.40790655884996,31.09540636042403
75002,Collin County,TX,NA,21.653189577717878,NA
75021,Grayson County,TX,NA,NA,71.02473498233216
75023,Collin County,TX,NA,29.919137466307276,86.48409893992934
75057,Denton County,TX,NA,NA,93.63957597173145
75060,Dallas County,TX,NA,NA,56.18374558303887
75069,Collin County,TX,NA,27.044025157232703,NA
75071,Collin County,TX,NA,NA,58.215547703180214
75074,Collin County,TX,47.27891156462585,NA,49.46996466431096
75080,Dallas County,TX,NA,NA,12.54416961130742
75081,Dallas County,TX,NA,NA,52.29681978798587
75104,Dallas County,TX,NA,23.539982030548067,NA
75110,Navarro County,TX,NA,69.99101527403414,NA
75119,Ellis County,TX,NA,59.83827493261455,NA
75126,Kaufman County,TX,NA,NA,81.44876325088339
75142,Kaufman County,TX,NA,NA,51.060070671378085
75150,Dallas County,TX,NA,11.949685534591195,NA
75154,Ellis County,TX,NA,NA,61.83745583038869
75189,Rockwall County,TX,NA,NA,69.87632508833921
75201,Dallas County,TX,72.44897959183673,NA,NA
75206,Dallas County,TX,NA,52.11141060197664,NA
75208,Dallas County,TX,NA,NA,92.84452296819788
75228,Dallas County,TX,42.00680272108844,NA,67.31448763250883
75233,Dallas County,TX,NA,NA,93.99293286219081
75401,Hunt County,TX,NA,49.77538185085355,NA
75455,Titus County,TX,97.78911564625851,NA,NA
75497,Wood County,TX,NA,72.14734950584007,NA
75640,Upshur County,TX,NA,84.27672955974843,NA
75652,Rusk County,TX,NA,NA,62.455830388692576
75654,Rusk County,TX,NA,59.11949685534591,NA
75702,Smith County,TX,NA,NA,56.00706713780919
75703,Smith County,TX,NA,NA,1.4134275618374559
75766,Cherokee County,TX,61.564625850340136,NA,4.328621908127209
75785,Cherokee County,TX,NA,47.79874213836478,NA
75862,Trinity County,TX,NA,NA,97.6148409893993
75941,Angelina County,TX,NA,NA,98.85159010600707
75961,Nacogdoches County,TX,84.01360544217688,NA,NA
76010,Tarrant County,TX,83.84353741496598,NA,NA
76028,Johnson County,TX,NA,NA,10.247349823321555
76036,Tarrant County,TX,NA,93.71069182389937,NA
76108,Tarrant County,TX,NA,NA,40.812720848056536
76115,Tarrant County,TX,NA,NA,89.48763250883393
76140,Tarrant County,TX,90.3061224489796,80.86253369272237,NA
76234,Wise County,TX,NA,NA,55.12367491166078
76354,Wichita County,TX,74.82993197278913,NA,NA
76426,Wise County,TX,95.91836734693877,NA,NA
76442,Comanche County,TX,NA,NA,75.35335689045937
76504,Bell County,TX,NA,NA,82.773851590106
76522,Coryell County,TX,NA,36.2084456424079,NA
76549,Bell County,TX,NA,NA,36.39575971731448
76550,Lampasas County,TX,NA,NA,85.15901060070671
76642,Limestone County,TX,NA,NA,88.42756183745583
76667,Limestone County,TX,78.4013605442177,NA,NA
76712,McLennan County,TX,NA,NA,73.14487632508833
76903,Tom Green County,TX,37.58503401360544,NA,NA
77008,Harris County,TX,NA,NA,78.62190812720848
77009,Harris County,TX,NA,31.446540880503143,NA
77022,Harris County,TX,95.578231292517,NA,NA
77033,Harris County,TX,NA,14.285714285714285,31.448763250883395
77039,Harris County,TX,NA,47.34950584007188,NA
77044,Harris County,TX,NA,51.75202156334232,NA
77047,Harris County,TX,NA,NA,79.3286219081272
77059,Harris County,TX,92.00680272108843,NA,NA
77062,Harris County,TX,NA,86.07367475292004,NA
77066,Harris County,TX,NA,48.42767295597484,NA
77070,Harris County,TX,NA,18.778077268643305,NA
77077,Harris County,TX,NA,57.59209344115005,NA
77083,Harris County,TX,67.17687074829932,NA,26.59010600706714
77087,Harris County,TX,NA,75.29200359389039,NA
77088,Harris County,TX,NA,27.49326145552561,NA
77351,Polk County,TX,NA,49.95507637017071,NA
77388,Harris County,TX,NA,61.45552560646901,NA
77389,Harris County,TX,NA,50.314465408805034,NA
77414,Matagorda County,TX,NA,NA,43.90459363957597
77469,Fort Bend County,TX,NA,61.0062893081761,34.36395759717315
77478,Fort Bend County,TX,NA,NA,40.63604240282685
77511,Brazoria County,TX,NA,NA,12.279151943462898
77521,Harris County,TX,NA,NA,29.9469964664311
77530,Harris County,TX,87.24489795918367,NA,NA
77539,Galveston County,TX,NA,NA,93.7279151943463
77566,Brazoria County,TX,NA,NA,35.42402826855124
77568,Galveston County,TX,29.591836734693878,NA,NA
77591,Galveston County,TX,77.04081632653062,NA,NA
77619,Jefferson County,TX,NA,NA,41.784452296819794
77625,Hardin County,TX,75.85034013605441,NA,NA
77642,Jefferson County,TX,25.68027210884354,NA,NA
77662,Orange County,TX,69.89795918367348,NA,NA
77807,Brazos County,TX,NA,59.56873315363881,NA
77954,DeWitt County,TX,64.79591836734694,NA,NA
77979,Calhoun County,TX,NA,53.36927223719676,NA
78002,Bexar County,TX,100,NA,NA
78028,Kerr County,TX,NA,10.152740341419586,NA
78041,Webb County,TX,NA,17.969451931716083,NA
78043,Webb County,TX,NA,55.43575920934411,NA
78065,Atascosa County,TX,NA,66.57681940700809,NA
78073,Bexar County,TX,NA,88.4995507637017,NA
78076,Zapata County,TX,NA,NA,93.1095406360424
78102,Bee County,TX,NA,83.9173405211141,NA
78114,Wilson County,TX,47.7891156462585,NA,NA
78154,Guadalupe County,TX,NA,66.84636118598382,50.61837455830389
78203,Bexar County,TX,NA,97.30458221024259,NA
78210,Bexar County,TX,NA,43.126684636118604,NA
78213,Bexar County,TX,40.98639455782313,NA,NA
78218,Bexar County,TX,43.197278911564624,NA,NA
78228,Bexar County,TX,55.78231292517006,NA,NA
78233,Bexar County,TX,NA,46.18149146451033,NA
78237,Bexar County,TX,NA,50.40431266846361,NA
78245,Bexar County,TX,21.258503401360542,NA,NA
78251,Bexar County,TX,48.63945578231292,NA,50.79505300353356
78253,Bexar County,TX,77.89115646258503,61.725067385444746,NA
78355,Brooks County,TX,NA,NA,90.37102473498233
78516,Hidalgo County,TX,NA,41.59928122192273,NA
78521,Cameron County,TX,NA,13.11769991015274,NA
78537,Hidalgo County,TX,NA,NA,46.5547703180212
78539,Hidalgo County,TX,NA,56.693620844564244,NA
78541,Hidalgo County,TX,NA,52.02156334231805,NA
78550,Cameron County,TX,NA,NA,22.34982332155477
78574,Hidalgo County,TX,NA,76.46001796945193,NA
78577,Hidalgo County,TX,NA,NA,9.452296819787986
78586,Cameron County,TX,87.75510204081633,NA,81.97879858657244
78596,Hidalgo County,TX,NA,46.36118598382749,NA
78599,Hidalgo County,TX,NA,71.24887690925426,NA
78611,Burnet County,TX,NA,NA,11.925795053003533
78613,Williamson County,TX,NA,12.309074573225516,5.212014134275619
78626,Williamson County,TX,NA,38.9937106918239,NA
78633,Williamson County,TX,NA,NA,0
78639,Llano County,TX,99.31972789115646,NA,NA
78644,Caldwell County,TX,62.414965986394556,NA,NA
78660,Travis County,TX,NA,26.954177897574123,NA
78664,Williamson County,TX,NA,28.39173405211141,NA
78665,Williamson County,TX,NA,22.641509433962266,NA
78721,Travis County,TX,NA,NA,87.98586572438163
78741,Travis County,TX,66.83673469387756,NA,NA
78747,Travis County,TX,NA,95.68733153638814,NA
78759,Travis County,TX,NA,NA,25.88339222614841
78801,Uvalde County,TX,56.63265306122449,NA,NA
78839,Zavala County,TX,NA,NA,86.13074204946997
78852,Maverick County,TX,NA,NA,44.6113074204947
78934,Colorado County,TX,82.82312925170068,NA,NA
79106,Potter County,TX,NA,64.15094339622641,65.10600706713781
79107,Potter County,TX,29.421768707482993,NA,NA
79316,Terry County,TX,81.29251700680273,NA,NA
79403,Lubbock County,TX,NA,41.06019766397125,NA
79407,Lubbock County,TX,NA,53.63881401617251,NA
79601,Taylor County,TX,NA,95.59748427672956,NA
79602,Taylor County,TX,NA,44.65408805031446,NA
79606,Taylor County,TX,55.10204081632652,NA,NA
79720,Howard County,TX,NA,NA,43.639575971731446
79905,El Paso County,TX,NA,NA,42.93286219081272
79915,El Paso County,TX,NA,NA,11.042402826855122
79924,El Paso County,TX,69.21768707482994,NA,NA
79927,El Paso County,TX,NA,NA,53.35689045936396
79932,El Paso County,TX,NA,NA,59.09893992932862
84070,Salt Lake County,UT,NA,77.89757412398922,NA
84074,Tooele County,UT,4.761904761904762,NA,NA
84078,Uintah County,UT,13.945578231292515,30.81761006289308,NA
84084,Salt Lake County,UT,NA,33.513027852650495,NA
84105,Salt Lake County,UT,71.5986394557823,NA,NA
84120,Salt Lake County,UT,NA,NA,69.6113074204947
84121,Salt Lake County,UT,NA,11.680143755615454,NA
84123,Salt Lake County,UT,NA,32.43486073674753,NA
84128,Salt Lake County,UT,35.374149659863946,NA,NA
84129,,UT,NA,NA,79.59363957597174
84302,Box Elder County,UT,NA,NA,97.08480565371025
84721,Iron County,UT,60.204081632653065,56.8733153638814,NA
05156,Windsor County,VT,NA,54.53728661275831,78.79858657243817
05201,Bennington County,VT,NA,NA,27.82685512367491
05250,Bennington County,VT,98.80952380952381,NA,NA
05301,Windham County,VT,NA,85.08535489667565,NA
05478,Franklin County,VT,NA,27.403414195867025,19.434628975265017
05488,Franklin County,VT,NA,NA,68.99293286219081
20155,Prince William County,VA,NA,NA,44.522968197879855
22042,Fairfax County,VA,NA,NA,85.95406360424029
22044,Fairfax County,VA,NA,NA,95.84805653710248
22152,Fairfax County,VA,NA,NA,28.886925795053003
22192,Prince William County,VA,NA,34.14195867026056,NA
22193,Prince William County,VA,NA,NA,62.72084805653711
22205,Arlington County,VA,80.78231292517006,NA,NA
22302,Alexandria city,VA,NA,58.84995507637017,NA
22306,Fairfax County,VA,26.190476190476193,NA,NA
22553,Spotsylvania County,VA,NA,58.22102425876011,NA
22601,Winchester city,VA,NA,NA,88.78091872791519
22602,Frederick County,VA,NA,44.83378256963162,NA
22701,Culpeper County,VA,NA,NA,55.65371024734982
22849,Page County,VA,NA,83.46810422282121,NA
22851,Page County,VA,93.70748299319727,NA,NA
22903,Charlottesville city,VA,NA,NA,27.208480565371023
22980,Waynesboro city,VA,NA,NA,89.04593639575971
23141,New Kent County,VA,NA,74.57322551662175,NA
23150,Henrico County,VA,NA,88.67924528301887,90.19434628975264
23168,James City County,VA,NA,82.21024258760107,NA
23188,James City County,VA,39.455782312925166,1.8867924528301887,NA
23227,Henrico County,VA,37.92517006802721,NA,NA
23234,Chesterfield County,VA,NA,25.96585804132974,NA
23321,Chesapeake city,VA,NA,25.157232704402517,16.607773851590103
23322,Chesapeake city,VA,NA,NA,79.24028268551237
23430,Isle of Wight County,VA,NA,NA,29.24028268551237
23454,Virginia Beach city,VA,NA,NA,3.2685512367491167
23455,Virginia Beach city,VA,38.775510204081634,NA,NA
23464,Virginia Beach city,VA,NA,17.969451931716083,NA
23502,Norfolk city,VA,NA,25.426774483378257,NA
23505,Norfolk city,VA,34.863945578231295,91.46451033243486,26.943462897526505
23518,Norfolk city,VA,NA,NA,13.427561837455832
23601,Newport News city,VA,51.19047619047619,36.65768194070081,NA
23607,Newport News city,VA,46.7687074829932,NA,NA
23662,Poquoson city,VA,NA,NA,90.7243816254417
23669,Hampton city,VA,NA,93.53099730458221,NA
23707,Portsmouth city,VA,NA,32.61455525606469,NA
23847,Greensville County,VA,NA,81.76100628930818,NA
23930,Nottoway County,VA,NA,NA,91.51943462897526
24014,Roanoke city,VA,NA,23.62982929020665,NA
24018,Roanoke County,VA,NA,NA,6.978798586572438
24019,Roanoke County,VA,NA,21.563342318059302,NA
24060,Montgomery County,VA,NA,NA,46.908127208480565
24112,Henry County,VA,14.625850340136054,NA,NA
24202,Washington County,VA,NA,74.12398921832884,91.43109540636041
24219,Wise County,VA,36.394557823129254,NA,NA
24228,Dickenson County,VA,NA,NA,80.65371024734982
24251,Scott County,VA,NA,73.8544474393531,NA
24343,Carroll County,VA,NA,NA,76.06007067137809
24501,Lynchburg city,VA,NA,NA,97.96819787985865
24504,Lynchburg city,VA,NA,63.881401617250674,NA
24521,Amherst County,VA,NA,88.94878706199461,NA
24577,Halifax County,VA,NA,NA,71.90812720848056
24592,Halifax County,VA,NA,NA,55.47703180212014
24614,Buchanan County,VA,54.25170068027211,NA,NA
24630,Tazewell County,VA,70.40816326530613,NA,NA
98001,King County,WA,38.095238095238095,NA,NA
98023,King County,WA,NA,39.98203054806828,NA
98030,King County,WA,22.789115646258505,NA,NA
98031,King County,WA,NA,10.871518418688229,NA
98032,King County,WA,NA,38.18508535489668,NA
98052,King County,WA,NA,NA,11.749116607773852
98055,King County,WA,NA,59.11949685534591,NA
98058,King County,WA,NA,NA,28.091872791519435
98115,King County,WA,NA,19.67654986522911,NA
98116,King County,WA,64.45578231292517,NA,NA
98126,King County,WA,53.91156462585034,NA,NA
98133,King County,WA,NA,NA,64.84098939929329
98221,Skagit County,WA,NA,15.00449236298293,NA
98247,Whatcom County,WA,NA,94.87870619946092,NA
98264,Whatcom County,WA,NA,62.35399820305481,NA
98270,Snohomish County,WA,NA,24.977538185085354,NA
98275,Snohomish County,WA,NA,62.08445642407907,NA
98277,Island County,WA,NA,20.125786163522015,NA
98310,Kitsap County,WA,NA,81.04222821203953,33.48056537102473
98329,Pierce County,WA,NA,NA,93.02120141342756
98346,Kitsap County,WA,NA,86.16352201257862,NA
98354,Pierce County,WA,NA,63.342318059299195,NA
98366,Kitsap County,WA,NA,97.48427672955975,NA
98368,Jefferson County,WA,NA,19.40700808625337,NA
98466,Pierce County,WA,54.59183673469388,NA,NA
98513,Thurston County,WA,NA,52.56064690026954,NA
98584,Mason County,WA,NA,64.86972147349506,NA
98632,Cowlitz County,WA,16.156462585034014,3.8634321653189576,NA
98661,Clark County,WA,NA,63.432165318957765,NA
98683,Clark County,WA,NA,NA,35.7773851590106
98926,Kittitas County,WA,NA,NA,89.57597173144876
99005,Spokane County,WA,NA,94.60916442048517,NA
99156,Pend Oreille County,WA,NA,87.78077268643307,NA
99223,Spokane County,WA,62.585034013605444,NA,NA
99224,Spokane County,WA,NA,84.90566037735849,NA
99336,Benton County,WA,NA,NA,3.7102473498233217
99352,Benton County,WA,NA,NA,34.80565371024735
99353,Benton County,WA,NA,NA,50.79505300353356
99354,Benton County,WA,NA,NA,15.636042402826856
20001,District of Columbia,DC,NA,NA,27.208480565371023
20011,District of Columbia,DC,NA,NA,3.6219081272084805
20017,District of Columbia,DC,NA,56.06469002695418,51.9434628975265
20019,District of Columbia,DC,NA,42.04851752021563,NA
20020,District of Columbia,DC,NA,26.1455525606469,NA
20024,District of Columbia,DC,51.02040816326531,NA,NA
20032,District of Columbia,DC,NA,15.633423180592992,NA
24701,Mercer County,WV,NA,71.87780772686433,NA
24739,Mercer County,WV,60.71428571428571,NA,NA
25143,Kanawha County,WV,NA,59.38903863432166,NA
25177,Kanawha County,WV,NA,NA,12.45583038869258
25304,Kanawha County,WV,NA,NA,60.86572438162544
25309,Kanawha County,WV,61.564625850340136,NA,NA
25311,Kanawha County,WV,NA,NA,76.23674911660777
25312,Kanawha County,WV,83.50340136054422,NA,NA
25404,Berkeley County,WV,35.204081632653065,NA,48.58657243816255
25414,Jefferson County,WV,NA,NA,48.93992932862191
25526,Putnam County,WV,NA,31.716082659478882,NA
25701,Cabell County,WV,NA,10.512129380053908,NA
25801,Raleigh County,WV,55.952380952380956,NA,NA
26003,Ohio County,WV,NA,1.6172506738544474,1.9434628975265018
26062,Hancock County,WV,10.884353741496598,NA,NA
26101,Wood County,WV,NA,4.132973944294699,NA
26104,Wood County,WV,NA,NA,45.671378091872796
26241,Randolph County,WV,NA,NA,23.498233215547703
26354,Taylor County,WV,NA,81.31176999101527,NA
26452,Lewis County,WV,NA,NA,52.120141342756185
26508,Monongalia County,WV,NA,24.348607367475292,NA
26537,Preston County,WV,NA,99.28122192273136,NA
53010,Fond du Lac County,WI,NA,93.89038634321653,NA
53012,Ozaukee County,WI,NA,NA,22.526501766784452
53022,Washington County,WI,NA,40.521114106019766,NA
53024,Ozaukee County,WI,NA,NA,74.38162544169612
53040,Washington County,WI,NA,62.893081761006286,NA
53092,Ozaukee County,WI,NA,NA,92.49116607773851
53098,Dodge County,WI,NA,NA,41.1660777385159
53110,Milwaukee County,WI,NA,26.23539982030548,NA
53121,Walworth County,WI,NA,23.00089847259659,NA
53132,Milwaukee County,WI,NA,NA,56.62544169611308
53140,Kenosha County,WI,51.70068027210885,NA,NA
53142,Kenosha County,WI,NA,15.902964959568733,NA
53144,Kenosha County,WI,NA,54.44743935309974,NA
53154,Milwaukee County,WI,NA,7.3674752920035935,26.855123674911663
53181,Kenosha County,WI,NA,NA,81.53710247349824
53185,Racine County,WI,NA,NA,89.66431095406361
53188,Waukesha County,WI,NA,80.59299191374663,NA
53190,Walworth County,WI,NA,51.03324348607367,NA
53206,Milwaukee County,WI,NA,NA,65.37102473498233
53207,Milwaukee County,WI,NA,56.693620844564244,NA
53209,Milwaukee County,WI,NA,30.098831985624436,NA
53211,Milwaukee County,WI,NA,NA,7.773851590106007
53212,Milwaukee County,WI,NA,40.25157232704403,NA
53213,Milwaukee County,WI,NA,NA,37.36749116607774
53214,Milwaukee County,WI,11.564625850340136,NA,NA
53216,Milwaukee County,WI,NA,63.97124887690926,NA
53218,Milwaukee County,WI,7.312925170068027,6.019766397124888,NA
53219,Milwaukee County,WI,42.857142857142854,NA,NA
53220,Milwaukee County,WI,NA,NA,11.395759717314489
53221,Milwaukee County,WI,NA,16.442048517520217,NA
53222,Milwaukee County,WI,NA,30.45822102425876,45.40636042402827
53224,Milwaukee County,WI,NA,42.58760107816711,NA
53226,Milwaukee County,WI,NA,NA,32.15547703180212
53228,Milwaukee County,WI,NA,37.19676549865229,31.18374558303887
53402,Racine County,WI,NA,1.6172506738544474,NA
53405,Racine County,WI,NA,NA,10.512367491166078
53406,Racine County,WI,NA,88.31985624438454,NA
53511,Rock County,WI,43.87755102040816,62.713387241689134,6.802120141342756
53532,Dane County,WI,62.925170068027214,NA,NA
53563,Rock County,WI,NA,NA,52.208480565371026
53566,Green County,WI,NA,NA,35.51236749116608
53575,Dane County,WI,86.22448979591837,NA,NA
53589,Dane County,WI,NA,29.73944294699012,72.52650176678446
53594,Jefferson County,WI,NA,NA,94.34628975265018
53719,Dane County,WI,48.97959183673469,NA,NA
53916,Dodge County,WI,37.41496598639456,NA,NA
54020,Polk County,WI,NA,NA,74.55830388692578
54130,Outagamie County,WI,51.53061224489795,NA,NA
54143,Marinette County,WI,NA,NA,32.06713780918728
54157,Marinette County,WI,91.3265306122449,NA,NA
54217,Kewaunee County,WI,NA,89.84725965858041,NA
54220,Manitowoc County,WI,NA,1.257861635220126,0.441696113074205
54241,Manitowoc County,WI,NA,75.92093441150045,NA
54311,Brown County,WI,NA,NA,48.0565371024735
54313,Brown County,WI,NA,26.774483378256964,86.83745583038869
54401,Marathon County,WI,35.544217687074834,NA,NA
54409,Langlade County,WI,NA,NA,32.420494699646646
54455,Marathon County,WI,NA,NA,63.25088339222616
54456,Clark County,WI,NA,91.10512129380054,NA
54487,Lincoln County,WI,73.80952380952381,NA,NA
54494,Wood County,WI,NA,NA,14.2226148409894
54568,Vilas County,WI,NA,NA,52.29681978798587
54601,La Crosse County,WI,NA,NA,2.5618374558303887
54603,La Crosse County,WI,NA,90.92542677448337,NA
54636,La Crosse County,WI,60.204081632653065,NA,72.79151943462897
54650,La Crosse County,WI,NA,5.570530098831986,35.86572438162544
54669,La Crosse County,WI,NA,82.56963162623539,NA
54703,Eau Claire County,WI,NA,24.797843665768195,NA
54736,Pepin County,WI,NA,98.20305480682839,NA
54771,Clark County,WI,NA,99.64061096136568,NA
54817,Washburn County,WI,NA,100,NA
54822,Barron County,WI,NA,90.47619047619048,NA
54837,Polk County,WI,NA,94.15992812219227,NA
54853,Polk County,WI,94.5578231292517,NA,NA
54880,Douglas County,WI,13.26530612244898,NA,25.530035335689043
54904,Winnebago County,WI,NA,NA,84.45229681978799
54956,Winnebago County,WI,NA,NA,59.187279151943464
54982,Waushara County,WI,95.06802721088435,NA,NA
82240,Goshen County,WY,NA,NA,77.12014134275618
82414,Park County,WY,NA,65.94788858939802,NA
82801,Sheridan County,WY,NA,88.0503144654088,24.02826855123675
