ZipCode,county,state,Adult
35214,Jefferson County,AL,33.65695792880259
35405,Tuscaloosa County,AL,8.737864077669903
35650,Lawrence County,AL,57.28155339805825
35986,DeKalb County,AL,77.66990291262135
36037,Butler County,AL,58.89967637540453
36081,Pike County,AL,80.2588996763754
36323,Coffee County,AL,74.11003236245955
99507,Anchorage Municipality,AK,34.95145631067961
99709,Fairbanks North Star Borough,AK,63.75404530744336
85022,Maricopa County,AZ,19.093851132686083
85258,Maricopa County,AZ,66.99029126213593
85281,Maricopa County,AZ,36.89320388349515
85706,Pima County,AZ,1.9417475728155338
85742,Pima County,AZ,53.07443365695793
85745,Pima County,AZ,59.8705501618123
86005,Coconino County,AZ,52.75080906148867
71667,Lincoln County,AR,84.46601941747572
72058,Faulkner County,AR,81.87702265372168
72113,Pulaski County,AR,71.52103559870551
72212,Pulaski County,AR,93.20388349514563
72227,Pulaski County,AR,90.29126213592234
72450,Greene County,AR,18.446601941747574
90017,Los Angeles County,CA,86.40776699029125
90064,Los Angeles County,CA,29.126213592233007
90274,Los Angeles County,CA,91.2621359223301
90291,Los Angeles County,CA,87.05501618122977
90503,Los Angeles County,CA,51.45631067961165
91344,Los Angeles County,CA,45.307443365695796
91405,Los Angeles County,CA,73.46278317152104
91406,Los Angeles County,CA,53.72168284789643
91730,San Bernardino County,CA,18.77022653721683
92064,San Diego County,CA,51.7799352750809
92109,San Diego County,CA,69.57928802588997
92154,San Diego County,CA,68.28478964401295
92241,Riverside County,CA,90.614886731391593
92243,Imperial County,CA,26.537216828478964
92308,San Bernardino County,CA,50.161812297734635
92801,Orange County,CA,35.275080906148865
93065,Ventura County,CA,14.886731391585762
93203,Kern County,CA,84.14239482200647
93257,Tulare County,CA,12.944983818770226
93702,Fresno County,CA,30.097087378640776
94028,San Mateo County,CA,95.79288025889967
94063,San Mateo County,CA,42.394822006472495
94536,Alameda County,CA,64.07766990291263
95123,Santa Clara County,CA,39.15857605177994
95350,Stanislaus County,CA,52.103559870550164
95382,Stanislaus County,CA,25.88996763754045
95425,Sonoma County,CA,88.02588996763754
95811,Sacramento County,CA,93.85113268608414
95954,Butte County,CA,41.10032362459547
80031,Adams County,CO,40.1294498381877
80104,Douglas County,CO,58.252427184466015
80123,Jefferson County,CO,48.22006472491909
80204,Denver County,CO,21.035598705501616
80209,Denver County,CO,62.7831715210356
80229,Adams County,CO,14.239482200647249
80241,Adams County,CO,56.957928802588995
80537,Larimer County,CO,20.711974110032365
80550,Weld County,CO,30.74433656957929
80807,Kit Carson County,CO,94.49838187702265
81632,Eagle County,CO,94.8220064724919
06040,Hartford County,CT,10.355987055016183
06096,Hartford County,CT,79.28802588996764
32127,Volusia County,FL,60.84142394822006
32159,Lake County,FL,65.37216828478964
32218,Duval County,FL,3.559870550161812
32222,Duval County,FL,75.08090614886731
32259,St. Johns County,FL,43.689320388349515
32571,Santa Rosa County,FL,13.592233009708737
32828,Orange County,FL,38.51132686084142
32967,Indian River County,FL,47.249190938511326
33012,Miami-Dade County,FL,44.336569579288025
33016,Miami-Dade County,FL,56.63430420711975
33023,Broward County,FL,53.398058252427184
33040,Monroe County,FL,43.36569579288026
33065,Broward County,FL,48.86731391585761
33176,Miami-Dade County,FL,66.66666666666666
33185,Miami-Dade County,FL,88.9967637540453
33193,Miami-Dade County,FL,61.81229773462783
33313,Broward County,FL,55.663430420711975
33510,Hillsborough County,FL,57.60517799352751
33556,Hillsborough County,FL,73.7864077669903
33872,Highlands County,FL,67.63754045307444
34654,Pasco County,FL,86.08414239482201
34743,Osceola County,FL,47.896440129449836
34785,Sumter County,FL,68.6084142394822
34786,Orange County,FL,59.22330097087378
30034,DeKalb County,GA,31.06796116504854
30062,Cobb County,GA,72.49190938511327
30103,Bartow County,GA,69.57928802588997
30114,Cherokee County,GA,37.2168284789644
30127,Cobb County,GA,17.15210355987055
30141,Paulding County,GA,66.34304207119742
30144,Cobb County,GA,37.54045307443366
30253,Henry County,GA,27.831715210355988
30309,Fulton County,GA,96.76375404530745
30415,Bulloch County,GA,83.49514563106796
30506,Hall County,GA,31.3915857605178
30540,Gilmer County,GA,50.80906148867314
30549,Jackson County,GA,46.27831715210356
30721,Whitfield County,GA,24.919093851132686
31313,Liberty County,GA,64.40129449838187
31316,Long County,GA,89.32038834951457
31326,Effingham County,GA,63.10679611650486
31405,Chatham County,GA,51.1326860841424
39897,Grady County,GA,99.35275080906149
96789,Honolulu County,HI,22.330097087378643
83619,Payette County,ID,80.90614886731392
83854,Kootenai County,ID,34.3042071197411
60035,Lake County,IL,44.66019417475729
60148,DuPage County,IL,14.563106796116504
60450,Grundy County,IL,25.5663430420712
60617,Cook County,IL,7.119741100323624
60622,Cook County,IL,38.18770226537217
60647,Cook County,IL,8.414239482200648
61021,Lee County,IL,33.980582524271846
62034,Madison County,IL,90.93851132686083
62208,St. Clair County,IL,85.76051779935275
62363,Pike County,IL,95.46925566343042
46122,Hendricks County,IN,78.31715210355988
46229,Marion County,IN,24.59546925566343
46342,Lake County,IN,5.177993527508091
46385,Porter County,IN,7.443365695792881
46804,Allen County,IN,44.983818770226534
46806,Allen County,IN,28.478964401294498
46923,Carroll County,IN,80.58252427184466
47805,Vigo County,IN,61.48867313915858
66106,Wyandotte County,KS,46.601941747572816
66216,Johnson County,KS,72.168284789644
40228,Jefferson County,KY,65.0485436893204
42240,Christian County,KY,6.796116504854369
70359,Terrebonne Parish,LA,32.68608414239482
70380,St. Mary Parish,LA,22.97734627831715
70808,East Baton Rouge Parish,LA,43.689320388349515
71111,Bossier Parish,LA,4.53074433656958
71303,Rapides Parish,LA,31.715210355987054
04011,Cumberland County,ME,55.016181229773466
04210,Androscoggin County,ME,17.79935275080906
20622,Charles County,MD,98.70550161812298
20650,St. Mary's County,MD,77.99352750809061
20735,Prince George's County,MD,60.19417475728155
20910,Montgomery County,MD,60.517799352750814
21658,Queen Anne's County,MD,98.05825242718447
21797,Howard County,MD,92.55663430420712
01420,Worcester County,MA,0.3236245954692557
01520,Worcester County,MA,42.71844660194174
01841,Essex County,MA,87.37864077669903
01867,Middlesex County,MA,28.802588996763756
02108,Suffolk County,MA,94.1747572815534
02114,Suffolk County,MA,16.50485436893204
02122,Suffolk County,MA,1.6181229773462782
02149,Middlesex County,MA,0
02445,Norfolk County,MA,74.4336569579288
02467,Norfolk County,MA,48.86731391585761
48081,Macomb County,MI,39.482200647249186
48085,Oakland County,MI,32.362459546925564
48176,Washtenaw County,MI,40.77669902912621
48506,Genesee County,MI,25.24271844660194
49203,Jackson County,MI,8.090614886731391
49242,Hillsdale County,MI,46.92556634304207
55123,Dakota County,MN,79.93527508090615
55303,Anoka County,MN,16.828478964401295
55317,Carver County,MN,76.37540453074433
55733,Carlton County,MN,97.0873786407767
56308,Douglas County,MN,28.155339805825243
39206,Hinds County,MS,30.42071197411003
39576,Hancock County,MS,97.41100323624595
39666,Pike County,MS,72.81553398058253
63104,St. Louis city,MO,57.92880258899677
63141,St. Louis County,MO,77.02265372168284
63957,Wayne County,MO,99.02912621359224
64701,Cass County,MO,43.042071197411005
68025,Dodge County,NE,36.24595469255664
68104,Douglas County,NE,27.508090614886733
68512,Lancaster County,NE,88.67313915857605
03104,Hillsborough County,NH,13.268608414239482
03244,Hillsborough County,NH,88.3495145631068
03811,Rockingham County,NH,81.55339805825243
03860,Carroll County,NH,91.58576051779936
07083,Union County,NJ,15.210355987055015
07306,Hudson County,NJ,4.854368932038835
07607,Bergen County,NJ,99.67637540453075
07712,Monmouth County,NJ,2.26537216828479
07801,Morris County,NJ,98.38187702265373
08037,Atlantic County,NJ,15.53398058252427
08816,Middlesex County,NJ,35.92233009708738
87105,Bernalillo County,NM,3.8834951456310676
87547,,NM,83.81877022653723
10038,New York County,NY,45.63106796116505
10039,New York County,NY,32.038834951456316
10453,Bronx County,NY,0.9708737864077669
11204,Kings County,NY,61.165048543689316
11223,Kings County,NY,20.06472491909385
11379,Queens County,NY,81.87702265372168
11552,Nassau County,NY,89.64401294498381
11572,Nassau County,NY,92.55663430420712
11758,Nassau County,NY,71.84466019417476
11772,Suffolk County,NY,33.33333333333333
12533,Dutchess County,NY,82.52427184466019
12901,Clinton County,NY,2.5889967637540456
12937,Franklin County,NY,91.9093851132686
13108,Onondaga County,NY,85.11326860841424
13204,Onondaga County,NY,11.003236245954692
13326,Otsego County,NY,70.55016181229773
13327,Lewis County,NY,96.44012944983818
14075,Erie County,NY,9.06148867313916
14120,Niagara County,NY,4.207119741100324
14132,Niagara County,NY,63.43042071197411
14211,Erie County,NY,34.627831715210355
14305,Niagara County,NY,5.501618122977346
14580,Monroe County,NY,1.2944983818770228
14617,Monroe County,NY,6.148867313915858
14621,Monroe County,NY,0.6472491909385114
14830,Steuben County,NY,24.271844660194176
14858,Steuben County,NY,91.9093851132686
27613,Wake County,NC,50.48543689320388
27703,Durham County,NC,38.51132686084142
27870,Halifax County,NC,23.948220064724918
27962,Washington County,NC,69.25566343042071
28110,Union County,NC,22.006472491909385
28173,Union County,NC,39.80582524271845
28303,Cumberland County,NC,56.310679611650485
43035,Delaware County,OH,71.19741100323624
43213,Franklin County,OH,10.032362459546926
43228,Franklin County,OH,2.912621359223301
43615,Lucas County,OH,3.2362459546925564
43764,Perry County,OH,67.31391585760518
44436,Mahoning County,OH,96.11650485436894
44485,Trumbull County,OH,15.857605177993527
44691,Wayne County,OH,7.766990291262135
44820,Crawford County,OH,21.68284789644013
45227,Hamilton County,OH,49.51456310679612
45248,Hamilton County,OH,55.98705501618123
45356,Miami County,OH,13.915857605177994
45365,Shelby County,OH,11.650485436893204
45385,Greene County,OH,11.326860841423949
45769,Meigs County,OH,62.45954692556634
97304,Polk County,OR,82.84789644012946
97305,Marion County,OR,27.184466019417474
97386,Linn County,OR,49.83818770226537
97402,Lane County,OR,19.41747572815534
15010,Beaver County,PA,55.33980582524271
16066,Butler County,PA,64.72491909385113
16101,Lawrence County,PA,5.825242718446602
16417,Erie County,PA,79.6116504854369
16441,Erie County,PA,76.69902912621359
16505,Erie County,PA,68.93203883495146
16635,Blair County,PA,74.75728155339806
18951,Bucks County,PA,18.12297734627832
19078,Delaware County,PA,85.43689320388349
19136,Philadelphia County,PA,10.679611650485436
19146,Philadelphia County,PA,45.63106796116505
19320,Chester County,PA,9.70873786407767
19401,Montgomery County,PA,9.385113268608414
02910,Providence County,RI,52.42718446601942
29556,Williamsburg County,SC,61.81229773462783
29588,Horry County,SC,37.86407766990291
29611,Greenville County,SC,12.297734627831716
29640,Pickens County,SC,22.653721682847898
29715,York County,SC,65.69579288025889
29803,Aiken County,SC,42.07119741100323
37027,Williamson County,TN,40.45307443365696
37034,Marshall County,TN,81.22977346278317
37303,McMinn County,TN,23.300970873786408
37329,McMinn County,TN,76.05177993527508
37355,Coffee County,TN,35.59870550161812
37865,Sevier County,TN,70.87378640776699
37931,Knox County,TN,41.74757281553398
75002,Collin County,TX,21.35922330097087
75060,Dallas County,TX,41.42394822006473
75126,Kaufman County,TX,33.00970873786408
75228,Dallas County,TX,6.472491909385113
77036,Harris County,TX,54.0453074433657
77079,Harris County,TX,73.13915857605178
77328,San Jacinto County,TX,75.72815533980582
77339,Harris County,TX,58.57605177993528
77346,Harris County,TX,20.388349514563107
77372,Montgomery County,TX,86.73139158576052
78109,Bexar County,TX,48.22006472491909
78130,Comal County,TX,23.624595469255663
78132,Comal County,TX,70.22653721682848
78163,Comal County,TX,87.70226537216828
78217,Bexar County,TX,66.01941747572816
78219,Bexar County,TX,75.40453074433657
78247,Bexar County,TX,54.69255663430421
78255,Bexar County,TX,97.73462783171522
79915,El Paso County,TX,78.96440129449837
84060,Summit County,UT,89.96763754045307
84119,Salt Lake County,UT,11.974110032362459
84664,Utah County,UT,95.14563106796116
20110,Manassas city,VA,36.56957928802589
20120,Fairfax County,VA,54.36893203883495
22153,Fairfax County,VA,59.54692556634305
22204,Arlington County,VA,29.773462783171524
22630,Warren County,VA,26.21359223300971
22728,Fauquier County,VA,100
22815,Rockingham County,VA,77.02265372168284
23222,Richmond city,VA,16.181229773462782
24018,Roanoke County,VA,47.57281553398058
24060,Montgomery County,VA,84.78964401294499
24078,Henry County,VA,83.1715210355987
24540,Danville city,VA,29.449838187702266
98270,Snohomish County,WA,17.475728155339805
99006,Spokane County,WA,93.52750809061489
20001,District of Columbia,DC,19.741100323624593
25311,Kanawha County,WV,67.96116504854369
25801,Raleigh County,WV,12.62135922330097
53548,Rock County,WI,26.860841423948216
53563,Rock County,WI,78.64077669902912
