ZipCode,county,state,Youth,Pediatric,Adult
35007,Shelby County,AL,NA,NA,52.46153846153846
35049,Blount County,AL,88.46153846153845,NA,NA
35125,St. Clair County,AL,NA,89.65517241379311,NA
35210,Jefferson County,AL,NA,87.192118226601,NA
35218,Jefferson County,AL,NA,83.74384236453201,NA
35235,Jefferson County,AL,NA,NA,56.30769230769231
35756,Limestone County,AL,NA,NA,77.53846153846153
35976,Marshall County,AL,NA,NA,48
36305,Houston County,AL,NA,NA,82.76923076923077
99504,Anchorage Municipality,AK,NA,NA,24
99507,Anchorage Municipality,AK,NA,61.083743842364534,NA
99835,Sitka City and Borough,AK,27.692307692307693,NA,NA
85009,Maricopa County,AZ,NA,10.83743842364532,NA
85029,Maricopa County,AZ,NA,NA,25.076923076923073
85041,Maricopa County,AZ,NA,7.389162561576355,NA
85042,Maricopa County,AZ,NA,NA,28.76923076923077
85225,Maricopa County,AZ,NA,57.14285714285714,NA
85296,Maricopa County,AZ,26.923076923076923,NA,NA
85364,Yuma County,AZ,41.53846153846154,NA,NA
85365,Yuma County,AZ,NA,NA,62.153846153846146
85501,Gila County,AZ,NA,63.54679802955665,NA
85530,Graham County,AZ,NA,NA,86.15384615384616
85607,Cochise County,AZ,NA,NA,30.307692307692307
85712,Pima County,AZ,NA,NA,80.15384615384616
85713,Pima County,AZ,NA,NA,7.6923076923076925
85714,Pima County,AZ,NA,NA,66.76923076923077
85715,Pima County,AZ,NA,NA,97.38461538461539
85719,Pima County,AZ,NA,NA,67.23076923076923
85730,Pima County,AZ,NA,NA,28.615384615384613
85745,Pima County,AZ,NA,NA,26.769230769230766
85746,Pima County,AZ,NA,NA,14.307692307692307
85750,Pima County,AZ,NA,NA,87.23076923076924
86001,Coconino County,AZ,NA,NA,23.076923076923077
86033,Navajo County,AZ,NA,NA,85.84615384615385
86045,Coconino County,AZ,NA,36.45320197044335,59.07692307692308
86442,Mohave County,AZ,59.61538461538461,NA,NA
86510,Navajo County,AZ,NA,NA,82.3076923076923
86538,Apache County,AZ,NA,62.06896551724138,NA
72019,Saline County,AR,89.61538461538461,NA,NA
72116,Pulaski County,AR,NA,NA,71.84615384615385
72209,Pulaski County,AR,96.92307692307692,NA,NA
90011,Los Angeles County,CA,NA,NA,26.153846153846157
90012,Los Angeles County,CA,NA,NA,65.23076923076923
90015,Los Angeles County,CA,NA,NA,92.61538461538461
90037,Los Angeles County,CA,NA,NA,39.07692307692307
90064,Los Angeles County,CA,NA,NA,61.53846153846154
90066,Los Angeles County,CA,NA,NA,46.76923076923077
90266,Los Angeles County,CA,NA,NA,62.76923076923077
90277,Los Angeles County,CA,NA,NA,54.769230769230774
90638,Los Angeles County,CA,NA,NA,80.76923076923077
90703,Los Angeles County,CA,NA,NA,62
90745,Los Angeles County,CA,NA,47.783251231527096,NA
90808,Los Angeles County,CA,NA,NA,58.30769230769231
90815,Los Angeles County,CA,NA,NA,51.69230769230769
91206,Los Angeles County,CA,NA,NA,73.23076923076923
91311,Los Angeles County,CA,NA,NA,81.07692307692308
91320,Ventura County,CA,NA,NA,65.84615384615384
91501,Los Angeles County,CA,NA,NA,87.53846153846155
91505,Los Angeles County,CA,NA,NA,72.61538461538461
91792,Los Angeles County,CA,NA,NA,91.6923076923077
92007,San Diego County,CA,NA,95.56650246305419,NA
92020,San Diego County,CA,NA,NA,24.153846153846153
92084,San Diego County,CA,NA,74.38423645320196,58.92307692307692
92102,San Diego County,CA,NA,NA,39.69230769230769
92117,San Diego County,CA,NA,71.42857142857143,NA
92128,San Diego County,CA,NA,NA,93.53846153846153
92201,Riverside County,CA,NA,NA,25.692307692307693
92284,San Bernardino County,CA,93.07692307692308,NA,28.46153846153846
92316,San Bernardino County,CA,NA,70.44334975369459,NA
92345,San Bernardino County,CA,NA,NA,11.23076923076923
92404,San Bernardino County,CA,NA,24.63054187192118,19.692307692307693
92410,San Bernardino County,CA,NA,NA,79.53846153846153
92583,Riverside County,CA,NA,NA,63.53846153846155
92585,Riverside County,CA,70.76923076923077,NA,NA
92592,Riverside County,CA,13.846153846153847,NA,NA
92606,Orange County,CA,NA,NA,91.23076923076923
92629,Orange County,CA,NA,NA,89.6923076923077
92886,Orange County,CA,56.92307692307692,NA,NA
93001,Ventura County,CA,NA,41.37931034482759,29.076923076923077
93004,Ventura County,CA,NA,NA,81.38461538461539
93015,Ventura County,CA,NA,NA,69.84615384615384
93033,Ventura County,CA,NA,3.4482758620689653,NA
93305,Kern County,CA,NA,NA,44.61538461538462
93312,Kern County,CA,NA,NA,92.76923076923077
93436,Santa Barbara County,CA,NA,15.763546798029557,NA
93454,Santa Barbara County,CA,NA,56.65024630541872,NA
93455,Santa Barbara County,CA,NA,50.73891625615764,NA
93458,Santa Barbara County,CA,14.23076923076923,NA,86.3076923076923
93465,San Luis Obispo County,CA,NA,NA,78.76923076923077
93534,Los Angeles County,CA,NA,NA,37.84615384615385
93536,Los Angeles County,CA,34.61538461538461,NA,NA
93610,Madera County,CA,NA,NA,71.53846153846153
93638,Madera County,CA,NA,NA,20.923076923076923
93701,Fresno County,CA,NA,NA,74.92307692307692
93702,Fresno County,CA,NA,NA,31.076923076923073
93722,Fresno County,CA,NA,6.403940886699508,NA
93930,Monterey County,CA,NA,64.5320197044335,NA
94010,San Mateo County,CA,NA,94.08866995073892,NA
94014,San Mateo County,CA,NA,62.5615763546798,75.23076923076924
94019,San Mateo County,CA,NA,59.60591133004927,NA
94025,San Mateo County,CA,NA,NA,50.61538461538462
94044,San Mateo County,CA,NA,NA,79.23076923076923
94063,San Mateo County,CA,NA,NA,45.230769230769226
94070,San Mateo County,CA,NA,NA,79.38461538461539
94102,San Francisco County,CA,NA,NA,9.230769230769232
94112,San Francisco County,CA,53.46153846153846,NA,73.38461538461539
94121,San Francisco County,CA,NA,NA,70.92307692307692
94122,San Francisco County,CA,NA,NA,48.46153846153846
94134,San Francisco County,CA,NA,53.20197044334976,NA
94536,Alameda County,CA,NA,NA,33.69230769230769
94555,Alameda County,CA,NA,NA,67.84615384615384
94601,Alameda County,CA,NA,24.137931034482758,NA
94901,Marin County,CA,50.38461538461539,NA,NA
94965,Marin County,CA,NA,NA,97.84615384615385
95020,Santa Clara County,CA,NA,NA,66.3076923076923
95023,San Benito County,CA,76.15384615384615,NA,NA
95035,Santa Clara County,CA,NA,NA,51.23076923076923
95070,Santa Clara County,CA,NA,NA,80
95076,Santa Cruz County,CA,NA,NA,21.53846153846154
95118,Santa Clara County,CA,NA,NA,63.07692307692307
95127,Santa Clara County,CA,NA,NA,43.07692307692308
95209,San Joaquin County,CA,49.23076923076923,NA,NA
95242,San Joaquin County,CA,NA,NA,68.46153846153847
95350,Stanislaus County,CA,NA,NA,20.76923076923077
95616,Yolo County,CA,70,NA,NA
95648,Placer County,CA,NA,NA,61.846153846153854
95670,Sacramento County,CA,NA,NA,35.69230769230769
95678,Placer County,CA,56.53846153846154,NA,NA
95747,Placer County,CA,NA,68.4729064039409,NA
95762,El Dorado County,CA,NA,NA,78.15384615384615
95963,Glenn County,CA,83.84615384615385,NA,NA
95973,Butte County,CA,37.69230769230769,NA,24.76923076923077
80011,Arapahoe County,CO,NA,11.330049261083744,8.76923076923077
80015,Arapahoe County,CO,NA,NA,20.307692307692307
80016,Arapahoe County,CO,4.230769230769231,87.68472906403942,NA
80017,Arapahoe County,CO,NA,NA,40.30769230769231
80111,Arapahoe County,CO,45.76923076923077,NA,NA
80112,Arapahoe County,CO,38.84615384615385,NA,NA
80202,Denver County,CO,NA,NA,53.38461538461539
80207,Denver County,CO,63.07692307692307,NA,NA
80233,Adams County,CO,15.769230769230768,NA,NA
80247,Arapahoe County,CO,NA,NA,41.53846153846154
80537,Larimer County,CO,NA,NA,23.53846153846154
80550,Weld County,CO,48.07692307692308,NA,NA
80654,Morgan County,CO,NA,NA,95.53846153846153
80723,Morgan County,CO,NA,NA,74.76923076923076
81004,Pueblo County,CO,NA,NA,27.384615384615387
81401,Montrose County,CO,NA,NA,76.61538461538461
81521,Mesa County,CO,71.53846153846153,NA,NA
06002,Hartford County,CT,NA,NA,87.07692307692308
06010,Hartford County,CT,NA,NA,32
06040,Hartford County,CT,NA,NA,11.384615384615385
06042,Hartford County,CT,NA,63.05418719211823,NA
06053,Hartford County,CT,NA,17.24137931034483,12.307692307692308
06074,Hartford County,CT,NA,78.81773399014779,NA
06082,Hartford County,CT,45,NA,NA
06095,Hartford County,CT,NA,NA,70.76923076923077
06108,Hartford County,CT,NA,23.645320197044335,NA
06111,Hartford County,CT,NA,NA,40
06114,Hartford County,CT,NA,NA,19.230769230769234
06401,New Haven County,CT,NA,NA,33.23076923076923
06513,New Haven County,CT,NA,13.793103448275861,NA
06515,New Haven County,CT,NA,NA,32.30769230769231
06516,New Haven County,CT,NA,NA,8.153846153846153
06810,Fairfield County,CT,NA,NA,17.846153846153847
06811,Fairfield County,CT,NA,NA,75.53846153846155
06878,Fairfield County,CT,91.15384615384615,NA,NA
19711,New Castle County,DE,48.46153846153846,NA,NA
19713,New Castle County,DE,20.384615384615383,NA,NA
32608,Alachua County,FL,NA,NA,8.461538461538462
32763,Volusia County,FL,75.38461538461539,NA,NA
32814,Orange County,FL,NA,NA,98
32935,Brevard County,FL,NA,NA,21.53846153846154
33141,Miami-Dade County,FL,NA,NA,60.46153846153847
33147,Miami-Dade County,FL,NA,NA,34.76923076923077
33165,Miami-Dade County,FL,53.07692307692308,NA,NA
33916,Lee County,FL,50.76923076923077,NA,NA
34208,Manatee County,FL,NA,NA,28.923076923076923
34746,Osceola County,FL,39.61538461538461,NA,NA
30016,Newton County,GA,15,NA,NA
30032,DeKalb County,GA,22.692307692307693,NA,NA
30041,Forsyth County,GA,43.84615384615385,NA,NA
30252,Henry County,GA,NA,NA,41.07692307692308
30310,Fulton County,GA,NA,NA,25.23076923076923
30311,Fulton County,GA,NA,NA,17.692307692307693
30316,DeKalb County,GA,NA,NA,54.92307692307692
30318,Fulton County,GA,NA,39.40886699507389,NA
30350,Fulton County,GA,NA,75.86206896551724,NA
30605,Clarke County,GA,NA,NA,56.15384615384615
30701,Gordon County,GA,NA,NA,33.53846153846154
30906,Richmond County,GA,6.153846153846154,NA,NA
31322,Chatham County,GA,93.84615384615384,NA,NA
31331,McIntosh County,GA,NA,NA,92.15384615384615
31569,Camden County,GA,90,NA,NA
31601,Lowndes County,GA,72.6923076923077,NA,NA
31750,Ben Hill County,GA,87.3076923076923,NA,NA
96707,Honolulu County,HI,20.76923076923077,NA,NA
96750,Hawaii County,HI,NA,NA,100
96816,Honolulu County,HI,NA,NA,34
83221,Bingham County,ID,50,NA,NA
83274,Bingham County,ID,85.76923076923076,91.62561576354679,NA
83501,Nez Perce County,ID,NA,47.29064039408867,15.692307692307692
83642,Ada County,ID,NA,49.26108374384236,50.30769230769231
60007,Cook County,IL,84.23076923076923,NA,NA
60022,Cook County,IL,NA,NA,87.6923076923077
60026,Cook County,IL,NA,NA,88.76923076923077
60030,Lake County,IL,30.384615384615383,NA,NA
60035,Lake County,IL,43.07692307692308,NA,46.61538461538461
60046,Lake County,IL,NA,NA,40.61538461538461
60050,McHenry County,IL,NA,NA,70.15384615384616
60102,McHenry County,IL,NA,NA,48.92307692307693
60103,DuPage County,IL,30,NA,NA
60118,Kane County,IL,64.23076923076924,NA,NA
60124,Kane County,IL,52.69230769230769,NA,NA
60153,Cook County,IL,NA,NA,41.07692307692308
60154,Cook County,IL,NA,NA,52.92307692307693
60172,DuPage County,IL,NA,NA,90.92307692307692
60174,Kane County,IL,68.46153846153847,NA,NA
60201,Cook County,IL,NA,NA,46.30769230769231
60402,Cook County,IL,NA,NA,13.230769230769232
60403,Will County,IL,52.307692307692314,NA,NA
60406,Cook County,IL,NA,NA,55.230769230769226
60415,Cook County,IL,NA,NA,82.15384615384616
60423,Will County,IL,NA,NA,43.07692307692308
60435,Will County,IL,NA,NA,11.538461538461538
60448,Will County,IL,NA,NA,89.07692307692308
60453,Cook County,IL,48.84615384615385,NA,NA
60467,Cook County,IL,NA,NA,52.15384615384615
60477,Cook County,IL,NA,NA,29.230769230769234
60487,Cook County,IL,NA,NA,56.46153846153846
60491,Will County,IL,29.615384615384617,NA,NA
60515,DuPage County,IL,NA,NA,42.769230769230774
60517,DuPage County,IL,NA,NA,41.692307692307686
60540,DuPage County,IL,44.61538461538462,NA,31.538461538461537
60558,Cook County,IL,NA,NA,83.53846153846153
60565,DuPage County,IL,NA,NA,64.76923076923077
60586,Will County,IL,NA,NA,16.615384615384617
60607,Cook County,IL,NA,NA,50.92307692307693
60615,Cook County,IL,NA,NA,26.461538461538463
60623,Cook County,IL,NA,NA,32.92307692307692
60630,Cook County,IL,34.61538461538461,NA,NA
60632,Cook County,IL,NA,NA,15.230769230769232
60637,Cook County,IL,NA,NA,47.53846153846154
60653,Cook County,IL,NA,NA,32.30769230769231
60656,Cook County,IL,NA,NA,50
61080,Winnebago County,IL,94.23076923076923,NA,NA
61310,Lee County,IL,NA,NA,98.46153846153847
61360,LaSalle County,IL,99.23076923076923,NA,NA
61520,Fulton County,IL,86.15384615384616,NA,NA
61944,Edgar County,IL,NA,NA,76.92307692307693
61951,Moultrie County,IL,78.07692307692308,NA,NA
46113,Marion County,IN,NA,NA,67.6923076923077
46168,Hendricks County,IN,83.07692307692308,NA,42
46202,Marion County,IN,NA,NA,62.46153846153846
46321,Lake County,IN,21.153846153846153,NA,NA
46342,Lake County,IN,NA,NA,6.153846153846154
46701,Noble County,IN,NA,NA,89.38461538461539
46845,Allen County,IN,36.92307692307693,NA,NA
46979,Howard County,IN,80.38461538461539,NA,NA
47331,Fayette County,IN,NA,85.22167487684729,NA
47362,Henry County,IN,34.23076923076923,NA,70.61538461538461
47546,Dubois County,IN,NA,NA,54
47802,Vigo County,IN,NA,NA,25.538461538461537
50701,Black Hawk County,IA,22.692307692307693,NA,NA
50702,Black Hawk County,IA,NA,NA,44.92307692307692
51501,Pottawattamie County,IA,NA,33.497536945812804,NA
51632,Page County,IA,NA,NA,76.46153846153845
52101,Winneshiek County,IA,NA,NA,88.46153846153845
52353,Washington County,IA,NA,73.89162561576354,NA
52803,Scott County,IA,NA,NA,36.769230769230774
66032,Anderson County,KS,89.23076923076924,NA,NA
66538,Nemaha County,KS,NA,NA,93.23076923076923
40019,Henry County,KY,95.38461538461539,NA,NA
40391,Clark County,KY,NA,NA,9.846153846153847
41001,Campbell County,KY,NA,NA,65.6923076923077
41031,Harrison County,KY,NA,NA,94.46153846153847
41164,Carter County,KY,NA,NA,35.38461538461539
42129,Metcalfe County,KY,NA,NA,58.15384615384615
70003,Jefferson Parish,LA,NA,4.433497536945813,NA
70114,Orleans Parish,LA,NA,NA,38.15384615384615
70117,Orleans Parish,LA,NA,NA,5.076923076923077
70126,Orleans Parish,LA,NA,29.55665024630542,NA
70363,Terrebonne Parish,LA,NA,NA,22.923076923076923
70394,Lafourche Parish,LA,NA,NA,79.07692307692308
70433,St. Tammany Parish,LA,4.615384615384616,NA,NA
70435,St. Tammany Parish,LA,NA,NA,53.53846153846153
70452,St. Tammany Parish,LA,NA,61.57635467980296,NA
70506,Lafayette Parish,LA,29.230769230769234,NA,6.615384615384616
70510,Vermilion Parish,LA,NA,NA,38.46153846153847
70548,Vermilion Parish,LA,63.07692307692307,NA,NA
70669,Calcasieu Parish,LA,56.15384615384615,NA,NA
70714,East Baton Rouge Parish,LA,NA,92.11822660098522,NA
70805,East Baton Rouge Parish,LA,23.46153846153846,NA,NA
71006,Bossier Parish,LA,NA,NA,53.69230769230769
71047,Caddo Parish,LA,NA,NA,53.230769230769226
71055,Webster Parish,LA,28.846153846153843,NA,NA
71405,Rapides Parish,LA,70,NA,NA
03904,York County,ME,NA,NA,76.3076923076923
04572,Lincoln County,ME,NA,75.86206896551724,NA
04841,Knox County,ME,NA,69.45812807881774,NA
04901,Kennebec County,ME,NA,NA,25.846153846153847
20707,Prince George's County,MD,NA,NA,68
20744,Prince George's County,MD,NA,NA,47.69230769230769
20877,Montgomery County,MD,NA,NA,77.23076923076924
20904,Montgomery County,MD,NA,NA,60
21202,Baltimore city,MD,NA,NA,44.30769230769231
21205,Baltimore city,MD,NA,NA,49.23076923076923
21221,Baltimore County,MD,38.46153846153847,NA,NA
21230,Baltimore city,MD,NA,NA,36.92307692307693
01002,Hampshire County,MA,81.53846153846153,NA,NA
01056,Hampden County,MA,NA,78.81773399014779,NA
01267,Berkshire County,MA,84.23076923076923,NA,NA
01301,Franklin County,MA,74.23076923076923,NA,NA
01373,Franklin County,MA,88.46153846153845,NA,NA
01420,Worcester County,MA,NA,NA,26.30769230769231
01440,Worcester County,MA,NA,NA,2
01463,Middlesex County,MA,49.61538461538461,NA,NA
01473,Worcester County,MA,NA,NA,92.46153846153847
01519,Worcester County,MA,NA,NA,88.3076923076923
01545,Worcester County,MA,NA,NA,19.538461538461537
01570,Worcester County,MA,NA,NA,23.846153846153847
01610,Worcester County,MA,NA,NA,0.9230769230769231
01757,Worcester County,MA,NA,NA,16.307692307692307
01778,Middlesex County,MA,81.53846153846153,NA,NA
01801,Middlesex County,MA,NA,NA,1.6923076923076923
01803,Middlesex County,MA,NA,NA,53.84615384615385
01826,Middlesex County,MA,NA,NA,76.76923076923077
01844,Essex County,MA,NA,NA,22.615384615384613
01850,Middlesex County,MA,NA,NA,9.076923076923077
01867,Middlesex County,MA,24.615384615384617,NA,NA
01880,Middlesex County,MA,NA,NA,85.38461538461539
01886,Middlesex County,MA,NA,NA,72.46153846153847
01890,Middlesex County,MA,NA,NA,46
01906,Essex County,MA,16.538461538461537,NA,35.53846153846154
01913,Essex County,MA,32.69230769230769,NA,NA
01915,Essex County,MA,NA,64.03940886699507,2.307692307692308
01923,Essex County,MA,1.153846153846154,NA,NA
01945,Essex County,MA,NA,NA,42.92307692307693
01950,Essex County,MA,58.84615384615385,NA,22.30769230769231
01960,Essex County,MA,NA,NA,69.38461538461539
02026,Norfolk County,MA,NA,NA,5.384615384615385
02048,Bristol County,MA,NA,NA,88
02053,Norfolk County,MA,NA,NA,49.69230769230769
02067,Norfolk County,MA,NA,NA,57.53846153846154
02072,Norfolk County,MA,NA,19.21182266009852,NA
02114,Suffolk County,MA,71.92307692307692,NA,NA
02116,Suffolk County,MA,NA,NA,17.384615384615383
02119,Suffolk County,MA,3.076923076923077,NA,0
02121,Suffolk County,MA,NA,NA,4.615384615384616
02124,Suffolk County,MA,NA,NA,5.846153846153846
02127,Suffolk County,MA,NA,37.93103448275862,NA
02128,Suffolk County,MA,NA,NA,0.46153846153846156
02129,Suffolk County,MA,NA,76.84729064039408,61.69230769230769
02130,Suffolk County,MA,NA,NA,65.53846153846153
02131,Suffolk County,MA,NA,41.87192118226601,59.38461538461538
02134,Suffolk County,MA,NA,NA,13.384615384615383
02138,Middlesex County,MA,NA,NA,14.000000000000002
02139,Middlesex County,MA,NA,NA,3.6923076923076925
02142,Middlesex County,MA,NA,NA,99.84615384615385
02143,Middlesex County,MA,NA,NA,6.3076923076923075
02144,Middlesex County,MA,65,NA,NA
02145,Middlesex County,MA,NA,NA,5.538461538461538
02148,Middlesex County,MA,0.38461538461538464,0.9852216748768473,2.769230769230769
02149,Middlesex County,MA,NA,NA,0.15384615384615385
02151,Suffolk County,MA,NA,NA,46.92307692307692
02152,Suffolk County,MA,58.46153846153847,NA,72.3076923076923
02155,Middlesex County,MA,NA,75.36945812807882,NA
02169,Norfolk County,MA,NA,NA,0.6153846153846154
02180,Middlesex County,MA,19.230769230769234,NA,NA
02186,Norfolk County,MA,51.92307692307693,NA,74
02191,Norfolk County,MA,NA,NA,64
02301,Plymouth County,MA,NA,NA,43.84615384615385
02302,Plymouth County,MA,17.692307692307693,NA,NA
02324,Plymouth County,MA,NA,98.52216748768473,12.153846153846153
02332,Plymouth County,MA,NA,NA,71.84615384615385
02346,Plymouth County,MA,80,NA,NA
02368,Norfolk County,MA,NA,NA,2.6153846153846154
02370,Plymouth County,MA,28.076923076923077,NA,NA
02382,Plymouth County,MA,NA,NA,97.6923076923077
02421,Middlesex County,MA,NA,NA,84.61538461538461
02453,Middlesex County,MA,NA,NA,10
02458,Middlesex County,MA,22.30769230769231,NA,NA
02467,Norfolk County,MA,NA,NA,49.07692307692308
02476,Middlesex County,MA,NA,NA,38.92307692307692
02481,Norfolk County,MA,NA,NA,57.230769230769226
02492,Norfolk County,MA,78.46153846153847,NA,NA
02539,Dukes County,MA,65.76923076923077,NA,NA
02632,Barnstable County,MA,NA,NA,77.38461538461539
02720,Bristol County,MA,NA,NA,17.076923076923077
02721,Bristol County,MA,NA,NA,13.076923076923078
02723,Bristol County,MA,NA,NA,3.230769230769231
02760,Bristol County,MA,NA,NA,12.615384615384615
48073,Oakland County,MI,NA,NA,31.846153846153847
48076,Oakland County,MI,18.076923076923077,NA,NA
48081,Macomb County,MI,25,NA,NA
48084,Oakland County,MI,75.76923076923077,NA,78.61538461538461
48085,Oakland County,MI,NA,NA,33.23076923076923
48089,Macomb County,MI,5.384615384615385,NA,NA
48126,Wayne County,MI,8.846153846153847,NA,37.53846153846154
48127,Wayne County,MI,NA,NA,43.53846153846154
48141,Wayne County,MI,14.615384615384617,NA,NA
48146,Wayne County,MI,NA,NA,34.15384615384615
48154,Wayne County,MI,NA,NA,73.53846153846155
48165,Oakland County,MI,NA,NA,77.84615384615384
48168,Wayne County,MI,NA,NA,79.6923076923077
48170,Wayne County,MI,NA,NA,94.76923076923077
48176,Washtenaw County,MI,NA,NA,71.23076923076923
48178,Oakland County,MI,NA,NA,35.07692307692308
48180,Wayne County,MI,NA,NA,3.3846153846153846
48183,Wayne County,MI,NA,NA,84.46153846153847
48185,Wayne County,MI,NA,NA,6.461538461538462
48187,Wayne County,MI,75,NA,57.07692307692308
48188,Wayne County,MI,NA,NA,44
48192,Wayne County,MI,NA,81.2807881773399,NA
48195,Wayne County,MI,32.30769230769231,NA,57.230769230769226
48197,Washtenaw County,MI,NA,22.167487684729064,16.46153846153846
48201,Wayne County,MI,NA,NA,90.76923076923077
48204,Wayne County,MI,NA,NA,11.076923076923077
48219,Wayne County,MI,NA,19.704433497536947,NA
48221,Wayne County,MI,NA,51.231527093596064,NA
48224,Wayne County,MI,NA,NA,3.076923076923077
48230,Wayne County,MI,55.00000000000001,NA,NA
48236,Wayne County,MI,NA,NA,86.46153846153845
48237,Oakland County,MI,NA,88.66995073891626,NA
48238,Wayne County,MI,NA,NA,45.07692307692307
48239,Wayne County,MI,NA,NA,34.61538461538461
48301,Oakland County,MI,NA,NA,64.92307692307693
48302,Oakland County,MI,77.6923076923077,NA,95.6923076923077
48307,Oakland County,MI,NA,NA,20.46153846153846
48314,Macomb County,MI,61.15384615384616,NA,NA
48323,Oakland County,MI,NA,NA,80.46153846153847
48341,Oakland County,MI,NA,91.13300492610837,32.76923076923077
48346,Oakland County,MI,NA,NA,38.76923076923077
48380,Oakland County,MI,NA,NA,92.92307692307692
48381,Oakland County,MI,NA,NA,94.3076923076923
48382,Oakland County,MI,NA,NA,50.153846153846146
48390,Oakland County,MI,NA,NA,40.46153846153846
48504,Genesee County,MI,NA,20.19704433497537,NA
48603,Saginaw County,MI,NA,NA,78.92307692307692
48624,Gladwin County,MI,NA,NA,82.61538461538461
48640,Midland County,MI,43.46153846153846,NA,NA
48706,Bay County,MI,8.461538461538462,NA,NA
48768,Tuscola County,MI,84.23076923076923,NA,NA
48843,Livingston County,MI,NA,NA,43.38461538461538
48858,Isabella County,MI,NA,NA,7.076923076923077
48883,Isabella County,MI,NA,NA,91.38461538461539
49006,Kalamazoo County,MI,NA,NA,52
49009,Kalamazoo County,MI,NA,NA,71.53846153846153
49053,Kalamazoo County,MI,NA,NA,99.53846153846155
49065,Van Buren County,MI,NA,NA,99.23076923076923
49093,St. Joseph County,MI,NA,65.51724137931035,NA
49286,Lenawee County,MI,NA,NA,56.61538461538461
49301,Kent County,MI,NA,NA,91.84615384615384
49316,Kent County,MI,NA,NA,87.38461538461539
49333,Barry County,MI,86.53846153846155,NA,NA
49348,Allegan County,MI,82.6923076923077,NA,NA
49401,Ottawa County,MI,47.30769230769231,NA,NA
49408,Allegan County,MI,NA,NA,78
49415,Muskegon County,MI,NA,92.61083743842364,NA
49426,Ottawa County,MI,NA,NA,42.30769230769231
49442,Muskegon County,MI,NA,16.25615763546798,NA
49503,Kent County,MI,NA,NA,11.846153846153847
49504,Kent County,MI,NA,32.01970443349754,16
49505,Kent County,MI,NA,80.29556650246306,NA
49506,Kent County,MI,60.38461538461538,NA,NA
49507,Kent County,MI,NA,28.57142857142857,NA
49508,Kent County,MI,2.6923076923076925,NA,NA
49525,Kent County,MI,NA,NA,36
49546,Kent County,MI,47.30769230769231,NA,70
49735,Otsego County,MI,NA,NA,34.30769230769231
49855,Marquette County,MI,NA,NA,46.46153846153846
55011,Anoka County,MN,NA,97.53694581280789,NA
55051,Kanabec County,MN,NA,NA,61.23076923076923
55066,Goodhue County,MN,NA,NA,47.38461538461539
55125,Washington County,MN,30.384615384615383,NA,NA
55318,Carver County,MN,NA,NA,59.07692307692308
55371,Mille Lacs County,MN,NA,NA,52.15384615384615
55387,Carver County,MN,NA,NA,90.3076923076923
55405,Hennepin County,MN,NA,NA,37.69230769230769
55409,Hennepin County,MN,40.38461538461539,NA,NA
55411,Hennepin County,MN,0,NA,NA
55423,Hennepin County,MN,NA,NA,22.153846153846153
55426,Hennepin County,MN,41.92307692307693,NA,NA
55429,Hennepin County,MN,NA,14.77832512315271,NA
55430,Hennepin County,MN,NA,NA,20.615384615384617
55436,Hennepin County,MN,61.15384615384616,NA,NA
55444,Hennepin County,MN,NA,NA,57.692307692307686
55803,St. Louis County,MN,NA,NA,68.61538461538461
55912,Mower County,MN,46.92307692307692,NA,7.846153846153846
55987,Winona County,MN,NA,NA,9.692307692307692
56159,Cottonwood County,MN,NA,100,NA
56256,Lac qui Parle County,MN,94.61538461538461,NA,NA
56649,Koochiching County,MN,NA,NA,57.99999999999999
56721,Polk County,MN,36.15384615384615,NA,55.07692307692308
56750,Red Lake County,MN,NA,NA,93.84615384615384
39046,Madison County,MS,NA,40.88669950738916,NA
39074,Scott County,MS,NA,49.75369458128079,NA
39180,Warren County,MS,18.461538461538463,NA,NA
39209,Hinds County,MS,NA,NA,81.6923076923077
39212,Hinds County,MS,NA,NA,70.46153846153847
39272,Hinds County,MS,61.92307692307693,NA,NA
39402,Lamar County,MS,NA,84.23645320197043,NA
39648,Pike County,MS,85.38461538461539,NA,NA
63114,St. Louis County,MO,NA,NA,27.076923076923077
63116,St. Louis city,MO,NA,42.364532019704434,NA
63366,St. Charles County,MO,NA,NA,14.000000000000002
63379,Lincoln County,MO,24.23076923076923,NA,NA
63640,St. Francois County,MO,26.53846153846154,NA,NA
63857,Dunklin County,MO,NA,42.364532019704434,NA
63863,Dunklin County,MO,NA,NA,93.6923076923077
64015,Jackson County,MO,NA,52.70935960591133,44.46153846153847
64055,Jackson County,MO,NA,36.94581280788177,NA
64056,Jackson County,MO,NA,NA,27.692307692307693
64085,Ray County,MO,NA,NA,51.84615384615384
64089,Clay County,MO,NA,71.42857142857143,NA
64093,Johnson County,MO,NA,NA,68.15384615384616
64111,Jackson County,MO,NA,69.95073891625616,28.000000000000004
64124,Jackson County,MO,NA,NA,72.15384615384616
64126,Jackson County,MO,NA,54.679802955665025,NA
64127,Jackson County,MO,NA,21.67487684729064,NA
64134,Jackson County,MO,NA,NA,14.461538461538462
64152,Platte County,MO,54.230769230769226,NA,21.846153846153847
64157,Clay County,MO,NA,NA,35.23076923076923
65202,Boone County,MO,NA,8.866995073891626,NA
65622,Dallas County,MO,57.692307692307686,NA,NA
59221,Richland County,MT,95.76923076923077,NA,NA
59230,Valley County,MT,NA,NA,96.76923076923077
59401,Cascade County,MT,NA,NA,81.38461538461539
59801,Missoula County,MT,NA,NA,63.69230769230769
68516,Lancaster County,NE,NA,NA,67.07692307692308
89166,Clark County,NV,NA,NA,63.69230769230769
89179,Clark County,NV,93.46153846153847,NA,NA
89410,Douglas County,NV,64.23076923076924,NA,NA
89423,Douglas County,NV,98.07692307692307,NA,NA
03036,Rockingham County,NH,NA,NA,94.92307692307692
03051,Hillsborough County,NH,82.3076923076923,NA,NA
03053,Rockingham County,NH,NA,NA,29.846153846153843
03063,Hillsborough County,NH,NA,NA,45.69230769230769
03076,Hillsborough County,NH,46.15384615384615,NA,NA
03106,Merrimack County,NH,66.53846153846153,NA,79.84615384615384
03431,Cheshire County,NH,59.23076923076923,NA,77.07692307692308
03874,Rockingham County,NH,NA,NA,48.30769230769231
07305,Hudson County,NJ,NA,NA,1.0769230769230769
07650,Bergen County,NJ,NA,NA,67.38461538461539
07940,Morris County,NJ,77.3076923076923,NA,NA
08053,Burlington County,NJ,NA,NA,58.769230769230774
08055,Burlington County,NJ,NA,NA,91.38461538461539
08215,Atlantic County,NJ,NA,NA,37.230769230769226
08226,Cape May County,NJ,87.6923076923077,NA,NA
08801,Hunterdon County,NJ,NA,NA,82.46153846153847
08816,Middlesex County,NJ,NA,NA,35.84615384615385
87031,Valencia County,NM,NA,NA,30.923076923076927
87048,Sandoval County,NM,NA,NA,98.15384615384616
87105,Bernalillo County,NM,NA,NA,22.76923076923077
87106,Bernalillo County,NM,NA,NA,23.384615384615383
87109,Bernalillo County,NM,NA,NA,20
87110,Bernalillo County,NM,5.769230769230769,NA,NA
87111,Bernalillo County,NM,NA,NA,4.461538461538462
87114,Bernalillo County,NM,NA,NA,9.538461538461538
87120,Bernalillo County,NM,NA,NA,55.38461538461539
87121,Bernalillo County,NM,2.307692307692308,NA,NA
87124,Sandoval County,NM,NA,NA,12.461538461538462
87401,San Juan County,NM,NA,NA,49.53846153846154
87416,San Juan County,NM,NA,NA,95.23076923076923
87505,Santa Fe County,NM,NA,NA,5.6923076923076925
88340,Otero County,NM,NA,53.20197044334976,NA
10002,New York County,NY,NA,5.41871921182266,NA
10026,New York County,NY,NA,44.827586206896555,NA
10028,New York County,NY,79.61538461538461,NA,99.38461538461539
10029,New York County,NY,7.307692307692308,46.30541871921182,NA
10034,New York County,NY,NA,NA,66.92307692307692
10039,New York County,NY,NA,NA,64.46153846153845
10309,Richmond County,NY,NA,NA,59.692307692307686
10451,Bronx County,NY,NA,NA,4
10452,Bronx County,NY,0.7692307692307693,NA,6.923076923076923
10453,Bronx County,NY,NA,NA,1.2307692307692308
10454,Bronx County,NY,NA,12.31527093596059,7.230769230769231
10456,Bronx County,NY,NA,NA,0.3076923076923077
10457,Bronx County,NY,NA,1.9704433497536946,NA
10460,Bronx County,NY,NA,NA,2.4615384615384617
10461,Bronx County,NY,NA,17.733990147783253,NA
10463,Bronx County,NY,NA,NA,8.615384615384615
10467,Bronx County,NY,NA,38.42364532019704,NA
10468,Bronx County,NY,1.9230769230769231,0.49261083743842365,NA
10472,Bronx County,NY,NA,NA,2.923076923076923
10475,Bronx County,NY,NA,NA,58.61538461538461
10533,Westchester County,NY,94.61538461538461,NA,NA
10543,Westchester County,NY,NA,82.75862068965517,NA
10567,Westchester County,NY,91.53846153846153,NA,NA
10701,Westchester County,NY,NA,NA,26.923076923076923
10704,Westchester County,NY,NA,NA,69.6923076923077
10705,Westchester County,NY,NA,NA,36.46153846153846
10801,Westchester County,NY,NA,20.689655172413794,NA
11101,Queens County,NY,NA,NA,56.769230769230774
11102,Queens County,NY,NA,NA,48.15384615384615
11105,Queens County,NY,NA,NA,83.38461538461537
11106,Queens County,NY,41.15384615384615,NA,NA
11201,Kings County,NY,NA,NA,54.46153846153846
11208,Kings County,NY,NA,13.30049261083744,1.3846153846153846
11214,Kings County,NY,NA,39.90147783251231,NA
11216,Kings County,NY,NA,NA,11.692307692307692
11225,Kings County,NY,NA,NA,25.384615384615383
11226,Kings County,NY,NA,2.955665024630542,NA
11233,Kings County,NY,NA,NA,1.8461538461538463
11237,Kings County,NY,NA,8.374384236453201,NA
11365,Queens County,NY,NA,NA,50.46153846153846
11373,Queens County,NY,NA,4.926108374384237,NA
11385,Queens County,NY,NA,12.807881773399016,NA
11416,Queens County,NY,NA,35.467980295566505,NA
11417,Queens County,NY,NA,47.783251231527096,NA
11419,Queens County,NY,NA,NA,40.92307692307692
11436,Queens County,NY,NA,55.66502463054187,69.23076923076923
11779,Suffolk County,NY,NA,57.635467980295566,NA
12037,Columbia County,NY,NA,NA,89.84615384615384
12043,Schoharie County,NY,NA,NA,56.00000000000001
12116,Otsego County,NY,NA,NA,94.15384615384616
12122,Schoharie County,NY,81.15384615384616,NA,NA
12148,Saratoga County,NY,NA,NA,95.84615384615385
12157,Schoharie County,NY,NA,88.17733990147784,NA
12180,Rensselaer County,NY,7.6923076923076925,NA,15.846153846153847
12189,Albany County,NY,54.61538461538461,NA,NA
12953,Franklin County,NY,NA,NA,51.07692307692307
13027,Onondaga County,NY,21.53846153846154,NA,NA
13108,Onondaga County,NY,NA,NA,85.6923076923077
13148,Seneca County,NY,NA,NA,86.92307692307692
13165,Seneca County,NY,69.61538461538461,NA,NA
13204,Onondaga County,NY,NA,27.586206896551722,NA
13339,Montgomery County,NY,NA,NA,55.69230769230769
13340,Herkimer County,NY,NA,NA,80.61538461538461
13346,Madison County,NY,NA,NA,91.07692307692308
13662,St. Lawrence County,NY,NA,NA,8.923076923076923
13790,Broome County,NY,NA,NA,10.307692307692308
13815,Chenango County,NY,NA,NA,15.384615384615385
13820,Otsego County,NY,NA,NA,10.615384615384615
13850,Broome County,NY,NA,NA,18
13901,Broome County,NY,62.30769230769231,44.33497536945813,39.84615384615385
13905,Broome County,NY,NA,NA,2.1538461538461537
14020,Genesee County,NY,NA,NA,13.538461538461538
14032,Erie County,NY,NA,NA,97.23076923076923
14127,Erie County,NY,NA,NA,47.23076923076923
14206,Erie County,NY,NA,NA,14.76923076923077
14217,Erie County,NY,NA,NA,96.3076923076923
14220,Erie County,NY,NA,NA,63.23076923076923
14424,Ontario County,NY,31.538461538461537,NA,NA
14456,Ontario County,NY,NA,NA,51.53846153846153
14519,Wayne County,NY,67.3076923076923,NA,NA
14534,Monroe County,NY,NA,NA,7.384615384615385
14546,Monroe County,NY,97.3076923076923,NA,NA
14548,Ontario County,NY,67.6923076923077,NA,NA
14610,Monroe County,NY,NA,NA,62.92307692307693
14612,Monroe County,NY,6.538461538461539,NA,NA
14613,Monroe County,NY,NA,NA,12.923076923076923
14619,Monroe County,NY,NA,NA,15.538461538461537
14620,Monroe County,NY,NA,NA,6.615384615384616
14621,Monroe County,NY,NA,9.852216748768473,NA
14710,Chautauqua County,NY,90,NA,NA
14810,Steuben County,NY,NA,NA,33.84615384615385
14867,Tompkins County,NY,NA,NA,84.3076923076923
27011,Yadkin County,NC,NA,95.07389162561576,NA
27028,Davie County,NC,21.923076923076923,NA,NA
27101,Forsyth County,NC,NA,45.320197044334975,NA
27106,Forsyth County,NC,NA,84.72906403940887,NA
27107,Forsyth County,NC,NA,9.852216748768473,NA
27127,Forsyth County,NC,NA,NA,93.07692307692308
27262,Guilford County,NC,NA,NA,42.46153846153846
27265,Guilford County,NC,NA,NA,22
27284,Forsyth County,NC,33.84615384615385,NA,NA
27320,Rockingham County,NC,NA,30.541871921182267,12
27330,Lee County,NC,NA,NA,88.76923076923077
27408,Guilford County,NC,78.84615384615384,NA,NA
27541,Person County,NC,90,NA,NA
27545,Wake County,NC,NA,NA,46.15384615384615
27613,Wake County,NC,NA,NA,50.76923076923077
27615,Wake County,NC,NA,NA,41.84615384615385
27707,Durham County,NC,20,NA,NA
28092,Lincoln County,NC,NA,NA,24.307692307692307
28205,Mecklenburg County,NC,NA,29.064039408866993,NA
28208,Mecklenburg County,NC,NA,18.226600985221676,NA
28215,Mecklenburg County,NC,NA,NA,17.23076923076923
28546,Onslow County,NC,NA,NA,59.53846153846154
28734,Macon County,NC,NA,NA,48.769230769230774
28791,Henderson County,NC,NA,67.98029556650246,NA
28792,Henderson County,NC,16.923076923076923,NA,NA
58501,Burleigh County,ND,NA,NA,52.61538461538462
58801,Williams County,ND,NA,NA,37.07692307692308
43017,Franklin County,OH,NA,33.497536945812804,NA
43085,Franklin County,OH,NA,93.59605911330048,NA
43105,Fairfield County,OH,NA,93.10344827586206,NA
43123,Franklin County,OH,NA,21.182266009852217,NA
43201,Franklin County,OH,NA,NA,47.84615384615385
43224,Franklin County,OH,NA,6.896551724137931,NA
43227,Franklin County,OH,NA,43.84236453201971,NA
43230,Franklin County,OH,NA,NA,65.84615384615384
43232,Franklin County,OH,NA,0,NA
43302,Marion County,OH,NA,11.822660098522167,NA
43338,Morrow County,OH,NA,86.20689655172413,NA
43920,Columbiana County,OH,NA,NA,10.153846153846153
43952,Jefferson County,OH,17.307692307692307,NA,8.307692307692308
44011,Lorain County,OH,NA,NA,33.07692307692307
44017,Cuyahoga County,OH,NA,45.812807881773395,68.76923076923077
44024,Geauga County,OH,NA,NA,75.53846153846155
44026,Geauga County,OH,68.84615384615384,NA,NA
44028,Lorain County,OH,NA,NA,84.15384615384616
44035,Lorain County,OH,NA,NA,42.61538461538461
44039,Lorain County,OH,10.76923076923077,NA,NA
44050,Lorain County,OH,NA,NA,96.46153846153847
44052,Lorain County,OH,NA,NA,3.8461538461538463
44089,Erie County,OH,36.92307692307693,NA,NA
44092,Lake County,OH,NA,NA,45.38461538461539
44094,Lake County,OH,23.846153846153847,NA,NA
44102,Cuyahoga County,OH,1.5384615384615385,NA,4.3076923076923075
44104,Cuyahoga County,OH,38.07692307692307,NA,NA
44105,Cuyahoga County,OH,NA,18.7192118226601,NA
44109,Cuyahoga County,OH,NA,1.477832512315271,0.7692307692307693
44111,Cuyahoga County,OH,NA,NA,39.38461538461539
44118,Cuyahoga County,OH,NA,NA,12.769230769230768
44122,Cuyahoga County,OH,NA,55.66502463054187,NA
44125,Cuyahoga County,OH,NA,NA,10.76923076923077
44128,Cuyahoga County,OH,11.153846153846155,7.389162561576355,NA
44129,Cuyahoga County,OH,19.615384615384617,NA,64.61538461538461
44130,Cuyahoga County,OH,NA,NA,5.230769230769231
44131,Cuyahoga County,OH,NA,NA,44.61538461538462
44134,Cuyahoga County,OH,NA,NA,9.384615384615385
44135,Cuyahoga County,OH,NA,31.527093596059114,NA
44136,Cuyahoga County,OH,NA,NA,30.461538461538463
44137,Cuyahoga County,OH,NA,NA,59.84615384615385
44138,Cuyahoga County,OH,33.46153846153846,NA,NA
44142,Cuyahoga County,OH,NA,48.76847290640394,29.69230769230769
44212,Medina County,OH,NA,NA,4.153846153846154
44216,Summit County,OH,NA,NA,61.07692307692307
44224,Summit County,OH,NA,40.39408866995074,NA
44236,Summit County,OH,NA,NA,54.307692307692314
44240,Portage County,OH,NA,NA,30.153846153846153
44444,Trumbull County,OH,NA,NA,52.92307692307693
44481,Trumbull County,OH,NA,NA,29.384615384615387
44514,Mahoning County,OH,16.153846153846153,NA,NA
44621,Tuscarawas County,OH,NA,NA,95.38461538461539
44805,Ashland County,OH,NA,NA,14.615384615384617
44889,Huron County,OH,NA,NA,82
44890,Huron County,OH,NA,NA,42
45044,Butler County,OH,NA,5.911330049261084,NA
45066,Warren County,OH,NA,NA,84.92307692307692
45209,Hamilton County,OH,NA,97.04433497536947,NA
45229,Hamilton County,OH,NA,NA,32.15384615384615
45231,Hamilton County,OH,NA,2.4630541871921183,NA
45239,Hamilton County,OH,NA,NA,66.46153846153847
45245,Clermont County,OH,NA,NA,84.92307692307692
45248,Hamilton County,OH,NA,52.21674876847291,NA
45331,Darke County,OH,NA,NA,28.153846153846153
45424,Montgomery County,OH,NA,NA,57.84615384615385
45432,Greene County,OH,NA,90.14778325123153,NA
45760,Meigs County,OH,NA,58.128078817733986,NA
45764,Athens County,OH,NA,NA,68.92307692307692
73099,Canadian County,OK,NA,NA,14.923076923076922
73160,Cleveland County,OK,NA,24.63054187192118,NA
73529,Stephens County,OK,NA,NA,99.07692307692308
74434,Muskogee County,OK,NA,NA,86.76923076923076
74820,Pontotoc County,OK,8.076923076923077,NA,NA
74948,Sequoyah County,OK,NA,59.60591133004927,NA
74955,Sequoyah County,OK,NA,51.724137931034484,NA
97045,Clackamas County,OR,15.384615384615385,NA,NA
97060,Multnomah County,OR,NA,NA,44.15384615384615
97219,Multnomah County,OR,NA,NA,60.61538461538461
97229,Washington County,OR,9.230769230769232,NA,NA
97302,Marion County,OR,31.538461538461537,NA,NA
97305,Marion County,OR,NA,NA,27.53846153846154
97317,Marion County,OR,NA,NA,71.38461538461539
97330,Benton County,OR,NA,NA,78.46153846153847
97405,Lane County,OR,NA,NA,89.23076923076924
97471,Douglas County,OR,NA,NA,19.846153846153847
97503,Jackson County,OR,83.07692307692308,NA,NA
97701,Deschutes County,OR,NA,NA,90.15384615384615
97756,Deschutes County,OR,NA,NA,38
15005,Beaver County,PA,NA,NA,93.38461538461539
15009,Beaver County,PA,NA,NA,98.3076923076923
15052,Beaver County,PA,100,NA,NA
15089,Westmoreland County,PA,NA,NA,83.07692307692308
15136,Allegheny County,PA,NA,NA,63.38461538461539
15204,Allegheny County,PA,NA,NA,96.61538461538461
15210,Allegheny County,PA,NA,NA,16.76923076923077
15214,Allegheny County,PA,NA,NA,54.46153846153846
15216,Allegheny County,PA,NA,NA,80.92307692307692
15301,Washington County,PA,28.46153846153846,NA,NA
15642,Westmoreland County,PA,NA,NA,80.3076923076923
15650,Westmoreland County,PA,NA,NA,16.923076923076923
15658,Westmoreland County,PA,NA,NA,76.15384615384615
16508,Erie County,PA,NA,NA,52.61538461538462
16602,Blair County,PA,NA,NA,15.076923076923077
16801,Centre County,PA,NA,NA,40.76923076923077
17011,Cumberland County,PA,NA,NA,28.307692307692307
17018,Dauphin County,PA,NA,NA,96.15384615384616
17019,York County,PA,35.38461538461539,NA,NA
17022,Lancaster County,PA,NA,NA,19.076923076923077
17036,Dauphin County,PA,3.8461538461538463,NA,NA
17043,Cumberland County,PA,NA,NA,88.15384615384615
17046,Lebanon County,PA,NA,26.108374384236456,NA
17055,Cumberland County,PA,NA,NA,31.23076923076923
17078,Lebanon County,PA,60.76923076923077,NA,19.384615384615383
17103,Dauphin County,PA,12.692307692307692,NA,NA
17109,Dauphin County,PA,NA,NA,82.92307692307692
17111,Dauphin County,PA,NA,NA,18.153846153846153
17112,Dauphin County,PA,74.61538461538461,NA,49.38461538461538
17402,York County,PA,40.76923076923077,NA,NA
17404,York County,PA,NA,NA,60.15384615384616
17408,York County,PA,NA,NA,43.69230769230769
17502,Lancaster County,PA,97.6923076923077,NA,NA
17516,Lancaster County,PA,73.46153846153847,NA,NA
17543,Lancaster County,PA,NA,NA,56.92307692307692
17801,Northumberland County,PA,NA,NA,22.46153846153846
17815,Columbia County,PA,NA,NA,18.76923076923077
17821,Montour County,PA,NA,NA,26.461538461538463
17857,Northumberland County,PA,NA,NA,66.61538461538463
17921,Schuylkill County,PA,NA,NA,78.3076923076923
17961,Schuylkill County,PA,NA,NA,84
17972,Schuylkill County,PA,NA,NA,85.23076923076923
18015,Northampton County,PA,NA,NA,34.92307692307692
18073,Montgomery County,PA,66.15384615384615,NA,NA
18102,Lehigh County,PA,NA,NA,1.5384615384615385
18210,Carbon County,PA,NA,NA,74.15384615384616
18301,Monroe County,PA,NA,83.2512315270936,NA
18407,Lackawanna County,PA,55.769230769230774,NA,NA
18603,Columbia County,PA,NA,NA,45.53846153846154
18706,Luzerne County,PA,80.38461538461539,NA,NA
18801,Susquehanna County,PA,66.53846153846153,NA,NA
19002,Montgomery County,PA,NA,NA,38.61538461538462
19015,Delaware County,PA,NA,NA,90.61538461538461
19018,Delaware County,PA,NA,NA,29.846153846153843
19035,Montgomery County,PA,NA,NA,90
19041,Delaware County,PA,NA,NA,98.61538461538461
19047,Bucks County,PA,NA,NA,73.07692307692307
19082,Delaware County,PA,NA,25.615763546798032,NA
19115,Philadelphia County,PA,NA,NA,21.076923076923077
19116,Philadelphia County,PA,NA,77.33990147783251,NA
19119,Philadelphia County,PA,NA,NA,92.3076923076923
19145,Philadelphia County,PA,NA,NA,64.15384615384615
19146,Philadelphia County,PA,NA,NA,18.461538461538463
19428,Montgomery County,PA,NA,81.2807881773399,NA
19506,Berks County,PA,NA,NA,83.23076923076923
19547,Berks County,PA,NA,NA,97.53846153846155
19565,Berks County,PA,NA,NA,77.6923076923077
19606,Berks County,PA,76.92307692307693,NA,NA
02806,Bristol County,RI,NA,NA,88.61538461538461
02831,Providence County,RI,95.76923076923077,NA,NA
02852,Washington County,RI,65.38461538461539,NA,NA
02864,Providence County,RI,26.153846153846157,NA,74.61538461538461
02879,Washington County,RI,71.15384615384616,NA,NA
02893,Kent County,RI,NA,NA,36.15384615384615
02920,Providence County,RI,NA,NA,31.692307692307693
29160,Lexington County,SC,NA,80.78817733990148,NA
29456,Dorchester County,SC,25.384615384615383,NA,NA
29520,Chesterfield County,SC,NA,NA,93.84615384615384
29609,Greenville County,SC,NA,89.16256157635468,NA
29627,Anderson County,SC,11.923076923076923,NA,NA
29681,Greenville County,SC,55.38461538461539,NA,NA
57106,Minnehaha County,SD,NA,NA,24.615384615384617
57350,Beadle County,SD,NA,70.44334975369459,NA
57401,Brown County,SD,6.923076923076923,NA,NA
57642,Corson County,SD,NA,NA,98.92307692307692
37128,Rutherford County,TN,NA,NA,30.615384615384617
37185,Humphreys County,TN,76.53846153846153,NA,NA
37410,Hamilton County,TN,NA,NA,96.92307692307692
38106,Shelby County,TN,NA,NA,18.615384615384613
38401,Maury County,TN,NA,NA,8
75007,Denton County,TX,NA,NA,48.61538461538461
75024,Collin County,TX,NA,NA,61.38461538461538
75038,Dallas County,TX,NA,NA,83.6923076923077
75040,Dallas County,TX,NA,NA,67.53846153846153
75054,Tarrant County,TX,NA,NA,86.61538461538461
75062,Dallas County,TX,NA,35.960591133004925,NA
75115,Dallas County,TX,NA,38.91625615763547,NA
75126,Kaufman County,TX,NA,66.50246305418719,NA
75180,Dallas County,TX,NA,33.004926108374384,NA
75203,Dallas County,TX,NA,NA,74.46153846153845
75211,Dallas County,TX,NA,NA,21.23076923076923
75212,Dallas County,TX,NA,30.049261083743843,NA
75224,Dallas County,TX,NA,NA,75.84615384615384
75227,Dallas County,TX,NA,NA,21.384615384615387
75228,Dallas County,TX,NA,34.97536945812808,NA
75229,Dallas County,TX,36.53846153846153,NA,73.84615384615385
75951,Jasper County,TX,NA,65.02463054187191,NA
76053,Tarrant County,TX,NA,32.51231527093596,NA
76119,Tarrant County,TX,NA,9.35960591133005,NA
76164,Tarrant County,TX,NA,55.172413793103445,NA
76210,Denton County,TX,NA,79.80295566502463,NA
76248,Tarrant County,TX,NA,72.9064039408867,NA
76501,Bell County,TX,NA,NA,16
76502,Bell County,TX,NA,NA,17.53846153846154
76504,Bell County,TX,NA,NA,10.923076923076923
76528,Coryell County,TX,NA,NA,31.384615384615383
76541,Bell County,TX,NA,74.8768472906404,NA
76542,Bell County,TX,NA,26.60098522167488,NA
76543,Bell County,TX,NA,46.79802955665024,NA
76655,McLennan County,TX,NA,NA,99.6923076923077
76705,McLennan County,TX,NA,31.03448275862069,NA
76821,Runnels County,TX,98.46153846153847,NA,NA
77015,Harris County,TX,NA,NA,41.38461538461539
77029,Harris County,TX,NA,NA,69.07692307692308
77034,Harris County,TX,NA,23.15270935960591,NA
77040,Harris County,TX,NA,NA,75.07692307692308
77075,Harris County,TX,NA,NA,51.38461538461539
77084,Harris County,TX,NA,22.660098522167488,13.692307692307693
77087,Harris County,TX,NA,58.620689655172406,NA
77093,Harris County,TX,NA,59.60591133004927,NA
77096,Harris County,TX,NA,86.20689655172413,NA
77099,Harris County,TX,NA,27.093596059113302,NA
77375,Harris County,TX,NA,NA,23.692307692307693
77377,Harris County,TX,NA,NA,89.53846153846153
77379,Harris County,TX,11.153846153846155,NA,NA
77498,Fort Bend County,TX,NA,66.99507389162561,NA
77502,Harris County,TX,NA,NA,54.15384615384615
77511,Brazoria County,TX,NA,14.285714285714285,NA
77535,Liberty County,TX,NA,66.00985221674877,NA
77546,Galveston County,TX,NA,NA,27.846153846153847
77550,Galveston County,TX,NA,NA,69.53846153846153
77563,Galveston County,TX,NA,NA,72.92307692307692
77573,Galveston County,TX,NA,NA,10.461538461538462
77591,Galveston County,TX,NA,NA,81.23076923076923
77642,Jefferson County,TX,NA,37.4384236453202,NA
77706,Jefferson County,TX,NA,81.2807881773399,NA
77808,Brazos County,TX,NA,NA,60.76923076923077
78041,Webb County,TX,NA,NA,38.30769230769231
78045,Webb County,TX,53.84615384615385,NA,NA
78076,Zapata County,TX,NA,94.58128078817734,94.61538461538461
78130,Comal County,TX,NA,NA,24.461538461538463
78204,Bexar County,TX,NA,66.99507389162561,NA
78207,Bexar County,TX,NA,28.078817733990146,NA
78209,Bexar County,TX,NA,NA,64.3076923076923
78211,Bexar County,TX,NA,54.187192118226605,NA
78212,Bexar County,TX,NA,NA,81.84615384615384
78221,Bexar County,TX,NA,34.48275862068966,NA
78228,Bexar County,TX,NA,NA,62.30769230769231
78230,Bexar County,TX,NA,96.05911330049261,NA
78612,Bastrop County,TX,72.6923076923077,NA,NA
78613,Williamson County,TX,51.153846153846146,NA,NA
78753,Travis County,TX,NA,NA,83.84615384615385
78852,Maverick County,TX,25.769230769230766,NA,NA
79360,Gaines County,TX,NA,NA,87.84615384615385
79703,Midland County,TX,NA,NA,60.30769230769231
79707,Midland County,TX,13.461538461538462,NA,NA
79912,El Paso County,TX,NA,NA,29.53846153846154
84017,Summit County,UT,91.92307692307692,NA,NA
84020,Salt Lake County,UT,NA,NA,85.84615384615385
84065,Salt Lake County,UT,NA,NA,39.23076923076923
84074,Tooele County,UT,42.30769230769231,NA,4.769230769230769
84078,Uintah County,UT,3.4615384615384617,NA,NA
84095,Salt Lake County,UT,44.230769230769226,NA,NA
84096,Salt Lake County,UT,73.84615384615385,NA,76
84106,Salt Lake County,UT,NA,NA,68.15384615384616
84116,Salt Lake County,UT,NA,NA,30.76923076923077
84120,Salt Lake County,UT,10,NA,NA
84339,Cache County,UT,99.61538461538461,NA,NA
84501,Carbon County,UT,63.84615384615384,NA,NA
84655,Utah County,UT,NA,NA,90.46153846153845
84721,Iron County,UT,NA,NA,66.15384615384615
84790,Washington County,UT,NA,NA,45.84615384615385
05156,Windsor County,VT,NA,NA,65.07692307692308
05676,Washington County,VT,72.3076923076923,NA,NA
20110,Manassas city,VA,NA,NA,36.61538461538461
22315,Fairfax County,VA,92.3076923076923,NA,NA
22701,Culpeper County,VA,NA,42.364532019704434,NA
22960,Orange County,VA,NA,59.11330049261084,NA
23223,Henrico County,VA,NA,15.270935960591133,NA
24015,Roanoke city,VA,NA,NA,73.6923076923077
24073,Montgomery County,VA,67.6923076923077,NA,84.76923076923077
24588,Campbell County,VA,NA,71.42857142857143,NA
98004,King County,WA,NA,99.01477832512316,NA
98012,Snohomish County,WA,NA,77.33990147783251,NA
98021,Snohomish County,WA,NA,NA,55.84615384615385
98023,King County,WA,NA,68.4729064039409,NA
98030,King County,WA,NA,NA,27.23076923076923
98033,King County,WA,51.53846153846153,98.0295566502463,NA
98037,Snohomish County,WA,59.61538461538461,NA,NA
98056,King County,WA,NA,77.33990147783251,NA
98072,King County,WA,NA,NA,96
98074,King County,WA,46.15384615384615,NA,NA
98092,King County,WA,NA,NA,26
98107,King County,WA,NA,NA,97.07692307692307
98110,Kitsap County,WA,NA,NA,62.61538461538462
98115,King County,WA,31.153846153846153,NA,NA
98146,King County,WA,NA,85.71428571428571,NA
98166,King County,WA,69.23076923076923,NA,NA
98178,King County,WA,NA,NA,55.53846153846153
98208,Snohomish County,WA,42.69230769230769,NA,NA
98223,Snohomish County,WA,62.69230769230769,NA,NA
98257,Skagit County,WA,NA,NA,98.76923076923076
98258,Snohomish County,WA,NA,NA,24.923076923076923
98271,Snohomish County,WA,45.38461538461539,NA,NA
98275,Snohomish County,WA,NA,NA,71.07692307692308
98296,Snohomish County,WA,NA,NA,47.07692307692308
98346,Kitsap County,WA,95.76923076923077,NA,NA
98368,Jefferson County,WA,NA,NA,92
98422,Pierce County,WA,58.07692307692308,NA,NA
98466,Pierce County,WA,NA,NA,60.76923076923077
98512,Thurston County,WA,57.30769230769231,NA,NA
98584,Mason County,WA,88.07692307692308,NA,NA
98620,Klickitat County,WA,86.92307692307692,NA,NA
98802,Douglas County,WA,NA,90.14778325123153,NA
99301,Franklin County,WA,NA,3.9408866995073892,NA
99336,Benton County,WA,10.384615384615385,73.39901477832512,13.846153846153847
99337,Benton County,WA,NA,NA,75.38461538461539
20001,District of Columbia,DC,NA,NA,23.076923076923077
20002,District of Columbia,DC,NA,NA,6
20016,District of Columbia,DC,40,NA,NA
20024,District of Columbia,DC,NA,NA,58.46153846153847
20032,District of Columbia,DC,9.615384615384617,NA,NA
25401,Berkeley County,WV,NA,NA,37.38461538461538
25508,Logan County,WV,NA,NA,72.76923076923076
25526,Putnam County,WV,NA,NA,39.53846153846154
25701,Cabell County,WV,NA,NA,18.307692307692307
26301,Harrison County,WV,NA,NA,32.30769230769231
26354,Taylor County,WV,39.23076923076923,NA,NA
26501,Monongalia County,WV,NA,NA,20.153846153846153
26505,Monongalia County,WV,NA,NA,36.15384615384615
26508,Monongalia County,WV,18.461538461538463,NA,NA
26554,Marion County,WV,35.76923076923077,NA,4.923076923076923
53072,Waukesha County,WI,33.07692307692307,NA,NA
53080,Ozaukee County,WI,98.84615384615385,NA,NA
53083,Sheboygan County,WI,NA,NA,70.3076923076923
53089,Waukesha County,WI,NA,NA,65.38461538461539
53108,Racine County,WI,78.84615384615384,NA,NA
53142,Kenosha County,WI,NA,96.55172413793103,NA
53144,Kenosha County,WI,NA,NA,18.76923076923077
53184,Walworth County,WI,NA,NA,94.92307692307692
53204,Milwaukee County,WI,NA,50.24630541871922,NA
53205,Milwaukee County,WI,NA,NA,3.5384615384615383
53206,Milwaukee County,WI,NA,16.748768472906402,NA
53218,Milwaukee County,WI,NA,NA,7.538461538461538
53219,Milwaukee County,WI,13.076923076923078,NA,49.84615384615385
53405,Racine County,WI,11.923076923076923,NA,NA
53406,Racine County,WI,27.307692307692307,NA,NA
53562,Dane County,WI,NA,NA,74.3076923076923
53585,Walworth County,WI,92.6923076923077,NA,NA
53590,Dane County,WI,NA,NA,40.15384615384615
53705,Dane County,WI,NA,99.50738916256158,NA
53711,Dane County,WI,NA,NA,34.46153846153846
54601,La Crosse County,WI,5,NA,NA
54981,Waupaca County,WI,NA,NA,85.53846153846155
