ZipCode,county,state,Adult,Retirement,Geriatric
35071,Jefferson County,AL,72.52525252525253,NA,NA
35118,Jefferson County,AL,NA,NA,96.67590027700831
35126,Jefferson County,AL,51.11111111111111,NA,NA
35133,Blount County,AL,NA,93.7308868501529,NA
35216,Jefferson County,AL,NA,NA,43.21329639889196
35401,Tuscaloosa County,AL,25.858585858585858,NA,NA
35405,Tuscaloosa County,AL,NA,13.455657492354739,NA
35406,Tuscaloosa County,AL,NA,NA,98.89196675900277
35473,Tuscaloosa County,AL,NA,94.03669724770643,NA
35475,Tuscaloosa County,AL,NA,88.07339449541286,NA
35501,Walker County,AL,NA,93.11926605504587,NA
35550,Walker County,AL,79.1919191919192,NA,NA
35555,Fayette County,AL,NA,NA,47.368421052631575
35603,Morgan County,AL,NA,31.19266055045872,NA
35630,Lauderdale County,AL,32.121212121212125,NA,NA
35806,Madison County,AL,NA,83.02752293577981,NA
35810,Madison County,AL,32.323232323232325,22.477064220183486,NA
35951,Marshall County,AL,NA,75.84097859327217,NA
35976,Marshall County,AL,NA,33.94495412844037,NA
36207,Calhoun County,AL,NA,59.63302752293578,NA
36271,Calhoun County,AL,NA,NA,99.445983379501385
36312,Houston County,AL,81.21212121212122,NA,NA
36360,Dale County,AL,46.86868686868687,NA,NA
36542,Baldwin County,AL,NA,65.59633027522935,NA
36572,Mobile County,AL,87.67676767676768,NA,NA
36582,Mobile County,AL,NA,91.74311926605505,NA
36587,Mobile County,AL,NA,88.68501529051987,NA
36608,Mobile County,AL,NA,NA,56.50969529085873
36804,Lee County,AL,NA,70.79510703363916,NA
99603,Kenai Peninsula Borough,AK,NA,90.06116207951071,NA
99654,Matanuska-Susitna Borough,AK,37.37373737373738,NA,NA
99705,Fairbanks North Star Borough,AK,NA,89.44954128440367,NA
85021,Maricopa County,AZ,NA,67.58409785932722,NA
85027,Maricopa County,AZ,43.23232323232323,NA,NA
85042,Maricopa County,AZ,NA,NA,66.20498614958449
85086,Maricopa County,AZ,42.42424242424242,NA,NA
85143,Pinal County,AZ,66.86868686868686,NA,NA
85248,Maricopa County,AZ,NA,NA,6.3711911357340725
85250,Maricopa County,AZ,NA,NA,57.06371191135734
85308,Maricopa County,AZ,36.16161616161616,NA,34.903047091412745
85335,Maricopa County,AZ,97.37373737373738,NA,NA
85374,Maricopa County,AZ,NA,50.45871559633027,NA
85641,Pima County,AZ,NA,89.75535168195718,NA
85706,Pima County,AZ,1.6161616161616161,NA,NA
85750,Pima County,AZ,65.45454545454545,NA,NA
86001,Coconino County,AZ,69.6969696969697,NA,NA
86040,Coconino County,AZ,62.82828282828283,NA,NA
86315,Yavapai County,AZ,NA,70.18348623853211,NA
86351,Yavapai County,AZ,NA,NA,79.77839335180056
86426,Mohave County,AZ,NA,50.917431192660544,NA
71913,Garland County,AR,39.5959595959596,NA,NA
72113,Pulaski County,AR,NA,44.801223241590215,49.584487534626035
72206,Pulaski County,AR,NA,28.74617737003058,NA
72227,Pulaski County,AR,NA,83.94495412844036,NA
72301,Crittenden County,AR,78.3838383838384,NA,NA
72364,Crittenden County,AR,NA,85.93272171253822,NA
72476,Lawrence County,AR,92.12121212121212,NA,NA
72601,Boone County,AR,52.92929292929293,NA,NA
72653,Baxter County,AR,92.32323232323232,NA,NA
72736,Benton County,AR,100,NA,NA
72758,Benton County,AR,57.37373737373738,NA,NA
72761,Benton County,AR,NA,66.81957186544342,NA
72764,Washington County,AR,NA,53.21100917431193,NA
72855,Logan County,AR,86.06060606060606,NA,NA
90002,Los Angeles County,CA,NA,NA,71.74515235457064
90025,Los Angeles County,CA,NA,NA,9.418282548476455
90027,Los Angeles County,CA,56.76767676767677,NA,NA
90033,Los Angeles County,CA,NA,88.07339449541286,NA
90034,Los Angeles County,CA,NA,49.69418960244648,NA
90036,Los Angeles County,CA,NA,NA,30.47091412742382
90039,Los Angeles County,CA,NA,NA,73.9612188365651
90046,Los Angeles County,CA,50.303030303030305,NA,6.64819944598338
90057,Los Angeles County,CA,NA,57.798165137614674,NA
90063,Los Angeles County,CA,NA,NA,88.9196675900277
90064,Los Angeles County,CA,NA,47.85932721712538,NA
90210,Los Angeles County,CA,NA,NA,18.282548476454295
90262,Los Angeles County,CA,NA,50.15290519877675,NA
90277,Los Angeles County,CA,NA,NA,50.41551246537396
90280,Los Angeles County,CA,NA,34.70948012232416,NA
90504,Los Angeles County,CA,67.67676767676768,NA,NA
90601,Los Angeles County,CA,52.72727272727272,NA,NA
90630,Orange County,CA,NA,22.32415902140673,NA
90631,Orange County,CA,NA,16.819571865443425,NA
90640,Los Angeles County,CA,36.76767676767677,NA,NA
90731,Los Angeles County,CA,32.92929292929293,NA,NA
90744,Los Angeles County,CA,NA,55.81039755351682,NA
90802,Los Angeles County,CA,NA,66.66666666666666,NA
91010,Los Angeles County,CA,NA,62.23241590214067,NA
91103,Los Angeles County,CA,74.74747474747475,NA,NA
91105,Los Angeles County,CA,NA,NA,78.39335180055402
91325,Los Angeles County,CA,76.16161616161617,65.4434250764526,NA
91356,Los Angeles County,CA,NA,46.48318042813456,NA
91364,Los Angeles County,CA,NA,69.57186544342507,NA
91402,Los Angeles County,CA,NA,33.48623853211009,NA
91605,Los Angeles County,CA,NA,45.718654434250766,NA
91709,San Bernardino County,CA,NA,27.06422018348624,NA
91737,San Bernardino County,CA,NA,NA,80.05540166204986
91755,Los Angeles County,CA,89.29292929292929,NA,NA
91766,Los Angeles County,CA,71.31313131313132,NA,NA
91950,San Diego County,CA,37.77777777777778,NA,NA
91977,San Diego County,CA,NA,28.134556574923547,NA
92019,San Diego County,CA,NA,44.64831804281346,NA
92020,San Diego County,CA,79.39393939393939,NA,NA
92028,San Diego County,CA,NA,NA,76.45429362880887
92057,San Diego County,CA,NA,NA,35.18005540166205
92071,San Diego County,CA,NA,37.00305810397553,NA
92109,San Diego County,CA,69.2929292929293,NA,NA
92119,San Diego County,CA,NA,NA,38.78116343490305
92211,Riverside County,CA,NA,NA,0
92240,Riverside County,CA,NA,81.9571865443425,NA
92243,Imperial County,CA,25.252525252525253,NA,NA
92252,San Bernardino County,CA,74.14141414141415,NA,NA
92262,Riverside County,CA,NA,11.314984709480122,NA
92335,San Bernardino County,CA,NA,NA,42.38227146814405
92562,Riverside County,CA,NA,NA,38.227146814404435
92592,Riverside County,CA,28.68686868686869,NA,NA
92614,Orange County,CA,NA,60.85626911314985,NA
92620,Orange County,CA,NA,41.284403669724774,NA
92673,Orange County,CA,NA,62.84403669724771,NA
92691,Orange County,CA,NA,23.24159021406728,NA
92804,Orange County,CA,NA,52.293577981651374,NA
92821,Orange County,CA,60.60606060606061,NA,NA
92833,Orange County,CA,NA,NA,48.199445983379505
92880,Riverside County,CA,NA,92.66055045871559,NA
92886,Orange County,CA,NA,18.195718654434252,NA
93065,Ventura County,CA,NA,20.948012232415902,NA
93204,Kings County,CA,NA,98.31804281345565,NA
93215,Kern County,CA,NA,77.52293577981652,NA
93401,San Luis Obispo County,CA,NA,NA,48.75346260387812
93436,Santa Barbara County,CA,NA,NA,12.742382271468145
93455,Santa Barbara County,CA,NA,NA,12.18836565096953
93458,Santa Barbara County,CA,NA,29.204892966360855,NA
93535,Los Angeles County,CA,8.080808080808081,NA,NA
93562,San Bernardino County,CA,NA,95.25993883792049,NA
93619,Fresno County,CA,NA,NA,89.19667590027701
93638,Madera County,CA,NA,75.22935779816514,NA
93662,Fresno County,CA,54.34343434343434,NA,NA
93950,Monterey County,CA,NA,67.43119266055045,NA
94061,San Mateo County,CA,NA,NA,17.174515235457065
94110,San Francisco County,CA,12.727272727272727,NA,NA
94112,San Francisco County,CA,NA,6.727828746177369,NA
94118,San Francisco County,CA,53.939393939393945,NA,NA
94301,Santa Clara County,CA,90.9090909090909,NA,NA
94501,Alameda County,CA,NA,NA,58.72576177285319
94510,Solano County,CA,NA,NA,69.52908587257618
94531,Contra Costa County,CA,NA,48.01223241590214,NA
94546,Alameda County,CA,NA,NA,21.88365650969529
94550,Alameda County,CA,NA,34.403669724770644,NA
94565,Contra Costa County,CA,NA,NA,23.545706371191137
94566,Alameda County,CA,NA,NA,45.98337950138504
94568,Alameda County,CA,51.717171717171716,NA,NA
94605,Alameda County,CA,24.848484848484848,NA,NA
94621,Alameda County,CA,NA,NA,97.229916897506925
94706,Alameda County,CA,90.5050505050505,NA,NA
94708,Alameda County,CA,NA,80.58103975535168,NA
94954,Sonoma County,CA,NA,33.02752293577982,NA
95037,Santa Clara County,CA,NA,NA,98.337950138504155
95111,Santa Clara County,CA,NA,NA,37.95013850415512
95120,Santa Clara County,CA,NA,NA,32.686980609418285
95122,Santa Clara County,CA,NA,NA,75.62326869806094
95125,Santa Clara County,CA,NA,22.782874617737004,NA
95127,Santa Clara County,CA,NA,NA,24.930747922437675
95129,Santa Clara County,CA,NA,NA,43.49030470914128
95131,Santa Clara County,CA,NA,NA,82.82548476454294
95212,San Joaquin County,CA,NA,81.34556574923548,NA
95220,San Joaquin County,CA,93.73737373737374,NA,NA
95252,Calaveras County,CA,NA,87.61467889908256,NA
95336,San Joaquin County,CA,NA,NA,24.37673130193906
95337,San Joaquin County,CA,81.81818181818183,NA,NA
95355,Stanislaus County,CA,NA,57.645259938837924,NA
95361,Stanislaus County,CA,NA,NA,49.307479224376735
95363,Stanislaus County,CA,NA,75.99388379204893,NA
95377,San Joaquin County,CA,66.46464646464646,71.25382262996942,NA
95386,Stanislaus County,CA,80.8080808080808,NA,NA
95401,Sonoma County,CA,NA,47.24770642201835,NA
95403,Sonoma County,CA,NA,37.15596330275229,NA
95404,Sonoma County,CA,NA,NA,22.160664819944596
95472,Sonoma County,CA,NA,56.269113149847094,NA
95602,Placer County,CA,NA,77.06422018348624,NA
95603,Placer County,CA,NA,44.342507645259936,NA
95661,Placer County,CA,NA,51.8348623853211,NA
95678,Placer County,CA,NA,31.95718654434251,NA
95747,Placer County,CA,NA,83.4862385321101,9.695290858725762
95776,Yolo County,CA,NA,82.87461773700305,NA
95820,Sacramento County,CA,49.696969696969695,NA,NA
95953,Sutter County,CA,NA,NA,90.85872576177285
95966,Butte County,CA,NA,NA,25.761772853185594
96021,Tehama County,CA,NA,54.43425076452599,NA
80017,Arapahoe County,CO,40.4040404040404,NA,NA
80108,Douglas County,CO,NA,57.95107033639144,NA
80112,Arapahoe County,CO,NA,52.752293577981646,NA
80118,Douglas County,CO,NA,92.81345565749236,NA
80126,Douglas County,CO,77.57575757575758,NA,NA
80138,Douglas County,CO,NA,64.06727828746178,NA
80207,Denver County,CO,73.93939393939394,NA,NA
80249,Denver County,CO,NA,73.24159021406727,NA
80260,Adams County,CO,NA,59.32721712538226,NA
80723,Morgan County,CO,NA,71.55963302752293,NA
80831,El Paso County,CO,NA,72.47706422018348,NA
80907,El Paso County,CO,NA,NA,47.091412742382275
81008,Pueblo County,CO,NA,94.80122324159022,NA
81401,Montrose County,CO,NA,38.379204892966364,NA
81625,Moffat County,CO,NA,57.3394495412844,NA
06078,Hartford County,CT,NA,96.78899082568807,NA
06095,Hartford County,CT,NA,63.76146788990825,NA
06111,Hartford County,CT,NA,NA,34.07202216066482
06226,Windham County,CT,NA,NA,87.81163434903047
06437,New Haven County,CT,61.41414141414141,NA,NA
06489,Hartford County,CT,NA,17.889908256880734,NA
06512,New Haven County,CT,NA,23.700305810397555,NA
06614,Fairfield County,CT,NA,31.804281345565748,25.48476454293629
06801,Fairfield County,CT,NA,53.05810397553516,NA
06902,Fairfield County,CT,21.01010101010101,NA,4.986149584487535
19702,New Castle County,DE,NA,NA,50.69252077562327
19703,New Castle County,DE,57.77777777777777,NA,NA
19709,New Castle County,DE,NA,20.795107033639145,NA
19808,New Castle County,DE,NA,NA,6.9252077562326875
19901,Kent County,DE,NA,19.418960244648318,NA
19970,Sussex County,DE,NA,57.3394495412844,NA
32034,Nassau County,FL,NA,NA,16.343490304709142
32060,Suwannee County,FL,NA,NA,82.54847645429363
32068,Clay County,FL,11.313131313131313,9.63302752293578,NA
32073,Clay County,FL,NA,NA,20.77562326869806
32086,St. Johns County,FL,44.44444444444444,NA,NA
32092,St. Johns County,FL,NA,38.07339449541284,NA
32136,Flagler County,FL,NA,71.7125382262997,NA
32145,St. Johns County,FL,95.95959595959596,NA,NA
32168,Volusia County,FL,89.8989898989899,NA,NA
32205,Duval County,FL,NA,32.26299694189603,NA
32208,Duval County,FL,NA,5.81039755351682,NA
32218,Duval County,FL,NA,3.5168195718654434,NA
32244,Duval County,FL,NA,61.31498470948012,NA
32340,Madison County,FL,NA,94.03669724770643,NA
32404,Bay County,FL,NA,53.97553516819572,NA
32405,Bay County,FL,27.474747474747474,NA,NA
32505,Escambia County,FL,NA,10.703363914373089,NA
32514,Escambia County,FL,73.73737373737373,45.25993883792049,NA
32533,Escambia County,FL,NA,20.33639143730887,29.916897506925206
32534,Escambia County,FL,NA,91.13149847094802,NA
32563,Santa Rosa County,FL,NA,24.00611620795107,NA
32570,Santa Rosa County,FL,37.97979797979798,NA,NA
32607,Alachua County,FL,NA,43.27217125382263,NA
32608,Alachua County,FL,NA,NA,27.146814404432135
32712,Orange County,FL,NA,32.56880733944954,NA
32779,Seminole County,FL,NA,NA,72.85318559556787
32808,Orange County,FL,NA,25.382262996941897,NA
32811,Orange County,FL,NA,40.214067278287466,NA
32922,Brevard County,FL,NA,94.95412844036697,NA
32931,Brevard County,FL,NA,NA,92.797783933518
32937,Brevard County,FL,NA,56.116207951070344,NA
32940,Brevard County,FL,NA,NA,5.8171745152354575
32953,Brevard County,FL,NA,NA,15.512465373961218
33016,Miami-Dade County,FL,NA,53.51681957186545,NA
33026,Broward County,FL,NA,55.65749235474006,NA
33069,Broward County,FL,86.46464646464646,NA,NA
33125,Miami-Dade County,FL,NA,81.80428134556576,NA
33139,Miami-Dade County,FL,NA,NA,10.249307479224377
33144,Miami-Dade County,FL,NA,66.05504587155964,14.127423822714682
33147,Miami-Dade County,FL,NA,33.63914373088685,NA
33154,Miami-Dade County,FL,NA,76.14678899082568,NA
33157,Miami-Dade County,FL,NA,NA,21.60664819944598
33172,Miami-Dade County,FL,92.52525252525253,NA,NA
33311,Broward County,FL,30.50505050505051,NA,NA
33314,Broward County,FL,66.06060606060606,NA,NA
33317,Broward County,FL,95.55555555555556,NA,NA
33413,Palm Beach County,FL,NA,NA,94.18282548476455
33417,Palm Beach County,FL,55.959595959595966,NA,NA
33418,Palm Beach County,FL,NA,NA,9.141274238227147
33445,Palm Beach County,FL,NA,64.22018348623854,NA
33463,Palm Beach County,FL,NA,34.862385321100916,NA
33496,Palm Beach County,FL,NA,38.226299694189606,NA
33498,Palm Beach County,FL,96.96969696969697,NA,NA
33511,Hillsborough County,FL,NA,NA,46.81440443213297
33523,Pasco County,FL,NA,54.28134556574924,57.61772853185596
33615,Hillsborough County,FL,NA,31.039755351681958,NA
33801,Polk County,FL,23.232323232323232,NA,NA
33805,Polk County,FL,NA,NA,59.0027700831025
33810,Polk County,FL,27.070707070707073,NA,NA
33825,Highlands County,FL,NA,NA,20.221606648199447
33830,Polk County,FL,37.57575757575757,NA,68.14404432132964
33904,Lee County,FL,NA,NA,83.10249307479224
33908,Lee County,FL,NA,5.5045871559633035,NA
33919,Lee County,FL,NA,15.137614678899084,NA
33928,Lee County,FL,NA,78.2874617737003,NA
33935,Hendry County,FL,89.6969696969697,NA,NA
33954,Charlotte County,FL,89.4949494949495,NA,NA
33980,Charlotte County,FL,NA,74.31192660550458,NA
34119,Collier County,FL,NA,26.911314984709477,18.559556786703602
34203,Manatee County,FL,NA,22.477064220183486,NA
34239,Sarasota County,FL,NA,70.33639143730886,NA
34285,Sarasota County,FL,NA,18.960244648318042,NA
34287,Sarasota County,FL,NA,NA,15.789473684210526
34470,Marion County,FL,48.888888888888886,NA,NA
34481,Marion County,FL,NA,75.53516819571865,NA
34638,Pasco County,FL,NA,89.60244648318043,NA
34667,Pasco County,FL,NA,26.758409785932724,NA
34684,Pinellas County,FL,NA,14.37308868501529,NA
34788,Lake County,FL,NA,NA,80.88642659279779
34972,Okeechobee County,FL,NA,74.46483180428135,NA
30004,Fulton County,GA,73.33333333333333,NA,NA
30011,Barrow County,GA,NA,84.86238532110092,NA
30024,Gwinnett County,GA,NA,24.92354740061162,NA
30032,DeKalb County,GA,NA,NA,22.99168975069252
30040,Forsyth County,GA,NA,79.20489296636084,11.911357340720222
30041,Forsyth County,GA,28.28282828282828,NA,19.390581717451525
30044,Gwinnett County,GA,NA,16.055045871559635,41.82825484764543
30045,Gwinnett County,GA,NA,NA,63.711911357340725
30052,Walton County,GA,NA,NA,24.653739612188367
30078,Gwinnett County,GA,NA,NA,60.94182825484764
30080,Cobb County,GA,NA,58.40978593272171,NA
30084,DeKalb County,GA,83.63636363636363,NA,NA
30097,Fulton County,GA,NA,51.681957186544345,NA
30102,Cherokee County,GA,47.070707070707066,NA,NA
30107,Cherokee County,GA,98.38383838383838,NA,NA
30132,Paulding County,GA,NA,35.015290519877674,NA
30143,Pickens County,GA,60.80808080808081,NA,NA
30144,Cobb County,GA,NA,47.09480122324159,NA
30147,Floyd County,GA,NA,NA,95.84487534626038
30180,Carroll County,GA,NA,NA,94.73684210526315
30189,Cherokee County,GA,51.515151515151516,NA,NA
30228,Henry County,GA,NA,NA,65.09695290858726
30248,Henry County,GA,NA,NA,66.7590027700831
30252,Henry County,GA,NA,NA,66.4819944598338
30306,Fulton County,GA,NA,NA,88.64265927977839
30316,DeKalb County,GA,78.58585858585857,NA,NA
30331,Fulton County,GA,18.787878787878785,NA,NA
30471,Emanuel County,GA,NA,97.4006116207951,NA
30533,Lumpkin County,GA,NA,43.57798165137615,NA
30542,Hall County,GA,77.97979797979798,NA,52.63157894736842
30736,Catoosa County,GA,NA,20.642201834862387,NA
30809,Columbia County,GA,NA,13.761467889908257,NA
30815,Richmond County,GA,20.606060606060606,14.831804281345565,NA
30828,Warren County,GA,NA,90.82568807339449,NA
31005,Houston County,GA,NA,81.19266055045871,NA
31008,Peach County,GA,91.71717171717172,NA,NA
31027,Laurens County,GA,NA,83.33333333333334,NA
31204,Bibb County,GA,NA,NA,35.73407202216066
31406,Chatham County,GA,50.90909090909091,NA,28.80886426592798
31525,Glynn County,GA,49.494949494949495,NA,NA
31757,Thomas County,GA,NA,68.0428134556575,NA
31768,Colquitt County,GA,NA,NA,84.7645429362881
31808,Harris County,GA,NA,83.63914373088684,NA
39819,Decatur County,GA,NA,76.75840978593273,NA
39823,Early County,GA,62.42424242424243,NA,NA
96701,Honolulu County,HI,NA,NA,8.86426592797784
96720,Hawaii County,HI,35.15151515151515,NA,NA
96746,Kauai County,HI,NA,68.19571865443424,NA
96756,Kauai County,HI,96.56565656565657,NA,NA
96789,Honolulu County,HI,21.818181818181817,NA,NA
96792,Honolulu County,HI,NA,24.159021406727827,NA
96813,Honolulu County,HI,NA,88.53211009174312,NA
96822,Honolulu County,HI,NA,86.08562691131499,NA
83401,Bonneville County,ID,15.151515151515152,95.10703363914374,NA
83404,Bonneville County,ID,52.323232323232325,NA,NA
83605,Canyon County,ID,NA,82.56880733944955,36.288088642659275
83638,Valley County,ID,NA,NA,86.70360110803324
83644,Canyon County,ID,NA,49.08256880733945,NA
83646,Ada County,ID,NA,NA,4.43213296398892
83835,Kootenai County,ID,NA,69.41896024464832,39.88919667590028
83854,Kootenai County,ID,34.54545454545455,NA,NA
83858,Kootenai County,ID,NA,86.3914373088685,NA
60046,Lake County,IL,NA,25.688073394495415,NA
60068,Cook County,IL,NA,NA,74.23822714681441
60074,Cook County,IL,43.83838383838384,NA,NA
60098,McHenry County,IL,NA,67.12538226299695,NA
60101,DuPage County,IL,28.08080808080808,NA,NA
60124,Kane County,IL,62.02020202020202,NA,NA
60133,Cook County,IL,NA,46.94189602446483,NA
60135,DeKalb County,IL,94.74747474747474,NA,NA
60154,Cook County,IL,NA,26.299694189602445,NA
60156,McHenry County,IL,NA,81.49847094801224,NA
60189,DuPage County,IL,37.17171717171717,NA,NA
60416,Grundy County,IL,NA,NA,71.19113573407202
60423,Will County,IL,42.82828282828282,NA,NA
60431,Will County,IL,42.62626262626263,NA,NA
60448,Will County,IL,NA,NA,46.53739612188366
60450,Grundy County,IL,NA,17.584097859327215,19.667590027700832
60471,Cook County,IL,NA,NA,92.24376731301939
60478,Cook County,IL,NA,NA,45.70637119113574
60515,DuPage County,IL,NA,NA,23.26869806094183
60517,DuPage County,IL,41.61616161616162,NA,NA
60544,Will County,IL,NA,NA,16.897506925207757
60558,Cook County,IL,NA,61.773700305810394,NA
60561,DuPage County,IL,NA,30.428134556574925,NA
60611,Cook County,IL,NA,NA,9.97229916897507
60614,Cook County,IL,22.02020202020202,NA,NA
60617,Cook County,IL,NA,NA,2.21606648199446
60623,Cook County,IL,NA,12.844036697247708,14.40443213296399
60626,Cook County,IL,NA,NA,55.124653739612185
60634,Cook County,IL,9.292929292929292,71.40672782874617,NA
60636,Cook County,IL,35.55555555555556,NA,NA
60638,Cook County,IL,NA,8.409785932721713,4.7091412742382275
60640,Cook County,IL,NA,7.951070336391437,7.479224376731302
60645,Cook County,IL,NA,22.93577981651376,NA
60649,Cook County,IL,NA,NA,17.72853185595568
61061,Ogle County,IL,99.5959595959596,NA,NA
61102,Winnebago County,IL,NA,NA,72.29916897506925
61108,Winnebago County,IL,NA,25.535168195718654,NA
61264,Rock Island County,IL,NA,80.1223241590214,NA
61362,Bureau County,IL,NA,64.98470948012233,NA
61554,Tazewell County,IL,30.1010101010101,NA,NA
61611,Tazewell County,IL,NA,NA,88.36565096952909
61761,McLean County,IL,NA,84.25076452599389,NA
61802,Champaign County,IL,NA,30.275229357798167,NA
61938,Coles County,IL,NA,36.391437308868504,NA
62002,Madison County,IL,NA,20.18348623853211,NA
62088,Macoupin County,IL,NA,86.23853211009175,NA
62206,St. Clair County,IL,67.07070707070707,NA,NA
62230,Clinton County,IL,NA,99.08256880733946,NA
62263,Washington County,IL,NA,79.51070336391437,NA
62521,Macon County,IL,NA,8.868501529051988,NA
62629,Sangamon County,IL,89.0909090909091,NA,NA
62681,Schuyler County,IL,NA,NA,74.51523545706371
62864,Jefferson County,IL,85.85858585858585,NA,NA
46001,Madison County,IN,NA,NA,52.07756232686981
46012,Madison County,IN,NA,21.406727828746178,NA
46033,Hamilton County,IN,61.212121212121204,NA,NA
46038,Hamilton County,IN,NA,50,58.17174515235457
46062,Hamilton County,IN,57.57575757575758,NA,NA
46077,Boone County,IN,NA,NA,54.29362880886427
46112,Hendricks County,IN,78.78787878787878,NA,30.193905817174517
46151,Morgan County,IN,NA,21.712538226299692,NA
46176,Shelby County,IN,NA,41.13149847094802,NA
46201,Marion County,IN,NA,68.65443425076452,NA
46227,Marion County,IN,NA,NA,3.6011080332409975
46228,Marion County,IN,NA,NA,75.90027700831024
46235,Marion County,IN,NA,87.92048929663608,NA
46237,Marion County,IN,NA,10.856269113149846,NA
46307,Lake County,IN,NA,1.6819571865443423,NA
46342,Lake County,IN,3.8383838383838382,64.6788990825688,NA
46368,Porter County,IN,17.575757575757574,NA,NA
46373,Lake County,IN,31.313131313131315,NA,NA
46410,Lake County,IN,NA,4.281345565749235,NA
46514,Elkhart County,IN,31.11111111111111,NA,NA
46516,Elkhart County,IN,NA,36.850152905198776,NA
46552,St. Joseph County,IN,94.34343434343434,NA,NA
46582,Kosciusko County,IN,NA,73.39449541284404,NA
46617,St. Joseph County,IN,NA,95.565749235474,NA
46725,Whitley County,IN,31.717171717171716,NA,NA
46746,LaGrange County,IN,NA,97.24770642201835,NA
46807,Allen County,IN,NA,60.24464831804281,NA
46825,Allen County,IN,NA,NA,31.024930747922436
46835,Allen County,IN,NA,11.46788990825688,NA
46936,Howard County,IN,75.95959595959596,NA,NA
46947,Cass County,IN,NA,NA,8.033240997229916
46952,Grant County,IN,NA,NA,52.90858725761773
47025,Dearborn County,IN,NA,NA,54.016620498614955
47112,Harrison County,IN,54.74747474747475,NA,NA
47172,Clark County,IN,NA,92.35474006116208,NA
47201,Bartholomew County,IN,NA,13.608562691131498,NA
47362,Henry County,IN,21.21212121212121,NA,NA
47394,Randolph County,IN,NA,NA,51.24653739612188
47403,Monroe County,IN,60.2020202020202,NA,NA
47501,Daviess County,IN,38.18181818181819,NA,NA
47586,Perry County,IN,67.47474747474747,NA,NA
47601,Warrick County,IN,NA,NA,40.443213296398895
47620,Posey County,IN,NA,84.70948012232415,NA
47630,Warrick County,IN,NA,NA,32.40997229916898
47710,Vanderburgh County,IN,NA,53.36391437308868,NA
47711,Vanderburgh County,IN,28.484848484848484,NA,NA
47802,Vigo County,IN,24.04040404040404,NA,NA
47872,Parke County,IN,NA,NA,73.13019390581718
47905,Tippecanoe County,IN,NA,48.1651376146789,NA
47932,Fountain County,IN,NA,NA,81.99445983379502
47933,Montgomery County,IN,33.939393939393945,NA,NA
47978,Jasper County,IN,66.06060606060606,NA,NA
50273,Madison County,IA,NA,NA,79.50138504155125
50310,Polk County,IA,20.80808080808081,NA,NA
50316,Polk County,IA,NA,50.30581039755352,NA
50322,Polk County,IA,60.4040404040404,NA,NA
50441,Franklin County,IA,90.30303030303031,NA,NA
50461,Mitchell County,IA,NA,NA,86.98060941828255
50501,Webster County,IA,NA,34.5565749235474,NA
51501,Pottawattamie County,IA,NA,39.908256880733944,NA
51601,Page County,IA,NA,68.34862385321101,NA
52001,Dubuque County,IA,NA,24.464831804281346,NA
52002,Dubuque County,IA,74.54545454545455,NA,NA
52302,Linn County,IA,NA,79.66360856269114,NA
52349,Benton County,IA,73.13131313131314,NA,NA
52402,Linn County,IA,NA,NA,32.96398891966759
52556,Jefferson County,IA,NA,NA,63.988919667590025
52601,Des Moines County,IA,NA,15.749235474006115,NA
52726,Scott County,IA,NA,97.70642201834863,NA
66048,Leavenworth County,KS,NA,NA,33.795013850415515
66064,Miami County,KS,NA,94.34250764525994,NA
66067,Franklin County,KS,55.55555555555556,NA,39.335180055401665
66208,Johnson County,KS,81.41414141414141,NA,NA
66210,Johnson County,KS,NA,65.74923547400611,NA
66605,Shawnee County,KS,48.68686868686869,NA,NA
66607,Shawnee County,KS,92.92929292929293,NA,NA
66701,Bourbon County,KS,NA,NA,74.51523545706371
67042,Butler County,KS,NA,61.46788990825688,NA
67601,Ellis County,KS,NA,18.807339449541285,NA
40165,Bullitt County,KY,NA,16.972477064220186,NA
40204,Jefferson County,KY,76.96969696969697,NA,NA
40207,Jefferson County,KY,NA,NA,34.62603878116344
40212,Jefferson County,KY,25.656565656565654,NA,NA
40215,Jefferson County,KY,NA,41.74311926605505,NA
40219,Jefferson County,KY,12.525252525252526,NA,30.747922437673132
40229,Jefferson County,KY,11.11111111111111,NA,NA
40336,Estill County,KY,NA,NA,61.495844875346265
40360,Bath County,KY,NA,NA,84.21052631578947
40475,Madison County,KY,6.8686868686868685,NA,20.498614958448755
40701,Whitley County,KY,68.68686868686868,NA,NA
40734,Knox County,KY,85.25252525252526,NA,NA
40769,Whitley County,KY,35.35353535353536,NA,NA
41001,Campbell County,KY,NA,88.37920489296636,NA
41018,Kenton County,KY,NA,26.452599388379205,NA
41101,Boyd County,KY,NA,19.113149847094803,NA
41139,Greenup County,KY,88.48484848484848,NA,NA
42001,McCracken County,KY,30.909090909090907,NA,NA
42167,Monroe County,KY,95.15151515151516,NA,NA
42420,Henderson County,KY,64.84848484848484,NA,NA
42718,Taylor County,KY,43.03030303030303,NA,NA
42728,Adair County,KY,94.54545454545455,NA,NA
70005,Jefferson Parish,LA,NA,NA,78.67036011080333
70065,Jefferson Parish,LA,NA,2.90519877675841,NA
70118,Orleans Parish,LA,NA,19.877675840978593,NA
70119,Orleans Parish,LA,NA,33.18042813455658,NA
70126,Orleans Parish,LA,NA,NA,89.47368421052632
70131,Orleans Parish,LA,14.343434343434344,NA,NA
70422,Tangipahoa Parish,LA,81.01010101010101,NA,NA
70433,St. Tammany Parish,LA,5.05050505050505,NA,46.26038781163435
70435,St. Tammany Parish,LA,NA,18.34862385321101,NA
70448,St. Tammany Parish,LA,40.80808080808081,NA,NA
70454,Tangipahoa Parish,LA,7.6767676767676765,NA,NA
70466,Tangipahoa Parish,LA,91.51515151515152,NA,NA
70508,Lafayette Parish,LA,15.757575757575756,NA,NA
70526,Acadia Parish,LA,NA,64.98470948012233,NA
70563,Iberia Parish,LA,68.08080808080808,NA,56.232686980609415
70669,Calcasieu Parish,LA,53.13131313131313,NA,NA
70754,Livingston Parish,LA,54.54545454545454,NA,NA
70777,East Feliciana Parish,LA,87.47474747474747,NA,NA
70810,East Baton Rouge Parish,LA,NA,27.06422018348624,NA
71019,Red River Parish,LA,58.38383838383838,NA,NA
71037,Bossier Parish,LA,NA,49.54128440366973,NA
71040,Claiborne Parish,LA,NA,NA,83.93351800554017
71112,Bossier Parish,LA,12.323232323232324,24.770642201834864,NA
71449,Sabine Parish,LA,NA,NA,85.0415512465374
71457,Natchitoches Parish,LA,4.646464646464646,NA,NA
04043,York County,ME,NA,NA,27.42382271468144
04240,Androscoggin County,ME,NA,2.293577981651376,NA
04530,Sagadahoc County,ME,NA,NA,57.340720221606645
04957,Somerset County,ME,75.35353535353535,NA,NA
20602,Charles County,MD,74.94949494949495,NA,NA
20707,Prince George's County,MD,65.25252525252525,NA,NA
20744,Prince George's County,MD,46.26262626262626,36.08562691131498,NA
20747,Prince George's County,MD,NA,58.86850152905198,NA
20772,Prince George's County,MD,NA,48.776758409785934,NA
20832,Montgomery County,MD,78.18181818181819,NA,NA
20882,Montgomery County,MD,83.43434343434343,NA,NA
20904,Montgomery County,MD,56.56565656565656,NA,NA
21015,Harford County,MD,71.51515151515152,NA,NA
21075,Howard County,MD,NA,85.3211009174312,NA
21084,Harford County,MD,NA,90.67278287461774,NA
21108,Anne Arundel County,MD,97.17171717171718,NA,NA
21218,Baltimore city,MD,8.686868686868687,NA,NA
21229,Baltimore city,MD,19.19191919191919,NA,NA
21502,Allegany County,MD,NA,19.571865443425075,NA
21639,Caroline County,MD,NA,99.54128440366972,NA
21651,Kent County,MD,NA,99.84709480122325,NA
21901,Cecil County,MD,NA,69.57186544342507,NA
21921,Cecil County,MD,15.353535353535353,5.963302752293578,NA
01119,Hampden County,MA,NA,NA,50.13850415512465
01230,Berkshire County,MA,NA,47.706422018348626,NA
01464,Middlesex County,MA,NA,61.16207951070336,NA
01570,Worcester County,MA,NA,NA,52.07756232686981
01757,Worcester County,MA,NA,5.045871559633028,NA
01773,Middlesex County,MA,NA,85.77981651376146,NA
01776,Middlesex County,MA,NA,NA,83.65650969529086
01803,Middlesex County,MA,NA,NA,2.7700831024930745
01821,Middlesex County,MA,NA,1.529051987767584,NA
01826,Middlesex County,MA,NA,NA,19.113573407202217
01830,Essex County,MA,0.20202020202020202,NA,NA
01832,Essex County,MA,NA,60.550458715596335,NA
01835,Essex County,MA,NA,53.669724770642205,NA
01843,Essex County,MA,NA,NA,66.7590027700831
01851,Middlesex County,MA,0.6060606060606061,3.058103975535168,NA
01854,Middlesex County,MA,NA,5.351681957186544,NA
01876,Middlesex County,MA,NA,2.7522935779816518,NA
01886,Middlesex County,MA,NA,30.886850152905197,NA
01902,Essex County,MA,NA,0.45871559633027525,2.4930747922437675
01930,Essex County,MA,2.2222222222222223,NA,NA
01950,Essex County,MA,NA,NA,73.40720221606648
02050,Plymouth County,MA,NA,58.40978593272171,NA
02052,Norfolk County,MA,NA,59.021406727828754,NA
02109,Suffolk County,MA,96.36363636363636,NA,NA
02115,Suffolk County,MA,NA,3.82262996941896,NA
02135,Suffolk County,MA,NA,10.091743119266056,NA
02141,Middlesex County,MA,NA,25.993883792048926,NA
02151,Suffolk County,MA,NA,0,NA
02155,Middlesex County,MA,NA,NA,0.8310249307479225
02170,Norfolk County,MA,NA,NA,23.822714681440445
02176,Middlesex County,MA,6.0606060606060606,NA,NA
02322,Norfolk County,MA,63.43434343434343,NA,NA
02467,Norfolk County,MA,NA,NA,64.54293628808865
02536,Barnstable County,MA,22.424242424242426,NA,NA
02576,Plymouth County,MA,59.3939393939394,NA,NA
02645,Barnstable County,MA,NA,NA,86.14958448753463
02664,Barnstable County,MA,NA,69.26605504587155,NA
02724,Bristol County,MA,NA,4.892966360856269,NA
02747,Bristol County,MA,NA,47.40061162079511,NA
02760,Bristol County,MA,40.60606060606061,NA,NA
48034,Oakland County,MI,NA,49.69418960244648,NA
48045,Macomb County,MI,25.050505050505052,NA,NA
48060,St. Clair County,MI,2.0202020202020203,NA,NA
48066,Macomb County,MI,NA,8.715596330275229,NA
48080,Macomb County,MI,NA,14.678899082568808,NA
48081,Macomb County,MI,NA,NA,14.958448753462603
48089,Macomb County,MI,6.666666666666667,56.88073394495413,NA
48105,Washtenaw County,MI,NA,NA,37.396121883656505
48111,Wayne County,MI,5.252525252525253,6.116207951070336,NA
48116,Livingston County,MI,NA,NA,41.55124653739612
48161,Monroe County,MI,31.515151515151512,NA,NA
48170,Wayne County,MI,NA,NA,3.32409972299169
48180,Wayne County,MI,NA,NA,38.504155124653735
48201,Wayne County,MI,69.8989898989899,NA,NA
48213,Wayne County,MI,10.1010101010101,NA,NA
48221,Wayne County,MI,3.2323232323232323,49.38837920489297,NA
48227,Wayne County,MI,NA,8.103975535168196,NA
48234,Wayne County,MI,6.262626262626263,NA,NA
48235,Wayne County,MI,33.33333333333333,55.35168195718655,NA
48240,Wayne County,MI,NA,NA,27.977839335180054
48312,Macomb County,MI,NA,NA,36.011080332409975
48313,Macomb County,MI,NA,23.547400611620795,NA
48316,Macomb County,MI,70.5050505050505,NA,NA
48326,Oakland County,MI,NA,79.0519877675841,NA
48327,Oakland County,MI,NA,38.99082568807339,NA
48328,Oakland County,MI,NA,28.899082568807337,NA
48329,Oakland County,MI,34.74747474747475,22.018348623853214,NA
48335,Oakland County,MI,49.09090909090909,NA,NA
48346,Oakland County,MI,38.78787878787879,NA,98.61495844875347
48509,Genesee County,MI,NA,75.68807339449542,NA
48706,Bay County,MI,5.858585858585859,15.59633027522936,NA
48739,Iosco County,MI,84.04040404040404,NA,NA
48813,Eaton County,MI,NA,17.431192660550458,NA
48850,Montcalm County,MI,NA,82.7217125382263,NA
48858,Isabella County,MI,NA,6.269113149847094,NA
48875,Ionia County,MI,NA,73.08868501529052,NA
48893,Isabella County,MI,NA,79.96941896024465,NA
48911,Ingham County,MI,NA,15.902140672782874,NA
49002,Kalamazoo County,MI,NA,29.510703363914377,NA
49015,Calhoun County,MI,17.373737373737374,NA,NA
49022,Berrien County,MI,8.484848484848486,NA,NA
49024,Kalamazoo County,MI,NA,55.04587155963303,NA
49036,Branch County,MI,59.79797979797979,NA,NA
49076,Eaton County,MI,NA,92.96636085626912,NA
49083,Kalamazoo County,MI,NA,98.1651376146789,NA
49085,Berrien County,MI,NA,NA,31.57894736842105
49120,Berrien County,MI,14.949494949494948,NA,NA
49221,Lenawee County,MI,NA,4.740061162079511,NA
49230,Jackson County,MI,71.71717171717171,NA,NA
49286,Lenawee County,MI,NA,44.18960244648318,NA
49327,Newaygo County,MI,76.76767676767676,NA,NA
49337,Newaygo County,MI,65.65656565656566,NA,NA
49341,Kent County,MI,NA,25.840978593272173,NA
49348,Allegan County,MI,63.23232323232323,NA,NA
49412,Newaygo County,MI,NA,NA,53.73961218836565
49428,Ottawa County,MI,NA,29.81651376146789,NA
49431,Mason County,MI,NA,25.229357798165136,NA
49442,Muskegon County,MI,NA,44.95412844036697,NA
49519,Kent County,MI,17.17171717171717,NA,NA
49631,Osceola County,MI,NA,64.83180428134557,NA
49858,Menominee County,MI,NA,69.8776758409786,NA
49920,Iron County,MI,NA,55.96330275229357,NA
49930,Houghton County,MI,NA,NA,65.65096952908587
49931,Houghton County,MI,83.23232323232324,NA,NA
49935,Iron County,MI,70.70707070707071,66.36085626911316,NA
55077,Dakota County,MN,NA,90.21406727828746,NA
55106,Ramsey County,MN,4.848484848484849,NA,NA
55328,Wright County,MN,NA,92.04892966360856,NA
55343,Hennepin County,MN,NA,NA,75.34626038781164
55410,Hennepin County,MN,NA,NA,77.28531855955679
55421,Anoka County,MN,NA,43.730886850152906,NA
55427,Hennepin County,MN,52.52525252525253,NA,NA
55430,Hennepin County,MN,19.393939393939394,NA,NA
55445,Hennepin County,MN,NA,NA,98.06094182825484
55744,Itasca County,MN,46.666666666666664,NA,NA
55803,St. Louis County,MN,65.85858585858585,NA,NA
56378,Stearns County,MN,NA,97.55351681957187,NA
56482,Wadena County,MN,NA,NA,33.2409972299169
56520,Wilkin County,MN,NA,96.48318042813455,NA
38751,Sunflower County,MS,NA,72.93577981651376,NA
38863,Pontotoc County,MS,85.45454545454545,NA,NA
38930,Leflore County,MS,NA,NA,28.254847645429365
39051,Leake County,MS,46.464646464646464,NA,NA
39157,Madison County,MS,NA,77.37003058103976,NA
39206,Hinds County,MS,NA,44.03669724770643,NA
39301,Lauderdale County,MS,19.7979797979798,86.54434250764525,NA
39345,Newton County,MS,99.39393939393939,NA,NA
39503,Harrison County,MS,NA,59.480122324159026,NA
39564,Jackson County,MS,NA,30.73394495412844,26.869806094182824
39666,Pike County,MS,NA,82.11009174311926,NA
63025,St. Louis County,MO,NA,72.17125382262996,70.6371191135734
63069,Franklin County,MO,NA,NA,59.2797783933518
63084,Franklin County,MO,51.91919191919192,NA,NA
63106,St. Louis city,MO,NA,NA,83.37950138504155
63114,St. Louis County,MO,25.454545454545453,NA,NA
63115,St. Louis city,MO,NA,NA,55.4016620498615
63123,St. Louis County,MO,NA,NA,3.0470914127423825
63137,St. Louis County,MO,40.2020202020202,40.519877675840974,NA
63139,St. Louis city,MO,NA,63.149847094801224,NA
63301,St. Charles County,MO,13.333333333333334,NA,NA
63376,St. Charles County,MO,NA,NA,3.8781163434903045
63379,Lincoln County,MO,76.36363636363637,NA,NA
63383,Warren County,MO,NA,NA,42.93628808864266
63552,Macon County,MO,NA,79.81651376146789,84.48753462603878
63628,St. Francois County,MO,61.81818181818181,NA,NA
63780,Scott County,MO,NA,NA,81.7174515235457
64015,Jackson County,MO,NA,NA,40.7202216066482
64030,Jackson County,MO,18.98989898989899,NA,NA
64052,Jackson County,MO,9.090909090909092,NA,NA
64068,Clay County,MO,7.474747474747474,7.186544342507645,NA
64083,Cass County,MO,NA,NA,47.64542936288089
64093,Johnson County,MO,NA,80.27522935779817,NA
64116,Clay County,MO,80.2020202020202,39.296636085626915,NA
64117,Clay County,MO,NA,42.201834862385326,NA
64119,Clay County,MO,NA,21.55963302752294,NA
64128,Jackson County,MO,NA,NA,77.00831024930747
64129,Jackson County,MO,NA,74.00611620795107,NA
64131,Jackson County,MO,14.545454545454545,NA,NA
64134,Jackson County,MO,43.63636363636363,NA,NA
64138,Jackson County,MO,10.303030303030303,NA,NA
64503,Buchanan County,MO,26.262626262626267,NA,NA
64507,Buchanan County,MO,NA,70.9480122324159,NA
64801,Jasper County,MO,NA,15.29051987767584,NA
64804,Jasper County,MO,NA,9.021406727828746,NA
64836,Jasper County,MO,19.5959595959596,28.440366972477065,NA
65078,Morgan County,MO,NA,NA,91.68975069252078
65202,Boone County,MO,69.4949494949495,NA,NA
65270,Randolph County,MO,29.09090909090909,NA,NA
65340,Saline County,MO,65.05050505050505,NA,NA
65453,Crawford County,MO,NA,91.59021406727828,NA
65656,Stone County,MO,NA,88.9908256880734,NA
65672,Taney County,MO,NA,NA,61.21883656509696
65706,Webster County,MO,NA,66.36085626911316,NA
65810,Greene County,MO,NA,NA,60.664819944598335
59102,Yellowstone County,MT,NA,4.587155963302752,NA
59323,Rosebud County,MT,NA,100,NA
59404,Cascade County,MT,NA,11.162079510703364,NA
59602,Lewis and Clark County,MT,55.757575757575765,NA,NA
59722,Powell County,MT,NA,95.71865443425077,NA
59833,Ravalli County,MT,NA,NA,97.50692520775624
68008,Washington County,NE,NA,61.773700305810394,NA
68110,Douglas County,NE,75.55555555555556,NA,NA
68124,Douglas County,NE,90.7070707070707,NA,NA
68154,Douglas County,NE,NA,46.02446483180428,NA
68776,Dakota County,NE,77.57575757575758,NA,NA
68949,Phelps County,NE,93.93939393939394,NA,NA
69101,Lincoln County,NE,NA,NA,10.80332409972299
89121,Clark County,NV,82.42424242424242,NA,NA
89146,Clark County,NV,NA,78.59327217125383,NA
89406,Churchill County,NV,NA,85.62691131498471,NA
89410,Douglas County,NV,NA,30.122324159021407,NA
89436,Washoe County,NV,NA,12.691131498470948,NA
89460,Douglas County,NV,NA,NA,49.03047091412742
89506,Washoe County,NV,NA,29.66360856269113,NA
89521,Washoe County,NV,48.282828282828284,NA,NA
89701,Carson City,NV,NA,41.437308868501525,NA
03054,Hillsborough County,NH,NA,18.04281345565749,NA
03055,Hillsborough County,NH,NA,NA,40.16620498614959
03079,Rockingham County,NH,NA,18.501529051987767,NA
03103,Hillsborough County,NH,56.96969696969697,NA,NA
03833,Rockingham County,NH,NA,33.79204892966361,NA
03867,Strafford County,NH,22.626262626262626,NA,NA
03874,Rockingham County,NH,NA,52.59938837920489,NA
07016,Union County,NJ,NA,40.97859327217125,NA
07036,Union County,NJ,NA,17.737003058103976,NA
07065,Union County,NJ,53.73737373737374,NA,NA
07306,Hudson County,NJ,NA,NA,17.451523545706372
07461,Sussex County,NJ,41.81818181818181,NA,NA
07628,Bergen County,NJ,NA,63.608562691131496,NA
07701,Monmouth County,NJ,NA,68.80733944954129,NA
07718,Monmouth County,NJ,98.7878787878788,NA,NA
07734,Monmouth County,NJ,NA,70.64220183486239,NA
07823,Warren County,NJ,NA,98.01223241590215,NA
07840,Warren County,NJ,NA,NA,31.301939058171747
08302,Cumberland County,NJ,8.88888888888889,NA,NA
08540,Mercer County,NJ,87.27272727272727,NA,NA
08730,Monmouth County,NJ,NA,NA,96.39889196675901
08731,Ocean County,NJ,NA,96.02446483180428,NA
08757,Ocean County,NJ,72.12121212121212,NA,NA
08830,Middlesex County,NJ,NA,NA,79.22437673130193
08861,Middlesex County,NJ,NA,NA,19.94459833795014
87015,Santa Fe County,NM,NA,99.38837920489296,NA
87102,Bernalillo County,NM,70.9090909090909,NA,NA
87105,Bernalillo County,NM,20.404040404040405,NA,NA
87107,Bernalillo County,NM,NA,82.41590214067278,NA
87114,Bernalillo County,NM,7.07070707070707,NA,NA
87122,Bernalillo County,NM,NA,67.73700305810397,NA
87123,Bernalillo County,NM,NA,NA,15.23545706371191
87508,Santa Fe County,NM,NA,48.47094801223242,NA
88240,Lea County,NM,4.242424242424243,NA,NA
10451,Bronx County,NY,NA,NA,6.094182825484765
10453,Bronx County,NY,NA,8.56269113149847,NA
10458,Bronx County,NY,10.909090909090908,NA,NA
10463,Bronx County,NY,NA,3.9755351681957185,NA
10467,Bronx County,NY,NA,0.1529051987767584,NA
10472,Bronx County,NY,14.14141414141414,NA,NA
10579,Putnam County,NY,NA,96.94189602446484,NA
11207,Kings County,NY,0,NA,NA
11218,Kings County,NY,17.77777777777778,NA,NA
11230,Kings County,NY,NA,NA,5.540166204986149
11236,Kings County,NY,2.4242424242424243,8.256880733944955,NA
11385,Queens County,NY,NA,NA,34.34903047091413
11501,Nassau County,NY,NA,NA,75.06925207756233
11542,Nassau County,NY,NA,48.318042813455655,NA
11553,Nassau County,NY,NA,65.29051987767585,NA
11577,Nassau County,NY,88.68686868686869,NA,NA
11590,Nassau County,NY,NA,29.96941896024465,NA
11789,Suffolk County,NY,99.79797979797979,NA,NA
11961,Suffolk County,NY,86.66666666666667,NA,NA
12010,Montgomery County,NY,3.0303030303030303,NA,NA
12025,Fulton County,NY,66.66666666666666,NA,NA
12208,Albany County,NY,NA,62.69113149847095,NA
12211,Albany County,NY,NA,96.17737003058105,NA
12414,Greene County,NY,NA,35.16819571865443,67.86703601108033
12589,Ulster County,NY,NA,NA,94.45983379501385
12590,Dutchess County,NY,NA,NA,44.04432132963989
12871,Saratoga County,NY,97.97979797979798,NA,NA
12962,Clinton County,NY,61.61616161616161,NA,NA
13032,Madison County,NY,62.82828282828283,NA,NA
13077,Cortland County,NY,57.97979797979798,NA,NA
13471,Oneida County,NY,NA,97.85932721712538,NA
13746,Broome County,NY,87.87878787878788,NA,NA
13820,Otsego County,NY,NA,7.492354740061162,16.06648199445983
14105,Niagara County,NY,84.64646464646465,NA,NA
14108,Niagara County,NY,NA,NA,85.59556786703601
14120,Niagara County,NY,2.8282828282828283,NA,NA
14202,Erie County,NY,NA,89.29663608562691,NA
14215,Erie County,NY,0.40404040404040403,NA,NA
14437,Livingston County,NY,45.05050505050505,NA,NA
14450,Monroe County,NY,NA,1.0703363914373087,NA
14467,Monroe County,NY,NA,48.92966360856269,NA
14489,Wayne County,NY,34.34343434343434,NA,NA
14502,Wayne County,NY,NA,46.63608562691132,NA
14534,Monroe County,NY,NA,1.834862385321101,NA
14580,Monroe County,NY,NA,NA,1.9390581717451523
14610,Monroe County,NY,30.303030303030305,NA,NA
14612,Monroe County,NY,NA,1.3761467889908259,NA
14616,Monroe County,NY,36.56565656565657,NA,NA
14626,Monroe County,NY,1.8181818181818181,NA,67.31301939058172
14701,Chautauqua County,NY,NA,1.9877675840978593,NA
14810,Steuben County,NY,33.73737373737374,NA,NA
27105,Forsyth County,NC,0.8080808080808081,NA,NA
27106,Forsyth County,NC,NA,23.08868501529052,NA
27258,Alamance County,NC,91.91919191919192,NA,NA
27302,Alamance County,NC,61.01010101010102,13.302752293577983,NA
27341,Randolph County,NC,NA,94.4954128440367,NA
27516,Orange County,NC,32.323232323232325,NA,NA
27526,Wake County,NC,NA,54.74006116207951,NA
27603,Wake County,NC,NA,NA,41.27423822714682
27610,Wake County,NC,NA,5.657492354740061,NA
27801,Edgecombe County,NC,NA,52.90519877675841,NA
27909,Pasquotank County,NC,11.91919191919192,NA,NA
27932,Chowan County,NC,NA,42.813455657492355,36.288088642659275
28025,Cabarrus County,NC,9.696969696969697,NA,NA
28027,Cabarrus County,NC,NA,7.339449541284404,NA
28031,Mecklenburg County,NC,81.61616161616162,NA,NA
28036,Mecklenburg County,NC,92.72727272727272,NA,NA
28097,Stanly County,NC,NA,NA,93.07479224376732
28105,Mecklenburg County,NC,NA,NA,91.41274238227147
28120,Gaston County,NC,80,NA,NA
28170,Anson County,NC,96.16161616161617,NA,NA
28212,Mecklenburg County,NC,80.60606060606061,NA,NA
28227,Mecklenburg County,NC,NA,16.666666666666664,NA
28327,Moore County,NC,93.33333333333333,NA,NA
28328,Sampson County,NC,36.96969696969697,NA,NA
28379,Richmond County,NC,NA,26.605504587155966,NA
28403,New Hanover County,NC,70.1010101010101,NA,NA
28457,Pender County,NC,88.28282828282829,NA,NA
28462,Brunswick County,NC,NA,83.18042813455658,NA
28557,Carteret County,NC,NA,39.296636085626915,NA
28613,Catawba County,NC,42.22222222222222,NA,NA
28645,Caldwell County,NC,NA,NA,1.662049861495845
28655,Burke County,NC,4.040404040404041,NA,NA
28657,Avery County,NC,NA,62.53822629969419,NA
28659,Wilkes County,NC,84.44444444444444,NA,NA
28716,Haywood County,NC,NA,37.920489296636084,NA
28731,Henderson County,NC,NA,47.40061162079511,NA
28732,Henderson County,NC,71.71717171717171,NA,NA
28752,McDowell County,NC,46.06060606060606,NA,NA
28782,Polk County,NC,NA,98.62385321100918,NA
28792,Henderson County,NC,NA,10.397553516819572,1.10803324099723
28804,Buncombe County,NC,NA,NA,65.37396121883657
28901,Cherokee County,NC,NA,NA,78.1163434903047
28906,Cherokee County,NC,NA,28.287461773700308,NA
58103,Cass County,ND,NA,19.26605504587156,NA
58301,Ramsey County,ND,NA,NA,62.32686980609419
58401,Stutsman County,ND,NA,68.50152905198776,NA
58503,Burleigh County,ND,NA,76.60550458715596,35.45706371191136
43040,Union County,OH,NA,51.52905198776758,NA
43050,Knox County,OH,5.656565656565657,NA,NA
43055,Licking County,OH,26.464646464646464,1.2232415902140672,NA
43078,Champaign County,OH,NA,35.77981651376147,NA
43081,Franklin County,OH,NA,NA,22.71468144044321
43110,Franklin County,OH,NA,60.39755351681957,NA
43222,Franklin County,OH,NA,91.89602446483181,NA
43232,Franklin County,OH,NA,15.443425076452598,NA
43302,Marion County,OH,14.747474747474747,2.4464831804281344,NA
43311,Logan County,OH,NA,69.1131498470948,NA
43351,Wyandot County,OH,NA,NA,78.94736842105263
43410,Sandusky County,OH,NA,NA,69.25207756232687
43420,Sandusky County,OH,NA,92.20183486238533,NA
43447,Wood County,OH,NA,97.09480122324159,NA
43450,Wood County,OH,NA,98.77675840978594,NA
43522,Wood County,OH,NA,98.92966360856269,NA
43551,Wood County,OH,NA,6.8807339449541285,NA
43558,Fulton County,OH,NA,45.10703363914373,56.78670360110804
43605,Lucas County,OH,1.2121212121212122,NA,NA
43608,Lucas County,OH,7.2727272727272725,73.85321100917432,NA
43611,Lucas County,OH,NA,28.593272171253826,NA
43612,Lucas County,OH,41.41414141414141,NA,NA
43614,Lucas County,OH,9.494949494949495,39.75535168195719,NA
43701,Muskingum County,OH,NA,0.3058103975535168,NA
43787,Morgan County,OH,98.58585858585859,NA,NA
43812,Coshocton County,OH,NA,7.79816513761468,NA
43920,Columbiana County,OH,NA,10.550458715596331,NA
43935,Belmont County,OH,NA,NA,64.81994459833795
43950,Belmont County,OH,NA,NA,80.33240997229917
43952,Jefferson County,OH,NA,60.703363914373085,NA
44024,Geauga County,OH,NA,66.97247706422019,13.019390581717452
44052,Lorain County,OH,NA,2.1406727828746175,NA
44057,Lake County,OH,NA,NA,13.573407202216067
44060,Lake County,OH,NA,0.6116207951070336,NA
44062,Geauga County,OH,NA,73.70030581039755,NA
44067,Summit County,OH,NA,18.654434250764528,NA
44070,Cuyahoga County,OH,22.828282828282827,NA,4.1551246537396125
44081,Lake County,OH,NA,92.50764525993884,NA
44106,Cuyahoga County,OH,NA,NA,18.83656509695291
44108,Cuyahoga County,OH,NA,5.198776758409786,NA
44111,Cuyahoga County,OH,9.8989898989899,19.724770642201836,NA
44112,Cuyahoga County,OH,NA,27.370030581039757,NA
44113,Cuyahoga County,OH,NA,36.23853211009174,NA
44122,Cuyahoga County,OH,NA,NA,0.2770083102493075
44126,Cuyahoga County,OH,NA,39.60244648318042,NA
44129,Cuyahoga County,OH,NA,14.831804281345565,NA
44130,Cuyahoga County,OH,NA,0.9174311926605505,0.554016620498615
44132,Cuyahoga County,OH,NA,46.02446483180428,NA
44133,Cuyahoga County,OH,NA,13.149847094801222,NA
44137,Cuyahoga County,OH,NA,9.785932721712538,26.31578947368421
44139,Cuyahoga County,OH,NA,14.067278287461773,13.850415512465375
44145,Cuyahoga County,OH,NA,4.434250764525994,NA
44149,Cuyahoga County,OH,NA,NA,11.357340720221606
44212,Medina County,OH,NA,0.764525993883792,NA
44262,Summit County,OH,NA,NA,92.5207756232687
44266,Portage County,OH,35.75757575757576,6.422018348623854,NA
44281,Medina County,OH,NA,14.525993883792049,NA
44307,Summit County,OH,NA,83.79204892966361,NA
44333,Summit County,OH,NA,74.15902140672783,NA
44410,Trumbull County,OH,38.58585858585858,NA,NA
44425,Trumbull County,OH,NA,26.146788990825687,NA
44436,Mahoning County,OH,NA,NA,87.81163434903047
44442,Mahoning County,OH,NA,NA,85.87257617728532
44484,Trumbull County,OH,58.98989898989899,NA,NA
44504,Mahoning County,OH,79.5959595959596,NA,NA
44505,Mahoning County,OH,NA,81.03975535168195,NA
44622,Tuscarawas County,OH,63.83838383838384,NA,71.46814404432132
44646,Stark County,OH,NA,42.354740061162076,NA
44647,Stark County,OH,48.08080808080808,NA,NA
44657,Stark County,OH,NA,99.2354740061162,NA
44662,Stark County,OH,NA,56.88073394495413,NA
44663,Tuscarawas County,OH,12.121212121212121,NA,NA
44683,Tuscarawas County,OH,26.060606060606062,NA,NA
44707,Stark County,OH,NA,74.61773700305811,NA
44708,Stark County,OH,27.67676767676768,67.2782874617737,NA
44709,Stark County,OH,NA,43.730886850152906,NA
44811,Sandusky County,OH,84.84848484848484,NA,NA
44830,Seneca County,OH,47.67676767676768,NA,NA
44870,Erie County,OH,NA,37.76758409785933,62.603878116343495
44905,Richland County,OH,NA,70.03058103975535,NA
45011,Butler County,OH,NA,3.3639143730886847,NA
45044,Butler County,OH,3.4343434343434343,NA,NA
45133,Highland County,OH,NA,20.948012232415902,NA
45140,Clermont County,OH,NA,NA,21.329639889196674
45150,Clermont County,OH,NA,63.91437308868502,NA
45211,Hamilton County,OH,NA,29.051987767584098,NA
45220,Hamilton County,OH,NA,NA,57.89473684210527
45231,Hamilton County,OH,6.4646464646464645,NA,NA
45238,Hamilton County,OH,NA,16.36085626911315,NA
45426,Montgomery County,OH,NA,34.25076452599388,NA
45628,Ross County,OH,82.02020202020202,NA,NA
45631,Gallia County,OH,NA,NA,5.263157894736842
45662,Scioto County,OH,47.474747474747474,NA,43.76731301939058
45680,Lawrence County,OH,11.717171717171718,NA,NA
45690,Pike County,OH,18.181818181818183,NA,NA
45769,Meigs County,OH,NA,93.88379204892966,NA
45804,Allen County,OH,57.17171717171718,NA,NA
45822,Mercer County,OH,79.7979797979798,NA,NA
73003,Oklahoma County,OK,85.05050505050505,NA,NA
73013,Oklahoma County,OK,NA,36.54434250764526,NA
73025,Oklahoma County,OK,87.07070707070706,NA,NA
73055,Stephens County,OK,72.32323232323232,NA,NA
73064,Canadian County,OK,NA,41.896024464831804,NA
73071,Cleveland County,OK,23.232323232323232,NA,NA
73086,Murray County,OK,NA,61.773700305810394,NA
73089,Grady County,OK,NA,85.16819571865443,NA
73099,Canadian County,OK,12.929292929292929,NA,51.52354570637119
73106,Oklahoma County,OK,NA,71.10091743119266,NA
73108,Oklahoma County,OK,NA,71.86544342507645,NA
73110,Oklahoma County,OK,NA,NA,11.634349030470915
73116,Oklahoma County,OK,NA,78.89908256880734,68.97506925207756
73120,Oklahoma County,OK,NA,NA,14.681440443213297
73130,Oklahoma County,OK,82.82828282828282,NA,NA
73446,Marshall County,OK,NA,87.76758409785933,NA
73521,Jackson County,OK,NA,54.89296636085626,NA
73533,Stephens County,OK,21.41414141414141,NA,NA
73750,Kingfisher County,OK,85.65656565656565,NA,NA
74011,Tulsa County,OK,63.63636363636363,NA,NA
74012,Tulsa County,OK,55.35353535353536,12.996941896024463,NA
74133,Tulsa County,OK,NA,21.865443425076453,NA
74432,McIntosh County,OK,NA,NA,70.6371191135734
74868,Seminole County,OK,68.28282828282828,NA,NA
97007,Washington County,OR,NA,27.522935779816514,NA
97009,Clackamas County,OR,NA,77.21712538226299,NA
97045,Clackamas County,OR,NA,11.62079510703364,NA
97141,Tillamook County,OR,NA,52.14067278287462,NA
97224,Washington County,OR,50.70707070707071,NA,NA
97322,Linn County,OR,NA,NA,7.756232686980609
97355,Linn County,OR,NA,NA,7.202216066481995
97458,Coos County,OR,98.18181818181819,NA,NA
97471,Douglas County,OR,18.383838383838384,NA,10.526315789473683
97478,Lane County,OR,39.7979797979798,NA,NA
97502,Jackson County,OR,41.21212121212121,NA,NA
97754,Crook County,OR,NA,23.394495412844037,NA
97882,Umatilla County,OR,78.98989898989899,NA,NA
15136,Allegheny County,PA,NA,NA,42.65927977839335
15207,Allegheny County,PA,56.16161616161616,NA,NA
15216,Allegheny County,PA,NA,48.62385321100918,NA
15235,Allegheny County,PA,20,NA,NA
15417,Fayette County,PA,NA,96.3302752293578,NA
15644,Westmoreland County,PA,NA,31.95718654434251,NA
15905,Cambria County,PA,NA,34.09785932721712,NA
15906,Cambria County,PA,53.939393939393945,NA,NA
16125,Mercer County,PA,NA,16.51376146788991,NA
16335,Crawford County,PA,NA,9.785932721712538,NA
16401,Erie County,PA,NA,NA,90.02770083102493
16509,Erie County,PA,NA,NA,24.099722991689752
16602,Blair County,PA,13.131313131313133,NA,NA
16830,Clearfield County,PA,28.888888888888886,NA,NA
16833,Clearfield County,PA,71.11111111111111,55.5045871559633,NA
17044,Mifflin County,PA,11.515151515151516,NA,39.612188365650965
17113,Dauphin County,PA,74.34343434343434,NA,NA
17202,Franklin County,PA,27.878787878787882,NA,12.465373961218837
17347,York County,PA,NA,95.71865443425077,NA
17522,Lancaster County,PA,NA,12.232415902140673,NA
17543,Lancaster County,PA,23.83838383838384,NA,NA
17555,Lancaster County,PA,NA,NA,96.1218836565097
17603,Lancaster County,PA,8.282828282828284,NA,NA
17701,Lycoming County,PA,2.6262626262626263,NA,NA
17740,Lycoming County,PA,86.86868686868688,NA,NA
17820,Columbia County,PA,NA,NA,99.16897506925207
17976,Schuylkill County,PA,80.4040404040404,NA,NA
18037,Lehigh County,PA,NA,NA,93.90581717451524
18069,Lehigh County,PA,83.83838383838383,NA,NA
18103,Lehigh County,PA,3.6363636363636362,NA,NA
18104,Lehigh County,PA,13.737373737373737,NA,NA
18621,Luzerne County,PA,NA,84.40366972477065,NA
18634,Luzerne County,PA,NA,NA,54.84764542936288
18657,Wyoming County,PA,NA,NA,59.556786703601105
18704,Luzerne County,PA,16.969696969696972,NA,NA
18707,Luzerne County,PA,55.15151515151515,NA,NA
18938,Bucks County,PA,NA,NA,53.18559556786704
18977,Bucks County,PA,NA,87.30886850152905,NA
19021,Bucks County,PA,59.3939393939394,NA,NA
19027,Montgomery County,PA,44.64646464646464,NA,NA
19032,Delaware County,PA,NA,NA,99.7229916897507
19060,Delaware County,PA,NA,75.38226299694189,NA
19064,Delaware County,PA,41.01010101010101,NA,NA
19073,Delaware County,PA,NA,32.7217125382263,NA
19086,Delaware County,PA,NA,NA,70.3601108033241
19119,Philadelphia County,PA,NA,NA,37.119113573407205
19132,Philadelphia County,PA,NA,16.207951070336392,NA
19140,Philadelphia County,PA,1.0101010101010102,NA,NA
19320,Chester County,PA,NA,NA,18.005540166204987
19380,Chester County,PA,42.02020202020202,NA,NA
19390,Chester County,PA,NA,57.18654434250765,NA
19406,Montgomery County,PA,75.15151515151514,NA,NA
19422,Montgomery County,PA,NA,80.8868501529052,NA
19425,Chester County,PA,93.53535353535354,NA,NA
19426,Montgomery County,PA,NA,29.357798165137616,NA
19460,Chester County,PA,NA,NA,21.052631578947366
19464,Montgomery County,PA,NA,6.574923547400611,NA
19525,Montgomery County,PA,NA,74.92354740061162,73.68421052631578
19533,Berks County,PA,NA,78.13455657492355,NA
19565,Berks County,PA,76.96969696969697,NA,NA
19601,Berks County,PA,NA,45.25993883792049,NA
19607,Berks County,PA,NA,NA,13.29639889196676
19608,Berks County,PA,29.6969696969697,NA,NA
02809,Bristol County,RI,NA,31.19266055045872,NA
02886,Kent County,RI,33.939393939393945,NA,NA
02907,Providence County,RI,NA,NA,77.8393351800554
02914,Providence County,RI,NA,40.0611620795107,NA
02915,Providence County,RI,75.75757575757575,NA,NA
29061,Richland County,SC,91.11111111111111,NA,NA
29073,Lexington County,SC,NA,35.932721712538225,NA
29209,Richland County,SC,NA,46.02446483180428,NA
29306,Spartanburg County,SC,NA,66.05504587155964,NA
29407,Charleston County,SC,NA,NA,47.92243767313019
29412,Charleston County,SC,NA,21.253822629969417,NA
29414,Charleston County,SC,NA,NA,29.6398891966759
29440,Georgetown County,SC,45.85858585858586,NA,NA
29461,Berkeley County,SC,34.74747474747475,NA,NA
29492,Berkeley County,SC,NA,NA,90.58171745152355
29541,Florence County,SC,NA,87.00305810397553,NA
29569,Horry County,SC,NA,NA,69.80609418282549
29570,Marlboro County,SC,97.57575757575758,NA,NA
29575,Horry County,SC,NA,56.269113149847094,NA
29576,Horry County,SC,NA,12.538226299694188,NA
29579,Horry County,SC,NA,NA,93.62880886426593
29625,Anderson County,SC,NA,NA,45.15235457063712
29646,Greenwood County,SC,NA,NA,26.59279778393352
29649,Greenwood County,SC,NA,51.07033639143731,NA
29678,Oconee County,SC,96.76767676767678,NA,NA
29681,Greenville County,SC,NA,NA,33.2409972299169
29707,Lancaster County,SC,NA,NA,55.67867036011081
29732,York County,SC,NA,90.97859327217125,NA
29805,Aiken County,SC,NA,NA,97.78393351800554
29835,McCormick County,SC,NA,70.48929663608563,81.99445983379502
57301,Davison County,SD,NA,31.49847094801223,NA
57401,Brown County,SD,NA,NA,1.3850415512465373
57702,Pennington County,SD,NA,NA,37.67313019390582
37015,Cheatham County,TN,NA,42.96636085626911,NA
37042,Montgomery County,TN,24.242424242424242,NA,NA
37055,Dickson County,TN,24.444444444444443,73.54740061162079,NA
37066,Sumner County,TN,NA,9.327217125382264,NA
37160,Bedford County,TN,NA,31.49847094801223,NA
37167,Rutherford County,TN,NA,25.076452599388375,NA
37172,Robertson County,TN,16.161616161616163,NA,NA
37174,Williamson County,TN,47.27272727272727,NA,91.13573407202216
37217,Davidson County,TN,NA,51.98776758409785,NA
37312,Bradley County,TN,44.24242424242424,NA,32.13296398891966
37321,Rhea County,TN,29.292929292929294,NA,NA
37329,McMinn County,TN,NA,89.14373088685015,NA
37334,Lincoln County,TN,NA,NA,40.99722991689751
37367,Bledsoe County,TN,NA,85.01529051987767,NA
37381,Rhea County,TN,NA,NA,64.26592797783933
37398,Franklin County,TN,45.656565656565654,NA,42.10526315789473
37421,Hamilton County,TN,NA,NA,25.20775623268698
37692,Unicoi County,TN,94.94949494949495,NA,NA
37708,Grainger County,TN,82.02020202020202,NA,NA
37714,Campbell County,TN,NA,98.47094801223241,NA
37757,Campbell County,TN,NA,90.36697247706422,NA
37769,Anderson County,TN,NA,84.5565749235474,NA
37801,Blount County,TN,NA,NA,29.362880886426595
37814,Hamblen County,TN,33.535353535353536,NA,NA
37830,Anderson County,TN,54.94949494949495,NA,NA
37865,Sevier County,TN,NA,41.59021406727829,NA
37914,Knox County,TN,67.27272727272727,NA,NA
37918,Knox County,TN,13.737373737373737,NA,72.57617728531855
37919,Knox County,TN,NA,NA,85.3185595567867
38120,Shelby County,TN,NA,91.28440366972477,NA
38261,Obion County,TN,NA,67.88990825688074,NA
38555,Cumberland County,TN,NA,37.46177370030581,NA
38558,Cumberland County,TN,NA,NA,36.84210526315789
38571,Cumberland County,TN,NA,40.825688073394495,NA
75006,Dallas County,TX,NA,27.675840978593275,NA
75024,Collin County,TX,NA,NA,63.1578947368421
75025,Collin County,TX,NA,NA,58.448753462603875
75034,Denton County,TX,39.39393939393939,61.62079510703364,NA
75043,Dallas County,TX,67.87878787878789,NA,27.70083102493075
75051,Dallas County,TX,43.43434343434344,NA,NA
75052,Dallas County,TX,18.585858585858585,11.926605504587156,62.880886426592795
75070,Collin County,TX,15.95959595959596,11.009174311926607,NA
75103,Van Zandt County,TX,NA,46.788990825688074,NA
75110,Navarro County,TX,NA,44.342507645259936,NA
75126,Kaufman County,TX,33.131313131313135,NA,NA
75142,Kaufman County,TX,NA,59.78593272171254,NA
75149,Dallas County,TX,NA,89.90825688073394,NA
75189,Rockwall County,TX,45.45454545454545,NA,NA
75216,Dallas County,TX,NA,9.174311926605505,NA
75217,Dallas County,TX,7.878787878787878,NA,NA
75234,Dallas County,TX,NA,76.45259938837921,NA
75235,Dallas County,TX,NA,87.00305810397553,NA
75243,Dallas County,TX,13.535353535353536,NA,NA
75401,Hunt County,TX,NA,55.198776758409785,72.02216066481995
75418,Fannin County,TX,62.62626262626263,NA,NA
75494,Wood County,TX,NA,94.64831804281346,NA
75559,Bowie County,TX,NA,86.69724770642202,NA
75605,Gregg County,TX,NA,35.47400611620795,28.254847645429365
75638,Morris County,TX,NA,NA,87.53462603878116
75701,Smith County,TX,NA,75.07645259938838,NA
75702,Smith County,TX,38.38383838383838,NA,NA
75751,Henderson County,TX,NA,76.91131498470948,NA
75752,Henderson County,TX,NA,95.41284403669725,NA
75758,Henderson County,TX,NA,40.36697247706422,NA
75763,Anderson County,TX,95.35353535353536,81.49847094801224,NA
75773,Wood County,TX,NA,27.82874617737003,NA
75791,Smith County,TX,NA,40.519877675840974,NA
75831,Leon County,TX,NA,NA,96.67590027700831
75951,Jasper County,TX,48.282828282828284,NA,NA
75961,Nacogdoches County,TX,NA,90.36697247706422,NA
76028,Johnson County,TX,NA,3.669724770642202,11.080332409972298
76048,Hood County,TX,NA,65.90214067278288,NA
76049,Hood County,TX,69.0909090909091,20.03058103975535,NA
76051,Tarrant County,TX,NA,33.33333333333333,NA
76078,Wise County,TX,84.04040404040404,NA,NA
76087,Parker County,TX,NA,NA,60.387811634349035
76105,Tarrant County,TX,NA,24.31192660550459,NA
76114,Tarrant County,TX,NA,NA,89.75069252077562
76116,Tarrant County,TX,23.636363636363637,NA,NA
76117,Tarrant County,TX,64.44444444444444,NA,NA
76182,Tarrant County,TX,NA,NA,51.8005540166205
76210,Denton County,TX,NA,80.73394495412845,63.1578947368421
76244,Tarrant County,TX,56.36363636363636,NA,NA
76248,Tarrant County,TX,62.22222222222222,NA,NA
76302,Wichita County,TX,NA,72.78287461773701,NA
76442,Comanche County,TX,NA,72.32415902140673,NA
76450,Young County,TX,94.14141414141413,NA,NA
76522,Coryell County,TX,NA,12.385321100917432,NA
76528,Coryell County,TX,29.292929292929294,NA,NA
76543,Bell County,TX,58.58585858585859,NA,NA
76548,Bell County,TX,45.25252525252525,16.972477064220186,95.56786703601108
76567,Milam County,TX,NA,NA,44.59833795013851
76712,McLennan County,TX,NA,NA,81.16343490304709
76901,Tom Green County,TX,NA,NA,86.42659279778393
77024,Harris County,TX,NA,37.61467889908257,NA
77055,Harris County,TX,NA,54.58715596330275,NA
77059,Harris County,TX,NA,59.9388379204893,NA
77062,Harris County,TX,NA,54.12844036697248,NA
77086,Harris County,TX,64.04040404040404,NA,NA
77091,Harris County,TX,NA,45.56574923547401,NA
77095,Harris County,TX,NA,13.914373088685014,NA
77098,Harris County,TX,NA,86.69724770642202,NA
77301,Montgomery County,TX,NA,77.98165137614679,NA
77328,San Jacinto County,TX,76.56565656565657,NA,NA
77336,Harris County,TX,NA,72.62996941896024,NA
77339,Harris County,TX,NA,35.321100917431195,NA
77354,Montgomery County,TX,47.878787878787875,NA,NA
77386,Montgomery County,TX,NA,76.29969418960245,NA
77401,Harris County,TX,68.68686868686868,NA,NA
77406,Fort Bend County,TX,NA,NA,44.32132963988919
77429,Harris County,TX,10.707070707070706,NA,NA
77437,Wharton County,TX,NA,NA,77.5623268698061
77471,Fort Bend County,TX,NA,NA,45.42936288088642
77474,Austin County,TX,91.31313131313131,NA,NA
77489,Fort Bend County,TX,NA,63.30275229357798,NA
77494,Fort Bend County,TX,17.97979797979798,NA,NA
77498,Fort Bend County,TX,52.121212121212125,NA,NA
77505,Harris County,TX,NA,NA,59.556786703601105
77539,Galveston County,TX,20.2020202020202,NA,NA
77566,Brazoria County,TX,50.101010101010104,42.96636085626911,NA
77581,Brazoria County,TX,NA,22.171253822629968,NA
77706,Jefferson County,TX,NA,32.415902140672785,NA
77833,Washington County,TX,NA,61.00917431192661,NA
77845,Brazos County,TX,NA,4.128440366972478,NA
78040,Webb County,TX,NA,35.62691131498471,NA
78046,Webb County,TX,15.555555555555555,NA,NA
78130,Comal County,TX,NA,NA,8.033240997229916
78133,Comal County,TX,NA,68.96024464831805,NA
78201,Bexar County,TX,NA,20.489296636085626,39.05817174515235
78216,Bexar County,TX,NA,59.174311926605505,NA
78237,Bexar County,TX,30.707070707070706,NA,49.584487534626035
78250,Bexar County,TX,NA,51.37614678899083,NA
78261,Bexar County,TX,87.87878787878788,NA,NA
78363,Kleberg County,TX,NA,58.103975535168196,NA
78504,Hidalgo County,TX,NA,42.6605504587156,NA
78541,Hidalgo County,TX,NA,60.09174311926605,NA
78613,Williamson County,TX,NA,88.83792048929664,NA
78624,Gillespie County,TX,NA,NA,44.87534626038781
78628,Williamson County,TX,72.92929292929293,NA,NA
78644,Caldwell County,TX,95.75757575757575,79.35779816513761,NA
78759,Travis County,TX,NA,93.57798165137615,NA
78852,Maverick County,TX,53.535353535353536,36.69724770642202,NA
78861,Medina County,TX,NA,82.26299694189603,NA
78934,Colorado County,TX,NA,64.52599388379205,NA
78957,Bastrop County,TX,NA,84.09785932721712,NA
79109,Randall County,TX,NA,41.896024464831804,NA
79118,Randall County,TX,70.3030303030303,NA,NA
79121,Randall County,TX,99.19191919191918,NA,NA
79412,Lubbock County,TX,NA,87.46177370030581,NA
79605,Taylor County,TX,NA,NA,22.437673130193904
79705,Midland County,TX,27.27272727272727,NA,NA
79706,Midland County,TX,NA,63.30275229357798,NA
79720,Howard County,TX,50.505050505050505,NA,NA
79762,Ector County,TX,NA,38.837920489296636,55.95567867036011
79907,El Paso County,TX,38.98989898989899,NA,NA
79938,El Paso County,TX,NA,62.38532110091744,NA
84009,Salt Lake County,UT,NA,56.574923547400616,NA
84047,Salt Lake County,UT,NA,NA,68.69806094182826
84078,Uintah County,UT,16.767676767676768,NA,NA
84092,Salt Lake County,UT,NA,NA,70.08310249307479
84096,Salt Lake County,UT,NA,NA,90.30470914127424
84604,Utah County,UT,NA,80.42813455657493,NA
84720,Iron County,UT,NA,72.01834862385321,NA
05001,Windsor County,VT,82.62626262626263,NA,NA
05450,Franklin County,VT,NA,78.44036697247707,NA
05478,Franklin County,VT,53.333333333333336,NA,NA
05701,Rutland County,VT,NA,10.244648318042813,NA
20110,Manassas city,VA,NA,53.822629969418955,NA
20147,Loudoun County,VA,NA,52.44648318042814,NA
20164,Loudoun County,VA,44.84848484848485,NA,NA
22079,Fairfax County,VA,73.53535353535354,NA,NA
22203,Arlington County,VA,NA,74.77064220183486,NA
22306,Fairfax County,VA,29.898989898989896,NA,NA
22310,Fairfax County,VA,NA,64.37308868501529,NA
22656,Frederick County,VA,97.77777777777777,NA,NA
22911,Albemarle County,VA,NA,NA,62.04986149584487
22936,Albemarle County,VA,NA,NA,93.35180055401662
23024,Louisa County,VA,88.88888888888889,NA,NA
23060,Henrico County,VA,NA,78.74617737003058,NA
23140,New Kent County,VA,NA,NA,94.73684210526315
23220,Richmond city,VA,NA,50.764525993883794,NA
23221,Richmond city,VA,NA,NA,80.60941828254848
23231,Henrico County,VA,23.03030303030303,17.2782874617737,NA
23234,Chesterfield County,VA,49.898989898989896,NA,NA
23294,Henrico County,VA,NA,85.47400611620795,NA
23434,Suffolk city,VA,16.363636363636363,NA,NA
23435,Suffolk city,VA,NA,32.87461773700306,48.476454293628805
23464,Virginia Beach city,VA,NA,3.211009174311927,NA
23505,Norfolk city,VA,NA,30.58103975535168,NA
23601,Newport News city,VA,NA,NA,61.772853185595565
23701,Portsmouth city,VA,NA,23.853211009174313,NA
23803,Petersburg city,VA,10.505050505050505,NA,26.038781163434905
23860,Hopewell city,VA,32.72727272727273,NA,NA
24073,Montgomery County,VA,NA,49.235474006116206,NA
24091,Floyd County,VA,93.13131313131314,NA,NA
24211,Washington County,VA,NA,NA,65.92797783933518
24370,Smyth County,VA,NA,58.40978593272171,NA
24477,Augusta County,VA,NA,45.87155963302752,NA
24590,Albemarle County,VA,NA,NA,81.4404432132964
98026,Snohomish County,WA,35.95959595959596,NA,NA
98028,King County,WA,72.72727272727273,NA,NA
98042,King County,WA,NA,12.079510703363914,NA
98112,King County,WA,NA,62.84403669724771,NA
98122,King County,WA,NA,39.14373088685015,NA
98126,King County,WA,NA,58.256880733944946,NA
98198,King County,WA,NA,27.981651376146786,NA
98221,Skagit County,WA,60,NA,NA
98257,Skagit County,WA,NA,NA,95.29085872576178
98282,Island County,WA,NA,37.308868501529055,NA
98362,Clallam County,WA,36.36363636363637,NA,NA
98366,Kitsap County,WA,NA,NA,87.25761772853186
98382,Clallam County,WA,51.31313131313131,2.599388379204893,NA
98520,Grays Harbor County,WA,NA,NA,53.46260387811634
98831,Chelan County,WA,NA,99.69418960244649,NA
98902,Yakima County,WA,NA,24.617737003058103,NA
98903,Yakima County,WA,NA,51.223241590214066,NA
98908,Yakima County,WA,39.1919191919192,NA,NA
99301,Franklin County,WA,NA,7.033639143730887,NA
99320,Benton County,WA,NA,NA,91.96675900277008
99336,Benton County,WA,58.18181818181818,NA,NA
99337,Benton County,WA,NA,7.64525993883792,NA
99338,Benton County,WA,83.03030303030303,NA,NA
25143,Kanawha County,WV,59.1919191919192,NA,NA
25306,Kanawha County,WV,NA,93.42507645259938,NA
25309,Kanawha County,WV,64.64646464646465,NA,NA
25312,Kanawha County,WV,64.24242424242425,NA,NA
25313,Kanawha County,WV,90.1010101010101,NA,NA
25526,Putnam County,WV,40,NA,NA
25560,Putnam County,WV,NA,93.11926605504587,NA
25670,Mingo County,WV,NA,NA,100
25801,Raleigh County,WV,NA,9.480122324159021,NA
25951,Summers County,WV,68.48484848484848,NA,NA
26047,Hancock County,WV,NA,50.61162079510704,NA
26164,Jackson County,WV,58.78787878787879,NA,NA
26288,Webster County,WV,NA,NA,76.73130193905817
26508,Monongalia County,WV,24.646464646464647,NA,16.62049861495845
53004,Ozaukee County,WI,NA,96.63608562691131,NA
53027,Washington County,WI,NA,NA,67.59002770083103
53092,Ozaukee County,WI,NA,38.68501529051988,NA
53105,Racine County,WI,NA,11.62079510703364,NA
53110,Milwaukee County,WI,NA,NA,29.085872576177284
53140,Kenosha County,WI,NA,NA,60.11080332409973
53182,Racine County,WI,NA,56.727828746177366,NA
53205,Milwaukee County,WI,1.4141414141414141,NA,NA
53207,Milwaukee County,WI,26.86868686868687,NA,NA
53209,Milwaukee County,WI,16.565656565656568,NA,NA
53215,Milwaukee County,WI,22.22222222222222,NA,NA
53220,Milwaukee County,WI,31.91919191919192,NA,68.14404432132964
53224,Milwaukee County,WI,NA,NA,50.96952908587258
53228,Milwaukee County,WI,NA,42.50764525993883,NA
53551,Jefferson County,WI,77.37373737373737,NA,NA
54017,St. Croix County,WI,49.292929292929294,NA,NA
54115,Brown County,WI,NA,NA,76.17728531855957
54216,Kewaunee County,WI,NA,91.43730886850153,NA
54220,Manitowoc County,WI,4.444444444444445,NA,NA
54302,Brown County,WI,26.666666666666668,NA,NA
54304,Brown County,WI,21.616161616161616,NA,NA
54409,Langlade County,WI,NA,NA,8.587257617728532
54482,Portage County,WI,NA,NA,54.57063711911358
54601,La Crosse County,WI,5.454545454545454,NA,NA
54701,Eau Claire County,WI,43.83838383838384,NA,NA
54703,Eau Claire County,WI,NA,77.82874617737004,NA
54758,Trempealeau County,WI,98.98989898989899,NA,NA
54880,Douglas County,WI,NA,NA,31.855955678670362
54935,Fond du Lac County,WI,NA,14.220183486238533,NA
54981,Waupaca County,WI,NA,43.425076452599384,NA
54983,Waupaca County,WI,86.26262626262627,NA,NA
82414,Park County,WY,NA,38.53211009174312,NA
82716,Campbell County,WY,NA,77.67584097859327,NA
