ZipCode,county,state,Adult,Retirement,Geriatric
35111,Tuscaloosa County,AL,52.61194029850746,NA,NA
35175,Marshall County,AL,91.7910447761194,NA,NA
35235,Jefferson County,AL,NA,NA,78.03468208092485
35555,Fayette County,AL,74.25373134328358,NA,NA
35601,Morgan County,AL,NA,11.83574879227053,NA
35603,Morgan County,AL,NA,28.26086956521739,NA
36027,Barbour County,AL,46.26865671641791,NA,NA
36116,Montgomery County,AL,NA,NA,55.78034682080924
36535,Baldwin County,AL,NA,18.59903381642512,NA
36606,Mobile County,AL,73.13432835820896,NA,NA
36874,Lee County,AL,92.91044776119402,NA,NA
99701,Fairbanks North Star Borough,AK,41.04477611940299,NA,NA
85008,Maricopa County,AZ,71.26865671641791,NA,NA
85016,Maricopa County,AZ,NA,31.88405797101449,NA
85023,Maricopa County,AZ,NA,NA,67.63005780346822
85024,Maricopa County,AZ,NA,NA,94.79768786127167
85041,Maricopa County,AZ,39.17910447761194,NA,NA
85044,Maricopa County,AZ,58.582089552238806,NA,NA
85053,Maricopa County,AZ,NA,57.48792270531401,NA
85119,Pinal County,AZ,NA,41.30434782608695,NA
85249,Maricopa County,AZ,52.23880597014925,NA,NA
85286,Maricopa County,AZ,NA,NA,93.9306358381503
85351,Maricopa County,AZ,NA,NA,1.1560693641618496
85373,Maricopa County,AZ,NA,44.68599033816425,NA
85375,Maricopa County,AZ,NA,NA,9.826589595375722
85381,Maricopa County,AZ,NA,73.42995169082126,NA
85387,Maricopa County,AZ,NA,75.1207729468599,NA
85395,Maricopa County,AZ,83.2089552238806,NA,NA
85710,Pima County,AZ,NA,14.492753623188406,NA
85718,Pima County,AZ,NA,NA,18.497109826589593
85750,Pima County,AZ,NA,44.44444444444444,NA
86301,Yavapai County,AZ,NA,NA,15.31791907514451
86324,Yavapai County,AZ,NA,92.7536231884058,NA
86406,Mohave County,AZ,NA,23.67149758454106,NA
71665,Cleveland County,AR,NA,90.57971014492753,NA
72081,White County,AR,91.04477611940298,NA,NA
72116,Pulaski County,AR,NA,NA,32.65895953757225
72143,White County,AR,NA,59.90338164251207,NA
72205,Pulaski County,AR,NA,54.830917874396135,NA
72455,Randolph County,AR,NA,NA,86.70520231213872
72712,Benton County,AR,NA,91.06280193236715,44.21965317919075
72956,Crawford County,AR,NA,25.120772946859905,NA
90018,Los Angeles County,CA,NA,27.536231884057973,NA
90039,Los Angeles County,CA,89.17910447761194,NA,NA
90042,Los Angeles County,CA,60.07462686567165,NA,NA
90044,Los Angeles County,CA,NA,NA,35.83815028901734
90047,Los Angeles County,CA,19.402985074626866,NA,NA
90048,Los Angeles County,CA,NA,58.454106280193244,NA
90250,Los Angeles County,CA,NA,NA,34.68208092485549
90503,Los Angeles County,CA,NA,NA,35.54913294797688
90504,Los Angeles County,CA,NA,NA,56.06936416184971
90606,Los Angeles County,CA,NA,NA,48.84393063583815
90630,Orange County,CA,54.850746268656714,NA,NA
90631,Orange County,CA,NA,14.734299516908212,NA
90660,Los Angeles County,CA,NA,32.125603864734295,NA
90715,Los Angeles County,CA,NA,74.15458937198068,NA
90808,Los Angeles County,CA,NA,NA,39.30635838150289
91105,Los Angeles County,CA,NA,62.07729468599034,NA
91205,Los Angeles County,CA,NA,NA,24.277456647398843
91320,Ventura County,CA,74.6268656716418,NA,NA
91343,Los Angeles County,CA,NA,NA,41.040462427745666
91360,Ventura County,CA,NA,45.410628019323674,NA
91941,San Diego County,CA,NA,NA,45.95375722543353
91977,San Diego County,CA,41.417910447761194,NA,NA
92014,San Diego County,CA,NA,80.91787439613528,NA
92025,San Diego County,CA,NA,NA,47.398843930635834
92065,San Diego County,CA,NA,NA,64.73988439306359
92109,San Diego County,CA,79.47761194029852,NA,NA
92115,San Diego County,CA,36.940298507462686,NA,NA
92201,Riverside County,CA,NA,68.59903381642512,NA
92284,San Bernardino County,CA,32.46268656716418,NA,NA
92505,Riverside County,CA,53.35820895522389,NA,NA
92626,Orange County,CA,NA,NA,30.057803468208093
92629,Orange County,CA,NA,NA,87.28323699421965
92646,Orange County,CA,31.716417910447763,4.1062801932367154,NA
92672,Orange County,CA,NA,51.20772946859904,NA
92677,Orange County,CA,NA,7.004830917874397,NA
92679,Orange County,CA,69.40298507462687,NA,NA
92691,Orange County,CA,NA,NA,48.26589595375722
92805,Orange County,CA,83.5820895522388,NA,NA
92807,Orange County,CA,NA,NA,44.797687861271676
92865,Orange County,CA,NA,82.3671497584541,NA
92866,Orange County,CA,NA,82.85024154589372,NA
92867,Orange County,CA,NA,52.65700483091788,31.213872832369944
92869,Orange County,CA,NA,44.20289855072464,NA
92886,Orange County,CA,35.82089552238806,15.70048309178744,NA
93003,Ventura County,CA,NA,17.391304347826086,12.716763005780345
93010,Ventura County,CA,NA,23.42995169082126,NA
93033,Ventura County,CA,13.432835820895523,NA,78.61271676300578
93308,Kern County,CA,NA,27.053140096618357,NA
93313,Kern County,CA,59.32835820895522,49.275362318840585,NA
93458,Santa Barbara County,CA,NA,26.811594202898554,NA
93514,Inyo County,CA,NA,68.11594202898551,NA
93611,Fresno County,CA,NA,31.642512077294686,NA
93614,Madera County,CA,NA,NA,82.36994219653178
93618,Tulare County,CA,60.820895522388064,NA,NA
93631,Fresno County,CA,NA,NA,85.26011560693641
93644,Madera County,CA,NA,87.68115942028986,NA
93722,Fresno County,CA,NA,12.560386473429952,NA
93725,Fresno County,CA,75.3731343283582,NA,NA
93950,Monterey County,CA,NA,65.70048309178745,NA
94030,San Mateo County,CA,NA,NA,20.23121387283237
94070,San Mateo County,CA,NA,87.19806763285024,NA
94086,Santa Clara County,CA,NA,74.63768115942028,NA
94112,San Francisco County,CA,NA,NA,3.7572254335260116
94116,San Francisco County,CA,63.80597014925373,NA,NA
94509,Contra Costa County,CA,NA,9.903381642512077,15.028901734104046
94510,Solano County,CA,NA,NA,73.69942196531792
94518,Contra Costa County,CA,NA,NA,60.115606936416185
94523,Contra Costa County,CA,NA,NA,48.84393063583815
94545,Alameda County,CA,NA,NA,63.005780346820806
94547,Contra Costa County,CA,NA,NA,76.01156069364163
94549,Contra Costa County,CA,NA,83.57487922705315,NA
94565,Contra Costa County,CA,NA,3.6231884057971016,NA
94571,Solano County,CA,NA,58.69565217391305,NA
94577,Alameda County,CA,NA,30.676328502415455,NA
94585,Solano County,CA,87.68656716417911,NA,NA
94590,Solano County,CA,NA,24.637681159420293,NA
94597,Contra Costa County,CA,NA,72.70531400966183,NA
94605,Alameda County,CA,NA,21.497584541062803,NA
94610,Alameda County,CA,NA,NA,41.90751445086705
94619,Alameda County,CA,NA,97.34299516908213,NA
94960,Marin County,CA,NA,79.22705314009661,NA
95014,Santa Clara County,CA,NA,NA,20.520231213872833
95207,San Joaquin County,CA,61.19402985074627,NA,NA
95315,Merced County,CA,NA,95.89371980676329,NA
95320,San Joaquin County,CA,82.08955223880598,NA,NA
95336,San Joaquin County,CA,NA,19.32367149758454,NA
95501,Humboldt County,CA,NA,31.15942028985507,NA
95540,Humboldt County,CA,NA,NA,60.40462427745664
95660,Sacramento County,CA,NA,NA,64.16184971098265
95687,Solano County,CA,NA,19.565217391304348,23.121387283236995
95691,Yolo County,CA,NA,50.48309178743962,NA
95726,El Dorado County,CA,NA,NA,58.38150289017341
95831,Sacramento County,CA,NA,NA,79.47976878612717
95926,Butte County,CA,NA,NA,36.99421965317919
80021,Jefferson County,CO,NA,53.62318840579711,NA
80108,Douglas County,CO,56.71641791044776,NA,NA
80111,Arapahoe County,CO,NA,NA,74.27745664739885
80129,Douglas County,CO,NA,NA,77.74566473988439
80220,Denver County,CO,NA,61.59420289855072,NA
80302,Boulder County,CO,NA,NA,73.121387283237
80537,Larimer County,CO,NA,12.318840579710146,NA
80601,Adams County,CO,39.55223880597015,NA,NA
80918,El Paso County,CO,NA,67.3913043478261,NA
81003,Pueblo County,CO,41.417910447761194,NA,NA
81201,Chaffee County,CO,NA,NA,67.34104046242774
81301,La Plata County,CO,NA,NA,57.51445086705203
81504,Mesa County,CO,36.19402985074627,NA,NA
06010,Hartford County,CT,NA,16.908212560386474,NA
06040,Hartford County,CT,NA,NA,23.699421965317917
06057,Litchfield County,CT,NA,NA,97.10982658959537
06078,Hartford County,CT,NA,85.99033816425121,NA
06107,Hartford County,CT,NA,NA,84.10404624277457
06111,Hartford County,CT,NA,40.09661835748793,NA
06401,New Haven County,CT,NA,NA,53.179190751445084
06479,Hartford County,CT,NA,94.44444444444444,NA
06606,Fairfield County,CT,NA,29.468599033816425,NA
06705,New Haven County,CT,NA,26.32850241545894,NA
06790,Litchfield County,CT,5.597014925373134,NA,NA
06877,Fairfield County,CT,97.76119402985076,NA,NA
19808,New Castle County,DE,NA,NA,6.6473988439306355
19947,Sussex County,DE,NA,36.95652173913043,NA
32034,Nassau County,FL,NA,5.555555555555555,14.450867052023122
32040,Baker County,FL,NA,NA,91.61849710982659
32081,St. Johns County,FL,NA,79.22705314009661,NA
32207,Duval County,FL,77.23880597014924,NA,NA
32244,Duval County,FL,NA,7.971014492753622,NA
32408,Bay County,FL,NA,62.31884057971014,NA
32503,Escambia County,FL,NA,NA,16.473988439306357
32547,Okaloosa County,FL,NA,48.792270531400966,NA
32566,Santa Rosa County,FL,NA,NA,27.45664739884393
32609,Alachua County,FL,25,NA,NA
32666,Putnam County,FL,NA,85.74879227053141,NA
32669,Alachua County,FL,NA,NA,82.65895953757226
32680,Dixie County,FL,85.82089552238806,NA,NA
32765,Seminole County,FL,NA,NA,47.97687861271676
32837,Orange County,FL,26.492537313432834,NA,NA
32935,Brevard County,FL,NA,NA,21.67630057803468
33004,Broward County,FL,83.95522388059702,NA,NA
33064,Broward County,FL,44.40298507462687,NA,NA
33065,Broward County,FL,NA,NA,37.57225433526011
33133,Miami-Dade County,FL,NA,36.473429951690825,NA
33138,Miami-Dade County,FL,NA,59.17874396135265,NA
33154,Miami-Dade County,FL,NA,NA,31.79190751445087
33155,Miami-Dade County,FL,NA,NA,10.69364161849711
33311,Broward County,FL,NA,NA,26.300578034682083
33325,Broward County,FL,NA,87.92270531400966,NA
33411,Palm Beach County,FL,NA,NA,61.5606936416185
33480,Palm Beach County,FL,NA,NA,39.017341040462426
33619,Hillsborough County,FL,NA,34.29951690821256,NA
33634,Hillsborough County,FL,NA,NA,80.92485549132948
33761,Pinellas County,FL,NA,NA,42.48554913294797
33767,Pinellas County,FL,NA,79.71014492753623,NA
33901,Lee County,FL,NA,74.8792270531401,NA
33952,Charlotte County,FL,NA,NA,30.63583815028902
33967,Lee County,FL,64.55223880597015,NA,NA
34113,Collier County,FL,NA,55.79710144927537,NA
34119,Collier County,FL,NA,24.879227053140095,NA
34228,Sarasota County,FL,NA,89.61352657004831,NA
34234,Sarasota County,FL,47.38805970149254,NA,NA
34238,Sarasota County,FL,NA,NA,6.358381502890173
34432,Marion County,FL,NA,NA,66.76300578034682
34480,Marion County,FL,67.53731343283582,NA,NA
34748,Lake County,FL,25.37313432835821,NA,NA
34953,St. Lucie County,FL,NA,3.140096618357488,NA
34982,St. Lucie County,FL,60.447761194029844,32.850241545893724,NA
30013,Rockdale County,GA,NA,92.27053140096618,NA
30014,Newton County,GA,NA,64.25120772946859,NA
30043,Gwinnett County,GA,NA,NA,47.687861271676304
30044,Gwinnett County,GA,NA,NA,46.24277456647399
30078,Gwinnett County,GA,69.02985074626866,NA,NA
30083,DeKalb County,GA,NA,NA,51.73410404624278
30087,DeKalb County,GA,NA,18.115942028985508,32.080924855491325
30096,Gwinnett County,GA,32.83582089552239,NA,NA
30114,Cherokee County,GA,NA,NA,39.884393063583815
30120,Bartow County,GA,26.119402985074625,NA,NA
30126,Cobb County,GA,NA,NA,66.1849710982659
30134,Douglas County,GA,30.970149253731343,NA,NA
30161,Floyd County,GA,NA,18.357487922705314,NA
30188,Cherokee County,GA,27.238805970149254,NA,34.971098265895954
30240,Troup County,GA,31.716417910447763,NA,NA
30252,Henry County,GA,45.8955223880597,NA,NA
30305,Fulton County,GA,NA,NA,40.7514450867052
30309,Fulton County,GA,NA,55.072463768115945,NA
30458,Bulloch County,GA,NA,81.88405797101449,NA
30518,Gwinnett County,GA,NA,NA,45.3757225433526
30519,Gwinnett County,GA,52.98507462686567,NA,NA
30635,Elbert County,GA,NA,NA,56.936416184971094
30642,Greene County,GA,NA,NA,75.43352601156069
31021,Laurens County,GA,NA,54.347826086956516,NA
31082,Washington County,GA,NA,68.35748792270532,NA
31525,Glynn County,GA,57.46268656716418,NA,NA
31558,Camden County,GA,77.61194029850746,NA,NA
31804,Harris County,GA,98.50746268656717,NA,NA
31808,Harris County,GA,NA,97.58454106280193,NA
31909,Muscogee County,GA,NA,NA,31.502890173410403
96701,Honolulu County,HI,40.298507462686565,15.458937198067632,NA
96706,Honolulu County,HI,NA,9.178743961352657,NA
83201,Bannock County,ID,NA,34.78260869565217,NA
83202,Bannock County,ID,NA,63.76811594202898,NA
83204,Bannock County,ID,59.70149253731343,NA,NA
83318,Cassia County,ID,NA,NA,77.45664739884393
83401,Bonneville County,ID,17.91044776119403,NA,NA
83501,Nez Perce County,ID,NA,NA,5.202312138728324
83536,Idaho County,ID,NA,NA,91.90751445086705
83704,Ada County,ID,NA,1.932367149758454,NA
83805,Boundary County,ID,NA,88.40579710144928,NA
83856,Bonner County,ID,93.28358208955224,NA,NA
60025,Cook County,IL,NA,NA,4.335260115606936
60031,Lake County,IL,NA,20.77294685990338,NA
60060,Lake County,IL,NA,NA,48.554913294797686
60097,McHenry County,IL,NA,89.3719806763285,NA
60189,DuPage County,IL,NA,NA,69.65317919075144
60534,Cook County,IL,NA,96.61835748792271,NA
60613,Cook County,IL,NA,NA,41.32947976878613
60614,Cook County,IL,27.611940298507463,14.251207729468598,NA
60616,Cook County,IL,NA,NA,22.254335260115607
60634,Cook County,IL,NA,4.3478260869565215,NA
60901,Kankakee County,IL,21.26865671641791,NA,NA
60914,Kankakee County,IL,NA,17.632850241545896,NA
60950,Kankakee County,IL,NA,94.20289855072464,NA
61604,Peoria County,IL,NA,35.26570048309179,NA
61802,Champaign County,IL,NA,27.77777777777778,NA
61874,Champaign County,IL,NA,NA,79.1907514450867
61920,Coles County,IL,NA,47.58454106280193,NA
62207,St. Clair County,IL,NA,80.43478260869566,NA
62269,St. Clair County,IL,NA,35.990338164251206,NA
62401,Effingham County,IL,NA,NA,32.947976878612714
62629,Sangamon County,IL,NA,86.95652173913044,NA
62702,Sangamon County,IL,NA,NA,87.861271676300575
62902,Jackson County,IL,NA,NA,97.6878612716763
62959,Williamson County,IL,48.88059701492538,NA,NA
46013,Madison County,IN,NA,52.41545893719807,85.54913294797689
46016,Madison County,IN,17.537313432835823,NA,NA
46072,Tipton County,IN,NA,NA,64.45086705202311
46143,Johnson County,IN,NA,NA,4.913294797687861
46226,Marion County,IN,NA,12.80193236714976,NA
46227,Marion County,IN,10.44776119402985,NA,NA
46250,Marion County,IN,NA,NA,88.72832369942196
46260,Marion County,IN,NA,77.05314009661835,NA
46514,Elkhart County,IN,NA,21.014492753623188,NA
46550,Elkhart County,IN,NA,93.96135265700482,NA
46562,Kosciusko County,IN,NA,NA,98.26589595375722
46563,Marshall County,IN,48.507462686567166,NA,NA
46580,Kosciusko County,IN,NA,NA,28.61271676300578
46614,St. Joseph County,IN,NA,50.96618357487923,NA
46804,Allen County,IN,NA,22.946859903381643,NA
46805,Allen County,IN,38.43283582089552,NA,NA
46816,Allen County,IN,34.32835820895522,NA,NA
46902,Howard County,IN,NA,2.4154589371980677,NA
46953,Grant County,IN,12.686567164179104,NA,NA
46962,Wabash County,IN,NA,NA,92.48554913294798
47130,Clark County,IN,NA,NA,33.81502890173411
47150,Floyd County,IN,NA,NA,22.832369942196532
47172,Clark County,IN,NA,NA,69.36416184971098
47203,Bartholomew County,IN,NA,18.84057971014493,NA
47353,Union County,IN,NA,NA,96.53179190751445
47356,Henry County,IN,NA,NA,89.01734104046243
47460,Owen County,IN,NA,NA,94.21965317919076
47714,Vanderburgh County,IN,NA,NA,29.190751445086704
47715,Vanderburgh County,IN,NA,NA,50.28901734104046
47885,Vigo County,IN,NA,NA,84.97109826589595
50401,Cerro Gordo County,IA,NA,NA,1.4450867052023122
51105,Woodbury County,IA,NA,60.86956521739131,NA
52001,Dubuque County,IA,18.65671641791045,NA,49.71098265895954
52136,Howard County,IA,NA,NA,80.63583815028902
52245,Johnson County,IA,NA,36.231884057971016,NA
52353,Washington County,IA,NA,NA,61.5606936416185
52402,Linn County,IA,24.62686567164179,NA,NA
52404,Linn County,IA,NA,48.06763285024155,NA
52803,Scott County,IA,42.53731343283582,NA,NA
52804,Scott County,IA,20.522388059701495,NA,NA
66062,Johnson County,KS,NA,NA,16.184971098265898
66083,Johnson County,KS,NA,91.78743961352657,NA
66090,Doniphan County,KS,NA,99.03381642512076,NA
66209,Johnson County,KS,96.64179104477611,NA,NA
66614,Shawnee County,KS,NA,NA,13.583815028901732
66801,Lyon County,KS,NA,51.20772946859904,NA
40004,Nelson County,KY,24.253731343283583,NA,NA
40014,Oldham County,KY,80.59701492537313,NA,NA
40047,Bullitt County,KY,34.701492537313435,NA,NA
40165,Bullitt County,KY,16.791044776119403,14.975845410628018,NA
40202,Jefferson County,KY,88.80597014925374,NA,NA
40204,Jefferson County,KY,NA,NA,86.70520231213872
40242,Jefferson County,KY,88.43283582089553,70.04830917874396,NA
40391,Clark County,KY,NA,NA,23.98843930635838
40422,Boyle County,KY,55.223880597014926,NA,NA
40503,Fayette County,KY,76.11940298507463,NA,NA
40505,Fayette County,KY,NA,64.4927536231884,NA
40769,Whitley County,KY,39.92537313432835,53.3816425120773,NA
41076,Campbell County,KY,NA,NA,21.38728323699422
41144,Greenup County,KY,47.76119402985074,79.95169082125604,NA
41301,Wolfe County,KY,NA,NA,94.50867052023122
42003,McCracken County,KY,NA,NA,29.76878612716763
42134,Simpson County,KY,NA,66.66666666666666,NA
42301,Daviess County,KY,NA,7.246376811594203,NA
42303,Daviess County,KY,43.28358208955223,NA,NA
42376,Daviess County,KY,NA,90.09661835748793,NA
42420,Henderson County,KY,NA,42.270531400966185,NA
42718,Taylor County,KY,NA,6.038647342995169,NA
70070,St. Charles Parish,LA,94.77611940298507,NA,NA
70087,St. Charles Parish,LA,NA,NA,82.08092485549133
70433,St. Tammany Parish,LA,NA,NA,4.624277456647398
70506,Lafayette Parish,LA,NA,15.217391304347828,NA
70510,Vermilion Parish,LA,NA,93.47826086956522,NA
70517,St. Martin Parish,LA,15.671641791044777,NA,NA
70520,Lafayette Parish,LA,NA,42.7536231884058,NA
70535,St. Landry Parish,LA,NA,40.57971014492754,68.78612716763006
70663,Calcasieu Parish,LA,NA,19.082125603864732,NA
70714,East Baton Rouge Parish,LA,94.02985074626866,NA,NA
70730,East Feliciana Parish,LA,NA,98.79227053140096,NA
70769,Ascension Parish,LA,11.194029850746269,34.05797101449276,NA
70775,West Feliciana Parish,LA,79.1044776119403,NA,NA
70814,East Baton Rouge Parish,LA,40.67164179104478,NA,NA
71111,Bossier Parish,LA,NA,10.628019323671497,NA
71112,Bossier Parish,LA,NA,NA,34.104046242774565
71129,Caddo Parish,LA,45.52238805970149,NA,NA
71301,Rapides Parish,LA,NA,NA,68.4971098265896
71342,La Salle Parish,LA,68.65671641791045,NA,NA
71446,Vernon Parish,LA,NA,33.81642512077295,NA
71463,Allen Parish,LA,NA,NA,82.94797687861272
03903,York County,ME,NA,75.36231884057972,NA
04074,Cumberland County,ME,NA,NA,42.19653179190752
04103,Cumberland County,ME,NA,20.28985507246377,NA
04736,Aroostook County,ME,NA,40.09661835748793,NA
20650,St. Mary's County,MD,NA,85.02415458937197,NA
20877,Montgomery County,MD,NA,80.67632850241546,NA
20904,Montgomery County,MD,NA,NA,19.942196531791907
21040,Harford County,MD,NA,71.49758454106279,NA
21043,Howard County,MD,NA,40.82125603864734,NA
21227,Baltimore County,MD,NA,NA,28.32369942196532
21601,Talbot County,MD,NA,39.371980676328505,NA
21769,Frederick County,MD,94.40298507462687,NA,NA
01001,Hampden County,MA,NA,NA,38.72832369942196
01240,Berkshire County,MA,NA,NA,54.33526011560693
01431,Middlesex County,MA,99.6268656716418,NA,NA
01440,Worcester County,MA,1.8656716417910446,NA,43.641618497109825
01501,Worcester County,MA,NA,29.227053140096622,NA
01510,Worcester County,MA,NA,8.454106280193237,NA
01545,Worcester County,MA,NA,NA,11.560693641618498
01588,Worcester County,MA,NA,NA,72.54335260115607
01602,Worcester County,MA,NA,17.874396135265698,62.71676300578035
01749,Middlesex County,MA,NA,32.608695652173914,NA
01824,Middlesex County,MA,NA,NA,7.514450867052023
01835,Essex County,MA,NA,54.589371980676326,NA
01867,Middlesex County,MA,NA,NA,13.294797687861271
01923,Essex County,MA,NA,NA,2.312138728323699
01949,Essex County,MA,54.47761194029851,NA,NA
01952,Essex County,MA,NA,NA,58.95953757225434
01970,Essex County,MA,7.462686567164178,NA,NA
02038,Norfolk County,MA,16.044776119402986,NA,NA
02062,Norfolk County,MA,NA,8.212560386473431,NA
02111,Suffolk County,MA,NA,NA,27.74566473988439
02121,Suffolk County,MA,0.7462686567164178,NA,NA
02124,Suffolk County,MA,0,NA,NA
02135,Suffolk County,MA,NA,NA,1.7341040462427744
02144,Middlesex County,MA,NA,NA,16.76300578034682
02151,Suffolk County,MA,0.3731343283582089,NA,NA
02176,Middlesex County,MA,NA,2.898550724637681,NA
02186,Norfolk County,MA,NA,NA,18.786127167630056
02341,Plymouth County,MA,NA,NA,96.24277456647398
02346,Plymouth County,MA,NA,NA,28.901734104046245
02360,Plymouth County,MA,NA,0.24154589371980675,NA
02382,Plymouth County,MA,NA,50.24154589371981,NA
02445,Norfolk County,MA,NA,29.951690821256037,NA
02482,Norfolk County,MA,82.46268656716418,NA,NA
02492,Norfolk County,MA,33.2089552238806,NA,NA
02494,Norfolk County,MA,NA,NA,46.53179190751445
02536,Barnstable County,MA,61.940298507462686,NA,NA
02632,Barnstable County,MA,NA,NA,36.70520231213873
02668,Barnstable County,MA,NA,82.85024154589372,NA
48047,Macomb County,MI,NA,11.352657004830919,NA
48081,Macomb County,MI,45.149253731343286,NA,NA
48088,Macomb County,MI,NA,NA,19.36416184971098
48103,Washtenaw County,MI,18.28358208955224,NA,NA
48105,Washtenaw County,MI,NA,11.594202898550725,NA
48118,Washtenaw County,MI,NA,NA,27.167630057803464
48146,Wayne County,MI,NA,13.043478260869565,NA
48162,Monroe County,MI,NA,NA,11.849710982658959
48169,Livingston County,MI,54.1044776119403,NA,NA
48170,Wayne County,MI,NA,NA,3.4682080924855487
48187,Wayne County,MI,11.567164179104477,1.6908212560386473,NA
48223,Wayne County,MI,NA,35.02415458937198,NA
48238,Wayne County,MI,4.850746268656716,NA,NA
48239,Wayne County,MI,8.582089552238806,NA,NA
48312,Macomb County,MI,31.343283582089555,NA,NA
48315,Macomb County,MI,NA,NA,26.011560693641616
48346,Oakland County,MI,NA,NA,45.08670520231214
48429,Shiawassee County,MI,73.50746268656717,NA,NA
48603,Saginaw County,MI,13.805970149253731,NA,NA
48616,Saginaw County,MI,NA,NA,67.91907514450867
48706,Bay County,MI,NA,0.7246376811594203,NA
48827,Eaton County,MI,NA,28.985507246376812,NA
48842,Ingham County,MI,44.776119402985074,NA,NA
48906,Ingham County,MI,NA,NA,33.23699421965318
49015,Calhoun County,MI,20.8955223880597,NA,12.138728323699421
49024,Kalamazoo County,MI,NA,20.048309178743963,NA
49036,Branch County,MI,84.70149253731343,NA,NA
49245,Calhoun County,MI,96.26865671641791,NA,NA
49304,Lake County,MI,NA,96.1352657004831,NA
49415,Muskegon County,MI,NA,NA,88.4393063583815
49426,Ottawa County,MI,NA,33.33333333333333,22.54335260115607
49441,Muskegon County,MI,NA,NA,2.601156069364162
49464,Ottawa County,MI,NA,32.367149758454104,NA
49509,Kent County,MI,NA,NA,56.358381502890175
49534,Kent County,MI,NA,NA,50.86705202312138
55113,Ramsey County,MN,NA,NA,23.410404624277454
55119,Ramsey County,MN,NA,28.019323671497588,NA
55129,Washington County,MN,NA,85.26570048309179,NA
55331,Hennepin County,MN,NA,71.73913043478261,NA
55344,Hennepin County,MN,NA,NA,93.64161849710982
55345,Hennepin County,MN,NA,68.84057971014492,NA
55403,Hennepin County,MN,93.65671641791045,NA,NA
55416,Hennepin County,MN,49.25373134328358,NA,NA
55808,St. Louis County,MN,NA,73.18840579710145,NA
56347,Todd County,MN,NA,80.19323671497585,NA
56378,Stearns County,MN,NA,NA,63.8728323699422
56479,Todd County,MN,NA,77.77777777777779,NA
38756,Washington County,MS,NA,94.68599033816425,NA
38834,Alcorn County,MS,NA,84.78260869565217,NA
39110,Madison County,MS,NA,57.971014492753625,NA
39307,Lauderdale County,MS,NA,NA,70.8092485549133
39325,Lauderdale County,MS,NA,NA,97.97687861271676
39507,Harrison County,MS,NA,NA,9.53757225433526
39702,Lowndes County,MS,44.02985074626866,NA,NA
63011,St. Louis County,MO,NA,69.32367149758454,NA
63017,St. Louis County,MO,NA,NA,2.8901734104046244
63021,St. Louis County,MO,50,NA,NA
63025,St. Louis County,MO,NA,NA,75.14450867052022
63028,Jefferson County,MO,30.223880597014922,NA,NA
63042,St. Louis County,MO,NA,NA,93.0635838150289
63069,Franklin County,MO,NA,NA,95.95375722543352
63074,St. Louis County,MO,70.1492537313433,NA,NA
63116,St. Louis city,MO,NA,50.72463768115942,NA
63123,St. Louis County,MO,NA,NA,3.1791907514450863
63141,St. Louis County,MO,NA,NA,30.346820809248555
63144,St. Louis County,MO,NA,95.16908212560386,NA
63146,St. Louis County,MO,NA,29.71014492753623,NA
63304,St. Charles County,MO,NA,NA,15.895953757225435
63367,St. Charles County,MO,63.43283582089553,NA,NA
63701,Cape Girardeau County,MO,NA,35.507246376811594,NA
63780,Scott County,MO,NA,NA,86.41618497109826
64052,Jackson County,MO,11.940298507462686,NA,NA
64055,Jackson County,MO,NA,3.3816425120772946,NA
64064,Jackson County,MO,58.2089552238806,NA,NA
64068,Clay County,MO,9.328358208955224,NA,NA
64116,Clay County,MO,64.17910447761194,38.64734299516908,NA
64118,Clay County,MO,5.223880597014925,NA,NA
64130,Jackson County,MO,6.343283582089552,NA,NA
64506,Buchanan County,MO,23.88059701492537,NA,NA
64804,Jasper County,MO,NA,4.5893719806763285,NA
64870,Jasper County,MO,51.11940298507462,NA,NA
65265,Audrain County,MO,NA,NA,51.15606936416185
65301,Pettis County,MO,3.3582089552238807,NA,83.8150289017341
65608,Douglas County,MO,NA,NA,92.77456647398844
65775,Howell County,MO,NA,NA,52.312138728323696
59602,Lewis and Clark County,MT,NA,NA,36.127167630057805
59634,Jefferson County,MT,NA,NA,100
59801,Missoula County,MT,NA,61.83574879227053,NA
59923,Lincoln County,MT,NA,NA,65.60693641618496
68047,Wayne County,NE,NA,99.7584541062802,NA
68104,Douglas County,NE,NA,31.40096618357488,NA
68108,Douglas County,NE,NA,90.82125603864735,NA
68116,Douglas County,NE,68.28358208955224,92.02898550724638,NA
68122,Douglas County,NE,NA,NA,98.84393063583815
68128,Sarpy County,NE,NA,71.25603864734299,NA
68144,Douglas County,NE,NA,47.10144927536232,42.77456647398844
68164,Douglas County,NE,NA,66.90821256038647,NA
68310,Gage County,NE,NA,NA,13.872832369942195
68701,Madison County,NE,NA,72.94685990338165,NA
69361,Scotts Bluff County,NE,NA,59.66183574879227,NA
89102,Clark County,NV,57.08955223880597,NA,NA
89403,Lyon County,NV,NA,NA,70.23121387283237
89429,Lyon County,NV,NA,84.05797101449275,NA
89451,Washoe County,NV,NA,97.82608695652173,NA
89503,Washoe County,NV,NA,NA,69.94219653179191
89703,Carson City,NV,NA,67.14975845410628,NA
03037,Rockingham County,NH,NA,99.27536231884058,NA
03062,Hillsborough County,NH,22.761194029850746,NA,NA
03079,Rockingham County,NH,NA,15.942028985507244,NA
03103,Hillsborough County,NH,NA,NA,18.786127167630056
03833,Rockingham County,NH,NA,67.8743961352657,NA
03865,Rockingham County,NH,75,NA,NA
07024,Bergen County,NJ,NA,NA,8.959537572254336
07039,Essex County,NJ,95.8955223880597,NA,NA
07047,Hudson County,NJ,4.477611940298507,NA,NA
07601,Bergen County,NJ,NA,NA,14.739884393063585
07643,Bergen County,NJ,NA,86.71497584541062,NA
07739,Monmouth County,NJ,NA,78.01932367149759,NA
07740,Monmouth County,NJ,NA,30.917874396135264,NA
07920,Somerset County,NJ,NA,57.00483091787439,NA
07932,Morris County,NJ,NA,NA,78.32369942196532
08053,Burlington County,NJ,NA,NA,52.601156069364166
08759,Ocean County,NJ,NA,NA,0
08837,Middlesex County,NJ,NA,56.28019323671497,NA
87105,Bernalillo County,NM,NA,NA,53.75722543352601
87109,Bernalillo County,NM,NA,12.077294685990339,NA
87111,Bernalillo County,NM,NA,8.695652173913043,NA
87144,Sandoval County,NM,NA,17.14975845410628,NA
10456,Bronx County,NY,NA,0,NA
10460,Bronx County,NY,2.2388059701492535,NA,NA
11209,Kings County,NY,NA,52.17391304347826,NA
11226,Kings County,NY,NA,NA,9.248554913294797
11357,Queens County,NY,NA,41.78743961352657,NA
11435,Queens County,NY,NA,46.13526570048309,NA
11542,Nassau County,NY,NA,47.34299516908212,NA
11560,Nassau County,NY,NA,NA,98.55491329479769
11580,Nassau County,NY,64.55223880597015,NA,NA
11701,Suffolk County,NY,NA,NA,39.30635838150289
11792,Suffolk County,NY,NA,93.71980676328504,NA
12095,Fulton County,NY,NA,NA,62.42774566473989
12167,Delaware County,NY,NA,98.30917874396135,NA
12590,Dutchess County,NY,NA,NA,49.421965317919074
13041,Onondaga County,NY,77.98507462686567,NA,NA
13066,Onondaga County,NY,NA,49.51690821256038,NA
13205,Onondaga County,NY,15.298507462686567,NA,NA
13208,Onondaga County,NY,14.925373134328357,NA,NA
13617,St. Lawrence County,NY,NA,30.193236714975846,NA
13732,Tioga County,NY,NA,38.88888888888889,NA
14094,Niagara County,NY,2.6119402985074625,16.425120772946862,NA
14206,Erie County,NY,16.417910447761194,NA,NA
14207,Erie County,NY,NA,88.16425120772948,NA
14210,Erie County,NY,NA,73.91304347826086,NA
14414,Livingston County,NY,NA,NA,89.59537572254335
14487,Livingston County,NY,NA,NA,95.37572254335261
14626,Monroe County,NY,NA,2.1739130434782608,NA
14845,Chemung County,NY,19.776119402985074,NA,32.369942196531795
27215,Alamance County,NC,NA,NA,75.72254335260115
27239,Davidson County,NC,76.86567164179104,NA,NA
27265,Guilford County,NC,NA,11.11111111111111,NA
27408,Guilford County,NC,NA,51.93236714975845,NA
27517,Orange County,NC,NA,NA,15.606936416184972
27524,Johnston County,NC,NA,67.6328502415459,NA
27525,Franklin County,NC,NA,58.212560386473434,NA
27587,Wake County,NC,NA,5.072463768115942,NA
28021,Gaston County,NC,NA,NA,72.83236994219652
28073,Cleveland County,NC,NA,88.88888888888889,NA
28092,Lincoln County,NC,NA,9.66183574879227,NA
28105,Mecklenburg County,NC,66.4179104477612,NA,NA
28210,Mecklenburg County,NC,NA,95.41062801932367,NA
28304,Cumberland County,NC,NA,NA,50
28372,Robeson County,NC,NA,60.6280193236715,NA
28429,New Hanover County,NC,NA,78.50241545893721,NA
28585,Jones County,NC,98.88059701492537,NA,NA
28645,Caldwell County,NC,NA,NA,2.023121387283237
28711,Buncombe County,NC,NA,NA,70.52023121387283
28714,Yancey County,NC,NA,41.06280193236715,NA
28715,Buncombe County,NC,NA,NA,52.601156069364166
28752,McDowell County,NC,NA,NA,24.566473988439306
28771,Graham County,NC,81.34328358208955,NA,NA
28777,Mitchell County,NC,NA,NA,71.38728323699422
28906,Cherokee County,NC,NA,NA,17.63005780346821
58103,Cass County,ND,7.08955223880597,NA,NA
43074,Delaware County,OH,NA,84.05797101449275,NA
43123,Franklin County,OH,7.835820895522389,NA,NA
43206,Franklin County,OH,14.17910447761194,NA,NA
43209,Franklin County,OH,91.4179104477612,NA,NA
43227,Franklin County,OH,NA,NA,40.17341040462428
43302,Marion County,OH,NA,NA,4.046242774566474
43420,Sandusky County,OH,NA,13.768115942028986,20.809248554913296
43464,Sandusky County,OH,100,NA,NA
43518,Williams County,OH,NA,92.9951690821256,NA
43526,Defiance County,OH,95.1492537313433,NA,NA
43566,Lucas County,OH,NA,NA,81.21387283236994
43605,Lucas County,OH,NA,NA,59.53757225433526
43609,Lucas County,OH,3.731343283582089,NA,NA
43614,Lucas County,OH,NA,NA,17.052023121387283
43623,Lucas County,OH,NA,22.463768115942027,NA
43953,Jefferson County,OH,NA,NA,37.861271676300575
44028,Lorain County,OH,NA,89.13043478260869,NA
44040,Cuyahoga County,OH,NA,NA,77.16763005780348
44047,Ashtabula County,OH,NA,49.033816425120776,NA
44054,Lorain County,OH,42.91044776119403,NA,NA
44062,Geauga County,OH,NA,NA,92.1965317919075
44070,Cuyahoga County,OH,NA,25.845410628019323,NA
44109,Cuyahoga County,OH,28.35820895522388,NA,NA
44111,Cuyahoga County,OH,NA,NA,10.982658959537572
44116,Cuyahoga County,OH,89.55223880597015,NA,NA
44117,Cuyahoga County,OH,NA,42.51207729468599,NA
44125,Cuyahoga County,OH,NA,NA,7.803468208092486
44134,Cuyahoga County,OH,NA,0.966183574879227,NA
44136,Cuyahoga County,OH,NA,NA,50.28901734104046
44142,Cuyahoga County,OH,NA,16.183574879227052,NA
44306,Summit County,OH,10.820895522388058,NA,NA
44313,Summit County,OH,NA,NA,13.005780346820808
44410,Trumbull County,OH,78.35820895522389,NA,NA
44471,Mahoning County,OH,NA,NA,89.30635838150289
44485,Trumbull County,OH,21.641791044776117,NA,NA
44615,Carroll County,OH,NA,NA,72.25433526011561
44720,Stark County,OH,NA,NA,11.271676300578035
44830,Seneca County,OH,NA,NA,38.4393063583815
44857,Huron County,OH,27.985074626865668,NA,NA
44883,Seneca County,OH,NA,NA,18.20809248554913
44890,Huron County,OH,NA,NA,63.29479768786127
45011,Butler County,OH,2.9850746268656714,NA,NA
45014,Butler County,OH,NA,81.15942028985508,NA
45044,Butler County,OH,NA,9.420289855072465,NA
45067,Butler County,OH,NA,NA,91.32947976878613
45102,Clermont County,OH,NA,56.52173913043478,NA
45150,Clermont County,OH,43.656716417910445,26.08695652173913,NA
45171,Brown County,OH,NA,83.81642512077295,NA
45212,Hamilton County,OH,71.64179104477611,NA,NA
45224,Hamilton County,OH,NA,NA,47.10982658959538
45231,Hamilton County,OH,NA,NA,87.57225433526011
45236,Hamilton County,OH,NA,41.54589371980676,NA
45237,Hamilton County,OH,NA,NA,51.445086705202314
45240,Hamilton County,OH,NA,NA,53.46820809248555
45241,Hamilton County,OH,NA,33.091787439613526,NA
45244,Hamilton County,OH,NA,NA,76.58959537572254
45390,Darke County,OH,NA,100,NA
45404,Montgomery County,OH,NA,63.04347826086957,NA
45409,Montgomery County,OH,97.38805970149254,NA,NA
45424,Montgomery County,OH,NA,6.763285024154589,NA
45458,Montgomery County,OH,NA,NA,25.43352601156069
45459,Montgomery County,OH,NA,NA,14.16184971098266
45502,Clark County,OH,NA,54.106280193236714,NA
45628,Ross County,OH,NA,NA,81.79190751445087
45638,Lawrence County,OH,NA,57.2463768115942,NA
45750,Washington County,OH,NA,0.4830917874396135,NA
45817,Allen County,OH,90.67164179104478,NA,NA
45885,Auglaize County,OH,81.34328358208955,NA,NA
73071,Cleveland County,OK,28.73134328358209,NA,NA
73106,Oklahoma County,OK,NA,69.56521739130434,NA
73117,Oklahoma County,OK,NA,96.37681159420289,NA
73119,Oklahoma County,OK,NA,35.748792270531396,NA
73130,Oklahoma County,OK,69.40298507462687,NA,NA
73159,Oklahoma County,OK,NA,NA,45.664739884393065
73701,Garfield County,OK,NA,64.97584541062803,NA
74008,Tulsa County,OK,NA,46.3768115942029,NA
74033,Tulsa County,OK,NA,88.64734299516908,NA
74044,Creek County,OK,86.19402985074626,NA,NA
74105,Tulsa County,OK,NA,43.71980676328502,NA
74133,Tulsa County,OK,36.56716417910448,NA,NA
74354,Ottawa County,OK,NA,NA,65.3179190751445
74467,Wagoner County,OK,NA,53.864734299516904,NA
74501,Pittsburg County,OK,NA,NA,35.26011560693642
74820,Pontotoc County,OK,37.6865671641791,NA,NA
74868,Seminole County,OK,NA,58.93719806763285,NA
97056,Columbia County,OR,NA,NA,91.04046242774567
97062,Washington County,OR,NA,60.38647342995169,NA
97116,Washington County,OR,NA,NA,55.202312138728324
97123,Washington County,OR,25.74626865671642,NA,NA
97141,Tillamook County,OR,NA,NA,74.85549132947978
97146,Clatsop County,OR,NA,70.53140096618358,NA
97203,Multnomah County,OR,46.64179104477612,NA,NA
97214,Multnomah County,OR,NA,77.53623188405797,NA
97220,Multnomah County,OR,NA,NA,44.50867052023121
97224,Washington County,OR,58.95522388059702,NA,NA
97305,Marion County,OR,NA,44.927536231884055,NA
97322,Linn County,OR,NA,NA,8.092485549132949
97355,Linn County,OR,NA,NA,7.225433526011561
97367,Lincoln County,OR,NA,28.26086956521739,NA
97378,Yamhill County,OR,NA,93.23671497584542,NA
97394,Lincoln County,OR,NA,75.84541062801932,NA
97420,Coos County,OR,NA,38.405797101449274,NA
97524,Jackson County,OR,NA,NA,76.878612716763
97525,Jackson County,OR,NA,82.6086956521739,NA
97527,Josephine County,OR,NA,16.666666666666664,NA
97601,Klamath County,OR,NA,NA,43.0635838150289
97603,Klamath County,OR,57.83582089552238,NA,NA
97754,Crook County,OR,NA,19.806763285024154,NA
97914,Malheur County,OR,29.1044776119403,NA,NA
15025,Allegheny County,PA,NA,43.23671497584541,NA
15210,Allegheny County,PA,NA,37.92270531400966,NA
15237,Allegheny County,PA,56.343283582089555,NA,NA
15238,Allegheny County,PA,NA,NA,38.15028901734104
15642,Westmoreland County,PA,26.865671641791046,NA,NA
15681,Indiana County,PA,NA,82.1256038647343,NA
15801,Clearfield County,PA,NA,NA,21.09826589595376
15851,Jefferson County,PA,NA,NA,26.589595375722542
16002,Butler County,PA,63.059701492537314,NA,NA
16438,Erie County,PA,92.16417910447761,NA,NA
16506,Erie County,PA,NA,61.111111111111114,NA
16823,Centre County,PA,NA,46.61835748792271,NA
17011,Cumberland County,PA,66.04477611940298,NA,NA
17109,Dauphin County,PA,NA,46.85990338164252,NA
17112,Dauphin County,PA,NA,2.657004830917874,NA
17201,Franklin County,PA,12.313432835820896,NA,NA
17325,Adams County,PA,NA,NA,43.93063583815029
17327,York County,PA,NA,NA,99.71098265895954
17350,Adams County,PA,NA,NA,28.034682080924856
17402,York County,PA,NA,36.71497584541063,NA
17522,Lancaster County,PA,NA,39.85507246376812,NA
17701,Lycoming County,PA,NA,NA,5.780346820809249
17824,Northumberland County,PA,NA,NA,63.58381502890174
18036,Lehigh County,PA,76.49253731343283,NA,NA
18064,Northampton County,PA,NA,21.73913043478261,NA
18202,Luzerne County,PA,53.73134328358209,NA,NA
18249,Luzerne County,PA,NA,91.30434782608695,NA
18411,Lackawanna County,PA,NA,51.20772946859904,NA
18510,Lackawanna County,PA,NA,66.18357487922705,NA
18634,Luzerne County,PA,49.62686567164179,NA,NA
19038,Montgomery County,PA,NA,21.980676328502415,NA
19047,Bucks County,PA,NA,14.009661835748794,NA
19096,Montgomery County,PA,NA,NA,88.15028901734104
19116,Philadelphia County,PA,NA,10.869565217391305,NA
19119,Philadelphia County,PA,NA,49.75845410628019,NA
19120,Philadelphia County,PA,22.01492537313433,NA,NA
19124,Philadelphia County,PA,8.955223880597014,7.487922705314009,NA
19143,Philadelphia County,PA,1.4925373134328357,NA,NA
19335,Chester County,PA,NA,10.38647342995169,NA
19401,Montgomery County,PA,9.701492537313433,NA,36.41618497109826
19403,Montgomery County,PA,22.388059701492537,NA,NA
19426,Montgomery County,PA,NA,NA,58.092485549132945
19446,Montgomery County,PA,NA,66.42512077294685,NA
02813,Washington County,RI,NA,NA,66.47398843930635
02917,Providence County,RI,NA,97.10144927536231,NA
29069,Darlington County,SC,NA,89.85507246376811,NA
29073,Lexington County,SC,NA,34.54106280193236,NA
29108,Newberry County,SC,NA,45.169082125603865,NA
29138,Saluda County,SC,NA,NA,89.59537572254335
29161,Florence County,SC,NA,75.60386473429952,NA
29212,Lexington County,SC,NA,NA,54.6242774566474
29410,Berkeley County,SC,NA,NA,71.38728323699422
29412,Charleston County,SC,NA,NA,10.404624277456648
29414,Charleston County,SC,NA,22.22222222222222,NA
29431,Berkeley County,SC,NA,92.512077294686,NA
29445,Berkeley County,SC,NA,23.18840579710145,NA
29449,Charleston County,SC,NA,74.39613526570048,NA
29455,Charleston County,SC,86.56716417910447,NA,NA
29456,Dorchester County,SC,NA,NA,73.69942196531792
29466,Charleston County,SC,55.970149253731336,NA,NA
29483,Dorchester County,SC,NA,71.98067632850241,NA
29579,Horry County,SC,NA,28.743961352657006,NA
29588,Horry County,SC,NA,38.164251207729464,NA
29615,Greenville County,SC,NA,NA,17.91907514450867
29644,Greenville County,SC,NA,NA,71.09826589595376
29646,Greenwood County,SC,50.373134328358205,NA,25.14450867052023
29669,Anderson County,SC,NA,NA,85.83815028901735
29678,Oconee County,SC,88.05970149253731,NA,NA
29803,Aiken County,SC,NA,5.314009661835748,NA
29835,McCormick County,SC,NA,69.08212560386472,NA
29907,Beaufort County,SC,NA,NA,58.67052023121387
29940,Beaufort County,SC,NA,99.51690821256038,NA
57078,Yankton County,SD,NA,83.33333333333334,69.07514450867052
37072,Davidson County,TN,NA,24.154589371980677,NA
37073,Robertson County,TN,NA,NA,80.34682080924856
37115,Davidson County,TN,13.059701492537313,NA,NA
37130,Rutherford County,TN,NA,27.294685990338163,NA
37209,Davidson County,TN,NA,53.14009661835749,NA
37354,Monroe County,TN,NA,39.61352657004831,NA
37601,Washington County,TN,NA,8.937198067632849,NA
37615,Washington County,TN,65.67164179104478,NA,NA
37664,Sullivan County,TN,NA,NA,25.722543352601157
37760,Jefferson County,TN,66.7910447761194,NA,NA
37766,Campbell County,TN,NA,NA,30.924855491329478
37862,Sevier County,TN,NA,47.82608695652174,NA
37918,Knox County,TN,NA,NA,17.341040462427745
37919,Knox County,TN,NA,NA,41.61849710982659
37920,Knox County,TN,NA,NA,33.52601156069364
37938,Knox County,TN,80.97014925373134,NA,NA
38008,Hardeman County,TN,NA,NA,76.01156069364163
38118,Shelby County,TN,23.134328358208954,NA,NA
38372,Hardin County,TN,NA,NA,40.46242774566474
38382,Gibson County,TN,NA,76.81159420289855,NA
38464,Lawrence County,TN,37.3134328358209,NA,NA
38572,Cumberland County,TN,70.52238805970148,NA,90.46242774566474
75013,Collin County,TX,55.59701492537313,NA,NA
75023,Collin County,TX,86.94029850746269,NA,NA
75040,Dallas County,TX,NA,98.55072463768117,NA
75051,Dallas County,TX,NA,43.96135265700483,NA
75052,Dallas County,TX,NA,7.729468599033816,NA
75067,Denton County,TX,NA,30.434782608695656,NA
75082,Collin County,TX,NA,NA,73.41040462427746
75093,Collin County,TX,NA,NA,34.39306358381503
75098,Collin County,TX,NA,NA,62.138728323699425
75104,Dallas County,TX,29.47761194029851,NA,NA
75134,Dallas County,TX,72.38805970149254,71.01449275362319,NA
75204,Dallas County,TX,NA,64.73429951690821,NA
75217,Dallas County,TX,NA,4.830917874396135,NA
75230,Dallas County,TX,NA,42.99516908212561,NA
75233,Dallas County,TX,NA,NA,99.42196531791907
75409,Collin County,TX,NA,84.54106280193237,NA
75692,Harrison County,TX,NA,96.85990338164251,NA
75702,Smith County,TX,NA,37.19806763285024,NA
75707,Smith County,TX,NA,45.893719806763286,NA
75771,Smith County,TX,61.19402985074627,NA,NA
76012,Tarrant County,TX,NA,48.309178743961354,NA
76015,Tarrant County,TX,NA,NA,83.23699421965318
76023,Wise County,TX,NA,NA,97.39884393063583
76028,Johnson County,TX,NA,42.028985507246375,NA
76051,Tarrant County,TX,73.88059701492537,NA,NA
76065,Ellis County,TX,46.64179104477612,NA,90.7514450867052
76109,Tarrant County,TX,NA,NA,96.82080924855492
76132,Tarrant County,TX,NA,NA,81.5028901734104
76179,Tarrant County,TX,33.95522388059701,NA,NA
76266,Denton County,TX,NA,73.67149758454107,NA
76401,Erath County,TX,NA,45.65217391304348,NA
76548,Bell County,TX,NA,NA,8.38150289017341
76645,Hill County,TX,NA,64.00966183574879,83.52601156069365
76712,McLennan County,TX,NA,NA,5.491329479768786
77007,Harris County,TX,NA,NA,79.76878612716763
77020,Harris County,TX,NA,48.55072463768116,NA
77028,Harris County,TX,NA,NA,54.91329479768786
77040,Harris County,TX,NA,NA,60.982658959537574
77042,Harris County,TX,NA,65.70048309178745,NA
77075,Harris County,TX,NA,NA,95.08670520231213
77077,Harris County,TX,NA,62.80193236714976,NA
77079,Harris County,TX,NA,NA,55.49132947976878
77302,Montgomery County,TX,NA,76.57004830917874,NA
77338,Harris County,TX,NA,91.54589371980676,NA
77385,Montgomery County,TX,NA,72.46376811594203,NA
77386,Montgomery County,TX,NA,NA,84.39306358381504
77450,Harris County,TX,NA,70.77294685990339,NA
77494,Fort Bend County,TX,NA,13.526570048309178,NA
77506,Harris County,TX,67.91044776119402,NA,NA
77520,Harris County,TX,NA,55.31400966183575,NA
77573,Galveston County,TX,62.68656716417911,NA,NA
77583,Brazoria County,TX,NA,NA,90.17341040462428
77840,Brazos County,TX,NA,65.45893719806763,NA
77905,Victoria County,TX,NA,57.48792270531401,NA
77957,Jackson County,TX,NA,NA,68.20809248554913
78046,Webb County,TX,NA,23.91304347826087,NA
78102,Bee County,TX,NA,NA,78.90173410404624
78155,Guadalupe County,TX,NA,26.570048309178745,NA
78213,Bexar County,TX,NA,NA,52.02312138728323
78237,Bexar County,TX,35.07462686567165,NA,NA
78249,Bexar County,TX,65.29850746268657,NA,NA
78253,Bexar County,TX,98.13432835820896,NA,NA
78380,Nueces County,TX,NA,63.28502415458937,NA
78633,Williamson County,TX,NA,NA,0.2890173410404624
78660,Travis County,TX,NA,NA,57.22543352601156
79414,Lubbock County,TX,NA,69.80676328502415,NA
79605,Taylor County,TX,79.8507462686567,NA,NA
79706,Midland County,TX,51.49253731343284,NA,NA
79707,Midland County,TX,38.80597014925373,NA,NA
79915,El Paso County,TX,NA,NA,12.427745664739884
79930,El Paso County,TX,84.32835820895522,NA,NA
79935,El Paso County,TX,NA,NA,84.6820809248555
84009,Salt Lake County,UT,NA,56.763285024154584,NA
84078,Uintah County,UT,20.149253731343283,NA,NA
84097,Utah County,UT,NA,86.23188405797102,NA
84111,Salt Lake County,UT,82.83582089552239,NA,NA
84403,Weber County,UT,NA,NA,60.69364161849711
84404,Weber County,UT,NA,33.57487922705314,NA
84770,Washington County,UT,NA,NA,6.9364161849710975
84790,Washington County,UT,NA,10.144927536231885,NA
05488,Franklin County,VT,NA,55.55555555555556,NA
05701,Rutland County,VT,NA,6.280193236714976,NA
20110,Manassas city,VA,41.417910447761194,NA,NA
20112,Prince William County,VA,NA,76.08695652173914,NA
22025,Prince William County,VA,NA,NA,86.1271676300578
22033,Fairfax County,VA,NA,59.42028985507246,NA
22192,Prince William County,VA,NA,37.43961352657005,NA
22304,Alexandria city,VA,17.16417910447761,NA,NA
22314,Alexandria city,VA,35.44776119402985,NA,NA
22827,Rockingham County,VA,NA,65.21739130434783,NA
22851,Page County,VA,89.92537313432835,NA,NA
22902,Charlottesville city,VA,29.850746268656714,NA,NA
22911,Albemarle County,VA,NA,NA,26.589595375722542
22960,Orange County,VA,NA,60.14492753623188,NA
22968,Greene County,VA,72.01492537313433,NA,NA
22980,Waynesboro city,VA,NA,22.705314009661837,NA
23002,Amelia County,VA,NA,85.5072463768116,NA
23024,Louisa County,VA,97.01492537313433,NA,NA
23061,Gloucester County,VA,72.76119402985076,NA,NA
23117,Louisa County,VA,NA,NA,71.38728323699422
23185,James City County,VA,NA,NA,0.5780346820809248
23188,James City County,VA,NA,1.4492753623188406,0.8670520231213872
23320,Chesapeake city,VA,NA,13.285024154589372,NA
23324,Chesapeake city,VA,NA,NA,37.283236994219656
23434,Suffolk city,VA,NA,6.521739130434782,NA
23451,Virginia Beach city,VA,NA,NA,21.965317919075144
23456,Virginia Beach city,VA,NA,5.797101449275362,NA
23462,Virginia Beach city,VA,23.507462686567166,NA,NA
23606,Newport News city,VA,85.44776119402985,NA,NA
23693,York County,VA,NA,63.28502415458937,NA
23832,Chesterfield County,VA,NA,NA,67.05202312138728
24012,Roanoke city,VA,NA,37.68115942028986,NA
24073,Montgomery County,VA,NA,NA,46.82080924855491
24121,Bedford County,VA,NA,56.038647342995176,NA
24202,Washington County,VA,NA,NA,74.56647398843931
24381,Carroll County,VA,NA,NA,99.13294797687861
24401,Staunton city,VA,NA,NA,6.069364161849711
24477,Augusta County,VA,66.7910447761194,NA,NA
24551,Bedford County,VA,NA,NA,56.358381502890175
24557,Pittsylvania County,VA,90.29850746268657,NA,NA
24641,Tazewell County,VA,NA,NA,93.35260115606935
98003,King County,WA,33.582089552238806,NA,NA
98006,King County,WA,NA,25.60386473429952,NA
98022,King County,WA,NA,21.256038647342994,43.35260115606936
98033,King County,WA,NA,NA,24.85549132947977
98092,King County,WA,30.597014925373134,NA,NA
98102,King County,WA,NA,62.56038647342995,NA
98112,King County,WA,62.31343283582089,NA,NA
98117,King County,WA,NA,50,NA
98208,Snohomish County,WA,NA,24.396135265700483,NA
98221,Skagit County,WA,70.8955223880597,NA,NA
98277,Island County,WA,NA,NA,10.115606936416185
98310,Kitsap County,WA,NA,61.35265700483091,NA
98329,Pierce County,WA,NA,78.01932367149759,NA
98382,Clallam County,WA,NA,1.2077294685990339,NA
98391,Pierce County,WA,NA,NA,65.89595375722543
98407,Pierce County,WA,NA,43.47826086956522,NA
98445,Pierce County,WA,85.07462686567165,NA,NA
98528,Mason County,WA,NA,78.98550724637681,NA
98606,Clark County,WA,NA,94.92753623188406,NA
98611,Cowlitz County,WA,NA,72.22222222222221,NA
98802,Douglas County,WA,NA,NA,59.2485549132948
98903,Yakima County,WA,NA,90.09661835748793,NA
98926,Kittitas County,WA,NA,81.64251207729468,NA
99301,Franklin County,WA,NA,NA,8.670520231213873
99336,Benton County,WA,14.55223880597015,NA,NA
20002,District of Columbia,DC,NA,3.864734299516908,NA
20007,District of Columbia,DC,NA,86.47342995169082,NA
20008,District of Columbia,DC,NA,70.28985507246377,NA
20011,District of Columbia,DC,8.208955223880597,NA,NA
25570,Wayne County,WV,NA,98.06763285024155,NA
25701,Cabell County,WV,19.029850746268657,NA,NA
25705,Cabell County,WV,NA,NA,64.73988439306359
26101,Wood County,WV,NA,NA,57.80346820809249
26104,Wood County,WV,NA,20.531400966183575,NA
26452,Lewis County,WV,NA,87.43961352657004,NA
26501,Monongalia County,WV,NA,25.36231884057971,NA
26505,Monongalia County,WV,10.074626865671641,NA,NA
26508,Monongalia County,WV,4.104477611940299,NA,NA
53012,Ozaukee County,WI,87.31343283582089,NA,NA
53018,Waukesha County,WI,95.52238805970148,NA,NA
53105,Racine County,WI,NA,39.130434782608695,NA
53147,Walworth County,WI,50.74626865671642,NA,NA
53151,Waukesha County,WI,NA,52.89855072463768,NA
53218,Milwaukee County,WI,6.7164179104477615,NA,NA
53222,Milwaukee County,WI,NA,NA,59.82658959537572
53511,Rock County,WI,1.1194029850746268,NA,NA
53523,Dane County,WI,99.25373134328358,NA,NA
53714,Dane County,WI,92.53731343283582,NA,NA
53716,Dane County,WI,NA,NA,61.27167630057804
53916,Dodge County,WI,48.134328358208954,NA,NA
54016,St. Croix County,WI,51.865671641791046,NA,NA
54114,Marinette County,WI,NA,76.32850241545893,NA
54166,Shawano County,WI,78.73134328358209,NA,NA
54220,Manitowoc County,WI,5.970149253731343,NA,NA
54235,Door County,WI,NA,NA,19.653179190751445
54615,Jackson County,WI,79.8507462686567,NA,NA
54650,La Crosse County,WI,NA,NA,95.66473988439307
54729,Chippewa County,WI,38.059701492537314,NA,NA
54730,Dunn County,WI,NA,81.40096618357488,NA
54751,Dunn County,WI,75.74626865671642,NA,NA
54915,Outagamie County,WI,NA,77.29468599033817,NA
54929,Waupaca County,WI,NA,78.74396135265701,NA
54935,Fond du Lac County,WI,NA,NA,54.04624277456648
82201,Platte County,WY,NA,NA,80.05780346820809
82240,Goshen County,WY,NA,95.65217391304348,NA
82801,Sheridan County,WY,NA,NA,29.47976878612717
