ZipCode,county,state,Adult,Retirement,Geriatric
35005,Jefferson County,AL,99.85443959243085,NA,NA
35020,Jefferson County,AL,12.663755458515283,NA,NA
35034,Bibb County,AL,91.99417758369724,NA,NA
35208,Jefferson County,AL,NA,NA,76.50602409638554
35211,Jefferson County,AL,NA,23.82608695652174,NA
35217,Jefferson County,AL,47.01601164483261,NA,NA
35401,Tuscaloosa County,AL,26.055312954876275,NA,NA
35603,Morgan County,AL,NA,59.82608695652174,NA
35758,Madison County,AL,35.95342066957787,NA,NA
35903,Etowah County,AL,NA,NA,85.2409638554217
35956,Etowah County,AL,NA,95.47826086956522,NA
36201,Calhoun County,AL,26.637554585152838,NA,NA
36310,Henry County,AL,95.63318777292577,NA,NA
36330,Coffee County,AL,73.7991266375546,NA,NA
36360,Dale County,AL,44.395924308588064,NA,NA
36535,Baldwin County,AL,40.61135371179039,NA,NA
36582,Mobile County,AL,46.43377001455604,NA,NA
36804,Lee County,AL,NA,NA,96.98795180722891
36867,Russell County,AL,66.8122270742358,NA,NA
99504,Anchorage Municipality,AK,21.397379912663755,NA,NA
99567,Anchorage Municipality,AK,NA,89.73913043478261,NA
99701,Fairbanks North Star Borough,AK,33.770014556040756,NA,NA
85008,Maricopa County,AZ,11.935953420669577,NA,NA
85013,Maricopa County,AZ,NA,59.130434782608695,NA
85017,Maricopa County,AZ,NA,65.56521739130434,NA
85086,Maricopa County,AZ,NA,38.08695652173913,NA
85142,Maricopa County,AZ,NA,26.260869565217394,NA
85225,Maricopa County,AZ,NA,NA,47.59036144578313
85251,Maricopa County,AZ,NA,NA,80.12048192771084
85255,Maricopa County,AZ,NA,NA,90.06024096385542
85260,Maricopa County,AZ,NA,NA,17.46987951807229
85283,Maricopa County,AZ,NA,71.30434782608695,NA
85306,Maricopa County,AZ,NA,53.391304347826086,NA
85344,La Paz County,AZ,35.516739446870446,NA,NA
85345,Maricopa County,AZ,11.208151382823871,NA,NA
85364,Yuma County,AZ,NA,23.304347826086957,NA
85614,Pima County,AZ,NA,NA,4.216867469879518
85622,Pima County,AZ,NA,NA,95.78313253012048
85635,Cochise County,AZ,25.181950509461426,NA,NA
85653,Pima County,AZ,35.08005822416303,NA,NA
85705,Pima County,AZ,NA,7.478260869565218,NA
85719,Pima County,AZ,86.60844250363901,NA,NA
85739,Pinal County,AZ,64.19213973799127,NA,NA
85757,Pima County,AZ,26.4919941775837,NA,NA
86004,Coconino County,AZ,4.8034934497816595,NA,NA
86040,Coconino County,AZ,NA,73.73913043478261,NA
86047,Navajo County,AZ,NA,32,NA
86305,Yavapai County,AZ,63.31877729257642,NA,NA
86503,Apache County,AZ,33.33333333333333,NA,NA
71901,Garland County,AR,NA,69.56521739130434,NA
72104,Hot Spring County,AR,79.33042212518195,NA,NA
72301,Crittenden County,AR,78.02037845705968,NA,NA
72370,Mississippi County,AR,93.59534206695778,NA,NA
72432,Poinsett County,AR,93.01310043668121,NA,NA
72450,Greene County,AR,18.486171761280932,NA,NA
72734,Benton County,AR,NA,87.65217391304347,NA
72745,Benton County,AR,80.9315866084425,NA,NA
72764,Washington County,AR,66.95778748180496,NA,NA
90013,Los Angeles County,CA,NA,82.26086956521739,NA
90019,Los Angeles County,CA,37.99126637554585,NA,NA
90029,Los Angeles County,CA,88.20960698689956,NA,NA
90031,Los Angeles County,CA,NA,62.60869565217392,NA
90032,Los Angeles County,CA,NA,52.52173913043479,NA
90036,Los Angeles County,CA,NA,70.6086956521739,NA
90043,Los Angeles County,CA,NA,22.26086956521739,NA
90044,Los Angeles County,CA,NA,NA,29.21686746987952
90242,Los Angeles County,CA,85.73508005822417,NA,NA
90260,Los Angeles County,CA,NA,61.56521739130435,NA
90280,Los Angeles County,CA,31.29548762736536,NA,NA
90501,Los Angeles County,CA,NA,NA,42.168674698795186
90603,Los Angeles County,CA,NA,75.47826086956522,NA
90630,Orange County,CA,NA,NA,31.626506024096386
90631,Orange County,CA,NA,17.91304347826087,NA
90640,Los Angeles County,CA,33.47889374090248,NA,NA
90716,Los Angeles County,CA,NA,92.17391304347827,NA
90808,Los Angeles County,CA,NA,NA,31.024096385542173
91107,Los Angeles County,CA,NA,NA,32.831325301204814
91304,Los Angeles County,CA,46.87045123726347,NA,NA
91325,Los Angeles County,CA,NA,58.608695652173914,NA
91342,Los Angeles County,CA,19.359534206695777,NA,NA
91402,Los Angeles County,CA,NA,NA,22.289156626506024
91405,Los Angeles County,CA,NA,NA,40.06024096385542
91605,Los Angeles County,CA,45.414847161572055,NA,NA
91706,Los Angeles County,CA,26.200873362445414,NA,NA
91737,San Bernardino County,CA,NA,77.04347826086956,NA
91744,Los Angeles County,CA,NA,NA,14.759036144578314
91773,Los Angeles County,CA,NA,28.000000000000004,NA
91780,Los Angeles County,CA,NA,NA,38.855421686746986
91910,San Diego County,CA,25.47307132459971,NA,NA
91911,San Diego County,CA,NA,19.304347826086957,NA
91942,San Diego County,CA,NA,40.34782608695652,NA
91950,San Diego County,CA,NA,34.26086956521739,NA
92024,San Diego County,CA,NA,NA,24.096385542168676
92027,San Diego County,CA,NA,NA,37.95180722891566
92109,San Diego County,CA,67.24890829694323,NA,NA
92154,San Diego County,CA,35.22561863173217,NA,NA
92231,Imperial County,CA,NA,NA,6.024096385542169
92234,Riverside County,CA,NA,2.086956521739131,NA
92264,Riverside County,CA,NA,12.695652173913045,NA
92284,San Bernardino County,CA,NA,27.1304347826087,NA
92311,San Bernardino County,CA,NA,48.52173913043478,NA
92345,San Bernardino County,CA,NA,NA,18.97590361445783
92346,San Bernardino County,CA,NA,43.30434782608696,NA
92399,San Bernardino County,CA,NA,NA,19.57831325301205
92404,San Bernardino County,CA,16.157205240174672,NA,NA
92504,Riverside County,CA,39.44687045123727,NA,NA
92505,Riverside County,CA,43.66812227074236,NA,NA
92543,Riverside County,CA,NA,49.391304347826086,NA
92545,Riverside County,CA,71.17903930131004,65.91304347826087,NA
92562,Riverside County,CA,NA,32,NA
92646,Orange County,CA,NA,8.521739130434783,NA
92649,Orange County,CA,54.29403202328966,NA,NA
92656,Orange County,CA,64.48326055312955,NA,NA
92704,Orange County,CA,32.1688500727802,NA,NA
92802,Orange County,CA,52.838427947598255,NA,NA
92821,Orange County,CA,NA,NA,23.795180722891565
92840,Orange County,CA,89.22852983988355,NA,NA
92869,Orange County,CA,NA,44.869565217391305,NA
93003,Ventura County,CA,NA,NA,41.265060240963855
93030,Ventura County,CA,NA,22.26086956521739,NA
93033,Ventura County,CA,NA,10.26086956521739,NA
93223,Tulare County,CA,93.74090247452693,NA,NA
93230,Kings County,CA,NA,61.91304347826087,NA
93305,Kern County,CA,NA,52.17391304347826,NA
93308,Kern County,CA,27.947598253275107,NA,NA
93309,Kern County,CA,30.71324599708879,NA,NA
93313,Kern County,CA,50.072780203784575,48.869565217391305,NA
93550,Los Angeles County,CA,NA,70.26086956521739,NA
93552,Los Angeles County,CA,57.49636098981077,NA,NA
93648,Fresno County,CA,82.24163027656476,NA,NA
93662,Fresno County,CA,55.167394468704515,NA,NA
93726,Fresno County,CA,20.96069868995633,NA,NA
94010,San Mateo County,CA,83.98835516739447,NA,NA
94044,San Mateo County,CA,NA,56.52173913043478,NA
94061,San Mateo County,CA,NA,NA,96.6867469879518
94115,San Francisco County,CA,NA,64,NA
94134,San Francisco County,CA,NA,55.30434782608695,NA
94303,San Mateo County,CA,NA,NA,20.180722891566266
94533,Solano County,CA,NA,25.043478260869566,NA
94534,Solano County,CA,NA,NA,33.13253012048193
94558,Napa County,CA,NA,6.260869565217392,NA
94591,Solano County,CA,NA,37.21739130434783,NA
94601,Alameda County,CA,NA,35.82608695652174,NA
94603,Alameda County,CA,45.26928675400291,NA,NA
94903,Marin County,CA,NA,NA,60.8433734939759
95006,Santa Cruz County,CA,NA,88.52173913043478,NA
95035,Santa Clara County,CA,NA,NA,15.963855421686745
95112,Santa Clara County,CA,NA,80.8695652173913,NA
95113,Santa Clara County,CA,94.32314410480349,NA,NA
95120,Santa Clara County,CA,83.11499272197962,NA,NA
95148,Santa Clara County,CA,NA,NA,52.71084337349398
95206,San Joaquin County,CA,NA,26.608695652173914,NA
95209,San Joaquin County,CA,44.25036390101892,NA,NA
95307,Stanislaus County,CA,92.43085880640466,43.65217391304348,NA
95326,Stanislaus County,CA,NA,90.78260869565217,NA
95340,Merced County,CA,NA,47.82608695652174,NA
95368,Stanislaus County,CA,NA,84.69565217391303,NA
95425,Sonoma County,CA,NA,NA,81.02409638554217
95436,Sonoma County,CA,94.75982532751091,NA,NA
95490,Mendocino County,CA,95.48762736535662,NA,NA
95531,Del Norte County,CA,NA,47.30434782608695,NA
95620,Solano County,CA,79.76710334788937,NA,NA
95624,Sacramento County,CA,44.97816593886463,NA,NA
95632,Sacramento County,CA,87.627365356623,NA,NA
95648,Placer County,CA,NA,NA,6.927710843373494
95823,Sacramento County,CA,11.06259097525473,NA,NA
95829,Sacramento County,CA,74.38136826783115,NA,NA
95928,Butte County,CA,NA,NA,18.373493975903614
95969,Butte County,CA,NA,7.304347826086957,3.614457831325301
96001,Shasta County,CA,20.232896652110625,NA,NA
96013,Shasta County,CA,NA,72.52173913043478,NA
80005,Jefferson County,CO,80.05822416302766,NA,NA
80010,Arapahoe County,CO,NA,41.21739130434783,NA
80020,Broomfield County,CO,41.3391557496361,NA,NA
80107,Elbert County,CO,NA,71.82608695652173,NA
80112,Arapahoe County,CO,50.94614264919942,NA,NA
80123,Jefferson County,CO,NA,NA,64.45783132530121
80204,Denver County,CO,21.106259097525474,NA,NA
80205,Denver County,CO,39.01018922852984,NA,NA
80212,Denver County,CO,NA,62.78260869565217,NA
80223,Denver County,CO,61.280931586608446,NA,NA
80224,Denver County,CO,NA,73.91304347826086,NA
80226,Jefferson County,CO,46.288209606986904,NA,NA
80229,Adams County,CO,13.100436681222707,NA,67.16867469879519
80241,Adams County,CO,54.00291120815138,NA,NA
80501,Boulder County,CO,19.65065502183406,NA,NA
80634,Weld County,CO,NA,NA,7.228915662650602
80751,Logan County,CO,NA,54.95652173913044,NA
80904,El Paso County,CO,NA,56.34782608695652,NA
80909,El Paso County,CO,NA,73.56521739130434,NA
81212,Fremont County,CO,37.55458515283843,NA,NA
06040,Hartford County,CT,34.78893740902475,NA,NA
06226,Windham County,CT,44.68704512372635,NA,NA
06234,Windham County,CT,62.29985443959243,NA,NA
06238,Tolland County,CT,NA,99.1304347826087,NA
06410,New Haven County,CT,NA,39.130434782608695,NA
06457,Middlesex County,CT,NA,8.869565217391303,NA
06483,New Haven County,CT,63.17321688500728,NA,NA
06514,New Haven County,CT,NA,30.956521739130434,NA
06517,New Haven County,CT,NA,68.17391304347827,NA
06704,New Haven County,CT,21.83406113537118,NA,NA
06716,New Haven County,CT,NA,NA,44.27710843373494
06770,New Haven County,CT,NA,80.34782608695652,NA
06824,Fairfield County,CT,NA,NA,48.795180722891565
06851,Fairfield County,CT,86.46288209606988,NA,NA
06902,Fairfield County,CT,NA,12.521739130434783,46.08433734939759
19713,New Castle County,DE,29.839883551673946,NA,NA
19801,New Castle County,DE,36.24454148471616,NA,NA
19808,New Castle County,DE,NA,NA,6.325301204819277
19933,Sussex County,DE,NA,61.21739130434782,NA
19945,Sussex County,DE,NA,54.434782608695656,96.08433734939759
32034,Nassau County,FL,NA,9.391304347826086,NA
32043,Clay County,FL,NA,52,NA
32055,Columbia County,FL,38.427947598253276,NA,NA
32073,Clay County,FL,24.163027656477436,NA,NA
32092,St. Johns County,FL,NA,37.73913043478261,NA
32117,Volusia County,FL,NA,48,NA
32136,Flagler County,FL,87.77292576419214,NA,NA
32205,Duval County,FL,59.388646288209614,NA,NA
32206,Duval County,FL,20.815138282387192,NA,NA
32207,Duval County,FL,17.17612809315866,NA,NA
32210,Duval County,FL,NA,7.130434782608695,8.132530120481928
32219,Duval County,FL,42.35807860262008,NA,NA
32246,Duval County,FL,14.701601164483261,NA,NA
32256,Duval County,FL,NA,64.69565217391305,NA
32277,Duval County,FL,22.707423580786028,NA,NA
32309,Leon County,FL,NA,NA,49.096385542168676
32327,Wakulla County,FL,75.54585152838428,NA,NA
32348,Taylor County,FL,NA,NA,79.81927710843374
32438,Bay County,FL,NA,96.17391304347827,NA
32446,Jackson County,FL,62.73653566229985,NA,NA
32462,Washington County,FL,NA,NA,89.1566265060241
32501,Escambia County,FL,53.85735080058224,NA,NA
32535,Escambia County,FL,NA,72.86956521739131,NA
32570,Santa Rosa County,FL,8.879184861717611,NA,NA
32606,Alachua County,FL,NA,98.43478260869564,3.91566265060241
32609,Alachua County,FL,18.922852983988356,NA,NA
32641,Alachua County,FL,86.31732168850073,NA,NA
32738,Volusia County,FL,NA,NA,40.963855421686745
32750,Seminole County,FL,NA,NA,68.97590361445783
32763,Volusia County,FL,NA,55.65217391304348,NA
32771,Seminole County,FL,NA,33.91304347826087,NA
32778,Lake County,FL,59.243085880640464,NA,22.89156626506024
32796,Brevard County,FL,49.78165938864629,NA,NA
32805,Orange County,FL,82.82387190684133,NA,NA
32808,Orange County,FL,14.556040756914118,NA,NA
32835,Orange County,FL,NA,97.3913043478261,NA
32839,Orange County,FL,NA,37.565217391304344,NA
32904,Brevard County,FL,74.96360989810772,82.78260869565217,NA
32934,Brevard County,FL,70.16011644832606,NA,NA
32935,Brevard County,FL,NA,NA,16.867469879518072
32937,Brevard County,FL,NA,78.95652173913044,NA
32955,Brevard County,FL,NA,23.130434782608695,NA
32958,Indian River County,FL,NA,NA,4.819277108433735
33020,Broward County,FL,29.403202328966522,NA,NA
33032,Miami-Dade County,FL,38.864628820960704,NA,NA
33054,Miami-Dade County,FL,NA,86.08695652173914,NA
33062,Broward County,FL,NA,NA,90.96385542168674
33063,Broward County,FL,70.88791848617177,NA,NA
33127,Miami-Dade County,FL,NA,NA,99.09638554216868
33128,Miami-Dade County,FL,NA,92.69565217391305,NA
33134,Miami-Dade County,FL,NA,NA,23.49397590361446
33142,Miami-Dade County,FL,NA,NA,68.37349397590361
33147,Miami-Dade County,FL,NA,87.82608695652175,NA
33161,Miami-Dade County,FL,NA,45.391304347826086,NA
33167,Miami-Dade County,FL,61.42649199417758,NA,NA
33179,Miami-Dade County,FL,59.97088791848617,NA,NA
33185,Miami-Dade County,FL,97.23435225618631,NA,NA
33190,Miami-Dade County,FL,NA,NA,97.89156626506023
33309,Broward County,FL,NA,42.78260869565217,NA
33312,Broward County,FL,NA,49.913043478260875,NA
33319,Broward County,FL,71.32459970887919,NA,NA
33321,Broward County,FL,NA,85.21739130434783,NA
33407,Palm Beach County,FL,NA,NA,58.43373493975904
33410,Palm Beach County,FL,NA,32.69565217391304,NA
33415,Palm Beach County,FL,NA,NA,46.98795180722892
33426,Palm Beach County,FL,NA,NA,43.07228915662651
33458,Palm Beach County,FL,56.91411935953421,NA,20.481927710843372
33460,Palm Beach County,FL,NA,53.91304347826087,64.7590361445783
33542,Pasco County,FL,53.56622998544396,NA,NA
33549,Hillsborough County,FL,NA,NA,89.7590361445783
33563,Hillsborough County,FL,46.142649199417754,NA,NA
33573,Hillsborough County,FL,NA,NA,1.8072289156626504
33604,Hillsborough County,FL,71.47016011644833,NA,NA
33615,Hillsborough County,FL,28.675400291120816,NA,NA
33619,Hillsborough County,FL,NA,36.173913043478265,NA
33625,Hillsborough County,FL,58.660844250363894,NA,NA
33629,Hillsborough County,FL,69.28675400291121,NA,NA
33703,Pinellas County,FL,56.186317321688506,NA,NA
33711,Pinellas County,FL,NA,NA,70.78313253012048
33712,Pinellas County,FL,65.64774381368268,NA,NA
33714,Pinellas County,FL,NA,61.39130434782609,NA
33756,Pinellas County,FL,43.37700145560407,NA,NA
33781,Pinellas County,FL,44.832605531295485,NA,NA
33782,Pinellas County,FL,NA,95.82608695652173,NA
33870,Highlands County,FL,NA,NA,8.734939759036145
33914,Lee County,FL,NA,NA,15.66265060240964
33922,Lee County,FL,96.79767103347889,NA,NA
33952,Charlotte County,FL,86.17176128093159,NA,NA
33972,Lee County,FL,NA,87.47826086956522,NA
34104,Collier County,FL,NA,48.17391304347826,NA
34135,Lee County,FL,NA,NA,9.63855421686747
34233,Sarasota County,FL,NA,44.34782608695652,NA
34235,Sarasota County,FL,79.47598253275109,NA,NA
34293,Sarasota County,FL,NA,6.956521739130435,36.44578313253012
34420,Marion County,FL,68.26783114992722,NA,NA
34476,Marion County,FL,NA,36.347826086956516,NA
34488,Marion County,FL,91.41193595342067,NA,NA
34610,Pasco County,FL,64.62882096069869,NA,NA
34668,Pasco County,FL,10.771470160116449,22.086956521739133,NA
34669,Pasco County,FL,NA,64.34782608695652,NA
34684,Pinellas County,FL,NA,70.6086956521739,NA
34691,Pasco County,FL,41.92139737991266,NA,NA
34748,Lake County,FL,19.213973799126638,10.08695652173913,1.5060240963855422
34786,Orange County,FL,NA,73.3913043478261,NA
34787,Orange County,FL,NA,21.73913043478261,NA
34788,Lake County,FL,NA,NA,24.69879518072289
34950,St. Lucie County,FL,NA,46.43478260869565,NA
34952,St. Lucie County,FL,NA,NA,30.42168674698795
34953,St. Lucie County,FL,4.366812227074235,NA,NA
34982,St. Lucie County,FL,51.09170305676856,NA,NA
30012,Rockdale County,GA,51.67394468704513,NA,NA
30024,Gwinnett County,GA,NA,NA,31.92771084337349
30028,Forsyth County,GA,58.369723435225616,NA,NA
30032,DeKalb County,GA,NA,13.391304347826086,NA
30046,Gwinnett County,GA,45.70596797671033,NA,NA
30083,DeKalb County,GA,26.78311499272198,NA,NA
30087,DeKalb County,GA,NA,94.6086956521739,NA
30102,Cherokee County,GA,NA,29.739130434782606,NA
30103,Bartow County,GA,84.13391557496361,NA,NA
30120,Bartow County,GA,19.7962154294032,NA,NA
30121,Bartow County,GA,NA,NA,71.08433734939759
30165,Floyd County,GA,58.07860262008734,NA,NA
30222,Meriwether County,GA,87.04512372634643,NA,NA
30240,Troup County,GA,NA,NA,28.915662650602407
30248,Henry County,GA,NA,53.73913043478261,NA
30263,Coweta County,GA,9.170305676855897,NA,NA
30281,Henry County,GA,NA,19.47826086956522,NA
30314,Fulton County,GA,41.04803493449782,NA,NA
30341,DeKalb County,GA,66.52110625909754,NA,NA
30504,Hall County,GA,78.4570596797671,NA,NA
30540,Gilmer County,GA,88.79184861717613,NA,NA
30605,Clarke County,GA,53.711790393013104,NA,NA
30629,Madison County,GA,94.17758369723435,NA,NA
30705,Murray County,GA,76.56477438136827,NA,NA
30720,Whitfield County,GA,78.60262008733623,NA,NA
30721,Whitfield County,GA,56.33187772925764,NA,NA
30739,Walker County,GA,NA,98.26086956521739,NA
30802,Columbia County,GA,NA,NA,86.74698795180723
30824,McDuffie County,GA,NA,NA,74.3975903614458
31089,Washington County,GA,96.50655021834062,NA,NA
31204,Bibb County,GA,31.58660844250364,NA,NA
31404,Chatham County,GA,NA,NA,92.46987951807229
31501,Ware County,GA,NA,81.04347826086956,NA
31537,Charlton County,GA,65.21106259097526,NA,NA
31779,Mitchell County,GA,NA,67.30434782608695,NA
31816,Meriwether County,GA,97.96215429403202,NA,NA
31820,Muscogee County,GA,90.1018922852984,NA,NA
31906,Muscogee County,GA,NA,39.47826086956522,NA
39817,Decatur County,GA,62.44541484716157,NA,NA
39837,Miller County,GA,NA,NA,80.72289156626506
39845,Seminole County,GA,NA,NA,69.57831325301204
96746,Kauai County,HI,NA,NA,84.63855421686746
96763,Maui County,HI,NA,96.52173913043478,NA
96786,Honolulu County,HI,NA,41.04347826086956,NA
96816,Honolulu County,HI,NA,NA,24.397590361445783
96817,Honolulu County,HI,NA,5.739130434782608,NA
96818,Honolulu County,HI,NA,32.52173913043478,NA
96822,Honolulu County,HI,36.681222707423586,NA,NA
83201,Bannock County,ID,NA,79.65217391304348,NA
83301,Twin Falls County,ID,NA,NA,0.6024096385542169
83401,Bonneville County,ID,41.77583697234352,NA,NA
83501,Nez Perce County,ID,12.954876273653564,NA,NA
83605,Canyon County,ID,NA,22.956521739130434,NA
83714,Ada County,ID,43.085880640465795,NA,NA
60020,Lake County,IL,NA,NA,69.87951807228916
60033,McHenry County,IL,NA,86.95652173913044,NA
60042,McHenry County,IL,89.66521106259097,NA,NA
60084,Lake County,IL,NA,83.65217391304348,NA
60085,Lake County,IL,16.593886462882097,NA,NA
60089,Lake County,IL,91.26637554585153,NA,NA
60130,Cook County,IL,NA,NA,73.49397590361446
60137,DuPage County,IL,NA,NA,9.939759036144578
60153,Cook County,IL,NA,69.91304347826087,NA
60169,Cook County,IL,45.56040756914119,NA,NA
60193,Cook County,IL,68.70451237263464,NA,NA
60411,Cook County,IL,11.353711790393014,NA,NA
60419,Cook County,IL,NA,35.130434782608695,NA
60422,Cook County,IL,NA,43.826086956521735,NA
60435,Will County,IL,NA,90.43478260869566,NA
60440,Will County,IL,NA,14.956521739130435,NA
60450,Grundy County,IL,NA,18.434782608695652,NA
60453,Cook County,IL,NA,73.21739130434783,NA
60457,Cook County,IL,71.90684133915575,NA,NA
60459,Cook County,IL,32.896652110625915,NA,NA
60462,Cook County,IL,NA,NA,70.18072289156626
60465,Cook County,IL,47.161572052401745,NA,NA
60473,Cook County,IL,NA,45.565217391304344,19.879518072289155
60503,Will County,IL,90.24745269286754,NA,NA
60505,Kane County,IL,NA,NA,43.373493975903614
60525,Cook County,IL,NA,44.173913043478265,NA
60544,Will County,IL,NA,NA,12.349397590361445
60559,DuPage County,IL,73.36244541484717,NA,NA
60585,Will County,IL,54.14847161572053,NA,NA
60608,Cook County,IL,10.043668122270741,NA,NA
60618,Cook County,IL,32.314410480349345,NA,NA
60623,Cook County,IL,47.59825327510917,13.56521739130435,NA
60626,Cook County,IL,NA,7.82608695652174,NA
60628,Cook County,IL,5.385735080058224,25.39130434782609,NA
60629,Cook County,IL,NA,4.521739130434783,NA
60630,Cook County,IL,23.435225618631733,NA,NA
60631,Cook County,IL,30.858806404657933,NA,NA
60632,Cook County,IL,NA,NA,59.93975903614458
60643,Cook County,IL,NA,3.4782608695652173,NA
60644,Cook County,IL,63.464337700145556,NA,NA
60647,Cook County,IL,6.695778748180495,NA,NA
60827,Cook County,IL,NA,76.52173913043478,NA
60942,Vermilion County,IL,85.29839883551674,NA,NA
60954,Kankakee County,IL,95.77874818049492,NA,NA
61068,Ogle County,IL,NA,49.04347826086956,NA
61107,Winnebago County,IL,NA,30.434782608695656,NA
61282,Rock Island County,IL,85.1528384279476,NA,NA
61455,McDonough County,IL,NA,NA,91.86746987951807
61554,Tazewell County,IL,NA,12.869565217391305,NA
61727,De Witt County,IL,69.5778748180495,86.08695652173914,NA
61761,McLean County,IL,36.972343522561864,NA,27.10843373493976
61866,Champaign County,IL,70.74235807860262,NA,NA
62223,St. Clair County,IL,68.99563318777294,NA,NA
62301,Adams County,IL,92.72197962154294,NA,NA
62448,Jasper County,IL,NA,100,NA
62521,Macon County,IL,NA,98.60869565217392,NA
62522,Macon County,IL,79.1848617176128,NA,NA
62650,Morgan County,IL,50.509461426491995,NA,NA
62704,Sangamon County,IL,NA,NA,75
62837,Wayne County,IL,NA,NA,63.25301204819277
62839,Clay County,IL,80.78602620087337,NA,NA
62896,Franklin County,IL,NA,30.26086956521739,NA
46032,Hamilton County,IN,87.48180494905385,NA,NA
46072,Tipton County,IN,76.7103347889374,NA,NA
46077,Boone County,IN,NA,NA,50.903614457831324
46124,Johnson County,IN,NA,84.86956521739131,NA
46140,Hancock County,IN,NA,NA,13.55421686746988
46176,Shelby County,IN,14.992721979621543,NA,NA
46201,Marion County,IN,NA,NA,76.20481927710844
46203,Marion County,IN,8.005822416302767,14.608695652173914,NA
46214,Marion County,IN,NA,42.08695652173913,NA
46218,Marion County,IN,NA,21.217391304347828,NA
46224,Marion County,IN,77.29257641921397,NA,NA
46229,Marion County,IN,NA,32.34782608695652,NA
46256,Marion County,IN,67.10334788937409,39.82608695652174,NA
46307,Lake County,IN,NA,NA,2.108433734939759
46323,Lake County,IN,NA,18.782608695652172,NA
46385,Porter County,IN,5.531295487627365,NA,NA
46410,Lake County,IN,5.094614264919942,NA,NA
46507,Elkhart County,IN,NA,82.6086956521739,NA
46614,St. Joseph County,IN,NA,NA,32.22891566265061
46615,St. Joseph County,IN,72.63464337700145,NA,NA
46619,St. Joseph County,IN,52.69286754002911,NA,NA
46635,St. Joseph County,IN,NA,90.08695652173913,NA
46761,LaGrange County,IN,NA,81.56521739130434,NA
46901,Howard County,IN,1.6011644832605532,NA,NA
46970,Miami County,IN,66.0844250363901,NA,NA
46975,Fulton County,IN,NA,70.95652173913042,NA
47006,Ripley County,IN,NA,55.826086956521735,NA
47119,Floyd County,IN,NA,NA,92.7710843373494
47330,Wayne County,IN,NA,81.91304347826087,NA
47374,Wayne County,IN,NA,3.826086956521739,NA
47441,Greene County,IN,67.54002911208151,NA,NA
47620,Posey County,IN,68.5589519650655,NA,NA
47630,Warrick County,IN,NA,22.782608695652172,NA
47715,Vanderburgh County,IN,NA,66.08695652173913,NA
47802,Vigo County,IN,23.871906841339154,NA,NA
47834,Clay County,IN,63.901018922852984,NA,NA
47906,Tippecanoe County,IN,NA,27.304347826086957,NA
50208,Jasper County,IA,NA,58.08695652173913,NA
50309,Polk County,IA,86.75400291120815,NA,NA
50310,Polk County,IA,NA,NA,35.54216867469879
50314,Polk County,IA,42.64919941775837,NA,NA
50317,Polk County,IA,NA,15.478260869565217,NA
50322,Polk County,IA,NA,NA,51.80722891566265
50703,Black Hawk County,IA,28.38427947598253,NA,NA
51012,Cherokee County,IA,90.68413391557496,NA,NA
51360,Dickinson County,IA,93.15866084425036,NA,NA
52001,Dubuque County,IA,14.41048034934498,NA,NA
52246,Johnson County,IA,NA,82.26086956521739,NA
52601,Des Moines County,IA,38.28238719068413,NA,NA
52732,Clinton County,IA,NA,26.956521739130434,NA
66109,Wyandotte County,KS,51.52838427947598,NA,NA
66212,Johnson County,KS,55.45851528384279,NA,NA
66216,Johnson County,KS,NA,NA,44.57831325301205
67005,Cowley County,KS,51.96506550218341,NA,NA
67207,Sedgwick County,KS,79.03930131004367,NA,NA
67701,Thomas County,KS,73.94468704512373,NA,NA
40004,Nelson County,KY,17.758369723435223,NA,NA
40069,Washington County,KY,66.22998544395924,NA,NA
40150,Bullitt County,KY,88.35516739446871,NA,NA
40213,Jefferson County,KY,33.624454148471614,NA,NA
40216,Jefferson County,KY,8.296943231441048,NA,NA
40217,Jefferson County,KY,70.45123726346434,NA,NA
40222,Jefferson County,KY,NA,88.69565217391305,NA
40291,Jefferson County,KY,80.34934497816593,NA,NA
40324,Scott County,KY,11.790393013100436,NA,NA
40356,Jessamine County,KY,12.372634643377003,NA,NA
40383,Woodford County,KY,NA,40.52173913043478,NA
40422,Boyle County,KY,45.851528384279476,NA,NA
40475,Madison County,KY,49.927219796215425,NA,NA
40502,Fayette County,KY,81.6593886462882,NA,NA
40505,Fayette County,KY,23.580786026200872,NA,53.915662650602414
40508,Fayette County,KY,NA,58.95652173913043,NA
40514,Fayette County,KY,87.19068413391557,NA,NA
40701,Whitley County,KY,9.606986899563319,NA,NA
41091,Boone County,KY,NA,NA,53.01204819277109
41139,Greenup County,KY,39.15574963609898,NA,NA
41144,Greenup County,KY,37.84570596797671,NA,NA
41175,Greenup County,KY,63.75545851528385,NA,NA
41314,Owsley County,KY,87.91848617176127,NA,NA
41501,Pike County,KY,37.26346433770015,NA,NA
41562,Pike County,KY,97.67103347889375,NA,NA
41858,Letcher County,KY,56.91411935953421,NA,NA
42001,McCracken County,KY,60.98981077147017,NA,NA
42041,Fulton County,KY,NA,94.08695652173913,NA
42101,Warren County,KY,NA,17.043478260869566,NA
42141,Barren County,KY,10.91703056768559,NA,NA
42256,Logan County,KY,NA,87.30434782608695,NA
42261,Butler County,KY,60.26200873362445,NA,NA
42301,Daviess County,KY,34.06113537117904,NA,NA
42544,Pulaski County,KY,NA,71.82608695652173,NA
42717,Cumberland County,KY,55.45851528384279,NA,NA
70006,Jefferson Parish,LA,NA,NA,21.084337349397593
70065,Jefferson Parish,LA,2.4745269286754,NA,NA
70114,Orleans Parish,LA,NA,NA,54.81927710843374
70119,Orleans Parish,LA,3.3478893740902476,NA,NA
70128,Orleans Parish,LA,15.72052401746725,NA,NA
70363,Terrebonne Parish,LA,NA,NA,32.53012048192771
70438,Washington Parish,LA,11.644832605531295,NA,NA
70454,Tangipahoa Parish,LA,NA,9.73913043478261,NA
70462,Livingston Parish,LA,80.49490538573508,NA,NA
70507,Lafayette Parish,LA,97.08879184861718,NA,NA
70510,Vermilion Parish,LA,NA,98.08695652173913,NA
70526,Acadia Parish,LA,NA,NA,54.51807228915663
70582,St. Martin Parish,LA,NA,38.43478260869565,NA
70583,Lafayette Parish,LA,NA,96.69565217391303,NA
70605,Calcasieu Parish,LA,NA,89.04347826086956,NA
70737,Ascension Parish,LA,NA,18.26086956521739,NA
70805,East Baton Rouge Parish,LA,2.1834061135371177,NA,NA
70810,East Baton Rouge Parish,LA,NA,NA,50
70817,East Baton Rouge Parish,LA,NA,16.52173913043478,NA
71254,East Carroll Parish,LA,NA,81.73913043478261,NA
71269,Richland Parish,LA,NA,NA,83.73493975903614
71334,Concordia Parish,LA,NA,NA,82.2289156626506
71483,Winn Parish,LA,NA,NA,59.63855421686747
04103,Cumberland County,ME,21.251819505094613,NA,NA
04210,Androscoggin County,ME,NA,9.91304347826087,NA
04240,Androscoggin County,ME,12.22707423580786,82.95652173913044,NA
04769,Aroostook County,ME,81.22270742358079,NA,NA
04938,Franklin County,ME,NA,77.91304347826087,NA
04976,Somerset County,ME,14.847161572052403,NA,NA
20646,Charles County,MD,NA,75.65217391304347,NA
20706,Prince George's County,MD,85.73508005822417,NA,NA
20707,Prince George's County,MD,NA,NA,95.18072289156626
20735,Prince George's County,MD,NA,60.17391304347826,NA
20746,Prince George's County,MD,NA,58.434782608695656,NA
20770,Prince George's County,MD,NA,79.30434782608695,NA
20878,Montgomery County,MD,NA,53.565217391304344,NA
21144,Anne Arundel County,MD,56.76855895196506,NA,NA
21202,Baltimore city,MD,NA,51.13043478260869,NA
21205,Baltimore city,MD,NA,67.82608695652173,NA
21229,Baltimore city,MD,16.885007278020378,NA,NA
21230,Baltimore city,MD,NA,47.65217391304348,NA
21234,Baltimore County,MD,43.95924308588064,NA,NA
21403,Anne Arundel County,MD,NA,43.130434782608695,NA
21701,Frederick County,MD,58.22416302765647,NA,NA
21702,Frederick County,MD,NA,NA,38.25301204819277
21754,Frederick County,MD,NA,90.6086956521739,NA
21787,Carroll County,MD,NA,NA,94.87951807228916
01027,Hampshire County,MA,10.334788937409025,NA,NA
01073,Hampshire County,MA,NA,80,NA
01104,Hampden County,MA,1.0189228529839884,25.73913043478261,NA
01201,Berkshire County,MA,NA,0,NA
01247,Berkshire County,MA,NA,37.391304347826086,NA
01267,Berkshire County,MA,NA,NA,92.16867469879519
01364,Franklin County,MA,74.235807860262,NA,NA
01440,Worcester County,MA,49.053857350800584,NA,NA
01468,Worcester County,MA,NA,93.04347826086956,NA
01540,Worcester County,MA,NA,46.608695652173914,NA
01550,Worcester County,MA,NA,53.04347826086957,NA
01583,Worcester County,MA,NA,NA,52.40963855421686
01603,Worcester County,MA,1.455604075691412,2.4347826086956523,NA
01748,Middlesex County,MA,NA,NA,51.80722891566265
01749,Middlesex County,MA,NA,NA,45.18072289156627
01752,Middlesex County,MA,NA,13.91304347826087,NA
01824,Middlesex County,MA,NA,32.869565217391305,NA
01832,Essex County,MA,NA,10.956521739130434,14.156626506024098
01844,Essex County,MA,NA,2.782608695652174,NA
01851,Middlesex County,MA,NA,NA,16.867469879518072
01854,Middlesex County,MA,NA,29.391304347826086,NA
01876,Middlesex County,MA,NA,NA,6.626506024096386
01880,Middlesex County,MA,NA,NA,84.93975903614458
01887,Middlesex County,MA,NA,97.56521739130434,NA
01905,Essex County,MA,NA,78.08695652173913,NA
01923,Essex County,MA,NA,30.08695652173913,NA
01960,Essex County,MA,NA,NA,0
02048,Bristol County,MA,18.777292576419214,NA,NA
02090,Norfolk County,MA,NA,NA,34.93975903614458
02116,Suffolk County,MA,NA,NA,43.97590361445783
02132,Suffolk County,MA,NA,1.565217391304348,NA
02135,Suffolk County,MA,NA,NA,21.987951807228914
02136,Suffolk County,MA,NA,NA,72.89156626506023
02139,Middlesex County,MA,NA,21.043478260869566,NA
02141,Middlesex County,MA,NA,54.2608695652174,NA
02143,Middlesex County,MA,4.075691411935954,NA,NA
02330,Plymouth County,MA,NA,28.695652173913043,NA
02346,Plymouth County,MA,9.024745269286754,NA,NA
02649,Barnstable County,MA,NA,26.782608695652172,NA
02673,Barnstable County,MA,51.67394468704513,NA,NA
02723,Bristol County,MA,98.39883551673945,NA,NA
02740,Bristol County,MA,34.35225618631732,0.17391304347826086,NA
48034,Oakland County,MI,NA,48.69565217391305,91.56626506024097
48045,Macomb County,MI,72.34352256186317,NA,68.67469879518072
48047,Macomb County,MI,40.46579330422125,NA,NA
48075,Oakland County,MI,30.131004366812224,NA,NA
48081,Macomb County,MI,NA,23.652173913043477,NA
48082,Macomb County,MI,44.97816593886463,NA,NA
48088,Macomb County,MI,NA,NA,15.36144578313253
48089,Macomb County,MI,7.132459970887918,NA,NA
48091,Macomb County,MI,NA,62.08695652173913,NA
48093,Macomb County,MI,49.19941775836973,NA,NA
48126,Wayne County,MI,NA,NA,11.144578313253012
48127,Wayne County,MI,59.82532751091703,NA,NA
48130,Washtenaw County,MI,NA,NA,36.74698795180723
48150,Wayne County,MI,94.61426491994177,NA,NA
48152,Wayne County,MI,NA,5.217391304347826,NA
48161,Monroe County,MI,5.676855895196507,NA,NA
48167,Oakland County,MI,69.14119359534206,NA,NA
48176,Washtenaw County,MI,37.70014556040756,NA,NA
48183,Wayne County,MI,33.04221251819505,NA,NA
48195,Wayne County,MI,24.45414847161572,NA,NA
48209,Wayne County,MI,22.99854439592431,NA,NA
48210,Wayne County,MI,25.76419213973799,NA,NA
48212,Wayne County,MI,8.73362445414847,NA,NA
48213,Wayne County,MI,9.75254730713246,NA,NA
48221,Wayne County,MI,NA,NA,2.4096385542168677
48235,Wayne County,MI,NA,NA,35.8433734939759
48239,Wayne County,MI,7.860262008733625,NA,NA
48304,Oakland County,MI,NA,89.39130434782608,NA
48316,Macomb County,MI,NA,NA,13.855421686746988
48334,Oakland County,MI,52.54730713245998,NA,NA
48342,Oakland County,MI,13.537117903930133,NA,NA
48356,Oakland County,MI,NA,77.56521739130436,NA
48375,Oakland County,MI,99.2721979621543,NA,NA
48382,Oakland County,MI,NA,34.43478260869565,NA
48413,Huron County,MI,77.00145560407569,NA,NA
48423,Genesee County,MI,89.3740902474527,NA,NA
48433,Genesee County,MI,50.36390101892285,NA,NA
48451,Genesee County,MI,NA,68.34782608695652,NA
48473,Genesee County,MI,97.5254730713246,NA,NA
48507,Genesee County,MI,8.58806404657933,NA,NA
48604,Saginaw County,MI,54.58515283842795,NA,NA
48623,Saginaw County,MI,89.95633187772926,NA,NA
48624,Gladwin County,MI,35.80786026200873,NA,NA
48640,Midland County,MI,87.33624454148472,NA,NA
48655,Saginaw County,MI,NA,78.43478260869566,NA
48661,Ogemaw County,MI,NA,49.21739130434782,NA
48723,Tuscola County,MI,NA,79.82608695652173,NA
48838,Montcalm County,MI,30.567685589519648,NA,NA
48858,Isabella County,MI,NA,31.130434782608695,NA
49002,Kalamazoo County,MI,NA,NA,57.831325301204814
49010,Allegan County,MI,40.61135371179039,NA,NA
49013,Van Buren County,MI,83.84279475982532,NA,NA
49022,Berrien County,MI,8.442503639010189,NA,NA
49037,Calhoun County,MI,13.828238719068414,NA,NA
49047,Cass County,MI,NA,28.347826086956523,NA
49071,Van Buren County,MI,69.43231441048034,NA,NA
49203,Jackson County,MI,5.9679767103347885,7.652173913043478,NA
49301,Kent County,MI,NA,60.69565217391304,NA
49321,Kent County,MI,85.44395924308587,NA,NA
49420,Oceana County,MI,NA,90.26086956521739,NA
49424,Ottawa County,MI,14.264919941775837,NA,NA
49505,Kent County,MI,23.144104803493452,NA,NA
49506,Kent County,MI,57.20524017467249,NA,NA
49507,Kent County,MI,3.6390101892285296,NA,NA
49508,Kent County,MI,4.512372634643377,NA,NA
49509,Kent County,MI,NA,47.47826086956522,NA
49534,Kent County,MI,NA,95.65217391304348,NA
49660,Manistee County,MI,NA,56.173913043478265,NA
49707,Alpena County,MI,NA,NA,40.36144578313253
49721,Cheboygan County,MI,NA,NA,30.72289156626506
49735,Otsego County,MI,NA,65.73913043478261,NA
49783,Chippewa County,MI,NA,88.34782608695653,NA
55033,Dakota County,MN,29.257641921397383,NA,NA
55056,Chisago County,MN,77.58369723435226,NA,NA
55113,Ramsey County,MN,44.10480349344978,NA,NA
55344,Hennepin County,MN,NA,99.82608695652175,NA
55369,Hennepin County,MN,65.06550218340611,NA,NA
55401,Hennepin County,MN,NA,83.1304347826087,NA
55411,Hennepin County,MN,16.011644832605533,NA,NA
55413,Hennepin County,MN,39.88355167394469,NA,NA
55418,Hennepin County,MN,27.365356622998544,NA,NA
55425,Hennepin County,MN,72.0524017467249,NA,NA
55431,Hennepin County,MN,91.84861717612809,NA,NA
55439,Hennepin County,MN,NA,87.1304347826087,NA
55447,Hennepin County,MN,72.19796215429403,NA,NA
55810,St. Louis County,MN,NA,73.04347826086956,NA
55987,Winona County,MN,50.21834061135371,NA,NA
56001,Blue Earth County,MN,31.149927219796215,NA,NA
56401,Crow Wing County,MN,NA,4.695652173913043,NA
56431,Aitkin County,MN,NA,NA,82.83132530120481
56482,Wadena County,MN,NA,50.78260869565218,NA
56560,Clay County,MN,NA,NA,0.9036144578313252
38611,Marshall County,MS,61.572052401746724,NA,NA
38829,Prentiss County,MS,NA,NA,50.602409638554214
39069,Jefferson County,MS,78.89374090247453,NA,NA
39180,Warren County,MS,NA,44.52173913043478,NA
39212,Hinds County,MS,NA,55.47826086956522,NA
39365,Neshoba County,MS,77.72925764192141,NA,NA
39402,Lamar County,MS,NA,50.26086956521739,NA
39465,Forrest County,MS,NA,71.47826086956522,NA
39501,Harrison County,MS,18.049490538573508,NA,NA
39503,Harrison County,MS,75.10917030567686,NA,NA
39525,Hancock County,MS,NA,48.347826086956516,NA
39540,Harrison County,MS,NA,55.826086956521735,NA
39553,Jackson County,MS,96.36098981077147,NA,NA
39556,Hancock County,MS,91.99417758369724,NA,NA
39648,Pike County,MS,18.631732168850075,NA,NA
63010,Jefferson County,MO,NA,54.78260869565217,NA
63011,St. Louis County,MO,NA,18.608695652173914,NA
63028,Jefferson County,MO,99.70887918486171,NA,NA
63038,St. Louis County,MO,97.81659388646288,NA,NA
63101,St. Louis city,MO,NA,97.21739130434783,NA
63109,St. Louis city,MO,88.06404657933042,38.608695652173914,48.493975903614455
63118,St. Louis city,MO,64.04657933042213,NA,NA
63123,St. Louis County,MO,NA,NA,80.42168674698796
63129,St. Louis County,MO,NA,NA,57.22891566265061
63368,St. Charles County,MO,NA,NA,11.74698795180723
63376,St. Charles County,MO,NA,NA,4.518072289156627
63383,Warren County,MO,51.96506550218341,40.869565217391305,NA
63628,St. Francois County,MO,62.154294032023294,NA,NA
63664,Washington County,MO,73.65356622998544,NA,59.036144578313255
63670,Ste. Genevieve County,MO,NA,85.04347826086956,NA
63857,Dunklin County,MO,72.34352256186317,NA,NA
63935,Ripley County,MO,NA,NA,66.86746987951807
64012,Cass County,MO,NA,24.869565217391305,NA
64024,Clay County,MO,NA,NA,46.3855421686747
64030,Jackson County,MO,16.448326055312958,NA,NA
64063,Jackson County,MO,NA,NA,71.6867469879518
64109,Jackson County,MO,28.238719068413392,NA,NA
64110,Jackson County,MO,65.93886462882097,35.65217391304348,NA
64113,Jackson County,MO,NA,56.69565217391305,NA
64124,Jackson County,MO,NA,57.04347826086956,NA
64132,Jackson County,MO,63.02765647743813,NA,NA
64133,Jackson County,MO,NA,85.56521739130434,NA
64137,Jackson County,MO,73.5080058224163,NA,NA
64151,Platte County,MO,62.882096069869,NA,NA
64701,Cass County,MO,NA,NA,54.81927710843374
64844,Newton County,MO,NA,98.78260869565217,NA
65026,Miller County,MO,65.3566229985444,NA,NA
65202,Boone County,MO,9.8981077147016,NA,NA
65203,Boone County,MO,NA,11.826086956521738,NA
65536,Laclede County,MO,37.117903930131,NA,NA
65613,Polk County,MO,NA,34.95652173913044,NA
65672,Taney County,MO,NA,NA,93.67469879518072
65714,Christian County,MO,NA,NA,33.433734939759034
65785,Cedar County,MO,98.68995633187772,NA,NA
65804,Greene County,MO,60.698689956331876,NA,NA
59068,Carbon County,MT,93.30422125181951,NA,NA
68107,Douglas County,NE,48.47161572052402,NA,NA
68111,Douglas County,NE,NA,34.08695652173913,NA
68701,Madison County,NE,NA,NA,35.24096385542169
68776,Dakota County,NE,NA,96.34782608695652,NA
69361,Scotts Bluff County,NE,76.27365356622998,NA,NA
89101,Clark County,NV,28.093158660844253,NA,87.65060240963855
89104,Clark County,NV,35.662299854439595,NA,NA
89108,Clark County,NV,NA,66.78260869565219,NA
89115,Clark County,NV,NA,62.26086956521739,NA
89119,Clark County,NV,20.232896652110625,NA,NA
89121,Clark County,NV,27.219796215429405,NA,NA
89122,Clark County,NV,25.61863173216885,NA,NA
89123,Clark County,NV,NA,NA,45.48192771084337
89130,Clark County,NV,52.256186317321685,NA,NA
89149,Clark County,NV,NA,74.43478260869566,90.36144578313254
89183,Clark County,NV,NA,74.60869565217392,NA
89433,Washoe County,NV,NA,52.8695652173913,NA
89434,Washoe County,NV,NA,33.565217391304344,NA
89512,Washoe County,NV,15.138282387190685,NA,NA
89701,Carson City,NV,NA,68.8695652173913,NA
03103,Hillsborough County,NH,42.21251819505095,NA,NA
03110,Hillsborough County,NH,56.62299854439592,NA,NA
03246,Belknap County,NH,NA,NA,14.457831325301203
03431,Cheshire County,NH,NA,NA,26.80722891566265
07003,Essex County,NJ,84.71615720524017,NA,NA
07004,Essex County,NJ,NA,89.56521739130436,NA
07026,Bergen County,NJ,NA,27.652173913043477,NA
07044,Essex County,NJ,NA,NA,74.69879518072288
07052,Essex County,NJ,84.57059679767104,NA,NA
07093,Hudson County,NJ,4.657933042212519,NA,NA
07094,Hudson County,NJ,NA,NA,56.62650602409639
07102,Essex County,NJ,6.259097525473072,NA,NA
07106,Essex County,NJ,NA,60.52173913043478,NA
07107,Essex County,NJ,83.69723435225619,NA,NA
07109,Essex County,NJ,13.100436681222707,NA,NA
07111,Essex County,NJ,NA,8.695652173913043,NA
07205,Union County,NJ,99.12663755458514,NA,NA
07206,Union County,NJ,NA,34.608695652173914,NA
07208,Union County,NJ,12.081513828238718,NA,NA
07305,Hudson County,NJ,0.2911208151382824,NA,NA
07407,Bergen County,NJ,NA,52.52173913043479,NA
07416,Sussex County,NJ,NA,98.95652173913044,NA
07438,Morris County,NJ,NA,75.13043478260869,NA
07461,Sussex County,NJ,68.85007278020379,NA,NA
07514,Passaic County,NJ,29.54876273653566,NA,NA
07670,Bergen County,NJ,NA,NA,55.72289156626506
07719,Monmouth County,NJ,NA,NA,75.30120481927712
07720,Monmouth County,NJ,NA,89.91304347826087,NA
07748,Monmouth County,NJ,NA,53.21739130434783,NA
07753,Monmouth County,NJ,NA,NA,8.433734939759036
07840,Warren County,NJ,NA,NA,99.3975903614458
07860,Sussex County,NJ,NA,92.8695652173913,NA
08015,Burlington County,NJ,NA,NA,65.66265060240963
08021,Camden County,NJ,NA,8,NA
08052,Burlington County,NJ,NA,38.78260869565218,NA
08053,Burlington County,NJ,NA,80.52173913043478,NA
08083,Camden County,NJ,40.02911208151383,64.69565217391305,NA
08087,Ocean County,NJ,17.17612809315866,NA,NA
08091,Camden County,NJ,82.96943231441048,NA,NA
08105,Camden County,NJ,NA,13.217391304347824,NA
08242,Cape May County,NJ,NA,62.78260869565217,NA
08260,Cape May County,NJ,89.08296943231441,NA,NA
08360,Cumberland County,NJ,0.5822416302765648,NA,NA
08401,Atlantic County,NJ,0.1455604075691412,NA,NA
08520,Mercer County,NJ,NA,NA,51.204819277108435
08527,Ocean County,NJ,NA,NA,5.421686746987952
08610,Mercer County,NJ,5.822416302765648,NA,NA
08757,Ocean County,NJ,NA,4,NA
08820,Middlesex County,NJ,NA,25.217391304347824,NA
08857,Middlesex County,NJ,NA,16.695652173913047,NA
08861,Middlesex County,NJ,1.1644832605531297,NA,NA
08865,Warren County,NJ,NA,10.608695652173914,NA
08873,Somerset County,NJ,13.682678311499272,NA,NA
87109,Bernalillo County,NM,NA,15.65217391304348,NA
87410,San Juan County,NM,NA,63.30434782608696,NA
87505,Santa Fe County,NM,NA,49.73913043478261,NA
87571,Taos County,NM,54.43959243085881,NA,NA
88063,Doa Ana County,NM,67.8311499272198,NA,NA
88203,Chaves County,NM,NA,NA,49.6987951807229
88310,Otero County,NM,24.599708879184863,NA,NA
10025,New York County,NY,26.346433770014556,0.8695652173913043,NA
10026,New York County,NY,NA,20.347826086956523,NA
10029,New York County,NY,24.308588064046578,0.34782608695652173,NA
10032,New York County,NY,NA,6.260869565217392,NA
10033,New York County,NY,15.429403202328967,20.17391304347826,NA
10040,New York County,NY,31.732168850072778,NA,NA
10044,New York County,NY,NA,NA,83.73493975903614
10310,Richmond County,NY,NA,67.65217391304348,NA
10314,Richmond County,NY,NA,3.6521739130434785,NA
10453,Bronx County,NY,0.43668122270742354,22.608695652173914,NA
10456,Bronx County,NY,7.714701601164483,NA,2.710843373493976
10459,Bronx County,NY,23.726346433770015,37.04347826086957,NA
10465,Bronx County,NY,NA,36.347826086956516,NA
10467,Bronx County,NY,NA,5.391304347826087,NA
10468,Bronx County,NY,NA,NA,28.614457831325304
10469,Bronx County,NY,16.73944687045124,NA,NA
10512,Putnam County,NY,75.9825327510917,NA,NA
10530,Westchester County,NY,NA,77.21739130434783,NA
10550,Westchester County,NY,25.036390101892287,NA,NA
10589,Westchester County,NY,NA,NA,39.75903614457831
10703,Westchester County,NY,NA,57.7391304347826,46.68674698795181
10801,Westchester County,NY,31.4410480349345,NA,NA
10927,Rockland County,NY,NA,NA,71.3855421686747
10940,Orange County,NY,NA,96,NA
10977,Rockland County,NY,31.004366812227076,NA,NA
10992,Orange County,NY,NA,NA,99.69879518072288
10994,Rockland County,NY,NA,94.78260869565217,NA
11096,Nassau County,NY,NA,88.17391304347825,NA
11104,Queens County,NY,82.6783114992722,NA,NA
11201,Kings County,NY,NA,67.47826086956522,NA
11207,Kings County,NY,NA,10.782608695652174,7.530120481927711
11208,Kings County,NY,0.727802037845706,NA,NA
11211,Kings County,NY,NA,NA,11.44578313253012
11213,Kings County,NY,NA,5.043478260869565,NA
11216,Kings County,NY,9.315866084425037,NA,NA
11218,Kings County,NY,NA,NA,5.120481927710843
11223,Kings County,NY,NA,41.56521739130435,NA
11226,Kings County,NY,19.50509461426492,NA,NA
11229,Kings County,NY,80.64046579330422,NA,NA
11234,Kings County,NY,49.49053857350801,NA,NA
11236,Kings County,NY,68.12227074235808,NA,NA
11237,Kings County,NY,56.04075691411936,NA,NA
11354,Queens County,NY,NA,59.652173913043484,NA
11366,Queens County,NY,86.8995633187773,NA,NA
11368,Queens County,NY,NA,NA,42.77108433734939
11373,Queens County,NY,61.135371179039296,17.391304347826086,NA
11415,Queens County,NY,NA,63.13043478260869,NA
11417,Queens County,NY,NA,NA,65.96385542168674
11423,Queens County,NY,NA,41.391304347826086,NA
11434,Queens County,NY,NA,NA,12.951807228915662
11598,Nassau County,NY,90.82969432314411,NA,NA
11692,Queens County,NY,NA,63.65217391304348,NA
11706,Suffolk County,NY,84.86171761280931,NA,13.253012048192772
11717,Suffolk County,NY,17.612809315866084,NA,NA
11721,Suffolk County,NY,100,NA,NA
11722,Suffolk County,NY,NA,57.21739130434783,NA
11741,Suffolk County,NY,NA,57.913043478260875,NA
11746,Suffolk County,NY,47.74381368267831,NA,NA
11758,Nassau County,NY,NA,35.30434782608695,NA
11762,Nassau County,NY,NA,76.17391304347827,NA
11779,Suffolk County,NY,36.82678311499272,NA,NA
11901,Suffolk County,NY,48.03493449781659,NA,NA
11950,Suffolk County,NY,NA,76.8695652173913,NA
11951,Suffolk County,NY,83.55167394468704,NA,NA
12078,Fulton County,NY,2.6200873362445414,NA,NA
12090,Rensselaer County,NY,NA,NA,66.26506024096386
12110,Albany County,NY,NA,75.65217391304347,NA
12186,Albany County,NY,NA,NA,86.14457831325302
12304,Schenectady County,NY,NA,79.13043478260869,NA
12553,Orange County,NY,NA,NA,100
12564,Dutchess County,NY,91.12081513828238,NA,NA
12601,Dutchess County,NY,NA,71.1304347826087,NA
12771,Orange County,NY,65.79330422125183,NA,NA
12804,Warren County,NY,63.6098981077147,NA,NA
12887,Washington County,NY,66.37554585152839,NA,NA
12972,Clinton County,NY,54.73071324599709,NA,NA
12974,Essex County,NY,96.94323144104804,NA,NA
13057,Onondaga County,NY,NA,51.65217391304348,NA
13203,Onondaga County,NY,NA,NA,65.36144578313254
13207,Onondaga County,NY,29.694323144104807,NA,NA
13317,Montgomery County,NY,88.50072780203784,NA,NA
13357,Herkimer County,NY,34.206695778748184,NA,NA
13617,St. Lawrence County,NY,NA,NA,37.04819277108434
13760,Broome County,NY,NA,NA,1.2048192771084338
13905,Broome County,NY,1.3100436681222707,NA,NA
14020,Genesee County,NY,10.480349344978166,NA,NA
14105,Niagara County,NY,82.09606986899564,93.21739130434783,NA
14120,Niagara County,NY,2.911208151382824,NA,NA
14206,Erie County,NY,NA,25.91304347826087,NA
14210,Erie County,NY,NA,39.82608695652174,NA
14214,Erie County,NY,62.59097525473072,NA,NA
14215,Erie County,NY,NA,6.260869565217392,NA
14225,Erie County,NY,32.45997088791849,NA,NA
14304,Niagara County,NY,3.056768558951965,NA,NA
14411,Orleans County,NY,74.09024745269286,NA,NA
14489,Wayne County,NY,NA,NA,44.87951807228915
14580,Monroe County,NY,28.38427947598253,NA,NA
14604,Monroe County,NY,49.34497816593886,NA,NA
14606,Monroe County,NY,NA,69.21739130434783,NA
14609,Monroe County,NY,NA,0.6956521739130435,NA
14615,Monroe County,NY,NA,60,NA
14621,Monroe County,NY,4.2212518195050945,1.9130434782608694,NA
14623,Monroe County,NY,NA,83.47826086956522,NA
14626,Monroe County,NY,NA,NA,27.710843373493976
14727,Allegany County,NY,NA,71.47826086956522,NA
14760,Cattaraugus County,NY,NA,42.95652173913043,NA
14901,Chemung County,NY,29.112081513828237,NA,NA
27103,Forsyth County,NC,95.19650655021834,NA,NA
27104,Forsyth County,NC,60.55312954876274,NA,NA
27106,Forsyth County,NC,78.16593886462883,NA,NA
27107,Forsyth County,NC,95.34206695778748,NA,NA
27205,Randolph County,NC,NA,24.347826086956523,NA
27253,Alamance County,NC,90.53857350800583,NA,NA
27278,Orange County,NC,21.688500727802037,NA,NA
27292,Davidson County,NC,NA,13.043478260869565,NA
27298,Randolph County,NC,NA,60.86956521739131,NA
27302,Alamance County,NC,NA,13.73913043478261,NA
27502,Wake County,NC,NA,66.43478260869566,NA
27516,Orange County,NC,29.985443959243085,85.3913043478261,NA
27525,Franklin County,NC,55.74963609898108,NA,NA
27527,Johnston County,NC,NA,NA,93.97590361445783
27529,Wake County,NC,NA,NA,97.59036144578313
27549,Franklin County,NC,22.12518195050946,NA,NA
27573,Person County,NC,NA,NA,47.89156626506024
27577,Johnston County,NC,41.193595342066956,NA,NA
27610,Wake County,NC,5.240174672489083,NA,NA
27613,Wake County,NC,NA,77.73913043478261,NA
27615,Wake County,NC,NA,58.78260869565217,NA
27803,Nash County,NC,NA,69.3913043478261,NA
27834,Pitt County,NC,4.9490538573508,16,NA
27870,Halifax County,NC,22.416302765647742,NA,NA
27871,Martin County,NC,NA,NA,98.19277108433735
27893,Wilson County,NC,13.973799126637553,NA,63.85542168674698
27909,Pasquotank County,NC,38.719068413391554,NA,NA
28001,Stanly County,NC,NA,80.69565217391305,NA
28025,Cabarrus County,NC,NA,93.91304347826087,NA
28027,Cabarrus County,NC,NA,6.782608695652175,NA
28054,Gaston County,NC,NA,NA,94.27710843373494
28081,Cabarrus County,NC,21.542940320232898,NA,NA
28083,Cabarrus County,NC,98.98107714701602,NA,NA
28105,Mecklenburg County,NC,NA,72.34782608695653,NA
28110,Union County,NC,NA,17.217391304347824,NA
28115,Iredell County,NC,20.52401746724891,NA,NA
28124,Cabarrus County,NC,NA,NA,91.26506024096386
28144,Rowan County,NC,NA,29.91304347826087,NA
28152,Cleveland County,NC,34.93449781659388,NA,NA
28160,Rutherford County,NC,88.93740902474528,NA,NA
28277,Mecklenburg County,NC,NA,19.652173913043477,NA
28301,Cumberland County,NC,35.37117903930131,NA,NA
28303,Cumberland County,NC,52.9839883551674,NA,NA
28364,Robeson County,NC,97.37991266375546,NA,NA
28405,New Hanover County,NC,NA,29.565217391304348,NA
28409,New Hanover County,NC,NA,17.739130434782606,NA
28425,Pender County,NC,NA,NA,72.28915662650603
28467,Brunswick County,NC,96.21542940320232,NA,NA
28530,Pitt County,NC,NA,75.65217391304347,NA
28557,Carteret County,NC,NA,NA,97.28915662650603
28602,Catawba County,NC,52.256186317321685,NA,NA
28630,Caldwell County,NC,82.38719068413391,NA,NA
28650,Catawba County,NC,NA,NA,90.66265060240963
28675,Alleghany County,NC,77.87481804949053,NA,NA
28723,Jackson County,NC,NA,91.13043478260869,NA
28726,Henderson County,NC,98.2532751091703,NA,NA
28731,Henderson County,NC,NA,46.26086956521739,NA
28752,McDowell County,NC,NA,14.43478260869565,NA
28787,Buncombe County,NC,64.3377001455604,NA,NA
28791,Henderson County,NC,NA,27.47826086956522,NA
28806,Buncombe County,NC,NA,39.30434782608695,NA
58072,Barnes County,ND,NA,NA,63.55421686746988
58103,Cass County,ND,NA,2.2608695652173916,NA
58601,Stark County,ND,NA,59.30434782608695,NA
43204,Franklin County,OH,25.327510917030565,NA,NA
43207,Franklin County,OH,48.180494905385736,NA,NA
43219,Franklin County,OH,NA,84,NA
43223,Franklin County,OH,NA,91.82608695652173,NA
43232,Franklin County,OH,2.3289665211062593,NA,NA
43311,Logan County,OH,NA,NA,75.6024096385542
43526,Defiance County,OH,NA,NA,83.43373493975903
43604,Lucas County,OH,NA,NA,85.8433734939759
43605,Lucas County,OH,NA,51.82608695652174,NA
43701,Muskingum County,OH,NA,0.5217391304347827,NA
43713,Belmont County,OH,59.09752547307132,NA,NA
43906,Belmont County,OH,44.54148471615721,NA,NA
43920,Columbiana County,OH,8.151382823871907,NA,NA
43968,Columbiana County,OH,47.30713245997089,NA,NA
44023,Geauga County,OH,NA,68.69565217391305,NA
44026,Geauga County,OH,NA,NA,88.25301204819277
44030,Ashtabula County,OH,NA,94.26086956521739,NA
44035,Lorain County,OH,0,NA,0.30120481927710846
44052,Lorain County,OH,31.877729257641924,NA,NA
44054,Lorain County,OH,NA,88.8695652173913,NA
44062,Geauga County,OH,NA,NA,85.54216867469879
44067,Summit County,OH,NA,19.130434782608695,NA
44094,Lake County,OH,NA,4.173913043478262,NA
44103,Cuyahoga County,OH,NA,41.73913043478261,NA
44104,Cuyahoga County,OH,NA,20.52173913043478,NA
44108,Cuyahoga County,OH,NA,29.217391304347828,12.650602409638553
44112,Cuyahoga County,OH,6.986899563318777,NA,NA
44122,Cuyahoga County,OH,22.852983988355167,NA,NA
44125,Cuyahoga County,OH,NA,9.565217391304348,NA
44134,Cuyahoga County,OH,NA,1.7391304347826086,NA
44135,Cuyahoga County,OH,33.18777292576419,NA,NA
44136,Cuyahoga County,OH,NA,8.347826086956523,NA
44142,Cuyahoga County,OH,NA,NA,12.048192771084338
44146,Cuyahoga County,OH,NA,15.82608695652174,NA
44224,Summit County,OH,NA,NA,7.83132530120482
44312,Summit County,OH,12.809315866084425,NA,NA
44405,Mahoning County,OH,NA,57.565217391304344,NA
44444,Trumbull County,OH,91.70305676855895,NA,NA
44481,Trumbull County,OH,NA,33.39130434782609,88.85542168674698
44514,Mahoning County,OH,NA,NA,15.060240963855422
44601,Stark County,OH,NA,96.86956521739131,NA
44703,Stark County,OH,47.88937409024746,NA,NA
44820,Crawford County,OH,NA,12,NA
45005,Warren County,OH,50.80058224163027,18.086956521739133,NA
45011,Butler County,OH,1.7467248908296942,NA,NA
45013,Butler County,OH,71.61572052401746,NA,NA
45014,Butler County,OH,13.39155749636099,NA,NA
45039,Warren County,OH,74.67248908296943,NA,NA
45069,Butler County,OH,NA,18.956521739130437,NA
45120,Clermont County,OH,94.90538573508006,NA,NA
45140,Clermont County,OH,55.31295487627366,NA,NA
45154,Brown County,OH,NA,78.78260869565217,NA
45220,Hamilton County,OH,NA,NA,81.62650602409639
45231,Hamilton County,OH,6.841339155749636,NA,NA
45233,Hamilton County,OH,NA,NA,31.32530120481928
45239,Hamilton County,OH,NA,31.82608695652174,NA
45244,Hamilton County,OH,48.90829694323144,NA,NA
45342,Montgomery County,OH,NA,NA,16.265060240963855
45345,Montgomery County,OH,NA,91.30434782608695,NA
45356,Miami County,OH,12.518195050946144,NA,NA
45365,Shelby County,OH,NA,NA,18.072289156626507
45502,Clark County,OH,NA,51.30434782608696,NA
45505,Clark County,OH,61.71761280931587,NA,NA
45662,Scioto County,OH,32.751091703056765,NA,3.313253012048193
45764,Athens County,OH,NA,NA,86.44578313253012
45804,Allen County,OH,NA,NA,51.50602409638554
73005,Caddo County,OK,NA,74.95652173913044,NA
73008,Oklahoma County,OK,NA,51.47826086956522,NA
73044,Logan County,OK,NA,14.782608695652174,NA
73071,Cleveland County,OK,54.87627365356623,NA,NA
73072,Cleveland County,OK,27.510917030567683,NA,NA
73080,McClain County,OK,89.51965065502183,NA,NA
73150,Oklahoma County,OK,NA,71.82608695652173,NA
73159,Oklahoma County,OK,NA,26.08695652173913,NA
73170,Cleveland County,OK,NA,NA,54.21686746987952
73501,Comanche County,OK,55.021834061135365,NA,NA
73507,Comanche County,OK,41.630276564774384,NA,NA
73701,Garfield County,OK,NA,60.17391304347826,NA
74006,Washington County,OK,NA,NA,23.19277108433735
74014,Wagoner County,OK,NA,80.17391304347827,NA
74036,Rogers County,OK,85.58951965065502,NA,NA
74059,Payne County,OK,NA,90.95652173913044,NA
74063,Tulsa County,OK,NA,NA,43.674698795180724
74110,Tulsa County,OK,NA,70.43478260869566,NA
74112,Tulsa County,OK,78.31149927219796,NA,NA
74464,Cherokee County,OK,NA,19.82608695652174,NA
74728,McCurtain County,OK,NA,NA,89.45783132530121
74820,Pontotoc County,OK,7.278020378457059,NA,NA
74959,Le Flore County,OK,NA,NA,88.55421686746988
74965,Adair County,OK,83.26055312954877,NA,NA
97013,Clackamas County,OR,58.515283842794766,NA,NA
97015,Clackamas County,OR,NA,62.43478260869565,NA
97045,Clackamas County,OR,NA,12,NA
97048,Columbia County,OR,NA,85.91304347826086,NA
97071,Marion County,OR,NA,NA,78.3132530120482
97132,Yamhill County,OR,NA,27.652173913043477,NA
97211,Multnomah County,OR,40.90247452692867,NA,NA
97212,Multnomah County,OR,81.95050946142649,NA,NA
97230,Multnomah County,OR,NA,NA,10.843373493975903
97301,Marion County,OR,59.67976710334789,NA,NA
97321,Linn County,OR,NA,94.43478260869566,NA
97355,Linn County,OR,79.91266375545851,NA,NA
97402,Lane County,OR,19.068413391557495,NA,34.63855421686747
97477,Lane County,OR,24.017467248908297,NA,NA
97502,Jackson County,OR,36.3901018922853,NA,NA
97527,Josephine County,OR,41.3391557496361,NA,NA
15037,Allegheny County,PA,NA,NA,61.44578313253012
15132,Allegheny County,PA,NA,23.47826086956522,NA
15137,Allegheny County,PA,NA,NA,58.734939759036145
15147,Allegheny County,PA,64.77438136826783,NA,NA
15205,Allegheny County,PA,82.53275109170306,NA,NA
15210,Allegheny County,PA,NA,38.26086956521739,NA
15211,Allegheny County,PA,93.44978165938865,91.47826086956522,NA
15213,Allegheny County,PA,94.03202328966522,NA,NA
15219,Allegheny County,PA,NA,NA,34.036144578313255
15235,Allegheny County,PA,NA,16.869565217391305,NA
15241,Allegheny County,PA,72.7802037845706,NA,NA
15301,Washington County,PA,NA,4.869565217391305,NA
15317,Washington County,PA,NA,9.043478260869566,NA
15557,Somerset County,PA,96.65211062590974,NA,NA
15601,Westmoreland County,PA,NA,1.2173913043478262,NA
15613,Westmoreland County,PA,NA,NA,25.301204819277107
15656,Westmoreland County,PA,NA,NA,67.46987951807229
15683,Westmoreland County,PA,75.254730713246,NA,NA
15851,Jefferson County,PA,NA,NA,20.783132530120483
15901,Cambria County,PA,NA,NA,75.90361445783132
16053,Butler County,PA,NA,NA,62.65060240963856
16101,Lawrence County,PA,92.86754002911208,6.086956521739131,NA
16125,Mercer County,PA,NA,NA,34.33734939759036
16127,Mercer County,PA,NA,NA,16.566265060240966
16137,Mercer County,PA,NA,NA,38.855421686746986
16150,Mercer County,PA,67.24890829694323,NA,NA
16201,Armstrong County,PA,NA,11.304347826086957,NA
16301,Venango County,PA,NA,38.95652173913044,NA
16354,Crawford County,PA,NA,NA,96.3855421686747
16365,Warren County,PA,78.74818049490538,NA,NA
16509,Erie County,PA,32.02328966521107,NA,NA
16510,Erie County,PA,NA,93.56521739130434,NA
17015,Cumberland County,PA,81.51382823871907,NA,NA
17042,Lebanon County,PA,3.2023289665211063,NA,NA
17046,Lebanon County,PA,53.275109170305676,NA,NA
17078,Lebanon County,PA,45.99708879184862,NA,78.3132530120482
17104,Dauphin County,PA,NA,35.47826086956521,NA
17222,Franklin County,PA,NA,NA,29.518072289156628
17340,Adams County,PA,NA,45.04347826086956,NA
17404,York County,PA,NA,14.08695652173913,NA
17701,Lycoming County,PA,2.7656477438136826,NA,26.20481927710843
17756,Lycoming County,PA,NA,NA,73.79518072289156
17824,Northumberland County,PA,NA,NA,81.32530120481928
18040,Northampton County,PA,NA,39.82608695652174,NA
18042,Northampton County,PA,3.9301310043668125,NA,NA
18102,Lehigh County,PA,NA,5.913043478260869,NA
18249,Luzerne County,PA,92.28529839883551,NA,NA
18255,Carbon County,PA,NA,64.34782608695652,NA
18407,Lackawanna County,PA,43.66812227074236,NA,NA
18426,Pike County,PA,NA,NA,98.79518072289156
18503,Lackawanna County,PA,NA,93.73913043478261,NA
18508,Lackawanna County,PA,NA,69.73913043478261,NA
18509,Lackawanna County,PA,NA,58.26086956521739,NA
18702,Luzerne County,PA,70.01455604075691,NA,5.72289156626506
18960,Bucks County,PA,NA,55.130434782608695,NA
19018,Delaware County,PA,26.92867540029112,NA,NA
19020,Bucks County,PA,NA,9.043478260869566,NA
19036,Delaware County,PA,NA,86.78260869565217,NA
19038,Montgomery County,PA,NA,24.173913043478258,NA
19050,Delaware County,PA,NA,92.34782608695652,70.48192771084338
19053,Bucks County,PA,NA,31.30434782608696,NA
19056,Bucks County,PA,75.40029112081513,NA,NA
19076,Delaware County,PA,NA,78.26086956521739,NA
19082,Delaware County,PA,9.461426491994178,NA,NA
19104,Philadelphia County,PA,NA,NA,76.80722891566265
19116,Philadelphia County,PA,NA,44.69565217391304,NA
19120,Philadelphia County,PA,NA,30.782608695652176,NA
19121,Philadelphia County,PA,51.2372634643377,NA,NA
19124,Philadelphia County,PA,0.8733624454148471,11.130434782608695,NA
19126,Philadelphia County,PA,32.60553129548763,NA,NA
19131,Philadelphia County,PA,42.64919941775837,2.608695652173913,NA
19134,Philadelphia County,PA,16.302765647743815,NA,NA
19135,Philadelphia County,PA,14.119359534206696,NA,NA
19141,Philadelphia County,PA,6.550218340611353,NA,NA
19143,Philadelphia County,PA,NA,1.0434782608695654,NA
19147,Philadelphia County,PA,17.03056768558952,NA,NA
19148,Philadelphia County,PA,7.423580786026202,NA,NA
19425,Chester County,PA,90.97525473071325,NA,NA
19428,Montgomery County,PA,43.23144104803494,NA,NA
19464,Montgomery County,PA,NA,5.565217391304348,NA
19512,Berks County,PA,NA,46.78260869565217,NA
19601,Berks County,PA,NA,NA,37.65060240963856
19607,Berks County,PA,NA,20.869565217391305,NA
19608,Berks County,PA,NA,NA,71.98795180722891
02816,Kent County,RI,NA,15.130434782608695,NA
02904,Providence County,RI,NA,20,NA
02909,Providence County,RI,48.180494905385736,NA,NA
02915,Providence County,RI,NA,50.08695652173913,NA
02920,Providence County,RI,NA,17.565217391304348,NA
29010,Lee County,SC,71.76128093158661,NA,NA
29072,Lexington County,SC,NA,NA,22.590361445783135
29102,Clarendon County,SC,85.00727802037845,NA,NA
29180,Fairfield County,SC,77.14701601164484,NA,NA
29209,Richland County,SC,NA,45.21739130434783,NA
29223,Richland County,SC,23.28966521106259,NA,38.55421686746988
29414,Charleston County,SC,98.54439592430859,NA,NA
29436,Berkeley County,SC,NA,95.30434782608695,NA
29440,Georgetown County,SC,NA,NA,21.385542168674696
29472,Dorchester County,SC,89.8107714701601,NA,NA
29488,Colleton County,SC,NA,33.73913043478261,NA
29510,Georgetown County,SC,NA,76.52173913043478,NA
29527,Horry County,SC,46.724890829694324,NA,NA
29550,Darlington County,SC,NA,21.913043478260867,NA
29572,Horry County,SC,NA,NA,98.49397590361446
29583,Florence County,SC,NA,83.82608695652173,NA
29611,Greenville County,SC,NA,59.47826086956521,NA
29654,Anderson County,SC,NA,NA,66.56626506024097
29681,Greenville County,SC,NA,15.304347826086955,NA
29707,Lancaster County,SC,74.67248908296943,NA,NA
29710,York County,SC,NA,NA,40.66265060240964
29728,Chesterfield County,SC,NA,82.08695652173913,NA
29730,York County,SC,91.55749636098982,NA,NA
29801,Aiken County,SC,NA,43.47826086956522,NA
29928,Beaufort County,SC,NA,99.30434782608695,NA
57103,Minnehaha County,SD,NA,3.130434782608696,NA
57301,Davison County,SD,NA,NA,17.771084337349397
57701,Pennington County,SD,48.617176128093156,NA,NA
57702,Pennington County,SD,57.78748180494906,NA,NA
37040,Montgomery County,TN,NA,30.60869565217391,NA
37073,Robertson County,TN,NA,64.17391304347827,NA
37075,Sumner County,TN,NA,NA,56.325301204819276
37110,Warren County,TN,15.283842794759824,NA,NA
37167,Rutherford County,TN,NA,24.52173913043478,NA
37303,McMinn County,TN,NA,39.65217391304348,NA
37363,Hamilton County,TN,69.86899563318777,NA,NA
37397,Marion County,TN,80.05822416302766,NA,NA
37421,Hamilton County,TN,27.510917030567683,NA,19.27710843373494
37604,Washington County,TN,18.340611353711793,NA,NA
37617,Sullivan County,TN,71.03347889374089,NA,NA
37664,Sullivan County,TN,20.087336244541483,NA,NA
37774,Loudon County,TN,42.503639010189225,NA,NA
37814,Hamblen County,TN,30.42212518195051,NA,NA
37830,Anderson County,TN,NA,NA,29.819277108433734
37841,Scott County,TN,NA,76.34782608695653,NA
37854,Roane County,TN,55.895196506550214,NA,NA
37860,Hamblen County,TN,NA,97.04347826086956,NA
37890,Jefferson County,TN,69.72343522561863,NA,NA
37912,Knox County,TN,28.966521106259098,NA,NA
38012,Haywood County,TN,75.83697234352256,NA,NA
38024,Dyer County,TN,24.745269286754006,NA,NA
38040,Lauderdale County,TN,94.46870451237264,NA,NA
38109,Shelby County,TN,NA,NA,21.686746987951807
38114,Shelby County,TN,22.270742358078603,NA,NA
38120,Shelby County,TN,NA,NA,62.34939759036144
38506,Putnam County,TN,70.59679767103349,21.565217391304348,NA
38574,Putnam County,TN,99.41775836972343,NA,NA
38583,White County,TN,25.76419213973799,NA,NA
75023,Collin County,TX,NA,34.78260869565217,NA
75032,Rockwall County,TX,NA,45.73913043478261,NA
75050,Dallas County,TX,39.737991266375545,NA,NA
75052,Dallas County,TX,46.57933042212518,NA,NA
75070,Collin County,TX,NA,11.478260869565217,NA
75071,Collin County,TX,60.11644832605532,NA,NA
75074,Collin County,TX,NA,NA,93.07228915662651
75075,Collin County,TX,NA,31.65217391304348,NA
75082,Collin County,TX,73.07132459970887,NA,NA
75093,Collin County,TX,95.77874818049492,NA,NA
75098,Collin County,TX,NA,63.65217391304348,NA
75103,Van Zandt County,TX,77.43813682678311,NA,NA
75115,Dallas County,TX,21.97962154294032,86.60869565217392,55.42168674698795
75149,Dallas County,TX,17.46724890829694,28.000000000000004,NA
75150,Dallas County,TX,92.57641921397381,NA,33.734939759036145
75165,Ellis County,TX,27.802037845705968,NA,NA
75181,Dallas County,TX,NA,70.08695652173913,NA
75201,Dallas County,TX,75.54585152838428,NA,NA
75216,Dallas County,TX,NA,36.869565217391305,NA
75227,Dallas County,TX,NA,NA,61.14457831325302
75228,Dallas County,TX,59.53420669577875,NA,NA
75241,Dallas County,TX,22.561863173216885,NA,NA
75455,Titus County,TX,NA,94.95652173913044,NA
75462,Lamar County,TX,NA,NA,78.01204819277109
75474,Hunt County,TX,60.4075691411936,NA,NA
75604,Gregg County,TX,37.409024745269285,NA,NA
75633,Panola County,TX,74.5269286754003,NA,NA
75638,Morris County,TX,NA,97.91304347826087,NA
75647,Gregg County,TX,NA,65.21739130434783,NA
75961,Nacogdoches County,TX,NA,68,NA
76031,Johnson County,TX,NA,NA,68.07228915662651
76088,Parker County,TX,NA,NA,81.92771084337349
76104,Tarrant County,TX,NA,81.3913043478261,NA
76119,Tarrant County,TX,6.11353711790393,8.17391304347826,NA
76120,Tarrant County,TX,48.7627365356623,NA,NA
76134,Tarrant County,TX,96.06986899563319,NA,NA
76140,Tarrant County,TX,NA,40.69565217391305,NA
76179,Tarrant County,TX,NA,31.478260869565215,NA
76230,Montague County,TX,NA,85.73913043478261,NA
76240,Cooke County,TX,NA,NA,45.78313253012048
76302,Wichita County,TX,NA,66.95652173913044,NA
76424,Stephens County,TX,68.26783114992722,NA,NA
76528,Coryell County,TX,99.56331877729258,NA,NA
76548,Bell County,TX,73.07132459970887,NA,NA
76901,Tom Green County,TX,76.12809315866085,NA,NA
76904,Tom Green County,TX,81.07714701601164,NA,NA
77009,Harris County,TX,NA,NA,56.024096385542165
77015,Harris County,TX,NA,42.26086956521739,NA
77020,Harris County,TX,57.933042212518195,NA,NA
77023,Harris County,TX,58.951965065502186,NA,NA
77029,Harris County,TX,NA,NA,77.40963855421687
77045,Harris County,TX,NA,NA,79.21686746987952
77058,Harris County,TX,NA,73.91304347826086,NA
77064,Harris County,TX,34.643377001455605,NA,NA
77074,Harris County,TX,NA,NA,72.59036144578313
77075,Harris County,TX,47.45269286754003,NA,NA
77084,Harris County,TX,10.625909752547306,NA,NA
77088,Harris County,TX,76.85589519650655,NA,NA
77090,Harris County,TX,NA,50.60869565217392,NA
77302,Montgomery County,TX,90.39301310043668,NA,NA
77346,Harris County,TX,NA,NA,73.19277108433735
77380,Montgomery County,TX,NA,NA,87.34939759036145
77429,Harris County,TX,10.189228529839884,NA,NA
77469,Fort Bend County,TX,NA,33.04347826086956,NA
77478,Fort Bend County,TX,NA,NA,42.168674698795186
77486,Brazoria County,TX,NA,NA,84.33734939759037
77506,Harris County,TX,NA,63.47826086956522,NA
77536,Harris County,TX,36.098981077147016,66.6086956521739,NA
77541,Brazoria County,TX,NA,50.43478260869565,NA
77554,Galveston County,TX,NA,42.434782608695656,NA
77573,Galveston County,TX,NA,4.3478260869565215,NA
77581,Brazoria County,TX,NA,NA,62.951807228915655
77590,Galveston County,TX,11.499272197962155,14.26086956521739,NA
78028,Kerr County,TX,NA,16.17391304347826,NA
78046,Webb County,TX,NA,25.565217391304344,NA
78064,Atascosa County,TX,NA,89.21739130434783,NA
78155,Guadalupe County,TX,NA,28.52173913043478,NA
78207,Bexar County,TX,81.80494905385734,NA,NA
78210,Bexar County,TX,NA,47.130434782608695,NA
78223,Bexar County,TX,17.903930131004365,NA,NA
78233,Bexar County,TX,38.57350800582242,NA,NA
78332,Jim Wells County,TX,81.36826783114994,NA,NA
78363,Kleberg County,TX,NA,NA,58.13253012048193
78410,Nueces County,TX,NA,NA,83.13253012048193
78411,Nueces County,TX,NA,61.04347826086956,NA
78413,Nueces County,TX,NA,65.39130434782608,NA
78501,Hidalgo County,TX,NA,NA,9.33734939759036
78503,Hidalgo County,TX,NA,NA,87.95180722891565
78516,Hidalgo County,TX,NA,84.17391304347827,47.28915662650602
78520,Cameron County,TX,NA,NA,53.31325301204819
78537,Hidalgo County,TX,NA,36.69565217391305,NA
78542,Hidalgo County,TX,NA,NA,41.566265060240966
78550,Cameron County,TX,39.5924308588064,91.65217391304348,NA
78574,Hidalgo County,TX,83.4061135371179,NA,NA
78577,Hidalgo County,TX,NA,NA,9.036144578313253
78621,Bastrop County,TX,66.52110625909754,NA,NA
78639,Llano County,TX,NA,NA,25.903614457831324
78702,Travis County,TX,NA,69.04347826086956,NA
78749,Travis County,TX,NA,NA,95.48192771084338
78852,Maverick County,TX,NA,NA,93.37349397590361
78945,Fayette County,TX,NA,NA,69.27710843373494
79102,Potter County,TX,NA,86.43478260869564,NA
79119,Randall County,TX,NA,97.73913043478261,NA
79336,Hockley County,TX,67.97671033478893,NA,NA
79413,Lubbock County,TX,NA,NA,26.506024096385545
79602,Taylor County,TX,79.62154294032024,NA,NA
79706,Midland County,TX,NA,57.391304347826086,NA
79756,Ward County,TX,NA,NA,62.048192771084345
79902,El Paso County,TX,NA,NA,77.10843373493977
79904,El Paso County,TX,NA,52.347826086956516,NA
79924,El Paso County,TX,40.32023289665211,NA,NA
79925,El Paso County,TX,NA,46.95652173913044,NA
84003,Utah County,UT,NA,NA,60.24096385542169
84065,Salt Lake County,UT,NA,NA,61.74698795180723
84092,Salt Lake County,UT,NA,NA,65.06024096385542
84106,Salt Lake County,UT,NA,NA,18.67469879518072
84119,Salt Lake County,UT,NA,NA,30.120481927710845
84120,Salt Lake County,UT,6.259097525473072,NA,NA
84123,Salt Lake County,UT,NA,65.04347826086956,NA
84335,Cache County,UT,NA,92.52173913043478,NA
84405,Weber County,UT,NA,54.086956521739125,NA
84601,Utah County,UT,NA,78.6086956521739,NA
84701,Sevier County,UT,NA,92,NA
05403,Chittenden County,VT,NA,88,NA
05641,Washington County,VT,93.88646288209607,NA,NA
20136,Prince William County,VA,NA,81.04347826086956,NA
20147,Loudoun County,VA,NA,NA,10.240963855421686
20148,Loudoun County,VA,NA,83.30434782608695,NA
20175,Loudoun County,VA,NA,99.47826086956522,NA
20186,Fauquier County,VA,NA,NA,60.54216867469879
22026,Prince William County,VA,61.863173216885,NA,NA
22033,Fairfax County,VA,NA,54.608695652173914,NA
22191,Prince William County,VA,NA,28.8695652173913,NA
22308,Fairfax County,VA,NA,NA,48.19277108433735
22314,Alexandria city,VA,NA,45.91304347826087,NA
22405,Stafford County,VA,56.477438136826784,NA,NA
22611,Clarke County,VA,NA,84.34782608695653,NA
22815,Rockingham County,VA,49.63609898107715,NA,NA
22853,Rockingham County,VA,NA,79.47826086956522,NA
22903,Charlottesville city,VA,NA,20.695652173913043,NA
23111,Hanover County,VA,76.41921397379913,NA,NA
23185,James City County,VA,NA,2.9565217391304346,NA
23234,Chesterfield County,VA,18.19505094614265,NA,NA
23236,Chesterfield County,VA,NA,42.608695652173914,NA
23320,Chesapeake city,VA,27.074235807860266,NA,NA
23322,Chesapeake city,VA,51.382823871906844,NA,NA
23451,Virginia Beach city,VA,36.53566229985444,NA,NA
23462,Virginia Beach city,VA,NA,10.434782608695652,NA
23504,Norfolk city,VA,NA,49.56521739130435,NA
23518,Norfolk city,VA,39.30131004366812,NA,NA
23601,Newport News city,VA,57.35080058224163,NA,NA
23602,Newport News city,VA,28.82096069868996,NA,NA
23607,Newport News city,VA,NA,68.52173913043478,NA
24017,Roanoke city,VA,24.890829694323145,NA,NA
24018,Roanoke County,VA,NA,28.8695652173913,NA
24141,Radford city,VA,70.3056768558952,NA,NA
24151,Franklin County,VA,42.066957787481805,NA,NA
24179,Roanoke County,VA,NA,41.91304347826087,NA
24201,Bristol city,VA,NA,NA,37.34939759036144
24210,Washington County,VA,NA,NA,36.144578313253014
24333,Galax city,VA,NA,75.30434782608695,NA
24340,Washington County,VA,NA,NA,82.53012048192771
24426,Alleghany County,VA,43.522561863173216,NA,NA
24523,Bedford County,VA,NA,66.08695652173913,28.313253012048197
24531,Pittsylvania County,VA,NA,74.26086956521739,NA
24541,Danville city,VA,NA,NA,67.7710843373494
24590,Albemarle County,VA,NA,NA,79.51807228915662
98011,King County,WA,58.806404657933044,NA,NA
98021,Snohomish County,WA,53.12954876273653,NA,NA
98032,King County,WA,40.174672489082965,NA,NA
98042,King County,WA,15.866084425036389,NA,NA
98043,Snohomish County,WA,NA,NA,57.53012048192772
98045,King County,WA,NA,74.60869565217392,NA
98075,King County,WA,NA,67.13043478260869,NA
98087,Snohomish County,WA,NA,46.08695652173913,NA
98104,King County,WA,NA,36,NA
98110,Kitsap County,WA,98.10771470160117,NA,NA
98118,King County,WA,NA,33.04347826086956,NA
98188,King County,WA,NA,50.95652173913044,NA
98199,King County,WA,NA,NA,94.57831325301204
98208,Snohomish County,WA,NA,26.43478260869565,NA
98273,Skagit County,WA,NA,16.17391304347826,NA
98274,Skagit County,WA,NA,NA,25
98520,Grays Harbor County,WA,NA,NA,49.39759036144578
98626,Cowlitz County,WA,NA,NA,41.86746987951807
98642,Clark County,WA,NA,77.39130434782608,NA
98682,Clark County,WA,NA,NA,28.012048192771083
98826,Chelan County,WA,NA,93.3913043478261,NA
99206,Spokane County,WA,42.94032023289665,NA,NA
99301,Franklin County,WA,34.49781659388647,NA,NA
99337,Benton County,WA,NA,NA,53.6144578313253
99354,Benton County,WA,NA,NA,50.30120481927711
20002,District of Columbia,DC,3.7845705967976713,NA,NA
20011,District of Columbia,DC,7.423580786026202,NA,NA
20019,District of Columbia,DC,NA,56.869565217391305,NA
20032,District of Columbia,DC,NA,21.391304347826086,NA
20037,District of Columbia,DC,NA,NA,77.71084337349397
25276,Roane County,WV,50.65502183406113,NA,NA
25880,Raleigh County,WV,88.64628820960698,NA,NA
25901,Fayette County,WV,NA,NA,78.91566265060241
26037,Brooke County,WV,NA,NA,87.04819277108435
26164,Jackson County,WV,NA,NA,64.1566265060241
26187,Wood County,WV,65.50218340611353,NA,NA
26241,Randolph County,WV,30.27656477438137,NA,NA
26330,Harrison County,WV,72.92576419213974,NA,NA
26508,Monongalia County,WV,3.4934497816593884,NA,NA
26554,Marion County,WV,NA,1.391304347826087,3.0120481927710845
53050,Dodge County,WI,NA,99.65217391304347,NA
53098,Dodge County,WI,62.00873362445415,NA,NA
53132,Milwaukee County,WI,NA,NA,10.542168674698797
53144,Kenosha County,WI,15.574963609898107,NA,NA
53149,Waukesha County,WI,NA,NA,56.92771084337349
53154,Milwaukee County,WI,NA,12.347826086956522,27.40963855421687
53158,Kenosha County,WI,19.941775836972344,NA,NA
53205,Milwaukee County,WI,2.037845705967977,NA,NA
53208,Milwaukee County,WI,67.68558951965066,NA,NA
53209,Milwaukee County,WI,1.8922852983988356,NA,NA
53215,Milwaukee County,WI,38.13682678311499,3.304347826086956,NA
53219,Milwaukee County,WI,64.91994177583697,NA,NA
53220,Milwaukee County,WI,NA,84.52173913043478,NA
53223,Milwaukee County,WI,NA,11.652173913043478,NA
53405,Racine County,WI,NA,NA,39.45783132530121
53532,Dane County,WI,NA,NA,73.79518072289156
53536,Rock County,WI,84.4250363901019,NA,NA
53545,Rock County,WI,33.9155749636099,NA,NA
53548,Rock County,WI,95.0509461426492,24.695652173913043,59.337349397590366
53590,Dane County,WI,NA,37.913043478260875,NA
53597,Dane County,WI,57.64192139737992,NA,NA
53705,Dane County,WI,98.83551673944687,NA,NA
53713,Dane County,WI,84.27947598253274,NA,NA
53719,Dane County,WI,53.42066957787481,NA,NA
54235,Door County,WI,NA,24,NA
54241,Manitowoc County,WI,60.698689956331876,61.73913043478261,NA
54311,Brown County,WI,NA,72.69565217391303,NA
54494,Wood County,WI,NA,95.1304347826087,NA
54660,Monroe County,WI,NA,44,NA
54703,Eau Claire County,WI,20.66957787481805,NA,NA
54868,Barron County,WI,NA,NA,25.602409638554217
54982,Waushara County,WI,86.02620087336244,NA,NA
