ZipCode,county,state,Youth,Adult,Retirement,Geriatric
35124,Shelby County,AL,NA,69.1437802907916,NA,NA
35180,Jefferson County,AL,NA,NA,68.05054151624549,NA
35592,Lamar County,AL,NA,NA,NA,91.4691943127962
35601,Morgan County,AL,NA,13.893376413570275,NA,NA
35654,Franklin County,AL,98.07073954983923,NA,NA,NA
35801,Madison County,AL,NA,73.99030694668821,NA,NA
36027,Barbour County,AL,NA,NA,59.38628158844765,NA
36877,Lee County,AL,NA,82.39095315024232,NA,NA
99501,Anchorage Municipality,AK,NA,22.940226171243943,NA,NA
99504,Anchorage Municipality,AK,17.684887459807076,NA,NA,NA
99577,Anchorage Municipality,AK,NA,NA,84.11552346570397,NA
99611,Kenai Peninsula Borough,AK,63.9871382636656,NA,NA,NA
99623,,AK,NA,NA,NA,92.41706161137441
99645,Matanuska-Susitna Borough,AK,20.257234726688104,NA,NA,NA
99669,Kenai Peninsula Borough,AK,68.16720257234726,NA,NA,NA
99801,Juneau City and Borough,AK,NA,NA,66.24548736462094,NA
85009,Maricopa County,AZ,12.218649517684888,NA,NA,NA
85012,Maricopa County,AZ,NA,87.07592891760905,NA,NA
85016,Maricopa County,AZ,36.33440514469453,NA,NA,NA
85019,Maricopa County,AZ,50.80385852090033,NA,NA,NA
85022,Maricopa County,AZ,NA,22.294022617124394,NA,NA
85205,Maricopa County,AZ,NA,NA,61.191335740072205,NA
85234,Maricopa County,AZ,NA,35.37964458804523,NA,NA
85255,Maricopa County,AZ,NA,53.31179321486268,NA,NA
85303,Maricopa County,AZ,NA,54.60420032310178,NA,NA
85350,Yuma County,AZ,NA,53.79644588045234,NA,NA
85364,Yuma County,AZ,21.221864951768488,NA,24.187725631768952,NA
85367,Yuma County,AZ,NA,NA,NA,16.113744075829384
85383,Maricopa County,AZ,27.652733118971064,NA,NA,NA
85388,Maricopa County,AZ,51.446945337620576,NA,NA,NA
85615,Cochise County,AZ,NA,91.437802907916,NA,NA
85621,Santa Cruz County,AZ,NA,49.27302100161551,NA,NA
85622,Pima County,AZ,NA,NA,64.07942238267148,NA
85711,Pima County,AZ,NA,NA,14.620938628158845,NA
85743,Pima County,AZ,NA,NA,27.256317689530686,NA
85745,Pima County,AZ,71.38263665594855,NA,NA,NA
85746,Pima County,AZ,NA,12.762520193861066,NA,NA
85747,Pima County,AZ,NA,NA,98.19494584837545,NA
85755,Pima County,AZ,NA,NA,49.277978339350184,NA
71602,Jefferson County,AR,NA,66.39741518578353,NA,NA
71603,Jefferson County,AR,NA,NA,58.30324909747292,NA
71923,Clark County,AR,NA,NA,85.5595667870036,NA
71953,Polk County,AR,NA,NA,NA,92.89099526066352
72081,White County,AR,NA,NA,57.400722021660656,NA
72150,Grant County,AR,NA,NA,NA,97.1563981042654
72227,Pulaski County,AR,NA,75.60581583198707,NA,NA
72401,Craighead County,AR,23.15112540192926,NA,NA,NA
72455,Randolph County,AR,NA,NA,NA,81.51658767772511
72638,Carroll County,AR,NA,83.03715670436188,NA,NA
72650,Searcy County,AR,NA,NA,94.94584837545126,NA
90003,Los Angeles County,CA,NA,NA,37.90613718411552,NA
90022,Los Angeles County,CA,NA,37.802907915993536,NA,28.436018957345972
90024,Los Angeles County,CA,NA,NA,NA,11.848341232227488
90046,Los Angeles County,CA,NA,NA,23.646209386281587,NA
90056,Los Angeles County,CA,NA,NA,90.7942238267148,NA
90064,Los Angeles County,CA,63.665594855305464,NA,NA,NA
90221,Los Angeles County,CA,NA,10.98546042003231,NA,NA
90250,Los Angeles County,CA,NA,NA,24.548736462093864,NA
90405,Los Angeles County,CA,NA,NA,54.87364620938629,NA
90620,Orange County,CA,NA,NA,35.74007220216607,NA
90631,Orange County,CA,NA,NA,18.592057761732853,NA
90712,Los Angeles County,CA,NA,NA,50.54151624548736,NA
90802,Los Angeles County,CA,NA,53.63489499192246,NA,NA
90815,Los Angeles County,CA,NA,NA,38.26714801444043,NA
91207,Los Angeles County,CA,NA,NA,81.58844765342961,NA
91304,Los Angeles County,CA,NA,80.45234248788368,79.2418772563177,NA
91342,Los Angeles County,CA,24.758842443729904,NA,NA,NA
91344,Los Angeles County,CA,NA,NA,25.27075812274368,NA
91360,Ventura County,CA,NA,67.36672051696284,NA,NA
91401,Los Angeles County,CA,NA,NA,32.49097472924188,NA
91701,San Bernardino County,CA,NA,NA,29.783393501805055,NA
91731,Los Angeles County,CA,NA,72.6978998384491,NA,NA
91744,Los Angeles County,CA,NA,NA,61.55234657039711,NA
91764,San Bernardino County,CA,NA,NA,NA,71.09004739336493
91784,San Bernardino County,CA,NA,NA,47.292418772563174,NA
91910,San Diego County,CA,NA,76.89822294022616,NA,NA
91932,San Diego County,CA,NA,NA,81.04693140794224,NA
91941,San Diego County,CA,70.41800643086816,NA,NA,NA
92009,San Diego County,CA,NA,94.18416801292408,NA,NA
92011,San Diego County,CA,NA,85.62197092084006,NA,NA
92020,San Diego County,CA,NA,NA,NA,37.91469194312796
92024,San Diego County,CA,NA,43.45718901453958,NA,NA
92029,San Diego County,CA,NA,NA,72.3826714801444,NA
92069,San Diego County,CA,NA,NA,54.51263537906137,NA
92084,San Diego County,CA,NA,62.035541195476576,NA,NA
92103,San Diego County,CA,NA,77.86752827140549,NA,NA
92117,San Diego County,CA,NA,NA,55.054151624548744,NA
92124,San Diego County,CA,80.38585209003215,NA,NA,NA
92126,San Diego County,CA,29.260450160771708,NA,NA,NA
92203,Riverside County,CA,NA,46.36510500807754,NA,NA
92211,Riverside County,CA,NA,89.337641357027465,9.386281588447654,NA
92223,Riverside County,CA,NA,31.663974151857836,NA,NA
92231,Imperial County,CA,NA,NA,14.440433212996389,NA
92233,Imperial County,CA,NA,NA,98.73646209386283,NA
92234,Riverside County,CA,48.55305466237942,NA,NA,NA
92262,Riverside County,CA,NA,NA,11.191335740072201,NA
92264,Riverside County,CA,NA,NA,NA,20.379146919431278
92274,Riverside County,CA,81.67202572347267,NA,NA,NA
92324,San Bernardino County,CA,NA,NA,39.53068592057762,NA
92376,San Bernardino County,CA,NA,9.046849757673666,NA,NA
92394,San Bernardino County,CA,NA,80.12924071082391,NA,NA
92586,Riverside County,CA,NA,NA,45.84837545126354,NA
92614,Orange County,CA,NA,NA,NA,94.3127962085308
92648,Orange County,CA,NA,29.24071082390953,23.465703971119133,NA
92656,Orange County,CA,NA,NA,48.375451263537904,NA
92663,Orange County,CA,NA,NA,NA,63.03317535545023
92672,Orange County,CA,93.2475884244373,NA,NA,NA
92679,Orange County,CA,NA,65.4281098546042,NA,NA
92691,Orange County,CA,NA,NA,22.382671480144403,NA
92780,Orange County,CA,NA,NA,58.12274368231047,NA
92835,Orange County,CA,NA,NA,NA,26.540284360189574
92843,Orange County,CA,NA,40.064620355411954,NA,NA
92845,Orange County,CA,NA,80.2907915993538,NA,NA
92886,Orange County,CA,NA,NA,19.494584837545126,NA
93004,Ventura County,CA,NA,NA,NA,57.81990521327014
93021,Ventura County,CA,NA,63.32794830371567,NA,NA
93063,Ventura County,CA,NA,37.47980613893376,NA,NA
93065,Ventura County,CA,NA,NA,21.48014440433213,NA
93250,Kern County,CA,88.42443729903538,NA,NA,NA
93274,Tulare County,CA,NA,5.977382875605816,NA,NA
93291,Tulare County,CA,NA,22.45557350565428,NA,NA
93308,Kern County,CA,NA,28.594507269789982,NA,NA
93312,Kern County,CA,NA,42.32633279483037,NA,NA
93436,Santa Barbara County,CA,NA,16.31663974151858,NA,NA
93465,San Luis Obispo County,CA,NA,NA,86.46209386281588,NA
93610,Madera County,CA,NA,NA,80.68592057761734,NA
93619,Fresno County,CA,NA,NA,40.43321299638989,NA
93630,Fresno County,CA,54.340836012861736,NA,NA,NA
93637,Madera County,CA,30.54662379421222,NA,NA,NA
93726,Fresno County,CA,NA,22.617124394184167,NA,NA
94066,San Mateo County,CA,NA,NA,11.010830324909747,NA
94087,Santa Clara County,CA,60.45016077170418,NA,NA,NA
94108,San Francisco County,CA,96.14147909967846,NA,NA,NA
94109,San Francisco County,CA,NA,29.40226171243942,NA,NA
94110,San Francisco County,CA,45.01607717041801,NA,NA,NA
94114,San Francisco County,CA,83.27974276527331,NA,NA,NA
94118,San Francisco County,CA,NA,60.258481421647815,NA,NA
94306,Santa Clara County,CA,79.42122186495176,NA,NA,NA
94509,Contra Costa County,CA,NA,NA,45.12635379061371,NA
94526,Contra Costa County,CA,NA,NA,49.458483754512635,NA
94530,Contra Costa County,CA,75.88424437299035,NA,NA,NA
94547,Contra Costa County,CA,NA,88.69143780290791,NA,NA
94559,Napa County,CA,NA,NA,60.28880866425993,NA
94568,Alameda County,CA,NA,NA,NA,56.872037914691944
94590,Solano County,CA,NA,29.72536348949919,NA,NA
94595,Contra Costa County,CA,NA,NA,NA,13.744075829383887
94603,Alameda County,CA,NA,NA,55.23465703971119,NA
94606,Alameda County,CA,NA,NA,NA,85.30805687203792
94618,Alameda County,CA,NA,86.75282714054927,NA,NA
94707,Alameda County,CA,NA,96.4458804523425,NA,NA
94920,Marin County,CA,90.35369774919614,NA,NA,NA
94941,Marin County,CA,NA,90.63004846526655,NA,NA
95065,Santa Cruz County,CA,96.46302250803859,NA,NA,NA
95122,Santa Clara County,CA,NA,49.59612277867528,48.73646209386281,NA
95123,Santa Clara County,CA,NA,NA,NA,68.72037914691943
95205,San Joaquin County,CA,55.948553054662376,NA,NA,NA
95207,San Joaquin County,CA,NA,NA,29.602888086642597,NA
95249,Calaveras County,CA,97.7491961414791,NA,NA,NA
95330,San Joaquin County,CA,81.67202572347267,NA,NA,NA
95341,Merced County,CA,23.47266881028939,NA,NA,NA
95356,Stanislaus County,CA,NA,NA,42.418772563176894,NA
95490,Mendocino County,CA,NA,NA,52.707581227436826,NA
95501,Humboldt County,CA,NA,NA,34.47653429602888,NA
95660,Sacramento County,CA,NA,92.40710823909531,NA,NA
95687,Solano County,CA,NA,89.66074313408724,NA,NA
95758,Sacramento County,CA,NA,NA,46.57039711191336,NA
95821,Sacramento County,CA,NA,45.880452342487885,NA,NA
96093,Trinity County,CA,NA,NA,90.97472924187726,NA
96094,Siskiyou County,CA,NA,NA,NA,84.36018957345972
80011,Arapahoe County,CO,NA,33.60258481421648,NA,NA
80014,Arapahoe County,CO,NA,34.087237479806134,62.093862815884485,43.60189573459716
80015,Arapahoe County,CO,9.003215434083602,NA,NA,NA
80017,Arapahoe County,CO,NA,NA,47.833935018050546,NA
80021,Jefferson County,CO,NA,NA,NA,65.87677725118483
80104,Douglas County,CO,33.11897106109325,NA,NA,NA
80108,Douglas County,CO,NA,52.18093699515347,NA,NA
80112,Arapahoe County,CO,NA,NA,NA,82.46445497630332
80126,Douglas County,CO,21.54340836012862,NA,NA,NA
80128,Jefferson County,CO,NA,NA,NA,72.98578199052133
80132,El Paso County,CO,NA,NA,NA,73.93364928909952
80205,Denver County,CO,NA,13.08562197092084,NA,NA
80212,Denver County,CO,NA,78.67528271405493,NA,NA
80218,Denver County,CO,NA,64.62035541195476,95.84837545126354,NA
80224,Denver County,CO,NA,86.91437802907916,NA,59.71563981042654
80228,Jefferson County,CO,NA,58.966074313408726,NA,NA
80229,Adams County,CO,NA,14.378029079159935,NA,NA
80234,Adams County,CO,NA,66.88206785137318,NA,NA
80239,Denver County,CO,NA,25.20193861066236,NA,NA
80241,Adams County,CO,NA,NA,68.23104693140795,NA
80247,Arapahoe County,CO,NA,NA,NA,40.758293838862556
80303,Boulder County,CO,NA,82.55250403877221,NA,NA
80433,Jefferson County,CO,79.7427652733119,NA,NA,NA
80516,Weld County,CO,46.62379421221865,NA,NA,NA
80517,Larimer County,CO,91.31832797427653,NA,NA,NA
80526,Larimer County,CO,27.652733118971064,39.903069466882066,NA,NA
80631,Weld County,CO,NA,8.723747980613894,NA,NA
80654,Morgan County,CO,NA,94.9919224555735,NA,NA
80904,El Paso County,CO,NA,NA,62.8158844765343,NA
80909,El Paso County,CO,NA,NA,50,NA
80917,El Paso County,CO,NA,NA,80.50541516245488,NA
80918,El Paso County,CO,61.09324758842444,NA,NA,NA
80920,El Paso County,CO,NA,NA,61.01083032490975,NA
81001,Pueblo County,CO,NA,NA,42.7797833935018,NA
81004,Pueblo County,CO,NA,NA,30.505415162454874,NA
81050,Otero County,CO,89.06752411575563,NA,NA,NA
81301,La Plata County,CO,83.60128617363344,NA,NA,NA
81601,Garfield County,CO,NA,NA,78.88086642599278,NA
81625,Moffat County,CO,NA,NA,59.56678700361011,NA
06029,Tolland County,CT,NA,61.7124394184168,NA,NA
06051,Hartford County,CT,NA,3.877221324717286,NA,NA
06053,Hartford County,CT,21.864951768488748,NA,NA,NA
06066,Tolland County,CT,NA,70.27463651050081,NA,NA
06085,Hartford County,CT,NA,93.8610662358643,NA,NA
06111,Hartford County,CT,NA,73.82875605815832,NA,NA
06114,Hartford County,CT,NA,88.04523424878838,NA,NA
06119,Hartford County,CT,NA,NA,77.9783393501805,NA
06410,New Haven County,CT,NA,NA,41.15523465703971,NA
06415,New London County,CT,NA,58.48142164781906,NA,NA
06451,New Haven County,CT,NA,NA,37.90613718411552,NA
06473,New Haven County,CT,NA,73.18255250403877,NA,NA
06511,New Haven County,CT,NA,4.68497576736672,NA,NA
06610,Fairfield County,CT,NA,28.109854604200322,NA,NA
06706,New Haven County,CT,NA,63.65105008077544,NA,NA
06790,Litchfield County,CT,NA,5.654281098546042,NA,NA
06854,Fairfield County,CT,49.51768488745981,NA,NA,NA
19901,Kent County,DE,NA,NA,20.397111913357403,NA
32025,Columbia County,FL,NA,NA,67.32851985559567,NA
32034,Nassau County,FL,NA,53.95799676898223,NA,NA
32068,Clay County,FL,NA,NA,NA,41.70616113744076
32174,Volusia County,FL,54.019292604501615,NA,NA,NA
32177,Putnam County,FL,NA,48.62681744749596,NA,NA
32206,Duval County,FL,NA,74.63651050080774,NA,NA
32208,Duval County,FL,NA,1.1308562197092082,32.12996389891697,NA
32209,Duval County,FL,NA,4.20032310177706,14.981949458483754,NA
32312,Leon County,FL,NA,NA,81.94945848375451,NA
32428,Washington County,FL,NA,56.70436187399031,NA,NA
32439,Walton County,FL,NA,76.41357027463651,NA,NA
32514,Escambia County,FL,43.40836012861736,NA,NA,NA
32526,Escambia County,FL,NA,NA,9.566787003610107,NA
32548,Okaloosa County,FL,NA,NA,56.317689530685925,NA
32606,Alachua County,FL,NA,36.995153473344104,77.43682310469315,NA
32666,Putnam County,FL,NA,87.56058158319871,NA,NA
32746,Seminole County,FL,81.35048231511254,NA,NA,NA
32778,Lake County,FL,NA,NA,26.353790613718413,34.59715639810427
32822,Orange County,FL,NA,NA,25.451263537906136,NA
32833,Orange County,FL,74.27652733118971,NA,NA,NA
32839,Orange County,FL,NA,26.81744749596123,NA,NA
32940,Brevard County,FL,NA,70.43618739903069,NA,NA
32953,Brevard County,FL,NA,62.68174474959613,NA,NA
32963,Indian River County,FL,NA,NA,NA,78.67298578199052
33130,Miami-Dade County,FL,NA,NA,63.35740072202166,NA
33149,Miami-Dade County,FL,NA,NA,88.08664259927798,NA
33166,Miami-Dade County,FL,NA,NA,93.50180505415162,NA
33189,Miami-Dade County,FL,NA,NA,NA,71.56398104265402
33193,Miami-Dade County,FL,NA,66.5589660743134,NA,NA
33317,Broward County,FL,NA,NA,NA,48.34123222748815
33319,Broward County,FL,NA,45.39579967689822,NA,NA
33321,Broward County,FL,NA,NA,NA,10.90047393364929
33441,Broward County,FL,NA,60.096930533117934,NA,NA
33442,Broward County,FL,NA,NA,35.018050541516246,NA
33484,Palm Beach County,FL,NA,NA,30.685920577617328,NA
33496,Palm Beach County,FL,77.17041800643086,NA,NA,NA
33527,Hillsborough County,FL,NA,NA,99.63898916967509,NA
33612,Hillsborough County,FL,16.077170418006432,NA,NA,NA
33624,Hillsborough County,FL,NA,56.865912762520196,NA,NA
33707,Pinellas County,FL,NA,NA,NA,27.96208530805687
33803,Polk County,FL,NA,65.26655896607431,NA,NA
33860,Polk County,FL,NA,64.78190630048465,NA,NA
33880,Polk County,FL,NA,60.74313408723748,NA,NA
33881,Polk County,FL,55.948553054662376,NA,NA,NA
33916,Lee County,FL,NA,41.19547657512116,NA,NA
33919,Lee County,FL,NA,NA,NA,8.530805687203792
33922,Lee County,FL,NA,NA,76.17328519855594,NA
33928,Lee County,FL,NA,91.76090468497577,NA,NA
33931,Lee County,FL,NA,NA,64.62093862815884,NA
33935,Hendry County,FL,NA,NA,67.14801444043322,NA
33952,Charlotte County,FL,NA,NA,NA,36.96682464454976
34135,Lee County,FL,NA,NA,15.884476534296029,NA
34142,Collier County,FL,NA,85.1373182552504,NA,NA
34145,Collier County,FL,98.39228295819936,NA,NA,NA
34431,Marion County,FL,NA,89.98384491114702,NA,NA
34667,Pasco County,FL,67.20257234726688,NA,NA,NA
34685,Pinellas County,FL,87.13826366559485,NA,NA,NA
34698,Pinellas County,FL,NA,NA,NA,54.976303317535546
34758,Osceola County,FL,27.331189710610932,NA,NA,NA
34769,Osceola County,FL,NA,NA,51.08303249097473,NA
34987,St. Lucie County,FL,NA,NA,79.06137184115524,NA
30004,Fulton County,GA,NA,45.23424878836833,35.1985559566787,NA
30017,Gwinnett County,GA,NA,NA,66.96750902527076,NA
30058,DeKalb County,GA,NA,NA,28.158844765342963,NA
30080,Cobb County,GA,NA,55.5735056542811,NA,NA
30083,DeKalb County,GA,NA,27.140549273021,NA,NA
30114,Cherokee County,GA,NA,NA,27.436823104693143,NA
30165,Floyd County,GA,33.762057877813504,NA,NA,NA
30188,Cherokee County,GA,NA,NA,17.509025270758123,NA
30223,Spalding County,GA,NA,73.50565428109854,NA,NA
30269,Fayette County,GA,NA,74.1518578352181,NA,NA
30286,Upson County,GA,NA,53.47334410339257,NA,NA
30316,DeKalb County,GA,NA,NA,48.91696750902527,NA
30331,Fulton County,GA,NA,NA,8.844765342960288,NA
30507,Hall County,GA,NA,NA,63.537906137184116,NA
30542,Hall County,GA,NA,NA,39.35018050541516,NA
30546,Towns County,GA,NA,87.7221324717286,NA,NA
30549,Jackson County,GA,78.13504823151125,NA,NA,NA
30601,Clarke County,GA,NA,72.53634894991923,NA,NA
30622,Oconee County,GA,NA,NA,97.83393501805054,NA
30728,Walker County,GA,NA,NA,86.64259927797833,NA
30752,Dade County,GA,65.59485530546624,NA,NA,NA
30906,Richmond County,GA,7.717041800643088,7.915993537964459,NA,NA
31029,Monroe County,GA,NA,75.44426494345718,NA,85.78199052132702
31036,Pulaski County,GA,NA,75.12116316639742,NA,NA
31220,Bibb County,GA,NA,NA,94.40433212996389,NA
31415,Chatham County,GA,NA,NA,84.83754512635379,NA
96816,Honolulu County,HI,44.69453376205787,NA,NA,NA
96825,Honolulu County,HI,54.340836012861736,NA,NA,NA
83221,Bingham County,ID,30.22508038585209,NA,NA,NA
83333,Blaine County,ID,NA,83.52180936995154,NA,NA
83347,Minidoka County,ID,94.21221864951768,NA,NA,NA
83445,Fremont County,ID,NA,92.5686591276252,NA,NA
83501,Nez Perce County,ID,NA,NA,41.335740072202164,NA
83605,Canyon County,ID,NA,NA,NA,44.07582938388626
83646,Ada County,ID,NA,43.134087237479804,7.761732851985561,NA
83669,Ada County,ID,NA,NA,NA,64.45497630331754
83702,Ada County,ID,NA,NA,21.660649819494584,NA
83704,Ada County,ID,NA,18.25525040387722,NA,NA
83709,Ada County,ID,NA,NA,49.81949458483754,NA
83714,Ada County,ID,NA,NA,16.064981949458485,NA
83716,Ada County,ID,NA,NA,38.98916967509025,NA
60002,Lake County,IL,NA,NA,NA,62.08530805687204
60035,Lake County,IL,NA,47.980613893376415,14.079422382671481,4.739336492890995
60064,Lake County,IL,NA,NA,87.90613718411552,NA
60083,Lake County,IL,NA,NA,87.54512635379061,NA
60085,Lake County,IL,59.163987138263664,NA,NA,NA
60103,DuPage County,IL,NA,NA,24.368231046931406,NA
60108,DuPage County,IL,NA,63.166397415185784,NA,NA
60120,Kane County,IL,NA,27.78675282714055,NA,NA
60137,DuPage County,IL,NA,37.31825525040387,NA,NA
60148,DuPage County,IL,NA,14.862681744749596,NA,NA
60169,Cook County,IL,NA,50.56542810985461,NA,NA
60177,Kane County,IL,NA,62.35864297253635,NA,NA
60184,DuPage County,IL,NA,98.38449111470113,NA,NA
60187,DuPage County,IL,NA,40.38772213247172,NA,NA
60193,Cook County,IL,NA,NA,10.108303249097473,33.175355450236964
60402,Cook County,IL,50.482315112540185,NA,NA,NA
60403,Will County,IL,NA,NA,38.8086642599278,NA
60404,Will County,IL,88.7459807073955,NA,NA,NA
60411,Cook County,IL,NA,NA,10.469314079422382,NA
60415,Cook County,IL,NA,NA,NA,72.51184834123224
60417,Will County,IL,NA,67.20516962843296,NA,NA
60422,Cook County,IL,NA,92.08400646203555,NA,NA
60423,Will County,IL,NA,43.61873990306947,NA,NA
60424,Grundy County,IL,100,NA,NA,NA
60439,Cook County,IL,NA,48.1421647819063,NA,NA
60440,Will County,IL,NA,21.809369951534734,NA,NA
60451,Will County,IL,18.327974276527332,NA,NA,NA
60464,Cook County,IL,NA,NA,64.25992779783394,NA
60465,Cook County,IL,NA,80.77544426494345,NA,NA
60487,Cook County,IL,NA,59.935379644588046,NA,NA
60491,Will County,IL,NA,37.64135702746365,NA,NA
60515,DuPage County,IL,NA,NA,34.83754512635379,NA
60516,DuPage County,IL,NA,NA,29.24187725631769,NA
60558,Cook County,IL,53.37620578778135,NA,NA,NA
60565,DuPage County,IL,NA,81.5831987075929,NA,100
60586,Will County,IL,NA,15.024232633279484,NA,NA
60609,Cook County,IL,NA,11.308562197092083,NA,NA
60610,Cook County,IL,NA,46.52665589660743,NA,NA
60613,Cook County,IL,NA,28.432956381260098,NA,NA
60616,Cook County,IL,NA,39.57996768982229,NA,NA
60618,Cook County,IL,NA,8.562197092084006,NA,NA
60626,Cook County,IL,NA,54.76575121163167,NA,NA
60629,Cook County,IL,22.508038585209004,NA,NA,NA
60634,Cook County,IL,16.39871382636656,NA,NA,NA
60639,Cook County,IL,NA,NA,35.92057761732852,NA
60645,Cook County,IL,NA,38.77221324717286,NA,NA
60646,Cook County,IL,NA,NA,44.4043321299639,32.22748815165877
60659,Cook County,IL,NA,NA,NA,46.91943127962085
60707,Cook County,IL,NA,21.97092084006462,NA,NA
60901,Kankakee County,IL,NA,NA,NA,15.165876777251185
61021,Lee County,IL,NA,34.894991922455574,NA,6.161137440758294
61081,Whiteside County,IL,NA,NA,16.60649819494585,NA
61103,Winnebago County,IL,NA,57.83521809369952,NA,NA
61109,Winnebago County,IL,NA,48.78836833602585,NA,NA
61115,Winnebago County,IL,NA,55.41195476575121,NA,NA
61356,Bureau County,IL,63.344051446945336,NA,NA,NA
61614,Peoria County,IL,59.4855305466238,NA,NA,NA
61755,Tazewell County,IL,NA,98.54604200323102,NA,NA
61822,Champaign County,IL,84.88745980707395,NA,NA,NA
61853,Champaign County,IL,NA,NA,NA,35.07109004739337
61938,Coles County,IL,NA,NA,NA,36.492890995260666
62002,Madison County,IL,NA,33.117932148626814,NA,NA
62206,St. Clair County,IL,NA,NA,NA,87.20379146919431
62246,Bond County,IL,NA,NA,77.79783393501805,NA
62301,Adams County,IL,NA,NA,NA,62.55924170616114
62401,Effingham County,IL,NA,NA,89.71119133574007,37.44075829383886
62522,Macon County,IL,NA,NA,78.70036101083032,NA
62526,Macon County,IL,NA,11.954765751211632,34.65703971119133,NA
62801,Marion County,IL,NA,NA,28.339350180505413,38.862559241706165
62863,Wabash County,IL,NA,75.76736672051696,NA,39.33649289099526
46017,Madison County,IN,NA,78.9983844911147,NA,NA
46112,Hendricks County,IN,NA,83.68336025848141,NA,NA
46124,Johnson County,IN,NA,NA,69.31407942238266,NA
46140,Hancock County,IN,NA,31.340872374798064,NA,NA
46143,Johnson County,IN,24.758842443729904,NA,19.133574007220215,NA
46201,Marion County,IN,NA,19.7092084006462,NA,NA
46205,Marion County,IN,NA,72.859450726979,NA,NA
46218,Marion County,IN,NA,10.500807754442649,NA,NA
46268,Marion County,IN,NA,48.46526655896607,NA,NA
46280,Hamilton County,IN,NA,97.09208400646203,NA,NA
46307,Lake County,IN,NA,30.533117932148627,NA,NA
46310,Jasper County,IN,56.91318327974276,NA,NA,NA
46311,Lake County,IN,82.31511254019293,NA,NA,NA
46321,Lake County,IN,NA,NA,17.870036101083034,NA
46327,Lake County,IN,NA,NA,57.942238267148014,NA
46342,Lake County,IN,NA,NA,65.34296028880865,NA
46356,Lake County,IN,NA,68.65912762520195,NA,NA
46368,Porter County,IN,NA,NA,2.527075812274368,NA
46383,Porter County,IN,2.572347266881029,NA,NA,NA
46385,Porter County,IN,NA,7.592891760904685,NA,NA
46407,Lake County,IN,NA,NA,71.48014440433214,NA
46526,Elkhart County,IN,54.983922829581985,NA,NA,NA
46703,Steuben County,IN,NA,NA,36.8231046931408,NA
46706,DeKalb County,IN,NA,NA,45.48736462093863,NA
46750,Huntington County,IN,NA,NA,61.73285198555957,NA
46783,Huntington County,IN,NA,NA,82.67148014440433,NA
46805,Allen County,IN,NA,NA,NA,51.65876777251185
46914,Miami County,IN,NA,98.22294022617125,NA,NA
47040,Ohio County,IN,95.4983922829582,NA,NA,NA
47130,Clark County,IN,NA,NA,6.31768953068592,NA
47274,Jackson County,IN,69.13183279742765,NA,32.31046931407942,NA
47362,Henry County,IN,44.37299035369775,NA,NA,NA
47371,Jay County,IN,37.62057877813505,NA,NA,NA
47586,Perry County,IN,NA,NA,69.49458483754512,NA
47601,Warrick County,IN,NA,NA,40.974729241877256,NA
47842,Vermillion County,IN,NA,72.21324717285945,NA,NA
47932,Fountain County,IN,NA,NA,NA,95.260663507109
50023,Polk County,IA,NA,69.95153473344104,NA,NA
50126,Hardin County,IA,NA,86.26817447495961,NA,NA
50313,Polk County,IA,NA,42.972536348949916,NA,NA
50315,Polk County,IA,NA,NA,59.92779783393502,NA
50317,Polk County,IA,NA,NA,48.55595667870036,NA
51105,Woodbury County,IA,NA,71.89014539579968,NA,NA
51106,Woodbury County,IA,NA,NA,48.014440433213,NA
51632,Page County,IA,NA,79.32148626817448,NA,NA
52240,Johnson County,IA,6.430868167202572,NA,NA,NA
52405,Linn County,IA,NA,NA,41.69675090252707,NA
52556,Jefferson County,IA,NA,NA,61.371841155234655,NA
52601,Des Moines County,IA,NA,12.60096930533118,NA,NA
52761,Muscatine County,IA,24.437299035369776,NA,NA,NA
66061,Johnson County,KS,NA,21.647819063004846,NA,NA
66221,Johnson County,KS,NA,NA,NA,96.6824644549763
66757,Wilson County,KS,99.67845659163987,NA,NA,NA
66846,Morris County,KS,NA,96.93053311793214,NA,NA
67114,Harvey County,KS,NA,NA,NA,83.41232227488152
67211,Sedgwick County,KS,NA,NA,84.47653429602889,NA
67357,Labette County,KS,NA,NA,95.66787003610109,NA
67601,Ellis County,KS,NA,NA,71.11913357400722,NA
67701,Thomas County,KS,NA,78.02907915993538,80.14440433212997,NA
40258,Jefferson County,KY,NA,NA,38.628158844765345,NA
40299,Jefferson County,KY,NA,NA,NA,23.22274881516588
40324,Scott County,KY,NA,13.5702746365105,NA,NA
40336,Estill County,KY,NA,57.996768982229405,NA,NA
40351,Rowan County,KY,NA,22.778675282714055,67.68953068592057,NA
40356,Jessamine County,KY,NA,14.054927302100161,NA,NA
40419,Lincoln County,KY,NA,NA,92.59927797833934,NA
40475,Madison County,KY,NA,NA,10.649819494584838,NA
40505,Fayette County,KY,NA,NA,31.5884476534296,NA
41101,Boyd County,KY,NA,NA,20.216606498194945,NA
41102,Boyd County,KY,NA,NA,NA,27.488151658767773
42164,Allen County,KY,NA,41.68012924071082,NA,NA
42303,Daviess County,KY,24.115755627009648,NA,NA,NA
42728,Adair County,KY,NA,82.7140549273021,NA,NA
70002,Jefferson Parish,LA,NA,NA,NA,39.81042654028436
70039,St. Charles Parish,LA,NA,94.83037156704361,NA,NA
70056,Jefferson Parish,LA,NA,NA,NA,29.383886255924168
70062,Jefferson Parish,LA,NA,20.678513731825525,NA,NA
70065,Jefferson Parish,LA,0.3215434083601286,NA,NA,NA
70084,St. John the Baptist Parish,LA,NA,70.75928917609046,NA,NA
70118,Orleans Parish,LA,NA,19.38610662358643,NA,NA
70124,Orleans Parish,LA,NA,79.96768982229402,NA,NA
70339,Assumption Parish,LA,55.30546623794213,NA,NA,NA
70373,Lafourche Parish,LA,85.53054662379421,NA,NA,NA
70427,Washington Parish,LA,NA,NA,74.0072202166065,NA
70444,Tangipahoa Parish,LA,64.63022508038586,NA,NA,NA
70448,St. Tammany Parish,LA,NA,NA,28.880866425992778,NA
70454,Tangipahoa Parish,LA,9.32475884244373,36.67205169628433,NA,NA
70458,St. Tammany Parish,LA,NA,NA,4.332129963898916,NA
70517,St. Martin Parish,LA,18.64951768488746,NA,NA,NA
70583,Lafayette Parish,LA,NA,50.88852988691438,NA,NA
70657,Beauregard Parish,LA,70.09646302250803,NA,NA,NA
70769,Ascension Parish,LA,NA,10.662358642972535,NA,NA
70810,East Baton Rouge Parish,LA,NA,NA,NA,61.137440758293835
70814,East Baton Rouge Parish,LA,NA,NA,79.96389891696751,NA
70815,East Baton Rouge Parish,LA,NA,NA,NA,42.18009478672986
71052,De Soto Parish,LA,NA,40.54927302100161,NA,NA
71234,Union Parish,LA,97.42765273311898,NA,NA,NA
71302,Rapides Parish,LA,36.97749196141479,NA,NA,NA
71327,Avoyelles Parish,LA,72.66881028938906,NA,NA,NA
71360,Rapides Parish,LA,47.90996784565916,NA,NA,NA
71483,Winn Parish,LA,NA,NA,69.85559566787003,NA
03903,York County,ME,NA,85.78352180936996,NA,NA
03909,York County,ME,NA,NA,53.24909747292419,NA
04011,Cumberland County,ME,NA,56.058158319870756,NA,NA
04101,Cumberland County,ME,52.41157556270096,NA,NA,NA
04102,Cumberland County,ME,NA,NA,88.98916967509025,NA
04103,Cumberland County,ME,NA,NA,86.82310469314079,NA
04236,Androscoggin County,ME,NA,NA,98.55595667870037,NA
04240,Androscoggin County,ME,NA,2.10016155088853,NA,NA
04330,Kennebec County,ME,NA,NA,7.400722021660649,NA
04345,Kennebec County,ME,NA,NA,53.068592057761734,70.61611374407583
04463,Piscataquis County,ME,NA,99.83844911147011,NA,NA
04769,Aroostook County,ME,NA,86.4297253634895,NA,NA
04849,Waldo County,ME,NA,NA,NA,99.0521327014218
04901,Kennebec County,ME,NA,5.3311793214862675,NA,NA
04930,Penobscot County,ME,NA,NA,94.7653429602888,NA
04938,Franklin County,ME,NA,NA,81.58844765342961,NA
04967,Somerset County,ME,NA,91.59935379644588,NA,NA
04976,Somerset County,ME,59.80707395498393,16.31663974151858,16.967509025270758,NA
20706,Prince George's County,MD,NA,NA,55.415162454873645,NA
20772,Prince George's County,MD,NA,79.80613893376413,NA,NA
20855,Montgomery County,MD,99.35691318327974,NA,NA,NA
21030,Baltimore County,MD,53.37620578778135,NA,NA,NA
21040,Harford County,MD,48.87459807073955,NA,NA,NA
21090,Anne Arundel County,MD,NA,NA,76.89530685920577,NA
21093,Baltimore County,MD,NA,NA,26.173285198555956,NA
21128,Baltimore County,MD,NA,NA,82.85198555956678,NA
21131,Baltimore County,MD,NA,NA,88.62815884476535,NA
21146,Anne Arundel County,MD,NA,NA,47.47292418772563,NA
21161,Harford County,MD,NA,NA,95.30685920577618,NA
21162,Baltimore County,MD,NA,94.50726978998385,NA,NA
21201,Baltimore city,MD,NA,49.43457189014539,NA,NA
21202,Baltimore city,MD,NA,45.072697899838445,NA,NA
21208,Baltimore County,MD,NA,NA,32.851985559566785,NA
21213,Baltimore city,MD,NA,21.163166397415186,NA,NA
21228,Baltimore County,MD,NA,55.08885298869144,NA,NA
21229,Baltimore city,MD,NA,19.22455573505654,NA,NA
21230,Baltimore city,MD,NA,NA,52.34657039711191,NA
21234,Baltimore County,MD,NA,17.2859450726979,NA,NA
21784,Carroll County,MD,36.01286173633441,NA,NA,NA
01005,Worcester County,MA,NA,99.67689822294022,NA,NA
01020,Hampden County,MA,NA,NA,12.093862815884476,NA
01027,Hampshire County,MA,NA,12.116316639741518,40.25270758122744,NA
01056,Hampden County,MA,57.556270096463024,NA,NA,NA
01105,Hampden County,MA,13.183279742765272,NA,NA,NA
01108,Hampden County,MA,NA,1.615508885298869,NA,NA
01201,Berkshire County,MA,2.8938906752411575,0,NA,NA
01220,Berkshire County,MA,NA,23.263327948303715,NA,NA
01420,Worcester County,MA,NA,0.32310177705977383,NA,NA
01562,Worcester County,MA,NA,28.75605815831987,NA,NA
01602,Worcester County,MA,57.234726688102896,NA,NA,NA
01603,Worcester County,MA,NA,44.103392568659125,NA,NA
01604,Worcester County,MA,5.787781350482315,NA,NA,NA
01605,Worcester County,MA,0,NA,NA,NA
01701,Middlesex County,MA,NA,94.02261712439419,NA,NA
01754,Middlesex County,MA,NA,69.78998384491115,NA,NA
01757,Worcester County,MA,NA,47.81906300484653,NA,NA
01776,Middlesex County,MA,45.98070739549839,NA,NA,NA
01801,Middlesex County,MA,NA,0.9693053311793215,1.8050541516245486,NA
01821,Middlesex County,MA,NA,5.169628432956381,NA,NA
01824,Middlesex County,MA,NA,NA,7.581227436823104,NA
01826,Middlesex County,MA,NA,4.523424878836833,NA,NA
01841,Essex County,MA,NA,NA,73.10469314079423,NA
01852,Middlesex County,MA,12.540192926045016,24.232633279483036,NA,NA
01860,Essex County,MA,NA,NA,79.78339350180505,NA
01945,Essex County,MA,NA,NA,21.119133574007222,NA
01960,Essex County,MA,NA,NA,NA,0.47393364928909953
02038,Norfolk County,MA,NA,NA,16.787003610108304,NA
02052,Norfolk County,MA,NA,66.88206785137318,NA,NA
02061,Plymouth County,MA,NA,71.40549273021001,NA,NA
02081,Norfolk County,MA,NA,23.101777059773827,NA,NA
02115,Suffolk County,MA,NA,79.15993537964458,NA,NA
02116,Suffolk County,MA,NA,15.508885298869144,NA,NA
02118,Suffolk County,MA,NA,NA,1.263537906137184,NA
02119,Suffolk County,MA,NA,NA,NA,8.056872037914692
02120,Suffolk County,MA,5.466237942122187,NA,NA,NA
02122,Suffolk County,MA,NA,1.4539579967689822,NA,NA
02124,Suffolk County,MA,NA,NA,0,NA
02125,Suffolk County,MA,NA,NA,64.4404332129964,NA
02127,Suffolk County,MA,NA,NA,95.48736462093864,NA
02130,Suffolk County,MA,NA,NA,50.18050541516246,NA
02131,Suffolk County,MA,NA,95.79967689822294,NA,NA
02132,Suffolk County,MA,NA,NA,2.707581227436823,NA
02135,Suffolk County,MA,NA,NA,NA,1.8957345971563981
02138,Middlesex County,MA,NA,12.277867528271406,NA,NA
02139,Middlesex County,MA,NA,0.16155088852988692,3.790613718411552,NA
02140,Middlesex County,MA,35.048231511254016,NA,NA,31.27962085308057
02143,Middlesex County,MA,NA,NA,10.830324909747292,NA
02148,Middlesex County,MA,NA,5.008077544426494,0.36101083032490977,NA
02150,Suffolk County,MA,NA,35.864297253634895,42.59927797833935,NA
02169,Norfolk County,MA,NA,NA,NA,1.4218009478672986
02186,Norfolk County,MA,58.520900321543415,NA,NA,NA
02190,Norfolk County,MA,NA,NA,NA,60.18957345971564
02302,Plymouth County,MA,NA,NA,NA,51.18483412322274
02333,Plymouth County,MA,NA,33.925686591276246,NA,NA
02341,Plymouth County,MA,NA,NA,NA,91.9431279620853
02351,Plymouth County,MA,NA,17.447495961227787,NA,NA
02360,Plymouth County,MA,64.63022508038586,NA,NA,NA
02368,Norfolk County,MA,NA,1.938610662358643,NA,NA
02370,Plymouth County,MA,NA,14.539579967689823,NA,NA
02467,Norfolk County,MA,NA,NA,29.96389891696751,34.12322274881517
02476,Middlesex County,MA,NA,40.22617124394184,NA,NA
02540,Barnstable County,MA,NA,NA,NA,38.388625592417064
02631,Barnstable County,MA,NA,NA,NA,44.54976303317535
02653,Barnstable County,MA,NA,NA,79.42238267148014,NA
02777,Bristol County,MA,8.360128617363344,NA,NA,NA
02780,Bristol County,MA,NA,0.48465266558966075,NA,NA
48001,St. Clair County,MI,NA,NA,68.95306859205776,NA
48060,St. Clair County,MI,NA,NA,51.985559566786996,NA
48073,Oakland County,MI,NA,31.502423263327948,NA,NA
48075,Oakland County,MI,34.726688102893895,NA,31.40794223826715,NA
48091,Macomb County,MI,13.504823151125404,NA,NA,NA
48093,Macomb County,MI,NA,21.32471728594507,NA,NA
48095,Macomb County,MI,NA,NA,96.75090252707581,NA
48097,St. Clair County,MI,84.2443729903537,NA,NA,NA
48103,Washtenaw County,MI,22.186495176848876,NA,2.166064981949458,NA
48105,Washtenaw County,MI,NA,NA,NA,5.687203791469194
48108,Washtenaw County,MI,NA,NA,NA,29.85781990521327
48111,Wayne County,MI,NA,NA,7.2202166064981945,NA
48122,Wayne County,MI,90.03215434083602,NA,NA,NA
48125,Wayne County,MI,NA,NA,47.65342960288809,NA
48130,Washtenaw County,MI,NA,NA,36.28158844765343,NA
48134,Wayne County,MI,29.581993569131832,NA,NA,NA
48138,Wayne County,MI,NA,NA,59.02527075812274,NA
48141,Wayne County,MI,NA,36.187399030694664,NA,NA
48152,Wayne County,MI,NA,NA,6.859205776173286,NA
48161,Monroe County,MI,10.610932475884244,NA,NA,NA
48168,Wayne County,MI,NA,57.189014539579965,NA,35.54502369668246
48169,Livingston County,MI,58.842443729903536,NA,NA,NA
48183,Wayne County,MI,NA,NA,NA,16.587677725118482
48188,Wayne County,MI,8.038585209003216,13.247172859450727,NA,NA
48195,Wayne County,MI,NA,NA,9.927797833935017,NA
48197,Washtenaw County,MI,3.858520900321544,NA,NA,NA
48202,Wayne County,MI,NA,32.794830371567045,NA,NA
48203,Wayne County,MI,NA,15.18578352180937,NA,NA
48204,Wayne County,MI,NA,84.49111470113085,30.866425992779785,NA
48206,Wayne County,MI,NA,NA,63.898916967509024,NA
48213,Wayne County,MI,41.47909967845659,NA,25.812274368231048,NA
48219,Wayne County,MI,NA,4.846526655896607,NA,NA
48226,Wayne County,MI,86.17363344051448,NA,NA,NA
48230,Wayne County,MI,61.7363344051447,54.44264943457189,96.20938628158845,NA
48235,Wayne County,MI,NA,2.5848142164781907,NA,NA
48236,Wayne County,MI,NA,NA,14.259927797833935,NA
48301,Oakland County,MI,NA,NA,NA,49.763033175355446
48306,Oakland County,MI,NA,46.04200323101777,58.844765342960294,NA
48313,Macomb County,MI,NA,26.65589660743134,NA,NA
48342,Oakland County,MI,NA,48.30371567043619,NA,NA
48348,Oakland County,MI,NA,38.44911147011308,NA,NA
48503,Genesee County,MI,41.80064308681672,NA,NA,NA
48532,Genesee County,MI,NA,NA,NA,78.19905213270142
48626,Saginaw County,MI,NA,85.46042003231018,NA,NA
48657,Midland County,MI,NA,NA,NA,58.767772511848335
48768,Tuscola County,MI,NA,58.80452342487884,NA,NA
48817,Shiawassee County,MI,NA,NA,80.32490974729242,NA
48836,Livingston County,MI,83.92282958199357,NA,NA,NA
48849,Ionia County,MI,NA,NA,91.51624548736463,NA
48911,Ingham County,MI,NA,6.623586429725363,NA,NA
48917,Eaton County,MI,NA,NA,8.483754512635379,NA
49022,Berrien County,MI,NA,59.77382875605816,NA,NA
49038,Berrien County,MI,NA,NA,84.83754512635379,NA
49058,Barry County,MI,NA,NA,NA,48.81516587677725
49071,Van Buren County,MI,71.70418006430869,NA,NA,NA
49079,Van Buren County,MI,NA,NA,45.30685920577617,NA
49080,Allegan County,MI,NA,NA,40.794223826714806,NA
49091,St. Joseph County,MI,NA,87.39903069466882,NA,NA
49103,Berrien County,MI,NA,NA,90.43321299638988,NA
49253,Lenawee County,MI,NA,97.73828756058158,NA,NA
49285,Ingham County,MI,NA,NA,75.9927797833935,NA
49333,Barry County,MI,NA,NA,68.7725631768953,NA
49419,Allegan County,MI,NA,NA,80.68592057761734,NA
49423,Ottawa County,MI,14.14790996784566,63.65105008077544,NA,NA
49424,Ottawa County,MI,NA,15.347334410339256,NA,NA
49442,Muskegon County,MI,NA,NA,5.054151624548736,NA
49464,Ottawa County,MI,NA,NA,35.55956678700361,NA
49503,Kent County,MI,NA,11.470113085621971,NA,NA
49505,Kent County,MI,93.89067524115757,NA,NA,NA
49506,Kent County,MI,NA,76.57512116316639,NA,NA
49508,Kent County,MI,4.501607717041801,NA,NA,NA
49801,Dickinson County,MI,NA,NA,71.84115523465704,NA
49802,Dickinson County,MI,NA,NA,86.10108303249098,NA
49837,Delta County,MI,NA,55.73505654281099,NA,NA
49855,Marquette County,MI,NA,14.70113085621971,NA,NA
49930,Houghton County,MI,NA,NA,89.35018050541517,NA
49931,Houghton County,MI,NA,NA,NA,72.03791469194313
49935,Iron County,MI,NA,NA,96.93140794223827,NA
55014,Anoka County,MN,NA,68.33602584814217,NA,NA
55041,Wabasha County,MN,NA,NA,NA,56.39810426540285
55045,Chisago County,MN,NA,93.37641357027464,NA,NA
55066,Goodhue County,MN,NA,48.949919224555735,NA,NA
55113,Ramsey County,MN,NA,49.919224555735056,NA,NA
55116,Ramsey County,MN,NA,70.11308562197091,NA,NA
55118,Dakota County,MN,35.69131832797427,53.150242326332794,NA,NA
55124,Dakota County,MN,19.935691318327976,NA,NA,NA
55128,Washington County,MN,NA,51.53473344103393,NA,NA
55303,Anoka County,MN,NA,18.901453957996768,NA,NA
55304,Anoka County,MN,47.58842443729904,NA,NA,NA
55305,Hennepin County,MN,NA,80.93699515347335,NA,NA
55311,Hennepin County,MN,39.87138263665595,NA,NA,NA
55317,Carver County,MN,79.09967845659163,NA,NA,89.0995260663507
55337,Dakota County,MN,19.292604501607716,NA,NA,NA
55350,McLeod County,MN,NA,NA,NA,87.67772511848341
55354,McLeod County,MN,98.71382636655949,NA,NA,NA
55369,Hennepin County,MN,17.363344051446948,NA,NA,NA
55374,Hennepin County,MN,NA,NA,88.4476534296029,NA
55378,Scott County,MN,39.87138263665595,NA,NA,NA
55413,Hennepin County,MN,66.88102893890675,NA,NA,NA
55416,Hennepin County,MN,41.157556270096464,NA,NA,NA
55417,Hennepin County,MN,52.73311897106109,NA,NA,80.56872037914692
55424,Hennepin County,MN,67.84565916398714,NA,NA,NA
55425,Hennepin County,MN,86.49517684887459,NA,NA,NA
55442,Hennepin County,MN,NA,81.74474959612277,NA,NA
55445,Hennepin County,MN,NA,81.421647819063,NA,NA
55448,Anoka County,MN,82.95819935691318,NA,NA,61.61137440758294
55449,Anoka County,MN,11.57556270096463,NA,NA,NA
55731,St. Louis County,MN,NA,96.2843295638126,NA,NA
55746,St. Louis County,MN,NA,NA,31.949458483754512,NA
55792,St. Louis County,MN,NA,NA,30.324909747292416,NA
55804,St. Louis County,MN,NA,NA,35.37906137184115,NA
55806,St. Louis County,MN,NA,27.463651050080774,NA,NA
55904,Olmsted County,MN,NA,38.12600969305331,NA,41.23222748815166
55912,Mower County,MN,NA,31.179321486268176,NA,NA
55921,Houston County,MN,NA,NA,96.57039711191335,NA
55943,Houston County,MN,NA,NA,98.91696750902527,NA
55947,Houston County,MN,NA,NA,90.61371841155234,NA
55981,Wabasha County,MN,NA,NA,92.23826714801444,NA
55987,Winona County,MN,NA,NA,3.9711191335740073,NA
56001,Blue Earth County,MN,15.755627009646304,NA,NA,NA
56031,Martin County,MN,NA,77.54442649434571,NA,NA
56073,Brown County,MN,NA,NA,13.176895306859207,5.213270142180095
56097,Faribault County,MN,NA,NA,97.11191335740072,NA
56187,Nobles County,MN,52.09003215434084,NA,NA,NA
56278,Big Stone County,MN,NA,98.06138933764136,NA,NA
56308,Douglas County,MN,NA,NA,12.996389891696749,NA
56345,Morrison County,MN,NA,NA,NA,18.95734597156398
56347,Todd County,MN,NA,NA,93.68231046931407,NA
56387,Stearns County,MN,78.45659163987139,NA,NA,NA
56425,Crow Wing County,MN,NA,NA,70.03610108303249,NA
56464,Wadena County,MN,90.67524115755627,NA,NA,NA
56479,Todd County,MN,NA,NA,78.33935018050542,NA
56482,Wadena County,MN,NA,51.8578352180937,NA,NA
56501,Becker County,MN,NA,41.35702746365105,NA,NA
56560,Clay County,MN,NA,1.7770597738287561,NA,NA
56601,Beltrami County,MN,5.787781350482315,NA,NA,NA
56636,Itasca County,MN,NA,77.7059773828756,NA,NA
56649,Koochiching County,MN,NA,NA,57.5812274368231,NA
56701,Pennington County,MN,31.832797427652732,21.32471728594507,NA,70.14218009478674
38683,Tippah County,MS,NA,73.66720516962843,NA,NA
38846,Alcorn County,MS,NA,99.35379644588045,NA,NA
39114,Simpson County,MS,NA,NA,NA,96.2085308056872
39204,Hinds County,MS,NA,23.747980613893375,NA,NA
39209,Hinds County,MS,NA,23.909531502423263,NA,NA
39301,Lauderdale County,MS,32.154340836012864,NA,NA,66.35071090047393
39328,Kemper County,MS,NA,97.89983844911147,NA,NA
39345,Newton County,MS,NA,NA,88.8086642599278,NA
39401,Forrest County,MS,NA,NA,89.53068592057761,NA
39531,Harrison County,MS,NA,NA,43.501805054151625,NA
39563,Jackson County,MS,NA,NA,53.61010830324909,NA
39565,Jackson County,MS,NA,NA,NA,88.62559241706161
63011,St. Louis County,MO,NA,NA,NA,9.004739336492891
63017,St. Louis County,MO,NA,68.17447495961227,NA,22.748815165876778
63028,Jefferson County,MO,NA,NA,74.72924187725631,NA
63033,St. Louis County,MO,NA,16.80129240710824,NA,NA
63128,St. Louis County,MO,NA,76.09046849757674,NA,NA
63146,St. Louis County,MO,NA,NA,NA,60.66350710900474
63304,St. Charles County,MO,NA,32.31017770597738,NA,NA
63376,St. Charles County,MO,NA,10.823909531502423,2.888086642599278,NA
63390,Warren County,MO,NA,75.92891760904685,NA,NA
63401,Marion County,MO,NA,50.24232633279483,NA,NA
63845,Mississippi County,MO,NA,76.89822294022616,NA,NA
64015,Jackson County,MO,NA,13.408723747980615,NA,NA
64024,Clay County,MO,NA,19.063004846526656,NA,NA
64029,Jackson County,MO,NA,42.48788368336026,NA,NA
64050,Jackson County,MO,NA,NA,52.166064981949454,NA
64055,Jackson County,MO,NA,NA,8.12274368231047,NA
64060,Clay County,MO,NA,49.11147011308562,NA,NA
64063,Jackson County,MO,NA,42.003231017770595,NA,NA
64078,Cass County,MO,NA,71.72859450726979,NA,NA
64086,Jackson County,MO,50.160771704180064,NA,NA,NA
64093,Johnson County,MO,40.836012861736336,NA,NA,NA
64111,Jackson County,MO,NA,26.009693053311793,NA,NA
64113,Jackson County,MO,NA,70.43618739903069,NA,NA
64114,Jackson County,MO,77.81350482315112,NA,NA,NA
64116,Clay County,MO,NA,25.040387722132472,40.61371841155235,NA
64123,Jackson County,MO,NA,46.203554119547654,NA,NA
64127,Jackson County,MO,NA,5.815831987075929,NA,NA
64129,Jackson County,MO,NA,52.34248788368336,NA,NA
64130,Jackson County,MO,NA,6.78513731825525,NA,NA
64134,Jackson County,MO,6.752411575562702,NA,NA,NA
64485,Andrew County,MO,NA,95.47657512116317,NA,NA
64505,Buchanan County,MO,NA,34.24878836833602,NA,NA
64507,Buchanan County,MO,NA,26.33279483037157,NA,NA
64628,Linn County,MO,72.02572347266882,NA,87.36462093862815,NA
64683,Grundy County,MO,43.40836012861736,63.004846526655896,NA,NA
64735,Henry County,MO,NA,NA,NA,42.65402843601896
64836,Jasper County,MO,NA,NA,27.617328519855594,NA
64850,Newton County,MO,NA,16.63974151857835,NA,NA
64854,McDonald County,MO,NA,90.46849757673667,NA,NA
65043,Callaway County,MO,NA,NA,83.93501805054152,NA
65066,Gasconade County,MO,NA,NA,NA,86.25592417061611
65202,Boone County,MO,2.8938906752411575,NA,NA,19.90521327014218
65251,Callaway County,MO,NA,NA,NA,52.13270142180095
65301,Pettis County,MO,NA,4.038772213247173,NA,NA
65613,Polk County,MO,NA,60.90468497576737,NA,NA
65714,Christian County,MO,NA,50.40387722132472,NA,NA
65781,Greene County,MO,75.88424437299035,NA,NA,NA
65802,Greene County,MO,NA,NA,20.577617328519857,25.59241706161137
65806,Greene County,MO,NA,84.65266558966074,NA,NA
59405,Cascade County,MT,NA,NA,18.231046931407942,NA
59828,Ravalli County,MT,NA,96.60743134087238,NA,NA
68025,Dodge County,NE,NA,NA,NA,14.691943127962084
68136,Sarpy County,NE,NA,85.29886914378028,NA,NA
68144,Douglas County,NE,69.45337620578779,71.5670436187399,NA,NA
68154,Douglas County,NE,91.63987138263666,NA,NA,NA
68410,Otoe County,NE,NA,92.24555735056543,NA,NA
68826,Merrick County,NE,NA,96.76898222940227,87.18411552346569,NA
69101,Lincoln County,NE,NA,NA,24.0072202166065,NA
89101,Clark County,NV,NA,NA,63.718411552346566,NA
89434,Washoe County,NV,NA,NA,34.11552346570397,NA
89436,Washoe County,NV,NA,NA,12.815884476534295,NA
89503,Washoe County,NV,NA,62.52019386106623,NA,NA
89506,Washoe County,NV,34.40514469453376,NA,NA,NA
03042,Rockingham County,NH,NA,NA,81.2274368231047,NA
03053,Rockingham County,NH,NA,NA,23.826714801444044,NA
03077,Rockingham County,NH,64.30868167202573,NA,NA,NA
03079,Rockingham County,NH,NA,77.38287560581584,NA,NA
03110,Hillsborough County,NH,NA,NA,68.59205776173285,NA
03755,Grafton County,NH,NA,NA,NA,93.8388625592417
03894,Carroll County,NH,NA,NA,NA,49.28909952606635
07026,Bergen County,NJ,75.2411575562701,NA,NA,NA
07030,Hudson County,NJ,NA,27.948303715670438,NA,NA
07501,Passaic County,NJ,NA,NA,17.328519855595665,NA
07801,Morris County,NJ,NA,NA,30.144404332129966,NA
08003,Camden County,NJ,NA,NA,NA,25.118483412322274
08033,Camden County,NJ,NA,NA,61.91335740072203,NA
08087,Ocean County,NJ,NA,NA,16.425992779783392,NA
08103,Camden County,NJ,NA,23.424878836833603,NA,NA
08210,Cape May County,NJ,NA,NA,NA,55.92417061611374
08322,Gloucester County,NJ,NA,58.319870759289174,NA,NA
08610,Mercer County,NJ,NA,7.754442649434572,NA,NA
08701,Ocean County,NJ,NA,3.392568659127625,NA,NA
08846,Middlesex County,NJ,62.70096463022507,NA,NA,NA
87102,Bernalillo County,NM,NA,58.64297253634895,NA,NA
87105,Bernalillo County,NM,11.89710610932476,NA,NA,NA
87106,Bernalillo County,NM,NA,57.51211631663974,NA,NA
87108,Bernalillo County,NM,NA,6.462035541195476,6.137184115523466,NA
87109,Bernalillo County,NM,NA,NA,NA,45.497630331753555
87112,Bernalillo County,NM,NA,NA,60.64981949458483,NA
87113,Bernalillo County,NM,NA,NA,97.47292418772562,NA
87114,Bernalillo County,NM,NA,35.21809369951534,NA,NA
87120,Bernalillo County,NM,18.971061093247588,NA,13.718411552346572,NA
87121,Bernalillo County,NM,4.180064308681672,NA,NA,NA
87124,Sandoval County,NM,NA,62.197092084006464,NA,NA
87401,San Juan County,NM,NA,NA,37.545126353790614,NA
10002,New York County,NY,10.289389067524116,NA,NA,NA
10003,New York County,NY,NA,NA,NA,24.170616113744074
10009,New York County,NY,NA,9.208400646203554,NA,NA
10010,New York County,NY,NA,86.59127625201938,NA,NA
10011,New York County,NY,NA,NA,19.67509025270758,NA
10014,New York County,NY,NA,93.53796445880452,NA,NA
10023,New York County,NY,NA,51.050080775444265,NA,NA
10026,New York County,NY,35.36977491961415,NA,NA,NA
10028,New York County,NY,NA,84.16801292407108,NA,NA
10030,New York County,NY,NA,NA,84.65703971119135,NA
10452,Bronx County,NY,1.929260450160772,NA,NA,NA
10458,Bronx County,NY,NA,NA,0.7220216606498195,NA
10467,Bronx County,NY,NA,NA,0.9025270758122743,NA
10543,Westchester County,NY,NA,NA,72.56317689530685,NA
10580,Westchester County,NY,NA,95.15347334410339,NA,NA
10595,Westchester County,NY,NA,87.23747980613894,NA,NA
10701,Westchester County,NY,45.337620578778136,NA,NA,NA
10704,Westchester County,NY,NA,89.49919224555735,NA,NA
11102,Queens County,NY,51.76848874598071,NA,NA,NA
11212,Kings County,NY,1.2861736334405145,NA,NA,NA
11214,Kings County,NY,NA,16.15508885298869,NA,NA
11216,Kings County,NY,NA,NA,57.761732851985556,NA
11222,Kings County,NY,NA,NA,NA,68.24644549763033
11226,Kings County,NY,NA,NA,3.429602888086643,NA
11233,Kings County,NY,7.07395498392283,NA,NA,NA
11234,Kings County,NY,76.84887459807074,NA,NA,NA
11237,Kings County,NY,NA,24.717285945072696,NA,NA
11368,Queens County,NY,13.826366559485532,NA,NA,NA
11414,Queens County,NY,NA,NA,45.667870036101085,NA
11419,Queens County,NY,NA,NA,77.6173285198556,NA
11421,Queens County,NY,NA,NA,55.77617328519856,NA
11426,Queens County,NY,NA,NA,NA,67.77251184834124
11563,Nassau County,NY,NA,85.94507269789983,NA,NA
11598,Nassau County,NY,NA,NA,87.00361010830325,NA
11714,Nassau County,NY,NA,NA,NA,52.60663507109005
11735,Nassau County,NY,NA,61.22778675282714,NA,NA
11741,Suffolk County,NY,NA,NA,85.92057761732852,NA
11747,Suffolk County,NY,NA,NA,NA,54.02843601895735
12010,Montgomery County,NY,NA,24.878836833602584,NA,NA
12020,Saratoga County,NY,NA,NA,25.992779783393498,NA
12043,Schoharie County,NY,NA,NA,NA,66.82464454976304
12078,Fulton County,NY,NA,NA,NA,15.639810426540285
12090,Rensselaer County,NY,56.59163987138264,NA,NA,NA
12210,Albany County,NY,NA,NA,84.29602888086643,NA
12304,Schenectady County,NY,NA,NA,36.8231046931408,NA
12534,Columbia County,NY,NA,NA,20.75812274368231,NA
12803,Saratoga County,NY,88.10289389067523,NA,NA,NA
12918,Clinton County,NY,95.81993569131832,NA,NA,NA
12946,Essex County,NY,81.02893890675242,NA,NA,NA
13021,Cayuga County,NY,7.395498392282958,NA,NA,NA
13030,Madison County,NY,NA,NA,93.14079422382672,NA
13032,Madison County,NY,NA,NA,74.36823104693141,NA
13057,Onondaga County,NY,NA,88.36833602584814,NA,NA
13077,Cortland County,NY,NA,64.29725363489499,NA,NA
13104,Onondaga County,NY,NA,NA,44.04332129963899,NA
13112,Onondaga County,NY,NA,99.03069466882067,NA,NA
13165,Seneca County,NY,NA,63.65105008077544,NA,NA
13166,Cayuga County,NY,NA,NA,95.12635379061372,NA
13203,Onondaga County,NY,NA,NA,53.42960288808665,NA
13204,Onondaga County,NY,36.97749196141479,NA,NA,NA
13208,Onondaga County,NY,26.688102893890676,NA,NA,NA
13326,Otsego County,NY,NA,74.79806138933765,NA,NA
13335,Otsego County,NY,NA,90.14539579967689,99.27797833935018,NA
13340,Herkimer County,NY,NA,59.45072697899838,NA,NA
13413,Oneida County,NY,NA,50.72697899838449,NA,NA
13440,Oneida County,NY,NA,NA,5.776173285198556,NA
13617,St. Lawrence County,NY,NA,NA,NA,47.867298578199055
13668,St. Lawrence County,NY,NA,NA,99.45848375451264,NA
13733,Chenango County,NY,NA,NA,60.83032490974729,NA
13760,Broome County,NY,0.6430868167202572,NA,6.678700361010831,NA
13790,Broome County,NY,NA,9.693053311793214,NA,NA
13833,Broome County,NY,NA,90.79159935379644,NA,NA
13865,Broome County,NY,NA,NA,NA,75.82938388625593
13905,Broome County,NY,NA,NA,5.415162454873646,NA
14004,Erie County,NY,NA,NA,72.74368231046931,NA
14103,Orleans County,NY,NA,47.49596122778675,NA,NA
14108,Niagara County,NY,NA,NA,100,NA
14208,Erie County,NY,NA,30.210016155088855,NA,NA
14210,Erie County,NY,NA,NA,73.46570397111914,NA
14211,Erie County,NY,NA,8.723747980613894,NA,NA
14221,Erie County,NY,NA,11.631663974151857,NA,NA
14224,Erie County,NY,NA,NA,9.025270758122744,NA
14228,Erie County,NY,NA,NA,78.15884476534296,NA
14411,Orleans County,NY,NA,NA,39.16967509025271,NA
14420,Monroe County,NY,NA,15.670436187399032,NA,NA
14424,Ontario County,NY,NA,NA,1.444043321299639,NA
14505,Wayne County,NY,NA,66.23586429725363,NA,NA
14526,Monroe County,NY,NA,NA,15.162454873646208,NA
14534,Monroe County,NY,NA,6.138933764135703,NA,NA
14561,Ontario County,NY,NA,83.68336025848141,NA,NA
14564,Ontario County,NY,NA,21.001615508885298,NA,NA
14580,Monroe County,NY,NA,6.946688206785137,NA,NA
14606,Monroe County,NY,NA,17.77059773828756,NA,NA
14626,Monroe County,NY,NA,18.578352180936992,NA,12.322274881516588
14810,Steuben County,NY,26.366559485530544,NA,NA,NA
14895,Allegany County,NY,NA,29.88691437802908,NA,NA
14905,Chemung County,NY,NA,NA,65.70397111913357,NA
27013,Rowan County,NC,NA,84.97576736672052,NA,NA
27018,Yadkin County,NC,NA,NA,70.3971119133574,NA
27030,Surry County,NC,NA,6.30048465266559,NA,NA
27040,Forsyth County,NC,NA,73.02100161550888,NA,NA
27104,Forsyth County,NC,NA,31.017770597738288,NA,NA
27105,Forsyth County,NC,NA,2.7463651050080773,NA,NA
27217,Alamance County,NC,NA,44.91114701130856,NA,NA
27262,Guilford County,NC,40.51446945337621,NA,NA,NA
27292,Davidson County,NC,NA,4.361873990306947,NA,NA
27406,Guilford County,NC,10.932475884244374,NA,NA,NA
27455,Guilford County,NC,NA,NA,51.624548736462096,NA
27519,Wake County,NC,NA,51.050080775444265,NA,NA
27526,Wake County,NC,NA,26.81744749596123,NA,NA
27529,Wake County,NC,NA,NA,NA,57.345971563981045
27583,Person County,NC,73.95498392282958,NA,NA,NA
27615,Wake County,NC,NA,NA,13.898916967509026,NA
27703,Durham County,NC,NA,NA,11.371841155234657,63.98104265402843
27707,Durham County,NC,NA,NA,8.303249097472925,NA
27713,Durham County,NC,NA,NA,NA,22.274881516587676
27856,Nash County,NC,NA,78.67528271405493,NA,NA
27891,Nash County,NC,NA,NA,91.69675090252709,NA
28025,Cabarrus County,NC,NA,11.147011308562197,NA,NA
28056,Gaston County,NC,NA,NA,76.3537906137184,NA
28120,Gaston County,NC,NA,NA,99.81949458483754,NA
28127,Stanly County,NC,82.63665594855306,NA,NA,NA
28144,Rowan County,NC,NA,37.156704361873985,NA,NA
28301,Cumberland County,NC,NA,NA,NA,54.502369668246445
28379,Richmond County,NC,NA,NA,26.353790613718413,NA
28403,New Hanover County,NC,NA,NA,54.51263537906137,NA
28412,New Hanover County,NC,37.62057877813505,NA,NA,NA
28451,Brunswick County,NC,NA,30.694668820678512,NA,NA
28472,Columbus County,NC,NA,38.28756058158319,NA,NA
28562,Craven County,NC,58.19935691318327,NA,NA,NA
28584,Carteret County,NC,NA,NA,62.63537906137184,NA
28602,Catawba County,NC,NA,NA,NA,65.40284360189574
28625,Iredell County,NC,20.578778135048232,NA,NA,NA
28739,Henderson County,NC,NA,NA,NA,80.09478672985783
28906,Cherokee County,NC,43.08681672025724,NA,NA,23.696682464454977
58103,Cass County,ND,NA,NA,NA,3.7914691943127963
58201,Grand Forks County,ND,NA,33.44103392568659,NA,NA
58401,Stutsman County,ND,NA,NA,67.87003610108303,NA
58501,Burleigh County,ND,NA,54.92730210016155,NA,14.218009478672986
58503,Burleigh County,ND,NA,36.34894991922455,NA,NA
58554,Morton County,ND,NA,NA,27.075812274368232,NA
58701,Ward County,ND,NA,NA,37.36462093862816,4.265402843601896
58801,Williams County,ND,15.434083601286176,NA,NA,NA
43015,Delaware County,OH,NA,NA,NA,10.42654028436019
43017,Franklin County,OH,NA,65.58966074313409,NA,NA
43031,Licking County,OH,NA,NA,85.37906137184116,NA
43050,Knox County,OH,NA,84.81421647819063,NA,NA
43110,Franklin County,OH,NA,NA,39.891696750902526,NA
43130,Fairfield County,OH,NA,NA,3.2490974729241873,NA
43147,Fairfield County,OH,NA,NA,25.63176895306859,NA
43211,Franklin County,OH,22.829581993569132,NA,NA,NA
43213,Franklin County,OH,NA,10.016155088852988,NA,NA
43219,Franklin County,OH,NA,NA,34.29602888086642,NA
43224,Franklin County,OH,31.511254019292608,25.848142164781905,NA,NA
43231,Franklin County,OH,NA,NA,56.13718411552347,NA
43311,Logan County,OH,84.56591639871382,NA,NA,NA
43420,Sandusky County,OH,NA,39.25686591276252,NA,NA
43506,Williams County,OH,NA,NA,24.729241877256317,NA
43512,Defiance County,OH,3.536977491961415,NA,NA,NA
43604,Lucas County,OH,NA,44.4264943457189,NA,NA
43605,Lucas County,OH,14.469453376205788,NA,NA,NA
43607,Lucas County,OH,NA,NA,21.299638989169676,NA
43615,Lucas County,OH,NA,NA,5.234657039711191,NA
43830,Muskingum County,OH,99.03536977491962,NA,NA,NA
43832,Tuscarawas County,OH,NA,NA,64.8014440433213,NA
43952,Jefferson County,OH,50.80385852090033,NA,NA,NA
44001,Lorain County,OH,45.659163987138264,79.64458804523424,NA,12.796208530805686
44004,Ashtabula County,OH,NA,2.4232633279483036,NA,NA
44012,Lorain County,OH,NA,NA,33.2129963898917,13.270142180094787
44030,Ashtabula County,OH,NA,NA,15.342960288808664,NA
44035,Lorain County,OH,NA,NA,8.664259927797833,NA
44041,Ashtabula County,OH,NA,NA,33.57400722021661,NA
44052,Lorain County,OH,NA,3.0694668820678515,NA,NA
44054,Lorain County,OH,NA,NA,36.28158844765343,NA
44055,Lorain County,OH,NA,36.51050080775444,NA,NA
44056,Summit County,OH,NA,NA,NA,84.36018957345972
44067,Summit County,OH,NA,71.08239095315024,20.03610108303249,NA
44070,Cuyahoga County,OH,NA,NA,5.956678700361011,NA
44077,Lake County,OH,NA,3.715670436187399,NA,NA
44087,Summit County,OH,NA,NA,16.24548736462094,NA
44089,Erie County,OH,NA,NA,9.747292418772563,NA
44094,Lake County,OH,NA,19.87075928917609,NA,NA
44095,Lake County,OH,NA,55.25040387722132,NA,NA
44105,Cuyahoga County,OH,NA,0.6462035541195477,NA,6.6350710900473935
44108,Cuyahoga County,OH,NA,3.231017770597738,6.4981949458483745,NA
44110,Cuyahoga County,OH,NA,9.8546042003231,NA,NA
44111,Cuyahoga County,OH,NA,NA,NA,18.48341232227488
44118,Cuyahoga County,OH,NA,42.16478190630048,10.288808664259928,NA
44122,Cuyahoga County,OH,NA,NA,NA,0.9478672985781991
44125,Cuyahoga County,OH,19.614147909967848,1.2924071082390953,NA,NA
44128,Cuyahoga County,OH,NA,17.60904684975767,17.14801444043321,NA
44130,Cuyahoga County,OH,NA,NA,1.6245487364620936,NA
44131,Cuyahoga County,OH,49.839228295819936,NA,NA,NA
44135,Cuyahoga County,OH,NA,3.5541195476575123,NA,NA
44138,Cuyahoga County,OH,NA,35.056542810985455,NA,NA
44143,Cuyahoga County,OH,NA,36.833602584814216,NA,NA
44146,Cuyahoga County,OH,30.86816720257235,NA,2.3465703971119134,NA
44212,Medina County,OH,NA,71.24394184168013,NA,NA
44256,Medina County,OH,NA,56.219709208400644,44.584837545126355,NA
44266,Portage County,OH,NA,9.36995153473344,NA,NA
44281,Medina County,OH,NA,74.95961227786752,13.537906137184116,NA
44310,Summit County,OH,NA,NA,NA,55.45023696682464
44312,Summit County,OH,NA,47.65751211631664,NA,NA
44432,Columbiana County,OH,89.71061093247589,NA,NA,NA
44446,Trumbull County,OH,NA,NA,NA,83.88625592417061
44483,Trumbull County,OH,NA,NA,43.14079422382672,NA
44484,Trumbull County,OH,24.758842443729904,28.91760904684976,43.682310469314075,NA
44505,Mahoning County,OH,NA,33.764135702746366,NA,NA
44601,Stark County,OH,NA,7.269789983844912,NA,NA
44612,Tuscarawas County,OH,NA,NA,97.65342960288808,NA
44667,Wayne County,OH,87.78135048231512,NA,NA,NA
44691,Wayne County,OH,NA,NA,NA,67.29857819905213
44820,Crawford County,OH,NA,NA,11.552346570397113,NA
44857,Huron County,OH,NA,NA,7.9422382671480145,NA
44883,Seneca County,OH,NA,NA,NA,24.644549763033176
44903,Richland County,OH,NA,52.66558966074314,NA,NA
45011,Butler County,OH,76.52733118971061,NA,NA,NA
45039,Warren County,OH,NA,79.48303715670436,63.1768953068592,NA
45044,Butler County,OH,NA,5.492730210016155,NA,NA
45065,Warren County,OH,NA,92.89176090468497,NA,NA
45066,Warren County,OH,NA,NA,47.11191335740072,NA
45067,Butler County,OH,NA,61.066235864297255,NA,NA
45103,Clermont County,OH,NA,NA,87.72563176895306,NA
45113,Clinton County,OH,NA,97.25363489499192,NA,NA
45207,Hamilton County,OH,NA,NA,83.75451263537906,NA
45217,Hamilton County,OH,NA,NA,97.29241877256317,NA
45223,Hamilton County,OH,NA,45.55735056542811,NA,NA
45224,Hamilton County,OH,NA,57.35056542810986,NA,NA
45227,Hamilton County,OH,NA,NA,44.22382671480145,NA
45238,Hamilton County,OH,NA,46.68820678513732,NA,NA
45242,Hamilton County,OH,55.30546623794213,NA,NA,NA
45255,Hamilton County,OH,NA,NA,44.765342960288805,NA
45324,Greene County,OH,NA,10.339256865912763,NA,26.066350710900476
45342,Montgomery County,OH,NA,NA,NA,27.014218009478675
45356,Miami County,OH,NA,NA,NA,31.753554502369667
45429,Montgomery County,OH,NA,NA,86.28158844765343,NA
45458,Montgomery County,OH,NA,NA,12.63537906137184,NA
45459,Montgomery County,OH,NA,65.91276252019385,NA,NA
45601,Ross County,OH,NA,NA,0.18050541516245489,NA
45628,Ross County,OH,NA,NA,NA,77.72511848341233
45640,Jackson County,OH,NA,7.1082390953150245,NA,NA
45651,Vinton County,OH,NA,82.22940226171244,NA,NA
45690,Pike County,OH,NA,NA,NA,30.33175355450237
45714,Washington County,OH,NA,NA,NA,69.66824644549763
45750,Washington County,OH,NA,NA,1.083032490974729,NA
45761,Athens County,OH,NA,NA,99.09747292418773,NA
45764,Athens County,OH,72.02572347266882,NA,NA,NA
45784,Washington County,OH,70.7395498392283,NA,NA,NA
45806,Allen County,OH,NA,66.72051696284329,NA,NA
73005,Caddo County,OK,NA,100,NA,NA
73034,Oklahoma County,OK,NA,29.079159935379646,NA,NA
73065,McClain County,OK,NA,88.52988691437803,NA,NA
73075,Garvin County,OK,NA,93.69951534733441,NA,NA
73109,Oklahoma County,OK,NA,68.82067851373182,NA,NA
73132,Oklahoma County,OK,NA,NA,74.18772563176896,NA
73170,Cleveland County,OK,NA,34.41033925686591,NA,NA
73401,Carter County,OK,NA,13.731825525040387,NA,NA
73501,Comanche County,OK,NA,NA,48.194945848375454,NA
74029,Washington County,OK,94.85530546623794,NA,NA,90.04739336492891
74037,Tulsa County,OK,NA,81.09854604200322,NA,NA
74501,Pittsburg County,OK,38.263665594855304,NA,NA,NA
74820,Pontotoc County,OK,9.967845659163988,NA,5.595667870036101,NA
97055,Clackamas County,OR,NA,NA,51.80505415162455,NA
97116,Washington County,OR,NA,51.69628432956381,NA,NA
97124,Washington County,OR,85.20900321543408,NA,NA,NA
97209,Multnomah County,OR,NA,NA,83.03249097472924,NA
97211,Multnomah County,OR,NA,47.33441033925686,NA,NA
97213,Multnomah County,OR,NA,38.77221324717286,NA,NA
97216,Multnomah County,OR,NA,54.281098546042,NA,NA
97221,Multnomah County,OR,NA,94.34571890145395,NA,NA
97222,Clackamas County,OR,52.73311897106109,31.82552504038772,31.768953068592058,NA
97267,Clackamas County,OR,NA,NA,37.545126353790614,NA
97305,Marion County,OR,66.55948553054662,NA,NA,NA
97321,Linn County,OR,NA,27.62520193861066,NA,NA
97330,Benton County,OR,NA,93.05331179321486,NA,NA
97338,Polk County,OR,NA,NA,39.891696750902526,NA
97352,Marion County,OR,NA,NA,89.16967509025271,NA
97383,Marion County,OR,NA,81.26009693053312,NA,NA
97386,Linn County,OR,NA,NA,NA,74.40758293838863
97411,Coos County,OR,NA,NA,NA,82.93838862559242
97470,Douglas County,OR,NA,NA,24.90974729241877,NA
97477,Lane County,OR,NA,76.25201938610662,NA,NA
97478,Lane County,OR,60.12861736334405,NA,NA,NA
97702,Deschutes County,OR,NA,NA,37.18411552346571,NA
15116,Allegheny County,PA,60.77170418006431,NA,NA,NA
15219,Allegheny County,PA,NA,34.5718901453958,NA,NA
15317,Washington County,PA,4.823151125401929,NA,NA,NA
15401,Fayette County,PA,NA,8.077544426494345,NA,NA
15601,Westmoreland County,PA,5.144694533762058,NA,NA,NA
15801,Clearfield County,PA,31.189710610932476,NA,NA,NA
15931,Cambria County,PA,90.9967845659164,NA,60.46931407942239,NA
16002,Butler County,PA,NA,60.58158319870759,NA,NA
16101,Lawrence County,PA,15.112540192926044,NA,NA,NA
16137,Mercer County,PA,NA,NA,NA,77.25118483412322
16146,Mercer County,PA,NA,24.07108239095315,NA,NA
16407,Erie County,PA,NA,NA,65.52346570397111,NA
16509,Erie County,PA,NA,35.864297253634895,NA,NA
16510,Erie County,PA,NA,NA,41.51624548736462,NA
16749,McKean County,PA,NA,NA,83.21299638989169,NA
16866,Centre County,PA,NA,NA,69.13357400722022,NA
16933,Tioga County,PA,NA,NA,90.25270758122743,NA
17007,Cumberland County,PA,NA,89.66074313408724,NA,NA
17036,Dauphin County,PA,NA,NA,12.274368231046932,NA
17038,Lebanon County,PA,63.022508038585215,NA,70.93862815884476,NA
17042,Lebanon County,PA,9.646302250803858,NA,NA,NA
17044,Mifflin County,PA,NA,12.439418416801292,NA,NA
17046,Lebanon County,PA,NA,10.177705977382875,NA,NA
17067,Lebanon County,PA,NA,69.30533117932148,NA,NA
17078,Lebanon County,PA,NA,NA,NA,69.19431279620854
17201,Franklin County,PA,NA,NA,NA,21.32701421800948
17313,York County,PA,NA,87.88368336025847,NA,NA
17315,York County,PA,73.63344051446946,NA,NA,NA
17331,York County,PA,NA,NA,NA,3.3175355450236967
17402,York County,PA,NA,20.032310177705977,NA,NA
17403,York County,PA,NA,51.37318255250404,NA,NA
17404,York County,PA,NA,11.793214862681744,NA,NA
17516,Lancaster County,PA,92.60450160771704,NA,NA,NA
17519,Lancaster County,PA,91.96141479099678,NA,NA,NA
17815,Columbia County,PA,NA,69.62843295638126,NA,NA
17963,Schuylkill County,PA,NA,NA,75.45126353790613,NA
18013,Northampton County,PA,NA,39.74151857835218,NA,NA
18014,Northampton County,PA,NA,45.718901453958,NA,NA
18036,Lehigh County,PA,NA,NA,33.39350180505416,NA
18080,Lehigh County,PA,NA,NA,74.36823104693141,NA
18091,Northampton County,PA,NA,95.96122778675283,85.1985559566787,NA
18621,Luzerne County,PA,NA,NA,NA,90.99526066350711
18651,Luzerne County,PA,NA,70.92084006462036,NA,NA
18704,Luzerne County,PA,NA,NA,46.02888086642599,NA
18707,Luzerne County,PA,NA,NA,31.227436823104693,NA
18944,Bucks County,PA,NA,56.54281098546042,NA,NA
18951,Bucks County,PA,NA,20.84006462035541,NA,NA
19003,Montgomery County,PA,86.81672025723472,NA,NA,NA
19008,Delaware County,PA,NA,NA,NA,46.44549763033176
19020,Bucks County,PA,NA,8.239095315024231,NA,NA
19061,Delaware County,PA,NA,30.048465266558967,NA,NA
19090,Montgomery County,PA,79.7427652733119,NA,NA,NA
19096,Montgomery County,PA,NA,NA,NA,63.507109004739334
19115,Philadelphia County,PA,NA,20.19386106623586,NA,NA
19116,Philadelphia County,PA,NA,NA,NA,30.80568720379147
19128,Philadelphia County,PA,NA,52.988691437802906,NA,NA
19129,Philadelphia County,PA,NA,67.36672051696284,NA,NA
19138,Philadelphia County,PA,NA,12.924071082390952,NA,NA
19143,Philadelphia County,PA,NA,0.8077544426494345,13.357400722021662,NA
19144,Philadelphia County,PA,NA,23.586429725363487,NA,NA
19151,Philadelphia County,PA,NA,NA,19.314079422382672,NA
19154,Philadelphia County,PA,NA,15.993537964458804,NA,NA
19401,Montgomery County,PA,NA,NA,NA,98.5781990521327
19406,Montgomery County,PA,NA,NA,69.67509025270758,52.60663507109005
19422,Montgomery County,PA,NA,82.06785137318255,NA,NA
19464,Montgomery County,PA,NA,NA,33.03249097472924,NA
19473,Montgomery County,PA,NA,83.19870759289176,NA,NA
19601,Berks County,PA,NA,63.48949919224556,NA,NA
02809,Bristol County,RI,NA,NA,66.60649819494586,NA
02860,Providence County,RI,NA,NA,12.454873646209386,NA
02864,Providence County,RI,NA,NA,17.689530685920577,NA
02879,Washington County,RI,78.77813504823152,NA,NA,NA
02893,Kent County,RI,39.228295819935695,NA,22.92418772563177,NA
02910,Providence County,RI,46.30225080385852,NA,NA,NA
29045,Kershaw County,SC,NA,NA,NA,89.57345971563981
29053,Lexington County,SC,72.66881028938906,NA,NA,NA
29072,Lexington County,SC,68.81028938906752,NA,26.895306859205775,NA
29205,Richland County,SC,NA,NA,92.7797833935018,NA
29223,Richland County,SC,NA,24.55573505654281,NA,NA
29303,Spartanburg County,SC,NA,NA,57.2202166064982,NA
29407,Charleston County,SC,NA,41.51857835218094,NA,20.85308056872038
29414,Charleston County,SC,NA,69.46688206785137,NA,NA
29466,Charleston County,SC,NA,NA,NA,43.127962085308056
29483,Dorchester County,SC,8.681672025723474,NA,NA,NA
29486,Berkeley County,SC,NA,61.873990306946695,NA,NA
29536,Dillon County,SC,NA,58.15831987075929,NA,NA
29550,Darlington County,SC,38.263665594855304,NA,NA,NA
29581,Horry County,SC,NA,NA,NA,93.36492890995261
29617,Greenville County,SC,NA,72.05169628432955,NA,NA
29651,Greenville County,SC,17.684887459807076,NA,NA,NA
29681,Greenville County,SC,NA,NA,15.523465703971121,NA
29693,Oconee County,SC,NA,NA,70.7581227436823,NA
29702,Cherokee County,SC,NA,NA,NA,94.7867298578199
29907,Beaufort County,SC,NA,NA,NA,58.29383886255924
57005,Minnehaha County,SD,NA,NA,73.28519855595668,NA
57006,Brookings County,SD,NA,67.68982229402262,NA,NA
57103,Minnehaha County,SD,NA,NA,4.1516245487364625,NA
57350,Beadle County,SD,NA,59.61227786752828,NA,NA
57401,Brown County,SD,NA,NA,NA,2.843601895734597
57701,Pennington County,SD,NA,20.516962843295637,NA,NA
57785,Meade County,SD,NA,98.86914378029078,NA,NA
37027,Williamson County,TN,42.12218649517685,NA,NA,NA
37075,Sumner County,TN,NA,16.962843295638123,NA,NA
37080,Davidson County,TN,NA,90.95315024232633,NA,NA
37110,Warren County,TN,NA,NA,NA,32.70142180094787
37148,Sumner County,TN,NA,NA,43.86281588447653,NA
37166,DeKalb County,TN,NA,NA,81.40794223826715,NA
37174,Williamson County,TN,NA,NA,36.64259927797834,NA
37209,Davidson County,TN,NA,NA,55.95667870036101,NA
37210,Davidson County,TN,NA,NA,66.4259927797834,NA
37212,Davidson County,TN,NA,NA,93.86281588447653,NA
37324,Franklin County,TN,NA,75.2827140549273,NA,NA
37354,Monroe County,TN,NA,NA,42.238267148014444,NA
37388,Coffee County,TN,NA,35.54119547657512,NA,NA
37411,Hamilton County,TN,NA,41.033925686591274,NA,NA
37701,Blount County,TN,NA,NA,66.60649819494586,NA
37742,Loudon County,TN,NA,NA,91.15523465703971,NA
37804,Blount County,TN,NA,29.563812600969307,NA,NA
37807,Union County,TN,NA,NA,NA,75.82938388625593
37860,Hamblen County,TN,NA,95.63812600969305,NA,NA
37919,Knox County,TN,NA,57.51211631663974,NA,NA
37931,Knox County,TN,28.938906752411576,NA,NA,NA
38017,Shelby County,TN,NA,NA,NA,50.23696682464455
38028,Fayette County,TN,NA,NA,92.96028880866426,NA
38118,Shelby County,TN,NA,NA,55.5956678700361,NA
38125,Shelby County,TN,NA,56.865912762520196,NA,NA
38133,Shelby County,TN,NA,78.51373182552504,NA,NA
38134,Shelby County,TN,NA,39.4184168012924,NA,NA
38139,Shelby County,TN,NA,93.05331179321486,NA,NA
38201,Carroll County,TN,NA,80.61389337641357,NA,NA
38301,Madison County,TN,NA,NA,18.772563176895307,NA
38320,Benton County,TN,NA,NA,71.66064981949458,NA
38401,Maury County,TN,14.790996784565916,NA,NA,NA
75020,Grayson County,TX,NA,NA,NA,45.023696682464454
75038,Dallas County,TX,NA,64.94345718901454,NA,NA
75052,Dallas County,TX,NA,NA,11.913357400722022,NA
75060,Dallas County,TX,NA,43.780290791599356,NA,NA
75116,Dallas County,TX,NA,NA,82.31046931407943,NA
75137,Dallas County,TX,NA,NA,73.46570397111914,NA
75165,Ellis County,TX,NA,28.27140549273021,NA,NA
75181,Dallas County,TX,NA,82.87560581583199,NA,NA
75206,Dallas County,TX,NA,NA,83.5740072202166,NA
75211,Dallas County,TX,NA,NA,22.563176895306857,NA
75217,Dallas County,TX,NA,9.36995153473344,NA,NA
75227,Dallas County,TX,NA,20.35541195476575,NA,NA
75287,Denton County,TX,NA,NA,49.09747292418773,NA
75501,Bowie County,TX,NA,NA,NA,76.77725118483413
75503,Bowie County,TX,75.56270096463022,NA,NA,NA
75702,Smith County,TX,NA,NA,39.71119133574007,NA
75706,Smith County,TX,NA,92.73021001615508,NA,NA
75751,Henderson County,TX,NA,49.75767366720517,NA,NA
75765,Wood County,TX,NA,NA,NA,88.15165876777252
75773,Wood County,TX,NA,NA,NA,17.535545023696685
75840,Freestone County,TX,NA,NA,92.4187725631769,NA
76017,Tarrant County,TX,34.08360128617363,NA,NA,NA
76044,Johnson County,TX,NA,97.4151857835218,NA,NA
76048,Hood County,TX,NA,47.011308562197094,NA,NA
76063,Tarrant County,TX,NA,14.216478190630049,NA,NA
76109,Tarrant County,TX,72.66881028938906,NA,NA,NA
76180,Tarrant County,TX,38.263665594855304,44.4264943457189,NA,NA
76210,Denton County,TX,NA,60.42003231017771,NA,NA
76309,Wichita County,TX,NA,NA,75.63176895306859,NA
76442,Comanche County,TX,NA,89.01453957996769,NA,NA
76446,Erath County,TX,NA,NA,NA,98.10426540284361
76502,Bell County,TX,NA,15.831987075928918,NA,NA
76513,Bell County,TX,NA,8.40064620355412,NA,NA
76548,Bell County,TX,NA,NA,18.95306859205776,NA
76661,Falls County,TX,NA,NA,94.22382671480143,NA
76667,Limestone County,TX,NA,NA,59.74729241877257,NA
76692,Hill County,TX,NA,NA,58.48375451263538,NA
76705,McLennan County,TX,NA,18.416801292407108,72.0216606498195,NA
76901,Tom Green County,TX,NA,52.019386106623585,NA,NA
77008,Harris County,TX,NA,65.75121163166398,NA,NA
77011,Harris County,TX,74.59807073954984,NA,NA,NA
77015,Harris County,TX,NA,NA,NA,64.92890995260665
77016,Harris County,TX,NA,44.74959612277868,NA,NA
77034,Harris County,TX,NA,61.55088852988692,NA,NA
77043,Harris County,TX,65.59485530546624,NA,NA,NA
77057,Harris County,TX,92.28295819935691,NA,NA,NA
77066,Harris County,TX,NA,98.70759289176091,NA,NA
77072,Harris County,TX,26.688102893890676,NA,NA,NA
77079,Harris County,TX,NA,76.73667205169629,58.48375451263538,NA
77084,Harris County,TX,NA,NA,23.104693140794225,NA
77354,Montgomery County,TX,28.617363344051448,NA,NA,NA
77365,Montgomery County,TX,NA,52.827140549273025,NA,NA
77373,Harris County,TX,NA,30.37156704361874,NA,NA
77388,Harris County,TX,NA,NA,33.935018050541515,NA
77406,Fort Bend County,TX,NA,NA,28.51985559566787,NA
77429,Harris County,TX,12.861736334405144,NA,NA,NA
77450,Harris County,TX,NA,40.54927302100161,NA,NA
77471,Fort Bend County,TX,NA,40.87237479806139,NA,NA
77484,Waller County,TX,NA,91.2762520193861,NA,NA
77489,Fort Bend County,TX,NA,32.63327948303716,NA,NA
77539,Galveston County,TX,NA,21.97092084006462,NA,NA
77551,Galveston County,TX,NA,26.494345718901453,NA,NA
77563,Galveston County,TX,NA,NA,NA,53.55450236966824
77573,Galveston County,TX,1.607717041800643,NA,4.873646209386282,NA
77581,Brazoria County,TX,NA,31.82552504038772,NA,NA
77591,Galveston County,TX,25.723472668810288,NA,NA,NA
77612,Jasper County,TX,NA,88.20678513731825,NA,NA
77619,Jefferson County,TX,NA,95.31502423263328,NA,NA
77651,Jefferson County,TX,NA,NA,NA,75.35545023696683
77707,Jefferson County,TX,NA,NA,75.27075812274369,NA
77833,Washington County,TX,NA,NA,NA,19.431279620853083
77845,Brazos County,TX,10.932475884244374,NA,NA,NA
78210,Bexar County,TX,NA,25.525040387722132,NA,NA
78233,Bexar County,TX,NA,44.26494345718901,NA,NA
78237,Bexar County,TX,NA,32.14862681744749,NA,NA
78244,Bexar County,TX,NA,NA,91.87725631768953,NA
78245,Bexar County,TX,NA,NA,49.63898916967509,NA
78247,Bexar County,TX,NA,55.896607431340875,NA,NA
78250,Bexar County,TX,16.720257234726688,NA,NA,NA
78372,Jim Wells County,TX,NA,91.92245557350566,NA,NA
78410,Nueces County,TX,NA,NA,74.90974729241877,NA
78520,Cameron County,TX,NA,NA,27.79783393501805,NA
78526,Cameron County,TX,NA,NA,62.27436823104693,NA
78550,Cameron County,TX,NA,NA,NA,33.649289099526065
78552,Cameron County,TX,NA,NA,68.41155234657039,NA
78613,Williamson County,TX,NA,35.70274636510501,52.707581227436826,NA
78626,Williamson County,TX,NA,NA,46.20938628158845,NA
78633,Williamson County,TX,NA,NA,1.9855595667870036,NA
78639,Llano County,TX,NA,NA,42.96028880866426,NA
78641,Williamson County,TX,NA,NA,19.67509025270758,NA
78643,Llano County,TX,NA,NA,82.12996389891697,NA
78645,Travis County,TX,NA,NA,64.8014440433213,NA
78664,Williamson County,TX,66.2379421221865,NA,NA,NA
78666,Hays County,TX,NA,27.30210016155089,NA,NA
78669,Travis County,TX,NA,NA,90.07220216606498,NA
78681,Williamson County,TX,93.56913183279742,NA,NA,NA
78738,Travis County,TX,62.37942122186495,NA,NA,NA
78744,Travis County,TX,42.765273311897104,NA,NA,NA
78753,Travis County,TX,NA,65.10500807754443,NA,NA
78757,Travis County,TX,NA,NA,NA,74.88151658767772
79109,Randall County,TX,39.228295819935695,NA,NA,NA
79403,Lubbock County,TX,NA,NA,NA,79.62085308056872
79423,Lubbock County,TX,NA,NA,22.20216606498195,NA
79549,Scurry County,TX,NA,NA,NA,59.241706161137444
79605,Taylor County,TX,42.443729903536976,NA,NA,NA
79764,Ector County,TX,NA,59.2891760904685,NA,NA
79925,El Paso County,TX,NA,NA,51.26353790613718,NA
84004,Utah County,UT,94.21221864951768,NA,NA,NA
84009,Salt Lake County,UT,NA,NA,59.205776173285194,NA
84010,Davis County,UT,NA,43.29563812600969,NA,NA
84032,Wasatch County,UT,57.556270096463024,NA,NA,NA
84037,Davis County,UT,NA,72.37479806138933,NA,NA
84044,Salt Lake County,UT,NA,46.849757673667206,NA,NA
84075,Davis County,UT,NA,74.47495961227787,NA,NA
84087,Davis County,UT,NA,NA,82.31046931407943,NA
84088,Salt Lake County,UT,NA,39.09531502423263,NA,NA
84094,Salt Lake County,UT,29.903536977491964,NA,NA,NA
84096,Salt Lake County,UT,NA,78.19063004846527,NA,NA
84098,Summit County,UT,NA,NA,46.931407942238266,NA
84118,Salt Lake County,UT,NA,18.73990306946688,NA,NA
84119,Salt Lake County,UT,NA,43.94184168012924,NA,NA
84120,Salt Lake County,UT,NA,NA,20.938628158844764,NA
84121,Salt Lake County,UT,NA,NA,18.4115523465704,NA
84123,Salt Lake County,UT,32.79742765273312,NA,NA,NA
84124,Salt Lake County,UT,NA,NA,66.06498194945848,NA
84660,Utah County,UT,43.40836012861736,NA,NA,NA
84721,Iron County,UT,NA,NA,65.16245487364621,NA
84737,Washington County,UT,74.59807073954984,NA,NA,NA
05478,Franklin County,VT,NA,NA,32.67148014440433,NA
20109,Prince William County,VA,NA,34.733441033925686,NA,NA
20120,Fairfax County,VA,NA,NA,72.92418772563177,NA
20186,Fauquier County,VA,NA,84.32956381260097,70.21660649819495,NA
22003,Fairfax County,VA,NA,32.956381260096926,NA,NA
22032,Fairfax County,VA,NA,68.98222940226171,NA,NA
22039,Fairfax County,VA,NA,83.36025848142164,NA,NA
22043,Fairfax County,VA,NA,NA,76.71480144404332,NA
22150,Fairfax County,VA,NA,56.38126009693053,NA,NA
22191,Prince William County,VA,NA,18.093699515347332,NA,NA
22202,Arlington County,VA,NA,NA,85.74007220216606,NA
22205,Arlington County,VA,NA,NA,83.39350180505414,NA
22206,Arlington County,VA,NA,61.389337641357024,NA,NA
22207,Arlington County,VA,NA,NA,41.87725631768953,NA
22301,Alexandria city,VA,NA,NA,96.028880866426,NA
22304,Alexandria city,VA,32.475884244372985,NA,NA,45.97156398104265
22508,Orange County,VA,NA,NA,91.33574007220217,NA
22701,Culpeper County,VA,NA,77.22132471728594,NA,NA
22911,Albemarle County,VA,NA,NA,NA,79.14691943127961
22980,Waynesboro city,VA,NA,NA,4.512635379061372,28.90995260663507
23061,Gloucester County,VA,NA,68.33602584814217,NA,NA
23103,Goochland County,VA,NA,NA,NA,95.73459715639811
23112,Chesterfield County,VA,87.45980707395499,NA,NA,NA
23188,James City County,VA,NA,NA,3.6101083032490973,NA
23224,Richmond city,VA,NA,NA,31.046931407942242,NA
23320,Chesapeake city,VA,26.04501607717042,NA,NA,NA
23325,Chesapeake city,VA,NA,NA,62.27436823104693,NA
23434,Suffolk city,VA,NA,NA,NA,18.009478672985782
23451,Virginia Beach city,VA,NA,NA,NA,7.109004739336493
23454,Virginia Beach city,VA,NA,NA,NA,9.47867298578199
23455,Virginia Beach city,VA,NA,NA,9.2057761732852,NA
23462,Virginia Beach city,VA,NA,19.547657512116317,NA,NA
23464,Virginia Beach city,VA,NA,17.12439418416801,NA,NA
23518,Norfolk city,VA,NA,NA,29.24187725631769,NA
23602,Newport News city,VA,NA,30.8562197092084,NA,NA
23669,Hampton city,VA,36.655948553054664,NA,NA,NA
23703,Portsmouth city,VA,49.19614147909968,NA,NA,NA
24012,Roanoke city,VA,NA,66.07431340872375,NA,NA
24014,Roanoke city,VA,NA,NA,29.061371841155236,NA
24095,Bedford County,VA,NA,94.66882067851373,NA,NA
24151,Franklin County,VA,NA,NA,50.361010830324915,NA
24333,Galax city,VA,NA,50.080775444264944,NA,NA
98012,Snohomish County,WA,NA,32.47172859450727,NA,NA
98022,King County,WA,NA,NA,22.743682310469314,NA
98030,King County,WA,NA,25.68659127625202,NA,NA
98031,King County,WA,NA,NA,50.722021660649816,NA
98034,King County,WA,71.06109324758843,NA,NA,NA
98040,King County,WA,68.48874598070739,NA,NA,NA
98042,King County,WA,NA,17.932148626817447,NA,NA
98055,King County,WA,NA,NA,NA,97.6303317535545
98057,King County,WA,NA,84.00646203554119,NA,NA
98058,King County,WA,NA,NA,22.021660649819495,NA
98059,King County,WA,NA,NA,27.79783393501805,NA
98072,King County,WA,NA,NA,56.49819494584838,NA
98087,Snohomish County,WA,46.94533762057878,NA,NA,NA
98092,King County,WA,17.041800643086816,NA,NA,NA
98101,King County,WA,97.10610932475883,NA,NA,NA
98115,King County,WA,62.057877813504824,37.964458804523424,NA,NA
98119,King County,WA,NA,NA,75.81227436823104,NA
98126,King County,WA,61.41479099678456,NA,NA,NA
98166,King County,WA,NA,81.90630048465266,NA,NA
98204,Snohomish County,WA,NA,26.17124394184168,NA,NA
98223,Snohomish County,WA,NA,25.363489499192244,NA,NA
98226,Whatcom County,WA,NA,NA,36.101083032490976,NA
98249,Island County,WA,NA,NA,NA,81.99052132701422
98260,Island County,WA,NA,NA,77.25631768953069,NA
98271,Snohomish County,WA,NA,NA,50.90252707581227,NA
98274,Skagit County,WA,NA,NA,NA,36.018957345971565
98282,Island County,WA,NA,NA,38.44765342960289,NA
98296,Snohomish County,WA,NA,NA,65.88447653429603,NA
98321,Pierce County,WA,NA,NA,67.32851985559567,NA
98327,Pierce County,WA,69.45337620578779,NA,NA,NA
98329,Pierce County,WA,NA,NA,78.51985559566786,NA
98339,Jefferson County,WA,NA,99.51534733441034,NA,NA
98367,Kitsap County,WA,NA,NA,46.3898916967509,NA
98372,Pierce County,WA,NA,62.68174474959613,NA,NA
98382,Clallam County,WA,NA,NA,NA,2.3696682464454977
98387,Pierce County,WA,20.90032154340836,24.394184168012924,23.28519855595668,NA
98403,Pierce County,WA,NA,NA,93.14079422382672,NA
98406,Pierce County,WA,NA,NA,52.52707581227437,NA
98445,Pierce County,WA,NA,NA,56.85920577617328,NA
98499,Pierce County,WA,NA,47.172859450726975,NA,NA
98531,Lewis County,WA,NA,NA,76.53429602888086,NA
98663,Clark County,WA,NA,78.35218093699515,NA,NA
98682,Clark County,WA,NA,NA,NA,40.28436018957346
98683,Clark County,WA,NA,NA,NA,47.39336492890995
98812,Okanogan County,WA,NA,NA,98.014440433213,NA
98848,Grant County,WA,NA,97.5767366720517,NA,NA
98851,Grant County,WA,NA,96.12277867528272,NA,NA
98901,Yakima County,WA,NA,58.966074313408726,NA,NA
98902,Yakima County,WA,65.27331189710611,NA,NA,NA
98903,Yakima County,WA,NA,73.34410339256866,NA,NA
99021,Spokane County,WA,NA,NA,92.05776173285199,NA
99037,Spokane County,WA,77.491961414791,NA,NA,NA
99141,Stevens County,WA,NA,NA,96.38989169675091,NA
99156,Pend Oreille County,WA,NA,88.69143780290791,NA,NA
99212,Spokane County,WA,NA,NA,71.29963898916968,NA
99216,Spokane County,WA,NA,NA,75.09025270758123,NA
99301,Franklin County,WA,2.2508038585209005,NA,NA,NA
99324,Walla Walla County,WA,NA,85.94507269789983,NA,NA
99352,Benton County,WA,NA,NA,NA,7.5829383886255926
20003,District of Columbia,DC,80.70739549839229,NA,42.057761732851986,NA
20009,District of Columbia,DC,NA,NA,44.94584837545126,NA
20011,District of Columbia,DC,NA,NA,NA,9.95260663507109
20012,District of Columbia,DC,96.78456591639872,NA,NA,NA
20019,District of Columbia,DC,NA,NA,28.700361010830328,NA
20020,District of Columbia,DC,NA,2.2617124394184165,7.039711191335741,NA
25314,Kanawha County,WV,NA,NA,46.57039711191336,NA
25401,Berkeley County,WV,NA,38.44911147011308,NA,NA
25404,Berkeley County,WV,NA,41.84168012924071,NA,NA
26003,Ohio County,WV,NA,NA,3.068592057761733,NA
26047,Hancock County,WV,NA,NA,53.97111913357401,NA
26301,Harrison County,WV,NA,52.50403877221325,NA,NA
26505,Monongalia County,WV,NA,NA,NA,21.80094786729858
26554,Marion County,WV,NA,NA,15.703971119133575,NA
53014,Calumet County,WI,NA,90.30694668820679,NA,NA
53024,Ozaukee County,WI,NA,NA,56.678700361010826,81.04265402843602
53029,Waukesha County,WI,NA,68.0129240710824,NA,NA
53066,Waukesha County,WI,NA,42.64943457189014,NA,NA
53090,Washington County,WI,NA,NA,51.44404332129964,NA
53092,Ozaukee County,WI,NA,NA,72.20216606498195,NA
53098,Dodge County,WI,NA,67.85137318255249,NA,NA
53105,Racine County,WI,NA,NA,11.552346570397113,NA
53142,Kenosha County,WI,NA,NA,57.03971119133574,NA
53146,Waukesha County,WI,NA,NA,94.58483754512635,NA
53149,Waukesha County,WI,NA,74.31340872374797,NA,NA
53151,Waukesha County,WI,NA,42.81098546042003,NA,NA
53158,Kenosha County,WI,NA,NA,62.996389891696744,NA
53186,Waukesha County,WI,NA,64.45880452342489,NA,NA
53202,Milwaukee County,WI,NA,NA,43.32129963898917,NA
53204,Milwaukee County,WI,NA,NA,NA,86.7298578199052
53207,Milwaukee County,WI,NA,89.17609046849758,NA,NA
53209,Milwaukee County,WI,0.964630225080386,2.9079159935379644,NA,NA
53212,Milwaukee County,WI,NA,NA,14.801444043321299,NA
53221,Milwaukee County,WI,23.79421221864952,NA,21.841155234657037,NA
53402,Racine County,WI,NA,NA,54.151624548736464,NA
53511,Rock County,WI,NA,7.431340872374798,0.5415162454873645,0
53534,Rock County,WI,67.52411575562701,NA,NA,NA
53536,Rock County,WI,NA,NA,98.37545126353791,NA
53546,Rock County,WI,NA,NA,4.693140794223827,11.374407582938389
53548,Rock County,WI,NA,NA,25.09025270758123,NA
53562,Dane County,WI,48.231511254019296,NA,NA,NA
53566,Green County,WI,NA,NA,54.332129963898915,NA
53572,Dane County,WI,NA,91.11470113085622,NA,NA
53593,Dane County,WI,47.266881028938904,NA,NA,NA
53704,Dane County,WI,NA,NA,18.050541516245488,NA
53716,Dane County,WI,NA,NA,94.04332129963899,NA
53954,Columbia County,WI,89.38906752411575,NA,NA,NA
54001,Polk County,WI,NA,53.95799676898223,NA,NA
54129,Calumet County,WI,NA,99.19224555735056,NA,NA
54169,Calumet County,WI,92.92604501607717,NA,NA,NA
54311,Brown County,WI,NA,NA,26.714801444043324,NA
54313,Brown County,WI,NA,64.13570274636511,NA,NA
54457,Wood County,WI,NA,NA,60.108303249097474,NA
54481,Portage County,WI,33.440514469453376,NA,NA,NA
54494,Wood County,WI,NA,33.2794830371567,33.754512635379065,73.45971563981043
54495,Wood County,WI,NA,NA,79.6028880866426,90.52132701421802
54521,Vilas County,WI,NA,NA,70.57761732851986,NA
54603,La Crosse County,WI,NA,NA,NA,50.71090047393365
54650,La Crosse County,WI,85.53054662379421,NA,NA,NA
54751,Dunn County,WI,NA,NA,NA,17.061611374407583
54755,Buffalo County,WI,NA,NA,73.82671480144406,NA
54853,Polk County,WI,NA,NA,77.07581227436823,NA
54901,Winnebago County,WI,28.29581993569132,NA,NA,NA
54914,Outagamie County,WI,NA,NA,53.79061371841155,NA
54923,Green Lake County,WI,NA,NA,88.26714801444044,NA
82007,Laramie County,WY,NA,NA,89.89169675090253,NA
82604,Natrona County,WY,95.17684887459808,NA,NA,NA
82633,Converse County,WY,NA,NA,NA,99.52606635071089
