ZipCode,county,state,Adult,Retirement,Geriatric
35071,Jefferson County,AL,NA,NA,58.60058309037901
35094,Jefferson County,AL,NA,85.47140649149922,NA
35203,Jefferson County,AL,NA,97.06336939721793,NA
35405,Tuscaloosa County,AL,28.785046728971963,NA,NA
35503,Walker County,AL,81.49532710280374,NA,NA
35546,Fayette County,AL,NA,NA,93.87755102040816
35563,Marion County,AL,85.79439252336448,NA,NA
35565,Winston County,AL,NA,NA,90.0874635568513
35630,Lauderdale County,AL,NA,NA,43.14868804664723
35640,Morgan County,AL,30.654205607476637,NA,NA
35654,Franklin County,AL,NA,NA,90.37900874635568
35674,Colbert County,AL,NA,74.80680061823803,NA
35906,Etowah County,AL,NA,73.41576506955178,NA
35907,Etowah County,AL,NA,92.11746522411129,NA
36301,Houston County,AL,NA,47.60432766615147,NA
36360,Dale County,AL,42.05607476635514,NA,NA
36375,Geneva County,AL,68.78504672897196,NA,NA
36530,Baldwin County,AL,78.50467289719626,NA,NA
36582,Mobile County,AL,43.73831775700935,NA,NA
36604,Mobile County,AL,82.05607476635514,NA,NA
36695,Mobile County,AL,30.2803738317757,NA,NA
36870,Lee County,AL,NA,67.38794435857805,NA
36877,Lee County,AL,NA,64.14219474497682,NA
99502,Anchorage Municipality,AK,72.89719626168224,NA,NA
85015,Maricopa County,AZ,16.074766355140188,NA,NA
85019,Maricopa County,AZ,64.11214953271028,NA,NA
85051,Maricopa County,AZ,38.87850467289719,NA,NA
85086,Maricopa County,AZ,NA,39.10355486862442,NA
85120,Pinal County,AZ,NA,NA,29.44606413994169
85142,Maricopa County,AZ,7.102803738317758,NA,NA
85257,Maricopa County,AZ,NA,62.442040185471406,NA
85281,Maricopa County,AZ,31.588785046728972,NA,NA
85344,La Paz County,AZ,63.55140186915887,NA,NA
85603,Cochise County,AZ,NA,72.95208655332303,NA
85710,Pima County,AZ,NA,13.601236476043276,NA
85712,Pima County,AZ,49.1588785046729,NA,NA
85901,Navajo County,AZ,83.73831775700936,NA,NA
86046,Coconino County,AZ,NA,87.4806800618238,NA
86047,Navajo County,AZ,NA,30.29366306027821,NA
86351,Yavapai County,AZ,NA,NA,75.21865889212827
71603,Jefferson County,AR,30.467289719626166,NA,NA
71635,Ashley County,AR,74.57943925233644,NA,NA
71646,Ashley County,AR,NA,84.85316846986089,NA
72002,Saline County,AR,62.42990654205608,NA,NA
72019,Saline County,AR,65.23364485981308,NA,NA
72021,Monroe County,AR,NA,88.56259659969088,NA
72023,Lonoke County,AR,NA,NA,43.731778425655975
72076,Pulaski County,AR,NA,33.23029366306028,NA
72104,Hot Spring County,AR,51.58878504672897,NA,NA
72118,Pulaski County,AR,NA,57.95981452859351,NA
72160,Arkansas County,AR,NA,75.11591962905719,NA
72401,Craighead County,AR,NA,9.428129829984544,NA
72404,Craighead County,AR,NA,70.01545595054097,NA
72472,Poinsett County,AR,NA,80.68006182380216,NA
72476,Lawrence County,AR,NA,NA,95.6268221574344
72501,Independence County,AR,NA,59.19629057187017,NA
72543,Cleburne County,AR,80.74766355140187,NA,NA
72601,Boone County,AR,NA,NA,17.784256559766764
72653,Baxter County,AR,90.46728971962617,18.083462132921174,83.6734693877551
72756,Benton County,AR,NA,32.766615146831526,NA
90001,Los Angeles County,CA,NA,NA,56.268221574344025
90016,Los Angeles County,CA,38.31775700934579,NA,NA
90023,Los Angeles County,CA,63.36448598130842,NA,NA
90034,Los Angeles County,CA,NA,49.92272024729521,NA
90046,Los Angeles County,CA,NA,87.01700154559505,NA
90063,Los Angeles County,CA,NA,NA,53.06122448979592
90066,Los Angeles County,CA,39.4392523364486,NA,NA
90220,Los Angeles County,CA,28.598130841121495,NA,NA
90266,Los Angeles County,CA,55.700934579439256,NA,NA
90303,Los Angeles County,CA,85.98130841121495,NA,NA
90503,Los Angeles County,CA,71.77570093457943,NA,NA
90601,Los Angeles County,CA,NA,NA,38.775510204081634
90603,Los Angeles County,CA,89.34579439252337,NA,NA
90605,Los Angeles County,CA,51.02803738317757,NA,NA
90640,Los Angeles County,CA,NA,NA,28.86297376093295
90723,Los Angeles County,CA,NA,66.61514683153014,NA
90807,Los Angeles County,CA,NA,NA,51.89504373177842
91206,Los Angeles County,CA,NA,NA,8.16326530612245
91301,Los Angeles County,CA,NA,69.08809891808346,NA
91304,Los Angeles County,CA,NA,NA,14.868804664723031
91356,Los Angeles County,CA,NA,NA,22.448979591836736
91367,Los Angeles County,CA,85.23364485981308,NA,NA
91423,Los Angeles County,CA,NA,NA,46.647230320699705
91505,Los Angeles County,CA,NA,NA,66.76384839650146
91755,Los Angeles County,CA,87.4766355140187,NA,NA
91977,San Diego County,CA,61.12149532710281,NA,NA
92028,San Diego County,CA,56.63551401869159,NA,NA
92029,San Diego County,CA,94.57943925233646,NA,NA
92037,San Diego County,CA,NA,NA,21.282798833819243
92040,San Diego County,CA,NA,NA,64.43148688046647
92122,San Diego County,CA,NA,NA,48.39650145772595
92201,Riverside County,CA,NA,84.23493044822257,NA
92211,Riverside County,CA,NA,7.2642967542503865,0
92234,Riverside County,CA,NA,68.31530139103555,NA
92236,Riverside County,CA,NA,75.27047913446677,NA
92262,Riverside County,CA,18.13084112149533,NA,NA
92264,Riverside County,CA,96.6355140186916,94.74497681607419,NA
92276,Riverside County,CA,NA,77.74343122102009,NA
92311,San Bernardino County,CA,NA,NA,44.606413994169095
92345,San Bernardino County,CA,NA,11.746522411128284,NA
92395,San Bernardino County,CA,24.485981308411215,NA,NA
92553,Riverside County,CA,NA,84.08037094281299,NA
92567,Riverside County,CA,NA,90.57187017001546,NA
92660,Orange County,CA,NA,38.639876352395675,NA
92704,Orange County,CA,NA,80.06182380216383,NA
92804,Orange County,CA,12.52336448598131,NA,NA
92868,Orange County,CA,NA,76.35239567233386,NA
92880,Riverside County,CA,18.878504672897193,NA,NA
92886,Orange County,CA,NA,NA,22.448979591836736
93003,Ventura County,CA,NA,NA,11.661807580174926
93010,Ventura County,CA,NA,23.338485316846985,NA
93065,Ventura County,CA,NA,18.547140649149924,NA
93536,Los Angeles County,CA,NA,NA,47.23032069970846
93614,Madera County,CA,NA,NA,76.0932944606414
93618,Tulare County,CA,NA,70.47913446676971,NA
93638,Madera County,CA,NA,NA,50.72886297376093
93657,Fresno County,CA,50.654205607476634,42.040185471406495,NA
93706,Fresno County,CA,NA,NA,78.71720116618076
93720,Fresno County,CA,NA,23.493044822256568,NA
93722,Fresno County,CA,NA,46.986089644513136,NA
93955,Monterey County,CA,34.76635514018692,NA,NA
94002,San Mateo County,CA,NA,38.02163833075734,NA
94066,San Mateo County,CA,NA,NA,9.620991253644315
94115,San Francisco County,CA,43.55140186915888,NA,NA
94301,Santa Clara County,CA,NA,83.30757341576506,NA
94501,Alameda County,CA,NA,42.65842349304482,NA
94509,Contra Costa County,CA,NA,NA,15.160349854227405
94513,Contra Costa County,CA,59.813084112149525,NA,NA
94523,Contra Costa County,CA,NA,54.404945904173104,NA
94531,Contra Costa County,CA,NA,NA,39.650145772594755
94536,Alameda County,CA,NA,NA,18.367346938775512
94544,Alameda County,CA,NA,10.664605873261205,NA
94558,Napa County,CA,NA,NA,2.623906705539359
94561,Contra Costa County,CA,NA,45.28593508500773,52.1865889212828
94565,Contra Costa County,CA,NA,5.873261205564142,NA
94566,Alameda County,CA,NA,35.85780525502319,NA
94580,Alameda County,CA,NA,NA,57.434402332361515
94588,Alameda County,CA,NA,68.46986089644514,NA
94591,Solano County,CA,NA,37.557959814528594,55.39358600583091
94598,Contra Costa County,CA,NA,51.777434312210204,59.183673469387756
94602,Alameda County,CA,NA,57.03245749613601,64.72303206997084
94605,Alameda County,CA,NA,21.174652241112828,NA
94903,Marin County,CA,NA,NA,9.037900874635568
94939,Marin County,CA,NA,NA,90.67055393586006
94960,Marin County,CA,NA,77.43431221020093,NA
95008,Santa Clara County,CA,NA,NA,24.78134110787172
95037,Santa Clara County,CA,NA,30.139103554868623,NA
95051,Santa Clara County,CA,NA,NA,35.56851311953353
95124,Santa Clara County,CA,NA,36.321483771251934,NA
95125,Santa Clara County,CA,43.177570093457945,NA,NA
95133,Santa Clara County,CA,81.6822429906542,NA,NA
95212,San Joaquin County,CA,73.27102803738318,NA,NA
95240,San Joaquin County,CA,NA,43.7403400309119,NA
95340,Merced County,CA,NA,NA,69.67930029154519
95355,Stanislaus County,CA,29.1588785046729,NA,NA
95356,Stanislaus County,CA,NA,41.26738794435858,NA
95361,Stanislaus County,CA,36.63551401869159,NA,NA
95367,Stanislaus County,CA,NA,89.18083462132921,NA
95370,Tuolumne County,CA,NA,2.7820710973724885,NA
95376,San Joaquin County,CA,NA,NA,73.46938775510205
95380,Stanislaus County,CA,NA,17.928902627511594,NA
95404,Sonoma County,CA,NA,25.50231839258114,NA
95405,Sonoma County,CA,NA,52.55023183925811,67.3469387755102
95619,El Dorado County,CA,93.27102803738318,NA,NA
95624,Sacramento County,CA,NA,NA,37.02623906705539
95648,Placer County,CA,NA,22.720247295208658,NA
95747,Placer County,CA,NA,38.33075734157651,NA
95823,Sacramento County,CA,NA,16.69242658423493,NA
95825,Sacramento County,CA,NA,NA,36.44314868804665
95966,Butte County,CA,NA,36.93972179289026,NA
95971,Plumas County,CA,NA,NA,85.71428571428571
95993,Sutter County,CA,41.86915887850468,NA,NA
96080,Tehama County,CA,NA,NA,38.775510204081634
80015,Arapahoe County,CO,15.700934579439252,71.87017001545595,81.34110787172013
80020,Broomfield County,CO,NA,30.44822256568779,NA
80118,Douglas County,CO,NA,NA,86.0058309037901
80128,Jefferson County,CO,NA,NA,87.46355685131195
80132,El Paso County,CO,NA,57.18701700154559,NA
80204,Denver County,CO,80.18691588785046,NA,NA
80205,Denver County,CO,11.401869158878505,NA,NA
80210,Denver County,CO,74.01869158878505,NA,NA
80503,Boulder County,CO,NA,NA,42.565597667638485
80516,Weld County,CO,NA,83.9258114374034,NA
80524,Larimer County,CO,26.72897196261682,NA,NA
80538,Larimer County,CO,NA,6.491499227202473,NA
80634,Weld County,CO,NA,1.2364760432766615,60.34985422740525
80831,El Paso County,CO,NA,NA,80.75801749271136
80907,El Paso County,CO,NA,NA,46.35568513119534
80918,El Paso County,CO,NA,65.68778979907263,NA
81001,Pueblo County,CO,NA,NA,53.64431486880466
81005,Pueblo County,CO,NA,21.947449768160745,NA
81007,Pueblo County,CO,40,NA,NA
81101,Alamosa County,CO,86.35514018691589,NA,NA
81211,Chaffee County,CO,NA,85.31684698608964,NA
81401,Montrose County,CO,NA,38.794435857805254,NA
81503,Mesa County,CO,NA,81.14374034003092,NA
06001,Hartford County,CT,92.71028037383178,NA,NA
06010,Hartford County,CT,1.1214953271028036,NA,NA
06013,Hartford County,CT,88.97196261682242,NA,NA
06053,Hartford County,CT,NA,NA,41.98250728862974
06074,Hartford County,CT,NA,NA,60.932944606414
06119,Hartford County,CT,NA,75.8887171561051,NA
06413,Middlesex County,CT,78.31775700934578,NA,NA
06450,New Haven County,CT,NA,42.81298299845441,NA
06492,New Haven County,CT,NA,61.66924265842349,NA
06525,New Haven County,CT,NA,87.32612055641422,NA
06615,Fairfield County,CT,NA,55.79598145285936,NA
06790,Litchfield County,CT,4.859813084112149,NA,NA
06811,Fairfield County,CT,40.560747663551396,NA,NA
06825,Fairfield County,CT,NA,NA,61.224489795918366
06883,Fairfield County,CT,NA,NA,98.25072886297376
19904,Kent County,DE,NA,12.673879443585781,NA
19939,Sussex County,DE,NA,NA,80.17492711370262
19947,Sussex County,DE,NA,NA,49.56268221574344
19977,Kent County,DE,20.186915887850468,NA,NA
32024,Columbia County,FL,NA,39.56723338485317,NA
32060,Suwannee County,FL,NA,44.6676970633694,NA
32082,St. Johns County,FL,NA,28.129829984544045,NA
32086,St. Johns County,FL,NA,16.383307573415763,NA
32114,Volusia County,FL,20,NA,NA
32208,Duval County,FL,6.5420560747663545,NA,NA
32210,Duval County,FL,17.570093457943926,NA,NA
32219,Duval County,FL,39.626168224299064,NA,NA
32225,Duval County,FL,NA,13.292117465224113,NA
32259,St. Johns County,FL,39.06542056074767,NA,NA
32309,Leon County,FL,NA,NA,55.68513119533528
32404,Bay County,FL,NA,19.319938176197837,NA
32409,Bay County,FL,NA,64.91499227202473,NA
32514,Escambia County,FL,51.4018691588785,NA,NA
32526,Escambia County,FL,NA,7.418856259659969,NA
32535,Escambia County,FL,71.40186915887851,NA,NA
32605,Alachua County,FL,96.82242990654206,NA,NA
32641,Alachua County,FL,22.429906542056074,NA,NA
32653,Alachua County,FL,NA,67.54250386398763,NA
32693,Gilchrist County,FL,NA,76.04327666151468,NA
32732,Seminole County,FL,NA,99.0726429675425,NA
32763,Volusia County,FL,NA,NA,24.78134110787172
32771,Seminole County,FL,NA,32.30293663060278,NA
32819,Orange County,FL,NA,NA,97.667638483965
32905,Brevard County,FL,53.084112149532714,NA,NA
32937,Brevard County,FL,NA,56.10510046367851,NA
32940,Brevard County,FL,NA,NA,4.664723032069971
32952,Brevard County,FL,NA,43.89489953632149,NA
32966,Indian River County,FL,NA,28.129829984544045,NA
32976,Brevard County,FL,NA,49.61360123647604,NA
33021,Broward County,FL,NA,22.256568778979908,NA
33024,Broward County,FL,NA,NA,19.24198250728863
33037,Monroe County,FL,NA,NA,72.59475218658892
33063,Broward County,FL,36.822429906542055,NA,NA
33064,Broward County,FL,33.084112149532714,NA,NA
33166,Miami-Dade County,FL,NA,NA,46.06413994169096
33301,Broward County,FL,NA,63.52395672333848,NA
33304,Broward County,FL,NA,NA,74.34402332361516
33322,Broward County,FL,NA,27.666151468315302,9.329446064139942
33410,Palm Beach County,FL,NA,64.76043276661515,NA
33418,Palm Beach County,FL,NA,NA,60.64139941690962
33437,Palm Beach County,FL,89.90654205607477,NA,NA
33609,Hillsborough County,FL,NA,NA,65.59766763848397
33611,Hillsborough County,FL,NA,56.25965996908809,NA
33618,Hillsborough County,FL,NA,46.67697063369397,NA
33629,Hillsborough County,FL,NA,76.19783616692428,NA
33703,Pinellas County,FL,NA,NA,54.81049562682215
33767,Pinellas County,FL,NA,NA,73.76093294460642
33810,Polk County,FL,NA,31.530139103554866,NA
33812,Polk County,FL,NA,NA,96.7930029154519
33853,Polk County,FL,59.25233644859813,NA,NA
33914,Lee County,FL,35.88785046728972,NA,NA
33928,Lee County,FL,NA,29.21174652241113,NA
33931,Lee County,FL,93.27102803738318,NA,NA
34212,Manatee County,FL,73.45794392523365,NA,NA
34238,Sarasota County,FL,NA,NA,5.247813411078718
34453,Citrus County,FL,64.85981308411215,NA,NA
34759,Polk County,FL,34.57943925233645,NA,NA
34772,Osceola County,FL,NA,NA,70.55393586005832
34785,Sumter County,FL,NA,73.57032457496136,NA
34950,St. Lucie County,FL,NA,47.2952086553323,NA
34974,Okeechobee County,FL,84.48598130841121,NA,NA
34990,Martin County,FL,NA,58.11437403400309,NA
34997,Martin County,FL,26.168224299065418,NA,NA
30012,Rockdale County,GA,NA,95.82689335394127,NA
30014,Newton County,GA,23.738317757009344,NA,NA
30028,Forsyth County,GA,NA,50.8500772797527,NA
30060,Cobb County,GA,NA,85.93508500772798,NA
30078,Gwinnett County,GA,NA,NA,95.04373177842565
30096,Gwinnett County,GA,NA,90.72642967542504,NA
30117,Carroll County,GA,29.1588785046729,NA,NA
30120,Bartow County,GA,NA,NA,81.04956268221575
30132,Paulding County,GA,NA,34.93044822256569,NA
30176,Haralson County,GA,96.26168224299066,NA,NA
30180,Carroll County,GA,NA,66.9242658423493,NA
30248,Henry County,GA,NA,58.42349304482226,NA
30542,Hall County,GA,46.54205607476635,NA,NA
30601,Clarke County,GA,NA,65.37867078825347,NA
30605,Clarke County,GA,NA,49.76816074188562,NA
30680,Barrow County,GA,17.75700934579439,NA,NA
30721,Whitfield County,GA,NA,NA,40.524781341107875
30802,Columbia County,GA,98.3177570093458,NA,NA
30809,Columbia County,GA,NA,10.510046367851624,NA
30815,Richmond County,GA,17.94392523364486,NA,NA
31024,Putnam County,GA,50.467289719626166,NA,NA
31069,Houston County,GA,NA,NA,44.02332361516035
31329,Effingham County,GA,88.03738317757009,NA,NA
31520,Glynn County,GA,45.981308411214954,NA,NA
31705,Dougherty County,GA,NA,24.111282843894898,NA
31757,Thomas County,GA,65.42056074766354,NA,NA
31820,Muscogee County,GA,NA,NA,79.30029154518951
31822,Harris County,GA,94.39252336448598,NA,NA
31909,Muscogee County,GA,NA,24.420401854714065,NA
96734,Honolulu County,HI,32.71028037383177,9.119010819165378,NA
96744,Honolulu County,HI,NA,64.2967542503864,NA
96782,Honolulu County,HI,32.33644859813084,NA,NA
96786,Honolulu County,HI,29.53271028037383,NA,NA
96792,Honolulu County,HI,77.94392523364486,NA,NA
96813,Honolulu County,HI,NA,32.61205564142195,NA
96816,Honolulu County,HI,28.22429906542056,NA,NA
96817,Honolulu County,HI,NA,NA,87.75510204081633
96825,Honolulu County,HI,48.22429906542056,NA,NA
96826,Honolulu County,HI,NA,NA,32.6530612244898
83204,Bannock County,ID,47.85046728971963,NA,NA
83221,Bingham County,ID,NA,78.36166924265842,NA
83402,Bonneville County,ID,NA,44.20401854714065,NA
83406,Bonneville County,ID,58.3177570093458,NA,NA
83442,Jefferson County,ID,NA,72.02472952086553,NA
83501,Nez Perce County,ID,12.897196261682243,NA,NA
83661,Payette County,ID,NA,62.132921174652246,NA
83702,Ada County,ID,26.542056074766357,NA,NA
83835,Kootenai County,ID,NA,34.31221020092735,NA
83843,Latah County,ID,NA,79.28902627511592,NA
83864,Bonner County,ID,NA,47.913446676970636,NA
60002,Lake County,IL,NA,31.221020092735703,NA
60005,Cook County,IL,50.09345794392524,NA,NA
60012,McHenry County,IL,NA,59.65996908809892,NA
60030,Lake County,IL,37.94392523364486,NA,NA
60047,Lake County,IL,NA,20.247295208655334,NA
60085,Lake County,IL,NA,27.35703245749614,NA
60091,Cook County,IL,NA,NA,75.80174927113703
60107,Cook County,IL,NA,36.476043276661514,NA
60123,Kane County,IL,NA,13.137557959814528,NA
60126,DuPage County,IL,NA,19.783616692426584,NA
60139,DuPage County,IL,NA,80.98918083462134,NA
60142,McHenry County,IL,NA,8.964451313755797,NA
60155,Cook County,IL,NA,61.205564142194746,NA
60160,Cook County,IL,97.94392523364486,NA,NA
60174,Kane County,IL,NA,67.85162287480681,NA
60178,DeKalb County,IL,NA,NA,50.437317784256564
60185,DuPage County,IL,NA,25.656877897990725,NA
60188,DuPage County,IL,NA,20.86553323029366,93.58600583090379
60190,DuPage County,IL,69.90654205607477,NA,NA
60191,DuPage County,IL,NA,48.53168469860896,NA
60302,Cook County,IL,NA,NA,13.994169096209912
60304,Cook County,IL,NA,56.414219474497685,NA
60409,Cook County,IL,NA,29.36630602782071,NA
60415,Cook County,IL,NA,69.55177743431221,NA
60419,Cook County,IL,NA,66.46058732612056,NA
60433,Will County,IL,55.32710280373831,NA,NA
60435,Will County,IL,62.24299065420561,NA,NA
60439,Cook County,IL,NA,15.765069551777433,NA
60441,Will County,IL,NA,25.347758887171562,NA
60445,Cook County,IL,NA,49.304482225656876,NA
60448,Will County,IL,NA,45.440494590417316,NA
60457,Cook County,IL,NA,63.214837712519326,NA
60502,DuPage County,IL,46.91588785046729,NA,NA
60513,Cook County,IL,78.13084112149534,NA,NA
60517,DuPage County,IL,35.32710280373832,NA,NA
60527,DuPage County,IL,NA,71.25193199381762,NA
60532,DuPage County,IL,NA,42.96754250386399,NA
60544,Will County,IL,NA,NA,15.451895043731778
60558,Cook County,IL,77.75700934579439,NA,NA
60561,DuPage County,IL,52.71028037383177,NA,NA
60563,DuPage County,IL,NA,36.01236476043277,NA
60564,Will County,IL,63.55140186915887,NA,NA
60565,DuPage County,IL,NA,53.16846986089645,NA
60616,Cook County,IL,NA,8.0370942812983,NA
60618,Cook County,IL,58.504672897196265,17.77434312210201,NA
60623,Cook County,IL,NA,41.88562596599691,NA
60630,Cook County,IL,92.89719626168224,NA,NA
60631,Cook County,IL,NA,45.904173106646056,NA
60634,Cook County,IL,8.224299065420562,NA,NA
60641,Cook County,IL,NA,65.84234930448223,NA
60651,Cook County,IL,NA,35.54868624420402,NA
60659,Cook County,IL,42.99065420560748,NA,NA
61265,Rock Island County,IL,41.495327102803735,NA,NA
61443,Henry County,IL,NA,48.99536321483771,NA
61611,Tazewell County,IL,NA,NA,93.00291545189503
61802,Champaign County,IL,NA,28.593508500772796,NA
61853,Champaign County,IL,NA,65.2241112828439,NA
61873,Champaign County,IL,NA,82.68933539412674,NA
62002,Madison County,IL,NA,NA,11.370262390670554
62025,Madison County,IL,NA,NA,25.65597667638484
62035,Madison County,IL,NA,NA,36.734693877551024
62226,St. Clair County,IL,NA,NA,26.239067055393583
62249,Madison County,IL,70.2803738317757,NA,NA
62274,Perry County,IL,NA,93.35394126738794,NA
62278,Randolph County,IL,NA,85.16228748068006,NA
62298,Monroe County,IL,96.44859813084112,NA,NA
62563,Sangamon County,IL,97.57009345794393,NA,NA
62703,Sangamon County,IL,26.355140186915886,NA,NA
62812,Franklin County,IL,NA,54.86862442040186,NA
62821,White County,IL,NA,NA,99.12536443148689
62959,Williamson County,IL,NA,16.0741885625966,NA
46001,Madison County,IN,60.93457943925233,NA,NA
46074,Hamilton County,IN,58.13084112149532,NA,NA
46113,Marion County,IN,60.18691588785047,NA,NA
46131,Johnson County,IN,NA,NA,8.746355685131196
46140,Hancock County,IN,NA,NA,67.63848396501457
46143,Johnson County,IN,NA,NA,51.02040816326531
46184,Johnson County,IN,NA,NA,88.0466472303207
46203,Marion County,IN,NA,NA,27.405247813411076
46217,Marion County,IN,NA,94.5904173106646,NA
46219,Marion County,IN,36.26168224299066,NA,NA
46227,Marion County,IN,NA,4.327666151468315,NA
46303,Lake County,IN,NA,NA,46.93877551020408
46321,Lake County,IN,31.21495327102804,NA,NA
46360,LaPorte County,IN,NA,3.554868624420402,NA
46391,LaPorte County,IN,72.52336448598132,NA,NA
46410,Lake County,IN,NA,3.2457496136012365,23.03206997084548
46574,St. Joseph County,IN,NA,74.34312210200927,NA
46580,Kosciusko County,IN,NA,78.20710973724884,NA
46777,Wells County,IN,89.53271028037383,NA,89.50437317784257
46805,Allen County,IN,NA,47.44976816074188,NA
46807,Allen County,IN,45.794392523364486,NA,NA
46845,Allen County,IN,76.07476635514018,NA,NA
46975,Fulton County,IN,NA,NA,59.475218658892125
46996,Pulaski County,IN,NA,92.89026275115918,NA
47130,Clark County,IN,6.915887850467289,NA,NA
47150,Floyd County,IN,NA,NA,20.699708454810494
47165,Washington County,IN,NA,89.79907264296754,NA
47170,Scott County,IN,52.89719626168225,NA,NA
47274,Jackson County,IN,NA,86.24420401854714,77.84256559766763
47394,Randolph County,IN,NA,83.46213292117464,NA
47401,Monroe County,IN,80.93457943925235,NA,NA
47403,Monroe County,IN,NA,52.086553323029364,68.5131195335277
47460,Owen County,IN,92.14953271028037,NA,NA
47586,Perry County,IN,NA,67.07882534775888,NA
47714,Vanderburgh County,IN,NA,16.537867078825347,NA
47904,Tippecanoe County,IN,77.19626168224299,NA,NA
47905,Tippecanoe County,IN,NA,48.37712519319938,48.97959183673469
47906,Tippecanoe County,IN,NA,NA,30.903790087463555
47978,Jasper County,IN,82.61682242990655,NA,NA
50010,Story County,IA,75.70093457943925,NA,NA
50317,Polk County,IA,NA,11.591962905718702,NA
50401,Cerro Gordo County,IA,10.2803738317757,NA,NA
50627,Hardin County,IA,100,NA,NA
50701,Black Hawk County,IA,NA,58.73261205564142,NA
52302,Linn County,IA,64.29906542056075,NA,NA
52349,Benton County,IA,NA,81.76197836166924,NA
52402,Linn County,IA,NA,95.5177743431221,NA
52403,Linn County,IA,NA,NA,32.06997084548105
52404,Linn County,IA,NA,14.528593508500773,NA
52405,Linn County,IA,76.44859813084112,NA,NA
52556,Jefferson County,IA,71.21495327102804,NA,NA
52641,Henry County,IA,NA,53.01391035548686,NA
52722,Scott County,IA,NA,NA,21.865889212827987
52803,Scott County,IA,NA,91.03554868624421,NA
52806,Scott County,IA,NA,95.20865533230294,NA
66061,Johnson County,KS,NA,NA,32.94460641399417
66062,Johnson County,KS,8.97196261682243,12.210200927357032,NA
66109,Wyandotte County,KS,NA,87.17156105100463,30.029154518950435
66210,Johnson County,KS,NA,NA,75.51020408163265
66213,Johnson County,KS,NA,45.13137557959814,NA
66216,Johnson County,KS,NA,NA,48.10495626822158
66441,Geary County,KS,NA,NA,77.25947521865889
67133,Butler County,KS,NA,NA,97.37609329446065
67204,Sedgwick County,KS,73.64485981308411,63.83307573415765,NA
67212,Sedgwick County,KS,NA,NA,45.18950437317784
67401,Saline County,KS,NA,71.71561051004637,NA
40004,Nelson County,KY,16.261682242990656,NA,NA
40013,Nelson County,KY,98.8785046728972,NA,NA
40014,Oldham County,KY,NA,61.514683153013905,NA
40033,Marion County,KY,NA,91.34466769706336,NA
40108,Meade County,KY,NA,76.66151468315302,NA
40165,Bullitt County,KY,NA,13.75579598145286,NA
40217,Jefferson County,KY,NA,NA,79.00874635568513
40219,Jefferson County,KY,37.19626168224299,56.414219474497685,NA
40229,Jefferson County,KY,10.46728971962617,NA,NA
40243,Jefferson County,KY,80,NA,NA
40258,Jefferson County,KY,19.439252336448597,68.77897990726429,NA
40299,Jefferson County,KY,NA,72.17928902627511,NA
40312,Powell County,KY,73.83177570093457,NA,NA
40324,Scott County,KY,NA,21.020092735703248,NA
40351,Rowan County,KY,18.69158878504673,NA,NA
40356,Jessamine County,KY,12.33644859813084,NA,NA
40391,Clark County,KY,46.728971962616825,NA,NA
40475,Madison County,KY,NA,8.65533230293663,69.97084548104957
40505,Fayette County,KY,20.747663551401867,62.90571870170015,NA
40701,Whitley County,KY,NA,10.819165378670787,NA
40744,Laurel County,KY,25.794392523364486,NA,NA
40965,Bell County,KY,NA,27.97527047913447,NA
41008,Carroll County,KY,NA,96.90880989180835,NA
41076,Campbell County,KY,65.04672897196262,NA,NA
41094,Boone County,KY,NA,NA,88.92128279883383
41101,Boyd County,KY,NA,89.48995363214837,NA
41102,Boyd County,KY,79.43925233644859,NA,22.157434402332363
41129,Boyd County,KY,47.28971962616823,NA,NA
41143,Carter County,KY,36.822429906542055,NA,NA
41501,Pike County,KY,NA,NA,29.737609329446062
41701,Perry County,KY,NA,59.35085007727975,NA
42066,Graves County,KY,19.813084112149532,NA,NA
42071,Calloway County,KY,NA,NA,37.60932944606414
42164,Allen County,KY,NA,53.47758887171561,NA
42220,Todd County,KY,79.25233644859813,NA,NA
42303,Daviess County,KY,NA,17.001545595054097,NA
42408,Hopkins County,KY,88.78504672897196,NA,NA
42420,Henderson County,KY,NA,10.973724884080372,NA
42445,Caldwell County,KY,83.3644859813084,NA,NA
42633,Wayne County,KY,73.08411214953271,NA,NA
42728,Adair County,KY,47.28971962616823,93.50850077279753,NA
42743,Green County,KY,61.49532710280374,NA,NA
70003,Jefferson Parish,LA,NA,NA,1.749271137026239
70005,Jefferson Parish,LA,29.906542056074763,NA,NA
70056,Jefferson Parish,LA,3.7383177570093453,NA,NA
70065,Jefferson Parish,LA,3.177570093457944,NA,NA
70115,Orleans Parish,LA,NA,81.91653786707882,NA
70117,Orleans Parish,LA,NA,14.683153013910355,NA
70119,Orleans Parish,LA,NA,5.255023183925812,NA
70122,Orleans Parish,LA,NA,39.876352395672335,NA
70126,Orleans Parish,LA,NA,19.165378670788254,NA
70373,Lafourche Parish,LA,NA,61.97836166924265,NA
70435,St. Tammany Parish,LA,NA,14.992272024729521,NA
70438,Washington Parish,LA,NA,NA,86.88046647230321
70501,Lafayette Parish,LA,1.4953271028037385,NA,NA
70507,Lafayette Parish,LA,NA,NA,74.9271137026239
70518,Lafayette Parish,LA,NA,NA,71.42857142857143
70563,Iberia Parish,LA,32.52336448598131,NA,NA
70592,Lafayette Parish,LA,NA,64.60587326120556,NA
70634,Beauregard Parish,LA,NA,NA,33.23615160349854
70663,Calcasieu Parish,LA,NA,92.42658423493046,NA
70737,Ascension Parish,LA,25.607476635514022,NA,NA
70764,Iberville Parish,LA,29.906542056074763,NA,NA
70805,East Baton Rouge Parish,LA,2.0560747663551404,NA,NA
71119,Caddo Parish,LA,NA,NA,62.68221574344023
71291,Ouachita Parish,LA,NA,NA,20.99125364431487
71302,Rapides Parish,LA,NA,55.332302936630605,NA
71351,Avoyelles Parish,LA,NA,74.1885625965997,NA
71463,Allen Parish,LA,NA,NA,91.54518950437318
04005,York County,ME,41.1214953271028,NA,NA
04064,York County,ME,NA,40.1854714064915,NA
04106,Cumberland County,ME,NA,32.45749613601237,NA
04345,Kennebec County,ME,86.72897196261682,NA,NA
04412,Penobscot County,ME,NA,88.4080370942813,NA
04457,Penobscot County,ME,NA,95.36321483771252,NA
04742,Aroostook County,ME,88.22429906542057,NA,NA
04901,Kennebec County,ME,NA,2.472952086553323,NA
20646,Charles County,MD,NA,78.97990726429676,NA
20746,Prince George's County,MD,NA,NA,84.54810495626822
20815,Montgomery County,MD,NA,72.64296754250387,NA
20872,Montgomery County,MD,88.97196261682242,NA,NA
20876,Montgomery County,MD,NA,91.65378670788253,NA
21061,Anne Arundel County,MD,NA,23.64760432766615,NA
21128,Baltimore County,MD,NA,NA,62.390670553935855
21202,Baltimore city,MD,NA,53.32302936630603,NA
21213,Baltimore city,MD,NA,45.749613601236476,NA
21221,Baltimore County,MD,NA,NA,28.57142857142857
21229,Baltimore city,MD,NA,NA,56.85131195335277
21617,Queen Anne's County,MD,NA,88.09891808346212,NA
21863,Worcester County,MD,NA,98.45440494590417,NA
01030,Hampden County,MA,NA,81.14374034003092,NA
01106,Hampden County,MA,NA,NA,41.10787172011662
01201,Berkshire County,MA,0.5607476635514018,NA,NA
01463,Middlesex County,MA,NA,48.222565687789796,NA
01507,Worcester County,MA,NA,80.52550231839258,NA
01527,Worcester County,MA,NA,24.57496136012365,NA
01540,Worcester County,MA,NA,90.1081916537867,NA
01545,Worcester County,MA,NA,NA,94.16909620991254
01757,Worcester County,MA,NA,3.863987635239567,NA
01832,Essex County,MA,15.887850467289718,NA,17.20116618075802
01844,Essex County,MA,NA,NA,3.7900874635568513
01905,Essex County,MA,NA,5.564142194744977,NA
01906,Essex County,MA,NA,NA,5.539358600583091
01913,Essex County,MA,NA,7.573415765069552,NA
01915,Essex County,MA,NA,NA,8.454810495626822
01940,Essex County,MA,NA,NA,18.075801749271136
01950,Essex County,MA,NA,NA,85.13119533527697
01960,Essex County,MA,NA,NA,1.4577259475218658
02072,Norfolk County,MA,NA,55.641421947449764,NA
02115,Suffolk County,MA,24.85981308411215,NA,NA
02128,Suffolk County,MA,0,NA,NA
02302,Plymouth County,MA,NA,1.545595054095827,NA
02343,Norfolk County,MA,NA,NA,96.50145772594753
02360,Plymouth County,MA,NA,NA,0.8746355685131195
02370,Plymouth County,MA,13.084112149532709,NA,NA
02445,Norfolk County,MA,24.11214953271028,NA,NA
02478,Middlesex County,MA,20.373831775700936,NA,NA
02494,Norfolk County,MA,97.00934579439252,NA,NA
02571,Plymouth County,MA,NA,36.16692426584235,NA
02740,Bristol County,MA,5.607476635514018,0.1545595054095827,NA
02745,Bristol County,MA,NA,NA,53.93586005830904
02779,Bristol County,MA,NA,97.52704791344668,NA
02780,Bristol County,MA,NA,0.7727975270479135,NA
48026,Macomb County,MI,NA,39.41267387944359,49.27113702623907
48036,Macomb County,MI,NA,25.19319938176198,NA
48045,Macomb County,MI,NA,NA,34.69387755102041
48059,St. Clair County,MI,NA,NA,23.323615160349853
48079,St. Clair County,MI,NA,NA,80.17492711370262
48094,Macomb County,MI,NA,NA,58.01749271137027
48101,Wayne County,MI,NA,76.8160741885626,NA
48105,Washtenaw County,MI,NA,NA,1.1661807580174928
48126,Wayne County,MI,7.289719626168225,NA,NA
48127,Wayne County,MI,NA,NA,6.122448979591836
48161,Monroe County,MI,NA,NA,33.52769679300292
48162,Monroe County,MI,10.841121495327103,NA,NA
48169,Livingston County,MI,NA,61.82380216383307,NA
48170,Wayne County,MI,NA,20.71097372488408,NA
48180,Wayne County,MI,NA,1.3910355486862442,NA
48195,Wayne County,MI,20.93457943925234,NA,NA
48198,Washtenaw County,MI,NA,44.513137557959816,NA
48213,Wayne County,MI,9.345794392523365,NA,NA
48214,Wayne County,MI,NA,22.56568778979907,NA
48218,Wayne County,MI,65.60747663551402,NA,NA
48219,Wayne County,MI,4.112149532710281,NA,NA
48228,Wayne County,MI,NA,5.4095826893353935,NA
48234,Wayne County,MI,NA,12.055641421947449,NA
48235,Wayne County,MI,NA,2.3183925811437405,NA
48238,Wayne County,MI,NA,NA,65.88921282798835
48239,Wayne County,MI,NA,8.191653786707882,NA
48309,Oakland County,MI,NA,23.802163833075735,NA
48313,Macomb County,MI,NA,20.09273570324575,NA
48348,Oakland County,MI,31.962616822429908,NA,NA
48350,Oakland County,MI,NA,NA,85.42274052478133
48360,Oakland County,MI,NA,59.969088098918085,NA
48382,Oakland County,MI,44.299065420560744,NA,NA
48412,Lapeer County,MI,90.09345794392523,NA,NA
48420,Genesee County,MI,NA,NA,41.39941690962099
48423,Genesee County,MI,NA,19.629057187017,NA
48433,Genesee County,MI,47.10280373831775,NA,NA
48444,Lapeer County,MI,NA,73.10664605873262,NA
48446,Lapeer County,MI,13.271028037383179,NA,NA
48451,Genesee County,MI,NA,NA,83.09037900874635
48453,Sanilac County,MI,NA,NA,71.7201166180758
48455,Lapeer County,MI,NA,NA,82.79883381924198
48458,Genesee County,MI,27.289719626168225,NA,55.10204081632652
48461,Lapeer County,MI,62.616822429906534,98.91808346213293,NA
48471,Sanilac County,MI,NA,NA,61.51603498542274
48504,Genesee County,MI,NA,84.69860896445131,NA
48509,Genesee County,MI,NA,74.49768160741885,NA
48532,Genesee County,MI,NA,37.712519319938174,NA
48609,Saginaw County,MI,NA,NA,54.518950437317784
48611,Bay County,MI,NA,NA,67.93002915451895
48612,Gladwin County,MI,NA,43.431221020092735,NA
48661,Ogemaw County,MI,49.34579439252336,NA,NA
48706,Bay County,MI,NA,NA,2.0408163265306123
48708,Bay County,MI,5.981308411214954,34.62132921174652,NA
48732,Bay County,MI,47.66355140186916,NA,NA
48836,Livingston County,MI,48.598130841121495,NA,NA
48838,Montcalm County,MI,NA,NA,68.80466472303208
48842,Ingham County,MI,NA,NA,55.97667638483965
48867,Shiawassee County,MI,NA,51.931993817619784,NA
48875,Ionia County,MI,72.33644859813084,NA,NA
48879,Clinton County,MI,88.59813084112149,NA,NA
48910,Ingham County,MI,10.093457943925234,NA,NA
48911,Ingham County,MI,43.36448598130841,46.831530139103556,NA
49009,Kalamazoo County,MI,NA,NA,10.204081632653061
49017,Calhoun County,MI,NA,NA,23.9067055393586
49036,Branch County,MI,NA,NA,88.62973760932945
49091,St. Joseph County,MI,79.81308411214954,NA,NA
49093,St. Joseph County,MI,56.26168224299065,NA,NA
49107,Berrien County,MI,83.17757009345794,NA,NA
49111,Berrien County,MI,95.32710280373831,NA,NA
49203,Jackson County,MI,5.794392523364486,NA,NA
49228,Lenawee County,MI,NA,NA,90.67055393586006
49240,Jackson County,MI,NA,53.94126738794436,NA
49250,Hillsdale County,MI,70.65420560747664,94.28129829984545,NA
49321,Kent County,MI,NA,55.17774343122102,NA
49417,Ottawa County,MI,NA,NA,11.9533527696793
49419,Allegan County,MI,NA,79.90726429675425,NA
49444,Muskegon County,MI,6.728971962616822,NA,NA
49456,Ottawa County,MI,NA,25.0386398763524,NA
49507,Kent County,MI,NA,21.483771251931994,NA
49525,Kent County,MI,NA,57.496136012364765,NA
49534,Kent County,MI,51.214953271028044,NA,NA
49548,Kent County,MI,5.420560747663552,NA,NA
49601,Wexford County,MI,NA,76.50695517774344,NA
49684,Grand Traverse County,MI,98.69158878504672,NA,NA
49854,Schoolcraft County,MI,94.2056074766355,NA,NA
49855,Marquette County,MI,68.5981308411215,NA,NA
55008,Isanti County,MN,NA,50.38639876352396,NA
55066,Goodhue County,MN,80.37383177570094,NA,NA
55076,Dakota County,MN,53.45794392523364,NA,NA
55101,Ramsey County,MN,NA,NA,97.95918367346938
55109,Ramsey County,MN,NA,NA,28.86297376093295
55119,Ramsey County,MN,NA,29.057187017001546,NA
55130,Ramsey County,MN,44.11214953271028,NA,NA
55321,Wright County,MN,NA,95.6723338485317,NA
55407,Hennepin County,MN,5.046728971962617,NA,NA
55432,Anoka County,MN,50.280373831775705,NA,NA
55744,Itasca County,MN,NA,31.066460587326123,NA
56258,Lyon County,MN,93.83177570093459,NA,NA
56377,Stearns County,MN,NA,84.54404945904173,NA
56401,Crow Wing County,MN,NA,NA,3.206997084548105
56573,Otter Tail County,MN,NA,NA,65.01457725947522
56586,Otter Tail County,MN,NA,99.38176197836167,NA
56649,Koochiching County,MN,51.77570093457944,NA,NA
38827,Tishomingo County,MS,99.06542056074767,NA,NA
39146,Holmes County,MS,NA,100,NA
39204,Hinds County,MS,NA,93.19938176197836,NA
39339,Winston County,MS,NA,60.123647604327665,NA
39476,Perry County,MS,NA,78.97990726429676,NA
39530,Harrison County,MS,NA,NA,63.55685131195335
39581,Jackson County,MS,NA,NA,82.21574344023324
39773,Clay County,MS,90.28037383177569,NA,NA
63005,St. Louis County,MO,NA,71.5610510046368,NA
63011,St. Louis County,MO,NA,NA,4.081632653061225
63020,Jefferson County,MO,NA,69.7063369397218,NA
63021,St. Louis County,MO,78.8785046728972,NA,NA
63026,St. Louis County,MO,NA,10.200927357032457,NA
63034,St. Louis County,MO,NA,49.45904173106646,49.85422740524781
63074,St. Louis County,MO,54.01869158878505,NA,NA
63090,Franklin County,MO,69.34579439252336,NA,NA
63114,St. Louis County,MO,52.336448598130836,NA,35.27696793002916
63115,St. Louis city,MO,82.42990654205607,NA,NA
63119,St. Louis County,MO,NA,72.48840803709427,NA
63122,St. Louis County,MO,NA,22.102009273570324,7.580174927113703
63127,St. Louis County,MO,NA,NA,59.7667638483965
63137,St. Louis County,MO,33.83177570093458,40.64914992272025,NA
63146,St. Louis County,MO,NA,30.602782071097373,NA
63301,St. Charles County,MO,NA,2.627511591962906,NA
63366,St. Charles County,MO,10.654205607476635,3.400309119010819,NA
63368,St. Charles County,MO,NA,19.47449768160742,NA
63379,Lincoln County,MO,NA,NA,31.486880466472307
63390,Warren County,MO,NA,68.16074188562597,NA
63401,Marion County,MO,42.61682242990654,NA,NA
63501,Adair County,MO,NA,61.051004636785166,NA
63703,Cape Girardeau County,MO,NA,68.93353941267388,NA
63857,Dunklin County,MO,38.504672897196265,NA,NA
63901,Butler County,MO,NA,21.32921174652241,32.36151603498542
64012,Cass County,MO,NA,23.02936630602782,NA
64020,Lafayette County,MO,85.42056074766356,NA,NA
64024,Clay County,MO,NA,66.30602782071098,NA
64030,Jackson County,MO,44.48598130841121,NA,NA
64052,Jackson County,MO,8.037383177570094,NA,NA
64055,Jackson County,MO,NA,NA,11.078717201166182
64060,Clay County,MO,NA,NA,62.973760932944614
64062,Ray County,MO,NA,96.44513137557959,NA
64063,Jackson County,MO,NA,NA,71.13702623906705
64064,Jackson County,MO,NA,97.68160741885626,NA
64068,Clay County,MO,NA,5.1004636785162285,NA
64085,Ray County,MO,71.96261682242991,NA,NA
64106,Jackson County,MO,25.04672897196262,NA,NA
64114,Jackson County,MO,NA,39.258114374034,NA
64118,Clay County,MO,21.682242990654206,NA,NA
64133,Jackson County,MO,3.364485981308411,3.091190108191654,NA
64153,Platte County,MO,NA,97.83616692426584,NA
64154,Platte County,MO,NA,97.3724884080371,NA
64735,Henry County,MO,NA,71.09737248840804,NA
64801,Jasper County,MO,11.775700934579438,NA,66.47230320699708
64804,Jasper County,MO,NA,6.9551777434312205,NA
64836,Jasper County,MO,NA,NA,13.119533527696792
64850,Newton County,MO,NA,NA,57.7259475218659
65536,Laclede County,MO,35.51401869158878,NA,NA
65560,Dent County,MO,NA,NA,31.195335276967928
65613,Polk County,MO,NA,NA,14.285714285714285
65616,Taney County,MO,NA,30.757341576506953,NA
65653,Taney County,MO,NA,NA,78.4256559766764
65706,Webster County,MO,74.76635514018692,NA,NA
65721,Christian County,MO,85.04672897196261,NA,NA
65802,Greene County,MO,NA,51.31375579598145,NA
65803,Greene County,MO,7.663551401869159,61.360123647604325,18.658892128279884
65804,Greene County,MO,NA,31.993817619783616,NA
65807,Greene County,MO,NA,NA,5.830903790087463
65810,Greene County,MO,81.30841121495327,NA,NA
59725,Beaverhead County,MT,NA,NA,70.26239067055393
59833,Ravalli County,MT,NA,NA,96.20991253644316
59901,Flathead County,MT,NA,98.2998454404946,NA
59911,Flathead County,MT,NA,NA,52.76967930029155
68025,Dodge County,NE,NA,82.84389489953632,NA
68117,Douglas County,NE,NA,NA,89.79591836734694
68845,Buffalo County,NE,NA,90.26275115919628,NA
69301,Box Butte County,NE,NA,86.70788253477589,NA
89123,Clark County,NV,46.16822429906542,NA,NA
89139,Clark County,NV,69.1588785046729,NA,NA
89143,Clark County,NV,91.77570093457945,NA,NA
89403,Lyon County,NV,NA,82.22565687789799,NA
89408,Lyon County,NV,NA,34.46676970633694,NA
89429,Lyon County,NV,74.20560747663552,NA,91.83673469387756
89431,Washoe County,NV,18.317757009345794,NA,NA
89434,Washoe County,NV,NA,31.993817619783616,NA
89511,Washoe County,NV,56.63551401869159,24.88408037094281,NA
03036,Rockingham County,NH,NA,98.60896445131375,NA
03053,Rockingham County,NH,NA,NA,33.819241982507286
03079,Rockingham County,NH,NA,15.301391035548686,NA
03102,Hillsborough County,NH,NA,11.901081916537867,NA
03275,Merrimack County,NH,NA,42.349304482225655,NA
03824,Strafford County,NH,NA,79.59814528593509,NA
03842,Rockingham County,NH,NA,25.965996908809892,NA
03872,Carroll County,NH,99.4392523364486,NA,NA
07005,Morris County,NJ,28.971962616822427,NA,NA
07026,Bergen County,NJ,13.831775700934578,NA,NA
07066,Union County,NJ,NA,NA,44.31486880466473
07103,Essex County,NJ,NA,1.0819165378670788,NA
07446,Bergen County,NJ,NA,98.76352395672335,NA
07666,Bergen County,NJ,NA,70.32457496136011,NA
07677,Bergen County,NJ,NA,88.25347758887172,NA
07712,Monmouth County,NJ,30.8411214953271,NA,NA
07751,Monmouth County,NJ,81.86915887850468,NA,NA
08012,Camden County,NJ,4.672897196261682,NA,NA
08015,Burlington County,NJ,NA,44.822256568778975,NA
08054,Burlington County,NJ,NA,NA,15.743440233236154
08110,Camden County,NJ,12.149532710280374,NA,NA
08722,Ocean County,NJ,NA,NA,79.59183673469387
08757,Ocean County,NJ,NA,NA,0.2915451895043732
08759,Ocean County,NJ,8.411214953271028,NA,NA
08865,Warren County,NJ,NA,NA,10.495626822157435
08901,Middlesex County,NJ,67.28971962616822,NA,NA
87031,Valencia County,NM,54.57943925233645,NA,NA
87048,Sandoval County,NM,90.8411214953271,NA,NA
87112,Bernalillo County,NM,NA,NA,4.373177842565598
87532,Santa Fe County,NM,34.205607476635514,NA,NA
87740,Colfax County,NM,NA,97.99072642967542,NA
88011,Doa Ana County,NM,NA,NA,25.364431486880466
88240,Lea County,NM,39.81308411214953,NA,NA
10036,New York County,NY,NA,44.04945904173106,NA
10453,Bronx County,NY,33.64485981308411,NA,NA
10460,Bronx County,NY,NA,NA,39.94169096209912
10461,Bronx County,NY,NA,15.610510046367851,NA
10463,Bronx County,NY,NA,2.936630602782071,NA
10472,Bronx County,NY,12.710280373831775,NA,NA
10516,Putnam County,NY,NA,96.29057187017001,NA
10992,Orange County,NY,NA,NA,86.29737609329446
11003,Nassau County,NY,75.32710280373833,NA,NA
11102,Queens County,NY,NA,NA,39.35860058309038
11207,Kings County,NY,NA,0.6182380216383307,NA
11385,Queens County,NY,6.355140186915888,NA,NA
11411,Queens County,NY,NA,NA,65.3061224489796
11433,Queens County,NY,NA,25.811437403400312,NA
11590,Nassau County,NY,NA,98.145285935085,NA
11704,Suffolk County,NY,93.64485981308411,NA,NA
11725,Suffolk County,NY,NA,90.88098918083463,NA
11779,Suffolk County,NY,NA,NA,34.11078717201166
11961,Suffolk County,NY,82.80373831775701,NA,NA
12010,Montgomery County,NY,21.49532710280374,NA,NA
12037,Columbia County,NY,86.91588785046729,NA,NA
12043,Schoharie County,NY,49.90654205607476,NA,NA
12204,Albany County,NY,58.69158878504673,NA,NA
12211,Albany County,NY,NA,70.17001545595053,NA
12508,Dutchess County,NY,NA,93.97217928902627,NA
12822,Saratoga County,NY,68.03738317757009,NA,NA
13032,Madison County,NY,28.41121495327103,NA,NA
13036,Oswego County,NY,76.26168224299066,NA,NA
13057,Onondaga County,NY,NA,54.25038639876353,NA
13063,Onondaga County,NY,97.75700934579439,NA,NA
13082,Madison County,NY,85.42056074766356,NA,NA
13203,Onondaga County,NY,62.05607476635514,NA,NA
13367,Lewis County,NY,34.39252336448598,NA,69.09620991253644
13440,Oneida County,NY,1.3084112149532712,NA,NA
13669,St. Lawrence County,NY,NA,20.401854714064914,NA
13734,Tioga County,NY,89.7196261682243,NA,NA
13850,Broome County,NY,14.205607476635516,NA,NA
14047,Erie County,NY,NA,NA,92.4198250728863
14092,Niagara County,NY,44.85981308411215,NA,NA
14094,Niagara County,NY,NA,1.7001545595054095,NA
14132,Niagara County,NY,NA,75.57959814528593,NA
14211,Erie County,NY,NA,12.364760432766616,NA
14215,Erie County,NY,0.9345794392523363,NA,NA
14414,Livingston County,NY,55.887850467289724,NA,NA
14580,Monroe County,NY,NA,NA,14.577259475218659
14615,Monroe County,NY,9.532710280373832,NA,NA
14617,Monroe County,NY,5.233644859813085,NA,NA
14809,Steuben County,NY,NA,99.22720247295209,NA
14845,Chemung County,NY,41.495327102803735,NA,NA
14883,Tioga County,NY,NA,89.02627511591963,NA
14904,Chemung County,NY,24.299065420560748,NA,NA
27011,Yadkin County,NC,NA,97.21792890262752,NA
27028,Davie County,NC,NA,6.0278207109737245,NA
27265,Guilford County,NC,NA,11.437403400309119,NA
27284,Forsyth County,NC,NA,NA,2.3323615160349855
27295,Davidson County,NC,2.6168224299065423,NA,NA
27330,Lee County,NC,NA,22.411128284389488,NA
27344,Chatham County,NC,NA,40.80370942812983,NA
27406,Guilford County,NC,2.990654205607477,NA,NA
27408,Guilford County,NC,NA,51.622874806800624,NA
27518,Wake County,NC,NA,50.23183925811438,NA
27526,Wake County,NC,23.925233644859816,NA,NA
27539,Wake County,NC,NA,60.432766615146825,NA
27596,Franklin County,NC,NA,NA,98.54227405247813
27603,Wake County,NC,18.50467289719626,NA,NA
27703,Durham County,NC,9.158878504672897,NA,NA
28054,Gaston County,NC,NA,23.956723338485318,NA
28073,Cleveland County,NC,NA,95.05409582689336,NA
28081,Cabarrus County,NC,84.67289719626169,NA,NA
28092,Lincoln County,NC,NA,11.128284389489954,NA
28105,Mecklenburg County,NC,NA,45.595054095826896,NA
28107,Cabarrus County,NC,NA,88.71715610510046,NA
28110,Union County,NC,NA,12.982998454404946,NA
28174,Union County,NC,NA,85.00772797527047,NA
28205,Mecklenburg County,NC,62.99065420560748,NA,NA
28211,Mecklenburg County,NC,NA,NA,34.69387755102041
28270,Mecklenburg County,NC,92.33644859813084,NA,NA
28376,Hoke County,NC,NA,79.44358578052551,NA
28379,Richmond County,NC,14.766355140186915,NA,NA
28451,Brunswick County,NC,NA,57.341576506955185,NA
28460,Onslow County,NC,91.58878504672897,NA,NA
28469,Brunswick County,NC,NA,NA,92.71137026239067
28650,Catawba County,NC,80.5607476635514,NA,NA
28655,Burke County,NC,4.485981308411215,43.585780525502315,NA
28658,Catawba County,NC,78.69158878504673,NA,NA
28677,Iredell County,NC,NA,NA,40.816326530612244
28681,Alexander County,NC,NA,37.403400309119014,NA
28712,Transylvania County,NC,NA,33.69397217928903,NA
28722,Polk County,NC,NA,NA,95.6268221574344
28752,McDowell County,NC,68.97196261682244,NA,NA
28777,Mitchell County,NC,75.14018691588785,NA,NA
28779,Jackson County,NC,98.13084112149532,NA,NA
28803,Buncombe County,NC,45.046728971962615,NA,NA
58103,Cass County,ND,NA,NA,12.536443148688047
58104,Cass County,ND,NA,60.89644513137558,NA
58701,Ward County,ND,32.149532710280376,NA,NA
43016,Franklin County,OH,NA,NA,38.19241982507289
43050,Knox County,OH,NA,NA,6.41399416909621
43056,Licking County,OH,83.92523364485982,NA,NA
43110,Franklin County,OH,20.5607476635514,NA,NA
43113,Pickaway County,OH,38.13084112149533,NA,NA
43123,Franklin County,OH,NA,33.07573415765069,NA
43130,Fairfield County,OH,0.7476635514018692,NA,NA
43138,Hocking County,OH,56.074766355140184,NA,NA
43202,Franklin County,OH,NA,NA,97.08454810495627
43204,Franklin County,OH,22.242990654205606,NA,NA
43206,Franklin County,OH,NA,52.24111282843895,NA
43211,Franklin County,OH,8.785046728971963,NA,NA
43223,Franklin County,OH,NA,83.15301391035548,NA
43351,Wyandot County,OH,NA,47.75888717156105,NA
43420,Sandusky County,OH,7.850467289719626,NA,NA
43452,Ottawa County,OH,NA,29.520865533230296,NA
43512,Defiance County,OH,2.803738317757009,NA,NA
43518,Williams County,OH,99.81308411214953,NA,NA
43543,Williams County,OH,NA,52.85935085007728,NA
43551,Wood County,OH,NA,4.636785162287481,NA
43560,Lucas County,OH,22.05607476635514,46.05873261205564,NA
43608,Lucas County,OH,NA,NA,91.25364431486881
43616,Lucas County,OH,55.140186915887845,NA,NA
43701,Muskingum County,OH,NA,29.675425038639876,NA
43731,Perry County,OH,NA,NA,84.25655976676384
43821,Muskingum County,OH,74.20560747663552,NA,NA
43906,Belmont County,OH,42.429906542056074,NA,NA
43920,Columbiana County,OH,6.16822429906542,NA,NA
43950,Belmont County,OH,64.48598130841121,NA,NA
44001,Lorain County,OH,70.46728971962617,NA,NA
44023,Geauga County,OH,NA,41.42194744976816,NA
44024,Geauga County,OH,40.560747663551396,NA,NA
44039,Lorain County,OH,66.54205607476635,NA,3.498542274052478
44070,Cuyahoga County,OH,NA,3.7094281298299845,NA
44092,Lake County,OH,67.4766355140187,NA,NA
44102,Cuyahoga County,OH,7.476635514018691,NA,NA
44104,Cuyahoga County,OH,NA,17.31066460587326,NA
44105,Cuyahoga County,OH,0.1869158878504673,NA,NA
44107,Cuyahoga County,OH,NA,2.009273570324575,NA
44112,Cuyahoga County,OH,NA,24.26584234930448,16.3265306122449
44118,Cuyahoga County,OH,9.719626168224298,NA,NA
44119,Cuyahoga County,OH,17.38317757009346,NA,NA
44120,Cuyahoga County,OH,2.4299065420560746,NA,NA
44121,Cuyahoga County,OH,NA,9.73724884080371,NA
44130,Cuyahoga County,OH,19.252336448598133,NA,31.778425655976676
44136,Cuyahoga County,OH,NA,34.77588871715611,NA
44137,Cuyahoga County,OH,NA,NA,26.82215743440233
44140,Cuyahoga County,OH,NA,76.97063369397218,NA
44146,Cuyahoga County,OH,NA,0.9273570324574961,NA
44149,Cuyahoga County,OH,37.75700934579439,NA,NA
44202,Portage County,OH,NA,51.00463678516228,NA
44212,Medina County,OH,NA,0.46367851622874806,NA
44224,Summit County,OH,NA,6.3369397217928904,NA
44236,Summit County,OH,NA,19.938176197836167,NA
44240,Portage County,OH,NA,NA,17.49271137026239
44256,Medina County,OH,NA,4.482225656877898,NA
44313,Summit County,OH,91.4018691588785,NA,NA
44320,Summit County,OH,15.14018691588785,NA,NA
44405,Mahoning County,OH,87.10280373831776,NA,NA
44410,Trumbull County,OH,NA,NA,45.18950437317784
44444,Trumbull County,OH,NA,NA,68.22157434402332
44446,Trumbull County,OH,37.570093457943926,NA,12.82798833819242
44483,Trumbull County,OH,NA,NA,16.61807580174927
44512,Mahoning County,OH,NA,NA,13.702623906705538
44614,Stark County,OH,NA,63.67851622874807,78.134110787172
44646,Stark County,OH,NA,NA,16.909620991253643
44662,Stark County,OH,67.85046728971963,NA,NA
44685,Summit County,OH,NA,88.87171561051005,NA
44691,Wayne County,OH,26.91588785046729,NA,NA
44705,Stark County,OH,NA,33.53941267387944,NA
44710,Stark County,OH,55.32710280373831,NA,NA
44805,Ashland County,OH,11.588785046728972,NA,NA
44813,Richland County,OH,NA,NA,74.05247813411079
44839,Erie County,OH,NA,NA,63.84839650145773
44870,Erie County,OH,11.962616822429908,NA,NA
44883,Seneca County,OH,NA,34.15765069551777,NA
44889,Huron County,OH,94.01869158878505,NA,NA
45014,Butler County,OH,NA,17.465224111282843,NA
45068,Warren County,OH,NA,66.76970633693972,NA
45069,Butler County,OH,19.626168224299064,NA,NA
45102,Clermont County,OH,NA,NA,88.33819241982506
45103,Clermont County,OH,23.551401869158877,56.87789799072643,NA
45176,Clermont County,OH,NA,75.27047913446677,NA
45244,Hamilton County,OH,45.60747663551402,NA,NA
45251,Hamilton County,OH,NA,57.496136012364765,NA
45324,Greene County,OH,31.401869158878505,NA,NA
45356,Miami County,OH,88.41121495327103,NA,NA
45365,Shelby County,OH,72.71028037383176,44.97681607418856,NA
45385,Greene County,OH,NA,6.491499227202473,NA
45404,Montgomery County,OH,48.41121495327103,85.62596599690882,NA
45424,Montgomery County,OH,NA,59.04173106646059,NA
45449,Montgomery County,OH,NA,86.08964451313756,NA
45503,Clark County,OH,NA,9.891808346213292,NA
45601,Ross County,OH,NA,0,NA
45619,Lawrence County,OH,24.67289719626168,NA,NA
45640,Jackson County,OH,NA,4.1731066460587325,NA
45648,Scioto County,OH,21.121495327102803,NA,NA
45661,Pike County,OH,69.53271028037383,NA,NA
45662,Scioto County,OH,1.8691588785046727,1.8547140649149922,NA
45690,Pike County,OH,NA,90.41731066460588,NA
45692,Jackson County,OH,NA,79.75270479134467,NA
45694,Scioto County,OH,NA,18.856259659969087,NA
45750,Washington County,OH,NA,17.156105100463677,NA
45822,Mercer County,OH,NA,28.748068006182383,NA
45840,Hancock County,OH,14.57943925233645,NA,NA
45850,Allen County,OH,NA,99.69088098918083,NA
45885,Auglaize County,OH,NA,94.43585780525503,NA
45891,Van Wert County,OH,NA,93.04482225656878,NA
45895,Auglaize County,OH,27.102803738317753,NA,NA
73003,Oklahoma County,OK,NA,NA,42.27405247813411
73013,Oklahoma County,OK,NA,37.24884080370943,NA
73026,Cleveland County,OK,NA,NA,74.63556851311954
73055,Stephens County,OK,65.98130841121495,NA,NA
73069,Cleveland County,OK,57.943925233644855,NA,NA
73110,Oklahoma County,OK,NA,NA,9.912536443148689
73139,Oklahoma County,OK,NA,59.8145285935085,NA
73159,Oklahoma County,OK,NA,NA,40.2332361516035
73162,Oklahoma County,OK,NA,14.374034003091191,NA
73401,Carter County,OK,NA,8.809891808346213,NA
73439,Marshall County,OK,NA,91.49922720247295,NA
73446,Marshall County,OK,NA,NA,94.46064139941691
73505,Comanche County,OK,NA,48.068006182380216,NA
73533,Stephens County,OK,NA,10.35548686244204,NA
73601,Custer County,OK,57.38317757009346,NA,NA
74003,Osage County,OK,79.62616822429906,NA,NA
74012,Tulsa County,OK,NA,NA,7.288629737609329
74059,Payne County,OK,95.70093457943926,NA,NA
74075,Payne County,OK,NA,55.486862442040184,NA
74104,Tulsa County,OK,77.00934579439253,NA,NA
74127,Tulsa County,OK,NA,62.132921174652246,NA
74136,Tulsa County,OK,NA,42.194744976816075,NA
74146,Tulsa County,OK,57.757009345794394,NA,NA
74331,Delaware County,OK,NA,72.79752704791345,NA
74344,Delaware County,OK,NA,77.89799072642968,NA
74631,Kay County,OK,75.51401869158877,NA,NA
97002,Marion County,OR,NA,NA,98.83381924198251
97045,Clackamas County,OR,NA,9.273570324574962,NA
97078,Washington County,OR,NA,54.71406491499228,NA
97223,Washington County,OR,25.42056074766355,NA,NA
97229,Washington County,OR,NA,34.003091190108194,NA
97267,Clackamas County,OR,NA,36.93972179289026,NA
97301,Marion County,OR,11.02803738317757,NA,NA
97303,Marion County,OR,NA,43.27666151468315,NA
97317,Marion County,OR,NA,53.94126738794436,NA
97322,Linn County,OR,NA,NA,36.15160349854227
97330,Benton County,OR,45.23364485981308,NA,NA
97333,Benton County,OR,NA,NA,53.352769679300295
97355,Linn County,OR,NA,4.01854714064915,6.705539358600583
97386,Linn County,OR,NA,38.48531684698609,NA
97415,Curry County,OR,NA,23.183925811437405,21.574344023323615
97470,Douglas County,OR,NA,NA,37.90087463556851
97496,Douglas County,OR,49.532710280373834,NA,NA
97504,Jackson County,OR,NA,NA,26.53061224489796
97527,Josephine County,OR,NA,16.846986089644513,NA
97601,Klamath County,OR,NA,40.49459041731067,NA
97624,Klamath County,OR,NA,78.516228748068,NA
97702,Deschutes County,OR,38.691588785046726,NA,NA
97814,Baker County,OR,NA,NA,41.690962099125365
97838,Umatilla County,OR,NA,13.446676970633694,72.30320699708454
97850,Union County,OR,76.63551401869158,NA,NA
97862,Umatilla County,OR,54.20560747663551,NA,NA
15012,Westmoreland County,PA,53.83177570093458,NA,NA
15068,Westmoreland County,PA,NA,NA,2.9154518950437316
15137,Allegheny County,PA,54.76635514018692,NA,NA
15147,Allegheny County,PA,59.439252336448604,NA,NA
15210,Allegheny County,PA,13.644859813084112,NA,NA
15216,Allegheny County,PA,NA,49.1499227202473,NA
15235,Allegheny County,PA,17.009345794392523,12.364760432766616,NA
15904,Cambria County,PA,NA,NA,69.38775510204081
15906,Cambria County,PA,NA,62.75115919629057,NA
15931,Cambria County,PA,NA,58.57805255023184,NA
15963,Somerset County,PA,NA,52.7047913446677,NA
16066,Butler County,PA,NA,NA,37.31778425655977
16117,Lawrence County,PA,NA,NA,24.489795918367346
16137,Mercer County,PA,NA,63.06027820710973,NA
16146,Mercer County,PA,NA,70.94281298299846,NA
16201,Armstrong County,PA,NA,NA,66.1807580174927
16335,Crawford County,PA,8.598130841121495,38.17619783616693,NA
16354,Crawford County,PA,59.439252336448604,NA,NA
16407,Erie County,PA,NA,62.59659969088099,NA
16412,Erie County,PA,NA,84.38948995363215,NA
16601,Blair County,PA,NA,5.7187017001545595,NA
16803,Centre County,PA,NA,NA,82.5072886297376
16833,Clearfield County,PA,NA,81.60741885625966,NA
17003,Lebanon County,PA,87.28971962616822,NA,NA
17020,Perry County,PA,NA,66.15146831530139,NA
17022,Lancaster County,PA,NA,NA,13.411078717201166
17057,Dauphin County,PA,NA,48.53168469860896,NA
17078,Lebanon County,PA,15.327102803738319,NA,NA
17112,Dauphin County,PA,59.06542056074766,NA,NA
17113,Dauphin County,PA,92.5233644859813,NA,NA
17201,Franklin County,PA,NA,18.39258114374034,NA
17257,Cumberland County,PA,NA,58.887171561051,NA
17403,York County,PA,2.2429906542056073,NA,51.31195335276968
17538,Lancaster County,PA,NA,82.9984544049459,NA
17555,Lancaster County,PA,NA,NA,99.70845481049562
17557,Lancaster County,PA,NA,NA,43.440233236151606
17745,Clinton County,PA,35.14018691588785,73.57032457496136,NA
17815,Columbia County,PA,42.80373831775701,NA,NA
18018,Lehigh County,PA,NA,6.800618238021638,NA
18020,Northampton County,PA,NA,NA,23.323615160349853
18032,Lehigh County,PA,NA,NA,67.05539358600583
18041,Montgomery County,PA,99.25233644859813,NA,NA
18066,Lehigh County,PA,NA,74.65224111282845,NA
18071,Carbon County,PA,72.14953271028037,NA,NA
18091,Northampton County,PA,NA,NA,61.80758017492711
18102,Lehigh County,PA,0.3738317757009346,NA,NA
18109,Lehigh County,PA,22.80373831775701,NA,NA
18447,Lackawanna County,PA,69.90654205607477,NA,NA
18466,Monroe County,PA,84.85981308411215,NA,NA
18504,Lackawanna County,PA,56.44859813084112,NA,NA
18634,Luzerne County,PA,NA,40.34003091190108,NA
18640,Luzerne County,PA,37.38317757009346,NA,NA
18704,Luzerne County,PA,NA,85.7805255023184,NA
18977,Bucks County,PA,NA,86.86244204018547,NA
19013,Delaware County,PA,16.448598130841123,NA,NA
19015,Delaware County,PA,NA,41.73106646058732,NA
19018,Delaware County,PA,NA,33.69397217928903,NA
19053,Bucks County,PA,NA,NA,72.8862973760933
19063,Delaware County,PA,48.97196261682243,NA,NA
19087,Chester County,PA,44.67289719626169,NA,NA
19116,Philadelphia County,PA,25.04672897196262,11.282843894899536,NA
19119,Philadelphia County,PA,NA,16.0741885625966,NA
19130,Philadelphia County,PA,NA,31.839258114374037,NA
19144,Philadelphia County,PA,3.925233644859813,7.8825347758887165,NA
19154,Philadelphia County,PA,NA,15.146831530139105,NA
19425,Chester County,PA,NA,NA,76.96793002915452
19440,Montgomery County,PA,53.64485981308411,NA,NA
19446,Montgomery County,PA,13.457943925233645,NA,NA
19473,Montgomery County,PA,NA,69.24265842349304,NA
19475,Chester County,PA,94.76635514018692,NA,NA
19508,Berks County,PA,83.55140186915888,NA,NA
19518,Berks County,PA,NA,50.540958268933544,NA
19525,Montgomery County,PA,NA,91.80834621329211,NA
19530,Berks County,PA,67.10280373831776,NA,NA
19610,Berks County,PA,NA,NA,24.198250728862973
02852,Washington County,RI,NA,24.72952086553323,NA
02896,Providence County,RI,77.38317757009345,NA,NA
02914,Providence County,RI,68.22429906542055,NA,NA
29045,Kershaw County,SC,66.72897196261682,NA,NA
29123,Lexington County,SC,82.99065420560747,NA,NA
29148,Clarendon County,SC,87.85046728971963,NA,NA
29150,Sumter County,SC,NA,NA,19.533527696793
29212,Lexington County,SC,NA,NA,86.58892128279884
29306,Spartanburg County,SC,NA,86.24420401854714,NA
29379,Union County,SC,NA,39.721792890262755,NA
29418,Charleston County,SC,34.018691588785046,NA,NA
29445,Berkeley County,SC,51.96261682242991,NA,NA
29483,Dorchester County,SC,NA,17.619783616692427,NA
29575,Horry County,SC,NA,95.98145285935085,NA
29577,Horry County,SC,NA,NA,47.8134110787172
29585,Georgetown County,SC,NA,46.36785162287481,NA
29605,Greenville County,SC,NA,NA,27.113702623906704
29611,Greenville County,SC,11.214953271028037,NA,NA
29649,Greenwood County,SC,NA,NA,12.244897959183673
29662,Greenville County,SC,57.009345794392516,NA,NA
29715,York County,SC,60,NA,NA
29835,McCormick County,SC,NA,67.23338485316846,79.88338192419825
57078,Yankton County,SD,NA,55.95054095826894,NA
57401,Brown County,SD,NA,35.239567233384854,NA
37043,Montgomery County,TN,NA,19.01081916537867,NA
37076,Davidson County,TN,NA,NA,35.8600583090379
37110,Warren County,TN,NA,22.874806800618238,NA
37129,Rutherford County,TN,14.953271028037381,NA,NA
37174,Williamson County,TN,NA,35.394126738794434,NA
37203,Davidson County,TN,77.57009345794393,NA,NA
37334,Lincoln County,TN,NA,NA,72.01166180758017
37367,Bledsoe County,TN,NA,60.58732612055642,NA
37379,Hamilton County,TN,NA,26.42967542503864,NA
37388,Coffee County,TN,81.12149532710279,NA,NA
37416,Hamilton County,TN,NA,50.0772797527048,NA
37604,Washington County,TN,17.19626168224299,NA,NA
37681,Washington County,TN,84.29906542056075,NA,NA
37686,Sullivan County,TN,NA,83.46213292117464,NA
37692,Unicoi County,TN,91.96261682242991,NA,NA
37830,Anderson County,TN,NA,57.80525502318392,NA
37840,Roane County,TN,NA,50.695517774343124,NA
37865,Sevier County,TN,35.700934579439256,41.57650695517774,NA
37885,Monroe County,TN,NA,78.82534775888718,NA
37917,Knox County,TN,NA,20.556414219474497,NA
37918,Knox County,TN,NA,NA,84.8396501457726
37920,Knox County,TN,NA,NA,30.612244897959183
37922,Knox County,TN,NA,77.125193199381755,NA
37931,Knox County,TN,66.9158878504673,NA,NA
37934,Knox County,TN,NA,NA,42.857142857142854
38138,Shelby County,TN,96.07476635514018,NA,NA
38343,Gibson County,TN,41.308411214953274,NA,NA
38501,Putnam County,TN,16.635514018691588,14.219474497681608,NA
38555,Cumberland County,TN,NA,37.86707882534776,27.988338192419825
38571,Cumberland County,TN,NA,NA,57.14285714285714
38572,Cumberland County,TN,NA,54.404945904173104,NA
75023,Collin County,TX,NA,32.92117465224111,NA
75032,Rockwall County,TX,NA,46.21329211746523,NA
75043,Dallas County,TX,NA,14.683153013910355,NA
75052,Dallas County,TX,15.514018691588785,NA,NA
75062,Dallas County,TX,NA,NA,70.8454810495627
75068,Denton County,TX,27.663551401869157,NA,NA
75135,Hunt County,TX,98.50467289719627,NA,NA
75146,Dallas County,TX,54.39252336448598,NA,NA
75156,Henderson County,TX,71.02803738317756,NA,NA
75209,Dallas County,TX,NA,86.5533230293663,NA
75234,Dallas County,TX,60.747663551401864,NA,NA
75497,Wood County,TX,NA,94.89953632148377,NA
75551,Cass County,TX,NA,75.73415765069552,NA
75561,Bowie County,TX,NA,92.27202472952087,NA
75638,Morris County,TX,NA,96.75425038639877,NA
75670,Harrison County,TX,NA,65.9969088098918,NA
75693,Gregg County,TX,NA,96.13601236476043,NA
75703,Smith County,TX,NA,67.69706336939721,NA
75771,Smith County,TX,NA,26.120556414219475,NA
75785,Cherokee County,TX,NA,80.21638330757341,NA
75789,Smith County,TX,NA,60.741885625966,NA
75803,Anderson County,TX,NA,46.36785162287481,NA
76039,Tarrant County,TX,NA,NA,81.92419825072886
76058,Johnson County,TX,NA,71.4064914992272,NA
76104,Tarrant County,TX,NA,59.50540958268934,NA
76107,Tarrant County,TX,NA,80.21638330757341,NA
76110,Tarrant County,TX,NA,NA,49.85422740524781
76117,Tarrant County,TX,29.719626168224302,NA,NA
76131,Tarrant County,TX,NA,NA,93.29446064139941
76132,Tarrant County,TX,NA,53.78670788253478,NA
76140,Tarrant County,TX,NA,72.3338485316847,NA
76234,Wise County,TX,NA,NA,62.973760932944614
76248,Tarrant County,TX,57.19626168224299,41.112828438948995,NA
76502,Bell County,TX,40.373831775700936,NA,NA
76513,Bell County,TX,46.35514018691589,NA,25.94752186588921
76522,Coryell County,TX,90.65420560747664,NA,73.17784256559767
76542,Bell County,TX,NA,NA,48.68804664723032
76543,Bell County,TX,NA,NA,4.956268221574344
76548,Bell County,TX,NA,13.75579598145286,NA
76706,McLennan County,TX,82.2429906542056,NA,NA
76801,Brown County,TX,NA,92.58114374034004,NA
77061,Harris County,TX,65.60747663551402,NA,NA
77077,Harris County,TX,68.22429906542055,NA,NA
77079,Harris County,TX,NA,55.02318392581144,NA
77080,Harris County,TX,63.925233644859816,NA,NA
77084,Harris County,TX,36.074766355140184,NA,NA
77375,Harris County,TX,64.67289719626169,NA,NA
77388,Harris County,TX,39.25233644859813,31.375579598145286,NA
77429,Harris County,TX,9.906542056074766,NA,NA
77505,Harris County,TX,NA,83.77125193199382,NA
77511,Brazoria County,TX,14.018691588785046,NA,NA
77535,Liberty County,TX,NA,43.12210200927357,NA
77545,Fort Bend County,TX,60.18691588785047,NA,NA
77546,Galveston County,TX,22.61682242990654,NA,NA
77583,Brazoria County,TX,45.42056074766355,NA,NA
77619,Jefferson County,TX,NA,NA,47.23032069970846
77642,Jefferson County,TX,NA,NA,92.12827988338192
77656,Hardin County,TX,50.654205607476634,NA,NA
77659,Hardin County,TX,NA,96.59969088098919,NA
77901,Victoria County,TX,21.869158878504674,NA,NA
77904,Victoria County,TX,NA,NA,58.89212827988338
78040,Webb County,TX,NA,36.476043276661514,NA
78130,Comal County,TX,NA,18.701700154559507,NA
78233,Bexar County,TX,NA,51.46831530139103,NA
78355,Brooks County,TX,NA,NA,100
78577,Hidalgo County,TX,NA,21.638330757341574,NA
78721,Travis County,TX,NA,NA,89.21282798833819
78840,Val Verde County,TX,NA,15.455950540958268,NA
79416,Lubbock County,TX,NA,NA,27.696793002915456
79424,Lubbock County,TX,22.990654205607477,7.727975270479134,NA
79765,Ector County,TX,62.80373831775701,NA,NA
79907,El Paso County,TX,32.89719626168225,NA,NA
79912,El Paso County,TX,NA,31.68469860896445,NA
79932,El Paso County,TX,NA,70.78825347758887,NA
84049,Wasatch County,UT,95.32710280373831,NA,NA
84060,Summit County,UT,NA,NA,95.33527696793003
84067,Weber County,UT,NA,56.723338485316845,NA
84078,Uintah County,UT,14.392523364485982,NA,NA
84092,Salt Lake County,UT,NA,42.503863987635235,NA
84095,Salt Lake County,UT,34.953271028037385,NA,38.48396501457726
84096,Salt Lake County,UT,NA,82.38021638330757,NA
84105,Salt Lake County,UT,69.71962616822431,NA,NA
84108,Salt Lake County,UT,91.21495327102804,NA,NA
84109,Salt Lake County,UT,NA,NA,30.32069970845481
84115,Salt Lake County,UT,33.271028037383175,30.911901081916536,NA
84116,Salt Lake County,UT,NA,29.82998454404946,NA
84118,Salt Lake County,UT,43.925233644859816,NA,NA
84119,Salt Lake County,UT,NA,35.7032457496136,NA
84129,,UT,25.981308411214954,NA,NA
84302,Box Elder County,UT,71.40186915887851,NA,NA
84501,Carbon County,UT,NA,78.05255023183926,NA
84526,Carbon County,UT,NA,99.84544049459042,NA
84604,Utah County,UT,NA,80.83462132921174,NA
84720,Iron County,UT,NA,68.6244204018547,NA
05452,Chittenden County,VT,52.523364485981304,NA,NA
05468,Chittenden County,VT,60.18691588785047,NA,NA
05478,Franklin County,VT,NA,29.984544049459043,NA
05602,Washington County,VT,NA,NA,45.77259475218659
05733,Rutland County,VT,NA,68.00618238021639,NA
20109,Prince William County,VA,28.037383177570092,NA,NA
20147,Loudoun County,VA,NA,52.39567233384853,NA
20155,Prince William County,VA,NA,NA,52.1865889212828
22030,Fairfax County,VA,NA,26.275115919629055,NA
22039,Fairfax County,VA,NA,73.2612055641422,NA
22182,Fairfax County,VA,NA,NA,77.25947521865889
22191,Prince William County,VA,NA,27.04791344667697,54.22740524781341
22192,Prince William County,VA,16.822429906542055,38.94899536321484,NA
22203,Arlington County,VA,67.66355140186916,NA,NA
22207,Arlington County,VA,NA,40.95826893353941,NA
22443,Westmoreland County,VA,NA,82.53477588871716,NA
22553,Spotsylvania County,VA,NA,63.214837712519326,NA
22603,Frederick County,VA,NA,NA,58.309037900874635
22701,Culpeper County,VA,23.177570093457945,91.19010819165379,NA
22801,Harrisonburg city,VA,NA,NA,20.11661807580175
22812,Rockingham County,VA,NA,91.9629057187017,NA
22849,Page County,VA,NA,87.63523956723338,NA
22853,Rockingham County,VA,NA,82.07109737248841,NA
23072,Gloucester County,VA,NA,92.73570324574962,NA
23116,Hanover County,VA,NA,78.67078825347758,NA
23140,New Kent County,VA,97.19626168224299,NA,NA
23223,Henrico County,VA,NA,10.046367851622875,NA
23224,Richmond city,VA,NA,28.129829984544045,NA
23235,Chesterfield County,VA,48.78504672897196,NA,NA
23236,Chesterfield County,VA,NA,NA,56.559766763848394
23237,Chesterfield County,VA,42.05607476635514,NA,NA
23294,Henrico County,VA,NA,94.12673879443587,NA
23320,Chesapeake city,VA,NA,12.673879443585781,NA
23321,Chesapeake city,VA,NA,27.51159196290572,19.825072886297377
23435,Suffolk city,VA,NA,65.06955177743431,NA
23451,Virginia Beach city,VA,NA,64.45131375579598,NA
23452,Virginia Beach city,VA,19.065420560747665,NA,NA
23453,Virginia Beach city,VA,70.8411214953271,NA,NA
23454,Virginia Beach city,VA,NA,9.582689335394127,NA
23455,Virginia Beach city,VA,NA,7.109737248840804,NA
23462,Virginia Beach city,VA,NA,8.346213292117465,NA
23464,Virginia Beach city,VA,NA,2.1638330757341575,NA
23505,Norfolk city,VA,NA,28.90262751159196,NA
23509,Norfolk city,VA,66.16822429906543,NA,NA
23602,Newport News city,VA,NA,NA,7.871720116618077
23666,Hampton city,VA,NA,8.500772797527048,NA
23701,Portsmouth city,VA,NA,21.792890262751158,NA
23704,Portsmouth city,VA,NA,48.84080370942813,NA
23831,Chesterfield County,VA,NA,27.820710973724882,NA
23851,Franklin city,VA,52.149532710280376,NA,NA
23875,Prince George County,VA,74.95327102803738,NA,NA
24124,Giles County,VA,87.66355140186916,NA,NA
24319,Smyth County,VA,97.38317757009347,NA,NA
24333,Galax city,VA,NA,77.58887171561051,NA
24382,Wythe County,VA,40,47.14064914992272,NA
24401,Staunton city,VA,NA,4.945904173106646,NA
24441,Rockingham County,VA,95.14018691588785,NA,NA
24502,Lynchburg city,VA,NA,NA,10.787172011661808
24558,Halifax County,VA,61.86915887850467,NA,NA
24614,Buchanan County,VA,NA,69.39721792890263,NA
98007,King County,WA,NA,93.81761978361669,NA
98029,King County,WA,54.953271028037385,NA,NA
98056,King County,WA,49.7196261682243,NA,NA
98077,King County,WA,NA,74.80680061823803,NA
98110,Kitsap County,WA,NA,33.38485316846986,NA
98117,King County,WA,NA,NA,76.67638483965014
98118,King County,WA,36.44859813084112,NA,NA
98133,King County,WA,NA,18.238021638330757,NA
98198,King County,WA,NA,60.278207109737245,NA
98270,Snohomish County,WA,NA,27.202472952086552,NA
98272,Snohomish County,WA,86.16822429906541,NA,NA
98284,Skagit County,WA,NA,58.26893353941267,NA
98362,Clallam County,WA,31.02803738317757,NA,NA
98363,Clallam County,WA,NA,36.78516228748068,NA
98371,Pierce County,WA,NA,51.15919629057187,NA
98388,Pierce County,WA,NA,89.3353941267388,NA
98406,Pierce County,WA,NA,77.27975270479135,NA
98550,Grays Harbor County,WA,75.88785046728972,69.86089644513137,NA
98563,Grays Harbor County,WA,NA,81.45285935085008,NA
98584,Mason County,WA,NA,NA,62.09912536443149
98801,Chelan County,WA,21.30841121495327,74.0340030911901,NA
97003,NA,NA,NA,65.37867078825347,NA
98826,Chelan County,WA,NA,70.63369397217929,NA
98837,Grant County,WA,27.476635514018692,NA,NA
98851,Grant County,WA,94.95327102803738,NA,NA
98902,Yakima County,WA,NA,NA,44.89795918367347
99156,Pend Oreille County,WA,NA,89.64451313755795,NA
99201,Spokane County,WA,NA,89.95363214837712,NA
99301,Franklin County,WA,NA,4.7913446676970635,NA
99337,Benton County,WA,NA,NA,6.997084548104956
99344,Adams County,WA,NA,NA,94.75218658892129
99352,Benton County,WA,NA,87.78979907264298,20.408163265306122
99354,Benton County,WA,NA,26.738794435857805,18.950437317784257
20001,District of Columbia,DC,48.03738317757009,NA,NA
20002,District of Columbia,DC,NA,6.0278207109737245,NA
20005,District of Columbia,DC,79.06542056074767,NA,NA
20016,District of Columbia,DC,NA,NA,99.41690962099126
20020,District of Columbia,DC,1.6822429906542056,NA,NA
20032,District of Columbia,DC,4.299065420560748,NA,NA
24739,Mercer County,WV,58.69158878504673,NA,NA
25053,Boone County,WV,NA,99.53632148377125,NA
25302,Kanawha County,WV,NA,53.63214837712519,NA
25306,Kanawha County,WV,93.0841121495327,NA,NA
25314,Kanawha County,WV,NA,NA,83.38192419825073
25430,Jefferson County,WV,61.6822429906542,NA,NA
25526,Putnam County,WV,33.271028037383175,NA,NA
25601,Logan County,WV,NA,93.50850077279753,64.1399416909621
26041,Marshall County,WV,40.93457943925234,NA,NA
26062,Hancock County,WV,NA,87.94435857805254,NA
26101,Wood County,WV,NA,NA,16.034985422740526
26104,Wood County,WV,31.775700934579437,NA,NA
26105,Wood County,WV,NA,NA,87.17201166180757
26250,Barbour County,WV,99.62616822429906,NA,NA
53014,Calumet County,WI,66.35514018691589,NA,NA
53045,Waukesha County,WI,91.02803738317758,44.35857805255023,NA
53080,Ozaukee County,WI,NA,NA,76.38483965014578
53105,Racine County,WI,57.570093457943926,40.030911901081915,NA
53110,Milwaukee County,WI,27.850467289719628,NA,NA
53143,Kenosha County,WI,61.308411214953274,NA,NA
53149,Waukesha County,WI,NA,NA,60.05830903790087
53150,Waukesha County,WI,NA,35.08500772797527,NA
53181,Kenosha County,WI,76.82242990654206,NA,NA
53188,Waukesha County,WI,NA,NA,28.279883381924197
53207,Milwaukee County,WI,23.364485981308412,NA,NA
53215,Milwaukee County,WI,3.551401869158879,NA,NA
53216,Milwaukee County,WI,NA,15.919629057187018,NA
53511,Rock County,WI,NA,0.3091190108191654,NA
53536,Rock County,WI,84.11214953271028,NA,NA
53581,Richland County,WI,86.54205607476636,NA,NA
54016,St. Croix County,WI,NA,73.87944358578052,NA
54220,Manitowoc County,WI,63.177570093457945,14.064914992272023,0.5830903790087464
54235,Door County,WI,53.271028037383175,NA,NA
54403,Marathon County,WI,NA,26.584234930448225,NA
54451,Taylor County,WI,NA,63.98763523956723,NA
54703,Eau Claire County,WI,NA,26.89335394126739,NA
54891,Bayfield County,WI,95.88785046728971,NA,NA
54902,Winnebago County,WI,NA,NA,34.40233236151604
82009,Laramie County,WY,NA,NA,51.60349854227405
82072,Albany County,WY,NA,NA,81.63265306122449
82601,Natrona County,WY,NA,NA,83.96501457725948
