ZipCode,county,state,Youth,Pediatric,Adult,Retirement,Geriatric
35014,Talladega County,AL,NA,NA,NA,95.94731509625126,NA
35020,Jefferson County,AL,NA,NA,12.53291205897841,NA,NA
35022,Jefferson County,AL,NA,NA,72.66982622432859,NA,NA
35051,Shelby County,AL,NA,NA,88.62559241706161,NA,NA
35120,St. Clair County,AL,NA,85.5813953488372,87.15113217482886,NA,NA
35126,Jefferson County,AL,NA,NA,82.46445497630332,NA,NA
35128,St. Clair County,AL,NA,NA,76.98788836229595,NA,NA
35160,Talladega County,AL,NA,NA,14.797261716692997,NA,NA
35204,Jefferson County,AL,NA,NA,NA,71.22593718338399,NA
35205,Jefferson County,AL,NA,NA,NA,NA,82.8665568369028
35209,Jefferson County,AL,NA,NA,NA,NA,71.82866556836903
35210,Jefferson County,AL,NA,NA,71.19536598209584,NA,NA
35211,Jefferson County,AL,NA,NA,NA,NA,34.92586490939045
35404,Tuscaloosa County,AL,NA,NA,NA,NA,78.25370675453048
35405,Tuscaloosa County,AL,NA,40.46511627906977,6.6350710900473935,NA,NA
35473,Tuscaloosa County,AL,NA,NA,55.34491837809373,NA,NA
35476,Tuscaloosa County,AL,NA,NA,63.98104265402843,NA,NA
35503,Walker County,AL,NA,NA,66.87730384412849,NA,NA
35601,Morgan County,AL,27.900552486187845,NA,11.795681937862032,NA,NA
35603,Morgan County,AL,NA,NA,47.077409162717224,NA,NA
35611,Limestone County,AL,NA,66.04651162790698,NA,NA,NA
35613,Limestone County,AL,NA,NA,NA,NA,72.32289950576606
35614,Limestone County,AL,NA,NA,76.0926803580832,NA,NA
35630,Lauderdale County,AL,NA,NA,27.90942601369142,NA,NA
35640,Morgan County,AL,NA,NA,32.01685097419695,40.3242147922999,NA
35650,Lawrence County,AL,NA,NA,55.81885202738284,NA,NA
35654,Franklin County,AL,NA,NA,89.31016324381254,NA,NA
35673,Morgan County,AL,NA,96.27906976744185,NA,NA,NA
35749,Madison County,AL,NA,NA,NA,57.34549138804458,NA
35803,Madison County,AL,74.03314917127072,NA,NA,NA,NA
35810,Madison County,AL,NA,NA,28.12006319115324,NA,NA
35811,Madison County,AL,NA,NA,NA,NA,38.5502471169687
35816,Madison County,AL,NA,NA,71.87993680884675,NA,NA
35952,Etowah County,AL,NA,NA,88.88888888888889,NA,NA
36066,Autauga County,AL,NA,NA,52.711953659820956,NA,NA
36078,Elmore County,AL,87.84530386740332,NA,NA,NA,NA
36081,Pike County,AL,72.92817679558011,NA,NA,NA,NA
36117,Montgomery County,AL,38.950276243093924,NA,NA,NA,NA
36303,Houston County,AL,NA,69.30232558139535,20.85308056872038,NA,NA
36421,Covington County,AL,NA,NA,NA,NA,72.15815485996706
36426,Escambia County,AL,NA,NA,57.29331226961558,NA,NA
36502,Escambia County,AL,NA,NA,43.28593996840443,NA,NA
36507,Baldwin County,AL,NA,NA,NA,NA,73.14662273476112
36603,Mobile County,AL,NA,NA,86.46656134807793,NA,NA
36605,Mobile County,AL,NA,NA,NA,54.00202634245187,NA
36701,Dallas County,AL,NA,NA,24.433912585571356,NA,NA
36744,Hale County,AL,NA,NA,99.84202211690362,NA,NA
99503,Anchorage Municipality,AK,NA,72.55813953488372,45.86624539231175,NA,NA
99504,Anchorage Municipality,AK,NA,NA,73.51237493417588,NA,NA
99507,Anchorage Municipality,AK,NA,NA,31.27962085308057,NA,NA
99508,Anchorage Municipality,AK,NA,NA,68.77303844128488,NA,NA
99559,Bethel Census Area,AK,NA,47.44186046511628,NA,NA,NA
99577,Anchorage Municipality,AK,NA,NA,92.62769878883623,NA,NA
99623,,AK,NA,NA,97.73565034228542,NA,NA
99705,Fairbanks North Star Borough,AK,NA,NA,NA,92.2998986828774,NA
99801,Juneau City and Borough,AK,NA,NA,NA,NA,98.35255354200989
85006,Maricopa County,AZ,NA,NA,NA,NA,90.77429983525536
85027,Maricopa County,AZ,NA,NA,NA,59.57446808510638,NA
85050,Maricopa County,AZ,NA,NA,54.976303317535546,NA,NA
85053,Maricopa County,AZ,NA,NA,45.18167456556082,NA,NA
85119,Pinal County,AZ,NA,NA,70.8794102159031,49.442755825734544,NA
85120,Pinal County,AZ,NA,NA,NA,NA,31.466227347611202
85122,Pinal County,AZ,NA,NA,6.529752501316483,50.050658561296856,NA
85138,Pinal County,AZ,NA,NA,72.82780410742497,NA,NA
85208,Maricopa County,AZ,NA,NA,NA,42.35055724417426,NA
85253,Maricopa County,AZ,NA,NA,96.62980516061084,NA,NA
85255,Maricopa County,AZ,NA,NA,NA,NA,28.171334431630974
85326,Maricopa County,AZ,NA,NA,63.03317535545023,NA,NA
85335,Maricopa County,AZ,NA,36.74418604651163,32.49078462348605,NA,NA
85338,Maricopa County,AZ,NA,NA,NA,49.544072948328264,NA
85339,Maricopa County,AZ,NA,27.44186046511628,NA,NA,NA
85340,Maricopa County,AZ,NA,NA,66.45602948920485,NA,NA
85344,La Paz County,AZ,NA,NA,71.14270668773038,NA,95.22240527182866
85349,Yuma County,AZ,NA,NA,32.01685097419695,89.05775075987842,NA
85350,Yuma County,AZ,NA,NA,91.20589784096893,NA,78.74794069192751
85364,Yuma County,AZ,NA,NA,NA,NA,5.601317957166392
85373,Maricopa County,AZ,NA,NA,82.14849921011059,NA,NA
85374,Maricopa County,AZ,NA,NA,46.44549763033176,NA,NA
85382,Maricopa County,AZ,NA,NA,NA,49.13880445795339,NA
85501,Gila County,AZ,NA,NA,76.4612954186414,NA,NA
85546,Graham County,AZ,NA,NA,80.35808320168509,NA,NA
85607,Cochise County,AZ,NA,NA,24.855186940494995,NA,NA
85614,Pima County,AZ,NA,NA,NA,NA,28.336079077429982
85621,Santa Cruz County,AZ,NA,NA,NA,49.13880445795339,NA
85622,Pima County,AZ,NA,NA,NA,68.9969604863222,NA
85634,Pima County,AZ,NA,NA,19.641916798314902,NA,NA
85704,Pima County,AZ,NA,NA,NA,33.73860182370821,NA
85705,Pima County,AZ,NA,NA,35.01843075302791,NA,NA
85706,Pima County,AZ,NA,NA,14.84992101105845,NA,NA
85710,Pima County,AZ,NA,NA,7.161664033701948,75.48125633232016,NA
85711,Pima County,AZ,NA,NA,NA,NA,38.71499176276771
85713,Pima County,AZ,NA,NA,5.16061084781464,42.24924012158054,NA
85716,Pima County,AZ,NA,65.11627906976744,NA,NA,NA
85718,Pima County,AZ,NA,NA,86.09794628751975,NA,23.228995057660626
85730,Pima County,AZ,NA,NA,59.347024749868346,NA,NA
85741,Pima County,AZ,NA,NA,82.30647709320695,50.15197568389058,NA
85745,Pima County,AZ,NA,NA,58.24117956819379,NA,NA
85755,Pima County,AZ,NA,NA,NA,82.16818642350557,33.93739703459638
85756,Pima County,AZ,NA,NA,NA,NA,79.9011532125206
86001,Coconino County,AZ,NA,NA,NA,80.85106382978722,NA
86033,Navajo County,AZ,62.70718232044199,NA,NA,NA,NA
86034,Navajo County,AZ,NA,NA,NA,98.48024316109422,NA
86040,Coconino County,AZ,NA,55.348837209302324,NA,NA,NA
86045,Coconino County,AZ,NA,7.906976744186046,22.274881516587676,NA,NA
86047,Navajo County,AZ,NA,NA,32.648762506582415,NA,NA
86303,Yavapai County,AZ,NA,NA,NA,47.92299898682877,NA
86305,Yavapai County,AZ,62.430939226519335,NA,65.98209583991574,38.196555217831815,NA
86403,Mohave County,AZ,NA,NA,77.46182201158504,NA,NA
86409,Mohave County,AZ,NA,NA,6.898367561874672,NA,NA
86503,Apache County,AZ,NA,12.093023255813954,NA,54.913880445795336,NA
86510,Navajo County,AZ,NA,NA,NA,NA,99.67051070840198
86556,Apache County,AZ,NA,NA,94.681411269089,NA,NA
71639,Desha County,AR,96.68508287292818,NA,NA,NA,NA
71701,Ouachita County,AR,NA,NA,77.09320695102686,NA,NA
71854,Miller County,AR,NA,NA,NA,29.78723404255319,NA
71901,Garland County,AR,NA,NA,NA,NA,41.680395387149915
72034,Faulkner County,AR,NA,NA,NA,NA,20.922570016474467
72103,Saline County,AR,NA,NA,NA,71.83383991894631,66.22734761120263
72104,Hot Spring County,AR,NA,NA,NA,64.33637284701115,NA
72116,Pulaski County,AR,NA,NA,NA,45.8966565349544,NA
72117,Pulaski County,AR,NA,NA,NA,80.6484295845998,NA
72204,Pulaski County,AR,NA,NA,NA,NA,79.24217462932455
72211,Pulaski County,AR,NA,NA,84.04423380726699,NA,NA
72335,St. Francis County,AR,NA,NA,89.942074776198,NA,NA
72416,Craighead County,AR,NA,NA,87.99368088467614,NA,NA
72740,Madison County,AR,NA,NA,95.31332280147447,NA,NA
72764,Washington County,AR,NA,NA,NA,60.48632218844985,NA
72830,Johnson County,AR,NA,NA,NA,NA,91.92751235584844
72901,Sebastian County,AR,NA,NA,NA,75.78520770010132,NA
90004,Los Angeles County,CA,NA,NA,43.5492364402317,NA,NA
90007,Los Angeles County,CA,NA,NA,25.908372827804104,NA,NA
90012,Los Angeles County,CA,NA,NA,NA,83.78926038500506,NA
90015,Los Angeles County,CA,NA,NA,NA,NA,82.04283360790774
90017,Los Angeles County,CA,NA,NA,89.52080042127436,83.9918946301925,NA
90020,Los Angeles County,CA,NA,NA,82.46445497630332,NA,NA
90023,Los Angeles County,CA,NA,NA,96.6824644549763,NA,NA
90026,Los Angeles County,CA,NA,NA,45.97156398104265,NA,NA
90029,Los Angeles County,CA,NA,NA,63.13849394418115,NA,NA
90031,Los Angeles County,CA,NA,NA,70.61611374407583,NA,80.56013179571664
90034,Los Angeles County,CA,NA,NA,42.812006319115326,NA,NA
90035,Los Angeles County,CA,NA,NA,66.5086887835703,NA,NA
90036,Los Angeles County,CA,NA,NA,NA,79.83789260385005,NA
90037,Los Angeles County,CA,NA,NA,NA,44.680851063829785,NA
90043,Los Angeles County,CA,NA,NA,44.54976303317535,25.633232016210737,NA
90044,Los Angeles County,CA,NA,8.837209302325581,NA,NA,NA
90046,Los Angeles County,CA,NA,NA,NA,63.32320162107396,NA
90047,Los Angeles County,CA,NA,NA,14.375987361769353,NA,NA
90057,Los Angeles County,CA,NA,NA,72.03791469194313,NA,NA
90063,Los Angeles County,CA,NA,NA,NA,49.746707193515704,NA
90066,Los Angeles County,CA,NA,NA,NA,NA,29.489291598023065
90201,Los Angeles County,CA,NA,NA,NA,40.62816616008105,57.166392092257
90211,Los Angeles County,CA,NA,NA,99.52606635071089,NA,NA
90232,Los Angeles County,CA,NA,NA,95.89257503949446,NA,NA
90240,Los Angeles County,CA,NA,NA,NA,NA,85.667215815486
90250,Los Angeles County,CA,NA,NA,85.30805687203792,NA,NA
90255,Los Angeles County,CA,NA,NA,63.875724065297526,NA,NA
90277,Los Angeles County,CA,NA,NA,53.23854660347551,NA,NA
90280,Los Angeles County,CA,35.91160220994475,NA,29.067930489731435,NA,NA
90301,Los Angeles County,CA,NA,NA,68.66771985255397,NA,NA
90304,Los Angeles County,CA,NA,NA,92.3117430226435,NA,NA
90404,Los Angeles County,CA,NA,NA,NA,61.904761904761905,NA
90501,Los Angeles County,CA,NA,NA,48.02527646129542,NA,NA
90602,Los Angeles County,CA,NA,NA,64.82359136387572,NA,NA
90603,Los Angeles County,CA,NA,NA,NA,NA,47.28171334431631
90604,Los Angeles County,CA,NA,NA,NA,60.89159067882473,NA
90631,Orange County,CA,NA,NA,33.07003686150606,20.060790273556233,NA
90680,Orange County,CA,NA,NA,86.30858346498157,NA,NA
90703,Los Angeles County,CA,NA,NA,NA,NA,35.09060955518946
90710,Los Angeles County,CA,NA,NA,NA,66.97061803444782,NA
90740,Orange County,CA,NA,NA,NA,48.530901722391086,NA
90745,Los Angeles County,CA,NA,NA,37.80937335439705,NA,NA
90806,Los Angeles County,CA,NA,NA,84.30753027909425,NA,NA
90808,Los Angeles County,CA,NA,NA,57.60926803580833,NA,NA
90813,Los Angeles County,CA,NA,NA,30.01579778830964,NA,NA
90815,Los Angeles County,CA,NA,NA,49.49973670352817,NA,NA
91010,Los Angeles County,CA,NA,NA,87.83570300157977,NA,NA
91040,Los Angeles County,CA,NA,NA,88.78357030015798,NA,NA
91104,Los Angeles County,CA,NA,NA,42.65402843601896,NA,NA
91105,Los Angeles County,CA,NA,NA,96.73512374934175,NA,NA
91107,Los Angeles County,CA,NA,NA,NA,52.988855116514685,NA
91203,Los Angeles County,CA,NA,93.48837209302326,NA,NA,NA
91204,Los Angeles County,CA,NA,NA,86.1506055818852,NA,NA
91206,Los Angeles County,CA,NA,NA,75.51342812006318,NA,NA
91311,Los Angeles County,CA,NA,NA,55.55555555555556,NA,NA
91324,Los Angeles County,CA,NA,NA,77.9884149552396,NA,NA
91335,Los Angeles County,CA,NA,NA,27.804107424960506,NA,14.991762767710048
91342,Los Angeles County,CA,NA,NA,NA,16.616008105369808,NA
91344,Los Angeles County,CA,NA,NA,44.023170089520804,NA,NA
91350,Los Angeles County,CA,NA,NA,NA,82.47213779128673,NA
91351,Los Angeles County,CA,NA,NA,65.45550289626118,NA,NA
91354,Los Angeles County,CA,NA,NA,80.8320168509742,NA,NA
91360,Ventura County,CA,NA,NA,NA,53.191489361702125,NA
91384,Los Angeles County,CA,NA,NA,77.56714060031595,NA,NA
91606,Los Angeles County,CA,NA,NA,60.55818852027382,NA,NA
91722,Los Angeles County,CA,NA,NA,70.56345444971038,NA,NA
91739,San Bernardino County,CA,NA,NA,NA,NA,82.20757825370676
91762,San Bernardino County,CA,NA,NA,NA,NA,54.20098846787479
91765,Los Angeles County,CA,80.11049723756905,NA,NA,NA,NA
91768,Los Angeles County,CA,NA,NA,41.81147972617167,NA,NA
91791,Los Angeles County,CA,NA,NA,82.93838862559242,NA,NA
91792,Los Angeles County,CA,NA,NA,68.82569773565034,NA,NA
91901,San Diego County,CA,NA,NA,88.57293312269616,NA,NA
91902,San Diego County,CA,NA,NA,91.31121642969984,NA,NA
91915,San Diego County,CA,NA,NA,88.94154818325435,NA,NA
91942,San Diego County,CA,NA,NA,NA,NA,27.347611202635914
91977,San Diego County,CA,NA,NA,33.07003686150606,31.5096251266464,NA
92011,San Diego County,CA,NA,NA,NA,68.9969604863222,NA
92019,San Diego County,CA,NA,NA,NA,51.16514690982776,NA
92024,San Diego County,CA,NA,NA,39.23117430226435,NA,NA
92025,San Diego County,CA,NA,NA,47.3407056345445,NA,NA
92029,San Diego County,CA,NA,NA,86.20326487625066,NA,NA
92069,San Diego County,CA,NA,NA,69.9315429173249,NA,NA
92101,San Diego County,CA,NA,NA,13.112164296998422,NA,NA
92105,San Diego County,CA,NA,NA,15.692469720905741,NA,NA
92107,San Diego County,CA,NA,NA,NA,91.69199594731509,NA
92110,San Diego County,CA,NA,NA,NA,NA,76.93574958813838
92113,San Diego County,CA,NA,NA,21.69562927856767,NA,NA
92116,San Diego County,CA,NA,NA,NA,NA,89.12685337726523
92117,San Diego County,CA,NA,NA,NA,NA,77.59472817133442
92122,San Diego County,CA,NA,NA,NA,72.54305977710233,NA
92127,San Diego County,CA,NA,NA,68.56240126382306,NA,NA
92128,San Diego County,CA,NA,NA,75.09215376513954,NA,NA
92130,San Diego County,CA,NA,95.34883720930233,NA,NA,82.53706754530478
92139,San Diego County,CA,NA,NA,NA,76.08915906788248,NA
92203,Riverside County,CA,NA,NA,NA,22.593718338399192,NA
92223,Riverside County,CA,NA,NA,26.487625065824115,NA,48.43492586490939
92227,Imperial County,CA,NA,NA,NA,62.31003039513677,NA
92234,Riverside County,CA,NA,NA,NA,22.289766970618036,NA
92264,Riverside County,CA,NA,NA,46.182201158504476,NA,NA
92311,San Bernardino County,CA,NA,NA,NA,NA,50.90609555189456
92315,San Bernardino County,CA,NA,NA,95.68193786203265,NA,NA
92335,San Bernardino County,CA,NA,NA,8.056872037914692,NA,NA
92336,San Bernardino County,CA,NA,NA,NA,20.364741641337385,NA
92345,San Bernardino County,CA,NA,NA,8.530805687203792,NA,NA
92392,San Bernardino County,CA,NA,NA,50.13164823591364,NA,NA
92395,San Bernardino County,CA,NA,NA,NA,47.41641337386018,NA
92410,San Bernardino County,CA,NA,NA,30.595050026329645,NA,NA
92509,Riverside County,CA,NA,NA,NA,40.93211752786221,NA
92530,Riverside County,CA,NA,NA,NA,NA,81.71334431630972
92543,Riverside County,CA,NA,NA,73.40705634544497,57.64944275582573,NA
92553,Riverside County,CA,NA,NA,23.9073196419168,NA,NA
92562,Riverside County,CA,NA,NA,NA,37.08206686930091,NA
92563,Riverside County,CA,NA,NA,30.384412848867825,NA,NA
92584,Riverside County,CA,NA,NA,43.44391785150079,NA,NA
92586,Riverside County,CA,NA,NA,81.8852027382833,NA,NA
92606,Orange County,CA,NA,NA,83.35966298051606,NA,NA
92612,Orange County,CA,NA,NA,73.88098999473407,NA,NA
92627,Orange County,CA,NA,NA,NA,70.92198581560284,NA
92629,Orange County,CA,88.95027624309392,NA,NA,NA,NA
92630,Orange County,CA,NA,NA,NA,21.681864235055727,NA
92660,Orange County,CA,NA,NA,60.821484992101105,NA,NA
92673,Orange County,CA,56.9060773480663,NA,NA,69.70618034447821,NA
92677,Orange County,CA,NA,NA,NA,12.968591691995949,NA
92683,Orange County,CA,NA,NA,NA,23.302938196555218,NA
92688,Orange County,CA,NA,NA,35.07109004739337,NA,NA
92692,Orange County,CA,NA,NA,38.65192206424434,NA,NA
92704,Orange County,CA,NA,NA,NA,NA,79.73640856672158
92806,Orange County,CA,NA,NA,NA,NA,97.19934102141681
92808,Orange County,CA,NA,NA,79.77883096366509,NA,NA
92821,Orange County,CA,NA,NA,63.55976829910479,NA,NA
92831,Orange County,CA,NA,NA,52.29067930489732,NA,NA
92832,Orange County,CA,NA,NA,84.36018957345972,NA,NA
92840,Orange County,CA,NA,NA,NA,41.13475177304964,NA
92845,Orange County,CA,NA,NA,NA,70.31408308004052,NA
92879,Riverside County,CA,NA,NA,50.81621906266456,NA,NA
92880,Riverside County,CA,NA,NA,83.67561874670879,NA,NA
92887,Orange County,CA,NA,NA,75.19747235387045,NA,NA
93001,Ventura County,CA,NA,NA,23.486045286993154,NA,NA
93003,Ventura County,CA,NA,NA,66.19273301737756,23.809523809523807,NA
93004,Ventura County,CA,NA,NA,84.09689310163245,NA,NA
93010,Ventura County,CA,NA,NA,31.700895208004216,NA,13.179571663920923
93033,Ventura County,CA,NA,6.976744186046512,NA,NA,NA
93041,Ventura County,CA,NA,NA,65.77145866245392,NA,NA
93060,Ventura County,CA,NA,NA,NA,79.33130699088146,73.47611202635915
93065,Ventura County,CA,NA,NA,65.82411795681938,NA,NA
93215,Kern County,CA,NA,NA,59.241706161137444,NA,NA
93274,Tulare County,CA,NA,NA,4.476040021063718,NA,NA
93291,Tulare County,CA,NA,NA,18.694049499736703,NA,NA
93307,Kern County,CA,NA,NA,41.49552395997894,20.972644376899694,53.212520593080725
93308,Kern County,CA,NA,NA,25.223802001053187,34.04255319148936,NA
93309,Kern County,CA,NA,NA,NA,NA,71.00494233937397
93313,Kern County,CA,NA,NA,NA,92.09726443768997,NA
93401,San Luis Obispo County,CA,NA,NA,56.97735650342285,NA,NA
93434,Santa Barbara County,CA,NA,NA,96.26119010005266,NA,NA
93446,San Luis Obispo County,CA,NA,14.418604651162791,NA,NA,NA
93451,San Luis Obispo County,CA,NA,88.83720930232558,NA,NA,NA
93458,Santa Barbara County,CA,23.204419889502763,NA,NA,83.28267477203647,NA
93514,Inyo County,CA,NA,NA,NA,75.07598784194529,NA
93552,Los Angeles County,CA,56.353591160220994,NA,NA,NA,NA
93555,Kern County,CA,NA,NA,NA,60.385005065856134,NA
93561,Kern County,CA,NA,NA,NA,57.75075987841946,NA
93591,Los Angeles County,CA,NA,NA,NA,99.49341438703141,NA
93618,Tulare County,CA,50.552486187845304,NA,NA,NA,NA
93631,Fresno County,CA,NA,NA,NA,90.98277608915907,NA
93635,Merced County,CA,NA,NA,38.91521853607161,NA,NA
93638,Madera County,CA,NA,NA,49.763033175355446,NA,NA
93702,Fresno County,CA,NA,NA,79.25223802001054,NA,NA
93703,Fresno County,CA,NA,NA,42.232754081095315,NA,NA
93722,Fresno County,CA,8.011049723756907,NA,NA,18.237082066869302,NA
93723,Fresno County,CA,NA,NA,NA,96.04863221884499,NA
93726,Fresno County,CA,NA,NA,54.13375460768825,NA,NA
93727,Fresno County,CA,NA,NA,NA,28.67274569402229,NA
93728,Fresno County,CA,NA,NA,NA,NA,62.27347611202636
93905,Monterey County,CA,NA,NA,35.65034228541338,NA,NA
93906,Monterey County,CA,NA,NA,38.283307003686154,NA,NA
93908,Monterey County,CA,97.79005524861878,NA,NA,NA,NA
93923,Monterey County,CA,NA,NA,NA,NA,13.344316309719934
93950,Monterey County,CA,NA,NA,89.73143759873618,NA,NA
94002,San Mateo County,CA,NA,NA,NA,NA,47.94069192751236
94010,San Mateo County,CA,NA,NA,51.18483412322274,NA,NA
94015,San Mateo County,CA,NA,NA,76.19799894681411,NA,NA
94019,San Mateo County,CA,NA,NA,83.93891521853607,64.53900709219859,58.6490939044481
94025,San Mateo County,CA,NA,NA,48.70984728804634,NA,NA
94044,San Mateo County,CA,NA,NA,52.13270142180095,NA,NA
94063,San Mateo County,CA,NA,NA,87.88836229594523,NA,NA
94066,San Mateo County,CA,NA,NA,NA,45.59270516717325,NA
94080,San Mateo County,CA,NA,NA,30.01579778830964,NA,NA
94103,San Francisco County,CA,NA,NA,NA,20.871327254305978,NA
94105,San Francisco County,CA,NA,NA,96.52448657187995,NA,NA
94107,San Francisco County,CA,NA,NA,43.127962085308056,NA,NA
94109,San Francisco County,CA,NA,NA,62.29594523433386,14.994934143870314,NA
94110,San Francisco County,CA,NA,NA,11.058451816745656,11.043566362715298,NA
94112,San Francisco County,CA,NA,24.651162790697676,21.274354923644022,9.118541033434651,NA
94114,San Francisco County,CA,NA,NA,78.62032648762506,NA,NA
94115,San Francisco County,CA,NA,NA,NA,86.93009118541033,69.19275123558485
94116,San Francisco County,CA,NA,NA,56.60874144286466,NA,15.485996705107082
94121,San Francisco County,CA,NA,NA,91.7324907846235,NA,NA
94122,San Francisco County,CA,NA,NA,NA,25.430597771023304,NA
94124,San Francisco County,CA,NA,NA,22.169562927856767,NA,NA
94131,San Francisco County,CA,NA,NA,65.13954713006845,NA,NA
94132,San Francisco County,CA,NA,NA,NA,69.90881458966565,NA
94134,San Francisco County,CA,79.00552486187846,NA,NA,NA,NA
94303,San Mateo County,CA,NA,NA,NA,32.21884498480243,NA
94501,Alameda County,CA,58.011049723756905,NA,NA,NA,NA
94505,Contra Costa County,CA,NA,NA,NA,85.1063829787234,NA
94506,Contra Costa County,CA,NA,NA,NA,78.72340425531915,NA
94509,Contra Costa County,CA,NA,NA,19.483938915218534,15.906788247213779,NA
94523,Contra Costa County,CA,NA,NA,NA,62.107396149949345,NA
94538,Alameda County,CA,65.74585635359117,NA,NA,NA,NA
94544,Alameda County,CA,NA,NA,16.324381253291207,NA,NA
94551,Alameda County,CA,NA,NA,48.393891521853604,NA,NA
94555,Alameda County,CA,NA,NA,68.72037914691943,NA,NA
94561,Contra Costa County,CA,NA,NA,NA,52.17831813576495,NA
94565,Contra Costa County,CA,27.348066298342545,NA,NA,NA,NA
94566,Alameda County,CA,NA,NA,NA,41.641337386018236,NA
94577,Alameda County,CA,NA,NA,34.80779357556609,NA,NA
94579,Alameda County,CA,NA,NA,NA,78.92603850050659,NA
94585,Solano County,CA,NA,NA,94.89204844655082,NA,NA
94603,Alameda County,CA,NA,NA,46.70879410215903,NA,NA
94605,Alameda County,CA,NA,NA,21.5376513954713,NA,NA
94608,Alameda County,CA,NA,NA,NA,83.18135764944276,NA
94609,Alameda County,CA,NA,NA,88.25697735650341,NA,NA
94621,Alameda County,CA,NA,NA,29.225908372827803,NA,NA
94703,Alameda County,CA,NA,NA,70.93206951026856,NA,NA
94707,Alameda County,CA,NA,NA,NA,NA,81.38385502471169
94710,Alameda County,CA,NA,NA,NA,NA,99.835255354201
94803,Contra Costa County,CA,NA,NA,NA,80.1418439716312,NA
94806,Contra Costa County,CA,67.67955801104972,NA,NA,NA,NA
94901,Marin County,CA,NA,NA,NA,42.35055724417426,NA
94949,Marin County,CA,NA,NA,82.46445497630332,NA,NA
94952,Sonoma County,CA,NA,NA,78.51500789889415,NA,NA
95023,San Benito County,CA,NA,NA,61.61137440758294,NA,NA
95035,Santa Clara County,CA,NA,NA,NA,51.874366767983794,NA
95051,Santa Clara County,CA,NA,NA,NA,NA,40.0329489291598
95116,Santa Clara County,CA,NA,NA,NA,NA,61.12026359143328
95120,Santa Clara County,CA,NA,NA,NA,NA,93.41021416803954
95123,Santa Clara County,CA,NA,NA,35.96629805160611,NA,NA
95127,Santa Clara County,CA,NA,NA,39.54713006845708,NA,NA
95130,Santa Clara County,CA,NA,NA,98.15692469720906,NA,NA
95132,Santa Clara County,CA,NA,NA,NA,NA,58.154859967051074
95148,Santa Clara County,CA,NA,NA,89.57345971563981,NA,NA
95203,San Joaquin County,CA,NA,NA,86.6245392311743,NA,NA
95205,San Joaquin County,CA,NA,NA,NA,NA,82.53706754530478
95206,San Joaquin County,CA,NA,NA,19.11532385466035,NA,NA
95210,San Joaquin County,CA,70.99447513812154,NA,NA,63.93110435663627,NA
95220,San Joaquin County,CA,NA,NA,NA,NA,86.16144975288303
95252,Calaveras County,CA,NA,NA,85.99262769878884,NA,NA
95307,Stanislaus County,CA,NA,NA,29.48920484465508,NA,NA
95316,Stanislaus County,CA,NA,NA,NA,95.33941236068895,NA
95336,San Joaquin County,CA,NA,NA,27.066877303844127,NA,NA
95338,Mariposa County,CA,NA,NA,NA,74.16413373860182,NA
95348,Merced County,CA,NA,NA,NA,71.12462006079028,NA
95350,Stanislaus County,CA,NA,NA,NA,16.514690982776088,NA
95355,Stanislaus County,CA,48.34254143646409,NA,52.97525013164823,11.347517730496454,NA
95356,Stanislaus County,CA,NA,NA,NA,NA,60.95551894563427
95361,Stanislaus County,CA,NA,86.51162790697674,NA,NA,NA
95370,Tuolumne County,CA,NA,NA,NA,50.253292806484296,NA
95386,Stanislaus County,CA,NA,NA,85.72933122696156,NA,NA
95403,Sonoma County,CA,NA,NA,NA,42.857142857142854,NA
95422,Lake County,CA,NA,NA,60.66350710900474,NA,NA
95425,Sonoma County,CA,NA,NA,NA,86.52482269503547,NA
95437,Mendocino County,CA,NA,NA,NA,44.984802431610944,NA
95621,Sacramento County,CA,36.46408839779006,NA,NA,NA,NA
95624,Sacramento County,CA,NA,NA,46.55081621906266,NA,NA
95628,Sacramento County,CA,NA,NA,63.296471827277514,44.07294832826747,NA
95667,El Dorado County,CA,NA,NA,NA,NA,2.471169686985173
95678,Placer County,CA,NA,NA,48.55186940494997,NA,NA
95685,Amador County,CA,NA,NA,99.63138493944182,NA,NA
95693,Sacramento County,CA,NA,NA,NA,90.17223910840933,NA
95695,Yolo County,CA,NA,NA,68.03580832016851,NA,NA
95726,El Dorado County,CA,NA,NA,94.47077409162718,NA,NA
95747,Placer County,CA,NA,NA,NA,43.76899696048632,12.850082372322898
95821,Sacramento County,CA,NA,NA,41.12690889942075,NA,NA
95822,Sacramento County,CA,NA,NA,37.70405476566614,NA,NA
95823,Sacramento County,CA,NA,NA,10.584518167456556,NA,NA
95824,Sacramento County,CA,NA,NA,56.9246972090574,NA,NA
95826,Sacramento County,CA,NA,NA,53.6071616640337,NA,NA
95827,Sacramento County,CA,NA,NA,68.98367561874672,NA,NA
95831,Sacramento County,CA,NA,NA,NA,NA,26.02965403624382
95833,Sacramento County,CA,NA,NA,NA,96.55521783181358,NA
95928,Butte County,CA,NA,NA,NA,73.86018237082067,NA
95954,Butte County,CA,NA,NA,39.389152185360714,NA,NA
95966,Butte County,CA,NA,NA,78.93628225381781,NA,NA
95991,Sutter County,CA,NA,NA,NA,NA,90.44481054365733
95993,Sutter County,CA,NA,NA,46.076882569773566,NA,NA
96001,Shasta County,CA,NA,NA,NA,NA,48.270181219110384
96021,Tehama County,CA,NA,NA,NA,62.00607902735562,NA
96080,Tehama County,CA,NA,NA,NA,29.68591691995947,NA
80005,Jefferson County,CO,NA,NA,86.25592417061611,NA,NA
80010,Arapahoe County,CO,NA,NA,16.53501843075303,NA,NA
80011,Arapahoe County,CO,NA,NA,5.845181674565561,NA,48.105436573311366
80013,Arapahoe County,CO,NA,NA,8.372827804107425,NA,NA
80014,Arapahoe County,CO,NA,NA,NA,81.15501519756839,NA
80015,Arapahoe County,CO,NA,NA,68.45708267509215,NA,NA
80016,Arapahoe County,CO,NA,NA,NA,NA,87.97364085667215
80033,Jefferson County,CO,NA,NA,49.28909952606635,NA,NA
80111,Arapahoe County,CO,NA,NA,NA,NA,73.97034596375617
80113,Arapahoe County,CO,NA,NA,86.57187993680886,82.26950354609929,NA
80123,Jefferson County,CO,NA,NA,47.13006845708267,NA,NA
80128,Jefferson County,CO,NA,NA,59.2943654555029,NA,NA
80204,Denver County,CO,NA,NA,54.291732490784625,66.76798378926038,NA
80205,Denver County,CO,NA,NA,NA,37.79128672745694,NA
80212,Denver County,CO,NA,NA,78.19905213270142,NA,NA
80214,Jefferson County,CO,NA,NA,40.179041600842545,NA,NA
80218,Denver County,CO,NA,NA,NA,82.8774062816616,NA
80219,Denver County,CO,NA,NA,67.66719325961033,NA,NA
80220,Denver County,CO,NA,NA,31.911532385466035,NA,NA
80221,Adams County,CO,NA,NA,81.99052132701422,NA,NA
80228,Jefferson County,CO,NA,NA,NA,60.89159067882473,78.5831960461285
80229,Adams County,CO,NA,NA,NA,NA,75.94728171334431
80231,Denver County,CO,NA,NA,NA,NA,58.97858319604613
80233,Adams County,CO,NA,NA,NA,NA,36.24382207578254
80235,Jefferson County,CO,NA,NA,97.57767245918905,NA,NA
80236,Denver County,CO,NA,66.97674418604652,NA,NA,NA
80238,Denver County,CO,NA,NA,78.51500789889415,NA,NA
80239,Denver County,CO,NA,NA,21.43233280674039,NA,NA
80247,Arapahoe County,CO,NA,NA,38.12532912058978,52.68490374873353,NA
80249,Denver County,CO,NA,NA,NA,77.81155015197568,NA
80301,Boulder County,CO,NA,NA,59.55766192733017,NA,NA
80303,Boulder County,CO,NA,NA,NA,NA,65.07413509060956
80487,Routt County,CO,NA,NA,97.52501316482359,NA,NA
80513,Larimer County,CO,NA,NA,77.88309636650868,NA,NA
80516,Weld County,CO,54.972375690607734,NA,NA,NA,NA
80525,Larimer County,CO,NA,NA,13.796735123749343,NA,NA
80528,Larimer County,CO,NA,NA,83.14902580305424,NA,NA
80530,Weld County,CO,96.13259668508287,NA,NA,NA,NA
80537,Larimer County,CO,NA,NA,NA,18.034447821681866,25.205930807248766
80538,Larimer County,CO,NA,NA,61.242759347024744,10.840932117527863,NA
80603,Weld County,CO,67.40331491712708,NA,NA,NA,NA
80634,Weld County,CO,11.32596685082873,NA,NA,NA,41.51565074135091
80903,El Paso County,CO,NA,NA,35.3870458135861,NA,NA
80904,El Paso County,CO,NA,NA,NA,66.66666666666666,NA
80908,El Paso County,CO,NA,NA,95.78725645076356,NA,NA
80909,El Paso County,CO,NA,46.04651162790698,NA,NA,NA
80915,El Paso County,CO,NA,NA,66.61400737230122,NA,NA
80921,El Paso County,CO,89.77900552486187,NA,NA,NA,NA
81004,Pueblo County,CO,46.96132596685083,NA,NA,NA,NA
81005,Pueblo County,CO,NA,NA,NA,27.558257345491388,NA
81050,Otero County,CO,NA,NA,74.98683517640863,NA,NA
81211,Chaffee County,CO,NA,NA,NA,90.27355623100304,NA
81212,Fremont County,CO,NA,NA,NA,NA,75.7825370675453
81301,La Plata County,CO,NA,NA,54.818325434439174,45.187436676798384,55.6836902800659
81403,Montrose County,CO,NA,NA,80.56872037914692,NA,NA
81647,Garfield County,CO,NA,NA,97.20905739863086,NA,NA
06002,Hartford County,CT,NA,70.23255813953489,48.446550816219066,NA,NA
06040,Hartford County,CT,NA,NA,8.741442864665613,NA,NA
06051,Hartford County,CT,NA,NA,17.904160084254872,58.76393110435664,NA
06053,Hartford County,CT,NA,NA,9.5839915745129,NA,NA
06062,Hartford County,CT,NA,NA,NA,72.13779128672746,NA
06067,Hartford County,CT,87.84530386740332,NA,NA,NA,NA
06074,Hartford County,CT,NA,NA,56.24012638230648,NA,NA
06105,Hartford County,CT,NA,NA,NA,NA,57.825370675453044
06106,Hartford County,CT,NA,NA,20.431806213796737,NA,NA
06109,Hartford County,CT,NA,NA,64.82359136387572,NA,NA
06111,Hartford County,CT,NA,NA,36.38757240652975,47.5177304964539,NA
06112,Hartford County,CT,NA,NA,47.49868351764086,NA,NA
06114,Hartford County,CT,NA,NA,NA,51.469098277608914,NA
06117,Hartford County,CT,NA,NA,73.82833070036861,NA,NA
06118,Hartford County,CT,43.0939226519337,NA,NA,NA,NA
06120,Hartford County,CT,NA,NA,49.07846234860453,NA,NA
06248,Tolland County,CT,NA,NA,98.10426540284361,NA,NA
06260,Windham County,CT,NA,NA,28.593996840442337,49.848024316109424,NA
06268,Tolland County,CT,NA,NA,95.20800421274355,NA,NA
06277,Windham County,CT,NA,NA,85.78199052132702,NA,NA
06413,Middlesex County,CT,NA,NA,62.61190100052659,NA,NA
06416,Middlesex County,CT,NA,NA,72.98578199052133,NA,NA
06419,Middlesex County,CT,NA,NA,NA,93.71833839918946,NA
06424,Middlesex County,CT,NA,NA,NA,82.97872340425532,NA
06443,New Haven County,CT,82.04419889502762,NA,NA,NA,NA
06450,New Haven County,CT,NA,NA,NA,15.602836879432624,NA
06451,New Haven County,CT,NA,NA,NA,NA,86.82042833607908
06457,Middlesex County,CT,NA,NA,5.897840968931016,NA,NA
06475,Middlesex County,CT,NA,NA,84.51816745655609,NA,NA
06477,New Haven County,CT,NA,NA,91.83780937335439,NA,NA
06492,New Haven County,CT,NA,NA,53.659820958399166,NA,8.072487644151565
06498,Middlesex County,CT,NA,NA,NA,84.80243161094225,NA
06511,New Haven County,CT,NA,NA,NA,13.880445795339414,NA
06512,New Haven County,CT,73.48066298342542,NA,20.168509741969455,NA,NA
06513,New Haven County,CT,NA,NA,18.85202738283307,11.854103343465045,NA
06515,New Haven County,CT,NA,45.58139534883721,NA,NA,NA
06516,New Haven County,CT,NA,NA,NA,3.64741641337386,NA
06525,New Haven County,CT,NA,NA,NA,91.38804457953394,NA
06604,Fairfield County,CT,NA,NA,17.69352290679305,NA,NA
06607,Fairfield County,CT,NA,NA,95.10268562401264,NA,NA
06610,Fairfield County,CT,NA,NA,24.907846234860454,60.182370820668694,NA
06615,Fairfield County,CT,NA,NA,49.552395997893626,63.0192502532928,NA
06705,New Haven County,CT,46.68508287292818,NA,56.08214849921011,NA,NA
06706,New Haven County,CT,NA,NA,60.18957345971564,NA,NA
06790,Litchfield County,CT,NA,NA,4.423380726698262,NA,NA
06795,Litchfield County,CT,NA,NA,NA,NA,74.13509060955519
06801,Fairfield County,CT,NA,NA,71.98525539757767,NA,NA
06825,Fairfield County,CT,NA,NA,NA,NA,66.55683690280065
06830,Fairfield County,CT,NA,NA,NA,41.23606889564336,NA
06840,Fairfield County,CT,NA,NA,NA,NA,68.69851729818781
06854,Fairfield County,CT,NA,NA,44.128488678251706,NA,NA
06877,Fairfield County,CT,79.55801104972376,NA,NA,NA,NA
06883,Fairfield County,CT,96.68508287292818,NA,NA,NA,NA
19701,New Castle County,DE,69.06077348066299,NA,24.486571879936808,NA,NA
19707,New Castle County,DE,NA,NA,NA,NA,49.75288303130148
19711,New Castle County,DE,NA,NA,NA,13.677811550151976,NA
19720,New Castle County,DE,44.19889502762431,NA,15.481832543443918,NA,NA
19805,New Castle County,DE,NA,NA,31.648235913638757,NA,NA
19901,Kent County,DE,NA,37.2093023255814,NA,NA,NA
19904,Kent County,DE,7.734806629834254,NA,NA,NA,NA
19938,Kent County,DE,NA,NA,67.40389678778304,NA,NA
19939,Sussex County,DE,NA,NA,NA,NA,87.47940691927512
19956,Sussex County,DE,NA,NA,NA,81.05369807497466,NA
19958,Sussex County,DE,NA,NA,NA,NA,45.96375617792422
19973,Sussex County,DE,NA,NA,14.16535018430753,NA,NA
19977,Kent County,DE,NA,92.09302325581396,20.326487625065823,NA,NA
32046,Nassau County,FL,NA,NA,81.4112690889942,NA,NA
32065,Clay County,FL,NA,NA,40.7056345444971,NA,NA
32114,Volusia County,FL,NA,NA,NA,46.909827760891595,NA
32128,Volusia County,FL,NA,NA,NA,NA,44.3163097199341
32159,Lake County,FL,NA,91.62790697674419,67.77251184834124,NA,56.17792421746294
32163,Sumter County,FL,NA,NA,NA,37.38601823708207,NA
32169,Volusia County,FL,NA,NA,NA,NA,61.94398682042833
32204,Duval County,FL,NA,NA,88.9942074776198,NA,NA
32209,Duval County,FL,NA,22.325581395348838,19.378620326487624,16.91995947315096,NA
32210,Duval County,FL,NA,NA,18.37809373354397,NA,NA
32218,Duval County,FL,NA,NA,2.474986835176409,NA,NA
32224,Duval County,FL,NA,NA,NA,48.83485309017224,NA
32225,Duval County,FL,NA,NA,NA,54.20466058763931,NA
32246,Duval County,FL,NA,NA,14.270668773038441,NA,NA
32256,Duval County,FL,NA,67.90697674418604,30.27909426013691,NA,NA
32257,Duval County,FL,NA,NA,22.064244339125853,NA,NA
32277,Duval County,FL,NA,NA,20.01053185887309,NA,NA
32308,Leon County,FL,NA,NA,NA,68.08510638297872,NA
32324,Gadsden County,FL,NA,98.13953488372093,NA,NA,NA
32409,Bay County,FL,NA,NA,93.04897314375987,NA,NA
32435,Walton County,FL,NA,NA,NA,NA,68.03953871499176
32439,Walton County,FL,NA,NA,NA,NA,72.9818780889621
32440,Jackson County,FL,92.81767955801105,NA,NA,NA,NA
32446,Jackson County,FL,NA,NA,NA,NA,86.49093904448105
32460,Jackson County,FL,NA,NA,NA,NA,97.69357495881383
32501,Escambia County,FL,NA,NA,NA,43.46504559270517,NA
32505,Escambia County,FL,NA,31.16279069767442,16.377040547656662,NA,NA
32506,Escambia County,FL,NA,NA,NA,NA,18.12191103789127
32526,Escambia County,FL,NA,NA,12.374934175882043,NA,NA
32534,Escambia County,FL,NA,NA,43.28593996840443,NA,NA
32536,Okaloosa County,FL,NA,NA,NA,NA,48.92915980230643
32550,Walton County,FL,NA,NA,NA,58.96656534954408,NA
32563,Santa Rosa County,FL,NA,NA,30.647709320695103,NA,NA
32565,Santa Rosa County,FL,NA,NA,82.67509215376514,NA,NA
32566,Santa Rosa County,FL,NA,NA,32.91205897840969,NA,NA
32601,Alachua County,FL,NA,NA,61.7693522906793,NA,NA
32608,Alachua County,FL,NA,53.95348837209303,NA,NA,NA
32653,Alachua County,FL,NA,NA,65.61348077935756,NA,NA
32693,Gilchrist County,FL,NA,NA,NA,82.37082066869301,NA
32712,Orange County,FL,NA,NA,64.66561348077936,NA,NA
32730,Seminole County,FL,NA,NA,NA,94.83282674772036,NA
32750,Seminole County,FL,NA,NA,NA,NA,76.60626029654037
32751,Orange County,FL,NA,NA,NA,NA,51.565074135090605
32763,Volusia County,FL,NA,NA,60.87414428646656,NA,NA
32771,Seminole County,FL,NA,NA,15.11321748288573,NA,NA
32792,Orange County,FL,NA,NA,NA,NA,24.546952224052717
32811,Orange County,FL,NA,NA,55.45023696682464,NA,NA
32818,Orange County,FL,NA,29.30232558139535,NA,NA,62.43822075782537
32824,Orange County,FL,NA,NA,41.653501843075304,NA,NA
32826,Orange County,FL,NA,NA,NA,NA,85.00823723228996
32839,Orange County,FL,21.54696132596685,NA,NA,NA,NA
32909,Brevard County,FL,NA,NA,38.12532912058978,NA,43.49258649093905
32934,Brevard County,FL,NA,NA,NA,NA,97.36408566721582
32960,Indian River County,FL,NA,NA,47.70932069510268,NA,NA
32966,Indian River County,FL,NA,NA,NA,34.650455927051674,20.263591433278417
32976,Brevard County,FL,NA,NA,NA,56.43363728470111,NA
33012,Miami-Dade County,FL,NA,NA,NA,27.152988855116515,6.425041186161449
33021,Broward County,FL,NA,NA,47.288046340179044,NA,NA
33029,Broward County,FL,NA,NA,NA,68.38905775075987,NA
33032,Miami-Dade County,FL,NA,NA,40.179041600842545,NA,NA
33033,Miami-Dade County,FL,NA,NA,40.60031595576619,NA,59.472817133443165
33054,Miami-Dade County,FL,NA,NA,49.97367035281727,NA,NA
33055,Miami-Dade County,FL,NA,NA,81.20063191153238,NA,22.57001647446458
33056,Miami-Dade County,FL,NA,NA,NA,NA,50.41186161449753
33065,Broward County,FL,NA,NA,47.18272775144813,NA,NA
33069,Broward County,FL,NA,NA,69.24697209057399,67.27456940222898,NA
33070,Monroe County,FL,NA,NA,NA,93.41438703140831,NA
33071,Broward County,FL,NA,65.58139534883722,NA,NA,NA
33130,Miami-Dade County,FL,NA,NA,NA,67.67983789260384,NA
33133,Miami-Dade County,FL,NA,NA,77.5144813059505,NA,NA
33136,Miami-Dade County,FL,49.447513812154696,NA,NA,NA,NA
33138,Miami-Dade County,FL,NA,55.81395348837209,NA,NA,NA
33139,Miami-Dade County,FL,NA,NA,59.71563981042654,NA,NA
33141,Miami-Dade County,FL,NA,NA,59.768299104792,74.97467071935156,NA
33142,Miami-Dade County,FL,NA,NA,16.64033701948394,NA,NA
33145,Miami-Dade County,FL,NA,NA,96.05055292259084,NA,NA
33149,Miami-Dade County,FL,NA,NA,98.89415481832543,NA,NA
33150,Miami-Dade County,FL,81.76795580110497,NA,NA,NA,92.25700164744646
33155,Miami-Dade County,FL,NA,NA,NA,NA,16.80395387149918
33156,Miami-Dade County,FL,NA,NA,82.88572933122697,NA,NA
33162,Miami-Dade County,FL,NA,53.02325581395348,NA,NA,NA
33169,Miami-Dade County,FL,44.751381215469614,NA,NA,NA,NA
33173,Miami-Dade County,FL,NA,NA,NA,56.838905775075986,NA
33178,Miami-Dade County,FL,NA,NA,95.73459715639811,NA,NA
33186,Miami-Dade County,FL,NA,NA,50.55292259083728,35.86626139817629,NA
33196,Miami-Dade County,FL,NA,NA,NA,67.47720364741642,NA
33301,Broward County,FL,NA,NA,NA,73.25227963525836,NA
33311,Broward County,FL,NA,NA,5.318588730911006,24.113475177304963,NA
33313,Broward County,FL,NA,NA,18.904686677198526,NA,NA
33322,Broward County,FL,NA,NA,NA,NA,15.980230642504118
33330,Broward County,FL,NA,NA,NA,88.65248226950354,NA
33411,Palm Beach County,FL,85.35911602209944,NA,NA,NA,NA
33433,Palm Beach County,FL,NA,NA,NA,24.316109422492403,NA
33434,Palm Beach County,FL,NA,NA,87.78304370721432,NA,NA
33445,Palm Beach County,FL,NA,NA,NA,NA,29.32454695222405
33446,Palm Beach County,FL,NA,NA,NA,NA,5.766062602965404
33455,Martin County,FL,NA,NA,NA,27.25430597771023,NA
33487,Palm Beach County,FL,NA,NA,NA,NA,42.833607907743
33510,Hillsborough County,FL,NA,NA,NA,83.58662613981764,NA
33541,Pasco County,FL,NA,NA,79.72617166929963,NA,NA
33548,Hillsborough County,FL,NA,NA,NA,NA,98.84678747940691
33556,Hillsborough County,FL,NA,NA,NA,67.07193515704154,NA
33563,Hillsborough County,FL,NA,NA,NA,NA,67.71004942339374
33572,Hillsborough County,FL,NA,NA,NA,63.32320162107396,NA
33578,Hillsborough County,FL,NA,NA,NA,NA,66.39209225700165
33592,Hillsborough County,FL,NA,NA,93.52290679304897,NA,NA
33602,Hillsborough County,FL,68.23204419889503,NA,NA,NA,NA
33604,Hillsborough County,FL,NA,NA,21.0637177461822,NA,NA
33609,Hillsborough County,FL,NA,NA,NA,NA,70.67545304777595
33610,Hillsborough County,FL,16.298342541436465,NA,NA,NA,NA
33613,Hillsborough County,FL,NA,NA,74.40758293838863,53.596757852077005,NA
33618,Hillsborough County,FL,NA,NA,NA,NA,87.80889621087314
33619,Hillsborough County,FL,NA,NA,NA,41.742654508611956,NA
33634,Hillsborough County,FL,NA,NA,68.93101632438126,NA,NA
33647,Hillsborough County,FL,NA,NA,51.18483412322274,NA,NA
33702,Pinellas County,FL,NA,NA,NA,65.75481256332321,NA
33761,Pinellas County,FL,NA,NA,NA,97.97365754812563,NA
33801,Polk County,FL,NA,NA,NA,NA,57.66062602965404
33805,Polk County,FL,NA,NA,NA,74.67071935157041,NA
33811,Polk County,FL,40.88397790055249,NA,NA,NA,NA
33823,Polk County,FL,NA,23.25581395348837,NA,NA,NA
33830,Polk County,FL,NA,NA,34.07056345444971,NA,NA
33844,Polk County,FL,NA,26.51162790697674,36.44023170089521,NA,NA
33880,Polk County,FL,NA,NA,56.872037914691944,NA,NA
33881,Polk County,FL,NA,NA,35.808320168509745,NA,NA
33904,Lee County,FL,NA,NA,36.334913112164294,NA,NA
33907,Lee County,FL,NA,NA,78.83096366508688,NA,NA
33916,Lee County,FL,NA,NA,71.66929963138494,NA,NA
33948,Charlotte County,FL,NA,NA,NA,NA,53.70675453047776
33952,Charlotte County,FL,NA,63.25581395348837,NA,NA,NA
33971,Lee County,FL,NA,31.627906976744185,NA,NA,NA
33990,Lee County,FL,NA,NA,35.07109004739337,NA,NA
34110,Collier County,FL,NA,NA,NA,54.30597771023303,50.0823723228995
34117,Collier County,FL,NA,NA,NA,NA,90.60955518945634
34120,Collier County,FL,NA,NA,NA,47.31509625126647,NA
34135,Lee County,FL,NA,NA,NA,17.52786220871327,NA
34142,Collier County,FL,NA,23.25581395348837,NA,NA,NA
34202,Manatee County,FL,NA,NA,NA,NA,37.89126853377265
34203,Manatee County,FL,NA,NA,NA,24.721377912867272,NA
34205,Manatee County,FL,NA,NA,31.753554502369667,NA,NA
34207,Manatee County,FL,NA,NA,NA,61.29685916919959,NA
34212,Manatee County,FL,NA,NA,NA,NA,81.87808896210873
34221,Manatee County,FL,NA,NA,36.86150605581886,NA,36.40856672158155
34222,Manatee County,FL,NA,NA,79.35755660874145,NA,NA
34231,Sarasota County,FL,NA,NA,NA,20.56737588652482,NA
34232,Sarasota County,FL,NA,NA,46.23486045286993,36.17021276595745,NA
34233,Sarasota County,FL,NA,NA,NA,51.97568389057751,NA
34235,Sarasota County,FL,NA,NA,NA,62.31003039513677,NA
34236,Sarasota County,FL,96.68508287292818,NA,NA,NA,NA
34241,Sarasota County,FL,NA,NA,89.04686677198525,69.19959473150963,NA
34243,Manatee County,FL,NA,NA,NA,NA,9.71993410214168
34285,Sarasota County,FL,NA,NA,NA,22.289766970618036,NA
34293,Sarasota County,FL,NA,NA,47.39336492890995,NA,NA
34431,Marion County,FL,66.02209944751381,NA,NA,NA,NA
34442,Citrus County,FL,NA,NA,NA,85.612968591692,NA
34448,Citrus County,FL,NA,NA,83.25434439178515,NA,NA
34471,Marion County,FL,NA,NA,51.922064244339126,NA,NA
34480,Marion County,FL,NA,NA,60.34755134281201,NA,NA
34491,Marion County,FL,NA,NA,63.24381253291206,NA,NA
34613,Hernando County,FL,NA,NA,NA,37.5886524822695,NA
34668,Pasco County,FL,NA,NA,10.373880989994735,NA,NA
34669,Pasco County,FL,NA,NA,79.14691943127961,NA,NA
34685,Pinellas County,FL,NA,NA,92.04844655081622,NA,NA
34691,Pasco County,FL,NA,70.69767441860465,NA,NA,NA
34747,Osceola County,FL,NA,NA,NA,NA,85.99670510708401
34748,Lake County,FL,NA,NA,18.009478672985782,NA,NA
34787,Orange County,FL,NA,NA,22.643496577145868,24.822695035460992,NA
34947,St. Lucie County,FL,NA,NA,NA,82.47213779128673,NA
34956,Martin County,FL,NA,83.72093023255815,NA,NA,NA
34982,St. Lucie County,FL,48.06629834254144,NA,NA,NA,NA
34983,St. Lucie County,FL,NA,NA,19.694576092680357,NA,NA
34984,St. Lucie County,FL,NA,NA,54.818325434439174,NA,NA
34987,St. Lucie County,FL,NA,NA,NA,NA,77.75947281713344
34990,Martin County,FL,NA,NA,NA,NA,27.01812191103789
34996,Martin County,FL,NA,NA,NA,NA,28.83031301482702
34997,Martin County,FL,NA,NA,NA,10.536980749746707,NA
30004,Fulton County,GA,NA,NA,NA,39.31104356636271,NA
30024,Gwinnett County,GA,NA,NA,18.746708794102158,NA,NA
30030,DeKalb County,GA,NA,NA,44.65508162190627,NA,NA
30034,DeKalb County,GA,56.353591160220994,NA,NA,NA,NA
30035,DeKalb County,GA,NA,NA,58.08320168509742,NA,NA
30038,DeKalb County,GA,NA,NA,NA,81.96555217831813,NA
30044,Gwinnett County,GA,25.96685082872928,NA,NA,NA,NA
30046,Gwinnett County,GA,NA,NA,NA,57.54812563323202,NA
30052,Walton County,GA,NA,NA,NA,42.04660587639311,NA
30058,DeKalb County,GA,NA,NA,NA,32.016210739615,NA
30083,DeKalb County,GA,NA,NA,NA,NA,51.565074135090605
30084,DeKalb County,GA,NA,NA,64.34965771458663,NA,NA
30101,Cobb County,GA,36.74033149171271,NA,NA,NA,NA
30103,Bartow County,GA,NA,NA,71.30068457082676,NA,NA
30113,Haralson County,GA,NA,NA,NA,84.19452887537993,NA
30121,Bartow County,GA,NA,NA,NA,NA,78.74794069192751
30125,Polk County,GA,54.972375690607734,NA,NA,48.83485309017224,NA
30127,Cobb County,GA,23.480662983425415,NA,NA,NA,NA
30132,Paulding County,GA,41.43646408839779,NA,NA,NA,NA
30141,Paulding County,GA,NA,89.30232558139535,69.3522906793049,NA,NA
30143,Pickens County,GA,NA,83.72093023255815,63.71774618220116,NA,NA
30153,Polk County,GA,61.87845303867403,NA,NA,NA,NA
30157,Paulding County,GA,NA,NA,23.538704581358612,NA,NA
30161,Floyd County,GA,NA,NA,81.04265402843602,NA,NA
30165,Floyd County,GA,NA,77.67441860465117,22.59083728278041,NA,NA
30168,Cobb County,GA,NA,NA,60.03159557661928,NA,NA
30223,Spalding County,GA,45.30386740331492,NA,NA,NA,NA
30228,Henry County,GA,NA,NA,28.067403896787784,NA,NA
30240,Troup County,GA,NA,NA,NA,NA,35.25535420098847
30241,Troup County,GA,NA,NA,25.06582411795682,NA,NA
30252,Henry County,GA,NA,NA,37.54607688256977,NA,NA
30253,Henry County,GA,35.635359116022094,NA,NA,NA,NA
30286,Upson County,GA,NA,NA,50.28962611901,NA,NA
30297,Clayton County,GA,NA,NA,57.345971563981045,NA,NA
30311,Fulton County,GA,NA,NA,NA,25.025329280648428,NA
30312,Fulton County,GA,NA,NA,60.505529225908376,NA,NA
30315,Fulton County,GA,NA,NA,64.13902053712481,28.87537993920973,NA
30318,Fulton County,GA,NA,NA,25.434439178515007,NA,NA
30329,DeKalb County,GA,NA,NA,NA,87.43667679837893,NA
30331,Fulton County,GA,NA,28.37209302325581,NA,10.94224924012158,NA
30337,Fulton County,GA,NA,NA,NA,88.75379939209726,NA
30349,Fulton County,GA,NA,NA,6.371774618220116,NA,NA
30417,Evans County,GA,83.97790055248619,NA,NA,NA,NA
30434,Jefferson County,GA,NA,NA,95.52395997893628,NA,NA
30442,Jenkins County,GA,NA,NA,80.20010531858873,NA,NA
30461,Bulloch County,GA,NA,NA,77.0405476566614,NA,NA
30467,Screven County,GA,NA,NA,NA,66.56534954407294,NA
30506,Hall County,GA,NA,NA,27.224855186940495,NA,NA
30507,Hall County,GA,NA,NA,42.07477619799895,NA,NA
30518,Gwinnett County,GA,44.47513812154696,NA,NA,NA,NA
30533,Lumpkin County,GA,NA,80.93023255813954,NA,NA,NA
30549,Jackson County,GA,NA,NA,45.813586097946285,NA,NA
30606,Clarke County,GA,NA,NA,NA,30.69908814589666,67.87479406919276
30633,Madison County,GA,NA,NA,NA,90.27355623100304,NA
30701,Gordon County,GA,NA,NA,28.488678251711423,NA,NA
30705,Murray County,GA,NA,NA,26.908899420747762,NA,NA
30747,Chattooga County,GA,NA,94.88372093023256,NA,NA,NA
30815,Richmond County,GA,30.11049723756906,NA,NA,NA,NA
30824,McDuffie County,GA,66.85082872928176,NA,79.67351237493418,NA,NA
30901,Richmond County,GA,NA,NA,NA,NA,99.50576606260296
30904,Richmond County,GA,NA,NA,32.33280674038968,NA,NA
30906,Richmond County,GA,NA,26.046511627906977,NA,NA,55.02471169686986
30909,Richmond County,GA,NA,NA,NA,NA,95.55189456342669
31030,Peach County,GA,NA,81.86046511627907,NA,NA,NA
31087,Hancock County,GA,NA,NA,NA,NA,91.26853377265239
31088,Houston County,GA,NA,52.55813953488372,NA,NA,NA
31093,Houston County,GA,NA,66.51162790697674,NA,NA,NA
31096,Johnson County,GA,NA,NA,NA,NA,89.9505766062603
31206,Bibb County,GA,NA,NA,64.6129541864139,NA,NA
31322,Chatham County,GA,NA,NA,NA,77.20364741641338,NA
31405,Chatham County,GA,NA,73.0232558139535,NA,42.35055724417426,NA
31407,Chatham County,GA,NA,NA,97.10373880989994,NA,NA
31419,Chatham County,GA,NA,NA,68.19378620326488,NA,NA
31525,Glynn County,GA,NA,NA,50.71090047393365,NA,NA
31558,Camden County,GA,NA,NA,NA,NA,80.23064250411862
31601,Lowndes County,GA,NA,NA,NA,NA,50.24711696869851
31602,Lowndes County,GA,NA,NA,35.65034228541338,NA,NA
31605,Lowndes County,GA,NA,NA,NA,79.73657548125634,NA
31705,Dougherty County,GA,NA,NA,NA,29.989868287740627,NA
31709,Sumter County,GA,NA,NA,55.23959978936283,NA,NA
31750,Ben Hill County,GA,NA,NA,58.71511321748288,NA,NA
31791,Worth County,GA,NA,NA,NA,94.12360688956434,NA
31792,Thomas County,GA,NA,NA,NA,36.474164133738604,NA
31794,Tift County,GA,62.98342541436463,NA,NA,NA,NA
31833,Troup County,GA,NA,NA,79.4102159031069,NA,NA
31903,Muscogee County,GA,NA,NA,67.14060031595577,NA,NA
31904,Muscogee County,GA,NA,46.97674418604651,28.804634017904164,NA,NA
31906,Muscogee County,GA,NA,73.48837209302326,NA,NA,NA
31907,Muscogee County,GA,NA,38.139534883720934,NA,NA,NA
31909,Muscogee County,GA,NA,NA,38.2306477093207,NA,NA
39845,Seminole County,GA,NA,NA,NA,84.09321175278622,NA
96701,Honolulu County,HI,50.552486187845304,NA,NA,NA,12.520593080724876
96734,Honolulu County,HI,NA,NA,35.49236440231701,NA,NA
96744,Honolulu County,HI,NA,NA,71.35334386519222,NA,NA
96761,Maui County,HI,NA,NA,90.8899420747762,NA,NA
96782,Honolulu County,HI,NA,NA,84.7288046340179,NA,14.332784184514002
96786,Honolulu County,HI,52.762430939226526,NA,NA,NA,NA
96789,Honolulu County,HI,NA,NA,NA,NA,15.32125205930807
96792,Honolulu County,HI,NA,NA,NA,NA,29.983525535420096
96795,Honolulu County,HI,NA,NA,77.40916271721959,NA,NA
96797,Honolulu County,HI,NA,NA,29.85781990521327,36.17021276595745,NA
96817,Honolulu County,HI,NA,25.116279069767444,39.178515007898895,NA,NA
96819,Honolulu County,HI,NA,33.95348837209302,14.902580305423907,NA,NA
96822,Honolulu County,HI,NA,NA,38.493944181147974,NA,NA
96825,Honolulu County,HI,NA,NA,NA,8.51063829787234,NA
83263,Franklin County,ID,NA,NA,NA,99.29078014184397,NA
83301,Twin Falls County,ID,NA,NA,17.272248551869403,1.3171225937183384,NA
83316,Twin Falls County,ID,NA,NA,NA,69.50354609929079,NA
83333,Blaine County,ID,NA,NA,NA,64.94427558257345,NA
83338,Jerome County,ID,NA,NA,83.83359662980516,NA,NA
83340,Blaine County,ID,NA,NA,NA,NA,91.26853377265239
83350,Minidoka County,ID,NA,NA,75.98736176935229,NA,NA
83401,Bonneville County,ID,NA,NA,13.270142180094787,44.782168186423505,NA
83501,Nez Perce County,ID,20.441988950276244,NA,12.743549236440233,NA,NA
83544,Clearwater County,ID,NA,NA,NA,77.00101317122594,NA
83605,Canyon County,ID,14.917127071823206,20,NA,NA,NA
83607,Canyon County,ID,NA,NA,91.57451290152711,NA,NA
83634,Ada County,ID,NA,NA,39.12585571353343,NA,NA
83644,Canyon County,ID,NA,NA,90.46866771985256,NA,NA
83646,Ada County,ID,NA,NA,10.268562401263823,NA,NA
83651,Canyon County,ID,NA,NA,NA,69.30091185410335,17.957166392092258
83660,Canyon County,ID,NA,NA,NA,NA,93.73970345963755
83686,Canyon County,ID,NA,NA,6.687730384412848,NA,NA
83702,Ada County,ID,NA,NA,27.33017377567141,NA,NA
83704,Ada County,ID,NA,NA,47.656661400737235,NA,NA
83709,Ada County,ID,NA,NA,13.638757240652973,NA,NA
83713,Ada County,ID,NA,NA,70.03686150605581,NA,19.110378912685338
83714,Ada County,ID,NA,NA,NA,NA,17.462932454695224
83716,Ada County,ID,65.4696132596685,NA,NA,NA,NA
60004,Cook County,IL,NA,NA,22.38020010531859,NA,NA
60007,Cook County,IL,NA,NA,53.923117430226434,NA,NA
60015,Lake County,IL,NA,NA,NA,28.976697061803446,NA
60020,Lake County,IL,NA,NA,NA,64.23505572441742,NA
60031,Lake County,IL,NA,NA,NA,26.24113475177305,NA
60044,Lake County,IL,NA,NA,NA,NA,64.08566721581549
60047,Lake County,IL,NA,NA,NA,NA,57.001647446457994
60050,McHenry County,IL,NA,NA,NA,NA,19.934102141680395
60053,Cook County,IL,NA,NA,NA,37.18338399189463,NA
60060,Lake County,IL,NA,NA,NA,17.73049645390071,NA
60062,Cook County,IL,NA,NA,NA,NA,0.6589785831960462
60067,Cook County,IL,NA,NA,NA,23.2016210739615,NA
60068,Cook County,IL,NA,NA,38.96787783043707,39.81762917933131,NA
60073,Lake County,IL,NA,NA,14.586624539231174,NA,NA
60074,Cook County,IL,NA,NA,74.77619799894681,NA,NA
60076,Cook County,IL,NA,NA,NA,NA,20.098846787479406
60087,Lake County,IL,68.50828729281768,NA,NA,NA,NA
60089,Lake County,IL,NA,NA,38.8098999473407,NA,NA
60091,Cook County,IL,NA,NA,72.45918904686677,NA,NA
60101,DuPage County,IL,NA,NA,NA,25.937183383991897,55.35420098846787
60102,McHenry County,IL,37.569060773480665,NA,46.91943127962085,NA,NA
60104,Cook County,IL,NA,NA,39.02053712480253,NA,96.70510708401977
60126,DuPage County,IL,NA,NA,34.28120063191153,NA,NA
60130,Cook County,IL,NA,NA,NA,72.23910840932118,NA
60131,Cook County,IL,74.86187845303867,NA,NA,NA,NA
60133,Cook County,IL,NA,NA,42.759347024749864,NA,77.26523887973642
60137,DuPage County,IL,NA,NA,32.22748815165877,NA,NA
60139,DuPage County,IL,NA,NA,NA,NA,71.49917627677101
60174,Kane County,IL,NA,NA,45.23433385992628,NA,NA
60188,DuPage County,IL,35.35911602209944,NA,NA,NA,NA
60191,DuPage County,IL,NA,NA,NA,55.21783181357649,NA
60201,Cook County,IL,NA,NA,NA,NA,8.40197693574959
60302,Cook County,IL,NA,NA,31.542917324907847,17.02127659574468,NA
60410,Will County,IL,NA,NA,48.13059505002633,NA,NA
60411,Cook County,IL,NA,NA,NA,13.069908814589665,NA
60415,Cook County,IL,NA,NA,84.88678251711427,NA,NA
60417,Will County,IL,NA,NA,64.19167983149026,NA,NA
60423,Will County,IL,40.055248618784525,NA,NA,NA,NA
60426,Cook County,IL,NA,NA,55.92417061611374,NA,NA
60438,Cook County,IL,NA,NA,76.61927330173775,NA,NA
60447,Grundy County,IL,NA,NA,56.766719325961034,NA,NA
60450,Grundy County,IL,NA,NA,NA,NA,23.55848434925865
60452,Cook County,IL,NA,NA,NA,46.30192502532928,NA
60462,Cook County,IL,25.41436464088398,NA,23.591363875724063,NA,NA
60465,Cook County,IL,NA,NA,48.762506582411795,NA,NA
60466,Cook County,IL,NA,NA,NA,57.85207700101317,NA
60473,Cook County,IL,NA,NA,NA,NA,28.500823723228997
60487,Cook County,IL,NA,NA,84.09689310163245,NA,NA
60490,Will County,IL,NA,NA,61.92733017377567,NA,NA
60501,Cook County,IL,NA,NA,97.1563981042654,NA,NA
60505,Kane County,IL,32.59668508287293,NA,NA,NA,NA
60525,Cook County,IL,NA,NA,20.64244339125856,NA,NA
60540,DuPage County,IL,NA,NA,NA,94.63019250253294,NA
60544,Will County,IL,NA,NA,36.229594523433384,NA,NA
60546,Cook County,IL,NA,NA,48.13059505002633,NA,NA
60548,DeKalb County,IL,NA,NA,NA,72.8470111448835,NA
60559,DuPage County,IL,NA,NA,43.44391785150079,NA,NA
60561,DuPage County,IL,NA,NA,NA,72.44174265450862,NA
60565,DuPage County,IL,29.2817679558011,NA,92.10110584518168,NA,NA
60607,Cook County,IL,68.78453038674033,NA,NA,51.57041540020263,NA
60608,Cook County,IL,33.42541436464088,NA,58.50447604002106,NA,NA
60609,Cook County,IL,NA,NA,NA,NA,77.92421746293246
60613,Cook County,IL,NA,NA,61.7693522906793,NA,NA
60614,Cook County,IL,NA,NA,NA,19.655521783181356,NA
60615,Cook County,IL,53.86740331491713,NA,NA,NA,NA
60617,Cook County,IL,NA,NA,26.698262243285942,2.8368794326241136,NA
60618,Cook County,IL,NA,NA,6.79304897314376,NA,NA
60619,Cook County,IL,6.353591160220995,NA,NA,6.180344478216818,17.792421746293247
60620,Cook County,IL,NA,NA,NA,3.546099290780142,6.095551894563426
60622,Cook County,IL,NA,NA,35.229067930489734,NA,NA
60623,Cook County,IL,NA,NA,NA,15.096251266464034,NA
60624,Cook County,IL,NA,NA,89.15218536071616,NA,NA
60625,Cook County,IL,NA,NA,9.531332280147446,NA,NA
60626,Cook County,IL,NA,NA,17.32490784623486,NA,NA
60628,Cook County,IL,NA,NA,5.529225908372828,NA,4.942339373970346
60629,Cook County,IL,29.83425414364641,NA,NA,NA,NA
60637,Cook County,IL,NA,NA,66.14007372301212,NA,NA
60638,Cook County,IL,NA,NA,33.649289099526065,NA,NA
60639,Cook County,IL,NA,NA,NA,NA,42.50411861614498
60640,Cook County,IL,NA,NA,NA,NA,10.70840197693575
60643,Cook County,IL,NA,NA,30.963665086887836,NA,NA
60645,Cook County,IL,NA,NA,34.59715639810427,NA,NA
60647,Cook County,IL,24.585635359116022,NA,NA,NA,NA
60649,Cook County,IL,NA,NA,NA,82.77608915906788,NA
60651,Cook County,IL,NA,NA,NA,63.22188449848024,NA
60653,Cook County,IL,NA,NA,26.750921537651394,NA,29.983525535420096
60655,Cook County,IL,NA,NA,63.191153238546605,NA,NA
60657,Cook County,IL,NA,NA,18.588730911005793,NA,NA
60659,Cook County,IL,NA,NA,46.8667719852554,30.3951367781155,NA
60660,Cook County,IL,NA,NA,NA,19.148936170212767,NA
60707,Cook County,IL,NA,NA,17.851500789889414,44.17426545086119,NA
60901,Kankakee County,IL,NA,NA,15.323854660347552,NA,NA
60914,Kankakee County,IL,45.58011049723757,NA,NA,NA,NA
61019,Stephenson County,IL,NA,NA,NA,92.806484295846,NA
61021,Lee County,IL,NA,NA,29.27856766719326,NA,4.2833607907743
61024,Winnebago County,IL,100,NA,NA,NA,NA
61073,Winnebago County,IL,NA,NA,NA,43.56636271529889,NA
61081,Whiteside County,IL,NA,NA,27.96208530805687,NA,5.2718286655683695
61103,Winnebago County,IL,69.88950276243095,NA,NA,NA,NA
61356,Bureau County,IL,NA,NA,76.72459189046866,NA,NA
61605,Peoria County,IL,NA,NA,NA,94.32624113475178,NA
61821,Champaign County,IL,NA,NA,40.65297525013165,NA,NA
61822,Champaign County,IL,NA,NA,94.62875197472354,NA,NA
61853,Champaign County,IL,NA,NA,NA,74.77203647416414,NA
61856,Piatt County,IL,NA,NA,94.3127962085308,NA,NA
61883,Vermilion County,IL,NA,NA,97.78830963665087,NA,NA
62035,Madison County,IL,NA,NA,NA,61.09422492401215,NA
62040,Madison County,IL,NA,NA,NA,12.563323201621074,NA
62049,Montgomery County,IL,NA,NA,NA,88.34853090172238,NA
62234,Madison County,IL,NA,NA,50.447604002106374,NA,NA
62263,Washington County,IL,NA,NA,NA,96.25126646403243,NA
62286,Randolph County,IL,17.12707182320442,NA,NA,NA,NA
62298,Monroe County,IL,NA,NA,NA,68.59169199594731,NA
62454,Crawford County,IL,NA,NA,92.52238020010532,NA,NA
62521,Macon County,IL,NA,NA,40.12638230647709,NA,NA
62549,Macon County,IL,91.71270718232044,NA,NA,NA,NA
62681,Schuyler County,IL,NA,NA,NA,NA,79.40691927512356
62703,Sangamon County,IL,NA,NA,27.11953659820958,NA,NA
62704,Sangamon County,IL,NA,NA,46.076882569773566,NA,NA
62863,Wabash County,IL,NA,NA,NA,78.31813576494427,NA
62948,Williamson County,IL,NA,NA,NA,NA,65.89785831960461
62960,Massac County,IL,NA,NA,NA,80.74974670719351,NA
46001,Madison County,IN,NA,NA,NA,64.94427558257345,NA
46011,Madison County,IN,72.37569060773481,NA,NA,NA,NA
46052,Boone County,IN,NA,NA,40.86361242759347,NA,NA
46112,Hendricks County,IN,NA,NA,54.34439178515008,NA,NA
46143,Johnson County,IN,NA,NA,NA,NA,7.413509060955518
46151,Morgan County,IN,NA,NA,22.696155871511323,NA,NA
46158,Morgan County,IN,NA,NA,54.44971037388099,NA,NA
46167,Hendricks County,IN,NA,NA,98.63085834649816,NA,NA
46168,Hendricks County,IN,NA,NA,38.75724065297525,NA,NA
46176,Shelby County,IN,NA,NA,NA,14.488348530901723,NA
46184,Johnson County,IN,NA,NA,96.2085308056872,NA,NA
46201,Marion County,IN,NA,NA,49.60505529225908,NA,NA
46203,Marion County,IN,39.50276243093923,NA,NA,NA,NA
46208,Marion County,IN,NA,60,90.25803054239073,73.55623100303951,NA
46218,Marion County,IN,15.193370165745856,NA,NA,NA,NA
46221,Marion County,IN,NA,NA,27.014218009478675,NA,NA
46224,Marion County,IN,NA,38.604651162790695,NA,NA,41.02141680395387
46226,Marion County,IN,NA,32.55813953488372,10.215903106898368,NA,NA
46227,Marion County,IN,NA,51.162790697674424,NA,8.00405268490375,28.995057660626028
46228,Marion County,IN,NA,NA,80.88467614533965,NA,NA
46229,Marion County,IN,NA,NA,21.116377040547658,NA,NA
46236,Marion County,IN,NA,NA,NA,53.09017223910841,NA
46239,Marion County,IN,NA,NA,54.76566614007372,NA,NA
46241,Marion County,IN,NA,NA,17.956819378620324,NA,NA
46260,Marion County,IN,NA,NA,44.86571879936809,NA,NA
46307,Lake County,IN,NA,NA,1.2111637704054765,NA,NA
46311,Lake County,IN,NA,NA,NA,NA,28.00658978583196
46319,Lake County,IN,NA,NA,23.9073196419168,NA,NA
46320,Lake County,IN,NA,NA,NA,83.08004052684905,NA
46321,Lake County,IN,NA,NA,32.964718272775144,19.45288753799392,NA
46322,Lake County,IN,NA,NA,21.90626645602949,NA,NA
46324,Lake County,IN,NA,NA,15.534491837809373,NA,NA
46342,Lake County,IN,NA,NA,22.22222222222222,NA,NA
46350,LaPorte County,IN,NA,48.837209302325576,7.109004739336493,NA,NA
46360,LaPorte County,IN,5.801104972375691,NA,NA,NA,NA
46366,Starke County,IN,NA,NA,82.09583991574513,NA,NA
46368,Porter County,IN,6.077348066298343,NA,NA,NA,NA
46383,Porter County,IN,NA,NA,28.857293312269615,NA,NA
46385,Porter County,IN,64.3646408839779,NA,5.687203791469194,NA,NA
46391,LaPorte County,IN,NA,NA,NA,89.86828774062816,NA
46394,Lake County,IN,NA,NA,54.92364402317009,NA,69.68698517298188
46410,Lake County,IN,NA,NA,NA,5.775075987841945,NA
46516,Elkhart County,IN,45.027624309392266,NA,NA,NA,NA
46526,Elkhart County,IN,67.12707182320442,NA,NA,NA,NA
46614,St. Joseph County,IN,NA,NA,59.18904686677199,59.06788247213779,NA
46628,St. Joseph County,IN,NA,NA,48.81516587677725,NA,NA
46703,Steuben County,IN,NA,77.20930232558139,NA,NA,NA
46737,Steuben County,IN,NA,NA,81.4112690889942,NA,NA
46774,Allen County,IN,NA,NA,61.137440758293835,NA,NA
46804,Allen County,IN,NA,NA,76.77725118483413,NA,NA
46805,Allen County,IN,NA,NA,30.542390731964193,NA,NA
46806,Allen County,IN,NA,NA,77.6197998946814,NA,NA
46807,Allen County,IN,NA,85.5813953488372,NA,NA,NA
46816,Allen County,IN,NA,NA,NA,52.88753799392097,NA
46825,Allen County,IN,NA,NA,36.545550289626114,NA,NA
46835,Allen County,IN,NA,NA,66.77198525539758,NA,NA
46936,Howard County,IN,NA,NA,78.40968931016324,NA,NA
46947,Cass County,IN,NA,NA,39.33649289099526,14.387031408308005,NA
47102,Scott County,IN,NA,NA,91.25855713533439,NA,NA
47124,Floyd County,IN,NA,NA,NA,100,NA
47164,Harrison County,IN,NA,NA,98.2095839915745,NA,NA
47302,Delaware County,IN,NA,NA,NA,36.575481256332324,NA
47303,Delaware County,IN,NA,NA,33.228014744602426,NA,NA
47304,Delaware County,IN,NA,NA,NA,NA,42.66886326194398
47371,Jay County,IN,NA,NA,NA,35.15704154002026,NA
47460,Owen County,IN,NA,NA,77.93575566087414,NA,NA
47711,Vanderburgh County,IN,NA,NA,25.3291205897841,NA,NA
47714,Vanderburgh County,IN,NA,NA,12.269615587151133,NA,NA
47803,Vigo County,IN,NA,NA,NA,59.6757852077001,NA
47909,Tippecanoe County,IN,NA,NA,NA,NA,38.056013179571664
50021,Polk County,IA,NA,NA,76.4612954186414,NA,NA
50125,Warren County,IA,NA,NA,NA,NA,71.33443163097199
50129,Greene County,IA,NA,98.13953488372093,NA,NA,NA
50316,Polk County,IA,NA,NA,39.81042654028436,NA,NA
50401,Cerro Gordo County,IA,28.7292817679558,NA,NA,NA,1.6474464579901154
50436,Winnebago County,IA,NA,NA,94.04949973670352,NA,NA
50536,Palo Alto County,IA,NA,NA,NA,88.55116514690982,NA
50616,Floyd County,IA,NA,NA,96.99842022116904,NA,NA
50644,Buchanan County,IA,NA,NA,81.25329120589784,NA,NA
51103,Woodbury County,IA,72.92817679558011,NA,NA,NA,NA
51108,Woodbury County,IA,NA,NA,NA,NA,98.68204283360791
51250,Sioux County,IA,84.80662983425414,NA,NA,96.75785207700102,50.57660626029654
51301,Clay County,IA,NA,NA,82.20115850447604,NA,NA
51334,Emmet County,IA,NA,NA,NA,83.3839918946302,NA
51503,Pottawattamie County,IA,NA,NA,6.9510268562401265,NA,NA
51546,Harrison County,IA,NA,NA,99.31542917324909,NA,NA
51601,Page County,IA,NA,NA,NA,NA,60.46128500823723
51632,Page County,IA,NA,NA,NA,NA,41.18616144975288
52101,Winneshiek County,IA,NA,NA,NA,68.59169199594731,NA
52136,Howard County,IA,98.61878453038673,NA,NA,NA,NA
52240,Johnson County,IA,NA,NA,18.95734597156398,59.77710233029382,NA
52241,Johnson County,IA,NA,NA,45.708267509215375,NA,NA
52246,Johnson County,IA,NA,66.97674418604652,60.34755134281201,NA,NA
52317,Johnson County,IA,NA,NA,81.51658767772511,92.90780141843972,NA
52403,Linn County,IA,NA,NA,NA,43.97163120567376,NA
52404,Linn County,IA,NA,NA,76.35597682991047,NA,NA
52405,Linn County,IA,NA,NA,NA,46.808510638297875,NA
52501,Wapello County,IA,NA,NA,12.480252764612953,NA,NA
52577,Mahaska County,IA,NA,NA,84.99210110584518,NA,NA
52653,Louisa County,IA,NA,NA,NA,98.17629179331307,NA
52732,Clinton County,IA,NA,NA,19.431279620853083,NA,NA
52761,Muscatine County,IA,NA,NA,37.80937335439705,NA,NA
52806,Scott County,IA,NA,NA,72.88046340179042,NA,NA
66007,Leavenworth County,KS,NA,NA,NA,NA,95.88138385502472
66048,Leavenworth County,KS,NA,NA,NA,NA,34.76112026359143
66061,Johnson County,KS,NA,NA,NA,31.712259371833838,NA
66067,Franklin County,KS,NA,NA,58.030542390731966,NA,NA
66102,Wyandotte County,KS,NA,NA,NA,45.086119554204664,NA
66402,Shawnee County,KS,NA,NA,98.42022116903634,NA,NA
66547,Pottawatomie County,KS,NA,NA,88.83622959452343,NA,NA
67220,Sedgwick County,KS,NA,NA,NA,97.16312056737588,NA
67401,Saline County,KS,NA,NA,18.48341232227488,NA,NA
67460,McPherson County,KS,NA,NA,NA,87.84194528875379,NA
67846,Finney County,KS,NA,NA,NA,NA,25.86490939044481
40004,Nelson County,KY,NA,41.3953488372093,NA,NA,NA
40071,Spencer County,KY,NA,NA,NA,54.7112462006079,NA
40143,Breckinridge County,KY,NA,NA,NA,95.6433637284701,NA
40206,Jefferson County,KY,NA,NA,69.66824644549763,NA,NA
40207,Jefferson County,KY,NA,NA,91.67983149025804,NA,NA
40216,Jefferson County,KY,NA,NA,7.319641916798315,NA,NA
40223,Jefferson County,KY,75.41436464088397,NA,NA,NA,54.03624382207578
40258,Jefferson County,KY,NA,60.46511627906976,19.79989468141127,43.059777102330294,47.44645799011532
40272,Jefferson County,KY,NA,48.837209302325576,NA,55.82573454913881,NA
40291,Jefferson County,KY,NA,NA,16.008425487098474,NA,NA
40324,Scott County,KY,NA,NA,NA,NA,35.749588138385505
40330,Mercer County,KY,NA,NA,53.18588730911006,NA,NA
40383,Woodford County,KY,NA,NA,74.51290152711954,NA,NA
40391,Clark County,KY,18.50828729281768,NA,NA,NA,NA
40502,Fayette County,KY,NA,NA,NA,NA,45.30477759472817
40503,Fayette County,KY,NA,NA,NA,NA,32.28995057660626
40504,Fayette County,KY,43.92265193370166,NA,41.1795681937862,NA,NA
40505,Fayette County,KY,NA,NA,20.95839915745129,NA,NA
40769,Whitley County,KY,NA,NA,31.121642969984205,NA,NA
40831,Harlan County,KY,NA,NA,73.72301211163771,NA,NA
41011,Kenton County,KY,NA,NA,12.63823064770932,NA,NA
41075,Campbell County,KY,NA,NA,72.45918904686677,NA,NA
41076,Campbell County,KY,NA,NA,74.03896787783044,NA,NA
41097,Grant County,KY,NA,NA,74.61822011585045,NA,NA
41129,Boyd County,KY,NA,NA,NA,60.58763931104356,NA
41139,Greenup County,KY,NA,NA,40.38967877830437,NA,75.12355848434926
41301,Wolfe County,KY,NA,NA,74.88151658767772,NA,NA
41537,Letcher County,KY,NA,NA,90.62664560294891,NA,NA
42101,Warren County,KY,NA,NA,26.276987888362296,NA,NA
42141,Barren County,KY,NA,NA,NA,11.144883485309018,NA
42301,Daviess County,KY,NA,NA,55.18694049499737,NA,NA
42303,Daviess County,KY,NA,NA,8.214849921011059,NA,NA
42320,Ohio County,KY,57.73480662983425,NA,51.39547130068457,NA,NA
42327,McLean County,KY,NA,NA,NA,98.581560283687935,NA
42347,Ohio County,KY,NA,58.139534883720934,NA,NA,NA
42420,Henderson County,KY,NA,NA,7.477619799894682,NA,NA
42431,Hopkins County,KY,NA,NA,NA,30.59777102330294,NA
42442,Hopkins County,KY,NA,NA,97.99894681411268,NA,NA
42633,Wayne County,KY,NA,NA,51.81674565560821,NA,NA
42642,Russell County,KY,NA,NA,NA,NA,66.72158154859967
42728,Adair County,KY,NA,NA,52.50131648235914,NA,NA
42743,Green County,KY,NA,NA,69.29963138493945,NA,NA
42749,Hart County,KY,NA,NA,81.09531332280147,NA,NA
70005,Jefferson Parish,LA,NA,NA,31.911532385466035,NA,NA
70043,St. Bernard Parish,LA,NA,NA,NA,71.63120567375887,NA
70053,Jefferson Parish,LA,NA,NA,21.69562927856767,NA,NA
70056,Jefferson Parish,LA,NA,NA,39.44181147972618,NA,NA
70062,Jefferson Parish,LA,NA,NA,16.95629278567667,NA,NA
70065,Jefferson Parish,LA,3.0386740331491713,NA,3.15955766192733,NA,NA
70068,St. John the Baptist Parish,LA,NA,NA,NA,NA,31.630971993410213
70072,Jefferson Parish,LA,0,NA,NA,25.835866261398177,NA
70113,Orleans Parish,LA,NA,NA,NA,73.45491388044579,NA
70114,Orleans Parish,LA,NA,NA,NA,NA,62.932454695222404
70116,Orleans Parish,LA,NA,NA,NA,73.65754812563323,NA
70117,Orleans Parish,LA,58.28729281767956,NA,NA,56.53495440729483,NA
70119,Orleans Parish,LA,NA,NA,3.528172722485519,NA,NA
70125,Orleans Parish,LA,NA,NA,33.91258557135334,NA,NA
70126,Orleans Parish,LA,NA,NA,NA,NA,23.88797364085667
70127,Orleans Parish,LA,NA,NA,64.50763559768299,71.02330293819655,NA
70128,Orleans Parish,LA,NA,NA,15.429173249078461,NA,NA
70130,Orleans Parish,LA,NA,NA,41.442864665613484,75.58257345491388,NA
70131,Orleans Parish,LA,NA,NA,12.690889942074776,NA,NA
70301,Lafourche Parish,LA,3.314917127071823,NA,1.5271195365982098,NA,NA
70346,Ascension Parish,LA,NA,NA,46.23486045286993,NA,NA
70360,Terrebonne Parish,LA,NA,18.13953488372093,NA,NA,NA
70364,Terrebonne Parish,LA,NA,NA,NA,27.96352583586626,50.57660626029654
70374,Lafourche Parish,LA,37.84530386740331,NA,NA,NA,NA
70395,Terrebonne Parish,LA,NA,NA,NA,98.27760891590678,NA
70403,Tangipahoa Parish,LA,NA,NA,94.94470774091627,NA,NA
70426,Washington Parish,LA,NA,NA,NA,96.96048632218846,NA
70427,Washington Parish,LA,NA,13.023255813953488,NA,NA,NA
70433,St. Tammany Parish,LA,NA,78.6046511627907,NA,NA,NA
70435,St. Tammany Parish,LA,NA,NA,NA,21.073961499493414,NA
70446,Tangipahoa Parish,LA,NA,58.6046511627907,NA,NA,NA
70448,St. Tammany Parish,LA,NA,NA,NA,32.62411347517731,NA
70458,St. Tammany Parish,LA,NA,NA,4.160084254870985,3.850050658561297,NA
70471,St. Tammany Parish,LA,NA,NA,NA,NA,54.36573311367381
70501,Lafayette Parish,LA,NA,NA,1.369141653501843,NA,NA
70506,Lafayette Parish,LA,NA,NA,NA,NA,26.523887973640857
70510,Vermilion Parish,LA,NA,NA,8.89942074776198,NA,NA
70512,St. Landry Parish,LA,NA,NA,65.5608214849921,NA,NA
70529,Lafayette Parish,LA,NA,NA,48.60452869931543,NA,NA
70533,Vermilion Parish,LA,NA,NA,NA,NA,84.51400329489292
70535,St. Landry Parish,LA,NA,NA,24.59189046866772,NA,NA
70538,St. Mary Parish,LA,NA,NA,NA,55.42046605876393,NA
70560,Iberia Parish,LA,NA,NA,1.685097419694576,NA,NA
70607,Calcasieu Parish,LA,NA,NA,41.864139020537124,NA,NA
70611,Calcasieu Parish,LA,NA,NA,NA,NA,82.37232289950576
70706,Livingston Parish,LA,NA,NA,94.102159031069,NA,NA
70722,East Feliciana Parish,LA,NA,NA,93.62822538177988,NA,NA
70737,Ascension Parish,LA,NA,NA,5.213270142180095,NA,NA
70764,Iberville Parish,LA,77.07182320441989,NA,NA,NA,NA
70769,Ascension Parish,LA,NA,NA,56.34544497103738,NA,NA
70788,Iberville Parish,LA,NA,NA,99.21011058451816,NA,NA
70791,East Baton Rouge Parish,LA,64.9171270718232,NA,NA,NA,NA
70805,East Baton Rouge Parish,LA,NA,NA,79.09426013691416,NA,NA
70810,East Baton Rouge Parish,LA,NA,60.93023255813953,NA,NA,NA
70811,East Baton Rouge Parish,LA,NA,NA,60.61084781463928,NA,NA
70812,East Baton Rouge Parish,LA,NA,NA,87.51974723538704,NA,NA
70820,East Baton Rouge Parish,LA,NA,NA,NA,99.18946301925025,NA
71049,De Soto Parish,LA,91.9889502762431,NA,NA,NA,NA
71052,De Soto Parish,LA,NA,NA,35.91363875724065,NA,NA
71104,Caddo Parish,LA,NA,NA,NA,72.64437689969606,NA
71106,Caddo Parish,LA,NA,NA,4.581358609794629,NA,NA
71108,Caddo Parish,LA,NA,NA,56.71406003159558,NA,NA
71109,Caddo Parish,LA,NA,5.116279069767442,95.94523433385993,NA,NA
71112,Bossier Parish,LA,NA,NA,11.005792522380201,NA,NA
71201,Ouachita Parish,LA,NA,NA,68.50974196945761,NA,NA
71202,Ouachita Parish,LA,NA,NA,40.758293838862556,31.10435663627153,NA
71225,Ouachita Parish,LA,NA,NA,99.57872564507636,NA,NA
71303,Rapides Parish,LA,NA,NA,27.435492364402318,NA,NA
71343,Catahoula Parish,LA,NA,46.51162790697674,NA,NA,NA
71409,Rapides Parish,LA,NA,NA,91.7324907846235,NA,NA
03908,York County,ME,NA,NA,82.3591363875724,61.60081053698075,NA
04005,York County,ME,NA,NA,13.95471300684571,32.92806484295846,NA
04011,Cumberland County,ME,NA,82.7906976744186,NA,NA,NA
04046,York County,ME,NA,NA,94.99736703528173,NA,NA
04064,York County,ME,NA,NA,NA,NA,33.77265238879736
04072,York County,ME,NA,NA,NA,NA,34.102141680395384
04086,Sagadahoc County,ME,NA,NA,NA,56.02836879432624,NA
04090,York County,ME,87.29281767955801,NA,NA,NA,NA
04092,Cumberland County,ME,NA,NA,NA,31.40830800405269,NA
04101,Cumberland County,ME,NA,NA,33.28067403896788,28.47011144883485,NA
04102,Cumberland County,ME,NA,NA,83.62295945234334,NA,NA
04103,Cumberland County,ME,NA,42.7906976744186,NA,NA,NA
04106,Cumberland County,ME,NA,NA,32.859399684044234,NA,NA
04210,Androscoggin County,ME,NA,NA,16.798314902580305,NA,NA
04240,Androscoggin County,ME,9.668508287292818,NA,64.29699842022117,NA,NA
04281,Oxford County,ME,NA,NA,NA,68.38905775075987,72.32289950576606
04294,Franklin County,ME,NA,NA,92.73301737756714,NA,NA
04330,Kennebec County,ME,NA,NA,82.72775144813059,NA,44.97528830313015
04364,Kennebec County,ME,NA,NA,84.93944181147972,NA,NA
04401,Penobscot County,ME,NA,NA,NA,NA,1.1532125205930808
04530,Sagadahoc County,ME,75.96685082872928,NA,NA,NA,NA
04578,Lincoln County,ME,NA,NA,NA,93.81965552178319,NA
04605,Hancock County,ME,NA,NA,42.917324907846236,NA,NA
04736,Aroostook County,ME,NA,NA,52.027382833070035,47.5177304964539,NA
04742,Aroostook County,ME,NA,NA,80.14744602422329,90.88145896656535,NA
04927,Kennebec County,ME,NA,NA,96.15587151132175,NA,NA
04937,Somerset County,ME,NA,NA,85.41337546076882,NA,81.05436573311367
04957,Somerset County,ME,NA,NA,NA,85.81560283687944,NA
04967,Somerset County,ME,NA,NA,NA,NA,98.5172981878089
20657,Calvert County,MD,NA,NA,NA,85.1063829787234,NA
20678,Calvert County,MD,81.21546961325967,NA,NA,NA,NA
20720,Prince George's County,MD,NA,NA,NA,92.401215805471125,NA
20746,Prince George's County,MD,70.99447513812154,NA,NA,NA,NA
20782,Prince George's County,MD,NA,NA,84.57082675092154,NA,NA
20783,Prince George's County,MD,NA,NA,83.51764086361243,NA,NA
20784,Prince George's County,MD,NA,NA,69.72090573986308,NA,NA
20785,Prince George's County,MD,NA,NA,NA,NA,71.99341021416804
20817,Montgomery County,MD,NA,NA,NA,NA,65.56836902800659
20877,Montgomery County,MD,NA,NA,NA,NA,61.44975288303131
20912,Montgomery County,MD,NA,NA,96.41916798314902,NA,NA
21009,Harford County,MD,NA,NA,NA,NA,67.38056013179572
21012,Anne Arundel County,MD,NA,NA,81.7798841495524,NA,NA
21045,Howard County,MD,82.32044198895028,NA,NA,NA,NA
21078,Harford County,MD,NA,NA,49.65771458662454,NA,NA
21117,Baltimore County,MD,NA,NA,NA,28.77406281661601,NA
21202,Baltimore city,MD,NA,NA,NA,61.09422492401215,NA
21211,Baltimore city,MD,NA,NA,74.3022643496577,NA,NA
21213,Baltimore city,MD,NA,NA,70.24749868351763,16.616008105369808,40.85667215815486
21215,Baltimore city,MD,NA,NA,29.015271195365983,NA,NA
21222,Baltimore County,MD,NA,NA,NA,NA,32.78418451400329
21224,Baltimore city,MD,38.12154696132597,NA,NA,85.71428571428571,32.61943986820428
21229,Baltimore city,MD,54.14364640883977,NA,49.13112164296998,NA,NA
21231,Baltimore city,MD,33.97790055248619,NA,NA,NA,NA
21244,Baltimore County,MD,NA,NA,42.18009478672986,40.62816616008105,NA
21401,Anne Arundel County,MD,NA,NA,NA,35.3596757852077,NA
21403,Anne Arundel County,MD,NA,NA,64.45497630331754,NA,NA
21804,Wicomico County,MD,NA,NA,47.02474986835176,NA,36.902800658978585
21875,Wicomico County,MD,NA,NA,97.6303317535545,NA,NA
01002,Hampshire County,MA,NA,NA,71.93259610321222,NA,NA
01020,Hampden County,MA,NA,NA,2.948920484465508,14.285714285714285,NA
01040,Hampden County,MA,NA,NA,NA,0,NA
01069,Hampden County,MA,NA,NA,25.64507635597683,NA,69.8517298187809
01077,Hampden County,MA,NA,NA,70.35281727224854,NA,NA
01085,Hampden County,MA,NA,NA,NA,2.43161094224924,NA
01104,Hampden County,MA,NA,11.162790697674419,79.884149552396,NA,NA
01105,Hampden County,MA,NA,NA,NA,14.69098277608916,NA
01107,Hampden County,MA,NA,NA,NA,96.35258358662614,NA
01109,Hampden County,MA,NA,NA,NA,10.739614994934144,NA
01118,Hampden County,MA,63.25966850828729,NA,NA,NA,NA
01201,Berkshire County,MA,NA,NA,0.842548709847288,NA,NA
01230,Berkshire County,MA,82.59668508287292,NA,NA,NA,NA
01238,Berkshire County,MA,88.39779005524862,NA,NA,NA,NA
01247,Berkshire County,MA,54.41988950276243,NA,44.60242232754081,NA,NA
01420,Worcester County,MA,NA,NA,NA,66.26139817629179,NA
01451,Worcester County,MA,93.37016574585635,NA,NA,NA,NA
01453,Worcester County,MA,NA,NA,0.737230121116377,0.60790273556231,NA
01460,Middlesex County,MA,NA,NA,NA,63.72847011144883,NA
01463,Middlesex County,MA,NA,NA,44.33912585571353,NA,NA
01464,Middlesex County,MA,NA,NA,70.03686150605581,NA,NA
01475,Worcester County,MA,NA,NA,60.45286993154292,NA,NA
01501,Worcester County,MA,NA,79.06976744186046,NA,NA,NA
01506,Worcester County,MA,NA,NA,98.73617693522907,NA,NA
01510,Worcester County,MA,NA,NA,88.15165876777252,NA,NA
01516,Worcester County,MA,NA,NA,30.858346498156923,NA,NA
01523,Worcester County,MA,NA,NA,81.72722485518695,55.01519756838906,NA
01527,Worcester County,MA,86.46408839779005,NA,NA,NA,NA
01562,Worcester County,MA,NA,NA,61.97998946814113,NA,NA
01590,Worcester County,MA,NA,NA,74.19694576092681,NA,NA
01602,Worcester County,MA,NA,NA,NA,77.71023302938197,NA
01603,Worcester County,MA,11.878453038674033,NA,NA,NA,NA
01604,Worcester County,MA,NA,NA,26.066350710900476,56.33232016210739,NA
01605,Worcester County,MA,1.1049723756906076,NA,NA,69.80749746707193,6.919275123558484
01606,Worcester County,MA,NA,43.25581395348837,NA,NA,NA
01607,Worcester County,MA,NA,NA,NA,38.39918946301925,NA
01608,Worcester County,MA,NA,NA,19.694576092680357,NA,NA
01610,Worcester County,MA,NA,NA,68.08846761453397,NA,NA
01701,Middlesex County,MA,NA,NA,35.334386519220644,NA,NA
01721,Middlesex County,MA,59.94475138121547,NA,NA,NA,NA
01730,Middlesex County,MA,NA,NA,NA,83.48530901722391,NA
01741,Middlesex County,MA,NA,NA,NA,97.26443768996961,NA
01757,Worcester County,MA,NA,NA,13.059505002632966,NA,NA
01760,Middlesex County,MA,NA,NA,8.688783570300158,NA,NA
01776,Middlesex County,MA,NA,NA,41.23222748815166,NA,NA
01778,Middlesex County,MA,NA,NA,NA,81.35764944275583,NA
01801,Middlesex County,MA,NA,NA,NA,NA,1.8121911037891267
01803,Middlesex County,MA,NA,NA,NA,NA,3.6243822075782535
01810,Essex County,MA,NA,NA,NA,54.40729483282675,NA
01821,Middlesex County,MA,NA,NA,3.896787783043707,NA,NA
01824,Middlesex County,MA,NA,NA,NA,NA,10.214168039538714
01826,Middlesex County,MA,NA,NA,3.370194839389152,25.329280648429588,NA
01832,Essex County,MA,16.85082872928177,NA,NA,NA,NA
01835,Essex County,MA,NA,NA,81.83254344391784,61.803444782168185,NA
01840,Essex County,MA,NA,NA,NA,58.662613981762924,NA
01841,Essex County,MA,NA,NA,NA,0.303951367781155,NA
01844,Essex County,MA,NA,3.255813953488372,NA,NA,NA
01860,Essex County,MA,NA,NA,84.78146392838336,NA,NA
01862,Middlesex County,MA,NA,NA,NA,NA,74.79406919275124
01867,Middlesex County,MA,NA,NA,24.59189046866772,NA,NA
01880,Middlesex County,MA,NA,NA,26.59294365455503,NA,NA
01886,Middlesex County,MA,NA,NA,20.115850447604004,NA,NA
01887,Middlesex County,MA,NA,NA,4.949973670352818,NA,NA
01902,Essex County,MA,NA,NA,72.3012111637704,NA,NA
01905,Essex County,MA,NA,NA,NA,9.72644376899696,NA
01906,Essex County,MA,NA,NA,67.29857819905213,NA,NA
01907,Essex County,MA,NA,NA,51.86940494997367,NA,NA
01913,Essex County,MA,NA,NA,22.38020010531859,NA,NA
01915,Essex County,MA,NA,NA,1.05318588730911,NA,NA
01923,Essex County,MA,NA,NA,2.3696682464454977,NA,NA
01930,Essex County,MA,NA,NA,2.2643496577145865,NA,NA
01938,Essex County,MA,NA,NA,NA,NA,43.986820428336074
01949,Essex County,MA,NA,NA,NA,70.82066869300911,NA
01951,Essex County,MA,NA,NA,NA,98.88551165146909,NA
01960,Essex County,MA,NA,NA,NA,NA,0.16474464579901155
01970,Essex County,MA,NA,NA,0.47393364928909953,0.8105369807497468,NA
01982,Essex County,MA,NA,NA,NA,86.01823708206688,79.57166392092257
02019,Norfolk County,MA,NA,NA,34.01790416008426,NA,NA
02035,Norfolk County,MA,NA,NA,30.33175355450237,NA,NA
02038,Norfolk County,MA,49.171270718232044,NA,92.36440231700895,NA,NA
02048,Bristol County,MA,NA,NA,17.79884149552396,NA,NA
02062,Norfolk County,MA,NA,NA,12.427593470247498,NA,NA
02067,Norfolk County,MA,NA,NA,NA,NA,98.02306425041186
02072,Norfolk County,MA,NA,NA,76.14533965244867,NA,NA
02081,Norfolk County,MA,NA,NA,NA,51.06382978723404,NA
02111,Suffolk County,MA,NA,NA,58.451816745655606,NA,NA
02114,Suffolk County,MA,NA,NA,16.113744075829384,NA,NA
02118,Suffolk County,MA,NA,NA,0.0526592943654555,NA,NA
02119,Suffolk County,MA,9.116022099447514,NA,0,77.10233029381965,NA
02120,Suffolk County,MA,NA,NA,4.21274354923644,NA,NA
02121,Suffolk County,MA,12.430939226519337,NA,44.971037388099,NA,30.971993410214164
02122,Suffolk County,MA,NA,NA,NA,1.1144883485309016,NA
02124,Suffolk County,MA,NA,0,37.33543970510795,0.10131712259371835,NA
02125,Suffolk County,MA,NA,NA,NA,15.29888551165147,NA
02126,Suffolk County,MA,NA,NA,60.29489204844655,4.660587639311044,NA
02127,Suffolk County,MA,NA,NA,0.8952080042127435,NA,NA
02128,Suffolk County,MA,5.524861878453039,NA,9.110057925223803,51.77304964539007,7.0840197693574956
02129,Suffolk County,MA,NA,NA,33.965244865718795,30.800405268490376,NA
02130,Suffolk County,MA,NA,NA,NA,1.9250253292806485,NA
02131,Suffolk County,MA,NA,NA,71.8272775144813,53.49544072948328,43.32784184514003
02132,Suffolk County,MA,NA,NA,NA,NA,32.45469522240527
02134,Suffolk County,MA,NA,NA,NA,NA,59.80230642504119
02135,Suffolk County,MA,NA,NA,37.124802527646125,NA,16.474464579901152
02136,Suffolk County,MA,NA,NA,1.1585044760400212,6.382978723404255,91.10378912685337
02138,Middlesex County,MA,NA,NA,10.479199578725645,79.12867274569402,NA
02139,Middlesex County,MA,41.988950276243095,20.930232558139537,62.769878883622965,NA,NA
02140,Middlesex County,MA,NA,NA,98.68351764086361,NA,NA
02141,Middlesex County,MA,NA,NA,26.32964718272775,NA,NA
02143,Middlesex County,MA,NA,NA,NA,13.576494427558258,NA
02145,Middlesex County,MA,4.143646408839778,5.5813953488372094,91.4691943127962,91.1854103343465,NA
02148,Middlesex County,MA,3.867403314917127,NA,11.532385466034755,0.2026342451874367,NA
02149,Middlesex County,MA,NA,NA,13.902053712480253,10.638297872340425,NA
02150,Suffolk County,MA,6.906077348066299,NA,NA,NA,NA
02151,Suffolk County,MA,34.806629834254146,NA,78.98894154818325,NA,0.3294892915980231
02152,Suffolk County,MA,NA,NA,NA,NA,11.532125205930807
02155,Middlesex County,MA,NA,NA,NA,NA,51.07084019769358
02170,Norfolk County,MA,NA,NA,NA,11.55015197568389,NA
02171,Norfolk County,MA,NA,NA,NA,NA,42.33937397034596
02180,Middlesex County,MA,NA,NA,10.742496050552923,NA,NA
02188,Norfolk County,MA,NA,NA,51.606108478146396,NA,NA
02190,Norfolk County,MA,NA,NA,25.013164823591367,NA,NA
02301,Plymouth County,MA,0.2762430939226519,0.9302325581395349,0.3686150605581885,11.955420466058763,NA
02302,Plymouth County,MA,NA,NA,0.6845708267509215,NA,NA
02324,Plymouth County,MA,NA,NA,9.47867298578199,NA,NA
02333,Plymouth County,MA,NA,NA,NA,49.645390070921984,NA
02343,Norfolk County,MA,NA,NA,93.7335439705108,NA,NA
02347,Plymouth County,MA,NA,NA,NA,89.4630192502533,NA
02368,Norfolk County,MA,NA,NA,1.263823064770932,33.83991894630192,24.71169686985173
02370,Plymouth County,MA,NA,NA,12.954186413902052,NA,NA
02420,Middlesex County,MA,NA,NA,34.70247498683518,NA,NA
02446,Norfolk County,MA,NA,NA,NA,9.118541033434651,NA
02453,Middlesex County,MA,NA,NA,NA,NA,21.4168039538715
02459,Middlesex County,MA,91.16022099447514,NA,NA,NA,NA
02460,Middlesex County,MA,NA,NA,NA,NA,80.39538714991762
02461,Middlesex County,MA,NA,NA,NA,NA,85.33772652388797
02465,Middlesex County,MA,NA,NA,53.817798841495524,NA,NA
02467,Norfolk County,MA,NA,NA,47.18272775144813,NA,NA
02468,Middlesex County,MA,NA,NA,NA,98.37892603850051,NA
02472,Middlesex County,MA,NA,NA,5.423907319641917,9.321175278622087,NA
02476,Middlesex County,MA,NA,NA,85.25539757767245,NA,NA
02492,Norfolk County,MA,NA,NA,NA,31.30699088145897,44.15156507413509
02538,Plymouth County,MA,NA,NA,90.15271195365983,NA,NA
02571,Plymouth County,MA,NA,NA,41.02159031068984,NA,NA
02576,Plymouth County,MA,NA,NA,62.190626645602954,NA,NA
02601,Barnstable County,MA,NA,NA,NA,26.646403242147926,NA
02638,Barnstable County,MA,NA,NA,NA,NA,85.667215815486
02642,Barnstable County,MA,NA,NA,99.89468141126909,NA,NA
02723,Bristol County,MA,NA,NA,NA,5.369807497467072,NA
02724,Bristol County,MA,NA,NA,NA,NA,7.248764415156507
02740,Bristol County,MA,NA,NA,0.526592943654555,NA,NA
02744,Bristol County,MA,NA,NA,35.59768299104792,NA,NA
02745,Bristol County,MA,NA,NA,1.369141653501843,NA,NA
02747,Bristol County,MA,NA,NA,78.67298578199052,NA,NA
02762,Norfolk County,MA,NA,NA,55.71353343865192,NA,NA
02790,Bristol County,MA,NA,NA,83.2016850974197,NA,NA
48021,Macomb County,MI,NA,NA,8.741442864665613,21.98581560283688,NA
48025,Oakland County,MI,NA,NA,83.25434439178515,NA,NA
48030,Oakland County,MI,NA,NA,75.30279094260138,NA,NA
48033,Oakland County,MI,NA,NA,39.70510795155345,NA,NA
48039,St. Clair County,MI,NA,NA,NA,NA,90.11532125205932
48044,Macomb County,MI,NA,NA,6.213796735123749,NA,NA
48047,Macomb County,MI,NA,NA,12.111637704054766,NA,NA
48048,Macomb County,MI,NA,NA,76.40863612427593,NA,NA
48051,Macomb County,MI,NA,NA,57.50394944707741,NA,NA
48066,Macomb County,MI,NA,NA,2.1590310689836754,NA,NA
48071,Oakland County,MI,NA,NA,NA,39.00709219858156,NA
48072,Oakland County,MI,NA,NA,51.07951553449184,55.92705167173252,NA
48073,Oakland County,MI,NA,NA,NA,37.68996960486322,NA
48076,Oakland County,MI,NA,NA,29.120589784096897,NA,NA
48080,Macomb County,MI,NA,NA,33.85992627698789,NA,NA
48084,Oakland County,MI,NA,NA,98.36756187467088,NA,NA
48085,Oakland County,MI,NA,NA,NA,31.914893617021278,NA
48091,Macomb County,MI,NA,NA,4.6866771985255395,NA,NA
48094,Macomb County,MI,NA,NA,NA,53.29280648429585,NA
48098,Oakland County,MI,NA,NA,59.87361769352291,NA,NA
48101,Wayne County,MI,NA,NA,NA,33.33333333333333,NA
48103,Washtenaw County,MI,NA,NA,43.86519220642444,1.82370820668693,NA
48108,Washtenaw County,MI,NA,NA,71.09004739336493,72.03647416413374,NA
48111,Wayne County,MI,NA,NA,5.107951553449184,NA,NA
48114,Livingston County,MI,58.5635359116022,NA,51.448130595050024,30.49645390070922,56.34266886326195
48118,Washtenaw County,MI,NA,NA,NA,36.87943262411347,30.807248764415156
48125,Wayne County,MI,NA,NA,NA,81.45896656534954,NA
48127,Wayne County,MI,25.13812154696133,NA,90.20537124802527,NA,NA
48128,Wayne County,MI,NA,NA,82.3591363875724,NA,NA
48133,Monroe County,MI,NA,NA,93.31226961558716,NA,NA
48134,Wayne County,MI,NA,NA,61.716692996313846,NA,NA
48135,Wayne County,MI,NA,NA,55.55555555555556,NA,NA
48154,Wayne County,MI,NA,NA,NA,9.625126646403242,NA
48161,Monroe County,MI,NA,43.72093023255814,NA,NA,36.73805601317957
48162,Monroe County,MI,NA,NA,NA,3.343465045592705,NA
48166,Monroe County,MI,52.762430939226526,NA,NA,NA,NA
48167,Oakland County,MI,NA,NA,NA,29.584599797365758,NA
48168,Wayne County,MI,NA,NA,NA,42.75582573454914,32.12520593080725
48169,Livingston County,MI,NA,NA,NA,70.2127659574468,NA
48170,Wayne County,MI,NA,NA,NA,26.545086119554206,43.163097199341024
48174,Wayne County,MI,11.049723756906078,NA,NA,NA,40.19769357495881
48176,Washtenaw County,MI,NA,NA,NA,28.267477203647417,NA
48178,Oakland County,MI,NA,NA,66.66666666666666,NA,NA
48180,Wayne County,MI,NA,12.558139534883722,29.75250131648236,NA,NA
48183,Wayne County,MI,NA,NA,NA,8.105369807497468,14.662273476112025
48184,Wayne County,MI,NA,NA,NA,27.86220871327254,NA
48186,Wayne County,MI,NA,28.837209302325583,NA,NA,NA
48187,Wayne County,MI,19.613259668508288,NA,8.583464981569247,2.9381965552178317,NA
48188,Wayne County,MI,NA,NA,11.11111111111111,NA,NA
48195,Wayne County,MI,NA,NA,57.030015797788316,NA,NA
48198,Washtenaw County,MI,NA,NA,56.81937862032649,NA,NA
48203,Wayne County,MI,NA,NA,43.97051079515534,NA,89.62108731466228
48204,Wayne County,MI,NA,NA,8.42548709847288,71.52988855116514,NA
48205,Wayne County,MI,NA,NA,3.1068983675618744,81.56028368794325,NA
48206,Wayne County,MI,NA,NA,24.328593996840443,NA,NA
48207,Wayne County,MI,NA,NA,17.061611374407583,NA,NA
48208,Wayne County,MI,NA,NA,56.39810426540285,NA,NA
48209,Wayne County,MI,NA,NA,56.450763559768305,NA,NA
48212,Wayne County,MI,28.45303867403315,13.953488372093023,8.162190626645604,NA,70.0164744645799
48213,Wayne County,MI,NA,NA,NA,29.38196555217832,NA
48220,Oakland County,MI,NA,NA,NA,48.429584599797366,NA
48221,Wayne County,MI,NA,NA,21.853607161664033,NA,3.789126853377265
48223,Wayne County,MI,NA,NA,10.689836756187466,NA,NA
48224,Wayne County,MI,NA,NA,NA,NA,56.672158154859964
48225,Wayne County,MI,NA,NA,37.2827804107425,89.76697061803445,NA
48227,Wayne County,MI,NA,NA,16.061084781463926,40.22289766970618,26.194398682042834
48228,Wayne County,MI,NA,7.441860465116279,36.65086887835703,NA,NA
48230,Wayne County,MI,NA,NA,51.13217482885729,NA,NA
48234,Wayne County,MI,NA,NA,50.97419694576093,18.33839918946302,NA
48235,Wayne County,MI,NA,14.883720930232558,43.91785150078989,NA,NA
48236,Wayne County,MI,NA,NA,28.278041074249604,NA,NA
48237,Oakland County,MI,NA,NA,NA,22.492401215805472,NA
48238,Wayne County,MI,NA,NA,3.8441284886782516,NA,NA
48239,Wayne County,MI,NA,NA,30.22643496577146,65.1469098277609,NA
48240,Wayne County,MI,NA,NA,72.1958925750395,NA,NA
48304,Oakland County,MI,NA,NA,67.40389678778304,NA,NA
48309,Oakland County,MI,NA,NA,31.22696155871511,NA,NA
48310,Macomb County,MI,NA,NA,14.481305950500264,NA,NA
48313,Macomb County,MI,NA,NA,59.97893628225381,NA,NA
48315,Macomb County,MI,NA,NA,NA,NA,29.983525535420096
48317,Macomb County,MI,NA,NA,NA,23.404255319148938,NA
48322,Oakland County,MI,NA,NA,NA,10.233029381965553,6.260296540362438
48326,Oakland County,MI,NA,NA,50.6582411795682,59.37183383991894,NA
48331,Oakland County,MI,NA,NA,70.40547656661401,NA,NA
48342,Oakland County,MI,NA,NA,43.65455502896261,NA,NA
48346,Oakland County,MI,NA,NA,35.43970510795155,NA,NA
48353,Livingston County,MI,NA,NA,NA,87.63931104356637,NA
48371,Oakland County,MI,48.61878453038674,NA,35.17640863612427,NA,NA
48375,Oakland County,MI,95.58011049723757,NA,NA,NA,NA
48382,Oakland County,MI,NA,NA,NA,38.60182370820669,NA
48383,Oakland County,MI,NA,89.30232558139535,NA,NA,NA
48386,Oakland County,MI,NA,NA,62.40126382306477,NA,NA
48390,Oakland County,MI,NA,NA,NA,39.31104356636271,NA
48415,Saginaw County,MI,NA,NA,48.13059505002633,NA,NA
48423,Genesee County,MI,NA,NA,NA,25.227963525835868,NA
48428,Lapeer County,MI,NA,NA,NA,87.13272543059777,NA
48430,Genesee County,MI,NA,NA,58.55713533438652,NA,NA
48462,Oakland County,MI,NA,NA,79.30489731437599,NA,NA
48506,Genesee County,MI,NA,NA,21.379673512374932,NA,NA
48507,Genesee County,MI,NA,NA,56.02948920484465,NA,NA
48532,Genesee County,MI,NA,NA,NA,43.059777102330294,NA
48601,Saginaw County,MI,12.154696132596685,10.232558139534884,11.427066877303844,NA,NA
48603,Saginaw County,MI,14.088397790055248,NA,NA,NA,12.355848434925864
48624,Gladwin County,MI,NA,NA,71.61664033701949,NA,NA
48634,Bay County,MI,NA,NA,97.36703528172723,NA,NA
48638,Saginaw County,MI,NA,NA,57.767245918904685,NA,NA
48640,Midland County,MI,29.55801104972376,NA,55.5028962611901,NA,6.754530477759473
48642,Midland County,MI,NA,NA,17.114270668773038,NA,NA
48647,Oscoda County,MI,NA,NA,92.41706161137441,NA,NA
48657,Midland County,MI,NA,NA,83.41232227488152,NA,56.83690280065898
48706,Bay County,MI,NA,NA,5.6345444971037395,NA,NA
48763,Iosco County,MI,NA,NA,92.15376513954713,NA,NA
48823,Ingham County,MI,NA,NA,31.437598736176938,NA,NA
48838,Montcalm County,MI,NA,NA,NA,33.94123606889564,NA
48848,Shiawassee County,MI,93.646408839779,NA,NA,NA,NA
48855,Livingston County,MI,NA,NA,NA,52.58358662613982,NA
48858,Isabella County,MI,NA,NA,NA,8.409321175278622,NA
48911,Ingham County,MI,15.745856353591158,NA,NA,74.0628166160081,NA
48912,Ingham County,MI,NA,NA,51.711427066877306,NA,NA
49004,Kalamazoo County,MI,63.53591160220995,NA,NA,53.799392097264445,NA
49006,Kalamazoo County,MI,NA,NA,NA,NA,62.43822075782537
49008,Kalamazoo County,MI,NA,NA,65.87677725118483,NA,NA
49009,Kalamazoo County,MI,33.14917127071823,NA,NA,NA,NA
49015,Calhoun County,MI,NA,NA,46.97209057398631,NA,NA
49022,Berrien County,MI,NA,NA,33.80726698262243,NA,NA
49058,Barry County,MI,NA,NA,27.64612954186414,NA,NA
49068,Calhoun County,MI,NA,NA,NA,49.949341438703144,NA
49080,Allegan County,MI,NA,NA,87.94102159031068,NA,NA
49093,St. Joseph County,MI,NA,NA,NA,40.42553191489361,NA
49107,Berrien County,MI,NA,NA,70.19483938915218,NA,NA
49120,Berrien County,MI,NA,NA,12.848867825171142,NA,NA
49201,Jackson County,MI,NA,NA,NA,NA,9.390444810543658
49203,Jackson County,MI,NA,NA,5.739863085834649,9.523809523809524,9.884678747940692
49221,Lenawee County,MI,7.18232044198895,NA,18.220115850447606,NA,NA
49224,Calhoun County,MI,NA,NA,NA,62.71529888551165,NA
49236,Lenawee County,MI,NA,NA,95.36598209583993,NA,NA
49285,Ingham County,MI,NA,NA,NA,80.1418439716312,NA
49307,Mecosta County,MI,NA,NA,NA,64.33637284701115,NA
49321,Kent County,MI,60.49723756906077,NA,NA,NA,NA
49327,Newaygo County,MI,NA,NA,93.68088467614534,NA,NA
49408,Allegan County,MI,42.26519337016575,NA,NA,NA,NA
49417,Ottawa County,MI,NA,56.74418604651162,48.34123222748815,7.801418439716312,NA
49418,Kent County,MI,NA,NA,71.40600315955766,NA,NA
49426,Ottawa County,MI,NA,NA,NA,NA,80.88962108731467
49442,Muskegon County,MI,NA,NA,2.211690363349131,5.167173252279635,NA
49444,Muskegon County,MI,24.861878453038674,NA,NA,24.51874366767984,NA
49445,Muskegon County,MI,NA,NA,NA,24.012158054711247,26.68863261943987
49460,Ottawa County,MI,88.67403314917127,NA,NA,NA,NA
49505,Kent County,MI,NA,NA,NA,79.93920972644378,22.075782537067546
49506,Kent County,MI,78.45303867403315,NA,NA,45.99797365754812,NA
49507,Kent County,MI,NA,NA,3.949447077409163,NA,NA
49508,Kent County,MI,NA,NA,59.03106898367562,NA,11.367380560131796
49509,Kent County,MI,NA,NA,11.321748288572934,NA,NA
49512,Kent County,MI,NA,NA,91.83780937335439,NA,NA
49519,Kent County,MI,NA,30.23255813953488,NA,NA,NA
49525,Kent County,MI,NA,NA,32.80674038967878,NA,39.209225700164744
49534,Kent County,MI,NA,NA,57.030015797788316,NA,NA
49546,Kent County,MI,NA,NA,71.19536598209584,35.46099290780142,NA
49548,Kent County,MI,NA,NA,49.39441811479726,NA,NA
49684,Grand Traverse County,MI,NA,NA,55.976829910479196,NA,NA
49738,Crawford County,MI,NA,NA,NA,74.46808510638297,NA
49770,Emmet County,MI,NA,NA,61.45339652448657,54.1033434650456,31.960461285008236
49783,Chippewa County,MI,NA,NA,NA,NA,42.174629324546956
49855,Marquette County,MI,NA,NA,13.006845708267509,NA,NA
49866,Marquette County,MI,NA,NA,85.62401263823065,NA,NA
49913,Houghton County,MI,NA,NA,58.29383886255924,NA,NA
49930,Houghton County,MI,NA,99.53488372093024,NA,NA,NA
49946,Baraga County,MI,NA,NA,95.47130068457082,NA,NA
55024,Dakota County,MN,NA,NA,49.81569246972091,NA,NA
55025,Washington County,MN,NA,NA,56.55608214849921,NA,NA
55033,Dakota County,MN,NA,NA,NA,84.70111448834852,NA
55040,Isanti County,MN,86.1878453038674,NA,NA,NA,NA
55041,Wabasha County,MN,NA,NA,NA,NA,56.01317957166392
55051,Kanabec County,MN,NA,NA,60.97946287519748,NA,48.59967051070841
55060,Steele County,MN,NA,NA,NA,34.2451874366768,NA
55066,Goodhue County,MN,NA,NA,44.4971037388099,NA,NA
55102,Ramsey County,MN,NA,NA,26.487625065824115,NA,NA
55103,Ramsey County,MN,NA,NA,NA,NA,95.05766062602964
55104,Ramsey County,MN,NA,NA,NA,NA,49.42339373970346
55106,Ramsey County,MN,NA,NA,25.59241706161137,NA,NA
55112,Ramsey County,MN,NA,68.83720930232559,NA,NA,NA
55122,Dakota County,MN,NA,NA,NA,66.46403242147923,NA
55123,Dakota County,MN,34.530386740331494,NA,NA,NA,NA
55128,Washington County,MN,NA,NA,NA,NA,51.40032948929159
55330,Sherburne County,MN,NA,NA,40.38967877830437,NA,NA
55337,Dakota County,MN,NA,NA,NA,63.829787234042556,68.5337726523888
55350,McLeod County,MN,NA,NA,87.67772511848341,NA,18.945634266886326
55369,Hennepin County,MN,22.099447513812155,NA,NA,NA,NA
55374,Hennepin County,MN,NA,NA,91.52185360716166,NA,NA
55404,Hennepin County,MN,11.602209944751381,NA,7.635597682991048,NA,NA
55405,Hennepin County,MN,NA,NA,34.59715639810427,NA,NA
55406,Hennepin County,MN,NA,NA,57.60926803580833,NA,NA
55407,Hennepin County,MN,10.497237569060774,6.511627906976744,24.223275408109533,NA,NA
55408,Hennepin County,MN,NA,NA,36.914165350184305,NA,NA
55410,Hennepin County,MN,NA,NA,NA,85.30901722391084,NA
55411,Hennepin County,MN,NA,NA,15.639810426540285,NA,NA
55413,Hennepin County,MN,NA,NA,97.31437598736177,NA,NA
55414,Hennepin County,MN,NA,NA,51.65876777251185,NA,NA
55418,Hennepin County,MN,NA,NA,61.03212216956293,NA,NA
55419,Hennepin County,MN,NA,NA,44.76040021063718,NA,NA
55420,Hennepin County,MN,NA,NA,72.40652975250131,NA,NA
55421,Anoka County,MN,NA,NA,72.35387045813586,NA,NA
55422,Hennepin County,MN,NA,NA,27.540810953133228,NA,NA
55427,Hennepin County,MN,NA,58.6046511627907,54.397051079515535,NA,NA
55430,Hennepin County,MN,NA,NA,49.34175882043181,NA,NA
55433,Anoka County,MN,NA,NA,NA,58.459979736575484,NA
55434,Anoka County,MN,NA,75.34883720930232,NA,NA,81.54859967051071
55435,Hennepin County,MN,NA,NA,NA,NA,62.7677100494234
55449,Anoka County,MN,NA,NA,NA,75.37993920972644,NA
55744,Itasca County,MN,NA,NA,14.112690889942076,NA,7.907742998352553
55746,St. Louis County,MN,NA,NA,NA,NA,29.489291598023065
55792,St. Louis County,MN,NA,NA,34.28120063191153,NA,NA
55806,St. Louis County,MN,NA,NA,91.41653501843075,NA,NA
55807,St. Louis County,MN,NA,NA,NA,59.169199594731516,NA
55808,St. Louis County,MN,NA,NA,NA,78.11550151975683,NA
55811,St. Louis County,MN,NA,NA,27.277514481305946,6.889564336372847,NA
55901,Olmsted County,MN,NA,NA,NA,29.17933130699088,NA
55904,Olmsted County,MN,NA,NA,34.4391785150079,40.83080040526849,NA
55906,Olmsted County,MN,NA,NA,NA,NA,65.7331136738056
55912,Mower County,MN,NA,NA,NA,50.455927051671736,0.8237232289950577
55921,Houston County,MN,NA,NA,99.26276987888363,NA,65.23887973640856
55944,Dodge County,MN,NA,NA,NA,NA,95.55189456342669
55987,Winona County,MN,NA,NA,6.582411795681938,47.92299898682877,19.769357495881383
56007,Freeborn County,MN,NA,NA,45.023696682464454,NA,NA
56011,Scott County,MN,NA,NA,NA,NA,87.64415156507414
56031,Martin County,MN,NA,NA,44.86571879936809,NA,NA
56081,Watonwan County,MN,NA,NA,NA,76.39311043566363,43.82207578253707
56093,Waseca County,MN,NA,NA,NA,NA,26.85337726523888
56187,Nobles County,MN,NA,NA,68.29910479199579,NA,NA
56241,Yellow Medicine County,MN,99.17127071823204,NA,NA,NA,NA
56267,Stevens County,MN,74.58563535911603,NA,NA,NA,NA
56303,Stearns County,MN,NA,NA,65.40284360189574,NA,NA
56308,Douglas County,MN,NA,NA,24.01263823064771,NA,31.795716639209225
56387,Stearns County,MN,NA,86.9767441860465,NA,NA,NA
56401,Crow Wing County,MN,NA,NA,55.134281200631904,NA,NA
56431,Aitkin County,MN,NA,NA,NA,45.49138804457954,NA
56444,Crow Wing County,MN,NA,NA,NA,NA,52.71828665568369
56470,Hubbard County,MN,NA,NA,NA,NA,75.28830313014826
56472,Crow Wing County,MN,NA,NA,71.03738809899947,NA,NA
56477,Wadena County,MN,NA,NA,99.47340705634544,NA,NA
56482,Wadena County,MN,NA,NA,89.942074776198,NA,NA
56501,Becker County,MN,NA,NA,36.808846761453395,NA,21.911037891268535
56537,Otter Tail County,MN,NA,NA,48.92048446550816,NA,NA
56560,Clay County,MN,NA,4.651162790697675,10.847814639283834,4.964539007092199,1.4827018121911038
56572,Otter Tail County,MN,NA,NA,NA,NA,92.58649093904448
56601,Beltrami County,MN,66.57458563535911,NA,24.065297525013165,NA,1.9769357495881383
56701,Pennington County,MN,NA,NA,17.482885729331226,NA,NA
56716,Polk County,MN,NA,NA,28.64665613480779,NA,NA
56721,Polk County,MN,NA,NA,NA,NA,87.1499176276771
38611,Marshall County,MS,NA,NA,NA,NA,86.9851729818781
38632,DeSoto County,MS,70.1657458563536,NA,NA,NA,NA
38635,Marshall County,MS,NA,NA,NA,NA,83.19604612850083
38654,DeSoto County,MS,NA,NA,20.48446550816219,25.430597771023304,NA
38655,Lafayette County,MS,NA,NA,NA,73.04964539007092,NA
38663,Tippah County,MS,NA,NA,71.45866245392311,NA,NA
38701,Washington County,MS,NA,NA,93.2596103212217,NA,NA
38732,Bolivar County,MS,NA,NA,36.17693522906793,NA,NA
38804,Lee County,MS,NA,NA,73.56503422854134,NA,NA
38827,Tishomingo County,MS,NA,NA,96.41916798314902,NA,NA
38930,Leflore County,MS,67.95580110497238,NA,72.45918904686677,NA,NA
39038,Humphreys County,MS,NA,NA,98.4728804634018,NA,NA
39046,Madison County,MS,NA,NA,61.400737230121116,NA,NA
39051,Leake County,MS,61.60220994475139,NA,NA,NA,NA
39056,Hinds County,MS,NA,NA,NA,NA,58.81383855024712
39074,Scott County,MS,NA,NA,NA,67.07193515704154,NA
39110,Madison County,MS,NA,NA,37.65139547130069,NA,NA
39114,Simpson County,MS,NA,NA,NA,92.19858156028369,NA
39146,Holmes County,MS,NA,NA,99.10479199578725,NA,NA
39160,Attala County,MS,NA,97.20930232558139,NA,NA,NA
39191,Copiah County,MS,NA,NA,90.62664560294891,NA,NA
39194,Yazoo County,MS,NA,NA,NA,92.60385005065856,NA
39206,Hinds County,MS,NA,NA,62.875197472353875,50.86119554204661,NA
39208,Rankin County,MS,NA,NA,NA,58.76393110435664,NA
39209,Hinds County,MS,NA,NA,74.24960505529225,51.3677811550152,NA
39213,Hinds County,MS,NA,NA,33.28067403896788,NA,NA
39272,Hinds County,MS,NA,NA,80.77935755660874,NA,NA
39301,Lauderdale County,MS,38.39779005524862,NA,NA,NA,NA
39339,Winston County,MS,NA,NA,74.14428646656135,NA,NA
39350,Neshoba County,MS,NA,NA,23.4333859926277,NA,NA
39402,Lamar County,MS,30.386740331491712,NA,NA,NA,NA
39429,Marion County,MS,NA,NA,67.24591890468668,NA,NA
39452,George County,MS,NA,NA,58.92575039494471,NA,NA
39466,Pearl River County,MS,NA,NA,NA,NA,23.393739703459637
39501,Harrison County,MS,NA,NA,NA,20.66869300911854,NA
39503,Harrison County,MS,NA,NA,NA,3.951367781155015,NA
39525,Hancock County,MS,NA,NA,NA,57.14285714285714,NA
39562,Jackson County,MS,NA,NA,NA,50.75987841945289,NA
39564,Jackson County,MS,NA,50.697674418604656,NA,NA,NA
39574,Harrison County,MS,76.24309392265194,NA,NA,NA,NA
39577,Stone County,MS,NA,NA,NA,88.04457953394123,NA
39652,Pike County,MS,NA,83.72093023255815,NA,NA,NA
39666,Pike County,MS,75.69060773480662,NA,NA,NA,NA
39701,Lowndes County,MS,NA,NA,67.87783043707213,NA,NA
39705,Lowndes County,MS,NA,NA,94.83938915218536,NA,NA
39773,Clay County,MS,NA,NA,NA,72.23910840932118,NA
63010,Jefferson County,MO,NA,NA,37.23012111637704,NA,NA
63017,St. Louis County,MO,NA,NA,65.086887835703,14.792299898682879,NA
63020,Jefferson County,MO,NA,NA,NA,NA,84.84349258649094
63043,St. Louis County,MO,NA,NA,52.60663507109005,NA,NA
63044,St. Louis County,MO,NA,NA,93.99684044233807,NA,NA
63052,Jefferson County,MO,NA,NA,NA,NA,63.92092257001647
63107,St. Louis city,MO,NA,NA,67.03528172722486,NA,NA
63108,St. Louis city,MO,NA,NA,49.97367035281727,NA,NA
63111,St. Louis city,MO,NA,NA,31.068983675618746,NA,73.80560131795717
63116,St. Louis city,MO,NA,NA,NA,NA,53.87149917627677
63122,St. Louis County,MO,NA,NA,NA,27.659574468085108,NA
63123,St. Louis County,MO,NA,NA,34.96577145866245,NA,4.612850082372323
63124,St. Louis County,MO,NA,NA,NA,94.4275582573455,NA
63129,St. Louis County,MO,NA,NA,NA,9.422492401215806,NA
63136,St. Louis County,MO,NA,NA,27.17219589257504,NA,NA
63137,St. Louis County,MO,NA,NA,36.124275934702474,NA,NA
63138,St. Louis County,MO,NA,52.093023255813954,NA,NA,NA
63146,St. Louis County,MO,NA,NA,NA,NA,8.5667215815486
63301,St. Charles County,MO,21.823204419889503,NA,NA,NA,NA
63353,Pike County,MO,NA,NA,94.52343338599263,NA,NA
63366,St. Charles County,MO,NA,64.65116279069767,NA,5.977710233029382,NA
63383,Warren County,MO,NA,NA,NA,48.12563323201621,NA
63385,St. Charles County,MO,NA,NA,NA,NA,21.25205930807249
63501,Adair County,MO,NA,NA,NA,68.79432624113475,NA
63640,St. Francois County,MO,NA,NA,NA,NA,35.42009884678748
63801,Scott County,MO,NA,NA,55.081621906266456,NA,NA
63841,Stoddard County,MO,NA,NA,NA,NA,63.59143327841845
63857,Dunklin County,MO,NA,NA,41.969457609268034,NA,NA
63901,Butler County,MO,NA,NA,11.901000526592943,63.12056737588653,NA
63935,Ripley County,MO,NA,NA,53.396524486571884,NA,NA
64024,Clay County,MO,NA,NA,16.16640337019484,NA,NA
64030,Jackson County,MO,NA,34.418604651162795,NA,NA,NA
64050,Jackson County,MO,NA,NA,NA,20.16210739614995,NA
64055,Jackson County,MO,NA,NA,5.792522380200105,NA,NA
64064,Jackson County,MO,NA,NA,NA,50.96251266464032,NA
64068,Clay County,MO,NA,NA,7.003686150605581,NA,NA
64108,Jackson County,MO,NA,58.6046511627907,NA,NA,NA
64110,Jackson County,MO,NA,NA,69.56292785676672,NA,NA
64113,Jackson County,MO,64.08839779005525,NA,NA,NA,NA
64117,Clay County,MO,41.16022099447514,NA,NA,NA,NA
64123,Jackson County,MO,NA,NA,NA,73.35359675785207,NA
64130,Jackson County,MO,NA,NA,4.844655081621906,NA,NA
64131,Jackson County,MO,NA,NA,42.812006319115326,NA,NA
64132,Jackson County,MO,NA,NA,13.428120063191153,NA,NA
64133,Jackson County,MO,2.4861878453038675,NA,3.2122169562927856,5.47112462006079,NA
64134,Jackson County,MO,9.94475138121547,31.627906976744185,62.7172195892575,NA,NA
64137,Jackson County,MO,83.42541436464089,NA,NA,NA,NA
64154,Platte County,MO,NA,NA,75.56608741442865,NA,NA
64157,Clay County,MO,NA,NA,30.700368615060558,98.78419452887537,NA
64503,Buchanan County,MO,NA,NA,NA,NA,46.62273476112026
64506,Buchanan County,MO,NA,NA,NA,NA,2.800658978583196
64628,Linn County,MO,NA,NA,NA,91.28672745694021,NA
64701,Cass County,MO,NA,NA,NA,NA,62.932454695222404
64801,Jasper County,MO,NA,NA,NA,17.1225937183384,NA
64836,Jasper County,MO,NA,48.372093023255815,NA,NA,NA
65202,Boone County,MO,NA,27.906976744186046,9.26803580832017,NA,NA
65233,Cooper County,MO,NA,69.30232558139535,NA,88.85511651469098,NA
65251,Callaway County,MO,NA,NA,64.0337019483939,NA,NA
65301,Pettis County,MO,NA,NA,2.8962611901000526,NA,NA
65401,Phelps County,MO,NA,NA,35.75566087414428,NA,NA
65689,Texas County,MO,NA,NA,NA,96.85916919959473,NA
65706,Webster County,MO,NA,71.62790697674419,NA,NA,NA
65775,Howell County,MO,NA,NA,29.173249078462348,NA,NA
65802,Greene County,MO,NA,18.6046511627907,NA,22.99898682877406,NA
59102,Yellowstone County,MT,NA,NA,42.1274354923644,NA,2.14168039538715
59401,Cascade County,MT,NA,NA,84.09689310163245,NA,NA
59404,Cascade County,MT,NA,NA,NA,13.47517730496454,NA
59405,Cascade County,MT,NA,NA,26.224328593996844,NA,NA
59501,Hill County,MT,NA,NA,NA,96.65653495440729,76.27677100494233
59601,Lewis and Clark County,MT,NA,NA,NA,21.88449848024316,NA
59602,Lewis and Clark County,MT,NA,NA,NA,35.05572441742654,NA
59635,Lewis and Clark County,MT,NA,NA,93.20695102685625,NA,NA
59644,Broadwater County,MT,NA,NA,NA,NA,99.01153212520593
59715,Gallatin County,MT,NA,NA,NA,38.196555217831815,NA
59718,Gallatin County,MT,NA,NA,69.45760926803581,43.262411347517734,NA
59801,Missoula County,MT,NA,NA,88.41495523959979,NA,NA
59808,Missoula County,MT,85.6353591160221,NA,NA,NA,NA
59840,Ravalli County,MT,NA,NA,79.4102159031069,NA,NA
59901,Flathead County,MT,NA,NA,65.66614007372301,NA,1.3179571663920924
59912,Flathead County,MT,NA,NA,NA,NA,58.319604612850085
68008,Washington County,NE,NA,NA,NA,NA,66.06260296540363
68022,Douglas County,NE,NA,NA,75.72406529752502,NA,NA
68104,Douglas County,NE,NA,NA,NA,NA,48.76441515650741
68124,Douglas County,NE,NA,NA,NA,85.41033434650456,NA
68131,Douglas County,NE,NA,NA,89.41548183254343,NA,NA
68310,Gage County,NE,NA,NA,66.5086887835703,56.12968591691996,NA
68521,Lancaster County,NE,NA,NA,62.875197472353875,NA,NA
68713,Holt County,NE,99.72375690607734,NA,NA,NA,NA
68901,Adams County,NE,NA,NA,67.3512374934176,NA,NA
89101,Clark County,NV,NA,NA,25.27646129541864,NA,NA
89103,Clark County,NV,NA,83.72093023255815,NA,NA,64.74464579901154
89104,Clark County,NV,NA,NA,NA,56.838905775075986,83.36079077429983
89107,Clark County,NV,NA,75.34883720930232,NA,NA,NA
89108,Clark County,NV,NA,NA,19.22064244339126,NA,NA
89113,Clark County,NV,NA,NA,NA,80.04052684903749,NA
89122,Clark County,NV,NA,NA,58.66245392311743,NA,NA
89128,Clark County,NV,NA,NA,NA,74.46808510638297,NA
89129,Clark County,NV,NA,NA,NA,43.363728470111454,NA
89131,Clark County,NV,NA,NA,NA,51.266464032421474,NA
89179,Clark County,NV,NA,NA,98.52553975776725,NA,NA
89403,Lyon County,NV,NA,NA,36.018957345971565,98.07497467071936,NA
89408,Lyon County,NV,NA,95.81395348837209,NA,NA,NA
89410,Douglas County,NV,NA,NA,NA,34.650455927051674,NA
89436,Washoe County,NV,NA,NA,20.221169036334913,NA,NA
89508,Washoe County,NV,NA,NA,NA,93.00911854103343,NA
89511,Washoe County,NV,NA,NA,NA,NA,44.64579901153213
89701,Carson City,NV,NA,NA,36.703528172722486,NA,NA
89703,Carson City,NV,NA,NA,NA,NA,64.41515650741351
03032,Rockingham County,NH,NA,NA,NA,78.01418439716312,NA
03038,Rockingham County,NH,NA,NA,11.163770405476567,NA,NA
03060,Hillsborough County,NH,NA,NA,4.739336492890995,NA,NA
03062,Hillsborough County,NH,NA,NA,86.94049499736704,NA,NA
03063,Hillsborough County,NH,NA,NA,NA,46.403242147923,NA
03064,Hillsborough County,NH,NA,NA,63.40179041600843,NA,NA
03079,Rockingham County,NH,NA,NA,13.58609794628752,21.27659574468085,NA
03103,Hillsborough County,NH,NA,NA,4.318062137967351,NA,NA
03104,Hillsborough County,NH,NA,NA,11.848341232227488,NA,NA
03249,Belknap County,NH,NA,NA,NA,75.6838905775076,NA
03276,Merrimack County,NH,NA,NA,NA,NA,66.88632619439868
03303,Merrimack County,NH,NA,NA,72.24855186940495,61.60081053698075,NA
03431,Cheshire County,NH,NA,NA,NA,NA,57.990115321252055
03446,Cheshire County,NH,NA,NA,NA,87.2340425531915,NA
03570,Coos County,NH,NA,NA,72.72248551869404,NA,NA
03755,Grafton County,NH,NA,NA,NA,84.39716312056737,NA
03801,Rockingham County,NH,51.93370165745856,NA,NA,NA,NA
03820,Strafford County,NH,NA,NA,NA,NA,15.650741350906095
03833,Rockingham County,NH,NA,NA,36.703528172722486,NA,NA
03874,Rockingham County,NH,NA,NA,NA,NA,52.38879736408567
07002,Hudson County,NJ,NA,NA,8.478146392838335,NA,NA
07003,Essex County,NJ,NA,NA,7.424960505529225,NA,NA
07005,Morris County,NJ,79.8342541436464,NA,NA,NA,NA
07026,Bergen County,NJ,NA,NA,NA,32.016210739615,NA
07032,Hudson County,NJ,NA,NA,18.43075302790943,NA,NA
07042,Essex County,NJ,NA,NA,NA,60.68895643363729,NA
07047,Hudson County,NJ,NA,NA,3.738809899947341,NA,NA
07052,Essex County,NJ,NA,NA,NA,17.62917933130699,NA
07054,Morris County,NJ,NA,NA,51.026856240126385,NA,NA
07060,Union County,NJ,NA,NA,72.09057398630858,NA,61.28500823723228
07087,Hudson County,NJ,NA,NA,59.50500263296472,NA,NA
07102,Essex County,NJ,NA,NA,NA,80.1418439716312,NA
07103,Essex County,NJ,NA,NA,0.5792522380200106,NA,NA
07104,Essex County,NJ,NA,NA,0.2632964718272775,5.47112462006079,NA
07105,Essex County,NJ,NA,NA,NA,34.14387031408308,NA
07108,Essex County,NJ,NA,NA,1.1058451816745656,NA,NA
07110,Essex County,NJ,NA,NA,76.30331753554502,NA,NA
07111,Essex County,NJ,NA,NA,0.631911532385466,NA,24.217462932454694
07203,Union County,NJ,NA,NA,NA,NA,88.96210873146623
07304,Hudson County,NJ,NA,NA,15.587151132174828,NA,NA
07305,Hudson County,NJ,NA,NA,32.43812532912059,NA,NA
07403,Passaic County,NJ,NA,NA,99.15745129015271,NA,NA
07410,Bergen County,NJ,NA,NA,NA,65.55217831813577,NA
07430,Bergen County,NJ,NA,NA,NA,55.62310030395137,NA
07442,Passaic County,NJ,NA,NA,NA,77.9128672745694,NA
07444,Morris County,NJ,NA,NA,NA,NA,39.70345963756178
07446,Bergen County,NJ,NA,NA,91.9431279620853,NA,NA
07457,Morris County,NJ,99.4475138121547,NA,NA,NA,NA
07503,Passaic County,NJ,NA,NA,88.04634017904161,NA,NA
07512,Passaic County,NJ,NA,NA,NA,94.52887537993921,NA
07601,Bergen County,NJ,NA,NA,NA,7.700101317122594,20.59308072487644
07628,Bergen County,NJ,96.13259668508287,NA,NA,NA,NA
07649,Bergen County,NJ,NA,NA,NA,NA,94.2339373970346
07657,Bergen County,NJ,NA,NA,NA,NA,86.16144975288303
07740,Monmouth County,NJ,NA,88.37209302325581,5.055292259083728,NA,NA
07921,Somerset County,NJ,NA,NA,NA,NA,89.78583196046128
07960,Morris County,NJ,NA,NA,NA,NA,60.29654036243822
07981,Morris County,NJ,NA,NA,NA,94.73150962512665,NA
08003,Camden County,NJ,NA,NA,76.82991047919958,NA,NA
08005,Ocean County,NJ,NA,NA,NA,34.650455927051674,NA
08021,Camden County,NJ,NA,NA,0.1579778830963665,NA,NA
08034,Camden County,NJ,NA,NA,32.17482885729331,NA,NA
08043,Camden County,NJ,NA,NA,NA,26.13981762917933,NA
08046,Burlington County,NJ,NA,NA,24.11795681937862,NA,NA
08049,Camden County,NJ,NA,NA,NA,97.36575481256332,NA
08055,Burlington County,NJ,NA,NA,NA,NA,35.584843492586494
08060,Burlington County,NJ,85.91160220994475,NA,NA,NA,NA
08080,Gloucester County,NJ,NA,NA,99.0521327014218,NA,NA
08096,Gloucester County,NJ,NA,NA,3.4755134281200633,NA,NA
08103,Camden County,NJ,NA,NA,3.4228541337546075,NA,NA
08104,Camden County,NJ,NA,NA,91.36387572406531,NA,NA
08110,Camden County,NJ,NA,NA,11.690363349131122,NA,NA
08330,Atlantic County,NJ,NA,NA,NA,33.43465045592705,NA
08360,Cumberland County,NJ,NA,NA,55.871511321748294,11.246200607902736,NA
08527,Ocean County,NJ,NA,NA,7.056345444971038,NA,NA
08638,Mercer County,NJ,NA,NA,NA,41.33738601823708,NA
08648,Mercer County,NJ,NA,NA,40.91627172195892,NA,NA
08690,Mercer County,NJ,NA,NA,NA,NA,84.34925864909391
08753,Ocean County,NJ,NA,15.348837209302326,NA,NA,NA
08759,Ocean County,NJ,NA,NA,NA,1.7223910840932117,NA
08817,Middlesex County,NJ,NA,NA,94.36545550289625,NA,NA
08831,Middlesex County,NJ,NA,NA,NA,NA,3.130148270181219
08854,Middlesex County,NJ,45.58011049723757,NA,NA,NA,NA
08873,Somerset County,NJ,NA,NA,NA,26.84903748733536,NA
08901,Middlesex County,NJ,NA,NA,3.7914691943127963,NA,NA
87002,Valencia County,NM,NA,NA,49.2364402317009,NA,NA
87031,Valencia County,NM,NA,NA,NA,33.029381965552176,NA
87104,Bernalillo County,NM,NA,NA,86.67719852553975,NA,NA
87105,Bernalillo County,NM,NA,NA,2.738283307003686,4.052684903748734,NA
87106,Bernalillo County,NM,NA,NA,53.50184307530279,44.47821681864235,NA
87108,Bernalillo County,NM,NA,NA,NA,54.81256332320162,NA
87109,Bernalillo County,NM,NA,NA,68.14112690889942,17.933130699088146,NA
87110,Bernalillo County,NM,NA,NA,59.92627698788836,12.056737588652481,NA
87111,Bernalillo County,NM,NA,NA,2.527646129541864,47.72036474164133,30.477759472817134
87112,Bernalillo County,NM,26.243093922651934,NA,NA,12.25937183383992,31.13673805601318
87114,Bernalillo County,NM,NA,NA,6.477093206951026,17.325227963525837,NA
87120,Bernalillo County,NM,NA,NA,NA,16.210739614994935,NA
87121,Bernalillo County,NM,NA,NA,3.2648762506582414,7.29483282674772,27.84184514003295
87123,Bernalillo County,NM,NA,NA,NA,6.281661600810537,NA
87144,Sandoval County,NM,NA,NA,51.764086361242754,NA,NA
87301,McKinley County,NM,NA,NA,58.820431806213804,NA,NA
87313,McKinley County,NM,NA,NA,79.93680884676145,NA,NA
87401,San Juan County,NM,NA,NA,NA,NA,36.07907742998353
87410,San Juan County,NM,NA,NA,NA,NA,68.86326194398681
87420,San Juan County,NM,NA,NA,NA,95.13677811550151,NA
87505,Santa Fe County,NM,NA,NA,NA,NA,44.81054365733114
87508,Santa Fe County,NM,NA,NA,NA,55.42046605876393,59.14332784184514
87701,San Miguel County,NM,NA,NA,48.973143759873615,NA,NA
88001,Doa Ana County,NM,19.060773480662984,NA,59.45234333859927,31.61094224924012,NA
88021,Doa Ana County,NM,NA,NA,77.30384412848868,NA,NA
88063,Doa Ana County,NM,NA,NA,72.14323328067404,NA,NA
88101,Curry County,NM,NA,NA,NA,8.814589665653495,NA
88230,Chaves County,NM,NA,NA,98.99947340705634,NA,NA
10001,New York County,NY,NA,NA,39.494470774091624,7.598784194528875,NA
10002,New York County,NY,14.64088397790055,NA,NA,NA,NA
10003,New York County,NY,NA,NA,51.922064244339126,NA,23.064250411861615
10009,New York County,NY,NA,NA,NA,30.901722391084093,NA
10010,New York County,NY,NA,NA,87.73038441284888,NA,NA
10011,New York County,NY,NA,NA,NA,21.580547112462007,NA
10016,New York County,NY,NA,NA,NA,NA,63.426688632619445
10019,New York County,NY,NA,NA,NA,NA,25.700164744645797
10022,New York County,NY,NA,NA,97.89362822538178,NA,NA
10023,New York County,NY,NA,NA,47.8146392838336,16.41337386018237,NA
10025,New York County,NY,NA,NA,23.17008952080042,1.4184397163120568,NA
10026,New York County,NY,NA,NA,76.25065824117956,NA,NA
10027,New York County,NY,NA,NA,3.580832016850974,15.80547112462006,NA
10029,New York County,NY,13.812154696132598,NA,0.210637177461822,6.68693009118541,0.4942339373970346
10030,New York County,NY,NA,NA,NA,82.06686930091185,NA
10031,New York County,NY,NA,NA,29.805160610847814,17.73049645390071,NA
10032,New York County,NY,NA,NA,57.3986308583465,NA,NA
10033,New York County,NY,NA,NA,14.955239599789364,22.796352583586625,NA
10035,New York County,NY,NA,NA,4.265402843601896,NA,NA
10037,New York County,NY,NA,NA,71.66929963138494,NA,45.799011532125206
10038,New York County,NY,NA,NA,NA,NA,59.637561779242176
10039,New York County,NY,NA,NA,64.92890995260665,42.65450861195542,NA
10040,New York County,NY,55.80110497237569,NA,NA,NA,NA
10303,Richmond County,NY,NA,NA,NA,50.35460992907801,NA
10304,Richmond County,NY,NA,NA,NA,24.924012158054712,NA
10306,Richmond County,NY,NA,NA,NA,19.047619047619047,NA
10310,Richmond County,NY,NA,NA,45.4449710373881,NA,NA
10314,Richmond County,NY,NA,NA,10.5318588730911,NA,NA
10452,Bronx County,NY,NA,NA,0.315955766192733,NA,15.15650741350906
10453,Bronx County,NY,NA,1.8604651162790697,15.00789889415482,26.443768996960486,NA
10454,Bronx County,NY,NA,NA,4.634017904160085,NA,NA
10455,Bronx County,NY,NA,NA,65.1922064244339,12.462006079027356,NA
10456,Bronx County,NY,0.5524861878453038,NA,14.533965244865717,3.1408308004052685,4.118616144975288
10457,Bronx County,NY,50.27624309392266,0.46511627906976744,22.11690363349131,0.911854103343465,NA
10458,Bronx County,NY,2.209944751381215,NA,29.43654555028963,8.308004052684904,NA
10459,Bronx County,NY,NA,NA,NA,NA,64.2504118616145
10460,Bronx County,NY,NA,NA,10.795155344918378,34.954407294832826,14.00329489291598
10461,Bronx County,NY,NA,NA,38.388625592417064,NA,NA
10462,Bronx County,NY,9.392265193370166,NA,4.528699315429173,5.673758865248227,NA
10463,Bronx County,NY,NA,NA,NA,NA,4.448105436573312
10465,Bronx County,NY,NA,NA,NA,41.843971631205676,NA
10466,Bronx County,NY,NA,NA,38.65192206424434,2.2289766970618032,NA
10467,Bronx County,NY,NA,NA,3.6334913112164293,NA,NA
10468,Bronx County,NY,NA,1.3953488372093024,8.267509215376515,NA,NA
10469,Bronx County,NY,NA,NA,2.0537124802527646,NA,NA
10470,Bronx County,NY,NA,NA,NA,64.03242147923,NA
10472,Bronx County,NY,4.41988950276243,NA,70.98472880463402,2.127659574468085,NA
10473,Bronx County,NY,NA,NA,3.3175355450236967,NA,11.037891268533773
10541,Putnam County,NY,NA,NA,NA,NA,59.30807248764415
10543,Westchester County,NY,NA,NA,70.72143233280674,NA,NA
10550,Westchester County,NY,32.04419889502763,NA,NA,NA,NA
10562,Westchester County,NY,NA,NA,NA,68.89564336372847,NA
10566,Westchester County,NY,NA,NA,56.29278567667193,NA,NA
10580,Westchester County,NY,NA,NA,NA,93.3130699088146,NA
10701,Westchester County,NY,NA,NA,NA,4.4579533941236065,NA
10703,Westchester County,NY,93.0939226519337,NA,NA,NA,NA
10705,Westchester County,NY,NA,NA,NA,30.192502532928067,NA
10950,Orange County,NY,NA,NA,NA,86.22087132725432,NA
11003,Nassau County,NY,NA,NA,NA,NA,51.23558484349259
11040,Nassau County,NY,NA,NA,NA,NA,29.818780889621088
11050,Nassau County,NY,NA,NA,89.62611901000527,NA,NA
11102,Queens County,NY,NA,NA,45.97156398104265,NA,NA
11201,Kings County,NY,NA,NA,53.08056872037915,NA,NA
11203,Kings County,NY,NA,NA,7.530279094260137,NA,NA
11207,Kings County,NY,NA,NA,11.269088994207479,1.0131712259371835,NA
11208,Kings County,NY,4.696132596685083,2.7906976744186047,17.588204318062136,NA,NA
11209,Kings County,NY,NA,NA,29.910479199578727,NA,17.298187808896213
11210,Kings County,NY,NA,NA,NA,NA,70.0164744645799
11211,Kings County,NY,NA,NA,12.216956292785678,NA,NA
11212,Kings County,NY,5.248618784530387,NA,27.38283307003686,39.71631205673759,NA
11213,Kings County,NY,NA,NA,NA,6.990881458966565,NA
11214,Kings County,NY,NA,NA,14.375987361769353,46.504559270516715,NA
11215,Kings County,NY,NA,NA,30.858346498156923,NA,NA
11216,Kings County,NY,NA,NA,9.162717219589258,9.929078014184398,NA
11217,Kings County,NY,NA,NA,86.88783570300158,28.368794326241137,NA
11219,Kings County,NY,NA,2.3255813953488373,11.479726171669299,NA,NA
11225,Kings County,NY,NA,NA,20.69510268562401,NA,NA
11226,Kings County,NY,10.773480662983426,NA,2.790942601369142,NA,13.838550247116968
11229,Kings County,NY,NA,NA,23.85466034755134,NA,4.7775947281713345
11230,Kings County,NY,NA,NA,NA,12.158054711246201,32.948929159802304
11233,Kings County,NY,35.0828729281768,NA,NA,NA,NA
11235,Kings County,NY,NA,NA,38.862559241706165,73.75886524822694,NA
11236,Kings County,NY,NA,42.32558139534884,NA,NA,NA
11238,Kings County,NY,NA,NA,18.062137967351237,NA,NA
11249,Kings County,NY,NA,72.09302325581395,NA,NA,NA
11354,Queens County,NY,NA,NA,78.14639283833597,NA,NA
11361,Queens County,NY,NA,NA,NA,NA,71.66392092257001
11365,Queens County,NY,NA,57.20930232558139,NA,NA,NA
11368,Queens County,NY,NA,NA,5.476566614007372,NA,NA
11370,Queens County,NY,NA,NA,47.867298578199055,NA,NA
11372,Queens County,NY,NA,NA,93.8388625592417,25.126646403242148,11.86161449752883
11373,Queens County,NY,12.98342541436464,8.372093023255815,12.05897840968931,NA,NA
11375,Queens County,NY,NA,NA,78.88362295945235,NA,NA
11377,Queens County,NY,NA,NA,67.82517114270668,NA,NA
11385,Queens County,NY,NA,NA,7.5829383886255926,NA,NA
11412,Queens County,NY,47.51381215469613,44.651162790697676,NA,NA,45.634266886326195
11416,Queens County,NY,NA,NA,47.60400210637177,NA,NA
11418,Queens County,NY,NA,NA,43.75987361769352,NA,46.29324546952224
11421,Queens County,NY,NA,NA,67.08794102159031,NA,NA
11422,Queens County,NY,NA,NA,NA,63.525835866261396,NA
11423,Queens County,NY,NA,NA,NA,79.5339412360689,NA
11427,Queens County,NY,NA,NA,75.40810953133229,NA,NA
11429,Queens County,NY,NA,NA,72.45918904686677,NA,NA
11434,Queens County,NY,30.662983425414364,NA,NA,NA,55.51894563426688
11435,Queens County,NY,NA,NA,NA,NA,30.64250411861614
11518,Nassau County,NY,NA,NA,NA,89.4630192502533,NA
11520,Nassau County,NY,NA,NA,NA,NA,38.38550247116969
11550,Nassau County,NY,NA,NA,58.97840968931016,NA,NA
11552,Nassau County,NY,NA,NA,NA,93.11043566362716,NA
11561,Nassau County,NY,NA,76.27906976744187,NA,NA,NA
11566,Nassau County,NY,NA,NA,NA,NA,46.952224052718286
11570,Nassau County,NY,NA,NA,86.46656134807793,NA,NA
11575,Nassau County,NY,NA,NA,68.4044233807267,NA,NA
11580,Nassau County,NY,NA,NA,58.60979462875198,NA,NA
11598,Nassau County,NY,NA,NA,NA,NA,79.07742998352553
11691,Queens County,NY,NA,NA,6.740389678778304,NA,NA
11701,Suffolk County,NY,NA,NA,NA,NA,37.72652388797364
11706,Suffolk County,NY,NA,NA,19.589257503949447,NA,NA
11717,Suffolk County,NY,NA,NA,50.07898894154819,NA,NA
11722,Suffolk County,NY,NA,NA,55.34491837809373,NA,68.36902800658979
11779,Suffolk County,NY,NA,NA,38.54660347551343,NA,NA
11797,Nassau County,NY,NA,NA,99.42074776197998,NA,NA
12077,Albany County,NY,NA,NA,NA,97.46707193515705,NA
12095,Fulton County,NY,NA,NA,42.65402843601896,NA,61.44975288303131
12138,Rensselaer County,NY,NA,NA,NA,97.56838905775076,NA
12180,Rensselaer County,NY,NA,NA,NA,NA,10.543657331136739
12184,Columbia County,NY,NA,NA,85.99262769878884,NA,76.27677100494233
12205,Albany County,NY,60.49723756906077,NA,53.29120589784097,NA,NA
12208,Albany County,NY,NA,NA,63.55976829910479,NA,NA
12534,Columbia County,NY,NA,NA,44.23380726698262,NA,NA
12801,Warren County,NY,NA,NA,51.342812006319114,NA,NA
12832,Washington County,NY,NA,NA,77.30384412848868,NA,NA
12834,Washington County,NY,NA,NA,95.260663507109,NA,NA
12839,Washington County,NY,NA,NA,24.170616113744074,NA,NA
12866,Saratoga County,NY,NA,NA,NA,NA,10.873146622734762
12901,Clinton County,NY,NA,NA,2.0010531858873093,NA,8.731466227347612
12918,Clinton County,NY,NA,NA,90.31068983675618,NA,NA
12972,Clinton County,NY,NA,NA,92.25908372827804,NA,NA
12983,Franklin County,NY,NA,99.06976744186046,NA,NA,NA
13021,Cayuga County,NY,NA,NA,16.27172195892575,NA,NA
13027,Onondaga County,NY,NA,NA,11.637704054765665,NA,NA
13031,Onondaga County,NY,NA,NA,NA,61.29685916919959,NA
13036,Oswego County,NY,NA,NA,58.87309110057926,NA,NA
13037,Madison County,NY,NA,NA,93.15429173249078,NA,NA
13039,Onondaga County,NY,NA,NA,42.39073196419168,NA,NA
13045,Cortland County,NY,NA,NA,2.6856240126382307,NA,NA
13074,Oswego County,NY,NA,NA,81.56924697209057,NA,NA
13088,Onondaga County,NY,NA,NA,60.242232754081094,NA,NA
13090,Onondaga County,NY,NA,NA,45.65560821484992,NA,NA
13104,Onondaga County,NY,NA,NA,51.29015271195366,NA,NA
13118,Cayuga County,NY,91.4364640883978,NA,NA,NA,NA
13140,Cayuga County,NY,NA,NA,85.15007898894154,NA,NA
13165,Seneca County,NY,NA,NA,23.696682464454977,24.214792299898683,NA
13203,Onondaga County,NY,NA,NA,69.9315429173249,NA,NA
13204,Onondaga County,NY,NA,NA,9.899947340705635,NA,NA
13205,Onondaga County,NY,NA,NA,11.216429699842022,NA,NA
13206,Onondaga County,NY,NA,NA,21.32701421800948,NA,NA
13207,Onondaga County,NY,NA,NA,27.698788836229593,NA,NA
13208,Onondaga County,NY,NA,NA,10.32122169562928,41.4387031408308,NA
13209,Onondaga County,NY,NA,NA,45.286993154291736,NA,NA
13210,Onondaga County,NY,NA,NA,NA,NA,86.65568369028006
13215,Onondaga County,NY,NA,NA,50.71090047393365,NA,NA
13224,Onondaga County,NY,NA,NA,NA,NA,85.33772652388797
13323,Oneida County,NY,NA,NA,90.73196419167984,NA,NA
13332,Madison County,NY,NA,NA,NA,97.66970618034448,NA
13339,Montgomery County,NY,NA,NA,NA,57.244174265450866,NA
13348,Otsego County,NY,NA,NA,96.78778304370721,NA,NA
13357,Herkimer County,NY,NA,NA,NA,58.156028368794324,NA
13367,Lewis County,NY,NA,NA,37.01948393891522,NA,NA
13413,Oneida County,NY,NA,NA,NA,70.11144883485308,NA
13438,Oneida County,NY,98.89502762430939,NA,NA,NA,NA
13440,Oneida County,NY,NA,45.11627906976744,1.3164823591363874,NA,11.202635914332784
13491,Herkimer County,NY,94.1988950276243,NA,NA,NA,NA
13617,St. Lawrence County,NY,40.331491712707184,NA,NA,NA,NA
13660,St. Lawrence County,NY,NA,NA,97.84096893101632,NA,NA
13662,St. Lawrence County,NY,NA,NA,NA,18.94630192502533,NA
13676,St. Lawrence County,NY,NA,NA,NA,77.50759878419453,NA
13733,Chenango County,NY,NA,NA,NA,NA,85.17298187808896
13754,Broome County,NY,NA,NA,73.30173775671406,NA,NA
13760,Broome County,NY,3.591160220994475,NA,NA,0.4052684903748734,NA
13820,Otsego County,NY,NA,NA,83.99157451290152,NA,NA
13850,Broome County,NY,NA,NA,14.007372301211163,4.356636271529888,NA
13856,Delaware County,NY,NA,NA,49.447077409162716,NA,NA
13901,Broome County,NY,NA,NA,2.632964718272775,NA,NA
13905,Broome County,NY,NA,NA,10.110584518167457,NA,NA
14009,Wyoming County,NY,NA,NA,87.25645076355977,NA,NA
14020,Genesee County,NY,NA,NA,39.073196419167985,16.109422492401215,NA
14047,Erie County,NY,NA,NA,82.99104791995788,NA,NA
14052,Erie County,NY,NA,NA,NA,58.05471124620061,NA
14057,Erie County,NY,NA,NA,80.04212743549236,NA,84.01976935749587
14058,Genesee County,NY,NA,NA,NA,98.98682877406281,NA
14062,Chautauqua County,NY,NA,NA,96.89310163243813,NA,NA
14070,Erie County,NY,NA,NA,79.56819378620327,NA,NA
14094,Niagara County,NY,NA,35.348837209302324,NA,2.532928064842958,NA
14103,Orleans County,NY,NA,NA,42.39073196419168,NA,NA
14120,Niagara County,NY,13.259668508287293,NA,39.283833596629805,37.28470111448835,NA
14127,Erie County,NY,NA,NA,44.33912585571353,NA,NA
14201,Erie County,NY,NA,NA,46.49815692469721,NA,NA
14207,Erie County,NY,NA,NA,6.055818852027383,NA,NA
14208,Erie County,NY,NA,NA,25.64507635597683,NA,72.8171334431631
14209,Erie County,NY,NA,NA,91.15323854660348,NA,NA
14211,Erie County,NY,NA,NA,30.43707214323328,NA,NA
14213,Erie County,NY,NA,NA,16.85097419694576,NA,NA
14214,Erie County,NY,NA,NA,28.33070036861506,NA,NA
14215,Erie County,NY,NA,NA,1.0005265929436546,NA,NA
14218,Erie County,NY,NA,NA,49.92101105845181,44.27558257345491,NA
14220,Erie County,NY,NA,NA,11.743022643496577,NA,NA
14224,Erie County,NY,NA,NA,22.4855186940495,NA,NA
14305,Niagara County,NY,NA,NA,NA,37.99392097264438,NA
14423,Livingston County,NY,90.33149171270718,NA,NA,NA,NA
14424,Ontario County,NY,18.784530386740332,NA,NA,12.76595744680851,NA
14432,Ontario County,NY,NA,NA,NA,53.69807497467072,NA
14450,Monroe County,NY,NA,NA,NA,NA,7.742998352553541
14456,Ontario County,NY,NA,NA,NA,NA,45.30477759472817
14464,Monroe County,NY,NA,NA,81.62190626645604,NA,NA
14467,Monroe County,NY,NA,NA,57.767245918904685,NA,NA
14468,Monroe County,NY,NA,NA,15.903106898367561,NA,NA
14469,Ontario County,NY,NA,NA,NA,84.59979736575481,NA
14471,Ontario County,NY,NA,NA,96.36650868878357,NA,NA
14489,Wayne County,NY,NA,NA,29.331226961558716,34.549138804457954,NA
14502,Wayne County,NY,NA,NA,77.77777777777779,NA,NA
14513,Wayne County,NY,NA,NA,21.221695629278567,NA,NA
14514,Monroe County,NY,NA,NA,68.29910479199579,NA,NA
14526,Monroe County,NY,NA,NA,13.428120063191153,NA,NA
14534,Monroe County,NY,NA,NA,NA,2.026342451874367,NA
14551,Wayne County,NY,NA,NA,47.9199578725645,NA,NA
14559,Monroe County,NY,20.718232044198896,NA,NA,NA,NA
14564,Ontario County,NY,NA,NA,17.114270668773038,19.858156028368796,NA
14568,Wayne County,NY,NA,NA,NA,81.86423505572442,NA
14580,Monroe County,NY,1.3812154696132597,NA,4.897314375987362,6.484295845997974,NA
14586,Monroe County,NY,NA,NA,29.594523433385994,NA,NA
14605,Monroe County,NY,NA,NA,31.542917324907847,58.5612968591692,NA
14606,Monroe County,NY,NA,NA,46.81411269088994,14.893617021276595,NA
14607,Monroe County,NY,NA,NA,16.587677725118482,NA,NA
14608,Monroe County,NY,NA,NA,10.90047393364929,NA,NA
14609,Monroe County,NY,8.56353591160221,NA,66.82464454976304,NA,22.899505766062603
14611,Monroe County,NY,NA,NA,25.961032122169563,75.98784194528876,NA
14612,Monroe County,NY,NA,NA,12.322274881516588,NA,NA
14615,Monroe County,NY,78.72928176795581,NA,NA,NA,NA
14617,Monroe County,NY,17.955801104972377,NA,NA,NA,NA
14618,Monroe County,NY,NA,NA,46.65613480779358,NA,NA
14619,Monroe County,NY,NA,NA,12.585571353343866,NA,NA
14620,Monroe County,NY,NA,NA,23.27540810953133,NA,NA
14621,Monroe County,NY,NA,NA,33.70194839389152,NA,NA
14624,Monroe County,NY,NA,NA,29.96313849394418,NA,13.01482701812191
14626,Monroe County,NY,NA,NA,1.9483938915218535,NA,NA
14733,Chautauqua County,NY,NA,NA,84.67614533965245,NA,NA
14738,Chautauqua County,NY,NA,NA,94.26013691416534,NA,NA
14750,Chautauqua County,NY,NA,NA,96.1032122169563,NA,NA
14810,Steuben County,NY,NA,NA,66.0347551342812,NA,NA
14843,Steuben County,NY,NA,NA,18.64139020537125,NA,NA
14891,Schuyler County,NY,NA,NA,74.61822011585045,76.69706180344478,NA
14895,Allegany County,NY,NA,NA,NA,44.883485309017225,NA
27006,Davie County,NC,NA,NA,NA,28.976697061803446,NA
27012,Forsyth County,NC,NA,NA,NA,4.25531914893617,9.060955518945635
27018,Yadkin County,NC,NA,NA,NA,NA,52.05930807248764
27028,Davie County,NC,NA,NA,13.375460768825697,NA,22.240527182866558
27030,Surry County,NC,NA,NA,61.55871511321749,NA,NA
27040,Forsyth County,NC,NA,NA,70.51079515534492,NA,NA
27103,Forsyth County,NC,NA,NA,13.164823591363875,NA,NA
27105,Forsyth County,NC,NA,NA,NA,3.0395136778115504,9.390444810543658
27106,Forsyth County,NC,NA,NA,NA,NA,16.14497528830313
27107,Forsyth County,NC,NA,NA,3.0015797788309637,NA,NA
27207,Chatham County,NC,NA,NA,NA,99.69604863221885,NA
27265,Guilford County,NC,59.392265193370164,NA,81.62190626645604,NA,NA
27278,Orange County,NC,NA,NA,19.536598209583993,NA,NA
27284,Forsyth County,NC,NA,NA,5.002632964718273,NA,NA
27292,Davidson County,NC,NA,NA,NA,1.21580547112462,NA
27295,Davidson County,NC,NA,25.581395348837212,NA,NA,NA
27302,Alamance County,NC,NA,NA,26.750921537651394,NA,NA
27310,Guilford County,NC,92.26519337016575,NA,NA,NA,NA
27320,Rockingham County,NC,NA,NA,9.426013691416536,NA,NA
27330,Lee County,NC,46.13259668508287,NA,NA,NA,NA
27332,Lee County,NC,NA,NA,NA,NA,83.85502471169687
27349,Alamance County,NC,NA,NA,82.72775144813059,NA,NA
27360,Davidson County,NC,NA,NA,2.422327540810953,5.8763931104356635,NA
27406,Guilford County,NC,15.469613259668508,NA,3.0542390731964195,1.5197568389057752,NA
27407,Guilford County,NC,NA,NA,50.18430753027909,NA,NA
27410,Guilford County,NC,NA,NA,NA,NA,8.896210873146623
27502,Wake County,NC,NA,NA,NA,NA,57.49588138385503
27504,Johnston County,NC,NA,NA,NA,65.24822695035462,NA
27514,Orange County,NC,NA,NA,NA,32.52279635258359,NA
27516,Orange County,NC,NA,NA,28.12006319115324,NA,NA
27517,Orange County,NC,64.64088397790056,NA,NA,NA,NA
27518,Wake County,NC,NA,NA,90.57398630858347,NA,NA
27529,Wake County,NC,NA,NA,NA,19.148936170212767,NA
27542,Johnston County,NC,NA,NA,NA,NA,97.52883031301482
27545,Wake County,NC,NA,NA,42.6013691416535,NA,NA
27549,Franklin County,NC,NA,NA,55.028962611901,NA,NA
27557,Nash County,NC,90.33149171270718,NA,NA,NA,NA
27560,Wake County,NC,NA,NA,92.89099526066352,NA,NA
27563,Warren County,NC,NA,NA,95.6292785676672,NA,NA
27573,Person County,NC,NA,NA,76.61927330173775,NA,NA
27576,Johnston County,NC,NA,NA,NA,NA,56.50741350906095
27587,Wake County,NC,26.795580110497237,NA,NA,NA,NA
27597,Wake County,NC,NA,NA,NA,86.82877406281662,NA
27603,Wake County,NC,NA,NA,NA,NA,45.14003294892916
27604,Wake County,NC,NA,NA,NA,43.66767983789261,NA
27606,Wake County,NC,40.607734806629836,NA,77.67245918904688,NA,NA
27609,Wake County,NC,NA,NA,33.754607688256975,36.06889564336373,NA
27610,Wake County,NC,NA,NA,5.371248025276461,NA,NA
27614,Wake County,NC,NA,NA,NA,39.61499493414387,NA
27616,Wake County,NC,NA,NA,NA,39.918946301925025,NA
27701,Durham County,NC,NA,NA,78.25171142706687,NA,NA
27703,Durham County,NC,NA,NA,8.952080042127436,13.779128672745694,NA
27704,Durham County,NC,NA,NA,9.741969457609267,NA,NA
27705,Durham County,NC,NA,NA,19.273301737756714,NA,NA
27707,Durham County,NC,NA,NA,NA,NA,22.40527182866557
27713,Durham County,NC,NA,NA,21.011058451816748,NA,55.18945634266886
27801,Edgecombe County,NC,NA,NA,37.44075829383886,NA,NA
27803,Nash County,NC,NA,79.06976744186046,NA,NA,NA
27804,Nash County,NC,NA,NA,NA,40.020263424518745,NA
27817,Beaufort County,NC,NA,NA,80.20010531858873,NA,NA
27889,Beaufort County,NC,54.41988950276243,NA,NA,NA,NA
27893,Wilson County,NC,31.215469613259668,NA,13.217482885729332,NA,NA
27932,Chowan County,NC,77.90055248618785,NA,NA,NA,NA
27944,Perquimans County,NC,NA,NA,NA,82.67477203647417,NA
28025,Cabarrus County,NC,NA,NA,9.004739336492891,NA,NA
28027,Cabarrus County,NC,NA,NA,16.482359136387572,NA,NA
28036,Mecklenburg County,NC,NA,NA,NA,NA,59.96705107084019
28037,Lincoln County,NC,NA,NA,NA,53.29280648429585,NA
28083,Cabarrus County,NC,NA,NA,63.454449710373886,NA,NA
28092,Lincoln County,NC,NA,NA,19.852553975776726,NA,NA
28146,Rowan County,NC,NA,NA,NA,49.34143870314083,NA
28173,Union County,NC,43.646408839779006,NA,NA,NA,NA
28205,Mecklenburg County,NC,37.29281767955801,NA,NA,NA,NA
28206,Mecklenburg County,NC,51.10497237569061,NA,NA,NA,NA
28208,Mecklenburg County,NC,NA,NA,32.38546603475513,NA,NA
28209,Mecklenburg County,NC,NA,NA,84.41284886782518,NA,76.11202635914333
28212,Mecklenburg County,NC,NA,21.86046511627907,NA,NA,NA
28213,Mecklenburg County,NC,NA,NA,23.22274881516588,NA,NA
28215,Mecklenburg County,NC,NA,NA,NA,22.188449848024316,NA
28226,Mecklenburg County,NC,NA,NA,NA,NA,34.2668863261944
28269,Mecklenburg County,NC,NA,NA,62.98051606108478,NA,NA
28301,Cumberland County,NC,47.23756906077348,NA,NA,NA,NA
28304,Cumberland County,NC,NA,NA,28.12006319115324,NA,NA
28311,Cumberland County,NC,NA,NA,21.90626645602949,45.39007092198582,NA
28312,Cumberland County,NC,NA,NA,64.9815692469721,80.44579533941236,NA
28326,Harnett County,NC,NA,93.02325581395348,NA,NA,NA
28328,Sampson County,NC,NA,NA,NA,25.734549138804457,NA
28333,Wayne County,NC,NA,NA,65.03422854133754,NA,NA
28334,Sampson County,NC,NA,54.418604651162795,NA,NA,NA
28358,Robeson County,NC,NA,NA,NA,33.232016210739616,NA
28360,Robeson County,NC,NA,NA,NA,NA,83.03130148270182
28379,Richmond County,NC,NA,NA,15.165876777251185,NA,NA
28382,Sampson County,NC,NA,NA,NA,NA,90.77429983525536
28387,Moore County,NC,NA,NA,77.14586624539231,NA,NA
28390,Harnett County,NC,NA,NA,NA,NA,69.35749588138385
28398,Duplin County,NC,NA,81.86046511627907,NA,NA,NA
28409,New Hanover County,NC,NA,NA,NA,75.07598784194529,NA
28425,Pender County,NC,NA,NA,68.24644549763033,NA,NA
28441,Sampson County,NC,NA,NA,99.68404423380727,NA,NA
28451,Brunswick County,NC,NA,NA,26.171669299631382,NA,NA
28466,Duplin County,NC,NA,86.9767441860465,NA,NA,NA
28469,Brunswick County,NC,95.02762430939227,NA,NA,NA,NA
28478,Pender County,NC,NA,NA,NA,NA,96.21087314662273
28501,Lenoir County,NC,NA,NA,NA,89.36170212765957,NA
28540,Onslow County,NC,18.23204419889503,NA,22.801474460242233,NA,NA
28557,Carteret County,NC,NA,NA,80.72669826224329,NA,NA
28560,Craven County,NC,NA,NA,25.803054239073198,NA,NA
28562,Craven County,NC,NA,NA,73.2490784623486,NA,NA
28586,Craven County,NC,NA,NA,84.46550816219063,NA,NA
28613,Catawba County,NC,NA,NA,NA,42.958459979736574,NA
28621,Surry County,NC,NA,NA,NA,54.50861195542046,NA
28630,Caldwell County,NC,NA,NA,30.121116377040547,NA,NA
28645,Caldwell County,NC,NA,NA,2.58030542390732,NA,NA
28655,Burke County,NC,NA,39.06976744186046,NA,4.154002026342452,NA
28658,Catawba County,NC,NA,NA,NA,95.23809523809523,NA
28677,Iredell County,NC,NA,NA,13.744075829383887,NA,NA
28711,Buncombe County,NC,NA,NA,NA,93.51570415400202,NA
28734,Macon County,NC,NA,NA,NA,NA,5.930807248764415
28752,McDowell County,NC,NA,NA,13.849394418114796,NA,NA
28753,Madison County,NC,NA,NA,NA,NA,91.76276771004942
28792,Henderson County,NC,NA,NA,NA,NA,13.509060955518946
28803,Buncombe County,NC,NA,NA,NA,35.56231003039514,NA
28906,Cherokee County,NC,NA,NA,48.288572933122694,NA,NA
58072,Barnes County,ND,76.51933701657458,NA,NA,NA,NA
58078,Cass County,ND,NA,NA,58.767772511848335,NA,21.087314662273478
58103,Cass County,ND,NA,NA,73.09110057925223,NA,19.604612850082372
58201,Grand Forks County,ND,13.535911602209943,NA,NA,8.713272543059777,NA
58318,Bottineau County,ND,NA,NA,NA,99.3920972644377,NA
58501,Burleigh County,ND,48.61878453038674,NA,NA,NA,NA
58554,Morton County,ND,NA,NA,NA,NA,12.685337726523887
58701,Ward County,ND,NA,NA,8.636124275934701,11.448834853090172,NA
58801,Williams County,ND,NA,NA,33.543970510795155,NA,NA
43015,Delaware County,OH,NA,22.790697674418606,NA,9.017223910840933,NA
43017,Franklin County,OH,NA,NA,NA,39.10840932117528,NA
43035,Delaware County,OH,NA,NA,97.68299104791996,NA,NA
43040,Union County,OH,NA,NA,NA,59.27051671732523,NA
43050,Knox County,OH,NA,NA,NA,4.86322188449848,NA
43055,Licking County,OH,NA,NA,9.847288046340179,NA,5.436573311367381
43068,Franklin County,OH,NA,3.7209302325581395,7.9515534491837805,NA,NA
43072,Champaign County,OH,NA,NA,NA,NA,90.28006589785832
43081,Franklin County,OH,NA,13.488372093023257,NA,NA,NA
43082,Delaware County,OH,79.00552486187846,NA,NA,NA,NA
43085,Franklin County,OH,58.83977900552486,NA,NA,NA,NA
43110,Franklin County,OH,NA,NA,NA,12.867274569402229,NA
43113,Pickaway County,OH,NA,NA,NA,15.400202634245188,NA
43125,Franklin County,OH,NA,NA,73.61769352290679,64.84295845997974,NA
43130,Fairfield County,OH,NA,NA,0.9478672985781991,NA,NA
43138,Hocking County,OH,NA,NA,26.961558715113217,NA,NA
43201,Franklin County,OH,NA,NA,45.55028962611901,NA,NA
43207,Franklin County,OH,NA,9.767441860465116,NA,8.611955420466058,NA
43211,Franklin County,OH,NA,NA,NA,36.17021276595745,NA
43213,Franklin County,OH,NA,NA,7.740916271721959,NA,NA
43214,Franklin County,OH,NA,62.32558139534884,NA,NA,NA
43220,Franklin County,OH,NA,NA,NA,NA,41.35090609555189
43223,Franklin County,OH,NA,NA,23.117430226434966,NA,NA
43227,Franklin County,OH,73.75690607734806,NA,19.852553975776726,NA,38.87973640856672
43228,Franklin County,OH,NA,4.186046511627907,NA,NA,NA
43229,Franklin County,OH,NA,9.30232558139535,NA,NA,NA
43230,Franklin County,OH,NA,NA,14.007372301211163,NA,NA
43232,Franklin County,OH,NA,NA,2.843601895734597,NA,NA
43412,Lucas County,OH,NA,NA,97.36703528172723,NA,NA
43452,Ottawa County,OH,NA,NA,NA,35.96757852077001,NA
43545,Henry County,OH,NA,NA,NA,46.909827760891595,NA
43560,Lucas County,OH,NA,NA,58.188520273828324,NA,NA
43604,Lucas County,OH,NA,NA,39.863085834649816,NA,NA
43605,Lucas County,OH,NA,NA,1.579778830963665,NA,NA
43606,Lucas County,OH,NA,NA,15.21853607161664,NA,NA
43607,Lucas County,OH,NA,NA,23.380726698262244,23.606889564336374,NA
43611,Lucas County,OH,72.65193370165746,NA,NA,NA,NA
43612,Lucas County,OH,NA,19.53488372093023,19.06266456029489,NA,NA
43613,Lucas County,OH,NA,NA,2.3170089520800423,NA,NA
43614,Lucas County,OH,NA,NA,70.72143233280674,NA,NA
43623,Lucas County,OH,NA,NA,NA,28.57142857142857,33.27841845140033
43701,Muskingum County,OH,0.8287292817679558,NA,0.421274354923644,NA,NA
43812,Coshocton County,OH,NA,NA,42.49605055292259,NA,NA
43920,Columbiana County,OH,NA,NA,7.266982622432859,NA,NA
43938,Jefferson County,OH,NA,NA,50.81621906266456,NA,NA
43950,Belmont County,OH,NA,NA,NA,NA,68.20428336079077
43953,Jefferson County,OH,NA,NA,29.594523433385994,NA,75.61779242174629
44001,Lorain County,OH,53.591160220994475,NA,25.53975776724592,NA,NA
44003,Ashtabula County,OH,NA,NA,89.67877830437072,NA,NA
44012,Lorain County,OH,NA,63.25581395348837,NA,NA,NA
44021,Geauga County,OH,NA,NA,NA,89.86828774062816,NA
44022,Cuyahoga County,OH,NA,NA,85.67667193259611,NA,NA
44023,Geauga County,OH,NA,NA,NA,47.72036474164133,NA
44028,Lorain County,OH,90.05524861878453,NA,NA,NA,NA
44030,Ashtabula County,OH,78.1767955801105,NA,NA,17.223910840932117,39.04448105436573
44035,Lorain County,OH,1.9337016574585635,6.046511627906977,0.105318588730911,2.330293819655522,26.359143327841846
44039,Lorain County,OH,NA,NA,28.751974723538705,NA,NA
44041,Ashtabula County,OH,NA,NA,41.54818325434439,NA,NA
44047,Ashtabula County,OH,74.30939226519338,NA,NA,NA,NA
44052,Lorain County,OH,NA,NA,14.74460242232754,NA,NA
44053,Lorain County,OH,NA,NA,5.950500263296472,NA,NA
44055,Lorain County,OH,NA,NA,52.97525013164823,NA,49.588138385502475
44057,Lake County,OH,52.20994475138122,NA,24.960505529225905,NA,NA
44067,Summit County,OH,NA,NA,NA,21.783181357649443,NA
44070,Cuyahoga County,OH,NA,NA,55.29225908372828,6.788247213779129,NA
44077,Lake County,OH,NA,NA,49.71037388098999,NA,NA
44081,Lake County,OH,NA,NA,91.62717219589257,NA,NA
44089,Erie County,OH,NA,NA,34.86045286993154,NA,NA
44090,Lorain County,OH,NA,NA,NA,46.707193515704155,60.62602965403624
44095,Lake County,OH,NA,NA,51.55344918378094,NA,NA
44102,Cuyahoga County,OH,NA,NA,69.87888362295945,22.087132725430596,NA
44104,Cuyahoga County,OH,22.375690607734807,NA,53.1332280147446,23.10030395136778,NA
44105,Cuyahoga County,OH,NA,NA,60.08425487098473,0.5065856129685917,NA
44106,Cuyahoga County,OH,NA,NA,98.9468141126909,NA,NA
44107,Cuyahoga County,OH,7.458563535911603,NA,62.55924170616114,NA,NA
44108,Cuyahoga County,OH,NA,NA,1.8430753027909426,7.092198581560284,74.95881383855024
44109,Cuyahoga County,OH,1.6574585635359116,NA,70.14218009478674,NA,NA
44110,Cuyahoga County,OH,NA,NA,7.688256977356503,10.030395136778116,NA
44111,Cuyahoga County,OH,NA,20.46511627906977,57.92522380200106,2.634245187436677,NA
44112,Cuyahoga County,OH,NA,NA,81.35860979462876,NA,NA
44113,Cuyahoga County,OH,NA,NA,6.003159557661927,NA,NA
44114,Cuyahoga County,OH,NA,NA,NA,67.88247213779128,NA
44115,Cuyahoga County,OH,NA,35.81395348837209,NA,NA,NA
44116,Cuyahoga County,OH,NA,NA,37.80937335439705,67.67983789260384,NA
44117,Cuyahoga County,OH,NA,NA,NA,90.67882472137792,NA
44119,Cuyahoga County,OH,NA,NA,52.08004212743549,49.03748733535968,NA
44120,Cuyahoga County,OH,NA,NA,68.61506055818852,NA,11.696869851729819
44121,Cuyahoga County,OH,NA,NA,32.59610321221695,15.19756838905775,NA
44122,Cuyahoga County,OH,NA,NA,74.35492364402317,6.079027355623101,NA
44123,Cuyahoga County,OH,NA,NA,24.59189046866772,NA,NA
44124,Cuyahoga County,OH,24.30939226519337,NA,22.011585044760402,24.41742654508612,NA
44125,Cuyahoga County,OH,NA,NA,46.392838335966296,NA,NA
44127,Cuyahoga County,OH,NA,NA,63.34913112164296,NA,NA
44128,Cuyahoga County,OH,NA,NA,73.67035281727225,NA,NA
44129,Cuyahoga County,OH,NA,NA,43.233280674038966,NA,NA
44132,Cuyahoga County,OH,NA,NA,74.82885729331227,NA,NA
44133,Cuyahoga County,OH,77.34806629834254,NA,NA,NA,14.168039538714991
44134,Cuyahoga County,OH,NA,NA,6.161137440758294,NA,NA
44135,Cuyahoga County,OH,NA,NA,32.28014744602422,10.131712259371833,NA
44136,Cuyahoga County,OH,NA,NA,NA,10.33434650455927,NA
44138,Cuyahoga County,OH,NA,NA,82.04318062137968,NA,NA
44139,Cuyahoga County,OH,NA,NA,92.20642443391259,NA,18.616144975288304
44141,Cuyahoga County,OH,NA,NA,NA,NA,37.56177924217463
44143,Cuyahoga County,OH,25.69060773480663,NA,31.27962085308057,NA,3.2948929159802307
44145,Cuyahoga County,OH,NA,NA,48.077935755660874,NA,49.093904448105434
44146,Cuyahoga County,OH,NA,NA,25.118483412322274,NA,NA
44147,Cuyahoga County,OH,NA,NA,NA,69.40222897669706,NA
44212,Medina County,OH,NA,NA,2.10637177461822,NA,NA
44221,Summit County,OH,NA,NA,12.796208530805686,20.466058763931105,NA
44223,Summit County,OH,NA,NA,45.55028962611901,NA,NA
44241,Portage County,OH,NA,NA,27.96208530805687,NA,NA
44256,Medina County,OH,NA,NA,18.114797261716692,0.7092198581560284,NA
44260,Portage County,OH,NA,NA,NA,62.20871327254306,NA
44266,Portage County,OH,NA,NA,31.806213796735122,NA,NA
44270,Wayne County,OH,NA,NA,87.5724065297525,NA,NA
44278,Summit County,OH,NA,NA,59.136387572406534,NA,NA
44287,Wayne County,OH,NA,NA,85.36071616640338,NA,NA
44305,Summit County,OH,NA,NA,12.111637704054766,NA,NA
44306,Summit County,OH,NA,NA,33.59662980516061,84.49848024316108,NA
44310,Summit County,OH,NA,NA,57.13533438651922,NA,NA
44311,Summit County,OH,NA,51.627906976744185,NA,NA,NA
44312,Summit County,OH,NA,NA,83.7809373354397,NA,NA
44320,Summit County,OH,NA,NA,15.271195365982097,NA,NA
44321,Summit County,OH,NA,62.7906976744186,NA,48.328267477203646,NA
44333,Summit County,OH,NA,NA,NA,47.21377912867275,NA
44406,Mahoning County,OH,NA,NA,83.72827804107425,NA,NA
44420,Trumbull County,OH,NA,NA,NA,54.60992907801418,NA
44460,Columbiana County,OH,NA,57.674418604651166,NA,NA,NA
44483,Trumbull County,OH,19.88950276243094,NA,NA,NA,NA
44505,Mahoning County,OH,22.65193370165746,NA,28.69931542917325,NA,NA
44509,Mahoning County,OH,NA,NA,75.77672459189047,NA,NA
44515,Mahoning County,OH,NA,NA,8.32016850974197,NA,NA
44601,Stark County,OH,NA,11.627906976744185,5.26592943654555,NA,NA
44622,Tuscarawas County,OH,NA,NA,66.71932596103213,NA,NA
44709,Stark County,OH,NA,NA,NA,NA,61.779242174629324
44714,Stark County,OH,NA,NA,NA,76.49442755825734,NA
44811,Sandusky County,OH,63.812154696132595,NA,NA,NA,NA
44820,Crawford County,OH,NA,15.813953488372093,NA,14.083080040526848,NA
44830,Seneca County,OH,NA,NA,15.850447604002108,NA,NA
44833,Crawford County,OH,NA,NA,96.84044233807268,NA,NA
44903,Richland County,OH,NA,NA,16.219062664560294,NA,42.998352553542006
45005,Warren County,OH,NA,32.55813953488372,NA,NA,NA
45011,Butler County,OH,NA,NA,1.579778830963665,3.242147922998987,NA
45013,Butler County,OH,6.629834254143646,NA,NA,NA,NA
45015,Butler County,OH,NA,NA,53.712480252764614,NA,NA
45030,Hamilton County,OH,NA,NA,NA,NA,74.2998352553542
45040,Warren County,OH,NA,40.93023255813954,NA,NA,NA
45068,Warren County,OH,NA,NA,NA,75.88652482269504,NA
45103,Clermont County,OH,NA,17.674418604651162,23.644023170089522,NA,NA
45140,Clermont County,OH,NA,NA,NA,18.135764944275582,NA
45150,Clermont County,OH,NA,NA,34.28120063191153,NA,NA
45171,Brown County,OH,NA,NA,NA,NA,92.7512355848435
45176,Clermont County,OH,NA,NA,NA,NA,91.59802306425041
45202,Hamilton County,OH,NA,NA,17.746182201158504,NA,NA
45205,Hamilton County,OH,NA,NA,19.273301737756714,NA,NA
45208,Hamilton County,OH,NA,NA,NA,NA,73.31136738056013
45211,Hamilton County,OH,NA,NA,7.161664033701948,70.01013171225937,37.39703459637562
45212,Hamilton County,OH,NA,NA,NA,62.51266464032421,NA
45216,Hamilton County,OH,NA,NA,56.60874144286466,NA,NA
45223,Hamilton County,OH,NA,NA,75.25013164823592,85.00506585612969,NA
45224,Hamilton County,OH,NA,33.48837209302326,53.44918378093734,NA,NA
45225,Hamilton County,OH,NA,NA,90.10005265929436,NA,NA
45229,Hamilton County,OH,60.22099447513812,NA,NA,NA,NA
45230,Hamilton County,OH,57.182320441988956,NA,NA,NA,NA
45231,Hamilton County,OH,NA,NA,6.108478146392839,NA,NA
45237,Hamilton County,OH,NA,NA,25.855713533438653,NA,NA
45238,Hamilton County,OH,NA,NA,11.9536598209584,NA,NA
45243,Hamilton County,OH,NA,NA,89.88941548183254,NA,69.35749588138385
45322,Montgomery County,OH,NA,NA,NA,51.97568389057751,NA
45342,Montgomery County,OH,NA,NA,9.373354397051079,NA,NA
45385,Greene County,OH,NA,NA,9.95260663507109,NA,NA
45402,Montgomery County,OH,90.88397790055248,NA,NA,NA,NA
45403,Montgomery County,OH,NA,NA,34.70247498683518,NA,NA
45406,Montgomery County,OH,NA,NA,44.07582938388626,NA,NA
45410,Montgomery County,OH,NA,NA,40.81095313322802,NA,NA
45414,Montgomery County,OH,NA,NA,26.59294365455503,NA,NA
45415,Montgomery County,OH,NA,NA,78.09373354397052,NA,NA
45417,Montgomery County,OH,NA,NA,NA,18.541033434650455,NA
45419,Montgomery County,OH,75.13812154696133,NA,NA,NA,NA
45502,Clark County,OH,NA,NA,NA,NA,81.05436573311367
45503,Clark County,OH,NA,NA,NA,NA,13.673805601317957
45601,Ross County,OH,NA,29.767441860465116,13.270142180094787,NA,2.6359143327841847
45631,Gallia County,OH,NA,21.3953488372093,8.846761453396525,NA,NA
45640,Jackson County,OH,NA,NA,25.75039494470774,7.90273556231003,15.815485996705107
45656,Jackson County,OH,NA,NA,87.36176935229068,NA,NA
45660,Adams County,OH,NA,NA,NA,95.84599797365755,NA
45662,Scioto County,OH,NA,NA,1.790416008425487,NA,NA
45680,Lawrence County,OH,NA,NA,NA,NA,88.79736408566721
45692,Jackson County,OH,NA,26.976744186046513,68.98367561874672,NA,NA
45701,Athens County,OH,NA,NA,61.87467087941022,55.319148936170215,NA
45714,Washington County,OH,NA,NA,48.657187993680886,NA,NA
45732,Athens County,OH,NA,NA,93.78620326487625,NA,NA
45750,Washington County,OH,NA,NA,10.163243812532912,8.915906788247213,NA
45764,Athens County,OH,81.49171270718232,NA,NA,NA,NA
45769,Meigs County,OH,51.657458563535904,NA,NA,NA,NA
45780,Athens County,OH,NA,NA,94.15481832543445,NA,NA
45804,Allen County,OH,NA,34.883720930232556,NA,NA,NA
45822,Mercer County,OH,71.54696132596685,NA,NA,NA,NA
45833,Allen County,OH,NA,NA,NA,NA,51.894563426688634
45872,Wood County,OH,NA,NA,87.5724065297525,NA,NA
45879,Paulding County,OH,84.5303867403315,NA,NA,NA,NA
45880,Paulding County,OH,NA,NA,97.05107951553448,NA,NA
45885,Auglaize County,OH,NA,NA,39.59978936282254,84.29584599797366,NA
45895,Auglaize County,OH,NA,NA,NA,35.76494427558257,NA
73030,Murray County,OK,NA,NA,NA,96.45390070921985,NA
73044,Logan County,OK,NA,NA,50.921537651395475,NA,NA
73052,Garvin County,OK,NA,96.27906976744185,NA,NA,NA
73071,Cleveland County,OK,NA,NA,20.379146919431278,NA,NA
73075,Garvin County,OK,NA,74.4186046511628,NA,NA,NA
73115,Oklahoma County,OK,NA,NA,57.767245918904685,NA,NA
73132,Oklahoma County,OK,NA,NA,54.18641390205371,48.530901722391086,NA
73139,Oklahoma County,OK,NA,NA,53.923117430226434,NA,NA
73160,Cleveland County,OK,27.900552486187845,NA,10.42654028436019,NA,NA
73501,Comanche County,OK,NA,NA,56.50342285413375,NA,NA
73505,Comanche County,OK,NA,NA,NA,19.3515704154002,NA
73507,Comanche County,OK,NA,NA,43.81253291205898,NA,NA
73651,Kiowa County,OK,NA,NA,NA,NA,95.38714991762768
73701,Garfield County,OK,NA,76.74418604651163,NA,NA,NA
74011,Tulsa County,OK,NA,NA,98.84149552395998,NA,NA
74012,Tulsa County,OK,NA,NA,21.642969984202214,NA,NA
74019,Rogers County,OK,NA,NA,45.497630331753555,NA,NA
74075,Payne County,OK,NA,NA,61.34807793575566,NA,NA
74107,Tulsa County,OK,NA,82.7906976744186,NA,NA,NA
74110,Tulsa County,OK,NA,NA,86.9931542917325,NA,NA
74115,Tulsa County,OK,NA,NA,37.54607688256977,NA,NA
74126,Tulsa County,OK,NA,NA,79.51553449183781,NA,NA
74128,Tulsa County,OK,76.51933701657458,NA,NA,NA,NA
74301,Craig County,OK,NA,80.46511627906978,NA,NA,NA
74426,McIntosh County,OK,NA,NA,NA,90.5775075987842,NA
74467,Wagoner County,OK,NA,NA,87.0984728804634,NA,NA
74728,McCurtain County,OK,NA,NA,80.41074249605056,NA,NA
74745,McCurtain County,OK,NA,NA,NA,85.81560283687944,NA
74820,Pontotoc County,OK,NA,NA,6.31911532385466,32.42147922998987,NA
74965,Adair County,OK,NA,NA,90.31068983675618,NA,NA
97002,Marion County,OR,NA,NA,NA,94.93414387031407,NA
97005,Washington County,OR,NA,NA,78.72564507635597,NA,NA
97006,Washington County,OR,NA,NA,NA,NA,39.53871499176277
97030,Multnomah County,OR,NA,NA,NA,21.17527862208713,NA
97031,Hood River County,OR,NA,NA,70.45813586097947,NA,NA
97034,Clackamas County,OR,NA,NA,83.88625592417061,NA,NA
97045,Clackamas County,OR,NA,NA,12.901527119536599,NA,18.780889621087315
97048,Columbia County,OR,NA,NA,NA,92.50253292806484,NA
97051,Columbia County,OR,NA,NA,62.08530805687204,NA,NA
97055,Clackamas County,OR,NA,NA,67.40389678778304,91.48936170212765,NA
97068,Clackamas County,OR,71.8232044198895,NA,NA,NA,NA
97078,Washington County,OR,NA,NA,69.51026856240127,NA,NA
97086,Clackamas County,OR,NA,NA,52.60663507109005,72.8470111448835,NA
97123,Washington County,OR,50,NA,NA,17.426545086119553,NA
97201,Multnomah County,OR,NA,NA,NA,93.9209726443769,NA
97202,Multnomah County,OR,NA,NA,24.749868351764086,NA,NA
97203,Multnomah County,OR,NA,NA,38.388625592417064,NA,NA
97206,Multnomah County,OR,NA,NA,11.58504476040021,NA,NA
97215,Multnomah County,OR,NA,NA,NA,76.29179331306992,NA
97220,Multnomah County,OR,NA,NA,33.4913112164297,70.51671732522796,NA
97221,Multnomah County,OR,NA,NA,NA,86.42350557244174,NA
97225,Washington County,OR,NA,NA,73.93364928909952,NA,NA
97230,Multnomah County,OR,NA,NA,19.957872564507635,NA,NA
97236,Multnomah County,OR,NA,NA,17.32490784623486,NA,NA
97352,Marion County,OR,NA,NA,NA,91.99594731509625,NA
97383,Marion County,OR,NA,NA,NA,86.52482269503547,NA
97401,Lane County,OR,NA,NA,37.38809899947341,NA,NA
97415,Curry County,OR,NA,NA,NA,NA,25.370675453047774
97423,Coos County,OR,98.06629834254143,NA,NA,NA,NA
97424,Lane County,OR,NA,NA,NA,40.121580547112465,74.46457990115321
97458,Coos County,OR,NA,NA,NA,NA,88.6326194398682
97470,Douglas County,OR,NA,NA,27.488151658767773,NA,NA
97496,Douglas County,OR,NA,NA,54.60768825697736,NA,NA
97501,Jackson County,OR,NA,NA,6.845708267509215,NA,31.30148270181219
97526,Josephine County,OR,NA,NA,58.29383886255924,NA,NA
97527,Josephine County,OR,NA,NA,43.28593996840443,NA,NA
97603,Klamath County,OR,NA,NA,NA,7.193515704154002,NA
97756,Deschutes County,OR,NA,NA,34.913112164297,23.505572441742654,NA
97801,Umatilla County,OR,NA,NA,32.70142180094787,NA,NA
97814,Baker County,OR,NA,97.20930232558139,NA,NA,NA
97862,Umatilla County,OR,NA,NA,NA,NA,93.57495881383855
97914,Malheur County,OR,NA,NA,20.537124802527646,78.419452887538,NA
15022,Washington County,PA,NA,NA,NA,NA,65.40362438220758
15025,Allegheny County,PA,NA,NA,48.446550816219066,NA,NA
15045,Allegheny County,PA,NA,NA,96.31384939441811,NA,NA
15062,Westmoreland County,PA,NA,NA,86.67719852553975,NA,NA
15063,Washington County,PA,NA,NA,NA,76.59574468085107,NA
15065,Allegheny County,PA,95.85635359116023,NA,NA,NA,NA
15071,Allegheny County,PA,NA,NA,95.15534491837809,NA,NA
15101,Allegheny County,PA,NA,NA,90.78462348604529,NA,NA
15108,Allegheny County,PA,NA,NA,NA,NA,12.191103789126853
15122,Allegheny County,PA,NA,NA,80.51606108478147,NA,NA
15132,Allegheny County,PA,NA,NA,NA,64.13373860182371,NA
15204,Allegheny County,PA,NA,NA,NA,88.44984802431611,NA
15213,Allegheny County,PA,NA,NA,71.56398104265402,76.19047619047619,NA
15217,Allegheny County,PA,NA,NA,59.08372827804107,NA,NA
15221,Allegheny County,PA,NA,NA,15.797788309636651,NA,20.757825370675455
15235,Allegheny County,PA,NA,NA,17.32490784623486,18.642350557244175,NA
15236,Allegheny County,PA,19.337016574585636,NA,NA,NA,NA
15237,Allegheny County,PA,NA,NA,NA,27.35562310030395,NA
15370,Greene County,PA,NA,NA,NA,85.51165146909828,NA
15425,Fayette County,PA,NA,NA,27.698788836229593,NA,NA
15530,Somerset County,PA,NA,NA,NA,95.33941236068895,NA
15601,Westmoreland County,PA,NA,NA,NA,NA,0.9884678747940692
15642,Westmoreland County,PA,NA,NA,NA,7.497467071935157,NA
15650,Westmoreland County,PA,NA,NA,NA,19.756838905775076,NA
15658,Westmoreland County,PA,NA,NA,77.9884149552396,NA,NA
15666,Westmoreland County,PA,NA,NA,80.88467614533965,NA,NA
15681,Indiana County,PA,NA,NA,NA,86.11955420466059,NA
15717,Indiana County,PA,NA,NA,NA,46.20060790273556,NA
15853,Elk County,PA,69.61325966850829,NA,NA,NA,NA
15902,Cambria County,PA,NA,NA,40.96893101632438,NA,NA
15904,Cambria County,PA,NA,NA,86.83517640863613,NA,NA
15963,Somerset County,PA,NA,NA,66.9826224328594,NA,NA
16201,Armstrong County,PA,NA,NA,NA,13.272543059777103,NA
16214,Clarion County,PA,NA,81.3953488372093,NA,NA,NA
16248,Clarion County,PA,NA,NA,99.94734070563455,NA,NA
16335,Crawford County,PA,NA,NA,NA,NA,22.73476112026359
16365,Warren County,PA,23.480662983425415,NA,NA,NA,NA
16406,Crawford County,PA,NA,NA,NA,99.89868287740629,NA
16407,Erie County,PA,NA,NA,NA,71.83383991894631,NA
16412,Erie County,PA,NA,NA,NA,NA,97.03459637561778
16502,Erie County,PA,NA,64.18604651162791,NA,84.90374873353596,NA
16508,Erie County,PA,NA,NA,NA,65.24822695035462,NA
16510,Erie County,PA,NA,NA,NA,NA,99.17627677100495
16652,Huntingdon County,PA,NA,NA,37.493417588204316,NA,23.55848434925865
16666,Clearfield County,PA,NA,NA,99.36808846761454,NA,NA
16701,McKean County,PA,NA,NA,15.745129015271194,NA,NA
16801,Centre County,PA,46.408839779005525,NA,37.07214323328068,NA,16.639209225700164
16823,Centre County,PA,NA,NA,18.799368088467613,NA,NA
16830,Clearfield County,PA,NA,NA,NA,33.53596757852077,NA
16866,Centre County,PA,NA,NA,NA,75.27862208713273,53.54200988467874
16933,Tioga County,PA,NA,NA,92.78567667193259,NA,NA
17015,Cumberland County,PA,NA,NA,41.39020537124802,NA,NA
17033,Dauphin County,PA,NA,NA,66.24539231174302,NA,NA
17036,Dauphin County,PA,NA,NA,74.565560821485,NA,NA
17038,Lebanon County,PA,NA,NA,NA,NA,92.09225700164745
17042,Lebanon County,PA,NA,NA,56.13480779357557,NA,NA
17046,Lebanon County,PA,NA,NA,7.846234860452871,NA,NA
17050,Cumberland County,PA,NA,NA,NA,43.87031408308004,NA
17053,Perry County,PA,NA,NA,NA,NA,92.9159802306425
17057,Dauphin County,PA,NA,NA,79.83149025803054,19.959473150962513,NA
17070,Cumberland County,PA,NA,NA,NA,45.69402228976697,NA
17078,Lebanon County,PA,NA,NA,47.49868351764086,46.09929078014184,NA
17103,Dauphin County,PA,20.718232044198896,NA,NA,NA,NA
17110,Dauphin County,PA,NA,67.90697674418604,45.076355976829916,29.38196555217832,NA
17111,Dauphin County,PA,NA,NA,14.218009478672986,NA,NA
17112,Dauphin County,PA,NA,NA,79.0416008425487,NA,NA
17113,Dauphin County,PA,NA,NA,43.0753027909426,NA,NA
17307,Adams County,PA,NA,NA,89.0995260663507,NA,NA
17313,York County,PA,NA,NA,67.19325961032122,NA,NA
17319,York County,PA,NA,NA,67.98314902580306,NA,NA
17325,Adams County,PA,NA,NA,NA,NA,43.65733113673805
17344,Adams County,PA,NA,NA,98.2095839915745,NA,NA
17349,York County,PA,NA,NA,NA,77.60891590678824,NA
17356,York County,PA,NA,NA,63.507109004739334,NA,NA
17361,York County,PA,NA,NA,NA,93.11043566362716,NA
17362,York County,PA,NA,NA,69.3522906793049,NA,NA
17368,York County,PA,NA,NA,NA,NA,94.72817133443164
17401,York County,PA,NA,NA,76.88256977356504,NA,NA
17403,York County,PA,NA,NA,1.8957345971563981,NA,NA
17404,York County,PA,NA,NA,9.794628751974724,NA,NA
17406,York County,PA,NA,NA,33.38599262769879,NA,NA
17408,York County,PA,NA,NA,39.91574512901527,NA,NA
17543,Lancaster County,PA,NA,NA,NA,NA,9.884678747940692
17554,Lancaster County,PA,NA,NA,86.30858346498157,NA,NA
17578,Lancaster County,PA,NA,NA,89.942074776198,NA,NA
17603,Lancaster County,PA,NA,NA,7.37230121116377,NA,NA
17842,Snyder County,PA,NA,NA,82.2538177988415,NA,NA
17847,Northumberland County,PA,NA,NA,NA,NA,54.53047775947282
17921,Schuylkill County,PA,NA,NA,80.62137967351237,NA,NA
17954,Schuylkill County,PA,89.50276243093923,NA,NA,NA,NA
18014,Northampton County,PA,NA,NA,41.07424960505529,NA,NA
18042,Northampton County,PA,NA,NA,4.107424960505529,NA,NA
18045,Northampton County,PA,NA,NA,35.49236440231701,NA,NA
18102,Lehigh County,PA,NA,NA,0.7898894154818324,NA,NA
18103,Lehigh County,PA,NA,17.209302325581397,NA,NA,NA
18104,Lehigh County,PA,NA,NA,64.40231700895208,NA,NA
18109,Lehigh County,PA,NA,NA,22.854133754607687,NA,NA
18201,Luzerne County,PA,NA,NA,17.21958925750395,NA,NA
18249,Luzerne County,PA,NA,NA,NA,93.51570415400202,NA
18421,Susquehanna County,PA,NA,NA,93.41758820431806,NA,NA
18436,Wayne County,PA,NA,NA,NA,67.88247213779128,NA
18446,Wyoming County,PA,NA,NA,NA,99.59473150962512,NA
18447,Lackawanna County,PA,NA,NA,96.94576092680359,NA,NA
18466,Monroe County,PA,NA,NA,NA,71.3272543059777,NA
18505,Lackawanna County,PA,NA,NA,NA,38.90577507598784,NA
18603,Columbia County,PA,NA,NA,12.006319115323855,NA,NA
18644,Luzerne County,PA,NA,NA,NA,70.51671732522796,NA
18902,Bucks County,PA,NA,NA,NA,77.30496453900709,NA
18938,Bucks County,PA,NA,NA,NA,NA,58.48434925864909
18954,Bucks County,PA,NA,NA,95.05002632964718,NA,NA
19012,Montgomery County,PA,84.25414364640883,NA,NA,NA,NA
19013,Delaware County,PA,NA,NA,69.826224328594,16.312056737588655,NA
19030,Bucks County,PA,NA,NA,78.77830437072143,NA,NA
19041,Delaware County,PA,NA,NA,98.78883622959452,NA,NA
19044,Montgomery County,PA,NA,NA,NA,76.89969604863222,NA
19047,Bucks County,PA,NA,NA,21.169036334913113,NA,NA
19061,Delaware County,PA,NA,NA,62.66456029489205,NA,NA
19063,Delaware County,PA,NA,NA,NA,48.12563323201621,14.827018121911037
19067,Bucks County,PA,NA,NA,NA,9.72644376899696,NA
19072,Montgomery County,PA,NA,NA,67.71985255397578,NA,NA
19074,Delaware County,PA,NA,NA,NA,87.63931104356637,NA
19103,Philadelphia County,PA,NA,NA,76.93522906793049,NA,NA
19104,Philadelphia County,PA,NA,NA,9.215376513954714,NA,NA
19106,Philadelphia County,PA,NA,NA,NA,NA,60.13179571663921
19115,Philadelphia County,PA,NA,NA,NA,21.37791286727457,NA
19119,Philadelphia County,PA,NA,NA,21.484992101105846,NA,NA
19120,Philadelphia County,PA,NA,NA,32.5434439178515,8.206686930091186,NA
19121,Philadelphia County,PA,NA,30.697674418604652,31.121642969984205,NA,NA
19123,Philadelphia County,PA,NA,NA,94.73407056345445,NA,NA
19124,Philadelphia County,PA,8.83977900552486,NA,18.167456556082147,13.171225937183383,NA
19125,Philadelphia County,PA,NA,NA,47.39336492890995,NA,NA
19132,Philadelphia County,PA,NA,NA,4.3707214323328065,NA,NA
19133,Philadelphia County,PA,NA,NA,13.533438651922063,NA,NA
19138,Philadelphia County,PA,NA,NA,10.90047393364929,NA,NA
19140,Philadelphia County,PA,NA,NA,28.90995260663507,11.651469098277609,NA
19143,Philadelphia County,PA,NA,NA,6.266456029489205,1.6210739614994936,NA
19144,Philadelphia County,PA,NA,NA,20.063191153238545,NA,NA
19145,Philadelphia County,PA,NA,NA,5.581885202738284,NA,NA
19146,Philadelphia County,PA,NA,NA,45.708267509215375,NA,NA
19152,Philadelphia County,PA,NA,NA,16.692996313849395,NA,NA
19335,Chester County,PA,NA,NA,NA,NA,34.43163097199341
19342,Delaware County,PA,NA,NA,46.70879410215903,NA,NA
19380,Chester County,PA,NA,NA,10.005265929436545,NA,NA
19406,Montgomery County,PA,NA,NA,NA,NA,53.37726523887974
19422,Montgomery County,PA,NA,NA,NA,NA,52.55354200988468
19460,Chester County,PA,NA,NA,NA,NA,24.87644151565074
19464,Montgomery County,PA,NA,NA,4.002106371774619,NA,NA
19468,Montgomery County,PA,NA,NA,NA,NA,47.61120263591433
19510,Berks County,PA,NA,NA,NA,88.14589665653494,NA
19518,Berks County,PA,52.762430939226526,NA,NA,NA,NA
19565,Berks County,PA,NA,NA,NA,67.37588652482269,NA
19601,Berks County,PA,NA,NA,NA,NA,47.77594728171334
19604,Berks County,PA,NA,NA,38.02001053185887,39.209726443769,NA
19606,Berks County,PA,NA,NA,36.07161664033702,NA,NA
19607,Berks County,PA,NA,NA,61.19010005265929,NA,NA
02806,Bristol County,RI,NA,NA,NA,95.5420466058764,NA
02825,Providence County,RI,NA,NA,NA,NA,96.04612850082373
02830,Providence County,RI,NA,NA,95.41864139020537,NA,NA
02842,Newport County,RI,NA,NA,80.46340179041601,NA,NA
02864,Providence County,RI,NA,NA,23.06477093206951,NA,NA
02878,Newport County,RI,NA,NA,NA,56.53495440729483,NA
02879,Washington County,RI,NA,NA,NA,NA,33.60790774299836
02886,Kent County,RI,NA,NA,NA,27.456940222897668,NA
02888,Kent County,RI,NA,NA,48.86782517114271,NA,NA
02893,Kent County,RI,NA,NA,33.0173775671406,NA,37.067545304777596
02895,Providence County,RI,62.15469613259669,NA,10.057925223802002,NA,NA
02896,Providence County,RI,NA,NA,NA,NA,78.41845140032949
02907,Providence County,RI,NA,NA,38.02001053185887,NA,NA
02909,Providence County,RI,NA,NA,16.903633491311215,NA,NA
02910,Providence County,RI,NA,NA,49.86835176408636,NA,64.90939044481054
02914,Providence County,RI,NA,NA,42.96998420221169,NA,NA
02919,Providence County,RI,NA,NA,73.45971563981043,NA,NA
02920,Providence County,RI,NA,NA,NA,74.87335359675785,NA
29020,Kershaw County,SC,NA,NA,NA,38.095238095238095,NA
29040,Sumter County,SC,NA,NA,NA,97.06180344478217,NA
29045,Kershaw County,SC,NA,NA,NA,55.01519756838906,NA
29063,Richland County,SC,NA,NA,57.24065297525013,NA,NA
29072,Lexington County,SC,NA,NA,77.25118483412322,NA,NA
29118,Orangeburg County,SC,NA,93.48837209302326,NA,NA,NA
29150,Sumter County,SC,NA,NA,NA,NA,24.382207578253706
29161,Florence County,SC,NA,NA,73.1437598736177,NA,NA
29203,Richland County,SC,NA,NA,9.057398630858346,NA,NA
29205,Richland County,SC,NA,NA,78.30437072143233,NA,NA
29209,Richland County,SC,NA,NA,NA,52.4822695035461,NA
29223,Richland County,SC,42.5414364640884,NA,20.69510268562401,NA,17.627677100494235
29229,Richland County,SC,NA,NA,35.8609794628752,NA,NA
29303,Spartanburg County,SC,NA,NA,41.23222748815166,NA,NA
29306,Spartanburg County,SC,72.09944751381215,NA,93.57556608741443,NA,NA
29385,Spartanburg County,SC,NA,94.41860465116278,NA,NA,NA
29403,Charleston County,SC,NA,NA,41.91679831490258,NA,NA
29405,Charleston County,SC,NA,NA,24.381253291205898,NA,NA
29414,Charleston County,SC,NA,NA,66.29805160610847,28.166160081053697,NA
29445,Berkeley County,SC,NA,NA,21.80094786729858,NA,NA
29449,Charleston County,SC,NA,NA,NA,NA,97.85831960461286
29456,Dorchester County,SC,NA,NA,33.438651922064246,NA,NA
29461,Berkeley County,SC,NA,NA,30.48973143759874,NA,NA
29464,Charleston County,SC,NA,NA,NA,26.342451874366766,19.27512355848435
29512,Marlboro County,SC,NA,NA,54.502369668246445,NA,NA
29536,Dillon County,SC,NA,NA,NA,NA,94.3986820428336
29554,Williamsburg County,SC,NA,NA,90.8899420747762,NA,NA
29556,Williamsburg County,SC,NA,NA,63.82306477093207,NA,NA
29588,Horry County,SC,NA,NA,34.49183780937336,NA,NA
29621,Anderson County,SC,NA,54.88372093023256,NA,NA,NA
29625,Anderson County,SC,NA,NA,29.6998420221169,NA,NA
29640,Pickens County,SC,NA,NA,NA,NA,33.113673805601316
29666,Greenwood County,SC,NA,NA,91.99578725645077,NA,NA
29669,Anderson County,SC,NA,NA,NA,63.525835866261396,NA
29687,Greenville County,SC,NA,NA,28.33070036861506,NA,NA
29690,Greenville County,SC,NA,NA,NA,38.60182370820669,NA
29708,York County,SC,80.93922651933701,NA,NA,NA,NA
29720,Lancaster County,SC,NA,NA,NA,66.8693009118541,NA
29732,York County,SC,NA,NA,65.71879936808847,NA,NA
29745,York County,SC,NA,NA,NA,NA,76.77100494233937
29801,Aiken County,SC,NA,NA,38.283307003686154,NA,NA
29829,Aiken County,SC,NA,NA,NA,80.54711246200608,NA
29841,Aiken County,SC,NA,NA,NA,32.21884498480243,NA
29910,Beaufort County,SC,NA,NA,NA,41.54002026342452,NA
29926,Beaufort County,SC,NA,NA,95.57661927330173,NA,NA
29945,Hampton County,SC,NA,NA,99.73670352817273,NA,NA
57069,Clay County,SD,NA,NA,NA,90.47619047619048,NA
57103,Minnehaha County,SD,17.403314917127073,NA,NA,3.7487335359675784,NA
57104,Minnehaha County,SD,NA,NA,NA,NA,18.28665568369028
57105,Minnehaha County,SD,NA,NA,NA,14.58966565349544,NA
57110,Minnehaha County,SD,NA,NA,NA,66.16008105369808,NA
57201,Codington County,SD,NA,NA,NA,67.57852077001013,NA
57350,Beadle County,SD,NA,NA,NA,74.36676798378926,NA
57401,Brown County,SD,NA,NA,NA,41.03343465045592,NA
57501,Hughes County,SD,NA,NA,73.1437598736177,NA,NA
57702,Pennington County,SD,NA,NA,58.39915745129015,NA,NA
57730,Custer County,SD,NA,NA,NA,80.95238095238095,NA
57783,Lawrence County,SD,NA,NA,NA,46.605876393110435,NA
37064,Williamson County,TN,NA,NA,NA,18.33839918946302,NA
37069,Williamson County,TN,NA,NA,90.8899420747762,NA,NA
37072,Davidson County,TN,NA,NA,NA,65.95744680851064,NA
37075,Sumner County,TN,NA,NA,14.586624539231174,NA,NA
37115,Davidson County,TN,NA,NA,NA,26.74772036474164,NA
37130,Rutherford County,TN,NA,61.86046511627907,NA,34.34650455927052,NA
37138,Davidson County,TN,NA,NA,50.39494470774092,NA,NA
37160,Bedford County,TN,NA,NA,NA,NA,37.23228995057661
37167,Rutherford County,TN,NA,NA,23.74934175882043,NA,NA
37186,Sumner County,TN,NA,NA,NA,81.66160081053698,NA
37203,Davidson County,TN,NA,78.13953488372093,NA,NA,NA
37207,Davidson County,TN,NA,NA,NA,32.72543059777102,NA
37208,Davidson County,TN,65.19337016574586,NA,22.748815165876778,NA,NA
37209,Davidson County,TN,NA,NA,28.96261190100053,NA,NA
37214,Davidson County,TN,NA,NA,59.55766192733017,NA,NA
37215,Davidson County,TN,NA,NA,NA,NA,39.373970345963755
37218,Davidson County,TN,92.5414364640884,NA,NA,NA,NA
37321,Rhea County,TN,NA,NA,26.11901000526593,NA,NA
37334,Lincoln County,TN,NA,NA,NA,33.63728470111449,NA
37388,Coffee County,TN,NA,NA,NA,78.62208713272543,NA
37406,Hamilton County,TN,NA,NA,67.5618746708794,NA,NA
37416,Hamilton County,TN,NA,NA,54.02843601895735,NA,NA
37421,Hamilton County,TN,43.370165745856355,NA,NA,NA,27.677100494233937
37641,Greene County,TN,NA,NA,NA,62.91793313069909,NA
37660,Sullivan County,TN,NA,NA,6.424433912585571,NA,NA
37705,Anderson County,TN,NA,NA,97.26171669299632,NA,NA
37766,Campbell County,TN,NA,NA,NA,28.06484295845998,NA
37771,Loudon County,TN,NA,NA,NA,59.979736575481255,NA
37804,Blount County,TN,30.939226519337016,NA,NA,NA,NA
37814,Hamblen County,TN,NA,39.53488372093023,NA,NA,NA
37840,Roane County,TN,NA,NA,NA,58.257345491388044,NA
37857,Hawkins County,TN,61.04972375690608,NA,31.437598736176938,NA,NA
37862,Sevier County,TN,NA,61.395348837209305,35.28172722485519,NA,NA
37876,Sevier County,TN,NA,NA,31.01632438125329,NA,NA
37920,Knox County,TN,NA,NA,36.96682464454976,NA,NA
37923,Knox County,TN,NA,NA,51.50078988941548,NA,NA
37934,Knox County,TN,NA,NA,80.30542390731964,NA,NA
37938,Knox County,TN,70.1657458563536,NA,NA,NA,NA
38002,Shelby County,TN,NA,NA,68.98367561874672,NA,NA
38068,Fayette County,TN,42.81767955801105,NA,NA,81.7629179331307,NA
38106,Shelby County,TN,NA,NA,15.060558188520274,NA,NA
38107,Shelby County,TN,NA,NA,40.28436018957346,NA,NA
38109,Shelby County,TN,NA,NA,9.636650868878357,NA,NA
38111,Shelby County,TN,NA,NA,19.11532385466035,NA,NA
38115,Shelby County,TN,NA,NA,20.27382833070037,NA,NA
38116,Shelby County,TN,16.574585635359114,NA,49.18378093733544,NA,NA
38126,Shelby County,TN,NA,NA,94.7867298578199,NA,NA
38127,Shelby County,TN,8.011049723756907,NA,NA,40.52684903748733,NA
38135,Shelby County,TN,80.66298342541437,NA,NA,NA,NA
38138,Shelby County,TN,NA,NA,89.46814112690889,NA,NA
38301,Madison County,TN,NA,NA,8.004212743549237,NA,NA
38363,Decatur County,TN,NA,73.95348837209302,NA,NA,NA
38506,Putnam County,TN,NA,NA,39.652448657187996,NA,NA
38570,Overton County,TN,NA,NA,NA,71.42857142857143,NA
38571,Cumberland County,TN,NA,NA,54.18641390205371,NA,NA
75007,Denton County,TX,NA,NA,46.23486045286993,NA,NA
75013,Collin County,TX,NA,NA,NA,NA,93.24546952224053
75021,Grayson County,TX,NA,NA,NA,89.66565349544074,NA
75024,Collin County,TX,NA,NA,61.08478146392839,NA,NA
75025,Collin County,TX,NA,NA,55.55555555555556,59.37183383991894,NA
75041,Dallas County,TX,NA,NA,NA,NA,88.13838550247117
75043,Dallas County,TX,NA,NA,17.535545023696685,NA,NA
75050,Dallas County,TX,NA,NA,74.88151658767772,NA,NA
75051,Dallas County,TX,83.14917127071824,NA,NA,NA,NA
75052,Dallas County,TX,69.33701657458563,NA,NA,14.184397163120568,NA
75054,Tarrant County,TX,NA,NA,89.362822538178,NA,NA
75065,Denton County,TX,NA,NA,87.15113217482886,NA,NA
75067,Denton County,TX,NA,NA,29.541864139020536,NA,NA
75070,Collin County,TX,NA,NA,13.69141653501843,NA,NA
75074,Collin County,TX,NA,NA,52.50131648235914,NA,NA
75075,Collin County,TX,NA,NA,NA,36.67679837892604,NA
75078,Collin County,TX,70.71823204419888,NA,NA,NA,NA
75089,Dallas County,TX,NA,NA,62.40126382306477,NA,NA
75092,Grayson County,TX,NA,NA,NA,NA,52.883031301482696
75115,Dallas County,TX,24.03314917127072,NA,NA,NA,NA
75126,Kaufman County,TX,NA,NA,28.488678251711423,NA,67.38056013179572
75146,Dallas County,TX,NA,NA,62.08530805687204,NA,NA
75172,Dallas County,TX,NA,NA,NA,99.79736575481256,NA
75181,Dallas County,TX,NA,NA,52.76461295418642,NA,NA
75203,Dallas County,TX,NA,NA,NA,72.74569402228977,NA
75211,Dallas County,TX,NA,NA,NA,25.937183383991897,NA
75212,Dallas County,TX,NA,NA,44.128488678251706,NA,NA
75216,Dallas County,TX,NA,16.27906976744186,25.171142706687732,11.752786220871327,NA
75217,Dallas County,TX,34.25414364640884,NA,31.806213796735122,NA,NA
75223,Dallas County,TX,NA,NA,NA,81.2563323201621,NA
75227,Dallas County,TX,10.220994475138122,NA,NA,NA,NA
75232,Dallas County,TX,NA,NA,NA,45.79533941236069,NA
75241,Dallas County,TX,33.42541436464088,NA,NA,36.98074974670719,24.052718286655683
75243,Dallas County,TX,NA,NA,64.2443391258557,NA,40.362438220757824
75248,Dallas County,TX,NA,NA,58.08320168509742,NA,NA
75254,Dallas County,TX,NA,NA,85.88730911005793,NA,NA
75410,Wood County,TX,98.34254143646409,NA,NA,NA,NA
75460,Lamar County,TX,NA,NA,57.451290152711955,NA,NA
75501,Bowie County,TX,NA,NA,NA,27.0516717325228,NA
75503,Bowie County,TX,83.42541436464089,NA,NA,NA,NA
75644,Upshur County,TX,NA,NA,NA,NA,94.56342668863262
75662,Gregg County,TX,NA,NA,52.39599789362822,NA,46.45799011532125
75701,Smith County,TX,NA,NA,69.19431279620854,NA,7.57825370675453
75703,Smith County,TX,NA,NA,NA,5.268490374873354,NA
75751,Henderson County,TX,NA,NA,45.392311743022645,NA,NA
75904,Angelina County,TX,NA,NA,67.61453396524486,NA,NA
76009,Johnson County,TX,NA,NA,63.55976829910479,NA,NA
76010,Tarrant County,TX,NA,NA,47.9199578725645,NA,NA
76011,Tarrant County,TX,26.519337016574585,NA,NA,NA,NA
76013,Tarrant County,TX,NA,NA,63.770405476566616,NA,NA
76017,Tarrant County,TX,NA,NA,28.436018957345972,NA,NA
76064,Ellis County,TX,NA,NA,100,NA,NA
76082,Parker County,TX,NA,NA,56.18746708794102,NA,NA
76102,Tarrant County,TX,NA,80,73.98630858346498,NA,NA
76103,Tarrant County,TX,NA,NA,65.29752501316483,NA,NA
76104,Tarrant County,TX,39.226519337016576,NA,NA,65.65349544072949,70.51070840197694
76105,Tarrant County,TX,20.165745856353592,NA,70.30015797788309,NA,80.72487644151565
76108,Tarrant County,TX,NA,NA,36.598209583991576,NA,NA
76110,Tarrant County,TX,NA,NA,NA,NA,54.53047775947282
76112,Tarrant County,TX,NA,NA,41.70616113744076,NA,NA
76116,Tarrant County,TX,NA,NA,20.69510268562401,NA,NA
76117,Tarrant County,TX,NA,44.18604651162791,NA,NA,NA
76119,Tarrant County,TX,NA,NA,50.23696682464455,62.81661600810538,NA
76120,Tarrant County,TX,NA,NA,50.55292259083728,NA,NA
76123,Tarrant County,TX,NA,41.86046511627907,45.918904686677195,NA,NA
76132,Tarrant County,TX,NA,NA,64.66561348077936,NA,NA
76133,Tarrant County,TX,NA,NA,16.74565560821485,NA,NA
76137,Tarrant County,TX,NA,NA,NA,23.910840932117527,NA
76164,Tarrant County,TX,66.02209944751381,NA,NA,NA,NA
76177,Tarrant County,TX,NA,NA,95.99789362822538,NA,NA
76179,Tarrant County,TX,NA,NA,26.38230647709321,NA,NA
76182,Tarrant County,TX,NA,NA,65.87677725118483,NA,NA
76207,Denton County,TX,87.29281767955801,NA,NA,NA,NA
76209,Denton County,TX,86.74033149171271,NA,NA,NA,NA
76226,Denton County,TX,61.04972375690608,NA,NA,NA,NA
76248,Tarrant County,TX,NA,NA,65.24486571879937,NA,NA
76437,Eastland County,TX,NA,NA,NA,91.59067882472138,NA
76502,Bell County,TX,NA,NA,NA,NA,3.789126853377265
76504,Bell County,TX,39.77900552486188,NA,34.12322274881517,2.735562310030395,NA
76513,Bell County,TX,NA,NA,NA,15.501519756838904,NA
76528,Coryell County,TX,NA,NA,62.82253817798842,16.818642350557244,NA
76542,Bell County,TX,NA,NA,42.338072669826225,NA,NA
76548,Bell County,TX,NA,NA,43.18062137967351,NA,78.08896210873147
76643,McLennan County,TX,NA,NA,72.72248551869404,NA,NA
76710,McLennan County,TX,NA,NA,NA,78.82472137791287,NA
77003,Harris County,TX,NA,NA,84.83412322274881,NA,96.86985172981878
77004,Harris County,TX,NA,NA,61.506055818852026,NA,NA
77008,Harris County,TX,NA,NA,62.190626645602954,NA,NA
77009,Harris County,TX,NA,NA,77.14586624539231,NA,NA
77017,Harris County,TX,NA,NA,NA,NA,70.67545304777595
77022,Harris County,TX,NA,NA,54.55502896261189,NA,NA
77023,Harris County,TX,NA,NA,92.99631384939443,NA,NA
77027,Harris County,TX,NA,NA,NA,92.70516717325228,NA
77028,Harris County,TX,84.80662983425414,NA,NA,NA,NA
77032,Harris County,TX,NA,NA,83.57030015797788,NA,NA
77033,Harris County,TX,NA,NA,54.081095313322805,NA,NA
77040,Harris County,TX,NA,NA,44.28646656134808,NA,NA
77044,Harris County,TX,NA,NA,34.228541337546076,NA,NA
77051,Harris County,TX,NA,NA,53.34386519220643,NA,NA
77054,Harris County,TX,NA,NA,78.40968931016324,NA,NA
77056,Harris County,TX,NA,NA,NA,59.87841945288754,NA
77057,Harris County,TX,NA,NA,90.83728278041075,NA,NA
77060,Harris County,TX,NA,NA,62.03264876250658,NA,NA
77063,Harris County,TX,NA,NA,NA,NA,74.62932454695222
77064,Harris County,TX,NA,NA,NA,NA,67.0510708401977
77066,Harris County,TX,NA,NA,68.98367561874672,NA,NA
77073,Harris County,TX,NA,NA,52.44865718799369,NA,NA
77074,Harris County,TX,NA,NA,NA,NA,99.34102141680395
77075,Harris County,TX,NA,NA,NA,89.15906788247214,NA
77077,Harris County,TX,NA,NA,42.96998420221169,NA,NA
77084,Harris County,TX,NA,NA,NA,26.95035460992908,NA
77087,Harris County,TX,NA,NA,55.71353343865192,NA,NA
77088,Harris County,TX,NA,NA,64.0337019483939,NA,NA
77090,Harris County,TX,NA,NA,26.013691416535018,NA,NA
77095,Harris County,TX,NA,NA,NA,15.704154002026344,NA
77327,Liberty County,TX,NA,49.76744186046512,NA,NA,NA
77331,San Jacinto County,TX,94.47513812154696,NA,NA,NA,NA
77338,Harris County,TX,47.51381215469613,NA,NA,NA,NA
77346,Harris County,TX,NA,NA,53.55450236966824,NA,NA
77351,Polk County,TX,56.07734806629834,NA,43.5492364402317,NA,NA
77377,Harris County,TX,41.43646408839779,NA,42.022116903633496,NA,NA
77378,Montgomery County,TX,NA,86.9767441860465,NA,NA,NA
77379,Harris County,TX,NA,NA,NA,12.664640324214794,NA
77386,Montgomery County,TX,NA,NA,31.27962085308057,NA,NA
77388,Harris County,TX,NA,NA,43.70721432332807,NA,NA
77433,Harris County,TX,NA,NA,NA,NA,46.62273476112026
77437,Wharton County,TX,NA,NA,NA,65.45086119554205,NA
77441,Fort Bend County,TX,NA,NA,NA,95.0354609929078,NA
77450,Harris County,TX,NA,NA,NA,22.897669706180345,NA
77471,Fort Bend County,TX,NA,NA,85.83464981569247,NA,NA
77478,Fort Bend County,TX,NA,NA,NA,NA,84.1845140032949
77479,Fort Bend County,TX,NA,NA,NA,22.593718338399192,NA
77493,Harris County,TX,NA,NA,87.46708794102159,NA,NA
77494,Fort Bend County,TX,12.70718232044199,NA,15.376513954713007,NA,NA
77505,Harris County,TX,NA,NA,66.08741442864665,NA,NA
77510,Galveston County,TX,NA,NA,64.66561348077936,NA,NA
77511,Brazoria County,TX,NA,NA,NA,70.7193515704154,NA
77530,Harris County,TX,NA,37.2093023255814,NA,NA,NA
77535,Liberty County,TX,57.4585635359116,NA,38.54660347551343,50.55724417426545,NA
77546,Galveston County,TX,NA,NA,NA,13.98176291793313,NA
77547,Harris County,TX,NA,NA,97.47235387045814,NA,NA
77550,Galveston County,TX,NA,NA,81.14797261716693,NA,8.237232289950576
77551,Galveston County,TX,NA,NA,NA,29.78723404255319,NA
77562,Harris County,TX,NA,NA,79.14691943127961,NA,NA
77581,Brazoria County,TX,NA,NA,NA,61.49949341438703,NA
77590,Galveston County,TX,NA,NA,11.374407582938389,NA,NA
77632,Orange County,TX,NA,NA,81.25329120589784,NA,NA
77656,Hardin County,TX,NA,NA,NA,64.74164133738601,NA
77802,Brazos County,TX,NA,NA,NA,NA,41.84514003294893
77836,Burleson County,TX,NA,NA,NA,NA,72.32289950576606
77845,Brazos County,TX,NA,NA,8.056872037914692,5.065856129685916,NA
77859,Robertson County,TX,NA,NA,85.88730911005793,NA,NA
78040,Webb County,TX,NA,NA,NA,41.843971631205676,NA
78046,Webb County,TX,4.972375690607735,NA,NA,NA,NA
78102,Bee County,TX,NA,NA,79.62085308056872,NA,NA
78109,Bexar County,TX,NA,NA,NA,NA,88.46787479406919
78155,Guadalupe County,TX,NA,NA,NA,NA,34.596375617792425
78201,Bexar County,TX,27.071823204419886,NA,20.905739863085834,NA,NA
78202,Bexar County,TX,NA,NA,93.10163243812532,NA,NA
78207,Bexar County,TX,NA,NA,18.325434439178515,NA,NA
78210,Bexar County,TX,NA,10.69767441860465,NA,NA,NA
78211,Bexar County,TX,NA,NA,52.18536071616641,NA,NA
78213,Bexar County,TX,NA,NA,NA,66.3627152988855,NA
78222,Bexar County,TX,NA,NA,NA,97.87234042553192,NA
78223,Bexar County,TX,NA,NA,17.00895208004213,NA,NA
78230,Bexar County,TX,NA,NA,59.3996840442338,NA,NA
78233,Bexar County,TX,NA,NA,39.757767245918906,NA,NA
78237,Bexar County,TX,NA,NA,26.856240126382307,NA,NA
78240,Bexar County,TX,NA,NA,41.54818325434439,NA,NA
78254,Bexar County,TX,NA,NA,44.33912585571353,NA,NA
78258,Bexar County,TX,NA,NA,66.35071090047393,NA,NA
78405,Nueces County,TX,NA,NA,93.94418114797261,NA,NA
78501,Hidalgo County,TX,NA,NA,NA,NA,16.96869851729819
78521,Cameron County,TX,NA,NA,29.331226961558716,NA,NA
78541,Hidalgo County,TX,36.187845303867405,NA,NA,NA,NA
78572,Hidalgo County,TX,NA,NA,16.429699842022117,NA,NA
78574,Hidalgo County,TX,NA,NA,NA,39.51367781155015,NA
78589,Hidalgo County,TX,NA,NA,37.70405476566614,NA,NA
78610,Hays County,TX,NA,NA,74.61822011585045,NA,NA
78611,Burnet County,TX,NA,NA,80.04212743549236,NA,NA
78617,Travis County,TX,NA,NA,75.98736176935229,NA,NA
78620,Hays County,TX,94.7513812154696,NA,NA,NA,NA
78634,Williamson County,TX,NA,NA,59.768299104792,NA,NA
78641,Williamson County,TX,NA,NA,53.87045813586098,NA,NA
78642,Williamson County,TX,87.01657458563537,NA,90.8899420747762,NA,NA
78653,Travis County,TX,NA,NA,77.83043707214323,NA,NA
78657,Llano County,TX,NA,NA,NA,69.6048632218845,NA
78660,Travis County,TX,NA,36.27906976744186,NA,NA,NA
78666,Hays County,TX,22.92817679558011,NA,NA,NA,NA
78681,Williamson County,TX,NA,NA,54.713006845708264,NA,NA
78723,Travis County,TX,NA,NA,60.716166403370195,NA,NA
78724,Travis County,TX,NA,56.27906976744186,NA,NA,NA
78752,Travis County,TX,NA,NA,92.83833596629805,NA,NA
78753,Travis County,TX,NA,NA,61.29541864139021,NA,NA
78758,Travis County,TX,80.38674033149171,NA,NA,NA,NA
78840,Val Verde County,TX,NA,NA,NA,21.37791286727457,NA
78934,Colorado County,TX,NA,90.69767441860465,NA,NA,NA
79106,Potter County,TX,NA,NA,53.76513954713007,NA,NA
79107,Potter County,TX,NA,16.74418604651163,NA,NA,NA
79403,Lubbock County,TX,NA,NA,50.50026329647183,NA,NA
79416,Lubbock County,TX,NA,NA,83.04370721432332,NA,NA
79423,Lubbock County,TX,82.87292817679558,24.186046511627907,NA,NA,NA
79424,Lubbock County,TX,NA,47.906976744186046,NA,12.25937183383992,21.581548599670512
79549,Scurry County,TX,NA,NA,NA,47.11246200607903,NA
79605,Taylor County,TX,NA,NA,36.229594523433384,NA,NA
79703,Midland County,TX,NA,NA,86.41390205371248,79.0273556231003,NA
79705,Midland County,TX,NA,NA,23.802001053185887,NA,NA
79707,Midland County,TX,NA,NA,30.753027909426013,NA,NA
79720,Howard County,TX,NA,NA,NA,57.446808510638306,NA
79761,Ector County,TX,NA,NA,50.28962611901,NA,NA
79907,El Paso County,TX,NA,NA,NA,23.70820668693009,NA
79915,El Paso County,TX,NA,NA,NA,NA,18.451400329489292
79935,El Paso County,TX,NA,NA,NA,79.43262411347519,NA
79936,El Paso County,TX,NA,NA,10.637177461822011,NA,39.86820428336079
84003,Utah County,UT,NA,NA,75.82938388625593,NA,NA
84010,Davis County,UT,49.447513812154696,NA,73.77567140600317,NA,NA
84015,Davis County,UT,NA,NA,19.010005265929436,NA,NA
84029,Tooele County,UT,NA,NA,NA,83.89057750759878,NA
84041,Davis County,UT,NA,NA,34.544497103738806,NA,NA
84044,Salt Lake County,UT,NA,NA,41.758820431806214,NA,NA
84054,Davis County,UT,NA,NA,75.46076882569773,NA,NA
84062,Utah County,UT,NA,NA,84.623486045287,NA,NA
84065,Salt Lake County,UT,NA,NA,NA,90.0709219858156,NA
84066,Duchesne County,UT,NA,NA,60.136914165350184,NA,NA
84067,Weber County,UT,NA,NA,NA,NA,54.53047775947282
84070,Salt Lake County,UT,NA,NA,79.9894681411269,NA,94.06919275123559
84074,Tooele County,UT,2.7624309392265194,NA,NA,NA,NA
84075,Davis County,UT,NA,NA,73.03844128488677,87.94326241134752,NA
84081,Salt Lake County,UT,NA,NA,NA,86.22087132725432,NA
84093,Salt Lake County,UT,NA,NA,94.20747761979989,NA,NA
84094,Salt Lake County,UT,36.74033149171271,NA,NA,NA,NA
84095,Salt Lake County,UT,NA,NA,NA,31.20567375886525,NA
84096,Salt Lake County,UT,NA,NA,77.72511848341233,NA,NA
84098,Summit County,UT,NA,NA,NA,NA,87.3146622734761
84103,Salt Lake County,UT,NA,NA,NA,NA,93.08072487644151
84107,Salt Lake County,UT,NA,NA,NA,48.530901722391086,69.02800658978583
84109,Salt Lake County,UT,NA,NA,NA,55.72441742654508,NA
84115,Salt Lake County,UT,NA,NA,NA,37.48733535967578,NA
84116,Salt Lake County,UT,59.11602209944752,NA,NA,NA,NA
84117,Salt Lake County,UT,NA,NA,NA,71.63120567375887,NA
84120,Salt Lake County,UT,17.67955801104972,NA,NA,NA,NA
84124,Salt Lake County,UT,NA,NA,80.98999473407056,NA,NA
84321,Cache County,UT,NA,NA,NA,NA,92.42174629324546
84790,Washington County,UT,NA,NA,NA,NA,6.589785831960461
05001,Windsor County,VT,NA,NA,87.25645076355977,NA,NA
05156,Windsor County,VT,NA,NA,65.50816219062665,NA,NA
05201,Bennington County,VT,NA,NA,46.55081621906266,87.03140830800406,NA
05250,Bennington County,VT,NA,NA,NA,NA,89.29159802306425
05404,Chittenden County,VT,NA,NA,87.04581358609794,NA,NA
05452,Chittenden County,VT,NA,NA,NA,38.80445795339412,46.12850082372323
05495,Chittenden County,VT,NA,NA,NA,NA,80.0658978583196
05661,Lamoille County,VT,NA,NA,NA,89.15906788247214,NA
05701,Rutland County,VT,NA,NA,NA,NA,49.25864909390445
20110,Manassas city,VA,NA,50.23255813953489,NA,NA,NA
20111,Prince William County,VA,59.66850828729282,NA,52.29067930489732,NA,NA
20148,Loudoun County,VA,NA,NA,57.55660874144286,NA,NA
20170,Fairfax County,VA,NA,NA,65.29752501316483,NA,NA
20190,Fairfax County,VA,NA,NA,86.67719852553975,NA,NA
22043,Fairfax County,VA,NA,NA,72.93312269615588,NA,NA
22044,Fairfax County,VA,NA,NA,NA,91.08409321175279,NA
22153,Fairfax County,VA,NA,NA,NA,NA,75.45304777594728
22203,Arlington County,VA,NA,NA,75.67140600315956,NA,NA
22204,Arlington County,VA,29.005524861878452,NA,NA,NA,NA
22205,Arlington County,VA,NA,NA,88.25697735650341,NA,NA
22301,Alexandria city,VA,NA,NA,75.35545023696683,NA,NA
22304,Alexandria city,VA,38.67403314917127,NA,NA,NA,NA
22308,Fairfax County,VA,NA,NA,83.46498156924697,NA,NA
22405,Stafford County,VA,NA,NA,85.09741969457609,NA,NA
22553,Spotsylvania County,VA,NA,NA,NA,95.6433637284701,NA
22554,Stafford County,VA,NA,NA,27.85676671932596,NA,NA
22630,Warren County,VA,NA,NA,22.327540810953135,NA,NA
22664,Shenandoah County,VA,NA,NA,NA,62.61398176291794,NA
22701,Culpeper County,VA,NA,NA,23.012111637704056,NA,NA
22801,Harrisonburg city,VA,NA,NA,NA,38.50050658561297,NA
22802,Harrisonburg city,VA,31.491712707182316,NA,NA,NA,NA
22821,Rockingham County,VA,NA,NA,93.89152185360716,NA,NA
22827,Rockingham County,VA,NA,NA,75.56608741442865,NA,NA
22902,Charlottesville city,VA,NA,NA,NA,NA,76.93574958813838
22968,Greene County,VA,NA,NA,88.20431806213797,NA,NA
22980,Waynesboro city,VA,NA,NA,NA,4.5592705167173255,NA
23093,Louisa County,VA,NA,NA,60.87414428646656,NA,NA
23111,Hanover County,VA,NA,NA,NA,18.74366767983789,NA
23112,Chesterfield County,VA,NA,NA,NA,30.091185410334347,NA
23185,James City County,VA,NA,NA,NA,NA,9.225700164744646
23220,Richmond city,VA,NA,NA,NA,58.35866261398176,NA
23222,Richmond city,VA,NA,NA,NA,NA,40.691927512355846
23227,Henrico County,VA,NA,NA,40.07372301211164,NA,NA
23229,Henrico County,VA,NA,NA,68.82569773565034,NA,NA
23231,Henrico County,VA,NA,NA,NA,NA,33.44316309719934
23323,Chesapeake city,VA,NA,NA,67.87783043707213,NA,NA
23324,Chesapeake city,VA,NA,NA,NA,NA,36.57331136738056
23325,Chesapeake city,VA,NA,NA,NA,66.05876393110435,46.952224052718286
23430,Isle of Wight County,VA,NA,NA,NA,35.66362715298885,NA
23434,Suffolk city,VA,NA,39.53488372093023,NA,NA,NA
23453,Virginia Beach city,VA,NA,NA,NA,NA,62.108731466227354
23455,Virginia Beach city,VA,NA,NA,41.23222748815166,NA,2.9654036243822075
23502,Norfolk city,VA,NA,NA,32.754081095313325,NA,NA
23504,Norfolk city,VA,NA,19.069767441860467,NA,57.85207700101317,NA
23505,Norfolk city,VA,NA,NA,71.77461822011585,35.25835866261398,NA
23518,Norfolk city,VA,NA,NA,NA,NA,21.746293245469523
23602,Newport News city,VA,NA,NA,26.38230647709321,NA,NA
23608,Newport News city,VA,NA,100,NA,NA,NA
23661,Hampton city,VA,NA,NA,NA,88.24721377912867,NA
23666,Hampton city,VA,NA,NA,9.320695102685624,13.37386018237082,NA
23669,Hampton city,VA,NA,NA,NA,16.0081053698075,NA
23703,Portsmouth city,VA,NA,NA,54.60768825697736,NA,NA
23803,Petersburg city,VA,NA,NA,NA,NA,28.665568369028005
23831,Chesterfield County,VA,NA,NA,70.66877303844129,34.447821681864234,NA
23868,Brunswick County,VA,NA,NA,92.52238020010532,NA,NA
23936,Buckingham County,VA,NA,NA,97.99894681411268,NA,NA
23970,Mecklenburg County,VA,NA,NA,NA,NA,63.75617792421746
24014,Roanoke city,VA,NA,NA,NA,NA,64.41515650741351
24015,Roanoke city,VA,NA,NA,75.93470247498684,NA,77.42998352553542
24055,Henry County,VA,NA,NA,63.875724065297526,NA,NA
24073,Montgomery County,VA,NA,NA,40.28436018957346,NA,NA
24171,Patrick County,VA,NA,NA,76.56661400737231,NA,60.79077429983526
24230,Wise County,VA,NA,NA,44.65508162190627,NA,NA
24251,Scott County,VA,NA,NA,85.41337546076882,NA,NA
24301,Pulaski County,VA,NA,NA,57.187993680884674,NA,NA
24343,Carroll County,VA,NA,NA,74.0916271721959,NA,NA
24382,Wythe County,VA,NA,NA,44.76040021063718,NA,NA
24401,Staunton city,VA,NA,NA,36.492890995260666,NA,NA
24416,Buena Vista city,VA,NA,NA,NA,91.7933130699088,NA
24477,Augusta County,VA,NA,NA,NA,52.38095238095239,NA
24501,Lynchburg city,VA,NA,NA,25.38177988414955,NA,NA
24540,Danville city,VA,NA,NA,24.80252764612954,NA,NA
24558,Halifax County,VA,NA,NA,NA,79.63525835866263,NA
98001,King County,WA,NA,NA,40.54765666140074,76.7983789260385,NA
98003,King County,WA,NA,NA,62.29594523433386,NA,27.51235584843493
98006,King County,WA,NA,NA,85.04476040021063,33.130699088145896,NA
98007,King County,WA,NA,90.23255813953487,NA,NA,NA
98008,King County,WA,NA,NA,89.20484465508162,NA,NA
98012,Snohomish County,WA,16.022099447513813,NA,NA,30.192502532928067,NA
98021,Snohomish County,WA,NA,NA,NA,NA,52.22405271828665
98023,King County,WA,NA,NA,NA,73.15096251266465,NA
98030,King County,WA,NA,NA,22.538177988414958,NA,NA
98038,King County,WA,NA,NA,30.753027909426013,NA,NA
98040,King County,WA,NA,NA,NA,60.182370820668694,NA
98043,Snohomish County,WA,NA,NA,92.68035808320168,NA,NA
98051,King County,WA,NA,NA,98.5781990521327,NA,NA
98055,King County,WA,NA,NA,75.88204318062138,NA,NA
98059,King County,WA,NA,NA,NA,68.28774062816616,NA
98072,King County,WA,NA,NA,63.085834649815695,NA,NA
98074,King County,WA,NA,NA,88.67825171142707,NA,NA
98087,Snohomish County,WA,NA,NA,89.25750394944708,NA,NA
98092,King County,WA,NA,NA,21.590310689836755,NA,NA
98101,King County,WA,NA,NA,NA,NA,35.914332784184516
98104,King County,WA,NA,NA,45.33965244865718,NA,88.30313014827018
98105,King County,WA,NA,NA,94.52343338599263,NA,NA
98106,King County,WA,NA,NA,61.61137440758294,NA,NA
98117,King County,WA,NA,NA,62.40126382306477,NA,NA
98121,King County,WA,NA,NA,83.09636650868877,70.41540020263425,NA
98122,King County,WA,NA,NA,NA,NA,53.047775947281714
98133,King County,WA,NA,NA,NA,NA,14.497528830313014
98144,King County,WA,NA,NA,NA,96.1499493414387,NA
98168,King County,WA,NA,NA,NA,32.82674772036474,NA
98178,King County,WA,NA,NA,NA,73.96149949341438,NA
98188,King County,WA,NA,NA,NA,60.68895643363729,NA
98198,King County,WA,NA,NA,39.91574512901527,NA,NA
98208,Snohomish County,WA,NA,NA,18.53607161664034,NA,NA
98221,Skagit County,WA,NA,NA,NA,NA,20.42833607907743
98236,Island County,WA,95.02762430939227,NA,NA,NA,NA
98248,Whatcom County,WA,NA,NA,NA,65.85612968591693,NA
98250,San Juan County,WA,NA,NA,NA,78.52077001013171,NA
98260,Island County,WA,NA,NA,NA,NA,84.51400329489292
98271,Snohomish County,WA,NA,NA,42.232754081095315,NA,NA
98273,Skagit County,WA,NA,NA,87.41442864665613,NA,NA
98274,Skagit County,WA,NA,NA,88.46761453396525,NA,NA
98290,Snohomish County,WA,NA,NA,40.49499736703528,NA,NA
98294,Snohomish County,WA,NA,NA,92.46972090573986,NA,NA
98296,Snohomish County,WA,NA,NA,88.73091100579252,NA,NA
98335,Pierce County,WA,NA,NA,NA,37.89260385005066,NA
98338,Pierce County,WA,NA,NA,NA,36.77811550151976,NA
98363,Clallam County,WA,NA,NA,69.72090573986308,NA,NA
98370,Kitsap County,WA,NA,NA,73.35439705107952,NA,NA
98371,Pierce County,WA,NA,NA,66.40337019483938,NA,NA
98387,Pierce County,WA,NA,NA,20.537124802527646,NA,NA
98391,Pierce County,WA,NA,NA,42.548709847288045,NA,NA
98406,Pierce County,WA,NA,NA,88.09899947340706,NA,NA
98422,Pierce County,WA,NA,NA,NA,88.9564336372847,NA
98445,Pierce County,WA,NA,NA,89.78409689310163,NA,NA
98466,Pierce County,WA,NA,NA,60.716166403370195,NA,NA
98532,Lewis County,WA,NA,NA,69.61558715113217,NA,NA
98577,Pacific County,WA,NA,NA,90.52132701421802,NA,NA
98607,Clark County,WA,NA,NA,NA,86.72745694022291,NA
98611,Cowlitz County,WA,NA,NA,NA,77.4062816616008,NA
98632,Cowlitz County,WA,NA,NA,NA,6.5856129685916915,NA
98682,Clark County,WA,NA,NA,NA,NA,73.64085667215815
98902,Yakima County,WA,NA,NA,NA,27.760891590678828,NA
98926,Kittitas County,WA,NA,NA,52.81727224855187,NA,NA
98942,Yakima County,WA,NA,NA,NA,68.18642350557245,NA
99016,Spokane County,WA,NA,NA,88.25697735650341,NA,NA
99021,Spokane County,WA,NA,NA,NA,97.7710233029382,NA
99114,Stevens County,WA,NA,NA,NA,NA,93.90444810543657
99208,Spokane County,WA,NA,NA,37.17746182201159,NA,NA
99320,Benton County,WA,NA,NA,88.5202738283307,NA,NA
99338,Benton County,WA,NA,NA,93.41758820431806,NA,NA
99352,Benton County,WA,NA,NA,NA,NA,5.107084019769357
99353,Benton County,WA,54.972375690607734,NA,NA,NA,NA
99354,Benton County,WA,NA,NA,74.46024223275408,NA,NA
20001,District of Columbia,DC,NA,NA,52.922590837282776,NA,NA
20005,District of Columbia,DC,NA,NA,NA,83.68794326241135,NA
20009,District of Columbia,DC,NA,NA,80.67403896787782,NA,NA
20010,District of Columbia,DC,NA,NA,52.23802001053186,51.671732522796354,94.89291598023064
20015,District of Columbia,DC,NA,NA,NA,NA,71.16968698517299
20018,District of Columbia,DC,NA,NA,75.03949447077409,NA,NA
20019,District of Columbia,DC,NA,NA,18.272775144813057,NA,NA
20020,District of Columbia,DC,NA,NA,1.474460242232754,NA,NA
20024,District of Columbia,DC,NA,NA,57.71458662453923,NA,96.54036243822077
24740,Mercer County,WV,NA,NA,27.593470247498686,NA,NA
25143,Kanawha County,WV,NA,NA,93.36492890995261,NA,NA
25271,Jackson County,WV,NA,NA,NA,NA,63.26194398682043
25313,Kanawha County,WV,NA,NA,89.83675618746709,NA,NA
25314,Kanawha County,WV,77.62430939226519,NA,NA,NA,NA
25427,Berkeley County,WV,NA,NA,64.56029489204845,NA,NA
25670,Mingo County,WV,NA,NA,NA,NA,89.45634266886327
25701,Cabell County,WV,NA,NA,NA,18.84498480243161,NA
25704,Wayne County,WV,NA,NA,25.434439178515007,NA,NA
25705,Cabell County,WV,52.48618784530387,NA,NA,NA,NA
26003,Ohio County,WV,NA,NA,4.0547656661400735,NA,NA
26041,Marshall County,WV,NA,NA,45.129015271195364,NA,NA
26070,Brooke County,WV,NA,NA,75.09215376513954,NA,NA
26101,Wood County,WV,NA,NA,NA,7.3961499493414395,NA
26104,Wood County,WV,NA,NA,84.2548709847288,NA,NA
26187,Wood County,WV,NA,NA,NA,56.73758865248227,NA
26301,Harrison County,WV,NA,NA,NA,45.2887537993921,NA
26505,Monongalia County,WV,NA,NA,7.793575566087414,NA,NA
26508,Monongalia County,WV,NA,NA,3.686150605581885,NA,NA
26554,Marion County,WV,21.2707182320442,NA,NA,NA,NA
26601,Braxton County,WV,NA,NA,95.78725645076356,NA,NA
26726,Mineral County,WV,NA,NA,40.02106371774618,NA,NA
53022,Washington County,WI,NA,NA,NA,52.78622087132725,NA
53037,Washington County,WI,NA,NA,90.31068983675618,NA,NA
53073,Sheboygan County,WI,NA,NA,85.15007898894154,NA,NA
53090,Washington County,WI,NA,NA,NA,98.68287740628166,NA
53092,Ozaukee County,WI,NA,NA,NA,NA,19.43986820428336
53119,Waukesha County,WI,NA,NA,NA,99.08814589665653,NA
53140,Kenosha County,WI,NA,NA,NA,NA,27.182866556836906
53142,Kenosha County,WI,NA,NA,7.898894154818326,NA,NA
53143,Kenosha County,WI,NA,NA,NA,31.813576494427558,NA
53151,Waukesha County,WI,NA,NA,37.96735123749342,NA,NA
53158,Kenosha County,WI,NA,NA,NA,31.00303951367781,NA
53168,Kenosha County,WI,NA,NA,85.5713533438652,NA,NA
53172,Milwaukee County,WI,NA,NA,34.17588204318062,NA,NA
53179,Kenosha County,WI,NA,NA,NA,NA,100
53185,Racine County,WI,NA,NA,NA,56.838905775075986,NA
53186,Waukesha County,WI,NA,NA,24.539231174302266,NA,70.34596375617792
53204,Milwaukee County,WI,NA,NA,4.79199578725645,NA,NA
53205,Milwaukee County,WI,NA,NA,1.7377567140600316,NA,96.37561779242174
53207,Milwaukee County,WI,NA,NA,23.32806740389679,NA,NA
53208,Milwaukee County,WI,31.767955801104975,NA,9.689310163243812,NA,NA
53209,Milwaukee County,WI,NA,NA,14.323328067403896,NA,NA
53211,Milwaukee County,WI,NA,NA,NA,NA,42.00988467874794
53213,Milwaukee County,WI,NA,NA,48.973143759873615,NA,NA
53215,Milwaukee County,WI,NA,NA,NA,94.02228976697062,NA
53216,Milwaukee County,WI,NA,NA,24.275934702474984,NA,NA
53217,Milwaukee County,WI,32.04419889502763,NA,33.175355450236964,NA,NA
53218,Milwaukee County,WI,NA,53.02325581395348,NA,NA,NA
53219,Milwaukee County,WI,NA,NA,15.955766192733018,NA,16.30971993410214
53223,Milwaukee County,WI,NA,NA,14.691943127962084,NA,NA
53225,Milwaukee County,WI,NA,NA,57.97788309636651,NA,NA
53227,Milwaukee County,WI,NA,NA,NA,59.979736575481255,NA
53402,Racine County,WI,NA,NA,22.906793048973142,42.14792299898683,NA
53403,Racine County,WI,NA,NA,66.92996313849395,NA,NA
53405,Racine County,WI,NA,NA,59.66298051606108,NA,NA
53406,Racine County,WI,NA,NA,NA,20.263424518743665,3.459637561779242
53511,Rock County,WI,NA,NA,NA,NA,0
53538,Jefferson County,WI,NA,NA,NA,NA,29.159802306425043
53546,Rock County,WI,NA,NA,NA,4.761904761904762,NA
53549,Jefferson County,WI,NA,NA,NA,56.12968591691996,NA
53551,Jefferson County,WI,NA,NA,NA,79.22998986828775,NA
53562,Dane County,WI,NA,NA,NA,29.2806484295846,NA
53563,Rock County,WI,NA,NA,82.46445497630332,NA,NA
53572,Dane County,WI,NA,NA,NA,78.11550151975683,NA
53581,Richland County,WI,NA,NA,97.94628751974723,NA,NA
53589,Dane County,WI,NA,NA,92.94365455502897,NA,NA
53590,Dane County,WI,NA,NA,71.45866245392311,44.37689969604863,NA
53704,Dane County,WI,NA,NA,NA,19.55420466058764,38.220757825370676
53705,Dane County,WI,NA,NA,99.78936282253818,NA,17.1334431630972
53711,Dane County,WI,NA,NA,30.173775671406005,NA,49.9176276771005
53713,Dane County,WI,NA,NA,NA,NA,40.527182866556835
53719,Dane County,WI,NA,NA,NA,44.57953394123607,NA
53813,Grant County,WI,88.95027624309392,NA,NA,NA,NA
53818,Grant County,WI,93.92265193370166,91.16279069767442,NA,NA,NA
53913,Sauk County,WI,NA,NA,NA,20.77001013171226,NA
53948,Juneau County,WI,NA,NA,85.41337546076882,NA,NA
53959,Sauk County,WI,NA,74.4186046511628,NA,NA,NA
54001,Polk County,WI,NA,NA,NA,NA,55.84843492586491
54016,St. Croix County,WI,NA,NA,NA,NA,44.481054365733115
54020,Polk County,WI,NA,NA,NA,87.2340425531915,NA
54024,Polk County,WI,NA,NA,NA,NA,98.18780889621087
54130,Outagamie County,WI,NA,NA,NA,87.53799392097264,NA
54143,Marinette County,WI,NA,NA,47.76197998946814,NA,NA
54166,Shawano County,WI,NA,NA,70.82675092153765,NA,NA
54216,Kewaunee County,WI,NA,NA,NA,94.22492401215806,NA
54302,Brown County,WI,NA,NA,22.959452343338597,NA,NA
54304,Brown County,WI,NA,NA,NA,50.658561296859176,NA
54311,Brown County,WI,NA,NA,NA,NA,25.04118616144975
54409,Langlade County,WI,NA,NA,NA,NA,12.026359143327841
54452,Lincoln County,WI,NA,NA,81.93786203264877,NA,NA
54457,Wood County,WI,NA,NA,98.31490258030541,64.6403242147923,67.21581548599671
54467,Portage County,WI,27.624309392265197,NA,NA,NA,NA
54476,Marathon County,WI,NA,NA,NA,90.78014184397163,NA
54481,Portage County,WI,NA,NA,17.640863612427594,NA,10.378912685337728
54494,Wood County,WI,NA,NA,NA,74.16413373860182,NA
54534,Iron County,WI,NA,92.09302325581396,NA,NA,NA
54603,La Crosse County,WI,NA,70.69767441860465,52.81727224855187,NA,NA
54646,Juneau County,WI,97.51381215469614,NA,NA,NA,NA
54650,La Crosse County,WI,NA,NA,82.83307003686151,10.435663627152989,25.53542009884679
54665,Vernon County,WI,NA,NA,NA,NA,57.33113673805601
54669,La Crosse County,WI,NA,NA,96.57714586624539,52.27963525835866,NA
54729,Chippewa County,WI,NA,NA,NA,24.620060790273556,NA
54751,Dunn County,WI,32.59668508287293,NA,32.12216956292785,NA,NA
54837,Polk County,WI,NA,NA,NA,91.89463019250253,NA
54840,Burnett County,WI,NA,NA,94.41811479726172,NA,NA
54880,Douglas County,WI,14.3646408839779,NA,NA,3.4447821681864235,2.3064250411861615
54929,Waupaca County,WI,NA,NA,90.8899420747762,NA,NA
54952,Winnebago County,WI,51.38121546961326,NA,NA,NA,NA
54971,Fond du Lac County,WI,NA,NA,NA,53.90070921985816,NA
82501,Fremont County,WY,NA,NA,NA,NA,83.52553542009885
82601,Natrona County,WY,NA,NA,78.30437072143233,NA,NA
82834,Johnson County,WY,NA,NA,NA,NA,83.69028006589787
