ZipCode,county,state,Adult,Retirement,Geriatric
35007,Shelby County,AL,45.851528384279476,NA,NA
35160,Talladega County,AL,NA,42.34527687296417,NA
35215,Jefferson County,AL,7.860262008733625,NA,NA
35244,Jefferson County,AL,NA,NA,54.25531914893617
35405,Tuscaloosa County,AL,NA,11.726384364820847,NA
35563,Marion County,AL,NA,76.54723127035831,NA
35581,Franklin County,AL,NA,NA,95.74468085106383
35811,Madison County,AL,NA,NA,62.76595744680851
35959,Cherokee County,AL,NA,NA,97.3404255319149
36116,Montgomery County,AL,NA,NA,71.27659574468085
36207,Calhoun County,AL,51.96506550218341,NA,NA
36330,Coffee County,AL,39.737991266375545,NA,44.680851063829785
36426,Escambia County,AL,NA,NA,60.1063829787234
99801,Juneau City and Borough,AK,NA,57.32899022801303,NA
99835,Sitka City and Borough,AK,82.09606986899564,NA,NA
99901,Ketchikan Gateway Borough,AK,68.5589519650655,NA,NA
85008,Maricopa County,AZ,NA,NA,90.42553191489363
85014,Maricopa County,AZ,89.51965065502183,NA,NA
85029,Maricopa County,AZ,NA,NA,43.08510638297872
85048,Maricopa County,AZ,NA,89.25081433224756,NA
85140,Pinal County,AZ,NA,40.71661237785016,NA
85226,Maricopa County,AZ,NA,NA,89.8936170212766
85249,Maricopa County,AZ,NA,35.50488599348534,NA
85251,Maricopa County,AZ,NA,NA,30.319148936170215
85395,Maricopa County,AZ,NA,NA,59.57446808510638
85705,Pima County,AZ,NA,7.81758957654723,NA
85710,Pima County,AZ,NA,NA,29.78723404255319
85749,Pima County,AZ,NA,37.13355048859935,NA
71730,Union County,AR,NA,55.048859934853425,NA
71909,Garland County,AR,NA,31.921824104234524,NA
72012,White County,AR,NA,NA,61.170212765957444
72110,Conway County,AR,NA,NA,57.97872340425532
72205,Pulaski County,AR,NA,49.5114006514658,NA
90025,Los Angeles County,CA,NA,NA,78.19148936170212
90275,Los Angeles County,CA,52.838427947598255,NA,NA
90504,Los Angeles County,CA,NA,NA,82.97872340425532
90606,Los Angeles County,CA,97.37991266375546,NA,NA
90630,Orange County,CA,NA,19.86970684039088,34.04255319148936
90631,Orange County,CA,NA,16.612377850162865,NA
90706,Los Angeles County,CA,NA,83.38762214983714,NA
91331,Los Angeles County,CA,NA,17.58957654723127,NA
91343,Los Angeles County,CA,NA,44.299674267100976,NA
91423,Los Angeles County,CA,NA,NA,46.808510638297875
91506,Los Angeles County,CA,NA,77.52442996742671,NA
91607,Los Angeles County,CA,NA,87.62214983713355,NA
91745,Los Angeles County,CA,NA,NA,19.680851063829788
91764,San Bernardino County,CA,31.4410480349345,NA,NA
91945,San Diego County,CA,NA,60.26058631921825,NA
91950,San Diego County,CA,30.567685589519648,33.876221498371336,NA
91977,San Diego County,CA,29.694323144104807,NA,NA
92037,San Diego County,CA,NA,NA,18.617021276595743
92103,San Diego County,CA,39.737991266375545,NA,NA
92116,San Diego County,CA,70.74235807860262,NA,NA
92201,Riverside County,CA,NA,NA,69.68085106382979
92284,San Bernardino County,CA,22.707423580786028,NA,NA
92337,San Bernardino County,CA,53.711790393013104,NA,NA
92562,Riverside County,CA,NA,33.55048859934853,NA
92660,Orange County,CA,NA,75.8957654723127,NA
92677,Orange County,CA,NA,38.43648208469055,NA
92804,Orange County,CA,NA,NA,19.148936170212767
93212,Kings County,CA,95.63318777292577,NA,NA
93420,San Luis Obispo County,CA,65.93886462882097,NA,NA
93436,Santa Barbara County,CA,17.46724890829694,NA,NA
93619,Fresno County,CA,36.24454148471616,NA,NA
93702,Fresno County,CA,25.327510917030565,NA,NA
93710,Fresno County,CA,NA,45.27687296416938,NA
93901,Monterey County,CA,NA,NA,47.340425531914896
94044,San Mateo County,CA,NA,26.058631921824105,NA
94114,San Francisco County,CA,NA,NA,81.91489361702128
94506,Contra Costa County,CA,NA,NA,70.2127659574468
94509,Contra Costa County,CA,76.41921397379913,NA,NA
94706,Alameda County,CA,NA,91.85667752442997,NA
94920,Marin County,CA,89.08296943231441,NA,NA
95032,Santa Clara County,CA,NA,NA,43.61702127659575
95110,Santa Clara County,CA,96.94323144104804,NA,NA
95148,Santa Clara County,CA,63.75545851528385,NA,NA
95207,San Joaquin County,CA,19.65065502183406,NA,NA
95210,San Joaquin County,CA,NA,74.2671009771987,NA
95240,San Joaquin County,CA,NA,66.12377850162866,NA
95327,Tuolumne County,CA,NA,50.4885993485342,NA
95360,Stanislaus County,CA,79.03930131004367,NA,NA
95619,El Dorado County,CA,NA,71.9869706840391,NA
95677,Placer County,CA,NA,NA,73.93617021276596
95969,Butte County,CA,27.074235807860266,NA,NA
80012,Arapahoe County,CO,33.18777292576419,NA,NA
80013,Arapahoe County,CO,8.296943231441048,NA,NA
80107,Elbert County,CO,NA,67.75244299674267,NA
80112,Arapahoe County,CO,NA,93.81107491856677,NA
80129,Douglas County,CO,NA,NA,86.17021276595744
80132,El Paso County,CO,NA,51.465798045602604,NA
80224,Denver County,CO,57.64192139737992,NA,NA
80525,Larimer County,CO,17.03056768558952,NA,NA
81082,Las Animas County,CO,62.00873362445415,NA,NA
06002,Hartford County,CT,NA,70.03257328990227,NA
06117,Hartford County,CT,NA,NA,82.4468085106383
06405,New Haven County,CT,35.80786026200873,NA,NA
06475,Middlesex County,CT,NA,73.28990228013029,NA
06513,New Haven County,CT,5.240174672489083,NA,NA
06608,Fairfield County,CT,91.70305676855895,NA,NA
06770,New Haven County,CT,21.83406113537118,NA,NA
19711,New Castle County,DE,NA,39.08794788273616,NA
19958,Sussex County,DE,NA,NA,8.51063829787234
32034,Nassau County,FL,44.97816593886463,NA,NA
32162,Sumter County,FL,NA,NA,2.6595744680851063
32209,Duval County,FL,NA,13.680781758957655,NA
32250,Duval County,FL,NA,30.944625407166125,NA
32413,Bay County,FL,NA,98.69706840390879,NA
32507,Escambia County,FL,NA,NA,12.23404255319149
32550,Walton County,FL,NA,48.534201954397396,NA
32579,Okaloosa County,FL,NA,NA,84.04255319148936
32696,Levy County,FL,NA,45.928338762214985,NA
32712,Orange County,FL,NA,59.60912052117264,NA
32908,Brevard County,FL,NA,74.5928338762215,NA
32940,Brevard County,FL,NA,25.0814332247557,NA
32955,Brevard County,FL,NA,21.824104234527688,NA
33012,Miami-Dade County,FL,NA,NA,4.25531914893617
33016,Miami-Dade County,FL,76.85589519650655,NA,NA
33064,Broward County,FL,NA,NA,10.106382978723403
33141,Miami-Dade County,FL,81.6593886462882,NA,NA
33157,Miami-Dade County,FL,NA,20.521172638436482,NA
33162,Miami-Dade County,FL,NA,52.44299674267101,NA
33411,Palm Beach County,FL,32.751091703056765,NA,NA
33434,Palm Beach County,FL,NA,NA,24.46808510638298
33455,Martin County,FL,80.34934497816593,NA,NA
33486,Palm Beach County,FL,NA,45.60260586319218,NA
33513,Sumter County,FL,NA,71.66123778501628,NA
33598,Hillsborough County,FL,NA,60.586319218241044,NA
33647,Hillsborough County,FL,NA,NA,34.57446808510639
33702,Pinellas County,FL,NA,88.27361563517914,NA
33705,Pinellas County,FL,NA,NA,39.8936170212766
33825,Highlands County,FL,NA,NA,54.78723404255319
33881,Polk County,FL,NA,32.89902280130293,NA
33914,Lee County,FL,NA,14.332247557003258,NA
34135,Lee County,FL,NA,NA,41.48936170212766
34238,Sarasota County,FL,NA,NA,26.595744680851062
34285,Sarasota County,FL,NA,78.50162866449512,NA
30005,Fulton County,GA,NA,85.99348534201955,NA
30062,Cobb County,GA,37.117903930131,NA,NA
30122,Douglas County,GA,50.65502183406113,NA,NA
30125,Polk County,GA,32.314410480349345,NA,NA
30127,Cobb County,GA,NA,NA,68.08510638297872
30144,Cobb County,GA,NA,NA,52.12765957446809
30153,Polk County,GA,68.99563318777294,NA,NA
30215,Fayette County,GA,NA,59.934853420195445,NA
30265,Coweta County,GA,NA,38.762214983713356,NA
30276,Coweta County,GA,NA,NA,75
30306,Fulton County,GA,NA,85.01628664495115,NA
30307,DeKalb County,GA,NA,NA,98.93617021276596
30309,Fulton County,GA,NA,85.66775244299674,NA
30354,Fulton County,GA,NA,64.16938110749186,NA
30439,Candler County,GA,NA,68.07817589576547,NA
30474,Toombs County,GA,NA,62.866449511400646,NA
30643,Hart County,GA,59.82532751091703,NA,NA
31015,Crisp County,GA,41.48471615720524,NA,NA
31028,Houston County,GA,NA,NA,94.68085106382979
31513,Appling County,GA,NA,NA,90.95744680851064
31792,Thomas County,GA,65.50218340611353,NA,NA
31822,Harris County,GA,NA,NA,92.5531914893617
96786,Honolulu County,HI,75.10917030567686,NA,NA
96816,Honolulu County,HI,NA,16.938110749185668,NA
96817,Honolulu County,HI,35.37117903930131,NA,NA
83338,Jerome County,ID,NA,24.429967426710096,36.17021276595745
83702,Ada County,ID,NA,NA,35.1063829787234
83704,Ada County,ID,NA,NA,35.638297872340424
83709,Ada County,ID,NA,72.63843648208469,NA
83713,Ada County,ID,NA,NA,11.702127659574469
83716,Ada County,ID,45.414847161572055,NA,NA
83835,Kootenai County,ID,NA,72.31270358306189,NA
83858,Kootenai County,ID,NA,57.00325732899023,NA
60010,Lake County,IL,NA,NA,50
60022,Cook County,IL,96.06986899563319,NA,NA
60053,Cook County,IL,NA,81.10749185667753,NA
60060,Lake County,IL,41.92139737991266,NA,NA
60061,Lake County,IL,NA,NA,94.14893617021278
60064,Lake County,IL,90.39301310043668,NA,NA
60124,Kane County,IL,NA,54.72312703583062,NA
60172,DuPage County,IL,58.07860262008734,NA,NA
60192,Cook County,IL,NA,91.53094462540716,NA
60201,Cook County,IL,NA,21.172638436482085,65.95744680851064
60431,Will County,IL,NA,39.413680781758956,NA
60453,Cook County,IL,NA,NA,58.51063829787234
60459,Cook County,IL,NA,NA,37.765957446808514
60487,Cook County,IL,51.09170305676856,NA,NA
60517,DuPage County,IL,NA,33.22475570032573,NA
60559,DuPage County,IL,69.86899563318777,NA,NA
60632,Cook County,IL,13.537117903930133,NA,NA
60633,Cook County,IL,NA,NA,76.06382978723404
60638,Cook County,IL,NA,8.143322475570033,NA
60649,Cook County,IL,14.41048034934498,NA,16.48936170212766
60707,Cook County,IL,NA,38.11074918566775,NA
60901,Kankakee County,IL,NA,12.703583061889251,NA
60914,Kankakee County,IL,NA,79.80456026058633,NA
61265,Rock Island County,IL,NA,NA,11.170212765957446
61401,Knox County,IL,NA,NA,51.59574468085106
61604,Peoria County,IL,NA,89.57654723127035,NA
61611,Tazewell County,IL,NA,NA,66.48936170212765
62040,Madison County,IL,48.03493449781659,NA,NA
46016,Madison County,IN,NA,NA,64.36170212765957
46036,Madison County,IN,55.021834061135365,NA,NA
46107,Marion County,IN,NA,95.43973941368078,NA
46123,Hendricks County,IN,NA,63.84364820846905,NA
46239,Marion County,IN,77.72925764192141,NA,NA
46268,Marion County,IN,NA,NA,23.93617021276596
46307,Lake County,IN,3.056768558951965,NA,NA
46526,Elkhart County,IN,NA,NA,63.829787234042556
46774,Allen County,IN,NA,40.390879478827365,NA
46807,Allen County,IN,46.288209606986904,NA,NA
46814,Allen County,IN,78.16593886462883,NA,NA
46818,Allen County,IN,34.49781659388647,NA,NA
50325,Polk County,IA,NA,82.41042345276874,NA
50461,Mitchell County,IA,NA,76.2214983713355,NA
52328,Linn County,IA,99.12663755458514,NA,NA
52601,Des Moines County,IA,NA,NA,67.5531914893617
52722,Scott County,IA,NA,55.37459283387622,NA
66061,Johnson County,KS,NA,5.211726384364821,NA
66503,Riley County,KS,NA,NA,98.40425531914893
40216,Jefferson County,KY,29.257641921397383,NA,NA
40509,Fayette County,KY,NA,37.785016286644954,NA
41040,Pendleton County,KY,65.06550218340611,NA,NA
41071,Campbell County,KY,NA,81.75895765472313,NA
41501,Pike County,KY,NA,NA,22.340425531914892
41553,Pike County,KY,NA,NA,100
42101,Warren County,KY,NA,15.63517915309446,NA
42276,Logan County,KY,50.21834061135371,NA,NA
70006,Jefferson Parish,LA,NA,NA,21.27659574468085
70354,Lafourche Parish,LA,NA,99.0228013029316,NA
70363,Terrebonne Parish,LA,57.20524017467249,NA,NA
70503,Lafayette Parish,LA,NA,66.77524429967427,NA
70507,Lafayette Parish,LA,NA,NA,99.46808510638297
70520,Lafayette Parish,LA,21.397379912663755,NA,NA
70563,Iberia Parish,LA,66.37554585152839,NA,NA
70582,St. Martin Parish,LA,26.200873362445414,NA,NA
70791,East Baton Rouge Parish,LA,13.100436681222707,NA,NA
70810,East Baton Rouge Parish,LA,NA,54.071661237785015,NA
70811,East Baton Rouge Parish,LA,NA,61.88925081433225,NA
70820,East Baton Rouge Parish,LA,71.17903930131004,NA,NA
71115,Caddo Parish,LA,NA,74.9185667752443,NA
71220,Morehouse Parish,LA,NA,77.85016286644951,NA
71291,Ouachita Parish,LA,9.606986899563319,NA,NA
04083,York County,ME,NA,82.08469055374593,NA
04330,Kennebec County,ME,6.11353711790393,NA,NA
04849,Waldo County,ME,NA,NA,85.1063829787234
04915,Waldo County,ME,87.77292576419214,NA,NA
20653,St. Mary's County,MD,61.135371179039296,NA,NA
20705,Prince George's County,MD,NA,84.36482084690554,NA
20706,Prince George's County,MD,NA,NA,73.40425531914893
20708,Prince George's County,MD,92.13973799126637,NA,NA
21037,Anne Arundel County,MD,67.68558951965066,NA,NA
21204,Baltimore County,MD,NA,65.79804560260585,NA
21218,Baltimore city,MD,8.73362445414847,NA,NA
21502,Allegany County,MD,NA,18.566775244299674,NA
01002,Hampshire County,MA,NA,NA,55.319148936170215
01082,Hampshire County,MA,NA,35.83061889250814,NA
01109,Hampden County,MA,NA,60.91205211726385,NA
01504,Worcester County,MA,86.02620087336244,NA,NA
01510,Worcester County,MA,NA,94.78827361563518,NA
01519,Worcester County,MA,86.46288209606988,NA,NA
01702,Middlesex County,MA,NA,NA,21.808510638297875
01752,Middlesex County,MA,NA,12.37785016286645,NA
01760,Middlesex County,MA,31.004366812227076,NA,NA
01843,Essex County,MA,NA,47.23127035830619,NA
01890,Middlesex County,MA,NA,NA,9.042553191489363
01950,Essex County,MA,NA,51.79153094462541,NA
02061,Plymouth County,MA,NA,78.82736156351791,NA
02114,Suffolk County,MA,72.48908296943232,NA,40.42553191489361
02116,Suffolk County,MA,NA,3.257328990228013,NA
02119,Suffolk County,MA,0.43668122270742354,NA,NA
02125,Suffolk County,MA,1.7467248908296942,NA,NA
02132,Suffolk County,MA,NA,46.90553745928339,NA
02138,Middlesex County,MA,84.27947598253274,NA,NA
02145,Middlesex County,MA,NA,NA,7.9787234042553195
02149,Middlesex County,MA,NA,NA,1.0638297872340425
02155,Middlesex County,MA,NA,18.892508143322477,NA
02301,Plymouth County,MA,NA,0,NA
02351,Plymouth County,MA,NA,22.475570032573287,NA
02445,Norfolk County,MA,NA,58.95765472312704,NA
02467,Norfolk County,MA,NA,29.31596091205212,NA
02478,Middlesex County,MA,NA,22.80130293159609,NA
02540,Barnstable County,MA,NA,NA,28.191489361702125
02740,Bristol County,MA,0,NA,NA
02780,Bristol County,MA,1.3100436681222707,NA,NA
02790,Bristol County,MA,NA,23.778501628664493,NA
48015,Macomb County,MI,NA,NA,74.46808510638297
48038,Macomb County,MI,NA,27.68729641693811,NA
48088,Macomb County,MI,NA,NA,17.02127659574468
48091,Macomb County,MI,NA,15.309446254071663,NA
48130,Washtenaw County,MI,91.26637554585153,NA,NA
48154,Wayne County,MI,NA,NA,5.319148936170213
48161,Monroe County,MI,6.986899563318777,NA,32.4468085106383
48162,Monroe County,MI,NA,NA,44.148936170212764
48183,Wayne County,MI,NA,6.840390879478828,NA
48186,Wayne County,MI,NA,10.423452768729643,NA
48188,Wayne County,MI,56.33187772925764,NA,NA
48197,Washtenaw County,MI,NA,1.6286644951140066,NA
48223,Wayne County,MI,74.235807860262,NA,NA
48224,Wayne County,MI,3.9301310043668125,NA,NA
48229,Wayne County,MI,52.40174672489083,NA,NA
48374,Oakland County,MI,NA,NA,96.27659574468085
48381,Oakland County,MI,62.882096069869,NA,NA
48471,Sanilac County,MI,NA,71.00977198697068,NA
48625,Clare County,MI,NA,80.13029315960912,NA
48843,Livingston County,MI,12.663755458515283,NA,NA
49001,Kalamazoo County,MI,NA,48.85993485342019,NA
49006,Kalamazoo County,MI,43.66812227074236,NA,NA
49013,Van Buren County,MI,85.58951965065502,NA,NA
49045,Van Buren County,MI,NA,90.87947882736157,NA
49099,St. Joseph County,MI,NA,NA,95.2127659574468
49316,Kent County,MI,73.36244541484717,NA,NA
49341,Kent County,MI,NA,52.76872964169381,NA
49418,Kent County,MI,NA,54.39739413680782,NA
49441,Muskegon County,MI,12.22707423580786,NA,3.1914893617021276
49696,Grand Traverse County,MI,NA,61.563517915309454,NA
49749,Cheboygan County,MI,NA,73.9413680781759,NA
49855,Marquette County,MI,16.157205240174672,NA,NA
55008,Isanti County,MN,NA,NA,88.82978723404256
55024,Dakota County,MN,NA,75.2442996742671,NA
55104,Ramsey County,MN,39.30131004366812,NA,NA
55108,Ramsey County,MN,83.84279475982532,NA,NA
55110,Ramsey County,MN,NA,NA,31.382978723404253
55112,Ramsey County,MN,NA,67.10097719869707,NA
55113,Ramsey County,MN,NA,79.47882736156352,NA
55318,Carver County,MN,NA,NA,62.23404255319149
55337,Dakota County,MN,75.54585152838428,NA,NA
55343,Hennepin County,MN,NA,NA,78.72340425531915
55352,Scott County,MN,NA,94.46254071661238,NA
55413,Hennepin County,MN,NA,42.99674267100978,NA
55718,Carlton County,MN,100,NA,NA
55803,St. Louis County,MN,NA,NA,27.127659574468083
55811,St. Louis County,MN,NA,NA,2.127659574468085
55987,Winona County,MN,NA,2.9315960912052117,NA
56345,Morrison County,MN,NA,NA,59.04255319148937
56425,Crow Wing County,MN,NA,NA,29.25531914893617
56472,Crow Wing County,MN,NA,NA,53.191489361702125
56560,Clay County,MN,NA,3.908794788273615,NA
56721,Polk County,MN,NA,NA,27.127659574468083
38654,DeSoto County,MS,NA,20.846905537459286,NA
38663,Tippah County,MS,67.24890829694323,NA,NA
38866,Lee County,MS,95.19650655021834,NA,NA
39208,Rankin County,MS,34.06113537117904,NA,NA
39503,Harrison County,MS,NA,NA,26.063829787234045
39553,Jackson County,MS,82.53275109170306,NA,NA
39759,Oktibbeha County,MS,NA,NA,56.91489361702128
63124,St. Louis County,MO,99.56331877729258,NA,NA
63129,St. Louis County,MO,38.864628820960704,NA,NA
63801,Scott County,MO,NA,NA,14.893617021276595
64083,Cass County,MO,NA,37.45928338762215,NA
64111,Jackson County,MO,22.270742358078603,NA,NA
64113,Jackson County,MO,NA,NA,80.31914893617021
64644,Caldwell County,MO,NA,99.6742671009772,NA
65807,Greene County,MO,NA,NA,6.382978723404255
59101,Yellowstone County,MT,NA,NA,10.638297872340425
59102,Yellowstone County,MT,NA,4.88599348534202,NA
59404,Cascade County,MT,NA,9.446254071661238,NA
59602,Lewis and Clark County,MT,NA,30.618892508143325,NA
68701,Madison County,NE,NA,85.34201954397395,NA
68850,Dawson County,NE,NA,90.55374592833876,NA
68901,Adams County,NE,NA,64.49511400651465,NA
89113,Clark County,NV,NA,87.94788273615634,NA
89519,Washoe County,NV,NA,75.57003257328991,NA
03052,Hillsborough County,NH,NA,64.82084690553745,NA
03079,Rockingham County,NH,NA,17.263843648208468,NA
03254,Carroll County,NH,NA,92.50814332247556,NA
03458,Hillsborough County,NH,NA,67.42671009771986,NA
03878,Strafford County,NH,NA,57.98045602605863,NA
07026,Bergen County,NJ,NA,27.36156351791531,NA
07078,Essex County,NJ,NA,86.64495114006515,NA
07087,Hudson County,NJ,NA,5.537459283387622,NA
07305,Hudson County,NJ,NA,NA,20.212765957446805
07463,Bergen County,NJ,NA,97.06840390879479,NA
07501,Passaic County,NJ,NA,15.960912052117262,NA
07748,Monmouth County,NJ,72.0524017467249,NA,NA
07885,Morris County,NJ,NA,64.82084690553745,NA
08053,Burlington County,NJ,NA,NA,45.21276595744681
08087,Ocean County,NJ,17.903930131004365,NA,NA
08332,Cumberland County,NJ,NA,NA,36.702127659574465
08759,Ocean County,NJ,NA,NA,5.851063829787234
08854,Middlesex County,NJ,7.423580786026202,NA,NA
87105,Bernalillo County,NM,47.59825327510917,NA,NA
87108,Bernalillo County,NM,NA,5.863192182410423,NA
87508,Santa Fe County,NM,NA,83.06188925081433,NA
87571,Taos County,NM,49.78165938864629,NA,NA
87701,San Miguel County,NM,94.32314410480349,NA,NA
10001,New York County,NY,NA,NA,42.5531914893617
10016,New York County,NY,NA,68.72964169381108,NA
10029,New York County,NY,2.6200873362445414,NA,NA
10456,Bronx County,NY,0.8733624454148471,NA,NA
10463,Bronx County,NY,NA,3.5830618892508146,NA
10475,Bronx County,NY,NA,53.74592833876222,NA
10801,Westchester County,NY,27.510917030567683,NA,NA
11207,Kings County,NY,2.1834061135371177,NA,NA
11220,Kings County,NY,4.8034934497816595,NA,NA
11221,Kings County,NY,NA,51.14006514657981,NA
11224,Kings County,NY,18.777292576419214,NA,NA
11237,Kings County,NY,79.47598253275109,NA,NA
11434,Queens County,NY,37.99126637554585,NA,NA
11561,Nassau County,NY,97.81659388646288,NA,NA
11570,Nassau County,NY,NA,NA,38.82978723404255
12020,Saratoga County,NY,NA,53.09446254071661,NA
12563,Putnam County,NY,NA,96.74267100977198,NA
12946,Essex County,NY,NA,NA,89.36170212765957
12972,Clinton County,NY,NA,61.23778501628665,NA
13045,Cortland County,NY,NA,8.469055374592834,NA
13126,Oswego County,NY,NA,7.166123778501629,NA
13143,Wayne County,NY,NA,96.09120521172639,NA
13207,Onondaga County,NY,58.951965065502186,NA,NA
13790,Broome County,NY,28.82096069868996,NA,NA
13815,Chenango County,NY,14.847161572052403,NA,NA
13827,Tioga County,NY,77.29257641921397,NA,NA
13850,Broome County,NY,61.572052401746724,NA,NA
14043,Erie County,NY,27.947598253275107,NA,NA
14075,Erie County,NY,NA,6.514657980456026,NA
14086,Erie County,NY,NA,19.218241042345277,NA
14094,Niagara County,NY,3.4934497816593884,NA,NA
14150,Erie County,NY,NA,NA,14.893617021276595
14450,Monroe County,NY,NA,0.9771986970684038,NA
14472,Monroe County,NY,NA,28.013029315960914,NA
14512,Ontario County,NY,NA,56.35179153094463,NA
14519,Wayne County,NY,48.90829694323144,NA,NA
14522,Wayne County,NY,NA,26.384364820846905,NA
14534,Monroe County,NY,41.04803493449782,NA,NA
14559,Monroe County,NY,10.480349344978166,NA,NA
14610,Monroe County,NY,72.92576419213974,NA,NA
14611,Monroe County,NY,NA,NA,48.93617021276596
14612,Monroe County,NY,15.72052401746725,14.65798045602606,NA
14618,Monroe County,NY,NA,91.20521172638436,NA
14622,Monroe County,NY,NA,18.241042345276874,NA
14623,Monroe County,NY,NA,20.195439739413683,NA
14624,Monroe County,NY,NA,47.55700325732899,NA
14710,Chautauqua County,NY,98.2532751091703,NA,NA
14850,Tompkins County,NY,73.7991266375546,NA,NA
27006,Davie County,NC,55.45851528384279,NA,NA
27040,Forsyth County,NC,NA,26.710097719869708,NA
27104,Forsyth County,NC,NA,NA,3.723404255319149
27278,Orange County,NC,20.087336244541483,NA,NA
27330,Lee County,NC,20.52401746724891,NA,NA
27403,Guilford County,NC,NA,94.13680781758957,NA
27408,Guilford County,NC,NA,NA,85.63829787234043
27501,Harnett County,NC,47.161572052401745,NA,NA
27513,Wake County,NC,NA,48.20846905537459,NA
27517,Orange County,NC,NA,NA,13.297872340425531
27520,Johnston County,NC,NA,NA,46.27659574468085
27546,Harnett County,NC,NA,NA,56.38297872340425
27572,Person County,NC,NA,92.18241042345277,NA
27589,Warren County,NC,96.50655021834062,NA,NA
27703,Durham County,NC,10.043668122270741,NA,NA
27705,Durham County,NC,NA,10.749185667752444,NA
27874,Halifax County,NC,NA,93.15960912052117,NA
27944,Perquimans County,NC,NA,46.579804560260584,NA
28025,Cabarrus County,NC,NA,13.029315960912053,NA
28031,Mecklenburg County,NC,NA,85.99348534201955,NA
28104,Union County,NC,64.19213973799127,NA,NA
28174,Union County,NC,80.78602620087337,NA,NA
28211,Mecklenburg County,NC,26.637554585152838,NA,NA
28334,Sampson County,NC,23.144104803493452,NA,NA
28358,Robeson County,NC,62.44541484716157,NA,NA
28398,Duplin County,NC,78.60262008733623,NA,NA
28478,Pender County,NC,NA,84.03908794788273,NA
28540,Onslow County,NC,NA,24.7557003257329,NA
28572,Duplin County,NC,81.22270742358079,NA,NA
28607,Watauga County,NC,NA,NA,39.361702127659576
28677,Iredell County,NC,NA,63.19218241042345,NA
28704,Buncombe County,NC,NA,NA,50.53191489361703
28778,Buncombe County,NC,NA,NA,68.61702127659575
28792,Henderson County,NC,NA,NA,0.5319148936170213
28803,Buncombe County,NC,44.54148471615721,NA,NA
28906,Cherokee County,NC,43.23144104803494,NA,NA
58078,Cass County,ND,NA,NA,13.829787234042554
58201,Grand Forks County,ND,NA,NA,1.5957446808510638
58701,Ward County,ND,NA,36.48208469055375,NA
58703,Ward County,ND,69.43231441048034,NA,NA
43054,Franklin County,OH,NA,NA,93.08510638297872
43074,Delaware County,OH,NA,92.83387622149837,NA
43214,Franklin County,OH,NA,41.042345276872965,NA
43311,Logan County,OH,NA,88.59934853420195,NA
43315,Morrow County,OH,NA,78.17589576547232,NA
43506,Williams County,OH,NA,NA,25.53191489361702
43545,Henry County,OH,60.698689956331876,NA,NA
43560,Lucas County,OH,NA,14.006514657980457,NA
43614,Lucas County,OH,NA,9.120521172638437,NA
43619,Wood County,OH,NA,59.28338762214984,NA
43701,Muskingum County,OH,NA,0.6514657980456027,NA
43812,Coshocton County,OH,5.676855895196507,NA,NA
44024,Geauga County,OH,NA,13.355048859934854,NA
44060,Lake County,OH,NA,NA,0
44105,Cuyahoga County,OH,NA,NA,38.297872340425535
44116,Cuyahoga County,OH,NA,NA,4.787234042553192
44122,Cuyahoga County,OH,NA,4.5602605863192185,NA
44123,Cuyahoga County,OH,NA,NA,33.51063829787234
44145,Cuyahoga County,OH,NA,NA,42.02127659574468
44146,Cuyahoga County,OH,NA,1.3029315960912053,NA
44281,Medina County,OH,NA,NA,12.76595744680851
44310,Summit County,OH,31.877729257641924,NA,NA
44512,Mahoning County,OH,9.170305676855897,NA,NA
44708,Stark County,OH,NA,32.57328990228013,NA
44813,Richland County,OH,71.61572052401746,NA,NA
44870,Erie County,OH,NA,NA,57.446808510638306
45042,Butler County,OH,NA,NA,65.42553191489363
45050,Butler County,OH,NA,99.3485342019544,NA
45069,Butler County,OH,49.34497816593886,NA,NA
45214,Hamilton County,OH,NA,89.90228013029315,NA
45224,Hamilton County,OH,93.01310043668121,NA,NA
45227,Hamilton County,OH,NA,65.47231270358306,NA
45230,Hamilton County,OH,NA,80.45602605863192,NA
45236,Hamilton County,OH,NA,95.11400651465797,NA
45243,Hamilton County,OH,NA,68.40390879478826,NA
45322,Montgomery County,OH,NA,NA,28.723404255319153
45373,Miami County,OH,6.550218340611353,11.074918566775244,NA
45383,Miami County,OH,86.8995633187773,NA,NA
45429,Montgomery County,OH,NA,NA,51.06382978723404
45804,Allen County,OH,NA,23.12703583061889,NA
45807,Allen County,OH,NA,77.19869706840392,NA
73089,Grady County,OK,NA,55.700325732899024,NA
73112,Oklahoma County,OK,30.131004366812224,NA,NA
73118,Oklahoma County,OK,NA,93.48534201954396,NA
73446,Marshall County,OK,NA,81.43322475570032,NA
73505,Comanche County,OK,20.96069868995633,NA,NA
73529,Stephens County,OK,NA,NA,80.85106382978722
74029,Washington County,OK,NA,98.37133550488599,NA
74801,Pottawatomie County,OK,NA,NA,84.57446808510637
97008,Washington County,OR,93.88646288209607,47.88273615635179,NA
97201,Multnomah County,OR,NA,NA,63.297872340425535
97219,Multnomah County,OR,NA,28.990228013029316,NA
97222,Clackamas County,OR,56.76855895196506,NA,NA
97301,Marion County,OR,68.12227074235808,NA,NA
97330,Benton County,OR,NA,NA,64.8936170212766
97702,Deschutes County,OR,NA,NA,23.404255319148938
15221,Allegheny County,PA,NA,23.452768729641694,NA
15401,Fayette County,PA,NA,56.02605863192183,NA
15522,Bedford County,PA,58.515283842794766,NA,NA
15557,Somerset County,PA,92.57641921397381,NA,NA
15650,Westmoreland County,PA,NA,NA,37.234042553191486
15658,Westmoreland County,PA,NA,66.44951140065146,NA
15701,Indiana County,PA,NA,82.73615635179154,NA
15717,Indiana County,PA,NA,NA,83.51063829787235
15767,Jefferson County,PA,23.580786026200872,NA,NA
16148,Mercer County,PA,NA,NA,6.914893617021277
16201,Armstrong County,PA,NA,8.794788273615636,NA
16371,Warren County,PA,NA,100,NA
16509,Erie County,PA,NA,32.24755700325733,NA
16701,McKean County,PA,NA,21.49837133550489,NA
17003,Lebanon County,PA,NA,80.78175895765473,NA
17015,Cumberland County,PA,36.681222707423586,NA,NA
17042,Lebanon County,PA,NA,6.188925081433225,NA
17046,Lebanon County,PA,NA,22.149837133550488,NA
17103,Dauphin County,PA,NA,58.63192182410424,NA
17110,Dauphin County,PA,NA,25.407166123778502,NA
17322,York County,PA,89.95633187772926,NA,NA
17327,York County,PA,NA,69.05537459283387,NA
17403,York County,PA,NA,1.9543973941368076,NA
17821,Montour County,PA,NA,58.306188925081436,NA
17857,Northumberland County,PA,NA,44.951140065146575,NA
17901,Schuylkill County,PA,53.275109170305676,NA,NA
18014,Northampton County,PA,NA,34.527687296416936,NA
18067,Northampton County,PA,NA,27.035830618892508,NA
18104,Lehigh County,PA,15.283842794759824,NA,NA
18330,Monroe County,PA,83.4061135371179,NA,NA
18508,Lackawanna County,PA,NA,NA,87.7659574468085
18706,Luzerne County,PA,33.624454148471614,NA,NA
18974,Bucks County,PA,NA,10.097719869706841,NA
18976,Bucks County,PA,NA,97.71986970684038,NA
19027,Montgomery County,PA,NA,NA,86.70212765957447
19119,Philadelphia County,PA,NA,70.35830618892508,NA
19131,Philadelphia County,PA,NA,2.2801302931596092,NA
19140,Philadelphia County,PA,NA,NA,31.914893617021278
19141,Philadelphia County,PA,NA,16.286644951140065,NA
19145,Philadelphia County,PA,NA,40.06514657980456,NA
19343,Chester County,PA,NA,NA,76.59574468085107
19363,Chester County,PA,79.91266375545851,NA,NA
19401,Montgomery County,PA,NA,63.51791530944625,NA
19601,Berks County,PA,4.366812227074235,NA,NA
29070,Lexington County,SC,NA,NA,96.80851063829788
29209,Richland County,SC,NA,88.92508143322475,NA
29302,Spartanburg County,SC,NA,NA,55.85106382978723
29406,Charleston County,SC,NA,49.8371335504886,NA
29407,Charleston County,SC,NA,56.67752442996743,NA
29412,Charleston County,SC,28.38427947598253,NA,NA
29418,Charleston County,SC,NA,72.9641693811075,NA
29464,Charleston County,SC,NA,NA,45.744680851063826
29577,Horry County,SC,NA,NA,47.87234042553192
29662,Greenville County,SC,NA,50.814332247557005,NA
29720,Lancaster County,SC,16.593886462882097,NA,NA
57104,Minnehaha County,SD,25.76419213973799,NA,NA
57783,Lawrence County,SD,NA,39.73941368078176,30.851063829787233
37076,Davidson County,TN,NA,30.293159609120522,NA
37122,Wilson County,TN,NA,24.104234527687296,NA
37128,Rutherford County,TN,NA,NA,92.02127659574468
37207,Davidson County,TN,11.790393013100436,28.338762214983714,NA
37209,Davidson County,TN,60.26200873362445,NA,NA
37210,Davidson County,TN,NA,57.65472312703584,NA
37211,Davidson County,TN,46.724890829694324,NA,NA
37412,Hamilton County,TN,NA,NA,87.7659574468085
37604,Washington County,TN,NA,NA,25
37774,Loudon County,TN,NA,NA,22.872340425531913
37820,Jefferson County,TN,NA,70.68403908794788,NA
37871,Jefferson County,TN,94.75982532751091,NA,NA
37922,Knox County,TN,NA,69.70684039087948,NA
37923,Knox County,TN,NA,62.21498371335505,NA
37924,Knox County,TN,NA,NA,72.87234042553192
37932,Knox County,TN,75.54585152838428,NA,NA
38108,Shelby County,TN,48.47161572052402,NA,NA
38126,Shelby County,TN,93.44978165938865,NA,NA
38242,Henry County,TN,40.61135371179039,NA,NA
75006,Dallas County,TX,NA,NA,20.74468085106383
75010,Denton County,TX,63.31877729257642,NA,NA
75052,Dallas County,TX,42.35807860262008,NA,NA
75062,Dallas County,TX,NA,31.596091205211724,NA
75063,Dallas County,TX,NA,97.39413680781759,NA
75104,Dallas County,TX,NA,69.38110749185668,NA
75206,Dallas County,TX,44.10480349344978,NA,NA
75233,Dallas County,TX,NA,NA,72.3404255319149
75244,Dallas County,TX,84.71615720524017,NA,NA
75249,Dallas County,TX,66.8122270742358,NA,NA
75703,Smith County,TX,NA,4.234527687296417,NA
75707,Smith County,TX,NA,46.25407166123778,NA
76088,Parker County,TX,NA,96.41693811074919,NA
76117,Tarrant County,TX,NA,34.85342019543974,NA
76244,Tarrant County,TX,NA,NA,93.61702127659575
76367,Wichita County,TX,NA,71.33550488599349,NA
76513,Bell County,TX,NA,11.400651465798045,NA
76643,McLennan County,TX,NA,52.11726384364821,NA
76904,Tom Green County,TX,NA,36.156351791530945,NA
77084,Harris County,TX,11.353711790393014,NA,NA
77304,Montgomery County,TX,NA,NA,71.80851063829788
77380,Montgomery County,TX,NA,49.8371335504886,NA
77414,Matagorda County,TX,70.3056768558952,NA,NA
77450,Harris County,TX,NA,NA,87.2340425531915
77479,Fort Bend County,TX,NA,17.91530944625407,NA
77511,Brazoria County,TX,NA,12.052117263843648,NA
77546,Galveston County,TX,NA,9.77198697068404,NA
77550,Galveston County,TX,NA,NA,91.48936170212765
77554,Galveston County,TX,NA,41.69381107491857,NA
77571,Harris County,TX,54.14847161572053,NA,NA
77573,Galveston County,TX,NA,NA,17.5531914893617
78040,Webb County,TX,NA,NA,14.361702127659576
78045,Webb County,TX,51.52838427947598,NA,NA
78130,Comal County,TX,NA,NA,7.446808510638298
78526,Cameron County,TX,NA,76.8729641693811,NA
78541,Hidalgo County,TX,NA,NA,49.46808510638298
78624,Gillespie County,TX,NA,44.62540716612378,NA
78641,Williamson County,TX,19.213973799126638,NA,NA
78676,Hays County,TX,NA,NA,70.74468085106383
79762,Ector County,TX,24.017467248908297,NA,NA
84009,Salt Lake County,UT,NA,NA,67.02127659574468
84010,Davis County,UT,34.93449781659388,NA,NA
84015,Davis County,UT,NA,43.97394136807817,NA
84057,Utah County,UT,NA,87.29641693811075,NA
84078,Uintah County,UT,NA,35.17915309446254,NA
84094,Salt Lake County,UT,NA,43.32247557003257,NA
84663,Utah County,UT,88.20960698689956,NA,NA
05491,Addison County,VT,NA,NA,77.6595744680851
20165,Loudoun County,VA,85.1528384279476,NA,NA
20170,Fairfax County,VA,NA,NA,81.38297872340425
20190,Fairfax County,VA,NA,NA,69.14893617021278
22182,Fairfax County,VA,NA,98.0456026058632,NA
22310,Fairfax County,VA,NA,79.15309446254072,NA
22901,Albemarle County,VA,NA,NA,32.97872340425532
23112,Chesterfield County,VA,NA,25.732899022801302,NA
23236,Chesterfield County,VA,NA,NA,53.72340425531915
23321,Chesapeake city,VA,NA,NA,18.085106382978726
23435,Suffolk city,VA,NA,NA,48.40425531914894
23464,Virginia Beach city,VA,NA,2.6058631921824107,NA
23601,Newport News city,VA,88.64628820960698,NA,NA
23692,York County,VA,NA,43.648208469055376,NA
23693,York County,VA,NA,90.22801302931596,NA
23831,Chesterfield County,VA,NA,29.967426710097723,NA
24073,Montgomery County,VA,NA,83.71335504885994,NA
24201,Bristol city,VA,37.55458515283843,NA,NA
24426,Alleghany County,VA,NA,42.671009771986974,NA
24592,Halifax County,VA,NA,86.97068403908796,NA
98003,King County,WA,24.45414847161572,NA,NA
98075,King County,WA,NA,84.69055374592834,NA
98077,King County,WA,NA,NA,79.7872340425532
98108,King County,WA,NA,NA,52.659574468085104
98119,King County,WA,87.33624454148472,NA,NA
98133,King County,WA,55.895196506550214,NA,NA
98168,King County,WA,NA,28.664495114006517,NA
98248,Whatcom County,WA,NA,53.420195439739416,NA
98264,Whatcom County,WA,NA,NA,75.53191489361703
98270,Snohomish County,WA,18.340611353711793,NA,NA
98273,Skagit County,WA,54.58515283842795,NA,NA
98284,Skagit County,WA,NA,NA,14.893617021276595
98367,Kitsap County,WA,90.82969432314411,NA,NA
98382,Clallam County,WA,NA,NA,9.574468085106384
98403,Pierce County,WA,NA,NA,97.3404255319149
98801,Chelan County,WA,NA,34.20195439739413,NA
98908,Yakima County,WA,NA,41.36807817589577,NA
99216,Spokane County,WA,59.388646288209614,NA,NA
99354,Benton County,WA,NA,29.64169381107492,NA
20015,District of Columbia,DC,98.68995633187772,NA,NA
25130,Boone County,WV,NA,73.61563517915309,NA
25313,Kanawha County,WV,42.79475982532751,NA,NA
25414,Jefferson County,WV,NA,NA,77.12765957446808
25541,Cabell County,WV,64.62882096069869,NA,NA
25704,Wayne County,WV,24.890829694323145,NA,NA
26003,Ohio County,WV,38.427947598253276,NA,NA
26037,Brooke County,WV,NA,NA,61.702127659574465
26041,Marshall County,WV,NA,19.54397394136808,NA
26062,Hancock County,WV,10.91703056768559,NA,NA
53042,Manitowoc County,WI,NA,95.76547231270358,NA
53110,Milwaukee County,WI,NA,31.27035830618892,NA
53206,Milwaukee County,WI,NA,NA,79.25531914893617
53212,Milwaukee County,WI,13.973799126637553,NA,NA
53218,Milwaukee County,WI,NA,36.807817589576544,NA
53221,Milwaukee County,WI,NA,49.185667752442995,NA
53511,Rock County,WI,NA,0.32573289902280134,NA
53711,Dane County,WI,NA,14.983713355048861,NA
54154,Oconto County,WI,82.96943231441048,NA,NA
54302,Brown County,WI,NA,42.01954397394137,NA
54494,Wood County,WI,NA,7.491856677524431,NA
54603,La Crosse County,WI,74.67248908296943,NA,NA
54703,Eau Claire County,WI,NA,NA,60.63829787234043
82001,Laramie County,WY,NA,NA,40.95744680851064
82601,Natrona County,WY,NA,62.54071661237784,NA
