ZipCode,county,state,Adult,Retirement,Geriatric
35004,St. Clair County,AL,NA,69.82832618025752,NA
35007,Shelby County,AL,NA,NA,60.26785714285714
35023,Jefferson County,AL,31.721470019342355,NA,NA
35042,Bibb County,AL,NA,NA,86.83035714285714
35094,Jefferson County,AL,NA,84.63519313304721,NA
35127,Jefferson County,AL,NA,52.01716738197425,NA
35146,St. Clair County,AL,NA,62.96137339055794,NA
35173,Jefferson County,AL,NA,NA,41.015625
35207,Jefferson County,AL,NA,NA,79.52008928571429
35209,Jefferson County,AL,NA,NA,61.43973214285714
35213,Jefferson County,AL,NA,NA,55.18973214285714
35216,Jefferson County,AL,NA,NA,71.98660714285714
35235,Jefferson County,AL,54.35203094777563,NA,NA
35546,Fayette County,AL,NA,NA,95.14508928571429
35555,Fayette County,AL,NA,NA,43.359375
35563,Marion County,AL,NA,94.8068669527897,NA
35565,Winston County,AL,68.27852998065764,NA,NA
35613,Limestone County,AL,NA,40.51502145922747,NA
35754,Morgan County,AL,90.71566731141199,NA,NA
35759,Madison County,AL,NA,NA,78.57142857142857
35904,Etowah County,AL,45.45454545454545,NA,NA
35950,Marshall County,AL,NA,50.64377682403433,NA
35952,Etowah County,AL,NA,NA,75.44642857142857
35954,Etowah County,AL,NA,NA,77.45535714285714
35960,Cherokee County,AL,NA,NA,83.37053571428571
35967,DeKalb County,AL,NA,63.433476394849784,NA
35968,DeKalb County,AL,NA,91.88841201716738,NA
36081,Pike County,AL,82.20502901353966,NA,NA
36203,Calhoun County,AL,NA,75.83690987124464,NA
36265,Calhoun County,AL,NA,80,NA
36301,Houston County,AL,NA,63.13304721030043,NA
36303,Houston County,AL,NA,NA,75.94866071428571
36310,Henry County,AL,NA,85.45064377682404,NA
36323,Coffee County,AL,NA,95.49356223175965,NA
36344,Geneva County,AL,NA,NA,79.18526785714286
36345,Henry County,AL,NA,NA,95.98214285714286
36360,Dale County,AL,NA,29.78540772532189,NA
36375,Geneva County,AL,73.88781431334623,NA,NA
36521,Mobile County,AL,NA,98.66952789699572,NA
36526,Baldwin County,AL,NA,NA,57.86830357142857
36544,Mobile County,AL,NA,83.81974248927038,NA
36582,Mobile County,AL,NA,73.60515021459227,80.30133928571429
36610,Mobile County,AL,86.073500967118,NA,NA
36617,Mobile County,AL,NA,81.11587982832617,NA
36693,Mobile County,AL,NA,NA,55.46875
36695,Mobile County,AL,NA,23.56223175965665,37.723214285714285
36801,Lee County,AL,NA,57.038626609442055,NA
36804,Lee County,AL,NA,87.46781115879828,NA
36830,Lee County,AL,NA,52.231759656652365,NA
36832,Lee County,AL,NA,NA,99.66517857142857
36854,Chambers County,AL,NA,57.93991416309014,64.34151785714286
36863,Chambers County,AL,NA,59.871244635193136,73.046875
36869,Russell County,AL,54.15860735009671,NA,NA
99508,Anchorage Municipality,AK,NA,31.072961373390555,NA
99835,Sitka City and Borough,AK,NA,NA,89.84375
85006,Maricopa County,AZ,NA,NA,83.81696428571429
85008,Maricopa County,AZ,NA,18.841201716738198,NA
85009,Maricopa County,AZ,NA,20.04291845493562,NA
85014,Maricopa County,AZ,NA,50,NA
85015,Maricopa County,AZ,48.54932301740813,43.51931330472103,NA
85016,Maricopa County,AZ,NA,28.71244635193133,57.64508928571429
85017,Maricopa County,AZ,NA,NA,93.13616071428571
85019,Maricopa County,AZ,NA,NA,84.70982142857143
85020,Maricopa County,AZ,NA,NA,39.50892857142857
85022,Maricopa County,AZ,NA,21.45922746781116,42.578125
85023,Maricopa County,AZ,NA,51.88841201716738,NA
85028,Maricopa County,AZ,NA,55.193133047210296,NA
85031,Maricopa County,AZ,NA,60.94420600858369,NA
85032,Maricopa County,AZ,NA,19.871244635193133,NA
85033,Maricopa County,AZ,NA,66.95278969957081,61.99776785714286
85037,Maricopa County,AZ,26.4990328820116,55.836909871244636,NA
85042,Maricopa County,AZ,27.466150870406192,NA,NA
85044,Maricopa County,AZ,20.502901353965182,NA,NA
85045,Maricopa County,AZ,NA,98.8412017167382,NA
85053,Maricopa County,AZ,NA,80.94420600858369,NA
85085,Maricopa County,AZ,NA,NA,80.02232142857143
85086,Maricopa County,AZ,NA,33.433476394849784,NA
85119,Pinal County,AZ,NA,37.1244635193133,38.169642857142854
85120,Pinal County,AZ,42.16634429400386,NA,23.549107142857142
85122,Pinal County,AZ,NA,8.798283261802576,NA
85138,Pinal County,AZ,NA,NA,70.64732142857143
85140,Pinal County,AZ,36.7504835589942,71.03004291845494,NA
85205,Maricopa County,AZ,NA,53.776824034334766,NA
85206,Maricopa County,AZ,NA,NA,57.08705357142857
85208,Maricopa County,AZ,72.92069632495163,NA,NA
85248,Maricopa County,AZ,NA,NA,3.6272321428571432
85251,Maricopa County,AZ,NA,76.43776824034335,28.627232142857146
85258,Maricopa County,AZ,NA,47.682403433476395,NA
85259,Maricopa County,AZ,NA,NA,47.042410714285715
85262,Maricopa County,AZ,95.93810444874275,NA,NA
85281,Maricopa County,AZ,NA,68.62660944206009,NA
85282,Maricopa County,AZ,NA,37.72532188841202,NA
85296,Maricopa County,AZ,NA,NA,51.45089285714286
85298,Maricopa County,AZ,NA,NA,77.28794642857143
85301,Maricopa County,AZ,NA,15.278969957081545,NA
85302,Maricopa County,AZ,NA,54.592274678111586,46.09375
85310,Maricopa County,AZ,NA,87.81115879828326,NA
85337,Maricopa County,AZ,99.41972920696325,NA,NA
85338,Maricopa County,AZ,NA,89.8283261802575,NA
85339,Maricopa County,AZ,22.823984526112184,NA,NA
85344,La Paz County,AZ,NA,78.71244635193133,NA
85346,La Paz County,AZ,NA,NA,70.14508928571429
85350,Yuma County,AZ,NA,NA,95.75892857142857
85364,Yuma County,AZ,5.222437137330754,NA,NA
85365,Yuma County,AZ,NA,48.283261802575105,NA
85373,Maricopa County,AZ,NA,NA,12.667410714285715
85375,Maricopa County,AZ,NA,16.523605150214593,NA
85381,Maricopa County,AZ,NA,69.35622317596567,NA
85382,Maricopa County,AZ,NA,36.78111587982833,NA
85383,Maricopa County,AZ,NA,79.78540772532189,NA
85392,Maricopa County,AZ,NA,42.66094420600858,90.68080357142857
85395,Maricopa County,AZ,NA,38.02575107296137,NA
85602,Cochise County,AZ,NA,NA,55.63616071428571
85614,Pima County,AZ,NA,NA,20.424107142857142
85635,Cochise County,AZ,NA,42.403433476394845,26.729910714285715
85641,Pima County,AZ,57.640232108317214,NA,NA
85704,Pima County,AZ,NA,59.35622317596566,16.796875
85705,Pima County,AZ,NA,4.721030042918455,NA
85706,Pima County,AZ,NA,5.92274678111588,37.723214285714285
85710,Pima County,AZ,NA,NA,79.40848214285714
85711,Pima County,AZ,NA,NA,31.58482142857143
85712,Pima County,AZ,NA,71.97424892703863,38.058035714285715
85718,Pima County,AZ,NA,NA,78.68303571428571
85742,Pima County,AZ,49.129593810444874,42.66094420600858,NA
85743,Pima County,AZ,NA,NA,51.84151785714286
85745,Pima County,AZ,NA,13.519313304721031,24.497767857142858
85746,Pima County,AZ,NA,30.042918454935624,NA
85749,Pima County,AZ,NA,80.72961373390558,NA
85755,Pima County,AZ,NA,41.71673819742489,NA
85757,Pima County,AZ,74.46808510638297,NA,NA
85933,Navajo County,AZ,NA,NA,98.49330357142857
86004,Coconino County,AZ,NA,39.527896995708154,NA
86025,Navajo County,AZ,NA,91.54506437768241,NA
86040,Coconino County,AZ,NA,96.22317596566523,NA
86301,Yavapai County,AZ,NA,83.77682403433477,NA
86303,Yavapai County,AZ,NA,83.00429184549355,NA
86314,Yavapai County,AZ,NA,16.909871244635195,NA
86326,Yavapai County,AZ,NA,NA,14.285714285714285
86334,Yavapai County,AZ,NA,98.068669527897,NA
86336,Yavapai County,AZ,81.43133462282398,55.321888412017174,60.15625
86351,Yavapai County,AZ,NA,72.23175965665236,NA
86406,Mohave County,AZ,NA,19.65665236051502,76.72991071428571
86442,Mohave County,AZ,NA,NA,14.84375
86503,Apache County,AZ,NA,NA,86.21651785714286
86505,Apache County,AZ,NA,88.32618025751073,80.74776785714286
71667,Lincoln County,AR,NA,NA,61.21651785714286
71801,Hempstead County,AR,88.78143133462282,NA,NA
71909,Garland County,AR,NA,NA,9.821428571428571
72002,Saline County,AR,NA,87.59656652360515,NA
72015,Saline County,AR,NA,26.95278969957082,NA
72019,Saline County,AR,NA,NA,89.84375
72021,Monroe County,AR,96.90522243713733,NA,NA
72024,Lonoke County,AR,NA,99.74248927038627,NA
72076,Pulaski County,AR,NA,79.14163090128756,NA
72088,Van Buren County,AR,NA,NA,67.91294642857143
72104,Hot Spring County,AR,NA,52.44635193133047,NA
72113,Pulaski County,AR,NA,NA,88.72767857142857
72117,Pulaski County,AR,52.61121856866537,NA,NA
72120,Pulaski County,AR,NA,44.291845493562235,NA
72160,Arkansas County,AR,NA,73.77682403433477,NA
72205,Pulaski County,AR,NA,NA,66.40625
72211,Pulaski County,AR,NA,73.34763948497854,NA
72212,Pulaski County,AR,NA,NA,44.47544642857143
72223,Pulaski County,AR,NA,54.20600858369099,NA
72501,Independence County,AR,35.5899419729207,19.527896995708154,NA
72616,Carroll County,AR,NA,76.3519313304721,NA
72687,Marion County,AR,NA,79.69957081545064,NA
72704,Washington County,AR,NA,76.1802575107296,NA
72712,Benton County,AR,NA,33.90557939914164,NA
72715,Benton County,AR,91.10251450676982,53.90557939914164,NA
72734,Benton County,AR,NA,NA,98.828125
72756,Benton County,AR,NA,28.454935622317596,NA
72764,Washington County,AR,NA,48.497854077253216,NA
72837,Pope County,AR,NA,88.02575107296138,NA
72923,Sebastian County,AR,94.77756286266924,NA,NA
90002,Los Angeles County,CA,NA,53.562231759656655,NA
90004,Los Angeles County,CA,NA,31.244635193133046,NA
90011,Los Angeles County,CA,NA,NA,35.044642857142854
90017,Los Angeles County,CA,NA,NA,82.92410714285714
90020,Los Angeles County,CA,NA,46.99570815450644,NA
90022,Los Angeles County,CA,NA,NA,17.912946428571427
90025,Los Angeles County,CA,NA,NA,6.919642857142858
90026,Los Angeles County,CA,75.24177949709865,NA,NA
90027,Los Angeles County,CA,NA,NA,12.165178571428571
90031,Los Angeles County,CA,NA,93.90557939914163,NA
90033,Los Angeles County,CA,71.37330754352031,NA,NA
90036,Los Angeles County,CA,NA,38.58369098712446,NA
90037,Los Angeles County,CA,NA,33.562231759656655,NA
90038,Los Angeles County,CA,NA,NA,76.33928571428571
90043,Los Angeles County,CA,NA,15.92274678111588,NA
90044,Los Angeles County,CA,NA,13.34763948497854,63.72767857142857
90045,Los Angeles County,CA,NA,48.36909871244635,NA
90046,Los Angeles County,CA,NA,NA,3.90625
90049,Los Angeles County,CA,NA,38.96995708154506,NA
90064,Los Angeles County,CA,NA,74.63519313304721,17.522321428571427
90069,Los Angeles County,CA,NA,43.21888412017167,NA
90201,Los Angeles County,CA,NA,NA,47.265625
90230,Los Angeles County,CA,78.91682785299807,NA,73.60491071428571
90240,Los Angeles County,CA,NA,63.776824034334766,NA
90250,Los Angeles County,CA,NA,71.931330472103,61.94196428571429
90254,Los Angeles County,CA,NA,92.6609442060086,NA
90255,Los Angeles County,CA,NA,98.49785407725322,NA
90265,Los Angeles County,CA,NA,96.99570815450643,NA
90266,Los Angeles County,CA,NA,41.45922746781116,NA
90270,Los Angeles County,CA,NA,98.41201716738198,NA
90280,Los Angeles County,CA,NA,29.613733905579398,34.486607142857146
90292,Los Angeles County,CA,NA,NA,35.267857142857146
90301,Los Angeles County,CA,NA,70.72961373390558,NA
90304,Los Angeles County,CA,NA,98.41201716738198,NA
90404,Los Angeles County,CA,NA,NA,47.71205357142857
90501,Los Angeles County,CA,NA,49.871244635193136,NA
90505,Los Angeles County,CA,NA,33.30472103004291,NA
90602,Los Angeles County,CA,NA,NA,55.078125
90606,Los Angeles County,CA,52.03094777562862,52.14592274678112,NA
90620,Orange County,CA,47.77562862669246,29.356223175965667,55.41294642857143
90621,Orange County,CA,NA,81.58798283261802,NA
90623,Orange County,CA,NA,NA,90.34598214285714
90630,Orange County,CA,47.195357833655706,NA,NA
90638,Los Angeles County,CA,NA,NA,21.986607142857142
90650,Los Angeles County,CA,NA,10.987124463519313,NA
90660,Los Angeles County,CA,NA,NA,17.633928571428573
90706,Los Angeles County,CA,NA,29.227467811158796,58.59375
90713,Los Angeles County,CA,NA,47.55364806866953,NA
90716,Los Angeles County,CA,NA,NA,95.64732142857143
90731,Los Angeles County,CA,NA,55.06437768240343,NA
90740,Orange County,CA,NA,70.64377682403433,70.36830357142857
90745,Los Angeles County,CA,NA,60.21459227467811,NA
90805,Los Angeles County,CA,NA,17.59656652360515,NA
90807,Los Angeles County,CA,NA,NA,46.763392857142854
90810,Los Angeles County,CA,NA,NA,35.10044642857143
90814,Los Angeles County,CA,99.22630560928434,NA,NA
90815,Los Angeles County,CA,NA,31.888412017167383,NA
91006,Los Angeles County,CA,NA,75.9656652360515,NA
91010,Los Angeles County,CA,NA,NA,67.02008928571429
91030,Los Angeles County,CA,NA,72.78969957081544,NA
91104,Los Angeles County,CA,NA,86.9098712446352,NA
91105,Los Angeles County,CA,NA,NA,73.4375
91205,Los Angeles County,CA,NA,43.13304721030043,NA
91302,Los Angeles County,CA,NA,89.95708154506438,NA
91303,Los Angeles County,CA,NA,98.79828326180258,NA
91304,Los Angeles County,CA,NA,44.8068669527897,11.439732142857142
91311,Los Angeles County,CA,NA,NA,50.22321428571429
91320,Ventura County,CA,64.21663442940039,46.26609442060086,42.466517857142854
91321,Los Angeles County,CA,NA,84.2489270386266,34.70982142857143
91335,Los Angeles County,CA,NA,27.210300429184546,NA
91342,Los Angeles County,CA,NA,10.214592274678111,32.589285714285715
91343,Los Angeles County,CA,NA,40.64377682403433,32.86830357142857
91350,Los Angeles County,CA,NA,NA,75.390625
91351,Los Angeles County,CA,NA,69.05579399141631,NA
91354,Los Angeles County,CA,NA,74.84978540772532,NA
91355,Los Angeles County,CA,NA,42.66094420600858,55.46875
91361,Ventura County,CA,NA,55.62231759656653,NA
91364,Los Angeles County,CA,NA,94.291845493562235,NA
91387,Los Angeles County,CA,NA,33.17596566523605,NA
91402,Los Angeles County,CA,NA,28.11158798283262,NA
91405,Los Angeles County,CA,NA,NA,98.10267857142857
91505,Los Angeles County,CA,NA,73.56223175965665,63.72767857142857
91701,San Bernardino County,CA,NA,58.92703862660944,92.63392857142857
91702,Los Angeles County,CA,NA,89.57081545064378,NA
91706,Los Angeles County,CA,NA,96.13733905579399,NA
91709,San Bernardino County,CA,NA,20.472103004291846,NA
91723,Los Angeles County,CA,80.07736943907156,NA,NA
91730,San Bernardino County,CA,NA,79.82832618025752,28.45982142857143
91731,Los Angeles County,CA,NA,NA,60.15625
91733,Los Angeles County,CA,NA,62.918454935622314,NA
91737,San Bernardino County,CA,NA,NA,75.83705357142857
91741,Los Angeles County,CA,NA,43.99141630901288,NA
91744,Los Angeles County,CA,NA,19.78540772532189,13.895089285714285
91745,Los Angeles County,CA,NA,NA,21.595982142857142
91748,Los Angeles County,CA,NA,NA,27.957589285714285
91754,Los Angeles County,CA,NA,51.75965665236052,NA
91761,San Bernardino County,CA,NA,61.97424892703862,NA
91762,San Bernardino County,CA,NA,85.70815450643778,NA
91765,Los Angeles County,CA,NA,47.682403433476395,77.56696428571429
91768,Los Angeles County,CA,43.7137330754352,NA,NA
91780,Los Angeles County,CA,87.04061895551257,54.12017167381974,NA
91784,San Bernardino County,CA,NA,91.20171673819742,NA
91786,San Bernardino County,CA,NA,26.90987124463519,NA
91789,Los Angeles County,CA,NA,53.39055793991416,NA
91792,Los Angeles County,CA,NA,NA,61.55133928571429
91911,San Diego County,CA,NA,83.2618025751073,NA
91914,San Diego County,CA,NA,95.53648068669528,NA
91932,San Diego County,CA,NA,NA,86.60714285714286
91941,San Diego County,CA,NA,38.71244635193133,NA
91977,San Diego County,CA,NA,NA,27.566964285714285
92010,San Diego County,CA,NA,97.81115879828326,NA
92014,San Diego County,CA,NA,NA,94.36383928571429
92021,San Diego County,CA,NA,10.257510729613733,19.587053571428573
92024,San Diego County,CA,NA,NA,24.888392857142858
92026,San Diego County,CA,NA,NA,27.511160714285715
92040,San Diego County,CA,NA,NA,24.274553571428573
92056,San Diego County,CA,NA,25.622317596566525,NA
92057,San Diego County,CA,NA,80.21459227467811,NA
92064,San Diego County,CA,NA,NA,24.497767857142858
92065,San Diego County,CA,47.77562862669246,59.227467811158796,54.35267857142857
92082,San Diego County,CA,NA,71.63090128755366,NA
92084,San Diego County,CA,NA,56.52360515021459,NA
92105,San Diego County,CA,NA,60.21459227467811,NA
92109,San Diego County,CA,NA,78.15450643776825,NA
92111,San Diego County,CA,NA,NA,20.814732142857142
92113,San Diego County,CA,26.11218568665377,27.93991416309013,NA
92117,San Diego County,CA,NA,NA,13.616071428571427
92119,San Diego County,CA,NA,NA,68.41517857142857
92123,San Diego County,CA,NA,37.08154506437768,NA
92126,San Diego County,CA,NA,61.71673819742489,NA
92127,San Diego County,CA,NA,63.0901287553648,NA
92129,San Diego County,CA,NA,73.73390557939913,NA
92139,San Diego County,CA,69.63249516441006,NA,NA
92154,San Diego County,CA,NA,49.012875536480685,9.933035714285714
92203,Riverside County,CA,NA,13.776824034334764,NA
92220,Riverside County,CA,NA,NA,20.145089285714285
92223,Riverside County,CA,NA,67.85407725321888,NA
92227,Imperial County,CA,41.58607350096712,NA,NA
92236,Riverside County,CA,NA,91.54506437768241,NA
92240,Riverside County,CA,NA,NA,79.296875
92243,Imperial County,CA,NA,24.206008583690988,NA
92249,Imperial County,CA,NA,98.92703862660944,NA
92250,Imperial County,CA,NA,95.66523605150215,NA
92260,Riverside County,CA,NA,9.871244635193133,NA
92262,Riverside County,CA,NA,7.167381974248927,NA
92270,Riverside County,CA,NA,NA,1.3392857142857142
92274,Riverside County,CA,NA,96.9098712446352,NA
92307,San Bernardino County,CA,NA,NA,36.77455357142857
92313,San Bernardino County,CA,NA,84.291845493562235,NA
92320,Riverside County,CA,NA,NA,76.33928571428571
92324,San Bernardino County,CA,NA,33.09012875536481,91.015625
92335,San Bernardino County,CA,11.218568665377177,11.459227467811159,NA
92336,San Bernardino County,CA,11.60541586073501,NA,69.53125
92337,San Bernardino County,CA,NA,70.08583690987125,NA
92344,San Bernardino County,CA,NA,NA,91.07142857142857
92352,San Bernardino County,CA,NA,NA,97.20982142857143
92354,San Bernardino County,CA,NA,NA,49.55357142857143
92359,San Bernardino County,CA,94.77756286266924,NA,NA
92363,San Bernardino County,CA,NA,NA,96.26116071428571
92373,San Bernardino County,CA,67.69825918762089,57.682403433476395,NA
92374,San Bernardino County,CA,NA,NA,86.55133928571429
92376,San Bernardino County,CA,NA,86.82403433476395,NA
92377,San Bernardino County,CA,NA,75.62231759656652,89.39732142857143
92395,San Bernardino County,CA,NA,69.65665236051503,NA
92404,San Bernardino County,CA,NA,59.69957081545064,NA
92407,San Bernardino County,CA,NA,42.96137339055794,NA
92410,San Bernardino County,CA,95.74468085106383,23.948497854077253,73.71651785714286
92411,San Bernardino County,CA,NA,NA,76.84151785714286
92503,Riverside County,CA,NA,50.81545064377683,33.705357142857146
92504,Riverside County,CA,NA,NA,29.74330357142857
92506,Riverside County,CA,NA,34.59227467811159,44.921875
92551,Riverside County,CA,65.95744680851064,NA,NA
92553,Riverside County,CA,NA,34.67811158798283,NA
92555,Riverside County,CA,NA,NA,74.38616071428571
92557,Riverside County,CA,NA,41.587982832618025,NA
92562,Riverside County,CA,NA,26.7381974248927,NA
92571,Riverside County,CA,40.81237911025145,NA,NA
92585,Riverside County,CA,NA,81.03004291845494,NA
92603,Orange County,CA,NA,NA,67.91294642857143
92620,Orange County,CA,NA,NA,40.848214285714285
92626,Orange County,CA,42.94003868471953,37.51072961373391,59.98883928571429
92629,Orange County,CA,NA,NA,29.35267857142857
92648,Orange County,CA,NA,17.167381974248926,NA
92649,Orange County,CA,NA,22.446351931330472,NA
92651,Orange County,CA,NA,39.09871244635193,61.60714285714286
92653,Orange County,CA,NA,76.00858369098712,42.24330357142857
92660,Orange County,CA,NA,32.74678111587983,NA
92673,Orange County,CA,NA,58.583690987124456,NA
92675,Orange County,CA,NA,NA,33.761160714285715
92677,Orange County,CA,NA,33.39055793991416,NA
92683,Orange County,CA,NA,14.46351931330472,NA
92691,Orange County,CA,NA,NA,72.65625
92692,Orange County,CA,NA,NA,55.58035714285714
92703,Orange County,CA,39.65183752417795,NA,84.48660714285714
92704,Orange County,CA,NA,78.41201716738198,NA
92705,Orange County,CA,NA,76.30901287553648,15.457589285714285
92707,Orange County,CA,70.79303675048357,44.291845493562235,NA
92708,Orange County,CA,NA,11.158798283261802,NA
92780,Orange County,CA,NA,50.30042918454936,NA
92801,Orange County,CA,NA,26.523605150214593,34.933035714285715
92802,Orange County,CA,NA,NA,34.04017857142857
92804,Orange County,CA,NA,NA,17.243303571428573
92805,Orange County,CA,NA,NA,64.22991071428571
92806,Orange County,CA,NA,81.41630901287553,NA
92807,Orange County,CA,NA,NA,70.03348214285714
92821,Orange County,CA,NA,41.50214592274678,59.15178571428571
92831,Orange County,CA,NA,36.18025751072961,NA
92832,Orange County,CA,NA,92.83261802575107,65.40178571428571
92843,Orange County,CA,NA,45.66523605150215,NA
92867,Orange County,CA,NA,NA,25.892857142857146
92870,Orange County,CA,67.50483558994198,NA,10.602678571428571
92883,Riverside County,CA,NA,56.39484978540773,85.99330357142857
92887,Orange County,CA,NA,70.90128755364807,NA
93012,Ventura County,CA,NA,70.55793991416309,21.875
93033,Ventura County,CA,NA,NA,50.22321428571429
93036,Ventura County,CA,31.914893617021278,NA,NA
93065,Ventura County,CA,16.247582205029012,14.935622317596566,NA
93103,Santa Barbara County,CA,NA,NA,92.68973214285714
93105,Santa Barbara County,CA,NA,NA,82.92410714285714
93215,Kern County,CA,NA,75.45064377682404,NA
93241,Kern County,CA,NA,96.05150214592275,NA
93277,Tulare County,CA,NA,NA,77.23214285714286
93304,Kern County,CA,NA,38.71244635193133,NA
93305,Kern County,CA,NA,50.17167381974249,NA
93306,Kern County,CA,21.663442940038685,NA,67.74553571428571
93314,Kern County,CA,NA,95.0214592274678,NA
93401,San Luis Obispo County,CA,NA,45.66523605150215,NA
93405,San Luis Obispo County,CA,NA,NA,68.52678571428571
93420,San Luis Obispo County,CA,66.34429400386847,NA,NA
93422,San Luis Obispo County,CA,NA,NA,62.44419642857143
93433,San Luis Obispo County,CA,NA,NA,93.63839285714286
93455,Santa Barbara County,CA,NA,59.442060085836914,9.263392857142858
93535,Los Angeles County,CA,NA,80.47210300429185,NA
93550,Los Angeles County,CA,NA,NA,77.84598214285714
93551,Los Angeles County,CA,NA,47.896995708154506,NA
93552,Los Angeles County,CA,83.9458413926499,NA,NA
93611,Fresno County,CA,NA,NA,90.12276785714286
93612,Fresno County,CA,45.06769825918762,NA,NA
93614,Madera County,CA,NA,NA,92.52232142857143
93619,Fresno County,CA,42.16634429400386,68.41201716738198,NA
93631,Fresno County,CA,NA,85.23605150214593,NA
93637,Madera County,CA,NA,51.072961373390555,49.107142857142854
93646,Fresno County,CA,NA,92.27467811158799,NA
93657,Fresno County,CA,NA,NA,55.63616071428571
93703,Fresno County,CA,NA,51.67381974248927,NA
93704,Fresno County,CA,NA,48.712446351931334,NA
93705,Fresno County,CA,NA,36.351931330472105,NA
93706,Fresno County,CA,NA,88.6695278969957,NA
93720,Fresno County,CA,NA,54.33476394849785,NA
93725,Fresno County,CA,NA,68.96995708154506,78.90625
93727,Fresno County,CA,NA,19.270386266094423,NA
94002,San Mateo County,CA,NA,92.4892703862661,NA
94010,San Mateo County,CA,NA,NA,7.2544642857142865
94014,San Mateo County,CA,NA,21.158798283261802,68.97321428571429
94015,San Mateo County,CA,44.680851063829785,54.763948497854074,42.745535714285715
94019,San Mateo County,CA,NA,52.4892703862661,NA
94025,San Mateo County,CA,NA,64.16309012875536,20.982142857142858
94040,Santa Clara County,CA,NA,NA,61.99776785714286
94044,San Mateo County,CA,NA,20.901287553648068,NA
94061,San Mateo County,CA,NA,NA,46.261160714285715
94063,San Mateo County,CA,NA,NA,59.59821428571429
94066,San Mateo County,CA,NA,55.751072961373396,8.537946428571429
94070,San Mateo County,CA,NA,59.95708154506437,NA
94080,San Mateo County,CA,64.60348162475822,48.884120171673814,NA
94103,San Francisco County,CA,NA,12.875536480686694,41.517857142857146
94107,San Francisco County,CA,NA,84.20600858369099,NA
94108,San Francisco County,CA,87.81431334622823,88.41201716738198,NA
94109,San Francisco County,CA,NA,NA,20.535714285714285
94110,San Francisco County,CA,NA,30.21459227467811,17.857142857142858
94112,San Francisco County,CA,NA,26.781115879828327,NA
94114,San Francisco County,CA,NA,76.9098712446352,NA
94116,San Francisco County,CA,NA,NA,7.9799107142857135
94117,San Francisco County,CA,36.94390715667311,NA,63.33705357142857
94118,San Francisco County,CA,NA,63.476394849785414,15.234375
94121,San Francisco County,CA,NA,81.3304721030043,8.035714285714286
94122,San Francisco County,CA,NA,50.08583690987124,83.48214285714286
94123,San Francisco County,CA,NA,91.63090128755364,NA
94132,San Francisco County,CA,NA,83.81974248927038,NA
94133,San Francisco County,CA,NA,72.36051502145922,NA
94134,San Francisco County,CA,NA,95.92274678111588,NA
94303,San Mateo County,CA,NA,21.974248927038627,NA
94404,San Mateo County,CA,NA,38.32618025751073,NA
94506,Contra Costa County,CA,NA,69.18454935622319,NA
94509,Contra Costa County,CA,NA,9.27038626609442,NA
94510,Solano County,CA,NA,NA,63.22544642857143
94518,Contra Costa County,CA,NA,71.50214592274679,NA
94521,Contra Costa County,CA,NA,32.06008583690988,17.020089285714285
94523,Contra Costa County,CA,NA,NA,40.17857142857143
94526,Contra Costa County,CA,NA,74.33476394849785,70.64732142857143
94531,Contra Costa County,CA,NA,74.72103004291846,NA
94536,Alameda County,CA,NA,16.13733905579399,NA
94538,Alameda County,CA,NA,36.86695278969957,NA
94539,Alameda County,CA,NA,NA,33.14732142857143
94544,Alameda County,CA,NA,8.927038626609441,NA
94549,Contra Costa County,CA,NA,51.931330472103,NA
94553,Contra Costa County,CA,42.5531914893617,NA,NA
94556,Contra Costa County,CA,90.52224371373308,NA,71.98660714285714
94558,Napa County,CA,NA,NA,1.953125
94559,Napa County,CA,NA,90.34334763948499,NA
94565,Contra Costa County,CA,NA,29.527896995708154,NA
94568,Alameda County,CA,NA,57.42489270386266,NA
94572,Contra Costa County,CA,NA,86.99570815450643,NA
94580,Alameda County,CA,NA,58.36909871244635,NA
94582,Contra Costa County,CA,NA,NA,80.859375
94583,Contra Costa County,CA,NA,57.639484978540764,85.71428571428571
94588,Alameda County,CA,NA,65.92274678111588,NA
94591,Solano County,CA,NA,NA,13.839285714285715
94595,Contra Costa County,CA,NA,44.50643776824034,NA
94597,Contra Costa County,CA,NA,67.93991416309014,NA
94601,Alameda County,CA,NA,30.12875536480687,NA
94619,Alameda County,CA,80.46421663442939,NA,NA
94806,Contra Costa County,CA,NA,50.772532188841204,48.77232142857143
94901,Marin County,CA,NA,NA,30.691964285714285
94903,Marin County,CA,NA,NA,8.091517857142858
94920,Marin County,CA,NA,93.30472103004291,NA
94925,Marin County,CA,NA,NA,89.22991071428571
94928,Sonoma County,CA,NA,NA,84.765625
94941,Marin County,CA,NA,82.36051502145922,NA
94945,Marin County,CA,NA,NA,55.24553571428571
94965,Marin County,CA,NA,NA,70.36830357142857
95030,Santa Clara County,CA,NA,NA,59.765625
95037,Santa Clara County,CA,NA,61.75965665236052,24.497767857142858
95051,Santa Clara County,CA,86.84719535783366,NA,NA
95065,Santa Cruz County,CA,97.678916827853,NA,NA
95070,Santa Clara County,CA,NA,66.26609442060087,NA
95076,Santa Cruz County,CA,NA,12.746781115879829,NA
95111,Santa Clara County,CA,NA,NA,33.426339285714285
95112,Santa Clara County,CA,NA,NA,46.54017857142857
95117,Santa Clara County,CA,NA,96.65236051502146,NA
95122,Santa Clara County,CA,45.84139264990329,74.07725321888412,NA
95123,Santa Clara County,CA,NA,NA,59.54241071428571
95127,Santa Clara County,CA,NA,71.41630901287553,NA
95129,Santa Clara County,CA,NA,68.54077253218884,NA
95209,San Joaquin County,CA,46.22823984526112,NA,NA
95210,San Joaquin County,CA,NA,89.8283261802575,NA
95240,San Joaquin County,CA,NA,90.51502145922747,NA
95242,San Joaquin County,CA,NA,NA,91.35044642857143
95258,San Joaquin County,CA,NA,90.77253218884121,NA
95307,Stanislaus County,CA,NA,38.798283261802574,NA
95315,Merced County,CA,NA,96.39484978540771,NA
95316,Stanislaus County,CA,NA,NA,91.23883928571429
95341,Merced County,CA,NA,70.3862660944206,NA
95350,Stanislaus County,CA,NA,NA,12.332589285714286
95351,Stanislaus County,CA,NA,66.39484978540773,NA
95354,Stanislaus County,CA,NA,79.48497854077253,NA
95355,Stanislaus County,CA,NA,30.815450643776828,NA
95356,Stanislaus County,CA,NA,69.6137339055794,NA
95361,Stanislaus County,CA,NA,NA,76.78571428571429
95363,Stanislaus County,CA,NA,NA,97.76785714285714
95366,San Joaquin County,CA,NA,75.36480686695279,NA
95376,San Joaquin County,CA,NA,28.412017167381975,NA
95377,San Joaquin County,CA,NA,65.49356223175965,NA
95409,Sonoma County,CA,NA,NA,10.267857142857142
95470,Mendocino County,CA,NA,NA,95.14508928571429
95472,Sonoma County,CA,NA,NA,46.09375
95476,Sonoma County,CA,NA,NA,18.303571428571427
95482,Mendocino County,CA,NA,NA,80.35714285714286
95490,Mendocino County,CA,NA,NA,52.28794642857143
95492,Sonoma County,CA,NA,51.158798283261795,NA
95602,Placer County,CA,NA,NA,26.89732142857143
95608,Sacramento County,CA,NA,67.21030042918454,NA
95616,Yolo County,CA,NA,NA,83.984375
95630,Sacramento County,CA,NA,45.53648068669528,NA
95631,Placer County,CA,NA,83.21888412017168,NA
95632,Sacramento County,CA,59.57446808510638,34.8068669527897,57.47767857142857
95648,Placer County,CA,59.57446808510638,NA,5.691964285714286
95661,Placer County,CA,NA,NA,43.136160714285715
95670,Sacramento County,CA,NA,77.25321888412017,20.647321428571427
95685,Amador County,CA,NA,92.14592274678111,NA
95695,Yolo County,CA,NA,77.21030042918456,NA
95758,Sacramento County,CA,NA,85.1931330472103,NA
95765,Placer County,CA,NA,62.74678111587983,NA
95776,Yolo County,CA,NA,80.81545064377681,NA
95815,Sacramento County,CA,NA,NA,90.45758928571429
95817,Sacramento County,CA,NA,NA,69.47544642857143
95822,Sacramento County,CA,NA,35.751072961373396,NA
95823,Sacramento County,CA,NA,46.652360515021456,NA
95824,Sacramento County,CA,NA,55.36480686695279,NA
95825,Sacramento County,CA,48.16247582205029,NA,NA
95828,Sacramento County,CA,69.24564796905223,NA,NA
95831,Sacramento County,CA,NA,43.13304721030043,17.689732142857142
95832,Sacramento County,CA,NA,NA,96.484375
95834,Sacramento County,CA,NA,NA,93.13616071428571
95841,Sacramento County,CA,NA,92.7038626609442,NA
95864,Sacramento County,CA,NA,NA,36.997767857142854
95932,Colusa County,CA,NA,NA,89.28571428571429
95949,Nevada County,CA,NA,74.80686695278969,NA
95954,Butte County,CA,NA,NA,29.854910714285715
95965,Butte County,CA,NA,59.65665236051502,NA
95966,Butte County,CA,NA,31.373390557939913,NA
96001,Shasta County,CA,NA,40.128755364806864,NA
96021,Tehama County,CA,91.68278529980658,49.871244635193136,NA
96080,Tehama County,CA,NA,NA,69.140625
96130,Lassen County,CA,73.5009671179884,NA,NA
80002,Jefferson County,CO,NA,NA,75.33482142857143
80003,Jefferson County,CO,NA,47.76824034334764,NA
80010,Arapahoe County,CO,NA,NA,84.09598214285714
80011,Arapahoe County,CO,NA,62.44635193133047,38.72767857142857
80012,Arapahoe County,CO,NA,22.660944206008583,12.946428571428573
80013,Arapahoe County,CO,NA,80.04291845493562,NA
80014,Arapahoe County,CO,NA,NA,52.23214285714286
80016,Arapahoe County,CO,NA,13.13304721030043,49.051339285714285
80017,Arapahoe County,CO,38.49129593810445,40.386266094420606,NA
80020,Broomfield County,CO,NA,26.824034334763947,NA
80023,Broomfield County,CO,NA,72.91845493562231,72.43303571428571
80026,Boulder County,CO,NA,73.94849785407726,NA
80027,Boulder County,CO,NA,76.60944206008584,NA
80031,Adams County,CO,NA,49.871244635193136,NA
80109,Douglas County,CO,NA,NA,89.11830357142857
80110,Arapahoe County,CO,NA,NA,92.29910714285714
80111,Arapahoe County,CO,NA,56.866952789699575,NA
80112,Arapahoe County,CO,NA,78.28326180257511,79.296875
80121,Arapahoe County,CO,NA,NA,77.12053571428571
80123,Jefferson County,CO,NA,45.021459227467815,NA
80125,Douglas County,CO,NA,NA,98.93973214285714
80128,Jefferson County,CO,NA,NA,65.84821428571429
80132,El Paso County,CO,NA,80.68669527896995,NA
80134,Douglas County,CO,NA,87.16738197424893,NA
80206,Denver County,CO,NA,57.682403433476395,96.65178571428571
80209,Denver County,CO,NA,58.62660944206009,89.00669642857143
80211,Denver County,CO,NA,72.87553648068669,62.27678571428571
80212,Denver County,CO,75.8220502901354,NA,NA
80216,Denver County,CO,NA,85.83690987124464,NA
80219,Denver County,CO,NA,16.394849785407725,NA
80220,Denver County,CO,NA,83.81974248927038,NA
80221,Adams County,CO,34.4294003868472,NA,NA
80223,Denver County,CO,62.28239845261122,NA,NA
80232,Jefferson County,CO,NA,73.2618025751073,NA
80233,Adams County,CO,NA,44.163090128755364,64.34151785714286
80234,Adams County,CO,NA,NA,98.66071428571429
80239,Denver County,CO,25.72533849129594,NA,NA
80260,Adams County,CO,NA,NA,59.375
80301,Boulder County,CO,NA,97.12446351931331,NA
80302,Boulder County,CO,NA,NA,97.04241071428571
80303,Boulder County,CO,NA,NA,98.4375
80401,Jefferson County,CO,NA,42.06008583690987,NA
80403,Jefferson County,CO,88.58800773694391,77.63948497854078,NA
80503,Boulder County,CO,NA,96.69527896995707,38.783482142857146
80513,Larimer County,CO,NA,75.19313304721031,NA
80516,Weld County,CO,65.37717601547389,NA,NA
80524,Larimer County,CO,NA,20.772532188841204,NA
80537,Larimer County,CO,NA,41.67381974248927,NA
80538,Larimer County,CO,NA,NA,21.09375
80550,Weld County,CO,NA,70.47210300429184,NA
80601,Adams County,CO,NA,31.5450643776824,NA
80701,Morgan County,CO,23.21083172147002,NA,NA
80723,Morgan County,CO,NA,NA,79.6875
80751,Logan County,CO,NA,55.27896995708155,NA
80831,El Paso County,CO,NA,66.82403433476395,NA
80863,Teller County,CO,NA,81.07296137339056,NA
80904,El Paso County,CO,NA,91.45922746781116,51.953125
80906,El Paso County,CO,60.928433268858804,NA,76.953125
80908,El Paso County,CO,NA,79.69957081545064,NA
80909,El Paso County,CO,NA,42.14592274678112,NA
80911,El Paso County,CO,NA,NA,46.03794642857143
80917,El Paso County,CO,NA,NA,48.325892857142854
80918,El Paso County,CO,NA,63.21888412017167,33.872767857142854
80919,El Paso County,CO,NA,NA,41.964285714285715
80920,El Paso County,CO,NA,NA,77.00892857142857
80921,El Paso County,CO,85.29980657640233,NA,NA
80923,El Paso County,CO,NA,NA,73.15848214285714
81001,Pueblo County,CO,NA,69.95708154506438,47.65625
81004,Pueblo County,CO,NA,84.46351931330473,38.560267857142854
81005,Pueblo County,CO,37.9110251450677,17.553648068669528,30.189732142857146
81007,Pueblo County,CO,NA,33.862660944206006,44.921875
81082,Las Animas County,CO,NA,NA,89.56473214285714
81144,Rio Grande County,CO,NA,91.45922746781116,NA
81212,Fremont County,CO,NA,45.32188841201717,65.01116071428571
81252,Custer County,CO,NA,NA,93.97321428571429
81625,Moffat County,CO,NA,80.51502145922747,NA
06001,Hartford County,CT,NA,NA,45.926339285714285
06010,Hartford County,CT,NA,1.5879828326180259,1.6183035714285716
06019,Hartford County,CT,92.64990328820116,NA,NA
06032,Hartford County,CT,NA,88.06866952789699,NA
06051,Hartford County,CT,NA,NA,29.799107142857146
06067,Hartford County,CT,NA,83.30472103004291,NA
06082,Hartford County,CT,19.729206963249517,10.085836909871244,41.573660714285715
06095,Hartford County,CT,40.42553191489361,NA,NA
06098,Litchfield County,CT,47.00193423597679,NA,NA
06106,Hartford County,CT,NA,NA,22.265625
06109,Hartford County,CT,95.16441005802709,NA,NA
06111,Hartford County,CT,NA,69.69957081545064,28.90625
06119,Hartford County,CT,NA,NA,65.45758928571429
06405,New Haven County,CT,NA,NA,7.087053571428571
06410,New Haven County,CT,NA,34.97854077253219,NA
06450,New Haven County,CT,NA,8.71244635193133,NA
06457,Middlesex County,CT,NA,6.1373390557939915,5.803571428571429
06460,New Haven County,CT,NA,NA,26.841517857142854
06492,New Haven County,CT,NA,8.626609442060087,NA
06614,Fairfield County,CT,NA,NA,19.921875
06704,New Haven County,CT,NA,NA,72.48883928571429
06706,New Haven County,CT,NA,NA,66.68526785714286
06712,New Haven County,CT,NA,74.12017167381974,NA
06790,Litchfield County,CT,NA,1.3733905579399142,4.185267857142857
06831,Fairfield County,CT,NA,NA,55.97098214285714
06877,Fairfield County,CT,NA,53.4763948497854,NA
06883,Fairfield County,CT,96.13152804642166,NA,NA
06902,Fairfield County,CT,NA,7.553648068669528,NA
19701,New Castle County,DE,NA,NA,71.70758928571429
19703,New Castle County,DE,NA,NA,69.64285714285714
19709,New Castle County,DE,NA,NA,22.767857142857142
19713,New Castle County,DE,NA,NA,62.83482142857143
19808,New Castle County,DE,NA,16.180257510729614,4.520089285714286
19810,New Castle County,DE,NA,NA,26.395089285714285
19962,Kent County,DE,NA,69.18454935622319,NA
19963,Sussex County,DE,NA,NA,44.029017857142854
19968,Sussex County,DE,NA,38.32618025751073,64.67633928571429
19970,Sussex County,DE,NA,51.97424892703862,NA
32034,Nassau County,FL,49.51644100580271,66.22317596566523,NA
32043,Clay County,FL,NA,15.879828326180256,NA
32068,Clay County,FL,12.959381044487428,NA,NA
32080,St. Johns County,FL,NA,70.94420600858369,NA
32082,St. Johns County,FL,NA,NA,18.359375
32084,St. Johns County,FL,NA,73.99141630901288,NA
32086,St. Johns County,FL,NA,46.223175965665234,9.486607142857142
32097,Nassau County,FL,NA,63.60515021459228,NA
32119,Volusia County,FL,NA,45.236051502145926,NA
32127,Volusia County,FL,NA,31.630901287553648,NA
32137,Flagler County,FL,NA,NA,48.716517857142854
32159,Lake County,FL,NA,17.682403433476395,3.4040178571428568
32162,Sumter County,FL,NA,30.98712446351931,65.625
32163,Sumter County,FL,NA,62.231759656652365,NA
32164,Flagler County,FL,NA,NA,8.816964285714286
32174,Volusia County,FL,NA,35.922746781115876,6.25
32179,Marion County,FL,NA,94.76394849785407,NA
32204,Duval County,FL,NA,95.23605150214593,NA
32207,Duval County,FL,NA,7.381974248927039,NA
32208,Duval County,FL,NA,46.137339055793994,NA
32218,Duval County,FL,NA,2.1030042918454934,NA
32234,Duval County,FL,83.752417794971,NA,NA
32277,Duval County,FL,24.37137330754352,NA,NA
32305,Leon County,FL,NA,90.85836909871244,NA
32311,Leon County,FL,NA,92.06008583690986,NA
32433,Walton County,FL,58.41392649903289,NA,NA
32501,Escambia County,FL,NA,NA,47.377232142857146
32503,Escambia County,FL,NA,10.472103004291846,12.611607142857142
32507,Escambia County,FL,NA,38.62660944206009,NA
32514,Escambia County,FL,NA,10,NA
32533,Escambia County,FL,30.174081237911025,14.549356223175966,NA
32536,Okaloosa County,FL,NA,54.20600858369099,NA
32548,Okaloosa County,FL,63.63636363636363,78.11158798283262,NA
32550,Walton County,FL,NA,46.866952789699575,83.25892857142857
32563,Santa Rosa County,FL,NA,17.63948497854077,19.363839285714285
32570,Santa Rosa County,FL,NA,3.4763948497854082,NA
32571,Santa Rosa County,FL,NA,NA,22.265625
32583,Santa Rosa County,FL,27.466150870406192,NA,NA
32606,Alachua County,FL,NA,NA,2.34375
32641,Alachua County,FL,57.83365570599614,NA,NA
32693,Gilchrist County,FL,NA,74.4206008583691,NA
32708,Seminole County,FL,NA,30.472103004291846,19.252232142857142
32714,Seminole County,FL,NA,NA,36.38392857142857
32726,Lake County,FL,NA,41.28755364806867,NA
32751,Orange County,FL,NA,NA,42.13169642857143
32757,Lake County,FL,NA,58.24034334763949,NA
32778,Lake County,FL,NA,20.171673819742487,NA
32792,Orange County,FL,NA,NA,15.066964285714285
32810,Orange County,FL,NA,48.96995708154506,NA
32811,Orange County,FL,NA,NA,47.433035714285715
32817,Orange County,FL,NA,59.871244635193136,70.36830357142857
32822,Orange County,FL,NA,19.356223175965663,NA
32825,Orange County,FL,33.65570599613153,11.67381974248927,NA
32828,Orange County,FL,38.10444874274662,NA,NA
32903,Brevard County,FL,NA,NA,75.55803571428571
32920,Brevard County,FL,NA,NA,57.31026785714286
32926,Brevard County,FL,NA,37.167381974248926,NA
32927,Brevard County,FL,NA,NA,52.39955357142857
32937,Brevard County,FL,NA,51.41630901287554,57.97991071428571
32940,Brevard County,FL,NA,19.742489270386265,NA
32958,Indian River County,FL,88.97485493230174,NA,NA
32962,Indian River County,FL,NA,32.7038626609442,NA
32963,Indian River County,FL,NA,NA,62.5
32966,Indian River County,FL,NA,23.819742489270386,44.363839285714285
32967,Indian River County,FL,NA,91.84549356223177,NA
33009,Broward County,FL,NA,37.25321888412017,35.714285714285715
33010,Miami-Dade County,FL,NA,NA,8.426339285714286
33012,Miami-Dade County,FL,NA,NA,73.32589285714286
33014,Miami-Dade County,FL,NA,98.58369098712446,52.95758928571429
33015,Miami-Dade County,FL,NA,83.6480686695279,NA
33016,Miami-Dade County,FL,NA,89.09871244635194,18.526785714285715
33018,Miami-Dade County,FL,NA,NA,38.002232142857146
33020,Broward County,FL,31.52804642166344,NA,NA
33021,Broward County,FL,NA,NA,24.107142857142858
33024,Broward County,FL,NA,18.326180257510728,14.676339285714285
33025,Broward County,FL,NA,76.86695278969957,67.63392857142857
33027,Broward County,FL,NA,NA,25.279017857142854
33029,Broward County,FL,NA,57.76824034334764,NA
33030,Miami-Dade County,FL,44.87427466150871,NA,NA
33034,Miami-Dade County,FL,NA,NA,85.43526785714286
33035,Miami-Dade County,FL,NA,82.18884120171673,NA
33037,Monroe County,FL,NA,NA,70.64732142857143
33050,Monroe County,FL,NA,53.43347639484979,NA
33054,Miami-Dade County,FL,NA,NA,64.28571428571429
33056,Miami-Dade County,FL,NA,NA,40.904017857142854
33062,Broward County,FL,NA,NA,19.475446428571427
33063,Broward County,FL,NA,NA,8.258928571428571
33064,Broward County,FL,38.297872340425535,13.13304721030043,NA
33066,Broward County,FL,NA,NA,13.058035714285715
33069,Broward County,FL,NA,56.952789699570815,NA
33076,Broward County,FL,90.9090909090909,NA,NA
33125,Miami-Dade County,FL,NA,NA,78.18080357142857
33126,Miami-Dade County,FL,NA,NA,15.178571428571427
33127,Miami-Dade County,FL,NA,92.83261802575107,NA
33128,Miami-Dade County,FL,NA,NA,66.796875
33130,Miami-Dade County,FL,NA,NA,98.15848214285714
33133,Miami-Dade County,FL,NA,32.44635193133047,22.879464285714285
33134,Miami-Dade County,FL,NA,76.95278969957081,NA
33135,Miami-Dade County,FL,NA,NA,17.689732142857142
33136,Miami-Dade County,FL,NA,NA,77.17633928571429
33137,Miami-Dade County,FL,NA,NA,90.90401785714286
33138,Miami-Dade County,FL,NA,54.33476394849785,NA
33139,Miami-Dade County,FL,NA,75.10729613733905,36.607142857142854
33140,Miami-Dade County,FL,NA,NA,50.44642857142857
33141,Miami-Dade County,FL,NA,28.75536480686695,NA
33142,Miami-Dade County,FL,19.342359767891683,14.678111587982833,65.68080357142857
33144,Miami-Dade County,FL,NA,95.83690987124463,42.63392857142857
33147,Miami-Dade County,FL,35.20309477756286,93.81974248927038,NA
33150,Miami-Dade County,FL,NA,83.60515021459227,85.43526785714286
33154,Miami-Dade County,FL,NA,NA,26.450892857142854
33156,Miami-Dade County,FL,NA,NA,98.71651785714286
33157,Miami-Dade County,FL,NA,79.48497854077253,49.94419642857143
33158,Miami-Dade County,FL,NA,96.43776824034335,NA
33160,Miami-Dade County,FL,65.76402321083172,28.92703862660944,NA
33165,Miami-Dade County,FL,NA,NA,1.6741071428571428
33166,Miami-Dade County,FL,NA,46.30901287553648,NA
33167,Miami-Dade County,FL,NA,64.37768240343348,93.24776785714286
33169,Miami-Dade County,FL,NA,41.802575107296136,90.56919642857143
33170,Miami-Dade County,FL,NA,NA,97.76785714285714
33172,Miami-Dade County,FL,NA,NA,68.47098214285714
33173,Miami-Dade County,FL,NA,45.45064377682404,NA
33174,Miami-Dade County,FL,NA,62.78969957081545,11.328125
33175,Miami-Dade County,FL,NA,86.60944206008584,64.453125
33176,Miami-Dade County,FL,NA,27.98283261802575,56.02678571428571
33177,Miami-Dade County,FL,NA,42.532188841201716,16.183035714285715
33178,Miami-Dade County,FL,NA,72.91845493562231,NA
33179,Miami-Dade County,FL,59.96131528046421,NA,NA
33180,Miami-Dade County,FL,NA,71.28755364806867,95.3125
33181,Miami-Dade County,FL,83.17214700193423,NA,NA
33183,Miami-Dade County,FL,NA,66.00858369098712,NA
33184,Miami-Dade County,FL,NA,NA,92.1875
33186,Miami-Dade County,FL,NA,NA,55.74776785714286
33189,Miami-Dade County,FL,88.39458413926499,NA,87.66741071428571
33193,Miami-Dade County,FL,NA,47.1244635193133,NA
33196,Miami-Dade County,FL,NA,82.91845493562232,NA
33301,Broward County,FL,NA,61.20171673819742,78.01339285714286
33308,Broward County,FL,NA,11.201716738197424,NA
33309,Broward County,FL,57.446808510638306,38.197424892703864,NA
33311,Broward County,FL,NA,NA,21.707589285714285
33313,Broward County,FL,NA,33.648068669527895,NA
33314,Broward County,FL,NA,NA,81.52901785714286
33316,Broward County,FL,NA,66.09442060085837,73.15848214285714
33317,Broward County,FL,NA,NA,71.81919642857143
33319,Broward County,FL,NA,59.09871244635193,NA
33321,Broward County,FL,NA,72.53218884120172,22.544642857142858
33322,Broward County,FL,NA,NA,71.31696428571429
33328,Broward County,FL,NA,72.44635193133048,NA
33330,Broward County,FL,NA,95.06437768240343,NA
33331,Broward County,FL,NA,NA,87.5
33403,Palm Beach County,FL,NA,95.9656652360515,NA
33404,Palm Beach County,FL,NA,39.31330472103004,NA
33405,Palm Beach County,FL,NA,83.04721030042919,NA
33409,Palm Beach County,FL,NA,81.28755364806867,NA
33410,Palm Beach County,FL,NA,27.124463519313302,60.37946428571429
33411,Palm Beach County,FL,NA,15.36480686695279,NA
33413,Palm Beach County,FL,NA,86.30901287553648,NA
33414,Palm Beach County,FL,NA,33.99141630901287,NA
33417,Palm Beach County,FL,57.25338491295938,79.65665236051503,NA
33418,Palm Beach County,FL,NA,57.596566523605155,NA
33426,Palm Beach County,FL,NA,75.15021459227468,NA
33428,Palm Beach County,FL,NA,45.407725321888414,NA
33430,Palm Beach County,FL,NA,NA,67.41071428571429
33432,Palm Beach County,FL,NA,37.682403433476395,NA
33433,Palm Beach County,FL,NA,NA,1.0602678571428572
33436,Palm Beach County,FL,NA,74.16309012875536,NA
33437,Palm Beach County,FL,NA,NA,0.11160714285714285
33441,Broward County,FL,NA,55.793991416309005,NA
33442,Broward County,FL,NA,NA,6.8638392857142865
33455,Martin County,FL,NA,NA,8.59375
33463,Palm Beach County,FL,NA,NA,47.154017857142854
33467,Palm Beach County,FL,56.09284332688588,NA,42.857142857142854
33472,Palm Beach County,FL,NA,66.90987124463518,16.127232142857142
33480,Palm Beach County,FL,NA,80.42918454935622,NA
33483,Palm Beach County,FL,NA,NA,38.504464285714285
33486,Palm Beach County,FL,NA,NA,50.89285714285714
33510,Hillsborough County,FL,NA,75.87982832618026,NA
33511,Hillsborough County,FL,NA,21.587982832618025,NA
33523,Pasco County,FL,NA,49.78540772532189,NA
33540,Pasco County,FL,89.36170212765957,NA,NA
33541,Pasco County,FL,NA,28.583690987124466,15.122767857142858
33543,Pasco County,FL,55.319148936170215,NA,NA
33548,Hillsborough County,FL,NA,93.34763948497854,NA
33549,Hillsborough County,FL,NA,77.12446351931331,NA
33572,Hillsborough County,FL,NA,51.75965665236052,NA
33578,Hillsborough County,FL,NA,80.34334763948497,NA
33579,Hillsborough County,FL,NA,72.44635193133048,NA
33596,Hillsborough County,FL,NA,52.4892703862661,NA
33613,Hillsborough County,FL,NA,NA,39.955357142857146
33614,Hillsborough County,FL,NA,38.4549356223176,NA
33615,Hillsborough County,FL,NA,NA,47.823660714285715
33618,Hillsborough County,FL,NA,41.41630901287554,NA
33625,Hillsborough County,FL,NA,83.69098712446352,NA
33701,Pinellas County,FL,NA,57.93991416309014,NA
33702,Pinellas County,FL,NA,NA,63.61607142857143
33705,Pinellas County,FL,77.36943907156673,NA,NA
33706,Pinellas County,FL,NA,86.18025751072962,NA
33708,Pinellas County,FL,91.29593810444874,55.62231759656653,NA
33710,Pinellas County,FL,NA,36.00858369098712,NA
33712,Pinellas County,FL,NA,80.08583690987125,NA
33715,Pinellas County,FL,NA,72.40343347639485,NA
33761,Pinellas County,FL,NA,87.21030042918456,34.207589285714285
33763,Pinellas County,FL,NA,NA,35.658482142857146
33764,Pinellas County,FL,43.520309477756285,73.30472103004291,NA
33765,Pinellas County,FL,NA,62.01716738197425,NA
33770,Pinellas County,FL,56.86653771760155,48.24034334763949,NA
33771,Pinellas County,FL,NA,26.30901287553648,16.685267857142858
33776,Pinellas County,FL,NA,88.32618025751073,NA
33777,Pinellas County,FL,79.69052224371373,87.5107296137339,NA
33778,Pinellas County,FL,NA,93.09012875536482,NA
33781,Pinellas County,FL,NA,29.012875536480685,NA
33782,Pinellas County,FL,66.53771760154739,NA,43.30357142857143
33803,Polk County,FL,NA,49.44206008583691,NA
33809,Polk County,FL,NA,43.69098712446352,NA
33810,Polk County,FL,NA,27.639484978540775,NA
33823,Polk County,FL,NA,NA,50.11160714285714
33825,Highlands County,FL,NA,NA,15.345982142857142
33830,Polk County,FL,NA,37.51072961373391,NA
33850,Polk County,FL,NA,89.01287553648068,NA
33852,Highlands County,FL,NA,47.467811158798284,NA
33859,Polk County,FL,NA,NA,70.64732142857143
33860,Polk County,FL,NA,NA,66.46205357142857
33870,Highlands County,FL,NA,NA,7.5892857142857135
33876,Highlands County,FL,NA,NA,75.44642857142857
33884,Polk County,FL,NA,NA,22.488839285714285
33898,Polk County,FL,NA,62.532188841201716,NA
33901,Lee County,FL,52.804642166344294,70.85836909871244,NA
33903,Lee County,FL,NA,NA,19.866071428571427
33904,Lee County,FL,NA,12.660944206008583,NA
33905,Lee County,FL,NA,NA,36.495535714285715
33908,Lee County,FL,NA,23.776824034334766,0.5022321428571429
33909,Lee County,FL,NA,36.437768240343345,NA
33913,Lee County,FL,NA,23.605150214592275,NA
33917,Lee County,FL,NA,66.52360515021459,NA
33919,Lee County,FL,NA,NA,2.1763392857142856
33931,Lee County,FL,NA,83.81974248927038,49.776785714285715
33948,Charlotte County,FL,NA,31.931330472103003,NA
33950,Charlotte County,FL,76.01547388781431,NA,NA
33952,Charlotte County,FL,NA,25.87982832618026,NA
33955,Charlotte County,FL,NA,58.540772532188846,NA
33957,Lee County,FL,NA,66.95278969957081,NA
33967,Lee County,FL,58.027079303675045,NA,NA
33971,Lee County,FL,NA,92.61802575107296,NA
33972,Lee County,FL,NA,97.5107296137339,NA
33980,Charlotte County,FL,NA,NA,54.40848214285714
33983,Charlotte County,FL,NA,67.93991416309014,NA
33990,Lee County,FL,NA,32.23175965665236,NA
33991,Lee County,FL,NA,31.330472103004293,52.90178571428571
33993,Lee County,FL,NA,87.59656652360515,NA
34102,Collier County,FL,NA,NA,45.814732142857146
34108,Collier County,FL,NA,NA,59.43080357142857
34110,Collier County,FL,NA,43.34763948497854,9.598214285714286
34112,Collier County,FL,NA,91.41630901287554,NA
34116,Collier County,FL,NA,81.45922746781116,NA
34119,Collier County,FL,NA,55.5793991416309,13.392857142857142
34120,Collier County,FL,36.94390715667311,NA,NA
34134,Lee County,FL,NA,NA,32.421875
34135,Lee County,FL,NA,41.24463519313304,NA
34145,Collier County,FL,NA,70.34334763948497,NA
34201,Manatee County,FL,NA,96.48068669527898,NA
34209,Manatee County,FL,NA,16.3519313304721,NA
34210,Manatee County,FL,NA,NA,69.19642857142857
34217,Manatee County,FL,NA,97.93991416309012,NA
34223,Sarasota County,FL,NA,77.8969957081545,25.78125
34228,Sarasota County,FL,NA,87.38197424892704,35.49107142857143
34229,Sarasota County,FL,NA,NA,27.622767857142854
34232,Sarasota County,FL,NA,25.278969957081543,NA
34233,Sarasota County,FL,NA,40,NA
34241,Sarasota County,FL,87.2340425531915,58.283261802575105,NA
34243,Manatee County,FL,NA,NA,4.799107142857143
34251,Manatee County,FL,NA,99.27038626609442,NA
34269,DeSoto County,FL,NA,NA,99.49776785714286
34275,Sarasota County,FL,75.43520309477756,NA,10.825892857142858
34285,Sarasota County,FL,NA,NA,8.370535714285714
34293,Sarasota County,FL,NA,4.63519313304721,NA
34420,Marion County,FL,NA,54.93562231759657,NA
34431,Marion County,FL,NA,94.5922746781116,NA
34446,Citrus County,FL,NA,NA,97.09821428571429
34471,Marion County,FL,NA,NA,40.625
34472,Marion County,FL,NA,45.32188841201717,96.14955357142857
34473,Marion County,FL,NA,NA,81.36160714285714
34476,Marion County,FL,NA,31.072961373390555,NA
34491,Marion County,FL,NA,25.407725321888414,NA
34610,Pasco County,FL,NA,61.41630901287554,NA
34613,Hernando County,FL,NA,27.253218884120173,NA
34639,Pasco County,FL,NA,48.4549356223176,NA
34653,Pasco County,FL,NA,NA,10.212053571428571
34654,Pasco County,FL,NA,46.56652360515021,NA
34655,Pasco County,FL,NA,19.570815450643778,66.29464285714286
34677,Pinellas County,FL,NA,73.34763948497854,NA
34683,Pinellas County,FL,NA,40.30042918454936,NA
34689,Pinellas County,FL,NA,32.23175965665236,NA
34690,Pasco County,FL,NA,NA,73.54910714285714
34695,Pinellas County,FL,NA,63.519313304721024,NA
34698,Pinellas County,FL,NA,NA,11.495535714285714
34715,Lake County,FL,82.01160541586073,64.8068669527897,NA
34736,Lake County,FL,NA,73.43347639484978,NA
34743,Osceola County,FL,NA,54.67811158798283,NA
34746,Osceola County,FL,NA,72.61802575107296,NA
34748,Lake County,FL,NA,NA,1.171875
34758,Osceola County,FL,NA,74.33476394849785,NA
34759,Polk County,FL,NA,70.81545064377683,NA
34761,Orange County,FL,NA,NA,25.502232142857146
34769,Osceola County,FL,NA,43.261802575107296,40.68080357142857
34772,Osceola County,FL,NA,84.89270386266095,NA
34785,Sumter County,FL,NA,71.88841201716738,NA
34788,Lake County,FL,NA,NA,25.05580357142857
34953,St. Lucie County,FL,NA,4.506437768240343,NA
34957,Martin County,FL,NA,27.424892703862664,NA
34982,St. Lucie County,FL,NA,29.871244635193133,NA
34984,St. Lucie County,FL,NA,NA,73.88392857142857
34986,St. Lucie County,FL,NA,NA,6.026785714285714
34987,St. Lucie County,FL,NA,NA,67.578125
34994,Martin County,FL,NA,NA,32.75669642857143
30004,Fulton County,GA,NA,28.798283261802577,NA
30014,Newton County,GA,NA,24.248927038626608,NA
30017,Gwinnett County,GA,87.4274661508704,85.9656652360515,NA
30024,Gwinnett County,GA,NA,18.755364806866954,32.86830357142857
30028,Forsyth County,GA,NA,77.29613733905579,NA
30032,DeKalb County,GA,NA,8.111587982832617,NA
30033,DeKalb County,GA,NA,NA,41.796875
30035,DeKalb County,GA,NA,83.99141630901288,NA
30038,DeKalb County,GA,NA,41.37339055793991,NA
30040,Forsyth County,GA,NA,14.24892703862661,NA
30041,Forsyth County,GA,NA,7.8111587982832615,48.549107142857146
30044,Gwinnett County,GA,21.08317214700193,11.030042918454935,NA
30052,Walton County,GA,NA,6.180257510729613,NA
30062,Cobb County,GA,NA,62.40343347639485,21.986607142857142
30066,Cobb County,GA,NA,20.386266094420602,NA
30082,Cobb County,GA,NA,79.09871244635193,66.46205357142857
30087,DeKalb County,GA,NA,NA,26.61830357142857
30096,Gwinnett County,GA,NA,23.30472103004292,NA
30101,Cobb County,GA,NA,55.36480686695279,NA
30106,Cobb County,GA,NA,NA,95.98214285714286
30108,Carroll County,GA,NA,86.65236051502146,NA
30110,Haralson County,GA,NA,76.3519313304721,NA
30126,Cobb County,GA,NA,NA,55.859375
30127,Cobb County,GA,NA,60.7725321888412,NA
30132,Paulding County,GA,NA,30,NA
30134,Douglas County,GA,NA,NA,79.96651785714286
30152,Cobb County,GA,NA,70.25751072961374,NA
30161,Floyd County,GA,NA,NA,62.890625
30189,Cherokee County,GA,NA,41.03004291845493,NA
30213,Fulton County,GA,NA,58.96995708154507,NA
30217,Heard County,GA,NA,82.27467811158799,NA
30263,Coweta County,GA,NA,8.969957081545065,NA
30274,Clayton County,GA,NA,NA,86.94196428571429
30286,Upson County,GA,NA,45.107296137339056,NA
30290,Fayette County,GA,NA,NA,80.80357142857143
30297,Clayton County,GA,NA,71.58798283261802,NA
30310,Fulton County,GA,NA,11.759656652360514,74.16294642857143
30314,Fulton County,GA,NA,NA,92.74553571428571
30315,Fulton County,GA,NA,NA,31.69642857142857
30316,DeKalb County,GA,NA,NA,41.796875
30319,DeKalb County,GA,NA,48.11158798283262,NA
30328,Fulton County,GA,NA,63.175965665236056,NA
30331,Fulton County,GA,18.181818181818183,5.708154506437769,NA
30345,DeKalb County,GA,NA,72.70386266094421,86.04910714285714
30360,DeKalb County,GA,93.42359767891682,NA,NA
30434,Jefferson County,GA,NA,77.72532188841201,NA
30442,Jenkins County,GA,93.03675048355899,NA,NA
30501,Hall County,GA,NA,NA,85.04464285714286
30506,Hall County,GA,NA,48.32618025751073,NA
30529,Jackson County,GA,NA,NA,68.13616071428571
30533,Lumpkin County,GA,NA,38.497854077253216,NA
30534,Dawson County,GA,NA,27.296137339055793,NA
30536,Gilmer County,GA,NA,NA,74.55357142857143
30542,Hall County,GA,NA,33.00429184549356,NA
30566,Hall County,GA,NA,91.7167381974249,NA
30601,Clarke County,GA,NA,63.00429184549357,NA
30606,Clarke County,GA,NA,55.9656652360515,NA
30642,Greene County,GA,NA,NA,89.0625
30650,Morgan County,GA,NA,NA,86.71875
30680,Barrow County,GA,21.8568665377176,NA,NA
30683,Clarke County,GA,NA,92.44635193133047,NA
30736,Catoosa County,GA,12.18568665377176,14.721030042918454,NA
30741,Walker County,GA,NA,14.420600858369099,NA
30802,Columbia County,GA,NA,85.87982832618025,NA
30809,Columbia County,GA,NA,37.76824034334764,24.944196428571427
30815,Richmond County,GA,22.05029013539652,NA,77.34375
30906,Richmond County,GA,NA,24.034334763948497,NA
30909,Richmond County,GA,27.27272727272727,43.86266094420601,NA
31008,Peach County,GA,NA,NA,72.32142857142857
31015,Crisp County,GA,47.38878143133462,NA,NA
31029,Monroe County,GA,NA,72.91845493562231,NA
31217,Bibb County,GA,NA,42.36051502145923,94.25223214285714
31302,Effingham County,GA,NA,93.94849785407725,NA
31326,Effingham County,GA,NA,NA,82.03125
31329,Effingham County,GA,NA,92.14592274678111,NA
31404,Chatham County,GA,NA,33.00429184549356,NA
31406,Chatham County,GA,NA,NA,23.883928571428573
31408,Chatham County,GA,NA,97.72532188841203,NA
31419,Chatham County,GA,NA,25.407725321888414,NA
31525,Glynn County,GA,NA,NA,65.17857142857143
31537,Charlton County,GA,NA,91.7596566523605,NA
31548,Camden County,GA,56.2862669245648,NA,NA
31602,Lowndes County,GA,NA,36.60944206008584,NA
31701,Dougherty County,GA,NA,29.055793991416305,NA
31705,Dougherty County,GA,NA,55.493562231759654,NA
31707,Dougherty County,GA,49.70986460348163,NA,NA
31714,Turner County,GA,NA,NA,64.56473214285714
31721,Dougherty County,GA,NA,NA,85.15625
31730,Mitchell County,GA,NA,79.44206008583691,NA
31750,Ben Hill County,GA,NA,22.832618025751074,NA
31763,Lee County,GA,79.11025145067698,NA,NA
31792,Thomas County,GA,NA,26.008583690987123,NA
96706,Honolulu County,HI,NA,NA,43.69419642857143
96707,Honolulu County,HI,NA,24.07725321888412,NA
96744,Honolulu County,HI,NA,NA,1.8973214285714284
96782,Honolulu County,HI,NA,18.626609442060087,NA
96786,Honolulu County,HI,NA,36.99570815450644,NA
96789,Honolulu County,HI,NA,NA,7.756696428571429
96792,Honolulu County,HI,NA,17.896995708154506,NA
96793,Maui County,HI,NA,57.25321888412017,NA
96797,Honolulu County,HI,NA,25.278969957081543,7.868303571428571
96815,Honolulu County,HI,NA,NA,14.787946428571427
96817,Honolulu County,HI,NA,4.463519313304721,22.154017857142858
96819,Honolulu County,HI,NA,10.386266094420602,NA
96826,Honolulu County,HI,NA,61.072961373390555,NA
83201,Bannock County,ID,NA,31.373390557939913,NA
83202,Bannock County,ID,NA,NA,94.64285714285714
83544,Clearwater County,ID,NA,66.26609442060087,NA
83642,Ada County,ID,NA,5.236051502145923,4.854910714285714
83686,Canyon County,ID,NA,2.96137339055794,NA
83703,Ada County,ID,NA,NA,43.69419642857143
83714,Ada County,ID,NA,10.772532188841202,NA
83854,Kootenai County,ID,NA,16.394849785407725,NA
60002,Lake County,IL,NA,NA,49.888392857142854
60004,Cook County,IL,NA,NA,5.691964285714286
60007,Cook County,IL,NA,12.618025751072961,54.57589285714286
60012,McHenry County,IL,NA,55.107296137339056,NA
60014,McHenry County,IL,NA,NA,49.66517857142857
60016,Cook County,IL,NA,35.32188841201717,NA
60018,Cook County,IL,NA,30.643776824034337,NA
60020,Lake County,IL,NA,52.36051502145923,NA
60025,Cook County,IL,NA,NA,2.3995535714285716
60030,Lake County,IL,NA,18.15450643776824,NA
60035,Lake County,IL,NA,39.35622317596567,NA
60046,Lake County,IL,NA,53.562231759656655,NA
60050,McHenry County,IL,NA,25.665236051502145,NA
60053,Cook County,IL,NA,26.86695278969957,NA
60062,Cook County,IL,NA,3.4334763948497855,0.33482142857142855
60067,Cook County,IL,44.10058027079304,NA,NA
60068,Cook County,IL,NA,64.20600858369099,NA
60069,Lake County,IL,NA,74.89270386266095,27.734375
60071,McHenry County,IL,NA,98.96995708154506,NA
60077,Cook County,IL,NA,NA,6.138392857142857
60085,Lake County,IL,NA,NA,20.591517857142858
60089,Lake County,IL,NA,34.163090128755364,11.607142857142858
60091,Cook County,IL,NA,16.051502145922747,10.714285714285714
60093,Cook County,IL,76.78916827852998,NA,19.084821428571427
60101,DuPage County,IL,NA,NA,45.75892857142857
60102,McHenry County,IL,NA,34.67811158798283,NA
60103,DuPage County,IL,NA,18.54077253218884,NA
60107,Cook County,IL,NA,31.072961373390555,51.11607142857143
60108,DuPage County,IL,NA,21.115879828326182,NA
60110,Kane County,IL,NA,90.90128755364807,NA
60115,DeKalb County,IL,NA,23.261802575107296,56.80803571428571
60120,Kane County,IL,NA,21.50214592274678,NA
60123,Kane County,IL,NA,11.67381974248927,NA
60130,Cook County,IL,NA,NA,72.65625
60133,Cook County,IL,NA,41.84549356223176,NA
60137,DuPage County,IL,NA,23.047210300429185,NA
60148,DuPage County,IL,15.28046421663443,NA,NA
60169,Cook County,IL,NA,NA,42.075892857142854
60171,Cook County,IL,86.26692456479691,NA,NA
60185,DuPage County,IL,NA,21.931330472103006,NA
60188,DuPage County,IL,NA,50.987124463519315,NA
60193,Cook County,IL,NA,67.29613733905579,22.65625
60194,Cook County,IL,NA,50.3862660944206,NA
60402,Cook County,IL,NA,6.609442060085836,NA
60404,Will County,IL,NA,68.71244635193133,NA
60411,Cook County,IL,NA,6.909871244635194,NA
60417,Will County,IL,NA,NA,44.58705357142857
60419,Cook County,IL,NA,94.2489270386266,NA
60423,Will County,IL,NA,51.37339055793991,NA
60425,Cook County,IL,NA,NA,76.33928571428571
60431,Will County,IL,41.005802707930364,35.107296137339056,58.203125
60435,Will County,IL,NA,67.8969957081545,NA
60436,Will County,IL,NA,78.54077253218884,NA
60440,Will County,IL,21.27659574468085,NA,NA
60443,Cook County,IL,NA,65.62231759656653,71.875
60447,Grundy County,IL,82.97872340425532,NA,NA
60448,Will County,IL,82.59187620889749,NA,NA
60453,Cook County,IL,NA,5.836909871244635,NA
60459,Cook County,IL,NA,46.738197424892704,NA
60462,Cook County,IL,NA,3.51931330472103,NA
60463,Cook County,IL,NA,NA,19.642857142857142
60487,Cook County,IL,NA,32.66094420600859,NA
60505,Kane County,IL,NA,34.4206008583691,NA
60506,Kane County,IL,26.88588007736944,NA,NA
60516,DuPage County,IL,NA,NA,30.078125
60523,DuPage County,IL,NA,45.27896995708154,NA
60526,Cook County,IL,NA,89.18454935622317,NA
60527,DuPage County,IL,NA,6.9957081545064375,NA
60543,Kendall County,IL,NA,39.27038626609442,NA
60586,Will County,IL,NA,60.34334763948498,NA
60609,Cook County,IL,NA,NA,14.229910714285715
60610,Cook County,IL,NA,15.665236051502147,NA
60611,Cook County,IL,NA,48.66952789699571,NA
60612,Cook County,IL,NA,23.948497854077253,29.408482142857146
60613,Cook County,IL,NA,62.48927038626609,66.796875
60614,Cook County,IL,23.597678916827853,NA,38.22544642857143
60615,Cook County,IL,NA,12.40343347639485,NA
60616,Cook County,IL,NA,NA,86.88616071428571
60617,Cook County,IL,30.56092843326886,NA,30.245535714285715
60619,Cook County,IL,NA,NA,0.8370535714285714
60620,Cook County,IL,NA,NA,19.642857142857142
60623,Cook County,IL,NA,36.69527896995708,42.801339285714285
60624,Cook County,IL,NA,54.806866952789704,36.104910714285715
60626,Cook County,IL,NA,NA,49.16294642857143
60628,Cook County,IL,NA,2.7896995708154506,16.015625
60630,Cook County,IL,NA,8.755364806866952,72.09821428571429
60631,Cook County,IL,NA,NA,52.00892857142857
60634,Cook County,IL,NA,NA,5.412946428571429
60637,Cook County,IL,NA,9.05579399141631,NA
60639,Cook County,IL,NA,29.570815450643778,NA
60640,Cook County,IL,NA,5.021459227467811,NA
60641,Cook County,IL,NA,NA,17.075892857142858
60643,Cook County,IL,NA,NA,4.910714285714286
60645,Cook County,IL,NA,15.793991416309014,NA
60646,Cook County,IL,NA,71.3304721030043,NA
60647,Cook County,IL,NA,14.84978540772532,NA
60652,Cook County,IL,NA,52.66094420600859,NA
60653,Cook County,IL,NA,23.519313304721027,56.58482142857143
60657,Cook County,IL,NA,38.8412017167382,NA
60714,Cook County,IL,NA,NA,7.366071428571429
60804,Cook County,IL,NA,9.82832618025751,NA
60827,Cook County,IL,NA,NA,97.60044642857143
61008,Boone County,IL,NA,47.42489270386266,NA
61021,Lee County,IL,NA,27.339055793991417,59.765625
61032,Stephenson County,IL,NA,12.532188841201716,59.87723214285714
61061,Ogle County,IL,NA,98.36909871244636,NA
61071,Whiteside County,IL,NA,NA,39.174107142857146
61080,Winnebago County,IL,84.71953578336557,NA,NA
61101,Winnebago County,IL,NA,NA,36.71875
61103,Winnebago County,IL,53.191489361702125,NA,NA
61107,Winnebago County,IL,72.72727272727273,NA,NA
61108,Winnebago County,IL,NA,53.261802575107296,NA
61115,Winnebago County,IL,NA,21.373390557939913,NA
61241,Henry County,IL,89.94197292069632,NA,NA
61252,Whiteside County,IL,NA,95.79399141630901,NA
61265,Rock Island County,IL,NA,60.128755364806864,41.238839285714285
61301,LaSalle County,IL,NA,58.41201716738197,NA
61350,LaSalle County,IL,NA,24.935622317596568,22.154017857142858
61354,LaSalle County,IL,NA,NA,23.716517857142858
61356,Bureau County,IL,NA,NA,34.598214285714285
61401,Knox County,IL,NA,59.31330472103005,47.823660714285715
61520,Fulton County,IL,70.01934235976789,NA,NA
61548,Woodford County,IL,NA,86.09442060085837,NA
61571,Tazewell County,IL,91.48936170212765,NA,NA
61607,Peoria County,IL,82.39845261121856,NA,NA
61614,Peoria County,IL,NA,64.0343347639485,NA
61615,Peoria County,IL,NA,81.80257510729614,NA
61616,Peoria County,IL,NA,89.3991416309013,NA
61705,McLean County,IL,NA,89.6137339055794,NA
61738,Woodford County,IL,NA,99.48497854077253,NA
61764,Livingston County,IL,NA,NA,87.33258928571429
61802,Champaign County,IL,62.475822050290134,24.07725321888412,NA
61820,Champaign County,IL,NA,NA,68.86160714285714
61821,Champaign County,IL,NA,73.51931330472104,8.482142857142858
61832,Vermilion County,IL,NA,NA,5.301339285714286
61883,Vermilion County,IL,NA,NA,91.74107142857143
61938,Coles County,IL,NA,NA,25.669642857142854
61953,Douglas County,IL,NA,94.8068669527897,NA
62025,Madison County,IL,NA,NA,19.977678571428573
62040,Madison County,IL,NA,6.738197424892705,NA
62056,Montgomery County,IL,95.35783365570599,NA,NA
62062,Madison County,IL,NA,92.78969957081546,NA
62095,Madison County,IL,NA,91.80257510729614,NA
62205,St. Clair County,IL,NA,75.49356223175965,82.8125
62207,St. Clair County,IL,NA,77.38197424892704,NA
62208,St. Clair County,IL,NA,59.6137339055794,NA
62220,St. Clair County,IL,63.829787234042556,NA,NA
62226,St. Clair County,IL,NA,20.515021459227466,NA
62234,Madison County,IL,NA,NA,18.470982142857142
62243,St. Clair County,IL,NA,NA,93.02455357142857
62254,St. Clair County,IL,NA,90.90128755364807,NA
62278,Randolph County,IL,NA,95.62231759656652,NA
62420,Clark County,IL,NA,NA,98.32589285714286
62448,Jasper County,IL,NA,82.66094420600858,NA
62521,Macon County,IL,14.119922630560927,NA,NA
62522,Macon County,IL,NA,NA,36.77455357142857
62526,Macon County,IL,12.379110251450678,4.8068669527897,NA
62568,Christian County,IL,NA,48.927038626609445,NA
62618,Cass County,IL,NA,NA,96.09375
62629,Sangamon County,IL,NA,NA,88.00223214285714
62644,Mason County,IL,NA,NA,80.52455357142857
62650,Morgan County,IL,NA,NA,63.50446428571429
62681,Schuyler County,IL,NA,77.38197424892704,68.86160714285714
62801,Marion County,IL,NA,22.06008583690987,NA
62837,Wayne County,IL,NA,NA,60.37946428571429
62859,Hamilton County,IL,90.32882011605416,NA,NA
62881,Marion County,IL,NA,72.01716738197425,NA
46011,Madison County,IN,NA,49.44206008583691,81.86383928571429
46012,Madison County,IN,NA,15.021459227467812,86.66294642857143
46013,Madison County,IN,NA,47.2961373390558,60.10044642857143
46016,Madison County,IN,63.2495164410058,23.476394849785407,69.02901785714286
46032,Hamilton County,IN,NA,51.28755364806867,NA
46036,Madison County,IN,NA,78.19742489270386,NA
46037,Hamilton County,IN,NA,29.399141630901287,NA
46052,Boone County,IN,NA,41.11587982832618,39.229910714285715
46060,Hamilton County,IN,NA,20.858369098712444,NA
46062,Hamilton County,IN,NA,12.489270386266096,NA
46112,Hendricks County,IN,NA,NA,24.776785714285715
46123,Hendricks County,IN,77.56286266924565,NA,NA
46140,Hancock County,IN,NA,46.18025751072962,NA
46142,Johnson County,IN,NA,8.669527896995708,NA
46205,Marion County,IN,NA,50.3862660944206,NA
46208,Marion County,IN,36.55705996131528,NA,NA
46217,Marion County,IN,NA,60.55793991416309,NA
46218,Marion County,IN,NA,NA,18.805803571428573
46222,Marion County,IN,NA,21.545064377682404,NA
46228,Marion County,IN,NA,NA,69.64285714285714
46229,Marion County,IN,NA,86.22317596566523,NA
46231,Marion County,IN,NA,NA,91.29464285714286
46236,Marion County,IN,NA,NA,60.88169642857143
46239,Marion County,IN,NA,76.52360515021459,NA
46240,Marion County,IN,NA,67.33905579399142,NA
46241,Marion County,IN,NA,93.86266094420601,NA
46256,Marion County,IN,NA,NA,81.36160714285714
46280,Hamilton County,IN,NA,99.01287553648068,NA
46304,Porter County,IN,NA,46.00858369098712,20.870535714285715
46319,Lake County,IN,NA,20,NA
46323,Lake County,IN,NA,13.090128755364807,NA
46324,Lake County,IN,NA,20.30042918454936,NA
46327,Lake County,IN,NA,50.25751072961373,NA
46342,Lake County,IN,NA,9.2274678111588,NA
46366,Starke County,IN,NA,NA,84.31919642857143
46373,Lake County,IN,NA,65.02145922746782,NA
46383,Porter County,IN,NA,3.2618025751072963,9.207589285714286
46385,Porter County,IN,NA,NA,69.36383928571429
46394,Lake County,IN,NA,NA,59.31919642857143
46405,Lake County,IN,NA,41.11587982832618,NA
46410,Lake County,IN,29.980657640232106,2.9184549356223175,NA
46506,Marshall County,IN,NA,94.89270386266094,NA
46516,Elkhart County,IN,NA,66.13733905579399,NA
46526,Elkhart County,IN,NA,NA,33.370535714285715
46550,Elkhart County,IN,NA,NA,87.61160714285714
46563,Marshall County,IN,NA,18.068669527896997,13.392857142857142
46574,St. Joseph County,IN,NA,72.74678111587983,60.546875
46723,Whitley County,IN,NA,67.72532188841201,NA
46725,Whitley County,IN,NA,15.536480686695278,NA
46733,Adams County,IN,NA,39.65665236051502,37.94642857142857
46737,Steuben County,IN,NA,82.23175965665236,NA
46750,Huntington County,IN,19.922630560928432,NA,NA
46755,Noble County,IN,NA,NA,54.63169642857143
46761,LaGrange County,IN,NA,81.931330472103,64.11830357142857
46793,DeKalb County,IN,NA,99.31330472103004,NA
46805,Allen County,IN,NA,42.446351931330476,43.02455357142857
46809,Allen County,IN,NA,NA,56.13839285714286
46815,Allen County,IN,NA,NA,13.169642857142858
46816,Allen County,IN,30.36750483558994,NA,NA
46819,Allen County,IN,NA,NA,90.84821428571429
46825,Allen County,IN,NA,NA,60.77008928571429
46835,Allen County,IN,NA,34.59227467811159,NA
46845,Allen County,IN,NA,NA,39.78794642857143
46901,Howard County,IN,1.9342359767891684,2.703862660944206,61.88616071428571
46902,Howard County,IN,5.609284332688588,2.4463519313304722,NA
46923,Carroll County,IN,NA,86.09442060085837,NA
46933,Grant County,IN,NA,88.45493562231759,NA
46953,Grant County,IN,NA,7.768240343347639,NA
46970,Miami County,IN,NA,69.82832618025752,NA
46975,Fulton County,IN,50.483558994197296,39.2274678111588,NA
46992,Wabash County,IN,NA,NA,80.58035714285714
47112,Harrison County,IN,NA,49.09871244635193,NA
47165,Washington County,IN,NA,NA,94.19642857142857
47203,Bartholomew County,IN,NA,49.57081545064378,NA
47240,Decatur County,IN,NA,NA,21.428571428571427
47250,Jefferson County,IN,NA,80.51502145922747,NA
47265,Jennings County,IN,NA,NA,40.457589285714285
47274,Jackson County,IN,NA,24.721030042918454,NA
47302,Delaware County,IN,NA,61.80257510729614,NA
47303,Delaware County,IN,NA,45.45064377682404,NA
47348,Blackford County,IN,NA,NA,43.136160714285715
47356,Henry County,IN,NA,NA,81.69642857142857
47362,Henry County,IN,NA,7.982832618025751,NA
47371,Jay County,IN,NA,NA,74.49776785714286
47374,Wayne County,IN,NA,2.575107296137339,9.040178571428571
47401,Monroe County,IN,NA,68.15450643776823,NA
47404,Monroe County,IN,NA,68.15450643776823,NA
47446,Lawrence County,IN,NA,64.20600858369099,NA
47501,Daviess County,IN,NA,NA,16.294642857142858
47591,Knox County,IN,NA,19.399141630901287,NA
47648,Gibson County,IN,99.03288201160542,NA,NA
47710,Vanderburgh County,IN,NA,78.62660944206009,NA
47712,Vanderburgh County,IN,51.45067698259188,NA,NA
47714,Vanderburgh County,IN,14.70019342359768,NA,NA
47715,Vanderburgh County,IN,NA,32.14592274678111,NA
47720,Vanderburgh County,IN,NA,52.06008583690988,83.64955357142857
47803,Vigo County,IN,NA,47.896995708154506,NA
47804,Vigo County,IN,84.91295938104449,NA,75.78125
47805,Vigo County,IN,NA,69.14163090128756,NA
47807,Vigo County,IN,NA,73.17596566523605,NA
47834,Clay County,IN,34.04255319148936,NA,NA
47906,Tippecanoe County,IN,NA,20.94420600858369,NA
47909,Tippecanoe County,IN,NA,NA,31.361607142857146
47932,Fountain County,IN,NA,65.23605150214593,NA
50014,Story County,IA,NA,NA,80.46875
50021,Polk County,IA,NA,NA,88.22544642857143
50036,Boone County,IA,88.00773694390716,NA,NA
50049,Lucas County,IA,NA,75.32188841201717,NA
50125,Warren County,IA,NA,80.21459227467811,NA
50208,Jasper County,IA,NA,NA,39.285714285714285
50213,Clarke County,IA,NA,92.74678111587983,NA
50265,Polk County,IA,NA,NA,49.386160714285715
50314,Polk County,IA,NA,54.29184549356223,82.36607142857143
50315,Polk County,IA,NA,18.49785407725322,NA
50316,Polk County,IA,41.3926499032882,NA,NA
50321,Polk County,IA,NA,NA,91.90848214285714
50322,Polk County,IA,NA,NA,49.720982142857146
50327,Polk County,IA,NA,NA,78.73883928571429
50428,Cerro Gordo County,IA,NA,NA,39.620535714285715
50436,Winnebago County,IA,NA,NA,81.36160714285714
50441,Franklin County,IA,NA,42.91845493562232,NA
50461,Mitchell County,IA,NA,81.67381974248927,NA
50533,Wright County,IA,NA,99.78540772532189,NA
50536,Palo Alto County,IA,NA,81.88841201716738,NA
50613,Black Hawk County,IA,NA,NA,2.2879464285714284
50701,Black Hawk County,IA,NA,19.098712446351932,NA
51105,Woodbury County,IA,NA,56.351931330472105,NA
51360,Dickinson County,IA,NA,81.84549356223177,44.642857142857146
51503,Pottawattamie County,IA,NA,2.832618025751073,NA
52001,Dubuque County,IA,NA,NA,41.07142857142857
52002,Dubuque County,IA,NA,NA,70.36830357142857
52057,Delaware County,IA,NA,NA,46.261160714285715
52060,Jackson County,IA,NA,NA,94.53125
52101,Winneshiek County,IA,NA,NA,23.493303571428573
52205,Jones County,IA,NA,96.95278969957081,NA
52240,Johnson County,IA,NA,48.02575107296138,73.93973214285714
52241,Johnson County,IA,NA,52.10300429184549,NA
52245,Johnson County,IA,NA,NA,44.921875
52246,Johnson County,IA,NA,NA,60.77008928571429
52302,Linn County,IA,NA,NA,34.82142857142857
52317,Johnson County,IA,50.67698259187621,NA,NA
52405,Linn County,IA,NA,NA,69.41964285714286
52544,Appanoose County,IA,NA,NA,73.828125
52577,Mahaska County,IA,NA,35.622317596566525,NA
52625,Lee County,IA,NA,99.8283261802575,NA
52627,Lee County,IA,NA,36.9098712446352,NA
52632,Lee County,IA,NA,78.88412017167383,NA
52641,Henry County,IA,NA,NA,46.205357142857146
52655,Des Moines County,IA,NA,76.22317596566523,NA
52761,Muscatine County,IA,NA,NA,19.53125
52802,Scott County,IA,81.04448742746615,NA,NA
52806,Scott County,IA,22.437137330754354,NA,NA
66061,Johnson County,KS,20.309477756286267,NA,NA
66062,Johnson County,KS,NA,42.532188841201716,NA
66106,Wyandotte County,KS,75.43520309477756,NA,NA
66112,Wyandotte County,KS,NA,67.81115879828327,NA
66202,Johnson County,KS,NA,NA,58.92857142857143
66206,Johnson County,KS,NA,75.62231759656652,67.24330357142857
66207,Johnson County,KS,NA,70.08583690987125,NA
66208,Johnson County,KS,NA,74.291845493562235,45.535714285714285
66209,Johnson County,KS,NA,35.922746781115876,60.9375
66213,Johnson County,KS,NA,39.69957081545064,NA
66216,Johnson County,KS,NA,50.30042918454936,NA
66219,Johnson County,KS,NA,93.04721030042919,NA
66221,Johnson County,KS,68.47195357833655,NA,NA
66223,Johnson County,KS,NA,80.17167381974248,NA
66502,Riley County,KS,NA,93.43347639484979,NA
66604,Shawnee County,KS,NA,67.6824034334764,NA
66605,Shawnee County,KS,NA,NA,48.4375
66713,Cherokee County,KS,NA,NA,48.828125
66720,Neosho County,KS,NA,69.35622317596567,NA
66739,Cherokee County,KS,NA,100,NA
66801,Lyon County,KS,NA,47.081545064377686,NA
67002,Butler County,KS,NA,87.1244635193133,NA
67037,Sedgwick County,KS,NA,78.96995708154506,NA
67156,Cowley County,KS,NA,NA,40.95982142857143
67204,Sedgwick County,KS,NA,61.37339055793991,NA
67301,Montgomery County,KS,NA,NA,65.29017857142857
67337,Montgomery County,KS,NA,87.8969957081545,NA
67432,Clay County,KS,NA,NA,98.77232142857143
67701,Thomas County,KS,NA,76.95278969957081,78.73883928571429
67801,Ford County,KS,NA,NA,70.92633928571429
67846,Finney County,KS,NA,NA,17.522321428571427
67871,Scott County,KS,NA,60.72961373390557,NA
40004,Nelson County,KY,NA,NA,67.85714285714286
40071,Spencer County,KY,NA,43.69098712446352,NA
40108,Meade County,KY,NA,NA,84.375
40118,Jefferson County,KY,NA,57.12446351931331,NA
40160,Hardin County,KY,NA,NA,47.098214285714285
40211,Jefferson County,KY,NA,30.257510729613735,NA
40214,Jefferson County,KY,NA,11.373390557939913,NA
40216,Jefferson County,KY,NA,8.497854077253217,NA
40218,Jefferson County,KY,NA,31.716738197424892,NA
40220,Jefferson County,KY,NA,48.75536480686695,NA
40272,Jefferson County,KY,NA,12.188841201716738,NA
40342,Anderson County,KY,36.17021276595745,NA,NA
40361,Bourbon County,KY,67.11798839458413,NA,NA
40403,Madison County,KY,NA,NA,20.033482142857142
40444,Garrard County,KY,NA,96.60944206008584,NA
40447,Jackson County,KY,NA,77.81115879828326,NA
40456,Rockcastle County,KY,NA,NA,72.65625
40475,Madison County,KY,34.81624758220503,NA,NA
40484,Lincoln County,KY,NA,49.69957081545064,NA
40504,Fayette County,KY,NA,54.506437768240346,NA
40505,Fayette County,KY,NA,24.377682403433475,NA
40509,Fayette County,KY,NA,32.36051502145923,68.63839285714286
40511,Fayette County,KY,NA,40.772532188841204,NA
40515,Fayette County,KY,NA,NA,74.33035714285714
40517,Fayette County,KY,22.63056092843327,NA,NA
40701,Whitley County,KY,NA,9.012875536480687,NA
40741,Laurel County,KY,23.984526112185687,32.96137339055794,94.75446428571429
40831,Harlan County,KY,NA,57.33905579399141,NA
40962,Clay County,KY,19.148936170212767,NA,NA
41005,Boone County,KY,NA,46.60944206008584,51.33928571428571
41015,Kenton County,KY,NA,NA,31.919642857142854
41040,Pendleton County,KY,NA,NA,97.43303571428571
41041,Fleming County,KY,NA,NA,91.57366071428571
41042,Boone County,KY,NA,NA,2.064732142857143
41056,Mason County,KY,NA,84.07725321888412,50
41071,Campbell County,KY,28.239845261121854,NA,NA
41075,Campbell County,KY,NA,NA,51.67410714285714
41091,Boone County,KY,NA,85.36480686695279,50.44642857142857
41101,Boyd County,KY,NA,13.86266094420601,14.006696428571427
41102,Boyd County,KY,NA,14.163090128755366,NA
41144,Greenup County,KY,NA,45.92274678111588,NA
41164,Carter County,KY,NA,NA,42.96875
41224,Martin County,KY,NA,96.35193133047211,NA
41230,Lawrence County,KY,NA,36.351931330472105,NA
41465,Magoffin County,KY,84.33268858800773,NA,NA
41501,Pike County,KY,NA,39.57081545064378,24.107142857142858
41522,Pike County,KY,NA,NA,90.234375
42001,McCracken County,KY,NA,NA,32.533482142857146
42064,Crittenden County,KY,68.66537717601547,NA,NA
42066,Graves County,KY,24.564796905222437,NA,NA
42071,Calloway County,KY,NA,35.66523605150215,NA
42086,McCracken County,KY,NA,93.51931330472102,NA
42101,Warren County,KY,NA,11.416309012875537,NA
42127,Barren County,KY,NA,74.2489270386266,NA
42129,Metcalfe County,KY,NA,56.65236051502146,82.36607142857143
42141,Barren County,KY,NA,51.58798283261803,NA
42164,Allen County,KY,39.071566731141196,NA,NA
42167,Monroe County,KY,63.44294003868471,NA,86.328125
42211,Trigg County,KY,NA,NA,77.734375
42217,Christian County,KY,97.48549323017409,NA,NA
42240,Christian County,KY,7.543520309477756,NA,18.415178571428573
42303,Daviess County,KY,11.411992263056092,14.034334763948497,NA
42431,Hopkins County,KY,NA,55.92274678111588,NA
42445,Caldwell County,KY,NA,58.15450643776824,86.99776785714286
42501,Pulaski County,KY,NA,50.94420600858369,30.52455357142857
42544,Pulaski County,KY,NA,91.24463519313305,NA
42602,Clinton County,KY,NA,NA,91.51785714285714
42642,Russell County,KY,NA,NA,56.80803571428571
42701,Hardin County,KY,NA,6.652360515021459,NA
42718,Taylor County,KY,70.2127659574468,6.566523605150215,36.160714285714285
42754,Grayson County,KY,59.381044487427474,NA,NA
70002,Jefferson Parish,LA,98.25918762088975,NA,NA
70005,Jefferson Parish,LA,NA,NA,4.743303571428571
70056,Jefferson Parish,LA,NA,NA,88.33705357142857
70065,Jefferson Parish,LA,NA,NA,1.7857142857142856
70072,Jefferson Parish,LA,NA,NA,25.83705357142857
70084,St. John the Baptist Parish,LA,NA,89.01287553648068,NA
70113,Orleans Parish,LA,NA,61.587982832618025,NA
70114,Orleans Parish,LA,NA,NA,52.00892857142857
70117,Orleans Parish,LA,NA,12.918454935622318,NA
70119,Orleans Parish,LA,NA,27.811158798283266,NA
70125,Orleans Parish,LA,NA,96.52360515021459,NA
70128,Orleans Parish,LA,76.59574468085107,NA,NA
70344,Terrebonne Parish,LA,NA,91.88841201716738,NA
70345,Lafourche Parish,LA,NA,NA,96.31696428571429
70360,Terrebonne Parish,LA,NA,NA,66.18303571428571
70363,Terrebonne Parish,LA,NA,23.605150214592275,NA
70380,St. Mary Parish,LA,NA,23.13304721030043,NA
70427,Washington Parish,LA,NA,16.995708154506435,NA
70433,St. Tammany Parish,LA,7.7369439071566735,29.270386266094423,NA
70444,Tangipahoa Parish,LA,NA,71.50214592274679,NA
70454,Tangipahoa Parish,LA,NA,53.17596566523605,NA
70460,St. Tammany Parish,LA,13.539651837524177,NA,NA
70462,Livingston Parish,LA,NA,NA,88.44866071428571
70506,Lafayette Parish,LA,NA,12.446351931330472,NA
70512,St. Landry Parish,LA,NA,89.14163090128756,78.01339285714286
70517,St. Martin Parish,LA,NA,13.948497854077251,32.8125
70520,Lafayette Parish,LA,NA,38.66952789699571,NA
70563,Iberia Parish,LA,NA,82.78969957081546,NA
70570,St. Landry Parish,LA,NA,7.59656652360515,NA
70583,Lafayette Parish,LA,NA,99.09871244635194,NA
70586,Evangeline Parish,LA,NA,65.32188841201717,NA
70592,Lafayette Parish,LA,NA,62.14592274678111,NA
70601,Calcasieu Parish,LA,NA,5.75107296137339,NA
70605,Calcasieu Parish,LA,NA,22.317596566523605,NA
70607,Calcasieu Parish,LA,14.506769825918761,NA,NA
70634,Beauregard Parish,LA,NA,31.287553648068673,NA
70769,Ascension Parish,LA,NA,30.90128755364807,NA
70776,Iberville Parish,LA,97.29206963249516,NA,NA
70785,Livingston Parish,LA,NA,29.914163090128753,NA
70806,East Baton Rouge Parish,LA,NA,NA,32.47767857142857
70807,East Baton Rouge Parish,LA,NA,NA,65.29017857142857
70815,East Baton Rouge Parish,LA,NA,65.66523605150213,NA
70816,East Baton Rouge Parish,LA,NA,26.437768240343345,NA
70817,East Baton Rouge Parish,LA,NA,11.28755364806867,NA
70818,East Baton Rouge Parish,LA,NA,66.05150214592274,NA
71006,Bossier Parish,LA,NA,63.347639484978544,NA
71037,Bossier Parish,LA,NA,45.622317596566525,NA
71040,Claiborne Parish,LA,NA,84.291845493562235,NA
71055,Webster Parish,LA,17.79497098646035,NA,NA
71103,Caddo Parish,LA,NA,NA,89.56473214285714
71107,Caddo Parish,LA,4.061895551257253,14.334763948497853,74.609375
71109,Caddo Parish,LA,NA,53.81974248927038,31.919642857142854
71111,Bossier Parish,LA,NA,9.914163090128755,NA
71112,Bossier Parish,LA,NA,18.283261802575108,NA
71115,Caddo Parish,LA,79.88394584139265,NA,NA
71118,Caddo Parish,LA,NA,19.05579399141631,12.109375
71119,Caddo Parish,LA,NA,58.45493562231759,NA
71251,Jackson Parish,LA,NA,91.97424892703863,NA
71291,Ouachita Parish,LA,NA,23.390557939914164,NA
71301,Rapides Parish,LA,8.51063829787234,93.6480686695279,57.86830357142857
71302,Rapides Parish,LA,93.61702127659575,50.858369098712444,NA
71303,Rapides Parish,LA,NA,67.25321888412017,47.544642857142854
71343,Catahoula Parish,LA,NA,83.34763948497854,88.89508928571429
71360,Rapides Parish,LA,NA,NA,56.97544642857143
71405,Rapides Parish,LA,NA,86.3519313304721,NA
71423,Grant Parish,LA,NA,99.95708154506437,NA
71446,Vernon Parish,LA,NA,30.3862660944206,NA
71457,Natchitoches Parish,LA,NA,52.78969957081545,28.292410714285715
71483,Winn Parish,LA,NA,94.33476394849785,NA
03909,York County,ME,NA,NA,35.770089285714285
04005,York County,ME,NA,3.2188841201716736,NA
04011,Cumberland County,ME,NA,55.15021459227468,46.595982142857146
04039,Cumberland County,ME,NA,71.71673819742489,82.25446428571429
04079,Cumberland County,ME,NA,NA,62.66741071428571
04086,Sagadahoc County,ME,NA,44.93562231759657,NA
04092,Cumberland County,ME,NA,21.201716738197423,NA
04103,Cumberland County,ME,NA,16.30901287553648,NA
04106,Cumberland County,ME,NA,28.197424892703864,27.00892857142857
04239,Franklin County,ME,NA,NA,68.80580357142857
04257,Oxford County,ME,NA,NA,99.88839285714286
04330,Kennebec County,ME,NA,4.291845493562231,NA
04401,Penobscot County,ME,NA,0.9012875536480687,NA
04462,Penobscot County,ME,NA,NA,60.04464285714286
04530,Sagadahoc County,ME,NA,72.23175965665236,NA
04619,Washington County,ME,NA,NA,91.62946428571429
04736,Aroostook County,ME,NA,69.69957081545064,22.433035714285715
04756,Aroostook County,ME,NA,88.58369098712447,NA
04901,Kennebec County,ME,6.382978723404255,17.98283261802575,NA
04930,Penobscot County,ME,NA,80.21459227467811,NA
04938,Franklin County,ME,50.09671179883946,NA,NA
04976,Somerset County,ME,NA,11.330472103004292,NA
20619,St. Mary's County,MD,NA,95.45064377682402,NA
20650,St. Mary's County,MD,80.65764023210832,NA,NA
20711,Anne Arundel County,MD,NA,90.47210300429185,NA
20732,Calvert County,MD,NA,93.47639484978541,NA
20745,Prince George's County,MD,NA,NA,81.97544642857143
20746,Prince George's County,MD,63.05609284332688,60.386266094420606,NA
20783,Prince George's County,MD,81.43133462282398,77.38197424892704,NA
20785,Prince George's County,MD,NA,70.55793991416309,NA
20832,Montgomery County,MD,80.85106382978722,NA,NA
20850,Montgomery County,MD,NA,NA,47.71205357142857
20877,Montgomery County,MD,92.45647969052224,77.51072961373391,NA
20904,Montgomery County,MD,NA,42.188841201716734,14.732142857142858
21015,Harford County,MD,NA,50.557939914163086,NA
21032,Anne Arundel County,MD,NA,85.66523605150215,NA
21042,Howard County,MD,NA,NA,41.74107142857143
21044,Howard County,MD,NA,57.33905579399141,NA
21050,Harford County,MD,NA,66.48068669527896,NA
21117,Baltimore County,MD,NA,19.313304721030043,NA
21122,Anne Arundel County,MD,9.864603481624759,NA,NA
21131,Baltimore County,MD,94.58413926499033,NA,NA
21133,Baltimore County,MD,NA,92.1030042918455,NA
21144,Anne Arundel County,MD,NA,48.79828326180258,NA
21202,Baltimore city,MD,NA,78.79828326180257,NA
21205,Baltimore city,MD,NA,68.71244635193133,NA
21206,Baltimore city,MD,NA,36.69527896995708,NA
21208,Baltimore County,MD,NA,77.59656652360515,9.375
21209,Baltimore County,MD,NA,NA,59.65401785714286
21211,Baltimore city,MD,NA,96.00858369098712,NA
21213,Baltimore city,MD,50.09671179883946,NA,NA
21214,Baltimore city,MD,NA,NA,52.56696428571429
21215,Baltimore city,MD,9.477756286266924,6.48068669527897,NA
21217,Baltimore city,MD,NA,45.5793991416309,NA
21220,Baltimore County,MD,NA,93.00429184549355,NA
21222,Baltimore County,MD,NA,1.201716738197425,59.26339285714286
21224,Baltimore city,MD,17.02127659574468,NA,NA
21228,Baltimore County,MD,NA,8.240343347639485,NA
21229,Baltimore city,MD,NA,NA,15.290178571428573
21230,Baltimore city,MD,NA,NA,87.109375
21239,Baltimore city,MD,NA,NA,21.205357142857142
21401,Anne Arundel County,MD,NA,24.4206008583691,14.174107142857142
21502,Allegany County,MD,25.145067698259187,NA,3.850446428571429
21601,Talbot County,MD,NA,35.23605150214592,NA
21701,Frederick County,MD,NA,80.72961373390558,NA
21757,Frederick County,MD,98.8394584139265,NA,NA
21771,Frederick County,MD,NA,NA,68.52678571428571
21774,Frederick County,MD,NA,NA,93.58258928571429
21791,Carroll County,MD,NA,97.46781115879828,NA
21811,Worcester County,MD,NA,NA,13.002232142857142
21911,Cecil County,MD,NA,NA,52.79017857142857
01105,Hampden County,MA,NA,35.836909871244636,NA
01107,Hampden County,MA,NA,1.7167381974248928,NA
01151,Hampden County,MA,NA,NA,95.36830357142857
01376,Franklin County,MA,62.0889748549323,NA,NA
01460,Middlesex County,MA,41.19922630560928,NA,NA
01463,Middlesex County,MA,NA,NA,95.03348214285714
01527,Worcester County,MA,NA,NA,26.22767857142857
01562,Worcester County,MA,28.62669245647969,NA,NA
01566,Worcester County,MA,NA,97.21030042918454,NA
01569,Worcester County,MA,NA,25.9656652360515,NA
01590,Worcester County,MA,NA,NA,76.84151785714286
01602,Worcester County,MA,NA,15.1931330472103,NA
01604,Worcester County,MA,NA,12.703862660944207,NA
01605,Worcester County,MA,NA,NA,0.16741071428571427
01608,Worcester County,MA,NA,97.8969957081545,NA
01609,Worcester County,MA,NA,3.6909871244635193,NA
01610,Worcester County,MA,NA,2.532188841201717,NA
01701,Middlesex County,MA,NA,4.6781115879828326,NA
01720,Middlesex County,MA,NA,NA,33.482142857142854
01730,Middlesex County,MA,NA,NA,45.200892857142854
01746,Middlesex County,MA,NA,29.656652360515025,NA
01747,Worcester County,MA,NA,82.53218884120172,NA
01749,Middlesex County,MA,NA,29.69957081545064,NA
01754,Middlesex County,MA,NA,NA,94.921875
01760,Middlesex County,MA,NA,5.064377682403434,6.082589285714286
01801,Middlesex County,MA,NA,7.210300429184549,NA
01803,Middlesex County,MA,NA,66.7381974248927,NA
01821,Middlesex County,MA,NA,NA,5.636160714285714
01824,Middlesex County,MA,10.444874274661508,NA,5.133928571428571
01826,Middlesex County,MA,NA,1.9313304721030045,NA
01841,Essex County,MA,NA,NA,1.5625
01844,Essex County,MA,NA,NA,2.5111607142857144
01845,Essex County,MA,NA,8.326180257510728,NA
01852,Middlesex County,MA,NA,0.8583690987124464,NA
01863,Middlesex County,MA,NA,NA,53.18080357142857
01876,Middlesex County,MA,NA,1.6309012875536482,NA
01880,Middlesex County,MA,NA,4.120171673819742,NA
01886,Middlesex County,MA,NA,24.549356223175966,NA
01890,Middlesex County,MA,NA,24.8068669527897,NA
01901,Essex County,MA,NA,NA,27.957589285714285
01902,Essex County,MA,18.568665377176018,0.34334763948497854,NA
01904,Essex County,MA,NA,9.184549356223176,NA
01905,Essex County,MA,NA,NA,44.140625
01907,Essex County,MA,NA,26.09442060085837,45.424107142857146
01915,Essex County,MA,NA,NA,7.700892857142858
01923,Essex County,MA,5.029013539651837,NA,NA
01938,Essex County,MA,NA,11.545064377682404,NA
01940,Essex County,MA,NA,39.957081545064376,NA
01960,Essex County,MA,NA,0.12875536480686695,14.397321428571427
01966,Essex County,MA,NA,82.53218884120172,NA
01969,Essex County,MA,NA,NA,88.11383928571429
01970,Essex County,MA,NA,0.2145922746781116,NA
02026,Norfolk County,MA,NA,11.630901287553648,NA
02048,Bristol County,MA,NA,NA,64.62053571428571
02050,Plymouth County,MA,21.470019342359766,NA,76.50669642857143
02054,Norfolk County,MA,NA,86.7381974248927,NA
02072,Norfolk County,MA,10.251450676982591,NA,56.30580357142857
02090,Norfolk County,MA,NA,60.90128755364807,NA
02111,Suffolk County,MA,84.13926499032883,NA,NA
02115,Suffolk County,MA,NA,NA,19.029017857142858
02116,Suffolk County,MA,15.860735009671178,2.017167381974249,11.049107142857142
02118,Suffolk County,MA,1.7408123791102514,NA,45.535714285714285
02119,Suffolk County,MA,NA,NA,81.13839285714286
02120,Suffolk County,MA,NA,43.94849785407725,NA
02121,Suffolk County,MA,NA,NA,2.9575892857142856
02122,Suffolk County,MA,NA,0.5150214592274678,NA
02124,Suffolk County,MA,NA,1.5450643776824033,38.783482142857146
02125,Suffolk County,MA,NA,22.618025751072963,NA
02126,Suffolk County,MA,0,NA,NA
02127,Suffolk County,MA,NA,29.141630901287552,57.58928571428571
02128,Suffolk County,MA,NA,NA,82.08705357142857
02131,Suffolk County,MA,NA,22.017167381974247,NA
02132,Suffolk County,MA,NA,NA,3.0691964285714284
02135,Suffolk County,MA,NA,32.532188841201716,NA
02136,Suffolk County,MA,NA,22.360515021459225,27.176339285714285
02138,Middlesex County,MA,NA,24.678111587982833,NA
02139,Middlesex County,MA,NA,32.8755364806867,NA
02140,Middlesex County,MA,NA,35.06437768240344,54.07366071428571
02143,Middlesex County,MA,NA,76.69527896995709,NA
02145,Middlesex County,MA,NA,98.19742489270386,NA
02148,Middlesex County,MA,NA,0.04291845493562232,17.299107142857142
02149,Middlesex County,MA,2.7079303675048356,NA,1.1160714285714286
02150,Suffolk County,MA,NA,NA,2.7901785714285716
02151,Suffolk County,MA,27.079303675048354,NA,0.055803571428571425
02152,Suffolk County,MA,NA,NA,6.305803571428571
02155,Middlesex County,MA,0.9671179883945842,26.394849785407725,NA
02169,Norfolk County,MA,NA,NA,5.859375
02171,Norfolk County,MA,NA,13.991416309012875,34.765625
02176,Middlesex County,MA,NA,NA,9.263392857142858
02301,Plymouth County,MA,NA,6.394849785407724,0.7254464285714286
02302,Plymouth County,MA,1.160541586073501,NA,2.845982142857143
02332,Plymouth County,MA,NA,82.44635193133047,NA
02343,Norfolk County,MA,NA,NA,99.27455357142857
02356,Bristol County,MA,NA,NA,87.890625
02360,Plymouth County,MA,0.7736943907156674,NA,NA
02364,Plymouth County,MA,NA,56.30901287553648,NA
02445,Norfolk County,MA,NA,NA,23.828125
02453,Middlesex County,MA,NA,NA,11.941964285714286
02458,Middlesex County,MA,46.61508704061896,NA,71.26116071428571
02472,Middlesex County,MA,NA,NA,9.375
02478,Middlesex County,MA,NA,80.98712446351931,30.691964285714285
02493,Middlesex County,MA,NA,NA,78.29241071428571
02664,Barnstable County,MA,NA,29.184549356223176,NA
02703,Bristol County,MA,NA,7.03862660944206,25.167410714285715
02717,Bristol County,MA,NA,NA,86.27232142857143
02720,Bristol County,MA,NA,0.30042918454935624,NA
02721,Bristol County,MA,NA,3.133047210300429,NA
02723,Bristol County,MA,NA,19.95708154506438,NA
02740,Bristol County,MA,NA,9.570815450643778,NA
02760,Bristol County,MA,NA,NA,43.917410714285715
02767,Bristol County,MA,26.305609284332686,NA,NA
02769,Bristol County,MA,NA,99.14163090128756,NA
02777,Bristol County,MA,NA,93.17596566523605,NA
02780,Bristol County,MA,NA,10.643776824034335,NA
48001,St. Clair County,MI,NA,NA,90.29017857142857
48014,St. Clair County,MI,NA,99.18454935622317,NA
48017,Oakland County,MI,NA,NA,58.92857142857143
48021,Macomb County,MI,NA,13.433476394849786,NA
48026,Macomb County,MI,NA,NA,76.11607142857143
48030,Oakland County,MI,NA,NA,83.37053571428571
48033,Oakland County,MI,NA,NA,15.792410714285715
48044,Macomb County,MI,9.671179883945841,NA,NA
48045,Macomb County,MI,NA,11.587982832618025,NA
48047,Macomb County,MI,NA,10.343347639484978,26.171875
48051,Macomb County,MI,56.67311411992263,NA,NA
48059,St. Clair County,MI,NA,36.22317596566524,18.973214285714285
48064,St. Clair County,MI,96.5183752417795,NA,NA
48066,Macomb County,MI,NA,29.82832618025751,5.022321428571429
48070,Oakland County,MI,NA,90.64377682403433,NA
48071,Oakland County,MI,NA,63.6480686695279,71.484375
48073,Oakland County,MI,NA,NA,21.707589285714285
48074,St. Clair County,MI,67.31141199226306,NA,NA
48079,St. Clair County,MI,NA,NA,79.18526785714286
48081,Macomb County,MI,NA,NA,10.825892857142858
48085,Oakland County,MI,NA,57.5107296137339,40.066964285714285
48091,Macomb County,MI,NA,93.69098712446352,NA
48095,Macomb County,MI,NA,NA,97.87946428571429
48098,Oakland County,MI,NA,28.96995708154507,87.55580357142857
48101,Wayne County,MI,NA,22.746781115879827,NA
48103,Washtenaw County,MI,15.473887814313347,NA,28.96205357142857
48104,Washtenaw County,MI,NA,78.4549356223176,89.17410714285714
48105,Washtenaw County,MI,NA,10.557939914163091,NA
48108,Washtenaw County,MI,NA,NA,53.45982142857143
48111,Wayne County,MI,NA,24.892703862660944,NA
48114,Livingston County,MI,NA,20.643776824034337,NA
48116,Livingston County,MI,NA,86.52360515021459,NA
48118,Washtenaw County,MI,NA,NA,22.265625
48122,Wayne County,MI,53.77176015473888,NA,NA
48124,Wayne County,MI,20.6963249516441,NA,NA
48125,Wayne County,MI,NA,40.17167381974249,NA
48126,Wayne County,MI,NA,67.51072961373391,NA
48134,Wayne County,MI,NA,36.99570815450644,NA
48135,Wayne County,MI,NA,18.369098712446352,NA
48141,Wayne County,MI,NA,43.99141630901288,25.502232142857146
48146,Wayne County,MI,NA,NA,54.12946428571429
48150,Wayne County,MI,NA,49.227467811158796,40.345982142857146
48152,Wayne County,MI,NA,3.819742489270386,NA
48154,Wayne County,MI,NA,4.978540772532189,25.390625
48160,Washtenaw County,MI,NA,48.8412017167382,52.51116071428571
48161,Monroe County,MI,NA,14.635193133047212,NA
48166,Monroe County,MI,NA,NA,97.37723214285714
48168,Wayne County,MI,NA,31.80257510729614,85.65848214285714
48170,Wayne County,MI,NA,16.566523605150216,NA
48176,Washtenaw County,MI,NA,18.841201716738198,51.33928571428571
48178,Oakland County,MI,NA,9.356223175965665,4.575892857142857
48180,Wayne County,MI,NA,88.54077253218884,NA
48183,Wayne County,MI,NA,NA,56.19419642857143
48185,Wayne County,MI,26.692456479690524,4.377682403433476,NA
48186,Wayne County,MI,NA,7.854077253218884,49.832589285714285
48187,Wayne County,MI,NA,1.502145922746781,NA
48188,Wayne County,MI,NA,NA,91.46205357142857
48191,Washtenaw County,MI,NA,NA,90.06696428571429
48192,Wayne County,MI,NA,NA,27.957589285714285
48195,Wayne County,MI,NA,NA,12.723214285714285
48197,Washtenaw County,MI,2.321083172147002,1.0729613733905579,NA
48198,Washtenaw County,MI,2.5145067698259185,9.6137339055794,NA
48203,Wayne County,MI,NA,15.92274678111588,NA
48204,Wayne County,MI,NA,NA,24.776785714285715
48206,Wayne County,MI,NA,NA,97.71205357142857
48208,Wayne County,MI,NA,NA,83.14732142857143
48209,Wayne County,MI,55.512572533849124,NA,NA
48210,Wayne County,MI,NA,NA,67.13169642857143
48213,Wayne County,MI,NA,19.78540772532189,NA
48214,Wayne County,MI,NA,NA,34.263392857142854
48219,Wayne County,MI,NA,1.6738197424892705,NA
48225,Wayne County,MI,NA,58.884120171673814,NA
48227,Wayne County,MI,NA,50.21459227467812,NA
48234,Wayne County,MI,NA,11.11587982832618,NA
48235,Wayne County,MI,32.495164410058024,85.92274678111588,NA
48236,Wayne County,MI,NA,9.957081545064378,69.97767857142857
48238,Wayne County,MI,NA,86.82403433476395,26.450892857142854
48240,Wayne County,MI,NA,78.62660944206009,NA
48301,Oakland County,MI,NA,87.6824034334764,NA
48302,Oakland County,MI,NA,NA,23.381696428571427
48304,Oakland County,MI,NA,43.90557939914163,NA
48306,Oakland County,MI,NA,50.686695278969964,NA
48307,Oakland County,MI,NA,15.751072961373392,NA
48309,Oakland County,MI,NA,NA,52.17633928571429
48310,Macomb County,MI,NA,8.540772532188841,NA
48313,Macomb County,MI,NA,16.223175965665234,NA
48314,Macomb County,MI,NA,64.97854077253218,97.32142857142857
48315,Macomb County,MI,NA,NA,74.609375
48317,Macomb County,MI,NA,14.592274678111588,NA
48322,Oakland County,MI,NA,64.67811158798284,2.232142857142857
48323,Oakland County,MI,NA,69.95708154506438,63.28125
48324,Oakland County,MI,NA,NA,87.72321428571429
48327,Oakland County,MI,NA,NA,41.964285714285715
48331,Oakland County,MI,NA,15.493562231759656,NA
48334,Oakland County,MI,NA,NA,33.59375
48335,Oakland County,MI,NA,NA,27.845982142857146
48348,Oakland County,MI,NA,71.20171673819743,NA
48357,Oakland County,MI,NA,94.4206008583691,NA
48360,Oakland County,MI,NA,56.00858369098712,NA
48371,Oakland County,MI,NA,NA,55.078125
48374,Oakland County,MI,NA,88.62660944206009,73.99553571428571
48377,Oakland County,MI,NA,NA,24.21875
48380,Oakland County,MI,NA,90.72961373390558,81.52901785714286
48381,Oakland County,MI,NA,NA,43.247767857142854
48382,Oakland County,MI,NA,NA,83.76116071428571
48383,Oakland County,MI,NA,79.91416309012875,NA
48386,Oakland County,MI,NA,34.8068669527897,NA
48390,Oakland County,MI,NA,86.78111587982833,NA
48393,Oakland County,MI,NA,NA,73.71651785714286
48430,Genesee County,MI,NA,67.46781115879828,15.513392857142858
48433,Genesee County,MI,NA,50.128755364806864,NA
48441,Huron County,MI,NA,NA,59.09598214285714
48458,Genesee County,MI,NA,46.3519313304721,NA
48473,Genesee County,MI,NA,NA,51.45089285714286
48504,Genesee County,MI,NA,70.30042918454936,NA
48505,Genesee County,MI,NA,76.82403433476395,NA
48506,Genesee County,MI,NA,30.72961373390558,NA
48519,Genesee County,MI,NA,NA,84.04017857142857
48532,Genesee County,MI,NA,NA,74.21875
48603,Saginaw County,MI,NA,6.3519313304721035,6.696428571428571
48622,Clare County,MI,NA,NA,65.73660714285714
48623,Saginaw County,MI,NA,40.772532188841204,NA
48624,Gladwin County,MI,NA,14.07725321888412,NA
48625,Clare County,MI,NA,NA,37.44419642857143
48809,Ionia County,MI,65.57059961315281,68.92703862660944,NA
48836,Livingston County,MI,NA,76.43776824034335,NA
48837,Eaton County,MI,NA,26.523605150214593,NA
48843,Livingston County,MI,NA,56.26609442060085,5.970982142857143
48846,Ionia County,MI,NA,NA,62.33258928571429
48854,Ingham County,MI,NA,47.81115879828326,NA
48879,Clinton County,MI,NA,NA,24.051339285714285
48880,Gratiot County,MI,NA,93.94849785407725,NA
48917,Eaton County,MI,53.38491295938105,5.407725321888412,NA
49001,Kalamazoo County,MI,NA,NA,53.01339285714286
49004,Kalamazoo County,MI,NA,42.832618025751074,NA
49009,Kalamazoo County,MI,NA,NA,9.151785714285714
49028,Branch County,MI,NA,94.07725321888411,88.78348214285714
49038,Berrien County,MI,NA,NA,51.61830357142857
49048,Kalamazoo County,MI,NA,59.742489270386265,NA
49058,Barry County,MI,NA,65.7510729613734,NA
49068,Calhoun County,MI,NA,NA,96.20535714285714
49073,Barry County,MI,NA,NA,93.63839285714286
49080,Allegan County,MI,43.133462282398455,NA,NA
49091,St. Joseph County,MI,NA,NA,40.792410714285715
49097,Kalamazoo County,MI,NA,94.50643776824035,NA
49201,Jackson County,MI,52.9980657640232,NA,NA
49202,Jackson County,MI,NA,23.819742489270386,NA
49249,Hillsdale County,MI,NA,99.87124463519314,NA
49286,Lenawee County,MI,NA,NA,68.08035714285714
49315,Kent County,MI,NA,NA,33.14732142857143
49331,Kent County,MI,NA,35.27896995708154,NA
49348,Allegan County,MI,NA,40.386266094420606,NA
49349,Newaygo County,MI,NA,68.96995708154506,NA
49417,Ottawa County,MI,NA,3.9914163090128754,42.52232142857143
49423,Ottawa County,MI,NA,30.34334763948498,3.180803571428571
49424,Ottawa County,MI,NA,NA,6.752232142857142
49426,Ottawa County,MI,40.61895551257253,NA,70.20089285714286
49431,Mason County,MI,NA,NA,16.685267857142858
49441,Muskegon County,MI,NA,NA,12.555803571428573
49449,Oceana County,MI,NA,NA,92.29910714285714
49504,Kent County,MI,NA,NA,5.524553571428571
49505,Kent County,MI,NA,53.69098712446352,12.276785714285714
49506,Kent County,MI,NA,68.8412017167382,NA
49507,Kent County,MI,NA,17.081545064377682,NA
49508,Kent County,MI,NA,6.437768240343347,NA
49509,Kent County,MI,NA,NA,45.870535714285715
49534,Kent County,MI,55.89941972920697,NA,NA
49546,Kent County,MI,NA,NA,9.095982142857142
49601,Wexford County,MI,NA,42.96137339055794,NA
49615,Antrim County,MI,NA,97.03862660944206,NA
49660,Manistee County,MI,38.87814313346228,NA,NA
49746,Montmorency County,MI,NA,94.67811158798283,NA
49855,Marquette County,MI,14.893617021276595,NA,NA
49938,Gogebic County,MI,NA,NA,49.16294642857143
55009,Goodhue County,MN,NA,NA,53.06919642857143
55021,Rice County,MN,NA,32.01716738197425,NA
55037,Pine County,MN,NA,NA,98.60491071428571
55041,Wabasha County,MN,NA,58.96995708154507,NA
55042,Washington County,MN,NA,74.54935622317596,NA
55051,Kanabec County,MN,NA,NA,39.11830357142857
55057,Rice County,MN,NA,82.44635193133047,59.93303571428571
55063,Pine County,MN,NA,59.57081545064378,NA
55066,Goodhue County,MN,NA,NA,35.99330357142857
55077,Dakota County,MN,NA,NA,72.60044642857143
55106,Ramsey County,MN,NA,19.184549356223176,NA
55110,Ramsey County,MN,NA,30.085836909871244,29.017857142857146
55112,Ramsey County,MN,NA,53.99141630901288,46.81919642857143
55113,Ramsey County,MN,NA,90.34334763948499,NA
55118,Dakota County,MN,NA,NA,17.075892857142858
55119,Ramsey County,MN,NA,24.549356223175966,67.91294642857143
55123,Dakota County,MN,NA,NA,89.78794642857143
55128,Washington County,MN,NA,47.33905579399141,41.573660714285715
55302,Wright County,MN,NA,90.90128755364807,NA
55305,Hennepin County,MN,NA,NA,29.185267857142854
55306,Dakota County,MN,NA,63.00429184549357,NA
55308,Sherburne County,MN,NA,99.69957081545064,NA
55309,Sherburne County,MN,NA,76.56652360515022,NA
55313,Wright County,MN,NA,34.07725321888412,NA
55316,Hennepin County,MN,NA,78.49785407725321,NA
55317,Carver County,MN,NA,NA,97.87946428571429
55320,Wright County,MN,NA,92.91845493562232,NA
55328,Wright County,MN,NA,91.97424892703863,NA
55330,Sherburne County,MN,NA,NA,75.11160714285714
55331,Hennepin County,MN,NA,NA,91.35044642857143
55336,McLeod County,MN,NA,65.27896995708154,NA
55337,Dakota County,MN,NA,NA,58.09151785714286
55343,Hennepin County,MN,NA,32.74678111587983,NA
55344,Hennepin County,MN,NA,89.65665236051503,NA
55345,Hennepin County,MN,NA,87.25321888412017,NA
55347,Hennepin County,MN,NA,NA,66.46205357142857
55350,McLeod County,MN,NA,NA,10.546875
55362,Wright County,MN,NA,78.36909871244634,NA
55369,Hennepin County,MN,NA,NA,54.85491071428571
55372,Scott County,MN,NA,52.57510729613733,75
55391,Hennepin County,MN,NA,NA,61.99776785714286
55398,Sherburne County,MN,74.27466150870407,NA,NA
55401,Hennepin County,MN,NA,84.291845493562235,NA
55405,Hennepin County,MN,NA,39.141630901287556,NA
55406,Hennepin County,MN,NA,21.07296137339056,NA
55407,Hennepin County,MN,NA,4.034334763948498,NA
55411,Hennepin County,MN,3.8684719535783367,12.060085836909872,90.45758928571429
55416,Hennepin County,MN,NA,NA,31.25
55417,Hennepin County,MN,NA,41.97424892703863,92.96875
55418,Hennepin County,MN,NA,64.0343347639485,NA
55420,Hennepin County,MN,NA,NA,69.81026785714286
55421,Anoka County,MN,NA,90.55793991416309,NA
55422,Hennepin County,MN,NA,67.59656652360515,NA
55423,Hennepin County,MN,NA,NA,87.77901785714286
55426,Hennepin County,MN,NA,NA,31.138392857142854
55428,Hennepin County,MN,NA,NA,78.57142857142857
55430,Hennepin County,MN,NA,NA,44.698660714285715
55431,Hennepin County,MN,NA,71.20171673819743,88.56026785714286
55432,Anoka County,MN,NA,NA,54.296875
55433,Anoka County,MN,NA,NA,69.30803571428571
55434,Anoka County,MN,NA,51.716738197424895,NA
55435,Hennepin County,MN,85.1063829787234,NA,81.80803571428571
55436,Hennepin County,MN,NA,93.51931330472102,66.015625
55442,Hennepin County,MN,NA,NA,95.53571428571429
55443,Hennepin County,MN,NA,37.167381974248926,94.86607142857143
55446,Hennepin County,MN,NA,97.33905579399142,96.70758928571429
55449,Anoka County,MN,79.49709864603481,NA,NA
55454,Hennepin County,MN,NA,94.46351931330472,NA
55720,Carlton County,MN,33.07543520309478,35.45064377682404,83.03571428571429
55744,Itasca County,MN,NA,NA,3.2366071428571432
55746,St. Louis County,MN,NA,76.78111587982832,NA
55803,St. Louis County,MN,96.32495164410058,NA,NA
55804,St. Louis County,MN,NA,NA,69.75446428571429
55805,St. Louis County,MN,NA,NA,99.05133928571429
55807,St. Louis County,MN,NA,77.55364806866952,81.19419642857143
55808,St. Louis County,MN,NA,89.35622317596567,NA
55811,St. Louis County,MN,NA,68.79828326180257,1.2276785714285714
55901,Olmsted County,MN,NA,NA,8.649553571428571
55912,Mower County,MN,8.123791102514506,NA,49.441964285714285
55947,Houston County,MN,NA,51.03004291845493,NA
55981,Wabasha County,MN,NA,NA,76.171875
55987,Winona County,MN,NA,NA,29.129464285714285
56007,Freeborn County,MN,NA,NA,61.04910714285714
56031,Martin County,MN,NA,77.76824034334764,37.388392857142854
56073,Brown County,MN,NA,59.48497854077254,47.488839285714285
56081,Watonwan County,MN,NA,NA,35.770089285714285
56101,Cottonwood County,MN,NA,66.65236051502146,NA
56156,Rock County,MN,NA,NA,29.073660714285715
56164,Pipestone County,MN,NA,93.21888412017168,NA
56201,Kandiyohi County,MN,NA,NA,44.308035714285715
56241,Yellow Medicine County,MN,NA,96.18025751072962,NA
56258,Lyon County,MN,NA,88.19742489270385,NA
56267,Stevens County,MN,NA,NA,84.15178571428571
56301,Stearns County,MN,NA,62.14592274678111,NA
56304,Sherburne County,MN,NA,76.60944206008584,NA
56308,Douglas County,MN,NA,NA,3.013392857142857
56345,Morrison County,MN,NA,NA,60.99330357142857
56379,Benton County,MN,60.541586073500966,NA,NA
56401,Crow Wing County,MN,11.02514506769826,NA,NA
56470,Hubbard County,MN,NA,29.442060085836907,30.41294642857143
56472,Crow Wing County,MN,NA,64.33476394849785,NA
56484,Cass County,MN,NA,NA,99.44196428571429
56501,Becker County,MN,38.684719535783366,NA,NA
56515,Otter Tail County,MN,NA,NA,58.53794642857143
56537,Otter Tail County,MN,18.762088974854933,53.30472103004292,75.27901785714286
56554,Becker County,MN,NA,99.91416309012877,NA
56560,Clay County,MN,13.733075435203096,NA,0.6138392857142857
56601,Beltrami County,MN,7.35009671179884,10.128755364806867,38.28125
56621,Clearwater County,MN,NA,54.506437768240346,NA
56633,Hubbard County,MN,NA,66.26609442060087,96.81919642857143
56649,Koochiching County,MN,NA,79.05579399141631,NA
56721,Polk County,MN,NA,85.23605150214593,NA
56763,Roseau County,MN,76.20889748549324,NA,NA
38611,Marshall County,MS,NA,NA,78.01339285714286
38663,Tippah County,MS,NA,NA,54.12946428571429
38804,Lee County,MS,NA,NA,65.90401785714286
38858,Monroe County,MS,93.23017408123792,NA,NA
38916,Calhoun County,MS,NA,NA,92.74553571428571
38930,Leflore County,MS,NA,37.596566523605155,NA
38941,Leflore County,MS,NA,99.31330472103004,NA
39046,Madison County,MS,NA,46.866952789699575,NA
39074,Scott County,MS,NA,56.78111587982833,NA
39111,Simpson County,MS,NA,97.6824034334764,85.26785714285714
39168,Smith County,MS,NA,97.93991416309012,NA
39180,Warren County,MS,NA,40.343347639484975,NA
39194,Yazoo County,MS,NA,88.11158798283262,NA
39301,Lauderdale County,MS,NA,NA,96.42857142857143
39305,Lauderdale County,MS,NA,NA,43.470982142857146
39325,Lauderdale County,MS,96.71179883945842,NA,NA
39365,Neshoba County,MS,NA,NA,80.02232142857143
39401,Forrest County,MS,33.26885880077369,NA,NA
39422,Jasper County,MS,NA,NA,81.30580357142857
39429,Marion County,MS,NA,NA,53.73883928571429
39440,Jones County,MS,56.47969052224371,49.141630901287556,NA
39443,Jones County,MS,NA,54.46351931330472,NA
39452,George County,MS,NA,16.051502145922747,NA
39465,Forrest County,MS,67.8916827852998,NA,57.19866071428571
39482,Lamar County,MS,NA,97.25321888412017,NA
39503,Harrison County,MS,NA,2.317596566523605,NA
39577,Stone County,MS,NA,NA,80.97098214285714
39601,Lincoln County,MS,NA,89.69957081545064,NA
39667,Walthall County,MS,NA,56.952789699570815,40.68080357142857
39669,Wilkinson County,MS,NA,96.78111587982833,NA
39730,Monroe County,MS,NA,NA,51.67410714285714
39759,Oktibbeha County,MS,NA,77.85407725321889,57.31026785714286
63005,St. Louis County,MO,NA,68.62660944206009,NA
63010,Jefferson County,MO,NA,20.257510729613735,14.118303571428573
63011,St. Louis County,MO,NA,NA,2.6785714285714284
63017,St. Louis County,MO,NA,NA,1.2834821428571428
63023,Jefferson County,MO,NA,NA,94.97767857142857
63025,St. Louis County,MO,NA,66.13733905579399,NA
63026,St. Louis County,MO,NA,NA,15.011160714285715
63028,Jefferson County,MO,NA,NA,37.611607142857146
63031,St. Louis County,MO,NA,NA,4.296875
63033,St. Louis County,MO,16.827852998065765,NA,4.129464285714286
63034,St. Louis County,MO,NA,NA,45.25669642857143
63042,St. Louis County,MO,NA,NA,62.77901785714286
63043,St. Louis County,MO,NA,NA,74.72098214285714
63044,St. Louis County,MO,NA,61.20171673819742,NA
63049,Jefferson County,MO,NA,NA,65.45758928571429
63070,Jefferson County,MO,NA,81.50214592274678,NA
63074,St. Louis County,MO,NA,45.021459227467815,NA
63089,Franklin County,MO,NA,94.33476394849785,NA
63108,St. Louis city,MO,NA,NA,56.47321428571429
63110,St. Louis city,MO,NA,54.93562231759657,NA
63111,St. Louis city,MO,NA,42.61802575107296,NA
63115,St. Louis city,MO,NA,NA,50.94866071428571
63118,St. Louis city,MO,34.622823984526114,NA,NA
63119,St. Louis County,MO,NA,NA,5.46875
63122,St. Louis County,MO,NA,NA,54.01785714285714
63123,St. Louis County,MO,NA,40.257510729613735,14.955357142857142
63125,St. Louis County,MO,NA,NA,9.765625
63126,St. Louis County,MO,NA,71.63090128755366,NA
63128,St. Louis County,MO,70.59961315280464,NA,27.67857142857143
63129,St. Louis County,MO,NA,NA,53.40401785714286
63130,St. Louis County,MO,51.06382978723404,48.497854077253216,NA
63132,St. Louis County,MO,NA,77.98283261802575,NA
63135,St. Louis County,MO,NA,23.34763948497854,55.91517857142857
63136,St. Louis County,MO,31.334622823984525,33.261802575107296,NA
63139,St. Louis city,MO,NA,58.62660944206009,70.64732142857143
63141,St. Louis County,MO,NA,NA,25.502232142857146
63143,St. Louis County,MO,NA,NA,93.86160714285714
63144,St. Louis County,MO,NA,NA,91.18303571428571
63146,St. Louis County,MO,NA,27.038626609442062,NA
63301,St. Charles County,MO,NA,2.1459227467811157,1.5066964285714286
63303,St. Charles County,MO,NA,7.42489270386266,NA
63304,St. Charles County,MO,NA,61.5450643776824,11.774553571428571
63366,St. Charles County,MO,13.152804642166343,3.0472103004291844,6.8080357142857135
63367,St. Charles County,MO,NA,61.88841201716738,17.299107142857142
63379,Lincoln County,MO,NA,NA,28.125
63383,Warren County,MO,NA,NA,71.65178571428571
63385,St. Charles County,MO,NA,38.15450643776824,NA
63389,Lincoln County,MO,NA,NA,91.90848214285714
63552,Macon County,MO,NA,78.54077253218884,NA
63628,St. Francois County,MO,NA,58.197424892703864,NA
63670,Ste. Genevieve County,MO,NA,64.76394849785407,NA
63876,Dunklin County,MO,NA,99.39914163090128,NA
63901,Butler County,MO,NA,70.51502145922747,NA
64012,Cass County,MO,NA,NA,32.08705357142857
64014,Jackson County,MO,NA,24.84978540772532,47.60044642857143
64016,Jackson County,MO,95.55125725338492,NA,NA
64024,Clay County,MO,NA,79.39914163090128,45.703125
64030,Jackson County,MO,NA,13.047210300429185,NA
64050,Jackson County,MO,NA,12.360515021459227,NA
64060,Clay County,MO,NA,NA,85.21205357142857
64062,Ray County,MO,NA,NA,82.75669642857143
64064,Jackson County,MO,NA,38.927038626609445,NA
64068,Clay County,MO,NA,4.549356223175965,NA
64075,Jackson County,MO,42.74661508704062,NA,NA
64076,Lafayette County,MO,NA,NA,78.90625
64078,Cass County,MO,66.92456479690522,NA,NA
64079,Platte County,MO,NA,71.84549356223175,NA
64081,Jackson County,MO,NA,NA,33.92857142857143
64112,Jackson County,MO,NA,90.90128755364807,NA
64113,Jackson County,MO,NA,57.93991416309014,NA
64114,Jackson County,MO,NA,33.47639484978541,NA
64116,Clay County,MO,NA,68.49785407725322,NA
64117,Clay County,MO,NA,36.52360515021459,NA
64130,Jackson County,MO,NA,NA,29.520089285714285
64131,Jackson County,MO,NA,27.72532188841202,NA
64133,Jackson County,MO,NA,2.875536480686695,22.600446428571427
64151,Platte County,MO,NA,44.20600858369099,75.55803571428571
64152,Platte County,MO,NA,28.454935622317596,NA
64157,Clay County,MO,35.39651837524178,NA,NA
64424,Harrison County,MO,NA,NA,55.02232142857143
64503,Buchanan County,MO,NA,NA,37.55580357142857
64505,Buchanan County,MO,NA,NA,65.95982142857143
64506,Buchanan County,MO,NA,48.19742489270386,NA
64601,Livingston County,MO,NA,36.00858369098712,NA
64628,Linn County,MO,NA,86.39484978540773,NA
64633,Carroll County,MO,NA,79.27038626609442,NA
64735,Henry County,MO,NA,68.36909871244636,81.640625
64804,Jasper County,MO,NA,6.008583690987124,NA
64834,Jasper County,MO,NA,84.72103004291846,NA
64836,Jasper County,MO,NA,NA,43.582589285714285
64870,Jasper County,MO,NA,NA,63.44866071428571
65066,Gasconade County,MO,NA,83.56223175965665,NA
65202,Boone County,MO,NA,16.652360515021456,10.993303571428571
65203,Boone County,MO,NA,NA,3.2924107142857144
65251,Callaway County,MO,30.754352030947775,NA,NA
65340,Saline County,MO,36.36363636363637,NA,NA
65453,Crawford County,MO,NA,73.43347639484978,71.14955357142857
65483,Texas County,MO,NA,83.47639484978541,NA
65560,Dent County,MO,NA,NA,27.28794642857143
65565,Crawford County,MO,NA,NA,97.48883928571429
65613,Polk County,MO,NA,NA,44.363839285714285
65622,Dallas County,MO,73.5009671179884,NA,NA
65625,Barry County,MO,NA,93.39055793991416,NA
65656,Stone County,MO,NA,NA,95.92633928571429
65711,Wright County,MO,NA,NA,90.95982142857143
65721,Christian County,MO,NA,NA,40.457589285714285
59047,Park County,MT,NA,84.84978540772532,NA
59102,Yellowstone County,MT,NA,21.759656652360515,50.05580357142857
59405,Cascade County,MT,NA,11.974248927038627,NA
59501,Hill County,MT,78.52998065764024,82.27467811158799,NA
59715,Gallatin County,MT,NA,NA,14.899553571428573
59828,Ravalli County,MT,NA,NA,96.81919642857143
59840,Ravalli County,MT,NA,NA,68.13616071428571
59864,Lake County,MT,91.87620889748548,NA,NA
59901,Flathead County,MT,NA,1.888412017167382,21.261160714285715
59912,Flathead County,MT,NA,78.24034334763948,NA
59937,Flathead County,MT,NA,87.08154506437768,52.45535714285714
68005,Sarpy County,NE,NA,60.42918454935622,NA
68008,Washington County,NE,NA,56.738197424892704,56.08258928571429
68025,Dodge County,NE,NA,53.09012875536481,53.90625
68106,Douglas County,NE,NA,71.07296137339056,NA
68108,Douglas County,NE,69.82591876208897,NA,NA
68114,Douglas County,NE,NA,NA,91.07142857142857
68130,Douglas County,NE,NA,NA,72.20982142857143
68333,Saline County,NE,NA,NA,90.79241071428571
68355,Richardson County,NE,NA,80.3862660944206,NA
68410,Otoe County,NE,NA,73.17596566523605,NA
68434,Seward County,NE,92.26305609284333,NA,68.13616071428571
68506,Lancaster County,NE,72.3404255319149,73.69098712446352,33.314732142857146
68510,Lancaster County,NE,NA,NA,71.76339285714286
68701,Madison County,NE,NA,NA,35.323660714285715
68776,Dakota County,NE,NA,73.13304721030043,NA
68901,Adams County,NE,NA,NA,26.450892857142854
69001,Red Willow County,NE,NA,NA,41.573660714285715
69101,Lincoln County,NE,NA,NA,8.705357142857142
69162,Cheyenne County,NE,NA,87.29613733905579,61.66294642857143
89102,Clark County,NV,48.93617021276596,NA,NA
89108,Clark County,NV,NA,NA,28.348214285714285
89119,Clark County,NV,NA,NA,53.85044642857143
89166,Clark County,NV,NA,NA,100
89431,Washoe County,NV,53.578336557059956,81.37339055793991,NA
89436,Washoe County,NV,NA,8.15450643776824,NA
89445,Humboldt County,NV,NA,NA,91.85267857142857
89460,Douglas County,NV,NA,39.35622317596567,NA
89506,Washoe County,NV,NA,NA,58.64955357142857
89509,Washoe County,NV,NA,36.137339055793994,NA
89511,Washoe County,NV,NA,56.00858369098712,NA
89519,Washoe County,NV,NA,NA,79.79910714285714
89521,Washoe County,NV,NA,24.935622317596568,NA
89706,Carson City,NV,NA,63.30472103004292,NA
89801,Elko County,NV,NA,85.32188841201716,NA
03062,Hillsborough County,NH,NA,5.450643776824035,NA
03431,Cheshire County,NH,NA,NA,3.90625
03446,Cheshire County,NH,NA,NA,53.73883928571429
03581,Coos County,NH,NA,NA,85.10044642857143
03755,Grafton County,NH,NA,NA,56.640625
03801,Rockingham County,NH,NA,35.493562231759654,NA
03820,Strafford County,NH,NA,NA,8.147321428571429
03833,Rockingham County,NH,NA,NA,24.665178571428573
03835,Strafford County,NH,NA,NA,82.08705357142857
07002,Hudson County,NJ,NA,1.1587982832618025,36.27232142857143
07004,Essex County,NJ,NA,NA,93.41517857142857
07009,Essex County,NJ,NA,NA,45.479910714285715
07010,Bergen County,NJ,NA,NA,39.620535714285715
07022,Bergen County,NJ,NA,NA,57.25446428571429
07024,Bergen County,NJ,NA,NA,7.310267857142858
07047,Hudson County,NJ,NA,88.8412017167382,4.073660714285714
07050,Essex County,NJ,NA,23.90557939914163,NA
07054,Morris County,NJ,NA,86.26609442060087,NA
07059,Somerset County,NJ,NA,NA,76.00446428571429
07071,Bergen County,NJ,NA,96.86695278969957,NA
07073,Bergen County,NJ,NA,89.74248927038626,NA
07080,Middlesex County,NJ,NA,NA,61.49553571428571
07081,Union County,NJ,NA,73.90557939914163,57.08705357142857
07087,Hudson County,NJ,NA,NA,25.223214285714285
07093,Hudson County,NJ,81.81818181818183,NA,NA
07104,Essex County,NJ,0.19342359767891684,NA,NA
07106,Essex County,NJ,NA,98.11158798283262,NA
07107,Essex County,NJ,1.3539651837524178,NA,NA
07109,Essex County,NJ,NA,12.017167381974248,NA
07111,Essex County,NJ,NA,NA,95.87053571428571
07405,Morris County,NJ,82.7852998065764,NA,NA
07407,Bergen County,NJ,NA,50.72961373390557,NA
07410,Bergen County,NJ,NA,19.65665236051502,27.232142857142854
07442,Passaic County,NJ,NA,68.32618025751073,NA
07470,Passaic County,NJ,17.2147001934236,18.92703862660944,NA
07480,Passaic County,NJ,NA,NA,63.50446428571429
07481,Bergen County,NJ,NA,NA,54.40848214285714
07508,Passaic County,NJ,NA,NA,45.089285714285715
07603,Bergen County,NJ,NA,71.07296137339056,NA
07605,Bergen County,NJ,NA,96.30901287553648,NA
07728,Monmouth County,NJ,NA,40.557939914163086,NA
07735,Monmouth County,NJ,NA,NA,71.37276785714286
07748,Monmouth County,NJ,NA,NA,54.91071428571429
07753,Monmouth County,NJ,NA,52.961373390557945,NA
07758,Monmouth County,NJ,NA,99.05579399141631,NA
07801,Morris County,NJ,NA,NA,89.67633928571429
07866,Morris County,NJ,NA,35.32188841201717,NA
07920,Somerset County,NJ,NA,52.36051502145923,NA
07928,Morris County,NJ,NA,NA,85.9375
07945,Morris County,NJ,NA,90.21459227467811,NA
08002,Camden County,NJ,NA,NA,32.198660714285715
08003,Camden County,NJ,NA,32.61802575107296,NA
08005,Ocean County,NJ,18.95551257253385,NA,NA
08021,Camden County,NJ,NA,NA,27.064732142857146
08046,Burlington County,NJ,NA,19.570815450643778,NA
08075,Burlington County,NJ,NA,22.532188841201716,NA
08081,Camden County,NJ,NA,NA,59.43080357142857
08084,Camden County,NJ,NA,88.88412017167381,NA
08086,Gloucester County,NJ,NA,NA,94.140625
08088,Burlington County,NJ,NA,55.87982832618026,NA
08090,Gloucester County,NJ,NA,NA,92.24330357142857
08215,Atlantic County,NJ,NA,79.27038626609442,NA
08226,Cape May County,NJ,NA,46.39484978540773,NA
08332,Cumberland County,NJ,NA,11.802575107296137,NA
08560,Mercer County,NJ,100,NA,NA
08610,Mercer County,NJ,NA,39.78540772532189,NA
08618,Mercer County,NJ,NA,4.849785407725322,NA
08648,Mercer County,NJ,NA,31.673819742489272,NA
08722,Ocean County,NJ,NA,81.11587982832617,NA
08755,Ocean County,NJ,NA,14.120171673819742,NA
08757,Ocean County,NJ,NA,NA,0.27901785714285715
08759,Ocean County,NJ,NA,0.8154506437768241,NA
08807,Somerset County,NJ,NA,33.99141630901287,31.69642857142857
08816,Middlesex County,NJ,NA,72.14592274678111,32.979910714285715
08830,Middlesex County,NJ,NA,84.12017167381974,NA
08831,Middlesex County,NJ,NA,52.317596566523605,NA
08844,Somerset County,NJ,NA,79.87124463519312,NA
08857,Middlesex County,NJ,9.284332688588009,NA,NA
08859,Middlesex County,NJ,NA,55.193133047210296,NA
08872,Middlesex County,NJ,55.12572533849129,NA,NA
08873,Somerset County,NJ,15.087040618955513,16.824034334763947,13.671875
87052,Sandoval County,NM,NA,98.71244635193133,NA
87102,Bernalillo County,NM,53.9651837524178,NA,NA
87105,Bernalillo County,NM,NA,2.40343347639485,NA
87107,Bernalillo County,NM,NA,NA,35.770089285714285
87112,Bernalillo County,NM,NA,6.523605150214593,NA
87123,Bernalillo County,NM,NA,67.16738197424893,43.638392857142854
87506,Santa Fe County,NM,NA,39.69957081545064,NA
87508,Santa Fe County,NM,NA,NA,48.660714285714285
87532,Santa Fe County,NM,NA,NA,44.86607142857143
87740,Colfax County,NM,NA,NA,72.20982142857143
88081,Otero County,NM,NA,79.01287553648069,NA
88101,Curry County,NM,NA,NA,3.571428571428571
88210,Eddy County,NM,NA,NA,86.16071428571429
88240,Lea County,NM,NA,46.09442060085837,NA
88345,Lincoln County,NM,NA,94.20600858369099,NA
10001,New York County,NY,NA,3.9055793991416308,41.40625
10002,New York County,NY,NA,1.759656652360515,10.15625
10003,New York County,NY,NA,31.587982832618028,13.392857142857142
10009,New York County,NY,NA,3.004291845493562,20.3125
10011,New York County,NY,NA,13.218884120171673,NA
10021,New York County,NY,NA,NA,12.165178571428571
10022,New York County,NY,NA,NA,18.805803571428573
10023,New York County,NY,NA,NA,41.294642857142854
10024,New York County,NY,NA,18.068669527896997,NA
10025,New York County,NY,NA,NA,31.473214285714285
10028,New York County,NY,NA,NA,13.560267857142858
10029,New York County,NY,NA,3.2618025751072963,3.6830357142857144
10030,New York County,NY,NA,NA,77.62276785714286
10031,New York County,NY,NA,10.944206008583691,15.736607142857142
10032,New York County,NY,NA,4.592274678111588,NA
10033,New York County,NY,NA,13.819742489270388,NA
10036,New York County,NY,NA,90.60085836909872,47.935267857142854
10037,New York County,NY,NA,NA,70.25669642857143
10040,New York County,NY,NA,13.733905579399142,NA
10303,Richmond County,NY,NA,NA,87.38839285714286
10305,Richmond County,NY,NA,11.84549356223176,NA
10309,Richmond County,NY,NA,38.497854077253216,NA
10310,Richmond County,NY,NA,33.60515021459227,NA
10314,Richmond County,NY,NA,NA,26.004464285714285
10451,Bronx County,NY,3.481624758220503,NA,NA
10453,Bronx County,NY,0.5802707930367506,0.4291845493562232,NA
10454,Bronx County,NY,NA,NA,22.098214285714285
10455,Bronx County,NY,NA,66.86695278969957,NA
10456,Bronx County,NY,NA,0,NA
10457,Bronx County,NY,NA,0.2575107296137339,NA
10458,Bronx County,NY,NA,NA,3.7946428571428568
10459,Bronx County,NY,NA,6.266094420600858,19.140625
10460,Bronx County,NY,NA,9.484978540772532,36.049107142857146
10461,Bronx County,NY,68.8588007736944,NA,18.080357142857142
10462,Bronx County,NY,NA,82.14592274678112,NA
10463,Bronx County,NY,8.704061895551257,2.6180257510729614,NA
10466,Bronx County,NY,5.996131528046422,1.1158798283261802,NA
10467,Bronx County,NY,NA,0.08583690987124463,10.379464285714286
10469,Bronx County,NY,4.448742746615087,NA,2.9017857142857144
10472,Bronx County,NY,NA,12.231759656652361,NA
10473,Bronx County,NY,NA,25.579399141630898,NA
10475,Bronx County,NY,NA,7.081545064377683,NA
10550,Westchester County,NY,NA,17.381974248927037,NA
10562,Westchester County,NY,NA,NA,32.700892857142854
10567,Westchester County,NY,NA,74.50643776824035,51.171875
10603,Westchester County,NY,NA,NA,77.06473214285714
10701,Westchester County,NY,NA,NA,15.569196428571427
10703,Westchester County,NY,NA,59.227467811158796,NA
10705,Westchester County,NY,NA,NA,58.37053571428571
10708,Westchester County,NY,NA,NA,37.220982142857146
10710,Westchester County,NY,88.20116054158608,NA,NA
10940,Orange County,NY,NA,NA,47.20982142857143
10977,Rockland County,NY,NA,NA,43.80580357142857
10992,Orange County,NY,NA,87.98283261802575,NA
11001,Nassau County,NY,NA,92.27467811158799,NA
11023,Nassau County,NY,NA,95.10729613733906,NA
11030,Nassau County,NY,NA,NA,68.69419642857143
11040,Nassau County,NY,NA,NA,21.540178571428573
11050,Nassau County,NY,NA,NA,57.47767857142857
11201,Kings County,NY,NA,15.064377682403435,NA
11203,Kings County,NY,NA,3.7339055793991416,5.580357142857143
11205,Kings County,NY,NA,14.377682403433475,NA
11207,Kings County,NY,NA,6.824034334763948,6.584821428571429
11209,Kings County,NY,NA,NA,8.984375
11212,Kings County,NY,NA,0.38626609442060084,48.214285714285715
11215,Kings County,NY,NA,NA,11.997767857142858
11216,Kings County,NY,NA,5.1072961373390555,NA
11221,Kings County,NY,NA,NA,23.214285714285715
11225,Kings County,NY,NA,NA,23.939732142857142
11232,Kings County,NY,NA,97.85407725321889,NA
11233,Kings County,NY,NA,NA,6.4732142857142865
11234,Kings County,NY,NA,35.708154506437765,NA
11235,Kings County,NY,NA,10.600858369098711,NA
11236,Kings County,NY,NA,NA,4.6875
11354,Queens County,NY,NA,61.11587982832618,16.629464285714285
11355,Queens County,NY,NA,12.832618025751072,NA
11357,Queens County,NY,NA,NA,27.79017857142857
11358,Queens County,NY,NA,NA,43.861607142857146
11368,Queens County,NY,NA,44.63519313304721,NA
11370,Queens County,NY,NA,57.2961373390558,51.84151785714286
11372,Queens County,NY,NA,15.836909871244636,NA
11374,Queens County,NY,NA,18.969957081545065,NA
11375,Queens County,NY,NA,23.00429184549356,4.017857142857143
11377,Queens County,NY,NA,74.5922746781116,14.620535714285715
11385,Queens County,NY,NA,34.54935622317596,NA
11411,Queens County,NY,NA,NA,93.30357142857143
11415,Queens County,NY,NA,NA,68.13616071428571
11419,Queens County,NY,NA,21.416309012875537,NA
11420,Queens County,NY,NA,28.283261802575105,24.274553571428573
11432,Queens County,NY,NA,4.935622317596566,21.037946428571427
11433,Queens County,NY,NA,22.145922746781117,NA
11434,Queens County,NY,NA,42.48927038626609,NA
11501,Nassau County,NY,NA,86.56652360515021,NA
11514,Nassau County,NY,NA,NA,93.97321428571429
11550,Nassau County,NY,NA,NA,87.16517857142857
11554,Nassau County,NY,NA,NA,71.54017857142857
11561,Nassau County,NY,NA,24.163090128755364,NA
11566,Nassau County,NY,NA,85.36480686695279,NA
11575,Nassau County,NY,NA,NA,84.375
11580,Nassau County,NY,NA,46.05150214592275,23.4375
11581,Nassau County,NY,NA,NA,99.33035714285714
11590,Nassau County,NY,NA,NA,17.466517857142858
11598,Nassau County,NY,NA,86.00858369098712,NA
11703,Suffolk County,NY,NA,NA,50.72544642857143
11710,Nassau County,NY,NA,NA,28.125
11717,Suffolk County,NY,NA,NA,21.651785714285715
11722,Suffolk County,NY,NA,58.49785407725322,NA
11735,Nassau County,NY,NA,52.87553648068669,NA
11746,Suffolk County,NY,NA,33.47639484978541,6.4174107142857135
11754,Suffolk County,NY,NA,NA,97.65625
11758,Nassau County,NY,NA,NA,12.890625
11768,Suffolk County,NY,NA,NA,44.029017857142854
11779,Suffolk County,NY,NA,40.94420600858369,NA
11795,Suffolk County,NY,NA,65.7510729613734,NA
11798,Suffolk County,NY,NA,97.55364806866953,NA
11934,Suffolk County,NY,NA,NA,90.73660714285714
11937,Suffolk County,NY,NA,85.49356223175965,NA
11942,Suffolk County,NY,NA,NA,95.703125
11963,Suffolk County,NY,NA,92.91845493562232,NA
12010,Montgomery County,NY,NA,22.703862660944207,NA
12018,Rensselaer County,NY,NA,95.1931330472103,NA
12047,Albany County,NY,NA,78.75536480686695,NA
12065,Saratoga County,NY,NA,44.76394849785408,16.517857142857142
12068,Montgomery County,NY,NA,98.88412017167381,NA
12095,Fulton County,NY,NA,24.506437768240342,NA
12180,Rensselaer County,NY,NA,5.75107296137339,5.357142857142857
12188,Saratoga County,NY,NA,NA,92.578125
12198,Rensselaer County,NY,NA,94.54935622317596,NA
12202,Albany County,NY,NA,53.862660944206006,NA
12203,Albany County,NY,NA,NA,29.6875
12302,Schenectady County,NY,NA,NA,22.879464285714285
12303,Schenectady County,NY,NA,34.291845493562235,27.845982142857146
12306,Schenectady County,NY,NA,62.317596566523605,36.551339285714285
12309,Schenectady County,NY,NA,54.592274678111586,34.095982142857146
12508,Dutchess County,NY,77.17601547388782,NA,NA
12550,Orange County,NY,NA,47.85407725321888,NA
12771,Orange County,NY,NA,90.12875536480686,NA
12804,Warren County,NY,NA,NA,17.801339285714285
12834,Washington County,NY,NA,64.46351931330472,NA
12845,Warren County,NY,NA,75.19313304721031,NA
13021,Cayuga County,NY,4.835589941972921,NA,NA
13027,Onondaga County,NY,NA,11.888412017167383,NA
13031,Onondaga County,NY,NA,78.8412017167382,NA
13036,Oswego County,NY,58.22050290135397,NA,NA
13037,Madison County,NY,NA,76.05150214592274,NA
13057,Onondaga County,NY,NA,49.65665236051502,NA
13069,Oswego County,NY,6.5764023210831715,7.296137339055794,NA
13090,Onondaga County,NY,NA,21.33047210300429,NA
13104,Onondaga County,NY,NA,37.33905579399141,NA
13108,Onondaga County,NY,NA,86.48068669527898,NA
13116,Onondaga County,NY,92.06963249516441,NA,NA
13126,Oswego County,NY,NA,NA,7.8125
13135,Oswego County,NY,61.50870406189555,NA,NA
13152,Onondaga County,NY,NA,98.02575107296137,NA
13204,Onondaga County,NY,NA,76.7381974248927,NA
13207,Onondaga County,NY,32.10831721470019,NA,NA
13208,Onondaga County,NY,NA,30.300429184549355,NA
13210,Onondaga County,NY,NA,63.90557939914163,NA
13211,Onondaga County,NY,NA,96.7381974248927,NA
13212,Onondaga County,NY,NA,79.27038626609442,NA
13214,Onondaga County,NY,NA,NA,93.08035714285714
13224,Onondaga County,NY,NA,74.0343347639485,NA
13326,Otsego County,NY,NA,49.44206008583691,NA
13617,St. Lawrence County,NY,NA,62.66094420600859,37.611607142857146
13619,Jefferson County,NY,NA,NA,87.77901785714286
13642,St. Lawrence County,NY,NA,49.69957081545064,NA
13662,St. Lawrence County,NY,NA,NA,30.46875
13676,St. Lawrence County,NY,NA,NA,84.87723214285714
13748,Broome County,NY,NA,87.8969957081545,NA
13754,Broome County,NY,NA,98.24034334763948,NA
13760,Broome County,NY,NA,NA,0.6696428571428571
13815,Chenango County,NY,NA,9.527896995708154,NA
13820,Otsego County,NY,NA,27.510729613733904,11.328125
13825,Otsego County,NY,NA,94.63519313304721,NA
13850,Broome County,NY,NA,2.4892703862660945,39.0625
13865,Broome County,NY,NA,NA,72.32142857142857
13905,Broome County,NY,NA,21.67381974248927,NA
14020,Genesee County,NY,12.572533849129593,NA,NA
14031,Erie County,NY,NA,66.95278969957081,NA
14048,Chautauqua County,NY,NA,33.776824034334766,NA
14051,Erie County,NY,NA,72.66094420600858,NA
14052,Erie County,NY,NA,46.39484978540773,55.24553571428571
14057,Erie County,NY,NA,96.82403433476395,NA
14063,Chautauqua County,NY,NA,NA,55.80357142857143
14072,Erie County,NY,NA,63.261802575107296,NA
14075,Erie County,NY,NA,3.9484978540772535,7.477678571428571
14086,Erie County,NY,NA,NA,82.86830357142857
14094,Niagara County,NY,NA,1.2446351931330473,NA
14120,Niagara County,NY,NA,NA,17.299107142857142
14127,Erie County,NY,NA,41.11587982832618,NA
14150,Erie County,NY,NA,3.5622317596566524,NA
14207,Erie County,NY,NA,26.223175965665234,NA
14214,Erie County,NY,NA,35.407725321888414,NA
14216,Erie County,NY,NA,31.931330472103003,NA
14217,Erie County,NY,NA,13.905579399141633,NA
14220,Erie County,NY,NA,19.399141630901287,NA
14222,Erie County,NY,NA,NA,96.31696428571429
14223,Erie County,NY,NA,30.72961373390558,NA
14224,Erie County,NY,NA,5.879828326180257,57.03125
14226,Erie County,NY,NA,29.442060085836907,NA
14304,Niagara County,NY,NA,2.060085836909871,NA
14305,Niagara County,NY,6.963249516441006,27.467811158798284,NA
14420,Monroe County,NY,NA,15.536480686695278,NA
14424,Ontario County,NY,3.2882011605415857,NA,NA
14450,Monroe County,NY,3.67504835589942,0.7296137339055794,24.720982142857142
14454,Livingston County,NY,NA,76.09442060085837,NA
14464,Monroe County,NY,NA,60.42918454935622,NA
14468,Monroe County,NY,NA,14.46351931330472,NA
14472,Monroe County,NY,NA,22.23175965665236,NA
14512,Ontario County,NY,NA,58.8412017167382,NA
14513,Wayne County,NY,NA,NA,76.5625
14514,Monroe County,NY,NA,NA,87.22098214285714
14525,Genesee County,NY,NA,98.75536480686695,NA
14526,Monroe County,NY,NA,10.386266094420602,NA
14534,Monroe County,NY,NA,1.0300429184549356,20.424107142857142
14551,Wayne County,NY,NA,60.60085836909871,NA
14564,Ontario County,NY,NA,12.103004291845494,32.03125
14580,Monroe County,NY,NA,11.50214592274678,11.272321428571429
14606,Monroe County,NY,NA,36.48068669527897,NA
14607,Monroe County,NY,NA,69.31330472103005,NA
14608,Monroe County,NY,13.926499032882012,NA,90.12276785714286
14609,Monroe County,NY,NA,0.4721030042918455,NA
14610,Monroe County,NY,61.89555125725339,NA,25.669642857142854
14612,Monroe County,NY,NA,26.3519313304721,59.15178571428571
14613,Monroe County,NY,39.458413926499034,27.167381974248926,NA
14617,Monroe County,NY,NA,2.7467811158798283,NA
14618,Monroe County,NY,NA,7.939914163090128,NA
14620,Monroe County,NY,NA,43.39055793991417,NA
14621,Monroe County,NY,NA,1.3304721030042919,NA
14624,Monroe County,NY,3.0947775628626695,NA,7.142857142857142
14626,Monroe County,NY,NA,18.669527896995707,NA
14701,Chautauqua County,NY,NA,NA,8.761160714285714
14750,Chautauqua County,NY,NA,84.97854077253218,NA
14838,Chemung County,NY,NA,99.44206008583691,NA
14843,Steuben County,NY,22.243713733075435,NA,NA
14845,Chemung County,NY,NA,56.69527896995709,NA
14870,Steuben County,NY,NA,60.85836909871245,NA
14901,Chemung County,NY,31.14119922630561,NA,NA
27012,Forsyth County,NC,NA,NA,4.464285714285714
27030,Surry County,NC,NA,NA,21.819196428571427
27040,Forsyth County,NC,NA,21.84549356223176,NA
27043,Stokes County,NC,NA,59.18454935622317,NA
27055,Yadkin County,NC,NA,NA,45.535714285714285
27105,Forsyth County,NC,NA,NA,49.609375
27107,Forsyth County,NC,NA,2.2317596566523603,1.0044642857142858
27127,Forsyth County,NC,NA,20.085836909871244,NA
27203,Randolph County,NC,NA,NA,50.11160714285714
27249,Guilford County,NC,NA,NA,58.203125
27253,Alamance County,NC,NA,NA,23.325892857142858
27262,Guilford County,NC,NA,51.28755364806867,NA
27265,Guilford County,NC,NA,10.300429184549357,16.40625
27278,Orange County,NC,NA,NA,11.662946428571429
27284,Forsyth County,NC,NA,10.686695278969957,NA
27292,Davidson County,NC,6.189555125725339,8.068669527896995,23.102678571428573
27295,Davidson County,NC,NA,16.609442060085836,NA
27302,Alamance County,NC,NA,NA,19.642857142857142
27312,Chatham County,NC,NA,13.648068669527897,NA
27313,Guilford County,NC,NA,85.49356223175965,NA
27317,Randolph County,NC,NA,NA,67.41071428571429
27320,Rockingham County,NC,NA,NA,38.392857142857146
27358,Guilford County,NC,NA,60.21459227467811,NA
27360,Davidson County,NC,5.415860735009671,NA,7.421875
27405,Guilford County,NC,NA,NA,16.071428571428573
27406,Guilford County,NC,NA,0.6008583690987125,NA
27407,Guilford County,NC,NA,28.15450643776824,NA
27408,Guilford County,NC,86.65377176015474,47.1244635193133,NA
27455,Guilford County,NC,78.33655705996132,NA,NA
27511,Wake County,NC,NA,60.7725321888412,29.63169642857143
27514,Orange County,NC,NA,22.188841201716738,28.515625
27518,Wake County,NC,NA,45.836909871244636,NA
27519,Wake County,NC,NA,NA,42.63392857142857
27520,Johnston County,NC,NA,61.11587982832618,NA
27529,Wake County,NC,NA,63.347639484978544,NA
27536,Vance County,NC,29.013539651837522,NA,NA
27539,Wake County,NC,NA,57.08154506437768,NA
27549,Franklin County,NC,NA,25.021459227467812,63.05803571428571
27573,Person County,NC,45.26112185686654,47.038626609442055,NA
27576,Johnston County,NC,NA,47.33905579399141,NA
27592,Wake County,NC,NA,65.15021459227468,NA
27603,Wake County,NC,NA,54.0343347639485,NA
27608,Wake County,NC,NA,NA,99.16294642857143
27609,Wake County,NC,NA,25.236051502145923,NA
27612,Wake County,NC,NA,30.94420600858369,NA
27613,Wake County,NC,NA,NA,78.34821428571429
27615,Wake County,NC,NA,39.05579399141631,38.950892857142854
27616,Wake County,NC,NA,NA,89.95535714285714
27705,Durham County,NC,NA,36.566523605150216,48.046875
27707,Durham County,NC,NA,NA,66.29464285714286
27713,Durham County,NC,NA,NA,11.71875
27803,Nash County,NC,NA,36.60944206008584,NA
27804,Nash County,NC,NA,64.46351931330472,NA
27823,Halifax County,NC,NA,NA,82.08705357142857
27864,Edgecombe County,NC,NA,97.2961373390558,NA
27870,Halifax County,NC,54.73887814313346,75.27896995708154,NA
27882,Nash County,NC,NA,80.12875536480686,NA
27886,Edgecombe County,NC,NA,70.72961373390558,NA
27891,Nash County,NC,97.87234042553192,90.21459227467811,NA
27896,Wilson County,NC,NA,69.35622317596567,NA
28001,Stanly County,NC,NA,32.83261802575107,NA
28025,Cabarrus County,NC,NA,NA,34.988839285714285
28031,Mecklenburg County,NC,NA,69.52789699570815,NA
28104,Union County,NC,NA,64.12017167381975,NA
28112,Union County,NC,NA,28.583690987124466,NA
28115,Iredell County,NC,NA,NA,26.339285714285715
28150,Cleveland County,NC,NA,66.69527896995709,NA
28166,Iredell County,NC,NA,97.42489270386267,NA
28208,Mecklenburg County,NC,NA,18.369098712446352,NA
28215,Mecklenburg County,NC,NA,13.519313304721031,NA
28227,Mecklenburg County,NC,NA,44.12017167381974,NA
28270,Mecklenburg County,NC,NA,37.381974248927044,NA
28277,Mecklenburg County,NC,NA,NA,22.823660714285715
28312,Cumberland County,NC,NA,38.96995708154506,NA
28334,Sampson County,NC,58.80077369439072,NA,NA
28337,Bladen County,NC,66.15087040618955,NA,NA
28348,Cumberland County,NC,NA,31.84549356223176,NA
28372,Robeson County,NC,NA,55.36480686695279,NA
28403,New Hanover County,NC,NA,NA,26.61830357142857
28409,New Hanover County,NC,NA,43.648068669527895,NA
28451,Brunswick County,NC,NA,18.15450643776824,NA
28463,Columbus County,NC,69.43907156673113,NA,NA
28465,Brunswick County,NC,NA,48.58369098712446,NA
28467,Brunswick County,NC,NA,56.00858369098712,86.43973214285714
28472,Columbus County,NC,NA,70.21459227467811,NA
28513,Pitt County,NC,NA,NA,87.05357142857143
28557,Carteret County,NC,NA,33.94849785407725,NA
28560,Craven County,NC,NA,NA,42.1875
28601,Catawba County,NC,NA,NA,12.779017857142858
28602,Catawba County,NC,NA,32.918454935622314,NA
28607,Watauga County,NC,49.32301740812379,29.74248927038627,NA
28613,Catawba County,NC,NA,NA,62.16517857142857
28621,Surry County,NC,71.76015473887814,NA,NA
28625,Iredell County,NC,17.408123791102515,NA,NA
28655,Burke County,NC,NA,19.012875536480685,NA
28659,Wilkes County,NC,NA,20.643776824034337,NA
28677,Iredell County,NC,16.44100580270793,NA,NA
28716,Haywood County,NC,NA,32.48927038626609,NA
28721,Haywood County,NC,NA,68.24034334763948,NA
28730,Buncombe County,NC,NA,96.26609442060085,NA
28732,Henderson County,NC,NA,NA,53.57142857142857
28748,Buncombe County,NC,NA,NA,91.90848214285714
28768,Transylvania County,NC,85.88007736943906,NA,NA
28778,Buncombe County,NC,NA,87.55364806866953,NA
28792,Henderson County,NC,32.688588007736946,NA,0.5580357142857143
28804,Buncombe County,NC,NA,67.33905579399142,NA
58078,Cass County,ND,NA,10.515021459227468,64.73214285714286
58104,Cass County,ND,NA,7.682403433476395,16.462053571428573
58201,Grand Forks County,ND,NA,71.45922746781116,11.830357142857142
58203,Grand Forks County,ND,NA,89.48497854077253,NA
58368,Pierce County,ND,99.61315280464217,NA,NA
58601,Stark County,ND,NA,NA,33.761160714285715
58701,Ward County,ND,NA,5.9656652360515015,28.85044642857143
58703,Ward County,ND,NA,34.163090128755364,18.694196428571427
43015,Delaware County,OH,NA,4.334763948497854,NA
43016,Franklin County,OH,NA,77.63948497854078,NA
43019,Knox County,OH,NA,NA,67.41071428571429
43021,Delaware County,OH,NA,77.08154506437769,NA
43023,Licking County,OH,NA,74.72103004291846,NA
43031,Licking County,OH,NA,NA,80.18973214285714
43035,Delaware County,OH,NA,75.62231759656652,NA
43055,Licking County,OH,1.5473887814313347,NA,39.39732142857143
43056,Licking County,OH,NA,29.055793991416305,48.88392857142857
43065,Delaware County,OH,NA,21.716738197424892,NA
43068,Franklin County,OH,NA,6.7811158798283255,NA
43081,Franklin County,OH,NA,33.73390557939914,NA
43082,Delaware County,OH,NA,66.60944206008583,NA
43130,Fairfield County,OH,NA,1.4163090128755365,37.109375
43160,Fayette County,OH,NA,15.150214592274677,NA
43207,Franklin County,OH,NA,26.180257510729614,NA
43209,Franklin County,OH,NA,28.025751072961373,NA
43211,Franklin County,OH,11.798839458413926,25.278969957081543,54.6875
43219,Franklin County,OH,NA,NA,32.36607142857143
43220,Franklin County,OH,NA,NA,33.482142857142854
43221,Franklin County,OH,NA,NA,30.859375
43223,Franklin County,OH,NA,19.141630901287556,NA
43224,Franklin County,OH,NA,10.858369098712446,53.29241071428571
43227,Franklin County,OH,NA,NA,31.69642857142857
43230,Franklin County,OH,NA,NA,16.350446428571427
43231,Franklin County,OH,NA,NA,74.83258928571429
43232,Franklin County,OH,5.802707930367505,40.858369098712444,NA
43235,Franklin County,OH,NA,28.32618025751073,NA
43302,Marion County,OH,NA,1.4592274678111588,NA
43402,Wood County,OH,NA,40.987124463519315,NA
43431,Sandusky County,OH,NA,98.32618025751073,NA
43528,Lucas County,OH,NA,35.87982832618026,NA
43537,Lucas County,OH,NA,9.656652360515022,NA
43551,Wood County,OH,NA,61.93133047210301,NA
43606,Lucas County,OH,65.18375241779498,NA,NA
43608,Lucas County,OH,35.009671179883945,35.53648068669528,NA
43613,Lucas County,OH,NA,17.811158798283262,NA
43616,Lucas County,OH,NA,34.93562231759657,NA
43623,Lucas County,OH,NA,53.34763948497854,NA
43701,Muskingum County,OH,NA,NA,0.78125
43756,Morgan County,OH,NA,78.02575107296137,NA
43793,Monroe County,OH,NA,NA,68.75
43812,Coshocton County,OH,NA,NA,7.868303571428571
43906,Belmont County,OH,NA,NA,79.79910714285714
43947,Belmont County,OH,NA,75.4077253218884,NA
43952,Jefferson County,OH,NA,NA,26.729910714285715
43953,Jefferson County,OH,NA,NA,64.89955357142857
44004,Ashtabula County,OH,2.127659574468085,33.09012875536481,NA
44011,Lorain County,OH,NA,19.2274678111588,NA
44012,Lorain County,OH,NA,27.081545064377682,NA
44024,Geauga County,OH,NA,NA,9.988839285714286
44028,Lorain County,OH,NA,NA,44.698660714285715
44035,Lorain County,OH,NA,5.665236051502146,18.526785714285715
44039,Lorain County,OH,NA,1.8025751072961373,2.455357142857143
44041,Ashtabula County,OH,NA,NA,71.09375
44044,Lorain County,OH,NA,NA,79.01785714285714
44052,Lorain County,OH,NA,NA,78.85044642857143
44053,Lorain County,OH,9.090909090909092,3.776824034334764,58.48214285714286
44055,Lorain County,OH,NA,NA,40.234375
44060,Lake County,OH,NA,NA,0.2232142857142857
44067,Summit County,OH,NA,13.304721030042918,NA
44070,Cuyahoga County,OH,NA,NA,2.734375
44077,Lake County,OH,NA,NA,0.4464285714285714
44087,Summit County,OH,NA,NA,2.0089285714285716
44089,Erie County,OH,NA,NA,6.975446428571429
44092,Lake County,OH,43.32688588007737,NA,NA
44094,Lake County,OH,NA,54.12017167381974,NA
44095,Lake County,OH,20.889748549323016,NA,NA
44102,Cuyahoga County,OH,NA,1.2446351931330473,NA
44103,Cuyahoga County,OH,NA,NA,27.120535714285715
44105,Cuyahoga County,OH,0.3868471953578337,4.163090128755364,15.904017857142858
44106,Cuyahoga County,OH,NA,NA,47.99107142857143
44107,Cuyahoga County,OH,NA,NA,5.189732142857143
44108,Cuyahoga County,OH,NA,3.6051502145922747,NA
44109,Cuyahoga County,OH,NA,26.99570815450644,44.252232142857146
44110,Cuyahoga County,OH,NA,NA,35.10044642857143
44116,Cuyahoga County,OH,NA,NA,3.125
44119,Cuyahoga County,OH,NA,NA,71.14955357142857
44120,Cuyahoga County,OH,NA,15.708154506437769,NA
44121,Cuyahoga County,OH,10.638297872340425,NA,15.345982142857142
44122,Cuyahoga County,OH,NA,3.0901287553648067,11.104910714285714
44123,Cuyahoga County,OH,NA,17.42489270386266,NA
44124,Cuyahoga County,OH,NA,68.45493562231759,38.448660714285715
44126,Cuyahoga County,OH,NA,NA,30.580357142857146
44127,Cuyahoga County,OH,61.315280464216634,NA,NA
44128,Cuyahoga County,OH,NA,0.9871244635193134,10.770089285714286
44129,Cuyahoga County,OH,NA,10.042918454935622,NA
44130,Cuyahoga County,OH,NA,62.274678111587974,4.352678571428571
44131,Cuyahoga County,OH,NA,NA,23.214285714285715
44133,Cuyahoga County,OH,28.04642166344294,8.412017167381974,NA
44134,Cuyahoga County,OH,NA,13.261802575107296,41.35044642857143
44135,Cuyahoga County,OH,4.25531914893617,5.150214592274678,18.191964285714285
44136,Cuyahoga County,OH,NA,84.16309012875537,NA
44137,Cuyahoga County,OH,7.156673114119923,NA,NA
44139,Cuyahoga County,OH,NA,9.09871244635193,NA
44140,Cuyahoga County,OH,NA,58.798283261802574,27.34375
44141,Cuyahoga County,OH,NA,NA,31.026785714285715
44143,Cuyahoga County,OH,NA,9.785407725321889,0.9486607142857142
44144,Cuyahoga County,OH,NA,28.88412017167382,NA
44146,Cuyahoga County,OH,NA,0.944206008583691,NA
44147,Cuyahoga County,OH,NA,83.51931330472104,NA
44149,Cuyahoga County,OH,NA,12.274678111587983,8.928571428571429
44202,Portage County,OH,NA,46.69527896995708,30.80357142857143
44203,Summit County,OH,NA,5.579399141630901,NA
44212,Medina County,OH,4.642166344294004,17.21030042918455,1.3950892857142858
44216,Summit County,OH,NA,52.61802575107296,NA
44221,Summit County,OH,NA,44.97854077253219,NA
44224,Summit County,OH,NA,5.536480686695279,34.31919642857143
44236,Summit County,OH,NA,50.60085836909871,NA
44260,Portage County,OH,NA,NA,46.484375
44262,Summit County,OH,94.1972920696325,NA,NA
44266,Portage County,OH,NA,25.836909871244636,3.3482142857142856
44278,Summit County,OH,NA,36.22317596566524,NA
44280,Medina County,OH,NA,68.28326180257511,NA
44281,Medina County,OH,NA,9.44206008583691,NA
44301,Summit County,OH,NA,45.107296137339056,NA
44302,Summit County,OH,94.00386847195358,NA,NA
44305,Summit County,OH,NA,NA,79.74330357142857
44306,Summit County,OH,NA,NA,71.59598214285714
44310,Summit County,OH,NA,NA,45.089285714285715
44312,Summit County,OH,NA,NA,70.08928571428571
44313,Summit County,OH,29.593810444874276,NA,62.55580357142857
44319,Summit County,OH,NA,51.20171673819742,NA
44321,Summit County,OH,NA,83.39055793991417,63.72767857142857
44333,Summit County,OH,NA,NA,31.69642857142857
44403,Trumbull County,OH,NA,89.4420600858369,96.98660714285714
44405,Mahoning County,OH,NA,NA,57.64508928571429
44406,Mahoning County,OH,NA,NA,52.00892857142857
44413,Columbiana County,OH,NA,63.776824034334766,NA
44420,Trumbull County,OH,NA,NA,40.066964285714285
44429,Mahoning County,OH,NA,99.57081545064378,NA
44446,Trumbull County,OH,NA,NA,10.658482142857142
44460,Columbiana County,OH,NA,5.36480686695279,NA
44483,Trumbull County,OH,NA,NA,65.56919642857143
44484,Trumbull County,OH,NA,8.369098712446352,12.053571428571429
44505,Mahoning County,OH,NA,NA,28.57142857142857
44512,Mahoning County,OH,NA,9.313304721030043,11.160714285714286
44515,Mahoning County,OH,NA,NA,65.73660714285714
44601,Stark County,OH,NA,NA,6.194196428571429
44614,Stark County,OH,NA,61.28755364806867,76.67410714285714
44615,Carroll County,OH,NA,44.46351931330472,NA
44622,Tuscarawas County,OH,NA,NA,12.444196428571429
44632,Stark County,OH,NA,97.38197424892704,NA
44641,Stark County,OH,NA,37.81115879828326,NA
44646,Stark County,OH,NA,8.197424892703863,12.388392857142858
44647,Stark County,OH,NA,NA,48.604910714285715
44657,Stark County,OH,83.55899419729207,NA,NA
44662,Stark County,OH,NA,NA,60.546875
44685,Summit County,OH,NA,16.69527896995708,NA
44691,Wayne County,OH,NA,3.2618025751072963,NA
44707,Stark County,OH,NA,95.40772532188842,NA
44708,Stark County,OH,NA,25.665236051502145,NA
44720,Stark County,OH,NA,14.291845493562233,73.38169642857143
44730,Stark County,OH,NA,NA,95.14508928571429
44805,Ashland County,OH,NA,57.85407725321888,2.064732142857143
44820,Crawford County,OH,NA,56.13733905579399,NA
44827,Crawford County,OH,NA,68.02575107296137,NA
44833,Crawford County,OH,NA,64.89270386266094,25.44642857142857
44839,Erie County,OH,NA,80.90128755364807,NA
44857,Huron County,OH,NA,4.8927038626609445,11.551339285714286
44870,Erie County,OH,NA,NA,23.158482142857142
44890,Huron County,OH,NA,52.7038626609442,52.56696428571429
44903,Richland County,OH,NA,13.690987124463518,35.323660714285715
44904,Richland County,OH,NA,82.01716738197426,NA
44906,Richland County,OH,NA,38.412017167381975,20.256696428571427
44907,Richland County,OH,NA,23.218884120171673,32.979910714285715
45011,Butler County,OH,NA,16.69527896995708,37.276785714285715
45013,Butler County,OH,NA,NA,2.622767857142857
45014,Butler County,OH,NA,14.206008583690988,NA
45015,Butler County,OH,NA,60,NA
45040,Warren County,OH,NA,27.854077253218883,17.96875
45103,Clermont County,OH,NA,NA,77.62276785714286
45106,Clermont County,OH,78.14313346228239,57.76824034334764,86.49553571428571
45121,Brown County,OH,NA,92.40343347639485,97.99107142857143
45140,Clermont County,OH,NA,11.072961373390559,NA
45150,Clermont County,OH,NA,NA,29.575892857142854
45177,Clinton County,OH,NA,25.407725321888414,NA
45208,Hamilton County,OH,NA,75.62231759656652,NA
45211,Hamilton County,OH,NA,22.96137339055794,30.970982142857146
45214,Hamilton County,OH,NA,92.53218884120172,NA
45224,Hamilton County,OH,NA,44.63519313304721,NA
45237,Hamilton County,OH,29.40038684719536,NA,NA
45238,Hamilton County,OH,NA,11.201716738197424,NA
45239,Hamilton County,OH,NA,26.609442060085836,NA
45241,Hamilton County,OH,NA,29.914163090128753,NA
45243,Hamilton County,OH,NA,NA,58.81696428571429
45244,Hamilton County,OH,49.90328820116054,38.197424892703864,89.73214285714286
45245,Clermont County,OH,NA,NA,62.66741071428571
45246,Hamilton County,OH,NA,NA,56.80803571428571
45252,Hamilton County,OH,NA,94.07725321888411,NA
45255,Hamilton County,OH,NA,NA,37.05357142857143
45322,Montgomery County,OH,NA,40,NA
45338,Preble County,OH,NA,87.38197424892704,99.66517857142857
45342,Montgomery County,OH,NA,NA,15.625
45371,Miami County,OH,NA,14.763948497854077,NA
45373,Miami County,OH,NA,36.82403433476395,NA
45385,Greene County,OH,NA,5.622317596566524,NA
45403,Montgomery County,OH,NA,90.21459227467811,NA
45404,Montgomery County,OH,NA,60.42918454935622,NA
45406,Montgomery County,OH,15.667311411992262,NA,NA
45415,Montgomery County,OH,NA,NA,65.01116071428571
45417,Montgomery County,OH,NA,NA,21.930803571428573
45429,Montgomery County,OH,NA,24.63519313304721,12.834821428571427
45440,Montgomery County,OH,58.99419729206963,NA,NA
45459,Montgomery County,OH,NA,15.536480686695278,NA
45503,Clark County,OH,NA,8.283261802575108,NA
45623,Gallia County,OH,NA,95.23605150214593,NA
45631,Gallia County,OH,NA,6.866952789699571,3.459821428571429
45638,Lawrence County,OH,NA,2.1459227467811157,NA
45640,Jackson County,OH,NA,4.07725321888412,NA
45656,Jackson County,OH,60.154738878143135,NA,94.47544642857143
45692,Jackson County,OH,NA,26.609442060085836,NA
45694,Scioto County,OH,NA,15.407725321888414,NA
45750,Washington County,OH,NA,0.17167381974248927,NA
45769,Meigs County,OH,86.26692456479691,NA,NA
45784,Washington County,OH,NA,96.09442060085837,NA
73003,Oklahoma County,OK,NA,NA,38.33705357142857
73012,Oklahoma County,OK,NA,NA,49.27455357142857
73013,Oklahoma County,OK,NA,6.309012875536481,NA
73020,Oklahoma County,OK,NA,54.42060085836909,NA
73026,Cleveland County,OK,NA,89.2274678111588,NA
73064,Canadian County,OK,NA,NA,35.21205357142857
73069,Cleveland County,OK,NA,NA,37.890625
73072,Cleveland County,OK,NA,20.30042918454936,NA
73098,Garvin County,OK,NA,NA,93.75
73110,Oklahoma County,OK,NA,64.72103004291846,NA
73112,Oklahoma County,OK,NA,41.33047210300429,NA
73115,Oklahoma County,OK,NA,34.892703862660944,65.01116071428571
73118,Oklahoma County,OK,NA,69.48497854077253,NA
73121,Oklahoma County,OK,98.06576402321083,NA,NA
73130,Oklahoma County,OK,NA,37.2961373390558,NA
73139,Oklahoma County,OK,NA,NA,50.55803571428571
73142,Oklahoma County,OK,NA,NA,80.18973214285714
73159,Oklahoma County,OK,NA,54.72103004291845,84.65401785714286
73160,Cleveland County,OK,NA,21.80257510729614,NA
73162,Oklahoma County,OK,NA,NA,13.113839285714285
73401,Carter County,OK,NA,NA,16.183035714285715
73507,Comanche County,OK,NA,23.047210300429185,56.36160714285714
74003,Osage County,OK,NA,69.78540772532189,NA
74011,Tulsa County,OK,NA,37.42489270386266,NA
74012,Tulsa County,OK,25.918762088974855,NA,NA
74014,Wagoner County,OK,NA,52.74678111587983,NA
74019,Rogers County,OK,46.03481624758221,NA,NA
74020,Pawnee County,OK,NA,NA,84.26339285714286
74021,Tulsa County,OK,NA,57.93991416309014,NA
74030,Creek County,OK,NA,98.62660944206009,NA
74055,Tulsa County,OK,NA,57.12446351931331,NA
74063,Tulsa County,OK,NA,30.51502145922747,43.41517857142857
74108,Tulsa County,OK,NA,NA,88.39285714285714
74112,Tulsa County,OK,NA,85.02145922746782,NA
74114,Tulsa County,OK,NA,57.12446351931331,NA
74127,Tulsa County,OK,NA,59.785407725321896,NA
74135,Tulsa County,OK,79.3036750483559,35.1931330472103,63.95089285714286
74146,Tulsa County,OK,64.41005802707932,NA,NA
74344,Delaware County,OK,NA,NA,45.36830357142857
74401,Muskogee County,OK,70.98646034816247,49.012875536480685,NA
74462,Haskell County,OK,NA,NA,73.15848214285714
74464,Cherokee County,OK,NA,NA,34.375
74601,Kay County,OK,43.907156673114116,NA,NA
74631,Kay County,OK,NA,84.72103004291846,NA
74701,Bryan County,OK,NA,88.24034334763948,NA
74820,Pontotoc County,OK,NA,NA,51.28348214285714
74834,Lincoln County,OK,NA,NA,98.93973214285714
74859,Okfuskee County,OK,90.13539651837525,NA,NA
74868,Seminole County,OK,NA,NA,64.78794642857143
74959,Le Flore County,OK,NA,79.6137339055794,NA
97006,Washington County,OR,NA,60.17167381974249,NA
97007,Washington County,OR,NA,56.18025751072962,NA
97009,Clackamas County,OR,NA,75.02145922746782,NA
97013,Clackamas County,OR,NA,64.46351931330472,NA
97030,Multnomah County,OR,NA,13.004291845493562,NA
97056,Columbia County,OR,NA,79.14163090128756,NA
97058,Wasco County,OR,NA,NA,32.310267857142854
97068,Clackamas County,OR,NA,49.227467811158796,NA
97080,Multnomah County,OR,NA,47.59656652360515,NA
97113,Washington County,OR,89.55512572533848,NA,NA
97141,Tillamook County,OR,NA,47.59656652360515,NA
97202,Multnomah County,OR,NA,40.68669527896996,NA
97205,Multnomah County,OR,NA,NA,85.26785714285714
97206,Multnomah County,OR,NA,NA,29.854910714285715
97217,Multnomah County,OR,NA,39.82832618025751,72.65625
97221,Multnomah County,OR,NA,NA,85.546875
97222,Clackamas County,OR,NA,NA,36.216517857142854
97223,Washington County,OR,NA,18.4549356223176,NA
97224,Washington County,OR,NA,NA,21.372767857142858
97230,Multnomah County,OR,NA,NA,10.100446428571429
97236,Multnomah County,OR,NA,20.128755364806867,NA
97239,Multnomah County,OR,NA,NA,51.00446428571429
97266,Multnomah County,OR,33.46228239845261,NA,NA
97267,Clackamas County,OR,NA,31.373390557939913,NA
97306,Marion County,OR,NA,NA,53.57142857142857
97355,Linn County,OR,NA,NA,4.966517857142857
97361,Polk County,OR,NA,NA,88.89508928571429
97367,Lincoln County,OR,NA,25.10729613733906,NA
97402,Lane County,OR,NA,22.57510729613734,NA
97403,Lane County,OR,NA,NA,99.10714285714286
97408,Lane County,OR,NA,95.23605150214593,NA
97415,Curry County,OR,NA,NA,16.908482142857142
97444,Curry County,OR,NA,69.57081545064378,NA
97520,Jackson County,OR,NA,NA,24.274553571428573
97601,Klamath County,OR,NA,7.467811158798283,NA
97603,Klamath County,OR,NA,NA,1.7299107142857144
97630,Lake County,OR,NA,60,NA
97838,Umatilla County,OR,NA,11.888412017167383,NA
15021,Washington County,PA,NA,90.34334763948499,NA
15063,Washington County,PA,NA,NA,81.75223214285714
15065,Allegheny County,PA,NA,57.85407725321888,NA
15068,Westmoreland County,PA,NA,6.695278969957082,NA
15084,Allegheny County,PA,NA,95.87982832618026,NA
15085,Westmoreland County,PA,NA,NA,92.74553571428571
15101,Allegheny County,PA,NA,43.433476394849784,NA
15104,Allegheny County,PA,NA,NA,54.12946428571429
15120,Allegheny County,PA,NA,NA,63.05803571428571
15129,Allegheny County,PA,NA,95.5793991416309,NA
15137,Allegheny County,PA,60.34816247582205,NA,NA
15143,Allegheny County,PA,71.56673114119923,NA,NA
15146,Allegheny County,PA,NA,24.29184549356223,NA
15147,Allegheny County,PA,NA,NA,13.337053571428573
15207,Allegheny County,PA,NA,88.79828326180258,NA
15211,Allegheny County,PA,NA,NA,76.00446428571429
15212,Allegheny County,PA,NA,31.030042918454935,29.464285714285715
15218,Allegheny County,PA,NA,NA,50.33482142857143
15221,Allegheny County,PA,NA,18.755364806866954,NA
15224,Allegheny County,PA,NA,NA,75.16741071428571
15226,Allegheny County,PA,NA,NA,31.026785714285715
15227,Allegheny County,PA,NA,NA,74.83258928571429
15229,Allegheny County,PA,85.49323017408123,NA,NA
15235,Allegheny County,PA,NA,NA,30.636160714285715
15236,Allegheny County,PA,NA,22.875536480686694,35.770089285714285
15238,Allegheny County,PA,NA,NA,64.95535714285714
15301,Washington County,PA,NA,NA,8.314732142857142
15461,Fayette County,PA,NA,93.69098712446352,NA
15501,Somerset County,PA,NA,40.472103004291846,NA
15613,Westmoreland County,PA,NA,41.93133047210301,25.111607142857146
15626,Westmoreland County,PA,NA,NA,69.02901785714286
15632,Westmoreland County,PA,NA,95.36480686695279,NA
15642,Westmoreland County,PA,NA,3.862660944206009,NA
15644,Westmoreland County,PA,NA,NA,9.709821428571429
15650,Westmoreland County,PA,NA,43.81974248927038,NA
15714,Cambria County,PA,NA,94.89270386266094,NA
15801,Clearfield County,PA,NA,4.420600858369099,1.4508928571428572
15825,Jefferson County,PA,NA,36.9098712446352,NA
15851,Jefferson County,PA,NA,49.35622317596567,NA
15904,Cambria County,PA,NA,NA,14.508928571428573
15905,Cambria County,PA,NA,63.6480686695279,NA
15946,Cambria County,PA,NA,82.01716738197426,NA
16117,Lawrence County,PA,NA,NA,19.810267857142858
16121,Mercer County,PA,NA,NA,89.39732142857143
16148,Mercer County,PA,NA,NA,29.296875
16150,Mercer County,PA,NA,86.43776824034335,NA
16201,Armstrong County,PA,NA,6.9527896995708165,NA
16301,Venango County,PA,NA,34.163090128755364,NA
16354,Crawford County,PA,NA,59.785407725321896,50.83705357142857
16504,Erie County,PA,NA,65.4077253218884,NA
16505,Erie County,PA,NA,49.39914163090129,NA
16506,Erie County,PA,NA,NA,35.323660714285715
16508,Erie County,PA,NA,81.71673819742489,NA
16509,Erie County,PA,NA,NA,18.638392857142858
16601,Blair County,PA,NA,5.193133047210301,51.78571428571429
16602,Blair County,PA,NA,8.583690987124463,15.625
16648,Blair County,PA,NA,28.240343347639485,41.127232142857146
16801,Centre County,PA,NA,NA,38.560267857142854
16823,Centre County,PA,NA,43.30472103004292,NA
16830,Clearfield County,PA,28.820116054158607,NA,NA
16866,Centre County,PA,NA,NA,44.140625
16901,Tioga County,PA,NA,65.87982832618026,NA
17003,Lebanon County,PA,NA,40.90128755364807,NA
17022,Lancaster County,PA,NA,41.88841201716738,NA
17025,Cumberland County,PA,NA,48.02575107296138,63.16964285714286
17033,Dauphin County,PA,NA,NA,51.5625
17042,Lebanon County,PA,NA,3.648068669527897,NA
17044,Mifflin County,PA,NA,NA,7.1986607142857135
17046,Lebanon County,PA,NA,18.025751072961373,NA
17050,Cumberland County,PA,54.35203094777563,NA,NA
17055,Cumberland County,PA,NA,NA,5.078125
17074,Perry County,PA,66.7311411992263,NA,NA
17078,Lebanon County,PA,NA,7.253218884120171,3.515625
17103,Dauphin County,PA,NA,NA,88.22544642857143
17109,Dauphin County,PA,NA,74.97854077253218,NA
17111,Dauphin County,PA,16.634429400386846,4.206008583690987,31.417410714285715
17112,Dauphin County,PA,NA,59.141630901287556,72.15401785714286
17222,Franklin County,PA,78.72340425531915,NA,NA
17257,Cumberland County,PA,NA,53.648068669527895,NA
17315,York County,PA,NA,10.90128755364807,NA
17331,York County,PA,NA,NA,0.8928571428571428
17362,York County,PA,NA,41.03004291845493,NA
17403,York County,PA,NA,1.8454935622317596,45.982142857142854
17404,York County,PA,NA,9.356223175965665,10.044642857142858
17408,York County,PA,NA,41.587982832618025,NA
17516,Lancaster County,PA,NA,88.92703862660944,NA
17538,Lancaster County,PA,NA,94.67811158798283,NA
17566,Lancaster County,PA,NA,NA,69.19642857142857
17569,Lancaster County,PA,NA,82.36051502145922,NA
17578,Lancaster County,PA,NA,NA,79.79910714285714
17601,Lancaster County,PA,NA,42.87553648068669,NA
17701,Lycoming County,PA,NA,NA,60.71428571428571
17702,Lycoming County,PA,NA,NA,58.64955357142857
17740,Lycoming County,PA,NA,NA,35.60267857142857
17756,Lycoming County,PA,NA,NA,72.99107142857143
17777,Northumberland County,PA,NA,91.37339055793991,69.81026785714286
17801,Northumberland County,PA,51.64410058027079,15.1931330472103,26.22767857142857
17815,Columbia County,PA,NA,91.28755364806867,41.796875
17821,Montour County,PA,72.14700193423597,73.862660944206,NA
17824,Northumberland County,PA,98.64603481624758,89.2274678111588,NA
17834,Northumberland County,PA,NA,NA,91.68526785714286
17837,Union County,PA,NA,67.12446351931331,NA
17851,Northumberland County,PA,NA,42.188841201716734,NA
17857,Northumberland County,PA,NA,41.50214592274678,56.25
17866,Northumberland County,PA,NA,NA,38.895089285714285
17870,Snyder County,PA,NA,NA,89.50892857142857
17963,Schuylkill County,PA,NA,NA,94.81026785714286
18020,Northampton County,PA,NA,NA,53.45982142857143
18042,Northampton County,PA,6.769825918762089,NA,NA
18064,Northampton County,PA,NA,17.467811158798284,NA
18067,Northampton County,PA,40.232108317214696,NA,NA
18201,Luzerne County,PA,NA,18.240343347639485,NA
18202,Luzerne County,PA,NA,35.107296137339056,NA
18210,Carbon County,PA,71.95357833655706,NA,99.83258928571429
18222,Luzerne County,PA,NA,62.618025751072956,NA
18249,Luzerne County,PA,NA,97.16738197424893,NA
18252,Schuylkill County,PA,NA,NA,50.61383928571429
18353,Monroe County,PA,NA,56.39484978540773,NA
18360,Monroe County,PA,NA,8.841201716738198,10.491071428571429
18403,Lackawanna County,PA,NA,96.56652360515021,NA
18444,Lackawanna County,PA,NA,NA,84.93303571428571
18452,Lackawanna County,PA,NA,88.6695278969957,NA
18510,Lackawanna County,PA,NA,NA,66.015625
18512,Lackawanna County,PA,NA,NA,52.79017857142857
18610,Monroe County,PA,NA,NA,99.55357142857143
18612,Luzerne County,PA,NA,NA,26.953125
18634,Luzerne County,PA,NA,NA,48.995535714285715
18651,Luzerne County,PA,NA,93.13304721030042,NA
18657,Wyoming County,PA,62.86266924564797,NA,NA
18660,Luzerne County,PA,NA,99.65665236051503,NA
18702,Luzerne County,PA,NA,56.18025751072962,NA
18801,Susquehanna County,PA,77.94970986460348,NA,NA
18840,Bradford County,PA,62.66924564796905,NA,92.07589285714286
18940,Bucks County,PA,NA,NA,42.91294642857143
18951,Bucks County,PA,NA,12.532188841201716,21.149553571428573
18964,Montgomery County,PA,70.40618955512572,NA,NA
18974,Bucks County,PA,NA,NA,13.783482142857142
19002,Montgomery County,PA,NA,NA,14.453125
19003,Montgomery County,PA,NA,NA,72.87946428571429
19008,Delaware County,PA,NA,29.313304721030043,NA
19013,Delaware County,PA,NA,9.699570815450643,NA
19018,Delaware County,PA,NA,NA,50.66964285714286
19020,Bucks County,PA,33.849129593810446,NA,NA
19021,Bucks County,PA,NA,NA,89.34151785714286
19026,Delaware County,PA,17.988394584139265,61.45922746781116,82.31026785714286
19027,Montgomery County,PA,NA,62.8755364806867,NA
19032,Delaware County,PA,NA,NA,95.81473214285714
19041,Delaware County,PA,NA,85.70815450643778,NA
19050,Delaware County,PA,NA,9.09871244635193,NA
19053,Bucks County,PA,NA,NA,71.03794642857143
19063,Delaware County,PA,NA,7.896995708154507,7.6450892857142865
19064,Delaware County,PA,NA,37.63948497854077,33.64955357142857
19066,Montgomery County,PA,NA,NA,78.40401785714286
19074,Delaware County,PA,NA,NA,98.54910714285714
19081,Delaware County,PA,NA,NA,99.21875
19082,Delaware County,PA,NA,19.48497854077253,NA
19086,Delaware County,PA,NA,NA,64.0625
19087,Chester County,PA,NA,NA,32.142857142857146
19090,Montgomery County,PA,46.42166344294004,NA,NA
19094,Delaware County,PA,97.09864603481626,NA,NA
19096,Montgomery County,PA,NA,31.502145922746784,NA
19103,Philadelphia County,PA,NA,51.5450643776824,NA
19107,Philadelphia County,PA,NA,40.08583690987124,NA
19111,Philadelphia County,PA,NA,22.274678111587985,58.03571428571429
19118,Philadelphia County,PA,NA,68.11158798283262,NA
19121,Philadelphia County,PA,NA,16.824034334763947,59.65401785714286
19122,Philadelphia County,PA,NA,65.9656652360515,NA
19131,Philadelphia County,PA,NA,NA,66.12723214285714
19133,Philadelphia County,PA,16.054158607350097,26.480686695278973,NA
19134,Philadelphia County,PA,NA,10.17167381974249,NA
19138,Philadelphia County,PA,NA,16.223175965665234,NA
19142,Philadelphia County,PA,13.346228239845262,NA,NA
19143,Philadelphia County,PA,NA,0.7725321888412017,NA
19147,Philadelphia County,PA,NA,NA,45.3125
19150,Philadelphia County,PA,NA,17.896995708154506,NA
19151,Philadelphia County,PA,14.313346228239846,NA,NA
19154,Philadelphia County,PA,NA,NA,23.716517857142858
19312,Chester County,PA,NA,NA,77.34375
19320,Chester County,PA,NA,8.412017167381974,NA
19341,Chester County,PA,NA,65.708154506437765,NA
19342,Delaware County,PA,NA,72.18884120171674,20.758928571428573
19343,Chester County,PA,NA,NA,81.08258928571429
19348,Chester County,PA,NA,38.02575107296137,NA
19355,Chester County,PA,NA,34.12017167381974,NA
19363,Chester County,PA,NA,64.20600858369099,NA
19380,Chester County,PA,NA,NA,19.196428571428573
19403,Montgomery County,PA,NA,24.463519313304722,26.11607142857143
19406,Montgomery County,PA,NA,NA,75.89285714285714
19446,Montgomery County,PA,NA,NA,62.94642857142857
19454,Montgomery County,PA,NA,NA,36.66294642857143
19465,Chester County,PA,50.67698259187621,NA,58.42633928571429
19512,Berks County,PA,NA,NA,47.265625
19518,Berks County,PA,NA,46.39484978540773,NA
19526,Berks County,PA,68.08510638297872,NA,NA
19533,Berks County,PA,NA,NA,84.54241071428571
19601,Berks County,PA,18.3752417794971,NA,NA
19608,Berks County,PA,29.78723404255319,17.124463519313306,NA
02809,Bristol County,RI,NA,25.10729613733906,NA
02814,Providence County,RI,NA,80.85836909871244,NA
02816,Kent County,RI,NA,NA,20.033482142857142
02828,Providence County,RI,NA,NA,61.21651785714286
02861,Providence County,RI,32.30174081237911,NA,NA
02879,Washington County,RI,NA,91.07296137339056,NA
02889,Kent County,RI,57.05996131528046,NA,NA
02893,Kent County,RI,NA,16.781115879828327,NA
02905,Providence County,RI,NA,35.02145922746781,NA
02910,Providence County,RI,NA,NA,54.79910714285714
02914,Providence County,RI,NA,34.377682403433475,NA
02916,Providence County,RI,94.39071566731141,94.03433476394851,NA
02917,Providence County,RI,NA,89.74248927038626,NA
02919,Providence County,RI,NA,22.78969957081545,NA
29016,Richland County,SC,NA,69.82832618025752,NA
29036,Lexington County,SC,NA,NA,63.89508928571429
29148,Clarendon County,SC,NA,87.85407725321889,NA
29206,Richland County,SC,NA,NA,53.23660714285714
29302,Spartanburg County,SC,NA,65.19313304721031,84.15178571428571
29322,Spartanburg County,SC,NA,84.291845493562235,NA
29340,Cherokee County,SC,69.0522243713733,NA,NA
29349,Spartanburg County,SC,NA,47.98283261802575,NA
29353,Union County,SC,NA,NA,99.38616071428571
29379,Union County,SC,NA,34.67811158798283,74.94419642857143
29388,Spartanburg County,SC,NA,NA,87.890625
29405,Charleston County,SC,28.433268858800776,32.06008583690988,NA
29406,Charleston County,SC,NA,49.82832618025751,NA
29410,Berkeley County,SC,NA,65.83690987124463,NA
29431,Berkeley County,SC,NA,91.11587982832619,NA
29455,Charleston County,SC,NA,25.87982832618026,NA
29466,Charleston County,SC,NA,NA,31.58482142857143
29485,Dorchester County,SC,NA,NA,37.83482142857143
29486,Berkeley County,SC,NA,40.17167381974249,NA
29501,Florence County,SC,32.88201160541586,NA,NA
29526,Horry County,SC,NA,34.33476394849785,NA
29556,Williamsburg County,SC,NA,NA,96.93080357142857
29568,Horry County,SC,NA,54.806866952789704,NA
29571,Marion County,SC,NA,44.84978540772532,NA
29576,Horry County,SC,NA,58.32618025751073,NA
29579,Horry County,SC,NA,NA,33.14732142857143
29588,Horry County,SC,NA,NA,16.908482142857142
29621,Anderson County,SC,NA,NA,9.542410714285714
29625,Anderson County,SC,NA,NA,41.127232142857146
29649,Greenwood County,SC,NA,46.738197424892704,NA
29651,Greenville County,SC,NA,39.91416309012876,14.006696428571427
29666,Greenwood County,SC,NA,NA,84.82142857142857
29689,Anderson County,SC,NA,NA,99.88839285714286
29709,Chesterfield County,SC,NA,93.51931330472102,NA
29730,York County,SC,NA,28.454935622317596,NA
29732,York County,SC,NA,17.76824034334764,NA
29801,Aiken County,SC,NA,NA,38.113839285714285
29803,Aiken County,SC,NA,31.716738197424892,NA
29847,Edgefield County,SC,NA,NA,97.20982142857143
29851,Aiken County,SC,NA,95.7510729613734,NA
29860,Edgefield County,SC,NA,62.317596566523605,NA
29907,Beaufort County,SC,NA,NA,46.875
29924,Hampton County,SC,NA,97.59656652360516,NA
29926,Beaufort County,SC,NA,NA,63.33705357142857
29928,Beaufort County,SC,NA,56.39484978540773,NA
57006,Brookings County,SD,NA,NA,9.654017857142858
57078,Yankton County,SD,NA,NA,85.60267857142857
57103,Minnehaha County,SD,24.758220502901356,2.2746781115879826,NA
57104,Minnehaha County,SD,NA,NA,10.323660714285714
57105,Minnehaha County,SD,NA,7.725321888412018,NA
57106,Minnehaha County,SD,NA,NA,2.5669642857142856
57108,Lincoln County,SD,NA,NA,4.408482142857143
57110,Minnehaha County,SD,NA,20.600858369098713,61.16071428571429
57301,Davison County,SD,NA,NA,18.080357142857142
57350,Beadle County,SD,NA,62.70386266094421,NA
57701,Pennington County,SD,NA,12.145922746781116,6.361607142857142
57703,Pennington County,SD,NA,NA,66.90848214285714
57717,Butte County,SD,NA,74.67811158798283,NA
37048,Sumner County,TN,NA,NA,94.53125
37055,Dickson County,TN,NA,NA,52.34375
37066,Sumner County,TN,NA,NA,19.419642857142858
37075,Sumner County,TN,NA,4.248927038626609,NA
37076,Davidson County,TN,NA,23.733905579399142,NA
37087,Wilson County,TN,NA,18.71244635193133,NA
37091,Marshall County,TN,NA,NA,53.68303571428571
37098,Hickman County,TN,NA,NA,94.08482142857143
37110,Warren County,TN,NA,NA,21.316964285714285
37115,Davidson County,TN,NA,NA,79.52008928571429
37128,Rutherford County,TN,NA,NA,56.69642857142857
37130,Rutherford County,TN,NA,23.433476394849787,NA
37160,Bedford County,TN,NA,NA,30.859375
37185,Humphreys County,TN,NA,NA,92.13169642857143
37205,Davidson County,TN,NA,NA,14.341517857142858
37207,Davidson County,TN,NA,22.40343347639485,NA
37310,Bradley County,TN,NA,NA,94.69866071428571
37311,Bradley County,TN,NA,27.896995708154503,NA
37312,Bradley County,TN,NA,39.87124463519313,27.34375
37322,Meigs County,TN,61.50870406189555,NA,NA
37341,Hamilton County,TN,NA,91.67381974248927,NA
37343,Hamilton County,TN,24.177949709864606,NA,NA
37353,Bradley County,TN,NA,98.54077253218884,NA
37363,Hamilton County,TN,NA,67.76824034334764,NA
37379,Hamilton County,TN,NA,22.918454935622318,NA
37380,Marion County,TN,NA,NA,85.37946428571429
37397,Marion County,TN,84.52611218568666,NA,NA
37398,Franklin County,TN,NA,48.412017167381975,NA
37415,Hamilton County,TN,NA,49.31330472103004,NA
37416,Hamilton County,TN,NA,45.66523605150215,NA
37421,Hamilton County,TN,NA,21.888412017167383,NA
37601,Washington County,TN,NA,8.025751072961373,NA
37604,Washington County,TN,20.116054158607348,NA,NA
37618,Sullivan County,TN,NA,70.17167381974248,NA
37620,Sullivan County,TN,NA,43.776824034334766,44.53125
37642,Hawkins County,TN,NA,72.78969957081544,NA
37643,Carter County,TN,NA,5.278969957081546,NA
37659,Washington County,TN,NA,NA,19.308035714285715
37660,Sullivan County,TN,10.058027079303674,6.051502145922747,77.79017857142857
37663,Sullivan County,TN,NA,NA,66.23883928571429
37664,Sullivan County,TN,NA,39.141630901287556,21.484375
37665,Sullivan County,TN,NA,NA,80.63616071428571
37686,Sullivan County,TN,NA,NA,86.04910714285714
37708,Grainger County,TN,NA,80.60085836909872,NA
37748,Roane County,TN,NA,83.43347639484978,NA
37752,Claiborne County,TN,NA,93.21888412017168,NA
37757,Campbell County,TN,NA,69.27038626609442,NA
37772,Loudon County,TN,NA,52.832618025751074,NA
37777,Blount County,TN,NA,46.952789699570815,NA
37801,Blount County,TN,NA,NA,58.81696428571429
37803,Blount County,TN,NA,9.742489270386265,11.216517857142858
37804,Blount County,TN,NA,13.519313304721031,23.995535714285715
37807,Union County,TN,NA,75.49356223175965,NA
37830,Anderson County,TN,NA,53.00429184549357,29.966517857142854
37840,Roane County,TN,NA,46.52360515021459,NA
37849,Knox County,TN,NA,42.06008583690987,NA
37862,Sevier County,TN,NA,44.84978540772532,NA
37863,Sevier County,TN,NA,NA,93.41517857142857
37876,Sevier County,TN,NA,16.008583690987123,NA
37880,Meigs County,TN,NA,94.9785407725322,NA
37917,Knox County,TN,NA,16.48068669527897,NA
37918,Knox County,TN,NA,49.6137339055794,NA
37919,Knox County,TN,NA,NA,66.96428571428571
37922,Knox County,TN,NA,43.60515021459228,NA
37923,Knox County,TN,NA,32.40343347639485,NA
37934,Knox County,TN,NA,34.506437768240346,NA
37938,Knox County,TN,NA,56.78111587982833,NA
38106,Shelby County,TN,NA,32.57510729613734,NA
38117,Shelby County,TN,NA,NA,46.261160714285715
38122,Shelby County,TN,NA,62.01716738197425,NA
38128,Shelby County,TN,NA,28.068669527896994,NA
38201,Carroll County,TN,NA,NA,73.10267857142857
38225,Weakley County,TN,NA,85.62231759656652,NA
38242,Henry County,TN,NA,30.643776824034337,NA
38305,Madison County,TN,NA,7.510729613733906,NA
38310,McNairy County,TN,NA,74.89270386266095,NA
38343,Gibson County,TN,NA,44.20600858369099,NA
38375,McNairy County,TN,NA,65.5793991416309,NA
38401,Maury County,TN,8.317214700193423,NA,14.564732142857142
38464,Lawrence County,TN,NA,NA,34.82142857142857
38556,Fentress County,TN,NA,NA,53.06919642857143
38572,Cumberland County,TN,NA,50,NA
38574,Putnam County,TN,NA,NA,90.625
75002,Collin County,TX,NA,20.815450643776824,36.328125
75006,Dallas County,TX,45.64796905222437,82.74678111587983,22.65625
75007,Denton County,TX,NA,71.80257510729614,28.794642857142854
75020,Grayson County,TX,NA,63.519313304721024,NA
75032,Rockwall County,TX,58.99419729206963,NA,NA
75033,,TX,NA,85.70815450643778,NA
75034,Denton County,TX,NA,56.52360515021459,32.254464285714285
75035,Collin County,TX,NA,74.16309012875536,NA
75040,Dallas County,TX,NA,21.28755364806867,13.225446428571427
75042,Dallas County,TX,NA,57.5107296137339,NA
75043,Dallas County,TX,NA,12.918454935622318,56.75223214285714
75051,Dallas County,TX,NA,73.0901287553648,NA
75056,Denton County,TX,NA,25.064377682403432,NA
75057,Denton County,TX,83.36557059961315,NA,NA
75061,Dallas County,TX,NA,NA,71.42857142857143
75063,Dallas County,TX,NA,83.17596566523605,NA
75067,Denton County,TX,NA,27.553648068669528,NA
75070,Collin County,TX,NA,NA,10.825892857142858
75075,Collin County,TX,NA,26.223175965665234,40.011160714285715
75082,Collin County,TX,72.5338491295938,NA,NA
75087,Rockwall County,TX,NA,46.738197424892704,NA
75088,Dallas County,TX,NA,90.1716738197425,NA
75090,Grayson County,TX,NA,NA,48.4375
75103,Van Zandt County,TX,NA,NA,39.78794642857143
75115,Dallas County,TX,23.791102514506772,47.467811158798284,NA
75137,Dallas County,TX,NA,89.52789699570816,NA
75143,Henderson County,TX,NA,NA,83.92857142857143
75148,Henderson County,TX,NA,82.78969957081546,NA
75149,Dallas County,TX,NA,NA,34.654017857142854
75160,Kaufman County,TX,NA,45.107296137339056,NA
75161,Kaufman County,TX,NA,NA,93.41517857142857
75169,Van Zandt County,TX,NA,60.94420600858369,NA
75180,Dallas County,TX,NA,61.630901287553655,NA
75181,Dallas County,TX,52.41779497098646,NA,80.97098214285714
75205,Dallas County,TX,NA,87.33905579399142,NA
75206,Dallas County,TX,48.74274661508704,53.90557939914164,NA
75211,Dallas County,TX,NA,NA,34.43080357142857
75214,Dallas County,TX,44.294003868471954,NA,53.96205357142857
75216,Dallas County,TX,NA,6.223175965665236,50.390625
75217,Dallas County,TX,73.30754352030948,6.051502145922747,34.486607142857146
75224,Dallas County,TX,NA,32.14592274678111,NA
75225,Dallas County,TX,NA,NA,61.328125
75227,Dallas County,TX,NA,NA,96.54017857142857
75228,Dallas County,TX,NA,NA,18.694196428571427
75229,Dallas County,TX,NA,84.5922746781116,NA
75230,Dallas County,TX,NA,NA,42.354910714285715
75231,Dallas County,TX,NA,83.04721030042919,NA
75232,Dallas County,TX,NA,34.4206008583691,NA
75238,Dallas County,TX,NA,84.54935622317596,NA
75243,Dallas County,TX,NA,36.22317596566524,NA
75407,Collin County,TX,NA,62.01716738197425,NA
75426,Red River County,TX,NA,98.28326180257511,NA
75428,Hunt County,TX,NA,NA,98.21428571428571
75440,Rains County,TX,NA,70.98712446351931,NA
75455,Titus County,TX,NA,85.10729613733906,NA
75460,Lamar County,TX,NA,NA,88.11383928571429
75473,Lamar County,TX,99.80657640232108,NA,NA
75491,Grayson County,TX,NA,NA,95.59151785714286
75494,Wood County,TX,NA,60.64377682403433,NA
75501,Bowie County,TX,NA,16.909871244635195,39.341517857142854
75633,Panola County,TX,NA,45.66523605150215,NA
75652,Rusk County,TX,NA,NA,67.1875
75654,Rusk County,TX,NA,NA,52.56696428571429
75657,Marion County,TX,NA,86.99570815450643,NA
75702,Smith County,TX,NA,33.21888412017167,24.441964285714285
75707,Smith County,TX,NA,NA,61.77455357142857
75762,Smith County,TX,NA,44.077253218884124,NA
75766,Cherokee County,TX,35.97678916827853,5.493562231759657,NA
75771,Smith County,TX,NA,22.489270386266096,10.435267857142858
75790,Van Zandt County,TX,93.81044487427465,NA,NA
75801,Anderson County,TX,NA,63.862660944206006,NA
75901,Angelina County,TX,NA,32.23175965665236,NA
75935,Shelby County,TX,NA,72.91845493562231,NA
75961,Nacogdoches County,TX,NA,NA,78.23660714285714
76009,Johnson County,TX,NA,81.97424892703863,NA
76010,Tarrant County,TX,NA,77.33905579399142,NA
76012,Tarrant County,TX,46.808510638297875,NA,NA
76014,Tarrant County,TX,NA,37.896995708154506,NA
76016,Tarrant County,TX,NA,NA,27.455357142857146
76017,Tarrant County,TX,NA,59.39914163090128,NA
76020,Tarrant County,TX,NA,83.13304721030043,48.270089285714285
76028,Johnson County,TX,NA,2.3605150214592276,NA
76031,Johnson County,TX,NA,43.47639484978541,NA
76033,Johnson County,TX,37.71760154738878,30.429184549356226,NA
76034,Tarrant County,TX,NA,NA,58.92857142857143
76040,Tarrant County,TX,NA,64.46351931330472,NA
76058,Johnson County,TX,54.932301740812385,NA,NA
76063,Tarrant County,TX,NA,37.896995708154506,12.5
76073,Wise County,TX,NA,99.2274678111588,NA
76088,Parker County,TX,80.27079303675049,NA,NA
76105,Tarrant County,TX,NA,52.18884120171674,NA
76110,Tarrant County,TX,NA,41.71673819742489,76.61830357142857
76112,Tarrant County,TX,NA,40.60085836909872,66.62946428571429
76115,Tarrant County,TX,92.84332688588007,NA,NA
76116,Tarrant County,TX,24.95164410058027,NA,13.727678571428573
76117,Tarrant County,TX,35.783365570599614,64.63519313304721,80.13392857142857
76119,Tarrant County,TX,8.897485493230175,NA,NA
76126,Tarrant County,TX,NA,NA,62.55580357142857
76133,Tarrant County,TX,19.535783365570598,NA,51.06026785714286
76135,Tarrant County,TX,NA,NA,74.27455357142857
76137,Tarrant County,TX,NA,14.97854077253219,NA
76140,Tarrant County,TX,NA,70.04291845493562,NA
76164,Tarrant County,TX,NA,86.95278969957081,NA
76179,Tarrant County,TX,NA,26.051502145922743,NA
76180,Tarrant County,TX,NA,78.28326180257511,NA
76209,Denton County,TX,NA,89.8283261802575,NA
76247,Denton County,TX,NA,NA,90.40178571428571
76273,Grayson County,TX,NA,64.84978540772532,NA
76302,Wichita County,TX,NA,67.55364806866953,NA
76354,Wichita County,TX,NA,NA,64.11830357142857
76513,Bell County,TX,NA,0.5579399141630901,NA
76528,Coryell County,TX,NA,NA,18.917410714285715
76541,Bell County,TX,NA,NA,64.84375
76542,Bell County,TX,NA,17.253218884120173,NA
76567,Milam County,TX,NA,NA,73.49330357142857
76642,Limestone County,TX,NA,76.137339055794,NA
76661,Falls County,TX,NA,94.07725321888411,NA
76692,Hill County,TX,NA,50.472103004291846,NA
76708,McLennan County,TX,NA,NA,48.158482142857146
76710,McLennan County,TX,NA,NA,60.546875
76901,Tom Green County,TX,NA,75.87982832618026,54.96651785714286
76903,Tom Green County,TX,NA,NA,37.5
76904,Tom Green County,TX,NA,NA,57.75669642857143
77011,Harris County,TX,NA,66.95278969957081,NA
77019,Harris County,TX,NA,NA,80.41294642857143
77023,Harris County,TX,NA,NA,88.671875
77031,Harris County,TX,74.6615087040619,NA,NA
77038,Harris County,TX,NA,NA,98.046875
77039,Harris County,TX,NA,88.75536480686695,NA
77047,Harris County,TX,NA,NA,83.59375
77048,Harris County,TX,NA,71.3304721030043,NA
77051,Harris County,TX,NA,49.18454935622318,NA
77056,Harris County,TX,NA,48.11158798283262,NA
77058,Harris County,TX,NA,75.02145922746782,NA
77070,Harris County,TX,NA,17.682403433476395,NA
77072,Harris County,TX,NA,NA,74.05133928571429
77076,Harris County,TX,89.74854932301741,NA,NA
77077,Harris County,TX,NA,NA,30.301339285714285
77079,Harris County,TX,NA,50.472103004291846,NA
77081,Harris County,TX,NA,90.64377682403433,NA
77082,Harris County,TX,NA,NA,51.171875
77083,Harris County,TX,NA,20.429184549356222,62.22098214285714
77084,Harris County,TX,12.76595744680851,NA,NA
77088,Harris County,TX,30.754352030947775,26.09442060085837,NA
77089,Harris County,TX,NA,25.1931330472103,NA
77093,Harris County,TX,NA,44.377682403433475,NA
77095,Harris County,TX,NA,NA,43.917410714285715
77316,Montgomery County,TX,73.11411992263056,NA,NA
77338,Harris County,TX,NA,51.115879828326186,NA
77340,Walker County,TX,NA,78.02575107296137,NA
77356,Montgomery County,TX,NA,30.17167381974249,43.080357142857146
77371,San Jacinto County,TX,NA,82.70386266094421,NA
77375,Harris County,TX,NA,NA,71.875
77388,Harris County,TX,NA,27.596566523605148,NA
77406,Fort Bend County,TX,NA,22.103004291845494,NA
77469,Fort Bend County,TX,29.206963249516445,27.381974248927037,NA
77477,Fort Bend County,TX,NA,89.31330472103004,NA
77479,Fort Bend County,TX,NA,NA,25
77489,Fort Bend County,TX,NA,58.75536480686695,NA
77498,Fort Bend County,TX,NA,44.50643776824034,NA
77502,Harris County,TX,NA,50.90128755364807,NA
77503,Harris County,TX,76.9825918762089,NA,NA
77505,Harris County,TX,64.02321083172147,NA,NA
77510,Galveston County,TX,NA,NA,48.046875
77511,Brazoria County,TX,NA,8.88412017167382,NA
77530,Harris County,TX,NA,NA,84.59821428571429
77536,Harris County,TX,NA,66.78111587982832,NA
77539,Galveston County,TX,NA,35.5793991416309,NA
77546,Galveston County,TX,NA,NA,78.45982142857143
77550,Galveston County,TX,NA,40.72961373390558,3.7388392857142856
77551,Galveston County,TX,27.852998065764023,NA,NA
77554,Galveston County,TX,NA,84.50643776824035,54.6875
77562,Harris County,TX,NA,NA,77.95758928571429
77571,Harris County,TX,NA,NA,76.22767857142857
77573,Galveston County,TX,NA,39.48497854077253,NA
77581,Brazoria County,TX,NA,15.321888412017168,NA
77587,Harris County,TX,NA,90.04291845493563,NA
77590,Galveston County,TX,60.73500967117988,NA,NA
77657,Hardin County,TX,NA,53.73390557939914,NA
77803,Brazos County,TX,NA,36.00858369098712,NA
77807,Brazos County,TX,NA,NA,92.91294642857143
77859,Robertson County,TX,NA,88.49785407725322,NA
77901,Victoria County,TX,NA,15.450643776824036,NA
77904,Victoria County,TX,NA,78.88412017167383,18.191964285714285
78028,Kerr County,TX,NA,NA,4.241071428571429
78046,Webb County,TX,NA,19.914163090128756,NA
78061,Frio County,TX,NA,NA,88.44866071428571
78065,Atascosa County,TX,NA,88.96995708154506,NA
78070,Comal County,TX,NA,77.12446351931331,NA
78130,Comal County,TX,NA,15.107296137339056,NA
78212,Bexar County,TX,55.705996131528046,NA,NA
78213,Bexar County,TX,NA,82.53218884120172,NA
78214,Bexar County,TX,NA,58.11158798283261,NA
78216,Bexar County,TX,NA,NA,80.91517857142857
78223,Bexar County,TX,NA,58.96995708154507,NA
78224,Bexar County,TX,NA,NA,77.90178571428571
78225,Bexar County,TX,NA,84.72103004291846,NA
78227,Bexar County,TX,NA,44.377682403433475,NA
78228,Bexar County,TX,NA,NA,52.734375
78229,Bexar County,TX,51.06382978723404,NA,NA
78230,Bexar County,TX,NA,79.14163090128756,NA
78231,Bexar County,TX,NA,NA,99.77678571428571
78237,Bexar County,TX,NA,17.03862660944206,NA
78239,Bexar County,TX,60.928433268858804,NA,NA
78245,Bexar County,TX,25.338491295938105,NA,NA
78247,Bexar County,TX,NA,51.20171673819742,67.68973214285714
78260,Bexar County,TX,NA,81.11587982832617,NA
78355,Brooks County,TX,NA,NA,93.359375
78363,Kleberg County,TX,NA,52.27467811158798,NA
78368,San Patricio County,TX,87.62088974854933,NA,NA
78380,Nueces County,TX,NA,NA,82.36607142857143
78411,Nueces County,TX,NA,61.673819742489265,NA
78413,Nueces County,TX,NA,88.15450643776825,NA
78501,Hidalgo County,TX,NA,NA,39.00669642857143
78504,Hidalgo County,TX,39.26499032882012,NA,NA
78516,Hidalgo County,TX,NA,42.188841201716734,NA
78520,Cameron County,TX,NA,74.46351931330472,NA
78521,Cameron County,TX,34.23597678916828,NA,NA
78542,Hidalgo County,TX,NA,21.244635193133046,NA
78543,Hidalgo County,TX,NA,NA,92.46651785714286
78550,Cameron County,TX,NA,NA,58.09151785714286
78572,Hidalgo County,TX,NA,NA,23.660714285714285
78577,Hidalgo County,TX,NA,51.84549356223176,37.16517857142857
78586,Cameron County,TX,NA,38.11158798283262,NA
78589,Hidalgo County,TX,NA,28.798283261802577,NA
78599,Hidalgo County,TX,NA,73.77682403433477,NA
78602,Bastrop County,TX,NA,55.53648068669528,NA
78610,Hays County,TX,NA,65.32188841201717,NA
78629,Gonzales County,TX,NA,64.93562231759657,NA
78633,Williamson County,TX,NA,0.6866952789699571,0
78634,Williamson County,TX,58.6073500967118,NA,NA
78641,Williamson County,TX,NA,45.92274678111588,25.948660714285715
78657,Llano County,TX,NA,NA,79.46428571428571
78664,Williamson County,TX,NA,27.72532188841202,NA
78734,Travis County,TX,NA,61.50214592274678,NA
78738,Travis County,TX,81.23791102514507,NA,NA
78749,Travis County,TX,NA,97.76824034334763,NA
78750,Travis County,TX,NA,71.75965665236052,NA
78752,Travis County,TX,NA,NA,94.30803571428571
78754,Travis County,TX,NA,86.00858369098712,NA
78801,Uvalde County,TX,NA,53.21888412017167,NA
78834,Dimmit County,TX,NA,83.69098712446352,NA
79106,Potter County,TX,NA,30.858369098712444,36.439732142857146
79118,Randall County,TX,NA,76.26609442060087,85.82589285714286
79364,Lubbock County,TX,NA,NA,88.05803571428571
79512,Mitchell County,TX,NA,79.95708154506438,NA
79705,Midland County,TX,NA,26.609442060085836,NA
79707,Midland County,TX,NA,35.751072961373396,NA
79735,Pecos County,TX,NA,NA,81.91964285714286
79763,Ector County,TX,NA,68.58369098712447,NA
79904,El Paso County,TX,NA,NA,61.10491071428571
79912,El Paso County,TX,NA,27.682403433476395,NA
79915,El Paso County,TX,NA,43.51931330472103,42.354910714285715
79928,El Paso County,TX,NA,55.62231759656653,NA
79930,El Paso County,TX,NA,88.28326180257511,NA
79936,El Paso County,TX,NA,13.47639484978541,NA
84009,Salt Lake County,UT,NA,NA,72.54464285714286
84010,Davis County,UT,NA,51.45922746781116,16.796875
84041,Davis County,UT,NA,53.13304721030043,67.74553571428571
84043,Utah County,UT,NA,61.03004291845494,NA
84062,Utah County,UT,NA,NA,98.27008928571429
84065,Salt Lake County,UT,NA,37.467811158798284,NA
84088,Salt Lake County,UT,NA,44.63519313304721,NA
84092,Salt Lake County,UT,NA,71.07296137339056,NA
84094,Salt Lake County,UT,NA,39.57081545064378,NA
84095,Salt Lake County,UT,NA,56.52360515021459,NA
84098,Summit County,UT,NA,NA,78.515625
84103,Salt Lake County,UT,64.79690522243715,63.90557939914163,61.38392857142857
84104,Salt Lake County,UT,NA,NA,82.58928571428571
84106,Salt Lake County,UT,NA,42.96137339055794,53.34821428571429
84107,Salt Lake County,UT,NA,70.64377682403433,76.28348214285714
84108,Salt Lake County,UT,NA,NA,30.02232142857143
84109,Salt Lake County,UT,NA,NA,26.060267857142854
84116,Salt Lake County,UT,NA,25.75107296137339,40.457589285714285
84117,Salt Lake County,UT,NA,84.67811158798283,NA
84118,Salt Lake County,UT,NA,44.592274678111586,NA
84119,Salt Lake County,UT,NA,NA,30.078125
84120,Salt Lake County,UT,NA,NA,86.77455357142857
84123,Salt Lake County,UT,NA,31.201716738197426,40.401785714285715
84124,Salt Lake County,UT,NA,85.15021459227468,92.41071428571429
84128,Salt Lake County,UT,NA,85.49356223175965,NA
84302,Box Elder County,UT,NA,NA,87.27678571428571
84341,Cache County,UT,NA,92.36051502145924,NA
84651,Utah County,UT,NA,72.53218884120172,NA
84770,Washington County,UT,NA,NA,4.631696428571429
05201,Bennington County,VT,NA,NA,29.185267857142854
05346,Windham County,VT,NA,NA,72.93526785714286
05446,Chittenden County,VT,NA,82.87553648068669,57.8125
05478,Franklin County,VT,NA,25.793991416309016,83.203125
05488,Franklin County,VT,NA,NA,73.66071428571429
05495,Chittenden County,VT,NA,56.866952789699575,NA
05602,Washington County,VT,NA,28.583690987124466,NA
05672,Lamoille County,VT,NA,NA,90.01116071428571
05676,Washington County,VT,NA,90,NA
05753,Addison County,VT,89.16827852998065,NA,NA
05855,Orleans County,VT,NA,NA,69.81026785714286
20111,Prince William County,VA,NA,65.06437768240343,NA
20112,Prince William County,VA,NA,72.01716738197425,NA
20147,Loudoun County,VA,NA,77.8969957081545,NA
20152,Loudoun County,VA,NA,84.93562231759657,NA
20176,Loudoun County,VA,47.582205029013544,NA,NA
20191,Fairfax County,VA,NA,59.48497854077254,NA
22031,Fairfax County,VA,NA,NA,65.17857142857143
22032,Fairfax County,VA,NA,NA,63.61607142857143
22079,Fairfax County,VA,NA,83.99141630901288,NA
22102,Fairfax County,VA,NA,NA,91.74107142857143
22150,Fairfax County,VA,52.22437137330754,NA,NA
22152,Fairfax County,VA,NA,NA,30.357142857142854
22182,Fairfax County,VA,64.99032882011605,NA,NA
22201,Arlington County,VA,NA,NA,88.61607142857143
22202,Arlington County,VA,75.04835589941973,NA,NA
22203,Arlington County,VA,NA,NA,64.50892857142857
22204,Arlington County,VA,NA,38.28326180257511,NA
22205,Arlington County,VA,NA,81.58798283261802,NA
22207,Arlington County,VA,51.83752417794971,NA,NA
22301,Alexandria city,VA,71.1798839458414,NA,NA
22304,Alexandria city,VA,NA,61.84549356223176,NA
22306,Fairfax County,VA,NA,NA,61.83035714285714
22406,Stafford County,VA,NA,NA,42.24330357142857
22482,Lancaster County,VA,NA,NA,93.91741071428571
22546,Caroline County,VA,NA,NA,83.09151785714286
22560,Essex County,VA,NA,80.64377682403433,NA
22601,Winchester city,VA,NA,28.369098712446352,NA
22603,Frederick County,VA,85.68665377176016,NA,NA
22734,Fauquier County,VA,NA,99.57081545064378,NA
22801,Harrisonburg city,VA,NA,NA,50.72544642857143
22824,Shenandoah County,VA,NA,NA,74.38616071428571
22901,Albemarle County,VA,NA,20.72961373390558,31.25
22903,Charlottesville city,VA,NA,66.56652360515022,28.404017857142854
22963,Fluvanna County,VA,NA,NA,39.78794642857143
22968,Greene County,VA,NA,NA,79.12946428571429
22980,Waynesboro city,VA,NA,NA,1.8415178571428572
23059,Henrico County,VA,NA,60.08583690987125,NA
23111,Hanover County,VA,NA,NA,13.225446428571427
23139,Powhatan County,VA,NA,NA,40.29017857142857
23185,James City County,VA,NA,NA,0.390625
23224,Richmond city,VA,11.992263056092844,NA,NA
23226,Richmond city,VA,NA,NA,82.64508928571429
23236,Chesterfield County,VA,NA,37.98283261802575,NA
23237,Chesterfield County,VA,NA,51.50214592274678,NA
23238,Henrico County,VA,NA,52.87553648068669,NA
23320,Chesapeake city,VA,NA,NA,32.589285714285715
23435,Suffolk city,VA,NA,62.78969957081545,NA
23451,Virginia Beach city,VA,NA,10.815450643776824,NA
23452,Virginia Beach city,VA,23.404255319148938,NA,NA
23454,Virginia Beach city,VA,NA,7.639484978540772,NA
23464,Virginia Beach city,VA,NA,1.9742489270386268,NA
23509,Norfolk city,VA,41.77949709864603,NA,NA
23602,Newport News city,VA,NA,20.987124463519315,NA
23831,Chesterfield County,VA,NA,23.69098712446352,36.941964285714285
23838,Chesterfield County,VA,NA,66.39484978540773,NA
23924,Mecklenburg County,VA,NA,NA,82.64508928571429
23927,Mecklenburg County,VA,NA,NA,84.98883928571429
23970,Mecklenburg County,VA,NA,97.08154506437768,NA
24141,Radford city,VA,NA,72.1030042918455,NA
24201,Bristol city,VA,44.48742746615087,NA,NA
24244,Scott County,VA,NA,NA,85.77008928571429
24279,Wise County,VA,NA,87.76824034334764,NA
24293,Wise County,VA,NA,NA,86.38392857142857
24301,Pulaski County,VA,NA,NA,67.07589285714286
24502,Lynchburg city,VA,NA,37.85407725321888,NA
24503,Lynchburg city,VA,NA,54.0343347639485,NA
24541,Danville city,VA,NA,NA,31.529017857142854
24551,Bedford County,VA,NA,90.81545064377683,NA
24590,Albemarle County,VA,NA,NA,98.88392857142857
24605,Tazewell County,VA,NA,NA,70.36830357142857
98008,King County,WA,NA,NA,60.49107142857143
98011,King County,WA,NA,65.4077253218884,NA
98012,Snohomish County,WA,NA,20.515021459227466,NA
98020,Snohomish County,WA,NA,NA,60.32366071428571
98028,King County,WA,NA,57.42489270386266,NA
98029,King County,WA,NA,54.93562231759657,83.81696428571429
98033,King County,WA,NA,NA,20.703125
98036,Snohomish County,WA,NA,NA,28.738839285714285
98042,King County,WA,17.60154738878143,NA,NA
98053,King County,WA,NA,30.55793991416309,41.40625
98055,King County,WA,NA,61.28755364806867,NA
98075,King County,WA,NA,67.63948497854078,NA
98077,King County,WA,NA,73.6480686695279,NA
98087,Snohomish County,WA,NA,42.01716738197425,96.59598214285714
98092,King County,WA,NA,12.789699570815449,NA
98109,King County,WA,NA,NA,79.01785714285714
98115,King County,WA,37.524177949709866,86.69527896995707,56.47321428571429
98118,King County,WA,NA,62.57510729613735,NA
98122,King County,WA,NA,33.776824034334766,NA
98133,King County,WA,NA,14.763948497854077,7.533482142857142
98146,King County,WA,NA,60.68669527896996,NA
98155,King County,WA,NA,NA,34.151785714285715
98198,King County,WA,NA,NA,17.1875
98208,Snohomish County,WA,NA,20.171673819742487,NA
98239,Island County,WA,NA,NA,80.69196428571429
98250,San Juan County,WA,NA,69.05579399141631,NA
98264,Whatcom County,WA,NA,63.73390557939914,NA
98272,Snohomish County,WA,NA,NA,55.24553571428571
98273,Skagit County,WA,NA,NA,31.138392857142854
98274,Skagit County,WA,NA,33.69098712446352,NA
98290,Snohomish County,WA,41.97292069632495,NA,NA
98296,Snohomish County,WA,74.08123791102514,NA,NA
98310,Kitsap County,WA,NA,NA,35.546875
98367,Kitsap County,WA,NA,39.35622317596567,NA
98370,Kitsap County,WA,NA,NA,46.875
98584,Mason County,WA,NA,47.21030042918455,23.046875
98661,Clark County,WA,77.75628626692456,NA,NA
98801,Chelan County,WA,NA,4.763948497854077,88.83928571428571
98802,Douglas County,WA,NA,NA,66.74107142857143
98815,Chelan County,WA,NA,93.77682403433477,NA
98823,Grant County,WA,NA,NA,97.15401785714286
98826,Chelan County,WA,NA,68.068669527897,NA
98901,Yakima County,WA,NA,38.88412017167382,NA
98902,Yakima County,WA,NA,NA,9.877232142857142
99027,Spokane County,WA,NA,98.15450643776825,NA
99114,Stevens County,WA,NA,NA,46.986607142857146
99206,Spokane County,WA,NA,53.047210300429185,NA
99208,Spokane County,WA,NA,20.987124463519315,NA
99212,Spokane County,WA,NA,NA,68.13616071428571
99216,Spokane County,WA,NA,90.04291845493563,NA
99217,Spokane County,WA,NA,NA,70.92633928571429
99336,Benton County,WA,NA,10.72961373390558,NA
99344,Adams County,WA,NA,NA,83.31473214285714
20001,District of Columbia,DC,NA,42.188841201716734,NA
20012,District of Columbia,DC,NA,NA,70.3125
20017,District of Columbia,DC,NA,92.23175965665236,NA
20019,District of Columbia,DC,NA,3.1759656652360517,6.529017857142858
24701,Mercer County,WV,NA,21.587982832618025,23.604910714285715
24740,Mercer County,WV,NA,NA,85.88169642857143
24901,Greenbrier County,WV,NA,NA,69.58705357142857
25064,Kanawha County,WV,NA,NA,43.470982142857146
25313,Kanawha County,WV,NA,42.96137339055794,NA
25411,Morgan County,WV,74.85493230174082,NA,NA
25514,Wayne County,WV,NA,99.52789699570815,NA
25570,Wayne County,WV,NA,85.06437768240343,NA
25701,Cabell County,WV,NA,42.78969957081545,54.52008928571429
25705,Cabell County,WV,NA,14.892703862660944,83.53794642857143
26062,Hancock County,WV,NA,NA,7.03125
26101,Wood County,WV,25.53191489361702,24.334763948497855,NA
26241,Randolph County,WV,NA,17.811158798283262,NA
26301,Harrison County,WV,NA,NA,49.330357142857146
26505,Monongalia County,WV,10.831721470019342,NA,NA
26508,Monongalia County,WV,NA,3.3905579399141628,NA
26537,Preston County,WV,NA,53.4763948497854,NA
26554,Marion County,WV,NA,NA,15.848214285714285
53005,Waukesha County,WI,NA,NA,39.453125
53024,Ozaukee County,WI,NA,48.58369098712446,NA
53029,Waukesha County,WI,NA,NA,46.651785714285715
53045,Waukesha County,WI,NA,72.3175965665236,NA
53066,Waukesha County,WI,NA,NA,49.497767857142854
97003,NA,NA,NA,NA,82.53348214285714
53081,Sheboygan County,WI,NA,51.63090128755364,16.573660714285715
53089,Waukesha County,WI,NA,87.72532188841203,NA
53092,Ozaukee County,WI,NA,81.71673819742489,NA
53094,Jefferson County,WI,NA,NA,56.41741071428571
53097,Ozaukee County,WI,NA,NA,58.203125
53098,Dodge County,WI,NA,NA,75.16741071428571
53110,Milwaukee County,WI,NA,24.763948497854077,NA
53121,Walworth County,WI,NA,NA,74.77678571428571
53129,Milwaukee County,WI,NA,58.62660944206009,NA
53130,Milwaukee County,WI,NA,NA,63.95089285714286
53140,Kenosha County,WI,NA,17.296137339055797,NA
53142,Kenosha County,WI,NA,NA,79.63169642857143
53150,Waukesha County,WI,NA,65.10729613733905,NA
53151,Waukesha County,WI,40.03868471953578,NA,63.00223214285714
53154,Milwaukee County,WI,NA,7.339055793991417,NA
53172,Milwaukee County,WI,37.33075435203095,NA,25.33482142857143
53188,Waukesha County,WI,NA,NA,57.421875
53189,Waukesha County,WI,NA,92.57510729613733,NA
53204,Milwaukee County,WI,NA,63.90557939914163,NA
53207,Milwaukee County,WI,NA,NA,20.145089285714285
53209,Milwaukee County,WI,2.9013539651837523,NA,NA
53210,Milwaukee County,WI,NA,13.390557939914164,NA
53211,Milwaukee County,WI,NA,NA,6.640625
53213,Milwaukee County,WI,NA,23.17596566523605,38.560267857142854
53214,Milwaukee County,WI,NA,NA,18.024553571428573
53215,Milwaukee County,WI,NA,18.583690987124463,5.915178571428571
53217,Milwaukee County,WI,NA,54.89270386266094,NA
53218,Milwaukee County,WI,7.930367504835589,NA,NA
53221,Milwaukee County,WI,NA,NA,8.203125
53222,Milwaukee County,WI,NA,64.4206008583691,93.80580357142857
53223,Milwaukee County,WI,NA,7.124463519313305,39.50892857142857
53224,Milwaukee County,WI,NA,NA,46.707589285714285
53225,Milwaukee County,WI,NA,65.53648068669527,NA
53226,Milwaukee County,WI,NA,25.407725321888414,33.92857142857143
53227,Milwaukee County,WI,NA,NA,46.261160714285715
53228,Milwaukee County,WI,NA,NA,33.091517857142854
53511,Rock County,WI,NA,12.317596566523605,22.991071428571427
53520,Green County,WI,NA,77.03862660944206,NA
53523,Dane County,WI,NA,NA,67.29910714285714
53528,Dane County,WI,NA,81.50214592274678,NA
53530,Lafayette County,WI,98.45261121856866,NA,NA
53533,Iowa County,WI,NA,NA,98.38169642857143
53534,Rock County,WI,NA,45.87982832618025,NA
53536,Rock County,WI,NA,81.11587982832617,NA
53538,Jefferson County,WI,NA,NA,74.10714285714286
53545,Rock County,WI,NA,47.25321888412017,44.810267857142854
53546,Rock County,WI,NA,2.6609442060085837,62.38839285714286
53548,Rock County,WI,NA,NA,20.368303571428573
53551,Jefferson County,WI,NA,70.3862660944206,NA
53558,Dane County,WI,NA,NA,95.42410714285714
53563,Rock County,WI,NA,NA,83.70535714285714
53566,Green County,WI,NA,NA,36.77455357142857
53572,Dane County,WI,NA,68.8412017167382,NA
53581,Richland County,WI,NA,75.5793991416309,87.38839285714286
53594,Jefferson County,WI,NA,95.708154506437765,NA
53705,Dane County,WI,NA,NA,58.76116071428571
53713,Dane County,WI,NA,79.48497854077253,NA
53714,Dane County,WI,NA,75.62231759656652,NA
53717,Dane County,WI,NA,NA,95.47991071428571
53719,Dane County,WI,NA,33.347639484978544,NA
53813,Grant County,WI,NA,97.63948497854076,NA
53818,Grant County,WI,76.40232108317214,95.15021459227468,NA
53901,Columbia County,WI,NA,NA,39.620535714285715
53949,Marquette County,WI,NA,NA,94.36383928571429
54024,Polk County,WI,NA,NA,97.54464285714286
54304,Brown County,WI,23.017408123791103,NA,NA
54311,Brown County,WI,NA,NA,15.959821428571427
54481,Portage County,WI,NA,NA,5.245535714285714
54482,Portage County,WI,NA,NA,48.939732142857146
54501,Oneida County,WI,48.35589941972921,NA,11.886160714285714
54601,La Crosse County,WI,NA,0.6437768240343348,8.872767857142858
54603,La Crosse County,WI,NA,17.510729613733904,NA
54630,Trempealeau County,WI,NA,NA,75.55803571428571
54650,La Crosse County,WI,NA,5.3218884120171674,37.332589285714285
54656,Monroe County,WI,NA,30.60085836909871,13.950892857142858
54669,La Crosse County,WI,NA,91.3304721030043,61.66294642857143
54701,Eau Claire County,WI,NA,NA,28.236607142857146
54703,Eau Claire County,WI,NA,NA,28.627232142857146
54728,Barron County,WI,NA,82.01716738197426,NA
54729,Chippewa County,WI,NA,NA,20.870535714285715
54730,Dunn County,WI,NA,NA,77.51116071428571
54812,Barron County,WI,NA,NA,75
54830,Burnett County,WI,NA,NA,99.609375
54837,Polk County,WI,NA,NA,81.25
54853,Polk County,WI,NA,NA,75.72544642857143
54880,Douglas County,WI,NA,17.339055793991417,95.08928571428571
54901,Winnebago County,WI,NA,82.96137339055794,NA
54911,Outagamie County,WI,39.65183752417795,NA,NA
54915,Outagamie County,WI,NA,NA,48.38169642857143
82401,Washakie County,WY,NA,91.11587982832619,NA
82414,Park County,WY,NA,NA,67.35491071428571
82601,Natrona County,WY,NA,67.33905579399142,NA
82716,Campbell County,WY,NA,NA,96.76339285714286
