ZipCode,county,state,Youth,Adult,Retirement,Geriatric
35031,Blount County,AL,NA,85.40145985401459,NA,NA
35044,Talladega County,AL,NA,80.2919708029197,NA,NA
35216,Jefferson County,AL,63.44086021505376,NA,NA,NA
35243,Jefferson County,AL,NA,NA,NA,54.6242774566474
35490,Tuscaloosa County,AL,NA,93.97810218978103,NA,NA
35633,Lauderdale County,AL,NA,50.72992700729927,NA,NA
35674,Colbert County,AL,58.06451612903226,NA,NA,NA
35749,Madison County,AL,48.924731182795696,NA,NA,NA
35756,Limestone County,AL,NA,68.97810218978103,NA,NA
35952,Etowah County,AL,NA,NA,NA,75.14450867052022
35953,St. Clair County,AL,NA,66.6058394160584,NA,NA
35959,Cherokee County,AL,NA,NA,NA,94.79768786127167
35961,DeKalb County,AL,NA,91.970802919708035,NA,NA
36079,Pike County,AL,NA,96.53284671532847,NA,NA
36106,Montgomery County,AL,NA,NA,78.15533980582524,NA
36116,Montgomery County,AL,NA,17.153284671532848,NA,NA
36117,Montgomery County,AL,NA,29.744525547445257,NA,21.38728323699422
36203,Calhoun County,AL,NA,69.16058394160584,NA,NA
36207,Calhoun County,AL,NA,NA,85.67961165048543,95.95375722543352
36305,Houston County,AL,NA,NA,NA,63.005780346820806
36360,Dale County,AL,NA,NA,41.50485436893204,NA
36467,Covington County,AL,NA,64.05109489051095,NA,NA
36535,Baldwin County,AL,NA,NA,25.970873786407765,NA
36603,Mobile County,AL,NA,NA,NA,80.63583815028902
36604,Mobile County,AL,NA,NA,89.32038834951457,NA
36618,Mobile County,AL,NA,63.503649635036496,NA,NA
99508,Anchorage Municipality,AK,NA,14.78102189781022,NA,NA
85016,Maricopa County,AZ,NA,39.78102189781022,NA,NA
85020,Maricopa County,AZ,NA,NA,37.13592233009709,NA
85023,Maricopa County,AZ,53.2258064516129,NA,NA,NA
85041,Maricopa County,AZ,NA,NA,NA,58.67052023121387
85140,Pinal County,AZ,NA,NA,47.57281553398058,NA
85201,Maricopa County,AZ,NA,12.59124087591241,NA,NA
85208,Maricopa County,AZ,NA,NA,NA,26.011560693641616
85249,Maricopa County,AZ,NA,NA,41.019417475728154,NA
85250,Maricopa County,AZ,NA,NA,NA,81.5028901734104
85256,Maricopa County,AZ,NA,NA,93.68932038834951,NA
85260,Maricopa County,AZ,NA,79.37956204379562,NA,55.202312138728324
85283,Maricopa County,AZ,NA,NA,30.097087378640776,NA
85345,Maricopa County,AZ,NA,NA,13.349514563106796,NA
85364,Yuma County,AZ,NA,NA,NA,67.34104046242774
85614,Pima County,AZ,NA,NA,23.54368932038835,NA
85616,Cochise County,AZ,NA,NA,93.44660194174757,NA
85635,Cochise County,AZ,NA,85.03649635036497,NA,77.45664739884393
85701,Pima County,AZ,NA,NA,NA,97.6878612716763
85706,Pima County,AZ,0,NA,NA,NA
85713,Pima County,AZ,NA,NA,NA,53.75722543352601
85719,Pima County,AZ,NA,NA,41.74757281553398,NA
85746,Pima County,AZ,NA,11.861313868613138,NA,NA
86047,Navajo County,AZ,NA,30.83941605839416,NA,NA
86503,Apache County,AZ,26.344086021505376,NA,NA,NA
71603,Jefferson County,AR,NA,NA,26.699029126213592,NA
72404,Craighead County,AR,NA,NA,97.0873786407767,NA
72455,Randolph County,AR,90.32258064516128,NA,NA,NA
72653,Baxter County,AR,NA,NA,NA,10.115606936416185
72753,Washington County,AR,98.38709677419355,NA,NA,NA
90011,Los Angeles County,CA,NA,20.437956204379564,NA,NA
90012,Los Angeles County,CA,NA,NA,NA,34.104046242774565
90019,Los Angeles County,CA,NA,NA,30.8252427184466,NA
90023,Los Angeles County,CA,NA,NA,NA,63.29479768786127
90034,Los Angeles County,CA,NA,NA,93.20388349514563,37.283236994219656
90043,Los Angeles County,CA,61.82795698924731,42.153284671532845,NA,NA
90230,Los Angeles County,CA,NA,92.51824817518248,NA,NA
90255,Los Angeles County,CA,NA,NA,63.3495145631068,NA
90262,Los Angeles County,CA,83.33333333333334,NA,NA,NA
90275,Los Angeles County,CA,NA,84.85401459854015,NA,NA
90501,Los Angeles County,CA,NA,NA,NA,45.95375722543353
90606,Los Angeles County,CA,NA,NA,NA,73.121387283237
90631,Orange County,CA,NA,NA,19.902912621359224,NA
90660,Los Angeles County,CA,42.473118279569896,NA,39.32038834951456,NA
90706,Los Angeles County,CA,43.01075268817204,NA,NA,NA
90802,Los Angeles County,CA,94.08602150537635,NA,NA,NA
91320,Ventura County,CA,NA,NA,NA,45.3757225433526
91321,Los Angeles County,CA,56.98924731182796,NA,65.53398058252428,41.61849710982659
91325,Los Angeles County,CA,NA,68.06569343065694,NA,NA
91342,Los Angeles County,CA,NA,16.423357664233578,NA,NA
91344,Los Angeles County,CA,NA,NA,62.86407766990292,53.179190751445084
91355,Los Angeles County,CA,NA,NA,53.883495145631066,NA
91402,Los Angeles County,CA,NA,NA,NA,31.79190751445087
91505,Los Angeles County,CA,NA,NA,NA,66.76300578034682
91744,Los Angeles County,CA,NA,14.963503649635038,NA,NA
91750,Los Angeles County,CA,NA,NA,NA,33.52601156069364
91761,San Bernardino County,CA,NA,64.78102189781022,NA,NA
91767,Los Angeles County,CA,NA,36.67883211678832,NA,NA
91776,Los Angeles County,CA,NA,NA,92.23300970873787,NA
91784,San Bernardino County,CA,NA,NA,NA,39.30635838150289
91911,San Diego County,CA,NA,NA,NA,8.092485549132949
91950,San Diego County,CA,NA,NA,NA,15.606936416184972
92028,San Diego County,CA,NA,NA,NA,43.641618497109825
92037,San Diego County,CA,NA,NA,54.36893203883495,24.277456647398843
92071,San Diego County,CA,NA,52.737226277372265,NA,NA
92113,San Diego County,CA,51.075268817204304,NA,NA,NA
92126,San Diego County,CA,NA,41.605839416058394,NA,NA
92254,Riverside County,CA,NA,NA,98.05825242718447,NA
92335,San Bernardino County,CA,NA,9.48905109489051,NA,NA
92345,San Bernardino County,CA,NA,NA,17.718446601941746,NA
92346,San Bernardino County,CA,NA,NA,48.54368932038835,NA
92376,San Bernardino County,CA,NA,8.75912408759124,NA,NA
92395,San Bernardino County,CA,NA,23.175182481751825,NA,NA
92509,Riverside County,CA,NA,18.613138686131386,NA,NA
92548,Riverside County,CA,NA,NA,92.96116504854369,NA
92626,Orange County,CA,NA,39.05109489051095,NA,NA
92655,Orange County,CA,NA,NA,NA,87.57225433526011
92677,Orange County,CA,NA,NA,NA,22.832369942196532
92683,Orange County,CA,NA,NA,NA,4.913294797687861
92802,Orange County,CA,NA,NA,NA,40.7514450867052
92805,Orange County,CA,NA,21.897810218978105,45.87378640776699,NA
92806,Orange County,CA,NA,NA,NA,42.77456647398844
92835,Orange County,CA,NA,NA,NA,22.54335260115607
92843,Orange County,CA,NA,89.59854014598541,NA,NA
93004,Ventura County,CA,NA,88.5036496350365,NA,NA
93012,Ventura County,CA,NA,NA,NA,29.190751445086704
93204,Kings County,CA,NA,NA,98.30097087378641,NA
93268,Kern County,CA,NA,87.59124087591242,NA,NA
93306,Kern County,CA,NA,NA,95.63106796116504,NA
93308,Kern County,CA,NA,90.69343065693431,NA,NA
93309,Kern County,CA,91.93548387096774,NA,NA,NA
93436,Santa Barbara County,CA,NA,NA,NA,13.005780346820808
93444,San Luis Obispo County,CA,NA,NA,NA,58.38150289017341
93552,Los Angeles County,CA,NA,NA,77.18446601941747,NA
93561,Kern County,CA,NA,NA,NA,57.80346820809249
93631,Fresno County,CA,NA,64.59854014598541,NA,NA
93702,Fresno County,CA,NA,24.45255474452555,NA,NA
93703,Fresno County,CA,NA,NA,61.6504854368932,NA
93704,Fresno County,CA,NA,69.52554744525547,NA,NA
93706,Fresno County,CA,NA,18.248175182481752,NA,NA
93722,Fresno County,CA,NA,NA,NA,36.99421965317919
94019,San Mateo County,CA,NA,93.61313868613139,NA,52.312138728323696
94087,Santa Clara County,CA,NA,NA,NA,92.1965317919075
94112,San Francisco County,CA,NA,NA,NA,71.09826589595376
94122,San Francisco County,CA,NA,89.78102189781022,NA,NA
94303,San Mateo County,CA,NA,NA,NA,27.45664739884393
94560,Alameda County,CA,NA,NA,97.57281553398059,NA
94561,Contra Costa County,CA,NA,NA,NA,49.13294797687861
94565,Contra Costa County,CA,NA,49.45255474452554,NA,NA
94568,Alameda County,CA,36.55913978494624,NA,NA,NA
94577,Alameda County,CA,NA,32.299270072992705,83.98058252427184,NA
94587,Alameda County,CA,NA,NA,26.941747572815533,NA
94597,Contra Costa County,CA,NA,63.32116788321168,NA,NA
94618,Alameda County,CA,NA,77.37226277372264,NA,NA
94702,Alameda County,CA,NA,56.75182481751825,NA,NA
94941,Marin County,CA,NA,NA,74.51456310679612,NA
94947,Marin County,CA,NA,NA,51.213592233009706,NA
94954,Sonoma County,CA,NA,NA,NA,32.65895953757225
95023,San Benito County,CA,NA,23.722627737226276,NA,NA
95046,Santa Clara County,CA,NA,NA,94.90291262135922,NA
95050,Santa Clara County,CA,NA,NA,84.9514563106796,NA
95070,Santa Clara County,CA,NA,NA,NA,87.861271676300575
95128,Santa Clara County,CA,NA,72.08029197080292,NA,NA
95135,Santa Clara County,CA,NA,NA,76.69902912621359,NA
95222,Calaveras County,CA,NA,NA,92.47572815533981,NA
95322,Merced County,CA,NA,NA,97.81553398058253,NA
95350,Stanislaus County,CA,NA,45.43795620437956,NA,NA
95351,Stanislaus County,CA,NA,62.59124087591241,NA,NA
95354,Stanislaus County,CA,18.27956989247312,29.56204379562044,59.46601941747572,NA
95356,Stanislaus County,CA,NA,98.54014598540147,NA,NA
95370,Tuolumne County,CA,NA,NA,4.854368932038835,NA
95409,Sonoma County,CA,NA,74.27007299270073,NA,NA
95437,Mendocino County,CA,NA,NA,44.90291262135923,NA
95490,Mendocino County,CA,NA,85.76642335766424,NA,NA
95603,Placer County,CA,NA,59.12408759124088,NA,NA
95608,Sacramento County,CA,NA,83.21167883211679,NA,NA
95616,Yolo County,CA,NA,NA,67.47572815533981,NA
95630,Sacramento County,CA,NA,NA,NA,24.85549132947977
95632,Sacramento County,CA,NA,74.81751824817519,NA,NA
95661,Placer County,CA,NA,79.74452554744525,NA,NA
95687,Solano County,CA,NA,NA,26.45631067961165,NA
95691,Yolo County,CA,NA,47.262773722627735,NA,NA
95709,El Dorado County,CA,96.23655913978494,NA,NA,NA
95820,Sacramento County,CA,NA,46.167883211678834,NA,NA
95825,Sacramento County,CA,NA,NA,66.2621359223301,82.65895953757226
95826,Sacramento County,CA,NA,NA,58.252427184466015,NA
95835,Sacramento County,CA,NA,59.306569343065696,NA,NA
96001,Shasta County,CA,NA,17.335766423357665,NA,NA
96013,Shasta County,CA,NA,NA,80.58252427184466,NA
80004,Jefferson County,CO,NA,51.64233576642335,NA,NA
80005,Jefferson County,CO,NA,72.99270072992701,NA,NA
80010,Arapahoe County,CO,67.20430107526882,NA,NA,NA
80012,Arapahoe County,CO,NA,10.401459854014599,NA,NA
80120,Arapahoe County,CO,NA,56.20437956204379,NA,NA
80127,Jefferson County,CO,NA,43.43065693430657,51.94174757281553,NA
80202,Denver County,CO,NA,NA,NA,82.08092485549133
80205,Denver County,CO,NA,12.043795620437956,36.89320388349515,NA
80210,Denver County,CO,NA,NA,57.03883495145631,NA
80214,Jefferson County,CO,32.795698924731184,NA,NA,NA
80219,Denver County,CO,17.20430107526882,38.86861313868613,NA,NA
80226,Jefferson County,CO,NA,44.16058394160584,NA,NA
80301,Boulder County,CO,NA,73.54014598540147,NA,NA
80305,Boulder County,CO,NA,89.96350364963503,NA,NA
80439,Jefferson County,CO,NA,NA,54.12621359223301,NA
80524,Larimer County,CO,25.806451612903224,NA,NA,NA
80537,Larimer County,CO,NA,NA,17.96116504854369,NA
80817,El Paso County,CO,NA,70.62043795620438,NA,NA
80863,Teller County,CO,NA,NA,NA,96.82080924855492
80921,El Paso County,CO,NA,76.09489051094891,NA,69.36416184971098
81401,Montrose County,CO,NA,79.92700729927007,NA,NA
81504,Mesa County,CO,NA,NA,57.76699029126213,NA
06010,Hartford County,CT,NA,NA,3.3980582524271843,NA
06033,Hartford County,CT,NA,98.17518248175182,NA,NA
06035,Hartford County,CT,NA,NA,NA,85.26011560693641
06051,Hartford County,CT,NA,NA,22.0873786407767,NA
06112,Hartford County,CT,NA,13.86861313868613,NA,NA
06280,Windham County,CT,NA,NA,98.54368932038835,NA
06403,New Haven County,CT,NA,NA,87.13592233009709,NA
06437,New Haven County,CT,NA,56.56934306569343,NA,NA
06460,New Haven County,CT,NA,NA,18.446601941747574,NA
06477,New Haven County,CT,NA,NA,75.97087378640776,NA
06483,New Haven County,CT,NA,NA,NA,85.54913294797689
06489,Hartford County,CT,NA,NA,20.631067961165048,NA
06498,Middlesex County,CT,NA,NA,94.1747572815534,NA
06512,New Haven County,CT,NA,NA,61.165048543689316,NA
06515,New Haven County,CT,91.39784946236558,NA,NA,39.59537572254335
06516,New Haven County,CT,NA,7.2992700729927,NA,NA
06518,New Haven County,CT,NA,96.71532846715328,NA,64.45086705202311
06762,New Haven County,CT,NA,99.45255474452554,NA,NA
06776,Litchfield County,CT,NA,24.27007299270073,NA,NA
06779,Litchfield County,CT,NA,79.56204379562044,NA,NA
06787,Litchfield County,CT,NA,NA,79.85436893203884,NA
06810,Fairfield County,CT,NA,13.686131386861314,NA,NA
19808,New Castle County,DE,30.107526881720432,NA,NA,NA
19939,Sussex County,DE,NA,NA,NA,93.0635838150289
19958,Sussex County,DE,NA,30.474452554744524,NA,10.982658959537572
32065,Clay County,FL,NA,76.45985401459853,NA,NA
32117,Volusia County,FL,NA,29.927007299270077,NA,NA
32132,Volusia County,FL,NA,NA,NA,80.92485549132948
32159,Lake County,FL,NA,NA,27.9126213592233,NA
32169,Volusia County,FL,NA,NA,NA,54.91329479768786
32189,Putnam County,FL,NA,NA,NA,68.4971098265896
32204,Duval County,FL,NA,79.01459854014598,NA,NA
32209,Duval County,FL,NA,4.37956204379562,NA,NA
32413,Bay County,FL,NA,65.69343065693431,NA,NA
32506,Escambia County,FL,NA,NA,NA,13.583815028901732
32566,Santa Rosa County,FL,41.39784946236559,31.386861313868614,NA,NA
32570,Santa Rosa County,FL,NA,9.854014598540147,NA,NA
32583,Santa Rosa County,FL,NA,NA,NA,40.17341040462428
32601,Alachua County,FL,NA,90.51094890510949,NA,NA
32605,Alachua County,FL,NA,NA,NA,24.566473988439306
32615,Alachua County,FL,21.50537634408602,NA,NA,NA
32708,Seminole County,FL,NA,94.7080291970803,NA,NA
32805,Orange County,FL,NA,29.1970802919708,NA,NA
32833,Orange County,FL,NA,87.77372262773723,NA,NA
32935,Brevard County,FL,NA,NA,NA,23.410404624277454
32953,Brevard County,FL,NA,NA,NA,16.473988439306357
33010,Miami-Dade County,FL,NA,NA,44.1747572815534,NA
33013,Miami-Dade County,FL,NA,93.43065693430657,NA,NA
33016,Miami-Dade County,FL,NA,49.81751824817518,NA,NA
33026,Broward County,FL,NA,74.27007299270073,NA,NA
33040,Monroe County,FL,NA,40.51094890510949,NA,NA
33064,Broward County,FL,27.956989247311824,NA,NA,NA
33127,Miami-Dade County,FL,NA,NA,67.23300970873787,NA
33129,Miami-Dade County,FL,NA,NA,NA,71.38728323699422
33140,Miami-Dade County,FL,NA,NA,NA,23.699421965317917
33142,Miami-Dade County,FL,NA,15.145985401459855,NA,NA
33177,Miami-Dade County,FL,NA,40.32846715328467,NA,NA
33187,Miami-Dade County,FL,NA,71.71532846715328,NA,NA
33308,Broward County,FL,NA,NA,91.50485436893204,NA
33328,Broward County,FL,NA,72.8102189781022,79.36893203883496,NA
33415,Palm Beach County,FL,NA,NA,NA,50
33435,Palm Beach County,FL,NA,43.06569343065693,58.495145631067956,NA
33436,Palm Beach County,FL,NA,51.45985401459854,NA,NA
33437,Palm Beach County,FL,NA,NA,NA,1.1560693641618496
33449,Palm Beach County,FL,NA,95.25547445255475,NA,NA
33473,Palm Beach County,FL,NA,NA,NA,86.41618497109826
33486,Palm Beach County,FL,NA,NA,53.398058252427184,NA
33523,Pasco County,FL,NA,81.75182481751825,NA,NA
33584,Hillsborough County,FL,NA,50.36496350364964,NA,NA
33602,Hillsborough County,FL,NA,NA,82.03883495145631,NA
33762,Pinellas County,FL,NA,93.7956204379562,NA,NA
33765,Pinellas County,FL,NA,NA,NA,75.43352601156069
33778,Pinellas County,FL,NA,77.55474452554745,NA,69.65317919075144
33781,Pinellas County,FL,52.1505376344086,NA,NA,39.017341040462426
33801,Polk County,FL,NA,NA,91.2621359223301,NA
33905,Lee County,FL,NA,82.11678832116789,NA,NA
33908,Lee County,FL,NA,NA,NA,25.722543352601157
33914,Lee County,FL,NA,NA,NA,21.67630057803468
33936,Lee County,FL,NA,NA,NA,44.797687861271676
33950,Charlotte County,FL,96.7741935483871,NA,NA,NA
33952,Charlotte County,FL,NA,52.55474452554745,NA,NA
33983,Charlotte County,FL,NA,NA,NA,57.22543352601156
34120,Collier County,FL,NA,NA,NA,82.08092485549133
34232,Sarasota County,FL,NA,86.13138686131386,NA,NA
34235,Sarasota County,FL,NA,NA,NA,36.41618497109826
34446,Citrus County,FL,NA,NA,60.922330097087375,NA
34613,Hernando County,FL,NA,NA,36.407766990291265,NA
34711,Lake County,FL,NA,NA,5.582524271844661,NA
34741,Osceola County,FL,NA,NA,NA,60.115606936416185
34747,Osceola County,FL,NA,NA,60.679611650485434,NA
34983,St. Lucie County,FL,NA,NA,NA,31.502890173410403
34994,Martin County,FL,NA,NA,51.213592233009706,NA
30025,Walton County,GA,NA,86.13138686131386,NA,NA
30030,DeKalb County,GA,NA,78.46715328467153,NA,45.08670520231214
30038,DeKalb County,GA,NA,NA,51.213592233009706,NA
30062,Cobb County,GA,NA,NA,18.203883495145632,NA
30066,Cobb County,GA,NA,43.79562043795621,NA,NA
30075,Fulton County,GA,NA,NA,57.52427184466019,NA
30103,Bartow County,GA,NA,61.131386861313864,NA,NA
30126,Cobb County,GA,NA,65.14598540145985,NA,NA
30127,Cobb County,GA,69.89247311827957,NA,NA,NA
30132,Paulding County,GA,NA,29.37956204379562,NA,NA
30157,Paulding County,GA,NA,22.62773722627737,NA,NA
30180,Carroll County,GA,NA,NA,NA,65.89595375722543
30187,Douglas County,GA,NA,86.86131386861314,NA,NA
30253,Henry County,GA,NA,53.284671532846716,NA,NA
30265,Coweta County,GA,NA,46.53284671532847,NA,NA
30277,Coweta County,GA,NA,64.96350364963503,NA,NA
30296,Clayton County,GA,NA,NA,NA,79.76878612716763
30305,Fulton County,GA,NA,NA,91.01941747572816,NA
30311,Fulton County,GA,NA,NA,58.98058252427184,NA
30349,Fulton County,GA,NA,NA,13.106796116504855,NA
30360,DeKalb County,GA,NA,99.81751824817519,NA,NA
30458,Bulloch County,GA,NA,58.21167883211679,NA,NA
30540,Gilmer County,GA,55.376344086021504,NA,NA,NA
30606,Clarke County,GA,NA,35.03649635036496,NA,NA
30633,Madison County,GA,NA,78.1021897810219,NA,NA
30705,Murray County,GA,NA,NA,NA,60.982658959537574
30721,Whitfield County,GA,NA,NA,48.05825242718447,NA
30736,Catoosa County,GA,NA,10.583941605839415,NA,NA
30809,Columbia County,GA,NA,32.11678832116788,NA,NA
30904,Richmond County,GA,NA,58.75912408759124,NA,NA
30907,Columbia County,GA,NA,72.62773722627736,NA,NA
31021,Laurens County,GA,NA,35.76642335766424,NA,NA
31029,Monroe County,GA,82.79569892473118,NA,NA,NA
31030,Peach County,GA,NA,67.33576642335767,NA,NA
31210,Bibb County,GA,NA,75.36496350364963,NA,NA
31405,Chatham County,GA,NA,NA,NA,35.83815028901734
31406,Chatham County,GA,NA,NA,33.49514563106796,NA
31520,Glynn County,GA,NA,46.715328467153284,NA,NA
31522,Glynn County,GA,NA,NA,75.48543689320388,NA
31601,Lowndes County,GA,NA,53.102189781021906,NA,NA
31602,Lowndes County,GA,NA,NA,76.2135922330097,NA
31788,Colquitt County,GA,NA,NA,NA,83.8150289017341
83202,Bannock County,ID,NA,NA,68.44660194174757,67.63005780346822
83301,Twin Falls County,ID,NA,3.2846715328467155,NA,NA
83350,Minidoka County,ID,NA,91.24087591240875,NA,NA
83442,Jefferson County,ID,13.978494623655912,NA,NA,NA
83501,Nez Perce County,ID,NA,NA,12.864077669902912,NA
83616,Ada County,ID,NA,44.70802919708029,NA,NA
83634,Ada County,ID,NA,NA,NA,99.42196531791907
83651,Canyon County,ID,NA,NA,13.592233009708737,NA
83660,Canyon County,ID,NA,NA,NA,87.28323699421965
83704,Ada County,ID,NA,NA,71.11650485436894,NA
83714,Ada County,ID,NA,NA,70.14563106796116,NA
83814,Kootenai County,ID,NA,NA,44.66019417475729,63.58381502890174
83815,Kootenai County,ID,NA,NA,22.572815533980584,NA
83854,Kootenai County,ID,NA,28.649635036496353,NA,NA
60010,Lake County,IL,NA,NA,16.019417475728158,18.786127167630056
60014,McHenry County,IL,NA,NA,69.1747572815534,NA
60018,Cook County,IL,NA,55.839416058394164,NA,NA
60026,Cook County,IL,NA,NA,88.10679611650485,NA
60031,Lake County,IL,NA,NA,NA,91.61849710982659
60046,Lake County,IL,NA,NA,29.61165048543689,NA
60047,Lake County,IL,NA,33.75912408759124,27.184466019417474,NA
60060,Lake County,IL,NA,68.43065693430657,NA,84.97109826589595
60062,Cook County,IL,NA,NA,6.067961165048544,7.225433526011561
60077,Cook County,IL,NA,NA,NA,57.51445086705203
60085,Lake County,IL,NA,14.5985401459854,NA,27.45664739884393
60090,Cook County,IL,NA,NA,32.5242718446602,NA
60091,Cook County,IL,NA,NA,NA,94.50867052023122
60093,Cook County,IL,NA,NA,89.07766990291263,NA
60103,DuPage County,IL,NA,68.24817518248175,NA,NA
60106,DuPage County,IL,NA,NA,NA,35.26011560693642
60107,Cook County,IL,NA,45.62043795620438,NA,NA
60115,DeKalb County,IL,NA,63.138686131386855,NA,30.057803468208093
60123,Kane County,IL,NA,NA,NA,19.653179190751445
60134,Kane County,IL,NA,NA,NA,28.61271676300578
60142,McHenry County,IL,NA,38.68613138686132,NA,NA
60153,Cook County,IL,NA,NA,NA,47.398843930635834
60164,Cook County,IL,NA,NA,74.27184466019418,NA
60181,DuPage County,IL,NA,NA,34.70873786407767,42.48554913294797
60187,DuPage County,IL,NA,60.76642335766424,NA,NA
60192,Cook County,IL,NA,NA,NA,81.79190751445087
60201,Cook County,IL,NA,NA,NA,51.15606936416185
60403,Will County,IL,NA,NA,NA,73.69942196531792
60411,Cook County,IL,NA,NA,NA,20.23121387283237
60432,Will County,IL,76.88172043010752,NA,NA,NA
60435,Will County,IL,NA,NA,11.165048543689322,NA
60446,Will County,IL,NA,NA,NA,42.77456647398844
60450,Grundy County,IL,NA,20.255474452554743,NA,NA
60455,Cook County,IL,54.3010752688172,NA,NA,NA
60462,Cook County,IL,NA,53.83211678832117,NA,NA
60473,Cook County,IL,NA,51.82481751824818,NA,NA
60510,Kane County,IL,NA,31.751824817518248,NA,NA
60545,Kendall County,IL,NA,59.306569343065696,NA,NA
60563,DuPage County,IL,NA,NA,NA,56.64739884393064
60586,Will County,IL,15.053763440860216,NA,NA,NA
60607,Cook County,IL,NA,NA,NA,88.72832369942196
60609,Cook County,IL,NA,NA,19.41747572815534,NA
60611,Cook County,IL,NA,NA,24.029126213592235,10.404624277456648
60614,Cook County,IL,NA,NA,19.174757281553397,NA
60616,Cook County,IL,NA,32.66423357664234,NA,NA
60617,Cook County,IL,NA,6.934306569343065,NA,NA
60624,Cook County,IL,NA,42.700729927007295,NA,NA
60628,Cook County,IL,16.129032258064516,NA,NA,NA
60634,Cook County,IL,NA,NA,NA,7.803468208092486
60638,Cook County,IL,NA,NA,NA,4.624277456647398
60644,Cook County,IL,NA,NA,NA,17.91907514450867
60651,Cook County,IL,NA,28.832116788321166,NA,NA
60958,Kankakee County,IL,NA,100,NA,NA
61071,Whiteside County,IL,NA,20.985401459854014,NA,NA
61107,Winnebago County,IL,NA,NA,NA,20.809248554913296
61530,Woodford County,IL,NA,86.67883211678831,NA,NA
61550,Tazewell County,IL,NA,NA,NA,84.10404624277457
61611,Tazewell County,IL,NA,84.12408759124088,NA,NA
61614,Peoria County,IL,NA,96.35036496350365,NA,NA
61615,Peoria County,IL,NA,87.22627737226277,NA,NA
61704,McLean County,IL,NA,34.48905109489051,NA,NA
61832,Vermilion County,IL,NA,NA,11.407766990291263,NA
61853,Champaign County,IL,90.86021505376344,NA,NA,NA
62040,Madison County,IL,NA,NA,NA,18.20809248554913
62656,Logan County,IL,NA,NA,NA,46.24277456647399
62702,Sangamon County,IL,NA,22.26277372262774,NA,NA
62881,Marion County,IL,NA,NA,NA,83.52601156069365
62906,Union County,IL,NA,78.83211678832117,NA,63.8728323699422
62918,Williamson County,IL,NA,77.91970802919708,NA,NA
46060,Hamilton County,IN,64.51612903225806,NA,NA,NA
46106,Johnson County,IN,75.26881720430107,NA,NA,NA
46113,Marion County,IN,NA,58.941605839416056,NA,NA
46142,Johnson County,IN,63.97849462365591,NA,NA,NA
46151,Morgan County,IN,NA,NA,24.75728155339806,30.924855491329478
46160,Brown County,IN,NA,NA,NA,84.39306358381504
46208,Marion County,IN,NA,31.204379562043794,NA,NA
46256,Marion County,IN,NA,NA,NA,55.78034682080924
46307,Lake County,IN,0.5376344086021506,2.3722627737226274,NA,NA
46385,Porter County,IN,NA,NA,NA,23.121387283236995
46407,Lake County,IN,NA,NA,73.7864077669903,NA
46534,Starke County,IN,NA,50.54744525547446,NA,NA
46614,St. Joseph County,IN,61.29032258064516,NA,NA,NA
46615,St. Joseph County,IN,62.903225806451616,NA,NA,NA
46628,St. Joseph County,IN,NA,44.89051094890511,NA,NA
46733,Adams County,IN,NA,NA,49.271844660194176,NA
46750,Huntington County,IN,NA,NA,30.582524271844658,NA
46774,Allen County,IN,NA,74.63503649635037,NA,NA
46783,Huntington County,IN,NA,NA,NA,88.4393063583815
46816,Allen County,IN,NA,25.18248175182482,NA,NA
46818,Allen County,IN,54.83870967741935,NA,NA,NA
46825,Allen County,IN,NA,61.496350364963504,NA,NA
46845,Allen County,IN,NA,52.919708029197075,NA,NA
46902,Howard County,IN,2.1505376344086025,NA,NA,NA
46992,Wabash County,IN,46.236559139784944,NA,NA,NA
47129,Clark County,IN,NA,NA,52.42718446601942,NA
47203,Bartholomew County,IN,NA,NA,75.24271844660194,NA
47303,Delaware County,IN,NA,31.569343065693428,NA,NA
47601,Warrick County,IN,20.43010752688172,NA,NA,NA
47630,Warrick County,IN,60.215053763440864,NA,NA,NA
47715,Vanderburgh County,IN,NA,NA,NA,12.716763005780345
47802,Vigo County,IN,NA,19.34306569343066,NA,NA
50010,Story County,IA,76.34408602150538,NA,NA,NA
50036,Boone County,IA,NA,58.02919708029197,NA,NA
50111,Polk County,IA,74.19354838709677,NA,NA,NA
50158,Marshall County,IA,NA,21.897810218978105,42.23300970873786,NA
50220,Dallas County,IA,NA,NA,90.77669902912622,NA
50613,Black Hawk County,IA,NA,NA,15.048543689320388,NA
50662,Fayette County,IA,NA,59.854014598540154,NA,NA
50677,Bremer County,IA,NA,NA,NA,47.10982658959538
51103,Woodbury County,IA,NA,44.34306569343065,NA,NA
51104,Woodbury County,IA,NA,NA,NA,74.56647398843931
52001,Dubuque County,IA,NA,42.33576642335766,NA,NA
52302,Linn County,IA,NA,NA,NA,42.19653179190752
52501,Wapello County,IA,81.72043010752688,NA,NA,NA
52722,Scott County,IA,NA,NA,NA,56.64739884393064
52761,Muscatine County,IA,25.268817204301076,NA,NA,NA
52806,Scott County,IA,NA,NA,40.29126213592233,NA
66030,Johnson County,KS,37.096774193548384,NA,NA,NA
66085,Johnson County,KS,NA,NA,NA,91.90751445086705
66614,Shawnee County,KS,NA,NA,22.815533980582526,NA
66749,Allen County,KS,NA,NA,NA,98.26589595375722
67204,Sedgwick County,KS,NA,71.16788321167883,NA,NA
67213,Sedgwick County,KS,NA,56.38686131386861,NA,NA
67218,Sedgwick County,KS,NA,NA,NA,89.30635838150289
67401,Saline County,KS,NA,48.35766423357664,25.728155339805824,NA
67501,Reno County,KS,NA,81.56934306569343,NA,NA
67601,Ellis County,KS,NA,NA,21.35922330097087,NA
67801,Ford County,KS,NA,NA,NA,70.8092485549133
67846,Finney County,KS,NA,NA,NA,71.67630057803468
40033,Marion County,KY,50.53763440860215,NA,NA,NA
40214,Jefferson County,KY,16.666666666666664,NA,NA,NA
40351,Rowan County,KY,NA,NA,52.9126213592233,NA
40475,Madison County,KY,NA,NA,63.10679611650486,NA
40509,Fayette County,KY,NA,85.21897810218978,NA,NA
40511,Fayette County,KY,29.03225806451613,NA,NA,NA
40769,Whitley County,KY,NA,30.10948905109489,NA,NA
41015,Kenton County,KY,NA,NA,NA,38.4393063583815
41042,Boone County,KY,NA,NA,7.281553398058252,3.4682080924855487
41501,Pike County,KY,NA,10.948905109489052,NA,NA
42025,Marshall County,KY,79.56989247311827,NA,NA,NA
42029,Marshall County,KY,NA,66.24087591240875,NA,NA
42240,Christian County,KY,NA,NA,NA,25.14450867052023
42330,Muhlenberg County,KY,NA,NA,NA,74.85549132947978
42701,Hardin County,KY,NA,NA,NA,52.02312138728323
42728,Adair County,KY,NA,70.43795620437956,NA,NA
70003,Jefferson Parish,LA,NA,NA,47.33009708737864,NA
70005,Jefferson Parish,LA,NA,NA,NA,7.514450867052023
70047,St. Charles Parish,LA,NA,82.66423357664233,NA,NA
70113,Orleans Parish,LA,NA,27.189781021897808,NA,NA
70359,Terrebonne Parish,LA,NA,77.73722627737226,NA,NA
70373,Lafourche Parish,LA,NA,48.722627737226276,NA,NA
70438,Washington Parish,LA,NA,NA,NA,16.184971098265898
70458,St. Tammany Parish,LA,NA,6.021897810218978,NA,NA
70461,St. Tammany Parish,LA,NA,NA,23.300970873786408,NA
70471,St. Tammany Parish,LA,NA,NA,25.485436893203882,NA
70711,Livingston Parish,LA,NA,76.82481751824818,NA,NA
71106,Caddo Parish,LA,NA,NA,NA,15.895953757225435
71109,Caddo Parish,LA,NA,6.569343065693431,NA,NA
71111,Bossier Parish,LA,NA,NA,16.50485436893204,NA
71118,Caddo Parish,LA,NA,94.34306569343066,NA,NA
71446,Vernon Parish,LA,NA,10.036496350364963,NA,NA
03908,York County,ME,80.10752688172043,NA,NA,NA
04002,York County,ME,NA,67.7007299270073,NA,NA
04084,Cumberland County,ME,NA,62.40875912408759,NA,NA
04210,Androscoggin County,ME,NA,NA,42.4757281553398,NA
04240,Androscoggin County,ME,NA,NA,NA,17.341040462427745
04364,Kennebec County,ME,NA,89.41605839416059,NA,NA
04605,Hancock County,ME,NA,NA,62.37864077669902,NA
04769,Aroostook County,ME,NA,55.29197080291971,NA,NA
04938,Franklin County,ME,NA,46.35036496350365,NA,NA
20745,Prince George's County,MD,NA,63.68613138686131,NA,NA
20815,Montgomery County,MD,NA,NA,NA,38.72832369942196
21061,Anne Arundel County,MD,72.58064516129032,NA,NA,NA
21113,Anne Arundel County,MD,89.24731182795699,NA,68.20388349514563,NA
21122,Anne Arundel County,MD,NA,NA,87.13592233009709,NA
21204,Baltimore County,MD,NA,NA,NA,48.84393063583815
21206,Baltimore city,MD,55.91397849462365,NA,NA,NA
21215,Baltimore city,MD,NA,7.846715328467154,NA,NA
21228,Baltimore County,MD,NA,NA,14.077669902912621,NA
21230,Baltimore city,MD,NA,NA,54.85436893203883,NA
21234,Baltimore County,MD,NA,NA,NA,4.046242774566474
21502,Allegany County,MD,NA,19.16058394160584,NA,NA
21801,Wicomico County,MD,NA,56.934306569343065,NA,NA
21811,Worcester County,MD,NA,NA,NA,19.942196531791907
21901,Cecil County,MD,NA,NA,90.0485436893204,NA
01001,Hampden County,MA,NA,22.99270072992701,NA,NA
01002,Hampshire County,MA,NA,34.67153284671533,NA,NA
01013,Hampden County,MA,NA,NA,16.990291262135923,21.09826589595376
01036,Hampden County,MA,NA,94.16058394160584,NA,NA
01040,Hampden County,MA,NA,NA,0,NA
01085,Hampden County,MA,NA,2.0072992700729926,NA,NA
01095,Hampden County,MA,NA,NA,92.71844660194175,14.450867052023122
01104,Hampden County,MA,NA,75.54744525547446,1.6990291262135921,NA
01107,Hampden County,MA,NA,NA,25,NA
01119,Hampden County,MA,NA,NA,79.12621359223301,NA
01440,Worcester County,MA,NA,NA,9.466019417475728,NA
01520,Worcester County,MA,NA,77.1897810218978,NA,NA
01532,Worcester County,MA,NA,NA,NA,48.554913294797686
01590,Worcester County,MA,NA,83.3941605839416,NA,NA
01603,Worcester County,MA,NA,2.18978102189781,NA,NA
01607,Worcester County,MA,NA,NA,NA,76.01156069364163
01702,Middlesex County,MA,4.301075268817205,NA,NA,NA
01801,Middlesex County,MA,NA,NA,12.37864077669903,NA
01803,Middlesex County,MA,NA,NA,52.18446601941748,NA
01810,Essex County,MA,NA,NA,18.689320388349515,NA
01824,Middlesex County,MA,NA,96.8978102189781,NA,NA
01826,Middlesex County,MA,NA,NA,4.12621359223301,NA
01830,Essex County,MA,NA,NA,37.62135922330097,NA
01835,Essex County,MA,52.68817204301075,NA,NA,NA
01844,Essex County,MA,1.0752688172043012,NA,NA,NA
01851,Middlesex County,MA,NA,NA,3.640776699029126,NA
01852,Middlesex County,MA,NA,0.36496350364963503,NA,NA
01880,Middlesex County,MA,NA,25,NA,NA
01887,Middlesex County,MA,NA,NA,NA,85.83815028901735
01902,Essex County,MA,NA,NA,NA,18.497109826589593
01906,Essex County,MA,NA,NA,NA,50.57803468208093
01930,Essex County,MA,NA,NA,NA,36.127167630057805
01960,Essex County,MA,NA,NA,NA,0.5780346820809248
01970,Essex County,MA,NA,NA,0.7281553398058253,NA
02019,Norfolk County,MA,NA,60.21897810218978,NA,NA
02048,Bristol County,MA,NA,15.693430656934307,NA,NA
02050,Plymouth County,MA,NA,NA,NA,32.080924855491325
02061,Plymouth County,MA,NA,97.44525547445255,NA,NA
02066,Plymouth County,MA,NA,33.21167883211679,NA,NA
02111,Suffolk County,MA,NA,NA,NA,30.63583815028902
02122,Suffolk County,MA,NA,NA,NA,41.040462427745666
02124,Suffolk County,MA,NA,5.474452554744526,NA,NA
02126,Suffolk County,MA,82.25806451612904,0.9124087591240875,NA,19.07514450867052
02128,Suffolk County,MA,NA,NA,2.1844660194174756,NA
02135,Suffolk County,MA,NA,NA,10.679611650485436,NA
02138,Middlesex County,MA,NA,NA,55.8252427184466,NA
02143,Middlesex County,MA,NA,NA,11.650485436893204,NA
02148,Middlesex County,MA,NA,NA,NA,1.4450867052023122
02150,Suffolk County,MA,NA,4.927007299270073,NA,NA
02151,Suffolk County,MA,NA,0.18248175182481752,NA,NA
02180,Middlesex County,MA,NA,NA,27.427184466019416,NA
02188,Norfolk County,MA,NA,NA,NA,66.1849710982659
02330,Plymouth County,MA,56.451612903225815,NA,NA,NA
02356,Bristol County,MA,NA,NA,86.6504854368932,NA
02359,Plymouth County,MA,NA,24.817518248175183,NA,NA
02382,Plymouth County,MA,35.483870967741936,NA,NA,NA
02420,Middlesex County,MA,NA,72.44525547445255,NA,71.96531791907515
02445,Norfolk County,MA,NA,94.8905109489051,NA,NA
02446,Norfolk County,MA,NA,NA,NA,93.35260115606935
02465,Middlesex County,MA,NA,NA,50.728155339805824,NA
02474,Middlesex County,MA,NA,NA,NA,43.35260115606936
02568,Dukes County,MA,NA,62.77372262773723,NA,NA
02632,Barnstable County,MA,NA,44.52554744525548,NA,NA
02657,Barnstable County,MA,NA,83.75912408759125,NA,NA
02664,Barnstable County,MA,NA,50,NA,NA
02703,Bristol County,MA,NA,6.751824817518248,NA,32.947976878612714
02720,Bristol County,MA,NA,0.5474452554744526,NA,NA
02740,Bristol County,MA,NA,0,NA,NA
02770,Plymouth County,MA,NA,NA,99.02912621359224,NA
48015,Macomb County,MI,NA,NA,NA,77.74566473988439
48026,Macomb County,MI,NA,31.934306569343068,NA,NA
48033,Oakland County,MI,NA,37.77372262773723,NA,NA
48038,Macomb County,MI,NA,12.408759124087592,NA,NA
48066,Macomb County,MI,NA,NA,81.79611650485437,NA
48073,Oakland County,MI,NA,77.00729927007299,NA,NA
48076,Oakland County,MI,NA,27.919708029197082,NA,NA
48080,Macomb County,MI,NA,NA,16.2621359223301,NA
48081,Macomb County,MI,NA,NA,NA,15.31791907514451
48108,Washtenaw County,MI,NA,60.94890510948905,NA,NA
48127,Wayne County,MI,NA,NA,23.058252427184467,NA
48135,Wayne County,MI,NA,18.065693430656935,NA,NA
48141,Wayne County,MI,NA,8.211678832116789,NA,NA
48146,Wayne County,MI,62.365591397849464,NA,NA,NA
48154,Wayne County,MI,NA,NA,NA,64.16184971098265
48180,Wayne County,MI,NA,2.5547445255474455,NA,NA
48189,Washtenaw County,MI,NA,NA,NA,67.63005780346822
48204,Wayne County,MI,NA,NA,66.74757281553399,76.30057803468208
48206,Wayne County,MI,NA,NA,33.25242718446602,NA
48210,Wayne County,MI,NA,20.985401459854014,NA,NA
48212,Wayne County,MI,NA,NA,48.786407766990294,NA
48221,Wayne County,MI,NA,NA,6.553398058252427,NA
48228,Wayne County,MI,NA,1.824817518248175,NA,NA
48235,Wayne County,MI,NA,13.138686131386862,NA,NA
48307,Oakland County,MI,NA,NA,26.21359223300971,13.294797687861271
48310,Macomb County,MI,NA,NA,NA,88.15028901734104
48353,Livingston County,MI,NA,NA,NA,95.66473988439307
48412,Lapeer County,MI,NA,NA,NA,60.40462427745664
48439,Genesee County,MI,NA,12.226277372262775,NA,NA
48458,Genesee County,MI,NA,NA,NA,78.32369942196532
48506,Genesee County,MI,NA,19.708029197080293,NA,NA
48601,Saginaw County,MI,NA,NA,4.611650485436893,NA
48602,Saginaw County,MI,NA,NA,NA,41.32947976878613
48653,Roscommon County,MI,68.81720430107528,NA,NA,NA
48708,Bay County,MI,NA,26.642335766423358,NA,NA
48734,Saginaw County,MI,NA,NA,NA,64.73988439306359
48843,Livingston County,MI,15.591397849462366,37.591240875912405,NA,NA
48906,Ingham County,MI,NA,NA,52.9126213592233,NA
48917,Eaton County,MI,38.70967741935484,NA,NA,NA
49047,Cass County,MI,NA,NA,64.80582524271846,NA
49093,St. Joseph County,MI,NA,26.094890510948904,NA,NA
49417,Ottawa County,MI,NA,NA,6.796116504854369,NA
49418,Kent County,MI,NA,NA,31.79611650485437,NA
49425,Muskegon County,MI,NA,98.90510948905109,NA,NA
49442,Muskegon County,MI,NA,NA,NA,65.60693641618496
49464,Ottawa County,MI,NA,NA,40.04854368932039,NA
49503,Kent County,MI,NA,10.218978102189782,NA,NA
49504,Kent County,MI,11.29032258064516,40.87591240875913,NA,NA
49546,Kent County,MI,NA,NA,NA,11.849710982658959
49685,Grand Traverse County,MI,NA,47.08029197080292,NA,NA
49707,Alpena County,MI,NA,26.459854014598537,NA,NA
49781,Mackinac County,MI,NA,NA,NA,72.25433526011561
55056,Chisago County,MN,NA,NA,NA,84.6820809248555
55060,Steele County,MN,NA,NA,33.980582524271846,NA
55075,Dakota County,MN,NA,NA,79.6116504854369,NA
55077,Dakota County,MN,NA,NA,NA,72.25433526011561
55105,Ramsey County,MN,NA,65.51094890510949,NA,NA
55110,Ramsey County,MN,NA,NA,72.81553398058253,NA
55116,Ramsey County,MN,NA,58.57664233576643,NA,NA
55124,Dakota County,MN,NA,34.85401459854015,NA,NA
55128,Washington County,MN,NA,NA,57.28155339805825,NA
55313,Wright County,MN,NA,NA,45.14563106796117,NA
55343,Hennepin County,MN,NA,NA,43.689320388349515,NA
55350,McLeod County,MN,NA,NA,NA,15.028901734104046
55369,Hennepin County,MN,NA,30.83941605839416,NA,NA
55408,Hennepin County,MN,41.935483870967744,NA,NA,NA
55412,Hennepin County,MN,NA,8.576642335766424,85.43689320388349,NA
55413,Hennepin County,MN,NA,76.64233576642336,NA,NA
55414,Hennepin County,MN,NA,NA,95.3883495145631,NA
55427,Hennepin County,MN,NA,49.45255474452554,NA,NA
55428,Hennepin County,MN,NA,15.51094890510949,NA,NA
55430,Hennepin County,MN,NA,NA,NA,96.24277456647398
55432,Anoka County,MN,NA,71.8978102189781,NA,NA
55434,Anoka County,MN,NA,NA,61.89320388349514,NA
55447,Hennepin County,MN,NA,91.24087591240875,NA,NA
55448,Anoka County,MN,NA,37.22627737226277,NA,NA
55733,Carlton County,MN,NA,99.63503649635037,NA,NA
55744,Itasca County,MN,NA,NA,NA,5.780346820809249
55902,Olmsted County,MN,NA,70.98540145985402,NA,NA
55904,Olmsted County,MN,NA,NA,41.262135922330096,NA
55963,Goodhue County,MN,NA,NA,NA,95.37572254335261
56001,Blue Earth County,MN,NA,NA,37.86407766990291,NA
56303,Stearns County,MN,58.602150537634415,NA,NA,NA
56362,Stearns County,MN,NA,98.72262773722628,NA,NA
56377,Stearns County,MN,33.33333333333333,NA,NA,65.3179190751445
56537,Otter Tail County,MN,NA,NA,42.961165048543684,NA
56716,Polk County,MN,NA,NA,73.05825242718447,NA
38863,Pontotoc County,MS,NA,79.1970802919708,NA,NA
39083,Copiah County,MS,NA,92.33576642335767,NA,NA
39209,Hinds County,MS,NA,NA,NA,90.7514450867052
39532,Harrison County,MS,NA,NA,21.601941747572813,NA
39564,Jackson County,MS,NA,NA,NA,28.034682080924856
39571,Harrison County,MS,NA,NA,38.10679611650485,NA
39730,Monroe County,MS,NA,NA,67.96116504854369,NA
63033,St. Louis County,MO,NA,NA,NA,6.6473988439306355
63042,St. Louis County,MO,NA,NA,41.99029126213592,NA
63074,St. Louis County,MO,86.55913978494624,NA,NA,NA
63114,St. Louis County,MO,NA,NA,NA,81.21387283236994
63130,St. Louis County,MO,NA,46.8978102189781,NA,NA
63131,St. Louis County,MO,NA,83.57664233576642,NA,NA
63136,St. Louis County,MO,NA,25.547445255474454,NA,NA
63146,St. Louis County,MO,NA,45.8029197080292,NA,NA
63366,St. Charles County,MO,NA,NA,NA,9.248554913294797
63376,St. Charles County,MO,NA,NA,NA,3.7572254335260116
63379,Lincoln County,MO,NA,NA,65.29126213592234,NA
63801,Scott County,MO,NA,17.88321167883212,NA,NA
64014,Jackson County,MO,NA,16.970802919708028,NA,NA
64024,Clay County,MO,27.419354838709676,NA,NA,NA
64034,Jackson County,MO,NA,78.64963503649635,NA,NA
64050,Jackson County,MO,NA,NA,20.145631067961165,NA
64055,Jackson County,MO,NA,7.481751824817519,NA,NA
64076,Lafayette County,MO,NA,NA,NA,78.61271676300578
64081,Jackson County,MO,NA,NA,NA,40.46242774566474
64131,Jackson County,MO,NA,NA,37.37864077669903,NA
64151,Platte County,MO,NA,27.55474452554745,NA,NA
64152,Platte County,MO,13.978494623655912,NA,NA,NA
64155,Clay County,MO,43.54838709677419,NA,NA,NA
64485,Andrew County,MO,NA,57.11678832116789,NA,NA
64501,Buchanan County,MO,NA,NA,96.84466019417476,NA
65453,Crawford County,MO,NA,73.35766423357664,NA,NA
65565,Crawford County,MO,NA,NA,96.60194174757282,NA
65807,Greene County,MO,NA,23.357664233576642,NA,NA
59044,Yellowstone County,MT,NA,NA,NA,69.94219653179191
59101,Yellowstone County,MT,NA,35.03649635036496,NA,NA
59102,Yellowstone County,MT,NA,NA,32.76699029126214,1.7341040462427744
59404,Cascade County,MT,NA,41.42335766423358,NA,NA
59602,Lewis and Clark County,MT,NA,NA,NA,67.05202312138728
59635,Lewis and Clark County,MT,NA,86.4963503649635,NA,NA
59715,Gallatin County,MT,NA,90.87591240875912,NA,NA
59801,Missoula County,MT,NA,NA,65.77669902912622,NA
59847,Missoula County,MT,NA,95.62043795620438,NA,NA
68007,Douglas County,NE,NA,NA,NA,97.10982658959537
68028,Sarpy County,NE,NA,NA,NA,94.21965317919076
68104,Douglas County,NE,NA,21.350364963503647,NA,NA
68108,Douglas County,NE,NA,NA,99.27184466019418,NA
68127,Douglas County,NE,NA,NA,74.75728155339806,NA
68154,Douglas County,NE,NA,NA,NA,78.90173410404624
68305,Nemaha County,NE,NA,NA,94.41747572815534,NA
68355,Richardson County,NE,NA,NA,NA,100
68467,York County,NE,NA,NA,64.56310679611651,NA
68850,Dawson County,NE,NA,NA,83.25242718446601,NA
89119,Clark County,NV,NA,NA,49.271844660194176,NA
89130,Clark County,NV,NA,48.9051094890511,NA,NA
89144,Clark County,NV,NA,NA,85.19417475728154,NA
89403,Lyon County,NV,NA,34.12408759124087,NA,NA
89423,Douglas County,NV,NA,NA,NA,78.03468208092485
89701,Carson City,NV,45.69892473118279,NA,NA,NA
03042,Rockingham County,NH,NA,69.34306569343066,NA,NA
03049,Hillsborough County,NH,NA,NA,72.57281553398059,NA
03064,Hillsborough County,NH,5.913978494623656,NA,NA,51.445086705202314
03079,Rockingham County,NH,NA,57.481751824817515,NA,NA
03244,Hillsborough County,NH,NA,NA,94.66019417475728,NA
03249,Belknap County,NH,NA,NA,NA,93.9306358381503
03276,Merrimack County,NH,NA,85.94890510948905,NA,NA
03301,Merrimack County,NH,NA,NA,13.834951456310678,NA
03446,Cheshire County,NH,NA,NA,NA,58.092485549132945
03458,Hillsborough County,NH,NA,NA,NA,41.90751445086705
03801,Rockingham County,NH,NA,NA,46.601941747572816,NA
03894,Carroll County,NH,NA,NA,NA,44.21965317919075
07002,Hudson County,NJ,NA,1.4598540145985401,NA,NA
07010,Bergen County,NJ,70.43010752688173,NA,NA,NA
07024,Bergen County,NJ,NA,NA,NA,59.53757225433526
07039,Essex County,NJ,NA,15.875912408759124,NA,NA
07043,Essex County,NJ,NA,NA,72.33009708737865,NA
07092,Union County,NJ,NA,NA,NA,77.16763005780348
07410,Bergen County,NJ,NA,NA,NA,34.971098265895954
07424,Passaic County,NJ,NA,NA,56.310679611650485,NA
07444,Morris County,NJ,NA,88.13868613138686,NA,NA
07446,Bergen County,NJ,72.04301075268818,NA,NA,NA
07470,Passaic County,NJ,NA,43.24817518248175,NA,NA
07502,Passaic County,NJ,NA,NA,72.0873786407767,NA
07648,Bergen County,NJ,NA,98.35766423357664,NA,NA
07666,Bergen County,NJ,NA,NA,NA,14.16184971098266
07719,Monmouth County,NJ,71.50537634408603,NA,NA,NA
07724,Monmouth County,NJ,NA,NA,38.349514563106794,NA
07728,Monmouth County,NJ,NA,NA,NA,3.1791907514450863
07869,Morris County,NJ,NA,48.54014598540146,NA,NA
08016,Burlington County,NJ,NA,82.48175182481752,NA,NA
08080,Gloucester County,NJ,NA,NA,60.43689320388349,NA
08098,Salem County,NJ,NA,39.78102189781022,NA,NA
08234,Atlantic County,NJ,NA,3.64963503649635,NA,NA
08242,Cape May County,NJ,NA,NA,71.35922330097088,NA
08609,Mercer County,NJ,NA,52.00729927007299,NA,NA
08758,Ocean County,NJ,NA,NA,NA,62.42774566473989
08831,Middlesex County,NJ,31.182795698924732,NA,NA,NA
08833,Hunterdon County,NJ,NA,NA,NA,83.23699421965318
87102,Bernalillo County,NM,NA,17.51824817518248,NA,NA
87105,Bernalillo County,NM,NA,3.4671532846715327,NA,NA
87110,Bernalillo County,NM,79.03225806451613,NA,NA,NA
87113,Bernalillo County,NM,NA,97.8102189781022,NA,NA
87120,Bernalillo County,NM,NA,66.78832116788321,NA,NA
87401,San Juan County,NM,NA,58.3941605839416,NA,NA
87505,Santa Fe County,NM,NA,5.291970802919708,NA,NA
88007,Doa Ana County,NM,NA,NA,56.79611650485437,NA
88101,Curry County,NM,NA,NA,NA,6.069364161849711
88130,Roosevelt County,NM,NA,NA,43.689320388349515,NA
10011,New York County,NY,NA,NA,NA,12.427745664739884
10024,New York County,NY,NA,NA,28.155339805825243,NA
10025,New York County,NY,NA,NA,NA,2.601156069364162
10029,New York County,NY,NA,1.094890510948905,NA,NA
10036,New York County,NY,NA,33.941605839416056,NA,NA
10306,Richmond County,NY,NA,81.93430656934306,NA,NA
10452,Bronx County,NY,NA,NA,1.2135922330097086,NA
10453,Bronx County,NY,NA,NA,1.4563106796116505,NA
10458,Bronx County,NY,NA,11.496350364963504,0.48543689320388345,NA
10460,Bronx County,NY,NA,NA,15.53398058252427,NA
10462,Bronx County,NY,NA,6.3868613138686134,NA,NA
10469,Bronx County,NY,NA,NA,7.766990291262135,NA
10472,Bronx County,NY,49.46236559139785,NA,NA,NA
10475,Bronx County,NY,NA,20.62043795620438,NA,NA
10701,Westchester County,NY,24.193548387096776,1.6423357664233578,5.339805825242718,NA
10708,Westchester County,NY,NA,NA,82.76699029126213,NA
10801,Westchester County,NY,NA,28.102189781021895,NA,NA
10977,Rockland County,NY,NA,NA,59.46601941747572,NA
11207,Kings County,NY,NA,5.109489051094891,NA,NA
11219,Kings County,NY,NA,NA,NA,11.560693641618498
11223,Kings County,NY,NA,47.99270072992701,NA,NA
11224,Kings County,NY,NA,NA,5.825242718446602,NA
11233,Kings County,NY,NA,45.98540145985402,NA,NA
11236,Kings County,NY,NA,3.832116788321168,NA,NA
11413,Queens County,NY,NA,NA,43.44660194174757,NA
11415,Queens County,NY,NA,NA,71.60194174757282,NA
11418,Queens County,NY,NA,41.24087591240876,80.33980582524272,43.93063583815029
11420,Queens County,NY,69.35483870967742,NA,NA,NA
11427,Queens County,NY,NA,84.30656934306569,NA,NA
11429,Queens County,NY,NA,NA,34.95145631067961,NA
11706,Suffolk County,NY,NA,71.53284671532847,NA,NA
11725,Suffolk County,NY,NA,NA,66.74757281553399,NA
11727,Suffolk County,NY,NA,NA,33.737864077669904,NA
11729,Suffolk County,NY,NA,65.87591240875912,NA,NA
11731,Suffolk County,NY,NA,NA,70.3883495145631,NA
11751,Suffolk County,NY,NA,NA,77.66990291262135,NA
11753,Nassau County,NY,NA,95.43795620437956,NA,NA
11754,Suffolk County,NY,NA,88.86861313868614,NA,86.9942196531792
11778,Suffolk County,NY,NA,NA,NA,82.94797687861272
11779,Suffolk County,NY,NA,35.94890510948905,NA,NA
11790,Suffolk County,NY,97.31182795698925,NA,NA,66.47398843930635
11901,Suffolk County,NY,NA,NA,97.33009708737865,NA
11953,Suffolk County,NY,NA,90.32846715328468,NA,NA
11968,Suffolk County,NY,NA,96.16788321167883,NA,NA
12020,Saratoga County,NY,NA,NA,30.339805825242717,NA
12025,Fulton County,NY,NA,NA,83.00970873786407,NA
12078,Fulton County,NY,NA,4.197080291970803,NA,NA
12159,Albany County,NY,NA,NA,NA,99.71098265895954
12205,Albany County,NY,NA,NA,46.116504854368934,NA
12401,Ulster County,NY,NA,NA,48.30097087378641,NA
12866,Saratoga County,NY,NA,NA,10.436893203883495,NA
13032,Madison County,NY,NA,NA,NA,76.58959537572254
13126,Oswego County,NY,NA,NA,NA,10.69364161849711
13148,Seneca County,NY,NA,19.708029197080293,NA,NA
13159,Onondaga County,NY,NA,91.78832116788321,NA,NA
13212,Onondaga County,NY,NA,NA,59.22330097087378,NA
13339,Montgomery County,NY,NA,95.8029197080292,NA,NA
13492,Oneida County,NY,NA,NA,NA,80.34682080924856
13617,St. Lawrence County,NY,30.107526881720432,NA,NA,NA
13662,St. Lawrence County,NY,77.41935483870968,NA,NA,NA
13760,Broome County,NY,NA,37.04379562043796,0.24271844660194172,NA
13790,Broome County,NY,NA,NA,40.77669902912621,44.50867052023121
13825,Otsego County,NY,NA,97.62773722627736,NA,NA
13856,Delaware County,NY,NA,NA,39.80582524271845,NA
14043,Erie County,NY,NA,NA,33.00970873786408,NA
14072,Erie County,NY,45.16129032258064,NA,38.83495145631068,NA
14075,Erie County,NY,NA,8.02919708029197,NA,NA
14094,Niagara County,NY,NA,NA,2.912621359223301,NA
14120,Niagara County,NY,NA,NA,36.16504854368932,NA
14207,Erie County,NY,NA,63.868613138686136,69.41747572815534,NA
14217,Erie County,NY,NA,NA,96.35922330097088,NA
14221,Erie County,NY,NA,10.766423357664232,NA,NA
14226,Erie County,NY,46.774193548387096,NA,NA,NA
14227,Erie County,NY,NA,NA,NA,25.43352601156069
14420,Monroe County,NY,13.440860215053762,NA,NA,NA
14432,Ontario County,NY,NA,NA,NA,79.76878612716763
14489,Wayne County,NY,NA,NA,NA,86.1271676300578
14534,Monroe County,NY,NA,NA,NA,26.878612716763005
14580,Monroe County,NY,NA,NA,NA,17.63005780346821
14586,Monroe County,NY,NA,NA,NA,92.48554913294798
14590,Wayne County,NY,46.774193548387096,NA,NA,NA
14622,Monroe County,NY,NA,NA,21.844660194174757,NA
14624,Monroe County,NY,NA,NA,2.669902912621359,NA
14760,Cattaraugus County,NY,NA,NA,66.01941747572816,NA
14787,Chautauqua County,NY,NA,NA,95.87378640776699,NA
14838,Chemung County,NY,NA,NA,98.54368932038835,NA
14845,Chemung County,NY,17.741935483870968,NA,NA,NA
14871,Chemung County,NY,NA,NA,NA,86.70520231213872
27012,Forsyth County,NC,NA,25.72992700729927,NA,NA
27041,Surry County,NC,NA,NA,89.80582524271846,NA
27292,Davidson County,NC,NA,17.51824817518248,NA,NA
27317,Randolph County,NC,NA,48.175182481751825,NA,NA
27320,Rockingham County,NC,NA,NA,10.194174757281553,NA
27330,Lee County,NC,NA,NA,NA,62.138728323699425
27360,Davidson County,NC,NA,NA,32.28155339805826,NA
27405,Guilford County,NC,NA,NA,NA,54.33526011560693
27407,Guilford County,NC,NA,NA,38.349514563106794,NA
27511,Wake County,NC,NA,NA,35.43689320388349,NA
27518,Wake County,NC,NA,81.38686131386861,NA,NA
27539,Wake County,NC,NA,NA,63.834951456310684,NA
27540,Wake County,NC,73.11827956989248,NA,NA,NA
27545,Wake County,NC,NA,NA,80.8252427184466,NA
27587,Wake County,NC,NA,NA,8.737864077669903,NA
27801,Edgecombe County,NC,NA,35.4014598540146,NA,NA
27893,Wilson County,NC,22.58064516129032,NA,NA,NA
28031,Mecklenburg County,NC,NA,NA,46.359223300970875,NA
28043,Rutherford County,NC,NA,NA,73.54368932038835,NA
28073,Cleveland County,NC,NA,75.91240875912408,NA,NA
28075,Cabarrus County,NC,NA,NA,NA,69.07514450867052
28078,Mecklenburg County,NC,NA,NA,68.68932038834951,NA
28097,Stanly County,NC,NA,89.05109489051095,NA,NA
28110,Union County,NC,NA,62.95620437956204,NA,NA
28115,Iredell County,NC,NA,NA,NA,34.39306358381503
28120,Gaston County,NC,NA,92.15328467153284,NA,NA
28129,Stanly County,NC,NA,NA,NA,96.53179190751445
28139,Rutherford County,NC,NA,NA,NA,48.26589595375722
28146,Rowan County,NC,NA,NA,47.57281553398058,NA
28152,Cleveland County,NC,47.8494623655914,NA,NA,NA
28166,Iredell County,NC,NA,NA,91.99029126213593,NA
28207,Mecklenburg County,NC,NA,NA,83.49514563106796,NA
28210,Mecklenburg County,NC,94.6236559139785,NA,NA,NA
28211,Mecklenburg County,NC,NA,25.91240875912409,NA,NA
28216,Mecklenburg County,NC,NA,67.15328467153284,NA,NA
28312,Cumberland County,NC,NA,NA,78.88349514563106,NA
28345,Richmond County,NC,NA,NA,NA,46.53179190751445
28366,Sampson County,NC,NA,85.58394160583941,NA,NA
28412,New Hanover County,NC,NA,NA,NA,28.32369942196532
28461,Brunswick County,NC,NA,NA,7.524271844660194,NA
28462,Brunswick County,NC,NA,51.09489051094891,NA,NA
28655,Burke County,NC,NA,5.839416058394161,5.097087378640777,NA
28658,Catawba County,NC,NA,39.23357664233576,NA,NA
28721,Haywood County,NC,NA,NA,74.02912621359224,NA
28751,Haywood County,NC,NA,NA,87.86407766990291,NA
28779,Jackson County,NC,NA,72.26277372262774,NA,NA
28785,Haywood County,NC,NA,NA,NA,99.13294797687861
58103,Cass County,ND,NA,81.02189781021897,NA,NA
58104,Cass County,ND,NA,NA,64.32038834951457,NA
58501,Burleigh County,ND,NA,69.7080291970803,NA,NA
58701,Ward County,ND,NA,NA,8.25242718446602,2.312138728323699
43031,Licking County,OH,70.96774193548387,NA,NA,NA
43050,Knox County,OH,NA,NA,29.85436893203883,NA
43056,Licking County,OH,36.02150537634409,NA,NA,NA
43068,Franklin County,OH,NA,9.306569343065693,NA,NA
43123,Franklin County,OH,33.87096774193548,NA,NA,NA
43125,Franklin County,OH,51.61290322580645,NA,NA,NA
43130,Fairfield County,OH,NA,NA,3.1553398058252426,NA
43160,Fayette County,OH,53.76344086021505,NA,24.271844660194176,NA
43201,Franklin County,OH,NA,42.88321167883212,NA,NA
43205,Franklin County,OH,NA,41.78832116788321,NA,NA
43214,Franklin County,OH,NA,80.83941605839416,NA,NA
43215,Franklin County,OH,28.49462365591398,NA,NA,NA
43223,Franklin County,OH,NA,6.204379562043796,NA,NA
43224,Franklin County,OH,6.451612903225806,NA,NA,NA
43228,Franklin County,OH,NA,2.9197080291970803,NA,NA
43230,Franklin County,OH,NA,NA,NA,23.98843930635838
43311,Logan County,OH,NA,25.364963503649633,NA,NA
43402,Wood County,OH,NA,NA,69.66019417475728,NA
43537,Lucas County,OH,NA,24.087591240875913,NA,NA
43543,Williams County,OH,NA,NA,NA,70.52023121387283
43558,Fulton County,OH,38.17204301075269,NA,NA,NA
43560,Lucas County,OH,NA,20.802919708029197,17.233009708737864,NA
43611,Lucas County,OH,NA,NA,NA,47.97687861271676
43724,Noble County,OH,NA,67.88321167883211,NA,NA
43725,Guernsey County,OH,19.35483870967742,NA,NA,NA
43764,Perry County,OH,NA,60.4014598540146,NA,NA
43783,Perry County,OH,NA,NA,100,NA
43812,Coshocton County,OH,10.21505376344086,NA,NA,NA
44023,Geauga County,OH,NA,NA,47.0873786407767,NA
44060,Lake County,OH,NA,NA,0.9708737864077669,NA
44067,Summit County,OH,NA,NA,96.11650485436894,NA
44077,Lake County,OH,75.80645161290323,54.1970802919708,NA,NA
44095,Lake County,OH,NA,NA,NA,4.335260115606936
44102,Cuyahoga County,OH,NA,0.7299270072992701,NA,NA
44106,Cuyahoga County,OH,NA,9.67153284671533,NA,NA
44107,Cuyahoga County,OH,1.6129032258064515,NA,NA,NA
44108,Cuyahoga County,OH,NA,NA,6.310679611650485,NA
44109,Cuyahoga County,OH,NA,4.744525547445255,NA,31.213872832369944
44110,Cuyahoga County,OH,NA,8.94160583941606,NA,NA
44113,Cuyahoga County,OH,NA,7.664233576642336,NA,NA
44118,Cuyahoga County,OH,NA,62.22627737226277,NA,60.69364161849711
44120,Cuyahoga County,OH,NA,14.416058394160583,NA,NA
44122,Cuyahoga County,OH,NA,NA,NA,0.8670520231213872
44123,Cuyahoga County,OH,NA,NA,NA,37.861271676300575
44128,Cuyahoga County,OH,NA,NA,NA,2.023121387283237
44130,Cuyahoga County,OH,NA,4.562043795620438,NA,NA
44134,Cuyahoga County,OH,NA,NA,NA,27.167630057803464
44143,Cuyahoga County,OH,NA,30.29197080291971,NA,36.70520231213873
44203,Summit County,OH,2.6881720430107525,NA,NA,NA
44212,Medina County,OH,NA,2.737226277372263,NA,NA
44223,Summit County,OH,NA,97.26277372262774,NA,NA
44254,Medina County,OH,NA,NA,76.94174757281553,NA
44275,Medina County,OH,93.54838709677419,NA,NA,NA
44313,Summit County,OH,NA,NA,NA,14.450867052023122
44406,Mahoning County,OH,NA,50,NA,NA
44420,Trumbull County,OH,NA,NA,54.61165048543689,NA
44481,Trumbull County,OH,NA,22.81021897810219,NA,NA
44511,Mahoning County,OH,NA,NA,NA,50.28901734104046
45014,Butler County,OH,NA,12.956204379562045,NA,NA
45107,Clinton County,OH,84.94623655913979,NA,NA,NA
45211,Hamilton County,OH,8.60215053763441,NA,NA,NA
45224,Hamilton County,OH,NA,82.84671532846716,NA,NA
45249,Hamilton County,OH,67.74193548387096,NA,NA,NA
45251,Hamilton County,OH,48.38709677419355,NA,NA,NA
45311,Preble County,OH,NA,NA,NA,90.17341040462428
45323,Clark County,OH,NA,NA,NA,74.27745664739885
45356,Miami County,OH,NA,NA,NA,73.41040462427746
45365,Shelby County,OH,NA,11.313868613138686,NA,NA
45417,Montgomery County,OH,12.365591397849462,NA,NA,NA
45459,Montgomery County,OH,NA,NA,NA,17.052023121387283
45601,Ross County,OH,NA,1.2773722627737227,NA,NA
45638,Lawrence County,OH,8.064516129032258,37.408759124087595,NA,NA
45640,Jackson County,OH,NA,NA,NA,11.271676300578035
45750,Washington County,OH,68.27956989247312,NA,NA,NA
45804,Allen County,OH,NA,NA,29.126213592233007,NA
73008,Oklahoma County,OK,9.13978494623656,NA,NA,NA
73080,McClain County,OK,73.65591397849462,NA,NA,NA
73150,Oklahoma County,OK,NA,NA,80.09708737864078,NA
73159,Oklahoma County,OK,NA,NA,31.06796116504854,NA
73160,Cleveland County,OK,NA,54.379562043795616,NA,NA
73162,Oklahoma County,OK,NA,45.07299270072993,NA,NA
73170,Cleveland County,OK,32.25806451612903,NA,NA,NA
73703,Garfield County,OK,NA,NA,20.388349514563107,9.53757225433526
74006,Washington County,OK,NA,NA,NA,32.369942196531795
74012,Tulsa County,OK,NA,20.072992700729927,NA,NA
74036,Rogers County,OK,NA,64.41605839416059,NA,NA
74066,Creek County,OK,NA,27.00729927007299,NA,NA
74108,Tulsa County,OK,NA,95.07299270072993,NA,NA
74114,Tulsa County,OK,NA,NA,64.07766990291263,NA
74701,Bryan County,OK,NA,54.74452554744526,NA,NA
74960,Adair County,OK,NA,21.715328467153284,NA,NA
97007,Washington County,OR,NA,NA,32.038834951456316,NA
97030,Multnomah County,OR,NA,NA,20.87378640776699,NA
97038,Clackamas County,OR,NA,NA,NA,62.71676300578035
97058,Wasco County,OR,NA,36.31386861313868,NA,NA
97103,Clatsop County,OR,NA,NA,NA,21.965317919075144
97123,Washington County,OR,65.59139784946237,16.240875912408757,17.475728155339805,NA
97223,Washington County,OR,NA,NA,28.883495145631066,NA
97224,Washington County,OR,57.52688172043011,NA,NA,NA
97305,Marion County,OR,39.784946236559136,NA,NA,NA
97365,Lincoln County,OR,NA,NA,NA,46.82080924855491
97367,Lincoln County,OR,NA,NA,95.14563106796116,NA
97402,Lane County,OR,NA,NA,NA,9.826589595375722
97501,Jackson County,OR,66.66666666666666,NA,NA,NA
97502,Jackson County,OR,NA,35.583941605839414,NA,NA
97526,Josephine County,OR,NA,NA,35.67961165048544,NA
97603,Klamath County,OR,NA,NA,NA,2.8901734104046244
97701,Deschutes County,OR,NA,NA,50.970873786407765,NA
97760,Jefferson County,OR,NA,NA,84.22330097087378,NA
15001,Beaver County,PA,NA,16.05839416058394,NA,NA
15005,Beaver County,PA,NA,74.81751824817519,NA,NA
15044,Allegheny County,PA,NA,NA,56.067961165048544,NA
15063,Washington County,PA,NA,NA,NA,56.06936416184971
15068,Westmoreland County,PA,NA,NA,10.922330097087379,NA
15106,Allegheny County,PA,NA,NA,NA,58.95953757225434
15132,Allegheny County,PA,NA,NA,28.398058252427184,NA
15147,Allegheny County,PA,NA,NA,NA,20.520231213872833
15216,Allegheny County,PA,NA,50.72992700729927,NA,NA
15227,Allegheny County,PA,95.6989247311828,NA,NA,29.76878612716763
15237,Allegheny County,PA,NA,87.04379562043796,NA,NA
15317,Washington County,PA,NA,24.635036496350367,NA,NA
15417,Fayette County,PA,NA,NA,84.46601941747572,NA
15501,Somerset County,PA,NA,NA,50.24271844660194,NA
15644,Westmoreland County,PA,NA,NA,35.92233009708738,NA
15650,Westmoreland County,PA,NA,NA,19.41747572815534,NA
15767,Jefferson County,PA,NA,54.92700729927007,NA,NA
15857,Elk County,PA,NA,NA,9.951456310679612,NA
15946,Cambria County,PA,NA,81.2043795620438,NA,NA
16063,Butler County,PA,66.12903225806451,NA,NA,NA
16127,Mercer County,PA,NA,61.861313868613145,NA,NA
16150,Mercer County,PA,NA,82.2992700729927,NA,NA
16701,McKean County,PA,NA,NA,27.669902912621357,NA
16735,McKean County,PA,NA,NA,NA,50.86705202312138
17007,Cumberland County,PA,86.02150537634408,NA,NA,NA
17022,Lancaster County,PA,59.67741935483871,NA,NA,NA
17044,Mifflin County,PA,24.731182795698924,NA,NA,NA
17046,Lebanon County,PA,NA,9.124087591240876,NA,NA
17057,Dauphin County,PA,NA,NA,NA,92.77456647398844
17090,Perry County,PA,98.38709677419355,NA,NA,NA
17356,York County,PA,23.655913978494624,NA,NA,NA
17404,York County,PA,NA,NA,15.291262135922329,NA
17522,Lancaster County,PA,3.225806451612903,NA,NA,NA
17527,Lancaster County,PA,NA,92.7007299270073,NA,NA
17543,Lancaster County,PA,NA,NA,12.62135922330097,NA
17701,Lycoming County,PA,NA,36.496350364963504,NA,NA
17728,Lycoming County,PA,92.47311827956989,NA,NA,NA
17756,Lycoming County,PA,NA,NA,34.22330097087379,NA
17857,Northumberland County,PA,NA,57.66423357664233,NA,NA
18013,Northampton County,PA,NA,32.846715328467155,NA,NA
18015,Northampton County,PA,NA,NA,NA,45.664739884393065
18018,Lehigh County,PA,NA,NA,8.495145631067961,8.959537572254336
18031,Lehigh County,PA,NA,NA,75.72815533980582,NA
18036,Lehigh County,PA,NA,NA,70.63106796116504,NA
18091,Northampton County,PA,NA,NA,NA,61.27167630057804
18103,Lehigh County,PA,80.64516129032258,NA,NA,NA
18403,Lackawanna County,PA,NA,NA,82.28155339805825,NA
18428,Pike County,PA,87.63440860215054,NA,NA,NA
18504,Lackawanna County,PA,NA,26.277372262773724,NA,NA
18518,Lackawanna County,PA,NA,73.72262773722628,NA,NA
18634,Luzerne County,PA,NA,NA,NA,52.89017341040463
18657,Wyoming County,PA,NA,NA,61.40776699029126,NA
18702,Luzerne County,PA,NA,NA,NA,6.9364161849710975
18951,Bucks County,PA,NA,NA,55.33980582524271,NA
19047,Bucks County,PA,NA,NA,18.689320388349515,28.901734104046245
19053,Bucks County,PA,NA,NA,NA,89.59537572254335
19072,Montgomery County,PA,NA,80.2919708029197,NA,NA
19124,Philadelphia County,PA,NA,8.394160583941606,NA,NA
19131,Philadelphia County,PA,7.526881720430108,NA,3.8834951456310676,NA
19140,Philadelphia County,PA,NA,NA,8.980582524271846,NA
19143,Philadelphia County,PA,NA,NA,NA,8.38150289017341
19148,Philadelphia County,PA,NA,NA,15.776699029126215,NA
19320,Chester County,PA,NA,NA,14.320388349514563,NA
19335,Chester County,PA,NA,NA,NA,35.54913294797688
19380,Chester County,PA,4.838709677419355,NA,NA,NA
19438,Montgomery County,PA,NA,NA,NA,33.81502890173411
19465,Chester County,PA,NA,87.95620437956204,NA,NA
19506,Berks County,PA,NA,NA,74.75728155339806,NA
19512,Berks County,PA,NA,NA,NA,49.71098265895954
19565,Berks County,PA,87.63440860215054,NA,NA,52.601156069364166
19601,Berks County,PA,NA,NA,16.74757281553398,NA
19606,Berks County,PA,19.892473118279568,NA,NA,NA
19607,Berks County,PA,NA,54.56204379562044,NA,NA
02816,Kent County,RI,NA,NA,50.48543689320388,NA
02895,Providence County,RI,NA,11.13138686131387,NA,NA
02903,Providence County,RI,NA,NA,NA,72.83236994219652
02908,Providence County,RI,6.989247311827956,NA,NA,NA
02910,Providence County,RI,84.40860215053763,NA,NA,NA
29006,Lexington County,SC,NA,NA,88.59223300970875,NA
29108,Newberry County,SC,NA,NA,NA,56.06936416184971
29164,Aiken County,SC,NA,NA,NA,97.39884393063583
29172,Lexington County,SC,NA,91.05839416058394,NA,NA
29206,Richland County,SC,NA,94.52554744525547,NA,NA
29223,Richland County,SC,NA,18.97810218978102,NA,NA
29301,Spartanburg County,SC,NA,26.824817518248175,NA,NA
29306,Spartanburg County,SC,NA,33.394160583941606,NA,NA
29330,Spartanburg County,SC,NA,95.98540145985402,NA,NA
29405,Charleston County,SC,NA,23.54014598540146,NA,NA
29407,Charleston County,SC,NA,NA,14.563106796116504,NA
29440,Georgetown County,SC,NA,NA,NA,30.346820809248555
29451,Charleston County,SC,NA,NA,NA,90.46242774566474
29466,Charleston County,SC,NA,NA,NA,38.15028901734104
29501,Florence County,SC,NA,27.37226277372263,NA,NA
29506,Florence County,SC,NA,41.058394160583944,NA,NA
29526,Horry County,SC,NA,33.57664233576642,12.135922330097088,NA
29541,Florence County,SC,NA,NA,NA,93.64161849710982
29615,Greenville County,SC,NA,NA,NA,51.73410404624278
29642,Pickens County,SC,NA,29.014598540145986,NA,NA
29651,Greenville County,SC,NA,NA,49.75728155339806,NA
29702,Cherokee County,SC,95.16129032258065,NA,NA,NA
29803,Aiken County,SC,NA,NA,9.70873786407767,19.36416184971098
29812,Barnwell County,SC,NA,NA,83.7378640776699,NA
29847,Edgefield County,SC,NA,92.88321167883211,NA,NA
29907,Beaufort County,SC,NA,NA,81.06796116504854,NA
57103,Minnehaha County,SD,NA,NA,NA,6.358381502890173
57105,Minnehaha County,SD,NA,67.51824817518248,46.84466019417476,NA
57106,Minnehaha County,SD,26.881720430107524,NA,7.038834951456311,NA
57110,Minnehaha County,SD,NA,47.44525547445255,NA,NA
57401,Brown County,SD,NA,14.233576642335766,8.009708737864079,12.138728323699421
57702,Pennington County,SD,NA,NA,NA,8.670520231213873
37042,Montgomery County,TN,10.75268817204301,NA,NA,NA
37091,Marshall County,TN,NA,62.04379562043796,NA,NA
37128,Rutherford County,TN,34.40860215053764,NA,NA,NA
37130,Rutherford County,TN,NA,16.605839416058394,NA,NA
37209,Davidson County,TN,NA,27.73722627737226,NA,NA
37330,Franklin County,TN,NA,61.131386861313864,NA,NA
37363,Hamilton County,TN,NA,36.86131386861314,NA,NA
37683,Johnson County,TN,NA,NA,86.40776699029125,NA
37760,Jefferson County,TN,NA,53.64963503649635,NA,NA
37774,Loudon County,TN,59.13978494623656,NA,NA,NA
37804,Blount County,TN,21.50537634408602,NA,NA,NA
37821,Cocke County,TN,NA,13.321167883211679,NA,NA
37830,Anderson County,TN,NA,NA,29.36893203883495,NA
37876,Sevier County,TN,NA,NA,59.95145631067961,NA
37931,Knox County,TN,NA,38.503649635036496,NA,NA
38024,Dyer County,TN,NA,19.525547445255476,NA,NA
38134,Shelby County,TN,NA,32.481751824817515,NA,NA
38242,Henry County,TN,NA,43.613138686131386,NA,NA
38344,Carroll County,TN,NA,NA,NA,76.878612716763
38474,Maury County,TN,NA,68.7956204379562,NA,NA
38570,Overton County,TN,NA,60.58394160583942,NA,NA
38571,Cumberland County,TN,NA,49.27007299270073,NA,NA
75009,Collin County,TX,NA,NA,NA,95.08670520231213
75022,Denton County,TX,NA,NA,NA,97.97687861271676
75041,Dallas County,TX,NA,65.14598540145985,NA,NA
75104,Dallas County,TX,NA,18.795620437956202,NA,NA
75126,Kaufman County,TX,NA,57.299270072992705,NA,NA
75134,Dallas County,TX,NA,NA,73.30097087378641,NA
75143,Henderson County,TX,NA,55.839416058394164,NA,NA
75154,Ellis County,TX,NA,NA,44.417475728155345,NA
75159,Dallas County,TX,NA,NA,77.42718446601941,NA
75209,Dallas County,TX,NA,NA,87.62135922330097,NA
75216,Dallas County,TX,NA,NA,9.223300970873787,NA
75223,Dallas County,TX,NA,76.27737226277372,NA,NA
75231,Dallas County,TX,9.67741935483871,NA,NA,NA
75240,Dallas County,TX,NA,NA,77.66990291262135,NA
75701,Smith County,TX,NA,NA,NA,5.202312138728324
75704,Smith County,TX,NA,73.90510948905109,NA,NA
75766,Cherokee County,TX,40.32258064516129,NA,NA,NA
75771,Smith County,TX,NA,NA,65.0485436893204,NA
76039,Tarrant County,TX,NA,33.02919708029197,NA,NA
76040,Tarrant County,TX,NA,42.518248175182485,NA,NA
76086,Parker County,TX,NA,NA,NA,34.68208092485549
76087,Parker County,TX,44.623655913978496,NA,NA,NA
76111,Tarrant County,TX,NA,84.30656934306569,NA,NA
76182,Tarrant County,TX,NA,NA,36.650485436893206,NA
76528,Coryell County,TX,NA,55.47445255474452,NA,NA
76542,Bell County,TX,NA,NA,NA,16.76300578034682
76901,Tom Green County,TX,NA,NA,34.46601941747573,NA
76904,Tom Green County,TX,18.817204301075268,NA,NA,NA
77005,Harris County,TX,NA,NA,93.93203883495146,NA
77024,Harris County,TX,NA,NA,42.4757281553398,NA
77031,Harris County,TX,NA,66.970802919708035,NA,NA
77034,Harris County,TX,93.01075268817203,NA,NA,NA
77042,Harris County,TX,NA,NA,69.90291262135922,NA
77047,Harris County,TX,NA,51.277372262773724,NA,NA
77055,Harris County,TX,NA,52.18978102189781,NA,NA
77070,Harris County,TX,NA,NA,NA,79.1907514450867
77071,Harris County,TX,NA,NA,NA,59.82658959537572
77076,Harris County,TX,NA,NA,66.2621359223301,NA
77084,Harris County,TX,85.48387096774194,NA,NA,NA
77086,Harris County,TX,22.58064516129032,NA,NA,NA
77090,Harris County,TX,NA,NA,58.009708737864074,NA
77304,Montgomery County,TX,NA,55.1094890510949,NA,NA
77363,Grimes County,TX,100,NA,NA,NA
77375,Harris County,TX,NA,NA,39.56310679611651,NA
77386,Montgomery County,TX,NA,NA,NA,91.32947976878613
77429,Harris County,TX,34.946236559139784,NA,NA,NA
77450,Harris County,TX,NA,NA,22.330097087378643,NA
77489,Fort Bend County,TX,74.73118279569893,NA,NA,NA
77498,Fort Bend County,TX,NA,NA,NA,54.04624277456648
77511,Brazoria County,TX,5.376344086021505,NA,NA,NA
77521,Harris County,TX,NA,NA,35.19417475728155,NA
77568,Galveston County,TX,NA,80.65693430656934,81.31067961165049,NA
77571,Harris County,TX,NA,75.18248175182481,NA,NA
77573,Galveston County,TX,NA,NA,NA,22.254335260115607
77598,Harris County,TX,NA,NA,NA,98.84393063583815
77803,Brazos County,TX,NA,22.445255474452555,NA,NA
77833,Washington County,TX,NA,41.97080291970803,NA,13.872832369942195
78045,Webb County,TX,31.72043010752688,NA,NA,NA
78046,Webb County,TX,NA,13.503649635036496,NA,NA
78240,Bexar County,TX,NA,39.5985401459854,NA,NA
78245,Bexar County,TX,NA,NA,52.42718446601942,NA
78253,Bexar County,TX,NA,NA,70.87378640776699,NA
78264,Bexar County,TX,NA,91.6058394160584,NA,NA
78521,Cameron County,TX,NA,28.284671532846716,NA,NA
78572,Hidalgo County,TX,NA,NA,56.55339805825243,NA
78573,Hidalgo County,TX,20.43010752688172,49.08759124087591,NA,NA
78582,Starr County,TX,39.247311827956985,NA,45.38834951456311,NA
78633,Williamson County,TX,NA,NA,NA,0
78634,Williamson County,TX,NA,53.46715328467153,NA,NA
78640,Hays County,TX,65.05376344086021,37.95620437956204,NA,NA
78660,Travis County,TX,NA,NA,68.93203883495146,NA
78664,Williamson County,TX,83.87096774193549,NA,NA,NA
78728,Travis County,TX,NA,70.07299270072993,NA,NA
79103,Potter County,TX,NA,87.40875912408758,NA,NA
79415,Lubbock County,TX,NA,80.1094890510949,NA,NA
79424,Lubbock County,TX,NA,21.532846715328464,NA,NA
79924,El Paso County,TX,NA,39.416058394160586,NA,NA
79928,El Paso County,TX,NA,68.61313868613139,NA,NA
79938,El Paso County,TX,NA,NA,NA,65.02890173410405
84009,Salt Lake County,UT,NA,NA,84.70873786407766,NA
84047,Salt Lake County,UT,78.49462365591397,NA,NA,NA
84116,Salt Lake County,UT,NA,23.905109489051096,NA,NA
84118,Salt Lake County,UT,NA,NA,55.09708737864077,NA
84119,Salt Lake County,UT,NA,11.678832116788321,NA,NA
84121,Salt Lake County,UT,NA,NA,NA,49.421965317919074
84321,Cache County,UT,12.903225806451612,NA,NA,NA
05403,Chittenden County,VT,NA,NA,50,NA
22203,Arlington County,VA,NA,NA,91.74757281553399,NA
22311,Alexandria city,VA,NA,NA,89.56310679611651,NA
22406,Stafford County,VA,NA,89.05109489051095,NA,NA
22560,Essex County,VA,NA,NA,NA,75.72254335260115
22701,Culpeper County,VA,NA,NA,21.11650485436893,NA
22920,Nelson County,VA,97.84946236559139,NA,NA,NA
22974,Fluvanna County,VA,NA,97.08029197080292,NA,NA
23093,Louisa County,VA,NA,NA,60.19417475728155,NA
23114,Chesterfield County,VA,NA,NA,NA,73.98843930635837
23188,James City County,VA,NA,84.67153284671532,NA,NA
23223,Henrico County,VA,NA,3.102189781021898,NA,NA
23225,Richmond city,VA,NA,NA,24.514563106796118,NA
23321,Chesapeake city,VA,NA,43.97810218978102,82.52427184466019,NA
23606,Newport News city,VA,NA,NA,31.31067961165049,NA
23669,Hampton city,VA,NA,88.32116788321169,NA,NA
23707,Portsmouth city,VA,NA,47.627737226277375,NA,NA
23805,Petersburg city,VA,NA,NA,62.62135922330098,NA
24060,Montgomery County,VA,NA,NA,NA,53.46820809248555
24073,Montgomery County,VA,NA,38.32116788321168,NA,NA
24151,Franklin County,VA,NA,66.42335766423358,53.640776699029125,NA
24219,Wise County,VA,NA,36.13138686131387,NA,NA
24266,Russell County,VA,60.752688172043015,NA,NA,NA
24416,Buena Vista city,VA,NA,NA,90.0485436893204,NA
24641,Tazewell County,VA,NA,71.16788321167883,NA,NA
98002,King County,WA,NA,NA,39.07766990291262,NA
98012,Snohomish County,WA,NA,NA,31.55339805825243,NA
98029,King County,WA,NA,NA,NA,59.2485549132948
98037,Snohomish County,WA,NA,55.47445255474452,NA,NA
98116,King County,WA,NA,99.27007299270073,NA,NA
98155,King County,WA,NA,66.05839416058394,NA,NA
98225,Whatcom County,WA,NA,NA,NA,89.88439306358381
98258,Snohomish County,WA,NA,NA,NA,55.49132947976878
98261,San Juan County,WA,NA,NA,90.53398058252428,NA
98328,Pierce County,WA,99.46236559139786,NA,NA,NA
98362,Clallam County,WA,NA,30.656934306569344,NA,29.190751445086704
98375,Pierce County,WA,NA,NA,NA,79.47976878612717
98391,Pierce County,WA,NA,NA,14.805825242718445,NA
98404,Pierce County,WA,NA,NA,45.63106796116505,NA
98499,Pierce County,WA,NA,NA,55.582524271844655,NA
98503,Thurston County,WA,NA,59.67153284671532,NA,NA
98513,Thurston County,WA,NA,64.05109489051095,86.16504854368931,NA
98569,Grays Harbor County,WA,NA,NA,NA,89.01734104046243
98611,Cowlitz County,WA,89.78494623655914,NA,NA,NA
98620,Klickitat County,WA,NA,NA,67.71844660194175,NA
98640,Pacific County,WA,NA,NA,81.55339805825243,NA
98683,Clark County,WA,NA,74.08759124087592,NA,NA
98801,Chelan County,WA,NA,NA,NA,5.491329479768786
98901,Yakima County,WA,NA,NA,NA,68.78612716763006
98902,Yakima County,WA,NA,NA,28.640776699029125,NA
98926,Kittitas County,WA,87.09677419354838,NA,NA,NA
99021,Spokane County,WA,NA,NA,NA,91.04046242774567
99022,Spokane County,WA,NA,88.6861313868613,NA,NA
99208,Spokane County,WA,NA,NA,63.59223300970874,NA
99324,Walla Walla County,WA,NA,73.17518248175182,NA,NA
99354,Benton County,WA,NA,38.13868613138686,NA,NA
20001,District of Columbia,DC,NA,16.78832116788321,NA,NA
20009,District of Columbia,DC,NA,NA,NA,68.20809248554913
20017,District of Columbia,DC,NA,NA,NA,98.55491329479769
20019,District of Columbia,DC,3.763440860215054,NA,NA,NA
25276,Roane County,WV,NA,47.81021897810219,NA,NA
25302,Kanawha County,WV,NA,NA,58.7378640776699,NA
25430,Jefferson County,WV,NA,60.03649635036496,NA,NA
25526,Putnam County,WV,50,NA,NA,NA
25530,Wayne County,WV,NA,90.14598540145985,NA,NA
25571,Lincoln County,WV,NA,99.08759124087592,NA,NA
25670,Mingo County,WV,NA,NA,78.39805825242718,NA
25701,Cabell County,WV,NA,NA,NA,26.300578034682083
25704,Wayne County,WV,NA,75.72992700729927,NA,NA
25705,Cabell County,WV,NA,NA,23.78640776699029,NA
26003,Ohio County,WV,11.827956989247312,5.656934306569343,NA,NA
26155,Wetzel County,WV,NA,70.25547445255475,NA,NA
26330,Harrison County,WV,NA,40.693430656934304,NA,NA
26416,Barbour County,WV,77.95698924731182,NA,NA,NA
26554,Marion County,WV,NA,4.014598540145985,2.4271844660194173,NA
53022,Washington County,WI,NA,NA,88.83495145631069,NA
53081,Sheboygan County,WI,NA,NA,NA,70.23121387283237
53103,Waukesha County,WI,NA,93.06569343065694,NA,NA
53115,Walworth County,WI,40.86021505376344,NA,NA,NA
53144,Kenosha County,WI,NA,57.846715328467155,NA,NA
53149,Waukesha County,WI,NA,61.67883211678832,NA,NA
53151,Waukesha County,WI,NA,NA,86.89320388349515,NA
53158,Kenosha County,WI,37.634408602150536,NA,NA,NA
53172,Milwaukee County,WI,NA,NA,42.961165048543684,33.23699421965318
53182,Racine County,WI,NA,78.28467153284672,NA,NA
53202,Milwaukee County,WI,NA,NA,76.45631067961165,NA
53205,Milwaukee County,WI,NA,NA,78.64077669902912,NA
53207,Milwaukee County,WI,NA,NA,NA,26.589595375722542
53209,Milwaukee County,WI,NA,28.467153284671532,NA,NA
53221,Milwaukee County,WI,NA,15.328467153284672,25.24271844660194,NA
53223,Milwaukee County,WI,NA,NA,11.893203883495145,NA
53511,Rock County,WI,NA,NA,NA,0.2890173410404624
53528,Dane County,WI,NA,NA,85.92233009708737,NA
53538,Jefferson County,WI,NA,45.25547445255474,NA,NA
53546,Rock County,WI,NA,14.051094890510948,NA,NA
53549,Jefferson County,WI,NA,83.75912408759125,NA,61.5606936416185
53555,Columbia County,WI,NA,97.99270072992701,NA,NA
53575,Dane County,WI,NA,NA,71.84466019417476,NA
53590,Dane County,WI,44.086021505376344,34.306569343065696,NA,NA
53704,Dane County,WI,NA,NA,NA,37.57225433526011
53705,Dane County,WI,NA,69.8905109489051,NA,NA
53948,Juneau County,WI,87.63440860215054,NA,NA,NA
54017,St. Croix County,WI,NA,NA,40.53398058252427,NA
54022,Pierce County,WI,NA,NA,49.029126213592235,NA
54130,Outagamie County,WI,NA,52.18978102189781,NA,NA
54140,Outagamie County,WI,NA,NA,99.51456310679612,NA
54220,Manitowoc County,WI,NA,NA,NA,47.687861271676304
54474,Marathon County,WI,NA,NA,99.75728155339806,NA
54601,La Crosse County,WI,NA,7.116788321167883,1.9417475728155338,NA
54603,La Crosse County,WI,NA,NA,62.13592233009708,NA
54751,Dunn County,WI,NA,NA,NA,61.849710982658955
54848,Rusk County,WI,81.18279569892472,NA,88.3495145631068,NA
54880,Douglas County,WI,NA,12.773722627737227,4.368932038834951,NA
54914,Outagamie County,WI,29.56989247311828,18.43065693430657,NA,NA
54937,Fond du Lac County,WI,NA,40.14598540145985,NA,NA
82007,Laramie County,WY,NA,54.01459854014598,NA,NA
82009,Laramie County,WY,NA,83.029197080291965,NA,NA
82401,Washakie County,WY,NA,93.24817518248175,NA,NA
82414,Park County,WY,NA,NA,NA,39.884393063583815
82604,Natrona County,WY,NA,70.8029197080292,NA,NA
