ZipCode,county,state,Adult,Retirement,Geriatric
35007,Shelby County,AL,43.30357142857143,NA,NA
35043,Shelby County,AL,NA,93.76484560570071,NA
35080,Shelby County,AL,76.4030612244898,NA,NA
35085,Chilton County,AL,NA,81.41330166270784,NA
35121,Blount County,AL,NA,43.05225653206651,NA
35150,Talladega County,AL,NA,51.365795724465556,NA
35160,Talladega County,AL,NA,38.00475059382423,NA
35208,Jefferson County,AL,NA,66.44893111638956,NA
35212,Jefferson County,AL,NA,81.82897862232778,NA
35216,Jefferson County,AL,46.36479591836735,NA,NA
35235,Jefferson County,AL,NA,74.04988123515439,NA
35244,Jefferson County,AL,NA,34.14489311163896,NA
35406,Tuscaloosa County,AL,85.58673469387756,NA,NA
35504,Walker County,AL,61.798469387755105,NA,NA
35592,Lamar County,AL,NA,77.85035629453681,NA
35613,Limestone County,AL,NA,39.96437054631829,NA
35630,Lauderdale County,AL,NA,30.04750593824228,NA
35633,Lauderdale County,AL,47.704081632653065,NA,NA
35645,Lauderdale County,AL,NA,89.01425178147268,NA
35650,Lawrence County,AL,NA,35.926365795724465,NA
35652,Lauderdale County,AL,NA,81.353919239905,NA
35661,Colbert County,AL,57.14285714285714,NA,NA
35674,Colbert County,AL,28.8265306122449,NA,NA
35748,Madison County,AL,79.46428571428571,NA,NA
35749,Madison County,AL,NA,44.596199524940616,NA
35750,Madison County,AL,NA,49.7624703087886,NA
35763,Madison County,AL,NA,49.049881235154395,NA
35801,Madison County,AL,62.5,NA,NA
35805,Madison County,AL,36.98979591836735,NA,NA
35806,Madison County,AL,NA,52.434679334916865,NA
35901,Etowah County,AL,NA,62.47030878859857,NA
35903,Etowah County,AL,46.93877551020408,23.871733966745843,NA
35904,Etowah County,AL,NA,50.475059382422806,NA
35967,DeKalb County,AL,NA,84.61995249406175,NA
35976,Marshall County,AL,NA,29.98812351543943,NA
36027,Barbour County,AL,31.760204081632654,51.12826603325416,NA
36037,Butler County,AL,48.97959183673469,55.04750593824228,NA
36054,Elmore County,AL,58.03571428571429,NA,78.4786641929499
36066,Autauga County,AL,45.40816326530612,NA,NA
36067,Autauga County,AL,29.209183673469386,NA,NA
36083,Macon County,AL,NA,79.39429928741093,NA
36092,Elmore County,AL,NA,75.65320665083135,NA
36116,Montgomery County,AL,16.83673469387755,NA,NA
36203,Calhoun County,AL,41.83673469387755,NA,NA
36312,Houston County,AL,75.7015306122449,79.09738717339667,NA
36330,Coffee County,AL,NA,NA,44.15584415584416
36360,Dale County,AL,39.54081632653062,NA,NA
36467,Covington County,AL,NA,64.01425178147268,NA
36502,Escambia County,AL,NA,67.39904988123516,NA
36530,Baldwin County,AL,NA,84.08551068883611,NA
36532,Baldwin County,AL,NA,18.586698337292162,NA
36535,Baldwin County,AL,NA,16.092636579572446,NA
36551,Baldwin County,AL,69.7704081632653,94.77434679334917,NA
36613,Mobile County,AL,90.43367346938776,NA,NA
36695,Mobile County,AL,81.44132653061224,NA,NA
36701,Dallas County,AL,22.193877551020407,NA,NA
36784,Clarke County,AL,80.42091836734694,NA,NA
36830,Lee County,AL,NA,51.72209026128266,NA
36832,Lee County,AL,69.19642857142857,NA,NA
36854,Chambers County,AL,NA,56.41330166270784,NA
36874,Lee County,AL,NA,NA,94.43413729128015
36875,Russell County,AL,NA,96.61520190023754,NA
99504,Anchorage Municipality,AK,NA,34.91686460807601,NA
99507,Anchorage Municipality,AK,NA,42.695961995249405,NA
99603,Kenai Peninsula Borough,AK,NA,NA,65.3061224489796
99623,,AK,73.85204081632652,NA,NA
99645,Matanuska-Susitna Borough,AK,47.25765306122449,NA,NA
99669,Kenai Peninsula Borough,AK,64.15816326530613,48.27790973871734,NA
99709,Fairbanks North Star Borough,AK,56.18622448979592,NA,NA
85006,Maricopa County,AZ,64.73214285714286,NA,NA
85008,Maricopa County,AZ,NA,68.94299287410927,NA
85009,Maricopa County,AZ,35.33163265306122,NA,NA
85015,Maricopa County,AZ,15.369897959183673,73.33729216152018,NA
85019,Maricopa County,AZ,30.994897959183675,NA,NA
85031,Maricopa County,AZ,42.66581632653062,NA,NA
85032,Maricopa County,AZ,NA,88.71733966745843,NA
85033,Maricopa County,AZ,NA,NA,63.821892393320965
85035,Maricopa County,AZ,13.71173469387755,NA,NA
85037,Maricopa County,AZ,20.471938775510203,NA,NA
85042,Maricopa County,AZ,67.41071428571429,NA,NA
85048,Maricopa County,AZ,NA,56.82897862232779,NA
85053,Maricopa County,AZ,38.13775510204081,NA,NA
85086,Maricopa County,AZ,NA,33.90736342042756,NA
85118,Pinal County,AZ,NA,58.313539192399055,NA
85120,Pinal County,AZ,NA,NA,60.85343228200371
85204,Maricopa County,AZ,NA,22.268408551068884,NA
85205,Maricopa County,AZ,22.385204081632654,19.655581947743467,NA
85209,Maricopa County,AZ,NA,69.12114014251782,NA
85213,Maricopa County,AZ,NA,NA,60.48237476808905
85251,Maricopa County,AZ,NA,74.7624703087886,NA
85253,Maricopa County,AZ,79.97448979591837,NA,NA
85297,Maricopa County,AZ,78.69897959183673,NA,NA
85298,Maricopa County,AZ,62.691326530612244,NA,NA
85308,Maricopa County,AZ,NA,NA,30.983302411873844
85326,Maricopa County,AZ,NA,35.80760095011877,NA
85331,Maricopa County,AZ,NA,85.2731591448931,NA
85344,La Paz County,AZ,61.670918367346935,NA,NA
85351,Maricopa County,AZ,NA,7.4821852731591445,NA
85364,Yuma County,AZ,NA,2.137767220902613,NA
85379,Maricopa County,AZ,70.40816326530613,NA,NA
85395,Maricopa County,AZ,NA,37.94536817102138,NA
85629,Pima County,AZ,NA,52.13776722090261,NA
85634,Pima County,AZ,NA,23.21852731591449,NA
85635,Cochise County,AZ,50.06377551020408,NA,NA
85641,Pima County,AZ,NA,65.14251781472684,NA
85705,Pima County,AZ,NA,29.275534441805224,NA
85706,Pima County,AZ,2.4872448979591835,NA,NA
85710,Pima County,AZ,NA,11.817102137767222,NA
85711,Pima County,AZ,7.270408163265306,39.84560570071259,NA
85713,Pima County,AZ,23.40561224489796,32.66033254156769,NA
85730,Pima County,AZ,NA,54.09738717339667,NA
85746,Pima County,AZ,10.459183673469388,NA,NA
85901,Navajo County,AZ,NA,21.91211401425178,NA
86004,Coconino County,AZ,22.70408163265306,NA,NA
86045,Coconino County,AZ,NA,90.49881235154395,NA
86046,Coconino County,AZ,88.9030612244898,NA,NA
86301,Yavapai County,AZ,NA,NA,14.285714285714285
86305,Yavapai County,AZ,NA,NA,50.83487940630798
86314,Yavapai County,AZ,13.903061224489797,NA,NA
86322,Yavapai County,AZ,NA,55.52256532066509,NA
86323,Yavapai County,AZ,NA,78.85985748218528,NA
86334,Yavapai County,AZ,95.21683673469387,NA,NA
86351,Yavapai County,AZ,NA,88.42042755344418,90.9090909090909
86409,Mohave County,AZ,65.75255102040816,NA,NA
86429,Mohave County,AZ,NA,77.61282660332542,NA
86440,Mohave County,AZ,NA,NA,96.84601113172542
71603,Jefferson County,AR,NA,16.6270783847981,NA
71639,Desha County,AR,NA,84.798099762470315,85.52875695732838
71671,Bradley County,AR,87.11734693877551,NA,NA
71701,Ouachita County,AR,98.2780612244898,NA,NA
71801,Hempstead County,AR,NA,71.25890736342043,NA
71909,Garland County,AR,NA,26.90023752969121,NA
71913,Garland County,AR,83.29081632653062,NA,NA
72007,Lonoke County,AR,NA,80.64133016627079,NA
72010,White County,AR,88.64795918367348,NA,NA
72023,Lonoke County,AR,52.10459183673469,NA,43.042671614100186
72034,Faulkner County,AR,43.11224489795919,NA,NA
72104,Hot Spring County,AR,49.04336734693878,NA,NA
72112,Jackson County,AR,NA,97.38717339667458,NA
72116,Pulaski County,AR,NA,34.679334916864605,NA
72117,Pulaski County,AR,NA,69.77434679334917,NA
72120,Pulaski County,AR,65.9438775510204,NA,NA
72205,Pulaski County,AR,70.72704081632652,NA,NA
72211,Pulaski County,AR,NA,71.02137767220903,NA
72396,Cross County,AR,92.3469387755102,NA,NA
72401,Craighead County,AR,NA,8.432304038004752,NA
72404,Craighead County,AR,42.3469387755102,NA,NA
72450,Greene County,AR,43.81377551020408,19.358669833729216,NA
72472,Poinsett County,AR,74.74489795918367,NA,NA
72616,Carroll County,AR,79.33673469387756,NA,NA
72703,Washington County,AR,NA,NA,53.432282003710576
72712,Benton County,AR,69.26020408163265,66.270783847981,NA
72730,Washington County,AR,NA,NA,93.69202226345084
72753,Washington County,AR,84.43877551020408,NA,NA
72756,Benton County,AR,51.849489795918366,NA,NA
72758,Benton County,AR,86.41581632653062,NA,NA
72764,Washington County,AR,NA,48.39667458432304,NA
72801,Pope County,AR,74.6811224489796,NA,NA
72802,Pope County,AR,NA,57.42280285035629,NA
72833,Yell County,AR,NA,99.2874109263658,NA
90016,Los Angeles County,CA,NA,17.102137767220903,NA
90024,Los Angeles County,CA,NA,48.15914489311164,NA
90025,Los Angeles County,CA,NA,NA,8.719851576994433
90026,Los Angeles County,CA,NA,33.19477434679335,56.400742115027825
90033,Los Angeles County,CA,NA,NA,40.25974025974026
90048,Los Angeles County,CA,NA,52.850356294536816,NA
90064,Los Angeles County,CA,NA,42.1021377672209,NA
90232,Los Angeles County,CA,91.13520408163265,NA,NA
90247,Los Angeles County,CA,NA,42.39904988123516,NA
90249,Los Angeles County,CA,73.5969387755102,NA,NA
90250,Los Angeles County,CA,NA,19.061757719714965,NA
90262,Los Angeles County,CA,NA,45.190023752969125,NA
90266,Los Angeles County,CA,54.08163265306123,NA,NA
90274,Los Angeles County,CA,NA,78.80047505938242,NA
90275,Los Angeles County,CA,NA,NA,7.235621521335807
90278,Los Angeles County,CA,52.806122448979586,75.3562945368171,NA
90280,Los Angeles County,CA,NA,NA,38.03339517625232
90301,Los Angeles County,CA,NA,67.81472684085512,NA
90302,Los Angeles County,CA,NA,73.2185273159145,NA
90305,Los Angeles County,CA,NA,77.37529691211401,NA
90405,Los Angeles County,CA,78.8265306122449,NA,NA
90501,Los Angeles County,CA,NA,76.84085510688836,NA
90503,Los Angeles County,CA,NA,36.342042755344416,NA
90505,Los Angeles County,CA,50.255102040816325,NA,NA
90602,Los Angeles County,CA,NA,NA,94.06307977736549
90603,Los Angeles County,CA,NA,44.23990498812351,40.816326530612244
90605,Los Angeles County,CA,NA,64.66745843230403,NA
90606,Los Angeles County,CA,NA,51.60332541567696,NA
90620,Orange County,CA,41.517857142857146,NA,NA
90630,Orange County,CA,40.24234693877551,NA,NA
90631,Orange County,CA,59.056122448979586,NA,NA
90640,Los Angeles County,CA,28.57142857142857,NA,NA
90703,Los Angeles County,CA,NA,28.26603325415677,NA
90712,Los Angeles County,CA,NA,41.80522565320665,NA
90713,Los Angeles County,CA,58.92857142857143,NA,NA
90744,Los Angeles County,CA,NA,50.53444180522565,NA
90802,Los Angeles County,CA,82.71683673469387,NA,NA
90805,Los Angeles County,CA,41.07142857142857,NA,NA
90806,Los Angeles County,CA,NA,NA,91.28014842300557
90808,Los Angeles County,CA,NA,34.857482185273156,33.024118738404454
91103,Los Angeles County,CA,66.45408163265306,NA,NA
91214,Los Angeles County,CA,73.2780612244898,NA,NA
91320,Ventura County,CA,NA,75.05938242280284,NA
91324,Los Angeles County,CA,NA,NA,74.02597402597402
91325,Los Angeles County,CA,NA,NA,51.39146567717996
91331,Los Angeles County,CA,9.693877551020408,NA,NA
91340,Los Angeles County,CA,55.931122448979586,NA,NA
91344,Los Angeles County,CA,37.308673469387756,NA,NA
91360,Ventura County,CA,NA,41.211401425178146,NA
91387,Los Angeles County,CA,67.09183673469387,33.8479809976247,NA
91406,Los Angeles County,CA,NA,33.07600950118765,NA
91706,Los Angeles County,CA,NA,NA,55.473098330241186
91709,San Bernardino County,CA,57.90816326530612,NA,NA
91737,San Bernardino County,CA,NA,75.8313539192399,NA
91739,San Bernardino County,CA,NA,55.166270783847985,NA
91745,Los Angeles County,CA,NA,37.826603325415675,NA
91748,Los Angeles County,CA,NA,52.13776722090261,NA
91765,Los Angeles County,CA,NA,NA,50.46382189239333
91766,Los Angeles County,CA,NA,NA,29.12801484230056
91767,Los Angeles County,CA,32.6530612244898,NA,NA
91776,Los Angeles County,CA,NA,NA,50.09276437847866
91789,Los Angeles County,CA,NA,NA,48.608534322820034
91790,Los Angeles County,CA,NA,72.8622327790974,NA
91910,San Diego County,CA,NA,25.356294536817103,NA
91911,San Diego County,CA,NA,12.826603325415679,NA
92009,San Diego County,CA,NA,67.04275534441805,NA
92011,San Diego County,CA,NA,95.36817102137766,NA
92024,San Diego County,CA,NA,68.40855106888361,NA
92025,San Diego County,CA,NA,44.833729216152015,NA
92026,San Diego County,CA,47.44897959183674,40.20190023752969,NA
92065,San Diego County,CA,41.517857142857146,NA,NA
92067,San Diego County,CA,NA,97.68408551068883,NA
92071,San Diego County,CA,20.535714285714285,NA,NA
92081,San Diego County,CA,NA,61.40142517814727,NA
92083,San Diego County,CA,NA,90.43942992874109,NA
92101,San Diego County,CA,NA,7.304038004750593,NA
92103,San Diego County,CA,NA,40.558194774346795,NA
92111,San Diego County,CA,NA,43.46793349168646,NA
92124,San Diego County,CA,NA,66.21140142517815,NA
92126,San Diego County,CA,NA,27.43467933491687,NA
92129,San Diego County,CA,50,NA,NA
92201,Riverside County,CA,NA,NA,22.448979591836736
92203,Riverside County,CA,35.39540816326531,75.17814726840855,NA
92211,Riverside County,CA,NA,6.472684085510688,NA
92225,Riverside County,CA,NA,74.34679334916865,NA
92234,Riverside County,CA,11.862244897959185,57.18527315914489,NA
92240,Riverside County,CA,NA,31.294536817102138,NA
92241,Riverside County,CA,91.96428571428571,NA,NA
92253,Riverside County,CA,37.37244897959184,6.828978622327791,NA
92260,Riverside County,CA,NA,94.35866983372921,1.1131725417439702
92262,Riverside County,CA,NA,NA,69.20222634508349
92264,Riverside County,CA,NA,NA,46.567717996289424
92270,Riverside County,CA,NA,NA,2.0408163265306123
92276,Riverside County,CA,94.00510204081633,NA,NA
92284,San Bernardino County,CA,NA,55.28503562945368,NA
92308,San Bernardino County,CA,NA,21.08076009501188,NA
92311,San Bernardino County,CA,29.71938775510204,NA,NA
92376,San Bernardino County,CA,NA,11.63895486935867,NA
92395,San Bernardino County,CA,22.066326530612244,NA,NA
92399,San Bernardino County,CA,24.362244897959183,NA,NA
92407,San Bernardino County,CA,41.3265306122449,NA,NA
92410,San Bernardino County,CA,NA,25.237529691211403,NA
92562,Riverside County,CA,67.15561224489795,NA,NA
92563,Riverside County,CA,26.53061224489796,34.56057007125891,NA
92591,Riverside County,CA,40.433673469387756,NA,NA
92592,Riverside County,CA,NA,22.14964370546318,NA
92595,Riverside County,CA,63.71173469387755,NA,NA
92614,Orange County,CA,NA,54.809976247030875,NA
92647,Orange County,CA,17.602040816326532,15.736342042755345,NA
92648,Orange County,CA,NA,90.67695961995248,NA
92651,Orange County,CA,NA,38.836104513064136,NA
92660,Orange County,CA,52.295918367346935,NA,NA
92677,Orange County,CA,NA,7.660332541567697,NA
92683,Orange County,CA,NA,14.608076009501186,NA
92688,Orange County,CA,30.038265306122447,NA,NA
92691,Orange County,CA,43.941326530612244,NA,NA
92692,Orange County,CA,NA,18.40855106888361,NA
92707,Orange County,CA,34.94897959183674,NA,NA
92708,Orange County,CA,29.464285714285715,NA,NA
92802,Orange County,CA,NA,NA,67.3469387755102
92807,Orange County,CA,75.12755102040816,NA,NA
92821,Orange County,CA,NA,71.97149643705463,NA
92831,Orange County,CA,NA,67.39904988123516,NA
92833,Orange County,CA,NA,24.584323040380045,NA
92841,Orange County,CA,NA,80.87885985748218,NA
92866,Orange County,CA,74.42602040816327,NA,NA
92869,Orange County,CA,52.35969387755102,NA,NA
92879,Riverside County,CA,NA,48.51543942992874,NA
92880,Riverside County,CA,46.93877551020408,NA,NA
92882,Riverside County,CA,23.46938775510204,NA,NA
92886,Orange County,CA,24.2984693877551,NA,NA
92887,Orange County,CA,64.79591836734694,NA,NA
93001,Ventura County,CA,NA,24.109263657957243,NA
93010,Ventura County,CA,NA,19.774346793349167,8.905380333951761
93021,Ventura County,CA,NA,42.220902612826606,75.51020408163265
93033,Ventura County,CA,9.502551020408163,NA,NA
93036,Ventura County,CA,NA,42.280285035629454,NA
93041,Ventura County,CA,80.10204081632652,NA,NA
93060,Ventura County,CA,29.846938775510207,NA,NA
93065,Ventura County,CA,12.882653061224488,15.02375296912114,NA
93105,Santa Barbara County,CA,84.11989795918367,NA,55.65862708719852
93110,Santa Barbara County,CA,NA,80.76009501187649,NA
93210,Fresno County,CA,NA,87.41092636579573,NA
93268,Kern County,CA,95.1530612244898,80.34441805225653,NA
93274,Tulare County,CA,NA,13.479809976247031,NA
93277,Tulare County,CA,NA,NA,26.716141001855288
93286,Tulare County,CA,88.71173469387756,NA,NA
93305,Kern County,CA,64.6045918367347,NA,NA
93306,Kern County,CA,NA,32.719714964370546,NA
93308,Kern County,CA,NA,24.346793349168646,NA
93312,Kern County,CA,31.441326530612244,NA,NA
93436,Santa Barbara County,CA,13.329081632653061,NA,NA
93442,San Luis Obispo County,CA,NA,72.38717339667458,NA
93455,Santa Barbara County,CA,NA,57.779097387173394,NA
93465,San Luis Obispo County,CA,NA,83.0166270783848,NA
93550,Los Angeles County,CA,53.826530612244895,NA,NA
93561,Kern County,CA,NA,45.24940617577197,NA
93611,Fresno County,CA,75.19132653061224,61.87648456057006,NA
93619,Fresno County,CA,NA,34.38242280285036,NA
93622,Fresno County,CA,94.26020408163265,NA,NA
93635,Merced County,CA,32.39795918367347,NA,NA
93728,Fresno County,CA,68.75,NA,NA
93930,Monterey County,CA,NA,83.9667458432304,NA
94014,San Mateo County,CA,NA,21.73396674584323,NA
94022,Santa Clara County,CA,NA,71.37767220902613,NA
94028,San Mateo County,CA,NA,88.83610451306413,NA
94030,San Mateo County,CA,93.81377551020408,NA,NA
94040,Santa Clara County,CA,68.49489795918367,NA,NA
94044,San Mateo County,CA,45.025510204081634,NA,NA
94066,San Mateo County,CA,66.00765306122449,NA,NA
94070,San Mateo County,CA,NA,58.4916864608076,NA
94105,San Francisco County,CA,91.70918367346938,NA,NA
94110,San Francisco County,CA,NA,NA,54.73098330241187
94114,San Francisco County,CA,92.28316326530613,NA,NA
94115,San Francisco County,CA,40.56122448979592,63.12351543942994,NA
94116,San Francisco County,CA,NA,30.581947743467936,NA
94122,San Francisco County,CA,NA,49.524940617577194,NA
94124,San Francisco County,CA,NA,NA,44.89795918367347
94133,San Francisco County,CA,NA,38.836104513064136,97.77365491651206
94303,San Mateo County,CA,NA,22.327790973871732,NA
94401,San Mateo County,CA,69.0688775510204,NA,NA
94501,Alameda County,CA,NA,NA,20.77922077922078
94505,Contra Costa County,CA,98.53316326530613,NA,NA
94510,Solano County,CA,NA,NA,64.7495361781076
94513,Contra Costa County,CA,NA,17.933491686460805,24.489795918367346
94519,Contra Costa County,CA,84.63010204081633,NA,NA
94533,Solano County,CA,18.558673469387756,NA,NA
94539,Alameda County,CA,NA,NA,36.178107606679035
94541,Alameda County,CA,NA,NA,39.888682745825605
94553,Contra Costa County,CA,34.375,NA,NA
94558,Napa County,CA,NA,47.387173396674584,2.782931354359926
94559,Napa County,CA,54.46428571428571,NA,NA
94563,Contra Costa County,CA,80.2295918367347,NA,NA
94564,Contra Costa County,CA,NA,57.482185273159146,NA
94565,Contra Costa County,CA,17.346938775510203,5.581947743467933,NA
94568,Alameda County,CA,NA,93.17102137767222,NA
94571,Solano County,CA,NA,NA,82.00371057513914
94580,Alameda County,CA,NA,56.888361045130644,NA
94582,Contra Costa County,CA,60.71428571428571,NA,NA
94587,Alameda County,CA,29.017857142857146,NA,NA
94598,Contra Costa County,CA,NA,95.30878859857482,NA
94601,Alameda County,CA,NA,31.76959619952494,NA
94605,Alameda County,CA,NA,17.399049881235154,NA
94702,Alameda County,CA,54.91071428571429,84.67933491686462,NA
94709,Alameda County,CA,NA,92.81472684085512,NA
94901,Marin County,CA,73.72448979591837,NA,NA
94928,Sonoma County,CA,53.380102040816325,NA,NA
94931,Sonoma County,CA,NA,90.38004750593825,NA
94949,Marin County,CA,72.06632653061224,NA,58.070500927643785
94952,Sonoma County,CA,87.1811224489796,31.947743467933492,44.526901669758814
95020,Santa Clara County,CA,26.403061224489793,25.83135391923991,NA
95046,Santa Clara County,CA,NA,98.63420427553444,NA
95050,Santa Clara County,CA,NA,NA,47.30983302411874
95060,Santa Cruz County,CA,NA,40.85510688836104,NA
95076,Santa Cruz County,CA,NA,NA,27.82931354359926
95112,Santa Clara County,CA,NA,NA,49.90723562152134
95118,Santa Clara County,CA,54.20918367346938,NA,NA
95126,Santa Clara County,CA,56.69642857142857,NA,NA
95128,Santa Clara County,CA,29.464285714285715,NA,NA
95138,Santa Clara County,CA,83.86479591836735,NA,NA
95148,Santa Clara County,CA,NA,35.86698337292161,NA
95205,San Joaquin County,CA,NA,74.8812351543943,NA
95206,San Joaquin County,CA,NA,54.86935866983374,NA
95207,San Joaquin County,CA,NA,NA,41.00185528756957
95209,San Joaquin County,CA,68.30357142857143,NA,NA
95223,Calaveras County,CA,NA,83.78859857482185,NA
95228,Calaveras County,CA,NA,75.77197149643705,NA
95240,San Joaquin County,CA,13.26530612244898,69.18052256532067,NA
95242,San Joaquin County,CA,59.566326530612244,NA,NA
95247,Calaveras County,CA,NA,80.52256532066508,NA
95307,Stanislaus County,CA,25.892857142857146,69.41805225653206,NA
95336,San Joaquin County,CA,23.91581632653061,NA,NA
95354,Stanislaus County,CA,NA,76.7814726840855,NA
95355,Stanislaus County,CA,26.84948979591837,32.18527315914489,NA
95357,Stanislaus County,CA,78.18877551020408,NA,NA
95370,Tuolumne County,CA,NA,2.375296912114014,NA
95380,Stanislaus County,CA,NA,14.90498812351544,NA
95382,Stanislaus County,CA,20.089285714285715,NA,NA
95389,Mariposa County,CA,NA,94.06175771971496,NA
95403,Sonoma County,CA,NA,33.07600950118765,NA
95404,Sonoma County,CA,NA,22.090261282660332,NA
95422,Lake County,CA,NA,NA,66.23376623376623
95425,Sonoma County,CA,88.26530612244898,NA,NA
95437,Mendocino County,CA,65.24234693877551,NA,NA
95472,Sonoma County,CA,74.87244897959184,NA,NA
95482,Mendocino County,CA,NA,19.95249406175772,NA
95490,Mendocino County,CA,NA,90.55819477434679,54.35992578849722
95521,Humboldt County,CA,NA,73.39667458432304,NA
95603,Placer County,CA,59.375,NA,NA
95619,El Dorado County,CA,93.62244897959184,NA,NA
95620,Solano County,CA,NA,83.1353919239905,NA
95623,El Dorado County,CA,NA,82.48218527315915,NA
95632,Sacramento County,CA,NA,35.15439429928741,NA
95660,Sacramento County,CA,NA,77.4940617577197,NA
95667,El Dorado County,CA,NA,20.54631828978622,NA
95670,Sacramento County,CA,NA,26.90023752969121,NA
95672,El Dorado County,CA,96.30102040816327,NA,NA
95682,El Dorado County,CA,50.44642857142857,NA,NA
95688,Solano County,CA,57.46173469387755,NA,NA
95726,El Dorado County,CA,NA,NA,50.649350649350644
95746,Placer County,CA,89.03061224489795,NA,NA
95747,Placer County,CA,33.22704081632653,NA,NA
95762,El Dorado County,CA,NA,31.116389548693586,NA
95765,Placer County,CA,85.0765306122449,NA,NA
95818,Sacramento County,CA,NA,65.14251781472684,NA
95820,Sacramento County,CA,NA,33.43230403800475,NA
95822,Sacramento County,CA,63.07397959183674,80.58194774346794,NA
95825,Sacramento County,CA,NA,58.076009501187656,NA
95826,Sacramento County,CA,NA,48.15914489311164,NA
95831,Sacramento County,CA,NA,72.80285035629454,NA
95833,Sacramento County,CA,NA,NA,64.0074211502783
95834,Sacramento County,CA,62.88265306122449,NA,NA
95835,Sacramento County,CA,NA,60.51068883610451,NA
95926,Butte County,CA,28.061224489795915,NA,31.3543599257885
95928,Butte County,CA,27.933673469387756,NA,NA
95932,Colusa County,CA,90.24234693877551,NA,NA
95945,Nevada County,CA,49.61734693877551,NA,NA
95959,Nevada County,CA,NA,41.270783847980994,55.10204081632652
95961,Yuba County,CA,37.18112244897959,NA,NA
95966,Butte County,CA,NA,6.235154394299287,NA
95969,Butte County,CA,NA,29.216152019002372,NA
95993,Sutter County,CA,39.285714285714285,NA,NA
96021,Tehama County,CA,NA,49.465558194774346,NA
96101,Modoc County,CA,94.51530612244898,NA,NA
96150,El Dorado County,CA,NA,58.55106888361045,NA
96161,Nevada County,CA,83.09948979591837,NA,NA
80003,Jefferson County,CO,NA,46.97149643705463,NA
80007,Jefferson County,CO,NA,76.72209026128266,NA
80010,Arapahoe County,CO,NA,37.173396674584325,58.25602968460112
80012,Arapahoe County,CO,NA,NA,16.14100185528757
80013,Arapahoe County,CO,8.099489795918368,NA,NA
80015,Arapahoe County,CO,NA,16.21140142517815,NA
80018,Arapahoe County,CO,NA,96.43705463182897,NA
80020,Broomfield County,CO,NA,28.028503562945367,NA
80023,Broomfield County,CO,NA,70.54631828978623,NA
80033,Jefferson County,CO,NA,53.38479809976246,NA
80108,Douglas County,CO,NA,NA,89.23933209647495
80109,Douglas County,CO,83.3545918367347,NA,NA
80112,Arapahoe County,CO,NA,48.09976247030879,NA
80122,Arapahoe County,CO,46.045918367346935,NA,NA
80124,Douglas County,CO,56.88775510204081,NA,NA
80129,Douglas County,CO,66.90051020408163,NA,NA
80134,Douglas County,CO,20.982142857142858,30.997624703087883,81.07606679035251
80204,Denver County,CO,NA,55.52256532066509,NA
80205,Denver County,CO,NA,28.56294536817102,NA
80222,Denver County,CO,34.566326530612244,72.14964370546319,NA
80228,Jefferson County,CO,46.875,NA,NA
80234,Adams County,CO,54.5280612244898,NA,NA
80237,Denver County,CO,65.17857142857143,NA,NA
80249,Denver County,CO,29.65561224489796,NA,NA
80260,Adams County,CO,38.775510204081634,52.434679334916865,NA
80501,Boulder County,CO,NA,86.16389548693587,NA
80503,Boulder County,CO,NA,NA,41.55844155844156
80517,Larimer County,CO,NA,70.96199524940617,NA
80525,Larimer County,CO,NA,8.135391923990499,NA
80528,Larimer County,CO,NA,64.13301662707839,NA
80538,Larimer County,CO,NA,31.59144893111639,NA
80601,Adams County,CO,NA,32.779097387173394,NA
80602,Adams County,CO,38.96683673469388,NA,NA
80621,Weld County,CO,NA,70.84323040380048,NA
80634,Weld County,CO,2.423469387755102,NA,NA
80863,Teller County,CO,NA,NA,96.47495361781077
80917,El Paso County,CO,53.63520408163265,NA,NA
80920,El Paso County,CO,50.51020408163265,NA,NA
80921,El Paso County,CO,NA,NA,93.87755102040816
81003,Pueblo County,CO,28.69897959183674,NA,NA
81004,Pueblo County,CO,NA,57.779097387173394,NA
81005,Pueblo County,CO,NA,77.79097387173397,31.910946196660483
81007,Pueblo County,CO,37.81887755102041,NA,NA
81101,Alamosa County,CO,35.7780612244898,NA,68.83116883116884
81144,Rio Grande County,CO,NA,NA,67.71799628942486
81211,Chaffee County,CO,NA,NA,83.48794063079778
81212,Fremont County,CO,32.525510204081634,NA,NA
81240,Fremont County,CO,NA,96.31828978622327,NA
81301,La Plata County,CO,47.32142857142857,NA,NA
81321,Montezuma County,CO,NA,89.07363420427554,NA
81401,Montrose County,CO,40.11479591836735,NA,NA
81403,Montrose County,CO,95.40816326530613,NA,NA
81413,Delta County,CO,93.87755102040816,NA,NA
81504,Mesa County,CO,55.48469387755102,NA,NA
81521,Mesa County,CO,NA,94.71496437054631,NA
81621,Eagle County,CO,NA,NA,97.21706864564007
06002,Hartford County,CT,NA,23.51543942992874,NA
06010,Hartford County,CT,NA,14.726840855106888,19.851576994434136
06032,Hartford County,CT,70.21683673469387,64.66745843230403,NA
06033,Hartford County,CT,NA,46.496437054631826,NA
06051,Hartford County,CT,NA,13.598574821852733,NA
06052,Hartford County,CT,88.39285714285714,NA,NA
06062,Hartford County,CT,NA,82.00712589073635,NA
06078,Hartford County,CT,NA,NA,84.4155844155844
06084,Tolland County,CT,69.0688775510204,NA,NA
06114,Hartford County,CT,14.094387755102042,NA,NA
06117,Hartford County,CT,63.64795918367348,79.03800475059383,31.539888682745826
06118,Hartford County,CT,NA,31.47268408551069,NA
06239,Windham County,CT,NA,53.20665083135392,NA
06249,New London County,CT,NA,NA,81.44712430426716
06255,Windham County,CT,67.92091836734694,NA,NA
06281,Windham County,CT,57.84438775510205,NA,NA
06401,New Haven County,CT,24.553571428571427,NA,NA
06418,New Haven County,CT,NA,97.62470308788599,NA
06424,Middlesex County,CT,NA,73.2185273159145,NA
06443,New Haven County,CT,60.7780612244898,NA,NA
06450,New Haven County,CT,NA,NA,71.98515769944342
06484,Fairfield County,CT,59.94897959183674,NA,NA
06492,New Haven County,CT,NA,37.351543942992876,NA
06517,New Haven County,CT,70.4719387755102,NA,NA
06518,New Haven County,CT,NA,68.05225653206651,NA
06519,New Haven County,CT,18.877551020408163,NA,NA
06606,Fairfield County,CT,58.80102040816326,NA,NA
06607,Fairfield County,CT,74.36224489795919,NA,NA
06614,Fairfield County,CT,NA,27.55344418052256,NA
06702,New Haven County,CT,94.70663265306123,NA,NA
06705,New Haven County,CT,NA,23.21852731591449,NA
06770,New Haven County,CT,19.387755102040817,NA,NA
06776,Litchfield County,CT,23.022959183673468,NA,NA
06790,Litchfield County,CT,5.229591836734694,32.541567695961994,NA
06840,Fairfield County,CT,NA,68.28978622327791,NA
06851,Fairfield County,CT,NA,73.45605700712589,NA
06855,Fairfield County,CT,NA,NA,99.07235621521335
06897,Fairfield County,CT,68.62244897959184,NA,52.13358070500927
06902,Fairfield County,CT,17.091836734693878,NA,47.49536178107607
06905,Fairfield County,CT,70.02551020408163,NA,NA
19709,New Castle County,DE,16.772959183673468,NA,NA
19720,New Castle County,DE,2.6785714285714284,NA,NA
19804,New Castle County,DE,NA,38.12351543942993,NA
19805,New Castle County,DE,14.158163265306122,NA,NA
19901,Kent County,DE,NA,13.717339667458434,NA
19947,Sussex County,DE,36.92602040816326,NA,NA
19952,Kent County,DE,NA,50.1187648456057,NA
19958,Sussex County,DE,27.614795918367346,54.69121140142518,NA
19966,Sussex County,DE,NA,6.116389548693587,NA
19977,Kent County,DE,NA,NA,71.05751391465677
32055,Columbia County,FL,NA,54.513064133016634,NA
32065,Clay County,FL,85.52295918367348,NA,NA
32068,Clay County,FL,10.076530612244898,NA,NA
32112,Putnam County,FL,90.56122448979592,78.14726840855107,NA
32137,Flagler County,FL,NA,5.285035629453682,29.313543599257883
32141,Volusia County,FL,NA,43.705463182897866,NA
32159,Lake County,FL,58.22704081632652,NA,NA
32162,Sumter County,FL,NA,1.5439429928741093,NA
32164,Flagler County,FL,58.48214285714286,NA,NA
32168,Volusia County,FL,NA,NA,24.304267161410017
32169,Volusia County,FL,99.74489795918367,NA,NA
32174,Volusia County,FL,NA,8.729216152019003,NA
32205,Duval County,FL,21.747448979591837,28.08788598574822,NA
32206,Duval County,FL,NA,50.712589073634206,NA
32208,Duval County,FL,17.66581632653061,NA,NA
32209,Duval County,FL,NA,10.629453681710213,NA
32210,Duval County,FL,NA,NA,8.16326530612245
32216,Duval County,FL,42.920918367346935,NA,NA
32217,Duval County,FL,NA,NA,59.183673469387756
32219,Duval County,FL,37.37244897959184,NA,NA
32225,Duval County,FL,NA,11.401425178147269,NA
32226,Duval County,FL,NA,48.27790973871734,NA
32233,Duval County,FL,32.142857142857146,NA,NA
32244,Duval County,FL,50.89285714285714,NA,NA
32250,Duval County,FL,51.65816326530612,26.306413301662708,NA
32254,Duval County,FL,NA,84.85748218527316,NA
32256,Duval County,FL,57.39795918367348,NA,NA
32257,Duval County,FL,20.153061224489797,NA,NA
32258,Duval County,FL,NA,29.80997624703088,NA
32259,St. Johns County,FL,NA,NA,45.82560296846011
32401,Bay County,FL,90.05102040816327,NA,NA
32404,Bay County,FL,19.83418367346939,NA,NA
32405,Bay County,FL,NA,23.39667458432304,NA
32408,Bay County,FL,65.43367346938776,NA,NA
32421,Calhoun County,FL,85.58673469387756,NA,NA
32424,Calhoun County,FL,NA,NA,86.64192949907236
32439,Walton County,FL,NA,60.57007125890736,NA
32440,Jackson County,FL,NA,92.75534441805226,NA
32504,Escambia County,FL,NA,22.327790973871732,NA
32505,Escambia County,FL,NA,7.719714964370546,NA
32506,Escambia County,FL,36.607142857142854,NA,NA
32514,Escambia County,FL,NA,10.391923990498812,35.99257884972171
32526,Escambia County,FL,11.607142857142858,NA,32.28200371057514
32536,Okaloosa County,FL,NA,19.95249406175772,NA
32541,Okaloosa County,FL,NA,32.4228028503563,NA
32547,Okaloosa County,FL,NA,44.655581947743464,NA
32563,Santa Rosa County,FL,26.785714285714285,NA,NA
32566,Santa Rosa County,FL,58.86479591836735,NA,NA
32578,Okaloosa County,FL,NA,14.370546318289787,NA
32608,Alachua County,FL,89.85969387755102,NA,NA
32615,Alachua County,FL,NA,49.6437054631829,NA
32617,Marion County,FL,NA,96.49643705463184,NA
32618,Alachua County,FL,69.96173469387756,NA,NA
32626,Levy County,FL,NA,85.33254156769597,NA
32720,Volusia County,FL,50.57397959183674,NA,NA
32746,Seminole County,FL,NA,35.39192399049881,NA
32757,Lake County,FL,NA,56.76959619952494,NA
32771,Seminole County,FL,NA,29.156769596199528,NA
32780,Brevard County,FL,NA,NA,3.710575139146568
32819,Orange County,FL,62.62755102040817,NA,NA
32901,Brevard County,FL,NA,38.71733966745843,NA
32904,Brevard County,FL,NA,37.11401425178148,NA
32909,Brevard County,FL,NA,NA,39.332096474953616
32926,Brevard County,FL,NA,37.173396674584325,NA
32927,Brevard County,FL,NA,70.07125890736341,NA
32935,Brevard County,FL,15.943877551020408,36.163895486935864,NA
32940,Brevard County,FL,NA,53.62232779097387,NA
32953,Brevard County,FL,76.27551020408163,NA,13.358070500927644
32955,Brevard County,FL,NA,NA,9.461966604823747
32966,Indian River County,FL,67.60204081632652,74.46555819477435,NA
33014,Miami-Dade County,FL,NA,NA,20.59369202226345
33016,Miami-Dade County,FL,NA,48.574821852731596,NA
33019,Broward County,FL,NA,74.10926365795724,53.80333951762524
33027,Broward County,FL,NA,64.54869358669833,NA
33031,Miami-Dade County,FL,98.08673469387756,NA,NA
33033,Miami-Dade County,FL,34.69387755102041,NA,NA
33040,Monroe County,FL,36.35204081632653,NA,NA
33050,Monroe County,FL,86.03316326530613,NA,NA
33056,Miami-Dade County,FL,32.39795918367347,NA,NA
33060,Broward County,FL,96.81122448979592,NA,NA
33062,Broward County,FL,NA,21.61520190023753,95.91836734693877
33064,Broward County,FL,NA,12.648456057007126,NA
33071,Broward County,FL,45.535714285714285,NA,NA
33125,Miami-Dade County,FL,36.86224489795919,31.175771971496435,NA
33134,Miami-Dade County,FL,NA,45.605700712589076,25.60296846011132
33141,Miami-Dade County,FL,51.53061224489795,NA,24.118738404452692
33146,Miami-Dade County,FL,NA,93.58669833729216,NA
33165,Miami-Dade County,FL,51.97704081632652,NA,NA
33174,Miami-Dade County,FL,85.3954081632653,NA,NA
33175,Miami-Dade County,FL,NA,NA,14.100185528756956
33183,Miami-Dade County,FL,NA,64.60807600950119,66.41929499072357
33186,Miami-Dade County,FL,NA,NA,22.263450834879407
33189,Miami-Dade County,FL,82.20663265306123,NA,NA
33311,Broward County,FL,5.803571428571429,NA,NA
33319,Broward County,FL,34.82142857142857,NA,NA
33322,Broward County,FL,62.755102040816325,NA,NA
33324,Broward County,FL,NA,39.073634204275535,NA
33408,Palm Beach County,FL,NA,59.026128266033254,NA
33428,Palm Beach County,FL,89.34948979591837,NA,NA
33441,Broward County,FL,NA,54.92874109263658,NA
33444,Palm Beach County,FL,52.48724489795919,NA,NA
33480,Palm Beach County,FL,NA,NA,32.83858998144712
33484,Palm Beach County,FL,NA,24.524940617577197,NA
33487,Palm Beach County,FL,NA,34.79809976247031,NA
33513,Sumter County,FL,98.34183673469387,NA,NA
33534,Hillsborough County,FL,64.03061224489795,NA,NA
33538,Sumter County,FL,93.94132653061224,NA,NA
33541,Pasco County,FL,69.70663265306123,NA,NA
33543,Pasco County,FL,NA,52.07838479809976,NA
33544,Pasco County,FL,NA,47.387173396674584,NA
33558,Hillsborough County,FL,NA,70.90261282660333,NA
33563,Hillsborough County,FL,69.32397959183673,52.13776722090261,NA
33567,Hillsborough County,FL,NA,98.04038004750593,NA
33615,Hillsborough County,FL,NA,26.72209026128266,NA
33624,Hillsborough County,FL,45.91836734693878,NA,NA
33705,Pinellas County,FL,NA,47.980997624703086,NA
33709,Pinellas County,FL,NA,76.06888361045131,NA
33710,Pinellas County,FL,NA,97.9809976247031,NA
33756,Pinellas County,FL,NA,NA,30.612244897959183
33761,Pinellas County,FL,NA,NA,37.47680890538033
33809,Polk County,FL,40.94387755102041,NA,NA
33811,Polk County,FL,NA,62.64845605700713,NA
33844,Polk County,FL,NA,30.04750593824228,80.51948051948052
33852,Highlands County,FL,NA,14.192399049881235,NA
33860,Polk County,FL,NA,56.35391923990499,NA
33898,Polk County,FL,NA,60.33254156769596,NA
33904,Lee County,FL,NA,12.410926365795724,NA
33905,Lee County,FL,NA,69.29928741092637,NA
33914,Lee County,FL,NA,10.866983372921615,NA
33919,Lee County,FL,NA,10.570071258907364,NA
33931,Lee County,FL,NA,NA,79.40630797773655
33947,Charlotte County,FL,NA,69.95249406175772,NA
33950,Charlotte County,FL,68.49489795918367,NA,NA
33952,Charlotte County,FL,NA,27.375296912114017,NA
33967,Lee County,FL,50.63775510204081,NA,NA
33973,Lee County,FL,NA,84.38242280285036,NA
34103,Collier County,FL,86.86224489795919,NA,NA
34108,Collier County,FL,83.22704081632652,NA,NA
34145,Collier County,FL,NA,NA,23.562152133580703
34202,Manatee County,FL,NA,85.68883610451307,NA
34208,Manatee County,FL,NA,71.61520190023754,NA
34212,Manatee County,FL,72.44897959183673,NA,NA
34231,Sarasota County,FL,45.79081632653062,NA,NA
34242,Sarasota County,FL,96.875,NA,NA
34473,Marion County,FL,NA,53.741092636579566,NA
34655,Pasco County,FL,26.658163265306122,NA,NA
34667,Pasco County,FL,NA,NA,17.625231910946194
34684,Pinellas County,FL,63.201530612244895,NA,NA
34691,Pasco County,FL,66.96428571428571,NA,NA
34711,Lake County,FL,NA,3.0285035629453683,NA
34714,Lake County,FL,NA,77.90973871733968,NA
34715,Lake County,FL,47.066326530612244,NA,NA
34746,Osceola County,FL,29.336734693877553,NA,NA
34748,Lake County,FL,NA,NA,14.656771799628942
34786,Orange County,FL,49.42602040816326,NA,NA
34787,Orange County,FL,NA,15.914489311163896,NA
34788,Lake County,FL,58.16326530612245,23.040380047505938,26.53061224489796
34952,St. Lucie County,FL,NA,6.353919239904989,NA
34957,Martin County,FL,41.70918367346938,NA,NA
34972,Okeechobee County,FL,NA,67.51781472684085,NA
34982,St. Lucie County,FL,NA,31.235154394299286,NA
34990,Martin County,FL,NA,NA,3.153988868274583
34997,Martin County,FL,93.49489795918367,5.760095011876484,NA
30004,Fulton County,GA,34.43877551020408,NA,NA
30008,Cobb County,GA,55.61224489795919,NA,NA
30012,Rockdale County,GA,NA,42.5771971496437,NA
30019,Gwinnett County,GA,31.82397959183674,NA,NA
30022,Fulton County,GA,NA,37.29216152019003,NA
30032,DeKalb County,GA,NA,8.907363420427554,NA
30039,Gwinnett County,GA,63.01020408163265,NA,NA
30040,Forsyth County,GA,21.364795918367346,14.073634204275534,NA
30041,Forsyth County,GA,NA,56.23515439429929,NA
30043,Gwinnett County,GA,48.02295918367347,10.451306413301662,NA
30044,Gwinnett County,GA,16.198979591836736,NA,NA
30046,Gwinnett County,GA,40.05102040816326,NA,NA
30067,Cobb County,GA,NA,59.08551068883611,NA
30068,Cobb County,GA,64.54081632653062,NA,NA
30071,Gwinnett County,GA,78.18877551020408,NA,NA
30078,Gwinnett County,GA,NA,37.76722090261283,NA
30087,DeKalb County,GA,NA,15.736342042755345,NA
30094,Rockdale County,GA,80.73979591836735,25.593824228028506,NA
30101,Cobb County,GA,21.683673469387756,NA,NA
30108,Carroll County,GA,78.31632653061224,NA,NA
30110,Haralson County,GA,NA,74.70308788598575,NA
30113,Haralson County,GA,71.10969387755102,NA,NA
30114,Cherokee County,GA,28.95408163265306,NA,33.209647495361786
30116,Carroll County,GA,NA,41.7458432304038,NA
30117,Carroll County,GA,26.84948979591837,NA,NA
30120,Bartow County,GA,16.517857142857142,NA,NA
30135,Douglas County,GA,NA,NA,39.332096474953616
30145,Bartow County,GA,82.39795918367348,NA,NA
30161,Floyd County,GA,NA,76.48456057007125,NA
30165,Floyd County,GA,20.535714285714285,NA,80.70500927643785
30180,Carroll County,GA,18.494897959183675,NA,NA
30220,Coweta County,GA,NA,96.73396674584322,NA
30228,Henry County,GA,24.808673469387756,NA,NA
30238,Clayton County,GA,45.21683673469388,NA,NA
30252,Henry County,GA,NA,NA,63.07977736549165
30253,Henry County,GA,21.492346938775512,NA,NA
30263,Coweta County,GA,NA,9.560570071258907,NA
30269,Fayette County,GA,62.56377551020408,NA,NA
30277,Coweta County,GA,65.36989795918367,NA,NA
30294,DeKalb County,GA,NA,85.98574821852732,NA
30310,Fulton County,GA,18.622448979591837,NA,NA
30324,Fulton County,GA,NA,92.57719714964371,NA
30338,DeKalb County,GA,64.79591836734694,NA,NA
30340,DeKalb County,GA,75.57397959183673,NA,NA
30345,DeKalb County,GA,NA,70.01187648456056,NA
30349,Fulton County,GA,NA,36.28266033254157,NA
30350,Fulton County,GA,NA,77.19714964370546,NA
30436,Toombs County,GA,NA,NA,82.93135435992579
30474,Toombs County,GA,NA,98.99049881235155,NA
30513,Fannin County,GA,97.06632653061224,NA,NA
30518,Gwinnett County,GA,NA,29.69121140142518,NA
30519,Gwinnett County,GA,38.64795918367347,NA,NA
30549,Jackson County,GA,NA,45.01187648456057,NA
30554,Hall County,GA,NA,90.08313539192399,NA
30560,Fannin County,GA,NA,89.37054631828978,NA
30577,Stephens County,GA,37.691326530612244,NA,NA
30582,Towns County,GA,NA,NA,70.87198515769944
30635,Elbert County,GA,NA,53.38479809976246,NA
30642,Greene County,GA,NA,54.334916864608076,NA
30701,Gordon County,GA,25,22.446555819477435,NA
30720,Whitfield County,GA,NA,53.087885985748215,NA
30906,Richmond County,GA,NA,3.800475059382423,NA
31014,Bleckley County,GA,NA,86.40142517814728,NA
31023,Dodge County,GA,67.21938775510205,NA,NA
31029,Monroe County,GA,NA,NA,83.48794063079778
31036,Pulaski County,GA,63.775510204081634,NA,NA
31064,Jasper County,GA,88.77551020408163,NA,NA
31069,Houston County,GA,NA,NA,43.41372912801484
31206,Bibb County,GA,NA,NA,55.84415584415584
31210,Bibb County,GA,53.316326530612244,NA,NA
31419,Chatham County,GA,NA,NA,42.67161410018553
31513,Appling County,GA,62.05357142857143,NA,NA
31545,Wayne County,GA,NA,43.82422802850356,NA
31555,Wayne County,GA,NA,98.812351543943,NA
31558,Camden County,GA,NA,58.0166270783848,NA
31709,Sumter County,GA,47.83163265306122,NA,NA
31730,Mitchell County,GA,71.875,NA,NA
31750,Ben Hill County,GA,75.89285714285714,NA,NA
31757,Thomas County,GA,NA,60.39192399049881,NA
31773,Thomas County,GA,93.4311224489796,NA,NA
31792,Thomas County,GA,NA,NA,52.69016697588126
31793,Tift County,GA,NA,92.87410926365796,NA
31820,Muscogee County,GA,89.2219387755102,NA,NA
31907,Muscogee County,GA,6.823979591836735,NA,NA
31909,Muscogee County,GA,NA,21.140142517814727,NA
39819,Decatur County,GA,71.49234693877551,NA,NA
39842,Terrell County,GA,57.27040816326531,NA,NA
96706,Honolulu County,HI,8.864795918367346,NA,NA
96707,Honolulu County,HI,29.209183673469386,NA,NA
96720,Hawaii County,HI,NA,19.47743467933492,NA
96734,Honolulu County,HI,NA,35.273159144893114,NA
96744,Honolulu County,HI,NA,1.9596199524940616,NA
96746,Kauai County,HI,57.90816326530612,NA,NA
96768,Maui County,HI,NA,NA,92.76437847866418
96782,Honolulu County,HI,NA,NA,9.833024118738404
96791,Honolulu County,HI,NA,NA,91.83673469387756
96792,Honolulu County,HI,10.204081632653061,NA,NA
96797,Honolulu County,HI,26.084183673469386,27.137767220902614,NA
96818,Honolulu County,HI,NA,75.53444180522565,NA
96819,Honolulu County,HI,NA,10.807600950118765,18.181818181818183
96826,Honolulu County,HI,NA,NA,30.983302411873844
83201,Bannock County,ID,64.2219387755102,NA,NA
83221,Bingham County,ID,22.512755102040817,93.46793349168647,NA
83301,Twin Falls County,ID,NA,NA,21.150278293135436
83318,Cassia County,ID,NA,39.19239904988123,NA
83338,Jerome County,ID,NA,NA,36.92022263450835
83340,Blaine County,ID,NA,49.94061757719715,NA
83402,Bonneville County,ID,NA,81.82897862232778,54.916512059369204
83404,Bonneville County,ID,84.375,95.60570071258907,NA
83501,Nez Perce County,ID,11.926020408163266,NA,NA
83605,Canyon County,ID,NA,51.18764845605701,65.67717996289424
83607,Canyon County,ID,31.186224489795915,91.1520190023753,NA
83616,Ada County,ID,NA,7.8384798099762465,NA
83617,Gem County,ID,NA,69.47743467933492,NA
83634,Ada County,ID,84.82142857142857,38.95486935866984,NA
83642,Ada County,ID,NA,71.19952494061758,NA
83646,Ada County,ID,32.84438775510204,4.92874109263658,NA
83661,Payette County,ID,NA,58.3729216152019,NA
83687,Canyon County,ID,47.38520408163265,NA,NA
83702,Ada County,ID,NA,15.498812351543942,35.25046382189239
83703,Ada County,ID,52.48724489795919,NA,NA
83704,Ada County,ID,14.221938775510203,NA,35.80705009276438
83705,Ada County,ID,NA,11.223277909738718,NA
83706,Ada County,ID,NA,50.95011876484561,NA
83709,Ada County,ID,13.010204081632654,NA,NA
83714,Ada County,ID,NA,10.985748218527316,NA
83716,Ada County,ID,92.98469387755102,NA,NA
83801,Kootenai County,ID,98.72448979591837,80.9976247030879,NA
83814,Kootenai County,ID,NA,NA,27.087198515769945
83858,Kootenai County,ID,NA,NA,56.029684601113175
60004,Cook County,IL,50.38265306122449,NA,NA
60010,Lake County,IL,NA,10.27315914489311,49.16512059369202
60012,McHenry County,IL,NA,54.334916864608076,NA
60016,Cook County,IL,19.4515306122449,35.688836104513065,NA
60041,Lake County,IL,71.875,NA,NA
60044,Lake County,IL,75.76530612244898,79.69121140142518,NA
60047,Lake County,IL,NA,16.7458432304038,NA
60048,Lake County,IL,43.941326530612244,NA,NA
60050,McHenry County,IL,NA,59.50118764845605,NA
60051,McHenry County,IL,44.32397959183674,NA,NA
60056,Cook County,IL,NA,60.21377672209026,NA
60062,Cook County,IL,NA,NA,0.3710575139146568
60067,Cook County,IL,NA,14.548693586698338,NA
60070,Cook County,IL,NA,66.92399049881234,NA
60074,Cook County,IL,NA,85.09501187648456,NA
60076,Cook County,IL,66.77295918367348,NA,NA
60089,Lake County,IL,NA,8.076009501187649,47.86641929499073
60090,Cook County,IL,NA,21.91211401425178,NA
60093,Cook County,IL,NA,72.74346793349169,NA
60098,McHenry County,IL,56.441326530612244,NA,NA
60099,Lake County,IL,33.482142857142854,34.08551068883611,NA
60102,McHenry County,IL,NA,34.97624703087886,NA
60104,Cook County,IL,NA,20.605700712589073,NA
60120,Kane County,IL,77.61479591836735,NA,NA
60124,Kane County,IL,55.548469387755105,NA,NA
60126,DuPage County,IL,60.58673469387755,NA,NA
60133,Cook County,IL,36.28826530612245,NA,NA
60137,DuPage County,IL,73.2780612244898,NA,11.50278293135436
60148,DuPage County,IL,12.436224489795919,25.9501187648456,NA
60155,Cook County,IL,NA,56.710213776722085,NA
60156,McHenry County,IL,NA,50.1187648456057,NA
60172,DuPage County,IL,55.03826530612245,66.270783847981,NA
60178,DeKalb County,IL,47.640306122448976,NA,NA
60187,DuPage County,IL,NA,30.581947743467936,NA
60189,DuPage County,IL,NA,17.517814726840854,NA
60302,Cook County,IL,27.487244897959183,40.08313539192399,NA
60304,Cook County,IL,49.55357142857143,NA,NA
60401,Will County,IL,NA,NA,92.20779220779221
60410,Will County,IL,41.00765306122449,NA,NA
60418,Cook County,IL,94.00510204081633,NA,NA
60422,Cook County,IL,76.53061224489795,NA,NA
60425,Cook County,IL,NA,64.4893111638955,NA
60439,Cook County,IL,NA,NA,21.335807050092765
60440,Will County,IL,16.3265306122449,NA,NA
60459,Cook County,IL,NA,NA,39.70315398886827
60462,Cook County,IL,NA,3.503562945368171,NA
60463,Cook County,IL,NA,38.30166270783848,NA
60466,Cook County,IL,82.07908163265306,NA,NA
60477,Cook County,IL,NA,9.679334916864608,NA
60487,Cook County,IL,48.40561224489796,NA,NA
60490,Will County,IL,NA,84.26365795724465,NA
60504,DuPage County,IL,NA,88.00475059382423,NA
60506,Kane County,IL,NA,20.13064133016627,NA
60514,DuPage County,IL,86.60714285714286,NA,NA
60515,DuPage County,IL,32.78061224489796,NA,NA
60516,DuPage County,IL,NA,22.980997624703086,NA
60540,DuPage County,IL,NA,22.743467933491686,NA
60564,Will County,IL,30.612244897959183,NA,NA
60586,Will County,IL,NA,25.17814726840855,NA
60618,Cook County,IL,7.015306122448979,NA,NA
60619,Cook County,IL,22.130102040816325,NA,NA
60622,Cook County,IL,NA,37.88598574821852,NA
60623,Cook County,IL,NA,56.888361045130644,NA
60625,Cook County,IL,NA,39.60807600950119,NA
60634,Cook County,IL,NA,63.77672209026129,NA
60636,Cook County,IL,27.74234693877551,NA,NA
60642,Cook County,IL,70.1530612244898,NA,NA
60643,Cook County,IL,NA,62.47030878859857,6.122448979591836
60644,Cook County,IL,83.16326530612244,NA,NA
60645,Cook County,IL,NA,16.389548693586697,NA
60647,Cook County,IL,6.313775510204081,14.964370546318289,NA
60651,Cook County,IL,6.951530612244898,NA,NA
60652,Cook County,IL,NA,18.28978622327791,NA
60656,Cook County,IL,NA,81.23515439429929,NA
60804,Cook County,IL,NA,58.78859857482185,NA
60827,Cook County,IL,68.68622448979592,NA,NA
61021,Lee County,IL,25.82908163265306,47.327790973871736,NA
61032,Stephenson County,IL,58.673469387755105,NA,NA
61061,Ogle County,IL,89.28571428571429,NA,NA
61063,Winnebago County,IL,97.1938775510204,NA,NA
61071,Whiteside County,IL,NA,12.114014251781473,NA
61108,Winnebago County,IL,48.85204081632653,NA,NA
61111,Winnebago County,IL,NA,45.48693586698337,NA
61114,Winnebago County,IL,73.02295918367348,NA,NA
61201,Rock Island County,IL,NA,25.05938242280285,NA
61240,Rock Island County,IL,NA,84.91686460807601,NA
61265,Rock Island County,IL,38.9030612244898,NA,NA
61350,LaSalle County,IL,41.13520408163265,NA,NA
61550,Tazewell County,IL,NA,61.40142517814727,NA
61554,Tazewell County,IL,23.533163265306122,NA,NA
61727,De Witt County,IL,NA,65.08313539192399,NA
61761,McLean County,IL,NA,34.026128266033254,78.29313543599258
61822,Champaign County,IL,NA,41.6270783847981,NA
62002,Madison County,IL,55.35714285714286,NA,NA
62014,Macoupin County,IL,100,NA,NA
62024,Madison County,IL,90.9438775510204,NA,NA
62060,Madison County,IL,NA,99.70308788598575,NA
62207,St. Clair County,IL,NA,NA,95.73283858998145
62249,Madison County,IL,68.94132653061224,NA,NA
62269,St. Clair County,IL,58.92857142857143,NA,NA
62301,Adams County,IL,NA,30.93824228028503,NA
62363,Pike County,IL,94.96173469387756,NA,NA
62467,Effingham County,IL,NA,99.58432304038006,NA
62521,Macon County,IL,34.05612244897959,NA,NA
62522,Macon County,IL,NA,73.63420427553444,NA
62526,Macon County,IL,NA,29.69121140142518,NA
62568,Christian County,IL,68.17602040816327,NA,NA
62704,Sangamon County,IL,NA,23.693586698337292,NA
62712,Sangamon County,IL,NA,60.80760095011877,NA
62832,Perry County,IL,NA,67.57719714964371,NA
62966,Jackson County,IL,NA,70.13064133016627,NA
46012,Madison County,IN,NA,15.14251781472684,NA
46013,Madison County,IN,NA,46.43705463182898,NA
46037,Hamilton County,IN,58.73724489795919,NA,NA
46052,Boone County,IN,NA,71.43705463182897,NA
46062,Hamilton County,IN,NA,12.173396674584323,NA
46065,Clinton County,IN,99.04336734693877,NA,NA
46122,Hendricks County,IN,NA,64.90498812351544,NA
46131,Johnson County,IN,NA,21.318289786223275,NA
46140,Hancock County,IN,NA,45.36817102137768,NA
46143,Johnson County,IN,18.941326530612244,62.88598574821853,NA
46158,Morgan County,IN,46.74744897959184,NA,NA
46168,Hendricks County,IN,NA,74.58432304038006,NA
46202,Marion County,IN,53.63520408163265,NA,NA
46203,Marion County,IN,28.125,NA,NA
46219,Marion County,IN,33.22704081632653,45.96199524940617,NA
46224,Marion County,IN,NA,41.3895486935867,NA
46228,Marion County,IN,97.83163265306123,NA,NA
46229,Marion County,IN,19.323979591836736,NA,NA
46235,Marion County,IN,16.135204081632654,NA,NA
46239,Marion County,IN,NA,44.77434679334917,NA
46304,Porter County,IN,10.58673469387755,44.95249406175772,NA
46307,Lake County,IN,1.530612244897959,NA,NA
46311,Lake County,IN,71.61989795918367,NA,NA
46321,Lake County,IN,NA,NA,70.31539888682747
46322,Lake County,IN,20.02551020408163,18.76484560570071,NA
46324,Lake County,IN,NA,20.665083135391924,NA
46342,Lake County,IN,NA,58.1353919239905,NA
46347,Porter County,IN,86.86224489795919,NA,NA
46350,LaPorte County,IN,27.869897959183675,NA,NA
46356,Lake County,IN,NA,28.741092636579573,NA
46360,LaPorte County,IN,NA,NA,51.02040816326531
46368,Porter County,IN,NA,1.0688836104513064,NA
46383,Porter County,IN,43.23979591836735,NA,NA
46403,Lake County,IN,NA,54.09738717339667,NA
46404,Lake County,IN,27.359693877551024,NA,NA
46405,Lake County,IN,32.9719387755102,NA,NA
46410,Lake County,IN,NA,20.961995249406176,NA
46514,Elkhart County,IN,NA,NA,41.1873840445269
46516,Elkhart County,IN,NA,33.0166270783848,NA
46534,Starke County,IN,47.44897959183674,69.71496437054631,NA
46544,St. Joseph County,IN,NA,NA,37.84786641929499
46582,Kosciusko County,IN,70.08928571428571,NA,NA
46614,St. Joseph County,IN,51.14795918367348,46.02137767220903,NA
46701,Noble County,IN,64.47704081632652,NA,NA
46706,DeKalb County,IN,NA,NA,28.385899814471244
46737,Steuben County,IN,NA,79.69121140142518,NA
46742,Steuben County,IN,97.70408163265306,NA,NA
46748,Allen County,IN,95.79081632653062,NA,NA
46750,Huntington County,IN,43.494897959183675,NA,NA
46755,Noble County,IN,22.321428571428573,NA,NA
46761,LaGrange County,IN,NA,79.45368171021377,NA
46808,Allen County,IN,26.211734693877553,NA,NA
46901,Howard County,IN,1.7219387755102038,NA,NA
46902,Howard County,IN,NA,2.553444180522565,NA
46923,Carroll County,IN,NA,83.43230403800474,NA
46932,Cass County,IN,91.83673469387756,NA,NA
46947,Cass County,IN,33.16326530612245,8.551068883610451,6.8645640074211505
46970,Miami County,IN,NA,16.92399049881235,NA
46975,Fulton County,IN,NA,92.2209026128266,NA
46979,Howard County,IN,77.93367346938776,NA,NA
47012,Franklin County,IN,NA,NA,76.43784786641929
47025,Dearborn County,IN,NA,74.5249406175772,NA
47111,Clark County,IN,NA,NA,85.34322820037106
47119,Floyd County,IN,88.96683673469387,NA,NA
47150,Floyd County,IN,NA,62.589073634204276,NA
47170,Scott County,IN,76.97704081632652,NA,NA
47172,Clark County,IN,82.01530612244898,NA,NA
47201,Bartholomew County,IN,NA,37.648456057007124,NA
47265,Jennings County,IN,NA,28.800475059382425,NA
47331,Fayette County,IN,NA,9.97624703087886,NA
47374,Wayne County,IN,4.017857142857143,NA,NA
47404,Monroe County,IN,56.12244897959183,NA,71.61410018552876
47421,Lawrence County,IN,NA,85.74821852731591,NA
47441,Greene County,IN,62.11734693877551,NA,NA
47546,Dubois County,IN,NA,31.71021377672209,NA
47591,Knox County,IN,NA,NA,14.471243042671613
47630,Warrick County,IN,NA,67.6959619952494,NA
47714,Vanderburgh County,IN,35.7780612244898,NA,NA
47725,Vanderburgh County,IN,NA,61.22327790973871,NA
47842,Vermillion County,IN,60.14030612244898,NA,NA
47872,Parke County,IN,NA,74.94061757719716,NA
47885,Vigo County,IN,NA,65.32066508313538,NA
47905,Tippecanoe County,IN,33.6734693877551,NA,NA
47933,Montgomery County,IN,25.510204081632654,NA,NA
47960,White County,IN,NA,95.07125890736341,33.95176252319109
50158,Marshall County,IA,21.237244897959183,NA,NA
50208,Jasper County,IA,85.71428571428571,NA,NA
50211,Warren County,IA,97.44897959183673,NA,87.01298701298701
50265,Polk County,IA,NA,87.82660332541568,NA
50315,Polk County,IA,7.142857142857142,NA,NA
50401,Cerro Gordo County,IA,NA,7.007125890736342,NA
50428,Cerro Gordo County,IA,NA,82.36342042755345,NA
50613,Black Hawk County,IA,41.83673469387755,57.8978622327791,NA
50644,Buchanan County,IA,NA,NA,89.98144712430427
50662,Fayette County,IA,60.01275510204081,NA,NA
50702,Black Hawk County,IA,NA,88.65795724465558,NA
50703,Black Hawk County,IA,NA,25.534441805225654,NA
50801,Union County,IA,NA,44.53681710213777,NA
51105,Woodbury County,IA,59.82142857142857,NA,NA
51106,Woodbury County,IA,NA,40.380047505938244,NA
51108,Woodbury County,IA,NA,92.99287410926365,NA
51250,Sioux County,IA,NA,80.04750593824228,NA
51503,Pottawattamie County,IA,NA,63.83610451306413,NA
51555,Harrison County,IA,70.8545918367347,91.8646080760095,NA
51566,Montgomery County,IA,NA,75.7125890736342,NA
52060,Jackson County,IA,NA,77.67220902612827,NA
52205,Jones County,IA,85.33163265306123,NA,NA
52245,Johnson County,IA,72.70408163265306,NA,NA
52302,Linn County,IA,NA,29.453681710213775,38.5899814471243
52353,Washington County,IA,NA,66.8646080760095,NA
52403,Linn County,IA,NA,33.729216152019006,29.684601113172544
52404,Linn County,IA,NA,12.470308788598574,NA
52405,Linn County,IA,31.69642857142857,NA,NA
52501,Wapello County,IA,54.8469387755102,57.95724465558195,NA
52577,Mahaska County,IA,NA,35.98574821852731,NA
52601,Des Moines County,IA,33.86479591836735,NA,NA
52632,Lee County,IA,NA,29.86935866983373,NA
52641,Henry County,IA,NA,NA,49.35064935064935
66002,Atchison County,KS,67.28316326530613,NA,NA
66061,Johnson County,KS,NA,3.2066508313539197,NA
66085,Johnson County,KS,NA,NA,91.4656771799629
66208,Johnson County,KS,NA,NA,76.99443413729128
66210,Johnson County,KS,NA,58.729216152019006,NA
66219,Johnson County,KS,80.86734693877551,NA,NA
66224,Johnson County,KS,NA,96.14014251781472,NA
66503,Riley County,KS,NA,80.81947743467933,NA
66605,Shawnee County,KS,42.21938775510204,NA,NA
67212,Sedgwick County,KS,NA,45.427553444180525,NA
67219,Sedgwick County,KS,79.78316326530613,NA,NA
67337,Montgomery County,KS,81.76020408163265,NA,NA
67410,Dickinson County,KS,NA,61.75771971496437,NA
67735,Sherman County,KS,NA,NA,62.152133580705005
67846,Finney County,KS,17.72959183673469,NA,NA
40031,Oldham County,KY,26.02040816326531,NA,NA
40033,Marion County,KY,NA,59.32304038004751,NA
40051,Nelson County,KY,91.58163265306123,NA,NA
40065,Shelby County,KY,NA,24.287410926365798,NA
40071,Spencer County,KY,47.44897959183674,NA,NA
40165,Bullitt County,KY,11.543367346938775,11.995249406175772,NA
40218,Jefferson County,KY,11.35204081632653,NA,NA
40219,Jefferson County,KY,10.52295918367347,NA,NA
40220,Jefferson County,KY,NA,15.439429928741092,18.367346938775512
40229,Jefferson County,KY,10.012755102040815,15.14251781472684,NA
40258,Jefferson County,KY,17.98469387755102,NA,NA
40291,Jefferson County,KY,14.47704081632653,NA,NA
40299,Jefferson County,KY,NA,17.042755344418055,NA
40311,Nicholas County,KY,65.11479591836735,NA,NA
40312,Powell County,KY,73.72448979591837,NA,NA
40330,Mercer County,KY,45.85459183673469,NA,NA
40342,Anderson County,KY,NA,NA,67.53246753246754
40353,Montgomery County,KY,46.619897959183675,NA,NA
40356,Jessamine County,KY,11.479591836734695,NA,NA
40422,Boyle County,KY,NA,40.26128266033254,NA
40502,Fayette County,KY,54.20918367346938,NA,NA
40505,Fayette County,KY,NA,25.83135391923991,NA
40741,Laurel County,KY,17.793367346938776,NA,NA
40828,Harlan County,KY,90.49744897959184,NA,NA
41011,Kenton County,KY,NA,NA,40.63079777365491
41018,Kenton County,KY,66.3265306122449,NA,NA
41031,Harrison County,KY,48.2780612244898,NA,NA
41051,Kenton County,KY,30.22959183673469,NA,NA
41071,Campbell County,KY,68.11224489795919,NA,NA
41091,Boone County,KY,85.01275510204081,NA,NA
41102,Boyd County,KY,NA,14.014251781472684,NA
41169,Greenup County,KY,60.204081632653065,NA,NA
41175,Greenup County,KY,56.568877551020414,NA,NA
41501,Pike County,KY,32.33418367346938,NA,NA
41822,Knott County,KY,NA,100,NA
42001,McCracken County,KY,23.78826530612245,15.617577197149643,NA
42003,McCracken County,KY,NA,11.34204275534442,NA
42086,McCracken County,KY,92.85714285714286,NA,NA
42101,Warren County,KY,5.7397959183673475,NA,57.69944341372912
42127,Barren County,KY,NA,72.09026128266032,NA
42129,Metcalfe County,KY,NA,80.34441805225653,NA
42134,Simpson County,KY,44.579081632653065,NA,NA
42211,Trigg County,KY,54.5280612244898,NA,NA
42240,Christian County,KY,5.548469387755102,NA,NA
42261,Butler County,KY,53.443877551020414,NA,NA
42303,Daviess County,KY,8.035714285714286,NA,NA
42330,Muhlenberg County,KY,90.17857142857143,NA,NA
42420,Henderson County,KY,NA,38.064133016627075,NA
42445,Caldwell County,KY,96.74744897959184,93.34916864608076,NA
42539,Casey County,KY,NA,64.25178147268409,NA
42754,Grayson County,KY,NA,33.31353919239905,NA
70001,Jefferson Parish,LA,NA,53.32541567695962,NA
70003,Jefferson Parish,LA,NA,36.40142517814727,NA
70047,St. Charles Parish,LA,NA,59.38242280285036,NA
70062,Jefferson Parish,LA,NA,NA,87.19851576994434
70072,Jefferson Parish,LA,NA,2.019002375296912,NA
70115,Orleans Parish,LA,NA,67.99287410926365,NA
70121,Jefferson Parish,LA,NA,51.06888361045131,NA
70122,Orleans Parish,LA,4.783163265306122,8.2541567695962,NA
70123,Jefferson Parish,LA,NA,NA,37.105751391465674
70128,Orleans Parish,LA,NA,26.187648456057005,NA
70301,Lafourche Parish,LA,2.1683673469387754,NA,NA
70339,Assumption Parish,LA,86.7984693877551,NA,NA
70344,Terrebonne Parish,LA,58.41836734693877,NA,90.53803339517626
70354,Lafourche Parish,LA,NA,98.39667458432304,NA
70374,Lafourche Parish,LA,NA,89.8456057007126,NA
70380,St. Mary Parish,LA,47.130102040816325,NA,NA
70394,Lafourche Parish,LA,16.45408163265306,NA,NA
70427,Washington Parish,LA,13.073979591836734,NA,NA
70433,St. Tammany Parish,LA,5.676020408163265,NA,NA
70435,St. Tammany Parish,LA,NA,NA,62.33766233766234
70448,St. Tammany Parish,LA,31.058673469387756,NA,NA
70449,Livingston Parish,LA,NA,97.92161520190024,NA
70452,St. Tammany Parish,LA,16.581632653061224,NA,NA
70454,Tangipahoa Parish,LA,NA,73.57482185273159,NA
70460,St. Tammany Parish,LA,NA,22.565320665083135,NA
70461,St. Tammany Parish,LA,NA,14.84560570071259,NA
70471,St. Tammany Parish,LA,NA,48.69358669833729,NA
70508,Lafayette Parish,LA,37.94642857142857,NA,NA
70518,Lafayette Parish,LA,NA,62.35154394299287,NA
70520,Lafayette Parish,LA,48.53316326530612,NA,NA
70544,Iberia Parish,LA,27.67857142857143,NA,NA
70560,Iberia Parish,LA,2.3596938775510203,NA,NA
70570,St. Landry Parish,LA,NA,NA,49.53617810760667
70582,St. Martin Parish,LA,NA,34.3230403800475,NA
70592,Lafayette Parish,LA,NA,60.154394299287404,NA
70611,Calcasieu Parish,LA,NA,NA,71.42857142857143
70615,Calcasieu Parish,LA,NA,59.97624703087886,NA
70633,Calcasieu Parish,LA,56.058673469387756,NA,NA
70706,Livingston Parish,LA,NA,NA,78.10760667903524
70769,Ascension Parish,LA,NA,32.36342042755345,NA
70775,West Feliciana Parish,LA,NA,63.30166270783848,NA
70791,East Baton Rouge Parish,LA,NA,22.921615201900238,NA
70815,East Baton Rouge Parish,LA,NA,96.91211401425178,NA
70816,East Baton Rouge Parish,LA,5.1020408163265305,NA,NA
71037,Bossier Parish,LA,NA,74.6437054631829,NA
71111,Bossier Parish,LA,NA,NA,26.159554730983302
71202,Ouachita Parish,LA,4.464285714285714,NA,NA
71235,Lincoln Parish,LA,NA,96.61520190023754,NA
71241,Union Parish,LA,49.744897959183675,NA,NA
71270,Lincoln Parish,LA,NA,52.31591448931117,NA
71292,Ouachita Parish,LA,98.21428571428571,NA,NA
71302,Rapides Parish,LA,66.83673469387756,NA,NA
71303,Rapides Parish,LA,24.17091836734694,NA,NA
71360,Rapides Parish,LA,9.119897959183673,55.166270783847985,NA
71483,Winn Parish,LA,NA,95.13064133016627,NA
03909,York County,ME,NA,90.91448931116389,NA
04071,Cumberland County,ME,NA,89.25178147268409,NA
04090,York County,ME,NA,24.82185273159145,NA
04102,Cumberland County,ME,28.50765306122449,NA,NA
04106,Cumberland County,ME,NA,NA,27.643784786641927
04210,Androscoggin County,ME,15.625,33.3729216152019,83.30241187384044
04239,Franklin County,ME,83.6734693877551,NA,NA
04240,Androscoggin County,ME,1.7857142857142856,NA,13.91465677179963
04330,Kennebec County,ME,5.293367346938775,4.631828978622328,58.998144712430424
04401,Penobscot County,ME,1.6581632653061225,0.9501187648456058,NA
04457,Penobscot County,ME,62.37244897959183,NA,NA
04468,Penobscot County,ME,NA,79.92874109263659,NA
04572,Lincoln County,ME,NA,75.4750593824228,72.72727272727273
04609,Hancock County,ME,NA,NA,77.73654916512059
04743,Aroostook County,ME,NA,72.32779097387173,NA
04769,Aroostook County,ME,NA,36.87648456057007,NA
04841,Knox County,ME,NA,NA,50.09276437847866
04843,Knox County,ME,NA,NA,43.970315398886825
04856,Knox County,ME,NA,96.37767220902613,NA
04953,Penobscot County,ME,83.92857142857143,NA,NA
04976,Somerset County,ME,38.58418367346938,NA,NA
20602,Charles County,MD,66.70918367346938,60.80760095011877,NA
20619,St. Mary's County,MD,NA,93.58669833729216,NA
20636,St. Mary's County,MD,79.46428571428571,NA,NA
20650,St. Mary's County,MD,71.49234693877551,79.69121140142518,NA
20657,Calvert County,MD,61.16071428571429,NA,NA
20711,Anne Arundel County,MD,85.20408163265306,NA,NA
20724,Anne Arundel County,MD,76.84948979591837,NA,NA
20736,Calvert County,MD,95.08928571428571,NA,NA
20743,Prince George's County,MD,NA,NA,46.38218923933209
20748,Prince George's County,MD,36.41581632653062,NA,46.01113172541744
20764,Anne Arundel County,MD,NA,99.6437054631829,NA
20772,Prince George's County,MD,69.38775510204081,NA,NA
20774,Prince George's County,MD,35.7780612244898,NA,NA
20784,Prince George's County,MD,NA,67.3396674584323,NA
20850,Montgomery County,MD,NA,62.94536817102138,NA
20854,Montgomery County,MD,NA,NA,28.200371057513912
20872,Montgomery County,MD,NA,94.83372921615202,NA
20877,Montgomery County,MD,NA,75.41567695961994,NA
20878,Montgomery County,MD,80.5484693877551,52.612826603325416,NA
21037,Anne Arundel County,MD,NA,96.25890736342043,NA
21044,Howard County,MD,NA,56.17577197149644,NA
21060,Anne Arundel County,MD,53.57142857142857,NA,NA
21075,Howard County,MD,NA,93.58669833729216,NA
21102,Carroll County,MD,82.46173469387756,NA,NA
21111,Baltimore County,MD,NA,96.55581947743468,NA
21204,Baltimore County,MD,NA,68.76484560570071,NA
21222,Baltimore County,MD,NA,1.4845605700712587,NA
21226,Anne Arundel County,MD,92.7295918367347,NA,NA
21228,Baltimore County,MD,43.62244897959184,NA,NA
21230,Baltimore city,MD,59.43877551020408,NA,NA
21239,Baltimore city,MD,NA,47.26840855106889,NA
21401,Anne Arundel County,MD,20.727040816326532,NA,NA
21502,Allegany County,MD,NA,13.77672209026128,NA
21740,Washington County,MD,NA,20.665083135391924,NA
21754,Frederick County,MD,NA,NA,98.7012987012987
21811,Worcester County,MD,49.04336734693878,NA,NA
21874,Wicomico County,MD,NA,99.82185273159145,NA
21921,Cecil County,MD,NA,4.216152019002376,NA
01007,Hampshire County,MA,42.15561224489796,NA,NA
01013,Hampden County,MA,NA,NA,16.883116883116884
01040,Hampden County,MA,0.1913265306122449,NA,NA
01060,Hampshire County,MA,64.98724489795919,NA,NA
01073,Hampshire County,MA,76.08418367346938,NA,NA
01075,Hampshire County,MA,16.90051020408163,NA,NA
01104,Hampden County,MA,NA,20.30878859857482,NA
01106,Hampden County,MA,NA,NA,92.57884972170687
01108,Hampden County,MA,NA,23.75296912114014,NA
01109,Hampden County,MA,0.25510204081632654,63.53919239904988,NA
01201,Berkshire County,MA,NA,2.197149643705463,NA
01230,Berkshire County,MA,NA,42.042755344418055,97.03153988868274
01331,Worcester County,MA,4.145408163265306,NA,NA
01440,Worcester County,MA,NA,32.8978622327791,NA
01452,Worcester County,MA,NA,96.08076009501187,NA
01453,Worcester County,MA,NA,0.35629453681710216,NA
01462,Worcester County,MA,NA,83.78859857482185,NA
01507,Worcester County,MA,NA,NA,77.55102040816327
01519,Worcester County,MA,NA,90.73634204275535,NA
01524,Worcester County,MA,96.42857142857143,NA,NA
01550,Worcester County,MA,6.63265306122449,NA,NA
01566,Worcester County,MA,NA,87.35154394299288,NA
01568,Worcester County,MA,63.45663265306123,NA,NA
01581,Worcester County,MA,26.977040816326532,NA,NA
01602,Worcester County,MA,NA,NA,18.923933209647494
01605,Worcester County,MA,NA,16.5083135391924,NA
01606,Worcester County,MA,NA,NA,8.534322820037106
01609,Worcester County,MA,NA,24.8812351543943,NA
01610,Worcester County,MA,0.5739795918367347,NA,NA
01701,Middlesex County,MA,NA,5.10688836104513,6.679035250463822
01702,Middlesex County,MA,NA,43.28978622327791,NA
01740,Worcester County,MA,91.13520408163265,NA,NA
01742,Middlesex County,MA,46.30102040816326,31.413301662707838,NA
01749,Middlesex County,MA,44.83418367346938,NA,NA
01752,Middlesex County,MA,NA,NA,23.747680890538035
01754,Middlesex County,MA,NA,NA,99.25788497217069
01757,Worcester County,MA,47.89540816326531,NA,NA
01776,Middlesex County,MA,35.140306122448976,NA,NA
01778,Middlesex County,MA,NA,NA,53.06122448979592
01801,Middlesex County,MA,1.1479591836734695,NA,NA
01810,Essex County,MA,NA,61.935866983372925,14.842300556586272
01821,Middlesex County,MA,4.655612244897959,60.03562945368171,NA
01824,Middlesex County,MA,NA,NA,6.493506493506493
01826,Middlesex County,MA,NA,76.90023752969121,NA
01834,Essex County,MA,NA,86.93586698337292,NA
01840,Essex County,MA,NA,NA,99.81447124304268
01841,Essex County,MA,NA,46.912114014251785,NA
01843,Essex County,MA,2.8698979591836737,NA,NA
01850,Middlesex County,MA,6.25,NA,NA
01851,Middlesex County,MA,NA,1.840855106888361,79.59183673469387
01852,Middlesex County,MA,NA,39.78622327790974,NA
01854,Middlesex County,MA,NA,NA,4.267161410018553
01862,Middlesex County,MA,NA,40.61757719714964,NA
01876,Middlesex County,MA,NA,58.3729216152019,NA
01886,Middlesex County,MA,18.239795918367346,NA,NA
01887,Middlesex County,MA,NA,1.66270783847981,NA
01890,Middlesex County,MA,36.224489795918366,26.543942992874108,NA
01902,Essex County,MA,0.31887755102040816,NA,NA
01904,Essex County,MA,NA,9.91686460807601,NA
01906,Essex County,MA,NA,6.175771971496437,NA
01913,Essex County,MA,NA,6.88836104513064,NA
01923,Essex County,MA,3.635204081632653,NA,NA
01940,Essex County,MA,NA,NA,17.068645640074212
01945,Essex County,MA,NA,95.96199524940617,NA
01952,Essex County,MA,NA,50.1187648456057,NA
01960,Essex County,MA,0.8290816326530612,NA,NA
01970,Essex County,MA,1.0841836734693877,NA,NA
02035,Norfolk County,MA,NA,84.56057007125891,NA
02043,Plymouth County,MA,NA,NA,16.512059369202227
02045,Plymouth County,MA,26.977040816326532,NA,NA
02054,Norfolk County,MA,64.28571428571429,NA,NA
02061,Plymouth County,MA,59.24744897959183,NA,NA
02062,Norfolk County,MA,NA,8.3729216152019,NA
02067,Norfolk County,MA,NA,NA,75.139146567718
02116,Suffolk County,MA,37.62755102040816,NA,NA
02119,Suffolk County,MA,NA,NA,2.5974025974025974
02121,Suffolk County,MA,8.673469387755102,3.978622327790974,NA
02122,Suffolk County,MA,30.42091836734694,NA,NA
02124,Suffolk County,MA,0,14.489311163895488,NA
02125,Suffolk County,MA,0.4464285714285714,NA,NA
02126,Suffolk County,MA,NA,2.672209026128266,NA
02127,Suffolk County,MA,NA,NA,10.760667903525047
02128,Suffolk County,MA,NA,91.80522565320665,NA
02132,Suffolk County,MA,52.423469387755105,1.187648456057007,NA
02135,Suffolk County,MA,NA,NA,0.927643784786642
02139,Middlesex County,MA,NA,1.7814726840855106,NA
02143,Middlesex County,MA,NA,92.28028503562945,NA
02148,Middlesex County,MA,15.561224489795919,NA,NA
02150,Suffolk County,MA,4.2729591836734695,NA,NA
02151,Suffolk County,MA,NA,0,13.543599257884972
02152,Suffolk County,MA,NA,NA,36.36363636363637
02155,Middlesex County,MA,NA,13.954869358669834,NA
02170,Norfolk County,MA,25.127551020408163,NA,89.6103896103896
02176,Middlesex County,MA,NA,28.08788598574822,NA
02180,Middlesex County,MA,10.331632653061225,16.80522565320665,NA
02184,Norfolk County,MA,NA,93.52731591448931,NA
02186,Norfolk County,MA,35.96938775510204,53.50356294536817,NA
02189,Norfolk County,MA,18.68622448979592,NA,NA
02190,Norfolk County,MA,NA,29.572446555819475,NA
02301,Plymouth County,MA,0.06377551020408163,NA,0.5565862708719851
02324,Plymouth County,MA,30.931122448979593,NA,46.75324675324675
02339,Plymouth County,MA,62.308673469387756,NA,NA
02360,Plymouth County,MA,NA,0.17814726840855108,NA
02368,Norfolk County,MA,NA,3.44418052256532,NA
02370,Plymouth County,MA,NA,19.83372921615202,NA
02446,Norfolk County,MA,NA,27.850356294536816,NA
02453,Middlesex County,MA,NA,NA,48.97959183673469
02458,Middlesex County,MA,39.66836734693878,NA,NA
02459,Middlesex County,MA,NA,83.4916864608076,NA
02460,Middlesex County,MA,53.63520408163265,NA,NA
02472,Middlesex County,MA,NA,88.53919239904988,NA
02482,Norfolk County,MA,NA,72.56532066508314,NA
02492,Norfolk County,MA,77.55102040816327,21.555819477434678,NA
02536,Barnstable County,MA,17.92091836734694,10.21377672209026,NA
02537,Barnstable County,MA,NA,78.56294536817103,NA
02554,Nantucket County,MA,NA,44.06175771971497,NA
02571,Plymouth County,MA,10.96938775510204,32.18527315914489,NA
02631,Barnstable County,MA,NA,NA,35.621521335807046
02632,Barnstable County,MA,NA,71.14014251781472,NA
02649,Barnstable County,MA,75,NA,NA
02664,Barnstable County,MA,NA,89.13301662707839,NA
02673,Barnstable County,MA,NA,NA,91.09461966604823
02675,Barnstable County,MA,NA,NA,41.37291280148423
02703,Bristol County,MA,1.0204081632653061,0.6532066508313539,NA
02718,Bristol County,MA,NA,72.62470308788599,NA
02719,Bristol County,MA,67.92091836734694,NA,NA
02721,Bristol County,MA,0.5102040816326531,NA,NA
02723,Bristol County,MA,2.295918367346939,NA,NA
02738,Plymouth County,MA,NA,NA,98.33024118738405
02739,Plymouth County,MA,NA,91.68646080760095,NA
02740,Bristol County,MA,0.12755102040816327,0.11876484560570072,NA
02744,Bristol County,MA,8.545918367346939,NA,NA
02747,Bristol County,MA,NA,41.56769596199525,NA
02762,Norfolk County,MA,48.150510204081634,NA,NA
02767,Bristol County,MA,20.28061224489796,NA,NA
02780,Bristol County,MA,0.3826530612244898,NA,NA
48009,Oakland County,MI,71.04591836734694,NA,NA
48017,Oakland County,MI,NA,NA,61.59554730983302
48021,Macomb County,MI,NA,13.004750593824227,NA
48025,Oakland County,MI,NA,51.543942992874115,NA
48035,Macomb County,MI,NA,6.7695961995249405,NA
48036,Macomb County,MI,22.64030612244898,NA,15.0278293135436
48038,Macomb County,MI,10.778061224489797,41.8646080760095,21.521335807050093
48039,St. Clair County,MI,NA,77.55344418052258,NA
48040,St. Clair County,MI,NA,85.09501187648456,NA
48044,Macomb County,MI,NA,NA,18.738404452690165
48047,Macomb County,MI,NA,10.748218527315915,NA
48060,St. Clair County,MI,NA,3.3847980997624703,NA
48071,Oakland County,MI,90.36989795918367,NA,NA
48072,Oakland County,MI,NA,43.46793349168646,NA
48073,Oakland County,MI,NA,NA,23.00556586270872
48076,Oakland County,MI,NA,20.190023752969122,NA
48082,Macomb County,MI,NA,NA,95.17625231910947
48089,Macomb County,MI,25.510204081632654,NA,NA
48093,Macomb County,MI,NA,32.00712589073634,NA
48096,Macomb County,MI,NA,98.51543942992875,NA
48103,Washtenaw County,MI,12.563775510204081,83.07600950118766,76.06679035250464
48105,Washtenaw County,MI,31.505102040816325,NA,1.855287569573284
48108,Washtenaw County,MI,30.5484693877551,58.6104513064133,NA
48111,Wayne County,MI,40.625,NA,NA
48116,Livingston County,MI,52.99744897959183,61.342042755344416,10.38961038961039
48118,Washtenaw County,MI,NA,27.672209026128264,NA
48125,Wayne County,MI,87.75510204081633,NA,NA
48127,Wayne County,MI,81.9515306122449,14.429928741092638,NA
48131,Monroe County,MI,95.8545918367347,NA,NA
48146,Wayne County,MI,NA,41.9833729216152,NA
48152,Wayne County,MI,NA,4.038004750593824,NA
48158,Washtenaw County,MI,NA,89.66745843230403,NA
48161,Monroe County,MI,NA,47.387173396674584,NA
48162,Monroe County,MI,33.545918367346935,NA,NA
48166,Monroe County,MI,34.69387755102041,NA,NA
48167,Oakland County,MI,NA,20.42755344418052,NA
48170,Wayne County,MI,NA,2.0783847980997625,2.411873840445269
48180,Wayne County,MI,NA,1.3657957244655583,NA
48184,Wayne County,MI,NA,18.646080760095014,NA
48185,Wayne County,MI,20.85459183673469,NA,NA
48188,Wayne County,MI,10.58673469387755,NA,NA
48192,Wayne County,MI,14.795918367346939,NA,NA
48195,Wayne County,MI,NA,7.422802850356295,NA
48201,Wayne County,MI,NA,49.34679334916864,NA
48212,Wayne County,MI,7.908163265306123,NA,NA
48214,Wayne County,MI,NA,19.121140142517813,NA
48221,Wayne County,MI,19.96173469387755,NA,NA
48224,Wayne County,MI,2.0408163265306123,NA,NA
48227,Wayne County,MI,3.061224489795918,NA,NA
48228,Wayne County,MI,1.3392857142857142,48.634204275534444,NA
48234,Wayne County,MI,6.377551020408164,NA,NA
48235,Wayne County,MI,2.1045918367346936,NA,NA
48301,Oakland County,MI,NA,NA,41.74397031539889
48304,Oakland County,MI,81.25,43.17102137767221,22.07792207792208
48309,Oakland County,MI,27.4234693877551,NA,NA
48310,Macomb County,MI,NA,9.144893111638956,NA
48316,Macomb County,MI,32.079081632653065,NA,NA
48324,Oakland County,MI,77.16836734693877,NA,NA
48328,Oakland County,MI,NA,23.33729216152019,NA
48329,Oakland County,MI,72.32142857142857,15.676959619952493,NA
48331,Oakland County,MI,NA,NA,75.32467532467533
48363,Oakland County,MI,77.74234693877551,NA,NA
48374,Oakland County,MI,66.13520408163265,92.6959619952494,NA
48375,Oakland County,MI,42.857142857142854,NA,NA
48377,Oakland County,MI,NA,66.0332541567696,NA
48421,Lapeer County,MI,94.83418367346938,NA,NA
48423,Genesee County,MI,25.38265306122449,49.4061757719715,NA
48438,Genesee County,MI,89.47704081632652,NA,NA
48439,Genesee County,MI,34.24744897959184,NA,NA
48451,Genesee County,MI,NA,67.10213776722091,NA
48462,Oakland County,MI,NA,65.73634204275535,NA
48601,Saginaw County,MI,NA,37.05463182897862,NA
48603,Saginaw County,MI,9.821428571428571,6.591448931116389,NA
48623,Saginaw County,MI,NA,40.320665083135395,NA
48624,Gladwin County,MI,NA,13.895486935866982,NA
48626,Saginaw County,MI,NA,NA,73.65491651205936
48634,Bay County,MI,92.92091836734694,NA,NA
48642,Midland County,MI,60.90561224489795,NA,NA
48653,Roscommon County,MI,NA,58.90736342042755,NA
48655,Saginaw County,MI,56.88775510204081,NA,NA
48656,Roscommon County,MI,68.75,NA,NA
48706,Bay County,MI,5.994897959183673,10.926365795724466,NA
48708,Bay County,MI,43.0484693877551,NA,NA
48723,Tuscola County,MI,NA,18.28978622327791,NA
48726,Tuscola County,MI,95.66326530612244,NA,NA
48750,Iosco County,MI,NA,NA,55.10204081632652
48801,Gratiot County,MI,39.859693877551024,NA,NA
48813,Eaton County,MI,75.51020408163265,NA,NA
48817,Shiawassee County,MI,79.46428571428571,75.1187648456057,NA
48836,Livingston County,MI,NA,44.655581947743464,NA
48840,Ingham County,MI,71.74744897959184,NA,NA
48843,Livingston County,MI,10.267857142857142,2.9097387173396676,NA
48846,Ionia County,MI,31.058673469387756,NA,NA
48847,Gratiot County,MI,NA,78.14726840855107,NA
48854,Ingham County,MI,NA,47.03087885985748,56.77179962894249
48855,Livingston County,MI,64.34948979591837,NA,NA
48858,Isabella County,MI,NA,4.453681710213777,NA
48867,Shiawassee County,MI,23.660714285714285,46.85273159144893,NA
48888,Montcalm County,MI,NA,71.61520190023754,NA
48912,Ingham County,MI,44.579081632653065,NA,NA
48917,Eaton County,MI,7.334183673469388,NA,NA
49002,Kalamazoo County,MI,NA,NA,21.70686456400742
49017,Calhoun County,MI,NA,19.002375296912113,NA
49022,Berrien County,MI,NA,9.263657957244655,NA
49036,Branch County,MI,22.95918367346939,NA,NA
49038,Berrien County,MI,NA,55.99762470308789,NA
49057,Van Buren County,MI,72.64030612244898,NA,NA
49058,Barry County,MI,NA,64.25178147268409,NA
49067,Cass County,MI,99.10714285714286,NA,NA
49076,Eaton County,MI,88.07397959183673,NA,NA
49082,Branch County,MI,NA,83.31353919239905,NA
49093,St. Joseph County,MI,24.23469387755102,NA,NA
49103,Berrien County,MI,97.8954081632653,NA,NA
49120,Berrien County,MI,12.053571428571429,NA,NA
49201,Jackson County,MI,57.78061224489795,NA,NA
49203,Jackson County,MI,6.122448979591836,5.225653206650831,NA
49221,Lenawee County,MI,45.34438775510204,3.32541567695962,NA
49229,Lenawee County,MI,94.19642857142857,NA,NA
49250,Hillsdale County,MI,NA,94.0023752969121,NA
49286,Lenawee County,MI,NA,38.53919239904988,NA
49301,Kent County,MI,NA,59.50118764845605,NA
49307,Mecosta County,MI,44.19642857142857,NA,NA
49315,Kent County,MI,38.45663265306122,NA,66.79035250463822
49333,Barry County,MI,60.39540816326531,61.935866983372925,NA
49341,Kent County,MI,NA,88.42042755344418,NA
49417,Ottawa County,MI,NA,4.156769596199525,NA
49418,Kent County,MI,NA,20.902612826603324,NA
49420,Oceana County,MI,84.50255102040816,NA,NA
49456,Ottawa County,MI,NA,NA,17.439703153988866
49503,Kent County,MI,8.60969387755102,63.24228028503563,NA
49646,Kalkaska County,MI,NA,68.46793349168647,NA
49685,Grand Traverse County,MI,71.1734693877551,NA,NA
49690,Grand Traverse County,MI,NA,87.94536817102137,NA
49720,Charlevoix County,MI,NA,54.03800475059383,NA
49746,Montmorency County,MI,94.51530612244898,NA,NA
49770,Emmet County,MI,52.74234693877551,NA,NA
49802,Dickinson County,MI,NA,94.29928741092637,NA
49829,Delta County,MI,NA,22.209026128266032,NA
49855,Marquette County,MI,36.670918367346935,NA,NA
49862,Alger County,MI,NA,NA,85.89981447124305
49913,Houghton County,MI,NA,90.97387173396675,38.961038961038966
49938,Gogebic County,MI,NA,41.033254156769594,NA
55008,Isanti County,MN,63.83928571428571,NA,NA
55011,Anoka County,MN,NA,97.32779097387173,NA
55016,Washington County,MN,NA,52.850356294536816,NA
55019,Rice County,MN,99.55357142857143,NA,NA
55021,Rice County,MN,NA,78.62232779097387,NA
55040,Isanti County,MN,NA,62.23277909738717,NA
55041,Wabasha County,MN,80.16581632653062,81.29453681710214,NA
55051,Kanabec County,MN,NA,NA,42.30055658627087
55057,Rice County,MN,61.98979591836735,NA,NA
55066,Goodhue County,MN,NA,13.420427553444181,9.276437847866418
55077,Dakota County,MN,NA,NA,71.79962894248608
55082,Washington County,MN,27.55102040816326,NA,NA
55101,Ramsey County,MN,26.977040816326532,NA,NA
55123,Dakota County,MN,73.21428571428571,NA,NA
55337,Dakota County,MN,NA,NA,24.860853432282003
55343,Hennepin County,MN,NA,NA,92.02226345083488
55352,Scott County,MN,NA,NA,98.51576994434137
55355,Meeker County,MN,97.25765306122449,NA,NA
55362,Wright County,MN,NA,NA,56.95732838589982
55363,Wright County,MN,93.55867346938776,NA,NA
55364,Hennepin County,MN,73.9795918367347,NA,NA
55376,Wright County,MN,78.38010204081633,NA,NA
55379,Scott County,MN,67.47448979591837,NA,NA
55389,Meeker County,MN,98.66071428571429,NA,NA
55398,Sherburne County,MN,NA,93.11163895486936,NA
55404,Hennepin County,MN,1.211734693877551,NA,NA
55412,Hennepin County,MN,7.206632653061225,NA,NA
55416,Hennepin County,MN,85.84183673469387,NA,NA
55418,Hennepin County,MN,NA,30.28503562945368,NA
55419,Hennepin County,MN,NA,77.25653206650831,NA
55429,Hennepin County,MN,NA,33.6104513064133,NA
55731,St. Louis County,MN,NA,NA,86.2708719851577
55744,Itasca County,MN,13.201530612244897,69.06175771971496,NA
55792,St. Louis County,MN,NA,NA,53.98886827458256
55803,St. Louis County,MN,59.693877551020414,NA,NA
55804,St. Louis County,MN,NA,NA,53.246753246753244
55811,St. Louis County,MN,24.043367346938776,NA,NA
55901,Olmsted County,MN,21.1734693877551,NA,10.946196660482375
55987,Winona County,MN,6.887755102040815,16.92399049881235,NA
56007,Freeborn County,MN,NA,50.05938242280285,NA
56011,Scott County,MN,NA,NA,79.0352504638219
56058,Le Sueur County,MN,83.48214285714286,NA,NA
56101,Cottonwood County,MN,NA,NA,96.1038961038961
56258,Lyon County,MN,NA,46.25890736342043,NA
56265,Chippewa County,MN,NA,NA,32.467532467532465
56308,Douglas County,MN,NA,NA,25.231910946196663
56334,Pope County,MN,NA,NA,60.1113172541744
56359,Mille Lacs County,MN,84.88520408163265,NA,NA
56378,Stearns County,MN,NA,89.7268408551069,NA
56401,Crow Wing County,MN,7.653061224489796,NA,NA
56472,Crow Wing County,MN,61.41581632653062,NA,NA
56474,Cass County,MN,NA,NA,56.21521335807051
56479,Todd County,MN,NA,NA,63.07977736549165
56537,Otter Tail County,MN,NA,33.43230403800475,NA
56560,Clay County,MN,10.395408163265305,53.56294536817102,10.018552875695732
56601,Beltrami County,MN,NA,NA,25.04638218923933
56621,Clearwater County,MN,NA,NA,28.014842300556587
56636,Itasca County,MN,86.73469387755102,NA,NA
56671,Beltrami County,MN,88.26530612244898,NA,NA
56701,Pennington County,MN,78.125,NA,NA
56716,Polk County,MN,NA,64.01425178147268,NA
38654,DeSoto County,MS,NA,49.524940617577194,NA
38701,Washington County,MS,NA,56.53206650831354,NA
39047,Rankin County,MS,NA,NA,34.87940630797773
39466,Pearl River County,MS,NA,11.817102137767222,NA
39507,Harrison County,MS,59.693877551020414,NA,NA
39520,Hancock County,MS,NA,32.60095011876484,NA
39532,Harrison County,MS,35.650510204081634,NA,NA
39553,Jackson County,MS,NA,72.5059382422803,NA
39556,Hancock County,MS,NA,95.66508313539192,NA
39560,Harrison County,MS,49.93622448979592,7.1258907363420425,NA
39571,Harrison County,MS,NA,76.00950118764845,NA
39573,Stone County,MS,94.32397959183673,NA,NA
39574,Harrison County,MS,NA,NA,73.46938775510205
39581,Jackson County,MS,88.2015306122449,NA,NA
39601,Lincoln County,MS,38.775510204081634,NA,NA
39666,Pike County,MS,65.88010204081633,NA,80.14842300556586
39744,Webster County,MS,NA,NA,77.73654916512059
63011,St. Louis County,MO,NA,12.589073634204276,NA
63017,St. Louis County,MO,55.61224489795919,56.47268408551069,NA
63028,Jefferson County,MO,NA,17.636579572446557,NA
63043,St. Louis County,MO,NA,NA,74.58256029684601
63044,St. Louis County,MO,88.5204081632653,59.204275534441805,48.05194805194805
63049,Jefferson County,MO,67.85714285714286,NA,97.58812615955473
63069,Franklin County,MO,NA,51.72209026128266,56.58627087198516
63110,St. Louis city,MO,NA,54.09738717339667,NA
63116,St. Louis city,MO,NA,45.843230403800476,NA
63122,St. Louis County,MO,NA,18.052256532066508,NA
63125,St. Louis County,MO,NA,NA,11.873840445269018
63129,St. Louis County,MO,NA,NA,36.54916512059369
63136,St. Louis County,MO,54.71938775510205,NA,NA
63137,St. Louis County,MO,NA,35.33254156769596,NA
63301,St. Charles County,MO,NA,2.2565320665083135,NA
63304,St. Charles County,MO,NA,59.44180522565321,NA
63366,St. Charles County,MO,71.36479591836735,3.0878859857482186,57.32838589981447
63376,St. Charles County,MO,NA,55.10688836104512,NA
63383,Warren County,MO,NA,67.2209026128266,NA
63385,St. Charles County,MO,NA,9.73871733966746,NA
63552,Macon County,MO,NA,76.187648456057,NA
63780,Scott County,MO,74.93622448979592,NA,NA
63901,Butler County,MO,11.28826530612245,NA,NA
64012,Cass County,MO,NA,19.418052256532068,NA
64015,Jackson County,MO,34.566326530612244,11.75771971496437,NA
64019,Johnson County,MO,NA,99.7624703087886,NA
64034,Jackson County,MO,92.0280612244898,NA,NA
64040,Johnson County,MO,NA,77.0190023752969,NA
64048,Clay County,MO,98.9795918367347,NA,NA
64050,Jackson County,MO,NA,12.054631828978621,NA
64052,Jackson County,MO,8.290816326530612,NA,NA
64055,Jackson County,MO,NA,5.522565320665083,NA
64056,Jackson County,MO,50.76530612244898,NA,NA
64060,Clay County,MO,67.53826530612244,NA,NA
64063,Jackson County,MO,31.313775510204085,NA,NA
64064,Jackson County,MO,NA,38.47980997624703,NA
64068,Clay County,MO,NA,28.444180522565322,NA
64076,Lafayette County,MO,60.26785714285714,72.9809976247031,NA
64083,Cass County,MO,29.591836734693878,NA,NA
64085,Ray County,MO,42.21938775510204,NA,NA
64086,Jackson County,MO,NA,NA,49.721706864564005
64111,Jackson County,MO,NA,82.06650831353919,NA
64114,Jackson County,MO,NA,33.966745843230406,NA
64117,Clay County,MO,61.224489795918366,NA,NA
64118,Clay County,MO,20.216836734693878,NA,NA
64128,Jackson County,MO,NA,24.228028503562946,NA
64130,Jackson County,MO,NA,47.68408551068883,NA
64132,Jackson County,MO,NA,85.5106888361045,NA
64138,Jackson County,MO,75.95663265306123,NA,NA
64157,Clay County,MO,27.168367346938776,NA,NA
64158,Clay County,MO,86.0969387755102,NA,NA
64424,Harrison County,MO,NA,91.33016627078385,NA
64505,Buchanan County,MO,NA,17.755344418052257,NA
64506,Buchanan County,MO,NA,5.0475059382422804,NA
64747,Cass County,MO,92.66581632653062,NA,NA
64801,Jasper County,MO,10.841836734693878,NA,74.95361781076066
64836,Jasper County,MO,15.242346938775512,NA,NA
64850,Newton County,MO,NA,16.330166270783845,19.666048237476808
64870,Jasper County,MO,79.8469387755102,NA,NA
65201,Boone County,MO,NA,NA,47.124304267161406
65202,Boone County,MO,62.181122448979586,NA,NA
65270,Randolph County,MO,83.73724489795919,NA,NA
65301,Pettis County,MO,3.826530612244898,NA,NA
65338,Benton County,MO,NA,98.93111638954869,NA
65360,Henry County,MO,80.9311224489796,NA,NA
65536,Laclede County,MO,NA,NA,21.89239332096475
65613,Polk County,MO,NA,30.225653206650833,NA
65705,Lawrence County,MO,NA,98.69358669833728,NA
65738,Greene County,MO,56.505102040816325,94.53681710213777,66.79035250463822
65775,Howell County,MO,NA,27.078384798099762,NA
65802,Greene County,MO,NA,46.14014251781472,NA
65803,Greene County,MO,NA,NA,17.25417439703154
65804,Greene County,MO,23.533163265306122,NA,NA
65807,Greene County,MO,NA,NA,5.75139146567718
65810,Greene County,MO,NA,90.201900237529685,NA
59047,Park County,MT,69.4515306122449,NA,NA
59102,Yellowstone County,MT,93.17602040816327,NA,1.2987012987012987
59270,Richland County,MT,NA,57.24465558194775,NA
59405,Cascade County,MT,23.278061224489797,NA,30.426716141001855
59715,Gallatin County,MT,NA,29.394299287410924,NA
59801,Missoula County,MT,78.95408163265306,NA,NA
59840,Ravalli County,MT,NA,49.8812351543943,NA
59864,Lake County,MT,NA,94.65558194774347,NA
59870,Ravalli County,MT,NA,72.9809976247031,NA
59917,Lincoln County,MT,NA,89.37054631828978,NA
68008,Washington County,NE,NA,55.76009501187649,NA
68107,Douglas County,NE,NA,47.565320665083135,60.1113172541744
68122,Douglas County,NE,83.41836734693877,NA,NA
68124,Douglas County,NE,NA,76.06888361045131,NA
68130,Douglas County,NE,NA,65.14251781472684,NA
68134,Douglas County,NE,49.170918367346935,NA,NA
68522,Lancaster County,NE,93.23979591836735,NA,NA
68801,Hall County,NE,NA,59.798099762470315,NA
68826,Merrick County,NE,NA,NA,92.94990723562152
68847,Buffalo County,NE,NA,NA,51.20593692022264
68850,Dawson County,NE,NA,75.29691211401425,NA
68949,Phelps County,NE,90.68877551020408,86.57957244655582,NA
89103,Clark County,NV,45.089285714285715,NA,NA
89108,Clark County,NV,17.283163265306122,NA,NA
89117,Clark County,NV,NA,30.522565320665084,NA
89123,Clark County,NV,44.13265306122449,NA,NA
89128,Clark County,NV,NA,60.688836104513065,NA
89131,Clark County,NV,39.41326530612245,NA,NA
89135,Clark County,NV,81.63265306122449,NA,NA
89139,Clark County,NV,67.60204081632652,NA,NA
89148,Clark County,NV,37.94642857142857,NA,NA
89149,Clark County,NV,55.420918367346935,NA,NA
89178,Clark County,NV,NA,82.95724465558195,NA
89406,Churchill County,NV,NA,23.574821852731592,NA
89410,Douglas County,NV,NA,25.05938242280285,NA
89429,Lyon County,NV,NA,78.14726840855107,NA
89434,Washoe County,NV,35.58673469387755,NA,NA
89436,Washoe County,NV,18.303571428571427,8.966745843230402,NA
89502,Washoe County,NV,16.071428571428573,NA,NA
89503,Washoe County,NV,NA,35.39192399049881,NA
89508,Washoe County,NV,NA,65.91448931116389,NA
89509,Washoe County,NV,41.77295918367347,NA,NA
89511,Washoe County,NV,55.22959183673469,NA,NA
89706,Carson City,NV,NA,NA,52.875695732838594
03053,Rockingham County,NH,77.35969387755102,NA,NA
03060,Hillsborough County,NH,NA,8.491686460807601,NA
03076,Hillsborough County,NH,36.98979591836735,NA,NA
03079,Rockingham County,NH,NA,NA,89.79591836734694
03103,Hillsborough County,NH,5.165816326530613,NA,NA
03106,Merrimack County,NH,NA,NA,72.72727272727273
03276,Merrimack County,NH,NA,NA,84.2300556586271
03301,Merrimack County,NH,NA,36.81710213776722,NA
03431,Cheshire County,NH,NA,NA,5.380333951762523
03582,Coos County,NH,98.40561224489795,NA,NA
03584,Coos County,NH,99.42602040816327,NA,NA
03755,Grafton County,NH,NA,91.6270783847981,84.04452690166976
03766,Grafton County,NH,NA,58.66983372921615,NA
03820,Strafford County,NH,NA,95.19002375296913,NA
03833,Rockingham County,NH,75.63775510204081,NA,NA
03894,Carroll County,NH,NA,96.85273159144893,NA
07002,Hudson County,NJ,60.650510204081634,NA,NA
07003,Essex County,NJ,NA,98.27790973871734,NA
07005,Morris County,NJ,NA,NA,76.25231910946196
07009,Essex County,NJ,NA,73.812351543943,NA
07013,Passaic County,NJ,NA,30.04750593824228,NA
07030,Hudson County,NJ,NA,55.403800475059384,NA
07039,Essex County,NJ,71.68367346938776,30.878859857482183,99.62894248608535
07050,Essex County,NJ,8.801020408163266,NA,NA
07054,Morris County,NJ,NA,NA,30.0556586270872
07060,Union County,NJ,NA,NA,88.49721706864564
07081,Union County,NJ,NA,NA,59.554730983302406
07083,Union County,NJ,NA,55.93824228028503,NA
07087,Hudson County,NJ,95.28061224489795,NA,NA
07090,Union County,NJ,NA,81.53206650831353,NA
07093,Hudson County,NJ,NA,8.669833729216151,NA
07104,Essex County,NJ,0.701530612244898,NA,NA
07204,Union County,NJ,87.5,NA,NA
07304,Hudson County,NJ,2.806122448979592,NA,NA
07438,Morris County,NJ,NA,74.22802850356295,NA
07456,Passaic County,NJ,NA,87.52969121140143,NA
07461,Sussex County,NJ,96.61989795918367,NA,NA
07463,Bergen County,NJ,NA,NA,94.61966604823748
07470,Passaic County,NJ,89.98724489795919,NA,NA
07513,Passaic County,NJ,51.46683673469388,NA,NA
07522,Passaic County,NJ,19.068877551020407,NA,NA
07524,Passaic County,NJ,99.36224489795919,NA,NA
07605,Bergen County,NJ,NA,84.73871733966746,NA
07628,Bergen County,NJ,33.099489795918366,81.11638954869359,NA
07645,Bergen County,NJ,NA,91.3895486935867,NA
07657,Bergen County,NJ,NA,71.79334916864607,NA
07663,Bergen County,NJ,51.91326530612245,NA,NA
07670,Bergen County,NJ,79.65561224489795,NA,NA
07701,Monmouth County,NJ,38.2015306122449,NA,NA
07716,Monmouth County,NJ,NA,81.17577197149643,NA
07724,Monmouth County,NJ,NA,29.631828978622327,NA
07726,Monmouth County,NJ,84.75765306122449,NA,NA
07728,Monmouth County,NJ,12.755102040816327,NA,NA
07740,Monmouth County,NJ,NA,5.166270783847981,NA
07748,Monmouth County,NJ,NA,NA,89.98144712430427
07753,Monmouth County,NJ,NA,6.591448931116389,NA
07828,Morris County,NJ,NA,NA,94.24860853432281
07850,Morris County,NJ,69.51530612244898,NA,NA
07885,Morris County,NJ,73.40561224489795,NA,NA
07901,Union County,NJ,66.6454081632653,NA,NA
07960,Morris County,NJ,NA,NA,17.810760667903523
08003,Camden County,NJ,NA,65.61757719714964,NA
08005,Ocean County,NJ,15.178571428571427,NA,NA
08012,Camden County,NJ,5.038265306122449,NA,NA
08029,Camden County,NJ,91.51785714285714,NA,NA
08043,Camden County,NJ,NA,NA,16.697588126159555
08057,Burlington County,NJ,91.07142857142857,46.61520190023753,NA
08062,Gloucester County,NJ,98.02295918367348,NA,NA
08086,Gloucester County,NJ,NA,98.15914489311164,NA
08088,Burlington County,NJ,NA,21.021377672209027,NA
08098,Salem County,NJ,NA,NA,77.1799628942486
08110,Camden County,NJ,11.224489795918368,NA,NA
08203,Atlantic County,NJ,NA,NA,43.59925788497217
08234,Atlantic County,NJ,NA,10.035629453681711,NA
08244,Atlantic County,NJ,NA,79.57244655581948,NA
08260,Cape May County,NJ,NA,20.368171021377673,NA
08330,Atlantic County,NJ,53.125,90.26128266033254,NA
08361,Cumberland County,NJ,NA,39.726840855106886,NA
08401,Atlantic County,NJ,3.6989795918367347,NA,17.996289424860855
08550,Mercer County,NJ,NA,83.55106888361044,NA
08736,Monmouth County,NJ,NA,99.5249406175772,NA
08751,Ocean County,NJ,70.66326530612244,NA,NA
08817,Middlesex County,NJ,NA,16.864608076009503,NA
08824,Middlesex County,NJ,85.96938775510205,NA,NA
08846,Middlesex County,NJ,NA,NA,92.39332096474953
87002,Valencia County,NM,41.83673469387755,NA,NA
87004,Sandoval County,NM,NA,69.89311163895488,NA
87015,Santa Fe County,NM,70.8545918367347,NA,NA
87031,Valencia County,NM,NA,NA,78.66419294990723
87104,Bernalillo County,NM,NA,86.22327790973871,NA
87106,Bernalillo County,NM,16.964285714285715,NA,NA
87108,Bernalillo County,NM,NA,23.39667458432304,NA
87110,Bernalillo County,NM,NA,6.88836104513064,NA
87112,Bernalillo County,NM,NA,7.066508313539193,NA
87114,Bernalillo County,NM,6.696428571428571,NA,NA
87121,Bernalillo County,NM,32.015306122448976,NA,NA
87144,Sandoval County,NM,61.60714285714286,NA,NA
87301,McKinley County,NM,20.918367346938776,NA,NA
87413,San Juan County,NM,NA,46.080760095011875,NA
87532,Santa Fe County,NM,75.82908163265306,NA,NA
87571,Taos County,NM,NA,41.270783847980994,NA
88008,Doa Ana County,NM,NA,NA,97.95918367346938
88061,Grant County,NM,84.6938775510204,NA,NA
88101,Curry County,NM,NA,4.572446555819478,NA
88220,Eddy County,NM,NA,NA,20.408163265306122
88240,Lea County,NM,5.357142857142857,12.945368171021377,NA
10003,New York County,NY,44.77040816326531,NA,NA
10022,New York County,NY,NA,83.55106888361044,NA
10025,New York County,NY,NA,0.7719714964370546,NA
10027,New York County,NY,4.336734693877551,NA,NA
10034,New York County,NY,NA,11.460807600950119,29.87012987012987
10038,New York County,NY,89.73214285714286,NA,NA
10304,Richmond County,NY,NA,NA,58.62708719851577
10314,Richmond County,NY,NA,2.6128266033254155,NA
10454,Bronx County,NY,NA,3.9192399049881232,NA
10459,Bronx County,NY,NA,73.15914489311164,NA
10460,Bronx County,NY,1.4668367346938775,NA,NA
10461,Bronx County,NY,NA,12.707838479809977,NA
10462,Bronx County,NY,NA,2.8503562945368173,NA
10463,Bronx County,NY,24.489795918367346,NA,NA
10466,Bronx County,NY,3.9540816326530615,NA,NA
10467,Bronx County,NY,NA,4.275534441805226,NA
10468,Bronx County,NY,1.2755102040816326,NA,83.85899814471243
10472,Bronx County,NY,1.8494897959183674,NA,NA
10473,Bronx County,NY,NA,4.394299287410926,NA
10562,Westchester County,NY,NA,56.65083135391924,35.25046382189239
10598,Westchester County,NY,NA,NA,28.942486085343226
10940,Orange County,NY,NA,70.36817102137766,NA
10956,Rockland County,NY,NA,61.104513064133016,NA
11030,Nassau County,NY,NA,82.3040380047506,NA
11050,Nassau County,NY,NA,86.04513064133018,NA
11102,Queens County,NY,NA,39.66745843230404,39.14656771799629
11207,Kings County,NY,4.400510204081633,NA,NA
11208,Kings County,NY,6.441326530612244,NA,NA
11212,Kings County,NY,NA,0.4750593824228029,NA
11213,Kings County,NY,4.528061224489796,NA,NA
11221,Kings County,NY,NA,36.57957244655582,NA
11231,Kings County,NY,33.609693877551024,NA,NA
11238,Kings County,NY,NA,10.332541567695962,NA
11362,Queens County,NY,NA,76.48456057007125,NA
11368,Queens County,NY,5.86734693877551,NA,NA
11375,Queens County,NY,NA,23.634204275534444,NA
11378,Queens County,NY,NA,49.703087885985745,NA
11414,Queens County,NY,91.90051020408163,NA,NA
11420,Queens County,NY,NA,NA,61.4100185528757
11421,Queens County,NY,NA,97.56532066508314,NA
11429,Queens County,NY,NA,25.475059382422806,NA
11436,Queens County,NY,NA,NA,96.28942486085343
11542,Nassau County,NY,NA,90.32066508313538,NA
11561,Nassau County,NY,NA,NA,53.61781076066791
11581,Nassau County,NY,NA,NA,61.96660482374769
11706,Suffolk County,NY,47.19387755102041,NA,NA
11730,Suffolk County,NY,89.09438775510205,NA,NA
11764,Suffolk County,NY,NA,97.44655581947742,79.0352504638219
11779,Suffolk County,NY,NA,NA,80.89053803339517
11788,Suffolk County,NY,NA,67.87410926365796,NA
11793,Nassau County,NY,NA,57.30403800475059,NA
11901,Suffolk County,NY,42.474489795918366,NA,NA
12010,Montgomery County,NY,19.642857142857142,NA,NA
12019,Saratoga County,NY,NA,77.96912114014252,NA
12025,Fulton County,NY,NA,74.82185273159145,84.78664192949907
12078,Fulton County,NY,NA,52.55344418052257,NA
12094,Rensselaer County,NY,99.6811224489796,NA,NA
12182,Rensselaer County,NY,41.26275510204081,42.99287410926366,NA
12189,Albany County,NY,NA,56.057007125890735,NA
12204,Albany County,NY,81.05867346938776,NA,NA
12309,Schenectady County,NY,NA,NA,37.291280148423006
12414,Greene County,NY,NA,63.36104513064132,NA
12477,Ulster County,NY,68.87755102040816,NA,NA
12550,Orange County,NY,NA,47.20902612826603,86.82745825602969
12571,Dutchess County,NY,87.37244897959184,NA,NA
12721,Sullivan County,NY,NA,99.8812351543943,NA
12804,Warren County,NY,NA,53.80047505938242,NA
12828,Washington County,NY,NA,59.61995249406176,NA
12887,Washington County,NY,60.84183673469388,NA,NA
12901,Clinton County,NY,14.668367346938776,NA,NA
12946,Essex County,NY,NA,87.64845605700712,NA
12953,Franklin County,NY,41.454081632653065,NA,NA
12966,Franklin County,NY,NA,90.61757719714964,NA
12983,Franklin County,NY,NA,85.03562945368171,NA
13021,Cayuga County,NY,3.188775510204082,1.3064133016627077,NA
13027,Onondaga County,NY,11.096938775510203,NA,NA
13032,Madison County,NY,NA,36.63895486935867,NA
13037,Madison County,NY,52.61479591836735,NA,NA
13041,Onondaga County,NY,NA,94.18052256532067,NA
13045,Cortland County,NY,67.79336734693877,NA,NA
13069,Oswego County,NY,4.719387755102041,NA,NA
13083,Oswego County,NY,94.89795918367348,NA,NA
13088,Onondaga County,NY,21.81122448979592,NA,NA
13104,Onondaga County,NY,43.558673469387756,NA,NA
13148,Seneca County,NY,19.706632653061224,NA,NA
13166,Cayuga County,NY,72.25765306122449,NA,NA
13204,Onondaga County,NY,9.247448979591837,NA,NA
13207,Onondaga County,NY,24.426020408163264,NA,NA
13208,Onondaga County,NY,9.948979591836734,31.888361045130644,NA
13215,Onondaga County,NY,NA,43.40855106888361,NA
13219,Onondaga County,NY,NA,40.795724465558195,NA
13323,Oneida County,NY,59.88520408163265,72.20902612826603,NA
13326,Otsego County,NY,NA,49.049881235154395,NA
13329,Herkimer County,NY,NA,92.93349168646081,NA
13339,Montgomery County,NY,NA,44.418052256532064,NA
13354,Oneida County,NY,93.75,NA,NA
13357,Herkimer County,NY,NA,45.72446555819478,NA
13367,Lewis County,NY,62.818877551020414,NA,NA
13403,Oneida County,NY,NA,NA,87.75510204081633
13407,Herkimer County,NY,NA,57.66033254156769,NA
13413,Oneida County,NY,40.30612244897959,NA,NA
13421,Madison County,NY,NA,43.764845605700714,NA
13433,Lewis County,NY,NA,99.1686460807601,NA
13617,St. Lawrence County,NY,81.37755102040816,NA,NA
13667,St. Lawrence County,NY,76.27551020408163,NA,NA
13669,St. Lawrence County,NY,46.683673469387756,NA,NA
13676,St. Lawrence County,NY,25.7015306122449,65.97387173396675,NA
13753,Delaware County,NY,NA,67.2209026128266,NA
13760,Broome County,NY,15.114795918367346,0.23752969121140144,NA
13790,Broome County,NY,NA,30.760095011876487,NA
13820,Otsego County,NY,7.780612244897959,4.98812351543943,NA
13850,Broome County,NY,NA,62.70783847980997,NA
13856,Delaware County,NY,NA,NA,57.5139146567718
13905,Broome County,NY,NA,3.147268408551069,NA
14004,Erie County,NY,NA,66.6270783847981,NA
14030,Erie County,NY,98.08673469387756,NA,NA
14031,Erie County,NY,NA,65.55819477434679,NA
14052,Erie County,NY,NA,45.665083135391924,NA
14075,Erie County,NY,45.089285714285715,4.097387173396674,NA
14094,Niagara County,NY,1.594387755102041,13.182897862232778,NA
14103,Orleans County,NY,36.160714285714285,NA,NA
14108,Niagara County,NY,NA,73.51543942992875,NA
14120,Niagara County,NY,4.081632653061225,NA,NA
14141,Erie County,NY,89.9234693877551,NA,NA
14150,Erie County,NY,NA,NA,15.584415584415584
14174,Niagara County,NY,72.76785714285714,68.646080760095,NA
14207,Erie County,NY,NA,NA,69.75881261595546
14209,Erie County,NY,60.52295918367348,NA,NA
14218,Erie County,NY,15.433673469387754,NA,NA
14219,Erie County,NY,NA,43.942992874109265,NA
14224,Erie County,NY,NA,5.938242280285035,NA
14304,Niagara County,NY,4.209183673469387,NA,NA
14411,Orleans County,NY,52.04081632653062,NA,NA
14420,Monroe County,NY,NA,48.812351543942995,NA
14424,Ontario County,NY,2.5510204081632653,0.5938242280285035,NA
14432,Ontario County,NY,60.076530612244895,NA,NA
14435,Livingston County,NY,NA,91.270783847981,NA
14437,Livingston County,NY,65.68877551020408,NA,NA
14450,Monroe County,NY,13.966836734693878,0.8907363420427553,NA
14469,Ontario County,NY,NA,46.79334916864608,NA
14472,Monroe County,NY,39.9234693877551,NA,NA
14502,Wayne County,NY,NA,71.85273159144893,NA
14504,Ontario County,NY,NA,95.24940617577197,NA
14506,Monroe County,NY,96.10969387755102,NA,NA
14522,Wayne County,NY,NA,21.43705463182898,NA
14534,Monroe County,NY,NA,1.2470308788598574,NA
14559,Monroe County,NY,8.737244897959185,48.45605700712589,NA
14564,Ontario County,NY,NA,62.410926365795724,NA
14568,Wayne County,NY,NA,71.61520190023754,NA
14569,Wyoming County,NY,80.67602040816327,53.087885985748215,NA
14580,Monroe County,NY,0.9566326530612245,NA,31.539888682745826
14586,Monroe County,NY,57.01530612244898,NA,NA
14589,Wayne County,NY,28.380102040816325,NA,NA
14606,Monroe County,NY,2.614795918367347,NA,63.63636363636363
14607,Monroe County,NY,NA,66.80522565320665,NA
14610,Monroe County,NY,78.76275510204081,19.121140142517813,NA
14611,Monroe County,NY,NA,12.292161520190023,NA
14612,Monroe County,NY,NA,27.612826603325413,NA
14615,Monroe County,NY,8.99234693877551,NA,NA
14616,Monroe County,NY,14.604591836734693,NA,NA
14617,Monroe County,NY,NA,39.311163895486935,NA
14618,Monroe County,NY,NA,87.70783847980998,NA
14619,Monroe County,NY,NA,33.66983372921615,NA
14620,Monroe County,NY,NA,NA,81.26159554730982
14621,Monroe County,NY,0.6377551020408163,NA,13.172541743970315
14624,Monroe County,NY,NA,1.4251781472684086,NA
14625,Monroe County,NY,92.21938775510205,95.84323040380048,NA
14626,Monroe County,NY,2.933673469387755,2.434679334916865,NA
14701,Chautauqua County,NY,2.74234693877551,NA,NA
14706,Cattaraugus County,NY,89.66836734693877,NA,NA
14727,Allegany County,NY,64.66836734693877,NA,NA
14735,Allegany County,NY,91.6454081632653,NA,NA
14737,Cattaraugus County,NY,78.95408163265306,NA,NA
14760,Cattaraugus County,NY,74.10714285714286,NA,NA
14779,Cattaraugus County,NY,NA,91.9833729216152,NA
14807,Steuben County,NY,97.13010204081633,NA,NA
14812,Schuyler County,NY,95.02551020408163,NA,NA
14830,Steuben County,NY,18.81377551020408,NA,NA
14850,Tompkins County,NY,4.591836734693878,3.681710213776722,75.69573283858998
14870,Steuben County,NY,77.29591836734694,NA,NA
27006,Davie County,NC,53.18877551020408,NA,NA
27011,Yadkin County,NC,NA,90.14251781472684,NA
27021,Stokes County,NC,31.568877551020407,25.771971496437057,NA
27028,Davie County,NC,12.627551020408163,5.641330166270784,NA
27030,Surry County,NC,NA,NA,0.7421150278293136
27043,Stokes County,NC,NA,NA,61.781076066790355
27045,Forsyth County,NC,NA,46.67458432304038,NA
27052,Stokes County,NC,NA,51.00950118764845,NA
27055,Yadkin County,NC,NA,NA,48.42300556586271
27104,Forsyth County,NC,54.01785714285714,4.334916864608076,NA
27105,Forsyth County,NC,NA,1.66270783847981,NA
27107,Forsyth County,NC,NA,2.315914489311164,NA
27127,Forsyth County,NC,12.181122448979592,2.7909738717339665,NA
27215,Alamance County,NC,48.660714285714285,NA,NA
27249,Guilford County,NC,72.44897959183673,NA,NA
27253,Alamance County,NC,39.09438775510204,NA,NA
27262,Guilford County,NC,NA,50.83135391923991,NA
27282,Guilford County,NC,86.28826530612244,NA,NA
27292,Davidson County,NC,79.91071428571429,0.7125890736342043,NA
27295,Davidson County,NC,71.30102040816327,NA,NA
27298,Randolph County,NC,NA,NA,82.00371057513914
27302,Alamance County,NC,NA,9.144893111638956,NA
27312,Chatham County,NC,NA,45.48693586698337,NA
27330,Lee County,NC,17.53826530612245,NA,NA
27344,Chatham County,NC,NA,35.510688836104514,NA
27501,Harnett County,NC,NA,NA,85.15769944341372
27514,Orange County,NC,50.829081632653065,NA,NA
27516,Orange County,NC,NA,9.085510688836104,NA
27521,Harnett County,NC,NA,88.59857482185272,NA
27524,Johnston County,NC,63.52040816326531,NA,NA
27526,Wake County,NC,21.81122448979592,NA,NA
27529,Wake County,NC,19.77040816326531,NA,NA
27534,Wayne County,NC,NA,41.8646080760095,NA
27536,Vance County,NC,NA,25.9501187648456,NA
27540,Wake County,NC,37.56377551020408,NA,NA
27545,Wake County,NC,NA,40.43942992874109,NA
27565,Granville County,NC,NA,64.42992874109264,NA
27573,Person County,NC,NA,46.14014251781472,NA
27576,Johnston County,NC,49.2984693877551,NA,NA
27583,Person County,NC,81.18622448979592,NA,NA
27596,Franklin County,NC,NA,53.919239904988125,NA
27607,Wake County,NC,79.08163265306123,NA,NA
27609,Wake County,NC,28.890306122448976,NA,NA
27612,Wake County,NC,50.12755102040817,NA,NA
27613,Wake County,NC,41.390306122448976,NA,NA
27614,Wake County,NC,NA,30.344418052256533,NA
27703,Durham County,NC,8.418367346938775,NA,NA
27713,Durham County,NC,19.196428571428573,NA,NA
27803,Nash County,NC,NA,36.69833729216152,NA
27817,Beaufort County,NC,NA,68.88361045130641,NA
27870,Halifax County,NC,18.112244897959183,NA,NA
27889,Beaufort County,NC,NA,NA,61.038961038961034
27891,Nash County,NC,90.625,NA,NA
27893,Wilson County,NC,12.5,NA,NA
27909,Pasquotank County,NC,NA,NA,16.3265306122449
27932,Chowan County,NC,46.55612244897959,36.99524940617577,NA
27944,Perquimans County,NC,57.525510204081634,NA,NA
27962,Washington County,NC,61.73469387755102,73.87173396674585,NA
28025,Cabarrus County,NC,30.357142857142854,NA,NA
28027,Cabarrus County,NC,NA,4.86935866983373,NA
28031,Mecklenburg County,NC,51.4030612244898,NA,NA
28073,Cleveland County,NC,77.99744897959184,NA,NA
28075,Cabarrus County,NC,82.52551020408163,NA,NA
28117,Iredell County,NC,NA,25.653206650831358,NA
28139,Rutherford County,NC,61.0969387755102,NA,NA
28144,Rowan County,NC,NA,25.9501187648456,NA
28152,Cleveland County,NC,30.102040816326532,NA,NA
28166,Iredell County,NC,NA,87.88598574821853,NA
28208,Mecklenburg County,NC,7.525510204081633,NA,NA
28210,Mecklenburg County,NC,44.96173469387755,NA,NA
28211,Mecklenburg County,NC,24.107142857142858,NA,NA
28216,Mecklenburg County,NC,28.635204081632654,NA,NA
28227,Mecklenburg County,NC,16.262755102040817,43.23040380047506,NA
28269,Mecklenburg County,NC,NA,54.750593824228034,NA
28270,Mecklenburg County,NC,NA,37.410926365795724,NA
28277,Mecklenburg County,NC,NA,NA,23.933209647495364
28301,Cumberland County,NC,30.293367346938776,NA,NA
28328,Sampson County,NC,NA,92.16152019002375,33.58070500927644
28340,Robeson County,NC,48.5969387755102,NA,NA
28348,Cumberland County,NC,82.2704081632653,NA,NA
28358,Robeson County,NC,NA,57.12589073634204,NA
28376,Hoke County,NC,88.01020408163265,NA,NA
28379,Richmond County,NC,13.71173469387755,54.45368171021377,NA
28390,Harnett County,NC,NA,57.36342042755345,NA
28409,New Hanover County,NC,31.887755102040817,11.579572446555819,NA
28412,New Hanover County,NC,NA,20.486935866983373,NA
28451,Brunswick County,NC,NA,17.933491686460805,NA
28460,Onslow County,NC,NA,70.60570071258907,NA
28467,Brunswick County,NC,NA,NA,62.52319109461967
28470,Brunswick County,NC,NA,60.98574821852731,NA
28540,Onslow County,NC,NA,79.21615201900238,NA
28546,Onslow County,NC,NA,70.60570071258907,NA
28601,Catawba County,NC,54.78316326530612,32.957244655581945,NA
28645,Caldwell County,NC,NA,0.4156769596199525,NA
28659,Wilkes County,NC,NA,54.98812351543943,37.66233766233766
28673,Catawba County,NC,NA,83.19477434679335,NA
28676,Surry County,NC,NA,98.87173396674585,NA
28681,Alexander County,NC,16.39030612244898,NA,NA
28694,Ashe County,NC,NA,63.004750593824234,NA
28712,Transylvania County,NC,NA,30.463182897862236,NA
28714,Yancey County,NC,89.15816326530613,NA,NA
28719,Jackson County,NC,37.755102040816325,53.97862232779097,NA
28721,Haywood County,NC,66.39030612244898,NA,NA
28722,Polk County,NC,NA,NA,94.99072356215214
28723,Jackson County,NC,86.4795918367347,79.98812351543944,NA
28734,Macon County,NC,NA,5.819477434679335,NA
28751,Haywood County,NC,NA,NA,91.4656771799629
28759,Henderson County,NC,NA,60.27315914489311,NA
28779,Jackson County,NC,NA,51.42517814726841,NA
28785,Haywood County,NC,NA,81.76959619952494,NA
58078,Cass County,ND,NA,40.736342042755346,NA
58104,Cass County,ND,55.61224489795919,67.16152019002375,NA
58201,Grand Forks County,ND,NA,4.513064133016627,NA
58401,Stutsman County,ND,NA,61.16389548693587,NA
58501,Burleigh County,ND,NA,NA,7.050092764378478
58503,Burleigh County,ND,NA,21.73396674584323,NA
58504,Burleigh County,ND,NA,88.30166270783847,NA
58554,Morton County,ND,NA,21.19952494061758,NA
43017,Franklin County,OH,NA,62.11401425178147,NA
43021,Delaware County,OH,82.6530612244898,NA,NA
43026,Franklin County,OH,NA,15.261282660332542,NA
43040,Union County,OH,20.79081632653061,NA,NA
43050,Knox County,OH,23.97959183673469,63.42042755344418,NA
43065,Delaware County,OH,NA,22.030878859857484,NA
43068,Franklin County,OH,NA,7.779097387173397,NA
43076,Perry County,OH,72.8954081632653,69.35866983372921,NA
43081,Franklin County,OH,NA,34.204275534441805,NA
43103,Pickaway County,OH,66.13520408163265,NA,NA
43113,Pickaway County,OH,11.415816326530612,NA,NA
43123,Franklin County,OH,NA,62.05463182897862,NA
43140,Madison County,OH,29.71938775510204,NA,NA
43147,Fairfield County,OH,19.196428571428573,NA,42.30055658627087
43201,Franklin County,OH,38.71173469387755,NA,NA
43204,Franklin County,OH,4.910714285714286,NA,NA
43205,Franklin County,OH,NA,49.287410926365794,NA
43207,Franklin County,OH,NA,NA,15.769944341372913
43209,Franklin County,OH,40.369897959183675,NA,NA
43211,Franklin County,OH,NA,27.137767220902614,NA
43213,Franklin County,OH,NA,NA,83.11688311688312
43219,Franklin County,OH,NA,28.919239904988125,NA
43224,Franklin County,OH,4.974489795918367,NA,NA
43228,Franklin County,OH,3.316326530612245,NA,NA
43229,Franklin County,OH,5.420918367346939,NA,NA
43230,Franklin County,OH,38.265306122448976,NA,NA
43302,Marion County,OH,1.913265306122449,NA,NA
43316,Wyandot County,OH,71.42857142857143,NA,NA
43326,Hardin County,OH,NA,34.50118764845605,72.17068645640074
43357,Logan County,OH,NA,86.69833729216153,NA
43449,Ottawa County,OH,61.47959183673469,NA,NA
43452,Ottawa County,OH,36.47959183673469,27.019002375296914,NA
43506,Williams County,OH,NA,19.239904988123516,NA
43537,Lucas County,OH,NA,82.24465558194774,NA
43551,Wood County,OH,10.90561224489796,NA,NA
43557,Williams County,OH,NA,99.40617577197149,NA
43566,Lucas County,OH,NA,NA,97.40259740259741
43605,Lucas County,OH,12.946428571428573,NA,NA
43606,Lucas County,OH,13.839285714285715,NA,NA
43608,Lucas County,OH,26.147959183673468,NA,NA
43612,Lucas County,OH,55.994897959183675,NA,NA
43613,Lucas County,OH,3.4438775510204076,51.60332541567696,NA
43614,Lucas County,OH,NA,8.016627078384799,66.04823747680891
43615,Lucas County,OH,3.571428571428571,NA,NA
43616,Lucas County,OH,10.714285714285714,8.31353919239905,NA
43617,Lucas County,OH,92.60204081632652,NA,NA
43619,Wood County,OH,88.83928571428571,NA,NA
43701,Muskingum County,OH,0.8928571428571428,0.29691211401425177,NA
43713,Belmont County,OH,NA,70.78384798099762,NA
43783,Perry County,OH,94.64285714285714,NA,100
43812,Coshocton County,OH,20.34438775510204,5.344418052256532,NA
43821,Muskingum County,OH,NA,86.46080760095012,NA
43907,Harrison County,OH,91.77295918367348,NA,NA
43920,Columbiana County,OH,NA,33.788598574821854,NA
43953,Jefferson County,OH,NA,53.028503562945374,NA
44001,Lorain County,OH,NA,51.959619952494066,NA
44004,Ashtabula County,OH,1.9770408163265307,NA,NA
44011,Lorain County,OH,NA,NA,8.348794063079778
44012,Lorain County,OH,NA,4.809976247030879,NA
44022,Cuyahoga County,OH,75.44642857142857,NA,NA
44026,Geauga County,OH,89.34948979591837,NA,NA
44035,Lorain County,OH,13.64795918367347,31.65083135391924,NA
44039,Lorain County,OH,NA,1.9002375296912115,3.339517625231911
44052,Lorain County,OH,NA,NA,5.565862708719852
44053,Lorain County,OH,NA,3.859857482185273,25.231910946196663
44056,Summit County,OH,80.61224489795919,NA,NA
44060,Lake County,OH,NA,16.270783847980997,0.1855287569573284
44067,Summit County,OH,NA,12.767220902612827,NA
44074,Lorain County,OH,69.83418367346938,NA,NA
44077,Lake County,OH,3.2525510204081636,NA,NA
44089,Erie County,OH,82.90816326530613,NA,NA
44090,Lorain County,OH,NA,35.688836104513065,NA
44094,Lake County,OH,NA,2.7315914489311166,NA
44095,Lake County,OH,NA,52.96912114014252,NA
44102,Cuyahoga County,OH,3.5076530612244894,NA,NA
44105,Cuyahoga County,OH,NA,13.836104513064132,NA
44106,Cuyahoga County,OH,8.16326530612245,NA,NA
44108,Cuyahoga County,OH,NA,3.5629453681710213,NA
44109,Cuyahoga County,OH,NA,NA,3.896103896103896
44112,Cuyahoga County,OH,NA,40.02375296912114,NA
44114,Cuyahoga County,OH,NA,NA,81.81818181818183
44116,Cuyahoga County,OH,NA,NA,4.081632653061225
44117,Cuyahoga County,OH,85.26785714285714,NA,38.40445269016698
44118,Cuyahoga County,OH,76.21173469387756,7.600950118764846,NA
44121,Cuyahoga County,OH,7.5892857142857135,9.026128266033254,NA
44122,Cuyahoga County,OH,NA,41.09263657957244,NA
44125,Cuyahoga County,OH,7.971938775510204,NA,NA
44128,Cuyahoga County,OH,26.466836734693878,1.1282660332541568,NA
44129,Cuyahoga County,OH,12.244897959183673,NA,NA
44130,Cuyahoga County,OH,17.793367346938776,NA,NA
44133,Cuyahoga County,OH,51.33928571428571,68.23040380047506,NA
44134,Cuyahoga County,OH,25.44642857142857,NA,NA
44135,Cuyahoga County,OH,2.9974489795918364,NA,NA
44136,Cuyahoga County,OH,NA,71.55581947743468,NA
44137,Cuyahoga County,OH,NA,7.1258907363420425,NA
44138,Cuyahoga County,OH,56.82397959183674,NA,NA
44139,Cuyahoga County,OH,34.05612244897959,9.85748218527316,NA
44140,Cuyahoga County,OH,NA,23.09976247030879,NA
44143,Cuyahoga County,OH,73.02295918367348,NA,NA
44144,Cuyahoga County,OH,9.438775510204081,5.403800475059382,88.31168831168831
44145,Cuyahoga County,OH,40.880102040816325,55.463182897862225,NA
44146,Cuyahoga County,OH,NA,1.009501187648456,NA
44149,Cuyahoga County,OH,NA,NA,11.317254174397032
44202,Portage County,OH,NA,13.539192399049881,NA
44212,Medina County,OH,NA,0.5344418052256532,NA
44216,Summit County,OH,NA,88.06413301662708,NA
44221,Summit County,OH,11.989795918367346,NA,NA
44236,Summit County,OH,NA,NA,33.39517625231911
44256,Medina County,OH,3.7627551020408165,59.91686460807601,NA
44266,Portage County,OH,58.29081632653062,NA,NA
44280,Medina County,OH,NA,86.75771971496437,NA
44301,Summit County,OH,NA,74.22802850356295,64.56400742115028
44306,Summit County,OH,NA,28.20665083135392,NA
44312,Summit County,OH,11.73469387755102,NA,19.29499072356215
44320,Summit County,OH,NA,44.12114014251782,NA
44333,Summit County,OH,NA,36.04513064133016,NA
44444,Trumbull County,OH,43.75,NA,NA
44460,Columbiana County,OH,NA,5.7007125890736345,18.552875695732837
44481,Trumbull County,OH,NA,28.681710213776725,69.75881261595546
44484,Trumbull County,OH,NA,NA,15.213358070500927
44506,Mahoning County,OH,NA,98.45605700712589,NA
44614,Stark County,OH,86.22448979591837,NA,NA
44622,Tuscarawas County,OH,26.59438775510204,83.66983372921615,NA
44677,Wayne County,OH,99.42602040816327,NA,NA
44685,Summit County,OH,NA,17.16152019002375,NA
44702,Stark County,OH,77.04081632653062,NA,NA
44703,Stark County,OH,NA,NA,96.66048237476808
44706,Stark County,OH,26.339285714285715,NA,NA
44709,Stark County,OH,NA,38.18289786223278,NA
44820,Crawford County,OH,63.58418367346938,NA,54.54545454545454
44827,Crawford County,OH,NA,NA,69.01669758812616
44839,Erie County,OH,NA,32.83847980997624,NA
44883,Seneca County,OH,14.47704081632653,NA,NA
44890,Huron County,OH,32.27040816326531,NA,NA
45005,Warren County,OH,NA,43.34916864608076,NA
45011,Butler County,OH,2.232142857142857,17.16152019002375,NA
45030,Hamilton County,OH,NA,43.942992874109265,NA
45036,Warren County,OH,72.00255102040816,NA,NA
45039,Warren County,OH,NA,89.60807600950119,NA
45040,Warren County,OH,25.255102040816325,28.978622327790976,NA
45050,Butler County,OH,NA,NA,68.6456400742115
45107,Clinton County,OH,76.08418367346938,NA,NA
45140,Clermont County,OH,NA,NA,68.27458256029685
45150,Clermont County,OH,29.40051020408163,NA,NA
45204,Hamilton County,OH,91.39030612244898,NA,NA
45212,Hamilton County,OH,NA,49.7624703087886,NA
45223,Hamilton County,OH,34.88520408163265,NA,NA
45227,Hamilton County,OH,NA,37.52969121140142,NA
45231,Hamilton County,OH,NA,45.13064133016627,NA
45236,Hamilton County,OH,44.89795918367347,NA,NA
45240,Hamilton County,OH,NA,91.7458432304038,NA
45242,Hamilton County,OH,61.54336734693877,55.28503562945368,NA
45244,Hamilton County,OH,NA,81.65083135391924,NA
45245,Clermont County,OH,53.50765306122449,NA,NA
45247,Hamilton County,OH,76.7219387755102,NA,NA
45309,Montgomery County,OH,NA,94.89311163895488,NA
45331,Darke County,OH,NA,18.52731591448931,NA
45356,Miami County,OH,11.670918367346939,75.59382422802851,NA
45365,Shelby County,OH,9.693877551020408,10.15439429928741,NA
45373,Miami County,OH,22.89540816326531,NA,NA
45385,Greene County,OH,9.311224489795919,NA,NA
45415,Montgomery County,OH,NA,50.89073634204275,NA
45417,Montgomery County,OH,NA,NA,23.376623376623375
45419,Montgomery County,OH,76.53061224489795,NA,NA
45424,Montgomery County,OH,8.482142857142858,NA,NA
45430,Greene County,OH,96.61989795918367,NA,NA
45432,Greene County,OH,93.30357142857143,NA,NA
45434,Greene County,OH,87.5,NA,NA
45449,Montgomery County,OH,59.183673469387756,NA,NA
45458,Montgomery County,OH,62.244897959183675,67.93349168646081,NA
45502,Clark County,OH,NA,48.87173396674584,70.68645640074212
45503,Clark County,OH,6.058673469387755,NA,NA
45601,Ross County,OH,0.7653061224489796,0.05938242280285036,NA
45623,Gallia County,OH,NA,93.05225653206651,NA
45628,Ross County,OH,NA,47.565320665083135,NA
45634,Vinton County,OH,92.15561224489795,NA,NA
45651,Vinton County,OH,71.23724489795919,NA,NA
45653,Scioto County,OH,87.94642857142857,NA,NA
45658,Gallia County,OH,99.17091836734694,NA,NA
45661,Pike County,OH,NA,36.22327790973871,NA
45662,Scioto County,OH,14.030612244897958,NA,NA
45690,Pike County,OH,NA,11.520190023752969,NA
45701,Athens County,OH,52.869897959183675,73.69358669833728,NA
45750,Washington County,OH,1.403061224489796,4.691211401425178,1.4842300556586272
45801,Allen County,OH,9.183673469387756,NA,NA
45805,Allen County,OH,72.95918367346938,NA,NA
45807,Allen County,OH,53.06122448979592,NA,NA
45830,Putnam County,OH,NA,80.70071258907363,NA
45840,Hancock County,OH,13.584183673469388,NA,NA
45882,Mercer County,OH,NA,97.09026128266032,NA
45885,Auglaize County,OH,33.80102040816326,NA,NA
45891,Van Wert County,OH,NA,52.31591448931117,NA
45895,Auglaize County,OH,NA,26.48456057007126,NA
73003,Oklahoma County,OK,56.18622448979592,NA,NA
73008,Oklahoma County,OK,NA,49.228028503562946,NA
73010,McClain County,OK,38.329081632653065,NA,NA
73013,Oklahoma County,OK,NA,82.7790973871734,9.647495361781075
73025,Oklahoma County,OK,NA,50.41567695961995,NA
73034,Oklahoma County,OK,NA,70.30878859857482,NA
73045,Oklahoma County,OK,73.02295918367348,NA,NA
73064,Canadian County,OK,NA,36.46080760095012,NA
73068,Cleveland County,OK,NA,56.53206650831354,NA
73069,Cleveland County,OK,57.14285714285714,NA,NA
73072,Cleveland County,OK,68.4311224489796,79.63182897862234,NA
73078,Canadian County,OK,87.75510204081633,NA,NA
73089,Grady County,OK,NA,NA,69.57328385899815
73107,Oklahoma County,OK,44.515306122448976,NA,NA
73110,Oklahoma County,OK,14.987244897959185,NA,NA
73115,Oklahoma County,OK,NA,NA,32.6530612244898
73119,Oklahoma County,OK,18.0484693877551,NA,NA
73120,Oklahoma County,OK,34.31122448979592,NA,NA
73142,Oklahoma County,OK,NA,70.19002375296913,52.319109461966605
73160,Cleveland County,OK,NA,3.2660332541567696,10.204081632653061
73162,Oklahoma County,OK,NA,44.12114014251782,NA
73401,Carter County,OK,NA,34.441805225653205,19.109461966604822
73460,Johnston County,OK,NA,58.19477434679335,NA
73501,Comanche County,OK,NA,NA,59.74025974025974
73521,Jackson County,OK,58.35459183673469,NA,NA
73533,Stephens County,OK,17.21938775510204,37.410926365795724,NA
73644,Beckham County,OK,74.55357142857143,NA,NA
73651,Kiowa County,OK,NA,88.77672209026129,NA
73703,Garfield County,OK,43.87755102040816,12.351543942992874,NA
74015,Rogers County,OK,84.24744897959184,NA,NA
74044,Creek County,OK,NA,92.51781472684085,NA
74063,Tulsa County,OK,NA,NA,46.19666048237477
74066,Creek County,OK,25.191326530612244,NA,NA
74073,Tulsa County,OK,NA,95.01187648456056,NA
74074,Payne County,OK,37.244897959183675,NA,NA
74075,Payne County,OK,NA,50.3562945368171,NA
74107,Tulsa County,OK,NA,62.826603325415675,NA
74128,Tulsa County,OK,68.36734693877551,NA,NA
74133,Tulsa County,OK,NA,82.71971496437055,NA
74331,Delaware County,OK,NA,NA,87.75510204081633
74365,Mayes County,OK,98.5969387755102,NA,NA
74429,Wagoner County,OK,NA,NA,66.60482374768088
74437,Okmulgee County,OK,75.06377551020408,NA,NA
74441,Cherokee County,OK,99.23469387755102,NA,NA
74464,Cherokee County,OK,27.232142857142854,NA,NA
74501,Pittsburg County,OK,NA,69.53681710213777,NA
74601,Kay County,OK,65.49744897959184,NA,NA
74604,Kay County,OK,74.61734693877551,51.42517814726841,NA
74631,Kay County,OK,75.3188775510204,NA,NA
74647,Kay County,OK,NA,99.22802850356295,NA
74728,McCurtain County,OK,70.34438775510205,NA,NA
74743,Choctaw County,OK,NA,NA,65.49165120593692
74804,Pottawatomie County,OK,NA,68.17102137767222,NA
74820,Pontotoc County,OK,6.505102040816327,22.624703087885987,NA
74848,Hughes County,OK,NA,88.18289786223278,NA
74884,Seminole County,OK,72.38520408163265,NA,NA
74948,Sequoyah County,OK,54.91071428571429,NA,NA
74960,Adair County,OK,21.10969387755102,64.96437054631829,NA
74966,Le Flore County,OK,NA,85.57007125890736,NA
97006,Washington County,OR,54.65561224489795,25,NA
97027,Clackamas County,OR,70.59948979591837,NA,NA
97030,Multnomah County,OR,NA,NA,78.84972170686456
97034,Clackamas County,OR,NA,51.306413301662715,NA
97035,Clackamas County,OR,NA,54.572446555819475,NA
97051,Columbia County,OR,NA,66.3895486935867,NA
97058,Wasco County,OR,NA,NA,34.50834879406308
97060,Multnomah County,OR,NA,81.41330166270784,NA
97068,Clackamas County,OR,NA,86.87648456057006,NA
97071,Marion County,OR,74.48979591836735,NA,NA
97080,Multnomah County,OR,NA,14.251781472684085,NA
97089,Clackamas County,OR,NA,89.19239904988123,NA
97113,Washington County,OR,NA,96.19952494061758,NA
97116,Washington County,OR,NA,72.44655581947742,NA
97123,Washington County,OR,NA,NA,19.480519480519483
97124,Washington County,OR,77.23214285714286,NA,87.38404452690168
97128,Yamhill County,OR,NA,21.852731591448933,NA
97133,Washington County,OR,97.95918367346938,NA,NA
97209,Multnomah County,OR,30.484693877551024,NA,NA
97213,Multnomah County,OR,NA,76.95961995249407,NA
97217,Multnomah County,OR,32.71683673469388,NA,NA
97220,Multnomah County,OR,NA,23.990498812351543,NA
97229,Washington County,OR,74.23469387755102,NA,NA
97233,Multnomah County,OR,NA,29.513064133016627,NA
97302,Marion County,OR,64.98724489795919,NA,NA
97304,Polk County,OR,NA,48.040380047505934,NA
97305,Marion County,OR,20.66326530612245,NA,NA
97306,Marion County,OR,48.724489795918366,NA,NA
97330,Benton County,OR,NA,20.071258907363422,NA
97355,Linn County,OR,76.46683673469387,NA,6.307977736549166
97365,Lincoln County,OR,85.45918367346938,NA,NA
97394,Lincoln County,OR,NA,NA,86.08534322820037
97401,Lane County,OR,NA,NA,33.58070500927644
97402,Lane County,OR,NA,72.92161520190024,57.88497217068645
97439,Lane County,OR,77.48724489795919,NA,NA
97457,Douglas County,OR,82.9719387755102,NA,NA
97471,Douglas County,OR,NA,78.97862232779097,NA
97477,Lane County,OR,19.005102040816325,NA,NA
97502,Jackson County,OR,NA,15.973871733966746,NA
97603,Klamath County,OR,NA,3.7410926365795723,NA
97701,Deschutes County,OR,NA,71.31828978622327,NA
97702,Deschutes County,OR,NA,32.18527315914489,25.97402597402597
97703,Deschutes County,OR,NA,63.42042755344418,NA
97720,Harney County,OR,NA,88.95486935866982,NA
97741,Jefferson County,OR,65.56122448979592,97.20902612826603,NA
97814,Baker County,OR,34.50255102040816,NA,NA
97838,Umatilla County,OR,14.285714285714285,NA,NA
97850,Union County,OR,63.13775510204081,NA,NA
97882,Umatilla County,OR,73.46938775510205,NA,NA
97914,Malheur County,OR,NA,NA,72.72727272727273
15010,Beaver County,PA,62.94642857142857,NA,NA
15012,Westmoreland County,PA,NA,42.695961995249405,NA
15021,Washington County,PA,84.94897959183673,NA,NA
15025,Allegheny County,PA,95.91836734693877,NA,NA
15061,Beaver County,PA,NA,61.69833729216152,NA
15065,Allegheny County,PA,81.31377551020408,NA,NA
15085,Westmoreland County,PA,NA,66.68646080760095,NA
15089,Westmoreland County,PA,76.84948979591837,NA,NA
15101,Allegheny County,PA,NA,42.695961995249405,NA
15108,Allegheny County,PA,NA,NA,7.792207792207792
15146,Allegheny County,PA,39.349489795918366,25.712589073634206,NA
15202,Allegheny County,PA,43.43112244897959,NA,NA
15208,Allegheny County,PA,45.28061224489796,NA,NA
15221,Allegheny County,PA,14.34948979591837,NA,NA
15235,Allegheny County,PA,70.98214285714286,NA,NA
15236,Allegheny County,PA,38.96683673469388,NA,NA
15238,Allegheny County,PA,NA,42.33966745843231,NA
15241,Allegheny County,PA,66.13520408163265,NA,NA
15301,Washington County,PA,22.002551020408163,NA,NA
15317,Washington County,PA,NA,NA,12.244897959183673
15370,Greene County,PA,70.28061224489795,NA,NA
15601,Westmoreland County,PA,NA,39.19239904988123,NA
15642,Westmoreland County,PA,NA,NA,4.638218923933209
15650,Westmoreland County,PA,12.691326530612246,11.69833729216152,NA
15767,Jefferson County,PA,NA,NA,54.17439703153989
15801,Clearfield County,PA,NA,27.969121140142516,NA
15904,Cambria County,PA,51.78571428571429,NA,NA
16001,Butler County,PA,3.3801020408163267,NA,NA
16002,Butler County,PA,NA,NA,26.159554730983302
16049,Clarion County,PA,NA,99.94061757719716,NA
16066,Butler County,PA,57.079081632653065,NA,NA
16137,Mercer County,PA,NA,NA,42.857142857142854
16146,Mercer County,PA,18.431122448979593,34.263657957244654,NA
16214,Clarion County,PA,NA,82.48218527315915,NA
16226,Armstrong County,PA,60.45918367346938,NA,NA
16229,Armstrong County,PA,NA,84.08551068883611,NA
16314,Crawford County,PA,NA,63.18289786223278,NA
16335,Crawford County,PA,8.354591836734695,NA,NA
16424,Crawford County,PA,91.39030612244898,NA,NA
16506,Erie County,PA,59.24744897959183,NA,NA
16509,Erie County,PA,97.64030612244898,27.137767220902614,NA
16510,Erie County,PA,31.186224489795915,NA,NA
16601,Blair County,PA,7.461734693877552,NA,NA
16602,Blair County,PA,11.033163265306122,NA,NA
16652,Huntingdon County,PA,31.568877551020407,NA,NA
16673,Blair County,PA,78.4438775510204,NA,NA
16701,McKean County,PA,40.68877551020408,NA,NA
16743,McKean County,PA,NA,85.80760095011877,NA
16749,McKean County,PA,86.35204081632652,NA,NA
16801,Centre County,PA,31.313775510204085,NA,NA
16830,Clearfield County,PA,22.831632653061224,23.159144893111637,NA
16866,Centre County,PA,NA,62.29216152019003,NA
16870,Centre County,PA,82.78061224489795,NA,NA
17007,Cumberland County,PA,93.36734693877551,NA,NA
17011,Cumberland County,PA,NA,NA,45.45454545454545
17015,Cumberland County,PA,35.204081632653065,NA,NA
17033,Dauphin County,PA,NA,NA,70.12987012987013
17044,Mifflin County,PA,33.73724489795919,NA,NA
17066,Huntingdon County,PA,63.9030612244898,NA,NA
17070,Cumberland County,PA,NA,66.56769596199526,NA
17112,Dauphin County,PA,NA,NA,11.131725417439704
17113,Dauphin County,PA,NA,44.358669833729216,NA
17225,Franklin County,PA,49.36224489795919,44.833729216152015,NA
17257,Cumberland County,PA,NA,19.299287410926365,NA
17268,Franklin County,PA,NA,66.9833729216152,NA
17322,York County,PA,86.67091836734694,NA,NA
17325,Adams County,PA,19.132653061224488,NA,NA
17331,York County,PA,54.14540816326531,25.29691211401425,12.059369202226346
17340,Adams County,PA,NA,71.08076009501187,NA
17402,York County,PA,42.72959183673469,NA,NA
17403,York County,PA,40.816326530612244,15.855106888361044,NA
17512,Lancaster County,PA,NA,80.16627078384798,NA
17522,Lancaster County,PA,20.408163265306122,NA,NA
17554,Lancaster County,PA,76.53061224489795,NA,NA
17584,Lancaster County,PA,NA,86.63895486935867,NA
17601,Lancaster County,PA,28.252551020408163,NA,NA
17603,Lancaster County,PA,28.316326530612244,NA,NA
17754,Lycoming County,PA,NA,68.58669833729216,NA
17756,Lycoming County,PA,NA,24.584323040380045,NA
17842,Snyder County,PA,NA,84.2042755344418,NA
17857,Northumberland County,PA,57.58928571428571,83.729216152019,NA
17872,Northumberland County,PA,32.589285714285715,NA,NA
17901,Schuylkill County,PA,NA,22.68408551068884,NA
18013,Northampton County,PA,61.03316326530612,NA,NA
18017,Northampton County,PA,21.93877551020408,NA,NA
18018,Lehigh County,PA,NA,5.997624703087886,57.14285714285714
18020,Northampton County,PA,85.7780612244898,NA,20.964749536178108
18032,Lehigh County,PA,49.87244897959184,NA,NA
18034,Lehigh County,PA,91.00765306122449,NA,NA
18038,Northampton County,PA,98.91581632653062,NA,NA
18042,Northampton County,PA,4.846938775510204,2.9691211401425175,NA
18045,Northampton County,PA,NA,NA,7.606679035250464
18067,Northampton County,PA,31.9515306122449,NA,NA
18071,Carbon County,PA,NA,NA,44.34137291280148
18102,Lehigh County,PA,6.760204081632653,NA,NA
18103,Lehigh County,PA,NA,3.622327790973872,NA
18104,Lehigh County,PA,65.81632653061224,63.657957244655584,NA
18201,Luzerne County,PA,NA,18.171021377672208,NA
18224,Luzerne County,PA,67.0280612244898,NA,NA
18229,Carbon County,PA,90.88010204081633,NA,NA
18252,Schuylkill County,PA,48.34183673469388,NA,NA
18302,Monroe County,PA,NA,80.04750593824228,NA
18360,Monroe County,PA,NA,9.501187648456057,NA
18436,Wayne County,PA,NA,80.46318289786223,NA
18504,Lackawanna County,PA,55.10204081632652,NA,NA
18508,Lackawanna County,PA,51.08418367346938,NA,NA
18512,Lackawanna County,PA,53.89030612244898,NA,NA
18518,Lackawanna County,PA,90.68877551020408,NA,NA
18702,Luzerne County,PA,NA,21.258907363420427,NA
18705,Luzerne County,PA,71.81122448979592,NA,NA
18901,Bucks County,PA,NA,18.23040380047506,NA
18938,Bucks County,PA,95.59948979591837,89.96437054631829,NA
18940,Bucks County,PA,77.86989795918367,NA,44.89795918367347
18947,Bucks County,PA,NA,98.75296912114014,NA
18951,Bucks County,PA,43.17602040816326,74.1686460807601,NA
18974,Bucks County,PA,46.49234693877551,66.7458432304038,NA
19002,Montgomery County,PA,NA,16.44893111638955,NA
19006,Montgomery County,PA,NA,94.41805225653206,NA
19012,Montgomery County,PA,93.0484693877551,NA,NA
19013,Delaware County,PA,15.688775510204081,NA,NA
19032,Delaware County,PA,96.04591836734694,NA,NA
19033,Delaware County,PA,NA,71.91211401425178,NA
19047,Bucks County,PA,NA,42.63657957244655,NA
19057,Bucks County,PA,NA,82.12589073634204,NA
19060,Delaware County,PA,NA,70.24940617577197,NA
19064,Delaware County,PA,NA,37.589073634204276,NA
19073,Delaware County,PA,NA,NA,13.729128014842301
19081,Delaware County,PA,NA,94.59619952494062,NA
19083,Delaware County,PA,52.67857142857143,38.36104513064133,NA
19104,Philadelphia County,PA,NA,85.45130641330167,NA
19111,Philadelphia County,PA,15.880102040816327,NA,NA
19119,Philadelphia County,PA,NA,13.064133016627078,NA
19124,Philadelphia County,PA,7.079081632653061,NA,NA
19128,Philadelphia County,PA,42.53826530612245,NA,NA
19131,Philadelphia County,PA,67.28316326530613,NA,34.69387755102041
19136,Philadelphia County,PA,NA,70.72446555819477,NA
19137,Philadelphia County,PA,56.69642857142857,NA,NA
19141,Philadelphia County,PA,24.93622448979592,42.458432304038006,NA
19142,Philadelphia County,PA,NA,34.61995249406176,NA
19143,Philadelphia County,PA,25.637755102040817,NA,NA
19144,Philadelphia County,PA,NA,7.244655581947744,NA
19146,Philadelphia County,PA,13.392857142857142,17.755344418052257,NA
19148,Philadelphia County,PA,6.568877551020408,38.95486935866984,NA
19150,Philadelphia County,PA,25.7015306122449,NA,NA
19151,Philadelphia County,PA,11.160714285714286,NA,NA
19152,Philadelphia County,PA,15.497448979591837,NA,NA
19301,Chester County,PA,96.23724489795919,NA,NA
19335,Chester County,PA,14.41326530612245,NA,NA
19352,Chester County,PA,NA,95.72446555819477,NA
19380,Chester County,PA,9.566326530612244,NA,2.9684601113172544
19403,Montgomery County,PA,14.923469387755103,NA,NA
19406,Montgomery County,PA,NA,31.057007125890735,NA
19426,Montgomery County,PA,NA,24.46555819477435,NA
19462,Montgomery County,PA,38.52040816326531,NA,NA
19464,Montgomery County,PA,49.808673469387756,NA,NA
19468,Montgomery County,PA,77.1045918367347,NA,NA
19522,Berks County,PA,NA,84.44180522565321,NA
19525,Montgomery County,PA,NA,68.11163895486936,NA
19526,Berks County,PA,NA,50.5938242280285,NA
19530,Berks County,PA,NA,57.482185273159146,69.38775510204081
19534,Berks County,PA,NA,98.33729216152018,NA
19555,Berks County,PA,92.53826530612244,NA,NA
19601,Berks County,PA,3.125,NA,NA
19604,Berks County,PA,NA,62.173396674584325,NA
19608,Berks County,PA,23.341836734693878,NA,NA
02842,Newport County,RI,70.4719387755102,43.82422802850356,NA
02861,Providence County,RI,25.063775510204085,NA,28.7569573283859
02871,Newport County,RI,NA,64.19239904988123,NA
02882,Washington County,RI,NA,43.58669833729216,NA
02888,Kent County,RI,NA,NA,38.218923933209645
02895,Providence County,RI,9.630102040816327,NA,NA
02906,Providence County,RI,NA,NA,43.59925788497217
02921,Providence County,RI,NA,95.36817102137766,NA
29032,Kershaw County,SC,NA,99.46555819477435,NA
29036,Lexington County,SC,NA,NA,64.93506493506493
29102,Clarendon County,SC,NA,45.902612826603324,NA
29118,Orangeburg County,SC,NA,63.59857482185273,NA
29138,Saluda County,SC,NA,NA,81.44712430426716
29153,Sumter County,SC,81.88775510204081,NA,NA
29161,Florence County,SC,NA,68.46793349168647,NA
29170,Lexington County,SC,NA,68.70546318289786,NA
29180,Fairfield County,SC,NA,66.1520190023753,NA
29210,Richland County,SC,NA,NA,90.72356215213358
29212,Lexington County,SC,55.10204081632652,NA,NA
29223,Richland County,SC,48.91581632653062,NA,NA
29330,Spartanburg County,SC,NA,91.09263657957246,NA
29334,Spartanburg County,SC,NA,73.09976247030879,NA
29379,Union County,SC,NA,34.97624703087886,NA
29407,Charleston County,SC,NA,9.263657957244655,NA
29412,Charleston County,SC,NA,66.09263657957246,NA
29418,Charleston County,SC,NA,NA,79.962894248608535
29445,Berkeley County,SC,19.897959183673468,19.71496437054632,NA
29455,Charleston County,SC,43.62244897959184,NA,NA
29456,Dorchester County,SC,NA,39.90498812351544,NA
29472,Dorchester County,SC,NA,97.80285035629454,NA
29488,Colleton County,SC,28.443877551020407,NA,NA
29547,Dillon County,SC,99.87244897959184,NA,NA
29550,Darlington County,SC,NA,NA,35.064935064935064
29554,Williamsburg County,SC,82.52551020408163,NA,NA
29565,Dillon County,SC,NA,94.95249406175772,NA
29571,Marion County,SC,NA,43.64608076009501,NA
29574,Marion County,SC,51.275510204081634,NA,NA
29576,Horry County,SC,NA,8.847980997624703,NA
29581,Horry County,SC,NA,82.48218527315915,NA
29611,Greenville County,SC,NA,26.543942992874108,NA
29615,Greenville County,SC,NA,NA,67.16141001855289
29617,Greenville County,SC,29.017857142857146,NA,NA
29626,Anderson County,SC,NA,92.45843230403801,NA
29627,Anderson County,SC,NA,49.16864608076009,NA
29640,Pickens County,SC,NA,77.1377672209026,NA
29642,Pickens County,SC,NA,62.76722090261283,NA
29650,Greenville County,SC,NA,36.04513064133016,NA
29653,Greenwood County,SC,92.09183673469387,NA,NA
29673,Greenville County,SC,62.37244897959183,75,NA
29678,Oconee County,SC,47.95918367346938,NA,NA
29681,Greenville County,SC,21.556122448979593,NA,NA
29687,Greenville County,SC,NA,16.56769596199525,NA
29690,Greenville County,SC,NA,NA,72.17068645640074
29692,Laurens County,SC,86.86224489795919,NA,NA
29715,York County,SC,58.545918367346935,NA,NA
29730,York County,SC,NA,29.928741092636578,NA
29803,Aiken County,SC,35.0765306122449,6.532066508313539,NA
29812,Barnwell County,SC,NA,47.03087885985748,NA
57103,Minnehaha County,SD,18.367346938775512,NA,5.009276437847866
57105,Minnehaha County,SD,NA,NA,5.009276437847866
57106,Minnehaha County,SD,74.04336734693877,NA,3.525046382189239
57108,Lincoln County,SD,55.86734693877551,NA,NA
57201,Codington County,SD,69.51530612244898,NA,NA
57301,Davison County,SD,NA,83.3729216152019,NA
57401,Brown County,SD,NA,5.878859857482185,NA
57783,Lawrence County,SD,NA,35.510688836104514,NA
37013,Davidson County,TN,NA,11.935866983372922,NA
37029,Dickson County,TN,97.00255102040816,NA,NA
37043,Montgomery County,TN,29.14540816326531,NA,NA
37061,Houston County,TN,NA,89.54869358669833,NA
37064,Williamson County,TN,38.392857142857146,11.104513064133016,NA
37066,Sumner County,TN,48.78826530612245,6.413301662707839,NA
37067,Williamson County,TN,NA,61.57957244655582,NA
37072,Davidson County,TN,24.744897959183675,54.09738717339667,NA
37075,Sumner County,TN,13.520408163265307,27.494061757719717,NA
37083,Macon County,TN,42.60204081632653,NA,NA
37087,Wilson County,TN,NA,18.824228028503562,24.675324675324674
37110,Warren County,TN,39.2219387755102,NA,NA
37128,Rutherford County,TN,22.448979591836736,NA,NA
37129,Rutherford County,TN,NA,23.93111638954869,NA
37138,Davidson County,TN,42.79336734693878,NA,NA
37160,Bedford County,TN,15.752551020408163,59.61995249406176,NA
37167,Rutherford County,TN,NA,18.883610451306414,NA
37174,Williamson County,TN,39.98724489795919,NA,NA
37179,Williamson County,TN,NA,93.76484560570071,NA
37186,Sumner County,TN,57.27040816326531,NA,NA
37205,Davidson County,TN,NA,43.111638954869356,NA
37207,Davidson County,TN,9.885204081632654,NA,NA
37209,Davidson County,TN,25.318877551020407,47.74346793349169,NA
37214,Davidson County,TN,NA,45.72446555819478,NA
37217,Davidson County,TN,NA,46.496437054631826,NA
37331,McMinn County,TN,NA,87.23277909738717,NA
37343,Hamilton County,TN,18.176020408163264,NA,NA
37357,Warren County,TN,83.99234693877551,NA,NA
37370,McMinn County,TN,NA,96.79334916864607,NA
37379,Hamilton County,TN,32.90816326530612,NA,NA
37388,Coffee County,TN,26.27551020408163,NA,NA
37405,Hamilton County,TN,66.45408163265306,NA,NA
37604,Washington County,TN,16.007653061224488,NA,NA
37617,Sullivan County,TN,NA,55.76009501187649,NA
37641,Greene County,TN,90.3061224489796,NA,NA
37643,Carter County,TN,10.14030612244898,63.064133016627075,NA
37686,Sullivan County,TN,NA,79.09738717339667,NA
37705,Anderson County,TN,NA,95.36817102137766,NA
37716,Anderson County,TN,NA,22.86223277909739,NA
37743,Greene County,TN,NA,53.266033254156774,8.905380333951761
37748,Roane County,TN,NA,22.802850356294538,NA
37769,Anderson County,TN,74.74489795918367,NA,NA
37774,Loudon County,TN,NA,NA,25.788497217068645
37804,Blount County,TN,NA,13.24228028503563,76.80890538033395
37813,Hamblen County,TN,NA,54.63182897862233,NA
37814,Hamblen County,TN,NA,20.249406175771973,NA
37830,Anderson County,TN,19.51530612244898,NA,NA
37849,Knox County,TN,NA,41.5083135391924,NA
37877,Hamblen County,TN,69.64285714285714,NA,NA
37879,Claiborne County,TN,NA,60.39192399049881,NA
37920,Knox County,TN,9.056122448979592,NA,NA
37921,Knox County,TN,NA,47.03087885985748,NA
37931,Knox County,TN,NA,50.771971496437054,NA
37932,Knox County,TN,NA,57.71971496437055,NA
38002,Shelby County,TN,59.119897959183675,NA,NA
38019,Tipton County,TN,NA,84.32304038004752,NA
38024,Dyer County,TN,NA,76.24703087885986,NA
38116,Shelby County,TN,NA,25.356294536817103,NA
38127,Shelby County,TN,7.3979591836734695,NA,NA
38134,Shelby County,TN,NA,46.73396674584323,NA
38242,Henry County,TN,39.60459183673469,NA,NA
38301,Madison County,TN,7.844387755102041,NA,NA
38305,Madison County,TN,NA,NA,12.80148423005566
38351,Henderson County,TN,NA,NA,36.734693877551024
38363,Decatur County,TN,NA,NA,93.13543599257885
38506,Putnam County,TN,NA,15.558194774346793,NA
38551,Clay County,TN,79.20918367346938,NA,NA
38570,Overton County,TN,60.96938775510205,NA,NA
38571,Cumberland County,TN,NA,35.510688836104514,NA
38583,White County,TN,50.701530612244895,NA,20.222634508348794
38585,Van Buren County,TN,NA,93.23040380047506,NA
75002,Collin County,TX,17.410714285714285,NA,NA
75007,Denton County,TX,NA,78.44418052256532,NA
75009,Collin County,TX,78.57142857142857,NA,NA
75013,Collin County,TX,81.5688775510204,NA,NA
75019,Dallas County,TX,46.109693877551024,NA,NA
75020,Grayson County,TX,39.732142857142854,NA,NA
75023,Collin County,TX,NA,76.42517814726841,51.57699443413729
75024,Collin County,TX,97.5765306122449,NA,NA
75025,Collin County,TX,48.08673469387755,NA,NA
75028,Denton County,TX,NA,89.90498812351544,NA
75035,Collin County,TX,NA,40.91448931116389,NA
75040,Dallas County,TX,92.47448979591837,NA,NA
75043,Dallas County,TX,NA,12.529691211401426,NA
75062,Dallas County,TX,NA,26.66270783847981,NA
75067,Denton County,TX,25.956632653061224,NA,NA
75070,Collin County,TX,NA,7.897862232779097,NA
75074,Collin County,TX,NA,26.187648456057005,NA
75089,Dallas County,TX,NA,59.204275534441805,NA
75093,Collin County,TX,NA,26.425178147268408,NA
75098,Collin County,TX,NA,30.81947743467934,NA
75103,Van Zandt County,TX,70.79081632653062,NA,NA
75110,Navarro County,TX,NA,38.657957244655584,NA
75115,Dallas County,TX,NA,65.38004750593825,NA
75119,Ellis County,TX,NA,59.61995249406176,NA
75150,Dallas County,TX,NA,92.04275534441805,NA
75167,Ellis County,TX,NA,90.85510688836105,NA
75181,Dallas County,TX,45.535714285714285,NA,NA
75205,Dallas County,TX,56.63265306122449,NA,NA
75208,Dallas County,TX,53.18877551020408,NA,NA
75212,Dallas County,TX,NA,69.83372921615202,NA
75217,Dallas County,TX,NA,6.0570071258907365,NA
75223,Dallas County,TX,NA,70.36817102137766,NA
75228,Dallas County,TX,NA,47.92161520190024,NA
75231,Dallas County,TX,NA,NA,98.14471243042672
75233,Dallas County,TX,NA,NA,77.1799628942486
75238,Dallas County,TX,57.71683673469388,NA,NA
75252,Collin County,TX,NA,48.99049881235155,NA
75287,Denton County,TX,NA,40.91448931116389,NA
75501,Bowie County,TX,NA,17.339667458432302,NA
75603,Gregg County,TX,NA,98.09976247030879,NA
75639,Panola County,TX,NA,99.10926365795724,NA
75654,Rusk County,TX,NA,95.90261282660333,NA
75701,Smith County,TX,NA,NA,48.79406307977737
75702,Smith County,TX,NA,NA,84.97217068645641
75703,Smith County,TX,NA,63.717339667458425,1.6697588126159555
75704,Smith County,TX,NA,87.58907363420427,NA
75707,Smith County,TX,NA,72.62470308788599,NA
75751,Henderson County,TX,67.92091836734694,72.26840855106889,NA
75754,Van Zandt County,TX,96.36479591836735,NA,NA
75757,Smith County,TX,NA,66.5083135391924,NA
75758,Henderson County,TX,NA,35.21377672209026,NA
75765,Wood County,TX,NA,67.63657957244655,NA
75766,Cherokee County,TX,NA,31.353919239904986,NA
75771,Smith County,TX,46.42857142857143,NA,12.615955473098332
75785,Cherokee County,TX,NA,75.89073634204276,NA
75790,Van Zandt County,TX,89.6045918367347,NA,NA
75791,Smith County,TX,NA,91.44893111638956,NA
75803,Anderson County,TX,56.37755102040817,NA,NA
75844,Houston County,TX,NA,88.12351543942994,NA
75901,Angelina County,TX,NA,33.551068883610455,NA
75935,Shelby County,TX,67.60204081632652,NA,NA
75979,Tyler County,TX,NA,60.74821852731591,NA
76001,Tarrant County,TX,46.23724489795919,69.53681710213777,NA
76006,Tarrant County,TX,82.84438775510205,NA,NA
76012,Tarrant County,TX,NA,44.29928741092636,NA
76015,Tarrant County,TX,NA,84.97624703087887,NA
76016,Tarrant County,TX,57.6530612244898,17.695961995249405,NA
76021,Tarrant County,TX,NA,33.2541567695962,NA
76028,Johnson County,TX,NA,2.494061757719715,NA
76034,Tarrant County,TX,69.00510204081633,NA,NA
76048,Hood County,TX,NA,26.128266033254157,NA
76049,Hood County,TX,30.80357142857143,14.073634204275534,NA
76063,Tarrant County,TX,11.798469387755102,9.619952494061758,NA
76067,Palo Pinto County,TX,45.72704081632653,NA,NA
76073,Wise County,TX,NA,98.57482185273159,NA
76082,Parker County,TX,74.2984693877551,NA,NA
76085,Parker County,TX,NA,50,NA
76106,Tarrant County,TX,NA,15.380047505938244,NA
76108,Tarrant County,TX,NA,18.705463182897862,NA
76114,Tarrant County,TX,35.204081632653065,NA,NA
76116,Tarrant County,TX,18.75,10.095011876484561,NA
76117,Tarrant County,TX,27.997448979591837,NA,NA
76118,Tarrant County,TX,NA,NA,76.62337662337663
76119,Tarrant County,TX,6.186224489795919,NA,NA
76126,Tarrant County,TX,NA,85.21377672209026,NA
76132,Tarrant County,TX,NA,NA,85.71428571428571
76135,Tarrant County,TX,NA,80.93824228028504,NA
76137,Tarrant County,TX,NA,15.08313539192399,NA
76140,Tarrant County,TX,30.612244897959183,NA,NA
76180,Tarrant County,TX,NA,29.097387173396676,NA
76205,Denton County,TX,NA,70.36817102137766,NA
76207,Denton County,TX,NA,NA,89.42486085343229
76226,Denton County,TX,NA,55.641330166270784,NA
76240,Cooke County,TX,NA,61.22327790973871,NA
76262,Denton County,TX,37.37244897959184,NA,NA
76302,Wichita County,TX,63.26530612244898,NA,NA
76306,Wichita County,TX,55.80357142857143,NA,NA
76367,Wichita County,TX,NA,76.36579572446556,NA
76384,Wilbarger County,TX,NA,NA,74.76808905380335
76442,Comanche County,TX,NA,86.10451306413302,NA
76501,Bell County,TX,NA,26.78147268408551,NA
76502,Bell County,TX,13.137755102040815,NA,2.2263450834879404
76513,Bell County,TX,NA,0.831353919239905,NA
76520,Milam County,TX,NA,88.24228028503563,NA
76522,Coryell County,TX,NA,NA,40.44526901669759
76528,Coryell County,TX,NA,10.510688836104514,NA
76531,Hamilton County,TX,NA,77.07838479809976,NA
76542,Bell County,TX,36.0969387755102,NA,NA
76543,Bell County,TX,NA,14.311163895486937,4.823747680890538
76574,Williamson County,TX,NA,16.152019002375297,NA
76633,McLennan County,TX,98.46938775510205,NA,NA
76634,Bosque County,TX,NA,84.02612826603325,NA
76667,Limestone County,TX,NA,52.01900237529691,NA
76710,McLennan County,TX,45.982142857142854,NA,NA
76712,McLennan County,TX,NA,78.68171021377673,NA
76901,Tom Green County,TX,NA,58.2541567695962,NA
76904,Tom Green County,TX,NA,31.47268408551069,59.92578849721707
77004,Harris County,TX,NA,36.46080760095012,NA
77006,Harris County,TX,NA,93.40855106888361,NA
77007,Harris County,TX,43.941326530612244,NA,NA
77024,Harris County,TX,53.954081632653065,92.3396674584323,NA
77025,Harris County,TX,82.33418367346938,NA,NA
77027,Harris County,TX,NA,NA,88.12615955473099
77029,Harris County,TX,NA,97.74346793349169,NA
77035,Harris County,TX,33.35459183673469,NA,NA
77036,Harris County,TX,44.70663265306122,NA,NA
77042,Harris County,TX,NA,59.798099762470315,NA
77047,Harris County,TX,NA,65.73634204275535,NA
77059,Harris County,TX,73.85204081632652,NA,NA
77062,Harris County,TX,NA,87.05463182897863,NA
77070,Harris County,TX,38.07397959183674,17.87410926365796,NA
77076,Harris County,TX,NA,81.71021377672209,NA
77083,Harris County,TX,64.09438775510205,20.783847980997624,NA
77084,Harris County,TX,NA,17.280285035629454,NA
77089,Harris County,TX,NA,26.840855106888363,NA
77090,Harris County,TX,23.08673469387755,NA,NA
77095,Harris County,TX,NA,9.798099762470308,NA
77096,Harris County,TX,50.95663265306123,NA,NA
77301,Montgomery County,TX,NA,74.40617577197149,NA
77303,Montgomery County,TX,72.44897959183673,NA,NA
77306,Montgomery County,TX,NA,NA,99.44341372912801
77316,Montgomery County,TX,66.58163265306123,NA,NA
77338,Harris County,TX,NA,50.5938242280285,NA
77339,Harris County,TX,NA,32.12589073634204,NA
77340,Walker County,TX,NA,96.97149643705463,NA
77345,Harris County,TX,NA,58.8479809976247,NA
77346,Harris County,TX,17.028061224489797,NA,NA
77355,Montgomery County,TX,NA,39.489311163895486,67.90352504638219
77356,Montgomery County,TX,NA,31.828978622327792,45.640074211502785
77357,Montgomery County,TX,54.400510204081634,NA,NA
77365,Montgomery County,TX,82.14285714285714,NA,NA
77373,Harris County,TX,23.08673469387755,NA,NA
77378,Montgomery County,TX,NA,78.08788598574822,NA
77379,Harris County,TX,NA,7.541567695961995,NA
77380,Montgomery County,TX,NA,NA,95.54730983302412
77381,Montgomery County,TX,NA,NA,46.75324675324675
77386,Montgomery County,TX,NA,40.6769596199525,NA
77388,Harris County,TX,NA,60.62945368171021,NA
77389,Harris County,TX,46.81122448979592,NA,NA
77396,Harris County,TX,29.910714285714285,NA,NA
77406,Fort Bend County,TX,36.7984693877551,86.34204275534442,43.22820037105751
77407,Fort Bend County,TX,44.38775510204081,NA,NA
77422,Brazoria County,TX,NA,85.92636579572446,NA
77423,Waller County,TX,NA,89.25178147268409,NA
77433,Harris County,TX,81.69642857142857,NA,NA
77437,Wharton County,TX,NA,79.21615201900238,NA
77449,Harris County,TX,NA,NA,48.237476808905384
77450,Harris County,TX,30.739795918367346,13.657957244655583,NA
77459,Fort Bend County,TX,NA,8.788598574821853,NA
77469,Fort Bend County,TX,NA,28.50356294536817,NA
77477,Fort Bend County,TX,NA,34.679334916864605,NA
77478,Fort Bend County,TX,NA,NA,44.712430426716146
77479,Fort Bend County,TX,23.72448979591837,75.17814726840855,NA
77484,Waller County,TX,NA,71.97149643705463,NA
77488,Wharton County,TX,NA,NA,72.5417439703154
77494,Fort Bend County,TX,NA,NA,30.0556586270872
77498,Fort Bend County,TX,46.1734693877551,NA,NA
77506,Harris County,TX,52.16836734693877,NA,NA
77511,Brazoria County,TX,80.29336734693877,NA,NA
77515,Brazoria County,TX,81.50510204081633,NA,NA
77517,Galveston County,TX,95.53571428571429,NA,NA
77535,Liberty County,TX,32.142857142857146,NA,NA
77539,Galveston County,TX,61.92602040816326,NA,NA
77546,Galveston County,TX,86.16071428571429,8.194774346793348,NA
77550,Galveston County,TX,43.36734693877551,10.688836104513063,62.89424860853432
77568,Galveston County,TX,NA,21.377672209026127,95.36178107606679
77573,Galveston County,TX,59.43877551020408,39.37054631828978,NA
77584,Brazoria County,TX,8.22704081632653,14.786223277909738,NA
77591,Galveston County,TX,48.214285714285715,NA,NA
77612,Jasper County,TX,NA,68.76484560570071,NA
77632,Orange County,TX,NA,61.04513064133017,89.05380333951763
77640,Jefferson County,TX,86.54336734693877,NA,NA
77642,Jefferson County,TX,NA,NA,47.680890538033395
77651,Jefferson County,TX,NA,NA,67.90352504638219
77657,Hardin County,TX,95.4719387755102,NA,NA
77662,Orange County,TX,NA,38.71733966745843,NA
77703,Jefferson County,TX,NA,95.72446555819477,NA
77705,Jefferson County,TX,NA,NA,94.8051948051948
77706,Jefferson County,TX,NA,28.26603325415677,NA
77713,Jefferson County,TX,NA,78.74109263657957,NA
77803,Brazos County,TX,21.428571428571427,NA,NA
77808,Brazos County,TX,NA,78.38479809976246,NA
77840,Brazos County,TX,36.734693877551024,NA,NA
77845,Brazos County,TX,NA,53.681710213776725,NA
77859,Robertson County,TX,NA,65.61757719714964,NA
77904,Victoria County,TX,63.329081632653065,NA,NA
77954,DeWitt County,TX,NA,50.1187648456057,NA
77963,Goliad County,TX,NA,82.7790973871734,NA
78023,Bexar County,TX,84.24744897959184,NA,NA
78028,Kerr County,TX,NA,11.163895486935866,NA
78041,Webb County,TX,29.97448979591837,NA,23.191094619666046
78043,Webb County,TX,33.92857142857143,NA,NA
78045,Webb County,TX,NA,59.14489311163895,NA
78059,Medina County,TX,NA,92.63657957244655,NA
78076,Zapata County,TX,80.99489795918367,NA,NA
78112,Bexar County,TX,87.30867346938776,NA,NA
78121,Wilson County,TX,78.4438775510204,NA,NA
78148,Bexar County,TX,NA,87.41092636579573,NA
78155,Guadalupe County,TX,NA,23.81235154394299,NA
78216,Bexar County,TX,35.52295918367347,NA,NA
78232,Bexar County,TX,98.78826530612244,NA,NA
78237,Bexar County,TX,87.88265306122449,NA,NA
78242,Bexar County,TX,NA,61.40142517814727,NA
78251,Bexar County,TX,NA,94.12114014251782,NA
78260,Bexar County,TX,73.66071428571429,NA,NA
78336,San Patricio County,TX,87.1811224489796,NA,NA
78363,Kleberg County,TX,NA,51.84085510688836,NA
78413,Nueces County,TX,63.96683673469388,NA,NA
78414,Nueces County,TX,52.23214285714286,NA,NA
78501,Hidalgo County,TX,39.09438775510204,NA,NA
78516,Hidalgo County,TX,NA,41.6270783847981,NA
78520,Cameron County,TX,47.767857142857146,NA,NA
78537,Hidalgo County,TX,56.31377551020408,NA,NA
78541,Hidalgo County,TX,41.83673469387755,NA,NA
78552,Cameron County,TX,NA,61.75771971496437,NA
78573,Hidalgo County,TX,NA,39.073634204275535,NA
78605,Burnet County,TX,96.49234693877551,NA,NA
78613,Williamson County,TX,NA,NA,63.4508348794063
78626,Williamson County,TX,97.32142857142857,NA,NA
78628,Williamson County,TX,NA,19.596199524940616,NA
78634,Williamson County,TX,51.53061224489795,56.294536817102134,NA
78639,Llano County,TX,NA,36.69833729216152,NA
78654,Burnet County,TX,NA,85.80760095011877,12.430426716141001
78657,Llano County,TX,NA,80.9976247030879,NA
78660,Travis County,TX,21.619897959183675,NA,NA
78664,Williamson County,TX,37.11734693877551,NA,NA
78703,Travis County,TX,NA,83.78859857482185,NA
78727,Travis County,TX,80.80357142857143,NA,NA
78729,Williamson County,TX,69.89795918367348,89.4893111638955,NA
78746,Travis County,TX,NA,80.28503562945369,NA
78748,Travis County,TX,NA,81.82897862232778,NA
78752,Travis County,TX,NA,97.14964370546319,NA
78852,Maverick County,TX,NA,64.66745843230403,NA
79119,Randall County,TX,75.38265306122449,NA,NA
79347,Bailey County,TX,NA,91.5083135391924,NA
79413,Lubbock County,TX,81.82397959183673,NA,NA
79414,Lubbock County,TX,NA,NA,51.76252319109462
79416,Lubbock County,TX,83.80102040816327,NA,NA
79424,Lubbock County,TX,51.02040816326531,NA,NA
79510,Callahan County,TX,NA,NA,82.56029684601113
79602,Taylor County,TX,NA,NA,64.19294990723562
79605,Taylor County,TX,90.11479591836735,64.37054631828978,NA
79606,Taylor County,TX,52.869897959183675,NA,NA
79701,Midland County,TX,NA,NA,74.21150278293135
79714,Andrews County,TX,74.17091836734694,NA,NA
79758,Ector County,TX,96.875,NA,NA
79903,El Paso County,TX,78.8265306122449,NA,NA
79915,El Paso County,TX,72.13010204081633,42.87410926365796,NA
79922,El Paso County,TX,83.03571428571429,NA,NA
79925,El Paso County,TX,61.798469387755105,42.517814726840854,NA
79927,El Paso County,TX,NA,52.67220902612827,NA
79928,El Paso County,TX,40.68877551020408,NA,NA
79935,El Paso County,TX,NA,96.02137767220903,NA
79936,El Paso County,TX,NA,13.123515439429928,NA
84015,Davis County,UT,17.15561224489796,NA,NA
84020,Salt Lake County,UT,35.45918367346938,NA,NA
84032,Wasatch County,UT,79.1454081632653,NA,NA
84040,Davis County,UT,NA,97.26840855106889,70.50092764378478
84043,Utah County,UT,36.54336734693878,NA,NA
84058,Utah County,UT,NA,76.60332541567696,NA
84060,Summit County,UT,96.1734693877551,NA,NA
84065,Salt Lake County,UT,75.25510204081633,NA,NA
84074,Tooele County,UT,3.8903061224489797,NA,NA
84081,Salt Lake County,UT,24.617346938775512,NA,NA
84084,Salt Lake County,UT,NA,65.49881235154395,NA
84087,Davis County,UT,NA,77.31591448931117,NA
84094,Salt Lake County,UT,NA,39.42992874109264,NA
84095,Salt Lake County,UT,NA,21.43705463182898,NA
84096,Salt Lake County,UT,NA,NA,88.68274582560296
84097,Utah County,UT,90.81632653061224,NA,NA
84106,Salt Lake County,UT,28.762755102040817,NA,NA
84108,Salt Lake County,UT,NA,45.07125890736342,NA
84109,Salt Lake County,UT,NA,73.75296912114014,27.458256029684602
84115,Salt Lake County,UT,30.86734693877551,NA,NA
84116,Salt Lake County,UT,NA,27.315914489311165,NA
84121,Salt Lake County,UT,33.035714285714285,NA,15.955473098330241
84124,Salt Lake County,UT,NA,82.6603325415677,NA
84129,,UT,54.33673469387755,NA,NA
84321,Cache County,UT,NA,NA,61.224489795918366
84335,Cache County,UT,88.39285714285714,NA,NA
84526,Carbon County,UT,97.76785714285714,NA,NA
84604,Utah County,UT,80.35714285714286,76.60332541567696,NA
84780,Washington County,UT,NA,NA,41.74397031539889
84790,Washington County,UT,NA,NA,45.26901669758813
05156,Windsor County,VT,NA,56.11638954869359,NA
05201,Bennington County,VT,39.732142857142854,NA,NA
05301,Windham County,VT,77.67857142857143,22.505938242280283,NA
05401,Chittenden County,VT,NA,39.548693586698334,NA
05408,Chittenden County,VT,NA,93.94299287410927,NA
05701,Rutland County,VT,NA,7.363420427553444,NA
05851,Caledonia County,VT,97.38520408163265,NA,NA
20105,Loudoun County,VA,NA,86.81710213776722,NA
20110,Manassas city,VA,NA,86.99524940617577,NA
20112,Prince William County,VA,NA,69.0023752969121,NA
20124,Fairfax County,VA,NA,78.91923990498813,NA
20132,Loudoun County,VA,86.86224489795919,NA,NA
20152,Loudoun County,VA,87.43622448979592,82.12589073634204,NA
20155,Prince William County,VA,NA,36.87648456057007,NA
20169,Prince William County,VA,88.58418367346938,NA,NA
20186,Fauquier County,VA,89.54081632653062,NA,NA
20190,Fairfax County,VA,NA,88.36104513064133,NA
22015,Fairfax County,VA,44.38775510204081,NA,NA
22079,Fairfax County,VA,NA,57.60095011876485,NA
22152,Fairfax County,VA,NA,58.966745843230406,NA
22153,Fairfax County,VA,50.191326530612244,47.86223277909738,NA
22193,Prince William County,VA,35.01275510204081,NA,NA
22304,Alexandria city,VA,12.053571428571429,NA,NA
22314,Alexandria city,VA,NA,41.3895486935867,NA
22405,Stafford County,VA,49.42602040816326,NA,NA
22554,Stafford County,VA,24.681122448979593,NA,NA
22602,Frederick County,VA,NA,44.418052256532064,NA
22642,Warren County,VA,92.41071428571429,NA,NA
22657,Shenandoah County,VA,NA,63.895486935866984,NA
22701,Culpeper County,VA,20.982142857142858,NA,NA
22712,Fauquier County,VA,79.97448979591837,NA,NA
22801,Harrisonburg city,VA,NA,97.8622327790974,93.5064935064935
22802,Harrisonburg city,VA,49.170918367346935,NA,NA
22812,Rockingham County,VA,NA,76.30641330166272,NA
22815,Rockingham County,VA,44.19642857142857,NA,NA
22821,Rockingham County,VA,NA,90.97387173396675,NA
22824,Shenandoah County,VA,NA,NA,74.21150278293135
22827,Rockingham County,VA,NA,91.56769596199526,NA
22844,Shenandoah County,VA,NA,NA,80.3339517625232
22911,Albemarle County,VA,NA,NA,59.36920222634509
22936,Albemarle County,VA,NA,81.53206650831353,NA
22963,Fluvanna County,VA,NA,42.1021377672209,NA
22980,Waynesboro city,VA,NA,19.536817102137768,NA
23059,Henrico County,VA,NA,90.7957244655582,NA
23061,Gloucester County,VA,NA,32.482185273159146,NA
23112,Chesterfield County,VA,NA,20.843230403800476,NA
23113,Chesterfield County,VA,NA,NA,73.28385899814471
23117,Louisa County,VA,NA,47.74346793349169,NA
23139,Powhatan County,VA,61.28826530612245,NA,NA
23141,New Kent County,VA,NA,NA,84.60111317254174
23222,Richmond city,VA,40.49744897959184,NA,NA
23225,Richmond city,VA,35.714285714285715,NA,NA
23226,Richmond city,VA,NA,51.24703087885985,NA
23227,Henrico County,VA,NA,30.403800475059384,22.820037105751393
23229,Henrico County,VA,NA,NA,52.50463821892394
23233,Henrico County,VA,93.68622448979592,NA,NA
23238,Henrico County,VA,81.05867346938776,NA,NA
23322,Chesapeake city,VA,NA,17.458432304038006,NA
23430,Isle of Wight County,VA,NA,26.306413301662708,NA
23435,Suffolk city,VA,40.17857142857143,NA,NA
23451,Virginia Beach city,VA,84.18367346938776,11.045130641330166,NA
23452,Virginia Beach city,VA,NA,NA,5.936920222634509
23454,Virginia Beach city,VA,NA,8.610451306413301,22.634508348794064
23455,Virginia Beach city,VA,NA,6.294536817102138,NA
23456,Virginia Beach city,VA,49.61734693877551,6.710213776722091,NA
23462,Virginia Beach city,VA,15.051020408163266,NA,NA
23464,Virginia Beach city,VA,NA,16.68646080760095,NA
23487,Isle of Wight County,VA,NA,73.93111638954869,NA
23509,Norfolk city,VA,NA,NA,65.86270871985158
23510,Norfolk city,VA,NA,NA,62.708719851577
23518,Norfolk city,VA,NA,NA,15.398886827458256
23602,Newport News city,VA,NA,21.61520190023753,NA
23606,Newport News city,VA,41.64540816326531,NA,NA
23692,York County,VA,NA,82.89786223277909,NA
23693,York County,VA,89.79591836734694,NA,NA
23704,Portsmouth city,VA,22.767857142857142,NA,NA
23707,Portsmouth city,VA,45.4719387755102,NA,NA
23831,Chesterfield County,VA,30.165816326530614,NA,NA
23868,Brunswick County,VA,85.90561224489795,NA,NA
24014,Roanoke city,VA,NA,NA,82.56029684601113
24017,Roanoke city,VA,NA,80.22565320665083,NA
24018,Roanoke County,VA,NA,24.762470308788597,NA
24066,Botetourt County,VA,NA,98.2185273159145,NA
24073,Montgomery County,VA,34.183673469387756,NA,NA
24078,Henry County,VA,NA,NA,86.45640074211502
24136,Giles County,VA,94.13265306122449,NA,NA
24153,Salem city,VA,27.806122448979593,12.885985748218529,NA
24179,Roanoke County,VA,41.83673469387755,NA,NA
24210,Washington County,VA,NA,68.28978622327791,NA
24277,Lee County,VA,NA,92.10213776722091,NA
24293,Wise County,VA,NA,88.89548693586698,NA
24382,Wythe County,VA,37.81887755102041,NA,NA
24401,Staunton city,VA,NA,28.38479809976247,NA
24450,Rockbridge County,VA,NA,NA,34.32282003710575
24477,Augusta County,VA,NA,40.08313539192399,NA
24486,Augusta County,VA,92.7295918367347,NA,NA
24540,Danville city,VA,22.257653061224488,NA,NA
24550,Campbell County,VA,NA,79.33491686460808,NA
24558,Halifax County,VA,60.33163265306123,NA,NA
24592,Halifax County,VA,23.214285714285715,27.909738717339668,NA
24614,Buchanan County,VA,NA,65.43942992874109,NA
24637,Tazewell County,VA,NA,99.34679334916865,NA
98008,King County,WA,80.42091836734694,NA,NA
98031,King County,WA,33.99234693877551,NA,NA
98033,King County,WA,NA,24.049881235154395,NA
98036,Snohomish County,WA,NA,64.8456057007126,NA
98038,King County,WA,27.29591836734694,30.700712589073635,NA
98040,King County,WA,NA,95.54631828978623,NA
98052,King County,WA,NA,NA,12.987012987012985
98103,King County,WA,NA,65.02375296912113,NA
98109,King County,WA,NA,91.21140142517815,NA
98115,King County,WA,NA,18.467933491686463,NA
98126,King County,WA,NA,51.9002375296912,NA
98146,King County,WA,51.7219387755102,NA,NA
98166,King County,WA,93.11224489795919,NA,NA
98177,King County,WA,63.39285714285714,48.69358669833729,NA
98178,King County,WA,73.46938775510205,NA,NA
98223,Snohomish County,WA,NA,13.36104513064133,38.775510204081634
98226,Whatcom County,WA,58.545918367346935,NA,NA
98233,Skagit County,WA,NA,NA,93.32096474953617
98248,Whatcom County,WA,NA,79.51306413301663,NA
98250,San Juan County,WA,NA,NA,75.88126159554731
98270,Snohomish County,WA,15.306122448979592,NA,NA
98273,Skagit County,WA,NA,60.92636579572447,NA
98274,Skagit County,WA,NA,NA,26.716141001855288
98277,Island County,WA,39.41326530612245,NA,NA
98282,Island County,WA,NA,78.50356294536816,NA
98284,Skagit County,WA,42.920918367346935,NA,NA
98328,Pierce County,WA,77.4234693877551,NA,NA
98329,Pierce County,WA,94.38775510204081,NA,NA
98335,Pierce County,WA,NA,28.622327790973873,NA
98346,Kitsap County,WA,NA,87.17339667458432,NA
98359,Kitsap County,WA,NA,93.76484560570071,NA
98362,Clallam County,WA,28.188775510204085,5.463182897862233,NA
98365,Jefferson County,WA,NA,92.39904988123516,NA
98368,Jefferson County,WA,NA,18.111638954869356,NA
98370,Kitsap County,WA,84.50255102040816,NA,NA
98382,Clallam County,WA,NA,1.6033254156769599,NA
98383,Kitsap County,WA,NA,45.24940617577197,NA
98391,Pierce County,WA,NA,9.382422802850355,NA
98408,Pierce County,WA,NA,48.9311163895487,NA
98418,Pierce County,WA,NA,91.92399049881234,NA
98503,Thurston County,WA,59.566326530612244,NA,30.79777365491651
98541,Grays Harbor County,WA,NA,77.37529691211401,NA
98569,Grays Harbor County,WA,NA,69.53681710213777,NA
98611,Cowlitz County,WA,NA,NA,60.667903525046384
98632,Cowlitz County,WA,15.816326530612246,NA,NA
98660,Clark County,WA,NA,NA,71.24304267161409
98664,Clark County,WA,NA,NA,90.35250463821892
98672,Klickitat County,WA,NA,86.22327790973871,NA
98801,Chelan County,WA,19.57908163265306,NA,4.267161410018553
98812,Okanogan County,WA,NA,97.03087885985748,NA
98840,Okanogan County,WA,NA,NA,98.88682745825604
98901,Yakima County,WA,NA,38.42042755344418,NA
98902,Yakima County,WA,22.5765306122449,NA,NA
98908,Yakima County,WA,61.35204081632652,9.441805225653207,NA
98951,Yakima County,WA,83.54591836734694,NA,NA
99027,Spokane County,WA,94.4515306122449,NA,NA
99037,Spokane County,WA,NA,NA,87.569573283859
99163,Whitman County,WA,NA,85.33254156769597,NA
99205,Spokane County,WA,NA,40.43942992874109,NA
99208,Spokane County,WA,NA,55.70071258907363,NA
99301,Franklin County,WA,NA,4.750593824228028,NA
99337,Benton County,WA,NA,28.978622327790976,NA
99350,Benton County,WA,79.65561224489795,NA,NA
99352,Benton County,WA,NA,18.94299287410926,NA
99354,Benton County,WA,NA,24.406175771971498,NA
99362,Walla Walla County,WA,21.301020408163264,NA,7.421150278293136
20001,District of Columbia,DC,16.64540816326531,NA,NA
20005,District of Columbia,DC,79.20918367346938,NA,NA
20009,District of Columbia,DC,24.872448979591837,NA,65.12059369202227
20016,District of Columbia,DC,64.41326530612244,NA,NA
20020,District of Columbia,DC,12.372448979591837,67.75534441805226,82.3747680890538
20032,District of Columbia,DC,NA,15.261282660332542,NA
20037,District of Columbia,DC,NA,97.44655581947742,NA
25312,Kanawha County,WV,58.099489795918366,42.87410926365796,NA
25401,Berkeley County,WV,NA,27.672209026128264,NA
25414,Jefferson County,WV,NA,85.62945368171022,88.86827458256029
25419,Berkeley County,WV,72.83163265306123,NA,NA
25438,Jefferson County,WV,83.60969387755102,84.50118764845605,NA
25504,Cabell County,WV,NA,82.42280285035629,NA
25526,Putnam County,WV,NA,NA,32.09647495361781
25560,Putnam County,WV,NA,61.57957244655582,NA
25701,Cabell County,WV,NA,11.282660332541568,NA
25705,Cabell County,WV,14.732142857142858,NA,NA
25801,Raleigh County,WV,NA,NA,7.977736549165121
26003,Ohio County,WV,NA,57.00712589073634,NA
26047,Hancock County,WV,NA,NA,68.46011131725417
26105,Wood County,WV,NA,34.97624703087886,NA
26150,Wood County,WV,65.56122448979592,NA,NA
26164,Jackson County,WV,77.74234693877551,NA,NA
26181,Wood County,WV,NA,79.86935866983373,NA
26301,Harrison County,WV,NA,7.957244655581948,NA
26354,Taylor County,WV,41.19897959183674,NA,NA
26452,Lewis County,WV,NA,24.94061757719715,NA
26537,Preston County,WV,NA,52.73159144893111,NA
26554,Marion County,WV,NA,27.790973871733964,NA
26704,Hampshire County,WV,NA,87.76722090261283,NA
26753,Mineral County,WV,NA,77.67220902612827,NA
53022,Washington County,WI,NA,71.49643705463184,NA
53024,Ozaukee County,WI,NA,75.95011876484561,NA
53029,Waukesha County,WI,88.13775510204081,NA,NA
53032,Dodge County,WI,99.61734693877551,NA,NA
53051,Waukesha County,WI,36.03316326530612,NA,NA
53081,Sheboygan County,WI,13.392857142857142,NA,NA
53085,Sheboygan County,WI,95.34438775510205,87.29216152019002,NA
53086,Washington County,WI,91.26275510204081,NA,NA
53089,Waukesha County,WI,NA,63.95486935866983,NA
53092,Ozaukee County,WI,NA,65.85510688836105,NA
53095,Washington County,WI,NA,13.30166270783848,NA
53098,Dodge County,WI,NA,46.318289786223275,NA
53103,Waukesha County,WI,97.51275510204081,NA,NA
53105,Racine County,WI,12.818877551020408,NA,NA
53122,Waukesha County,WI,NA,86.46080760095012,NA
53132,Milwaukee County,WI,76.0204081632653,16.033254156769598,11.688311688311687
53140,Kenosha County,WI,8.928571428571429,NA,NA
53143,Kenosha County,WI,14.85969387755102,NA,NA
53151,Waukesha County,WI,NA,14.608076009501186,64.37847866419295
53154,Milwaukee County,WI,NA,NA,28.57142857142857
53158,Kenosha County,WI,16.70918367346939,NA,NA
53186,Waukesha County,WI,NA,29.334916864608076,27.27272727272727
53189,Waukesha County,WI,NA,NA,34.137291280148425
53204,Milwaukee County,WI,5.612244897959184,NA,NA
53206,Milwaukee County,WI,7.716836734693877,NA,NA
53207,Milwaukee County,WI,51.21173469387755,24.168646080760094,NA
53212,Milwaukee County,WI,65.3061224489796,NA,NA
53214,Milwaukee County,WI,9.375,NA,NA
53216,Milwaukee County,WI,5.48469387755102,NA,NA
53219,Milwaukee County,WI,76.78571428571429,NA,NA
53221,Milwaukee County,WI,NA,NA,10.575139146567718
53402,Racine County,WI,NA,57.00712589073634,NA
53403,Racine County,WI,26.658163265306122,NA,NA
53405,Racine County,WI,NA,78.02850356294537,NA
53406,Racine County,WI,NA,12.232779097387175,NA
53511,Rock County,WI,5.931122448979592,NA,NA
53538,Jefferson County,WI,NA,NA,58.44155844155844
53545,Rock County,WI,NA,46.37767220902613,NA
53546,Rock County,WI,NA,19.89311163895487,NA
53548,Rock County,WI,NA,52.79097387173397,NA
53559,Dane County,WI,NA,94.47743467933492,NA
53562,Dane County,WI,66.00765306122449,NA,NA
53705,Dane County,WI,NA,NA,42.11502782931355
53713,Dane County,WI,NA,87.11401425178147,NA
53718,Dane County,WI,NA,60.03562945368171,NA
53807,Grant County,WI,99.80867346938776,NA,NA
53821,Crawford County,WI,NA,90.02375296912113,NA
53916,Dodge County,WI,33.35459183673469,NA,58.8126159554731
53950,Juneau County,WI,79.40051020408163,NA,NA
53959,Sauk County,WI,64.9234693877551,NA,NA
54015,St. Croix County,WI,94.7704081632653,NA,NA
54016,St. Croix County,WI,NA,38.53919239904988,NA
54022,Pierce County,WI,84.0561224489796,NA,NA
54106,Outagamie County,WI,99.2984693877551,NA,NA
54130,Outagamie County,WI,50.255102040816325,NA,NA
54140,Outagamie County,WI,85.14030612244898,NA,NA
54151,Marinette County,WI,NA,94.23990498812351,NA
54166,Shawano County,WI,NA,41.1520190023753,NA
54220,Manitowoc County,WI,68.23979591836735,55.87885985748219,NA
54235,Door County,WI,NA,NA,51.94805194805194
54241,Manitowoc County,WI,78.63520408163265,28.859857482185276,NA
54304,Brown County,WI,17.47448979591837,NA,NA
54423,Portage County,WI,99.93622448979592,NA,NA
54452,Lincoln County,WI,NA,NA,20.037105751391465
54457,Wood County,WI,NA,78.32541567695962,NA
54467,Portage County,WI,55.22959183673469,NA,NA
54482,Portage County,WI,NA,53.85985748218527,NA
54487,Lincoln County,WI,91.3265306122449,NA,79.77736549165121
54501,Oneida County,WI,42.410714285714285,NA,NA
54534,Iron County,WI,95.72704081632652,93.23040380047506,NA
54601,La Crosse County,WI,23.852040816326532,NA,0
54603,La Crosse County,WI,45.66326530612245,NA,NA
54650,La Crosse County,WI,NA,NA,40.07421150278293
54701,Eau Claire County,WI,NA,NA,29.499072356215212
54703,Eau Claire County,WI,NA,24.70308788598575,NA
54742,Eau Claire County,WI,NA,99.04988123515439,NA
54755,Buffalo County,WI,87.69132653061224,NA,73.8404452690167
54806,Ashland County,WI,NA,69.23990498812351,NA
54848,Rusk County,WI,96.49234693877551,83.2541567695962,NA
54868,Barron County,WI,NA,37.648456057007124,NA
54874,Douglas County,WI,95.98214285714286,NA,NA
54880,Douglas County,WI,12.244897959183673,17.577197149643705,NA
54902,Winnebago County,WI,72.1938775510204,NA,NA
54935,Fond du Lac County,WI,NA,38.242280285035626,NA
54944,Outagamie County,WI,87.5,NA,NA
54952,Winnebago County,WI,NA,32.066508313539195,NA
54971,Fond du Lac County,WI,77.99744897959184,NA,NA
82201,Platte County,WY,98.85204081632652,NA,NA
82240,Goshen County,WY,NA,89.7268408551069,NA
82716,Campbell County,WY,NA,73.99049881235155,NA
82901,Sweetwater County,WY,48.46938775510204,NA,NA
