ZipCode,county,state,Adult,Retirement,Geriatric
35010,Tallapoosa County,AL,NA,34.96420047732697,NA
35023,Jefferson County,AL,NA,NA,22.323049001814883
35071,Jefferson County,AL,NA,NA,57.53176043557169
35206,Jefferson County,AL,69.96336996336996,NA,NA
35210,Jefferson County,AL,NA,69.8090692124105,NA
35212,Jefferson County,AL,83.15018315018315,NA,NA
35215,Jefferson County,AL,11.538461538461538,NA,NA
35217,Jefferson County,AL,NA,81.5035799522673,NA
35222,Jefferson County,AL,92.67399267399267,NA,NA
35244,Jefferson County,AL,NA,76.49164677804295,NA
35404,Tuscaloosa County,AL,NA,34.7255369928401,NA
35466,Pickens County,AL,NA,87.11217183770883,NA
35473,Tuscaloosa County,AL,63.55311355311355,NA,NA
35601,Morgan County,AL,NA,NA,27.949183303085302
35603,Morgan County,AL,20.32967032967033,NA,NA
35613,Limestone County,AL,48.53479853479853,NA,NA
35661,Colbert County,AL,73.44322344322345,NA,NA
35674,Colbert County,AL,NA,50.59665871121718,NA
35759,Madison County,AL,NA,NA,84.75499092558984
35801,Madison County,AL,NA,34.36754176610978,NA
35816,Madison County,AL,76.19047619047619,NA,NA
35957,Marshall County,AL,NA,NA,78.94736842105263
36066,Autauga County,AL,NA,NA,51.17967332123412
36081,Pike County,AL,NA,69.68973747016707,NA
36106,Montgomery County,AL,NA,80.07159904534606,NA
36117,Montgomery County,AL,NA,NA,20.326678765880217
36268,Talladega County,AL,NA,95.1073985680191,NA
36460,Monroe County,AL,NA,94.86873508353221,NA
36522,Mobile County,AL,91.20879120879121,NA,NA
36532,Baldwin County,AL,NA,24.105011933174225,NA
36567,Baldwin County,AL,NA,NA,63.33938294010889
36582,Mobile County,AL,57.32600732600732,50.47732696897375,NA
36606,Mobile County,AL,NA,79.83293556085918,NA
36695,Mobile County,AL,NA,NA,41.560798548094375
36703,Dallas County,AL,89.1941391941392,NA,79.491833030853
36744,Hale County,AL,NA,NA,76.58802177858439
36854,Chambers County,AL,69.78021978021978,NA,NA
36867,Russell County,AL,75.45787545787546,NA,NA
36870,Lee County,AL,NA,NA,73.32123411978222
99503,Anchorage Municipality,AK,NA,77.20763723150358,NA
99507,Anchorage Municipality,AK,NA,53.341288782816235,NA
99654,Matanuska-Susitna Borough,AK,42.49084249084249,NA,NA
99701,Fairbanks North Star Borough,AK,40.29304029304029,NA,NA
99901,Ketchikan Gateway Borough,AK,49.08424908424908,NA,NA
85024,Maricopa County,AZ,79.85347985347985,NA,NA
85139,Pinal County,AZ,95.05494505494505,NA,NA
85225,Maricopa County,AZ,NA,NA,52.994555353901994
85248,Maricopa County,AZ,NA,30.787589498806682,5.44464609800363
85268,Maricopa County,AZ,NA,NA,70.41742286751361
85335,Maricopa County,AZ,39.37728937728938,NA,NA
85351,Maricopa County,AZ,NA,NA,0.3629764065335753
85364,Yuma County,AZ,3.47985347985348,NA,NA
85374,Maricopa County,AZ,NA,18.973747016706444,NA
85375,Maricopa County,AZ,NA,61.813842482100235,NA
85377,Maricopa County,AZ,NA,NA,91.2885662431942
85379,Maricopa County,AZ,NA,62.29116945107399,NA
85382,Maricopa County,AZ,NA,46.18138424821002,NA
85392,Maricopa County,AZ,NA,NA,78.0399274047187
85603,Cochise County,AZ,88.09523809523809,NA,NA
85635,Cochise County,AZ,NA,52.2673031026253,NA
85641,Pima County,AZ,NA,NA,98.36660617059891
85704,Pima County,AZ,NA,NA,23.23049001814882
85710,Pima County,AZ,NA,NA,6.352087114337568
85711,Pima County,AZ,NA,NA,91.1070780399274
85712,Pima County,AZ,25.82417582417583,NA,NA
85718,Pima County,AZ,NA,57.756563245823386,NA
85730,Pima County,AZ,NA,26.49164677804296,NA
85739,Pinal County,AZ,NA,28.997613365155132,NA
85745,Pima County,AZ,NA,74.10501193317423,NA
86004,Coconino County,AZ,7.875457875457875,NA,NA
86042,Navajo County,AZ,NA,98.80668257756562,NA
86044,San Juan County,AZ,NA,97.85202863961814,NA
86045,Coconino County,AZ,30.21978021978022,NA,NA
86314,Yavapai County,AZ,20.146520146520146,NA,NA
86326,Yavapai County,AZ,65.01831501831502,22.673031026252982,19.237749546279492
86409,Mohave County,AZ,NA,3.9379474940334127,NA
86442,Mohave County,AZ,NA,NA,20.689655172413794
86538,Apache County,AZ,97.8021978021978,NA,NA
71822,Little River County,AR,NA,NA,76.04355716878402
71901,Garland County,AR,81.86813186813187,NA,NA
71968,Garland County,AR,NA,98.21002386634845,NA
72076,Pulaski County,AR,NA,38.066825775656326,NA
72104,Hot Spring County,AR,65.2014652014652,NA,54.99092558983666
72118,Pulaski County,AR,NA,NA,42.28675136116152
72160,Arkansas County,AR,NA,NA,65.33575317604355
72211,Pulaski County,AR,NA,81.26491646778044,NA
72301,Crittenden County,AR,86.44688644688645,NA,NA
72422,Clay County,AR,NA,96.65871121718376,NA
72455,Randolph County,AR,NA,NA,84.93647912885662
72501,Independence County,AR,38.27838827838828,NA,NA
72653,Baxter County,AR,NA,NA,8.711433756805807
72712,Benton County,AR,82.78388278388277,NA,38.83847549909255
72715,Benton County,AR,NA,NA,20.14519056261343
72762,Washington County,AR,NA,NA,50.99818511796733
72802,Pope County,AR,NA,68.73508353221956,NA
72921,Crawford County,AR,NA,NA,77.13248638838476
90025,Los Angeles County,CA,NA,72.0763723150358,NA
90027,Los Angeles County,CA,NA,60.14319809069213,NA
90033,Los Angeles County,CA,NA,NA,40.653357531760435
90034,Los Angeles County,CA,NA,55.131264916467785,NA
90035,Los Angeles County,CA,NA,73.26968973747017,25.226860254083483
90038,Los Angeles County,CA,NA,75.41766109785203,NA
90047,Los Angeles County,CA,NA,13.723150357995225,NA
90048,Los Angeles County,CA,NA,NA,41.92377495462795
90059,Los Angeles County,CA,NA,59.069212410501194,NA
90077,Los Angeles County,CA,NA,NA,74.9546279491833
90242,Los Angeles County,CA,NA,60.501193317422434,NA
90266,Los Angeles County,CA,NA,NA,26.31578947368421
90404,Los Angeles County,CA,NA,NA,84.39201451905626
90631,Orange County,CA,NA,NA,22.141560798548092
90650,Los Angeles County,CA,NA,15.75178997613365,NA
90660,Los Angeles County,CA,NA,37.47016706443914,NA
90706,Los Angeles County,CA,NA,39.140811455847256,NA
90744,Los Angeles County,CA,NA,62.05250596658711,NA
90745,Los Angeles County,CA,77.2893772893773,NA,NA
90802,Los Angeles County,CA,59.34065934065934,NA,NA
91010,Los Angeles County,CA,NA,67.42243436754177,NA
91011,Los Angeles County,CA,NA,84.00954653937947,NA
91208,Los Angeles County,CA,NA,72.79236276849642,NA
91331,Los Angeles County,CA,NA,19.212410501193318,NA
91340,Los Angeles County,CA,NA,98.09069212410502,NA
91351,Los Angeles County,CA,NA,NA,85.2994555353902
91362,Ventura County,CA,NA,43.914081145584724,NA
91364,Los Angeles County,CA,NA,72.55369928400954,NA
91387,Los Angeles County,CA,NA,42.959427207637226,NA
91505,Los Angeles County,CA,NA,81.38424821002387,NA
91506,Los Angeles County,CA,NA,88.18615751789977,NA
91706,Los Angeles County,CA,80.40293040293041,NA,NA
91709,San Bernardino County,CA,NA,27.088305489260144,NA
91711,Los Angeles County,CA,NA,NA,18.87477313974592
91723,Los Angeles County,CA,94.32234432234432,NA,NA
91741,Los Angeles County,CA,85.34798534798534,NA,NA
91752,Riverside County,CA,NA,67.06443914081146,NA
91762,San Bernardino County,CA,39.56043956043956,NA,NA
91767,Los Angeles County,CA,NA,53.5799522673031,NA
91789,Los Angeles County,CA,NA,94.03341288782816,NA
91901,San Diego County,CA,71.06227106227107,NA,64.97277676950998
91911,San Diego County,CA,NA,NA,34.84573502722323
92014,San Diego County,CA,NA,84.60620525059666,NA
92028,San Diego County,CA,NA,NA,40.471869328493646
92057,San Diego County,CA,87.17948717948718,NA,NA
92084,San Diego County,CA,66.30036630036629,NA,NA
92109,San Diego County,CA,NA,58.47255369928401,NA
92110,San Diego County,CA,65.56776556776556,NA,NA
92118,San Diego County,CA,NA,NA,34.66424682395644
92211,Riverside County,CA,NA,NA,2.540834845735027
92234,Riverside County,CA,18.4981684981685,NA,NA
92236,Riverside County,CA,51.64835164835166,NA,NA
92240,Riverside County,CA,26.373626373626376,NA,NA
92253,Riverside County,CA,NA,10.26252983293556,NA
92262,Riverside County,CA,62.45421245421245,44.272076372315034,NA
92264,Riverside County,CA,NA,67.30310262529832,NA
92276,Riverside County,CA,NA,NA,99.8185117967332
92307,San Bernardino County,CA,NA,NA,76.76950998185119
92308,San Bernardino County,CA,NA,27.326968973747018,NA
92324,San Bernardino County,CA,NA,NA,60.98003629764065
92337,San Bernardino County,CA,67.21611721611723,NA,NA
92345,San Bernardino County,CA,NA,15.871121718377088,NA
92354,San Bernardino County,CA,NA,91.16945107398568,NA
92373,San Bernardino County,CA,NA,67.89976133651552,NA
92392,San Bernardino County,CA,23.44322344322344,NA,NA
92410,San Bernardino County,CA,NA,NA,94.37386569872959
92506,Riverside County,CA,NA,88.18615751789977,NA
92508,Riverside County,CA,86.81318681318682,NA,NA
92509,Riverside County,CA,NA,40.334128878281625,NA
92596,Riverside County,CA,NA,NA,89.83666061705989
92637,Orange County,CA,NA,NA,2.1778584392014517
92677,Orange County,CA,NA,65.39379474940334,NA
92688,Orange County,CA,NA,73.74701670644392,54.08348457350273
92691,Orange County,CA,NA,21.479713603818613,NA
92707,Orange County,CA,NA,NA,61.88747731397459
92804,Orange County,CA,NA,NA,23.593466424682397
92807,Orange County,CA,NA,42.720763723150355,NA
92808,Orange County,CA,NA,83.89021479713604,NA
92831,Orange County,CA,85.71428571428571,NA,NA
92833,Orange County,CA,58.791208791208796,31.38424821002387,49.364791288566245
92835,Orange County,CA,NA,87.58949880668257,75.68058076225044
92845,Orange County,CA,NA,69.21241050119332,NA
92860,Riverside County,CA,78.2051282051282,NA,NA
92867,Orange County,CA,NA,NA,28.85662431941924
92870,Orange County,CA,NA,93.31742243436753,12.885662431941924
92881,Riverside County,CA,NA,76.9689737470167,NA
92882,Riverside County,CA,34.43223443223443,NA,NA
92886,Orange County,CA,NA,55.011933174224346,NA
93004,Ventura County,CA,NA,52.14797136038186,NA
93012,Ventura County,CA,NA,NA,26.860254083484573
93022,Ventura County,CA,NA,NA,98.00362976406534
93030,Ventura County,CA,NA,21.837708830548927,NA
93033,Ventura County,CA,NA,10.739856801909307,NA
93035,Ventura County,CA,NA,66.2291169451074,NA
93036,Ventura County,CA,70.87912087912088,NA,81.30671506352087
93060,Ventura County,CA,NA,93.07875894988067,NA
93230,Kings County,CA,NA,16.706443914081145,57.3502722323049
93247,Tulare County,CA,NA,87.47016706443914,NA
93274,Tulare County,CA,NA,19.451073985680193,NA
93291,Tulare County,CA,NA,39.498806682577566,NA
93306,Kern County,CA,NA,41.288782816229116,NA
93309,Kern County,CA,NA,NA,29.219600725952816
93313,Kern County,CA,NA,NA,95.82577132486388
93436,Santa Barbara County,CA,NA,16.94510739856802,NA
93446,San Luis Obispo County,CA,NA,NA,49.18330308529946
93536,Los Angeles County,CA,NA,NA,48.82032667876588
93543,Los Angeles County,CA,NA,NA,98.91107078039929
93550,Los Angeles County,CA,NA,NA,52.26860254083484
93555,Kern County,CA,NA,19.928400954653938,NA
93560,Kern County,CA,82.96703296703298,NA,NA
93561,Kern County,CA,79.12087912087912,NA,NA
93612,Fresno County,CA,NA,86.39618138424821,NA
93654,Fresno County,CA,NA,78.04295942720763,66.0617059891107
93657,Fresno County,CA,NA,46.18138424821002,NA
93705,Fresno County,CA,NA,45.58472553699284,NA
93720,Fresno County,CA,NA,65.2744630071599,45.19056261343013
94010,San Mateo County,CA,59.70695970695971,NA,NA
94015,San Mateo County,CA,51.28205128205128,NA,NA
94030,San Mateo County,CA,NA,63.48448687350835,NA
94070,San Mateo County,CA,NA,NA,54.44646098003629
94132,San Francisco County,CA,NA,NA,35.75317604355717
94301,Santa Clara County,CA,93.95604395604396,NA,NA
94502,Alameda County,CA,NA,NA,74.41016333938293
94517,Contra Costa County,CA,NA,NA,83.48457350272233
94541,Alameda County,CA,NA,NA,39.7459165154265
94544,Alameda County,CA,22.344322344322347,NA,NA
94558,Napa County,CA,NA,7.517899761336516,NA
94579,Alameda County,CA,NA,78.52028639618138,NA
94903,Marin County,CA,NA,NA,10.344827586206897
95003,Santa Cruz County,CA,NA,76.49164677804295,NA
95019,Santa Cruz County,CA,NA,NA,90.01814882032669
95023,San Benito County,CA,NA,36.51551312649165,NA
95116,Santa Clara County,CA,NA,53.5799522673031,NA
95121,Santa Clara County,CA,78.75457875457876,NA,NA
95124,Santa Clara County,CA,NA,41.05011933174224,NA
95125,Santa Clara County,CA,NA,77.68496420047732,25.771324863883848
95129,Santa Clara County,CA,NA,76.9689737470167,NA
95207,San Joaquin County,CA,NA,30.071599045346066,NA
95321,Tuolumne County,CA,NA,89.49880668257757,NA
95326,Stanislaus County,CA,93.58974358974359,NA,NA
95337,San Joaquin County,CA,47.25274725274725,NA,NA
95370,Tuolumne County,CA,NA,24.22434367541766,NA
95386,Stanislaus County,CA,NA,92.60143198090692,NA
95437,Mendocino County,CA,NA,NA,28.49364791288566
95608,Sacramento County,CA,47.069597069597066,NA,NA
95926,Butte County,CA,39.010989010989015,NA,NA
95969,Butte County,CA,NA,NA,2.9038112522686026
95988,Glenn County,CA,NA,91.05011933174224,NA
96021,Tehama County,CA,NA,85.44152744630071,NA
96080,Tehama County,CA,NA,26.37231503579952,NA
80002,Jefferson County,CO,89.01098901098901,NA,NA
80014,Arapahoe County,CO,NA,NA,72.41379310344827
80030,Adams County,CO,NA,80.31026252983293,NA
80031,Adams County,CO,45.42124542124542,NA,NA
80206,Denver County,CO,NA,NA,78.76588021778585
80209,Denver County,CO,NA,NA,71.68784029038112
80210,Denver County,CO,86.63003663003663,NA,NA
80215,Jefferson County,CO,NA,82.81622911694511,NA
80220,Denver County,CO,NA,68.4964200477327,NA
80226,Jefferson County,CO,56.959706959706956,NA,NA
80439,Jefferson County,CO,NA,53.10262529832935,NA
80538,Larimer County,CO,NA,8.711217183770884,NA
80634,Weld County,CO,NA,1.6706443914081146,NA
80701,Morgan County,CO,NA,NA,47.91288566243194
80831,El Paso County,CO,NA,NA,85.11796733212341
80908,El Paso County,CO,NA,85.56085918854416,NA
80910,El Paso County,CO,NA,59.90453460620525,NA
80918,El Paso County,CO,NA,NA,36.29764065335753
81004,Pueblo County,CO,NA,31.026252983293556,NA
81052,Prowers County,CO,NA,NA,99.63702359346642
81101,Alamosa County,CO,50.91575091575091,NA,NA
81147,Archuleta County,CO,NA,62.171837708830544,NA
81321,Montezuma County,CO,NA,66.46778042959427,NA
81413,Delta County,CO,NA,NA,93.10344827586206
81506,Mesa County,CO,NA,NA,60.254083484573506
81625,Moffat County,CO,46.336996336996336,NA,90.56261343012704
06010,Hartford County,CT,NA,2.5059665871121717,NA
06032,Hartford County,CT,NA,74.7016706443914,NA
06040,Hartford County,CT,NA,NA,24.500907441016334
06042,Hartford County,CT,NA,47.61336515513126,NA
06071,Tolland County,CT,87.72893772893772,NA,NA
06105,Hartford County,CT,26.190476190476193,NA,NA
06226,Windham County,CT,NA,47.13603818615752,NA
06403,New Haven County,CT,97.25274725274726,NA,NA
06405,New Haven County,CT,NA,NA,8.892921960072595
06416,Middlesex County,CT,NA,NA,81.48820326678766
06488,New Haven County,CT,NA,NA,10.163339382940109
06514,New Haven County,CT,39.743589743589745,NA,NA
06605,Fairfield County,CT,NA,NA,94.1923774954628
06610,Fairfield County,CT,33.150183150183146,NA,NA
06614,Fairfield County,CT,NA,NA,25.40834845735027
06702,New Haven County,CT,NA,NA,95.6442831215971
06762,New Haven County,CT,96.52014652014653,NA,NA
06770,New Haven County,CT,29.304029304029307,64.43914081145584,24.682395644283122
06786,Litchfield County,CT,NA,94.5107398568019,NA
06790,Litchfield County,CT,NA,NA,53.901996370235935
06896,Fairfield County,CT,NA,NA,95.28130671506352
06897,Fairfield County,CT,NA,79.11694510739858,NA
06902,Fairfield County,CT,NA,11.933174224343675,NA
19713,New Castle County,DE,NA,30.429594272076372,NA
19938,Kent County,DE,73.992673992674,NA,NA
19956,Sussex County,DE,NA,49.64200477326969,NA
19963,Sussex County,DE,NA,38.66348448687351,NA
32043,Clay County,FL,NA,21.71837708830549,NA
32081,St. Johns County,FL,NA,83.29355608591885,NA
32091,Bradford County,FL,NA,43.556085918854414,NA
32114,Volusia County,FL,27.83882783882784,NA,NA
32117,Volusia County,FL,38.095238095238095,NA,NA
32119,Volusia County,FL,NA,54.653937947494036,NA
32163,Sumter County,FL,NA,NA,58.076225045372055
32177,Putnam County,FL,NA,62.52983293556086,NA
32208,Duval County,FL,12.454212454212454,NA,NA
32209,Duval County,FL,NA,14.797136038186157,45.91651542649728
32210,Duval County,FL,4.029304029304029,7.637231503579953,NA
32218,Duval County,FL,NA,NA,23.049001814882033
32244,Duval County,FL,52.197802197802204,NA,NA
32258,Duval County,FL,NA,NA,58.98366606170599
32259,St. Johns County,FL,NA,40.572792362768496,NA
32401,Bay County,FL,44.505494505494504,29.713603818615752,NA
32404,Bay County,FL,NA,NA,22.867513611615244
32459,Walton County,FL,NA,31.742243436754176,NA
32501,Escambia County,FL,NA,41.8854415274463,NA
32536,Okaloosa County,FL,NA,25.6563245823389,NA
32751,Orange County,FL,NA,83.53221957040573,NA
32754,Brevard County,FL,NA,78.28162291169451,NA
32805,Orange County,FL,NA,78.8782816229117,NA
32829,Orange County,FL,NA,NA,98.18511796733212
32937,Brevard County,FL,NA,NA,27.76769509981851
32955,Brevard County,FL,58.42490842490843,NA,9.43738656987296
33012,Miami-Dade County,FL,NA,23.15035799522673,NA
33033,Miami-Dade County,FL,49.633699633699635,NA,NA
33035,Miami-Dade County,FL,NA,87.708830548926,NA
33037,Monroe County,FL,NA,73.62768496420048,NA
33042,Monroe County,FL,NA,NA,97.09618874773139
33054,Miami-Dade County,FL,NA,74.94033412887828,NA
33067,Broward County,FL,NA,NA,64.42831215970962
33155,Miami-Dade County,FL,NA,32.69689737470167,10.88929219600726
33157,Miami-Dade County,FL,NA,21.360381861575178,NA
33160,Miami-Dade County,FL,NA,37.94749403341289,NA
33161,Miami-Dade County,FL,NA,50.59665871121718,NA
33165,Miami-Dade County,FL,NA,37.23150357995227,2.35934664246824
33172,Miami-Dade County,FL,NA,NA,37.38656987295826
33175,Miami-Dade County,FL,NA,NA,14.882032667876588
33177,Miami-Dade County,FL,NA,52.38663484486874,NA
33185,Miami-Dade County,FL,NA,73.15035799522673,NA
33186,Miami-Dade County,FL,84.98168498168498,NA,NA
33187,Miami-Dade County,FL,NA,NA,74.04718693284936
33304,Broward County,FL,84.7985347985348,NA,NA
33311,Broward County,FL,NA,NA,26.678765880217785
33319,Broward County,FL,NA,NA,16.696914700544465
33404,Palm Beach County,FL,NA,NA,39.01996370235935
33417,Palm Beach County,FL,65.93406593406593,NA,NA
33426,Palm Beach County,FL,NA,NA,47.186932849364794
33430,Palm Beach County,FL,60.07326007326007,NA,NA
33473,Palm Beach County,FL,NA,NA,90.38112522686026
33510,Hillsborough County,FL,64.1025641025641,NA,NA
33569,Hillsborough County,FL,80.58608058608058,NA,NA
33570,Hillsborough County,FL,NA,57.875894988066825,64.7912885662432
33573,Hillsborough County,FL,NA,NA,1.4519056261343013
33598,Hillsborough County,FL,NA,91.52744630071598,NA
33612,Hillsborough County,FL,14.102564102564102,NA,NA
33626,Hillsborough County,FL,NA,85.79952267303102,NA
33710,Pinellas County,FL,NA,NA,38.294010889292196
33781,Pinellas County,FL,NA,NA,35.57168784029038
33815,Polk County,FL,48.35164835164835,NA,NA
33853,Polk County,FL,NA,NA,82.03266787658802
33880,Polk County,FL,28.57142857142857,NA,NA
33897,Polk County,FL,NA,NA,70.5989110707804
33903,Lee County,FL,69.23076923076923,32.33890214797136,NA
33913,Lee County,FL,NA,NA,45.5535390199637
33953,Charlotte County,FL,NA,92.00477326968974,NA
33954,Charlotte County,FL,NA,89.14081145584726,71.50635208711434
33955,Charlotte County,FL,NA,NA,80.21778584392014
34112,Collier County,FL,NA,NA,19.782214156079856
34145,Collier County,FL,NA,NA,27.404718693284934
34205,Manatee County,FL,NA,NA,88.2032667876588
34211,Manatee County,FL,NA,NA,95.4627949183303
34224,Charlotte County,FL,NA,63.961813842482094,NA
34238,Sarasota County,FL,NA,NA,5.807622504537205
34242,Sarasota County,FL,NA,NA,48.82032667876588
34243,Manatee County,FL,NA,24.58233890214797,NA
34285,Sarasota County,FL,NA,19.212410501193318,NA
34286,Sarasota County,FL,NA,61.6945107398568,NA
34287,Sarasota County,FL,NA,30.310262529832936,14.156079854809436
34291,Sarasota County,FL,NA,97.13603818615752,NA
34452,Citrus County,FL,71.6117216117216,NA,NA
34471,Marion County,FL,NA,48.56801909307876,44.46460980036298
34613,Hernando County,FL,NA,35.79952267303103,NA
34667,Pasco County,FL,NA,NA,20.87114337568058
34685,Pinellas County,FL,NA,78.40095465393794,NA
34698,Pinellas County,FL,NA,21.957040572792362,NA
34758,Osceola County,FL,NA,51.551312649164686,NA
34952,St. Lucie County,FL,NA,NA,6.715063520871143
34953,St. Lucie County,FL,NA,NA,19.419237749546276
34957,Martin County,FL,NA,NA,15.063520871143377
34990,Martin County,FL,NA,NA,2.722323049001815
30017,Gwinnett County,GA,73.80952380952381,NA,NA
30041,Forsyth County,GA,NA,12.410501193317423,NA
30044,Gwinnett County,GA,NA,51.43198090692124,NA
30060,Cobb County,GA,45.604395604395606,NA,NA
30113,Haralson County,GA,NA,84.1288782816229,NA
30114,Cherokee County,GA,41.75824175824176,NA,NA
30122,Douglas County,GA,63.73626373626373,NA,NA
30126,Cobb County,GA,NA,66.82577565632458,NA
30134,Douglas County,GA,29.853479853479854,NA,NA
30157,Paulding County,GA,NA,NA,46.098003629764065
30217,Heard County,GA,NA,96.89737470167064,NA
30238,Clayton County,GA,61.172161172161175,NA,NA
30240,Troup County,GA,NA,24.94033412887828,31.57894736842105
30248,Henry County,GA,NA,64.08114558472555,NA
30311,Fulton County,GA,NA,20.763723150357997,NA
30314,Fulton County,GA,NA,NA,50.09074410163339
30328,Fulton County,GA,NA,NA,29.401088929219597
30349,Fulton County,GA,10.43956043956044,NA,NA
30519,Gwinnett County,GA,NA,34.00954653937948,NA
30534,Dawson County,GA,NA,36.15751789976134,NA
30546,Towns County,GA,90.29304029304029,NA,NA
30577,Stephens County,GA,52.56410256410257,NA,NA
30642,Greene County,GA,85.16483516483517,NA,NA
30646,Madison County,GA,90.10989010989012,NA,NA
30673,Wilkes County,GA,NA,NA,85.66243194192378
30701,Gordon County,GA,NA,29.116945107398568,NA
30721,Whitfield County,GA,NA,46.77804295942721,NA
30906,Richmond County,GA,NA,5.966587112171838,NA
30907,Columbia County,GA,NA,11.813842482100238,NA
31008,Peach County,GA,NA,NA,78.58439201451905
31015,Crisp County,GA,NA,33.53221957040573,NA
31092,Dooly County,GA,NA,92.48210023866349,NA
31093,Houston County,GA,NA,NA,75.31760435571688
31206,Bibb County,GA,NA,53.81861575178998,NA
31210,Bibb County,GA,NA,NA,42.10526315789473
31216,Bibb County,GA,NA,85.68019093078759,NA
31404,Chatham County,GA,60.8058608058608,NA,NA
31405,Chatham County,GA,NA,41.408114558472555,31.03448275862069
31406,Chatham County,GA,NA,29.832935560859188,NA
31415,Chatham County,GA,NA,NA,87.11433756805808
31510,Bacon County,GA,83.51648351648352,NA,NA
31533,Coffee County,GA,NA,90.09546539379475,NA
31546,Wayne County,GA,NA,91.40811455847255,NA
31601,Lowndes County,GA,NA,39.97613365155131,NA
31719,Sumter County,GA,77.83882783882784,NA,NA
31721,Dougherty County,GA,NA,66.5871121718377,NA
31820,Muscogee County,GA,NA,NA,96.18874773139746
39823,Early County,GA,73.07692307692307,NA,NA
39842,Terrell County,GA,NA,70.28639618138425,NA
96815,Honolulu County,HI,NA,25.53699284009546,NA
96817,Honolulu County,HI,47.8021978021978,NA,NA
83211,Power County,ID,NA,97.97136038186157,NA
83301,Twin Falls County,ID,3.6630036630036633,NA,NA
83440,Madison County,ID,NA,72.67303102625299,NA
83455,Teton County,ID,NA,99.40334128878283,NA
83605,Canyon County,ID,NA,23.389021479713605,NA
83607,Canyon County,ID,76.37362637362637,NA,NA
83687,Canyon County,ID,NA,NA,42.83121597096189
83706,Ada County,ID,NA,22.911694510739856,NA
83713,Ada County,ID,NA,17.42243436754177,NA
83814,Kootenai County,ID,NA,43.43675417661098,NA
60015,Lake County,IL,67.58241758241759,NA,17.05989110707804
60030,Lake County,IL,NA,NA,14.337568058076226
60035,Lake County,IL,98.53479853479854,NA,NA
60050,McHenry County,IL,45.78754578754579,NA,NA
60051,McHenry County,IL,NA,26.014319809069214,NA
60060,Lake County,IL,NA,15.393794749403341,43.920145190562614
60061,Lake County,IL,NA,52.50596658711218,NA
60068,Cook County,IL,NA,38.544152744630075,NA
60077,Cook County,IL,NA,NA,7.441016333938294
60099,Lake County,IL,78.3882783882784,NA,NA
60101,DuPage County,IL,NA,22.0763723150358,15.60798548094374
60106,DuPage County,IL,NA,NA,30.30852994555354
60108,DuPage County,IL,NA,28.400954653937948,NA
60120,Kane County,IL,NA,28.520286396181383,NA
60124,Kane County,IL,NA,29.116945107398568,NA
60126,DuPage County,IL,NA,NA,3.8112522686025407
60148,DuPage County,IL,NA,6.205250596658711,NA
60152,McHenry County,IL,NA,NA,59.89110707803993
60175,Kane County,IL,NA,35.91885441527447,NA
60187,DuPage County,IL,NA,38.66348448687351,NA
60189,DuPage County,IL,NA,23.269689737470166,NA
60193,Cook County,IL,NA,10.620525059665871,NA
60201,Cook County,IL,NA,NA,5.9891107078039925
60302,Cook County,IL,NA,14.916467780429594,NA
60304,Cook County,IL,NA,62.52983293556086,NA
60409,Cook County,IL,70.6959706959707,NA,NA
60435,Will County,IL,64.65201465201466,11.217183770883054,NA
60436,Will County,IL,NA,59.30787589498807,NA
60438,Cook County,IL,NA,NA,67.87658802177859
60441,Will County,IL,27.28937728937729,NA,35.027223230490016
60457,Cook County,IL,NA,NA,81.66969147005445
60461,Cook County,IL,NA,NA,72.59528130671507
60462,Cook County,IL,NA,NA,7.80399274047187
60465,Cook County,IL,NA,55.847255369928405,NA
60481,Will County,IL,NA,58.1145584725537,NA
60487,Cook County,IL,63.91941391941391,NA,NA
60506,Kane County,IL,NA,25.775656324582343,NA
60532,DuPage County,IL,NA,NA,40.10889292196007
60548,DeKalb County,IL,NA,70.64439140811456,NA
60559,DuPage County,IL,NA,49.16467780429594,NA
60563,DuPage County,IL,53.11355311355312,NA,NA
60586,Will County,IL,NA,31.980906921241047,NA
60601,Cook County,IL,NA,88.06682577565633,NA
60605,Cook County,IL,NA,48.32935560859188,NA
60610,Cook County,IL,NA,NA,19.056261343012704
60613,Cook County,IL,82.41758241758241,NA,NA
60614,Cook County,IL,NA,17.541766109785204,NA
60619,Cook County,IL,NA,4.176610978520286,NA
60621,Cook County,IL,41.39194139194139,NA,NA
60622,Cook County,IL,43.772893772893774,NA,NA
60623,Cook County,IL,9.157509157509157,NA,NA
60626,Cook County,IL,NA,37.11217183770883,NA
60637,Cook County,IL,53.2967032967033,13.24582338902148,NA
60638,Cook County,IL,41.57509157509158,NA,NA
60639,Cook County,IL,NA,8.233890214797137,37.74954627949184
60640,Cook County,IL,11.355311355311356,60.26252983293556,NA
60644,Cook County,IL,10.256410256410255,NA,NA
60651,Cook County,IL,10.989010989010989,NA,NA
60653,Cook County,IL,34.798534798534796,NA,NA
60657,Cook County,IL,NA,13.961813842482101,NA
60714,Cook County,IL,NA,NA,9.25589836660617
60804,Cook County,IL,NA,NA,71.68784029038112
60827,Cook County,IL,NA,NA,61.16152450090744
60901,Kankakee County,IL,NA,NA,7.985480943738657
60914,Kankakee County,IL,NA,20.047732696897373,NA
60950,Kankakee County,IL,NA,NA,35.39019963702359
61021,Lee County,IL,37.54578754578755,NA,NA
61048,Stephenson County,IL,NA,92.24343675417661,NA
61065,Boone County,IL,76.92307692307693,NA,NA
61068,Ogle County,IL,NA,NA,68.96551724137932
61107,Winnebago County,IL,51.83150183150184,NA,NA
61265,Rock Island County,IL,NA,NA,11.978221415607985
61550,Tazewell County,IL,NA,NA,41.37931034482759
61603,Peoria County,IL,74.17582417582418,NA,NA
61604,Peoria County,IL,47.985347985347985,NA,NA
61615,Peoria County,IL,NA,NA,50.81669691470054
61832,Vermilion County,IL,NA,NA,33.756805807622506
61920,Coles County,IL,NA,91.64677804295943,NA
62012,Macoupin County,IL,NA,NA,65.88021778584393
62040,Madison County,IL,NA,10.978520286396181,NA
62207,St. Clair County,IL,NA,84.24821002386635,NA
62521,Macon County,IL,NA,8.83054892601432,NA
62535,Macon County,IL,98.9010989010989,NA,NA
62568,Christian County,IL,NA,59.427207637231504,NA
62656,Logan County,IL,NA,NA,80.76225045372051
62704,Sangamon County,IL,NA,69.09307875894987,NA
62863,Wabash County,IL,NA,77.80429594272077,NA
62901,Jackson County,IL,NA,82.21957040572792,NA
62959,Williamson County,IL,49.45054945054945,NA,17.604355716878402
46012,Madison County,IN,NA,20.167064439140812,NA
46036,Madison County,IN,NA,58.591885441527445,NA
46037,Hamilton County,IN,NA,NA,65.15426497277676
46055,Hancock County,IN,NA,NA,91.65154264972777
46060,Hamilton County,IN,36.63003663003663,NA,NA
46074,Hamilton County,IN,NA,64.31980906921241,NA
46123,Hendricks County,IN,NA,NA,29.038112522686028
46124,Johnson County,IN,NA,72.91169451073985,NA
46158,Morgan County,IN,NA,28.758949880668254,NA
46168,Hendricks County,IN,46.7032967032967,NA,NA
46173,Rush County,IN,NA,NA,56.98729582577132
46176,Shelby County,IN,19.5970695970696,67.66109785202865,79.85480943738656
46208,Marion County,IN,NA,71.36038186157518,NA
46217,Marion County,IN,NA,32.21957040572792,NA
46221,Marion County,IN,NA,44.630071599045344,NA
46241,Marion County,IN,NA,NA,51.90562613430127
46307,Lake County,IN,NA,1.5513126491646778,NA
46321,Lake County,IN,NA,NA,77.31397459165154
46324,Lake County,IN,NA,26.730310262529834,NA
46385,Porter County,IN,NA,NA,21.77858439201452
46410,Lake County,IN,8.791208791208792,NA,NA
46580,Kosciusko County,IN,53.84615384615385,NA,NA
46701,Noble County,IN,79.3040293040293,NA,NA
46777,Wells County,IN,NA,NA,93.46642468239564
46805,Allen County,IN,NA,NA,47.368421052631575
46953,Grant County,IN,NA,12.291169451073985,69.1470054446461
47119,Floyd County,IN,94.87179487179486,NA,NA
47122,Floyd County,IN,92.4908424908425,NA,NA
47124,Floyd County,IN,99.45054945054946,NA,NA
47201,Bartholomew County,IN,15.567765567765568,NA,NA
47203,Bartholomew County,IN,41.208791208791204,NA,NA
47220,Jackson County,IN,NA,95.70405727923628,NA
47240,Decatur County,IN,NA,NA,26.497277676950997
47274,Jackson County,IN,NA,33.17422434367542,NA
47302,Delaware County,IN,22.893772893772894,NA,NA
47362,Henry County,IN,NA,12.529832935560858,NA
47374,Wayne County,IN,NA,3.4606205250596656,NA
47403,Monroe County,IN,NA,NA,73.68421052631578
47460,Owen County,IN,NA,NA,91.47005444646098
47501,Daviess County,IN,43.58974358974359,NA,NA
47532,Dubois County,IN,99.45054945054946,NA,NA
47567,Pike County,IN,NA,86.51551312649165,NA
47802,Vigo County,IN,NA,42.840095465393794,NA
47834,Clay County,IN,37.72893772893773,NA,NA
47882,Sullivan County,IN,82.05128205128204,NA,NA
47933,Montgomery County,IN,NA,47.49403341288782,NA
50022,Cass County,IA,NA,NA,68.78402903811252
50125,Warren County,IA,75.27472527472527,NA,NA
50129,Greene County,IA,NA,88.42482100238664,NA
50213,Clarke County,IA,NA,94.63007159904535,NA
50266,Polk County,IA,83.88278388278388,NA,83.12159709618875
50316,Polk County,IA,48.717948717948715,NA,NA
50401,Cerro Gordo County,IA,NA,NA,0.5444646098003629
50536,Palo Alto County,IA,NA,NA,77.49546279491834
50703,Black Hawk County,IA,68.4981684981685,NA,NA
51250,Sioux County,IA,91.02564102564102,NA,NA
51351,Dickinson County,IA,NA,NA,86.93284936479128
51501,Pottawattamie County,IA,NA,11.455847255369928,NA
51503,Pottawattamie County,IA,NA,49.88066825775656,NA
52302,Linn County,IA,25.64102564102564,NA,NA
52537,Davis County,IA,NA,NA,94.73684210526315
52601,Des Moines County,IA,NA,NA,67.69509981851179
52632,Lee County,IA,46.88644688644688,NA,NA
66062,Johnson County,KS,NA,82.69689737470168,17.24137931034483
66067,Franklin County,KS,NA,NA,38.11252268602541
66215,Johnson County,KS,NA,NA,36.116152450090745
66617,Shawnee County,KS,NA,85.0835322195704,NA
67357,Labette County,KS,NA,NA,53.35753176043557
67401,Saline County,KS,NA,77.44630071599046,18.330308529945555
67665,Russell County,KS,NA,NA,73.86569872958258
67748,Logan County,KS,NA,98.92601431980907,NA
40033,Marion County,KY,NA,NA,88.38475499092559
40108,Meade County,KY,NA,NA,88.74773139745916
40165,Bullitt County,KY,17.94871794871795,NA,NA
40203,Jefferson County,KY,NA,42.243436754176614,NA
40205,Jefferson County,KY,NA,NA,57.16878402903811
40211,Jefferson County,KY,17.032967032967033,NA,NA
40213,Jefferson County,KY,NA,50,NA
40214,Jefferson County,KY,NA,16.467780429594274,NA
40228,Jefferson County,KY,NA,NA,62.613430127041745
40258,Jefferson County,KY,NA,NA,42.6497277676951
40272,Jefferson County,KY,NA,53.93794749403341,NA
40291,Jefferson County,KY,21.611721611721613,55.72792362768496,NA
40324,Scott County,KY,NA,NA,32.48638838475499
40336,Estill County,KY,NA,NA,62.43194192377496
40360,Bath County,KY,71.24542124542124,NA,NA
40456,Rockcastle County,KY,NA,72.19570405727923,NA
40503,Fayette County,KY,NA,NA,28.13067150635209
40504,Fayette County,KY,NA,65.51312649164677,NA
40741,Laurel County,KY,26.923076923076923,NA,44.64609800362977
41006,Pendleton County,KY,NA,98.56801909307876,NA
41017,Kenton County,KY,NA,59.785202863961814,NA
41139,Greenup County,KY,NA,61.45584725536993,NA
41224,Martin County,KY,NA,97.61336515513126,NA
41701,Perry County,KY,NA,87.11217183770883,NA
42071,Calloway County,KY,NA,45.22673031026253,NA
42141,Barren County,KY,15.75091575091575,NA,NA
42240,Christian County,KY,NA,50.35799522673031,NA
42320,Ohio County,KY,NA,90.81145584725537,NA
42347,Ohio County,KY,NA,95.4653937947494,NA
42503,Pulaski County,KY,NA,60.023866348448685,NA
42544,Pulaski County,KY,87.36263736263736,NA,NA
42701,Hardin County,KY,15.018315018315018,NA,NA
42717,Cumberland County,KY,64.28571428571429,NA,NA
42718,Taylor County,KY,16.3003663003663,86.87350835322196,NA
42728,Adair County,KY,94.68864468864469,NA,66.0617059891107
42748,Larue County,KY,96.33699633699634,75.2983293556086,NA
42754,Grayson County,KY,32.967032967032964,NA,NA
70003,Jefferson Parish,LA,10.622710622710622,NA,NA
70119,Orleans Parish,LA,28.205128205128204,NA,NA
70126,Orleans Parish,LA,32.417582417582416,NA,NA
70301,Lafourche Parish,LA,NA,NA,13.248638838475499
70346,Ascension Parish,LA,NA,89.73747016706443,NA
70359,Terrebonne Parish,LA,36.26373626373626,NA,NA
70401,Tangipahoa Parish,LA,NA,38.424821002386636,NA
70435,St. Tammany Parish,LA,NA,18.257756563245824,NA
70460,St. Tammany Parish,LA,NA,29.355608591885442,NA
70508,Lafayette Parish,LA,19.047619047619047,NA,NA
70510,Vermilion Parish,LA,13.36996336996337,NA,NA
70529,Lafayette Parish,LA,57.87545787545788,NA,NA
70535,St. Landry Parish,LA,32.78388278388278,NA,NA
70538,St. Mary Parish,LA,50.54945054945055,NA,NA
70560,Iberia Parish,LA,NA,13.484486873508352,NA
70611,Calcasieu Parish,LA,NA,91.8854415274463,NA
70737,Ascension Parish,LA,NA,54.17661097852029,NA
70791,East Baton Rouge Parish,LA,NA,29.952267303102627,NA
70802,East Baton Rouge Parish,LA,7.6923076923076925,NA,NA
70805,East Baton Rouge Parish,LA,20.87912087912088,NA,NA
70816,East Baton Rouge Parish,LA,NA,NA,33.03085299455535
71001,Bienville Parish,LA,NA,97.25536992840095,NA
71105,Caddo Parish,LA,NA,NA,37.20508166969147
71106,Caddo Parish,LA,NA,NA,13.793103448275861
71107,Caddo Parish,LA,NA,19.689737470167064,NA
71202,Ouachita Parish,LA,6.043956043956044,NA,NA
71270,Lincoln Parish,LA,NA,NA,51.542649727767696
71342,La Salle Parish,LA,NA,NA,86.20689655172413
71351,Avoyelles Parish,LA,NA,NA,70.5989110707804
71360,Rapides Parish,LA,NA,27.804295942720763,NA
04005,York County,ME,NA,NA,10.526315789473683
04011,Cumberland County,ME,NA,26.610978520286395,NA
04073,York County,ME,28.93772893772894,NA,NA
04210,Androscoggin County,ME,NA,10.143198090692124,NA
04468,Penobscot County,ME,75.0915750915751,NA,NA
04619,Washington County,ME,NA,86.15751789976133,NA
04736,Aroostook County,ME,NA,NA,27.586206896551722
04742,Aroostook County,ME,NA,NA,93.82940108892922
04756,Aroostook County,ME,NA,NA,59.16515426497278
04901,Kennebec County,ME,6.41025641025641,3.221957040572793,NA
04915,Waldo County,ME,NA,85.32219570405728,NA
20636,St. Mary's County,MD,NA,86.63484486873509,NA
20650,St. Mary's County,MD,NA,87.82816229116945,NA
20743,Prince George's County,MD,40.84249084249084,NA,NA
20852,Montgomery County,MD,NA,NA,60.798548094373864
21029,Howard County,MD,95.23809523809523,NA,NA
21043,Howard County,MD,NA,45.704057279236274,NA
21044,Howard County,MD,NA,67.5417661097852,NA
21074,Carroll County,MD,NA,89.26014319809069,NA
21078,Harford County,MD,NA,NA,65.51724137931035
21108,Anne Arundel County,MD,NA,NA,81.12522686025409
21113,Anne Arundel County,MD,64.46886446886447,NA,NA
21122,Anne Arundel County,MD,NA,14.439140811455847,NA
21157,Carroll County,MD,NA,47.85202863961814,21.415607985480946
21214,Baltimore city,MD,67.76556776556777,NA,NA
21217,Baltimore city,MD,27.472527472527474,18.377088305489263,NA
21221,Baltimore County,MD,NA,21.241050119331742,NA
21222,Baltimore County,MD,NA,NA,4.71869328493648
21223,Baltimore city,MD,NA,89.618138424821,NA
21229,Baltimore city,MD,22.16117216117216,NA,NA
21230,Baltimore city,MD,NA,54.05727923627685,69.87295825771325
21234,Baltimore County,MD,NA,8.353221957040573,NA
21237,Baltimore County,MD,86.26373626373626,NA,NA
21502,Allegany County,MD,28.57142857142857,NA,NA
21601,Talbot County,MD,NA,44.98806682577566,30.671506352087114
21613,Dorchester County,MD,NA,84.84486873508354,86.5698729582577
21617,Queen Anne's County,MD,NA,NA,86.7513611615245
21620,Kent County,MD,NA,63.84248210023866,NA
21629,Caroline County,MD,NA,93.67541766109785,NA
21632,Caroline County,MD,89.74358974358975,NA,NA
21643,Dorchester County,MD,NA,NA,92.01451905626135
21655,Caroline County,MD,NA,98.44868735083531,NA
21795,Washington County,MD,96.7032967032967,NA,NA
21875,Wicomico County,MD,NA,NA,98.72958257713249
21903,Cecil County,MD,NA,92.72076372315036,NA
21921,Cecil County,MD,NA,6.563245823389022,NA
01002,Hampshire County,MA,NA,54.41527446300716,NA
01033,Hampshire County,MA,NA,NA,83.12159709618875
01040,Hampden County,MA,NA,0,NA
01060,Hampshire County,MA,50,NA,NA
01201,Berkshire County,MA,NA,0.23866348448687352,NA
01420,Worcester County,MA,NA,1.7899761336515514,NA
01432,Middlesex County,MA,56.227106227106226,NA,NA
01468,Worcester County,MA,NA,92.12410501193318,NA
01520,Worcester County,MA,NA,52.62529832935561,61.34301270417423
01604,Worcester County,MA,1.098901098901099,NA,NA
01606,Worcester County,MA,21.794871794871796,NA,8.52994555353902
01701,Middlesex County,MA,43.956043956043956,NA,NA
01702,Middlesex County,MA,74.54212454212454,NA,NA
01720,Middlesex County,MA,NA,NA,35.93466424682396
01746,Middlesex County,MA,NA,39.618138424821005,NA
01748,Middlesex County,MA,NA,NA,55.898366606170605
01803,Middlesex County,MA,NA,4.295942720763723,NA
01810,Essex County,MA,NA,17.18377088305489,NA
01826,Middlesex County,MA,NA,2.863961813842482,NA
01830,Essex County,MA,NA,7.875894988066825,NA
01841,Essex County,MA,NA,0.47732696897374705,NA
01854,Middlesex County,MA,NA,5.727923627684964,NA
01906,Essex County,MA,NA,9.665871121718377,NA
01944,Essex County,MA,NA,84.96420047732697,NA
01945,Essex County,MA,48.16849816849817,NA,NA
01950,Essex County,MA,24.725274725274726,NA,53.35753176043557
01985,Essex County,MA,NA,86.9928400954654,NA
02048,Bristol County,MA,24.54212454212454,NA,NA
02119,Suffolk County,MA,0,NA,NA
02124,Suffolk County,MA,NA,NA,56.26134301270418
02125,Suffolk County,MA,0.3663003663003663,NA,NA
02129,Suffolk County,MA,NA,27.565632458233893,NA
02136,Suffolk County,MA,NA,4.534606205250596,NA
02143,Middlesex County,MA,NA,11.575178997613365,NA
02148,Middlesex County,MA,NA,0.35799522673031026,NA
02149,Middlesex County,MA,0.18315018315018314,NA,NA
02151,Suffolk County,MA,NA,44.1527446300716,NA
02169,Norfolk County,MA,0.5494505494505495,NA,NA
02176,Middlesex County,MA,35.53113553113553,NA,NA
02301,Plymouth County,MA,NA,2.1479713603818613,NA
02421,Middlesex County,MA,23.809523809523807,NA,NA
02472,Middlesex County,MA,8.974358974358974,7.756563245823389,NA
02536,Barnstable County,MA,NA,NA,11.61524500907441
02540,Barnstable County,MA,NA,NA,29.764065335753177
02639,Barnstable County,MA,NA,83.4128878281623,NA
02642,Barnstable County,MA,NA,NA,82.2141560798548
02724,Bristol County,MA,NA,NA,4.3557168784029034
02766,Bristol County,MA,NA,9.54653937947494,NA
02780,Bristol County,MA,NA,35.32219570405728,NA
48033,Oakland County,MI,NA,NA,21.960072595281307
48042,Macomb County,MI,62.82051282051282,NA,NA
48045,Macomb County,MI,NA,17.064439140811455,NA
48060,St. Clair County,MI,NA,5.369928400954653,NA
48066,Macomb County,MI,3.296703296703297,8.47255369928401,NA
48071,Oakland County,MI,30.952380952380953,NA,NA
48073,Oakland County,MI,NA,36.15751789976134,NA
48081,Macomb County,MI,NA,23.86634844868735,NA
48088,Macomb County,MI,NA,23.98568019093079,NA
48089,Macomb County,MI,10.073260073260073,NA,NA
48105,Washtenaw County,MI,NA,15.274463007159905,NA
48124,Wayne County,MI,NA,23.74701670644391,NA
48127,Wayne County,MI,NA,NA,6.170598911070781
48133,Monroe County,MI,NA,NA,88.02177858439202
48162,Monroe County,MI,NA,2.983293556085919,NA
48166,Monroe County,MI,49.633699633699635,NA,NA
48167,Oakland County,MI,NA,26.25298329355609,NA
48170,Wayne County,MI,NA,22.553699284009546,1.9963702359346642
48173,Wayne County,MI,65.93406593406593,NA,NA
48174,Wayne County,MI,NA,15.513126491646778,NA
48182,Monroe County,MI,NA,43.794749403341285,NA
48183,Wayne County,MI,NA,6.682577565632458,9.618874773139746
48184,Wayne County,MI,NA,63.60381861575179,NA
48186,Wayne County,MI,7.509157509157509,NA,NA
48187,Wayne County,MI,13.003663003663005,NA,NA
48193,Wayne County,MI,62.27106227106227,NA,73.13974591651544
48195,Wayne County,MI,NA,42.482100238663485,NA
48198,Washtenaw County,MI,NA,49.04534606205251,NA
48205,Wayne County,MI,4.395604395604396,NA,NA
48207,Wayne County,MI,NA,NA,15.789473684210526
48212,Wayne County,MI,NA,NA,67.51361161524501
48215,Wayne County,MI,NA,NA,75.31760435571688
48217,Wayne County,MI,NA,NA,70.23593466424683
48224,Wayne County,MI,2.380952380952381,NA,NA
48225,Wayne County,MI,45.97069597069597,NA,NA
48235,Wayne County,MI,NA,NA,9.800362976406534
48236,Wayne County,MI,NA,NA,39.56442831215971
48310,Macomb County,MI,NA,12.76849642004773,NA
48324,Oakland County,MI,NA,NA,48.275862068965516
48348,Oakland County,MI,NA,NA,57.71324863883848
48386,Oakland County,MI,NA,44.39140811455847,NA
48390,Oakland County,MI,NA,37.828162291169456,NA
48420,Genesee County,MI,NA,NA,77.6769509981851
48458,Genesee County,MI,35.8974358974359,NA,NA
48507,Genesee County,MI,42.30769230769231,32.4582338902148,NA
48604,Saginaw County,MI,NA,NA,75.86206896551724
48609,Saginaw County,MI,NA,NA,92.37749546279493
48706,Bay County,MI,NA,1.3126491646778042,NA
48723,Tuscola County,MI,NA,NA,88.56624319419237
48801,Gratiot County,MI,NA,52.74463007159904,NA
48836,Livingston County,MI,62.08791208791209,NA,NA
48872,Shiawassee County,MI,NA,NA,93.64791288566244
48893,Isabella County,MI,NA,NA,86.38838475499092
48917,Eaton County,MI,NA,8.591885441527445,NA
49006,Kalamazoo County,MI,NA,66.34844868735084,NA
49017,Calhoun County,MI,NA,NA,24.863883847549907
49037,Calhoun County,MI,NA,NA,38.475499092558984
49058,Barry County,MI,35.714285714285715,NA,NA
49120,Berrien County,MI,18.681318681318682,15.632458233890215,NA
49203,Jackson County,MI,9.706959706959708,NA,NA
49242,Hillsdale County,MI,NA,48.21002386634845,NA
49323,Allegan County,MI,88.46153846153845,NA,NA
49345,Kent County,MI,NA,NA,78.40290381125227
49415,Muskegon County,MI,NA,79.47494033412887,NA
49424,Ottawa County,MI,NA,13.007159904534607,NA
49441,Muskegon County,MI,NA,NA,17.422867513611614
49442,Muskegon County,MI,22.52747252747253,NA,29.945553539019965
49456,Ottawa County,MI,NA,28.162291169451077,NA
49503,Kent County,MI,NA,39.856801909307876,NA
49663,Wexford County,MI,93.77289377289377,NA,NA
49665,Osceola County,MI,NA,94.98806682577565,NA
49685,Grand Traverse County,MI,NA,81.62291169451073,NA
49686,Grand Traverse County,MI,NA,NA,15.970961887477314
49735,Otsego County,MI,73.62637362637363,NA,NA
49801,Dickinson County,MI,NA,42.482100238663485,NA
49913,Houghton County,MI,66.48351648351648,NA,NA
49930,Houghton County,MI,NA,74.58233890214797,NA
49931,Houghton County,MI,NA,74.34367541766109,NA
49938,Gogebic County,MI,NA,82.10023866348448,54.62794918330308
49953,Ontonagon County,MI,93.4065934065934,NA,NA
55014,Anoka County,MN,71.7948717948718,NA,NA
55057,Rice County,MN,95.7875457875458,NA,NA
55063,Pine County,MN,NA,69.33174224343675,NA
55303,Anoka County,MN,NA,35.91885441527447,NA
55350,McLeod County,MN,33.6996336996337,NA,NA
55372,Scott County,MN,NA,63.36515513126491,NA
55379,Scott County,MN,NA,NA,74.59165154264973
55403,Hennepin County,MN,NA,NA,48.09437386569873
55404,Hennepin County,MN,NA,21.599045346062052,NA
55417,Hennepin County,MN,58.058608058608066,NA,NA
55418,Hennepin County,MN,NA,38.066825775656326,NA
55419,Hennepin County,MN,NA,61.575178997613364,NA
55421,Anoka County,MN,25.274725274725274,NA,NA
55733,Carlton County,MN,99.08424908424908,NA,NA
55802,St. Louis County,MN,NA,99.0453460620525,NA
55902,Olmsted County,MN,NA,64.9164677804296,NA
56156,Rock County,MN,NA,63.126491646778035,NA
56265,Chippewa County,MN,NA,95.94272076372316,NA
56353,Mille Lacs County,MN,NA,85.91885441527445,NA
56636,Itasca County,MN,NA,NA,71.14337568058076
38671,DeSoto County,MS,NA,55.96658711217184,NA
38703,Washington County,MS,NA,82.33890214797135,80.03629764065336
38916,Calhoun County,MS,NA,99.16467780429595,NA
38930,Leflore County,MS,45.97069597069597,NA,NA
39046,Madison County,MS,NA,56.921241050119335,NA
39047,Rankin County,MS,61.172161172161175,NA,NA
39071,Madison County,MS,97.06959706959707,NA,NA
39119,Covington County,MS,95.97069597069597,NA,NA
39150,Claiborne County,MS,NA,NA,96.37023593466425
39204,Hinds County,MS,NA,86.27684964200478,NA
39211,Hinds County,MS,NA,NA,72.0508166969147
39213,Hinds County,MS,NA,NA,44.1016333938294
39350,Neshoba County,MS,31.868131868131865,NA,NA
39466,Pearl River County,MS,NA,NA,18.69328493647913
39503,Harrison County,MS,13.186813186813188,NA,NA
39507,Harrison County,MS,74.72527472527473,NA,NA
39532,Harrison County,MS,NA,56.801909307875896,NA
39553,Jackson County,MS,52.38095238095239,NA,NA
39563,Jackson County,MS,NA,NA,54.80943738656987
39744,Webster County,MS,NA,80.5489260143198,NA
39773,Clay County,MS,NA,NA,76.40653357531761
63021,St. Louis County,MO,NA,NA,7.078039927404718
63108,St. Louis city,MO,NA,NA,63.70235934664247
63115,St. Louis city,MO,57.509157509157504,NA,NA
63128,St. Louis County,MO,79.48717948717949,NA,NA
63146,St. Louis County,MO,NA,35.56085918854415,30.490018148820326
63367,St. Charles County,MO,NA,35.44152744630071,NA
63368,St. Charles County,MO,NA,21.121718377088307,NA
63376,St. Charles County,MO,NA,17.780429594272075,NA
63389,Lincoln County,MO,NA,NA,94.91833030852995
63650,Iron County,MO,NA,94.1527446300716,NA
63775,Perry County,MO,NA,36.63484486873509,NA
63841,Stoddard County,MO,58.97435897435898,NA,NA
63901,Butler County,MO,NA,22.911694510739856,NA
63935,Ripley County,MO,61.72161172161172,97.01670644391407,NA
63957,Wayne County,MO,NA,99.52267303102626,NA
64012,Cass County,MO,68.13186813186813,NA,NA
64014,Jackson County,MO,NA,33.29355608591885,NA
64055,Jackson County,MO,NA,7.995226730310262,NA
64068,Clay County,MO,NA,7.398568019093078,NA
64079,Platte County,MO,NA,NA,82.57713248638838
64081,Jackson County,MO,53.47985347985348,NA,NA
64093,Johnson County,MO,NA,37.70883054892602,39.92740471869328
64128,Jackson County,MO,NA,31.26491646778043,NA
64130,Jackson County,MO,8.058608058608058,NA,NA
64133,Jackson County,MO,4.5787545787545785,3.8186157517899764,NA
64134,Jackson County,MO,NA,38.3054892601432,NA
64137,Jackson County,MO,NA,NA,60.61705989110708
64145,Jackson County,MO,88.27838827838828,NA,NA
64152,Platte County,MO,NA,37.3508353221957,NA
64485,Andrew County,MO,71.24542124542124,NA,NA
64601,Livingston County,MO,57.692307692307686,NA,NA
64730,Bates County,MO,NA,90.5727923627685,NA
64804,Jasper County,MO,NA,9.307875894988067,NA
64850,Newton County,MO,NA,20.883054892601432,NA
65041,Gasconade County,MO,NA,NA,80.58076225045372
65079,Camden County,MO,NA,91.76610978520287,NA
65355,Benton County,MO,60.62271062271062,NA,NA
65401,Phelps County,MO,NA,17.899761336515514,NA
65655,Ozark County,MO,NA,99.88066825775657,NA
65742,Webster County,MO,NA,NA,58.802177858439194
65781,Greene County,MO,NA,93.55608591885442,NA
65785,Cedar County,MO,84.24908424908425,NA,NA
65803,Greene County,MO,NA,45.82338902147971,NA
59404,Cascade County,MT,NA,NA,11.252268602540836
59923,Lincoln County,MT,89.37728937728939,NA,NA
68025,Dodge County,NE,NA,24.463007159904535,NA
68111,Douglas County,NE,24.90842490842491,NA,NA
68130,Douglas County,NE,NA,75.05966587112172,NA
68137,Douglas County,NE,NA,49.40334128878281,NA
68504,Lancaster County,NE,NA,NA,99.45553539019963
69301,Box Butte County,NE,NA,71.00238663484487,NA
89130,Clark County,NV,NA,NA,43.55716878402904
89408,Lyon County,NV,NA,39.26014319809069,NA
89506,Washoe County,NV,23.076923076923077,31.5035799522673,NA
89521,Washoe County,NV,NA,33.7708830548926,NA
89523,Washoe County,NV,NA,69.4510739856802,NA
03042,Rockingham County,NH,NA,NA,92.01451905626135
03051,Hillsborough County,NH,NA,NA,61.705989110707804
03060,Hillsborough County,NH,NA,12.052505966587113,NA
03062,Hillsborough County,NH,NA,NA,12.522686025408348
03106,Merrimack County,NH,NA,51.3126491646778,NA
03253,Belknap County,NH,NA,73.86634844868735,NA
03276,Merrimack County,NH,81.13553113553114,NA,NA
03301,Merrimack County,NH,20.695970695970693,NA,NA
03431,Cheshire County,NH,NA,28.28162291169451,NA
03874,Rockingham County,NH,81.31868131868131,NA,NA
03878,Strafford County,NH,NA,71.1217183770883,NA
07008,Middlesex County,NJ,NA,78.75894988066825,NA
07013,Passaic County,NJ,NA,37.58949880668258,48.457350272232304
07042,Essex County,NJ,NA,NA,46.27949183303085
07052,Essex County,NJ,NA,NA,16.33393829401089
07065,Union County,NJ,27.655677655677657,NA,NA
07066,Union County,NJ,NA,NA,44.827586206896555
07067,Middlesex County,NJ,NA,75.89498806682577,NA
07071,Bergen County,NJ,NA,NA,68.23956442831216
07083,Union County,NJ,19.413919413919416,NA,NA
07087,Hudson County,NJ,NA,NA,4.900181488203267
07093,Hudson County,NJ,NA,NA,5.263157894736842
07106,Essex County,NJ,NA,34.24821002386635,NA
07306,Hudson County,NJ,NA,NA,16.696914700544465
07407,Bergen County,NJ,72.52747252747253,NA,NA
07420,Passaic County,NJ,NA,82.33890214797135,NA
07424,Passaic County,NJ,NA,NA,43.01270417422868
07470,Passaic County,NJ,NA,3.341288782816229,NA
07652,Bergen County,NJ,NA,93.91408114558473,NA
07670,Bergen County,NJ,NA,87.3508353221957,NA
07724,Monmouth County,NJ,NA,NA,55.716878402903816
07740,Monmouth County,NJ,NA,NA,31.397459165154263
07751,Monmouth County,NJ,NA,81.98090692124104,NA
07920,Somerset County,NJ,NA,NA,63.70235934664247
07945,Morris County,NJ,NA,NA,92.92196007259528
07974,Union County,NJ,NA,95.82338902147971,NA
08005,Ocean County,NJ,22.71062271062271,NA,NA
08009,Camden County,NJ,NA,NA,88.74773139745916
08043,Camden County,NJ,NA,NA,18.51179673321234
08055,Burlington County,NJ,NA,92.95942720763723,NA
08057,Burlington County,NJ,NA,NA,56.07985480943739
08078,Camden County,NJ,NA,94.74940334128878,NA
08080,Gloucester County,NJ,45.05494505494506,NA,66.78765880217786
08096,Gloucester County,NJ,NA,8.949880668257757,NA
08104,Camden County,NJ,1.282051282051282,NA,NA
08204,Cape May County,NJ,NA,60.978520286396176,NA
08244,Atlantic County,NJ,NA,65.99045346062053,NA
08332,Cumberland County,NJ,NA,NA,37.74954627949184
08360,Cumberland County,NJ,0.9157509157509158,NA,NA
08401,Atlantic County,NJ,3.8461538461538463,NA,NA
08638,Mercer County,NJ,15.384615384615385,NA,NA
08721,Ocean County,NJ,29.853479853479854,NA,NA
08731,Ocean County,NJ,NA,81.02625298329356,NA
08741,Ocean County,NJ,NA,100,NA
08753,Ocean County,NJ,37.17948717948718,NA,NA
08757,Ocean County,NJ,NA,3.579952267303103,NA
08758,Ocean County,NJ,NA,96.18138424821002,NA
08759,Ocean County,NJ,NA,NA,0
08805,Somerset County,NJ,NA,94.27207637231504,NA
08820,Middlesex County,NJ,NA,25.178997613365155,NA
08826,Hunterdon County,NJ,NA,NA,96.55172413793103
08861,Middlesex County,NJ,NA,53.46062052505967,NA
08865,Warren County,NJ,5.677655677655678,NA,NA
08869,Somerset County,NJ,NA,96.77804295942721,NA
87048,Sandoval County,NM,NA,77.20763723150358,NA
87104,Bernalillo County,NM,NA,75.53699284009546,NA
87107,Bernalillo County,NM,NA,22.79236276849642,NA
87114,Bernalillo County,NM,10.805860805860807,NA,NA
87120,Bernalillo County,NM,NA,14.319809069212411,NA
87121,Bernalillo County,NM,4.945054945054945,5.966587112171838,NA
87123,Bernalillo County,NM,NA,NA,13.611615245009073
87124,Sandoval County,NM,NA,9.188544152744631,NA
87532,Santa Fe County,NM,45.23809523809524,NA,NA
88012,Doa Ana County,NM,38.64468864468865,50.95465393794749,NA
88030,Luna County,NM,NA,NA,54.99092558983666
88203,Chaves County,NM,NA,18.615751789976134,NA
88240,Lea County,NM,32.05128205128205,NA,NA
10001,New York County,NY,NA,6.443914081145586,NA
10002,New York County,NY,NA,2.7446300715990453,NA
10003,New York County,NY,85.53113553113553,NA,NA
10016,New York County,NY,41.94139194139194,NA,NA
10026,New York County,NY,NA,NA,32.12341197822142
10031,New York County,NY,NA,NA,86.02540834845736
10037,New York County,NY,NA,NA,40.10889292196007
10310,Richmond County,NY,54.02930402930403,NA,NA
10314,Richmond County,NY,NA,NA,5.081669691470054
10451,Bronx County,NY,20.51282051282051,NA,NA
10454,Bronx County,NY,NA,NA,27.223230490018146
10456,Bronx County,NY,NA,0.11933174224343676,NA
10457,Bronx County,NY,NA,0.9546539379474941,NA
10461,Bronx County,NY,NA,NA,78.22141560798548
10463,Bronx County,NY,NA,NA,1.6333938294010888
10467,Bronx County,NY,0.7326007326007326,NA,NA
10468,Bronx County,NY,NA,NA,6.533575317604355
10469,Bronx County,NY,NA,58.35322195704057,3.4482758620689653
10473,Bronx County,NY,5.128205128205128,6.801909307875895,NA
10566,Westchester County,NY,NA,71.83770883054893,NA
10606,Westchester County,NY,NA,NA,100
10804,Westchester County,NY,NA,NA,82.94010889292196
10913,Rockland County,NY,NA,NA,97.82214156079854
10941,Orange County,NY,NA,NA,76.95099818511797
11001,Nassau County,NY,NA,NA,72.95825771324864
11206,Kings County,NY,NA,1.1933174224343674,NA
11213,Kings County,NY,NA,5.4892601431980905,NA
11224,Kings County,NY,NA,5.011933174224343,NA
11229,Kings County,NY,NA,NA,1.8148820326678767
11233,Kings County,NY,1.6483516483516485,1.0739856801909307,NA
11358,Queens County,NY,NA,NA,82.3956442831216
11367,Queens County,NY,NA,NA,53.17604355716878
11368,Queens County,NY,NA,NA,12.704174228675136
11374,Queens County,NY,NA,24.821002386634845,NA
11375,Queens County,NY,NA,30.54892601431981,NA
11377,Queens County,NY,21.062271062271062,NA,NA
11416,Queens County,NY,NA,89.37947494033412,NA
11418,Queens County,NY,NA,50.23866348448688,NA
11422,Queens County,NY,NA,NA,64.60980036297642
11428,Queens County,NY,NA,76.84964200477327,NA
11590,Nassau County,NY,NA,31.62291169451074,NA
11701,Suffolk County,NY,NA,68.37708830548927,NA
11706,Suffolk County,NY,NA,NA,72.23230490018149
11720,Suffolk County,NY,NA,NA,89.47368421052632
11726,Suffolk County,NY,NA,85.20286396181385,NA
11729,Suffolk County,NY,NA,NA,45.37205081669691
11747,Suffolk County,NY,NA,70.88305489260142,49.727767695099814
11758,Nassau County,NY,NA,39.37947494033413,NA
11763,Suffolk County,NY,NA,47.37470167064439,NA
11772,Suffolk County,NY,36.81318681318682,NA,NA
11782,Suffolk County,NY,NA,NA,68.42105263157895
11942,Suffolk County,NY,NA,NA,97.45916515426497
12010,Montgomery County,NY,NA,4.6539379474940334,5.626134301270418
12020,Saratoga County,NY,NA,26.014319809069214,NA
12180,Rensselaer County,NY,NA,NA,7.259528130671507
12198,Rensselaer County,NY,NA,NA,87.47731397459165
12522,Dutchess County,NY,NA,NA,99.09255898366605
12538,Dutchess County,NY,NA,61.93317422434368,NA
12550,Orange County,NY,NA,84.7255369928401,NA
12564,Dutchess County,NY,NA,98.68735083532219,NA
12572,Dutchess County,NY,NA,94.39140811455847,NA
12603,Dutchess County,NY,NA,NA,31.941923774954628
12831,Saratoga County,NY,54.21245421245421,NA,NA
12866,Saratoga County,NY,NA,10.501193317422434,NA
12953,Franklin County,NY,21.978021978021978,NA,NA
12962,Clinton County,NY,NA,74.82100238663485,NA
13021,Cayuga County,NY,3.1135531135531136,NA,NA
13110,Onondaga County,NY,98.16849816849816,NA,NA
13114,Oswego County,NY,66.84981684981685,NA,NA
13126,Oswego County,NY,69.59706959706959,6.801909307875895,NA
13413,Oneida County,NY,56.59340659340659,NA,NA
13440,Oneida County,NY,17.216117216117215,NA,NA
13660,St. Lawrence County,NY,97.61904761904762,NA,NA
13815,Chenango County,NY,NA,14.081145584725538,NA
13905,Broome County,NY,1.8315018315018317,NA,NA
14020,Genesee County,NY,47.43589743589743,NA,NA
14043,Erie County,NY,37.91208791208791,NA,NA
14120,Niagara County,NY,5.311355311355311,NA,NA
14150,Erie County,NY,NA,5.608591885441527,NA
14207,Erie County,NY,9.89010989010989,NA,NA
14209,Erie County,NY,74.9084249084249,NA,NA
14227,Erie County,NY,NA,25.059665871121716,NA
14445,Monroe County,NY,NA,67.06443914081146,NA
14472,Monroe County,NY,NA,29.47494033412888,NA
14580,Monroe County,NY,NA,0.5966587112171837,NA
14612,Monroe County,NY,2.0146520146520146,NA,NA
14622,Monroe County,NY,28.388278388278387,NA,NA
14701,Chautauqua County,NY,2.564102564102564,1.9093078758949882,NA
14716,Chautauqua County,NY,97.43589743589743,NA,NA
14739,Allegany County,NY,91.94139194139194,NA,NA
14845,Chemung County,NY,54.57875457875458,NA,NA
14867,Tompkins County,NY,NA,60.859188544152744,NA
14895,Allegany County,NY,33.6996336996337,NA,NA
27012,Forsyth County,NC,35.16483516483517,NA,NA
27020,Yadkin County,NC,NA,69.57040572792363,NA
27025,Rockingham County,NC,NA,79.23627684964201,NA
27048,Rockingham County,NC,NA,66.5871121718377,NA
27055,Yadkin County,NC,72.34432234432234,NA,NA
27105,Forsyth County,NC,NA,42.36276849642005,NA
27107,Forsyth County,NC,NA,NA,14.700544464609798
27203,Randolph County,NC,93.22344322344323,NA,NA
27249,Guilford County,NC,85.8974358974359,NA,NA
27265,Guilford County,NC,NA,15.035799522673033,NA
27306,Montgomery County,NC,78.57142857142857,NA,NA
27332,Lee County,NC,NA,46.420047732696894,NA
27344,Chatham County,NC,56.043956043956044,NA,NA
27360,Davidson County,NC,NA,4.05727923627685,NA
27401,Guilford County,NC,88.82783882783882,NA,NA
27405,Guilford County,NC,13.736263736263737,NA,NA
27406,Guilford County,NC,4.212454212454213,NA,NA
27509,Granville County,NC,NA,NA,84.39201451905626
27519,Wake County,NC,NA,54.8926014319809,NA
27520,Johnston County,NC,NA,33.53221957040573,NA
27537,Vance County,NC,NA,NA,41.74228675136116
27576,Johnston County,NC,65.38461538461539,NA,NA
27577,Johnston County,NC,NA,70.16706443914082,NA
27587,Wake County,NC,NA,NA,15.426497277676951
27592,Wake County,NC,76.007326007326,NA,NA
27603,Wake County,NC,NA,25.29832935560859,NA
27613,Wake County,NC,NA,NA,52.63157894736842
27704,Durham County,NC,14.835164835164836,NA,NA
27850,Halifax County,NC,NA,81.14558472553699,NA
27856,Nash County,NC,81.5018315018315,NA,NA
27892,Martin County,NC,NA,31.861575178997615,NA
27893,Wilson County,NC,NA,23.389021479713605,NA
28001,Stanly County,NC,36.996336996337,NA,NA
28027,Cabarrus County,NC,23.26007326007326,NA,NA
28043,Rutherford County,NC,76.73992673992674,NA,NA
28086,Cleveland County,NC,29.67032967032967,NA,NA
28092,Lincoln County,NC,NA,13.365155131264917,NA
28110,Union County,NC,26.373626373626376,NA,NA
28117,Iredell County,NC,NA,NA,49.9092558983666
28150,Cleveland County,NC,26.373626373626376,42.004773269689736,NA
28206,Mecklenburg County,NC,47.61904761904761,NA,NA
28212,Mecklenburg County,NC,29.48717948717949,NA,NA
28213,Mecklenburg County,NC,67.03296703296702,NA,NA
28216,Mecklenburg County,NC,11.904761904761903,NA,60.435571687840294
28270,Mecklenburg County,NC,NA,NA,46.82395644283122
28273,Mecklenburg County,NC,NA,73.3890214797136,NA
28303,Cumberland County,NC,NA,45.4653937947494,NA
28364,Robeson County,NC,51.46520146520146,NA,NA
28390,Harnett County,NC,NA,68.4964200477327,NA
28398,Duplin County,NC,NA,91.28878281622912,NA
28401,New Hanover County,NC,NA,NA,53.35753176043557
28405,New Hanover County,NC,NA,NA,50.27223230490018
28411,New Hanover County,NC,43.040293040293044,NA,NA
28451,Brunswick County,NC,69.04761904761905,NA,NA
28540,Onslow County,NC,31.135531135531135,NA,NA
28601,Catawba County,NC,17.765567765567766,NA,NA
28625,Iredell County,NC,NA,18.85441527446301,NA
28642,Yadkin County,NC,NA,75.77565632458234,NA
28655,Burke County,NC,6.95970695970696,NA,NA
28704,Buncombe County,NC,NA,73.9856801909308,NA
28721,Haywood County,NC,NA,76.73031026252983,NA
28792,Henderson County,NC,NA,64.79713603818615,NA
58501,Burleigh County,ND,NA,NA,7.6225045372050815
58554,Morton County,ND,NA,28.042959427207638,NA
58701,Ward County,ND,NA,9.069212410501192,NA
43031,Licking County,OH,NA,NA,85.84392014519057
43050,Knox County,OH,9.340659340659341,NA,NA
43062,Licking County,OH,40.65934065934066,68.85441527446301,NA
43147,Fairfield County,OH,NA,NA,43.19419237749546
43204,Franklin County,OH,NA,13.842482100238662,NA
43207,Franklin County,OH,NA,7.040572792362769,NA
43215,Franklin County,OH,NA,NA,79.12885662431943
43227,Franklin County,OH,NA,41.16945107398568,NA
43302,Marion County,OH,2.197802197802198,2.386634844868735,NA
43338,Morrow County,OH,NA,NA,55.53539019963702
43402,Wood County,OH,NA,NA,16.515426497277677
43420,Sandusky County,OH,NA,16.82577565632458,NA
43528,Lucas County,OH,92.12454212454212,NA,NA
43551,Wood County,OH,16.84981684981685,NA,NA
43560,Lucas County,OH,NA,NA,23.77495462794918
43609,Lucas County,OH,5.86080586080586,NA,NA
43611,Lucas County,OH,NA,82.57756563245823,NA
43612,Lucas County,OH,4.761904761904762,NA,NA
43614,Lucas County,OH,NA,11.336515513126491,NA
43616,Lucas County,OH,16.483516483516482,NA,NA
43812,Coshocton County,OH,6.593406593406594,NA,NA
43933,Belmont County,OH,NA,99.28400954653938,NA
43952,Jefferson County,OH,9.523809523809524,NA,NA
44001,Lorain County,OH,33.51648351648351,NA,NA
44004,Ashtabula County,OH,NA,NA,0.9074410163339384
44012,Lorain County,OH,NA,7.159904534606206,NA
44021,Geauga County,OH,NA,NA,79.12885662431943
44024,Geauga County,OH,52.930402930402934,NA,NA
44044,Lorain County,OH,NA,40.930787589498806,NA
44057,Lake County,OH,NA,NA,12.159709618874773
44076,Ashtabula County,OH,84.43223443223444,NA,NA
44092,Lake County,OH,NA,NA,8.348457350272232
44103,Cuyahoga County,OH,NA,12.887828162291171,NA
44104,Cuyahoga County,OH,NA,NA,82.75862068965517
44105,Cuyahoga County,OH,NA,0.8353221957040573,NA
44110,Cuyahoga County,OH,12.087912087912088,7.995226730310262,NA
44117,Cuyahoga County,OH,NA,47.97136038186158,NA
44125,Cuyahoga County,OH,1.465201465201465,NA,NA
44131,Cuyahoga County,OH,NA,18.4964200477327,NA
44134,Cuyahoga County,OH,NA,NA,3.0852994555353903
44136,Cuyahoga County,OH,NA,NA,11.796733212341199
44149,Cuyahoga County,OH,NA,NA,11.252268602540836
44203,Summit County,OH,7.326007326007327,NA,NA
44223,Summit County,OH,NA,52.74463007159904,NA
44241,Portage County,OH,36.08058608058608,NA,NA
44256,Medina County,OH,NA,NA,0.7259528130671506
44266,Portage County,OH,38.82783882783883,NA,NA
44281,Medina County,OH,26.00732600732601,NA,NA
44305,Summit County,OH,17.582417582417584,NA,NA
44312,Summit County,OH,18.315018315018314,NA,NA
44319,Summit County,OH,84.61538461538461,NA,NA
44321,Summit County,OH,83.51648351648352,NA,NA
44406,Mahoning County,OH,63.18681318681318,27.923627684964202,NA
44432,Columbiana County,OH,NA,74.46300715990454,NA
44438,Trumbull County,OH,76.55677655677655,NA,NA
44446,Trumbull County,OH,16.666666666666664,NA,NA
44460,Columbiana County,OH,NA,40.214797136038186,NA
44484,Trumbull County,OH,NA,46.658711217183765,16.152450090744104
44505,Mahoning County,OH,NA,38.902147971360385,NA
44512,Mahoning County,OH,NA,13.60381861575179,13.974591651542651
44515,Mahoning County,OH,12.82051282051282,44.868735083532215,51.542649727767696
44683,Tuscarawas County,OH,NA,77.80429594272077,NA
44691,Wayne County,OH,NA,4.77326968973747,NA
44709,Stark County,OH,46.52014652014652,NA,NA
44805,Ashland County,OH,NA,4.41527446300716,NA
44811,Sandusky County,OH,NA,57.39856801909308,90.92558983666062
44827,Crawford County,OH,NA,76.25298329355608,NA
44830,Seneca County,OH,NA,NA,33.938294010889294
44836,Seneca County,OH,100,NA,NA
44837,Huron County,OH,89.56043956043956,NA,NA
44842,Ashland County,OH,NA,97.49403341288783,NA
44903,Richland County,OH,NA,19.09307875894988,NA
44906,Richland County,OH,NA,48.09069212410501,NA
45030,Hamilton County,OH,63.369963369963365,NA,NA
45066,Warren County,OH,NA,49.52267303102625,NA
45107,Clinton County,OH,87.72893772893772,NA,NA
45133,Highland County,OH,25.09157509157509,76.13365155131265,17.78584392014519
45212,Hamilton County,OH,34.61538461538461,NA,NA
45231,Hamilton County,OH,NA,18.73508353221957,10.707803992740473
45232,Hamilton County,OH,NA,98.32935560859188,NA
45233,Hamilton County,OH,NA,NA,34.30127041742287
45237,Hamilton County,OH,NA,22.315035799522672,NA
45238,Hamilton County,OH,NA,16.2291169451074,NA
45239,Hamilton County,OH,NA,35.08353221957041,36.84210526315789
45240,Hamilton County,OH,NA,93.1980906921241,NA
45244,Hamilton County,OH,NA,NA,97.27767695099818
45245,Clermont County,OH,68.68131868131869,NA,NA
45251,Hamilton County,OH,NA,NA,76.22504537205081
45305,Greene County,OH,NA,NA,87.11433756805808
45320,Preble County,OH,77.65567765567766,NA,NA
45324,Greene County,OH,41.02564102564102,NA,20.508166969147005
45327,Montgomery County,OH,83.15018315018315,NA,NA
45342,Montgomery County,OH,14.285714285714285,41.646778042959426,NA
45373,Miami County,OH,8.241758241758241,68.13842482100239,NA
45377,Montgomery County,OH,NA,NA,56.62431941923774
45403,Montgomery County,OH,NA,79.71360381861575,NA
45424,Montgomery County,OH,13.553113553113553,10.859188544152746,NA
45432,Greene County,OH,NA,NA,87.84029038112523
45439,Montgomery County,OH,59.15750915750916,NA,NA
45449,Montgomery County,OH,NA,49.28400954653938,NA
45458,Montgomery County,OH,44.68864468864469,12.649164677804295,NA
45503,Clark County,OH,NA,NA,9.074410163339383
45505,Clark County,OH,35.34798534798535,NA,NA
45601,Ross County,OH,7.142857142857142,NA,NA
45638,Lawrence County,OH,5.4945054945054945,NA,NA
45640,Jackson County,OH,8.424908424908425,NA,NA
45656,Jackson County,OH,NA,NA,90.19963702359347
45661,Pike County,OH,NA,45.346062052505964,NA
45680,Lawrence County,OH,NA,68.85441527446301,33.21234119782214
45686,Gallia County,OH,NA,99.64200477326969,NA
45690,Pike County,OH,NA,NA,25.045372050816695
45694,Scioto County,OH,NA,20.52505966587112,NA
45750,Washington County,OH,NA,NA,1.0889292196007259
45806,Allen County,OH,70.32967032967034,NA,NA
45840,Hancock County,OH,NA,2.6252983293556085,NA
73010,McClain County,OK,NA,65.15513126491646,NA
73072,Cleveland County,OK,NA,26.730310262529834,NA
73089,Grady County,OK,NA,68.13842482100239,NA
73112,Oklahoma County,OK,42.124542124542124,NA,NA
73129,Oklahoma County,OK,58.60805860805861,NA,NA
73505,Comanche County,OK,27.106227106227106,NA,NA
73703,Garfield County,OK,NA,18.01909307875895,NA
74014,Wagoner County,OK,42.67399267399267,NA,NA
74401,Muskogee County,OK,79.85347985347985,NA,NA
74464,Cherokee County,OK,11.172161172161173,NA,NA
74501,Pittsburg County,OK,NA,NA,30.671506352087114
74578,Latimer County,OK,99.26739926739927,NA,NA
74604,Kay County,OK,86.99633699633699,NA,NA
74955,Sequoyah County,OK,NA,57.637231503579955,NA
97005,Washington County,OR,NA,72.43436754176611,NA
97031,Hood River County,OR,NA,73.0310262529833,NA
97034,Clackamas County,OR,NA,NA,31.57894736842105
97080,Multnomah County,OR,NA,19.570405727923628,NA
97116,Washington County,OR,NA,51.90930787589498,NA
97123,Washington County,OR,NA,NA,22.50453720508167
97222,Clackamas County,OR,NA,32.93556085918855,NA
97301,Marion County,OR,15.934065934065933,NA,NA
97305,Marion County,OR,NA,NA,56.80580762250453
97365,Lincoln County,OR,NA,41.766109785202865,NA
97415,Curry County,OR,NA,64.55847255369929,NA
97420,Coos County,OR,NA,43.556085918854414,NA
97471,Douglas County,OR,NA,56.085918854415276,NA
97496,Douglas County,OR,NA,72.31503579952268,NA
97601,Klamath County,OR,NA,66.94510739856801,NA
97756,Deschutes County,OR,43.223443223443226,19.809069212410503,NA
15120,Allegheny County,PA,NA,46.06205250596659,NA
15137,Allegheny County,PA,NA,65.03579952267303,NA
15146,Allegheny County,PA,54.94505494505495,NA,NA
15205,Allegheny County,PA,54.761904761904766,NA,NA
15211,Allegheny County,PA,NA,79.95226730310262,NA
15212,Allegheny County,PA,29.120879120879124,NA,NA
15227,Allegheny County,PA,NA,60.73985680190931,NA
15235,Allegheny County,PA,NA,16.58711217183771,NA
15239,Allegheny County,PA,NA,NA,40.653357531760435
15370,Greene County,PA,NA,59.665871121718375,NA
15401,Fayette County,PA,NA,4.892601431980907,NA
15601,Westmoreland County,PA,NA,NA,0.18148820326678766
15613,Westmoreland County,PA,NA,51.78997613365155,NA
15632,Westmoreland County,PA,NA,NA,57.89473684210527
15644,Westmoreland County,PA,NA,34.84486873508354,NA
15650,Westmoreland County,PA,72.89377289377289,NA,NA
15658,Westmoreland County,PA,NA,NA,59.528130671506354
15857,Elk County,PA,NA,9.904534606205251,NA
15902,Cambria County,PA,50,NA,NA
16102,Lawrence County,PA,NA,NA,83.66606170598911
16335,Crawford County,PA,NA,10.381861575178998,NA
16508,Erie County,PA,59.89010989010989,NA,NA
16749,McKean County,PA,93.04029304029304,NA,NA
16828,Centre County,PA,91.39194139194139,NA,NA
16830,Clearfield County,PA,NA,30.190930787589497,NA
17022,Lancaster County,PA,NA,15.990453460620524,NA
17042,Lebanon County,PA,NA,5.847255369928401,NA
17055,Cumberland County,PA,NA,NA,6.715063520871143
17087,Lebanon County,PA,98.35164835164835,NA,NA
17109,Dauphin County,PA,NA,53.22195704057279,NA
17112,Dauphin County,PA,NA,5.13126491646778,NA
17241,Cumberland County,PA,81.68498168498168,NA,NA
17331,York County,PA,8.608058608058608,NA,NA
17340,Adams County,PA,77.10622710622711,NA,NA
17403,York County,PA,2.7472527472527473,NA,NA
17552,Lancaster County,PA,NA,NA,45.73502722323049
17578,Lancaster County,PA,NA,NA,85.48094373865699
17701,Lycoming County,PA,NA,6.324582338902148,NA
17777,Northumberland County,PA,92.3076923076923,NA,NA
17824,Northumberland County,PA,NA,77.56563245823389,NA
17972,Schuylkill County,PA,NA,59.546539379474936,NA
18018,Lehigh County,PA,NA,NA,8.166969147005444
18042,Northampton County,PA,6.7765567765567765,NA,NA
18102,Lehigh County,PA,NA,7.279236276849642,NA
18109,Lehigh County,PA,31.318681318681318,NA,NA
18235,Carbon County,PA,NA,NA,70.96188747731398
18360,Monroe County,PA,NA,NA,69.32849364791288
18431,Wayne County,PA,70.14652014652015,57.51789976133651,NA
18603,Columbia County,PA,NA,18.138424821002385,NA
18655,Luzerne County,PA,95.42124542124543,NA,NA
18704,Luzerne County,PA,19.963369963369964,NA,33.39382940108893
18705,Luzerne County,PA,60.98901098901099,NA,NA
18707,Luzerne County,PA,NA,NA,38.65698729582577
19007,Bucks County,PA,30.4029304029304,NA,NA
19014,Delaware County,PA,49.26739926739927,NA,NA
19018,Delaware County,PA,32.6007326007326,NA,NA
19026,Delaware County,PA,21.428571428571427,NA,NA
19033,Delaware County,PA,NA,NA,90.74410163339383
19047,Bucks County,PA,NA,17.18377088305489,NA
19056,Bucks County,PA,56.776556776556774,NA,NA
19057,Bucks County,PA,36.446886446886445,NA,NA
19111,Philadelphia County,PA,NA,29.594272076372313,NA
19131,Philadelphia County,PA,31.684981684981683,NA,35.027223230490016
19134,Philadelphia County,PA,NA,14.677804295942721,NA
19152,Philadelphia County,PA,NA,58.233890214797135,NA
19301,Chester County,PA,96.15384615384616,NA,NA
19312,Chester County,PA,NA,NA,96.00725952813067
19342,Delaware County,PA,55.86080586080586,NA,NA
19362,Chester County,PA,NA,NA,99.27404718693285
19390,Chester County,PA,NA,NA,51.36116152450091
19468,Montgomery County,PA,NA,35.68019093078759,NA
19540,Berks County,PA,NA,60.62052505966587,NA
19601,Berks County,PA,2.93040293040293,NA,NA
19604,Berks County,PA,15.2014652014652,NA,NA
02809,Bristol County,RI,65.75091575091575,NA,NA
02816,Kent County,RI,NA,NA,25.58983666061706
02818,Kent County,RI,74.35897435897436,NA,NA
02852,Washington County,RI,NA,27.565632458233893,NA
02860,Providence County,RI,NA,NA,3.9927404718693285
02885,Bristol County,RI,NA,NA,74.22867513611615
02886,Kent County,RI,NA,23.627684964200476,32.66787658802178
02889,Kent County,RI,NA,55.60859188544153,NA
02891,Washington County,RI,NA,NA,21.59709618874773
02893,Kent County,RI,NA,NA,34.11978221415608
02895,Providence County,RI,NA,80.90692124105013,NA
02903,Providence County,RI,82.23443223443223,NA,NA
02911,Providence County,RI,NA,60.381861575178995,NA
02920,Providence County,RI,34.24908424908425,NA,NA
29010,Lee County,SC,NA,81.86157517899761,NA
29045,Kershaw County,SC,78.93772893772893,NA,NA
29059,Orangeburg County,SC,88.64468864468864,NA,NA
29150,Sumter County,SC,NA,26.968973747016705,NA
29154,Sumter County,SC,59.523809523809526,NA,NA
29203,Richland County,SC,NA,NA,31.03448275862069
29210,Richland County,SC,NA,54.77326968973747,NA
29212,Lexington County,SC,NA,NA,48.63883847549909
29323,Spartanburg County,SC,NA,50.83532219570406,NA
29325,Laurens County,SC,61.72161172161172,NA,NA
29349,Spartanburg County,SC,30.586080586080588,NA,NA
29410,Berkeley County,SC,96.88644688644689,74.10501193317423,NA
29440,Georgetown County,SC,NA,47.25536992840095,NA
29451,Charleston County,SC,NA,95.1073985680191,NA
29488,Colleton County,SC,NA,36.754176610978526,NA
29501,Florence County,SC,NA,NA,33.57531760435572
29527,Horry County,SC,NA,80.66825775656325,NA
29569,Horry County,SC,53.663003663003664,NA,NA
29576,Horry County,SC,NA,NA,13.06715063520871
29577,Horry County,SC,NA,52.98329355608592,NA
29579,Horry County,SC,NA,34.12887828162291,NA
29607,Greenville County,SC,33.33333333333333,NA,NA
29611,Greenville County,SC,NA,70.52505966587113,NA
29646,Greenwood County,SC,NA,48.32935560859188,NA
29666,Greenwood County,SC,NA,NA,89.29219600725953
29673,Greenville County,SC,NA,NA,59.70961887477314
29687,Greenville County,SC,NA,NA,15.245009074410163
29693,Oconee County,SC,NA,NA,41.01633393829401
29710,York County,SC,NA,NA,46.46098003629764
57103,Minnehaha County,SD,28.021978021978022,NA,NA
57105,Minnehaha County,SD,NA,12.17183770883055,NA
57106,Minnehaha County,SD,NA,NA,3.2667876588021776
57110,Minnehaha County,SD,NA,NA,29.58257713248639
57301,Davison County,SD,NA,NA,58.43920145190563
57719,Pennington County,SD,NA,55.489260143198095,NA
37055,Dickson County,TN,64.83516483516483,NA,NA
37076,Davidson County,TN,39.92673992673993,NA,NA
37083,Macon County,TN,NA,NA,63.70235934664247
37101,Humphreys County,TN,NA,90.21479713603819,NA
37110,Warren County,TN,19.78021978021978,NA,NA
37128,Rutherford County,TN,NA,NA,64.24682395644284
37172,Robertson County,TN,NA,NA,52.08711433756806
37174,Williamson County,TN,NA,40.692124105011935,94.01088929219601
37205,Davidson County,TN,91.57509157509158,NA,NA
37211,Davidson County,TN,NA,NA,18.148820326678766
37216,Davidson County,TN,55.494505494505496,NA,NA
37221,Davidson County,TN,NA,25.894988066825775,NA
37312,Bradley County,TN,NA,NA,30.127041742286753
37321,Rhea County,TN,NA,NA,66.96914700544465
37329,McMinn County,TN,84.06593406593407,NA,NA
37354,Monroe County,TN,NA,78.63961813842482,NA
37355,Coffee County,TN,39.1941391941392,NA,NA
37387,Grundy County,TN,NA,NA,98.54809437386571
37388,Coffee County,TN,NA,44.51073985680191,NA
37398,Franklin County,TN,NA,NA,77.6769509981851
37416,Hamilton County,TN,NA,55.25059665871122,NA
37421,Hamilton County,TN,NA,28.878281622911693,NA
37650,Unicoi County,TN,NA,46.53937947494033,NA
37660,Sullivan County,TN,NA,9.427207637231504,NA
37701,Blount County,TN,75.64102564102564,NA,NA
37705,Anderson County,TN,NA,92.36276849642005,NA
37745,Greene County,TN,NA,22.434367541766107,NA
37748,Roane County,TN,38.46153846153847,NA,NA
37766,Campbell County,TN,NA,24.3436754176611,NA
37801,Blount County,TN,52.74725274725275,NA,NA
37803,Blount County,TN,NA,NA,14.519056261343014
37830,Anderson County,TN,NA,63.72315035799523,NA
37840,Roane County,TN,NA,56.443914081145586,NA
37841,Scott County,TN,NA,84.48687350835323,NA
37886,Blount County,TN,NA,NA,92.5589836660617
37890,Jefferson County,TN,78.02197802197803,NA,NA
37917,Knox County,TN,NA,NA,26.13430127041742
37918,Knox County,TN,NA,21.002386634844868,NA
37922,Knox County,TN,NA,NA,81.85117967332124
38104,Shelby County,TN,77.47252747252747,NA,NA
38108,Shelby County,TN,NA,NA,80.94373865698729
38109,Shelby County,TN,14.652014652014653,16.348448687350835,NA
38141,Shelby County,TN,NA,92.84009546539379,NA
38305,Madison County,TN,12.27106227106227,NA,NA
38320,Benton County,TN,NA,75.53699284009546,NA
38340,Chester County,TN,NA,NA,67.33212341197822
38343,Gibson County,TN,54.395604395604394,NA,NA
38382,Gibson County,TN,NA,80.31026252983293,NA
38401,Maury County,TN,NA,NA,19.96370235934664
38506,Putnam County,TN,NA,20.405727923627683,NA
38556,Fentress County,TN,NA,NA,59.16515426497278
75007,Denton County,TX,55.311355311355314,NA,NA
75019,Dallas County,TX,NA,55.36992840095465,NA
75025,Collin County,TX,NA,57.279236276849645,NA
75028,Denton County,TX,NA,40.453460620525064,NA
75043,Dallas County,TX,24.358974358974358,NA,NA
75076,Grayson County,TX,NA,NA,89.65517241379311
75080,Dallas County,TX,NA,45.10739856801909,NA
75081,Dallas County,TX,NA,51.19331742243437,NA
75093,Collin County,TX,56.227106227106226,NA,NA
75126,Kaufman County,TX,NA,44.74940334128878,NA
75143,Henderson County,TX,NA,NA,94.37386569872959
75149,Dallas County,TX,NA,NA,37.56805807622505
75156,Henderson County,TX,NA,NA,87.65880217785845
75165,Ellis County,TX,NA,25.41766109785203,NA
75209,Dallas County,TX,NA,70.64439140811456,NA
75211,Dallas County,TX,23.626373626373624,NA,NA
75215,Dallas County,TX,NA,NA,52.813067150635206
75217,Dallas County,TX,11.72161172161172,NA,NA
75218,Dallas County,TX,NA,63.24582338902148,NA
75228,Dallas County,TX,NA,NA,24.137931034482758
75231,Dallas County,TX,NA,67.89976133651552,NA
75232,Dallas County,TX,52.01465201465202,NA,NA
75241,Dallas County,TX,NA,35.08353221957041,NA
75248,Dallas County,TX,NA,NA,32.30490018148821
75401,Hunt County,TX,NA,61.336515513126486,NA
75482,Hopkins County,TX,NA,NA,37.02359346642468
75601,Gregg County,TX,NA,76.0143198090692,NA
75686,Camp County,TX,NA,61.09785202863962,NA
75701,Smith County,TX,NA,NA,4.537205081669692
75702,Smith County,TX,NA,NA,28.31215970961887
75703,Smith County,TX,NA,3.699284009546539,NA
75783,Wood County,TX,NA,30.668257756563243,NA
75803,Anderson County,TX,94.13919413919413,NA,NA
75862,Trinity County,TX,90.29304029304029,NA,NA
75935,Shelby County,TX,80.76923076923077,NA,NA
75961,Nacogdoches County,TX,NA,NA,84.21052631578947
76010,Tarrant County,TX,21.245421245421245,NA,NA
76034,Tarrant County,TX,82.6007326007326,NA,NA
76051,Tarrant County,TX,73.26007326007326,NA,NA
76060,Tarrant County,TX,NA,NA,95.09981851179673
76065,Ellis County,TX,NA,36.9928400954654,NA
76082,Parker County,TX,NA,49.64200477326969,NA
76092,Tarrant County,TX,NA,NA,89.11070780399274
76103,Tarrant County,TX,72.52747252747253,NA,NA
76105,Tarrant County,TX,24.175824175824175,NA,NA
76106,Tarrant County,TX,NA,20.286396181384248,NA
76112,Tarrant County,TX,17.399267399267398,NA,NA
76131,Tarrant County,TX,NA,66.10978520286396,NA
76133,Tarrant County,TX,NA,20.644391408114558,NA
76179,Tarrant County,TX,NA,34.60620525059666,NA
76180,Tarrant County,TX,NA,36.754176610978526,NA
76227,Denton County,TX,NA,78.99761336515513,NA
76234,Wise County,TX,NA,NA,65.69872958257713
76248,Tarrant County,TX,71.97802197802197,NA,NA
76401,Erath County,TX,NA,51.67064439140812,NA
76446,Erath County,TX,92.85714285714286,NA,NA
76450,Young County,TX,NA,95.34606205250597,NA
76502,Bell County,TX,19.230769230769234,NA,NA
76504,Bell County,TX,12.637362637362637,2.267303102625298,NA
76661,Falls County,TX,NA,96.06205250596659,NA
76708,McLennan County,TX,NA,83.7708830548926,NA
77017,Harris County,TX,NA,62.76849642004774,NA
77018,Harris County,TX,NA,NA,66.42468239564428
77026,Harris County,TX,NA,NA,62.794918330308526
77044,Harris County,TX,42.857142857142854,NA,NA
77051,Harris County,TX,NA,NA,68.42105263157895
77072,Harris County,TX,NA,NA,80.39927404718694
77077,Harris County,TX,NA,32.10023866348449,NA
77078,Harris County,TX,NA,64.67780429594272,NA
77082,Harris County,TX,NA,39.618138424821005,NA
77091,Harris County,TX,NA,50,NA
77096,Harris County,TX,66.66666666666666,NA,NA
77099,Harris County,TX,NA,NA,69.32849364791288
77328,San Jacinto County,TX,NA,84.36754176610978,NA
77339,Harris County,TX,NA,40.81145584725537,NA
77354,Montgomery County,TX,NA,45.94272076372315,NA
77356,Montgomery County,TX,NA,NA,47.54990925589836
77379,Harris County,TX,NA,11.097852028639618,NA
77389,Harris County,TX,NA,62.41050119331742,NA
77396,Harris County,TX,43.40659340659341,NA,NA
77407,Fort Bend County,TX,60.43956043956044,NA,NA
77418,Austin County,TX,90.84249084249085,NA,NA
77437,Wharton County,TX,NA,NA,43.55716878402904
77469,Fort Bend County,TX,NA,NA,39.201451905626136
77479,Fort Bend County,TX,NA,56.682577565632464,NA
77506,Harris County,TX,67.94871794871796,NA,NA
77511,Brazoria County,TX,NA,13.126491646778044,NA
77541,Brazoria County,TX,NA,57.995226730310264,NA
77545,Fort Bend County,TX,NA,88.90214797136038,92.74047186932849
77590,Galveston County,TX,NA,14.558472553699284,25.952813067150636
77625,Hardin County,TX,85.8974358974359,NA,NA
77627,Jefferson County,TX,NA,NA,50.45372050816697
77642,Jefferson County,TX,34.065934065934066,33.41288782816229,NA
77659,Hardin County,TX,98.71794871794873,NA,NA
77705,Jefferson County,TX,50.366300366300365,NA,NA
77707,Jefferson County,TX,NA,93.7947494033413,NA
77954,DeWitt County,TX,75.82417582417582,NA,NA
77984,Lavaca County,TX,NA,90.33412887828163,NA
78041,Webb County,TX,NA,NA,26.860254083484573
78045,Webb County,TX,NA,33.7708830548926,NA
78046,Webb County,TX,NA,NA,43.37568058076225
78064,Atascosa County,TX,NA,NA,96.55172413793103
78076,Zapata County,TX,90.65934065934066,NA,NA
78164,DeWitt County,TX,NA,93.43675417661098,NA
78214,Bexar County,TX,72.16117216117216,NA,NA
78216,Bexar County,TX,50.73260073260073,NA,NA
78227,Bexar County,TX,NA,54.17661097852029,NA
78228,Bexar County,TX,NA,NA,23.95644283121597
78229,Bexar County,TX,60.256410256410255,NA,NA
78233,Bexar County,TX,NA,57.15990453460621,NA
78237,Bexar County,TX,34.98168498168498,NA,50.45372050816697
78240,Bexar County,TX,NA,63.0071599045346,NA
78249,Bexar County,TX,NA,65.75178997613365,NA
78251,Bexar County,TX,NA,NA,59.89110707803993
78372,Jim Wells County,TX,95.6043956043956,NA,NA
78377,Refugio County,TX,99.81684981684981,NA,NA
78380,Nueces County,TX,NA,69.8090692124105,NA
78416,Nueces County,TX,87.54578754578755,NA,NA
78418,Nueces County,TX,NA,79.35560859188544,NA
78542,Hidalgo County,TX,NA,NA,47.005444646098006
78572,Hidalgo County,TX,NA,NA,4.174228675136116
78577,Hidalgo County,TX,NA,NA,9.98185117967332
78626,Williamson County,TX,NA,48.92601431980907,NA
78729,Williamson County,TX,NA,81.62291169451073,NA
78745,Travis County,TX,NA,61.217183770883054,NA
78840,Val Verde County,TX,68.86446886446886,NA,NA
78945,Fayette County,TX,NA,NA,72.77676950998185
79106,Potter County,TX,NA,NA,39.382940108892925
79109,Randall County,TX,44.32234432234432,NA,NA
79336,Hockley County,TX,NA,65.63245823389022,66.42468239564428
79360,Gaines County,TX,NA,86.0381861575179,NA
79416,Lubbock County,TX,NA,58.711217183770884,NA
79606,Taylor County,TX,68.31501831501832,54.534606205250604,NA
79714,Andrews County,TX,NA,71.47971360381862,NA
79761,Ector County,TX,NA,58.94988066825776,NA
79901,El Paso County,TX,NA,NA,62.25045372050817
79907,El Paso County,TX,44.13919413919414,NA,NA
79912,El Paso County,TX,32.234432234432234,NA,NA
79915,El Paso County,TX,NA,NA,12.341197822141561
79928,El Paso County,TX,56.959706959706956,NA,NA
84040,Davis County,UT,NA,96.30071599045345,NA
84045,Utah County,UT,80.95238095238095,NA,96.91470054446461
84078,Uintah County,UT,NA,NA,71.32486388384754
84084,Salt Lake County,UT,NA,42.124105011933175,NA
84106,Salt Lake County,UT,NA,NA,24.319419237749546
84108,Salt Lake County,UT,NA,NA,32.849364791288565
84119,Salt Lake County,UT,16.117216117216117,NA,NA
84120,Salt Lake County,UT,NA,NA,46.64246823956443
84121,Salt Lake County,UT,NA,17.66109785202864,NA
84123,Salt Lake County,UT,NA,NA,44.283121597096184
84302,Box Elder County,UT,NA,75.17899761336515,NA
84741,Kane County,UT,NA,NA,93.28493647912886
05143,Windsor County,VT,97.98534798534799,NA,NA
05156,Windsor County,VT,NA,88.78281622911695,NA
05201,Bennington County,VT,55.67765567765568,22.195704057279237,NA
20110,Manassas city,VA,40.476190476190474,NA,NA
20120,Fairfax County,VA,NA,78.16229116945107,NA
20170,Fairfax County,VA,NA,47.7326968973747,NA
20175,Loudoun County,VA,NA,NA,42.28675136116152
20186,Fauquier County,VA,NA,NA,63.33938294010889
22015,Fairfax County,VA,NA,NA,54.264972776769504
22025,Prince William County,VA,NA,80.78758949880668,NA
22030,Fairfax County,VA,70.51282051282051,NA,NA
22043,Fairfax County,VA,NA,NA,97.64065335753176
22180,Fairfax County,VA,NA,NA,62.794918330308526
22192,Prince William County,VA,NA,NA,41.1978221415608
22303,Fairfax County,VA,NA,89.97613365155132,NA
22401,Fredericksburg city,VA,NA,96.4200477326969,NA
22520,Westmoreland County,VA,NA,83.05489260143199,NA
22603,Frederick County,VA,NA,71.59904534606206,NA
22802,Harrisonburg city,VA,NA,52.02863961813843,NA
22812,Rockingham County,VA,NA,NA,58.620689655172406
22827,Rockingham County,VA,NA,71.24105011933175,NA
23040,Cumberland County,VA,NA,96.53937947494033,NA
23116,Hanover County,VA,NA,56.324582338902154,NA
23117,Louisa County,VA,NA,NA,69.32849364791288
23220,Richmond city,VA,NA,56.56324582338902,NA
23223,Henrico County,VA,NA,46.89737470167065,NA
23224,Richmond city,VA,13.91941391941392,NA,NA
23229,Henrico County,VA,NA,43.198090692124104,NA
23234,Chesterfield County,VA,NA,NA,61.524500907441016
23235,Chesterfield County,VA,NA,NA,21.052631578947366
23237,Chesterfield County,VA,55.12820512820513,NA,NA
23294,Henrico County,VA,NA,88.90214797136038,NA
23430,Isle of Wight County,VA,NA,33.05489260143198,NA
23452,Virginia Beach city,VA,NA,NA,56.442831215970955
23455,Virginia Beach city,VA,NA,9.785202863961814,NA
23504,Norfolk city,VA,NA,56.20525059665871,NA
23513,Norfolk city,VA,NA,32.69689737470167,19.600725952813068
23605,Newport News city,VA,NA,83.65155131264916,NA
23669,Hampton city,VA,NA,14.200477326968974,NA
23701,Portsmouth city,VA,NA,62.88782816229117,NA
23703,Portsmouth city,VA,63.003663003663,NA,NA
23947,Charlotte County,VA,NA,97.73269689737471,NA
24012,Roanoke city,VA,NA,43.31742243436754,NA
24016,Roanoke city,VA,61.53846153846154,NA,NA
24019,Roanoke County,VA,NA,27.20763723150358,NA
24055,Henry County,VA,NA,NA,63.1578947368421
24064,Botetourt County,VA,NA,97.25536992840095,NA
24112,Henry County,VA,NA,15.155131264916468,NA
24141,Radford city,VA,NA,80.1909307875895,NA
24179,Roanoke County,VA,NA,47.01670644391408,NA
24201,Bristol city,VA,51.098901098901095,NA,NA
24211,Washington County,VA,NA,58.830548926014316,NA
24293,Wise County,VA,58.24175824175825,NA,NA
24401,Staunton city,VA,14.46886446886447,NA,NA
24431,Augusta County,VA,NA,99.76133651551312,NA
24523,Bedford County,VA,37.362637362637365,NA,NA
24540,Danville city,VA,NA,27.326968973747018,36.66061705989111
24541,Danville city,VA,39.92673992673993,NA,NA
24558,Halifax County,VA,NA,79.59427207637232,NA
24651,Tazewell County,VA,NA,95.58472553699285,NA
98004,King County,WA,NA,70.40572792362768,NA
98023,King County,WA,30.76923076923077,NA,NA
98029,King County,WA,NA,65.8711217183771,NA
98038,King County,WA,NA,38.902147971360385,NA
98052,King County,WA,NA,NA,13.430127041742287
98072,King County,WA,69.41391941391942,NA,NA
98108,King County,WA,NA,67.78042959427208,NA
98126,King County,WA,NA,NA,73.502722323049
98188,King County,WA,NA,NA,58.076225045372055
98198,King County,WA,48.9010989010989,NA,23.41197822141561
98199,King County,WA,NA,NA,54.99092558983666
98208,Snohomish County,WA,25.457875457875456,NA,NA
98277,Island County,WA,NA,24.701670644391406,NA
98312,Kitsap County,WA,44.871794871794876,NA,NA
98329,Pierce County,WA,80.21978021978022,NA,NA
98365,Jefferson County,WA,NA,86.75417661097852,NA
98370,Kitsap County,WA,NA,44.03341288782816,NA
98374,Pierce County,WA,NA,43.078758949880665,NA
98391,Pierce County,WA,18.13186813186813,NA,62.06896551724138
98422,Pierce County,WA,NA,NA,70.05444646098003
98445,Pierce County,WA,NA,59.188544152744626,NA
98466,Pierce County,WA,NA,71.71837708830549,NA
98516,Thurston County,WA,NA,73.3890214797136,NA
98597,Thurston County,WA,NA,NA,83.8475499092559
98626,Cowlitz County,WA,NA,31.145584725536995,NA
98632,Cowlitz County,WA,23.992673992673993,NA,17.96733212341198
98660,Clark County,WA,NA,87.82816229116945,NA
98826,Chelan County,WA,NA,76.37231503579952,NA
98848,Grant County,WA,NA,82.81622911694511,NA
98903,Yakima County,WA,NA,57.04057279236277,NA
98926,Kittitas County,WA,NA,NA,22.686025408348456
99006,Spokane County,WA,NA,89.85680190930788,NA
99212,Spokane County,WA,NA,NA,74.77313974591652
99324,Walla Walla County,WA,NA,NA,67.15063520871144
99336,Benton County,WA,NA,NA,3.6297640653357535
20007,District of Columbia,DC,NA,NA,68.05807622504537
20020,District of Columbia,DC,18.864468864468865,NA,NA
24701,Mercer County,WV,NA,28.639618138424822,NA
25302,Kanawha County,WV,62.637362637362635,NA,NA
25411,Morgan County,WV,NA,NA,52.45009074410163
25427,Berkeley County,WV,NA,NA,91.83303085299455
25438,Jefferson County,WV,91.75824175824175,NA,NA
25550,Mason County,WV,NA,32.4582338902148,NA
25801,Raleigh County,WV,NA,10.023866348448687,NA
26205,Nicholas County,WV,94.5054945054945,NA,NA
26250,Barbour County,WV,NA,NA,84.0290381125227
26287,Tucker County,WV,NA,88.66348448687351,NA
26501,Monongalia County,WV,NA,NA,34.30127041742287
26505,Monongalia County,WV,NA,36.39618138424821,NA
26508,Monongalia County,WV,6.227106227106227,5.13126491646778,NA
26537,Preston County,WV,NA,64.20047732696898,NA
26554,Marion County,WV,NA,1.431980906921241,NA
26726,Mineral County,WV,NA,40.09546539379475,NA
53022,Washington County,WI,NA,51.07398568019092,NA
53045,Waukesha County,WI,NA,48.80668257756563,NA
53050,Dodge County,WI,NA,90.45346062052506,NA
53066,Waukesha County,WI,NA,NA,21.234119782214155
53089,Waukesha County,WI,NA,NA,75.1361161524501
53098,Dodge County,WI,NA,NA,47.73139745916515
53115,Walworth County,WI,NA,41.408114558472555,NA
53126,Racine County,WI,NA,70.04773269689738,NA
53146,Waukesha County,WI,NA,NA,79.491833030853
53172,Milwaukee County,WI,NA,NA,28.67513611615245
53181,Kenosha County,WI,67.3992673992674,NA,NA
53213,Milwaukee County,WI,NA,30.906921241050117,NA
53214,Milwaukee County,WI,NA,11.694510739856803,NA
53226,Milwaukee County,WI,NA,34.48687350835322,NA
53405,Racine County,WI,NA,NA,44.827586206896555
53406,Racine County,WI,NA,2.028639618138425,1.2704174228675136
53511,Rock County,WI,NA,0.7159904534606205,NA
53581,Richland County,WI,NA,83.17422434367542,NA
53705,Dane County,WI,NA,48.6873508353222,11.070780399274046
53711,Dane County,WI,NA,16.10978520286396,NA
53818,Grant County,WI,NA,88.42482100238664,NA
54143,Marinette County,WI,NA,NA,36.29764065335753
54155,Brown County,WI,NA,90.5727923627685,NA
54302,Brown County,WI,31.5018315018315,NA,NA
54494,Wood County,WI,89.92673992673993,NA,NA
54880,Douglas County,WI,NA,3.1026252983293556,NA
54904,Winnebago County,WI,NA,NA,49.546279491833026
82201,Platte County,WY,NA,90.9307875894988,NA
82414,Park County,WY,79.67032967032966,NA,NA
82718,Campbell County,WY,NA,71.95704057279237,NA
