ZipCode,county,state,Adult,Retirement,Geriatric
35124,Shelby County,AL,65.625,NA,NA
35205,Jefferson County,AL,NA,NA,96.06299212598425
35611,Limestone County,AL,NA,27.083333333333332,NA
35640,Morgan County,AL,33.482142857142854,NA,NA
35650,Lawrence County,AL,NA,NA,45.66929133858268
35749,Madison County,AL,NA,58.333333333333336,NA
35750,Madison County,AL,60.71428571428571,NA,NA
35953,St. Clair County,AL,NA,NA,98.03149606299213
35959,Cherokee County,AL,NA,NA,97.63779527559055
36104,Montgomery County,AL,NA,77.60416666666666,NA
36272,Calhoun County,AL,45.982142857142854,NA,NA
36693,Mobile County,AL,56.69642857142857,NA,NA
36854,Chambers County,AL,NA,67.1875,NA
36874,Lee County,AL,NA,80.46875,NA
85022,Maricopa County,AZ,NA,31.510416666666668,NA
85023,Maricopa County,AZ,27.232142857142854,NA,NA
85035,Maricopa County,AZ,16.071428571428573,NA,NA
85041,Maricopa County,AZ,32.142857142857146,NA,NA
85042,Maricopa County,AZ,25,NA,NA
85044,Maricopa County,AZ,NA,51.5625,NA
85202,Maricopa County,AZ,NA,51.822916666666664,NA
85208,Maricopa County,AZ,NA,NA,26.77165354330709
85251,Maricopa County,AZ,NA,58.854166666666664,NA
85331,Maricopa County,AZ,NA,57.8125,NA
85338,Maricopa County,AZ,NA,47.13541666666667,NA
85546,Graham County,AZ,NA,NA,87.4015748031496
85552,Graham County,AZ,NA,94.01041666666666,NA
85650,Cochise County,AZ,NA,NA,48.4251968503937
85701,Pima County,AZ,NA,NA,95.2755905511811
85705,Pima County,AZ,NA,39.58333333333333,NA
85710,Pima County,AZ,6.696428571428571,NA,NA
85745,Pima County,AZ,NA,19.791666666666664,NA
85937,Navajo County,AZ,83.92857142857143,NA,NA
86301,Yavapai County,AZ,NA,NA,16.141732283464567
86336,Yavapai County,AZ,NA,NA,69.68503937007874
71602,Jefferson County,AR,NA,NA,91.33858267716536
71753,Columbia County,AR,67.85714285714286,NA,NA
71901,Garland County,AR,NA,NA,42.91338582677165
71909,Garland County,AR,96.42857142857143,NA,NA
71953,Polk County,AR,NA,NA,40.94488188976378
72143,White County,AR,NA,10.677083333333332,NA
72601,Boone County,AR,NA,36.19791666666667,NA
72653,Baxter County,AR,87.05357142857143,NA,NA
90011,Los Angeles County,CA,NA,48.17708333333333,NA
90018,Los Angeles County,CA,NA,35.41666666666667,NA
90019,Los Angeles County,CA,NA,29.166666666666668,NA
90024,Los Angeles County,CA,NA,NA,1.968503937007874
90026,Los Angeles County,CA,NA,42.96875,NA
90035,Los Angeles County,CA,NA,41.14583333333333,NA
90040,Los Angeles County,CA,91.96428571428571,NA,NA
90043,Los Angeles County,CA,NA,22.395833333333336,NA
90045,Los Angeles County,CA,NA,97.13541666666666,NA
90056,Los Angeles County,CA,NA,NA,74.80314960629921
90069,Los Angeles County,CA,55.80357142857143,NA,NA
90077,Los Angeles County,CA,NA,NA,79.13385826771653
90201,Los Angeles County,CA,29.910714285714285,NA,NA
90250,Los Angeles County,CA,58.92857142857143,27.34375,NA
90255,Los Angeles County,CA,64.28571428571429,NA,NA
90501,Los Angeles County,CA,46.875,NA,NA
90503,Los Angeles County,CA,NA,46.61458333333333,NA
90604,Los Angeles County,CA,NA,NA,33.85826771653544
90638,Los Angeles County,CA,NA,NA,29.527559055118108
90640,Los Angeles County,CA,NA,33.59375,NA
90650,Los Angeles County,CA,79.46428571428571,NA,NA
90732,Los Angeles County,CA,NA,88.02083333333334,NA
90745,Los Angeles County,CA,NA,NA,20.078740157480315
90802,Los Angeles County,CA,50.44642857142857,NA,NA
91106,Los Angeles County,CA,93.75,NA,NA
91202,Los Angeles County,CA,NA,70.05208333333334,NA
91206,Los Angeles County,CA,NA,NA,8.661417322834646
91307,Los Angeles County,CA,NA,82.29166666666666,NA
91335,Los Angeles County,CA,NA,NA,9.05511811023622
91361,Ventura County,CA,NA,66.14583333333334,NA
91502,Los Angeles County,CA,99.10714285714286,NA,NA
91910,San Diego County,CA,NA,35.67708333333333,NA
91911,San Diego County,CA,NA,NA,42.125984251968504
92026,San Diego County,CA,56.25,NA,NA
92037,San Diego County,CA,83.48214285714286,NA,NA
92057,San Diego County,CA,58.48214285714286,NA,NA
92067,San Diego County,CA,NA,93.22916666666666,NA
92078,San Diego County,CA,54.46428571428571,NA,NA
92102,San Diego County,CA,NA,63.541666666666664,NA
92103,San Diego County,CA,NA,52.083333333333336,NA
92126,San Diego County,CA,78.125,NA,NA
92284,San Bernardino County,CA,NA,NA,88.58267716535433
92344,San Bernardino County,CA,NA,80.20833333333334,NA
92392,San Bernardino County,CA,NA,69.53125,NA
92553,Riverside County,CA,NA,46.09375,NA
92563,Riverside County,CA,31.69642857142857,NA,NA
92610,Orange County,CA,NA,95.83333333333334,NA
92663,Orange County,CA,NA,NA,60.629921259842526
92691,Orange County,CA,NA,NA,50.78740157480315
92843,Orange County,CA,NA,NA,67.32283464566929
92867,Orange County,CA,NA,NA,35.43307086614173
92879,Riverside County,CA,NA,NA,62.20472440944882
93063,Ventura County,CA,NA,64.32291666666666,NA
93307,Kern County,CA,12.053571428571429,NA,NA
93444,San Luis Obispo County,CA,NA,NA,62.99212598425197
93550,Los Angeles County,CA,NA,78.90625,NA
93637,Madera County,CA,NA,NA,59.055118110236215
93657,Fresno County,CA,58.03571428571429,NA,NA
93662,Fresno County,CA,NA,NA,64.96062992125984
94063,San Mateo County,CA,41.964285714285715,NA,NA
94108,San Francisco County,CA,NA,92.44791666666666,NA
94112,San Francisco County,CA,NA,7.03125,NA
94122,San Francisco County,CA,79.01785714285714,NA,NA
94501,Alameda County,CA,NA,NA,25.590551181102363
94509,Contra Costa County,CA,20.089285714285715,NA,NA
94531,Contra Costa County,CA,NA,54.6875,NA
94536,Alameda County,CA,30.357142857142854,NA,NA
94559,Napa County,CA,NA,NA,51.96850393700787
94560,Alameda County,CA,NA,97.39583333333334,NA
94561,Contra Costa County,CA,NA,79.42708333333334,NA
94568,Alameda County,CA,54.01785714285714,NA,NA
94806,Contra Costa County,CA,NA,22.916666666666664,NA
95051,Santa Clara County,CA,NA,57.03125,NA
95118,Santa Clara County,CA,92.85714285714286,NA,NA
95122,Santa Clara County,CA,NA,53.385416666666664,NA
95126,Santa Clara County,CA,66.96428571428571,NA,NA
95129,Santa Clara County,CA,NA,75.52083333333334,NA
95348,Merced County,CA,NA,68.75,NA
95382,Stanislaus County,CA,NA,NA,47.63779527559055
95403,Sonoma County,CA,NA,NA,12.598425196850393
95540,Humboldt County,CA,59.82142857142857,60.416666666666664,NA
95621,Sacramento County,CA,NA,NA,23.62204724409449
95687,Solano County,CA,NA,75.78125,NA
95747,Placer County,CA,NA,NA,6.692913385826772
95816,Sacramento County,CA,NA,NA,81.10236220472441
95826,Sacramento County,CA,NA,60.9375,NA
95833,Sacramento County,CA,NA,NA,73.62204724409449
95928,Butte County,CA,33.035714285714285,NA,NA
96001,Shasta County,CA,54.91071428571429,NA,50
96097,Siskiyou County,CA,NA,62.239583333333336,NA
80013,Arapahoe County,CO,NA,23.697916666666664,NA
80134,Douglas County,CO,NA,NA,61.417322834645674
80239,Denver County,CO,NA,56.510416666666664,NA
80631,Weld County,CO,NA,28.385416666666668,NA
80634,Weld County,CO,NA,1.8229166666666667,NA
80723,Morgan County,CO,NA,72.91666666666666,NA
81004,Pueblo County,CO,NA,33.33333333333333,NA
81007,Pueblo County,CO,43.75,NA,NA
81122,La Plata County,CO,NA,92.1875,NA
81401,Montrose County,CO,NA,45.05208333333333,NA
06040,Hartford County,CT,NA,NA,25.984251968503933
06043,Tolland County,CT,NA,94.79166666666666,NA
06112,Hartford County,CT,NA,NA,63.38582677165354
06234,Windham County,CT,NA,72.39583333333334,NA
06250,Tolland County,CT,NA,99.47916666666666,NA
06405,New Haven County,CT,40.17857142857143,NA,NA
06489,Hartford County,CT,29.464285714285715,NA,NA
06516,New Haven County,CT,NA,3.3854166666666665,NA
06606,Fairfield County,CT,NA,38.02083333333333,NA
06712,New Haven County,CT,91.51785714285714,NA,NA
06854,Fairfield County,CT,43.30357142857143,NA,NA
19805,New Castle County,DE,1.7857142857142856,10.15625,NA
19947,Sussex County,DE,NA,45.05208333333333,NA
19968,Sussex County,DE,NA,48.4375,NA
32034,Nassau County,FL,NA,NA,15.354330708661418
32092,St. Johns County,FL,NA,44.01041666666667,NA
32119,Volusia County,FL,NA,57.291666666666664,56.69291338582677
32168,Volusia County,FL,NA,39.32291666666667,31.10236220472441
32244,Duval County,FL,NA,11.979166666666668,NA
32401,Bay County,FL,NA,NA,44.881889763779526
32701,Seminole County,FL,NA,71.875,NA
32726,Lake County,FL,NA,52.864583333333336,NA
32771,Seminole County,FL,15.625,NA,NA
32810,Orange County,FL,NA,61.458333333333336,NA
32812,Orange County,FL,NA,NA,24.409448818897637
32962,Indian River County,FL,NA,NA,26.37795275590551
33029,Broward County,FL,NA,NA,92.91338582677166
33042,Monroe County,FL,99.55357142857143,NA,NA
33063,Broward County,FL,NA,NA,10.236220472440944
33066,Broward County,FL,NA,60.677083333333336,18.11023622047244
33068,Broward County,FL,42.857142857142854,NA,NA
33157,Miami-Dade County,FL,NA,NA,20.866141732283463
33160,Miami-Dade County,FL,NA,NA,15.748031496062993
33161,Miami-Dade County,FL,33.92857142857143,NA,NA
33172,Miami-Dade County,FL,83.03571428571429,NA,NA
33180,Miami-Dade County,FL,NA,47.65625,NA
33314,Broward County,FL,71.42857142857143,NA,NA
33317,Broward County,FL,NA,47.91666666666667,NA
33319,Broward County,FL,40.625,NA,NA
33331,Broward County,FL,NA,NA,74.01574803149606
33407,Palm Beach County,FL,28.57142857142857,NA,NA
33483,Palm Beach County,FL,NA,NA,49.21259842519685
33511,Hillsborough County,FL,NA,31.770833333333332,NA
33617,Hillsborough County,FL,NA,38.80208333333333,NA
33618,Hillsborough County,FL,NA,53.125,NA
33702,Pinellas County,FL,NA,65.36458333333334,NA
33703,Pinellas County,FL,NA,NA,57.874015748031496
33803,Polk County,FL,NA,NA,38.976377952755904
33852,Highlands County,FL,61.16071428571429,NA,NA
33912,Lee County,FL,NA,47.39583333333333,NA
33935,Hendry County,FL,NA,NA,83.07086614173228
33976,Lee County,FL,74.10714285714286,NA,NA
33990,Lee County,FL,NA,43.48958333333333,NA
34102,Collier County,FL,NA,NA,55.51181102362205
34135,Lee County,FL,NA,NA,10.62992125984252
34239,Sarasota County,FL,NA,NA,50.39370078740157
34288,Sarasota County,FL,NA,76.04166666666666,NA
34293,Sarasota County,FL,NA,NA,0.7874015748031495
34431,Marion County,FL,NA,86.19791666666666,NA
34471,Marion County,FL,NA,50,NA
34480,Marion County,FL,61.60714285714286,NA,NA
34481,Marion County,FL,NA,65.88541666666666,NA
34609,Hernando County,FL,NA,26.822916666666668,NA
34639,Pasco County,FL,80.35714285714286,NA,NA
34668,Pasco County,FL,9.821428571428571,NA,32.677165354330704
34786,Orange County,FL,NA,53.90625,NA
34950,St. Lucie County,FL,53.57142857142857,NA,NA
34951,St. Lucie County,FL,84.375,NA,94.09448818897637
30016,Newton County,GA,11.160714285714286,NA,NA
30017,Gwinnett County,GA,NA,95.3125,NA
30034,DeKalb County,GA,NA,24.21875,NA
30043,Gwinnett County,GA,20.535714285714285,NA,NA
30087,DeKalb County,GA,NA,22.135416666666664,NA
30088,DeKalb County,GA,37.94642857142857,NA,NA
30189,Cherokee County,GA,53.125,NA,NA
30215,Fayette County,GA,63.83928571428571,NA,NA
30253,Henry County,GA,25.44642857142857,NA,NA
30263,Coweta County,GA,NA,NA,31.88976377952756
30327,Fulton County,GA,NA,72.13541666666666,NA
30337,Fulton County,GA,NA,NA,93.30708661417323
30401,Emanuel County,GA,74.55357142857143,NA,NA
30534,Dawson County,GA,NA,38.54166666666667,NA
30605,Clarke County,GA,NA,NA,66.53543307086615
30906,Richmond County,GA,NA,5.729166666666666,NA
30907,Columbia County,GA,NA,11.458333333333332,NA
31008,Peach County,GA,41.517857142857146,NA,NA
31029,Monroe County,GA,NA,79.6875,NA
31088,Houston County,GA,NA,NA,16.92913385826772
31210,Bibb County,GA,NA,NA,48.031496062992126
31548,Camden County,GA,NA,100,NA
31757,Thomas County,GA,NA,NA,85.43307086614173
31804,Harris County,GA,NA,91.92708333333334,NA
31816,Meriwether County,GA,NA,91.40625,NA
96727,Hawaii County,HI,NA,93.48958333333334,NA
96734,Honolulu County,HI,NA,11.71875,4.724409448818897
96778,Hawaii County,HI,NA,66.66666666666666,NA
96790,Maui County,HI,NA,NA,100
96817,Honolulu County,HI,NA,38.28125,NA
83202,Bannock County,ID,NA,NA,76.37795275590551
83401,Bonneville County,ID,13.839285714285715,NA,52.362204724409445
83703,Ada County,ID,NA,28.90625,NA
83704,Ada County,ID,NA,3.125,NA
60012,McHenry County,IL,NA,NA,66.14173228346458
60016,Cook County,IL,NA,NA,3.149606299212598
60031,Lake County,IL,46.42857142857143,NA,NA
60085,Lake County,IL,NA,34.63541666666667,NA
60148,DuPage County,IL,13.392857142857142,NA,NA
60188,DuPage County,IL,NA,23.958333333333336,NA
60417,Will County,IL,NA,40.88541666666667,NA
60439,Cook County,IL,NA,72.65625,NA
60447,Grundy County,IL,NA,75.26041666666666,NA
60481,Will County,IL,NA,60.15625,NA
60505,Kane County,IL,NA,NA,53.14960629921261
60527,DuPage County,IL,88.83928571428571,NA,NA
60544,Will County,IL,NA,NA,16.535433070866144
60605,Cook County,IL,NA,49.47916666666667,NA
60623,Cook County,IL,NA,12.5,NA
60630,Cook County,IL,NA,14.0625,NA
60632,Cook County,IL,NA,32.8125,NA
60634,Cook County,IL,NA,62.760416666666664,NA
60638,Cook County,IL,7.142857142857142,NA,NA
60707,Cook County,IL,86.16071428571429,NA,NA
60804,Cook County,IL,NA,14.583333333333334,41.338582677165356
60901,Kankakee County,IL,NA,NA,5.905511811023622
61030,Ogle County,IL,NA,99.73958333333334,NA
61115,Winnebago County,IL,NA,31.25,NA
61244,Rock Island County,IL,87.94642857142857,NA,NA
61548,Woodford County,IL,NA,90.10416666666666,NA
61604,Peoria County,IL,NA,NA,14.173228346456693
61874,Champaign County,IL,NA,NA,46.8503937007874
62012,Macoupin County,IL,NA,77.08333333333334,NA
62703,Sangamon County,IL,64.73214285714286,NA,NA
62959,Williamson County,IL,NA,19.53125,NA
46158,Morgan County,IN,NA,NA,21.653543307086615
46205,Marion County,IN,35.267857142857146,NA,NA
46217,Marion County,IN,NA,NA,44.48818897637795
46219,Marion County,IN,75,NA,NA
46241,Marion County,IN,NA,NA,57.08661417322835
46307,Lake County,IN,NA,1.5625,NA
46375,Lake County,IN,NA,81.25,NA
46506,Marshall County,IN,NA,87.23958333333334,NA
46783,Huntington County,IN,NA,85.41666666666666,NA
46902,Howard County,IN,NA,NA,37.79527559055118
47001,Dearborn County,IN,NA,NA,93.7007874015748
47130,Clark County,IN,NA,5.208333333333334,36.61417322834646
47250,Jefferson County,IN,NA,NA,58.661417322834644
47408,Monroe County,IN,NA,NA,79.92125984251969
47635,Spencer County,IN,NA,82.8125,NA
50010,Story County,IA,NA,NA,72.44094488188976
50022,Cass County,IA,NA,NA,71.25984251968504
50023,Polk County,IA,68.75,NA,NA
50111,Polk County,IA,NA,96.875,NA
50125,Warren County,IA,NA,84.89583333333334,NA
50644,Buchanan County,IA,NA,78.64583333333334,NA
50703,Black Hawk County,IA,NA,35.9375,NA
51501,Pottawattamie County,IA,NA,NA,68.11023622047244
52302,Linn County,IA,NA,39.84375,NA
52761,Muscatine County,IA,9.375,NA,NA
66007,Leavenworth County,KS,NA,85.15625,NA
66109,Wyandotte County,KS,NA,NA,69.29133858267717
66208,Johnson County,KS,NA,NA,54.7244094488189
66209,Johnson County,KS,81.25,NA,NA
66441,Geary County,KS,89.28571428571429,NA,NA
66701,Bourbon County,KS,67.41071428571429,NA,NA
67156,Cowley County,KS,NA,NA,81.88976377952756
67207,Sedgwick County,KS,NA,NA,81.49606299212599
67401,Saline County,KS,18.75,NA,NA
67530,Barton County,KS,NA,61.71875,NA
67661,Phillips County,KS,NA,99.21875,NA
40229,Jefferson County,KY,NA,20.572916666666664,NA
40299,Jefferson County,KY,NA,23.177083333333336,NA
40391,Clark County,KY,5.803571428571429,13.802083333333334,NA
40504,Fayette County,KY,NA,NA,49.60629921259843
40514,Fayette County,KY,NA,91.40625,NA
40744,Laurel County,KY,NA,59.635416666666664,NA
41035,Grant County,KY,44.642857142857146,NA,NA
42003,McCracken County,KY,NA,17.447916666666664,NA
42240,Christian County,KY,NA,NA,24.803149606299215
42431,Hopkins County,KY,20.982142857142858,NA,NA
70006,Jefferson Parish,LA,50,NA,30.708661417322837
70084,St. John the Baptist Parish,LA,70.08928571428571,NA,NA
70126,Orleans Parish,LA,NA,NA,19.291338582677163
70435,St. Tammany Parish,LA,NA,NA,70.47244094488188
70452,St. Tammany Parish,LA,NA,37.5,NA
70454,Tangipahoa Parish,LA,NA,NA,34.25196850393701
70726,Livingston Parish,LA,NA,9.375,NA
70774,Ascension Parish,LA,NA,NA,85.8267716535433
70805,East Baton Rouge Parish,LA,NA,NA,62.59842519685039
70817,East Baton Rouge Parish,LA,NA,16.927083333333336,NA
71047,Caddo Parish,LA,NA,NA,89.37007874015748
71106,Caddo Parish,LA,NA,NA,13.779527559055119
71107,Caddo Parish,LA,2.232142857142857,NA,NA
71111,Bossier Parish,LA,NA,14.84375,NA
71291,Ouachita Parish,LA,NA,33.85416666666667,NA
71449,Sabine Parish,LA,73.21428571428571,NA,NA
04043,York County,ME,NA,NA,29.133858267716533
04083,York County,ME,NA,90.36458333333334,NA
04330,Kennebec County,ME,NA,NA,8.267716535433072
04742,Aroostook County,ME,79.91071428571429,NA,NA
20607,Prince George's County,MD,89.73214285714286,NA,NA
20770,Prince George's County,MD,NA,85.67708333333334,NA
20877,Montgomery County,MD,NA,NA,59.84251968503938
21218,Baltimore city,MD,8.482142857142858,NA,NA
21701,Frederick County,MD,NA,NA,43.30708661417323
21703,Frederick County,MD,NA,NA,82.67716535433071
21911,Cecil County,MD,NA,NA,61.811023622047244
01007,Hampshire County,MA,48.660714285714285,NA,NA
01013,Hampden County,MA,NA,15.104166666666666,NA
01035,Hampshire County,MA,NA,98.17708333333334,NA
01060,Hampshire County,MA,NA,NA,68.50393700787401
01220,Berkshire County,MA,NA,44.79166666666667,NA
01230,Berkshire County,MA,NA,54.166666666666664,61.023622047244096
01451,Worcester County,MA,NA,86.97916666666666,NA
01522,Worcester County,MA,100,NA,NA
01720,Middlesex County,MA,NA,36.97916666666667,NA
01775,Middlesex County,MA,NA,NA,87.00787401574803
01913,Essex County,MA,NA,10.416666666666668,NA
01923,Essex County,MA,NA,6.510416666666667,NA
02021,Norfolk County,MA,NA,NA,3.543307086614173
02026,Norfolk County,MA,NA,55.208333333333336,NA
02090,Norfolk County,MA,NA,NA,45.2755905511811
02149,Middlesex County,MA,NA,23.4375,NA
02341,Plymouth County,MA,NA,NA,96.45669291338582
02351,Plymouth County,MA,NA,26.041666666666668,NA
02368,Norfolk County,MA,0,NA,NA
02472,Middlesex County,MA,NA,8.072916666666668,NA
02721,Bristol County,MA,NA,4.6875,NA
02723,Bristol County,MA,NA,NA,30.314960629921263
02744,Bristol County,MA,NA,36.71875,NA
48009,Oakland County,MI,NA,64.58333333333334,NA
48036,Macomb County,MI,NA,30.46875,NA
48071,Oakland County,MI,NA,40.36458333333333,NA
48091,Macomb County,MI,4.910714285714286,NA,NA
48114,Livingston County,MI,NA,NA,96.8503937007874
48127,Wayne County,MI,10.267857142857142,NA,NA
48135,Wayne County,MI,21.428571428571427,26.302083333333332,NA
48141,Wayne County,MI,31.25,NA,NA
48164,Wayne County,MI,NA,73.95833333333334,NA
48168,Wayne County,MI,NA,NA,67.71653543307087
48184,Wayne County,MI,NA,26.5625,NA
48215,Wayne County,MI,NA,55.46875,NA
48227,Wayne County,MI,NA,8.854166666666668,NA
48228,Wayne County,MI,NA,8.333333333333332,74.40944881889764
48235,Wayne County,MI,NA,NA,9.448818897637794
48315,Macomb County,MI,38.392857142857146,NA,NA
48327,Oakland County,MI,NA,NA,51.574803149606296
48382,Oakland County,MI,NA,NA,64.1732283464567
48506,Genesee County,MI,NA,41.92708333333333,NA
48507,Genesee County,MI,7.5892857142857135,NA,NA
48624,Gladwin County,MI,NA,NA,21.25984251968504
48661,Ogemaw County,MI,80.80357142857143,NA,34.645669291338585
48726,Tuscola County,MI,NA,84.11458333333334,NA
48768,Tuscola County,MI,82.14285714285714,NA,NA
49112,Cass County,MI,NA,85.9375,NA
49464,Ottawa County,MI,52.23214285714286,NA,NA
55042,Washington County,MN,97.76785714285714,NA,NA
55076,Dakota County,MN,NA,NA,68.89763779527559
55305,Hennepin County,MN,NA,NA,38.582677165354326
55337,Dakota County,MN,NA,25,NA
55378,Scott County,MN,NA,96.09375,NA
55406,Hennepin County,MN,NA,30.729166666666668,NA
55412,Hennepin County,MN,32.589285714285715,NA,NA
55428,Hennepin County,MN,72.76785714285714,NA,NA
55436,Hennepin County,MN,NA,95.57291666666666,NA
55744,Itasca County,MN,NA,7.552083333333333,NA
56097,Faribault County,MN,NA,98.4375,NA
56308,Douglas County,MN,NA,67.70833333333334,NA
56501,Becker County,MN,NA,29.427083333333332,NA
38668,Tate County,MS,75.44642857142857,NA,NA
38671,DeSoto County,MS,NA,83.07291666666666,NA
38863,Pontotoc County,MS,NA,NA,48.818897637795274
39095,Holmes County,MS,86.60714285714286,NA,NA
39170,Hinds County,MS,NA,88.54166666666666,NA
39307,Lauderdale County,MS,NA,NA,72.04724409448819
39705,Lowndes County,MS,NA,82.55208333333334,NA
63017,St. Louis County,MO,NA,46.875,NA
63042,St. Louis County,MO,45.089285714285715,NA,NA
63050,Jefferson County,MO,NA,NA,85.03937007874016
63106,St. Louis city,MO,78.57142857142857,NA,NA
63107,St. Louis city,MO,68.30357142857143,NA,NA
63114,St. Louis County,MO,23.660714285714285,NA,NA
63122,St. Louis County,MO,NA,25.520833333333332,NA
64012,Cass County,MO,NA,27.864583333333332,NA
64030,Jackson County,MO,NA,18.75,NA
64060,Clay County,MO,NA,67.44791666666666,NA
64075,Jackson County,MO,NA,69.01041666666666,NA
64086,Jackson County,MO,NA,74.73958333333334,NA
64108,Jackson County,MO,NA,65.36458333333334,NA
64114,Jackson County,MO,NA,NA,35.826771653543304
64132,Jackson County,MO,NA,NA,80.31496062992126
64507,Buchanan County,MO,24.553571428571427,NA,NA
64836,Jasper County,MO,NA,32.03125,13.385826771653544
64850,Newton County,MO,NA,NA,22.440944881889763
65037,Morgan County,MO,93.30357142857143,NA,NA
65201,Boone County,MO,NA,65.10416666666666,NA
65240,Boone County,MO,98.66071428571429,NA,NA
65714,Christian County,MO,NA,48.69791666666667,NA
65738,Greene County,MO,NA,79.94791666666666,NA
65803,Greene County,MO,NA,NA,19.68503937007874
65804,Greene County,MO,NA,38.80208333333333,NA
68845,Buffalo County,NE,85.26785714285714,NA,71.25984251968504
69301,Box Butte County,NE,88.39285714285714,NA,NA
89108,Clark County,NV,NA,NA,38.188976377952756
89410,Douglas County,NV,NA,34.89583333333333,NA
89436,Washoe County,NV,21.875,NA,NA
03841,Rockingham County,NH,NA,NA,90.5511811023622
03842,Rockingham County,NH,NA,87.76041666666666,NA
03848,Rockingham County,NH,NA,NA,99.21259842519686
03868,Strafford County,NH,95.53571428571429,NA,NA
03885,Rockingham County,NH,NA,NA,99.60629921259843
07004,Essex County,NJ,NA,94.27083333333334,NA
07090,Union County,NJ,NA,NA,46.45669291338583
07095,Middlesex County,NJ,37.5,NA,NA
07652,Bergen County,NJ,NA,27.604166666666668,NA
07712,Monmouth County,NJ,NA,5.989583333333334,NA
08005,Ocean County,NJ,NA,34.89583333333333,NA
08021,Camden County,NJ,NA,8.59375,NA
08052,Burlington County,NJ,26.785714285714285,NA,NA
08204,Cape May County,NJ,NA,22.395833333333336,NA
08332,Cumberland County,NJ,NA,18.229166666666664,NA
08360,Cumberland County,NJ,NA,9.635416666666668,NA
08753,Ocean County,NJ,NA,3.90625,NA
08807,Somerset County,NJ,28.125,NA,NA
08854,Middlesex County,NJ,NA,13.020833333333334,NA
08863,Middlesex County,NJ,NA,NA,87.79527559055119
08872,Middlesex County,NJ,57.58928571428571,NA,NA
87002,Valencia County,NM,48.214285714285715,NA,NA
87109,Bernalillo County,NM,16.517857142857142,16.40625,NA
87111,Bernalillo County,NM,NA,NA,1.574803149606299
88203,Chaves County,NM,NA,NA,58.26771653543307
10031,New York County,NY,NA,16.145833333333336,NA
10305,Richmond County,NY,NA,56.25,NA
10457,Bronx County,NY,NA,0.26041666666666663,NA
10458,Bronx County,NY,NA,NA,57.48031496062992
10470,Bronx County,NY,NA,64.0625,NA
11106,Queens County,NY,NA,63.28125,NA
11203,Kings County,NY,NA,NA,3.937007874015748
11204,Kings County,NY,NA,NA,37.40157480314961
11233,Kings County,NY,NA,NA,5.118110236220472
11377,Queens County,NY,NA,54.166666666666664,NA
11559,Nassau County,NY,NA,88.28125,NA
11581,Nassau County,NY,NA,87.5,NA
11704,Suffolk County,NY,NA,NA,28.74015748031496
11743,Suffolk County,NY,NA,53.645833333333336,NA
11762,Nassau County,NY,NA,NA,44.09448818897638
11795,Suffolk County,NY,NA,73.4375,NA
11937,Suffolk County,NY,NA,89.32291666666666,NA
11971,Suffolk County,NY,NA,NA,98.4251968503937
12122,Schoharie County,NY,NA,NA,82.28346456692913
12211,Albany County,NY,NA,75,NA
12839,Washington County,NY,NA,51.041666666666664,NA
12946,Essex County,NY,NA,62.5,NA
13088,Onondaga County,NY,25.892857142857146,NA,NA
13090,Onondaga County,NY,NA,30.989583333333332,NA
13101,Cortland County,NY,94.64285714285714,NA,NA
13601,Jefferson County,NY,NA,18.75,NA
13905,Broome County,NY,NA,4.427083333333334,NA
14223,Erie County,NY,62.5,NA,NA
14225,Erie County,NY,NA,55.989583333333336,NA
14519,Wayne County,NY,NA,29.947916666666668,NA
14580,Monroe County,NY,5.357142857142857,NA,NA
14608,Monroe County,NY,10.714285714285714,NA,NA
14624,Monroe County,NY,NA,2.083333333333333,NA
27045,Forsyth County,NC,NA,83.85416666666666,NA
27106,Forsyth County,NC,NA,2.864583333333333,NA
27253,Alamance County,NC,15.178571428571427,NA,NA
27298,Randolph County,NC,NA,95.05208333333334,NA
27330,Lee County,NC,NA,25.78125,NA
27405,Guilford County,NC,NA,NA,22.04724409448819
27944,Perquimans County,NC,NA,54.6875,NA
28081,Cabarrus County,NC,19.642857142857142,NA,NA
28138,Rowan County,NC,NA,NA,92.51968503937007
28334,Sampson County,NC,26.339285714285715,NA,NA
28374,Moore County,NC,NA,80.98958333333334,NA
28451,Brunswick County,NC,NA,25.260416666666668,NA
28461,Brunswick County,NC,NA,7.8125,NA
28462,Brunswick County,NC,NA,86.71875,NA
28540,Onslow County,NC,NA,28.645833333333332,NA
28551,Lenoir County,NC,NA,NA,84.25196850393701
28605,Watauga County,NC,NA,84.375,NA
28655,Burke County,NC,NA,NA,4.330708661417323
28659,Wilkes County,NC,NA,30.208333333333332,NA
28721,Haywood County,NC,77.67857142857143,NA,NA
28786,Haywood County,NC,NA,19.270833333333336,NA
58103,Cass County,ND,NA,NA,0.39370078740157477
43026,Franklin County,OH,NA,20.833333333333336,NA
43055,Licking County,OH,49.55357142857143,0.78125,NA
43068,Franklin County,OH,NA,10.9375,NA
43119,Franklin County,OH,NA,52.604166666666664,NA
43138,Hocking County,OH,NA,NA,37.00787401574803
43229,Franklin County,OH,NA,41.66666666666667,NA
43232,Franklin County,OH,NA,15.625,NA
43302,Marion County,OH,NA,NA,27.559055118110237
43526,Defiance County,OH,NA,90.625,NA
43537,Lucas County,OH,27.67857142857143,50.260416666666664,27.165354330708663
43560,Lucas County,OH,NA,NA,23.228346456692915
43571,Lucas County,OH,NA,79.16666666666666,NA
43604,Lucas County,OH,NA,57.552083333333336,NA
43616,Lucas County,OH,75.89285714285714,NA,18.89763779527559
43619,Wood County,OH,NA,NA,90.94488188976378
44001,Lorain County,OH,NA,NA,2.3622047244094486
44004,Ashtabula County,OH,0.4464285714285714,2.604166666666667,NA
44012,Lorain County,OH,NA,7.291666666666667,NA
44035,Lorain County,OH,1.3392857142857142,NA,NA
44047,Ashtabula County,OH,39.285714285714285,NA,NA
44055,Lorain County,OH,NA,20.052083333333336,NA
44060,Lake County,OH,NA,0.5208333333333333,NA
44074,Lorain County,OH,NA,50.520833333333336,NA
44103,Cuyahoga County,OH,NA,13.541666666666666,NA
44125,Cuyahoga County,OH,NA,42.70833333333333,NA
44139,Cuyahoga County,OH,NA,14.322916666666666,NA
44145,Cuyahoga County,OH,NA,4.166666666666666,NA
44146,Cuyahoga County,OH,NA,1.3020833333333335,NA
44223,Summit County,OH,NA,NA,39.37007874015748
44236,Summit County,OH,NA,NA,41.732283464566926
44256,Medina County,OH,2.6785714285714284,NA,NA
44446,Trumbull County,OH,11.607142857142858,NA,NA
44509,Mahoning County,OH,NA,74.21875,NA
44512,Mahoning County,OH,NA,NA,14.566929133858267
44515,Mahoning County,OH,8.035714285714286,12.239583333333332,NA
44632,Stark County,OH,NA,NA,80.70866141732283
44641,Stark County,OH,NA,NA,29.92125984251969
44657,Stark County,OH,NA,64.84375,NA
44672,Mahoning County,OH,87.5,NA,NA
45030,Hamilton County,OH,NA,82.03125,NA
45039,Warren County,OH,NA,66.40625,NA
45103,Clermont County,OH,NA,24.479166666666664,NA
45140,Clermont County,OH,22.321428571428573,16.666666666666664,NA
45225,Hamilton County,OH,69.64285714285714,NA,NA
45237,Hamilton County,OH,NA,76.30208333333334,NA
45244,Hamilton County,OH,50.89285714285714,NA,NA
45247,Hamilton County,OH,NA,NA,28.346456692913385
45420,Montgomery County,OH,NA,43.75,NA
45430,Greene County,OH,91.07142857142857,NA,NA
45434,Greene County,OH,NA,71.09375,NA
45459,Montgomery County,OH,NA,NA,14.960629921259844
45601,Ross County,OH,NA,0,NA
45628,Ross County,OH,NA,98.95833333333334,NA
45640,Jackson County,OH,NA,6.770833333333333,NA
45840,Hancock County,OH,0.8928571428571428,NA,NA
73030,Murray County,OK,85.71428571428571,NA,NA
73601,Custer County,OK,65.17857142857143,NA,NA
74021,Tulsa County,OK,NA,NA,83.85826771653542
74075,Payne County,OK,62.05357142857143,NA,NA
74136,Tulsa County,OK,56.69642857142857,NA,NA
97080,Multnomah County,OR,23.214285714285715,NA,NA
97103,Clatsop County,OR,NA,78.38541666666666,NA
97116,Washington County,OR,47.32142857142857,NA,NA
97201,Multnomah County,OR,92.41071428571429,NA,NA
97205,Multnomah County,OR,NA,NA,91.73228346456693
97236,Multnomah County,OR,18.303571428571427,NA,NA
97322,Linn County,OR,12.053571428571429,NA,NA
97446,Linn County,OR,NA,97.65625,NA
97477,Lane County,OR,NA,33.07291666666667,NA
15136,Allegheny County,PA,NA,40.625,NA
15201,Allegheny County,PA,NA,NA,75.59055118110236
15212,Allegheny County,PA,NA,42.44791666666667,NA
15236,Allegheny County,PA,NA,NA,7.480314960629922
15656,Westmoreland County,PA,NA,NA,77.16535433070865
15701,Indiana County,PA,NA,NA,11.41732283464567
16101,Lawrence County,PA,4.464285714285714,NA,NA
16148,Mercer County,PA,NA,NA,2.7559055118110236
16830,Clearfield County,PA,NA,68.22916666666666,NA
17034,Dauphin County,PA,NA,98.69791666666666,NA
17046,Lebanon County,PA,NA,63.802083333333336,NA
17104,Dauphin County,PA,70.53571428571429,NA,NA
17111,Dauphin County,PA,14.285714285714285,37.23958333333333,NA
17202,Franklin County,PA,NA,56.770833333333336,NA
17257,Cumberland County,PA,22.767857142857142,NA,NA
17340,Adams County,PA,73.66071428571429,NA,NA
17404,York County,PA,NA,NA,11.811023622047244
17501,Lancaster County,PA,NA,NA,90.15748031496062
17543,Lancaster County,PA,NA,97.91666666666666,NA
17554,Lancaster County,PA,84.82142857142857,NA,NA
18015,Northampton County,PA,6.25,NA,NA
18049,Lehigh County,PA,NA,NA,70.86614173228347
18102,Lehigh County,PA,NA,NA,20.47244094488189
18103,Lehigh County,PA,NA,NA,5.511811023622047
18104,Lehigh County,PA,NA,NA,1.1811023622047243
18235,Carbon County,PA,NA,32.55208333333333,NA
18644,Luzerne County,PA,NA,68.48958333333334,NA
18705,Luzerne County,PA,NA,NA,65.35433070866141
18901,Bucks County,PA,NA,NA,7.874015748031496
18914,Bucks County,PA,NA,61.197916666666664,NA
19027,Montgomery County,PA,77.23214285714286,NA,NA
19041,Delaware County,PA,NA,NA,78.74015748031496
19046,Montgomery County,PA,NA,NA,39.76377952755906
19057,Bucks County,PA,NA,69.27083333333334,NA
19064,Delaware County,PA,36.160714285714285,NA,NA
19067,Bucks County,PA,16.964285714285715,NA,NA
19090,Montgomery County,PA,NA,48.69791666666667,NA
19115,Philadelphia County,PA,17.410714285714285,NA,NA
19130,Philadelphia County,PA,NA,NA,54.7244094488189
19134,Philadelphia County,PA,NA,NA,46.06299212598425
19136,Philadelphia County,PA,NA,NA,42.51968503937008
19139,Philadelphia County,PA,3.125,NA,NA
19140,Philadelphia County,PA,NA,9.895833333333332,NA
19141,Philadelphia County,PA,NA,17.96875,NA
19142,Philadelphia County,PA,NA,NA,56.2992125984252
19154,Philadelphia County,PA,NA,NA,32.28346456692913
19380,Chester County,PA,NA,5.46875,NA
19382,Chester County,PA,12.946428571428573,NA,NA
19403,Montgomery County,PA,NA,5.989583333333334,NA
19464,Montgomery County,PA,4.017857142857143,NA,NA
19604,Berks County,PA,NA,93.75,NA
02871,Newport County,RI,NA,42.1875,NA
02888,Kent County,RI,47.767857142857146,NA,NA
02909,Providence County,RI,17.857142857142858,NA,NA
29016,Richland County,SC,NA,76.30208333333334,NA
29150,Sumter County,SC,34.375,NA,NA
29170,Lexington County,SC,NA,77.86458333333334,NA
29203,Richland County,SC,NA,21.354166666666664,NA
29212,Lexington County,SC,NA,NA,53.54330708661418
29229,Richland County,SC,NA,59.375,NA
29323,Spartanburg County,SC,NA,52.34375,NA
29325,Laurens County,SC,54.91071428571429,NA,NA
29407,Charleston County,SC,NA,13.28125,NA
29410,Berkeley County,SC,NA,73.69791666666666,NA
29420,Dorchester County,SC,45.535714285714285,NA,NA
29440,Georgetown County,SC,44.19642857142857,NA,NA
29445,Berkeley County,SC,NA,28.125,NA
29449,Charleston County,SC,NA,76.82291666666666,NA
29485,Dorchester County,SC,NA,34.375,NA
29492,Berkeley County,SC,NA,83.33333333333334,NA
29501,Florence County,SC,NA,17.708333333333336,NA
29588,Horry County,SC,NA,11.197916666666668,NA
29615,Greenville County,SC,NA,41.40625,NA
29625,Anderson County,SC,30.80357142857143,NA,NA
29649,Greenwood County,SC,66.07142857142857,NA,NA
29651,Greenville County,SC,NA,NA,18.503937007874015
29672,Oconee County,SC,NA,70.3125,NA
29707,Lancaster County,SC,NA,NA,22.83464566929134
29801,Aiken County,SC,NA,49.21875,NA
29851,Aiken County,SC,94.19642857142857,NA,NA
57104,Minnehaha County,SD,NA,NA,12.204724409448819
37042,Montgomery County,TN,NA,NA,54.330708661417326
37091,Marshall County,TN,36.607142857142854,NA,NA
37130,Rutherford County,TN,NA,NA,40.55118110236221
37138,Davidson County,TN,NA,NA,66.92913385826772
37206,Davidson County,TN,NA,44.27083333333333,NA
37412,Hamilton County,TN,51.33928571428571,NA,86.22047244094489
37601,Washington County,TN,NA,NA,27.95275590551181
37615,Washington County,TN,60.26785714285714,NA,NA
37660,Sullivan County,TN,NA,NA,7.086614173228346
37766,Campbell County,TN,NA,NA,35.039370078740156
37863,Sevier County,TN,NA,86.45833333333334,NA
38058,Tipton County,TN,NA,96.61458333333334,NA
38109,Shelby County,TN,8.928571428571429,NA,NA
38125,Shelby County,TN,NA,NA,86.61417322834646
38320,Benton County,TN,76.78571428571429,NA,NA
75020,Grayson County,TX,NA,40.10416666666667,NA
75041,Dallas County,TX,NA,71.61458333333334,NA
75044,Dallas County,TX,NA,NA,65.74803149606299
75116,Dallas County,TX,NA,NA,88.9763779527559
75165,Ellis County,TX,NA,NA,24.015748031496063
75220,Dallas County,TX,NA,77.34375,NA
75228,Dallas County,TX,NA,NA,25.196850393700785
75235,Dallas County,TX,NA,69.79166666666666,NA
75248,Dallas County,TX,NA,NA,75.19685039370079
75252,Collin County,TX,NA,NA,84.64566929133859
75409,Collin County,TX,NA,NA,98.81889763779527
75410,Wood County,TX,NA,81.51041666666666,NA
75455,Titus County,TX,NA,50.78125,52.75590551181102
75551,Cass County,TX,82.58928571428571,NA,NA
75657,Marion County,TX,NA,91.14583333333334,NA
75662,Gregg County,TX,52.67857142857143,NA,NA
75702,Smith County,TX,35.714285714285715,NA,NA
75706,Smith County,TX,NA,70.57291666666666,NA
75754,Van Zandt County,TX,NA,NA,83.07086614173228
75791,Smith County,TX,NA,46.35416666666667,NA
75862,Trinity County,TX,NA,80.72916666666666,NA
76031,Johnson County,TX,NA,55.729166666666664,77.55905511811024
76087,Parker County,TX,NA,NA,63.77952755905512
76131,Tarrant County,TX,49.107142857142854,NA,NA
76208,Denton County,TX,NA,51.302083333333336,NA
76543,Bell County,TX,NA,20.3125,NA
76691,McLennan County,TX,NA,90.88541666666666,NA
76904,Tom Green County,TX,NA,NA,31.496062992125985
77018,Harris County,TX,42.410714285714285,NA,NA
77022,Harris County,TX,96.875,NA,NA
77032,Harris County,TX,81.69642857142857,NA,NA
77040,Harris County,TX,NA,NA,59.4488188976378
77042,Harris County,TX,NA,70.83333333333334,NA
77057,Harris County,TX,71.875,NA,NA
77064,Harris County,TX,NA,44.53125,NA
77065,Harris County,TX,NA,45.83333333333333,NA
77083,Harris County,TX,NA,29.6875,NA
77328,San Jacinto County,TX,NA,83.59375,NA
77377,Harris County,TX,NA,NA,51.181102362204726
77493,Harris County,TX,62.94642857142857,NA,73.22834645669292
77498,Fort Bend County,TX,NA,81.77083333333334,NA
77523,Chambers County,TX,NA,67.96875,NA
77541,Brazoria County,TX,NA,59.635416666666664,NA
77566,Brazoria County,TX,51.78571428571429,NA,NA
77581,Brazoria County,TX,NA,21.875,NA
77642,Jefferson County,TX,NA,NA,53.937007874015755
77963,Goliad County,TX,NA,89.0625,NA
78043,Webb County,TX,39.732142857142854,NA,33.46456692913386
78207,Bexar County,TX,NA,15.885416666666666,NA
78414,Nueces County,TX,NA,NA,88.18897637795276
78577,Hidalgo County,TX,NA,NA,9.84251968503937
78644,Caldwell County,TX,70.98214285714286,NA,NA
78840,Val Verde County,TX,NA,NA,6.299212598425196
79121,Randall County,TX,NA,96.35416666666666,NA
79416,Lubbock County,TX,NA,92.70833333333334,NA
79720,Howard County,TX,NA,NA,55.90551181102362
79927,El Paso County,TX,NA,NA,64.56692913385827
84009,Salt Lake County,UT,NA,63.020833333333336,NA
84041,Davis County,UT,NA,NA,78.34645669291339
84102,Salt Lake County,UT,NA,NA,76.77165354330708
84107,Salt Lake County,UT,NA,NA,33.07086614173229
84109,Salt Lake County,UT,66.51785714285714,NA,NA
84115,Salt Lake County,UT,NA,NA,59.84251968503938
84117,Salt Lake County,UT,NA,NA,36.22047244094488
84121,Salt Lake County,UT,38.839285714285715,NA,NA
84128,Salt Lake County,UT,37.05357142857143,NA,NA
84321,Cache County,UT,69.19642857142857,NA,NA
20105,Loudoun County,VA,NA,92.96875,NA
20111,Prince William County,VA,NA,NA,79.52755905511812
20147,Loudoun County,VA,NA,NA,11.023622047244094
22003,Fairfax County,VA,29.017857142857146,NA,NA
22039,Fairfax County,VA,NA,77.86458333333334,NA
22191,Prince William County,VA,NA,34.11458333333333,NA
22473,Northumberland County,VA,NA,NA,94.88188976377953
22602,Frederick County,VA,NA,58.072916666666664,NA
22902,Charlottesville city,VA,NA,89.84375,NA
22960,Orange County,VA,NA,NA,70.07874015748031
23005,Hanover County,VA,76.33928571428571,NA,NA
23103,Goochland County,VA,NA,NA,97.24409448818898
23112,Chesterfield County,VA,41.07142857142857,NA,NA
23188,James City County,VA,NA,NA,0
23223,Henrico County,VA,NA,12.760416666666666,NA
23233,Henrico County,VA,NA,72.91666666666666,NA
23324,Chesapeake city,VA,NA,59.114583333333336,40.15748031496063
23452,Virginia Beach city,VA,NA,9.114583333333332,NA
23508,Norfolk city,VA,NA,66.92708333333334,NA
23701,Portsmouth city,VA,NA,24.739583333333336,NA
24015,Roanoke city,VA,NA,NA,77.95275590551181
24153,Salem city,VA,NA,NA,17.716535433070867
24210,Washington County,VA,NA,NA,47.24409448818898
24421,Augusta County,VA,NA,84.63541666666666,NA
24440,Augusta County,VA,97.32142857142857,NA,NA
24450,Rockbridge County,VA,NA,58.333333333333336,NA
24558,Halifax County,VA,72.32142857142857,NA,NA
98023,King County,WA,NA,15.364583333333334,NA
98052,King County,WA,NA,21.09375,12.992125984251967
98053,King County,WA,NA,NA,92.1259842519685
98092,King County,WA,NA,18.489583333333336,NA
98115,King County,WA,34.82142857142857,NA,NA
98208,Snohomish County,WA,19.196428571428573,NA,NA
98236,Island County,WA,98.21428571428571,NA,NA
98277,Island County,WA,NA,NA,95.66929133858267
98338,Pierce County,WA,NA,37.76041666666667,NA
98339,Jefferson County,WA,NA,89.32291666666666,NA
97003,NA,NA,NA,71.35416666666666,NA
98354,Pierce County,WA,90.625,NA,NA
98372,Pierce County,WA,NA,61.979166666666664,NA
98373,Pierce County,WA,NA,NA,75.98425196850394
98405,Pierce County,WA,NA,NA,72.83464566929135
98520,Grays Harbor County,WA,63.39285714285714,NA,NA
98625,Cowlitz County,WA,NA,94.53125,NA
98632,Cowlitz County,WA,NA,4.947916666666666,NA
99022,Spokane County,WA,95.08928571428571,NA,NA
99218,Spokane County,WA,NA,NA,94.48818897637796
99224,Spokane County,WA,NA,74.47916666666666,NA
99336,Benton County,WA,NA,1.0416666666666665,NA
20020,District of Columbia,DC,NA,36.45833333333333,NA
25701,Cabell County,WV,NA,17.1875,NA
26003,Ohio County,WV,NA,2.34375,NA
26181,Wood County,WV,NA,NA,89.76377952755905
26508,Monongalia County,WV,3.571428571428571,NA,NA
53081,Sheboygan County,WI,14.732142857142858,NA,NA
53143,Kenosha County,WI,NA,32.29166666666667,NA
53149,Waukesha County,WI,95.98214285714286,NA,NA
53172,Milwaukee County,WI,NA,43.22916666666667,NA
53185,Racine County,WI,59.375,NA,NA
53205,Milwaukee County,WI,NA,49.73958333333333,NA
53227,Milwaukee County,WI,NA,NA,17.322834645669293
53405,Racine County,WI,NA,3.6458333333333335,NA
53590,Dane County,WI,NA,45.57291666666667,NA
54115,Brown County,WI,NA,88.80208333333334,NA
54140,Outagamie County,WI,90.17857142857143,NA,NA
54143,Marinette County,WI,NA,NA,43.7007874015748
54302,Brown County,WI,24.107142857142858,NA,NA
54729,Chippewa County,WI,NA,21.614583333333336,NA
