ZipCode,county,state,Adult,Retirement,Geriatric
35007,Shelby County,AL,NA,38.22152886115445,NA
35054,St. Clair County,AL,NA,NA,88.9763779527559
35062,Jefferson County,AL,94.34782608695652,NA,NA
35077,Cullman County,AL,NA,67.86271450858035,72.83464566929135
35094,Jefferson County,AL,NA,66.30265210608425,NA
35096,Talladega County,AL,86.73913043478261,NA,NA
35120,St. Clair County,AL,NA,NA,98.4251968503937
35213,Jefferson County,AL,NA,65.83463338533542,NA
35214,Jefferson County,AL,NA,NA,72.44094488188976
35226,Jefferson County,AL,47.391304347826086,NA,NA
35244,Jefferson County,AL,NA,41.18564742589704,NA
35462,Greene County,AL,NA,NA,90.15748031496062
35555,Fayette County,AL,65.43478260869566,NA,NA
35594,Marion County,AL,NA,76.5990639625585,NA
35633,Lauderdale County,AL,54.565217391304344,NA,NA
35650,Lawrence County,AL,NA,NA,42.71653543307087
35754,Morgan County,AL,NA,92.04368174726989,NA
35954,Etowah County,AL,NA,56.31825273010921,NA
36027,Barbour County,AL,NA,83.77535101404057,NA
36091,Chilton County,AL,NA,95.47581903276131,NA
36111,Montgomery County,AL,NA,95.63182527301092,NA
36117,Montgomery County,AL,NA,38.68954758190328,NA
36206,Calhoun County,AL,73.04347826086956,NA,NA
36303,Houston County,AL,NA,NA,52.95275590551181
36330,Coffee County,AL,NA,36.817472698907956,NA
36344,Geneva County,AL,NA,NA,85.8267716535433
36477,Geneva County,AL,NA,92.51170046801872,NA
36507,Baldwin County,AL,41.30434782608695,NA,NA
36535,Baldwin County,AL,44.34782608695652,NA,NA
36784,Clarke County,AL,NA,NA,96.45669291338582
36801,Lee County,AL,NA,64.1185647425897,NA
36804,Lee County,AL,NA,NA,98.81889763779527
36867,Russell County,AL,69.78260869565217,NA,NA
99504,Anchorage Municipality,AK,25,NA,NA
99645,Matanuska-Susitna Borough,AK,NA,NA,97.83464566929135
99669,Kenai Peninsula Borough,AK,NA,56.47425897035882,NA
99901,Ketchikan Gateway Borough,AK,NA,NA,71.8503937007874
85009,Maricopa County,AZ,NA,26.833073322932915,NA
85014,Maricopa County,AZ,74.34782608695653,NA,NA
85016,Maricopa County,AZ,43.913043478260875,NA,NA
85022,Maricopa County,AZ,71.30434782608695,NA,NA
85050,Maricopa County,AZ,NA,94.22776911076443,NA
85083,Maricopa County,AZ,78.69565217391305,NA,NA
85119,Pinal County,AZ,70,NA,NA
85122,Pinal County,AZ,NA,13.260530421216849,NA
85203,Maricopa County,AZ,NA,50.858034321372855,NA
85262,Maricopa County,AZ,NA,73.94695787831513,NA
85286,Maricopa County,AZ,NA,NA,91.73228346456693
85364,Yuma County,AZ,NA,3.1201248049921997,NA
85373,Maricopa County,AZ,NA,NA,21.456692913385826
85374,Maricopa County,AZ,NA,NA,6.102362204724409
85375,Maricopa County,AZ,NA,22.620904836193446,0.984251968503937
85390,Maricopa County,AZ,NA,65.6786271450858,NA
85603,Cochise County,AZ,NA,75.35101404056162,NA
85650,Cochise County,AZ,NA,83.61934477379094,NA
85710,Pima County,AZ,11.304347826086957,NA,NA
85712,Pima County,AZ,NA,NA,45.86614173228347
85718,Pima County,AZ,NA,20.12480499219969,NA
85742,Pima County,AZ,NA,NA,57.874015748031496
86301,Yavapai County,AZ,NA,29.95319812792512,NA
86303,Yavapai County,AZ,NA,NA,53.34645669291339
86314,Yavapai County,AZ,66.52173913043478,NA,NA
86336,Yavapai County,AZ,NA,NA,68.89763779527559
71667,Lincoln County,AR,83.69565217391305,NA,NA
71753,Columbia County,AR,NA,66.92667706708268,NA
71854,Miller County,AR,NA,NA,35.23622047244094
71913,Garland County,AR,NA,NA,47.63779527559055
71923,Clark County,AR,NA,NA,59.645669291338585
72002,Saline County,AR,NA,72.38689547581903,NA
72024,Lonoke County,AR,NA,99.84399375975039,NA
72031,Van Buren County,AR,NA,92.35569422776912,NA
72315,Mississippi County,AR,NA,47.737909516380654,NA
72455,Randolph County,AR,NA,NA,85.62992125984252
72701,Washington County,AR,64.78260869565217,NA,NA
72756,Benton County,AR,60.21739130434782,36.193447737909516,NA
90013,Los Angeles County,CA,NA,65.05460218408736,NA
90020,Los Angeles County,CA,97.60869565217392,NA,NA
90062,Los Angeles County,CA,NA,NA,56.496062992125985
90065,Los Angeles County,CA,55.00000000000001,NA,NA
90210,Los Angeles County,CA,NA,NA,22.63779527559055
90212,Los Angeles County,CA,NA,NA,66.14173228346458
90260,Los Angeles County,CA,NA,70.3588143525741,NA
90266,Los Angeles County,CA,84.1304347826087,NA,NA
90275,Los Angeles County,CA,57.608695652173914,NA,NA
90278,Los Angeles County,CA,NA,54.44617784711389,NA
90405,Los Angeles County,CA,NA,55.07020280811232,NA
90604,Los Angeles County,CA,NA,NA,33.661417322834644
90605,Los Angeles County,CA,56.086956521739125,NA,NA
90631,Orange County,CA,NA,17.94071762870515,NA
90803,Los Angeles County,CA,NA,47.113884555382214,NA
90806,Los Angeles County,CA,55.434782608695656,NA,NA
90810,Los Angeles County,CA,58.69565217391305,NA,NA
91104,Los Angeles County,CA,NA,52.106084243369736,NA
91207,Los Angeles County,CA,NA,NA,73.4251968503937
91301,Los Angeles County,CA,NA,NA,88.58267716535433
91316,Los Angeles County,CA,NA,53.97815912636506,NA
91326,Los Angeles County,CA,66.08695652173913,NA,NA
91343,Los Angeles County,CA,51.08695652173913,NA,NA
91765,Los Angeles County,CA,NA,81.2792511700468,NA
91789,Los Angeles County,CA,NA,NA,54.52755905511811
91790,Los Angeles County,CA,52.17391304347826,NA,NA
91791,Los Angeles County,CA,NA,48.517940717628704,NA
91902,San Diego County,CA,NA,82.37129485179408,NA
91911,San Diego County,CA,56.30434782608695,NA,NA
91941,San Diego County,CA,NA,45.86583463338533,NA
91942,San Diego County,CA,NA,NA,28.543307086614174
91950,San Diego County,CA,NA,35.257410296411855,17.716535433070867
92024,San Diego County,CA,NA,NA,33.46456692913386
92037,San Diego County,CA,NA,NA,26.37795275590551
92067,San Diego County,CA,NA,NA,63.38582677165354
92101,San Diego County,CA,NA,10.29641185647426,NA
92111,San Diego County,CA,53.91304347826087,NA,30.314960629921263
92241,Riverside County,CA,95,NA,NA
92284,San Bernardino County,CA,NA,27.92511700468019,NA
92335,San Bernardino County,CA,87.82608695652175,NA,NA
92411,San Bernardino County,CA,NA,73.79095163806552,NA
92506,Riverside County,CA,NA,42.27769110764431,NA
92532,Riverside County,CA,71.08695652173913,NA,NA
92536,Riverside County,CA,NA,99.06396255850234,NA
92549,Riverside County,CA,NA,95.3198127925117,NA
92563,Riverside County,CA,NA,NA,43.30708661417323
92592,Riverside County,CA,NA,29.17316692667707,NA
92604,Orange County,CA,NA,63.18252730109204,NA
92606,Orange County,CA,92.6086956521739,NA,NA
92618,Orange County,CA,62.82608695652174,NA,NA
92646,Orange County,CA,NA,58.81435257410297,NA
92647,Orange County,CA,NA,NA,16.338582677165352
92651,Orange County,CA,81.52173913043478,NA,NA
92656,Orange County,CA,35.434782608695656,NA,83.66141732283464
92688,Orange County,CA,38.47826086956522,NA,NA
92691,Orange County,CA,NA,NA,78.74015748031496
92692,Orange County,CA,NA,24.804992199687987,NA
92708,Orange County,CA,NA,15.912636505460217,NA
92821,Orange County,CA,NA,NA,68.30708661417323
92831,Orange County,CA,NA,43.8377535101404,NA
92869,Orange County,CA,NA,47.581903276131044,49.01574803149607
92881,Riverside County,CA,NA,73.94695787831513,NA
93001,Ventura County,CA,NA,31.045241809672387,NA
93063,Ventura County,CA,68.69565217391305,NA,NA
93230,Kings County,CA,NA,49.453978159126365,NA
93274,Tulare County,CA,NA,19.34477379095164,NA
93292,Tulare County,CA,NA,69.26677067082684,NA
93422,San Luis Obispo County,CA,46.52173913043478,NA,NA
93455,Santa Barbara County,CA,NA,NA,14.960629921259844
93552,Los Angeles County,CA,NA,75.81903276131045,NA
93644,Madera County,CA,NA,NA,92.91338582677166
93706,Fresno County,CA,26.304347826086953,NA,84.4488188976378
93933,Monterey County,CA,NA,75.97503900156006,NA
94027,San Mateo County,CA,NA,97.19188767550702,NA
94043,Santa Clara County,CA,NA,68.79875195007801,NA
94044,San Mateo County,CA,NA,NA,43.110236220472444
94080,San Mateo County,CA,NA,NA,3.149606299212598
94087,Santa Clara County,CA,NA,49.765990639625585,NA
94112,San Francisco County,CA,NA,6.86427457098284,45.2755905511811
94121,San Francisco County,CA,NA,NA,44.881889763779526
94124,San Francisco County,CA,NA,21.528861154446176,NA
94133,San Francisco County,CA,NA,NA,30.708661417322837
94404,San Mateo County,CA,71.95652173913044,NA,NA
94505,Contra Costa County,CA,NA,82.21528861154445,NA
94506,Contra Costa County,CA,NA,NA,81.69291338582677
94507,Contra Costa County,CA,NA,71.9188767550702,NA
94517,Contra Costa County,CA,NA,89.54758190327613,NA
94526,Contra Costa County,CA,NA,48.829953198127924,NA
94541,Alameda County,CA,NA,19.65678627145086,NA
94577,Alameda County,CA,NA,NA,37.40157480314961
94578,Alameda County,CA,NA,90.48361934477379,NA
94587,Alameda County,CA,NA,NA,15.748031496062993
94602,Alameda County,CA,NA,84.08736349453977,NA
94806,Contra Costa County,CA,NA,NA,23.818897637795274
94920,Marin County,CA,89.56521739130436,NA,NA
94925,Marin County,CA,NA,NA,92.51968503937007
94928,Sonoma County,CA,NA,NA,44.68503937007874
94945,Marin County,CA,NA,NA,63.976377952755904
94954,Sonoma County,CA,NA,NA,32.874015748031496
95008,Santa Clara County,CA,64.56521739130436,NA,NA
95020,Santa Clara County,CA,NA,32.91731669266771,NA
95032,Santa Clara County,CA,NA,69.57878315132605,51.181102362204726
95050,Santa Clara County,CA,NA,NA,53.74015748031496
95117,Santa Clara County,CA,NA,NA,89.96062992125984
95122,Santa Clara County,CA,NA,48.205928237129484,NA
95126,Santa Clara County,CA,65.8695652173913,NA,NA
95215,San Joaquin County,CA,NA,NA,79.92125984251969
95252,Calaveras County,CA,NA,69.42277691107644,NA
95301,Merced County,CA,NA,86.27145085803433,NA
95337,San Joaquin County,CA,NA,43.52574102964118,NA
95404,Sonoma County,CA,NA,29.017160686427456,NA
95405,Sonoma County,CA,NA,56.00624024960999,NA
95762,El Dorado County,CA,48.69565217391305,NA,NA
95823,Sacramento County,CA,15.869565217391305,NA,NA
95829,Sacramento County,CA,NA,NA,48.4251968503937
95833,Sacramento County,CA,NA,61.15444617784711,NA
95969,Butte County,CA,NA,7.332293291731669,NA
95971,Plumas County,CA,NA,NA,99.60629921259843
96013,Shasta County,CA,NA,77.69110764430577,NA
80011,Arapahoe County,CO,9.565217391304348,NA,NA
80012,Arapahoe County,CO,NA,NA,22.04724409448819
80013,Arapahoe County,CO,NA,22.932917316692667,NA
80014,Arapahoe County,CO,NA,NA,8.661417322834646
80015,Arapahoe County,CO,22.39130434782609,NA,NA
80023,Broomfield County,CO,93.91304347826087,77.37909516380655,NA
80026,Boulder County,CO,61.30434782608696,NA,NA
80122,Arapahoe County,CO,NA,NA,52.362204724409445
80134,Douglas County,CO,NA,37.129485179407176,NA
80212,Denver County,CO,NA,71.45085803432137,NA
80214,Jefferson County,CO,NA,NA,78.34645669291339
80224,Denver County,CO,63.69565217391304,NA,NA
80303,Boulder County,CO,NA,69.73478939157566,NA
80504,Boulder County,CO,NA,25.117004680187204,NA
80513,Larimer County,CO,76.30434782608695,NA,NA
80601,Adams County,CO,NA,39.62558502340094,NA
80603,Weld County,CO,78.04347826086956,NA,NA
80634,Weld County,CO,NA,35.725429017160685,NA
80904,El Paso County,CO,NA,63.494539781591264,NA
80918,El Paso County,CO,45.869565217391305,NA,NA
80923,El Paso County,CO,NA,NA,79.33070866141733
81004,Pueblo County,CO,NA,31.201248049921997,NA
81321,Montezuma County,CO,68.04347826086956,NA,NA
81650,Garfield County,CO,90.8695652173913,86.73946957878314,NA
06001,Hartford County,CT,NA,NA,84.25196850393701
06010,Hartford County,CT,2.608695652173913,1.71606864274571,3.740157480314961
06029,Tolland County,CT,NA,NA,92.71653543307087
06040,Hartford County,CT,13.478260869565217,NA,NA
06053,Hartford County,CT,NA,26.67706708268331,NA
06095,Hartford County,CT,41.73913043478261,NA,NA
06098,Litchfield County,CT,NA,NA,42.322834645669296
06106,Hartford County,CT,6.086956521739131,NA,NA
06108,Hartford County,CT,NA,57.56630265210608,NA
06255,Windham County,CT,75.43478260869566,NA,NA
06418,New Haven County,CT,NA,NA,71.45669291338582
06419,Middlesex County,CT,NA,NA,99.40944881889764
06441,Middlesex County,CT,98.47826086956522,NA,NA
06443,New Haven County,CT,NA,NA,68.11023622047244
06451,New Haven County,CT,NA,NA,56.2992125984252
06457,Middlesex County,CT,9.782608695652174,NA,NA
06460,New Haven County,CT,NA,17.31669266770671,NA
06473,New Haven County,CT,NA,33.229329173166924,NA
06483,New Haven County,CT,NA,98.28393135725429,NA
06492,New Haven County,CT,NA,13.104524180967239,NA
06511,New Haven County,CT,NA,11.388455538221528,NA
06608,Fairfield County,CT,64.34782608695652,NA,NA
06610,Fairfield County,CT,28.695652173913043,NA,NA
06614,Fairfield County,CT,58.04347826086956,NA,NA
06706,New Haven County,CT,NA,64.74258970358814,NA
06790,Litchfield County,CT,8.043478260869565,NA,NA
06811,Fairfield County,CT,NA,NA,18.11023622047244
06830,Fairfield County,CT,84.56521739130434,NA,NA
06897,Fairfield County,CT,NA,NA,58.46456692913385
19702,New Castle County,DE,NA,53.82215288611545,NA
19720,New Castle County,DE,3.6956521739130435,NA,7.480314960629922
19803,New Castle County,DE,NA,NA,31.69291338582677
19805,New Castle County,DE,NA,9.360374414976599,NA
19808,New Castle County,DE,NA,NA,7.283464566929133
19938,Kent County,DE,NA,85.17940717628704,NA
19947,Sussex County,DE,NA,73.63494539781591,NA
19960,Sussex County,DE,75.8695652173913,NA,NA
19966,Sussex County,DE,NA,NA,50.39370078740157
32008,Suwannee County,FL,NA,NA,95.66929133858267
32011,Nassau County,FL,NA,NA,54.92125984251969
32034,Nassau County,FL,NA,10.14040561622465,NA
32081,St. Johns County,FL,NA,80.343213728549145,NA
32087,Baker County,FL,92.3913043478261,NA,NA
32092,St. Johns County,FL,50.21739130434783,40.24960998439938,NA
32206,Duval County,FL,NA,23.400936037441497,NA
32207,Duval County,FL,22.82608695652174,NA,55.90551181102362
32218,Duval County,FL,NA,24.336973478939157,NA
32225,Duval County,FL,NA,50.858034321372855,16.535433070866144
32226,Duval County,FL,73.69565217391305,NA,NA
32257,Duval County,FL,NA,24.024960998439937,NA
32259,St. Johns County,FL,NA,38.53354134165367,NA
32305,Leon County,FL,NA,NA,79.33070866141733
32322,Franklin County,FL,NA,NA,100
32439,Walton County,FL,NA,70.20280811232449,NA
32440,Jackson County,FL,NA,85.33541341653667,NA
32455,Walton County,FL,NA,85.95943837753511,NA
32465,Gulf County,FL,NA,77.22308892355694,NA
32533,Escambia County,FL,31.30434782608696,NA,NA
32534,Escambia County,FL,NA,45.08580343213728,NA
32541,Okaloosa County,FL,67.3913043478261,NA,NA
32570,Santa Rosa County,FL,38.69565217391304,NA,NA
32578,Okaloosa County,FL,NA,NA,24.606299212598426
32579,Okaloosa County,FL,NA,NA,75.78740157480314
32666,Putnam County,FL,NA,87.05148205928236,NA
32746,Seminole County,FL,NA,43.05772230889235,NA
32818,Orange County,FL,NA,97.65990639625585,NA
32825,Orange County,FL,NA,17.004680187207487,NA
32901,Brevard County,FL,NA,NA,25
32927,Brevard County,FL,NA,NA,60.82677165354331
32953,Brevard County,FL,NA,21.21684867394696,17.913385826771652
32976,Brevard County,FL,NA,NA,57.28346456692913
33010,Miami-Dade County,FL,NA,NA,12.795275590551181
33066,Broward County,FL,NA,NA,56.496062992125985
33071,Broward County,FL,NA,62.402496099843994,NA
33126,Miami-Dade County,FL,NA,NA,24.21259842519685
33134,Miami-Dade County,FL,NA,NA,32.677165354330704
33155,Miami-Dade County,FL,NA,NA,13.976377952755906
33179,Miami-Dade County,FL,NA,87.3634945397816,NA
33316,Broward County,FL,NA,72.85491419656786,NA
33432,Palm Beach County,FL,NA,NA,31.299212598425196
33433,Palm Beach County,FL,NA,21.37285491419657,NA
33467,Palm Beach County,FL,NA,25.741029641185648,NA
33510,Hillsborough County,FL,NA,80.18720748829952,NA
33572,Hillsborough County,FL,NA,NA,88.38582677165354
33573,Hillsborough County,FL,NA,NA,2.952755905511811
33594,Hillsborough County,FL,82.82608695652173,NA,NA
33603,Hillsborough County,FL,NA,NA,96.45669291338582
33604,Hillsborough County,FL,NA,73.16692667706708,NA
33613,Hillsborough County,FL,NA,49.297971918876755,NA
33624,Hillsborough County,FL,78.91304347826087,NA,NA
33709,Pinellas County,FL,48.69565217391305,57.09828393135725,NA
33715,Pinellas County,FL,NA,92.66770670826833,72.63779527559055
33774,Pinellas County,FL,NA,70.04680187207488,NA
33782,Pinellas County,FL,NA,48.985959438377535,NA
33812,Polk County,FL,77.39130434782608,87.83151326053043,NA
33830,Polk County,FL,38.04347826086957,NA,NA
33850,Polk County,FL,NA,91.57566302652106,NA
33853,Polk County,FL,NA,78.1591263650546,NA
33880,Polk County,FL,NA,45.55382215288611,NA
33881,Polk County,FL,NA,NA,15.94488188976378
33913,Lee County,FL,NA,NA,80.31496062992126
33928,Lee County,FL,NA,NA,23.62204724409449
34219,Manatee County,FL,88.69565217391305,NA,72.24409448818898
34231,Sarasota County,FL,52.826086956521735,NA,4.724409448818897
34243,Manatee County,FL,NA,NA,7.874015748031496
34470,Marion County,FL,NA,NA,46.06299212598425
34610,Pasco County,FL,67.17391304347827,NA,NA
34653,Pasco County,FL,31.521739130434785,NA,NA
34683,Pinellas County,FL,NA,77.84711388455538,NA
34684,Pinellas County,FL,NA,45.39781591263651,NA
34685,Pinellas County,FL,NA,74.57098283931357,NA
34689,Pinellas County,FL,NA,39.93759750390016,NA
34949,St. Lucie County,FL,NA,93.29173166926678,NA
34974,Okeechobee County,FL,NA,NA,40.55118110236221
30011,Barrow County,GA,NA,87.20748829953197,NA
30014,Newton County,GA,NA,32.761310452418094,NA
30016,Newton County,GA,NA,20.904836193447736,NA
30019,Gwinnett County,GA,41.08695652173913,NA,NA
30022,Fulton County,GA,41.95652173913044,NA,NA
30024,Gwinnett County,GA,24.565217391304348,25.273010920436818,NA
30028,Forsyth County,GA,NA,54.29017160686428,NA
30030,DeKalb County,GA,NA,58.50234009360374,NA
30032,DeKalb County,GA,16.52173913043478,NA,NA
30034,DeKalb County,GA,NA,23.868954758190327,NA
30041,Forsyth County,GA,NA,12.324492979719189,NA
30044,Gwinnett County,GA,23.695652173913043,NA,NA
30052,Walton County,GA,NA,8.892355694227769,NA
30054,Newton County,GA,NA,68.64274570982839,NA
30064,Cobb County,GA,NA,35.413416536661465,NA
30078,Gwinnett County,GA,NA,NA,63.582677165354326
30087,DeKalb County,GA,NA,21.684867394695786,NA
30097,Fulton County,GA,NA,NA,43.503937007874015
30107,Cherokee County,GA,NA,81.74726989079562,NA
30115,Cherokee County,GA,40.869565217391305,NA,NA
30120,Bartow County,GA,NA,75.50702028081123,NA
30134,Douglas County,GA,27.82608695652174,NA,NA
30152,Cobb County,GA,NA,43.6817472698908,NA
30188,Cherokee County,GA,NA,16.848673946957877,36.22047244094488
30224,Spalding County,GA,NA,50.546021840873635,NA
30228,Henry County,GA,NA,NA,67.91338582677166
30233,Butts County,GA,59.130434782608695,NA,NA
30236,Clayton County,GA,NA,NA,59.055118110236215
30252,Henry County,GA,40.65217391304348,NA,NA
30318,Fulton County,GA,NA,NA,34.25196850393701
30328,Fulton County,GA,67.6086956521739,NA,34.44881889763779
30329,DeKalb County,GA,NA,NA,69.68503937007874
30342,Fulton County,GA,93.26086956521739,NA,NA
30350,Fulton County,GA,65.65217391304347,NA,NA
30461,Bulloch County,GA,74.78260869565217,NA,NA
30474,Toombs County,GA,NA,NA,73.62204724409449
30518,Gwinnett County,GA,NA,70.67082683307332,NA
30519,Gwinnett County,GA,NA,33.697347893915754,NA
30528,White County,GA,NA,NA,67.1259842519685
30542,Hall County,GA,NA,40.71762870514821,NA
30736,Catoosa County,GA,NA,91.10764430577223,NA
31021,Laurens County,GA,NA,58.03432137285491,NA
31055,Telfair County,GA,NA,90.79563182527302,NA
31088,Houston County,GA,NA,NA,19.68503937007874
31537,Charlton County,GA,68.26086956521739,NA,NA
31602,Lowndes County,GA,39.34782608695652,NA,NA
31636,Lowndes County,GA,NA,61.46645865834633,NA
31705,Dougherty County,GA,NA,62.870514820592824,NA
31721,Dougherty County,GA,NA,NA,67.51968503937007
31791,Worth County,GA,NA,NA,85.23622047244095
31793,Tift County,GA,NA,NA,86.41732283464567
31794,Tift County,GA,28.913043478260867,NA,NA
96706,Honolulu County,HI,13.91304347826087,NA,NA
96744,Honolulu County,HI,NA,22.308892355694226,NA
96786,Honolulu County,HI,NA,NA,45.07874015748031
96789,Honolulu County,HI,25.217391304347824,8.11232449297972,11.614173228346457
96797,Honolulu County,HI,34.34782608695652,NA,11.811023622047244
96818,Honolulu County,HI,NA,NA,34.645669291338585
83204,Bannock County,ID,52.60869565217391,NA,NA
83616,Ada County,ID,NA,62.24648985959438,NA
83686,Canyon County,ID,NA,NA,27.165354330708663
83705,Ada County,ID,NA,16.06864274570983,NA
83706,Ada County,ID,30.217391304347824,NA,NA
83713,Ada County,ID,NA,NA,16.92913385826772
83815,Kootenai County,ID,NA,19.50078003120125,NA
83856,Bonner County,ID,87.60869565217392,NA,NA
60013,McHenry County,IL,NA,35.569422776911075,NA
60030,Lake County,IL,NA,NA,18.30708661417323
60045,Lake County,IL,NA,NA,14.960629921259844
60083,Lake County,IL,NA,70.51482059282371,NA
60085,Lake County,IL,NA,31.825273010920434,NA
60098,McHenry County,IL,33.47826086956522,NA,NA
60099,Lake County,IL,NA,NA,69.48818897637796
60101,DuPage County,IL,NA,NA,19.88188976377953
60119,Kane County,IL,NA,79.87519500780031,NA
60120,Kane County,IL,NA,28.861154446177846,NA
60123,Kane County,IL,NA,17.004680187207487,NA
60142,McHenry County,IL,43.47826086956522,NA,NA
60172,DuPage County,IL,63.91304347826087,NA,NA
60181,DuPage County,IL,32.391304347826086,NA,NA
60201,Cook County,IL,NA,22.46489859594384,NA
60426,Cook County,IL,55.00000000000001,NA,NA
60432,Will County,IL,NA,NA,84.64566929133859
60436,Will County,IL,57.173913043478265,NA,NA
60440,Will County,IL,23.91304347826087,NA,NA
60443,Cook County,IL,NA,39.0015600624025,NA
60447,Grundy County,IL,55.65217391304348,NA,NA
60451,Will County,IL,50.8695652173913,NA,NA
60458,Cook County,IL,NA,66.45865834633385,NA
60462,Cook County,IL,NA,5.46021840873635,NA
60467,Cook County,IL,NA,NA,17.322834645669293
60468,Will County,IL,98.91304347826086,NA,NA
60480,Cook County,IL,NA,94.53978159126365,NA
60502,DuPage County,IL,NA,NA,87.4015748031496
60515,DuPage County,IL,NA,35.8814352574103,NA
60534,Cook County,IL,NA,82.99531981279252,NA
60548,DeKalb County,IL,80.43478260869566,NA,NA
60565,DuPage County,IL,32.826086956521735,NA,NA
60586,Will County,IL,NA,32.44929797191888,NA
60609,Cook County,IL,NA,NA,23.228346456692915
60628,Cook County,IL,9.347826086956522,NA,NA
60629,Cook County,IL,8.26086956521739,NA,NA
60638,Cook County,IL,12.173913043478262,NA,NA
60643,Cook County,IL,NA,NA,8.267716535433072
60651,Cook County,IL,NA,8.580343213728549,NA
60914,Kankakee County,IL,NA,56.63026521060842,NA
61016,Winnebago County,IL,97.17391304347827,NA,NA
61108,Winnebago County,IL,NA,60.8424336973479,28.937007874015748
61201,Rock Island County,IL,NA,NA,40.74803149606299
61241,Henry County,IL,NA,89.70358814352574,NA
61443,Henry County,IL,NA,52.26209048361935,NA
61704,McLean County,IL,NA,42.74570982839314,NA
62002,Madison County,IL,NA,NA,70.2755905511811
62034,Madison County,IL,NA,76.91107644305772,NA
62035,Madison County,IL,NA,NA,41.338582677165356
62095,Madison County,IL,NA,78.47113884555382,NA
62203,St. Clair County,IL,NA,NA,94.09448818897637
62236,Monroe County,IL,NA,92.82371294851795,NA
62249,Madison County,IL,NA,66.61466458658346,NA
62269,St. Clair County,IL,NA,NA,39.56692913385827
62401,Effingham County,IL,64.13043478260869,NA,NA
62565,Shelby County,IL,94.1304347826087,NA,NA
62568,Christian County,IL,NA,NA,46.25984251968504
62702,Sangamon County,IL,NA,37.285491419656786,NA
62704,Sangamon County,IL,NA,30.42121684867395,NA
62801,Marion County,IL,NA,64.43057722308893,NA
46011,Madison County,IN,NA,NA,39.76377952755906
46033,Hamilton County,IN,62.60869565217392,30.577223088923557,NA
46037,Hamilton County,IN,68.47826086956522,NA,66.92913385826772
46064,Madison County,IN,NA,NA,87.20472440944881
46131,Johnson County,IN,NA,28.081123244929795,NA
46167,Hendricks County,IN,NA,94.38377535101404,NA
46176,Shelby County,IN,NA,12.012480499219969,NA
46220,Marion County,IN,NA,45.24180967238689,NA
46226,Marion County,IN,14.782608695652174,NA,NA
46231,Marion County,IN,NA,67.39469578783151,NA
46236,Marion County,IN,61.73913043478261,NA,NA
46239,Marion County,IN,54.130434782608695,NA,NA
46260,Marion County,IN,NA,NA,41.14173228346456
46323,Lake County,IN,NA,NA,36.61417322834646
46342,Lake County,IN,NA,NA,22.244094488188974
46360,LaPorte County,IN,7.391304347826087,NA,NA
46368,Porter County,IN,3.0434782608695654,NA,NA
46383,Porter County,IN,10.217391304347826,NA,NA
46514,Elkhart County,IN,NA,NA,46.653543307086615
46550,Elkhart County,IN,NA,93.75975039001561,NA
46580,Kosciusko County,IN,NA,NA,33.267716535433074
46721,DeKalb County,IN,90.65217391304347,NA,NA
46737,Steuben County,IN,NA,NA,88.77952755905511
46902,Howard County,IN,NA,3.43213728549142,6.889763779527559
46933,Grant County,IN,NA,73.4789391575663,NA
46970,Miami County,IN,12.608695652173912,NA,NA
47201,Bartholomew County,IN,15,13.416536661466457,NA
47203,Bartholomew County,IN,NA,NA,14.37007874015748
47274,Jackson County,IN,NA,NA,32.28346456692913
47303,Delaware County,IN,NA,53.35413416536662,NA
47362,Henry County,IN,NA,NA,9.448818897637794
47374,Wayne County,IN,NA,NA,1.1811023622047243
47408,Monroe County,IN,94.78260869565217,NA,NA
47630,Warrick County,IN,44.78260869565218,NA,NA
47710,Vanderburgh County,IN,NA,NA,46.653543307086615
47712,Vanderburgh County,IN,NA,NA,53.14960629921261
47909,Tippecanoe County,IN,41.52173913043478,NA,NA
50131,Polk County,IA,NA,NA,85.43307086614173
50501,Webster County,IA,27.391304347826086,NA,NA
50511,Kossuth County,IA,NA,75.19500780031201,NA
50662,Fayette County,IA,69.1304347826087,NA,NA
50701,Black Hawk County,IA,35.21739130434783,NA,NA
51501,Pottawattamie County,IA,4.130434782608695,11.23244929797192,NA
52245,Johnson County,IA,NA,NA,53.937007874015755
52556,Jefferson County,IA,NA,61.77847113884556,NA
52577,Mahaska County,IA,NA,NA,25.196850393700785
52627,Lee County,IA,45,NA,NA
66062,Johnson County,KS,NA,49.141965678627145,NA
66219,Johnson County,KS,NA,NA,94.48818897637796
66224,Johnson County,KS,NA,NA,90.74803149606299
67037,Sedgwick County,KS,NA,NA,83.26771653543307
67204,Sedgwick County,KS,79.13043478260869,NA,NA
67211,Sedgwick County,KS,53.47826086956522,NA,NA
67212,Sedgwick County,KS,NA,NA,50.59055118110236
67213,Sedgwick County,KS,NA,81.74726989079562,NA
40160,Hardin County,KY,NA,NA,56.10236220472441
40207,Jefferson County,KY,NA,69.89079563182527,NA
40213,Jefferson County,KY,NA,NA,96.25984251968504
40220,Jefferson County,KY,NA,NA,25.393700787401574
40243,Jefferson County,KY,NA,80.96723868954759,NA
40245,Jefferson County,KY,NA,NA,94.88188976377953
40342,Anderson County,KY,36.30434782608696,NA,NA
40380,Powell County,KY,NA,95.94383775351014,NA
40769,Whitley County,KY,NA,56.16224648985959,NA
41015,Kenton County,KY,NA,NA,39.960629921259844
42066,Graves County,KY,NA,NA,36.811023622047244
42071,Calloway County,KY,42.608695652173914,NA,NA
42101,Warren County,KY,NA,NA,63.188976377952756
42129,Metcalfe County,KY,56.95652173913044,NA,NA
42303,Daviess County,KY,12.82608695652174,NA,NA
42431,Hopkins County,KY,25.869565217391305,NA,NA
42539,Casey County,KY,75,NA,NA
42544,Pulaski County,KY,81.08695652173913,NA,NA
42635,McCreary County,KY,89.34782608695652,NA,NA
42726,Grayson County,KY,NA,72.07488299531981,NA
70065,Jefferson Parish,LA,NA,1.87207488299532,NA
70072,Jefferson Parish,LA,1.7391304347826086,NA,NA
70124,Orleans Parish,LA,NA,NA,58.85826771653543
70345,Lafourche Parish,LA,NA,NA,77.55905511811024
70363,Terrebonne Parish,LA,NA,32.13728549141966,NA
70390,Assumption Parish,LA,NA,71.13884555382215,NA
70444,Tangipahoa Parish,LA,NA,75.66302652106084,NA
70452,St. Tammany Parish,LA,NA,NA,59.84251968503938
70458,St. Tammany Parish,LA,NA,NA,10.039370078740157
70520,Lafayette Parish,LA,26.521739130434785,NA,NA
70570,St. Landry Parish,LA,NA,NA,20.669291338582678
70592,Lafayette Parish,LA,NA,NA,97.44094488188976
70714,East Baton Rouge Parish,LA,26.956521739130434,NA,NA
70769,Ascension Parish,LA,NA,39.31357254290172,NA
70807,East Baton Rouge Parish,LA,NA,64.58658346333853,NA
70811,East Baton Rouge Parish,LA,NA,72.85491419656786,NA
71037,Bossier Parish,LA,NA,NA,79.7244094488189
71082,Caddo Parish,LA,NA,97.03588143525741,NA
71106,Caddo Parish,LA,NA,13.72854914196568,NA
71112,Bossier Parish,LA,16.956521739130434,60.218408736349446,35.23622047244094
71118,Caddo Parish,LA,NA,NA,55.118110236220474
71119,Caddo Parish,LA,58.47826086956521,64.89859594383776,NA
71202,Ouachita Parish,LA,6.304347826086956,NA,NA
71302,Rapides Parish,LA,NA,58.34633385335414,NA
71360,Rapides Parish,LA,40,NA,NA
71405,Rapides Parish,LA,NA,NA,97.63779527559055
71429,Sabine Parish,LA,NA,99.37597503900156,NA
04005,York County,ME,NA,4.99219968798752,NA
04011,Cumberland County,ME,NA,NA,20.866141732283463
04039,Cumberland County,ME,NA,NA,87.5984251968504
04086,Sagadahoc County,ME,77.82608695652173,NA,NA
04416,Hancock County,ME,NA,NA,92.32283464566929
04426,Piscataquis County,ME,NA,94.69578783151326,NA
04769,Aroostook County,ME,NA,44.46177847113885,18.700787401574804
20650,St. Mary's County,MD,NA,85.95943837753511,71.25984251968504
20816,Montgomery County,MD,NA,NA,77.55905511811024
20882,Montgomery County,MD,NA,NA,95.2755905511811
20910,Montgomery County,MD,58.913043478260875,NA,NA
21032,Anne Arundel County,MD,NA,88.76755070202809,NA
21035,Anne Arundel County,MD,96.95652173913044,NA,NA
21037,Anne Arundel County,MD,NA,NA,74.80314960629921
21061,Anne Arundel County,MD,12.391304347826088,NA,NA
21133,Baltimore County,MD,NA,49.765990639625585,NA
21136,Baltimore County,MD,57.608695652173914,NA,NA
21211,Baltimore city,MD,NA,89.0795631825273,NA
21218,Baltimore city,MD,13.043478260869565,NA,NA
21220,Baltimore County,MD,NA,NA,34.05511811023622
21229,Baltimore city,MD,NA,NA,24.409448818897637
21230,Baltimore city,MD,NA,NA,71.06299212598425
21236,Baltimore County,MD,NA,NA,29.527559055118108
21550,Garrett County,MD,NA,NA,19.094488188976378
21740,Washington County,MD,NA,27.301092043681745,NA
21901,Cecil County,MD,NA,NA,81.2992125984252
01095,Hampden County,MA,NA,86.89547581903277,NA
01201,Berkshire County,MA,NA,3.2761310452418098,NA
01238,Berkshire County,MA,NA,68.17472698907956,NA
01432,Middlesex County,MA,47.17391304347826,NA,NA
01451,Worcester County,MA,NA,85.64742589703587,NA
01475,Worcester County,MA,NA,NA,37.59842519685039
01545,Worcester County,MA,NA,17.31669266770671,NA
01588,Worcester County,MA,23.47826086956522,96.72386895475819,NA
01603,Worcester County,MA,NA,NA,20.47244094488189
01742,Middlesex County,MA,53.69565217391305,37.909516380655226,NA
01760,Middlesex County,MA,NA,7.644305772230889,NA
01773,Middlesex County,MA,91.95652173913044,87.98751950078002,NA
01778,Middlesex County,MA,91.30434782608695,NA,NA
01826,Middlesex County,MA,5.6521739130434785,2.1840873634945397,NA
01832,Essex County,MA,NA,10.764430577223088,NA
01841,Essex County,MA,0.21739130434782608,NA,NA
01852,Middlesex County,MA,86.95652173913044,NA,NA
01876,Middlesex County,MA,8.695652173913043,NA,NA
01879,Middlesex County,MA,NA,50.546021840873635,NA
01887,Middlesex County,MA,NA,20.2808112324493,NA
01904,Essex County,MA,NA,NA,31.10236220472441
01938,Essex County,MA,NA,16.69266770670827,NA
01950,Essex County,MA,NA,NA,22.83464566929134
01960,Essex County,MA,1.0869565217391304,NA,NA
01983,Essex County,MA,84.34782608695653,NA,NA
02043,Plymouth County,MA,39.565217391304344,NA,NA
02072,Norfolk County,MA,NA,NA,65.5511811023622
02114,Suffolk County,MA,22.17391304347826,NA,NA
02125,Suffolk County,MA,4.782608695652174,NA,NA
02127,Suffolk County,MA,1.956521739130435,NA,NA
02138,Middlesex County,MA,15.65217391304348,NA,14.566929133858267
02139,Middlesex County,MA,0.6521739130434783,NA,NA
02140,Middlesex County,MA,NA,NA,27.559055118110237
02143,Middlesex County,MA,NA,NA,20.078740157480315
02148,Middlesex County,MA,NA,NA,0.39370078740157477
02155,Middlesex County,MA,NA,NA,0.19685039370078738
02186,Norfolk County,MA,NA,NA,23.031496062992126
02356,Bristol County,MA,NA,NA,72.04724409448819
02359,Plymouth County,MA,31.08695652173913,NA,NA
02703,Bristol County,MA,1.3043478260869565,NA,NA
02720,Bristol County,MA,0.43478260869565216,NA,NA
02740,Bristol County,MA,0,0,NA
02771,Bristol County,MA,NA,46.02184087363494,NA
02777,Bristol County,MA,33.69565217391305,NA,NA
48005,Macomb County,MI,90,NA,NA
48026,Macomb County,MI,37.826086956521735,41.49765990639626,NA
48039,St. Clair County,MI,NA,NA,87.99212598425197
48066,Macomb County,MI,4.3478260869565215,NA,NA
48071,Oakland County,MI,NA,36.505460218408736,NA
48072,Oakland County,MI,NA,NA,56.496062992125985
48074,St. Clair County,MI,NA,71.13884555382215,NA
48088,Macomb County,MI,NA,24.648985959438377,NA
48111,Wayne County,MI,NA,33.541341653666144,NA
48126,Wayne County,MI,NA,40.5616224648986,NA
48134,Wayne County,MI,29.130434782608695,NA,NA
48140,Monroe County,MI,NA,99.68798751950078,NA
48162,Monroe County,MI,NA,2.65210608424337,NA
48166,Monroe County,MI,NA,37.597503900156006,NA
48176,Washtenaw County,MI,42.173913043478265,60.68642745709828,26.574803149606304
48180,Wayne County,MI,2.8260869565217392,1.0920436817472698,NA
48185,Wayne County,MI,7.608695652173914,55.22620904836193,NA
48188,Wayne County,MI,NA,NA,38.582677165354326
48219,Wayne County,MI,NA,21.060842433697346,NA
48227,Wayne County,MI,NA,NA,27.36220472440945
48237,Oakland County,MI,NA,19.18876755070203,NA
48301,Oakland County,MI,NA,NA,48.031496062992126
48302,Oakland County,MI,NA,44.92979719188768,NA
48309,Oakland County,MI,NA,62.71450858034321,NA
48317,Macomb County,MI,NA,20.74882995319813,NA
48322,Oakland County,MI,NA,7.956318252730108,NA
48327,Oakland County,MI,NA,NA,50.98425196850393
48340,Oakland County,MI,NA,34.789391575663025,NA
48342,Oakland County,MI,NA,NA,81.2992125984252
48350,Oakland County,MI,NA,81.43525741029642,NA
48380,Oakland County,MI,82.17391304347827,NA,NA
48416,Sanilac County,MI,NA,95.16380655226209,NA
48423,Genesee County,MI,NA,NA,40.94488188976378
48433,Genesee County,MI,52.17391304347826,NA,NA
48446,Lapeer County,MI,NA,24.180967238689547,NA
48457,Genesee County,MI,NA,NA,96.45669291338582
48504,Genesee County,MI,NA,NA,51.77165354330708
48506,Genesee County,MI,NA,72.54290171606864,NA
48601,Saginaw County,MI,NA,2.9641185647425896,NA
48603,Saginaw County,MI,15.217391304347828,9.98439937597504,NA
48632,Clare County,MI,NA,NA,83.46456692913385
48650,Bay County,MI,NA,NA,91.14173228346458
48658,Arenac County,MI,93.69565217391305,NA,NA
48706,Bay County,MI,NA,NA,3.346456692913386
48734,Saginaw County,MI,82.6086956521739,NA,NA
48813,Eaton County,MI,NA,NA,36.023622047244096
48820,Clinton County,MI,NA,NA,54.7244094488189
48821,Eaton County,MI,NA,85.02340093603745,NA
48854,Ingham County,MI,NA,55.69422776911076,NA
48858,Isabella County,MI,NA,NA,9.251968503937007
48867,Shiawassee County,MI,NA,7.020280811232449,8.070866141732283
48875,Ionia County,MI,NA,NA,61.023622047244096
48906,Ingham County,MI,NA,NA,35.039370078740156
48911,Ingham County,MI,NA,48.361934477379094,NA
48917,Eaton County,MI,11.08695652173913,NA,11.41732283464567
49002,Kalamazoo County,MI,NA,NA,62.79527559055118
49007,Kalamazoo County,MI,NA,82.52730109204369,NA
49009,Kalamazoo County,MI,NA,8.268330733229329,NA
49015,Calhoun County,MI,46.95652173913044,NA,NA
49045,Van Buren County,MI,90.43478260869566,NA,NA
49087,Kalamazoo County,MI,NA,NA,90.94488188976378
49112,Cass County,MI,NA,84.86739469578784,NA
49120,Berrien County,MI,18.478260869565215,NA,NA
49240,Jackson County,MI,NA,58.19032761310452,NA
49269,Jackson County,MI,NA,79.5631825273011,NA
49285,Ingham County,MI,98.04347826086956,NA,NA
49286,Lenawee County,MI,NA,46.17784711388456,NA
49307,Mecosta County,MI,50.65217391304348,NA,NA
49333,Barry County,MI,NA,70.98283931357254,NA
49412,Newaygo County,MI,NA,57.72230889235569,NA
49418,Kent County,MI,NA,NA,27.559055118110237
49426,Ottawa County,MI,NA,NA,26.181102362204722
49428,Ottawa County,MI,NA,31.669266770670827,NA
49503,Kent County,MI,13.695652173913043,NA,NA
49601,Wexford County,MI,NA,50.078003120124805,NA
49740,Emmet County,MI,NA,NA,75
49801,Dickinson County,MI,NA,NA,50
49855,Marquette County,MI,NA,NA,26.968503937007878
49920,Iron County,MI,NA,83.46333853354135,NA
55011,Anoka County,MN,90.21739130434783,NA,NA
55330,Sherburne County,MN,43.26086956521739,NA,NA
55378,Scott County,MN,54.78260869565217,NA,NA
55387,Carver County,MN,77.17391304347827,81.59126365054603,NA
55391,Hennepin County,MN,NA,77.53510140405616,NA
55401,Hennepin County,MN,NA,96.41185647425897,NA
55404,Hennepin County,MN,1.5217391304347827,NA,NA
55408,Hennepin County,MN,NA,41.49765990639626,NA
55420,Hennepin County,MN,NA,NA,43.7007874015748
55422,Hennepin County,MN,32.17391304347826,NA,NA
55768,St. Louis County,MN,NA,97.81591263650546,NA
55812,St. Louis County,MN,NA,NA,99.21259842519686
55944,Dodge County,MN,NA,96.09984399375975,NA
55987,Winona County,MN,NA,2.49609984399376,NA
56007,Freeborn County,MN,20,NA,NA
56073,Brown County,MN,NA,NA,2.7559055118110236
56304,Sherburne County,MN,NA,NA,78.54330708661418
56367,Benton County,MN,NA,98.4399375975039,NA
56379,Benton County,MN,NA,78.47113884555382,NA
56431,Aitkin County,MN,NA,NA,30.118110236220474
56560,Clay County,MN,NA,3.74414976599064,NA
56572,Otter Tail County,MN,NA,NA,90.35433070866141
38632,DeSoto County,MS,NA,NA,61.417322834645674
38655,Lafayette County,MS,NA,NA,76.96850393700787
39042,Rankin County,MS,NA,NA,16.73228346456693
39051,Leake County,MS,NA,NA,77.36220472440945
39092,Scott County,MS,91.73913043478261,NA,NA
39117,Scott County,MS,50.43478260869565,NA,NA
39194,Yazoo County,MS,NA,NA,78.93700787401575
39204,Hinds County,MS,NA,84.71138845553821,NA
39211,Hinds County,MS,65.21739130434783,NA,NA
39213,Hinds County,MS,NA,51.326053042121686,NA
39301,Lauderdale County,MS,NA,46.64586583463339,NA
39339,Winston County,MS,NA,86.58346333853353,NA
39428,Covington County,MS,NA,88.29953198127926,NA
39503,Harrison County,MS,NA,NA,5.708661417322835
39553,Jackson County,MS,45.43478260869565,NA,NA
39567,Jackson County,MS,NA,NA,76.37795275590551
39648,Pike County,MS,70.43478260869566,NA,NA
39705,Lowndes County,MS,NA,80.81123244929798,NA
39730,Monroe County,MS,NA,67.2386895475819,NA
39773,Clay County,MS,NA,67.55070202808112,NA
63017,St. Louis County,MO,NA,12.480499219968799,21.653543307086615
63021,St. Louis County,MO,NA,10.9204368174727,NA
63026,St. Louis County,MO,37.608695652173914,NA,NA
63033,St. Louis County,MO,NA,NA,6.299212598425196
63040,St. Louis County,MO,96.30434782608695,NA,NA
63080,Franklin County,MO,NA,NA,82.28346456692913
63089,Franklin County,MO,88.26086956521739,NA,NA
63105,St. Louis County,MO,NA,NA,69.88188976377953
63108,St. Louis city,MO,48.26086956521739,NA,65.74803149606299
63111,St. Louis city,MO,NA,93.13572542901716,NA
63116,St. Louis city,MO,36.08695652173913,NA,NA
63123,St. Louis County,MO,NA,14.664586583463338,NA
63125,St. Louis County,MO,NA,29.329173166926676,NA
63132,St. Louis County,MO,NA,NA,47.44094488188976
63146,St. Louis County,MO,NA,NA,6.496062992125983
63304,St. Charles County,MO,NA,14.82059282371295,NA
63348,St. Charles County,MO,NA,76.13104524180967,NA
63367,St. Charles County,MO,NA,NA,26.77165354330709
63379,Lincoln County,MO,NA,29.6411856474259,NA
63851,Pemiscot County,MO,80,NA,NA
63901,Butler County,MO,NA,NA,37.79527559055118
63935,Ripley County,MO,53.04347826086957,NA,NA
63957,Wayne County,MO,NA,92.1996879875195,NA
64020,Lafayette County,MO,88.47826086956522,NA,NA
64030,Jackson County,MO,22.608695652173914,NA,NA
64050,Jackson County,MO,NA,18.252730109204368,NA
64055,Jackson County,MO,NA,NA,16.141732283464567
64068,Clay County,MO,34.78260869565217,NA,NA
64079,Platte County,MO,56.52173913043478,NA,NA
64086,Jackson County,MO,NA,NA,55.31496062992126
64106,Jackson County,MO,61.52173913043478,NA,NA
64111,Jackson County,MO,NA,46.17784711388456,NA
64118,Clay County,MO,NA,7.800312012480499,31.496062992125985
64123,Jackson County,MO,43.69565217391304,NA,NA
64133,Jackson County,MO,5.434782608695652,NA,NA
64152,Platte County,MO,NA,NA,60.43307086614173
64505,Buchanan County,MO,NA,NA,40.15748031496063
64506,Buchanan County,MO,23.26086956521739,NA,1.968503937007874
64701,Cass County,MO,44.130434782608695,NA,NA
64801,Jasper County,MO,NA,NA,17.322834645669293
64850,Newton County,MO,NA,NA,25.787401574803148
65020,Camden County,MO,NA,NA,57.08661417322835
65026,Miller County,MO,NA,73.32293291731669,NA
65084,Morgan County,MO,NA,89.85959438377536,NA
65203,Boone County,MO,NA,NA,5.31496062992126
65265,Audrain County,MO,58.26086956521739,NA,NA
65301,Pettis County,MO,NA,8.424336973478939,NA
65336,Johnson County,MO,95.65217391304348,NA,NA
65536,Laclede County,MO,NA,NA,80.11811023622047
65804,Greene County,MO,NA,NA,52.16535433070866
59404,Cascade County,MT,NA,63.026521060842434,NA
59457,Fergus County,MT,NA,78.93915756630265,NA
59801,Missoula County,MT,NA,65.52262090483619,NA
59901,Flathead County,MT,NA,79.40717628705148,10.826771653543307
59911,Flathead County,MT,NA,59.90639625585024,NA
59912,Flathead County,MT,NA,NA,57.677165354330704
68144,Douglas County,NE,85.65217391304348,NA,NA
68522,Lancaster County,NE,95.86956521739131,NA,NA
69101,Lincoln County,NE,NA,NA,98.62204724409449
89117,Clark County,NV,35.869565217391305,NA,NA
89119,Clark County,NV,NA,NA,62.20472440944882
89134,Clark County,NV,NA,48.049921996879874,NA
89434,Washoe County,NV,NA,34.63338533541342,NA
89502,Washoe County,NV,NA,NA,71.65354330708661
89701,Carson City,NV,39.78260869565217,NA,NA
03060,Hillsborough County,NH,NA,11.856474258970358,NA
03244,Hillsborough County,NH,NA,NA,94.09448818897637
03275,Merrimack County,NH,NA,NA,62.99212598425197
03431,Cheshire County,NH,30.65217391304348,NA,NA
03766,Grafton County,NH,NA,NA,51.37795275590551
03811,Rockingham County,NH,80,NA,NA
03833,Rockingham County,NH,71.73913043478261,NA,NA
07003,Essex County,NJ,NA,27.45709828393136,NA
07013,Passaic County,NJ,42.391304347826086,NA,NA
07039,Essex County,NJ,NA,36.973478939157566,NA
07066,Union County,NJ,80.8695652173913,NA,NA
07068,Essex County,NJ,98.69565217391305,NA,NA
07083,Union County,NJ,NA,28.549141965678626,NA
07205,Union County,NJ,NA,NA,82.08661417322834
07405,Morris County,NJ,NA,74.41497659906396,64.37007874015748
07506,Passaic County,NJ,NA,NA,89.1732283464567
07712,Monmouth County,NJ,NA,NA,28.1496062992126
07728,Monmouth County,NJ,19.34782608695652,NA,4.133858267716536
07740,Monmouth County,NJ,NA,NA,37.00787401574803
07753,Monmouth County,NJ,NA,NA,10.236220472440944
07882,Warren County,NJ,NA,57.41029641185648,NA
08075,Burlington County,NJ,18.695652173913043,NA,NA
08721,Ocean County,NJ,27.82608695652174,NA,NA
08757,Ocean County,NJ,NA,3.58814352574103,NA
08758,Ocean County,NJ,NA,71.7628705148206,NA
08759,Ocean County,NJ,NA,NA,1.7716535433070866
08807,Somerset County,NJ,NA,41.80967238689547,NA
08822,Hunterdon County,NJ,NA,NA,49.803149606299215
08873,Somerset County,NJ,18.913043478260867,NA,NA
87004,Sandoval County,NM,NA,77.06708268330733,NA
87111,Bernalillo County,NM,NA,NA,5.118110236220472
88011,Doa Ana County,NM,NA,NA,29.133858267716533
88012,Doa Ana County,NM,NA,47.893915756630264,NA
88201,Chaves County,NM,NA,NA,53.54330708661418
88230,Chaves County,NM,NA,99.06396255850234,NA
88310,Otero County,NM,NA,3.9001560062402496,NA
88345,Lincoln County,NM,72.3913043478261,NA,NA
10033,New York County,NY,20.652173913043477,NA,NA
10037,New York County,NY,NA,NA,44.48818897637795
10451,Bronx County,NY,3.260869565217391,NA,NA
10454,Bronx County,NY,NA,5.77223088923557,NA
10460,Bronx County,NY,NA,13.884555382215288,NA
10468,Bronx County,NY,NA,NA,7.480314960629922
10472,Bronx County,NY,NA,1.24804992199688,NA
10522,Westchester County,NY,NA,96.56786271450858,NA
10552,Westchester County,NY,NA,NA,70.47244094488188
10579,Putnam County,NY,NA,NA,82.8740157480315
10603,Westchester County,NY,73.47826086956522,NA,NA
10901,Rockland County,NY,NA,NA,93.50393700787401
10970,Rockland County,NY,NA,NA,89.76377952755905
10990,Orange County,NY,NA,NA,76.5748031496063
11001,Nassau County,NY,NA,NA,74.60629921259843
11209,Kings County,NY,NA,NA,14.173228346456693
11221,Kings County,NY,NA,2.80811232449298,NA
11233,Kings County,NY,NA,0.62402496099844,NA
11357,Queens County,NY,72.60869565217392,NA,NA
11411,Queens County,NY,91.08695652173913,NA,NA
11423,Queens County,NY,NA,NA,86.81102362204724
11598,Nassau County,NY,NA,NA,75.98425196850394
11691,Queens County,NY,34.56521739130435,NA,NA
11731,Suffolk County,NY,NA,NA,64.96062992125984
11757,Suffolk County,NY,NA,NA,29.92125984251969
11801,Nassau County,NY,NA,NA,49.01574803149607
12572,Dutchess County,NY,83.47826086956522,NA,NA
12590,Dutchess County,NY,NA,64.27457098283932,49.60629921259843
13039,Onondaga County,NY,NA,63.962558502340094,NA
13041,Onondaga County,NY,69.56521739130434,NA,NA
13045,Cortland County,NY,5,NA,NA
13074,Oswego County,NY,NA,90.6396255850234,NA
13078,Onondaga County,NY,NA,74.72698907956318,NA
13126,Oswego County,NY,4.565217391304348,NA,NA
13203,Onondaga County,NY,NA,53.51014040561623,NA
13206,Onondaga County,NY,NA,70.82683307332293,NA
13320,Otsego County,NY,NA,97.50390015600624,NA
13363,Oneida County,NY,NA,99.53198127925117,NA
13403,Oneida County,NY,NA,NA,93.7007874015748
13440,Oneida County,NY,NA,NA,8.858267716535433
13471,Oneida County,NY,93.47826086956522,NA,NA
13478,Oneida County,NY,91.52173913043478,NA,NA
13790,Broome County,NY,11.521739130434783,NA,NA
13820,Otsego County,NY,11.956521739130435,NA,NA
13849,Otsego County,NY,77.6086956521739,NA,NA
14020,Genesee County,NY,NA,NA,28.74015748031496
14031,Erie County,NY,81.73913043478261,NA,NA
14033,Erie County,NY,NA,98.59594383775351,NA
14043,Erie County,NY,66.30434782608695,29.485179407176286,NA
14092,Niagara County,NY,NA,76.4430577223089,NA
14150,Erie County,NY,7.82608695652174,NA,NA
14174,Niagara County,NY,NA,NA,97.04724409448819
14208,Erie County,NY,29.565217391304348,NA,NA
14215,Erie County,NY,2.391304347826087,NA,NA
14219,Erie County,NY,49.34782608695652,NA,NA
14220,Erie County,NY,17.608695652173914,26.365054602184085,NA
14224,Erie County,NY,NA,NA,12.007874015748031
14305,Niagara County,NY,6.956521739130435,NA,NA
14424,Ontario County,NY,NA,0.46801872074883,NA
14469,Ontario County,NY,NA,55.53822152886115,NA
14522,Wayne County,NY,NA,86.42745709828394,NA
14527,Yates County,NY,28.47826086956522,NA,NA
14534,Monroe County,NY,NA,36.661466458658346,NA
14580,Monroe County,NY,8.478260869565217,NA,NA
14591,Wyoming County,NY,NA,100,NA
14608,Monroe County,NY,16.73913043478261,NA,NA
14609,Monroe County,NY,0.8695652173913043,NA,NA
14619,Monroe County,NY,NA,NA,86.61417322834646
14620,Monroe County,NY,NA,17.628705148205928,NA
14701,Chautauqua County,NY,NA,1.40405616224649,NA
14724,Chautauqua County,NY,95.86956521739131,NA,NA
14843,Steuben County,NY,24.347826086956523,NA,NA
14845,Chemung County,NY,NA,28.39313572542902,NA
27018,Yadkin County,NC,NA,NA,51.574803149606296
27021,Stokes County,NC,40.43478260869565,NA,NA
27028,Davie County,NC,19.130434782608695,NA,NA
27040,Forsyth County,NC,NA,NA,59.251968503937
27104,Forsyth County,NC,NA,6.5522620904836195,3.937007874015748
27205,Randolph County,NC,NA,25.273010920436818,NA
27239,Davidson County,NC,NA,74.88299531981279,NA
27265,Guilford County,NC,50,NA,NA
27288,Rockingham County,NC,17.391304347826086,NA,NA
27292,Davidson County,NC,24.782608695652176,NA,NA
27302,Alamance County,NC,NA,NA,28.1496062992126
27312,Chatham County,NC,NA,19.03276131045242,NA
27313,Guilford County,NC,NA,88.45553822152887,NA
27320,Rockingham County,NC,14.347826086956522,39.78159126365055,NA
27344,Chatham County,NC,46.73913043478261,NA,50.196850393700785
27360,Davidson County,NC,NA,4.212168486739469,NA
27406,Guilford County,NC,5.217391304347826,0.7800312012480499,NA
27502,Wake County,NC,NA,NA,57.48031496062992
27511,Wake County,NC,NA,91.88767550702028,37.99212598425197
27513,Wake County,NC,NA,NA,51.96850393700787
27516,Orange County,NC,32.608695652173914,NA,NA
27520,Johnston County,NC,33.91304347826087,NA,NA
27565,Granville County,NC,25.43478260869565,NA,NA
27587,Wake County,NC,NA,NA,19.488188976377952
27592,Wake County,NC,NA,90.17160686427457,NA
27597,Wake County,NC,NA,NA,69.29133858267717
27608,Wake County,NC,NA,NA,98.22834645669292
27610,Wake County,NC,8.91304347826087,6.084243369734789,NA
27616,Wake County,NC,24.130434782608695,NA,NA
27803,Nash County,NC,76.52173913043478,NA,NA
27856,Nash County,NC,76.73913043478261,NA,NA
27892,Martin County,NC,NA,67.08268330733229,NA
27983,Bertie County,NC,51.73913043478261,NA,NA
28027,Cabarrus County,NC,NA,7.17628705148206,NA
28040,Rutherford County,NC,NA,94.85179407176287,NA
28043,Rutherford County,NC,40.21739130434783,NA,NA
28079,Union County,NC,NA,NA,41.92913385826771
28083,Cabarrus County,NC,30.869565217391305,NA,NA
28092,Lincoln County,NC,NA,65.99063962558502,NA
28097,Stanly County,NC,NA,88.9235569422777,NA
28152,Cleveland County,NC,NA,84.399375975039,NA
28214,Mecklenburg County,NC,30,NA,NA
28269,Mecklenburg County,NC,NA,NA,39.173228346456696
28328,Sampson County,NC,NA,21.8408736349454,NA
28333,Wayne County,NC,NA,NA,95.47244094488188
28411,New Hanover County,NC,NA,39.46957878315133,NA
28412,New Hanover County,NC,19.565217391304348,NA,NA
28425,Pender County,NC,NA,NA,78.1496062992126
28570,Carteret County,NC,NA,45.70982839313572,NA
28601,Catawba County,NC,NA,9.51638065522621,NA
28625,Iredell County,NC,20.869565217391305,NA,NA
28642,Yadkin County,NC,NA,95.00780031201248,NA
28645,Caldwell County,NC,NA,NA,2.1653543307086616
28655,Burke County,NC,7.173913043478261,NA,NA
28657,Avery County,NC,92.82608695652173,NA,NA
28658,Catawba County,NC,NA,NA,49.40944881889764
28712,Transylvania County,NC,NA,NA,9.84251968503937
28734,Macon County,NC,NA,NA,4.330708661417323
28739,Henderson County,NC,NA,13.57254290171607,9.645669291338582
28741,Macon County,NC,NA,NA,89.37007874015748
58104,Cass County,ND,NA,NA,3.543307086614173
58504,Burleigh County,ND,NA,NA,21.8503937007874
58801,Williams County,ND,36.95652173913043,NA,NA
43056,Licking County,OH,39.130434782608695,NA,NA
43078,Champaign County,OH,NA,NA,74.21259842519686
43113,Pickaway County,OH,17.82608695652174,NA,NA
43123,Franklin County,OH,NA,NA,12.401574803149607
43206,Franklin County,OH,15.434782608695652,NA,NA
43449,Ottawa County,OH,NA,NA,92.1259842519685
43512,Defiance County,OH,NA,4.5241809672386895,NA
43543,Williams County,OH,68.91304347826087,NA,NA
43560,Lucas County,OH,NA,15.288611544461778,NA
43614,Lucas County,OH,NA,11.076443057722308,NA
43701,Muskingum County,OH,NA,0.15600624024961,NA
43935,Belmont County,OH,NA,62.402496099843994,NA
43953,Jefferson County,OH,NA,26.209048361934478,NA
44021,Geauga County,OH,NA,NA,79.13385826771653
44067,Summit County,OH,NA,53.66614664586583,NA
44070,Cuyahoga County,OH,NA,5.14820592823713,4.52755905511811
44077,Lake County,OH,NA,NA,0.5905511811023622
44112,Cuyahoga County,OH,NA,4.05616224648986,NA
44121,Cuyahoga County,OH,11.73913043478261,NA,NA
44129,Cuyahoga County,OH,NA,14.508580343213728,NA
44138,Cuyahoga County,OH,NA,NA,25.984251968503933
44146,Cuyahoga County,OH,NA,NA,5.511811023622047
44203,Summit County,OH,NA,NA,5.905511811023622
44212,Medina County,OH,3.91304347826087,0.31201248049922,NA
44236,Summit County,OH,NA,22.152886115444616,NA
44256,Medina County,OH,NA,6.708268330733229,1.3779527559055118
44278,Summit County,OH,NA,43.99375975039001,NA
44286,Summit County,OH,NA,NA,87.00787401574803
44312,Summit County,OH,NA,NA,25.590551181102363
44313,Summit County,OH,29.782608695652176,NA,NA
44485,Trumbull County,OH,NA,34.009360374414975,NA
44511,Mahoning County,OH,NA,32.605304212168484,NA
44512,Mahoning County,OH,13.260869565217392,NA,NA
44515,Mahoning County,OH,NA,NA,55.51181102362205
44615,Carroll County,OH,NA,NA,70.86614173228347
44657,Stark County,OH,NA,61.62246489859594,NA
44685,Summit County,OH,NA,23.08892355694228,NA
44705,Stark County,OH,57.391304347826086,NA,NA
44720,Stark County,OH,61.95652173913043,NA,15.551181102362206
44870,Erie County,OH,17.17391304347826,NA,NA
45030,Hamilton County,OH,NA,52.73010920436817,NA
45177,Clinton County,OH,NA,33.853354134165365,46.45669291338583
45205,Hamilton County,OH,NA,NA,87.79527559055119
45236,Hamilton County,OH,NA,NA,29.330708661417322
45241,Hamilton County,OH,NA,37.753510140405616,NA
45305,Greene County,OH,72.17391304347827,NA,NA
45311,Preble County,OH,NA,NA,94.68503937007874
45323,Clark County,OH,NA,88.14352574102963,95.86614173228347
45342,Montgomery County,OH,14.130434782608695,NA,NA
45424,Montgomery County,OH,NA,NA,7.086614173228346
45458,Montgomery County,OH,NA,12.792511700468017,NA
45502,Clark County,OH,NA,57.87831513260531,NA
45504,Clark County,OH,NA,97.81591263650546,NA
45505,Clark County,OH,NA,56.94227769110765,68.50393700787401
45628,Ross County,OH,98.26086956521739,NA,NA
45640,Jackson County,OH,NA,6.240249609984399,NA
45662,Scioto County,OH,3.4782608695652173,NA,NA
45669,Lawrence County,OH,47.82608695652174,NA,NA
45690,Pike County,OH,NA,51.950078003120126,NA
45692,Jackson County,OH,36.73913043478261,NA,NA
45723,Athens County,OH,85.86956521739131,NA,NA
45750,Washington County,OH,2.1739130434782608,NA,NA
45833,Allen County,OH,NA,65.36661466458659,NA
45840,Hancock County,OH,NA,2.02808112324493,NA
73012,Oklahoma County,OK,NA,47.425897035881434,NA
73013,Oklahoma County,OK,33.04347826086956,NA,NA
73068,Cleveland County,OK,70.65217391304348,NA,NA
73096,Custer County,OK,85.21739130434783,NA,NA
73099,Canadian County,OK,NA,6.3962558502340086,NA
73116,Oklahoma County,OK,NA,81.1232449297972,NA
73159,Oklahoma County,OK,45.65217391304348,NA,NA
73170,Cleveland County,OK,NA,15.600624024960998,NA
74008,Tulsa County,OK,NA,79.71918876755069,52.55905511811023
74037,Tulsa County,OK,NA,84.24336973478938,NA
74044,Creek County,OK,NA,NA,99.01574803149606
74055,Tulsa County,OK,NA,28.70514820592824,NA
74059,Payne County,OK,97.3913043478261,NA,NA
74063,Tulsa County,OK,NA,38.84555382215289,NA
74074,Payne County,OK,NA,NA,38.188976377952756
74105,Tulsa County,OK,NA,NA,62.40157480314961
74108,Tulsa County,OK,NA,97.34789391575663,NA
74133,Tulsa County,OK,NA,57.25429017160687,10.62992125984252
74137,Tulsa County,OK,NA,NA,75.19685039370079
74331,Delaware County,OK,92.17391304347827,NA,NA
74403,Muskogee County,OK,NA,27.769110764430575,NA
74432,McIntosh County,OK,NA,NA,73.22834645669292
74447,Okmulgee County,OK,NA,NA,44.29133858267716
74820,Pontotoc County,OK,10.434782608695652,4.6801872074882995,NA
97055,Clackamas County,OR,66.73913043478261,NA,NA
97058,Wasco County,OR,NA,30.88923556942278,NA
97080,Multnomah County,OR,NA,19.96879875195008,NA
97140,Washington County,OR,NA,61.15444617784711,NA
97201,Multnomah County,OR,NA,NA,74.40944881889764
97222,Clackamas County,OR,NA,67.70670826833073,NA
97223,Washington County,OR,29.347826086956523,NA,NA
97236,Multnomah County,OR,NA,27.14508580343214,NA
97266,Multnomah County,OR,NA,NA,65.74803149606299
97338,Polk County,OR,46.08695652173913,NA,NA
97383,Marion County,OR,NA,83.15132605304211,NA
97462,Douglas County,OR,NA,NA,99.80314960629921
97470,Douglas County,OR,31.956521739130434,NA,NA
97471,Douglas County,OR,21.521739130434785,NA,12.992125984251967
97502,Jackson County,OR,NA,NA,35.826771653543304
97527,Josephine County,OR,74.1304347826087,NA,NA
97601,Klamath County,OR,NA,11.700468018720748,NA
97703,Deschutes County,OR,NA,NA,96.06299212598425
15010,Beaver County,PA,NA,26.98907956318253,NA
15106,Allegheny County,PA,NA,59.4383775351014,NA
15234,Allegheny County,PA,85,NA,NA
15317,Washington County,PA,83.26086956521739,9.67238689547582,NA
15370,Greene County,PA,NA,NA,58.26771653543307
15666,Westmoreland County,PA,NA,NA,13.779527559055119
15801,Clearfield County,PA,NA,NA,24.803149606299215
15824,Jefferson County,PA,NA,83.93135725429018,NA
15834,Cameron County,PA,NA,69.11076443057722,NA
16033,Butler County,PA,NA,91.41965678627145,NA
16323,Venango County,PA,NA,34.945397815912635,42.91338582677165
16412,Erie County,PA,89.13043478260869,NA,NA
16602,Blair County,PA,NA,12.948517940717629,NA
16666,Clearfield County,PA,NA,98.75195007800312,NA
16901,Tioga County,PA,NA,90.32761310452419,NA
16933,Tioga County,PA,NA,NA,93.89763779527559
17023,Dauphin County,PA,NA,98.90795631825273,NA
17033,Dauphin County,PA,34.130434782608695,NA,NA
17044,Mifflin County,PA,42.82608695652174,NA,NA
17067,Lebanon County,PA,65,NA,NA
17074,Perry County,PA,NA,84.55538221528862,NA
17078,Lebanon County,PA,21.304347826086957,NA,NA
17201,Franklin County,PA,NA,NA,18.89763779527559
17225,Franklin County,PA,56.739130434782616,NA,NA
17402,York County,PA,NA,10.452418096723868,NA
17403,York County,PA,47.608695652173914,NA,NA
17851,Northumberland County,PA,66.73913043478261,NA,NA
17872,Northumberland County,PA,NA,38.06552262090484,NA
17922,Schuylkill County,PA,94.56521739130434,NA,NA
17938,Schuylkill County,PA,100,NA,NA
18020,Northampton County,PA,NA,30.265210608424336,NA
18037,Lehigh County,PA,NA,85.8034321372855,NA
18040,Northampton County,PA,NA,43.21372854914197,NA
18042,Northampton County,PA,NA,4.368174726989079,NA
18088,Northampton County,PA,67.82608695652173,NA,NA
18103,Lehigh County,PA,6.521739130434782,5.61622464898596,41.53543307086614
18104,Lehigh County,PA,18.043478260869566,NA,NA
18504,Lackawanna County,PA,NA,43.36973478939157,NA
18635,Luzerne County,PA,NA,98.12792511700468,NA
18640,Luzerne County,PA,NA,68.33073322932918,NA
19010,Delaware County,PA,NA,NA,47.24409448818898
19020,Bucks County,PA,NA,NA,13.188976377952756
19033,Delaware County,PA,NA,NA,91.92913385826772
19053,Bucks County,PA,NA,68.95475819032761,45.47244094488189
19073,Delaware County,PA,NA,NA,18.503937007874015
19114,Philadelphia County,PA,23.043478260869566,NA,NA
19115,Philadelphia County,PA,NA,NA,12.204724409448819
19119,Philadelphia County,PA,27.173913043478258,NA,NA
19138,Philadelphia County,PA,NA,NA,29.7244094488189
19144,Philadelphia County,PA,5.869565217391305,NA,NA
19350,Chester County,PA,NA,NA,93.30708661417323
19355,Chester County,PA,NA,74.25897035881435,NA
19390,Chester County,PA,NA,NA,97.24409448818898
19403,Montgomery County,PA,NA,5.928237129485179,NA
19425,Chester County,PA,NA,88.61154446177846,NA
19460,Chester County,PA,55.65217391304348,NA,NA
19465,Chester County,PA,NA,NA,67.71653543307087
19468,Montgomery County,PA,NA,NA,46.653543307086615
02816,Kent County,RI,61.08695652173913,14.97659906396256,NA
02863,Providence County,RI,NA,NA,61.417322834645674
02878,Newport County,RI,NA,NA,64.76377952755905
02895,Providence County,RI,60.21739130434782,NA,NA
02914,Providence County,RI,NA,41.96567862714509,NA
02919,Providence County,RI,NA,29.95319812792512,NA
29108,Newberry County,SC,NA,NA,60.23622047244095
29150,Sumter County,SC,37.173913043478265,NA,NA
29170,Lexington County,SC,95.43478260869566,NA,NA
29330,Spartanburg County,SC,NA,94.07176287051482,NA
29369,Spartanburg County,SC,71.52173913043478,63.494539781591264,80.51181102362204
29410,Berkeley County,SC,NA,NA,70.66929133858267
29412,Charleston County,SC,NA,NA,47.63779527559055
29461,Berkeley County,SC,NA,NA,44.09448818897638
29464,Charleston County,SC,44.565217391304344,NA,17.125984251968504
29466,Charleston County,SC,NA,NA,73.81889763779527
29477,Dorchester County,SC,88.04347826086956,NA,NA
29479,Berkeley County,SC,NA,91.73166926677067,NA
29483,Dorchester County,SC,NA,55.38221528861155,83.85826771653542
29485,Dorchester County,SC,NA,NA,45.66929133858268
29501,Florence County,SC,NA,16.536661466458657,NA
29532,Darlington County,SC,62.17391304347826,NA,NA
29536,Dillon County,SC,NA,80.65522620904837,NA
29541,Florence County,SC,NA,NA,98.03149606299213
29566,Horry County,SC,76.95652173913044,NA,NA
29577,Horry County,SC,62.39130434782608,NA,NA
29617,Greenville County,SC,37.391304347826086,NA,NA
29642,Pickens County,SC,NA,NA,30.511811023622048
29649,Greenwood County,SC,NA,54.44617784711389,NA
29654,Anderson County,SC,87.17391304347825,NA,NA
29669,Anderson County,SC,NA,NA,85.03937007874016
29691,Oconee County,SC,NA,NA,82.8740157480315
29720,Lancaster County,SC,NA,28.23712948517941,NA
29732,York County,SC,NA,NA,24.015748031496063
29745,York County,SC,49.56521739130435,NA,NA
29803,Aiken County,SC,NA,9.82839313572543,NA
57106,Minnehaha County,SD,25.65217391304348,NA,NA
57110,Minnehaha County,SD,NA,NA,34.84251968503937
37013,Davidson County,TN,NA,17.784711388455538,NA
37042,Montgomery County,TN,NA,NA,54.13385826771654
37055,Dickson County,TN,NA,42.43369734789392,60.629921259842526
37064,Williamson County,TN,NA,15.756630265210608,NA
37066,Sumner County,TN,NA,9.204368174726989,NA
37076,Davidson County,TN,36.52173913043478,NA,NA
37086,Rutherford County,TN,76.08695652173914,NA,NA
37110,Warren County,TN,NA,25.897035881435258,NA
37115,Davidson County,TN,NA,23.244929797191887,NA
37129,Rutherford County,TN,NA,30.733229329173167,NA
37130,Rutherford County,TN,NA,31.513260530421217,NA
37167,Rutherford County,TN,NA,25.585023400936034,NA
37214,Davidson County,TN,NA,NA,61.811023622047244
37218,Davidson County,TN,49.56521739130435,NA,NA
37601,Washington County,TN,20.434782608695652,12.636505460218409,NA
37615,Washington County,TN,59.34782608695652,NA,NA
37617,Sullivan County,TN,NA,63.80655226209049,NA
37620,Sullivan County,TN,16.304347826086957,NA,NA
37642,Hawkins County,TN,NA,46.957878315132604,69.09448818897637
37643,Carter County,TN,NA,NA,21.25984251968504
37660,Sullivan County,TN,10.652173913043478,NA,10.433070866141732
37663,Sullivan County,TN,NA,62.090483619344774,93.11023622047244
37664,Sullivan County,TN,NA,NA,30.905511811023622
37665,Sullivan County,TN,NA,NA,86.22047244094489
37681,Washington County,TN,NA,90.95163806552262,NA
37711,Hawkins County,TN,NA,NA,86.0236220472441
37721,Knox County,TN,93.04347826086956,NA,NA
37745,Greene County,TN,81.95652173913044,22.776911076443056,NA
37763,Roane County,TN,NA,41.34165366614664,NA
37821,Cocke County,TN,NA,79.09516380655226,NA
37830,Anderson County,TN,NA,60.53042121684867,38.77952755905512
37862,Sevier County,TN,38.91304347826087,NA,NA
37876,Sevier County,TN,NA,NA,38.976377952755904
37914,Knox County,TN,38.26086956521739,38.37753510140406,NA
37921,Knox County,TN,30.434782608695656,55.69422776911076,NA
37922,Knox County,TN,54.347826086956516,51.794071762870516,NA
37931,Knox County,TN,NA,58.65834633385335,NA
37934,Knox County,TN,NA,42.12168486739469,NA
38017,Shelby County,TN,NA,NA,48.22834645669291
38053,Shelby County,TN,NA,NA,32.48031496062992
38058,Tipton County,TN,NA,87.5195007800312,NA
38109,Shelby County,TN,NA,16.22464898595944,NA
38112,Shelby County,TN,63.26086956521739,NA,NA
38116,Shelby County,TN,78.47826086956522,NA,NA
38225,Weakley County,TN,89.78260869565217,NA,72.83464566929135
38301,Madison County,TN,NA,18.096723868954758,NA
38474,Maury County,TN,95.21739130434783,NA,NA
38558,Cumberland County,TN,NA,50.390015600624025,NA
38570,Overton County,TN,NA,66.14664586583463,NA
75020,Grayson County,TX,NA,36.349453978159126,NA
75034,Denton County,TX,NA,NA,40.354330708661415
75063,Dallas County,TX,NA,NA,89.56692913385827
75068,Denton County,TX,NA,NA,67.32283464566929
75071,Collin County,TX,NA,31.981279251170047,NA
75074,Collin County,TX,NA,33.073322932917314,NA
75080,Dallas County,TX,NA,NA,19.094488188976378
75087,Rockwall County,TX,43.04347826086957,54.44617784711389,NA
75088,Dallas County,TX,86.30434782608695,NA,NA
75089,Dallas County,TX,NA,67.86271450858035,NA
75090,Grayson County,TX,NA,82.05928237129486,NA
75103,Van Zandt County,TX,NA,NA,48.62204724409449
75104,Dallas County,TX,26.73913043478261,29.797191887675506,NA
75119,Ellis County,TX,NA,NA,66.73228346456693
75137,Dallas County,TX,NA,NA,62.59842519685039
75143,Henderson County,TX,NA,NA,64.1732283464567
75160,Kaufman County,TX,NA,52.73010920436817,NA
75165,Ellis County,TX,NA,26.521060842433698,NA
75216,Dallas County,TX,NA,9.048361934477379,NA
75243,Dallas County,TX,NA,43.99375975039001,NA
75248,Dallas County,TX,NA,NA,38.38582677165354
75501,Bowie County,TX,NA,23.712948517940717,NA
75563,Cass County,TX,NA,92.97971918876755,NA
75601,Gregg County,TX,NA,NA,82.48031496062993
75662,Gregg County,TX,NA,NA,77.95275590551181
75801,Anderson County,TX,63.26086956521739,NA,NA
75901,Angelina County,TX,NA,39.93759750390016,NA
75935,Shelby County,TX,75.21739130434783,NA,NA
76022,Tarrant County,TX,NA,80.03120124804992,NA
76028,Johnson County,TX,14.565217391304348,NA,13.385826771653544
76051,Tarrant County,TX,33.26086956521739,NA,NA
76054,Tarrant County,TX,NA,NA,68.7007874015748
76107,Tarrant County,TX,NA,NA,62.00787401574803
76116,Tarrant County,TX,NA,14.35257410296412,NA
76134,Tarrant County,TX,NA,85.49141965678628,NA
76135,Tarrant County,TX,NA,87.6755070202808,NA
76208,Denton County,TX,NA,47.269890795631824,NA
76227,Denton County,TX,NA,75.0390015600624,NA
76426,Wise County,TX,NA,NA,59.4488188976378
76522,Coryell County,TX,NA,NA,12.598425196850393
77015,Harris County,TX,NA,NA,63.582677165354326
77017,Harris County,TX,87.39130434782608,NA,NA
77028,Harris County,TX,NA,65.21060842433697,NA
77044,Harris County,TX,69.34782608695652,NA,84.05511811023622
77055,Harris County,TX,NA,NA,80.90551181102363
77062,Harris County,TX,59.78260869565217,NA,NA
77070,Harris County,TX,NA,59.75039001560063,NA
77071,Harris County,TX,83.04347826086956,NA,NA
77072,Harris County,TX,NA,NA,80.51181102362204
77082,Harris County,TX,NA,37.441497659906396,NA
77084,Harris County,TX,NA,23.556942277691107,NA
77086,Harris County,TX,NA,66.61466458658346,NA
77095,Harris County,TX,21.73913043478261,NA,NA
77096,Harris County,TX,NA,44.30577223088923,NA
77099,Harris County,TX,53.2608695652174,NA,NA
77340,Walker County,TX,NA,NA,66.53543307086615
77357,Montgomery County,TX,NA,NA,95.07874015748031
77372,Montgomery County,TX,86.08695652173914,NA,NA
77379,Harris County,TX,NA,NA,11.023622047244094
77381,Montgomery County,TX,NA,36.037441497659906,NA
77401,Harris County,TX,70.65217391304348,NA,NA
77478,Fort Bend County,TX,82.3913043478261,NA,NA
77511,Brazoria County,TX,19.782608695652172,NA,NA
77546,Galveston County,TX,NA,11.54446177847114,NA
77568,Galveston County,TX,35.65217391304348,NA,NA
77833,Washington County,TX,74.56521739130434,NA,NA
77845,Brazos County,TX,NA,NA,2.559055118110236
78028,Kerr County,TX,NA,NA,6.692913385826772
78040,Webb County,TX,NA,NA,20.275590551181104
78041,Webb County,TX,NA,21.996879875195006,NA
78130,Comal County,TX,NA,56.78627145085804,NA
78211,Bexar County,TX,51.52173913043478,NA,NA
78231,Bexar County,TX,98.91304347826086,NA,NA
78232,Bexar County,TX,NA,42.74570982839314,NA
78233,Bexar County,TX,NA,54.91419656786272,NA
78258,Bexar County,TX,85.43478260869564,NA,NA
78382,Aransas County,TX,NA,79.09516380655226,NA
78414,Nueces County,TX,60.86956521739131,NA,NA
78503,Hidalgo County,TX,NA,93.91575663026521,NA
78521,Cameron County,TX,NA,NA,13.582677165354331
78703,Travis County,TX,NA,89.39157566302653,NA
78728,Travis County,TX,NA,NA,91.33858267716536
78757,Travis County,TX,NA,NA,75.98425196850394
78852,Maverick County,TX,NA,NA,21.062992125984252
78942,Lee County,TX,NA,93.44773790951638,NA
79106,Potter County,TX,NA,39.15756630265211,NA
79336,Hockley County,TX,NA,61.93447737909516,NA
79412,Lubbock County,TX,NA,89.2355694227769,NA
79602,Taylor County,TX,NA,80.49921996879876,NA
79603,Taylor County,TX,NA,34.16536661466459,NA
79605,Taylor County,TX,NA,72.69890795631825,NA
79606,Taylor County,TX,NA,53.042121684867396,32.874015748031496
79701,Midland County,TX,NA,NA,81.10236220472441
79707,Midland County,TX,35,NA,NA
79915,El Paso County,TX,51.73913043478261,NA,NA
79936,El Paso County,TX,16.08695652173913,NA,NA
84003,Utah County,UT,NA,60.9984399375975,NA
84010,Davis County,UT,NA,58.97035881435257,NA
84014,Davis County,UT,NA,NA,77.16535433070865
84065,Salt Lake County,UT,NA,44.77379095163806,NA
84067,Weber County,UT,NA,59.2823712948518,54.13385826771654
84103,Salt Lake County,UT,NA,NA,35.23622047244094
84115,Salt Lake County,UT,NA,34.477379095163805,NA
84120,Salt Lake County,UT,10,20.436817472698905,NA
84335,Cache County,UT,NA,96.8798751950078,NA
84648,Juab County,UT,96.73913043478261,NA,NA
84790,Washington County,UT,NA,14.19656786271451,NA
20147,Loudoun County,VA,NA,NA,14.763779527559054
20171,Fairfax County,VA,48.47826086956522,NA,NA
20194,Fairfax County,VA,86.52173913043478,93.60374414976599,NA
22030,Fairfax County,VA,31.73913043478261,NA,NA
22043,Fairfax County,VA,NA,78.003120124805,NA
22101,Fairfax County,VA,NA,46.80187207488299,NA
22151,Fairfax County,VA,80.65217391304348,NA,NA
22308,Fairfax County,VA,79.56521739130434,NA,NA
22407,Spotsylvania County,VA,NA,18.876755070202808,NA
22601,Winchester city,VA,60.652173913043484,NA,NA
22603,Frederick County,VA,83.69565217391305,NA,NA
22664,Shenandoah County,VA,73.91304347826086,NA,NA
22701,Culpeper County,VA,28.26086956521739,NA,NA
22812,Rockingham County,VA,NA,NA,61.22047244094488
22824,Shenandoah County,VA,84.78260869565217,NA,NA
22963,Fluvanna County,VA,NA,49.609984399375975,NA
22980,Waynesboro city,VA,10.869565217391305,26.053042121684868,NA
23111,Hanover County,VA,NA,16.380655226209047,22.440944881889763
23116,Hanover County,VA,NA,54.13416536661466,NA
23185,James City County,VA,NA,24.492979719188767,NA
23223,Henrico County,VA,NA,NA,31.88976377952756
23224,Richmond city,VA,NA,32.293291731669264,NA
23225,Richmond city,VA,NA,NA,31.88976377952756
23229,Henrico County,VA,NA,41.02964118564743,NA
23236,Chesterfield County,VA,59.78260869565217,NA,NA
23320,Chesapeake city,VA,NA,NA,8.858267716535433
23323,Chesapeake city,VA,NA,34.321372854914195,43.89763779527559
23324,Chesapeake city,VA,NA,NA,39.37007874015748
23430,Isle of Wight County,VA,NA,33.229329173166924,NA
23434,Suffolk city,VA,NA,40.40561622464899,NA
23435,Suffolk city,VA,NA,NA,52.75590551181102
23452,Virginia Beach city,VA,NA,8.736349453978159,NA
23454,Virginia Beach city,VA,NA,12.168486739469579,NA
23462,Virginia Beach city,VA,48.04347826086956,10.60842433697348,NA
23464,Virginia Beach city,VA,NA,2.3400936037441498,2.3622047244094486
23505,Norfolk city,VA,NA,NA,36.417322834645674
23508,Norfolk city,VA,NA,NA,70.07874015748031
23669,Hampton city,VA,NA,14.040561622464898,NA
23701,Portsmouth city,VA,NA,NA,23.4251968503937
23805,Petersburg city,VA,NA,60.37441497659907,NA
23832,Chesterfield County,VA,45,NA,NA
23851,Franklin city,VA,NA,51.326053042121686,NA
23868,Brunswick County,VA,88.91304347826086,NA,NA
24015,Roanoke city,VA,73.04347826086956,NA,NA
24017,Roanoke city,VA,27.608695652173914,NA,NA
24019,Roanoke County,VA,79.78260869565217,NA,NA
24083,Botetourt County,VA,99.56521739130434,NA,NA
24112,Henry County,VA,NA,15.132605304212168,NA
24121,Bedford County,VA,NA,NA,75.59055118110236
24141,Radford city,VA,NA,76.28705148205928,58.661417322834644
24201,Bristol city,VA,NA,42.58970358814352,NA
24319,Smyth County,VA,97.82608695652173,NA,NA
24343,Carroll County,VA,NA,72.23088923556942,NA
24382,Wythe County,VA,NA,78.78315132605304,NA
24416,Buena Vista city,VA,NA,NA,76.77165354330708
24421,Augusta County,VA,NA,83.30733229329174,NA
24590,Albemarle County,VA,NA,82.8393135725429,NA
98011,King County,WA,NA,NA,90.5511811023622
98022,King County,WA,NA,NA,42.125984251968504
98027,King County,WA,63.04347826086957,NA,55.70866141732284
98032,King County,WA,NA,NA,66.33858267716536
98033,King County,WA,NA,NA,64.56692913385827
98042,King County,WA,21.086956521739133,NA,NA
98053,King County,WA,NA,NA,50.78740157480315
98065,King County,WA,81.08695652173913,NA,NA
98075,King County,WA,NA,NA,87.99212598425197
98233,Skagit County,WA,79.34782608695652,NA,NA
98260,Island County,WA,NA,78.31513260530421,82.67716535433071
98273,Skagit County,WA,NA,NA,8.46456692913386
98292,Snohomish County,WA,NA,NA,60.03937007874016
98310,Kitsap County,WA,NA,NA,42.51968503937008
98312,Kitsap County,WA,NA,60.06240249609984,NA
98362,Clallam County,WA,NA,NA,4.921259842519685
98382,Clallam County,WA,NA,19.81279251170047,NA
98391,Pierce County,WA,18.26086956521739,NA,NA
98506,Thurston County,WA,75.43478260869566,NA,NA
98550,Grays Harbor County,WA,NA,91.26365054602185,NA
98579,Thurston County,WA,NA,96.25585023400937,NA
98684,Clark County,WA,NA,59.59438377535101,NA
98801,Chelan County,WA,NA,7.48829953198128,NA
98903,Yakima County,WA,70.21739130434783,NA,NA
99156,Pend Oreille County,WA,NA,NA,74.01574803149606
99207,Spokane County,WA,NA,59.12636505460218,NA
99223,Spokane County,WA,NA,53.198127925117,NA
99320,Benton County,WA,NA,52.418096723868956,NA
99328,Columbia County,WA,99.78260869565217,NA,NA
99338,Benton County,WA,NA,NA,65.35433070866141
20007,District of Columbia,DC,78.26086956521739,NA,NA
20019,District of Columbia,DC,NA,4.83619344773791,NA
20020,District of Columbia,DC,NA,NA,27.95275590551181
24739,Mercer County,WV,NA,76.75507020280811,NA
24740,Mercer County,WV,NA,NA,48.818897637795274
25064,Kanawha County,WV,49.130434782608695,NA,NA
25143,Kanawha County,WV,NA,68.48673946957878,NA
25312,Kanawha County,WV,NA,51.326053042121686,NA
25313,Kanawha County,WV,NA,50.078003120124805,NA
25545,Cabell County,WV,96.52173913043478,NA,NA
25550,Mason County,WV,99.34782608695653,NA,NA
25601,Logan County,WV,NA,63.338533541341654,NA
25901,Fayette County,WV,NA,NA,84.84251968503938
26003,Ohio County,WV,6.739130434782608,NA,NA
26554,Marion County,WV,NA,15.44461778471139,NA
53014,Calumet County,WI,NA,NA,41.732283464566926
53050,Dodge County,WI,NA,NA,91.53543307086615
53051,Waukesha County,WI,NA,NA,11.220472440944881
53072,Waukesha County,WI,NA,40.87363494539781,NA
53074,Ozaukee County,WI,NA,NA,81.88976377952756
53081,Sheboygan County,WI,46.30434782608695,NA,NA
53090,Washington County,WI,NA,51.17004680187207,NA
53105,Racine County,WI,NA,95.78783151326053,NA
53132,Milwaukee County,WI,NA,82.68330733229328,15.354330708661418
53142,Kenosha County,WI,NA,NA,37.20472440944882
53151,Waukesha County,WI,NA,20.59282371294852,NA
53186,Waukesha County,WI,NA,34.945397815912635,33.85826771653544
53188,Waukesha County,WI,25.869565217391305,18.408736349453978,NA
53189,Waukesha County,WI,NA,31.201248049921997,NA
53208,Milwaukee County,WI,NA,NA,58.07086614173228
53209,Milwaukee County,WI,NA,0.93603744149766,NA
53210,Milwaukee County,WI,NA,18.720748829953198,NA
53215,Milwaukee County,WI,NA,24.960998439937597,NA
53219,Milwaukee County,WI,21.956521739130437,NA,NA
53223,Milwaukee County,WI,20.217391304347824,NA,NA
53228,Milwaukee County,WI,NA,44.61778471138845,NA
53406,Racine County,WI,NA,1.5600624024960998,NA
53511,Rock County,WI,9.130434782608695,5.30421216848674,0
53538,Jefferson County,WI,NA,71.60686427457098,65.15748031496062
53549,Jefferson County,WI,NA,52.574102964118566,NA
53713,Dane County,WI,51.30434782608696,NA,NA
54016,St. Croix County,WI,NA,46.17784711388456,NA
54166,Shawano County,WI,NA,48.673946957878314,NA
54220,Manitowoc County,WI,NA,18.564742589703588,0.7874015748031495
54728,Barron County,WI,NA,NA,75.39370078740157
54751,Dunn County,WI,NA,27.613104524180965,NA
54880,Douglas County,WI,NA,NA,1.574803149606299
54937,Fond du Lac County,WI,72.82608695652173,90.01560062402496,NA
82633,Converse County,WY,59.56521739130435,NA,NA
