ZipCode,county,state,Adult,Retirement,Geriatric
35007,Shelby County,AL,57.194244604316545,71.49187592319055,NA
35016,Marshall County,AL,59.53237410071942,NA,NA
35079,Blount County,AL,NA,NA,92.38095238095238
35114,Shelby County,AL,91.54676258992805,NA,NA
35126,Jefferson County,AL,NA,NA,73.90476190476191
35204,Jefferson County,AL,NA,NA,65.71428571428571
35208,Jefferson County,AL,47.66187050359712,NA,NA
35226,Jefferson County,AL,NA,24.076809453471196,NA
35404,Tuscaloosa County,AL,NA,83.75184638109306,NA
35473,Tuscaloosa County,AL,NA,56.42540620384048,NA
35476,Tuscaloosa County,AL,NA,NA,64.38095238095238
35549,Walker County,AL,NA,NA,96
35553,Winston County,AL,NA,NA,93.52380952380952
35555,Fayette County,AL,NA,NA,51.61904761904762
35601,Morgan County,AL,NA,NA,27.42857142857143
35611,Limestone County,AL,NA,27.326440177252586,NA
35630,Lauderdale County,AL,NA,NA,47.61904761904761
35670,Morgan County,AL,NA,77.25258493353027,NA
35802,Madison County,AL,NA,65.73116691285081,NA
35810,Madison County,AL,NA,23.042836041358935,NA
35950,Marshall County,AL,49.460431654676256,NA,NA
36024,Elmore County,AL,92.80575539568345,NA,NA
36067,Autauga County,AL,44.60431654676259,NA,NA
36104,Montgomery County,AL,62.589928057553955,NA,NA
36108,Montgomery County,AL,NA,90.10339734121122,89.71428571428571
36207,Calhoun County,AL,NA,62.186115214180205,NA
36532,Baldwin County,AL,NA,26.73559822747415,NA
36701,Dallas County,AL,NA,NA,53.9047619047619
99603,Kenai Peninsula Borough,AK,NA,NA,74.85714285714286
85009,Maricopa County,AZ,NA,NA,63.61904761904762
85015,Maricopa County,AZ,NA,NA,63.04761904761905
85019,Maricopa County,AZ,47.302158273381295,NA,NA
85051,Maricopa County,AZ,NA,40.02954209748892,NA
85131,Pinal County,AZ,NA,NA,88.57142857142857
85202,Maricopa County,AZ,NA,NA,83.04761904761905
85206,Maricopa County,AZ,NA,NA,11.047619047619047
85209,Maricopa County,AZ,NA,27.621861152141804,NA
85224,Maricopa County,AZ,NA,47.71048744460857,NA
85256,Maricopa County,AZ,90.28776978417267,NA,NA
85331,Maricopa County,AZ,NA,NA,63.23809523809524
85344,La Paz County,AZ,NA,69.86706056129985,NA
85367,Yuma County,AZ,NA,53.61890694239291,NA
85544,Gila County,AZ,NA,93.50073855243723,NA
85603,Cochise County,AZ,93.34532374100719,NA,NA
85635,Cochise County,AZ,30.215827338129497,NA,NA
85658,Pima County,AZ,81.65467625899281,NA,NA
85704,Pima County,AZ,NA,NA,60.76190476190476
85706,Pima County,AZ,3.5971223021582732,NA,NA
85712,Pima County,AZ,NA,NA,78.47619047619048
85716,Pima County,AZ,NA,NA,83.61904761904762
85745,Pima County,AZ,30.575539568345324,NA,NA
85748,Pima County,AZ,NA,NA,64.19047619047619
86044,San Juan County,AZ,79.13669064748201,NA,NA
86326,Yavapai County,AZ,27.87769784172662,NA,NA
86333,Yavapai County,AZ,96.40287769784173,NA,NA
71655,Drew County,AR,NA,90.39881831610043,NA
71667,Lincoln County,AR,NA,NA,71.42857142857143
71730,Union County,AR,NA,31.757754800590842,NA
71909,Garland County,AR,NA,NA,90.47619047619048
71913,Garland County,AR,NA,29.68980797636632,NA
71923,Clark County,AR,85.25179856115108,NA,98.66666666666667
72023,Lonoke County,AR,NA,NA,48.76190476190476
72118,Pulaski County,AR,NA,NA,45.14285714285714
72207,Pulaski County,AR,NA,81.53618906942393,NA
72212,Pulaski County,AR,NA,65.58345642540621,NA
72223,Pulaski County,AR,NA,63.663220088626296,NA
72450,Greene County,AR,24.100719424460433,NA,NA
72501,Independence County,AR,NA,29.098966026587885,NA
72560,Stone County,AR,NA,61.89069423929099,NA
72650,Searcy County,AR,96.0431654676259,NA,NA
72653,Baxter County,AR,NA,21.86115214180207,NA
72715,Benton County,AR,NA,NA,18.285714285714285
72762,Washington County,AR,53.597122302158276,NA,NA
72908,Sebastian County,AR,NA,NA,92.76190476190476
72927,Logan County,AR,NA,82.57016248153619,NA
90007,Los Angeles County,CA,34.71223021582734,NA,NA
90015,Los Angeles County,CA,NA,79.91137370753324,NA
90017,Los Angeles County,CA,NA,NA,87.23809523809524
90020,Los Angeles County,CA,NA,NA,90.85714285714286
90034,Los Angeles County,CA,NA,82.42245199409159,33.33333333333333
90045,Los Angeles County,CA,NA,58.19793205317577,NA
90245,Los Angeles County,CA,87.23021582733813,NA,NA
90247,Los Angeles County,CA,57.55395683453237,NA,NA
90249,Los Angeles County,CA,NA,63.07237813884786,NA
90250,Los Angeles County,CA,NA,27.474150664697195,NA
90278,Los Angeles County,CA,66.72661870503596,NA,NA
90280,Los Angeles County,CA,NA,39.7341211225997,NA
90501,Los Angeles County,CA,NA,NA,50.66666666666667
90505,Los Angeles County,CA,NA,NA,30.857142857142854
90706,Los Angeles County,CA,NA,39.29098966026588,NA
90731,Los Angeles County,CA,69.24460431654677,NA,50.28571428571429
91006,Los Angeles County,CA,NA,NA,68.76190476190476
91042,Los Angeles County,CA,NA,53.91432791728212,NA
91101,Los Angeles County,CA,98.7410071942446,NA,NA
91214,Los Angeles County,CA,NA,76.80945347119645,NA
91335,Los Angeles County,CA,NA,NA,10.666666666666668
91354,Los Angeles County,CA,NA,81.24076809453472,NA
91701,San Bernardino County,CA,NA,NA,52.95238095238095
91702,Los Angeles County,CA,NA,46.233382570162476,NA
91710,San Bernardino County,CA,NA,20.236336779911372,NA
91711,Los Angeles County,CA,NA,NA,56.952380952380956
91730,San Bernardino County,CA,NA,39.438700147710485,NA
91737,San Bernardino County,CA,NA,92.76218611521418,NA
91789,Los Angeles County,CA,NA,62.62924667651403,NA
91791,Los Angeles County,CA,NA,52.437223042836045,NA
91902,San Diego County,CA,NA,84.3426883308715,NA
91911,San Diego County,CA,NA,NA,7.809523809523809
92020,San Diego County,CA,NA,NA,30.0952380952381
92021,San Diego County,CA,19.784172661870503,NA,NA
92040,San Diego County,CA,NA,NA,27.80952380952381
92058,San Diego County,CA,NA,NA,84.76190476190476
92064,San Diego County,CA,56.11510791366906,NA,NA
92115,San Diego County,CA,38.669064748201436,NA,NA
92116,San Diego County,CA,NA,83.01329394387001,NA
92129,San Diego County,CA,NA,NA,49.904761904761905
92220,Riverside County,CA,NA,94.6824224519941,NA
92227,Imperial County,CA,NA,NA,44.38095238095238
92243,Imperial County,CA,30.755395683453234,NA,NA
92253,Riverside County,CA,NA,9.896602658788774,NA
92270,Riverside County,CA,NA,9.010339734121123,NA
92308,San Bernardino County,CA,NA,NA,39.42857142857143
92311,San Bernardino County,CA,NA,92.02363367799113,81.52380952380952
92315,San Bernardino County,CA,97.66187050359713,NA,NA
92335,San Bernardino County,CA,12.589928057553957,NA,NA
92345,San Bernardino County,CA,NA,15.952732644017726,23.238095238095237
92346,San Bernardino County,CA,32.913669064748206,49.63072378138848,60.38095238095238
92354,San Bernardino County,CA,97.12230215827337,NA,NA
92373,San Bernardino County,CA,NA,NA,47.04761904761905
92374,San Bernardino County,CA,NA,NA,49.523809523809526
92376,San Bernardino County,CA,NA,17.725258493353028,54.666666666666664
92399,San Bernardino County,CA,37.589928057553955,NA,NA
92405,San Bernardino County,CA,52.15827338129496,NA,NA
92410,San Bernardino County,CA,40.647482014388494,NA,NA
92411,San Bernardino County,CA,NA,74.44608567208272,84
92504,Riverside County,CA,NA,56.12998522895125,NA
92507,Riverside County,CA,NA,NA,63.61904761904762
92509,Riverside County,CA,62.23021582733813,NA,NA
92539,Riverside County,CA,NA,96.7503692762186,NA
92585,Riverside County,CA,NA,87.14918759231905,NA
92596,Riverside County,CA,NA,NA,90.0952380952381
92620,Orange County,CA,NA,45.937961595273265,NA
92672,Orange County,CA,NA,56.57311669128509,NA
92677,Orange County,CA,41.18705035971223,NA,NA
92683,Orange County,CA,NA,NA,26.666666666666668
92703,Orange County,CA,NA,56.27769571639586,NA
92831,Orange County,CA,NA,46.5288035450517,89.33333333333333
92832,Orange County,CA,NA,NA,74.66666666666667
92886,Orange County,CA,NA,NA,91.42857142857143
93003,Ventura County,CA,NA,NA,12.761904761904763
93010,Ventura County,CA,NA,NA,10.095238095238095
93012,Ventura County,CA,NA,46.67651403249631,NA
93021,Ventura County,CA,NA,53.17577548005909,NA
93033,Ventura County,CA,NA,10.3397341211226,NA
93035,Ventura County,CA,73.02158273381295,NA,NA
93036,Ventura County,CA,NA,80.94534711964549,NA
93041,Ventura County,CA,NA,NA,95.23809523809523
93117,Santa Barbara County,CA,NA,74.74150664697193,NA
93215,Kern County,CA,65.82733812949641,NA,NA
93286,Tulare County,CA,NA,NA,96.19047619047619
93436,Santa Barbara County,CA,NA,16.838995568685377,NA
93534,Los Angeles County,CA,NA,41.211225997045794,NA
93535,Los Angeles County,CA,NA,71.93500738552437,NA
93560,Kern County,CA,92.08633093525181,NA,NA
93612,Fresno County,CA,NA,NA,38.666666666666664
93619,Fresno County,CA,NA,NA,57.14285714285714
93637,Madera County,CA,82.73381294964028,NA,NA
93710,Fresno County,CA,NA,NA,46.476190476190474
93711,Fresno County,CA,NA,40.62038404726736,NA
93722,Fresno County,CA,NA,16.100443131462335,NA
93723,Fresno County,CA,91.36690647482014,NA,NA
93725,Fresno County,CA,71.76258992805755,NA,NA
93726,Fresno County,CA,26.258992805755394,NA,NA
93950,Monterey County,CA,NA,68.83308714918759,NA
93955,Monterey County,CA,NA,37.370753323485964,NA
94002,San Mateo County,CA,NA,NA,45.904761904761905
94080,San Mateo County,CA,40.10791366906475,NA,NA
94117,San Francisco County,CA,NA,45.64254062038405,NA
94121,San Francisco County,CA,NA,NA,11.238095238095239
94509,Contra Costa County,CA,26.798561151079138,NA,73.71428571428571
94517,Contra Costa County,CA,NA,91.1373707533235,NA
94541,Alameda County,CA,63.84892086330935,NA,NA
94549,Contra Costa County,CA,NA,NA,29.714285714285715
94550,Alameda County,CA,NA,39.14327917282127,NA
94558,Napa County,CA,NA,7.385524372230429,2.857142857142857
94565,Contra Costa County,CA,26.618705035971225,NA,NA
94603,Alameda County,CA,NA,56.868537666174305,NA
94621,Alameda County,CA,38.84892086330935,NA,NA
94710,Alameda County,CA,NA,97.63663220088627,NA
94901,Marin County,CA,NA,NA,33.904761904761905
94941,Marin County,CA,NA,44.313146233382575,NA
95060,Santa Cruz County,CA,NA,52.28951255539144,NA
95076,Santa Cruz County,CA,NA,NA,30.28571428571429
95207,San Joaquin County,CA,NA,NA,45.52380952380952
95215,San Joaquin County,CA,NA,NA,81.33333333333333
95223,Calaveras County,CA,NA,99.40915805022156,NA
95351,Stanislaus County,CA,25.719424460431657,41.802067946824224,NA
95358,Stanislaus County,CA,37.23021582733813,NA,NA
95361,Stanislaus County,CA,50.35971223021583,NA,NA
95367,Stanislaus County,CA,60.79136690647482,NA,NA
95370,Tuolumne County,CA,NA,3.3973412112259975,NA
95380,Stanislaus County,CA,33.63309352517986,21.71344165435746,NA
95403,Sonoma County,CA,NA,NA,13.904761904761905
95503,Humboldt County,CA,55.39568345323741,NA,NA
95608,Sacramento County,CA,NA,NA,7.0476190476190474
95642,Amador County,CA,NA,NA,84.95238095238096
95695,Yolo County,CA,NA,NA,67.23809523809524
95758,Sacramento County,CA,NA,50.81240768094535,NA
95823,Sacramento County,CA,16.72661870503597,NA,NA
95829,Sacramento County,CA,NA,87.8877400295421,NA
95926,Butte County,CA,42.805755395683455,NA,NA
95928,Butte County,CA,42.44604316546763,NA,NA
95966,Butte County,CA,14.028776978417264,NA,NA
96137,Lassen County,CA,NA,NA,99.42857142857143
96150,El Dorado County,CA,NA,67.0605612998523,NA
80003,Jefferson County,CO,NA,NA,67.61904761904762
80021,Jefferson County,CO,66.36690647482014,NA,NA
80022,Adams County,CO,21.762589928057555,NA,NA
80121,Arapahoe County,CO,NA,NA,97.52380952380952
80204,Denver County,CO,26.43884892086331,NA,NA
80218,Denver County,CO,NA,81.38847858197931,NA
80221,Adams County,CO,NA,55.391432791728214,NA
80503,Boulder County,CO,NA,NA,46.285714285714285
80504,Boulder County,CO,39.38848920863309,27.031019202363364,NA
80526,Larimer County,CO,45.68345323741007,NA,NA
80620,Weld County,CO,NA,70.45790251107829,NA
80631,Weld County,CO,NA,28.508124076809455,NA
80904,El Paso County,CO,NA,NA,62.28571428571429
81001,Pueblo County,CO,NA,46.08567208271787,NA
81401,Montrose County,CO,NA,43.279172821270315,NA
06051,Hartford County,CT,5.755395683453238,NA,NA
06053,Hartford County,CT,15.107913669064748,NA,NA
06109,Hartford County,CT,NA,NA,99.61904761904762
06405,New Haven County,CT,NA,NA,9.714285714285714
06422,Middlesex County,CT,NA,89.80797636632201,NA
06475,Middlesex County,CT,NA,86.70605612998523,NA
06479,Hartford County,CT,NA,83.30871491875924,NA
06480,Middlesex County,CT,76.61870503597122,NA,NA
06511,New Haven County,CT,NA,10.930576070901035,NA
06512,New Haven County,CT,NA,NA,52
06519,New Haven County,CT,NA,45.49483013293944,NA
06702,New Haven County,CT,NA,NA,95.04761904761905
06706,New Haven County,CT,NA,65.73116691285081,NA
06708,New Haven County,CT,NA,NA,35.23809523809524
06712,New Haven County,CT,NA,80.35450516986707,NA
06770,New Haven County,CT,NA,62.77695716395865,NA
06779,Litchfield County,CT,NA,89.21713441654357,NA
06790,Litchfield County,CT,NA,1.6248153618906942,NA
06798,Litchfield County,CT,94.24460431654677,NA,NA
06840,Fairfield County,CT,NA,NA,69.52380952380952
06880,Fairfield County,CT,55.75539568345324,NA,NA
06905,Fairfield County,CT,NA,NA,38.476190476190474
19939,Sussex County,DE,NA,81.0930576070901,NA
19963,Sussex County,DE,NA,38.99556868537666,NA
32119,Volusia County,FL,79.49640287769785,NA,NA
32137,Flagler County,FL,NA,NA,5.904761904761905
32141,Volusia County,FL,76.2589928057554,NA,NA
32164,Flagler County,FL,NA,52.58493353028065,NA
32210,Duval County,FL,24.820143884892087,NA,NA
32218,Duval County,FL,NA,3.2496307237813884,NA
32223,Duval County,FL,NA,36.779911373707534,NA
32233,Duval County,FL,76.79856115107914,NA,NA
32256,Duval County,FL,NA,41.3589364844904,NA
32351,Gadsden County,FL,NA,NA,90.28571428571428
32401,Bay County,FL,NA,NA,76.95238095238095
32404,Bay County,FL,28.776978417266186,NA,NA
32405,Bay County,FL,33.093525179856115,NA,NA
32409,Bay County,FL,NA,NA,86.28571428571429
32433,Walton County,FL,NA,73.70753323485968,NA
32501,Escambia County,FL,NA,41.94977843426883,NA
32514,Escambia County,FL,28.23741007194245,NA,NA
32539,Okaloosa County,FL,48.92086330935252,NA,NA
32601,Alachua County,FL,NA,84.19497784342688,NA
32606,Alachua County,FL,NA,NA,3.619047619047619
32618,Alachua County,FL,NA,85.37666174298376,NA
32707,Seminole County,FL,NA,NA,40
32726,Lake County,FL,NA,51.994091580502214,NA
32735,Lake County,FL,NA,NA,97.14285714285714
32779,Seminole County,FL,NA,42.39290989660266,NA
32780,Brevard County,FL,NA,18.906942392909897,26.476190476190474
32796,Brevard County,FL,NA,NA,72.95238095238096
32812,Orange County,FL,NA,77.5480059084195,NA
32821,Orange County,FL,84.35251798561151,NA,NA
32824,Orange County,FL,NA,98.22747415066469,NA
32825,Orange County,FL,NA,16.986706056129986,NA
32835,Orange County,FL,64.74820143884892,NA,NA
32935,Brevard County,FL,23.561151079136692,NA,NA
33024,Broward County,FL,NA,NA,18.476190476190478
33055,Miami-Dade County,FL,NA,NA,17.523809523809526
33062,Broward County,FL,NA,NA,3.2380952380952377
33125,Miami-Dade County,FL,NA,39.88183161004431,NA
33140,Miami-Dade County,FL,NA,NA,19.61904761904762
33145,Miami-Dade County,FL,NA,NA,28.000000000000004
33168,Miami-Dade County,FL,NA,NA,83.42857142857143
33187,Miami-Dade County,FL,NA,98.96602658788774,NA
33312,Broward County,FL,NA,20.53175775480059,NA
33317,Broward County,FL,NA,77.5480059084195,NA
33328,Broward County,FL,NA,79.02511078286558,NA
33404,Palm Beach County,FL,NA,NA,40.38095238095238
33410,Palm Beach County,FL,NA,NA,28.952380952380953
33417,Palm Beach County,FL,NA,NA,19.80952380952381
33433,Palm Beach County,FL,NA,22.599704579025108,NA
33442,Broward County,FL,NA,70.31019202363368,9.523809523809524
33455,Martin County,FL,NA,NA,11.619047619047619
33463,Palm Beach County,FL,NA,NA,55.61904761904762
33483,Palm Beach County,FL,NA,NA,45.904761904761905
33523,Pasco County,FL,NA,59.67503692762186,NA
33573,Hillsborough County,FL,NA,23.338257016248154,NA
33615,Hillsborough County,FL,34.53237410071942,NA,NA
33619,Hillsborough County,FL,43.52517985611511,NA,NA
33712,Pinellas County,FL,44.064748201438846,NA,NA
33773,Pinellas County,FL,72.66187050359713,NA,NA
33810,Polk County,FL,32.37410071942446,NA,24.19047619047619
33852,Highlands County,FL,NA,21.270310192023633,NA
33870,Highlands County,FL,35.431654676258994,NA,NA
33881,Polk County,FL,NA,36.1890694239291,NA
33912,Lee County,FL,NA,NA,17.904761904761905
33913,Lee County,FL,NA,NA,81.9047619047619
33935,Hendry County,FL,NA,NA,82.66666666666667
33980,Charlotte County,FL,NA,75.62776957163959,64.95238095238095
33993,Lee County,FL,NA,55.53914327917282,66.28571428571428
34103,Collier County,FL,NA,NA,32.761904761904766
34135,Lee County,FL,NA,NA,11.80952380952381
34242,Sarasota County,FL,NA,NA,52.19047619047619
34269,DeSoto County,FL,NA,96.4549483013294,NA
34275,Sarasota County,FL,NA,NA,13.904761904761905
34429,Citrus County,FL,NA,NA,71.23809523809524
34481,Marion County,FL,NA,29.83751846381093,NA
34604,Hernando County,FL,80.93525179856115,NA,NA
34608,Hernando County,FL,NA,NA,78.66666666666666
34609,Hernando County,FL,39.02877697841727,NA,NA
34684,Pinellas County,FL,NA,13.58936484490399,NA
34688,Pinellas County,FL,NA,87.59231905465288,NA
34698,Pinellas County,FL,NA,NA,15.04761904761905
34744,Osceola County,FL,NA,NA,50.476190476190474
34758,Osceola County,FL,NA,NA,65.14285714285715
34787,Orange County,FL,31.115107913669064,23.190546528803544,NA
30008,Cobb County,GA,NA,NA,80.38095238095238
30013,Rockdale County,GA,52.87769784172662,NA,NA
30016,Newton County,GA,17.446043165467625,NA,NA
30039,Gwinnett County,GA,NA,NA,43.42857142857143
30047,Gwinnett County,GA,NA,29.542097488921716,NA
30101,Cobb County,GA,NA,94.38700147710487,NA
30102,Cherokee County,GA,53.23741007194245,NA,NA
30114,Cherokee County,GA,NA,NA,34.66666666666667
30121,Bartow County,GA,61.15107913669065,NA,NA
30127,Cobb County,GA,NA,35.15509601181684,NA
30144,Cobb County,GA,44.24460431654676,NA,NA
30180,Carroll County,GA,NA,39.5864106351551,NA
30189,Cherokee County,GA,NA,51.8463810930576,NA
30214,Fayette County,GA,NA,NA,36.19047619047619
30240,Troup County,GA,NA,27.621861152141804,NA
30281,Henry County,GA,32.014388489208635,NA,NA
30310,Fulton County,GA,27.51798561151079,NA,NA
30313,Fulton County,GA,97.66187050359713,NA,NA
30349,Fulton County,GA,10.971223021582734,NA,NA
30525,Rabun County,GA,NA,NA,80.76190476190476
30535,Habersham County,GA,NA,97.48892171344166,NA
30554,Hall County,GA,NA,95.27326440177252,NA
30909,Richmond County,GA,NA,NA,22.476190476190478
31015,Crisp County,GA,54.13669064748201,NA,NA
31021,Laurens County,GA,48.381294964028775,NA,NA
31024,Putnam County,GA,NA,73.26440177252584,NA
31036,Pulaski County,GA,77.51798561151078,NA,NA
31044,Twiggs County,GA,99.46043165467626,NA,NA
31069,Houston County,GA,78.05755395683454,50.66469719350074,NA
31088,Houston County,GA,NA,23.633677991137368,74.28571428571429
31210,Bibb County,GA,67.44604316546763,NA,NA
31326,Effingham County,GA,NA,67.3559822747415,NA
31406,Chatham County,GA,58.992805755395686,NA,NA
31510,Bacon County,GA,NA,NA,54.285714285714285
31513,Appling County,GA,NA,NA,76.19047619047619
31602,Lowndes County,GA,NA,47.11964549483013,85.90476190476191
31634,Clinch County,GA,NA,91.87592319054653,NA
31647,Cook County,GA,NA,NA,99.80952380952381
31907,Muscogee County,GA,NA,NA,2.666666666666667
39842,Terrell County,GA,70.68345323741008,NA,NA
96707,Honolulu County,HI,NA,34.85967503692763,NA
96792,Honolulu County,HI,NA,NA,25.523809523809526
96816,Honolulu County,HI,NA,NA,4.761904761904762
96817,Honolulu County,HI,16.366906474820144,NA,NA
96819,Honolulu County,HI,NA,14.918759231905465,NA
83330,Gooding County,ID,NA,82.27474150664698,NA
83402,Bonneville County,ID,NA,50.22156573116692,NA
83467,Lemhi County,ID,NA,70.60561299852289,NA
83605,Canyon County,ID,33.992805755395686,26.14475627769572,NA
83702,Ada County,ID,37.05035971223021,NA,NA
83705,Ada County,ID,NA,16.395864106351553,NA
83801,Kootenai County,ID,NA,88.92171344165436,NA
83854,Kootenai County,ID,NA,60.4135893648449,NA
60002,Lake County,IL,NA,69.27621861152143,59.238095238095234
60025,Cook County,IL,NA,NA,3.8095238095238098
60026,Cook County,IL,NA,51.10782865583457,NA
60035,Lake County,IL,NA,14.032496307237812,NA
60048,Lake County,IL,NA,NA,31.61904761904762
60051,McHenry County,IL,58.09352517985612,NA,NA
60056,Cook County,IL,NA,15.5096011816839,NA
60074,Cook County,IL,NA,NA,42.285714285714285
60076,Cook County,IL,NA,NA,14.476190476190476
60087,Lake County,IL,NA,71.34416543574595,NA
60093,Cook County,IL,NA,NA,23.047619047619047
60098,McHenry County,IL,38.489208633093526,NA,NA
60101,DuPage County,IL,34.172661870503596,NA,NA
60104,Cook County,IL,49.10071942446043,NA,NA
60124,Kane County,IL,NA,31.610044313146236,36.76190476190476
60137,DuPage County,IL,42.985611510791365,NA,12
60142,McHenry County,IL,NA,NA,1.9047619047619049
60148,DuPage County,IL,NA,5.760709010339734,NA
60177,Kane County,IL,NA,NA,58.857142857142854
60193,Cook County,IL,47.84172661870504,NA,NA
60201,Cook County,IL,NA,NA,5.142857142857142
60403,Will County,IL,NA,NA,48.952380952380956
60426,Cook County,IL,NA,26.587887740029544,NA
60441,Will County,IL,NA,NA,35.04761904761905
60446,Will County,IL,NA,NA,40.76190476190476
60452,Cook County,IL,NA,NA,35.80952380952381
60453,Cook County,IL,NA,40.177252584933534,NA
60455,Cook County,IL,55.93525179856115,NA,NA
60459,Cook County,IL,42.26618705035971,NA,NA
60477,Cook County,IL,NA,12.850812407680944,NA
60517,DuPage County,IL,NA,36.484490398818316,NA
60538,Kendall County,IL,NA,52.732644017725264,NA
60544,Will County,IL,46.76258992805755,NA,NA
60546,Cook County,IL,NA,43.42688330871492,NA
60618,Cook County,IL,NA,57.31166912850812,NA
60619,Cook County,IL,NA,4.874446085672083,NA
60620,Cook County,IL,36.330935251798564,3.10192023633678,NA
60623,Cook County,IL,NA,NA,13.142857142857142
60624,Cook County,IL,19.964028776978417,NA,NA
60629,Cook County,IL,32.194244604316545,NA,NA
60630,Cook County,IL,NA,12.703101920236337,NA
60632,Cook County,IL,NA,32.20088626292467,NA
60634,Cook County,IL,13.848920863309353,NA,NA
60640,Cook County,IL,NA,7.828655834564254,NA
60641,Cook County,IL,NA,NA,20.761904761904763
60642,Cook County,IL,NA,92.31905465288035,NA
60643,Cook County,IL,11.690647482014388,NA,NA
60644,Cook County,IL,10.431654676258994,NA,NA
60649,Cook County,IL,NA,NA,55.42857142857143
60653,Cook County,IL,NA,NA,25.523809523809526
60707,Cook County,IL,24.280575539568343,NA,NA
60804,Cook County,IL,NA,NA,34.285714285714285
61010,Ogle County,IL,84.71223021582733,NA,NA
61032,Stephenson County,IL,NA,18.61152141802068,NA
61073,Winnebago County,IL,NA,42.245199409158054,NA
61231,Mercer County,IL,NA,97.04579025110783,NA
61362,Bureau County,IL,91.18705035971223,NA,NA
61455,McDonough County,IL,NA,NA,31.238095238095237
61520,Fulton County,IL,78.23741007194245,58.050221565731164,NA
61571,Tazewell County,IL,NA,NA,52.38095238095239
61604,Peoria County,IL,NA,NA,52.57142857142857
61761,McLean County,IL,48.561151079136685,NA,NA
61821,Champaign County,IL,NA,NA,94.0952380952381
61832,Vermilion County,IL,NA,NA,7.238095238095238
61938,Coles County,IL,NA,NA,28.57142857142857
62002,Madison County,IL,NA,21.122599704579027,NA
62034,Madison County,IL,NA,78.58197932053176,NA
62035,Madison County,IL,NA,58.93648449039882,NA
62040,Madison County,IL,NA,10.487444608567207,NA
62095,Madison County,IL,NA,NA,53.333333333333336
62521,Macon County,IL,17.26618705035971,86.85376661742984,4.190476190476191
62522,Macon County,IL,61.87050359712231,NA,41.714285714285715
62526,Macon County,IL,15.827338129496402,NA,NA
62549,Macon County,IL,NA,95.56868537666175,NA
62557,Christian County,IL,NA,NA,75.23809523809524
62565,Shelby County,IL,NA,72.82127031019202,NA
62702,Sangamon County,IL,NA,NA,33.14285714285714
62901,Jackson County,IL,NA,80.50221565731167,NA
62948,Williamson County,IL,NA,63.515509601181684,NA
46011,Madison County,IN,NA,23.485967503692763,NA
46033,Hamilton County,IN,NA,33.67799113737075,NA
46036,Madison County,IN,NA,58.19793205317577,NA
46077,Boone County,IN,NA,NA,58.0952380952381
46113,Marion County,IN,72.12230215827337,NA,NA
46123,Hendricks County,IN,NA,NA,29.333333333333332
46151,Morgan County,IN,31.294964028776977,NA,NA
46168,Hendricks County,IN,NA,NA,44.952380952380956
46176,Shelby County,IN,20.68345323741007,11.225997045790251,NA
46203,Marion County,IN,NA,14.180206794682423,NA
46214,Marion County,IN,NA,NA,75.04761904761905
46217,Marion County,IN,NA,34.5642540620384,NA
46235,Marion County,IN,NA,69.42392909896603,NA
46256,Marion County,IN,73.92086330935251,NA,NA
46304,Porter County,IN,17.446043165467625,NA,NA
46322,Lake County,IN,64.02877697841727,NA,NA
46324,Lake County,IN,NA,30.280649926144754,NA
46383,Porter County,IN,NA,5.317577548005908,NA
46385,Porter County,IN,NA,2.806499261447563,NA
46403,Lake County,IN,NA,NA,70.47619047619048
46404,Lake County,IN,NA,54.800590841949784,NA
46406,Lake County,IN,69.42446043165468,NA,NA
46410,Lake County,IN,NA,4.431314623338257,22.095238095238095
46614,St. Joseph County,IN,NA,NA,36
46725,Whitley County,IN,37.410071942446045,NA,NA
46783,Huntington County,IN,86.87050359712231,NA,NA
46806,Allen County,IN,33.273381294964025,NA,NA
46835,Allen County,IN,40.827338129496404,NA,NA
46902,Howard County,IN,NA,3.6927621861152145,NA
46936,Howard County,IN,80.75539568345323,NA,NA
46992,Wabash County,IN,NA,44.01772525849335,NA
47001,Dearborn County,IN,NA,90.69423929098967,NA
47150,Floyd County,IN,NA,38.55243722304284,NA
47170,Scott County,IN,NA,55.83456425406204,NA
47201,Bartholomew County,IN,16.18705035971223,NA,12.571428571428573
47348,Blackford County,IN,NA,59.08419497784343,NA
47362,Henry County,IN,26.07913669064748,NA,NA
47371,Jay County,IN,NA,35.00738552437223,NA
47374,Wayne County,IN,NA,NA,1.5238095238095237
47394,Randolph County,IN,78.41726618705036,NA,NA
47421,Lawrence County,IN,NA,20.38404726735598,NA
47546,Dubois County,IN,59.352517985611506,NA,NA
47630,Warrick County,IN,NA,60.70901033973413,NA
47635,Spencer County,IN,NA,82.86558345642541,NA
47807,Vigo County,IN,NA,79.3205317577548,NA
47834,Clay County,IN,70.32374100719424,NA,71.04761904761905
47905,Tippecanoe County,IN,NA,54.06203840472673,NA
47932,Fountain County,IN,NA,71.49187592319055,NA
50112,Poweshiek County,IA,NA,90.98966026587888,NA
50131,Polk County,IA,NA,83.45642540620383,NA
50138,Marion County,IA,NA,NA,21.904761904761905
50616,Floyd County,IA,NA,53.32348596750369,NA
52353,Washington County,IA,NA,NA,59.42857142857143
52405,Linn County,IA,NA,45.199409158050216,NA
52577,Mahaska County,IA,46.223021582733814,75.48005908419498,19.428571428571427
52742,Clinton County,IA,NA,NA,88.38095238095238
52772,Cedar County,IA,NA,NA,96.38095238095238
52806,Scott County,IA,NA,NA,38.095238095238095
66044,Douglas County,KS,72.3021582733813,NA,NA
66061,Johnson County,KS,NA,NA,97.90476190476191
66071,Miami County,KS,NA,NA,76.57142857142857
66205,Johnson County,KS,89.92805755395683,NA,NA
66217,Johnson County,KS,96.22302158273382,NA,NA
66614,Shawnee County,KS,NA,NA,14.285714285714285
66618,Shawnee County,KS,91.00719424460432,NA,NA
67665,Russell County,KS,NA,80.05908419497784,NA
40013,Nelson County,KY,86.33093525179856,NA,NA
40031,Oldham County,KY,NA,NA,42.47619047619048
40033,Marion County,KY,86.15107913669064,NA,NA
40065,Shelby County,KY,NA,34.12112259970458,NA
40165,Bullitt County,KY,NA,18.31610044313146,NA
40175,Hardin County,KY,NA,68.68537666174298,NA
40206,Jefferson County,KY,NA,NA,79.80952380952381
40211,Jefferson County,KY,NA,40.32496307237814,NA
40218,Jefferson County,KY,NA,NA,59.80952380952381
40219,Jefferson County,KY,NA,25.997045790251107,NA
40220,Jefferson County,KY,NA,22.451994091580502,NA
40222,Jefferson County,KY,NA,NA,23.42857142857143
40223,Jefferson County,KY,70.86330935251799,NA,NA
40228,Jefferson County,KY,71.94244604316546,NA,NA
40229,Jefferson County,KY,NA,22.156573116691288,NA
40324,Scott County,KY,NA,25.11078286558346,NA
40356,Jessamine County,KY,19.06474820143885,NA,NA
40391,Clark County,KY,NA,12.55539143279173,NA
40403,Madison County,KY,NA,73.85524372230428,NA
40484,Lincoln County,KY,NA,59.527326440177255,NA
40517,Fayette County,KY,NA,NA,44.19047619047619
40741,Laurel County,KY,NA,NA,48.38095238095238
40744,Laurel County,KY,36.15107913669065,NA,NA
40977,Bell County,KY,60.07194244604317,NA,NA
41016,Kenton County,KY,83.81294964028777,NA,NA
41056,Mason County,KY,50.89928057553957,NA,NA
41091,Boone County,KY,NA,NA,59.80952380952381
41102,Boyd County,KY,25.179856115107913,NA,NA
41179,Lewis County,KY,66.90647482014388,NA,NA
42001,McCracken County,KY,36.69064748201439,NA,NA
42025,Marshall County,KY,51.2589928057554,NA,NA
42029,Marshall County,KY,NA,NA,92.38095238095238
42045,Livingston County,KY,100,NA,NA
42101,Warren County,KY,NA,NA,65.33333333333333
42104,Warren County,KY,NA,NA,50.66666666666667
42261,Butler County,KY,67.62589928057554,NA,NA
42420,Henderson County,KY,NA,12.998522895125554,NA
42701,Hardin County,KY,NA,43.1314623338257,31.047619047619047
42717,Cumberland County,KY,62.94964028776978,NA,NA
42754,Grayson County,KY,91.72661870503596,NA,NA
70122,Orleans Parish,LA,89.568345323741,64.25406203840473,NA
70126,Orleans Parish,LA,8.093525179856115,NA,57.714285714285715
70127,Orleans Parish,LA,NA,NA,89.14285714285714
70301,Lafourche Parish,LA,3.41726618705036,NA,NA
70363,Terrebonne Parish,LA,NA,NA,36.38095238095238
70380,St. Mary Parish,LA,NA,33.825701624815366,NA
70390,Assumption Parish,LA,NA,96.01181683899557,NA
70392,St. Mary Parish,LA,76.07913669064749,NA,NA
70427,Washington Parish,LA,19.60431654676259,NA,NA
70443,Tangipahoa Parish,LA,NA,73.55982274741507,NA
70458,St. Tammany Parish,LA,7.014388489208632,NA,NA
70501,Lafayette Parish,LA,NA,NA,30.666666666666664
70506,Lafayette Parish,LA,NA,NA,22.857142857142858
70508,Lafayette Parish,LA,NA,21.418020679468242,NA
70517,St. Martin Parish,LA,NA,20.6794682422452,NA
70520,Lafayette Parish,LA,NA,49.926144756277694,NA
70526,Acadia Parish,LA,29.496402877697843,NA,62.28571428571429
70544,Iberia Parish,LA,NA,74.2983751846381,NA
70548,Vermilion Parish,LA,NA,77.40029542097489,NA
70563,Iberia Parish,LA,NA,NA,61.142857142857146
70634,Beauregard Parish,LA,30.39568345323741,NA,NA
70665,Calcasieu Parish,LA,NA,NA,95.80952380952381
70726,Livingston Parish,LA,2.158273381294964,NA,NA
70791,East Baton Rouge Parish,LA,NA,32.49630723781389,NA
70817,East Baton Rouge Parish,LA,NA,NA,57.904761904761905
71109,Caddo Parish,LA,NA,28.360413589364846,NA
71301,Rapides Parish,LA,9.712230215827338,NA,NA
71302,Rapides Parish,LA,NA,85.67208271787297,NA
71351,Avoyelles Parish,LA,69.7841726618705,NA,NA
71457,Natchitoches Parish,LA,NA,62.0384047267356,NA
71483,Winn Parish,LA,48.02158273381295,NA,NA
03906,York County,ME,99.64028776978418,NA,NA
04002,York County,ME,80.39568345323741,NA,NA
04062,Cumberland County,ME,NA,79.1728212703102,NA
04074,Cumberland County,ME,NA,NA,37.333333333333336
04106,Cumberland County,ME,NA,37.66617429837518,NA
04240,Androscoggin County,ME,NA,NA,1.7142857142857144
04268,Oxford County,ME,83.99280575539568,85.52437223042836,NA
04276,Oxford County,ME,NA,NA,76.38095238095238
04281,Oxford County,ME,NA,65.14032496307239,72.19047619047619
04330,Kennebec County,ME,7.553956834532374,NA,NA
04412,Penobscot County,ME,NA,NA,82.0952380952381
04654,Washington County,ME,NA,98.3751846381093,NA
04736,Aroostook County,ME,NA,NA,26.285714285714285
04742,Aroostook County,ME,NA,89.95568685376661,NA
04915,Waldo County,ME,NA,38.404726735598224,NA
20705,Prince George's County,MD,NA,NA,91.61904761904762
20723,Howard County,MD,NA,NA,92
20748,Prince George's County,MD,NA,66.46971935007386,NA
20785,Prince George's County,MD,NA,76.51403249630724,NA
20814,Montgomery County,MD,NA,77.84342688330872,NA
20816,Montgomery County,MD,NA,NA,77.71428571428571
20882,Montgomery County,MD,NA,93.205317577548,NA
20904,Montgomery County,MD,65.10791366906474,NA,18.666666666666668
20910,Montgomery County,MD,NA,NA,51.04761904761905
21042,Howard County,MD,NA,NA,49.714285714285715
21050,Harford County,MD,NA,72.96898079763663,NA
21060,Anne Arundel County,MD,34.71223021582734,NA,NA
21074,Carroll County,MD,NA,89.06942392909897,NA
21122,Anne Arundel County,MD,10.79136690647482,NA,NA
21201,Baltimore city,MD,52.51798561151079,NA,NA
21208,Baltimore County,MD,NA,36.04135893648449,NA
21222,Baltimore County,MD,NA,NA,4.571428571428571
21228,Baltimore County,MD,NA,NA,43.047619047619044
21237,Baltimore County,MD,NA,NA,40.19047619047619
21613,Dorchester County,MD,NA,NA,61.33333333333333
21617,Queen Anne's County,MD,NA,92.17134416543574,NA
21643,Dorchester County,MD,NA,94.53471196454947,NA
21740,Washington County,MD,NA,30.280649926144754,NA
21901,Cecil County,MD,72.48201438848922,NA,NA
21921,Cecil County,MD,NA,6.056129985228951,NA
01002,Hampshire County,MA,NA,54.94830132939439,NA
01085,Hampden County,MA,NA,93.35302806499261,NA
01105,Hampden County,MA,4.316546762589928,NA,NA
01107,Hampden County,MA,NA,2.2156573116691285,NA
01201,Berkshire County,MA,NA,0,NA
01331,Worcester County,MA,NA,NA,33.523809523809526
01432,Middlesex County,MA,98.92086330935251,NA,NA
01460,Middlesex County,MA,NA,61.44756277695716,NA
01473,Worcester County,MA,90.46762589928058,NA,NA
01510,Worcester County,MA,74.28057553956835,NA,NA
01535,Worcester County,MA,NA,98.67060561299851,NA
01603,Worcester County,MA,NA,20.974889217134415,NA
01702,Middlesex County,MA,NA,NA,4.380952380952381
01826,Middlesex County,MA,6.115107913669065,NA,NA
01844,Essex County,MA,40.46762589928058,NA,24.571428571428573
01852,Middlesex County,MA,NA,0.7385524372230428,NA
01876,Middlesex County,MA,NA,2.06794682422452,NA
01886,Middlesex County,MA,NA,67.94682422451994,NA
01906,Essex County,MA,NA,NA,56.00000000000001
01913,Essex County,MA,NA,62.481536189069416,NA
01960,Essex County,MA,NA,35.745937961595274,NA
01970,Essex County,MA,NA,0.29542097488921715,5.523809523809524
01983,Essex County,MA,87.58992805755396,NA,NA
02045,Plymouth County,MA,41.54676258992806,NA,NA
02050,Plymouth County,MA,NA,26.292466765140325,NA
02126,Suffolk County,MA,NA,NA,54.85714285714286
02128,Suffolk County,MA,0,NA,NA
02129,Suffolk County,MA,4.856115107913669,NA,NA
02143,Middlesex County,MA,88.66906474820144,NA,NA
02191,Norfolk County,MA,NA,NA,92.95238095238095
02333,Plymouth County,MA,NA,48.005908419497786,NA
02360,Plymouth County,MA,NA,NA,1.1428571428571428
02379,Plymouth County,MA,96.76258992805755,NA,NA
02467,Norfolk County,MA,NA,33.23485967503693,NA
02472,Middlesex County,MA,8.992805755395683,NA,48
02494,Norfolk County,MA,NA,NA,44.761904761904766
02568,Dukes County,MA,76.97841726618705,NA,NA
02745,Bristol County,MA,NA,8.567208271787297,NA
02771,Bristol County,MA,75.17985611510791,NA,NA
48009,Oakland County,MI,NA,63.22008862629247,NA
48026,Macomb County,MI,44.7841726618705,43.72230428360414,NA
48034,Oakland County,MI,43.70503597122302,NA,NA
48035,Macomb County,MI,12.949640287769784,NA,NA
48044,Macomb County,MI,10.251798561151078,NA,NA
48045,Macomb County,MI,29.496402877697843,NA,NA
48060,St. Clair County,MI,22.66187050359712,NA,NA
48073,Oakland County,MI,35.97122302158273,NA,NA
48079,St. Clair County,MI,88.48920863309353,NA,86.09523809523809
48080,Macomb County,MI,44.42446043165468,NA,NA
48088,Macomb County,MI,NA,NA,57.14285714285714
48094,Macomb County,MI,NA,53.028064992614475,61.71428571428571
48101,Wayne County,MI,NA,32.64401772525849,NA
48105,Washtenaw County,MI,47.482014388489205,NA,NA
48134,Wayne County,MI,NA,NA,43.238095238095234
48141,Wayne County,MI,NA,18.020679468242246,28.38095238095238
48146,Wayne County,MI,11.151079136690647,16.54357459379616,NA
48161,Monroe County,MI,9.532374100719425,NA,NA
48162,Monroe County,MI,NA,2.658788774002954,NA
48168,Wayne County,MI,NA,NA,27.42857142857143
48170,Wayne County,MI,NA,24.963072378138847,2.4761904761904763
48173,Wayne County,MI,NA,71.04874446085671,NA
48174,Wayne County,MI,9.172661870503598,15.5096011816839,NA
48176,Washtenaw County,MI,NA,NA,20.57142857142857
48180,Wayne County,MI,NA,1.03397341211226,NA
48183,Wayne County,MI,NA,6.20384047267356,10.476190476190476
48184,Wayne County,MI,NA,26.88330871491876,NA
48187,Wayne County,MI,13.489208633093524,NA,NA
48192,Wayne County,MI,81.4748201438849,NA,NA
48195,Wayne County,MI,NA,42.68833087149188,NA
48209,Wayne County,MI,27.697841726618705,NA,NA
48212,Wayne County,MI,NA,NA,70.28571428571428
48219,Wayne County,MI,NA,43.574593796159526,NA
48224,Wayne County,MI,NA,22.74741506646972,NA
48228,Wayne County,MI,NA,7.680945347119645,NA
48234,Wayne County,MI,57.014388489208635,16.248153618906944,NA
48235,Wayne County,MI,3.237410071942446,NA,NA
48309,Oakland County,MI,41.906474820143885,30.72378138847858,NA
48310,Macomb County,MI,NA,12.40768094534712,NA
48312,Macomb County,MI,NA,17.134416543574595,7.6190476190476195
48342,Oakland County,MI,NA,38.847858197932055,NA
48382,Oakland County,MI,55.57553956834532,NA,NA
48386,Oakland County,MI,NA,NA,51.23809523809524
48429,Shiawassee County,MI,NA,90.84194977843427,NA
48473,Genesee County,MI,50.719424460431654,NA,61.33333333333333
48507,Genesee County,MI,NA,NA,34.095238095238095
48509,Genesee County,MI,82.37410071942446,NA,NA
48532,Genesee County,MI,46.94244604316547,NA,NA
48602,Saginaw County,MI,5.215827338129497,NA,NA
48616,Saginaw County,MI,NA,51.55096011816839,NA
48623,Saginaw County,MI,NA,51.40324963072378,NA
48638,Saginaw County,MI,NA,NA,62.095238095238095
48653,Roscommon County,MI,NA,68.09453471196456,NA
48706,Bay County,MI,NA,NA,19.238095238095237
48723,Tuscola County,MI,33.81294964028777,26.440177252584935,NA
48842,Ingham County,MI,NA,NA,57.52380952380952
48855,Livingston County,MI,NA,51.698670605612996,NA
48858,Isabella County,MI,NA,6.3515509601181686,NA
48867,Shiawassee County,MI,NA,NA,6.476190476190475
49010,Allegan County,MI,NA,46.971935007385525,NA
49015,Calhoun County,MI,21.402877697841728,NA,NA
49045,Van Buren County,MI,80.57553956834532,NA,NA
49048,Kalamazoo County,MI,NA,34.26883308714919,NA
49201,Jackson County,MI,NA,5.022156573116692,NA
49345,Kent County,MI,NA,NA,78.85714285714286
49423,Ottawa County,MI,16.007194244604317,NA,NA
49424,Ottawa County,MI,NA,NA,9.333333333333334
49428,Ottawa County,MI,NA,NA,12.95238095238095
49441,Muskegon County,MI,NA,NA,2.0952380952380953
49442,Muskegon County,MI,NA,NA,5.333333333333334
49445,Muskegon County,MI,NA,22.304283604135893,NA
49507,Kent County,MI,28.9568345323741,NA,NA
49646,Kalkaska County,MI,NA,77.10487444608567,NA
49659,Antrim County,MI,NA,NA,84.38095238095238
49665,Osceola County,MI,NA,95.42097488921713,NA
49735,Otsego County,MI,70.50359712230215,NA,NA
49781,Mackinac County,MI,NA,NA,79.42857142857143
49783,Chippewa County,MI,24.46043165467626,NA,NA
49913,Houghton County,MI,NA,NA,39.04761904761905
55025,Washington County,MN,NA,64.84490398818316,NA
55057,Rice County,MN,95.86330935251799,NA,NA
55082,Washington County,MN,42.086330935251794,NA,NA
55112,Ramsey County,MN,NA,78.72968980797637,NA
55331,Hennepin County,MN,NA,NA,81.71428571428572
55350,McLeod County,MN,NA,66.91285081240767,NA
55404,Hennepin County,MN,NA,23.929098966026586,NA
55418,Hennepin County,MN,NA,NA,50.095238095238095
55419,Hennepin County,MN,52.33812949640287,NA,NA
55427,Hennepin County,MN,NA,NA,54.285714285714285
55437,Hennepin County,MN,NA,NA,56.19047619047619
56013,Faribault County,MN,NA,84.63810930576071,NA
56362,Stearns County,MN,89.38848920863309,NA,NA
56401,Crow Wing County,MN,NA,NA,3.428571428571429
56425,Crow Wing County,MN,NA,NA,31.428571428571427
56431,Aitkin County,MN,NA,NA,24.38095238095238
56501,Becker County,MN,NA,30.576070901033976,NA
38619,Panola County,MS,94.24460431654677,NA,NA
38732,Bolivar County,MS,46.58273381294964,NA,NA
38801,Lee County,MS,NA,52.14180206794683,NA
38834,Alcorn County,MS,23.741007194244602,NA,NA
38930,Leflore County,MS,NA,48.44903988183161,NA
39056,Hinds County,MS,NA,70.01477104874446,NA
39120,Adams County,MS,NA,NA,41.333333333333336
39168,Smith County,MS,NA,NA,80
39209,Hinds County,MS,NA,NA,66.0952380952381
39350,Neshoba County,MS,NA,33.382570162481535,NA
39402,Lamar County,MS,NA,57.163958641063516,NA
39452,George County,MS,NA,24.372230428360414,NA
39501,Harrison County,MS,NA,NA,24
39503,Harrison County,MS,NA,3.5450516986706058,NA
39629,Lincoln County,MS,NA,75.18463810930575,NA
39648,Pike County,MS,NA,53.4711964549483,72.38095238095238
39667,Walthall County,MS,NA,NA,48.38095238095238
39759,Oktibbeha County,MS,NA,NA,68.38095238095238
63021,St. Louis County,MO,NA,64.10635155096011,NA
63038,St. Louis County,MO,NA,92.90989660265879,NA
63051,Jefferson County,MO,NA,68.24224519940915,NA
63052,Jefferson County,MO,58.09352517985612,NA,NA
63077,Franklin County,MO,75.53956834532374,NA,NA
63109,St. Louis city,MO,NA,43.870014771048744,NA
63112,St. Louis city,MO,NA,NA,66.85714285714286
63117,St. Louis County,MO,95.50359712230215,NA,NA
63122,St. Louis County,MO,NA,NA,9.142857142857142
63123,St. Louis County,MO,NA,14.623338257016247,NA
63128,St. Louis County,MO,NA,24.224519940915805,NA
63136,St. Louis County,MO,NA,NA,29.523809523809526
63147,St. Louis city,MO,NA,NA,91.23809523809524
63301,St. Charles County,MO,18.525179856115106,NA,NA
63303,St. Charles County,MO,NA,NA,6.095238095238095
63376,St. Charles County,MO,13.129496402877697,NA,NA
63401,Marion County,MO,53.41726618705036,NA,NA
63664,Washington County,MO,79.85611510791367,NA,NA
63775,Perry County,MO,NA,NA,61.904761904761905
63901,Butler County,MO,NA,NA,32.19047619047619
63957,Wayne County,MO,93.16546762589928,NA,NA
63966,Wayne County,MO,NA,98.52289512555392,NA
64012,Cass County,MO,NA,28.064992614475624,NA
64029,Jackson County,MO,NA,79.61595273264402,NA
64055,Jackson County,MO,NA,8.124076809453472,NA
64056,Jackson County,MO,31.654676258992804,NA,NA
64068,Clay County,MO,NA,7.23781388478582,NA
64079,Platte County,MO,NA,49.039881831610046,NA
64093,Johnson County,MO,NA,37.9615952732644,NA
64108,Jackson County,MO,66.00719424460432,NA,NA
64110,Jackson County,MO,NA,NA,88.76190476190476
64831,McDonald County,MO,92.98561151079137,NA,NA
64850,Newton County,MO,20.323741007194247,23.78138847858198,NA
65041,Gasconade County,MO,NA,88.33087149187593,NA
65265,Audrain County,MO,64.568345323741,NA,NA
65355,Benton County,MO,58.63309352517986,22.008862629246675,NA
65542,Texas County,MO,NA,96.30723781388478,NA
65605,Lawrence County,MO,NA,NA,85.33333333333334
65613,Polk County,MO,NA,38.10930576070901,NA
65619,Greene County,MO,NA,NA,95.42857142857143
65686,Stone County,MO,96.94244604316546,NA,NA
65708,Barry County,MO,73.38129496402878,NA,NA
65714,Christian County,MO,NA,NA,37.142857142857146
65742,Webster County,MO,NA,NA,63.61904761904762
65802,Greene County,MO,NA,NA,58.285714285714285
65803,Greene County,MO,13.66906474820144,NA,NA
65804,Greene County,MO,NA,37.51846381093058,NA
59230,Valley County,MT,NA,NA,77.90476190476191
59405,Cascade County,MT,NA,17.57754800590842,NA
59601,Lewis and Clark County,MT,NA,19.49778434268833,NA
59602,Lewis and Clark County,MT,NA,34.711964549483014,NA
59901,Flathead County,MT,NA,NA,0.9523809523809524
59917,Lincoln County,MT,NA,80.05908419497784,NA
59923,Lincoln County,MT,NA,NA,65.9047619047619
68022,Douglas County,NE,NA,82.57016248153619,NA
68105,Douglas County,NE,NA,NA,97.33333333333334
68131,Douglas County,NE,NA,NA,89.33333333333333
68310,Gage County,NE,NA,55.096011816838995,NA
68526,Lancaster County,NE,97.48201438848922,NA,NA
68901,Adams County,NE,NA,45.79025110782865,NA
69301,Box Butte County,NE,NA,68.38995568685377,72.76190476190476
89107,Clark County,NV,NA,NA,93.9047619047619
89123,Clark County,NV,NA,35.89364844903989,NA
89134,Clark County,NV,NA,NA,12.19047619047619
89441,Washoe County,NV,NA,72.23042836041358,NA
89460,Douglas County,NV,NA,50.51698670605613,NA
89509,Washoe County,NV,NA,NA,68.57142857142857
89511,Washoe County,NV,NA,NA,40.57142857142857
03051,Hillsborough County,NH,27.33812949640288,19.940915805022154,NA
03063,Hillsborough County,NH,NA,44.75627769571639,NA
03064,Hillsborough County,NH,35.79136690647482,NA,NA
03220,Belknap County,NH,NA,NA,91.04761904761904
03452,Cheshire County,NH,NA,NA,98.28571428571429
03458,Hillsborough County,NH,NA,94.09158050221565,NA
03878,Strafford County,NH,NA,68.53766617429838,NA
07003,Essex County,NJ,NA,31.0192023633678,NA
07036,Union County,NJ,NA,NA,29.142857142857142
07042,Essex County,NJ,NA,58.78877400295421,NA
07067,Middlesex County,NJ,NA,NA,58.666666666666664
07087,Hudson County,NJ,4.136690647482014,NA,77.14285714285715
07104,Essex County,NJ,NA,NA,22.666666666666664
07304,Hudson County,NJ,94.7841726618705,NA,NA
07410,Bergen County,NJ,NA,NA,30.476190476190478
07420,Passaic County,NJ,NA,80.79763663220089,NA
07503,Passaic County,NJ,NA,62.33382570162481,NA
07601,Bergen County,NJ,NA,NA,14.857142857142858
07621,Bergen County,NJ,63.30935251798561,NA,NA
07724,Monmouth County,NJ,NA,NA,59.04761904761905
07760,Monmouth County,NJ,NA,NA,96.57142857142857
07801,Morris County,NJ,NA,33.382570162481535,NA
07840,Warren County,NJ,93.70503597122301,NA,NA
08005,Ocean County,NJ,23.021582733812952,NA,15.80952380952381
08021,Camden County,NJ,NA,8.27178729689808,NA
08054,Burlington County,NJ,NA,14.47562776957164,NA
08081,Camden County,NJ,1.9784172661870503,NA,NA
08092,Ocean County,NJ,NA,100,NA
08096,Gloucester County,NJ,NA,NA,15.238095238095239
08104,Camden County,NJ,NA,1.9202363367799113,NA
08332,Cumberland County,NJ,NA,17.429837518463813,NA
08360,Cumberland County,NJ,1.079136690647482,NA,NA
08619,Mercer County,NJ,54.13669064748201,NA,NA
08701,Ocean County,NJ,NA,9.601181683899556,NA
08742,Ocean County,NJ,NA,NA,29.904761904761905
08753,Ocean County,NJ,NA,4.579025110782865,NA
08757,Ocean County,NJ,NA,3.9881831610044314,0.19047619047619047
08801,Hunterdon County,NJ,NA,99.26144756277697,NA
08817,Middlesex County,NJ,25.539568345323744,NA,NA
08861,Middlesex County,NJ,1.7985611510791366,NA,NA
08873,Somerset County,NJ,NA,25.258493353028065,NA
87102,Bernalillo County,NM,NA,NA,86.47619047619047
87107,Bernalillo County,NM,NA,25.70162481536189,NA
87111,Bernalillo County,NM,NA,11.521418020679468,NA
87114,Bernalillo County,NM,NA,15.214180206794683,NA
87121,Bernalillo County,NM,NA,5.612998522895126,NA
87507,Santa Fe County,NM,NA,NA,97.71428571428571
88220,Eddy County,NM,25,NA,NA
88240,Lea County,NM,7.7338129496402885,NA,NA
10022,New York County,NY,NA,NA,22.095238095238095
10025,New York County,NY,7.374100719424461,NA,16.380952380952383
10028,New York County,NY,96.58273381294964,NA,NA
10039,New York County,NY,81.83453237410072,NA,NA
10075,New York County,NY,NA,NA,15.619047619047619
10451,Bronx County,NY,NA,NA,4.9523809523809526
10457,Bronx County,NY,0.7194244604316548,NA,NA
10458,Bronx County,NY,0.1798561151079137,NA,NA
10459,Bronx County,NY,NA,41.65435745937962,NA
10463,Bronx County,NY,9.892086330935252,NA,NA
10467,Bronx County,NY,0.539568345323741,NA,NA
10472,Bronx County,NY,NA,1.1816838995568686,NA
10528,Westchester County,NY,NA,98.07976366322009,NA
10530,Westchester County,NY,NA,NA,84.57142857142857
10566,Westchester County,NY,62.05035971223022,NA,NA
10567,Westchester County,NY,NA,NA,60.952380952380956
10918,Orange County,NY,NA,95.12555391432792,NA
11102,Queens County,NY,NA,NA,39.23809523809524
11207,Kings County,NY,0.3597122302158274,0.5908419497784343,NA
11208,Kings County,NY,1.4388489208633095,NA,NA
11211,Kings County,NY,18.705035971223023,NA,NA
11212,Kings County,NY,1.2589928057553956,0.4431314623338257,NA
11215,Kings County,NY,NA,NA,16
11216,Kings County,NY,14.568345323741008,NA,NA
11221,Kings County,NY,3.9568345323741005,NA,NA
11225,Kings County,NY,NA,NA,27.047619047619047
11226,Kings County,NY,NA,1.7725258493353029,NA
11229,Kings County,NY,32.73381294964029,NA,NA
11230,Kings County,NY,NA,10.044313146233383,NA
11233,Kings County,NY,2.338129496402878,NA,NA
11360,Queens County,NY,NA,NA,79.04761904761905
11361,Queens County,NY,NA,76.21861152141803,NA
11368,Queens County,NY,NA,NA,13.333333333333334
11372,Queens County,NY,NA,NA,8.761904761904763
11385,Queens County,NY,NA,NA,32
11415,Queens County,NY,NA,70.90103397341211,NA
11428,Queens County,NY,NA,74.59379615952733,NA
11435,Queens County,NY,NA,NA,25.9047619047619
11542,Nassau County,NY,66.54676258992805,NA,32.57142857142858
11561,Nassau County,NY,NA,NA,20
11570,Nassau County,NY,NA,60.118168389955684,NA
11580,Nassau County,NY,NA,55.686853766617425,NA
11692,Queens County,NY,NA,NA,79.61904761904762
11731,Suffolk County,NY,NA,68.98079763663219,NA
11733,Suffolk County,NY,NA,NA,60.1904761904762
11756,Nassau County,NY,NA,91.4327917282127,NA
11762,Nassau County,NY,NA,NA,37.523809523809526
11772,Suffolk County,NY,NA,NA,36.952380952380956
11780,Suffolk County,NY,NA,NA,64.57142857142857
11901,Suffolk County,NY,56.29496402877698,NA,NA
11951,Suffolk County,NY,73.20143884892086,NA,NA
12010,Montgomery County,NY,28.597122302158272,NA,71.61904761904762
12065,Saratoga County,NY,NA,54.65288035450517,NA
12144,Rensselaer County,NY,NA,44.46085672082718,NA
12180,Rensselaer County,NY,NA,NA,7.428571428571429
12197,Otsego County,NY,NA,99.85228951255539,NA
12550,Orange County,NY,NA,57.60709010339734,NA
12601,Dutchess County,NY,35.07194244604317,NA,NA
12603,Dutchess County,NY,78.59712230215827,NA,NA
12831,Saratoga County,NY,NA,NA,84.19047619047619
12866,Saratoga County,NY,68.5251798561151,10.19202363367799,NA
12901,Clinton County,NY,4.496402877697841,NA,NA
13021,Cayuga County,NY,NA,38.25701624815362,NA
13045,Cortland County,NY,5.935251798561151,NA,NA
13053,Tompkins County,NY,NA,85.81979320531758,NA
13068,Tompkins County,NY,NA,90.54652880354506,NA
13078,Onondaga County,NY,NA,75.62776957163959,NA
13090,Onondaga County,NY,20.863309352517987,NA,NA
13092,Cayuga County,NY,93.5251798561151,NA,NA
13114,Oswego County,NY,65.64748201438849,NA,NA
13116,Onondaga County,NY,NA,99.11373707533235,NA
13202,Onondaga County,NY,NA,96.602658788774,NA
13212,Onondaga County,NY,NA,59.37961595273264,NA
13215,Onondaga County,NY,56.83453237410072,NA,NA
13316,Oneida County,NY,68.88489208633094,NA,NA
13323,Oneida County,NY,72.84172661870504,NA,NA
13357,Herkimer County,NY,43.884892086330936,NA,NA
13815,Chenango County,NY,18.884892086330936,NA,NA
13820,Otsego County,NY,NA,7.533234859675036,NA
14043,Erie County,NY,NA,31.90546528803545,NA
14092,Niagara County,NY,56.4748201438849,NA,NA
14094,Niagara County,NY,2.697841726618705,NA,NA
14103,Orleans County,NY,88.3093525179856,NA,NA
14120,Niagara County,NY,NA,6.942392909896602,NA
14127,Erie County,NY,NA,15.36189069423929,NA
14227,Erie County,NY,NA,28.95125553914328,NA
14304,Niagara County,NY,NA,2.954209748892171,NA
14437,Livingston County,NY,NA,NA,69.33333333333334
14469,Ontario County,NY,NA,57.459379615952734,NA
14526,Monroe County,NY,NA,14.918759231905465,NA
14532,Ontario County,NY,60.431654676258994,NA,NA
14606,Monroe County,NY,NA,11.816838995568684,85.52380952380952
14612,Monroe County,NY,2.877697841726619,NA,NA
14701,Chautauqua County,NY,NA,1.329394387001477,NA
14840,Steuben County,NY,NA,NA,98.09523809523809
14850,Tompkins County,NY,NA,75.33234859675036,NA
14905,Chemung County,NY,NA,67.0605612998523,NA
27012,Forsyth County,NC,NA,3.8404726735598227,NA
27051,Forsyth County,NC,NA,NA,82.66666666666667
27055,Yadkin County,NC,NA,48.74446085672083,NA
27104,Forsyth County,NC,67.98561151079137,NA,NA
27106,Forsyth County,NC,NA,NA,1.3333333333333335
27215,Alamance County,NC,12.769784172661872,32.348596750369275,NA
27295,Davidson County,NC,5.575539568345324,NA,NA
27312,Chatham County,NC,NA,19.64549483013294,NA
27360,Davidson County,NC,NA,4.726735598227474,NA
27401,Guilford County,NC,34.352517985611506,NA,NA
27504,Johnston County,NC,NA,NA,72
27516,Orange County,NC,NA,12.259970457902511,NA
27519,Wake County,NC,54.67625899280576,NA,NA
27520,Johnston County,NC,39.20863309352518,35.59822747415066,NA
27526,Wake County,NC,NA,NA,17.71428571428571
27529,Wake County,NC,NA,NA,16.57142857142857
27539,Wake County,NC,NA,88.47858197932054,NA
27540,Wake County,NC,80.03597122302159,NA,NA
27565,Granville County,NC,NA,NA,25.333333333333336
27573,Person County,NC,NA,NA,56.57142857142857
27577,Johnston County,NC,NA,35.30280649926144,NA
27610,Wake County,NC,NA,NA,23.61904761904762
27703,Durham County,NC,14.388489208633093,NA,NA
27705,Durham County,NC,89.20863309352518,NA,NA
27707,Durham County,NC,NA,NA,17.142857142857142
27893,Wilson County,NC,19.424460431654676,NA,NA
27909,Pasquotank County,NC,17.086330935251798,NA,17.333333333333336
27932,Chowan County,NC,NA,47.85819793205317,NA
27944,Perquimans County,NC,71.40287769784173,NA,NA
28036,Mecklenburg County,NC,NA,90.25110782865583,NA
28054,Gaston County,NC,23.381294964028775,NA,28.19047619047619
28075,Cabarrus County,NC,90.10791366906474,NA,NA
28086,Cleveland County,NC,29.856115107913666,NA,NA
28103,Union County,NC,81.29496402877699,NA,NA
28134,Mecklenburg County,NC,NA,NA,86.66666666666667
28138,Rowan County,NC,NA,82.12703101920236,NA
28166,Iredell County,NC,NA,93.64844903988183,NA
28174,Union County,NC,NA,89.36484490398819,NA
28216,Mecklenburg County,NC,NA,15.5096011816839,NA
28226,Mecklenburg County,NC,NA,46.233382570162476,NA
28262,Mecklenburg County,NC,NA,69.71935007385525,NA
28306,Bladen County,NC,NA,69.57163958641064,NA
28339,Harnett County,NC,86.51079136690647,NA,NA
28372,Robeson County,NC,NA,NA,77.52380952380953
28374,Moore County,NC,NA,NA,12.380952380952381
28387,Moore County,NC,NA,NA,46.85714285714286
28401,New Hanover County,NC,NA,35.450516986706056,NA
28504,Lenoir County,NC,NA,62.77695716395865,NA
28612,Burke County,NC,88.84892086330936,NA,NA
28625,Iredell County,NC,81.11510791366906,NA,NA
28630,Caldwell County,NC,40.28776978417266,NA,NA
58103,Cass County,ND,8.633093525179856,NA,NA
58501,Burleigh County,ND,NA,31.314623338257014,8.380952380952381
58503,Burleigh County,ND,NA,NA,6.666666666666667
58504,Burleigh County,ND,NA,NA,16.952380952380953
58701,Ward County,ND,NA,9.30576070901034,NA
58784,Mountrail County,ND,98.20143884892086,NA,NA
58801,Williams County,ND,NA,NA,51.8095238095238
43031,Licking County,OH,NA,88.77400295420975,NA
43068,Franklin County,OH,12.410071942446043,NA,NA
43110,Franklin County,OH,NA,63.95864106351551,NA
43119,Franklin County,OH,28.05755395683453,NA,NA
43146,Pickaway County,OH,NA,88.18316100443131,NA
43160,Fayette County,OH,17.985611510791365,NA,NA
43204,Franklin County,OH,6.83453237410072,NA,NA
43206,Franklin County,OH,NA,57.60709010339734,NA
43207,Franklin County,OH,NA,NA,16.761904761904763
43214,Franklin County,OH,NA,NA,47.42857142857143
43215,Franklin County,OH,NA,NA,80.76190476190476
43223,Franklin County,OH,51.97841726618705,NA,NA
43229,Franklin County,OH,8.273381294964029,9.15805022156573,NA
43232,Franklin County,OH,NA,79.76366322008862,NA
43235,Franklin County,OH,51.438848920863315,NA,NA
43302,Marion County,OH,3.0575539568345325,NA,NA
43326,Hardin County,OH,55.03597122302158,NA,NA
43420,Sandusky County,OH,NA,NA,19.047619047619047
43452,Ottawa County,OH,NA,NA,94.66666666666667
43502,Fulton County,OH,85.25179856115108,NA,NA
43532,Henry County,OH,94.60431654676259,NA,NA
43551,Wood County,OH,NA,6.646971935007386,NA
43604,Lucas County,OH,50,NA,NA
43615,Lucas County,OH,5.0359712230215825,NA,NA
43619,Wood County,OH,NA,69.1285081240768,NA
43718,Belmont County,OH,97.3021582733813,NA,NA
43724,Noble County,OH,NA,75.9231905465288,NA
43812,Coshocton County,OH,NA,84.49039881831611,NA
43920,Columbiana County,OH,NA,10.635155096011816,NA
43935,Belmont County,OH,NA,NA,69.71428571428572
43953,Jefferson County,OH,NA,NA,33.714285714285715
44030,Ashtabula County,OH,27.15827338129496,NA,NA
44035,Lorain County,OH,3.776978417266187,NA,NA
44044,Lorain County,OH,NA,40.76809453471196,NA
44072,Geauga County,OH,98.56115107913669,NA,NA
44077,Lake County,OH,NA,NA,0.5714285714285714
44105,Cuyahoga County,OH,NA,0.14771048744460857,NA
44106,Cuyahoga County,OH,NA,14.180206794682423,56.38095238095238
44117,Cuyahoga County,OH,49.82014388489209,NA,NA
44122,Cuyahoga County,OH,NA,NA,0
44128,Cuyahoga County,OH,NA,0.8862629246676514,NA
44130,Cuyahoga County,OH,NA,NA,0.38095238095238093
44134,Cuyahoga County,OH,NA,1.4771048744460855,NA
44140,Cuyahoga County,OH,NA,32.93943870014771,NA
44144,Cuyahoga County,OH,NA,7.976366322008863,NA
44203,Summit County,OH,NA,8.714918759231907,NA
44221,Summit County,OH,NA,18.75923190546529,NA
44224,Summit County,OH,25.359712230215827,NA,NA
44240,Portage County,OH,NA,21.56573116691285,NA
44281,Medina County,OH,60.97122302158273,NA,NA
44306,Summit County,OH,NA,36.63220088626292,NA
44312,Summit County,OH,68.70503597122301,NA,NA
44406,Mahoning County,OH,NA,NA,21.142857142857142
44425,Trumbull County,OH,NA,28.65583456425406,43.61904761904762
44440,Trumbull County,OH,NA,85.08124076809453,NA
44444,Trumbull County,OH,57.9136690647482,NA,NA
44446,Trumbull County,OH,18.345323741007196,NA,NA
44460,Columbiana County,OH,24.640287769784173,NA,NA
44473,Trumbull County,OH,NA,NA,91.80952380952381
44483,Trumbull County,OH,20.14388489208633,NA,NA
44511,Mahoning County,OH,NA,NA,55.80952380952381
44512,Mahoning County,OH,NA,49.77843426883309,NA
44515,Mahoning County,OH,13.309352517985612,NA,NA
44663,Tuscarawas County,OH,NA,54.505169867060566,NA
44707,Stark County,OH,64.92805755395683,NA,NA
44813,Richland County,OH,NA,NA,80
44870,Erie County,OH,18.165467625899282,NA,NA
44883,Seneca County,OH,NA,38.70014771048744,NA
44903,Richland County,OH,22.841726618705035,NA,NA
44906,Richland County,OH,39.92805755395683,NA,NA
45002,Hamilton County,OH,82.91366906474819,67.65140324963073,NA
45005,Warren County,OH,11.510791366906476,18.168389955686852,NA
45013,Butler County,OH,4.676258992805756,NA,24.952380952380953
45066,Warren County,OH,NA,50.960118168389954,NA
45069,Butler County,OH,NA,NA,49.142857142857146
45150,Clermont County,OH,NA,33.08714918759232,NA
45205,Hamilton County,OH,NA,55.98227474150664,NA
45207,Hamilton County,OH,84.35251798561151,NA,NA
45208,Hamilton County,OH,NA,NA,72.57142857142857
45216,Hamilton County,OH,NA,NA,98.85714285714286
45233,Hamilton County,OH,NA,91.2850812407681,NA
45238,Hamilton County,OH,NA,NA,8.571428571428571
45244,Hamilton County,OH,NA,49.18759231905465,NA
45324,Greene County,OH,12.23021582733813,NA,NA
45342,Montgomery County,OH,64.20863309352518,9.748892171344165,NA
45356,Miami County,OH,NA,11.669128508124077,NA
45365,Shelby County,OH,NA,13.884785819793205,NA
45385,Greene County,OH,15.287769784172662,8.862629246676514,NA
45415,Montgomery County,OH,NA,60.56129985228951,74.47619047619047
45417,Montgomery County,OH,11.33093525179856,NA,NA
45426,Montgomery County,OH,82.55395683453237,NA,NA
45449,Montgomery County,OH,NA,78.87740029542097,41.14285714285714
45458,Montgomery County,OH,NA,12.112259970457902,25.142857142857146
45503,Clark County,OH,NA,NA,67.04761904761905
45601,Ross County,OH,0.8992805755395683,NA,NA
45631,Gallia County,OH,14.20863309352518,NA,NA
45638,Lawrence County,OH,6.294964028776978,NA,NA
45662,Scioto County,OH,NA,NA,3.0476190476190474
45669,Lawrence County,OH,NA,57.60709010339734,NA
45714,Washington County,OH,NA,NA,28.76190476190476
45750,Washington County,OH,2.5179856115107913,NA,NA
45822,Mercer County,OH,NA,NA,18.857142857142858
45827,Putnam County,OH,NA,99.70457902511079,NA
73028,Logan County,OK,99.28057553956835,NA,NA
73044,Logan County,OK,NA,NA,41.904761904761905
73071,Cleveland County,OK,85.07194244604317,NA,NA
73086,Murray County,OK,74.46043165467626,NA,NA
73089,Grady County,OK,83.63309352517986,NA,NA
73106,Oklahoma County,OK,75,NA,NA
73701,Garfield County,OK,NA,NA,23.809523809523807
73703,Garfield County,OK,NA,18.46381093057607,NA
74006,Washington County,OK,61.33093525179856,NA,NA
74012,Tulsa County,OK,NA,NA,8.952380952380953
74059,Payne County,OK,NA,NA,86.85714285714286
74074,Payne County,OK,51.798561151079134,42.540620384047266,73.33333333333333
74112,Tulsa County,OK,83.45323741007195,NA,NA
74426,McIntosh County,OK,NA,89.6602658788774,NA
74434,Muskogee County,OK,NA,97.63663220088627,NA
74441,Cherokee County,OK,NA,95.86410635155096,NA
74462,Haskell County,OK,94.96402877697841,NA,NA
74525,Atoka County,OK,NA,NA,70.0952380952381
74547,Pittsburg County,OK,NA,NA,100
74801,Pottawatomie County,OK,45.86330935251798,NA,NA
74868,Seminole County,OK,NA,NA,74.09523809523809
97045,Clackamas County,OR,19.244604316546763,NA,NA
97070,Clackamas County,OR,NA,61.15214180206795,NA
97221,Multnomah County,OR,98.38129496402878,NA,NA
97233,Multnomah County,OR,20.323741007194247,NA,54.85714285714286
97304,Polk County,OR,63.48920863309353,NA,NA
97305,Marion County,OR,31.47482014388489,NA,NA
97322,Linn County,OR,NA,13.146233382570163,NA
97386,Linn County,OR,54.49640287769785,NA,NA
97404,Lane County,OR,NA,NA,56.76190476190476
97420,Coos County,OR,NA,NA,44.57142857142857
97459,Coos County,OR,NA,72.52584933530281,NA
97471,Douglas County,OR,NA,5.908419497784342,NA
97525,Jackson County,OR,NA,85.81979320531758,NA
97527,Josephine County,OR,NA,20.088626292466767,NA
97530,Jackson County,OR,NA,81.97932053175776,NA
97703,Deschutes County,OR,NA,NA,82.28571428571428
97754,Crook County,OR,53.05755395683454,NA,NA
97862,Umatilla County,OR,66.90647482014388,NA,NA
15066,Beaver County,PA,78.77697841726618,NA,NA
15139,Allegheny County,PA,NA,NA,64.57142857142857
15201,Allegheny County,PA,65.28776978417267,NA,NA
15204,Allegheny County,PA,71.0431654676259,NA,94.85714285714286
15216,Allegheny County,PA,NA,54.35745937961596,NA
15217,Allegheny County,PA,65.28776978417267,NA,NA
15219,Allegheny County,PA,NA,NA,37.904761904761905
15226,Allegheny County,PA,NA,59.23190546528804,NA
15235,Allegheny County,PA,NA,NA,6.857142857142858
15236,Allegheny County,PA,NA,NA,39.80952380952381
15237,Allegheny County,PA,NA,NA,4
15241,Allegheny County,PA,NA,NA,53.142857142857146
15425,Fayette County,PA,37.76978417266187,25.70162481536189,NA
15601,Westmoreland County,PA,NA,NA,0.7619047619047619
15658,Westmoreland County,PA,NA,78.13884785819793,NA
15701,Indiana County,PA,NA,17.872968980797637,NA
15717,Indiana County,PA,69.7841726618705,NA,NA
15767,Jefferson County,PA,NA,NA,21.333333333333336
15824,Jefferson County,PA,87.94964028776978,NA,NA
15851,Jefferson County,PA,NA,NA,26.095238095238095
15857,Elk County,PA,79.31654676258992,NA,NA
16002,Butler County,PA,62.76978417266187,NA,NA
16417,Erie County,PA,83.27338129496404,NA,NA
16433,Crawford County,PA,NA,89.51255539143278,NA
16506,Erie County,PA,NA,NA,38.857142857142854
16508,Erie County,PA,NA,63.36779911373708,NA
16510,Erie County,PA,74.82014388489209,NA,NA
16601,Blair County,PA,NA,NA,20.952380952380953
16686,Blair County,PA,64.38848920863309,NA,NA
16823,Centre County,PA,NA,17.2821270310192,NA
17007,Cumberland County,PA,NA,92.31905465288035,NA
17042,Lebanon County,PA,NA,5.465288035450517,NA
17046,Lebanon County,PA,12.050359712230216,NA,NA
17067,Lebanon County,PA,NA,75.9231905465288,NA
17078,Lebanon County,PA,22.302158273381295,NA,NA
17112,Dauphin County,PA,21.942446043165468,NA,NA
17236,Franklin County,PA,95.32374100719424,NA,NA
17268,Franklin County,PA,22.48201438848921,NA,NA
17325,Adams County,PA,NA,NA,10.285714285714285
17603,Lancaster County,PA,NA,87.00147710487445,NA
17724,Bradford County,PA,NA,95.71639586410635,NA
17728,Lycoming County,PA,NA,71.19645494830132,NA
17857,Northumberland County,PA,71.58273381294964,NA,NA
17922,Schuylkill County,PA,94.06474820143885,NA,NA
18015,Northampton County,PA,NA,27.031019202363364,NA
18017,Northampton County,PA,7.913669064748201,27.91728212703102,NA
18055,Northampton County,PA,NA,55.096011816838995,NA
18058,Monroe County,PA,NA,73.85524372230428,NA
18072,Northampton County,PA,NA,NA,94.47619047619048
18102,Lehigh County,PA,1.618705035971223,7.0901033973412115,NA
18505,Lackawanna County,PA,NA,NA,82.47619047619048
18512,Lackawanna County,PA,67.80575539568345,NA,NA
18621,Luzerne County,PA,NA,87.74002954209749,NA
18702,Luzerne County,PA,9.352517985611511,NA,NA
18707,Luzerne County,PA,NA,NA,39.42857142857143
18801,Susquehanna County,PA,92.26618705035972,66.17429837518463,NA
18840,Bradford County,PA,69.06474820143885,NA,NA
18914,Bucks County,PA,NA,58.64106351550961,NA
19004,Montgomery County,PA,NA,67.50369276218612,NA
19021,Bucks County,PA,NA,78.43426883308715,NA
19033,Delaware County,PA,NA,NA,92
19036,Delaware County,PA,NA,93.0576070901034,NA
19061,Delaware County,PA,NA,NA,53.52380952380953
19064,Delaware County,PA,NA,48.59675036927622,NA
19073,Delaware County,PA,NA,NA,14.666666666666666
19082,Delaware County,PA,NA,28.80354505169867,NA
19083,Delaware County,PA,NA,13.737075332348597,NA
19085,Delaware County,PA,NA,87.29689807976366,NA
19096,Montgomery County,PA,NA,41.506646971935005,NA
19104,Philadelphia County,PA,14.928057553956833,NA,53.714285714285715
19114,Philadelphia County,PA,56.65467625899281,NA,NA
19131,Philadelphia County,PA,NA,2.363367799113737,8
19134,Philadelphia County,PA,54.85611510791367,14.771048744460858,NA
19143,Philadelphia County,PA,10.611510791366907,NA,NA
19145,Philadelphia County,PA,88.12949640287769,NA,NA
19344,Chester County,PA,NA,NA,75.80952380952381
19355,Chester County,PA,NA,44.16543574593796,NA
19401,Montgomery County,PA,41.36690647482014,NA,NA
19454,Montgomery County,PA,NA,49.926144756277694,NA
19464,Montgomery County,PA,6.474820143884892,NA,NA
19468,Montgomery County,PA,NA,36.92762186115214,NA
19508,Berks County,PA,NA,74.88921713441654,NA
19606,Berks County,PA,14.748201438848922,NA,NA
02840,Newport County,RI,50.53956834532374,NA,NA
02860,Providence County,RI,8.81294964028777,NA,NA
02886,Kent County,RI,NA,61.29985228951256,NA
02889,Kent County,RI,NA,NA,34.476190476190474
02891,Washington County,RI,63.12949640287769,29.246676514032494,NA
02893,Kent County,RI,43.3453237410072,NA,NA
02895,Providence County,RI,NA,29.98522895125554,NA
02907,Providence County,RI,75.71942446043165,NA,NA
02919,Providence County,RI,NA,32.791728212703106,NA
29073,Lexington County,SC,61.51079136690647,NA,NA
29112,Orangeburg County,SC,NA,93.79615952732644,NA
29160,Lexington County,SC,84.89208633093526,NA,NA
29172,Lexington County,SC,NA,84.04726735598229,NA
29212,Lexington County,SC,NA,44.903988183161005,NA
29307,Spartanburg County,SC,NA,NA,49.333333333333336
29349,Spartanburg County,SC,30.935251798561154,NA,NA
29403,Charleston County,SC,51.07913669064749,NA,NA
29405,Charleston County,SC,33.45323741007194,NA,NA
29406,Charleston County,SC,30.035971223021583,59.822747415066466,NA
29445,Berkeley County,SC,29.136690647482016,NA,NA
29461,Berkeley County,SC,NA,NA,77.33333333333333
29464,Charleston County,SC,NA,NA,13.523809523809524
29483,Dorchester County,SC,NA,57.01624815361891,NA
29485,Dorchester County,SC,NA,NA,43.80952380952381
29486,Berkeley County,SC,NA,51.25553914327917,NA
29526,Horry County,SC,NA,NA,21.523809523809522
29550,Darlington County,SC,49.64028776978417,NA,NA
29569,Horry County,SC,NA,86.55834564254063,NA
29574,Marion County,SC,NA,65.28803545051699,NA
29588,Horry County,SC,NA,10.782865583456426,20.38095238095238
29620,Abbeville County,SC,85.97122302158273,NA,NA
29621,Anderson County,SC,NA,19.79320531757755,NA
29624,Anderson County,SC,NA,NA,67.80952380952381
29657,Pickens County,SC,91.90647482014388,NA,NA
29676,Oconee County,SC,NA,75.03692762186115,NA
29680,Greenville County,SC,52.69784172661871,NA,NA
29706,Chester County,SC,41.726618705035975,NA,NA
29707,Lancaster County,SC,NA,NA,60.57142857142858
29730,York County,SC,NA,NA,45.714285714285715
29835,McCormick County,SC,NA,NA,85.71428571428571
29906,Beaufort County,SC,73.56115107913669,NA,NA
57105,Minnehaha County,SD,NA,11.37370753323486,NA
57702,Pennington County,SD,NA,19.054652880354507,36.57142857142857
37015,Cheatham County,TN,66.18705035971223,NA,NA
37029,Dickson County,TN,NA,99.55686853766618,NA
37042,Montgomery County,TN,NA,41.06351550960118,NA
37055,Dickson County,TN,NA,44.608567208271786,NA
37066,Sumner County,TN,NA,9.453471196454949,NA
37072,Davidson County,TN,NA,30.132939438700145,NA
37075,Sumner County,TN,NA,6.499261447562777,NA
37115,Davidson County,TN,NA,NA,31.80952380952381
37167,Rutherford County,TN,NA,NA,32.761904761904766
37174,Williamson County,TN,53.776978417266186,40.472673559822745,NA
37205,Davidson County,TN,NA,81.68389955686854,NA
37206,Davidson County,TN,NA,42.98375184638109,NA
37209,Davidson County,TN,38.30935251798561,NA,NA
37218,Davidson County,TN,57.37410071942446,NA,NA
37303,McMinn County,TN,NA,45.347119645494836,NA
37311,Bradley County,TN,42.62589928057554,NA,NA
37343,Hamilton County,TN,NA,NA,21.714285714285715
37398,Franklin County,TN,NA,58.49335302806499,44
37604,Washington County,TN,23.92086330935252,NA,NA
37617,Sullivan County,TN,NA,64.69719350073855,81.14285714285714
37620,Sullivan County,TN,16.906474820143885,70.7533234859675,NA
37641,Greene County,TN,NA,60.118168389955684,NA
37645,Hawkins County,TN,NA,NA,89.90476190476191
37650,Unicoi County,TN,NA,47.56277695716396,NA
37660,Sullivan County,TN,NA,NA,9.904761904761905
37664,Sullivan County,TN,NA,50.369276218611525,NA
37686,Sullivan County,TN,NA,87.44460856720828,NA
37716,Anderson County,TN,NA,32.05317577548006,NA
37743,Greene County,TN,NA,NA,66.47619047619048
37745,Greene County,TN,NA,24.81536189069424,32.38095238095238
37801,Blount County,TN,NA,13.44165435745938,NA
37849,Knox County,TN,48.201438848920866,NA,NA
37865,Sevier County,TN,NA,NA,73.14285714285714
37917,Knox County,TN,21.58273381294964,24.66765140324963,NA
37923,Knox County,TN,NA,42.09748892171344,NA
38008,Hardeman County,TN,NA,71.93500738552437,NA
38017,Shelby County,TN,NA,NA,46.666666666666664
38053,Shelby County,TN,NA,NA,27.23809523809524
38059,Dyer County,TN,NA,83.60413589364845,NA
38106,Shelby County,TN,NA,NA,55.23809523809524
38111,Shelby County,TN,NA,NA,42.095238095238095
38114,Shelby County,TN,77.87769784172663,NA,NA
38119,Shelby County,TN,NA,NA,69.9047619047619
38139,Shelby County,TN,93.88489208633094,NA,NA
38358,Gibson County,TN,62.410071942446045,NA,NA
38464,Lawrence County,TN,NA,NA,38.285714285714285
38572,Cumberland County,TN,NA,NA,68.19047619047619
38583,White County,TN,NA,31.166912850812405,NA
75025,Collin County,TX,NA,56.57311669128509,NA
75043,Dallas County,TX,57.55395683453237,NA,NA
75044,Dallas County,TX,NA,NA,96.95238095238096
75057,Denton County,TX,NA,84.93353028064993,NA
75063,Dallas County,TX,NA,88.62629246676515,NA
75067,Denton County,TX,39.568345323741006,NA,NA
75075,Collin County,TX,69.60431654676259,NA,NA
75080,Dallas County,TX,NA,45.05169867060561,NA
75081,Dallas County,TX,NA,NA,65.33333333333333
75088,Dallas County,TX,NA,48.89217134416543,NA
75103,Van Zandt County,TX,NA,NA,47.23809523809524
75110,Navarro County,TX,NA,78.28655834564255,NA
75126,Kaufman County,TX,37.94964028776979,NA,NA
75143,Henderson County,TX,NA,59.97045790251108,NA
75146,Dallas County,TX,NA,NA,68.95238095238095
75211,Dallas County,TX,NA,24.519940915805023,NA
75227,Dallas County,TX,23.201438848920862,NA,NA
75232,Dallas County,TX,51.618705035971225,NA,NA
75244,Dallas County,TX,NA,86.41063515509602,NA
75287,Denton County,TX,NA,NA,88
75457,Franklin County,TX,NA,94.23929098966026,NA
75494,Wood County,TX,87.05035971223022,NA,NA
75501,Bowie County,TX,NA,25.553914327917283,NA
75604,Gregg County,TX,48.74100719424461,NA,NA
75644,Upshur County,TX,73.7410071942446,NA,NA
75672,Harrison County,TX,NA,63.8109305760709,NA
75702,Smith County,TX,46.043165467625904,NA,NA
75709,Smith County,TX,NA,NA,90.66666666666666
75803,Anderson County,TX,70.14388489208633,NA,NA
75972,San Augustine County,TX,NA,94.97784342688331,NA
76015,Tarrant County,TX,92.44604316546763,NA,NA
76104,Tarrant County,TX,25.899280575539567,NA,NA
76114,Tarrant County,TX,NA,92.61447562776958,NA
76182,Tarrant County,TX,NA,37.07533234859675,NA
76522,Coryell County,TX,79.67625899280576,NA,NA
76528,Coryell County,TX,35.25179856115108,NA,NA
76801,Brown County,TX,NA,49.48301329394387,NA
76903,Tom Green County,TX,NA,54.20974889217134,NA
77004,Harris County,TX,NA,46.82422451994091,NA
77024,Harris County,TX,NA,NA,34.85714285714286
77026,Harris County,TX,NA,NA,67.42857142857143
77036,Harris County,TX,58.81294964028777,NA,NA
77039,Harris County,TX,NA,NA,87.42857142857143
77042,Harris County,TX,76.43884892086331,NA,NA
77049,Harris County,TX,NA,NA,96.76190476190476
77060,Harris County,TX,86.6906474820144,NA,NA
77064,Harris County,TX,NA,NA,68
77076,Harris County,TX,59.71223021582733,NA,NA
77077,Harris County,TX,NA,34.416543574593796,NA
77084,Harris County,TX,NA,25.406203840472674,NA
77301,Montgomery County,TX,NA,NA,80.38095238095238
77303,Montgomery County,TX,NA,96.89807976366322,NA
77320,Walker County,TX,77.15827338129496,NA,NA
77346,Harris County,TX,60.251798561151084,NA,NA
77360,Polk County,TX,NA,NA,88.19047619047619
77396,Harris County,TX,45.50359712230216,NA,NA
77407,Fort Bend County,TX,58.45323741007194,NA,NA
77418,Austin County,TX,NA,73.41211225997046,NA
77429,Harris County,TX,NA,4.283604135893649,NA
77449,Harris County,TX,NA,28.21270310192024,NA
77450,Harris County,TX,46.402877697841724,NA,37.523809523809526
77461,Fort Bend County,TX,92.62589928057554,NA,NA
77480,Brazoria County,TX,NA,80.64992614475628,NA
77489,Fort Bend County,TX,36.8705035971223,NA,NA
77510,Galveston County,TX,NA,65.73116691285081,NA
77514,Chambers County,TX,90.64748201438849,NA,NA
77518,Galveston County,TX,NA,91.72821270310192,NA
77630,Orange County,TX,77.33812949640287,NA,NA
77706,Jefferson County,TX,53.956834532374096,NA,NA
77708,Jefferson County,TX,84.17266187050359,NA,NA
77901,Victoria County,TX,NA,22.895125553914326,NA
77979,Calhoun County,TX,NA,NA,58.47619047619048
77995,Lavaca County,TX,82.01438848920863,NA,NA
78013,Kendall County,TX,NA,97.34121122599704,NA
78028,Kerr County,TX,NA,NA,5.714285714285714
78043,Webb County,TX,49.280575539568346,NA,NA
78121,Wilson County,TX,87.23021582733813,NA,NA
78154,Guadalupe County,TX,78.9568345323741,NA,NA
78163,Comal County,TX,NA,NA,94.28571428571428
78211,Bexar County,TX,59.172661870503596,NA,NA
78227,Bexar County,TX,44.96402877697842,NA,NA
78237,Bexar County,TX,36.330935251798564,NA,54.095238095238095
78363,Kleberg County,TX,NA,61.595273264401776,NA
78413,Nueces County,TX,NA,72.673559822747407,NA
78414,Nueces County,TX,NA,85.22895125553914,NA
78416,Nueces County,TX,NA,96.15952732644017,NA
78543,Hidalgo County,TX,NA,NA,98.47619047619047
78589,Hidalgo County,TX,75.35971223021582,NA,NA
78602,Bastrop County,TX,68.16546762589928,NA,NA
78620,Hays County,TX,95.14388489208633,NA,NA
78640,Hays County,TX,50.17985611510791,NA,NA
78645,Travis County,TX,NA,NA,70.66666666666667
78702,Travis County,TX,NA,76.36632200886262,NA
78724,Travis County,TX,NA,NA,88.76190476190476
78738,Travis County,TX,NA,83.01329394387001,NA
78739,Travis County,TX,NA,NA,93.52380952380952
78747,Travis County,TX,NA,94.8301329394387,NA
78758,Travis County,TX,NA,NA,62.857142857142854
78840,Val Verde County,TX,NA,19.35007385524372,NA
79510,Callahan County,TX,NA,NA,87.61904761904762
79705,Midland County,TX,32.55395683453237,NA,NA
79938,El Paso County,TX,NA,NA,70.85714285714285
84009,Salt Lake County,UT,NA,60.856720827178734,NA
84014,Davis County,UT,90.82733812949641,NA,NA
84040,Davis County,UT,NA,86.11521418020679,NA
84070,Salt Lake County,UT,NA,NA,35.42857142857142
84078,Uintah County,UT,21.223021582733814,NA,NA
84084,Salt Lake County,UT,NA,NA,71.80952380952381
84093,Salt Lake County,UT,NA,52.88035450516987,NA
84107,Salt Lake County,UT,NA,NA,83.80952380952381
84121,Salt Lake County,UT,77.6978417266187,NA,NA
84123,Salt Lake County,UT,NA,NA,48.19047619047619
84129,,UT,NA,65.28803545051699,NA
84532,Grand County,UT,NA,88.0354505169867,NA
84601,Utah County,UT,NA,86.11521418020679,NA
84721,Iron County,UT,71.0431654676259,NA,77.90476190476191
84770,Washington County,UT,46.94244604316547,NA,NA
05602,Washington County,VT,68.34532374100719,37.813884785819795,NA
05641,Washington County,VT,NA,31.314623338257014,NA
20155,Prince William County,VA,NA,47.267355982274736,NA
20170,Fairfax County,VA,89.02877697841727,NA,NA
20175,Loudoun County,VA,NA,NA,45.14285714285714
22003,Fairfax County,VA,NA,29.394387001477106,NA
22191,Prince William County,VA,21.942446043165468,NA,NA
22204,Arlington County,VA,NA,49.33530280649926,NA
22473,Northumberland County,VA,NA,NA,93.33333333333333
22556,Stafford County,VA,75.89928057553958,NA,NA
22701,Culpeper County,VA,31.83453237410072,NA,NA
22802,Harrisonburg city,VA,28.41726618705036,NA,NA
22815,Rockingham County,VA,NA,66.61742983751846,NA
23112,Chesterfield County,VA,NA,30.87149187592319,NA
23140,New Kent County,VA,NA,NA,95.61904761904762
23185,James City County,VA,45.32374100719424,NA,6.2857142857142865
23223,Henrico County,VA,5.39568345323741,48.15361890694239,NA
23226,Richmond city,VA,NA,61.00443131462334,63.42857142857142
23322,Chesapeake city,VA,60.61151079136691,NA,NA
23435,Suffolk city,VA,NA,NA,52.761904761904766
23464,Virginia Beach city,VA,NA,2.511078286558346,NA
23518,Norfolk city,VA,NA,NA,16.19047619047619
23664,Hampton city,VA,85.79136690647482,NA,NA
23669,Hampton city,VA,NA,NA,8.190476190476192
23701,Portsmouth city,VA,NA,NA,18.095238095238095
23803,Petersburg city,VA,15.287769784172662,NA,NA
24019,Roanoke County,VA,NA,NA,40.95238095238095
24066,Botetourt County,VA,98.02158273381295,NA,NA
24095,Bedford County,VA,95.68345323741008,NA,NA
24134,Giles County,VA,NA,NA,75.23809523809524
24171,Patrick County,VA,NA,64.40177252584934,NA
24210,Washington County,VA,NA,48.15361890694239,42.66666666666667
24230,Wise County,VA,NA,71.78729689807977,NA
24251,Scott County,VA,NA,NA,87.80952380952381
24256,Dickenson County,VA,NA,97.93205317577548,NA
24260,Russell County,VA,73.92086330935251,NA,69.14285714285714
24273,Norton city,VA,74.64028776978418,NA,NA
24279,Wise County,VA,NA,97.19350073855244,NA
24293,Wise County,VA,NA,79.3205317577548,NA
24301,Pulaski County,VA,85.61151079136691,NA,NA
24354,Smyth County,VA,NA,NA,41.523809523809526
24541,Danville city,VA,43.16546762589928,NA,NA
24572,Amherst County,VA,NA,NA,62.66666666666667
24609,Tazewell County,VA,99.10071942446042,NA,NA
24651,Tazewell County,VA,NA,83.89955686853766,NA
98031,King County,WA,NA,16.691285081240768,NA
98042,King County,WA,NA,NA,78.28571428571428
98092,King County,WA,NA,19.202363367799112,NA
98116,King County,WA,NA,64.54948301329394,NA
98168,King County,WA,NA,NA,42.857142857142854
98201,Snohomish County,WA,NA,NA,66.66666666666666
98223,Snohomish County,WA,29.136690647482016,NA,NA
98272,Snohomish County,WA,63.66906474820144,NA,NA
98282,Island County,WA,87.76978417266187,NA,NA
98311,Kitsap County,WA,67.26618705035972,NA,NA
98312,Kitsap County,WA,NA,61.74298375184638,NA
98332,Pierce County,WA,NA,NA,85.14285714285714
98335,Pierce County,WA,NA,37.22304283604136,NA
98337,Kitsap County,WA,NA,NA,99.04761904761905
98338,Pierce County,WA,NA,36.336779911373704,NA
98367,Kitsap County,WA,55.2158273381295,NA,83.23809523809523
98373,Pierce County,WA,NA,70.16248153618906,NA
98408,Pierce County,WA,NA,84.78581979320532,NA
98422,Pierce County,WA,NA,64.99261447562778,NA
98498,Pierce County,WA,61.69064748201439,NA,51.42857142857142
98506,Thurston County,WA,NA,NA,76
98597,Thurston County,WA,NA,76.95716395864106,NA
98632,Cowlitz County,WA,NA,5.1698670605613,NA
98826,Chelan County,WA,NA,74.1506646971935,NA
99037,Spokane County,WA,NA,NA,93.14285714285714
99114,Stevens County,WA,82.19424460431655,NA,NA
99156,Pend Oreille County,WA,89.74820143884892,NA,NA
99206,Spokane County,WA,NA,NA,26.857142857142858
99224,Spokane County,WA,NA,73.11669128508123,NA
99301,Franklin County,WA,NA,6.794682422451995,NA
99336,Benton County,WA,16.546762589928058,NA,NA
99344,Adams County,WA,NA,98.81831610044313,NA
97003,NA,NA,59.71223021582733,NA,NA
20002,District of Columbia,DC,6.654676258992806,8.419497784342688,NA
24701,Mercer County,WV,35.61151079136691,NA,NA
25276,Roane County,WV,NA,NA,73.52380952380952
25312,Kanawha County,WV,NA,53.76661742983752,NA
25401,Berkeley County,WV,45.143884892086334,NA,NA
25404,Berkeley County,WV,NA,42.836041358936484,NA
25405,Berkeley County,WV,NA,NA,99.23809523809524
25414,Jefferson County,WV,NA,72.3781388478582,NA
25541,Cabell County,WV,NA,76.66174298375185,NA
25560,Putnam County,WV,NA,NA,75.61904761904762
25801,Raleigh County,WV,17.805755395683455,NA,NA
26003,Ohio County,WV,NA,NA,2.2857142857142856
26070,Brooke County,WV,NA,66.32200886262925,NA
26241,Randolph County,WV,38.1294964028777,NA,NA
26426,Harrison County,WV,NA,93.94387001477105,NA
26505,Monongalia County,WV,11.870503597122301,NA,NA
26508,Monongalia County,WV,NA,NA,15.428571428571427
26537,Preston County,WV,NA,NA,79.23809523809524
26757,Hampshire County,WV,NA,NA,76.76190476190476
53066,Waukesha County,WI,NA,11.964549483013293,NA
53126,Racine County,WI,NA,67.79911373707533,NA
53154,Milwaukee County,WI,26.978417266187048,11.078286558345644,NA
53189,Waukesha County,WI,NA,33.97341211225997,NA
53202,Milwaukee County,WI,NA,47.41506646971935,NA
53209,Milwaukee County,WI,39.74820143884892,NA,NA
53210,Milwaukee County,WI,10.071942446043165,NA,NA
53214,Milwaukee County,WI,15.647482014388489,NA,NA
53220,Milwaukee County,WI,NA,NA,13.714285714285715
53221,Milwaukee County,WI,NA,NA,11.428571428571429
53223,Milwaukee County,WI,21.043165467625897,NA,NA
53402,Racine County,WI,7.1942446043165464,NA,NA
53403,Racine County,WI,41.007194244604314,NA,NA
53527,Dane County,WI,NA,91.5805022156573,NA
53538,Jefferson County,WI,NA,NA,24.761904761904763
53545,Rock County,WI,NA,20.82717872968981,NA
53546,Rock County,WI,NA,3.9881831610044314,NA
53548,Rock County,WI,NA,77.99113737075332,NA
53558,Dane County,WI,NA,NA,86.85714285714286
53566,Green County,WI,NA,NA,10.857142857142858
53713,Dane County,WI,NA,NA,35.61904761904762
53719,Dane County,WI,NA,NA,59.61904761904761
53948,Juneau County,WI,NA,66.76514032496307,NA
54115,Brown County,WI,80.2158273381295,NA,NA
54166,Shawano County,WI,NA,NA,47.61904761904761
54220,Manitowoc County,WI,8.453237410071942,NA,NA
54247,Manitowoc County,WI,99.82014388489209,NA,NA
54304,Brown County,WI,NA,NA,20.19047619047619
54495,Wood County,WI,NA,81.83161004431314,NA
54656,Monroe County,WI,NA,40.91580502215657,NA
54935,Fond du Lac County,WI,NA,13.293943870014772,NA
82604,Natrona County,WY,83.09352517985612,NA,NA
