ZipCode,county,state,Adult,Retirement
35184,Bibb County,AL,76.95852534562212,NA
35211,Jefferson County,AL,NA,27.521008403361346
35803,Madison County,AL,66.51305683563749,NA
36022,Elmore County,AL,NA,83.82352941176471
36081,Pike County,AL,82.79569892473118,NA
36421,Covington County,AL,83.25652841781874,NA
36507,Baldwin County,AL,43.31797235023041,NA
36542,Baldwin County,AL,NA,70.58823529411765
36567,Baldwin County,AL,64.20890937019969,NA
36701,Dallas County,AL,NA,33.82352941176471
36869,Russell County,AL,58.06451612903226,NA
85009,Maricopa County,AZ,18.586789554531492,NA
85014,Maricopa County,AZ,NA,62.60504201680672
85019,Maricopa County,AZ,85.40706605222735,NA
85022,Maricopa County,AZ,25.65284178187404,NA
85202,Maricopa County,AZ,55.91397849462365,NA
85225,Maricopa County,AZ,16.897081413210447,NA
85226,Maricopa County,AZ,57.757296466973884,NA
85248,Maricopa County,AZ,NA,33.193277310924366
85253,Maricopa County,AZ,NA,75.84033613445378
85256,Maricopa County,AZ,90.32258064516128,NA
85301,Maricopa County,AZ,6.29800307219662,NA
85308,Maricopa County,AZ,NA,54.621848739495796
85338,Maricopa County,AZ,NA,49.57983193277311
85344,La Paz County,AZ,41.16743471582181,NA
85382,Maricopa County,AZ,51.1520737327189,NA
85710,Pima County,AZ,11.674347158218126,NA
85713,Pima County,AZ,34.715821812596005,NA
85749,Pima County,AZ,79.56989247311827,NA
86001,Coconino County,AZ,56.22119815668203,NA
86005,Coconino County,AZ,53.60983102918587,NA
86040,Coconino County,AZ,NA,82.77310924369748
86326,Yavapai County,AZ,NA,63.4453781512605
86429,Mohave County,AZ,NA,87.39495798319328
72634,Marion County,AR,NA,91.59663865546219
72704,Washington County,AR,NA,83.61344537815127
90042,Los Angeles County,CA,56.374807987711215,NA
90044,Los Angeles County,CA,NA,57.14285714285714
90220,Los Angeles County,CA,NA,59.45378151260504
90221,Los Angeles County,CA,14.746543778801843,NA
90222,Los Angeles County,CA,69.89247311827957,NA
90250,Los Angeles County,CA,29.185867895545314,NA
90292,Los Angeles County,CA,NA,58.82352941176471
90503,Los Angeles County,CA,79.72350230414746,NA
90631,Orange County,CA,39.63133640552996,NA
91040,Los Angeles County,CA,NA,68.69747899159664
91201,Los Angeles County,CA,NA,71.00840336134453
91306,Los Angeles County,CA,44.39324116743472,NA
91311,Los Angeles County,CA,58.67895545314901,NA
91320,Ventura County,CA,66.97388632872504,57.56302521008403
91351,Los Angeles County,CA,NA,76.47058823529412
91710,San Bernardino County,CA,NA,23.949579831932773
91737,San Bernardino County,CA,80.03072196620585,NA
91761,San Bernardino County,CA,29.339477726574504,NA
92008,San Diego County,CA,53.91705069124424,NA
92021,San Diego County,CA,NA,18.277310924369747
92067,San Diego County,CA,93.85560675883256,NA
92117,San Diego County,CA,NA,59.03361344537815
92227,Imperial County,CA,91.09062980030723,NA
92262,Riverside County,CA,27.188940092165897,NA
92270,Riverside County,CA,NA,40.54621848739496
92404,San Bernardino County,CA,21.19815668202765,NA
92407,San Bernardino County,CA,52.22734254992319,NA
92530,Riverside County,CA,39.1705069124424,NA
92563,Riverside County,CA,67.58832565284179,NA
92620,Orange County,CA,NA,47.89915966386555
92626,Orange County,CA,NA,50.21008403361344
92627,Orange County,CA,26.26728110599078,NA
92649,Orange County,CA,58.525345622119815,NA
92663,Orange County,CA,NA,94.74789915966386
92672,Orange County,CA,NA,58.61344537815126
92688,Orange County,CA,40.55299539170507,NA
92694,Orange County,CA,NA,74.36974789915966
92835,Orange County,CA,81.72043010752688,NA
92886,Orange County,CA,NA,21.428571428571427
92887,Orange County,CA,NA,77.94117647058823
93001,Ventura County,CA,NA,33.403361344537814
93041,Ventura County,CA,88.78648233486943,NA
93063,Ventura County,CA,39.01689708141321,NA
93274,Tulare County,CA,7.987711213517665,NA
93277,Tulare County,CA,NA,22.478991596638657
93312,Kern County,CA,42.703533026113675,NA
93444,San Luis Obispo County,CA,NA,66.38655462184873
93550,Los Angeles County,CA,18.125960061443934,NA
93631,Fresno County,CA,75.26881720430107,NA
93654,Fresno County,CA,56.83563748079877,NA
93657,Fresno County,CA,NA,49.36974789915966
93907,Monterey County,CA,79.26267281105991,NA
94019,San Mateo County,CA,NA,64.70588235294117
94114,San Francisco County,CA,NA,57.35294117647059
94403,San Mateo County,CA,54.68509984639017,NA
94501,Alameda County,CA,41.78187403993856,NA
94509,Contra Costa County,CA,NA,16.80672268907563
94545,Alameda County,CA,77.11213517665131,NA
94577,Alameda County,CA,NA,38.445378151260506
94588,Alameda County,CA,74.80798771121351,NA
94591,Solano County,CA,67.74193548387096,NA
94601,Alameda County,CA,NA,40.54621848739496
94605,Alameda County,CA,59.44700460829493,26.47058823529412
94708,Alameda County,CA,NA,86.76470588235294
94941,Marin County,CA,NA,45.588235294117645
94960,Marin County,CA,NA,83.19327731092437
95006,Santa Cruz County,CA,96.00614439324117,NA
95076,Santa Cruz County,CA,NA,21.218487394957982
95124,Santa Clara County,CA,60.52227342549923,NA
95126,Santa Clara County,CA,66.82027649769586,NA
95130,Santa Clara County,CA,NA,95.7983193277311
95301,Merced County,CA,49.76958525345622,NA
95382,Stanislaus County,CA,29.64669738863287,NA
95540,Humboldt County,CA,NA,59.45378151260504
95623,El Dorado County,CA,NA,90.12605042016807
95687,Solano County,CA,NA,25.840336134453786
95726,El Dorado County,CA,NA,55.04201680672269
95814,Sacramento County,CA,92.78033794162826,NA
95822,Sacramento County,CA,NA,48.109243697478995
95843,Sacramento County,CA,NA,67.22689075630252
95901,Yuba County,CA,NA,54.20168067226891
80003,Jefferson County,CO,49.0015360983103,59.2436974789916
80011,Arapahoe County,CO,NA,37.81512605042017
80015,Arapahoe County,CO,22.427035330261134,NA
80126,Douglas County,CO,54.83870967741935,NA
80138,Douglas County,CO,NA,68.90756302521008
80238,Denver County,CO,78.03379416282642,NA
80439,Jefferson County,CO,82.48847926267281,NA
80537,Larimer County,CO,NA,19.537815126050422
80602,Adams County,CO,76.65130568356375,NA
80908,El Paso County,CO,98.61751152073732,NA
80911,El Paso County,CO,45.16129032258064,NA
80918,El Paso County,CO,NA,38.865546218487395
81001,Pueblo County,CO,NA,48.319327731092436
81006,Pueblo County,CO,73.73271889400922,NA
81052,Prowers County,CO,97.54224270353302,NA
81212,Fremont County,CO,NA,56.30252100840336
81401,Montrose County,CO,50.84485407066052,NA
06066,Tolland County,CT,22.27342549923195,NA
06107,Hartford County,CT,79.87711213517666,NA
06111,Hartford County,CT,41.62826420890937,NA
06410,New Haven County,CT,NA,46.008403361344534
06489,Hartford County,CT,NA,21.008403361344538
06498,Middlesex County,CT,90.78341013824884,NA
06604,Fairfield County,CT,25.49923195084485,NA
06610,Fairfield County,CT,32.71889400921659,NA
06704,New Haven County,CT,27.49615975422427,NA
06790,Litchfield County,CT,NA,2.941176470588235
06811,Fairfield County,CT,76.19047619047619,NA
06824,Fairfield County,CT,94.31643625192012,NA
06840,Fairfield County,CT,NA,78.57142857142857
06854,Fairfield County,CT,48.694316436251924,NA
06902,Fairfield County,CT,27.035330261136714,NA
06905,Fairfield County,CT,NA,91.17647058823529
19702,New Castle County,DE,NA,22.899159663865547
19709,New Castle County,DE,NA,24.579831932773107
19805,New Castle County,DE,3.840245775729647,NA
19904,Kent County,DE,46.54377880184332,NA
19977,Kent County,DE,NA,49.78991596638656
32024,Columbia County,FL,63.133640552995395,NA
32034,Nassau County,FL,54.22427035330261,NA
32054,Union County,FL,81.10599078341014,NA
32055,Columbia County,FL,44.70046082949309,NA
32095,St. Johns County,FL,NA,84.87394957983193
32163,Sumter County,FL,NA,37.18487394957983
32205,Duval County,FL,31.643625192012287,NA
32208,Duval County,FL,1.228878648233487,NA
32211,Duval County,FL,NA,47.26890756302521
32244,Duval County,FL,31.182795698924732,NA
32259,St. Johns County,FL,NA,40.96638655462185
32405,Bay County,FL,31.95084485407066,NA
32459,Walton County,FL,66.97388632872504,NA
32506,Escambia County,FL,NA,21.638655462184875
32533,Escambia County,FL,35.483870967741936,NA
32565,Santa Rosa County,FL,NA,89.07563025210085
32569,Okaloosa County,FL,NA,94.32773109243698
32571,Santa Rosa County,FL,47.15821812596006,NA
32577,Escambia County,FL,89.70814132104454,NA
32618,Alachua County,FL,79.26267281105991,NA
32643,Alachua County,FL,NA,76.68067226890757
32811,Orange County,FL,27.956989247311824,NA
32821,Orange County,FL,82.94930875576037,NA
32905,Brevard County,FL,85.8678955453149,NA
33033,Miami-Dade County,FL,45.46850998463901,NA
33133,Miami-Dade County,FL,NA,43.69747899159664
33145,Miami-Dade County,FL,NA,78.99159663865547
33193,Miami-Dade County,FL,63.594470046082954,NA
33304,Broward County,FL,NA,69.32773109243698
33331,Broward County,FL,NA,87.18487394957984
33570,Hillsborough County,FL,65.284178187404,NA
33617,Hillsborough County,FL,38.556067588325654,NA
33705,Pinellas County,FL,NA,59.87394957983193
33777,Pinellas County,FL,80.64516129032258,NA
33803,Polk County,FL,62.21198156682027,NA
33907,Lee County,FL,NA,71.63865546218487
33928,Lee County,FL,84.17818740399386,NA
33967,Lee County,FL,60.98310291858679,NA
34285,Sarasota County,FL,95.54531490015361,NA
34428,Citrus County,FL,88.47926267281106,NA
34476,Marion County,FL,NA,42.226890756302524
34608,Hernando County,FL,42.3963133640553,NA
34736,Lake County,FL,91.55145929339477,NA
30032,DeKalb County,GA,NA,14.915966386554622
30052,Walton County,GA,53.149001536098304,NA
30075,Fulton County,GA,42.08909370199693,NA
30187,Douglas County,GA,NA,85.50420168067227
30188,Cherokee County,GA,NA,20.168067226890756
30238,Clayton County,GA,NA,87.81512605042016
30281,Henry County,GA,NA,22.268907563025213
30331,Fulton County,GA,21.812596006144393,NA
30701,Gordon County,GA,36.71274961597542,NA
30740,Whitfield County,GA,87.55760368663594,NA
31024,Putnam County,GA,NA,43.48739495798319
31029,Monroe County,GA,74.19354838709677,NA
31535,Coffee County,GA,84.48540706605223,NA
31537,Charlton County,GA,NA,82.35294117647058
31801,Marion County,GA,98.9247311827957,NA
31909,Muscogee County,GA,NA,30.252100840336134
39842,Terrell County,GA,67.2811059907834,NA
96753,Maui County,HI,NA,75
96786,Honolulu County,HI,68.50998463901689,NA
96817,Honolulu County,HI,17.050691244239633,9.873949579831933
96819,Honolulu County,HI,NA,18.487394957983195
83301,Twin Falls County,ID,NA,1.680672268907563
83316,Twin Falls County,ID,NA,68.0672268907563
83340,Blaine County,ID,99.38556067588326,NA
83406,Bonneville County,ID,67.4347158218126,NA
83616,Ada County,ID,NA,13.655462184873949
83642,Ada County,ID,22.58064516129032,NA
83709,Ada County,ID,49.155145929339476,NA
83714,Ada County,ID,NA,19.11764705882353
83814,Kootenai County,ID,NA,44.957983193277315
60007,Cook County,IL,57.45007680491552,NA
60035,Lake County,IL,NA,17.647058823529413
60074,Cook County,IL,NA,73.10924369747899
60081,McHenry County,IL,71.58218125960062,NA
60090,Cook County,IL,58.37173579109063,NA
60101,DuPage County,IL,NA,26.260504201680675
60104,Cook County,IL,97.08141321044546,28.991596638655466
60124,Kane County,IL,64.66973886328725,NA
60126,DuPage County,IL,13.82488479262673,4.411764705882353
60162,Cook County,IL,NA,88.4453781512605
60163,Cook County,IL,96.7741935483871,NA
60410,Will County,IL,NA,72.47899159663865
60431,Will County,IL,44.5468509984639,NA
60476,Cook County,IL,99.84639016897081,NA
60615,Cook County,IL,30.568356374807987,NA
60623,Cook County,IL,9.523809523809524,NA
60626,Cook County,IL,24.88479262672811,NA
60630,Cook County,IL,NA,15.756302521008402
60632,Cook County,IL,18.74039938556068,NA
60634,Cook County,IL,14.592933947772657,NA
60637,Cook County,IL,20.276497695852534,NA
60638,Cook County,IL,13.056835637480798,40.12605042016807
60639,Cook County,IL,12.442396313364055,NA
60646,Cook County,IL,52.53456221198156,NA
60652,Cook County,IL,NA,27.941176470588236
60659,Cook County,IL,NA,29.6218487394958
60901,Kankakee County,IL,NA,17.436974789915965
61032,Stephenson County,IL,NA,55.88235294117647
61244,Rock Island County,IL,68.66359447004609,NA
61356,Bureau County,IL,NA,67.43697478991596
61448,Knox County,IL,100,NA
61554,Tazewell County,IL,35.17665130568356,NA
61616,Peoria County,IL,NA,93.69747899159664
61761,McLean County,IL,44.086021505376344,NA
61822,Champaign County,IL,82.18125960061444,NA
62025,Madison County,IL,NA,45.79831932773109
62234,Madison County,IL,54.07066052227343,NA
62246,Bond County,IL,NA,81.9327731092437
62401,Effingham County,IL,64.82334869431644,NA
62526,Macon County,IL,16.129032258064516,NA
62864,Jefferson County,IL,51.45929339477726,NA
46032,Hamilton County,IN,NA,63.65546218487395
46201,Marion County,IN,53.3026113671275,NA
46219,Marion County,IN,74.03993855606758,NA
46224,Marion County,IN,37.01996927803379,NA
46307,Lake County,IN,NA,2.3109243697478994
46319,Lake County,IN,31.797235023041477,NA
46323,Lake County,IN,26.42089093701997,NA
46349,Newton County,IN,NA,98.52941176470588
46368,Porter County,IN,3.5330261136712746,NA
46383,Porter County,IN,10.291858678955453,NA
46385,Porter County,IN,NA,4.621848739495799
46394,Lake County,IN,NA,58.40336134453782
46404,Lake County,IN,38.40245775729647,NA
46517,Elkhart County,IN,NA,71.42857142857143
46703,Steuben County,IN,54.53149001536099,NA
46725,Whitley County,IN,36.098310291858674,NA
46777,Wells County,IN,NA,96.84873949579831
46797,Allen County,IN,NA,99.36974789915966
46805,Allen County,IN,67.74193548387096,NA
46936,Howard County,IN,77.57296466973887,NA
47356,Henry County,IN,NA,72.89915966386555
47390,Randolph County,IN,NA,92.43697478991596
47460,Owen County,IN,NA,92.85714285714286
47807,Vigo County,IN,76.49769585253456,NA
47874,Parke County,IN,NA,100
50266,Polk County,IA,79.10906298003071,NA
50616,Floyd County,IA,68.81720430107528,NA
50702,Black Hawk County,IA,45.92933947772657,NA
51503,Pottawattamie County,IA,NA,6.092436974789916
51534,Mills County,IA,63.44086021505376,NA
66441,Geary County,KS,NA,67.85714285714286
66610,Shawnee County,KS,NA,89.49579831932773
66618,Shawnee County,KS,NA,84.66386554621849
67207,Sedgwick County,KS,NA,82.56302521008404
67217,Sedgwick County,KS,55.60675883256528,NA
67502,Reno County,KS,71.88940092165899,NA
67530,Barton County,KS,NA,62.39495798319328
40203,Jefferson County,KY,27.342549923195087,NA
40444,Garrard County,KY,NA,83.40336134453781
41008,Carroll County,KY,NA,81.9327731092437
41035,Grant County,KY,49.92319508448541,NA
41042,Boone County,KY,7.066052227342549,NA
41051,Kenton County,KY,40.706605222734254,NA
41091,Boone County,KY,NA,94.9579831932773
41101,Boyd County,KY,21.50537634408602,NA
41301,Wolfe County,KY,74.65437788018433,NA
42001,McCracken County,KY,35.63748079877112,NA
42025,Marshall County,KY,47.004608294930875,NA
42104,Warren County,KY,45.622119815668206,NA
42211,Trigg County,KY,NA,51.470588235294116
42240,Christian County,KY,32.87250384024578,NA
42301,Daviess County,KY,12.749615975422426,NA
42345,Muhlenberg County,KY,57.91090629800307,NA
42420,Henderson County,KY,NA,16.176470588235293
42431,Hopkins County,KY,28.110599078341014,NA
42445,Caldwell County,KY,71.12135176651306,NA
42459,Union County,KY,93.70199692780338,NA
42701,Hardin County,KY,15.514592933947775,NA
70058,Jefferson Parish,LA,NA,15.126050420168067
70072,Jefferson Parish,LA,NA,26.05042016806723
70360,Terrebonne Parish,LA,15.053763440860216,NA
70435,St. Tammany Parish,LA,25.806451612903224,NA
70460,St. Tammany Parish,LA,45.00768049155146,NA
70526,Acadia Parish,LA,29.80030721966206,NA
70535,St. Landry Parish,LA,NA,48.739495798319325
70669,Calcasieu Parish,LA,NA,67.64705882352942
70769,Ascension Parish,LA,13.517665130568357,NA
71112,Bossier Parish,LA,17.51152073732719,NA
03908,York County,ME,NA,61.34453781512605
04005,York County,ME,NA,7.142857142857142
04015,Cumberland County,ME,NA,99.36974789915966
04055,Cumberland County,ME,94.6236559139785,NA
04072,York County,ME,43.16436251920123,NA
04210,Androscoggin County,ME,53.76344086021505,NA
04280,Androscoggin County,ME,78.64823348694317,NA
04401,Penobscot County,ME,NA,1.8907563025210083
04785,Aroostook County,ME,98.46390168970814,NA
04950,Somerset County,ME,NA,73.94957983193278
20706,Prince George's County,MD,91.39784946236558,NA
20817,Montgomery County,MD,78.95545314900153,NA
21028,Harford County,MD,NA,99.15966386554622
21042,Howard County,MD,71.42857142857143,61.13445378151261
21078,Harford County,MD,NA,54.83193277310925
21206,Baltimore city,MD,16.74347158218126,NA
21227,Baltimore County,MD,57.6036866359447,NA
21236,Baltimore County,MD,42.857142857142854,NA
21787,Carroll County,MD,NA,76.05042016806722
01027,Hampshire County,MA,NA,44.537815126050425
01057,Hampden County,MA,NA,51.26050420168067
01082,Hampshire County,MA,NA,40.33613445378151
01085,Hampden County,MA,NA,2.73109243697479
01201,Berkshire County,MA,NA,0
01543,Worcester County,MA,75.42242703533026,85.08403361344537
01562,Worcester County,MA,33.48694316436252,NA
01583,Worcester County,MA,NA,89.70588235294117
01603,Worcester County,MA,NA,3.571428571428571
01730,Middlesex County,MA,37.78801843317972,NA
01748,Middlesex County,MA,47.31182795698925,NA
01778,Middlesex County,MA,NA,51.89075630252101
01801,Middlesex County,MA,NA,1.2605042016806722
01824,Middlesex County,MA,11.981566820276496,90.96638655462185
01835,Essex County,MA,NA,96.63865546218487
01852,Middlesex County,MA,0,NA
01854,Middlesex County,MA,NA,7.9831932773109235
01876,Middlesex County,MA,NA,3.7815126050420167
01905,Essex County,MA,1.6897081413210446,NA
01949,Essex County,MA,NA,69.53781512605042
01960,Essex County,MA,7.834101382488479,NA
02019,Norfolk County,MA,NA,42.016806722689076
02026,Norfolk County,MA,5.990783410138248,NA
02038,Norfolk County,MA,NA,53.15126050420168
02043,Plymouth County,MA,NA,53.78151260504202
02062,Norfolk County,MA,19.047619047619047,46.84873949579832
02066,Plymouth County,MA,40.39938556067588,NA
02072,Norfolk County,MA,11.213517665130567,NA
02114,Suffolk County,MA,NA,40.96638655462185
02115,Suffolk County,MA,NA,5.2521008403361344
02116,Suffolk County,MA,65.89861751152074,NA
02120,Suffolk County,MA,47.61904761904761,NA
02126,Suffolk County,MA,NA,5.46218487394958
02135,Suffolk County,MA,5.0691244239631335,12.815126050420167
02143,Middlesex County,MA,30.87557603686636,NA
02145,Middlesex County,MA,6.1443932411674345,NA
02151,Suffolk County,MA,NA,2.100840336134454
02169,Norfolk County,MA,NA,0.21008403361344538
02176,Middlesex County,MA,NA,79.41176470588235
02184,Norfolk County,MA,NA,81.09243697478992
02301,Plymouth County,MA,2.9185867895545314,NA
02338,Plymouth County,MA,84.7926267281106,NA
02360,Plymouth County,MA,8.90937019969278,NA
02370,Plymouth County,MA,19.508448540706606,NA
02445,Norfolk County,MA,NA,37.18487394957983
02460,Middlesex County,MA,NA,78.99159663865547
02472,Middlesex County,MA,NA,10.504201680672269
02481,Norfolk County,MA,NA,56.72268907563025
02492,Norfolk County,MA,95.23809523809523,30.672268907563026
02724,Bristol County,MA,NA,32.773109243697476
02766,Bristol County,MA,23.655913978494624,NA
02777,Bristol County,MA,10.599078341013826,NA
02780,Bristol County,MA,NA,18.907563025210084
48030,Oakland County,MI,87.86482334869432,NA
48033,Oakland County,MI,44.85407066052227,NA
48038,Macomb County,MI,NA,6.932773109243698
48044,Macomb County,MI,10.75268817204301,NA
48073,Oakland County,MI,35.02304147465438,NA
48082,Macomb County,MI,NA,39.705882352941174
48085,Oakland County,MI,NA,31.092436974789916
48103,Washtenaw County,MI,65.43778801843318,NA
48116,Livingston County,MI,NA,19.95798319327731
48152,Wayne County,MI,NA,35.924369747899156
48154,Wayne County,MI,NA,11.134453781512606
48167,Oakland County,MI,43.77880184331797,NA
48169,Livingston County,MI,NA,32.563025210084035
48174,Wayne County,MI,9.216589861751153,NA
48185,Wayne County,MI,6.912442396313365,9.663865546218489
48186,Wayne County,MI,31.336405529953915,NA
48204,Wayne County,MI,13.82488479262673,NA
48219,Wayne County,MI,6.451612903225806,NA
48227,Wayne County,MI,3.9938556067588324,NA
48228,Wayne County,MI,NA,10.92436974789916
48229,Wayne County,MI,59.60061443932412,NA
48236,Wayne County,MI,NA,18.067226890756302
48239,Wayne County,MI,NA,44.11764705882353
48302,Oakland County,MI,NA,51.05042016806722
48313,Macomb County,MI,NA,76.89075630252101
48316,Macomb County,MI,43.4715821812596,NA
48328,Oakland County,MI,NA,32.142857142857146
48334,Oakland County,MI,NA,96.42857142857143
48446,Lapeer County,MI,NA,64.07563025210085
48450,Sanilac County,MI,95.39170506912443,NA
48601,Saginaw County,MI,18.27956989247312,NA
48629,Roscommon County,MI,NA,90.33613445378151
48827,Eaton County,MI,87.71121351766513,NA
48836,Livingston County,MI,56.68202764976959,NA
48911,Ingham County,MI,8.448540706605224,NA
49022,Berrien County,MI,13.210445468509985,NA
49048,Kalamazoo County,MI,21.658986175115206,NA
49203,Jackson County,MI,9.984639016897082,NA
49247,Lenawee County,MI,74.50076804915514,NA
49250,Hillsdale County,MI,78.49462365591397,NA
49327,Newaygo County,MI,NA,77.73109243697479
49348,Allegan County,MI,37.94162826420891,NA
49425,Muskegon County,MI,99.23195084485407,NA
49441,Muskegon County,MI,NA,5.6722689075630255
49457,Muskegon County,MI,NA,73.73949579831933
49525,Kent County,MI,39.324116743471585,NA
49631,Osceola County,MI,NA,69.9579831932773
49660,Manistee County,MI,41.935483870967744,NA
49721,Cheboygan County,MI,52.84178187403994,NA
49783,Chippewa County,MI,26.113671274961597,NA
49801,Dickinson County,MI,NA,43.90756302521008
49930,Houghton County,MI,NA,73.52941176470588
55009,Goodhue County,MN,72.35023041474655,NA
55106,Ramsey County,MN,8.60215053763441,NA
55125,Washington County,MN,NA,52.73109243697479
55350,McLeod County,MN,33.947772657450074,NA
55373,Wright County,MN,NA,98.94957983193278
55404,Hennepin County,MN,12.135176651305683,NA
55412,Hennepin County,MN,11.52073732718894,NA
55423,Hennepin County,MN,25.34562211981567,NA
55441,Hennepin County,MN,94.77726574500768,NA
55744,Itasca County,MN,NA,10.294117647058822
55810,St. Louis County,MN,90.62980030721967,NA
55811,St. Louis County,MN,NA,7.773109243697479
55912,Mower County,MN,34.86943164362519,NA
55976,Olmsted County,MN,NA,92.22689075630252
56001,Blue Earth County,MN,37.48079877112136,NA
56087,Brown County,MN,NA,97.89915966386555
56187,Nobles County,MN,NA,42.857142857142854
56201,Kandiyohi County,MN,47.77265745007681,NA
56320,Stearns County,MN,NA,89.91596638655463
56431,Aitkin County,MN,NA,45.378151260504204
56701,Pennington County,MN,25.038402457757297,NA
56763,Roseau County,MN,NA,93.4873949579832
38614,Coahoma County,MS,54.83870967741935,NA
39046,Madison County,MS,32.87250384024578,NA
39047,Rankin County,MS,55.76036866359447,44.747899159663866
39083,Copiah County,MS,NA,88.02521008403362
63011,St. Louis County,MO,NA,21.84873949579832
63031,St. Louis County,MO,NA,14.705882352941178
63033,St. Louis County,MO,20.43010752688172,NA
63040,St. Louis County,MO,95.6989247311828,NA
63069,Franklin County,MO,NA,63.86554621848739
63070,Jefferson County,MO,NA,88.8655462184874
63080,Franklin County,MO,48.07987711213518,NA
63103,St. Louis city,MO,NA,94.11764705882352
63135,St. Louis County,MO,36.405529953917046,NA
63366,St. Charles County,MO,17.20430107526882,NA
63379,Lincoln County,MO,NA,31.72268907563025
64015,Jackson County,MO,17.972350230414747,NA
64055,Jackson County,MO,NA,11.344537815126051
64062,Ray County,MO,59.29339477726574,NA
64064,Jackson County,MO,55.14592933947773,NA
64076,Lafayette County,MO,90.01536098310292,NA
64424,Harrison County,MO,NA,85.29411764705883
64465,Clinton County,MO,91.24423963133641,NA
64468,Nodaway County,MO,NA,63.23529411764706
64701,Cass County,MO,NA,88.23529411764706
64730,Bates County,MO,61.44393241167435,NA
64804,Jasper County,MO,NA,12.394957983193278
64834,Jasper County,MO,84.33179723502305,NA
65049,Camden County,MO,NA,85.92436974789915
65078,Morgan County,MO,96.31336405529954,NA
65453,Crawford County,MO,NA,80.88235294117648
59404,Cascade County,MT,48.07987711213518,14.07563025210084
59405,Cascade County,MT,34.254992319508446,NA
59715,Gallatin County,MT,NA,38.655462184873954
59718,Gallatin County,MT,39.93855606758833,43.27731092436975
59864,Lake County,MT,NA,90.54621848739495
59901,Flathead County,MT,37.327188940092164,NA
69301,Box Butte County,NE,70.96774193548387,NA
89506,Washoe County,NV,23.809523809523807,NA
89509,Washoe County,NV,NA,48.739495798319325
89511,Washoe County,NV,NA,30.462184873949578
03053,Rockingham County,NH,32.41167434715822,96.21848739495799
03071,Hillsborough County,NH,NA,99.78991596638656
03076,Hillsborough County,NH,48.38709677419355,NA
03103,Hillsborough County,NH,7.373271889400922,NA
03748,Grafton County,NH,NA,98.73949579831933
03755,Grafton County,NH,NA,95.58823529411765
03857,Rockingham County,NH,94.47004608294931,NA
03858,Rockingham County,NH,88.0184331797235,NA
07003,Essex County,NJ,NA,66.17647058823529
07011,Passaic County,NJ,22.734254992319507,NA
07103,Essex County,NJ,0.9216589861751152,NA
07104,Essex County,NJ,NA,6.302521008403361
07107,Essex County,NJ,1.5360983102918586,NA
07109,Essex County,NJ,19.201228878648234,NA
07304,Hudson County,NJ,NA,6.512605042016808
07417,Bergen County,NJ,89.0937019969278,NA
07430,Bergen County,NJ,68.3563748079877,NA
07624,Bergen County,NJ,NA,97.05882352941177
07740,Monmouth County,NJ,8.755760368663594,NA
07755,Monmouth County,NJ,92.01228878648233,NA
07836,Morris County,NJ,NA,93.0672268907563
07866,Morris County,NJ,66.05222734254991,NA
08012,Camden County,NJ,7.2196620583717355,NA
08016,Burlington County,NJ,NA,28.361344537815125
08028,Gloucester County,NJ,23.195084485407065,NA
08052,Burlington County,NJ,86.9431643625192,NA
08053,Burlington County,NJ,60.215053763440864,NA
08057,Burlington County,NJ,62.0583717357911,NA
08062,Gloucester County,NJ,40.09216589861751,NA
08075,Burlington County,NJ,19.35483870967742,NA
08081,Camden County,NJ,1.8433179723502304,NA
08093,Gloucester County,NJ,40.2457757296467,NA
08094,Gloucester County,NJ,8.294930875576037,NA
08096,Gloucester County,NJ,5.837173579109063,NA
08104,Camden County,NJ,9.062980030721967,NA
08302,Cumberland County,NJ,58.83256528417819,NA
08527,Ocean County,NJ,NA,9.453781512605042
08701,Ocean County,NJ,3.686635944700461,NA
08742,Ocean County,NJ,35.33026113671275,NA
08753,Ocean County,NJ,2.7649769585253456,NA
08805,Somerset County,NJ,83.41013824884793,NA
08850,Middlesex County,NJ,96.31336405529954,NA
08852,Middlesex County,NJ,NA,89.28571428571429
87047,Bernalillo County,NM,97.38863287250385,NA
87104,Bernalillo County,NM,NA,74.57983193277312
87107,Bernalillo County,NM,NA,26.680672268907564
87114,Bernalillo County,NM,10.906298003072196,NA
88203,Chaves County,NM,24.577572964669738,NA
88240,Lea County,NM,7.680491551459294,22.058823529411764
88260,Lea County,NM,44.23963133640553,NA
10026,New York County,NY,30.107526881720432,NA
10310,Richmond County,NY,50.07680491551459,NA
10453,Bronx County,NY,0.4608294930875576,NA
10455,Bronx County,NY,5.22273425499232,NA
10456,Bronx County,NY,3.0721966205837172,NA
10457,Bronx County,NY,NA,10.714285714285714
10461,Bronx County,NY,16.43625192012289,NA
10468,Bronx County,NY,1.3824884792626728,NA
10475,Bronx County,NY,NA,13.865546218487395
10547,Westchester County,NY,92.16589861751152,NA
10941,Orange County,NY,75.57603686635944,NA
10990,Orange County,NY,90.47619047619048,41.596638655462186
11201,Kings County,NY,26.42089093701997,24.789915966386555
11207,Kings County,NY,0.15360983102918588,NA
11212,Kings County,NY,0.7680491551459293,0.8403361344537815
11213,Kings County,NY,28.72503840245776,NA
11216,Kings County,NY,84.6390168970814,61.97478991596639
11220,Kings County,NY,NA,52.10084033613446
11221,Kings County,NY,60.675883256528415,NA
11222,Kings County,NY,92.62672811059907,NA
11364,Queens County,NY,NA,96.00840336134453
11377,Queens County,NY,21.044546850998465,NA
11379,Queens County,NY,83.41013824884793,NA
11416,Queens County,NY,51.76651305683564,NA
11691,Queens County,NY,11.059907834101383,NA
11722,Suffolk County,NY,27.80337941628264,NA
11952,Suffolk County,NY,NA,98.10924369747899
12010,Montgomery County,NY,6.605222734254992,7.352941176470589
12019,Saratoga County,NY,NA,64.91596638655463
12189,Albany County,NY,72.81105990783409,NA
12206,Albany County,NY,55.29953917050692,NA
12528,Ulster County,NY,81.41321044546851,NA
12701,Sullivan County,NY,NA,71.21848739495799
12901,Clinton County,NY,4.147465437788019,NA
12944,Essex County,NY,NA,86.1344537815126
13021,Cayuga County,NY,23.04147465437788,NA
13029,Onondaga County,NY,NA,93.0672268907563
13045,Cortland County,NY,25.960061443932414,NA
13069,Oswego County,NY,6.7588325652841785,NA
13082,Madison County,NY,74.34715821812597,NA
13126,Oswego County,NY,NA,8.823529411764707
13142,Oswego County,NY,70.35330261136713,NA
13159,Onondaga County,NY,NA,95.16806722689076
13203,Onondaga County,NY,24.42396313364055,NA
13210,Onondaga County,NY,39.784946236559136,NA
13402,Madison County,NY,96.62058371735792,NA
13411,Chenango County,NY,NA,93.90756302521008
13452,Montgomery County,NY,85.71428571428571,NA
13619,Jefferson County,NY,96.15975422427036,NA
13667,St. Lawrence County,NY,85.56067588325654,NA
13748,Broome County,NY,72.50384024577573,NA
13815,Chenango County,NY,63.90168970814132,NA
13843,Chenango County,NY,99.69278033794163,NA
13850,Broome County,NY,NA,5.042016806722689
13905,Broome County,NY,2.1505376344086025,NA
14042,Cattaraugus County,NY,89.40092165898618,NA
14052,Erie County,NY,NA,57.773109243697476
14094,Niagara County,NY,2.61136712749616,NA
14103,Orleans County,NY,47.465437788018434,NA
14127,Erie County,NY,48.8479262672811,NA
14215,Erie County,NY,2.3041474654377883,NA
14224,Erie County,NY,NA,11.974789915966387
14225,Erie County,NY,11.367127496159753,NA
14411,Orleans County,NY,32.104454685099846,NA
14424,Ontario County,NY,3.3794162826420893,1.050420168067227
14428,Monroe County,NY,NA,85.71428571428571
14454,Livingston County,NY,73.42549923195084,NA
14467,Monroe County,NY,59.907834101382484,NA
14468,Monroe County,NY,52.07373271889401,NA
14476,Orleans County,NY,94.93087557603687,NA
14526,Monroe County,NY,19.81566820276498,NA
14527,Yates County,NY,31.490015360983104,NA
14548,Ontario County,NY,65.59139784946237,NA
14623,Monroe County,NY,NA,25.630252100840334
14624,Monroe County,NY,3.225806451612903,NA
14715,Allegany County,NY,85.25345622119815,NA
14760,Cattaraugus County,NY,13.210445468509985,NA
14770,Cattaraugus County,NY,NA,97.05882352941177
14837,Yates County,NY,78.3410138248848,NA
14845,Chemung County,NY,NA,30.88235294117647
14850,Tompkins County,NY,59.13978494623656,NA
14886,Tompkins County,NY,64.0552995391705,NA
14895,Allegany County,NY,62.67281105990783,NA
27017,Surry County,NC,92.47311827956989,NA
27023,Forsyth County,NC,70.50691244239631,62.60504201680672
27103,Forsyth County,NC,19.662058371735792,12.184873949579831
27106,Forsyth County,NC,17.81874039938556,NA
27292,Davidson County,NC,NA,1.4705882352941175
27317,Randolph County,NC,56.528417818740394,NA
27455,Guilford County,NC,52.38095238095239,NA
27504,Johnston County,NC,NA,65.33613445378151
27713,Durham County,NC,29.03225806451613,NA
27803,Nash County,NC,NA,49.159663865546214
27858,Pitt County,NC,61.136712749615974,NA
27910,Hertford County,NC,72.65745007680492,NA
28078,Mecklenburg County,NC,NA,36.134453781512605
28144,Rowan County,NC,NA,35.714285714285715
28339,Harnett County,NC,86.63594470046083,NA
28625,Iredell County,NC,51.1520737327189,23.319327731092436
28645,Caldwell County,NC,4.761904761904762,NA
28657,Avery County,NC,69.12442396313364,NA
28659,Wilkes County,NC,NA,29.831932773109244
28734,Macon County,NC,NA,11.76470588235294
28739,Henderson County,NC,NA,15.966386554621847
28792,Henderson County,NC,NA,13.23529411764706
58401,Stutsman County,ND,72.96466973886328,NA
58503,Burleigh County,ND,81.5668202764977,NA
58701,Ward County,ND,14.132104454685098,NA
58854,McKenzie County,ND,89.86175115207374,NA
43026,Franklin County,OH,NA,25
43035,Delaware County,OH,73.57910906298002,NA
43050,Knox County,OH,9.67741935483871,NA
43055,Licking County,OH,15.97542242703533,NA
43076,Perry County,OH,81.87403993855607,NA
43138,Hocking County,OH,35.79109062980031,NA
43160,Fayette County,OH,82.02764976958525,NA
43201,Franklin County,OH,50.23041474654379,NA
43207,Franklin County,OH,1.9969278033794162,NA
43227,Franklin County,OH,NA,42.64705882352941
43338,Morrow County,OH,NA,64.49579831932773
43402,Wood County,OH,26.881720430107524,18.69747899159664
43420,Sandusky County,OH,14.439324116743471,NA
43440,Ottawa County,OH,NA,78.15126050420169
43528,Lucas County,OH,43.01075268817204,NA
43537,Lucas County,OH,NA,17.22689075630252
43545,Henry County,OH,NA,47.05882352941176
43551,Wood County,OH,18.433179723502306,NA
43558,Fulton County,OH,NA,51.68067226890757
43560,Lucas County,OH,30.414746543778804,52.52100840336135
43567,Fulton County,OH,NA,42.226890756302524
43607,Lucas County,OH,7.526881720430108,NA
43611,Lucas County,OH,NA,31.30252100840336
43612,Lucas County,OH,5.529953917050691,NA
43613,Lucas County,OH,24.270353302611365,NA
43623,Lucas County,OH,NA,65.12605042016807
43701,Muskingum County,OH,0.30721966205837176,0.42016806722689076
43723,Guernsey County,OH,NA,55.67226890756303
43731,Perry County,OH,73.27188940092167,NA
43812,Coshocton County,OH,30.261136712749614,NA
43821,Muskingum County,OH,83.10291858678956,NA
43950,Belmont County,OH,43.625192012288785,NA
43953,Jefferson County,OH,NA,92.01680672268907
44001,Lorain County,OH,62.51920122887865,4.831932773109244
44028,Lorain County,OH,87.25038402457757,NA
44039,Lorain County,OH,10.138248847926267,NA
44041,Ashtabula County,OH,75.11520737327189,NA
44070,Cuyahoga County,OH,27.64976958525346,NA
44077,Lake County,OH,4.45468509984639,NA
44089,Erie County,OH,NA,88.65546218487394
44102,Cuyahoga County,OH,4.6082949308755765,NA
44107,Cuyahoga County,OH,17.665130568356375,3.9915966386554618
44108,Cuyahoga County,OH,NA,34.2436974789916
44110,Cuyahoga County,OH,12.288786482334869,NA
44111,Cuyahoga County,OH,NA,3.361344537815126
44118,Cuyahoga County,OH,42.54992319508449,NA
44128,Cuyahoga County,OH,NA,2.5210084033613445
44134,Cuyahoga County,OH,10.44546850998464,NA
44139,Cuyahoga County,OH,NA,16.386554621848738
44141,Cuyahoga County,OH,85.8678955453149,NA
44142,Cuyahoga County,OH,32.104454685099846,NA
44144,Cuyahoga County,OH,NA,61.76470588235294
44149,Cuyahoga County,OH,46.85099846390169,NA
44212,Medina County,OH,4.301075268817205,41.38655462184874
44256,Medina County,OH,NA,0.6302521008403361
44273,Medina County,OH,NA,80.67226890756302
44302,Summit County,OH,97.23502304147466,NA
44305,Summit County,OH,NA,39.91596638655462
44444,Trumbull County,OH,NA,58.19327731092437
44505,Mahoning County,OH,36.86635944700461,NA
44641,Stark County,OH,NA,50.84033613445378
44702,Stark County,OH,85.8678955453149,NA
44720,Stark County,OH,62.826420890937015,NA
44827,Crawford County,OH,93.394777265745,NA
44870,Erie County,OH,2.457757296466974,NA
44883,Seneca County,OH,NA,39.49579831932773
44890,Huron County,OH,73.11827956989248,NA
45042,Butler County,OH,25.19201228878648,NA
45224,Hamilton County,OH,NA,55.46218487394958
45227,Hamilton County,OH,51.61290322580645,50
45236,Hamilton County,OH,NA,50.21008403361344
45238,Hamilton County,OH,18.89400921658986,NA
45305,Greene County,OH,NA,84.03361344537815
45344,Clark County,OH,NA,90.75630252100841
45356,Miami County,OH,NA,14.495798319327733
45405,Montgomery County,OH,28.417818740399387,NA
45406,Montgomery County,OH,NA,45.168067226890756
45417,Montgomery County,OH,NA,19.747899159663866
45631,Gallia County,OH,14.90015360983103,NA
45638,Lawrence County,OH,NA,27.73109243697479
45669,Lawrence County,OH,22.887864823348693,NA
45701,Athens County,OH,NA,54.41176470588235
45872,Wood County,OH,87.40399385560676,NA
45895,Auglaize County,OH,36.25192012288787,NA
73013,Oklahoma County,OK,37.173579109062985,NA
73018,Grady County,OK,NA,35.294117647058826
73078,Canadian County,OK,93.08755760368663,NA
73089,Grady County,OK,82.33486943164363,NA
73099,Canadian County,OK,NA,8.61344537815126
73507,Comanche County,OK,75.72964669738863,NA
74003,Osage County,OK,65.13056835637481,NA
74133,Tulsa County,OK,NA,25.210084033613445
74820,Pontotoc County,OK,NA,6.722689075630252
97030,Multnomah County,OR,78.64823348694317,NA
97068,Clackamas County,OR,NA,86.5546218487395
97071,Marion County,OR,NA,63.02521008403361
97202,Multnomah County,OR,NA,81.30252100840336
97206,Multnomah County,OR,NA,27.100840336134453
97302,Marion County,OR,NA,48.529411764705884
97355,Linn County,OR,15.668202764976957,NA
97439,Lane County,OR,NA,26.89075630252101
97471,Douglas County,OR,NA,8.193277310924369
97501,Jackson County,OR,NA,14.285714285714285
97527,Josephine County,OR,NA,23.739495798319325
97603,Klamath County,OR,24.731182795698924,NA
97838,Umatilla County,OR,NA,20.3781512605042
15122,Allegheny County,PA,53.45622119815668,NA
15133,Allegheny County,PA,95.85253456221197,NA
15207,Allegheny County,PA,60.82949308755761,NA
15216,Allegheny County,PA,58.21812596006144,NA
15221,Allegheny County,PA,21.351766513056837,NA
15301,Washington County,PA,8.141321044546851,NA
15522,Bedford County,PA,64.36251920122888,NA
15690,Westmoreland County,PA,77.2657450076805,NA
15904,Cambria County,PA,NA,39.075630252100844
16406,Crawford County,PA,96.92780337941628,NA
16508,Erie County,PA,NA,65.33613445378151
16509,Erie County,PA,38.095238095238095,NA
16601,Blair County,PA,11.827956989247312,NA
16602,Blair County,PA,NA,15.336134453781513
16686,Blair County,PA,85.09984639016898,NA
16823,Centre County,PA,72.19662058371735,NA
17011,Cumberland County,PA,75.88325652841782,NA
17033,Dauphin County,PA,37.634408602150536,NA
17046,Lebanon County,PA,12.59600614439324,27.310924369747898
17055,Cumberland County,PA,62.98003072196621,NA
17109,Dauphin County,PA,30.721966205837177,NA
17111,Dauphin County,PA,NA,9.033613445378151
17112,Dauphin County,PA,NA,7.563025210084033
17257,Cumberland County,PA,83.7173579109063,NA
17345,York County,PA,71.27496159754224,NA
17402,York County,PA,NA,13.025210084033615
17403,York County,PA,38.863287250384026,4.201680672268908
17404,York County,PA,15.821812596006144,NA
17512,Lancaster County,PA,45.314900153609834,NA
17552,Lancaster County,PA,42.242703533026116,NA
17820,Columbia County,PA,84.94623655913979,NA
17870,Snyder County,PA,77.88018433179722,NA
18018,Lehigh County,PA,NA,41.806722689075634
18034,Lehigh County,PA,86.48233486943164,NA
18040,Northampton County,PA,NA,77.10084033613445
18062,Lehigh County,PA,47.926267281105986,33.61344537815126
18088,Northampton County,PA,NA,97.68907563025209
18102,Lehigh County,PA,NA,10.084033613445378
18202,Luzerne County,PA,NA,46.42857142857143
18222,Luzerne County,PA,NA,71.84873949579831
18447,Lackawanna County,PA,78.18740399385561,NA
18509,Lackawanna County,PA,NA,70.16806722689076
18640,Luzerne County,PA,46.236559139784944,NA
18651,Luzerne County,PA,69.43164362519201,NA
18661,Luzerne County,PA,NA,75.63025210084034
18702,Luzerne County,PA,9.831029185867896,NA
18705,Luzerne County,PA,55.4531490015361,NA
18840,Bradford County,PA,64.51612903225806,NA
18966,Bucks County,PA,50.9984639016897,NA
19003,Montgomery County,PA,NA,91.38655462184873
19010,Delaware County,PA,58.986175115207374,NA
19014,Delaware County,PA,NA,75.21008403361344
19050,Delaware County,PA,NA,16.386554621848738
19118,Philadelphia County,PA,NA,75.42016806722688
19120,Philadelphia County,PA,21.96620583717358,36.344537815126046
19123,Philadelphia County,PA,NA,74.15966386554622
19124,Philadelphia County,PA,1.0752688172043012,NA
19136,Philadelphia County,PA,15.207373271889402,NA
19139,Philadelphia County,PA,4.915514592933948,NA
19145,Philadelphia County,PA,35.944700460829495,NA
19373,Delaware County,PA,99.53917050691244,NA
19403,Montgomery County,PA,23.34869431643625,NA
19444,Montgomery County,PA,88.94009216589862,NA
19464,Montgomery County,PA,29.493087557603687,NA
19504,Berks County,PA,97.6958525345622,NA
19522,Berks County,PA,64.97695852534562,NA
19602,Berks County,PA,NA,32.35294117647059
19604,Berks County,PA,NA,39.285714285714285
19608,Berks County,PA,34.40860215053764,NA
02852,Washington County,RI,NA,66.80672268907563
29016,Richland County,SC,NA,77.31092436974791
29150,Sumter County,SC,NA,29.411764705882355
29212,Lexington County,SC,NA,46.63865546218487
29330,Spartanburg County,SC,82.642089093702,NA
29414,Charleston County,SC,NA,28.15126050420168
29445,Berkeley County,SC,NA,28.57142857142857
29461,Berkeley County,SC,38.24884792626728,NA
29466,Charleston County,SC,51.92012288786483,NA
29486,Berkeley County,SC,NA,52.3109243697479
29505,Florence County,SC,NA,56.09243697478992
29510,Georgetown County,SC,65.74500768049155,NA
29512,Marlboro County,SC,NA,66.59663865546219
29540,Darlington County,SC,98.0030721966206,NA
29565,Dillon County,SC,NA,91.59663865546219
29566,Horry County,SC,NA,53.57142857142857
29569,Horry County,SC,76.34408602150538,NA
29574,Marion County,SC,61.597542242703526,NA
29615,Greenville County,SC,61.29032258064516,NA
29621,Anderson County,SC,NA,23.10924369747899
29644,Greenville County,SC,54.377880184331794,NA
29687,Greenville County,SC,36.55913978494624,NA
29702,Cherokee County,SC,NA,80.25210084033614
29715,York County,SC,69.27803379416282,NA
29803,Aiken County,SC,46.39016897081413,NA
57105,Minnehaha County,SD,49.46236559139785,NA
37042,Montgomery County,TN,28.57142857142857,NA
37066,Sumner County,TN,NA,12.605042016806722
37075,Sumner County,TN,NA,9.243697478991598
37110,Warren County,TN,20.89093701996928,NA
37115,Davidson County,TN,16.282642089093702,NA
37321,Rhea County,TN,34.10138248847927,NA
37355,Coffee County,TN,NA,53.36134453781513
37385,Monroe County,TN,80.18433179723502,NA
37415,Hamilton County,TN,60.06144393241167,NA
37643,Carter County,TN,17.357910906298002,NA
37742,Loudon County,TN,NA,78.78151260504201
37840,Roane County,TN,95.08448540706605,NA
37920,Knox County,TN,15.360983102918588,NA
37922,Knox County,TN,90.93701996927803,NA
38351,Henderson County,TN,81.25960061443932,NA
38450,Wayne County,TN,98.15668202764977,NA
38570,Overton County,TN,70.6605222734255,NA
38581,Warren County,TN,NA,95.37815126050421
38583,White County,TN,31.02918586789555,NA
75019,Dallas County,TX,NA,56.9327731092437
75024,Collin County,TX,61.904761904761905,NA
75033,,TX,70.19969278033794,NA
75040,Dallas County,TX,22.119815668202765,NA
75043,Dallas County,TX,NA,56.51260504201681
75070,Collin County,TX,NA,65.96638655462185
75071,Collin County,TX,33.33333333333333,NA
75074,Collin County,TX,56.06758832565284,NA
75075,Collin County,TX,NA,36.76470588235294
75090,Grayson County,TX,NA,60.08403361344538
75166,Collin County,TX,99.07834101382488,NA
75211,Dallas County,TX,24.11674347158218,NA
75235,Dallas County,TX,69.73886328725038,70.7983193277311
75252,Collin County,TX,NA,61.5546218487395
75440,Rains County,TX,NA,78.15126050420169
75652,Rusk County,TX,NA,52.73109243697479
75701,Smith County,TX,NA,17.016806722689076
75785,Cherokee County,TX,NA,60.29411764705882
75789,Smith County,TX,88.17204301075269,NA
76009,Johnson County,TX,88.32565284178187,NA
76016,Tarrant County,TX,68.04915514592935,NA
76017,Tarrant County,TX,NA,32.983193277310924
76049,Hood County,TX,41.474654377880185,NA
76067,Palo Pinto County,TX,NA,60.71428571428571
76078,Wise County,TX,88.63287250384025,NA
76227,Denton County,TX,NA,77.52100840336135
76248,Tarrant County,TX,NA,47.47899159663865
76309,Wichita County,TX,NA,79.83193277310924
76401,Erath County,TX,62.365591397849464,NA
76504,Bell County,TX,13.671274961597543,NA
76522,Coryell County,TX,48.54070660522273,NA
76705,McLennan County,TX,NA,44.32773109243697
77004,Harris County,TX,33.17972350230415,NA
77035,Harris County,TX,NA,53.99159663865546
77063,Harris County,TX,68.20276497695853,NA
77075,Harris County,TX,52.995391705069125,NA
77085,Harris County,TX,NA,84.03361344537815
77302,Montgomery County,TX,NA,80.0420168067227
77306,Montgomery County,TX,92.31950844854072,NA
77318,Montgomery County,TX,80.79877112135176,NA
77339,Harris County,TX,83.87096774193549,NA
77380,Montgomery County,TX,NA,62.18487394957983
77406,Fort Bend County,TX,NA,31.512605042016805
77429,Harris County,TX,16.589861751152075,NA
77433,Harris County,TX,NA,23.52941176470588
77450,Harris County,TX,41.321044546851,NA
77459,Fort Bend County,TX,28.264208909370197,NA
77511,Brazoria County,TX,19.969278033794165,NA
77531,Brazoria County,TX,70.81413210445469,NA
77584,Brazoria County,TX,14.285714285714285,24.369747899159663
77611,Orange County,TX,77.72657450076805,NA
77625,Hardin County,TX,NA,80.46218487394958
77845,Brazos County,TX,NA,5.88235294117647
77979,Calhoun County,TX,NA,65.75630252100841
78046,Webb County,TX,20.12288786482335,NA
78155,Guadalupe County,TX,28.878648233486942,NA
78222,Bexar County,TX,68.97081413210445,NA
78228,Bexar County,TX,NA,34.87394957983193
78253,Bexar County,TX,84.02457757296466,NA
78355,Brooks County,TX,NA,92.64705882352942
78380,Nueces County,TX,86.78955453149003,NA
78552,Cameron County,TX,NA,72.05882352941177
78570,Hidalgo County,TX,71.58218125960062,NA
78572,Hidalgo County,TX,23.963133640552993,NA
78599,Hidalgo County,TX,NA,81.72268907563026
78644,Caldwell County,TX,69.5852534562212,NA
78645,Travis County,TX,NA,69.11764705882352
78657,Llano County,TX,NA,68.27731092436974
79110,Randall County,TX,66.66666666666666,NA
79336,Hockley County,TX,72.04301075268818,NA
79404,Lubbock County,TX,76.036866359447,NA
79512,Mitchell County,TX,86.32872503840245,NA
79549,Scurry County,TX,73.8863287250384,47.47899159663865
79907,El Paso County,TX,40.86021505376344,NA
79936,El Paso County,TX,NA,22.478991596638657
84015,Davis County,UT,57.296466973886325,NA
84037,Davis County,UT,NA,67.01680672268907
84054,Davis County,UT,74.96159754224271,NA
84094,Salt Lake County,UT,66.20583717357911,NA
84116,Salt Lake County,UT,33.6405529953917,NA
05301,Windham County,VT,87.09677419354838,NA
05602,Washington County,VT,63.74807987711214,NA
05753,Addison County,VT,98.31029185867895,NA
20165,Loudoun County,VA,90.1689708141321,NA
20187,Fauquier County,VA,NA,74.78991596638656
22025,Prince William County,VA,89.40092165898618,NA
22124,Fairfax County,VA,NA,79.62184873949579
22306,Fairfax County,VA,34.56221198156682,NA
22406,Stafford County,VA,94.00921658986175,NA
22551,Spotsylvania County,VA,61.75115207373272,NA
22821,Rockingham County,VA,93.24116743471582,NA
22968,Greene County,VA,63.133640552995395,NA
22973,Greene County,VA,NA,97.47899159663865
23112,Chesterfield County,VA,46.08294930875576,NA
23220,Richmond city,VA,NA,57.98319327731093
23231,Henrico County,VA,NA,20.798319327731093
23235,Chesterfield County,VA,56.98924731182796,NA
23314,Isle of Wight County,VA,NA,81.5126050420168
23321,Chesapeake city,VA,NA,34.45378151260504
23323,Chesapeake city,VA,38.70967741935484,37.60504201680672
23350,Northampton County,VA,97.84946236559139,98.31932773109243
23434,Suffolk city,VA,NA,13.445378151260504
23451,Virginia Beach city,VA,NA,19.327731092436977
23455,Virginia Beach city,VA,46.6973886328725,NA
23462,Virginia Beach city,VA,23.502304147465438,NA
23513,Norfolk city,VA,NA,35.50420168067227
23601,Newport News city,VA,59.60061443932412,NA
23703,Portsmouth city,VA,NA,68.4873949579832
24017,Roanoke city,VA,29.953917050691242,NA
24018,Roanoke County,VA,50.69124423963134,34.03361344537815
24019,Roanoke County,VA,NA,30.04201680672269
24219,Wise County,VA,43.77880184331797,NA
24293,Wise County,VA,52.53456221198156,NA
24382,Wythe County,VA,49.30875576036866,NA
24592,Halifax County,VA,NA,36.97478991596639
24641,Tazewell County,VA,NA,72.68907563025209
98006,King County,WA,NA,31.932773109243694
98034,King County,WA,NA,17.857142857142858
98036,Snohomish County,WA,50.53763440860215,NA
98058,King County,WA,NA,25.42016806722689
98118,King County,WA,NA,38.02521008403361
98122,King County,WA,94.16282642089094,NA
98126,King County,WA,NA,64.28571428571429
98133,King County,WA,33.794162826420894,NA
98208,Snohomish County,WA,26.72811059907834,NA
98229,Whatcom County,WA,80.95238095238095,NA
98248,Whatcom County,WA,80.3379416282642,NA
98277,Island County,WA,50.38402457757296,NA
98284,Skagit County,WA,80.4915514592934,NA
98383,Kitsap County,WA,NA,84.45378151260505
98391,Pierce County,WA,NA,15.546218487394958
98445,Pierce County,WA,NA,60.50420168067227
98512,Thurston County,WA,NA,76.26050420168067
98563,Grays Harbor County,WA,91.70506912442397,NA
98584,Mason County,WA,93.54838709677419,NA
98662,Clark County,WA,76.80491551459293,NA
99320,Benton County,WA,NA,55.04201680672269
20018,District of Columbia,DC,45.775729646697386,NA
20020,District of Columbia,DC,NA,8.403361344537815
24901,Greenbrier County,WV,NA,70.16806722689076
25302,Kanawha County,WV,NA,60.924369747899156
25405,Berkeley County,WV,77.41935483870968,NA
25411,Morgan County,WV,NA,82.98319327731093
25506,Lincoln County,WV,91.70506912442397,NA
25530,Wayne County,WV,NA,94.53781512605042
25550,Mason County,WV,NA,35.08403361344538
26003,Ohio County,WV,NA,3.1512605042016806
26041,Marshall County,WV,49.615975422427034,NA
26452,Lewis County,WV,NA,34.66386554621849
26505,Monongalia County,WV,39.477726574500764,NA
26554,Marion County,WV,5.376344086021505,NA
53095,Washington County,WI,NA,73.31932773109243
53104,Kenosha County,WI,NA,72.26890756302521
53115,Walworth County,WI,NA,43.0672268907563
53118,Waukesha County,WI,92.93394777265746,NA
53142,Kenosha County,WI,12.903225806451612,NA
53150,Waukesha County,WI,66.3594470046083,NA
53205,Milwaukee County,WI,20.583717357910906,NA
53215,Milwaukee County,WI,5.683563748079877,NA
53217,Milwaukee County,WI,NA,28.991596638655466
53223,Milwaukee County,WI,20.737327188940093,NA
53511,Rock County,WI,0.6144393241167435,20.588235294117645
53545,Rock County,WI,NA,24.159663865546218
53546,Rock County,WI,NA,28.781512605042014
53913,Sauk County,WI,41.013824884792626,NA
53959,Sauk County,WI,NA,46.21848739495798
54015,St. Croix County,WI,98.61751152073732,NA
54022,Pierce County,WI,57.14285714285714,NA
54024,Polk County,WI,89.24731182795699,NA
54130,Outagamie County,WI,60.36866359447005,87.60504201680672
54220,Manitowoc County,WI,32.565284178187405,NA
54494,Wood County,WI,NA,38.23529411764706
54601,La Crosse County,WI,9.37019969278034,NA
54650,La Crosse County,WI,NA,11.554621848739496
54665,Vernon County,WI,NA,69.74789915966386
54724,Chippewa County,WI,NA,86.97478991596638
54829,Barron County,WI,NA,86.1344537815126
54868,Barron County,WI,NA,50.63025210084034
54904,Winnebago County,WI,69.89247311827957,NA
54956,Winnebago County,WI,NA,36.554621848739494
