ZipCode,county,state,Adult,Retirement,Geriatric
35005,Jefferson County,AL,84.8,NA,NA
35042,Bibb County,AL,NA,87.56756756756758,NA
35043,Shelby County,AL,NA,NA,99.38080495356037
35094,Jefferson County,AL,62.4,NA,NA
35127,Jefferson County,AL,NA,94.5945945945946,NA
35175,Marshall County,AL,97.6,NA,NA
35404,Tuscaloosa County,AL,NA,NA,74.61300309597523
35406,Tuscaloosa County,AL,90.4,NA,NA
35603,Morgan County,AL,NA,31.08108108108108,NA
35650,Lawrence County,AL,NA,42.432432432432435,NA
35661,Colbert County,AL,NA,94.86486486486486,NA
35954,Etowah County,AL,NA,NA,81.11455108359134
35957,Marshall County,AL,NA,60.27027027027027,NA
35980,Marshall County,AL,94.8,NA,NA
36081,Pike County,AL,82.8,NA,NA
36330,Coffee County,AL,48,34.86486486486486,NA
36360,Dale County,AL,NA,NA,61.30030959752322
36542,Baldwin County,AL,NA,NA,67.49226006191951
36693,Mobile County,AL,NA,NA,66.56346749226006
36874,Lee County,AL,NA,NA,99.07120743034056
99504,Anchorage Municipality,AK,NA,NA,62.22910216718266
85018,Maricopa County,AZ,NA,NA,57.585139318885446
85021,Maricopa County,AZ,NA,NA,49.84520123839009
85083,Maricopa County,AZ,81.2,NA,NA
85086,Maricopa County,AZ,NA,40.81081081081081,75.85139318885449
85142,Maricopa County,AZ,39.2,NA,NA
85224,Maricopa County,AZ,NA,44.32432432432433,NA
85286,Maricopa County,AZ,NA,76.48648648648648,NA
85308,Maricopa County,AZ,NA,13.783783783783784,NA
85363,Maricopa County,AZ,NA,88.37837837837837,NA
85383,Maricopa County,AZ,30,NA,NA
85616,Cochise County,AZ,NA,NA,95.3560371517028
85634,Pima County,AZ,24.4,NA,NA
85704,Pima County,AZ,NA,27.297297297297295,NA
85745,Pima County,AZ,NA,15.945945945945947,35.60371517027864
85750,Pima County,AZ,NA,51.621621621621614,NA
85933,Navajo County,AZ,NA,97.2972972972973,NA
85937,Navajo County,AZ,NA,82.43243243243244,NA
85941,Apache County,AZ,44,NA,NA
86323,Yavapai County,AZ,NA,84.32432432432432,NA
86326,Yavapai County,AZ,NA,NA,61.60990712074303
86333,Yavapai County,AZ,95.6,NA,NA
86336,Yavapai County,AZ,82.39999999999999,NA,NA
86442,Mohave County,AZ,NA,7.297297297297297,NA
71854,Miller County,AR,NA,NA,37.15170278637771
71913,Garland County,AR,40.400000000000006,NA,NA
72015,Saline County,AR,NA,33.24324324324324,NA
72058,Faulkner County,AR,NA,NA,85.75851393188854
72113,Pulaski County,AR,NA,47.56756756756757,NA
72543,Cleburne County,AR,NA,63.51351351351351,NA
72632,Carroll County,AR,NA,98.91891891891892,NA
90001,Los Angeles County,CA,NA,67.83783783783784,NA
90005,Los Angeles County,CA,89.2,NA,NA
90020,Los Angeles County,CA,NA,56.486486486486484,NA
90026,Los Angeles County,CA,NA,NA,76.16099071207431
90036,Los Angeles County,CA,NA,46.48648648648649,NA
90046,Los Angeles County,CA,53.2,NA,NA
90048,Los Angeles County,CA,NA,NA,48.297213622291025
90064,Los Angeles County,CA,NA,52.702702702702695,NA
90068,Los Angeles County,CA,NA,NA,91.95046439628483
90210,Los Angeles County,CA,NA,NA,60.06191950464397
90505,Los Angeles County,CA,NA,40,NA
90710,Los Angeles County,CA,NA,66.21621621621621,NA
91007,Los Angeles County,CA,NA,81.62162162162161,NA
91304,Los Angeles County,CA,50.4,NA,NA
91423,Los Angeles County,CA,70.39999999999999,NA,NA
91604,Los Angeles County,CA,61.199999999999996,NA,NA
91730,San Bernardino County,CA,NA,NA,39.318885448916404
91910,San Diego County,CA,NA,NA,13.312693498452013
91932,San Diego County,CA,NA,82.16216216216216,NA
91945,San Diego County,CA,91.2,NA,NA
92009,San Diego County,CA,NA,41.891891891891895,NA
92024,San Diego County,CA,42,NA,NA
92028,San Diego County,CA,NA,NA,46.749226006191954
92067,San Diego County,CA,NA,90.27027027027027,NA
92260,Riverside County,CA,NA,NA,1.8575851393188854
92301,San Bernardino County,CA,NA,NA,92.56965944272446
92563,Riverside County,CA,35.6,NA,NA
92585,Riverside County,CA,NA,95.13513513513514,NA
92586,Riverside County,CA,NA,47.02702702702703,NA
92602,Orange County,CA,NA,NA,94.73684210526315
92626,Orange County,CA,NA,45.13513513513514,NA
92627,Orange County,CA,70,NA,NA
92647,Orange County,CA,NA,18.91891891891892,NA
92656,Orange County,CA,NA,NA,80.80495356037152
92677,Orange County,CA,NA,40.54054054054054,NA
92808,Orange County,CA,NA,80.54054054054053,NA
92883,Riverside County,CA,NA,65.94594594594595,NA
92886,Orange County,CA,NA,15.135135135135137,NA
93001,Ventura County,CA,28.799999999999997,NA,58.204334365325074
93257,Tulare County,CA,NA,20.81081081081081,NA
93292,Tulare County,CA,NA,32.972972972972975,98.14241486068111
93611,Fresno County,CA,NA,34.32432432432432,NA
93618,Tulare County,CA,NA,NA,76.78018575851394
93701,Fresno County,CA,75.6,NA,NA
93711,Fresno County,CA,NA,37.2972972972973,NA
94015,San Mateo County,CA,NA,7.027027027027027,NA
94116,San Francisco County,CA,NA,35.67567567567568,NA
94117,San Francisco County,CA,NA,42.972972972972975,NA
94131,San Francisco County,CA,NA,81.08108108108108,NA
94301,Santa Clara County,CA,NA,NA,66.25386996904025
94506,Contra Costa County,CA,NA,NA,78.63777089783281
94546,Alameda County,CA,NA,NA,29.102167182662537
94558,Napa County,CA,33.6,NA,NA
94605,Alameda County,CA,NA,NA,36.84210526315789
94709,Alameda County,CA,NA,95.4054054054054,NA
95051,Santa Clara County,CA,NA,87.83783783783784,NA
95120,Santa Clara County,CA,NA,79.45945945945945,NA
95129,Santa Clara County,CA,NA,NA,48.91640866873065
95132,Santa Clara County,CA,NA,92.97297297297298,NA
95205,San Joaquin County,CA,51.6,NA,NA
95215,San Joaquin County,CA,NA,84.05405405405405,NA
95350,Stanislaus County,CA,NA,NA,23.52941176470588
95383,Tuolumne County,CA,NA,NA,79.25696594427245
95391,San Joaquin County,CA,83.6,NA,NA
95401,Sonoma County,CA,NA,52.43243243243243,NA
95403,Sonoma County,CA,NA,NA,18.885448916408667
95632,Sacramento County,CA,NA,NA,68.11145510835914
95648,Placer County,CA,NA,NA,8.978328173374612
95667,El Dorado County,CA,NA,NA,17.027863777089784
95682,El Dorado County,CA,60.4,NA,NA
95691,Yolo County,CA,NA,NA,70.58823529411765
95747,Placer County,CA,NA,NA,11.145510835913312
95821,Sacramento County,CA,NA,28.37837837837838,NA
95822,Sacramento County,CA,NA,NA,27.24458204334365
95828,Sacramento County,CA,NA,30.270270270270274,NA
95901,Yuba County,CA,NA,NA,65.3250773993808
95945,Nevada County,CA,NA,NA,85.13931888544892
96088,Shasta County,CA,NA,98.1081081081081,NA
96097,Siskiyou County,CA,NA,61.08108108108108,NA
80007,Jefferson County,CO,NA,82.70270270270271,NA
80011,Arapahoe County,CO,NA,NA,49.53560371517028
80016,Arapahoe County,CO,NA,15.405405405405407,NA
80017,Arapahoe County,CO,NA,78.10810810810811,NA
80112,Arapahoe County,CO,NA,58.648648648648646,NA
80134,Douglas County,CO,28.000000000000004,NA,NA
80211,Denver County,CO,NA,49.72972972972973,NA
80224,Denver County,CO,NA,NA,60.99071207430341
80231,Denver County,CO,41.199999999999996,NA,NA
80238,Denver County,CO,NA,91.8918918918919,NA
80247,Arapahoe County,CO,NA,51.08108108108108,NA
80514,Weld County,CO,96,NA,NA
80537,Larimer County,CO,NA,NA,27.55417956656347
80634,Weld County,CO,NA,1.0810810810810811,NA
80817,El Paso County,CO,NA,94.05405405405406,NA
80919,El Paso County,CO,NA,55.13513513513514,NA
81001,Pueblo County,CO,NA,74.86486486486487,NA
81005,Pueblo County,CO,NA,21.62162162162162,NA
81520,Mesa County,CO,71.2,NA,NA
81652,Garfield County,CO,NA,98.37837837837839,NA
06109,Hartford County,CT,64.4,NA,NA
06401,New Haven County,CT,NA,64.32432432432432,NA
06405,New Haven County,CT,NA,NA,11.76470588235294
06484,Fairfield County,CT,NA,NA,20.43343653250774
06488,New Haven County,CT,NA,NA,14.241486068111456
06489,Hartford County,CT,NA,NA,9.907120743034056
06512,New Haven County,CT,NA,NA,19.195046439628484
06710,New Haven County,CT,NA,83.24324324324324,NA
06790,Litchfield County,CT,NA,NA,6.811145510835913
06811,Fairfield County,CT,47.199999999999996,NA,NA
06870,Fairfield County,CT,NA,91.62162162162161,NA
19701,New Castle County,DE,NA,14.324324324324325,NA
19807,New Castle County,DE,NA,98.64864864864865,NA
19962,Kent County,DE,75.2,NA,NA
19966,Sussex County,DE,NA,NA,16.718266253869967
32034,Nassau County,FL,NA,NA,20.43343653250774
32040,Baker County,FL,NA,NA,89.1640866873065
32073,Clay County,FL,26,26.486486486486488,NA
32080,St. Johns County,FL,NA,NA,32.19814241486068
32084,St. Johns County,FL,62.8,NA,39.0092879256966
32127,Volusia County,FL,NA,38.91891891891892,NA
32202,Duval County,FL,NA,NA,92.56965944272446
32206,Duval County,FL,56.8,NA,NA
32207,Duval County,FL,NA,NA,58.82352941176471
32224,Duval County,FL,NA,43.78378378378379,NA
32233,Duval County,FL,NA,38.648648648648646,NA
32340,Madison County,FL,NA,96.75675675675676,NA
32404,Bay County,FL,NA,19.18918918918919,NA
32428,Washington County,FL,NA,54.32432432432432,NA
32541,Okaloosa County,FL,NA,38.37837837837838,NA
32550,Walton County,FL,NA,NA,65.63467492260062
32606,Alachua County,FL,NA,25.675675675675674,NA
32763,Volusia County,FL,62,NA,NA
32778,Lake County,FL,61.6,NA,NA
32953,Brevard County,FL,NA,18.37837837837838,NA
32955,Brevard County,FL,NA,62.16216216216216,NA
33028,Broward County,FL,83.2,NA,NA
33076,Broward County,FL,NA,NA,64.70588235294117
33156,Miami-Dade County,FL,NA,59.189189189189186,NA
33177,Miami-Dade County,FL,45.6,NA,NA
33324,Broward County,FL,NA,47.56756756756757,NA
33436,Palm Beach County,FL,NA,51.891891891891895,NA
33770,Pinellas County,FL,NA,58.108108108108105,NA
33872,Highlands County,FL,NA,39.45945945945946,NA
33898,Polk County,FL,NA,NA,51.39318885448917
33913,Lee County,FL,NA,28.10810810810811,NA
33914,Lee County,FL,NA,11.351351351351353,NA
33919,Lee County,FL,NA,10.81081081081081,50.15479876160991
34243,Manatee County,FL,NA,22.702702702702705,NA
34606,Hernando County,FL,NA,NA,38.080495356037154
34684,Pinellas County,FL,NA,46.48648648648649,NA
34952,St. Lucie County,FL,NA,NA,7.739938080495357
30019,Gwinnett County,GA,NA,NA,77.08978328173374
30040,Forsyth County,GA,NA,16.756756756756758,NA
30041,Forsyth County,GA,NA,NA,25.077399380804955
30044,Gwinnett County,GA,NA,11.621621621621623,NA
30066,Cobb County,GA,NA,65.4054054054054,NA
30093,Gwinnett County,GA,59.599999999999994,NA,NA
30097,Fulton County,GA,NA,56.75675675675676,NA
30296,Clayton County,GA,NA,NA,82.6625386996904
30345,DeKalb County,GA,NA,NA,98.45201238390094
30461,Bulloch County,GA,76.4,NA,NA
30533,Lumpkin County,GA,66.4,NA,NA
30642,Greene County,GA,NA,64.5945945945946,NA
30815,Richmond County,GA,NA,10.54054054054054,NA
31024,Putnam County,GA,NA,NA,36.22291021671827
31047,Houston County,GA,NA,79.72972972972973,NA
31522,Glynn County,GA,NA,73.78378378378379,NA
31548,Camden County,GA,NA,73.24324324324324,NA
96734,Honolulu County,HI,NA,41.62162162162162,NA
96817,Honolulu County,HI,NA,NA,79.56656346749226
83274,Bingham County,ID,86.8,NA,NA
83301,Twin Falls County,ID,NA,NA,0.30959752321981426
83330,Gooding County,ID,NA,80.27027027027027,NA
83333,Blaine County,ID,NA,91.35135135135135,NA
83638,Valley County,ID,NA,75.13513513513513,NA
83642,Ada County,ID,NA,4.324324324324325,NA
83705,Ada County,ID,NA,12.432432432432433,NA
83858,Kootenai County,ID,80.80000000000001,NA,NA
83864,Bonner County,ID,NA,NA,55.10835913312694
60004,Cook County,IL,NA,NA,8.978328173374612
60007,Cook County,IL,NA,NA,30.65015479876161
60018,Cook County,IL,NA,NA,45.20123839009288
60035,Lake County,IL,NA,10.27027027027027,NA
60044,Lake County,IL,84.39999999999999,NA,NA
60101,DuPage County,IL,31.2,NA,NA
60123,Kane County,IL,NA,53.24324324324324,NA
60126,DuPage County,IL,NA,2.1621621621621623,NA
60302,Cook County,IL,NA,11.081081081081082,NA
60404,Will County,IL,NA,41.351351351351354,NA
60491,Will County,IL,38,NA,NA
60517,DuPage County,IL,NA,68.10810810810811,NA
60607,Cook County,IL,NA,48.64864864864865,NA
60614,Cook County,IL,NA,13.243243243243244,NA
60804,Cook County,IL,22.8,NA,NA
61032,Stephenson County,IL,NA,NA,15.479876160990713
61201,Rock Island County,IL,NA,28.64864864864865,NA
61554,Tazewell County,IL,NA,NA,78.94736842105263
61571,Tazewell County,IL,74.4,NA,NA
61920,Coles County,IL,57.99999999999999,NA,NA
62002,Madison County,IL,NA,NA,17.3374613003096
62040,Madison County,IL,NA,6.756756756756757,NA
62230,Clinton County,IL,NA,89.45945945945945,NA
62450,Richland County,IL,NA,57.027027027027025,NA
62568,Christian County,IL,NA,89.72972972972974,NA
62702,Sangamon County,IL,NA,36.21621621621622,NA
62859,Hamilton County,IL,NA,NA,84.82972136222911
62896,Franklin County,IL,NA,NA,54.79876160990712
62966,Jackson County,IL,NA,49.18918918918919,NA
46038,Hamilton County,IN,NA,NA,65.01547987616098
46041,Clinton County,IN,36.4,NA,NA
46060,Hamilton County,IN,NA,25.135135135135133,NA
46074,Hamilton County,IN,NA,NA,69.65944272445822
46140,Hancock County,IN,NA,NA,58.51393188854489
46142,Johnson County,IN,NA,8.91891891891892,NA
46151,Morgan County,IN,NA,18.64864864864865,NA
46160,Brown County,IN,NA,NA,87.92569659442725
46240,Marion County,IN,NA,72.97297297297297,NA
46319,Lake County,IN,29.2,NA,NA
46809,Allen County,IN,NA,NA,86.687306501548
46845,Allen County,IN,NA,NA,50.464396284829725
46952,Grant County,IN,20,NA,NA
47165,Washington County,IN,85.2,NA,NA
47250,Jefferson County,IN,68,NA,NA
47331,Fayette County,IN,NA,NA,8.359133126934983
47362,Henry County,IN,NA,8.108108108108109,10.526315789473683
47460,Owen County,IN,NA,NA,91.02167182662538
47546,Dubois County,IN,NA,NA,34.05572755417957
47586,Perry County,IN,NA,NA,70.89783281733746
47601,Warrick County,IN,NA,41.08108108108108,NA
47802,Vigo County,IN,NA,39.729729729729726,NA
47842,Vermillion County,IN,NA,68.37837837837839,NA
47905,Tippecanoe County,IN,NA,NA,20.123839009287924
52052,Clayton County,IA,NA,97.83783783783784,NA
52205,Jones County,IA,NA,NA,74.30340557275542
52240,Johnson County,IA,NA,NA,31.88854489164087
66209,Johnson County,KS,NA,NA,81.42414860681114
66213,Johnson County,KS,NA,49.18918918918919,63.77708978328174
66216,Johnson County,KS,NA,60.810810810810814,NA
66523,Osage County,KS,NA,99.72972972972973,NA
66614,Shawnee County,KS,36.8,NA,NA
67114,Harvey County,KS,NA,NA,63.77708978328174
67133,Butler County,KS,99.6,NA,NA
67337,Montgomery County,KS,NA,71.89189189189189,NA
67401,Saline County,KS,NA,NA,24.458204334365323
67601,Ellis County,KS,43.2,NA,83.28173374613003
67665,Russell County,KS,NA,NA,73.37461300309597
67846,Finney County,KS,24.8,NA,NA
40214,Jefferson County,KY,NA,68.91891891891892,NA
40217,Jefferson County,KY,72,NA,NA
40223,Jefferson County,KY,NA,NA,56.34674922600619
40242,Jefferson County,KY,84,NA,NA
40291,Jefferson County,KY,NA,15.675675675675677,NA
40299,Jefferson County,KY,NA,21.08108108108108,NA
40337,Montgomery County,KY,98.8,NA,NA
40356,Jessamine County,KY,17.599999999999998,NA,47.05882352941176
40361,Bourbon County,KY,NA,59.72972972972973,NA
40391,Clark County,KY,12,NA,NA
40444,Garrard County,KY,NA,54.864864864864856,NA
40505,Fayette County,KY,NA,29.45945945945946,NA
40517,Fayette County,KY,NA,NA,47.6780185758514
41001,Campbell County,KY,NA,68.64864864864865,NA
41076,Campbell County,KY,NA,NA,26.93498452012384
41091,Boone County,KY,71.6,NA,NA
41169,Greenup County,KY,NA,NA,94.42724458204334
41514,Pike County,KY,90.8,NA,NA
42141,Barren County,KY,NA,4.864864864864865,NA
42303,Daviess County,KY,13.200000000000001,NA,NA
42635,McCreary County,KY,NA,92.7027027027027,NA
42718,Taylor County,KY,16,5.9459459459459465,NA
70005,Jefferson Parish,LA,NA,NA,7.120743034055728
70123,Jefferson Parish,LA,52,NA,NA
70125,Orleans Parish,LA,NA,NA,82.04334365325077
70301,Lafourche Parish,LA,5.6000000000000005,NA,NA
70433,St. Tammany Parish,LA,NA,NA,4.953560371517028
70438,Washington Parish,LA,17.2,NA,NA
70508,Lafayette Parish,LA,NA,81.35135135135135,NA
70583,Lafayette Parish,LA,49.2,NA,NA
70726,Livingston Parish,LA,NA,NA,26.625386996904027
70739,East Baton Rouge Parish,LA,78,NA,NA
70816,East Baton Rouge Parish,LA,NA,32.7027027027027,NA
71106,Caddo Parish,LA,30.8,NA,NA
71111,Bossier Parish,LA,NA,NA,35.91331269349845
71112,Bossier Parish,LA,NA,22.162162162162165,NA
71118,Caddo Parish,LA,NA,NA,21.36222910216718
71295,Franklin Parish,LA,NA,57.83783783783784,NA
71342,La Salle Parish,LA,NA,96.21621621621622,NA
71351,Avoyelles Parish,LA,NA,77.02702702702703,NA
71405,Rapides Parish,LA,NA,87.02702702702703,NA
04011,Cumberland County,ME,NA,NA,22.291021671826623
04072,York County,ME,NA,NA,38.39009287925697
04079,Cumberland County,ME,NA,86.21621621621621,NA
04086,Sagadahoc County,ME,NA,NA,51.08359133126935
04097,Cumberland County,ME,98.4,NA,NA
04106,Cumberland County,ME,NA,34.054054054054056,NA
04401,Penobscot County,ME,NA,NA,1.5479876160990713
04530,Sagadahoc County,ME,66.8,NA,NA
04938,Franklin County,ME,NA,NA,75.23219814241486
20854,Montgomery County,MD,NA,33.78378378378378,NA
21087,Baltimore County,MD,NA,NA,95.04643962848297
21093,Baltimore County,MD,NA,23.783783783783786,NA
21133,Baltimore County,MD,NA,NA,44.27244582043344
21229,Baltimore city,MD,19.6,NA,NA
01027,Hampshire County,MA,15.6,NA,NA
01089,Hampden County,MA,NA,NA,30.959752321981426
01104,Hampden County,MA,3.5999999999999996,NA,NA
01118,Hampden County,MA,NA,61.35135135135135,NA
01420,Worcester County,MA,0.4,NA,56.656346749226
01450,Middlesex County,MA,NA,NA,83.90092879256966
01545,Worcester County,MA,18.8,NA,NA
01605,Worcester County,MA,3.2,NA,NA
01720,Middlesex County,MA,NA,30.54054054054054,NA
01810,Essex County,MA,NA,NA,21.052631578947366
01851,Middlesex County,MA,4.8,NA,NA
01862,Middlesex County,MA,NA,NA,72.13622291021672
01867,Middlesex County,MA,NA,5.675675675675676,NA
01902,Essex County,MA,NA,0,NA
01906,Essex County,MA,6.4,NA,NA
01907,Essex County,MA,NA,32.16216216216216,NA
01923,Essex County,MA,NA,29.72972972972973,3.4055727554179565
01945,Essex County,MA,NA,17.56756756756757,NA
01970,Essex County,MA,1.6,NA,NA
02043,Plymouth County,MA,NA,78.91891891891892,NA
02135,Suffolk County,MA,7.6,NA,NA
02140,Middlesex County,MA,NA,7.567567567567568,NA
02189,Norfolk County,MA,25.6,NA,NA
02368,Norfolk County,MA,NA,NA,26.31578947368421
02421,Middlesex County,MA,NA,NA,15.170278637770899
02446,Norfolk County,MA,22,NA,NA
02474,Middlesex County,MA,NA,NA,13.93188854489164
02492,Norfolk County,MA,NA,25.405405405405407,NA
02536,Barnstable County,MA,NA,NA,50.77399380804953
02537,Barnstable County,MA,NA,83.78378378378379,NA
02723,Bristol County,MA,6,NA,NA
02780,Bristol County,MA,NA,0.8108108108108109,NA
48074,St. Clair County,MI,NA,69.72972972972973,NA
48089,Macomb County,MI,NA,NA,53.25077399380805
48118,Washtenaw County,MI,NA,NA,33.746130030959755
48135,Wayne County,MI,NA,NA,22.60061919504644
48166,Monroe County,MI,43.6,NA,NA
48168,Wayne County,MI,NA,NA,35.294117647058826
48195,Wayne County,MI,NA,6.216216216216217,23.8390092879257
48341,Oakland County,MI,NA,42.16216216216216,NA
48415,Saginaw County,MI,NA,NA,97.21362229102168
48629,Roscommon County,MI,NA,85.94594594594595,NA
48706,Bay County,MI,10.4,NA,NA
48708,Bay County,MI,11.200000000000001,NA,NA
48734,Saginaw County,MI,85.6,NA,NA
48763,Iosco County,MI,NA,NA,75.54179566563467
48838,Montcalm County,MI,NA,27.56756756756757,NA
48848,Shiawassee County,MI,87.2,NA,NA
49021,Eaton County,MI,NA,NA,84.52012383900929
49091,St. Joseph County,MI,NA,36.75675675675676,NA
49093,St. Joseph County,MI,32.4,NA,NA
49301,Kent County,MI,NA,NA,72.75541795665634
49306,Kent County,MI,NA,NA,80.18575851393189
49346,Mecosta County,MI,NA,NA,92.26006191950464
49415,Muskegon County,MI,NA,75.94594594594595,NA
49424,Ottawa County,MI,NA,45.67567567567568,NA
49426,Ottawa County,MI,NA,37.027027027027025,NA
49506,Kent County,MI,NA,NA,24.148606811145513
49617,Benzie County,MI,NA,93.51351351351352,NA
49677,Osceola County,MI,65.60000000000001,NA,NA
49770,Emmet County,MI,NA,NA,34.984520123839005
49801,Dickinson County,MI,NA,NA,52.012383900928796
49855,Marquette County,MI,NA,12.972972972972974,NA
49913,Houghton County,MI,NA,NA,44.58204334365325
55313,Wright County,MN,NA,NA,68.42105263157895
55407,Hennepin County,MN,NA,NA,59.75232198142415
55422,Hennepin County,MN,NA,NA,51.702786377708975
55427,Hennepin County,MN,NA,NA,57.585139318885446
55431,Hennepin County,MN,NA,75.94594594594595,NA
55803,St. Louis County,MN,NA,30.810810810810814,NA
55902,Olmsted County,MN,NA,84.5945945945946,NA
56484,Cass County,MN,NA,83.51351351351352,NA
56701,Pennington County,MN,22.400000000000002,NA,NA
56750,Red Lake County,MN,NA,99.1891891891892,NA
39047,Rankin County,MS,NA,NA,43.034055727554176
39305,Lauderdale County,MS,NA,55.67567567567567,NA
39507,Harrison County,MS,NA,33.513513513513516,NA
39564,Jackson County,MS,NA,NA,32.50773993808049
63017,St. Louis County,MO,NA,NA,42.72445820433436
63026,St. Louis County,MO,NA,NA,25.386996904024766
63028,Jefferson County,MO,26.8,NA,NA
63051,Jefferson County,MO,88.8,NA,NA
63074,St. Louis County,MO,NA,53.783783783783775,NA
63084,Franklin County,MO,NA,NA,45.82043343653251
63125,St. Louis County,MO,NA,NA,16.408668730650156
63129,St. Louis County,MO,NA,3.783783783783784,NA
63141,St. Louis County,MO,NA,70.8108108108108,NA
63143,St. Louis County,MO,NA,NA,96.90402476780186
63376,St. Charles County,MO,NA,NA,4.3343653250774
63601,St. Francois County,MO,NA,57.2972972972973,NA
64052,Jackson County,MO,14.799999999999999,NA,NA
64085,Ray County,MO,51.2,NA,NA
64801,Jasper County,MO,NA,50.54054054054053,NA
64870,Jasper County,MO,74.8,NA,NA
65201,Boone County,MO,75.6,NA,NA
65251,Callaway County,MO,NA,NA,54.4891640866873
65355,Benton County,MO,NA,NA,42.414860681114554
65613,Polk County,MO,NA,35.13513513513514,NA
65775,Howell County,MO,NA,NA,53.56037151702786
65807,Greene County,MO,78.4,NA,NA
59911,Flathead County,MT,NA,NA,59.133126934984524
68106,Douglas County,NE,NA,96.48648648648648,NA
89406,Churchill County,NV,42.4,NA,NA
89502,Washoe County,NV,NA,NA,71.8266253869969
89506,Washoe County,NV,20.4,NA,NA
89701,Carson City,NV,NA,NA,47.368421052631575
03062,Hillsborough County,NH,NA,NA,18.575851393188856
03076,Hillsborough County,NH,NA,58.91891891891892,NA
03431,Cheshire County,NH,32,NA,NA
07103,Essex County,NJ,2,NA,NA
07208,Union County,NJ,NA,NA,46.13003095975232
07452,Bergen County,NJ,NA,94.32432432432432,NA
07503,Passaic County,NJ,NA,NA,83.90092879256966
07512,Passaic County,NJ,93.60000000000001,NA,NA
07666,Bergen County,NJ,NA,NA,17.956656346749224
07830,Hunterdon County,NJ,95.19999999999999,NA,NA
07869,Morris County,NJ,55.60000000000001,NA,NA
08033,Camden County,NJ,67.2,NA,NA
08088,Burlington County,NJ,NA,24.324324324324326,NA
08244,Atlantic County,NJ,NA,65.13513513513513,NA
87105,Bernalillo County,NM,NA,2.7027027027027026,NA
87124,Sandoval County,NM,NA,NA,12.38390092879257
87301,McKinley County,NM,27.6,NA,NA
10021,New York County,NY,NA,NA,21.981424148606813
10024,New York County,NY,NA,NA,4.643962848297214
10028,New York County,NY,NA,NA,60.371517027863774
10452,Bronx County,NY,NA,0.2702702702702703,NA
10456,Bronx County,NY,0,NA,NA
10458,Bronx County,NY,0.8,NA,NA
10460,Bronx County,NY,4,NA,NA
10466,Bronx County,NY,8,NA,12.074303405572756
10566,Westchester County,NY,NA,69.1891891891892,NA
10598,Westchester County,NY,NA,75.4054054054054,NA
10952,Rockland County,NY,NA,NA,66.87306501547987
10956,Rockland County,NY,81.2,NA,NA
11213,Kings County,NY,NA,NA,34.36532507739938
11223,Kings County,NY,NA,NA,6.5015479876160995
11226,Kings County,NY,7.199999999999999,NA,NA
11354,Queens County,NY,NA,NA,29.102167182662537
11372,Queens County,NY,63.6,NA,NA
11385,Queens County,NY,12.4,NA,NA
11741,Suffolk County,NY,NA,66.75675675675676,NA
11758,Nassau County,NY,NA,35.945945945945944,NA
11776,Suffolk County,NY,58.8,NA,NA
11777,Suffolk County,NY,NA,74.05405405405405,NA
11937,Suffolk County,NY,NA,85.67567567567568,NA
11951,Suffolk County,NY,68.8,NA,NA
12188,Saratoga County,NY,NA,NA,80.4953560371517
12196,Rensselaer County,NY,NA,100,NA
12508,Dutchess County,NY,NA,NA,72.44582043343654
12944,Essex County,NY,73.6,NA,NA
13357,Herkimer County,NY,NA,55.4054054054054,NA
13492,Oneida County,NY,NA,NA,63.1578947368421
13654,St. Lawrence County,NY,NA,99.1891891891892,NA
13669,St. Lawrence County,NY,NA,NA,55.417956656346746
14051,Erie County,NY,NA,48.10810810810811,NA
14072,Erie County,NY,42.8,NA,NA
14132,Niagara County,NY,64.8,NA,NA
14224,Erie County,NY,NA,4.594594594594595,NA
14304,Niagara County,NY,8.4,2.4324324324324325,NA
14305,Niagara County,NY,9.6,NA,NA
14471,Ontario County,NY,NA,95.94594594594594,NA
14590,Wayne County,NY,NA,NA,97.52321981424149
14625,Monroe County,NY,NA,NA,65.94427244582043
14760,Cattaraugus County,NY,12.8,NA,NA
14891,Schuyler County,NY,NA,72.16216216216216,NA
27028,Davie County,NC,46.800000000000004,NA,NA
27051,Forsyth County,NC,NA,NA,77.70897832817337
27106,Forsyth County,NC,NA,1.891891891891892,NA
27107,Forsyth County,NC,NA,NA,3.7151702786377707
27215,Alamance County,NC,NA,NA,9.597523219814242
27249,Guilford County,NC,NA,NA,69.04024767801857
27258,Alamance County,NC,92.80000000000001,NA,NA
27265,Guilford County,NC,NA,NA,28.173374613003094
27282,Guilford County,NC,NA,74.32432432432432,NA
27292,Davidson County,NC,NA,NA,5.572755417956656
27401,Guilford County,NC,31.6,NA,NA
27407,Guilford County,NC,21.2,NA,NA
27501,Harnett County,NC,53.6,NA,NA
27511,Wake County,NC,NA,80.8108108108108,NA
27516,Orange County,NC,33.2,8.64864864864865,NA
27526,Wake County,NC,NA,20,NA
27569,Johnston County,NC,72.8,NA,NA
27597,Wake County,NC,NA,NA,96.28482972136223
27609,Wake County,NC,NA,31.891891891891895,NA
27616,Wake County,NC,NA,35.4054054054054,NA
27713,Durham County,NC,NA,NA,56.965944272445824
27886,Edgecombe County,NC,NA,43.513513513513516,NA
28052,Gaston County,NC,NA,63.78378378378379,NA
28056,Gaston County,NC,NA,50,NA
28079,Union County,NC,48.4,NA,NA
28150,Cleveland County,NC,24,NA,NA
28152,Cleveland County,NC,NA,62.972972972972975,NA
28382,Sampson County,NC,NA,NA,86.06811145510835
28412,New Hanover County,NC,NA,NA,78.0185758513932
28468,Brunswick County,NC,NA,86.48648648648648,NA
28551,Lenoir County,NC,NA,NA,79.87616099071208
28630,Caldwell County,NC,34.8,NA,NA
28645,Caldwell County,NC,NA,NA,2.786377708978328
28650,Catawba County,NC,NA,79.1891891891892,NA
28697,Wilkes County,NC,NA,NA,63.46749226006192
28704,Buncombe County,NC,NA,71.62162162162163,NA
28714,Yancey County,NC,NA,44.054054054054056,NA
28792,Henderson County,NC,65.2,NA,NA
58103,Cass County,ND,NA,NA,2.476780185758514
58401,Stutsman County,ND,70.8,NA,NA
43050,Knox County,OH,NA,NA,39.628482972136226
43113,Pickaway County,OH,NA,NA,7.739938080495357
43123,Franklin County,OH,NA,NA,14.551083591331269
43147,Fairfield County,OH,NA,23.243243243243246,NA
43220,Franklin County,OH,NA,NA,73.9938080495356
43231,Franklin County,OH,76.8,NA,NA
43338,Morrow County,OH,NA,NA,62.538699690402474
43351,Wyandot County,OH,NA,52.972972972972975,NA
43543,Williams County,OH,NA,81.89189189189189,NA
43558,Fulton County,OH,NA,48.37837837837838,NA
43701,Muskingum County,OH,1.2,NA,NA
43812,Coshocton County,OH,8.799999999999999,NA,NA
43964,Jefferson County,OH,NA,29.18918918918919,NA
44011,Lorain County,OH,NA,22.972972972972975,NA
44053,Lorain County,OH,NA,3.2432432432432434,NA
44060,Lake County,OH,NA,NA,0.6191950464396285
44076,Ashtabula County,OH,79.60000000000001,NA,NA
44077,Lake County,OH,NA,1.6216216216216217,NA
44103,Cuyahoga County,OH,56.00000000000001,9.45945945945946,NA
44107,Cuyahoga County,OH,4.3999999999999995,NA,NA
44109,Cuyahoga County,OH,NA,NA,5.88235294117647
44120,Cuyahoga County,OH,NA,NA,10.21671826625387
44124,Cuyahoga County,OH,NA,NA,0.9287925696594427
44125,Cuyahoga County,OH,2.8000000000000003,NA,NA
44134,Cuyahoga County,OH,NA,1.3513513513513513,NA
44135,Cuyahoga County,OH,6.800000000000001,NA,NA
44139,Cuyahoga County,OH,NA,NA,18.26625386996904
44143,Cuyahoga County,OH,NA,NA,3.0959752321981426
44202,Portage County,OH,34,NA,NA
44203,Summit County,OH,NA,NA,71.20743034055728
44230,Wayne County,OH,86,NA,NA
44278,Summit County,OH,NA,90.81081081081082,NA
44286,Summit County,OH,NA,NA,83.59133126934985
44312,Summit County,OH,18,5.405405405405405,27.86377708978328
44333,Summit County,OH,NA,NA,41.48606811145511
44403,Trumbull County,OH,NA,90.54054054054053,NA
44406,Mahoning County,OH,NA,NA,30.030959752321984
44446,Trumbull County,OH,16.8,NA,NA
44483,Trumbull County,OH,NA,NA,22.60061919504644
44512,Mahoning County,OH,14.399999999999999,NA,NA
44514,Mahoning County,OH,NA,NA,24.76780185758514
44515,Mahoning County,OH,NA,NA,23.219814241486066
44606,Wayne County,OH,98,NA,NA
44663,Tuscarawas County,OH,16.400000000000002,NA,NA
44720,Stark County,OH,NA,17.027027027027028,NA
44833,Crawford County,OH,NA,14.594594594594595,NA
45030,Hamilton County,OH,NA,54.054054054054056,NA
45102,Clermont County,OH,38.4,NA,NA
45122,Clermont County,OH,NA,80,NA
45123,Highland County,OH,NA,64.05405405405405,NA
45140,Clermont County,OH,NA,11.891891891891893,NA
45150,Clermont County,OH,NA,NA,82.97213622291022
45230,Hamilton County,OH,54,NA,NA
45255,Hamilton County,OH,NA,NA,46.43962848297213
45331,Darke County,OH,28.000000000000004,NA,NA
45405,Montgomery County,OH,NA,45.40540540540541,NA
45440,Montgomery County,OH,NA,70.27027027027027,NA
45459,Montgomery County,OH,NA,NA,19.814241486068113
45669,Lawrence County,OH,NA,17.83783783783784,NA
45806,Allen County,OH,NA,66.21621621621621,NA
73025,Oklahoma County,OK,NA,61.62162162162163,NA
73112,Oklahoma County,OK,NA,51.35135135135135,NA
73159,Oklahoma County,OK,NA,23.513513513513516,NA
73505,Comanche County,OK,NA,12.702702702702704,NA
73507,Comanche County,OK,46.400000000000006,NA,NA
73533,Stephens County,OK,NA,9.18918918918919,NA
73644,Beckham County,OK,NA,63.24324324324324,NA
73701,Garfield County,OK,77.2,31.351351351351354,NA
73942,Texas County,OK,NA,75.67567567567568,NA
74006,Washington County,OK,57.199999999999996,NA,NA
74012,Tulsa County,OK,NA,8.378378378378379,NA
74017,Rogers County,OK,45.2,NA,NA
74023,Payne County,OK,66,57.567567567567565,NA
74036,Rogers County,OK,NA,77.56756756756756,NA
74055,Tulsa County,OK,NA,25.945945945945947,NA
74066,Creek County,OK,NA,NA,55.72755417956656
74120,Tulsa County,OK,100,NA,NA
74137,Tulsa County,OK,NA,97.02702702702702,NA
74820,Pontotoc County,OK,11.600000000000001,NA,NA
97007,Washington County,OR,NA,24.864864864864867,41.48606811145511
97062,Washington County,OR,94.39999999999999,NA,NA
97086,Clackamas County,OR,NA,85.4054054054054,NA
97089,Clackamas County,OR,NA,78.37837837837837,NA
97124,Washington County,OR,NA,NA,67.80185758513932
97128,Yamhill County,OR,20.8,NA,NA
97201,Multnomah County,OR,92,NA,NA
97206,Multnomah County,OR,NA,21.35135135135135,NA
97220,Multnomah County,OR,NA,NA,45.51083591331269
97322,Linn County,OR,NA,10,NA
97355,Linn County,OR,NA,NA,7.430340557275541
97471,Douglas County,OR,NA,3.5135135135135136,NA
97540,Jackson County,OR,NA,NA,78.328173374613
97703,Deschutes County,OR,NA,NA,77.39938080495357
97754,Crook County,OR,NA,NA,37.77089783281733
97838,Umatilla County,OR,NA,91.08108108108108,NA
15068,Westmoreland County,PA,NA,6.486486486486487,NA
15122,Allegheny County,PA,NA,58.37837837837838,NA
15135,Allegheny County,PA,NA,95.67567567567568,NA
15202,Allegheny County,PA,NA,73.24324324324324,NA
15224,Allegheny County,PA,96.8,NA,NA
15227,Allegheny County,PA,NA,19.45945945945946,NA
15238,Allegheny County,PA,NA,NA,40.86687306501548
15301,Washington County,PA,NA,2.9729729729729732,NA
15601,Westmoreland County,PA,NA,NA,1.238390092879257
15701,Indiana County,PA,NA,NA,16.09907120743034
15824,Jefferson County,PA,88,NA,56.03715170278638
15851,Jefferson County,PA,NA,NA,33.43653250773993
16056,Butler County,PA,NA,NA,73.68421052631578
16214,Clarion County,PA,NA,85.13513513513513,NA
16354,Crawford County,PA,NA,67.02702702702703,NA
16635,Blair County,PA,NA,NA,68.73065015479877
16830,Clearfield County,PA,NA,26.756756756756754,NA
16901,Tioga County,PA,68.4,NA,NA
17044,Mifflin County,PA,NA,NA,44.89164086687307
17801,Northumberland County,PA,23.200000000000003,NA,NA
17921,Schuylkill County,PA,80,NA,NA
18018,Lehigh County,PA,NA,37.83783783783784,NA
18020,Northampton County,PA,44.4,27.027027027027028,NA
18034,Lehigh County,PA,86.4,NA,NA
18042,Northampton County,PA,9.2,NA,NA
18049,Lehigh County,PA,NA,40.27027027027027,NA
18328,Pike County,PA,NA,89.1891891891892,NA
18505,Lackawanna County,PA,NA,34.5945945945946,NA
18509,Lackawanna County,PA,58.8,NA,NA
18603,Columbia County,PA,NA,14.864864864864865,NA
18705,Luzerne County,PA,NA,43.24324324324324,NA
18901,Bucks County,PA,NA,NA,12.693498452012383
18966,Bucks County,PA,NA,NA,13.003095975232199
19015,Delaware County,PA,39.6,NA,NA
19030,Bucks County,PA,NA,70,NA
19047,Bucks County,PA,NA,NA,32.81733746130031
19066,Montgomery County,PA,NA,NA,81.73374613003097
19067,Bucks County,PA,NA,NA,13.622291021671826
19124,Philadelphia County,PA,2.4,NA,NA
19128,Philadelphia County,PA,NA,24.594594594594597,NA
19130,Philadelphia County,PA,40.8,NA,NA
19140,Philadelphia County,PA,5.2,NA,NA
19141,Philadelphia County,PA,10.8,NA,NA
19152,Philadelphia County,PA,NA,NA,14.860681114551083
19382,Chester County,PA,NA,5.135135135135135,NA
02816,Kent County,RI,30.4,NA,NA
29069,Darlington County,SC,NA,NA,93.49845201238391
29072,Lexington County,SC,NA,NA,34.6749226006192
29127,Newberry County,SC,93.2,NA,NA
29150,Sumter County,SC,37.6,NA,NA
29229,Richland County,SC,NA,55.945945945945944,NA
29302,Spartanburg County,SC,NA,71.35135135135135,NA
29407,Charleston County,SC,41.6,NA,19.5046439628483
29414,Charleston County,SC,NA,22.432432432432435,NA
29445,Berkeley County,SC,27.200000000000003,NA,43.962848297213625
29501,Florence County,SC,NA,NA,40.86687306501548
29505,Florence County,SC,NA,54.59459459459459,NA
29512,Marlboro County,SC,57.599999999999994,NA,NA
29527,Horry County,SC,50,NA,NA
29536,Dillon County,SC,56.39999999999999,NA,NA
29579,Horry County,SC,NA,31.351351351351354,NA
29621,Anderson County,SC,NA,NA,15.789473684210526
29625,Anderson County,SC,34.4,NA,NA
29627,Anderson County,SC,NA,NA,64.39628482972137
29715,York County,SC,67.60000000000001,NA,NA
29803,Aiken County,SC,44.800000000000004,NA,NA
29835,McCormick County,SC,NA,70.54054054054055,NA
29909,Beaufort County,SC,NA,53.51351351351351,NA
37030,Smith County,TN,73.6,NA,NA
37066,Sumner County,TN,14.000000000000002,NA,30.340557275541798
37076,Davidson County,TN,NA,NA,43.343653250774
37083,Macon County,TN,NA,NA,86.9969040247678
37096,Perry County,TN,NA,88.91891891891892,NA
37135,Williamson County,TN,NA,NA,97.8328173374613
37160,Bedford County,TN,NA,32.16216216216216,NA
37323,Bradley County,TN,NA,NA,54.179566563467496
37343,Hamilton County,TN,NA,20.27027027027027,NA
37415,Hamilton County,TN,NA,60,NA
37421,Hamilton County,TN,NA,26.216216216216214,NA
37664,Sullivan County,TN,55.2,NA,NA
37742,Loudon County,TN,NA,NA,96.59442724458205
37774,Loudon County,TN,NA,21.891891891891895,NA
37777,Blount County,TN,NA,56.21621621621622,NA
37840,Roane County,TN,72.39999999999999,NA,NA
37854,Roane County,TN,59.599999999999994,NA,NA
37876,Sevier County,TN,NA,NA,39.93808049535604
37919,Knox County,TN,NA,36.21621621621622,NA
38019,Tipton County,TN,NA,78.64864864864865,NA
38501,Putnam County,TN,NA,NA,31.269349845201237
38555,Cumberland County,TN,NA,39.189189189189186,NA
75038,Dallas County,TX,96.39999999999999,NA,NA
75043,Dallas County,TX,NA,71.08108108108108,NA
75061,Dallas County,TX,52.400000000000006,NA,NA
75071,Collin County,TX,NA,27.837837837837835,NA
75077,Denton County,TX,NA,50.810810810810814,NA
75169,Van Zandt County,TX,NA,67.29729729729729,NA
75206,Dallas County,TX,92.4,NA,NA
75209,Dallas County,TX,NA,67.56756756756756,NA
75248,Dallas County,TX,NA,24.054054054054056,NA
75407,Collin County,TX,NA,NA,89.78328173374614
75662,Gregg County,TX,NA,NA,87.30650154798761
75670,Harrison County,TX,NA,69.45945945945947,NA
75835,Houston County,TX,NA,NA,73.06501547987617
75949,Angelina County,TX,NA,NA,90.40247678018576
76009,Johnson County,TX,NA,64.5945945945946,NA
76020,Tarrant County,TX,NA,NA,60.681114551083596
76034,Tarrant County,TX,NA,NA,70.27863777089783
76067,Palo Pinto County,TX,NA,59.45945945945946,NA
76078,Wise County,TX,NA,93.78378378378378,NA
76109,Tarrant County,TX,NA,92.43243243243244,NA
76126,Tarrant County,TX,NA,NA,71.51702786377709
76133,Tarrant County,TX,21.6,NA,28.792569659442723
76226,Denton County,TX,NA,NA,82.35294117647058
76266,Denton County,TX,NA,74.5945945945946,NA
76354,Wichita County,TX,80.4,NA,NA
76448,Eastland County,TX,NA,NA,90.09287925696594
76504,Bell County,TX,13.600000000000001,NA,NA
76543,Bell County,TX,NA,17.2972972972973,NA
77018,Harris County,TX,NA,NA,69.3498452012384
77028,Harris County,TX,50.8,NA,NA
77031,Harris County,TX,NA,NA,87.92569659442725
77047,Harris County,TX,58.4,72.70270270270271,NA
77056,Harris County,TX,77.60000000000001,NA,NA
77062,Harris County,TX,NA,NA,61.91950464396285
77074,Harris County,TX,NA,82.97297297297297,NA
77077,Harris County,TX,NA,NA,40.24767801857585
77339,Harris County,TX,NA,37.567567567567565,NA
77351,Polk County,TX,46,NA,NA
77357,Montgomery County,TX,NA,NA,94.11764705882352
77360,Polk County,TX,NA,NA,85.44891640866872
77375,Harris County,TX,23.599999999999998,NA,NA
77422,Brazoria County,TX,NA,72.43243243243244,NA
77437,Wharton County,TX,NA,NA,88.54489164086688
77450,Harris County,TX,NA,16.216216216216218,NA
77583,Brazoria County,TX,52.800000000000004,NA,NA
77713,Jefferson County,TX,NA,NA,76.47058823529412
77845,Brazos County,TX,NA,NA,4.024767801857585
77954,DeWitt County,TX,89.60000000000001,NA,NA
78028,Kerr County,TX,NA,12.162162162162163,NA
78045,Webb County,TX,NA,NA,95.6656346749226
78148,Bexar County,TX,NA,NA,91.64086687306502
78155,Guadalupe County,TX,NA,90,NA
78501,Hidalgo County,TX,NA,19.72972972972973,NA
78537,Hidalgo County,TX,NA,38.108108108108105,NA
78539,Hidalgo County,TX,60.8,NA,NA
78543,Hidalgo County,TX,NA,92.16216216216216,NA
78559,Cameron County,TX,NA,NA,88.85448916408669
78613,Williamson County,TX,NA,14.054054054054054,NA
78624,Gillespie County,TX,NA,50.27027027027027,NA
78633,Williamson County,TX,NA,NA,0
78654,Burnet County,TX,NA,NA,53.86996904024768
78704,Travis County,TX,NA,77.29729729729729,NA
78750,Travis County,TX,88.4,NA,NA
78758,Travis County,TX,54.400000000000006,NA,NA
78759,Travis County,TX,NA,NA,37.461300309597526
78840,Val Verde County,TX,NA,NA,10.8359133126935
79102,Potter County,TX,NA,88.64864864864866,NA
79364,Lubbock County,TX,90,NA,NA
79401,Lubbock County,TX,97.2,NA,NA
79703,Midland County,TX,NA,NA,89.47368421052632
79720,Howard County,TX,NA,NA,57.27554179566563
79763,Ector County,TX,NA,NA,69.96904024767801
84010,Davis County,UT,NA,NA,29.721362229102166
84057,Utah County,UT,NA,NA,87.61609907120743
84081,Salt Lake County,UT,NA,60.27027027027027,NA
84096,Salt Lake County,UT,29.599999999999998,62.70270270270271,NA
84097,Utah County,UT,NA,NA,90.71207430340557
84106,Salt Lake County,UT,37.2,NA,NA
84109,Salt Lake County,UT,NA,NA,36.53250773993808
84120,Salt Lake County,UT,NA,NA,52.94117647058824
84121,Salt Lake County,UT,NA,13.513513513513514,NA
84337,Box Elder County,UT,NA,NA,99.38080495356037
84404,Weber County,UT,NA,NA,48.91640866873065
84765,Washington County,UT,94,NA,NA
84780,Washington County,UT,NA,48.91891891891892,NA
84790,Washington County,UT,NA,NA,5.263157894736842
05446,Chittenden County,VT,63.2,NA,NA
05641,Washington County,VT,NA,NA,17.647058823529413
20147,Loudoun County,VA,40,NA,NA
22003,Fairfax County,VA,32.800000000000004,NA,NA
22204,Arlington County,VA,NA,46.21621621621622,NA
22443,Westmoreland County,VA,NA,NA,74.92260061919505
22473,Northumberland County,VA,NA,NA,93.18885448916409
22901,Albemarle County,VA,NA,NA,8.6687306501548
22902,Charlottesville city,VA,26.400000000000002,NA,NA
22932,Albemarle County,VA,NA,NA,91.3312693498452
23235,Chesterfield County,VA,NA,44.86486486486487,25.696594427244584
23321,Chesapeake city,VA,48.8,NA,NA
23430,Isle of Wight County,VA,NA,30,NA
23454,Virginia Beach city,VA,NA,7.837837837837839,NA
23851,Franklin city,VA,NA,NA,43.653250773993804
24073,Montgomery County,VA,NA,NA,48.60681114551084
24091,Floyd County,VA,NA,88.10810810810811,86.37770897832817
24104,Bedford County,VA,NA,NA,95.97523219814241
24121,Bedford County,VA,NA,NA,98.76160990712074
24124,Giles County,VA,91.60000000000001,NA,NA
24153,Salem city,VA,NA,NA,21.671826625387
24422,Alleghany County,VA,NA,93.24324324324324,NA
24450,Rockbridge County,VA,73.2,NA,42.10526315789473
24558,Halifax County,VA,69.19999999999999,NA,NA
98027,King County,WA,64,NA,NA
98053,King County,WA,NA,NA,52.63157894736842
98070,King County,WA,NA,97.56756756756756,NA
98221,Skagit County,WA,NA,18.10810810810811,NA
98233,Skagit County,WA,82,NA,NA
98282,Island County,WA,87.6,NA,47.6780185758514
98311,Kitsap County,WA,NA,NA,62.848297213622295
98362,Clallam County,WA,NA,4.054054054054054,33.126934984520126
98382,Clallam County,WA,NA,NA,2.1671826625387
98404,Pierce County,WA,35.199999999999996,NA,NA
98584,Mason County,WA,36,NA,NA
98682,Clark County,WA,NA,NA,38.69969040247678
98801,Chelan County,WA,NA,NA,6.191950464396285
98816,Chelan County,WA,NA,76.75675675675676,NA
98903,Yakima County,WA,69.6,NA,NA
98908,Yakima County,WA,NA,9.72972972972973,NA
99156,Pend Oreille County,WA,NA,77.56756756756756,NA
99203,Spokane County,WA,NA,NA,100
99338,Benton County,WA,NA,28.91891891891892,NA
99350,Benton County,WA,NA,NA,93.80804953560371
20003,District of Columbia,DC,NA,42.7027027027027,NA
20009,District of Columbia,DC,NA,45.94594594594595,NA
25313,Kanawha County,WV,49.6,NA,NA
25387,Kanawha County,WV,79.2,NA,NA
25401,Berkeley County,WV,38.800000000000004,NA,NA
25526,Putnam County,WV,NA,NA,40.55727554179567
25705,Cabell County,WV,19.2,NA,NA
26062,Hancock County,WV,NA,NA,11.455108359133128
26104,Wood County,WV,NA,20.54054054054054,NA
26241,Randolph County,WV,NA,62.43243243243243,NA
26301,Harrison County,WV,NA,NA,26.006191950464398
26554,Marion County,WV,NA,0.5405405405405406,NA
53021,Ozaukee County,WI,99.2,NA,NA
53095,Washington County,WI,NA,NA,31.57894736842105
53115,Walworth County,WI,78.8,NA,NA
53118,Waukesha County,WI,NA,86.75675675675676,NA
53129,Milwaukee County,WI,NA,84.86486486486487,NA
53144,Kenosha County,WI,18.4,NA,NA
53188,Waukesha County,WI,25.2,NA,NA
53204,Milwaukee County,WI,10,NA,NA
53225,Milwaukee County,WI,15.2,NA,NA
53228,Milwaukee County,WI,NA,44.32432432432433,NA
53566,Green County,WI,NA,16.486486486486488,NA
53717,Dane County,WI,NA,61.891891891891895,NA
54016,St. Croix County,WI,NA,47.2972972972973,NA
54115,Brown County,WI,47.599999999999994,NA,28.482972136222912
54166,Shawano County,WI,NA,52.16216216216216,NA
54521,Vilas County,WI,NA,NA,52.32198142414861
54665,Vernon County,WI,NA,NA,59.44272445820433
54729,Chippewa County,WI,NA,NA,67.18266253869969
54751,Dunn County,WI,NA,65.67567567567568,NA
54902,Winnebago County,WI,54.800000000000004,NA,NA
54923,Green Lake County,WI,NA,87.29729729729729,NA
