ZipCode,county,state,Adult
35645,Lauderdale County,AL,78.51851851851852
36079,Pike County,AL,87.77777777777777
36303,Houston County,AL,36.2962962962963
36352,Houston County,AL,91.85185185185185
99623,,AK,94.81481481481482
99669,Kenai Peninsula Borough,AK,93.33333333333333
85037,Maricopa County,AZ,37.77777777777778
85201,Maricopa County,AZ,25.185185185185183
85705,Pima County,AZ,9.25925925925926
86406,Mohave County,AZ,62.59259259259259
71852,Howard County,AR,88.51851851851852
90023,Los Angeles County,CA,51.85185185185185
90059,Los Angeles County,CA,48.888888888888886
91344,Los Angeles County,CA,81.11111111111111
92154,San Diego County,CA,78.14814814814814
92243,Imperial County,CA,37.407407407407405
92262,Riverside County,CA,32.592592592592595
92571,Riverside County,CA,54.81481481481482
93033,Ventura County,CA,53.70370370370371
93274,Tulare County,CA,13.333333333333334
93638,Madera County,CA,30.37037037037037
93727,Fresno County,CA,26.666666666666668
93930,Monterey County,CA,80
94030,San Mateo County,CA,79.62962962962963
94928,Sonoma County,CA,74.44444444444444
95682,El Dorado County,CA,89.62962962962962
95973,Butte County,CA,34.81481481481482
95987,Colusa County,CA,97.4074074074074
80021,Jefferson County,CO,73.70370370370371
80202,Denver County,CO,66.2962962962963
81004,Pueblo County,CO,38.148148148148145
06105,Hartford County,CT,69.25925925925925
06457,Middlesex County,CT,15.925925925925927
06516,New Haven County,CT,15.185185185185185
19713,New Castle County,DE,44.074074074074076
19956,Sussex County,DE,82.22222222222221
32003,Clay County,FL,72.5925925925926
32038,Columbia County,FL,84.81481481481481
32117,Volusia County,FL,48.148148148148145
32401,Bay County,FL,52.59259259259259
32444,Bay County,FL,77.77777777777779
32503,Escambia County,FL,32.22222222222222
32680,Dixie County,FL,83.7037037037037
32703,Orange County,FL,35.55555555555556
32808,Orange County,FL,27.40740740740741
32950,Brevard County,FL,99.62962962962963
33025,Broward County,FL,42.96296296296296
33127,Miami-Dade County,FL,70.74074074074073
33129,Miami-Dade County,FL,94.44444444444444
33155,Miami-Dade County,FL,80.37037037037037
33183,Miami-Dade County,FL,85.18518518518519
33476,Palm Beach County,FL,95.18518518518519
33513,Sumter County,FL,89.25925925925927
33542,Pasco County,FL,70
33597,Sumter County,FL,97.77777777777777
33615,Hillsborough County,FL,41.11111111111111
33837,Polk County,FL,63.33333333333333
30043,Gwinnett County,GA,70.37037037037037
30102,Cherokee County,GA,60.370370370370374
30349,Fulton County,GA,16.296296296296298
30683,Clarke County,GA,92.5925925925926
30701,Gordon County,GA,44.44444444444444
31903,Muscogee County,GA,47.77777777777778
96706,Honolulu County,HI,20.74074074074074
96815,Honolulu County,HI,83.33333333333334
60016,Cook County,IL,36.666666666666664
60074,Cook County,IL,56.2962962962963
60175,Kane County,IL,40.370370370370374
60190,DuPage County,IL,82.5925925925926
60410,Will County,IL,62.22222222222222
60431,Will County,IL,55.18518518518518
60438,Cook County,IL,58.14814814814815
60478,Cook County,IL,98.14814814814815
60543,Kendall County,IL,51.48148148148148
60642,Cook County,IL,84.44444444444444
60649,Cook County,IL,25.555555555555554
46012,Madison County,IN,52.22222222222223
46112,Hendricks County,IN,68.88888888888889
46217,Marion County,IN,65.92592592592592
46218,Marion County,IN,19.25925925925926
46356,Lake County,IN,44.44444444444444
46815,Allen County,IN,47.40740740740741
50315,Polk County,IA,17.40740740740741
50317,Polk County,IA,21.85185185185185
52246,Johnson County,IA,73.33333333333333
67010,Butler County,KS,81.85185185185185
40210,Jefferson County,KY,55.925925925925924
41011,Kenton County,KY,57.77777777777777
41071,Campbell County,KY,39.25925925925926
42420,Henderson County,KY,18.51851851851852
70072,Jefferson Parish,LA,4.074074074074074
70114,Orleans Parish,LA,19.62962962962963
70128,Orleans Parish,LA,28.14814814814815
70444,Tangipahoa Parish,LA,61.111111111111114
70570,St. Landry Parish,LA,4.444444444444445
70615,Calcasieu Parish,LA,34.074074074074076
70754,Livingston Parish,LA,71.11111111111111
04742,Aroostook County,ME,84.07407407407408
20708,Prince George's County,MD,85.92592592592592
21229,Baltimore city,MD,30
01463,Middlesex County,MA,59.25925925925925
01930,Essex County,MA,8.88888888888889
01970,Essex County,MA,14.444444444444443
02111,Suffolk County,MA,72.22222222222221
02139,Middlesex County,MA,1.1111111111111112
02148,Middlesex County,MA,0
02170,Norfolk County,MA,45.18518518518518
02301,Plymouth County,MA,0.3703703703703704
02360,Plymouth County,MA,2.9629629629629632
02632,Barnstable County,MA,62.96296296296296
02746,Bristol County,MA,6.666666666666667
48066,Macomb County,MI,8.148148148148149
48103,Washtenaw County,MI,27.037037037037038
48182,Monroe County,MI,74.07407407407408
48207,Wayne County,MI,31.11111111111111
48212,Wayne County,MI,50.74074074074074
48315,Macomb County,MI,54.074074074074076
48858,Isabella County,MI,13.703703703703704
49048,Kalamazoo County,MI,29.629629629629626
49201,Jackson County,MI,17.77777777777778
49242,Hillsdale County,MI,60.74074074074074
49348,Allegan County,MI,46.2962962962963
49349,Newaygo County,MI,72.96296296296296
55082,Washington County,MN,48.51851851851852
55118,Dakota County,MN,63.70370370370371
55401,Hennepin County,MN,75.92592592592592
55426,Hennepin County,MN,40.74074074074074
55429,Hennepin County,MN,23.703703703703706
56031,Martin County,MN,60
56560,Clay County,MN,5.9259259259259265
56601,Beltrami County,MN,39.62962962962963
63303,St. Charles County,MO,35.92592592592593
63366,St. Charles County,MO,23.333333333333332
63857,Dunklin County,MO,57.407407407407405
64055,Jackson County,MO,15.555555555555555
64093,Johnson County,MO,49.629629629629626
64133,Jackson County,MO,10.74074074074074
64505,Buchanan County,MO,76.29629629629629
65301,Pettis County,MO,10.37037037037037
65625,Barry County,MO,91.11111111111111
89144,Clark County,NV,94.07407407407408
07055,Passaic County,NJ,32.96296296296296
07514,Passaic County,NJ,90.74074074074075
07730,Monmouth County,NJ,87.03703703703704
08021,Camden County,NJ,1.4814814814814816
08036,Burlington County,NJ,91.48148148148148
08069,Salem County,NJ,58.51851851851851
08077,Burlington County,NJ,46.666666666666664
08103,Camden County,NJ,11.481481481481481
08104,Camden County,NJ,3.3333333333333335
08105,Camden County,NJ,17.037037037037038
08861,Middlesex County,NJ,21.11111111111111
87107,Bernalillo County,NM,45.925925925925924
87420,San Juan County,NM,42.592592592592595
88023,Grant County,NM,98.51851851851852
10022,New York County,NY,88.88888888888889
10027,New York County,NY,11.851851851851853
10031,New York County,NY,16.666666666666664
10305,Richmond County,NY,64.44444444444444
10306,Richmond County,NY,31.11111111111111
10456,Bronx County,NY,0.7407407407407408
10474,Bronx County,NY,71.85185185185186
10701,Westchester County,NY,4.814814814814815
11208,Kings County,NY,3.7037037037037033
11219,Kings County,NY,24.814814814814813
11385,Queens County,NY,18.88888888888889
12446,Ulster County,NY,96.29629629629629
12487,Ulster County,NY,99.25925925925925
12866,Saratoga County,NY,25.925925925925924
13021,Cayuga County,NY,7.777777777777778
13045,Cortland County,NY,10
13090,Onondaga County,NY,27.77777777777778
13214,Onondaga County,NY,88.14814814814815
13440,Oneida County,NY,6.296296296296296
14425,Ontario County,NY,61.48148148148148
14428,Monroe County,NY,58.88888888888889
14468,Monroe County,NY,29.259259259259256
14611,Monroe County,NY,14.074074074074074
14619,Monroe County,NY,26.296296296296294
27012,Forsyth County,NC,43.333333333333336
28174,Union County,NC,90
28386,Robeson County,NC,96.66666666666667
28613,Catawba County,NC,54.44444444444444
28658,Catawba County,NC,57.03703703703704
43050,Knox County,OH,14.814814814814813
43055,Licking County,OH,5.185185185185185
43130,Fairfield County,OH,5.555555555555555
43207,Franklin County,OH,38.51851851851852
43228,Franklin County,OH,8.518518518518519
43612,Lucas County,OH,11.11111111111111
43701,Muskingum County,OH,2.5925925925925926
43912,Belmont County,OH,67.4074074074074
44087,Summit County,OH,90.37037037037037
44102,Cuyahoga County,OH,1.8518518518518516
44105,Cuyahoga County,OH,2.2222222222222223
44212,Medina County,OH,7.4074074074074066
44311,Summit County,OH,64.07407407407408
45040,Warren County,OH,45.55555555555556
45056,Butler County,OH,77.4074074074074
45211,Hamilton County,OH,18.14814814814815
45365,Shelby County,OH,22.59259259259259
45424,Montgomery County,OH,20
45431,Montgomery County,OH,59.62962962962963
45662,Scioto County,OH,7.037037037037037
45680,Lawrence County,OH,24.444444444444443
45693,Adams County,OH,61.85185185185185
45891,Van Wert County,OH,41.85185185185185
97030,Multnomah County,OR,28.888888888888886
97302,Marion County,OR,56.666666666666664
97850,Union County,OR,53.333333333333336
15074,Beaver County,PA,75.55555555555556
15110,Allegheny County,PA,87.4074074074074
15204,Allegheny County,PA,76.66666666666667
15213,Allegheny County,PA,92.22222222222223
15425,Fayette County,PA,43.7037037037037
15601,Westmoreland County,PA,9.62962962962963
16117,Lawrence County,PA,65.55555555555556
17025,Cumberland County,PA,86.66666666666667
17372,Adams County,PA,98.88888888888889
17404,York County,PA,21.48148148148148
18301,Monroe County,PA,49.25925925925926
19041,Delaware County,PA,95.92592592592592
19125,Philadelphia County,PA,82.96296296296296
19131,Philadelphia County,PA,12.962962962962962
02895,Providence County,RI,22.22222222222222
29520,Chesterfield County,SC,81.48148148148148
29605,Greenville County,SC,36.666666666666664
57106,Minnehaha County,SD,34.44444444444444
57701,Pennington County,SD,30.74074074074074
37043,Montgomery County,TN,50.37037037037037
37087,Wilson County,TN,28.51851851851852
37167,Rutherford County,TN,38.88888888888889
37324,Franklin County,TN,78.88888888888889
37404,Hamilton County,TN,74.81481481481481
37620,Sullivan County,TN,24.074074074074073
37743,Greene County,TN,22.962962962962962
38114,Shelby County,TN,33.7037037037037
38125,Shelby County,TN,68.14814814814815
75043,Dallas County,TX,31.851851851851855
75605,Gregg County,TX,66.2962962962963
76084,Johnson County,TX,92.96296296296296
77025,Harris County,TX,77.03703703703704
77044,Harris County,TX,51.11111111111111
77091,Harris County,TX,68.51851851851852
77316,Montgomery County,TX,80.74074074074075
77801,Brazos County,TX,85.92592592592592
78101,Bexar County,TX,97.03703703703704
78223,Bexar County,TX,64.81481481481481
78237,Bexar County,TX,42.22222222222222
78372,Jim Wells County,TX,95.55555555555556
84128,Salt Lake County,UT,52.96296296296297
22101,Fairfax County,VA,65.18518518518519
23061,Gloucester County,VA,75.18518518518519
23069,Hanover County,VA,100
23224,Richmond city,VA,20.37037037037037
23601,Newport News city,VA,71.48148148148148
23805,Petersburg city,VA,67.03703703703704
24592,Halifax County,VA,41.48148148148148
98056,King County,WA,69.62962962962963
98403,Pierce County,WA,93.7037037037037
99301,Franklin County,WA,50
25276,Roane County,WV,67.77777777777779
25403,Berkeley County,WV,79.25925925925927
26101,Wood County,WV,12.222222222222221
26201,Upshur County,WV,33.33333333333333
53186,Waukesha County,WI,40
53402,Racine County,WI,12.592592592592592
53916,Dodge County,WI,55.55555555555556
54157,Marinette County,WI,85.55555555555556
54729,Chippewa County,WI,47.03703703703704
54914,Outagamie County,WI,35.18518518518518
