ZipCode,county,state,Adult,Retirement
35016,Marshall County,AL,NA,71.61290322580646
35022,Jefferson County,AL,NA,68.06451612903226
35115,Shelby County,AL,80.98720292504571,NA
35128,St. Clair County,AL,64.53382084095064,NA
36027,Barbour County,AL,NA,56.12903225806451
36426,Escambia County,AL,48.08043875685558,NA
36442,Covington County,AL,93.41864716636198,NA
36701,Dallas County,AL,19.195612431444243,NA
99502,Anchorage Municipality,AK,NA,90.32258064516128
99508,Anchorage Municipality,AK,10.054844606946983,NA
85019,Maricopa County,AZ,89.39670932358318,NA
85053,Maricopa County,AZ,37.29433272394881,NA
85138,Pinal County,AZ,60.51188299817185,NA
85251,Maricopa County,AZ,61.608775137111515,NA
85258,Maricopa County,AZ,57.95246800731262,NA
85301,Maricopa County,AZ,NA,21.935483870967744
85607,Cochise County,AZ,66.17915904936015,NA
85635,Cochise County,AZ,NA,50.967741935483865
85737,Pima County,AZ,NA,77.74193548387098
85750,Pima County,AZ,88.29981718464352,NA
71913,Garland County,AR,NA,58.70967741935483
72058,Faulkner County,AR,NA,90.64516129032259
72131,Cleburne County,AR,97.25776965265082,NA
72143,White County,AR,NA,12.258064516129032
72712,Benton County,AR,40.036563071297984,NA
90011,Los Angeles County,CA,17.550274223034734,NA
90019,Los Angeles County,CA,76.59963436928702,NA
90023,Los Angeles County,CA,29.981718464351005,NA
90025,Los Angeles County,CA,74.40585009140767,NA
90026,Los Angeles County,CA,38.20840950639854,NA
90061,Los Angeles County,CA,60.3290676416819,NA
90221,Los Angeles County,CA,58.3180987202925,NA
90266,Los Angeles County,CA,52.46800731261426,NA
90501,Los Angeles County,CA,67.27605118829982,NA
90650,Los Angeles County,CA,9.87202925045704,NA
90807,Los Angeles County,CA,43.327239488117,NA
91106,Los Angeles County,CA,87.56855575868373,NA
91356,Los Angeles County,CA,87.93418647166362,NA
91361,Ventura County,CA,NA,59.354838709677416
91722,Los Angeles County,CA,NA,54.83870967741935
91737,San Bernardino County,CA,67.64168190127971,NA
91745,Los Angeles County,CA,95.42961608775137,NA
91755,Los Angeles County,CA,86.28884826325411,NA
91775,Los Angeles County,CA,79.52468007312615,NA
91786,San Bernardino County,CA,54.6617915904936,NA
91945,San Diego County,CA,NA,67.0967741935484
92019,San Diego County,CA,NA,48.064516129032256
92056,San Diego County,CA,45.52102376599635,NA
92069,San Diego County,CA,88.84826325411335,NA
92126,San Diego County,CA,36.0146252285192,NA
92201,Riverside County,CA,17.001828153564897,NA
92397,San Bernardino County,CA,NA,98.70967741935483
92509,Riverside County,CA,16.270566727605118,NA
92545,Riverside County,CA,NA,41.935483870967744
92592,Riverside County,CA,20.109689213893965,NA
92604,Orange County,CA,NA,94.19354838709677
92606,Orange County,CA,NA,81.93548387096774
92692,Orange County,CA,31.444241316270567,NA
92806,Orange County,CA,NA,57.74193548387097
93001,Ventura County,CA,18.647166361974406,NA
93041,Ventura County,CA,NA,56.451612903225815
93203,Kern County,CA,78.06215722120659,NA
93306,Kern County,CA,NA,82.9032258064516
93307,Kern County,CA,7.495429616087751,NA
93635,Merced County,CA,76.23400365630712,NA
93637,Madera County,CA,24.314442413162705,NA
93711,Fresno County,CA,NA,69.35483870967742
94030,San Mateo County,CA,94.88117001828154,NA
94061,San Mateo County,CA,NA,80
94102,San Francisco County,CA,NA,81.61290322580645
94122,San Francisco County,CA,38.75685557586837,NA
94501,Alameda County,CA,87.38574040219378,NA
94530,Contra Costa County,CA,NA,83.54838709677419
94555,Alameda County,CA,56.855575868372945,NA
94568,Alameda County,CA,83.18098720292505,NA
94590,Solano County,CA,NA,59.03225806451613
94602,Alameda County,CA,69.10420475319927,NA
94603,Alameda County,CA,80.25594149908592,NA
94608,Alameda County,CA,45.3382084095064,NA
94610,Alameda County,CA,53.93053016453382,NA
94621,Alameda County,CA,24.49725776965265,NA
94703,Alameda County,CA,59.23217550274224,NA
94704,Alameda County,CA,90.12797074954297,NA
95014,Santa Clara County,CA,78.97623400365632,NA
95035,Santa Clara County,CA,41.13345521023766,NA
95120,Santa Clara County,CA,NA,98.06451612903226
95131,Santa Clara County,CA,97.07495429616088,NA
95136,Santa Clara County,CA,49.177330895795244,NA
95355,Stanislaus County,CA,4.204753199268739,NA
95448,Sonoma County,CA,NA,47.096774193548384
95620,Solano County,CA,75.50274223034735,NA
95662,Sacramento County,CA,NA,84.83870967741936
95672,El Dorado County,CA,98.35466179159049,NA
95678,Placer County,CA,NA,35.483870967741936
95765,Placer County,CA,NA,66.45161290322581
95926,Butte County,CA,NA,77.41935483870968
95965,Butte County,CA,10.23765996343693,NA
95969,Butte County,CA,NA,7.419354838709677
95993,Sutter County,CA,NA,42.25806451612903
80003,Jefferson County,CO,36.74588665447898,NA
80013,Arapahoe County,CO,5.301645338208409,NA
80020,Broomfield County,CO,63.98537477148081,NA
80205,Denver County,CO,32.90676416819013,NA
80207,Denver County,CO,34.003656307129795,NA
80218,Denver County,CO,50.09140767824497,NA
80487,Routt County,CO,92.13893967093236,NA
80503,Boulder County,CO,NA,52.58064516129032
80525,Larimer County,CO,9.140767824497258,NA
80918,El Paso County,CO,37.47714808043875,NA
81504,Mesa County,CO,22.851919561243143,NA
81623,Garfield County,CO,92.50457038391224,NA
06010,Hartford County,CT,0.7312614259597806,NA
06032,Hartford County,CT,NA,70.96774193548387
06040,Hartford County,CT,NA,19.67741935483871
06066,Tolland County,CT,NA,19.35483870967742
06074,Hartford County,CT,46.435100548446066,NA
06084,Tolland County,CT,66.36197440585009,NA
06092,Hartford County,CT,99.26873857404021,NA
06098,Litchfield County,CT,39.853747714808044,NA
06234,Windham County,CT,NA,86.7741935483871
06413,Middlesex County,CT,NA,65.16129032258064
06457,Middlesex County,CT,53.38208409506399,NA
06470,Fairfield County,CT,75.68555758683729,NA
06473,New Haven County,CT,58.68372943327239,NA
06484,Fairfield County,CT,27.422303473491773,30.32258064516129
06515,New Haven County,CT,52.6508226691042,NA
06612,Fairfield County,CT,99.45155393053017,NA
06776,Litchfield County,CT,66.91042047531994,NA
06791,Litchfield County,CT,94.14990859232175,NA
06820,Fairfield County,CT,84.82632541133455,NA
06880,Fairfield County,CT,40.95063985374772,NA
19720,New Castle County,DE,NA,22.903225806451612
19940,Sussex County,DE,NA,94.83870967741936
19963,Sussex County,DE,NA,67.74193548387096
32082,St. Johns County,FL,94.51553930530164,NA
32250,Duval County,FL,NA,32.903225806451616
32405,Bay County,FL,65.81352833638026,NA
32526,Escambia County,FL,8.409506398537477,NA
32606,Alachua County,FL,NA,28.064516129032256
32708,Seminole County,FL,65.26508226691043,NA
32713,Volusia County,FL,76.41681901279708,NA
32751,Orange County,FL,NA,51.935483870967744
32824,Orange County,FL,34.18647166361974,NA
32908,Brevard County,FL,97.62340036563072,NA
32909,Brevard County,FL,61.06032906764168,NA
32940,Brevard County,FL,56.48994515539305,NA
32962,Indian River County,FL,NA,93.2258064516129
32966,Indian River County,FL,NA,31.93548387096774
33066,Broward County,FL,97.80621572212065,NA
33076,Broward County,FL,93.23583180987202,NA
33143,Miami-Dade County,FL,69.28702010968921,NA
33156,Miami-Dade County,FL,88.11700182815356,NA
33313,Broward County,FL,14.076782449725778,NA
33332,Broward County,FL,92.13893967093236,NA
33410,Palm Beach County,FL,42.59597806215722,NA
33418,Palm Beach County,FL,NA,60.967741935483865
33437,Palm Beach County,FL,NA,71.29032258064515
33441,Broward County,FL,46.25228519195612,NA
33469,Palm Beach County,FL,87.75137111517367,NA
33626,Hillsborough County,FL,65.9963436928702,NA
33704,Pinellas County,FL,77.6965265082267,NA
34114,Collier County,FL,NA,39.67741935483871
34120,Collier County,FL,57.769652650822664,74.83870967741936
34145,Collier County,FL,NA,45.483870967741936
34288,Sarasota County,FL,NA,74.19354838709677
34653,Pasco County,FL,21.572212065813527,NA
34953,St. Lucie County,FL,NA,6.129032258064516
34983,St. Lucie County,FL,14.990859232175502,NA
34987,St. Lucie County,FL,97.9890310786106,NA
30004,Fulton County,GA,33.27239488117002,NA
30005,Fulton County,GA,NA,74.51612903225806
30016,Newton County,GA,7.312614259597806,NA
30024,Gwinnett County,GA,13.893967093235831,NA
30030,DeKalb County,GA,65.08226691042047,NA
30041,Forsyth County,GA,19.74405850091408,NA
30062,Cobb County,GA,34.36928702010969,NA
30114,Cherokee County,GA,27.239488117001827,NA
30327,Fulton County,GA,89.94515539305301,NA
30506,Hall County,GA,NA,20.32258064516129
30519,Gwinnett County,GA,NA,33.87096774193548
30533,Lumpkin County,GA,55.575868372943326,NA
30741,Walker County,GA,12.248628884826324,NA
30747,Chattooga County,GA,42.230347349177336,NA
30753,Chattooga County,GA,90.49360146252286,NA
30906,Richmond County,GA,NA,5.483870967741936
30907,Columbia County,GA,18.09872029250457,NA
31312,Effingham County,GA,NA,90
31313,Liberty County,GA,55.02742230347349,NA
31558,Camden County,GA,57.586837294332724,NA
31602,Lowndes County,GA,29.798903107861058,NA
31632,Lowndes County,GA,72.21206581352834,NA
31750,Ben Hill County,GA,48.62888482632541,NA
39845,Seminole County,GA,85.74040219378428,NA
96789,Honolulu County,HI,NA,9.032258064516128
83406,Bonneville County,ID,55.393053016453386,NA
83646,Ada County,ID,31.809872029250457,NA
83686,Canyon County,ID,24.862888482632542,NA
83702,Ada County,ID,NA,72.90322580645162
83706,Ada County,ID,20.840950639853748,NA
83714,Ada County,ID,NA,16.7741935483871
60004,Cook County,IL,17.915904936014627,NA
60014,McHenry County,IL,NA,16.129032258064516
60062,Cook County,IL,NA,4.516129032258064
60067,Cook County,IL,34.73491773308958,NA
60068,Cook County,IL,93.96709323583181,39.35483870967742
60089,Lake County,IL,NA,13.225806451612904
60102,McHenry County,IL,NA,44.193548387096776
60110,Kane County,IL,40.76782449725777,NA
60174,Kane County,IL,65.44789762340037,NA
60175,Kane County,IL,19.561243144424132,NA
60189,DuPage County,IL,57.40402193784278,NA
60192,Cook County,IL,NA,81.29032258064515
60402,Cook County,IL,6.764168190127971,NA
60431,Will County,IL,NA,44.516129032258064
60439,Cook County,IL,NA,18.387096774193548
60440,Will County,IL,43.69287020109689,NA
60491,Will County,IL,27.97074954296161,NA
60504,DuPage County,IL,27.787934186471663,NA
60506,Kane County,IL,85.19195612431444,NA
60546,Cook County,IL,67.45886654478977,NA
60558,Cook County,IL,76.78244972577697,NA
60586,Will County,IL,NA,64.51612903225806
60601,Cook County,IL,79.70749542961609,NA
60614,Cook County,IL,NA,67.41935483870968
60622,Cook County,IL,29.250457038391225,NA
60623,Cook County,IL,21.937842778793417,NA
60626,Cook County,IL,NA,8.064516129032258
60636,Cook County,IL,NA,84.51612903225806
60642,Cook County,IL,67.64168190127971,NA
60914,Kankakee County,IL,93.60146252285192,NA
61008,Boone County,IL,25.95978062157221,NA
61021,Lee County,IL,NA,6.451612903225806
61604,Peoria County,IL,62.15722120658135,NA
61701,McLean County,IL,NA,61.61290322580645
62626,Macoupin County,IL,98.17184643510055,NA
46011,Madison County,IN,41.86471663619744,54.516129032258064
46037,Hamilton County,IN,56.672760511883006,NA
46122,Hendricks County,IN,69.46983546617916,NA
46158,Morgan County,IN,45.88665447897623,NA
46208,Marion County,IN,26.508226691042047,NA
46214,Marion County,IN,NA,89.35483870967742
46241,Marion County,IN,44.05850091407678,NA
46307,Lake County,IN,51.91956124314442,NA
46341,Porter County,IN,NA,60.322580645161295
46394,Lake County,IN,NA,98.38709677419355
46410,Lake County,IN,NA,3.5483870967741935
46526,Elkhart County,IN,47.53199268738574,NA
46637,St. Joseph County,IN,79.15904936014626,NA
46701,Noble County,IN,62.705667276051194,NA
46750,Huntington County,IN,NA,25.483870967741932
46783,Huntington County,IN,77.87934186471664,NA
46814,Allen County,IN,73.49177330895796,NA
47150,Floyd County,IN,5.6672760511883,NA
47172,Clark County,IN,NA,62.58064516129033
47265,Jennings County,IN,16.63619744058501,NA
47394,Randolph County,IN,62.52285191956124,NA
47635,Spencer County,IN,NA,95.80645161290322
50703,Black Hawk County,IA,NA,32.25806451612903
66053,Miami County,KS,NA,92.90322580645162
66062,Johnson County,KS,29.433272394881172,NA
66203,Johnson County,KS,70.74954296160878,NA
67063,Marion County,KS,NA,100
67208,Sedgwick County,KS,68.37294332723948,NA
67576,Stafford County,KS,NA,99.35483870967742
40211,Jefferson County,KY,NA,40.64516129032258
40220,Jefferson County,KY,59.597806215722116,NA
40517,Fayette County,KY,NA,43.54838709677419
41017,Kenton County,KY,NA,21.612903225806452
41572,Pike County,KY,68.19012797074954,NA
42071,Calloway County,KY,NA,45.16129032258064
42261,Butler County,KY,51.736745886654475,NA
42431,Hopkins County,KY,15.539305301645337,26.129032258064516
70006,Jefferson Parish,LA,42.413162705667276,NA
70119,Orleans Parish,LA,2.010968921389397,NA
70359,Terrebonne Parish,LA,83.91224862888483,NA
70364,Terrebonne Parish,LA,3.8391224862888484,NA
70401,Tangipahoa Parish,LA,NA,39.03225806451613
70435,St. Tammany Parish,LA,12.979890310786105,NA
70454,Tangipahoa Parish,LA,77.14808043875686,NA
70578,Acadia Parish,LA,NA,44.83870967741935
70592,Lafayette Parish,LA,NA,66.12903225806451
70647,Calcasieu Parish,LA,36.0146252285192,NA
70663,Calcasieu Parish,LA,25.045703839122485,NA
70669,Calcasieu Parish,LA,NA,85.48387096774194
70726,Livingston Parish,LA,NA,9.67741935483871
71075,Webster Parish,LA,100,NA
71342,La Salle Parish,LA,50.09140767824497,NA
04093,York County,ME,88.6654478976234,NA
04967,Somerset County,ME,69.83546617915904,NA
20772,Prince George's County,MD,NA,79.35483870967742
20815,Montgomery County,MD,72.76051188299817,NA
20878,Montgomery County,MD,NA,57.41935483870968
20906,Montgomery County,MD,44.97257769652651,41.29032258064516
21060,Anne Arundel County,MD,20.47531992687386,NA
21113,Anne Arundel County,MD,47.3491773308958,NA
21114,Anne Arundel County,MD,54.11334552102377,NA
21158,Carroll County,MD,74.22303473491773,NA
21208,Baltimore County,MD,NA,35.16129032258065
21210,Baltimore city,MD,84.46069469835467,NA
21401,Anne Arundel County,MD,NA,32.58064516129032
01002,Hampshire County,MA,NA,51.61290322580645
01108,Hampden County,MA,0.3656307129798903,NA
01109,Hampden County,MA,NA,9.35483870967742
01226,Berkshire County,MA,NA,59.67741935483871
01267,Berkshire County,MA,71.29798903107861,NA
01501,Worcester County,MA,25.59414990859232,NA
01516,Worcester County,MA,25.411334552102378,NA
01570,Worcester County,MA,1.6453382084095063,NA
01590,Worcester County,MA,62.3400365630713,NA
01606,Worcester County,MA,NA,17.419354838709676
01701,Middlesex County,MA,5.484460694698354,6.774193548387098
01720,Middlesex County,MA,26.142595978062154,33.5483870967742
01746,Middlesex County,MA,13.345521023765997,NA
01747,Worcester County,MA,85.37477148080438,NA
01748,Middlesex County,MA,35.10054844606947,NA
01757,Worcester County,MA,NA,30.64516129032258
01810,Essex County,MA,81.53564899451554,NA
01824,Middlesex County,MA,4.753199268738574,NA
01867,Middlesex County,MA,50.45703839122486,NA
01886,Middlesex County,MA,79.89031078610603,NA
01887,Middlesex County,MA,NA,1.935483870967742
01902,Essex County,MA,19.012797074954296,NA
01905,Essex County,MA,17.36745886654479,NA
01907,Essex County,MA,82.6325411334552,NA
01945,Essex County,MA,31.992687385740403,NA
01966,Essex County,MA,55.94149908592322,NA
02035,Norfolk County,MA,NA,23.870967741935484
02053,Norfolk County,MA,40.21937842778793,NA
02081,Norfolk County,MA,NA,47.74193548387097
02116,Suffolk County,MA,NA,2.903225806451613
02139,Middlesex County,MA,NA,53.87096774193548
02144,Middlesex County,MA,NA,43.225806451612904
02145,Middlesex County,MA,15.722120658135283,NA
02148,Middlesex County,MA,NA,72.25806451612902
02151,Suffolk County,MA,0,NA
02155,Middlesex County,MA,NA,35.80645161290323
02176,Middlesex County,MA,3.473491773308958,NA
02184,Norfolk County,MA,18.281535648994517,NA
02186,Norfolk County,MA,34.91773308957952,NA
02382,Plymouth County,MA,18.46435100548446,NA
02446,Norfolk County,MA,12.065813528336381,NA
02474,Middlesex County,MA,70.56672760511883,NA
02481,Norfolk County,MA,47.714808043875685,NA
02492,Norfolk County,MA,NA,27.419354838709676
02563,Barnstable County,MA,59.78062157221207,NA
02724,Bristol County,MA,NA,63.54838709677419
02780,Bristol County,MA,0.18281535648994515,NA
48026,Macomb County,MI,27.605118829981716,NA
48065,Macomb County,MI,91.40767824497257,NA
48067,Oakland County,MI,81.71846435100548,NA
48073,Oakland County,MI,NA,36.774193548387096
48085,Oakland County,MI,NA,28.387096774193548
48091,Macomb County,MI,NA,17.096774193548388
48124,Wayne County,MI,12.431444241316271,NA
48135,Wayne County,MI,NA,24.516129032258064
48141,Wayne County,MI,NA,17.741935483870968
48165,Oakland County,MI,67.64168190127971,NA
48169,Livingston County,MI,39.6709323583181,NA
48170,Wayne County,MI,7.678244972577697,NA
48187,Wayne County,MI,28.70201096892139,NA
48192,Wayne County,MI,41.49908592321755,NA
48195,Wayne County,MI,16.819012797074954,NA
48197,Washtenaw County,MI,0.9140767824497258,NA
48218,Wayne County,MI,83.72943327239489,NA
48225,Wayne County,MI,59.96343692870201,NA
48304,Oakland County,MI,95.97806215722122,NA
48309,Oakland County,MI,25.776965265082268,NA
48317,Macomb County,MI,NA,20
48324,Oakland County,MI,89.57952468007313,NA
48331,Oakland County,MI,28.884826325411332,NA
48336,Oakland County,MI,NA,93.54838709677419
48346,Oakland County,MI,59.04936014625228,NA
48375,Oakland County,MI,68.55575868372942,NA
48383,Oakland County,MI,82.08409506398537,NA
48415,Saginaw County,MI,40.40219378427788,NA
48462,Oakland County,MI,87.0201096892139,NA
48503,Genesee County,MI,10.786106032906764,NA
48623,Saginaw County,MI,34.552102376599635,NA
48706,Bay County,MI,NA,1.2903225806451613
48734,Saginaw County,MI,NA,75.48387096774194
48801,Gratiot County,MI,39.30530164533821,NA
48823,Ingham County,MI,70.38391224862889,26.451612903225808
48827,Eaton County,MI,33.27239488117002,NA
48840,Ingham County,MI,96.3436928702011,NA
48867,Shiawassee County,MI,21.206581352833638,NA
48917,Eaton County,MI,4.570383912248629,NA
49009,Kalamazoo County,MI,7.129798903107861,NA
49012,Kalamazoo County,MI,93.78427787934186,NA
49031,Cass County,MI,75.3199268738574,NA
49073,Barry County,MI,NA,97.74193548387096
49127,Berrien County,MI,69.83546617915904,NA
49203,Jackson County,MI,NA,7.741935483870968
49505,Kent County,MI,16.453382084095065,NA
49525,Kent County,MI,NA,24.193548387096776
49643,Grand Traverse County,MI,NA,89.03225806451613
49802,Dickinson County,MI,64.16819012797075,NA
49829,Delta County,MI,84.64351005484461,NA
49854,Schoolcraft County,MI,89.03107861060329,NA
55060,Steele County,MN,58.50091407678245,NA
55112,Ramsey County,MN,32.541133455210236,NA
55303,Anoka County,MN,NA,36.45161290322581
55304,Anoka County,MN,31.62705667276051,NA
55432,Anoka County,MN,15.904936014625228,NA
55806,St. Louis County,MN,81.90127970749543,NA
55976,Olmsted County,MN,86.28884826325411,NA
56001,Blue Earth County,MN,78.79341864716636,NA
56431,Aitkin County,MN,NA,73.22580645161291
63116,St. Louis city,MO,NA,52.903225806451616
63141,St. Louis County,MO,NA,69.03225806451613
63801,Scott County,MO,72.39488117001828,NA
64030,Jackson County,MO,NA,18.064516129032256
64052,Jackson County,MO,NA,38.387096774193544
64060,Clay County,MO,NA,62.903225806451616
64068,Clay County,MO,25.22851919561243,NA
64080,Cass County,MO,52.6508226691042,NA
64081,Jackson County,MO,37.111517367458866,NA
64083,Cass County,MO,28.336380255941503,NA
64116,Clay County,MO,17.184643510054844,NA
64127,Jackson County,MO,2.5594149908592323,NA
64138,Jackson County,MO,6.39853747714808,NA
59802,Missoula County,MT,NA,82.58064516129032
68022,Douglas County,NE,95.24680073126143,NA
68116,Douglas County,NE,49.90859232175503,NA
68142,Douglas County,NE,96.89213893967093,NA
68333,Saline County,NE,NA,91.29032258064517
89108,Clark County,NV,14.442413162705666,NA
89130,Clark County,NV,NA,52.903225806451616
89410,Douglas County,NV,78.61060329067642,NA
89445,Humboldt County,NV,NA,78.06451612903226
03060,Hillsborough County,NH,2.9250457038391224,NA
03062,Hillsborough County,NH,NA,55.16129032258065
03079,Rockingham County,NH,64.89945155393053,NA
03087,Rockingham County,NH,41.3162705667276,NA
03103,Hillsborough County,NH,NA,42.25806451612903
03755,Grafton County,NH,NA,80.64516129032258
03820,Strafford County,NH,14.259597806215721,NA
07009,Essex County,NJ,69.6526508226691,NA
07054,Morris County,NJ,43.144424131627055,NA
07076,Union County,NJ,76.78244972577697,NA
07087,Hudson County,NJ,72.0292504570384,NA
07109,Essex County,NJ,82.08409506398537,NA
07110,Essex County,NJ,NA,54.19354838709678
07302,Hudson County,NJ,86.28884826325411,NA
07417,Bergen County,NJ,79.15904936014626,NA
07631,Bergen County,NJ,66.54478976234005,NA
07712,Monmouth County,NJ,NA,5.806451612903226
07726,Monmouth County,NJ,21.755027422303474,NA
07731,Monmouth County,NJ,23.03473491773309,NA
07740,Monmouth County,NJ,NA,7.096774193548387
07750,Monmouth County,NJ,98.72029250457038,NA
07753,Monmouth County,NJ,74.9542961608775,10.967741935483872
07901,Union County,NJ,85.0091407678245,NA
08021,Camden County,NJ,NA,8.709677419354838
08052,Burlington County,NJ,50.6398537477148,NA
08065,Burlington County,NJ,61.79159049360147,NA
08069,Salem County,NJ,NA,46.45161290322581
08081,Camden County,NJ,0.5484460694698354,NA
08083,Camden County,NJ,NA,70
08085,Gloucester County,NJ,NA,78.38709677419354
08096,Gloucester County,NJ,1.8281535648994516,NA
08215,Atlantic County,NJ,NA,88.70967741935483
08520,Mercer County,NJ,68.73857404021938,NA
08742,Ocean County,NJ,21.389396709323584,NA
08755,Ocean County,NJ,46.983546617915906,NA
08759,Ocean County,NJ,NA,0.967741935483871
08825,Hunterdon County,NJ,NA,99.67741935483872
08854,Middlesex County,NJ,NA,14.516129032258066
08857,Middlesex County,NJ,4.021937842778794,NA
87111,Bernalillo County,NM,NA,75.16129032258064
87120,Bernalillo County,NM,NA,15.161290322580644
87124,Sandoval County,NM,5.850091407678245,NA
87144,Sandoval County,NM,12.614259597806216,NA
87413,San Juan County,NM,43.51005484460695,NA
10012,New York County,NY,74.77148080438756,NA
10021,New York County,NY,90.31078610603291,NA
10025,New York County,NY,2.376599634369287,0
10031,New York County,NY,92.87020109689213,NA
10306,Richmond County,NY,11.882998171846435,NA
10309,Richmond County,NY,48.81170018281536,NA
10455,Bronx County,NY,78.42778793418648,NA
10461,Bronx County,NY,NA,94.51612903225806
10463,Bronx County,NY,3.656307129798903,NA
10538,Westchester County,NY,98.90310786106032,NA
10901,Rockland County,NY,NA,64.19354838709678
10954,Rockland County,NY,46.06946983546618,NA
11101,Queens County,NY,46.80073126142596,NA
11206,Kings County,NY,NA,14.838709677419354
11222,Kings County,NY,49.725776965265084,NA
11224,Kings County,NY,NA,4.193548387096775
11229,Kings County,NY,49.36014625228519,NA
11237,Kings County,NY,80.80438756855575,NA
11709,Nassau County,NY,NA,95.16129032258065
11741,Suffolk County,NY,NA,63.87096774193548
12095,Fulton County,NY,35.46617915904936,NA
12203,Albany County,NY,NA,42.90322580645161
12526,Columbia County,NY,98.53747714808044,NA
12561,Ulster County,NY,85.37477148080438,NA
12804,Warren County,NY,54.47897623400365,NA
12866,Saratoga County,NY,7.861060329067642,11.612903225806452
12944,Essex County,NY,NA,80.96774193548387
13068,Tompkins County,NY,96.70932358318099,NA
13090,Onondaga County,NY,9.323583180987203,NA
13203,Onondaga County,NY,NA,52.25806451612903
13304,Oneida County,NY,NA,99.03225806451613
13326,Otsego County,NY,61.24314442413162,NA
13357,Herkimer County,NY,27.056672760511884,NA
13808,Otsego County,NY,NA,96.12903225806451
13849,Otsego County,NY,97.44058500914076,NA
14127,Erie County,NY,8.775137111517367,16.451612903225808
14209,Erie County,NY,NA,70.3225806451613
14213,Erie County,NY,11.3345521023766,NA
14214,Erie County,NY,23.76599634369287,NA
14221,Erie County,NY,NA,1.6129032258064515
14223,Erie County,NY,NA,69.6774193548387
14228,Erie County,NY,37.842778793418645,NA
14420,Monroe County,NY,8.957952468007313,NA
14472,Monroe County,NY,39.48811700182816,NA
14559,Monroe County,NY,NA,90.96774193548387
14561,Ontario County,NY,71.84643510054845,NA
14580,Monroe County,NY,3.1078610603290677,NA
14591,Wyoming County,NY,91.0420475319927,NA
14727,Allegany County,NY,63.07129798903108,NA
14760,Cattaraugus County,NY,5.118829981718465,NA
14837,Yates County,NY,91.59049360146253,NA
14845,Chemung County,NY,NA,27.741935483870968
14850,Tompkins County,NY,2.1937842778793417,NA
27282,Guilford County,NC,NA,73.54838709677419
27360,Davidson County,NC,1.2797074954296161,NA
27516,Orange County,NC,23.40036563071298,NA
27520,Johnston County,NC,54.296160877513714,NA
27525,Franklin County,NC,73.6745886654479,NA
27565,Granville County,NC,15.173674588665447,NA
27612,Wake County,NC,NA,40.96774193548387
27713,Durham County,NC,63.25411334552102,NA
28016,Gaston County,NC,64.3510054844607,NA
28025,Cabarrus County,NC,59.41499085923218,NA
28036,Mecklenburg County,NC,73.85740402193784,NA
28078,Mecklenburg County,NC,NA,33.225806451612904
28117,Iredell County,NC,22.120658135283364,NA
28150,Cleveland County,NC,61.97440585009141,NA
28173,Union County,NC,82.9981718464351,NA
28208,Mecklenburg County,NC,NA,24.516129032258064
28211,Mecklenburg County,NC,22.486288848263253,NA
28570,Carteret County,NC,44.424131627056674,NA
28645,Caldwell County,NC,12.79707495429616,NA
28655,Burke County,NC,35.64899451553931,NA
28734,Macon County,NC,39.122486288848265,NA
58554,Morton County,ND,NA,26.7741935483871
43026,Franklin County,OH,NA,21.29032258064516
43035,Delaware County,OH,NA,79.6774193548387
43068,Franklin County,OH,NA,12.580645161290322
43119,Franklin County,OH,NA,49.67741935483871
43130,Fairfield County,OH,NA,19.032258064516128
43326,Hardin County,OH,NA,43.87096774193549
43543,Williams County,OH,57.22120658135283,NA
43611,Lucas County,OH,8.043875685557587,NA
43964,Jefferson County,OH,94.6983546617916,NA
44039,Lorain County,OH,NA,2.5806451612903225
44056,Summit County,OH,NA,53.5483870967742
44074,Lorain County,OH,NA,77.09677419354838
44092,Lake County,OH,33.820840950639855,NA
44102,Cuyahoga County,OH,NA,18.70967741935484
44106,Cuyahoga County,OH,NA,48.70967741935484
44124,Cuyahoga County,OH,NA,2.258064516129032
44136,Cuyahoga County,OH,50.822669104204756,NA
44138,Cuyahoga County,OH,NA,23.225806451612904
44140,Cuyahoga County,OH,NA,29.677419354838708
44145,Cuyahoga County,OH,NA,3.870967741935484
44202,Portage County,OH,54.844606946983546,NA
44262,Summit County,OH,NA,92.25806451612904
44418,Trumbull County,OH,96.16087751371116,NA
44446,Trumbull County,OH,52.10237659963437,NA
44502,Mahoning County,OH,33.089579524680076,NA
44512,Mahoning County,OH,47.16636197440585,NA
44515,Mahoning County,OH,NA,13.548387096774196
44644,Carroll County,OH,NA,97.41935483870968
44685,Summit County,OH,NA,22.58064516129032
44721,Stark County,OH,72.76051188299817,NA
44904,Richland County,OH,NA,84.19354838709677
45011,Butler County,OH,1.0968921389396709,NA
45069,Butler County,OH,15.356489945155394,NA
45102,Clermont County,OH,NA,55.483870967741936
45133,Highland County,OH,NA,20.967741935483872
45177,Clinton County,OH,NA,34.83870967741935
45205,Hamilton County,OH,14.625228519195613,NA
45324,Greene County,OH,4.93601462522852,NA
45342,Montgomery County,OH,NA,11.29032258064516
45380,Darke County,OH,NA,96.7741935483871
45424,Montgomery County,OH,NA,11.935483870967742
45426,Montgomery County,OH,NA,82.25806451612904
45449,Montgomery County,OH,NA,48.38709677419355
45505,Clark County,OH,83.54661791590493,NA
45692,Jackson County,OH,26.691042047531994,NA
45840,Hancock County,OH,NA,20.64516129032258
73044,Logan County,OK,42.96160877513711,NA
73071,Cleveland County,OK,NA,15.806451612903224
73132,Oklahoma County,OK,45.703839122486286,NA
73170,Cleveland County,OK,24.131627056672762,NA
73737,Major County,OK,96.52650822669105,NA
74011,Tulsa County,OK,NA,46.12903225806452
74820,Pontotoc County,OK,NA,62.25806451612903
97045,Clackamas County,OR,53.016453382084094,NA
97048,Columbia County,OR,NA,87.09677419354838
97055,Clackamas County,OR,NA,51.29032258064517
97056,Columbia County,OR,NA,92.58064516129032
97116,Washington County,OR,91.77330895795247,NA
97220,Multnomah County,OR,26.87385740402194,NA
97222,Clackamas County,OR,NA,65.48387096774194
97224,Washington County,OR,NA,66.77419354838709
97232,Multnomah County,OR,73.308957952468,NA
97321,Linn County,OR,NA,76.12903225806451
97325,Marion County,OR,90.85923217550274,NA
97355,Linn County,OR,NA,4.838709677419355
97381,Marion County,OR,NA,61.935483870967744
97471,Douglas County,OR,67.09323583180988,NA
97520,Jackson County,OR,NA,49.354838709677416
97527,Josephine County,OR,35.831809872029254,NA
97540,Jackson County,OR,NA,91.93548387096774
15068,Westmoreland County,PA,11.151736745886655,NA
15085,Westmoreland County,PA,81.35283363802559,NA
15102,Allegheny County,PA,NA,27.09677419354839
15108,Allegheny County,PA,76.05118829981718,NA
15136,Allegheny County,PA,NA,38.70967741935484
15146,Allegheny County,PA,38.57404021937843,NA
15218,Allegheny County,PA,NA,55.483870967741936
15227,Allegheny County,PA,NA,22.258064516129032
15235,Allegheny County,PA,NA,78.70967741935485
15317,Washington County,PA,20.840950639853748,10.64516129032258
15601,Westmoreland County,PA,NA,0.6451612903225806
15642,Westmoreland County,PA,14.80804387568556,NA
15683,Westmoreland County,PA,NA,89.6774193548387
15701,Indiana County,PA,13.711151736745887,NA
16057,Butler County,PA,NA,73.54838709677419
16066,Butler County,PA,NA,41.29032258064516
16117,Lawrence County,PA,NA,46.774193548387096
16137,Mercer County,PA,NA,65.80645161290323
16214,Clarion County,PA,63.43692870201097,NA
17013,Cumberland County,PA,NA,83.87096774193549
17044,Mifflin County,PA,NA,8.38709677419355
17103,Dauphin County,PA,30.53016453382084,NA
17325,Adams County,PA,NA,30
17331,York County,PA,NA,0.3225806451612903
17402,York County,PA,10.968921389396709,NA
17601,Lancaster County,PA,26.3254113345521,NA
17603,Lancaster County,PA,NA,10
17754,Lycoming County,PA,NA,97.09677419354838
17815,Columbia County,PA,38.93967093235832,NA
17821,Montour County,PA,17.73308957952468,NA
18020,Northampton County,PA,33.63802559414991,NA
18088,Northampton County,PA,56.30712979890311,NA
18103,Lehigh County,PA,NA,5.161290322580645
18201,Luzerne County,PA,42.77879341864717,NA
18444,Lackawanna County,PA,48.446069469835464,NA
18518,Lackawanna County,PA,NA,87.74193548387098
18707,Luzerne County,PA,NA,64.83870967741936
18840,Bradford County,PA,53.199268738574034,NA
18901,Bucks County,PA,64.71663619744058,NA
18940,Bucks County,PA,51.37111517367459,NA
19046,Montgomery County,PA,36.38025594149909,NA
19047,Bucks County,PA,84.27787934186472,NA
19053,Bucks County,PA,23.583180987202926,NA
19067,Bucks County,PA,10.420475319926874,NA
19078,Delaware County,PA,NA,87.41935483870968
19079,Delaware County,PA,81.17001828153565,NA
19111,Philadelphia County,PA,1.4625228519195612,NA
19137,Philadelphia County,PA,99.6343692870201,NA
19140,Philadelphia County,PA,NA,10.32258064516129
19148,Philadelphia County,PA,NA,15.483870967741936
19335,Chester County,PA,9.689213893967093,NA
19380,Chester County,PA,6.946983546617916,NA
19454,Montgomery County,PA,NA,76.77419354838709
19522,Berks County,PA,53.74771480804388,NA
19530,Berks County,PA,NA,63.2258064516129
02879,Washington County,RI,88.48263254113346,37.41935483870968
02909,Providence County,RI,11.517367458866545,NA
29072,Lexington County,SC,18.82998171846435,NA
29169,Lexington County,SC,NA,56.451612903225815
29306,Spartanburg County,SC,29.06764168190128,NA
29445,Berkeley County,SC,74.58866544789763,NA
29492,Berkeley County,SC,95.61243144424132,NA
29576,Horry County,SC,NA,13.870967741935484
29579,Horry County,SC,45.155393053016454,NA
29588,Horry County,SC,28.153564899451556,NA
29617,Greenville County,SC,NA,38.064516129032256
29661,Greenville County,SC,NA,95.48387096774194
29678,Oconee County,SC,NA,34.516129032258064
57042,Lake County,SD,NA,47.41935483870968
57103,Minnehaha County,SD,16.087751371115175,NA
37072,Davidson County,TN,23.217550274223033,NA
37122,Wilson County,TN,51.553930530164536,25.161290322580644
37183,Bedford County,TN,99.81718464351006,NA
37615,Washington County,TN,48.9945155393053,NA
37849,Knox County,TN,30.895795246800734,NA
37863,Sevier County,TN,72.57769652650823,NA
37890,Jefferson County,TN,83.36380255941499,NA
37918,Knox County,TN,8.226691042047532,NA
38106,Shelby County,TN,9.506398537477148,NA
38118,Shelby County,TN,10.603290676416819,NA
38133,Shelby County,TN,NA,86.12903225806451
38237,Weakley County,TN,NA,60.64516129032258
38257,Obion County,TN,82.81535648994516,NA
38305,Madison County,TN,NA,60
38483,Lawrence County,TN,NA,88.06451612903226
38485,Wayne County,TN,NA,86.45161290322581
38501,Putnam County,TN,11.70018281535649,NA
38555,Cumberland County,TN,30.712979890310788,NA
75006,Dallas County,TX,36.92870201096892,NA
75023,Collin County,TX,43.875685557586834,NA
75035,Collin County,TX,30.16453382084095,NA
75044,Dallas County,TX,70.93235831809872,NA
75056,Denton County,TX,23.948811700182816,NA
75057,Denton County,TX,74.04021937842778,NA
75202,Dallas County,TX,99.08592321755027,NA
75228,Dallas County,TX,2.742230347349177,NA
75751,Henderson County,TX,NA,50.32258064516129
76006,Tarrant County,TX,58.13528336380256,NA
76016,Tarrant County,TX,55.758683729433265,NA
76028,Johnson County,TX,6.032906764168191,3.225806451612903
76063,Tarrant County,TX,35.283363802559414,NA
76109,Tarrant County,TX,48.263254113345525,NA
76513,Bell County,TX,82.44972577696527,NA
76901,Tom Green County,TX,NA,31.290322580645164
77027,Harris County,TX,89.21389396709324,NA
77035,Harris County,TX,NA,79.03225806451613
77040,Harris County,TX,NA,29.354838709677416
77063,Harris County,TX,80.43875685557586,NA
77071,Harris County,TX,51.18829981718464,NA
77336,Harris County,TX,NA,71.93548387096774
77354,Montgomery County,TX,NA,45.806451612903224
77373,Harris County,TX,20.6581352833638,NA
77381,Montgomery County,TX,NA,37.41935483870968
77429,Harris County,TX,31.078610603290674,NA
77506,Harris County,TX,49.54296160877514,NA
77521,Harris County,TX,20.29250457038391,NA
77532,Harris County,TX,32.17550274223035,NA
77535,Liberty County,TX,31.26142595978062,NA
77642,Jefferson County,TX,78.24497257769653,NA
77657,Hardin County,TX,47.89762340036563,NA
77665,Chambers County,TX,NA,93.87096774193549
78028,Kerr County,TX,29.61608775137112,NA
78148,Bexar County,TX,90.6764168190128,NA
78232,Bexar County,TX,62.888482632541134,NA
78245,Bexar County,TX,NA,50.645161290322584
78247,Bexar County,TX,44.24131627056673,NA
78253,Bexar County,TX,84.09506398537478,NA
78254,Bexar County,TX,36.56307129798903,NA
78332,Jim Wells County,TX,52.28519195612431,NA
78501,Hidalgo County,TX,38.02559414990859,NA
78573,Hidalgo County,TX,71.11517367458866,NA
78613,Williamson County,TX,NA,68.38709677419355
78634,Williamson County,TX,NA,61.29032258064516
78665,Williamson County,TX,42.04753199268739,NA
78738,Travis County,TX,71.66361974405851,NA
78739,Travis County,TX,91.22486288848263,NA
78757,Travis County,TX,NA,88.38709677419355
79329,Lubbock County,TX,94.3327239488117,NA
79363,Lubbock County,TX,95.79524680073126,NA
79762,Ector County,TX,19.926873857404022,NA
79935,El Paso County,TX,77.3308957952468,75.80645161290323
84003,Utah County,UT,63.61974405850091,NA
84041,Davis County,UT,28.519195612431442,NA
84075,Davis County,UT,60.877513711151735,NA
84093,Salt Lake County,UT,NA,50
84105,Salt Lake County,UT,NA,85.80645161290322
84108,Salt Lake County,UT,77.51371115173674,NA
84121,Salt Lake County,UT,32.17550274223035,NA
84129,,UT,NA,28.70967741935484
84405,Weber County,UT,NA,58.06451612903226
84663,Utah County,UT,NA,85.16129032258064
84770,Washington County,UT,30.347349177330894,NA
84780,Washington County,UT,NA,49.03225806451613
05001,Windsor County,VT,NA,83.22580645161291
20112,Prince William County,VA,NA,76.45161290322581
20152,Loudoun County,VA,66.72760511882998,NA
20175,Loudoun County,VA,NA,68.70967741935485
22030,Fairfax County,VA,22.30347349177331,29.03225806451613
22033,Fairfax County,VA,NA,58.387096774193544
22202,Arlington County,VA,85.92321755027422,NA
22207,Arlington County,VA,44.60694698354662,NA
22302,Alexandria city,VA,80.62157221206581,NA
22305,Alexandria city,VA,63.80255941499085,NA
22315,Fairfax County,VA,46.61791590493601,57.096774193548384
22572,Richmond County,VA,86.83729433272394,NA
22901,Albemarle County,VA,NA,25.806451612903224
22942,Louisa County,VA,71.29798903107861,NA
22980,Waynesboro city,VA,4.387568555758683,NA
23061,Gloucester County,VA,53.56489945155393,NA
23223,Henrico County,VA,NA,14.193548387096774
23503,Norfolk city,VA,NA,40
23666,Hampton city,VA,NA,12.903225806451612
23803,Petersburg city,VA,6.581352833638025,NA
23831,Chesterfield County,VA,NA,31.61290322580645
24551,Bedford County,VA,75.86837294332724,NA
98005,King County,WA,NA,91.61290322580645
98034,King County,WA,24.680073126142595,NA
98040,King County,WA,60.146252285191956,NA
98075,King County,WA,68.92138939670932,NA
98203,Snohomish County,WA,38.20840950639854,NA
98208,Snohomish County,WA,13.528336380255942,NA
98258,Snohomish County,WA,73.12614259597807,NA
98273,Skagit County,WA,51.005484460694696,NA
98370,Kitsap County,WA,61.425959780621575,NA
98826,Chelan County,WA,NA,96.12903225806451
99336,Benton County,WA,NA,36.12903225806451
99344,Adams County,WA,86.10603290676416,NA
99354,Benton County,WA,32.72394881170018,NA
97003,NA,NA,70.20109689213893,NA
20003,District of Columbia,DC,41.681901279707496,NA
25411,Morgan County,WV,65.63071297989032,NA
25414,Jefferson County,WV,NA,70.3225806451613
26047,Hancock County,WV,91.9561243144424,NA
26187,Wood County,WV,57.038391224862885,NA
53045,Waukesha County,WI,75.13711151736746,NA
53115,Walworth County,WI,40.58500914076782,NA
53150,Waukesha County,WI,NA,40.32258064516129
53151,Waukesha County,WI,60.69469835466179,NA
53154,Milwaukee County,WI,NA,80.3225806451613
53158,Kenosha County,WI,13.16270566727605,NA
53177,Racine County,WI,92.68738574040219,NA
53186,Waukesha County,WI,19.378427787934186,NA
53208,Milwaukee County,WI,6.032906764168191,NA
53211,Milwaukee County,WI,55.21023765996343,NA
53235,Milwaukee County,WI,56.12431444241316,NA
53406,Racine County,WI,8.592321755027422,NA
53511,Rock County,WI,3.2906764168190126,NA
53946,Green Lake County,WI,95.06398537477148,NA
54115,Brown County,WI,37.47714808043875,NA
54166,Shawano County,WI,58.866544789762344,NA
54241,Manitowoc County,WI,NA,37.096774193548384
54311,Brown County,WI,89.76234003656307,NA
54494,Wood County,WI,22.6691042047532,NA
54603,La Crosse County,WI,NA,23.548387096774192
54636,La Crosse County,WI,80.07312614259597,NA
54667,Vernon County,WI,93.05301645338209,NA
54703,Eau Claire County,WI,NA,30.967741935483872
54755,Buffalo County,WI,87.20292504570384,NA
54902,Winnebago County,WI,44.78976234003657,NA
54956,Winnebago County,WI,NA,33.87096774193548
82414,Park County,WY,NA,72.58064516129032
