ZipCode,county,state,Adult,Retirement,Geriatric
35160,Talladega County,AL,43.741209563994374,NA,NA
35173,Jefferson County,AL,NA,37.055016181229774,NA
35578,Walker County,AL,73.83966244725738,NA,NA
35601,Morgan County,AL,NA,NA,29.01960784313726
35645,Lauderdale County,AL,63.71308016877637,NA,NA
35672,Lawrence County,AL,68.07313642756681,NA,NA
35803,Madison County,AL,78.19971870604782,NA,28.627450980392155
35806,Madison County,AL,90.57665260196906,NA,NA
35962,DeKalb County,AL,75.10548523206751,NA,NA
36067,Autauga County,AL,33.0520393811533,NA,NA
36091,Chilton County,AL,NA,90.77669902912622,NA
36108,Montgomery County,AL,64.41631504922644,59.54692556634305,NA
36207,Calhoun County,AL,NA,52.9126213592233,NA
36360,Dale County,AL,43.88185654008439,NA,NA
36420,Covington County,AL,NA,80.74433656957929,NA
36502,Escambia County,AL,NA,39.482200647249186,NA
36507,Baldwin County,AL,NA,57.60517799352751,NA
36526,Baldwin County,AL,NA,NA,26.27450980392157
36532,Baldwin County,AL,82.9817158931083,NA,NA
36701,Dallas County,AL,NA,28.478964401294498,NA
36863,Chambers County,AL,NA,NA,96.07843137254902
36875,Russell County,AL,NA,78.80258899676376,NA
99515,Anchorage Municipality,AK,60.056258790436004,NA,NA
99654,Matanuska-Susitna Borough,AK,NA,37.86407766990291,NA
99701,Fairbanks North Star Borough,AK,32.34880450070324,NA,NA
85014,Maricopa County,AZ,42.19409282700422,NA,NA
85016,Maricopa County,AZ,40.225035161744024,NA,NA
85022,Maricopa County,AZ,17.440225035161745,NA,NA
85028,Maricopa County,AZ,NA,54.69255663430421,NA
85086,Maricopa County,AZ,63.57243319268636,NA,NA
85143,Pinal County,AZ,NA,61.48867313915858,NA
85213,Maricopa County,AZ,76.09001406469761,NA,NA
85258,Maricopa County,AZ,NA,NA,32.549019607843135
85305,Maricopa County,AZ,87.0604781997187,NA,NA
85344,La Paz County,AZ,NA,32.200647249190936,NA
85365,Yuma County,AZ,25.59774964838256,NA,NA
85375,Maricopa County,AZ,NA,74.75728155339806,NA
85388,Maricopa County,AZ,NA,71.84466019417476,NA
85501,Gila County,AZ,65.82278481012658,NA,NA
85541,Gila County,AZ,NA,NA,24.313725490196077
85602,Cochise County,AZ,NA,86.56957928802589,NA
85648,Santa Cruz County,AZ,47.9606188466948,NA,NA
85653,Pima County,AZ,NA,34.14239482200647,NA
85706,Pima County,AZ,NA,6.634304207119741,43.529411764705884
85929,Navajo County,AZ,NA,NA,80
86004,Coconino County,AZ,5.20393811533052,NA,NA
86046,Coconino County,AZ,86.07594936708861,NA,NA
86305,Yavapai County,AZ,NA,32.038834951456316,NA
86322,Yavapai County,AZ,NA,55.8252427184466,NA
86324,Yavapai County,AZ,83.82559774964838,NA,NA
86325,Yavapai County,AZ,NA,78.31715210355988,NA
86326,Yavapai County,AZ,NA,20.550161812297734,NA
86336,Yavapai County,AZ,NA,NA,64.70588235294117
86426,Mohave County,AZ,NA,47.249190938511326,NA
72015,Saline County,AR,49.08579465541491,NA,NA
72088,Van Buren County,AR,NA,91.9093851132686,NA
72104,Hot Spring County,AR,52.18002812939522,NA,NA
72120,Pulaski County,AR,NA,13.592233009708737,NA
72207,Pulaski County,AR,NA,NA,79.6078431372549
72715,Benton County,AR,NA,NA,93.33333333333333
72762,Washington County,AR,44.163150492264414,NA,NA
90019,Los Angeles County,CA,NA,24.433656957928804,NA
90022,Los Angeles County,CA,33.61462728551336,NA,NA
90065,Los Angeles County,CA,NA,85.27508090614887,NA
90221,Los Angeles County,CA,9.142053445850914,NA,NA
90245,Los Angeles County,CA,NA,56.148867313915865,NA
90278,Los Angeles County,CA,54.9929676511955,NA,NA
90404,Los Angeles County,CA,32.48945147679325,82.84789644012946,NA
90602,Los Angeles County,CA,NA,51.45631067961165,NA
90631,Orange County,CA,NA,71.19741100323624,NA
90703,Los Angeles County,CA,NA,30.906148867313917,NA
90731,Los Angeles County,CA,28.41068917018284,NA,NA
90805,Los Angeles County,CA,14.908579465541491,22.006472491909385,NA
91042,Los Angeles County,CA,NA,80.58252427184466,NA
91104,Los Angeles County,CA,NA,NA,39.21568627450981
91201,Los Angeles County,CA,76.65260196905767,NA,NA
91205,Los Angeles County,CA,NA,44.49838187702265,NA
91206,Los Angeles County,CA,NA,NA,9.411764705882353
91301,Los Angeles County,CA,66.1040787623066,NA,NA
91352,Los Angeles County,CA,NA,39.967637540453076,83.92156862745098
91356,Los Angeles County,CA,NA,NA,57.647058823529406
91750,Los Angeles County,CA,NA,37.37864077669903,NA
91941,San Diego County,CA,NA,41.58576051779935,NA
92026,San Diego County,CA,NA,42.71844660194174,NA
92037,San Diego County,CA,NA,NA,56.470588235294116
92069,San Diego County,CA,NA,47.73462783171521,NA
92071,San Diego County,CA,NA,NA,21.96078431372549
92101,San Diego County,CA,NA,NA,36.470588235294116
92126,San Diego County,CA,66.80731364275668,NA,NA
92131,San Diego County,CA,NA,NA,83.13725490196079
92231,Imperial County,CA,NA,11.003236245954692,NA
92264,Riverside County,CA,NA,77.831715210356,NA
92404,San Bernardino County,CA,NA,28.802588996763756,NA
92553,Riverside County,CA,54.57102672292545,NA,NA
92618,Orange County,CA,55.9774964838256,NA,NA
92646,Orange County,CA,NA,NA,7.450980392156863
92649,Orange County,CA,NA,27.02265372168285,NA
92651,Orange County,CA,NA,NA,31.76470588235294
92683,Orange County,CA,NA,16.990291262135923,NA
92692,Orange County,CA,NA,22.815533980582526,NA
92705,Orange County,CA,NA,46.763754045307444,NA
92706,Orange County,CA,85.93530239099859,NA,NA
92821,Orange County,CA,NA,43.203883495145625,NA
92831,Orange County,CA,48.38255977496484,NA,NA
93003,Ventura County,CA,NA,17.313915857605178,NA
93023,Ventura County,CA,NA,83.33333333333334,53.72549019607843
93063,Ventura County,CA,NA,23.948220064724918,NA
93215,Kern County,CA,53.867791842475384,NA,NA
93257,Tulare County,CA,39.52180028129395,NA,18.43137254901961
93307,Kern County,CA,11.954992967651195,NA,NA
93308,Kern County,CA,NA,28.155339805825243,NA
93312,Kern County,CA,35.58368495077356,NA,NA
93422,San Luis Obispo County,CA,NA,41.42394822006473,NA
93442,San Luis Obispo County,CA,NA,69.41747572815534,NA
93555,Kern County,CA,NA,49.029126213592235,NA
93631,Fresno County,CA,82.70042194092827,NA,NA
93726,Fresno County,CA,19.12798874824191,NA,NA
94002,San Mateo County,CA,NA,NA,45.88235294117647
94015,San Mateo County,CA,NA,8.25242718446602,NA
94025,San Mateo County,CA,NA,NA,89.41176470588236
94044,San Mateo County,CA,NA,26.051779935275082,NA
94103,San Francisco County,CA,NA,NA,13.333333333333334
94110,San Francisco County,CA,NA,NA,19.215686274509807
94132,San Francisco County,CA,NA,85.92233009708737,NA
94501,Alameda County,CA,NA,NA,20.784313725490197
94507,Contra Costa County,CA,NA,61.81229773462783,NA
94513,Contra Costa County,CA,31.926863572433195,NA,NA
94531,Contra Costa County,CA,NA,44.336569579288025,NA
94541,Alameda County,CA,21.518987341772153,NA,NA
94545,Alameda County,CA,NA,61.003236245954696,NA
94549,Contra Costa County,CA,NA,51.94174757281553,NA
94558,Napa County,CA,NA,5.016181229773463,NA
94561,Contra Costa County,CA,35.86497890295359,NA,NA
94587,Alameda County,CA,NA,19.41747572815534,NA
94591,Solano County,CA,58.50914205344585,NA,NA
94606,Alameda County,CA,NA,84.14239482200647,NA
94610,Alameda County,CA,57.52461322081576,NA,NA
94611,Alameda County,CA,NA,20.87378640776699,NA
94703,Alameda County,CA,61.46272855133614,NA,NA
94706,Alameda County,CA,94.79606188466948,NA,NA
94804,Contra Costa County,CA,NA,38.673139158576056,NA
94945,Marin County,CA,NA,NA,58.82352941176471
94947,Marin County,CA,75.24613220815752,NA,NA
95010,Santa Cruz County,CA,98.45288326300985,NA,NA
95076,Santa Cruz County,CA,NA,14.401294498381878,NA
95130,Santa Clara County,CA,NA,96.27831715210357,NA
95207,San Joaquin County,CA,NA,27.346278317152105,NA
95252,Calaveras County,CA,NA,NA,75.29411764705883
95330,San Joaquin County,CA,NA,NA,87.84313725490196
95350,Stanislaus County,CA,NA,11.165048543689322,NA
95422,Lake County,CA,NA,46.44012944983819,NA
95521,Humboldt County,CA,NA,70.87378640776699,NA
95616,Yolo County,CA,NA,78.64077669902912,NA
95667,El Dorado County,CA,29.817158931082982,NA,13.725490196078432
95688,Solano County,CA,NA,NA,46.27450980392157
95833,Sacramento County,CA,37.552742616033754,NA,NA
95926,Butte County,CA,31.645569620253166,NA,NA
95966,Butte County,CA,8.860759493670885,NA,NA
95969,Butte County,CA,29.39521800281294,NA,NA
95973,Butte County,CA,NA,66.01941747572816,NA
95991,Sutter County,CA,26.160337552742618,NA,NA
80003,Jefferson County,CO,42.75668073136428,NA,NA
80012,Arapahoe County,CO,NA,NA,52.94117647058824
80112,Arapahoe County,CO,NA,NA,80.7843137254902
80121,Arapahoe County,CO,NA,NA,51.76470588235295
80134,Douglas County,CO,23.20675105485232,NA,NA
80205,Denver County,CO,NA,60.84142394822006,NA
80220,Denver County,CO,59.07172995780591,NA,NA
80302,Boulder County,CO,NA,80.2588996763754,NA
80303,Boulder County,CO,NA,NA,58.43137254901961
80537,Larimer County,CO,63.43178621659634,NA,NA
80601,Adams County,CO,30.801687763713083,NA,NA
80631,Weld County,CO,7.172995780590717,NA,NA
80634,Weld County,CO,1.969057665260197,NA,NA
80701,Morgan County,CO,19.971870604781998,NA,NA
80808,El Paso County,CO,84.38818565400844,NA,NA
81005,Pueblo County,CO,NA,21.844660194174757,NA
81101,Alamosa County,CO,89.45147679324894,NA,NA
81226,Fremont County,CO,81.99718706047821,NA,NA
81504,Mesa County,CO,NA,NA,65.49019607843137
81625,Moffat County,CO,36.708860759493675,NA,NA
06074,Hartford County,CT,73.27707454289732,NA,NA
06105,Hartford County,CT,19.40928270042194,NA,NA
06118,Hartford County,CT,53.16455696202531,NA,NA
06457,Middlesex County,CT,27.9887482419128,NA,NA
06515,New Haven County,CT,NA,62.62135922330098,NA
06606,Fairfield County,CT,NA,30.74433656957929,33.72549019607843
06614,Fairfield County,CT,53.023909985935305,NA,NA
06790,Litchfield County,CT,4.50070323488045,15.857605177993527,NA
06906,Fairfield County,CT,96.0618846694796,NA,NA
19702,New Castle County,DE,42.897327707454295,NA,NA
19802,New Castle County,DE,NA,21.521035598705502,NA
19958,Sussex County,DE,NA,3.7216828478964405,NA
19963,Sussex County,DE,NA,33.49514563106796,NA
32131,Putnam County,FL,NA,81.06796116504854,NA
32148,Putnam County,FL,68.77637130801688,NA,NA
32164,Flagler County,FL,NA,12.297734627831716,NA
32205,Duval County,FL,23.90998593530239,NA,NA
32209,Duval County,FL,NA,42.55663430420712,NA
32219,Duval County,FL,90.014064697609,NA,NA
32221,Duval County,FL,NA,NA,42.745098039215684
32226,Duval County,FL,40.92827004219409,NA,NA
32250,Duval County,FL,54.289732770745424,29.773462783171524,NA
32259,St. Johns County,FL,41.35021097046413,NA,NA
32328,Franklin County,FL,NA,97.89644012944983,NA
32425,Holmes County,FL,49.929676511954995,NA,NA
32459,Walton County,FL,NA,NA,61.1764705882353
32503,Escambia County,FL,NA,11.650485436893204,NA
32504,Escambia County,FL,46.976090014064695,NA,NA
32571,Santa Rosa County,FL,12.517580872011253,NA,NA
32608,Alachua County,FL,NA,94.98381877022653,NA
32653,Alachua County,FL,NA,97.73462783171522,NA
32730,Seminole County,FL,NA,NA,98.0392156862745
32779,Seminole County,FL,93.95218002812939,NA,NA
32818,Orange County,FL,NA,92.71844660194175,NA
32827,Orange County,FL,97.18706047819971,NA,NA
32905,Brevard County,FL,NA,78.47896440129449,NA
32953,Brevard County,FL,NA,17.475728155339805,15.294117647058824
32976,Brevard County,FL,NA,NA,17.647058823529413
33040,Monroe County,FL,NA,38.349514563106794,NA
33042,Monroe County,FL,NA,95.63106796116504,NA
33125,Miami-Dade County,FL,41.49085794655415,NA,41.17647058823529
33156,Miami-Dade County,FL,NA,49.19093851132686,NA
33158,Miami-Dade County,FL,NA,92.88025889967638,NA
33166,Miami-Dade County,FL,NA,NA,77.64705882352942
33315,Broward County,FL,NA,76.05177993527508,95.29411764705881
33321,Broward County,FL,NA,NA,4.705882352941177
33435,Palm Beach County,FL,43.319268635724335,NA,NA
33455,Martin County,FL,NA,NA,11.372549019607844
33469,Palm Beach County,FL,85.23206751054853,NA,NA
33511,Hillsborough County,FL,NA,NA,50.19607843137255
33525,Pasco County,FL,NA,65.37216828478964,NA
33544,Pasco County,FL,NA,48.22006472491909,NA
33567,Hillsborough County,FL,65.9634317862166,NA,NA
33763,Pinellas County,FL,NA,50,NA
33805,Polk County,FL,36.427566807313646,NA,NA
33908,Lee County,FL,NA,46.601941747572816,NA
33912,Lee County,FL,NA,97.57281553398059,NA
33946,Charlotte County,FL,NA,95.79288025889967,NA
33952,Charlotte County,FL,22.22222222222222,NA,NA
33973,Lee County,FL,NA,NA,100
33991,Lee County,FL,97.60900140646976,NA,NA
34114,Collier County,FL,99.15611814345992,NA,NA
34203,Manatee County,FL,NA,49.676375404530745,NA
34241,Sarasota County,FL,NA,96.11650485436894,NA
34266,DeSoto County,FL,89.59212376933895,NA,NA
34292,Sarasota County,FL,NA,NA,10.980392156862745
34293,Sarasota County,FL,NA,NA,2.3529411764705883
34473,Marion County,FL,NA,53.883495145631066,NA
34480,Marion County,FL,NA,NA,75.68627450980392
34654,Pasco County,FL,44.163150492264414,NA,NA
34691,Pasco County,FL,42.33473980309424,NA,NA
34746,Osceola County,FL,NA,NA,65.09803921568627
30013,Rockdale County,GA,NA,76.53721682847896,NA
30019,Gwinnett County,GA,NA,NA,47.45098039215686
30024,Gwinnett County,GA,NA,22.97734627831715,NA
30045,Gwinnett County,GA,NA,63.59223300970874,NA
30052,Walton County,GA,15.611814345991561,6.957928802588997,NA
30058,DeKalb County,GA,18.0028129395218,NA,NA
30064,Cobb County,GA,NA,NA,89.80392156862746
30068,Cobb County,GA,64.55696202531645,NA,NA
30084,DeKalb County,GA,NA,55.17799352750809,NA
30088,DeKalb County,GA,36.849507735583686,NA,NA
30115,Cherokee County,GA,NA,35.275080906148865,NA
30132,Paulding County,GA,NA,NA,49.80392156862745
30145,Bartow County,GA,97.74964838255977,NA,NA
30147,Floyd County,GA,84.10689170182842,NA,NA
30180,Carroll County,GA,20.534458509142052,NA,NA
30223,Spalding County,GA,34.73980309423347,NA,NA
30263,Coweta County,GA,NA,NA,61.568627450980394
30311,Fulton County,GA,NA,NA,17.254901960784313
30318,Fulton County,GA,NA,28.478964401294498,NA
30327,Fulton County,GA,NA,61.6504854368932,NA
30340,DeKalb County,GA,NA,79.93527508090615,NA
30349,Fulton County,GA,29.957805907172997,NA,NA
30436,Toombs County,GA,NA,99.67637540453075,NA
30517,Jackson County,GA,NA,NA,88.62745098039215
30523,Habersham County,GA,71.58931082981715,NA,NA
30680,Barrow County,GA,48.80450070323488,NA,NA
30701,Gordon County,GA,NA,26.699029126213592,NA
30705,Murray County,GA,NA,36.56957928802589,90.98039215686275
30906,Richmond County,GA,NA,4.368932038834951,NA
31036,Pulaski County,GA,81.57524613220815,NA,NA
31302,Effingham County,GA,NA,99.83818770226537,NA
31513,Appling County,GA,NA,NA,71.76470588235294
31705,Dougherty County,GA,26.863572433192683,NA,NA
31793,Tift County,GA,58.79043600562588,77.02265372168284,NA
31794,Tift County,GA,NA,15.372168284789645,37.254901960784316
31906,Muscogee County,GA,NA,38.51132686084142,NA
96701,Honolulu County,HI,31.504922644163152,NA,NA
96720,Hawaii County,HI,NA,23.462783171521036,NA
96743,Hawaii County,HI,NA,60.679611650485434,NA
96756,Kauai County,HI,93.67088607594937,NA,NA
96813,Honolulu County,HI,NA,32.200647249190936,93.72549019607843
96817,Honolulu County,HI,10.40787623066104,NA,NA
96819,Honolulu County,HI,NA,NA,97.6470588235294
83318,Cassia County,ID,NA,NA,38.82352941176471
83338,Jerome County,ID,50.91420534458509,NA,NA
83617,Gem County,ID,NA,NA,31.372549019607842
83634,Ada County,ID,NA,78.96440129449837,NA
83651,Canyon County,ID,45.42897327707454,NA,NA
83660,Canyon County,ID,76.51195499296765,NA,NA
83686,Canyon County,ID,NA,NA,2.7450980392156863
83709,Ada County,ID,NA,44.01294498381877,NA
83713,Ada County,ID,NA,NA,14.50980392156863
83716,Ada County,ID,NA,36.89320388349515,NA
83815,Kootenai County,ID,NA,16.181229773462782,NA
83854,Kootenai County,ID,58.22784810126582,NA,NA
60002,Lake County,IL,NA,NA,82.35294117647058
60010,Lake County,IL,NA,75.08090614886731,NA
60025,Cook County,IL,40.50632911392405,NA,NA
60033,McHenry County,IL,62.728551336146275,NA,NA
60048,Lake County,IL,47.39803094233474,NA,NA
60069,Lake County,IL,NA,70.55016181229773,NA
60091,Cook County,IL,NA,18.932038834951456,NA
60093,Cook County,IL,NA,90.45307443365695,NA
60098,McHenry County,IL,NA,68.44660194174757,NA
60102,McHenry County,IL,44.44444444444444,64.72491909385113,NA
60104,Cook County,IL,37.83403656821378,NA,NA
60106,DuPage County,IL,NA,76.86084142394822,NA
60178,DeKalb County,IL,NA,NA,50.98039215686274
60302,Cook County,IL,NA,11.326860841423949,NA
60304,Cook County,IL,74.1209563994374,NA,NA
60429,Cook County,IL,80.73136427566807,NA,NA
60439,Cook County,IL,NA,NA,84.70588235294117
60440,Will County,IL,NA,42.88025889967638,NA
60445,Cook County,IL,NA,NA,66.27450980392156
60451,Will County,IL,17.29957805907173,NA,NA
60452,Cook County,IL,NA,38.02588996763754,NA
60462,Cook County,IL,23.769338959212376,NA,NA
60491,Will County,IL,33.33333333333333,NA,NA
60504,DuPage County,IL,NA,75.88996763754045,NA
60514,DuPage County,IL,NA,83.1715210355987,NA
60516,DuPage County,IL,67.22925457102671,NA,NA
60520,DeKalb County,IL,NA,98.05825242718447,NA
60521,DuPage County,IL,NA,53.23624595469255,NA
60611,Cook County,IL,NA,73.62459546925567,NA
60618,Cook County,IL,7.032348804500703,NA,NA
60622,Cook County,IL,NA,NA,44.31372549019608
60623,Cook County,IL,27.004219409282697,NA,NA
60625,Cook County,IL,9.845288326300984,NA,NA
60628,Cook County,IL,55.836849507735586,NA,NA
60629,Cook County,IL,24.050632911392405,NA,NA
60643,Cook County,IL,7.454289732770746,NA,NA
60660,Cook County,IL,24.47257383966245,NA,NA
60950,Kankakee County,IL,64.27566807313643,NA,NA
61081,Whiteside County,IL,28.129395218002813,NA,NA
61201,Rock Island County,IL,NA,NA,36.07843137254902
61254,Henry County,IL,NA,94.66019417475728,NA
61356,Bureau County,IL,66.66666666666666,NA,NA
61364,LaSalle County,IL,82.27848101265823,NA,NA
61523,Peoria County,IL,NA,65.53398058252428,NA
61525,Peoria County,IL,NA,NA,87.45098039215686
61607,Peoria County,IL,72.71448663853727,NA,NA
61701,McLean County,IL,NA,26.537216828478964,NA
61866,Champaign County,IL,NA,80.2588996763754,NA
62012,Macoupin County,IL,NA,NA,61.96078431372549
62040,Madison County,IL,17.862165963431785,NA,NA
62236,Monroe County,IL,NA,85.59870550161813,NA
62278,Randolph County,IL,NA,NA,64.31372549019608
62439,Lawrence County,IL,NA,NA,78.03921568627452
62618,Cass County,IL,98.87482419127988,NA,NA
62702,Sangamon County,IL,66.9479606188467,NA,NA
62812,Franklin County,IL,NA,50.48543689320388,NA
62960,Massac County,IL,NA,67.47572815533981,NA
46016,Madison County,IN,NA,NA,40
46033,Hamilton County,IN,NA,NA,94.50980392156862
46034,Hamilton County,IN,87.48241912798875,NA,NA
46060,Hamilton County,IN,29.535864978902953,77.66990291262135,NA
46143,Johnson County,IN,NA,13.915857605177994,NA
46151,Morgan County,IN,NA,17.637540453074433,26.27450980392157
46158,Morgan County,IN,50.35161744022504,NA,NA
46167,Hendricks County,IN,NA,87.05501618122977,NA
46221,Marion County,IN,26.582278481012654,NA,65.88235294117646
46224,Marion County,IN,NA,43.689320388349515,NA
46240,Marion County,IN,96.90576652601969,NA,NA
46260,Marion County,IN,67.22925457102671,NA,NA
46268,Marion County,IN,41.63150492264416,NA,NA
46304,Porter County,IN,11.533052039381154,NA,NA
46319,Lake County,IN,NA,24.59546925566343,NA
46360,LaPorte County,IN,NA,4.0453074433656955,NA
46383,Porter County,IN,6.188466947960619,NA,NA
46394,Lake County,IN,50.773558368495074,NA,NA
46514,Elkhart County,IN,NA,NA,45.09803921568628
46544,St. Joseph County,IN,NA,94.1747572815534,NA
46580,Kosciusko County,IN,NA,NA,29.411764705882355
46701,Noble County,IN,NA,64.07766990291263,NA
46725,Whitley County,IN,27.42616033755274,NA,NA
46733,Adams County,IN,39.66244725738397,NA,NA
46750,Huntington County,IN,61.32208157524614,NA,NA
46845,Allen County,IN,NA,40.77669902912621,NA
46901,Howard County,IN,1.5471167369901548,NA,NA
46933,Grant County,IN,NA,NA,62.35294117647059
46947,Cass County,IN,83.96624472573839,NA,NA
46953,Grant County,IN,36.56821378340366,NA,NA
46970,Miami County,IN,33.19268635724332,NA,NA
47040,Ohio County,IN,NA,97.41100323624595,NA
47220,Jackson County,IN,93.53023909985936,NA,NA
47265,Jennings County,IN,20.675105485232066,NA,NA
47331,Fayette County,IN,NA,41.74757281553398,NA
47371,Jay County,IN,NA,NA,49.411764705882355
47553,Martin County,IN,NA,93.042071197411,NA
47715,Vanderburgh County,IN,NA,35.92233009708738,NA
47802,Vigo County,IN,92.9676511954993,NA,NA
50022,Cass County,IA,NA,72.49190938511327,NA
50125,Warren County,IA,NA,75.40453074433657,NA
50138,Marion County,IA,NA,NA,19.607843137254903
50310,Polk County,IA,18.143459915611814,NA,NA
50315,Polk County,IA,30.37974683544304,NA,NA
50436,Winnebago County,IA,NA,77.18446601941747,NA
50613,Black Hawk County,IA,NA,10.194174757281553,NA
50702,Black Hawk County,IA,NA,85.11326860841424,NA
51031,Plymouth County,IA,NA,45.79288025889968,NA
51301,Clay County,IA,80.59071729957806,NA,NA
51401,Carroll County,IA,NA,NA,55.68627450980392
51503,Pottawattamie County,IA,NA,73.13915857605178,NA
51555,Harrison County,IA,NA,88.02588996763754,NA
52002,Dubuque County,IA,NA,89.32038834951457,NA
52240,Johnson County,IA,NA,NA,23.92156862745098
52317,Johnson County,IA,80.028129395218,NA,NA
52353,Washington County,IA,NA,NA,55.294117647058826
52402,Linn County,IA,47.11673699015471,NA,NA
52501,Wapello County,IA,NA,27.993527508090615,NA
52748,Scott County,IA,NA,93.68932038834951,NA
66030,Johnson County,KS,NA,74.59546925566343,NA
66101,Wyandotte County,KS,77.21518987341773,NA,NA
66202,Johnson County,KS,NA,86.40776699029125,NA
66223,Johnson County,KS,NA,75.24271844660194,NA
67301,Montgomery County,KS,NA,NA,69.01960784313725
67410,Dickinson County,KS,NA,61.165048543689316,NA
67460,McPherson County,KS,NA,52.42718446601942,NA
67550,Pawnee County,KS,NA,NA,70.19607843137254
67665,Russell County,KS,NA,NA,70.58823529411765
40004,Nelson County,KY,NA,55.663430420711975,NA
40008,Nelson County,KY,90.15471167369901,NA,NA
40014,Oldham County,KY,NA,57.11974110032363,NA
40037,Marion County,KY,99.85935302390999,NA,NA
40214,Jefferson County,KY,NA,12.459546925566343,NA
40218,Jefferson County,KY,12.236286919831224,NA,NA
40220,Jefferson County,KY,35.0210970464135,NA,NA
40241,Jefferson County,KY,NA,82.20064724919094,NA
40245,Jefferson County,KY,NA,36.24595469255664,NA
40258,Jefferson County,KY,20.112517580872012,NA,NA
40291,Jefferson County,KY,59.353023909985936,NA,NA
40312,Powell County,KY,NA,73.94822006472492,NA
40353,Montgomery County,KY,19.69057665260197,NA,NA
40356,Jessamine County,KY,12.658227848101266,NA,NA
40403,Madison County,KY,51.19549929676512,NA,NA
40504,Fayette County,KY,39.943741209563996,NA,NA
40701,Whitley County,KY,9.70464135021097,NA,NA
40823,Harlan County,KY,NA,88.02588996763754,NA
41011,Kenton County,KY,NA,25.080906148867317,NA
41035,Grant County,KY,NA,NA,71.37254901960785
41097,Grant County,KY,NA,88.9967637540453,NA
41129,Boyd County,KY,NA,49.35275080906149,NA
41230,Lawrence County,KY,22.925457102672294,39.64401294498382,NA
41314,Owsley County,KY,94.23347398030943,NA,NA
41339,Breathitt County,KY,NA,63.43042071197411,NA
41465,Magoffin County,KY,53.30520393811533,60.03236245954693,NA
42025,Marshall County,KY,40.646976090014064,NA,NA
42066,Graves County,KY,20.393811533052038,NA,32.94117647058823
42217,Christian County,KY,86.91983122362869,NA,NA
42240,Christian County,KY,NA,NA,20.392156862745097
42303,Daviess County,KY,8.29817158931083,NA,NA
42431,Hopkins County,KY,20.253164556962027,25.728155339805824,NA
42437,Union County,KY,94.09282700421942,NA,NA
42642,Russell County,KY,NA,NA,60
42701,Hardin County,KY,NA,7.9288025889967635,NA
42743,Green County,KY,NA,NA,48.627450980392155
70056,Jefferson Parish,LA,NA,NA,21.568627450980394
70058,Jefferson Parish,LA,1.6877637130801686,NA,NA
70072,Jefferson Parish,LA,0.9845288326300985,NA,NA
70125,Orleans Parish,LA,NA,62.13592233009708,NA
70354,Lafourche Parish,LA,82.41912798874824,NA,NA
70364,Terrebonne Parish,LA,NA,NA,47.84313725490196
70373,Lafourche Parish,LA,49.226441631504926,NA,NA
70427,Washington Parish,LA,NA,20.711974110032365,NA
70444,Tangipahoa Parish,LA,96.76511954992968,NA,NA
70452,St. Tammany Parish,LA,NA,30.258899676375407,NA
70454,Tangipahoa Parish,LA,30.66104078762307,NA,NA
70471,St. Tammany Parish,LA,NA,18.12297734627832,NA
70560,Iberia Parish,LA,1.8284106891701828,NA,NA
70570,St. Landry Parish,LA,8.720112517580873,NA,16.862745098039216
71006,Bossier Parish,LA,48.24191279887483,NA,NA
71047,Caddo Parish,LA,85.37271448663853,NA,NA
71101,Caddo Parish,LA,NA,97.0873786407767,NA
71107,Caddo Parish,LA,NA,16.828478964401295,NA
71119,Caddo Parish,LA,NA,56.63430420711975,NA
71263,West Carroll Parish,LA,47.67932489451477,NA,NA
71291,Ouachita Parish,LA,9.0014064697609,NA,NA
71351,Avoyelles Parish,LA,28.973277074542896,NA,NA
03904,York County,ME,NA,47.896440129449836,NA
04084,Cumberland County,ME,63.009845288326304,NA,NA
04090,York County,ME,56.118143459915615,NA,NA
04101,Cumberland County,ME,NA,NA,78.43137254901961
04103,Cumberland County,ME,19.40928270042194,NA,NA
04210,Androscoggin County,ME,NA,7.605177993527508,NA
04416,Hancock County,ME,NA,94.49838187702265,NA
04426,Piscataquis County,ME,NA,NA,92.94117647058823
04462,Penobscot County,ME,94.51476793248945,NA,NA
04901,Kennebec County,ME,NA,NA,24.705882352941178
04967,Somerset County,ME,70.74542897327707,NA,NA
04976,Somerset County,ME,13.783403656821378,NA,NA
20659,St. Mary's County,MD,55.41490857946554,NA,NA
20706,Prince George's County,MD,52.601969057665265,NA,NA
20720,Prince George's County,MD,72.57383966244726,NA,NA
20735,Prince George's County,MD,NA,59.8705501618123,NA
21157,Carroll County,MD,46.41350210970464,NA,NA
21222,Baltimore County,MD,NA,NA,5.490196078431373
21228,Baltimore County,MD,47.257383966244724,73.30097087378641,NA
21401,Anne Arundel County,MD,NA,NA,18.03921568627451
21403,Anne Arundel County,MD,85.0914205344585,NA,NA
01028,Hampden County,MA,NA,NA,49.01960784313725
01056,Hampden County,MA,NA,33.81877022653722,NA
01085,Hampden County,MA,1.1251758087201125,NA,NA
01089,Hampden County,MA,3.375527426160337,NA,NA
01105,Hampden County,MA,2.6722925457102673,NA,NA
01106,Hampden County,MA,NA,NA,43.13725490196079
01226,Berkshire County,MA,NA,55.50161812297735,NA
01238,Berkshire County,MA,NA,59.70873786407766,NA
01331,Worcester County,MA,3.938115330520394,NA,NA
01450,Middlesex County,MA,94.23347398030943,NA,NA
01453,Worcester County,MA,0.7032348804500703,NA,NA
01532,Worcester County,MA,44.86638537271448,NA,NA
01540,Worcester County,MA,63.009845288326304,NA,NA
01550,Worcester County,MA,NA,2.4271844660194173,NA
01701,Middlesex County,MA,NA,5.177993527508091,NA
01730,Middlesex County,MA,NA,46.116504854368934,NA
01772,Worcester County,MA,NA,NA,72.54901960784314
01776,Middlesex County,MA,NA,82.52427184466019,NA
01778,Middlesex County,MA,NA,42.394822006472495,NA
01801,Middlesex County,MA,0.8438818565400843,NA,NA
01803,Middlesex County,MA,17.580872011251756,NA,NA
01810,Essex County,MA,NA,12.7831715210356,NA
01843,Essex County,MA,2.390998593530239,NA,NA
01844,Essex County,MA,NA,NA,89.01960784313725
01879,Middlesex County,MA,NA,44.66019417475729,NA
01886,Middlesex County,MA,NA,NA,92.54901960784314
01921,Essex County,MA,NA,99.51456310679612,NA
01945,Essex County,MA,37.9746835443038,NA,NA
01960,Essex County,MA,13.642756680731363,NA,NA
02035,Norfolk County,MA,30.239099859353026,92.23300970873787,NA
02038,Norfolk County,MA,39.24050632911392,NA,NA
02115,Suffolk County,MA,NA,23.78640776699029,3.1372549019607843
02118,Suffolk County,MA,0,NA,NA
02120,Suffolk County,MA,NA,13.268608414239482,NA
02124,Suffolk County,MA,NA,0.16181229773462785,NA
02128,Suffolk County,MA,0.14064697609001406,NA,NA
02130,Suffolk County,MA,78.05907172995781,NA,NA
02150,Suffolk County,MA,0.2812939521800281,NA,4.313725490196078
02155,Middlesex County,MA,NA,NA,0
02169,Norfolk County,MA,27.285513361462726,NA,NA
02176,Middlesex County,MA,NA,66.66666666666666,NA
02341,Plymouth County,MA,38.67791842475386,NA,NA
02346,Plymouth County,MA,9.423347398030943,NA,NA
02360,Plymouth County,MA,0.5625879043600562,NA,NA
02453,Middlesex County,MA,NA,11.812297734627832,16.07843137254902
02458,Middlesex County,MA,NA,68.12297734627832,NA
02556,Barnstable County,MA,NA,83.00970873786407,NA
02632,Barnstable County,MA,45.56962025316456,NA,NA
02703,Bristol County,MA,15.330520393811534,NA,29.80392156862745
02724,Bristol County,MA,16.877637130801688,NA,NA
02760,Bristol County,MA,NA,39.15857605177994,NA
02777,Bristol County,MA,6.610407876230662,NA,NA
02790,Bristol County,MA,18.565400843881857,NA,NA
48021,Macomb County,MI,34.458509142053444,NA,NA
48036,Macomb County,MI,25.035161744022506,NA,NA
48047,Macomb County,MI,12.376933895921239,NA,NA
48071,Oakland County,MI,22.78481012658228,NA,NA
48096,Macomb County,MI,NA,99.35275080906149,NA
48098,Oakland County,MI,NA,33.17152103559871,NA
48103,Washtenaw County,MI,NA,10.841423948220065,NA
48111,Wayne County,MI,5.625879043600563,4.53074433656958,NA
48116,Livingston County,MI,25.31645569620253,NA,NA
48124,Wayne County,MI,NA,65.85760517799353,NA
48127,Wayne County,MI,10.970464135021098,NA,NA
48144,Monroe County,MI,97.46835443037975,NA,NA
48152,Wayne County,MI,NA,29.61165048543689,NA
48154,Wayne County,MI,21.80028129395218,5.6634304207119746,NA
48158,Washtenaw County,MI,NA,NA,78.82352941176471
48165,Oakland County,MI,69.05766526019691,NA,NA
48170,Wayne County,MI,NA,20.22653721682848,NA
48174,Wayne County,MI,26.441631504922647,12.135922330097088,NA
48187,Wayne County,MI,NA,1.779935275080906,NA
48197,Washtenaw County,MI,NA,1.4563106796116505,NA
48212,Wayne County,MI,8.157524613220815,NA,NA
48214,Wayne County,MI,NA,23.300970873786408,NA
48235,Wayne County,MI,NA,NA,9.803921568627452
48314,Macomb County,MI,38.95921237693389,34.3042071197411,NA
48315,Macomb County,MI,NA,16.34304207119741,NA
48323,Oakland County,MI,50.492264416315045,NA,NA
48340,Oakland County,MI,52.03938115330521,NA,81.17647058823529
48383,Oakland County,MI,87.62306610407876,NA,NA
48441,Huron County,MI,NA,NA,63.52941176470588
48446,Lapeer County,MI,12.939521800281295,NA,NA
48453,Sanilac County,MI,NA,83.81877022653723,NA
48519,Genesee County,MI,NA,93.52750809061489,NA
48532,Genesee County,MI,NA,35.59870550161812,NA
48602,Saginaw County,MI,NA,NA,72.94117647058823
48603,Saginaw County,MI,NA,35.43689320388349,NA
48612,Gladwin County,MI,NA,40.93851132686084,NA
48622,Clare County,MI,NA,NA,69.41176470588235
48624,Gladwin County,MI,62.16596343178622,NA,NA
48626,Saginaw County,MI,NA,NA,77.25490196078432
48650,Bay County,MI,86.21659634317862,NA,NA
48706,Bay County,MI,NA,1.132686084142395,NA
48750,Iosco County,MI,64.9789029535865,NA,NA
48813,Eaton County,MI,35.30239099859353,NA,NA
48838,Montcalm County,MI,57.102672292545705,NA,NA
48895,Ingham County,MI,NA,NA,76.86274509803923
48917,Eaton County,MI,7.59493670886076,NA,NA
49001,Kalamazoo County,MI,48.9451476793249,NA,NA
49009,Kalamazoo County,MI,NA,34.46601941747573,NA
49015,Calhoun County,MI,NA,27.184466019417474,NA
49017,Calhoun County,MI,NA,NA,22.35294117647059
49021,Eaton County,MI,NA,63.75404530744336,NA
49022,Berrien County,MI,32.91139240506329,NA,NA
49024,Kalamazoo County,MI,NA,19.093851132686083,NA
49028,Branch County,MI,NA,88.51132686084142,NA
49038,Berrien County,MI,92.68635724331928,NA,NA
49048,Kalamazoo County,MI,NA,58.090614886731395,NA
49079,Van Buren County,MI,NA,41.10032362459547,NA
49097,Kalamazoo County,MI,89.87341772151899,NA,NA
49120,Berrien County,MI,41.068917018284104,NA,NA
49221,Lenawee County,MI,3.0942334739803097,NA,NA
49285,Ingham County,MI,NA,67.15210355987054,NA
49301,Kent County,MI,NA,79.12621359223301,NA
49418,Kent County,MI,NA,25.5663430420712,NA
49428,Ottawa County,MI,80.45007032348805,NA,NA
49431,Mason County,MI,71.16736990154712,NA,NA
49441,Muskegon County,MI,54.85232067510548,NA,NA
49444,Muskegon County,MI,51.47679324894515,NA,NA
49503,Kent County,MI,NA,62.297734627831716,NA
49525,Kent County,MI,32.20815752461322,22.491909385113267,NA
49707,Alpena County,MI,27.848101265822784,NA,NA
49783,Chippewa County,MI,62.0253164556962,NA,NA
49855,Marquette County,MI,12.79887482419128,NA,NA
49858,Menominee County,MI,70.042194092827,NA,NA
55051,Kanabec County,MN,75.52742616033755,NA,NA
55057,Rice County,MN,61.88466947960619,NA,NA
55117,Ramsey County,MN,13.924050632911392,NA,NA
55406,Hennepin County,MN,21.940928270042196,NA,NA
55416,Hennepin County,MN,76.79324894514767,NA,NA
55429,Hennepin County,MN,NA,76.37540453074433,NA
55720,Carlton County,MN,70.323488045007025,NA,NA
55792,St. Louis County,MN,NA,27.831715210355988,NA
55976,Olmsted County,MN,NA,NA,74.50980392156863
56031,Martin County,MN,NA,NA,10.196078431372548
56058,Le Sueur County,MN,80.8720112517581,NA,NA
56081,Watonwan County,MN,NA,NA,40.78431372549019
56187,Nobles County,MN,79.46554149085794,NA,NA
56265,Chippewa County,MN,NA,NA,34.11764705882353
56308,Douglas County,MN,24.19127988748242,40.29126213592233,NA
56378,Stearns County,MN,86.77918424753868,NA,NA
56425,Crow Wing County,MN,79.18424753867792,NA,NA
56501,Becker County,MN,NA,55.016181229773466,NA
56537,Otter Tail County,MN,NA,NA,0.7843137254901961
56544,Becker County,MN,91.9831223628692,NA,NA
56560,Clay County,MN,1.4064697609001406,3.3980582524271843,NA
56621,Clearwater County,MN,NA,54.0453074433657,NA
56636,Itasca County,MN,NA,63.10679611650486,NA
56701,Pennington County,MN,16.59634317862166,NA,NA
38834,Alcorn County,MS,16.455696202531644,NA,NA
38863,Pontotoc County,MS,78.62165963431787,NA,NA
38967,Montgomery County,MS,NA,92.39482200647248,NA
39170,Hinds County,MS,74.40225035161744,NA,NA
39212,Hinds County,MS,18.846694796061886,NA,NA
39341,Noxubee County,MS,NA,79.93527508090615,NA
39365,Neshoba County,MS,91.84247538677918,NA,NA
39452,George County,MS,NA,50.323624595469255,NA
39531,Harrison County,MS,NA,NA,95.68627450980392
39560,Harrison County,MS,87.76371308016878,53.07443365695793,NA
39573,Stone County,MS,83.12236286919831,NA,NA
39601,Lincoln County,MS,43.17862165963432,NA,NA
39705,Lowndes County,MS,59.91561181434599,NA,NA
39730,Monroe County,MS,NA,58.57605177993528,NA
63010,Jefferson County,MO,NA,24.919093851132686,NA
63021,St. Louis County,MO,NA,8.414239482200648,NA
63028,Jefferson County,MO,NA,21.35922330097087,NA
63031,St. Louis County,MO,NA,NA,7.0588235294117645
63043,St. Louis County,MO,NA,43.36569579288026,59.6078431372549
63080,Franklin County,MO,NA,45.14563106796117,NA
63105,St. Louis County,MO,100,NA,NA
63123,St. Louis County,MO,34.59915611814346,NA,NA
63125,St. Louis County,MO,NA,NA,12.549019607843137
63129,St. Louis County,MO,NA,NA,9.019607843137255
63130,St. Louis County,MO,47.53867791842475,NA,NA
63133,St. Louis County,MO,99.57805907172997,NA,NA
63134,St. Louis County,MO,NA,74.4336569579288,NA
63139,St. Louis city,MO,81.0126582278481,NA,NA
63146,St. Louis County,MO,NA,NA,85.88235294117646
63301,St. Charles County,MO,NA,22.330097087378643,NA
63368,St. Charles County,MO,NA,18.6084142394822,15.686274509803921
63376,St. Charles County,MO,NA,NA,3.9215686274509802
63385,St. Charles County,MO,89.17018284106891,NA,NA
63461,Marion County,MO,NA,95.14563106796116,NA
63775,Perry County,MO,NA,31.87702265372168,NA
63780,Scott County,MO,NA,84.62783171521036,NA
63801,Scott County,MO,NA,NA,80.3921568627451
63873,New Madrid County,MO,97.8902953586498,NA,NA
64030,Jackson County,MO,NA,62.7831715210356,NA
64056,Jackson County,MO,22.362869198312236,NA,NA
64064,Jackson County,MO,NA,67.31391585760518,NA
64079,Platte County,MO,52.320675105485236,NA,NA
64080,Cass County,MO,55.69620253164557,NA,NA
64085,Ray County,MO,46.27285513361463,NA,50.588235294117645
64089,Clay County,MO,48.10126582278481,NA,NA
64106,Jackson County,MO,NA,52.103559870550164,NA
64124,Jackson County,MO,82.13783403656821,NA,NA
64127,Jackson County,MO,4.781997187060478,NA,NA
64145,Jackson County,MO,NA,95.46925566343042,NA
64801,Jasper County,MO,39.24050632911392,NA,NA
64870,Jasper County,MO,77.63713080168776,NA,NA
65340,Saline County,MO,NA,52.58899676375405,NA
65355,Benton County,MO,NA,17.15210355987055,NA
65401,Phelps County,MO,NA,45.9546925566343,NA
65616,Taney County,MO,34.177215189873415,NA,21.176470588235293
65686,Stone County,MO,NA,87.54045307443366,NA
65804,Greene County,MO,NA,31.715210355987054,NA
59105,Yellowstone County,MT,77.35583684950772,89.80582524271846,NA
59644,Broadwater County,MT,NA,84.30420711974111,NA
59870,Ravalli County,MT,NA,70.71197411003236,NA
59901,Flathead County,MT,NA,1.9417475728155338,NA
59917,Lincoln County,MT,NA,68.77022653721683,NA
68022,Douglas County,NE,97.0464135021097,NA,NA
68046,Sarpy County,NE,58.368495077355846,NA,NA
68048,Cass County,NE,81.85654008438819,NA,NA
68124,Douglas County,NE,84.66947960618847,NA,NA
68127,Douglas County,NE,59.49367088607595,NA,NA
68154,Douglas County,NE,NA,89.64401294498381,NA
68305,Nemaha County,NE,NA,NA,91.76470588235294
68352,Jefferson County,NE,NA,NA,81.56862745098039
68446,Otoe County,NE,98.0309423347398,NA,NA
69138,Dawson County,NE,98.59353023909986,NA,NA
89131,Clark County,NV,43.60056258790436,NA,NA
89429,Lyon County,NV,NA,NA,91.37254901960785
89503,Washoe County,NV,NA,38.673139158576056,NA
89508,Washoe County,NV,61.18143459915611,NA,NA
89509,Washoe County,NV,45.9915611814346,NA,NA
03034,Rockingham County,NH,95.49929676511954,NA,NA
03051,Hillsborough County,NH,78.76230661040788,NA,NA
03060,Hillsborough County,NH,5.344585091420535,NA,NA
03063,Hillsborough County,NH,40.787623066104075,NA,NA
03076,Hillsborough County,NH,41.91279887482419,NA,NA
03104,Hillsborough County,NH,12.09563994374121,NA,NA
03110,Hillsborough County,NH,74.26160337552743,NA,NA
03766,Grafton County,NH,67.79184247538677,NA,NA
03820,Strafford County,NH,49.789029535864984,NA,NA
03833,Rockingham County,NH,NA,32.847896440129446,NA
07003,Essex County,NJ,7.7355836849507735,NA,NA
07047,Hudson County,NJ,4.219409282700422,NA,NA
07055,Passaic County,NJ,NA,20.06472491909385,NA
07060,Union County,NJ,5.485232067510549,NA,NA
07067,Middlesex County,NJ,NA,94.01294498381877,NA
07080,Middlesex County,NJ,NA,NA,86.66666666666667
07103,Essex County,NJ,92.40506329113924,NA,NA
07112,Essex County,NJ,15.752461322081576,NA,NA
07424,Passaic County,NJ,62.447257383966246,NA,NA
07458,Bergen County,NJ,NA,89.48220064724919,NA
07501,Passaic County,NJ,NA,69.7411003236246,NA
07513,Passaic County,NJ,83.40365682137833,NA,NA
07605,Bergen County,NJ,NA,80.74433656957929,NA
07607,Bergen County,NJ,90.29535864978902,NA,NA
07628,Bergen County,NJ,99.01547116736991,NA,NA
07666,Bergen County,NJ,NA,NA,14.117647058823529
07728,Monmouth County,NJ,NA,11.488673139158575,NA
07823,Warren County,NJ,NA,87.37864077669903,NA
07856,Morris County,NJ,NA,88.3495145631068,NA
08003,Camden County,NJ,NA,36.73139158576052,NA
08035,Camden County,NJ,93.38959212376933,NA,NA
08050,Ocean County,NJ,NA,NA,22.745098039215687
08075,Burlington County,NJ,56.540084388185655,NA,NA
08088,Burlington County,NJ,NA,NA,87.05882352941177
08096,Gloucester County,NJ,84.9507735583685,NA,NA
08104,Camden County,NJ,15.18987341772152,NA,NA
08232,Atlantic County,NJ,53.44585091420534,NA,NA
08330,Atlantic County,NJ,NA,77.99352750809061,NA
08361,Cumberland County,NJ,89.73277074542897,NA,NA
08401,Atlantic County,NJ,16.877637130801688,NA,NA
08550,Mercer County,NJ,NA,79.44983818770227,NA
08609,Mercer County,NJ,NA,98.86731391585761,NA
08805,Somerset County,NJ,73.41772151898735,NA,NA
08820,Middlesex County,NJ,NA,NA,54.509803921568626
08824,Middlesex County,NJ,NA,NA,98.4313725490196
87104,Bernalillo County,NM,NA,63.915857605178,99.6078431372549
87105,Bernalillo County,NM,17.72151898734177,2.5889967637540456,NA
88101,Curry County,NM,7.876230661040788,4.854368932038835,NA
88310,Otero County,NM,20.956399437412095,NA,NA
10002,New York County,NY,70.88607594936708,NA,NA
10024,New York County,NY,48.52320675105485,NA,NA
10025,New York County,NY,NA,NA,1.5686274509803921
10028,New York County,NY,NA,NA,54.11764705882353
10029,New York County,NY,31.08298171589311,NA,NA
10306,Richmond County,NY,16.033755274261605,NA,NA
10314,Richmond County,NY,NA,2.750809061488673,NA
10451,Bronx County,NY,NA,4.692556634304207,NA
10459,Bronx County,NY,NA,7.119741100323624,NA
10461,Bronx County,NY,NA,NA,20
10462,Bronx County,NY,NA,3.559870550161812,NA
10466,Bronx County,NY,37.130801687763714,NA,NA
10473,Bronx County,NY,57.383966244725734,NA,NA
10530,Westchester County,NY,NA,73.7864077669903,NA
10990,Orange County,NY,81.43459915611815,NA,NA
11023,Nassau County,NY,NA,90.93851132686083,NA
11206,Kings County,NY,NA,NA,5.098039215686274
11207,Kings County,NY,NA,0.8090614886731391,NA
11210,Kings County,NY,NA,NA,79.2156862745098
11212,Kings County,NY,NA,NA,6.666666666666667
11213,Kings County,NY,NA,28.317152103559874,NA
11215,Kings County,NY,30.520393811533054,NA,NA
11221,Kings County,NY,2.109704641350211,NA,60.78431372549019
11229,Kings County,NY,NA,NA,1.9607843137254901
11233,Kings County,NY,23.628691983122362,NA,NA
11375,Queens County,NY,44.585091420534454,NA,NA
11420,Queens County,NY,44.0225035161744,NA,NA
11520,Nassau County,NY,NA,NA,35.294117647058826
11561,Nassau County,NY,NA,59.06148867313916,NA
11576,Nassau County,NY,NA,93.36569579288026,NA
12122,Schoharie County,NY,NA,82.68608414239482,NA
12801,Warren County,NY,NA,84.46601941747572,NA
12804,Warren County,NY,6.891701828410689,NA,NA
12920,Franklin County,NY,86.35724331926863,NA,NA
13041,Onondaga County,NY,NA,66.99029126213593,NA
13104,Onondaga County,NY,70.46413502109705,NA,NA
13118,Cayuga County,NY,NA,73.46278317152104,NA
13167,Oswego County,NY,88.88888888888889,NA,NA
13323,Oneida County,NY,NA,43.52750809061489,NA
13357,Herkimer County,NY,32.63009845288326,NA,NA
13413,Oneida County,NY,44.72573839662447,27.669902912621357,NA
13440,Oneida County,NY,NA,4.207119741100324,NA
13478,Oneida County,NY,85.65400843881856,NA,NA
13626,Lewis County,NY,96.62447257383965,NA,NA
13790,Broome County,NY,31.78621659634318,NA,NA
13820,Otsego County,NY,32.77074542897328,NA,NA
13825,Otsego County,NY,74.9648382559775,NA,NA
13856,Delaware County,NY,NA,33.33333333333333,NA
13901,Broome County,NY,NA,2.912621359223301,NA
13905,Broome County,NY,37.69338959212377,NA,NA
14070,Erie County,NY,68.49507735583686,NA,NA
14105,Niagara County,NY,77.77777777777779,NA,NA
14214,Erie County,NY,28.41068917018284,NA,NA
14215,Erie County,NY,1.2658227848101267,NA,NA
14226,Erie County,NY,NA,81.3915857605178,NA
14411,Orleans County,NY,24.331926863572434,NA,NA
14414,Livingston County,NY,55.55555555555556,NA,NA
14468,Monroe County,NY,14.767932489451477,NA,NA
14485,Livingston County,NY,71.44866385372714,NA,NA
14512,Ontario County,NY,NA,57.28155339805825,NA
14526,Monroe County,NY,13.361462728551334,NA,NA
14527,Yates County,NY,NA,54.53074433656958,NA
14551,Wayne County,NY,NA,58.89967637540453,NA
14564,Ontario County,NY,NA,13.106796116504855,NA
14569,Wyoming County,NY,78.90295358649789,NA,NA
14580,Monroe County,NY,NA,0.3236245954692557,NA
14605,Monroe County,NY,31.223628691983123,NA,NA
14608,Monroe County,NY,38.81856540084388,NA,NA
14609,Monroe County,NY,11.39240506329114,NA,NA
14612,Monroe County,NY,NA,1.2944983818770228,NA
14613,Monroe County,NY,NA,31.06796116504854,NA
14617,Monroe County,NY,NA,3.074433656957929,NA
14620,Monroe County,NY,4.360056258790436,12.7831715210356,NA
14624,Monroe County,NY,NA,14.886731391585762,NA
14701,Chautauqua County,NY,2.250351617440225,13.754045307443366,NA
14738,Chautauqua County,NY,85.65400843881856,NA,NA
14901,Chemung County,NY,NA,NA,99.2156862745098
27006,Davie County,NC,88.74824191279887,24.110032362459545,NA
27021,Stokes County,NC,NA,59.22330097087378,NA
27028,Davie County,NC,13.220815752461323,NA,NA
27030,Surry County,NC,24.894514767932492,NA,NA
27215,Alamance County,NC,8.438818565400844,NA,NA
27288,Rockingham County,NC,11.814345991561181,NA,NA
27295,Davidson County,NC,NA,2.103559870550162,NA
27370,Randolph County,NC,NA,NA,76.07843137254902
27455,Guilford County,NC,45.71026722925457,NA,NA
27529,Wake County,NC,21.659634317862167,12.62135922330097,NA
27565,Granville County,NC,NA,87.2168284789644,NA
27587,Wake County,NC,18.9873417721519,NA,NA
27612,Wake County,NC,NA,34.95145631067961,NA
27615,Wake County,NC,37.27144866385373,NA,NA
27705,Durham County,NC,NA,9.70873786407767,NA
27886,Edgecombe County,NC,60.337552742616026,NA,NA
27909,Pasquotank County,NC,11.251758087201125,NA,NA
27944,Perquimans County,NC,NA,70.3883495145631,NA
28016,Gaston County,NC,NA,NA,67.45098039215686
28027,Cabarrus County,NC,91.42053445850914,NA,NA
28043,Rutherford County,NC,NA,NA,47.05882352941176
28090,Cleveland County,NC,60.19690576652602,NA,NA
28124,Cabarrus County,NC,72.0112517580872,NA,NA
28139,Rutherford County,NC,73.9803094233474,NA,NA
28202,Mecklenburg County,NC,81.57524613220815,NA,NA
28209,Mecklenburg County,NC,73.41772151898735,NA,NA
28227,Mecklenburg County,NC,NA,45.307443365695796,NA
28269,Mecklenburg County,NC,39.80309423347398,NA,NA
28270,Mecklenburg County,NC,NA,66.34304207119742,NA
28278,Mecklenburg County,NC,54.43037974683544,NA,NA
28303,Cumberland County,NC,NA,NA,46.666666666666664
28348,Cumberland County,NC,NA,NA,58.03921568627452
28351,Scotland County,NC,64.69760900140648,NA,NA
28376,Hoke County,NC,27.144866385372712,NA,41.96078431372549
28425,Pender County,NC,NA,52.265372168284784,NA
28435,Pender County,NC,NA,98.70550161812298,NA
28465,Brunswick County,NC,91.70182841068917,NA,NA
28479,Brunswick County,NC,86.35724331926863,NA,NA
28504,Lenoir County,NC,66.52601969057666,NA,NA
28546,Onslow County,NC,22.362869198312236,NA,NA
28604,Watauga County,NC,NA,NA,96.86274509803921
28612,Burke County,NC,95.0773558368495,NA,NA
28638,Caldwell County,NC,NA,91.2621359223301,NA
28705,Mitchell County,NC,88.0450070323488,NA,NA
28722,Polk County,NC,88.32630098452883,NA,NA
28731,Henderson County,NC,NA,44.1747572815534,NA
28734,Macon County,NC,NA,6.310679611650485,23.137254901960784
28771,Graham County,NC,NA,NA,85.09803921568627
28792,Henderson County,NC,29.254571026722925,NA,NA
58103,Cass County,ND,5.766526019690577,NA,NA
58474,Dickey County,ND,97.32770745428974,NA,NA
58504,Burleigh County,ND,48.52320675105485,NA,NA
58701,Ward County,ND,NA,6.796116504854369,1.1764705882352942
43016,Franklin County,OH,NA,47.57281553398058,NA
43017,Franklin County,OH,NA,85.43689320388349,NA
43026,Franklin County,OH,NA,82.36245954692556,NA
43031,Licking County,OH,92.26441631504923,NA,NA
43035,Delaware County,OH,NA,71.35922330097088,NA
43050,Knox County,OH,5.9071729957805905,3.2362459546925564,NA
43055,Licking County,OH,NA,0.9708737864077669,NA
43113,Pickaway County,OH,NA,NA,7.8431372549019605
43123,Franklin County,OH,6.047819971870605,NA,NA
43140,Madison County,OH,34.31786216596343,30.097087378640776,NA
43147,Fairfield County,OH,NA,24.271844660194176,NA
43206,Franklin County,OH,10.40787623066104,NA,NA
43214,Franklin County,OH,NA,40.1294498381877,NA
43227,Franklin County,OH,NA,35.11326860841424,NA
43229,Franklin County,OH,NA,6.472491909385113,NA
43311,Logan County,OH,NA,33.00970873786408,NA
43412,Lucas County,OH,NA,98.2200647249191,NA
43551,Wood County,OH,11.673699015471167,NA,NA
43558,Fulton County,OH,NA,42.07119741100323,NA
43571,Lucas County,OH,NA,67.47572815533981,NA
43607,Lucas County,OH,4.641350210970464,NA,NA
43615,Lucas County,OH,NA,25.24271844660194,NA
43616,Lucas County,OH,NA,9.06148867313916,NA
43623,Lucas County,OH,NA,76.2135922330097,NA
43701,Muskingum County,OH,5.063291139240507,0.48543689320388345,0.39215686274509803
43920,Columbiana County,OH,NA,8.090614886731391,NA
43935,Belmont County,OH,NA,54.69255663430421,NA
43950,Belmont County,OH,36.9901547116737,NA,NA
44017,Cuyahoga County,OH,33.47398030942335,NA,NA
44022,Cuyahoga County,OH,NA,25.88996763754045,NA
44035,Lorain County,OH,NA,0,NA
44039,Lorain County,OH,NA,NA,59.21568627450981
44056,Summit County,OH,NA,48.381877022653725,NA
44057,Lake County,OH,NA,14.077669902912621,NA
44060,Lake County,OH,NA,0.6472491909385114,NA
44077,Lake County,OH,2.9535864978902953,NA,NA
44089,Erie County,OH,73.69901547116737,NA,40.3921568627451
44092,Lake County,OH,NA,NA,39.6078431372549
44095,Lake County,OH,17.158931082981717,NA,NA
44105,Cuyahoga County,OH,0.42194092827004215,NA,NA
44108,Cuyahoga County,OH,14.345991561181433,46.27831715210356,NA
44109,Cuyahoga County,OH,NA,11.974110032362459,NA
44112,Cuyahoga County,OH,6.329113924050633,NA,NA
44118,Cuyahoga County,OH,69.47960618846695,NA,NA
44120,Cuyahoga County,OH,2.8129395218002813,18.446601941747574,NA
44130,Cuyahoga County,OH,3.79746835443038,NA,NA
44131,Cuyahoga County,OH,NA,15.048543689320388,NA
44135,Cuyahoga County,OH,68.63572433192687,NA,NA
44136,Cuyahoga County,OH,NA,5.9870550161812295,NA
44138,Cuyahoga County,OH,57.66526019690576,NA,NA
44141,Cuyahoga County,OH,NA,95.9546925566343,NA
44145,Cuyahoga County,OH,NA,NA,3.5294117647058822
44146,Cuyahoga County,OH,NA,NA,6.2745098039215685
44149,Cuyahoga County,OH,40.08438818565401,45.46925566343042,NA
44201,Portage County,OH,NA,93.20388349514563,NA
44212,Medina County,OH,NA,34.78964401294498,NA
44230,Wayne County,OH,NA,71.03559870550163,NA
44236,Summit County,OH,71.30801687763713,NA,NA
44240,Portage County,OH,67.65119549929676,NA,NA
44241,Portage County,OH,NA,64.40129449838187,NA
44281,Medina County,OH,19.268635724331926,NA,NA
44305,Summit County,OH,40.365682137834035,33.65695792880259,NA
44312,Summit County,OH,NA,7.281553398058252,NA
44406,Mahoning County,OH,NA,55.33980582524271,NA
44408,Columbiana County,OH,NA,79.77346278317152,NA
44460,Columbiana County,OH,NA,6.148867313915858,NA
44481,Trumbull County,OH,NA,31.3915857605178,NA
44515,Mahoning County,OH,8.579465541490858,9.385113268608414,52.54901960784314
44710,Stark County,OH,76.23066104078762,NA,NA
44721,Stark County,OH,99.29676511954993,NA,NA
44833,Crawford County,OH,NA,14.239482200647249,NA
44857,Huron County,OH,63.85372714486639,NA,NA
44907,Richland County,OH,37.41209563994374,NA,NA
45011,Butler County,OH,NA,2.26537216828479,NA
45014,Butler County,OH,13.080168776371309,NA,NA
45030,Hamilton County,OH,50.63291139240506,NA,NA
45066,Warren County,OH,NA,42.23300970873786,57.25490196078431
45102,Clermont County,OH,84.24753867791843,NA,72.15686274509804
45123,Highland County,OH,NA,54.20711974110033,NA
45152,Warren County,OH,81.15330520393812,NA,NA
45213,Hamilton County,OH,NA,91.58576051779936,NA
45224,Hamilton County,OH,18.143459915611814,NA,NA
45324,Greene County,OH,NA,72.00647249190939,NA
45342,Montgomery County,OH,NA,7.281553398058252,NA
45377,Montgomery County,OH,61.60337552742617,NA,NA
45405,Montgomery County,OH,NA,40.614886731391586,NA
45414,Montgomery County,OH,NA,70.22653721682848,NA
45424,Montgomery County,OH,9.563994374120956,NA,NA
45430,Greene County,OH,82.84106891701828,NA,NA
45432,Greene County,OH,NA,74.11003236245955,NA
45434,Greene County,OH,94.65541490857946,NA,NA
45439,Montgomery County,OH,69.76090014064698,NA,NA
45440,Montgomery County,OH,NA,81.71521035598705,NA
45449,Montgomery County,OH,NA,67.47572815533981,NA
45458,Montgomery County,OH,35.16174402250351,NA,NA
45614,Gallia County,OH,91.13924050632912,NA,NA
45631,Gallia County,OH,9.282700421940929,NA,NA
45656,Jackson County,OH,55.13361462728551,NA,NA
45661,Pike County,OH,43.459915611814345,NA,NA
45669,Lawrence County,OH,15.471167369901547,47.896440129449836,NA
45690,Pike County,OH,NA,44.983818770226534,NA
45692,Jackson County,OH,NA,30.42071197411003,NA
45701,Athens County,OH,NA,81.22977346278317,NA
45761,Athens County,OH,92.82700421940928,NA,NA
45769,Meigs County,OH,77.0745428973277,NA,NA
45801,Allen County,OH,35.72433192686357,NA,NA
45804,Allen County,OH,NA,66.50485436893204,NA
73018,Grady County,OK,42.616033755274266,NA,NA
73020,Oklahoma County,OK,NA,NA,56.07843137254902
73025,Oklahoma County,OK,80.16877637130801,74.91909385113269,NA
73026,Cleveland County,OK,NA,64.56310679611651,NA
73064,Canadian County,OK,46.69479606188467,NA,NA
73072,Cleveland County,OK,NA,NA,68.23529411764706
73078,Canadian County,OK,84.66947960618847,NA,NA
73089,Grady County,OK,71.72995780590718,NA,NA
73115,Oklahoma County,OK,NA,77.34627831715211,NA
73127,Oklahoma County,OK,79.74683544303798,NA,NA
73129,Oklahoma County,OK,46.554149085794656,NA,NA
73132,Oklahoma County,OK,50.07032348804501,NA,NA
73159,Oklahoma County,OK,NA,54.36893203883495,NA
73162,Oklahoma County,OK,NA,14.724919093851133,NA
73505,Comanche County,OK,NA,NA,23.52941176470588
73507,Comanche County,OK,41.63150492264416,NA,NA
73521,Jackson County,OK,NA,50,NA
73750,Kingfisher County,OK,90.43600562587905,NA,NA
74012,Tulsa County,OK,NA,NA,37.64705882352941
74075,Payne County,OK,NA,51.1326860841424,NA
74135,Tulsa County,OK,NA,NA,33.33333333333333
74137,Tulsa County,OK,NA,NA,36.86274509803922
74344,Delaware County,OK,NA,NA,51.37254901960784
74346,Delaware County,OK,80.30942334739804,NA,NA
74352,Mayes County,OK,NA,69.90291262135922,NA
74354,Ottawa County,OK,NA,41.74757281553398,NA
74464,Cherokee County,OK,NA,15.53398058252427,38.43137254901961
74501,Pittsburg County,OK,NA,84.78964401294499,NA
74525,Atoka County,OK,75.80872011251758,NA,NA
74820,Pontotoc County,OK,6.751054852320674,NA,NA
97006,Washington County,OR,26.72292545710267,NA,NA
97007,Washington County,OR,71.0267229254571,NA,NA
97031,Hood River County,OR,NA,88.83495145631069,NA
97051,Columbia County,OR,75.9493670886076,NA,NA
97071,Marion County,OR,NA,99.02912621359224,NA
97116,Washington County,OR,NA,43.85113268608414,NA
97124,Washington County,OR,83.54430379746836,NA,NA
97141,Tillamook County,OR,NA,NA,68.62745098039215
97211,Multnomah County,OR,NA,72.33009708737865,NA
97219,Multnomah County,OR,NA,56.957928802588995,NA
97230,Multnomah County,OR,51.61744022503516,NA,NA
97321,Linn County,OR,24.613220815752463,NA,NA
97351,Polk County,OR,65.40084388185655,NA,NA
97383,Marion County,OR,69.33895921237693,NA,NA
97386,Linn County,OR,NA,36.407766990291265,NA
97415,Curry County,OR,NA,23.624595469255663,NA
97457,Douglas County,OR,61.04078762306611,NA,NA
97477,Lane County,OR,20.81575246132208,NA,NA
97496,Douglas County,OR,72.29254571026723,NA,NA
97537,Jackson County,OR,NA,NA,84.31372549019608
97754,Crook County,OR,NA,18.77022653721683,NA
97814,Baker County,OR,NA,NA,97.25490196078431
97850,Union County,OR,36.0056258790436,55.98705501618123,NA
15005,Beaver County,PA,NA,66.01941747572816,NA
15010,Beaver County,PA,18.143459915611814,NA,NA
15024,Allegheny County,PA,NA,NA,53.333333333333336
15061,Beaver County,PA,NA,87.86407766990291,NA
15090,Allegheny County,PA,NA,61.97411003236246,NA
15101,Allegheny County,PA,NA,44.82200647249191,NA
15120,Allegheny County,PA,NA,39.80582524271845,NA
15137,Allegheny County,PA,NA,53.72168284789643,NA
15147,Allegheny County,PA,58.93108298171589,NA,NA
15212,Allegheny County,PA,21.237693389592124,NA,NA
15218,Allegheny County,PA,69.90154711673699,NA,NA
15226,Allegheny County,PA,60.618846694796055,NA,NA
15227,Allegheny County,PA,NA,49.83818770226537,25.098039215686274
15228,Allegheny County,PA,86.63853727144867,NA,NA
15401,Fayette County,PA,6.469760900140647,NA,NA
15445,Fayette County,PA,NA,96.92556634304206,NA
15522,Bedford County,PA,56.399437412095644,NA,NA
15601,Westmoreland County,PA,NA,10.679611650485436,NA
15644,Westmoreland County,PA,75.38677918424754,NA,NA
15690,Westmoreland County,PA,NA,NA,73.72549019607844
15701,Indiana County,PA,NA,NA,12.156862745098039
15717,Indiana County,PA,56.9620253164557,64.88673139158576,NA
15767,Jefferson County,PA,NA,58.7378640776699,NA
15801,Clearfield County,PA,94.9367088607595,30.582524271844658,NA
15845,Elk County,PA,84.52883263009845,NA,NA
15904,Cambria County,PA,NA,32.5242718446602,NA
16316,Crawford County,PA,74.68354430379746,NA,NA
16407,Erie County,PA,69.62025316455697,86.89320388349515,NA
16428,Erie County,PA,NA,NA,85.49019607843137
16438,Erie County,PA,90.85794655414908,NA,NA
16510,Erie County,PA,35.44303797468354,NA,NA
16735,McKean County,PA,NA,78.15533980582524,NA
17015,Cumberland County,PA,NA,NA,32.15686274509804
17042,Lebanon County,PA,4.0787623066104075,NA,NA
17050,Cumberland County,PA,51.33614627285513,NA,NA
17055,Cumberland County,PA,68.21378340365682,NA,NA
17067,Lebanon County,PA,77.91842475386778,NA,NA
17078,Lebanon County,PA,NA,8.89967637540453,NA
17113,Dauphin County,PA,41.20956399437412,NA,NA
17201,Franklin County,PA,NA,48.86731391585761,NA
17331,York County,PA,26.300984528832632,NA,NA
17340,Adams County,PA,62.869198312236286,NA,NA
17363,York County,PA,NA,57.92880258899677,NA
17404,York County,PA,9.985935302390999,NA,NA
17522,Lancaster County,PA,NA,NA,8.235294117647058
17569,Lancaster County,PA,90.9985935302391,NA,NA
17578,Lancaster County,PA,79.32489451476793,NA,NA
17701,Lycoming County,PA,3.6568213783403656,NA,NA
17702,Lycoming County,PA,NA,NA,63.13725490196078
17745,Clinton County,PA,NA,NA,43.92156862745098
17777,Northumberland County,PA,96.20253164556962,NA,NA
17801,Northumberland County,PA,NA,NA,30.58823529411765
17815,Columbia County,PA,NA,37.54045307443366,NA
17842,Snyder County,PA,NA,92.07119741100324,NA
17870,Snyder County,PA,NA,27.508090614886733,NA
17976,Schuylkill County,PA,74.40225035161744,NA,NA
18042,Northampton County,PA,NA,3.8834951456310676,NA
18066,Lehigh County,PA,NA,68.28478964401295,NA
18080,Lehigh County,PA,42.47538677918425,NA,NA
18102,Lehigh County,PA,NA,79.6116504854369,NA
18109,Lehigh County,PA,23.066104078762308,NA,NA
18201,Luzerne County,PA,16.17440225035162,NA,NA
18202,Luzerne County,PA,NA,77.50809061488673,NA
18224,Luzerne County,PA,NA,NA,93.72549019607843
18235,Carbon County,PA,28.83263009845288,NA,NA
18252,Schuylkill County,PA,73.13642756680731,NA,NA
18330,Monroe County,PA,79.0436005625879,NA,NA
18353,Monroe County,PA,NA,85.76051779935275,NA
18428,Pike County,PA,65.26019690576652,NA,NA
18433,Lackawanna County,PA,NA,75.5663430420712,NA
18643,Luzerne County,PA,49.36708860759494,NA,NA
18822,Susquehanna County,PA,88.60759493670885,NA,NA
18966,Bucks County,PA,14.20534458509142,NA,NA
19004,Montgomery County,PA,NA,NA,67.84313725490196
19007,Bucks County,PA,65.68213783403657,NA,NA
19047,Bucks County,PA,21.37834036568214,NA,NA
19056,Bucks County,PA,45.0070323488045,NA,NA
19076,Delaware County,PA,71.87060478199719,NA,NA
19087,Chester County,PA,88.46694796061885,NA,NA
19103,Philadelphia County,PA,NA,21.035598705501616,NA
19106,Philadelphia County,PA,NA,94.33656957928802,NA
19123,Philadelphia County,PA,NA,NA,92.15686274509804
19124,Philadelphia County,PA,NA,37.2168284789644,NA
19131,Philadelphia County,PA,23.347398030942333,NA,NA
19134,Philadelphia County,PA,2.5316455696202533,NA,NA
19137,Philadelphia County,PA,78.48101265822784,NA,NA
19140,Philadelphia County,PA,67.08860759493672,NA,NA
19143,Philadelphia County,PA,16.736990154711673,NA,NA
19148,Philadelphia County,PA,NA,10.517799352750808,NA
19150,Philadelphia County,PA,NA,22.168284789644012,NA
19380,Chester County,PA,10.126582278481013,29.126213592233007,NA
19401,Montgomery County,PA,7.313642756680731,NA,NA
19403,Montgomery County,PA,NA,NA,5.88235294117647
19438,Montgomery County,PA,NA,45.46925566343042,NA
19464,Montgomery County,PA,22.081575246132207,NA,NA
19512,Berks County,PA,75.52742616033755,NA,NA
19547,Berks County,PA,85.51336146272855,NA,NA
19605,Berks County,PA,27.70745428973277,NA,NA
19606,Berks County,PA,74.82419127988749,NA,NA
19607,Berks County,PA,NA,16.666666666666664,NA
02809,Bristol County,RI,52.742616033755276,NA,NA
02840,Newport County,RI,NA,69.57928802588997,NA
02908,Providence County,RI,NA,NA,25.49019607843137
29020,Kershaw County,SC,58.08720112517582,NA,NA
29040,Sumter County,SC,89.31082981715893,NA,NA
29102,Clarendon County,SC,NA,87.70226537216828,NA
29153,Sumter County,SC,NA,53.55987055016181,NA
29180,Fairfield County,SC,68.91701828410689,NA,NA
29203,Richland County,SC,NA,17.79935275080906,NA
29301,Spartanburg County,SC,29.11392405063291,NA,NA
29322,Spartanburg County,SC,99.43741209563994,NA,NA
29323,Spartanburg County,SC,49.648382559774966,NA,NA
29405,Charleston County,SC,NA,35.760517799352755,NA
29414,Charleston County,SC,30.09845288326301,22.97734627831715,NA
29418,Charleston County,SC,62.30661040787623,NA,NA
29420,Dorchester County,SC,NA,69.09385113268608,NA
29455,Charleston County,SC,NA,60.35598705501618,NA
29464,Charleston County,SC,NA,50.970873786407765,NA
29505,Florence County,SC,NA,81.87702265372168,NA
29506,Florence County,SC,66.38537271448664,NA,NA
29560,Florence County,SC,NA,57.76699029126213,NA
29588,Horry County,SC,NA,NA,56.86274509803921
29607,Greenville County,SC,25.17580872011252,NA,NA
29644,Greenville County,SC,NA,76.69902912621359,NA
29687,Greenville County,SC,28.41068917018284,NA,NA
29702,Cherokee County,SC,67.51054852320675,NA,NA
29803,Aiken County,SC,NA,52.58899676375405,NA
57032,Lincoln County,SD,93.81153305203938,NA,NA
57103,Minnehaha County,SD,51.89873417721519,NA,NA
57301,Davison County,SD,NA,NA,74.11764705882354
57401,Brown County,SD,15.049226441631506,NA,NA
57783,Lawrence County,SD,62.447257383966246,NA,NA
37020,Bedford County,TN,98.17158931082982,NA,NA
37027,Williamson County,TN,NA,83.49514563106796,NA
37030,Smith County,TN,NA,92.55663430420712,NA
37036,Dickson County,TN,87.34177215189874,NA,NA
37062,Williamson County,TN,87.20112517580873,NA,NA
37087,Wilson County,TN,14.627285513361462,NA,NA
37110,Warren County,TN,14.064697609001406,NA,NA
37146,Cheatham County,TN,95.21800281293952,NA,NA
37166,DeKalb County,TN,52.883263009845294,NA,NA
37221,Davidson County,TN,58.64978902953587,NA,NA
37323,Bradley County,TN,38.11533052039381,NA,NA
37341,Hamilton County,TN,70.18284106891703,NA,NA
37402,Hamilton County,TN,92.12376933895922,NA,NA
37643,Carter County,TN,10.68917018284107,33.980582524271846,NA
37711,Hawkins County,TN,NA,74.27184466019418,NA
37737,Blount County,TN,NA,72.65372168284789,NA
37801,Blount County,TN,13.502109704641349,41.262135922330096,NA
37803,Blount County,TN,NA,67.96116504854369,NA
37804,Blount County,TN,NA,NA,28.235294117647058
37857,Hawkins County,TN,30.942334739803094,NA,NA
37934,Knox County,TN,69.19831223628692,NA,NA
38320,Benton County,TN,NA,89.96763754045307,NA
75024,Collin County,TX,54.71167369901547,NA,NA
75056,Denton County,TX,NA,29.93527508090615,NA
75071,Collin County,TX,NA,58.252427184466015,NA
75087,Rockwall County,TX,NA,47.41100323624595,NA
75104,Dallas County,TX,NA,56.79611650485437,NA
75126,Kaufman County,TX,NA,38.18770226537217,NA
75150,Dallas County,TX,NA,86.24595469255664,NA
75401,Hunt County,TX,51.75808720112518,NA,NA
75474,Hunt County,TX,76.23066104078762,NA,NA
75482,Hopkins County,TX,NA,72.81553398058253,NA
75497,Wood County,TX,NA,69.90291262135922,NA
75604,Gregg County,TX,NA,51.29449838187702,69.80392156862744
75605,Gregg County,TX,NA,NA,25.882352941176475
75654,Rusk County,TX,NA,91.74757281553399,NA
75657,Marion County,TX,83.68495077355837,NA,NA
75686,Camp County,TX,NA,NA,87.84313725490196
75704,Smith County,TX,NA,83.65695792880258,NA
75707,Smith County,TX,NA,NA,67.05882352941175
75754,Van Zandt County,TX,98.73417721518987,NA,NA
75757,Smith County,TX,95.78059071729957,NA,NA
75790,Van Zandt County,TX,95.63994374120956,NA,NA
75791,Smith County,TX,NA,NA,30.19607843137255
75835,Houston County,TX,NA,65.69579288025889,NA
75901,Angelina County,TX,NA,NA,34.90196078431372
76021,Tarrant County,TX,59.21237693389592,NA,NA
76028,Johnson County,TX,NA,NA,45.490196078431374
76049,Hood County,TX,NA,16.50485436893204,NA
76063,Tarrant County,TX,90.71729957805907,NA,NA
76067,Palo Pinto County,TX,NA,49.51456310679612,NA
76105,Tarrant County,TX,16.31504922644163,NA,NA
76107,Tarrant County,TX,38.53727144866385,NA,NA
76119,Tarrant County,TX,NA,5.825242718446602,NA
76132,Tarrant County,TX,56.68073136427567,NA,NA
76133,Tarrant County,TX,NA,NA,18.823529411764707
76134,Tarrant County,TX,23.488045007032348,NA,NA
76230,Montague County,TX,NA,63.26860841423948,NA
76234,Wise County,TX,61.74402250351617,NA,NA
76248,Tarrant County,TX,56.82137834036568,NA,NA
76365,Clay County,TX,NA,NA,74.90196078431373
76401,Erath County,TX,NA,NA,48.23529411764706
76522,Coryell County,TX,NA,39.32038834951456,10.588235294117647
76542,Bell County,TX,NA,51.61812297734628,NA
76574,Williamson County,TX,NA,18.284789644012946,NA
76692,Hill County,TX,NA,50.64724919093852,NA
76711,McLennan County,TX,NA,NA,63.52941176470588
77005,Harris County,TX,NA,93.85113268608414,NA
77044,Harris County,TX,33.755274261603375,NA,NA
77058,Harris County,TX,72.85513361462729,NA,NA
77061,Harris County,TX,NA,NA,90.58823529411765
77063,Harris County,TX,NA,62.944983818770226,NA
77064,Harris County,TX,NA,NA,60.3921568627451
77073,Harris County,TX,NA,88.67313915857605,NA
77074,Harris County,TX,NA,50.64724919093852,NA
77084,Harris County,TX,10.267229254571026,NA,NA
77095,Harris County,TX,NA,10.355987055016183,NA
77346,Harris County,TX,77.49648382559775,NA,NA
77356,Montgomery County,TX,NA,34.627831715210355,NA
77373,Harris County,TX,25.87904360056259,NA,NA
77433,Harris County,TX,NA,16.019417475728158,NA
77437,Wharton County,TX,56.258790436005626,98.38187702265373,NA
77469,Fort Bend County,TX,55.27426160337553,NA,NA
77480,Brazoria County,TX,79.60618846694796,NA,NA
77489,Fort Bend County,TX,NA,91.10032362459548,NA
77511,Brazoria County,TX,43.037974683544306,NA,NA
77515,Brazoria County,TX,68.35443037974683,NA,NA
77532,Harris County,TX,38.25597749648382,NA,NA
77541,Brazoria County,TX,NA,72.97734627831716,NA
77546,Galveston County,TX,22.644163150492265,NA,NA
77566,Brazoria County,TX,NA,40.45307443365696,NA
77568,Galveston County,TX,31.364275668073137,NA,NA
77630,Orange County,TX,NA,NA,42.35294117647059
77651,Jefferson County,TX,NA,96.60194174757282,NA
77836,Burleson County,TX,NA,NA,66.66666666666666
77957,Jackson County,TX,81.29395218002813,NA,NA
78040,Webb County,TX,38.39662447257383,NA,NA
78041,Webb County,TX,NA,19.57928802588997,NA
78059,Medina County,TX,NA,90.1294498381877,NA
78064,Atascosa County,TX,67.9324894514768,NA,NA
78073,Bexar County,TX,NA,96.76375404530745,NA
78114,Wilson County,TX,50.210970464135016,NA,NA
78155,Guadalupe County,TX,21.09704641350211,57.44336569579288,NA
78228,Bexar County,TX,25.738396624472575,NA,NA
78253,Bexar County,TX,NA,NA,96.47058823529412
78263,Bexar County,TX,95.9212376933896,NA,NA
78373,Nueces County,TX,NA,90.1294498381877,NA
78503,Hidalgo County,TX,NA,72.168284789644,NA
78537,Hidalgo County,TX,57.24331926863573,NA,NA
78611,Burnet County,TX,NA,53.398058252427184,14.901960784313726
78633,Williamson County,TX,NA,10.032362459546926,NA
78634,Williamson County,TX,NA,100,NA
78641,Williamson County,TX,18.70604781997187,NA,NA
78648,Caldwell County,TX,88.88888888888889,NA,NA
78840,Val Verde County,TX,26.019690576652604,NA,NA
78861,Medina County,TX,NA,NA,76.47058823529412
78945,Fayette County,TX,98.17158931082982,NA,NA
78962,Colorado County,TX,NA,91.42394822006472,NA
79118,Randall County,TX,63.29113924050633,NA,NA
79336,Hockley County,TX,NA,NA,62.35294117647059
79415,Lubbock County,TX,NA,60.19417475728155,NA
79601,Taylor County,TX,NA,99.19093851132686,NA
79703,Midland County,TX,NA,65.0485436893204,NA
79705,Midland County,TX,NA,79.28802588996764,NA
79849,El Paso County,TX,NA,97.24919093851133,NA
79924,El Paso County,TX,NA,26.21359223300971,NA
79936,El Paso County,TX,10.829817158931084,NA,NA
79938,El Paso County,TX,29.676511954992968,NA,NA
84015,Davis County,UT,49.507735583684955,NA,NA
84032,Wasatch County,UT,NA,65.21035598705501,NA
84041,Davis County,UT,33.895921237693386,NA,NA
84058,Utah County,UT,72.9957805907173,NA,NA
84070,Salt Lake County,UT,NA,51.7799352750809,NA
84095,Salt Lake County,UT,36.28691983122363,NA,NA
84128,Salt Lake County,UT,NA,59.385113268608414,NA
84532,Grand County,UT,NA,NA,82.74509803921568
84770,Washington County,UT,NA,94.8220064724919,NA
05091,Windsor County,VT,96.34317862165963,NA,NA
05201,Bennington County,VT,NA,19.902912621359224,NA
05641,Washington County,VT,57.80590717299579,NA,NA
05701,Rutland County,VT,34.88045007032349,NA,NA
20165,Loudoun County,VA,60.47819971870605,NA,NA
20176,Loudoun County,VA,45.14767932489451,NA,NA
22102,Fairfax County,VA,66.24472573839662,NA,NA
22305,Alexandria city,VA,NA,95.30744336569579,NA
22314,Alexandria city,VA,27.566807313642755,NA,NA
22802,Harrisonburg city,VA,52.320675105485236,NA,NA
22815,Rockingham County,VA,47.67932489451477,NA,NA
22835,Page County,VA,54.008438818565395,NA,NA
22842,Shenandoah County,VA,87.9043600562588,NA,NA
22980,Waynesboro city,VA,65.54149085794656,NA,NA
23072,Gloucester County,VA,NA,82.03883495145631,NA
23185,James City County,VA,34.036568213783404,NA,NA
23231,Henrico County,VA,NA,NA,30.980392156862745
23320,Chesapeake city,VA,24.753867791842477,NA,NA
23434,Suffolk city,VA,NA,7.766990291262135,NA
23435,Suffolk city,VA,NA,31.55339805825243,NA
23451,Virginia Beach city,VA,NA,60.517799352750814,NA
23464,Virginia Beach city,VA,NA,19.57928802588997,NA
23502,Norfolk city,VA,32.06751054852321,NA,NA
23508,Norfolk city,VA,83.26300984528832,NA,NA
23513,Norfolk city,VA,82.55977496483825,NA,NA
23602,Newport News city,VA,NA,68.93203883495146,NA
23606,Newport News city,VA,45.85091420534459,NA,NA
23664,Hampton city,VA,NA,86.73139158576052,NA
23832,Chesterfield County,VA,NA,68.6084142394822,NA
24065,Franklin County,VA,NA,NA,98.82352941176471
24124,Giles County,VA,NA,98.54368932038835,NA
24141,Radford city,VA,63.9943741209564,NA,NA
24151,Franklin County,VA,NA,NA,83.52941176470588
24201,Bristol city,VA,NA,NA,44.70588235294118
24266,Russell County,VA,60.618846694796055,56.47249190938511,NA
24343,Carroll County,VA,64.13502109704642,NA,NA
24382,Wythe County,VA,NA,69.25566343042071,NA
24401,Staunton city,VA,78.34036568213783,NA,NA
24592,Halifax County,VA,NA,NA,27.450980392156865
98002,King County,WA,NA,32.68608414239482,NA
98003,King County,WA,25.457102672292546,NA,NA
98012,Snohomish County,WA,NA,25.40453074433657,NA
98019,King County,WA,93.10829817158931,NA,NA
98022,King County,WA,54.14908579465541,NA,NA
98042,King County,WA,14.486638537271448,NA,NA
98055,King County,WA,96.48382559774966,NA,NA
98056,King County,WA,72.43319268635724,NA,NA
98075,King County,WA,70.60478199718706,NA,NA
98092,King County,WA,NA,14.563106796116504,NA
98102,King County,WA,NA,58.41423948220065,NA
98105,King County,WA,NA,62.45954692556634,NA
98144,King County,WA,NA,NA,54.90196078431373
98155,King County,WA,41.91279887482419,NA,NA
98168,King County,WA,NA,56.310679611650485,NA
98208,Snohomish County,WA,NA,24.75728155339806,NA
98221,Skagit County,WA,NA,48.54368932038835,NA
98223,Snohomish County,WA,NA,15.6957928802589,NA
98270,Snohomish County,WA,15.89310829817159,NA,NA
98335,Pierce County,WA,NA,31.22977346278317,NA
98363,Clallam County,WA,NA,NA,35.68627450980392
98368,Jefferson County,WA,79.88748241912799,NA,NA
98370,Kitsap County,WA,NA,37.702265372168284,NA
98373,Pierce County,WA,NA,61.326860841423944,NA
98403,Pierce County,WA,NA,86.08414239482201,NA
98407,Pierce County,WA,NA,NA,41.568627450980394
98498,Pierce County,WA,50.91420534458509,NA,NA
98501,Thurston County,WA,NA,81.55339805825243,NA
98528,Mason County,WA,NA,71.68284789644012,NA
98577,Pacific County,WA,NA,NA,73.33333333333333
98632,Cowlitz County,WA,60.618846694796055,NA,NA
98682,Clark County,WA,53.58649789029536,NA,NA
98801,Chelan County,WA,NA,5.501618122977346,NA
98826,Chelan County,WA,NA,90.614886731391593,NA
98837,Grant County,WA,28.129395218002813,NA,NA
98903,Yakima County,WA,NA,NA,86.27450980392157
98908,Yakima County,WA,NA,9.870550161812297,NA
99004,Spokane County,WA,NA,NA,81.56862745098039
99156,Pend Oreille County,WA,95.35864978902954,NA,NA
99163,Whitman County,WA,64.9789029535865,NA,NA
99206,Spokane County,WA,NA,NA,27.450980392156865
99337,Benton County,WA,NA,5.339805825242718,NA
99338,Benton County,WA,NA,29.28802588996764,NA
20002,District of Columbia,DC,59.774964838255976,NA,NA
20003,District of Columbia,DC,NA,38.996763754045304,NA
20008,District of Columbia,DC,72.15189873417721,NA,NA
20019,District of Columbia,DC,3.2348804500703237,NA,NA
20032,District of Columbia,DC,NA,NA,70.58823529411765
24701,Mercer County,WV,NA,NA,27.058823529411764
25043,Clay County,WV,92.54571026722925,NA,NA
25177,Kanawha County,WV,11.11111111111111,NA,NA
25550,Mason County,WV,NA,29.449838187702266,NA
25705,Cabell County,WV,NA,48.70550161812297,NA
26101,Wood County,WV,NA,NA,16.470588235294116
26143,Wirt County,WV,NA,96.27831715210357,NA
26288,Webster County,WV,NA,83.98058252427184,NA
26330,Harrison County,WV,NA,26.860841423948216,NA
26416,Barbour County,WV,NA,35.92233009708738,NA
26452,Lewis County,WV,53.727144866385366,NA,NA
26554,Marion County,WV,3.5161744022503516,NA,NA
53010,Fond du Lac County,WI,93.24894514767934,NA,NA
53027,Washington County,WI,59.634317862165965,NA,NA
53115,Walworth County,WI,45.28832630098453,NA,NA
53120,Walworth County,WI,NA,NA,90.19607843137256
53128,Walworth County,WI,91.56118143459916,NA,NA
53140,Kenosha County,WI,NA,21.197411003236247,NA
53142,Kenosha County,WI,8.016877637130802,64.23948220064725,NA
53144,Kenosha County,WI,NA,26.375404530744333,NA
53151,Waukesha County,WI,36.14627285513362,NA,NA
53154,Milwaukee County,WI,NA,9.223300970873787,NA
53210,Milwaukee County,WI,46.835443037974684,47.0873786407767,NA
53211,Milwaukee County,WI,NA,20.388349514563107,NA
53212,Milwaukee County,WI,76.93389592123769,NA,NA
53214,Milwaukee County,WI,NA,8.737864077669903,NA
53216,Milwaukee County,WI,NA,15.210355987055015,NA
53218,Milwaukee County,WI,NA,NA,34.509803921568626
53219,Milwaukee County,WI,NA,9.546925566343042,11.76470588235294
53223,Milwaukee County,WI,NA,8.576051779935275,NA
53403,Racine County,WI,NA,84.9514563106796,NA
53405,Racine County,WI,NA,22.653721682847898,12.941176470588237
53538,Jefferson County,WI,46.132208157524616,NA,NA
53593,Dane County,WI,88.18565400843882,NA,NA
53716,Dane County,WI,64.83825597749649,NA,NA
53910,Adams County,WI,91.27988748241913,NA,NA
54022,Pierce County,WI,NA,NA,94.90196078431372
54169,Calumet County,WI,99.71870604781998,NA,NA
54220,Manitowoc County,WI,4.922644163150492,1.6181229773462782,NA
54304,Brown County,WI,19.831223628691983,66.8284789644013,NA
54409,Langlade County,WI,NA,19.25566343042071,NA
54452,Lincoln County,WI,NA,43.042071197411005,NA
54481,Portage County,WI,NA,13.430420711974108,8.627450980392156
54603,La Crosse County,WI,NA,21.68284789644013,NA
54630,Trempealeau County,WI,NA,75.72815533980582,NA
54701,Eau Claire County,WI,39.09985935302391,NA,NA
54703,Eau Claire County,WI,NA,28.964401294498384,NA
54729,Chippewa County,WI,NA,17.96116504854369,NA
54868,Barron County,WI,57.94655414908579,NA,NA
54914,Outagamie County,WI,NA,46.92556634304207,NA
82009,Laramie County,WY,NA,NA,52.156862745098046
82414,Park County,WY,NA,NA,38.03921568627451
82443,Hot Springs County,WY,NA,88.9967637540453,NA
82716,Campbell County,WY,NA,71.52103559870551,NA
