ZipCode,county,state,Youth,Pediatric,Adult
35010,Tallapoosa County,AL,NA,NA,49.760765550239235
35068,Jefferson County,AL,NA,NA,93.77990430622009
35080,Shelby County,AL,53.4965034965035,NA,NA
35124,Shelby County,AL,66.43356643356644,NA,NA
35125,St. Clair County,AL,92.65734265734265,NA,NA
35217,Jefferson County,AL,63.98601398601399,NA,NA
35235,Jefferson County,AL,NA,69.94535519125684,NA
35242,Shelby County,AL,50.6993006993007,NA,NA
35490,Tuscaloosa County,AL,95.45454545454545,NA,NA
35504,Walker County,AL,NA,86.88524590163934,NA
35620,Limestone County,AL,74.82517482517483,NA,NA
35640,Morgan County,AL,34.61538461538461,NA,NA
35803,Madison County,AL,74.47552447552448,NA,NA
36027,Barbour County,AL,NA,51.91256830601093,NA
36502,Escambia County,AL,55.24475524475524,NA,NA
36567,Baldwin County,AL,NA,92.89617486338798,NA
36607,Mobile County,AL,NA,96.17486338797814,NA
36784,Clarke County,AL,90.9090909090909,NA,NA
36854,Chambers County,AL,NA,90.1639344262295,NA
99501,Anchorage Municipality,AK,NA,NA,84.688995215311
99508,Anchorage Municipality,AK,NA,28.96174863387978,NA
99515,Anchorage Municipality,AK,NA,80.87431693989072,NA
85009,Maricopa County,AZ,NA,NA,71.77033492822966
85020,Maricopa County,AZ,NA,75.95628415300546,NA
85028,Maricopa County,AZ,81.81818181818183,NA,NA
85041,Maricopa County,AZ,8.741258741258742,NA,16.267942583732058
85131,Pinal County,AZ,NA,44.80874316939891,NA
85140,Pinal County,AZ,NA,NA,47.84688995215311
85254,Maricopa County,AZ,44.05594405594406,NA,NA
85297,Maricopa County,AZ,46.85314685314685,NA,NA
85621,Santa Cruz County,AZ,NA,NA,56.9377990430622
85634,Pima County,AZ,NA,37.15846994535519,NA
85635,Cochise County,AZ,NA,NA,39.71291866028708
85711,Pima County,AZ,8.391608391608392,NA,NA
85730,Pima County,AZ,45.8041958041958,NA,NA
85742,Pima County,AZ,65.03496503496503,NA,NA
85743,Pima County,AZ,63.286713286713294,NA,NA
86044,San Juan County,AZ,NA,NA,78.4688995215311
86440,Mohave County,AZ,94.05594405594405,NA,NA
72002,Saline County,AR,80.76923076923077,NA,NA
72114,Pulaski County,AR,51.74825174825175,NA,NA
72143,White County,AR,71.32867132867133,NA,NA
72823,Pope County,AR,NA,NA,95.21531100478468
90044,Los Angeles County,CA,12.587412587412588,NA,NA
90048,Los Angeles County,CA,81.81818181818183,NA,NA
90640,Los Angeles County,CA,NA,NA,74.16267942583733
91335,Los Angeles County,CA,NA,NA,44.01913875598086
91786,San Bernardino County,CA,66.78321678321679,NA,NA
91945,San Diego County,CA,82.86713286713287,NA,NA
92102,San Diego County,CA,NA,NA,76.07655502392345
92251,Imperial County,CA,59.790209790209794,NA,NA
92281,Imperial County,CA,NA,NA,99.52153110047847
92346,San Bernardino County,CA,60.83916083916085,NA,NA
92545,Riverside County,CA,NA,NA,87.5598086124402
93021,Ventura County,CA,70.27972027972028,NA,NA
93030,Ventura County,CA,NA,15.300546448087433,NA
93105,Santa Barbara County,CA,NA,86.33879781420765,NA
93247,Tulare County,CA,NA,89.07103825136612,NA
93308,Kern County,CA,NA,NA,41.62679425837321
93436,Santa Barbara County,CA,17.132867132867133,NA,NA
93446,San Luis Obispo County,CA,78.67132867132867,NA,NA
93458,Santa Barbara County,CA,NA,11.475409836065573,NA
93638,Madera County,CA,NA,NA,31.100478468899524
93722,Fresno County,CA,6.293706293706294,NA,NA
93727,Fresno County,CA,17.482517482517483,NA,NA
94010,San Mateo County,CA,73.42657342657343,NA,NA
94087,Santa Clara County,CA,86.36363636363636,NA,NA
94538,Alameda County,CA,NA,NA,58.3732057416268
95124,Santa Clara County,CA,NA,97.81420765027322,NA
95127,Santa Clara County,CA,NA,NA,87.08133971291866
95215,San Joaquin County,CA,NA,83.60655737704919,NA
95240,San Joaquin County,CA,NA,19.672131147540984,NA
95341,Merced County,CA,31.46853146853147,NA,NA
95621,Sacramento County,CA,80.06993006993007,NA,NA
95820,Sacramento County,CA,NA,NA,63.63636363636363
95843,Sacramento County,CA,82.51748251748252,NA,NA
80013,Arapahoe County,CO,13.636363636363635,NA,NA
80210,Denver County,CO,NA,99.4535519125683,NA
80214,Jefferson County,CO,NA,57.377049180327866,NA
80219,Denver County,CO,NA,8.743169398907105,NA
80228,Jefferson County,CO,NA,88.52459016393442,NA
80229,Adams County,CO,NA,22.950819672131146,NA
80504,Boulder County,CO,NA,NA,44.49760765550239
80634,Weld County,CO,NA,NA,3.827751196172249
80863,Teller County,CO,NA,94.53551912568307,NA
80920,El Paso County,CO,NA,83.60655737704919,NA
80922,El Paso County,CO,NA,93.44262295081968,NA
81504,Mesa County,CO,NA,60.65573770491803,NA
81625,Moffat County,CO,64.6853146853147,NA,NA
06001,Hartford County,CT,47.55244755244755,NA,NA
06405,New Haven County,CT,NA,71.58469945355192,NA
06451,New Haven County,CT,NA,NA,40.19138755980861
06705,New Haven County,CT,NA,43.71584699453552,NA
19720,New Castle County,DE,NA,NA,4.30622009569378
32025,Columbia County,FL,NA,55.19125683060109,NA
32305,Leon County,FL,NA,NA,88.51674641148325
32421,Calhoun County,FL,94.75524475524476,NA,NA
32501,Escambia County,FL,NA,NA,66.98564593301435
33004,Broward County,FL,87.41258741258741,NA,NA
33065,Broward County,FL,NA,31.693989071038253,NA
33177,Miami-Dade County,FL,NA,NA,54.54545454545454
33190,Miami-Dade County,FL,NA,82.5136612021858,NA
33309,Broward County,FL,NA,24.59016393442623,NA
33323,Broward County,FL,NA,56.284153005464475,NA
33430,Palm Beach County,FL,NA,62.295081967213115,NA
33462,Palm Beach County,FL,NA,70.49180327868852,NA
33610,Hillsborough County,FL,NA,NA,24.880382775119617
33764,Pinellas County,FL,NA,NA,54.066985645933016
33823,Polk County,FL,NA,23.497267759562842,48.803827751196174
33830,Polk County,FL,38.46153846153847,NA,NA
34104,Collier County,FL,87.06293706293707,NA,NA
34212,Manatee County,FL,NA,NA,83.73205741626795
34291,Sarasota County,FL,NA,96.72131147540983,NA
34293,Sarasota County,FL,73.07692307692307,NA,NA
34691,Pasco County,FL,59.44055944055944,NA,NA
34744,Osceola County,FL,28.321678321678323,NA,NA
34746,Osceola County,FL,NA,33.87978142076503,NA
30043,Gwinnett County,GA,NA,NA,36.84210526315789
30046,Gwinnett County,GA,75.87412587412588,NA,NA
30083,DeKalb County,GA,NA,NA,40.66985645933015
30094,Rockdale County,GA,NA,73.224043715847,NA
30108,Carroll County,GA,NA,97.26775956284153,NA
30161,Floyd County,GA,NA,NA,32.535885167464116
30217,Heard County,GA,NA,NA,74.64114832535886
30286,Upson County,GA,NA,NA,62.20095693779905
30467,Screven County,GA,NA,NA,68.89952153110048
30504,Hall County,GA,NA,NA,84.21052631578947
31024,Putnam County,GA,81.46853146853147,NA,NA
31052,Bibb County,GA,NA,98.36065573770492,NA
31220,Bibb County,GA,79.72027972027972,NA,NA
31510,Bacon County,GA,NA,NA,82.29665071770334
31558,Camden County,GA,NA,90.1639344262295,NA
31602,Lowndes County,GA,52.7972027972028,NA,NA
31632,Lowndes County,GA,NA,NA,85.16746411483254
31794,Tift County,GA,63.286713286713294,NA,NA
39854,Quitman County,GA,98.95104895104895,NA,NA
96720,Hawaii County,HI,NA,NA,45.933014354066984
96731,Honolulu County,HI,NA,NA,100
83642,Ada County,ID,28.671328671328673,NA,NA
83647,Elmore County,ID,NA,NA,55.02392344497608
83687,Canyon County,ID,NA,53.551912568306015,NA
83702,Ada County,ID,49.65034965034965,NA,NA
60007,Cook County,IL,75.87412587412588,NA,NA
60044,Lake County,IL,NA,NA,86.1244019138756
60069,Lake County,IL,89.5104895104895,NA,NA
60108,DuPage County,IL,NA,NA,70.33492822966507
60126,DuPage County,IL,54.54545454545454,NA,NA
60148,DuPage County,IL,24.475524475524477,NA,NA
60156,McHenry County,IL,44.40559440559441,NA,NA
60190,DuPage County,IL,NA,NA,80.86124401913875
60423,Will County,IL,42.30769230769231,NA,NA
60440,Will County,IL,69.93006993006993,NA,NA
60442,Will County,IL,89.86013986013987,NA,NA
60477,Cook County,IL,68.88111888111888,NA,NA
60525,Cook County,IL,NA,NA,67.94258373205741
60540,DuPage County,IL,NA,NA,42.58373205741627
60613,Cook County,IL,NA,NA,41.14832535885167
60638,Cook County,IL,NA,NA,19.138755980861244
60639,Cook County,IL,NA,NA,18.181818181818183
60804,Cook County,IL,42.65734265734265,NA,NA
60915,Kankakee County,IL,71.67832167832168,NA,NA
61201,Rock Island County,IL,52.44755244755245,NA,NA
61951,Moultrie County,IL,89.16083916083916,NA,NA
62305,Adams County,IL,NA,NA,76.55502392344498
62521,Macon County,IL,16.783216783216783,NA,24.401913875598087
62960,Massac County,IL,NA,NA,88.99521531100478
46221,Marion County,IN,53.4965034965035,NA,NA
46227,Marion County,IN,25.174825174825177,NA,NA
46321,Lake County,IN,37.41258741258741,NA,NA
46516,Elkhart County,IN,NA,16.39344262295082,NA
46628,St. Joseph County,IN,NA,51.91256830601093,NA
46725,Whitley County,IN,NA,NA,43.54066985645933
46815,Allen County,IN,NA,NA,45.45454545454545
47403,Monroe County,IN,NA,NA,71.29186602870813
47620,Posey County,IN,91.95804195804196,NA,NA
50441,Franklin County,IA,93.00699300699301,NA,NA
50701,Black Hawk County,IA,38.81118881118881,NA,NA
52641,Henry County,IA,NA,80.32786885245902,NA
52722,Scott County,IA,19.58041958041958,NA,NA
52803,Scott County,IA,NA,64.48087431693989,NA
66112,Wyandotte County,KS,NA,100,NA
67337,Montgomery County,KS,90.9090909090909,NA,NA
40203,Jefferson County,KY,26.573426573426573,NA,NA
40218,Jefferson County,KY,NA,38.25136612021858,NA
40505,Fayette County,KY,33.56643356643357,NA,NA
41175,Greenup County,KY,NA,87.97814207650273,NA
41635,Floyd County,KY,98.6013986013986,NA,NA
42087,Ballard County,KY,97.55244755244755,NA,NA
42101,Warren County,KY,NA,24.59016393442623,NA
42345,Muhlenberg County,KY,NA,NA,66.50717703349282
42748,Larue County,KY,83.91608391608392,NA,NA
70005,Jefferson Parish,LA,NA,NA,46.889952153110045
70053,Jefferson Parish,LA,NA,31.693989071038253,NA
70056,Jefferson Parish,LA,NA,NA,8.61244019138756
70065,Jefferson Parish,LA,NA,4.371584699453552,NA
70122,Orleans Parish,LA,NA,12.021857923497267,NA
70123,Jefferson Parish,LA,9.79020979020979,NA,NA
70363,Terrebonne Parish,LA,NA,2.73224043715847,6.698564593301436
70433,St. Tammany Parish,LA,9.090909090909092,NA,NA
70438,Washington Parish,LA,8.041958041958042,NA,NA
70454,Tangipahoa Parish,LA,NA,7.650273224043716,NA
70601,Calcasieu Parish,LA,NA,NA,2.8708133971291865
70737,Ascension Parish,LA,NA,89.61748633879782,NA
70805,East Baton Rouge Parish,LA,10.839160839160838,NA,NA
70811,East Baton Rouge Parish,LA,NA,NA,79.90430622009569
70812,East Baton Rouge Parish,LA,52.7972027972028,NA,NA
71111,Bossier Parish,LA,11.188811188811188,NA,NA
04062,Cumberland County,ME,NA,65.02732240437157,NA
04072,York County,ME,51.39860139860139,NA,NA
04086,Sagadahoc County,ME,93.7062937062937,NA,NA
04530,Sagadahoc County,ME,NA,56.830601092896174,NA
04901,Kennebec County,ME,NA,20.21857923497268,NA
20707,Prince George's County,MD,NA,NA,91.38755980861244
21620,Kent County,MD,NA,NA,98.56459330143541
21625,Talbot County,MD,97.55244755244755,NA,NA
01013,Hampden County,MA,NA,NA,4.784688995215311
01075,Hampshire County,MA,NA,NA,7.655502392344498
01104,Hampden County,MA,NA,NA,1.9138755980861244
01105,Hampden County,MA,NA,NA,29.665071770334926
01108,Hampden County,MA,NA,NA,2.3923444976076556
01201,Berkshire County,MA,NA,15.846994535519126,NA
01376,Franklin County,MA,NA,NA,72.24880382775119
01462,Worcester County,MA,NA,95.08196721311475,63.1578947368421
01606,Worcester County,MA,NA,NA,29.1866028708134
01773,Middlesex County,MA,NA,NA,96.17224880382776
01886,Middlesex County,MA,NA,NA,37.32057416267943
01902,Essex County,MA,NA,NA,0
02026,Norfolk County,MA,43.00699300699301,NA,10.526315789473683
02062,Norfolk County,MA,56.993006993006986,NA,NA
02119,Suffolk County,MA,6.993006993006993,NA,NA
02125,Suffolk County,MA,40.20979020979021,NA,NA
02127,Suffolk County,MA,NA,NA,1.4354066985645932
02135,Suffolk County,MA,NA,NA,7.177033492822966
02145,Middlesex County,MA,NA,16.939890710382514,11.004784688995215
02148,Middlesex County,MA,NA,18.0327868852459,NA
02149,Middlesex County,MA,1.048951048951049,26.229508196721312,NA
02150,Suffolk County,MA,0,NA,10.047846889952153
02324,Plymouth County,MA,NA,NA,22.00956937799043
02420,Middlesex County,MA,50.349650349650354,NA,NA
02703,Bristol County,MA,2.797202797202797,NA,NA
02767,Bristol County,MA,NA,NA,39.23444976076555
48038,Macomb County,MI,NA,74.86338797814209,NA
48042,Macomb County,MI,NA,84.69945355191257,NA
48089,Macomb County,MI,NA,32.78688524590164,NA
48141,Wayne County,MI,22.377622377622377,NA,NA
48198,Washtenaw County,MI,NA,47.540983606557376,25.837320574162682
48209,Wayne County,MI,31.818181818181817,NA,NA
48212,Wayne County,MI,NA,NA,19.617224880382775
48219,Wayne County,MI,2.4475524475524475,NA,NA
48224,Wayne County,MI,35.31468531468531,NA,NA
48235,Wayne County,MI,10.13986013986014,NA,NA
48240,Wayne County,MI,NA,NA,33.97129186602871
48335,Oakland County,MI,NA,NA,62.67942583732058
48428,Lapeer County,MI,NA,NA,92.34449760765551
48708,Bay County,MI,35.66433566433567,NA,NA
48843,Livingston County,MI,NA,41.53005464480874,NA
48911,Ingham County,MI,15.034965034965033,NA,NA
49017,Calhoun County,MI,50.6993006993007,NA,NA
49221,Lenawee County,MI,5.244755244755245,NA,NA
49349,Newaygo County,MI,NA,81.4207650273224,NA
49431,Mason County,MI,29.02097902097902,NA,NA
49442,Muskegon County,MI,NA,NA,5.741626794258373
49503,Kent County,MI,NA,NA,21.052631578947366
49504,Kent County,MI,NA,NA,55.50239234449761
49509,Kent County,MI,36.01398601398601,NA,NA
49534,Kent County,MI,NA,NA,85.64593301435407
49684,Grand Traverse County,MI,NA,NA,67.46411483253588
49685,Grand Traverse County,MI,NA,NA,64.5933014354067
49938,Gogebic County,MI,81.11888111888112,NA,NA
55082,Washington County,MN,NA,NA,73.68421052631578
55117,Ramsey County,MN,NA,14.754098360655737,27.27272727272727
55130,Ramsey County,MN,92.3076923076923,NA,NA
55303,Anoka County,MN,15.384615384615385,NA,NA
55328,Wright County,MN,88.81118881118881,NA,NA
55331,Hennepin County,MN,NA,NA,91.86602870813397
55403,Hennepin County,MN,21.328671328671327,NA,NA
55404,Hennepin County,MN,NA,9.289617486338798,NA
55411,Hennepin County,MN,NA,4.918032786885246,NA
55418,Hennepin County,MN,NA,38.79781420765027,NA
55423,Hennepin County,MN,NA,NA,64.11483253588517
55746,St. Louis County,MN,43.70629370629371,NA,NA
55810,St. Louis County,MN,97.2027972027972,NA,NA
55901,Olmsted County,MN,60.48951048951049,NA,NA
55971,Fillmore County,MN,95.45454545454545,NA,NA
56031,Martin County,MN,NA,59.56284153005464,NA
56097,Faribault County,MN,95.45454545454545,NA,NA
56378,Stearns County,MN,88.11188811188812,NA,NA
38637,DeSoto County,MS,44.40559440559441,NA,NA
38834,Alcorn County,MS,45.10489510489511,NA,NA
39056,Hinds County,MS,NA,34.42622950819672,NA
39074,Scott County,MS,26.923076923076923,NA,NA
39204,Hinds County,MS,NA,NA,37.32057416267943
39206,Hinds County,MS,NA,NA,42.58373205741627
39443,Jones County,MS,58.74125874125874,NA,NA
39601,Lincoln County,MS,NA,63.387978142076506,NA
39702,Lowndes County,MS,NA,NA,50.23923444976076
63042,St. Louis County,MO,NA,66.12021857923497,NA
63108,St. Louis city,MO,67.13286713286713,NA,NA
63670,Ste. Genevieve County,MO,61.53846153846154,NA,NA
63775,Perry County,MO,27.62237762237762,NA,NA
63801,Scott County,MO,NA,NA,35.406698564593306
63841,Stoddard County,MO,72.37762237762237,NA,NA
64012,Cass County,MO,NA,36.6120218579235,NA
64024,Clay County,MO,NA,NA,59.80861244019139
64057,Jackson County,MO,61.88811188811189,NA,NA
64068,Clay County,MO,1.7482517482517483,NA,NA
64108,Jackson County,MO,NA,58.46994535519126,NA
64116,Clay County,MO,NA,74.31693989071039,NA
64124,Jackson County,MO,NA,85.79234972677595,NA
64836,Jasper County,MO,NA,NA,30.62200956937799
65202,Boone County,MO,NA,NA,21.5311004784689
65301,Pettis County,MO,16.083916083916083,NA,NA
65803,Greene County,MO,NA,NA,75.11961722488039
59601,Lewis and Clark County,MT,NA,NA,77.99043062200957
59802,Missoula County,MT,86.7132867132867,NA,NA
68107,Douglas County,NE,48.25174825174825,NA,NA
03053,Rockingham County,NH,30.76923076923077,NA,NA
03102,Hillsborough County,NH,NA,85.24590163934425,33.49282296650718
03103,Hillsborough County,NH,NA,NA,12.440191387559809
03104,Hillsborough County,NH,24.125874125874127,NA,NA
03264,Grafton County,NH,NA,72.1311475409836,NA
03584,Coos County,NH,99.3006993006993,NA,NA
03820,Strafford County,NH,40.55944055944056,NA,NA
03825,Strafford County,NH,NA,93.44262295081968,NA
03867,Strafford County,NH,NA,NA,35.88516746411483
07003,Essex County,NJ,NA,20.76502732240437,NA
07036,Union County,NJ,NA,10.382513661202186,NA
07083,Union County,NJ,21.678321678321677,NA,NA
07093,Hudson County,NJ,NA,1.092896174863388,NA
07106,Essex County,NJ,NA,66.66666666666666,NA
07306,Hudson County,NJ,NA,NA,11.961722488038278
07823,Warren County,NJ,NA,NA,89.47368421052632
08004,Camden County,NJ,90.20979020979021,NA,NA
08010,Burlington County,NJ,NA,NA,61.72248803827751
08028,Gloucester County,NJ,33.91608391608392,NA,NA
08034,Camden County,NJ,NA,NA,47.368421052631575
08103,Camden County,NJ,NA,NA,9.090909090909092
08854,Middlesex County,NJ,46.50349650349651,NA,NA
87112,Bernalillo County,NM,25.524475524475527,NA,NA
87120,Bernalillo County,NM,NA,NA,66.02870813397129
88001,Doa Ana County,NM,NA,27.86885245901639,NA
88101,Curry County,NM,NA,17.48633879781421,NA
10029,New York County,NY,NA,0,NA
10305,Richmond County,NY,NA,NA,32.057416267942585
10452,Bronx County,NY,3.4965034965034967,NA,NA
10453,Bronx County,NY,0.6993006993006993,3.278688524590164,NA
10454,Bronx County,NY,14.685314685314685,NA,NA
10461,Bronx County,NY,NA,43.71584699453552,NA
10468,Bronx County,NY,NA,2.185792349726776,0.9569377990430622
10470,Bronx County,NY,NA,NA,65.07177033492823
10473,Bronx County,NY,NA,8.19672131147541,NA
10573,Westchester County,NY,NA,13.114754098360656,NA
10705,Westchester County,NY,NA,NA,18.660287081339714
11003,Nassau County,NY,76.92307692307693,NA,NA
11207,Kings County,NY,1.3986013986013985,NA,NA
11208,Kings County,NY,NA,3.825136612021858,NA
11213,Kings County,NY,NA,NA,11.483253588516746
11354,Queens County,NY,NA,NA,57.89473684210527
11368,Queens County,NY,NA,1.639344262295082,NA
11385,Queens County,NY,NA,NA,17.22488038277512
11590,Nassau County,NY,NA,42.62295081967213,NA
11967,Suffolk County,NY,NA,34.97267759562842,NA
12203,Albany County,NY,NA,NA,50.717703349282296
12302,Schenectady County,NY,NA,68.85245901639344,NA
12866,Saratoga County,NY,37.06293706293706,NA,NA
13033,Cayuga County,NY,NA,NA,97.1291866028708
13108,Onondaga County,NY,93.35664335664336,NA,NA
13424,Oneida County,NY,NA,NA,99.04306220095694
13662,St. Lawrence County,NY,34.96503496503497,NA,NA
13803,Cortland County,NY,NA,98.36065573770492,NA
13905,Broome County,NY,4.545454545454546,NA,NA
14020,Genesee County,NY,NA,NA,52.15311004784689
14051,Erie County,NY,72.72727272727273,NA,NA
14125,Genesee County,NY,85.66433566433567,NA,NA
14150,Erie County,NY,25.874125874125873,NA,NA
14220,Erie County,NY,NA,54.09836065573771,NA
14223,Erie County,NY,58.04195804195804,NA,NA
14226,Erie County,NY,62.93706293706294,NA,NA
14304,Niagara County,NY,NA,NA,9.569377990430622
14482,Genesee County,NY,73.77622377622379,NA,NA
14564,Ontario County,NY,38.111888111888106,NA,NA
14590,Wayne County,NY,NA,NA,55.980861244019145
14760,Cattaraugus County,NY,19.93006993006993,NA,NA
27105,Forsyth County,NC,5.594405594405594,14.207650273224044,NA
27127,Forsyth County,NC,3.8461538461538463,NA,NA
27215,Alamance County,NC,22.02797202797203,50.81967213114754,NA
27292,Davidson County,NC,15.734265734265735,21.311475409836063,NA
27299,Davidson County,NC,70.97902097902097,NA,NA
27341,Randolph County,NC,88.11188811188812,NA,NA
27529,Wake County,NC,NA,NA,38.75598086124402
27591,Wake County,NC,NA,NA,68.42105263157895
27616,Wake County,NC,NA,NA,34.92822966507177
27707,Durham County,NC,33.91608391608392,NA,NA
27712,Durham County,NC,NA,NA,77.03349282296651
27871,Martin County,NC,NA,NA,94.73684210526315
28043,Rutherford County,NC,65.38461538461539,NA,NA
28092,Lincoln County,NC,NA,45.3551912568306,NA
28269,Mecklenburg County,NC,17.832167832167833,NA,NA
28303,Cumberland County,NC,NA,40.98360655737705,NA
28314,Cumberland County,NC,36.71328671328671,NA,NA
28348,Cumberland County,NC,NA,37.704918032786885,NA
28390,Harnett County,NC,NA,68.85245901639344,NA
28411,New Hanover County,NC,55.24475524475524,NA,NA
28501,Lenoir County,NC,64.33566433566433,NA,NA
28504,Lenoir County,NC,NA,73.224043715847,NA
28651,Wilkes County,NC,NA,NA,86.60287081339713
28716,Haywood County,NC,NA,NA,60.76555023923444
28752,McDowell County,NC,NA,NA,26.31578947368421
58072,Barnes County,ND,77.27272727272727,NA,NA
58203,Grand Forks County,ND,77.97202797202797,NA,NA
58316,Rolette County,ND,NA,NA,94.25837320574163
58501,Burleigh County,ND,49.3006993006993,NA,NA
43015,Delaware County,OH,NA,51.36612021857923,NA
43026,Franklin County,OH,18.181818181818183,NA,33.014354066985646
43050,Knox County,OH,NA,24.043715846994534,13.875598086124402
43055,Licking County,OH,66.08391608391608,NA,NA
43082,Delaware County,OH,NA,65.57377049180327,NA
43113,Pickaway County,OH,54.54545454545454,NA,NA
43160,Fayette County,OH,NA,36.0655737704918,NA
43204,Franklin County,OH,NA,0.546448087431694,NA
43211,Franklin County,OH,NA,NA,20.095693779904305
43213,Franklin County,OH,NA,NA,17.703349282296653
43222,Franklin County,OH,NA,61.20218579234973,NA
43223,Franklin County,OH,2.097902097902098,35.51912568306011,NA
43227,Franklin County,OH,NA,NA,36.36363636363637
43228,Franklin County,OH,29.37062937062937,NA,NA
43229,Franklin County,OH,NA,9.836065573770492,NA
43230,Franklin County,OH,NA,48.63387978142077,NA
43231,Franklin County,OH,60.13986013986013,NA,NA
43402,Wood County,OH,NA,63.387978142076506,NA
43465,Wood County,OH,94.4055944055944,NA,NA
43512,Defiance County,OH,4.895104895104895,NA,NA
43560,Lucas County,OH,9.44055944055944,NA,NA
43609,Lucas County,OH,13.986013986013987,NA,NA
43611,Lucas County,OH,NA,49.72677595628415,NA
43613,Lucas County,OH,NA,NA,6.220095693779904
43701,Muskingum County,OH,0.34965034965034963,NA,NA
43935,Belmont County,OH,NA,NA,58.85167464114832
43952,Jefferson County,OH,NA,NA,14.354066985645932
44035,Lorain County,OH,NA,5.46448087431694,NA
44057,Lake County,OH,NA,59.01639344262295,NA
44102,Cuyahoga County,OH,NA,NA,0.4784688995215311
44103,Cuyahoga County,OH,NA,NA,16.74641148325359
44105,Cuyahoga County,OH,NA,7.103825136612022,NA
44107,Cuyahoga County,OH,5.944055944055944,NA,3.349282296650718
44109,Cuyahoga County,OH,12.237762237762238,12.568306010928962,NA
44120,Cuyahoga County,OH,NA,18.579234972677597,5.263157894736842
44126,Cuyahoga County,OH,75.87412587412588,NA,NA
44129,Cuyahoga County,OH,NA,NA,25.358851674641148
44130,Cuyahoga County,OH,NA,NA,8.133971291866029
44135,Cuyahoga County,OH,NA,NA,28.708133971291865
44138,Cuyahoga County,OH,NA,75.40983606557377,NA
44139,Cuyahoga County,OH,NA,NA,53.110047846889955
44203,Summit County,OH,10.48951048951049,10.92896174863388,12.918660287081341
44278,Summit County,OH,68.53146853146853,NA,NA
44310,Summit County,OH,NA,21.311475409836063,NA
44313,Summit County,OH,NA,NA,42.10526315789473
44507,Mahoning County,OH,NA,91.2568306010929,NA
44512,Mahoning County,OH,NA,27.86885245901639,NA
44646,Stark County,OH,NA,38.79781420765027,NA
44707,Stark County,OH,NA,NA,69.85645933014354
44830,Seneca County,OH,NA,NA,28.22966507177033
44907,Richland County,OH,79.37062937062937,NA,NA
45002,Hamilton County,OH,41.25874125874126,NA,NA
45013,Butler County,OH,4.195804195804196,NA,NA
45205,Hamilton County,OH,NA,27.322404371584703,NA
45206,Hamilton County,OH,36.01398601398601,NA,NA
45207,Hamilton County,OH,56.993006993006986,NA,NA
45239,Hamilton County,OH,NA,NA,27.751196172248804
45246,Hamilton County,OH,83.91608391608392,NA,NA
45248,Hamilton County,OH,83.56643356643356,NA,NA
45385,Greene County,OH,NA,26.775956284153008,NA
45601,Ross County,OH,NA,6.0109289617486334,NA
45629,Scioto County,OH,84.96503496503497,NA,NA
45690,Pike County,OH,45.45454545454545,NA,NA
45694,Scioto County,OH,48.25174825174825,NA,NA
45891,Van Wert County,OH,NA,78.14207650273224,NA
73018,Grady County,OK,79.02097902097903,NA,NA
73132,Oklahoma County,OK,NA,NA,65.55023923444976
73601,Custer County,OK,NA,NA,72.72727272727273
74021,Tulsa County,OK,62.58741258741259,NA,NA
74137,Tulsa County,OK,NA,NA,81.3397129186603
74538,Coal County,OK,96.85314685314685,NA,NA
97007,Washington County,OR,23.776223776223777,NA,NA
97140,Washington County,OR,NA,79.78142076502732,NA
97301,Marion County,OR,30.76923076923077,NA,NA
97355,Linn County,OR,NA,NA,23.444976076555022
97415,Curry County,OR,NA,NA,57.41626794258373
97914,Malheur County,OR,NA,NA,38.27751196172249
15301,Washington County,PA,NA,NA,13.397129186602871
15401,Fayette County,PA,18.88111888111888,NA,15.789473684210526
15601,Westmoreland County,PA,7.6923076923076925,NA,NA
15650,Westmoreland County,PA,NA,60.10928961748634,NA
16503,Erie County,PA,NA,NA,48.32535885167464
17057,Dauphin County,PA,NA,NA,30.14354066985646
17109,Dauphin County,PA,39.51048951048951,NA,NA
17821,Montour County,PA,37.76223776223776,68.30601092896174,NA
18042,Northampton County,PA,NA,22.404371584699454,NA
18109,Lehigh County,PA,NA,57.92349726775956,NA
18603,Columbia County,PA,83.21678321678321,NA,NA
18848,Bradford County,PA,NA,NA,82.77511961722487
18853,Bradford County,PA,95.1048951048951,NA,NA
19041,Delaware County,PA,NA,NA,97.60765550239235
19064,Delaware County,PA,NA,NA,51.674641148325364
19102,Philadelphia County,PA,NA,45.90163934426229,NA
19124,Philadelphia County,PA,30.419580419580424,NA,NA
19138,Philadelphia County,PA,NA,46.44808743169399,NA
19141,Philadelphia County,PA,NA,NA,15.311004784688995
19146,Philadelphia County,PA,32.86713286713287,NA,NA
19154,Philadelphia County,PA,NA,75.95628415300546,NA
19460,Chester County,PA,27.972027972027973,NA,NA
19602,Berks County,PA,NA,NA,22.966507177033492
29560,Florence County,SC,NA,NA,80.38277511961722
29842,Aiken County,SC,86.01398601398601,NA,NA
37042,Montgomery County,TN,NA,41.53005464480874,NA
37096,Perry County,TN,NA,NA,89.95215311004785
37172,Robertson County,TN,53.4965034965035,NA,NA
37207,Davidson County,TN,NA,53.00546448087432,NA
37210,Davidson County,TN,72.02797202797203,NA,NA
37216,Davidson County,TN,NA,NA,59.33014354066985
37615,Washington County,TN,NA,91.2568306010929,69.377990430622
37743,Greene County,TN,31.818181818181817,NA,NA
37807,Union County,TN,NA,75.95628415300546,NA
37862,Sevier County,TN,67.83216783216784,NA,NA
37920,Knox County,TN,NA,54.644808743169406,NA
38019,Tipton County,TN,75.52447552447552,NA,NA
38106,Shelby County,TN,74.82517482517483,NA,NA
38125,Shelby County,TN,NA,40.43715846994536,NA
38126,Shelby County,TN,NA,81.9672131147541,NA
38141,Shelby County,TN,56.993006993006986,NA,NA
38501,Putnam County,TN,39.86013986013986,NA,NA
75002,Collin County,TX,13.986013986013987,NA,NA
75035,Collin County,TX,41.60839160839161,NA,NA
75056,Denton County,TX,20.97902097902098,NA,NA
75069,Collin County,TX,39.16083916083916,NA,NA
75149,Dallas County,TX,6.643356643356643,NA,NA
75212,Dallas County,TX,NA,30.601092896174865,NA
75228,Dallas County,TX,11.188811188811188,NA,NA
75418,Fannin County,TX,85.3146853146853,NA,NA
75455,Titus County,TX,NA,43.169398907103826,NA
75460,Lamar County,TX,48.95104895104895,NA,NA
75462,Lamar County,TX,NA,NA,90.9090909090909
75703,Smith County,TX,NA,NA,73.20574162679426
75704,Smith County,TX,91.6083916083916,NA,NA
75762,Smith County,TX,NA,NA,79.42583732057416
76033,Johnson County,TX,47.2027972027972,NA,NA
76039,Tarrant County,TX,50,NA,NA
76086,Parker County,TX,69.23076923076923,NA,NA
76106,Tarrant County,TX,24.825174825174827,50.27322404371585,NA
76116,Tarrant County,TX,NA,29.508196721311474,NA
76119,Tarrant County,TX,NA,NA,14.832535885167463
76133,Tarrant County,TX,NA,NA,31.57894736842105
76209,Denton County,TX,NA,67.21311475409836,NA
76244,Tarrant County,TX,NA,48.08743169398907,NA
76542,Bell County,TX,NA,25.683060109289617,NA
76549,Bell County,TX,12.937062937062937,NA,NA
77067,Harris County,TX,NA,31.147540983606557,NA
77073,Harris County,TX,59.09090909090909,NA,NA
77095,Harris County,TX,NA,55.19125683060109,NA
77306,Montgomery County,TX,NA,78.68852459016394,NA
77339,Harris County,TX,61.18881118881119,NA,NA
77340,Walker County,TX,NA,NA,88.03827751196172
77365,Montgomery County,TX,NA,NA,60.28708133971292
77449,Harris County,TX,7.3426573426573425,NA,NA
77479,Fort Bend County,TX,18.53146853146853,NA,NA
77511,Brazoria County,TX,13.286713286713287,NA,NA
77523,Chambers County,TX,30.069930069930066,NA,NA
77550,Galveston County,TX,22.727272727272727,19.12568306010929,NA
77571,Harris County,TX,23.426573426573427,NA,NA
77573,Galveston County,TX,20.27972027972028,NA,49.282296650717704
77627,Jefferson County,TX,NA,83.06010928961749,NA
77651,Jefferson County,TX,80.41958041958041,NA,NA
77662,Orange County,TX,46.15384615384615,NA,NA
77801,Brazos County,TX,NA,61.74863387978142,NA
77864,Madison County,TX,90.20979020979021,NA,NA
77968,Victoria County,TX,NA,NA,98.08612440191388
78028,Kerr County,TX,NA,72.6775956284153,NA
78154,Guadalupe County,TX,NA,NA,77.51196172248804
78201,Bexar County,TX,NA,33.33333333333333,NA
78211,Bexar County,TX,47.9020979020979,NA,NA
78213,Bexar County,TX,16.433566433566433,NA,NA
78226,Bexar County,TX,NA,71.03825136612022,NA
78233,Bexar County,TX,NA,NA,52.63157894736842
78260,Bexar County,TX,70.62937062937063,NA,NA
78380,Nueces County,TX,NA,49.18032786885246,NA
78414,Nueces County,TX,NA,62.841530054644814,NA
78537,Hidalgo County,TX,32.86713286713287,NA,NA
78574,Hidalgo County,TX,19.230769230769234,NA,NA
78612,Bastrop County,TX,NA,NA,92.82296650717703
78617,Travis County,TX,62.23776223776224,NA,NA
78660,Travis County,TX,26.223776223776223,NA,NA
78702,Travis County,TX,78.32167832167832,NA,NA
78724,Travis County,TX,NA,79.23497267759562,NA
78727,Travis County,TX,NA,NA,90.43062200956938
78734,Travis County,TX,NA,NA,95.69377990430623
79416,Lubbock County,TX,51.74825174825175,NA,NA
79605,Taylor County,TX,NA,6.557377049180328,51.196172248803826
79701,Midland County,TX,NA,NA,53.588516746411486
79902,El Paso County,TX,NA,67.21311475409836,NA
79938,El Paso County,TX,NA,13.661202185792352,NA
84029,Tooele County,UT,74.12587412587412,NA,NA
84095,Salt Lake County,UT,29.72027972027972,NA,NA
84601,Utah County,UT,84.61538461538461,NA,NA
20111,Prince William County,VA,NA,39.89071038251366,NA
20120,Fairfax County,VA,69.23076923076923,NA,NA
22191,Prince William County,VA,11.888111888111888,NA,NA
22408,Spotsylvania County,VA,58.39160839160839,NA,NA
23236,Chesterfield County,VA,NA,NA,70.81339712918661
23605,Newport News city,VA,NA,75.95628415300546,NA
23803,Petersburg city,VA,NA,29.508196721311474,NA
23832,Chesterfield County,VA,NA,NA,56.45933014354066
24179,Roanoke County,VA,77.62237762237763,NA,NA
24201,Bristol city,VA,NA,46.44808743169399,NA
24266,Russell County,VA,NA,NA,75.5980861244019
98026,Snohomish County,WA,NA,NA,46.411483253588514
98032,King County,WA,68.18181818181817,NA,NA
98075,King County,WA,NA,NA,83.25358851674642
98087,Snohomish County,WA,55.24475524475524,NA,NA
98118,King County,WA,56.29370629370629,NA,NA
98274,Skagit County,WA,56.64335664335665,NA,NA
98374,Pierce County,WA,40.55944055944056,NA,NA
98682,Clark County,WA,41.95804195804196,NA,NA
98932,Yakima County,WA,98.25174825174825,NA,NA
20001,District of Columbia,DC,NA,NA,34.44976076555024
25143,Kanawha County,WV,87.41258741258741,NA,NA
25401,Berkeley County,WV,67.48251748251748,NA,NA
25427,Berkeley County,WV,NA,87.43169398907104,NA
25550,Mason County,WV,NA,NA,61.24401913875598
25701,Cabell County,WV,NA,NA,26.794258373205743
26062,Hancock County,WV,NA,NA,22.48803827751196
26155,Wetzel County,WV,NA,91.2568306010929,NA
26330,Harrison County,WV,NA,NA,78.94736842105263
26362,Ritchie County,WV,100,NA,NA
26416,Barbour County,WV,NA,NA,93.30143540669856
26757,Hampshire County,WV,NA,95.62841530054644,NA
53209,Milwaukee County,WI,3.146853146853147,NA,NA
53214,Milwaukee County,WI,NA,NA,23.923444976076556
53217,Milwaukee County,WI,32.51748251748251,NA,NA
53224,Milwaukee County,WI,23.076923076923077,NA,NA
53406,Racine County,WI,43.35664335664335,NA,NA
53559,Dane County,WI,96.5034965034965,NA,NA
53704,Dane County,WI,NA,NA,20.574162679425836
53711,Dane County,WI,NA,NA,44.97607655502392
54129,Calumet County,WI,99.65034965034964,NA,NA
54151,Marinette County,WI,NA,NA,81.81818181818183
54467,Portage County,WI,27.27272727272727,NA,NA
54650,La Crosse County,WI,65.73426573426573,NA,NA
54915,Outagamie County,WI,20.62937062937063,NA,NA
54942,Outagamie County,WI,NA,NA,96.65071770334929
