ZipCode,county,state,Youth,Adult,Retirement,Geriatric
35022,Jefferson County,AL,NA,NA,17.054986020503264,NA
35062,Jefferson County,AL,NA,NA,80.70829450139794,NA
35124,Shelby County,AL,NA,64.45283018867924,37.18546132339236,NA
35127,Jefferson County,AL,NA,NA,83.13140726933831,NA
35150,Talladega County,AL,NA,NA,NA,55.13626834381551
35151,Talladega County,AL,NA,NA,85.92730661696179,NA
35175,Marshall County,AL,NA,94.64150943396227,NA,NA
35214,Jefferson County,AL,68.54460093896714,NA,NA,NA
35215,Jefferson County,AL,NA,54.71698113207547,NA,NA
35244,Jefferson County,AL,NA,49.50943396226415,NA,NA
35603,Morgan County,AL,NA,16.22641509433962,NA,NA
35613,Limestone County,AL,NA,NA,46.50512581547064,NA
35630,Lauderdale County,AL,NA,31.471698113207548,NA,NA
35750,Madison County,AL,NA,60.60377358490566,NA,NA
35754,Morgan County,AL,NA,NA,99.16123019571296,NA
35758,Madison County,AL,NA,39.24528301886793,NA,NA
35763,Madison County,AL,NA,NA,55.73159366262814,NA
35769,Jackson County,AL,NA,87.0188679245283,NA,NA
35773,Madison County,AL,NA,NA,64.30568499534017,NA
35802,Madison County,AL,NA,NA,64.21248835041938,NA
35810,Madison County,AL,NA,NA,21.342031686859272,NA
35957,Marshall County,AL,NA,47.54716981132076,NA,NA
35959,Cherokee County,AL,NA,NA,86.20689655172413,NA
35976,Marshall County,AL,NA,48,NA,56.60377358490566
36066,Autauga County,AL,NA,54.41509433962264,NA,NA
36067,Autauga County,AL,NA,NA,46.22553588070829,NA
36203,Calhoun County,AL,52.112676056338024,50.86792452830189,NA,NA
36206,Calhoun County,AL,NA,NA,74.18452935694316,NA
36303,Houston County,AL,NA,88.37735849056604,NA,NA
36360,Dale County,AL,NA,48.301886792452834,NA,NA
36426,Escambia County,AL,NA,NA,59.64585274930102,NA
36467,Covington County,AL,NA,71.24528301886792,NA,NA
36532,Baldwin County,AL,NA,NA,24.324324324324326,NA
36618,Mobile County,AL,NA,70.41509433962264,NA,NA
36693,Mobile County,AL,76.99530516431925,NA,NA,NA
36863,Chambers County,AL,NA,NA,65.89002795899349,NA
36867,Russell County,AL,NA,NA,NA,68.76310272536688
99502,Anchorage Municipality,AK,NA,53.20754716981132,NA,NA
85007,Maricopa County,AZ,NA,9.735849056603774,NA,NA
85015,Maricopa County,AZ,NA,NA,92.07828518173345,NA
85020,Maricopa County,AZ,NA,NA,NA,50.73375262054507
85022,Maricopa County,AZ,30.51643192488263,NA,NA,NA
85053,Maricopa County,AZ,NA,89.66037735849056,NA,NA
85128,Pinal County,AZ,NA,94.56603773584905,NA,NA
85139,Pinal County,AZ,NA,54.943396226415096,NA,NA
85143,Pinal County,AZ,NA,36.83018867924528,NA,NA
85204,Maricopa County,AZ,NA,NA,NA,47.79874213836478
85207,Maricopa County,AZ,NA,NA,NA,53.878406708595385
85213,Maricopa County,AZ,33.80281690140845,NA,NA,NA
85248,Maricopa County,AZ,NA,NA,NA,7.966457023060797
85282,Maricopa County,AZ,NA,42.49056603773585,NA,NA
85295,Maricopa County,AZ,NA,40.52830188679245,74.27772600186393,NA
85301,Maricopa County,AZ,23.004694835680752,42.56603773584906,NA,NA
85308,Maricopa County,AZ,NA,35.16981132075472,NA,NA
85326,Maricopa County,AZ,NA,NA,42.218080149114634,NA
85339,Maricopa County,AZ,NA,NA,50.51258154706431,NA
85344,La Paz County,AZ,NA,NA,35.13513513513514,NA
85351,Maricopa County,AZ,NA,NA,NA,0.8385744234800839
85374,Maricopa County,AZ,NA,NA,19.105312208760488,NA
85381,Maricopa County,AZ,NA,NA,NA,46.12159329140461
85387,Maricopa County,AZ,NA,77.81132075471699,NA,NA
85614,Pima County,AZ,NA,NA,53.68126747437092,NA
85629,Pima County,AZ,NA,NA,NA,85.53459119496856
85705,Pima County,AZ,NA,NA,NA,75.8909853249476
85706,Pima County,AZ,NA,2.5660377358490565,NA,NA
85711,Pima County,AZ,NA,8,13.606710158434296,NA
85718,Pima County,AZ,NA,81.13207547169812,NA,NA
85719,Pima County,AZ,NA,NA,NA,71.0691823899371
85741,Pima County,AZ,NA,NA,NA,89.09853249475891
85742,Pima County,AZ,NA,52.075471698113205,NA,NA
85746,Pima County,AZ,NA,11.773584905660377,NA,NA
85748,Pima County,AZ,NA,NA,70.0838769804287,NA
85756,Pima County,AZ,NA,66.8679245283019,NA,NA
85901,Navajo County,AZ,NA,NA,NA,62.264150943396224
85937,Navajo County,AZ,NA,NA,NA,91.82389937106919
86001,Coconino County,AZ,NA,54.490566037735846,NA,NA
86004,Coconino County,AZ,NA,6.188679245283018,NA,NA
86303,Yavapai County,AZ,NA,NA,42.77726001863933,NA
86314,Yavapai County,AZ,NA,16,NA,NA
86326,Yavapai County,AZ,NA,24.60377358490566,82.47903075489282,NA
86401,Mohave County,AZ,NA,8.528301886792452,NA,NA
86404,Mohave County,AZ,NA,69.73584905660377,NA,NA
86429,Mohave County,AZ,NA,NA,57.409133271202236,NA
86442,Mohave County,AZ,NA,NA,41.2861136999068,NA
71602,Jefferson County,AR,NA,62.86792452830189,NA,NA
71603,Jefferson County,AR,NA,35.24528301886792,NA,NA
71701,Ouachita County,AR,NA,73.43396226415095,NA,NA
71822,Little River County,AR,NA,NA,72.41379310344827,NA
71913,Garland County,AR,44.60093896713615,38.0377358490566,NA,NA
72114,Pulaski County,AR,NA,NA,62.72134203168685,NA
72117,Pulaski County,AR,NA,54.56603773584906,NA,NA
72120,Pulaski County,AR,NA,NA,49.95340167753961,NA
72131,Cleburne County,AR,NA,NA,NA,96.85534591194968
72205,Pulaski County,AR,NA,NA,56.01118359739049,NA
72401,Craighead County,AR,NA,NA,42.124883504193846,19.70649895178197
72472,Poinsett County,AR,NA,79.84905660377358,NA,NA
72501,Independence County,AR,NA,NA,25.349487418452938,NA
72543,Cleburne County,AR,NA,NA,60.11183597390494,NA
72704,Washington County,AR,77.93427230046949,NA,NA,NA
72756,Benton County,AR,NA,NA,35.507921714818266,NA
72830,Johnson County,AR,NA,NA,89.37558247903075,NA
72855,Logan County,AR,NA,85.28301886792453,NA,NA
72933,Franklin County,AR,NA,NA,96.92451071761417,NA
72956,Crawford County,AR,NA,51.62264150943396,NA,NA
90004,Los Angeles County,CA,NA,NA,38.95619757688723,NA
90008,Los Angeles County,CA,NA,92.15094339622641,NA,NA
90012,Los Angeles County,CA,NA,64.52830188679245,NA,NA
90018,Los Angeles County,CA,NA,NA,30.661696178937557,NA
90019,Los Angeles County,CA,NA,41.9622641509434,NA,NA
90020,Los Angeles County,CA,69.95305164319248,NA,NA,NA
90022,Los Angeles County,CA,NA,NA,NA,28.721174004192875
90023,Los Angeles County,CA,NA,38.113207547169814,NA,NA
90029,Los Angeles County,CA,NA,NA,69.33830382106244,NA
90036,Los Angeles County,CA,NA,85.43396226415095,NA,NA
90037,Los Angeles County,CA,22.535211267605636,NA,40.72693383038211,NA
90047,Los Angeles County,CA,NA,15.018867924528301,12.39515377446412,NA
90057,Los Angeles County,CA,NA,39.62264150943396,NA,NA
90064,Los Angeles County,CA,NA,NA,48.555452003727865,NA
90241,Los Angeles County,CA,NA,54.943396226415096,NA,NA
90250,Los Angeles County,CA,NA,25.28301886792453,NA,NA
90265,Los Angeles County,CA,NA,NA,95.71295433364398,NA
90272,Los Angeles County,CA,NA,NA,66.91519105312209,NA
90501,Los Angeles County,CA,NA,50.113207547169814,NA,NA
90503,Los Angeles County,CA,56.8075117370892,NA,NA,NA
90504,Los Angeles County,CA,NA,NA,62.44175209692451,NA
90505,Los Angeles County,CA,NA,NA,40.63373718546132,NA
90603,Los Angeles County,CA,NA,NA,NA,48.84696016771489
90631,Orange County,CA,NA,NA,NA,27.044025157232703
90703,Los Angeles County,CA,NA,62.113207547169814,NA,NA
90712,Los Angeles County,CA,NA,NA,48.462255358807084,NA
90740,Orange County,CA,NA,67.69811320754717,NA,NA
90813,Los Angeles County,CA,NA,33.35849056603774,NA,NA
91001,Los Angeles County,CA,NA,NA,69.89748369058714,NA
91007,Los Angeles County,CA,NA,90.41509433962264,NA,NA
91104,Los Angeles County,CA,NA,NA,49.76700838769804,NA
91316,Los Angeles County,CA,NA,NA,51.444547996272135,NA
91324,Los Angeles County,CA,NA,NA,NA,82.18029350104821
91335,Los Angeles County,CA,NA,NA,NA,67.9245283018868
91340,Los Angeles County,CA,63.84976525821596,NA,NA,NA
91344,Los Angeles County,CA,NA,NA,NA,25.995807127882596
91606,Los Angeles County,CA,NA,NA,52.56290773532153,NA
91709,San Bernardino County,CA,NA,34.64150943396226,NA,NA
91711,Los Angeles County,CA,NA,80.0754716981132,NA,NA
91730,San Bernardino County,CA,NA,20.30188679245283,NA,NA
91744,Los Angeles County,CA,NA,18.11320754716981,NA,24.31865828092243
91745,Los Angeles County,CA,NA,NA,91.51910531220877,NA
91763,San Bernardino County,CA,NA,64.0754716981132,NA,NA
91765,Los Angeles County,CA,NA,NA,52.46971109040075,NA
91767,Los Angeles County,CA,NA,NA,NA,54.926624737945495
91780,Los Angeles County,CA,NA,NA,NA,51.57232704402516
91911,San Diego County,CA,NA,24.528301886792452,NA,10.482180293501047
91941,San Diego County,CA,NA,NA,75.30288909599254,NA
91977,San Diego County,CA,NA,35.84905660377358,NA,NA
92026,San Diego County,CA,NA,NA,46.78471575023299,NA
92028,San Diego County,CA,NA,63.471698113207545,NA,NA
92057,San Diego County,CA,NA,57.660377358490564,NA,NA
92078,San Diego County,CA,NA,54.64150943396226,NA,NA
92084,San Diego County,CA,46.478873239436616,NA,61.78937558247903,NA
92104,San Diego County,CA,NA,28.000000000000004,36.34669151910531,NA
92108,San Diego County,CA,NA,83.47169811320755,NA,NA
92109,San Diego County,CA,NA,68.45283018867924,NA,NA
92113,San Diego County,CA,NA,25.433962264150946,NA,NA
92114,San Diego County,CA,NA,84.60377358490567,NA,NA
92117,San Diego County,CA,NA,80.0754716981132,NA,NA
92118,San Diego County,CA,NA,NA,NA,76.72955974842768
92130,San Diego County,CA,NA,NA,57.875116495806154,NA
92201,Riverside County,CA,NA,57.9622641509434,17.520969245107175,NA
92203,Riverside County,CA,NA,NA,19.384902143522833,NA
92225,Riverside County,CA,NA,90.11320754716982,NA,NA
92240,Riverside County,CA,NA,NA,37.46505125815471,NA
92241,Riverside County,CA,NA,94.0377358490566,NA,NA
92260,Riverside County,CA,NA,NA,66.44920782851817,NA
92270,Riverside County,CA,NA,92.60377358490565,82.6654240447344,3.1446540880503147
92284,San Bernardino County,CA,NA,NA,26.933830382106244,NA
92301,San Bernardino County,CA,NA,NA,45.293569431500465,NA
92335,San Bernardino County,CA,NA,NA,15.563839701770737,NA
92336,San Bernardino County,CA,NA,NA,17.42777260018639,NA
92407,San Bernardino County,CA,NA,17.660377358490567,NA,NA
92543,Riverside County,CA,NA,NA,NA,55.76519916142557
92592,Riverside County,CA,NA,29.132075471698116,NA,NA
92677,Orange County,CA,NA,33.886792452830186,NA,NA
92691,Orange County,CA,NA,NA,21.62162162162162,NA
92707,Orange County,CA,42.72300469483568,NA,NA,NA
92804,Orange County,CA,NA,44.905660377358494,NA,28.09224318658281
92807,Orange County,CA,NA,80.45283018867924,NA,NA
92821,Orange County,CA,NA,63.16981132075472,NA,NA
92879,Riverside County,CA,NA,NA,55.07921714818267,NA
92887,Orange County,CA,NA,88.52830188679245,NA,NA
93001,Ventura County,CA,NA,60.37735849056604,NA,NA
93003,Ventura County,CA,NA,14.641509433962263,54.333643988816405,NA
93004,Ventura County,CA,NA,NA,NA,58.07127882599581
93012,Ventura County,CA,NA,NA,NA,33.75262054507338
93060,Ventura County,CA,NA,37.50943396226415,NA,NA
93063,Ventura County,CA,NA,NA,25.16309412861137,NA
93065,Ventura County,CA,NA,14.415094339622641,NA,NA
93103,Santa Barbara County,CA,NA,82.86792452830188,NA,NA
93203,Kern County,CA,NA,NA,97.39049394221809,NA
93274,Tulare County,CA,NA,47.16981132075472,NA,NA
93277,Tulare County,CA,NA,25.962264150943398,NA,NA
93291,Tulare County,CA,NA,NA,69.80428704566636,NA
93292,Tulare County,CA,NA,70.71698113207547,NA,NA
93306,Kern County,CA,31.455399061032864,NA,NA,NA
93307,Kern County,CA,NA,NA,NA,95.38784067085953
93436,Santa Barbara County,CA,NA,15.09433962264151,NA,NA
93458,Santa Barbara County,CA,NA,13.584905660377359,NA,NA
93514,Inyo County,CA,NA,NA,NA,63.312368972746334
93534,Los Angeles County,CA,NA,37.43396226415094,NA,NA
93536,Los Angeles County,CA,NA,NA,88.81640260950606,NA
93550,Los Angeles County,CA,NA,12.452830188679245,NA,NA
93555,Kern County,CA,NA,72.15094339622642,NA,NA
93612,Fresno County,CA,NA,NA,NA,44.44444444444444
93636,Madera County,CA,NA,85.35849056603773,77.72600186393291,NA
93637,Madera County,CA,NA,NA,56.849953401677546,NA
93706,Fresno County,CA,NA,23.62264150943396,NA,NA
93720,Fresno County,CA,NA,NA,NA,52.620545073375254
93906,Monterey County,CA,NA,41.132075471698116,NA,NA
93907,Monterey County,CA,NA,76.15094339622641,NA,NA
94014,San Mateo County,CA,NA,46.18867924528302,NA,NA
94027,San Mateo County,CA,NA,95.01886792452831,NA,NA
94087,Santa Clara County,CA,NA,76.9811320754717,NA,NA
94103,San Francisco County,CA,NA,11.169811320754718,NA,NA
94117,San Francisco County,CA,NA,36.60377358490566,42.684063373718544,NA
94118,San Francisco County,CA,NA,NA,NA,26.41509433962264
94124,San Francisco County,CA,NA,25.660377358490567,NA,NA
94127,San Francisco County,CA,NA,84.15094339622642,NA,NA
94303,San Mateo County,CA,NA,NA,27.77260018639329,NA
94306,Santa Clara County,CA,NA,83.47169811320755,NA,57.65199161425576
94502,Alameda County,CA,NA,NA,86.48648648648648,NA
94505,Contra Costa County,CA,NA,NA,80.4287045666356,NA
94507,Contra Costa County,CA,NA,NA,69.43150046598322,NA
94510,Solano County,CA,NA,80.22641509433961,NA,NA
94513,Contra Costa County,CA,NA,NA,23.951537744641193,34.80083857442348
94526,Contra Costa County,CA,NA,65.58490566037736,NA,NA
94531,Contra Costa County,CA,65.72769953051643,34.867924528301884,NA,45.492662473794546
94538,Alameda County,CA,NA,NA,86.57968313140726,NA
94561,Contra Costa County,CA,NA,40.52830188679245,NA,NA
94566,Alameda County,CA,89.2018779342723,NA,NA,NA
94572,Contra Costa County,CA,NA,NA,88.6300093196645,NA
94578,Alameda County,CA,NA,51.698113207547166,89.46877912395153,NA
94585,Solano County,CA,NA,NA,72.87977632805219,NA
94587,Alameda County,CA,NA,NA,22.087604846225535,NA
94590,Solano County,CA,NA,29.509433962264154,NA,NA
94596,Contra Costa County,CA,NA,NA,80.05591798695248,NA
94598,Contra Costa County,CA,NA,96.67924528301887,NA,NA
94601,Alameda County,CA,NA,NA,70.6430568499534,NA
94618,Alameda County,CA,NA,NA,NA,72.95597484276729
94806,Contra Costa County,CA,NA,NA,22.18080149114632,NA
94928,Sonoma County,CA,NA,NA,43.24324324324324,47.16981132075472
94945,Marin County,CA,NA,NA,68.87232059645852,NA
94947,Marin County,CA,NA,NA,NA,68.9727463312369
94954,Sonoma County,CA,NA,50.41509433962265,NA,NA
95037,Santa Clara County,CA,NA,NA,32.525629077353216,NA
95050,Santa Clara County,CA,NA,NA,NA,56.18448637316562
95051,Santa Clara County,CA,NA,NA,50.13979496738118,NA
95066,Santa Cruz County,CA,NA,NA,95.99254426840633,NA
95070,Santa Clara County,CA,NA,NA,NA,22.431865828092242
95112,Santa Clara County,CA,NA,38.56603773584906,NA,NA
95120,Santa Clara County,CA,NA,85.13207547169812,NA,NA
95123,Santa Clara County,CA,NA,68.30188679245282,NA,NA
95124,Santa Clara County,CA,NA,NA,38.676607642124885,NA
95128,Santa Clara County,CA,NA,37.056603773584904,NA,NA
95132,Santa Clara County,CA,NA,NA,NA,59.11949685534591
95148,Santa Clara County,CA,NA,NA,42.404473438956195,NA
95209,San Joaquin County,CA,61.97183098591549,NA,NA,NA
95215,San Joaquin County,CA,NA,NA,84.34296365330847,NA
95223,Calaveras County,CA,NA,NA,NA,94.12997903563941
95307,Stanislaus County,CA,NA,33.132075471698116,NA,NA
95336,San Joaquin County,CA,NA,NA,NA,30.18867924528302
95337,San Joaquin County,CA,NA,41.509433962264154,NA,NA
95355,Stanislaus County,CA,NA,NA,38.49021435228332,NA
95363,Stanislaus County,CA,NA,62.33962264150943,NA,NA
95376,San Joaquin County,CA,NA,NA,NA,49.895178197064986
95409,Sonoma County,CA,NA,81.9622641509434,NA,NA
95425,Sonoma County,CA,NA,NA,81.82665424044734,NA
95464,Lake County,CA,NA,99.0188679245283,NA,NA
95503,Humboldt County,CA,NA,92.90566037735849,NA,58.280922431865825
95519,Humboldt County,CA,NA,71.32075471698113,NA,NA
95521,Humboldt County,CA,NA,81.81132075471697,NA,NA
95648,Placer County,CA,NA,61.58490566037735,58.620689655172406,NA
95677,Placer County,CA,NA,NA,77.07362534948741,NA
95687,Solano County,CA,NA,NA,21.90121155638397,NA
95757,Sacramento County,CA,NA,73.66037735849056,NA,63.731656184486376
95758,Sacramento County,CA,NA,NA,87.32525629077354,NA
95820,Sacramento County,CA,NA,52.52830188679245,NA,NA
95823,Sacramento County,CA,NA,11.09433962264151,NA,NA
95835,Sacramento County,CA,NA,67.09433962264151,NA,NA
95841,Sacramento County,CA,NA,NA,78.84436160298229,NA
95928,Butte County,CA,NA,NA,33.271202236719475,NA
95948,Butte County,CA,NA,91.01886792452831,NA,NA
95949,Nevada County,CA,NA,87.24528301886792,NA,NA
95959,Nevada County,CA,NA,NA,47.809878844361606,NA
95961,Yuba County,CA,NA,45.58490566037736,NA,NA
96001,Shasta County,CA,NA,21.358490566037737,NA,NA
96003,Shasta County,CA,NA,44.45283018867924,NA,NA
96019,Shasta County,CA,NA,NA,88.35041938490214,NA
80003,Jefferson County,CO,NA,NA,NA,68.34381551362684
80005,Jefferson County,CO,NA,NA,NA,73.37526205450735
80011,Arapahoe County,CO,NA,NA,34.01677539608574,NA
80018,Arapahoe County,CO,NA,NA,96.64492078285181,NA
80022,Adams County,CO,NA,16.37735849056604,NA,NA
80026,Boulder County,CO,NA,61.66037735849057,76.42124883504195,NA
80107,Elbert County,CO,NA,86.41509433962264,NA,NA
80108,Douglas County,CO,NA,NA,57.688723205964585,NA
80113,Arapahoe County,CO,NA,60.22641509433962,NA,NA
80127,Jefferson County,CO,NA,48.528301886792455,NA,NA
80128,Jefferson County,CO,NA,59.924528301886795,NA,NA
80211,Denver County,CO,NA,NA,76.0484622553588,NA
80214,Jefferson County,CO,NA,42.716981132075475,NA,NA
80226,Jefferson County,CO,24.88262910798122,NA,NA,NA
80239,Denver County,CO,NA,25.207547169811324,NA,NA
80304,Boulder County,CO,56.33802816901409,NA,65.23765144454799,NA
80439,Jefferson County,CO,92.48826291079813,NA,49.30102516309413,NA
80501,Boulder County,CO,NA,20.830188679245282,NA,NA
80524,Larimer County,CO,NA,95.54716981132076,26.56104380242311,NA
80537,Larimer County,CO,35.68075117370892,22.264150943396228,NA,NA
80631,Weld County,CO,NA,NA,NA,73.37526205450735
80634,Weld County,CO,NA,33.28301886792453,NA,11.949685534591195
80817,El Paso County,CO,NA,54.339622641509436,NA,NA
80903,El Paso County,CO,NA,NA,80.80149114631874,NA
80909,El Paso County,CO,NA,25.358490566037734,NA,NA
80911,El Paso County,CO,NA,42.64150943396226,NA,NA
80920,El Paso County,CO,NA,NA,58.99347623485555,NA
81001,Pueblo County,CO,NA,21.962264150943398,NA,NA
81007,Pueblo County,CO,NA,NA,41.09972041006524,NA
81240,Fremont County,CO,NA,NA,96.55172413793103,90.14675052410901
81321,Montezuma County,CO,NA,NA,60.95060577819198,NA
81401,Montrose County,CO,NA,NA,NA,35.84905660377358
81521,Mesa County,CO,NA,NA,67.381174277726,NA
81637,Eagle County,CO,NA,96.98113207547169,NA,NA
06002,Hartford County,CT,NA,NA,29.263746505125816,NA
06010,Hartford County,CT,NA,NA,3.075489282385834,NA
06029,Tolland County,CT,NA,NA,64.39888164026095,NA
06042,Hartford County,CT,NA,80.83018867924528,75.11649580615098,NA
06071,Tolland County,CT,NA,NA,86.20689655172413,NA
06106,Hartford County,CT,NA,4.679245283018868,NA,NA
06111,Hartford County,CT,NA,38.86792452830189,NA,NA
06118,Hartford County,CT,NA,59.01886792452831,NA,NA
06120,Hartford County,CT,NA,76.22641509433963,NA,NA
06226,Windham County,CT,NA,15.69811320754717,NA,NA
06239,Windham County,CT,NA,67.16981132075472,NA,NA
06405,New Haven County,CT,NA,82.41509433962264,NA,NA
06457,Middlesex County,CT,NA,NA,9.599254426840634,NA
06473,New Haven County,CT,NA,67.84905660377359,NA,NA
06479,Hartford County,CT,99.06103286384976,NA,NA,NA
06488,New Haven County,CT,NA,NA,37.65144454799627,NA
06489,Hartford County,CT,NA,63.62264150943396,NA,NA
06492,New Haven County,CT,NA,21.735849056603772,NA,NA
06511,New Haven County,CT,NA,4.452830188679245,NA,NA
06513,New Haven County,CT,NA,4.150943396226415,NA,NA
06515,New Haven County,CT,NA,NA,70.36346691519105,NA
06519,New Haven County,CT,NA,57.58490566037736,NA,NA
06606,Fairfield County,CT,NA,17.735849056603772,NA,NA
06611,Fairfield County,CT,NA,74.33962264150942,NA,NA
06614,Fairfield County,CT,NA,NA,67.19478098788444,NA
06704,New Haven County,CT,NA,22.79245283018868,NA,NA
06710,New Haven County,CT,NA,NA,NA,97.9035639412998
06790,Litchfield County,CT,NA,NA,2.7027027027027026,NA
06795,Litchfield County,CT,NA,82.64150943396227,NA,NA
06811,Fairfield County,CT,NA,47.0188679245283,NA,NA
06850,Fairfield County,CT,NA,70.11320754716981,NA,NA
06854,Fairfield County,CT,NA,NA,NA,67.50524109014675
06897,Fairfield County,CT,61.502347417840376,NA,NA,NA
06902,Fairfield County,CT,NA,21.660377358490564,NA,NA
19709,New Castle County,DE,NA,21.20754716981132,20.410065237651445,NA
19713,New Castle County,DE,NA,NA,65.05125815470643,NA
19734,New Castle County,DE,NA,NA,78.09878844361603,NA
19801,New Castle County,DE,NA,39.84905660377358,98.60205032618826,NA
19804,New Castle County,DE,NA,NA,NA,62.68343815513627
19805,New Castle County,DE,NA,49.58490566037736,NA,NA
19808,New Castle County,DE,NA,23.32075471698113,NA,NA
19901,Kent County,DE,NA,17.433962264150942,NA,NA
19904,Kent County,DE,NA,12.830188679245284,NA,NA
19953,Kent County,DE,NA,NA,97.57688723205965,NA
19968,Sussex County,DE,NA,NA,44.45479962721342,NA
19977,Kent County,DE,NA,23.77358490566038,NA,NA
32008,Suwannee County,FL,NA,NA,92.26467847157502,94.75890985324948
32024,Columbia County,FL,NA,NA,41.37931034482759,NA
32065,Clay County,FL,NA,43.39622641509434,NA,NA
32086,St. Johns County,FL,25.821596244131456,NA,NA,NA
32128,Volusia County,FL,NA,NA,59.08667287977632,NA
32159,Lake County,FL,NA,NA,NA,7.337526205450734
32163,Sumter County,FL,NA,NA,33.73718546132339,NA
32164,Flagler County,FL,NA,35.471698113207545,NA,NA
32174,Volusia County,FL,NA,NA,NA,11.320754716981133
32207,Duval County,FL,NA,NA,41.93849021435228,NA
32209,Duval County,FL,NA,4.377358490566038,NA,NA
32221,Duval County,FL,NA,30.339622641509433,35.3215284249767,NA
32250,Duval County,FL,NA,NA,NA,69.60167714884696
32254,Duval County,FL,NA,49.283018867924525,NA,NA
32308,Leon County,FL,NA,71.69811320754717,62.81453867660765,NA
32311,Leon County,FL,NA,NA,91.98508853681268,NA
32331,Madison County,FL,NA,96.07547169811322,NA,NA
32340,Madison County,FL,NA,76.30188679245283,NA,NA
32413,Bay County,FL,NA,NA,NA,75.68134171907757
32431,Jackson County,FL,NA,NA,82.29263746505126,NA
32446,Jackson County,FL,NA,NA,NA,84.27672955974843
32505,Escambia County,FL,NA,NA,40.82013047530289,NA
32506,Escambia County,FL,NA,13.584905660377359,NA,NA
32507,Escambia County,FL,NA,86.64150943396226,NA,NA
32514,Escambia County,FL,NA,NA,13.140726933830383,NA
32526,Escambia County,FL,NA,NA,NA,41.509433962264154
32566,Santa Rosa County,FL,NA,NA,22.92637465051258,NA
32578,Okaloosa County,FL,NA,NA,19.94408201304753,NA
32605,Alachua County,FL,NA,NA,30.848089468779122,NA
32606,Alachua County,FL,NA,NA,27.12022367194781,NA
32607,Alachua County,FL,NA,NA,44.08201304753029,NA
32615,Alachua County,FL,NA,64.0754716981132,NA,NA
32667,Alachua County,FL,98.59154929577466,NA,NA,NA
32669,Alachua County,FL,NA,NA,65.42404473438957,NA
32708,Seminole County,FL,NA,84.52830188679246,NA,NA
32714,Seminole County,FL,NA,65.73584905660378,NA,NA
32746,Seminole County,FL,NA,NA,NA,85.74423480083857
32789,Orange County,FL,99.53051643192488,NA,NA,NA
32796,Brevard County,FL,NA,NA,NA,40.25157232704403
32806,Orange County,FL,NA,92.83018867924528,76.14165890027958,NA
32808,Orange County,FL,NA,14.867924528301888,NA,NA
32818,Orange County,FL,NA,NA,NA,63.102725366876314
32835,Orange County,FL,NA,NA,51.16495806150979,NA
32837,Orange County,FL,NA,NA,47.43709226467847,NA
32839,Orange County,FL,NA,27.0188679245283,NA,NA
32905,Brevard County,FL,NA,NA,NA,85.32494758909853
32920,Brevard County,FL,NA,81.28301886792453,NA,NA
32958,Indian River County,FL,NA,67.39622641509435,NA,NA
32968,Indian River County,FL,NA,NA,58.24790307548928,NA
33010,Miami-Dade County,FL,NA,65.50943396226415,NA,NA
33018,Miami-Dade County,FL,NA,73.13207547169812,NA,NA
33040,Monroe County,FL,NA,NA,NA,67.08595387840671
33056,Miami-Dade County,FL,NA,NA,NA,51.78197064989518
33069,Broward County,FL,NA,NA,62.16216216216216,NA
33073,Broward County,FL,NA,68.60377358490565,NA,NA
33140,Miami-Dade County,FL,NA,NA,NA,61.42557651991615
33175,Miami-Dade County,FL,NA,NA,24.137931034482758,19.91614255765199
33182,Miami-Dade County,FL,NA,NA,94.22180801491147,NA
33196,Miami-Dade County,FL,NA,NA,62.44175209692451,NA
33312,Broward County,FL,NA,78.9433962264151,NA,NA
33414,Palm Beach County,FL,NA,NA,NA,70.64989517819707
33426,Palm Beach County,FL,NA,NA,77.91239515377445,NA
33433,Palm Beach County,FL,NA,NA,NA,2.7253668763102725
33437,Palm Beach County,FL,NA,NA,51.910531220876045,NA
33440,Hendry County,FL,NA,52,NA,NA
33441,Broward County,FL,NA,88.22641509433963,NA,NA
33455,Martin County,FL,NA,NA,NA,14.255765199161424
33483,Palm Beach County,FL,NA,NA,79.58993476234856,NA
33544,Pasco County,FL,NA,NA,53.30848089468779,NA
33569,Hillsborough County,FL,NA,NA,NA,86.37316561844864
33572,Hillsborough County,FL,NA,79.39622641509433,NA,NA
33579,Hillsborough County,FL,NA,69.88679245283019,NA,NA
33594,Hillsborough County,FL,NA,NA,79.40354147250699,NA
33604,Hillsborough County,FL,NA,24.830188679245282,NA,NA
33610,Hillsborough County,FL,5.164319248826291,NA,NA,NA
33612,Hillsborough County,FL,NA,NA,37.27865796831314,NA
33613,Hillsborough County,FL,NA,NA,NA,81.55136268343816
33614,Hillsborough County,FL,NA,NA,44.827586206896555,NA
33615,Hillsborough County,FL,NA,29.735849056603776,NA,NA
33617,Hillsborough County,FL,NA,34.71698113207547,NA,NA
33635,Hillsborough County,FL,NA,81.50943396226415,NA,NA
33701,Pinellas County,FL,NA,48.75471698113208,NA,NA
33705,Pinellas County,FL,NA,NA,NA,48.42767295597484
33706,Pinellas County,FL,NA,NA,67.56756756756756,NA
33711,Pinellas County,FL,NA,56.22641509433962,NA,NA
33803,Polk County,FL,NA,NA,NA,40.670859538784065
33810,Polk County,FL,NA,27.0188679245283,NA,NA
33823,Polk County,FL,NA,NA,44.26840633737186,NA
33852,Highlands County,FL,NA,NA,NA,8.385744234800839
33859,Polk County,FL,NA,NA,87.23205964585274,NA
33881,Polk County,FL,NA,NA,NA,17.19077568134172
33884,Polk County,FL,NA,NA,43.89561975768873,NA
33898,Polk County,FL,NA,58.94339622641509,NA,NA
33905,Lee County,FL,NA,79.9245283018868,NA,NA
33912,Lee County,FL,NA,82.0377358490566,NA,NA
33913,Lee County,FL,NA,NA,30.195712954333644,NA
33914,Lee County,FL,NA,NA,14.165890027958994,NA
33917,Lee County,FL,NA,86.49056603773585,NA,NA
33952,Charlotte County,FL,NA,96.90566037735849,NA,NA
33990,Lee County,FL,NA,NA,NA,64.57023060796647
34108,Collier County,FL,NA,NA,54.52003727865797,NA
34119,Collier County,FL,NA,NA,26.18825722273998,NA
34120,Collier County,FL,NA,36.60377358490566,NA,NA
34208,Manatee County,FL,NA,26.79245283018868,NA,NA
34209,Manatee County,FL,NA,NA,NA,27.253668763102723
34228,Sarasota County,FL,NA,NA,NA,45.073375262054505
34232,Sarasota County,FL,24.88262910798122,48.37735849056604,NA,NA
34234,Sarasota County,FL,NA,41.660377358490564,NA,NA
34236,Sarasota County,FL,NA,NA,NA,20.335429769392032
34240,Sarasota County,FL,NA,NA,NA,87.42138364779875
34266,DeSoto County,FL,NA,NA,47.15750232991612,NA
34285,Sarasota County,FL,NA,NA,19.19850885368127,NA
34287,Sarasota County,FL,NA,NA,NA,18.867924528301888
34420,Marion County,FL,NA,87.39622641509433,NA,NA
34434,Citrus County,FL,NA,NA,89.28238583410997,NA
34479,Marion County,FL,NA,64.83018867924528,NA,NA
34481,Marion County,FL,NA,71.62264150943396,NA,NA
34606,Hernando County,FL,NA,NA,39.51537744641193,NA
34609,Hernando County,FL,NA,32.83018867924528,NA,NA
34684,Pinellas County,FL,NA,69.35849056603773,NA,NA
34691,Pasco County,FL,NA,45.58490566037736,NA,NA
34747,Osceola County,FL,NA,NA,82.38583410997205,NA
34786,Orange County,FL,NA,80.37735849056604,NA,NA
30004,Fulton County,GA,NA,43.0188679245283,NA,NA
30014,Newton County,GA,93.89671361502347,NA,87.13886300093196,NA
30022,Fulton County,GA,48.82629107981221,NA,NA,NA
30024,Gwinnett County,GA,NA,21.58490566037736,NA,NA
30030,DeKalb County,GA,NA,NA,56.75675675675676,NA
30034,DeKalb County,GA,NA,NA,23.57875116495806,NA
30035,DeKalb County,GA,NA,NA,44.17520969245107,NA
30041,Forsyth County,GA,NA,NA,NA,24.947589098532493
30043,Gwinnett County,GA,NA,NA,NA,50.314465408805034
30044,Gwinnett County,GA,NA,20.22641509433962,NA,NA
30047,Gwinnett County,GA,NA,93.13207547169812,NA,44.65408805031446
30052,Walton County,GA,NA,50.71698113207547,NA,NA
30058,DeKalb County,GA,NA,NA,77.26001863932899,NA
30060,Cobb County,GA,NA,40.22641509433962,NA,NA
30062,Cobb County,GA,19.718309859154928,NA,NA,NA
30088,DeKalb County,GA,NA,NA,NA,88.46960167714884
30096,Gwinnett County,GA,NA,27.0188679245283,NA,NA
30114,Cherokee County,GA,NA,36.22641509433962,27.213420316868593,NA
30117,Carroll County,GA,NA,NA,31.966449207828518,NA
30135,Douglas County,GA,7.042253521126761,NA,NA,NA
30157,Paulding County,GA,NA,NA,25.5358807082945,NA
30161,Floyd County,GA,NA,52.60377358490565,NA,NA
30165,Floyd County,GA,NA,59.32075471698113,NA,NA
30176,Haralson County,GA,NA,NA,NA,94.9685534591195
30217,Heard County,GA,NA,NA,NA,89.30817610062893
30224,Spalding County,GA,NA,NA,49.021435228331775,NA
30228,Henry County,GA,NA,31.547169811320753,NA,90.56603773584906
30252,Henry County,GA,NA,NA,47.71668219944082,NA
30263,Coweta County,GA,NA,9.50943396226415,NA,NA
30281,Henry County,GA,NA,60.075471698113205,NA,NA
30291,Fulton County,GA,NA,NA,68.4995340167754,NA
30309,Fulton County,GA,NA,NA,56.10438024231128,NA
30311,Fulton County,GA,NA,14.566037735849058,NA,22.0125786163522
30315,Fulton County,GA,NA,30.71698113207547,NA,NA
30327,Fulton County,GA,NA,97.73584905660377,NA,NA
30331,Fulton County,GA,NA,NA,9.040074557315938,NA
30349,Fulton County,GA,NA,7.39622641509434,NA,NA
30507,Hall County,GA,NA,NA,63.280521901211564,NA
30519,Gwinnett County,GA,NA,NA,31.593662628145385,NA
30529,Jackson County,GA,69.01408450704226,NA,NA,NA
30549,Jackson County,GA,NA,47.924528301886795,NA,NA
30566,Hall County,GA,NA,87.77358490566037,NA,NA
30571,White County,GA,NA,NA,97.856477166822,NA
30577,Stephens County,GA,NA,46.41509433962264,NA,NA
30605,Clarke County,GA,NA,NA,50.88536812674743,NA
30655,Walton County,GA,NA,NA,NA,60.37735849056604
30701,Gordon County,GA,NA,NA,27.86579683131407,NA
30705,Murray County,GA,NA,30.566037735849054,NA,NA
30720,Whitfield County,GA,NA,NA,59.27306616961789,59.74842767295597
30721,Whitfield County,GA,NA,25.132075471698112,NA,NA
30728,Walker County,GA,NA,68.0754716981132,NA,NA
30736,Catoosa County,GA,13.615023474178404,NA,20.130475302889096,NA
30739,Walker County,GA,NA,NA,96.83131407269339,NA
30752,Dade County,GA,NA,61.056603773584904,NA,NA
30809,Columbia County,GA,NA,36.9811320754717,NA,NA
30815,Richmond County,GA,NA,NA,13.42031686859273,NA
30906,Richmond County,GA,NA,6.943396226415094,5.964585274930102,NA
30909,Richmond County,GA,NA,NA,NA,29.979035639413
31052,Bibb County,GA,NA,91.77358490566037,NA,NA
31204,Bibb County,GA,NA,33.05660377358491,27.49301025163094,NA
31322,Chatham County,GA,NA,NA,NA,93.71069182389937
31324,Bryan County,GA,NA,78.56603773584906,NA,NA
31406,Chatham County,GA,NA,53.81132075471699,NA,NA
31501,Ware County,GA,NA,65.81132075471699,NA,NA
31510,Bacon County,GA,NA,75.62264150943396,73.62534948741846,NA
31525,Glynn County,GA,NA,NA,64.6784715750233,NA
31537,Charlton County,GA,NA,66.56603773584906,NA,NA
31636,Lowndes County,GA,NA,NA,59.64585274930102,97.48427672955975
31639,Berrien County,GA,NA,97.66037735849056,NA,NA
31721,Dougherty County,GA,NA,NA,61.23019571295434,NA
31794,Tift County,GA,NA,61.81132075471698,NA,NA
31808,Harris County,GA,NA,88.15094339622641,NA,NA
31907,Muscogee County,GA,NA,NA,3.8210624417520966,NA
96734,Honolulu County,HI,NA,NA,NA,11.530398322851152
96744,Honolulu County,HI,NA,NA,NA,49.685534591194966
96766,Kauai County,HI,NA,68.22641509433961,NA,NA
96782,Honolulu County,HI,NA,NA,24.417520969245107,NA
96786,Honolulu County,HI,NA,NA,NA,47.58909853249476
96789,Honolulu County,HI,NA,22.566037735849058,NA,NA
96792,Honolulu County,HI,NA,11.018867924528301,NA,NA
96797,Honolulu County,HI,NA,7.547169811320755,NA,NA
96813,Honolulu County,HI,NA,NA,35.13513513513514,NA
96815,Honolulu County,HI,NA,NA,NA,25.78616352201258
96819,Honolulu County,HI,NA,48.679245283018865,NA,NA
96821,Honolulu County,HI,NA,NA,NA,18.448637316561843
96822,Honolulu County,HI,NA,NA,20.03727865796831,NA
83201,Bannock County,ID,NA,NA,39.142590866728796,NA
83221,Bingham County,ID,NA,28.60377358490566,NA,NA
83263,Franklin County,ID,NA,NA,86.3932898415657,NA
83301,Twin Falls County,ID,NA,3.547169811320755,1.30475302889096,NA
83318,Cassia County,ID,96.24413145539906,NA,NA,NA
83442,Jefferson County,ID,NA,NA,73.9049394221808,NA
83605,Canyon County,ID,NA,28.528301886792452,NA,43.18658280922432
83607,Canyon County,ID,NA,68.83018867924528,NA,NA
83617,Gem County,ID,NA,NA,45.200372786579685,NA
83634,Ada County,ID,NA,NA,75.39608574091334,NA
83642,Ada County,ID,NA,NA,NA,9.224318658280922
83646,Ada County,ID,NA,NA,NA,6.079664570230608
83687,Canyon County,ID,49.76525821596244,NA,18.452935694315002,NA
83706,Ada County,ID,NA,NA,23.392357875116495,NA
83716,Ada County,ID,NA,52.45283018867924,NA,NA
83814,Kootenai County,ID,NA,65.88679245283019,NA,NA
83815,Kootenai County,ID,NA,36.301886792452834,NA,NA
83858,Kootenai County,ID,NA,NA,NA,65.40880503144653
60002,Lake County,IL,NA,82.11320754716981,NA,NA
60004,Cook County,IL,NA,25.81132075471698,NA,NA
60005,Cook County,IL,64.7887323943662,NA,NA,NA
60007,Cook County,IL,NA,NA,17.61416589002796,31.236897274633122
60012,McHenry County,IL,NA,NA,NA,69.18238993710692
60014,McHenry County,IL,NA,58.716981132075475,NA,NA
60015,Lake County,IL,NA,60.679245283018865,NA,NA
60016,Cook County,IL,NA,NA,11.09040074557316,NA
60025,Cook County,IL,NA,93.73584905660377,28.238583410997204,NA
60043,Cook County,IL,NA,NA,99.81360671015842,NA
60045,Lake County,IL,NA,78.41509433962264,NA,NA
60047,Lake County,IL,34.27230046948357,NA,NA,NA
60048,Lake County,IL,NA,NA,NA,74.0041928721174
60061,Lake County,IL,NA,NA,77.35321528424977,NA
60062,Cook County,IL,28.169014084507044,NA,NA,NA
60091,Cook County,IL,53.52112676056338,NA,21.99440820130475,NA
60093,Cook County,IL,NA,75.16981132075472,NA,NA
60096,Lake County,IL,NA,96.30188679245283,NA,NA
60101,DuPage County,IL,NA,28.754716981132077,22.273998136067103,NA
60103,DuPage County,IL,NA,NA,24.231127679403542,NA
60108,DuPage County,IL,NA,59.62264150943396,NA,NA
60123,Kane County,IL,NA,21.88679245283019,NA,NA
60124,Kane County,IL,NA,NA,63.37371854613234,NA
60126,DuPage County,IL,NA,NA,3.4482758620689653,NA
60140,Kane County,IL,NA,NA,67.28797763280522,NA
60142,McHenry County,IL,NA,82.79245283018868,NA,NA
60148,DuPage County,IL,NA,45.509433962264154,NA,NA
60152,McHenry County,IL,NA,NA,50.698974836905876,NA
60154,Cook County,IL,NA,NA,60.01863932898416,NA
60155,Cook County,IL,NA,NA,NA,78.19706498951781
60174,Kane County,IL,NA,NA,NA,42.138364779874216
60188,DuPage County,IL,NA,19.245283018867926,NA,NA
60192,Cook County,IL,NA,NA,80.24231127679403,NA
60402,Cook County,IL,15.023474178403756,10.49056603773585,NA,NA
60403,Will County,IL,NA,60.75471698113207,NA,NA
60416,Grundy County,IL,NA,NA,72.22739981360671,NA
60426,Cook County,IL,NA,NA,74.93010251630942,NA
60429,Cook County,IL,87.79342723004694,NA,NA,NA
60431,Will County,IL,NA,41.81132075471698,NA,NA
60436,Will County,IL,NA,NA,98.50885368126747,NA
60440,Will County,IL,NA,20.452830188679243,NA,NA
60450,Grundy County,IL,NA,25.58490566037736,NA,NA
60451,Will County,IL,NA,NA,15.00465983224604,NA
60453,Cook County,IL,NA,NA,9.133271202236719,NA
60459,Cook County,IL,NA,35.094339622641506,NA,NA
60463,Cook County,IL,NA,NA,NA,31.027253668763105
60491,Will County,IL,NA,NA,NA,48.21802935010482
60504,DuPage County,IL,NA,NA,83.50419384902143,NA
60516,DuPage County,IL,38.028169014084504,NA,NA,NA
60517,DuPage County,IL,NA,41.132075471698116,NA,NA
60527,DuPage County,IL,NA,NA,10.531220876048462,NA
60543,Kendall County,IL,20.657276995305164,NA,45.75955265610438,NA
60555,DuPage County,IL,NA,NA,76.70083876980429,NA
60558,Cook County,IL,NA,NA,NA,61.84486373165618
60559,DuPage County,IL,NA,NA,87.04566635601118,NA
60564,Will County,IL,NA,38.18867924528302,NA,NA
60601,Cook County,IL,NA,84.75471698113208,NA,NA
60608,Cook County,IL,NA,NA,13.327120223671947,NA
60611,Cook County,IL,NA,79.54716981132076,90.2143522833178,NA
60612,Cook County,IL,NA,19.169811320754718,NA,NA
60614,Cook County,IL,NA,22.71698113207547,NA,NA
60617,Cook County,IL,NA,6.716981132075471,NA,NA
60618,Cook County,IL,NA,7.698113207547169,52.65610438024231,NA
60622,Cook County,IL,NA,80.30188679245282,NA,NA
60623,Cook County,IL,21.12676056338028,NA,NA,NA
60626,Cook County,IL,NA,52.90566037735849,NA,NA
60628,Cook County,IL,NA,NA,25.442684063373715,NA
60632,Cook County,IL,NA,12.981132075471699,NA,NA
60634,Cook County,IL,NA,NA,38.11742777260019,NA
60637,Cook County,IL,NA,NA,65.33084808946877,NA
60638,Cook County,IL,NA,8.830188679245284,NA,NA
60639,Cook County,IL,NA,8.377358490566039,8.480894687791238,NA
60641,Cook County,IL,NA,NA,15.843429636533084,NA
60643,Cook County,IL,NA,NA,NA,9.853249475890985
60657,Cook County,IL,NA,NA,12.581547064305685,NA
60714,Cook County,IL,NA,72.0754716981132,NA,NA
60804,Cook County,IL,NA,NA,12.954333643988816,NA
60914,Kankakee County,IL,NA,34.264150943396224,NA,NA
61109,Winnebago County,IL,NA,46.18867924528302,NA,NA
61115,Winnebago County,IL,NA,77.73584905660378,NA,NA
61360,LaSalle County,IL,NA,NA,96.36533084808947,NA
61520,Fulton County,IL,NA,NA,53.40167753960857,NA
61530,Woodford County,IL,NA,NA,90.49394221808015,NA
61546,Mason County,IL,NA,NA,99.62721342031688,NA
61571,Tazewell County,IL,NA,97.05660377358491,NA,NA
61607,Peoria County,IL,NA,79.16981132075472,NA,NA
61611,Tazewell County,IL,NA,NA,84.90214352283317,NA
61615,Peoria County,IL,NA,90.79245283018868,NA,NA
61727,De Witt County,IL,NA,NA,NA,50.10482180293501
61761,McLean County,IL,NA,41.35849056603774,NA,NA
61821,Champaign County,IL,NA,43.32075471698113,NA,NA
61822,Champaign County,IL,NA,NA,48.3690587138863,NA
61856,Piatt County,IL,NA,NA,NA,79.03563941299791
61944,Edgar County,IL,NA,NA,52.37651444547996,NA
62226,St. Clair County,IL,NA,44.37735849056604,NA,NA
62231,Clinton County,IL,NA,NA,74.09133271202236,NA
62301,Adams County,IL,NA,NA,36.99906803355079,NA
62401,Effingham County,IL,NA,84.22641509433963,NA,NA
62521,Macon County,IL,NA,NA,9.226467847157501,NA
62812,Franklin County,IL,NA,NA,56.38397017707363,39.83228511530398
62837,Wayne County,IL,NA,NA,70.17707362534948,NA
62859,Hamilton County,IL,NA,87.9245283018868,NA,NA
62918,Williamson County,IL,NA,NA,73.43895619757689,NA
62946,Saline County,IL,96.71361502347418,NA,NA,NA
62959,Williamson County,IL,NA,43.16981132075472,NA,NA
46011,Madison County,IN,NA,51.0188679245283,NA,NA
46036,Madison County,IN,NA,NA,90.02795899347623,NA
46074,Hamilton County,IN,NA,65.13207547169812,NA,NA
46077,Boone County,IN,NA,NA,66.07642124883503,NA
46112,Hendricks County,IN,NA,78.56603773584906,NA,NA
46131,Johnson County,IN,NA,31.39622641509434,27.027027027027028,NA
46135,Putnam County,IN,NA,66.71698113207547,NA,NA
46140,Hancock County,IN,NA,NA,18.825722273998135,NA
46143,Johnson County,IN,NA,NA,17.148182665424045,NA
46201,Marion County,IN,NA,51.39622641509434,NA,NA
46202,Marion County,IN,NA,62.49056603773585,NA,NA
46203,Marion County,IN,NA,NA,NA,33.9622641509434
46217,Marion County,IN,NA,53.43396226415095,NA,NA
46218,Marion County,IN,NA,8.679245283018867,NA,NA
46227,Marion County,IN,NA,NA,6.3373718546132345,NA
46228,Marion County,IN,NA,NA,69.6178937558248,NA
46229,Marion County,IN,NA,24.9811320754717,33.45759552656104,NA
46254,Marion County,IN,NA,23.09433962264151,NA,82.59958071278825
46303,Lake County,IN,NA,NA,40.91332712022367,NA
46304,Porter County,IN,NA,11.924528301886793,NA,NA
46307,Lake County,IN,23.943661971830984,12.30188679245283,1.7707362534948743,NA
46311,Lake County,IN,NA,NA,NA,31.656184486373167
46319,Lake County,IN,NA,NA,NA,62.264150943396224
46320,Lake County,IN,NA,NA,49.67381174277726,NA
46322,Lake County,IN,NA,58.64150943396227,NA,NA
46323,Lake County,IN,NA,21.056603773584907,NA,NA
46324,Lake County,IN,NA,16.60377358490566,NA,NA
46342,Lake County,IN,NA,NA,12.301957129543336,NA
46356,Lake County,IN,NA,NA,34.57595526561044,NA
46360,LaPorte County,IN,NA,5.433962264150943,5.312208760484623,NA
46368,Porter County,IN,NA,16.150943396226413,1.863932898415657,NA
46373,Lake County,IN,NA,30.943396226415093,NA,NA
46375,Lake County,IN,NA,NA,NA,28.30188679245283
46383,Porter County,IN,NA,32,NA,NA
46385,Porter County,IN,NA,NA,NA,61.21593291404612
46405,Lake County,IN,NA,94.79245283018868,NA,NA
46406,Lake County,IN,NA,NA,66.26281453867661,NA
46506,Marshall County,IN,NA,NA,84.99534016775397,NA
46563,Marshall County,IN,NA,NA,NA,23.68972746331237
46614,St. Joseph County,IN,NA,59.698113207547166,NA,NA
46635,St. Joseph County,IN,94.83568075117371,NA,NA,NA
46701,Noble County,IN,NA,NA,NA,79.24528301886792
46733,Adams County,IN,NA,NA,75.67567567567568,NA
46750,Huntington County,IN,NA,NA,25.722273998136068,NA
46755,Noble County,IN,NA,28.452830188679247,38.210624417520975,NA
46767,Noble County,IN,NA,86.71698113207547,NA,NA
46804,Allen County,IN,NA,45.81132075471698,NA,NA
46806,Allen County,IN,NA,27.547169811320753,NA,NA
46815,Allen County,IN,NA,NA,NA,23.060796645702304
46816,Allen County,IN,NA,30.18867924528302,NA,NA
46901,Howard County,IN,NA,NA,4.380242311276794,NA
46902,Howard County,IN,NA,NA,4.193849021435228,NA
46947,Cass County,IN,NA,NA,11.183597390493942,NA
46970,Miami County,IN,NA,36.45283018867925,NA,NA
47001,Dearborn County,IN,NA,NA,NA,93.08176100628931
47006,Ripley County,IN,81.69014084507043,NA,NA,NA
47130,Clark County,IN,NA,NA,5.778191985088537,NA
47150,Floyd County,IN,NA,9.584905660377359,NA,NA
47203,Bartholomew County,IN,NA,NA,NA,15.513626834381553
47274,Jackson County,IN,NA,28.905660377358487,NA,NA
47356,Henry County,IN,NA,NA,NA,86.79245283018868
47374,Wayne County,IN,NA,NA,NA,1.6771488469601679
47396,Delaware County,IN,NA,NA,90.95992544268407,NA
47421,Lawrence County,IN,NA,35.62264150943396,NA,NA
47460,Owen County,IN,NA,74.26415094339622,NA,NA
47501,Daviess County,IN,NA,NA,58.341099720410064,NA
47630,Warrick County,IN,NA,NA,23.392357875116495,NA
47660,Gibson County,IN,NA,NA,95.06057781919851,NA
47885,Vigo County,IN,NA,92.98113207547169,NA,NA
47905,Tippecanoe County,IN,NA,42.41509433962264,NA,19.07756813417191
47960,White County,IN,NA,NA,NA,42.76729559748428
50208,Jasper County,IA,NA,NA,65.79683131407269,NA
50220,Dallas County,IA,NA,69.43396226415094,NA,NA
50248,Story County,IA,NA,NA,98.8816402609506,NA
50265,Polk County,IA,NA,40.75471698113208,NA,NA
50311,Polk County,IA,NA,77.05660377358491,NA,NA
50315,Polk County,IA,NA,7.849056603773585,NA,NA
50511,Kossuth County,IA,NA,89.81132075471699,NA,NA
50595,Hamilton County,IA,NA,NA,NA,74.21383647798741
50613,Black Hawk County,IA,NA,NA,NA,5.660377358490567
50701,Black Hawk County,IA,NA,NA,58.807082945013974,NA
51106,Woodbury County,IA,NA,50.264150943396224,76.23485554520038,NA
51401,Carroll County,IA,NA,NA,86.85927306616962,NA
51501,Pottawattamie County,IA,NA,NA,NA,71.9077568134172
51534,Mills County,IA,64.31924882629107,NA,NA,NA
51632,Page County,IA,NA,74.79245283018868,62.16216216216216,NA
52057,Delaware County,IA,NA,93.88679245283019,NA,NA
52068,Dubuque County,IA,NA,NA,100,NA
52136,Howard County,IA,NA,92.52830188679245,NA,NA
52175,Fayette County,IA,NA,98.79245283018868,NA,NA
52205,Jones County,IA,NA,NA,93.19664492078286,NA
52402,Linn County,IA,NA,NA,NA,39.62264150943396
52403,Linn County,IA,68.07511737089203,44,NA,NA
52404,Linn County,IA,NA,34.18867924528302,NA,NA
52501,Wapello County,IA,NA,45.05660377358491,NA,NA
52601,Des Moines County,IA,NA,11.547169811320755,NA,NA
52722,Scott County,IA,NA,20.90566037735849,NA,NA
52761,Muscatine County,IA,NA,10.415094339622641,11.835973904939422,NA
66030,Johnson County,KS,38.028169014084504,NA,NA,NA
66043,Leavenworth County,KS,NA,78.79245283018868,NA,NA
66062,Johnson County,KS,10.7981220657277,NA,NA,NA
66071,Miami County,KS,NA,NA,79.12395153774465,NA
66109,Wyandotte County,KS,NA,55.094339622641506,NA,NA
66215,Johnson County,KS,NA,NA,NA,43.60587002096436
66224,Johnson County,KS,NA,89.43396226415095,NA,NA
66436,Jackson County,KS,NA,NA,86.67287977632805,92.66247379454927
66441,Geary County,KS,NA,69.58490566037736,NA,NA
66502,Riley County,KS,NA,88.9811320754717,NA,NA
66503,Riley County,KS,NA,93.20754716981132,NA,NA
66536,Pottawatomie County,KS,NA,97.43396226415094,NA,NA
66604,Shawnee County,KS,NA,48.90566037735849,NA,NA
66720,Neosho County,KS,NA,NA,NA,84.69601677148847
66901,Cloud County,KS,NA,87.54716981132076,NA,83.01886792452831
67010,Butler County,KS,NA,NA,NA,92.24318658280922
67042,Butler County,KS,NA,NA,61.696178937558244,NA
67208,Sedgwick County,KS,NA,76.67924528301887,NA,NA
67456,McPherson County,KS,NA,NA,NA,92.87211740041928
67502,Reno County,KS,NA,NA,NA,56.81341719077568
67526,Barton County,KS,NA,98.71698113207547,NA,NA
67665,Russell County,KS,NA,89.20754716981132,NA,NA
67846,Finney County,KS,NA,NA,NA,28.511530398322847
67901,Seward County,KS,NA,73.66037735849056,NA,NA
40004,Nelson County,KY,NA,NA,61.50978564771668,43.81551362683438
40031,Oldham County,KY,NA,33.20754716981132,NA,NA
40059,Jefferson County,KY,NA,NA,64.11929170549861,NA
40203,Jefferson County,KY,NA,NA,71.85461323392359,NA
40229,Jefferson County,KY,NA,10.79245283018868,20.596458527493013,NA
40243,Jefferson County,KY,NA,NA,79.77632805219012,NA
40324,Scott County,KY,NA,12.679245283018867,22.739981360671017,NA
40330,Mercer County,KY,NA,NA,50.32618825722274,NA
40391,Clark County,KY,NA,NA,12.022367194780987,NA
40484,Lincoln County,KY,NA,NA,81.26747437092264,NA
40509,Fayette County,KY,NA,34.0377358490566,NA,NA
40744,Laurel County,KY,NA,NA,52.84249767008388,NA
40769,Whitley County,KY,NA,34.56603773584906,53.77446411929171,NA
41042,Boone County,KY,NA,5.584905660377359,NA,NA
41051,Kenton County,KY,NA,37.886792452830186,NA,NA
41101,Boyd County,KY,NA,17.28301886792453,NA,NA
41102,Boyd County,KY,NA,21.81132075471698,NA,NA
41169,Greenup County,KY,NA,86.0377358490566,NA,NA
42001,McCracken County,KY,NA,76.0754716981132,55.172413793103445,NA
42031,Hickman County,KY,NA,NA,NA,99.79035639412997
42086,McCracken County,KY,NA,95.09433962264151,NA,NA
42101,Warren County,KY,NA,NA,15.284249767008387,NA
42127,Barren County,KY,NA,67.47169811320755,NA,NA
42129,Metcalfe County,KY,NA,NA,NA,87.21174004192872
42164,Allen County,KY,NA,NA,NA,76.10062893081762
42211,Trigg County,KY,NA,NA,45.013979496738116,NA
42240,Christian County,KY,NA,6.037735849056604,NA,NA
42345,Muhlenberg County,KY,NA,NA,NA,61.84486373165618
42347,Ohio County,KY,NA,NA,67.00838769804287,NA
42420,Henderson County,KY,NA,55.54716981132075,NA,NA
42539,Casey County,KY,NA,73.43396226415095,NA,NA
42635,McCreary County,KY,NA,89.05660377358491,NA,NA
42718,Taylor County,KY,NA,42.339622641509436,NA,NA
42728,Adair County,KY,NA,NA,NA,70.23060796645703
42749,Hart County,KY,NA,NA,85.834109972041,NA
70003,Jefferson Parish,LA,NA,NA,NA,3.9832285115303985
70037,Plaquemines Parish,LA,NA,43.24528301886792,NA,84.69601677148847
70053,Jefferson Parish,LA,NA,25.433962264150946,NA,NA
70072,Jefferson Parish,LA,NA,NA,3.5414725069897486,NA
70085,St. Bernard Parish,LA,NA,85.50943396226415,NA,NA
70092,St. Bernard Parish,LA,NA,64.67924528301887,NA,NA
70114,Orleans Parish,LA,NA,NA,33.36439888164026,NA
70116,Orleans Parish,LA,NA,50.56603773584906,NA,NA
70117,Orleans Parish,LA,NA,41.735849056603776,NA,NA
70118,Orleans Parish,LA,NA,NA,NA,36.897274633123686
70119,Orleans Parish,LA,NA,NA,34.76234855545201,NA
70122,Orleans Parish,LA,NA,NA,85.36812674743709,55.9748427672956
70125,Orleans Parish,LA,NA,95.84905660377359,69.89748369058714,NA
70126,Orleans Parish,LA,NA,NA,21.24883504193849,NA
70127,Orleans Parish,LA,NA,NA,29.82292637465051,NA
70130,Orleans Parish,LA,NA,NA,NA,63.312368972746334
70131,Orleans Parish,LA,NA,NA,35.04193849021435,NA
70346,Ascension Parish,LA,NA,48.37735849056604,NA,NA
70364,Terrebonne Parish,LA,NA,NA,NA,51.99161425576519
70392,St. Mary Parish,LA,NA,NA,72.22739981360671,NA
70403,Tangipahoa Parish,LA,6.103286384976526,NA,NA,NA
70422,Tangipahoa Parish,LA,NA,25.886792452830186,NA,NA
70431,St. Tammany Parish,LA,80.75117370892019,NA,NA,NA
70435,St. Tammany Parish,LA,NA,53.9622641509434,NA,NA
70438,Washington Parish,LA,NA,NA,46.31873252562907,NA
70441,St. Helena Parish,LA,NA,NA,NA,81.34171907756813
70447,St. Tammany Parish,LA,NA,99.69811320754717,NA,NA
70450,Washington Parish,LA,NA,97.20754716981132,NA,NA
70452,St. Tammany Parish,LA,NA,NA,32.24603914259087,NA
70454,Tangipahoa Parish,LA,NA,34.41509433962264,NA,NA
70460,St. Tammany Parish,LA,NA,NA,28.05219012115564,NA
70535,St. Landry Parish,LA,NA,28.150943396226413,NA,NA
70544,Iberia Parish,LA,51.173708920187785,NA,NA,NA
70546,Jefferson Davis Parish,LA,NA,NA,58.061509785647715,85.1153039832285
70560,Iberia Parish,LA,NA,2.2641509433962264,NA,NA
70563,Iberia Parish,LA,NA,37.81132075471698,NA,NA
70578,Acadia Parish,LA,NA,NA,42.031686859273066,NA
70582,St. Martin Parish,LA,NA,63.39622641509434,NA,NA
70586,Evangeline Parish,LA,NA,64.75471698113208,NA,NA
70648,Allen Parish,LA,NA,72.9811320754717,NA,NA
70722,East Feliciana Parish,LA,NA,99.9245283018868,NA,NA
70726,Livingston Parish,LA,NA,NA,38.39701770736254,NA
70739,East Baton Rouge Parish,LA,NA,NA,65.61043802423113,NA
70769,Ascension Parish,LA,NA,36.90566037735849,NA,NA
70805,East Baton Rouge Parish,LA,NA,2.943396226415094,NA,NA
70815,East Baton Rouge Parish,LA,NA,NA,NA,41.719077568134175
71006,Bossier Parish,LA,NA,95.24528301886792,NA,NA
71108,Caddo Parish,LA,NA,9.132075471698114,NA,NA
71109,Caddo Parish,LA,NA,6.3396226415094334,NA,NA
71115,Caddo Parish,LA,NA,76.90566037735849,NA,NA
71118,Caddo Parish,LA,18.30985915492958,NA,NA,NA
71129,Caddo Parish,LA,NA,40.679245283018865,NA,NA
71202,Ouachita Parish,LA,NA,NA,85.46132339235788,NA
71350,Avoyelles Parish,LA,NA,98.56603773584905,NA,NA
71360,Rapides Parish,LA,95.30516431924883,NA,NA,NA
71409,Rapides Parish,LA,NA,NA,84.71575023299161,NA
71435,Caldwell Parish,LA,NA,99.77358490566037,NA,NA
71457,Natchitoches Parish,LA,NA,6.415094339622642,NA,NA
04005,York County,ME,NA,NA,28.14538676607642,NA
04011,Cumberland County,ME,NA,NA,60.577819198508855,NA
04062,Cumberland County,ME,NA,NA,75.48928238583412,NA
04072,York County,ME,NA,40.83018867924528,NA,NA
04086,Sagadahoc County,ME,NA,75.9245283018868,NA,NA
04097,Cumberland County,ME,NA,98.79245283018868,NA,NA
04101,Cumberland County,ME,NA,NA,24.88350419384902,NA
04103,Cumberland County,ME,NA,55.471698113207545,NA,NA
04240,Androscoggin County,ME,NA,55.77358490566038,NA,NA
04401,Penobscot County,ME,NA,NA,33.084808946877914,NA
04462,Penobscot County,ME,NA,NA,92.45107176141659,NA
04901,Kennebec County,ME,NA,4.905660377358491,3.91425908667288,NA
04915,Waldo County,ME,NA,NA,NA,54.71698113207547
04963,Kennebec County,ME,NA,82.71698113207547,NA,NA
04976,Somerset County,ME,NA,74.0377358490566,NA,NA
20602,Charles County,MD,NA,93.9622641509434,NA,NA
20640,Charles County,MD,NA,85.81132075471697,NA,NA
20650,St. Mary's County,MD,NA,77.66037735849056,NA,NA
20706,Prince George's County,MD,NA,NA,53.02889095992545,NA
20833,Montgomery County,MD,NA,94.41509433962264,NA,NA
20866,Montgomery County,MD,NA,97.35849056603773,NA,NA
20906,Montgomery County,MD,NA,54.18867924528302,NA,NA
21009,Harford County,MD,NA,NA,NA,69.39203354297693
21012,Anne Arundel County,MD,NA,NA,69.0587138863001,NA
21032,Anne Arundel County,MD,73.70892018779342,NA,87.60484622553588,NA
21045,Howard County,MD,51.173708920187785,NA,NA,NA
21047,Harford County,MD,NA,NA,79.8695246971109,NA
21093,Baltimore County,MD,NA,43.84905660377358,NA,NA
21201,Baltimore city,MD,NA,46.943396226415096,NA,NA
21212,Baltimore city,MD,NA,NA,32.24603914259087,NA
21215,Baltimore city,MD,NA,NA,9.878844361602983,NA
21216,Baltimore city,MD,NA,36.15094339622642,NA,NA
21217,Baltimore city,MD,NA,NA,50.978564771668225,NA
21218,Baltimore city,MD,NA,NA,43.15004659832246,NA
21229,Baltimore city,MD,NA,18.11320754716981,NA,NA
21244,Baltimore County,MD,75.5868544600939,NA,NA,NA
21286,Baltimore County,MD,NA,NA,68.4063373718546,NA
21613,Dorchester County,MD,NA,NA,NA,62.893081761006286
21620,Kent County,MD,NA,83.01886792452831,NA,NA
21629,Caroline County,MD,NA,NA,91.42590866728798,NA
21911,Cecil County,MD,NA,NA,73.3457595526561,NA
01001,Hampden County,MA,NA,60.75471698113207,NA,NA
01005,Worcester County,MA,NA,69.20754716981132,NA,NA
01007,Hampshire County,MA,NA,NA,54.426840633737186,NA
01013,Hampden County,MA,NA,NA,13.233923578751163,NA
01057,Hampden County,MA,NA,NA,NA,87.42138364779875
01082,Hampshire County,MA,NA,58.79245283018868,NA,NA
01105,Hampden County,MA,NA,35.54716981132076,NA,NA
01108,Hampden County,MA,NA,25.735849056603772,NA,NA
01109,Hampden County,MA,NA,14.037735849056604,NA,NA
01151,Hampden County,MA,NA,27.32075471698113,NA,NA
01220,Berkshire County,MA,NA,NA,40.07455731593662,NA
01226,Berkshire County,MA,NA,74.86792452830188,NA,NA
01238,Berkshire County,MA,NA,NA,66.8219944082013,NA
01301,Franklin County,MA,NA,10.18867924528302,NA,52.41090146750524
01373,Franklin County,MA,NA,NA,NA,97.48427672955975
01420,Worcester County,MA,NA,0.3018867924528302,NA,NA
01432,Middlesex County,MA,NA,NA,NA,90.98532494758909
01453,Worcester County,MA,NA,1.2075471698113207,NA,NA
01532,Worcester County,MA,69.01408450704226,NA,NA,NA
01535,Worcester County,MA,NA,79.32075471698113,NA,NA
01540,Worcester County,MA,NA,40.83018867924528,NA,66.66666666666666
01543,Worcester County,MA,85.44600938967136,NA,NA,NA
01550,Worcester County,MA,NA,53.58490566037736,NA,NA
01564,Worcester County,MA,NA,86.86792452830188,NA,NA
01568,Worcester County,MA,NA,NA,83.13140726933831,32.075471698113205
01569,Worcester County,MA,NA,NA,32.432432432432435,NA
01581,Worcester County,MA,NA,33.9622641509434,NA,NA
01604,Worcester County,MA,NA,NA,2.2367194780987885,NA
01607,Worcester County,MA,59.154929577464785,NA,NA,NA
01608,Worcester County,MA,NA,23.0188679245283,NA,NA
01609,Worcester County,MA,NA,16.754716981132077,NA,NA
01610,Worcester County,MA,NA,0.6037735849056604,NA,NA
01701,Middlesex County,MA,NA,NA,34.48275862068966,NA
01702,Middlesex County,MA,NA,NA,29.450139794967384,NA
01720,Middlesex County,MA,NA,NA,31.31407269338304,NA
01730,Middlesex County,MA,NA,NA,NA,20.125786163522015
01742,Middlesex County,MA,NA,NA,37.74464119291706,NA
01757,Worcester County,MA,NA,13.811320754716983,5.871388630009319,NA
01760,Middlesex County,MA,NA,NA,7.82851817334576,NA
01801,Middlesex County,MA,NA,NA,10.81081081081081,NA
01810,Essex County,MA,NA,NA,16.029822926374653,NA
01821,Middlesex County,MA,NA,43.77358490566038,33.45759552656104,NA
01824,Middlesex County,MA,NA,NA,7.362534948741846,NA
01841,Essex County,MA,2.3474178403755865,0.07547169811320754,NA,NA
01843,Essex County,MA,NA,34.79245283018868,NA,NA
01844,Essex County,MA,NA,NA,88.25722273998136,5.870020964360587
01864,Middlesex County,MA,58.21596244131455,NA,NA,NA
01867,Middlesex County,MA,27.230046948356808,NA,NA,NA
01890,Middlesex County,MA,NA,45.20754716981132,NA,NA
01905,Essex County,MA,NA,1.509433962264151,7.921714818266542,NA
01906,Essex County,MA,NA,2.7169811320754715,NA,NA
01913,Essex County,MA,NA,NA,92.17148182665424,NA
01915,Essex County,MA,NA,NA,1.211556383970177,NA
01921,Essex County,MA,NA,79.09433962264151,NA,NA
01923,Essex County,MA,NA,19.547169811320757,6.150978564771668,NA
01930,Essex County,MA,15.492957746478872,3.3207547169811322,NA,NA
01938,Essex County,MA,NA,NA,15.7502329916123,NA
01960,Essex County,MA,NA,NA,0.4659832246039142,0
01966,Essex County,MA,NA,NA,61.136999068033546,NA
01970,Essex County,MA,NA,NA,0.7455731593662628,NA
01982,Essex County,MA,NA,71.84905660377359,NA,NA
02019,Norfolk County,MA,NA,97.88679245283018,NA,NA
02026,Norfolk County,MA,NA,4.528301886792453,NA,NA
02030,Norfolk County,MA,NA,92.0754716981132,NA,NA
02038,Norfolk County,MA,NA,12.226415094339622,NA,32.28511530398323
02048,Bristol County,MA,NA,NA,NA,96.22641509433963
02062,Norfolk County,MA,NA,NA,NA,76.51991614255765
02066,Plymouth County,MA,NA,37.660377358490564,43.9888164026095,NA
02067,Norfolk County,MA,NA,58.11320754716981,NA,NA
02081,Norfolk County,MA,23.474178403755868,NA,NA,NA
02093,Norfolk County,MA,NA,57.20754716981132,NA,90.35639412997904
02111,Suffolk County,MA,NA,NA,NA,34.59119496855346
02114,Suffolk County,MA,NA,17.358490566037734,NA,NA
02116,Suffolk County,MA,NA,14.339622641509434,NA,NA
02119,Suffolk County,MA,NA,1.5849056603773584,NA,4.612159329140461
02121,Suffolk County,MA,NA,0.37735849056603776,NA,NA
02122,Suffolk County,MA,NA,NA,NA,12.578616352201259
02124,Suffolk County,MA,NA,NA,0.1863932898415657,NA
02125,Suffolk County,MA,NA,3.8490566037735845,NA,NA
02126,Suffolk County,MA,NA,0.5283018867924528,NA,NA
02128,Suffolk County,MA,NA,3.7735849056603774,NA,NA
02131,Suffolk County,MA,NA,9.962264150943396,NA,NA
02132,Suffolk County,MA,NA,NA,15.65703634669152,NA
02136,Suffolk County,MA,NA,29.660377358490564,NA,NA
02138,Middlesex County,MA,NA,10.943396226415095,NA,NA
02139,Middlesex County,MA,NA,0.22641509433962265,NA,NA
02143,Middlesex County,MA,NA,26.113207547169807,NA,NA
02144,Middlesex County,MA,NA,NA,60.764212488350424,NA
02148,Middlesex County,MA,NA,0,35.414725069897486,0.628930817610063
02149,Middlesex County,MA,NA,0.1509433962264151,1.0251630941286114,NA
02151,Suffolk County,MA,NA,51.924528301886795,0,6.918238993710692
02152,Suffolk County,MA,NA,11.471698113207546,NA,NA
02155,Middlesex County,MA,NA,NA,0.65237651444548,0.41928721174004197
02169,Norfolk County,MA,NA,0.4528301886792453,NA,NA
02180,Middlesex County,MA,NA,NA,73.81174277726001,NA
02184,Norfolk County,MA,NA,88,NA,NA
02186,Norfolk County,MA,NA,13.283018867924529,NA,24.528301886792452
02301,Plymouth County,MA,NA,NA,NA,1.0482180293501049
02324,Plymouth County,MA,NA,9.88679245283019,NA,NA
02330,Plymouth County,MA,NA,NA,30.00931966449208,NA
02333,Plymouth County,MA,NA,32.22641509433962,NA,NA
02339,Plymouth County,MA,NA,86.79245283018868,NA,NA
02360,Plymouth County,MA,NA,NA,0.27958993476234856,1.4675052410901468
02368,Norfolk County,MA,NA,2.0377358490566038,NA,NA
02370,Plymouth County,MA,NA,63.698113207547166,NA,NA
02375,Bristol County,MA,NA,55.77358490566038,NA,NA
02382,Plymouth County,MA,NA,NA,51.630941286113696,NA
02445,Norfolk County,MA,NA,NA,33.73718546132339,35.42976939203354
02446,Norfolk County,MA,NA,NA,NA,11.11111111111111
02451,Middlesex County,MA,NA,80.90566037735849,NA,NA
02459,Middlesex County,MA,NA,72.45283018867924,22.55358807082945,NA
02460,Middlesex County,MA,NA,NA,74.65051258154706,NA
02461,Middlesex County,MA,NA,78.26415094339623,67.8471575023299,NA
02467,Norfolk County,MA,NA,NA,64.86486486486487,NA
02476,Middlesex County,MA,NA,37.9622641509434,75.76887232059646,NA
02478,Middlesex County,MA,NA,23.924528301886795,NA,NA
02493,Middlesex County,MA,NA,65.35849056603774,NA,NA
02540,Barnstable County,MA,NA,55.92452830188679,NA,NA
02601,Barnstable County,MA,NA,NA,22.739981360671017,NA
02631,Barnstable County,MA,NA,NA,45.479962721342034,NA
02703,Bristol County,MA,0.4694835680751174,NA,10.624417520969246,NA
02723,Bristol County,MA,NA,NA,4.753028890959925,NA
02739,Plymouth County,MA,NA,92.75471698113208,NA,NA
02740,Bristol County,MA,NA,0.9056603773584906,59.45945945945946,NA
02744,Bristol County,MA,NA,NA,31.127679403541475,NA
02745,Bristol County,MA,NA,NA,8.853681267474371,NA
02760,Bristol County,MA,NA,NA,11.276794035414724,NA
02766,Bristol County,MA,NA,NA,71.29543336439889,NA
48005,Macomb County,MI,NA,NA,90.30754892823857,NA
48025,Oakland County,MI,NA,78.26415094339623,NA,NA
48034,Oakland County,MI,NA,NA,NA,44.863731656184484
48035,Macomb County,MI,NA,83.62264150943396,NA,NA
48038,Macomb County,MI,NA,NA,NA,5.450733752620545
48042,Macomb County,MI,NA,NA,26.84063373718546,NA
48043,Macomb County,MI,NA,32.67924528301887,NA,NA
48044,Macomb County,MI,NA,7.245283018867925,NA,NA
48047,Macomb County,MI,NA,NA,13.793103448275861,37.526205450733755
48066,Macomb County,MI,NA,18.339622641509436,NA,75.47169811320755
48071,Oakland County,MI,NA,26.41509433962264,35.880708294501396,NA
48075,Oakland County,MI,NA,NA,NA,65.61844863731656
48093,Macomb County,MI,NA,NA,NA,24.737945492662476
48101,Wayne County,MI,NA,NA,28.890959925442683,NA
48103,Washtenaw County,MI,16.431924882629108,91.16981132075472,NA,NA
48105,Washtenaw County,MI,NA,NA,14.445479962721341,23.270440251572328
48108,Washtenaw County,MI,NA,NA,30.568499534016773,NA
48111,Wayne County,MI,NA,6.566037735849056,6.430568499534017,NA
48114,Livingston County,MI,NA,NA,61.04380242311277,NA
48118,Washtenaw County,MI,NA,NA,87.977632805219,NA
48120,Wayne County,MI,NA,71.16981132075472,NA,NA
48130,Washtenaw County,MI,61.03286384976526,NA,NA,NA
48150,Wayne County,MI,NA,NA,NA,81.76100628930818
48152,Wayne County,MI,NA,33.43396226415095,NA,NA
48154,Wayne County,MI,NA,NA,7.7353215284249766,NA
48160,Washtenaw County,MI,NA,NA,54.8928238583411,NA
48162,Monroe County,MI,NA,11.320754716981133,NA,NA
48167,Oakland County,MI,NA,NA,NA,14.884696016771489
48169,Livingston County,MI,NA,48.90566037735849,NA,NA
48170,Wayne County,MI,NA,13.132075471698112,NA,NA
48178,Oakland County,MI,NA,NA,12.488350419384902,NA
48180,Wayne County,MI,NA,2.339622641509434,NA,2.9350104821802936
48183,Wayne County,MI,14.084507042253522,NA,NA,NA
48186,Wayne County,MI,NA,5.735849056603773,NA,NA
48187,Wayne County,MI,NA,9.132075471698114,NA,NA
48189,Washtenaw County,MI,NA,NA,50.978564771668225,NA
48198,Washtenaw County,MI,1.4084507042253522,NA,12.861136999068034,NA
48201,Wayne County,MI,NA,40,NA,NA
48204,Wayne County,MI,NA,56.9811320754717,NA,NA
48205,Wayne County,MI,NA,21.28301886792453,NA,NA
48210,Wayne County,MI,NA,26.264150943396224,NA,NA
48214,Wayne County,MI,NA,53.05660377358491,NA,NA
48215,Wayne County,MI,NA,37.35849056603773,NA,NA
48223,Wayne County,MI,NA,11.547169811320755,NA,NA
48224,Wayne County,MI,NA,56.60377358490566,NA,NA
48227,Wayne County,MI,NA,NA,36.533084808946874,NA
48228,Wayne County,MI,NA,NA,55.172413793103445,NA
48235,Wayne County,MI,NA,NA,22.367194780987884,68.13417190775681
48237,Oakland County,MI,NA,NA,19.29170549860205,NA
48307,Oakland County,MI,NA,17.962264150943398,NA,NA
48313,Macomb County,MI,NA,26.943396226415096,NA,NA
48314,Macomb County,MI,NA,NA,37.37185461323392,NA
48315,Macomb County,MI,NA,NA,19.757688723205966,NA
48317,Macomb County,MI,NA,22.867924528301884,53.12208760484622,NA
48342,Oakland County,MI,NA,13.886792452830187,NA,NA
48374,Oakland County,MI,NA,NA,72.13420316868593,NA
48375,Oakland County,MI,NA,NA,88.53681267474371,NA
48383,Oakland County,MI,NA,NA,82.1062441752097,NA
48386,Oakland County,MI,NA,NA,85.27493010251631,NA
48393,Oakland County,MI,NA,NA,95.61975768872321,NA
48413,Huron County,MI,NA,90.86792452830188,NA,NA
48430,Genesee County,MI,NA,26.18867924528302,NA,NA
48441,Huron County,MI,NA,NA,NA,71.27882599580713
48446,Lapeer County,MI,NA,13.735849056603774,NA,NA
48451,Genesee County,MI,NA,73.28301886792453,NA,NA
48461,Lapeer County,MI,NA,NA,86.02050326188258,NA
48471,Sanilac County,MI,NA,73.20754716981132,NA,NA
48532,Genesee County,MI,NA,38.943396226415096,NA,NA
48601,Saginaw County,MI,NA,1.9622641509433962,NA,NA
48602,Saginaw County,MI,NA,NA,41.565703634669156,NA
48603,Saginaw County,MI,NA,61.20754716981131,39.60857409133271,NA
48609,Saginaw County,MI,NA,NA,85.18173345759553,NA
48623,Saginaw County,MI,NA,44.15094339622642,NA,NA
48624,Gladwin County,MI,NA,86.94339622641509,NA,NA
48657,Midland County,MI,NA,91.92452830188678,NA,NA
48706,Bay County,MI,3.755868544600939,NA,NA,NA
48708,Bay County,MI,21.12676056338028,NA,8.201304753028891,NA
48722,Saginaw County,MI,NA,NA,93.9422180801491,NA
48820,Clinton County,MI,NA,67.77358490566037,NA,NA
48821,Eaton County,MI,NA,96.60377358490567,NA,NA
48829,Montcalm County,MI,NA,98.18867924528301,NA,NA
48837,Eaton County,MI,NA,57.811320754716974,NA,NA
48838,Montcalm County,MI,NA,64.22641509433961,NA,NA
48842,Ingham County,MI,NA,38.56603773584906,NA,NA
48843,Livingston County,MI,NA,NA,4.9394221808014915,NA
48864,Ingham County,MI,NA,NA,45.1071761416589,NA
48867,Shiawassee County,MI,NA,NA,7.362534948741846,NA
48883,Isabella County,MI,NA,NA,64.6784715750233,NA
48906,Ingham County,MI,NA,11.849056603773585,NA,NA
48910,Ingham County,MI,NA,NA,45.479962721342034,NA
48911,Ingham County,MI,NA,NA,14.631873252562908,NA
48917,Eaton County,MI,NA,NA,NA,13.626834381551362
49001,Kalamazoo County,MI,NA,21.358490566037737,NA,NA
49008,Kalamazoo County,MI,NA,NA,49.021435228331775,NA
49015,Calhoun County,MI,NA,48.83018867924528,NA,NA
49017,Calhoun County,MI,NA,NA,84.06337371854613,NA
49024,Kalamazoo County,MI,NA,NA,56.38397017707363,NA
49036,Branch County,MI,NA,29.58490566037736,NA,NA
49047,Cass County,MI,NA,NA,NA,71.48846960167715
49055,Van Buren County,MI,NA,NA,71.76141658900279,NA
49068,Calhoun County,MI,NA,79.62264150943396,NA,NA
49082,Branch County,MI,NA,NA,NA,99.16142557651992
49090,Van Buren County,MI,NA,NA,40.16775396085741,NA
49120,Berrien County,MI,NA,NA,14.818266542404473,NA
49201,Jackson County,MI,NA,34.33962264150943,NA,NA
49202,Jackson County,MI,NA,88.83018867924528,NA,NA
49203,Jackson County,MI,NA,NA,54.613233923578754,NA
49221,Lenawee County,MI,NA,NA,5.405405405405405,NA
49224,Calhoun County,MI,NA,NA,56.57036346691518,NA
49250,Hillsdale County,MI,NA,75.39622641509433,NA,NA
49269,Jackson County,MI,NA,NA,77.53960857409133,NA
49285,Ingham County,MI,NA,NA,NA,98.53249475890985
49286,Lenawee County,MI,NA,NA,45.386766076421246,NA
49315,Kent County,MI,NA,NA,69.52469711090401,NA
49331,Kent County,MI,NA,51.320754716981135,NA,NA
49341,Kent County,MI,NA,NA,24.976700838769805,NA
49417,Ottawa County,MI,NA,NA,6.244175209692451,NA
49418,Kent County,MI,NA,NA,26.281453867660765,66.0377358490566
49420,Oceana County,MI,NA,69.66037735849056,NA,NA
49424,Ottawa County,MI,7.981220657276995,NA,12.115563839701771,NA
49431,Mason County,MI,NA,77.9622641509434,24.60391425908667,NA
49441,Muskegon County,MI,NA,42.18867924528302,NA,NA
49442,Muskegon County,MI,NA,NA,4.659832246039143,NA
49461,Muskegon County,MI,NA,72.15094339622642,NA,NA
49505,Kent County,MI,NA,24,NA,NA
49507,Kent County,MI,NA,4.981132075471698,57.22273998136067,NA
49508,Kent County,MI,1.8779342723004695,NA,NA,NA
49509,Kent County,MI,NA,NA,16.589002795899347,NA
49546,Kent County,MI,NA,NA,NA,15.30398322851153
49631,Osceola County,MI,NA,69.13207547169812,94.78098788443616,NA
49646,Kalkaska County,MI,NA,NA,91.23951537744641,NA
49649,Grand Traverse County,MI,NA,NA,99.90680335507922,NA
49660,Manistee County,MI,NA,68.67924528301886,NA,NA
49686,Grand Traverse County,MI,NA,75.09433962264151,NA,21.17400419287212
49720,Charlevoix County,MI,NA,81.66037735849056,NA,NA
49765,Presque Isle County,MI,NA,NA,75.11649580615098,NA
49783,Chippewa County,MI,NA,83.39622641509435,NA,NA
49829,Delta County,MI,NA,33.81132075471698,NA,NA
49855,Marquette County,MI,NA,NA,16.123019571295433,NA
49868,Luce County,MI,77.93427230046949,NA,NA,NA
55063,Pine County,MN,NA,94.11320754716981,NA,NA
55066,Goodhue County,MN,NA,46.33962264150943,NA,45.492662473794546
55076,Dakota County,MN,NA,61.28301886792453,NA,NA
55104,Ramsey County,MN,NA,14.18867924528302,NA,NA
55110,Ramsey County,MN,NA,50.113207547169814,NA,40.461215932914044
55119,Ramsey County,MN,NA,12.90566037735849,NA,NA
55124,Dakota County,MN,NA,NA,39.70177073625349,NA
55128,Washington County,MN,NA,NA,52.28331780055918,NA
55303,Anoka County,MN,NA,17.735849056603772,NA,NA
55311,Hennepin County,MN,NA,NA,65.14445479962721,NA
55317,Carver County,MN,NA,76.30188679245283,NA,NA
55318,Carver County,MN,NA,89.05660377358491,NA,NA
55328,Wright County,MN,NA,NA,91.8918918918919,NA
55330,Sherburne County,MN,NA,NA,39.98136067101584,NA
55355,Meeker County,MN,NA,NA,73.15936626281454,NA
55363,Wright County,MN,NA,95.47169811320755,NA,NA
55372,Scott County,MN,NA,61.43396226415094,NA,NA
55376,Wright County,MN,NA,NA,NA,82.38993710691824
55387,Carver County,MN,NA,NA,NA,88.25995807127882
55404,Hennepin County,MN,NA,35.77358490566038,21.714818266542405,NA
55406,Hennepin County,MN,NA,NA,NA,70.020964360587
55411,Hennepin County,MN,NA,70.56603773584905,16.402609506057782,NA
55417,Hennepin County,MN,NA,75.84905660377359,NA,NA
55418,Hennepin County,MN,NA,28.07547169811321,36.253494874184526,NA
55426,Hennepin County,MN,NA,NA,39.235787511649576,NA
55428,Hennepin County,MN,NA,19.92452830188679,NA,NA
55429,Hennepin County,MN,NA,42.26415094339623,NA,NA
55430,Hennepin County,MN,NA,18.41509433962264,NA,NA
55437,Hennepin County,MN,59.624413145539904,NA,NA,NA
55720,Carlton County,MN,NA,64.60377358490565,NA,NA
55744,Itasca County,MN,NA,14.79245283018868,NA,NA
55779,St. Louis County,MN,NA,99.54716981132076,NA,NA
55811,St. Louis County,MN,NA,31.018867924528305,NA,NA
55904,Olmsted County,MN,NA,NA,NA,74.21383647798741
55946,Goodhue County,MN,NA,100,NA,NA
56001,Blue Earth County,MN,9.859154929577464,NA,NA,NA
56003,Nicollet County,MN,NA,NA,93.28984156570364,NA
56007,Freeborn County,MN,NA,NA,8.574091332712023,NA
56073,Brown County,MN,NA,NA,12.208760484622553,NA
56345,Morrison County,MN,NA,87.84905660377359,NA,NA
56362,Stearns County,MN,NA,NA,NA,57.023060796645694
56377,Stearns County,MN,NA,NA,86.11369990680335,NA
56387,Stearns County,MN,NA,NA,NA,80.29350104821803
56401,Crow Wing County,MN,NA,8.452830188679245,28.33178005591799,30.81761006289308
56431,Aitkin County,MN,NA,NA,94.31500465983224,32.494758909853246
56537,Otter Tail County,MN,NA,17.88679245283019,39.79496738117428,NA
56701,Pennington County,MN,NA,20.075471698113205,NA,NA
56716,Polk County,MN,NA,31.849056603773583,NA,NA
56721,Polk County,MN,NA,NA,NA,38.36477987421384
38632,DeSoto County,MS,NA,51.471698113207545,NA,NA
38637,DeSoto County,MS,NA,50.264150943396224,79.3103448275862,NA
38651,DeSoto County,MS,NA,NA,93.01025163094128,NA
38663,Tippah County,MS,NA,NA,NA,66.24737945492663
38751,Sunflower County,MS,NA,NA,72.60018639328985,NA
38829,Prentiss County,MS,NA,48.22641509433963,NA,NA
38860,Chickasaw County,MS,NA,NA,90.40074557315937,NA
38865,Alcorn County,MS,NA,84.9811320754717,NA,NA
38930,Leflore County,MS,NA,40.45283018867924,NA,NA
39042,Rankin County,MS,NA,NA,78.09878844361603,NA
39046,Madison County,MS,NA,28.830188679245282,NA,NA
39047,Rankin County,MS,NA,54.0377358490566,NA,NA
39051,Leake County,MS,NA,47.320754716981135,NA,NA
39056,Hinds County,MS,NA,NA,68.77912395153774,59.538784067085956
39074,Scott County,MS,NA,38.49056603773585,NA,NA
39095,Holmes County,MS,NA,NA,88.16402609506058,NA
39153,Smith County,MS,NA,97.43396226415094,NA,NA
39168,Smith County,MS,NA,NA,86.9524697110904,NA
39189,Leake County,MS,NA,95.69811320754718,NA,NA
39208,Rankin County,MS,NA,NA,51.817334575955265,NA
39209,Hinds County,MS,NA,23.69811320754717,NA,NA
39211,Hinds County,MS,NA,NA,72.50698974836905,NA
39212,Hinds County,MS,NA,22.11320754716981,NA,NA
39213,Hinds County,MS,NA,36,NA,NA
39232,Rankin County,MS,NA,NA,NA,91.40461215932913
39305,Lauderdale County,MS,NA,NA,51.724137931034484,NA
39339,Winston County,MS,NA,NA,NA,69.81132075471697
39452,George County,MS,NA,59.54716981132076,NA,NA
39503,Harrison County,MS,NA,9.283018867924527,NA,NA
39507,Harrison County,MS,NA,NA,67.66076421248836,NA
39525,Hancock County,MS,NA,NA,79.21714818266543,NA
39532,Harrison County,MS,19.718309859154928,44.22641509433962,NA,NA
39553,Jackson County,MS,NA,NA,48.182665424044735,NA
39564,Jackson County,MS,83.09859154929578,NA,NA,NA
39565,Jackson County,MS,NA,NA,NA,76.72955974842768
39577,Stone County,MS,NA,86.26415094339622,NA,NA
39652,Pike County,MS,NA,70.64150943396227,NA,NA
39667,Walthall County,MS,NA,NA,62.16216216216216,NA
39701,Lowndes County,MS,NA,66.26415094339623,NA,NA
63005,St. Louis County,MO,74.17840375586854,NA,NA,NA
63011,St. Louis County,MO,NA,70.26415094339623,18.35973904939422,NA
63021,St. Louis County,MO,NA,NA,73.06616961789375,NA
63026,St. Louis County,MO,32.863849765258216,NA,NA,NA
63042,St. Louis County,MO,NA,47.69811320754717,39.422180801491145,NA
63049,Jefferson County,MO,NA,73.88679245283018,NA,NA
63051,Jefferson County,MO,NA,NA,87.41845293569432,NA
63052,Jefferson County,MO,NA,NA,57.0363466915191,NA
63077,Franklin County,MO,NA,69.20754716981132,NA,NA
63080,Franklin County,MO,NA,72.83018867924528,NA,NA
63111,St. Louis city,MO,NA,34.490566037735846,NA,NA
63112,St. Louis city,MO,NA,54.0377358490566,NA,NA
63120,St. Louis city,MO,NA,63.849056603773576,NA,NA
63123,St. Louis County,MO,NA,NA,NA,3.7735849056603774
63124,St. Louis County,MO,NA,NA,NA,37.316561844863735
63130,St. Louis County,MO,NA,53.20754716981132,NA,NA
63135,St. Louis County,MO,NA,NA,65.51724137931035,NA
63136,St. Louis County,MO,NA,6.7924528301886795,40.35414725069897,NA
63137,St. Louis County,MO,NA,68.52830188679245,NA,NA
63146,St. Louis County,MO,NA,NA,33.64398881640261,NA
63301,St. Charles County,MO,NA,NA,4.007455731593663,NA
63304,St. Charles County,MO,NA,NA,13.69990680335508,NA
63366,St. Charles County,MO,7.511737089201878,NA,NA,NA
63385,St. Charles County,MO,NA,15.471698113207546,NA,NA
63501,Adair County,MO,NA,68.37735849056604,NA,NA
63624,St. Francois County,MO,NA,NA,99.4408201304753,NA
63701,Cape Girardeau County,MO,NA,40.075471698113205,NA,NA
63703,Cape Girardeau County,MO,NA,NA,71.57502329916123,NA
63801,Scott County,MO,6.572769953051644,NA,NA,21.59329140461216
63857,Dunklin County,MO,NA,72,49.39422180801491,NA
63863,Dunklin County,MO,NA,84.37735849056604,NA,NA
63901,Butler County,MO,NA,13.056603773584904,NA,NA
64015,Jackson County,MO,NA,NA,16.495806150978567,NA
64030,Jackson County,MO,NA,17.58490566037736,18.266542404473437,NA
64037,Lafayette County,MO,NA,94.86792452830188,NA,NA
64040,Johnson County,MO,NA,NA,81.82665424044734,NA
64079,Platte County,MO,NA,57.9622641509434,NA,83.22851153039832
64093,Johnson County,MO,NA,35.924528301886795,NA,46.75052410901468
64106,Jackson County,MO,NA,NA,57.781919850885366,NA
64112,Jackson County,MO,NA,89.9622641509434,NA,NA
64118,Clay County,MO,NA,5.132075471698113,NA,NA
64119,Clay County,MO,73.23943661971832,9.584905660377359,NA,NA
64123,Jackson County,MO,NA,83.09433962264151,NA,NA
64124,Jackson County,MO,NA,NA,63.932898415657036,NA
64133,Jackson County,MO,NA,4.0754716981132075,NA,NA
64152,Platte County,MO,NA,19.92452830188679,NA,NA
64153,Platte County,MO,NA,NA,97.48369058713887,NA
64157,Clay County,MO,NA,34.0377358490566,NA,NA
64465,Clinton County,MO,NA,88.30188679245283,NA,NA
64468,Nodaway County,MO,67.6056338028169,NA,NA,NA
64485,Andrew County,MO,NA,NA,58.52749301025163,NA
64503,Buchanan County,MO,NA,NA,31.68685927306617,NA
64506,Buchanan County,MO,NA,76.83018867924528,NA,NA
64507,Buchanan County,MO,NA,81.58490566037736,NA,NA
64628,Linn County,MO,NA,84.0754716981132,NA,NA
64683,Grundy County,MO,NA,81.43396226415094,NA,NA
64735,Henry County,MO,NA,33.735849056603776,41.192917054986026,NA
64801,Jasper County,MO,10.7981220657277,NA,NA,55.13626834381551
64870,Jasper County,MO,45.539906103286384,NA,NA,NA
65018,Moniteau County,MO,NA,78.11320754716982,NA,NA
65201,Boone County,MO,NA,46.11320754716981,NA,NA
65203,Boone County,MO,NA,58.26415094339623,NA,NA
65251,Callaway County,MO,NA,30.641509433962266,52.00372786579683,NA
65265,Audrain County,MO,NA,59.09433962264151,81.64026095060578,NA
65351,Saline County,MO,94.36619718309859,NA,NA,NA
65355,Benton County,MO,NA,53.73584905660377,NA,NA
65401,Phelps County,MO,NA,NA,17.33457595526561,NA
65453,Crawford County,MO,90.61032863849765,NA,NA,NA
65459,Pulaski County,MO,NA,94.94339622641509,NA,NA
65536,Laclede County,MO,NA,NA,36.16029822926375,NA
65560,Dent County,MO,NA,57.660377358490564,NA,NA
65625,Barry County,MO,50.23474178403756,NA,NA,NA
65775,Howell County,MO,NA,32.75471698113208,NA,NA
65802,Greene County,MO,NA,9.811320754716983,NA,NA
65803,Greene County,MO,NA,79.77358490566037,NA,25.366876310272534
65807,Greene County,MO,NA,27.773584905660375,NA,NA
59405,Cascade County,MT,NA,62.64150943396226,NA,NA
59711,Deer Lodge County,MT,NA,91.32075471698113,NA,NA
59715,Gallatin County,MT,NA,NA,34.94874184529357,NA
59840,Ravalli County,MT,80.28169014084507,NA,NA,44.0251572327044
59860,Lake County,MT,NA,NA,43.80242311276794,NA
59901,Flathead County,MT,NA,32.22641509433962,NA,NA
59912,Flathead County,MT,NA,93.35849056603773,NA,NA
59923,Lincoln County,MT,NA,NA,51.25815470643057,NA
68022,Douglas County,NE,NA,NA,79.49673811742777,NA
68025,Dodge County,NE,NA,NA,24.510717614165888,NA
68124,Douglas County,NE,92.95774647887323,NA,NA,NA
68127,Douglas County,NE,NA,66.79245283018868,NA,NA
68136,Sarpy County,NE,37.558685446009385,NA,NA,NA
68152,Douglas County,NE,NA,99.62264150943396,NA,NA
68310,Gage County,NE,NA,65.28301886792453,NA,NA
68355,Richardson County,NE,NA,98.49056603773585,NA,NA
68467,York County,NE,NA,NA,63.37371854613234,NA
68516,Lancaster County,NE,NA,NA,NA,80.50314465408806
68521,Lancaster County,NE,NA,62.49056603773585,NA,NA
68522,Lancaster County,NE,NA,NA,94.12861136999068,NA
69101,Lincoln County,NE,NA,24.22641509433962,NA,NA
89121,Clark County,NV,NA,NA,NA,37.9454926624738
89129,Clark County,NV,NA,49.20754716981132,NA,NA
89134,Clark County,NV,NA,NA,47.25069897483691,NA
89147,Clark County,NV,NA,41.88679245283019,NA,NA
89403,Lyon County,NV,NA,80.75471698113208,NA,NA
89406,Churchill County,NV,NA,NA,29.3569431500466,NA
89410,Douglas County,NV,NA,84.45283018867924,NA,NA
89429,Lyon County,NV,NA,NA,83.78378378378379,NA
89431,Washoe County,NV,77.46478873239437,NA,NA,NA
89451,Washoe County,NV,NA,NA,85.64771668219944,NA
89506,Washoe County,NV,NA,NA,29.916123019571295,NA
89512,Washoe County,NV,NA,NA,45.666356011183595,NA
89521,Washoe County,NV,NA,50.71698113207547,NA,NA
89701,Carson City,NV,NA,NA,42.96365330848089,NA
89706,Carson City,NV,NA,61.96226415094339,NA,NA
03034,Rockingham County,NH,NA,NA,97.01770736253495,NA
03038,Rockingham County,NH,NA,12,NA,NA
03051,Hillsborough County,NH,NA,NA,NA,32.494758909853246
03054,Hillsborough County,NH,NA,91.24528301886792,NA,47.16981132075472
03062,Hillsborough County,NH,22.065727699530516,18.49056603773585,NA,NA
03063,Hillsborough County,NH,NA,44.83018867924528,NA,NA
03079,Rockingham County,NH,NA,46.490566037735846,NA,NA
03102,Hillsborough County,NH,NA,NA,14.911463187325255,NA
03103,Hillsborough County,NH,NA,NA,10.15843429636533,NA
03104,Hillsborough County,NH,NA,44.075471698113205,NA,NA
03235,Merrimack County,NH,NA,NA,NA,49.47589098532495
03246,Belknap County,NH,NA,NA,31.5004659832246,NA
03281,Hillsborough County,NH,NA,75.9245283018868,NA,97.27463312368972
03301,Merrimack County,NH,NA,NA,NA,54.29769392033543
03431,Cheshire County,NH,NA,NA,NA,8.176100628930817
03748,Grafton County,NH,NA,96.45283018867926,NA,NA
03755,Grafton County,NH,NA,NA,92.9170549860205,NA
03766,Grafton County,NH,NA,NA,NA,54.50733752620545
03801,Rockingham County,NH,NA,77.13207547169812,NA,NA
03842,Rockingham County,NH,NA,NA,NA,68.55345911949685
03865,Rockingham County,NH,NA,NA,88.72320596458528,NA
03894,Carroll County,NH,NA,NA,92.63746505125815,NA
07009,Essex County,NJ,NA,91.47169811320754,NA,NA
07017,Essex County,NJ,NA,89.20754716981132,NA,NA
07052,Essex County,NJ,NA,14.113207547169813,NA,NA
07055,Passaic County,NJ,NA,NA,3.727865796831314,98.74213836477988
07072,Bergen County,NJ,NA,88.67924528301887,NA,NA
07080,Middlesex County,NJ,NA,57.35849056603774,NA,NA
07087,Hudson County,NJ,NA,NA,NA,90.77568134171908
07102,Essex County,NJ,NA,NA,93.4762348555452,NA
07103,Essex County,NJ,NA,NA,1.6775396085740912,NA
07107,Essex County,NJ,NA,NA,49.48741845293569,NA
07109,Essex County,NJ,NA,NA,98.04287045666355,NA
07111,Essex County,NJ,NA,NA,NA,26.20545073375262
07206,Union County,NJ,NA,81.73584905660377,NA,NA
07481,Bergen County,NJ,NA,70.49056603773585,NA,NA
07508,Passaic County,NJ,NA,NA,42.49767008387698,NA
07514,Passaic County,NJ,NA,NA,87.88443616029824,NA
07524,Passaic County,NJ,60.093896713615024,NA,NA,NA
07601,Bergen County,NJ,NA,5.886792452830188,NA,NA
07628,Bergen County,NJ,NA,NA,86.76607642124884,NA
07644,Bergen County,NJ,NA,87.62264150943396,NA,NA
07738,Monmouth County,NJ,NA,NA,NA,93.9203354297694
07740,Monmouth County,NJ,NA,49.9622641509434,NA,NA
07751,Monmouth County,NJ,NA,66.0377358490566,76.88723205964585,NA
07885,Morris County,NJ,NA,78.56603773584906,NA,NA
07901,Union County,NJ,NA,NA,NA,79.66457023060796
07932,Morris County,NJ,NA,NA,93.38303821062442,NA
07960,Morris County,NJ,NA,19.32075471698113,NA,NA
08002,Camden County,NJ,75.11737089201877,NA,NA,NA
08005,Ocean County,NJ,NA,NA,30.47530288909599,20.754716981132077
08021,Camden County,NJ,NA,NA,8.014911463187326,NA
08034,Camden County,NJ,NA,78.49056603773586,NA,NA
08046,Burlington County,NJ,NA,27.471698113207548,NA,NA
08067,Salem County,NJ,100,NA,NA,NA
08096,Gloucester County,NJ,NA,NA,38.49021435228332,NA
08102,Camden County,NJ,NA,7.09433962264151,NA,NA
08103,Camden County,NJ,NA,65.05660377358491,NA,NA
08104,Camden County,NJ,NA,0.8301886792452831,NA,NA
08105,Camden County,NJ,NA,1.3584905660377358,NA,NA
08106,Camden County,NJ,NA,NA,88.90959925442684,NA
08109,Camden County,NJ,NA,52.75471698113208,NA,NA
08205,Atlantic County,NJ,NA,15.924528301886792,NA,NA
08260,Cape May County,NJ,NA,NA,25.722273998136068,NA
08270,Cape May County,NJ,91.07981220657277,NA,80.52190121155638,NA
08360,Cumberland County,NJ,NA,16.9811320754717,NA,NA
08401,Atlantic County,NJ,NA,3.6226415094339623,NA,NA
08540,Mercer County,NJ,NA,NA,NA,36.058700209643604
08609,Mercer County,NJ,NA,38.264150943396224,NA,NA
08610,Mercer County,NJ,NA,NA,NA,53.24947589098532
08618,Mercer County,NJ,NA,6.6415094339622645,NA,NA
08701,Ocean County,NJ,NA,NA,9.785647716682199,NA
08742,Ocean County,NJ,NA,30.11320754716981,NA,NA
08755,Ocean County,NJ,NA,NA,NA,12.368972746331238
08759,Ocean County,NJ,NA,NA,1.3979496738117427,NA
08820,Middlesex County,NJ,NA,47.24528301886792,NA,NA
08837,Middlesex County,NJ,NA,63.16981132075472,NA,NA
08844,Somerset County,NJ,NA,41.58490566037736,NA,NA
08848,Hunterdon County,NJ,NA,NA,82.75862068965517,NA
08861,Middlesex County,NJ,NA,NA,NA,98.32285115303984
08863,Middlesex County,NJ,NA,66.64150943396227,NA,NA
08865,Warren County,NJ,NA,NA,40.44734389561976,NA
08882,Middlesex County,NJ,NA,61.056603773584904,NA,NA
87035,Torrance County,NM,NA,NA,95.24697110904008,NA
87105,Bernalillo County,NM,NA,20.528301886792452,NA,NA
87107,Bernalillo County,NM,NA,NA,23.299161230195715,NA
87108,Bernalillo County,NM,NA,6.264150943396227,NA,NA
87110,Bernalillo County,NM,NA,NA,9.972041006523765,NA
87111,Bernalillo County,NM,12.206572769953052,NA,NA,NA
87112,Bernalillo County,NM,NA,NA,NA,6.7085953878406714
87114,Bernalillo County,NM,10.328638497652582,7.471698113207548,NA,NA
87121,Bernalillo County,NM,NA,4.30188679245283,NA,NA
87123,Bernalillo County,NM,NA,82.26415094339623,NA,55.55555555555556
87420,San Juan County,NM,NA,30.792452830188676,NA,NA
87532,Santa Fe County,NM,NA,NA,NA,56.18448637316562
87571,Taos County,NM,NA,56.22641509433962,NA,NA
87701,San Miguel County,NM,NA,NA,NA,50.524109014675055
88005,Doa Ana County,NM,NA,NA,NA,51.99161425576519
88007,Doa Ana County,NM,NA,80,NA,NA
88012,Doa Ana County,NM,NA,NA,NA,84.48637316561845
88021,Doa Ana County,NM,NA,NA,NA,98.9517819706499
88101,Curry County,NM,NA,NA,7.082945013979497,NA
88240,Lea County,NM,NA,NA,18.732525629077355,NA
88242,Lea County,NM,NA,74.71698113207546,NA,NA
88310,Otero County,NM,NA,24.67924528301887,NA,NA
88352,Otero County,NM,NA,NA,75.0232991612302,NA
10002,New York County,NY,NA,39.320754716981135,21.155638397017707,NA
10012,New York County,NY,NA,80.67924528301886,NA,NA
10014,New York County,NY,NA,NA,NA,64.77987421383648
10016,New York County,NY,NA,NA,88.0708294501398,NA
10018,New York County,NY,NA,NA,95.34016775396086,NA
10025,New York County,NY,NA,5.660377358490567,NA,NA
10028,New York County,NY,NA,NA,NA,23.89937106918239
10029,New York County,NY,NA,NA,5.591798695246971,0.20964360587002098
10031,New York County,NY,NA,94.26415094339623,14.725069897483692,NA
10036,New York County,NY,NA,38.264150943396224,NA,NA
10039,New York County,NY,NA,31.169811320754715,NA,NA
10303,Richmond County,NY,NA,40.9811320754717,NA,NA
10306,Richmond County,NY,NA,19.77358490566038,NA,NA
10451,Bronx County,NY,NA,16.30188679245283,6.523765144454799,NA
10452,Bronx County,NY,NA,5.811320754716981,8.294501397949674,NA
10453,Bronx County,NY,NA,0.7547169811320755,NA,NA
10454,Bronx County,NY,NA,28.37735849056604,NA,NA
10457,Bronx County,NY,NA,NA,0.8387698042870456,NA
10458,Bronx County,NY,NA,10.716981132075471,6.616961789375582,NA
10460,Bronx County,NY,NA,1.8867924528301887,NA,NA
10461,Bronx County,NY,NA,10.566037735849058,NA,NA
10463,Bronx County,NY,NA,NA,NA,3.563941299790356
10467,Bronx County,NY,NA,12.528301886792454,NA,NA
10468,Bronx County,NY,NA,1.4339622641509433,NA,NA
10469,Bronx County,NY,NA,3.1698113207547167,7.642124883504193,NA
10472,Bronx County,NY,NA,NA,2.050326188257223,NA
10473,Bronx County,NY,NA,22.41509433962264,NA,10.69182389937107
10475,Bronx County,NY,NA,NA,NA,38.15513626834382
10562,Westchester County,NY,NA,NA,63.74650512581547,NA
10570,Westchester County,NY,NA,NA,92.73066169617894,NA
10591,Westchester County,NY,NA,NA,NA,64.98951781970649
10710,Westchester County,NY,NA,85.66037735849056,NA,NA
10801,Westchester County,NY,NA,NA,NA,72.53668763102725
10920,Rockland County,NY,NA,NA,94.40820130475302,NA
11104,Queens County,NY,NA,NA,NA,95.17819706498952
11205,Kings County,NY,NA,NA,19.850885368126747,NA
11206,Kings County,NY,NA,14.49056603773585,65.98322460391427,7.127882599580712
11208,Kings County,NY,NA,1.0566037735849056,NA,89.72746331236897
11212,Kings County,NY,NA,0.9811320754716981,0.9319664492078285,NA
11214,Kings County,NY,NA,NA,10.997204100652375,NA
11217,Kings County,NY,NA,NA,24.60391425908667,NA
11219,Kings County,NY,NA,NA,NA,14.465408805031446
11220,Kings County,NY,NA,NA,NA,16.9811320754717
11224,Kings County,NY,NA,NA,NA,2.515723270440252
11226,Kings County,NY,NA,NA,NA,13.20754716981132
11233,Kings County,NY,NA,1.7358490566037734,NA,NA
11237,Kings County,NY,NA,NA,14.259086672879775,NA
11249,Kings County,NY,NA,NA,76.79403541472507,NA
11368,Queens County,NY,0,NA,NA,NA
11372,Queens County,NY,NA,NA,21.528424976700837,NA
11377,Queens County,NY,NA,NA,15.284249767008387,NA
11385,Queens County,NY,NA,NA,41.658900279589936,NA
11418,Queens County,NY,NA,84.30188679245283,NA,NA
11420,Queens County,NY,NA,NA,NA,36.68763102725367
11520,Nassau County,NY,52.58215962441315,NA,NA,NA
11581,Nassau County,NY,NA,NA,NA,72.11740041928721
11720,Suffolk County,NY,NA,NA,NA,34.38155136268344
11727,Suffolk County,NY,NA,63.094339622641506,NA,NA
11787,Suffolk County,NY,84.50704225352112,NA,NA,NA
11801,Nassau County,NY,NA,NA,49.58061509785648,NA
11933,Suffolk County,NY,NA,NA,NA,72.74633123689728
12010,Montgomery County,NY,NA,NA,5.498602050326188,NA
12065,Saratoga County,NY,NA,24.07547169811321,NA,NA
12095,Fulton County,NY,33.33333333333333,NA,NA,NA
12117,Fulton County,NY,NA,NA,94.50139794967382,NA
12118,Saratoga County,NY,NA,NA,50.79217148182666,NA
12180,Rensselaer County,NY,NA,NA,57.0363466915191,NA
12303,Schenectady County,NY,NA,NA,NA,39.41299790356394
12304,Schenectady County,NY,NA,30.339622641509433,NA,NA
12550,Orange County,NY,NA,32.37735849056604,NA,NA
12809,Washington County,NY,NA,91.47169811320754,NA,NA
12834,Washington County,NY,NA,68,NA,NA
12866,Saratoga County,NY,NA,13.20754716981132,NA,NA
12901,Clinton County,NY,NA,NA,NA,8.80503144654088
12912,Clinton County,NY,NA,89.81132075471699,NA,NA
12953,Franklin County,NY,NA,50.49056603773585,NA,NA
12986,Franklin County,NY,NA,NA,NA,83.43815513626835
12996,Essex County,NY,NA,95.9245283018868,NA,NA
13021,Cayuga County,NY,NA,18.264150943396228,NA,NA
13027,Onondaga County,NY,NA,NA,NA,46.331236897274636
13032,Madison County,NY,71.83098591549296,NA,NA,NA
13045,Cortland County,NY,NA,NA,10.065237651444548,NA
13066,Onondaga County,NY,NA,92,NA,NA
13069,Oswego County,NY,NA,NA,10.904007455731593,NA
13077,Cortland County,NY,NA,NA,66.63560111835974,NA
13088,Onondaga County,NY,NA,27.0188679245283,NA,NA
13104,Onondaga County,NY,NA,NA,91.14631873252563,NA
13114,Oswego County,NY,NA,NA,NA,100
13126,Oswego County,NY,NA,3.69811320754717,NA,NA
13131,Oswego County,NY,NA,87.0188679245283,NA,NA
13140,Cayuga County,NY,NA,80.52830188679245,NA,NA
13152,Onondaga County,NY,78.87323943661971,NA,NA,NA
13165,Seneca County,NY,NA,NA,NA,77.14884696016772
13205,Onondaga County,NY,NA,42.94339622641509,NA,NA
13207,Onondaga County,NY,41.78403755868544,31.169811320754715,NA,NA
13208,Onondaga County,NY,NA,42.0377358490566,NA,NA
13212,Onondaga County,NY,NA,NA,NA,61.63522012578616
13224,Onondaga County,NY,NA,NA,76.51444547996272,NA
13326,Otsego County,NY,NA,87.69811320754717,NA,NA
13348,Otsego County,NY,NA,NA,95.1537744641193,NA
13350,Herkimer County,NY,NA,NA,NA,59.329140461215935
13367,Lewis County,NY,NA,NA,61.323392357875115,NA
13407,Herkimer County,NY,NA,90.33962264150944,NA,NA
13439,Otsego County,NY,NA,NA,94.87418452935694,NA
13440,Oneida County,NY,5.633802816901409,NA,28.51817334575955,10.90146750524109
13480,Oneida County,NY,NA,95.62264150943396,NA,NA
13605,Jefferson County,NY,NA,NA,79.58993476234856,NA
13648,Lewis County,NY,NA,92.30188679245282,NA,NA
13669,St. Lawrence County,NY,NA,NA,22.460391425908668,NA
13676,St. Lawrence County,NY,NA,32.83018867924528,NA,NA
13748,Broome County,NY,NA,NA,95.43336439888164,NA
13760,Broome County,NY,NA,18.71698113207547,0.3727865796831314,NA
13787,Broome County,NY,93.42723004694837,83.16981132075472,NA,NA
13797,Broome County,NY,NA,98.0377358490566,NA,NA
13803,Cortland County,NY,NA,NA,97.94967381174277,NA
13815,Chenango County,NY,26.291079812206576,63.32075471698113,NA,NA
13820,Otsego County,NY,NA,8.754716981132075,NA,NA
13865,Broome County,NY,NA,49.056603773584904,92.54426840633737,NA
13905,Broome County,NY,NA,1.8113207547169812,NA,NA
14020,Genesee County,NY,NA,NA,12.674743709226469,NA
14048,Chautauqua County,NY,NA,NA,41.00652376514445,NA
14063,Chautauqua County,NY,NA,70.18867924528301,NA,NA
14094,Niagara County,NY,NA,NA,2.516309412861137,NA
14103,Orleans County,NY,NA,45.132075471698116,NA,NA
14120,Niagara County,NY,NA,NA,7.269338303821063,NA
14125,Genesee County,NY,NA,93.66037735849056,NA,NA
14132,Niagara County,NY,NA,NA,76.51444547996272,NA
14136,Chautauqua County,NY,NA,86.18867924528301,NA,NA
14150,Erie County,NY,NA,26.566037735849058,NA,21.59329140461216
14207,Erie County,NY,NA,7.018867924528302,NA,NA
14214,Erie County,NY,NA,NA,42.311276794035415,NA
14217,Erie County,NY,NA,NA,19.664492078285182,NA
14221,Erie County,NY,NA,NA,NA,16.142557651991616
14222,Erie County,NY,NA,55.92452830188679,NA,NA
14227,Erie County,NY,NA,24.830188679245282,NA,NA
14304,Niagara County,NY,NA,56.45283018867925,NA,NA
14305,Niagara County,NY,NA,5.3584905660377355,34.29636533084809,NA
14414,Livingston County,NY,NA,NA,94.96738117427772,NA
14428,Monroe County,NY,39.436619718309856,NA,NA,NA
14450,Monroe County,NY,NA,2.7924528301886795,NA,NA
14454,Livingston County,NY,NA,70.0377358490566,NA,NA
14456,Ontario County,NY,NA,NA,NA,46.540880503144656
14464,Monroe County,NY,62.441314553990615,NA,NA,NA
14467,Monroe County,NY,NA,NA,49.95340167753961,NA
14470,Orleans County,NY,NA,47.094339622641506,NA,NA
14489,Wayne County,NY,NA,NA,30.382106244175212,NA
14502,Wayne County,NY,NA,27.69811320754717,NA,NA
14513,Wayne County,NY,NA,4.830188679245283,NA,NA
14527,Yates County,NY,NA,26.867924528301884,NA,NA
14534,Monroe County,NY,NA,NA,1.95712954333644,NA
14559,Monroe County,NY,NA,NA,20.689655172413794,NA
14580,Monroe County,NY,NA,16.67924528301887,NA,NA
14590,Wayne County,NY,NA,NA,NA,96.0167714884696
14604,Monroe County,NY,NA,52.98113207547169,NA,NA
14605,Monroe County,NY,NA,8.075471698113207,NA,NA
14610,Monroe County,NY,NA,NA,24.79030754892824,NA
14612,Monroe County,NY,NA,NA,1.4911463187325256,71.48846960167715
14615,Monroe County,NY,NA,39.92452830188679,NA,NA
14616,Monroe County,NY,NA,NA,8.760484622553587,NA
14620,Monroe County,NY,NA,NA,68.96551724137932,NA
14622,Monroe County,NY,NA,24.30188679245283,NA,NA
14623,Monroe County,NY,NA,NA,NA,45.28301886792453
14624,Monroe County,NY,NA,2.4150943396226414,NA,NA
14701,Chautauqua County,NY,NA,2.8679245283018866,NA,NA
14719,Cattaraugus County,NY,NA,94.33962264150944,NA,NA
14779,Cattaraugus County,NY,NA,85.88679245283018,NA,NA
14814,Chemung County,NY,NA,96.15094339622642,NA,NA
14817,Tompkins County,NY,NA,NA,98.78844361602982,NA
14823,Steuben County,NY,NA,78.18867924528303,NA,NA
14840,Steuben County,NY,NA,NA,78.09878844361603,NA
14843,Steuben County,NY,NA,NA,30.102516309412863,54.088050314465406
14892,Tioga County,NY,NA,NA,89.74836905871388,NA
14901,Chemung County,NY,NA,30.867924528301888,NA,NA
27028,Davie County,NC,NA,NA,8.387698042870456,NA
27030,Surry County,NC,NA,6.113207547169811,NA,1.257861635220126
27103,Forsyth County,NC,NA,45.35849056603774,NA,NA
27106,Forsyth County,NC,NA,12.150943396226415,NA,NA
27127,Forsyth County,NC,0.9389671361502347,NA,NA,NA
27217,Alamance County,NC,NA,12,NA,NA
27244,Alamance County,NC,NA,83.77358490566039,NA,NA
27260,Guilford County,NC,NA,NA,49.20782851817334,NA
27295,Davidson County,NC,NA,20.37735849056604,NA,NA
27330,Lee County,NC,35.2112676056338,22.641509433962266,NA,NA
27332,Lee County,NC,NA,68.15094339622641,43.61602982292637,NA
27360,Davidson County,NC,NA,3.471698113207547,NA,NA
27406,Guilford County,NC,NA,74.41509433962264,NA,NA
27410,Guilford County,NC,NA,NA,NA,9.014675052410901
27502,Wake County,NC,NA,61.66037735849057,NA,NA
27510,Orange County,NC,NA,60.15094339622642,NA,NA
27514,Orange County,NC,NA,NA,NA,40.041928721174
27516,Orange County,NC,NA,31.69811320754717,NA,NA
27517,Orange County,NC,NA,NA,61.88257222739981,NA
27525,Franklin County,NC,NA,57.43396226415094,NA,NA
27530,Wayne County,NC,NA,13.50943396226415,NA,NA
27536,Vance County,NC,NA,NA,30.848089468779122,NA
27537,Vance County,NC,NA,NA,60.484622553588075,NA
27549,Franklin County,NC,NA,NA,31.407269338303824,NA
27560,Wake County,NC,NA,72.9056603773585,NA,NA
27565,Granville County,NC,NA,23.169811320754715,18.91891891891892,NA
27577,Johnston County,NC,NA,45.28301886792453,NA,NA
27592,Wake County,NC,67.13615023474179,NA,NA,NA
27604,Wake County,NC,NA,33.660377358490564,NA,NA
27606,Wake County,NC,NA,47.84905660377359,NA,NA
27612,Wake County,NC,NA,NA,38.863000931966454,NA
27613,Wake County,NC,NA,75.77358490566037,35.787511649580615,NA
27615,Wake County,NC,NA,NA,12.76794035414725,NA
27705,Durham County,NC,NA,22.339622641509436,11.46318732525629,24.10901467505241
27707,Durham County,NC,NA,NA,8.108108108108109,58.700209643605874
27713,Durham County,NC,NA,24.754716981132074,NA,NA
27834,Pitt County,NC,NA,NA,15.097856477166822,NA
27863,Wayne County,NC,NA,83.9245283018868,NA,NA
27909,Pasquotank County,NC,NA,NA,NA,22.641509433962266
27910,Hertford County,NC,NA,NA,78.93755824790307,NA
28023,Rowan County,NC,63.38028169014085,NA,NA,NA
28025,Cabarrus County,NC,NA,9.433962264150944,NA,NA
28037,Lincoln County,NC,NA,62.71698113207547,NA,NA
28052,Gaston County,NC,NA,NA,25.629077353215283,NA
28078,Mecklenburg County,NC,NA,32.15094339622642,31.03448275862069,NA
28080,Lincoln County,NC,NA,96.75471698113208,NA,NA
28103,Union County,NC,NA,76.30188679245283,NA,NA
28110,Union County,NC,NA,55.62264150943397,NA,NA
28124,Cabarrus County,NC,NA,NA,NA,95.59748427672956
28138,Rowan County,NC,NA,NA,97.76328052190121,NA
28144,Rowan County,NC,70.4225352112676,NA,NA,NA
28146,Rowan County,NC,NA,NA,74.4641192917055,NA
28152,Cleveland County,NC,NA,NA,NA,57.23270440251572
28163,Stanly County,NC,NA,NA,96.45852749301025,NA
28203,Mecklenburg County,NC,NA,96,NA,NA
28210,Mecklenburg County,NC,NA,NA,55.63839701770736,NA
28211,Mecklenburg County,NC,40.375586854460096,NA,NA,NA
28217,Mecklenburg County,NC,87.32394366197182,NA,NA,NA
28277,Mecklenburg County,NC,36.15023474178404,NA,NA,NA
28334,Sampson County,NC,NA,NA,27.586206896551722,NA
28358,Robeson County,NC,NA,15.320754716981133,NA,NA
28383,Robeson County,NC,NA,91.84905660377358,NA,NA
28412,New Hanover County,NC,NA,NA,NA,33.123689727463315
28425,Pender County,NC,NA,NA,83.59739049394221,NA
28457,Pender County,NC,NA,NA,85.08853681267475,NA
28472,Columbus County,NC,NA,NA,73.99813606710158,NA
28478,Pender County,NC,NA,NA,89.65517241379311,NA
28501,Lenoir County,NC,NA,NA,43.056849953401674,NA
28504,Lenoir County,NC,66.19718309859155,NA,NA,NA
28540,Onslow County,NC,NA,26.490566037735846,NA,NA
28546,Onslow County,NC,17.84037558685446,59.39622641509435,45.94594594594595,NA
28562,Craven County,NC,NA,41.132075471698116,NA,NA
28630,Caldwell County,NC,NA,NA,40.26095060577819,NA
28635,Wilkes County,NC,NA,NA,97.57688723205965,NA
28645,Caldwell County,NC,NA,53.58490566037736,NA,NA
28657,Avery County,NC,NA,NA,63.094128611369996,NA
28673,Catawba County,NC,NA,NA,98.69524697110904,NA
28705,Mitchell County,NC,NA,81.35849056603773,NA,NA
28716,Haywood County,NC,NA,51.094339622641506,NA,NA
28721,Haywood County,NC,NA,72.52830188679246,NA,NA
28731,Henderson County,NC,NA,NA,48.182665424044735,NA
28732,Henderson County,NC,NA,69.9622641509434,NA,NA
28746,Rutherford County,NC,NA,NA,96.7381174277726,NA
28777,Mitchell County,NC,NA,NA,67.75396085740914,NA
28779,Jackson County,NC,NA,57.132075471698116,83.13140726933831,NA
28791,Henderson County,NC,NA,NA,NA,53.66876310272537
28906,Cherokee County,NC,NA,NA,27.39981360671016,NA
58078,Cass County,ND,NA,26.339622641509436,14.259086672879775,NA
58301,Ramsey County,ND,NA,NA,63.37371854613234,NA
58368,Pierce County,ND,NA,NA,97.11090400745573,NA
58503,Burleigh County,ND,NA,NA,NA,10.272536687631026
58504,Burleigh County,ND,NA,NA,33.92357875116495,NA
58701,Ward County,ND,NA,NA,9.412861136999068,NA
58703,Ward County,ND,NA,NA,41.47250698974837,NA
58854,McKenzie County,ND,NA,NA,99.06803355079217,NA
43004,Franklin County,OH,NA,NA,98.41565703634669,NA
43021,Delaware County,OH,NA,NA,NA,80.083857442348
43035,Delaware County,OH,NA,NA,NA,87.84067085953879
43062,Licking County,OH,NA,NA,28.984156570363467,NA
43068,Franklin County,OH,NA,8.90566037735849,NA,NA
43078,Champaign County,OH,NA,NA,71.2022367194781,NA
43105,Fairfield County,OH,NA,NA,96.1789375582479,NA
43110,Franklin County,OH,NA,NA,10.344827586206897,NA
43119,Franklin County,OH,NA,93.50943396226415,NA,NA
43123,Franklin County,OH,NA,NA,NA,14.046121593291405
43130,Fairfield County,OH,NA,1.6603773584905661,NA,NA
43138,Hocking County,OH,NA,NA,27.679403541472507,NA
43160,Fayette County,OH,8.450704225352112,NA,NA,NA
43162,Madison County,OH,NA,NA,71.66821994408201,NA
43207,Franklin County,OH,NA,NA,6.989748369058714,NA
43213,Franklin County,OH,NA,8.30188679245283,NA,NA
43214,Franklin County,OH,NA,49.81132075471698,NA,NA
43220,Franklin County,OH,NA,NA,48.64864864864865,NA
43224,Franklin County,OH,NA,5.509433962264151,NA,NA
43229,Franklin County,OH,NA,NA,NA,59.958071278826
43232,Franklin County,OH,NA,NA,13.886300093196645,NA
43235,Franklin County,OH,NA,45.43396226415094,NA,NA
43302,Marion County,OH,NA,2.1132075471698113,2.8890959925442683,NA
43311,Logan County,OH,NA,NA,36.067101584342964,NA
43315,Morrow County,OH,NA,NA,63.18732525629077,NA
43316,Wyandot County,OH,NA,77.58490566037736,NA,NA
43351,Wyandot County,OH,NA,NA,NA,52.620545073375254
43357,Logan County,OH,NA,NA,90.12115563839703,NA
43402,Wood County,OH,NA,21.50943396226415,NA,NA
43512,Defiance County,OH,NA,3.9245283018867925,NA,NA
43526,Defiance County,OH,NA,46.867924528301884,NA,NA
43537,Lucas County,OH,NA,NA,NA,31.446540880503143
43551,Wood County,OH,NA,NA,33.178005591798694,NA
43560,Lucas County,OH,NA,NA,47.06430568499534,NA
43567,Fulton County,OH,NA,50.03773584905661,NA,NA
43605,Lucas County,OH,NA,32.60377358490566,NA,NA
43608,Lucas County,OH,NA,NA,73.62534948741846,NA
43612,Lucas County,OH,NA,NA,NA,51.36268343815513
43614,Lucas County,OH,NA,9.358490566037736,NA,NA
43615,Lucas County,OH,NA,19.471698113207548,NA,NA
43623,Lucas County,OH,NA,NA,NA,72.32704402515722
43701,Muskingum County,OH,NA,0.6792452830188679,32.059645852749306,15.723270440251572
43725,Guernsey County,OH,NA,NA,53.215284249767,NA
43812,Coshocton County,OH,NA,5.283018867924529,NA,NA
43822,Muskingum County,OH,NA,85.13207547169812,NA,NA
43906,Belmont County,OH,NA,48.60377358490566,93.4762348555452,93.50104821802935
43943,Jefferson County,OH,NA,94.64150943396227,NA,NA
43950,Belmont County,OH,NA,NA,14.538676607642126,NA
43952,Jefferson County,OH,NA,6.867924528301887,NA,NA
43953,Jefferson County,OH,NA,NA,59.17986952469712,NA
43968,Columbiana County,OH,NA,NA,62.90773532152842,NA
44004,Ashtabula County,OH,NA,NA,NA,2.0964360587002098
44011,Lorain County,OH,NA,31.09433962264151,NA,NA
44022,Cuyahoga County,OH,NA,92.45283018867924,NA,NA
44023,Geauga County,OH,70.89201877934272,NA,NA,15.09433962264151
44028,Lorain County,OH,NA,82.49056603773585,NA,NA
44030,Ashtabula County,OH,NA,NA,14.07269338303821,NA
44035,Lorain County,OH,NA,2.6415094339622645,0.09319664492078285,NA
44039,Lorain County,OH,NA,NA,3.2618825722273996,NA
44052,Lorain County,OH,NA,48.15094339622642,2.423112767940354,8.385744234800839
44053,Lorain County,OH,NA,31.62264150943396,30.75489282385834,NA
44056,Summit County,OH,NA,84.67924528301887,NA,NA
44057,Lake County,OH,NA,NA,17.24137931034483,NA
44067,Summit County,OH,NA,NA,18.63932898415657,NA
44070,Cuyahoga County,OH,NA,23.39622641509434,NA,33.542976939203356
44077,Lake County,OH,NA,NA,3.1686859273066172,NA
44094,Lake County,OH,NA,NA,4.473438956197577,NA
44095,Lake County,OH,29.107981220657276,NA,NA,NA
44102,Cuyahoga County,OH,NA,NA,2.516309412861137,NA
44103,Cuyahoga County,OH,NA,7.9245283018867925,NA,NA
44104,Cuyahoga County,OH,NA,4,NA,NA
44105,Cuyahoga County,OH,NA,14.716981132075471,0.5591798695246971,4.40251572327044
44106,Cuyahoga County,OH,NA,9.056603773584905,NA,NA
44107,Cuyahoga County,OH,NA,NA,55.54520037278658,NA
44111,Cuyahoga County,OH,NA,NA,2.7958993476234855,NA
44113,Cuyahoga County,OH,NA,NA,71.38863000931967,NA
44114,Cuyahoga County,OH,NA,32.45283018867924,NA,NA
44120,Cuyahoga County,OH,NA,3.094339622641509,NA,NA
44121,Cuyahoga County,OH,NA,NA,11.649580615097857,NA
44122,Cuyahoga County,OH,NA,NA,NA,18.658280922431867
44123,Cuyahoga County,OH,NA,28.150943396226413,NA,NA
44128,Cuyahoga County,OH,NA,15.547169811320755,15.470643056849953,NA
44129,Cuyahoga County,OH,NA,NA,NA,22.851153039832283
44130,Cuyahoga County,OH,NA,NA,1.1183597390493942,NA
44131,Cuyahoga County,OH,50.70422535211267,NA,NA,NA
44133,Cuyahoga County,OH,NA,60.301886792452834,NA,NA
44134,Cuyahoga County,OH,NA,NA,18.54613233923579,NA
44135,Cuyahoga County,OH,NA,35.320754716981135,NA,NA
44136,Cuyahoga County,OH,NA,NA,8.667287977632805,NA
44138,Cuyahoga County,OH,NA,NA,NA,27.67295597484277
44140,Cuyahoga County,OH,NA,NA,NA,38.9937106918239
44142,Cuyahoga County,OH,NA,60.9811320754717,NA,NA
44145,Cuyahoga County,OH,NA,NA,5.032618825722274,5.031446540880504
44147,Cuyahoga County,OH,44.13145539906103,NA,NA,NA
44202,Portage County,OH,NA,NA,19.571295433364398,NA
44203,Summit County,OH,NA,NA,NA,7.756813417190776
44216,Summit County,OH,NA,61.35849056603774,NA,NA
44221,Summit County,OH,NA,NA,NA,15.932914046121594
44224,Summit County,OH,NA,NA,8.946877912395154,12.78825995807128
44236,Summit County,OH,NA,NA,NA,42.55765199161425
44240,Portage County,OH,NA,NA,NA,23.270440251572328
44241,Portage County,OH,NA,NA,55.452003727865794,NA
44255,Portage County,OH,NA,NA,75.5824790307549,NA
44256,Medina County,OH,NA,20.754716981132077,32.805219012115565,NA
44262,Summit County,OH,NA,92.37735849056604,NA,NA
44266,Portage County,OH,NA,8.150943396226415,NA,NA
44272,Portage County,OH,NA,NA,98.13606710158435,NA
44303,Summit County,OH,NA,NA,68.21994408201306,NA
44305,Summit County,OH,NA,NA,36.71947809878844,NA
44311,Summit County,OH,57.27699530516433,NA,NA,NA
44312,Summit County,OH,30.985915492957744,NA,NA,NA
44319,Summit County,OH,NA,90.9433962264151,NA,NA
44404,Trumbull County,OH,NA,94.49056603773585,NA,NA
44420,Trumbull County,OH,NA,37.58490566037736,NA,NA
44444,Trumbull County,OH,NA,NA,NA,77.9874213836478
44460,Columbiana County,OH,NA,20.60377358490566,NA,27.463312368972748
44481,Trumbull County,OH,NA,NA,67.9403541472507,NA
44483,Trumbull County,OH,9.389671361502346,14.943396226415096,NA,NA
44485,Trumbull County,OH,NA,16.452830188679247,32.898415657036345,NA
44502,Mahoning County,OH,NA,NA,68.68592730661696,NA
44514,Mahoning County,OH,NA,49.056603773584904,NA,NA
44515,Mahoning County,OH,NA,8.981132075471699,NA,NA
44614,Stark County,OH,NA,NA,NA,83.85744234800838
44615,Carroll County,OH,NA,NA,50.13979496738118,73.16561844863732
44644,Carroll County,OH,NA,NA,NA,98.11320754716981
44647,Stark County,OH,NA,76.30188679245283,NA,NA
44657,Stark County,OH,NA,NA,59.83224603914259,NA
44683,Tuscarawas County,OH,NA,59.47169811320755,NA,NA
44685,Summit County,OH,40.375586854460096,45.73584905660377,NA,NA
44691,Wayne County,OH,NA,NA,5.591798695246971,NA
44708,Stark County,OH,NA,27.92452830188679,NA,NA
44710,Stark County,OH,NA,62.264150943396224,NA,NA
44720,Stark County,OH,NA,NA,NA,16.561844863731658
44730,Stark County,OH,NA,NA,90.77353215284249,NA
44820,Crawford County,OH,NA,22.49056603773585,NA,NA
44833,Crawford County,OH,NA,NA,17.707362534948743,NA
44870,Erie County,OH,NA,12.603773584905662,2.982292637465051,NA
44875,Richland County,OH,NA,41.35849056603774,NA,NA
44882,Wyandot County,OH,NA,96.83018867924528,NA,NA
44883,Seneca County,OH,NA,NA,36.439888164026094,NA
45002,Hamilton County,OH,NA,NA,66.35601118359739,NA
45005,Warren County,OH,NA,NA,16.775396085740912,NA
45011,Butler County,OH,NA,2.188679245283019,NA,NA
45013,Butler County,OH,NA,3.2452830188679247,3.6346691519105314,NA
45042,Butler County,OH,NA,20.150943396226413,NA,NA
45067,Butler County,OH,NA,57.88679245283019,NA,NA
45102,Clermont County,OH,NA,36.60377358490566,NA,NA
45123,Highland County,OH,NA,NA,60.29822926374651,NA
45157,Clermont County,OH,NA,77.43396226415095,NA,NA
45177,Clinton County,OH,NA,24.452830188679243,NA,NA
45214,Hamilton County,OH,NA,49.43396226415094,NA,NA
45215,Hamilton County,OH,NA,58.79245283018868,NA,NA
45216,Hamilton County,OH,NA,NA,94.5945945945946,NA
45224,Hamilton County,OH,NA,NA,NA,48.84696016771489
45227,Hamilton County,OH,NA,49.660377358490564,NA,NA
45230,Hamilton County,OH,NA,NA,46.87791239515378,NA
45231,Hamilton County,OH,30.046948356807512,NA,NA,NA
45236,Hamilton County,OH,NA,NA,NA,31.865828092243188
45247,Hamilton County,OH,NA,59.84905660377359,NA,NA
45248,Hamilton County,OH,NA,55.16981132075471,NA,27.882599580712785
45305,Greene County,OH,NA,NA,NA,87.0020964360587
45322,Montgomery County,OH,NA,40.37735849056604,NA,NA
45324,Greene County,OH,NA,NA,NA,25.57651991614256
45327,Montgomery County,OH,NA,NA,75.86206896551724,NA
45371,Miami County,OH,NA,55.24528301886793,20.31686859273066,38.57442348008386
45373,Miami County,OH,NA,6.490566037735849,NA,NA
45385,Greene County,OH,NA,NA,56.943150046598326,NA
45402,Montgomery County,OH,NA,NA,78.56477166821995,NA
45403,Montgomery County,OH,NA,NA,NA,88.67924528301887
45405,Montgomery County,OH,NA,57.43396226415094,NA,NA
45417,Montgomery County,OH,NA,33.58490566037736,NA,NA
45429,Montgomery County,OH,NA,NA,90.68033550792171,NA
45431,Montgomery County,OH,NA,73.05660377358491,52.00372786579683,NA
45434,Greene County,OH,NA,90.64150943396227,NA,NA
45440,Montgomery County,OH,NA,NA,70.17707362534948,NA
45449,Montgomery County,OH,NA,36,NA,NA
45458,Montgomery County,OH,NA,38.716981132075475,NA,NA
45459,Montgomery County,OH,NA,90.49056603773586,NA,NA
45503,Clark County,OH,NA,NA,11.742777260018638,NA
45506,Clark County,OH,NA,NA,96.08574091332713,NA
45638,Lawrence County,OH,NA,NA,NA,29.559748427672954
45659,Lawrence County,OH,NA,80.98113207547169,NA,NA
45660,Adams County,OH,NA,NA,79.96272134203168,NA
45680,Lawrence County,OH,NA,11.69811320754717,NA,NA
45710,Athens County,OH,NA,99.47169811320755,NA,NA
45750,Washington County,OH,NA,65.9622641509434,NA,2.3060796645702304
45801,Allen County,OH,NA,10.264150943396226,23.019571295433362,NA
45805,Allen County,OH,NA,12.377358490566037,NA,NA
45806,Allen County,OH,NA,NA,61.97576887232059,NA
45813,Paulding County,OH,NA,NA,96.27213420316869,NA
45840,Hancock County,OH,NA,2.490566037735849,NA,NA
45891,Van Wert County,OH,NA,NA,NA,35.22012578616352
73008,Oklahoma County,OK,11.737089201877934,NA,NA,NA
73012,Oklahoma County,OK,NA,NA,46.50512581547064,NA
73020,Oklahoma County,OK,NA,69.81132075471697,NA,NA
73034,Oklahoma County,OK,NA,28.9811320754717,45.85274930102516,NA
73044,Logan County,OK,NA,NA,13.047530288909599,NA
73049,Oklahoma County,OK,NA,NA,80.61509785647716,NA
73055,Stephens County,OK,NA,70.79245283018868,NA,NA
73084,Oklahoma County,OK,NA,NA,81.26747437092264,NA
73099,Canadian County,OK,NA,12.754716981132075,NA,NA
73107,Oklahoma County,OK,NA,53.43396226415095,NA,NA
73110,Oklahoma County,OK,NA,18.641509433962263,NA,NA
73159,Oklahoma County,OK,NA,NA,25.908667287977632,NA
73160,Cleveland County,OK,NA,NA,5.21901211556384,13.417190775681343
73401,Carter County,OK,NA,NA,10.717614165890028,NA
73448,Love County,OK,86.85446009389672,NA,NA,NA
73460,Johnston County,OK,NA,82.94339622641509,NA,NA
73505,Comanche County,OK,NA,NA,15.936626281453867,NA
73533,Stephens County,OK,NA,NA,11.929170549860205,NA
73542,Tillman County,OK,NA,NA,88.35041938490214,NA
73701,Garfield County,OK,NA,NA,31.780055917986953,NA
74012,Tulsa County,OK,NA,NA,11.556383970177073,11.740041928721174
74036,Rogers County,OK,NA,NA,75.86206896551724,NA
74063,Tulsa County,OK,NA,58.339622641509436,NA,NA
74066,Creek County,OK,NA,31.924528301886788,NA,NA
74128,Tulsa County,OK,NA,74.56603773584905,NA,NA
74346,Delaware County,OK,NA,NA,74.37092264678472,NA
74354,Ottawa County,OK,NA,53.88679245283019,NA,NA
74365,Mayes County,OK,NA,NA,85.74091332712023,NA
74403,Muskogee County,OK,NA,65.43396226415095,NA,NA
74578,Latimer County,OK,NA,98.33962264150944,NA,NA
74601,Kay County,OK,NA,NA,54.79962721342032,NA
74701,Bryan County,OK,NA,61.50943396226415,NA,NA
74820,Pontotoc County,OK,NA,7.320754716981131,NA,NA
74834,Lincoln County,OK,NA,88.0754716981132,NA,NA
74851,Pottawatomie County,OK,NA,75.54716981132076,NA,NA
74953,Le Flore County,OK,NA,79.01886792452831,NA,NA
97006,Washington County,OR,NA,NA,30.288909599254428,NA
97024,Multnomah County,OR,NA,64.30188679245283,NA,NA
97030,Multnomah County,OR,NA,NA,17.98695246971109,NA
97060,Multnomah County,OR,NA,42.867924528301884,NA,NA
97071,Marion County,OR,NA,56.75471698113208,56.66356011183598,92.45283018867924
97080,Multnomah County,OR,NA,NA,NA,41.090146750524106
97103,Clatsop County,OR,NA,NA,44.920782851817336,NA
97124,Washington County,OR,NA,NA,22.646784715750233,NA
97140,Washington County,OR,NA,NA,58.90027958993477,NA
97202,Multnomah County,OR,NA,28.30188679245283,NA,NA
97206,Multnomah County,OR,NA,NA,23.76514445479963,NA
97210,Multnomah County,OR,NA,73.28301886792453,NA,NA
97212,Multnomah County,OR,NA,NA,71.48182665424045,NA
97213,Multnomah County,OR,NA,37.283018867924525,NA,NA
97214,Multnomah County,OR,NA,70.79245283018868,NA,NA
97219,Multnomah County,OR,45.07042253521127,NA,28.7977632805219,NA
97220,Multnomah County,OR,NA,NA,29.636533084808946,NA
97222,Clackamas County,OR,NA,NA,NA,45.911949685534594
97223,Washington County,OR,NA,29.056603773584904,NA,NA
97230,Multnomah County,OR,NA,23.471698113207548,NA,NA
97233,Multnomah County,OR,NA,15.169811320754716,NA,NA
97302,Marion County,OR,NA,NA,NA,89.51781970649894
97317,Marion County,OR,NA,NA,55.91798695246971,NA
97338,Polk County,OR,NA,73.9622641509434,NA,NA
97370,Benton County,OR,NA,91.09433962264151,NA,NA
97374,Linn County,OR,NA,97.13207547169812,NA,NA
97381,Marion County,OR,NA,NA,63.65330848089469,NA
97415,Curry County,OR,NA,47.77358490566038,NA,NA
97424,Lane County,OR,NA,NA,NA,92.0335429769392
97426,Lane County,OR,NA,NA,NA,64.98951781970649
97458,Coos County,OR,NA,NA,90.95992544268407,NA
97477,Lane County,OR,NA,NA,NA,44.23480083857442
97478,Lane County,OR,NA,NA,44.45479962721342,NA
97502,Jackson County,OR,27.699530516431924,NA,NA,NA
97503,Jackson County,OR,NA,NA,82.5722273998136,NA
97523,Josephine County,OR,NA,NA,NA,94.54926624737946
97526,Josephine County,OR,NA,NA,NA,51.15303983228512
97527,Josephine County,OR,NA,NA,NA,26.834381551362686
97756,Deschutes County,OR,NA,67.54716981132076,NA,NA
97818,Morrow County,OR,NA,85.50943396226415,NA,NA
97913,Malheur County,OR,NA,NA,98.97483690587138,NA
97914,Malheur County,OR,NA,79.69811320754717,NA,NA
15003,Beaver County,PA,NA,NA,83.41099720410065,NA
15010,Beaver County,PA,NA,NA,NA,17.81970649895178
15057,Washington County,PA,NA,NA,72.04100652376515,NA
15068,Westmoreland County,PA,NA,NA,10.251630941286113,NA
15074,Beaver County,PA,NA,NA,NA,83.64779874213836
15102,Allegheny County,PA,NA,NA,61.60298229263746,NA
15106,Allegheny County,PA,NA,NA,57.50232991612302,NA
15116,Allegheny County,PA,NA,NA,81.26747437092264,NA
15120,Allegheny County,PA,NA,NA,43.42963653308481,NA
15122,Allegheny County,PA,NA,NA,53.96085740913327,NA
15136,Allegheny County,PA,NA,30.49056603773585,NA,NA
15147,Allegheny County,PA,NA,66.11320754716982,NA,NA
15202,Allegheny County,PA,NA,NA,72.60018639328985,NA
15206,Allegheny County,PA,NA,NA,21.062441752096923,NA
15210,Allegheny County,PA,NA,13.962264150943396,NA,NA
15214,Allegheny County,PA,NA,78.0377358490566,NA,NA
15216,Allegheny County,PA,34.74178403755869,NA,NA,NA
15221,Allegheny County,PA,NA,NA,NA,19.28721174004193
15224,Allegheny County,PA,NA,NA,74.83690587138862,NA
15226,Allegheny County,PA,NA,NA,55.82479030754893,NA
15228,Allegheny County,PA,NA,95.39622641509435,NA,NA
15232,Allegheny County,PA,NA,NA,98.3224603914259,NA
15235,Allegheny County,PA,NA,NA,15.191053122087606,NA
15238,Allegheny County,PA,NA,NA,48.928238583411,NA
15241,Allegheny County,PA,NA,72.30188679245283,NA,NA
15317,Washington County,PA,NA,NA,NA,17.40041928721174
15320,Greene County,PA,NA,70.33962264150944,NA,NA
15401,Fayette County,PA,NA,7.169811320754717,NA,NA
15425,Fayette County,PA,NA,31.169811320754715,NA,NA
15522,Bedford County,PA,NA,63.471698113207545,NA,NA
15601,Westmoreland County,PA,NA,38.79245283018868,NA,NA
15683,Westmoreland County,PA,76.05633802816901,75.47169811320755,NA,NA
72405,NA,NA,NA,99.84905660377359,NA,NA
15714,Cambria County,PA,NA,77.28301886792453,NA,NA
15801,Clearfield County,PA,NA,NA,NA,4.1928721174004195
15834,Cameron County,PA,NA,85.05660377358491,NA,NA
15853,Elk County,PA,NA,NA,81.08108108108108,58.909853249475894
16001,Butler County,PA,NA,19.09433962264151,2.3299161230195713,NA
16066,Butler County,PA,NA,64.83018867924528,NA,NA
16101,Lawrence County,PA,NA,NA,7.548928238583411,NA
16125,Mercer County,PA,NA,NA,NA,12.997903563941298
16127,Mercer County,PA,NA,68.75471698113208,NA,NA
16301,Venango County,PA,NA,NA,NA,42.9769392033543
16365,Warren County,PA,NA,NA,29.54333643988816,NA
16412,Erie County,PA,NA,88.90566037735849,NA,NA
16415,Erie County,PA,NA,NA,89.84156570363467,NA
16442,Erie County,PA,NA,99.16981132075472,NA,NA
16502,Erie County,PA,NA,43.924528301886795,NA,NA
16509,Erie County,PA,NA,NA,32.152842497670086,29.559748427672954
16602,Blair County,PA,32.3943661971831,NA,NA,NA
16686,Blair County,PA,53.051643192488264,NA,NA,NA
16701,McKean County,PA,NA,17.056603773584904,NA,NA
16749,McKean County,PA,NA,NA,84.52935694315005,NA
16803,Centre County,PA,NA,NA,NA,78.40670859538784
16830,Clearfield County,PA,NA,29.20754716981132,NA,NA
16915,Potter County,PA,NA,80.60377358490565,NA,NA
16933,Tioga County,PA,NA,NA,90.58713886300093,NA
16947,Bradford County,PA,NA,NA,NA,89.937106918239
17003,Lebanon County,PA,NA,NA,46.97110904007455,NA
17013,Cumberland County,PA,NA,20.60377358490566,NA,NA
17020,Perry County,PA,NA,91.62264150943396,NA,NA
17033,Dauphin County,PA,NA,NA,55.35880708294501,NA
17042,Lebanon County,PA,NA,4.60377358490566,NA,NA
17050,Cumberland County,PA,NA,NA,NA,24.947589098532493
17055,Cumberland County,PA,NA,29.81132075471698,NA,NA
17059,Juniata County,PA,82.15962441314554,NA,NA,NA
17078,Lebanon County,PA,3.755868544600939,16.830188679245282,NA,NA
17103,Dauphin County,PA,NA,NA,67.47437092264678,NA
17111,Dauphin County,PA,NA,NA,6.710158434296365,NA
17112,Dauphin County,PA,12.676056338028168,NA,NA,14.675052410901468
17225,Franklin County,PA,NA,88.60377358490567,NA,NA
17241,Cumberland County,PA,NA,74.56603773584905,78.37837837837837,NA
17319,York County,PA,NA,66.33962264150944,NA,NA
17320,Adams County,PA,NA,NA,70.73625349487418,NA
17331,York County,PA,NA,NA,NA,1.8867924528301887
17350,Adams County,PA,55.39906103286385,NA,NA,NA
17364,York County,PA,NA,99.32075471698113,NA,NA
17401,York County,PA,NA,45.886792452830186,NA,NA
17402,York County,PA,NA,18.943396226415093,NA,NA
17403,York County,PA,NA,3.018867924528302,NA,20.964360587002094
17404,York County,PA,NA,10.339622641509434,NA,NA
17406,York County,PA,NA,67.01886792452831,NA,NA
17516,Lancaster County,PA,NA,NA,95.80615097856477,NA
17543,Lancaster County,PA,NA,24.07547169811321,NA,NA
17552,Lancaster County,PA,NA,NA,35.97390493942218,NA
17601,Lancaster County,PA,NA,66.49056603773586,NA,NA
17603,Lancaster County,PA,NA,8.226415094339623,NA,9.224318658280922
17745,Clinton County,PA,NA,NA,NA,48.0083857442348
17801,Northumberland County,PA,NA,NA,20.96924510717614,NA
17815,Columbia County,PA,NA,15.773584905660377,NA,NA
17820,Columbia County,PA,86.3849765258216,NA,NA,NA
17901,Schuylkill County,PA,NA,59.24528301886792,63.839701770736255,NA
17948,Schuylkill County,PA,NA,NA,94.68779123951538,NA
17972,Schuylkill County,PA,NA,62.79245283018868,NA,NA
18014,Northampton County,PA,NA,43.54716981132076,NA,NA
18015,Northampton County,PA,NA,7.622641509433962,NA,NA
18017,Northampton County,PA,NA,27.39622641509434,NA,NA
18020,Northampton County,PA,NA,NA,29.170549860205032,NA
18041,Montgomery County,PA,NA,94.18867924528301,NA,NA
18042,Northampton County,PA,NA,NA,5.125815470643056,NA
18045,Northampton County,PA,NA,NA,48.835041938490214,12.159329140461216
18052,Lehigh County,PA,NA,19.849056603773583,NA,NA
18058,Monroe County,PA,95.77464788732394,NA,NA,NA
18064,Northampton County,PA,NA,NA,23.85834109972041,NA
18102,Lehigh County,PA,NA,1.2830188679245282,NA,NA
18103,Lehigh County,PA,NA,5.2075471698113205,NA,NA
18104,Lehigh County,PA,NA,44.67924528301887,NA,NA
18201,Luzerne County,PA,NA,NA,24.044734389561974,NA
18252,Schuylkill County,PA,NA,NA,51.25815470643057,NA
18302,Monroe County,PA,NA,53.35849056603773,NA,NA
18360,Monroe County,PA,NA,96.52830188679246,NA,NA
18433,Lackawanna County,PA,NA,89.9622641509434,83.03821062441752,NA
18505,Lackawanna County,PA,NA,42.79245283018868,NA,NA
18612,Luzerne County,PA,NA,56.679245283018865,NA,NA
18634,Luzerne County,PA,79.34272300469483,NA,NA,NA
18702,Luzerne County,PA,NA,NA,4.846225535880708,NA
18704,Luzerne County,PA,NA,15.622641509433963,66.16961789375583,NA
18706,Luzerne County,PA,NA,39.54716981132076,NA,NA
18801,Susquehanna County,PA,NA,75.69811320754717,64.49207828518173,NA
18847,Susquehanna County,PA,NA,88.45283018867924,NA,NA
18853,Bradford County,PA,NA,96.37735849056604,NA,NA
18901,Bucks County,PA,NA,NA,57.968313140726934,NA
18940,Bucks County,PA,NA,62.18867924528302,NA,NA
18966,Bucks County,PA,28.638497652582164,NA,NA,NA
18974,Bucks County,PA,NA,55.39622641509434,NA,NA
18976,Bucks County,PA,NA,51.77358490566037,NA,NA
19001,Montgomery County,PA,54.460093896713616,NA,NA,NA
19004,Montgomery County,PA,NA,92.22641509433961,NA,NA
19006,Montgomery County,PA,74.64788732394366,NA,NA,NA
19008,Delaware County,PA,NA,52.226415094339615,NA,NA
19013,Delaware County,PA,NA,3.3962264150943398,NA,NA
19015,Delaware County,PA,NA,67.62264150943396,NA,NA
19020,Bucks County,PA,NA,32.9811320754717,9.692451071761417,NA
19027,Montgomery County,PA,NA,NA,34.66915191053122,NA
19041,Delaware County,PA,NA,97.28301886792453,NA,NA
19055,Bucks County,PA,NA,NA,89.93476234855545,NA
19056,Bucks County,PA,NA,49.735849056603776,NA,NA
19064,Delaware County,PA,NA,39.77358490566038,NA,NA
19067,Bucks County,PA,NA,18.566037735849054,NA,NA
19074,Delaware County,PA,NA,84.90566037735849,NA,NA
19082,Delaware County,PA,NA,58.490566037735846,59.55265610438024,NA
19085,Delaware County,PA,84.97652582159625,NA,NA,NA
19102,Philadelphia County,PA,NA,99.09433962264151,NA,NA
19103,Philadelphia County,PA,NA,NA,NA,28.930817610062892
19114,Philadelphia County,PA,NA,18.867924528301888,20.87604846225536,NA
19115,Philadelphia County,PA,NA,19.0188679245283,NA,NA
19116,Philadelphia County,PA,NA,NA,46.69151910531221,30.60796645702306
19119,Philadelphia County,PA,NA,71.77358490566039,NA,NA
19123,Philadelphia County,PA,NA,NA,NA,85.74423480083857
19124,Philadelphia County,PA,NA,7.773584905660377,10.43802423112768,NA
19125,Philadelphia County,PA,NA,NA,53.494874184529365,NA
19128,Philadelphia County,PA,NA,51.471698113207545,NA,NA
19131,Philadelphia County,PA,NA,NA,3.3550792171481825,NA
19133,Philadelphia County,PA,NA,NA,NA,91.61425576519916
19134,Philadelphia County,PA,NA,NA,46.41192917054986,NA
19140,Philadelphia County,PA,NA,14.264150943396226,NA,NA
19142,Philadelphia County,PA,NA,11.169811320754718,NA,NA
19143,Philadelphia County,PA,NA,1.1320754716981132,NA,NA
19144,Philadelphia County,PA,NA,23.547169811320753,NA,NA
19149,Philadelphia County,PA,NA,NA,28.704566635601118,NA
19151,Philadelphia County,PA,NA,NA,17.800559179869524,NA
19154,Philadelphia County,PA,NA,NA,17.98695246971109,NA
19335,Chester County,PA,NA,17.20754716981132,NA,NA
19342,Delaware County,PA,53.990610328638496,NA,NA,NA
19365,Chester County,PA,NA,NA,NA,96.43605870020964
19380,Chester County,PA,NA,NA,NA,5.2410901467505235
19382,Chester County,PA,2.8169014084507045,72.75471698113208,9.319664492078285,21.38364779874214
19390,Chester County,PA,NA,76.67924528301887,NA,NA
19403,Montgomery County,PA,NA,NA,NA,7.547169811320755
19406,Montgomery County,PA,NA,NA,37.09226467847158,NA
19422,Montgomery County,PA,NA,77.20754716981132,NA,NA
19440,Montgomery County,PA,NA,82.11320754716981,NA,NA
19446,Montgomery County,PA,NA,NA,47.53028890959926,NA
19454,Montgomery County,PA,65.25821596244131,NA,NA,NA
19460,Chester County,PA,NA,24.37735849056604,NA,NA
19464,Montgomery County,PA,NA,NA,7.1761416589002796,NA
19510,Berks County,PA,NA,NA,84.24976700838769,NA
19512,Berks County,PA,NA,NA,77.44641192917055,NA
19540,Berks County,PA,NA,NA,81.17427772600186,NA
19547,Berks County,PA,NA,91.39622641509433,NA,NA
19605,Berks County,PA,NA,NA,38.0242311276794,NA
19611,Berks County,PA,NA,90.18867924528303,NA,NA
02816,Kent County,RI,NA,27.849056603773587,NA,NA
02835,Newport County,RI,NA,NA,81.64026095060578,NA
02852,Washington County,RI,NA,NA,26.654240447343895,NA
02861,Providence County,RI,NA,64,NA,NA
02871,Newport County,RI,NA,NA,38.769804287045666,NA
02905,Providence County,RI,NA,NA,41.845293569431504,NA
29010,Lee County,SC,NA,NA,NA,58.280922431865825
29053,Lexington County,SC,NA,56.377358490566046,NA,NA
29059,Orangeburg County,SC,NA,NA,NA,95.80712788259959
29070,Lexington County,SC,NA,NA,NA,88.0503144654088
29072,Lexington County,SC,NA,NA,26.467847157502327,NA
29073,Lexington County,SC,38.967136150234744,NA,39.049394221808015,NA
29112,Orangeburg County,SC,NA,NA,90.86672879776329,NA
29154,Sumter County,SC,NA,52.301886792452834,NA,NA
29170,Lexington County,SC,NA,NA,74.74370922646784,NA
29205,Richland County,SC,NA,90.26415094339623,NA,NA
29307,Spartanburg County,SC,NA,61.886792452830186,NA,NA
29372,Spartanburg County,SC,NA,NA,89.56197576887233,NA
29388,Spartanburg County,SC,NA,82.56603773584905,NA,74.63312368972747
29401,Charleston County,SC,NA,NA,NA,75.05241090146751
29418,Charleston County,SC,NA,39.47169811320755,NA,NA
29445,Berkeley County,SC,NA,NA,25.256290773532154,NA
29449,Charleston County,SC,NA,NA,NA,91.19496855345912
29570,Marlboro County,SC,NA,97.43396226415094,NA,NA
29577,Horry County,SC,NA,62.943396226415096,NA,NA
29579,Horry County,SC,NA,NA,31.780055917986953,NA
29601,Greenville County,SC,NA,69.0566037735849,NA,NA
29605,Greenville County,SC,NA,25.056603773584907,NA,NA
29621,Anderson County,SC,NA,NA,19.0121155638397,16.352201257861633
29625,Anderson County,SC,NA,64.83018867924528,61.416589002795895,NA
29640,Pickens County,SC,17.370892018779344,NA,NA,NA
29642,Pickens County,SC,NA,NA,16.961789375582477,33.123689727463315
29645,Laurens County,SC,NA,66.8679245283019,NA,NA
29646,Greenwood County,SC,NA,44.45283018867924,NA,NA
29650,Greenville County,SC,NA,NA,42.590866728797764,NA
29661,Greenville County,SC,91.54929577464789,NA,NA,NA
29707,Lancaster County,SC,NA,75.16981132075472,NA,NA
29709,Chesterfield County,SC,NA,NA,93.10344827586206,NA
29715,York County,SC,NA,NA,71.01584342963653,NA
29730,York County,SC,NA,52.075471698113205,NA,NA
29732,York County,SC,NA,32.528301886792455,NA,NA
29842,Aiken County,SC,NA,NA,91.23951537744641,NA
29909,Beaufort County,SC,NA,NA,16.216216216216218,19.28721174004193
29920,Beaufort County,SC,NA,81.88679245283019,NA,NA
29936,Jasper County,SC,NA,78.8679245283019,80.24231127679403,NA
57078,Yankton County,SD,NA,NA,NA,70.85953878406708
57104,Minnehaha County,SD,NA,NA,6.803355079217148,17.61006289308176
57106,Minnehaha County,SD,NA,56.15094339622642,NA,32.914046121593294
57110,Minnehaha County,SD,NA,NA,26.281453867660765,NA
57301,Davison County,SD,NA,NA,67.00838769804287,29.350104821802937
57350,Beadle County,SD,NA,56.07547169811321,NA,NA
57501,Hughes County,SD,48.35680751173709,NA,NA,NA
57701,Pennington County,SD,NA,19.39622641509434,NA,NA
57702,Pennington County,SD,NA,NA,91.61230195712953,NA
57752,Shannon County,SD,NA,NA,99.34762348555452,NA
37013,Davidson County,TN,NA,57.056603773584904,NA,NA
37025,Hickman County,TN,85.91549295774648,NA,NA,NA
37030,Smith County,TN,90.14084507042254,NA,NA,NA
37066,Sumner County,TN,NA,NA,77.81919850885369,NA
37073,Robertson County,TN,NA,83.69811320754717,NA,NA
37075,Sumner County,TN,NA,NA,6.896551724137931,NA
37083,Macon County,TN,NA,51.84905660377358,NA,NA
37087,Wilson County,TN,16.901408450704224,NA,NA,NA
37091,Marshall County,TN,NA,40.30188679245283,NA,NA
37110,Warren County,TN,NA,15.396226415094338,NA,NA
37129,Rutherford County,TN,NA,16.07547169811321,NA,NA
37186,Sumner County,TN,NA,NA,76.32805219012116,NA
37205,Davidson County,TN,NA,92.67924528301886,NA,NA
37207,Davidson County,TN,NA,10.641509433962264,NA,NA
37209,Davidson County,TN,NA,NA,53.494874184529365,NA
37216,Davidson County,TN,NA,NA,84.80894687791239,NA
37312,Bradley County,TN,NA,NA,NA,38.9937106918239
37321,Rhea County,TN,NA,NA,37.55824790307549,NA
37323,Bradley County,TN,NA,42.113207547169814,NA,NA
37343,Hamilton County,TN,NA,NA,21.808014911463186,NA
37363,Hamilton County,TN,41.31455399061033,NA,NA,NA
37388,Coffee County,TN,NA,33.509433962264154,NA,NA
37615,Washington County,TN,76.52582159624414,NA,NA,NA
37620,Sullivan County,TN,NA,NA,16.309412861136998,NA
37641,Greene County,TN,NA,68.90566037735849,NA,NA
37643,Carter County,TN,NA,NA,NA,22.22222222222222
37659,Washington County,TN,NA,36.528301886792455,NA,30.398322851153043
37660,Sullivan County,TN,NA,NA,9.50605778191985,NA
37663,Sullivan County,TN,NA,NA,60.39142590866729,NA
37664,Sullivan County,TN,NA,21.132075471698116,NA,NA
37686,Sullivan County,TN,NA,NA,84.62255358807083,NA
37743,Greene County,TN,NA,10.867924528301886,NA,NA
37748,Roane County,TN,NA,34.943396226415096,NA,NA
37804,Blount County,TN,NA,NA,NA,35.63941299790356
37807,Union County,TN,NA,NA,78.65796831314073,NA
37813,Hamblen County,TN,NA,28.60377358490566,NA,NA
37814,Hamblen County,TN,NA,NA,60.205032618825726,NA
37820,Jefferson County,TN,NA,80.98113207547169,NA,NA
37862,Sevier County,TN,NA,37.735849056603776,NA,NA
37863,Sevier County,TN,NA,NA,84.15657036346693,NA
37912,Knox County,TN,NA,30.037735849056602,NA,NA
37920,Knox County,TN,NA,10.11320754716981,NA,NA
37922,Knox County,TN,NA,NA,77.91239515377445,NA
37931,Knox County,TN,24.413145539906104,NA,NA,NA
38002,Shelby County,TN,46.948356807511736,NA,NA,NA
38008,Hardeman County,TN,NA,71.47169811320755,NA,NA
38018,Shelby County,TN,NA,NA,NA,86.58280922431865
38053,Shelby County,TN,NA,NA,NA,36.268343815513624
38058,Tipton County,TN,NA,86.56603773584905,NA,NA
38108,Shelby County,TN,NA,NA,54.70643056849953,NA
38109,Shelby County,TN,NA,10.037735849056602,NA,NA
38111,Shelby County,TN,NA,22.18867924528302,NA,46.75052410901468
38112,Shelby County,TN,62.91079812206573,NA,NA,NA
38122,Shelby County,TN,NA,54.867924528301884,NA,NA
38261,Obion County,TN,NA,39.698113207547166,34.10997204100653,NA
38301,Madison County,TN,NA,NA,16.868592730661696,NA
38351,Henderson County,TN,NA,53.132075471698116,NA,NA
38463,Wayne County,TN,NA,98.64150943396226,NA,NA
38501,Putnam County,TN,NA,19.69811320754717,NA,NA
38506,Putnam County,TN,NA,NA,NA,38.78406708595388
38570,Overton County,TN,NA,NA,65.61043802423113,NA
38572,Cumberland County,TN,NA,NA,56.19757688723206,NA
38581,Warren County,TN,NA,83.9245283018868,NA,NA
38583,White County,TN,NA,NA,27.306616961789377,NA
75002,Collin County,TX,NA,NA,26.654240447343895,NA
75034,Denton County,TX,NA,NA,NA,43.39622641509434
75041,Dallas County,TX,NA,98.41509433962264,NA,60.58700209643606
75043,Dallas County,TX,NA,NA,17.893755824790308,NA
75044,Dallas County,TX,NA,95.32075471698114,NA,NA
75048,Dallas County,TX,37.08920187793427,NA,NA,NA
75051,Dallas County,TX,NA,71.09433962264151,NA,NA
75056,Denton County,TX,NA,63.924528301886795,NA,NA
75062,Dallas County,TX,26.76056338028169,NA,NA,NA
75082,Collin County,TX,NA,72.67924528301887,NA,NA
75087,Rockwall County,TX,NA,NA,NA,65.82809224318659
75092,Grayson County,TX,NA,NA,47.34389561975769,NA
75104,Dallas County,TX,NA,56.83018867924529,NA,NA
75115,Dallas County,TX,NA,22.943396226415093,NA,NA
75149,Dallas County,TX,NA,18.79245283018868,NA,NA
75154,Ellis County,TX,NA,44.45283018867924,NA,NA
75160,Kaufman County,TX,NA,NA,50.60577819198508,NA
75169,Van Zandt County,TX,NA,NA,66.54240447343895,NA
75211,Dallas County,TX,4.694835680751173,NA,NA,NA
75212,Dallas County,TX,NA,45.96226415094339,NA,NA
75216,Dallas County,TX,NA,NA,NA,10.062893081761008
75218,Dallas County,TX,NA,72.37735849056604,NA,NA
75219,Dallas County,TX,NA,77.35849056603774,NA,NA
75225,Dallas County,TX,72.30046948356808,NA,NA,NA
75232,Dallas County,TX,NA,NA,NA,60.58700209643606
75235,Dallas County,TX,54.929577464788736,NA,NA,NA
75236,Dallas County,TX,NA,63.0188679245283,NA,NA
75237,Dallas County,TX,NA,NA,NA,99.58071278825996
75402,Hunt County,TX,NA,89.73584905660378,NA,NA
75409,Collin County,TX,NA,74.49056603773585,NA,NA
75460,Lamar County,TX,NA,58.41509433962264,NA,NA
75462,Lamar County,TX,NA,85.73584905660377,NA,NA
75482,Hopkins County,TX,NA,NA,52.7493010251631,NA
75604,Gregg County,TX,NA,NA,NA,77.35849056603774
75656,Cass County,TX,NA,98.26415094339622,NA,NA
75707,Smith County,TX,29.577464788732392,NA,NA,NA
75751,Henderson County,TX,NA,NA,NA,77.56813417190776
75754,Van Zandt County,TX,98.12206572769952,NA,NA,NA
75762,Smith County,TX,NA,73.58490566037736,NA,NA
75789,Smith County,TX,NA,83.24528301886792,NA,NA
75835,Houston County,TX,NA,66.11320754716982,NA,NA
75901,Angelina County,TX,NA,NA,NA,41.92872117400419
75965,Nacogdoches County,TX,NA,67.32075471698113,NA,NA
76002,Tarrant County,TX,NA,NA,NA,96.85534591194968
76011,Tarrant County,TX,NA,55.320754716981135,NA,NA
76013,Tarrant County,TX,NA,83.32075471698113,NA,NA
76014,Tarrant County,TX,NA,NA,NA,76.31027253668763
76022,Tarrant County,TX,NA,NA,78.75116495806151,NA
76033,Johnson County,TX,NA,37.13207547169811,NA,NA
76052,Tarrant County,TX,NA,NA,80.9878844361603,NA
76063,Tarrant County,TX,NA,13.433962264150942,NA,NA
76065,Ellis County,TX,39.906103286384976,NA,NA,NA
76092,Tarrant County,TX,NA,NA,83.97017707362535,NA
76104,Tarrant County,TX,NA,22.037735849056602,NA,NA
76106,Tarrant County,TX,NA,NA,20.782851817334578,NA
76108,Tarrant County,TX,NA,39.09433962264151,NA,NA
76114,Tarrant County,TX,NA,43.698113207547166,NA,NA
76115,Tarrant County,TX,NA,51.094339622641506,NA,NA
76119,Tarrant County,TX,NA,NA,36.905871388630004,NA
76123,Tarrant County,TX,NA,48.07547169811321,NA,NA
76133,Tarrant County,TX,NA,NA,21.435228331780056,NA
76137,Tarrant County,TX,NA,NA,20.503261882572225,NA
76140,Tarrant County,TX,NA,NA,42.87045666356011,NA
76179,Tarrant County,TX,NA,NA,92.82385834109972,NA
76227,Denton County,TX,NA,65.20754716981132,NA,NA
76240,Cooke County,TX,NA,NA,34.85554520037278,NA
76255,Montague County,TX,NA,93.43396226415094,NA,NA
76306,Wichita County,TX,NA,NA,NA,84.0670859538784
76426,Wise County,TX,NA,NA,68.03355079217148,NA
76502,Bell County,TX,NA,NA,28.611369990680334,NA
76522,Coryell County,TX,NA,NA,11.369990680335508,NA
76541,Bell County,TX,NA,NA,NA,20.545073375262053
76542,Bell County,TX,NA,13.358490566037737,82.94501397949674,NA
76550,Lampasas County,TX,NA,NA,54.054054054054056,NA
76705,McLennan County,TX,NA,16.90566037735849,NA,NA
76708,McLennan County,TX,NA,NA,79.03075489282386,NA
76712,McLennan County,TX,71.36150234741784,NA,NA,NA
76825,McCulloch County,TX,60.093896713615024,NA,NA,NA
77004,Harris County,TX,NA,NA,43.33643988816402,NA
77016,Harris County,TX,NA,NA,94.0354147250699,NA
77018,Harris County,TX,NA,NA,NA,70.44025157232704
77036,Harris County,TX,NA,NA,23.112767940354146,NA
77048,Harris County,TX,NA,87.47169811320755,NA,NA
77073,Harris County,TX,NA,NA,82.0130475302889,NA
77087,Harris County,TX,NA,NA,80.14911463187325,NA
77088,Harris County,TX,NA,NA,32.618825722273996,NA
77090,Harris County,TX,NA,29.886792452830193,NA,NA
77095,Harris County,TX,NA,17.132075471698112,NA,NA
77099,Harris County,TX,NA,54.79245283018868,NA,NA
77301,Montgomery County,TX,82.62910798122066,NA,NA,NA
77331,San Jacinto County,TX,87.79342723004694,NA,NA,NA
77356,Montgomery County,TX,NA,NA,37.83783783783784,NA
77382,Montgomery County,TX,NA,NA,59.92544268406338,NA
77388,Harris County,TX,NA,NA,34.38956197576887,NA
77429,Harris County,TX,NA,69.50943396226415,NA,NA
77449,Harris County,TX,NA,NA,25.06989748369059,NA
77479,Fort Bend County,TX,NA,NA,19.384902143522833,NA
77503,Harris County,TX,NA,75.32075471698113,NA,NA
77506,Harris County,TX,42.25352112676056,NA,NA,NA
77520,Harris County,TX,NA,NA,NA,57.44234800838575
77541,Brazoria County,TX,NA,NA,52.84249767008388,NA
77550,Galveston County,TX,NA,52.67924528301887,NA,NA
77551,Galveston County,TX,NA,NA,60.67101584342963,NA
77554,Galveston County,TX,NA,NA,NA,66.45702306079664
77566,Brazoria County,TX,NA,52.83018867924528,NA,NA
77571,Harris County,TX,NA,62.03773584905661,NA,NA
77573,Galveston County,TX,NA,8.60377358490566,NA,NA
77581,Brazoria County,TX,NA,30.264150943396228,NA,NA
77591,Galveston County,TX,NA,NA,43.70922646784716,NA
77640,Jefferson County,TX,NA,NA,61.97576887232059,NA
77657,Hardin County,TX,NA,58.11320754716981,NA,NA
77662,Orange County,TX,NA,72.60377358490567,NA,NA
77705,Jefferson County,TX,NA,43.471698113207545,NA,NA
77707,Jefferson County,TX,NA,96.15094339622642,NA,NA
77802,Brazos County,TX,47.417840375586856,NA,NA,NA
77833,Washington County,TX,NA,NA,NA,53.459119496855344
77845,Brazos County,TX,NA,NA,4.566635601118359,NA
77904,Victoria County,TX,NA,40.9811320754717,NA,NA
77905,Victoria County,TX,NA,NA,58.1547064305685,NA
78043,Webb County,TX,3.286384976525822,NA,NA,NA
78045,Webb County,TX,NA,NA,31.220876048462255,NA
78064,Atascosa County,TX,NA,75.0188679245283,NA,NA
78102,Bee County,TX,NA,NA,93.75582479030756,NA
78114,Wilson County,TX,NA,NA,47.809878844361606,96.64570230607966
78118,Karnes County,TX,NA,98.11320754716981,NA,NA
78130,Comal County,TX,NA,23.245283018867923,NA,NA
78154,Guadalupe County,TX,NA,71.54716981132076,NA,NA
78163,Comal County,TX,NA,NA,NA,94.12997903563941
78207,Bexar County,TX,NA,NA,13.979496738117428,NA
78223,Bexar County,TX,NA,19.622641509433965,29.07735321528425,NA
78237,Bexar County,TX,13.145539906103288,NA,NA,NA
78253,Bexar County,TX,NA,NA,68.31314072693382,NA
78521,Cameron County,TX,NA,NA,18.173345759552657,NA
78537,Hidalgo County,TX,NA,64.30188679245283,NA,NA
78541,Hidalgo County,TX,NA,50.86792452830189,NA,NA
78550,Cameron County,TX,NA,NA,37.83783783783784,NA
78557,Hidalgo County,TX,NA,99.24528301886792,NA,NA
78570,Hidalgo County,TX,NA,NA,NA,59.958071278826
78617,Travis County,TX,NA,71.84905660377359,NA,NA
78624,Gillespie County,TX,NA,74.18867924528301,NA,NA
78628,Williamson County,TX,NA,71.01886792452831,NA,NA
78634,Williamson County,TX,NA,89.58490566037736,NA,NA
78660,Travis County,TX,NA,60.528301886792455,NA,NA
78701,Travis County,TX,80.75117370892019,NA,NA,NA
78735,Travis County,TX,NA,NA,NA,79.66457023060796
78737,Hays County,TX,79.34272300469483,NA,NA,NA
78749,Travis County,TX,NA,86.33962264150944,NA,NA
78758,Travis County,TX,45.539906103286384,NA,NA,NA
79336,Hockley County,TX,NA,87.32075471698113,NA,NA
79411,Lubbock County,TX,NA,NA,99.72041006523766,NA
79412,Lubbock County,TX,NA,89.35849056603774,NA,NA
79424,Lubbock County,TX,NA,26.641509433962263,NA,NA
79606,Taylor County,TX,NA,82.33962264150944,NA,NA
79703,Midland County,TX,NA,59.698113207547166,NA,NA
79705,Midland County,TX,NA,NA,32.99161230195713,NA
79714,Andrews County,TX,NA,56.528301886792455,NA,NA
79756,Ward County,TX,NA,70.79245283018868,NA,NA
79766,Ector County,TX,NA,NA,98.13606710158435,NA
79907,El Paso County,TX,NA,NA,54.24044734389562,NA
79915,El Paso County,TX,NA,NA,NA,18.238993710691823
79930,El Paso County,TX,NA,74.94339622641509,NA,NA
79936,El Paso County,TX,NA,11.320754716981133,NA,NA
84009,Salt Lake County,UT,47.417840375586856,54.26415094339623,NA,NA
84015,Davis County,UT,NA,NA,45.94594594594595,NA
84029,Tooele County,UT,97.65258215962442,NA,NA,NA
84037,Davis County,UT,NA,NA,NA,80.92243186582809
84040,Davis County,UT,NA,NA,93.66262814538676,NA
84041,Davis County,UT,NA,37.20754716981132,58.43429636533085,NA
84057,Utah County,UT,55.39906103286385,NA,NA,NA
84060,Summit County,UT,92.01877934272301,NA,NA,88.88888888888889
84070,Salt Lake County,UT,NA,50.64150943396226,NA,NA
84074,Tooele County,UT,NA,NA,20.22367194780988,NA
84084,Salt Lake County,UT,NA,46.490566037735846,NA,NA
84088,Salt Lake County,UT,NA,NA,50.41938490214353,NA
84096,Salt Lake County,UT,NA,27.622641509433965,NA,NA
84097,Utah County,UT,NA,93.0566037735849,NA,NA
84105,Salt Lake County,UT,NA,NA,NA,93.29140461215934
84108,Salt Lake County,UT,NA,NA,NA,40.88050314465409
84109,Salt Lake County,UT,NA,NA,78.47157502329915,NA
84115,Salt Lake County,UT,NA,38.41509433962264,NA,NA
84117,Salt Lake County,UT,NA,NA,NA,37.735849056603776
84123,Salt Lake County,UT,NA,NA,71.10904007455731,NA
84321,Cache County,UT,NA,NA,68.03355079217148,NA
84501,Carbon County,UT,49.29577464788733,NA,NA,NA
84647,Sanpete County,UT,89.2018779342723,NA,NA,NA
84770,Washington County,UT,NA,38.943396226415096,NA,NA
05143,Windsor County,VT,NA,NA,95.52656104380243,NA
05156,Windsor County,VT,NA,NA,62.62814538676608,NA
05301,Windham County,VT,NA,NA,27.958993476234856,NA
05452,Chittenden County,VT,NA,59.09433962264151,NA,NA
05468,Chittenden County,VT,NA,NA,NA,64.15094339622641
05482,Chittenden County,VT,NA,NA,80.80149114631874,NA
05488,Franklin County,VT,NA,NA,56.29077353215284,NA
05602,Washington County,VT,58.21596244131455,NA,35.60111835973905,NA
05641,Washington County,VT,NA,NA,NA,18.029350104821802
05673,Washington County,VT,NA,NA,99.53401677539608,NA
05701,Rutland County,VT,NA,NA,59.27306616961789,NA
20105,Loudoun County,VA,NA,NA,95.89934762348555,NA
20109,Prince William County,VA,NA,NA,83.87698042870456,NA
20136,Prince William County,VA,NA,86.11320754716981,NA,NA
20155,Prince William County,VA,NA,NA,43.52283317800559,NA
20194,Fairfax County,VA,NA,NA,99.25442684063374,NA
22003,Fairfax County,VA,NA,93.81132075471697,NA,NA
22030,Fairfax County,VA,NA,NA,28.424976700838773,NA
22032,Fairfax County,VA,NA,NA,NA,74.84276729559748
22044,Fairfax County,VA,NA,NA,87.69804287045666,NA
22101,Fairfax County,VA,NA,77.50943396226415,NA,NA
22152,Fairfax County,VA,NA,NA,66.72879776328053,NA
22202,Arlington County,VA,NA,74.0377358490566,NA,NA
22207,Arlington County,VA,43.1924882629108,NA,NA,NA
22302,Alexandria city,VA,NA,65.66037735849056,NA,NA
22303,Fairfax County,VA,NA,NA,87.5116495806151,NA
22306,Fairfax County,VA,NA,NA,44.64119291705499,NA
22309,Fairfax County,VA,NA,NA,49.86020503261883,64.36058700209644
22844,Shenandoah County,VA,NA,NA,82.85181733457595,NA
22923,Greene County,VA,NA,99.39622641509433,NA,NA
22932,Albemarle County,VA,NA,93.28301886792453,NA,NA
22980,Waynesboro city,VA,NA,NA,69.71109040074556,48.63731656184486
23060,Henrico County,VA,NA,90.56603773584906,NA,NA
23072,Gloucester County,VA,NA,NA,70.54986020503262,NA
23112,Chesterfield County,VA,NA,NA,26.095060577819197,NA
23185,James City County,VA,NA,NA,4.100652376514446,NA
23233,Henrico County,VA,NA,NA,70.82945013979497,NA
23235,Chesterfield County,VA,NA,NA,NA,26.41509433962264
23237,Chesterfield County,VA,NA,NA,57.22273998136067,NA
23462,Virginia Beach city,VA,NA,NA,NA,6.498951781970649
23505,Norfolk city,VA,NA,39.39622641509434,NA,NA
23605,Newport News city,VA,NA,NA,NA,81.9706498951782
23607,Newport News city,VA,66.66666666666666,NA,NA,NA
23666,Hampton city,VA,NA,NA,NA,9.643605870020965
23701,Portsmouth city,VA,NA,49.283018867924525,NA,NA
23707,Portsmouth city,VA,NA,NA,NA,78.82599580712788
23860,Hopewell city,VA,NA,31.77358490566038,NA,NA
23944,Lunenburg County,VA,87.79342723004694,NA,NA,NA
24060,Montgomery County,VA,NA,NA,74.55731593662628,NA
24084,Pulaski County,VA,NA,NA,73.53215284249767,NA
24091,Floyd County,VA,NA,NA,89.00279589934762,NA
24112,Henry County,VA,NA,NA,NA,34.17190775681342
24151,Franklin County,VA,NA,45.96226415094339,NA,NA
24153,Salem city,VA,NA,34.943396226415096,NA,NA
24201,Bristol city,VA,NA,NA,NA,49.266247379454924
24230,Wise County,VA,NA,46.71698113207547,NA,NA
24317,Carroll County,VA,NA,NA,89.00279589934762,NA
24343,Carroll County,VA,84.03755868544602,NA,NA,NA
24354,Smyth County,VA,NA,NA,83.69058713886301,NA
24382,Wythe County,VA,NA,NA,47.99627213420317,NA
24426,Alleghany County,VA,NA,47.62264150943396,NA,NA
24501,Lynchburg city,VA,NA,29.358490566037737,NA,NA
24503,Lynchburg city,VA,NA,84.83018867924528,NA,NA
24541,Danville city,VA,NA,NA,NA,42.34800838574424
24574,Amherst County,VA,NA,98.94339622641509,NA,NA
24592,Halifax County,VA,NA,29.962264150943398,NA,NA
98002,King County,WA,NA,35.69811320754717,35.60111835973905,NA
98003,King County,WA,NA,29.20754716981132,NA,NA
98008,King County,WA,NA,NA,NA,37.10691823899371
98011,King County,WA,NA,NA,NA,53.03983228511531
98012,Snohomish County,WA,NA,NA,60.857409133271204,NA
98020,Snohomish County,WA,NA,NA,54.98602050326188,NA
98022,King County,WA,NA,60.45283018867924,NA,NA
98023,King County,WA,NA,NA,13.513513513513514,NA
98027,King County,WA,NA,NA,NA,57.861635220125784
98028,King County,WA,NA,NA,NA,67.71488469601678
98030,King County,WA,NA,NA,39.88816402609506,NA
98031,King County,WA,NA,NA,48.74184529356943,NA
98032,King County,WA,NA,43.62264150943396,NA,NA
98033,King County,WA,NA,NA,29.72972972972973,NA
98037,Snohomish County,WA,NA,62.41509433962265,NA,NA
98038,King County,WA,NA,NA,36.533084808946874,NA
98040,King County,WA,NA,NA,54.054054054054056,NA
98042,King County,WA,NA,16.528301886792455,NA,NA
98053,King County,WA,NA,73.81132075471697,NA,NA
98087,Snohomish County,WA,NA,47.471698113207545,48.08946877912395,NA
98104,King County,WA,NA,NA,38.30382106244175,NA
98110,Kitsap County,WA,NA,NA,81.26747437092264,NA
98116,King County,WA,NA,67.9245283018868,NA,NA
98118,King County,WA,NA,NA,34.2031686859273,NA
98133,King County,WA,NA,29.433962264150942,NA,NA
98144,King County,WA,NA,97.81132075471697,NA,NA
98155,King County,WA,NA,NA,40.54054054054054,NA
98199,King County,WA,NA,NA,70.92264678471575,NA
98208,Snohomish County,WA,NA,NA,26.001863932898416,NA
98249,Island County,WA,NA,97.9622641509434,NA,NA
98258,Snohomish County,WA,NA,23.849056603773587,NA,NA
98271,Snohomish County,WA,NA,44.905660377358494,NA,NA
98273,Skagit County,WA,15.96244131455399,NA,NA,NA
98274,Skagit County,WA,NA,NA,72.97297297297297,NA
98290,Snohomish County,WA,NA,NA,46.13233923578751,NA
98310,Kitsap County,WA,NA,NA,64.58527493010251,NA
98331,Clallam County,WA,NA,NA,91.7986952469711,NA
98354,Pierce County,WA,NA,NA,70.36346691519105,NA
98362,Clallam County,WA,NA,35.39622641509434,NA,NA
98387,Pierce County,WA,14.553990610328638,NA,23.20596458527493,NA
98409,Pierce County,WA,31.455399061032864,NA,NA,NA
98422,Pierce County,WA,NA,NA,63.0009319664492,NA
98445,Pierce County,WA,NA,49.81132075471698,NA,NA
98498,Pierce County,WA,NA,NA,51.444547996272135,NA
98501,Thurston County,WA,NA,NA,82.19944082013048,NA
98532,Lewis County,WA,NA,67.24528301886792,NA,NA
98611,Cowlitz County,WA,NA,79.47169811320755,NA,NA
98626,Cowlitz County,WA,NA,44.22641509433962,NA,NA
98660,Clark County,WA,NA,NA,NA,80.71278825995807
98674,Cowlitz County,WA,NA,NA,93.84902143522834,NA
98901,Yakima County,WA,NA,55.69811320754717,NA,NA
98922,Kittitas County,WA,97.1830985915493,NA,NA,NA
99141,Stevens County,WA,NA,NA,89.00279589934762,NA
99206,Spokane County,WA,NA,46.490566037735846,NA,NA
99207,Spokane County,WA,NA,76.60377358490567,NA,NA
99208,Spokane County,WA,NA,40.075471698113205,NA,NA
99301,Franklin County,WA,NA,NA,NA,66.87631027253668
99336,Benton County,WA,NA,NA,NA,6.289308176100629
99344,Adams County,WA,NA,NA,87.69804287045666,NA
99350,Benton County,WA,NA,NA,NA,63.731656184486376
20001,District of Columbia,DC,NA,20.9811320754717,NA,NA
20005,District of Columbia,DC,NA,83.77358490566039,NA,NA
20009,District of Columbia,DC,NA,63.77358490566037,NA,NA
20010,District of Columbia,DC,NA,NA,NA,61.0062893081761
20018,District of Columbia,DC,NA,NA,91.70549860205033,NA
20032,District of Columbia,DC,NA,5.056603773584905,NA,NA
24701,Mercer County,WV,NA,NA,NA,35.0104821802935
24801,McDowell County,WV,NA,95.77358490566039,NA,NA
25177,Kanawha County,WV,NA,NA,32.712022367194784,NA
25276,Roane County,WV,NA,NA,NA,75.26205450733752
25304,Kanawha County,WV,NA,85.9622641509434,NA,NA
25311,Kanawha County,WV,NA,NA,57.5955265610438,NA
25443,Jefferson County,WV,NA,NA,NA,79.45492662473794
25504,Cabell County,WV,NA,57.20754716981132,NA,NA
25508,Logan County,WV,NA,71.32075471698113,NA,NA
25530,Wayne County,WV,NA,NA,77.1668219944082,NA
25550,Mason County,WV,NA,51.24528301886792,NA,NA
25705,Cabell County,WV,NA,17.50943396226415,NA,NA
25901,Fayette County,WV,NA,47.39622641509434,NA,NA
26003,Ohio County,WV,NA,NA,NA,3.3542976939203357
26062,Hancock County,WV,NA,NA,NA,67.29559748427673
26101,Wood County,WV,NA,NA,6.0577819198508855,NA
26104,Wood County,WV,NA,36.301886792452834,NA,NA
26105,Wood County,WV,NA,NA,41.75209692451072,NA
26155,Wetzel County,WV,NA,NA,58.7138863000932,NA
26170,Pleasants County,WV,NA,NA,NA,78.61635220125787
26187,Wood County,WV,NA,NA,92.3578751164958,NA
26201,Upshur County,WV,NA,NA,16.68219944082013,NA
26452,Lewis County,WV,NA,81.20754716981132,NA,NA
26501,Monongalia County,WV,NA,NA,64.02609506057782,NA
26508,Monongalia County,WV,NA,4.754716981132075,NA,NA
26537,Preston County,WV,NA,56.83018867924529,NA,NA
26554,Marion County,WV,NA,4.226415094339623,1.5843429636533086,NA
26582,Marion County,WV,NA,NA,73.25256290773532,NA
53012,Ozaukee County,WI,NA,91.69811320754717,NA,NA
53014,Calumet County,WI,NA,NA,85.55452003727866,NA
53072,Waukesha County,WI,NA,58.56603773584905,NA,NA
53098,Dodge County,WI,83.56807511737088,NA,52.190121155638394,NA
53105,Racine County,WI,NA,NA,NA,36.477987421383645
53110,Milwaukee County,WI,NA,32.075471698113205,NA,NA
53115,Walworth County,WI,NA,NA,39.328984156570364,NA
53140,Kenosha County,WI,NA,39.16981132075472,23.671947809878844,NA
53144,Kenosha County,WI,NA,15.773584905660377,NA,NA
53147,Walworth County,WI,NA,44.75471698113208,NA,NA
53151,Waukesha County,WI,NA,NA,71.94780987884435,NA
53154,Milwaukee County,WI,NA,NA,NA,86.16352201257862
53177,Racine County,WI,NA,NA,69.15191053122088,NA
53181,Kenosha County,WI,NA,60,NA,NA
53202,Milwaukee County,WI,NA,NA,NA,41.090146750524106
53204,Milwaukee County,WI,36.61971830985916,NA,NA,NA
53206,Milwaukee County,WI,57.74647887323944,NA,NA,NA
53207,Milwaukee County,WI,NA,26.716981132075475,NA,NA
53214,Milwaukee County,WI,NA,NA,NA,29.140461215932913
53217,Milwaukee County,WI,19.248826291079812,NA,NA,16.771488469601678
53223,Milwaukee County,WI,NA,15.245283018867925,NA,NA
53224,Milwaukee County,WI,NA,NA,77.63280521901211,NA
53227,Milwaukee County,WI,NA,NA,53.77446411929171,NA
53405,Racine County,WI,8.92018779342723,NA,NA,NA
53406,Racine County,WI,NA,NA,36.81267474370923,NA
53511,Rock County,WI,NA,18.037735849056606,NA,NA
53520,Green County,WI,NA,90.71698113207547,NA,NA
53527,Dane County,WI,NA,NA,97.20410065237651,NA
53528,Dane County,WI,NA,NA,84.43616029822927,NA
53538,Jefferson County,WI,NA,NA,69.24510717614166,NA
53546,Rock County,WI,NA,NA,4.287045666356011,NA
53548,Rock County,WI,NA,26.037735849056602,NA,NA
53559,Dane County,WI,NA,NA,NA,99.37106918238993
53566,Green County,WI,NA,NA,NA,13.836477987421384
53590,Dane County,WI,NA,NA,72.60018639328985,NA
53719,Dane County,WI,NA,79.24528301886792,NA,NA
53805,Grant County,WI,NA,95.16981132075472,NA,NA
53901,Columbia County,WI,NA,NA,NA,50.943396226415096
53963,Dodge County,WI,72.76995305164318,NA,NA,NA
54016,St. Croix County,WI,NA,46.71698113207547,NA,NA
54017,St. Croix County,WI,NA,52.301886792452834,NA,NA
54136,Outagamie County,WI,NA,88.67924528301887,NA,NA
54143,Marinette County,WI,43.66197183098591,NA,NA,NA
54220,Manitowoc County,WI,NA,5.962264150943397,2.1435228331780056,NA
54304,Brown County,WI,NA,NA,44.64119291705499,NA
54313,Brown County,WI,NA,60.905660377358494,NA,NA
54455,Marathon County,WI,NA,68.90566037735849,NA,NA
54629,Buffalo County,WI,NA,NA,97.2972972972973,NA
54636,La Crosse County,WI,NA,NA,47.53028890959926,NA
54650,La Crosse County,WI,NA,NA,NA,4.821802935010482
54701,Eau Claire County,WI,NA,43.0188679245283,NA,NA
54751,Dunn County,WI,NA,66.41509433962264,NA,NA
54801,Washburn County,WI,NA,NA,NA,77.77777777777779
54806,Ashland County,WI,NA,89.43396226415095,NA,NA
54812,Barron County,WI,NA,NA,NA,82.80922431865828
54853,Polk County,WI,NA,93.58490566037736,NA,NA
54902,Winnebago County,WI,NA,77.88679245283019,NA,NA
54914,Outagamie County,WI,NA,NA,NA,73.37526205450735
54935,Fond du Lac County,WI,18.779342723004692,NA,NA,NA
54961,Waupaca County,WI,NA,NA,44.36160298229264,NA
82201,Platte County,WY,NA,NA,NA,81.13207547169812
82240,Goshen County,WY,NA,NA,76.88723205964585,NA
82718,Campbell County,WY,NA,NA,68.59273066169618,NA
82801,Sheridan County,WY,NA,87.16981132075472,NA,NA
82901,Sweetwater County,WY,NA,NA,64.86486486486487,NA
