ZipCode,county,state,Youth,Adult,Retirement,Geriatric
35004,St. Clair County,AL,NA,83.27586206896552,NA,NA
35124,Shelby County,AL,NA,66.63793103448276,NA,NA
35125,St. Clair County,AL,NA,82.84482758620689,NA,65.57377049180327
35131,St. Clair County,AL,NA,96.63793103448276,NA,NA
35147,Shelby County,AL,NA,98.87931034482759,NA,NA
35150,Talladega County,AL,NA,NA,60.76158940397352,NA
35216,Jefferson County,AL,NA,NA,53.973509933774835,49.72677595628415
35217,Jefferson County,AL,NA,52.758620689655174,NA,NA
35228,Jefferson County,AL,NA,63.44827586206897,NA,NA
35234,Jefferson County,AL,NA,NA,NA,87.43169398907104
35401,Tuscaloosa County,AL,NA,28.534482758620687,NA,NA
35405,Tuscaloosa County,AL,NA,10.431034482758621,NA,NA
35475,Tuscaloosa County,AL,NA,54.137931034482754,NA,NA
35570,Marion County,AL,NA,68.70689655172414,NA,NA
35586,Lamar County,AL,NA,NA,NA,97.54098360655738
35601,Morgan County,AL,NA,17.413793103448274,NA,NA
35611,Limestone County,AL,NA,NA,NA,57.92349726775956
35613,Limestone County,AL,38.13559322033898,NA,NA,NA
35630,Lauderdale County,AL,NA,34.13793103448276,NA,NA
35640,Morgan County,AL,NA,NA,NA,53.825136612021865
35654,Franklin County,AL,NA,86.37931034482759,NA,NA
35761,Madison County,AL,NA,76.0344827586207,NA,NA
35803,Madison County,AL,NA,67.15517241379311,NA,NA
35901,Etowah County,AL,NA,37.75862068965517,39.0728476821192,NA
35954,Etowah County,AL,NA,61.810344827586206,NA,NA
35957,Marshall County,AL,NA,NA,NA,81.14754098360656
36027,Barbour County,AL,NA,NA,60.43046357615894,NA
36066,Autauga County,AL,NA,56.37931034482758,NA,NA
36108,Montgomery County,AL,NA,46.206896551724135,NA,NA
36109,Montgomery County,AL,NA,52.672413793103445,NA,NA
36117,Montgomery County,AL,NA,NA,40.397350993377486,NA
36265,Calhoun County,AL,NA,NA,59.93377483443708,NA
36340,Geneva County,AL,NA,93.36206896551724,NA,NA
36426,Escambia County,AL,NA,NA,61.75496688741722,NA
36477,Geneva County,AL,NA,88.01724137931033,NA,NA
36542,Baldwin County,AL,NA,79.22413793103448,NA,NA
36613,Mobile County,AL,NA,NA,73.50993377483444,NA
36693,Mobile County,AL,NA,NA,NA,64.75409836065575
36695,Mobile County,AL,NA,NA,33.77483443708609,NA
36703,Dallas County,AL,NA,64.22413793103449,60.59602649006622,NA
36830,Lee County,AL,59.32203389830508,NA,61.09271523178808,NA
36863,Chambers County,AL,NA,78.79310344827586,NA,NA
99517,Anchorage Municipality,AK,NA,65.25862068965517,NA,NA
99611,Kenai Peninsula Borough,AK,NA,NA,52.152317880794705,NA
99701,Fairbanks North Star Borough,AK,NA,37.93103448275862,NA,NA
85007,Maricopa County,AZ,NA,13.36206896551724,NA,NA
85008,Maricopa County,AZ,NA,NA,26.655629139072843,NA
85014,Maricopa County,AZ,NA,NA,NA,86.88524590163934
85015,Maricopa County,AZ,NA,22.24137931034483,NA,NA
85016,Maricopa County,AZ,NA,47.06896551724138,NA,NA
85023,Maricopa County,AZ,NA,30.862068965517242,NA,NA
85031,Maricopa County,AZ,NA,NA,66.05960264900662,NA
85032,Maricopa County,AZ,22.316384180790962,NA,NA,NA
85048,Maricopa County,AZ,NA,53.706896551724135,NA,NA
85050,Maricopa County,AZ,NA,58.620689655172406,NA,NA
85053,Maricopa County,AZ,NA,49.82758620689655,NA,NA
85086,Maricopa County,AZ,31.07344632768362,NA,NA,NA
85122,Pinal County,AZ,NA,55.68965517241379,NA,NA
85123,Pinal County,AZ,NA,NA,NA,88.52459016393442
85131,Pinal County,AZ,NA,79.13793103448276,NA,NA
85138,Pinal County,AZ,NA,73.1896551724138,NA,NA
85143,Pinal County,AZ,NA,NA,39.40397350993378,NA
85203,Maricopa County,AZ,NA,71.55172413793103,NA,NA
85210,Maricopa County,AZ,NA,26.20689655172414,NA,NA
85248,Maricopa County,AZ,NA,NA,NA,7.923497267759563
85251,Maricopa County,AZ,NA,43.79310344827586,NA,NA
85253,Maricopa County,AZ,NA,NA,88.57615894039735,74.86338797814209
85254,Maricopa County,AZ,NA,80.6896551724138,NA,NA
85255,Maricopa County,AZ,48.30508474576271,NA,NA,NA
85260,Maricopa County,AZ,NA,67.5,NA,NA
85283,Maricopa County,AZ,NA,53.5344827586207,NA,NA
85286,Maricopa County,AZ,NA,NA,74.50331125827815,NA
85295,Maricopa County,AZ,NA,42.32758620689655,NA,NA
85296,Maricopa County,AZ,33.61581920903955,NA,NA,NA
85306,Maricopa County,AZ,NA,NA,NA,60.38251366120219
85307,Maricopa County,AZ,NA,94.05172413793103,NA,NA
85331,Maricopa County,AZ,NA,NA,87.08609271523179,NA
85338,Maricopa County,AZ,NA,NA,46.688741721854306,NA
85339,Maricopa County,AZ,NA,57.84482758620689,NA,NA
85351,Maricopa County,AZ,NA,NA,NA,0.819672131147541
85363,Maricopa County,AZ,NA,NA,87.74834437086093,NA
85375,Maricopa County,AZ,NA,NA,NA,1.366120218579235
85381,Maricopa County,AZ,NA,65.94827586206897,NA,NA
85390,Maricopa County,AZ,NA,90.86206896551724,NA,NA
85541,Gila County,AZ,NA,NA,NA,33.060109289617486
85641,Pima County,AZ,48.58757062146893,NA,NA,NA
85705,Pima County,AZ,NA,4.913793103448276,NA,41.80327868852459
85706,Pima County,AZ,NA,3.793103448275862,NA,NA
85710,Pima County,AZ,NA,NA,NA,72.1311475409836
85711,Pima County,AZ,NA,NA,15.562913907284766,NA
85712,Pima County,AZ,NA,57.49999999999999,NA,NA
85718,Pima County,AZ,NA,61.206896551724135,NA,NA
85719,Pima County,AZ,NA,NA,NA,96.17486338797814
85735,Pima County,AZ,NA,NA,68.21192052980133,NA
85736,Pima County,AZ,NA,95.08620689655173,NA,NA
85737,Pima County,AZ,NA,NA,51.98675496688742,NA
85739,Pinal County,AZ,NA,NA,NA,28.688524590163933
85741,Pima County,AZ,NA,35.775862068965516,NA,NA
85749,Pima County,AZ,92.93785310734464,NA,NA,NA
85941,Apache County,AZ,NA,16.896551724137932,NA,NA
86001,Coconino County,AZ,5.084745762711865,NA,NA,NA
86045,Coconino County,AZ,NA,28.01724137931034,42.88079470198676,NA
86303,Yavapai County,AZ,73.72881355932203,NA,NA,NA
86314,Yavapai County,AZ,NA,83.62068965517241,NA,NA
86334,Yavapai County,AZ,NA,97.32758620689656,NA,NA
86401,Mohave County,AZ,NA,NA,8.940397350993377,NA
86409,Mohave County,AZ,68.64406779661016,NA,NA,NA
86442,Mohave County,AZ,NA,NA,10.596026490066226,NA
86505,Apache County,AZ,NA,NA,NA,59.56284153005464
71601,Jefferson County,AR,NA,66.37931034482759,NA,NA
71603,Jefferson County,AR,NA,37.32758620689655,NA,NA
71665,Cleveland County,AR,NA,95.34482758620689,NA,NA
71671,Bradley County,AR,NA,NA,NA,78.96174863387978
71753,Columbia County,AR,NA,67.8448275862069,65.39735099337747,NA
71953,Polk County,AR,NA,82.06896551724138,NA,NA
72015,Saline County,AR,NA,NA,67.88079470198676,NA
72023,Lonoke County,AR,NA,NA,NA,81.69398907103826
72112,Jackson County,AR,NA,75.60344827586208,NA,NA
72116,Pulaski County,AR,NA,89.48275862068965,NA,NA
72616,Carroll County,AR,NA,NA,79.63576158940397,NA
72631,Carroll County,AR,NA,NA,NA,95.3551912568306
72653,Baxter County,AR,NA,96.55172413793103,NA,NA
72715,Benton County,AR,81.63841807909604,NA,NA,NA
72745,Benton County,AR,NA,84.74137931034483,NA,NA
72761,Benton County,AR,56.21468926553672,NA,NA,NA
72802,Pope County,AR,88.98305084745762,NA,NA,NA
72916,Sebastian County,AR,NA,NA,NA,97.81420765027322
90006,Los Angeles County,CA,NA,68.10344827586206,NA,NA
90012,Los Angeles County,CA,NA,86.03448275862068,NA,NA
90022,Los Angeles County,CA,NA,39.39655172413793,NA,NA
90027,Los Angeles County,CA,NA,NA,NA,22.6775956284153
90031,Los Angeles County,CA,NA,NA,92.21854304635761,NA
90033,Los Angeles County,CA,70.62146892655367,NA,NA,NA
90036,Los Angeles County,CA,NA,NA,NA,38.25136612021858
90047,Los Angeles County,CA,NA,NA,65.06622516556291,NA
90057,Los Angeles County,CA,NA,72.75862068965517,NA,NA
90064,Los Angeles County,CA,NA,63.189655172413794,NA,28.415300546448087
90201,Los Angeles County,CA,NA,34.224137931034484,NA,NA
90221,Los Angeles County,CA,35.59322033898305,40.08620689655172,NA,NA
90242,Los Angeles County,CA,NA,NA,NA,78.41530054644808
90277,Los Angeles County,CA,NA,56.72413793103448,NA,NA
90280,Los Angeles County,CA,NA,35.258620689655174,NA,NA
90501,Los Angeles County,CA,NA,52.32758620689655,NA,NA
90604,Los Angeles County,CA,NA,NA,58.27814569536424,NA
90620,Orange County,CA,NA,NA,NA,31.147540983606557
90638,Los Angeles County,CA,NA,NA,NA,34.15300546448087
90650,Los Angeles County,CA,NA,21.03448275862069,NA,NA
90717,Los Angeles County,CA,NA,84.3103448275862,NA,NA
90723,Los Angeles County,CA,NA,55.51724137931034,NA,NA
90808,Los Angeles County,CA,NA,NA,44.370860927152314,NA
91001,Los Angeles County,CA,NA,60,NA,NA
91006,Los Angeles County,CA,NA,NA,78.97350993377484,68.85245901639344
91203,Los Angeles County,CA,NA,NA,88.41059602649007,NA
91206,Los Angeles County,CA,66.94915254237289,NA,NA,NA
91331,Los Angeles County,CA,NA,14.56896551724138,NA,NA
91340,Los Angeles County,CA,NA,NA,82.6158940397351,NA
91364,Los Angeles County,CA,NA,NA,NA,47.26775956284153
91405,Los Angeles County,CA,NA,NA,NA,51.91256830601093
91701,San Bernardino County,CA,NA,NA,91.3907284768212,NA
91710,San Bernardino County,CA,NA,40.3448275862069,NA,NA
91711,Los Angeles County,CA,NA,NA,34.602649006622514,NA
91730,San Bernardino County,CA,NA,23.275862068965516,NA,NA
91750,Los Angeles County,CA,NA,66.89655172413794,NA,NA
91762,San Bernardino County,CA,29.37853107344633,NA,NA,NA
91765,Los Angeles County,CA,75.42372881355932,NA,NA,NA
91768,Los Angeles County,CA,NA,47.241379310344826,NA,NA
91784,San Bernardino County,CA,NA,NA,50.66225165562914,NA
92019,San Diego County,CA,NA,NA,NA,72.95081967213115
92040,San Diego County,CA,NA,76.8103448275862,NA,NA
92057,San Diego County,CA,NA,NA,81.78807947019867,NA
92064,San Diego County,CA,NA,NA,NA,37.704918032786885
92104,San Diego County,CA,NA,NA,NA,79.50819672131148
92108,San Diego County,CA,NA,85.34482758620689,NA,NA
92109,San Diego County,CA,NA,NA,NA,58.7431693989071
92126,San Diego County,CA,NA,48.87931034482759,NA,NA
92201,Riverside County,CA,NA,NA,18.37748344370861,NA
92211,Riverside County,CA,NA,NA,10.099337748344372,NA
92220,Riverside County,CA,NA,NA,97.18543046357617,NA
92227,Imperial County,CA,41.80790960451977,NA,NA,NA
92243,Imperial County,CA,NA,28.18965517241379,NA,NA
92262,Riverside County,CA,NA,57.41379310344827,NA,NA
92308,San Bernardino County,CA,NA,NA,29.13907284768212,NA
92311,San Bernardino County,CA,NA,NA,94.5364238410596,NA
92345,San Bernardino County,CA,30.508474576271187,NA,16.39072847682119,NA
92346,San Bernardino County,CA,NA,29.56896551724138,NA,NA
92352,San Bernardino County,CA,NA,NA,92.54966887417218,NA
92376,San Bernardino County,CA,NA,11.120689655172415,NA,NA
92392,San Bernardino County,CA,12.146892655367232,NA,NA,NA
92404,San Bernardino County,CA,8.757062146892656,NA,NA,NA
92410,San Bernardino County,CA,NA,36.37931034482759,NA,NA
92503,Riverside County,CA,NA,NA,NA,74.04371584699454
92504,Riverside County,CA,NA,NA,87.41721854304636,NA
92507,Riverside County,CA,NA,NA,70.03311258278146,NA
92509,Riverside County,CA,48.0225988700565,NA,NA,NA
92532,Riverside County,CA,NA,72.06896551724138,NA,NA
92544,Riverside County,CA,NA,52.5,NA,NA
92557,Riverside County,CA,NA,39.91379310344828,NA,NA
92595,Riverside County,CA,NA,89.13793103448275,NA,NA
92625,Orange County,CA,NA,NA,NA,53.278688524590166
92627,Orange County,CA,43.78531073446328,NA,NA,NA
92648,Orange County,CA,NA,31.20689655172414,24.668874172185433,NA
92660,Orange County,CA,57.34463276836158,NA,NA,NA
92672,Orange County,CA,NA,NA,80.4635761589404,NA
92692,Orange County,CA,NA,NA,NA,14.207650273224044
92704,Orange County,CA,NA,NA,37.913907284768214,NA
92882,Riverside County,CA,NA,64.56896551724138,NA,NA
92887,Orange County,CA,NA,75.08620689655172,NA,NA
93030,Ventura County,CA,13.559322033898304,NA,NA,NA
93065,Ventura County,CA,5.932203389830509,NA,NA,NA
93291,Tulare County,CA,NA,NA,NA,31.967213114754102
93304,Kern County,CA,NA,27.155172413793103,NA,NA
93427,Santa Barbara County,CA,NA,NA,NA,98.36065573770492
93444,San Luis Obispo County,CA,NA,62.241379310344826,NA,NA
93455,Santa Barbara County,CA,NA,86.12068965517241,NA,16.939890710382514
93561,Kern County,CA,NA,NA,55.960264900662246,NA
93619,Fresno County,CA,NA,46.12068965517241,NA,NA
93635,Merced County,CA,NA,NA,48.50993377483444,NA
93646,Fresno County,CA,NA,NA,91.05960264900662,NA
93702,Fresno County,CA,NA,NA,37.58278145695364,NA
93726,Fresno County,CA,NA,24.741379310344826,NA,NA
93727,Fresno County,CA,NA,18.017241379310345,NA,NA
93730,Fresno County,CA,85.87570621468926,NA,NA,NA
93905,Monterey County,CA,NA,40.86206896551724,NA,NA
94010,San Mateo County,CA,NA,NA,80.79470198675497,NA
94015,San Mateo County,CA,NA,47.758620689655174,NA,NA
94044,San Mateo County,CA,NA,NA,29.635761589403977,NA
94087,Santa Clara County,CA,NA,78.79310344827586,54.47019867549668,NA
94089,Santa Clara County,CA,NA,81.46551724137932,NA,NA
94115,San Francisco County,CA,96.045197740113,NA,NA,16.39344262295082
94116,San Francisco County,CA,84.7457627118644,NA,NA,NA
94303,San Mateo County,CA,NA,NA,30.79470198675497,NA
94401,San Mateo County,CA,NA,76.89655172413794,NA,NA
94513,Contra Costa County,CA,NA,68.79310344827586,NA,NA
94520,Contra Costa County,CA,NA,NA,63.24503311258278,NA
94533,Solano County,CA,NA,26.46551724137931,NA,NA
94544,Alameda County,CA,NA,21.465517241379313,13.90728476821192,NA
94552,Alameda County,CA,NA,96.98275862068965,NA,NA
94561,Contra Costa County,CA,NA,NA,75.99337748344371,NA
94565,Contra Costa County,CA,NA,24.913793103448274,NA,NA
94568,Alameda County,CA,39.548022598870055,NA,NA,NA
94598,Contra Costa County,CA,95.76271186440678,NA,NA,NA
94705,Alameda County,CA,90.11299435028248,NA,NA,NA
94965,Marin County,CA,NA,92.93103448275862,NA,NA
95008,Santa Clara County,CA,NA,85.6896551724138,NA,NA
95020,Santa Clara County,CA,50.56497175141242,NA,NA,NA
95035,Santa Clara County,CA,NA,53.01724137931034,NA,NA
95046,Santa Clara County,CA,NA,NA,93.70860927152319,NA
95051,Santa Clara County,CA,NA,NA,NA,44.53551912568306
95111,Santa Clara County,CA,NA,41.810344827586206,NA,NA
95112,Santa Clara County,CA,NA,NA,71.8543046357616,NA
95117,Santa Clara County,CA,NA,NA,NA,90.1639344262295
95123,Santa Clara County,CA,NA,NA,29.47019867549669,NA
95252,Calaveras County,CA,82.20338983050848,NA,NA,NA
95301,Merced County,CA,NA,50.258620689655174,NA,NA
95307,Stanislaus County,CA,NA,NA,NA,66.12021857923497
95336,San Joaquin County,CA,NA,33.36206896551724,NA,NA
95337,San Joaquin County,CA,NA,44.310344827586206,NA,NA
95351,Stanislaus County,CA,NA,NA,42.549668874172184,NA
95355,Stanislaus County,CA,NA,10.86206896551724,NA,NA
95366,San Joaquin County,CA,NA,NA,NA,94.53551912568307
95370,Tuolumne County,CA,NA,NA,4.13907284768212,NA
95391,San Joaquin County,CA,NA,82.1551724137931,NA,NA
95403,Sonoma County,CA,NA,53.79310344827586,NA,NA
95409,Sonoma County,CA,NA,NA,52.81456953642384,NA
95437,Mendocino County,CA,NA,NA,NA,38.79781420765027
95519,Humboldt County,CA,NA,NA,78.1456953642384,NA
95608,Sacramento County,CA,NA,44.05172413793104,NA,NA
95619,El Dorado County,CA,93.22033898305084,NA,NA,NA
95762,El Dorado County,CA,NA,54.310344827586206,NA,NA
95817,Sacramento County,CA,NA,80.3448275862069,NA,NA
95826,Sacramento County,CA,NA,NA,NA,56.01092896174863
95828,Sacramento County,CA,NA,44.741379310344826,NA,NA
95835,Sacramento County,CA,NA,69.6551724137931,NA,NA
95901,Yuba County,CA,33.33333333333333,NA,NA,NA
95945,Nevada County,CA,NA,83.01724137931035,NA,NA
95991,Sutter County,CA,NA,32.1551724137931,NA,NA
96003,Shasta County,CA,NA,NA,NA,31.420765027322407
96022,Tehama County,CA,NA,NA,NA,75.95628415300546
96150,El Dorado County,CA,94.0677966101695,73.01724137931035,NA,NA
80015,Arapahoe County,CO,NA,20.862068965517242,NA,NA
80026,Boulder County,CO,NA,NA,52.317880794701985,NA
80031,Adams County,CO,77.40112994350282,NA,NA,NA
80108,Douglas County,CO,32.7683615819209,NA,NA,NA
80110,Arapahoe County,CO,NA,NA,81.62251655629139,NA
80134,Douglas County,CO,7.627118644067797,NA,NA,NA
80205,Denver County,CO,NA,15.948275862068966,NA,NA
80210,Denver County,CO,NA,58.793103448275865,56.622516556291394,NA
80220,Denver County,CO,NA,37.1551724137931,NA,NA
80224,Denver County,CO,NA,NA,NA,56.557377049180324
80228,Jefferson County,CO,NA,58.362068965517246,NA,NA
80401,Jefferson County,CO,NA,39.91379310344828,NA,NA
80433,Jefferson County,CO,NA,95.25862068965517,NA,NA
80439,Jefferson County,CO,NA,81.46551724137932,NA,NA
80537,Larimer County,CO,NA,24.82758620689655,16.55629139072848,27.049180327868854
80620,Weld County,CO,NA,NA,NA,94.80874316939891
80723,Morgan County,CO,NA,75.94827586206897,NA,NA
80751,Logan County,CO,NA,NA,62.913907284768214,NA
80903,El Paso County,CO,NA,40.689655172413794,NA,NA
80906,El Paso County,CO,NA,NA,43.70860927152318,NA
80909,El Paso County,CO,NA,27.500000000000004,NA,NA
80915,El Paso County,CO,27.683615819209038,NA,NA,NA
80918,El Paso County,CO,NA,50.172413793103445,NA,NA
81003,Pueblo County,CO,NA,38.103448275862064,NA,NA
81007,Pueblo County,CO,26.836158192090398,NA,NA,NA
81212,Fremont County,CO,NA,44.396551724137936,NA,NA
81226,Fremont County,CO,NA,89.39655172413794,NA,NA
81301,La Plata County,CO,NA,NA,44.03973509933775,NA
81403,Montrose County,CO,NA,NA,76.15894039735099,NA
81625,Moffat County,CO,52.824858757062145,NA,60.9271523178808,NA
81635,Garfield County,CO,NA,NA,95.69536423841059,NA
06010,Hartford County,CT,NA,32.67241379310345,NA,NA
06037,Hartford County,CT,NA,NA,89.0728476821192,NA
06040,Hartford County,CT,NA,12.844827586206897,56.788079470198674,NA
06051,Hartford County,CT,NA,41.724137931034484,NA,NA
06067,Hartford County,CT,NA,70.25862068965517,NA,NA
06085,Hartford County,CT,NA,NA,NA,92.07650273224044
06095,Hartford County,CT,NA,NA,32.615894039735096,NA
06096,Hartford County,CT,NA,NA,NA,76.775956284153
06106,Hartford County,CT,NA,46.03448275862069,NA,NA
06108,Hartford County,CT,NA,33.275862068965516,NA,NA
06112,Hartford County,CT,NA,20,NA,NA
06117,Hartford County,CT,NA,NA,83.6092715231788,NA
06119,Hartford County,CT,NA,NA,77.48344370860927,NA
06226,Windham County,CT,NA,NA,NA,99.4535519125683
06239,Windham County,CT,NA,NA,NA,83.06010928961749
06281,Windham County,CT,NA,NA,99.17218543046357,NA
06437,New Haven County,CT,NA,65.43103448275862,NA,NA
06450,New Haven County,CT,NA,NA,13.410596026490065,NA
06482,Fairfield County,CT,NA,NA,86.58940397350993,NA
06484,Fairfield County,CT,NA,87.58620689655172,NA,20.21857923497268
06489,Hartford County,CT,NA,NA,NA,12.021857923497267
06511,New Haven County,CT,NA,6.293103448275862,NA,NA
06512,New Haven County,CT,NA,26.120689655172413,NA,NA
06513,New Haven County,CT,18.07909604519774,73.27586206896551,NA,NA
06517,New Haven County,CT,NA,78.36206896551724,NA,NA
06525,New Haven County,CT,NA,NA,86.42384105960265,NA
06604,Fairfield County,CT,NA,NA,39.735099337748345,NA
06606,Fairfield County,CT,NA,21.03448275862069,NA,42.62295081967213
06759,Litchfield County,CT,NA,NA,84.93377483443709,NA
06770,New Haven County,CT,NA,27.241379310344826,NA,NA
06786,Litchfield County,CT,NA,82.67241379310344,NA,NA
06830,Fairfield County,CT,NA,NA,40.06622516556291,NA
06851,Fairfield County,CT,NA,NA,NA,35.51912568306011
06902,Fairfield County,CT,NA,NA,11.754966887417218,NA
19707,New Castle County,DE,NA,NA,65.72847682119205,NA
19801,New Castle County,DE,NA,42.1551724137931,NA,NA
19805,New Castle County,DE,29.943502824858758,4.051724137931034,9.933774834437086,39.07103825136612
19807,New Castle County,DE,79.94350282485875,NA,NA,NA
19901,Kent County,DE,NA,20.862068965517242,NA,NA
19933,Sussex County,DE,NA,NA,67.54966887417218,77.04918032786885
19966,Sussex County,DE,NA,27.068965517241377,NA,NA
19968,Sussex County,DE,NA,NA,48.675496688741724,NA
32034,Nassau County,FL,NA,NA,NA,20.21857923497268
32046,Nassau County,FL,NA,NA,95.86092715231787,NA
32064,Suwannee County,FL,70.33898305084746,NA,73.01324503311258,NA
32114,Volusia County,FL,NA,26.29310344827586,NA,NA
32137,Flagler County,FL,NA,56.46551724137932,NA,NA
32174,Volusia County,FL,NA,NA,NA,12.568306010928962
32208,Duval County,FL,NA,11.724137931034482,NA,NA
32216,Duval County,FL,NA,NA,32.450331125827816,NA
32223,Duval County,FL,NA,73.53448275862068,80.62913907284768,NA
32244,Duval County,FL,NA,7.241379310344828,NA,NA
32246,Duval County,FL,NA,NA,24.503311258278146,51.36612021857923
32424,Calhoun County,FL,NA,71.72413793103448,NA,NA
32440,Jackson County,FL,NA,89.91379310344828,NA,NA
32448,Jackson County,FL,NA,60.775862068965516,NA,NA
32466,Bay County,FL,NA,87.32758620689656,NA,NA
32503,Escambia County,FL,NA,23.96551724137931,NA,NA
32505,Escambia County,FL,NA,NA,NA,39.89071038251366
32507,Escambia County,FL,NA,NA,NA,19.398907103825135
32531,Okaloosa County,FL,NA,91.55172413793103,NA,NA
32533,Escambia County,FL,NA,NA,NA,70.49180327868852
32534,Escambia County,FL,83.33333333333334,48.275862068965516,NA,NA
32535,Escambia County,FL,NA,NA,76.32450331125827,NA
32565,Santa Rosa County,FL,91.52542372881356,NA,NA,NA
32566,Santa Rosa County,FL,NA,NA,NA,67.4863387978142
32578,Okaloosa County,FL,78.8135593220339,NA,NA,NA
32608,Alachua County,FL,5.367231638418079,NA,NA,NA
32619,Gilchrist County,FL,94.35028248587571,NA,NA,NA
32643,Alachua County,FL,56.21468926553672,NA,NA,NA
32653,Alachua County,FL,NA,66.46551724137932,NA,NA
32669,Alachua County,FL,NA,68.96551724137932,NA,NA
32693,Gilchrist County,FL,NA,70.34482758620689,NA,NA
32724,Volusia County,FL,NA,58.10344827586207,NA,NA
32725,Volusia County,FL,NA,38.44827586206897,NA,NA
32726,Lake County,FL,NA,NA,NA,43.71584699453552
32776,Lake County,FL,NA,NA,NA,95.08196721311475
32780,Brevard County,FL,NA,44.568965517241374,NA,NA
32808,Orange County,FL,NA,NA,26.986754966887418,NA
32814,Orange County,FL,100,NA,NA,NA
32817,Orange County,FL,NA,NA,NA,78.14207650273224
32818,Orange County,FL,NA,NA,54.966887417218544,NA
32822,Orange County,FL,NA,22.758620689655174,NA,NA
32828,Orange County,FL,NA,71.8103448275862,NA,NA
32836,Orange County,FL,NA,91.98275862068965,NA,NA
32837,Orange County,FL,NA,56.81034482758621,NA,NA
32935,Brevard County,FL,50,NA,NA,NA
32952,Brevard County,FL,NA,80.86206896551724,NA,NA
32960,Indian River County,FL,51.69491525423729,NA,NA,NA
32976,Brevard County,FL,NA,NA,79.30463576158941,NA
33009,Broward County,FL,NA,NA,47.35099337748344,NA
33020,Broward County,FL,55.08474576271186,NA,NA,NA
33023,Broward County,FL,NA,22.93103448275862,NA,NA
33024,Broward County,FL,NA,NA,26.158940397350992,NA
33027,Broward County,FL,43.22033898305085,NA,NA,NA
33032,Miami-Dade County,FL,NA,45.86206896551724,NA,NA
33063,Broward County,FL,NA,45.94827586206897,NA,NA
33065,Broward County,FL,72.31638418079096,NA,NA,NA
33133,Miami-Dade County,FL,NA,NA,43.54304635761589,NA
33167,Miami-Dade County,FL,NA,65,NA,NA
33175,Miami-Dade County,FL,19.774011299435028,NA,NA,NA
33176,Miami-Dade County,FL,NA,70.08620689655173,38.24503311258278,NA
33184,Miami-Dade County,FL,NA,NA,NA,52.18579234972678
33311,Broward County,FL,NA,9.051724137931034,22.68211920529801,NA
33313,Broward County,FL,NA,24.39655172413793,NA,NA
33319,Broward County,FL,NA,NA,32.94701986754967,NA
33324,Broward County,FL,NA,70.6896551724138,NA,NA
33326,Broward County,FL,NA,79.56896551724138,NA,NA
33411,Palm Beach County,FL,NA,NA,NA,26.775956284153008
33444,Palm Beach County,FL,NA,NA,68.54304635761589,NA
33455,Martin County,FL,NA,NA,24.834437086092713,NA
33477,Palm Beach County,FL,NA,NA,NA,46.44808743169399
33496,Palm Beach County,FL,NA,NA,NA,10.10928961748634
33534,Hillsborough County,FL,NA,74.22413793103448,NA,NA
33558,Hillsborough County,FL,82.20338983050848,85.86206896551725,NA,NA
33570,Hillsborough County,FL,NA,66.29310344827586,NA,NA
33594,Hillsborough County,FL,87.00564971751412,NA,NA,NA
33603,Hillsborough County,FL,NA,62.758620689655174,NA,NA
33604,Hillsborough County,FL,NA,NA,42.71523178807947,NA
33607,Hillsborough County,FL,NA,55.00000000000001,NA,NA
33609,Hillsborough County,FL,NA,NA,NA,71.03825136612022
33610,Hillsborough County,FL,NA,NA,40.728476821192054,NA
33612,Hillsborough County,FL,NA,13.620689655172413,NA,NA
33613,Hillsborough County,FL,NA,NA,54.13907284768212,NA
33614,Hillsborough County,FL,37.005649717514125,NA,NA,42.07650273224044
33624,Hillsborough County,FL,NA,57.155172413793096,47.682119205298015,NA
33706,Pinellas County,FL,NA,NA,NA,73.49726775956285
33715,Pinellas County,FL,NA,NA,75.66225165562915,NA
33811,Polk County,FL,NA,71.12068965517241,NA,NA
33815,Polk County,FL,NA,45,NA,86.0655737704918
33860,Polk County,FL,NA,62.93103448275862,NA,NA
33870,Highlands County,FL,NA,32.241379310344826,NA,15.027322404371585
33880,Polk County,FL,NA,59.396551724137936,49.00662251655629,NA
33881,Polk County,FL,NA,40.94827586206897,NA,NA
33884,Polk County,FL,NA,NA,46.854304635761594,34.97267759562842
33908,Lee County,FL,NA,NA,34.105960264900666,NA
33909,Lee County,FL,NA,NA,NA,58.46994535519126
33914,Lee County,FL,NA,44.568965517241374,NA,NA
33917,Lee County,FL,NA,NA,21.192052980132452,NA
33928,Lee County,FL,NA,NA,35.264900662251655,24.59016393442623
33981,Charlotte County,FL,79.37853107344633,NA,NA,NA
34202,Manatee County,FL,NA,NA,NA,43.44262295081967
34211,Manatee County,FL,NA,94.3103448275862,NA,NA
34212,Manatee County,FL,58.47457627118644,NA,NA,NA
34228,Sarasota County,FL,NA,NA,NA,46.72131147540984
34231,Sarasota County,FL,NA,NA,NA,5.191256830601093
34232,Sarasota County,FL,NA,NA,NA,29.23497267759563
34233,Sarasota County,FL,NA,78.5344827586207,NA,NA
34238,Sarasota County,FL,NA,NA,NA,8.19672131147541
34239,Sarasota County,FL,NA,80.17241379310344,NA,NA
34266,DeSoto County,FL,NA,NA,52.980132450331126,NA
34275,Sarasota County,FL,NA,NA,NA,18.852459016393443
34286,Sarasota County,FL,83.33333333333334,NA,NA,NA
34287,Sarasota County,FL,NA,55.344827586206904,NA,NA
34420,Marion County,FL,NA,NA,62.58278145695364,NA
34453,Citrus County,FL,NA,NA,86.75496688741721,NA
34465,Citrus County,FL,NA,66.55172413793103,NA,NA
34470,Marion County,FL,NA,NA,NA,48.90710382513661
34473,Marion County,FL,NA,52.241379310344826,NA,NA
34476,Marion County,FL,NA,62.58620689655172,NA,NA
34491,Marion County,FL,NA,NA,36.092715231788084,NA
34610,Pasco County,FL,NA,68.44827586206897,NA,NA
34652,Pasco County,FL,NA,NA,NA,48.08743169398907
34669,Pasco County,FL,NA,77.15517241379311,NA,NA
34677,Pinellas County,FL,NA,76.55172413793103,NA,NA
34684,Pinellas County,FL,NA,88.44827586206897,NA,NA
34688,Pinellas County,FL,97.74011299435028,NA,NA,NA
34698,Pinellas County,FL,NA,NA,NA,20.76502732240437
34741,Osceola County,FL,NA,26.810344827586206,NA,NA
34747,Osceola County,FL,NA,83.87931034482759,NA,NA
34759,Polk County,FL,NA,42.5,NA,NA
34772,Osceola County,FL,NA,69.05172413793103,NA,NA
34787,Orange County,FL,32.20338983050847,NA,NA,NA
34984,St. Lucie County,FL,66.66666666666666,NA,NA,NA
34996,Martin County,FL,NA,NA,64.40397350993378,NA
30004,Fulton County,GA,NA,46.206896551724135,NA,NA
30009,Fulton County,GA,NA,87.8448275862069,NA,NA
30016,Newton County,GA,NA,16.120689655172413,NA,NA
30024,Gwinnett County,GA,NA,NA,26.490066225165563,NA
30035,DeKalb County,GA,NA,NA,47.847682119205295,NA
30041,Forsyth County,GA,21.1864406779661,NA,NA,NA
30043,Gwinnett County,GA,NA,25.948275862068964,NA,NA
30052,Walton County,GA,NA,53.275862068965516,NA,NA
30075,Fulton County,GA,NA,NA,22.185430463576157,NA
30087,DeKalb County,GA,NA,NA,NA,39.34426229508197
30088,DeKalb County,GA,NA,43.275862068965516,NA,NA
30093,Gwinnett County,GA,NA,59.48275862068966,NA,NA
30101,Cobb County,GA,NA,NA,28.47682119205298,NA
30114,Cherokee County,GA,40.3954802259887,NA,NA,NA
30115,Cherokee County,GA,NA,NA,41.72185430463576,NA
30117,Carroll County,GA,NA,NA,NA,37.15846994535519
30122,Douglas County,GA,NA,NA,71.68874172185431,NA
30125,Polk County,GA,NA,NA,46.026490066225165,NA
30127,Cobb County,GA,NA,NA,65.89403973509934,NA
30141,Paulding County,GA,69.2090395480226,NA,NA,NA
30161,Floyd County,GA,NA,NA,23.013245033112582,NA
30165,Floyd County,GA,NA,28.36206896551724,NA,NA
30168,Cobb County,GA,44.06779661016949,NA,NA,NA
30185,Carroll County,GA,NA,98.70689655172413,NA,NA
30188,Cherokee County,GA,NA,NA,17.715231788079468,NA
30217,Heard County,GA,NA,NA,93.87417218543047,NA
30253,Henry County,GA,NA,29.224137931034484,NA,NA
30281,Henry County,GA,NA,NA,19.70198675496689,NA
30286,Upson County,GA,NA,NA,79.13907284768213,NA
30294,DeKalb County,GA,NA,74.6551724137931,NA,NA
30314,Fulton County,GA,NA,NA,49.83443708609271,NA
30315,Fulton County,GA,NA,33.189655172413794,NA,NA
30331,Fulton County,GA,NA,20.603448275862068,NA,NA
30340,DeKalb County,GA,NA,NA,NA,68.5792349726776
30436,Toombs County,GA,NA,NA,NA,87.70491803278688
30518,Gwinnett County,GA,NA,41.293103448275865,NA,NA
30554,Hall County,GA,98.30508474576271,NA,NA,NA
30560,Fannin County,GA,97.45762711864407,98.53448275862068,NA,NA
30655,Walton County,GA,NA,NA,32.28476821192053,NA
30707,Walker County,GA,NA,46.37931034482759,NA,NA
30720,Whitfield County,GA,NA,57.931034482758626,NA,57.650273224043715
30741,Walker County,GA,20.903954802259886,23.017241379310345,NA,NA
30755,Whitfield County,GA,NA,NA,85.26490066225165,NA
30809,Columbia County,GA,NA,39.6551724137931,13.741721854304636,NA
30904,Richmond County,GA,NA,37.58620689655172,NA,NA
31005,Houston County,GA,NA,NA,NA,83.60655737704919
31036,Pulaski County,GA,NA,74.05172413793103,NA,NA
31088,Houston County,GA,NA,19.56896551724138,NA,NA
31206,Bibb County,GA,NA,NA,NA,62.295081967213115
31211,Bibb County,GA,NA,73.87931034482759,NA,NA
31220,Bibb County,GA,NA,81.12068965517241,NA,NA
31322,Chatham County,GA,NA,81.12068965517241,NA,NA
31501,Ware County,GA,61.29943502824858,NA,NA,NA
31537,Charlton County,GA,NA,87.41379310344828,NA,NA
31539,Jeff Davis County,GA,NA,NA,66.72185430463577,NA
31602,Lowndes County,GA,NA,NA,73.67549668874173,NA
31714,Turner County,GA,NA,76.37931034482759,NA,NA
31768,Colquitt County,GA,NA,NA,54.80132450331126,NA
31792,Thomas County,GA,NA,NA,67.21854304635761,84.42622950819673
31907,Muscogee County,GA,24.01129943502825,NA,NA,NA
96732,Maui County,HI,NA,NA,NA,77.3224043715847
96789,Honolulu County,HI,55.932203389830505,25.25862068965517,9.105960264900661,NA
96813,Honolulu County,HI,NA,36.896551724137936,NA,NA
96814,Honolulu County,HI,NA,71.89655172413794,NA,NA
96817,Honolulu County,HI,NA,NA,7.781456953642383,NA
96819,Honolulu County,HI,NA,NA,NA,26.229508196721312
96822,Honolulu County,HI,NA,43.44827586206896,NA,NA
96825,Honolulu County,HI,NA,NA,NA,4.644808743169399
83202,Bannock County,ID,NA,80.51724137931035,NA,NA
83221,Bingham County,ID,NA,30.862068965517242,NA,50.81967213114754
83301,Twin Falls County,ID,NA,5.086206896551724,NA,NA
83318,Cassia County,ID,71.75141242937853,NA,NA,NA
83350,Minidoka County,ID,NA,NA,64.56953642384106,NA
83401,Bonneville County,ID,NA,18.70689655172414,NA,NA
83404,Bonneville County,ID,88.13559322033898,NA,NA,NA
83501,Nez Perce County,ID,NA,17.844827586206897,NA,NA
83530,Idaho County,ID,NA,NA,NA,84.15300546448088
83605,Canyon County,ID,52.54237288135594,30.775862068965516,NA,44.26229508196721
83616,Ada County,ID,NA,NA,NA,17.759562841530055
83634,Ada County,ID,NA,92.58620689655173,NA,NA
83651,Canyon County,ID,NA,NA,12.748344370860929,NA
83672,Washington County,ID,69.49152542372882,NA,NA,NA
83704,Ada County,ID,NA,20.086206896551726,NA,NA
83706,Ada County,ID,NA,NA,NA,22.950819672131146
83709,Ada County,ID,NA,NA,NA,4.371584699453552
83713,Ada County,ID,NA,70.86206896551724,NA,NA
83815,Kootenai County,ID,NA,NA,20.52980132450331,NA
83854,Kootenai County,ID,NA,36.12068965517241,24.00662251655629,NA
60004,Cook County,IL,NA,28.18965517241379,NA,NA
60010,Lake County,IL,NA,42.672413793103445,NA,NA
60030,Lake County,IL,NA,NA,25.662251655629138,NA
60035,Lake County,IL,NA,48.36206896551724,NA,NA
60044,Lake County,IL,NA,83.70689655172414,NA,NA
60048,Lake County,IL,NA,NA,NA,40.7103825136612
60067,Cook County,IL,NA,47.5,NA,NA
60070,Cook County,IL,NA,NA,94.37086092715232,NA
60073,Lake County,IL,NA,50.86206896551724,NA,NA
60076,Cook County,IL,73.1638418079096,NA,NA,NA
60091,Cook County,IL,53.672316384180796,NA,NA,NA
60093,Cook County,IL,NA,76.98275862068965,NA,NA
60102,McHenry County,IL,NA,51.46551724137931,NA,NA
60120,Kane County,IL,68.92655367231639,NA,NA,NA
60126,DuPage County,IL,NA,12.155172413793103,NA,NA
60137,DuPage County,IL,NA,NA,33.27814569536424,NA
60142,McHenry County,IL,NA,46.63793103448276,NA,NA
60148,DuPage County,IL,NA,18.53448275862069,NA,NA
60157,DuPage County,IL,97.74011299435028,NA,NA,NA
60160,Cook County,IL,NA,99.6551724137931,NA,NA
60174,Kane County,IL,NA,50,NA,NA
60176,Cook County,IL,NA,NA,NA,87.97814207650273
60178,DeKalb County,IL,NA,NA,51.49006622516556,NA
60181,DuPage County,IL,NA,78.27586206896552,NA,NA
60189,DuPage County,IL,NA,38.44827586206897,NA,NA
60201,Cook County,IL,NA,97.41379310344827,NA,NA
60302,Cook County,IL,37.85310734463277,NA,NA,NA
60401,Will County,IL,94.63276836158192,NA,NA,NA
60408,Will County,IL,NA,90.60344827586206,NA,NA
60411,Cook County,IL,NA,46.46551724137931,NA,NA
60430,Cook County,IL,NA,67.67241379310344,NA,NA
60435,Will County,IL,NA,NA,NA,21.85792349726776
60439,Cook County,IL,NA,48.44827586206897,NA,NA
60442,Will County,IL,NA,79.56896551724138,NA,NA
60446,Will County,IL,28.8135593220339,NA,NA,NA
60448,Will County,IL,44.06779661016949,NA,NA,NA
60450,Grundy County,IL,NA,27.586206896551722,NA,NA
60459,Cook County,IL,NA,NA,56.29139072847682,46.994535519125684
60464,Cook County,IL,NA,NA,NA,64.48087431693989
60471,Cook County,IL,NA,73.36206896551725,NA,NA
60477,Cook County,IL,NA,29.310344827586203,NA,NA
60506,Kane County,IL,NA,28.793103448275865,NA,NA
60510,Kane County,IL,NA,39.05172413793103,NA,NA
60513,Cook County,IL,65.81920903954803,NA,NA,NA
60526,Cook County,IL,25.70621468926554,75.25862068965517,72.68211920529801,NA
60538,Kendall County,IL,NA,62.1551724137931,NA,NA
60540,DuPage County,IL,NA,NA,NA,72.40437158469946
60546,Cook County,IL,NA,NA,NA,47.540983606557376
60563,DuPage County,IL,NA,49.6551724137931,NA,NA
60608,Cook County,IL,NA,13.706896551724137,NA,NA
60614,Cook County,IL,41.24293785310734,NA,NA,NA
60615,Cook County,IL,NA,28.10344827586207,NA,NA
60617,Cook County,IL,NA,NA,3.3112582781456954,NA
60618,Cook County,IL,NA,NA,22.019867549668874,NA
60621,Cook County,IL,NA,38.362068965517246,NA,NA
60623,Cook County,IL,NA,9.224137931034484,NA,NA
60626,Cook County,IL,NA,NA,8.27814569536424,NA
60634,Cook County,IL,NA,12.758620689655173,NA,NA
60638,Cook County,IL,47.175141242937855,38.62068965517241,NA,NA
60641,Cook County,IL,NA,93.01724137931035,NA,NA
60643,Cook County,IL,NA,11.03448275862069,NA,10.655737704918032
60644,Cook County,IL,NA,9.913793103448276,NA,NA
60651,Cook County,IL,NA,10.60344827586207,NA,NA
60659,Cook County,IL,NA,NA,28.642384105960268,NA
60707,Cook County,IL,NA,23.362068965517242,NA,NA
60714,Cook County,IL,85.87570621468926,NA,NA,NA
60901,Kankakee County,IL,NA,68.01724137931035,NA,NA
60922,Kankakee County,IL,99.15254237288136,NA,NA,NA
61010,Ogle County,IL,NA,NA,95.03311258278146,NA
61102,Winnebago County,IL,NA,NA,58.443708609271525,NA
61108,Winnebago County,IL,NA,NA,27.1523178807947,NA
61231,Mercer County,IL,NA,99.39655172413792,NA,NA
61265,Rock Island County,IL,NA,NA,33.94039735099338,NA
61282,Rock Island County,IL,NA,89.65517241379311,NA,NA
61301,LaSalle County,IL,NA,65.51724137931035,NA,NA
61350,LaSalle County,IL,NA,NA,NA,34.42622950819672
61364,LaSalle County,IL,NA,NA,NA,76.22950819672131
61554,Tazewell County,IL,NA,NA,45.36423841059602,NA
61611,Tazewell County,IL,NA,NA,43.87417218543047,NA
61615,Peoria County,IL,90.67796610169492,NA,61.920529801324506,NA
61832,Vermilion County,IL,22.88135593220339,NA,NA,NA
61846,Vermilion County,IL,NA,NA,NA,93.71584699453553
61944,Edgar County,IL,NA,NA,56.95364238410596,NA
62002,Madison County,IL,NA,33.87931034482759,NA,NA
62040,Madison County,IL,NA,NA,NA,21.311475409836063
62049,Montgomery County,IL,NA,94.74137931034483,NA,NA
62207,St. Clair County,IL,NA,NA,NA,99.18032786885246
62223,St. Clair County,IL,NA,88.70689655172413,NA,NA
62246,Bond County,IL,NA,88.10344827586208,NA,NA
62401,Effingham County,IL,98.87005649717514,NA,NA,NA
62521,Macon County,IL,NA,NA,NA,4.644808743169399
62568,Christian County,IL,NA,NA,88.24503311258279,NA
62703,Sangamon County,IL,NA,NA,NA,48.63387978142077
62948,Williamson County,IL,NA,69.91379310344827,NA,NA
46011,Madison County,IN,NA,53.36206896551724,NA,NA
46033,Hamilton County,IN,68.07909604519774,NA,NA,NA
46036,Madison County,IN,NA,NA,57.450331125827816,NA
46041,Clinton County,IN,NA,NA,NA,49.45355191256831
46052,Boone County,IN,NA,NA,NA,50
46060,Hamilton County,IN,NA,34.56896551724138,NA,NA
46112,Hendricks County,IN,NA,NA,51.65562913907284,NA
46201,Marion County,IN,NA,21.89655172413793,NA,NA
46203,Marion County,IN,NA,57.67241379310345,NA,NA
46204,Marion County,IN,NA,96.29310344827586,NA,NA
46218,Marion County,IN,NA,NA,NA,29.508196721311474
46220,Marion County,IN,NA,76.12068965517241,NA,53.00546448087432
46221,Marion County,IN,42.3728813559322,NA,NA,NA
46226,Marion County,IN,NA,14.655172413793101,NA,NA
46227,Marion County,IN,NA,NA,7.28476821192053,NA
46234,Marion County,IN,NA,84.56896551724138,NA,NA
46256,Marion County,IN,85.87570621468926,NA,NA,NA
46303,Lake County,IN,46.04519774011299,NA,NA,NA
46304,Porter County,IN,NA,63.87931034482759,87.25165562913907,NA
46307,Lake County,IN,NA,17.06896551724138,NA,NA
46310,Jasper County,IN,NA,80.43103448275862,NA,NA
46311,Lake County,IN,NA,NA,18.543046357615893,NA
46319,Lake County,IN,27.401129943502823,NA,NA,NA
46322,Lake County,IN,NA,27.672413793103452,NA,NA
46324,Lake County,IN,NA,19.913793103448278,NA,NA
46347,Porter County,IN,NA,91.29310344827586,NA,NA
46356,Lake County,IN,NA,34.310344827586206,NA,NA
46360,LaPorte County,IN,1.4124293785310735,NA,NA,NA
46366,Starke County,IN,NA,79.82758620689656,NA,NA
46368,Porter County,IN,NA,NA,16.887417218543046,NA
46373,Lake County,IN,NA,33.706896551724135,NA,NA
46383,Porter County,IN,NA,9.741379310344827,NA,NA
46385,Porter County,IN,8.47457627118644,NA,NA,NA
46392,Jasper County,IN,NA,NA,NA,98.63387978142076
46404,Lake County,IN,NA,36.810344827586206,NA,NA
46407,Lake County,IN,NA,NA,71.35761589403974,NA
46410,Lake County,IN,NA,8.96551724137931,NA,NA
46516,Elkhart County,IN,NA,68.27586206896552,NA,NA
46517,Elkhart County,IN,NA,52.58620689655172,NA,NA
46526,Elkhart County,IN,57.6271186440678,NA,NA,NA
46567,Kosciusko County,IN,NA,NA,90.89403973509934,NA
46706,DeKalb County,IN,NA,49.56896551724138,NA,NA
46738,DeKalb County,IN,NA,72.93103448275862,NA,NA
46803,Allen County,IN,NA,94.56896551724138,NA,NA
46804,Allen County,IN,NA,NA,27.64900662251656,NA
46806,Allen County,IN,NA,29.913793103448278,NA,NA
46901,Howard County,IN,NA,2.844827586206897,5.132450331125828,9.289617486338798
46902,Howard County,IN,NA,5.258620689655173,NA,NA
46952,Grant County,IN,NA,NA,7.450331125827815,NA
47201,Bartholomew County,IN,NA,NA,13.57615894039735,NA
47302,Delaware County,IN,NA,NA,36.58940397350993,NA
47331,Fayette County,IN,NA,NA,NA,10.92896174863388
47374,Wayne County,IN,6.214689265536723,NA,4.635761589403973,NA
47452,Orange County,IN,NA,96.03448275862068,NA,NA
47542,Dubois County,IN,NA,95.60344827586206,NA,NA
47711,Vanderburgh County,IN,NA,NA,28.807947019867548,NA
47720,Vanderburgh County,IN,NA,75.86206896551724,NA,NA
47725,Vanderburgh County,IN,NA,NA,NA,79.23497267759562
47803,Vigo County,IN,NA,NA,NA,42.62295081967213
47804,Vigo County,IN,NA,NA,70.69536423841059,NA
47807,Vigo County,IN,NA,50.60344827586207,NA,NA
50010,Story County,IA,NA,60.43103448275862,NA,NA
50021,Polk County,IA,NA,75.77586206896552,NA,NA
50022,Cass County,IA,NA,86.8103448275862,NA,NA
50131,Polk County,IA,NA,78.01724137931035,NA,NA
50266,Polk County,IA,63.2768361581921,NA,NA,NA
50322,Polk County,IA,NA,64.65517241379311,NA,NA
50401,Cerro Gordo County,IA,NA,14.827586206896552,NA,NA
50428,Cerro Gordo County,IA,66.94915254237289,NA,NA,NA
50461,Mitchell County,IA,NA,NA,NA,88.25136612021858
50548,Humboldt County,IA,89.26553672316385,NA,NA,NA
50595,Hamilton County,IA,NA,78.1896551724138,NA,NA
50644,Buchanan County,IA,NA,79.22413793103448,NA,NA
50701,Black Hawk County,IA,NA,36.724137931034484,NA,NA
51108,Woodbury County,IA,72.59887005649718,NA,NA,NA
51501,Pottawattamie County,IA,NA,NA,10.76158940397351,NA
51503,Pottawattamie County,IA,NA,10.689655172413794,28.14569536423841,NA
51560,Pottawattamie County,IA,NA,98.9655172413793,NA,NA
52001,Dubuque County,IA,NA,49.48275862068965,NA,NA
52245,Johnson County,IA,NA,NA,43.211920529801326,55.73770491803278
52253,Linn County,IA,NA,99.74137931034483,NA,NA
52402,Linn County,IA,NA,71.37931034482759,NA,NA
52531,Monroe County,IA,NA,93.79310344827586,NA,NA
52537,Davis County,IA,NA,87.06896551724138,NA,NA
52627,Lee County,IA,NA,NA,NA,55.46448087431693
52761,Muscatine County,IA,NA,14.224137931034484,NA,NA
66002,Atchison County,KS,NA,NA,61.258278145695364,NA
66207,Johnson County,KS,NA,NA,73.17880794701986,NA
66210,Johnson County,KS,NA,76.46551724137932,NA,NA
66215,Johnson County,KS,31.92090395480226,NA,NA,NA
66535,Pottawatomie County,KS,NA,97.84482758620689,NA,NA
66605,Shawnee County,KS,80.7909604519774,78.10344827586206,NA,NA
66614,Shawnee County,KS,NA,NA,NA,19.12568306010929
67042,Butler County,KS,NA,64.05172413793103,NA,NA
67401,Saline County,KS,NA,56.98275862068966,NA,NA
67601,Ellis County,KS,NA,NA,20.198675496688743,NA
40013,Nelson County,KY,NA,84.13793103448276,NA,NA
40033,Marion County,KY,55.08474576271186,NA,NA,NA
40175,Hardin County,KY,74.85875706214689,NA,NA,NA
40216,Jefferson County,KY,NA,11.46551724137931,NA,NA
40218,Jefferson County,KY,NA,NA,42.05298013245033,NA
40219,Jefferson County,KY,NA,16.034482758620687,NA,NA
40220,Jefferson County,KY,NA,41.46551724137931,NA,NA
40228,Jefferson County,KY,NA,NA,84.60264900662253,NA
40242,Jefferson County,KY,88.4180790960452,NA,NA,NA
40245,Jefferson County,KY,NA,52.32758620689655,NA,NA
40299,Jefferson County,KY,NA,NA,NA,23.770491803278688
40337,Montgomery County,KY,NA,92.06896551724138,NA,NA
40353,Montgomery County,KY,NA,NA,33.443708609271525,NA
40391,Clark County,KY,10.16949152542373,35.94827586206897,NA,30.601092896174865
40422,Boyle County,KY,NA,NA,51.82119205298014,NA
40503,Fayette County,KY,NA,69.3103448275862,NA,NA
40505,Fayette County,KY,NA,NA,NA,59.56284153005464
40511,Fayette County,KY,NA,42.58620689655173,NA,NA
40517,Fayette County,KY,NA,24.568965517241377,NA,NA
40701,Whitley County,KY,NA,NA,NA,29.78142076502732
40744,Laurel County,KY,87.28813559322035,NA,NA,NA
40769,Whitley County,KY,64.40677966101694,NA,NA,NA
40977,Bell County,KY,NA,57.068965517241374,NA,NA
41017,Kenton County,KY,NA,34.91379310344828,NA,NA
41018,Kenton County,KY,NA,NA,27.81456953642384,NA
41071,Campbell County,KY,NA,29.655172413793103,NA,NA
41074,Campbell County,KY,NA,91.72413793103448,NA,NA
41143,Carter County,KY,NA,NA,76.98675496688742,NA
41164,Carter County,KY,NA,36.637931034482754,NA,NA
42003,McCracken County,KY,NA,18.620689655172416,NA,NA
42025,Marshall County,KY,60.73446327683616,NA,NA,NA
42071,Calloway County,KY,NA,NA,45.198675496688736,NA
42086,McCracken County,KY,NA,95.77586206896552,NA,NA
42101,Warren County,KY,NA,8.706896551724137,NA,NA
42127,Barren County,KY,NA,70.77586206896552,NA,NA
42345,Muhlenberg County,KY,NA,58.189655172413794,NA,NA
42348,Hancock County,KY,NA,93.1896551724138,NA,NA
42420,Henderson County,KY,NA,11.551724137931034,NA,21.584699453551913
42445,Caldwell County,KY,84.4632768361582,NA,NA,NA
42501,Pulaski County,KY,NA,53.62068965517241,NA,NA
42553,Pulaski County,KY,NA,NA,96.19205298013244,NA
42633,Wayne County,KY,NA,55.431034482758626,NA,NA
42718,Taylor County,KY,NA,15.431034482758621,NA,NA
70003,Jefferson Parish,LA,NA,10.086206896551724,NA,NA
70043,St. Bernard Parish,LA,NA,18.879310344827584,NA,NA
70056,Jefferson Parish,LA,NA,6.206896551724138,NA,NA
70058,Jefferson Parish,LA,NA,34.39655172413793,NA,NA
70116,Orleans Parish,LA,NA,92.24137931034483,NA,NA
70117,Orleans Parish,LA,NA,6.0344827586206895,NA,NA
70119,Orleans Parish,LA,NA,NA,NA,39.61748633879781
70123,Jefferson Parish,LA,NA,70.17241379310344,NA,NA
70124,Orleans Parish,LA,77.96610169491525,NA,NA,NA
70130,Orleans Parish,LA,NA,NA,NA,60.65573770491803
70374,Lafourche Parish,LA,NA,41.206896551724135,NA,NA
70394,Lafourche Parish,LA,NA,55.94827586206896,NA,NA
70444,Tangipahoa Parish,LA,NA,51.55172413793103,NA,NA
70447,St. Tammany Parish,LA,NA,61.12068965517241,NA,NA
70454,Tangipahoa Parish,LA,NA,NA,42.21854304635762,NA
70460,St. Tammany Parish,LA,NA,45.60344827586207,31.456953642384107,NA
70471,St. Tammany Parish,LA,NA,NA,22.8476821192053,NA
70503,Lafayette Parish,LA,NA,41.37931034482759,NA,NA
70506,Lafayette Parish,LA,NA,70.43103448275862,NA,NA
70508,Lafayette Parish,LA,NA,NA,22.350993377483444,NA
70533,Vermilion Parish,LA,NA,62.93103448275862,NA,NA
70535,St. Landry Parish,LA,17.796610169491526,NA,NA,NA
70546,Jefferson Davis Parish,LA,NA,31.724137931034484,NA,NA
70548,Vermilion Parish,LA,NA,NA,89.40397350993378,NA
70560,Iberia Parish,LA,NA,3.362068965517241,NA,37.97814207650273
70570,St. Landry Parish,LA,NA,1.896551724137931,NA,NA
70611,Calcasieu Parish,LA,NA,NA,NA,80.05464480874316
70706,Livingston Parish,LA,34.18079096045198,NA,NA,NA
70726,Livingston Parish,LA,NA,2.327586206896552,NA,NA
70764,Iberville Parish,LA,NA,37.1551724137931,NA,NA
70807,East Baton Rouge Parish,LA,NA,16.29310344827586,NA,NA
70809,East Baton Rouge Parish,LA,NA,56.896551724137936,NA,NA
70815,East Baton Rouge Parish,LA,11.299435028248588,NA,NA,NA
71106,Caddo Parish,LA,NA,8.017241379310343,NA,NA
71107,Caddo Parish,LA,NA,NA,21.85430463576159,NA
71109,Caddo Parish,LA,NA,8.448275862068966,NA,NA
71111,Bossier Parish,LA,6.497175141242938,6.810344827586206,NA,NA
71241,Union Parish,LA,NA,NA,90.23178807947019,NA
71291,Ouachita Parish,LA,NA,12.931034482758621,NA,NA
71292,Ouachita Parish,LA,NA,NA,57.450331125827816,NA
71328,Rapides Parish,LA,NA,64.39655172413794,NA,NA
71405,Rapides Parish,LA,NA,87.06896551724138,NA,NA
71449,Sabine Parish,LA,NA,73.10344827586206,NA,NA
71457,Natchitoches Parish,LA,NA,NA,NA,40.43715846994536
04038,Cumberland County,ME,25.423728813559322,NA,NA,NA
04055,Cumberland County,ME,NA,94.13793103448276,NA,NA
04072,York County,ME,NA,NA,20.695364238410598,NA
04090,York County,ME,NA,NA,64.90066225165563,NA
04092,Cumberland County,ME,NA,43.01724137931034,NA,50.54644808743169
04096,Cumberland County,ME,NA,NA,84.27152317880795,NA
04276,Oxford County,ME,61.86440677966102,NA,NA,NA
04281,Oxford County,ME,NA,NA,NA,90.43715846994536
04330,Kennebec County,ME,NA,28.965517241379313,NA,NA
04364,Kennebec County,ME,NA,59.6551724137931,NA,NA
04401,Penobscot County,ME,NA,NA,1.9867549668874174,NA
04416,Hancock County,ME,NA,86.29310344827587,NA,NA
04605,Hancock County,ME,NA,47.93103448275862,NA,NA
04730,Aroostook County,ME,NA,60.17241379310345,NA,NA
04849,Waldo County,ME,NA,NA,94.20529801324503,NA
04901,Kennebec County,ME,NA,NA,NA,33.33333333333333
20636,St. Mary's County,MD,89.26553672316385,NA,NA,NA
20678,Calvert County,MD,NA,90.08620689655173,NA,NA
20743,Prince George's County,MD,NA,NA,68.04635761589404,NA
20783,Prince George's County,MD,85.59322033898306,NA,NA,NA
20816,Montgomery County,MD,78.24858757062147,93.87931034482759,NA,NA
20872,Montgomery County,MD,NA,97.75862068965517,NA,NA
20876,Montgomery County,MD,NA,69.74137931034483,NA,NA
20879,Montgomery County,MD,NA,84.22413793103448,NA,NA
20886,Montgomery County,MD,NA,NA,75.82781456953643,NA
21013,Baltimore County,MD,NA,96.8103448275862,NA,NA
21014,Harford County,MD,NA,44.91379310344827,NA,NA
21029,Howard County,MD,81.63841807909604,NA,NA,NA
21040,Harford County,MD,47.740112994350284,NA,NA,NA
21044,Howard County,MD,NA,NA,90.72847682119205,NA
21046,Howard County,MD,NA,89.82758620689654,NA,NA
21093,Baltimore County,MD,50,NA,NA,NA
21108,Anne Arundel County,MD,NA,NA,NA,98.90710382513662
21113,Anne Arundel County,MD,NA,59.310344827586206,NA,NA
21114,Anne Arundel County,MD,NA,66.98275862068965,NA,NA
21157,Carroll County,MD,NA,NA,NA,25.683060109289617
21209,Baltimore County,MD,NA,85.25862068965517,NA,NA
21228,Baltimore County,MD,NA,NA,12.91390728476821,NA
21229,Baltimore city,MD,NA,21.293103448275865,NA,NA
21236,Baltimore County,MD,NA,NA,NA,64.20765027322405
21401,Anne Arundel County,MD,NA,NA,34.7682119205298,NA
21853,Somerset County,MD,NA,91.89655172413794,NA,NA
21875,Wicomico County,MD,NA,96.20689655172414,NA,NA
21901,Cecil County,MD,87.85310734463276,NA,NA,NA
01002,Hampshire County,MA,NA,42.06896551724138,NA,NA
01035,Hampshire County,MA,NA,NA,NA,85.79234972677595
01085,Hampden County,MA,NA,NA,2.4834437086092715,NA
01118,Hampden County,MA,NA,NA,NA,54.644808743169406
01119,Hampden County,MA,NA,NA,50.16556291390728,NA
01201,Berkshire County,MA,NA,0.1724137931034483,NA,NA
01420,Worcester County,MA,NA,0.3448275862068966,NA,NA
01440,Worcester County,MA,NA,2.413793103448276,NA,13.661202185792352
01505,Worcester County,MA,NA,94.22413793103448,NA,NA
01545,Worcester County,MA,12.994350282485875,NA,NA,NA
01569,Worcester County,MA,44.632768361581924,39.13793103448276,NA,NA
01581,Worcester County,MA,45.19774011299435,NA,NA,NA
01604,Worcester County,MA,NA,8.620689655172415,NA,NA
01605,Worcester County,MA,NA,1.810344827586207,NA,NA
01607,Worcester County,MA,NA,16.637931034482758,NA,NA
01609,Worcester County,MA,NA,NA,NA,6.830601092896176
01610,Worcester County,MA,NA,6.724137931034482,4.470198675496689,NA
01701,Middlesex County,MA,NA,13.017241379310345,NA,11.202185792349727
01721,Middlesex County,MA,NA,36.206896551724135,NA,NA
01742,Middlesex County,MA,NA,57.58620689655173,NA,NA
01757,Worcester County,MA,NA,NA,6.125827814569536,NA
01778,Middlesex County,MA,NA,79.74137931034483,NA,NA
01810,Essex County,MA,NA,16.982758620689655,NA,NA
01821,Middlesex County,MA,NA,6.637931034482758,NA,NA
01824,Middlesex County,MA,32.48587570621469,NA,NA,NA
01826,Middlesex County,MA,NA,25,NA,NA
01832,Essex County,MA,NA,NA,62.41721854304636,NA
01841,Essex County,MA,NA,1.4655172413793103,NA,NA
01845,Essex County,MA,NA,30.603448275862068,NA,NA
01850,Middlesex County,MA,NA,9.655172413793103,NA,NA
01890,Middlesex County,MA,26.27118644067797,NA,NA,NA
01906,Essex County,MA,NA,NA,NA,8.469945355191257
01915,Essex County,MA,NA,15.689655172413794,NA,NA
01923,Essex County,MA,NA,NA,6.622516556291391,NA
01938,Essex County,MA,NA,NA,17.549668874172188,NA
01952,Essex County,MA,NA,28.706896551724135,NA,NA
01982,Essex County,MA,NA,NA,95.52980132450331,NA
02019,Norfolk County,MA,NA,NA,NA,46.17486338797814
02056,Norfolk County,MA,NA,89.05172413793103,98.67549668874173,NA
02062,Norfolk County,MA,NA,NA,45.033112582781456,NA
02114,Suffolk County,MA,NA,20.775862068965516,NA,NA
02115,Suffolk County,MA,NA,8.103448275862068,NA,NA
02119,Suffolk County,MA,NA,14.051724137931036,NA,NA
02121,Suffolk County,MA,NA,0.5172413793103449,NA,NA
02122,Suffolk County,MA,NA,1.9827586206896552,NA,NA
02124,Suffolk County,MA,NA,0,0.16556291390728478,NA
02125,Suffolk County,MA,NA,0.603448275862069,NA,NA
02126,Suffolk County,MA,NA,0.6896551724137931,NA,NA
02128,Suffolk County,MA,NA,NA,NA,36.0655737704918
02132,Suffolk County,MA,NA,NA,NA,36.6120218579235
02135,Suffolk County,MA,NA,NA,10.264900662251655,1.639344262295082
02143,Middlesex County,MA,NA,7.06896551724138,10.927152317880795,NA
02145,Middlesex County,MA,NA,6.379310344827586,NA,NA
02148,Middlesex County,MA,NA,0.9482758620689655,0.49668874172185434,NA
02149,Middlesex County,MA,NA,3.189655172413793,NA,NA
02150,Suffolk County,MA,NA,0.8620689655172413,11.920529801324504,NA
02151,Suffolk County,MA,0.2824858757062147,2.2413793103448274,36.920529801324506,NA
02152,Suffolk County,MA,NA,15.60344827586207,NA,NA
02169,Norfolk County,MA,NA,NA,0.8278145695364238,NA
02186,Norfolk County,MA,NA,NA,NA,56.830601092896174
02190,Norfolk County,MA,NA,NA,NA,57.103825136612016
02301,Plymouth County,MA,NA,0.08620689655172414,0,NA
02368,Norfolk County,MA,NA,17.32758620689655,NA,NA
02465,Middlesex County,MA,NA,88.62068965517241,NA,NA
02467,Norfolk County,MA,NA,NA,NA,36.33879781420765
02472,Middlesex County,MA,NA,9.137931034482758,7.9470198675496695,NA
02478,Middlesex County,MA,NA,NA,NA,42.349726775956285
02492,Norfolk County,MA,40.3954802259887,NA,NA,NA
02657,Barnstable County,MA,NA,90.25862068965517,NA,NA
02660,Barnstable County,MA,NA,89.22413793103449,NA,NA
02667,Barnstable County,MA,NA,98.10344827586206,NA,NA
02720,Bristol County,MA,NA,0.25862068965517243,NA,NA
02723,Bristol County,MA,NA,3.2758620689655173,NA,NA
02746,Bristol County,MA,NA,NA,39.23841059602649,NA
02764,Bristol County,MA,96.61016949152543,NA,NA,NA
02777,Bristol County,MA,NA,35.3448275862069,NA,NA
02779,Bristol County,MA,85.87570621468926,NA,NA,NA
02780,Bristol County,MA,NA,4.741379310344827,NA,NA
48003,Lapeer County,MI,NA,86.98275862068967,NA,NA
48035,Macomb County,MI,NA,11.982758620689655,NA,NA
48038,Macomb County,MI,NA,NA,NA,30.87431693989071
48044,Macomb County,MI,NA,NA,6.95364238410596,NA
48047,Macomb County,MI,NA,17.5,NA,NA
48066,Macomb County,MI,NA,21.637931034482758,9.271523178807946,NA
48071,Oakland County,MI,NA,28.620689655172416,NA,NA
48074,St. Clair County,MI,NA,71.03448275862068,NA,NA
48075,Oakland County,MI,78.53107344632768,NA,NA,30.327868852459016
48084,Oakland County,MI,NA,78.96551724137932,NA,NA
48103,Washtenaw County,MI,20.056497175141246,NA,NA,2.459016393442623
48105,Washtenaw County,MI,NA,42.32758620689655,NA,NA
48116,Livingston County,MI,NA,NA,17.218543046357617,NA
48118,Washtenaw County,MI,NA,NA,36.75496688741722,NA
48126,Wayne County,MI,NA,12.413793103448276,NA,NA
48146,Wayne County,MI,NA,NA,17.052980132450333,NA
48160,Washtenaw County,MI,NA,74.13793103448276,NA,NA
48162,Monroe County,MI,NA,15.258620689655173,NA,NA
48167,Oakland County,MI,NA,43.53448275862069,NA,NA
48170,Wayne County,MI,NA,17.586206896551722,NA,NA
48178,Oakland County,MI,NA,36.206896551724135,NA,NA
48180,Wayne County,MI,NA,NA,NA,2.73224043715847
48186,Wayne County,MI,NA,NA,12.08609271523179,NA
48188,Wayne County,MI,NA,NA,8.443708609271523,NA
48192,Wayne County,MI,NA,21.465517241379313,NA,NA
48198,Washtenaw County,MI,2.2598870056497176,NA,NA,NA
48203,Wayne County,MI,NA,18.79310344827586,NA,44.80874316939891
48204,Wayne County,MI,NA,12.155172413793103,NA,NA
48208,Wayne County,MI,NA,NA,90.06622516556291,NA
48213,Wayne County,MI,NA,13.534482758620689,NA,NA
48219,Wayne County,MI,NA,6.551724137931035,57.78145695364238,NA
48223,Wayne County,MI,NA,NA,71.02649006622516,NA
48225,Wayne County,MI,37.005649717514125,NA,NA,NA
48228,Wayne County,MI,0.847457627118644,2.1551724137931036,8.609271523178808,NA
48229,Wayne County,MI,NA,60.17241379310345,NA,NA
48230,Wayne County,MI,65.81920903954803,NA,NA,NA
48235,Wayne County,MI,NA,NA,3.80794701986755,NA
48239,Wayne County,MI,NA,10.517241379310345,NA,NA
48240,Wayne County,MI,NA,23.70689655172414,NA,NA
48304,Oakland County,MI,NA,68.1896551724138,NA,NA
48307,Oakland County,MI,NA,21.20689655172414,NA,NA
48312,Macomb County,MI,NA,27.93103448275862,NA,NA
48315,Macomb County,MI,NA,NA,21.026490066225165,NA
48317,Macomb County,MI,NA,25.43103448275862,57.11920529801324,NA
48335,Oakland County,MI,NA,54.741379310344826,NA,NA
48340,Oakland County,MI,15.254237288135593,NA,NA,NA
48348,Oakland County,MI,NA,NA,47.18543046357616,NA
48357,Oakland County,MI,NA,84.6551724137931,NA,NA
48374,Oakland County,MI,NA,75.60344827586208,NA,NA
48375,Oakland County,MI,NA,NA,NA,83.33333333333334
48383,Oakland County,MI,NA,NA,97.35099337748345,NA
48429,Shiawassee County,MI,92.09039548022598,NA,NA,NA
48438,Genesee County,MI,NA,93.62068965517241,NA,NA
48471,Sanilac County,MI,NA,NA,NA,66.66666666666666
48532,Genesee County,MI,NA,72.5,NA,NA
48601,Saginaw County,MI,NA,NA,NA,7.377049180327869
48602,Saginaw County,MI,NA,4.827586206896552,11.092715231788079,NA
48604,Saginaw County,MI,NA,59.224137931034484,NA,NA
48609,Saginaw County,MI,NA,NA,63.741721854304636,NA
48618,Midland County,MI,NA,86.55172413793103,NA,NA
48629,Roscommon County,MI,NA,NA,NA,84.97267759562843
48640,Midland County,MI,NA,38.70689655172414,NA,NA
48730,Iosco County,MI,81.35593220338984,NA,NA,NA
48759,Huron County,MI,NA,79.39655172413794,NA,NA
48808,Clinton County,MI,NA,94.74137931034483,NA,NA
48823,Ingham County,MI,NA,NA,29.304635761589402,NA
48838,Montcalm County,MI,NA,34.741379310344826,NA,NA
48843,Livingston County,MI,17.51412429378531,NA,NA,NA
48847,Gratiot County,MI,NA,NA,93.21192052980133,NA
48855,Livingston County,MI,NA,NA,NA,69.67213114754098
48858,Isabella County,MI,NA,7.758620689655173,NA,NA
48864,Ingham County,MI,76.27118644067797,NA,NA,NA
48893,Isabella County,MI,96.32768361581921,NA,NA,NA
48895,Ingham County,MI,NA,81.72413793103448,NA,NA
48910,Ingham County,MI,NA,NA,14.735099337748345,NA
49001,Kalamazoo County,MI,36.440677966101696,24.137931034482758,NA,NA
49036,Branch County,MI,NA,31.551724137931036,NA,NA
49048,Kalamazoo County,MI,NA,20.43103448275862,33.609271523178805,NA
49067,Cass County,MI,NA,NA,100,NA
49120,Berrien County,MI,NA,65.60344827586206,16.225165562913908,NA
49202,Jackson County,MI,72.03389830508475,NA,34.271523178807946,NA
49221,Lenawee County,MI,NA,23.53448275862069,5.4635761589403975,NA
49224,Calhoun County,MI,54.80225988700565,NA,NA,NA
49228,Lenawee County,MI,NA,91.29310344827586,NA,NA
49242,Hillsdale County,MI,NA,51.37931034482759,NA,NA
49251,Ingham County,MI,NA,88.27586206896552,NA,NA
49269,Jackson County,MI,NA,89.22413793103449,NA,NA
49319,Kent County,MI,NA,33.10344827586207,NA,NA
49341,Kent County,MI,NA,NA,NA,28.96174863387978
49343,Kent County,MI,NA,88.5344827586207,NA,NA
49348,Allegan County,MI,NA,35.689655172413794,NA,NA
49401,Ottawa County,MI,59.03954802259888,NA,NA,NA
49404,Ottawa County,MI,NA,87.67241379310344,NA,NA
49417,Ottawa County,MI,NA,20.517241379310345,NA,18.0327868852459
49423,Ottawa County,MI,NA,NA,9.602649006622517,NA
49431,Mason County,MI,NA,36.55172413793103,NA,NA
49442,Muskegon County,MI,2.5423728813559325,NA,NA,NA
49455,Oceana County,MI,70.05649717514125,NA,NA,NA
49546,Kent County,MI,NA,NA,34.93377483443709,NA
49548,Kent County,MI,NA,9.39655172413793,NA,NA
49684,Grand Traverse County,MI,NA,NA,NA,28.142076502732237
49707,Alpena County,MI,NA,34.05172413793103,NA,NA
49783,Chippewa County,MI,NA,23.448275862068964,NA,NA
49849,Marquette County,MI,NA,51.637931034482754,55.62913907284768,NA
49862,Alger County,MI,NA,NA,NA,90.43715846994536
49930,Houghton County,MI,74.29378531073446,78.36206896551724,NA,NA
55009,Goodhue County,MN,NA,NA,88.90728476821192,NA
55045,Chisago County,MN,NA,94.48275862068965,NA,NA
55051,Kanabec County,MN,NA,NA,70.86092715231787,NA
55056,Chisago County,MN,NA,NA,81.29139072847681,NA
55066,Goodhue County,MN,NA,49.310344827586206,NA,NA
55068,Dakota County,MN,NA,NA,96.68874172185431,NA
55104,Ramsey County,MN,NA,19.051724137931032,NA,NA
55105,Ramsey County,MN,NA,75.51724137931033,NA,NA
55110,Ramsey County,MN,NA,NA,39.900662251655625,NA
55113,Ramsey County,MN,NA,NA,74.83443708609272,NA
55119,Ramsey County,MN,9.322033898305085,NA,NA,NA
55122,Dakota County,MN,NA,NA,NA,60.92896174863388
55304,Anoka County,MN,NA,44.48275862068966,NA,NA
55311,Hennepin County,MN,NA,63.53448275862069,NA,NA
55369,Hennepin County,MN,NA,NA,NA,63.387978142076506
55387,Carver County,MN,NA,95.51724137931035,NA,NA
55404,Hennepin County,MN,NA,1.7241379310344827,NA,NA
55408,Hennepin County,MN,NA,13.879310344827585,NA,NA
55411,Hennepin County,MN,0.5649717514124294,NA,NA,NA
55418,Hennepin County,MN,NA,30.517241379310345,NA,NA
55421,Anoka County,MN,NA,23.879310344827587,NA,75.68306010928961
55423,Hennepin County,MN,NA,23.189655172413794,NA,NA
55424,Hennepin County,MN,NA,95.17241379310344,NA,NA
55426,Hennepin County,MN,NA,NA,41.72185430463576,NA
55439,Hennepin County,MN,NA,95.94827586206897,NA,NA
55442,Hennepin County,MN,NA,92.41379310344827,NA,87.1584699453552
55444,Hennepin County,MN,NA,59.6551724137931,NA,NA
55447,Hennepin County,MN,NA,NA,NA,82.78688524590164
55448,Anoka County,MN,NA,45.08620689655172,NA,NA
55449,Anoka County,MN,NA,NA,69.03973509933775,NA
55720,Carlton County,MN,NA,35.08620689655172,NA,NA
55744,Itasca County,MN,NA,NA,NA,7.103825136612022
55811,St. Louis County,MN,NA,NA,5.960264900662252,NA
55902,Olmsted County,MN,NA,NA,NA,66.12021857923497
55912,Mower County,MN,NA,8.793103448275861,NA,0.546448087431694
55987,Winona County,MN,NA,NA,NA,63.114754098360656
56001,Blue Earth County,MN,NA,NA,38.079470198675494,NA
56013,Faribault County,MN,NA,NA,NA,73.49726775956285
56031,Martin County,MN,NA,76.20689655172413,NA,NA
56048,Waseca County,MN,96.89265536723164,NA,NA,NA
56085,Brown County,MN,NA,97.06896551724138,NA,NA
56131,Murray County,MN,NA,99.56896551724138,NA,NA
56156,Rock County,MN,75.98870056497175,NA,NA,NA
56220,Yellow Medicine County,MN,NA,99.48275862068967,NA,NA
56258,Lyon County,MN,NA,NA,NA,47.81420765027322
56308,Douglas County,MN,NA,NA,NA,6.557377049180328
56334,Pope County,MN,NA,NA,74.66887417218543,NA
56364,Morrison County,MN,NA,NA,93.04635761589404,NA
56472,Crow Wing County,MN,NA,NA,NA,58.19672131147541
56482,Wadena County,MN,27.11864406779661,NA,NA,NA
56537,Otter Tail County,MN,NA,92.15517241379311,NA,NA
56560,Clay County,MN,NA,2.586206896551724,NA,NA
56573,Otter Tail County,MN,NA,NA,NA,70.21857923497268
38654,DeSoto County,MS,24.858757062146893,NA,23.67549668874172,NA
38655,Lafayette County,MS,NA,NA,66.3907284768212,NA
38671,DeSoto County,MS,25.98870056497175,NA,NA,NA
38672,DeSoto County,MS,NA,NA,93.54304635761589,NA
38732,Bolivar County,MS,31.35593220338983,NA,NA,NA
38751,Sunflower County,MS,NA,NA,72.01986754966887,NA
38827,Tishomingo County,MS,NA,94.6551724137931,NA,NA
38901,Grenada County,MS,53.954802259887,NA,NA,45.90163934426229
39042,Rankin County,MS,NA,37.06896551724138,NA,NA
39150,Claiborne County,MS,NA,95.86206896551724,NA,NA
39157,Madison County,MS,NA,68.62068965517241,NA,NA
39194,Yazoo County,MS,NA,NA,NA,80.60109289617486
39206,Hinds County,MS,46.89265536723164,NA,49.503311258278146,NA
39208,Rankin County,MS,NA,42.241379310344826,56.29139072847682,NA
39211,Hinds County,MS,40.11299435028249,NA,NA,NA
39401,Forrest County,MS,NA,35.172413793103445,NA,NA
39443,Jones County,MS,NA,NA,62.086092715231786,NA
39459,Jones County,MS,NA,99.82758620689656,NA,NA
39482,Lamar County,MS,NA,87.5,NA,NA
39503,Harrison County,MS,NA,NA,NA,7.650273224043716
39520,Hancock County,MS,63.559322033898304,NA,NA,NA
39669,Wilkinson County,MS,93.50282485875707,NA,NA,NA
39705,Lowndes County,MS,58.19209039548022,69.48275862068965,NA,NA
63005,St. Louis County,MO,NA,86.4655172413793,NA,NA
63026,St. Louis County,MO,NA,NA,13.245033112582782,NA
63052,Jefferson County,MO,23.163841807909606,NA,NA,NA
63077,Franklin County,MO,NA,NA,NA,93.16939890710383
63080,Franklin County,MO,NA,48.706896551724135,NA,NA
63112,St. Louis city,MO,46.04519774011299,NA,NA,NA
63123,St. Louis County,MO,NA,NA,NA,3.551912568306011
63130,St. Louis County,MO,NA,55.25862068965517,NA,NA
63146,St. Louis County,MO,NA,NA,NA,9.562841530054644
63304,St. Charles County,MO,NA,33.44827586206897,NA,NA
63376,St. Charles County,MO,NA,12.068965517241379,NA,NA
63383,Warren County,MO,NA,NA,NA,49.18032786885246
63670,Ste. Genevieve County,MO,NA,61.37931034482759,NA,NA
63740,Scott County,MO,NA,94.91379310344827,NA,NA
63830,Pemiscot County,MO,NA,NA,83.11258278145695,NA
63851,Pemiscot County,MO,67.79661016949152,NA,NA,NA
64015,Jackson County,MO,NA,16.810344827586206,NA,NA
64037,Lafayette County,MO,NA,NA,NA,84.69945355191257
64064,Jackson County,MO,NA,79.48275862068965,NA,NA
64068,Clay County,MO,NA,10.775862068965516,NA,NA
64077,Ray County,MO,NA,NA,98.84105960264901,NA
64082,Jackson County,MO,NA,72.1551724137931,NA,NA
64093,Johnson County,MO,NA,NA,38.907284768211916,NA
64114,Jackson County,MO,55.6497175141243,NA,NA,NA
64116,Clay County,MO,NA,NA,NA,82.5136612021858
64119,Clay County,MO,NA,13.189655172413794,NA,NA
64127,Jackson County,MO,NA,7.672413793103448,NA,NA
64133,Jackson County,MO,NA,5.775862068965517,NA,NA
64469,DeKalb County,MO,NA,NA,99.50331125827815,NA
64505,Buchanan County,MO,NA,35,NA,NA
64683,Grundy County,MO,NA,NA,NA,62.02185792349727
64801,Jasper County,MO,NA,46.55172413793103,NA,NA
64850,Newton County,MO,NA,50.689655172413794,23.344370860927153,NA
65065,Camden County,MO,NA,NA,69.86754966887418,NA
65202,Boone County,MO,1.694915254237288,NA,NA,NA
65203,Boone County,MO,NA,27.327586206896555,NA,NA
65265,Audrain County,MO,NA,60.862068965517246,NA,NA
65301,Pettis County,MO,NA,5.517241379310345,NA,NA
65459,Pulaski County,MO,NA,NA,83.94039735099338,NA
65806,Greene County,MO,NA,82.58620689655173,NA,NA
59230,Valley County,MT,NA,NA,97.84768211920529,NA
59715,Gallatin County,MT,NA,NA,38.41059602649007,NA
59802,Missoula County,MT,NA,NA,81.45695364238411,NA
59901,Flathead County,MT,NA,NA,NA,1.092896174863388
68104,Douglas County,NE,NA,NA,38.576158940397356,NA
68107,Douglas County,NE,NA,54.48275862068965,NA,NA
68116,Douglas County,NE,NA,62.672413793103445,NA,91.80327868852459
68134,Douglas County,NE,NA,NA,58.774834437086085,NA
68512,Lancaster County,NE,NA,92.5,NA,NA
68526,Lancaster County,NE,NA,NA,98.50993377483444,NA
68661,Colfax County,NE,91.24293785310734,NA,NA,NA
69101,Lincoln County,NE,NA,26.72413793103448,25.496688741721858,NA
89103,Clark County,NV,NA,56.03448275862068,NA,NA
89115,Clark County,NV,NA,56.63793103448276,NA,NA
89119,Clark County,NV,NA,24.137931034482758,NA,NA
89121,Clark County,NV,NA,30.344827586206897,NA,NA
89128,Clark County,NV,NA,54.05172413793103,NA,NA
89129,Clark County,NV,NA,51.89655172413793,NA,NA
89130,Clark County,NV,NA,NA,NA,80.87431693989072
89165,Clark County,NV,NA,95.6896551724138,NA,NA
89183,Clark County,NV,NA,65.86206896551724,NA,NA
89434,Washoe County,NV,NA,75.3448275862069,NA,NA
89441,Washoe County,NV,NA,NA,70.52980132450331,NA
89502,Washoe County,NV,NA,55.172413793103445,NA,NA
89503,Washoe County,NV,NA,61.37931034482759,NA,70.76502732240438
89506,Washoe County,NV,NA,21.982758620689655,NA,NA
89521,Washoe County,NV,NA,NA,35.59602649006622,NA
89701,Carson City,NV,NA,41.98275862068965,NA,NA
03038,Rockingham County,NH,NA,16.46551724137931,NA,NA
03060,Hillsborough County,NH,NA,8.275862068965518,NA,NA
03102,Hillsborough County,NH,NA,23.53448275862069,NA,NA
03244,Hillsborough County,NH,NA,NA,95.86092715231787,NA
03249,Belknap County,NH,73.1638418079096,NA,NA,NA
03276,Merrimack County,NH,NA,97.1551724137931,NA,NA
03303,Merrimack County,NH,NA,72.84482758620689,NA,NA
03570,Coos County,NH,NA,88.36206896551724,NA,NA
03862,Rockingham County,NH,NA,96.37931034482759,NA,NA
03867,Strafford County,NH,NA,NA,NA,5.46448087431694
03874,Rockingham County,NH,NA,NA,NA,52.459016393442624
03878,Strafford County,NH,NA,81.72413793103448,NA,NA
03894,Carroll County,NH,NA,99.13793103448276,NA,NA
07002,Hudson County,NJ,NA,NA,2.814569536423841,NA
07020,Bergen County,NJ,NA,NA,79.96688741721854,NA
07022,Bergen County,NJ,NA,NA,NA,68.0327868852459
07052,Essex County,NJ,NA,NA,NA,21.85792349726776
07082,Morris County,NJ,NA,NA,NA,100
07087,Hudson County,NJ,NA,NA,5.7947019867549665,NA
07093,Hudson County,NJ,NA,NA,45.52980132450331,NA
07102,Essex County,NJ,NA,66.0344827586207,75.49668874172185,NA
07104,Essex County,NJ,NA,18.448275862068968,NA,NA
07108,Essex County,NJ,NA,16.206896551724135,NA,NA
07109,Essex County,NJ,NA,17.93103448275862,NA,NA
07111,Essex County,NJ,NA,1.5517241379310345,NA,NA
07206,Union County,NJ,7.909604519774012,10.258620689655173,NA,NA
07208,Union County,NJ,NA,NA,86.09271523178808,NA
07302,Hudson County,NJ,NA,91.29310344827586,NA,NA
07306,Hudson County,NJ,NA,NA,12.582781456953644,NA
07403,Passaic County,NJ,NA,58.53448275862069,NA,NA
07504,Passaic County,NJ,NA,NA,NA,93.44262295081968
07506,Passaic County,NJ,NA,NA,59.10596026490066,NA
07652,Bergen County,NJ,NA,NA,NA,15.300546448087433
07656,Bergen County,NJ,NA,91.72413793103448,NA,NA
07712,Monmouth County,NJ,NA,NA,35.099337748344375,NA
07728,Monmouth County,NJ,NA,NA,15.728476821192054,NA
07730,Monmouth County,NJ,NA,58.01724137931035,NA,NA
07740,Monmouth County,NJ,NA,31.810344827586206,NA,NA
07757,Monmouth County,NJ,93.50282485875707,NA,NA,92.62295081967213
07853,Morris County,NJ,95.19774011299435,NA,NA,NA
07866,Morris County,NJ,NA,66.72413793103448,NA,NA
07885,Morris County,NJ,NA,81.12068965517241,NA,NA
07960,Morris County,NJ,NA,NA,NA,25.136612021857925
08003,Camden County,NJ,NA,NA,NA,74.31693989071039
08004,Camden County,NJ,NA,59.05172413793104,NA,NA
08009,Camden County,NJ,NA,61.293103448275865,NA,NA
08012,Camden County,NJ,14.689265536723164,7.155172413793104,NA,NA
08043,Camden County,NJ,NA,NA,NA,24.043715846994534
08062,Gloucester County,NJ,57.6271186440678,NA,NA,NA
08067,Salem County,NJ,NA,NA,99.66887417218543,NA
08069,Salem County,NJ,NA,NA,NA,59.56284153005464
08070,Salem County,NJ,NA,NA,54.63576158940398,NA
08078,Camden County,NJ,NA,63.275862068965516,NA,NA
08079,Salem County,NJ,NA,46.89655172413793,NA,NA
08102,Camden County,NJ,NA,NA,83.77483443708608,NA
08103,Camden County,NJ,NA,NA,NA,62.568306010928964
08109,Camden County,NJ,NA,NA,40.397350993377486,NA
08204,Cape May County,NJ,NA,NA,NA,36.885245901639344
08210,Cape May County,NJ,NA,NA,46.19205298013245,NA
08401,Atlantic County,NJ,3.954802259887006,0.43103448275862066,NA,NA
08518,Burlington County,NJ,NA,83.27586206896552,NA,NA
08609,Mercer County,NJ,NA,13.448275862068964,NA,NA
08619,Mercer County,NJ,NA,51.98275862068965,NA,NA
08638,Mercer County,NJ,NA,NA,94.86754966887418,NA
08648,Mercer County,NJ,NA,46.724137931034484,NA,NA
08753,Ocean County,NJ,NA,19.137931034482758,NA,NA
08757,Ocean County,NJ,NA,NA,4.801324503311259,0.273224043715847
08804,Hunterdon County,NJ,92.65536723163842,NA,NA,NA
08810,Middlesex County,NJ,NA,NA,95.19867549668875,NA
08854,Middlesex County,NJ,38.983050847457626,NA,NA,NA
08865,Warren County,NJ,NA,67.93103448275862,NA,NA
08873,Somerset County,NJ,49.717514124293785,NA,NA,NA
08876,Somerset County,NJ,NA,NA,60.099337748344375,NA
87031,Valencia County,NM,33.05084745762712,NA,NA,NA
87043,Sandoval County,NM,NA,NA,78.80794701986756,NA
87105,Bernalillo County,NM,NA,5.344827586206897,NA,NA
87107,Bernalillo County,NM,NA,35.60344827586207,NA,NA
87108,Bernalillo County,NM,NA,8.189655172413794,NA,NA
87110,Bernalillo County,NM,NA,14.482758620689657,NA,NA
87113,Bernalillo County,NM,89.83050847457628,NA,NA,NA
87123,Bernalillo County,NM,NA,NA,31.125827814569533,NA
87124,Sandoval County,NM,NA,NA,NA,14.754098360655737
88101,Curry County,NM,NA,37.8448275862069,NA,NA
88130,Roosevelt County,NM,NA,68.36206896551724,NA,NA
88203,Chaves County,NM,NA,54.91379310344827,NA,NA
88240,Lea County,NM,NA,NA,19.370860927152318,NA
10002,New York County,NY,NA,NA,NA,61.20218579234973
10011,New York County,NY,NA,NA,NA,17.48633879781421
10017,New York County,NY,NA,NA,66.55629139072848,NA
10019,New York County,NY,NA,65.25862068965517,NA,NA
10026,New York County,NY,34.74576271186441,60.60344827586207,NA,NA
10027,New York County,NY,NA,26.637931034482758,NA,NA
10029,New York County,NY,NA,17.24137931034483,NA,NA
10030,New York County,NY,NA,25.862068965517242,29.96688741721854,NA
10031,New York County,NY,NA,10.344827586206897,NA,NA
10035,New York County,NY,NA,NA,9.437086092715232,NA
10036,New York County,NY,NA,NA,49.17218543046358,NA
10037,New York County,NY,NA,41.89655172413793,NA,NA
10306,Richmond County,NY,NA,22.586206896551726,NA,NA
10314,Richmond County,NY,NA,45.258620689655174,NA,NA
10452,Bronx County,NY,NA,1.1206896551724137,NA,NA
10453,Bronx County,NY,NA,1.206896551724138,1.490066225165563,NA
10455,Bronx County,NY,NA,5.775862068965517,NA,NA
10458,Bronx County,NY,NA,NA,NA,9.01639344262295
10466,Bronx County,NY,10.451977401129943,NA,NA,NA
10468,Bronx County,NY,NA,NA,19.205298013245034,NA
10469,Bronx County,NY,NA,NA,NA,33.60655737704918
10475,Bronx County,NY,NA,27.844827586206893,NA,NA
10509,Putnam County,NY,NA,NA,58.609271523178805,NA
10552,Westchester County,NY,NA,NA,NA,71.58469945355192
10589,Westchester County,NY,NA,NA,NA,51.36612021857923
10591,Westchester County,NY,NA,NA,98.34437086092716,NA
10601,Westchester County,NY,NA,NA,NA,77.59562841530054
10701,Westchester County,NY,NA,2.0689655172413794,NA,NA
11106,Queens County,NY,NA,79.05172413793103,NA,NA
11206,Kings County,NY,NA,NA,NA,6.284153005464481
11207,Kings County,NY,NA,NA,27.980132450331123,NA
11208,Kings County,NY,NA,1.6379310344827587,NA,NA
11210,Kings County,NY,NA,46.810344827586206,NA,NA
11211,Kings County,NY,NA,NA,20.364238410596027,NA
11214,Kings County,NY,NA,NA,11.589403973509933,NA
11217,Kings County,NY,NA,44.224137931034484,NA,NA
11226,Kings County,NY,NA,NA,3.145695364238411,NA
11364,Queens County,NY,NA,NA,70.19867549668875,NA
11368,Queens County,NY,NA,32.93103448275862,NA,NA
11372,Queens County,NY,NA,33.53448275862069,NA,NA
11418,Queens County,NY,NA,NA,NA,98.08743169398907
11420,Queens County,NY,NA,NA,38.741721854304636,NA
11550,Nassau County,NY,NA,NA,18.211920529801322,NA
11558,Nassau County,NY,NA,NA,78.64238410596026,NA
11561,Nassau County,NY,NA,74.74137931034483,NA,NA
11566,Nassau County,NY,NA,NA,50.496688741721854,NA
11795,Suffolk County,NY,NA,NA,70.36423841059603,NA
11946,Suffolk County,NY,NA,NA,88.74172185430463,NA
12043,Schoharie County,NY,NA,NA,NA,69.39890710382514
12167,Delaware County,NY,NA,NA,98.01324503311258,NA
12180,Rensselaer County,NY,NA,2.9310344827586206,NA,NA
12182,Rensselaer County,NY,NA,52.8448275862069,NA,NA
12534,Columbia County,NY,NA,18.96551724137931,NA,NA
12589,Ulster County,NY,NA,NA,NA,96.44808743169399
12883,Essex County,NY,85.02824858757062,NA,NA,NA
12901,Clinton County,NY,NA,NA,NA,9.836065573770492
12918,Clinton County,NY,97.17514124293785,NA,NA,NA
12983,Franklin County,NY,62.71186440677966,NA,NA,NA
13021,Cayuga County,NY,27.683615819209038,NA,NA,NA
13078,Onondaga County,NY,NA,NA,NA,89.61748633879782
13104,Onondaga County,NY,NA,NA,47.51655629139073,NA
13132,Oswego County,NY,NA,93.27586206896552,NA,NA
13209,Onondaga County,NY,NA,50.08620689655172,NA,NA
13210,Onondaga County,NY,56.21468926553672,38.275862068965516,NA,NA
13215,Onondaga County,NY,NA,54.82758620689655,NA,NA
13340,Herkimer County,NY,72.88135593220339,58.44827586206897,NA,NA
13413,Oneida County,NY,NA,NA,NA,29.78142076502732
13421,Madison County,NY,22.598870056497177,NA,NA,NA
13440,Oneida County,NY,NA,NA,5.629139072847682,NA
13460,Chenango County,NY,NA,53.189655172413794,NA,NA
13669,St. Lawrence County,NY,NA,73.53448275862068,NA,NA
13760,Broome County,NY,NA,1.3793103448275863,NA,NA
13790,Broome County,NY,NA,11.379310344827587,NA,NA
13797,Broome County,NY,94.91525423728814,NA,NA,NA
13820,Otsego County,NY,16.666666666666664,NA,NA,NA
13825,Otsego County,NY,NA,84.05172413793103,NA,NA
13827,Tioga County,NY,NA,NA,NA,54.91803278688525
13850,Broome County,NY,NA,NA,4.304635761589404,NA
13862,Broome County,NY,NA,NA,85.9271523178808,NA
13905,Broome County,NY,2.824858757062147,2.5,NA,NA
14036,Genesee County,NY,NA,87.06896551724138,NA,NA
14075,Erie County,NY,NA,36.03448275862069,NA,NA
14085,Erie County,NY,NA,83.53448275862068,NA,NA
14086,Erie County,NY,NA,NA,21.357615894039736,NA
14092,Niagara County,NY,NA,53.96551724137931,49.668874172185426,NA
14094,Niagara County,NY,NA,2.7586206896551726,NA,NA
14216,Erie County,NY,NA,30.689655172413794,NA,NA
14221,Erie County,NY,NA,13.96551724137931,NA,NA
14411,Orleans County,NY,NA,29.655172413793103,NA,NA
14414,Livingston County,NY,54.51977401129944,NA,NA,NA
14420,Monroe County,NY,NA,19.310344827586206,NA,NA
14464,Monroe County,NY,61.86440677966102,NA,NA,NA
14482,Genesee County,NY,NA,NA,68.87417218543047,NA
14487,Livingston County,NY,NA,NA,60.264900662251655,NA
14505,Wayne County,NY,NA,NA,69.20529801324503,NA
14510,Livingston County,NY,NA,62.327586206896555,NA,NA
14550,Wyoming County,NY,NA,NA,96.52317880794702,NA
14580,Monroe County,NY,NA,1.293103448275862,0.6622516556291391,NA
14611,Monroe County,NY,NA,8.53448275862069,NA,NA
14613,Monroe County,NY,NA,NA,37.25165562913907,NA
14615,Monroe County,NY,NA,NA,35.76158940397351,NA
14617,Monroe County,NY,38.70056497175141,50.94827586206897,NA,NA
14619,Monroe County,NY,45.19774011299435,NA,NA,NA
14620,Monroe County,NY,NA,7.413793103448276,NA,NA
14621,Monroe County,NY,3.1073446327683616,NA,NA,NA
14623,Monroe County,NY,NA,51.810344827586206,NA,NA
14624,Monroe County,NY,NA,NA,2.3178807947019866,NA
14701,Chautauqua County,NY,NA,3.9655172413793105,NA,NA
14812,Schuyler County,NY,NA,85,NA,NA
14845,Chemung County,NY,NA,NA,29.80132450331126,NA
14867,Tompkins County,NY,NA,NA,59.27152317880795,NA
14870,Steuben County,NY,74.29378531073446,NA,NA,NA
14871,Chemung County,NY,NA,90.3448275862069,NA,NA
14886,Tompkins County,NY,NA,65.08620689655173,NA,NA
14904,Chemung County,NY,NA,30.17241379310345,NA,NA
14905,Chemung County,NY,92.37288135593221,NA,NA,NA
27011,Yadkin County,NC,NA,NA,NA,85.51912568306011
27012,Forsyth County,NC,NA,33.793103448275865,NA,NA
27040,Forsyth County,NC,NA,71.63793103448276,NA,NA
27048,Rockingham County,NC,NA,73.87931034482759,NA,NA
27103,Forsyth County,NC,NA,18.275862068965516,NA,NA
27127,Forsyth County,NC,35.31073446327684,NA,NA,NA
27203,Randolph County,NC,NA,NA,51.158940397350996,NA
27217,Alamance County,NC,40.96045197740113,16.46551724137931,NA,NA
27249,Guilford County,NC,NA,80.60344827586206,NA,NA
27278,Orange County,NC,NA,25.086206896551722,NA,21.03825136612022
27284,Forsyth County,NC,NA,31.637931034482758,NA,NA
27302,Alamance County,NC,39.83050847457627,NA,NA,NA
27317,Randolph County,NC,NA,NA,69.37086092715232,NA
27360,Davidson County,NC,NA,22.5,NA,NA
27511,Wake County,NC,NA,NA,NA,40.98360655737705
27519,Wake County,NC,NA,52.1551724137931,NA,NA
27524,Johnston County,NC,NA,88.79310344827587,NA,NA
27537,Vance County,NC,NA,39.13793103448276,NA,NA
27545,Wake County,NC,51.41242937853108,NA,NA,74.59016393442623
27546,Harnett County,NC,NA,63.36206896551724,NA,NA
27563,Warren County,NC,NA,NA,75.16556291390728,NA
27565,Granville County,NC,NA,NA,NA,32.78688524590164
27574,Person County,NC,NA,67.32758620689656,NA,NA
27587,Wake County,NC,18.361581920903955,NA,NA,NA
27596,Franklin County,NC,NA,NA,62.251655629139066,NA
27606,Wake County,NC,NA,50.775862068965516,NA,52.732240437158474
27609,Wake County,NC,NA,38.96551724137931,NA,NA
27610,Wake County,NC,NA,NA,6.788079470198675,NA
27612,Wake County,NC,NA,NA,40.894039735099334,NA
27613,Wake County,NC,59.887005649717516,NA,NA,NA
27615,Wake County,NC,NA,NA,NA,16.666666666666664
27707,Durham County,NC,24.576271186440678,NA,NA,NA
27892,Martin County,NC,NA,51.206896551724135,NA,NA
27909,Pasquotank County,NC,NA,NA,13.079470198675496,NA
27910,Hertford County,NC,64.97175141242938,NA,NA,NA
27948,Dare County,NC,NA,63.706896551724135,NA,NA
28016,Gaston County,NC,NA,49.137931034482754,NA,NA
28034,Gaston County,NC,NA,75.43103448275862,NA,NA
28052,Gaston County,NC,17.231638418079097,NA,NA,NA
28078,Mecklenburg County,NC,NA,NA,35.430463576158935,NA
28090,Cleveland County,NC,NA,69.82758620689656,NA,NA
28110,Union County,NC,NA,NA,17.3841059602649,NA
28117,Iredell County,NC,48.87005649717514,33.53448275862069,NA,NA
28146,Rowan County,NC,NA,NA,46.52317880794702,43.169398907103826
28150,Cleveland County,NC,NA,25.086206896551722,NA,NA
28152,Cleveland County,NC,NA,40.43103448275862,NA,NA
28164,Gaston County,NC,81.07344632768361,NA,72.35099337748345,NA
28206,Mecklenburg County,NC,NA,44.827586206896555,NA,NA
28208,Mecklenburg County,NC,NA,NA,26.32450331125828,NA
28209,Mecklenburg County,NC,NA,NA,67.71523178807946,NA
28210,Mecklenburg County,NC,NA,55.68965517241379,NA,NA
28213,Mecklenburg County,NC,NA,NA,NA,76.50273224043715
28214,Mecklenburg County,NC,NA,NA,86.25827814569537,NA
28273,Mecklenburg County,NC,NA,47.672413793103445,NA,NA
28277,Mecklenburg County,NC,NA,45.43103448275862,NA,NA
28334,Sampson County,NC,NA,30.086206896551726,NA,NA
28358,Robeson County,NC,NA,NA,31.788079470198678,NA
28364,Robeson County,NC,NA,NA,NA,79.78142076502732
28398,Duplin County,NC,85.02824858757062,NA,NA,NA
28401,New Hanover County,NC,NA,12.672413793103448,NA,NA
28403,New Hanover County,NC,NA,43.103448275862064,NA,NA
28409,New Hanover County,NC,NA,NA,18.046357615894042,NA
28467,Brunswick County,NC,NA,97.5,NA,NA
28501,Lenoir County,NC,NA,47.32758620689655,NA,NA
28546,Onslow County,NC,NA,NA,NA,41.53005464480874
28580,Greene County,NC,NA,NA,77.98013245033113,NA
28601,Catawba County,NC,NA,17.67241379310345,NA,NA
28613,Catawba County,NC,NA,73.70689655172413,NA,NA
28630,Caldwell County,NC,NA,80.08620689655173,NA,NA
28638,Caldwell County,NC,42.93785310734463,NA,NA,NA
28645,Caldwell County,NC,NA,5.172413793103448,1.3245033112582782,NA
28658,Catawba County,NC,NA,NA,NA,51.09289617486339
28697,Wilkes County,NC,NA,64.91379310344828,NA,NA
28722,Polk County,NC,NA,NA,90.56291390728477,NA
28731,Henderson County,NC,NA,NA,53.807947019867555,NA
28752,McDowell County,NC,NA,19.482758620689655,NA,NA
28792,Henderson County,NC,NA,34.48275862068966,NA,NA
58601,Stark County,ND,NA,47.1551724137931,NA,NA
43015,Delaware County,OH,NA,18.103448275862068,NA,NA
43023,Licking County,OH,NA,87.93103448275862,NA,NA
43040,Union County,OH,NA,NA,20.86092715231788,NA
43050,Knox County,OH,NA,9.310344827586208,NA,NA
43055,Licking County,OH,NA,NA,1.8211920529801324,NA
43068,Franklin County,OH,NA,11.810344827586206,10.43046357615894,NA
43082,Delaware County,OH,NA,84.39655172413794,NA,NA
43085,Franklin County,OH,NA,NA,NA,53.278688524590166
43119,Franklin County,OH,NA,NA,52.317880794701985,NA
43123,Franklin County,OH,NA,NA,NA,15.573770491803279
43130,Fairfield County,OH,NA,14.13793103448276,2.980132450331126,NA
43160,Fayette County,OH,11.864406779661017,NA,NA,NA
43211,Franklin County,OH,4.519774011299435,NA,NA,NA
43213,Franklin County,OH,NA,38.01724137931035,NA,NA
43223,Franklin County,OH,NA,NA,27.483443708609272,NA
43228,Franklin County,OH,NA,4.568965517241379,NA,NA
43229,Franklin County,OH,NA,7.844827586206897,NA,NA
43232,Franklin County,OH,NA,5.43103448275862,NA,NA
43235,Franklin County,OH,NA,48.62068965517241,NA,NA
43357,Logan County,OH,NA,NA,95.36423841059603,71.31147540983606
43402,Wood County,OH,NA,NA,15.894039735099339,NA
43420,Sandusky County,OH,NA,12.586206896551724,NA,NA
43440,Ottawa County,OH,NA,NA,NA,83.87978142076503
43452,Ottawa County,OH,NA,48.10344827586207,NA,NA
43502,Fulton County,OH,NA,82.41379310344827,NA,NA
43512,Defiance County,OH,NA,23.79310344827586,NA,NA
43515,Fulton County,OH,NA,68.44827586206897,NA,NA
43522,Wood County,OH,NA,NA,98.17880794701986,NA
43607,Lucas County,OH,NA,7.5,NA,NA
43612,Lucas County,OH,3.389830508474576,NA,NA,NA
43616,Lucas County,OH,NA,16.379310344827587,NA,NA
43623,Lucas County,OH,NA,61.810344827586206,NA,NA
43701,Muskingum County,OH,NA,NA,0.9933774834437087,NA
43812,Coshocton County,OH,13.841807909604519,NA,58.11258278145696,NA
43821,Muskingum County,OH,NA,82.1551724137931,NA,NA
43952,Jefferson County,OH,NA,9.482758620689655,NA,NA
44028,Lorain County,OH,NA,84.48275862068965,NA,NA
44035,Lorain County,OH,NA,3.8793103448275863,NA,3.825136612021858
44041,Ashtabula County,OH,51.69491525423729,NA,NA,NA
44052,Lorain County,OH,NA,19.74137931034483,NA,NA
44056,Summit County,OH,NA,67.58620689655173,NA,NA
44057,Lake County,OH,41.80790960451977,NA,NA,NA
44060,Lake County,OH,NA,NA,8.774834437086094,NA
44076,Ashtabula County,OH,88.4180790960452,77.8448275862069,NA,NA
44077,Lake County,OH,NA,4.482758620689655,NA,NA
44095,Lake County,OH,NA,NA,NA,34.69945355191257
44102,Cuyahoga County,OH,0,NA,82.45033112582782,NA
44104,Cuyahoga County,OH,NA,5.689655172413794,NA,NA
44105,Cuyahoga County,OH,24.293785310734464,1.0344827586206897,NA,NA
44106,Cuyahoga County,OH,NA,12.327586206896552,NA,NA
44107,Cuyahoga County,OH,NA,2.6724137931034484,3.642384105960265,NA
44108,Cuyahoga County,OH,NA,NA,55.29801324503312,NA
44109,Cuyahoga County,OH,NA,0.7758620689655172,NA,NA
44111,Cuyahoga County,OH,26.55367231638418,NA,NA,NA
44116,Cuyahoga County,OH,NA,NA,30.29801324503311,NA
44117,Cuyahoga County,OH,NA,45.51724137931035,NA,NA
44120,Cuyahoga County,OH,11.016949152542372,NA,23.509933774834437,NA
44124,Cuyahoga County,OH,NA,60.3448275862069,NA,NA
44125,Cuyahoga County,OH,NA,11.89655172413793,NA,NA
44127,Cuyahoga County,OH,NA,85.08620689655172,NA,NA
44128,Cuyahoga County,OH,NA,3.706896551724138,NA,NA
44130,Cuyahoga County,OH,NA,6.120689655172414,NA,NA
44131,Cuyahoga County,OH,NA,NA,NA,6.0109289617486334
44134,Cuyahoga County,OH,4.23728813559322,NA,2.6490066225165565,NA
44137,Cuyahoga County,OH,NA,7.327586206896551,NA,NA
44142,Cuyahoga County,OH,NA,29.655172413793103,NA,NA
44146,Cuyahoga County,OH,NA,NA,2.152317880794702,NA
44201,Portage County,OH,NA,NA,79.47019867549669,NA
44212,Medina County,OH,NA,4.310344827586207,NA,3.0054644808743167
44221,Summit County,OH,NA,NA,69.70198675496688,17.21311475409836
44231,Portage County,OH,NA,NA,NA,81.4207650273224
44256,Medina County,OH,11.299435028248588,NA,NA,NA
44266,Portage County,OH,12.711864406779661,36.98275862068965,NA,NA
44281,Medina County,OH,NA,NA,14.56953642384106,NA
44305,Summit County,OH,NA,NA,90.39735099337747,NA
44306,Summit County,OH,NA,58.87931034482759,NA,NA
44307,Summit County,OH,56.21468926553672,NA,NA,NA
44405,Mahoning County,OH,NA,91.0344827586207,NA,NA
44408,Columbiana County,OH,NA,90.17241379310344,NA,NA
44410,Trumbull County,OH,61.016949152542374,NA,NA,NA
44436,Mahoning County,OH,NA,97.67241379310346,NA,NA
44446,Trumbull County,OH,NA,NA,17.880794701986755,NA
44512,Mahoning County,OH,NA,39.56896551724138,NA,NA
44601,Stark County,OH,NA,NA,NA,12.295081967213115
44622,Tuscarawas County,OH,68.36158192090396,NA,NA,NA
44707,Stark County,OH,NA,NA,73.34437086092716,NA
44721,Stark County,OH,95.48022598870057,NA,NA,NA
44805,Ashland County,OH,13.27683615819209,NA,NA,NA
44807,Seneca County,OH,NA,NA,99.83443708609272,NA
44827,Crawford County,OH,NA,NA,72.51655629139073,NA
44839,Erie County,OH,NA,NA,91.05960264900662,NA
44870,Erie County,OH,NA,NA,NA,5.737704918032787
44883,Seneca County,OH,20.056497175141246,NA,NA,NA
44890,Huron County,OH,NA,43.79310344827586,NA,NA
45005,Warren County,OH,NA,10.948275862068964,NA,NA
45011,Butler County,OH,NA,3.103448275862069,3.9735099337748347,NA
45013,Butler County,OH,NA,4.396551724137931,NA,NA
45014,Butler County,OH,NA,18.189655172413794,NA,NA
45015,Butler County,OH,NA,NA,84.76821192052981,NA
45066,Warren County,OH,65.5367231638418,NA,NA,NA
45069,Butler County,OH,NA,25.517241379310345,NA,NA
45106,Clermont County,OH,NA,52.93103448275862,NA,NA
45107,Clinton County,OH,NA,83.9655172413793,NA,NA
45113,Clinton County,OH,NA,98.10344827586206,NA,NA
45133,Highland County,OH,NA,NA,NA,23.224043715846996
45140,Clermont County,OH,9.03954802259887,NA,NA,NA
45150,Clermont County,OH,36.15819209039548,70.60344827586206,32.78145695364238,NA
45157,Clermont County,OH,NA,NA,87.91390728476821,NA
45171,Brown County,OH,NA,94.39655172413794,NA,NA
45208,Hamilton County,OH,NA,NA,NA,71.85792349726776
45211,Hamilton County,OH,NA,11.293103448275863,NA,NA
45213,Hamilton County,OH,NA,NA,NA,81.9672131147541
45223,Hamilton County,OH,NA,NA,80.96026490066225,NA
45225,Hamilton County,OH,NA,69.13793103448276,NA,NA
45229,Hamilton County,OH,NA,32.8448275862069,NA,NA
45231,Hamilton County,OH,NA,NA,NA,16.120218579234972
45243,Hamilton County,OH,NA,NA,77.15231788079471,NA
45252,Hamilton County,OH,NA,99.91379310344828,NA,NA
45305,Greene County,OH,NA,74.74137931034483,NA,NA
45315,Montgomery County,OH,NA,98.36206896551725,NA,NA
45327,Montgomery County,OH,NA,77.32758620689654,NA,86.6120218579235
45342,Montgomery County,OH,NA,NA,NA,26.50273224043716
45345,Montgomery County,OH,NA,NA,NA,82.24043715846994
45356,Miami County,OH,NA,17.75862068965517,NA,NA
45365,Shelby County,OH,NA,NA,15.397350993377485,NA
45373,Miami County,OH,NA,31.46551724137931,NA,NA
45403,Montgomery County,OH,NA,39.827586206896555,NA,NA
45405,Montgomery County,OH,NA,26.89655172413793,NA,NA
45415,Montgomery County,OH,NA,95.43103448275862,NA,NA
45424,Montgomery County,OH,NA,13.10344827586207,NA,NA
45439,Montgomery County,OH,NA,54.39655172413793,NA,NA
45458,Montgomery County,OH,NA,41.55172413793103,NA,NA
45503,Clark County,OH,NA,53.79310344827586,NA,14.48087431693989
45601,Ross County,OH,NA,NA,0.33112582781456956,0
45619,Lawrence County,OH,NA,30.431034482758623,NA,NA
45638,Lawrence County,OH,NA,25.689655172413794,25.99337748344371,NA
45660,Adams County,OH,NA,NA,80.13245033112582,68.30601092896174
45662,Scioto County,OH,1.977401129943503,NA,NA,NA
45669,Lawrence County,OH,NA,21.379310344827587,NA,NA
45694,Scioto County,OH,NA,31.120689655172413,NA,NA
45750,Washington County,OH,NA,NA,1.1589403973509933,2.185792349726776
45769,Meigs County,OH,NA,85.17241379310346,NA,NA
45805,Allen County,OH,NA,17.155172413793103,NA,NA
45833,Allen County,OH,NA,NA,91.55629139072848,NA
45840,Hancock County,OH,NA,3.620689655172414,NA,11.475409836065573
45875,Putnam County,OH,NA,70.86206896551724,NA,NA
45885,Auglaize County,OH,NA,45.3448275862069,NA,53.825136612021865
45891,Van Wert County,OH,NA,32.758620689655174,NA,NA
73007,Oklahoma County,OK,NA,99.22413793103448,NA,NA
73071,Cleveland County,OK,NA,NA,76.49006622516556,NA
73072,Cleveland County,OK,NA,NA,28.311258278145697,NA
73107,Oklahoma County,OK,NA,NA,48.34437086092716,NA
73142,Oklahoma County,OK,NA,81.98275862068965,NA,NA
73160,Cleveland County,OK,NA,15,NA,NA
73162,Oklahoma County,OK,NA,NA,NA,23.497267759562842
73446,Marshall County,OK,80.22598870056498,NA,NA,NA
73644,Beckham County,OK,NA,NA,83.27814569536423,NA
73703,Garfield County,OK,NA,NA,NA,12.841530054644808
73801,Woodward County,OK,NA,65.08620689655173,NA,NA
74003,Osage County,OK,NA,66.20689655172414,NA,NA
74105,Tulsa County,OK,NA,72.24137931034483,NA,NA
74126,Tulsa County,OK,62.42937853107344,NA,NA,NA
74136,Tulsa County,OK,NA,NA,NA,35.24590163934426
74344,Delaware County,OK,NA,NA,NA,92.34972677595628
74354,Ottawa County,OK,NA,NA,49.337748344370866,63.934426229508205
74429,Wagoner County,OK,NA,77.41379310344828,NA,NA
74601,Kay County,OK,52.824858757062145,NA,NA,NA
74604,Kay County,OK,NA,82.41379310344827,NA,NA
74820,Pontotoc County,OK,NA,10,NA,NA
74857,Cleveland County,OK,NA,NA,81.78807947019867,NA
97008,Washington County,OR,NA,82.93103448275862,NA,NA
97030,Multnomah County,OR,NA,20.17241379310345,NA,NA
97058,Wasco County,OR,NA,44.05172413793104,NA,NA
97062,Washington County,OR,NA,60.689655172413794,NA,NA
97103,Clatsop County,OR,NA,NA,NA,24.863387978142075
97114,Yamhill County,OR,NA,96.63793103448276,NA,NA
97123,Washington County,OR,NA,NA,NA,27.322404371584703
97124,Washington County,OR,NA,NA,NA,32.51366120218579
97128,Yamhill County,OR,NA,22.06896551724138,NA,NA
97236,Multnomah County,OR,NA,22.844827586206897,NA,NA
72405,NA,NA,NA,98.62068965517241,NA,NA
97266,Multnomah County,OR,16.94915254237288,NA,85.76158940397352,NA
97317,Marion County,OR,NA,NA,58.94039735099338,NA
97322,Linn County,OR,NA,NA,14.23841059602649,NA
97338,Polk County,OR,NA,50.51724137931034,NA,NA
97374,Linn County,OR,NA,NA,80.96026490066225,NA
97405,Lane County,OR,NA,74.39655172413792,NA,NA
97424,Lane County,OR,NA,NA,39.569536423841065,41.2568306010929
97457,Douglas County,OR,NA,71.4655172413793,NA,NA
97467,Douglas County,OR,NA,NA,67.05298013245033,NA
97470,Douglas County,OR,NA,NA,27.31788079470199,NA
97479,Douglas County,OR,NA,73.44827586206897,NA,NA
97801,Umatilla County,OR,NA,81.63793103448276,NA,NA
15009,Beaver County,PA,NA,NA,NA,40.16393442622951
15057,Washington County,PA,NA,77.5,NA,NA
15068,Westmoreland County,PA,NA,22.32758620689655,NA,4.098360655737705
15084,Allegheny County,PA,NA,70,NA,NA
15116,Allegheny County,PA,NA,NA,NA,48.36065573770492
15132,Allegheny County,PA,NA,14.310344827586208,25.82781456953642,NA
15201,Allegheny County,PA,NA,61.63793103448276,NA,NA
15202,Allegheny County,PA,NA,55.00000000000001,NA,NA
15208,Allegheny County,PA,75.14124293785311,NA,NA,NA
15213,Allegheny County,PA,NA,72.5,NA,NA
15215,Allegheny County,PA,NA,NA,NA,62.841530054644814
15217,Allegheny County,PA,NA,61.63793103448276,NA,NA
15221,Allegheny County,PA,NA,20.25862068965517,NA,NA
15223,Allegheny County,PA,NA,85.43103448275862,NA,NA
15227,Allegheny County,PA,NA,40.775862068965516,NA,33.87978142076503
15235,Allegheny County,PA,NA,NA,54.3046357615894,NA
15243,Allegheny County,PA,64.68926553672316,NA,NA,NA
15401,Fayette County,PA,12.429378531073446,9.827586206896552,NA,NA
15601,Westmoreland County,PA,4.80225988700565,NA,NA,NA
15610,Westmoreland County,PA,NA,NA,97.01986754966887,NA
15650,Westmoreland County,PA,NA,NA,NA,13.114754098360656
15656,Westmoreland County,PA,NA,74.74137931034483,NA,NA
15681,Indiana County,PA,NA,98.01724137931035,NA,NA
15683,Westmoreland County,PA,NA,NA,NA,72.6775956284153
15701,Indiana County,PA,NA,24.310344827586206,NA,NA
15857,Elk County,PA,41.52542372881356,NA,NA,NA
16037,Butler County,PA,NA,97.24137931034483,NA,NA
16137,Mercer County,PA,NA,71.29310344827586,NA,NA
16365,Warren County,PA,16.101694915254235,NA,NA,NA
16433,Crawford County,PA,NA,78.5344827586207,NA,NA
16502,Erie County,PA,NA,46.98275862068966,NA,NA
16505,Erie County,PA,NA,71.89655172413794,NA,NA
16601,Blair County,PA,NA,37.5,NA,NA
16648,Blair County,PA,62.71186440677966,NA,NA,NA
16743,McKean County,PA,NA,NA,87.58278145695364,NA
16830,Clearfield County,PA,NA,31.29310344827586,NA,NA
16866,Centre County,PA,NA,64.82758620689654,NA,NA
16915,Potter County,PA,82.7683615819209,NA,NA,NA
17015,Cumberland County,PA,50.56497175141242,NA,NA,NA
17022,Lancaster County,PA,NA,NA,16.721854304635762,NA
17044,Mifflin County,PA,NA,15.517241379310345,NA,NA
17059,Juniata County,PA,NA,93.53448275862068,NA,NA
17070,Cumberland County,PA,NA,48.01724137931034,NA,NA
17082,Juniata County,PA,NA,NA,96.8543046357616,NA
17103,Dauphin County,PA,NA,NA,NA,91.53005464480874
17111,Dauphin County,PA,NA,NA,7.6158940397351,NA
17268,Franklin County,PA,25.141242937853107,NA,NA,18.30601092896175
17325,Adams County,PA,NA,59.56896551724138,NA,NA
17345,York County,PA,NA,NA,72.18543046357617,NA
17362,York County,PA,NA,NA,52.64900662251656,NA
17403,York County,PA,NA,4.137931034482759,NA,NA
17408,York County,PA,31.63841807909605,NA,NA,NA
17543,Lancaster County,PA,NA,NA,11.42384105960265,NA
17557,Lancaster County,PA,65.2542372881356,NA,NA,NA
17603,Lancaster County,PA,15.53672316384181,NA,NA,NA
17737,Lycoming County,PA,NA,NA,85.43046357615894,NA
17756,Lycoming County,PA,NA,74.48275862068967,NA,NA
17847,Northumberland County,PA,NA,NA,50.66225165562914,NA
17870,Snyder County,PA,NA,76.72413793103449,NA,NA
17963,Schuylkill County,PA,NA,80.94827586206897,NA,NA
18013,Northampton County,PA,NA,NA,44.205298013245034,NA
18036,Lehigh County,PA,NA,NA,NA,45.3551912568306
18042,Northampton County,PA,NA,6.982758620689655,NA,NA
18052,Lehigh County,PA,NA,22.67241379310345,NA,NA
18058,Monroe County,PA,NA,NA,NA,61.74863387978142
18104,Lehigh County,PA,NA,NA,5.298013245033113,NA
18202,Luzerne County,PA,NA,51.12068965517241,NA,NA
18421,Susquehanna County,PA,NA,NA,89.73509933774835,NA
18466,Monroe County,PA,NA,NA,84.43708609271523,NA
18612,Luzerne County,PA,NA,NA,51.324503311258276,NA
18651,Luzerne County,PA,NA,NA,79.80132450331125,NA
18655,Luzerne County,PA,NA,NA,NA,80.32786885245902
18704,Luzerne County,PA,NA,19.82758620689655,NA,NA
18708,Luzerne County,PA,NA,NA,77.31788079470199,NA
18840,Bradford County,PA,NA,65.6896551724138,NA,NA
18929,Bucks County,PA,NA,96.03448275862068,NA,NA
18940,Bucks County,PA,NA,NA,97.51655629139073,NA
19008,Delaware County,PA,NA,54.65517241379311,NA,NA
19013,Delaware County,PA,NA,4.655172413793104,15.066225165562914,NA
19040,Montgomery County,PA,59.6045197740113,NA,NA,NA
19041,Delaware County,PA,NA,NA,85.59602649006622,NA
19044,Montgomery County,PA,83.33333333333334,NA,NA,NA
19050,Delaware County,PA,NA,NA,14.072847682119205,NA
19053,Bucks County,PA,NA,66.12068965517241,NA,NA
19063,Delaware County,PA,NA,24.482758620689655,12.251655629139073,NA
19067,Bucks County,PA,36.440677966101696,NA,NA,NA
19073,Delaware County,PA,NA,NA,NA,19.672131147540984
19074,Delaware County,PA,NA,86.72413793103448,NA,NA
19083,Delaware County,PA,NA,63.10344827586207,NA,NA
19104,Philadelphia County,PA,NA,NA,NA,55.19125683060109
19111,Philadelphia County,PA,NA,40.258620689655174,NA,NA
19118,Philadelphia County,PA,NA,NA,NA,78.68852459016394
19120,Philadelphia County,PA,NA,4.224137931034483,NA,NA
19121,Philadelphia County,PA,NA,NA,24.337748344370862,NA
19125,Philadelphia County,PA,NA,76.98275862068965,NA,NA
19129,Philadelphia County,PA,NA,NA,63.90728476821192,NA
19131,Philadelphia County,PA,NA,29.051724137931036,NA,NA
19132,Philadelphia County,PA,NA,NA,53.14569536423841,NA
19133,Philadelphia County,PA,NA,49.396551724137936,NA,NA
19138,Philadelphia County,PA,NA,15.862068965517242,NA,NA
19140,Philadelphia County,PA,NA,34.82758620689655,41.556291390728475,NA
19142,Philadelphia County,PA,NA,15.172413793103448,NA,NA
19144,Philadelphia County,PA,NA,NA,43.04635761589404,NA
19145,Philadelphia County,PA,10.734463276836157,NA,45.6953642384106,NA
19148,Philadelphia County,PA,NA,10.172413793103448,14.90066225165563,NA
19149,Philadelphia County,PA,NA,33.01724137931035,31.95364238410596,NA
19150,Philadelphia County,PA,NA,NA,25.33112582781457,NA
19151,Philadelphia County,PA,NA,NA,18.70860927152318,NA
19335,Chester County,PA,NA,20.344827586206897,NA,NA
19344,Chester County,PA,NA,NA,77.81456953642383,73.224043715847
19380,Chester County,PA,6.779661016949152,NA,6.291390728476822,NA
19382,Chester County,PA,5.649717514124294,NA,NA,NA
19403,Montgomery County,PA,NA,21.72413793103448,NA,NA
19446,Montgomery County,PA,NA,18.362068965517242,NA,10.382513661202186
19464,Montgomery County,PA,NA,6.896551724137931,NA,NA
19468,Montgomery County,PA,NA,43.70689655172414,NA,NA
19518,Berks County,PA,NA,52.06896551724138,NA,NA
19520,Chester County,PA,99.15254237288136,NA,NA,NA
19602,Berks County,PA,NA,NA,32.94701986754967,NA
02816,Kent County,RI,NA,30.258620689655174,NA,NA
02840,Newport County,RI,NA,NA,31.29139072847682,NA
02860,Providence County,RI,NA,NA,12.417218543046356,NA
02888,Kent County,RI,87.28813559322035,NA,NA,NA
02893,Kent County,RI,NA,81.89655172413794,NA,NA
02895,Providence County,RI,NA,NA,NA,32.240437158469945
02916,Providence County,RI,NA,NA,92.3841059602649,NA
02919,Providence County,RI,NA,43.79310344827586,NA,NA
29047,Orangeburg County,SC,NA,NA,93.87417218543047,NA
29070,Lexington County,SC,NA,NA,80.13245033112582,NA
29150,Sumter County,SC,NA,38.793103448275865,NA,NA
29316,Spartanburg County,SC,NA,41.63793103448276,NA,NA
29334,Spartanburg County,SC,NA,77.67241379310344,NA,NA
29349,Spartanburg County,SC,NA,61.03448275862069,NA,NA
29369,Spartanburg County,SC,NA,72.32758620689656,NA,NA
29384,Laurens County,SC,NA,NA,86.9205298013245,NA
29405,Charleston County,SC,NA,NA,NA,59.2896174863388
29455,Charleston County,SC,NA,NA,36.423841059602644,NA
29464,Charleston County,SC,22.033898305084744,NA,NA,NA
29472,Dorchester County,SC,NA,81.37931034482759,NA,NA
29488,Colleton County,SC,54.23728813559322,NA,NA,NA
29532,Darlington County,SC,NA,63.96551724137931,NA,NA
29550,Darlington County,SC,NA,NA,NA,45.08196721311475
29588,Horry County,SC,NA,NA,NA,27.86885245901639
29601,Greenville County,SC,61.5819209039548,NA,NA,NA
29609,Greenville County,SC,NA,NA,73.84105960264901,NA
29651,Greenville County,SC,NA,NA,NA,24.316939890710383
29666,Greenwood County,SC,NA,89.56896551724138,NA,NA
29680,Greenville County,SC,NA,49.82758620689655,NA,NA
29681,Greenville County,SC,35.87570621468927,NA,15.894039735099339,NA
29708,York County,SC,NA,NA,63.24503311258278,NA
29801,Aiken County,SC,NA,43.189655172413794,NA,NA
29841,Aiken County,SC,NA,55.86206896551724,NA,NA
57104,Minnehaha County,SD,NA,32.58620689655172,NA,NA
57105,Minnehaha County,SD,29.37853107344633,NA,NA,NA
57106,Minnehaha County,SD,NA,25.775862068965516,36.258278145695364,NA
57366,Hutchinson County,SD,99.71751412429379,NA,NA,NA
57601,Walworth County,SD,NA,97.5,NA,NA
57719,Pennington County,SD,NA,NA,55.794701986754966,NA
37027,Williamson County,TN,NA,42.931034482758626,NA,NA
37055,Dickson County,TN,NA,NA,44.70198675496689,NA
37058,Stewart County,TN,NA,88.87931034482759,NA,NA
37087,Wilson County,TN,20.62146892655367,NA,NA,NA
37091,Marshall County,TN,NA,NA,53.64238410596026,NA
37115,Davidson County,TN,NA,NA,24.17218543046358,NA
37138,Davidson County,TN,NA,54.22413793103448,NA,NA
37148,Sumner County,TN,NA,NA,46.854304635761594,NA
37184,Wilson County,TN,NA,NA,NA,94.26229508196722
37206,Davidson County,TN,NA,NA,NA,86.33879781420765
37211,Davidson County,TN,NA,NA,21.688741721854303,NA
37216,Davidson County,TN,NA,76.55172413793103,NA,NA
37303,McMinn County,TN,NA,25.344827586206897,NA,45.62841530054645
37321,Rhea County,TN,NA,31.982758620689655,NA,NA
37357,Warren County,TN,NA,98.27586206896551,NA,NA
37367,Bledsoe County,TN,NA,NA,84.10596026490066,NA
37398,Franklin County,TN,78.8135593220339,NA,NA,NA
37404,Hamilton County,TN,NA,65.6896551724138,NA,NA
37642,Hawkins County,TN,NA,NA,50.993377483443716,NA
37650,Unicoi County,TN,NA,NA,46.35761589403973,NA
37659,Washington County,TN,NA,NA,30.629139072847682,NA
37660,Sullivan County,TN,NA,NA,41.22516556291391,NA
37664,Sullivan County,TN,NA,24.051724137931036,50,NA
37711,Hawkins County,TN,NA,94.91379310344827,NA,NA
37743,Greene County,TN,NA,15,NA,NA
37748,Roane County,TN,NA,NA,31.62251655629139,NA
37766,Campbell County,TN,NA,38.793103448275865,NA,NA
37774,Loudon County,TN,NA,NA,25.165562913907287,NA
37801,Blount County,TN,19.2090395480226,19.224137931034484,14.403973509933774,NA
37803,Blount County,TN,NA,35.43103448275862,15.2317880794702,NA
37804,Blount County,TN,NA,NA,20.033112582781456,NA
37813,Hamblen County,TN,NA,NA,63.079470198675494,NA
37865,Sevier County,TN,NA,NA,45.860927152317885,NA
37880,Meigs County,TN,NA,96.4655172413793,NA,NA
37886,Blount County,TN,NA,86.20689655172413,NA,NA
37918,Knox County,TN,NA,47.58620689655172,NA,NA
37923,Knox County,TN,NA,NA,43.211920529801326,NA
38002,Shelby County,TN,NA,NA,65.23178807947019,NA
38019,Tipton County,TN,69.49152542372882,NA,NA,NA
38053,Shelby County,TN,NA,51.724137931034484,NA,NA
38105,Shelby County,TN,NA,NA,NA,99.72677595628416
38108,Shelby County,TN,NA,NA,57.94701986754966,NA
38118,Shelby County,TN,NA,21.810344827586206,NA,NA
38122,Shelby County,TN,NA,57.24137931034483,NA,NA
38127,Shelby County,TN,NA,37.41379310344828,NA,NA
38225,Weakley County,TN,NA,90.77586206896552,NA,NA
38261,Obion County,TN,NA,NA,37.41721854304636,NA
38305,Madison County,TN,NA,11.637931034482758,NA,NA
38340,Chester County,TN,NA,NA,NA,69.94535519125684
38401,Maury County,TN,NA,8.879310344827585,NA,NA
38544,Putnam County,TN,NA,67.24137931034483,NA,NA
38570,Overton County,TN,NA,71.12068965517241,64.73509933774835,NA
38572,Cumberland County,TN,NA,NA,59.437086092715234,NA
38583,White County,TN,NA,28.448275862068968,30.132450331125828,NA
75019,Dallas County,TX,NA,NA,97.68211920529801,NA
75025,Collin County,TX,NA,58.9655172413793,NA,NA
75040,Dallas County,TX,NA,20.689655172413794,NA,NA
75041,Dallas County,TX,49.152542372881356,NA,NA,NA
75043,Dallas County,TX,NA,NA,18.874172185430464,NA
75044,Dallas County,TX,33.89830508474576,93.10344827586206,NA,NA
75060,Dallas County,TX,NA,74.3103448275862,NA,NA
75067,Denton County,TX,NA,35.43103448275862,NA,NA
75070,Collin County,TX,NA,82.75862068965517,NA,NA
75076,Grayson County,TX,NA,NA,NA,89.34426229508196
75088,Dallas County,TX,76.8361581920904,NA,NA,NA
75092,Grayson County,TX,NA,51.03448275862069,NA,NA
75098,Collin County,TX,18.926553672316384,NA,NA,NA
75104,Dallas County,TX,NA,26.551724137931032,NA,NA
75115,Dallas County,TX,NA,NA,21.52317880794702,NA
75147,Kaufman County,TX,NA,NA,82.11920529801324,NA
75154,Ellis County,TX,18.64406779661017,NA,NA,NA
75165,Ellis County,TX,23.728813559322035,NA,NA,NA
75181,Dallas County,TX,NA,56.46551724137932,NA,NA
75212,Dallas County,TX,19.491525423728813,NA,NA,NA
75217,Dallas County,TX,NA,11.206896551724139,NA,NA
75237,Dallas County,TX,NA,47.8448275862069,NA,NA
75401,Hunt County,TX,NA,59.13793103448276,59.7682119205298,NA
75460,Lamar County,TX,NA,NA,68.37748344370861,NA
75495,Grayson County,TX,NA,NA,92.88079470198676,NA
75662,Gregg County,TX,NA,56.29310344827586,NA,NA
75702,Smith County,TX,NA,40.51724137931034,NA,NA
75709,Smith County,TX,NA,92.8448275862069,NA,NA
75751,Henderson County,TX,NA,50.43103448275862,NA,NA
75771,Smith County,TX,NA,81.03448275862068,NA,NA
75835,Houston County,TX,NA,NA,74.17218543046357,NA
75840,Freestone County,TX,NA,NA,76.65562913907284,NA
75939,Polk County,TX,NA,100,NA,NA
75946,Nacogdoches County,TX,98.58757062146893,NA,NA,NA
76001,Tarrant County,TX,NA,NA,NA,96.99453551912568
76008,Parker County,TX,NA,NA,82.28476821192054,NA
76009,Johnson County,TX,NA,64.74137931034483,NA,NA
76011,Tarrant County,TX,NA,57.67241379310345,NA,NA
76018,Tarrant County,TX,NA,60.08620689655172,NA,NA
76034,Tarrant County,TX,NA,NA,61.58940397350994,NA
76036,Tarrant County,TX,43.50282485875706,NA,NA,NA
76039,Tarrant County,TX,NA,NA,93.37748344370861,61.47540983606557
76065,Ellis County,TX,NA,43.275862068965516,NA,NA
76104,Tarrant County,TX,NA,24.655172413793103,NA,NA
76111,Tarrant County,TX,NA,75.17241379310344,NA,NA
76117,Tarrant County,TX,NA,NA,NA,59.01639344262295
76126,Tarrant County,TX,52.259887005649716,NA,NA,NA
76133,Tarrant County,TX,NA,22.413793103448278,NA,NA
76164,Tarrant County,TX,NA,NA,NA,91.2568306010929
76179,Tarrant County,TX,14.971751412429379,32.41379310344827,NA,NA
76180,Tarrant County,TX,37.005649717514125,NA,NA,NA
76207,Denton County,TX,NA,79.91379310344827,NA,NA
76247,Denton County,TX,NA,NA,89.56953642384106,NA
76310,Wichita County,TX,NA,NA,75.33112582781457,63.387978142076506
76502,Bell County,TX,42.65536723163842,NA,NA,NA
76513,Bell County,TX,NA,NA,NA,13.387978142076504
76543,Bell County,TX,NA,31.03448275862069,NA,NA
76549,Bell County,TX,7.344632768361582,NA,NA,NA
76706,McLennan County,TX,NA,NA,NA,27.595628415300546
76711,McLennan County,TX,NA,85.77586206896551,NA,NA
76801,Brown County,TX,38.13559322033898,NA,NA,NA
76821,Runnels County,TX,NA,93.70689655172414,NA,NA
76849,Kimble County,TX,NA,NA,NA,97.26775956284153
76904,Tom Green County,TX,NA,64.13793103448275,NA,NA
77008,Harris County,TX,NA,63.793103448275865,NA,NA
77014,Harris County,TX,28.24858757062147,NA,NA,NA
77015,Harris County,TX,NA,42.758620689655174,NA,NA
77016,Harris County,TX,NA,45.775862068965516,NA,NA
77024,Harris County,TX,NA,NA,NA,43.98907103825137
77040,Harris County,TX,NA,49.137931034482754,31.95364238410596,NA
77043,Harris County,TX,NA,80.77586206896552,NA,NA
77064,Harris County,TX,63.559322033898304,NA,NA,NA
77070,Harris County,TX,NA,49.74137931034483,NA,NA
77071,Harris County,TX,NA,NA,NA,65.02732240437157
77074,Harris County,TX,NA,77.15517241379311,59.60264900662252,NA
77084,Harris County,TX,NA,14.741379310344826,NA,NA
77089,Harris County,TX,NA,NA,35.9271523178808,NA
77090,Harris County,TX,NA,31.896551724137932,57.284768211920536,NA
77091,Harris County,TX,NA,NA,NA,57.377049180327866
77301,Montgomery County,TX,35.02824858757062,NA,NA,NA
77304,Montgomery County,TX,NA,84.74137931034483,NA,NA
77351,Polk County,TX,NA,48.53448275862069,NA,NA
77373,Harris County,TX,21.75141242937853,NA,NA,NA
77382,Montgomery County,TX,NA,NA,89.90066225165563,NA
77388,Harris County,TX,79.66101694915254,NA,NA,NA
77396,Harris County,TX,NA,40.17241379310345,64.23841059602648,NA
77406,Fort Bend County,TX,NA,NA,77.64900662251655,NA
77414,Matagorda County,TX,NA,48.706896551724135,NA,NA
77429,Harris County,TX,9.6045197740113,NA,NA,NA
77433,Harris County,TX,NA,14.913793103448276,NA,NA
77449,Harris County,TX,NA,77.58620689655173,NA,NA
77474,Austin County,TX,NA,92.75862068965517,NA,NA
77498,Fort Bend County,TX,NA,NA,55.132450331125824,NA
77506,Harris County,TX,NA,NA,69.5364238410596,NA
77520,Harris County,TX,NA,47.41379310344828,NA,NA
77521,Harris County,TX,NA,NA,34.437086092715234,NA
77535,Liberty County,TX,NA,NA,74.83443708609272,NA
77546,Galveston County,TX,NA,NA,11.258278145695364,NA
77550,Galveston County,TX,NA,NA,NA,8.743169398907105
77551,Galveston County,TX,39.26553672316384,NA,NA,NA
77554,Galveston County,TX,NA,90.94827586206897,NA,NA
77584,Brazoria County,TX,NA,12.5,NA,NA
77619,Jefferson County,TX,71.1864406779661,NA,NA,NA
77662,Orange County,TX,NA,48.189655172413794,NA,NA
77808,Brazos County,TX,NA,NA,61.423841059602644,NA
77840,Brazos County,TX,NA,NA,67.3841059602649,NA
77964,Lavaca County,TX,NA,85.51724137931035,NA,NA
78028,Kerr County,TX,49.43502824858757,NA,NA,NA
78045,Webb County,TX,8.192090395480225,NA,NA,NA
78046,Webb County,TX,NA,19.396551724137932,NA,NA
78114,Wilson County,TX,NA,NA,53.47682119205298,NA
78130,Comal County,TX,NA,25.603448275862068,NA,NA
78155,Guadalupe County,TX,NA,NA,78.47682119205298,NA
78210,Bexar County,TX,NA,27.672413793103452,NA,NA
78227,Bexar County,TX,9.887005649717514,NA,NA,NA
78230,Bexar County,TX,NA,61.98275862068966,NA,NA
78245,Bexar County,TX,NA,26.982758620689655,NA,NA
78247,Bexar County,TX,NA,56.03448275862068,NA,NA
78249,Bexar County,TX,NA,NA,NA,92.89617486338798
78251,Bexar County,TX,NA,58.189655172413794,NA,NA
78258,Bexar County,TX,NA,67.75862068965517,66.72185430463577,NA
78261,Bexar County,TX,NA,88.96551724137932,NA,NA
78332,Jim Wells County,TX,NA,64.48275862068965,NA,NA
78415,Nueces County,TX,NA,50.258620689655174,NA,NA
78521,Cameron County,TX,NA,NA,19.039735099337747,NA
78572,Hidalgo County,TX,NA,22.06896551724138,NA,NA
78577,Hidalgo County,TX,NA,NA,25,NA
78584,Starr County,TX,NA,NA,NA,50.27322404371585
78589,Hidalgo County,TX,NA,42.758620689655174,NA,NA
78613,Williamson County,TX,28.8135593220339,NA,NA,NA
78624,Gillespie County,TX,75.42372881355932,NA,NA,NA
78629,Gonzales County,TX,NA,88.10344827586208,NA,NA
78634,Williamson County,TX,NA,62.06896551724138,NA,NA
78636,Blanco County,TX,NA,NA,NA,96.72131147540983
78640,Hays County,TX,NA,45.689655172413794,NA,NA
78645,Travis County,TX,NA,NA,91.55629139072848,NA
78653,Travis County,TX,60.16949152542372,NA,NA,NA
78660,Travis County,TX,NA,29.310344827586203,NA,NA
78666,Hays County,TX,NA,NA,NA,25.956284153005466
78723,Travis County,TX,NA,62.5,NA,NA
78728,Travis County,TX,NA,NA,94.70198675496688,NA
78750,Travis County,TX,NA,85.86206896551725,NA,NA
78758,Travis County,TX,NA,80.25862068965517,NA,NA
78945,Fayette County,TX,NA,NA,78.31125827814569,NA
79110,Randall County,TX,60.16949152542372,NA,NA,89.89071038251366
79347,Bailey County,TX,NA,NA,NA,89.07103825136612
79360,Gaines County,TX,NA,NA,82.78145695364239,NA
79415,Lubbock County,TX,NA,86.89655172413792,NA,NA
79423,Lubbock County,TX,NA,32.327586206896555,NA,NA
79424,Lubbock County,TX,21.468926553672315,NA,NA,NA
79549,Scurry County,TX,NA,45.17241379310345,NA,NA
79603,Taylor County,TX,45.76271186440678,NA,NA,NA
79605,Taylor County,TX,NA,NA,41.05960264900662,NA
79606,Taylor County,TX,NA,NA,55.4635761589404,NA
79701,Midland County,TX,34.463276836158194,NA,NA,NA
79706,Midland County,TX,23.44632768361582,NA,NA,NA
79707,Midland County,TX,14.124293785310735,NA,NA,NA
79763,Ector County,TX,NA,NA,72.84768211920529,NA
79905,El Paso County,TX,NA,76.29310344827587,NA,NA
79936,El Paso County,TX,NA,15.258620689655173,19.867549668874172,NA
79938,El Paso County,TX,NA,66.8103448275862,NA,NA
84029,Tooele County,UT,NA,60.94827586206897,NA,NA
84037,Davis County,UT,30.7909604519774,NA,NA,NA
84047,Salt Lake County,UT,NA,29.48275862068965,NA,NA
84065,Salt Lake County,UT,NA,41.12068965517241,NA,NA
84070,Salt Lake County,UT,44.632768361581924,NA,NA,NA
84074,Tooele County,UT,NA,5.603448275862069,NA,NA
84078,Uintah County,UT,NA,19.655172413793103,NA,NA
84081,Salt Lake County,UT,NA,33.96551724137931,NA,NA
84093,Salt Lake County,UT,NA,80,53.31125827814569,NA
84094,Salt Lake County,UT,NA,67.06896551724138,NA,NA
84096,Salt Lake County,UT,NA,62.41379310344828,NA,NA
84106,Salt Lake County,UT,NA,38.189655172413794,NA,NA
84107,Salt Lake County,UT,NA,73.79310344827587,NA,35.79234972677596
84120,Salt Lake County,UT,NA,9.568965517241379,NA,NA
84321,Cache County,UT,NA,68.87931034482759,NA,NA
84404,Weber County,UT,NA,NA,40.2317880794702,NA
84701,Sevier County,UT,90.3954802259887,91.63793103448276,NA,NA
84741,Kane County,UT,NA,NA,85.09933774834437,NA
05060,Orange County,VT,NA,NA,96.35761589403974,NA
05250,Bennington County,VT,NA,NA,92.71523178807946,NA
05452,Chittenden County,VT,NA,NA,68.70860927152319,NA
05661,Lamoille County,VT,NA,77.93103448275862,NA,NA
20111,Prince William County,VA,NA,56.20689655172414,NA,NA
20147,Loudoun County,VA,NA,40.60344827586207,NA,NA
20186,Fauquier County,VA,NA,82.32758620689656,NA,NA
20187,Fauquier County,VA,NA,NA,71.52317880794702,NA
20191,Fairfax County,VA,NA,NA,91.88741721854305,NA
22039,Fairfax County,VA,80.50847457627118,NA,NA,NA
22066,Fairfax County,VA,NA,90.6896551724138,NA,NA
22101,Fairfax County,VA,NA,NA,50.331125827814574,NA
22152,Fairfax County,VA,NA,NA,66.22516556291392,NA
22182,Fairfax County,VA,77.11864406779661,NA,NA,NA
22443,Westmoreland County,VA,NA,NA,NA,75.40983606557377
22630,Warren County,VA,NA,NA,37.086092715231786,NA
22903,Charlottesville city,VA,NA,31.379310344827587,NA,NA
22911,Albemarle County,VA,NA,NA,NA,66.93989071038251
23061,Gloucester County,VA,66.94915254237289,NA,41.390728476821195,NA
23113,Chesterfield County,VA,NA,NA,NA,95.90163934426229
23185,James City County,VA,NA,39.741379310344826,NA,NA
23220,Richmond city,VA,NA,NA,56.12582781456954,NA
23222,Richmond city,VA,NA,NA,30.960264900662253,NA
23223,Henrico County,VA,NA,5,NA,NA
23224,Richmond city,VA,NA,13.275862068965516,NA,NA
23234,Chesterfield County,VA,3.672316384180791,NA,NA,NA
23235,Chesterfield County,VA,NA,NA,NA,25.136612021857925
23237,Chesterfield County,VA,73.72881355932203,NA,NA,NA
23325,Chesapeake city,VA,NA,NA,62.748344370860934,NA
23435,Suffolk city,VA,NA,NA,37.74834437086093,NA
23455,Virginia Beach city,VA,NA,NA,9.7682119205298,NA
23504,Norfolk city,VA,NA,29.13793103448276,NA,NA
23523,Norfolk city,VA,NA,NA,NA,88.79781420765028
23602,Newport News city,VA,15.819209039548024,NA,NA,13.934426229508196
23834,Colonial Heights city,VA,NA,NA,63.576158940397356,NA
24012,Roanoke city,VA,NA,32.068965517241374,NA,NA
24016,Roanoke city,VA,NA,NA,76.82119205298014,NA
24017,Roanoke city,VA,NA,60.51724137931035,NA,NA
24112,Henry County,VA,NA,51.293103448275865,NA,NA
24148,Henry County,VA,NA,NA,92.05298013245033,NA
24151,Franklin County,VA,NA,48.96551724137931,NA,NA
24153,Salem city,VA,NA,NA,NA,21.85792349726776
24179,Roanoke County,VA,70.62146892655367,NA,NA,NA
24219,Wise County,VA,NA,43.53448275862069,NA,NA
24251,Scott County,VA,NA,83.1896551724138,NA,NA
24273,Norton city,VA,NA,72.5,NA,NA
24293,Wise County,VA,65.81920903954803,53.103448275862064,NA,NA
24317,Carroll County,VA,NA,83.79310344827586,NA,NA
24348,Grayson County,VA,NA,92.32758620689656,NA,NA
24477,Augusta County,VA,NA,91.12068965517241,NA,NA
24504,Lynchburg city,VA,NA,93.96551724137932,NA,NA
24614,Buchanan County,VA,82.7683615819209,NA,NA,NA
98006,King County,WA,NA,59.827586206896555,NA,NA
98028,King County,WA,NA,NA,NA,65.30054644808743
98032,King County,WA,NA,NA,48.17880794701987,NA
98043,Snohomish County,WA,NA,90.3448275862069,NA,NA
98065,King County,WA,NA,83.10344827586206,NA,NA
98072,King County,WA,77.68361581920904,NA,NA,NA
98103,King County,WA,NA,NA,42.384105960264904,NA
98106,King County,WA,NA,63.62068965517241,NA,NA
98115,King County,WA,NA,39.48275862068966,NA,NA
98198,King County,WA,50.56497175141242,NA,NA,NA
98203,Snohomish County,WA,NA,NA,NA,67.21311475409836
98221,Skagit County,WA,NA,NA,22.516556291390728,NA
98226,Whatcom County,WA,NA,69.13793103448276,NA,NA
98232,Skagit County,WA,NA,NA,83.44370860927152,NA
98247,Whatcom County,WA,NA,96.89655172413794,NA,NA
98258,Snohomish County,WA,NA,26.379310344827587,NA,NA
98272,Snohomish County,WA,NA,NA,44.867549668874176,NA
98277,Island County,WA,NA,NA,NA,15.846994535519126
98290,Snohomish County,WA,46.61016949152542,NA,NA,NA
98292,Snohomish County,WA,NA,62.8448275862069,NA,NA
98362,Clallam County,WA,NA,37.58620689655172,NA,NA
98374,Pierce County,WA,29.943502824858758,NA,NA,NA
98382,Clallam County,WA,NA,NA,3.47682119205298,NA
98405,Pierce County,WA,28.53107344632768,NA,NA,NA
98407,Pierce County,WA,84.18079096045197,NA,NA,NA
98408,Pierce County,WA,NA,NA,NA,67.4863387978142
98498,Pierce County,WA,NA,58.70689655172414,NA,NA
98589,Thurston County,WA,NA,97.84482758620689,NA,NA
98597,Thurston County,WA,NA,NA,74.33774834437085,NA
98620,Klickitat County,WA,NA,NA,65.39735099337747,NA
98640,Pacific County,WA,NA,NA,NA,69.12568306010928
98801,Chelan County,WA,NA,27.413793103448274,NA,NA
98815,Chelan County,WA,NA,NA,NA,85.24590163934425
98848,Grant County,WA,NA,89.65517241379311,NA,NA
98930,Yakima County,WA,NA,85.60344827586206,NA,NA
99223,Spokane County,WA,47.45762711864407,NA,NA,NA
99224,Spokane County,WA,NA,NA,71.19205298013244,NA
99320,Benton County,WA,90.96045197740112,NA,NA,NA
99337,Benton County,WA,NA,NA,8.112582781456954,NA
99352,Benton County,WA,NA,NA,26.82119205298013,NA
99354,Benton County,WA,NA,NA,NA,75.13661202185791
20007,District of Columbia,DC,NA,77.75862068965517,NA,NA
20012,District of Columbia,DC,NA,NA,NA,77.8688524590164
20016,District of Columbia,DC,NA,74.56896551724138,NA,NA
20020,District of Columbia,DC,NA,3.0172413793103448,7.119205298013245,NA
24701,Mercer County,WV,NA,32.5,NA,NA
24844,McDowell County,WV,NA,98.44827586206897,NA,NA
25064,Kanawha County,WV,NA,54.48275862068965,NA,54.37158469945356
25177,Kanawha County,WV,NA,15.775862068965518,NA,19.672131147540984
25301,Kanawha County,WV,NA,90.51724137931035,NA,NA
25314,Kanawha County,WV,71.1864406779661,57.327586206896555,NA,NA
25414,Jefferson County,WV,NA,84.91379310344827,NA,NA
25428,Berkeley County,WV,NA,64.22413793103449,NA,NA
25524,Lincoln County,WV,NA,NA,99.33774834437085,NA
25550,Mason County,WV,NA,53.44827586206896,NA,NA
25571,Lincoln County,WV,NA,99.3103448275862,NA,NA
25701,Cabell County,WV,NA,67.41379310344827,NA,NA
25801,Raleigh County,WV,14.124293785310735,16.724137931034484,NA,NA
25921,Raleigh County,WV,NA,99.05172413793103,NA,NA
26003,Ohio County,WV,NA,NA,NA,3.278688524590164
26041,Marshall County,WV,52.824858757062145,NA,NA,NA
26070,Brooke County,WV,NA,75,NA,NA
26101,Wood County,WV,NA,6.4655172413793105,6.456953642384105,NA
26150,Wood County,WV,NA,NA,NA,95.62841530054644
26164,Jackson County,WV,63.559322033898304,NA,NA,NA
26201,Upshur County,WV,NA,NA,NA,18.579234972677597
26241,Randolph County,WV,NA,34.56896551724138,NA,NA
26554,Marion County,WV,NA,5.948275862068965,NA,NA
26757,Hampshire County,WV,NA,86.55172413793103,NA,NA
53076,Washington County,WI,NA,NA,99.00662251655629,NA
53105,Racine County,WI,NA,NA,44.5364238410596,NA
53120,Walworth County,WI,NA,NA,NA,93.98907103825137
53128,Walworth County,WI,NA,70.51724137931035,NA,NA
53132,Milwaukee County,WI,NA,NA,23.178807947019866,NA
53142,Kenosha County,WI,7.062146892655368,NA,NA,NA
53143,Kenosha County,WI,NA,69.56896551724138,30.4635761589404,NA
53147,Walworth County,WI,NA,NA,NA,90.98360655737704
53172,Milwaukee County,WI,58.47457627118644,NA,NA,NA
53188,Waukesha County,WI,NA,26.03448275862069,NA,NA
53204,Milwaukee County,WI,NA,8.362068965517242,NA,NA
53205,Milwaukee County,WI,NA,3.53448275862069,NA,NA
53208,Milwaukee County,WI,NA,13.793103448275861,NA,NA
53209,Milwaukee County,WI,1.1299435028248588,3.4482758620689653,NA,NA
53210,Milwaukee County,WI,NA,NA,19.5364238410596,NA
53214,Milwaukee County,WI,NA,14.396551724137932,NA,NA
53222,Milwaukee County,WI,NA,89.91379310344828,NA,NA
53224,Milwaukee County,WI,16.38418079096045,39.310344827586206,NA,NA
53402,Racine County,WI,NA,61.55172413793103,NA,NA
53403,Racine County,WI,NA,36.46551724137931,NA,NA
53405,Racine County,WI,NA,7.586206896551724,NA,NA
53538,Jefferson County,WI,NA,NA,NA,31.693989071038253
53546,Rock County,WI,NA,NA,4.801324503311259,NA
53589,Dane County,WI,NA,NA,NA,37.43169398907104
53703,Dane County,WI,NA,78.70689655172414,NA,NA
53713,Dane County,WI,NA,55.51724137931034,NA,NA
53718,Dane County,WI,NA,NA,NA,65.84699453551912
53719,Dane County,WI,NA,93.44827586206897,NA,NA
53805,Grant County,WI,91.80790960451978,NA,NA,NA
53821,Crawford County,WI,NA,83.44827586206897,NA,NA
53913,Sauk County,WI,NA,40.94827586206897,NA,NA
53916,Dodge County,WI,NA,NA,89.23841059602648,NA
53963,Dodge County,WI,NA,NA,74.00662251655629,NA
54025,St. Croix County,WI,NA,91.20689655172414,NA,NA
54110,Calumet County,WI,NA,92.67241379310344,NA,NA
54220,Manitowoc County,WI,NA,7.931034482758621,NA,NA
54241,Manitowoc County,WI,76.55367231638418,NA,NA,NA
54302,Brown County,WI,NA,28.879310344827587,NA,NA
54303,Brown County,WI,NA,49.05172413793103,NA,NA
54403,Marathon County,WI,NA,NA,64.0728476821192,NA
54409,Langlade County,WI,NA,NA,23.841059602649008,NA
54481,Portage County,WI,NA,23.103448275862068,NA,11.748633879781421
54552,Price County,WI,NA,98.79310344827587,NA,NA
54601,La Crosse County,WI,NA,NA,1.6556291390728477,NA
54615,Jackson County,WI,NA,72.41379310344827,NA,NA
54665,Vernon County,WI,NA,NA,NA,56.284153005464475
54729,Chippewa County,WI,NA,35.86206896551724,NA,NA
54751,Dunn County,WI,NA,NA,28.97350993377483,NA
54868,Barron County,WI,NA,NA,48.01324503311258,NA
54880,Douglas County,WI,NA,NA,NA,1.912568306010929
54901,Winnebago County,WI,NA,30,NA,NA
54915,Outagamie County,WI,NA,69.39655172413794,NA,NA
54929,Waupaca County,WI,NA,87.75862068965517,NA,NA
54961,Waupaca County,WI,NA,59.827586206896555,NA,NA
54981,Waupaca County,WI,NA,NA,48.841059602649004,NA
82520,Fremont County,WY,NA,NA,88.0794701986755,NA
82801,Sheridan County,WY,NA,NA,NA,38.52459016393443
82930,Uinta County,WY,NA,NA,82.94701986754967,NA
