ZipCode,county,state,Adult,Retirement
35128,St. Clair County,AL,77.36549165120594,NA
35146,St. Clair County,AL,NA,70.8108108108108
35160,Talladega County,AL,20.408163265306122,NA
35212,Jefferson County,AL,79.59183673469387,NA
35553,Winston County,AL,97.58812615955473,NA
35601,Morgan County,AL,17.810760667903523,NA
35611,Limestone County,AL,30.426716141001855,NA
35633,Lauderdale County,AL,60.48237476808905,NA
35660,Colbert County,AL,72.35621521335807,NA
35754,Morgan County,AL,NA,92.43243243243244
35960,Cherokee County,AL,74.76808905380335,NA
36272,Calhoun County,AL,78.84972170686456,NA
36301,Houston County,AL,22.820037105751393,19.18918918918919
36330,Coffee County,AL,NA,37.83783783783784
36605,Mobile County,AL,94.99072356215214,NA
36613,Mobile County,AL,84.04452690166976,77.02702702702703
36756,Perry County,AL,83.6734693877551,NA
36830,Lee County,AL,NA,84.86486486486487
99669,Kenai Peninsula Borough,AK,NA,57.83783783783784
85008,Maricopa County,AZ,17.25417439703154,NA
85122,Pinal County,AZ,NA,49.18918918918919
85203,Maricopa County,AZ,43.22820037105751,NA
85249,Maricopa County,AZ,NA,39.45945945945946
85250,Maricopa County,AZ,87.75510204081633,NA
85388,Maricopa County,AZ,70.50092764378478,NA
85635,Cochise County,AZ,63.4508348794063,NA
85706,Pima County,AZ,4.452690166975881,NA
85710,Pima County,AZ,11.688311688311687,NA
85713,Pima County,AZ,9.090909090909092,NA
85748,Pima County,AZ,83.48794063079778,NA
85901,Navajo County,AZ,91.65120593692022,NA
86001,Coconino County,AZ,58.25602968460112,51.35135135135135
86406,Mohave County,AZ,NA,29.45945945945946
86514,Apache County,AZ,NA,98.37837837837839
72007,Lonoke County,AR,NA,86.75675675675676
72015,Saline County,AR,NA,36.486486486486484
72076,Pulaski County,AR,80.14842300556586,NA
72081,White County,AR,85.34322820037106,NA
72112,Jackson County,AR,76.62337662337663,NA
72143,White County,AR,NA,12.162162162162163
72401,Craighead County,AR,NA,13.513513513513514
72638,Carroll County,AR,94.8051948051948,NA
72802,Pope County,AR,NA,67.83783783783784
90004,Los Angeles County,CA,NA,74.05405405405405
90006,Los Angeles County,CA,69.38775510204081,NA
90007,Los Angeles County,CA,32.6530612244898,NA
90008,Los Angeles County,CA,51.02040816326531,NA
90033,Los Angeles County,CA,76.25231910946196,NA
90047,Los Angeles County,CA,NA,16.756756756756758
90059,Los Angeles County,CA,NA,58.37837837837838
90501,Los Angeles County,CA,NA,59.72972972972973
90605,Los Angeles County,CA,62.152133580705005,NA
90706,Los Angeles County,CA,29.684601113172544,NA
90723,Los Angeles County,CA,NA,72.70270270270271
90805,Los Angeles County,CA,NA,26.756756756756754
91307,Los Angeles County,CA,NA,80.8108108108108
91351,Los Angeles County,CA,67.90352504638219,NA
91730,San Bernardino County,CA,71.79962894248608,NA
91763,San Bernardino County,CA,85.71428571428571,NA
91776,Los Angeles County,CA,NA,63.51351351351351
91791,Los Angeles County,CA,81.81818181818183,NA
91910,San Diego County,CA,30.241187384044526,NA
91911,San Diego County,CA,75.88126159554731,NA
91945,San Diego County,CA,65.12059369202227,NA
92115,San Diego County,CA,36.178107606679035,NA
92122,San Diego County,CA,74.95361781076066,NA
92240,Riverside County,CA,59.554730983302406,NA
92241,Riverside County,CA,94.06307977736549,NA
92345,San Bernardino County,CA,13.358070500927644,NA
92506,Riverside County,CA,NA,44.86486486486487
92587,Riverside County,CA,72.5417439703154,NA
92708,Orange County,CA,42.11502782931355,NA
92808,Orange County,CA,NA,81.08108108108108
92832,Orange County,CA,61.59554730983302,NA
92833,Orange County,CA,80.51948051948052,NA
92835,Orange County,CA,NA,63.78378378378379
93203,Kern County,CA,93.69202226345084,NA
93221,Tulare County,CA,81.44712430426716,NA
93274,Tulare County,CA,NA,22.432432432432435
93306,Kern County,CA,23.747680890538035,NA
93514,Inyo County,CA,NA,72.16216216216216
93619,Fresno County,CA,NA,43.513513513513516
93635,Merced County,CA,46.567717996289424,49.72972972972973
93906,Monterey County,CA,46.01113172541744,NA
93955,Monterey County,CA,72.91280148423006,NA
94043,Santa Clara County,CA,89.79591836734694,NA
94044,San Mateo County,CA,96.84601113172542,NA
94103,San Francisco County,CA,NA,21.62162162162162
94124,San Francisco County,CA,29.313543599257883,NA
94127,San Francisco County,CA,NA,71.08108108108108
94403,San Mateo County,CA,NA,22.162162162162165
94544,Alameda County,CA,55.65862708719852,NA
94560,Alameda County,CA,NA,51.08108108108108
94561,Contra Costa County,CA,NA,78.37837837837837
94565,Contra Costa County,CA,25.04638218923933,NA
95032,Santa Clara County,CA,90.35250463821892,NA
95127,Santa Clara County,CA,NA,48.64864864864865
95129,Santa Clara County,CA,NA,75.67567567567568
95338,Mariposa County,CA,NA,70.54054054054055
95355,Stanislaus County,CA,10.946196660482375,NA
95388,Merced County,CA,96.47495361781077,NA
95672,El Dorado County,CA,97.40259740259741,NA
95966,Butte County,CA,NA,10.27027027027027
95969,Butte County,CA,NA,8.64864864864865
80003,Jefferson County,CO,NA,82.70270270270271
80104,Douglas County,CO,NA,67.02702702702703
80124,Douglas County,CO,68.46011131725417,NA
80210,Denver County,CO,60.1113172541744,NA
80219,Denver County,CO,7.050092764378478,NA
80222,Denver County,CO,NA,79.45945945945945
80226,Jefferson County,CO,54.916512059369204,NA
80303,Boulder County,CO,NA,70.27027027027027
80524,Larimer County,CO,34.69387755102041,NA
80610,Weld County,CO,NA,98.91891891891892
80723,Morgan County,CO,89.98144712430427,NA
81089,Huerfano County,CO,NA,91.08108108108108
81201,Chaffee County,CO,NA,76.75675675675676
81401,Montrose County,CO,53.432282003710576,NA
81403,Montrose County,CO,80.89053803339517,NA
81625,Moffat County,CO,46.19666048237477,NA
06010,Hartford County,CT,NA,3.2432432432432434
06032,Hartford County,CT,NA,74.32432432432432
06033,Hartford County,CT,62.52319109461967,NA
06074,Hartford County,CT,61.224489795918366,NA
06076,Tolland County,CT,89.6103896103896,NA
06106,Hartford County,CT,6.8645640074211505,NA
06450,New Haven County,CT,8.348794063079778,NA
06473,New Haven County,CT,NA,35.13513513513514
06513,New Haven County,CT,NA,10.81081081081081
06517,New Haven County,CT,NA,46.48648648648649
06716,New Haven County,CT,NA,64.32432432432432
06787,Litchfield County,CT,NA,78.10810810810811
19720,New Castle County,DE,5.009276437847866,NA
19808,New Castle County,DE,NA,25.405405405405407
19904,Kent County,DE,NA,18.91891891891892
19973,Sussex County,DE,NA,24.324324324324326
32043,Clay County,FL,NA,24.864864864864867
32063,Baker County,FL,88.12615955473099,NA
32209,Duval County,FL,NA,53.24324324324324
32258,Duval County,FL,60.48237476808905,NA
32311,Leon County,FL,NA,94.05405405405406
32533,Escambia County,FL,NA,24.054054054054056
32534,Escambia County,FL,50.09276437847866,50
32547,Okaloosa County,FL,NA,55.945945945945944
32608,Alachua County,FL,NA,19.72972972972973
32780,Brevard County,FL,46.75324675324675,NA
32796,Brevard County,FL,NA,32.16216216216216
32798,Orange County,FL,97.95918367346938,NA
32922,Brevard County,FL,55.287569573283854,NA
32937,Brevard County,FL,76.06679035250464,NA
33064,Broward County,FL,NA,21.891891891891895
33129,Miami-Dade County,FL,NA,90.27027027027027
33160,Miami-Dade County,FL,86.2708719851577,NA
33484,Palm Beach County,FL,NA,34.054054054054056
33647,Hillsborough County,FL,NA,48.37837837837838
33825,Highlands County,FL,57.5139146567718,NA
33850,Polk County,FL,86.45640074211502,NA
33917,Lee County,FL,88.31168831168831,NA
33931,Lee County,FL,NA,67.29729729729729
34205,Manatee County,FL,39.14656771799629,NA
34219,Manatee County,FL,NA,64.86486486486487
34491,Marion County,FL,66.79035250463822,NA
34613,Hernando County,FL,76.80890538033395,NA
34639,Pasco County,FL,NA,57.83783783783784
34653,Pasco County,FL,NA,35.4054054054054
34743,Osceola County,FL,53.06122448979592,NA
34747,Osceola County,FL,NA,60.27027027027027
34772,Osceola County,FL,70.12987012987013,NA
34996,Martin County,FL,NA,68.64864864864865
30046,Gwinnett County,GA,53.246753246753244,NA
30076,Fulton County,GA,NA,47.02702702702703
30083,DeKalb County,GA,31.539888682745826,NA
30116,Carroll County,GA,53.61781076066791,NA
30165,Floyd County,GA,NA,32.972972972972975
30238,Clayton County,GA,NA,61.35135135135135
30260,Clayton County,GA,NA,62.972972972972975
30310,Fulton County,GA,26.53061224489796,NA
30601,Clarke County,GA,71.05751391465677,NA
30680,Barrow County,GA,58.44155844155844,NA
30736,Catoosa County,GA,15.398886827458256,NA
30740,Whitfield County,GA,NA,90.54054054054053
30747,Chattooga County,GA,55.84415584415584,NA
30817,Lincoln County,GA,95.54730983302412,NA
30824,McDuffie County,GA,NA,53.51351351351351
30909,Richmond County,GA,31.16883116883117,NA
31061,Baldwin County,GA,NA,32.432432432432435
31405,Chatham County,GA,55.473098330241186,NA
31539,Jeff Davis County,GA,70.68645640074212,NA
31643,Brooks County,GA,87.94063079777365,NA
31768,Colquitt County,GA,36.734693877551024,NA
39845,Seminole County,GA,77.55102040816327,NA
96717,Honolulu County,HI,96.1038961038961,NA
96740,Hawaii County,HI,NA,62.43243243243243
96746,Kauai County,HI,69.38775510204081,NA
83704,Ada County,ID,54.35992578849722,27.027027027027028
83709,Ada County,ID,NA,6.486486486486487
83713,Ada County,ID,NA,72.43243243243244
60004,Cook County,IL,NA,43.24324324324324
60007,Cook County,IL,58.62708719851577,NA
60015,Lake County,IL,NA,29.72972972972973
60026,Cook County,IL,NA,78.91891891891892
60031,Lake County,IL,54.73098330241187,NA
60056,Cook County,IL,NA,18.37837837837838
60073,Lake County,IL,52.13358070500927,NA
60085,Lake County,IL,21.521335807050093,NA
60102,McHenry County,IL,NA,45.13513513513514
60123,Kane County,IL,24.675324675324674,NA
60137,DuPage County,IL,NA,33.78378378378378
60156,McHenry County,IL,41.00185528756957,NA
60201,Cook County,IL,NA,26.216216216216214
60302,Cook County,IL,NA,17.83783783783784
60304,Cook County,IL,NA,60.810810810810814
60433,Will County,IL,84.78664192949907,NA
60440,Will County,IL,23.191094619666046,NA
60453,Cook County,IL,18.181818181818183,9.72972972972973
60463,Cook County,IL,NA,50.54054054054053
60477,Cook County,IL,31.3543599257885,NA
60478,Cook County,IL,NA,76.21621621621621
60487,Cook County,IL,NA,42.7027027027027
60504,DuPage County,IL,NA,61.08108108108108
60544,Will County,IL,NA,27.837837837837835
60586,Will County,IL,18.923933209647494,NA
60622,Cook County,IL,43.59925788497217,NA
60628,Cook County,IL,9.647495361781075,NA
60647,Cook County,IL,35.621521335807046,NA
60651,Cook County,IL,10.575139146567718,NA
60653,Cook County,IL,NA,34.32432432432432
60655,Cook County,IL,33.209647495361786,NA
60804,Cook County,IL,23.00556586270872,NA
61944,Edgar County,IL,NA,57.027027027027025
62052,Jersey County,IL,NA,80.27027027027027
62246,Bond County,IL,88.49721706864564,NA
62703,Sangamon County,IL,NA,66.75675675675676
62864,Jefferson County,IL,53.80333951762524,NA
62881,Marion County,IL,73.8404452690167,NA
46016,Madison County,IN,18.738404452690165,NA
46040,Hancock County,IN,NA,85.94594594594595
46143,Johnson County,IN,62.33766233766234,NA
46158,Morgan County,IN,59.183673469387756,NA
46176,Shelby County,IN,20.222634508348794,NA
46219,Marion County,IN,NA,22.702702702702705
46221,Marion County,IN,34.137291280148425,NA
46222,Marion County,IN,23.191094619666046,NA
46310,Jasper County,IN,57.88497217068645,NA
46311,Lake County,IN,36.54916512059369,NA
46323,Lake County,IN,23.933209647495364,NA
46410,Lake County,IN,9.461966604823747,NA
46703,Steuben County,IN,NA,41.351351351351354
46706,DeKalb County,IN,NA,50.27027027027027
46755,Noble County,IN,32.28200371057514,NA
46804,Allen County,IN,50.649350649350644,28.64864864864865
46825,Allen County,IN,NA,64.5945945945946
46901,Howard County,IN,NA,5.9459459459459465
46947,Cass County,IN,65.49165120593692,NA
47303,Delaware County,IN,40.25974025974026,NA
47371,Jay County,IN,82.74582560296847,NA
47421,Lawrence County,IN,40.07421150278293,NA
47432,Orange County,IN,94.61966604823748,NA
47462,Lawrence County,IN,NA,97.2972972972973
47586,Perry County,IN,NA,72.97297297297297
47591,Knox County,IN,41.1873840445269,NA
47601,Warrick County,IN,65.86270871985158,NA
47882,Sullivan County,IN,78.4786641929499,NA
50310,Polk County,IA,24.304267161410017,NA
51566,Montgomery County,IA,78.29313543599258,NA
52001,Dubuque County,IA,NA,27.56756756756757
52537,Davis County,IA,87.19851576994434,NA
52802,Scott County,IA,82.00371057513914,NA
66090,Doniphan County,KS,NA,99.45945945945947
66604,Shawnee County,KS,NA,42.972972972972975
40033,Marion County,KY,64.19294990723562,NA
40160,Hardin County,KY,68.83116883116884,NA
40217,Jefferson County,KY,75.139146567718,NA
40229,Jefferson County,KY,16.14100185528757,NA
40258,Jefferson County,KY,25.60296846011132,NA
40391,Clark County,KY,10.38961038961039,NA
40701,Whitley County,KY,44.15584415584416,NA
41042,Boone County,KY,8.16326530612245,NA
41076,Campbell County,KY,74.58256029684601,NA
41094,Boone County,KY,NA,70
42029,Marshall County,KY,77.1799628942486,NA
42066,Graves County,KY,61.038961038961034,NA
42120,Allen County,KY,99.81447124304268,NA
42240,Christian County,KY,8.719851576994433,NA
70058,Jefferson Parish,LA,3.896103896103896,NA
70128,Orleans Parish,LA,21.150278293135436,NA
70339,Assumption Parish,LA,78.10760667903524,NA
70392,St. Mary Parish,LA,73.46938775510205,NA
70438,Washington Parish,LA,NA,17.56756756756757
70454,Tangipahoa Parish,LA,11.317254174397032,NA
70458,St. Tammany Parish,LA,7.792207792207792,NA
70560,Iberia Parish,LA,4.267161410018553,NA
70582,St. Martin Parish,LA,34.32282003710575,NA
70586,Evangeline Parish,LA,NA,40.27027027027027
70611,Calcasieu Parish,LA,NA,73.51351351351352
70737,Ascension Parish,LA,66.60482374768088,NA
70748,East Feliciana Parish,LA,82.18923933209648,NA
70815,East Baton Rouge Parish,LA,NA,41.08108108108108
70817,East Baton Rouge Parish,LA,37.105751391465674,NA
71006,Bossier Parish,LA,57.69944341372912,NA
71019,Red River Parish,LA,65.67717996289424,NA
71037,Bossier Parish,LA,21.89239332096475,NA
71064,Bossier Parish,LA,NA,94.5945945945946
71105,Caddo Parish,LA,NA,93.24324324324324
71108,Caddo Parish,LA,NA,44.054054054054056
71111,Bossier Parish,LA,NA,51.891891891891895
71203,Ouachita Parish,LA,10.760667903525047,NA
71295,Franklin Parish,LA,NA,57.2972972972973
04021,Cumberland County,ME,92.02226345083488,NA
04038,Cumberland County,ME,NA,50.810810810810814
04073,York County,ME,28.57142857142857,NA
04210,Androscoggin County,ME,NA,11.081081081081082
04401,Penobscot County,ME,3.339517625231911,NA
04416,Hancock County,ME,NA,83.78378378378379
04742,Aroostook County,ME,91.28014842300557,NA
04901,Kennebec County,ME,NA,5.135135135135135
21218,Baltimore city,MD,13.172541743970315,NA
21220,Baltimore County,MD,22.07792207792208,NA
21237,Baltimore County,MD,NA,91.62162162162161
21286,Baltimore County,MD,NA,71.08108108108108
01030,Hampden County,MA,NA,38.648648648648646
01075,Hampshire County,MA,NA,54.864864864864856
01082,Hampshire County,MA,29.12801484230056,40
01721,Middlesex County,MA,37.84786641929499,NA
01741,Middlesex County,MA,95.36178107606679,NA
01824,Middlesex County,MA,12.059369202226346,NA
01830,Essex County,MA,2.411873840445269,NA
01841,Essex County,MA,NA,0
01844,Essex County,MA,2.0408163265306123,NA
01851,Middlesex County,MA,NA,4.054054054054054
01862,Middlesex County,MA,51.94805194805194,NA
01864,Middlesex County,MA,94.43413729128015,NA
01867,Middlesex County,MA,32.09647495361781,NA
01876,Middlesex County,MA,NA,3.5135135135135136
01887,Middlesex County,MA,NA,2.9729729729729732
01938,Essex County,MA,NA,19.45945945945946
01960,Essex County,MA,0.3710575139146568,NA
01970,Essex County,MA,1.1131725417439702,0.8108108108108109
02043,Plymouth County,MA,43.7847866419295,NA
02093,Norfolk County,MA,NA,79.1891891891892
02116,Suffolk County,MA,19.29499072356215,NA
02118,Suffolk County,MA,0,NA
02121,Suffolk County,MA,NA,0.5405405405405406
02129,Suffolk County,MA,5.380333951762523,NA
02132,Suffolk County,MA,16.3265306122449,2.4324324324324325
02136,Suffolk County,MA,NA,6.756756756756757
02138,Middlesex County,MA,47.124304267161406,NA
02139,Middlesex County,MA,NA,3.783783783783784
02143,Middlesex County,MA,7.977736549165121,12.432432432432433
02150,Suffolk County,MA,6.679035250463822,NA
02151,Suffolk County,MA,NA,8.108108108108109
02176,Middlesex County,MA,34.87940630797773,NA
02343,Norfolk County,MA,44.526901669758814,NA
02360,Plymouth County,MA,NA,0.2702702702702703
02420,Middlesex County,MA,NA,60
02446,Norfolk County,MA,NA,36.21621621621622
02466,Middlesex County,MA,85.34322820037106,NA
02492,Norfolk County,MA,31.910946196660483,NA
02540,Barnstable County,MA,59.92578849721707,NA
02557,Dukes County,MA,92.20779220779221,NA
02746,Bristol County,MA,3.710575139146568,NA
02780,Bristol County,MA,5.565862708719852,NA
48001,St. Clair County,MI,NA,71.62162162162163
48033,Oakland County,MI,47.680890538033395,NA
48042,Macomb County,MI,NA,31.351351351351354
48045,Macomb County,MI,28.942486085343226,NA
48059,St. Clair County,MI,NA,47.02702702702703
48067,Oakland County,MI,42.486085343228204,46.21621621621622
48092,Macomb County,MI,33.95176252319109,NA
48108,Washtenaw County,MI,71.98515769944342,NA
48114,Livingston County,MI,NA,30.810810810810814
48126,Wayne County,MI,13.543599257884972,NA
48128,Wayne County,MI,81.63265306122449,NA
48141,Wayne County,MI,37.66233766233766,NA
48152,Wayne County,MI,36.92022263450835,NA
48186,Wayne County,MI,NA,14.324324324324325
48195,Wayne County,MI,NA,11.621621621621623
48197,Washtenaw County,MI,NA,2.7027027027027026
48205,Wayne County,MI,6.307977736549166,NA
48218,Wayne County,MI,NA,80.54054054054053
48227,Wayne County,MI,NA,38.91891891891892
48229,Wayne County,MI,63.07977736549165,NA
48230,Wayne County,MI,56.95732838589982,NA
48238,Wayne County,MI,27.82931354359926,NA
48306,Oakland County,MI,NA,25.675675675675674
48316,Macomb County,MI,NA,47.56756756756757
48334,Oakland County,MI,NA,36.75675675675676
48421,Lapeer County,MI,90.16697588126159,NA
48430,Genesee County,MI,30.612244897959183,NA
48451,Genesee County,MI,NA,76.48648648648648
48642,Midland County,MI,56.58627087198516,NA
48661,Ogemaw County,MI,58.998144712430424,NA
48706,Bay County,MI,NA,18.10810810810811
48732,Bay County,MI,58.070500927643785,NA
48756,Ogemaw County,MI,93.5064935064935,NA
48763,Iosco County,MI,NA,77.29729729729729
48813,Eaton County,MI,44.89795918367347,NA
48867,Shiawassee County,MI,9.276437847866418,NA
49002,Kalamazoo County,MI,38.218923933209645,NA
49008,Kalamazoo County,MI,NA,54.32432432432432
49038,Berrien County,MI,NA,65.13513513513513
49085,Berrien County,MI,60.29684601113172,NA
49103,Berrien County,MI,87.38404452690168,NA
49107,Berrien County,MI,71.42857142857143,NA
49464,Ottawa County,MI,57.32838589981447,38.37837837837838
49519,Kent County,MI,NA,66.21621621621621
49548,Kent County,MI,9.833024118738404,NA
49643,Grand Traverse County,MI,NA,91.8918918918919
49677,Osceola County,MI,68.27458256029685,NA
49686,Grand Traverse County,MI,NA,29.18918918918919
49779,Presque Isle County,MI,98.51576994434137,NA
49878,Delta County,MI,NA,84.5945945945946
49920,Iron County,MI,NA,84.32432432432432
55104,Ramsey County,MN,NA,74.86486486486487
55106,Ramsey County,MN,54.17439703153989,NA
55110,Ramsey County,MN,NA,73.78378378378379
55304,Anoka County,MN,NA,45.94594594594595
55337,Dakota County,MN,38.961038961038966,NA
55405,Hennepin County,MN,42.30055658627087,NA
55408,Hennepin County,MN,NA,43.513513513513516
55409,Hennepin County,MN,75.51020408163265,NA
55429,Hennepin County,MN,NA,42.16216216216216
55430,Hennepin County,MN,22.263450834879407,NA
55441,Hennepin County,MN,73.65491651205936,NA
55904,Olmsted County,MN,41.929499072356215,NA
56007,Freeborn County,MN,20.037105751391465,9.18918918918919
56431,Aitkin County,MN,NA,44.32432432432433
56572,Otter Tail County,MN,NA,68.91891891891892
56601,Beltrami County,MN,NA,1.891891891891892
38756,Washington County,MS,NA,94.86486486486486
38769,Bolivar County,MS,98.33024118738405,NA
39209,Hinds County,MS,26.159554730983302,NA
39307,Lauderdale County,MS,NA,89.45945945945945
39503,Harrison County,MS,13.91465677179963,NA
39525,Hancock County,MS,NA,55.67567567567567
39556,Hancock County,MS,67.53246753246754,NA
63026,St. Louis County,MO,40.816326530612244,NA
63028,Jefferson County,MO,NA,26.486486486486488
63121,St. Louis County,MO,33.39517625231911,NA
63122,St. Louis County,MO,97.03153988868274,NA
63303,St. Charles County,MO,NA,13.243243243243244
63701,Cape Girardeau County,MO,72.72727272727273,NA
63857,Dunklin County,MO,48.97959183673469,NA
63935,Ripley County,MO,NA,85.4054054054054
64085,Ray County,MO,56.029684601113175,85.67567567567568
64113,Jackson County,MO,70.31539888682747,NA
64118,Clay County,MO,7.235621521335807,NA
64131,Jackson County,MO,18.367346938775512,NA
64831,McDonald County,MO,NA,89.1891891891892
64836,Jasper County,MO,22.448979591836736,NA
65233,Cooper County,MO,NA,64.05405405405405
65349,Saline County,MO,NA,100
65401,Phelps County,MO,NA,21.08108108108108
65613,Polk County,MO,NA,38.108108108108105
65747,Barry County,MO,NA,95.94594594594594
59405,Cascade County,MT,NA,20
68107,Douglas County,NE,NA,57.567567567567565
68152,Douglas County,NE,NA,88.37837837837837
68845,Buffalo County,NE,84.4155844155844,NA
69138,Dawson County,NE,99.07235621521335,NA
69341,Scotts Bluff County,NE,NA,97.02702702702702
89119,Clark County,NV,24.118738404452692,NA
89135,Clark County,NV,87.01298701298701,NA
89436,Washoe County,NV,25.97402597402597,NA
03038,Rockingham County,NH,NA,20.54054054054054
03055,Hillsborough County,NH,52.50463821892394,NA
03076,Hillsborough County,NH,50.46382189239333,NA
03079,Rockingham County,NH,19.666048237476808,NA
03222,Grafton County,NH,NA,81.89189189189189
03301,Merrimack County,NH,20.964749536178108,NA
03773,Sullivan County,NH,NA,88.64864864864866
03868,Strafford County,NH,92.76437847866418,NA
07011,Passaic County,NJ,21.335807050092765,NA
07013,Passaic County,NJ,NA,37.567567567567565
07047,Hudson County,NJ,NA,1.3513513513513513
07055,Passaic County,NJ,NA,4.594594594594595
07107,Essex County,NJ,2.2263450834879404,NA
07458,Bergen County,NJ,NA,95.67567567567568
07470,Passaic County,NJ,NA,5.675675675675676
07657,Bergen County,NJ,NA,98.64864864864865
07676,Bergen County,NJ,91.4656771799629,NA
07840,Warren County,NJ,NA,34.5945945945946
07856,Morris County,NJ,NA,95.13513513513514
07871,Sussex County,NJ,61.59554730983302,NA
08054,Burlington County,NJ,27.643784786641927,NA
08079,Salem County,NJ,48.608534322820034,NA
08093,Gloucester County,NJ,42.857142857142854,NA
08205,Atlantic County,NJ,78.66419294990723,NA
08210,Cape May County,NJ,NA,87.29729729729729
08530,Hunterdon County,NJ,NA,85.94594594594595
08755,Ocean County,NJ,27.087198515769945,NA
08830,Middlesex County,NJ,NA,68.10810810810811
87068,Valencia County,NM,96.66048237476808,NA
87120,Bernalillo County,NM,12.244897959183673,NA
87122,Bernalillo County,NM,NA,88.91891891891892
87301,McKinley County,NM,30.79777365491651,NA
87501,Santa Fe County,NM,NA,69.1891891891892
87557,Taos County,NM,NA,80
88007,Doa Ana County,NM,NA,56.75675675675676
88220,Eddy County,NM,24.489795918367346,NA
88240,Lea County,NM,51.39146567717996,NA
88310,Otero County,NM,NA,6.216216216216217
10017,New York County,NY,NA,69.72972972972973
10456,Bronx County,NY,NA,4.324324324324325
10701,Westchester County,NY,30.0556586270872,NA
10704,Westchester County,NY,71.61410018552876,NA
11203,Kings County,NY,NA,7.567567567567568
11208,Kings County,NY,NA,1.6216216216216217
11211,Kings County,NY,67.16141001855289,NA
11212,Kings County,NY,1.2987012987012987,NA
11221,Kings County,NY,NA,4.864864864864865
11236,Kings County,NY,6.122448979591836,NA
11355,Queens County,NY,NA,55.4054054054054
11358,Queens County,NY,NA,58.91891891891892
11373,Queens County,NY,17.996289424860855,NA
11416,Queens County,NY,NA,87.56756756756758
11420,Queens County,NY,NA,37.027027027027025
12043,Schoharie County,NY,NA,72.97297297297297
12095,Fulton County,NY,49.53617810760667,NA
12186,Albany County,NY,97.21706864564007,NA
12308,Schenectady County,NY,44.712430426716146,NA
12413,Greene County,NY,NA,77.56756756756756
12414,Greene County,NY,NA,39.729729729729726
12508,Dutchess County,NY,79.0352504638219,NA
12801,Warren County,NY,NA,62.16216216216216
12804,Warren County,NY,NA,11.891891891891893
12828,Washington County,NY,48.05194805194805,NA
12839,Washington County,NY,31.72541743970315,NA
12941,Essex County,NY,93.13543599257885,NA
12946,Essex County,NY,NA,60.54054054054055
13032,Madison County,NY,36.36363636363637,NA
13045,Cortland County,NY,5.936920222634509,NA
13118,Cayuga County,NY,NA,82.97297297297297
13148,Seneca County,NY,NA,33.513513513513516
13205,Onondaga County,NY,16.697588126159555,NA
13431,Herkimer County,NY,98.14471243042672,NA
13662,St. Lawrence County,NY,56.21521335807051,NA
13760,Broome County,NY,1.4842300556586272,NA
13790,Broome County,NY,39.51762523191095,NA
13849,Otsego County,NY,79.962894248608535,NA
13905,Broome County,NY,2.782931354359926,NA
14048,Chautauqua County,NY,43.042671614100186,NA
14075,Erie County,NY,NA,7.837837837837839
14220,Erie County,NY,17.625231910946194,NA
14221,Erie County,NY,NA,23.783783783783786
14225,Erie County,NY,NA,54.59459459459459
14437,Livingston County,NY,NA,46.75675675675676
14450,Monroe County,NY,4.638218923933209,NA
14504,Ontario County,NY,NA,96.48648648648648
14561,Ontario County,NY,92.39332096474953,NA
14564,Ontario County,NY,NA,20.27027027027027
14580,Monroe County,NY,0.927643784786642,NA
14606,Monroe County,NY,NA,14.594594594594595
14612,Monroe County,NY,3.525046382189239,NA
14621,Monroe County,NY,0.1855287569573284,NA
14719,Cattaraugus County,NY,94.24860853432281,NA
14760,Cattaraugus County,NY,12.80148423005566,NA
14770,Cattaraugus County,NY,NA,96.21621621621622
27106,Forsyth County,NC,16.883116883116884,NA
27295,Davidson County,NC,5.75139146567718,NA
27405,Guilford County,NC,NA,15.945945945945947
27505,Harnett County,NC,86.08534322820037,NA
27516,Orange County,NC,NA,15.675675675675677
27549,Franklin County,NC,NA,35.67567567567568
27596,Franklin County,NC,68.08905380333951,NA
27601,Wake County,NC,92.57884972170687,NA
27607,Wake County,NC,85.15769944341372,NA
27610,Wake County,NC,33.58070500927644,NA
27703,Durham County,NC,14.471243042671613,NA
27707,Durham County,NC,16.512059369202227,NA
27713,Durham County,NC,28.385899814471244,NA
27932,Chowan County,NC,NA,48.10810810810811
27948,Dare County,NC,84.60111317254174,NA
28103,Union County,NC,90.9090909090909,NA
28138,Rowan County,NC,90.72356215213358,NA
28152,Cleveland County,NC,NA,61.62162162162163
28168,Lincoln County,NC,NA,95.4054054054054
28216,Mecklenburg County,NC,NA,53.783783783783775
28269,Mecklenburg County,NC,17.068645640074212,NA
28374,Moore County,NC,NA,90
28401,New Hanover County,NC,13.729128014842301,NA
28405,New Hanover County,NC,69.9443413729128,NA
28451,Brunswick County,NC,33.024118738404454,NA
28504,Lenoir County,NC,50.278293135435995,NA
28546,Onslow County,NC,NA,52.43243243243243
28625,Iredell County,NC,NA,56.486486486486484
28655,Burke County,NC,7.606679035250464,NA
58701,Ward County,ND,NA,10
43017,Franklin County,OH,66.04823747680891,71.89189189189189
43040,Union County,OH,NA,22.972972972972975
43068,Franklin County,OH,12.615955473098332,NA
43119,Franklin County,OH,27.458256029684602,NA
43123,Franklin County,OH,10.018552875695732,NA
43130,Fairfield County,OH,2.5974025974025974,NA
43204,Franklin County,OH,NA,17.027027027027028
43205,Franklin County,OH,50.83487940630798,NA
43207,Franklin County,OH,15.769944341372913,NA
43215,Franklin County,OH,NA,98.1081081081081
43506,Williams County,OH,28.7569573283859,NA
43558,Fulton County,OH,NA,51.621621621621614
43560,Lucas County,OH,29.499072356215212,NA
43614,Lucas County,OH,14.100185528756956,NA
43623,Lucas County,OH,64.37847866419295,NA
43701,Muskingum County,OH,0.7421150278293136,NA
43713,Belmont County,OH,64.7495361781076,NA
43725,Guernsey County,OH,83.30241187384044,NA
43952,Jefferson County,OH,10.204081632653061,NA
44001,Lorain County,OH,NA,5.405405405405405
44004,Ashtabula County,OH,18.552875695732837,NA
44012,Lorain County,OH,NA,8.378378378378379
44055,Lorain County,OH,10.946196660482375,NA
44070,Cuyahoga County,OH,25.788497217068645,NA
44089,Erie County,OH,NA,11.351351351351353
44105,Cuyahoga County,OH,0.5565862708719851,NA
44107,Cuyahoga County,OH,2.9684601113172544,NA
44108,Cuyahoga County,OH,4.823747680890538,NA
44122,Cuyahoga County,OH,26.34508348794063,NA
44143,Cuyahoga County,OH,38.775510204081634,17.2972972972973
44305,Summit County,OH,NA,39.189189189189186
44313,Summit County,OH,NA,20.81081081081081
44321,Summit County,OH,79.77736549165121,NA
44460,Columbiana County,OH,NA,9.45945945945946
44483,Trumbull County,OH,NA,15.405405405405407
44512,Mahoning County,OH,NA,16.486486486486488
44515,Mahoning County,OH,NA,12.972972972972974
44691,Wayne County,OH,34.87940630797773,NA
44870,Erie County,OH,3.153988868274583,NA
44890,Huron County,OH,46.38218923933209,NA
45036,Warren County,OH,NA,30
45044,Butler County,OH,NA,16.216216216216218
45211,Hamilton County,OH,39.332096474953616,NA
45229,Hamilton County,OH,33.58070500927644,NA
45338,Preble County,OH,NA,91.08108108108108
45371,Miami County,OH,58.8126159554731,NA
45373,Miami County,OH,NA,15.135135135135137
45424,Montgomery County,OH,14.656771799628942,NA
45432,Greene County,OH,72.17068645640074,NA
45439,Montgomery County,OH,NA,75.94594594594595
45504,Clark County,OH,91.09461966604823,NA
45663,Scioto County,OH,NA,85.13513513513513
45750,Washington County,OH,15.955473098330241,NA
45804,Allen County,OH,15.584415584415584,NA
45885,Auglaize County,OH,NA,82.16216216216216
73018,Grady County,OK,51.20593692022264,NA
73020,Oklahoma County,OK,46.93877551020408,NA
73069,Cleveland County,OK,68.6456400742115,NA
73072,Cleveland County,OK,NA,30.270270270270274
73135,Oklahoma County,OK,NA,58.648648648648646
74104,Tulsa County,OK,84.2300556586271,NA
74132,Tulsa County,OK,95.17625231910947,NA
74133,Tulsa County,OK,35.43599257884972,NA
74145,Tulsa County,OK,NA,65.4054054054054
74801,Pottawatomie County,OK,43.41372912801484,NA
74960,Adair County,OK,NA,41.891891891891895
97089,Clackamas County,OR,NA,93.78378378378378
97138,Clatsop County,OR,64.93506493506493,NA
97206,Multnomah County,OR,17.439703153988866,NA
97231,Multnomah County,OR,98.88682745825604,NA
97267,Clackamas County,OR,40.63079777365491,NA
97367,Lincoln County,OR,NA,35.945945945945944
97381,Marion County,OR,NA,65.67567567567568
97415,Curry County,OR,77.73654916512059,NA
97420,Coos County,OR,87.569573283859,NA
97458,Coos County,OR,NA,92.16216216216216
97470,Douglas County,OR,34.50834879406308,NA
97741,Jefferson County,OR,76.43784786641929,NA
97754,Crook County,OR,NA,25.135135135135133
97914,Malheur County,OR,26.90166975881262,NA
15063,Washington County,PA,67.3469387755102,NA
15133,Allegheny County,PA,NA,84.05405405405405
15212,Allegheny County,PA,NA,41.62162162162162
15226,Allegheny County,PA,NA,59.45945945945946
15228,Allegheny County,PA,NA,69.45945945945947
15522,Bedford County,PA,67.71799628942486,NA
16057,Butler County,PA,69.01669758812616,NA
16201,Armstrong County,PA,35.99257884972171,NA
16335,Crawford County,PA,14.285714285714285,NA
16407,Erie County,PA,80.3339517625232,NA
16506,Erie County,PA,NA,66.48648648648648
16509,Erie County,PA,37.47680890538033,NA
16510,Erie County,PA,45.45454545454545,NA
16601,Blair County,PA,11.873840445269018,8.91891891891892
16735,McKean County,PA,NA,68.37837837837839
16933,Tioga County,PA,89.42486085343229,NA
17025,Cumberland County,PA,38.03339517625232,NA
17036,Dauphin County,PA,26.53061224489796,NA
17055,Cumberland County,PA,79.40630797773655,NA
17070,Cumberland County,PA,49.721706864564005,NA
17103,Dauphin County,PA,45.26901669758813,NA
17222,Franklin County,PA,NA,55.13513513513514
17313,York County,PA,69.20222634508349,NA
17324,Cumberland County,PA,96.28942486085343,NA
17325,Adams County,PA,28.014842300556587,NA
17512,Lancaster County,PA,47.86641929499073,NA
17543,Lancaster County,PA,27.27272727272727,NA
17545,Lancaster County,PA,NA,34.86486486486486
17701,Lycoming County,PA,6.493506493506493,NA
17702,Lycoming County,PA,NA,97.83783783783784
17815,Columbia County,PA,20.77922077922078,NA
18042,Northampton County,PA,7.421150278293136,NA
18102,Lehigh County,PA,1.855287569573284,NA
18103,Lehigh County,PA,NA,7.297297297297297
18252,Schuylkill County,PA,NA,81.35135135135135
18324,Pike County,PA,75.32467532467533,NA
18640,Luzerne County,PA,48.42300556586271,NA
18822,Susquehanna County,PA,93.32096474953617,NA
18944,Bucks County,PA,NA,47.83783783783784
18951,Bucks County,PA,NA,21.35135135135135
19020,Bucks County,PA,NA,10.54054054054054
19056,Bucks County,PA,79.22077922077922,NA
19078,Delaware County,PA,NA,74.5945945945946
19085,Delaware County,PA,NA,97.56756756756756
19104,Philadelphia County,PA,15.213358070500927,NA
19123,Philadelphia County,PA,59.183673469387756,NA
19126,Philadelphia County,PA,38.218923933209645,NA
19131,Philadelphia County,PA,30.983302411873844,NA
19132,Philadelphia County,PA,8.534322820037106,18.64864864864865
19135,Philadelphia County,PA,19.109461966604822,NA
19140,Philadelphia County,PA,4.081632653061225,NA
19142,Philadelphia County,PA,47.49536178107607,NA
19143,Philadelphia County,PA,1.6697588126159555,NA
19150,Philadelphia County,PA,NA,27.297297297297295
19152,Philadelphia County,PA,70.87198515769944,NA
19317,Delaware County,PA,99.25788497217069,NA
19422,Montgomery County,PA,56.77179962894249,NA
19508,Berks County,PA,57.14285714285714,NA
19601,Berks County,PA,5.194805194805195,52.16216216216216
19606,Berks County,PA,15.0278293135436,NA
02842,Newport County,RI,80.51948051948052,NA
02908,Providence County,RI,74.02597402597402,NA
29063,Richland County,SC,62.708719851577,NA
29203,Richland County,SC,14.842300556586272,NA
29418,Charleston County,SC,45.083487940630796,NA
29440,Georgetown County,SC,NA,48.91891891891892
29445,Berkeley County,SC,NA,28.91891891891892
29466,Charleston County,SC,55.10204081632652,NA
29486,Berkeley County,SC,NA,52.972972972972975
29501,Florence County,SC,35.80705009276438,NA
29510,Georgetown County,SC,NA,82.43243243243244
29541,Florence County,SC,80.89053803339517,NA
29574,Marion County,SC,NA,65.67567567567568
29576,Horry County,SC,NA,14.864864864864865
29615,Greenville County,SC,64.0074211502783,NA
29621,Anderson County,SC,42.67161410018553,NA
29627,Anderson County,SC,NA,59.189189189189186
29630,Pickens County,SC,86.64192949907236,NA
29640,Pickens County,SC,59.74025974025974,NA
57105,Minnehaha County,SD,NA,13.783783783783784
57252,Grant County,SD,95.91836734693877,88.10810810810811
37043,Montgomery County,TN,NA,24.594594594594597
37072,Davidson County,TN,81.26159554730982,NA
37086,Rutherford County,TN,52.319109461966605,NA
37110,Warren County,TN,NA,28.37837837837838
37174,Williamson County,TN,NA,40.54054054054054
37179,Williamson County,TN,85.89981447124305,NA
37180,Bedford County,TN,100,NA
37334,Lincoln County,TN,41.74397031539889,NA
37355,Coffee County,TN,39.888682745825605,NA
37357,Warren County,TN,88.86827458256029,NA
37663,Sullivan County,TN,71.24304267161409,NA
37711,Hawkins County,TN,NA,83.51351351351352
37716,Anderson County,TN,NA,32.7027027027027
37738,Sevier County,TN,93.87755102040816,NA
37801,Blount County,TN,19.480519480519483,NA
37854,Roane County,TN,NA,61.891891891891895
38019,Tipton County,TN,61.224489795918366,NA
38108,Shelby County,TN,NA,83.24324324324324
38114,Shelby County,TN,25.41743970315399,NA
38242,Henry County,TN,52.69016697588126,NA
38301,Madison County,TN,40.44526901669759,NA
38351,Henderson County,TN,NA,45.67567567567568
75061,Dallas County,TX,NA,93.51351351351352
75063,Dallas County,TX,62.89424860853432,NA
75088,Dallas County,TX,NA,49.45945945945946
75098,Collin County,TX,25.231910946196663,NA
75142,Kaufman County,TX,66.41929499072357,NA
75217,Dallas County,TX,11.50278293135436,NA
75254,Dallas County,TX,83.85899814471243,NA
75602,Gregg County,TX,63.63636363636363,NA
75662,Gregg County,TX,88.68274582560296,NA
75844,Houston County,TX,NA,92.43243243243244
76112,Tarrant County,TX,48.79406307977737,NA
76308,Wichita County,TX,NA,75.4054054054054
76367,Wichita County,TX,95.73283858998145,NA
76502,Bell County,TX,51.76252319109462,1.0810810810810811
76504,Bell County,TX,41.37291280148423,23.513513513513516
76522,Coryell County,TX,NA,14.054054054054054
77014,Harris County,TX,NA,62.972972972972975
77040,Harris County,TX,NA,33.24324324324324
77055,Harris County,TX,63.821892393320965,NA
77304,Montgomery County,TX,66.23376623376623,NA
77316,Montgomery County,TX,76.80890538033395,NA
77355,Montgomery County,TX,NA,77.83783783783784
77373,Harris County,TX,32.83858998144712,NA
77375,Harris County,TX,90.53803339517626,NA
77379,Harris County,TX,29.87012987012987,NA
77474,Austin County,TX,91.83673469387756,NA
77539,Galveston County,TX,23.562152133580703,NA
77571,Harris County,TX,32.467532467532465,NA
77625,Hardin County,TX,NA,78.64864864864865
77706,Jefferson County,TX,53.80333951762524,NA
77845,Brazos County,TX,12.987012987012985,NA
78045,Webb County,TX,61.96660482374769,NA
78046,Webb County,TX,19.851576994434136,NA
78148,Bexar County,TX,99.62894248608535,NA
78155,Guadalupe County,TX,28.200371057513912,NA
78257,Bexar County,TX,99.44341372912801,NA
78542,Hidalgo County,TX,NA,31.891891891891895
78572,Hidalgo County,TX,22.634508348794064,NA
78613,Williamson County,TX,37.291280148423006,NA
78624,Gillespie County,TX,77.92207792207793,NA
78641,Williamson County,TX,24.860853432282003,NA
78738,Travis County,TX,82.3747680890538,NA
79403,Lubbock County,TX,56.400742115027825,NA
79562,Taylor County,TX,NA,99.72972972972973
79928,El Paso County,TX,86.82745825602969,NA
84065,Salt Lake County,UT,43.970315398886825,NA
05403,Chittenden County,VT,84.97217068645641,NA
05452,Chittenden County,VT,NA,37.2972972972973
05488,Franklin County,VT,82.93135435992579,NA
05602,Washington County,VT,66.97588126159555,NA
20169,Prince William County,VA,NA,90.81081081081082
20190,Fairfax County,VA,NA,92.97297297297298
22043,Fairfax County,VA,73.28385899814471,NA
22079,Fairfax County,VA,48.237476808905384,NA
22193,Prince William County,VA,NA,23.243243243243246
22201,Arlington County,VA,64.56400742115028,NA
22312,Fairfax County,VA,49.90723562152134,NA
22655,Frederick County,VA,63.26530612244898,NA
23112,Chesterfield County,VA,NA,30.54054054054054
23141,New Kent County,VA,NA,81.62162162162161
23223,Henrico County,VA,NA,67.56756756756756
23451,Virginia Beach city,VA,45.82560296846011,NA
23453,Virginia Beach city,VA,54.54545454545454,NA
23860,Hopewell city,VA,35.25046382189239,NA
24112,Henry County,VA,20.59369202226345,NA
24503,Lynchburg city,VA,NA,62.70270270270271
98014,King County,WA,NA,99.1891891891892
98030,King County,WA,NA,42.432432432432435
98102,King County,WA,74.39703153988869,NA
98115,King County,WA,41.55844155844156,NA
98125,King County,WA,73.09833024118738,NA
98198,King County,WA,NA,31.62162162162162
98277,Island County,WA,NA,28.10810810810811
98290,Snohomish County,WA,NA,52.702702702702695
98292,Snohomish County,WA,65.3061224489796,NA
98294,Snohomish County,WA,89.23933209647495,NA
98362,Clallam County,WA,39.70315398886827,NA
98370,Kitsap County,WA,NA,44.32432432432433
98403,Pierce County,WA,NA,94.32432432432432
98409,Pierce County,WA,60.85343228200371,NA
98584,Mason County,WA,38.5899814471243,NA
98665,Clark County,WA,83.11688311688312,75.13513513513513
99336,Benton County,WA,NA,2.1621621621621623
20019,District of Columbia,DC,NA,54.054054054054056
25071,Kanawha County,WV,NA,79.72972972972973
25438,Jefferson County,WV,NA,89.72972972972974
25526,Putnam County,WV,44.34137291280148,NA
26070,Brooke County,WV,75.69573283858998,NA
26288,Webster County,WV,82.56029684601113,NA
53051,Waukesha County,WI,49.16512059369202,NA
53080,Ozaukee County,WI,NA,87.83783783783784
53105,Racine County,WI,NA,12.702702702702704
53122,Waukesha County,WI,97.77365491651206,NA
53128,Walworth County,WI,NA,87.02702702702703
53144,Kenosha County,WI,52.875695732838594,NA
53146,Waukesha County,WI,NA,96.75675675675676
53204,Milwaukee County,WI,8.905380333951761,NA
53206,Milwaukee County,WI,12.430426716141001,NA
53216,Milwaukee County,WI,NA,56.21621621621622
53511,Rock County,WI,21.70686456400742,7.027027027027027
53916,Dodge County,WI,47.30983302411874,NA
53959,Sauk County,WI,NA,45.40540540540541
54016,St. Croix County,WI,51.57699443413729,NA
54174,Oconto County,WI,98.7012987012987,NA
54403,Marathon County,WI,49.35064935064935,NA
54449,Wood County,WI,74.21150278293135,NA
54455,Marathon County,WI,NA,86.48648648648648
54701,Eau Claire County,WI,NA,25.945945945945947
54751,Dunn County,WI,69.75881261595546,31.08108108108108
54911,Outagamie County,WI,45.640074211502785,NA
54952,Winnebago County,WI,NA,40.81081081081081
82007,Laramie County,WY,92.94990723562152,NA
82414,Park County,WY,89.05380333951763,NA
