ZipCode,county,state,Adult,Retirement,Geriatric
35010,Tallapoosa County,AL,38.089622641509436,NA,26.952141057934508
35023,Jefferson County,AL,NA,16.765578635014837,NA
35031,Blount County,AL,74.52830188679245,NA,NA
35034,Bibb County,AL,93.98584905660378,NA,NA
35040,Shelby County,AL,52.00471698113207,NA,NA
35057,Cullman County,AL,NA,NA,88.41309823677582
35058,Cullman County,AL,NA,77.00296735905044,NA
35068,Jefferson County,AL,NA,90.20771513353115,NA
35116,Jefferson County,AL,94.5754716981132,NA,NA
35126,Jefferson County,AL,NA,51.18694362017804,NA
35128,St. Clair County,AL,75.11792452830188,NA,NA
35150,Talladega County,AL,42.33490566037736,NA,NA
35226,Jefferson County,AL,50.589622641509436,NA,NA
35570,Marion County,AL,NA,55.637982195845694,NA
35601,Morgan County,AL,NA,17.655786350148368,NA
35603,Morgan County,AL,NA,NA,63.22418136020151
35630,Lauderdale County,AL,33.84433962264151,NA,NA
35802,Madison County,AL,67.09905660377359,NA,NA
35803,Madison County,AL,NA,37.98219584569733,NA
35810,Madison County,AL,NA,76.26112759643917,NA
35950,Marshall County,AL,43.160377358490564,NA,NA
35961,DeKalb County,AL,94.45754716981132,NA,NA
36024,Elmore County,AL,92.45283018867924,NA,NA
36066,Autauga County,AL,NA,91.98813056379822,49.37027707808564
36067,Autauga County,AL,NA,NA,71.03274559193954
36092,Elmore County,AL,47.64150943396226,NA,NA
36111,Montgomery County,AL,63.91509433962265,NA,NA
36274,Randolph County,AL,79.95283018867924,NA,NA
36312,Houston County,AL,NA,NA,98.74055415617129
36360,Dale County,AL,49.528301886792455,NA,NA
36535,Baldwin County,AL,NA,NA,68.26196473551637
36608,Mobile County,AL,46.10849056603774,NA,NA
36756,Perry County,AL,NA,NA,92.19143576826197
99501,Anchorage Municipality,AK,NA,72.40356083086054,NA
99701,Fairbanks North Star Borough,AK,NA,89.61424332344214,NA
85006,Maricopa County,AZ,NA,87.68545994065282,NA
85027,Maricopa County,AZ,43.39622641509434,NA,NA
85035,Maricopa County,AZ,NA,61.42433234421365,85.8942065491184
85138,Pinal County,AZ,71.22641509433963,NA,NA
85143,Pinal County,AZ,NA,38.27893175074184,NA
85204,Maricopa County,AZ,17.452830188679243,NA,NA
85224,Maricopa County,AZ,NA,NA,45.5919395465995
85225,Maricopa County,AZ,42.57075471698113,64.83679525222553,NA
85248,Maricopa County,AZ,58.72641509433962,NA,NA
85302,Maricopa County,AZ,NA,NA,48.86649874055416
85373,Maricopa County,AZ,NA,49.85163204747774,NA
85375,Maricopa County,AZ,NA,24.629080118694365,NA
85381,Maricopa County,AZ,64.74056603773585,NA,NA
85382,Maricopa County,AZ,NA,45.99406528189911,NA
85641,Pima County,AZ,NA,97.62611275964392,NA
85653,Pima County,AZ,38.67924528301887,NA,NA
85710,Pima County,AZ,NA,NA,5.793450881612091
85713,Pima County,AZ,NA,40.80118694362017,NA
85718,Pima County,AZ,59.66981132075472,NA,NA
85741,Pima County,AZ,35.02358490566038,NA,NA
86005,Coconino County,AZ,78.89150943396226,NA,NA
86314,Yavapai County,AZ,NA,NA,62.97229219143576
86315,Yavapai County,AZ,NA,72.70029673590504,NA
86401,Mohave County,AZ,NA,9.347181008902076,NA
86409,Mohave County,AZ,NA,4.747774480712167,21.158690176322416
71603,Jefferson County,AR,NA,24.03560830860534,NA
71832,Sevier County,AR,NA,79.08011869436203,NA
72002,Saline County,AR,NA,73.59050445103857,NA
72032,Faulkner County,AR,NA,45.6973293768546,NA
72058,Faulkner County,AR,NA,NA,87.6574307304786
72088,Van Buren County,AR,NA,NA,75.06297229219143
72113,Pulaski County,AR,NA,48.367952522255194,NA
72204,Pulaski County,AR,NA,67.50741839762611,NA
72211,Pulaski County,AR,NA,79.52522255192879,NA
72390,Phillips County,AR,93.16037735849056,NA,NA
72543,Cleburne County,AR,NA,63.05637982195845,NA
72601,Boone County,AR,NA,NA,17.632241813602015
72653,Baxter County,AR,NA,NA,83.12342569269522
72687,Marion County,AR,NA,83.97626112759644,NA
72701,Washington County,AR,NA,71.2166172106825,NA
72761,Benton County,AR,NA,68.39762611275965,NA
72855,Logan County,AR,NA,NA,95.96977329974811
72904,Sebastian County,AR,NA,65.57863501483679,NA
72958,Scott County,AR,NA,87.98219584569733,NA
90011,Los Angeles County,CA,NA,47.774480712166174,NA
90013,Los Angeles County,CA,56.839622641509436,NA,NA
90020,Los Angeles County,CA,92.21698113207547,NA,NA
90033,Los Angeles County,CA,NA,50.29673590504451,NA
90037,Los Angeles County,CA,39.2688679245283,NA,NA
90048,Los Angeles County,CA,NA,62.31454005934718,NA
90232,Los Angeles County,CA,NA,NA,62.72040302267003
90278,Los Angeles County,CA,61.67452830188679,NA,NA
90280,Los Angeles County,CA,NA,NA,37.531486146095716
90605,Los Angeles County,CA,NA,NA,57.93450881612091
90723,Los Angeles County,CA,NA,72.10682492581603,NA
90805,Los Angeles County,CA,20.28301886792453,NA,NA
91202,Los Angeles County,CA,NA,NA,24.43324937027708
91331,Los Angeles County,CA,15.330188679245282,NA,NA
91356,Los Angeles County,CA,NA,NA,57.43073047858942
91406,Los Angeles County,CA,NA,41.3946587537092,NA
91730,San Bernardino County,CA,23.46698113207547,NA,NA
91731,Los Angeles County,CA,NA,NA,90.42821158690177
91732,Los Angeles County,CA,NA,34.718100890207715,NA
91761,San Bernardino County,CA,27.594339622641513,NA,NA
91763,San Bernardino County,CA,65.09433962264151,NA,NA
91765,Los Angeles County,CA,NA,57.71513353115727,NA
91767,Los Angeles County,CA,NA,52.37388724035609,NA
91770,Los Angeles County,CA,53.06603773584906,NA,NA
91773,Los Angeles County,CA,NA,65.8753709198813,NA
91784,San Bernardino County,CA,NA,NA,35.012594458438286
91786,San Bernardino County,CA,65.44811320754717,NA,NA
92008,San Diego County,CA,53.41981132075472,NA,NA
92067,San Diego County,CA,NA,NA,87.40554156171285
92116,San Diego County,CA,NA,NA,85.13853904282117
92131,San Diego County,CA,71.10849056603774,NA,NA
92264,Riverside County,CA,95.16509433962264,NA,NA
92307,San Bernardino County,CA,NA,NA,39.29471032745592
92311,San Bernardino County,CA,38.443396226415096,NA,NA
92386,San Bernardino County,CA,99.88207547169812,NA,NA
92392,San Bernardino County,CA,21.462264150943398,NA,NA
92395,San Bernardino County,CA,30.424528301886795,44.362017804154306,NA
92407,San Bernardino County,CA,51.65094339622641,NA,NA
92410,San Bernardino County,CA,NA,34.56973293768546,NA
92505,Riverside County,CA,48.93867924528302,NA,NA
92563,Riverside County,CA,35.613207547169814,NA,38.79093198992443
92603,Orange County,CA,85.73113207547169,NA,NA
92612,Orange County,CA,NA,98.96142433234422,NA
92627,Orange County,CA,23.82075471698113,81.30563798219585,NA
92637,Orange County,CA,NA,35.60830860534125,NA
92656,Orange County,CA,36.20283018867924,NA,NA
92677,Orange County,CA,NA,NA,20.40302267002519
92692,Orange County,CA,NA,26.85459940652819,NA
92703,Orange County,CA,40.91981132075472,NA,NA
92801,Orange County,CA,35.96698113207547,NA,NA
92870,Orange County,CA,38.56132075471698,NA,NA
93001,Ventura County,CA,NA,NA,50.377833753148614
93012,Ventura County,CA,68.04245283018868,NA,NA
93203,Kern County,CA,85.14150943396226,NA,NA
93210,Fresno County,CA,NA,91.54302670623146,NA
93230,Kings County,CA,52.12264150943396,NA,NA
93401,San Luis Obispo County,CA,NA,54.74777448071217,NA
93451,San Luis Obispo County,CA,NA,99.40652818991099,NA
93458,Santa Barbara County,CA,17.806603773584907,NA,NA
93555,Kern County,CA,27.94811320754717,NA,NA
93612,Fresno County,CA,46.4622641509434,NA,NA
93631,Fresno County,CA,73.82075471698113,NA,NA
93657,Fresno County,CA,89.97641509433963,NA,NA
93705,Fresno County,CA,NA,45.25222551928783,NA
93720,Fresno County,CA,66.39150943396226,NA,NA
93905,Monterey County,CA,NA,56.083086053412465,NA
93927,Monterey County,CA,NA,85.60830860534125,NA
94024,Santa Clara County,CA,NA,70.91988130563797,NA
94102,San Francisco County,CA,10.61320754716981,NA,NA
94110,San Francisco County,CA,16.50943396226415,NA,NA
94115,San Francisco County,CA,NA,NA,11.838790931989925
94117,San Francisco County,CA,81.60377358490565,NA,NA
94118,San Francisco County,CA,57.193396226415096,NA,NA
94122,San Francisco County,CA,49.410377358490564,NA,NA
94533,Solano County,CA,NA,27.74480712166172,NA
94534,Solano County,CA,NA,46.58753709198813,NA
94539,Alameda County,CA,83.01886792452831,NA,NA
94544,Alameda County,CA,21.108490566037734,NA,NA
94551,Alameda County,CA,NA,55.19287833827893,NA
94553,Contra Costa County,CA,NA,31.008902077151333,NA
94578,Alameda County,CA,NA,NA,42.82115869017632
94598,Contra Costa County,CA,NA,57.27002967359051,NA
94601,Alameda County,CA,NA,NA,55.66750629722922
94605,Alameda County,CA,27.47641509433962,NA,NA
94606,Alameda County,CA,NA,NA,61.96473551637279
94608,Alameda County,CA,NA,52.6706231454006,NA
94612,Alameda County,CA,NA,NA,75.81863979848866
94702,Alameda County,CA,NA,NA,68.51385390428212
94703,Alameda County,CA,NA,NA,84.88664987405542
94705,Alameda County,CA,NA,NA,79.09319899244332
94709,Alameda County,CA,98.70283018867924,NA,NA
95050,Santa Clara County,CA,NA,NA,47.607052896725435
95060,Santa Cruz County,CA,72.99528301886792,NA,NA
95122,Santa Clara County,CA,48.2311320754717,NA,NA
95124,Santa Clara County,CA,59.43396226415094,NA,NA
95205,San Joaquin County,CA,NA,55.934718100890215,NA
95240,San Joaquin County,CA,18.985849056603772,NA,NA
95242,San Joaquin County,CA,NA,55.48961424332344,NA
95348,Merced County,CA,66.27358490566037,NA,NA
95355,Stanislaus County,CA,11.43867924528302,NA,NA
95356,Stanislaus County,CA,42.806603773584904,NA,NA
95370,Tuolumne County,CA,NA,4.005934718100891,5.289672544080604
95376,San Joaquin County,CA,NA,37.388724035608305,NA
95377,San Joaquin County,CA,68.39622641509435,NA,NA
95380,Stanislaus County,CA,NA,NA,53.40050377833753
95448,Sonoma County,CA,NA,NA,40.050377833753146
95620,Solano County,CA,83.49056603773585,NA,NA
95630,Sacramento County,CA,75.35377358490565,NA,NA
95678,Placer County,CA,NA,36.20178041543027,NA
95687,Solano County,CA,39.97641509433962,NA,NA
95758,Sacramento County,CA,54.95283018867924,NA,NA
95825,Sacramento County,CA,NA,NA,34.5088161209068
95834,Sacramento County,CA,NA,79.22848664688428,NA
95842,Sacramento County,CA,47.2877358490566,NA,NA
95912,Colusa County,CA,98.23113207547169,NA,NA
96007,Shasta County,CA,67.21698113207547,NA,NA
96150,El Dorado County,CA,70.75471698113208,NA,NA
96161,Nevada County,CA,NA,74.77744807121661,NA
80003,Jefferson County,CO,47.759433962264154,NA,NA
80014,Arapahoe County,CO,NA,NA,8.312342569269521
80015,Arapahoe County,CO,NA,NA,54.40806045340051
80017,Arapahoe County,CO,NA,NA,57.93450881612091
80027,Boulder County,CO,NA,55.34124629080118,NA
80031,Adams County,CO,40.68396226415094,NA,NA
80109,Douglas County,CO,69.5754716981132,NA,NA
80127,Jefferson County,CO,49.64622641509434,NA,NA
80205,Denver County,CO,16.391509433962266,NA,NA
80216,Denver County,CO,NA,97.03264094955489,NA
80228,Jefferson County,CO,56.25,NA,NA
80239,Denver County,CO,27.240566037735846,NA,NA
80247,Arapahoe County,CO,41.27358490566038,NA,NA
80249,Denver County,CO,NA,75.96439169139467,NA
80433,Jefferson County,CO,98.93867924528303,NA,NA
80538,Larimer County,CO,NA,9.792284866468842,NA
80907,El Paso County,CO,NA,NA,81.36020151133502
80911,El Paso County,CO,NA,NA,48.614609571788414
81001,Pueblo County,CO,24.410377358490564,44.80712166172107,51.385390428211586
81082,Las Animas County,CO,65.56603773584906,NA,NA
81301,La Plata County,CO,NA,NA,48.86649874055416
81401,Montrose County,CO,50.117924528301884,NA,NA
81625,Moffat County,CO,NA,NA,92.9471032745592
81647,Garfield County,CO,97.40566037735849,NA,NA
06095,Hartford County,CT,NA,80.86053412462908,NA
06106,Hartford County,CT,NA,15.281899109792285,NA
06111,Hartford County,CT,NA,44.510385756676556,NA
06114,Hartford County,CT,NA,NA,66.49874055415617
06226,Windham County,CT,19.221698113207548,NA,NA
06238,Tolland County,CT,NA,NA,83.6272040302267
06405,New Haven County,CT,NA,30.86053412462908,NA
06419,Middlesex County,CT,97.05188679245283,NA,NA
06457,Middlesex County,CT,10.25943396226415,NA,NA
06511,New Haven County,CT,6.9575471698113205,NA,NA
06519,New Haven County,CT,26.7688679245283,NA,NA
06604,Fairfield County,CT,NA,72.55192878338279,NA
06610,Fairfield County,CT,NA,NA,51.63727959697732
06704,New Haven County,CT,NA,83.23442136498517,NA
06786,Litchfield County,CT,81.95754716981132,NA,NA
06790,Litchfield County,CT,8.372641509433961,NA,NA
06850,Fairfield County,CT,NA,NA,55.41561712846348
06851,Fairfield County,CT,59.66981132075472,NA,NA
19701,New Castle County,DE,NA,19.43620178041543,NA
19711,New Castle County,DE,33.72641509433962,NA,15.869017632241814
19720,New Castle County,DE,NA,3.7091988130563793,NA
19802,New Castle County,DE,18.160377358490564,NA,NA
19805,New Castle County,DE,NA,61.72106824925816,NA
19808,New Castle County,DE,NA,NA,6.045340050377834
19901,Kent County,DE,51.53301886792453,NA,NA
19952,Kent County,DE,81.36792452830188,84.71810089020771,NA
32009,Nassau County,FL,96.4622641509434,NA,NA
32034,Nassau County,FL,53.77358490566038,NA,NA
32060,Suwannee County,FL,54.83490566037735,48.21958456973294,NA
32081,St. Johns County,FL,NA,81.75074183976261,NA
32119,Volusia County,FL,NA,54.3026706231454,NA
32128,Volusia County,FL,NA,NA,39.042821158690174
32134,Marion County,FL,NA,96.88427299703264,NA
32164,Flagler County,FL,NA,50,NA
32169,Volusia County,FL,NA,NA,55.16372795969773
32179,Marion County,FL,74.64622641509435,NA,NA
32208,Duval County,FL,NA,NA,36.523929471032744
32244,Duval County,FL,8.13679245283019,NA,NA
32347,Taylor County,FL,86.6745283018868,NA,NA
32352,Gadsden County,FL,NA,NA,99.24433249370277
32504,Escambia County,FL,NA,NA,54.65994962216625
32505,Escambia County,FL,21.22641509433962,NA,NA
32563,Santa Rosa County,FL,NA,61.12759643916914,NA
32566,Santa Rosa County,FL,NA,59.495548961424326,25.692695214105793
32570,Santa Rosa County,FL,NA,NA,61.20906801007556
32578,Okaloosa County,FL,55.54245283018868,NA,NA
32606,Alachua County,FL,NA,NA,3.27455919395466
32607,Alachua County,FL,NA,NA,51.13350125944584
32669,Alachua County,FL,NA,67.06231454005935,NA
32750,Seminole County,FL,67.68867924528303,NA,NA
32796,Brevard County,FL,NA,31.15727002967359,NA
32801,Orange County,FL,85.14150943396226,NA,NA
32806,Orange County,FL,71.34433962264151,NA,NA
32824,Orange County,FL,NA,68.5459940652819,36.523929471032744
32828,Orange County,FL,39.03301886792453,NA,NA
32832,Orange County,FL,85.84905660377359,NA,NA
32901,Brevard County,FL,57.07547169811321,NA,19.64735516372796
32905,Brevard County,FL,NA,NA,67.00251889168766
32909,Brevard County,FL,41.27358490566038,NA,NA
32927,Brevard County,FL,55.306603773584904,NA,NA
32937,Brevard County,FL,73.23113207547169,NA,NA
32963,Indian River County,FL,NA,NA,13.85390428211587
33012,Miami-Dade County,FL,NA,25.222551928783382,NA
33023,Broward County,FL,22.641509433962266,NA,NA
33161,Miami-Dade County,FL,37.028301886792455,NA,NA
33175,Miami-Dade County,FL,56.72169811320755,NA,NA
33196,Miami-Dade County,FL,NA,87.3887240356083,NA
33311,Broward County,FL,NA,22.8486646884273,NA
33319,Broward County,FL,44.339622641509436,NA,NA
33322,Broward County,FL,70.63679245283019,NA,NA
33324,Broward County,FL,68.75,NA,NA
33351,Broward County,FL,71.69811320754717,NA,NA
33403,Palm Beach County,FL,82.42924528301887,NA,NA
33414,Palm Beach County,FL,47.2877358490566,NA,NA
33487,Palm Beach County,FL,NA,NA,38.0352644836272
33496,Palm Beach County,FL,72.64150943396226,NA,NA
33541,Pasco County,FL,NA,NA,19.143576826196472
33556,Hillsborough County,FL,74.1745283018868,NA,NA
33573,Hillsborough County,FL,NA,23.44213649851632,NA
33607,Hillsborough County,FL,54.009433962264154,NA,NA
33610,Hillsborough County,FL,17.68867924528302,NA,NA
33612,Hillsborough County,FL,13.797169811320757,NA,NA
33701,Pinellas County,FL,91.0377358490566,NA,NA
33705,Pinellas County,FL,32.075471698113205,NA,NA
33712,Pinellas County,FL,37.61792452830189,NA,NA
33759,Pinellas County,FL,NA,76.40949554896143,NA
33765,Pinellas County,FL,NA,68.84272997032642,NA
33880,Polk County,FL,26.53301886792453,NA,NA
33908,Lee County,FL,84.55188679245283,6.6765578635014835,NA
33914,Lee County,FL,42.21698113207547,NA,NA
33956,Lee County,FL,98.58490566037736,NA,NA
33971,Lee County,FL,NA,66.91394658753708,NA
34208,Manatee County,FL,29.127358490566035,NA,NA
34209,Manatee County,FL,NA,24.33234421364985,NA
34210,Manatee County,FL,NA,NA,76.82619647355163
34211,Manatee County,FL,NA,80.71216617210682,NA
34224,Charlotte County,FL,89.62264150943396,NA,NA
34234,Sarasota County,FL,42.33490566037736,NA,NA
34238,Sarasota County,FL,81.13207547169812,NA,NA
34239,Sarasota County,FL,NA,NA,41.56171284634761
34667,Pasco County,FL,NA,NA,18.639798488664987
34705,Lake County,FL,99.52830188679245,NA,NA
34748,Lake County,FL,NA,NA,1.7632241813602016
34769,Osceola County,FL,48.113207547169814,NA,NA
34787,Orange County,FL,NA,NA,20.65491183879093
34953,St. Lucie County,FL,8.254716981132075,NA,NA
34994,Martin County,FL,78.30188679245283,NA,NA
34996,Martin County,FL,NA,NA,60.70528967254408
30022,Fulton County,GA,41.9811320754717,NA,NA
30024,Gwinnett County,GA,24.29245283018868,NA,NA
30032,DeKalb County,GA,16.037735849056602,NA,NA
30033,DeKalb County,GA,NA,NA,44.33249370277078
30034,DeKalb County,GA,NA,25.519287833827892,NA
30038,DeKalb County,GA,45.16509433962264,NA,NA
30040,Forsyth County,GA,28.77358490566038,NA,NA
30043,Gwinnett County,GA,NA,15.727002967359049,NA
30062,Cobb County,GA,NA,NA,81.10831234256926
30102,Cherokee County,GA,NA,34.86646884272997,NA
30107,Cherokee County,GA,NA,NA,81.86397984886649
30127,Cobb County,GA,68.16037735849056,NA,NA
30157,Paulding County,GA,NA,28.486646884272997,NA
30161,Floyd County,GA,22.169811320754718,NA,NA
30168,Cobb County,GA,60.84905660377359,NA,93.70277078085643
30252,Henry County,GA,70.99056603773585,NA,NA
30319,DeKalb County,GA,NA,57.86350148367953,NA
30331,Fulton County,GA,NA,NA,15.365239294710328
30345,DeKalb County,GA,82.31132075471697,NA,NA
30354,Fulton County,GA,66.0377358490566,NA,NA
30521,Franklin County,GA,90.56603773584906,NA,NA
30542,Hall County,GA,NA,75.66765578635015,NA
30606,Clarke County,GA,40.56603773584906,NA,NA
30701,Gordon County,GA,NA,31.899109792284868,NA
30721,Whitfield County,GA,27.122641509433965,NA,NA
30736,Catoosa County,GA,NA,22.106824925816024,NA
31014,Bleckley County,GA,NA,75.37091988130564,NA
31030,Peach County,GA,75.70754716981132,NA,NA
31088,Houston County,GA,19.10377358490566,NA,NA
31092,Dooly County,GA,NA,90.94955489614243,NA
31204,Bibb County,GA,NA,NA,33.50125944584383
31206,Bibb County,GA,NA,52.52225519287834,NA
31216,Bibb County,GA,NA,85.01483679525222,NA
31401,Chatham County,GA,NA,78.04154302670622,NA
31419,Chatham County,GA,NA,35.75667655786351,NA
31503,Ware County,GA,NA,NA,49.622166246851386
31510,Bacon County,GA,91.50943396226415,NA,NA
31537,Charlton County,GA,87.85377358490565,NA,NA
31601,Lowndes County,GA,28.419811320754718,NA,NA
31620,Cook County,GA,NA,NA,84.38287153652394
31639,Berrien County,GA,91.86320754716981,NA,NA
31779,Mitchell County,GA,NA,NA,90.6801007556675
39828,Grady County,GA,NA,73.1454005934718,NA
39840,Randolph County,GA,NA,NA,86.39798488664987
39845,Seminole County,GA,98.46698113207547,NA,NA
96734,Honolulu County,HI,NA,12.759643916913946,NA
96818,Honolulu County,HI,54.71698113207547,NA,NA
96825,Honolulu County,HI,NA,NA,62.468513853904284
83301,Twin Falls County,ID,5.5424528301886795,46.29080118694362,NA
83401,Bonneville County,ID,NA,NA,100
83617,Gem County,ID,93.39622641509435,NA,NA
83646,Ada County,ID,61.20283018867924,NA,NA
83651,Canyon County,ID,51.41509433962265,NA,NA
83702,Ada County,ID,33.136792452830186,NA,NA
83705,Ada County,ID,NA,50.89020771513353,NA
83814,Kootenai County,ID,36.08490566037736,NA,NA
83854,Kootenai County,ID,NA,NA,16.624685138539043
83869,Kootenai County,ID,96.69811320754717,NA,NA
60014,McHenry County,IL,58.9622641509434,NA,NA
60016,Cook County,IL,NA,NA,6.801007556675064
60030,Lake County,IL,45.04716981132076,NA,NA
60046,Lake County,IL,40.2122641509434,NA,NA
60047,Lake County,IL,38.91509433962264,NA,NA
60056,Cook County,IL,41.0377358490566,NA,5.037783375314862
60060,Lake County,IL,50.70754716981132,NA,NA
60070,Cook County,IL,NA,76.55786350148368,NA
60077,Cook County,IL,NA,66.46884272997032,NA
60091,Cook County,IL,NA,NA,45.843828715365234
60104,Cook County,IL,NA,29.080118694362017,NA
60115,DeKalb County,IL,71.93396226415094,NA,NA
60124,Kane County,IL,NA,80.1186943620178,NA
60135,DeKalb County,IL,93.98584905660378,NA,NA
60142,McHenry County,IL,NA,43.02670623145401,NA
60189,DuPage County,IL,81.01415094339622,NA,NA
60195,Cook County,IL,97.87735849056604,NA,NA
60402,Cook County,IL,14.858490566037736,NA,NA
60410,Will County,IL,NA,71.51335311572701,NA
60416,Grundy County,IL,NA,NA,72.544080604534
60419,Cook County,IL,NA,38.4272997032641,NA
60438,Cook County,IL,NA,39.762611275964396,NA
60448,Will County,IL,NA,48.81305637982196,NA
60449,Will County,IL,NA,93.76854599406528,NA
60450,Grundy County,IL,NA,53.70919881305638,NA
60453,Cook County,IL,NA,NA,4.534005037783375
60467,Cook County,IL,NA,29.376854599406528,NA
60538,Kendall County,IL,84.08018867924528,NA,NA
60540,DuPage County,IL,NA,32.195845697329375,NA
60548,DeKalb County,IL,NA,68.24925816023739,NA
60564,Will County,IL,39.386792452830186,NA,NA
60586,Will County,IL,NA,67.95252225519289,NA
60601,Cook County,IL,NA,86.94362017804154,NA
60607,Cook County,IL,NA,48.516320474777444,NA
60617,Cook County,IL,NA,NA,1.5113350125944585
60621,Cook County,IL,NA,NA,35.768261964735515
60622,Cook County,IL,38.79716981132076,NA,NA
60624,Cook County,IL,18.867924528301888,NA,NA
60629,Cook County,IL,8.726415094339622,4.451038575667656,NA
60630,Cook County,IL,NA,14.243323442136498,NA
60633,Cook County,IL,68.98584905660378,NA,NA
60637,Cook County,IL,NA,14.688427299703264,NA
60639,Cook County,IL,NA,9.495548961424333,NA
60642,Cook County,IL,78.65566037735849,NA,NA
60643,Cook County,IL,11.556603773584905,NA,NA
60647,Cook County,IL,NA,22.551928783382788,NA
60651,Cook County,IL,NA,9.940652818991099,NA
60654,Cook County,IL,NA,82.7893175074184,NA
60805,Cook County,IL,89.50471698113208,NA,NA
60827,Cook County,IL,NA,NA,59.19395465994962
61032,Stephenson County,IL,NA,19.584569732937684,NA
61072,Winnebago County,IL,NA,NA,82.11586901763224
61101,Winnebago County,IL,50,NA,NA
61201,Rock Island County,IL,39.50471698113208,NA,NA
61270,Whiteside County,IL,NA,NA,95.21410579345087
61443,Henry County,IL,62.14622641509434,NA,NA
61550,Tazewell County,IL,NA,70.62314540059347,NA
61604,Peoria County,IL,NA,NA,14.357682619647354
61615,Peoria County,IL,77.94811320754717,NA,NA
61704,McLean County,IL,NA,NA,53.904282115869016
61755,Tazewell County,IL,97.75943396226415,NA,NA
61821,Champaign County,IL,43.985849056603776,NA,NA
61832,Vermilion County,IL,13.325471698113208,NA,NA
61873,Champaign County,IL,NA,NA,78.33753148614609
61883,Vermilion County,IL,NA,94.95548961424333,NA
61944,Edgar County,IL,NA,57.566765578635014,NA
62025,Madison County,IL,NA,NA,23.425692695214106
62056,Montgomery County,IL,NA,NA,52.39294710327456
62258,St. Clair County,IL,NA,NA,94.20654911838791
62471,Fayette County,IL,NA,NA,44.584382871536526
46016,Madison County,IN,NA,33.976261127596445,NA
46017,Madison County,IN,76.53301886792453,NA,NA
46038,Hamilton County,IN,60.141509433962256,NA,NA
46062,Hamilton County,IN,NA,18.991097922848667,NA
46077,Boone County,IN,84.90566037735849,NA,NA
46112,Hendricks County,IN,NA,NA,66.24685138539043
46122,Hendricks County,IN,79.83490566037736,NA,NA
46123,Hendricks County,IN,50.82547169811321,NA,NA
46131,Johnson County,IN,64.62264150943396,NA,NA
46135,Putnam County,IN,67.57075471698113,NA,NA
46140,Hancock County,IN,62.97169811320755,NA,NA
46184,Johnson County,IN,73.58490566037736,NA,NA
46203,Marion County,IN,NA,15.43026706231454,NA
46204,Marion County,IN,72.75943396226415,NA,NA
46214,Marion County,IN,58.37264150943396,NA,NA
46218,Marion County,IN,NA,NA,22.670025188916874
46222,Marion County,IN,NA,31.305637982195844,NA
46226,Marion County,IN,15.44811320754717,NA,NA
46227,Marion County,IN,NA,7.71513353115727,NA
46239,Marion County,IN,NA,54.89614243323442,NA
46241,Marion County,IN,23.702830188679243,NA,NA
46254,Marion County,IN,24.528301886792452,NA,NA
46256,Marion County,IN,69.81132075471697,NA,NA
46268,Marion County,IN,NA,47.62611275964392,NA
46304,Porter County,IN,NA,20.326409495548962,NA
46307,Lake County,IN,NA,1.9287833827893175,NA
46311,Lake County,IN,35.02358490566038,81.60237388724035,NA
46312,Lake County,IN,NA,NA,22.921914357682617
46350,LaPorte County,IN,NA,NA,16.120906801007557
46368,Porter County,IN,NA,17.95252225519288,NA
46375,Lake County,IN,34.7877358490566,53.11572700296736,21.91435768261965
46383,Porter County,IN,10.377358490566039,NA,NA
46403,Lake County,IN,68.39622641509435,NA,NA
46410,Lake County,IN,NA,4.599406528189911,NA
46514,Elkhart County,IN,32.66509433962264,NA,NA
46528,Elkhart County,IN,75,NA,NA
46534,Starke County,IN,56.485849056603776,NA,NA
46562,Kosciusko County,IN,NA,97.92284866468842,NA
46614,St. Joseph County,IN,83.72641509433963,NA,NA
46628,St. Joseph County,IN,NA,79.67359050445104,NA
46635,St. Joseph County,IN,NA,93.91691394658753,NA
46701,Noble County,IN,NA,NA,77.83375314861462
46721,DeKalb County,IN,NA,98.07121661721068,NA
46750,Huntington County,IN,22.75943396226415,NA,NA
46755,Noble County,IN,31.014150943396224,NA,NA
46805,Allen County,IN,NA,50.74183976261127,NA
46825,Allen County,IN,39.85849056603774,NA,NA
46902,Howard County,IN,5.778301886792453,NA,NA
46970,Miami County,IN,56.95754716981132,NA,NA
47111,Clark County,IN,57.193396226415096,NA,NA
47119,Floyd County,IN,92.33490566037736,NA,NA
47250,Jefferson County,IN,NA,60.97922848664689,NA
47302,Delaware County,IN,52.83018867924528,NA,NA
47331,Fayette County,IN,NA,14.985163204747776,7.8085642317380355
47362,Henry County,IN,80.54245283018868,13.649851632047477,NA
47374,Wayne County,IN,6.721698113207547,NA,NA
47610,Warrick County,IN,90.91981132075472,NA,NA
47710,Vanderburgh County,IN,37.85377358490566,NA,NA
47712,Vanderburgh County,IN,54.48113207547169,NA,NA
47715,Vanderburgh County,IN,33.25471698113208,NA,NA
47802,Vigo County,IN,26.650943396226417,NA,NA
47905,Tippecanoe County,IN,72.2877358490566,NA,NA
50010,Story County,IA,59.08018867924528,NA,NA
50021,Polk County,IA,74.41037735849056,NA,NA
50309,Polk County,IA,NA,66.32047477744807,NA
50317,Polk County,IA,NA,NA,35.51637279596977
50401,Cerro Gordo County,IA,15.566037735849056,NA,NA
50428,Cerro Gordo County,IA,NA,NA,80.10075566750629
50501,Webster County,IA,NA,NA,61.712846347607055
50595,Hamilton County,IA,NA,87.53709198813057,NA
50616,Floyd County,IA,87.5,NA,NA
50801,Union County,IA,83.9622641509434,NA,46.34760705289673
51103,Woodbury County,IA,51.061320754716974,NA,NA
51108,Woodbury County,IA,90.80188679245283,NA,NA
51501,Pottawattamie County,IA,4.716981132075472,NA,NA
51526,Pottawattamie County,IA,99.29245283018868,NA,NA
51534,Mills County,IA,NA,90.50445103857567,NA
52246,Johnson County,IA,60.96698113207547,NA,28.967254408060455
52405,Linn County,IA,41.15566037735849,NA,NA
52501,Wapello County,IA,NA,NA,63.97984886649874
52577,Mahaska County,IA,NA,NA,19.899244332493705
52627,Lee County,IA,NA,NA,47.858942065491185
52632,Lee County,IA,NA,NA,64.98740554156171
52761,Muscatine County,IA,NA,13.798219584569733,NA
66002,Atchison County,KS,NA,61.275964391691396,NA
66049,Douglas County,KS,NA,84.42136498516321,NA
66083,Johnson County,KS,NA,NA,77.83375314861462
66216,Johnson County,KS,95.63679245283019,NA,NA
66547,Pottawatomie County,KS,NA,NA,89.92443324937027
66605,Shawnee County,KS,NA,56.82492581602374,NA
66614,Shawnee County,KS,NA,57.27002967359051,NA
66736,Wilson County,KS,95.87264150943396,NA,NA
67337,Montgomery County,KS,87.73584905660378,NA,NA
67420,Mitchell County,KS,NA,NA,96.72544080604534
67654,Norton County,KS,93.86792452830188,NA,NA
67846,Finney County,KS,24.64622641509434,NA,NA
67871,Scott County,KS,65.68396226415094,NA,NA
67901,Seward County,KS,75.70754716981132,NA,NA
40059,Jefferson County,KY,NA,65.43026706231454,NA
40065,Shelby County,KY,NA,33.23442136498516,NA
40160,Hardin County,KY,34.90566037735849,NA,NA
40291,Jefferson County,KY,51.29716981132076,NA,NA
40324,Scott County,KY,NA,24.777448071216618,NA
40391,Clark County,KY,NA,14.094955489614245,NA
40403,Madison County,KY,NA,42.28486646884273,NA
40456,Rockcastle County,KY,73.58490566037736,NA,NA
40475,Madison County,KY,NA,12.462908011869436,NA
40515,Fayette County,KY,52.47641509433962,NA,NA
40701,Whitley County,KY,NA,14.540059347181009,NA
41005,Boone County,KY,NA,56.37982195845698,NA
41011,Kenton County,KY,NA,29.52522255192878,NA
41017,Kenton County,KY,NA,23.293768545994066,NA
41018,Kenton County,KY,NA,NA,58.94206549118388
41101,Boyd County,KY,NA,NA,18.1360201511335
41144,Greenup County,KY,NA,54.89614243323442,NA
41230,Lawrence County,KY,74.88207547169812,87.68545994065282,NA
41339,Breathitt County,KY,NA,74.03560830860533,NA
41501,Pike County,KY,15.09433962264151,NA,NA
41649,Floyd County,KY,NA,95.25222551928783,NA
41701,Perry County,KY,NA,62.908011869436194,NA
41858,Letcher County,KY,NA,NA,58.69017632241813
42001,McCracken County,KY,NA,NA,86.14609571788414
42041,Fulton County,KY,NA,NA,91.43576826196474
42101,Warren County,KY,9.55188679245283,NA,NA
42127,Barren County,KY,NA,79.97032640949556,NA
42167,Monroe County,KY,NA,NA,90.93198992443325
42420,Henderson County,KY,12.617924528301888,NA,NA
42431,Hopkins County,KY,25.235849056603776,NA,NA
42442,Hopkins County,KY,95.99056603773585,NA,NA
42503,Pulaski County,KY,NA,58.902077151335305,NA
42701,Hardin County,KY,14.504716981132077,NA,NA
42728,Adair County,KY,NA,43.62017804154303,NA
42754,Grayson County,KY,30.542452830188676,NA,NA
70006,Jefferson Parish,LA,NA,77.29970326409496,NA
70072,Jefferson Parish,LA,NA,24.183976261127597,NA
70114,Orleans Parish,LA,77.47641509433963,NA,NA
70130,Orleans Parish,LA,44.81132075471698,71.66172106824926,NA
70131,Orleans Parish,LA,17.452830188679243,NA,NA
70363,Terrebonne Parish,LA,NA,34.124629080118694,NA
70392,St. Mary Parish,LA,NA,75.5192878338279,NA
70394,Lafourche Parish,LA,NA,35.16320474777448,NA
70438,Washington Parish,LA,17.099056603773587,NA,NA
70448,St. Tammany Parish,LA,NA,32.34421364985163,NA
70461,St. Tammany Parish,LA,19.57547169811321,NA,NA
70466,Tangipahoa Parish,LA,97.2877358490566,NA,NA
70518,Lafayette Parish,LA,NA,89.46587537091987,NA
70525,Acadia Parish,LA,NA,58.30860534124629,NA
70526,Acadia Parish,LA,NA,NA,56.42317380352645
70560,Iberia Parish,LA,3.1839622641509435,NA,NA
70563,Iberia Parish,LA,NA,NA,94.7103274559194
70582,St. Martin Parish,LA,NA,NA,59.949622166246854
70586,Evangeline Parish,LA,NA,NA,42.31738035264483
70726,Livingston Parish,LA,NA,10.237388724035608,NA
70737,Ascension Parish,LA,NA,NA,29.47103274559194
70775,West Feliciana Parish,LA,96.22641509433963,NA,NA
70802,East Baton Rouge Parish,LA,29.952830188679247,NA,NA
70810,East Baton Rouge Parish,LA,79.36320754716981,NA,NA
71040,Claiborne Parish,LA,NA,NA,85.3904282115869
71055,Webster Parish,LA,19.92924528301887,NA,NA
71107,Caddo Parish,LA,NA,21.513353115727003,NA
71201,Ouachita Parish,LA,36.910377358490564,NA,NA
71220,Morehouse Parish,LA,NA,44.65875370919881,NA
71225,Ouachita Parish,LA,70.51886792452831,NA,NA
71360,Rapides Parish,LA,NA,30.267062314540063,NA
71446,Vernon Parish,LA,NA,39.46587537091988,NA
71457,Natchitoches Parish,LA,NA,NA,30.478589420654913
04002,York County,ME,NA,78.93175074183976,NA
04009,Cumberland County,ME,NA,95.54896142433235,NA
04102,Cumberland County,ME,36.79245283018868,73.44213649851632,NA
04240,Androscoggin County,ME,2.4764150943396226,NA,1.0075566750629723
04253,Androscoggin County,ME,97.64150943396226,NA,NA
04270,Oxford County,ME,69.10377358490565,NA,NA
04276,Oxford County,ME,64.03301886792453,91.69139465875371,NA
04364,Kennebec County,ME,NA,84.86646884272997,NA
04401,Penobscot County,ME,NA,17.062314540059347,NA
04412,Penobscot County,ME,65.2122641509434,NA,NA
04426,Piscataquis County,ME,NA,NA,86.90176322418137
04429,Penobscot County,ME,NA,82.49258160237389,NA
04950,Somerset County,ME,NA,74.33234421364985,NA
04963,Kennebec County,ME,84.90566037735849,NA,NA
04976,Somerset County,ME,48.70283018867924,NA,NA
20657,Calvert County,MD,69.33962264150944,NA,NA
20737,Prince George's County,MD,NA,94.80712166172107,NA
20770,Prince George's County,MD,NA,85.45994065281899,NA
20841,Montgomery County,MD,95.51886792452831,NA,NA
20878,Montgomery County,MD,NA,62.01780415430267,NA
20906,Montgomery County,MD,NA,40.94955489614243,NA
21093,Baltimore County,MD,44.81132075471698,NA,NA
21113,Anne Arundel County,MD,NA,NA,52.141057934508815
21117,Baltimore County,MD,NA,NA,37.78337531486146
21157,Carroll County,MD,78.77358490566037,NA,NA
21205,Baltimore city,MD,NA,NA,47.3551637279597
21213,Baltimore city,MD,NA,16.172106824925816,34.76070528967254
21215,Baltimore city,MD,10.495283018867925,NA,NA
21217,Baltimore city,MD,NA,19.881305637982198,NA
21224,Baltimore city,MD,NA,37.53709198813057,NA
21234,Baltimore County,MD,49.174528301886795,NA,NA
21403,Anne Arundel County,MD,NA,47.92284866468843,NA
21613,Dorchester County,MD,69.5754716981132,NA,NA
21620,Kent County,MD,85.61320754716981,NA,NA
21740,Washington County,MD,NA,29.673590504451035,NA
21742,Washington County,MD,NA,70.17804154302671,NA
21851,Worcester County,MD,NA,92.58160237388724,NA
21921,Cecil County,MD,NA,7.566765578635016,18.387909319899247
01027,Hampshire County,MA,41.9811320754717,NA,NA
01040,Hampden County,MA,14.38679245283019,NA,NA
01095,Hampden County,MA,NA,64.54005934718101,NA
01109,Hampden County,MA,NA,59.79228486646885,8.060453400503778
01118,Hampden County,MA,30.070754716981128,NA,NA
01235,Berkshire County,MA,NA,99.10979228486647,NA
01247,Berkshire County,MA,8.608490566037736,NA,NA
01331,Worcester County,MA,25,NA,NA
01364,Franklin County,MA,NA,NA,74.55919395465995
01420,Worcester County,MA,0.589622641509434,2.225519287833828,NA
01463,Middlesex County,MA,NA,51.48367952522255,NA
01469,Middlesex County,MA,76.06132075471697,NA,NA
01501,Worcester County,MA,35.7311320754717,NA,NA
01541,Worcester County,MA,NA,99.55489614243324,NA
01550,Worcester County,MA,60.49528301886793,NA,NA
01588,Worcester County,MA,54.24528301886793,NA,NA
01590,Worcester County,MA,NA,79.67359050445104,NA
01609,Worcester County,MA,3.7735849056603774,NA,NA
01702,Middlesex County,MA,62.85377358490566,NA,NA
01746,Middlesex County,MA,23.93867924528302,NA,NA
01748,Middlesex County,MA,NA,NA,54.91183879093199
01752,Middlesex County,MA,4.481132075471698,NA,NA
01754,Middlesex County,MA,66.86320754716981,NA,NA
01760,Middlesex County,MA,NA,37.833827893175076,NA
01801,Middlesex County,MA,46.34433962264151,NA,NA
01826,Middlesex County,MA,56.132075471698116,NA,NA
01841,Essex County,MA,NA,0,NA
01852,Middlesex County,MA,0.2358490566037736,1.483679525222552,NA
01860,Essex County,MA,82.0754716981132,NA,NA
01876,Middlesex County,MA,9.669811320754718,2.6706231454005933,NA
01880,Middlesex County,MA,9.787735849056604,NA,NA
01887,Middlesex County,MA,9.433962264150944,NA,NA
01902,Essex County,MA,NA,0.5934718100890208,2.0151133501259446
01904,Essex County,MA,13.443396226415095,NA,NA
01905,Essex County,MA,NA,NA,46.59949622166247
01938,Essex County,MA,NA,18.100890207715135,NA
01949,Essex County,MA,NA,NA,64.23173803526448
01960,Essex County,MA,NA,0.1483679525222552,NA
02048,Bristol County,MA,23.58490566037736,NA,NA
02050,Plymouth County,MA,NA,26.55786350148368,NA
02061,Plymouth County,MA,88.20754716981132,NA,NA
02066,Plymouth County,MA,NA,47.032640949554896,NA
02121,Suffolk County,MA,13.561320754716983,NA,NA
02126,Suffolk County,MA,6.60377358490566,NA,NA
02129,Suffolk County,MA,NA,64.09495548961425,39.54659949622166
02130,Suffolk County,MA,1.650943396226415,NA,NA
02136,Suffolk County,MA,2.240566037735849,NA,NA
02139,Middlesex County,MA,0.4716981132075472,NA,NA
02140,Middlesex County,MA,19.45754716981132,NA,NA
02148,Middlesex County,MA,7.311320754716981,NA,NA
02149,Middlesex County,MA,0.3537735849056604,NA,NA
02150,Suffolk County,MA,0.9433962264150944,NA,NA
02151,Suffolk County,MA,0.1179245283018868,NA,4.030226700251889
02155,Middlesex County,MA,1.5330188679245282,NA,7.052896725440807
02169,Norfolk County,MA,0.8254716981132075,NA,NA
02184,Norfolk County,MA,47.05188679245283,NA,NA
02188,Norfolk County,MA,NA,39.762611275964396,NA
02191,Norfolk County,MA,NA,NA,74.3073047858942
02324,Plymouth County,MA,14.150943396226415,NA,NA
02360,Plymouth County,MA,NA,NA,40.302267002518896
02421,Middlesex County,MA,NA,NA,12.594458438287154
02446,Norfolk County,MA,22.287735849056602,NA,9.319899244332493
02451,Middlesex County,MA,NA,56.23145400593472,NA
02453,Middlesex County,MA,11.910377358490566,NA,NA
02460,Middlesex County,MA,62.02830188679245,NA,NA
02467,Norfolk County,MA,87.38207547169812,NA,NA
02476,Middlesex County,MA,39.15094339622642,NA,NA
02481,Norfolk County,MA,NA,54.59940652818991,NA
02559,Barnstable County,MA,NA,96.29080118694363,NA
02633,Barnstable County,MA,NA,96.29080118694363,NA
02660,Barnstable County,MA,NA,94.51038575667656,NA
02675,Barnstable County,MA,NA,74.62908011869436,41.05793450881612
02703,Bristol County,MA,1.4150943396226416,0.741839762611276,27.95969773299748
02719,Bristol County,MA,NA,49.70326409495549,NA
02724,Bristol County,MA,NA,NA,4.282115869017632
02740,Bristol County,MA,0,NA,0
02762,Norfolk County,MA,NA,78.7833827893175,NA
02779,Bristol County,MA,NA,NA,97.73299748110831
02780,Bristol County,MA,NA,NA,10.831234256926953
48026,Macomb County,MI,37.971698113207545,NA,NA
48038,Macomb County,MI,16.62735849056604,5.637982195845697,NA
48048,Macomb County,MI,74.1745283018868,89.02077151335311,NA
48051,Macomb County,MI,58.490566037735846,NA,NA
48067,Oakland County,MI,NA,44.21364985163205,NA
48073,Oakland County,MI,NA,NA,24.937027707808564
48082,Macomb County,MI,NA,NA,22.921914357682617
48085,Oakland County,MI,33.60849056603774,NA,NA
48101,Wayne County,MI,NA,66.02373887240356,NA
48103,Washtenaw County,MI,NA,15.875370919881307,NA
48104,Washtenaw County,MI,NA,NA,16.3727959697733
48116,Livingston County,MI,31.721698113207548,NA,NA
48133,Monroe County,MI,NA,NA,87.1536523929471
48134,Wayne County,MI,NA,92.28486646884274,NA
48141,Wayne County,MI,11.320754716981133,NA,NA
48146,Wayne County,MI,10.849056603773585,NA,NA
48152,Wayne County,MI,NA,7.270029673590504,NA
48160,Washtenaw County,MI,NA,58.45697329376854,NA
48162,Monroe County,MI,NA,25.07418397626113,NA
48167,Oakland County,MI,41.863207547169814,NA,NA
48176,Washtenaw County,MI,42.68867924528302,NA,NA
48182,Monroe County,MI,61.556603773584904,NA,NA
48185,Wayne County,MI,NA,8.456973293768547,NA
48187,Wayne County,MI,13.089622641509436,NA,7.304785894206549
48197,Washtenaw County,MI,2.8301886792452833,NA,NA
48202,Wayne County,MI,63.79716981132076,NA,NA
48205,Wayne County,MI,55.188679245283026,NA,NA
48207,Wayne County,MI,22.05188679245283,NA,48.36272040302267
48212,Wayne County,MI,12.971698113207546,NA,NA
48213,Wayne County,MI,39.62264150943396,NA,NA
48214,Wayne County,MI,23.2311320754717,27.299703264094955,NA
48219,Wayne County,MI,26.88679245283019,NA,NA
48224,Wayne County,MI,2.94811320754717,NA,NA
48227,Wayne County,MI,NA,9.198813056379821,NA
48228,Wayne County,MI,NA,NA,69.26952141057934
48236,Wayne County,MI,33.9622641509434,NA,NA
48239,Wayne County,MI,11.084905660377359,NA,NA
48302,Oakland County,MI,NA,NA,26.700251889168765
48304,Oakland County,MI,NA,52.07715133531158,NA
48306,Oakland County,MI,44.693396226415096,NA,NA
48314,Macomb County,MI,43.75,NA,NA
48322,Oakland County,MI,NA,NA,3.022670025188917
48324,Oakland County,MI,60.613207547169814,NA,NA
48328,Oakland County,MI,39.740566037735846,32.640949554896146,NA
48340,Oakland County,MI,NA,36.795252225519285,NA
48341,Oakland County,MI,32.78301886792453,44.06528189910979,NA
48441,Huron County,MI,NA,NA,89.4206549118388
48624,Gladwin County,MI,NA,NA,20.906801007556673
48632,Clare County,MI,NA,84.1246290801187,NA
48656,Roscommon County,MI,77.12264150943396,NA,NA
48706,Bay County,MI,NA,1.6320474777448073,NA
48739,Iosco County,MI,86.43867924528303,NA,NA
48817,Shiawassee County,MI,NA,NA,67.50629722921914
48823,Ingham County,MI,66.74528301886792,30.415430267062316,NA
48843,Livingston County,MI,15.919811320754718,NA,NA
48850,Montcalm County,MI,NA,NA,91.93954659949623
48864,Ingham County,MI,71.58018867924528,NA,NA
48883,Isabella County,MI,67.33490566037736,NA,NA
48888,Montcalm County,MI,NA,NA,72.29219143576826
48906,Ingham County,MI,43.63207547169811,NA,NA
48911,Ingham County,MI,NA,17.359050445103858,NA
49001,Kalamazoo County,MI,55.42452830188679,NA,NA
49010,Allegan County,MI,45.28301886792453,NA,NA
49017,Calhoun County,MI,32.90094339622642,NA,NA
49021,Eaton County,MI,81.83962264150944,NA,NA
49036,Branch County,MI,31.957547169811324,NA,NA
49048,Kalamazoo County,MI,20.16509433962264,NA,NA
49058,Barry County,MI,NA,40.20771513353116,NA
49073,Barry County,MI,NA,NA,96.22166246851386
49079,Van Buren County,MI,NA,NA,61.46095717884131
49080,Allegan County,MI,NA,76.11275964391692,NA
49085,Berrien County,MI,56.60377358490566,NA,NA
49087,Kalamazoo County,MI,89.38679245283019,NA,NA
49090,Van Buren County,MI,82.90094339622641,NA,NA
49091,St. Joseph County,MI,NA,NA,42.56926952141058
49093,St. Joseph County,MI,NA,39.02077151335311,NA
49112,Cass County,MI,89.03301886792453,NA,NA
49201,Jackson County,MI,NA,31.750741839762615,6.54911838790932
49203,Jackson County,MI,10.141509433962264,NA,NA
49341,Kent County,MI,NA,27.596439169139465,NA
49401,Ottawa County,MI,83.25471698113208,NA,NA
49423,Ottawa County,MI,15.212264150943398,NA,NA
49431,Mason County,MI,NA,NA,55.91939546599496
49444,Muskegon County,MI,12.853773584905662,NA,NA
49506,Kent County,MI,NA,NA,17.12846347607053
49534,Kent County,MI,58.25471698113207,NA,NA
49643,Grand Traverse County,MI,NA,91.83976261127597,NA
49660,Manistee County,MI,NA,30.56379821958457,NA
49829,Delta County,MI,66.15566037735849,65.13353115727003,NA
55009,Goodhue County,MN,NA,59.34718100890207,NA
55057,Rice County,MN,NA,63.649851632047486,NA
55060,Steele County,MN,NA,33.38278931750742,NA
55109,Ramsey County,MN,NA,NA,26.19647355163728
55117,Ramsey County,MN,NA,73.88724035608308,NA
55124,Dakota County,MN,40.33018867924528,NA,NA
55303,Anoka County,MN,20.63679245283019,NA,NA
55308,Sherburne County,MN,91.15566037735849,NA,NA
55331,Hennepin County,MN,NA,NA,95.71788413098237
55343,Hennepin County,MN,45.5188679245283,NA,NA
55350,McLeod County,MN,NA,NA,80.85642317380352
55403,Hennepin County,MN,25.707547169811324,NA,NA
55404,Hennepin County,MN,12.735849056603774,3.115727002967359,NA
55407,Hennepin County,MN,NA,7.418397626112759,NA
55410,Hennepin County,MN,NA,94.21364985163204,NA
55411,Hennepin County,MN,NA,18.5459940652819,NA
55412,Hennepin County,MN,11.79245283018868,40.50445103857567,NA
55423,Hennepin County,MN,23.11320754716981,NA,NA
55429,Hennepin County,MN,NA,NA,53.65239294710328
55446,Hennepin County,MN,NA,NA,79.59697732997482
55447,Hennepin County,MN,NA,97.18100890207715,NA
55804,St. Louis County,MN,70.87264150943396,NA,NA
55810,St. Louis County,MN,NA,49.10979228486647,NA
55987,Winona County,MN,NA,3.4124629080118694,NA
56007,Freeborn County,MN,18.39622641509434,NA,NA
56347,Todd County,MN,NA,NA,78.84130982367759
56364,Morrison County,MN,88.91509433962264,NA,NA
56381,Pope County,MN,99.05660377358491,NA,NA
56401,Crow Wing County,MN,NA,5.786350148367952,NA
56472,Crow Wing County,MN,69.45754716981132,NA,NA
56529,Clay County,MN,87.14622641509435,NA,NA
56601,Beltrami County,MN,NA,NA,0.5037783375314862
56716,Polk County,MN,NA,NA,70.02518891687657
56721,Polk County,MN,55.89622641509434,NA,NA
56750,Red Lake County,MN,94.33962264150944,NA,NA
38614,Coahoma County,MS,54.12735849056604,NA,NA
38732,Bolivar County,MS,70.16509433962264,NA,NA
38751,Sunflower County,MS,82.66509433962264,75.8160237388724,NA
38827,Tishomingo County,MS,93.98584905660378,NA,NA
38965,Yalobusha County,MS,84.19811320754717,NA,NA
39051,Leake County,MS,NA,NA,77.58186397984886
39073,Rankin County,MS,NA,NA,69.0176322418136
39114,Simpson County,MS,77.7122641509434,NA,NA
39117,Scott County,MS,NA,76.8545994065282,89.16876574307305
39157,Madison County,MS,NA,81.00890207715133,NA
39208,Rankin County,MS,NA,NA,23.67758186397985
39212,Hinds County,MS,NA,63.798219584569736,NA
39213,Hinds County,MS,37.264150943396224,NA,NA
39339,Winston County,MS,93.51415094339622,NA,NA
39341,Noxubee County,MS,NA,88.87240356083086,NA
39355,Clarke County,MS,NA,85.60830860534125,NA
39466,Pearl River County,MS,75.23584905660378,NA,NA
39470,Pearl River County,MS,NA,74.1839762611276,NA
39503,Harrison County,MS,NA,71.36498516320475,67.2544080604534
39532,Harrison County,MS,NA,NA,14.609571788413097
39562,Jackson County,MS,57.42924528301887,NA,NA
63017,St. Louis County,MO,NA,NA,2.2670025188916876
63042,St. Louis County,MO,48.58490566037736,NA,NA
63080,Franklin County,MO,46.81603773584906,NA,NA
63109,St. Louis city,MO,NA,42.72997032640949,NA
63110,St. Louis city,MO,79.59905660377359,NA,NA
63122,St. Louis County,MO,59.31603773584906,NA,NA
63123,St. Louis County,MO,NA,16.023738872403563,NA
63136,St. Louis County,MO,NA,12.166172106824925,NA
63303,St. Charles County,MO,NA,12.908011869436201,NA
63376,St. Charles County,MO,NA,18.84272997032641,NA
63385,St. Charles County,MO,49.29245283018868,NA,NA
63801,Scott County,MO,NA,NA,93.19899244332494
63901,Butler County,MO,NA,NA,31.48614609571788
64012,Cass County,MO,30.306603773584907,NA,NA
64015,Jackson County,MO,16.745283018867923,NA,NA
64024,Clay County,MO,84.43396226415094,NA,NA
64029,Jackson County,MO,NA,79.37685459940653,NA
64050,Jackson County,MO,NA,18.694362017804153,NA
64052,Jackson County,MO,13.20754716981132,NA,NA
64061,Johnson County,MO,96.69811320754717,NA,NA
64117,Clay County,MO,NA,NA,81.61209068010076
64124,Jackson County,MO,NA,93.32344213649851,NA
64130,Jackson County,MO,9.316037735849056,NA,NA
64132,Jackson County,MO,NA,82.34421364985162,NA
64134,Jackson County,MO,61.79245283018868,NA,NA
64138,Jackson County,MO,40.80188679245283,NA,NA
64485,Andrew County,MO,NA,NA,75.31486146095719
64506,Buchanan County,MO,53.301886792452834,NA,NA
64507,Buchanan County,MO,28.77358490566038,NA,NA
64601,Livingston County,MO,77.94811320754717,NA,NA
64628,Linn County,MO,NA,88.72403560830861,NA
64772,Vernon County,MO,42.924528301886795,NA,NA
64804,Jasper County,MO,NA,40.35608308605341,NA
64870,Jasper County,MO,NA,85.16320474777447,NA
65084,Morgan County,MO,86.43867924528303,NA,NA
65202,Boone County,MO,13.915094339622641,NA,NA
65301,Pettis County,MO,6.25,NA,NA
65340,Saline County,MO,80.66037735849056,85.90504451038575,NA
65355,Benton County,MO,NA,NA,74.05541561712846
65401,Phelps County,MO,NA,NA,25.94458438287154
65721,Christian County,MO,80.77830188679245,NA,NA
65738,Greene County,MO,87.02830188679245,NA,NA
65775,Howell County,MO,34.66981132075472,NA,NA
65802,Greene County,MO,70.28301886792453,NA,NA
59101,Yellowstone County,MT,NA,26.112759643916917,NA
59102,Yellowstone County,MT,NA,5.044510385756676,NA
59457,Fergus County,MT,NA,80.41543026706232,NA
59722,Powell County,MT,NA,NA,93.45088161209067
59937,Flathead County,MT,NA,71.95845697329378,NA
68025,Dodge County,NE,NA,NA,10.327455919395465
68137,Douglas County,NE,79.24528301886792,NA,NA
68144,Douglas County,NE,NA,51.632047477744806,NA
68502,Lancaster County,NE,NA,72.99703264094956,NA
69001,Red Willow County,NE,NA,NA,43.8287153652393
69101,Lincoln County,NE,NA,NA,11.586901763224182
69341,Scotts Bluff County,NE,88.79716981132076,NA,NA
89129,Clark County,NV,50.235849056603776,NA,NA
89142,Clark County,NV,NA,91.0979228486647,NA
89410,Douglas County,NV,NA,67.80415430267063,NA
89434,Washoe County,NV,85.96698113207547,NA,NA
89460,Douglas County,NV,75.94339622641509,NA,NA
89703,Carson City,NV,NA,NA,59.44584382871536
03051,Hillsborough County,NH,NA,20.77151335311573,NA
03055,Hillsborough County,NH,NA,NA,77.07808564231739
03060,Hillsborough County,NH,9.19811320754717,NA,73.29974811083123
03063,Hillsborough County,NH,45.87264150943396,NA,NA
03079,Rockingham County,NH,NA,20.02967359050445,NA
03087,Rockingham County,NH,52.240566037735846,NA,NA
03246,Belknap County,NH,NA,NA,17.884130982367758
03264,Grafton County,NH,92.68867924528303,NA,NA
03743,Sullivan County,NH,55.660377358490564,NA,NA
03833,Rockingham County,NH,NA,NA,65.99496221662469
03870,Rockingham County,NH,NA,86.79525222551929,NA
03885,Rockingham County,NH,89.85849056603774,NA,NA
07002,Hudson County,NJ,2.0047169811320753,NA,NA
07011,Passaic County,NJ,20.63679245283019,NA,NA
07013,Passaic County,NJ,NA,37.68545994065282,99.74811083123426
07036,Union County,NJ,NA,NA,28.71536523929471
07039,Essex County,NJ,54.59905660377359,NA,NA
07044,Essex County,NJ,NA,NA,95.46599496221663
07050,Essex County,NJ,NA,NA,50.62972292191436
07055,Passaic County,NJ,NA,3.5608308605341246,NA
07105,Essex County,NJ,NA,81.4540059347181,NA
07107,Essex County,NJ,NA,5.934718100890208,NA
07111,Essex County,NJ,NA,10.534124629080118,NA
07112,Essex County,NJ,4.834905660377359,NA,NA
07202,Union County,NJ,8.962264150943396,NA,NA
07304,Hudson County,NJ,3.6556603773584904,NA,NA
07306,Hudson County,NJ,45.75471698113208,NA,15.617128463476071
07307,Hudson County,NJ,NA,41.246290801186944,NA
07410,Bergen County,NJ,NA,28.18991097922849,NA
07436,Bergen County,NJ,NA,87.24035608308606,NA
07603,Bergen County,NJ,NA,77.89317507418397,NA
07726,Monmouth County,NJ,NA,28.635014836795254,NA
07728,Monmouth County,NJ,NA,16.468842729970326,NA
07740,Monmouth County,NJ,NA,8.753709198813056,NA
07755,Monmouth County,NJ,90.44811320754717,NA,NA
07760,Monmouth County,NJ,NA,NA,98.48866498740554
07762,Monmouth County,NJ,NA,NA,78.58942065491183
07936,Morris County,NJ,NA,NA,83.87909319899244
08003,Camden County,NJ,60.259433962264154,NA,NA
08005,Ocean County,NJ,NA,88.4272997032641,NA
08021,Camden County,NJ,4.599056603773585,NA,NA
08052,Burlington County,NJ,30.89622641509434,NA,NA
08055,Burlington County,NJ,67.33490566037736,NA,NA
08070,Salem County,NJ,77.59433962264151,NA,NA
08077,Burlington County,NJ,NA,63.94658753709199,NA
08094,Gloucester County,NJ,NA,13.056379821958458,NA
08302,Cumberland County,NJ,NA,NA,60.20151133501259
08533,Ocean County,NJ,NA,94.65875370919882,NA
08610,Mercer County,NJ,10.023584905660378,NA,NA
08619,Mercer County,NJ,NA,NA,47.103274559193956
08755,Ocean County,NJ,26.297169811320753,NA,NA
08822,Hunterdon County,NJ,NA,69.28783382789318,NA
08861,Middlesex County,NJ,NA,6.231454005934718,NA
87105,Bernalillo County,NM,5.89622641509434,NA,NA
87107,Bernalillo County,NM,NA,59.940652818991104,NA
87110,Bernalillo County,NM,NA,11.42433234421365,38.539042821158695
87111,Bernalillo County,NM,NA,13.204747774480714,NA
87112,Bernalillo County,NM,NA,NA,3.7783375314861463
87114,Bernalillo County,NM,NA,16.61721068249258,NA
87124,Sandoval County,NM,40.09433962264151,NA,NA
87701,San Miguel County,NM,NA,NA,42.0654911838791
88007,Doa Ana County,NM,58.136792452830186,56.97329376854599,NA
88101,Curry County,NM,NA,8.30860534124629,NA
88240,Lea County,NM,8.49056603773585,NA,NA
10001,New York County,NY,NA,35.311572700296736,NA
10010,New York County,NY,NA,58.753709198813056,NA
10019,New York County,NY,63.67924528301887,NA,NA
10023,New York County,NY,50.82547169811321,NA,3.5264483627204033
10025,New York County,NY,NA,0.8902077151335311,NA
10027,New York County,NY,26.41509433962264,NA,NA
10029,New York County,NY,7.0754716981132075,NA,NA
10031,New York County,NY,10.966981132075473,NA,NA
10032,New York County,NY,NA,NA,76.32241813602015
10033,New York County,NY,49.764150943396224,NA,NA
10039,New York County,NY,NA,NA,38.0352644836272
10065,New York County,NY,88.3254716981132,NA,NA
10305,Richmond County,NY,21.933962264150946,NA,NA
10310,Richmond County,NY,48.70283018867924,NA,NA
10451,Bronx County,NY,3.30188679245283,NA,4.785894206549118
10452,Bronx County,NY,1.2971698113207548,NA,11.083123425692696
10454,Bronx County,NY,9.080188679245282,NA,NA
10461,Bronx County,NY,14.976415094339623,NA,NA
10462,Bronx County,NY,NA,4.302670623145401,NA
10463,Bronx County,NY,33.490566037735846,NA,NA
10468,Bronx County,NY,NA,NA,6.297229219143577
10469,Bronx County,NY,4.245283018867925,NA,NA
10472,Bronx County,NY,NA,38.57566765578635,NA
10473,Bronx County,NY,6.485849056603773,NA,NA
10566,Westchester County,NY,NA,70.32640949554896,NA
10965,Rockland County,NY,NA,NA,72.544080604534
11103,Queens County,NY,NA,95.6973293768546,NA
11203,Kings County,NY,NA,6.824925816023739,NA
11208,Kings County,NY,1.7688679245283019,1.3353115727002967,NA
11213,Kings County,NY,7.193396226415095,NA,NA
11216,Kings County,NY,NA,9.050445103857568,NA
11221,Kings County,NY,3.5377358490566038,3.857566765578635,NA
11226,Kings County,NY,6.014150943396227,NA,NA
11231,Kings County,NY,NA,45.103857566765576,NA
11235,Kings County,NY,NA,68.69436201780415,NA
11238,Kings County,NY,NA,15.578635014836795,NA
11239,Kings County,NY,NA,NA,30.22670025188917
11361,Queens County,NY,NA,77.59643916913946,NA
11368,Queens County,NY,NA,19.287833827893174,NA
11421,Queens County,NY,NA,NA,41.81360201511335
11435,Queens County,NY,NA,70.32640949554896,NA
11542,Nassau County,NY,61.32075471698113,NA,NA
11691,Queens County,NY,11.202830188679245,37.24035608308605,NA
11729,Suffolk County,NY,NA,62.166172106824924,NA
11746,Suffolk County,NY,NA,NA,9.82367758186398
11762,Nassau County,NY,NA,82.64094955489614,NA
11764,Suffolk County,NY,NA,NA,84.1309823677582
12010,Montgomery County,NY,7.547169811320755,NA,NA
12078,Fulton County,NY,6.367924528301887,NA,NA
12117,Fulton County,NY,92.9245283018868,NA,NA
12189,Albany County,NY,41.62735849056604,NA,NA
12204,Albany County,NY,66.50943396226415,NA,NA
12304,Schenectady County,NY,32.54716981132076,NA,NA
12533,Dutchess County,NY,NA,NA,60.45340050377834
12801,Warren County,NY,22.995283018867923,NA,NA
12827,Washington County,NY,NA,98.21958456973294,NA
12831,Saratoga County,NY,NA,50.29673590504451,NA
12901,Clinton County,NY,4.127358490566038,NA,NA
12953,Franklin County,NY,20.87264150943396,NA,NA
12958,Clinton County,NY,NA,99.25816023738872,NA
13039,Onondaga County,NY,NA,NA,82.61964735516372
13045,Cortland County,NY,NA,11.72106824925816,NA
13069,Oswego County,NY,7.665094339622641,NA,NA
13101,Cortland County,NY,92.57075471698113,NA,NA
13126,Oswego County,NY,NA,8.011869436201781,NA
13148,Seneca County,NY,87.61792452830188,NA,NA
13165,Seneca County,NY,29.83490566037736,NA,NA
13203,Onondaga County,NY,53.655660377358494,NA,NA
13208,Onondaga County,NY,15.80188679245283,NA,NA
13350,Herkimer County,NY,36.556603773584904,NA,NA
13363,Oneida County,NY,95.75471698113208,NA,NA
13440,Oneida County,NY,NA,5.934718100890208,NA
13760,Broome County,NY,NA,7.121661721068249,NA
13790,Broome County,NY,12.14622641509434,NA,NA
13825,Otsego County,NY,83.72641509433963,NA,NA
14005,Genesee County,NY,NA,96.73590504451039,NA
14006,Erie County,NY,NA,63.20474777448071,NA
14094,Niagara County,NY,2.358490566037736,NA,NA
14131,Niagara County,NY,79.00943396226415,NA,NA
14136,Chautauqua County,NY,88.56132075471697,NA,NA
14411,Orleans County,NY,30.18867924528302,41.839762611275965,NA
14423,Livingston County,NY,87.85377358490565,NA,NA
14425,Ontario County,NY,NA,62.759643916913944,NA
14450,Monroe County,NY,3.4198113207547167,1.0385756676557862,NA
14456,Ontario County,NY,NA,5.489614243323442,NA
14467,Monroe County,NY,58.844339622641506,NA,NA
14469,Ontario County,NY,NA,NA,84.38287153652394
14505,Wayne County,NY,62.382075471698116,NA,NA
14525,Genesee County,NY,89.74056603773585,NA,NA
14559,Monroe County,NY,NA,NA,26.952141057934508
14580,Monroe County,NY,NA,NA,1.2594458438287155
14590,Wayne County,NY,NA,NA,96.97732997481108
14606,Monroe County,NY,87.26415094339622,NA,NA
14608,Monroe County,NY,16.15566037735849,NA,NA
14609,Monroe County,NY,1.0613207547169812,NA,16.876574307304786
14612,Monroe County,NY,2.5943396226415096,16.913946587537094,NA
14617,Monroe County,NY,NA,28.338278931750743,90.17632241813602
14619,Monroe County,NY,17.33490566037736,NA,NA
14621,Monroe County,NY,1.179245283018868,NA,NA
14622,Monroe County,NY,NA,NA,62.21662468513854
14626,Monroe County,NY,3.891509433962264,NA,NA
14738,Chautauqua County,NY,92.09905660377359,NA,NA
14772,Cattaraugus County,NY,89.15094339622641,NA,NA
14810,Steuben County,NY,34.55188679245283,NA,NA
14850,Tompkins County,NY,7.429245283018868,34.42136498516321,NA
14901,Chemung County,NY,33.0188679245283,NA,NA
27028,Davie County,NC,18.278301886792452,NA,NA
27030,Surry County,NC,31.367924528301888,NA,NA
27217,Alamance County,NC,NA,NA,8.816120906801007
27320,Rockingham County,NC,14.033018867924529,NA,NA
27401,Guilford County,NC,NA,NA,54.15617128463476
27403,Guilford County,NC,88.08962264150944,NA,NA
27407,Guilford County,NC,NA,NA,32.241813602015114
27408,Guilford County,NC,98.82075471698113,NA,NA
27511,Wake County,NC,65.2122641509434,NA,NA
27513,Wake County,NC,61.438679245283026,NA,NA
27530,Wayne County,NC,NA,23.14540059347181,NA
27536,Vance County,NC,31.839622641509436,NA,NA
27549,Franklin County,NC,24.764150943396228,NA,NA
27563,Warren County,NC,NA,98.66468842729971,NA
27587,Wake County,NC,NA,10.682492581602373,NA
27608,Wake County,NC,NA,90.3560830860534,NA
27609,Wake County,NC,NA,NA,24.181360201511335
27613,Wake County,NC,51.886792452830186,NA,NA
27703,Durham County,NC,NA,43.02670623145401,NA
27858,Pitt County,NC,60.02358490566038,NA,NA
27864,Edgecombe County,NC,90.09433962264151,NA,NA
27886,Edgecombe County,NC,NA,45.54896142433235,NA
27889,Beaufort County,NC,NA,60.534124629080125,NA
27891,Nash County,NC,93.27830188679245,NA,NA
27893,Wilson County,NC,17.92452830188679,25.667655786350146,29.72292191435768
27910,Hertford County,NC,NA,53.560830860534125,NA
28021,Gaston County,NC,NA,65.72700296735906,NA
28027,Cabarrus County,NC,21.34433962264151,8.605341246290802,NA
28052,Gaston County,NC,28.537735849056606,NA,NA
28086,Cleveland County,NC,27.830188679245282,NA,NA
28139,Rutherford County,NC,NA,NA,92.69521410579345
28208,Mecklenburg County,NC,12.264150943396226,NA,NA
28273,Mecklenburg County,NC,86.20283018867924,NA,NA
28304,Cumberland County,NC,NA,46.73590504451038,NA
28320,Bladen County,NC,NA,77.1513353115727,82.87153652392946
28328,Sampson County,NC,37.14622641509434,NA,73.04785894206549
28334,Sampson County,NC,NA,31.454005934718097,NA
28339,Harnett County,NC,NA,89.31750741839762,NA
28352,Scotland County,NC,NA,39.317507418397625,NA
28383,Robeson County,NC,NA,84.56973293768546,NA
28387,Moore County,NC,75.35377358490565,NA,NA
28401,New Hanover County,NC,NA,NA,51.88916876574308
28405,New Hanover County,NC,36.556603773584904,NA,NA
28451,Brunswick County,NC,NA,26.409495548961427,75.56675062972292
28470,Brunswick County,NC,NA,69.8813056379822,NA
28516,Carteret County,NC,NA,59.05044510385756,NA
28557,Carteret County,NC,NA,NA,46.095717884130984
28580,Greene County,NC,NA,NA,71.78841309823679
28601,Catawba County,NC,17.21698113207547,NA,NA
28610,Catawba County,NC,NA,92.43323442136499,NA
28625,Iredell County,NC,19.693396226415093,NA,NA
28645,Caldwell County,NC,5.660377358490567,NA,NA
28655,Burke County,NC,28.066037735849058,NA,NA
28658,Catawba County,NC,73.46698113207547,NA,NA
28659,Wilkes County,NC,24.17452830188679,30.118694362017806,NA
28677,Iredell County,NC,18.632075471698112,NA,NA
28713,Swain County,NC,72.52358490566037,NA,NA
28714,Yancey County,NC,NA,45.99406528189911,NA
28715,Buncombe County,NC,51.17924528301887,NA,NA
28731,Henderson County,NC,NA,NA,45.08816120906801
28739,Henderson County,NC,NA,14.836795252225517,NA
28777,Mitchell County,NC,NA,69.43620178041543,NA
28778,Buncombe County,NC,NA,NA,98.99244332493703
28785,Haywood County,NC,NA,88.27893175074183,NA
28806,Buncombe County,NC,NA,43.768545994065285,NA
58072,Barnes County,ND,NA,93.47181008902076,NA
58203,Grand Forks County,ND,55.07075471698113,NA,NA
58703,Ward County,ND,NA,42.87833827893175,NA
58801,Williams County,ND,NA,50.59347181008902,NA
43035,Delaware County,OH,72.16981132075472,NA,NA
43040,Union County,OH,83.60849056603774,20.919881305637983,21.41057934508816
43055,Licking County,OH,NA,NA,2.770780856423174
43068,Franklin County,OH,NA,42.581602373887236,NA
43078,Champaign County,OH,66.62735849056604,NA,NA
43105,Fairfield County,OH,81.36792452830188,NA,NA
43130,Fairfield County,OH,2.1226415094339623,NA,NA
43143,Madison County,OH,NA,98.81305637982196,NA
43203,Franklin County,OH,NA,83.67952522255193,NA
43204,Franklin County,OH,NA,NA,37.02770780856423
43206,Franklin County,OH,NA,NA,56.67506297229219
43207,Franklin County,OH,NA,8.160237388724036,NA
43209,Franklin County,OH,50.47169811320755,NA,NA
43213,Franklin County,OH,NA,89.91097922848664,NA
43224,Franklin County,OH,NA,17.210682492581604,NA
43228,Franklin County,OH,5.070754716981132,NA,NA
43229,Franklin County,OH,NA,9.940652818991099,NA
43235,Franklin County,OH,NA,NA,26.448362720403022
43311,Logan County,OH,63.443396226415096,NA,NA
43457,Wood County,OH,99.76415094339622,NA,NA
43512,Defiance County,OH,NA,5.192878338278932,67.50629722921914
43605,Lucas County,OH,NA,23.738872403560833,NA
43607,Lucas County,OH,29.009433962264154,NA,NA
43608,Lucas County,OH,35.259433962264154,NA,NA
43613,Lucas County,OH,5.188679245283019,26.26112759643917,NA
43615,Lucas County,OH,5.306603773584905,NA,NA
43616,Lucas County,OH,NA,43.47181008902077,NA
43731,Perry County,OH,72.05188679245283,NA,NA
43812,Coshocton County,OH,8.018867924528301,8.902077151335313,NA
43907,Harrison County,OH,90.2122641509434,NA,NA
43950,Belmont County,OH,41.62735849056604,NA,NA
44001,Lorain County,OH,NA,NA,5.541561712846348
44004,Ashtabula County,OH,NA,22.255192878338278,NA
44017,Cuyahoga County,OH,NA,38.87240356083086,NA
44030,Ashtabula County,OH,NA,49.554896142433236,NA
44035,Lorain County,OH,0.7075471698113208,2.3738872403560833,NA
44039,Lorain County,OH,NA,2.8189910979228485,NA
44053,Lorain County,OH,NA,6.973293768545995,NA
44077,Lake County,OH,4.952830188679245,NA,NA
44103,Cuyahoga County,OH,35.84905660377358,13.94658753709199,NA
44105,Cuyahoga County,OH,NA,0.2967359050445104,NA
44109,Cuyahoga County,OH,6.8396226415094334,NA,NA
44114,Cuyahoga County,OH,NA,64.68842729970326,NA
44118,Cuyahoga County,OH,NA,12.314540059347182,NA
44120,Cuyahoga County,OH,NA,2.967359050445104,NA
44133,Cuyahoga County,OH,29.36320754716981,NA,NA
44134,Cuyahoga County,OH,10.731132075471699,NA,NA
44136,Cuyahoga County,OH,NA,9.643916913946587,NA
44138,Cuyahoga County,OH,NA,25.96439169139466,NA
44145,Cuyahoga County,OH,NA,30.712166172106826,NA
44212,Medina County,OH,4.363207547169811,NA,NA
44240,Portage County,OH,84.7877358490566,21.66172106824926,17.12846347607053
44241,Portage County,OH,NA,58.6053412462908,NA
44256,Medina County,OH,NA,0.44510385756676557,NA
44301,Summit County,OH,33.37264150943396,NA,NA
44307,Summit County,OH,NA,62.61127596439169,NA
44313,Summit County,OH,NA,52.967359050445104,NA
44410,Trumbull County,OH,NA,27.89317507418398,NA
44425,Trumbull County,OH,NA,28.041543026706233,NA
44432,Columbiana County,OH,64.74056603773585,NA,NA
44446,Trumbull County,OH,NA,18.24925816023739,NA
44481,Trumbull County,OH,29.71698113207547,NA,NA
44502,Mahoning County,OH,NA,71.06824925816024,NA
44511,Mahoning County,OH,NA,35.01483679525222,NA
44641,Stark County,OH,NA,47.32937685459941,25.440806045340054
44685,Summit County,OH,47.16981132075472,NA,NA
44718,Stark County,OH,80.30660377358491,NA,NA
44805,Ashland County,OH,NA,5.341246290801187,NA
44830,Seneca County,OH,20.047169811320757,NA,NA
44846,Erie County,OH,97.16981132075472,NA,NA
44883,Seneca County,OH,20.400943396226413,NA,NA
44903,Richland County,OH,20.99056603773585,20.623145400593472,NA
45013,Butler County,OH,NA,3.2640949554896146,NA
45015,Butler County,OH,55.77830188679245,NA,NA
45030,Hamilton County,OH,NA,53.85756676557863,70.27707808564232
45040,Warren County,OH,NA,69.8813056379822,NA
45042,Butler County,OH,22.87735849056604,NA,NA
45044,Butler County,OH,7.783018867924528,NA,NA
45069,Butler County,OH,NA,20.02967359050445,NA
45103,Clermont County,OH,60.613207547169814,NA,NA
45123,Highland County,OH,NA,63.353115727002965,NA
45157,Clermont County,OH,NA,NA,97.48110831234257
45229,Hamilton County,OH,NA,NA,71.53652392947103
45237,Hamilton County,OH,NA,NA,43.57682619647355
45238,Hamilton County,OH,NA,NA,9.571788413098236
45247,Hamilton County,OH,NA,NA,24.68513853904282
45249,Hamilton County,OH,90.2122641509434,NA,NA
45251,Hamilton County,OH,NA,61.5727002967359,NA
45255,Hamilton County,OH,NA,47.18100890207715,NA
45331,Darke County,OH,88.44339622641509,NA,NA
45342,Montgomery County,OH,NA,11.127596439169139,20.151133501259448
45365,Shelby County,OH,NA,NA,22.418136020151135
45371,Miami County,OH,NA,22.403560830860535,NA
45404,Montgomery County,OH,80.18867924528303,NA,NA
45405,Montgomery County,OH,58.01886792452831,NA,NA
45414,Montgomery County,OH,32.42924528301887,NA,NA
45417,Montgomery County,OH,NA,NA,25.188916876574307
45420,Montgomery County,OH,28.655660377358487,NA,NA
45430,Greene County,OH,NA,94.06528189910979,NA
45431,Montgomery County,OH,47.52358490566038,NA,NA
45449,Montgomery County,OH,37.264150943396224,NA,NA
45459,Montgomery County,OH,61.910377358490564,NA,NA
45614,Gallia County,OH,78.18396226415094,NA,NA
45662,Scioto County,OH,NA,2.522255192878338,NA
45764,Athens County,OH,NA,NA,92.44332493702771
45804,Allen County,OH,14.74056603773585,NA,NA
45805,Allen County,OH,16.9811320754717,NA,NA
45833,Allen County,OH,62.382075471698116,NA,44.83627204030227
45869,Auglaize County,OH,99.1745283018868,NA,NA
45885,Auglaize County,OH,72.40566037735849,NA,NA
73013,Oklahoma County,OK,34.19811320754717,NA,NA
73026,Cleveland County,OK,79.12735849056604,NA,NA
73069,Cleveland County,OK,65.68396226415094,NA,NA
73071,Cleveland County,OK,26.06132075471698,NA,NA
73072,Cleveland County,OK,NA,NA,31.98992443324937
73080,McClain County,OK,NA,76.70623145400593,NA
73086,Murray County,OK,70.04716981132076,NA,NA
73099,Canadian County,OK,NA,7.863501483679524,NA
73127,Oklahoma County,OK,53.18396226415094,NA,NA
73132,Oklahoma County,OK,NA,45.40059347181009,NA
73135,Oklahoma County,OK,NA,NA,60.957178841309826
73162,Oklahoma County,OK,52.358490566037744,NA,NA
73501,Comanche County,OK,57.54716981132076,49.40652818991098,NA
73505,Comanche County,OK,24.882075471698112,NA,NA
73703,Garfield County,OK,54.363207547169814,NA,NA
74012,Tulsa County,OK,27.594339622641513,NA,NA
74016,Rogers County,OK,NA,97.77448071216617,NA
74059,Payne County,OK,NA,86.35014836795251,NA
74074,Payne County,OK,NA,NA,31.738035264483628
74132,Tulsa County,OK,95.40094339622641,NA,NA
74447,Okmulgee County,OK,67.80660377358491,NA,NA
74578,Latimer County,OK,NA,NA,97.22921914357683
74601,Kay County,OK,86.08490566037736,NA,NA
74848,Hughes County,OK,NA,78.18991097922849,NA
74857,Cleveland County,OK,78.5377358490566,NA,NA
97004,Clackamas County,OR,NA,96.14243323442136,NA
97103,Clatsop County,OR,80.4245283018868,NA,NA
97132,Yamhill County,OR,NA,31.602373887240354,NA
97222,Clackamas County,OR,63.089622641509436,NA,NA
97230,Multnomah County,OR,25.117924528301888,NA,13.09823677581864
97236,Multnomah County,OR,22.40566037735849,NA,NA
97303,Marion County,OR,43.04245283018868,NA,NA
97321,Linn County,OR,NA,26.706231454005934,NA
97355,Linn County,OR,14.622641509433961,NA,NA
97374,Linn County,OR,NA,83.53115727002968,NA
97405,Lane County,OR,NA,62.46290801186943,NA
97420,Coos County,OR,NA,NA,40.55415617128463
97457,Douglas County,OR,69.22169811320755,NA,NA
97479,Douglas County,OR,71.4622641509434,NA,NA
97524,Jackson County,OR,NA,59.19881305637982,NA
97526,Josephine County,OR,NA,36.053412462908014,NA
97603,Klamath County,OR,NA,NA,22.16624685138539
97630,Lake County,OR,NA,67.35905044510386,NA
97914,Malheur County,OR,NA,NA,43.32493702770781
15026,Beaver County,PA,99.41037735849056,NA,NA
15068,Westmoreland County,PA,21.580188679245282,12.01780415430267,NA
15084,Allegheny County,PA,68.27830188679245,NA,NA
15110,Allegheny County,PA,NA,91.3946587537092,NA
15208,Allegheny County,PA,NA,NA,57.68261964735516
15210,Allegheny County,PA,17.92452830188679,NA,NA
15212,Allegheny County,PA,27.004716981132077,NA,NA
15219,Allegheny County,PA,34.43396226415094,NA,37.27959697732997
15227,Allegheny County,PA,NA,23.590504451038576,NA
15235,Allegheny County,PA,22.40566037735849,NA,NA
15238,Allegheny County,PA,NA,51.33531157270029,32.7455919395466
15370,Greene County,PA,NA,NA,53.14861460957179
15401,Fayette County,PA,NA,NA,7.5566750629722925
15461,Fayette County,PA,NA,98.3679525222552,93.95465994962217
15522,Bedford County,PA,64.15094339622641,NA,NA
15650,Westmoreland County,PA,NA,NA,76.0705289672544
15690,Westmoreland County,PA,76.29716981132076,NA,NA
15701,Indiana County,PA,NA,51.92878338278932,NA
15717,Indiana County,PA,NA,43.32344213649852,NA
15748,Indiana County,PA,98.11320754716981,NA,NA
15767,Jefferson County,PA,31.25,NA,NA
15902,Cambria County,PA,85.37735849056604,NA,NA
15905,Cambria County,PA,NA,NA,19.395465994962215
16052,Butler County,PA,NA,97.47774480712165,NA
16056,Butler County,PA,95.16509433962264,NA,NA
16057,Butler County,PA,NA,NA,68.01007556675063
16117,Lawrence County,PA,NA,NA,59.69773299748111
16137,Mercer County,PA,92.80660377358491,NA,NA
16159,Mercer County,PA,NA,86.20178041543026,NA
16232,Clarion County,PA,NA,82.93768545994065,NA
16316,Crawford County,PA,83.01886792452831,NA,NA
16354,Crawford County,PA,66.98113207547169,NA,NA
16503,Erie County,PA,37.5,NA,NA
16506,Erie County,PA,67.9245283018868,NA,NA
16602,Blair County,PA,NA,90.0593471810089,NA
16735,McKean County,PA,73.23113207547169,NA,NA
16866,Centre County,PA,63.20754716981132,NA,NA
17011,Cumberland County,PA,NA,21.216617210682493,NA
17036,Dauphin County,PA,26.06132075471698,13.501483679525222,NA
17042,Lebanon County,PA,NA,6.528189910979229,NA
17049,Juniata County,PA,97.52358490566037,NA,NA
17078,Lebanon County,PA,19.81132075471698,NA,NA
17104,Dauphin County,PA,NA,39.16913946587537,NA
17110,Dauphin County,PA,47.87735849056604,NA,NA
17241,Cumberland County,PA,NA,81.15727002967358,NA
17257,Cumberland County,PA,NA,27.44807121661721,NA
17315,York County,PA,NA,17.359050445103858,NA
17320,Adams County,PA,NA,NA,65.23929471032746
17331,York County,PA,NA,1.1869436201780417,NA
17347,York County,PA,NA,74.4807121661721,NA
17350,Adams County,PA,NA,58.160237388724035,NA
17402,York County,PA,NA,NA,98.2367758186398
17552,Lancaster County,PA,40.44811320754717,83.82789317507418,NA
17603,Lancaster County,PA,12.5,10.385756676557865,NA
17745,Clinton County,PA,NA,NA,39.79848866498741
17815,Columbia County,PA,NA,12.611275964391691,NA
17963,Schuylkill County,PA,NA,78.18991097922849,NA
18015,Northampton County,PA,NA,27.1513353115727,NA
18017,Northampton County,PA,8.84433962264151,NA,NA
18067,Northampton County,PA,NA,NA,34.25692695214106
18080,Lehigh County,PA,NA,92.13649851632047,NA
18102,Lehigh County,PA,NA,36.35014836795252,NA
18103,Lehigh County,PA,7.900943396226415,NA,NA
18104,Lehigh County,PA,NA,4.154302670623145,NA
18222,Luzerne County,PA,NA,NA,69.52141057934509
18353,Monroe County,PA,86.32075471698113,NA,NA
18360,Monroe County,PA,NA,14.391691394658753,NA
18411,Lackawanna County,PA,NA,57.12166172106825,NA
18436,Wayne County,PA,NA,NA,65.4911838790932
18644,Luzerne County,PA,NA,66.61721068249258,NA
18702,Luzerne County,PA,9.90566037735849,4.896142433234421,NA
18704,Luzerne County,PA,NA,15.133531157270031,NA
18960,Bucks County,PA,68.86792452830188,NA,NA
18974,Bucks County,PA,NA,NA,2.518891687657431
19001,Montgomery County,PA,NA,NA,77.32997481108312
19008,Delaware County,PA,NA,38.724035608308604,NA
19018,Delaware County,PA,61.08490566037735,NA,NA
19026,Delaware County,PA,NA,NA,57.17884130982368
19027,Montgomery County,PA,NA,36.646884272997035,NA
19029,Delaware County,PA,96.58018867924528,NA,NA
19079,Delaware County,PA,NA,NA,97.98488664987406
19087,Chester County,PA,52.7122641509434,NA,NA
19111,Philadelphia County,PA,5.4245283018867925,NA,NA
19114,Philadelphia County,PA,NA,22.8486646884273,18.89168765743073
19116,Philadelphia County,PA,31.60377358490566,16.320474777448073,NA
19119,Philadelphia County,PA,NA,55.637982195845694,NA
19120,Philadelphia County,PA,4.009433962264151,NA,NA
19121,Philadelphia County,PA,11.674528301886793,24.92581602373887,NA
19130,Philadelphia County,PA,NA,69.58456973293768,NA
19136,Philadelphia County,PA,14.268867924528303,NA,NA
19138,Philadelphia County,PA,16.15566037735849,NA,NA
19139,Philadelphia County,PA,6.132075471698113,NA,NA
19140,Philadelphia County,PA,3.0660377358490565,NA,NA
19143,Philadelphia County,PA,1.8867924528301887,NA,NA
19144,Philadelphia County,PA,25.471698113207548,NA,NA
19145,Philadelphia County,PA,NA,13.353115727002967,NA
19149,Philadelphia County,PA,NA,NA,27.70780856423174
19152,Philadelphia County,PA,NA,21.810089020771514,NA
19153,Philadelphia County,PA,NA,NA,88.16120906801007
19154,Philadelphia County,PA,18.75,NA,NA
19301,Chester County,PA,NA,82.19584569732937,NA
19320,Chester County,PA,12.382075471698114,NA,NA
19342,Delaware County,PA,76.88679245283019,NA,NA
19344,Chester County,PA,NA,80.41543026706232,NA
19348,Chester County,PA,57.66509433962265,NA,NA
19362,Chester County,PA,NA,90.80118694362018,NA
19380,Chester County,PA,NA,6.379821958456973,NA
19390,Chester County,PA,NA,60.83086053412463,NA
19422,Montgomery County,PA,NA,NA,45.34005037783375
19444,Montgomery County,PA,NA,95.84569732937686,NA
19460,Chester County,PA,NA,25.222551928783382,NA
19468,Montgomery County,PA,NA,36.49851632047478,NA
19512,Berks County,PA,NA,51.038575667655785,NA
19520,Chester County,PA,NA,88.13056379821958,NA
19526,Berks County,PA,NA,59.495548961424326,NA
19565,Berks County,PA,NA,NA,52.896725440806044
19602,Berks County,PA,NA,NA,66.75062972292191
19605,Berks County,PA,64.38679245283019,NA,NA
19607,Berks County,PA,30.778301886792452,NA,NA
02863,Providence County,RI,NA,61.86943620178042,NA
02871,Newport County,RI,NA,40.0593471810089,NA
02905,Providence County,RI,NA,NA,50.62972292191436
02911,Providence County,RI,NA,91.0979228486647,NA
02915,Providence County,RI,76.41509433962264,NA,NA
29010,Lee County,SC,73.82075471698113,NA,NA
29045,Kershaw County,SC,NA,52.07715133531158,NA
29072,Lexington County,SC,29.4811320754717,29.970326409495552,NA
29078,Kershaw County,SC,NA,71.81008902077151,NA
29102,Clarendon County,SC,NA,56.52818991097923,NA
29150,Sumter County,SC,NA,29.821958456973295,NA
29210,Richland County,SC,NA,54.45103857566765,NA
29223,Richland County,SC,NA,28.931750741839764,NA
29303,Spartanburg County,SC,44.575471698113205,NA,NA
29403,Charleston County,SC,NA,65.28189910979229,NA
29410,Berkeley County,SC,NA,NA,68.76574307304786
29455,Charleston County,SC,NA,35.90504451038576,33.249370277078086
29456,Dorchester County,SC,NA,48.96142433234421,NA
29464,Charleston County,SC,45.40094339622642,NA,NA
29506,Florence County,SC,46.69811320754717,NA,NA
29527,Horry County,SC,NA,48.6646884272997,NA
29550,Darlington County,SC,43.278301886792455,NA,NA
29555,Florence County,SC,94.69339622641509,NA,NA
29572,Horry County,SC,94.81132075471697,NA,NA
29575,Horry County,SC,NA,60.38575667655787,NA
29607,Greenville County,SC,31.485849056603776,NA,NA
29611,Greenville County,SC,43.514150943396224,NA,NA
29626,Anderson County,SC,72.99528301886792,NA,NA
29642,Pickens County,SC,35.49528301886792,NA,NA
29662,Greenville County,SC,64.26886792452831,NA,NA
29673,Greenville County,SC,70.40094339622641,NA,NA
29680,Greenville County,SC,NA,NA,63.72795969773299
29720,Lancaster County,SC,NA,NA,23.67758186397985
29803,Aiken County,SC,NA,10.979228486646884,NA
29824,Edgefield County,SC,NA,90.65281899109793,NA
57013,Lincoln County,SD,96.93396226415094,NA,NA
57042,Lake County,SD,NA,78.48664688427299,NA
57104,Minnehaha County,SD,32.31132075471698,NA,NA
57105,Minnehaha County,SD,47.99528301886792,NA,NA
57401,Brown County,SD,20.5188679245283,NA,NA
57701,Pennington County,SD,21.816037735849054,52.818991097922854,NA
37036,Dickson County,TN,NA,92.7299703264095,NA
37066,Sumner County,TN,NA,10.83086053412463,NA
37067,Williamson County,TN,NA,70.77151335311572,NA
37069,Williamson County,TN,NA,77.74480712166172,86.64987405541562
37148,Sumner County,TN,NA,46.88427299703264,NA
37174,Williamson County,TN,NA,NA,79.84886649874056
37207,Davidson County,TN,15.683962264150944,NA,NA
37208,Davidson County,TN,NA,NA,88.9168765743073
37209,Davidson County,TN,34.31603773584906,NA,NA
37307,Polk County,TN,96.34433962264151,NA,NA
37620,Sullivan County,TN,NA,NA,14.86146095717884
37664,Sullivan County,TN,NA,48.07121661721068,NA
37683,Johnson County,TN,56.25,NA,NA
37709,Grainger County,TN,NA,100,NA
37742,Loudon County,TN,NA,NA,96.4735516372796
37804,Blount County,TN,NA,20.474777448071215,NA
37814,Hamblen County,TN,NA,28.783382789317507,NA
37840,Roane County,TN,93.75,NA,NA
37876,Sevier County,TN,NA,23.887240356083087,NA
37920,Knox County,TN,NA,18.397626112759642,NA
37921,Knox County,TN,NA,NA,76.57430730478589
37931,Knox County,TN,43.86792452830189,NA,NA
37934,Knox County,TN,NA,87.0919881305638,NA
37938,Knox County,TN,NA,64.2433234421365,NA
38017,Shelby County,TN,NA,51.780415430267055,NA
38106,Shelby County,TN,19.339622641509436,NA,NA
38115,Shelby County,TN,25.825471698113205,NA,NA
38117,Shelby County,TN,NA,NA,50.12594458438288
38127,Shelby County,TN,12.028301886792454,NA,NA
38128,Shelby County,TN,23.349056603773587,NA,NA
38135,Shelby County,TN,NA,NA,71.28463476070529
38242,Henry County,TN,NA,NA,43.07304785894207
38261,Obion County,TN,NA,NA,65.74307304785894
38305,Madison County,TN,NA,NA,14.105793450881613
38351,Henderson County,TN,NA,NA,35.26448362720403
38401,Maury County,TN,51.76886792452831,NA,NA
38464,Lawrence County,TN,NA,33.08605341246291,NA
75009,Collin County,TX,85.49528301886792,NA,NA
75056,Denton County,TX,34.08018867924528,NA,NA
75062,Dallas County,TX,NA,35.459940652818986,NA
75069,Collin County,TX,50.35377358490566,NA,NA
75090,Grayson County,TX,NA,58.01186943620178,NA
75150,Dallas County,TX,25.589622641509436,NA,NA
75154,Ellis County,TX,NA,NA,73.80352644836272
75189,Rockwall County,TX,46.58018867924528,NA,NA
75214,Dallas County,TX,45.5188679245283,NA,NA
75224,Dallas County,TX,NA,75.07418397626114,NA
75232,Dallas County,TX,46.81603773584906,NA,NA
75401,Hunt County,TX,NA,84.27299703264094,NA
75409,Collin County,TX,76.17924528301887,NA,NA
75442,Collin County,TX,79.48113207547169,NA,NA
75503,Bowie County,TX,53.5377358490566,NA,NA
75650,Harrison County,TX,77.24056603773585,NA,NA
75754,Van Zandt County,TX,93.63207547169812,NA,NA
75762,Smith County,TX,75.58962264150944,NA,NA
75951,Jasper County,TX,NA,45.845697329376854,NA
76015,Tarrant County,TX,NA,72.10682492581603,NA
76018,Tarrant County,TX,58.608490566037744,NA,NA
76033,Johnson County,TX,38.325471698113205,NA,NA
76058,Johnson County,TX,80.89622641509435,NA,NA
76106,Tarrant County,TX,NA,22.700296735905045,NA
76131,Tarrant County,TX,52.948113207547166,NA,NA
76133,Tarrant County,TX,21.69811320754717,NA,NA
76134,Tarrant County,TX,29.599056603773583,NA,NA
76140,Tarrant County,TX,NA,44.95548961424332,NA
76210,Denton County,TX,57.66509433962265,NA,NA
76301,Wichita County,TX,NA,69.13946587537092,NA
76354,Wichita County,TX,79.59905660377359,NA,NA
76502,Bell County,TX,18.514150943396228,NA,NA
76504,Bell County,TX,38.20754716981132,NA,NA
76513,Bell County,TX,NA,NA,0.2518891687657431
76522,Coryell County,TX,NA,NA,11.335012594458437
76549,Bell County,TX,25.943396226415093,34.27299703264095,NA
76706,McLennan County,TX,NA,NA,21.662468513853906
77003,Harris County,TX,82.19339622641509,NA,NA
77011,Harris County,TX,81.13207547169812,NA,NA
77016,Harris County,TX,NA,40.652818991097924,NA
77063,Harris County,TX,NA,NA,70.52896725440806
77351,Polk County,TX,NA,24.480712166172104,NA
77355,Montgomery County,TX,59.905660377358494,NA,NA
77375,Harris County,TX,NA,38.13056379821958,NA
77382,Montgomery County,TX,64.97641509433963,NA,NA
77422,Brazoria County,TX,NA,NA,71.78841309823679
77449,Harris County,TX,13.679245283018867,NA,NA
77539,Galveston County,TX,69.92924528301887,NA,NA
77551,Galveston County,TX,29.245283018867923,NA,58.43828715365239
77590,Galveston County,TX,16.86320754716981,NA,NA
77656,Hardin County,TX,57.90094339622641,NA,NA
77802,Brazos County,TX,28.30188679245283,NA,NA
77856,Robertson County,TX,NA,99.85163204747775,NA
77879,Burleson County,TX,NA,69.73293768545994,NA
77963,Goliad County,TX,NA,96.58753709198812,NA
78102,Bee County,TX,NA,73.73887240356083,NA
78108,Guadalupe County,TX,NA,75.22255192878339,NA
78114,Wilson County,TX,NA,NA,73.55163727959699
78227,Bexar County,TX,NA,53.26409495548962,NA
78232,Bexar County,TX,NA,97.3293768545994,NA
78239,Bexar County,TX,62.14622641509434,NA,NA
78501,Hidalgo County,TX,NA,NA,12.090680100755668
78602,Bastrop County,TX,NA,63.50148367952523,NA
78624,Gillespie County,TX,NA,49.25816023738873,NA
78639,Llano County,TX,NA,NA,28.463476070528966
78747,Travis County,TX,NA,93.17507418397626,NA
79118,Randall County,TX,NA,82.04747774480711,NA
79201,Childress County,TX,NA,94.3620178041543,NA
79413,Lubbock County,TX,NA,56.676557863501486,NA
79423,Lubbock County,TX,32.193396226415096,NA,NA
79424,Lubbock County,TX,NA,11.572700296735905,NA
79512,Mitchell County,TX,84.31603773584906,NA,NA
79556,Nolan County,TX,NA,NA,48.11083123425693
79567,Runnels County,TX,100,NA,NA
79605,Taylor County,TX,NA,NA,56.17128463476071
79706,Midland County,TX,NA,66.17210682492582,NA
79714,Andrews County,TX,NA,68.84272997032642,NA
79735,Pecos County,TX,NA,85.31157270029674,NA
79762,Ector County,TX,NA,42.433234421364986,NA
79772,Reeves County,TX,78.41981132075472,NA,NA
79915,El Paso County,TX,NA,NA,13.350125944584383
79930,El Paso County,TX,91.27358490566037,NA,NA
79938,El Paso County,TX,86.91037735849056,NA,NA
84009,Salt Lake County,UT,NA,60.682492581602375,NA
84010,Davis County,UT,71.69811320754717,59.940652818991104,NA
84032,Wasatch County,UT,NA,77.44807121661721,NA
84037,Davis County,UT,NA,64.39169139465875,NA
84047,Salt Lake County,UT,NA,47.47774480712167,NA
84070,Salt Lake County,UT,NA,NA,34.005037783375315
84075,Davis County,UT,NA,86.05341246290801,NA
84093,Salt Lake County,UT,NA,50.14836795252226,NA
84405,Weber County,UT,74.05660377358491,NA,NA
84790,Washington County,UT,45.990566037735846,NA,NA
05346,Windham County,VT,NA,NA,94.96221662468514
05403,Chittenden County,VT,63.32547169811321,NA,NA
05408,Chittenden County,VT,82.54716981132076,NA,NA
05446,Chittenden County,VT,NA,43.916913946587535,NA
05452,Chittenden County,VT,59.43396226415094,NA,NA
05701,Rutland County,VT,NA,41.69139465875371,NA
20124,Fairfax County,VA,91.62735849056604,86.49851632047478,NA
20147,Loudoun County,VA,NA,NA,12.846347607052897
20176,Loudoun County,VA,NA,NA,46.85138539042821
22032,Fairfax County,VA,86.79245283018868,NA,NA
22079,Fairfax County,VA,44.221698113207545,NA,NA
22151,Fairfax County,VA,NA,NA,91.68765743073047
22152,Fairfax County,VA,NA,88.57566765578635,NA
22193,Prince William County,VA,NA,21.068249258160236,NA
22304,Alexandria city,VA,46.22641509433962,NA,NA
22306,Fairfax County,VA,62.735849056603776,NA,NA
22310,Fairfax County,VA,NA,66.76557863501483,NA
22311,Alexandria city,VA,83.37264150943396,NA,NA
22560,Essex County,VA,64.38679245283019,NA,NA
22630,Warren County,VA,NA,NA,32.49370277078086
22801,Harrisonburg city,VA,44.10377358490566,NA,NA
22835,Page County,VA,60.37735849056604,NA,NA
22960,Orange County,VA,NA,92.87833827893175,NA
23072,Gloucester County,VA,74.76415094339622,NA,NA
23113,Chesterfield County,VA,NA,NA,43.8287153652393
23220,Richmond city,VA,NA,NA,80.35264483627203
23231,Henrico County,VA,NA,19.13946587537092,NA
23234,Chesterfield County,VA,NA,68.10089020771514,NA
23238,Henrico County,VA,NA,NA,36.02015113350126
23325,Chesapeake city,VA,NA,NA,40.80604534005038
23434,Suffolk city,VA,NA,11.869436201780417,NA
23464,Virginia Beach city,VA,48.93867924528302,NA,NA
23502,Norfolk city,VA,NA,81.89910979228486,NA
23518,Norfolk city,VA,NA,NA,49.87405541561713
23608,Newport News city,VA,NA,36.94362017804154,NA
23703,Portsmouth city,VA,NA,32.49258160237389,NA
23838,Chesterfield County,VA,NA,74.77744807121661,NA
24018,Roanoke County,VA,NA,95.10385756676558,9.06801007556675
24054,Henry County,VA,NA,NA,94.45843828715365
24065,Franklin County,VA,NA,NA,88.66498740554157
24073,Montgomery County,VA,NA,53.41246290801187,NA
24151,Franklin County,VA,NA,80.26706231454006,NA
24179,Roanoke County,VA,NA,NA,80.60453400503779
24333,Galax city,VA,NA,54.00593471810089,NA
24382,Wythe County,VA,NA,NA,69.52141057934509
24441,Rockingham County,VA,76.53301886792453,NA,NA
24522,Appomattox County,VA,81.72169811320755,NA,89.67254408060454
24540,Danville city,VA,30.542452830188676,NA,NA
98011,King County,WA,96.10849056603774,NA,NA
98030,King County,WA,28.183962264150942,NA,NA
98036,Snohomish County,WA,NA,41.09792284866469,31.234256926952142
98087,Snohomish County,WA,48.2311320754717,NA,NA
98103,King County,WA,48.46698113207547,NA,NA
98104,King County,WA,NA,39.61424332344214,NA
98105,King County,WA,NA,72.8486646884273,NA
98115,King County,WA,NA,27.002967359050444,NA
98208,Snohomish County,WA,24.056603773584907,29.22848664688427,NA
98221,Skagit County,WA,NA,21.958456973293767,NA
98272,Snohomish County,WA,NA,NA,87.90931989924434
98273,Skagit County,WA,NA,NA,32.99748110831234
98362,Clallam County,WA,36.43867924528302,NA,NA
98363,Clallam County,WA,NA,NA,33.75314861460957
98366,Kitsap County,WA,27.358490566037734,NA,NA
98373,Pierce County,WA,NA,NA,70.7808564231738
98374,Pierce County,WA,44.45754716981132,NA,NA
98375,Pierce County,WA,88.67924528301887,NA,NA
98382,Clallam County,WA,NA,NA,0.7556675062972292
98403,Pierce County,WA,NA,93.62017804154303,NA
98502,Thurston County,WA,62.382075471698116,NA,NA
98524,Mason County,WA,NA,NA,82.36775818639799
98532,Lewis County,WA,68.63207547169812,NA,NA
98584,Mason County,WA,NA,NA,63.476070528967256
98620,Klickitat County,WA,NA,67.65578635014838,NA
98629,Clark County,WA,97.87735849056604,NA,NA
98682,Clark County,WA,NA,NA,30.730478589420656
98683,Clark County,WA,84.66981132075472,NA,NA
98837,Grant County,WA,NA,33.531157270029674,NA
98901,Yakima County,WA,NA,NA,74.81108312342569
98902,Yakima County,WA,31.132075471698112,NA,NA
98926,Kittitas County,WA,80.07075471698113,NA,NA
99141,Stevens County,WA,89.26886792452831,NA,NA
99223,Spokane County,WA,NA,54.154302670623146,NA
99344,Adams County,WA,90.68396226415094,NA,NA
99350,Benton County,WA,NA,86.64688427299704,NA
20001,District of Columbia,DC,NA,17.804154302670625,NA
20019,District of Columbia,DC,NA,32.047477744807125,NA
20020,District of Columbia,DC,2.7122641509433962,NA,NA
20024,District of Columbia,DC,82.78301886792453,NA,NA
24870,Wyoming County,WV,95.04716981132076,NA,NA
24901,Greenbrier County,WV,NA,67.2106824925816,NA
25071,Kanawha County,WV,56.014150943396224,NA,NA
25405,Berkeley County,WV,76.53301886792453,NA,NA
25526,Putnam County,WV,NA,73.29376854599407,NA
25702,Cabell County,WV,NA,95.4005934718101,NA
25801,Raleigh County,WV,NA,11.275964391691394,NA
26062,Hancock County,WV,NA,78.63501483679525,10.579345088161208
26508,Monongalia County,WV,NA,NA,15.113350125944585
26537,Preston County,WV,NA,NA,79.34508816120906
26554,Marion County,WV,NA,1.7804154302670623,NA
53005,Waukesha County,WI,41.509433962264154,NA,NA
53012,Ozaukee County,WI,NA,NA,64.48362720403023
53024,Ozaukee County,WI,63.561320754716974,NA,NA
53092,Ozaukee County,WI,NA,41.98813056379822,NA
53095,Washington County,WI,53.891509433962256,NA,NA
53103,Waukesha County,WI,94.92924528301887,NA,NA
53104,Kenosha County,WI,77.00471698113208,NA,NA
53110,Milwaukee County,WI,NA,NA,27.455919395465994
53115,Walworth County,WI,77.83018867924528,NA,NA
53142,Kenosha County,WI,NA,NA,30.982367758186395
53143,Kenosha County,WI,NA,64.98516320474778,NA
53168,Kenosha County,WI,NA,NA,99.49622166246851
53172,Milwaukee County,WI,NA,41.54302670623146,NA
53184,Walworth County,WI,NA,98.51632047477746,NA
53185,Racine County,WI,59.198113207547166,NA,NA
53186,Waukesha County,WI,NA,37.0919881305638,28.211586901763226
53188,Waukesha County,WI,25.235849056603776,19.73293768545994,NA
53189,Waukesha County,WI,NA,32.93768545994065,NA
53202,Milwaukee County,WI,49.88207547169811,46.439169139465875,NA
53204,Milwaukee County,WI,NA,NA,64.48362720403023
53209,Milwaukee County,WI,NA,2.0771513353115725,56.92695214105793
53222,Milwaukee County,WI,NA,93.026706231454,NA
53227,Milwaukee County,WI,37.735849056603776,NA,NA
53511,Rock County,WI,NA,NA,8.564231738035264
53538,Jefferson County,WI,52.594339622641506,NA,NA
53545,Rock County,WI,NA,21.364985163204746,NA
53546,Rock County,WI,NA,NA,29.974811083123427
53549,Jefferson County,WI,72.87735849056604,NA,NA
53590,Dane County,WI,NA,42.13649851632047,NA
53705,Dane County,WI,NA,NA,12.34256926952141
53717,Dane County,WI,NA,59.940652818991104,NA
53818,Grant County,WI,NA,NA,91.183879093199
53821,Crawford County,WI,93.04245283018868,NA,NA
54009,Polk County,WI,98.34905660377359,NA,NA
54024,Polk County,WI,NA,89.16913946587538,NA
54107,Shawano County,WI,99.64622641509435,NA,NA
54110,Calumet County,WI,91.98113207547169,NA,NA
54143,Marinette County,WI,NA,83.08605341246292,36.272040302267
54220,Manitowoc County,WI,NA,NA,10.075566750629724
54401,Marathon County,WI,NA,33.82789317507419,NA
54403,Marathon County,WI,NA,32.789317507418396,NA
54452,Lincoln County,WI,NA,NA,85.64231738035264
54467,Portage County,WI,NA,NA,52.39294710327456
54475,Wood County,WI,NA,99.70326409495549,NA
54534,Iron County,WI,NA,95.99406528189911,NA
54603,La Crosse County,WI,NA,NA,13.602015113350127
54703,Eau Claire County,WI,NA,33.67952522255193,NA
54729,Chippewa County,WI,35.37735849056604,NA,NA
54751,Dunn County,WI,36.32075471698113,NA,NA
54829,Barron County,WI,NA,83.38278931750742,NA
54837,Polk County,WI,91.74528301886792,89.76261127596439,NA
54868,Barron County,WI,65.91981132075472,NA,NA
54880,Douglas County,WI,NA,25.816023738872403,29.219143576826195
54893,Burnett County,WI,NA,NA,83.37531486146096
54944,Outagamie County,WI,91.39150943396226,NA,NA
54952,Winnebago County,WI,77.35849056603774,NA,NA
82001,Laramie County,WY,NA,NA,41.30982367758186
