ZipCode,county,state,Adult,Retirement
35077,Cullman County,AL,56.315789473684205,NA
35555,Fayette County,AL,58.684210526315795,NA
35640,Morgan County,AL,NA,35.57046979865772
35959,Cherokee County,AL,92.10526315789474,NA
36083,Macon County,AL,NA,81.87919463087249
36108,Montgomery County,AL,44.73684210526316,NA
36201,Calhoun County,AL,31.31578947368421,NA
36542,Baldwin County,AL,72.89473684210527,NA
85122,Pinal County,AZ,NA,44.63087248322148
85363,Maricopa County,AZ,NA,87.58389261744966
85631,Pinal County,AZ,95.78947368421052,NA
85747,Pima County,AZ,64.47368421052632,NA
86351,Yavapai County,AZ,91.05263157894737,NA
86401,Mohave County,AZ,12.631578947368421,NA
86409,Mohave County,AZ,NA,4.026845637583892
71753,Columbia County,AR,NA,84.56375838926175
72118,Pulaski County,AR,NA,57.71812080536913
72143,White County,AR,NA,40.26845637583892
72206,Pulaski County,AR,NA,28.523489932885905
72653,Baxter County,AR,NA,21.140939597315437
90008,Los Angeles County,CA,68.15789473684211,NA
90024,Los Angeles County,CA,NA,78.18791946308725
90042,Los Angeles County,CA,51.84210526315789,NA
90062,Los Angeles County,CA,NA,56.375838926174495
90302,Los Angeles County,CA,94.21052631578948,NA
90806,Los Angeles County,CA,54.21052631578947,NA
91710,San Bernardino County,CA,NA,52.013422818791945
91740,Los Angeles County,CA,58.15789473684211,NA
91768,Los Angeles County,CA,78.94736842105263,NA
91792,Los Angeles County,CA,NA,77.18120805369128
91932,San Diego County,CA,71.05263157894737,NA
92008,San Diego County,CA,NA,59.395973154362416
92307,San Bernardino County,CA,32.631578947368425,NA
92337,San Bernardino County,CA,NA,69.79865771812081
92618,Orange County,CA,56.84210526315789,NA
92804,Orange County,CA,NA,20.469798657718123
93230,Kings County,CA,NA,15.771812080536913
93263,Kern County,CA,NA,85.23489932885906
93551,Los Angeles County,CA,NA,53.355704697986575
93657,Fresno County,CA,88.94736842105263,NA
94121,San Francisco County,CA,65.26315789473685,NA
94558,Napa County,CA,72.63157894736842,NA
94597,Contra Costa County,CA,65.78947368421053,NA
95037,Santa Clara County,CA,NA,33.22147651006711
95127,Santa Clara County,CA,NA,43.95973154362416
95210,San Joaquin County,CA,41.31578947368421,NA
95215,San Joaquin County,CA,88.68421052631578,NA
95356,Stanislaus County,CA,43.684210526315795,NA
95386,Stanislaus County,CA,76.31578947368422,NA
95437,Mendocino County,CA,NA,40.939597315436245
95448,Sonoma County,CA,85,NA
95490,Mendocino County,CA,NA,76.1744966442953
95540,Humboldt County,CA,NA,92.28187919463086
95616,Yolo County,CA,86.57894736842105,NA
95670,Sacramento County,CA,NA,31.879194630872483
96097,Siskiyou County,CA,93.94736842105263,NA
96150,El Dorado County,CA,83.42105263157895,NA
80003,Jefferson County,CO,68.94736842105263,NA
80021,Jefferson County,CO,56.05263157894736,NA
80204,Denver County,CO,NA,60.06711409395973
80205,Denver County,CO,NA,64.42953020134227
80303,Boulder County,CO,96.05263157894737,NA
80525,Larimer County,CO,NA,10.738255033557047
80534,Weld County,CO,63.421052631578945,NA
80634,Weld County,CO,2.631578947368421,NA
80911,El Paso County,CO,44.21052631578947,NA
80922,El Paso County,CO,NA,70.80536912751678
81007,Pueblo County,CO,47.368421052631575,NA
81301,La Plata County,CO,53.421052631578945,NA
81501,Mesa County,CO,NA,56.04026845637584
06040,Hartford County,CT,13.157894736842104,NA
06053,Hartford County,CT,NA,73.15436241610739
06062,Hartford County,CT,55.00000000000001,NA
06108,Hartford County,CT,34.473684210526315,NA
06114,Hartford County,CT,49.21052631578947,NA
06770,New Haven County,CT,28.157894736842103,NA
06905,Fairfield County,CT,71.84210526315789,NA
19805,New Castle County,DE,NA,57.38255033557047
19904,Kent County,DE,NA,16.10738255033557
19946,Kent County,DE,92.89473684210526,NA
19962,Kent County,DE,86.05263157894737,NA
19977,Kent County,DE,53.94736842105263,NA
32008,Suwannee County,FL,82.36842105263158,NA
32068,Clay County,FL,16.05263157894737,NA
32211,Duval County,FL,24.736842105263158,NA
32223,Duval County,FL,NA,33.89261744966443
32244,Duval County,FL,NA,11.74496644295302
32433,Walton County,FL,NA,39.59731543624161
32526,Escambia County,FL,NA,8.389261744966444
32563,Santa Rosa County,FL,NA,23.154362416107382
32608,Alachua County,FL,9.473684210526317,NA
32754,Brevard County,FL,69.21052631578948,NA
32808,Orange County,FL,18.947368421052634,NA
32909,Brevard County,FL,42.10526315789473,NA
32935,Brevard County,FL,22.894736842105264,NA
33021,Broward County,FL,NA,23.48993288590604
33025,Broward County,FL,NA,50
33167,Miami-Dade County,FL,57.10526315789474,NA
33180,Miami-Dade County,FL,73.68421052631578,NA
33579,Hillsborough County,FL,NA,72.81879194630872
33596,Hillsborough County,FL,NA,56.711409395973156
33909,Lee County,FL,NA,70.13422818791946
34203,Manatee County,FL,NA,54.0268456375839
34609,Hernando County,FL,36.31578947368421,NA
34652,Pasco County,FL,43.94736842105263,NA
34655,Pasco County,FL,NA,58.38926174496645
34711,Lake County,FL,26.31578947368421,NA
34769,Osceola County,FL,48.1578947368421,NA
34974,Okeechobee County,FL,52.63157894736842,NA
30024,Gwinnett County,GA,24.47368421052632,NA
30033,DeKalb County,GA,NA,87.91946308724832
30052,Walton County,GA,NA,36.577181208053695
30141,Paulding County,GA,NA,65.1006711409396
30204,Lamar County,GA,NA,81.20805369127517
30240,Troup County,GA,30.789473684210527,NA
30329,DeKalb County,GA,80,NA
30415,Bulloch County,GA,97.89473684210527,NA
30534,Dawson County,GA,NA,34.22818791946309
30543,Hall County,GA,97.10526315789474,NA
30548,Jackson County,GA,77.36842105263158,NA
30904,Richmond County,GA,38.68421052631579,NA
31714,Turner County,GA,69.47368421052632,NA
96744,Honolulu County,HI,23.94736842105263,NA
96766,Kauai County,HI,63.68421052631579,NA
96792,Honolulu County,HI,16.315789473684212,NA
96826,Honolulu County,HI,NA,76.84563758389261
83815,Kootenai County,ID,39.473684210526315,NA
83854,Kootenai County,ID,36.578947368421055,NA
60005,Cook County,IL,NA,37.24832214765101
60025,Cook County,IL,NA,27.85234899328859
60041,Lake County,IL,73.42105263157895,NA
60044,Lake County,IL,76.84210526315789,NA
60045,Lake County,IL,74.21052631578947,NA
60068,Cook County,IL,NA,35.23489932885906
60077,Cook County,IL,55.52631578947368,NA
60123,Kane County,IL,25,NA
60164,Cook County,IL,42.63157894736842,NA
60438,Cook County,IL,85.78947368421052,NA
60467,Cook County,IL,NA,24.832214765100673
60517,DuPage County,IL,NA,84.8993288590604
60538,Kendall County,IL,NA,74.16107382550335
60609,Cook County,IL,14.210526315789473,NA
60612,Cook County,IL,50,NA
60613,Cook County,IL,83.15789473684211,NA
60615,Cook County,IL,76.57894736842105,NA
60625,Cook County,IL,14.473684210526317,NA
60644,Cook County,IL,10,NA
60659,Cook County,IL,NA,25.503355704697988
60804,Cook County,IL,NA,14.093959731543624
60954,Kankakee County,IL,70.52631578947368,NA
60964,Kankakee County,IL,NA,79.86577181208054
61008,Boone County,IL,38.421052631578945,NA
61025,Jo Daviess County,IL,NA,95.9731543624161
61073,Winnebago County,IL,59.210526315789465,NA
61080,Winnebago County,IL,77.63157894736842,NA
61944,Edgar County,IL,NA,53.02013422818792
62712,Sangamon County,IL,NA,92.61744966442953
62863,Wabash County,IL,66.57894736842105,NA
62930,Saline County,IL,NA,88.25503355704699
62959,Williamson County,IL,NA,18.456375838926174
46012,Madison County,IN,NA,68.45637583892618
46151,Morgan County,IN,29.736842105263158,NA
46201,Marion County,IN,20.789473684210527,NA
46226,Marion County,IN,NA,15.100671140939598
46227,Marion County,IN,NA,50.671140939597315
46307,Lake County,IN,NA,2.348993288590604
46310,Jasper County,IN,51.05263157894737,NA
46350,LaPorte County,IN,NA,7.38255033557047
46385,Porter County,IN,8.68421052631579,NA
46516,Elkhart County,IN,19.736842105263158,NA
46538,Kosciusko County,IN,NA,99.32885906040269
46721,DeKalb County,IN,87.10526315789474,NA
46805,Allen County,IN,37.368421052631575,NA
46952,Grant County,IN,20.789473684210527,NA
47167,Washington County,IN,NA,45.97315436241611
47330,Wayne County,IN,NA,82.88590604026845
47424,Greene County,IN,NA,97.98657718120806
47802,Vigo County,IN,27.368421052631582,NA
47932,Fountain County,IN,NA,66.77852348993288
47933,Montgomery County,IN,36.05263157894737,NA
50036,Boone County,IA,NA,76.51006711409396
50138,Marion County,IA,50.78947368421053,NA
50613,Black Hawk County,IA,49.73684210526316,NA
51104,Woodbury County,IA,NA,48.99328859060403
52402,Linn County,IA,63.1578947368421,NA
52405,Linn County,IA,NA,83.22147651006712
52742,Clinton County,IA,81.05263157894737,NA
52761,Muscatine County,IA,NA,12.751677852348994
66032,Anderson County,KS,NA,78.52348993288591
66062,Johnson County,KS,13.684210526315791,NA
66101,Wyandotte County,KS,79.21052631578948,NA
66502,Riley County,KS,67.63157894736842,NA
67010,Butler County,KS,NA,82.21476510067114
67601,Ellis County,KS,NA,50.33557046979866
67880,Grant County,KS,99.21052631578947,NA
40004,Nelson County,KY,NA,25.838926174496645
40031,Oldham County,KY,NA,49.664429530201346
40207,Jefferson County,KY,NA,33.557046979865774
40215,Jefferson County,KY,21.842105263157897,NA
40313,Rowan County,KY,NA,98.65771812080537
40391,Clark County,KY,10.526315789473683,NA
40701,Whitley County,KY,40.526315789473685,NA
41230,Lawrence County,KY,30.526315789473685,NA
42001,McCracken County,KY,34.21052631578947,NA
42171,Warren County,KY,74.73684210526315,NA
42301,Daviess County,KY,NA,9.731543624161073
42717,Cumberland County,KY,75.52631578947368,NA
42726,Grayson County,KY,84.21052631578947,NA
70131,Orleans Parish,LA,NA,92.9530201342282
70427,Washington Parish,LA,18.157894736842106,NA
70518,Lafayette Parish,LA,95,NA
70615,Calcasieu Parish,LA,NA,63.758389261744966
70769,Ascension Parish,LA,12.894736842105264,NA
71292,Ouachita Parish,LA,NA,53.691275167785236
71322,Avoyelles Parish,LA,NA,90.60402684563759
03909,York County,ME,52.368421052631575,NA
04009,Cumberland County,ME,NA,47.31543624161073
04011,Cumberland County,ME,NA,24.496644295302016
04032,Cumberland County,ME,90.52631578947368,NA
04240,Androscoggin County,ME,1.8421052631578945,NA
04730,Aroostook County,ME,75.78947368421053,NA
20616,Charles County,MD,97.63157894736842,NA
20901,Montgomery County,MD,70.26315789473684,NA
20910,Montgomery County,MD,NA,73.8255033557047
21157,Carroll County,MD,72.10526315789474,NA
21236,Baltimore County,MD,NA,39.261744966442954
21601,Talbot County,MD,62.89473684210526,NA
21702,Frederick County,MD,62.63157894736842,NA
21853,Somerset County,MD,NA,96.97986577181209
01056,Hampden County,MA,NA,35.90604026845637
01057,Hampden County,MA,35.526315789473685,NA
01432,Middlesex County,MA,NA,67.4496644295302
01452,Worcester County,MA,98.94736842105263,NA
01504,Worcester County,MA,NA,75.83892617449665
01520,Worcester County,MA,67.36842105263158,NA
01521,Hampden County,MA,98.42105263157895,NA
01562,Worcester County,MA,NA,38.25503355704698
01566,Worcester County,MA,55.78947368421052,NA
01604,Worcester County,MA,0.2631578947368421,NA
01821,Middlesex County,MA,NA,2.013422818791946
01830,Essex County,MA,1.5789473684210527,NA
01902,Essex County,MA,3.1578947368421053,NA
01944,Essex County,MA,NA,78.85906040268456
01945,Essex County,MA,43.42105263157895,NA
01985,Essex County,MA,88.1578947368421,NA
02026,Norfolk County,MA,NA,81.54362416107382
02054,Norfolk County,MA,NA,99.66442953020133
02062,Norfolk County,MA,NA,42.61744966442953
02131,Suffolk County,MA,14.736842105263156,NA
02138,Middlesex County,MA,NA,49.328859060402685
02149,Middlesex County,MA,NA,0.6711409395973155
02186,Norfolk County,MA,NA,58.7248322147651
02302,Plymouth County,MA,0.7894736842105263,NA
02476,Middlesex County,MA,NA,24.161073825503358
02540,Barnstable County,MA,NA,36.241610738255034
02568,Dukes County,MA,65,NA
02703,Bristol County,MA,NA,1.006711409395973
02724,Bristol County,MA,4.473684210526316,NA
48117,Monroe County,MI,51.578947368421055,NA
48125,Wayne County,MI,75,NA
48152,Wayne County,MI,NA,5.704697986577181
48176,Washtenaw County,MI,43.15789473684211,NA
48182,Monroe County,MI,NA,41.2751677852349
48183,Wayne County,MI,NA,6.375838926174497
48201,Wayne County,MI,NA,54.69798657718121
48205,Wayne County,MI,57.36842105263158,NA
48219,Wayne County,MI,27.89473684210526,NA
48221,Wayne County,MI,29.210526315789476,NA
48235,Wayne County,MI,2.1052631578947367,NA
48239,Wayne County,MI,NA,9.060402684563758
48322,Oakland County,MI,45,NA
48327,Oakland County,MI,NA,40.604026845637584
48329,Oakland County,MI,37.10526315789473,NA
48444,Lapeer County,MI,74.47368421052632,NA
48651,Roscommon County,MI,NA,87.24832214765101
48661,Ogemaw County,MI,52.89473684210526,NA
48855,Livingston County,MI,66.3157894736842,NA
49002,Kalamazoo County,MI,NA,29.86577181208054
49014,Calhoun County,MI,21.578947368421055,NA
49024,Kalamazoo County,MI,NA,79.53020134228188
49103,Berrien County,MI,NA,96.30872483221476
49269,Jackson County,MI,84.47368421052632,NA
49332,Mecosta County,MI,92.36842105263158,NA
49423,Ottawa County,MI,42.368421052631575,NA
49507,Kent County,MI,6.578947368421052,NA
49635,Benzie County,MI,NA,83.55704697986577
55014,Anoka County,MN,57.89473684210527,NA
55044,Dakota County,MN,72.36842105263158,NA
55051,Kanabec County,MN,77.89473684210526,NA
55055,Washington County,MN,NA,100
55122,Dakota County,MN,59.473684210526315,NA
55343,Hennepin County,MN,45.526315789473685,NA
55356,Hennepin County,MN,96.3157894736842,NA
55404,Hennepin County,MN,1.0526315789473684,NA
55811,St. Louis County,MN,NA,29.53020134228188
55904,Olmsted County,MN,75.26315789473685,NA
56401,Crow Wing County,MN,12.368421052631579,NA
56601,Beltrami County,MN,31.57894736842105,NA
56636,Itasca County,MN,94.73684210526315,NA
38701,Washington County,MS,78.15789473684211,NA
38834,Alcorn County,MS,23.157894736842106,NA
38851,Chickasaw County,MS,NA,89.26174496644296
38868,Lee County,MS,99.47368421052632,NA
39301,Lauderdale County,MS,NA,72.48322147651007
39350,Neshoba County,MS,NA,29.194630872483224
63028,Jefferson County,MO,28.421052631578945,NA
63042,St. Louis County,MO,NA,36.91275167785235
63074,St. Louis County,MO,NA,48.65771812080537
63114,St. Louis County,MO,NA,88.9261744966443
63125,St. Louis County,MO,NA,27.516778523489933
63366,St. Charles County,MO,NA,4.3624161073825505
63401,Marion County,MO,NA,46.644295302013425
63501,Adair County,MO,NA,60.738255033557046
63775,Perry County,MO,NA,64.76510067114094
64030,Jackson County,MO,20.263157894736842,NA
64053,Jackson County,MO,NA,91.2751677852349
64064,Jackson County,MO,73.15789473684211,NA
64118,Clay County,MO,6.842105263157896,NA
64429,Clinton County,MO,NA,48.322147651006716
64503,Buchanan County,MO,30.263157894736842,NA
64628,Linn County,MO,79.47368421052632,NA
65803,Greene County,MO,NA,12.416107382550337
59270,Richland County,MT,81.84210526315789,NA
59330,Dawson County,MT,NA,74.83221476510067
59401,Cascade County,MT,NA,63.08724832214765
59601,Lewis and Clark County,MT,67.10526315789474,NA
59718,Gallatin County,MT,39.21052631578947,NA
59725,Beaverhead County,MT,NA,86.57718120805369
59802,Missoula County,MT,NA,80.20134228187919
68123,Sarpy County,NE,NA,70.80536912751678
68503,Lancaster County,NE,66.84210526315789,NA
69130,Dawson County,NE,NA,97.31543624161074
03064,Hillsborough County,NH,33.94736842105263,NA
03076,Hillsborough County,NH,46.578947368421055,NA
03104,Hillsborough County,NH,17.63157894736842,NA
03275,Merrimack County,NH,86.31578947368422,NA
07017,Essex County,NJ,79.73684210526316,NA
07018,Essex County,NJ,7.631578947368421,NA
07047,Hudson County,NJ,NA,1.342281879194631
07109,Essex County,NJ,46.05263157894737,NA
07601,Bergen County,NJ,NA,6.0402684563758395
07670,Bergen County,NJ,NA,98.99328859060402
07747,Monmouth County,NJ,36.84210526315789,NA
07920,Somerset County,NJ,89.73684210526316,NA
08034,Camden County,NJ,NA,70.46979865771812
08812,Middlesex County,NJ,NA,84.22818791946308
08820,Middlesex County,NJ,NA,23.825503355704697
08822,Hunterdon County,NJ,NA,64.09395973154362
08869,Somerset County,NJ,NA,93.95973154362416
87108,Bernalillo County,NM,NA,28.859060402684566
88005,Doa Ana County,NM,NA,37.919463087248324
88130,Roosevelt County,NM,NA,38.59060402684564
88242,Lea County,NM,69.73684210526315,NA
10014,New York County,NY,NA,77.85234899328859
10027,New York County,NY,NA,94.29530201342283
10037,New York County,NY,41.05263157894737,NA
10303,Richmond County,NY,NA,44.966442953020135
10452,Bronx County,NY,NA,22.483221476510067
10458,Bronx County,NY,5.7894736842105265,0.33557046979865773
10804,Westchester County,NY,85.26315789473684,NA
10940,Orange County,NY,19.210526315789473,NA
11208,Kings County,NY,0.5263157894736842,NA
11209,Kings County,NY,94.47368421052632,NA
11236,Kings County,NY,52.10526315789473,NA
11249,Kings County,NY,59.73684210526316,NA
11429,Queens County,NY,93.15789473684211,NA
11561,Nassau County,NY,NA,62.751677852349
11570,Nassau County,NY,NA,55.369127516778526
12053,Schenectady County,NY,96.84210526315789,NA
12302,Schenectady County,NY,44.473684210526315,NA
12308,Schenectady County,NY,40.78947368421053,NA
12771,Orange County,NY,NA,71.47651006711409
12804,Warren County,NY,10.263157894736842,NA
12887,Washington County,NY,NA,93.6241610738255
12901,Clinton County,NY,20,NA
13159,Onondaga County,NY,80.78947368421052,NA
13365,Herkimer County,NY,60.526315789473685,NA
13431,Herkimer County,NY,96.57894736842105,NA
13662,St. Lawrence County,NY,9.736842105263158,NA
13669,St. Lawrence County,NY,26.052631578947366,NA
13732,Tioga County,NY,47.368421052631575,NA
13734,Tioga County,NY,87.89473684210526,NA
13760,Broome County,NY,8.947368421052632,NA
13790,Broome County,NY,11.578947368421053,8.053691275167784
13815,Chenango County,NY,17.894736842105264,NA
13850,Broome County,NY,18.684210526315788,NA
14150,Erie County,NY,7.368421052631578,30.201342281879196
14172,Niagara County,NY,NA,95.30201342281879
14216,Erie County,NY,32.36842105263158,37.58389261744966
14450,Monroe County,NY,NA,1.6778523489932886
14514,Monroe County,NY,61.05263157894737,NA
14519,Wayne County,NY,26.57894736842105,NA
14559,Monroe County,NY,NA,68.79194630872483
14605,Monroe County,NY,11.052631578947368,NA
14624,Monroe County,NY,2.368421052631579,NA
14701,Chautauqua County,NY,NA,2.684563758389262
27023,Forsyth County,NC,62.36842105263158,NA
27101,Forsyth County,NC,NA,86.24161073825503
27104,Forsyth County,NC,NA,31.543624161073826
27278,Orange County,NC,NA,45.302013422818796
27295,Davidson County,NC,4.736842105263158,NA
27409,Guilford County,NC,78.42105263157895,NA
27529,Wake County,NC,28.68421052631579,NA
27539,Wake County,NC,NA,60.40268456375839
27703,Durham County,NC,13.94736842105263,NA
27704,Durham County,NC,15,NA
27834,Pitt County,NC,33.68421052631579,NA
27910,Hertford County,NC,64.73684210526316,NA
28027,Cabarrus County,NC,21.31578947368421,NA
28043,Rutherford County,NC,77.10526315789473,NA
28054,Gaston County,NC,22.36842105263158,NA
28090,Cleveland County,NC,NA,90.26845637583892
28273,Mecklenburg County,NC,NA,66.44295302013423
28384,Bladen County,NC,NA,89.93288590604027
28422,Brunswick County,NC,NA,66.10738255033557
28594,Carteret County,NC,100,NA
28602,Catawba County,NC,25.263157894736842,38.92617449664429
28625,Iredell County,NC,19.473684210526315,NA
28645,Caldwell County,NC,23.684210526315788,NA
28655,Burke County,NC,7.105263157894736,NA
28739,Henderson County,NC,NA,13.422818791946309
28782,Polk County,NC,NA,93.28859060402685
43016,Franklin County,OH,95.52631578947368,NA
43040,Union County,OH,30,NA
43050,Knox County,OH,35,NA
43081,Franklin County,OH,NA,10.06711409395973
43123,Franklin County,OH,35.26315789473684,NA
43140,Madison County,OH,NA,31.879194630872483
43213,Franklin County,OH,12.105263157894736,NA
43222,Franklin County,OH,53.68421052631579,NA
43229,Franklin County,OH,7.894736842105263,NA
43232,Franklin County,OH,5.263157894736842,NA
43351,Wyandot County,OH,NA,85.90604026845638
43357,Logan County,OH,NA,95.63758389261746
43452,Ottawa County,OH,NA,32.5503355704698
43512,Defiance County,OH,5.526315789473684,4.697986577181208
43560,Lucas County,OH,NA,45.63758389261745
43607,Lucas County,OH,47.10526315789474,NA
43611,Lucas County,OH,45.78947368421053,NA
43616,Lucas County,OH,NA,11.073825503355705
43725,Guernsey County,OH,85.52631578947368,NA
43920,Columbiana County,OH,11.31578947368421,NA
43964,Jefferson County,OH,29.47368421052631,30.536912751677853
44035,Lorain County,OH,0,0
44070,Cuyahoga County,OH,27.105263157894736,NA
44077,Lake County,OH,3.9473684210526314,NA
44089,Erie County,OH,40.26315789473684,NA
44107,Cuyahoga County,OH,16.57894736842105,NA
44108,Cuyahoga County,OH,38.15789473684211,NA
44111,Cuyahoga County,OH,1.3157894736842104,NA
44118,Cuyahoga County,OH,15,NA
44122,Cuyahoga County,OH,NA,26.51006711409396
44128,Cuyahoga County,OH,2.8947368421052633,NA
44130,Cuyahoga County,OH,6.052631578947368,NA
44136,Cuyahoga County,OH,32.10526315789474,NA
44202,Portage County,OH,NA,19.463087248322147
44212,Medina County,OH,3.421052631578948,NA
44256,Medina County,OH,5,NA
44260,Portage County,OH,NA,55.033557046979865
44266,Portage County,OH,NA,7.046979865771812
44515,Mahoning County,OH,NA,12.080536912751679
44691,Wayne County,OH,9.210526315789473,NA
44706,Stark County,OH,NA,41.946308724832214
44805,Ashland County,OH,16.842105263157894,NA
44820,Crawford County,OH,NA,11.409395973154362
44870,Erie County,OH,NA,3.3557046979865772
45013,Butler County,OH,3.684210526315789,NA
45042,Butler County,OH,NA,34.899328859060404
45044,Butler County,OH,NA,13.087248322147651
45103,Clermont County,OH,31.05263157894737,NA
45177,Clinton County,OH,27.631578947368425,NA
45305,Greene County,OH,NA,91.61073825503355
45309,Montgomery County,OH,NA,96.64429530201343
45371,Miami County,OH,NA,21.476510067114095
45402,Montgomery County,OH,NA,75.16778523489933
45417,Montgomery County,OH,10.526315789473683,NA
45439,Montgomery County,OH,NA,69.12751677852349
45661,Pike County,OH,NA,43.288590604026844
45662,Scioto County,OH,NA,19.12751677852349
45669,Lawrence County,OH,20.526315789473685,NA
45714,Washington County,OH,NA,16.778523489932887
45801,Allen County,OH,41.578947368421055,NA
45805,Allen County,OH,17.105263157894736,NA
45833,Allen County,OH,NA,61.40939597315436
73018,Grady County,OK,NA,30.87248322147651
73045,Oklahoma County,OK,73.94736842105263,NA
73069,Cleveland County,OK,NA,91.94630872483222
73071,Cleveland County,OK,54.473684210526315,NA
73505,Comanche County,OK,26.842105263157894,NA
74137,Tulsa County,OK,70.52631578947368,NA
74743,Choctaw County,OK,NA,80.87248322147651
74820,Pontotoc County,OK,NA,5.033557046979865
97006,Washington County,OR,34.473684210526315,NA
97015,Clackamas County,OR,NA,65.43624161073825
97034,Clackamas County,OR,93.42105263157895,NA
97055,Clackamas County,OR,60,NA
97116,Washington County,OR,49.473684210526315,NA
97210,Multnomah County,OR,68.42105263157895,NA
97222,Clackamas County,OR,71.57894736842105,NA
97754,Crook County,OR,NA,22.14765100671141
15012,Westmoreland County,PA,NA,46.97986577181208
15068,Westmoreland County,PA,NA,9.395973154362416
15208,Allegheny County,PA,51.05263157894737,NA
15210,Allegheny County,PA,46.31578947368421,NA
15417,Fayette County,PA,82.10526315789474,NA
15701,Indiana County,PA,NA,47.98657718120805
15717,Indiana County,PA,NA,42.281879194630875
15853,Elk County,PA,NA,54.36241610738255
15857,Elk County,PA,NA,8.724832214765101
16137,Mercer County,PA,NA,31.20805369127517
16226,Armstrong County,PA,82.63157894736842,NA
16316,Crawford County,PA,76.05263157894737,NA
16335,Crawford County,PA,13.421052631578947,NA
16407,Erie County,PA,NA,62.08053691275168
16509,Erie County,PA,NA,32.88590604026846
16601,Blair County,PA,11.842105263157894,NA
16801,Centre County,PA,NA,27.181208053691275
17044,Mifflin County,PA,NA,7.38255033557047
17057,Dauphin County,PA,NA,65.77181208053692
17110,Dauphin County,PA,18.421052631578945,NA
17325,Adams County,PA,NA,5.369127516778524
17331,York County,PA,8.421052631578947,NA
17349,York County,PA,86.8421052631579,NA
17372,Adams County,PA,89.47368421052632,NA
17404,York County,PA,41.8421052631579,NA
17701,Lycoming County,PA,NA,80.53691275167785
18031,Lehigh County,PA,NA,69.46308724832215
18049,Lehigh County,PA,NA,39.93288590604027
18302,Monroe County,PA,50.526315789473685,NA
18657,Wyoming County,PA,57.631578947368425,55.70469798657718
18960,Bucks County,PA,82.89473684210526,NA
18974,Bucks County,PA,25.789473684210527,NA
19006,Montgomery County,PA,71.3157894736842,NA
19013,Delaware County,PA,4.2105263157894735,NA
19064,Delaware County,PA,NA,44.29530201342282
19067,Bucks County,PA,NA,73.48993288590604
19074,Delaware County,PA,81.3157894736842,NA
19085,Delaware County,PA,92.63157894736842,NA
19102,Philadelphia County,PA,88.42105263157895,NA
19120,Philadelphia County,PA,NA,6.7114093959731544
19124,Philadelphia County,PA,NA,10.40268456375839
19133,Philadelphia County,PA,68.42105263157895,NA
19143,Philadelphia County,PA,NA,13.758389261744966
19317,Delaware County,PA,NA,61.74496644295302
19344,Chester County,PA,NA,90.93959731543623
19464,Montgomery County,PA,28.947368421052634,NA
19607,Berks County,PA,NA,20.13422818791946
19609,Berks County,PA,90.26315789473685,NA
19610,Berks County,PA,58.94736842105262,NA
02861,Providence County,RI,35.78947368421053,NA
02864,Providence County,RI,NA,16.44295302013423
02889,Kent County,RI,NA,67.11409395973155
02909,Providence County,RI,NA,34.56375838926174
02915,Providence County,RI,NA,52.348993288590606
29078,Kershaw County,SC,87.63157894736841,NA
29102,Clarendon County,SC,NA,51.67785234899329
29420,Dorchester County,SC,NA,74.49664429530202
29440,Georgetown County,SC,47.89473684210526,NA
29569,Horry County,SC,48.421052631578945,NA
29571,Marion County,SC,61.578947368421055,NA
29576,Horry County,SC,45.26315789473684,NA
29607,Greenville County,SC,70,NA
29621,Anderson County,SC,40,NA
29651,Greenville County,SC,24.210526315789473,NA
57702,Pennington County,SD,NA,17.449664429530202
37122,Wilson County,TN,33.1578947368421,NA
37179,Williamson County,TN,NA,83.89261744966443
37206,Davidson County,TN,37.89473684210527,NA
37334,Lincoln County,TN,39.73684210526316,NA
37711,Hawkins County,TN,91.84210526315789,NA
37840,Roane County,TN,NA,51.006711409395976
37920,Knox County,TN,NA,47.651006711409394
38111,Shelby County,TN,25.526315789473685,NA
38301,Madison County,TN,NA,17.114093959731544
38343,Gibson County,TN,NA,75.16778523489933
38474,Maury County,TN,NA,85.57046979865773
38583,White County,TN,NA,26.174496644295303
75043,Dallas County,TX,23.42105263157895,NA
75056,Denton County,TX,91.57894736842105,NA
75212,Dallas County,TX,46.8421052631579,NA
75227,Dallas County,TX,62.10526315789474,NA
75494,Wood County,TX,90.78947368421053,NA
75701,Smith County,TX,38.94736842105263,NA
75703,Smith County,TX,58.42105263157895,NA
75757,Smith County,TX,NA,41.61073825503356
76049,Hood County,TX,NA,52.68456375838926
76087,Parker County,TX,NA,88.59060402684564
76102,Tarrant County,TX,66.05263157894737,NA
76109,Tarrant County,TX,98.15789473684211,NA
76112,Tarrant County,TX,NA,63.42281879194631
76114,Tarrant County,TX,NA,51.34228187919463
76120,Tarrant County,TX,NA,77.51677852348993
76140,Tarrant County,TX,NA,42.95302013422819
76234,Wise County,TX,63.94736842105263,NA
76266,Denton County,TX,80.52631578947368,NA
76309,Wichita County,TX,NA,71.81208053691275
76310,Wichita County,TX,NA,72.14765100671141
77042,Harris County,TX,83.94736842105263,NA
77069,Harris County,TX,NA,43.624161073825505
77373,Harris County,TX,33.421052631578945,NA
77414,Matagorda County,TX,67.89473684210526,NA
77429,Harris County,TX,15.526315789473685,NA
77478,Fort Bend County,TX,NA,94.63087248322147
77545,Fort Bend County,TX,61.31578947368421,NA
77568,Galveston County,TX,60.26315789473684,NA
77657,Hardin County,TX,54.736842105263165,NA
77979,Calhoun County,TX,NA,59.395973154362416
78076,Zapata County,TX,81.57894736842105,NA
78539,Hidalgo County,TX,55.26315789473685,NA
78945,Fayette County,TX,87.36842105263159,NA
79364,Lubbock County,TX,83.6842105263158,NA
79720,Howard County,TX,50.26315789473684,NA
79762,Ector County,TX,32.89473684210527,NA
79936,El Paso County,TX,NA,18.79194630872483
84096,Salt Lake County,UT,NA,57.04697986577181
84107,Salt Lake County,UT,65.52631578947368,NA
84120,Salt Lake County,UT,NA,20.80536912751678
84647,Sanpete County,UT,99.73684210526315,NA
84737,Washington County,UT,89.21052631578948,NA
05143,Windsor County,VT,NA,86.91275167785236
05672,Lamoille County,VT,98.68421052631578,NA
22193,Prince William County,VA,17.36842105263158,NA
22903,Charlottesville city,VA,NA,19.798657718120804
23229,Henrico County,VA,61.8421052631579,NA
23324,Chesapeake city,VA,42.89473684210526,NA
23608,Newport News city,VA,22.105263157894736,NA
23666,Hampton city,VA,64.21052631578948,NA
23701,Portsmouth city,VA,NA,22.818791946308725
23803,Petersburg city,VA,NA,14.76510067114094
23924,Mecklenburg County,VA,84.73684210526315,NA
24018,Roanoke County,VA,48.94736842105264,NA
24091,Floyd County,VA,89.73684210526316,NA
24153,Salem city,VA,NA,18.120805369127517
24382,Wythe County,VA,NA,46.308724832214764
98006,King County,WA,NA,28.187919463087248
98023,King County,WA,NA,14.429530201342283
98201,Snohomish County,WA,93.6842105263158,NA
98260,Island County,WA,95.26315789473684,NA
98273,Skagit County,WA,NA,15.436241610738255
98277,Island County,WA,48.68421052631579,NA
98374,Pierce County,WA,NA,68.12080536912751
98382,Clallam County,WA,NA,3.691275167785235
98390,Pierce County,WA,NA,67.78523489932886
98406,Pierce County,WA,56.57894736842105,NA
98501,Thurston County,WA,60.78947368421053,NA
98584,Mason County,WA,37.631578947368425,NA
98930,Yakima County,WA,80,NA
99163,Whitman County,WA,NA,94.96644295302013
99206,Spokane County,WA,NA,57.71812080536913
99336,Benton County,WA,15.789473684210526,NA
20017,District of Columbia,DC,NA,61.07382550335571
25071,Kanawha County,WV,53.1578947368421,NA
26003,Ohio County,WV,NA,3.0201342281879198
26034,Hancock County,WV,NA,79.19463087248322
26101,Wood County,WV,6.315789473684211,NA
26354,Taylor County,WV,NA,89.59731543624162
53142,Kenosha County,WI,NA,21.812080536912752
53143,Kenosha County,WI,NA,26.845637583892618
53204,Milwaukee County,WI,8.157894736842106,NA
53221,Milwaukee County,WI,22.63157894736842,NA
53562,Dane County,WI,91.3157894736842,59.06040268456376
53901,Columbia County,WI,NA,62.41610738255034
53913,Sauk County,WI,NA,17.78523489932886
54220,Manitowoc County,WI,31.842105263157894,NA
54311,Brown County,WI,NA,25.16778523489933
54451,Taylor County,WI,78.6842105263158,NA
54634,Vernon County,WI,97.36842105263158,NA
54728,Barron County,WI,NA,82.21476510067114
54758,Trempealeau County,WI,NA,98.3221476510067
82701,Weston County,WY,NA,97.6510067114094
