ZipCode,county,state,Adult,Retirement
35010,Tallapoosa County,AL,38.05825242718446,NA
35020,Jefferson County,AL,15.145631067961165,31.132075471698112
35501,Walker County,AL,NA,82.0754716981132
35601,Morgan County,AL,91.45631067961165,12.578616352201259
35640,Morgan County,AL,NA,37.735849056603776
35652,Lauderdale County,AL,92.23300970873787,NA
35748,Madison County,AL,NA,70.75471698113208
35801,Madison County,AL,69.51456310679612,NA
35954,Etowah County,AL,58.05825242718446,NA
36784,Clarke County,AL,84.85436893203884,NA
36804,Lee County,AL,NA,69.81132075471697
99501,Anchorage Municipality,AK,24.466019417475728,NA
85053,Maricopa County,AZ,46.79611650485437,NA
85233,Maricopa County,AZ,71.45631067961165,NA
85251,Maricopa County,AZ,NA,79.24528301886792
85257,Maricopa County,AZ,NA,92.45283018867924
85258,Maricopa County,AZ,NA,53.77358490566038
85706,Pima County,AZ,17.281553398058254,NA
85730,Pima County,AZ,NA,25.78616352201258
71667,Lincoln County,AR,83.88349514563107,NA
71953,Polk County,AR,93.7864077669903,NA
72002,Saline County,AR,67.37864077669903,NA
72034,Faulkner County,AR,NA,87.73584905660378
72118,Pulaski County,AR,61.165048543689316,NA
72396,Cross County,AR,NA,70.12578616352201
72601,Boone County,AR,NA,33.64779874213836
72834,Yell County,AR,85.04854368932038,NA
90007,Los Angeles County,CA,87.37864077669903,NA
90023,Los Angeles County,CA,40.3883495145631,NA
90039,Los Angeles County,CA,NA,76.41509433962264
90059,Los Angeles County,CA,65.24271844660194,NA
90505,Los Angeles County,CA,56.89320388349515,NA
90631,Orange County,CA,66.01941747572816,NA
90650,Los Angeles County,CA,NA,13.20754716981132
90745,Los Angeles County,CA,NA,32.38993710691824
91320,Ventura County,CA,NA,52.20125786163522
91342,Los Angeles County,CA,22.52427184466019,NA
91351,Los Angeles County,CA,62.33009708737865,NA
91352,Los Angeles County,CA,NA,44.339622641509436
91362,Ventura County,CA,63.689320388349515,41.509433962264154
91406,Los Angeles County,CA,50.09708737864078,NA
91773,Los Angeles County,CA,NA,29.245283018867923
91911,San Diego County,CA,26.990291262135923,NA
91950,San Diego County,CA,39.41747572815534,NA
92054,San Diego County,CA,45.04854368932038,NA
92069,San Diego County,CA,NA,96.54088050314465
92120,San Diego County,CA,96.89320388349515,NA
92336,San Bernardino County,CA,11.650485436893204,NA
92373,San Bernardino County,CA,NA,62.893081761006286
92392,San Bernardino County,CA,NA,33.33333333333333
92410,San Bernardino County,CA,34.95145631067961,NA
92675,Orange County,CA,NA,45.59748427672956
92688,Orange County,CA,68.3495145631068,NA
92708,Orange County,CA,NA,14.150943396226415
92868,Orange County,CA,NA,97.79874213836479
93245,Kings County,CA,60.970873786407765,NA
93274,Tulare County,CA,6.990291262135923,18.867924528301888
93309,Kern County,CA,33.78640776699029,NA
93436,Santa Barbara County,CA,63.10679611650486,NA
93444,San Luis Obispo County,CA,58.44660194174758,NA
93536,Los Angeles County,CA,73.98058252427184,NA
93555,Kern County,CA,81.35922330097087,20.440251572327046
93561,Kern County,CA,NA,51.886792452830186
94014,San Mateo County,CA,46.213592233009706,NA
94044,San Mateo County,CA,NA,27.044025157232703
94118,San Francisco County,CA,53.980582524271846,NA
94303,San Mateo County,CA,29.902912621359224,NA
94501,Alameda County,CA,41.55339805825243,NA
94526,Contra Costa County,CA,64.07766990291263,NA
94536,Alameda County,CA,NA,21.69811320754717
94565,Contra Costa County,CA,52.81553398058253,NA
94572,Contra Costa County,CA,99.22330097087378,NA
94577,Alameda County,CA,NA,36.16352201257861
94590,Solano County,CA,30.679611650485437,NA
94901,Marin County,CA,97.28155339805825,NA
94939,Marin County,CA,NA,95.9119496855346
94952,Sonoma County,CA,NA,38.67924528301887
95050,Santa Clara County,CA,NA,57.54716981132076
95060,Santa Cruz County,CA,73.00970873786407,NA
95126,Santa Clara County,CA,62.5242718446602,NA
95136,Santa Clara County,CA,NA,61.94968553459119
95206,San Joaquin County,CA,24.271844660194176,NA
95348,Merced County,CA,64.07766990291263,NA
95482,Mendocino County,CA,39.6116504854369,NA
95818,Sacramento County,CA,NA,71.0691823899371
95965,Butte County,CA,19.41747572815534,NA
96001,Shasta County,CA,23.300970873786408,NA
80011,Arapahoe County,CO,NA,35.53459119496855
80012,Arapahoe County,CO,NA,29.559748427672954
80013,Arapahoe County,CO,11.45631067961165,NA
80017,Arapahoe County,CO,86.40776699029125,NA
80113,Arapahoe County,CO,82.71844660194175,NA
80126,Douglas County,CO,77.66990291262135,NA
80205,Denver County,CO,88.3495145631068,NA
80221,Adams County,CO,34.368932038834956,NA
80229,Adams County,CO,15.339805825242719,NA
80504,Boulder County,CO,33.980582524271846,NA
80524,Larimer County,CO,NA,26.729559748427672
80550,Weld County,CO,32.23300970873787,NA
80701,Morgan County,CO,24.660194174757283,NA
80831,El Paso County,CO,NA,71.69811320754717
80916,El Paso County,CO,67.18446601941747,NA
06002,Hartford County,CT,48.932038834951456,NA
06010,Hartford County,CT,3.1067961165048543,NA
06106,Hartford County,CT,5.048543689320388,NA
06239,Windham County,CT,NA,60.062893081761004
06255,Windham County,CT,75.33980582524272,NA
06415,New London County,CT,NA,68.86792452830188
06447,Hartford County,CT,96.11650485436894,NA
06512,New Haven County,CT,26.019417475728158,NA
06516,New Haven County,CT,NA,2.8301886792452833
06605,Fairfield County,CT,NA,60.37735849056604
06705,New Haven County,CT,26.21359223300971,NA
06810,Fairfield County,CT,46.990291262135926,NA
06820,Fairfield County,CT,74.75728155339806,NA
06840,Fairfield County,CT,91.6504854368932,NA
19802,New Castle County,DE,NA,23.270440251572328
19941,Sussex County,DE,NA,98.11320754716981
19958,Sussex County,DE,36.89320388349515,NA
32207,Duval County,FL,19.223300970873787,NA
32210,Duval County,FL,4.660194174757281,NA
32211,Duval County,FL,23.689320388349515,NA
32505,Escambia County,FL,19.80582524271845,NA
32526,Escambia County,FL,14.951456310679612,NA
32534,Escambia County,FL,NA,46.855345911949684
32640,Putnam County,FL,57.86407766990291,NA
32713,Volusia County,FL,NA,66.66666666666666
32776,Lake County,FL,81.94174757281554,NA
32810,Orange County,FL,NA,55.0314465408805
32955,Brevard County,FL,NA,23.58490566037736
33028,Broward County,FL,NA,78.61635220125787
33060,Broward County,FL,39.80582524271845,NA
33137,Miami-Dade County,FL,78.64077669902912,NA
33185,Miami-Dade County,FL,78.05825242718447,NA
33462,Palm Beach County,FL,NA,72.0125786163522
33511,Hillsborough County,FL,40.97087378640777,NA
33563,Hillsborough County,FL,NA,58.490566037735846
33579,Hillsborough County,FL,NA,76.10062893081762
33701,Pinellas County,FL,47.57281553398058,NA
33771,Pinellas County,FL,NA,34.90566037735849
33810,Polk County,FL,28.349514563106798,NA
33811,Polk County,FL,67.37864077669903,NA
33823,Polk County,FL,37.4757281553398,NA
33913,Lee County,FL,93.98058252427185,NA
34105,Collier County,FL,89.126213592233,NA
34109,Collier County,FL,75.53398058252428,NA
34203,Manatee County,FL,NA,21.069182389937108
34614,Hernando County,FL,95.14563106796116,NA
34677,Pinellas County,FL,76.11650485436893,NA
34758,Osceola County,FL,25.24271844660194,NA
34788,Lake County,FL,64.66019417475728,NA
34946,St. Lucie County,FL,78.25242718446603,NA
34953,St. Lucie County,FL,6.019417475728155,NA
30019,Gwinnett County,GA,NA,40.56603773584906
30108,Carroll County,GA,83.49514563106796,NA
30132,Paulding County,GA,35.14563106796116,NA
30161,Floyd County,GA,21.35922330097087,NA
30223,Spalding County,GA,40,NA
30310,Fulton County,GA,NA,15.723270440251572
30317,DeKalb County,GA,NA,95.28301886792453
30327,Fulton County,GA,NA,68.23899371069182
30331,Fulton County,GA,NA,7.861635220125786
30453,Tattnall County,GA,90.67961165048544,NA
30523,Habersham County,GA,79.02912621359224,NA
30680,Barrow County,GA,23.106796116504853,NA
30809,Columbia County,GA,80.58252427184466,NA
30906,Richmond County,GA,49.51456310679612,NA
30909,Richmond County,GA,NA,16.666666666666664
31023,Dodge County,GA,75.14563106796116,NA
31093,Houston County,GA,36.116504854368934,NA
31211,Bibb County,GA,71.84466019417476,NA
31313,Liberty County,GA,62.912621359223294,NA
31768,Colquitt County,GA,34.75728155339806,NA
31794,Tift County,GA,29.514563106796114,NA
31906,Muscogee County,GA,42.71844660194174,NA
39817,Decatur County,GA,NA,84.27672955974843
39828,Grady County,GA,NA,69.18238993710692
96744,Honolulu County,HI,NA,2.20125786163522
96782,Honolulu County,HI,NA,58.80503144654088
96818,Honolulu County,HI,NA,80.81761006289308
96819,Honolulu County,HI,75.92233009708738,NA
96825,Honolulu County,HI,51.45631067961165,NA
83221,Bingham County,ID,29.320388349514566,NA
83340,Blaine County,ID,98.83495145631068,NA
83638,Valley County,ID,NA,73.58490566037736
83642,Ada County,ID,NA,7.232704402515723
83686,Canyon County,ID,NA,3.7735849056603774
83703,Ada County,ID,83.10679611650485,NA
83704,Ada County,ID,17.864077669902912,NA
83705,Ada County,ID,NA,14.465408805031446
83716,Ada County,ID,NA,40.88050314465409
60013,McHenry County,IL,55.533980582524265,NA
60014,McHenry County,IL,27.57281553398058,11.635220125786164
60056,Cook County,IL,NA,12.89308176100629
60074,Cook County,IL,44.271844660194176,NA
60089,Lake County,IL,42.13592233009709,NA
60160,Cook County,IL,50.48543689320388,NA
60181,DuPage County,IL,61.359223300970875,NA
60202,Cook County,IL,58.64077669902913,NA
60401,Will County,IL,83.68932038834951,NA
60441,Will County,IL,25.631067961165048,NA
60450,Grundy County,IL,27.378640776699033,NA
60453,Cook County,IL,NA,8.176100628930817
60481,Will County,IL,NA,54.088050314465406
60517,DuPage County,IL,NA,34.59119496855346
60523,DuPage County,IL,99.41747572815534,NA
60540,DuPage County,IL,31.2621359223301,NA
60612,Cook County,IL,20.97087378640777,NA
60619,Cook County,IL,7.572815533980583,NA
60638,Cook County,IL,NA,7.547169811320755
60646,Cook County,IL,NA,45.28301886792453
60653,Cook County,IL,60.38834951456311,78.30188679245283
60914,Kankakee County,IL,35.728155339805824,NA
61081,Whiteside County,IL,32.81553398058252,NA
61356,Bureau County,IL,89.51456310679612,NA
61520,Fulton County,IL,88.15533980582524,NA
61611,Tazewell County,IL,NA,41.19496855345912
61701,McLean County,IL,NA,28.930817610062892
61752,McLean County,IL,98.25242718446601,NA
62052,Jersey County,IL,69.12621359223301,NA
62206,St. Clair County,IL,NA,68.55345911949685
62234,Madison County,IL,NA,44.65408805031446
62549,Macon County,IL,86.2135922330097,NA
46012,Madison County,IN,40.58252427184466,NA
46060,Hamilton County,IN,33.00970873786408,NA
46140,Hancock County,IN,NA,18.553459119496853
46204,Marion County,IN,43.49514563106796,NA
46220,Marion County,IN,NA,47.16981132075472
46235,Marion County,IN,21.941747572815533,NA
46254,Marion County,IN,25.04854368932039,NA
46307,Lake County,IN,2.912621359223301,NA
46350,LaPorte County,IN,10.29126213592233,NA
46368,Porter County,IN,3.4951456310679614,NA
46383,Porter County,IN,NA,4.40251572327044
46385,Porter County,IN,49.320388349514566,NA
46750,Huntington County,IN,21.553398058252426,NA
47111,Clark County,IN,53.980582524271846,NA
47303,Delaware County,IN,NA,78.61635220125787
47591,Knox County,IN,37.86407766990291,75.78616352201259
47711,Vanderburgh County,IN,30.29126213592233,NA
47714,Vanderburgh County,IN,14.757281553398057,NA
47805,Vigo County,IN,59.80582524271845,NA
47918,Fountain County,IN,84.66019417475728,NA
50315,Polk County,IA,35.53398058252427,NA
50317,Polk County,IA,12.62135922330097,NA
50701,Black Hawk County,IA,36.116504854368934,NA
51503,Pottawattamie County,IA,9.902912621359224,NA
52353,Washington County,IA,NA,72.95597484276729
52601,Des Moines County,IA,43.10679611650485,NA
66104,Wyandotte County,KS,30.485436893203882,NA
66202,Johnson County,KS,NA,64.46540880503144
66212,Johnson County,KS,80.7766990291262,NA
67114,Harvey County,KS,91.84466019417475,NA
67204,Sedgwick County,KS,NA,66.35220125786164
67601,Ellis County,KS,NA,52.51572327044025
67665,Russell County,KS,99.6116504854369,NA
40207,Jefferson County,KY,70.67961165048544,NA
40210,Jefferson County,KY,44.07766990291262,NA
40220,Jefferson County,KY,69.32038834951456,NA
40403,Madison County,KY,25.436893203883493,NA
40422,Boyle County,KY,47.76699029126213,48.742138364779876
40511,Fayette County,KY,70.09708737864078,NA
40769,Whitley County,KY,36.50485436893204,NA
40977,Bell County,KY,51.6504854368932,NA
41015,Kenton County,KY,28.155339805825243,NA
41030,Grant County,KY,NA,88.0503144654088
41035,Grant County,KY,NA,82.38993710691824
41042,Boone County,KY,NA,6.289308176100629
41102,Boyd County,KY,23.883495145631066,NA
41129,Boyd County,KY,NA,54.71698113207547
41749,Leslie County,KY,98.44660194174757,NA
42003,McCracken County,KY,NA,15.09433962264151
42064,Crittenden County,KY,NA,94.9685534591195
42101,Warren County,KY,7.961165048543689,14.779874213836477
42127,Barren County,KY,66.99029126213593,NA
42455,Webster County,KY,NA,99.05660377358491
70422,Tangipahoa Parish,LA,57.4757281553398,NA
70510,Vermilion Parish,LA,NA,38.9937106918239
70607,Calcasieu Parish,LA,NA,63.52201257861635
70663,Calcasieu Parish,LA,63.49514563106796,NA
70805,East Baton Rouge Parish,LA,NA,28.30188679245283
71037,Bossier Parish,LA,NA,51.257861635220124
71052,De Soto Parish,LA,NA,66.98113207547169
71055,Webster Parish,LA,18.446601941747574,NA
04027,York County,ME,82.91262135922331,NA
04090,York County,ME,NA,65.09433962264151
04270,Oxford County,ME,67.76699029126215,NA
04769,Aroostook County,ME,59.417475728155345,NA
21012,Anne Arundel County,MD,93.00970873786409,NA
21046,Howard County,MD,88.54368932038835,NA
21620,Kent County,MD,NA,59.11949685534591
21921,Cecil County,MD,16.310679611650485,NA
01040,Hampden County,MA,1.9417475728155338,NA
01069,Hampden County,MA,30.87378640776699,NA
01089,Hampden County,MA,4.854368932038835,NA
01095,Hampden County,MA,NA,62.264150943396224
01108,Hampden County,MA,1.5533980582524272,NA
01201,Berkshire County,MA,NA,0.3144654088050315
01240,Berkshire County,MA,NA,63.20754716981132
01376,Franklin County,MA,60.58252427184466,NA
01460,Middlesex County,MA,42.52427184466019,NA
01534,Worcester County,MA,72.23300970873787,NA
01603,Worcester County,MA,2.3300970873786406,39.937106918238996
01609,Worcester County,MA,36.699029126213595,NA
01701,Middlesex County,MA,12.03883495145631,NA
01742,Middlesex County,MA,NA,69.49685534591194
01754,Middlesex County,MA,64.46601941747574,NA
01776,Middlesex County,MA,44.46601941747573,NA
01830,Essex County,MA,NA,6.918238993710692
01841,Essex County,MA,8.932038834951456,NA
01843,Essex County,MA,NA,17.61006289308176
01867,Middlesex County,MA,NA,8.80503144654088
01886,Middlesex County,MA,NA,65.72327044025157
02056,Norfolk County,MA,NA,74.84276729559748
02081,Norfolk County,MA,NA,47.48427672955975
02093,Norfolk County,MA,54.36893203883495,NA
02118,Suffolk County,MA,24.07766990291262,61.0062893081761
02119,Suffolk County,MA,0.1941747572815534,NA
02122,Suffolk County,MA,NA,9.748427672955975
02128,Suffolk County,MA,0.7766990291262136,NA
02138,Middlesex County,MA,NA,66.0377358490566
02145,Middlesex County,MA,NA,9.119496855345911
02148,Middlesex County,MA,20.58252427184466,NA
02155,Middlesex County,MA,18.83495145631068,NA
02301,Plymouth County,MA,0,NA
02445,Norfolk County,MA,28.54368932038835,NA
02451,Middlesex County,MA,57.66990291262136,NA
02554,Nantucket County,MA,35.728155339805824,NA
02571,Plymouth County,MA,13.980582524271846,NA
02762,Norfolk County,MA,53.592233009708735,NA
48035,Macomb County,MI,11.262135922330096,NA
48038,Macomb County,MI,13.592233009708737,NA
48044,Macomb County,MI,9.70873786407767,NA
48048,Macomb County,MI,74.36893203883496,NA
48066,Macomb County,MI,4.077669902912621,NA
48088,Macomb County,MI,74.9514563106796,NA
48097,St. Clair County,MI,87.57281553398059,NA
48122,Wayne County,MI,52.62135922330097,NA
48125,Wayne County,MI,25.8252427184466,NA
48168,Wayne County,MI,51.84466019417475,NA
48169,Livingston County,MI,NA,30.50314465408805
48197,Washtenaw County,MI,3.300970873786408,NA
48228,Wayne County,MI,1.7475728155339807,NA
48234,Wayne County,MI,9.514563106796116,NA
48238,Wayne County,MI,NA,16.352201257861633
48317,Macomb County,MI,24.854368932038835,NA
48340,Oakland County,MI,NA,98.42767295597484
48356,Oakland County,MI,NA,93.39622641509435
48375,Oakland County,MI,NA,50
48603,Saginaw County,MI,13.009708737864079,NA
48609,Saginaw County,MI,72.62135922330097,NA
48631,Bay County,MI,94.75728155339806,NA
48836,Livingston County,MI,NA,51.57232704402516
49002,Kalamazoo County,MI,NA,31.446540880503143
49008,Kalamazoo County,MI,92.42718446601941,NA
49010,Allegan County,MI,93.59223300970874,NA
49022,Berrien County,MI,NA,10.062893081761008
49038,Berrien County,MI,88.93203883495146,NA
49071,Van Buren County,MI,71.45631067961165,NA
49079,Van Buren County,MI,NA,75.15723270440252
49082,Branch County,MI,78.83495145631068,NA
49107,Berrien County,MI,67.76699029126215,NA
49203,Jackson County,MI,9.12621359223301,NA
49444,Muskegon County,MI,10.679611650485436,NA
49660,Manistee County,MI,69.70873786407768,NA
49686,Grand Traverse County,MI,47.76699029126213,NA
49696,Grand Traverse County,MI,NA,88.9937106918239
49735,Otsego County,MI,NA,19.49685534591195
49783,Chippewa County,MI,22.718446601941746,NA
49935,Iron County,MI,71.06796116504854,NA
55045,Chisago County,MN,99.80582524271846,NA
55066,Goodhue County,MN,46.40776699029126,NA
55106,Ramsey County,MN,7.766990291262135,NA
55364,Hennepin County,MN,80.19417475728156,NA
55404,Hennepin County,MN,10.485436893203884,NA
55416,Hennepin County,MN,NA,64.77987421383648
55433,Anoka County,MN,37.66990291262136,NA
55720,Carlton County,MN,NA,73.27044025157232
55810,St. Louis County,MN,87.76699029126213,NA
55904,Olmsted County,MN,38.83495145631068,NA
56482,Wadena County,MN,48.54368932038835,NA
56529,Clay County,MN,NA,99.37106918238993
56560,Clay County,MN,2.7184466019417477,NA
56601,Beltrami County,MN,NA,1.257861635220126
56721,Polk County,MN,79.2233009708738,NA
38751,Sunflower County,MS,NA,72.32704402515722
39046,Madison County,MS,NA,53.459119496855344
39117,Scott County,MS,50.29126213592233,NA
39120,Adams County,MS,42.9126213592233,NA
39180,Warren County,MS,44.85436893203884,NA
39213,Hinds County,MS,37.28155339805825,NA
39301,Lauderdale County,MS,20.19417475728155,NA
39307,Lauderdale County,MS,70.48543689320388,NA
39474,Jefferson Davis County,MS,95.92233009708738,NA
63010,Jefferson County,MO,NA,26.10062893081761
63033,St. Louis County,MO,NA,11.0062893081761
63137,St. Louis County,MO,40.77669902912621,NA
63147,St. Louis city,MO,57.0873786407767,NA
63301,St. Charles County,MO,14.174757281553399,NA
63775,Perry County,MO,NA,36.477987421383645
64079,Platte County,MO,55.33980582524271,NA
64119,Clay County,MO,NA,89.62264150943396
64124,Jackson County,MO,NA,63.83647798742138
64155,Clay County,MO,72.03883495145631,NA
64850,Newton County,MO,NA,21.38364779874214
65622,Dallas County,MO,NA,83.33333333333334
65802,Greene County,MO,NA,19.81132075471698
59808,Missoula County,MT,NA,83.01886792452831
68130,Douglas County,NE,97.66990291262137,NA
68136,Sarpy County,NE,NA,84.90566037735849
68310,Gage County,NE,NA,50.62893081761006
89102,Clark County,NV,92.03883495145631,NA
89506,Washoe County,NV,NA,31.761006289308174
89701,Carson City,NV,41.74757281553398,NA
03032,Rockingham County,NH,94.36893203883496,NA
03038,Rockingham County,NH,59.22330097087378,NA
03071,Hillsborough County,NH,97.47572815533981,NA
03104,Hillsborough County,NH,14.563106796116504,NA
03570,Coos County,NH,70.29126213592232,NA
03773,Sullivan County,NH,80,NA
03870,Rockingham County,NH,100,NA
07002,Hudson County,NJ,66.79611650485437,NA
07052,Essex County,NJ,NA,49.056603773584904
07065,Union County,NJ,NA,90.88050314465409
07208,Union County,NJ,74.1747572815534,NA
07307,Hudson County,NJ,56.699029126213595,NA
07501,Passaic County,NJ,13.78640776699029,NA
07670,Bergen County,NJ,84.46601941747572,NA
07719,Monmouth County,NJ,NA,61.63522012578616
08003,Camden County,NJ,98.05825242718447,NA
08016,Burlington County,NJ,19.02912621359223,NA
08052,Burlington County,NJ,28.932038834951456,NA
08057,Burlington County,NJ,58.83495145631068,NA
08110,Camden County,NJ,73.7864077669903,NA
08401,Atlantic County,NJ,0.5825242718446602,NA
08619,Mercer County,NJ,48.15533980582524,NA
08734,Ocean County,NJ,81.16504854368932,NA
08757,Ocean County,NJ,NA,3.459119496855346
08817,Middlesex County,NJ,NA,22.0125786163522
08830,Middlesex County,NJ,NA,100
08859,Middlesex County,NJ,49.70873786407767,NA
87105,Bernalillo County,NM,22.330097087378643,NA
88345,Lincoln County,NM,73.00970873786407,NA
10456,Bronx County,NY,NA,0
10460,Bronx County,NY,2.524271844660194,NA
10469,Bronx County,NY,3.6893203883495143,NA
10520,Westchester County,NY,NA,74.21383647798741
10550,Westchester County,NY,NA,22.955974842767297
10598,Westchester County,NY,91.06796116504854,NA
10708,Westchester County,NY,88.7378640776699,NA
11224,Kings County,NY,NA,77.9874213836478
11421,Queens County,NY,35.33980582524272,NA
11423,Queens County,NY,77.08737864077669,NA
11598,Nassau County,NY,NA,87.10691823899371
11901,Suffolk County,NY,76.69902912621359,NA
11967,Suffolk County,NY,77.47572815533981,NA
12304,Schenectady County,NY,32.038834951456316,NA
12801,Warren County,NY,21.74757281553398,NA
12831,Saratoga County,NY,NA,49.685534591194966
12926,Franklin County,NY,96.69902912621359,NA
13021,Cayuga County,NY,3.8834951456310676,NA
13032,Madison County,NY,62.71844660194175,44.0251572327044
13045,Cortland County,NY,41.359223300970875,NA
13090,Onondaga County,NY,NA,27.9874213836478
13118,Cayuga County,NY,NA,81.76100628930818
13126,Oswego County,NY,60.19417475728155,NA
13760,Broome County,NY,1.3592233009708738,NA
13820,Otsego County,NY,NA,6.60377358490566
13901,Broome County,NY,41.16504854368932,NA
14210,Erie County,NY,NA,43.08176100628931
14213,Erie County,NY,20.776699029126213,NA
14220,Erie County,NY,14.174757281553399,NA
14414,Livingston County,NY,84.07766990291262,NA
14424,Ontario County,NY,NA,9.433962264150944
14456,Ontario County,NY,8.54368932038835,NA
14487,Livingston County,NY,NA,56.60377358490566
14533,Livingston County,NY,NA,98.74213836477988
14534,Monroe County,NY,NA,1.5723270440251573
14561,Ontario County,NY,NA,88.36477987421384
14564,Ontario County,NY,77.28155339805825,NA
14580,Monroe County,NY,1.1650485436893203,NA
14586,Monroe County,NY,NA,64.15094339622641
14609,Monroe County,NY,0.9708737864077669,NA
14620,Monroe County,NY,6.601941747572816,NA
14701,Chautauqua County,NY,17.475728155339805,NA
14747,Chautauqua County,NY,NA,97.48427672955975
14845,Chemung County,NY,16.699029126213592,NA
27104,Forsyth County,NC,31.456310679611647,NA
27517,Orange County,NC,NA,27.67295597484277
27587,Wake County,NC,NA,39.308176100628934
27834,Pitt County,NC,NA,13.522012578616351
28001,Stanly County,NC,NA,95.59748427672956
28079,Union County,NC,NA,48.42767295597484
28120,Gaston County,NC,54.95145631067962,NA
28227,Mecklenburg County,NC,22.135922330097088,NA
28327,Moore County,NC,NA,83.9622641509434
28337,Bladen County,NC,NA,59.43396226415094
28358,Robeson County,NC,16.893203883495143,NA
28405,New Hanover County,NC,37.0873786407767,32.075471698113205
28412,New Hanover County,NC,16.50485436893204,25.471698113207548
28478,Pender County,NC,93.20388349514563,NA
28731,Henderson County,NC,95.53398058252426,NA
28792,Henderson County,NC,62.13592233009708,NA
58504,Burleigh County,ND,51.067961165048544,NA
43065,Delaware County,OH,47.37864077669903,NA
43119,Franklin County,OH,27.184466019417474,NA
43206,Franklin County,OH,NA,54.088050314465406
43207,Franklin County,OH,2.1359223300970873,NA
43219,Franklin County,OH,16.116504854368934,NA
43230,Franklin County,OH,NA,11.320754716981133
43232,Franklin County,OH,4.271844660194175,NA
43311,Logan County,OH,NA,67.9245283018868
43465,Wood County,OH,NA,67.61006289308176
43558,Fulton County,OH,NA,47.79874213836478
43560,Lucas County,OH,92.81553398058252,NA
43609,Lucas County,OH,5.242718446601942,NA
43613,Lucas County,OH,21.16504854368932,23.89937106918239
43614,Lucas County,OH,55.92233009708738,NA
43713,Belmont County,OH,58.252427184466015,NA
43822,Muskingum County,OH,85.24271844660194,NA
44004,Ashtabula County,OH,15.728155339805824,NA
44054,Lorain County,OH,66.60194174757281,NA
44089,Erie County,OH,NA,86.47798742138365
44102,Cuyahoga County,OH,0.3883495145631068,NA
44103,Cuyahoga County,OH,NA,44.9685534591195
44107,Cuyahoga County,OH,NA,20.754716981132077
44108,Cuyahoga County,OH,81.74757281553397,NA
44125,Cuyahoga County,OH,11.067961165048544,NA
44130,Cuyahoga County,OH,NA,0.628930817610063
44137,Cuyahoga County,OH,6.213592233009709,NA
44202,Portage County,OH,34.1747572815534,70.44025157232704
44256,Medina County,OH,NA,5.9748427672955975
44266,Portage County,OH,NA,5.345911949685535
44311,Summit County,OH,NA,80.50314465408806
44485,Trumbull County,OH,NA,35.22012578616352
44505,Mahoning County,OH,NA,37.42138364779874
44514,Mahoning County,OH,NA,30.18867924528302
44811,Sandusky County,OH,33.20388349514563,NA
44820,Crawford County,OH,NA,42.138364779874216
44870,Erie County,OH,52.038834951456316,NA
44889,Huron County,OH,80.97087378640776,NA
44906,Richland County,OH,34.56310679611651,NA
45005,Warren County,OH,NA,16.9811320754717
45036,Warren County,OH,NA,24.842767295597483
45044,Butler County,OH,NA,10.377358490566039
45067,Butler County,OH,54.95145631067962,NA
45102,Clermont County,OH,38.25242718446602,NA
45150,Clermont County,OH,38.640776699029125,29.874213836477985
45239,Hamilton County,OH,NA,67.29559748427673
45244,Hamilton County,OH,NA,46.22641509433962
45322,Montgomery County,OH,82.13592233009709,NA
45383,Miami County,OH,86.99029126213593,NA
45406,Montgomery County,OH,15.922330097087379,NA
45420,Montgomery County,OH,NA,71.38364779874213
45431,Montgomery County,OH,46.40776699029126,89.30817610062893
45631,Gallia County,OH,11.844660194174757,NA
45663,Scioto County,OH,NA,59.74842767295597
45771,Meigs County,OH,99.02912621359224,NA
45805,Allen County,OH,NA,25.157232704402517
73072,Cleveland County,OK,29.126213592233007,NA
73115,Oklahoma County,OK,NA,41.82389937106918
73116,Oklahoma County,OK,NA,96.22641509433963
73120,Oklahoma County,OK,43.883495145631066,NA
73159,Oklahoma County,OK,NA,60.691823899371066
73170,Cleveland County,OK,NA,11.949685534591195
73501,Comanche County,OK,NA,94.0251572327044
73505,Comanche County,OK,NA,15.40880503144654
73521,Jackson County,OK,64.85436893203882,NA
74074,Payne County,OK,45.8252427184466,NA
74354,Ottawa County,OK,50.679611650485434,NA
74962,Sequoyah County,OK,NA,92.13836477987421
97030,Multnomah County,OR,94.95145631067962,NA
97045,Clackamas County,OR,15.53398058252427,NA
97060,Multnomah County,OR,NA,74.52830188679245
97078,Washington County,OR,85.63106796116506,NA
97086,Clackamas County,OR,50.873786407766985,NA
97202,Multnomah County,OR,28.7378640776699,NA
97305,Marion County,OR,27.766990291262132,NA
97424,Lane County,OR,45.43689320388349,NA
97439,Lane County,OR,NA,57.23270440251572
97478,Lane County,OR,91.2621359223301,NA
97527,Josephine County,OR,NA,19.18238993710692
15022,Washington County,PA,79.41747572815534,NA
15044,Allegheny County,PA,59.6116504854369,NA
15108,Allegheny County,PA,NA,17.29559748427673
15204,Allegheny County,PA,63.883495145631066,NA
15301,Washington County,PA,7.3786407766990285,4.088050314465408
15478,Fayette County,PA,68.73786407766991,NA
15767,Jefferson County,PA,29.708737864077673,NA
15963,Somerset County,PA,NA,81.13207547169812
16101,Lawrence County,PA,6.796116504854369,NA
16201,Armstrong County,PA,33.398058252427184,NA
16226,Armstrong County,PA,NA,91.82389937106919
16365,Warren County,PA,NA,30.81761006289308
16415,Erie County,PA,90.87378640776699,NA
16506,Erie County,PA,66.2135922330097,NA
16735,McKean County,PA,73.39805825242719,NA
16833,Clearfield County,PA,71.26213592233009,NA
17070,Cumberland County,PA,NA,89.937106918239
17112,Dauphin County,PA,17.66990291262136,NA
17233,Fulton County,PA,79.41747572815534,NA
17236,Franklin County,PA,NA,88.67924528301887
17325,Adams County,PA,NA,50.314465408805034
17350,Adams County,PA,56.50485436893204,NA
17408,York County,PA,43.30097087378641,NA
17517,Lancaster County,PA,NA,97.16981132075472
18013,Northampton County,PA,NA,92.76729559748428
18017,Northampton County,PA,7.184466019417475,3.1446540880503147
18067,Northampton County,PA,NA,28.61635220125786
18201,Luzerne County,PA,NA,58.17610062893082
18249,Luzerne County,PA,NA,90.25157232704403
18302,Monroe County,PA,NA,61.32075471698113
18353,Monroe County,PA,NA,91.50943396226415
18444,Lackawanna County,PA,57.28155339805825,NA
18705,Luzerne County,PA,NA,43.39622641509434
18706,Luzerne County,PA,69.90291262135922,NA
18707,Luzerne County,PA,55.72815533980583,NA
18929,Bucks County,PA,86.79611650485437,NA
18938,Bucks County,PA,NA,62.57861635220125
18944,Bucks County,PA,51.262135922330096,NA
19003,Montgomery County,PA,65.0485436893204,NA
19006,Montgomery County,PA,48.349514563106794,NA
19007,Bucks County,PA,74.36893203883496,NA
19010,Delaware County,PA,NA,72.64150943396226
19020,Bucks County,PA,NA,8.49056603773585
19026,Delaware County,PA,NA,33.9622641509434
19030,Bucks County,PA,76.50485436893204,NA
19064,Delaware County,PA,NA,45.911949685534594
19067,Bucks County,PA,NA,37.10691823899371
19082,Delaware County,PA,40.19417475728155,NA
19114,Philadelphia County,PA,20.388349514563107,NA
19115,Philadelphia County,PA,NA,79.55974842767296
19128,Philadelphia County,PA,20,NA
19138,Philadelphia County,PA,13.398058252427184,NA
19143,Philadelphia County,PA,NA,0.9433962264150944
19145,Philadelphia County,PA,8.737864077669903,NA
19151,Philadelphia County,PA,73.59223300970874,17.92452830188679
19152,Philadelphia County,PA,NA,20.125786163522015
19342,Delaware County,PA,76.31067961165049,NA
19403,Montgomery County,PA,19.41747572815534,NA
19464,Montgomery County,PA,5.631067961165048,NA
19468,Montgomery County,PA,NA,35.53459119496855
19512,Berks County,PA,NA,77.35849056603774
19540,Berks County,PA,NA,55.9748427672956
02809,Bristol County,RI,56.310679611650485,NA
02860,Providence County,RI,8.155339805825243,NA
02865,Providence County,RI,68.15533980582525,NA
02879,Washington County,RI,66.40776699029126,NA
02896,Providence County,RI,NA,80.18867924528303
02908,Providence County,RI,NA,38.05031446540881
02911,Providence County,RI,NA,55.660377358490564
02921,Providence County,RI,NA,81.13207547169812
29115,Orangeburg County,SC,39.22330097087379,NA
29323,Spartanburg County,SC,52.23300970873787,NA
29365,Spartanburg County,SC,NA,65.40880503144653
29431,Berkeley County,SC,NA,91.19496855345912
29464,Charleston County,SC,NA,22.32704402515723
29569,Horry County,SC,47.18446601941748,NA
29715,York County,SC,65.24271844660194,NA
57301,Davison County,SD,NA,34.276729559748425
57350,Beadle County,SD,53.20388349514563,NA
37027,Williamson County,TN,NA,22.641509433962266
37073,Robertson County,TN,84.27184466019418,NA
37075,Sumner County,TN,NA,5.660377358490567
37076,Davidson County,TN,65.8252427184466,NA
37110,Warren County,TN,17.0873786407767,NA
37135,Williamson County,TN,90.29126213592234,NA
37214,Davidson County,TN,NA,52.83018867924528
37307,Polk County,TN,NA,84.59119496855347
37397,Marion County,TN,82.52427184466019,NA
37620,Sullivan County,TN,NA,16.037735849056602
37642,Hawkins County,TN,48.737864077669904,NA
37643,Carter County,TN,13.203883495145632,38.36477987421384
37658,Carter County,TN,86.99029126213593,NA
37820,Jefferson County,TN,81.55339805825243,NA
37825,Claiborne County,TN,NA,79.87421383647799
37931,Knox County,TN,NA,56.289308176100626
38018,Shelby County,TN,65.63106796116504,NA
38109,Shelby County,TN,12.233009708737864,NA
38141,Shelby County,TN,75.72815533980582,NA
38462,Lewis County,TN,86.01941747572816,NA
38544,Putnam County,TN,NA,77.67295597484278
75075,Collin County,TX,61.94174757281553,NA
75116,Dallas County,TX,76.89320388349515,NA
75119,Ellis County,TX,NA,86.79245283018868
75150,Dallas County,TX,72.42718446601941,NA
75189,Rockwall County,TX,NA,75.47169811320755
75234,Dallas County,TX,NA,94.33962264150944
75401,Hunt County,TX,53.786407766990294,NA
75701,Smith County,TX,NA,10.69182389937107
75754,Van Zandt County,TX,95.72815533980582,NA
75758,Henderson County,TX,80.3883495145631,NA
75901,Angelina County,TX,38.44660194174757,NA
76012,Tarrant County,TX,NA,50.943396226415096
76051,Tarrant County,TX,33.592233009708735,NA
76082,Parker County,TX,NA,48.113207547169814
76105,Tarrant County,TX,NA,24.21383647798742
76114,Tarrant County,TX,44.66019417475729,NA
76119,Tarrant County,TX,9.320388349514563,NA
76306,Wichita County,TX,61.74757281553398,NA
76501,Bell County,TX,NA,5.031446540880504
76520,Milam County,TX,68.54368932038835,NA
76541,Bell County,TX,46.019417475728154,NA
76705,McLennan County,TX,18.058252427184467,NA
77006,Harris County,TX,NA,94.65408805031447
77017,Harris County,TX,53.00970873786408,NA
77024,Harris County,TX,60,39.62264150943396
77035,Harris County,TX,42.33009708737864,NA
77051,Harris County,TX,NA,55.34591194968554
77071,Harris County,TX,59.02912621359223,NA
77095,Harris County,TX,18.640776699029125,NA
77346,Harris County,TX,23.495145631067963,NA
77373,Harris County,TX,31.06796116504854,NA
77380,Montgomery County,TX,NA,82.70440251572327
77429,Harris County,TX,12.815533980582524,NA
77479,Fort Bend County,TX,31.844660194174757,NA
77480,Brazoria County,TX,85.8252427184466,NA
77536,Harris County,TX,NA,40.25157232704403
77571,Harris County,TX,30.097087378640776,NA
77573,Galveston County,TX,10.679611650485436,NA
77612,Jasper County,TX,85.43689320388349,NA
77904,Victoria County,TX,41.94174757281554,NA
78045,Webb County,TX,26.601941747572816,NA
78112,Bexar County,TX,NA,96.85534591194968
78224,Bexar County,TX,NA,99.68553459119497
78570,Hidalgo County,TX,68.93203883495146,NA
78572,Hidalgo County,TX,NA,52.83018867924528
78573,Hidalgo County,TX,52.42718446601942,NA
78599,Hidalgo County,TX,97.86407766990291,NA
78665,Williamson County,TX,49.12621359223301,NA
78702,Travis County,TX,NA,73.89937106918238
79109,Randall County,TX,NA,43.710691823899374
79549,Scurry County,TX,NA,42.76729559748428
79758,Ector County,TX,98.64077669902913,NA
84025,Davis County,UT,89.51456310679612,NA
84041,Davis County,UT,39.029126213592235,NA
84093,Salt Lake County,UT,NA,49.37106918238994
84095,Salt Lake County,UT,NA,27.358490566037734
84109,Salt Lake County,UT,92.62135922330097,NA
84129,,UT,31.650485436893206,NA
84501,Carbon County,UT,60.58252427184466,NA
05676,Washington County,VT,NA,90.56603773584906
20109,Prince William County,VA,NA,83.64779874213836
20171,Fairfax County,VA,NA,93.71069182389937
22003,Fairfax County,VA,32.42718446601941,NA
22206,Arlington County,VA,56.116504854368934,NA
22304,Alexandria city,VA,45.63106796116505,NA
22554,Stafford County,VA,32.62135922330097,NA
22701,Culpeper County,VA,27.96116504854369,NA
22853,Rockingham County,VA,95.33980582524272,NA
22980,Waynesboro city,VA,10.097087378640776,NA
23112,Chesterfield County,VA,NA,26.41509433962264
23150,Henrico County,VA,NA,76.72955974842768
23222,Richmond city,VA,18.25242718446602,NA
23231,Henrico County,VA,26.407766990291265,NA
23451,Virginia Beach city,VA,NA,11.949685534591195
23513,Norfolk city,VA,NA,33.0188679245283
23692,York County,VA,89.90291262135922,NA
23805,Petersburg city,VA,86.60194174757282,NA
23974,Lunenburg County,VA,89.90291262135922,NA
24301,Pulaski County,VA,54.757281553398066,NA
24541,Danville city,VA,NA,32.70440251572327
24590,Albemarle County,VA,87.96116504854369,NA
98105,King County,WA,79.41747572815534,NA
98107,King County,WA,94.1747572815534,NA
98112,King County,WA,53.398058252427184,NA
98178,King County,WA,NA,87.42138364779875
98284,Skagit County,WA,49.90291262135923,NA
98290,Snohomish County,WA,43.689320388349515,NA
98339,Jefferson County,WA,NA,86.16352201257862
98383,Kitsap County,WA,77.86407766990291,NA
98387,Pierce County,WA,NA,56.91823899371069
98388,Pierce County,WA,94.5631067961165,NA
98531,Lewis County,WA,72.81553398058253,NA
98674,Cowlitz County,WA,93.39805825242719,NA
98802,Douglas County,WA,NA,77.04402515723271
98951,Yakima County,WA,NA,85.53459119496856
99337,Benton County,WA,NA,36.79245283018868
99338,Benton County,WA,83.30097087378641,NA
20001,District of Columbia,DC,22.9126213592233,NA
20002,District of Columbia,DC,5.825242718446602,NA
20019,District of Columbia,DC,4.466019417475728,NA
20020,District of Columbia,DC,NA,4.716981132075472
25311,Kanawha County,WV,NA,57.861635220125784
25425,Jefferson County,WV,78.25242718446603,NA
25504,Cabell County,WV,54.36893203883495,NA
25506,Lincoln County,WV,89.32038834951457,NA
26101,Wood County,WV,5.436893203883495,NA
26301,Harrison County,WV,8.349514563106796,NA
26508,Monongalia County,WV,26.796116504854368,NA
53115,Walworth County,WI,96.31067961165049,NA
53121,Walworth County,WI,45.24271844660194,NA
53208,Milwaukee County,WI,12.427184466019417,NA
53216,Milwaukee County,WI,NA,18.238993710691823
53402,Racine County,WI,6.407766990291262,NA
53546,Rock County,WI,NA,24.528301886792452
53711,Dane County,WI,63.30097087378641,13.522012578616351
53910,Adams County,WI,96.50485436893203,NA
53949,Marquette County,WI,NA,85.22012578616352
53959,Sauk County,WI,NA,42.45283018867924
54220,Manitowoc County,WI,NA,1.8867924528301887
54313,Brown County,WI,90.48543689320388,NA
54552,Price County,WI,97.0873786407767,NA
54730,Dunn County,WI,NA,93.08176100628931
54880,Douglas County,WI,61.55339805825243,2.515723270440252
54911,Outagamie County,WI,82.33009708737865,NA
54961,Waupaca County,WI,NA,46.540880503144656
82009,Laramie County,WY,70.67961165048544,NA
82834,Johnson County,WY,NA,85.84905660377359
