ZipCode,county,state,Adult,Retirement,Geriatric
35010,Tallapoosa County,AL,NA,NA,31.70731707317073
35023,Jefferson County,AL,NA,66.61585365853658,NA
35040,Shelby County,AL,NA,NA,95.30956848030019
35044,Talladega County,AL,NA,75.60975609756098,NA
35077,Cullman County,AL,NA,66.46341463414635,NA
35121,Blount County,AL,NA,51.21951219512195,NA
35180,Jefferson County,AL,NA,67.3780487804878,NA
35401,Tuscaloosa County,AL,NA,NA,80.86303939962477
35672,Lawrence County,AL,NA,NA,90.99437148217636
35747,Marshall County,AL,NA,80.48780487804879,NA
35952,Etowah County,AL,NA,70.1219512195122,NA
35967,DeKalb County,AL,NA,NA,69.23076923076923
36111,Montgomery County,AL,64.62882096069869,NA,NA
36268,Talladega County,AL,NA,NA,99.43714821763602
36360,Dale County,AL,NA,NA,84.42776735459663
36532,Baldwin County,AL,NA,NA,26.82926829268293
36535,Baldwin County,AL,NA,23.01829268292683,NA
36549,Baldwin County,AL,NA,NA,81.61350844277673
36604,Mobile County,AL,NA,NA,97.37335834896811
36867,Russell County,AL,NA,NA,63.60225140712945
36869,Russell County,AL,NA,59.14634146341463,NA
99508,Anchorage Municipality,AK,22.270742358078603,NA,NA
99603,Kenai Peninsula Borough,AK,NA,NA,71.85741088180112
99654,Matanuska-Susitna Borough,AK,NA,41.15853658536585,NA
85032,Maricopa County,AZ,NA,27.439024390243905,NA
85034,Maricopa County,AZ,NA,98.78048780487805,NA
85050,Maricopa County,AZ,NA,NA,63.789868667917446
85051,Maricopa County,AZ,NA,69.0548780487805,NA
85205,Maricopa County,AZ,NA,26.52439024390244,26.641651031894938
85206,Maricopa County,AZ,NA,31.554878048780488,NA
85207,Maricopa County,AZ,NA,NA,80.48780487804879
85225,Maricopa County,AZ,15.283842794759824,NA,NA
85260,Maricopa County,AZ,NA,NA,58.724202626641656
85308,Maricopa County,AZ,NA,17.98780487804878,NA
85338,Maricopa County,AZ,NA,44.81707317073171,NA
85374,Maricopa County,AZ,NA,NA,6.0037523452157595
85375,Maricopa County,AZ,NA,23.932926829268293,NA
85622,Pima County,AZ,NA,NA,55.909943714821765
85635,Cochise County,AZ,NA,86.73780487804879,NA
85706,Pima County,AZ,NA,10.365853658536585,89.6810506566604
85710,Pima County,AZ,NA,NA,35.834896810506564
85713,Pima County,AZ,NA,NA,25.14071294559099
85716,Pima County,AZ,NA,59.90853658536586,NA
85745,Pima County,AZ,NA,19.96951219512195,NA
85755,Pima County,AZ,NA,NA,67.7298311444653
85757,Pima County,AZ,NA,79.72560975609755,NA
85901,Navajo County,AZ,NA,NA,58.348968105065666
86305,Yavapai County,AZ,NA,NA,55.53470919324578
86326,Yavapai County,AZ,NA,NA,22.70168855534709
86327,Yavapai County,AZ,93.44978165938865,NA,NA
86409,Mohave County,AZ,NA,NA,25.328330206378986
86442,Mohave County,AZ,NA,NA,23.076923076923077
71857,Nevada County,AR,NA,95.73170731707317,NA
71901,Garland County,AR,NA,NA,73.73358348968105
71957,Montgomery County,AR,100,NA,NA
71968,Garland County,AR,NA,NA,98.49906191369607
72034,Faulkner County,AR,NA,NA,71.10694183864915
72560,Stone County,AR,NA,NA,84.80300187617262
72601,Boone County,AR,NA,32.01219512195122,NA
72687,Marion County,AR,92.57641921397381,NA,NA
90020,Los Angeles County,CA,82.53275109170306,NA,NA
90038,Los Angeles County,CA,NA,70.73170731707317,NA
90046,Los Angeles County,CA,NA,24.390243902439025,NA
90291,Los Angeles County,CA,NA,99.23780487804879,70.91932457786116
90601,Los Angeles County,CA,NA,NA,43.52720450281426
90630,Orange County,CA,NA,NA,40.150093808630395
90715,Los Angeles County,CA,NA,72.86585365853658,NA
91344,Los Angeles County,CA,49.34497816593886,NA,NA
91360,Ventura County,CA,NA,NA,21.575984990619137
91364,Los Angeles County,CA,NA,NA,45.0281425891182
91606,Los Angeles County,CA,61.135371179039296,NA,NA
91744,Los Angeles County,CA,NA,NA,22.138836772983115
91786,San Bernardino County,CA,NA,NA,42.964352720450286
91911,San Diego County,CA,NA,19.51219512195122,NA
92037,San Diego County,CA,NA,NA,26.07879924953096
92040,San Diego County,CA,NA,NA,31.894934333958723
92069,San Diego County,CA,NA,54.87804878048781,NA
92084,San Diego County,CA,NA,61.28048780487805,NA
92105,San Diego County,CA,NA,NA,83.11444652908068
92111,San Diego County,CA,NA,NA,28.893058161350844
92123,San Diego County,CA,NA,44.207317073170735,NA
92128,San Diego County,CA,NA,NA,11.44465290806754
92201,Riverside County,CA,NA,52.286585365853654,NA
92211,Riverside County,CA,NA,NA,12.94559099437148
92264,Riverside County,CA,NA,NA,16.885553470919323
92307,San Bernardino County,CA,NA,NA,76.36022514071294
92407,San Bernardino County,CA,NA,50.762195121951216,NA
92557,Riverside County,CA,NA,NA,90.0562851782364
92583,Riverside County,CA,NA,86.4329268292683,NA
92630,Orange County,CA,NA,NA,30.76923076923077
92646,Orange County,CA,NA,NA,8.442776735459661
92655,Orange County,CA,NA,77.13414634146342,NA
92867,Orange County,CA,NA,NA,32.833020637898684
92869,Orange County,CA,NA,NA,48.592870544090054
93003,Ventura County,CA,NA,NA,15.75984990619137
93030,Ventura County,CA,NA,80.64024390243902,NA
93304,Kern County,CA,NA,NA,79.17448405253283
93311,Kern County,CA,NA,57.16463414634146,NA
93312,Kern County,CA,NA,44.66463414634146,NA
93401,San Luis Obispo County,CA,57.64192139737992,NA,NA
93444,San Luis Obispo County,CA,NA,NA,88.18011257035647
93505,Kern County,CA,NA,NA,99.06191369606003
93618,Tulare County,CA,NA,NA,94.55909943714822
93620,Merced County,CA,99.56331877729258,NA,NA
93727,Fresno County,CA,NA,NA,37.71106941838649
93908,Monterey County,CA,NA,79.42073170731707,NA
94044,San Mateo County,CA,NA,61.12804878048781,NA
94063,San Mateo County,CA,NA,40.243902439024396,NA
94102,San Francisco County,CA,NA,NA,24.765478424015008
94108,San Francisco County,CA,NA,NA,83.48968105065666
94122,San Francisco County,CA,NA,NA,5.816135084427768
94124,San Francisco County,CA,58.515283842794766,NA,NA
94133,San Francisco County,CA,NA,NA,29.45590994371482
94134,San Francisco County,CA,NA,27.59146341463415,NA
94533,Solano County,CA,NA,NA,48.78048780487805
94541,Alameda County,CA,NA,NA,75.98499061913697
94558,Napa County,CA,NA,NA,2.6266416510318953
94587,Alameda County,CA,NA,23.628048780487802,NA
94589,Solano County,CA,NA,50.45731707317073,NA
94706,Alameda County,CA,NA,NA,95.1219512195122
94806,Contra Costa County,CA,NA,NA,22.88930581613508
94931,Sonoma County,CA,NA,92.53048780487805,NA
94954,Sonoma County,CA,NA,34.756097560975604,NA
95020,Santa Clara County,CA,33.18777292576419,NA,NA
95032,Santa Clara County,CA,NA,NA,49.906191369606
95212,San Joaquin County,CA,NA,NA,80.1125703564728
95337,San Joaquin County,CA,NA,42.22560975609756,NA
95370,Tuolumne County,CA,NA,73.6280487804878,68.29268292682927
95409,Sonoma County,CA,NA,NA,15.384615384615385
95422,Lake County,CA,NA,52.59146341463414,NA
95623,El Dorado County,CA,NA,84.7560975609756,NA
95624,Sacramento County,CA,NA,NA,42.026266416510325
95824,Sacramento County,CA,NA,60.36585365853659,NA
95948,Butte County,CA,NA,NA,61.53846153846154
95969,Butte County,CA,NA,NA,3.189493433395872
95973,Butte County,CA,NA,NA,20.26266416510319
96002,Shasta County,CA,NA,62.5,NA
80004,Jefferson County,CO,NA,91.46341463414635,NA
80017,Arapahoe County,CO,NA,85.21341463414635,NA
80022,Adams County,CO,NA,38.8719512195122,NA
80031,Adams County,CO,NA,NA,54.03377110694184
80526,Larimer County,CO,NA,NA,69.98123827392119
80538,Larimer County,CO,NA,NA,29.268292682926827
80903,El Paso County,CO,NA,NA,87.05440900562851
80905,El Paso County,CO,69.43231441048034,NA,NA
80911,El Paso County,CO,NA,NA,54.409005628517825
81006,Pueblo County,CO,NA,NA,76.17260787992495
81050,Otero County,CO,NA,79.11585365853658,NA
81147,Archuleta County,CO,NA,NA,63.41463414634146
81212,Fremont County,CO,NA,NA,39.21200750469043
81637,Eagle County,CO,NA,99.6951219512195,NA
06071,Tolland County,CT,NA,83.84146341463415,NA
06096,Hartford County,CT,NA,77.89634146341463,NA
06110,Hartford County,CT,NA,NA,78.61163227016885
06112,Hartford County,CT,NA,53.8109756097561,NA
06226,Windham County,CT,NA,45.27439024390244,NA
06422,Middlesex County,CT,NA,NA,94.74671669793621
06450,New Haven County,CT,78.60262008733623,NA,NA
06498,Middlesex County,CT,NA,79.8780487804878,NA
06513,New Haven County,CT,NA,38.109756097560975,NA
06514,New Haven County,CT,NA,NA,37.3358348968105
06516,New Haven County,CT,NA,4.725609756097561,NA
06790,Litchfield County,CT,NA,3.048780487804878,NA
06810,Fairfield County,CT,NA,22.103658536585368,NA
06905,Fairfield County,CT,NA,49.84756097560975,NA
19934,Kent County,DE,NA,69.20731707317073,NA
19945,Sussex County,DE,NA,59.29878048780488,NA
19958,Sussex County,DE,NA,NA,12.007504690431519
19963,Sussex County,DE,NA,NA,53.283302063789876
19966,Sussex County,DE,NA,10.518292682926829,14.634146341463413
32003,Clay County,FL,NA,NA,94.37148217636022
32034,Nassau County,FL,NA,38.41463414634146,NA
32080,St. Johns County,FL,NA,NA,29.080675422138835
32117,Volusia County,FL,NA,NA,36.39774859287054
32137,Flagler County,FL,NA,NA,7.129455909943714
32211,Duval County,FL,NA,41.920731707317074,NA
32218,Duval County,FL,NA,4.573170731707317,NA
32223,Duval County,FL,NA,34.29878048780488,NA
32244,Duval County,FL,6.986899563318777,NA,NA
32250,Duval County,FL,NA,32.16463414634146,NA
32256,Duval County,FL,NA,37.34756097560975,32.08255159474672
32303,Leon County,FL,NA,46.34146341463415,NA
32340,Madison County,FL,NA,NA,89.11819887429644
32405,Bay County,FL,28.38427947598253,NA,NA
32533,Escambia County,FL,NA,21.49390243902439,NA
32535,Escambia County,FL,NA,75.91463414634147,NA
32541,Okaloosa County,FL,NA,37.65243902439025,NA
32609,Alachua County,FL,NA,NA,73.54596622889305
32680,Dixie County,FL,NA,95.57926829268293,NA
32713,Volusia County,FL,NA,NA,57.410881801125704
32714,Seminole County,FL,NA,62.5,NA
32771,Seminole County,FL,NA,NA,43.33958724202627
32935,Brevard County,FL,NA,42.53048780487805,NA
32958,Indian River County,FL,NA,NA,33.20825515947467
33019,Broward County,FL,NA,NA,58.536585365853654
33023,Broward County,FL,NA,NA,49.530956848030016
33026,Broward County,FL,NA,57.46951219512195,NA
33040,Monroe County,FL,47.161572052401745,NA,NA
33125,Miami-Dade County,FL,NA,NA,11.25703564727955
33157,Miami-Dade County,FL,NA,NA,24.953095684803
33165,Miami-Dade County,FL,NA,NA,2.0637898686679175
33186,Miami-Dade County,FL,NA,NA,28.705440900562852
33405,Palm Beach County,FL,NA,NA,74.10881801125704
33434,Palm Beach County,FL,NA,NA,5.440900562851782
33461,Palm Beach County,FL,60.26200873362445,NA,NA
33496,Palm Beach County,FL,NA,NA,7.317073170731707
33538,Sumter County,FL,NA,92.98780487804879,NA
33563,Hillsborough County,FL,NA,58.231707317073166,NA
33715,Pinellas County,FL,NA,74.39024390243902,NA
33773,Pinellas County,FL,NA,NA,81.23827392120076
33778,Pinellas County,FL,NA,65.2439024390244,NA
33805,Polk County,FL,NA,86.58536585365853,NA
33809,Polk County,FL,NA,NA,34.146341463414636
33813,Polk County,FL,NA,48.170731707317074,NA
33908,Lee County,FL,NA,NA,0.7504690431519699
33917,Lee County,FL,NA,21.036585365853657,NA
33948,Charlotte County,FL,NA,38.56707317073171,NA
33980,Charlotte County,FL,NA,89.78658536585365,NA
34243,Manatee County,FL,NA,25.76219512195122,NA
34292,Sarasota County,FL,NA,NA,12.757973733583489
34293,Sarasota County,FL,NA,8.231707317073171,NA
34420,Marion County,FL,NA,59.756097560975604,NA
34465,Citrus County,FL,NA,NA,63.22701688555347
34488,Marion County,FL,NA,70.57926829268293,NA
34606,Hernando County,FL,NA,37.957317073170735,NA
34608,Hernando County,FL,43.23144104803494,NA,NA
34685,Pinellas County,FL,NA,NA,61.350844277673545
34746,Osceola County,FL,NA,47.103658536585364,NA
34952,St. Lucie County,FL,NA,69.66463414634147,NA
34957,Martin County,FL,NA,NA,18.01125703564728
34987,St. Lucie County,FL,NA,NA,74.48405253283302
34994,Martin County,FL,NA,NA,41.088180112570356
30016,Newton County,GA,17.03056768558952,NA,NA
30033,DeKalb County,GA,85.58951965065502,NA,NA
30067,Cobb County,GA,NA,66.15853658536585,NA
30087,DeKalb County,GA,NA,NA,33.39587242026266
30096,Gwinnett County,GA,NA,64.02439024390245,NA
30147,Floyd County,GA,NA,96.03658536585365,NA
30152,Cobb County,GA,NA,NA,74.85928705440901
30157,Paulding County,GA,NA,26.981707317073173,NA
30161,Floyd County,GA,NA,NA,36.210131332082554
30179,Carroll County,GA,NA,NA,85.74108818011257
30187,Douglas County,GA,NA,NA,98.31144465290807
30188,Cherokee County,GA,NA,NA,35.27204502814259
30236,Clayton County,GA,NA,40.09146341463415,NA
30281,Henry County,GA,NA,19.817073170731707,NA
30294,DeKalb County,GA,45.414847161572055,NA,NA
30324,Fulton County,GA,NA,94.8170731707317,NA
30349,Fulton County,GA,11.353711790393014,NA,NA
30427,Tattnall County,GA,NA,NA,83.86491557223265
30519,Gwinnett County,GA,NA,32.6219512195122,NA
30534,Dawson County,GA,NA,34.45121951219512,NA
30564,Hall County,GA,NA,98.9329268292683,NA
30701,Gordon County,GA,NA,NA,52.908067542213885
30707,Walker County,GA,NA,NA,84.61538461538461
30728,Walker County,GA,41.48471615720524,NA,NA
30747,Chattooga County,GA,81.6593886462882,NA,NA
30907,Columbia County,GA,NA,12.652439024390244,32.270168855534706
31313,Liberty County,GA,NA,70.73170731707317,NA
31548,Camden County,GA,NA,88.8719512195122,NA
31602,Lowndes County,GA,NA,NA,68.85553470919325
31707,Dougherty County,GA,NA,40.243902439024396,NA
31719,Sumter County,GA,NA,92.07317073170732,NA
31792,Thomas County,GA,NA,33.38414634146341,NA
31903,Muscogee County,GA,NA,NA,60.60037523452158
31906,Muscogee County,GA,44.97816593886463,NA,NA
31907,Muscogee County,GA,NA,24.54268292682927,NA
39819,Decatur County,GA,94.32314410480349,NA,NA
96707,Honolulu County,HI,NA,NA,83.67729831144464
96744,Honolulu County,HI,NA,NA,2.4390243902439024
96746,Kauai County,HI,NA,NA,89.8686679174484
96797,Honolulu County,HI,NA,7.4695121951219505,NA
96815,Honolulu County,HI,NA,NA,57.5984990619137
96816,Honolulu County,HI,NA,NA,5.065666041275797
96821,Honolulu County,HI,NA,NA,52.5328330206379
83318,Cassia County,ID,NA,46.95121951219512,NA
83467,Lemhi County,ID,NA,87.1951219512195,NA
83530,Idaho County,ID,NA,NA,85.17823639774859
83605,Canyon County,ID,29.694323144104807,NA,NA
83617,Gem County,ID,NA,NA,34.52157598499062
83634,Ada County,ID,NA,74.6951219512195,NA
83642,Ada County,ID,NA,NA,8.25515947467167
83644,Canyon County,ID,97.81659388646288,NA,NA
83672,Washington County,ID,NA,75,NA
83687,Canyon County,ID,NA,NA,46.90431519699813
83709,Ada County,ID,20.087336244541483,NA,29.831144465290805
83713,Ada County,ID,71.61572052401746,NA,NA
83714,Ada County,ID,NA,NA,13.696060037523452
83815,Kootenai County,ID,NA,NA,17.073170731707318
60014,McHenry County,IL,NA,NA,24.202626641651033
60031,Lake County,IL,NA,NA,81.98874296435272
60045,Lake County,IL,NA,NA,13.883677298311445
60046,Lake County,IL,NA,26.21951219512195,NA
60067,Cook County,IL,NA,55.487804878048784,NA
60083,Lake County,IL,NA,NA,68.48030018761726
60098,McHenry County,IL,67.68558951965066,NA,NA
60126,DuPage County,IL,NA,41.61585365853659,31.33208255159475
60148,DuPage County,IL,NA,NA,89.49343339587243
60175,Kane County,IL,NA,NA,39.02439024390244
60181,DuPage County,IL,NA,64.17682926829268,NA
60189,DuPage County,IL,37.99126637554585,NA,NA
60403,Will County,IL,NA,39.48170731707317,NA
60406,Cook County,IL,NA,NA,55.72232645403376
60416,Grundy County,IL,62.00873362445415,NA,NA
60451,Will County,IL,NA,NA,46.529080675422144
60455,Cook County,IL,54.14847161572053,NA,NA
60459,Cook County,IL,NA,54.57317073170732,NA
60464,Cook County,IL,NA,NA,61.16322701688556
60542,Kane County,IL,NA,NA,61.72607879924953
60559,DuPage County,IL,NA,74.39024390243902,NA
60585,Will County,IL,NA,57.012195121951216,NA
60611,Cook County,IL,NA,21.798780487804876,NA
60613,Cook County,IL,NA,NA,72.98311444652909
60618,Cook County,IL,33.624454148471614,NA,NA
60619,Cook County,IL,8.73362445414847,NA,1.5009380863039399
60644,Cook County,IL,NA,NA,17.636022514071296
60652,Cook County,IL,NA,25,NA
61048,Stephenson County,IL,NA,88.71951219512195,NA
61101,Winnebago County,IL,NA,43.292682926829265,NA
61102,Winnebago County,IL,59.388646288209614,NA,NA
61362,Bureau County,IL,NA,84.29878048780488,NA
61443,Henry County,IL,NA,NA,25.515947467166978
61571,Tazewell County,IL,NA,87.5,NA
61615,Peoria County,IL,81.22270742358079,NA,NA
61802,Champaign County,IL,NA,31.70731707317073,NA
61821,Champaign County,IL,NA,NA,77.29831144465291
62002,Madison County,IL,31.877729257641924,21.1890243902439,NA
62010,Madison County,IL,NA,66.76829268292683,NA
62024,Madison County,IL,96.50655021834062,NA,NA
62208,St. Clair County,IL,NA,NA,59.28705440900563
62221,St. Clair County,IL,NA,43.292682926829265,NA
62234,Madison County,IL,NA,43.90243902439025,NA
62269,St. Clair County,IL,70.74235807860262,NA,NA
62294,Madison County,IL,NA,NA,91.74484052532833
62301,Adams County,IL,35.80786026200873,NA,NA
62521,Macon County,IL,16.593886462882097,NA,NA
62702,Sangamon County,IL,NA,35.97560975609756,NA
62812,Franklin County,IL,NA,NA,36.02251407129456
46033,Hamilton County,IN,NA,NA,43.90243902439025
46038,Hamilton County,IN,NA,53.506097560975604,NA
46062,Hamilton County,IN,60.698689956331876,NA,NA
46064,Madison County,IN,NA,56.70731707317073,NA
46124,Johnson County,IN,NA,68.90243902439023,NA
46229,Marion County,IN,NA,33.993902439024396,NA
46254,Marion County,IN,25.327510917030565,NA,NA
46268,Marion County,IN,NA,45.73170731707317,NA
46311,Lake County,IN,NA,52.4390243902439,NA
46342,Lake County,IN,NA,NA,20.26266416510319
46350,LaPorte County,IN,NA,8.536585365853659,NA
46368,Porter County,IN,NA,NA,14.071294559099437
46404,Lake County,IN,NA,51.981707317073166,NA
46815,Allen County,IN,34.06113537117904,NA,NA
46835,Allen County,IN,NA,12.652439024390244,NA
46947,Cass County,IN,NA,NA,9.568480300187618
46952,Grant County,IN,NA,7.317073170731707,NA
46992,Wabash County,IN,35.37117903930131,NA,NA
47138,Scott County,IN,NA,94.51219512195121,NA
47150,Floyd County,IN,41.92139737991266,NA,NA
47167,Washington County,IN,NA,49.08536585365854,NA
47220,Jackson County,IN,NA,NA,93.99624765478424
47240,Decatur County,IN,NA,NA,30.0187617260788
47274,Jackson County,IN,NA,32.31707317073171,NA
47302,Delaware County,IN,22.707423580786028,NA,NA
47303,Delaware County,IN,NA,NA,63.977485928705434
47374,Wayne County,IN,5.676855895196507,NA,1.125703564727955
47403,Monroe County,IN,NA,55.487804878048784,NA
47421,Lawrence County,IN,NA,20.73170731707317,NA
47446,Lawrence County,IN,NA,NA,77.11069418386491
47807,Vigo County,IN,51.09170305676856,NA,NA
47909,Tippecanoe County,IN,NA,45.88414634146341,NA
47918,Fountain County,IN,NA,NA,86.49155722326454
47960,White County,IN,NA,58.84146341463414,NA
50021,Polk County,IA,NA,NA,92.3076923076923
50023,Polk County,IA,NA,76.82926829268293,NA
50049,Lucas County,IA,NA,NA,70.35647279549718
50125,Warren County,IA,72.0524017467249,NA,NA
50131,Polk County,IA,NA,78.04878048780488,NA
50219,Marion County,IA,NA,NA,84.05253283302065
50659,Chickasaw County,IA,NA,NA,93.05816135084429
51012,Cherokee County,IA,NA,93.59756097560977,NA
51250,Sioux County,IA,NA,NA,48.96810506566604
51301,Clay County,IA,NA,NA,30.58161350844278
51501,Pottawattamie County,IA,NA,60.518292682926834,NA
51503,Pottawattamie County,IA,NA,5.487804878048781,NA
51534,Mills County,IA,NA,70.42682926829268,NA
52003,Dubuque County,IA,NA,NA,74.671669793621
52101,Winneshiek County,IA,NA,62.34756097560976,NA
52402,Linn County,IA,NA,NA,35.647279549718576
52403,Linn County,IA,46.288209606986904,NA,NA
52501,Wapello County,IA,NA,29.878048780487802,NA
52601,Des Moines County,IA,NA,49.23780487804878,NA
52722,Scott County,IA,24.45414847161572,NA,NA
66002,Atchison County,KS,NA,NA,72.98311444652909
66061,Johnson County,KS,NA,76.67682926829268,NA
66062,Johnson County,KS,NA,82.92682926829268,NA
66104,Wyandotte County,KS,NA,NA,57.78611632270169
66112,Wyandotte County,KS,NA,NA,75.79737335834896
66215,Johnson County,KS,NA,NA,42.21388367729831
67601,Ellis County,KS,NA,53.8109756097561,80.30018761726079
67871,Scott County,KS,NA,NA,60.41275797373359
40006,Trimble County,KY,NA,92.3780487804878,NA
40013,Nelson County,KY,NA,88.41463414634147,NA
40069,Washington County,KY,NA,82.77439024390245,NA
40118,Jefferson County,KY,NA,61.737804878048784,NA
40165,Bullitt County,KY,NA,17.682926829268293,NA
40212,Jefferson County,KY,NA,NA,66.97936210131333
40213,Jefferson County,KY,NA,NA,62.6641651031895
40215,Jefferson County,KY,NA,43.140243902439025,NA
40216,Jefferson County,KY,NA,14.48170731707317,NA
40220,Jefferson County,KY,NA,21.951219512195124,NA
40228,Jefferson County,KY,68.99563318777294,NA,NA
40229,Jefferson County,KY,NA,71.4939024390244,NA
40272,Jefferson County,KY,18.777292576419214,17.53048780487805,28.330206378986865
40291,Jefferson County,KY,NA,19.359756097560975,NA
40330,Mercer County,KY,83.4061135371179,NA,NA
40356,Jessamine County,KY,NA,NA,46.15384615384615
40475,Madison County,KY,NA,60.213414634146346,NA
41006,Pendleton County,KY,NA,NA,98.87429643527204
41011,Kenton County,KY,NA,59.90853658536586,NA
41095,Gallatin County,KY,NA,99.84756097560977,NA
42211,Trigg County,KY,NA,NA,54.971857410881796
42301,Daviess County,KY,12.663755458515283,NA,NA
42544,Pulaski County,KY,NA,75.45731707317073,NA
42701,Hardin County,KY,NA,11.890243902439025,NA
42718,Taylor County,KY,NA,77.59146341463415,NA
42743,Green County,KY,NA,62.04268292682927,NA
70005,Jefferson Parish,LA,NA,NA,7.6923076923076925
70058,Jefferson Parish,LA,NA,NA,75.60975609756098
70062,Jefferson Parish,LA,NA,30.182926829268293,NA
70072,Jefferson Parish,LA,NA,NA,87.99249530956847
70114,Orleans Parish,LA,NA,33.84146341463415,NA
70401,Tangipahoa Parish,LA,NA,68.14024390243902,NA
70435,St. Tammany Parish,LA,NA,18.597560975609756,NA
70438,Washington Parish,LA,NA,15.701219512195122,NA
70570,St. Landry Parish,LA,NA,42.073170731707314,NA
70818,East Baton Rouge Parish,LA,NA,96.64634146341463,NA
71047,Caddo Parish,LA,NA,50,NA
71202,Ouachita Parish,LA,6.550218340611353,NA,NA
71225,Ouachita Parish,LA,NA,90.85365853658537,NA
71303,Rapides Parish,LA,NA,94.96951219512195,NA
71360,Rapides Parish,LA,NA,27.743902439024392,NA
71405,Rapides Parish,LA,NA,85.97560975609755,NA
03904,York County,ME,NA,NA,64.9155722326454
04062,Cumberland County,ME,NA,84.7560975609756,NA
04073,York County,ME,NA,32.46951219512195,NA
04074,Cumberland County,ME,NA,94.20731707317073,NA
04105,Cumberland County,ME,NA,76.98170731707317,NA
04240,Androscoggin County,ME,NA,20.884146341463413,NA
04915,Waldo County,ME,NA,NA,91.55722326454033
21201,Baltimore city,MD,NA,48.93292682926829,NA
21220,Baltimore County,MD,NA,30.79268292682927,NA
21223,Baltimore city,MD,NA,NA,66.41651031894934
21286,Baltimore County,MD,NA,NA,46.90431519699813
21613,Dorchester County,MD,NA,NA,59.09943714821764
21702,Frederick County,MD,NA,NA,47.467166979362105
21911,Cecil County,MD,NA,72.10365853658537,NA
01105,Hampden County,MA,NA,42.83536585365854,NA
01118,Hampden County,MA,NA,89.63414634146342,NA
01440,Worcester County,MA,NA,91.3109756097561,NA
01453,Worcester County,MA,NA,NA,52.34521575984991
01604,Worcester County,MA,NA,2.2865853658536586,NA
01754,Middlesex County,MA,NA,NA,86.30393996247655
01760,Middlesex County,MA,NA,8.841463414634147,NA
01778,Middlesex County,MA,NA,47.71341463414634,NA
01803,Middlesex County,MA,NA,NA,40.33771106941838
01835,Essex County,MA,32.314410480349345,NA,NA
01844,Essex County,MA,NA,4.420731707317073,NA
01862,Middlesex County,MA,NA,76.21951219512195,NA
01902,Essex County,MA,NA,0.6097560975609756,NA
01913,Essex County,MA,NA,NA,68.66791744840526
01915,Essex County,MA,NA,0.9146341463414633,NA
01930,Essex County,MA,NA,0.7621951219512195,NA
01938,Essex County,MA,51.96506550218341,NA,NA
01944,Essex County,MA,NA,NA,78.42401500938087
01952,Essex County,MA,NA,57.3170731707317,NA
01960,Essex County,MA,NA,0.1524390243902439,NA
01969,Essex County,MA,NA,96.34146341463415,NA
02026,Norfolk County,MA,NA,16.76829268292683,14.446529080675422
02043,Plymouth County,MA,NA,NA,21.951219512195124
02050,Plymouth County,MA,NA,24.695121951219512,NA
02066,Plymouth County,MA,NA,45.1219512195122,NA
02067,Norfolk County,MA,NA,36.58536585365854,NA
02072,Norfolk County,MA,NA,9.603658536585366,NA
02121,Suffolk County,MA,NA,NA,4.315196998123827
02127,Suffolk County,MA,NA,56.859756097560975,12.382739212007504
02130,Suffolk County,MA,NA,1.3719512195121952,NA
02143,Middlesex County,MA,NA,12.5,NA
02144,Middlesex County,MA,NA,NA,72.42026266416511
02148,Middlesex County,MA,0,NA,NA
02150,Suffolk County,MA,NA,42.68292682926829,NA
02151,Suffolk County,MA,0.43668122270742354,NA,NA
02152,Suffolk County,MA,NA,NA,10.318949343339586
02155,Middlesex County,MA,NA,NA,0.5628517823639775
02169,Norfolk County,MA,NA,NA,40.52532833020638
02302,Plymouth County,MA,NA,1.9817073170731707,NA
02370,Plymouth County,MA,NA,NA,57.035647279549714
02382,Plymouth County,MA,79.03930131004367,NA,NA
02446,Norfolk County,MA,NA,NA,9.943714821763603
02474,Middlesex County,MA,NA,NA,45.96622889305816
02481,Norfolk County,MA,NA,53.20121951219512,NA
02492,Norfolk County,MA,NA,NA,44.27767354596623
02571,Plymouth County,MA,NA,37.19512195121951,NA
02631,Barnstable County,MA,NA,46.79878048780488,NA
02767,Bristol County,MA,NA,41.006097560975604,NA
02779,Bristol County,MA,NA,96.1890243902439,NA
02790,Bristol County,MA,NA,25.609756097560975,NA
48034,Oakland County,MI,NA,53.35365853658537,NA
48044,Macomb County,MI,10.91703056768559,NA,NA
48045,Macomb County,MI,NA,NA,39.77485928705441
48066,Macomb County,MI,NA,9.451219512195122,NA
48073,Oakland County,MI,NA,NA,62.851782363977485
48075,Oakland County,MI,NA,31.402439024390244,NA
48076,Oakland County,MI,NA,NA,85.92870544090057
48082,Macomb County,MI,52.40174672489083,NA,NA
48091,Macomb County,MI,NA,50.609756097560975,NA
48104,Washtenaw County,MI,NA,86.89024390243902,NA
48105,Washtenaw County,MI,NA,NA,21.388367729831145
48116,Livingston County,MI,NA,NA,12.195121951219512
48125,Wayne County,MI,NA,NA,49.34333958724203
48146,Wayne County,MI,NA,16.615853658536587,NA
48154,Wayne County,MI,NA,8.689024390243901,5.253283302063791
48168,Wayne County,MI,NA,38.26219512195122,NA
48176,Washtenaw County,MI,NA,NA,26.454033771106943
48180,Wayne County,MI,3.4934497816593884,NA,NA
48186,Wayne County,MI,NA,NA,24.390243902439025
48187,Wayne County,MI,NA,3.353658536585366,NA
48191,Washtenaw County,MI,NA,NA,97.93621013133207
48195,Wayne County,MI,NA,NA,19.69981238273921
48209,Wayne County,MI,NA,NA,66.22889305816135
48210,Wayne County,MI,NA,79.57317073170732,NA
48213,Wayne County,MI,NA,27.28658536585366,NA
48221,Wayne County,MI,NA,31.25,NA
48224,Wayne County,MI,NA,NA,55.1594746716698
48225,Wayne County,MI,NA,NA,73.35834896810508
48228,Wayne County,MI,2.6200873362445414,NA,NA
48239,Wayne County,MI,NA,NA,42.40150093808631
48304,Oakland County,MI,NA,51.37195121951219,NA
48315,Macomb County,MI,NA,78.5060975609756,NA
48323,Oakland County,MI,NA,NA,69.41838649155723
48327,Oakland County,MI,NA,NA,49.71857410881801
48328,Oakland County,MI,42.35807860262008,29.115853658536583,NA
48356,Oakland County,MI,NA,80.1829268292683,NA
48383,Oakland County,MI,NA,80.9451219512195,NA
48386,Oakland County,MI,NA,72.2560975609756,NA
48390,Oakland County,MI,NA,35.21341463414634,38.27392120075047
48433,Genesee County,MI,NA,23.47560975609756,NA
48471,Sanilac County,MI,NA,94.0548780487805,NA
48618,Midland County,MI,NA,78.65853658536585,NA
48625,Clare County,MI,NA,23.170731707317074,NA
48656,Roscommon County,MI,NA,82.46951219512195,NA
48657,Midland County,MI,84.27947598253274,NA,NA
48706,Bay County,MI,NA,1.0670731707317074,NA
48768,Tuscola County,MI,NA,NA,70.35647279549718
48820,Clinton County,MI,NA,47.256097560975604,NA
48836,Livingston County,MI,NA,NA,67.54221388367729
48838,Montcalm County,MI,NA,30.03048780487805,NA
48842,Ingham County,MI,74.235807860262,NA,NA
48855,Livingston County,MI,75.54585152838428,NA,65.1031894934334
48867,Shiawassee County,MI,30.567685589519648,NA,NA
48911,Ingham County,MI,9.606986899563319,NA,NA
49002,Kalamazoo County,MI,NA,30.335365853658537,NA
49009,Kalamazoo County,MI,NA,9.75609756097561,66.04127579737336
49010,Allegan County,MI,NA,NA,50.84427767354597
49014,Calhoun County,MI,55.021834061135365,NA,NA
49022,Berrien County,MI,NA,NA,20.075046904315197
49037,Calhoun County,MI,66.37554585152839,NA,NA
49038,Berrien County,MI,NA,NA,59.47467166979362
49045,Van Buren County,MI,NA,78.96341463414635,NA
49048,Kalamazoo County,MI,NA,30.640243902439025,NA
49078,Allegan County,MI,NA,NA,79.36210131332082
49082,Branch County,MI,NA,85.36585365853658,NA
49085,Berrien County,MI,NA,41.76829268292683,33.95872420262664
49103,Berrien County,MI,NA,90.09146341463415,NA
49112,Cass County,MI,NA,94.66463414634147,NA
49203,Jackson County,MI,NA,NA,8.630393996247655
49240,Jackson County,MI,NA,NA,85.17823639774859
49315,Kent County,MI,NA,35.823170731707314,NA
49321,Kent County,MI,NA,NA,71.29455909943715
49348,Allegan County,MI,32.751091703056765,48.6280487804878,NA
49420,Oceana County,MI,NA,80.03048780487805,NA
49423,Ottawa County,MI,NA,10.213414634146341,NA
49424,Ottawa County,MI,NA,NA,10.694183864915573
49441,Muskegon County,MI,16.157205240174672,NA,NA
49442,Muskegon County,MI,NA,NA,6.191369606003752
49508,Kent County,MI,NA,58.38414634146341,NA
49509,Kent County,MI,NA,NA,54.22138836772983
49660,Manistee County,MI,NA,27.896341463414636,NA
49727,Charlevoix County,MI,NA,77.7439024390244,NA
49756,Montmorency County,MI,NA,74.23780487804879,NA
49837,Delta County,MI,NA,52.13414634146341,NA
49862,Alger County,MI,NA,91.15853658536585,NA
55051,Kanabec County,MN,NA,NA,47.27954971857411
55066,Goodhue County,MN,NA,20.426829268292682,NA
55119,Ramsey County,MN,18.340611353711793,NA,NA
55129,Washington County,MN,NA,83.23170731707317,NA
55306,Dakota County,MN,NA,67.22560975609755,NA
55391,Hennepin County,MN,NA,NA,68.10506566604127
55410,Hennepin County,MN,NA,NA,77.86116322701689
55413,Hennepin County,MN,NA,NA,96.43527204502814
55417,Hennepin County,MN,NA,50.15243902439024,NA
55423,Hennepin County,MN,NA,39.176829268292686,NA
55429,Hennepin County,MN,NA,39.176829268292686,NA
55433,Anoka County,MN,NA,NA,44.090056285178235
55731,St. Louis County,MN,NA,NA,92.12007504690432
55734,St. Louis County,MN,NA,NA,88.74296435272045
55746,St. Louis County,MN,NA,NA,30.0187617260788
55792,St. Louis County,MN,40.174672489082965,NA,NA
55807,St. Louis County,MN,NA,54.72560975609756,NA
55808,St. Louis County,MN,NA,71.95121951219512,NA
55912,Mower County,MN,NA,5.0304878048780495,NA
55987,Winona County,MN,NA,81.25,NA
56156,Rock County,MN,NA,81.5548780487805,NA
56304,Sherburne County,MN,NA,NA,77.6735459662289
56308,Douglas County,MN,NA,14.329268292682926,NA
56362,Stearns County,MN,NA,NA,82.92682926829268
56377,Stearns County,MN,NA,NA,66.79174484052533
56401,Crow Wing County,MN,NA,NA,3.0018761726078798
56482,Wadena County,MN,NA,56.09756097560976,NA
56557,Norman County,MN,NA,NA,99.812382739212
56560,Clay County,MN,NA,26.82926829268293,NA
56573,Otter Tail County,MN,NA,71.79878048780488,NA
56649,Koochiching County,MN,NA,80.33536585365853,NA
56701,Pennington County,MN,NA,25.45731707317073,NA
38666,Panola County,MS,NA,NA,92.6829268292683
38851,Chickasaw County,MS,NA,90.39634146341463,NA
38852,Tishomingo County,MS,NA,92.22560975609755,NA
38863,Pontotoc County,MS,68.5589519650655,NA,NA
39204,Hinds County,MS,26.200873362445414,NA,90.43151969981238
39211,Hinds County,MS,NA,NA,39.587242026266416
39455,Lamar County,MS,NA,93.29268292682927,NA
39507,Harrison County,MS,NA,NA,45.590994371482175
39520,Hancock County,MS,NA,69.35975609756098,NA
39531,Harrison County,MS,NA,44.05487804878049,NA
63011,St. Louis County,MO,NA,NA,3.564727954971857
63021,St. Louis County,MO,NA,NA,9.00562851782364
63033,St. Louis County,MO,NA,NA,6.566604127579738
63042,St. Louis County,MO,NA,NA,99.62476547842401
63044,St. Louis County,MO,NA,NA,53.84615384615385
63050,Jefferson County,MO,NA,67.53048780487805,NA
63052,Jefferson County,MO,NA,NA,87.4296435272045
63107,St. Louis city,MO,NA,NA,75.23452157598499
63109,St. Louis city,MO,NA,NA,95.87242026266416
63114,St. Louis County,MO,NA,NA,39.9624765478424
63126,St. Louis County,MO,99.12663755458514,NA,49.15572232645403
63131,St. Louis County,MO,NA,71.03658536585365,NA
63136,St. Louis County,MO,NA,12.042682926829269,NA
63146,St. Louis County,MO,NA,34.146341463414636,NA
63301,St. Charles County,MO,NA,24.847560975609756,NA
63304,St. Charles County,MO,64.19213973799127,NA,NA
63366,St. Charles County,MO,15.72052401746725,NA,NA
63367,St. Charles County,MO,NA,NA,59.66228893058161
63368,St. Charles County,MO,NA,NA,17.4484052532833
63376,St. Charles County,MO,NA,1.676829268292683,NA
63383,Warren County,MO,NA,NA,46.529080675422144
63385,St. Charles County,MO,NA,NA,18.386491557223263
63389,Lincoln County,MO,91.70305676855895,NA,NA
63650,Iron County,MO,NA,NA,98.12382739212008
63780,Scott County,MO,95.63318777292577,NA,NA
63830,Pemiscot County,MO,NA,81.70731707317073,NA
63877,Pemiscot County,MO,NA,98.01829268292683,NA
64030,Jackson County,MO,NA,NA,42.589118198874296
64056,Jackson County,MO,NA,54.87804878048781,NA
64057,Jackson County,MO,NA,NA,54.78424015009381
64106,Jackson County,MO,30.131004366812224,NA,NA
64503,Buchanan County,MO,NA,32.926829268292686,46.34146341463415
64601,Livingston County,MO,53.711790393013104,83.6890243902439,NA
64683,Grundy County,MO,NA,82.6219512195122,NA
64831,McDonald County,MO,94.75982532751091,NA,NA
64836,Jasper County,MO,NA,NA,88.36772983114447
64870,Jasper County,MO,NA,NA,69.60600375234522
65201,Boone County,MO,NA,NA,53.65853658536586
65536,Laclede County,MO,NA,NA,28.517823639774857
65613,Polk County,MO,93.01310043668121,NA,NA
65653,Taney County,MO,NA,NA,82.73921200750469
65704,Wright County,MO,93.88646288209607,NA,NA
65714,Christian County,MO,52.838427947598255,NA,NA
65791,Oregon County,MO,NA,NA,96.99812382739212
65803,Greene County,MO,NA,13.719512195121952,NA
59270,Richland County,MT,NA,62.80487804878049,NA
59405,Cascade County,MT,NA,17.378048780487802,7.6923076923076925
59701,Silver Bow County,MT,NA,37.042682926829265,NA
59718,Gallatin County,MT,NA,88.5670731707317,NA
59911,Flathead County,MT,NA,NA,55.34709193245778
68047,Wayne County,NE,NA,99.54268292682927,NA
68122,Douglas County,NE,NA,NA,97.74859287054409
68123,Sarpy County,NE,NA,44.359756097560975,NA
68124,Douglas County,NE,NA,NA,98.68667917448406
68128,Sarpy County,NE,NA,NA,82.17636022514071
68355,Richardson County,NE,91.26637554585153,NA,NA
68502,Lancaster County,NE,73.36244541484717,NA,NA
68510,Lancaster County,NE,NA,NA,77.4859287054409
68901,Adams County,NE,NA,42.3780487804878,NA
69337,Dawes County,NE,NA,79.11585365853658,NA
89131,Clark County,NV,NA,NA,75.42213883677297
89423,Douglas County,NV,NA,NA,93.62101313320825
89433,Washoe County,NV,43.66812227074236,NA,NA
89502,Washoe County,NV,NA,NA,36.772983114446525
89512,Washoe County,NV,NA,NA,78.79924953095684
03045,Hillsborough County,NH,NA,NA,61.91369606003752
03060,Hillsborough County,NH,NA,NA,19.136960600375236
03079,Rockingham County,NH,NA,NA,27.954971857410882
03102,Hillsborough County,NH,NA,16.3109756097561,37.148217636022515
03103,Hillsborough County,NH,NA,NA,74.10881801125704
03104,Hillsborough County,NH,NA,65.39634146341463,NA
03234,Merrimack County,NH,NA,98.17073170731707,NA
03244,Hillsborough County,NH,NA,81.85975609756098,NA
03458,Hillsborough County,NH,NA,NA,88.55534709193246
03848,Rockingham County,NH,75.9825327510917,NA,NA
03874,Rockingham County,NH,NA,55.94512195121951,81.05065666041276
03894,Carroll County,NH,NA,93.75,NA
07043,Essex County,NJ,NA,NA,96.06003752345215
07047,Hudson County,NJ,NA,NA,6.378986866791744
07052,Essex County,NJ,NA,NA,18.94934333958724
07087,Hudson County,NJ,NA,6.25,NA
07422,Sussex County,NJ,NA,95.27439024390245,NA
07424,Passaic County,NJ,NA,78.20121951219512,NA
07601,Bergen County,NJ,8.296943231441048,NA,NA
07652,Bergen County,NJ,NA,NA,45.40337711069418
07666,Bergen County,NJ,NA,NA,15.572232645403378
07724,Monmouth County,NJ,28.82096069868996,NA,NA
07901,Union County,NJ,NA,NA,93.80863039399625
08069,Salem County,NJ,NA,45.426829268292686,NA
08087,Ocean County,NJ,NA,16.463414634146343,15.196998123827393
08096,Gloucester County,NJ,NA,NA,17.823639774859288
08103,Camden County,NJ,6.11353711790393,NA,NA
87109,Bernalillo County,NM,NA,NA,10.881801125703564
87111,Bernalillo County,NM,NA,NA,3.9399624765478425
87114,Bernalillo County,NM,NA,89.17682926829268,NA
87508,Santa Fe County,NM,NA,51.52439024390244,NA
88001,Doa Ana County,NM,NA,NA,50.093808630394
88240,Lea County,NM,NA,19.664634146341463,NA
88260,Lea County,NM,NA,39.02439024390244,NA
10001,New York County,NY,44.54148471615721,NA,NA
10002,New York County,NY,NA,3.6585365853658534,NA
10009,New York County,NY,NA,5.7926829268292686,NA
10023,New York County,NY,NA,15.396341463414634,3.377110694183865
10025,New York County,NY,NA,NA,1.876172607879925
10026,New York County,NY,NA,NA,85.55347091932458
10028,New York County,NY,NA,NA,21.76360225140713
10031,New York County,NY,NA,NA,24.390243902439025
10306,Richmond County,NY,NA,16.920731707317074,NA
10455,Bronx County,NY,NA,11.73780487804878,NA
10457,Bronx County,NY,NA,0.45731707317073167,11.069418386491558
10458,Bronx County,NY,1.3100436681222707,NA,NA
10459,Bronx County,NY,NA,NA,27.5797373358349
10461,Bronx County,NY,NA,NA,27.204502814258912
10466,Bronx County,NY,NA,2.4390243902439024,NA
10467,Bronx County,NY,1.7467248908296942,NA,NA
10701,Westchester County,NY,NA,26.067073170731707,24.015009380863038
10940,Orange County,NY,NA,15.548780487804878,NA
11210,Kings County,NY,NA,23.170731707317074,NA
11212,Kings County,NY,2.1834061135371177,NA,NA
11229,Kings County,NY,NA,21.341463414634145,NA
11230,Kings County,NY,NA,58.6890243902439,NA
11235,Kings County,NY,NA,NA,0.9380863039399625
11236,Kings County,NY,NA,9.146341463414634,NA
11426,Queens County,NY,NA,NA,65.66604127579737
11558,Nassau County,NY,NA,77.4390243902439,NA
11576,Nassau County,NY,NA,NA,62.10131332082551
11738,Suffolk County,NY,NA,87.65243902439023,NA
11740,Suffolk County,NY,NA,NA,86.67917448405254
11741,Suffolk County,NY,NA,63.87195121951219,NA
11743,Suffolk County,NY,NA,NA,15.0093808630394
11763,Suffolk County,NY,NA,45.426829268292686,NA
11768,Suffolk County,NY,NA,83.07926829268293,NA
11771,Nassau County,NY,NA,NA,95.49718574108817
11779,Suffolk County,NY,NA,NA,38.46153846153847
11937,Suffolk County,NY,NA,95.88414634146342,NA
11952,Suffolk County,NY,NA,97.71341463414635,NA
12018,Rensselaer County,NY,NA,NA,87.8048780487805
12051,Greene County,NY,NA,99.08536585365853,NA
12210,Albany County,NY,NA,95.27439024390245,NA
12401,Ulster County,NY,24.890829694323145,NA,NA
12477,Ulster County,NY,NA,88.10975609756098,NA
12834,Washington County,NY,72.48908296943232,NA,NA
12839,Washington County,NY,NA,NA,84.24015009380864
12901,Clinton County,NY,21.83406113537118,NA,NA
13027,Onondaga County,NY,NA,17.22560975609756,NA
13032,Madison County,NY,NA,43.59756097560975,NA
13039,Onondaga County,NY,76.85589519650655,NA,NA
13045,Cortland County,NY,NA,11.585365853658537,41.651031894934334
13069,Oswego County,NY,NA,12.957317073170731,NA
13203,Onondaga County,NY,NA,NA,70.73170731707317
13209,Onondaga County,NY,50.65502183406113,NA,NA
13601,Jefferson County,NY,66.8122270742358,NA,NA
13760,Broome County,NY,NA,0,NA
13856,Delaware County,NY,54.58515283842795,NA,NA
14067,Niagara County,NY,82.96943231441048,NA,NA
14075,Erie County,NY,NA,6.859756097560976,NA
14220,Erie County,NY,63.31877729257642,NA,NA
14468,Monroe County,NY,NA,NA,42.77673545966229
14489,Wayne County,NY,NA,NA,53.09568480300187
14505,Wayne County,NY,NA,67.83536585365853,NA
14522,Wayne County,NY,NA,61.28048780487805,NA
14572,Steuben County,NY,NA,NA,92.87054409005628
14586,Monroe County,NY,NA,63.109756097560975,NA
14590,Wayne County,NY,77.29257641921397,NA,NA
14620,Monroe County,NY,7.860262008733625,NA,NA
14624,Monroe County,NY,NA,2.7439024390243905,NA
14701,Chautauqua County,NY,NA,1.8292682926829267,NA
14823,Steuben County,NY,NA,78.35365853658537,NA
14892,Tioga County,NY,NA,55.33536585365854,NA
14905,Chemung County,NY,NA,93.14024390243902,NA
27012,Forsyth County,NC,NA,5.335365853658536,NA
27028,Davie County,NC,NA,36.1280487804878,NA
27030,Surry County,NC,NA,1.2195121951219512,NA
27043,Stokes County,NC,NA,84.14634146341463,NA
27103,Forsyth County,NC,NA,36.73780487804878,1.3133208255159476
27104,Forsyth County,NC,NA,32.77439024390244,2.25140712945591
27105,Forsyth County,NC,NA,NA,8.067542213883677
27106,Forsyth County,NC,NA,3.8109756097560976,NA
27203,Randolph County,NC,NA,47.5609756097561,NA
27215,Alamance County,NC,13.100436681222707,NA,NA
27253,Alamance County,NC,NA,68.59756097560977,NA
27263,Randolph County,NC,76.41921397379913,NA,67.91744840525328
27288,Rockingham County,NC,17.903930131004365,NA,NA
27292,Davidson County,NC,NA,NA,4.50281425891182
27295,Davidson County,NC,NA,4.115853658536586,NA
27302,Alamance County,NC,31.4410480349345,NA,NA
27320,Rockingham County,NC,14.847161572052403,11.28048780487805,NA
27360,Davidson County,NC,4.8034934497816595,NA,NA
27502,Wake County,NC,NA,NA,56.66041275797373
27509,Granville County,NC,NA,87.8048780487805,NA
27511,Wake County,NC,NA,31.859756097560975,NA
27519,Wake County,NC,NA,NA,50.65666041275797
27522,Granville County,NC,NA,70.1219512195122,NA
27530,Wayne County,NC,NA,22.408536585365855,NA
27574,Person County,NC,NA,52.743902439024396,NA
27576,Johnston County,NC,NA,78.65853658536585,NA
27701,Durham County,NC,NA,81.09756097560977,NA
27703,Durham County,NC,13.537117903930133,NA,27.01688555347092
27858,Pitt County,NC,NA,NA,50.84427767354597
27893,Wilson County,NC,NA,NA,34.8968105065666
27948,Dare County,NC,NA,85.67073170731707,NA
27949,Dare County,NC,NA,75.76219512195121,NA
28043,Rutherford County,NC,42.79475982532751,NA,NA
28052,Gaston County,NC,NA,27.134146341463417,45.21575984990619
28112,Union County,NC,NA,NA,36.58536585365854
28124,Cabarrus County,NC,NA,91.61585365853658,NA
28146,Rowan County,NC,NA,NA,38.46153846153847
28170,Anson County,NC,NA,NA,72.79549718574108
28205,Mecklenburg County,NC,NA,NA,78.98686679174483
28270,Mecklenburg County,NC,NA,NA,50.28142589118198
28303,Cumberland County,NC,NA,NA,47.84240150093809
28305,Cumberland County,NC,NA,76.3719512195122,NA
28328,Sampson County,NC,37.117903930131,NA,NA
28358,Robeson County,NC,20.52401746724891,28.96341463414634,NA
28364,Robeson County,NC,46.724890829694324,NA,NA
28403,New Hanover County,NC,NA,NA,33.39587242026266
28433,Bladen County,NC,NA,NA,87.2420262664165
28467,Brunswick County,NC,NA,NA,66.60412757973734
28532,Craven County,NC,74.67248908296943,NA,NA
28625,Iredell County,NC,NA,20.27439024390244,NA
28645,Caldwell County,NC,5.240174672489083,NA,76.54784240150094
28650,Catawba County,NC,NA,NA,63.03939962476548
28655,Burke County,NC,NA,5.182926829268292,NA
28658,Catawba County,NC,NA,71.34146341463415,NA
28716,Haywood County,NC,NA,39.63414634146341,NA
28752,McDowell County,NC,NA,15.24390243902439,NA
28779,Jackson County,NC,86.02620087336244,NA,NA
28904,Clay County,NC,NA,85.82317073170732,NA
58078,Cass County,ND,NA,NA,18.19887429643527
58501,Burleigh County,ND,NA,NA,10.131332082551594
58504,Burleigh County,ND,NA,NA,19.887429643527206
58554,Morton County,ND,39.737991266375545,NA,43.52720450281426
43015,Delaware County,OH,NA,7.774390243902439,NA
43026,Franklin County,OH,NA,NA,48.21763602251407
43044,Champaign County,OH,NA,93.90243902439023,NA
43125,Franklin County,OH,NA,58.536585365853654,NA
43209,Franklin County,OH,NA,34.90853658536585,NA
43213,Franklin County,OH,NA,18.445121951219512,NA
43214,Franklin County,OH,NA,NA,48.030018761726076
43220,Franklin County,OH,NA,NA,41.83864915572232
43221,Franklin County,OH,NA,40.54878048780488,NA
43228,Franklin County,OH,NA,NA,22.5140712945591
43302,Marion County,OH,NA,NA,72.04502814258912
43334,Morrow County,OH,NA,58.079268292682926,NA
43420,Sandusky County,OH,NA,NA,23.827392120075046
43452,Ottawa County,OH,47.59825327510917,NA,NA
43517,Williams County,OH,NA,96.95121951219512,NA
43551,Wood County,OH,NA,NA,13.320825515947469
43571,Lucas County,OH,NA,74.84756097560977,NA
43605,Lucas County,OH,NA,NA,56.47279549718574
43613,Lucas County,OH,NA,90.70121951219512,NA
43614,Lucas County,OH,NA,12.347560975609756,NA
43615,Lucas County,OH,NA,5.640243902439025,NA
43812,Coshocton County,OH,NA,8.384146341463415,NA
43964,Jefferson County,OH,NA,31.097560975609756,NA
44004,Ashtabula County,OH,NA,40.54878048780488,1.6885553470919326
44011,Lorain County,OH,65.06550218340611,NA,NA
44012,Lorain County,OH,NA,7.926829268292683,NA
44022,Cuyahoga County,OH,NA,60.97560975609756,NA
44023,Geauga County,OH,95.19650655021834,NA,NA
44030,Ashtabula County,OH,NA,48.78048780487805,NA
44035,Lorain County,OH,NA,NA,0
44041,Ashtabula County,OH,NA,34.603658536585364,NA
44056,Summit County,OH,NA,55.79268292682927,NA
44057,Lake County,OH,NA,51.829268292682926,NA
44070,Cuyahoga County,OH,NA,6.402439024390244,NA
44077,Lake County,OH,NA,NA,9.193245778611631
44095,Lake County,OH,NA,39.9390243902439,NA
44102,Cuyahoga County,OH,0.8733624454148471,2.8963414634146343,NA
44103,Cuyahoga County,OH,NA,14.786585365853657,NA
44105,Cuyahoga County,OH,NA,0.3048780487804878,NA
44109,Cuyahoga County,OH,25.76419213973799,NA,4.878048780487805
44111,Cuyahoga County,OH,NA,3.201219512195122,NA
44121,Cuyahoga County,OH,NA,NA,58.16135084427767
44124,Cuyahoga County,OH,NA,56.40243902439024,NA
44125,Cuyahoga County,OH,79.91266375545851,NA,80.67542213883677
44128,Cuyahoga County,OH,3.9301310043668125,1.524390243902439,NA
44130,Cuyahoga County,OH,NA,NA,0.18761726078799248
44137,Cuyahoga County,OH,NA,11.432926829268293,NA
44139,Cuyahoga County,OH,45.414847161572055,NA,NA
44145,Cuyahoga County,OH,NA,5.945121951219512,NA
44147,Cuyahoga County,OH,NA,28.810975609756095,NA
44202,Portage County,OH,NA,54.268292682926834,NA
44212,Medina County,OH,NA,50.30487804878049,NA
44224,Summit County,OH,NA,10.060975609756099,NA
44230,Wayne County,OH,86.8995633187773,NA,NA
44266,Portage County,OH,12.22707423580786,NA,NA
44270,Wayne County,OH,62.44541484716157,NA,NA
44305,Summit County,OH,NA,80.79268292682927,NA
44319,Summit County,OH,NA,24.085365853658537,NA
44321,Summit County,OH,NA,NA,69.7936210131332
44460,Columbiana County,OH,NA,36.28048780487805,NA
44473,Trumbull County,OH,NA,NA,92.4953095684803
44514,Mahoning County,OH,NA,NA,22.326454033771107
44601,Stark County,OH,10.480349344978166,NA,NA
44614,Stark County,OH,78.16593886462883,NA,NA
44646,Stark County,OH,NA,14.02439024390244,19.51219512195122
44691,Wayne County,OH,NA,NA,13.50844277673546
44705,Stark County,OH,NA,35.36585365853659,NA
44830,Seneca County,OH,NA,29.268292682926827,NA
44870,Erie County,OH,NA,NA,4.690431519699812
45011,Butler County,OH,3.056768558951965,NA,NA
45042,Butler County,OH,NA,NA,45.77861163227016
45068,Warren County,OH,NA,68.75,NA
45069,Butler County,OH,NA,18.75,NA
45123,Highland County,OH,NA,59.60365853658537,NA
45140,Clermont County,OH,NA,16.158536585365855,NA
45154,Brown County,OH,NA,NA,97.5609756097561
45157,Clermont County,OH,NA,97.10365853658537,NA
45202,Hamilton County,OH,24.017467248908297,NA,NA
45208,Hamilton County,OH,NA,96.4939024390244,NA
45211,Hamilton County,OH,NA,NA,39.39962476547842
45215,Hamilton County,OH,NA,NA,83.30206378986867
45233,Hamilton County,OH,NA,67.07317073170732,NA
45238,Hamilton County,OH,NA,NA,41.46341463414634
45240,Hamilton County,OH,NA,NA,51.594746716697934
45324,Greene County,OH,NA,18.140243902439025,NA
45342,Montgomery County,OH,NA,11.128048780487806,NA
45347,Preble County,OH,NA,85.0609756097561,NA
45381,Preble County,OH,NA,71.4939024390244,NA
45424,Montgomery County,OH,NA,NA,7.5046904315197
45431,Montgomery County,OH,49.78165938864629,NA,NA
45449,Montgomery County,OH,37.55458515283843,NA,NA
45503,Clark County,OH,NA,14.176829268292682,NA
45601,Ross County,OH,7.423580786026202,3.9634146341463414,6.941838649155723
45640,Jackson County,OH,NA,7.164634146341463,NA
45648,Scioto County,OH,86.46288209606988,NA,NA
45651,Vinton County,OH,NA,NA,79.36210131332082
45652,Scioto County,OH,98.2532751091703,NA,NA
45661,Pike County,OH,NA,72.5609756097561,NA
45662,Scioto County,OH,NA,20.121951219512198,NA
45750,Washington County,OH,NA,33.53658536585366,16.69793621013133
45764,Athens County,OH,NA,67.83536585365853,NA
45840,Hancock County,OH,NA,3.50609756097561,NA
45891,Van Wert County,OH,31.004366812227076,NA,NA
73005,Caddo County,OK,NA,NA,78.23639774859286
73008,Oklahoma County,OK,89.08296943231441,NA,NA
73036,Canadian County,OK,75.10917030567686,NA,NA
73064,Canadian County,OK,NA,NA,75.046904315197
73111,Oklahoma County,OK,88.64628820960698,NA,NA
73115,Oklahoma County,OK,58.07860262008734,NA,NA
73120,Oklahoma County,OK,NA,NA,16.322701688555348
73162,Oklahoma County,OK,NA,NA,20.637898686679172
73533,Stephens County,OK,NA,14.634146341463413,82.36397748592871
73750,Kingfisher County,OK,97.37991266375546,NA,NA
74010,Creek County,OK,NA,NA,93.24577861163228
74053,Rogers County,OK,NA,90.85365853658537,NA
74074,Payne County,OK,NA,39.78658536585366,NA
74126,Tulsa County,OK,NA,NA,96.81050656660413
74127,Tulsa County,OK,NA,64.32926829268293,NA
74365,Mayes County,OK,NA,NA,93.43339587242026
74435,Sequoyah County,OK,NA,100,NA
74451,Cherokee County,OK,96.94323144104804,NA,NA
74462,Haskell County,OK,79.47598253275109,NA,NA
74578,Latimer County,OK,NA,NA,96.24765478424015
97006,Washington County,OR,NA,30.79268292682927,NA
97007,Washington County,OR,NA,28.04878048780488,NA
97008,Washington County,OR,NA,NA,38.08630393996248
97016,Columbia County,OR,96.06986899563319,NA,NA
97024,Multnomah County,OR,NA,66.92073170731707,NA
97027,Clackamas County,OR,NA,75.91463414634147,NA
97034,Clackamas County,OR,NA,NA,37.5234521575985
97048,Columbia County,OR,90.82969432314411,NA,NA
97058,Wasco County,OR,NA,29.573170731707314,NA
97146,Clatsop County,OR,NA,69.8170731707317,NA
97209,Multnomah County,OR,NA,58.993902439024396,NA
97214,Multnomah County,OR,NA,76.52439024390245,NA
97222,Clackamas County,OR,NA,NA,44.652908067542214
97303,Marion County,OR,NA,46.03658536585366,NA
97330,Benton County,OR,55.45851528384279,NA,NA
97370,Benton County,OR,NA,97.5609756097561,NA
97386,Linn County,OR,NA,92.6829268292683,NA
97501,Jackson County,OR,11.790393013100436,NA,NA
97523,Josephine County,OR,NA,91.76829268292683,NA
97601,Klamath County,OR,NA,13.109756097560975,NA
97707,Deschutes County,OR,NA,83.53658536585365,NA
97814,Baker County,OR,NA,42.98780487804878,NA
97913,Malheur County,OR,NA,NA,100
97914,Malheur County,OR,26.637554585152838,NA,NA
15065,Allegheny County,PA,NA,62.19512195121951,44.8405253283302
15143,Allegheny County,PA,NA,44.359756097560975,NA
15147,Allegheny County,PA,NA,NA,21.200750469043154
15205,Allegheny County,PA,NA,55.1829268292683,NA
15206,Allegheny County,PA,NA,22.5609756097561,NA
15210,Allegheny County,PA,NA,NA,50.469043151969984
15212,Allegheny County,PA,NA,37.5,NA
15217,Allegheny County,PA,NA,22.713414634146343,NA
15220,Allegheny County,PA,NA,NA,54.59662288930581
15224,Allegheny County,PA,NA,97.2560975609756,NA
15317,Washington County,PA,NA,37.80487804878049,NA
15522,Bedford County,PA,NA,44.96951219512195,NA
15537,Bedford County,PA,NA,60.670731707317074,NA
15601,Westmoreland County,PA,NA,15.091463414634147,NA
15825,Jefferson County,PA,NA,73.47560975609755,NA
15851,Jefferson County,PA,NA,56.55487804878049,NA
15905,Cambria County,PA,NA,NA,23.452157598499063
16001,Butler County,PA,NA,2.591463414634146,25.70356472795497
16002,Butler County,PA,NA,NA,32.4577861163227
16025,Butler County,PA,90.39301310043668,NA,NA
16053,Butler County,PA,NA,NA,90.2439024390244
16055,Butler County,PA,NA,94.35975609756098,NA
16101,Lawrence County,PA,NA,8.079268292682928,NA
16102,Lawrence County,PA,NA,NA,99.24953095684803
16105,Lawrence County,PA,NA,NA,12.570356472795496
16159,Mercer County,PA,NA,82.01219512195121,NA
16417,Erie County,PA,NA,84.60365853658537,NA
16601,Blair County,PA,NA,35.670731707317074,NA
16648,Blair County,PA,NA,35.0609756097561,NA
17003,Lebanon County,PA,51.52838427947598,NA,NA
17013,Cumberland County,PA,NA,17.073170731707318,NA
17032,Dauphin County,PA,87.77292576419214,NA,NA
17042,Lebanon County,PA,NA,6.707317073170732,NA
17201,Franklin County,PA,NA,21.646341463414632,NA
17701,Lycoming County,PA,NA,65.70121951219512,NA
17777,Northumberland County,PA,NA,91.92073170731707,NA
17801,Northumberland County,PA,NA,22.25609756097561,NA
17821,Montour County,PA,27.074235807860266,NA,NA
17872,Northumberland County,PA,NA,NA,90.61913696060037
18015,Northampton County,PA,NA,NA,15.947467166979362
18017,Northampton County,PA,NA,26.371951219512198,NA
18080,Lehigh County,PA,48.90829694323144,NA,NA
18104,Lehigh County,PA,NA,59.45121951219512,NA
18224,Luzerne County,PA,NA,81.40243902439023,NA
18301,Monroe County,PA,36.24454148471616,NA,NA
18302,Monroe County,PA,NA,60.82317073170732,NA
18424,Lackawanna County,PA,NA,NA,94.18386491557223
18509,Lackawanna County,PA,56.76855895196506,NA,NA
18603,Columbia County,PA,NA,18.29268292682927,NA
18706,Luzerne County,PA,NA,NA,36.96060037523452
19001,Montgomery County,PA,NA,75.3048780487805,NA
19004,Montgomery County,PA,NA,NA,91.93245778611632
19007,Bucks County,PA,NA,61.58536585365854,NA
19018,Delaware County,PA,29.257641921397383,NA,NA
19026,Delaware County,PA,NA,33.079268292682926,NA
19031,Montgomery County,PA,NA,NA,96.62288930581614
19038,Montgomery County,PA,38.427947598253276,NA,NA
19063,Delaware County,PA,NA,NA,11.819887429643527
19067,Bucks County,PA,NA,8.99390243902439,NA
19083,Delaware County,PA,NA,14.939024390243901,NA
19090,Montgomery County,PA,NA,74.08536585365853,NA
19114,Philadelphia County,PA,NA,NA,23.264540337711072
19120,Philadelphia County,PA,4.366812227074235,NA,NA
19122,Philadelphia County,PA,NA,69.8170731707317,NA
19126,Philadelphia County,PA,34.49781659388647,NA,57.97373358348968
19135,Philadelphia County,PA,19.65065502183406,NA,NA
19139,Philadelphia County,PA,NA,NA,20.825515947467167
19140,Philadelphia County,PA,NA,10.670731707317072,NA
19145,Philadelphia County,PA,NA,13.414634146341465,NA
19146,Philadelphia County,PA,NA,57.77439024390244,NA
19148,Philadelphia County,PA,NA,64.9390243902439,NA
19154,Philadelphia County,PA,NA,53.04878048780488,NA
19355,Chester County,PA,44.10480349344978,NA,NA
19380,Chester County,PA,NA,NA,2.8142589118198873
19422,Montgomery County,PA,NA,68.4451219512195,NA
19530,Berks County,PA,NA,63.109756097560975,NA
19606,Berks County,PA,NA,6.097560975609756,NA
19608,Berks County,PA,NA,24.23780487804878,NA
02816,Kent County,RI,NA,16.00609756097561,NA
02860,Providence County,RI,NA,NA,31.51969981238274
02861,Providence County,RI,NA,83.9939024390244,NA
02864,Providence County,RI,NA,NA,10.506566604127581
02889,Kent County,RI,NA,19.054878048780488,NA
02893,Kent County,RI,NA,NA,38.83677298311445
02903,Providence County,RI,80.78602620087337,NA,NA
29047,Orangeburg County,SC,NA,95.1219512195122,NA
29108,Newberry County,SC,NA,49.542682926829265,NA
29301,Spartanburg County,SC,NA,36.43292682926829,NA
29407,Charleston County,SC,NA,NA,52.72045028142589
29445,Berkeley County,SC,NA,26.676829268292686,NA
29464,Charleston County,SC,NA,NA,16.51031894934334
29466,Charleston County,SC,NA,50.91463414634146,NA
29486,Berkeley County,SC,NA,48.170731707317074,NA
29566,Horry County,SC,NA,NA,56.84803001876173
29576,Horry County,SC,NA,13.871951219512196,NA
29588,Horry County,SC,NA,NA,26.26641651031895
29611,Greenville County,SC,NA,NA,30.393996247654787
29620,Abbeville County,SC,NA,63.5670731707317,NA
29621,Anderson County,SC,NA,54.11585365853659,NA
29624,Anderson County,SC,41.04803493449782,NA,NA
29640,Pickens County,SC,NA,NA,32.645403377110696
29645,Laurens County,SC,70.3056768558952,NA,NA
29649,Greenwood County,SC,NA,NA,16.135084427767353
29707,Lancaster County,SC,NA,47.71341463414634,NA
29730,York County,SC,23.144104803493452,NA,NA
29902,Beaufort County,SC,NA,63.41463414634146,NA
57006,Brookings County,SD,NA,NA,14.258911819887429
57042,Lake County,SD,NA,73.9329268292683,NA
57104,Minnehaha County,SD,NA,7.621951219512195,NA
37027,Williamson County,TN,NA,NA,19.324577861163228
37030,Smith County,TN,77.72925764192141,NA,NA
37075,Sumner County,TN,NA,NA,9.568480300187618
37082,Cheatham County,TN,NA,92.83536585365853,NA
37127,Rutherford County,TN,NA,73.78048780487805,NA
37160,Bedford County,TN,23.144104803493452,NA,NA
37167,Rutherford County,TN,NA,25.76219512195122,NA
37203,Davidson County,TN,NA,85.51829268292683,NA
37321,Rhea County,TN,NA,NA,65.29080675422139
37355,Coffee County,TN,NA,87.04268292682927,NA
37367,Bledsoe County,TN,65.50218340611353,61.890243902439025,NA
37377,Hamilton County,TN,NA,NA,51.969981238273924
37404,Hamilton County,TN,NA,73.01829268292683,NA
37659,Washington County,TN,39.30131004366812,NA,NA
37663,Sullivan County,TN,NA,NA,72.6078799249531
37807,Union County,TN,NA,77.28658536585365,NA
37821,Cocke County,TN,NA,28.65853658536585,NA
37849,Knox County,TN,NA,NA,76.92307692307693
37874,Monroe County,TN,NA,51.0670731707317,NA
37917,Knox County,TN,21.397379912663755,NA,NA
37920,Knox County,TN,NA,NA,34.146341463414636
38024,Dyer County,TN,NA,NA,51.78236397748592
38063,Lauderdale County,TN,NA,NA,67.3545966228893
38135,Shelby County,TN,NA,NA,71.48217636022514
38242,Henry County,TN,NA,36.890243902439025,NA
38462,Lewis County,TN,NA,98.32317073170732,NA
38464,Lawrence County,TN,NA,NA,43.151969981238274
38583,White County,TN,59.82532751091703,NA,NA
75006,Dallas County,TX,NA,83.38414634146342,NA
75021,Grayson County,TX,NA,NA,81.42589118198875
75040,Dallas County,TX,NA,NA,21.013133208255162
75050,Dallas County,TX,NA,49.390243902439025,NA
75061,Dallas County,TX,82.09606986899564,NA,NA
75062,Dallas County,TX,NA,66.0060975609756,NA
75146,Dallas County,TX,NA,NA,64.16510318949344
75159,Dallas County,TX,71.17903930131004,NA,NA
75181,Dallas County,TX,55.895196506550214,NA,NA
75211,Dallas County,TX,NA,23.78048780487805,NA
75216,Dallas County,TX,NA,10.975609756097562,NA
75232,Dallas County,TX,NA,41.3109756097561,NA
75243,Dallas County,TX,19.213973799126638,NA,NA
75551,Cass County,TX,NA,NA,71.66979362101313
75604,Gregg County,TX,NA,NA,72.23264540337712
75647,Gregg County,TX,63.75545851528385,NA,NA
75662,Gregg County,TX,NA,NA,76.73545966228893
75701,Smith County,TX,NA,64.63414634146342,NA
75703,Smith County,TX,68.12227074235808,NA,NA
75704,Smith County,TX,NA,90.09146341463415,NA
75707,Smith County,TX,NA,NA,34.709193245778614
75766,Cherokee County,TX,NA,9.908536585365853,53.47091932457786
75803,Anderson County,TX,67.24890829694323,NA,NA
76013,Tarrant County,TX,NA,NA,29.643527204502814
76040,Tarrant County,TX,50.21834061135371,NA,NA
76048,Hood County,TX,NA,65.54878048780488,NA
76180,Tarrant County,TX,NA,NA,31.144465290806757
76208,Denton County,TX,NA,48.47560975609756,NA
76266,Denton County,TX,NA,72.40853658536585,NA
76309,Wichita County,TX,80.34934497816593,NA,NA
76365,Clay County,TX,NA,75,NA
76384,Wilbarger County,TX,NA,57.92682926829268,NA
76401,Erath County,TX,NA,49.69512195121951,NA
76424,Stephens County,TX,NA,71.1890243902439,NA
76501,Bell County,TX,48.47161572052402,NA,NA
76548,Bell County,TX,NA,17.682926829268293,NA
76549,Bell County,TX,NA,84.45121951219512,NA
76567,Milam County,TX,NA,NA,90.80675422138836
76634,Bosque County,TX,NA,86.28048780487805,NA
76645,Hill County,TX,NA,64.78658536585365,NA
76708,McLennan County,TX,NA,93.4451219512195,NA
76712,McLennan County,TX,NA,NA,5.628517823639775
77021,Harris County,TX,NA,NA,91.18198874296435
77024,Harris County,TX,NA,38.71951219512195,NA
77026,Harris County,TX,NA,NA,62.476547842401494
77043,Harris County,TX,83.84279475982532,NA,NA
77060,Harris County,TX,NA,89.78658536585365,NA
77064,Harris County,TX,38.864628820960704,NA,NA
77077,Harris County,TX,NA,NA,37.89868667917448
77083,Harris County,TX,NA,NA,35.0844277673546
77090,Harris County,TX,NA,NA,66.97936210131333
77096,Harris County,TX,NA,NA,51.21951219512195
77302,Montgomery County,TX,72.92576419213974,NA,NA
77318,Montgomery County,TX,NA,69.51219512195121,NA
77379,Harris County,TX,NA,NA,11.632270168855536
77396,Harris County,TX,40.61135371179039,NA,NA
77429,Harris County,TX,NA,NA,25.70356472795497
77511,Brazoria County,TX,NA,NA,17.26078799249531
77515,Brazoria County,TX,53.275109170305676,NA,NA
77539,Galveston County,TX,NA,13.26219512195122,33.02063789868668
77584,Brazoria County,TX,NA,NA,40.71294559099437
77590,Galveston County,TX,17.46724890829694,NA,NA
77630,Orange County,TX,NA,33.6890243902439,NA
77656,Hardin County,TX,NA,NA,64.72795497185741
77706,Jefferson County,TX,NA,NA,79.9249530956848
77845,Brazos County,TX,NA,47.40853658536585,NA
77904,Victoria County,TX,NA,NA,27.392120075046904
78069,Atascosa County,TX,NA,96.79878048780488,NA
78239,Bexar County,TX,62.882096069869,NA,NA
78516,Hidalgo County,TX,NA,NA,56.28517823639775
78520,Cameron County,TX,NA,28.506097560975608,NA
78521,Cameron County,TX,NA,NA,13.133208255159476
78539,Hidalgo County,TX,NA,63.71951219512195,NA
78557,Hidalgo County,TX,NA,NA,95.68480300187618
78636,Blanco County,TX,NA,97.40853658536585,NA
78639,Llano County,TX,NA,73.32317073170732,NA
78641,Williamson County,TX,NA,18.902439024390244,NA
78653,Travis County,TX,NA,88.26219512195121,NA
78861,Medina County,TX,NA,NA,79.73733583489681
79413,Lubbock County,TX,NA,54.420731707317074,NA
79606,Taylor County,TX,NA,NA,65.85365853658537
84015,Davis County,UT,NA,48.01829268292683,NA
84043,Utah County,UT,48.03493449781659,NA,NA
84060,Summit County,UT,NA,NA,89.30581613508443
84123,Salt Lake County,UT,NA,NA,48.405253283302066
84302,Box Elder County,UT,NA,NA,69.04315196998124
05446,Chittenden County,VT,NA,NA,64.35272045028142
05468,Chittenden County,VT,NA,90.54878048780488,NA
05478,Franklin County,VT,NA,33.23170731707317,27.5797373358349
05641,Washington County,VT,NA,28.353658536585364,NA
20176,Loudoun County,VA,NA,NA,81.80112570356472
22193,Prince William County,VA,NA,NA,73.92120075046904
22306,Fairfax County,VA,NA,46.1890243902439,NA
22630,Warren County,VA,27.074235807860266,NA,NA
22701,Culpeper County,VA,NA,19.20731707317073,NA
22849,Page County,VA,NA,87.34756097560977,NA
22973,Greene County,VA,NA,NA,86.86679174484053
23009,King William County,VA,NA,NA,94.93433395872421
23061,Gloucester County,VA,65.93886462882097,NA,NA
23117,Louisa County,VA,NA,NA,91.36960600375235
23185,James City County,VA,NA,NA,0.37523452157598497
23226,Richmond city,VA,NA,57.62195121951219,NA
23231,Henrico County,VA,NA,NA,33.771106941838646
23235,Chesterfield County,VA,NA,NA,23.639774859287055
23320,Chesapeake city,VA,NA,NA,9.380863039399625
23452,Virginia Beach city,VA,NA,NA,8.818011257035648
23455,Virginia Beach city,VA,NA,10.823170731707316,NA
23456,Virginia Beach city,VA,NA,NA,14.821763602251407
23462,Virginia Beach city,VA,NA,NA,4.127579737335835
23502,Norfolk city,VA,36.681222707423586,NA,NA
23505,Norfolk city,VA,NA,NA,35.45966228893058
23518,Norfolk city,VA,NA,NA,18.76172607879925
23606,Newport News city,VA,NA,NA,18.574108818011258
23663,Hampton city,VA,NA,NA,64.35272045028142
23666,Hampton city,VA,14.41048034934498,NA,NA
23704,Portsmouth city,VA,NA,51.67682926829268,NA
23851,Franklin city,VA,NA,NA,41.275797373358344
24012,Roanoke city,VA,NA,89.02439024390245,NA
24014,Roanoke city,VA,NA,62.80487804878049,NA
24018,Roanoke County,VA,89.95633187772926,NA,NA
24054,Henry County,VA,88.20960698689956,NA,NA
24065,Franklin County,VA,NA,NA,97.18574108818011
24112,Henry County,VA,20.96069868995633,NA,NA
24153,Salem city,VA,NA,53.65853658536586,NA
24202,Washington County,VA,NA,NA,70.1688555347092
24256,Dickenson County,VA,NA,89.32926829268293,NA
24426,Alleghany County,VA,89.51965065502183,NA,NA
24550,Campbell County,VA,NA,NA,87.4296435272045
98001,King County,WA,NA,NA,62.10131332082551
98003,King County,WA,NA,NA,60.97560975609756
98004,King County,WA,NA,65.85365853658537,NA
98033,King County,WA,NA,29.573170731707314,NA
98042,King County,WA,NA,NA,59.849906191369605
98146,King County,WA,NA,65.09146341463415,NA
98250,San Juan County,WA,NA,89.48170731707317,NA
98284,Skagit County,WA,NA,82.3170731707317,NA
98354,Pierce County,WA,NA,87.95731707317073,NA
98363,Clallam County,WA,NA,NA,40.90056285178236
98374,Pierce County,WA,NA,40.853658536585364,NA
98445,Pierce County,WA,NA,56.25,NA
98512,Thurston County,WA,84.71615720524017,NA,NA
98520,Grays Harbor County,WA,NA,46.493902439024396,NA
98584,Mason County,WA,34.93449781659388,NA,NA
98629,Clark County,WA,NA,97.86585365853658,NA
98631,Pacific County,WA,98.68995633187772,NA,NA
98686,Clark County,WA,92.13973799126637,NA,NA
98802,Douglas County,WA,NA,NA,56.09756097560976
98837,Grant County,WA,NA,30.48780487804878,NA
98901,Yakima County,WA,NA,46.646341463414636,NA
98953,Yakima County,WA,NA,98.47560975609755,NA
99019,Spokane County,WA,NA,NA,86.11632270168855
99202,Spokane County,WA,61.572052401746724,NA,NA
99336,Benton County,WA,NA,NA,3.75234521575985
99352,Benton County,WA,NA,82.01219512195121,NA
99354,Benton County,WA,NA,NA,57.223264540337716
20002,District of Columbia,DC,NA,9.298780487804878,NA
20020,District of Columbia,DC,NA,7.01219512195122,NA
20037,District of Columbia,DC,NA,99.39024390243902,NA
25053,Boone County,WV,87.33624454148472,NA,NA
25071,Kanawha County,WV,NA,NA,60.787992495309574
25271,Jackson County,WV,NA,NA,60.22514071294559
25302,Kanawha County,WV,56.33187772925764,NA,NA
25304,Kanawha County,WV,NA,72.5609756097561,NA
25309,Kanawha County,WV,69.86899563318777,NA,NA
25414,Jefferson County,WV,NA,NA,58.91181988742964
25504,Cabell County,WV,57.20524017467249,NA,NA
25541,Cabell County,WV,NA,73.01829268292683,NA
25951,Summers County,WV,73.7991266375546,NA,NA
26003,Ohio County,WV,58.951965065502186,20.579268292682926,NA
26301,Harrison County,WV,NA,12.195121951219512,NA
26444,Preston County,WV,NA,98.6280487804878,NA
26508,Monongalia County,WV,NA,6.554878048780488,NA
53050,Dodge County,WI,NA,85.97560975609755,NA
53098,Dodge County,WI,NA,NA,51.40712945590994
53110,Milwaukee County,WI,NA,NA,65.47842401500938
53140,Kenosha County,WI,NA,NA,28.142589118198874
53143,Kenosha County,WI,NA,28.20121951219512,NA
53150,Waukesha County,WI,NA,NA,47.467166979362105
53151,Waukesha County,WI,NA,NA,51.969981238273924
53177,Racine County,WI,NA,67.6829268292683,NA
53182,Racine County,WI,NA,NA,77.86116322701689
53188,Waukesha County,WI,NA,NA,30.95684803001876
53204,Milwaukee County,WI,10.043668122270741,NA,NA
53212,Milwaukee County,WI,NA,15.853658536585366,NA
53215,Milwaukee County,WI,NA,25.304878048780488,NA
53219,Milwaukee County,WI,NA,13.567073170731708,NA
53220,Milwaukee County,WI,NA,25.152439024390244,NA
53222,Milwaukee County,WI,NA,35.51829268292683,NA
53405,Racine County,WI,NA,4.878048780487805,NA
53406,Racine County,WI,NA,2.1341463414634148,NA
53520,Green County,WI,NA,NA,82.55159474671669
53538,Jefferson County,WI,NA,68.14024390243902,NA
53546,Rock County,WI,NA,NA,6.75422138836773
53548,Rock County,WI,27.947598253275107,NA,NA
53563,Rock County,WI,NA,NA,88.93058161350844
53704,Dane County,WI,13.973799126637553,NA,NA
53913,Sauk County,WI,NA,52.89634146341463,NA
53916,Dodge County,WI,NA,43.75,NA
53959,Sauk County,WI,NA,41.46341463414634,NA
54016,St. Croix County,WI,NA,NA,44.46529080675422
54220,Manitowoc County,WI,9.170305676855897,NA,NA
54401,Marathon County,WI,NA,64.48170731707317,NA
54403,Marathon County,WI,NA,29.42073170731707,NA
54501,Oneida County,WI,NA,22.865853658536587,NA
54880,Douglas County,WI,NA,4.2682926829268295,60.0375234521576
82435,Park County,WY,NA,66.15853658536585,NA
82901,Sweetwater County,WY,85.1528384279476,NA,84.9906191369606
