ZipCode,county,state,Adult,Retirement,Geriatric
35040,Shelby County,AL,53.75,NA,NA
35045,Chilton County,AL,NA,70.41800643086816,NA
35404,Tuscaloosa County,AL,14.499999999999998,NA,NA
35634,Lauderdale County,AL,NA,NA,93.46733668341709
35747,Marshall County,AL,NA,NA,96.4824120603015
35961,DeKalb County,AL,95,NA,NA
36093,Elmore County,AL,NA,86.49517684887459,NA
36116,Montgomery County,AL,NA,NA,44.72361809045226
36460,Monroe County,AL,93.75,96.14147909967846,NA
36617,Mobile County,AL,NA,NA,60.30150753768844
36830,Lee County,AL,NA,59.163987138263664,NA
85003,Maricopa County,AZ,NA,92.60450160771704,NA
85021,Maricopa County,AZ,NA,68.48874598070739,NA
85033,Maricopa County,AZ,15.75,NA,NA
85118,Pinal County,AZ,96.75,NA,NA
85120,Pinal County,AZ,NA,30.86816720257235,NA
85138,Pinal County,AZ,43,NA,NA
85140,Pinal County,AZ,NA,NA,93.96984924623115
85206,Maricopa County,AZ,50.24999999999999,NA,NA
85226,Maricopa County,AZ,NA,NA,66.83417085427136
85234,Maricopa County,AZ,34.5,NA,NA
85304,Maricopa County,AZ,55.00000000000001,NA,NA
85361,Maricopa County,AZ,90.5,NA,NA
85374,Maricopa County,AZ,NA,NA,6.030150753768844
85379,Maricopa County,AZ,31.25,NA,NA
85602,Cochise County,AZ,NA,82.31511254019293,NA
85634,Pima County,AZ,NA,65.59485530546624,NA
85635,Cochise County,AZ,NA,90.35369774919614,NA
85714,Pima County,AZ,NA,57.87781350482315,NA
85716,Pima County,AZ,NA,22.829581993569132,NA
85730,Pima County,AZ,NA,63.022508038585215,NA
86303,Yavapai County,AZ,65,NA,NA
86326,Yavapai County,AZ,23.25,NA,NA
86401,Mohave County,AZ,NA,6.752411575562702,NA
86409,Mohave County,AZ,NA,48.55305466237942,NA
86505,Apache County,AZ,65.25,NA,NA
71909,Garland County,AR,NA,28.938906752411576,NA
72032,Faulkner County,AR,43.5,NA,NA
72301,Crittenden County,AR,NA,81.02893890675242,NA
72396,Cross County,AR,NA,NA,64.82412060301507
72432,Poinsett County,AR,95.5,NA,NA
72601,Boone County,AR,NA,27.974276527331188,NA
72958,Scott County,AR,71.5,NA,NA
90016,Los Angeles County,CA,NA,19.935691318327976,NA
90059,Los Angeles County,CA,NA,NA,85.42713567839196
90065,Los Angeles County,CA,NA,31.189710610932476,NA
90068,Los Angeles County,CA,NA,NA,68.34170854271356
90201,Los Angeles County,CA,32.75,NA,NA
90230,Los Angeles County,CA,NA,49.51768488745981,NA
90270,Los Angeles County,CA,NA,NA,74.87437185929649
90503,Los Angeles County,CA,NA,NA,33.165829145728644
90606,Los Angeles County,CA,NA,58.842443729903536,NA
90621,Orange County,CA,NA,NA,60.80402010050251
90638,Los Angeles County,CA,56.99999999999999,NA,NA
90712,Los Angeles County,CA,NA,80.70739549839229,NA
90802,Los Angeles County,CA,NA,67.84565916398714,NA
91042,Los Angeles County,CA,NA,51.446945337620576,NA
91101,Los Angeles County,CA,96,NA,NA
91106,Los Angeles County,CA,NA,83.60128617363344,NA
91307,Los Angeles County,CA,NA,NA,49.246231155778894
91402,Los Angeles County,CA,NA,69.77491961414792,NA
91606,Los Angeles County,CA,NA,83.92282958199357,NA
91732,Los Angeles County,CA,45.75,27.009646302250808,NA
91750,Los Angeles County,CA,NA,NA,31.65829145728643
91762,San Bernardino County,CA,37.5,NA,NA
92007,San Diego County,CA,NA,NA,92.96482412060301
92029,San Diego County,CA,84.75,NA,NA
92040,San Diego County,CA,52,NA,NA
92101,San Diego County,CA,64.5,NA,NA
92115,San Diego County,CA,33.5,NA,NA
92119,San Diego County,CA,NA,75.2411575562701,NA
92154,San Diego County,CA,NA,84.88745980707395,NA
92264,Riverside County,CA,51,NA,NA
92307,San Bernardino County,CA,28.749999999999996,NA,NA
92324,San Bernardino County,CA,20,NA,NA
92325,San Bernardino County,CA,NA,NA,97.48743718592965
92335,San Bernardino County,CA,NA,13.504823151125404,NA
92346,San Bernardino County,CA,NA,NA,52.26130653266332
92352,San Bernardino County,CA,NA,NA,98.49246231155779
92376,San Bernardino County,CA,36,NA,NA
92399,San Bernardino County,CA,31.75,NA,NA
92503,Riverside County,CA,NA,NA,36.68341708542713
92563,Riverside County,CA,NA,38.58520900321543,NA
92570,Riverside County,CA,NA,98.07073954983923,NA
92626,Orange County,CA,46.75,NA,NA
92630,Orange County,CA,NA,16.077170418006432,NA
92647,Orange County,CA,NA,56.59163987138264,NA
92660,Orange County,CA,NA,91.63987138263666,13.5678391959799
92782,Orange County,CA,79.5,NA,NA
92843,Orange County,CA,NA,NA,58.79396984924623
92860,Riverside County,CA,89,NA,NA
92883,Riverside County,CA,66.75,NA,NA
93010,Ventura County,CA,36.25,NA,NA
93015,Ventura County,CA,68.5,NA,NA
93036,Ventura County,CA,64,NA,NA
93060,Ventura County,CA,39.25,NA,NA
93110,Santa Barbara County,CA,NA,88.7459807073955,NA
93631,Fresno County,CA,73,NA,NA
93654,Fresno County,CA,55.75,NA,NA
93727,Fresno County,CA,13.750000000000002,NA,NA
93905,Monterey County,CA,NA,NA,67.8391959798995
94103,San Francisco County,CA,11,NA,NA
94112,San Francisco County,CA,NA,5.466237942122187,NA
94114,San Francisco County,CA,NA,53.37620578778135,NA
94124,San Francisco County,CA,NA,NA,43.21608040201005
94134,San Francisco County,CA,70,NA,NA
94541,Alameda County,CA,24.5,NA,NA
94606,Alameda County,CA,NA,NA,56.78391959798995
94804,Contra Costa County,CA,63.5,NA,NA
94806,Contra Costa County,CA,NA,19.614147909967848,NA
94947,Marin County,CA,NA,NA,76.88442211055276
95023,San Benito County,CA,28.249999999999996,NA,NA
95037,Santa Clara County,CA,83.25,NA,NA
95112,Santa Clara County,CA,NA,NA,46.733668341708544
95203,San Joaquin County,CA,NA,85.20900321543408,NA
95249,Calaveras County,CA,NA,93.56913183279742,NA
95322,Merced County,CA,NA,NA,89.44723618090453
95357,Stanislaus County,CA,NA,77.491961414791,NA
95358,Stanislaus County,CA,31,NA,NA
95404,Sonoma County,CA,70.5,NA,NA
95470,Mendocino County,CA,96.5,NA,NA
95620,Solano County,CA,NA,NA,71.35678391959799
95677,Placer County,CA,92.75,NA,NA
95678,Placer County,CA,NA,29.903536977491964,NA
95765,Placer County,CA,71.5,NA,NA
95815,Sacramento County,CA,66.25,NA,NA
95838,Sacramento County,CA,83,NA,NA
95842,Sacramento County,CA,NA,74.27652733118971,NA
95843,Sacramento County,CA,62.74999999999999,NA,NA
95993,Sutter County,CA,93.5,NA,NA
96001,Shasta County,CA,NA,46.94533762057878,NA
96080,Tehama County,CA,NA,22.508038585209004,NA
80011,Arapahoe County,CO,NA,30.22508038585209,NA
80108,Douglas County,CO,NA,58.520900321543415,NA
80113,Arapahoe County,CO,60.25,NA,NA
80122,Arapahoe County,CO,NA,52.73311897106109,NA
80127,Jefferson County,CO,75.25,NA,NA
80214,Jefferson County,CO,46,NA,NA
80219,Denver County,CO,5.25,NA,NA
80231,Denver County,CO,NA,60.45016077170418,NA
80233,Adams County,CO,27.250000000000004,NA,NA
80234,Adams County,CO,NA,NA,86.4321608040201
80603,Weld County,CO,NA,89.71061093247589,NA
80907,El Paso County,CO,80.5,NA,NA
80921,El Paso County,CO,NA,80.38585209003215,NA
81401,Montrose County,CO,NA,36.97749196141479,NA
06002,Hartford County,CT,53.5,NA,NA
06042,Hartford County,CT,NA,44.05144694533762,NA
06051,Hartford County,CT,4,NA,NA
06096,Hartford County,CT,81,NA,NA
06114,Hartford County,CT,NA,46.62379421221865,NA
06450,New Haven County,CT,80.25,NA,NA
06480,Middlesex County,CT,NA,NA,95.97989949748744
06511,New Haven County,CT,4.5,NA,NA
06513,New Haven County,CT,NA,NA,21.608040201005025
06515,New Haven County,CT,NA,NA,36.18090452261307
06902,Fairfield County,CT,NA,9.646302250803858,NA
19703,New Castle County,DE,61,NA,NA
19711,New Castle County,DE,32,NA,NA
19734,New Castle County,DE,76,NA,NA
19904,Kent County,DE,NA,NA,24.623115577889447
32003,Clay County,FL,NA,51.12540192926045,NA
32011,Nassau County,FL,61.25000000000001,NA,NA
32064,Suwannee County,FL,NA,74.91961414790997,NA
32127,Volusia County,FL,NA,35.048231511254016,NA
32128,Volusia County,FL,NA,62.057877813504824,NA
32209,Duval County,FL,21.25,NA,NA
32310,Leon County,FL,67,NA,86.93467336683418
32405,Bay County,FL,27.500000000000004,NA,NA
32421,Calhoun County,FL,90,NA,NA
32439,Walton County,FL,NA,69.45337620578779,NA
32526,Escambia County,FL,13,NA,NA
32550,Walton County,FL,NA,NA,55.27638190954774
32571,Santa Rosa County,FL,NA,13.183279742765272,NA
32708,Seminole County,FL,50,NA,NA
32720,Volusia County,FL,NA,34.08360128617363,NA
32780,Brevard County,FL,NA,NA,4.522613065326634
32951,Brevard County,FL,NA,NA,81.90954773869346
33019,Broward County,FL,NA,82.63665594855306,NA
33056,Miami-Dade County,FL,NA,46.94533762057878,NA
33139,Miami-Dade County,FL,60.5,NA,NA
33160,Miami-Dade County,FL,NA,NA,16.582914572864322
33168,Miami-Dade County,FL,NA,72.9903536977492,NA
33185,Miami-Dade County,FL,NA,NA,64.321608040201
33313,Broward County,FL,21,NA,NA
33406,Palm Beach County,FL,76.5,NA,NA
33411,Palm Beach County,FL,NA,NA,22.613065326633166
33431,Palm Beach County,FL,NA,54.340836012861736,NA
33437,Palm Beach County,FL,NA,NA,70.35175879396985
33446,Palm Beach County,FL,NA,NA,3.5175879396984926
33543,Pasco County,FL,NA,59.80707395498393,NA
33596,Hillsborough County,FL,NA,59.4855305466238,NA
33598,Hillsborough County,FL,NA,NA,73.86934673366834
33712,Pinellas County,FL,NA,NA,56.28140703517588
33825,Highlands County,FL,54.75,NA,NA
33830,Polk County,FL,38.25,NA,NA
33901,Lee County,FL,NA,42.12218649517685,NA
33904,Lee County,FL,NA,15.755627009646304,NA
33919,Lee County,FL,NA,NA,24.120603015075375
33980,Charlotte County,FL,NA,94.21221864951768,NA
33983,Charlotte County,FL,99.25,NA,NA
34108,Collier County,FL,NA,NA,29.64824120603015
34266,DeSoto County,FL,38.75,NA,NA
34292,Sarasota County,FL,97.25,NA,12.060301507537687
34452,Citrus County,FL,NA,NA,69.84924623115577
34472,Marion County,FL,40.75,52.41157556270096,NA
34606,Hernando County,FL,47,NA,NA
34758,Osceola County,FL,22,NA,NA
34952,St. Lucie County,FL,NA,7.717041800643088,NA
34997,Martin County,FL,NA,7.07395498392283,NA
30032,DeKalb County,GA,72.25,NA,NA
30034,DeKalb County,GA,30,NA,NA
30075,Fulton County,GA,42.25,NA,NA
30113,Haralson County,GA,NA,96.46302250803859,NA
30121,Bartow County,GA,NA,NA,68.84422110552764
30135,Douglas County,GA,13.25,NA,NA
30165,Floyd County,GA,25.75,23.47266881028939,NA
30187,Douglas County,GA,95.25,NA,NA
30217,Heard County,GA,87.5,NA,NA
30337,Fulton County,GA,NA,NA,89.44723618090453
30341,DeKalb County,GA,NA,77.81350482315112,NA
30345,DeKalb County,GA,84.25,NA,NA
30401,Emanuel County,GA,NA,65.91639871382637,NA
30458,Bulloch County,GA,35.5,NA,NA
30506,Hall County,GA,30.5,NA,NA
30519,Gwinnett County,GA,NA,28.617363344051448,NA
30567,Jackson County,GA,97.75,NA,NA
30721,Whitfield County,GA,NA,NA,39.698492462311556
30809,Columbia County,GA,NA,43.40836012861736,NA
30815,Richmond County,GA,NA,11.57556270096463,NA
30904,Richmond County,GA,67.25,17.041800643086816,NA
30906,Richmond County,GA,31.5,NA,NA
31602,Lowndes County,GA,NA,NA,32.663316582914575
31709,Sumter County,GA,NA,NA,58.291457286432156
31750,Ben Hill County,GA,59.25,NA,NA
31792,Thomas County,GA,37.25,NA,NA
96744,Honolulu County,HI,NA,86.81672025723472,NA
96746,Kauai County,HI,NA,NA,85.92964824120602
96782,Honolulu County,HI,NA,NA,38.69346733668342
83221,Bingham County,ID,61.75000000000001,NA,NA
83402,Bonneville County,ID,NA,NA,53.266331658291456
83440,Madison County,ID,NA,71.38263665594855,NA
83706,Ada County,ID,NA,NA,18.592964824120603
83814,Kootenai County,ID,NA,37.62057877813505,NA
83815,Kootenai County,ID,38,NA,NA
60005,Cook County,IL,NA,35.36977491961415,NA
60007,Cook County,IL,NA,15.434083601286176,25.628140703517587
60047,Lake County,IL,40.5,NA,NA
60056,Cook County,IL,42.75,NA,NA
60098,McHenry County,IL,33.25,NA,13.06532663316583
60104,Cook County,IL,NA,NA,62.311557788944725
60133,Cook County,IL,NA,49.839228295819936,NA
60137,DuPage County,IL,36.75,NA,NA
60148,DuPage County,IL,NA,4.180064308681672,NA
60164,Cook County,IL,NA,37.942122186495176,NA
60176,Cook County,IL,82.25,NA,NA
60411,Cook County,IL,NA,NA,19.09547738693467
60417,Will County,IL,63.24999999999999,32.79742765273312,NA
60422,Cook County,IL,NA,45.337620578778136,NA
60436,Will County,IL,58.75,NA,NA
60477,Cook County,IL,NA,10.932475884244374,NA
60480,Cook County,IL,NA,96.78456591639872,NA
60487,Cook County,IL,57.49999999999999,NA,NA
60560,Kendall County,IL,NA,53.69774919614147,NA
60616,Cook County,IL,39.25,NA,NA
60617,Cook County,IL,NA,NA,3.015075376884422
60624,Cook County,IL,15,NA,NA
60630,Cook County,IL,22.75,NA,NA
60657,Cook County,IL,55.50000000000001,NA,NA
60707,Cook County,IL,NA,8.038585209003216,NA
60714,Cook County,IL,73.25,NA,NA
61008,Boone County,IL,NA,NA,30.65326633165829
61201,Rock Island County,IL,41.75,NA,NA
61727,De Witt County,IL,NA,NA,40.7035175879397
61821,Champaign County,IL,NA,47.90996784565916,NA
61832,Vermilion County,IL,NA,8.360128617363344,NA
61834,Vermilion County,IL,NA,84.2443729903537,NA
62226,St. Clair County,IL,NA,63.344051446945336,NA
62231,Clinton County,IL,NA,75.88424437299035,NA
62298,Monroe County,IL,NA,64.63022508038586,NA
62363,Pike County,IL,99.5,NA,NA
62959,Williamson County,IL,46.25,NA,NA
46041,Clinton County,IN,36.5,NA,NA
46219,Marion County,IN,NA,16.720257234726688,NA
46327,Lake County,IN,NA,93.89067524115757,NA
46350,LaPorte County,IN,NA,6.430868167202572,NA
46368,Porter County,IN,NA,1.2861736334405145,NA
46410,Lake County,IN,NA,NA,23.618090452261306
46703,Steuben County,IN,NA,NA,33.66834170854271
46737,Steuben County,IN,78.75,NA,NA
46808,Allen County,IN,34.25,NA,NA
46952,Grant County,IN,17.75,NA,NA
47006,Ripley County,IN,72,NA,NA
47138,Scott County,IN,NA,98.39228295819936,NA
47250,Jefferson County,IN,NA,NA,50.25125628140703
47303,Delaware County,IN,37.75,NA,NA
47331,Fayette County,IN,NA,45.01607717041801,NA
47711,Vanderburgh County,IN,NA,NA,19.597989949748744
50316,Polk County,IA,NA,NA,65.82914572864321
51401,Carroll County,IA,NA,NA,51.256281407035175
52501,Wapello County,IA,13.5,NA,NA
52531,Monroe County,IA,NA,97.10610932475883,NA
52748,Scott County,IA,86.75,NA,NA
66062,Johnson County,KS,9.25,NA,NA
66086,Leavenworth County,KS,NA,NA,90.45226130653266
66701,Bourbon County,KS,66,NA,NA
67114,Harvey County,KS,NA,NA,52.76381909547738
67208,Sedgwick County,KS,NA,97.7491961414791,NA
67209,Sedgwick County,KS,93,NA,NA
67502,Reno County,KS,NA,58.19935691318327,NA
67530,Barton County,KS,NA,56.91318327974276,NA
40067,Shelby County,KY,94.25,NA,NA
40069,Washington County,KY,NA,NA,91.95979899497488
40222,Jefferson County,KY,NA,NA,26.13065326633166
40243,Jefferson County,KY,87.25,NA,NA
40444,Garrard County,KY,NA,52.09003215434084,NA
40741,Laurel County,KY,NA,NA,42.71356783919598
40823,Harlan County,KY,77.75,NA,NA
41017,Kenton County,KY,NA,56.27009646302251,NA
41042,Boone County,KY,NA,54.983922829581985,NA
41076,Campbell County,KY,NA,50.160771704180064,NA
41230,Lawrence County,KY,NA,41.157556270096464,59.2964824120603
41701,Perry County,KY,NA,62.70096463022507,NA
42718,Taylor County,KY,11.5,NA,NA
70126,Orleans Parish,LA,6.5,NA,NA
70346,Ascension Parish,LA,51.24999999999999,NA,NA
70471,St. Tammany Parish,LA,NA,18.006430868167204,NA
70508,Lafayette Parish,LA,NA,17.363344051446948,NA
70554,Evangeline Parish,LA,NA,NA,71.85929648241206
70560,Iberia Parish,LA,91.75,NA,NA
70601,Calcasieu Parish,LA,45,NA,NA
70656,Vernon Parish,LA,86.25,NA,NA
70706,Livingston Parish,LA,65.75,NA,NA
70748,East Feliciana Parish,LA,NA,NA,80.90452261306532
70777,East Feliciana Parish,LA,98,NA,NA
70810,East Baton Rouge Parish,LA,NA,NA,49.74874371859296
71270,Lincoln Parish,LA,24.75,NA,NA
04073,York County,ME,24,NA,NA
04103,Cumberland County,ME,56.25,NA,NA
04256,Androscoggin County,ME,100,NA,NA
04345,Kennebec County,ME,48.75,NA,NA
04963,Kennebec County,ME,62.5,NA,NA
04976,Somerset County,ME,15.25,NA,NA
20748,Prince George's County,MD,48.25,NA,NA
20782,Prince George's County,MD,NA,NA,59.798994974874375
21122,Anne Arundel County,MD,NA,78.13504823151125,NA
21133,Baltimore County,MD,NA,NA,37.68844221105528
21207,Baltimore County,MD,NA,NA,17.587939698492463
21215,Baltimore city,MD,NA,35.69131832797427,NA
21218,Baltimore city,MD,57.99999999999999,NA,NA
21222,Baltimore County,MD,NA,NA,5.025125628140704
21236,Baltimore County,MD,NA,NA,26.633165829145728
21875,Wicomico County,MD,96.25,NA,NA
01040,Hampden County,MA,1.5,NA,NA
01085,Hampden County,MA,NA,NA,7.035175879396985
01104,Hampden County,MA,1.25,NA,NA
01540,Worcester County,MA,88.5,NA,NA
01543,Worcester County,MA,NA,83.27974276527331,NA
01609,Worcester County,MA,2.5,NA,NA
01752,Middlesex County,MA,NA,10.610932475884244,NA
01830,Essex County,MA,NA,6.109324758842444,NA
01854,Middlesex County,MA,12,NA,NA
01879,Middlesex County,MA,NA,50.80385852090033,NA
02019,Norfolk County,MA,NA,81.35048231511254,NA
02066,Plymouth County,MA,39.75,NA,NA
02093,Norfolk County,MA,NA,79.7427652733119,NA
02118,Suffolk County,MA,0.25,NA,NA
02138,Middlesex County,MA,NA,4.501607717041801,NA
02139,Middlesex County,MA,NA,NA,11.557788944723619
02148,Middlesex County,MA,0,NA,NA
02301,Plymouth County,MA,NA,0,1.0050251256281406
02302,Plymouth County,MA,1,NA,NA
02360,Plymouth County,MA,70.25,NA,NA
02631,Barnstable County,MA,NA,NA,35.678391959798994
02649,Barnstable County,MA,NA,23.15112540192926,NA
02740,Bristol County,MA,NA,95.81993569131832,NA
48047,Macomb County,MI,NA,12.218649517684888,NA
48073,Oakland County,MI,29.75,NA,NA
48081,Macomb County,MI,NA,NA,15.577889447236181
48088,Macomb County,MI,NA,21.221864951768488,NA
48125,Wayne County,MI,22.25,NA,NA
48141,Wayne County,MI,NA,15.112540192926044,NA
48176,Washtenaw County,MI,44.75,NA,NA
48182,Monroe County,MI,NA,37.942122186495176,NA
48204,Wayne County,MI,NA,66.2379421221865,29.145728643216078
48210,Wayne County,MI,26,NA,NA
48212,Wayne County,MI,NA,11.254019292604502,NA
48238,Wayne County,MI,NA,14.790996784565916,NA
48307,Oakland County,MI,NA,NA,15.07537688442211
48326,Oakland County,MI,54.50000000000001,NA,NA
48390,Oakland County,MI,NA,NA,34.17085427135678
48439,Genesee County,MI,11.75,NA,NA
48442,Oakland County,MI,91.25,NA,NA
48601,Saginaw County,MI,2,NA,NA
48602,Saginaw County,MI,NA,9.32475884244373,NA
48768,Tuscola County,MI,81.75,NA,NA
48829,Montcalm County,MI,98.25,NA,NA
48875,Ionia County,MI,NA,NA,53.768844221105525
48910,Ingham County,MI,NA,NA,32.1608040201005
49013,Van Buren County,MI,87.75,NA,NA
49201,Jackson County,MI,8.5,NA,NA
49230,Jackson County,MI,NA,79.09967845659163,NA
49337,Newaygo County,MI,NA,NA,73.36683417085426
49345,Kent County,MI,94,NA,NA
49401,Ottawa County,MI,NA,85.85209003215434,NA
49417,Ottawa County,MI,17,NA,NA
49424,Ottawa County,MI,14.000000000000002,NA,37.185929648241206
49507,Kent County,MI,NA,20.257234726688104,NA
49659,Antrim County,MI,76,NA,NA
49721,Cheboygan County,MI,NA,NA,34.67336683417086
49735,Otsego County,MI,NA,NA,25.125628140703515
49829,Delta County,MI,34.75,NA,NA
55057,Rice County,MN,NA,NA,87.93969849246231
55101,Ramsey County,MN,35,NA,NA
55109,Ramsey County,MN,49,NA,NA
55124,Dakota County,MN,69.75,NA,NA
55126,Ramsey County,MN,NA,68.16720257234726,NA
55343,Hennepin County,MN,NA,NA,38.19095477386934
55344,Hennepin County,MN,NA,NA,88.44221105527639
55404,Hennepin County,MN,NA,1.929260450160772,NA
55407,Hennepin County,MN,NA,NA,47.73869346733669
55421,Anoka County,MN,20.5,44.37299035369775,NA
55423,Hennepin County,MN,19.5,NA,NA
55429,Hennepin County,MN,NA,73.95498392282958,NA
55432,Anoka County,MN,NA,42.443729903536976,NA
55441,Hennepin County,MN,88.75,NA,NA
55443,Hennepin County,MN,NA,42.765273311897104,NA
55448,Anoka County,MN,71.25,NA,NA
55744,Itasca County,MN,NA,NA,5.527638190954774
55792,St. Louis County,MN,NA,81.67202572347267,NA
55811,St. Louis County,MN,30.75,NA,NA
55944,Dodge County,MN,89.5,NA,NA
55981,Wabasha County,MN,NA,NA,45.22613065326633
56537,Otter Tail County,MN,NA,35.69131832797427,NA
56560,Clay County,MN,1.7500000000000002,NA,NA
38611,Marshall County,MS,NA,63.665594855305464,NA
38655,Lafayette County,MS,97.5,NA,NA
38852,Tishomingo County,MS,NA,64.95176848874597,NA
39047,Rankin County,MS,NA,NA,67.33668341708542
39175,Hinds County,MS,NA,NA,87.43718592964824
39577,Stone County,MS,NA,NA,80.40201005025126
39601,Lincoln County,MS,50.5,NA,NA
63028,Jefferson County,MO,25,NA,NA
63111,St. Louis city,MO,NA,NA,63.81909547738693
63114,St. Louis County,MO,NA,24.437299035369776,NA
63303,St. Charles County,MO,NA,NA,7.537688442211055
63376,St. Charles County,MO,NA,51.76848874598071,NA
63645,Madison County,MO,NA,NA,46.231155778894475
63845,Mississippi County,MO,73.5,NA,NA
63863,Dunklin County,MO,NA,89.38906752411575,NA
64111,Jackson County,MO,NA,45.659163987138264,NA
64145,Jackson County,MO,85,NA,NA
64701,Cass County,MO,47.25,NA,NA
65270,Randolph County,MO,88.25,NA,NA
65613,Polk County,MO,83.75,NA,NA
65653,Taney County,MO,91.5,NA,NA
65711,Wright County,MO,NA,NA,72.8643216080402
65714,Christian County,MO,NA,NA,82.41206030150754
59044,Yellowstone County,MT,NA,99.67845659163987,NA
59803,Missoula County,MT,NA,NA,90.95477386934674
59912,Flathead County,MT,NA,55.30546623794213,NA
68111,Douglas County,NE,NA,30.54662379421222,NA
68467,York County,NE,NA,64.30868167202573,NA
68845,Buffalo County,NE,NA,NA,61.30653266331658
89106,Clark County,NV,NA,67.52411575562701,NA
89110,Clark County,NV,19.75,NA,NA
89115,Clark County,NV,20.25,NA,NA
89122,Clark County,NV,NA,47.90996784565916,NA
89123,Clark County,NV,NA,29.581993569131832,NA
89131,Clark County,NV,50.74999999999999,NA,NA
89406,Churchill County,NV,45.25,NA,NA
89519,Washoe County,NV,NA,88.10289389067523,NA
03042,Rockingham County,NH,78.5,NA,NA
03458,Hillsborough County,NH,NA,NA,83.41708542713567
07011,Passaic County,NJ,68,NA,NA
07040,Essex County,NJ,NA,NA,63.31658291457286
07109,Essex County,NJ,NA,NA,27.63819095477387
07305,Hudson County,NJ,NA,1.607717041800643,NA
07306,Hudson County,NJ,5.5,NA,18.090452261306535
07646,Bergen County,NJ,NA,NA,82.91457286432161
07652,Bergen County,NJ,NA,NA,10.552763819095476
07722,Monmouth County,NJ,NA,90.03215434083602,NA
07728,Monmouth County,NJ,NA,11.89710610932476,NA
07764,Monmouth County,NJ,89.5,NA,NA
07850,Morris County,NJ,75.75,NA,NA
07960,Morris County,NJ,18.25,NA,NA
08060,Burlington County,NJ,NA,NA,70.85427135678391
08210,Cape May County,NJ,NA,76.20578778135048,NA
08628,Mercer County,NJ,NA,NA,83.41708542713567
08736,Monmouth County,NJ,NA,NA,62.8140703517588
08759,Ocean County,NJ,NA,NA,0
08820,Middlesex County,NJ,NA,22.186495176848876,NA
08831,Middlesex County,NJ,NA,NA,2.0100502512562812
08850,Middlesex County,NJ,NA,100,NA
87120,Bernalillo County,NM,56.49999999999999,NA,NA
87301,McKinley County,NM,26.75,NA,NA
87420,San Juan County,NM,77.25,NA,NA
88011,Doa Ana County,NM,NA,94.85530546623794,NA
88203,Chaves County,NM,18.75,NA,NA
10030,New York County,NY,NA,63.9871382636656,NA
10034,New York County,NY,66.5,NA,NA
10301,Richmond County,NY,14.75,NA,NA
10452,Bronx County,NY,6.25,NA,NA
10457,Bronx County,NY,0.5,NA,NA
10459,Bronx County,NY,5,NA,NA
10462,Bronx County,NY,6.75,NA,6.532663316582915
10467,Bronx County,NY,NA,NA,1.507537688442211
10469,Bronx County,NY,NA,5.787781350482315,4.0201005025125625
10473,Bronx County,NY,NA,5.144694533762058,NA
10573,Westchester County,NY,NA,NA,30.15075376884422
10595,Westchester County,NY,87,NA,NA
11208,Kings County,NY,0.75,NA,NA
11215,Kings County,NY,NA,28.29581993569132,NA
11217,Kings County,NY,44.5,NA,NA
11218,Kings County,NY,NA,12.540192926045016,NA
11231,Kings County,NY,NA,NA,47.23618090452261
11354,Queens County,NY,75,NA,NA
11355,Queens County,NY,27.750000000000004,NA,NA
11358,Queens County,NY,86,NA,NA
11374,Queens County,NY,NA,61.09324758842444,NA
11436,Queens County,NY,NA,93.2475884244373,NA
11692,Queens County,NY,77.5,NA,NA
11776,Suffolk County,NY,NA,91.96141479099678,NA
12118,Saratoga County,NY,60.75000000000001,NA,NA
12202,Albany County,NY,NA,62.37942122186495,NA
12210,Albany County,NY,59.5,NA,NA
12901,Clinton County,NY,NA,3.536977491961415,NA
13045,Cortland County,NY,4.25,NA,NA
13204,Onondaga County,NY,NA,53.054662379421224,NA
13210,Onondaga County,NY,NA,70.09646302250803,NA
13617,St. Lawrence County,NY,NA,NA,40.20100502512563
13732,Tioga County,NY,49.75,NA,NA
13790,Broome County,NY,56.00000000000001,NA,NA
13820,Otsego County,NY,8.75,NA,44.221105527638194
14006,Erie County,NY,NA,88.42443729903538,NA
14094,Niagara County,NY,2.25,NA,NA
14420,Monroe County,NY,NA,18.327974276527332,NA
14522,Wayne County,NY,80.75,NA,NA
14605,Monroe County,NY,35.75,NA,NA
14623,Monroe County,NY,NA,18.971061093247588,NA
14626,Monroe County,NY,86.5,NA,NA
14779,Cattaraugus County,NY,67.75,NA,NA
14882,Tompkins County,NY,85.5,NA,NA
14895,Allegany County,NY,29.25,NA,NA
27106,Forsyth County,NC,12.25,NA,NA
27107,Forsyth County,NC,NA,NA,2.512562814070352
27215,Alamance County,NC,NA,3.858520900321544,NA
27253,Alamance County,NC,NA,NA,28.14070351758794
27295,Davidson County,NC,3.75,2.2508038585209005,NA
27360,Davidson County,NC,NA,3.215434083601286,NA
27370,Randolph County,NC,71,NA,NA
27405,Guilford County,NC,9.5,NA,NA
27519,Wake County,NC,52.5,NA,NA
27526,Wake County,NC,NA,NA,20.100502512562816
27530,Wayne County,NC,NA,17.684887459807076,NA
27536,Vance County,NC,85.75,NA,NA
27545,Wake County,NC,NA,48.87459807073955,NA
27704,Durham County,NC,10,NA,NA
27705,Durham County,NC,NA,41.80064308681672,NA
27850,Halifax County,NC,NA,79.42122186495176,NA
27910,Hertford County,NC,43.75,NA,NA
28016,Gaston County,NC,74,NA,NA
28098,Gaston County,NC,NA,99.03536977491962,NA
28326,Harnett County,NC,NA,65.27331189710611,NA
28409,New Hanover County,NC,NA,14.469453376205788,NA
28428,New Hanover County,NC,NA,90.67524115755627,NA
28463,Columbus County,NC,NA,73.31189710610933,NA
28468,Brunswick County,NC,99.75,NA,NA
28604,Watauga County,NC,NA,NA,77.38693467336684
28785,Haywood County,NC,91,NA,NA
58078,Cass County,ND,26.25,NA,NA
43004,Franklin County,OH,NA,60.12861736334405,NA
43056,Licking County,OH,NA,71.06109324758843,50.25125628140703
43160,Fayette County,OH,12.5,NA,NA
43211,Franklin County,OH,NA,29.260450160771708,NA
43220,Franklin County,OH,68.5,NA,NA
43357,Logan County,OH,NA,92.92604501607717,NA
43528,Lucas County,OH,43.25,NA,NA
43545,Henry County,OH,NA,40.19292604501607,NA
43567,Fulton County,OH,52.75,NA,NA
43609,Lucas County,OH,NA,34.726688102893895,NA
43614,Lucas County,OH,58.25,NA,NA
43616,Lucas County,OH,NA,NA,21.105527638190953
43701,Muskingum County,OH,NA,0.3215434083601286,NA
43821,Muskingum County,OH,NA,92.28295819935691,NA
43907,Harrison County,OH,NA,NA,79.39698492462311
43964,Jefferson County,OH,NA,82.95819935691318,NA
44023,Geauga County,OH,NA,75.56270096463022,NA
44030,Ashtabula County,OH,NA,12.861736334405144,NA
44077,Lake County,OH,2.75,NA,NA
44094,Lake County,OH,NA,2.572347266881029,NA
44110,Cuyahoga County,OH,56.75,NA,NA
44118,Cuyahoga County,OH,10,NA,NA
44120,Cuyahoga County,OH,67.5,NA,NA
44144,Cuyahoga County,OH,44.25,NA,NA
44223,Summit County,OH,74.5,NA,NA
44230,Wayne County,OH,NA,NA,78.89447236180904
44281,Medina County,OH,NA,NA,45.7286432160804
44410,Trumbull County,OH,40,NA,NA
44483,Trumbull County,OH,NA,10.289389067524116,NA
44691,Wayne County,OH,NA,NA,12.562814070351758
44706,Stark County,OH,NA,38.58520900321543,NA
44709,Stark County,OH,NA,44.37299035369775,NA
44857,Huron County,OH,21.75,55.948553054662376,NA
44870,Erie County,OH,63,NA,NA
45013,Butler County,OH,17.5,NA,NA
45015,Butler County,OH,NA,66.55948553054662,NA
45042,Butler County,OH,19.25,NA,NA
45238,Hamilton County,OH,12.75,NA,NA
45241,Hamilton County,OH,69,NA,NA
45246,Hamilton County,OH,NA,66.88102893890675,NA
45249,Hamilton County,OH,NA,NA,77.88944723618091
45252,Hamilton County,OH,NA,NA,84.42211055276381
45344,Clark County,OH,58.5,NA,NA
45417,Montgomery County,OH,8.25,NA,NA
45459,Montgomery County,OH,NA,NA,16.08040201005025
45505,Clark County,OH,NA,55.62700964630225,NA
45601,Ross County,OH,6,NA,NA
45638,Lawrence County,OH,4.5,NA,NA
45640,Jackson County,OH,7.000000000000001,NA,NA
45648,Scioto County,OH,24.25,NA,NA
73077,Noble County,OK,NA,NA,94.9748743718593
73080,McClain County,OK,79,NA,NA
73099,Canadian County,OK,NA,4.823151125401929,NA
73130,Oklahoma County,OK,NA,NA,75.87939698492463
73160,Cleveland County,OK,10.75,NA,NA
73170,Cleveland County,OK,NA,NA,9.045226130653267
74012,Tulsa County,OK,25.25,NA,NA
74021,Tulsa County,OK,NA,NA,74.37185929648241
74053,Rogers County,OK,NA,95.17684887459808,NA
74066,Creek County,OK,NA,32.154340836012864,NA
74105,Tulsa County,OK,42,NA,NA
74135,Tulsa County,OK,78.25,NA,NA
97055,Clackamas County,OR,NA,NA,43.71859296482412
97064,Columbia County,OR,98.5,NA,NA
97103,Clatsop County,OR,81.5,NA,NA
97116,Washington County,OR,NA,50.482315112540185,NA
97123,Washington County,OR,NA,NA,23.115577889447238
97141,Tillamook County,OR,63.74999999999999,NA,NA
97209,Multnomah County,OR,41.5,NA,NA
97220,Multnomah County,OR,NA,25.080385852090032,NA
97233,Multnomah County,OR,15.5,NA,NA
97386,Linn County,OR,NA,36.655948553054664,NA
97404,Lane County,OR,59.5,NA,NA
97459,Coos County,OR,84.5,NA,NA
97470,Douglas County,OR,NA,21.864951768488748,NA
97479,Douglas County,OR,NA,NA,41.20603015075377
15108,Allegheny County,PA,NA,NA,9.547738693467336
15120,Allegheny County,PA,48,NA,NA
15235,Allegheny County,PA,NA,NA,8.542713567839195
15236,Allegheny County,PA,NA,24.115755627009648,NA
15401,Fayette County,PA,7.75,NA,NA
15601,Westmoreland County,PA,NA,0.964630225080386,NA
15656,Westmoreland County,PA,72.75,NA,NA
15857,Elk County,PA,26.25,NA,NA
16001,Butler County,PA,3,NA,NA
16314,Crawford County,PA,92,NA,NA
16365,Warren County,PA,NA,24.758842443729904,NA
16428,Erie County,PA,84,NA,NA
16511,Erie County,PA,NA,NA,65.32663316582915
16901,Tioga County,PA,NA,72.66881028938906,NA
17055,Cumberland County,PA,NA,NA,8.040201005025125
17078,Lebanon County,PA,NA,39.549839228295816,NA
17103,Dauphin County,PA,NA,68.48874598070739,NA
17111,Dauphin County,PA,NA,NA,35.175879396984925
17603,Lancaster County,PA,NA,7.395498392282958,NA
17815,Columbia County,PA,NA,74.59807073954984,NA
17851,Northumberland County,PA,NA,NA,41.70854271356784
18042,Northampton County,PA,79.25,NA,NA
18064,Northampton County,PA,45.5,NA,NA
18505,Lackawanna County,PA,NA,31.511254019292608,NA
18702,Luzerne County,PA,7.5,NA,NA
18901,Bucks County,PA,NA,20.90032154340836,NA
18944,Bucks County,PA,NA,76.52733118971061,NA
19013,Delaware County,PA,3.25,NA,NA
19030,Bucks County,PA,NA,70.7395498392283,NA
19060,Delaware County,PA,NA,78.77813504823152,NA
19067,Bucks County,PA,NA,NA,11.055276381909549
19085,Delaware County,PA,NA,NA,94.47236180904522
19103,Philadelphia County,PA,49,NA,NA
19118,Philadelphia County,PA,88,NA,NA
19119,Philadelphia County,PA,NA,16.39871382636656,NA
19133,Philadelphia County,PA,14.249999999999998,NA,NA
19143,Philadelphia County,PA,NA,0.6430868167202572,NA
19145,Philadelphia County,PA,NA,9.967845659163988,NA
19148,Philadelphia County,PA,8,NA,NA
19149,Philadelphia County,PA,NA,23.79421221864952,NA
19150,Philadelphia County,PA,NA,20.578778135048232,NA
19330,Chester County,PA,92.25,NA,NA
19473,Montgomery County,PA,NA,73.63344051446946,NA
19602,Berks County,PA,9.75,NA,NA
19610,Berks County,PA,NA,NA,97.98994974874373
02814,Providence County,RI,NA,NA,91.4572864321608
02864,Providence County,RI,NA,14.14790996784566,NA
02871,Newport County,RI,NA,33.762057877813504,NA
02888,Kent County,RI,NA,40.51446945337621,NA
02914,Providence County,RI,48.25,NA,NA
02920,Providence County,RI,NA,13.826366559485532,NA
02921,Providence County,RI,NA,84.56591639871382,NA
29061,Richland County,SC,78,NA,NA
29153,Sumter County,SC,NA,NA,55.778894472361806
29229,Richland County,SC,41.25,NA,NA
29330,Spartanburg County,SC,82,NA,NA
29401,Charleston County,SC,NA,87.78135048231512,NA
29405,Charleston County,SC,61.5,NA,NA
29449,Charleston County,SC,NA,94.53376205787781,NA
29464,Charleston County,SC,47.75,NA,NA
29483,Dorchester County,SC,16,NA,NA
29485,Dorchester County,SC,NA,26.688102893890676,NA
29505,Florence County,SC,52.25,NA,NA
29550,Darlington County,SC,NA,18.64951768488746,NA
29574,Marion County,SC,60,NA,NA
29588,Horry County,SC,NA,8.681672025723474,NA
29650,Greenville County,SC,NA,40.836012861736336,NA
29706,Chester County,SC,35.25,NA,NA
37058,Stewart County,TN,NA,85.53054662379421,NA
37087,Wilson County,TN,16.25,21.54340836012862,NA
37091,Marshall County,TN,42.5,NA,NA
37129,Rutherford County,TN,51.74999999999999,NA,NA
37135,Williamson County,TN,NA,NA,96.98492462311557
37210,Davidson County,TN,NA,NA,68.84422110552764
37211,Davidson County,TN,19,NA,20.603015075376884
37663,Sullivan County,TN,93.25,NA,NA
37716,Anderson County,TN,40.25,NA,NA
37846,Loudon County,TN,NA,NA,100
37874,Monroe County,TN,44,NA,NA
37914,Knox County,TN,NA,NA,51.75879396984925
37932,Knox County,TN,81.25,NA,NA
38024,Dyer County,TN,23.75,NA,NA
38111,Shelby County,TN,NA,45.98070739549839,NA
38301,Madison County,TN,9,NA,NA
38363,Decatur County,TN,NA,NA,79.89949748743719
38401,Maury County,TN,7.249999999999999,NA,NA
38464,Lawrence County,TN,65.5,25.401929260450164,NA
38485,Wayne County,TN,83.5,NA,NA
38556,Fentress County,TN,NA,NA,95.47738693467338
38571,Cumberland County,TN,NA,39.87138263665595,NA
75009,Collin County,TX,NA,NA,84.92462311557789
75025,Collin County,TX,82.5,NA,NA
75034,Denton County,TX,97,NA,NA
75052,Dallas County,TX,16.75,NA,NA
75087,Rockwall County,TX,99,NA,NA
75098,Collin County,TX,NA,32.475884244372985,NA
75104,Dallas County,TX,22.5,NA,NA
75134,Dallas County,TX,64,NA,NA
75142,Kaufman County,TX,62.25000000000001,NA,54.773869346733676
75149,Dallas County,TX,18,NA,NA
75210,Dallas County,TX,68.25,NA,NA
75211,Dallas County,TX,90.75,NA,NA
75215,Dallas County,TX,28.000000000000004,NA,NA
75219,Dallas County,TX,NA,61.09324758842444,NA
75227,Dallas County,TX,NA,NA,57.78894472361809
75442,Collin County,TX,79.75,NA,NA
75495,Grayson County,TX,NA,97.42765273311898,NA
75901,Angelina County,TX,38.25,NA,NA
75951,Jasper County,TX,54,NA,NA
76010,Tarrant County,TX,NA,NA,61.80904522613066
76014,Tarrant County,TX,NA,43.729903536977496,NA
76028,Johnson County,TX,95.75,NA,NA
76039,Tarrant County,TX,NA,60.77170418006431,NA
76106,Tarrant County,TX,51.5,NA,NA
76354,Wichita County,TX,80,NA,NA
76384,Wilbarger County,TX,NA,NA,76.38190954773869
76543,Bell County,TX,NA,54.662379421221864,NA
76655,McLennan County,TX,94.5,NA,NA
76705,McLennan County,TX,16.5,NA,NA
76707,McLennan County,TX,NA,81.9935691318328,NA
76708,McLennan County,TX,74.75,NA,NA
76901,Tom Green County,TX,53.25,NA,NA
77020,Harris County,TX,59,NA,NA
77055,Harris County,TX,NA,57.234726688102896,NA
77090,Harris County,TX,29.5,NA,NA
77092,Harris County,TX,57.75,NA,NA
77336,Harris County,TX,NA,NA,92.46231155778895
77356,Montgomery County,TX,NA,NA,74.87437185929649
77401,Harris County,TX,69.25,NA,NA
77429,Harris County,TX,10.5,2.8938906752411575,NA
77478,Fort Bend County,TX,NA,47.58842443729904,NA
77521,Harris County,TX,NA,27.331189710610932,NA
77550,Galveston County,TX,18.5,NA,NA
78006,Kendall County,TX,NA,86.17363344051448,NA
78133,Comal County,TX,NA,NA,72.36180904522614
78155,Guadalupe County,TX,23.5,NA,NA
78227,Bexar County,TX,39,NA,NA
78228,Bexar County,TX,NA,27.652733118971064,NA
78245,Bexar County,TX,23,NA,NA
78247,Bexar County,TX,55.25,NA,NA
78250,Bexar County,TX,46.25,91.31832797427653,NA
78254,Bexar County,TX,49.5,NA,NA
78361,Jim Hogg County,TX,NA,NA,98.99497487437185
78418,Nueces County,TX,NA,77.17041800643086,NA
78501,Hidalgo County,TX,NA,19.292604501607716,NA
78537,Hidalgo County,TX,NA,72.02572347266882,NA
78577,Hidalgo County,TX,28.249999999999996,87.45980707395499,NA
78582,Starr County,TX,NA,39.228295819935695,NA
78643,Llano County,TX,NA,NA,48.24120603015075
78729,Williamson County,TX,77,NA,NA
78747,Travis County,TX,90,NA,NA
78750,Travis County,TX,94.75,NA,NA
79109,Randall County,TX,NA,41.47909967845659,NA
79603,Taylor County,TX,30.25,NA,NA
79761,Ector County,TX,54.25,NA,NA
79762,Ector County,TX,NA,37.29903536977492,NA
79766,Ector County,TX,92.25,NA,NA
84003,Utah County,UT,NA,61.7363344051447,NA
84105,Salt Lake County,UT,NA,89.06752411575563,NA
84118,Salt Lake County,UT,17.25,NA,NA
84119,Salt Lake County,UT,11.25,33.440514469453376,NA
84404,Weber County,UT,20.5,33.11897106109325,NA
05401,Chittenden County,VT,76.75,NA,NA
20152,Loudoun County,VA,75.5,NA,NA
20170,Fairfax County,VA,64.75,NA,NA
22150,Fairfax County,VA,NA,67.20257234726688,NA
22201,Arlington County,VA,NA,68.48874598070739,NA
22204,Arlington County,VA,28.999999999999996,NA,NA
22554,Stafford County,VA,NA,NA,81.4070351758794
22630,Warren County,VA,25.5,NA,NA
22664,Shenandoah County,VA,73.75,NA,NA
22903,Charlottesville city,VA,62,NA,NA
23093,Louisa County,VA,NA,57.556270096463024,NA
23188,James City County,VA,NA,NA,0.5025125628140703
23223,Henrico County,VA,3.5000000000000004,NA,NA
23226,Richmond city,VA,NA,NA,54.2713567839196
23227,Henrico County,VA,72.5,NA,NA
23707,Portsmouth city,VA,NA,34.40514469453376,NA
24018,Roanoke County,VA,NA,26.366559485530544,NA
24019,Roanoke County,VA,NA,NA,39.19597989949749
24060,Montgomery County,VA,NA,76.84887459807074,NA
24101,Franklin County,VA,NA,NA,88.94472361809045
24134,Giles County,VA,98.75,NA,NA
24179,Roanoke County,VA,NA,43.08681672025724,NA
24504,Lynchburg city,VA,NA,71.70418006430869,NA
98002,King County,WA,NA,31.832797427652732,NA
98034,King County,WA,34,NA,NA
98103,King County,WA,74.25,NA,NA
98144,King County,WA,NA,NA,48.743718592964825
98146,King County,WA,NA,NA,57.286432160804026
98168,King County,WA,33.75,NA,NA
98275,Snohomish County,WA,70.75,NA,NA
98360,Pierce County,WA,NA,87.13826366559485,NA
98362,Clallam County,WA,37,NA,NA
98367,Kitsap County,WA,NA,46.30225080385852,NA
98371,Pierce County,WA,NA,54.019292604501615,NA
98611,Cowlitz County,WA,82.75,NA,NA
98626,Cowlitz County,WA,47.5,NA,NA
98683,Clark County,WA,85.25,NA,NA
98816,Chelan County,WA,NA,78.45659163987139,NA
98822,Chelan County,WA,NA,99.35691318327974,NA
98837,Grant County,WA,32.5,26.04501607717042,NA
98902,Yakima County,WA,NA,NA,14.572864321608039
99208,Spokane County,WA,NA,NA,10.050251256281408
99212,Spokane County,WA,NA,72.34726688102894,NA
99354,Benton County,WA,NA,25.723472668810288,NA
20002,District of Columbia,DC,5.75,NA,NA
20008,District of Columbia,DC,NA,90.9967845659164,NA
20020,District of Columbia,DC,32.25,NA,NA
24701,Mercer County,WV,NA,NA,28.643216080402013
25304,Kanawha County,WV,NA,NA,66.33165829145729
25306,Kanawha County,WV,69.5,NA,NA
25403,Berkeley County,WV,89.25,NA,NA
25506,Lincoln County,WV,NA,95.4983922829582,NA
26241,Randolph County,WV,33,NA,NA
53022,Washington County,WI,NA,49.19614147909968,NA
53061,Calumet County,WI,NA,98.71382636655949,NA
53066,Waukesha County,WI,NA,NA,22.110552763819097
53115,Walworth County,WI,53,NA,NA
53172,Milwaukee County,WI,NA,35.69131832797427,31.155778894472363
53189,Waukesha County,WI,56.99999999999999,NA,NA
53214,Milwaukee County,WI,NA,9.003215434083602,NA
53405,Racine County,WI,NA,NA,14.07035175879397
53538,Jefferson County,WI,NA,NA,27.1356783919598
53704,Dane County,WI,41,NA,NA
54020,Polk County,WI,NA,NA,78.39195979899498
54166,Shawano County,WI,NA,NA,42.211055276381906
54304,Brown County,WI,21.5,NA,NA
54401,Marathon County,WI,NA,NA,17.08542713567839
54452,Lincoln County,WI,NA,80.06430868167203,NA
54956,Winnebago County,WI,27,NA,NA
82414,Park County,WY,NA,NA,99.49748743718592
