ZipCode,county,state,Adult
35055,Cullman County,AL,45.16129032258064
35180,Jefferson County,AL,93.841642228739
35490,Tuscaloosa County,AL,89.14956011730204
36110,Montgomery County,AL,68.32844574780059
36203,Calhoun County,AL,64.51612903225806
36303,Houston County,AL,82.69794721407625
36420,Covington County,AL,43.988269794721404
99508,Anchorage Municipality,AK,82.40469208211144
85226,Maricopa County,AZ,44.57478005865102
85349,Yuma County,AZ,26.099706744868033
85653,Pima County,AZ,29.03225806451613
85712,Pima County,AZ,14.076246334310852
86305,Yavapai County,AZ,73.60703812316716
86409,Mohave County,AZ,92.96187683284457
72401,Craighead County,AR,8.504398826979472
72745,Benton County,AR,72.14076246334311
90012,Los Angeles County,CA,82.99120234604106
90042,Los Angeles County,CA,66.56891495601172
90623,Orange County,CA,93.25513196480938
90720,Orange County,CA,94.42815249266863
90802,Los Angeles County,CA,42.22873900293255
91016,Los Angeles County,CA,47.80058651026393
91711,Los Angeles County,CA,89.44281524926686
91741,Los Angeles County,CA,65.10263929618768
91761,San Bernardino County,CA,85.33724340175954
91773,Los Angeles County,CA,61.29032258064516
92154,San Diego County,CA,29.32551319648094
92399,San Bernardino County,CA,21.700879765395893
92405,San Bernardino County,CA,93.54838709677419
92626,Orange County,CA,78.88563049853371
92704,Orange County,CA,24.34017595307918
92804,Orange County,CA,34.89736070381232
92805,Orange County,CA,17.888563049853374
92845,Orange County,CA,82.11143695014663
93003,Ventura County,CA,8.797653958944283
93455,Santa Barbara County,CA,23.75366568914956
94110,San Francisco County,CA,33.43108504398827
94303,San Mateo County,CA,20.234604105571847
95076,Santa Cruz County,CA,12.023460410557185
95380,Stanislaus County,CA,19.64809384164223
95485,Lake County,CA,96.18768328445748
95620,Solano County,CA,71.26099706744868
95678,Placer County,CA,95.01466275659824
95823,Sacramento County,CA,65.39589442815249
96001,Shasta County,CA,77.41935483870968
80005,Jefferson County,CO,48.97360703812317
80112,Arapahoe County,CO,92.66862170087975
80113,Arapahoe County,CO,49.266862170087975
80205,Denver County,CO,7.624633431085044
80221,Adams County,CO,64.80938416422288
80401,Jefferson County,CO,28.445747800586513
80909,El Paso County,CO,16.129032258064516
80921,El Paso County,CO,97.36070381231671
81401,Montrose County,CO,63.34310850439883
06096,Hartford County,CT,88.56304985337243
06450,New Haven County,CT,3.812316715542522
06492,New Haven County,CT,13.48973607038123
06710,New Haven County,CT,48.09384164222874
19805,New Castle County,DE,60.410557184750736
32052,Hamilton County,FL,87.09677419354838
32130,Volusia County,FL,99.41348973607037
32222,Duval County,FL,62.75659824046921
32428,Washington County,FL,66.86217008797654
32444,Bay County,FL,76.53958944281524
32504,Escambia County,FL,41.935483870967744
32641,Alachua County,FL,17.008797653958943
32805,Orange County,FL,24.633431085043988
33012,Miami-Dade County,FL,73.02052785923753
33027,Broward County,FL,59.2375366568915
33071,Broward County,FL,65.98240469208211
33142,Miami-Dade County,FL,41.64222873900293
33157,Miami-Dade County,FL,26.97947214076246
33161,Miami-Dade County,FL,26.97947214076246
33435,Palm Beach County,FL,80.64516129032258
33711,Pinellas County,FL,45.74780058651026
33805,Polk County,FL,31.964809384164223
33823,Polk County,FL,27.859237536656888
33917,Lee County,FL,43.401759530791786
33952,Charlotte County,FL,16.715542521994134
33971,Lee County,FL,70.08797653958945
34420,Marion County,FL,57.77126099706745
34475,Marion County,FL,51.90615835777126
34654,Pasco County,FL,38.12316715542522
34684,Pinellas County,FL,99.12023460410558
34711,Lake County,FL,95.89442815249268
30060,Cobb County,GA,29.91202346041056
30115,Cherokee County,GA,87.3900293255132
30241,Troup County,GA,19.941348973607038
30252,Henry County,GA,77.71260997067448
30268,Fulton County,GA,87.97653958944281
30315,Fulton County,GA,20.821114369501466
31024,Putnam County,GA,46.33431085043988
31405,Chatham County,GA,40.469208211143695
96815,Honolulu County,HI,39.882697947214076
83201,Bannock County,ID,69.20821114369502
83301,Twin Falls County,ID,2.346041055718475
83350,Minidoka County,ID,61.58357771260997
60018,Cook County,IL,94.13489736070382
60133,Cook County,IL,35.19061583577713
60409,Cook County,IL,21.407624633431084
60503,Will County,IL,84.75073313782991
60605,Cook County,IL,49.853372434017594
60607,Cook County,IL,95.30791788856305
60608,Cook County,IL,79.76539589442815
60612,Cook County,IL,71.8475073313783
60616,Cook County,IL,28.739002932551323
60628,Cook County,IL,59.82404692082112
60649,Cook County,IL,34.31085043988269
60651,Cook County,IL,24.04692082111437
60656,Cook County,IL,39.29618768328446
62863,Wabash County,IL,98.53372434017595
46113,Marion County,IN,54.54545454545454
50701,Black Hawk County,IA,25.513196480938415
66725,Cherokee County,KS,79.17888563049853
40014,Oldham County,KY,56.89149560117303
40204,Jefferson County,KY,64.22287390029325
40245,Jefferson County,KY,39.002932551319645
40291,Jefferson County,KY,10.850439882697946
40342,Anderson County,KY,26.68621700879765
40447,Jackson County,KY,92.37536656891496
40511,Fayette County,KY,31.085043988269796
40515,Fayette County,KY,75.366568914956
41042,Boone County,KY,91.20234604105572
42101,Warren County,KY,5.278592375366569
42501,Pulaski County,KY,75.65982404692082
42629,Russell County,KY,81.52492668621701
42717,Cumberland County,KY,46.9208211143695
70807,East Baton Rouge Parish,LA,86.21700879765396
04240,Androscoggin County,ME,0.8797653958944283
04345,Kennebec County,ME,84.4574780058651
04364,Kennebec County,ME,69.79472140762464
04930,Penobscot County,ME,94.72140762463343
20748,Prince George's County,MD,35.483870967741936
20772,Prince George's County,MD,38.70967741935484
20895,Montgomery County,MD,97.0674486803519
01040,Hampden County,MA,11.730205278592376
01109,Hampden County,MA,35.77712609970675
01760,Middlesex County,MA,47.214076246334315
01852,Middlesex County,MA,0
02129,Suffolk County,MA,97.94721407624634
02747,Bristol County,MA,85.63049853372434
48095,Macomb County,MI,92.08211143695014
48206,Wayne County,MI,19.35483870967742
48212,Wayne County,MI,63.049853372434015
48214,Wayne County,MI,12.609970674486803
48307,Oakland County,MI,11.143695014662756
48313,Macomb County,MI,18.7683284457478
49013,Van Buren County,MI,76.24633431085044
49240,Jackson County,MI,85.92375366568915
49316,Kent County,MI,75.95307917888563
55066,Goodhue County,MN,36.36363636363637
55106,Ramsey County,MN,4.9853372434017595
55130,Ramsey County,MN,39.589442815249264
55337,Dakota County,MN,25.806451612903224
55372,Scott County,MN,50.43988269794721
55407,Hennepin County,MN,4.398826979472141
55423,Hennepin County,MN,43.401759530791786
55429,Hennepin County,MN,32.55131964809384
56001,Blue Earth County,MN,23.46041055718475
56716,Polk County,MN,22.58064516129032
39307,Lauderdale County,MS,31.671554252199414
39501,Harrison County,MS,42.52199413489736
39503,Harrison County,MS,96.48093841642229
63143,St. Louis County,MO,74.48680351906158
63147,St. Louis city,MO,70.96774193548387
63303,St. Charles County,MO,15.249266862170089
63845,Mississippi County,MO,98.24046920821115
64050,Jackson County,MO,96.7741935483871
64093,Johnson County,MO,88.85630498533725
64128,Jackson County,MO,12.903225806451612
65026,Miller County,MO,83.87096774193549
59901,Flathead County,MT,86.51026392961877
68005,Sarpy County,NE,51.61290322580645
89139,Clark County,NV,80.35190615835776
03103,Hillsborough County,NH,56.01173020527859
03431,Cheshire County,NH,72.72727272727273
03570,Coos County,NH,58.35777126099707
03874,Rockingham County,NH,37.24340175953079
07501,Passaic County,NJ,0.5865102639296188
07728,Monmouth County,NJ,8.211143695014663
87420,San Juan County,NM,51.31964809384164
10036,New York County,NY,29.61876832844575
10312,Richmond County,NY,34.01759530791789
10462,Bronx County,NY,4.105571847507331
10475,Bronx County,NY,83.28445747800586
11203,Kings County,NY,54.252199413489734
11207,Kings County,NY,15.542521994134898
11214,Kings County,NY,36.950146627565985
11236,Kings County,NY,2.6392961876832843
11237,Kings County,NY,47.50733137829912
11422,Queens County,NY,55.13196480938416
11801,Nassau County,NY,70.38123167155426
12414,Greene County,NY,42.81524926686217
12601,Dutchess County,NY,20.527859237536656
13210,Onondaga County,NY,27.56598240469208
13440,Oneida County,NY,44.28152492668622
13732,Tioga County,NY,80.05865102639295
14624,Monroe County,NY,9.090909090909092
14760,Cattaraugus County,NY,28.152492668621704
27105,Forsyth County,NC,1.466275659824047
27215,Alamance County,NC,6.744868035190615
27332,Lee County,NC,56.598240469208214
27401,Guilford County,NC,81.23167155425219
27517,Orange County,NC,67.15542521994135
27542,Johnston County,NC,57.18475073313783
27705,Durham County,NC,58.94428152492669
27858,Pitt County,NC,17.302052785923756
27870,Halifax County,NC,14.95601173020528
28043,Rutherford County,NC,30.205278592375368
28110,Union County,NC,68.03519061583577
28150,Cleveland County,NC,81.81818181818183
28306,Bladen County,NC,23.16715542521994
28320,Bladen County,NC,60.70381231671554
28605,Watauga County,NC,80.93841642228739
28625,Iredell County,NC,38.41642228739003
43040,Union County,OH,17.595307917888565
43123,Franklin County,OH,21.114369501466275
43201,Franklin County,OH,62.4633431085044
43223,Franklin County,OH,36.070381231671554
43224,Franklin County,OH,3.519061583577713
43230,Franklin County,OH,52.49266862170088
44012,Lorain County,OH,26.392961876832842
44035,Lorain County,OH,9.970674486803519
44052,Lorain County,OH,1.7595307917888565
44104,Cuyahoga County,OH,2.932551319648094
44118,Cuyahoga County,OH,30.791788856304986
44128,Cuyahoga County,OH,9.67741935483871
44319,Summit County,OH,41.05571847507331
45014,Butler County,OH,7.9178885630498534
45122,Clermont County,OH,60.997067448680355
45207,Hamilton County,OH,84.1642228739003
45231,Hamilton County,OH,5.865102639296188
45503,Clark County,OH,85.04398826979472
45638,Lawrence County,OH,52.785923753665685
45750,Washington County,OH,0.2932551319648094
73036,Canadian County,OK,71.5542521994135
73045,Oklahoma County,OK,97.65395894428153
73750,Kingfisher County,OK,91.78885630498533
74003,Osage County,OK,52.19941348973607
74066,Creek County,OK,22.87390029325513
74344,Delaware County,OK,61.87683284457478
74464,Cherokee County,OK,6.451612903225806
74857,Cleveland County,OK,100
97232,Multnomah County,OR,69.50146627565982
97386,Linn County,OR,63.63636363636363
97404,Lane County,OR,48.68035190615836
97444,Curry County,OR,78.00586510263929
97446,Linn County,OR,98.82697947214076
97477,Lane County,OR,15.835777126099707
97539,Jackson County,OR,90.32258064516128
15147,Allegheny County,PA,53.95894428152492
15220,Allegheny County,PA,57.18475073313783
15235,Allegheny County,PA,43.10850439882698
15425,Fayette County,PA,21.994134897360702
15431,Fayette County,PA,79.47214076246334
15537,Bedford County,PA,67.44868035190615
16323,Venango County,PA,76.83284457478005
17074,Perry County,PA,55.718475073313776
17078,Lebanon County,PA,10.557184750733137
17963,Schuylkill County,PA,67.74193548387096
18018,Lehigh County,PA,46.04105571847507
19124,Philadelphia County,PA,24.926686217008797
19148,Philadelphia County,PA,6.158357771260997
02888,Kent County,RI,75.0733137829912
02907,Providence County,RI,31.378299120234605
29229,Richland County,SC,86.51026392961877
29406,Charleston County,SC,16.422287390029325
29483,Dorchester County,SC,53.3724340175953
29568,Horry County,SC,65.6891495601173
29681,Greenville County,SC,18.475073313782993
57106,Minnehaha County,SD,45.45454545454545
37013,Davidson County,TN,7.038123167155426
37091,Marshall County,TN,30.205278592375368
37172,Robertson County,TN,36.65689149560117
37211,Davidson County,TN,12.316715542521994
37303,McMinn County,TN,14.66275659824047
37760,Jefferson County,TN,49.853372434017594
37920,Knox County,TN,7.331378299120235
38105,Shelby County,TN,74.19354838709677
38106,Shelby County,TN,10.263929618768328
38109,Shelby County,TN,48.38709677419355
75038,Dallas County,TX,50.733137829912025
75090,Grayson County,TX,37.5366568914956
75104,Dallas County,TX,88.26979472140762
75149,Dallas County,TX,41.348973607038126
75208,Dallas County,TX,51.02639296187683
75210,Dallas County,TX,55.13196480938416
75223,Dallas County,TX,72.43401759530792
75228,Dallas County,TX,4.69208211143695
75231,Dallas County,TX,73.31378299120234
75287,Denton County,TX,32.25806451612903
75603,Gregg County,TX,99.70674486803519
75951,Jasper County,TX,40.76246334310851
75979,Tyler County,TX,90.9090909090909
76109,Tarrant County,TX,91.49560117302052
76210,Denton County,TX,46.33431085043988
76712,McLennan County,TX,33.137829912023456
77011,Harris County,TX,68.62170087976538
77016,Harris County,TX,32.84457478005865
77081,Harris County,TX,53.0791788856305
77083,Harris County,TX,78.2991202346041
77086,Harris County,TX,53.665689149560116
77301,Montgomery County,TX,44.868035190615835
77380,Montgomery County,TX,59.530791788856305
77471,Fort Bend County,TX,70.67448680351906
77488,Wharton County,TX,87.68328445747801
78521,Cameron County,TX,73.90029325513197
78735,Travis County,TX,95.60117302052787
79404,Lubbock County,TX,62.17008797653959
84095,Salt Lake County,UT,90.02932551319648
84102,Salt Lake County,UT,65.98240469208211
84123,Salt Lake County,UT,14.369501466275661
20194,Fairfax County,VA,77.12609970674487
22302,Alexandria city,VA,74.7800586510264
22801,Harrisonburg city,VA,33.724340175953074
23112,Chesterfield County,VA,90.6158357771261
23139,Powhatan County,VA,56.30498533724341
23223,Henrico County,VA,2.0527859237536656
23225,Richmond city,VA,34.60410557184751
23229,Henrico County,VA,54.83870967741935
23321,Chesapeake city,VA,37.82991202346041
23462,Virginia Beach city,VA,11.436950146627565
23606,Newport News city,VA,40.17595307917888
98022,King County,WA,49.56011730205279
98177,King County,WA,58.65102639296188
98252,Snohomish County,WA,68.62170087976538
98271,Snohomish County,WA,89.73607038123167
98443,Pierce County,WA,78.59237536656892
98584,Mason County,WA,25.219941348973606
98837,Grant County,WA,22.28739002932551
20019,District of Columbia,DC,13.196480938416421
20020,District of Columbia,DC,1.1730205278592376
20032,District of Columbia,DC,3.225806451612903
25403,Berkeley County,WV,60.117302052785924
25962,Greenbrier County,WV,83.57771260997067
53066,Waukesha County,WI,58.06451612903226
53207,Milwaukee County,WI,18.181818181818183
53210,Milwaukee County,WI,5.571847507331378
53216,Milwaukee County,WI,19.06158357771261
53223,Milwaukee County,WI,9.3841642228739
53718,Dane County,WI,63.929618768328446
54703,Eau Claire County,WI,13.78299120234604
