ZipCode,county,state,Adult,Retirement,Geriatric
35077,Cullman County,AL,57.55258126195029,NA,NA
35111,Tuscaloosa County,AL,NA,NA,63.1578947368421
35173,Jefferson County,AL,NA,37.88265306122449,NA
35180,Jefferson County,AL,NA,NA,97.14912280701753
35211,Jefferson County,AL,NA,NA,34.42982456140351
35215,Jefferson County,AL,NA,NA,35.526315789473685
35244,Jefferson County,AL,NA,38.265306122448976,57.45614035087719
35406,Tuscaloosa County,AL,NA,NA,38.377192982456144
35550,Walker County,AL,NA,NA,92.32456140350878
35661,Colbert County,AL,NA,69.26020408163265,NA
36037,Butler County,AL,NA,NA,83.33333333333334
36078,Elmore County,AL,NA,NA,82.67543859649122
36083,Macon County,AL,NA,82.78061224489795,NA
36117,Montgomery County,AL,NA,NA,82.89473684210526
36264,Cleburne County,AL,NA,82.01530612244898,NA
36330,Coffee County,AL,NA,NA,87.28070175438597
36421,Covington County,AL,77.43785850860421,NA,NA
36467,Covington County,AL,NA,NA,76.75438596491229
36532,Baldwin County,AL,NA,22.448979591836736,NA
36580,Baldwin County,AL,NA,98.34183673469387,NA
36607,Mobile County,AL,94.26386233269598,NA,NA
36695,Mobile County,AL,NA,28.95408163265306,44.07894736842105
36784,Clarke County,AL,NA,NA,99.56140350877193
85018,Maricopa County,AZ,NA,36.47959183673469,NA
85023,Maricopa County,AZ,NA,NA,64.03508771929825
85024,Maricopa County,AZ,NA,74.87244897959184,NA
85027,Maricopa County,AZ,NA,51.02040816326531,NA
85032,Maricopa County,AZ,NA,23.97959183673469,49.56140350877193
85209,Maricopa County,AZ,NA,NA,18.421052631578945
85254,Maricopa County,AZ,52.198852772466545,NA,NA
85257,Maricopa County,AZ,NA,61.35204081632652,NA
85302,Maricopa County,AZ,NA,24.107142857142858,NA
85303,Maricopa County,AZ,NA,65.05102040816327,NA
85323,Maricopa County,AZ,34.03441682600382,NA,NA
85373,Maricopa County,AZ,NA,75.51020408163265,NA
85382,Maricopa County,AZ,NA,NA,14.912280701754385
85705,Pima County,AZ,NA,7.3979591836734695,NA
85706,Pima County,AZ,4.015296367112811,NA,NA
85710,Pima County,AZ,NA,NA,6.359649122807018
85745,Pima County,AZ,NA,16.3265306122449,NA
85746,Pima County,AZ,NA,81.37755102040816,NA
85749,Pima County,AZ,NA,36.0969387755102,NA
86303,Yavapai County,AZ,NA,39.9234693877551,NA
86336,Yavapai County,AZ,NA,NA,64.69298245614034
86401,Mohave County,AZ,NA,8.290816326530612,NA
86429,Mohave County,AZ,NA,54.20918367346938,NA
71603,Jefferson County,AR,34.79923518164436,19.77040816326531,NA
71730,Union County,AR,NA,27.040816326530614,NA
72024,Lonoke County,AR,NA,99.74489795918367,NA
72031,Van Buren County,AR,NA,NA,94.07894736842105
72450,Greene County,AR,NA,55.994897959183675,NA
72762,Washington County,AR,72.65774378585085,NA,NA
72904,Sebastian County,AR,80.68833652007649,NA,NA
90012,Los Angeles County,CA,NA,87.37244897959184,NA
90023,Los Angeles County,CA,NA,92.60204081632652,NA
90025,Los Angeles County,CA,NA,86.60714285714286,9.210526315789473
90045,Los Angeles County,CA,NA,51.53061224489795,NA
90046,Los Angeles County,CA,NA,21.1734693877551,NA
90067,Los Angeles County,CA,NA,NA,73.68421052631578
90069,Los Angeles County,CA,NA,86.35204081632652,NA
90210,Los Angeles County,CA,99.4263862332696,44.26020408163265,18.640350877192983
90221,Los Angeles County,CA,NA,33.92857142857143,NA
90247,Los Angeles County,CA,75.1434034416826,NA,NA
90274,Los Angeles County,CA,NA,56.12244897959183,NA
90275,Los Angeles County,CA,NA,88.01020408163265,NA
90292,Los Angeles County,CA,NA,NA,40.78947368421053
90301,Los Angeles County,CA,64.43594646271511,NA,NA
90404,Los Angeles County,CA,NA,NA,82.23684210526315
90504,Los Angeles County,CA,NA,59.183673469387756,NA
90603,Los Angeles County,CA,NA,91.96428571428571,NA
90621,Orange County,CA,NA,56.505102040816325,NA
90630,Orange County,CA,NA,NA,37.06140350877193
90717,Los Angeles County,CA,82.02676864244742,NA,NA
90810,Los Angeles County,CA,79.34990439770554,80.2295918367347,NA
91016,Los Angeles County,CA,93.30783938814533,NA,NA
91030,Los Angeles County,CA,NA,73.5969387755102,NA
91042,Los Angeles County,CA,NA,86.73469387755102,NA
91206,Los Angeles County,CA,97.89674952198853,NA,NA
91342,Los Angeles County,CA,51.816443594646266,NA,NA
91361,Ventura County,CA,NA,NA,76.53508771929825
91362,Ventura County,CA,NA,38.64795918367347,NA
91403,Los Angeles County,CA,NA,NA,36.18421052631579
91423,Los Angeles County,CA,NA,NA,51.31578947368421
91601,Los Angeles County,CA,NA,61.224489795918366,NA
91702,Los Angeles County,CA,75.33460803059273,NA,NA
91709,San Bernardino County,CA,NA,24.872448979591837,NA
91741,Los Angeles County,CA,NA,47.704081632653065,NA
91750,Los Angeles County,CA,NA,70.66326530612244,NA
91762,San Bernardino County,CA,34.990439770554495,NA,NA
91773,Los Angeles County,CA,89.48374760994264,NA,NA
91784,San Bernardino County,CA,NA,43.75,NA
91910,San Diego County,CA,NA,29.336734693877553,NA
91950,San Diego County,CA,NA,32.27040816326531,NA
91977,San Diego County,CA,35.37284894837477,NA,NA
92021,San Diego County,CA,NA,63.26530612244898,NA
92036,San Diego County,CA,NA,98.46938775510205,NA
92067,San Diego County,CA,NA,NA,62.06140350877193
92069,San Diego County,CA,NA,50.51020408163265,NA
92101,San Diego County,CA,NA,9.693877551020408,NA
92103,San Diego County,CA,NA,NA,41.885964912280706
92111,San Diego County,CA,NA,NA,78.28947368421053
92116,San Diego County,CA,71.70172084130019,NA,NA
92117,San Diego County,CA,54.875717017208416,NA,NA
92128,San Diego County,CA,NA,NA,10.307017543859649
92130,San Diego County,CA,NA,54.71938775510205,NA
92211,Riverside County,CA,NA,NA,0.21929824561403508
92277,San Bernardino County,CA,NA,56.505102040816325,NA
92284,San Bernardino County,CA,NA,58.673469387755105,NA
92405,San Bernardino County,CA,71.31931166347992,NA,NA
92407,San Bernardino County,CA,NA,NA,95.6140350877193
92506,Riverside County,CA,68.83365200764818,NA,NA
92553,Riverside County,CA,NA,NA,75.21929824561403
92563,Riverside County,CA,NA,NA,41.44736842105263
92586,Riverside County,CA,NA,42.72959183673469,NA
92596,Riverside County,CA,NA,NA,86.40350877192982
92629,Orange County,CA,NA,38.13775510204081,NA
92646,Orange County,CA,NA,NA,6.798245614035088
92672,Orange County,CA,NA,50.38265306122449,NA
92675,Orange County,CA,NA,NA,39.03508771929825
92679,Orange County,CA,82.40917782026769,NA,NA
92691,Orange County,CA,NA,52.933673469387756,NA
92708,Orange County,CA,86.4244741873805,NA,NA
92821,Orange County,CA,60.22944550669216,NA,NA
92880,Riverside County,CA,NA,51.14795918367348,NA
92882,Riverside County,CA,NA,NA,62.28070175438597
93003,Ventura County,CA,17.208413001912046,NA,NA
93436,Santa Barbara County,CA,NA,NA,47.58771929824561
93454,Santa Barbara County,CA,32.69598470363289,NA,NA
93455,Santa Barbara County,CA,62.1414913957935,NA,NA
93536,Los Angeles County,CA,43.21223709369025,NA,NA
93551,Los Angeles County,CA,NA,NA,86.8421052631579
93635,Merced County,CA,41.10898661567878,NA,NA
93710,Fresno County,CA,NA,46.30102040816326,NA
93906,Monterey County,CA,NA,NA,43.859649122807014
94002,San Mateo County,CA,NA,37.11734693877551,NA
94010,San Mateo County,CA,NA,NA,9.868421052631579
94015,San Mateo County,CA,NA,82.90816326530613,NA
94024,Santa Clara County,CA,NA,66.3265306122449,NA
94025,San Mateo County,CA,NA,33.41836734693878,NA
94062,San Mateo County,CA,77.62906309751433,NA,NA
94112,San Francisco County,CA,NA,NA,3.070175438596491
94122,San Francisco County,CA,NA,53.06122448979592,NA
94501,Alameda County,CA,NA,40.816326530612244,NA
94509,Contra Costa County,CA,NA,12.5,NA
94510,Solano County,CA,NA,NA,67.98245614035088
94515,Napa County,CA,NA,89.54081632653062,NA
94521,Contra Costa County,CA,55.44933078393881,NA,NA
94530,Contra Costa County,CA,NA,82.52551020408163,NA
94536,Alameda County,CA,NA,NA,19.298245614035086
94545,Alameda County,CA,72.46653919694073,NA,NA
94547,Contra Costa County,CA,NA,70.91836734693877,NA
94559,Napa County,CA,NA,NA,49.34210526315789
94806,Contra Costa County,CA,NA,NA,19.517543859649123
94941,Marin County,CA,NA,38.775510204081634,NA
95003,Santa Cruz County,CA,NA,NA,94.2982456140351
95008,Santa Clara County,CA,84.13001912045888,NA,NA
95023,San Benito County,CA,NA,NA,46.71052631578947
95070,Santa Clara County,CA,NA,93.11224489795919,NA
95110,Santa Clara County,CA,96.94072657743786,NA,NA
95120,Santa Clara County,CA,NA,NA,32.23684210526316
95240,San Joaquin County,CA,62.33269598470363,NA,NA
95340,Merced County,CA,36.90248565965583,NA,NA
95350,Stanislaus County,CA,NA,13.26530612244898,NA
95367,Stanislaus County,CA,53.15487571701721,NA,NA
95482,Mendocino County,CA,NA,56.88775510204081,NA
95605,Yolo County,CA,NA,96.81122448979592,NA
95616,Yolo County,CA,NA,61.60714285714286,NA
95621,Sacramento County,CA,NA,NA,22.36842105263158
95667,El Dorado County,CA,NA,NA,13.37719298245614
95682,El Dorado County,CA,NA,37.37244897959184,NA
95762,El Dorado County,CA,NA,34.43877551020408,NA
95823,Sacramento County,CA,14.722753346080305,NA,NA
95826,Sacramento County,CA,87.5717017208413,NA,NA
95926,Butte County,CA,NA,NA,69.2982456140351
95928,Butte County,CA,NA,30.994897959183675,NA
95945,Nevada County,CA,NA,NA,24.12280701754386
95951,Glenn County,CA,NA,100,NA
95965,Butte County,CA,48.565965583174,NA,NA
95966,Butte County,CA,12.237093690248566,NA,NA
95969,Butte County,CA,NA,NA,95.83333333333334
80005,Jefferson County,CO,56.59655831739961,NA,NA
80011,Arapahoe County,CO,NA,64.66836734693877,NA
80012,Arapahoe County,CO,NA,NA,18.201754385964914
80013,Arapahoe County,CO,NA,NA,43.42105263157895
80017,Arapahoe County,CO,39.0057361376673,NA,NA
80020,Broomfield County,CO,NA,78.95408163265306,NA
80026,Boulder County,CO,58.31739961759082,45.1530612244898,96.05263157894737
80111,Arapahoe County,CO,67.87762906309752,NA,NA
80122,Arapahoe County,CO,92.35181644359464,NA,NA
80127,Jefferson County,CO,46.46271510516252,NA,NA
80134,Douglas County,CO,NA,NA,98.90350877192982
80135,Douglas County,CO,99.80879541108987,NA,NA
80204,Denver County,CO,23.32695984703633,NA,NA
80207,Denver County,CO,89.2925430210325,NA,NA
80211,Denver County,CO,38.04971319311664,NA,NA
80228,Jefferson County,CO,NA,52.04081632653062,NA
80237,Denver County,CO,NA,55.10204081632652,NA
80249,Denver County,CO,65.39196940726578,NA,NA
80260,Adams County,CO,NA,54.974489795918366,NA
80301,Boulder County,CO,NA,71.04591836734694,NA
80503,Boulder County,CO,NA,NA,76.09649122807018
80918,El Paso County,CO,NA,NA,72.58771929824562
81125,Saguache County,CO,99.23518164435946,NA,NA
81212,Fremont County,CO,NA,NA,35.74561403508772
06035,Hartford County,CT,NA,95.40816326530613,NA
06070,Hartford County,CT,NA,NA,67.32456140350878
06071,Tolland County,CT,NA,NA,78.50877192982456
06119,Hartford County,CT,NA,NA,93.85964912280701
06424,Middlesex County,CT,NA,91.3265306122449,NA
06511,New Haven County,CT,NA,NA,44.51754385964912
06513,New Haven County,CT,6.692160611854685,NA,NA
06517,New Haven County,CT,NA,NA,81.57894736842105
06704,New Haven County,CT,NA,NA,45.83333333333333
06712,New Haven County,CT,NA,75.12755102040816,NA
06790,Litchfield County,CT,NA,NA,32.01754385964912
06801,Fairfield County,CT,66.92160611854685,NA,NA
06811,Fairfield County,CT,NA,NA,15.789473684210526
06831,Fairfield County,CT,75.90822179732314,NA,NA
06850,Fairfield County,CT,NA,34.566326530612244,NA
06883,Fairfield County,CT,NA,NA,98.46491228070175
19701,New Castle County,DE,NA,15.433673469387754,NA
19808,New Castle County,DE,NA,20.02551020408163,NA
19943,Kent County,DE,NA,66.58163265306123,NA
19960,Sussex County,DE,NA,85.84183673469387,NA
19966,Sussex County,DE,NA,9.183673469387756,NA
19968,Sussex County,DE,NA,41.83673469387755,NA
19971,Sussex County,DE,NA,NA,30.263157894736842
32025,Columbia County,FL,NA,NA,64.25438596491229
32065,Clay County,FL,NA,34.69387755102041,NA
32080,St. Johns County,FL,NA,21.428571428571427,NA
32092,St. Johns County,FL,NA,37.5,NA
32117,Volusia County,FL,NA,48.34183673469388,NA
32148,Putnam County,FL,73.9961759082218,NA,NA
32162,Sumter County,FL,NA,3.061224489795918,NA
32218,Duval County,FL,NA,41.07142857142857,21.271929824561404
32225,Duval County,FL,NA,NA,14.035087719298245
32256,Duval County,FL,NA,35.84183673469388,NA
32258,Duval County,FL,54.11089866156787,NA,NA
32308,Leon County,FL,NA,NA,69.95614035087719
32309,Leon County,FL,NA,NA,56.35964912280702
32405,Bay County,FL,NA,27.55102040816326,NA
32421,Calhoun County,FL,88.7189292543021,NA,NA
32433,Walton County,FL,NA,70.02551020408163,NA
32455,Walton County,FL,94.45506692160612,NA,NA
32466,Bay County,FL,85.65965583173997,NA,NA
32526,Escambia County,FL,NA,9.311224489795919,7.456140350877193
32539,Okaloosa County,FL,NA,NA,31.798245614035086
32541,Okaloosa County,FL,63.67112810707457,NA,63.81578947368421
32547,Okaloosa County,FL,NA,NA,54.166666666666664
32566,Santa Rosa County,FL,NA,20.79081632653061,NA
32578,Okaloosa County,FL,NA,NA,20.175438596491226
32608,Alachua County,FL,NA,14.923469387755103,25.877192982456144
32725,Volusia County,FL,NA,NA,34.868421052631575
32763,Volusia County,FL,81.83556405353728,NA,NA
32765,Seminole County,FL,54.684512428298284,NA,46.05263157894737
32811,Orange County,FL,NA,NA,54.60526315789473
32818,Orange County,FL,NA,47.704081632653065,NA
32822,Orange County,FL,21.03250478011472,NA,NA
32836,Orange County,FL,NA,81.25,NA
32907,Brevard County,FL,NA,18.239795918367346,NA
32922,Brevard County,FL,NA,64.41326530612244,NA
32935,Brevard County,FL,NA,NA,20.394736842105264
32960,Indian River County,FL,48.18355640535373,NA,NA
32966,Indian River County,FL,NA,NA,16.447368421052634
32968,Indian River County,FL,NA,NA,74.56140350877193
33016,Miami-Dade County,FL,NA,NA,22.807017543859647
33018,Miami-Dade County,FL,NA,79.33673469387756,NA
33021,Broward County,FL,NA,NA,5.0438596491228065
33027,Broward County,FL,NA,36.224489795918366,NA
33063,Broward County,FL,42.06500956022944,NA,NA
33065,Broward County,FL,47.22753346080306,NA,NA
33069,Broward County,FL,NA,59.056122448979586,NA
33125,Miami-Dade County,FL,70.55449330783938,NA,NA
33136,Miami-Dade County,FL,NA,77.29591836734694,NA
33147,Miami-Dade County,FL,NA,32.78061224489796,NA
33150,Miami-Dade County,FL,50.860420650095605,NA,NA
33174,Miami-Dade County,FL,NA,65.3061224489796,NA
33186,Miami-Dade County,FL,NA,30.22959183673469,NA
33187,Miami-Dade County,FL,76.8642447418738,NA,NA
33193,Miami-Dade County,FL,95.41108986615679,NA,NA
33301,Broward County,FL,NA,63.01020408163265,NA
33324,Broward County,FL,NA,43.11224489795919,NA
33351,Broward County,FL,NA,55.48469387755102,NA
33407,Palm Beach County,FL,60.42065009560229,NA,NA
33411,Palm Beach County,FL,NA,52.423469387755105,NA
33413,Palm Beach County,FL,98.8527724665392,NA,NA
33431,Palm Beach County,FL,81.26195028680688,NA,NA
33432,Palm Beach County,FL,NA,NA,27.631578947368425
33433,Palm Beach County,FL,NA,18.622448979591837,NA
33437,Palm Beach County,FL,NA,78.4438775510204,NA
33442,Broward County,FL,76.48183556405354,NA,NA
33445,Palm Beach County,FL,NA,NA,25.438596491228072
33458,Palm Beach County,FL,NA,22.066326530612244,NA
33471,Glades County,FL,95.79349904397706,NA,NA
33498,Palm Beach County,FL,NA,NA,83.1140350877193
33511,Hillsborough County,FL,NA,75.76530612244898,NA
33584,Hillsborough County,FL,NA,61.86224489795919,NA
33707,Pinellas County,FL,NA,NA,22.149122807017545
33755,Pinellas County,FL,43.977055449330784,NA,NA
33778,Pinellas County,FL,NA,62.62755102040817,NA
33782,Pinellas County,FL,64.81835564053537,NA,NA
33825,Highlands County,FL,51.05162523900574,NA,NA
33873,Hardee County,FL,NA,66.3265306122449,NA
33903,Lee County,FL,NA,NA,24.561403508771928
33905,Lee County,FL,NA,NA,42.32456140350877
33909,Lee County,FL,NA,NA,57.01754385964912
33916,Lee County,FL,39.19694072657744,NA,NA
33950,Charlotte County,FL,NA,28.443877551020407,22.587719298245617
33967,Lee County,FL,NA,NA,90.35087719298247
34109,Collier County,FL,NA,51.275510204081634,25.657894736842106
34134,Lee County,FL,NA,57.39795918367348,NA
34145,Collier County,FL,93.11663479923517,NA,NA
34202,Manatee County,FL,NA,96.1734693877551,70.39473684210526
34287,Sarasota County,FL,NA,27.55102040816326,NA
34695,Pinellas County,FL,NA,86.4795918367347,NA
34711,Lake County,FL,NA,5.229591836734694,NA
34736,Lake County,FL,NA,44.13265306122449,80.04385964912281
34759,Polk County,FL,NA,40.433673469387756,NA
34787,Orange County,FL,NA,19.260204081632654,NA
34956,Martin County,FL,NA,NA,95.39473684210526
34957,Martin County,FL,NA,31.63265306122449,NA
34983,St. Lucie County,FL,24.665391969407267,NA,NA
34986,St. Lucie County,FL,NA,22.193877551020407,NA
30009,Fulton County,GA,86.23326959847036,NA,NA
30032,DeKalb County,GA,15.105162523900573,NA,NA
30039,Gwinnett County,GA,39.961759082217974,50,NA
30041,Forsyth County,GA,30.210325047801145,NA,NA
30043,Gwinnett County,GA,25.430210325047803,NA,NA
30047,Gwinnett County,GA,NA,23.852040816326532,NA
30058,DeKalb County,GA,22.562141491395792,NA,NA
30062,Cobb County,GA,43.021032504780116,NA,NA
30120,Bartow County,GA,22.37093690248566,NA,NA
30135,Douglas County,GA,NA,13.010204081632654,NA
30180,Carroll County,GA,NA,34.183673469387756,NA
30215,Fayette County,GA,82.79158699808795,65.17857142857143,NA
30252,Henry County,GA,NA,45.91836734693878,NA
30297,Clayton County,GA,NA,94.51530612244898,NA
30338,DeKalb County,GA,69.40726577437859,NA,NA
30340,DeKalb County,GA,79.1586998087954,NA,NA
30344,Fulton County,GA,NA,NA,74.3421052631579
30507,Hall County,GA,NA,59.566326530612244,NA
30534,Dawson County,GA,NA,64.9234693877551,85.96491228070175
30535,Habersham County,GA,91.39579349904398,NA,NA
30601,Clarke County,GA,NA,65.81632653061224,NA
30605,Clarke County,GA,NA,48.97959183673469,NA
30739,Walker County,GA,92.92543021032505,NA,NA
31014,Bleckley County,GA,NA,88.26530612244898,NA
31021,Laurens County,GA,NA,NA,50.43859649122807
31023,Dodge County,GA,71.31931166347992,NA,NA
31028,Houston County,GA,NA,NA,98.02631578947368
31052,Bibb County,GA,NA,83.03571428571429,NA
31217,Bibb County,GA,NA,46.42857142857143,NA
31404,Chatham County,GA,NA,NA,46.49122807017544
31510,Bacon County,GA,73.80497131931166,NA,NA
31705,Dougherty County,GA,NA,24.617346938775512,NA
31750,Ben Hill County,GA,NA,NA,55.70175438596491
31816,Meriwether County,GA,86.80688336520076,NA,NA
31833,Troup County,GA,NA,73.21428571428571,NA
31909,Muscogee County,GA,NA,58.29081632653062,NA
39819,Decatur County,GA,NA,90.68877551020408,NA
96706,Honolulu County,HI,NA,11.989795918367346,15.570175438596493
96707,Honolulu County,HI,NA,29.464285714285715,NA
96744,Honolulu County,HI,NA,3.6989795918367347,NA
96750,Hawaii County,HI,NA,90.43367346938776,NA
96786,Honolulu County,HI,34.41682600382409,NA,NA
96816,Honolulu County,HI,33.84321223709369,NA,NA
96821,Honolulu County,HI,NA,NA,68.2017543859649
96822,Honolulu County,HI,NA,NA,9.429824561403509
83201,Bannock County,ID,88.14531548757171,NA,NA
83406,Bonneville County,ID,NA,69.51530612244898,NA
83702,Ada County,ID,32.122370936902485,18.877551020408163,NA
83858,Kootenai County,ID,NA,NA,60.74561403508771
60002,Lake County,IL,94.64627151051626,31.377551020408163,NA
60007,Cook County,IL,NA,15.561224489795919,NA
60008,Cook County,IL,NA,NA,46.92982456140351
60018,Cook County,IL,NA,68.62244897959184,NA
60026,Cook County,IL,NA,43.87755102040816,NA
60035,Lake County,IL,NA,12.882653061224488,NA
60050,McHenry County,IL,NA,NA,51.973684210526315
60062,Cook County,IL,NA,NA,6.578947368421052
60074,Cook County,IL,NA,NA,75
60077,Cook County,IL,NA,NA,7.894736842105263
60093,Cook County,IL,NA,46.93877551020408,NA
60098,McHenry County,IL,NA,NA,47.14912280701755
60102,McHenry County,IL,NA,NA,48.90350877192983
60131,Cook County,IL,NA,66.96428571428571,NA
60133,Cook County,IL,NA,NA,71.49122807017544
60137,DuPage County,IL,NA,28.188775510204085,NA
60139,DuPage County,IL,74.76099426386233,NA,NA
60152,McHenry County,IL,NA,48.724489795918366,NA
60153,Cook County,IL,NA,22.831632653061224,NA
60176,Cook County,IL,NA,NA,94.73684210526315
60185,DuPage County,IL,NA,26.785714285714285,NA
60189,DuPage County,IL,36.32887189292543,NA,NA
60191,DuPage County,IL,NA,NA,51.75438596491229
60193,Cook County,IL,NA,NA,27.850877192982455
60302,Cook County,IL,NA,NA,69.51754385964912
60402,Cook County,IL,NA,9.566326530612244,NA
60423,Will County,IL,41.68260038240918,NA,NA
60426,Cook County,IL,54.302103250478005,NA,NA
60430,Cook County,IL,62.523900573613766,NA,NA
60465,Cook County,IL,NA,NA,53.289473684210535
60475,Will County,IL,75.90822179732314,NA,NA
60482,Cook County,IL,66.73040152963671,NA,NA
60502,DuPage County,IL,NA,68.23979591836735,NA
60510,Kane County,IL,NA,45.28061224489796,NA
60543,Kendall County,IL,NA,43.23979591836735,70.83333333333334
60605,Cook County,IL,NA,42.3469387755102,NA
60609,Cook County,IL,12.619502868068832,NA,NA
60610,Cook County,IL,NA,19.387755102040817,NA
60612,Cook County,IL,65.20076481835564,NA,NA
60623,Cook County,IL,48.37476099426386,NA,79.3859649122807
60629,Cook County,IL,NA,4.846938775510204,8.771929824561402
60632,Cook County,IL,NA,27.29591836734694,NA
60633,Cook County,IL,NA,NA,93.64035087719299
60637,Cook County,IL,NA,12.244897959183673,NA
60640,Cook County,IL,NA,7.780612244897959,37.280701754385966
60643,Cook County,IL,NA,NA,90.78947368421053
60644,Cook County,IL,10.325047801147228,NA,NA
60647,Cook County,IL,NA,18.112244897959183,NA
60649,Cook County,IL,NA,NA,17.763157894736842
60655,Cook County,IL,30.78393881453155,NA,NA
60659,Cook County,IL,NA,58.16326530612245,NA
60707,Cook County,IL,NA,NA,8.552631578947368
60914,Kankakee County,IL,NA,70.28061224489795,NA
61032,Stephenson County,IL,35.18164435946463,NA,NA
61068,Ogle County,IL,NA,NA,66.00877192982456
61102,Winnebago County,IL,NA,80.61224489795919,NA
61530,Woodford County,IL,NA,99.10714285714286,NA
61604,Peoria County,IL,NA,69.64285714285714,NA
61616,Peoria County,IL,NA,88.9030612244898,NA
61821,Champaign County,IL,NA,NA,11.403508771929824
61832,Vermilion County,IL,NA,NA,7.675438596491229
62040,Madison County,IL,NA,9.948979591836734,NA
62052,Jersey County,IL,NA,76.65816326530613,NA
62220,St. Clair County,IL,NA,NA,70.6140350877193
62454,Crawford County,IL,NA,69.89795918367348,NA
62521,Macon County,IL,NA,8.928571428571429,NA
62702,Sangamon County,IL,28.489483747609945,NA,35.30701754385965
62930,Saline County,IL,NA,88.26530612244898,NA
62959,Williamson County,IL,NA,16.198979591836736,17.982456140350877
46013,Madison County,IN,NA,17.47448979591837,NA
46052,Boone County,IN,NA,NA,45.614035087719294
46123,Hendricks County,IN,NA,39.285714285714285,NA
46219,Marion County,IN,NA,16.83673469387755,NA
46226,Marion County,IN,NA,14.030612244897958,NA
46236,Marion County,IN,82.60038240917783,NA,NA
46307,Lake County,IN,15.296367112810708,NA,NA
46319,Lake County,IN,NA,24.23469387755102,NA
46350,LaPorte County,IN,NA,32.525510204081634,NA
46383,Porter County,IN,NA,5.48469387755102,83.55263157894737
46385,Porter County,IN,NA,4.081632653061225,NA
46706,DeKalb County,IN,NA,NA,32.67543859649123
46711,Adams County,IN,NA,NA,90.13157894736842
46774,Allen County,IN,57.93499043977055,NA,NA
46902,Howard County,IN,NA,NA,6.140350877192982
46923,Carroll County,IN,NA,85.96938775510205,NA
47348,Blackford County,IN,62.7151051625239,NA,NA
47591,Knox County,IN,NA,23.341836734693878,NA
47630,Warrick County,IN,NA,NA,66.66666666666666
47715,Vanderburgh County,IN,60.9942638623327,NA,NA
47805,Vigo County,IN,90.82217973231359,NA,NA
47807,Vigo County,IN,45.88910133843212,NA,NA
50014,Story County,IA,NA,89.28571428571429,NA
50023,Polk County,IA,NA,76.14795918367348,NA
50317,Polk County,IA,NA,NA,38.59649122807017
50321,Polk County,IA,NA,90.05102040816327,NA
50322,Polk County,IA,NA,52.55102040816326,NA
50401,Cerro Gordo County,IA,14.149139579349903,NA,NA
50703,Black Hawk County,IA,NA,NA,30.92105263157895
51106,Woodbury County,IA,NA,44.515306122448976,NA
51501,Pottawattamie County,IA,5.353728489483748,NA,NA
51503,Pottawattamie County,IA,NA,NA,24.342105263157894
52404,Linn County,IA,NA,15.688775510204081,NA
52577,Mahaska County,IA,NA,39.795918367346935,NA
52641,Henry County,IA,NA,51.53061224489795,NA
52732,Clinton County,IA,NA,25.637755102040817,NA
66101,Wyandotte County,KS,83.93881453154876,NA,NA
66109,Wyandotte County,KS,NA,95.66326530612244,NA
66210,Johnson County,KS,NA,62.11734693877551,NA
66502,Riley County,KS,NA,64.28571428571429,NA
66534,Nemaha County,KS,100,NA,NA
66614,Shawnee County,KS,NA,NA,15.131578947368421
67337,Montgomery County,KS,NA,69.13265306122449,NA
67501,Reno County,KS,NA,67.85714285714286,NA
40069,Washington County,KY,NA,82.39795918367348,NA
40206,Jefferson County,KY,NA,73.34183673469387,NA
40291,Jefferson County,KY,NA,49.234693877551024,NA
40299,Jefferson County,KY,NA,20.66326530612245,NA
40324,Scott County,KY,15.487571701720842,NA,NA
40361,Bourbon County,KY,37.66730401529637,NA,NA
40390,Jessamine County,KY,NA,95.53571428571429,NA
40422,Boyle County,KY,47.60994263862332,NA,NA
40701,Whitley County,KY,NA,NA,23.464912280701753
40823,Harlan County,KY,NA,92.3469387755102,NA
41006,Pendleton County,KY,NA,96.68367346938776,NA
41011,Kenton County,KY,NA,83.29081632653062,NA
41017,Kenton County,KY,NA,52.295918367346935,NA
41042,Boone County,KY,NA,NA,23.026315789473685
41071,Campbell County,KY,29.254302103250478,NA,NA
41076,Campbell County,KY,NA,76.0204081632653,NA
41091,Boone County,KY,NA,85.58673469387756,NA
41175,Greenup County,KY,NA,93.49489795918367,NA
42001,McCracken County,KY,NA,19.005102040816325,NA
42101,Warren County,KY,NA,14.795918367346939,NA
42261,Butler County,KY,59.65583173996176,NA,NA
42420,Henderson County,KY,NA,12.372448979591837,NA
42450,Webster County,KY,96.36711281070745,NA,NA
42718,Taylor County,KY,NA,NA,10.087719298245613
42743,Green County,KY,64.81835564053537,NA,NA
70003,Jefferson Parish,LA,NA,3.9540816326530615,NA
70058,Jefferson Parish,LA,NA,11.607142857142858,NA
70065,Jefferson Parish,LA,79.92351816443595,NA,NA
70094,Jefferson Parish,LA,NA,14.540816326530612,NA
70119,Orleans Parish,LA,NA,65.68877551020408,NA
70131,Orleans Parish,LA,61.18546845124283,NA,NA
70301,Lafourche Parish,LA,NA,9.056122448979592,NA
70360,Terrebonne Parish,LA,NA,NA,37.5
70380,St. Mary Parish,LA,NA,85.0765306122449,NA
70431,St. Tammany Parish,LA,NA,NA,85.52631578947368
70445,St. Tammany Parish,LA,55.06692160611855,NA,NA
70447,St. Tammany Parish,LA,56.21414913957935,NA,NA
70520,Lafayette Parish,LA,26.003824091778206,NA,NA
70535,St. Landry Parish,LA,NA,40.30612244897959,NA
70555,Vermilion Parish,LA,NA,99.36224489795919,NA
70570,St. Landry Parish,LA,NA,11.096938775510203,NA
70578,Acadia Parish,LA,23.900573613766728,NA,NA
70706,Livingston Parish,LA,NA,NA,82.01754385964912
70734,Ascension Parish,LA,NA,99.48979591836735,NA
70737,Ascension Parish,LA,NA,48.214285714285715,NA
70767,West Baton Rouge Parish,LA,NA,92.21938775510205,NA
70769,Ascension Parish,LA,NA,91.19897959183673,NA
70775,West Feliciana Parish,LA,NA,67.98469387755102,NA
70807,East Baton Rouge Parish,LA,NA,60.076530612244895,NA
70808,East Baton Rouge Parish,LA,NA,NA,75.87719298245614
70810,East Baton Rouge Parish,LA,NA,24.872448979591837,NA
70815,East Baton Rouge Parish,LA,17.01720841300191,35.58673469387755,NA
70817,East Baton Rouge Parish,LA,NA,NA,92.10526315789474
71105,Caddo Parish,LA,NA,42.09183673469388,NA
71109,Caddo Parish,LA,NA,23.214285714285715,NA
71115,Caddo Parish,LA,NA,NA,37.93859649122807
71118,Caddo Parish,LA,NA,22.70408163265306,NA
71203,Ouachita Parish,LA,NA,72.06632653061224,32.45614035087719
71360,Rapides Parish,LA,13.575525812619501,NA,NA
71418,Caldwell Parish,LA,NA,NA,92.32456140350878
71463,Allen Parish,LA,NA,83.54591836734694,NA
03903,York County,ME,NA,72.1938775510204,NA
04084,Cumberland County,ME,NA,80.99489795918367,NA
04102,Cumberland County,ME,NA,35.204081632653065,NA
04103,Cumberland County,ME,23.518164435946463,NA,NA
04106,Cumberland County,ME,76.67304015296367,NA,NA
04280,Androscoggin County,ME,NA,NA,61.40350877192983
04330,Kennebec County,ME,45.69789674952199,NA,10.526315789473683
04938,Franklin County,ME,49.90439770554494,NA,NA
20705,Prince George's County,MD,NA,93.23979591836735,NA
20720,Prince George's County,MD,77.05544933078394,NA,NA
20721,Prince George's County,MD,NA,NA,56.79824561403509
20879,Montgomery County,MD,80.49713193116634,NA,NA
20901,Montgomery County,MD,73.04015296367112,NA,NA
21037,Anne Arundel County,MD,67.49521988527725,NA,NA
21044,Howard County,MD,NA,90.9438775510204,NA
21136,Baltimore County,MD,NA,86.22448979591837,NA
21204,Baltimore County,MD,NA,72.70408163265306,NA
21213,Baltimore city,MD,20.650095602294456,NA,NA
21217,Baltimore city,MD,NA,68.49489795918367,NA
21218,Baltimore city,MD,NA,NA,5.263157894736842
21227,Baltimore County,MD,NA,44.515306122448976,NA
21229,Baltimore city,MD,NA,18.367346938775512,NA
21231,Baltimore city,MD,NA,NA,73.90350877192982
21234,Baltimore County,MD,NA,NA,26.973684210526315
21286,Baltimore County,MD,NA,NA,44.95614035087719
21403,Anne Arundel County,MD,NA,41.70918367346938,NA
21613,Dorchester County,MD,NA,NA,89.91228070175438
21722,Washington County,MD,NA,97.32142857142857,NA
21742,Washington County,MD,NA,NA,37.719298245614034
21771,Frederick County,MD,NA,60.45918367346938,NA
21784,Carroll County,MD,NA,NA,48.026315789473685
01095,Hampden County,MA,NA,NA,14.692982456140353
01201,Berkshire County,MA,NA,4.209183673469387,NA
01420,Worcester County,MA,NA,2.6785714285714284,NA
01460,Middlesex County,MA,NA,NA,97.36842105263158
01532,Worcester County,MA,84.89483747609943,NA,NA
01569,Worcester County,MA,NA,63.9030612244898,NA
01581,Worcester County,MA,NA,77.8061224489796,NA
01590,Worcester County,MA,NA,94.7704081632653,NA
01604,Worcester County,MA,9.369024856596559,NA,NA
01720,Middlesex County,MA,34.608030592734224,NA,NA
01742,Middlesex County,MA,NA,NA,28.289473684210524
01752,Middlesex County,MA,5.162523900573614,41.454081632653065,NA
01775,Middlesex County,MA,NA,NA,91.8859649122807
01776,Middlesex County,MA,92.54302103250478,NA,57.23684210526315
01803,Middlesex County,MA,21.988527724665392,NA,NA
01826,Middlesex County,MA,NA,NA,72.36842105263158
01830,Essex County,MA,13.001912045889103,NA,NA
01833,Essex County,MA,NA,68.87755102040816,NA
01841,Essex County,MA,NA,0.5102040816326531,NA
01843,Essex County,MA,NA,77.16836734693877,NA
01844,Essex County,MA,2.294455066921606,54.33673469387755,NA
01906,Essex County,MA,4.2065009560229445,NA,NA
01913,Essex County,MA,NA,82.14285714285714,NA
01921,Essex County,MA,NA,85.20408163265306,NA
01923,Essex County,MA,NA,6.122448979591836,NA
01940,Essex County,MA,NA,NA,89.03508771929825
01960,Essex County,MA,NA,NA,0
02048,Bristol County,MA,21.606118546845124,NA,NA
02061,Plymouth County,MA,NA,96.5561224489796,NA
02062,Norfolk County,MA,70.17208413001912,NA,NA
02114,Suffolk County,MA,18.929254302103253,NA,44.29824561403509
02119,Suffolk County,MA,0,0.25510204081632654,NA
02125,Suffolk County,MA,5.927342256214149,NA,NA
02128,Suffolk County,MA,0.3824091778202677,NA,NA
02129,Suffolk County,MA,NA,90.3061224489796,NA
02130,Suffolk County,MA,2.1032504780114722,2.295918367346939,NA
02132,Suffolk County,MA,NA,2.423469387755102,NA
02139,Middlesex County,MA,40.91778202676864,NA,NA
02143,Middlesex County,MA,NA,NA,16.885964912280702
02148,Middlesex County,MA,NA,0.3826530612244898,NA
02149,Middlesex County,MA,26.577437858508606,NA,NA
02151,Suffolk County,MA,8.221797323135755,NA,NA
02152,Suffolk County,MA,NA,NA,60.526315789473685
02155,Middlesex County,MA,NA,NA,0.8771929824561403
02169,Norfolk County,MA,NA,0.7653061224489796,1.0964912280701753
02176,Middlesex County,MA,61.376673040152966,NA,NA
02184,Norfolk County,MA,NA,NA,7.017543859649122
02189,Norfolk County,MA,NA,53.57142857142857,78.94736842105263
02301,Plymouth County,MA,NA,0,1.3157894736842104
02346,Plymouth County,MA,NA,60.204081632653065,NA
02360,Plymouth County,MA,NA,NA,1.5350877192982455
02421,Middlesex County,MA,NA,34.94897959183674,NA
02445,Norfolk County,MA,NA,31.122448979591837,NA
02446,Norfolk County,MA,NA,7.015306122448979,NA
02478,Middlesex County,MA,NA,22.193877551020407,70.17543859649122
02649,Barnstable County,MA,NA,25.127551020408163,NA
02703,Bristol County,MA,1.7208413001912046,NA,29.605263157894733
02724,Bristol County,MA,NA,5.86734693877551,NA
02740,Bristol County,MA,1.9120458891013385,NA,NA
02745,Bristol County,MA,NA,8.673469387755102,NA
02780,Bristol County,MA,0.19120458891013384,NA,NA
02790,Bristol County,MA,23.135755258126196,NA,NA
48005,Macomb County,MI,NA,88.77551020408163,NA
48009,Oakland County,MI,50.66921606118547,NA,NA
48035,Macomb County,MI,12.045889101338432,NA,NA
48036,Macomb County,MI,58.69980879541109,25.892857142857146,NA
48038,Macomb County,MI,NA,NA,3.508771929824561
48039,St. Clair County,MI,NA,NA,97.58771929824562
48043,Macomb County,MI,61.95028680688337,NA,NA
48060,St. Clair County,MI,NA,28.316326530612244,NA
48066,Macomb County,MI,NA,8.418367346938775,NA
48071,Oakland County,MI,NA,33.035714285714285,NA
48080,Macomb County,MI,NA,13.137755102040815,NA
48082,Macomb County,MI,NA,NA,23.903508771929825
48089,Macomb County,MI,10.133843212237094,NA,NA
48091,Macomb County,MI,9.177820267686425,14.540816326530612,NA
48093,Macomb County,MI,NA,NA,19.078947368421055
48103,Washtenaw County,MI,NA,NA,15.350877192982457
48111,Wayne County,MI,NA,6.377551020408164,NA
48125,Wayne County,MI,NA,NA,47.80701754385965
48127,Wayne County,MI,NA,17.857142857142858,NA
48130,Washtenaw County,MI,91.01338432122371,NA,NA
48144,Monroe County,MI,86.9980879541109,NA,NA
48146,Wayne County,MI,10.51625239005736,NA,NA
48167,Oakland County,MI,40.53537284894838,NA,NA
48178,Oakland County,MI,NA,12.627551020408163,NA
48183,Wayne County,MI,71.1281070745698,NA,NA
48185,Wayne County,MI,7.839388145315487,7.142857142857142,NA
48187,Wayne County,MI,NA,17.72959183673469,NA
48188,Wayne County,MI,69.21606118546845,NA,34.64912280701755
48193,Wayne County,MI,NA,NA,84.4298245614035
48195,Wayne County,MI,NA,56.25,NA
48197,Washtenaw County,MI,33.269598470363285,NA,NA
48203,Wayne County,MI,45.124282982791584,53.18877551020408,NA
48204,Wayne County,MI,NA,NA,29.166666666666668
48213,Wayne County,MI,NA,57.27040816326531,NA
48215,Wayne County,MI,NA,47.066326530612244,NA
48221,Wayne County,MI,NA,NA,2.1929824561403506
48223,Wayne County,MI,41.87380497131931,NA,NA
48224,Wayne County,MI,NA,80.35714285714286,NA
48225,Wayne County,MI,NA,NA,71.71052631578947
48227,Wayne County,MI,18.738049713193117,NA,NA
48228,Wayne County,MI,NA,7.525510204081633,NA
48235,Wayne County,MI,3.4416826003824093,20.408163265306122,NA
48236,Wayne County,MI,NA,NA,10.74561403508772
48239,Wayne County,MI,51.434034416826,NA,NA
48304,Oakland County,MI,NA,47.44897959183674,25
48306,Oakland County,MI,NA,20.28061224489796,NA
48314,Macomb County,MI,NA,34.82142857142857,NA
48323,Oakland County,MI,NA,40.05102040816326,NA
48331,Oakland County,MI,NA,19.132653061224488,NA
48371,Oakland County,MI,37.858508604206506,NA,NA
48375,Oakland County,MI,49.330783938814534,NA,NA
48383,Oakland County,MI,66.1567877629063,NA,NA
48386,Oakland County,MI,NA,NA,51.09649122807017
48418,Shiawassee County,MI,NA,99.87244897959184,NA
48421,Lapeer County,MI,NA,77.93367346938776,NA
48433,Genesee County,MI,87.18929254302104,NA,NA
48439,Genesee County,MI,NA,NA,11.62280701754386
48442,Oakland County,MI,NA,NA,59.64912280701754
48473,Genesee County,MI,42.829827915869984,NA,NA
48532,Genesee County,MI,NA,36.607142857142854,NA
48624,Gladwin County,MI,NA,17.346938775510203,NA
48640,Midland County,MI,NA,NA,4.605263157894736
48642,Midland County,MI,NA,32.90816326530612,NA
48650,Bay County,MI,NA,NA,87.5
48703,Arenac County,MI,NA,NA,81.35964912280701
48823,Ingham County,MI,NA,25.510204081632654,NA
48836,Livingston County,MI,NA,77.4234693877551,NA
49006,Kalamazoo County,MI,NA,57.78061224489795,NA
49009,Kalamazoo County,MI,14.531548757170173,NA,NA
49013,Van Buren County,MI,96.5583173996176,NA,NA
49022,Berrien County,MI,NA,11.862244897959185,NA
49093,St. Joseph County,MI,NA,34.31122448979592,NA
49120,Berrien County,MI,15.678776290630974,45.79081632653062,NA
49203,Jackson County,MI,9.560229445506693,NA,NA
49230,Jackson County,MI,NA,73.85204081632652,NA
49341,Kent County,MI,NA,23.08673469387755,NA
49345,Kent County,MI,68.26003824091778,NA,NA
49412,Newaygo County,MI,NA,NA,56.57894736842105
49418,Kent County,MI,NA,58.03571428571429,NA
49420,Oceana County,MI,NA,79.59183673469387,NA
49428,Ottawa County,MI,95.21988527724665,NA,NA
49441,Muskegon County,MI,NA,4.719387755102041,NA
49445,Muskegon County,MI,NA,NA,60.96491228070175
49454,Mason County,MI,78.0114722753346,NA,NA
49507,Kent County,MI,NA,NA,43.20175438596491
49519,Kent County,MI,17.97323135755258,NA,NA
49546,Kent County,MI,38.4321223709369,29.846938775510207,12.280701754385964
49646,Kalkaska County,MI,51.625239005736134,NA,NA
49684,Grand Traverse County,MI,NA,NA,21.49122807017544
49721,Cheboygan County,MI,NA,67.21938775510205,NA
49829,Delta County,MI,NA,26.658163265306122,NA
49837,Delta County,MI,76.2906309751434,NA,NA
49858,Menominee County,MI,NA,NA,61.622807017543856
55021,Rice County,MN,65.96558317399618,NA,NA
55033,Dakota County,MN,32.313575525812624,NA,NA
55040,Isanti County,MN,NA,NA,88.1578947368421
55068,Dakota County,MN,NA,75.25510204081633,NA
55102,Ramsey County,MN,NA,NA,72.80701754385966
55105,Ramsey County,MN,69.98087954110899,NA,NA
55110,Ramsey County,MN,85.08604206500956,35.0765306122449,NA
55118,Dakota County,MN,NA,NA,75.43859649122807
55119,Ramsey County,MN,NA,NA,89.25438596491229
55316,Hennepin County,MN,NA,80.10204081632652,NA
55331,Hennepin County,MN,NA,NA,77.85087719298247
55345,Hennepin County,MN,87.76290630975143,NA,NA
55379,Scott County,MN,28.87189292543021,41.3265306122449,NA
55417,Hennepin County,MN,NA,NA,80.7017543859649
55426,Hennepin County,MN,NA,87.62755102040816,NA
55430,Hennepin County,MN,NA,NA,52.63157894736842
55432,Anoka County,MN,NA,71.93877551020408,NA
55433,Anoka County,MN,NA,50.12755102040817,NA
55447,Hennepin County,MN,NA,92.7295918367347,NA
55448,Anoka County,MN,81.64435946462714,NA,NA
55449,Anoka County,MN,49.7131931166348,NA,NA
55744,Itasca County,MN,NA,NA,5.482456140350877
55768,St. Louis County,MN,NA,98.5969387755102,NA
55805,St. Louis County,MN,44.93307839388145,NA,NA
55806,St. Louis County,MN,NA,55.35714285714286,NA
55902,Olmsted County,MN,NA,56.37755102040817,NA
55981,Wabasha County,MN,NA,NA,52.41228070175439
56031,Martin County,MN,NA,NA,11.18421052631579
56071,Scott County,MN,NA,77.04081632653062,62.5
56215,Swift County,MN,90.05736137667304,NA,NA
56387,Stearns County,MN,96.17590822179733,NA,NA
56482,Wadena County,MN,NA,NA,92.76315789473685
56501,Becker County,MN,NA,87.5,NA
56701,Pennington County,MN,50.47801147227533,NA,NA
38606,Panola County,MS,64.05353728489483,NA,NA
38654,DeSoto County,MS,NA,19.642857142857142,80.48245614035088
39203,Hinds County,MS,NA,87.88265306122449,NA
39204,Hinds County,MS,25.812619502868067,NA,NA
39355,Clarke County,MS,NA,81.88775510204081,NA
39440,Jones County,MS,NA,NA,50.877192982456144
39452,George County,MS,70.93690248565966,NA,NA
39465,Forrest County,MS,NA,NA,63.59649122807017
39466,Pearl River County,MS,NA,67.09183673469387,NA
39520,Hancock County,MS,NA,NA,55.26315789473685
39531,Harrison County,MS,NA,84.43877551020408,NA
39562,Jackson County,MS,NA,42.21938775510204,NA
39601,Lincoln County,MS,NA,NA,38.15789473684211
39645,Amite County,MS,88.52772466539197,NA,NA
63031,St. Louis County,MO,18.54684512428298,NA,NA
63033,St. Louis County,MO,46.27151051625239,NA,NA
63074,St. Louis County,MO,58.89101338432122,NA,NA
63080,Franklin County,MO,NA,47.5765306122449,NA
63084,Franklin County,MO,NA,NA,42.98245614035088
63109,St. Louis city,MO,NA,38.52040816326531,NA
63124,St. Louis County,MO,NA,NA,30.701754385964914
63640,St. Francois County,MO,40.72657743785851,NA,93.42105263157895
63801,Scott County,MO,53.53728489483748,NA,NA
63857,Dunklin County,MO,NA,NA,94.51754385964912
64114,Jackson County,MO,36.52007648183556,NA,NA
64133,Jackson County,MO,6.5009560229445515,NA,NA
64137,Jackson County,MO,NA,93.75,NA
64151,Platte County,MO,NA,15.178571428571427,NA
64485,Andrew County,MO,NA,55.73979591836735,NA
64506,Buchanan County,MO,NA,NA,1.9736842105263157
65037,Morgan County,MO,97.131931166348,NA,NA
65078,Morgan County,MO,NA,91.70918367346938,NA
65079,Camden County,MO,NA,NA,85.30701754385966
65270,Randolph County,MO,NA,37.62755102040816,NA
65301,Pettis County,MO,NA,8.801020408163266,NA
65619,Greene County,MO,83.74760994263862,NA,NA
65802,Greene County,MO,NA,17.21938775510204,NA
65807,Greene County,MO,NA,NA,5.921052631578947
59102,Yellowstone County,MT,43.78585086042065,NA,1.7543859649122806
59718,Gallatin County,MT,36.52007648183556,NA,NA
59860,Lake County,MT,NA,40.816326530612244,NA
68104,Douglas County,NE,NA,66.07142857142857,NA
68132,Douglas County,NE,NA,84.18367346938776,NA
68138,Sarpy County,NE,NA,NA,97.80701754385966
68310,Gage County,NE,62.90630975143403,NA,16.00877192982456
68506,Lancaster County,NE,NA,44.77040816326531,NA
68516,Lancaster County,NE,NA,41.964285714285715,NA
68949,Phelps County,NE,93.88145315487571,NA,NA
69101,Lincoln County,NE,NA,21.93877551020408,NA
69301,Box Butte County,NE,NA,63.13775510204081,NA
89102,Clark County,NV,NA,73.46938775510205,NA
89115,Clark County,NV,NA,66.19897959183673,NA
89128,Clark County,NV,NA,65.3061224489796,NA
89147,Clark County,NV,NA,NA,53.07017543859649
89706,Carson City,NV,NA,NA,57.89473684210527
03063,Hillsborough County,NH,NA,39.41326530612245,NA
03820,Strafford County,NH,68.06883365200764,NA,NA
03841,Rockingham County,NH,92.73422562141491,NA,NA
03867,Strafford County,NH,NA,NA,4.385964912280701
07003,Essex County,NJ,11.47227533460803,NA,NA
07035,Morris County,NJ,NA,93.36734693877551,NA
07045,Morris County,NJ,NA,NA,87.06140350877193
07060,Union County,NJ,NA,20.535714285714285,NA
07065,Union County,NJ,NA,64.79591836734694,NA
07071,Bergen County,NJ,NA,70.02551020408163,NA
07094,Hudson County,NJ,NA,NA,59.86842105263158
07202,Union County,NJ,8.795411089866157,NA,NA
07206,Union County,NJ,89.10133843212236,NA,NA
07305,Hudson County,NJ,0.5736137667304015,3.188775510204082,NA
07430,Bergen County,NJ,NA,48.08673469387755,NA
07450,Bergen County,NJ,NA,NA,66.22807017543859
07470,Passaic County,NJ,17.78202676864245,NA,NA
07481,Bergen County,NJ,NA,NA,61.8421052631579
07604,Bergen County,NJ,NA,81.50510204081633,NA
07621,Bergen County,NJ,NA,57.6530612244898,NA
07646,Bergen County,NJ,NA,95.79081632653062,NA
07660,Bergen County,NJ,NA,79.46428571428571,NA
07726,Monmouth County,NJ,NA,23.72448979591837,NA
07740,Monmouth County,NJ,67.30401529636711,NA,NA
07974,Union County,NJ,NA,97.06632653061224,NA
08003,Camden County,NJ,27.915869980879542,82.6530612244898,NA
08005,Ocean County,NJ,NA,29.081632653061224,NA
08007,Camden County,NJ,95.98470363288719,NA,NA
08021,Camden County,NJ,NA,33.545918367346935,NA
08028,Gloucester County,NJ,NA,50.89285714285714,NA
08034,Camden County,NJ,NA,71.68367346938776,NA
08054,Burlington County,NJ,NA,NA,17.105263157894736
08060,Burlington County,NJ,16.826003824091778,NA,NA
08087,Ocean County,NJ,19.311663479923517,NA,NA
08105,Camden County,NJ,NA,60.33163265306123,NA
08234,Atlantic County,NJ,NA,NA,89.69298245614034
08312,Gloucester County,NJ,55.25812619502868,NA,NA
08332,Cumberland County,NJ,2.676864244741874,NA,40.35087719298245
08360,Cumberland County,NJ,1.5296367112810707,NA,NA
08520,Mercer County,NJ,NA,NA,57.675438596491226
08527,Ocean County,NJ,NA,6.760204081632653,NA
08628,Mercer County,NJ,63.862332695984705,NA,NA
08736,Monmouth County,NJ,NA,79.97448979591837,NA
08755,Ocean County,NJ,54.49330783938815,NA,NA
08810,Middlesex County,NJ,NA,NA,98.68421052631578
08816,Middlesex County,NJ,64.24474187380497,NA,NA
08852,Middlesex County,NJ,NA,83.6734693877551,NA
08859,Middlesex County,NJ,49.330783938814534,NA,NA
08873,Somerset County,NJ,15.86998087954111,NA,NA
08876,Somerset County,NJ,NA,89.41326530612244,NA
87043,Sandoval County,NM,NA,NA,96.71052631578947
87059,Bernalillo County,NM,NA,78.69897959183673,NA
87105,Bernalillo County,NM,6.309751434034416,NA,NA
87109,Bernalillo County,NM,NA,13.903061224489797,9.649122807017543
87111,Bernalillo County,NM,5.736137667304015,NA,NA
87123,Bernalillo County,NM,NA,5.357142857142857,NA
87124,Sandoval County,NM,78.96749521988528,NA,NA
87508,Santa Fe County,NM,NA,47.95918367346938,NA
88005,Doa Ana County,NM,NA,36.86224489795919,NA
88012,Doa Ana County,NM,NA,NA,53.72807017543859
88030,Luna County,NM,NA,41.19897959183674,NA
88061,Grant County,NM,68.64244741873804,NA,NA
88210,Eddy County,NM,42.44741873804971,NA,NA
88240,Lea County,NM,NA,16.071428571428573,NA
88310,Otero County,NM,NA,NA,31.140350877192986
10009,New York County,NY,NA,4.974489795918367,NA
10016,New York County,NY,37.09369024856596,NA,NA
10017,New York County,NY,NA,95.91836734693877,NA
10019,New York County,NY,NA,NA,21.710526315789476
10023,New York County,NY,NA,NA,3.7280701754385963
10025,New York County,NY,NA,1.530612244897959,NA
10029,New York County,NY,7.265774378585086,0.6377551020408163,NA
10033,New York County,NY,NA,16.964285714285715,NA
10037,New York County,NY,39.19694072657744,NA,NA
10040,New York County,NY,NA,16.581632653061224,NA
10306,Richmond County,NY,NA,NA,12.938596491228072
10312,Richmond County,NY,NA,NA,19.736842105263158
10453,Bronx County,NY,1.338432122370937,1.1479591836734695,NA
10454,Bronx County,NY,30.019120458891013,NA,NA
10456,Bronx County,NY,NA,0.12755102040816327,NA
10457,Bronx County,NY,0.7648183556405354,0.8928571428571428,NA
10461,Bronx County,NY,13.957934990439771,NA,NA
10468,Bronx County,NY,NA,2.933673469387755,NA
10469,Bronx County,NY,4.780114722753346,NA,NA
10472,Bronx County,NY,53.72848948374761,2.5510204081632653,NA
10473,Bronx County,NY,23.709369024856596,NA,NA
10514,Westchester County,NY,NA,98.72448979591837,NA
10530,Westchester County,NY,NA,97.32142857142857,NA
10562,Westchester County,NY,NA,NA,71.27192982456141
10705,Westchester County,NY,NA,57.90816326530612,NA
10710,Westchester County,NY,85.46845124282983,NA,NA
10984,Rockland County,NY,NA,89.15816326530613,NA
11040,Nassau County,NY,NA,NA,26.096491228070175
11102,Queens County,NY,NA,74.10714285714286,NA
11206,Kings County,NY,NA,1.7857142857142856,NA
11207,Kings County,NY,NA,10.076530612244898,NA
11208,Kings County,NY,NA,2.0408163265306123,NA
11212,Kings County,NY,NA,1.0204081632653061,31.359649122807014
11214,Kings County,NY,17.39961759082218,NA,NA
11217,Kings County,NY,41.10898661567878,NA,NA
11218,Kings County,NY,NA,NA,5.701754385964912
11219,Kings County,NY,NA,79.20918367346938,NA
11220,Kings County,NY,5.544933078393881,NA,NA
11237,Kings County,NY,NA,45.40816326530612,NA
11355,Queens County,NY,29.44550669216061,68.11224489795919,79.60526315789474
11360,Queens County,NY,NA,NA,45.39473684210527
11362,Queens County,NY,NA,80.48469387755102,NA
11374,Queens County,NY,NA,22.5765306122449,NA
11413,Queens County,NY,47.801147227533455,NA,NA
11415,Queens County,NY,NA,66.83673469387756,NA
11426,Queens County,NY,NA,NA,86.18421052631578
11432,Queens County,NY,28.680688336520078,NA,NA
11434,Queens County,NY,NA,14.285714285714285,NA
11507,Nassau County,NY,NA,NA,91.44736842105263
11520,Nassau County,NY,NA,NA,36.40350877192983
11550,Nassau County,NY,NA,NA,33.114035087719294
11553,Nassau County,NY,NA,NA,59.42982456140351
11561,Nassau County,NY,NA,62.11734693877551,20.833333333333336
11590,Nassau County,NY,NA,NA,21.929824561403507
11735,Nassau County,NY,NA,55.22959183673469,NA
11767,Suffolk County,NY,NA,88.64795918367348,NA
11779,Suffolk County,NY,NA,44.89795918367347,NA
11792,Suffolk County,NY,97.32313575525812,NA,NA
11946,Suffolk County,NY,NA,NA,59.210526315789465
12020,Saratoga County,NY,21.223709369024856,NA,NA
12183,Albany County,NY,NA,99.61734693877551,NA
12202,Albany County,NY,NA,NA,99.78070175438597
12205,Albany County,NY,NA,NA,41.00877192982456
12302,Schenectady County,NY,NA,NA,28.07017543859649
12304,Schenectady County,NY,87.95411089866157,NA,NA
12508,Dutchess County,NY,NA,94.26020408163265,NA
12801,Warren County,NY,65.77437858508604,NA,NA
12944,Essex County,NY,70.74569789674953,NA,NA
13077,Cortland County,NY,NA,62.88265306122449,NA
13082,Madison County,NY,NA,96.30102040816327,NA
13114,Oswego County,NY,56.787762906309744,NA,NA
13166,Cayuga County,NY,NA,83.80102040816327,NA
13207,Onondaga County,NY,32.504780114722756,NA,NA
13214,Onondaga County,NY,NA,NA,80.92105263157895
13413,Oneida County,NY,NA,27.933673469387756,23.464912280701753
13660,St. Lawrence County,NY,NA,97.95918367346938,NA
13732,Tioga County,NY,71.70172084130019,39.03061224489796,NA
13734,Tioga County,NY,91.77820267686424,NA,NA
13790,Broome County,NY,NA,NA,12.5
13820,Otsego County,NY,NA,31.887755102040817,NA
13850,Broome County,NY,NA,4.591836734693878,NA
13901,Broome County,NY,21.79732313575526,NA,NA
14036,Genesee County,NY,85.27724665391969,NA,NA
14059,Erie County,NY,NA,NA,78.50877192982456
14075,Erie County,NY,NA,49.36224489795919,NA
14085,Erie County,NY,78.77629063097514,NA,NA
14086,Erie County,NY,21.414913957934992,NA,NA
14120,Niagara County,NY,NA,7.270408163265306,NA
14150,Erie County,NY,27.724665391969406,NA,NA
14172,Niagara County,NY,92.16061185468452,NA,NA
14210,Erie County,NY,93.49904397705545,NA,NA
14211,Erie County,NY,NA,46.683673469387756,NA
14215,Erie County,NY,NA,31.505102040816325,NA
14216,Erie County,NY,NA,87.75510204081633,NA
14221,Erie County,NY,67.49521988527725,NA,NA
14305,Niagara County,NY,7.648183556405354,NA,NA
14411,Orleans County,NY,NA,37.755102040816325,NA
14414,Livingston County,NY,83.36520076481835,NA,84.21052631578947
14416,Genesee County,NY,NA,94.38775510204081,NA
14420,Monroe County,NY,16.44359464627151,NA,NA
14425,Ontario County,NY,NA,23.46938775510204,NA
14450,Monroe County,NY,NA,28.443877551020407,NA
14502,Wayne County,NY,80.87954110898661,NA,NA
14519,Wayne County,NY,53.91969407265774,NA,NA
14526,Monroe County,NY,NA,13.392857142857142,NA
14530,Wyoming County,NY,NA,NA,100
14534,Monroe County,NY,58.508604206500955,NA,NA
14548,Ontario County,NY,NA,70.53571428571429,NA
14580,Monroe County,NY,NA,27.168367346938776,NA
14609,Monroe County,NY,NA,26.147959183673468,NA
14612,Monroe County,NY,NA,13.64795918367347,NA
14617,Monroe County,NY,NA,43.36734693877551,29.385964912280706
14618,Monroe County,NY,47.03632887189293,71.30102040816327,NA
14623,Monroe County,NY,18.35564053537285,NA,NA
14624,Monroe County,NY,3.632887189292543,2.806122448979592,NA
14626,Monroe County,NY,4.588910133843212,NA,NA
14701,Chautauqua County,NY,NA,NA,11.842105263157894
14738,Chautauqua County,NY,NA,90.81632653061224,NA
14779,Cattaraugus County,NY,NA,80.73979591836735,NA
14891,Schuyler County,NY,NA,NA,85.74561403508771
27021,Stokes County,NC,NA,62.5,NA
27103,Forsyth County,NC,16.061185468451242,NA,NA
27106,Forsyth County,NC,NA,3.571428571428571,NA
27205,Randolph County,NC,NA,97.70408163265306,NA
27244,Alamance County,NC,NA,89.79591836734694,NA
27284,Forsyth County,NC,NA,NA,2.4122807017543857
27288,Rockingham County,NC,NA,20.918367346938776,NA
27292,Davidson County,NC,NA,1.403061224489796,NA
27295,Davidson County,NC,NA,3.826530612244898,NA
27302,Alamance County,NC,31.35755258126195,NA,NA
27312,Chatham County,NC,NA,NA,14.473684210526317
27320,Rockingham County,NC,NA,NA,3.289473684210526
27371,Montgomery County,NC,NA,77.67857142857143,NA
27406,Guilford County,NC,22.94455066921606,11.73469387755102,NA
27407,Guilford County,NC,NA,32.39795918367347,NA
27408,Guilford County,NC,NA,78.57142857142857,NA
27410,Guilford County,NC,NA,74.48979591836735,NA
27504,Johnston County,NC,NA,NA,65.78947368421053
27514,Orange County,NC,NA,NA,33.99122807017544
27526,Wake County,NC,NA,NA,55.04385964912281
27545,Wake County,NC,44.55066921606118,NA,NA
27607,Wake County,NC,NA,71.68367346938776,NA
27616,Wake County,NC,NA,33.6734693877551,NA
27701,Durham County,NC,46.845124282982795,NA,NA
27703,Durham County,NC,NA,10.58673469387755,NA
27704,Durham County,NC,NA,NA,33.771929824561404
27707,Durham County,NC,NA,8.16326530612245,54.385964912280706
27889,Beaufort County,NC,NA,NA,28.728070175438596
28027,Cabarrus County,NC,NA,NA,20.614035087719298
28034,Gaston County,NC,NA,86.0969387755102,NA
28103,Union County,NC,NA,71.1734693877551,NA
28115,Iredell County,NC,52.58126195028681,NA,NA
28117,Iredell County,NC,NA,29.71938775510204,NA
28150,Cleveland County,NC,NA,NA,35.08771929824561
28207,Mecklenburg County,NC,NA,78.06122448979592,NA
28210,Mecklenburg County,NC,NA,NA,28.947368421052634
28214,Mecklenburg County,NC,NA,46.1734693877551,NA
28306,Bladen County,NC,NA,32.015306122448976,NA
28312,Cumberland County,NC,NA,42.857142857142854,NA
28326,Harnett County,NC,NA,60.58673469387755,NA
28328,Sampson County,NC,NA,NA,36.84210526315789
28348,Cumberland County,NC,35.75525812619503,NA,NA
28352,Scotland County,NC,NA,67.7295918367347,NA
28364,Robeson County,NC,44.35946462715105,NA,NA
28374,Moore County,NC,NA,47.19387755102041,NA
28411,New Hanover County,NC,NA,35.96938775510204,NA
28428,New Hanover County,NC,NA,NA,96.9298245614035
28443,Pender County,NC,88.91013384321224,NA,NA
28451,Brunswick County,NC,30.592734225621417,NA,NA
28460,Onslow County,NC,NA,74.36224489795919,NA
28467,Brunswick County,NC,NA,58.41836734693877,NA
28540,Onslow County,NC,NA,23.596938775510203,NA
28570,Carteret County,NC,NA,42.474489795918366,NA
28580,Greene County,NC,73.4225621414914,NA,NA
28601,Catawba County,NC,NA,NA,81.7982456140351
28602,Catawba County,NC,NA,NA,62.71929824561403
28625,Iredell County,NC,NA,49.87244897959184,NA
28730,Buncombe County,NC,99.04397705544933,NA,NA
28734,Macon County,NC,NA,8.545918367346939,NA
28786,Haywood County,NC,NA,15.943877551020408,NA
28791,Henderson County,NC,NA,NA,13.596491228070176
28803,Buncombe County,NC,49.1395793499044,NA,NA
58104,Cass County,ND,NA,NA,2.850877192982456
58554,Morton County,ND,37.2848948374761,NA,NA
43015,Delaware County,OH,NA,6.887755102040815,NA
43026,Franklin County,OH,75.71701720841301,NA,NA
43050,Knox County,OH,31.931166347992352,NA,NA
43054,Franklin County,OH,NA,84.94897959183673,NA
43081,Franklin County,OH,24.47418738049713,NA,NA
43110,Franklin County,OH,NA,38.01020408163265,NA
43119,Franklin County,OH,NA,90.56122448979592,NA
43123,Franklin County,OH,NA,7.653061224489796,NA
43125,Franklin County,OH,NA,55.48469387755102,NA
43130,Fairfield County,OH,NA,3.316326530612245,NA
43138,Hocking County,OH,NA,59.693877551020414,NA
43146,Pickaway County,OH,NA,93.87755102040816,NA
43160,Fayette County,OH,NA,51.91326530612245,NA
43202,Franklin County,OH,NA,NA,96.49122807017544
43211,Franklin County,OH,NA,78.31632653061224,NA
43215,Franklin County,OH,NA,NA,77.41228070175438
43223,Franklin County,OH,28.298279158699806,22.95918367346939,NA
43224,Franklin County,OH,27.342256214149142,NA,60.30701754385965
43227,Franklin County,OH,24.8565965583174,NA,NA
43229,Franklin County,OH,57.361376673040155,NA,NA
43311,Logan County,OH,NA,86.86224489795919,NA
43315,Morrow County,OH,NA,NA,95.17543859649122
43402,Wood County,OH,NA,NA,17.324561403508774
43440,Ottawa County,OH,NA,96.04591836734694,NA
43512,Defiance County,OH,NA,59.43877551020408,NA
43551,Wood County,OH,NA,NA,12.06140350877193
43560,Lucas County,OH,NA,64.03061224489795,NA
43607,Lucas County,OH,8.413001912045889,NA,NA
43608,Lucas County,OH,NA,39.66836734693878,NA
43612,Lucas County,OH,7.0745697896749515,15.306122448979592,NA
43613,Lucas County,OH,20.45889101338432,NA,NA
43623,Lucas County,OH,NA,NA,65.5701754385965
43701,Muskingum County,OH,1.147227533460803,6.505102040816327,12.719298245614036
43730,Perry County,OH,98.08795411089865,NA,NA
43764,Perry County,OH,NA,64.54081632653062,84.86842105263158
43812,Coshocton County,OH,44.168260038240916,NA,NA
43912,Belmont County,OH,52.00764818355641,NA,NA
43952,Jefferson County,OH,NA,10.331632653061225,NA
44017,Cuyahoga County,OH,NA,34.05612244897959,NA
44023,Geauga County,OH,NA,84.0561224489796,NA
44024,Geauga County,OH,NA,63.39285714285714,NA
44026,Geauga County,OH,NA,91.45408163265306,NA
44030,Ashtabula County,OH,NA,45.025510204081634,NA
44035,Lorain County,OH,NA,NA,0.43859649122807015
44039,Lorain County,OH,9.94263862332696,NA,NA
44053,Lorain County,OH,NA,NA,4.824561403508771
44055,Lorain County,OH,11.089866156787762,NA,NA
44057,Lake County,OH,NA,NA,13.815789473684212
44060,Lake County,OH,NA,8.035714285714286,NA
44070,Cuyahoga County,OH,25.04780114722753,NA,NA
44087,Summit County,OH,NA,13.77551020408163,45.17543859649123
44090,Lorain County,OH,57.17017208413002,NA,NA
44094,Lake County,OH,48.75717017208413,NA,NA
44105,Cuyahoga County,OH,NA,17.091836734693878,NA
44106,Cuyahoga County,OH,NA,NA,18.859649122807017
44107,Cuyahoga County,OH,3.2504780114722758,NA,NA
44109,Cuyahoga County,OH,NA,2.1683673469387754,NA
44110,Cuyahoga County,OH,NA,33.29081632653062,NA
44111,Cuyahoga County,OH,2.8680688336520075,3.4438775510204076,NA
44118,Cuyahoga County,OH,NA,NA,26.31578947368421
44119,Cuyahoga County,OH,51.24282982791587,NA,NA
44120,Cuyahoga County,OH,NA,NA,8.114035087719298
44121,Cuyahoga County,OH,NA,11.479591836734695,NA
44123,Cuyahoga County,OH,NA,NA,36.622807017543856
44126,Cuyahoga County,OH,86.04206500956023,NA,NA
44127,Cuyahoga County,OH,83.17399617590823,NA,NA
44130,Cuyahoga County,OH,NA,1.2755102040816326,NA
44131,Cuyahoga County,OH,NA,92.09183673469387,NA
44134,Cuyahoga County,OH,NA,NA,24.780701754385966
44136,Cuyahoga County,OH,58.12619502868069,NA,NA
44137,Cuyahoga County,OH,8.030592734225621,NA,NA
44212,Medina County,OH,4.97131931166348,NA,NA
44240,Portage County,OH,29.636711281070742,NA,NA
44278,Summit County,OH,93.69024856596559,NA,NA
44281,Medina County,OH,NA,NA,16.666666666666664
44310,Summit County,OH,12.4282982791587,NA,NA
44312,Summit County,OH,NA,9.438775510204081,NA
44313,Summit County,OH,59.847036328871894,NA,NA
44404,Trumbull County,OH,98.2791586998088,NA,NA
44406,Mahoning County,OH,NA,58.545918367346935,NA
44473,Trumbull County,OH,NA,NA,87.71929824561403
44505,Mahoning County,OH,NA,87.11734693877551,NA
44511,Mahoning County,OH,NA,NA,54.824561403508774
44512,Mahoning County,OH,NA,61.47959183673469,NA
44514,Mahoning County,OH,NA,60.84183673469388,NA
44622,Tuscarawas County,OH,NA,NA,17.543859649122805
44691,Wayne County,OH,NA,5.48469387755102,NA
44706,Stark County,OH,NA,38.9030612244898,NA
44805,Ashland County,OH,NA,NA,23.026315789473685
44813,Richland County,OH,72.848948374761,NA,NA
44820,Crawford County,OH,24.091778202676863,NA,NA
44827,Crawford County,OH,NA,70.40816326530613,NA
44870,Erie County,OH,NA,37.244897959183675,NA
44875,Richland County,OH,NA,90.17857142857143,NA
45011,Butler County,OH,NA,NA,10.964912280701753
45013,Butler County,OH,NA,53.443877551020414,NA
45042,Butler County,OH,NA,NA,74.78070175438597
45044,Butler County,OH,7.45697896749522,12.11734693877551,NA
45067,Butler County,OH,NA,72.5765306122449,NA
45069,Butler County,OH,NA,NA,13.157894736842104
45123,Highland County,OH,NA,NA,39.473684210526315
45177,Clinton County,OH,26.38623326959847,NA,NA
45211,Hamilton County,OH,NA,27.806122448979593,NA
45224,Hamilton County,OH,52.39005736137668,NA,NA
45229,Hamilton County,OH,31.166347992351817,NA,NA
45230,Hamilton County,OH,NA,NA,59.86842105263158
45237,Hamilton County,OH,NA,NA,48.24561403508772
45238,Hamilton County,OH,60.61185468451242,NA,NA
45239,Hamilton County,OH,63.09751434034416,NA,NA
45242,Hamilton County,OH,NA,NA,39.91228070175439
45248,Hamilton County,OH,NA,NA,83.77192982456141
45311,Preble County,OH,84.51242829827916,NA,NA
45322,Montgomery County,OH,NA,NA,66.8859649122807
45324,Greene County,OH,NA,48.46938775510204,19.956140350877195
45342,Montgomery County,OH,55.64053537284895,NA,NA
45377,Montgomery County,OH,NA,42.984693877551024,NA
45415,Montgomery County,OH,NA,53.826530612244895,NA
45440,Montgomery County,OH,NA,NA,52.85087719298246
45449,Montgomery County,OH,NA,NA,42.54385964912281
45458,Montgomery County,OH,38.81453154875717,NA,NA
45601,Ross County,OH,0.9560229445506693,NA,NA
45638,Lawrence County,OH,NA,4.336734693877551,NA
45661,Pike County,OH,NA,40.17857142857143,NA
45669,Lawrence County,OH,NA,NA,58.77192982456141
45750,Washington County,OH,3.0592734225621414,NA,NA
45801,Allen County,OH,13.766730401529637,NA,NA
73120,Oklahoma County,OK,NA,NA,14.25438596491228
73135,Oklahoma County,OK,NA,52.16836734693877,NA
73159,Oklahoma County,OK,45.506692160611856,NA,NA
73160,Cleveland County,OK,14.340344168260039,NA,NA
73742,Kingfisher County,OK,NA,98.08673469387756,NA
74012,Tulsa County,OK,NA,NA,8.333333333333332
74019,Rogers County,OK,46.08030592734226,NA,NA
74055,Tulsa County,OK,NA,26.27551020408163,NA
74063,Tulsa County,OK,77.82026768642447,NA,NA
74108,Tulsa County,OK,NA,NA,87.93859649122807
74129,Tulsa County,OK,NA,74.61734693877551,NA
74136,Tulsa County,OK,NA,NA,27.412280701754387
74346,Delaware County,OK,NA,94.13265306122449,NA
74464,Cherokee County,OK,11.281070745697896,NA,NA
74801,Pottawatomie County,OK,NA,NA,71.9298245614035
74849,Seminole County,OK,NA,NA,99.12280701754386
97035,Clackamas County,OR,NA,83.41836734693877,NA
97051,Columbia County,OR,NA,70.79081632653062,NA
97078,Washington County,OR,NA,81.12244897959184,NA
97089,Clackamas County,OR,77.24665391969407,NA,NA
97113,Washington County,OR,NA,NA,88.37719298245614
97202,Multnomah County,OR,NA,44.38775510204081,NA
97214,Multnomah County,OR,NA,75,NA
97220,Multnomah County,OR,NA,NA,42.10526315789473
97230,Multnomah County,OR,NA,85.71428571428571,NA
97325,Marion County,OR,NA,99.23469387755102,NA
97367,Lincoln County,OR,NA,30.357142857142854,NA
97394,Lincoln County,OR,98.47036328871893,NA,NA
97404,Lane County,OR,NA,NA,56.14035087719298
97405,Lane County,OR,96.74952198852772,NA,NA
97420,Coos County,OR,NA,38.392857142857146,NA
97424,Lane County,OR,NA,NA,69.73684210526315
97458,Coos County,OR,NA,97.83163265306123,NA
97459,Coos County,OR,NA,69.38775510204081,NA
97526,Josephine County,OR,NA,64.15816326530613,NA
97601,Klamath County,OR,NA,10.96938775510204,NA
97702,Deschutes County,OR,NA,35.714285714285715,NA
97741,Jefferson County,OR,NA,67.3469387755102,74.12280701754386
97838,Umatilla County,OR,NA,47.32142857142857,NA
15001,Beaver County,PA,21.988527724665392,NA,NA
15025,Allegheny County,PA,NA,NA,58.333333333333336
15137,Allegheny County,PA,NA,56.76020408163265,NA
15203,Allegheny County,PA,NA,66.70918367346938,NA
15212,Allegheny County,PA,26.76864244741874,NA,NA
15226,Allegheny County,PA,NA,NA,35.96491228070175
15234,Allegheny County,PA,84.32122370936902,NA,NA
15235,Allegheny County,PA,NA,46.683673469387756,7.236842105263158
15237,Allegheny County,PA,NA,NA,3.9473684210526314
15367,Washington County,PA,NA,NA,92.98245614035088
15501,Somerset County,PA,NA,NA,76.09649122807018
15601,Westmoreland County,PA,6.118546845124283,NA,NA
15642,Westmoreland County,PA,NA,6.25,NA
15650,Westmoreland County,PA,NA,NA,8.991228070175438
15656,Westmoreland County,PA,NA,84.82142857142857,NA
15668,Westmoreland County,PA,NA,81.63265306122449,NA
15851,Jefferson County,PA,NA,52.67857142857143,NA
16023,Butler County,PA,NA,NA,73.24561403508771
16121,Mercer County,PA,NA,83.92857142857143,NA
16125,Mercer County,PA,NA,15.051020408163266,NA
16150,Mercer County,PA,66.34799235181644,NA,NA
16323,Venango County,PA,75.33460803059273,NA,NA
16407,Erie County,PA,74.37858508604207,NA,NA
16602,Blair County,PA,69.59847036328873,NA,NA
17011,Cumberland County,PA,28.107074569789674,NA,NA
17013,Cumberland County,PA,NA,NA,53.94736842105263
17028,Dauphin County,PA,NA,96.93877551020408,NA
17046,Lebanon County,PA,11.663479923518166,NA,NA
17103,Dauphin County,PA,39.77055449330784,NA,NA
17201,Franklin County,PA,91.96940726577438,NA,NA
17257,Cumberland County,PA,NA,NA,68.64035087719299
17268,Franklin County,PA,NA,NA,51.53508771929825
17331,York County,PA,NA,1.913265306122449,NA
17402,York County,PA,19.88527724665392,NA,NA
17403,York County,PA,4.397705544933078,NA,NA
17603,Lancaster County,PA,NA,76.4030612244898,NA
17815,Columbia County,PA,NA,10.459183673469388,NA
17821,Montour County,PA,NA,13.520408163265307,NA
17842,Snyder County,PA,NA,NA,73.02631578947368
17847,Northumberland County,PA,61.75908221797323,NA,NA
17857,Northumberland County,PA,NA,75.25510204081633,NA
17901,Schuylkill County,PA,56.022944550669216,NA,NA
17931,Schuylkill County,PA,73.61376673040154,NA,NA
18014,Northampton County,PA,NA,NA,41.66666666666667
18015,Northampton County,PA,10.707456978967496,NA,NA
18066,Lehigh County,PA,NA,NA,92.98245614035088
18067,Northampton County,PA,NA,26.53061224489796,NA
18109,Lehigh County,PA,27.533460803059274,NA,NA
18301,Monroe County,PA,NA,27.933673469387756,NA
18407,Lackawanna County,PA,NA,77.55102040816327,NA
18452,Lackawanna County,PA,NA,NA,94.95614035087719
18644,Luzerne County,PA,NA,61.0969387755102,NA
18702,Luzerne County,PA,NA,5.1020408163265305,NA
18966,Bucks County,PA,NA,NA,42.76315789473684
18976,Bucks County,PA,74.5697896749522,NA,NA
19003,Montgomery County,PA,NA,65.81632653061224,NA
19007,Bucks County,PA,NA,58.92857142857143,NA
19021,Bucks County,PA,59.08221797323135,NA,NA
19038,Montgomery County,PA,NA,NA,50.43859649122807
19053,Bucks County,PA,NA,63.64795918367348,NA
19060,Delaware County,PA,NA,73.5969387755102,NA
19067,Bucks County,PA,NA,7.908163265306123,NA
19083,Delaware County,PA,NA,61.73469387755102,NA
19103,Philadelphia County,PA,NA,21.04591836734694,NA
19124,Philadelphia County,PA,2.48565965583174,10.204081632653061,NA
19129,Philadelphia County,PA,NA,60.71428571428571,NA
19130,Philadelphia County,PA,78.58508604206502,NA,NA
19136,Philadelphia County,PA,NA,24.489795918367346,NA
19138,Philadelphia County,PA,NA,20.153061224489797,NA
19141,Philadelphia County,PA,9.751434034416825,NA,81.14035087719299
19143,Philadelphia County,PA,NA,1.6581632653061225,NA
19145,Philadelphia County,PA,NA,NA,31.57894736842105
19146,Philadelphia County,PA,NA,21.428571428571427,NA
19147,Philadelphia County,PA,NA,25.765306122448976,NA
19152,Philadelphia County,PA,20.076481835564053,NA,NA
19312,Chester County,PA,NA,43.62244897959184,NA
19401,Montgomery County,PA,10.89866156787763,NA,NA
19428,Montgomery County,PA,NA,96.42857142857143,NA
19438,Montgomery County,PA,NA,NA,30.043859649122805
19446,Montgomery County,PA,16.252390057361378,NA,NA
19473,Montgomery County,PA,98.66156787762907,NA,NA
19510,Berks County,PA,NA,82.2704081632653,NA
19533,Berks County,PA,88.33652007648183,NA,NA
19567,Berks County,PA,91.20458891013385,NA,NA
02809,Bristol County,RI,78.39388145315488,NA,NA
02852,Washington County,RI,NA,25.38265306122449,NA
02878,Newport County,RI,NA,49.107142857142854,NA
02879,Washington County,RI,NA,32.6530612244898,NA
02893,Kent County,RI,NA,53.69897959183674,NA
02895,Providence County,RI,NA,24.362244897959183,NA
02906,Providence County,RI,NA,NA,48.46491228070175
02909,Providence County,RI,20.26768642447419,NA,NA
02920,Providence County,RI,95.02868068833652,NA,NA
29045,Kershaw County,SC,NA,NA,73.46491228070175
29072,Lexington County,SC,29.063097514340345,NA,NA
29135,Calhoun County,SC,NA,85.33163265306123,NA
29169,Lexington County,SC,NA,89.66836734693877,NA
29203,Richland County,SC,38.24091778202677,NA,NA
29206,Richland County,SC,NA,NA,85.08771929824562
29210,Richland County,SC,NA,48.5969387755102,NA
29306,Spartanburg County,SC,NA,62.755102040816325,NA
29316,Spartanburg County,SC,NA,NA,41.228070175438596
29403,Charleston County,SC,NA,59.94897959183674,NA
29406,Charleston County,SC,NA,52.806122448979586,NA
29436,Berkeley County,SC,NA,92.98469387755102,NA
29451,Charleston County,SC,NA,NA,90.5701754385965
29455,Charleston County,SC,NA,30.612244897959183,NA
29464,Charleston County,SC,NA,53.316326530612244,NA
29505,Florence County,SC,47.801147227533455,NA,NA
29510,Georgetown County,SC,NA,78.95408163265306,NA
29520,Chesterfield County,SC,NA,81.76020408163265,NA
29526,Horry County,SC,NA,10.58673469387755,NA
29550,Darlington County,SC,NA,19.51530612244898,NA
29556,Williamsburg County,SC,NA,95.28061224489795,NA
29609,Greenville County,SC,NA,40.56122448979592,NA
29611,Greenville County,SC,NA,NA,26.535087719298247
29621,Anderson County,SC,NA,49.61734693877551,NA
29630,Pickens County,SC,NA,76.53061224489795,NA
29650,Greenville County,SC,NA,NA,47.368421052631575
29672,Oconee County,SC,NA,NA,58.114035087719294
29691,Oconee County,SC,95.60229445506691,NA,NA
29693,Oconee County,SC,NA,68.36734693877551,NA
29730,York County,SC,NA,NA,44.73684210526316
29732,York County,SC,NA,21.683673469387756,NA
29745,York County,SC,50.09560229445506,NA,NA
29841,Aiken County,SC,NA,26.913265306122447,NA
29860,Edgefield County,SC,NA,NA,67.10526315789474
57104,Minnehaha County,SD,30.975143403441685,6.63265306122449,NA
57110,Minnehaha County,SD,NA,25.255102040816325,NA
57201,Codington County,SD,NA,59.31122448979592,NA
37064,Williamson County,TN,NA,46.045918367346935,NA
37072,Davidson County,TN,33.07839388145315,NA,NA
37075,Sumner County,TN,17.590822179732314,NA,NA
37129,Rutherford County,TN,NA,NA,50.21929824561403
37130,Rutherford County,TN,NA,28.8265306122449,NA
37160,Bedford County,TN,NA,30.86734693877551,NA
37217,Davidson County,TN,NA,50.63775510204081,NA
37218,Davidson County,TN,94.83747609942638,NA,NA
37221,Davidson County,TN,NA,57.01530612244898,NA
37303,McMinn County,TN,24.282982791587,NA,NA
37354,Monroe County,TN,37.476099426386234,NA,NA
37357,Warren County,TN,NA,94.00510204081633,NA
37381,Rhea County,TN,NA,60.96938775510205,NA
37404,Hamilton County,TN,NA,71.5561224489796,NA
37604,Washington County,TN,NA,NA,64.91228070175438
37659,Washington County,TN,NA,26.403061224489793,NA
37701,Blount County,TN,NA,63.39285714285714,NA
37803,Blount County,TN,NA,NA,69.07894736842105
37840,Roane County,TN,NA,NA,88.59649122807018
37871,Jefferson County,TN,NA,68.87755102040816,NA
37917,Knox County,TN,18.164435946462714,NA,NA
37934,Knox County,TN,74.18738049713193,NA,NA
38002,Shelby County,TN,64.62715105162525,NA,NA
38058,Tipton County,TN,86.61567877629062,NA,NA
38108,Shelby County,TN,NA,51.78571428571429,NA
38109,Shelby County,TN,NA,14.41326530612245,NA
38112,Shelby County,TN,NA,68.75,NA
38118,Shelby County,TN,19.50286806883365,NA,NA
38126,Shelby County,TN,NA,98.21428571428571,NA
38127,Shelby County,TN,52.96367112810707,NA,NA
38261,Obion County,TN,NA,31.25,NA
38343,Gibson County,TN,72.27533460803059,NA,NA
38344,Carroll County,TN,NA,97.5765306122449,NA
38382,Gibson County,TN,73.23135755258127,NA,NA
38464,Lawrence County,TN,NA,NA,40.131578947368425
38574,Putnam County,TN,NA,61.98979591836735,NA
38585,Van Buren County,TN,NA,NA,91.22807017543859
75019,Dallas County,TX,52.77246653919694,NA,NA
75028,Denton County,TX,NA,35.33163265306122,NA
75032,Rockwall County,TX,81.26195028680688,NA,NA
75050,Dallas County,TX,42.25621414913958,NA,NA
75052,Dallas County,TX,NA,NA,28.50877192982456
75063,Dallas County,TX,78.20267686424475,NA,NA
75070,Collin County,TX,NA,NA,67.54385964912281
75080,Dallas County,TX,NA,39.54081632653062,NA
75082,Collin County,TX,NA,88.5204081632653,NA
75087,Rockwall County,TX,NA,NA,61.18421052631579
75093,Collin County,TX,NA,29.97448979591837,NA
75149,Dallas County,TX,19.694072657743785,NA,NA
75204,Dallas County,TX,57.55258126195029,NA,NA
75206,Dallas County,TX,48.94837476099426,NA,NA
75214,Dallas County,TX,NA,54.46428571428571,NA
75215,Dallas County,TX,29.82791586998088,NA,NA
75228,Dallas County,TX,8.98661567877629,NA,NA
75232,Dallas County,TX,89.8661567877629,NA,NA
75237,Dallas County,TX,44.74187380497132,NA,NA
75241,Dallas County,TX,25.239005736137663,NA,NA
75253,Dallas County,TX,NA,NA,89.47368421052632
75287,Denton County,TX,94.07265774378585,NA,NA
75482,Hopkins County,TX,56.40535372848948,NA,NA
75604,Gregg County,TX,80.30592734225621,NA,NA
75758,Henderson County,TX,NA,39.15816326530612,NA
75904,Angelina County,TX,63.28871892925431,NA,NA
75948,Sabine County,TX,NA,NA,91.66666666666666
76016,Tarrant County,TX,NA,21.301020408163264,NA
76017,Tarrant County,TX,NA,NA,33.55263157894737
76028,Johnson County,TX,13.38432122370937,4.464285714285714,NA
76051,Tarrant County,TX,33.460803059273424,NA,NA
76116,Tarrant County,TX,NA,NA,55.48245614035088
76117,Tarrant County,TX,NA,33.80102040816326,NA
76179,Tarrant County,TX,NA,30.739795918367346,NA
76226,Denton County,TX,NA,58.80102040816326,NA
76262,Denton County,TX,45.31548757170172,NA,NA
76273,Grayson County,TX,NA,67.47448979591837,NA
76306,Wichita County,TX,61.5678776290631,NA,NA
76310,Wichita County,TX,NA,72.83163265306123,NA
76448,Eastland County,TX,NA,93.62244897959184,NA
76450,Young County,TX,80.11472275334609,NA,NA
76502,Bell County,TX,90.43977055449331,NA,NA
76513,Bell County,TX,NA,NA,40.57017543859649
76706,McLennan County,TX,NA,NA,21.052631578947366
76903,Tom Green County,TX,NA,NA,43.640350877192986
76904,Tom Green County,TX,NA,NA,79.82456140350878
77017,Harris County,TX,NA,NA,65.13157894736842
77035,Harris County,TX,41.491395793499045,NA,NA
77056,Harris County,TX,72.08413001912047,NA,NA
77062,Harris County,TX,NA,92.47448979591837,NA
77077,Harris County,TX,NA,29.209183673469386,NA
77093,Harris County,TX,42.638623326959845,NA,NA
77339,Harris County,TX,NA,NA,68.42105263157895
77357,Montgomery County,TX,60.038240917782026,NA,NA
77373,Harris County,TX,NA,24.744897959183675,NA
77375,Harris County,TX,53.346080305927345,NA,NA
77377,Harris County,TX,43.59464627151052,NA,NA
77389,Harris County,TX,NA,53.826530612244895,NA
77406,Fort Bend County,TX,NA,88.13775510204081,NA
77471,Fort Bend County,TX,NA,NA,49.780701754385966
77479,Fort Bend County,TX,31.35755258126195,16.70918367346939,NA
77493,Harris County,TX,NA,NA,66.22807017543859
77511,Brazoria County,TX,16.634799235181642,NA,NA
77518,Galveston County,TX,NA,86.98979591836735,NA
77520,Harris County,TX,NA,NA,53.50877192982456
77541,Brazoria County,TX,NA,50.76530612244898,NA
77563,Galveston County,TX,NA,45.66326530612245,NA
77566,Brazoria County,TX,50.2868068833652,NA,NA
77568,Galveston County,TX,NA,26.02040816326531,NA
77571,Harris County,TX,90.63097514340345,NA,NA
77573,Galveston County,TX,11.854684512428298,NA,NA
77590,Galveston County,TX,NA,12.755102040816327,NA
77859,Robertson County,TX,NA,NA,98.24561403508771
78041,Webb County,TX,NA,19.897959183673468,NA
78052,Atascosa County,TX,NA,94.64285714285714,NA
78155,Guadalupe County,TX,NA,NA,33.33333333333333
78214,Bexar County,TX,NA,59.82142857142857,NA
78218,Bexar County,TX,NA,48.85204081632653,NA
78380,Nueces County,TX,82.02676864244742,NA,NA
78411,Nueces County,TX,NA,63.775510204081634,NA
78413,Nueces County,TX,NA,69.7704081632653,NA
78418,Nueces County,TX,NA,72.1938775510204,NA
78526,Cameron County,TX,NA,83.03571428571429,NA
78574,Hidalgo County,TX,NA,33.16326530612245,NA
78586,Cameron County,TX,NA,41.58163265306122,NA
78599,Hidalgo County,TX,NA,74.74489795918367,84.64912280701753
78617,Travis County,TX,69.78967495219885,NA,NA
78654,Burnet County,TX,NA,NA,79.16666666666666
78702,Travis County,TX,NA,71.42857142857143,NA
78834,Dimmit County,TX,NA,84.56632653061224,NA
79118,Randall County,TX,NA,NA,86.40350877192982
79413,Lubbock County,TX,NA,78.06122448979592,NA
79424,Lubbock County,TX,NA,55.86734693877551,NA
79605,Taylor County,TX,NA,NA,58.55263157894737
79703,Midland County,TX,56.97896749521989,NA,NA
84015,Davis County,UT,NA,43.87755102040816,NA
84020,Salt Lake County,UT,43.40344168260038,NA,78.0701754385965
84032,Wasatch County,UT,NA,97.06632653061224,NA
84044,Salt Lake County,UT,NA,91.83673469387756,NA
84070,Salt Lake County,UT,85.8508604206501,NA,NA
84081,Salt Lake County,UT,32.88718929254302,NA,NA
84092,Salt Lake County,UT,NA,40.68877551020408,NA
84093,Salt Lake County,UT,NA,75.63775510204081,NA
84094,Salt Lake County,UT,NA,43.494897959183675,NA
84098,Summit County,UT,84.7036328871893,NA,NA
84109,Salt Lake County,UT,NA,NA,30.263157894736842
84118,Salt Lake County,UT,NA,91.58163265306123,NA
84119,Salt Lake County,UT,14.91395793499044,35.45918367346938,NA
84120,Salt Lake County,UT,NA,17.98469387755102,NA
84321,Cache County,UT,NA,65.56122448979592,NA
84401,Weber County,UT,NA,46.42857142857143,NA
84604,Utah County,UT,NA,80.86734693877551,NA
84770,Washington County,UT,NA,NA,34.21052631578947
84780,Washington County,UT,70.36328871892925,NA,NA
05701,Rutland County,VT,NA,9.821428571428571,NA
20165,Loudoun County,VA,65.5831739961759,NA,NA
20171,Fairfax County,VA,NA,67.60204081632652,NA
22025,Prince William County,VA,NA,73.9795918367347,NA
22033,Fairfax County,VA,NA,57.14285714285714,NA
22079,Fairfax County,VA,NA,NA,75.6578947368421
22102,Fairfax County,VA,NA,72.44897959183673,NA
22181,Fairfax County,VA,87.38049713193116,NA,NA
22182,Fairfax County,VA,NA,NA,80.26315789473685
22546,Caroline County,VA,69.02485659655831,NA,NA
22580,Caroline County,VA,91.58699808795411,NA,NA
22630,Warren County,VA,27.151051625239003,NA,NA
22664,Shenandoah County,VA,NA,NA,71.05263157894737
22802,Harrisonburg city,VA,NA,76.27551020408163,NA
22853,Rockingham County,VA,97.70554493307839,NA,NA
22902,Charlottesville city,VA,NA,30.484693877551024,NA
22911,Albemarle County,VA,NA,NA,26.75438596491228
22968,Greene County,VA,99.61759082217974,NA,NA
23072,Gloucester County,VA,NA,NA,58.99122807017544
23113,Chesterfield County,VA,NA,NA,48.46491228070175
23188,James City County,VA,NA,17.602040816326532,38.59649122807017
23234,Chesterfield County,VA,20.84130019120459,NA,NA
23435,Suffolk city,VA,47.41873804971319,NA,NA
23454,Virginia Beach city,VA,NA,11.224489795918368,NA
23505,Norfolk city,VA,39.5793499043977,NA,32.89473684210527
23513,Norfolk city,VA,19.120458891013385,NA,NA
24017,Roanoke city,VA,26.95984703632887,NA,NA
24018,Roanoke County,VA,NA,28.69897959183674,NA
24055,Henry County,VA,60.80305927342257,NA,63.377192982456144
24210,Washington County,VA,35.94646271510516,NA,NA
24273,Norton city,VA,66.53919694072657,NA,NA
24370,Smyth County,VA,NA,54.59183673469388,NA
24501,Lynchburg city,VA,59.273422562141484,NA,NA
24504,Lynchburg city,VA,55.831739961759084,NA,NA
24523,Bedford County,VA,NA,36.98979591836735,NA
24531,Pittsylvania County,VA,NA,76.78571428571429,NA
24592,Halifax County,VA,NA,78.8265306122449,NA
98006,King County,WA,NA,27.4234693877551,52.19298245614035
98011,King County,WA,90.24856596558317,NA,NA
98012,Snohomish County,WA,31.73996175908222,NA,NA
98032,King County,WA,NA,89.9234693877551,NA
98033,King County,WA,NA,NA,25
98036,Snohomish County,WA,46.65391969407266,NA,NA
98037,Snohomish County,WA,82.98279158699809,NA,NA
98043,Snohomish County,WA,NA,95.02551020408163,NA
98052,King County,WA,NA,18.494897959183675,NA
98058,King County,WA,33.652007648183556,NA,68.85964912280701
98059,King County,WA,NA,75.89285714285714,64.47368421052632
98072,King County,WA,NA,79.71938775510205,NA
98125,King County,WA,40.344168260038245,NA,NA
98133,King County,WA,30.401529636711285,NA,NA
98168,King County,WA,34.22562141491396,NA,NA
98177,King County,WA,68.45124282982792,NA,NA
98223,Snohomish County,WA,NA,49.744897959183675,NA
98250,San Juan County,WA,NA,89.03061224489795,NA
98258,Snohomish County,WA,26.003824091778206,NA,NA
98284,Skagit County,WA,74.95219885277247,NA,NA
98296,Snohomish County,WA,NA,85.45918367346938,NA
98312,Kitsap County,WA,NA,NA,72.14912280701753
98349,Pierce County,WA,NA,NA,88.81578947368422
98362,Clallam County,WA,NA,NA,4.166666666666666
98366,Kitsap County,WA,NA,NA,27.192982456140353
98371,Pierce County,WA,NA,50.255102040816325,NA
98408,Pierce County,WA,97.51434034416826,NA,NA
98501,Thurston County,WA,NA,NA,49.122807017543856
98520,Grays Harbor County,WA,59.46462715105163,NA,NA
98569,Grays Harbor County,WA,NA,72.95918367346938,NA
98620,Klickitat County,WA,NA,NA,91.00877192982456
98626,Cowlitz County,WA,NA,NA,50
98944,Yakima County,WA,NA,91.07142857142857,NA
99352,Benton County,WA,81.07074569789675,NA,NA
20020,District of Columbia,DC,NA,29.97448979591837,NA
24740,Mercer County,WV,NA,29.464285714285715,NA
25130,Boone County,WV,NA,NA,99.3421052631579
25177,Kanawha County,WV,NA,NA,16.228070175438596
25276,Roane County,WV,NA,94.89795918367348,NA
25312,Kanawha County,WV,63.47992351816444,NA,NA
25414,Jefferson County,WV,NA,NA,83.99122807017544
25526,Putnam County,WV,38.623326959847034,NA,NA
25550,Mason County,WV,NA,62.37244897959183,NA
25705,Cabell County,WV,NA,51.4030612244898,NA
26037,Brooke County,WV,NA,84.6938775510204,NA
26155,Wetzel County,WV,NA,NA,67.76315789473685
26241,Randolph County,WV,NA,21.81122448979592,NA
26508,Monongalia County,WV,NA,5.7397959183673475,NA
26554,Marion County,WV,6.8833652007648185,NA,2.631578947368421
53012,Ozaukee County,WI,NA,45.535714285714285,NA
53024,Ozaukee County,WI,NA,79.8469387755102,NA
53040,Washington County,WI,NA,87.24489795918367,96.27192982456141
53066,Waukesha County,WI,39.961759082217974,NA,NA
53092,Ozaukee County,WI,89.67495219885278,NA,NA
53095,Washington County,WI,NA,16.45408163265306,NA
53115,Walworth County,WI,NA,36.35204081632653,NA
53128,Walworth County,WI,NA,84.31122448979592,NA
53140,Kenosha County,WI,13.193116634799235,NA,NA
53142,Kenosha County,WI,NA,18.622448979591837,NA
53150,Waukesha County,WI,NA,NA,46.271929824561404
53154,Milwaukee County,WI,NA,10.841836734693878,NA
53158,Kenosha County,WI,22.753346080305928,NA,NA
53172,Milwaukee County,WI,NA,36.734693877551024,29.82456140350877
53188,Waukesha County,WI,25.621414913957935,NA,NA
53190,Walworth County,WI,NA,54.8469387755102,NA
53205,Milwaukee County,WI,3.824091778202677,NA,NA
53211,Milwaukee County,WI,NA,NA,39.69298245614035
53212,Milwaukee County,WI,NA,92.85714285714286,NA
53216,Milwaukee County,WI,8.604206500956023,NA,NA
53217,Milwaukee County,WI,35.5640535372849,57.525510204081634,65.35087719298247
53219,Milwaukee County,WI,NA,11.35204081632653,NA
53222,Milwaukee County,WI,NA,NA,55.70175438596491
53227,Milwaukee County,WI,36.137667304015295,NA,NA
53511,Rock County,WI,NA,5.994897959183673,NA
53520,Green County,WI,NA,49.48979591836735,NA
53533,Iowa County,WI,NA,NA,77.19298245614034
53536,Rock County,WI,NA,NA,77.63157894736842
53538,Jefferson County,WI,NA,NA,62.93859649122807
53575,Dane County,WI,NA,NA,76.97368421052632
53593,Dane County,WI,79.54110898661568,74.23469387755102,NA
53704,Dane County,WI,12.810707456978967,NA,NA
53711,Dane County,WI,NA,14.158163265306122,NA
53714,Dane County,WI,NA,76.78571428571429,NA
53717,Dane County,WI,NA,53.826530612244895,NA
53913,Sauk County,WI,NA,15.816326530612246,NA
54016,St. Croix County,WI,NA,73.08673469387756,NA
54022,Pierce County,WI,NA,42.60204081632653,NA
54143,Marinette County,WI,NA,NA,39.25438596491228
54171,Oconto County,WI,NA,98.85204081632652,NA
54241,Manitowoc County,WI,NA,32.142857142857146,NA
54494,Wood County,WI,NA,31.760204081632654,NA
54601,La Crosse County,WI,NA,NA,0.6578947368421052
54768,Chippewa County,WI,NA,98.9795918367347,NA
54848,Rusk County,WI,83.5564053537285,NA,NA
54891,Bayfield County,WI,NA,95.1530612244898,NA
54915,Outagamie County,WI,NA,NA,82.45614035087719
82609,Natrona County,WY,79.54110898661568,NA,NA
82801,Sheridan County,WY,67.11281070745699,NA,NA
