ZipCode,county,state,Adult,Retirement,Geriatric
35124,Shelby County,AL,NA,NA,66.66666666666666
35160,Talladega County,AL,18.421052631578945,NA,NA
35405,Tuscaloosa County,AL,8.270676691729323,NA,NA
35475,Tuscaloosa County,AL,NA,90.21164021164022,NA
35603,Morgan County,AL,NA,69.84126984126983,NA
35614,Limestone County,AL,74.43609022556392,NA,NA
35640,Morgan County,AL,65.0375939849624,NA,NA
35750,Madison County,AL,59.3984962406015,NA,NA
35802,Madison County,AL,NA,67.1957671957672,NA
35901,Etowah County,AL,NA,NA,60.84142394822006
36108,Montgomery County,AL,NA,NA,62.45954692556634
36375,Geneva County,AL,NA,77.77777777777779,NA
36608,Mobile County,AL,NA,46.03174603174603,NA
36867,Russell County,AL,67.66917293233082,NA,NA
85018,Maricopa County,AZ,NA,36.77248677248677,NA
85122,Pinal County,AZ,NA,NA,25.88996763754045
85283,Maricopa County,AZ,21.052631578947366,NA,NA
85308,Maricopa County,AZ,39.473684210526315,NA,NA
85350,Yuma County,AZ,NA,NA,91.2621359223301
85383,Maricopa County,AZ,59.77443609022557,NA,NA
85635,Cochise County,AZ,NA,NA,30.74433656957929
85706,Pima County,AZ,NA,8.73015873015873,NA
85739,Pinal County,AZ,NA,28.835978835978835,NA
85749,Pima County,AZ,NA,NA,91.58576051779936
86004,Coconino County,AZ,6.390977443609022,NA,NA
86301,Yavapai County,AZ,NA,NA,15.210355987055015
86401,Mohave County,AZ,NA,NA,40.77669902912621
86404,Mohave County,AZ,NA,52.64550264550265,NA
72015,Saline County,AR,95.86466165413535,NA,NA
72023,Lonoke County,AR,83.45864661654136,65.60846560846561,NA
72076,Pulaski County,AR,NA,90.74074074074075,NA
72113,Pulaski County,AR,NA,96.03174603174604,NA
72143,White County,AR,NA,10.052910052910052,NA
72211,Pulaski County,AR,80.07518796992481,79.62962962962963,NA
72227,Pulaski County,AR,93.98496240601504,NA,NA
72401,Craighead County,AR,17.293233082706767,NA,NA
72701,Washington County,AR,NA,72.4867724867725,NA
72703,Washington County,AR,75.93984962406014,NA,NA
72712,Benton County,AR,50.75187969924813,NA,NA
72714,Benton County,AR,NA,NA,56.310679611650485
72774,Washington County,AR,NA,NA,98.05825242718447
72901,Sebastian County,AR,NA,NA,92.88025889967638
90004,Los Angeles County,CA,46.616541353383454,NA,NA
90008,Los Angeles County,CA,NA,NA,22.653721682847898
90031,Los Angeles County,CA,NA,72.4867724867725,NA
90037,Los Angeles County,CA,NA,NA,38.51132686084142
90038,Los Angeles County,CA,NA,75.92592592592592,NA
90042,Los Angeles County,CA,NA,49.47089947089947,NA
90043,Los Angeles County,CA,NA,23.544973544973544,NA
90044,Los Angeles County,CA,NA,19.047619047619047,NA
90048,Los Angeles County,CA,NA,61.904761904761905,NA
90061,Los Angeles County,CA,69.17293233082707,NA,NA
90222,Los Angeles County,CA,NA,NA,87.05501618122977
90731,Los Angeles County,CA,NA,NA,47.249190938511326
91040,Los Angeles County,CA,NA,67.72486772486772,NA
91107,Los Angeles County,CA,NA,48.148148148148145,NA
91607,Los Angeles County,CA,NA,NA,32.038834951456316
91709,San Bernardino County,CA,NA,NA,73.46278317152104
91711,Los Angeles County,CA,NA,31.48148148148148,NA
91767,Los Angeles County,CA,70.30075187969925,NA,NA
92021,San Diego County,CA,NA,13.756613756613756,NA
92028,San Diego County,CA,NA,NA,40.45307443365696
92078,San Diego County,CA,55.639097744360896,NA,NA
92116,San Diego County,CA,NA,NA,83.1715210355987
92173,San Diego County,CA,63.1578947368421,NA,NA
92203,Riverside County,CA,NA,NA,79.93527508090615
92211,Riverside County,CA,NA,NA,0.3236245954692557
92284,San Bernardino County,CA,31.57894736842105,64.55026455026454,NA
92301,San Bernardino County,CA,79.69924812030075,NA,NA
92345,San Bernardino County,CA,NA,14.814814814814813,NA
92503,Riverside County,CA,24.43609022556391,NA,NA
92571,Riverside County,CA,NA,NA,80.2588996763754
92620,Orange County,CA,NA,41.00529100529101,NA
92630,Orange County,CA,NA,NA,27.184466019417474
92656,Orange County,CA,NA,47.08994708994709,80.58252427184466
92672,Orange County,CA,NA,54.4973544973545,NA
92683,Orange County,CA,NA,NA,4.207119741100324
93003,Ventura County,CA,NA,22.22222222222222,NA
93277,Tulare County,CA,NA,52.910052910052904,NA
93291,Tulare County,CA,NA,74.33862433862434,24.271844660194176
93311,Kern County,CA,NA,NA,69.90291262135922
93612,Fresno County,CA,NA,60.58201058201058,NA
93730,Fresno County,CA,NA,NA,93.20388349514563
93923,Monterey County,CA,NA,NA,11.974110032362459
93950,Monterey County,CA,85.71428571428571,NA,NA
94122,San Francisco County,CA,NA,NA,5.825242718446602
94133,San Francisco County,CA,NA,NA,24.919093851132686
94533,Solano County,CA,NA,NA,13.915857605177994
94544,Alameda County,CA,20.676691729323306,NA,NA
94566,Alameda County,CA,NA,NA,46.601941747572816
94588,Alameda County,CA,72.93233082706767,NA,NA
94598,Contra Costa County,CA,NA,55.29100529100529,NA
94601,Alameda County,CA,NA,35.978835978835974,NA
94603,Alameda County,CA,NA,NA,68.93203883495146
94605,Alameda County,CA,NA,25.132275132275133,NA
94941,Marin County,CA,72.55639097744361,NA,NA
95112,Santa Clara County,CA,NA,NA,49.51456310679612
95121,Santa Clara County,CA,NA,57.407407407407405,NA
95326,Stanislaus County,CA,92.10526315789474,NA,NA
95350,Stanislaus County,CA,21.052631578947366,NA,NA
95351,Stanislaus County,CA,NA,37.301587301587304,NA
95503,Humboldt County,CA,NA,43.65079365079365,NA
95602,Placer County,CA,NA,48.94179894179894,NA
95603,Placer County,CA,NA,43.65079365079365,NA
95619,El Dorado County,CA,NA,NA,99.35275080906149
95648,Placer County,CA,NA,NA,35.275080906148865
95667,El Dorado County,CA,NA,3.7037037037037033,NA
95816,Sacramento County,CA,54.51127819548872,NA,NA
95828,Sacramento County,CA,NA,32.53968253968254,NA
95928,Butte County,CA,39.097744360902254,NA,NA
80015,Arapahoe County,CO,NA,23.28042328042328,NA
80021,Jefferson County,CO,NA,NA,59.8705501618123
80030,Adams County,CO,NA,NA,84.46601941747572
80121,Arapahoe County,CO,NA,NA,48.86731391585761
80206,Denver County,CO,68.04511278195488,NA,NA
80237,Denver County,CO,95.48872180451127,NA,NA
80439,Jefferson County,CO,NA,NA,68.6084142394822
80537,Larimer County,CO,NA,15.079365079365079,NA
80602,Adams County,CO,48.49624060150376,NA,NA
81503,Mesa County,CO,NA,84.65608465608466,NA
06120,Hartford County,CT,51.50375939849624,NA,NA
06260,Windham County,CT,NA,78.83597883597884,NA
06443,New Haven County,CT,NA,32.27513227513227,NA
06484,Fairfield County,CT,NA,NA,14.563106796116504
06615,Fairfield County,CT,NA,59.523809523809526,NA
06770,New Haven County,CT,NA,26.71957671957672,NA
06790,Litchfield County,CT,NA,1.8518518518518516,NA
06798,Litchfield County,CT,NA,NA,63.75404530744336
06812,Fairfield County,CT,NA,NA,65.0485436893204
06880,Fairfield County,CT,51.127819548872175,NA,NA
19707,New Castle County,DE,NA,NA,43.689320388349515
19711,New Castle County,DE,NA,11.11111111111111,NA
32034,Nassau County,FL,NA,9.25925925925926,14.563106796116504
32043,Clay County,FL,NA,NA,47.57281553398058
32055,Columbia County,FL,NA,63.49206349206349,NA
32063,Baker County,FL,67.29323308270678,NA,NA
32130,Volusia County,FL,NA,97.61904761904762,NA
32164,Flagler County,FL,NA,15.079365079365079,NA
32210,Duval County,FL,NA,6.878306878306878,NA
32254,Duval County,FL,NA,73.28042328042328,NA
32569,Okaloosa County,FL,NA,NA,81.55339805825243
32570,Santa Rosa County,FL,NA,5.555555555555555,NA
32571,Santa Rosa County,FL,NA,NA,60.517799352750814
32583,Santa Rosa County,FL,NA,NA,72.168284789644
32608,Alachua County,FL,NA,17.46031746031746,NA
32656,Clay County,FL,68.42105263157895,NA,NA
32708,Seminole County,FL,NA,NA,56.63430420711975
32810,Orange County,FL,NA,NA,59.22330097087378
32826,Orange County,FL,NA,96.82539682539682,NA
32839,Orange County,FL,NA,37.03703703703704,NA
32907,Brevard County,FL,NA,NA,18.77022653721683
33012,Miami-Dade County,FL,NA,NA,3.559870550161812
33021,Broward County,FL,NA,25.396825396825395,NA
33024,Broward County,FL,35.338345864661655,NA,NA
33040,Monroe County,FL,46.2406015037594,NA,NA
33062,Broward County,FL,NA,NA,69.25566343042071
33076,Broward County,FL,NA,NA,54.36893203883495
33134,Miami-Dade County,FL,NA,NA,29.126213592233007
33147,Miami-Dade County,FL,38.34586466165413,NA,NA
33185,Miami-Dade County,FL,NA,74.60317460317461,NA
33319,Broward County,FL,NA,29.894179894179896,NA
33410,Palm Beach County,FL,52.63157894736842,NA,NA
33484,Palm Beach County,FL,NA,30.687830687830687,NA
33615,Hillsborough County,FL,61.65413533834586,NA,NA
33709,Pinellas County,FL,NA,83.86243386243386,NA
33841,Polk County,FL,92.85714285714286,NA,NA
33852,Highlands County,FL,NA,NA,6.148867313915858
33868,Polk County,FL,NA,92.32804232804233,NA
33914,Lee County,FL,NA,NA,73.13915857605178
33916,Lee County,FL,NA,71.6931216931217,NA
33953,Charlotte County,FL,NA,NA,87.70226537216828
33966,Lee County,FL,NA,86.24338624338624,NA
33971,Lee County,FL,NA,89.41798941798942,NA
34104,Collier County,FL,NA,51.85185185185185,NA
34108,Collier County,FL,NA,56.613756613756614,NA
34224,Charlotte County,FL,NA,NA,36.89320388349515
34239,Sarasota County,FL,NA,74.60317460317461,NA
34275,Sarasota County,FL,NA,28.57142857142857,NA
34285,Sarasota County,FL,NA,NA,12.62135922330097
34428,Citrus County,FL,NA,83.06878306878306,NA
34429,Citrus County,FL,NA,NA,66.01941747572816
34442,Citrus County,FL,NA,NA,61.165048543689316
34446,Citrus County,FL,NA,58.994708994709,NA
34736,Lake County,FL,NA,46.2962962962963,NA
34788,Lake County,FL,64.66165413533834,NA,NA
34952,St. Lucie County,FL,30.451127819548873,NA,NA
34994,Martin County,FL,NA,47.61904761904761,NA
30030,DeKalb County,GA,NA,58.46560846560847,NA
30041,Forsyth County,GA,NA,12.16931216931217,NA
30062,Cobb County,GA,NA,NA,26.21359223300971
30096,Gwinnett County,GA,NA,30.423280423280424,NA
30101,Cobb County,GA,32.70676691729324,NA,NA
30143,Pickens County,GA,NA,NA,34.627831715210355
30179,Carroll County,GA,NA,68.51851851851852,NA
30224,Spalding County,GA,54.88721804511278,NA,NA
30265,Coweta County,GA,NA,39.15343915343915,NA
30296,Clayton County,GA,NA,NA,82.52427184466019
30315,Fulton County,GA,NA,NA,34.95145631067961
30506,Hall County,GA,NA,21.693121693121693,NA
30511,Banks County,GA,NA,NA,100
30533,Lumpkin County,GA,NA,43.12169312169312,82.84789644012946
30564,Hall County,GA,NA,NA,99.67637540453075
30577,Stephens County,GA,NA,70.37037037037037,NA
30582,Towns County,GA,NA,NA,75.72815533980582
30666,Barrow County,GA,84.21052631578947,NA,NA
30680,Barrow County,GA,NA,NA,28.155339805825243
30720,Whitfield County,GA,NA,62.16931216931217,NA
30747,Chattooga County,GA,NA,NA,70.22653721682848
30824,McDuffie County,GA,NA,46.82539682539682,NA
31082,Washington County,GA,NA,73.54497354497354,NA
31088,Houston County,GA,NA,NA,16.50485436893204
31516,Pierce County,GA,NA,NA,95.46925566343042
31537,Charlton County,GA,NA,80.95238095238095,NA
31701,Dougherty County,GA,46.99248120300752,NA,NA
31763,Lee County,GA,NA,NA,78.64077669902912
96706,Honolulu County,HI,NA,42.592592592592595,NA
96738,Hawaii County,HI,NA,93.65079365079364,NA
96740,Hawaii County,HI,NA,62.43386243386243,NA
96778,Hawaii County,HI,NA,66.4021164021164,NA
96793,Maui County,HI,NA,66.13756613756614,NA
96814,Honolulu County,HI,NA,84.12698412698413,NA
83221,Bingham County,ID,NA,20.105820105820104,NA
83301,Twin Falls County,ID,NA,NA,21.68284789644013
83328,Twin Falls County,ID,94.73684210526315,NA,NA
83333,Blaine County,ID,NA,61.37566137566137,NA
83442,Jefferson County,ID,NA,76.98412698412699,NA
83634,Ada County,ID,NA,NA,57.60517799352751
83638,Valley County,ID,NA,NA,85.76051779935275
83642,Ada County,ID,NA,NA,32.68608414239482
83660,Canyon County,ID,NA,NA,90.29126213592234
83686,Canyon County,ID,63.53383458646616,NA,NA
83704,Ada County,ID,19.548872180451127,NA,NA
83705,Ada County,ID,NA,16.137566137566136,NA
83714,Ada County,ID,NA,NA,13.268608414239482
60007,Cook County,IL,NA,18.253968253968253,NA
60010,Lake County,IL,42.4812030075188,NA,17.475728155339805
60013,McHenry County,IL,81.203007518797,NA,NA
60030,Lake County,IL,NA,NA,68.28478964401295
60060,Lake County,IL,NA,NA,43.042071197411005
60067,Cook County,IL,NA,20.8994708994709,NA
60077,Cook County,IL,NA,NA,54.69255663430421
60089,Lake County,IL,NA,10.846560846560847,NA
60090,Cook County,IL,NA,NA,15.53398058252427
60093,Cook County,IL,NA,NA,22.006472491909385
60102,McHenry County,IL,NA,40.476190476190474,NA
60106,DuPage County,IL,NA,62.96296296296296,NA
60126,DuPage County,IL,NA,2.6455026455026456,NA
60148,DuPage County,IL,NA,31.746031746031743,NA
60155,Cook County,IL,80.45112781954887,NA,NA
60191,DuPage County,IL,66.16541353383458,NA,NA
60402,Cook County,IL,11.654135338345863,NA,NA
60430,Cook County,IL,NA,50.264550264550266,NA
60436,Will County,IL,NA,57.14285714285714,NA
60440,Will County,IL,25.18796992481203,NA,NA
60451,Will County,IL,NA,NA,41.42394822006473
60452,Cook County,IL,NA,40.74074074074074,NA
60465,Cook County,IL,NA,82.8042328042328,NA
60510,Kane County,IL,NA,47.354497354497354,NA
60515,DuPage County,IL,NA,34.65608465608466,NA
60517,DuPage County,IL,42.857142857142854,NA,NA
60526,Cook County,IL,NA,NA,70.55016181229773
60625,Cook County,IL,10.902255639097744,NA,NA
60629,Cook County,IL,NA,4.232804232804233,NA
60637,Cook County,IL,NA,NA,20.711974110032365
60653,Cook County,IL,76.69172932330827,NA,NA
60660,Cook County,IL,NA,16.93121693121693,NA
61071,Whiteside County,IL,58.64661654135338,NA,NA
61074,Carroll County,IL,87.59398496240601,NA,NA
61109,Winnebago County,IL,NA,45.767195767195766,NA
61820,Champaign County,IL,NA,78.3068783068783,NA
62221,St. Clair County,IL,NA,41.269841269841265,NA
62226,St. Clair County,IL,NA,27.513227513227513,NA
62233,Randolph County,IL,NA,NA,71.52103559870551
62526,Macon County,IL,12.030075187969924,NA,NA
62703,Sangamon County,IL,36.09022556390977,NA,NA
62966,Jackson County,IL,NA,45.23809523809524,NA
46038,Hamilton County,IN,NA,NA,55.016181229773466
46142,Johnson County,IN,NA,42.32804232804233,NA
46151,Morgan County,IN,30.82706766917293,NA,NA
46176,Shelby County,IN,NA,11.904761904761903,NA
46214,Marion County,IN,NA,NA,35.275080906148865
46220,Marion County,IN,NA,43.386243386243386,NA
46307,Lake County,IN,NA,15.873015873015872,NA
46350,LaPorte County,IN,NA,NA,50.161812297734635
46366,Starke County,IN,78.94736842105263,NA,NA
46368,Porter County,IN,NA,49.2063492063492,NA
46383,Porter County,IN,NA,NA,42.71844660194174
46394,Lake County,IN,56.390977443609025,NA,NA
46407,Lake County,IN,NA,NA,59.54692556634305
46410,Lake County,IN,NA,NA,55.33980582524271
46580,Kosciusko County,IN,47.368421052631575,NA,NA
46714,Wells County,IN,NA,80.42328042328042,NA
46774,Allen County,IN,61.278195488721806,NA,NA
47040,Ohio County,IN,NA,NA,98.70550161812298
47165,Washington County,IN,83.0827067669173,NA,NA
47446,Lawrence County,IN,66.54135338345864,NA,NA
47501,Daviess County,IN,40.6015037593985,NA,NA
47710,Vanderburgh County,IN,NA,NA,41.74757281553398
50010,Story County,IA,57.5187969924812,NA,NA
50161,Story County,IA,100,NA,NA
50428,Cerro Gordo County,IA,NA,44.17989417989418,NA
50511,Kossuth County,IA,NA,NA,65.37216828478964
50644,Buchanan County,IA,NA,NA,94.1747572815534
51012,Cherokee County,IA,NA,100,NA
51105,Woodbury County,IA,NA,86.77248677248677,NA
51503,Pottawattamie County,IA,NA,3.968253968253968,NA
52544,Appanoose County,IA,NA,NA,44.66019417475729
52601,Des Moines County,IA,NA,14.550264550264549,NA
52732,Clinton County,IA,NA,NA,38.83495145631068
52761,Muscatine County,IA,NA,NA,56.957928802588995
66048,Leavenworth County,KS,NA,NA,93.52750809061489
66104,Wyandotte County,KS,NA,77.24867724867724,NA
66210,Johnson County,KS,96.2406015037594,NA,NA
66503,Riley County,KS,97.36842105263158,NA,NA
66604,Shawnee County,KS,50,NA,NA
67037,Sedgwick County,KS,NA,84.39153439153439,NA
67156,Cowley County,KS,NA,82.53968253968253,NA
67207,Sedgwick County,KS,NA,98.67724867724867,NA
67665,Russell County,KS,NA,NA,70.87378640776699
67846,Finney County,KS,28.57142857142857,NA,NA
40211,Jefferson County,KY,14.661654135338345,NA,NA
40214,Jefferson County,KY,6.7669172932330826,NA,NA
40219,Jefferson County,KY,13.909774436090224,NA,29.773462783171524
41097,Grant County,KY,NA,96.29629629629629,NA
42066,Graves County,KY,NA,NA,88.9967637540453
42134,Simpson County,KY,NA,NA,49.19093851132686
42303,Daviess County,KY,NA,54.761904761904766,NA
42420,Henderson County,KY,9.398496240601503,13.492063492063492,NA
42602,Clinton County,KY,82.33082706766918,NA,NA
42701,Hardin County,KY,NA,9.788359788359788,NA
70001,Jefferson Parish,LA,5.263157894736842,NA,11.003236245954692
70003,Jefferson Parish,LA,NA,NA,2.912621359223301
70047,St. Charles Parish,LA,NA,70.1058201058201,NA
70058,Jefferson Parish,LA,NA,42.06349206349206,NA
70119,Orleans Parish,LA,NA,55.82010582010582,NA
70123,Jefferson Parish,LA,NA,55.026455026455025,NA
70401,Tangipahoa Parish,LA,NA,NA,52.75080906148867
70543,Acadia Parish,LA,94.3609022556391,NA,NA
70785,Livingston Parish,LA,NA,NA,52.103559870550164
71119,Caddo Parish,LA,NA,NA,62.13592233009708
71295,Franklin Parish,LA,NA,NA,39.15857605177994
71343,Catahoula Parish,LA,NA,88.62433862433863,NA
71360,Rapides Parish,LA,NA,28.04232804232804,NA
71418,Caldwell Parish,LA,75.18796992481202,NA,88.9967637540453
04038,Cumberland County,ME,87.96992481203007,NA,NA
04097,Cumberland County,ME,99.24812030075188,NA,NA
04210,Androscoggin County,ME,22.55639097744361,NA,NA
04240,Androscoggin County,ME,15.789473684210526,NA,NA
04294,Franklin County,ME,NA,91.26984126984127,NA
04785,Aroostook County,ME,NA,NA,99.02912621359224
04841,Knox County,ME,NA,89.94708994708994,NA
20678,Calvert County,MD,88.7218045112782,NA,NA
21057,Baltimore County,MD,NA,NA,90.93851132686083
21061,Anne Arundel County,MD,NA,63.227513227513235,20.388349514563107
21104,Carroll County,MD,NA,98.94179894179894,NA
21111,Baltimore County,MD,NA,NA,98.38187702265373
21122,Anne Arundel County,MD,7.518796992481203,NA,NA
21220,Baltimore County,MD,NA,NA,64.72491909385113
21234,Baltimore County,MD,NA,7.936507936507936,NA
21236,Baltimore County,MD,NA,38.35978835978836,NA
21286,Baltimore County,MD,NA,NA,76.37540453074433
21801,Wicomico County,MD,62.78195488721805,NA,NA
01020,Hampden County,MA,NA,65.34391534391534,NA
01040,Hampden County,MA,NA,NA,25.24271844660194
01082,Hampshire County,MA,74.81203007518798,NA,NA
01220,Berkshire County,MA,NA,38.095238095238095,NA
01331,Worcester County,MA,NA,70.63492063492063,NA
01364,Franklin County,MA,90.6015037593985,NA,NA
01453,Worcester County,MA,1.1278195488721803,NA,NA
01475,Worcester County,MA,NA,NA,67.96116504854369
01527,Worcester County,MA,NA,27.77777777777778,NA
01568,Worcester County,MA,NA,NA,58.252427184466015
01581,Worcester County,MA,NA,53.43915343915344,NA
01606,Worcester County,MA,NA,NA,11.326860841423949
01609,Worcester County,MA,NA,NA,5.177993527508091
01720,Middlesex County,MA,NA,69.31216931216932,NA
01721,Middlesex County,MA,NA,NA,58.57605177993528
01757,Worcester County,MA,16.541353383458645,NA,NA
01773,Middlesex County,MA,NA,89.15343915343915,NA
01843,Essex County,MA,2.631578947368421,NA,NA
01845,Essex County,MA,33.83458646616541,NA,NA
01915,Essex County,MA,NA,11.64021164021164,NA
01930,Essex County,MA,NA,NA,7.766990291262135
01960,Essex County,MA,NA,33.06878306878307,NA
02026,Norfolk County,MA,NA,16.666666666666664,NA
02124,Suffolk County,MA,0.37593984962406013,NA,NA
02128,Suffolk County,MA,NA,NA,4.53074433656958
02132,Suffolk County,MA,NA,NA,4.854368932038835
02138,Middlesex County,MA,NA,32.01058201058201,NA
02144,Middlesex County,MA,25.563909774436087,NA,NA
02145,Middlesex County,MA,NA,NA,10.679611650485436
02148,Middlesex County,MA,0,NA,NA
02170,Norfolk County,MA,NA,8.994708994708994,NA
02184,Norfolk County,MA,NA,NA,9.06148867313916
02324,Plymouth County,MA,NA,NA,47.896440129449836
02346,Plymouth County,MA,NA,12.698412698412698,NA
02368,Norfolk County,MA,15.037593984962406,NA,NA
02571,Plymouth County,MA,15.413533834586465,NA,NA
02703,Bristol County,MA,NA,0.5291005291005291,NA
02740,Bristol County,MA,NA,0,NA
02748,Bristol County,MA,NA,52.38095238095239,NA
48001,St. Clair County,MI,NA,73.01587301587301,NA
48017,Oakland County,MI,NA,NA,63.43042071197411
48021,Macomb County,MI,NA,NA,64.07766990291263
48027,St. Clair County,MI,NA,99.73544973544973,NA
48039,St. Clair County,MI,NA,NA,84.78964401294499
48066,Macomb County,MI,3.7593984962406015,NA,NA
48071,Oakland County,MI,NA,NA,41.10032362459547
48073,Oakland County,MI,NA,71.42857142857143,NA
48088,Macomb County,MI,NA,NA,19.093851132686083
48093,Macomb County,MI,NA,NA,51.7799352750809
48103,Washtenaw County,MI,NA,32.804232804232804,2.26537216828479
48111,Wayne County,MI,NA,NA,23.624595469255663
48126,Wayne County,MI,10.150375939849624,NA,NA
48189,Washtenaw County,MI,59.77443609022557,NA,NA
48228,Wayne County,MI,NA,7.4074074074074066,NA
48237,Oakland County,MI,25.93984962406015,NA,NA
48239,Wayne County,MI,8.646616541353383,NA,NA
48309,Oakland County,MI,NA,27.24867724867725,NA
48317,Macomb County,MI,27.819548872180448,NA,NA
48324,Oakland County,MI,NA,95.23809523809523,NA
48331,Oakland County,MI,NA,57.67195767195767,26.860841423948216
48375,Oakland County,MI,NA,50.52910052910053,NA
48421,Lapeer County,MI,91.35338345864662,NA,NA
48429,Shiawassee County,MI,NA,NA,72.81553398058253
48504,Genesee County,MI,20.30075187969925,NA,NA
48601,Saginaw County,MI,NA,2.91005291005291,5.501618122977346
48609,Saginaw County,MI,NA,64.02116402116403,NA
48642,Midland County,MI,NA,7.671957671957672,NA
48842,Ingham County,MI,NA,NA,81.87702265372168
48872,Shiawassee County,MI,84.9624060150376,NA,NA
48893,Isabella County,MI,72.18045112781954,NA,NA
49004,Kalamazoo County,MI,89.84962406015038,NA,NA
49017,Calhoun County,MI,NA,26.455026455026452,NA
49078,Allegan County,MI,76.31578947368422,NA,NA
49112,Cass County,MI,NA,85.44973544973546,NA
49228,Lenawee County,MI,NA,91.005291005291,NA
49240,Jackson County,MI,NA,NA,82.20064724919094
49315,Kent County,MI,NA,35.714285714285715,NA
49337,Newaygo County,MI,NA,59.78835978835979,NA
49445,Muskegon County,MI,40.225563909774436,NA,NA
49503,Kent County,MI,10.526315789473683,NA,NA
49525,Kent County,MI,NA,25.66137566137566,NA
49690,Grand Traverse County,MI,NA,NA,72.168284789644
49727,Charlevoix County,MI,NA,93.65079365079364,NA
49783,Chippewa County,MI,NA,21.957671957671955,NA
49858,Menominee County,MI,77.81954887218046,NA,NA
49953,Ontonagon County,MI,NA,NA,86.40776699029125
55082,Washington County,MN,NA,NA,42.07119741100323
55107,Ramsey County,MN,88.34586466165413,NA,NA
55303,Anoka County,MN,NA,NA,37.2168284789644
55304,Anoka County,MN,43.233082706766915,NA,NA
55317,Carver County,MN,77.06766917293233,87.83068783068782,NA
55378,Scott County,MN,57.14285714285714,85.44973544973546,NA
55416,Hennepin County,MN,NA,NA,33.980582524271846
55419,Hennepin County,MN,NA,NA,71.84466019417476
55429,Hennepin County,MN,NA,NA,52.42718446601942
55446,Hennepin County,MN,NA,NA,76.69902912621359
55720,Carlton County,MN,37.59398496240601,NA,NA
55811,St. Louis County,MN,NA,5.291005291005291,NA
55912,Mower County,MN,NA,NA,0.9708737864077669
56001,Blue Earth County,MN,37.59398496240601,NA,NA
56472,Crow Wing County,MN,NA,73.80952380952381,NA
56716,Polk County,MN,78.19548872180451,NA,67.63754045307444
38703,Washington County,MS,NA,81.74603174603175,NA
39209,Hinds County,MS,NA,44.44444444444444,NA
39532,Harrison County,MS,NA,20.634920634920633,NA
63021,St. Louis County,MO,44.73684210526316,NA,NA
63031,St. Louis County,MO,NA,12.433862433862434,NA
63074,St. Louis County,MO,NA,51.32275132275132,NA
63111,St. Louis city,MO,38.721804511278194,NA,NA
63123,St. Louis County,MO,NA,NA,2.5889967637540456
63138,St. Louis County,MO,NA,46.56084656084656,NA
63146,St. Louis County,MO,NA,NA,6.796116504854369
63304,St. Charles County,MO,35.714285714285715,NA,NA
64011,Lafayette County,MO,92.4812030075188,NA,NA
64014,Jackson County,MO,26.691729323308273,NA,NA
64064,Jackson County,MO,NA,NA,79.6116504854369
64085,Ray County,MO,NA,87.03703703703704,NA
64116,Clay County,MO,NA,39.41798941798942,NA
64119,Clay County,MO,NA,22.75132275132275,NA
64131,Jackson County,MO,16.165413533834585,NA,NA
64152,Platte County,MO,NA,72.22222222222221,NA
64506,Buchanan County,MO,NA,7.142857142857142,NA
65340,Saline County,MO,39.849624060150376,NA,NA
65441,Crawford County,MO,NA,91.7989417989418,NA
59101,Yellowstone County,MT,NA,NA,13.592233009708737
59102,Yellowstone County,MT,45.48872180451128,NA,NA
59715,Gallatin County,MT,NA,34.39153439153439,NA
68164,Douglas County,NE,89.09774436090225,NA,NA
68467,York County,NE,NA,66.93121693121694,NA
68516,Lancaster County,NE,NA,42.857142857142854,NA
68847,Buffalo County,NE,77.44360902255639,NA,NA
69341,Scotts Bluff County,NE,NA,99.47089947089947,NA
89148,Clark County,NV,NA,NA,83.81877022653723
89703,Carson City,NV,NA,NA,57.28155339805825
03053,Rockingham County,NH,NA,NA,33.65695792880259
03062,Hillsborough County,NH,NA,8.201058201058201,NA
03110,Hillsborough County,NH,NA,NA,14.239482200647249
03253,Belknap County,NH,NA,NA,77.02265372168284
07026,Bergen County,NJ,17.669172932330827,NA,NA
07047,Hudson County,NJ,NA,NA,6.148867313915858
07054,Morris County,NJ,NA,33.86243386243386,NA
07060,Union County,NJ,NA,24.33862433862434,NA
07109,Essex County,NJ,NA,NA,26.537216828478964
07110,Essex County,NJ,NA,56.08465608465608,NA
07305,Hudson County,NJ,NA,19.841269841269842,NA
07458,Bergen County,NJ,90.97744360902256,NA,NA
07480,Passaic County,NJ,NA,NA,67.31391585760518
07701,Monmouth County,NJ,NA,NA,44.983818770226534
07827,Sussex County,NJ,96.61654135338345,NA,NA
07885,Morris County,NJ,NA,NA,45.307443365695796
07936,Morris County,NJ,95.11278195488721,NA,NA
08012,Camden County,NJ,NA,15.608465608465607,NA
08022,Burlington County,NJ,NA,95.5026455026455,NA
08083,Camden County,NJ,NA,75.39682539682539,NA
08088,Burlington County,NJ,NA,NA,46.92556634304207
08094,Gloucester County,NJ,NA,NA,42.394822006472495
08102,Camden County,NJ,7.142857142857142,NA,NA
08210,Cape May County,NJ,40.97744360902256,NA,NA
08302,Cumberland County,NJ,NA,10.317460317460316,NA
08505,Burlington County,NJ,NA,NA,93.85113268608414
08514,Monmouth County,NJ,NA,97.08994708994709,NA
08540,Mercer County,NJ,NA,NA,28.478964401294498
08620,Mercer County,NJ,NA,NA,92.55663430420712
08690,Mercer County,NJ,NA,50.79365079365079,NA
08724,Ocean County,NJ,9.022556390977442,NA,NA
08731,Ocean County,NJ,NA,NA,63.10679611650486
08759,Ocean County,NJ,NA,1.3227513227513228,0
08835,Somerset County,NJ,NA,NA,96.44012944983818
08861,Middlesex County,NJ,1.5037593984962405,NA,NA
87031,Valencia County,NM,NA,29.365079365079367,NA
87108,Bernalillo County,NM,34.58646616541353,5.026455026455026,NA
87112,Bernalillo County,NM,45.48872180451128,NA,NA
87123,Bernalillo County,NM,13.157894736842104,NA,NA
87508,Santa Fe County,NM,NA,82.01058201058201,NA
87532,Santa Fe County,NM,NA,NA,48.54368932038835
87571,Taos County,NM,NA,48.67724867724868,NA
87701,San Miguel County,NM,NA,48.41269841269841,NA
88012,Doa Ana County,NM,NA,NA,49.83818770226537
88023,Grant County,NM,97.74436090225564,NA,NA
88310,Otero County,NM,29.32330827067669,NA,NA
10001,New York County,NY,NA,5.82010582010582,NA
10014,New York County,NY,NA,83.5978835978836,NA
10454,Bronx County,NY,6.015037593984962,NA,NA
10458,Bronx County,NY,28.947368421052634,NA,NA
10467,Bronx County,NY,NA,0.26455026455026454,1.6181229773462782
10547,Westchester County,NY,90.22556390977444,NA,NA
10549,Westchester County,NY,NA,94.70899470899471,NA
11207,Kings County,NY,NA,10.582010582010582,NA
11208,Kings County,NY,NA,NA,16.828478964401295
11221,Kings County,NY,NA,NA,27.508090614886733
11229,Kings County,NY,33.08270676691729,NA,NA
11230,Kings County,NY,NA,NA,64.40129449838187
11354,Queens County,NY,NA,NA,21.035598705501616
11369,Queens County,NY,NA,NA,77.34627831715211
11377,Queens County,NY,NA,NA,19.741100323624593
11412,Queens County,NY,NA,NA,40.1294498381877
11413,Queens County,NY,NA,37.83068783068783,NA
11434,Queens County,NY,NA,16.137566137566136,NA
11550,Nassau County,NY,NA,51.05820105820106,31.715210355987054
11572,Nassau County,NY,NA,66.66666666666666,NA
11580,Nassau County,NY,NA,NA,27.831715210355988
11694,Queens County,NY,NA,94.70899470899471,NA
11703,Suffolk County,NY,NA,NA,53.398058252427184
11717,Suffolk County,NY,NA,44.70899470899471,NA
11729,Suffolk County,NY,NA,61.37566137566137,NA
11771,Nassau County,NY,NA,NA,81.22977346278317
11788,Suffolk County,NY,68.796992481203,NA,NA
12020,Saratoga County,NY,23.684210526315788,NA,NA
12144,Rensselaer County,NY,NA,39.94708994708995,NA
12189,Albany County,NY,NA,65.87301587301587,NA
12205,Albany County,NY,55.26315789473685,NA,NA
12309,Schenectady County,NY,NA,62.698412698412696,NA
12771,Orange County,NY,NA,NA,65.37216828478964
12946,Essex County,NY,NA,59.25925925925925,NA
13045,Cortland County,NY,NA,NA,36.24595469255664
13104,Onondaga County,NY,NA,88.88888888888889,NA
13159,Onondaga County,NY,NA,94.44444444444444,NA
13165,Seneca County,NY,NA,22.486772486772484,NA
13211,Onondaga County,NY,NA,98.14814814814815,NA
13413,Oneida County,NY,50.37593984962406,NA,NA
13440,Oneida County,NY,NA,NA,9.385113268608414
13492,Oneida County,NY,NA,NA,53.07443365695793
13601,Jefferson County,NY,4.887218045112782,NA,NA
13669,St. Lawrence County,NY,NA,77.5132275132275,NA
14020,Genesee County,NY,12.406015037593985,NA,NA
14213,Erie County,NY,NA,39.682539682539684,NA
14215,Erie County,NY,1.8796992481203008,NA,NA
14222,Erie County,NY,NA,NA,96.76375404530745
14227,Erie County,NY,29.69924812030075,NA,NA
14424,Ontario County,NY,NA,38.62433862433862,NA
14450,Monroe County,NY,NA,0.7936507936507936,NA
14468,Monroe County,NY,NA,21.164021164021165,NA
14610,Monroe County,NY,NA,NA,30.097087378640776
14622,Monroe County,NY,71.80451127819549,NA,NA
14741,Cattaraugus County,NY,98.49624060150376,NA,NA
27045,Forsyth County,NC,71.42857142857143,NA,NA
27103,Forsyth County,NC,NA,NA,1.2944983818770228
27105,Forsyth County,NC,NA,NA,8.090614886731391
27215,Alamance County,NC,NA,NA,9.70873786407767
27265,Guilford County,NC,NA,14.02116402116402,NA
27292,Davidson County,NC,5.639097744360902,NA,NA
27358,Guilford County,NC,74.06015037593986,NA,NA
27410,Guilford County,NC,37.21804511278196,NA,NA
27516,Orange County,NC,NA,13.227513227513226,NA
27540,Wake County,NC,NA,80.15873015873017,NA
27542,Johnston County,NC,87.21804511278195,NA,NA
27587,Wake County,NC,NA,NA,15.857605177993527
27597,Wake County,NC,NA,58.201058201058196,NA
27609,Wake County,NC,NA,33.33333333333333,NA
27707,Durham County,NC,NA,NA,90.614886731391593
27804,Nash County,NC,NA,NA,33.33333333333333
27909,Pasquotank County,NC,13.533834586466165,NA,NA
28037,Lincoln County,NC,NA,NA,66.34304207119742
28043,Rutherford County,NC,NA,NA,43.042071197411005
28075,Cabarrus County,NC,NA,76.19047619047619,NA
28080,Lincoln County,NC,NA,NA,97.0873786407767
28110,Union County,NC,27.06766917293233,NA,NA
28146,Rowan County,NC,NA,41.7989417989418,NA
28170,Anson County,NC,56.766917293233085,NA,NA
28227,Mecklenburg County,NC,NA,17.989417989417987,NA
28277,Mecklenburg County,NC,NA,19.576719576719576,NA
28320,Bladen County,NC,73.68421052631578,NA,NA
28412,New Hanover County,NC,NA,NA,24.59546925566343
28462,Brunswick County,NC,NA,NA,79.28802588996764
28465,Brunswick County,NC,NA,56.613756613756614,NA
28501,Lenoir County,NC,NA,78.04232804232805,NA
28681,Alexander County,NC,NA,36.507936507936506,NA
28716,Haywood County,NC,NA,NA,39.80582524271845
28748,Buncombe County,NC,60.902255639097746,NA,NA
28777,Mitchell County,NC,NA,71.16402116402116,NA
28791,Henderson County,NC,NA,NA,45.63106796116505
58554,Morton County,ND,NA,64.28571428571429,NA
43015,Delaware County,OH,16.917293233082706,NA,NA
43025,Licking County,OH,NA,84.92063492063492,NA
43054,Franklin County,OH,78.57142857142857,NA,NA
43055,Licking County,OH,NA,1.0582010582010581,NA
43068,Franklin County,OH,NA,NA,20.06472491909385
43076,Perry County,OH,NA,NA,86.73139158576052
43085,Franklin County,OH,NA,NA,78.96440129449837
43103,Pickaway County,OH,NA,69.57671957671958,NA
43138,Hocking County,OH,NA,29.100529100529098,NA
43206,Franklin County,OH,12.781954887218044,NA,NA
43220,Franklin County,OH,NA,NA,36.56957928802589
43302,Marion County,OH,NA,NA,3.8834951456310676
43402,Wood County,OH,NA,14.285714285714285,NA
43410,Sandusky County,OH,NA,NA,66.99029126213593
43701,Muskingum County,OH,0.7518796992481203,NA,NA
43906,Belmont County,OH,49.24812030075188,NA,NA
43912,Belmont County,OH,NA,80.68783068783068,NA
43953,Jefferson County,OH,NA,26.984126984126984,NA
44001,Lorain County,OH,NA,NA,7.443365695792881
44012,Lorain County,OH,NA,NA,77.66990291262135
44035,Lorain County,OH,NA,NA,12.944983818770226
44039,Lorain County,OH,NA,2.380952380952381,NA
44070,Cuyahoga County,OH,NA,93.12169312169311,NA
44095,Lake County,OH,24.81203007518797,NA,NA
44114,Cuyahoga County,OH,NA,NA,95.79288025889967
44120,Cuyahoga County,OH,3.007518796992481,NA,NA
44136,Cuyahoga County,OH,NA,NA,44.336569579288025
44137,Cuyahoga County,OH,NA,NA,23.948220064724918
44145,Cuyahoga County,OH,NA,4.497354497354497,NA
44203,Summit County,OH,NA,8.465608465608465,NA
44212,Medina County,OH,3.3834586466165413,NA,NA
44256,Medina County,OH,41.72932330827068,NA,NA
44287,Wayne County,OH,NA,NA,74.75728155339806
44306,Summit County,OH,NA,NA,75.40453074433657
44406,Mahoning County,OH,NA,NA,74.4336569579288
44442,Mahoning County,OH,NA,NA,85.43689320388349
44505,Mahoning County,OH,NA,35.44973544973545,NA
44601,Stark County,OH,NA,NA,10.032362459546926
44621,Tuscarawas County,OH,86.8421052631579,NA,NA
44870,Erie County,OH,14.285714285714285,NA,NA
44883,Seneca County,OH,65.41353383458647,NA,NA
45013,Butler County,OH,NA,NA,58.89967637540453
45039,Warren County,OH,91.72932330827066,NA,NA
45042,Butler County,OH,NA,35.18518518518518,NA
45150,Clermont County,OH,NA,29.629629629629626,NA
45171,Brown County,OH,84.58646616541353,NA,NA
45213,Hamilton County,OH,NA,97.35449735449735,NA
45331,Darke County,OH,31.203007518796994,NA,NA
45410,Montgomery County,OH,44.3609022556391,NA,NA
45414,Montgomery County,OH,NA,49.735449735449734,NA
45430,Greene County,OH,NA,NA,88.67313915857605
45434,Greene County,OH,NA,NA,61.48867313915858
45459,Montgomery County,OH,NA,23.015873015873016,NA
45651,Vinton County,OH,NA,NA,77.99352750809061
45724,Washington County,OH,96.99248120300751,NA,NA
45750,Washington County,OH,NA,NA,1.9417475728155338
45807,Allen County,OH,NA,63.75661375661375,NA
73068,Cleveland County,OK,NA,92.85714285714286,NA
73086,Murray County,OK,NA,NA,91.9093851132686
73099,Canadian County,OK,NA,6.084656084656085,NA
73533,Stephens County,OK,NA,NA,16.181229773462782
74075,Payne County,OK,NA,58.730158730158735,NA
74133,Tulsa County,OK,36.84210526315789,NA,NA
74804,Pottawatomie County,OK,NA,NA,89.64401294498381
74820,Pontotoc County,OK,7.894736842105263,NA,NA
97030,Multnomah County,OR,NA,18.78306878306878,NA
97058,Wasco County,OR,NA,30.158730158730158,NA
97230,Multnomah County,OR,NA,45.5026455026455,NA
97267,Clackamas County,OR,NA,NA,19.41747572815534
97333,Benton County,OR,NA,NA,50.80906148867314
97361,Polk County,OR,NA,87.56613756613757,NA
97439,Lane County,OR,NA,NA,17.15210355987055
97448,Lane County,OR,NA,NA,88.3495145631068
97470,Douglas County,OR,NA,79.36507936507937,NA
97496,Douglas County,OR,NA,73.80952380952381,NA
97539,Jackson County,OR,NA,92.06349206349206,NA
97603,Klamath County,OR,23.308270676691727,NA,NA
97754,Crook County,OR,48.1203007518797,NA,NA
15044,Allegheny County,PA,NA,53.17460317460318,NA
15045,Allegheny County,PA,NA,91.53439153439153,NA
15213,Allegheny County,PA,NA,NA,32.362459546925564
15221,Allegheny County,PA,NA,26.190476190476193,NA
15401,Fayette County,PA,NA,NA,8.737864077669903
15644,Westmoreland County,PA,NA,33.5978835978836,NA
15668,Westmoreland County,PA,NA,NA,31.3915857605178
15904,Cambria County,PA,NA,34.92063492063492,NA
15931,Cambria County,PA,NA,61.111111111111114,NA
16159,Mercer County,PA,NA,98.4126984126984,NA
16648,Blair County,PA,58.27067669172933,NA,NA
16841,Centre County,PA,NA,NA,74.75728155339806
16866,Centre County,PA,62.40601503759399,NA,NA
17044,Mifflin County,PA,NA,NA,11.650485436893204
17050,Cumberland County,PA,NA,9.523809523809524,NA
17055,Cumberland County,PA,34.962406015037594,NA,NA
17103,Dauphin County,PA,NA,70.8994708994709,NA
17225,Franklin County,PA,89.47368421052632,NA,NA
17268,Franklin County,PA,NA,23.809523809523807,NA
17517,Lancaster County,PA,NA,NA,97.41100323624595
17545,Lancaster County,PA,NA,31.216931216931215,NA
17754,Lycoming County,PA,NA,NA,25.5663430420712
17960,Schuylkill County,PA,NA,89.68253968253968,NA
18017,Northampton County,PA,NA,3.439153439153439,NA
18018,Lehigh County,PA,NA,60.05291005291006,NA
18020,Northampton County,PA,NA,NA,55.98705501618123
18201,Luzerne County,PA,22.932330827067666,NA,NA
18235,Carbon County,PA,NA,28.306878306878307,NA
18249,Luzerne County,PA,NA,NA,97.73462783171522
18431,Wayne County,PA,NA,83.33333333333334,NA
18902,Bucks County,PA,NA,76.45502645502646,NA
18929,Bucks County,PA,NA,99.20634920634922,NA
19063,Delaware County,PA,NA,NA,12.297734627831716
19082,Delaware County,PA,NA,NA,62.7831715210356
19121,Philadelphia County,PA,NA,24.6031746031746,NA
19139,Philadelphia County,PA,4.135338345864661,6.613756613756613,NA
19140,Philadelphia County,PA,2.2556390977443606,NA,NA
19143,Philadelphia County,PA,NA,NA,10.355987055016183
19146,Philadelphia County,PA,47.744360902255636,85.18518518518519,NA
19151,Philadelphia County,PA,NA,18.51851851851852,NA
19154,Philadelphia County,PA,18.045112781954884,NA,NA
19320,Chester County,PA,NA,12.962962962962962,NA
19342,Delaware County,PA,49.62406015037594,NA,NA
19380,Chester County,PA,NA,NA,3.2362459546925564
19438,Montgomery County,PA,NA,NA,30.42071197411003
19462,Montgomery County,PA,NA,NA,50.161812297734635
19468,Montgomery County,PA,82.70676691729322,NA,NA
19606,Berks County,PA,NA,4.761904761904762,NA
02886,Kent County,RI,NA,NA,8.414239482200648
02888,Kent County,RI,NA,NA,38.18770226537217
02889,Kent County,RI,30.075187969924812,NA,NA
02895,Providence County,RI,43.609022556390975,NA,NA
02911,Providence County,RI,NA,NA,60.19417475728155
02919,Providence County,RI,NA,NA,18.12297734627832
02920,Providence County,RI,NA,16.93121693121693,NA
29003,Bamberg County,SC,NA,NA,94.49838187702265
29072,Lexington County,SC,32.33082706766917,NA,NA
29073,Lexington County,SC,NA,75.66137566137566,NA
29102,Clarendon County,SC,NA,53.96825396825397,NA
29170,Lexington County,SC,65.78947368421053,NA,NA
29210,Richland County,SC,43.984962406015036,NA,NA
29322,Spartanburg County,SC,NA,NA,95.14563106796116
29340,Cherokee County,SC,NA,52.116402116402114,NA
29406,Charleston County,SC,NA,57.936507936507944,NA
29485,Dorchester County,SC,33.45864661654135,NA,NA
29621,Anderson County,SC,NA,20.37037037037037,NA
29625,Anderson County,SC,NA,NA,44.01294498381877
29672,Oconee County,SC,NA,NA,53.72168284789643
29720,Lancaster County,SC,NA,79.8941798941799,NA
29832,Edgefield County,SC,NA,92.5925925925926,NA
37027,Williamson County,TN,NA,24.074074074074073,17.79935275080906
37040,Montgomery County,TN,81.95488721804512,NA,NA
37082,Cheatham County,TN,98.1203007518797,NA,NA
37129,Rutherford County,TN,18.796992481203006,NA,NA
37130,Rutherford County,TN,NA,68.25396825396825,NA
37211,Davidson County,TN,NA,NA,18.446601941747574
37221,Davidson County,TN,63.90977443609023,NA,NA
37303,McMinn County,TN,27.44360902255639,NA,NA
37311,Bradley County,TN,NA,71.95767195767195,NA
37380,Marion County,TN,NA,94.17989417989418,NA
37406,Hamilton County,TN,93.23308270676691,NA,NA
37411,Hamilton County,TN,NA,NA,55.33980582524271
37416,Hamilton County,TN,56.015037593984964,NA,NA
37604,Washington County,TN,24.06015037593985,NA,NA
37683,Johnson County,TN,NA,86.5079365079365,NA
37766,Campbell County,TN,NA,25.925925925925924,NA
37772,Loudon County,TN,NA,60.317460317460316,NA
37920,Knox County,TN,NA,17.724867724867725,NA
37934,Knox County,TN,NA,40.21164021164021,NA
37938,Knox County,TN,NA,NA,94.8220064724919
38002,Shelby County,TN,NA,NA,51.45631067961165
38063,Lauderdale County,TN,NA,68.78306878306879,NA
38257,Obion County,TN,NA,88.35978835978835,NA
38343,Gibson County,TN,NA,NA,69.57928802588997
38574,Putnam County,TN,NA,69.04761904761905,NA
75024,Collin County,TX,NA,78.3068783068783,NA
75057,Denton County,TX,80.82706766917293,NA,NA
75071,Collin County,TX,34.21052631578947,NA,NA
75081,Dallas County,TX,NA,47.61904761904761,NA
75126,Kaufman County,TX,NA,76.71957671957672,NA
75154,Ellis County,TX,NA,38.88888888888889,NA
75181,Dallas County,TX,54.13533834586466,NA,NA
75214,Dallas County,TX,NA,NA,85.11326860841424
75225,Dallas County,TX,NA,55.55555555555556,NA
75244,Dallas County,TX,86.46616541353383,NA,NA
75474,Hunt County,TX,62.03007518796993,NA,NA
75495,Grayson County,TX,NA,NA,86.08414239482201
75602,Gregg County,TX,NA,NA,92.23300970873787
75605,Gregg County,TX,NA,36.24338624338625,NA
75654,Rusk County,TX,81.57894736842105,NA,NA
75709,Smith County,TX,NA,NA,88.02588996763754
75862,Trinity County,TX,85.33834586466166,NA,NA
75941,Angelina County,TX,93.60902255639097,NA,NA
75949,Angelina County,TX,79.32330827067669,NA,NA
76010,Tarrant County,TX,NA,54.232804232804234,NA
76054,Tarrant County,TX,98.87218045112782,NA,NA
76123,Tarrant County,TX,75.56390977443608,NA,NA
76131,Tarrant County,TX,51.8796992481203,NA,NA
76207,Denton County,TX,NA,NA,75.72815533980582
76502,Bell County,TX,NA,NA,37.54045307443366
76504,Bell County,TX,9.774436090225564,NA,NA
76705,McLennan County,TX,19.924812030075188,NA,NA
76825,McCulloch County,TX,86.09022556390977,NA,NA
77007,Harris County,TX,53.75939849624061,NA,NA
77036,Harris County,TX,NA,NA,48.22006472491909
77041,Harris County,TX,83.83458646616542,NA,NA
77075,Harris County,TX,NA,87.83068783068782,NA
77084,Harris County,TX,NA,24.867724867724867,NA
77096,Harris County,TX,NA,41.53439153439153,NA
77471,Fort Bend County,TX,NA,NA,46.27831715210356
77494,Fort Bend County,TX,19.172932330827066,NA,NA
77503,Harris County,TX,NA,67.46031746031747,NA
77520,Harris County,TX,45.11278195488722,NA,NA
77532,Harris County,TX,NA,65.07936507936508,NA
77578,Brazoria County,TX,NA,93.38624338624338,NA
77584,Brazoria County,TX,NA,21.428571428571427,NA
77656,Hardin County,TX,NA,60.84656084656085,NA
77836,Burleson County,TX,64.28571428571429,NA,NA
78028,Kerr County,TX,NA,NA,7.119741100323624
78041,Webb County,TX,66.9172932330827,NA,NA
78218,Bexar County,TX,NA,NA,74.11003236245955
78245,Bexar County,TX,NA,81.21693121693121,NA
78259,Bexar County,TX,NA,96.56084656084656,NA
78504,Hidalgo County,TX,42.10526315789473,NA,NA
78572,Hidalgo County,TX,22.18045112781955,NA,NA
78582,Starr County,TX,NA,NA,22.97734627831715
78613,Williamson County,TX,NA,NA,31.06796116504854
79603,Taylor County,TX,36.46616541353384,NA,NA
79605,Taylor County,TX,41.35338345864661,NA,NA
79606,Taylor County,TX,NA,NA,29.449838187702266
79703,Midland County,TX,59.02255639097744,NA,NA
79936,El Paso County,TX,NA,NA,35.92233009708738
84010,Davis County,UT,NA,NA,54.0453074433657
84015,Davis County,UT,69.54887218045113,NA,NA
84074,Tooele County,UT,4.511278195488721,NA,NA
84335,Cache County,UT,NA,NA,89.96763754045307
84601,Utah County,UT,69.92481203007519,NA,NA
84780,Washington County,UT,NA,44.97354497354497,NA
05250,Bennington County,VT,NA,NA,83.49514563106796
05408,Chittenden County,VT,NA,NA,78.31715210355988
22124,Fairfax County,VA,NA,79.1005291005291,NA
22602,Frederick County,VA,53.383458646616546,NA,NA
22655,Frederick County,VA,NA,82.27513227513228,NA
22657,Shenandoah County,VA,NA,75.13227513227513,NA
23116,Hanover County,VA,NA,53.43915343915344,NA
23188,James City County,VA,NA,2.1164021164021163,NA
23234,Chesterfield County,VA,NA,NA,57.92880258899677
23237,Chesterfield County,VA,48.87218045112782,NA,NA
23462,Virginia Beach city,VA,21.804511278195488,NA,NA
23502,Norfolk city,VA,NA,NA,37.86407766990291
23504,Norfolk city,VA,31.954887218045116,NA,NA
23851,Franklin city,VA,57.89473684210527,NA,NA
23947,Charlotte County,VA,NA,NA,96.11650485436894
24211,Washington County,VA,NA,56.34920634920635,NA
24279,Wise County,VA,NA,NA,84.14239482200647
98031,King County,WA,NA,NA,39.482200647249186
98033,King County,WA,NA,NA,23.300970873786408
98101,King County,WA,NA,NA,33.00970873786408
98271,Snohomish County,WA,NA,50,NA
98292,Snohomish County,WA,60.526315789473685,NA,NA
98640,Pacific County,WA,NA,NA,61.81229773462783
98802,Douglas County,WA,NA,NA,71.19741100323624
98926,Kittitas County,WA,NA,34.12698412698413,NA
99003,Spokane County,WA,99.62406015037594,NA,NA
99207,Spokane County,WA,52.255639097744364,NA,NA
99301,Franklin County,WA,NA,6.349206349206349,NA
25213,Putnam County,WV,NA,97.88359788359789,NA
25530,Wayne County,WV,70.67669172932331,NA,NA
25701,Cabell County,WV,NA,NA,22.330097087378643
26062,Hancock County,WV,11.278195488721805,NA,NA
26187,Wood County,WV,NA,51.587301587301596,NA
26201,Upshur County,WV,28.195488721804512,NA,NA
26416,Barbour County,WV,NA,37.56613756613756,NA
26757,Hampshire County,WV,NA,81.48148148148148,NA
53105,Racine County,WI,NA,NA,28.802588996763756
53129,Milwaukee County,WI,71.05263157894737,NA,NA
53154,Milwaukee County,WI,NA,11.375661375661375,NA
53158,Kenosha County,WI,26.31578947368421,64.81481481481481,NA
53210,Milwaukee County,WI,NA,19.31216931216931,NA
53214,Milwaukee County,WI,NA,NA,21.35922330097087
53405,Racine County,WI,NA,3.1746031746031744,NA
53532,Dane County,WI,NA,85.97883597883597,NA
53597,Dane County,WI,NA,NA,51.1326860841424
53704,Dane County,WI,NA,NA,34.3042071197411
53714,Dane County,WI,NA,NA,87.37864077669903
53716,Dane County,WI,73.30827067669173,NA,NA
54017,St. Croix County,WI,53.00751879699248,NA,NA
54024,Polk County,WI,NA,90.47619047619048,NA
54114,Marinette County,WI,NA,NA,73.7864077669903
54157,Marinette County,WI,NA,87.3015873015873,NA
54220,Manitowoc County,WI,NA,1.5873015873015872,NA
54401,Marathon County,WI,NA,30.952380952380953,NA
54476,Marathon County,WI,NA,NA,45.9546925566343
54568,Vilas County,WI,NA,95.76719576719577,NA
54601,La Crosse County,WI,NA,NA,0.6472491909385114
54665,Vernon County,WI,NA,67.98941798941799,NA
54868,Barron County,WI,NA,NA,80.90614886731392
