ZipCode,county,state,Youth,Adult,Retirement
35022,Jefferson County,AL,NA,36.82795698924731,NA
35051,Shelby County,AL,NA,79.56989247311827,NA
35208,Jefferson County,AL,NA,37.096774193548384,NA
35216,Jefferson County,AL,NA,50.806451612903224,NA
35504,Walker County,AL,47.61904761904761,NA,NA
35603,Morgan County,AL,NA,16.397849462365592,NA
35749,Madison County,AL,NA,NA,52.41635687732342
35760,Madison County,AL,99.13419913419914,NA,NA
35803,Madison County,AL,NA,59.946236559139784,NA
35806,Madison County,AL,NA,71.23655913978494,NA
36010,Pike County,AL,66.66666666666666,NA,NA
36312,Houston County,AL,NA,77.01612903225806,NA
36609,Mobile County,AL,70.995670995671,NA,NA
36703,Dallas County,AL,NA,NA,59.85130111524164
99669,Kenai Peninsula Borough,AK,NA,65.59139784946237,NA
85016,Maricopa County,AZ,NA,39.6505376344086,NA
85018,Maricopa County,AZ,NA,33.064516129032256,NA
85029,Maricopa County,AZ,NA,NA,74.34944237918215
85048,Maricopa County,AZ,NA,45.96774193548387,NA
85207,Maricopa County,AZ,NA,26.478494623655912,NA
85226,Maricopa County,AZ,NA,51.20967741935484,NA
85251,Maricopa County,AZ,NA,37.634408602150536,NA
85255,Maricopa County,AZ,NA,82.52688172043011,NA
85353,Maricopa County,AZ,NA,31.72043010752688,NA
85364,Yuma County,AZ,NA,NA,22.676579925650557
85704,Pima County,AZ,NA,NA,65.4275092936803
86004,Coconino County,AZ,NA,7.526881720430108,NA
86005,Coconino County,AZ,NA,46.236559139784944,NA
86305,Yavapai County,AZ,NA,NA,34.94423791821561
86323,Yavapai County,AZ,NA,NA,62.825278810408925
86503,Apache County,AZ,NA,NA,50.92936802973978
71730,Union County,AR,NA,43.413978494623656,NA
72032,Faulkner County,AR,NA,37.5,NA
72034,Faulkner County,AR,NA,72.58064516129032,NA
72076,Pulaski County,AR,NA,45.83333333333333,NA
72116,Pulaski County,AR,NA,65.32258064516128,NA
72160,Arkansas County,AR,NA,66.53225806451613,NA
72223,Pulaski County,AR,NA,76.74731182795699,NA
72432,Poinsett County,AR,87.87878787878788,NA,NA
72450,Greene County,AR,NA,19.892473118279568,NA
72653,Baxter County,AR,58.00865800865801,NA,NA
90047,Los Angeles County,CA,NA,16.129032258064516,NA
90049,Los Angeles County,CA,NA,NA,47.58364312267658
90293,Los Angeles County,CA,NA,86.02150537634408,NA
90603,Los Angeles County,CA,87.44588744588745,NA,NA
90604,Los Angeles County,CA,86.14718614718615,NA,NA
90731,Los Angeles County,CA,NA,29.973118279569892,NA
91402,Los Angeles County,CA,NA,26.747311827956988,NA
91737,San Bernardino County,CA,NA,87.5,NA
91761,San Bernardino County,CA,NA,24.059139784946236,NA
92004,San Diego County,CA,NA,NA,95.53903345724906
92024,San Diego County,CA,NA,38.17204301075269,NA
92037,San Diego County,CA,NA,NA,50.55762081784386
92128,San Diego County,CA,NA,NA,48.698884758364315
92201,Riverside County,CA,NA,23.387096774193548,NA
92211,Riverside County,CA,31.601731601731604,NA,NA
92243,Imperial County,CA,22.07792207792208,NA,NA
92253,Riverside County,CA,80.51948051948052,80.24193548387096,NA
92260,Riverside County,CA,68.3982683982684,NA,NA
92629,Orange County,CA,NA,67.74193548387096,NA
92646,Orange County,CA,NA,56.048387096774185,6.691449814126393
92649,Orange County,CA,NA,52.016129032258064,NA
92880,Riverside County,CA,NA,NA,56.13382899628253
93004,Ventura County,CA,NA,52.41935483870967,NA
93021,Ventura County,CA,NA,56.72043010752689,NA
93221,Tulare County,CA,NA,72.31182795698925,NA
93277,Tulare County,CA,NA,24.596774193548388,17.843866171003718
93308,Kern County,CA,NA,57.795698924731184,NA
93555,Kern County,CA,NA,55.107526881720425,NA
93612,Fresno County,CA,NA,40.86021505376344,NA
93637,Madera County,CA,NA,30.913978494623656,NA
93662,Fresno County,CA,NA,53.2258064516129,NA
93703,Fresno County,CA,21.645021645021643,NA,NA
93722,Fresno County,CA,1.2987012987012987,NA,NA
93726,Fresno County,CA,NA,50.94086021505376,NA
93730,Fresno County,CA,75.32467532467533,NA,NA
94002,San Mateo County,CA,NA,52.82258064516129,NA
94022,Santa Clara County,CA,NA,95.02688172043011,NA
94109,San Francisco County,CA,NA,28.091397849462364,10.780669144981413
94110,San Francisco County,CA,NA,13.440860215053762,NA
94112,San Francisco County,CA,NA,54.03225806451613,NA
94131,San Francisco County,CA,NA,91.12903225806451,NA
94510,Solano County,CA,NA,76.20967741935483,NA
94521,Contra Costa County,CA,NA,54.83870967741935,NA
94523,Contra Costa County,CA,35.064935064935064,NA,NA
94533,Solano County,CA,NA,22.58064516129032,NA
94546,Alameda County,CA,NA,73.25268817204301,NA
94549,Contra Costa County,CA,NA,74.86559139784946,NA
94565,Contra Costa County,CA,NA,21.63978494623656,NA
94585,Solano County,CA,66.23376623376623,NA,NA
94597,Contra Costa County,CA,NA,65.05376344086021,NA
94610,Alameda County,CA,NA,59.81182795698925,NA
94621,Alameda County,CA,NA,31.048387096774192,NA
94707,Alameda County,CA,NA,94.89247311827957,NA
94954,Sonoma County,CA,NA,NA,69.51672862453532
95050,Santa Clara County,CA,NA,63.17204301075269,NA
95132,Santa Clara County,CA,NA,NA,66.91449814126395
95220,San Joaquin County,CA,NA,95.83333333333334,NA
95320,San Joaquin County,CA,NA,NA,83.64312267657994
95357,Stanislaus County,CA,NA,78.62903225806451,NA
95377,San Joaquin County,CA,83.11688311688312,NA,NA
95380,Stanislaus County,CA,NA,NA,20.44609665427509
95401,Sonoma County,CA,NA,54.83870967741935,49.44237918215613
95492,Sonoma County,CA,NA,90.59139784946237,NA
95608,Sacramento County,CA,NA,64.38172043010752,NA
95630,Sacramento County,CA,NA,26.61290322580645,NA
95648,Placer County,CA,NA,57.392473118279575,NA
95683,Sacramento County,CA,NA,NA,98.51301115241635
95819,Sacramento County,CA,NA,89.78494623655914,NA
95826,Sacramento County,CA,NA,50,NA
95834,Sacramento County,CA,NA,63.97849462365591,NA
80011,Arapahoe County,CO,NA,8.870967741935484,NA
80012,Arapahoe County,CO,NA,NA,30.111524163568777
80014,Arapahoe County,CO,NA,NA,27.509293680297397
80015,Arapahoe County,CO,3.896103896103896,NA,NA
80030,Adams County,CO,NA,NA,76.57992565055763
80104,Douglas County,CO,NA,53.62903225806451,NA
80108,Douglas County,CO,NA,45.026881720430104,60.966542750929364
80122,Arapahoe County,CO,NA,49.73118279569893,NA
80124,Douglas County,CO,NA,NA,79.92565055762083
80126,Douglas County,CO,67.53246753246754,NA,81.04089219330855
80129,Douglas County,CO,56.27705627705628,NA,82.8996282527881
80221,Adams County,CO,NA,31.182795698924732,NA
80223,Denver County,CO,NA,79.3010752688172,NA
80233,Adams County,CO,NA,83.06451612903226,NA
80239,Denver County,CO,NA,23.790322580645164,NA
80241,Adams County,CO,NA,NA,70.26022304832715
80246,Denver County,CO,NA,79.43548387096774,NA
80537,Larimer County,CO,NA,21.50537634408602,NA
80601,Adams County,CO,NA,32.795698924731184,NA
80602,Adams County,CO,NA,43.145161290322584,NA
80615,Weld County,CO,NA,89.11290322580645,NA
80631,Weld County,CO,NA,9.67741935483871,NA
80634,Weld County,CO,NA,3.225806451612903,NA
80640,Adams County,CO,NA,69.75806451612904,NA
80906,El Paso County,CO,NA,NA,40.520446096654275
81101,Alamosa County,CO,NA,39.91935483870967,NA
81201,Chaffee County,CO,NA,NA,75.09293680297398
81401,Montrose County,CO,NA,43.95161290322581,NA
81435,San Miguel County,CO,NA,99.19354838709677,NA
81501,Mesa County,CO,NA,NA,61.33828996282528
81632,Eagle County,CO,92.64069264069265,NA,NA
06032,Hartford County,CT,81.81818181818183,NA,NA
06051,Hartford County,CT,NA,4.032258064516129,NA
06053,Hartford County,CT,NA,11.96236559139785,NA
06109,Hartford County,CT,NA,79.56989247311827,NA
06111,Hartford County,CT,NA,83.73655913978494,NA
06426,Middlesex County,CT,NA,100,NA
06443,New Haven County,CT,NA,NA,33.457249070631974
06512,New Haven County,CT,NA,66.12903225806451,NA
06604,Fairfield County,CT,NA,47.715053763440864,NA
06702,New Haven County,CT,NA,78.2258064516129,NA
06705,New Haven County,CT,NA,22.311827956989248,NA
06776,Litchfield County,CT,NA,28.225806451612907,NA
06840,Fairfield County,CT,NA,71.90860215053763,NA
32205,Duval County,FL,NA,NA,33.82899628252788
32206,Duval County,FL,NA,21.370967741935484,NA
32207,Duval County,FL,NA,NA,9.293680297397769
32218,Duval County,FL,NA,20.161290322580644,NA
32220,Duval County,FL,NA,61.424731182795696,NA
32256,Duval County,FL,NA,31.586021505376344,NA
32444,Bay County,FL,NA,NA,82.5278810408922
32501,Escambia County,FL,NA,51.61290322580645,NA
32533,Escambia County,FL,NA,93.54838709677419,NA
32550,Walton County,FL,NA,83.1989247311828,NA
32563,Santa Rosa County,FL,NA,32.25806451612903,NA
32605,Alachua County,FL,26.406926406926406,NA,NA
32608,Alachua County,FL,NA,96.63978494623656,NA
32621,Levy County,FL,70.56277056277057,NA,NA
32641,Alachua County,FL,NA,77.15053763440861,NA
32669,Alachua County,FL,NA,98.52150537634408,66.17100371747212
32778,Lake County,FL,NA,56.98924731182796,NA
32803,Orange County,FL,96.1038961038961,NA,NA
33040,Monroe County,FL,79.22077922077922,40.456989247311824,NA
33141,Miami-Dade County,FL,NA,NA,36.059479553903344
33156,Miami-Dade County,FL,69.6969696969697,NA,NA
33316,Broward County,FL,NA,NA,88.47583643122677
33332,Broward County,FL,NA,98.25268817204301,NA
33411,Palm Beach County,FL,44.58874458874459,NA,NA
33431,Palm Beach County,FL,NA,NA,55.01858736059479
33458,Palm Beach County,FL,NA,23.9247311827957,NA
33629,Hillsborough County,FL,NA,93.68279569892472,NA
33714,Pinellas County,FL,NA,51.88172043010753,NA
33773,Pinellas County,FL,NA,61.96236559139785,NA
33825,Highlands County,FL,NA,NA,14.869888475836431
33868,Polk County,FL,NA,94.08602150537635,NA
33875,Highlands County,FL,NA,84.94623655913979,NA
33880,Polk County,FL,70.12987012987013,NA,NA
33901,Lee County,FL,NA,49.596774193548384,NA
34203,Manatee County,FL,NA,51.47849462365591,NA
34217,Manatee County,FL,NA,NA,98.14126394052045
34223,Sarasota County,FL,NA,82.39247311827957,NA
34433,Citrus County,FL,NA,81.18279569892472,NA
34465,Citrus County,FL,NA,97.58064516129032,NA
34761,Orange County,FL,NA,64.11290322580645,NA
34772,Osceola County,FL,NA,NA,67.28624535315984
34947,St. Lucie County,FL,NA,50.134408602150536,NA
34982,St. Lucie County,FL,NA,NA,71.00371747211895
34990,Martin County,FL,NA,95.16129032258065,NA
34996,Martin County,FL,NA,NA,92.56505576208178
30005,Fulton County,GA,72.2943722943723,NA,NA
30016,Newton County,GA,35.93073593073593,NA,NA
30040,Forsyth County,GA,8.658008658008658,NA,NA
30052,Walton County,GA,NA,18.010752688172044,NA
30066,Cobb County,GA,52.38095238095239,NA,NA
30068,Cobb County,GA,NA,NA,59.479553903345725
30101,Cobb County,GA,20.77922077922078,NA,NA
30102,Cherokee County,GA,NA,NA,32.71375464684015
30104,Polk County,GA,94.8051948051948,NA,NA
30126,Cobb County,GA,NA,40.18817204301075,NA
30165,Floyd County,GA,51.082251082251084,NA,NA
30189,Cherokee County,GA,NA,49.32795698924731,NA
30230,Troup County,GA,NA,70.6989247311828,NA
30263,Coweta County,GA,NA,NA,11.152416356877323
30305,Fulton County,GA,NA,73.65591397849462,NA
30306,Fulton County,GA,NA,85.88709677419355,NA
30338,DeKalb County,GA,78.78787878787878,NA,NA
30349,Fulton County,GA,NA,9.274193548387096,NA
30549,Jackson County,GA,NA,69.75806451612904,NA
30601,Clarke County,GA,NA,63.03763440860215,NA
30677,Oconee County,GA,NA,NA,89.96282527881041
30710,Whitfield County,GA,94.37229437229438,NA,NA
31008,Peach County,GA,NA,NA,57.99256505576208
31036,Pulaski County,GA,69.26406926406926,NA,NA
31539,Jeff Davis County,GA,86.58008658008657,NA,NA
31714,Turner County,GA,NA,86.55913978494624,NA
31750,Ben Hill County,GA,NA,55.376344086021504,NA
31791,Worth County,GA,NA,48.79032258064516,NA
31794,Tift County,GA,NA,27.553763440860212,NA
96701,Honolulu County,HI,NA,32.93010752688172,NA
96706,Honolulu County,HI,NA,11.559139784946236,NA
96734,Honolulu County,HI,NA,35.3494623655914,NA
96782,Honolulu County,HI,NA,NA,23.04832713754647
83202,Bannock County,ID,NA,NA,95.16728624535315
83221,Bingham County,ID,NA,27.419354838709676,NA
83274,Bingham County,ID,NA,78.09139784946237,NA
83318,Cassia County,ID,NA,78.89784946236558,NA
83338,Jerome County,ID,56.27705627705628,NA,NA
83340,Blaine County,ID,99.56709956709958,NA,NA
83402,Bonneville County,ID,NA,48.52150537634409,NA
83406,Bonneville County,ID,NA,60.752688172043015,NA
83422,Teton County,ID,NA,96.37096774193549,NA
83530,Idaho County,ID,NA,NA,79.5539033457249
83704,Ada County,ID,NA,17.20430107526882,NA
83713,Ada County,ID,NA,34.81182795698925,NA
60004,Cook County,IL,21.21212121212121,55.24193548387096,NA
60020,Lake County,IL,NA,NA,96.28252788104089
60025,Cook County,IL,16.883116883116884,NA,NA
60035,Lake County,IL,NA,40.99462365591398,NA
60042,McHenry County,IL,NA,88.17204301075269,NA
60046,Lake County,IL,NA,36.155913978494624,NA
60056,Cook County,IL,NA,NA,49.07063197026022
60089,Lake County,IL,NA,37.76881720430107,NA
60090,Cook County,IL,61.038961038961034,NA,NA
60091,Cook County,IL,41.99134199134199,NA,NA
60098,McHenry County,IL,NA,30.510752688172044,NA
60101,DuPage County,IL,39.82683982683983,NA,NA
60104,Cook County,IL,NA,NA,76.95167286245353
60107,Cook County,IL,NA,46.50537634408602,NA
60108,DuPage County,IL,NA,56.31720430107527,NA
60130,Cook County,IL,NA,71.63978494623656,NA
60156,McHenry County,IL,NA,92.60752688172043,NA
60175,Kane County,IL,NA,57.66129032258065,NA
60201,Cook County,IL,68.83116883116884,NA,94.05204460966543
60402,Cook County,IL,14.71861471861472,NA,NA
60446,Will County,IL,NA,15.456989247311828,NA
60463,Cook County,IL,NA,NA,47.21189591078067
60467,Cook County,IL,23.809523809523807,NA,NA
60491,Will County,IL,NA,75.53763440860214,NA
60502,DuPage County,IL,NA,49.05913978494624,NA
60510,Kane County,IL,29.004329004329005,NA,NA
60515,DuPage County,IL,NA,64.78494623655914,NA
60523,DuPage County,IL,NA,NA,87.73234200743495
60540,DuPage County,IL,NA,28.62903225806452,NA
60544,Will County,IL,NA,35.752688172043015,NA
60565,DuPage County,IL,15.151515151515152,NA,NA
60605,Cook County,IL,NA,56.85483870967742,NA
60607,Cook County,IL,NA,45.43010752688172,NA
60609,Cook County,IL,NA,NA,16.356877323420075
60620,Cook County,IL,NA,8.333333333333332,NA
60622,Cook County,IL,NA,NA,46.468401486988846
60632,Cook County,IL,NA,82.66129032258065,NA
60637,Cook County,IL,NA,15.994623655913978,NA
60647,Cook County,IL,NA,47.043010752688176,NA
60649,Cook County,IL,NA,NA,7.063197026022305
60804,Cook County,IL,NA,20.29569892473118,NA
61108,Winnebago County,IL,NA,NA,24.53531598513011
61530,Woodford County,IL,NA,NA,90.33457249070632
61611,Tazewell County,IL,NA,NA,41.63568773234201
61821,Champaign County,IL,54.54545454545454,NA,NA
61853,Champaign County,IL,NA,NA,97.76951672862454
62035,Madison County,IL,83.98268398268398,NA,NA
62056,Montgomery County,IL,NA,NA,86.98884758364312
62234,Madison County,IL,NA,46.37096774193548,NA
62353,Brown County,IL,NA,97.71505376344086,NA
46032,Hamilton County,IN,87.01298701298701,NA,NA
46055,Hancock County,IN,NA,74.59677419354838,NA
46131,Johnson County,IN,NA,29.70430107526882,NA
46176,Shelby County,IN,72.72727272727273,NA,NA
46214,Marion County,IN,NA,NA,46.09665427509294
46227,Marion County,IN,14.285714285714285,NA,NA
46235,Marion County,IN,NA,47.8494623655914,NA
46237,Marion County,IN,63.20346320346321,NA,NA
46239,Marion County,IN,NA,74.73118279569893,NA
46240,Marion County,IN,NA,83.87096774193549,NA
46307,Lake County,IN,0.8658008658008658,NA,NA
46342,Lake County,IN,NA,NA,12.267657992565056
46368,Porter County,IN,NA,NA,0.7434944237918215
46550,Elkhart County,IN,NA,94.48924731182797,NA
46765,Allen County,IN,NA,89.38172043010752,NA
46774,Allen County,IN,NA,57.25806451612904,NA
46901,Howard County,IN,NA,2.6881720430107525,NA
46947,Cass County,IN,NA,NA,10.037174721189592
47201,Bartholomew County,IN,NA,12.634408602150538,NA
47362,Henry County,IN,78.35497835497836,NA,NA
47396,Delaware County,IN,NA,NA,97.39776951672863
47501,Daviess County,IN,NA,34.946236559139784,NA
47906,Tippecanoe County,IN,NA,NA,28.25278810408922
47932,Fountain County,IN,NA,94.35483870967742,NA
50003,Dallas County,IA,91.34199134199135,NA,NA
50010,Story County,IA,NA,54.56989247311827,NA
50023,Polk County,IA,NA,81.31720430107528,NA
50213,Clarke County,IA,NA,72.04301075268818,NA
50401,Cerro Gordo County,IA,NA,NA,7.434944237918216
50702,Black Hawk County,IA,NA,39.247311827956985,NA
51031,Plymouth County,IA,NA,75.94086021505376,NA
51106,Woodbury County,IA,NA,44.89247311827957,NA
66002,Atchison County,KS,NA,NA,61.33828996282528
66049,Douglas County,KS,NA,76.34408602150538,NA
66062,Johnson County,KS,11.255411255411255,NA,15.241635687732341
66206,Johnson County,KS,84.4155844155844,NA,NA
66220,Johnson County,KS,96.53679653679653,NA,NA
67219,Sedgwick County,KS,NA,79.97311827956989,NA
67337,Montgomery County,KS,NA,81.58602150537635,NA
67502,Reno County,KS,NA,63.306451612903224,NA
40059,Jefferson County,KY,71.42857142857143,NA,NA
40219,Jefferson County,KY,NA,13.172043010752688,NA
40272,Jefferson County,KY,NA,14.381720430107528,NA
40299,Jefferson County,KY,NA,33.60215053763441,NA
40336,Estill County,KY,NA,50.403225806451616,NA
40337,Montgomery County,KY,NA,87.09677419354838,NA
40351,Rowan County,KY,NA,21.774193548387096,NA
40383,Woodford County,KY,NA,66.39784946236558,NA
40511,Fayette County,KY,NA,37.23118279569893,NA
40741,Laurel County,KY,NA,21.908602150537636,NA
41030,Grant County,KY,NA,68.01075268817203,NA
41042,Boone County,KY,10.38961038961039,25.537634408602152,NA
41071,Campbell County,KY,39.39393939393939,NA,NA
42101,Warren County,KY,NA,28.763440860215056,NA
42701,Hardin County,KY,NA,NA,8.550185873605948
42728,Adair County,KY,NA,49.193548387096776,NA
70056,Jefferson Parish,LA,NA,4.973118279569892,NA
70124,Orleans Parish,LA,NA,97.98387096774194,NA
70125,Orleans Parish,LA,NA,75.26881720430107,NA
70458,St. Tammany Parish,LA,NA,6.317204301075269,NA
70775,West Feliciana Parish,LA,NA,83.33333333333334,NA
70785,Livingston Parish,LA,NA,17.473118279569892,NA
71109,Caddo Parish,LA,NA,NA,26.394052044609666
71302,Rapides Parish,LA,NA,25.940860215053764,NA
71417,Grant Parish,LA,60.60606060606061,NA,NA
71485,Rapides Parish,LA,NA,99.73118279569893,NA
04005,York County,ME,NA,42.06989247311828,NA
04103,Cumberland County,ME,NA,80.51075268817203,NA
04210,Androscoggin County,ME,NA,18.682795698924732,NA
04276,Oxford County,ME,NA,59.2741935483871,NA
04294,Franklin County,ME,NA,85.61827956989248,NA
04330,Kennebec County,ME,NA,6.989247311827956,NA
04730,Aroostook County,ME,NA,54.43548387096774,NA
04750,Aroostook County,ME,NA,91.26344086021506,NA
04938,Franklin County,ME,NA,72.71505376344086,NA
20743,Prince George's County,MD,NA,34.13978494623656,NA
21042,Howard County,MD,31.16883116883117,NA,57.62081784386617
21050,Harford County,MD,61.038961038961034,NA,NA
21213,Baltimore city,MD,NA,19.35483870967742,NA
21220,Baltimore County,MD,NA,18.14516129032258,NA
21226,Anne Arundel County,MD,NA,92.47311827956989,NA
21635,Kent County,MD,NA,99.86559139784946,NA
21701,Frederick County,MD,NA,55.376344086021504,NA
21740,Washington County,MD,NA,18.548387096774192,NA
21771,Frederick County,MD,43.722943722943725,NA,NA
01104,Hampden County,MA,NA,24.327956989247312,0.37174721189591076
01118,Hampden County,MA,NA,NA,59.10780669144982
01201,Berkshire County,MA,NA,21.102150537634408,NA
01331,Worcester County,MA,NA,5.10752688172043,NA
01453,Worcester County,MA,NA,1.6129032258064515,NA
01510,Worcester County,MA,NA,20.43010752688172,NA
01570,Worcester County,MA,NA,4.704301075268817,NA
01585,Worcester County,MA,NA,70.29569892473118,NA
01605,Worcester County,MA,NA,1.881720430107527,NA
01741,Middlesex County,MA,93.5064935064935,NA,NA
01760,Middlesex County,MA,12.554112554112553,10.887096774193548,NA
01801,Middlesex County,MA,NA,9.946236559139784,NA
01810,Essex County,MA,NA,NA,15.613382899628252
01821,Middlesex County,MA,NA,5.510752688172043,NA
01826,Middlesex County,MA,90.04329004329004,NA,NA
01830,Essex County,MA,NA,2.1505376344086025,NA
01841,Essex County,MA,NA,29.56989247311828,NA
01863,Middlesex County,MA,NA,74.19354838709677,NA
01890,Middlesex County,MA,NA,68.14516129032258,NA
02035,Norfolk County,MA,NA,31.85483870967742,NA
02050,Plymouth County,MA,38.095238095238095,NA,NA
02062,Norfolk County,MA,NA,14.650537634408604,NA
02072,Norfolk County,MA,NA,9.811827956989246,NA
02119,Suffolk County,MA,NA,0.13440860215053765,NA
02120,Suffolk County,MA,NA,55.64516129032258,NA
02121,Suffolk County,MA,NA,0.4032258064516129,NA
02124,Suffolk County,MA,NA,36.693548387096776,19.702602230483272
02125,Suffolk County,MA,NA,NA,29.739776951672862
02126,Suffolk County,MA,NA,12.365591397849462,26.022304832713754
02127,Suffolk County,MA,NA,10.75268817204301,NA
02135,Suffolk County,MA,NA,87.63440860215054,7.806691449814126
02139,Middlesex County,MA,NA,0.2688172043010753,NA
02141,Middlesex County,MA,NA,84.2741935483871,NA
02143,Middlesex County,MA,NA,24.731182795698924,NA
02149,Middlesex County,MA,NA,3.0913978494623655,NA
02150,Suffolk County,MA,NA,0.6720430107526881,NA
02155,Middlesex County,MA,NA,0.9408602150537635,NA
02170,Norfolk County,MA,NA,87.90322580645162,NA
02176,Middlesex County,MA,25.541125541125542,NA,55.39033457249071
02301,Plymouth County,MA,NA,0,NA
02302,Plymouth County,MA,NA,1.478494623655914,NA
02446,Norfolk County,MA,NA,19.489247311827956,NA
02461,Middlesex County,MA,NA,74.46236559139786,NA
02474,Middlesex County,MA,NA,NA,23.42007434944238
02482,Norfolk County,MA,NA,NA,78.43866171003717
02493,Middlesex County,MA,54.97835497835498,NA,NA
02536,Barnstable County,MA,NA,22.043010752688172,NA
02568,Dukes County,MA,NA,64.24731182795699,NA
02649,Barnstable County,MA,NA,NA,27.881040892193308
02703,Bristol County,MA,NA,0.8064516129032258,NA
48043,Macomb County,MI,NA,30.64516129032258,NA
48071,Oakland County,MI,NA,25.672043010752688,NA
48075,Oakland County,MI,NA,30.376344086021508,NA
48082,Macomb County,MI,55.41125541125541,NA,NA
48092,Macomb County,MI,NA,29.03225806451613,NA
48094,Macomb County,MI,40.692640692640694,72.44623655913979,49.814126394052046
48103,Washtenaw County,MI,NA,15.188172043010754,NA
48104,Washtenaw County,MI,74.02597402597402,86.69354838709677,NA
48124,Wayne County,MI,34.63203463203463,NA,NA
48135,Wayne County,MI,NA,NA,62.0817843866171
48141,Wayne County,MI,NA,9.543010752688172,NA
48162,Monroe County,MI,61.038961038961034,NA,NA
48183,Wayne County,MI,NA,10.080645161290322,NA
48185,Wayne County,MI,NA,25.268817204301076,NA
48188,Wayne County,MI,NA,13.5752688172043,NA
48197,Washtenaw County,MI,NA,NA,37.9182156133829
48203,Wayne County,MI,NA,41.263440860215056,NA
48207,Wayne County,MI,NA,19.086021505376344,NA
48213,Wayne County,MI,NA,NA,27.137546468401485
48219,Wayne County,MI,NA,5.376344086021505,41.2639405204461
48223,Wayne County,MI,NA,38.575268817204304,NA
48224,Wayne County,MI,NA,NA,20.817843866171003
48225,Wayne County,MI,NA,36.55913978494624,NA
48228,Wayne County,MI,NA,2.28494623655914,NA
48230,Wayne County,MI,88.74458874458875,NA,37.54646840148699
48235,Wayne County,MI,19.913419913419915,30.241935483870968,NA
48236,Wayne County,MI,NA,NA,12.639405204460965
48239,Wayne County,MI,NA,NA,8.178438661710038
48315,Macomb County,MI,NA,37.903225806451616,NA
48335,Oakland County,MI,58.87445887445888,NA,NA
48336,Oakland County,MI,NA,31.451612903225808,NA
48346,Oakland County,MI,NA,35.215053763440864,NA
48382,Oakland County,MI,24.675324675324674,45.16129032258064,NA
48390,Oakland County,MI,NA,36.02150537634409,NA
48393,Oakland County,MI,NA,42.876344086021504,NA
48412,Lapeer County,MI,NA,NA,85.50185873605948
48439,Genesee County,MI,NA,13.306451612903224,NA
48506,Genesee County,MI,NA,23.521505376344088,NA
48601,Saginaw County,MI,NA,NA,2.973977695167286
48706,Bay County,MI,NA,8.736559139784946,NA
48732,Bay County,MI,41.55844155844156,NA,NA
48750,Iosco County,MI,NA,90.18817204301075,NA
48801,Gratiot County,MI,73.16017316017316,NA,NA
48827,Eaton County,MI,49.78354978354979,NA,NA
48837,Eaton County,MI,NA,76.0752688172043,NA
48854,Ingham County,MI,38.961038961038966,NA,NA
49010,Allegan County,MI,NA,39.784946236559136,NA
49028,Branch County,MI,NA,84.13978494623656,NA
49043,Van Buren County,MI,NA,97.31182795698925,NA
49087,Kalamazoo County,MI,NA,NA,70.63197026022306
49091,St. Joseph County,MI,NA,41.39784946236559,NA
49107,Berrien County,MI,NA,82.93010752688173,NA
49221,Lenawee County,MI,NA,4.301075268817205,NA
49252,Hillsdale County,MI,100,NA,NA
49270,Monroe County,MI,NA,92.33870967741935,NA
49337,Newaygo County,MI,NA,61.96236559139785,NA
49445,Muskegon County,MI,NA,62.5,NA
49464,Ottawa County,MI,NA,47.31182795698925,NA
49503,Kent County,MI,NA,54.56989247311827,NA
49519,Kent County,MI,NA,43.81720430107527,NA
49601,Wexford County,MI,NA,43.54838709677419,NA
49783,Chippewa County,MI,NA,48.924731182795696,NA
49855,Marquette County,MI,NA,NA,15.985130111524162
55014,Anoka County,MN,NA,NA,68.77323420074349
55044,Dakota County,MN,NA,46.10215053763441,NA
55063,Pine County,MN,NA,NA,92.19330855018588
55072,Pine County,MN,NA,98.11827956989248,NA
55101,Ramsey County,MN,NA,32.39247311827957,NA
55107,Ramsey County,MN,NA,66.66666666666666,NA
55328,Wright County,MN,NA,86.15591397849462,NA
55347,Hennepin County,MN,NA,NA,63.19702602230484
55350,McLeod County,MN,NA,NA,31.970260223048324
55411,Hennepin County,MN,NA,17.338709677419356,NA
55435,Hennepin County,MN,NA,78.49462365591397,NA
55444,Hennepin County,MN,NA,88.84408602150538,NA
55446,Hennepin County,MN,58.44155844155844,NA,NA
55744,Itasca County,MN,NA,42.204301075268816,NA
55812,St. Louis County,MN,85.71428571428571,NA,NA
55901,Olmsted County,MN,NA,68.95161290322581,NA
55987,Winona County,MN,12.987012987012985,NA,NA
56088,Martin County,MN,NA,NA,100
56156,Rock County,MN,NA,85.48387096774194,NA
56267,Stevens County,MN,NA,88.30645161290323,NA
56345,Morrison County,MN,NA,29.435483870967744,NA
56359,Mille Lacs County,MN,NA,84.81182795698925,NA
56401,Crow Wing County,MN,NA,61.82795698924731,NA
56537,Otter Tail County,MN,NA,17.741935483870968,NA
56601,Beltrami County,MN,NA,7.258064516129033,NA
38654,DeSoto County,MS,NA,22.71505376344086,NA
38834,Alcorn County,MS,NA,NA,25.650557620817843
39059,Copiah County,MS,36.36363636363637,NA,NA
39305,Lauderdale County,MS,NA,50.53763440860215,NA
39474,Jefferson Davis County,MS,NA,91.39784946236558,NA
39540,Harrison County,MS,NA,73.9247311827957,NA
39564,Jackson County,MS,NA,32.123655913978496,NA
63021,St. Louis County,MO,NA,NA,8.921933085501859
63028,Jefferson County,MO,NA,23.655913978494624,NA
63033,St. Louis County,MO,NA,16.263440860215052,NA
63051,Jefferson County,MO,NA,80.64516129032258,NA
63108,St. Louis city,MO,NA,NA,92.93680297397769
63117,St. Louis County,MO,NA,92.06989247311827,NA
63123,St. Louis County,MO,NA,NA,13.011152416356877
63124,St. Louis County,MO,NA,NA,77.32342007434944
63127,St. Louis County,MO,NA,NA,98.88475836431226
63130,St. Louis County,MO,NA,47.983870967741936,NA
63131,St. Louis County,MO,NA,NA,89.59107806691449
63136,St. Louis County,MO,NA,8.60215053763441,NA
63303,St. Charles County,MO,NA,22.446236559139784,NA
63304,St. Charles County,MO,35.4978354978355,NA,13.382899628252787
63366,St. Charles County,MO,NA,12.903225806451612,NA
63376,St. Charles County,MO,NA,10.618279569892474,1.486988847583643
63379,Lincoln County,MO,NA,71.50537634408603,NA
63552,Macon County,MO,NA,73.38709677419355,NA
64015,Jackson County,MO,NA,38.97849462365591,NA
64024,Clay County,MO,NA,17.607526881720432,36.43122676579926
64040,Johnson County,MO,NA,75.40322580645162,NA
64052,Jackson County,MO,NA,11.021505376344086,NA
64056,Jackson County,MO,NA,25.134408602150536,NA
64064,Jackson County,MO,38.52813852813853,NA,NA
64075,Jackson County,MO,NA,NA,66.54275092936803
64081,Jackson County,MO,NA,NA,39.77695167286245
64083,Cass County,MO,NA,62.903225806451616,NA
64086,Jackson County,MO,NA,33.46774193548387,NA
64089,Clay County,MO,NA,48.655913978494624,NA
64108,Jackson County,MO,60.17316017316018,NA,NA
64119,Clay County,MO,NA,11.29032258064516,NA
64129,Jackson County,MO,NA,45.295698924731184,NA
64130,Jackson County,MO,NA,7.795698924731183,NA
64134,Jackson County,MO,NA,13.844086021505376,NA
64152,Platte County,MO,53.67965367965368,NA,NA
64155,Clay County,MO,12.121212121212121,22.177419354838708,NA
64157,Clay County,MO,NA,32.526881720430104,NA
64505,Buchanan County,MO,NA,72.98387096774194,NA
64507,Buchanan County,MO,NA,NA,38.66171003717472
64701,Cass County,MO,NA,67.33870967741935,NA
64742,Cass County,MO,NA,99.46236559139786,NA
64801,Jasper County,MO,NA,13.978494623655912,NA
64836,Jasper County,MO,NA,18.413978494623656,NA
65026,Miller County,MO,NA,82.1236559139785,88.84758364312268
65066,Gasconade County,MO,NA,NA,84.75836431226766
65270,Randolph County,MO,NA,NA,40.89219330855018
65360,Henry County,MO,NA,91.8010752688172,NA
65742,Webster County,MO,90.9090909090909,NA,NA
59047,Park County,MT,NA,87.23118279569893,NA
59101,Yellowstone County,MT,6.493506493506493,NA,NA
59404,Cascade County,MT,NA,68.68279569892472,NA
59601,Lewis and Clark County,MT,NA,NA,84.38661710037175
59715,Gallatin County,MT,NA,NA,69.88847583643123
68008,Washington County,NE,NA,97.04301075268818,NA
68521,Lancaster County,NE,NA,58.46774193548387,NA
68526,Lancaster County,NE,96.96969696969697,NA,NA
68818,Hamilton County,NE,88.31168831168831,NA,NA
69301,Box Butte County,NE,62.77056277056276,NA,NA
89166,Clark County,NV,NA,58.87096774193549,NA
89429,Lyon County,NV,NA,75.13440860215054,NA
03062,Hillsborough County,NH,NA,18.27956989247312,NA
03063,Hillsborough County,NH,NA,NA,42.37918215613383
03104,Hillsborough County,NH,13.852813852813853,14.24731182795699,NA
07008,Middlesex County,NJ,NA,25.806451612903224,NA
07034,Morris County,NJ,NA,69.22043010752688,NA
07043,Essex County,NJ,NA,84.00537634408603,NA
07103,Essex County,NJ,NA,NA,34.572490706319705
07419,Sussex County,NJ,NA,NA,85.13011152416357
07481,Bergen County,NJ,NA,85.21505376344086,NA
07512,Passaic County,NJ,97.83549783549783,NA,NA
07662,Bergen County,NJ,NA,90.86021505376344,NA
07830,Hunterdon County,NJ,NA,92.8763440860215,NA
07843,Sussex County,NJ,NA,63.70967741935484,NA
07901,Union County,NJ,NA,99.32795698924731,NA
08030,Camden County,NJ,NA,98.9247311827957,NA
08046,Burlington County,NJ,NA,26.881720430107524,NA
08080,Gloucester County,NJ,23.376623376623375,NA,NA
08081,Camden County,NJ,NA,NA,87.36059479553904
08204,Cape May County,NJ,NA,NA,86.61710037174721
08210,Cape May County,NJ,NA,NA,44.237918215613384
08270,Cape May County,NJ,NA,85.08064516129032,NA
08520,Mercer County,NJ,NA,NA,96.6542750929368
08844,Somerset County,NJ,NA,NA,81.41263940520446
08857,Middlesex County,NJ,NA,9.13978494623656,NA
87031,Valencia County,NM,NA,27.956989247311824,NA
87114,Bernalillo County,NM,NA,NA,14.12639405204461
87401,San Juan County,NM,NA,16.93548387096774,NA
87501,Santa Fe County,NM,NA,83.60215053763442,NA
87544,Los Alamos County,NM,NA,58.602150537634415,NA
88030,Luna County,NM,NA,NA,45.72490706319702
88101,Curry County,NM,NA,10.21505376344086,NA
88203,Chaves County,NM,NA,19.623655913978492,NA
88220,Eddy County,NM,NA,21.236559139784948,NA
88242,Lea County,NM,NA,91.93548387096774,NA
10025,New York County,NY,NA,6.854838709677419,NA
10027,New York County,NY,NA,NA,11.895910780669144
10033,New York County,NY,NA,NA,54.27509293680297
10044,New York County,NY,NA,88.5752688172043,NA
10472,Bronx County,NY,NA,59.40860215053764,NA
10552,Westchester County,NY,NA,87.36559139784946,NA
11101,Queens County,NY,NA,93.95161290322581,NA
11206,Kings County,NY,NA,2.956989247311828,NA
11208,Kings County,NY,NA,1.2096774193548387,NA
11218,Kings County,NY,NA,16.532258064516128,NA
11224,Kings County,NY,NA,NA,73.60594795539033
11355,Queens County,NY,NA,NA,52.04460966542751
11358,Queens County,NY,NA,79.16666666666666,NA
11373,Queens County,NY,NA,14.516129032258066,NA
11377,Queens County,NY,NA,90.32258064516128,NA
11422,Queens County,NY,NA,NA,60.223048327137555
11570,Nassau County,NY,NA,77.41935483870968,58.7360594795539
11691,Queens County,NY,NA,9.408602150537634,NA
12197,Otsego County,NY,NA,96.37096774193549,NA
12304,Schenectady County,NY,NA,NA,39.405204460966544
12522,Dutchess County,NY,NA,NA,95.91078066914498
12828,Washington County,NY,67.96536796536796,NA,NA
12866,Saratoga County,NY,19.047619047619047,NA,NA
12912,Clinton County,NY,NA,NA,99.62825278810409
12946,Essex County,NY,NA,34.40860215053764,NA
13030,Madison County,NY,NA,72.84946236559139,NA
13032,Madison County,NY,32.900432900432904,60.215053763440864,NA
13039,Onondaga County,NY,NA,NA,63.94052044609665
13045,Cortland County,NY,3.0303030303030303,4.166666666666666,NA
13114,Oswego County,NY,NA,56.18279569892473,NA
13126,Oswego County,NY,18.614718614718615,NA,NA
13146,Wayne County,NY,NA,NA,91.82156133828995
13160,Cayuga County,NY,NA,94.6236559139785,NA
13205,Onondaga County,NY,NA,13.709677419354838,NA
13367,Lewis County,NY,NA,NA,63.56877323420075
13421,Madison County,NY,NA,NA,79.182156133829
13691,Jefferson County,NY,NA,96.90860215053763,NA
13753,Delaware County,NY,NA,60.215053763440864,NA
13760,Broome County,NY,30.735930735930733,1.0752688172043012,0
13790,Broome County,NY,NA,NA,5.947955390334572
13820,Otsego County,NY,NA,NA,5.5762081784386615
13827,Tioga County,NY,NA,NA,69.14498141263941
13850,Broome County,NY,NA,60.215053763440864,NA
13865,Broome County,NY,NA,44.086021505376344,NA
13901,Broome County,NY,NA,20.56451612903226,NA
14012,Niagara County,NY,NA,99.05913978494624,NA
14020,Genesee County,NY,33.76623376623377,NA,NA
14036,Genesee County,NY,NA,81.45161290322581,NA
14051,Erie County,NY,NA,38.306451612903224,NA
14210,Erie County,NY,NA,25.940860215053764,NA
14221,Erie County,NY,NA,36.82795698924731,NA
14305,Niagara County,NY,NA,6.048387096774194,34.20074349442379
14420,Monroe County,NY,NA,NA,21.189591078066915
14424,Ontario County,NY,28.13852813852814,NA,NA
14437,Livingston County,NY,NA,NA,43.866171003717476
14456,Ontario County,NY,NA,64.65053763440861,NA
14482,Genesee County,NY,51.515151515151516,NA,NA
14485,Livingston County,NY,NA,NA,94.79553903345726
14526,Monroe County,NY,29.43722943722944,NA,13.754646840148698
14534,Monroe County,NY,16.017316017316016,7.39247311827957,NA
14609,Monroe County,NY,NA,52.956989247311824,NA
14610,Monroe County,NY,NA,NA,24.907063197026023
14612,Monroe County,NY,3.463203463203463,NA,NA
14613,Monroe County,NY,NA,12.096774193548388,NA
14618,Monroe County,NY,29.87012987012987,NA,NA
14622,Monroe County,NY,NA,NA,18.21561338289963
14623,Monroe County,NY,NA,16.801075268817204,NA
14626,Monroe County,NY,4.761904761904762,NA,NA
14701,Chautauqua County,NY,2.5974025974025974,NA,NA
14715,Allegany County,NY,NA,NA,93.3085501858736
14724,Chautauqua County,NY,NA,93.01075268817203,NA
14760,Cattaraugus County,NY,NA,10.483870967741936,11.524163568773234
14772,Cattaraugus County,NY,NA,84.67741935483872,NA
14810,Steuben County,NY,NA,30.64516129032258,NA
14830,Steuben County,NY,NA,53.494623655913976,NA
14850,Tompkins County,NY,9.523809523809524,53.76344086021505,NA
14870,Steuben County,NY,NA,86.29032258064517,NA
14886,Tompkins County,NY,52.38095238095239,NA,NA
27012,Forsyth County,NC,NA,59.13978494623656,NA
27023,Forsyth County,NC,NA,62.76881720430107,NA
27028,Davie County,NC,NA,NA,6.319702602230483
27030,Surry County,NC,1.7316017316017316,27.688172043010752,NA
27105,Forsyth County,NC,NA,2.82258064516129,NA
27106,Forsyth County,NC,NA,NA,2.6022304832713754
27278,Orange County,NC,45.02164502164502,NA,NA
27320,Rockingham County,NC,NA,11.827956989247312,NA
27534,Wayne County,NC,65.80086580086581,NA,NA
27560,Wake County,NC,47.61904761904761,NA,NA
27569,Johnston County,NC,NA,67.20430107526882,NA
27587,Wake County,NC,NA,86.96236559139786,NA
27616,Wake County,NC,NA,NA,38.28996282527881
27707,Durham County,NC,NA,13.03763440860215,NA
27713,Durham County,NC,NA,NA,17.472118959107807
27850,Halifax County,NC,NA,NA,77.69516728624535
27858,Pitt County,NC,NA,25,NA
28054,Gaston County,NC,NA,19.22043010752688,NA
28079,Union County,NC,NA,70.43010752688173,NA
28105,Mecklenburg County,NC,NA,56.58602150537635,NA
28345,Richmond County,NC,NA,56.451612903225815,NA
28358,Robeson County,NC,NA,70.16129032258065,NA
28364,Robeson County,NC,NA,68.27956989247312,NA
28411,New Hanover County,NC,NA,34.67741935483871,NA
28694,Ashe County,NC,NA,NA,93.68029739776952
28712,Transylvania County,NC,NA,NA,37.174721189591075
58078,Cass County,ND,8.225108225108226,25.403225806451612,NA
58103,Cass County,ND,NA,8.198924731182796,NA
58104,Cass County,ND,NA,NA,10.408921933085502
58503,Burleigh County,ND,NA,31.989247311827956,64.31226765799256
58703,Ward County,ND,NA,39.11290322580645,NA
58854,McKenzie County,ND,97.40259740259741,NA,NA
43004,Franklin County,OH,NA,38.44086021505376,NA
43035,Delaware County,OH,NA,65.05376344086021,NA
43055,Licking County,OH,NA,2.4193548387096775,NA
43062,Licking County,OH,NA,33.736559139784944,NA
43065,Delaware County,OH,NA,42.33870967741936,NA
43082,Delaware County,OH,93.93939393939394,NA,NA
43119,Franklin County,OH,NA,23.118279569892472,NA
43123,Franklin County,OH,0,NA,NA
43125,Franklin County,OH,NA,64.51612903225806,NA
43130,Fairfield County,OH,NA,2.553763440860215,NA
43138,Hocking County,OH,NA,29.03225806451613,NA
43204,Franklin County,OH,NA,6.182795698924731,NA
43211,Franklin County,OH,NA,76.61290322580645,NA
43219,Franklin County,OH,NA,15.32258064516129,NA
43224,Franklin County,OH,NA,6.451612903225806,NA
43311,Logan County,OH,NA,29.301075268817208,NA
43402,Wood County,OH,NA,NA,14.49814126394052
43452,Ottawa County,OH,NA,93.14516129032258,NA
43460,Wood County,OH,NA,71.37096774193549,NA
43551,Wood County,OH,NA,14.112903225806454,NA
43604,Lucas County,OH,NA,38.844086021505376,NA
43605,Lucas County,OH,NA,NA,21.561338289962826
43607,Lucas County,OH,NA,7.123655913978495,NA
43612,Lucas County,OH,NA,4.56989247311828,NA
43623,Lucas County,OH,NA,NA,25.27881040892193
43724,Noble County,OH,85.28138528138528,NA,NA
43812,Coshocton County,OH,49.35064935064935,NA,NA
43935,Belmont County,OH,NA,43.68279569892473,NA
43952,Jefferson County,OH,39.82683982683983,NA,NA
44001,Lorain County,OH,NA,58.333333333333336,NA
44004,Ashtabula County,OH,NA,41.12903225806452,NA
44012,Lorain County,OH,NA,33.064516129032256,NA
44026,Geauga County,OH,44.15584415584416,NA,NA
44035,Lorain County,OH,NA,3.494623655913978,NA
44039,Lorain County,OH,NA,9.005376344086022,NA
44052,Lorain County,OH,NA,43.27956989247312,1.858736059479554
44053,Lorain County,OH,NA,65.7258064516129,4.4609665427509295
44095,Lake County,OH,NA,20.026881720430108,NA
44102,Cuyahoga County,OH,NA,NA,2.2304832713754648
44108,Cuyahoga County,OH,NA,3.6290322580645165,NA
44109,Cuyahoga County,OH,NA,0.5376344086021506,68.40148698884758
44111,Cuyahoga County,OH,NA,2.0161290322580645,NA
44113,Cuyahoga County,OH,NA,46.774193548387096,NA
44116,Cuyahoga County,OH,NA,NA,28.99628252788104
44128,Cuyahoga County,OH,NA,3.3602150537634405,NA
44130,Cuyahoga County,OH,NA,4.838709677419355,NA
44136,Cuyahoga County,OH,NA,78.36021505376344,NA
44138,Cuyahoga County,OH,NA,31.317204301075268,NA
44221,Summit County,OH,NA,NA,51.6728624535316
44223,Summit County,OH,NA,42.60752688172043,NA
44236,Summit County,OH,37.22943722943723,NA,NA
44256,Medina County,OH,0.4329004329004329,NA,NA
44260,Portage County,OH,NA,NA,58.36431226765799
44306,Summit County,OH,NA,52.016129032258064,NA
44312,Summit County,OH,NA,40.32258064516129,NA
44313,Summit County,OH,NA,28.360215053763444,NA
44314,Summit County,OH,NA,26.344086021505376,NA
44319,Summit County,OH,NA,NA,81.78438661710037
44460,Columbiana County,OH,NA,20.698924731182796,NA
44484,Trumbull County,OH,16.450216450216452,NA,NA
44622,Tuscarawas County,OH,NA,60.88709677419355,NA
44667,Wayne County,OH,NA,59.543010752688176,NA
44672,Mahoning County,OH,NA,81.04838709677419,NA
44714,Stark County,OH,NA,NA,71.74721189591078
44720,Stark County,OH,NA,NA,18.95910780669145
44870,Erie County,OH,NA,28.897849462365592,NA
44875,Richland County,OH,NA,95.6989247311828,NA
44904,Richland County,OH,64.5021645021645,NA,NA
45011,Butler County,OH,NA,15.86021505376344,NA
45014,Butler County,OH,NA,14.919354838709678,NA
45039,Warren County,OH,NA,NA,84.01486988847584
45040,Warren County,OH,6.926406926406926,NA,NA
45044,Butler County,OH,NA,5.779569892473118,NA
45067,Butler County,OH,30.303030303030305,NA,NA
45226,Hamilton County,OH,NA,98.79032258064517,NA
45229,Hamilton County,OH,NA,NA,32.342007434944236
45231,Hamilton County,OH,5.194805194805195,NA,NA
45236,Hamilton County,OH,NA,48.38709677419355,NA
45240,Hamilton County,OH,NA,NA,45.353159851301115
45244,Hamilton County,OH,NA,82.79569892473118,NA
45248,Hamilton County,OH,NA,84.40860215053763,NA
45342,Montgomery County,OH,NA,11.693548387096774,NA
45365,Shelby County,OH,NA,12.5,NA
45371,Miami County,OH,26.406926406926406,NA,73.23420074349443
45373,Miami County,OH,NA,7.93010752688172,NA
45424,Montgomery County,OH,2.1645021645021645,NA,NA
45430,Greene County,OH,NA,96.10215053763442,NA
45432,Greene County,OH,NA,NA,57.249070631970255
45502,Clark County,OH,50.649350649350644,NA,NA
45601,Ross County,OH,NA,6.586021505376344,NA
45640,Jackson County,OH,NA,8.064516129032258,NA
45648,Scioto County,OH,51.94805194805194,NA,NA
45662,Scioto County,OH,NA,16.666666666666664,NA
45692,Jackson County,OH,NA,34.00537634408602,NA
73012,Oklahoma County,OK,NA,44.086021505376344,NA
73020,Oklahoma County,OK,NA,38.03763440860215,NA
73034,Oklahoma County,OK,NA,57.93010752688173,NA
73047,,OK,NA,98.65591397849462,NA
73072,Cleveland County,OK,NA,70.56451612903226,NA
73112,Oklahoma County,OK,NA,62.23118279569893,NA
73119,Oklahoma County,OK,NA,93.81720430107528,NA
73134,Oklahoma County,OK,NA,89.65053763440861,NA
73179,Oklahoma County,OK,92.20779220779221,NA,NA
73401,Carter County,OK,19.480519480519483,NA,NA
73439,Marshall County,OK,76.19047619047619,NA,NA
73501,Comanche County,OK,NA,53.09139784946236,NA
73801,Woodward County,OK,NA,59.005376344086024,NA
74006,Washington County,OK,NA,51.344086021505376,NA
74012,Tulsa County,OK,NA,24.059139784946236,NA
74014,Wagoner County,OK,NA,34.543010752688176,NA
74019,Rogers County,OK,NA,42.473118279569896,NA
74070,Osage County,OK,NA,73.52150537634408,NA
74075,Payne County,OK,77.05627705627705,NA,NA
74134,Tulsa County,OK,NA,64.91935483870968,NA
74136,Tulsa County,OK,NA,NA,44.60966542750929
74467,Wagoner County,OK,NA,89.51612903225806,NA
74820,Pontotoc County,OK,NA,NA,4.089219330855019
74857,Cleveland County,OK,NA,NA,94.42379182156134
97023,Clackamas County,OR,NA,NA,85.87360594795538
97038,Clackamas County,OR,NA,81.85483870967742,NA
97060,Multnomah County,OR,NA,66.66666666666666,NA
97086,Clackamas County,OR,NA,90.45698924731182,NA
97124,Washington County,OR,43.290043290043286,NA,NA
97202,Multnomah County,OR,77.92207792207793,27.284946236559136,NA
97211,Multnomah County,OR,NA,67.60752688172043,NA
97218,Multnomah County,OR,73.59307359307358,NA,NA
97223,Washington County,OR,NA,70.96774193548387,NA
97229,Washington County,OR,24.242424242424242,NA,NA
97239,Multnomah County,OR,NA,NA,72.11895910780669
97338,Polk County,OR,NA,69.48924731182797,NA
97405,Lane County,OR,NA,65.45698924731182,NA
97415,Curry County,OR,NA,69.6236559139785,NA
97446,Linn County,OR,98.26839826839827,NA,NA
97462,Douglas County,OR,93.07359307359307,NA,NA
97467,Douglas County,OR,NA,91.53225806451613,NA
97603,Klamath County,OR,NA,19.758064516129032,NA
97754,Crook County,OR,NA,43.01075268817204,NA
97801,Umatilla County,OR,89.6103896103896,NA,NA
97882,Umatilla County,OR,NA,88.44086021505376,NA
97913,Malheur County,OR,59.307359307359306,NA,NA
15122,Allegheny County,PA,50.21645021645021,NA,NA
15238,Allegheny County,PA,NA,80.77956989247312,NA
15501,Somerset County,PA,NA,51.747311827956985,NA
15537,Bedford County,PA,NA,74.32795698924731,NA
15650,Westmoreland County,PA,18.181818181818183,NA,NA
15701,Indiana County,PA,NA,20.967741935483872,NA
15767,Jefferson County,PA,NA,93.27956989247312,NA
15824,Jefferson County,PA,NA,98.38709677419355,NA
15825,Jefferson County,PA,NA,68.41397849462365,NA
16001,Butler County,PA,NA,3.8978494623655915,NA
16117,Lawrence County,PA,NA,47.58064516129033,NA
16125,Mercer County,PA,NA,34.946236559139784,NA
16214,Clarion County,PA,NA,NA,68.02973977695167
16365,Warren County,PA,NA,NA,30.855018587360593
16508,Erie County,PA,NA,47.446236559139784,NA
16511,Erie County,PA,NA,73.79032258064517,NA
16602,Blair County,PA,NA,58.73655913978495,NA
16833,Clearfield County,PA,89.17748917748918,NA,NA
17078,Lebanon County,PA,NA,17.06989247311828,NA
17112,Dauphin County,PA,NA,44.623655913978496,NA
17201,Franklin County,PA,NA,11.155913978494624,NA
17257,Cumberland County,PA,57.14285714285714,22.849462365591396,NA
17268,Franklin County,PA,NA,NA,21.933085501858738
17316,Adams County,PA,75.32467532467533,NA,NA
17325,Adams County,PA,NA,23.25268817204301,NA
17401,York County,PA,NA,80.10752688172043,NA
17403,York County,PA,NA,3.763440860215054,NA
17406,York County,PA,NA,34.274193548387096,NA
17552,Lancaster County,PA,NA,36.424731182795696,NA
17740,Lycoming County,PA,NA,46.63978494623656,NA
17922,Schuylkill County,PA,NA,NA,99.25650557620817
17963,Schuylkill County,PA,NA,88.03763440860214,NA
18018,Lehigh County,PA,NA,52.553763440860216,NA
18036,Lehigh County,PA,NA,81.98924731182797,NA
18038,Northampton County,PA,NA,95.96774193548387,NA
18045,Northampton County,PA,NA,35.3494623655914,NA
18055,Northampton County,PA,57.57575757575758,NA,NA
18069,Lehigh County,PA,NA,90.7258064516129,NA
18072,Northampton County,PA,NA,97.44623655913979,NA
75036,NA,NA,NA,88.70967741935483,NA
18202,Luzerne County,PA,64.06926406926407,NA,NA
18224,Luzerne County,PA,NA,68.81720430107528,NA
18302,Monroe County,PA,NA,48.11827956989247,NA
18901,Bucks County,PA,NA,69.35483870967742,NA
19007,Bucks County,PA,NA,24.462365591397848,NA
19023,Delaware County,PA,NA,NA,80.29739776951673
19029,Delaware County,PA,NA,95.43010752688173,NA
19050,Delaware County,PA,NA,58.1989247311828,NA
19063,Delaware County,PA,20.346320346320347,NA,NA
19083,Delaware County,PA,NA,83.46774193548387,NA
19096,Montgomery County,PA,NA,99.59677419354838,NA
19103,Philadelphia County,PA,NA,69.08602150537635,NA
19104,Philadelphia County,PA,NA,NA,17.100371747211895
19115,Philadelphia County,PA,NA,72.17741935483872,NA
19124,Philadelphia County,PA,NA,1.747311827956989,NA
19125,Philadelphia County,PA,NA,44.48924731182796,NA
19130,Philadelphia County,PA,NA,88.97849462365592,NA
19132,Philadelphia County,PA,NA,6.720430107526881,NA
19133,Philadelphia County,PA,NA,15.591397849462366,NA
19143,Philadelphia County,PA,NA,1.3440860215053763,NA
19144,Philadelphia County,PA,NA,38.70967741935484,NA
19145,Philadelphia County,PA,9.090909090909092,NA,NA
19146,Philadelphia County,PA,NA,42.74193548387097,NA
19147,Philadelphia County,PA,NA,45.69892473118279,NA
19149,Philadelphia County,PA,NA,8.333333333333332,NA
19152,Philadelphia County,PA,NA,85.75268817204301,NA
19335,Chester County,PA,NA,44.75806451612903,NA
19355,Chester County,PA,NA,NA,42.00743494423792
19390,Chester County,PA,NA,NA,60.594795539033456
19403,Montgomery County,PA,NA,NA,33.08550185873606
19425,Chester County,PA,71.42857142857143,NA,NA
19426,Montgomery County,PA,80.95238095238095,NA,NA
19446,Montgomery County,PA,NA,15.053763440860216,NA
19504,Berks County,PA,NA,90.05376344086021,NA
19518,Berks County,PA,NA,NA,53.159851301115246
19522,Berks County,PA,NA,NA,80.66914498141264
19530,Berks County,PA,NA,66.93548387096774,NA
02816,Kent County,RI,NA,27.1505376344086,NA
02837,Newport County,RI,84.4155844155844,NA,NA
02906,Providence County,RI,NA,NA,42.75092936802974
29033,Lexington County,SC,NA,79.03225806451613,NA
29063,Richland County,SC,NA,NA,78.06691449814126
29072,Lexington County,SC,46.75324675324675,NA,NA
29123,Lexington County,SC,NA,NA,97.02602230483272
29170,Lexington County,SC,90.47619047619048,NA,NA
29229,Richland County,SC,37.66233766233766,NA,NA
29302,Spartanburg County,SC,NA,70.83333333333334,NA
29323,Spartanburg County,SC,NA,84.54301075268818,NA
29379,Union County,SC,59.74025974025974,NA,NA
29410,Berkeley County,SC,NA,68.54838709677419,NA
29466,Charleston County,SC,NA,NA,50.18587360594795
29506,Florence County,SC,NA,NA,54.646840148698885
29527,Horry County,SC,22.943722943722943,NA,NA
29609,Greenville County,SC,45.02164502164502,NA,NA
29617,Greenville County,SC,NA,NA,35.687732342007436
29650,Greenville County,SC,NA,NA,74.72118959107806
29676,Oconee County,SC,NA,NA,73.97769516728626
29680,Greenville County,SC,41.99134199134199,NA,31.59851301115242
29697,Anderson County,SC,NA,89.24731182795699,NA
29730,York County,SC,NA,NA,35.31598513011153
29812,Barnwell County,SC,NA,77.28494623655914,NA
57005,Minnehaha County,SD,52.38095238095239,75,NA
57106,Minnehaha County,SD,NA,NA,5.204460966542751
57703,Pennington County,SD,NA,62.365591397849464,NA
57717,Butte County,SD,NA,85.34946236559139,NA
37037,Rutherford County,TN,NA,90.86021505376344,NA
37042,Montgomery County,TN,NA,22.983870967741936,NA
37115,Davidson County,TN,NA,12.231182795698924,NA
37148,Sumner County,TN,NA,37.365591397849464,NA
37204,Davidson County,TN,NA,NA,82.15613382899627
37207,Davidson County,TN,NA,12.768817204301076,NA
37363,Hamilton County,TN,32.467532467532465,NA,NA
37367,Bledsoe County,TN,NA,NA,91.44981412639405
37604,Washington County,TN,NA,NA,20.074349442379184
37616,Greene County,TN,95.23809523809523,NA,NA
37620,Sullivan County,TN,NA,57.52688172043011,NA
37716,Anderson County,TN,13.41991341991342,NA,29.36802973977695
37737,Blount County,TN,91.77489177489177,NA,NA
37803,Blount County,TN,54.112554112554115,NA,NA
37821,Cocke County,TN,NA,41.39784946236559,NA
37865,Sevier County,TN,NA,NA,43.12267657992565
37912,Knox County,TN,NA,NA,55.762081784386616
38024,Dyer County,TN,7.792207792207792,NA,NA
38106,Shelby County,TN,NA,NA,40.14869888475837
38115,Shelby County,TN,NA,52.68817204301075,NA
38134,Shelby County,TN,27.27272727272727,NA,NA
38305,Madison County,TN,NA,NA,9.66542750929368
38462,Lewis County,TN,62.33766233766234,NA,NA
38464,Lawrence County,TN,NA,NA,31.226765799256505
38501,Putnam County,TN,NA,18.951612903225808,NA
75002,Collin County,TX,7.35930735930736,NA,NA
75024,Collin County,TX,36.36363636363637,NA,NA
75044,Dallas County,TX,NA,50.26881720430107,NA
75071,Collin County,TX,NA,27.82258064516129,NA
75074,Collin County,TX,15.584415584415584,NA,NA
75089,Dallas County,TX,48.484848484848484,NA,NA
75119,Ellis County,TX,NA,49.73118279569893,NA
75201,Dallas County,TX,NA,92.06989247311827,NA
75205,Dallas County,TX,NA,60.08064516129033,NA
75460,Lamar County,TX,NA,54.166666666666664,NA
75559,Bowie County,TX,NA,NA,85.87360594795538
75709,Smith County,TX,NA,95.29569892473118,NA
75752,Henderson County,TX,NA,97.17741935483872,NA
76011,Tarrant County,TX,NA,50.53763440860215,NA
76016,Tarrant County,TX,NA,NA,22.304832713754646
76017,Tarrant County,TX,NA,30.107526881720432,NA
76021,Tarrant County,TX,NA,33.064516129032256,NA
76028,Johnson County,TX,NA,NA,3.3457249070631967
76048,Hood County,TX,NA,67.47311827956989,NA
76049,Hood County,TX,82.25108225108225,NA,NA
76164,Tarrant County,TX,NA,63.575268817204304,NA
76209,Denton County,TX,NA,87.76881720430107,NA
76226,Denton County,TX,NA,61.693548387096776,NA
76227,Denton County,TX,NA,NA,75.46468401486989
76234,Wise County,TX,NA,63.306451612903224,NA
76244,Tarrant County,TX,NA,24.865591397849464,NA
76262,Denton County,TX,NA,41.80107526881721,NA
76273,Grayson County,TX,NA,92.74193548387096,NA
76384,Wilbarger County,TX,65.36796536796537,NA,NA
76501,Bell County,TX,NA,NA,4.83271375464684
76543,Bell County,TX,NA,NA,19.33085501858736
77008,Harris County,TX,NA,58.06451612903226,NA
77015,Harris County,TX,NA,NA,75.8364312267658
77024,Harris County,TX,33.33333333333333,NA,72.86245353159852
77047,Harris County,TX,NA,52.284946236559136,NA
77056,Harris County,TX,NA,NA,56.877323420074354
77058,Harris County,TX,83.54978354978356,NA,NA
77061,Harris County,TX,NA,65.7258064516129,NA
77077,Harris County,TX,NA,40.59139784946236,NA
77079,Harris County,TX,NA,67.8763440860215,NA
77095,Harris County,TX,82.68398268398268,NA,NA
77346,Harris County,TX,17.316017316017316,NA,NA
77375,Harris County,TX,NA,51.075268817204304,NA
77379,Harris County,TX,9.956709956709958,NA,NA
77381,Montgomery County,TX,NA,61.29032258064516,NA
77385,Montgomery County,TX,NA,57.123655913978496,NA
77401,Harris County,TX,63.63636363636363,NA,NA
77449,Harris County,TX,NA,11.424731182795698,NA
77450,Harris County,TX,NA,35.61827956989247,NA
77459,Fort Bend County,TX,NA,66.26344086021506,NA
77479,Fort Bend County,TX,NA,NA,53.53159851301115
77484,Waller County,TX,67.09956709956711,NA,NA
77494,Fort Bend County,TX,4.329004329004329,44.354838709677416,NA
77511,Brazoria County,TX,6.0606060606060606,41.935483870967744,NA
77536,Harris County,TX,NA,36.29032258064516,NA
77545,Fort Bend County,TX,28.57142857142857,NA,NA
77546,Galveston County,TX,42.857142857142854,55.77956989247311,83.27137546468401
77566,Brazoria County,TX,NA,47.17741935483871,NA
77573,Galveston County,TX,NA,NA,3.717472118959108
77630,Orange County,TX,17.316017316017316,NA,NA
77665,Chambers County,TX,NA,81.58602150537635,NA
77904,Victoria County,TX,77.05627705627705,NA,NA
78132,Comal County,TX,45.887445887445885,NA,NA
78202,Bexar County,TX,NA,NA,89.21933085501858
78336,San Patricio County,TX,NA,86.82795698924731,NA
78410,Nueces County,TX,55.41125541125541,NA,NA
78539,Hidalgo County,TX,NA,55.91397849462365,NA
78574,Hidalgo County,TX,10.822510822510822,NA,NA
78613,Williamson County,TX,NA,NA,16.728624535315987
78626,Williamson County,TX,NA,54.3010752688172,NA
78666,Hays County,TX,NA,27.016129032258064,NA
79416,Lubbock County,TX,NA,49.46236559139785,NA
79556,Nolan County,TX,NA,75.67204301075269,NA
79720,Howard County,TX,NA,NA,52.78810408921933
79772,Reeves County,TX,NA,71.7741935483871,NA
84036,Summit County,UT,79.65367965367966,94.22043010752688,NA
84074,Tooele County,UT,NA,4.435483870967742,NA
84081,Salt Lake County,UT,NA,79.83870967741935,NA
84092,Salt Lake County,UT,NA,61.02150537634409,NA
84094,Salt Lake County,UT,NA,NA,48.3271375464684
84123,Salt Lake County,UT,22.51082251082251,NA,NA
84321,Cache County,UT,NA,61.55913978494624,NA
84624,Millard County,UT,NA,96.23655913978494,NA
84721,Iron County,UT,NA,NA,65.79925650557621
84770,Washington County,UT,NA,NA,28.624535315985128
05156,Windsor County,VT,NA,59.67741935483871,NA
05408,Chittenden County,VT,NA,76.34408602150538,NA
05450,Franklin County,VT,NA,77.68817204301075,NA
05477,Chittenden County,VT,95.67099567099568,NA,NA
20120,Fairfax County,VA,47.18614718614719,NA,NA
22015,Fairfax County,VA,NA,48.11827956989247,46.84014869888476
22124,Fairfax County,VA,NA,80.3763440860215,NA
22150,Fairfax County,VA,NA,NA,67.65799256505576
22153,Fairfax County,VA,64.93506493506493,NA,NA
22201,Arlington County,VA,NA,77.55376344086021,NA
22202,Arlington County,VA,NA,94.75806451612904,NA
22312,Fairfax County,VA,NA,40.59139784946236,NA
22408,Spotsylvania County,VA,34.1991341991342,NA,NA
22551,Spotsylvania County,VA,31.601731601731604,NA,NA
22802,Harrisonburg city,VA,NA,67.06989247311827,NA
22947,Albemarle County,VA,NA,97.84946236559139,NA
22980,Waynesboro city,VA,NA,32.66129032258064,NA
23060,Henrico County,VA,NA,NA,53.90334572490706
23116,Hanover County,VA,45.887445887445885,NA,NA
23185,James City County,VA,27.705627705627705,NA,NA
23238,Henrico County,VA,NA,NA,62.45353159851301
23321,Chesapeake city,VA,11.688311688311687,NA,NA
23704,Portsmouth city,VA,NA,NA,51.301115241635685
23834,Colonial Heights city,VA,NA,80.91397849462365,NA
23838,Chesterfield County,VA,80.08658008658008,NA,NA
23875,Prince George County,VA,NA,75.80645161290323,NA
24012,Roanoke city,VA,25.108225108225106,NA,NA
24151,Franklin County,VA,NA,41.66666666666667,NA
24293,Wise County,VA,NA,45.564516129032256,NA
24504,Lynchburg city,VA,NA,NA,71.37546468401487
24563,Pittsylvania County,VA,NA,NA,90.70631970260223
24592,Halifax County,VA,NA,28.49462365591398,NA
98006,King County,WA,NA,53.897849462365585,NA
98032,King County,WA,NA,39.516129032258064,NA
98053,King County,WA,NA,NA,88.10408921933085
98112,King County,WA,NA,NA,65.05576208178438
98208,Snohomish County,WA,76.62337662337663,NA,NA
98221,Skagit County,WA,NA,NA,56.50557620817844
98225,Whatcom County,WA,NA,NA,43.12267657992565
98229,Whatcom County,WA,NA,73.11827956989248,NA
98250,San Juan County,WA,NA,96.7741935483871,NA
98277,Island County,WA,NA,NA,24.1635687732342
98335,Pierce County,WA,NA,77.95698924731182,NA
98359,Kitsap County,WA,NA,95.56451612903226,NA
98363,Clallam County,WA,NA,NA,72.4907063197026
98382,Clallam County,WA,NA,74.05913978494624,NA
98391,Pierce County,WA,NA,14.78494623655914,NA
98541,Grays Harbor County,WA,NA,71.10215053763442,NA
98584,Mason County,WA,NA,NA,18.587360594795538
98632,Cowlitz County,WA,NA,18.817204301075268,NA
98944,Yakima County,WA,48.917748917748916,NA,NA
99352,Benton County,WA,NA,NA,23.79182156133829
20007,District of Columbia,DC,NA,NA,64.68401486988847
20024,District of Columbia,DC,NA,76.88172043010752,NA
20032,District of Columbia,DC,NA,5.64516129032258,NA
25312,Kanawha County,WV,NA,61.155913978494624,NA
26003,Ohio County,WV,NA,5.913978494623656,NA
26041,Marshall County,WV,41.125541125541126,NA,NA
26070,Brooke County,WV,NA,89.91935483870968,NA
26508,Monongalia County,WV,NA,5.241935483870968,NA
53029,Waukesha County,WI,74.89177489177489,NA,NA
53051,Waukesha County,WI,NA,40.053763440860216,NA
53095,Washington County,WI,74.45887445887446,NA,NA
53103,Waukesha County,WI,NA,93.41397849462365,NA
53105,Racine County,WI,NA,15.591397849462366,NA
53122,Waukesha County,WI,NA,78.76344086021506,NA
53126,Racine County,WI,81.38528138528139,NA,NA
53142,Kenosha County,WI,5.627705627705628,10.349462365591398,NA
53151,Waukesha County,WI,25.97402597402597,NA,NA
53158,Kenosha County,WI,NA,20.833333333333336,NA
53190,Walworth County,WI,NA,91.66666666666666,NA
53204,Milwaukee County,WI,NA,7.661290322580645,NA
53205,Milwaukee County,WI,NA,69.75806451612904,NA
53209,Milwaukee County,WI,NA,NA,1.1152416356877324
53217,Milwaukee County,WI,NA,33.736559139784944,NA
53220,Milwaukee County,WI,NA,29.838709677419356,NA
53222,Milwaukee County,WI,NA,53.36021505376344,NA
53224,Milwaukee County,WI,NA,NA,78.81040892193309
53511,Rock County,WI,NA,17.876344086021508,NA
53538,Jefferson County,WI,NA,NA,36.80297397769517
53558,Dane County,WI,NA,NA,91.07806691449815
53562,Dane County,WI,NA,NA,26.765799256505574
53590,Dane County,WI,NA,35.88709677419355,NA
53711,Dane County,WI,NA,60.61827956989247,NA
53714,Dane County,WI,NA,82.25806451612904,NA
53916,Dodge County,WI,NA,NA,44.60966542750929
53959,Sauk County,WI,NA,39.38172043010753,NA
54017,St. Croix County,WI,NA,46.90860215053764,NA
54114,Marinette County,WI,98.7012987012987,NA,NA
54302,Brown County,WI,NA,26.209677419354836,NA
54403,Marathon County,WI,NA,NA,30.483271375464682
54455,Marathon County,WI,NA,63.844086021505376,NA
54656,Monroe County,WI,NA,NA,39.03345724907063
54660,Monroe County,WI,NA,NA,47.95539033457249
54728,Barron County,WI,NA,86.4247311827957,NA
54914,Outagamie County,WI,NA,65.99462365591397,NA
82070,Albany County,WY,NA,77.82258064516128,NA
82604,Natrona County,WY,NA,NA,76.2081784386617
82716,Campbell County,WY,NA,62.634408602150536,NA
