ZipCode,county,state,Youth,Adult,Retirement
35023,Jefferson County,AL,46.88644688644688,29.540229885057474,NA
35044,Talladega County,AL,NA,NA,78.72340425531915
35117,Jefferson County,AL,NA,86.55172413793103,NA
35613,Limestone County,AL,NA,41.60919540229885,NA
35640,Morgan County,AL,NA,NA,39.71631205673759
35645,Lauderdale County,AL,NA,69.3103448275862,NA
35757,Madison County,AL,NA,69.77011494252874,NA
35954,Etowah County,AL,NA,58.9655172413793,NA
35956,Etowah County,AL,NA,NA,92.19858156028369
35962,DeKalb County,AL,48.717948717948715,NA,NA
36010,Pike County,AL,58.97435897435898,NA,NA
36022,Elmore County,AL,NA,69.54022988505747,NA
36027,Barbour County,AL,NA,39.42528735632184,NA
36110,Montgomery County,AL,NA,54.137931034482754,NA
36272,Calhoun County,AL,NA,NA,75.88652482269504
36301,Houston County,AL,NA,NA,17.73049645390071
36303,Houston County,AL,NA,NA,41.48936170212766
36532,Baldwin County,AL,NA,88.16091954022988,NA
36535,Baldwin County,AL,NA,43.103448275862064,NA
36609,Mobile County,AL,66.30036630036629,NA,NA
36703,Dallas County,AL,NA,NA,58.156028368794324
36854,Chambers County,AL,NA,61.60919540229885,NA
99669,Kenai Peninsula Borough,AK,NA,69.88505747126436,NA
99701,Fairbanks North Star Borough,AK,NA,35.172413793103445,NA
85017,Maricopa County,AZ,9.89010989010989,NA,NA
85018,Maricopa County,AZ,NA,34.13793103448276,NA
85037,Maricopa County,AZ,NA,NA,63.829787234042556
85048,Maricopa County,AZ,NA,50.57471264367817,NA
85083,Maricopa County,AZ,NA,76.66666666666667,NA
85085,Maricopa County,AZ,NA,65.05747126436782,NA
85122,Pinal County,AZ,NA,64.13793103448275,NA
85131,Pinal County,AZ,NA,NA,76.24113475177306
85142,Maricopa County,AZ,23.076923076923077,NA,NA
85202,Maricopa County,AZ,NA,21.26436781609195,NA
85204,Maricopa County,AZ,NA,43.79310344827586,NA
85209,Maricopa County,AZ,NA,61.954022988505756,NA
85250,Maricopa County,AZ,NA,83.5632183908046,NA
85251,Maricopa County,AZ,NA,NA,51.77304964539007
85255,Maricopa County,AZ,NA,51.26436781609195,NA
85259,Maricopa County,AZ,87.17948717948718,NA,NA
85331,Maricopa County,AZ,NA,54.252873563218394,NA
85353,Maricopa County,AZ,NA,76.4367816091954,NA
85364,Yuma County,AZ,NA,4.597701149425287,NA
85635,Cochise County,AZ,NA,24.942528735632184,NA
85641,Pima County,AZ,NA,58.39080459770115,NA
85718,Pima County,AZ,56.776556776556774,NA,NA
86004,Coconino County,AZ,NA,8.505747126436782,NA
86040,Coconino County,AZ,NA,NA,98.22695035460993
86403,Mohave County,AZ,NA,45.40229885057471,NA
86409,Mohave County,AZ,72.52747252747253,NA,NA
86442,Mohave County,AZ,NA,NA,11.702127659574469
71639,Desha County,AR,NA,91.26436781609195,NA
71701,Ouachita County,AR,NA,72.64367816091955,NA
71909,Garland County,AR,NA,NA,38.297872340425535
72023,Lonoke County,AR,NA,NA,33.33333333333333
72034,Faulkner County,AR,NA,90.45977011494253,NA
72601,Boone County,AR,NA,77.93103448275862,NA
72703,Washington County,AR,45.42124542124542,NA,NA
72904,Sebastian County,AR,NA,59.6551724137931,NA
72936,Sebastian County,AR,NA,72.29885057471265,NA
90016,Los Angeles County,CA,NA,71.37931034482759,NA
90034,Los Angeles County,CA,NA,43.9080459770115,NA
90049,Los Angeles County,CA,NA,NA,47.16312056737589
90061,Los Angeles County,CA,NA,68.62068965517241,NA
90220,Los Angeles County,CA,NA,32.068965517241374,NA
90250,Los Angeles County,CA,NA,NA,28.723404255319153
90278,Los Angeles County,CA,NA,60.3448275862069,NA
90631,Orange County,CA,NA,35.287356321839084,NA
90650,Los Angeles County,CA,12.087912087912088,NA,NA
90660,Los Angeles County,CA,NA,28.045977011494255,NA
91006,Los Angeles County,CA,NA,NA,82.62411347517731
91202,Los Angeles County,CA,NA,84.02298850574714,NA
91205,Los Angeles County,CA,NA,67.70114942528735,NA
91301,Los Angeles County,CA,NA,99.88505747126437,NA
91316,Los Angeles County,CA,NA,68.04597701149426,NA
91331,Los Angeles County,CA,NA,12.988505747126435,NA
91354,Los Angeles County,CA,NA,NA,81.91489361702128
91367,Los Angeles County,CA,NA,NA,48.93617021276596
91602,Los Angeles County,CA,NA,77.1264367816092,NA
91722,Los Angeles County,CA,NA,NA,56.02836879432624
91744,Los Angeles County,CA,NA,NA,30.49645390070922
91762,San Bernardino County,CA,NA,34.48275862068966,NA
91764,San Bernardino County,CA,NA,67.01149425287356,NA
91786,San Bernardino County,CA,NA,63.793103448275865,NA
91977,San Diego County,CA,NA,35.287356321839084,NA
92057,San Diego County,CA,NA,87.47126436781609,NA
92058,San Diego County,CA,NA,NA,87.58865248226951
92081,San Diego County,CA,88.64468864468864,NA,NA
92113,San Diego County,CA,NA,24.71264367816092,NA
92203,Riverside County,CA,79.85347985347985,81.49425287356323,NA
92211,Riverside County,CA,29.67032967032967,66.7816091954023,NA
92234,Riverside County,CA,NA,71.95402298850576,NA
92260,Riverside County,CA,92.67399267399267,NA,NA
92262,Riverside County,CA,NA,53.44827586206896,NA
92264,Riverside County,CA,NA,47.12643678160919,NA
92311,San Bernardino County,CA,20.146520146520146,NA,NA
92410,San Bernardino County,CA,NA,32.64367816091954,NA
92555,Riverside County,CA,NA,NA,67.37588652482269
92557,Riverside County,CA,NA,NA,48.226950354609926
92592,Riverside County,CA,NA,27.93103448275862,NA
92610,Orange County,CA,NA,NA,93.97163120567376
92656,Orange County,CA,NA,NA,47.87234042553192
92673,Orange County,CA,NA,64.9425287356322,NA
92692,Orange County,CA,NA,39.88505747126437,NA
92701,Orange County,CA,NA,73.33333333333333,NA
92832,Orange County,CA,NA,55.632183908045974,NA
92843,Orange County,CA,NA,NA,51.41843971631206
92883,Riverside County,CA,NA,NA,64.8936170212766
93003,Ventura County,CA,NA,NA,21.98581560283688
93004,Ventura County,CA,NA,54.94252873563218,NA
93274,Tulare County,CA,NA,45.51724137931035,NA
93311,Kern County,CA,NA,61.37931034482759,NA
93402,San Luis Obispo County,CA,57.87545787545788,NA,NA
93458,Santa Barbara County,CA,NA,NA,35.815602836879435
93722,Fresno County,CA,2.564102564102564,NA,NA
93730,Fresno County,CA,71.42857142857143,NA,NA
93940,Monterey County,CA,NA,NA,65.60283687943263
94010,San Mateo County,CA,NA,51.724137931034484,NA
94025,San Mateo County,CA,39.56043956043956,49.195402298850574,NA
94102,San Francisco County,CA,19.413919413919416,NA,NA
94110,San Francisco County,CA,NA,NA,74.11347517730496
94112,San Francisco County,CA,NA,57.01149425287356,NA
94114,San Francisco County,CA,NA,47.701149425287355,NA
94117,San Francisco County,CA,NA,78.96551724137932,NA
94118,San Francisco County,CA,NA,55.40229885057472,NA
94123,San Francisco County,CA,NA,62.758620689655174,NA
94507,Contra Costa County,CA,76.92307692307693,NA,NA
94533,Solano County,CA,NA,23.448275862068964,NA
94536,Alameda County,CA,NA,31.379310344827587,NA
94541,Alameda County,CA,NA,NA,20.56737588652482
94549,Contra Costa County,CA,NA,78.50574712643679,NA
94550,Alameda County,CA,25.274725274725274,NA,NA
94551,Alameda County,CA,46.52014652014652,NA,NA
94803,Contra Costa County,CA,69.23076923076923,NA,NA
94952,Sonoma County,CA,NA,73.9080459770115,NA
94965,Marin County,CA,NA,90.91954022988506,NA
95014,Santa Clara County,CA,NA,NA,64.18439716312056
95112,Santa Clara County,CA,NA,NA,43.262411347517734
95118,Santa Clara County,CA,NA,61.839080459770116,NA
95210,San Joaquin County,CA,NA,38.96551724137931,NA
95336,San Joaquin County,CA,NA,NA,23.75886524822695
95355,Stanislaus County,CA,NA,10.574712643678161,NA
95476,Sonoma County,CA,NA,69.08045977011494,NA
95482,Mendocino County,CA,NA,37.35632183908046,NA
95540,Humboldt County,CA,NA,58.50574712643678,NA
95746,Placer County,CA,NA,77.58620689655173,NA
95843,Sacramento County,CA,NA,61.03448275862069,NA
95954,Butte County,CA,NA,40.91954022988506,NA
95973,Butte County,CA,NA,23.218390804597703,NA
95993,Sutter County,CA,NA,NA,41.843971631205676
96001,Shasta County,CA,NA,NA,47.5177304964539
96101,Modoc County,CA,NA,99.42528735632183,NA
96130,Lassen County,CA,NA,NA,80.1418439716312
96161,Nevada County,CA,NA,94.48275862068965,NA
80014,Arapahoe County,CO,NA,31.14942528735632,NA
80031,Adams County,CO,NA,68.27586206896552,NA
80104,Douglas County,CO,NA,56.09195402298851,NA
80108,Douglas County,CO,NA,NA,59.21985815602837
80120,Arapahoe County,CO,NA,NA,49.29078014184397
80126,Douglas County,CO,NA,NA,86.52482269503547
80127,Jefferson County,CO,NA,47.356321839080465,48.226950354609926
80210,Denver County,CO,NA,54.367816091954026,NA
80211,Denver County,CO,NA,67.58620689655173,NA
80214,Jefferson County,CO,21.611721611721613,NA,NA
80216,Denver County,CO,NA,84.36781609195401,NA
80220,Denver County,CO,NA,33.90804597701149,NA
80223,Denver County,CO,NA,81.83908045977012,NA
80301,Boulder County,CO,NA,59.08045977011495,NA
80304,Boulder County,CO,NA,NA,67.73049645390071
80537,Larimer County,CO,NA,22.06896551724138,NA
80601,Adams County,CO,NA,33.2183908045977,NA
80602,Adams County,CO,NA,NA,54.60992907801418
80634,Weld County,CO,NA,16.7816091954023,1.4184397163120568
80723,Morgan County,CO,NA,88.85057471264368,NA
80918,El Paso County,CO,NA,45.632183908045974,NA
80920,El Paso County,CO,NA,58.27586206896552,NA
81007,Pueblo County,CO,NA,45.05747126436781,NA
81122,La Plata County,CO,NA,87.816091954023,NA
81323,Montezuma County,CO,NA,NA,98.93617021276596
81416,Delta County,CO,NA,NA,84.39716312056737
81504,Mesa County,CO,NA,29.770114942528735,NA
81521,Mesa County,CO,NA,67.24137931034483,71.27659574468085
06051,Hartford County,CT,NA,38.04597701149425,NA
06096,Hartford County,CT,NA,90.6896551724138,NA
06114,Hartford County,CT,NA,86.7816091954023,NA
06419,Middlesex County,CT,NA,93.44827586206897,NA
06443,New Haven County,CT,NA,NA,37.234042553191486
06831,Fairfield County,CT,NA,NA,69.50354609929079
19801,New Castle County,DE,NA,38.62068965517241,NA
19805,New Castle County,DE,NA,4.137931034482759,NA
19901,Kent County,DE,NA,48.62068965517241,20.212765957446805
32055,Columbia County,FL,78.3882783882784,NA,NA
32068,Clay County,FL,NA,75.97701149425288,NA
32073,Clay County,FL,49.08424908424908,NA,NA
32086,St. Johns County,FL,NA,NA,18.79432624113475
32087,Baker County,FL,NA,91.0344827586207,NA
32211,Duval County,FL,NA,21.95402298850575,NA
32348,Taylor County,FL,NA,74.59770114942529,NA
32401,Bay County,FL,NA,NA,34.39716312056738
32425,Holmes County,FL,74.72527472527473,NA,NA
32444,Bay County,FL,35.8974358974359,NA,NA
32459,Walton County,FL,NA,NA,36.52482269503546
32536,Okaloosa County,FL,86.44688644688645,NA,NA
32563,Santa Rosa County,FL,NA,32.758620689655174,NA
32566,Santa Rosa County,FL,NA,65.28735632183908,NA
32578,Okaloosa County,FL,63.003663003663,NA,NA
32583,Santa Rosa County,FL,NA,25.862068965517242,NA
32601,Alachua County,FL,NA,98.85057471264368,NA
32605,Alachua County,FL,93.77289377289377,NA,88.65248226950354
32606,Alachua County,FL,NA,33.793103448275865,NA
32608,Alachua County,FL,NA,90.22988505747126,NA
32609,Alachua County,FL,NA,89.19540229885058,NA
32621,Levy County,FL,65.2014652014652,NA,NA
32640,Putnam County,FL,NA,92.41379310344827,NA
32641,Alachua County,FL,NA,80.11494252873564,NA
32643,Alachua County,FL,NA,99.6551724137931,NA
32701,Seminole County,FL,NA,54.59770114942529,72.69503546099291
32808,Orange County,FL,NA,16.436781609195403,NA
32909,Brevard County,FL,50.18315018315018,NA,NA
33025,Broward County,FL,NA,NA,52.836879432624116
33133,Miami-Dade County,FL,NA,89.3103448275862,NA
33186,Miami-Dade County,FL,NA,NA,37.5886524822695
33316,Broward County,FL,NA,NA,95.0354609929078
33440,Hendry County,FL,NA,NA,69.8581560283688
33498,Palm Beach County,FL,NA,NA,99.64539007092199
33547,Hillsborough County,FL,NA,77.35632183908045,NA
33709,Pinellas County,FL,NA,51.37931034482759,NA
33811,Polk County,FL,NA,67.01149425287356,NA
33823,Polk County,FL,NA,NA,46.45390070921986
33908,Lee County,FL,NA,NA,7.446808510638298
33983,Charlotte County,FL,NA,70.91954022988506,NA
33993,Lee County,FL,NA,49.770114942528735,NA
34119,Collier County,FL,70.32967032967034,NA,NA
34142,Collier County,FL,NA,79.54022988505747,NA
34202,Manatee County,FL,NA,65.40229885057471,74.822695035461
34241,Sarasota County,FL,NA,NA,66.31205673758865
34452,Citrus County,FL,92.67399267399267,NA,NA
34608,Hernando County,FL,78.02197802197803,NA,NA
34677,Pinellas County,FL,NA,73.5632183908046,NA
30005,Fulton County,GA,67.76556776556777,NA,NA
30014,Newton County,GA,NA,59.195402298850574,NA
30022,Fulton County,GA,NA,NA,45.744680851063826
30028,Forsyth County,GA,57.509157509157504,NA,NA
30040,Forsyth County,GA,5.128205128205128,NA,NA
30044,Gwinnett County,GA,NA,NA,17.375886524822697
30047,Gwinnett County,GA,39.1941391941392,NA,30.851063829787233
30052,Walton County,GA,NA,18.275862068965516,NA
30054,Newton County,GA,NA,85.51724137931035,NA
30064,Cobb County,GA,72.89377289377289,NA,NA
30066,Cobb County,GA,NA,NA,31.560283687943265
30071,Gwinnett County,GA,NA,93.2183908045977,NA
30088,DeKalb County,GA,NA,39.770114942528735,NA
30094,Rockdale County,GA,27.106227106227106,NA,NA
30101,Cobb County,GA,45.05494505494506,NA,NA
30114,Cherokee County,GA,NA,35.97701149425288,NA
30126,Cobb County,GA,NA,43.44827586206896,NA
30152,Cobb County,GA,NA,NA,77.30496453900709
30157,Paulding County,GA,10.256410256410255,NA,NA
30165,Floyd County,GA,20.51282051282051,NA,NA
30188,Cherokee County,GA,68.4981684981685,NA,NA
30215,Fayette County,GA,44.68864468864469,NA,NA
30252,Henry County,GA,81.68498168498168,NA,NA
30305,Fulton County,GA,NA,76.20689655172413,NA
30341,DeKalb County,GA,NA,67.4712643678161,NA
30474,Toombs County,GA,NA,92.643678160919535,NA
30507,Hall County,GA,NA,NA,65.95744680851064
30512,Union County,GA,NA,71.49425287356321,NA
30528,White County,GA,NA,76.0919540229885,NA
30680,Barrow County,GA,NA,NA,26.24113475177305
30721,Whitfield County,GA,NA,24.25287356321839,NA
30725,Walker County,GA,NA,91.60919540229885,NA
30736,Catoosa County,GA,NA,11.954022988505747,NA
30814,Columbia County,GA,NA,77.58620689655173,NA
30828,Warren County,GA,NA,95.05747126436782,NA
31031,Wilkinson County,GA,94.13919413919413,NA,NA
31036,Pulaski County,GA,63.003663003663,NA,NA
31419,Chatham County,GA,12.454212454212454,NA,NA
31548,Camden County,GA,NA,56.55172413793104,NA
31554,Coffee County,GA,86.08058608058609,NA,NA
31833,Troup County,GA,NA,NA,78.36879432624113
31904,Muscogee County,GA,37.72893772893773,NA,19.148936170212767
96701,Honolulu County,HI,28.205128205128204,NA,NA
96706,Honolulu County,HI,NA,NA,13.47517730496454
96734,Honolulu County,HI,33.33333333333333,NA,NA
96743,Hawaii County,HI,NA,NA,71.63120567375887
83274,Bingham County,ID,NA,80.91954022988506,NA
83401,Bonneville County,ID,NA,72.41379310344827,NA
83404,Bonneville County,ID,NA,77.47126436781609,NA
83442,Jefferson County,ID,NA,42.5287356321839,NA
83642,Ada County,ID,NA,NA,10.28368794326241
83702,Ada County,ID,NA,NA,22.69503546099291
83704,Ada County,ID,NA,17.47126436781609,NA
83706,Ada County,ID,NA,NA,26.95035460992908
83714,Ada County,ID,NA,NA,17.02127659574468
60004,Cook County,IL,17.94871794871795,NA,NA
60008,Cook County,IL,NA,NA,57.446808510638306
60018,Cook County,IL,NA,62.29885057471264,NA
60025,Cook County,IL,14.652014652014653,NA,NA
60031,Lake County,IL,NA,NA,24.822695035460992
60091,Cook County,IL,NA,85.40229885057471,NA
60101,DuPage County,IL,NA,NA,24.46808510638298
60103,DuPage County,IL,NA,28.160919540229884,NA
60106,DuPage County,IL,NA,62.18390804597701,NA
60108,DuPage County,IL,50.91575091575091,NA,NA
60118,Kane County,IL,58.97435897435898,NA,NA
60126,DuPage County,IL,NA,NA,3.900709219858156
60154,Cook County,IL,NA,NA,61.702127659574465
60169,Cook County,IL,NA,47.58620689655172,NA
60174,Kane County,IL,24.175824175824175,NA,NA
60181,DuPage County,IL,NA,29.655172413793103,NA
60188,DuPage County,IL,NA,19.655172413793103,25.53191489361702
60201,Cook County,IL,62.637362637362635,NA,NA
60402,Cook County,IL,NA,12.413793103448276,NA
60404,Will County,IL,36.996336996337,NA,NA
60410,Will County,IL,NA,48.275862068965516,NA
60416,Grundy County,IL,NA,60.45977011494252,NA
60425,Cook County,IL,NA,NA,89.36170212765957
60446,Will County,IL,NA,15.517241379310345,NA
60447,Grundy County,IL,NA,56.20689655172414,NA
60450,Grundy County,IL,8.424908424908425,NA,NA
60451,Will County,IL,NA,20.689655172413794,NA
60452,Cook County,IL,NA,49.310344827586206,NA
60467,Cook County,IL,NA,75.40229885057471,NA
60477,Cook County,IL,NA,NA,46.09929078014184
60491,Will County,IL,NA,66.20689655172414,NA
60502,DuPage County,IL,NA,52.41379310344828,NA
60510,Kane County,IL,26.00732600732601,NA,NA
60525,Cook County,IL,NA,NA,14.893617021276595
60527,DuPage County,IL,NA,NA,12.056737588652481
60544,Will County,IL,NA,37.93103448275862,NA
60564,Will County,IL,NA,NA,29.078014184397162
60609,Cook County,IL,15.384615384615385,NA,18.439716312056735
60611,Cook County,IL,NA,55.40229885057472,NA
60618,Cook County,IL,4.029304029304029,NA,NA
60620,Cook County,IL,NA,9.195402298850574,NA
60626,Cook County,IL,NA,20.114942528735632,NA
60632,Cook County,IL,NA,NA,66.66666666666666
60637,Cook County,IL,NA,16.32183908045977,NA
60638,Cook County,IL,NA,10.804597701149426,NA
60646,Cook County,IL,NA,49.54022988505747,NA
60651,Cook County,IL,NA,52.29885057471264,NA
60652,Cook County,IL,NA,28.27586206896552,NA
60707,Cook County,IL,NA,20.804597701149426,NA
60914,Kankakee County,IL,NA,32.98850574712643,22.340425531914892
61107,Winnebago County,IL,NA,NA,70.2127659574468
61109,Winnebago County,IL,NA,44.712643678160916,NA
61350,LaSalle County,IL,NA,48.50574712643678,NA
61568,Tazewell County,IL,97.43589743589743,NA,NA
61764,Livingston County,IL,NA,68.16091954022988,NA
61866,Champaign County,IL,NA,41.724137931034484,NA
61920,Coles County,IL,NA,NA,51.06382978723404
62260,St. Clair County,IL,96.7032967032967,NA,NA
62363,Pike County,IL,NA,NA,95.74468085106383
62448,Jasper County,IL,NA,88.04597701149424,NA
62454,Crawford County,IL,NA,NA,76.59574468085107
62565,Shelby County,IL,NA,98.04597701149426,NA
62626,Macoupin County,IL,NA,NA,89.71631205673759
46060,Hamilton County,IN,NA,30.919540229885058,NA
46062,Hamilton County,IN,31.135531135531135,NA,NA
46112,Hendricks County,IN,NA,53.79310344827586,NA
46228,Marion County,IN,NA,75.63218390804597,NA
46239,Marion County,IN,NA,78.39080459770115,NA
46254,Marion County,IN,NA,22.758620689655174,NA
46373,Lake County,IN,NA,29.310344827586203,NA
46375,Lake County,IN,NA,31.60919540229885,NA
46403,Lake County,IN,NA,66.0919540229885,NA
46540,Elkhart County,IN,NA,85.63218390804597,NA
46561,St. Joseph County,IN,NA,82.64367816091955,NA
46563,Marshall County,IN,NA,41.14942528735632,NA
46755,Noble County,IN,NA,27.011494252873565,NA
46806,Allen County,IN,NA,26.20689655172414,NA
46815,Allen County,IN,NA,32.52873563218391,NA
46825,Allen County,IN,NA,38.275862068965516,NA
46835,Allen County,IN,NA,NA,43.97163120567376
46936,Howard County,IN,79.48717948717949,NA,NA
46953,Grant County,IN,NA,12.528735632183906,NA
46975,Fulton County,IN,56.043956043956044,NA,NA
47025,Dearborn County,IN,26.373626373626376,NA,NA
47302,Delaware County,IN,NA,18.850574712643677,NA
47348,Blackford County,IN,NA,64.48275862068965,NA
47421,Lawrence County,IN,NA,34.59770114942528,NA
47448,Brown County,IN,91.20879120879121,NA,NA
47567,Pike County,IN,84.98168498168498,NA,NA
47630,Warrick County,IN,NA,94.59770114942529,NA
47713,Vanderburgh County,IN,NA,62.98850574712643,NA
47802,Vigo County,IN,NA,NA,42.198581560283685
47905,Tippecanoe County,IN,67.3992673992674,NA,NA
50035,Polk County,IA,NA,97.58620689655172,NA
50320,Polk County,IA,NA,48.39080459770115,NA
50322,Polk County,IA,NA,81.60919540229885,NA
50501,Webster County,IA,NA,24.82758620689655,NA
50701,Black Hawk County,IA,NA,33.10344827586207,NA
51108,Woodbury County,IA,NA,89.42528735632183,NA
51334,Emmet County,IA,NA,NA,50.35460992907801
51503,Pottawattamie County,IA,NA,NA,5.673758865248227
51566,Montgomery County,IA,NA,89.65517241379311,NA
52241,Johnson County,IA,32.6007326007326,NA,NA
52806,Scott County,IA,NA,21.839080459770116,NA
66007,Leavenworth County,KS,69.59706959706959,NA,NA
66049,Douglas County,KS,NA,56.7816091954023,NA
66061,Johnson County,KS,NA,20.57471264367816,6.382978723404255
66109,Wyandotte County,KS,NA,77.01149425287356,NA
66213,Johnson County,KS,NA,86.0919540229885,NA
66220,Johnson County,KS,96.33699633699634,NA,NA
66227,Johnson County,KS,NA,95.63218390804597,NA
66614,Shawnee County,KS,NA,34.82758620689655,NA
67063,Marion County,KS,NA,NA,99.29078014184397
67101,Sedgwick County,KS,97.06959706959707,NA,NA
67410,Dickinson County,KS,NA,NA,72.3404255319149
67501,Reno County,KS,NA,NA,73.75886524822694
67801,Ford County,KS,43.223443223443226,NA,NA
40004,Nelson County,KY,NA,NA,32.269503546099294
40047,Bullitt County,KY,NA,28.965517241379313,NA
40065,Shelby County,KY,NA,41.26436781609195,NA
40160,Hardin County,KY,NA,31.95402298850575,NA
40165,Bullitt County,KY,NA,62.643678160919535,NA
40215,Jefferson County,KY,NA,19.310344827586206,NA
40229,Jefferson County,KY,NA,13.218390804597702,NA
40312,Powell County,KY,NA,78.27586206896552,NA
40351,Rowan County,KY,NA,22.18390804597701,NA
40391,Clark County,KY,NA,10.459770114942529,13.120567375886525
40484,Lincoln County,KY,NA,NA,56.02836879432624
40701,Whitley County,KY,NA,11.724137931034482,NA
40740,Laurel County,KY,NA,97.70114942528735,NA
41015,Kenton County,KY,NA,25.97701149425287,NA
41017,Kenton County,KY,NA,31.14942528735632,23.04964539007092
41042,Boone County,KY,NA,7.35632183908046,NA
41071,Campbell County,KY,60.43956043956044,NA,NA
41076,Campbell County,KY,43.223443223443226,NA,NA
41092,Boone County,KY,100,NA,NA
41522,Pike County,KY,NA,71.72413793103448,NA
42071,Calloway County,KY,66.66666666666666,NA,NA
42127,Barren County,KY,73.26007326007326,NA,NA
42301,Daviess County,KY,NA,NA,62.76595744680851
42345,Muhlenberg County,KY,NA,78.04597701149424,NA
42450,Webster County,KY,NA,94.25287356321839,NA
70065,Jefferson Parish,LA,NA,39.54022988505747,NA
70118,Orleans Parish,LA,NA,50.3448275862069,NA
70119,Orleans Parish,LA,NA,6.091954022988506,NA
70125,Orleans Parish,LA,NA,78.85057471264368,NA
70354,Lafourche Parish,LA,NA,70.6896551724138,NA
70437,St. Tammany Parish,LA,NA,NA,63.47517730496454
70535,St. Landry Parish,LA,NA,26.89655172413793,NA
70563,Iberia Parish,LA,NA,NA,65.24822695035462
70570,St. Landry Parish,LA,NA,2.0689655172413794,NA
70634,Beauregard Parish,LA,NA,25.17241379310345,NA
70769,Ascension Parish,LA,NA,11.03448275862069,NA
70775,West Feliciana Parish,LA,81.31868131868131,NA,NA
71037,Bossier Parish,LA,6.593406593406594,NA,NA
71104,Caddo Parish,LA,15.75091575091575,NA,NA
71106,Caddo Parish,LA,NA,8.39080459770115,NA
71111,Bossier Parish,LA,NA,6.551724137931035,NA
71119,Caddo Parish,LA,31.135531135531135,NA,NA
71270,Lincoln Parish,LA,NA,NA,60.28368794326241
71417,Grant Parish,LA,54.57875457875458,NA,NA
04027,York County,ME,NA,80.6896551724138,NA
04062,Cumberland County,ME,NA,54.82758620689655,NA
04074,Cumberland County,ME,NA,NA,55.673758865248224
04240,Androscoggin County,ME,NA,29.195402298850574,NA
04330,Kennebec County,ME,NA,7.816091954022989,8.865248226950355
04401,Penobscot County,ME,NA,14.597701149425287,NA
04901,Kennebec County,ME,NA,6.436781609195402,NA
04915,Waldo County,ME,NA,86.66666666666667,NA
04938,Franklin County,ME,23.44322344322344,NA,NA
04976,Somerset County,ME,NA,16.551724137931036,NA
20646,Charles County,MD,NA,72.183908045977,NA
20743,Prince George's County,MD,NA,65.51724137931035,NA
20832,Montgomery County,MD,52.01465201465202,NA,NA
20853,Montgomery County,MD,NA,77.1264367816092,NA
20874,Montgomery County,MD,NA,45.28735632183908,NA
21042,Howard County,MD,NA,94.71264367816093,NA
21050,Harford County,MD,55.311355311355314,NA,NA
21212,Baltimore city,MD,NA,70.11494252873564,NA
21213,Baltimore city,MD,NA,20,NA
21740,Washington County,MD,NA,19.195402298850574,NA
21901,Cecil County,MD,NA,65.86206896551724,NA
01005,Worcester County,MA,NA,68.73563218390805,NA
01007,Hampshire County,MA,NA,50.22988505747127,NA
01085,Hampden County,MA,NA,2.2988505747126435,NA
01201,Berkshire County,MA,NA,0.3448275862068966,NA
01247,Berkshire County,MA,NA,8.045977011494253,NA
01430,Worcester County,MA,NA,NA,91.84397163120568
01453,Worcester County,MA,NA,10.114942528735632,NA
01475,Worcester County,MA,NA,26.091954022988507,NA
01570,Worcester County,MA,NA,5.517241379310345,NA
01604,Worcester County,MA,NA,1.264367816091954,NA
01605,Worcester County,MA,NA,1.9540229885057472,NA
01606,Worcester County,MA,NA,17.81609195402299,NA
01701,Middlesex County,MA,NA,11.609195402298852,NA
01742,Middlesex County,MA,NA,NA,89.00709219858156
01760,Middlesex County,MA,NA,11.264367816091953,NA
01776,Middlesex County,MA,NA,42.64367816091954,NA
01801,Middlesex County,MA,NA,44.02298850574712,NA
01821,Middlesex County,MA,NA,42.758620689655174,NA
01826,Middlesex County,MA,89.37728937728939,NA,NA
01835,Essex County,MA,NA,NA,96.45390070921985
01841,Essex County,MA,NA,0.22988505747126436,NA
01845,Essex County,MA,NA,89.54022988505747,NA
01876,Middlesex County,MA,NA,NA,3.546099290780142
01890,Middlesex County,MA,16.117216117216117,NA,NA
01915,Essex County,MA,NA,2.6436781609195403,NA
01923,Essex County,MA,NA,4.482758620689655,NA
02050,Plymouth County,MA,58.60805860805861,NA,NA
02052,Norfolk County,MA,NA,NA,59.57446808510638
02056,Norfolk County,MA,82.05128205128204,NA,NA
02116,Suffolk County,MA,NA,NA,26.595744680851062
02124,Suffolk County,MA,NA,0.11494252873563218,0
02125,Suffolk County,MA,NA,0.6896551724137931,NA
02128,Suffolk County,MA,NA,0.5747126436781609,NA
02130,Suffolk County,MA,NA,1.839080459770115,NA
02131,Suffolk County,MA,NA,38.39080459770115,NA
02135,Suffolk County,MA,NA,5.172413793103448,NA
02138,Middlesex County,MA,NA,40.689655172413794,NA
02141,Middlesex County,MA,NA,28.620689655172416,NA
02143,Middlesex County,MA,NA,7.126436781609195,NA
02148,Middlesex County,MA,NA,0,95.39007092198581
02149,Middlesex County,MA,NA,3.3333333333333335,NA
02150,Suffolk County,MA,NA,0.9195402298850575,NA
02155,Middlesex County,MA,NA,1.6091954022988506,NA
02169,Norfolk County,MA,NA,0.8045977011494253,NA
02170,Norfolk County,MA,NA,NA,11.347517730496454
02180,Middlesex County,MA,52.38095238095239,NA,NA
02184,Norfolk County,MA,NA,25.74712643678161,NA
02186,Norfolk County,MA,NA,14.71264367816092,29.78723404255319
02190,Norfolk County,MA,NA,91.37931034482759,NA
02343,Norfolk County,MA,NA,37.701149425287355,NA
02382,Plymouth County,MA,NA,NA,53.191489361702125
02451,Middlesex County,MA,NA,58.160919540229884,NA
02459,Middlesex County,MA,NA,NA,25.177304964539005
02472,Middlesex County,MA,NA,9.080459770114944,NA
02539,Dukes County,MA,61.53846153846154,NA,NA
02563,Barnstable County,MA,NA,68.50574712643677,NA
02703,Bristol County,MA,NA,1.4942528735632183,NA
02740,Bristol County,MA,0,NA,NA
02767,Bristol County,MA,NA,NA,97.51773049645391
02771,Bristol County,MA,NA,39.08045977011494,NA
02780,Bristol County,MA,NA,0.45977011494252873,NA
48072,Oakland County,MI,NA,51.49425287356322,NA
48101,Wayne County,MI,NA,23.333333333333332,NA
48103,Washtenaw County,MI,NA,63.33333333333333,NA
48105,Washtenaw County,MI,NA,39.195402298850574,NA
48108,Washtenaw County,MI,NA,NA,36.87943262411347
48116,Livingston County,MI,13.186813186813188,NA,NA
48124,Wayne County,MI,32.967032967032964,NA,NA
48146,Wayne County,MI,NA,51.95402298850574,NA
48152,Wayne County,MI,NA,NA,8.156028368794328
48162,Monroe County,MI,83.15018315018315,83.10344827586206,NA
48166,Monroe County,MI,NA,42.06896551724138,NA
48176,Washtenaw County,MI,17.216117216117215,69.42528735632185,NA
48178,Oakland County,MI,NA,NA,14.184397163120568
48188,Wayne County,MI,56.41025641025641,83.79310344827586,NA
48197,Washtenaw County,MI,NA,NA,2.4822695035460995
48207,Wayne County,MI,NA,19.885057471264368,NA
48212,Wayne County,MI,NA,10.919540229885058,NA
48213,Wayne County,MI,NA,NA,62.4113475177305
48215,Wayne County,MI,NA,66.89655172413794,NA
48219,Wayne County,MI,NA,6.321839080459771,43.61702127659575
48220,Oakland County,MI,NA,45.74712643678161,NA
48228,Wayne County,MI,NA,2.1839080459770113,NA
48229,Wayne County,MI,NA,57.58620689655173,NA
48236,Wayne County,MI,NA,30.22988505747126,NA
48238,Wayne County,MI,NA,23.908045977011493,NA
48310,Macomb County,MI,NA,64.02298850574712,NA
48329,Oakland County,MI,59.70695970695971,NA,NA
48382,Oakland County,MI,21.978021978021978,NA,NA
48386,Oakland County,MI,NA,NA,44.32624113475177
48393,Oakland County,MI,NA,46.55172413793103,NA
48413,Huron County,MI,NA,50,NA
48420,Genesee County,MI,NA,45.74712643678161,NA
48423,Genesee County,MI,NA,NA,23.404255319148938
48430,Genesee County,MI,24.90842490842491,NA,NA
48433,Genesee County,MI,NA,52.52873563218391,24.113475177304963
48439,Genesee County,MI,NA,13.67816091954023,NA
48602,Saginaw County,MI,2.93040293040293,NA,NA
48732,Bay County,MI,37.72893772893773,NA,NA
48750,Iosco County,MI,NA,95.7471264367816,NA
48854,Ingham County,MI,NA,49.88505747126437,NA
48858,Isabella County,MI,NA,59.425287356321846,NA
48867,Shiawassee County,MI,NA,48.96551724137931,NA
49009,Kalamazoo County,MI,NA,59.88505747126437,NA
49017,Calhoun County,MI,NA,62.52873563218391,NA
49028,Branch County,MI,NA,97.816091954023,NA
49048,Kalamazoo County,MI,20.87912087912088,NA,NA
49087,Kalamazoo County,MI,71.42857142857143,NA,NA
49201,Jackson County,MI,5.4945054945054945,NA,NA
49221,Lenawee County,MI,1.465201465201465,NA,NA
49242,Hillsdale County,MI,NA,NA,46.808510638297875
49270,Monroe County,MI,NA,98.39080459770115,NA
49330,Kent County,MI,79.12087912087912,NA,NA
49337,Newaygo County,MI,30.036630036630036,NA,NA
49431,Mason County,MI,NA,NA,28.368794326241137
49442,Muskegon County,MI,NA,4.3678160919540225,NA
49460,Ottawa County,MI,69.96336996336996,NA,NA
49464,Ottawa County,MI,NA,51.724137931034484,NA
49503,Kent County,MI,NA,57.701149425287355,NA
49507,Kent County,MI,NA,6.666666666666667,NA
49508,Kent County,MI,NA,7.586206896551724,NA
49829,Delta County,MI,NA,76.7816091954023,34.04255319148936
49858,Menominee County,MI,NA,NA,73.40425531914893
49920,Iron County,MI,NA,89.65517241379311,NA
55104,Ramsey County,MN,NA,15.517241379310345,NA
55107,Ramsey County,MN,NA,70.34482758620689,NA
55108,Ramsey County,MN,NA,NA,91.48936170212765
55112,Ramsey County,MN,NA,40.689655172413794,NA
55126,Ramsey County,MN,NA,NA,70.92198581560284
55303,Anoka County,MN,23.809523809523807,NA,NA
55317,Carver County,MN,NA,74.82758620689656,NA
55328,Wright County,MN,NA,88.73563218390804,NA
55330,Sherburne County,MN,33.33333333333333,NA,NA
55337,Dakota County,MN,NA,33.33333333333333,NA
55371,Mille Lacs County,MN,NA,75.40229885057471,NA
55398,Sherburne County,MN,84.98168498168498,NA,87.94326241134752
55406,Hennepin County,MN,11.355311355311356,NA,NA
55408,Hennepin County,MN,NA,12.068965517241379,NA
55434,Anoka County,MN,NA,NA,58.156028368794324
55436,Hennepin County,MN,53.47985347985348,NA,NA
55806,St. Louis County,MN,NA,59.77011494252874,NA
55812,St. Louis County,MN,NA,75.63218390804597,NA
55904,Olmsted County,MN,NA,36.666666666666664,NA
55906,Olmsted County,MN,NA,NA,68.43971631205675
55912,Mower County,MN,NA,8.85057471264368,NA
56007,Freeborn County,MN,NA,72.75862068965517,NA
56073,Brown County,MN,NA,22.64367816091954,NA
56201,Kandiyohi County,MN,29.304029304029307,NA,NA
56265,Chippewa County,MN,NA,72.98850574712644,NA
56310,Stearns County,MN,NA,98.50574712643679,NA
56345,Morrison County,MN,NA,29.080459770114942,NA
56359,Mille Lacs County,MN,NA,86.32183908045977,NA
56378,Stearns County,MN,NA,NA,81.20567375886525
56482,Wadena County,MN,43.956043956043956,NA,NA
56560,Clay County,MN,NA,27.70114942528736,NA
56601,Beltrami County,MN,NA,8.160919540229886,1.0638297872340425
56701,Pennington County,MN,NA,20.344827586206897,NA
38614,Coahoma County,MS,NA,NA,67.02127659574468
38732,Bolivar County,MS,NA,37.81609195402299,NA
38801,Lee County,MS,NA,38.85057471264368,NA
38829,Prentiss County,MS,NA,46.89655172413793,NA
38921,Tallahatchie County,MS,NA,89.88505747126436,NA
39059,Copiah County,MS,34.798534798534796,NA,NA
39421,Jefferson Davis County,MS,NA,100,NA
39581,Jackson County,MS,NA,NA,92.90780141843972
63026,St. Louis County,MO,NA,36.0919540229885,NA
63040,St. Louis County,MO,90.84249084249085,NA,NA
63043,St. Louis County,MO,NA,85.28735632183908,NA
63084,Franklin County,MO,NA,52.87356321839081,NA
63108,St. Louis city,MO,NA,51.03448275862069,93.26241134751773
63116,St. Louis city,MO,NA,34.59770114942528,NA
63123,St. Louis County,MO,NA,37.12643678160919,NA
63138,St. Louis County,MO,NA,51.609195402298845,NA
63304,St. Charles County,MO,34.065934065934066,NA,NA
63385,St. Charles County,MO,8.058608058608058,82.5287356321839,NA
63601,St. Francois County,MO,NA,42.98850574712644,NA
64012,Cass County,MO,NA,26.551724137931032,NA
64014,Jackson County,MO,NA,21.60919540229885,NA
64029,Jackson County,MO,NA,NA,79.07801418439716
64050,Jackson County,MO,NA,16.091954022988507,NA
64052,Jackson County,MO,NA,11.379310344827587,NA
64055,Jackson County,MO,NA,29.88505747126437,NA
64056,Jackson County,MO,NA,25.402298850574713,NA
64060,Clay County,MO,NA,44.94252873563218,NA
64075,Jackson County,MO,45.42124542124542,NA,NA
64089,Clay County,MO,NA,52.18390804597701,NA
64108,Jackson County,MO,54.21245421245421,NA,NA
64133,Jackson County,MO,NA,NA,6.028368794326241
64138,Jackson County,MO,NA,NA,18.085106382978726
64152,Platte County,MO,47.985347985347985,NA,NA
64155,Clay County,MO,34.43223443223443,23.103448275862068,NA
64429,Clinton County,MO,NA,50.804597701149426,NA
64506,Buchanan County,MO,NA,19.54022988505747,NA
64701,Cass County,MO,NA,71.26436781609196,NA
64730,Bates County,MO,NA,80.3448275862069,NA
64801,Jasper County,MO,NA,42.183908045977006,NA
64804,Jasper County,MO,NA,17.24137931034483,NA
64834,Jasper County,MO,NA,NA,88.29787234042553
65026,Miller County,MO,NA,NA,75.177304964539
65233,Cooper County,MO,NA,64.59770114942529,NA
65560,Dent County,MO,NA,56.32183908045977,NA
65605,Lawrence County,MO,89.01098901098901,NA,NA
65619,Greene County,MO,94.5054945054945,NA,NA
65804,Greene County,MO,NA,74.48275862068967,NA
59047,Park County,MT,NA,74.13793103448276,NA
59405,Cascade County,MT,NA,28.50574712643678,NA
59602,Lewis and Clark County,MT,NA,79.77011494252874,NA
59801,Missoula County,MT,NA,81.72413793103448,NA
59911,Flathead County,MT,NA,94.94252873563218,NA
59923,Lincoln County,MT,NA,61.264367816091955,NA
68022,Douglas County,NE,NA,71.14942528735632,NA
68025,Dodge County,NE,28.57142857142857,NA,NA
68028,Sarpy County,NE,NA,77.816091954023,NA
68111,Douglas County,NE,NA,21.149425287356323,NA
68114,Douglas County,NE,NA,NA,79.43262411347519
68434,Seward County,NE,NA,NA,85.1063829787234
68748,Madison County,NE,92.3076923076923,NA,NA
89166,Clark County,NV,NA,NA,97.87234042553192
89406,Churchill County,NV,NA,NA,34.751773049645394
89506,Washoe County,NV,21.245421245421245,NA,NA
03053,Rockingham County,NH,NA,26.20689655172414,77.6595744680851
03063,Hillsborough County,NH,NA,81.95402298850574,NA
03070,Hillsborough County,NH,NA,97.356321839080465,NA
03086,Hillsborough County,NH,95.23809523809523,NA,NA
03104,Hillsborough County,NH,9.157509157509157,NA,NA
03811,Rockingham County,NH,NA,78.73563218390804,NA
03833,Rockingham County,NH,22.344322344322347,NA,NA
07013,Passaic County,NJ,NA,93.90804597701148,NA
07060,Union County,NJ,NA,NA,57.09219858156028
07065,Union County,NJ,NA,55.05747126436782,NA
07083,Union County,NJ,NA,95.17241379310344,NA
07103,Essex County,NJ,NA,NA,39.00709219858156
07305,Hudson County,NJ,NA,NA,2.8368794326241136
07444,Morris County,NJ,NA,90.80459770114942,NA
07662,Bergen County,NJ,99.26739926739927,NA,NA
07746,Monmouth County,NJ,NA,NA,94.68085106382979
07901,Union County,NJ,NA,99.77011494252874,NA
07931,Somerset County,NJ,NA,99.08045977011494,NA
08012,Camden County,NJ,NA,7.471264367816093,NA
08015,Burlington County,NJ,NA,98.9655172413793,NA
08021,Camden County,NJ,NA,73.2183908045977,NA
08077,Burlington County,NJ,NA,32.18390804597701,NA
08079,Salem County,NJ,NA,91.14942528735632,NA
08081,Camden County,NJ,NA,2.413793103448276,NA
08527,Ocean County,NJ,NA,33.44827586206897,NA
08618,Mercer County,NJ,NA,1.3793103448275863,NA
08826,Hunterdon County,NJ,NA,95.51724137931035,NA
08831,Middlesex County,NJ,NA,29.42528735632184,NA
08835,Somerset County,NJ,NA,82.98850574712644,NA
08844,Somerset County,NJ,NA,NA,56.73758865248227
08857,Middlesex County,NJ,NA,9.770114942528735,NA
08859,Middlesex County,NJ,NA,NA,63.12056737588653
87035,Torrance County,NM,NA,87.24137931034483,NA
87059,Bernalillo County,NM,NA,87.01149425287356,NA
87109,Bernalillo County,NM,14.652014652014653,NA,NA
87111,Bernalillo County,NM,NA,4.712643678160919,NA
87114,Bernalillo County,NM,NA,10.229885057471265,15.602836879432624
87123,Bernalillo County,NM,NA,13.448275862068964,NA
87124,Sandoval County,NM,NA,NA,10.99290780141844
87144,Sandoval County,NM,NA,NA,21.631205673758867
87327,Cibola County,NM,NA,NA,80.49645390070921
87506,Santa Fe County,NM,NA,92.06896551724138,NA
87528,Rio Arriba County,NM,NA,NA,98.581560283687935
88007,Doa Ana County,NM,NA,79.19540229885057,NA
88240,Lea County,NM,NA,7.931034482758621,NA
10002,New York County,NY,NA,5.057471264367816,NA
10011,New York County,NY,NA,92.29885057471265,NA
10029,New York County,NY,NA,1.0344827586206897,NA
10065,New York County,NY,NA,83.9080459770115,NA
10451,Bronx County,NY,NA,3.793103448275862,NA
10453,Bronx County,NY,NA,27.35632183908046,NA
10460,Bronx County,NY,NA,2.7586206896551726,NA
10461,Bronx County,NY,NA,12.643678160919542,NA
10573,Westchester County,NY,NA,94.13793103448276,NA
11221,Kings County,NY,NA,NA,4.609929078014184
11226,Kings County,NY,NA,4.942528735632184,NA
11237,Kings County,NY,NA,23.678160919540232,NA
11361,Queens County,NY,NA,92.87356321839081,NA
11784,Suffolk County,NY,NA,65.74712643678161,84.04255319148936
11795,Suffolk County,NY,NA,NA,74.46808510638297
12010,Montgomery County,NY,NA,24.367816091954023,NA
12065,Saratoga County,NY,NA,23.563218390804597,NA
12168,Rensselaer County,NY,NA,98.50574712643679,NA
12308,Schenectady County,NY,NA,67.93103448275862,NA
12534,Columbia County,NY,NA,44.48275862068966,NA
12550,Orange County,NY,NA,31.03448275862069,NA
12828,Washington County,NY,61.53846153846154,NA,NA
12972,Clinton County,NY,90.10989010989012,NA,NA
13021,Cayuga County,NY,NA,18.160919540229887,NA
13032,Madison County,NY,NA,31.494252873563216,NA
13039,Onondaga County,NY,NA,43.67816091954023,NA
13206,Onondaga County,NY,NA,57.12643678160919,NA
13425,Oneida County,NY,NA,97.12643678160919,NA
13440,Oneida County,NY,4.761904761904762,2.9885057471264367,NA
13760,Broome County,NY,16.84981684981685,9.540229885057471,NA
13778,Chenango County,NY,NA,82.06896551724138,NA
13815,Chenango County,NY,18.315018315018314,NA,NA
13830,Chenango County,NY,NA,64.25287356321839,NA
13856,Delaware County,NY,NA,50.45977011494253,NA
13865,Broome County,NY,NA,47.81609195402299,NA
13901,Broome County,NY,NA,4.827586206896552,NA
14020,Genesee County,NY,32.234432234432234,69.19540229885057,NA
14042,Cattaraugus County,NY,NA,83.2183908045977,NA
14108,Niagara County,NY,NA,55.86206896551724,NA
14120,Niagara County,NY,NA,5.862068965517241,NA
14125,Genesee County,NY,87.91208791208791,NA,NA
14215,Erie County,NY,NA,NA,9.929078014184398
14216,Erie County,NY,NA,NA,40.78014184397163
14424,Ontario County,NY,NA,47.47126436781609,NA
14437,Livingston County,NY,31.868131868131865,43.2183908045977,NA
14450,Monroe County,NY,13.91941391941392,3.9080459770114944,NA
14456,Ontario County,NY,NA,9.425287356321839,NA
14471,Ontario County,NY,NA,99.3103448275862,NA
14472,Monroe County,NY,41.02564102564102,NA,NA
14526,Monroe County,NY,42.124542124542124,NA,NA
14534,Monroe County,NY,NA,27.47126436781609,2.127659574468085
14561,Ontario County,NY,NA,95.28735632183908,NA
14564,Ontario County,NY,16.483516483516482,NA,NA
14568,Wayne County,NY,NA,63.9080459770115,NA
14572,Steuben County,NY,NA,90.57471264367815,NA
14580,Monroe County,NY,19.047619047619047,NA,NA
14606,Monroe County,NY,NA,3.67816091954023,NA
14609,Monroe County,NY,NA,13.563218390804598,NA
14610,Monroe County,NY,NA,61.724137931034484,NA
14615,Monroe County,NY,NA,12.183908045977011,NA
14617,Monroe County,NY,NA,8.275862068965518,5.319148936170213
14619,Monroe County,NY,NA,NA,75.53191489361703
14620,Monroe County,NY,NA,7.7011494252873565,NA
14621,Monroe County,NY,0.7326007326007326,NA,NA
14626,Monroe County,NY,NA,NA,28.01418439716312
14772,Cattaraugus County,NY,80.58608058608058,NA,NA
14830,Steuben County,NY,51.28205128205128,55.97701149425287,NA
14845,Chemung County,NY,NA,16.666666666666664,NA
14850,Tompkins County,NY,82.78388278388277,NA,NA
14886,Tompkins County,NY,47.61904761904761,NA,NA
14898,Steuben County,NY,99.633699633699635,NA,NA
27023,Forsyth County,NC,NA,66.32183908045977,NA
27028,Davie County,NC,NA,NA,10.638297872340425
27030,Surry County,NC,3.296703296703297,NA,NA
27105,Forsyth County,NC,NA,3.218390804597701,NA
27106,Forsyth County,NC,NA,13.793103448275861,NA
27127,Forsyth County,NC,NA,15.057471264367816,NA
27205,Randolph County,NC,37.362637362637365,NA,NA
27265,Guilford County,NC,NA,20.45977011494253,NA
27278,Orange County,NC,42.124542124542124,NA,NA
27295,Davidson County,NC,NA,NA,4.25531914893617
27316,Randolph County,NC,NA,NA,90.0709219858156
27371,Montgomery County,NC,NA,90,NA
27455,Guilford County,NC,44.32234432234432,NA,NA
27513,Wake County,NC,NA,60.229885057471265,NA
27516,Orange County,NC,NA,30.114942528735632,NA
27518,Wake County,NC,NA,83.67816091954023,NA
27527,Johnston County,NC,40.29304029304029,NA,NA
27609,Wake County,NC,NA,35.86206896551724,NA
27705,Durham County,NC,10.622710622710622,NA,NA
27707,Durham County,NC,NA,41.37931034482759,NA
27803,Nash County,NC,NA,NA,45.0354609929078
27804,Nash County,NC,67.03296703296702,33.44827586206897,NA
27959,Dare County,NC,NA,98.73563218390805,NA
28027,Cabarrus County,NC,NA,19.080459770114942,NA
28144,Rowan County,NC,NA,33.90804597701149,NA
28150,Cleveland County,NC,NA,22.413793103448278,NA
28152,Cleveland County,NC,NA,NA,59.9290780141844
28215,Mecklenburg County,NC,NA,15.747126436781608,NA
28337,Bladen County,NC,NA,65.17241379310344,NA
28360,Robeson County,NC,NA,74.94252873563218,NA
28379,Richmond County,NC,NA,16.896551724137932,NA
28411,New Hanover County,NC,NA,36.7816091954023,NA
28422,Brunswick County,NC,NA,NA,73.04964539007092
28451,Brunswick County,NC,NA,61.03448275862069,NA
28462,Brunswick County,NC,39.92673992673993,NA,NA
28467,Brunswick County,NC,NA,NA,64.53900709219859
28601,Catawba County,NC,NA,14.827586206896552,NA
28625,Iredell County,NC,9.523809523809524,NA,NA
28650,Catawba County,NC,NA,63.5632183908046,NA
28655,Burke County,NC,NA,NA,4.964539007092199
28715,Buncombe County,NC,NA,74.25287356321839,NA
28792,Henderson County,NC,NA,30.804597701149426,NA
58078,Cass County,ND,NA,25.517241379310345,16.666666666666664
58103,Cass County,ND,NA,NA,3.1914893617021276
58318,Bottineau County,ND,NA,97.01149425287356,NA
58554,Morton County,ND,NA,36.4367816091954,NA
43015,Delaware County,OH,NA,88.27586206896552,9.219858156028367
43035,Delaware County,OH,NA,95.40229885057471,NA
43050,Knox County,OH,NA,50,NA
43062,Licking County,OH,83.51648351648352,NA,NA
43081,Franklin County,OH,68.13186813186813,NA,NA
43082,Delaware County,OH,53.47985347985348,60,NA
43113,Pickaway County,OH,NA,42.87356321839081,NA
43119,Franklin County,OH,NA,23.79310344827586,NA
43123,Franklin County,OH,63.73626373626373,NA,NA
43130,Fairfield County,OH,NA,2.528735632183908,NA
43147,Fairfield County,OH,14.285714285714285,NA,NA
43204,Franklin County,OH,NA,NA,14.539007092198581
43221,Franklin County,OH,64.46886446886447,NA,NA
43224,Franklin County,OH,NA,7.241379310344828,NA
43302,Marion County,OH,NA,3.103448275862069,NA
43402,Wood County,OH,NA,NA,15.957446808510639
43410,Sandusky County,OH,NA,49.42528735632184,NA
43452,Ottawa County,OH,NA,72.06896551724138,NA
43512,Defiance County,OH,NA,5.402298850574713,NA
43551,Wood County,OH,NA,14.13793103448276,NA
43560,Lucas County,OH,3.6630036630036633,25.057471264367813,NA
43607,Lucas County,OH,NA,NA,21.27659574468085
43614,Lucas County,OH,NA,11.494252873563218,NA
43619,Wood County,OH,NA,82.75862068965517,NA
43724,Noble County,OH,65.2014652014652,NA,NA
43725,Guernsey County,OH,NA,15.402298850574713,NA
43812,Coshocton County,OH,46.15384615384615,NA,NA
43964,Jefferson County,OH,NA,58.620689655172406,NA
44001,Lorain County,OH,NA,NA,27.659574468085108
44012,Lorain County,OH,NA,34.13793103448276,NA
44035,Lorain County,OH,NA,3.5632183908045976,NA
44044,Lorain County,OH,61.172161172161175,NA,NA
44052,Lorain County,OH,1.098901098901099,57.35632183908046,NA
44053,Lorain County,OH,NA,63.10344827586207,7.801418439716312
44055,Lorain County,OH,NA,32.87356321839081,NA
44060,Lake County,OH,NA,8.620689655172415,0.3546099290780142
44092,Lake County,OH,NA,NA,37.94326241134752
44094,Lake County,OH,NA,18.735632183908045,NA
44108,Cuyahoga County,OH,NA,4.022988505747127,NA
44109,Cuyahoga County,OH,NA,5.977011494252873,NA
44111,Cuyahoga County,OH,NA,NA,53.90070921985816
44112,Cuyahoga County,OH,NA,9.770114942528735,NA
44113,Cuyahoga County,OH,NA,30.45977011494253,NA
44118,Cuyahoga County,OH,NA,12.298850574712644,NA
44125,Cuyahoga County,OH,NA,36.206896551724135,NA
44130,Cuyahoga County,OH,NA,5.747126436781609,NA
44133,Cuyahoga County,OH,50.54945054945055,NA,NA
44134,Cuyahoga County,OH,1.8315018315018317,NA,NA
44136,Cuyahoga County,OH,NA,27.126436781609197,NA
44144,Cuyahoga County,OH,NA,12.758620689655173,NA
44145,Cuyahoga County,OH,NA,NA,32.62411347517731
44212,Medina County,OH,NA,4.252873563218391,NA
44224,Summit County,OH,6.95970695970696,53.2183908045977,NA
44233,Medina County,OH,64.1025641025641,NA,NA
44241,Portage County,OH,NA,30,NA
44270,Wayne County,OH,30.036630036630036,NA,NA
44310,Summit County,OH,NA,37.24137931034483,NA
44484,Trumbull County,OH,12.454212454212454,NA,NA
44601,Stark County,OH,NA,48.735632183908045,NA
44632,Stark County,OH,NA,NA,91.13475177304964
44672,Mahoning County,OH,NA,82.8735632183908,NA
44706,Stark County,OH,NA,32.41379310344827,NA
44820,Crawford County,OH,NA,22.298850574712645,NA
44833,Crawford County,OH,NA,75.86206896551724,NA
44839,Erie County,OH,NA,54.48275862068965,NA
44870,Erie County,OH,6.227106227106227,2.8735632183908044,NA
44903,Richland County,OH,NA,18.04597701149425,19.50354609929078
44904,Richland County,OH,NA,NA,100
44906,Richland County,OH,NA,87.70114942528735,NA
45011,Butler County,OH,NA,15.977011494252874,NA
45014,Butler County,OH,NA,15.287356321839079,NA
45050,Butler County,OH,49.45054945054945,NA,NA
45067,Butler County,OH,51.64835164835166,56.43678160919541,NA
45102,Clermont County,OH,NA,36.321839080459775,NA
45133,Highland County,OH,NA,21.49425287356322,NA
45209,Hamilton County,OH,NA,NA,90.0709219858156
45212,Hamilton County,OH,NA,28.850574712643677,NA
45224,Hamilton County,OH,NA,21.72413793103448,NA
45236,Hamilton County,OH,NA,52.06896551724138,NA
45240,Hamilton County,OH,NA,NA,45.39007092198582
45247,Hamilton County,OH,NA,58.85057471264368,NA
45320,Preble County,OH,NA,40,NA
45327,Montgomery County,OH,91.94139194139194,NA,NA
45338,Preble County,OH,86.81318681318682,NA,NA
45371,Miami County,OH,NA,NA,76.95035460992908
45414,Montgomery County,OH,NA,NA,49.645390070921984
45424,Montgomery County,OH,NA,67.81609195402298,NA
45430,Greene County,OH,NA,87.93103448275862,NA
45459,Montgomery County,OH,NA,60.689655172413794,NA
45502,Clark County,OH,80.58608058608058,NA,NA
45601,Ross County,OH,NA,1.1494252873563218,NA
45619,Lawrence County,OH,52.74725274725275,NA,NA
45640,Jackson County,OH,NA,8.735632183908045,NA
45648,Scioto County,OH,NA,70.80459770114943,NA
45659,Lawrence County,OH,NA,92.18390804597702,NA
45662,Scioto County,OH,NA,69.6551724137931,NA
45692,Jackson County,OH,NA,35.51724137931034,NA
45742,Washington County,OH,NA,86.89655172413792,NA
45805,Allen County,OH,NA,14.022988505747128,NA
45840,Hancock County,OH,74.35897435897436,NA,NA
45891,Van Wert County,OH,NA,28.735632183908045,NA
73025,Oklahoma County,OK,NA,NA,86.87943262411348
73034,Oklahoma County,OK,NA,27.816091954022987,NA
73064,Canadian County,OK,NA,51.14942528735632,NA
73086,Murray County,OK,NA,84.82758620689656,NA
73099,Canadian County,OK,NA,NA,8.51063829787234
73110,Oklahoma County,OK,NA,18.620689655172416,NA
73112,Oklahoma County,OK,NA,65.97701149425286,NA
73116,Oklahoma County,OK,NA,90.11494252873563,NA
73119,Oklahoma County,OK,NA,22.873563218390807,NA
73129,Oklahoma County,OK,NA,50.919540229885065,NA
73134,Oklahoma County,OK,NA,93.10344827586206,NA
73160,Cleveland County,OK,NA,NA,6.73758865248227
73179,Oklahoma County,OK,98.16849816849816,NA,NA
73401,Carter County,OK,NA,14.25287356321839,NA
73439,Marshall County,OK,NA,70.22988505747126,NA
74012,Tulsa County,OK,NA,24.597701149425287,NA
74015,Rogers County,OK,NA,85.86206896551725,NA
74019,Rogers County,OK,NA,46.206896551724135,NA
74074,Payne County,OK,NA,72.52873563218391,NA
74120,Tulsa County,OK,NA,99.54022988505747,NA
74135,Tulsa County,OK,NA,75.28735632183908,NA
74361,Mayes County,OK,NA,82.29885057471265,NA
74401,Muskogee County,OK,NA,NA,54.96453900709219
74403,Muskogee County,OK,26.373626373626376,NA,NA
74434,Muskogee County,OK,87.54578754578755,NA,85.81560283687944
74464,Cherokee County,OK,NA,10.689655172413794,NA
74820,Pontotoc County,OK,NA,10,NA
74857,Cleveland County,OK,NA,NA,94.32624113475178
97005,Washington County,OR,NA,93.79310344827586,NA
97006,Washington County,OR,NA,62.41379310344828,NA
97045,Clackamas County,OR,NA,44.13793103448276,NA
97058,Wasco County,OR,NA,40,NA
97060,Multnomah County,OR,NA,41.95402298850575,NA
97086,Clackamas County,OR,NA,52.643678160919535,NA
97123,Washington County,OR,NA,NA,16.312056737588655
97124,Washington County,OR,38.46153846153847,NA,NA
97127,Yamhill County,OR,91.20879120879121,NA,NA
97202,Multnomah County,OR,74.72527472527473,NA,NA
97206,Multnomah County,OR,NA,14.367816091954023,NA
97213,Multnomah County,OR,NA,36.896551724137936,NA
97219,Multnomah County,OR,NA,80.57471264367815,NA
97236,Multnomah County,OR,NA,NA,31.20567375886525
97338,Polk County,OR,NA,73.10344827586206,NA
97386,Linn County,OR,NA,47.93103448275862,NA
97402,Lane County,OR,NA,21.03448275862069,NA
97415,Curry County,OR,NA,46.206896551724135,NA
97424,Lane County,OR,NA,43.5632183908046,NA
97446,Linn County,OR,98.16849816849816,NA,NA
97467,Douglas County,OR,NA,82.41379310344827,NA
97470,Douglas County,OR,NA,NA,29.432624113475175
97496,Douglas County,OR,62.27106227106227,NA,NA
97754,Crook County,OR,NA,46.666666666666664,NA
97756,Deschutes County,OR,NA,37.01149425287356,NA
97801,Umatilla County,OR,84.61538461538461,NA,NA
97838,Umatilla County,OR,NA,48.160919540229884,NA
97913,Malheur County,OR,53.11355311355312,NA,NA
15071,Allegheny County,PA,42.857142857142854,NA,NA
15102,Allegheny County,PA,NA,62.87356321839081,NA
15122,Allegheny County,PA,46.88644688644688,NA,NA
15235,Allegheny County,PA,NA,20.114942528735632,NA
15239,Allegheny County,PA,NA,91.95402298850574,NA
15857,Elk County,PA,NA,25.517241379310345,NA
16055,Butler County,PA,NA,NA,86.17021276595744
16137,Mercer County,PA,NA,91.72413793103448,NA
16403,Crawford County,PA,NA,84.59770114942529,NA
16428,Erie County,PA,NA,91.83908045977012,NA
16506,Erie County,PA,NA,65.63218390804599,NA
17057,Dauphin County,PA,NA,17.93103448275862,NA
17078,Lebanon County,PA,NA,17.35632183908046,NA
17202,Franklin County,PA,NA,27.241379310344826,NA
17257,Cumberland County,PA,25.64102564102564,NA,NA
17316,Adams County,PA,71.42857142857143,NA,NA
17325,Adams County,PA,NA,24.022988505747126,50
17327,York County,PA,NA,NA,81.56028368794325
17331,York County,PA,NA,8.96551724137931,NA
17350,Adams County,PA,NA,57.81609195402299,NA
17402,York County,PA,NA,19.42528735632184,NA
17403,York County,PA,NA,17.586206896551722,NA
17517,Lancaster County,PA,NA,52.758620689655174,NA
17702,Lycoming County,PA,NA,96.0919540229885,NA
17801,Northumberland County,PA,NA,20.919540229885058,NA
17901,Schuylkill County,PA,NA,94.36781609195403,NA
18011,Lehigh County,PA,NA,86.32183908045977,NA
18014,Northampton County,PA,NA,NA,85.46099290780141
18017,Northampton County,PA,NA,46.09195402298851,NA
18020,Northampton County,PA,NA,42.298850574712645,NA
18036,Lehigh County,PA,NA,83.44827586206897,NA
18042,Northampton County,PA,NA,7.011494252873564,NA
18069,Lehigh County,PA,NA,93.33333333333333,NA
18071,Carbon County,PA,NA,84.13793103448276,NA
18072,Northampton County,PA,NA,98.27586206896551,NA
18074,Montgomery County,PA,NA,93.67816091954023,NA
18088,Northampton County,PA,NA,94.02298850574712,NA
18102,Lehigh County,PA,NA,10.344827586206897,NA
18103,Lehigh County,PA,NA,6.781609195402299,NA
18104,Lehigh County,PA,36.26373626373626,NA,NA
18202,Luzerne County,PA,78.75457875457876,NA,NA
18224,Luzerne County,PA,NA,88.62068965517241,NA
18252,Schuylkill County,PA,NA,NA,83.33333333333334
18353,Monroe County,PA,93.4065934065934,NA,NA
18702,Luzerne County,PA,NA,9.655172413793103,NA
18704,Luzerne County,PA,NA,47.241379310344826,NA
18705,Luzerne County,PA,NA,NA,44.680851063829785
18707,Luzerne County,PA,NA,56.55172413793104,NA
19004,Montgomery County,PA,NA,79.42528735632183,NA
19010,Delaware County,PA,83.88278388278388,NA,NA
19030,Bucks County,PA,NA,96.32183908045977,NA
19044,Montgomery County,PA,NA,61.954022988505756,NA
19047,Bucks County,PA,56.776556776556774,NA,NA
19056,Bucks County,PA,NA,48.04597701149425,NA
19057,Bucks County,PA,NA,30.574712643678158,NA
19067,Bucks County,PA,NA,18.50574712643678,NA
19083,Delaware County,PA,NA,73.44827586206897,NA
19090,Montgomery County,PA,84.24908424908425,NA,NA
19104,Philadelphia County,PA,NA,80,NA
19115,Philadelphia County,PA,NA,75.17241379310344,NA
19133,Philadelphia County,PA,NA,15.862068965517242,NA
19143,Philadelphia County,PA,NA,NA,0.7092198581560284
19145,Philadelphia County,PA,5.86080586080586,NA,NA
19146,Philadelphia County,PA,NA,46.43678160919541,NA
19147,Philadelphia County,PA,NA,18.275862068965516,NA
19148,Philadelphia County,PA,NA,31.724137931034484,NA
19149,Philadelphia County,PA,NA,9.195402298850574,NA
19151,Philadelphia County,PA,NA,14.482758620689657,NA
19152,Philadelphia County,PA,NA,95.97701149425288,NA
19342,Delaware County,PA,NA,73.67816091954023,NA
19380,Chester County,PA,NA,NA,7.092198581560284
19426,Montgomery County,PA,75.45787545787546,NA,NA
19512,Berks County,PA,60.07326007326007,NA,NA
19522,Berks County,PA,NA,NA,84.75177304964538
02813,Washington County,RI,94.87179487179486,NA,NA
02895,Providence County,RI,NA,12.873563218390805,NA
29054,Lexington County,SC,NA,85.17241379310346,NA
29073,Lexington County,SC,NA,22.413793103448278,NA
29170,Lexington County,SC,82.05128205128204,NA,NA
29206,Richland County,SC,97.8021978021978,NA,NA
29209,Richland County,SC,38.82783882783883,NA,NA
29323,Spartanburg County,SC,NA,53.44827586206896,NA
29418,Charleston County,SC,NA,38.50574712643678,NA
29483,Dorchester County,SC,NA,64.71264367816092,NA
29486,Berkeley County,SC,NA,79.77011494252874,NA
29565,Dillon County,SC,NA,88.39080459770115,NA
29625,Anderson County,SC,NA,31.839080459770113,NA
29678,Oconee County,SC,NA,54.71264367816092,NA
29803,Aiken County,SC,NA,42.41379310344828,NA
29842,Aiken County,SC,NA,84.48275862068965,NA
29910,Beaufort County,SC,NA,NA,40.42553191489361
57108,Lincoln County,SD,NA,63.2183908045977,NA
57350,Beadle County,SD,NA,78.62068965517241,NA
57430,Marshall County,SD,NA,97.24137931034483,NA
37064,Williamson County,TN,NA,45.74712643678161,NA
37069,Williamson County,TN,NA,NA,78.01418439716312
37075,Sumner County,TN,NA,46.7816091954023,NA
37076,Davidson County,TN,NA,34.94252873563218,NA
37129,Rutherford County,TN,NA,17.011494252873565,NA
37207,Davidson County,TN,28.93772893772894,13.10344827586207,NA
37311,Bradley County,TN,NA,33.678160919540225,NA
37323,Bradley County,TN,NA,40.57471264367816,NA
37334,Lincoln County,TN,NA,36.55172413793103,NA
37355,Coffee County,TN,NA,34.367816091954026,NA
37379,Hamilton County,TN,NA,40.3448275862069,NA
37620,Sullivan County,TN,NA,13.333333333333334,NA
37771,Loudon County,TN,NA,85.74712643678161,NA
37862,Sevier County,TN,NA,37.47126436781609,NA
37920,Knox County,TN,NA,68.39080459770115,NA
38141,Shelby County,TN,NA,47.01149425287356,NA
38305,Madison County,TN,NA,NA,12.411347517730496
38310,McNairy County,TN,NA,79.08045977011494,NA
38462,Lewis County,TN,55.67765567765568,NA,NA
38478,Giles County,TN,NA,55.28735632183908,NA
38501,Putnam County,TN,NA,19.770114942528735,NA
38555,Cumberland County,TN,NA,38.735632183908045,NA
75007,Denton County,TX,NA,NA,60.63829787234043
75013,Collin County,TX,13.553113553113553,NA,NA
75019,Dallas County,TX,NA,52.98850574712644,NA
75040,Dallas County,TX,NA,96.43678160919539,NA
75067,Denton County,TX,7.326007326007327,NA,NA
75070,Collin County,TX,NA,16.206896551724135,NA
75071,Collin County,TX,NA,27.586206896551722,NA
75115,Dallas County,TX,NA,NA,20.921985815602838
75126,Kaufman County,TX,NA,30.344827586206897,NA
75154,Ellis County,TX,NA,43.333333333333336,NA
75228,Dallas County,TX,NA,87.356321839080465,NA
75240,Dallas County,TX,NA,66.4367816091954,NA
75254,Dallas County,TX,35.53113553113553,NA,NA
75428,Hunt County,TX,70.6959706959707,NA,NA
75454,Collin County,TX,NA,98.16091954022988,NA
75460,Lamar County,TX,NA,NA,71.98581560283688
75501,Bowie County,TX,NA,30.689655172413794,NA
75603,Gregg County,TX,NA,94.82758620689656,NA
75633,Panola County,TX,88.27838827838828,NA,NA
75701,Smith County,TX,NA,35.747126436781606,NA
75709,Smith County,TX,NA,96.66666666666667,NA
75757,Smith County,TX,71.06227106227107,NA,NA
75935,Shelby County,TX,NA,72.8735632183908,NA
75956,Jasper County,TX,68.86446886446886,NA,NA
76006,Tarrant County,TX,NA,66.55172413793103,NA
76010,Tarrant County,TX,NA,64.82758620689654,NA
76016,Tarrant County,TX,NA,NA,27.30496453900709
76018,Tarrant County,TX,NA,57.47126436781609,NA
76034,Tarrant County,TX,NA,NA,61.347517730496456
76048,Hood County,TX,NA,96.7816091954023,NA
76063,Tarrant County,TX,NA,NA,13.829787234042554
76066,Parker County,TX,95.97069597069597,NA,NA
76067,Palo Pinto County,TX,NA,NA,55.319148936170215
76087,Parker County,TX,NA,NA,42.90780141843972
76108,Tarrant County,TX,17.582417582417584,NA,NA
76109,Tarrant County,TX,57.87545787545788,NA,NA
76119,Tarrant County,TX,0.3663003663003663,NA,NA
76137,Tarrant County,TX,NA,21.26436781609195,NA
76234,Wise County,TX,NA,NA,58.86524822695035
76247,Denton County,TX,NA,78.04597701149424,NA
76458,Jack County,TX,90.47619047619048,NA,NA
76504,Bell County,TX,19.78021978021978,NA,NA
76543,Bell County,TX,NA,73.79310344827587,NA
76667,Limestone County,TX,NA,79.54022988505747,NA
77008,Harris County,TX,NA,92.98850574712644,NA
77023,Harris County,TX,NA,NA,68.08510638297872
77027,Harris County,TX,NA,95.86206896551724,NA
77035,Harris County,TX,NA,41.03448275862069,NA
77041,Harris County,TX,NA,60,NA
77061,Harris County,TX,NA,70,NA
77076,Harris County,TX,NA,NA,68.79432624113475
77085,Harris County,TX,NA,NA,82.97872340425532
77090,Harris County,TX,NA,28.39080459770115,NA
77092,Harris County,TX,65.93406593406593,55.05747126436782,NA
77304,Montgomery County,TX,NA,NA,52.4822695035461
77373,Harris County,TX,NA,60.80459770114942,NA
77375,Harris County,TX,NA,53.67816091954023,NA
77379,Harris County,TX,27.472527472527474,NA,42.5531914893617
77385,Montgomery County,TX,NA,81.03448275862068,NA
77396,Harris County,TX,NA,67.35632183908045,NA
77433,Harris County,TX,NA,40.45977011494253,NA
77441,Fort Bend County,TX,NA,NA,82.26950354609929
77449,Harris County,TX,NA,11.839080459770116,NA
77450,Harris County,TX,NA,NA,19.858156028368796
77471,Fort Bend County,TX,NA,38.160919540229884,NA
77477,Fort Bend County,TX,NA,86.20689655172413,NA
77479,Fort Bend County,TX,NA,NA,53.54609929078015
77493,Harris County,TX,NA,60.45977011494252,NA
77494,Fort Bend County,TX,NA,17.126436781609193,NA
77498,Fort Bend County,TX,NA,53.2183908045977,NA
77511,Brazoria County,TX,NA,45.17241379310345,NA
77546,Galveston County,TX,76.19047619047619,NA,83.68794326241135
77573,Galveston County,TX,NA,NA,62.056737588652474
77584,Brazoria County,TX,NA,11.149425287356323,NA
77619,Jefferson County,TX,NA,NA,80.85106382978722
77701,Jefferson County,TX,NA,NA,69.14893617021278
77833,Washington County,TX,NA,NA,31.914893617021278
77904,Victoria County,TX,73.26007326007326,NA,NA
78023,Bexar County,TX,NA,85.86206896551725,NA
78130,Comal County,TX,NA,22.988505747126435,NA
78155,Guadalupe County,TX,NA,NA,35.1063829787234
78207,Bexar County,TX,NA,NA,15.24822695035461
78227,Bexar County,TX,NA,NA,50.35460992907801
78237,Bexar County,TX,NA,NA,57.801418439716315
78410,Nueces County,TX,49.81684981684982,NA,NA
78539,Hidalgo County,TX,NA,58.73563218390805,NA
78572,Hidalgo County,TX,NA,18.96551724137931,NA
78639,Llano County,TX,76.55677655677655,NA,NA
78643,Llano County,TX,NA,93.5632183908046,NA
78660,Travis County,TX,36.63003663003663,NA,NA
78705,Travis County,TX,NA,96.55172413793103,NA
79413,Lubbock County,TX,NA,96.20689655172414,NA
79416,Lubbock County,TX,NA,NA,54.25531914893617
79602,Taylor County,TX,NA,58.04597701149425,NA
79765,Ector County,TX,NA,84.71264367816092,NA
79772,Reeves County,TX,NA,75.05747126436782,NA
79830,Brewster County,TX,89.74358974358975,NA,NA
79924,El Paso County,TX,NA,NA,32.97872340425532
84003,Utah County,UT,NA,NA,60.99290780141844
84009,Salt Lake County,UT,NA,76.55172413793103,NA
84036,Summit County,UT,77.2893772893773,NA,NA
84074,Tooele County,UT,NA,5.172413793103448,NA
84075,Davis County,UT,NA,68.96551724137932,NA
84078,Uintah County,UT,NA,NA,39.71631205673759
84081,Salt Lake County,UT,NA,82.18390804597702,NA
84096,Salt Lake County,UT,NA,26.436781609195403,NA
84104,Salt Lake County,UT,NA,NA,93.61702127659575
84106,Salt Lake County,UT,NA,35.51724137931034,NA
84107,Salt Lake County,UT,NA,40.229885057471265,NA
84302,Box Elder County,UT,NA,NA,90.78014184397163
84648,Juab County,UT,NA,88.50574712643679,NA
84660,Utah County,UT,27.83882783882784,NA,NA
05001,Windsor County,VT,NA,NA,87.2340425531915
05401,Chittenden County,VT,NA,49.08045977011494,NA
05404,Chittenden County,VT,NA,81.14942528735632,NA
05701,Rutland County,VT,NA,37.58620689655172,NA
05855,Orleans County,VT,NA,NA,79.7872340425532
20121,Fairfax County,VA,NA,64.36781609195403,NA
20136,Prince William County,VA,NA,84.25287356321839,NA
22031,Fairfax County,VA,NA,63.678160919540225,NA
22153,Fairfax County,VA,NA,57.81609195402299,NA
22201,Arlington County,VA,NA,80.45977011494253,NA
22203,Arlington County,VA,NA,71.03448275862068,NA
22302,Alexandria city,VA,NA,NA,70.56737588652481
22304,Alexandria city,VA,NA,14.942528735632186,NA
22406,Stafford County,VA,NA,79.3103448275862,NA
22603,Frederick County,VA,85.71428571428571,NA,NA
22630,Warren County,VA,NA,25.287356321839084,NA
22802,Harrisonburg city,VA,NA,24.137931034482758,NA
22851,Page County,VA,NA,80.80459770114943,NA
23231,Henrico County,VA,18.681318681318682,NA,NA
23325,Chesapeake city,VA,NA,71.83908045977012,NA
23453,Virginia Beach city,VA,NA,NA,39.361702127659576
23456,Virginia Beach city,VA,NA,57.24137931034483,NA
23462,Virginia Beach city,VA,NA,50.57471264367817,NA
23666,Hampton city,VA,22.71062271062271,NA,NA
23692,York County,VA,NA,88.96551724137932,NA
23832,Chesterfield County,VA,NA,44.252873563218394,NA
24073,Montgomery County,VA,NA,41.839080459770116,NA
24151,Franklin County,VA,41.75824175824176,44.36781609195402,NA
24293,Wise County,VA,NA,49.54022988505747,NA
24541,Danville city,VA,NA,34.94252873563218,NA
24630,Tazewell County,VA,NA,89.08045977011494,NA
98026,Snohomish County,WA,41.02564102564102,NA,NA
98031,King County,WA,NA,41.49425287356322,NA
98034,King County,WA,35.16483516483517,NA,NA
98051,King County,WA,95.6043956043956,NA,NA
98058,King County,WA,NA,63.44827586206897,NA
98059,King County,WA,NA,NA,33.687943262411345
98103,King County,WA,NA,NA,41.13475177304964
98107,King County,WA,NA,NA,96.80851063829788
98125,King County,WA,NA,68.85057471264368,NA
98146,King County,WA,NA,59.310344827586206,NA
98177,King County,WA,73.26007326007326,NA,NA
98221,Skagit County,WA,NA,61.49425287356321,NA
98225,Whatcom County,WA,60.43956043956044,NA,NA
98252,Snohomish County,WA,NA,NA,97.16312056737588
98261,San Juan County,WA,NA,NA,96.09929078014184
98270,Snohomish County,WA,NA,NA,36.17021276595745
98272,Snohomish County,WA,NA,56.7816091954023,NA
98294,Snohomish County,WA,NA,87.58620689655172,NA
98332,Pierce County,WA,64.46886446886447,NA,NA
98366,Kitsap County,WA,NA,24.482758620689655,NA
98382,Clallam County,WA,NA,85.0574712643678,NA
98467,Pierce County,WA,NA,91.49425287356323,NA
98513,Thurston County,WA,NA,70.45977011494253,NA
97003,NA,NA,NA,76.89655172413794,NA
98632,Cowlitz County,WA,NA,66.55172413793103,NA
98826,Chelan County,WA,NA,92.75862068965517,NA
98848,Grant County,WA,NA,87.1264367816092,NA
98901,Yakima County,WA,NA,53.9080459770115,NA
99019,Spokane County,WA,77.65567765567766,NA,NA
99156,Pend Oreille County,WA,NA,83.33333333333334,NA
99212,Spokane County,WA,80.21978021978022,NA,NA
99301,Franklin County,WA,NA,NA,9.574468085106384
25311,Kanawha County,WV,40.65934065934066,NA,NA
25801,Raleigh County,WV,NA,13.908045977011493,NA
26003,Ohio County,WV,NA,6.896551724137931,NA
26101,Wood County,WV,NA,6.206896551724138,NA
26155,Wetzel County,WV,NA,76.32183908045977,NA
26354,Taylor County,WV,NA,48.85057471264368,NA
26426,Harrison County,WV,NA,99.19540229885058,NA
26505,Monongalia County,WV,NA,54.02298850574713,NA
26508,Monongalia County,WV,2.197802197802198,NA,NA
26753,Mineral County,WV,NA,97.93103448275862,NA
53037,Washington County,WI,NA,96.89655172413794,NA
53066,Waukesha County,WI,NA,39.310344827586206,NA
53095,Washington County,WI,10.989010989010989,NA,NA
53104,Kenosha County,WI,NA,73.9080459770115,NA
53105,Racine County,WI,NA,44.827586206896555,NA
53122,Waukesha County,WI,NA,81.26436781609195,NA
53142,Kenosha County,WI,4.395604395604396,NA,NA
53147,Walworth County,WI,NA,71.60919540229885,NA
53151,Waukesha County,WI,24.175824175824175,39.6551724137931,NA
53205,Milwaukee County,WI,NA,3.4482758620689653,NA
53208,Milwaukee County,WI,11.72161172161172,NA,NA
53209,Milwaukee County,WI,NA,NA,1.773049645390071
53211,Milwaukee County,WI,NA,NA,25.53191489361702
53213,Milwaukee County,WI,NA,74.71264367816092,NA
53215,Milwaukee County,WI,NA,5.632183908045977,NA
53216,Milwaukee County,WI,NA,26.7816091954023,NA
53218,Milwaukee County,WI,NA,60.91954022988506,NA
53219,Milwaukee County,WI,7.6923076923076925,17.70114942528736,NA
53220,Milwaukee County,WI,30.036630036630036,NA,NA
53222,Milwaukee County,WI,NA,55.74712643678161,NA
53511,Rock County,WI,NA,1.7241379310344827,NA
53523,Dane County,WI,NA,NA,92.5531914893617
53534,Rock County,WI,NA,NA,52.12765957446809
53549,Jefferson County,WI,75.82417582417582,70.57471264367817,NA
53562,Dane County,WI,NA,NA,30.141843971631204
53590,Dane County,WI,8.791208791208792,NA,NA
53703,Dane County,WI,NA,90.3448275862069,NA
53704,Dane County,WI,NA,74.36781609195403,NA
53711,Dane County,WI,NA,32.298850574712645,NA
54005,Polk County,WI,NA,97.47126436781609,NA
54114,Marinette County,WI,98.9010989010989,NA,NA
54303,Brown County,WI,NA,44.59770114942529,NA
54313,Brown County,WI,NA,59.54022988505747,38.652482269503544
54403,Marathon County,WI,NA,NA,35.46099290780142
54601,La Crosse County,WI,NA,NA,12.76595744680851
54612,Trempealeau County,WI,NA,92.52873563218391,NA
54615,Jackson County,WI,NA,84.94252873563218,NA
54703,Eau Claire County,WI,NA,52.98850574712644,NA
54880,Douglas County,WI,NA,15.172413793103448,NA
54901,Winnebago County,WI,54.94505494505495,26.666666666666668,NA
54913,Outagamie County,WI,NA,80.22988505747126,NA
82435,Park County,WY,NA,81.37931034482759,NA
82633,Converse County,WY,48.35164835164835,NA,NA
