ZipCode,county,state,Adult,Retirement,Geriatric
35640,Morgan County,AL,NA,NA,52.98245614035088
35758,Madison County,AL,NA,38.266384778012686,NA
35960,Cherokee County,AL,NA,NA,90.17543859649123
36054,Elmore County,AL,NA,NA,87.01754385964912
36109,Montgomery County,AL,NA,NA,48.07017543859649
36207,Calhoun County,AL,NA,86.04651162790698,NA
99504,Anchorage Municipality,AK,26.83982683982684,NA,NA
99508,Anchorage Municipality,AK,19.047619047619047,NA,NA
85008,Maricopa County,AZ,NA,24.312896405919663,NA
85013,Maricopa County,AZ,NA,NA,78.24561403508771
85027,Maricopa County,AZ,49.78354978354979,NA,NA
85048,Maricopa County,AZ,NA,63.424947145877375,NA
85050,Maricopa County,AZ,NA,83.08668076109936,NA
85140,Pinal County,AZ,41.55844155844156,NA,NA
85250,Maricopa County,AZ,NA,86.68076109936575,NA
85301,Maricopa County,AZ,6.926406926406926,NA,30.526315789473685
85345,Maricopa County,AZ,NA,NA,39.29824561403509
85349,Yuma County,AZ,40.25974025974026,NA,NA
85374,Maricopa County,AZ,NA,NA,5.614035087719298
85635,Cochise County,AZ,NA,NA,36.49122807017544
85653,Pima County,AZ,NA,35.30655391120507,NA
85712,Pima County,AZ,62.77056277056276,NA,NA
86025,Navajo County,AZ,NA,92.60042283298098,NA
86303,Yavapai County,AZ,NA,44.397463002114165,NA
86326,Yavapai County,AZ,27.705627705627705,NA,NA
86406,Mohave County,AZ,NA,25.792811839323466,NA
71601,Jefferson County,AR,NA,NA,81.05263157894737
72010,White County,AR,NA,93.86892177589851,NA
72118,Pulaski County,AR,NA,60.676532769556026,NA
72206,Pulaski County,AR,NA,28.118393234672308,NA
72315,Mississippi County,AR,NA,48.625792811839325,NA
72560,Stone County,AR,NA,60.25369978858352,NA
72601,Boone County,AR,NA,66.59619450317125,NA
72714,Benton County,AR,NA,NA,66.66666666666666
72744,Washington County,AR,NA,NA,98.24561403508771
72764,Washington County,AR,NA,56.236786469344615,NA
72801,Pope County,AR,NA,87.9492600422833,NA
72949,Franklin County,AR,NA,NA,80.35087719298247
72956,Crawford County,AR,NA,27.27272727272727,NA
90003,Los Angeles County,CA,NA,37.84355179704017,NA
90005,Los Angeles County,CA,NA,NA,74.3859649122807
90039,Los Angeles County,CA,NA,79.70401691331924,NA
90056,Los Angeles County,CA,NA,97.25158562367865,NA
90059,Los Angeles County,CA,NA,NA,70.87719298245614
90062,Los Angeles County,CA,NA,NA,57.19298245614035
90063,Los Angeles County,CA,NA,46.088794926004226,NA
90069,Los Angeles County,CA,93.93939393939394,NA,NA
90232,Los Angeles County,CA,NA,NA,91.9298245614035
90248,Los Angeles County,CA,NA,NA,95.78947368421052
90262,Los Angeles County,CA,NA,53.911205073995774,NA
90304,Los Angeles County,CA,97.83549783549783,NA,NA
90601,Los Angeles County,CA,NA,88.37209302325581,NA
90805,Los Angeles County,CA,18.614718614718615,NA,NA
91001,Los Angeles County,CA,67.53246753246754,NA,NA
91205,Los Angeles County,CA,79.22077922077922,NA,NA
91214,Los Angeles County,CA,NA,77.3784355179704,NA
91304,Los Angeles County,CA,NA,52.85412262156448,NA
91331,Los Angeles County,CA,NA,NA,35.78947368421053
91343,Los Angeles County,CA,NA,48.41437632135307,NA
91354,Los Angeles County,CA,NA,81.18393234672304,NA
91740,Los Angeles County,CA,NA,54.12262156448203,NA
91748,Los Angeles County,CA,NA,NA,37.54385964912281
91764,San Bernardino County,CA,43.722943722943725,NA,NA
91776,Los Angeles County,CA,NA,92.38900634249472,NA
91910,San Diego County,CA,NA,NA,11.929824561403509
91911,San Diego County,CA,65.36796536796537,NA,NA
91945,San Diego County,CA,70.12987012987013,NA,NA
92057,San Diego County,CA,66.23376623376623,NA,NA
92071,San Diego County,CA,29.43722943722944,NA,NA
92078,San Diego County,CA,NA,49.471458773784356,NA
92103,San Diego County,CA,NA,48.837209302325576,NA
92111,San Diego County,CA,63.20346320346321,NA,NA
92120,San Diego County,CA,NA,NA,53.333333333333336
92127,San Diego County,CA,77.92207792207793,NA,NA
92129,San Diego County,CA,NA,49.2600422832981,NA
92154,San Diego County,CA,NA,20.718816067653275,NA
92307,San Bernardino County,CA,34.1991341991342,NA,NA
92346,San Bernardino County,CA,32.467532467532465,NA,NA
92395,San Bernardino County,CA,33.33333333333333,NA,NA
92503,Riverside County,CA,NA,75.8985200845666,NA
92509,Riverside County,CA,NA,NA,80.7017543859649
92553,Riverside County,CA,NA,NA,44.21052631578947
92557,Riverside County,CA,NA,NA,71.2280701754386
92570,Riverside County,CA,NA,46.723044397463006,NA
92595,Riverside County,CA,47.18614718614719,NA,NA
92629,Orange County,CA,NA,41.2262156448203,NA
92630,Orange County,CA,NA,NA,31.2280701754386
92647,Orange County,CA,NA,NA,16.49122807017544
92656,Orange County,CA,76.19047619047619,NA,NA
92708,Orange County,CA,NA,14.799154334038056,NA
92806,Orange County,CA,NA,NA,43.50877192982456
92866,Orange County,CA,NA,NA,81.40350877192982
92879,Riverside County,CA,NA,56.65961945031712,NA
93004,Ventura County,CA,NA,NA,56.49122807017544
93022,Ventura County,CA,NA,91.33192389006342,NA
93221,Tulare County,CA,NA,NA,89.82456140350877
93257,Tulare County,CA,12.987012987012985,NA,NA
93291,Tulare County,CA,NA,35.095137420718814,NA
93422,San Luis Obispo County,CA,NA,79.06976744186046,NA
93436,Santa Barbara County,CA,NA,NA,15.087719298245613
93534,Los Angeles County,CA,NA,36.99788583509514,NA
93550,Los Angeles County,CA,NA,47.14587737843552,NA
93614,Madera County,CA,NA,81.3953488372093,NA
93930,Monterey County,CA,NA,NA,98.59649122807016
93933,Monterey County,CA,NA,NA,72.63157894736842
94063,San Mateo County,CA,50.649350649350644,NA,NA
94087,Santa Clara County,CA,NA,NA,25.964912280701753
94112,San Francisco County,CA,NA,31.289640591966172,NA
94134,San Francisco County,CA,NA,26.849894291754755,NA
94301,Santa Clara County,CA,NA,NA,68.77192982456141
94533,Solano County,CA,NA,24.735729386892178,NA
94536,Alameda County,CA,36.36363636363637,NA,NA
94587,Alameda County,CA,42.857142857142854,NA,15.087719298245613
94904,Marin County,CA,98.26839826839827,NA,NA
95111,Santa Clara County,CA,NA,NA,41.05263157894737
95112,Santa Clara County,CA,93.5064935064935,NA,NA
95121,Santa Clara County,CA,NA,56.87103594080338,NA
95307,Stanislaus County,CA,37.22943722943723,NA,NA
95341,Merced County,CA,NA,76.95560253699789,NA
95356,Stanislaus County,CA,48.484848484848484,NA,NA
95367,Stanislaus County,CA,NA,78.22410147991543,NA
95482,Mendocino County,CA,44.15584415584416,NA,NA
95540,Humboldt County,CA,NA,NA,58.59649122807018
95616,Yolo County,CA,NA,NA,81.75438596491227
95632,Sacramento County,CA,NA,42.706131078224104,NA
95687,Solano County,CA,NA,22.621564482029598,NA
95823,Sacramento County,CA,12.554112554112553,NA,NA
95824,Sacramento County,CA,64.5021645021645,NA,NA
95826,Sacramento County,CA,NA,56.02536997885835,NA
95831,Sacramento County,CA,67.09956709956711,NA,NA
95991,Sutter County,CA,74.02597402597402,NA,NA
96097,Siskiyou County,CA,NA,58.56236786469344,NA
96143,Placer County,CA,NA,99.78858350951374,NA
80015,Arapahoe County,CO,NA,21.987315010570825,NA
80106,El Paso County,CO,NA,99.15433403805497,NA
80134,Douglas County,CO,NA,NA,62.807017543859644
80526,Larimer County,CO,NA,NA,77.54385964912281
80631,Weld County,CO,NA,25.36997885835095,NA
81005,Pueblo County,CO,NA,23.890063424947147,NA
81650,Garfield County,CO,NA,92.81183932346723,NA
06002,Hartford County,CT,NA,NA,36.140350877192986
06111,Hartford County,CT,NA,43.76321353065539,NA
06413,Middlesex County,CT,NA,NA,49.122807017543856
06443,New Haven County,CT,91.34199134199135,NA,NA
06484,Fairfield County,CT,42.42424242424242,NA,18.24561403508772
06708,New Haven County,CT,NA,33.61522198731501,NA
06790,Litchfield County,CT,NA,NA,5.964912280701754
19713,New Castle County,DE,NA,28.541226215644823,NA
19801,New Castle County,DE,NA,88.58350951374207,NA
19939,Sussex County,DE,NA,80.97251585623678,NA
19947,Sussex County,DE,51.94805194805194,NA,NA
32034,Nassau County,FL,NA,7.6109936575052854,NA
32091,Bradford County,FL,80.95238095238095,NA,NA
32092,St. Johns County,FL,NA,40.169133192389005,65.26315789473685
32097,Nassau County,FL,65.80086580086581,NA,NA
32148,Putnam County,FL,84.84848484848484,NA,NA
32162,Sumter County,FL,NA,NA,1.7543859649122806
32164,Flagler County,FL,40.692640692640694,NA,NA
32409,Bay County,FL,NA,68.92177589852008,NA
32431,Jackson County,FL,NA,85.41226215644821,NA
32550,Walton County,FL,NA,NA,67.36842105263158
32578,Okaloosa County,FL,61.038961038961034,NA,NA
32714,Seminole County,FL,NA,87.73784355179704,NA
32720,Volusia County,FL,68.83116883116884,NA,NA
32751,Orange County,FL,NA,53.276955602537,NA
32754,Brevard County,FL,NA,75.47568710359408,NA
32757,Lake County,FL,64.5021645021645,NA,NA
32784,Lake County,FL,NA,65.75052854122622,NA
32922,Brevard County,FL,NA,NA,60
32926,Brevard County,FL,NA,45.87737843551797,NA
32935,Brevard County,FL,NA,43.97463002114165,NA
32968,Indian River County,FL,86.14718614718615,NA,NA
33012,Miami-Dade County,FL,NA,23.46723044397463,NA
33029,Broward County,FL,NA,NA,53.68421052631579
33031,Miami-Dade County,FL,NA,NA,96.84210526315789
33055,Miami-Dade County,FL,NA,59.830866807610995,20.350877192982455
33060,Broward County,FL,NA,52.00845665961945,NA
33133,Miami-Dade County,FL,83.54978354978356,NA,NA
33135,Miami-Dade County,FL,NA,72.51585623678648,NA
33142,Miami-Dade County,FL,20.77922077922078,NA,NA
33155,Miami-Dade County,FL,NA,NA,13.684210526315791
33157,Miami-Dade County,FL,NA,NA,23.157894736842106
33160,Miami-Dade County,FL,NA,NA,98.94736842105263
33168,Miami-Dade County,FL,NA,72.72727272727273,NA
33179,Miami-Dade County,FL,NA,63.213530655391125,NA
33184,Miami-Dade County,FL,NA,NA,85.26315789473684
33313,Broward County,FL,NA,41.43763213530655,NA
33411,Palm Beach County,FL,45.02164502164502,NA,NA
33414,Palm Beach County,FL,NA,93.65750528541226,NA
33415,Palm Beach County,FL,50.21645021645021,NA,NA
33434,Palm Beach County,FL,NA,39.323467230443974,NA
33441,Broward County,FL,NA,NA,44.91228070175438
33460,Palm Beach County,FL,52.81385281385281,NA,NA
33461,Palm Beach County,FL,NA,84.35517970401692,56.84210526315789
33467,Palm Beach County,FL,NA,24.52431289640592,NA
33570,Hillsborough County,FL,NA,54.96828752642706,NA
33579,Hillsborough County,FL,NA,79.49260042283298,NA
33598,Hillsborough County,FL,NA,70.19027484143763,NA
33602,Hillsborough County,FL,NA,NA,92.28070175438596
33635,Hillsborough County,FL,NA,67.01902748414376,NA
33701,Pinellas County,FL,53.67965367965368,NA,NA
33708,Pinellas County,FL,NA,62.579281183932345,NA
33714,Pinellas County,FL,NA,89.64059196617336,NA
33801,Polk County,FL,NA,42.49471458773784,NA
33876,Highlands County,FL,NA,90.69767441860465,85.6140350877193
33901,Lee County,FL,60.60606060606061,NA,NA
33908,Lee County,FL,NA,4.651162790697675,NA
33917,Lee County,FL,NA,18.816067653276956,NA
33967,Lee County,FL,NA,NA,82.80701754385966
33981,Charlotte County,FL,94.37229437229438,NA,NA
34223,Sarasota County,FL,NA,55.391120507399584,NA
34236,Sarasota County,FL,NA,NA,18.947368421052634
34429,Citrus County,FL,NA,87.52642706131078,NA
34472,Marion County,FL,NA,53.48837209302325,NA
34476,Marion County,FL,NA,37.420718816067655,NA
34684,Pinellas County,FL,NA,11.839323467230443,NA
34744,Osceola County,FL,32.900432900432904,NA,NA
34952,St. Lucie County,FL,28.57142857142857,NA,NA
34953,St. Lucie County,FL,8.658008658008658,5.07399577167019,NA
30004,Fulton County,GA,NA,34.24947145877378,NA
30024,Gwinnett County,GA,25.97402597402597,NA,NA
30044,Gwinnett County,GA,NA,14.16490486257928,NA
30045,Gwinnett County,GA,NA,73.15010570824523,NA
30062,Cobb County,GA,NA,NA,29.82456140350877
30067,Cobb County,GA,NA,67.23044397463002,NA
30075,Fulton County,GA,NA,NA,44.56140350877193
30080,Cobb County,GA,60.17316017316018,NA,NA
30096,Gwinnett County,GA,32.03463203463203,NA,NA
30116,Carroll County,GA,54.112554112554115,NA,NA
30134,Douglas County,GA,NA,82.66384778012686,NA
30141,Paulding County,GA,NA,69.3446088794926,NA
30161,Floyd County,GA,NA,21.775898520084567,NA
30179,Carroll County,GA,NA,64.90486257928119,NA
30215,Fayette County,GA,73.16017316017316,NA,NA
30223,Spalding County,GA,NA,34.6723044397463,NA
30306,Fulton County,GA,NA,73.99577167019028,NA
30319,DeKalb County,GA,NA,NA,28.421052631578945
30341,DeKalb County,GA,78.78787878787878,NA,NA
30527,Hall County,GA,99.56709956709958,NA,NA
30554,Hall County,GA,NA,93.23467230443974,NA
30705,Murray County,GA,NA,40.59196617336152,NA
30736,Catoosa County,GA,12.121212121212121,NA,48.421052631578945
30809,Columbia County,GA,NA,11.20507399577167,NA
30815,Richmond County,GA,NA,97.04016913319239,NA
31404,Chatham County,GA,NA,NA,47.719298245614034
31513,Appling County,GA,NA,70.82452431289641,NA
31707,Dougherty County,GA,NA,NA,51.92982456140351
31788,Colquitt County,GA,NA,78.43551797040169,NA
31904,Muscogee County,GA,NA,NA,17.192982456140353
96707,Honolulu County,HI,NA,65.96194503171247,NA
96740,Hawaii County,HI,72.2943722943723,NA,NA
96744,Honolulu County,HI,NA,NA,3.508771929824561
96818,Honolulu County,HI,NA,31.92389006342495,NA
96821,Honolulu County,HI,NA,NA,17.543859649122805
83301,Twin Falls County,ID,5.194805194805195,NA,NA
83330,Gooding County,ID,NA,82.4524312896406,NA
83501,Nez Perce County,ID,15.151515151515152,NA,NA
83714,Ada County,ID,NA,13.742071881606766,NA
60004,Cook County,IL,NA,8.668076109936575,NA
60008,Cook County,IL,NA,NA,49.824561403508774
60016,Cook County,IL,NA,NA,7.017543859649122
60018,Cook County,IL,NA,72.09302325581395,NA
60025,Cook County,IL,NA,4.0169133192389,NA
60041,Lake County,IL,NA,75.05285412262155,NA
60056,Cook County,IL,45.45454545454545,NA,NA
60062,Cook County,IL,45.887445887445885,NA,NA
60067,Cook County,IL,NA,NA,50.877192982456144
60077,Cook County,IL,88.74458874458875,NA,NA
60090,Cook County,IL,NA,NA,18.596491228070175
60131,Cook County,IL,80.51948051948052,NA,NA
60133,Cook County,IL,NA,50.10570824524313,NA
60304,Cook County,IL,NA,NA,97.54385964912281
60402,Cook County,IL,NA,8.0338266384778,NA
60404,Will County,IL,NA,42.071881606765324,NA
60409,Cook County,IL,NA,30.655391120507396,NA
60417,Will County,IL,NA,35.72938689217759,NA
60430,Cook County,IL,NA,50.7399577167019,NA
60538,Kendall County,IL,69.6969696969697,NA,NA
60611,Cook County,IL,NA,NA,11.578947368421053
60626,Cook County,IL,NA,5.9196617336152215,NA
60631,Cook County,IL,36.79653679653679,NA,NA
60632,Cook County,IL,NA,27.906976744186046,NA
60634,Cook County,IL,NA,6.976744186046512,NA
60638,Cook County,IL,11.255411255411255,NA,NA
60641,Cook County,IL,NA,15.644820295983086,NA
60644,Cook County,IL,9.956709956709958,11.416490486257928,NA
60645,Cook County,IL,NA,NA,21.403508771929825
60646,Cook County,IL,56.709956709956714,NA,27.368421052631582
60657,Cook County,IL,NA,84.98942917547568,NA
60714,Cook County,IL,82.25108225108225,39.95771670190275,NA
60914,Kankakee County,IL,39.39393939393939,NA,NA
61701,McLean County,IL,NA,27.48414376321353,NA
61748,McLean County,IL,98.7012987012987,NA,NA
61822,Champaign County,IL,NA,NA,22.45614035087719
62201,St. Clair County,IL,NA,99.36575052854123,NA
62220,St. Clair County,IL,NA,NA,79.2982456140351
62301,Adams County,IL,39.82683982683983,NA,NA
62420,Clark County,IL,NA,NA,96.14035087719299
62801,Marion County,IL,NA,27.695560253699792,NA
62959,Williamson County,IL,NA,17.33615221987315,NA
46052,Boone County,IN,NA,NA,47.368421052631575
46123,Hendricks County,IN,NA,NA,34.73684210526316
46176,Shelby County,IN,NA,10.359408033826638,NA
46227,Marion County,IN,NA,NA,4.2105263157894735
46307,Lake County,IN,3.0303030303030303,NA,NA
46383,Porter County,IN,NA,NA,14.385964912280702
46403,Lake County,IN,NA,NA,73.68421052631578
46404,Lake County,IN,NA,52.43128964059197,NA
46514,Elkhart County,IN,NA,22.832980972515855,NA
46545,St. Joseph County,IN,NA,68.28752642706131,NA
46774,Allen County,IN,NA,96.40591966173362,NA
46902,Howard County,IN,NA,2.9598308668076108,NA
47129,Clark County,IN,NA,80.76109936575054,NA
47842,Vermillion County,IN,NA,NA,87.71929824561403
47882,Sullivan County,IN,NA,78.01268498942918,NA
50315,Polk County,IA,NA,NA,43.859649122807014
50461,Mitchell County,IA,NA,86.68076109936575,NA
50501,Webster County,IA,NA,NA,28.771929824561404
51401,Carroll County,IA,NA,NA,61.75438596491228
52317,Johnson County,IA,NA,73.36152219873149,NA
52402,Linn County,IA,21.645021645021643,NA,NA
66109,Wyandotte County,KS,NA,NA,33.68421052631579
66203,Johnson County,KS,NA,68.49894291754757,NA
66206,Johnson County,KS,NA,81.81818181818183,NA
67114,Harvey County,KS,NA,94.5031712473573,NA
67204,Sedgwick County,KS,NA,67.8646934460888,NA
67216,Sedgwick County,KS,NA,89.4291754756871,NA
40031,Oldham County,KY,38.52813852813853,NA,NA
40033,Marion County,KY,NA,67.65327695560254,NA
40165,Bullitt County,KY,14.285714285714285,NA,NA
40207,Jefferson County,KY,NA,NA,38.59649122807017
40216,Jefferson County,KY,NA,NA,12.631578947368421
40218,Jefferson County,KY,13.852813852813853,72.93868921775899,NA
40312,Powell County,KY,NA,83.93234672304439,NA
40390,Jessamine County,KY,NA,NA,93.33333333333333
40391,Clark County,KY,NA,10.993657505285412,NA
40475,Madison County,KY,NA,9.30232558139535,22.105263157894736
40502,Fayette County,KY,NA,53.06553911205074,NA
40515,Fayette County,KY,NA,NA,84.91228070175438
40701,Whitley County,KY,NA,46.30021141649049,NA
40744,Laurel County,KY,NA,55.17970401691332,NA
40759,Whitley County,KY,NA,98.94291754756871,NA
41001,Campbell County,KY,90.04329004329004,NA,NA
41017,Kenton County,KY,NA,20.930232558139537,NA
41071,Campbell County,KY,NA,32.1353065539112,NA
41101,Boyd County,KY,NA,18.39323467230444,NA
41175,Greenup County,KY,NA,87.10359408033827,NA
42003,McCracken County,KY,NA,NA,34.03508771929825
42501,Pulaski County,KY,NA,59.19661733615222,NA
42503,Pulaski County,KY,NA,57.082452431289646,NA
42539,Casey County,KY,NA,72.3044397463002,NA
42567,Pulaski County,KY,89.6103896103896,NA,NA
42633,Wayne County,KY,NA,34.038054968287526,NA
70003,Jefferson Parish,LA,NA,2.536997885835095,NA
70072,Jefferson Parish,LA,NA,1.9027484143763214,NA
70118,Orleans Parish,LA,NA,18.6046511627907,NA
70345,Lafourche Parish,LA,NA,46.93446088794926,NA
70394,Lafourche Parish,LA,NA,NA,72.98245614035088
70431,St. Tammany Parish,LA,83.11688311688312,NA,NA
70435,St. Tammany Parish,LA,NA,17.12473572938689,NA
70458,St. Tammany Parish,LA,NA,NA,10.526315789473683
70503,Lafayette Parish,LA,NA,25.158562367864697,NA
70810,East Baton Rouge Parish,LA,NA,26.42706131078224,NA
70817,East Baton Rouge Parish,LA,NA,15.010570824524313,NA
71115,Caddo Parish,LA,NA,94.29175475687104,NA
71220,Morehouse Parish,LA,NA,43.97463002114165,NA
04062,Cumberland County,ME,NA,NA,79.64912280701755
04240,Androscoggin County,ME,NA,NA,1.0526315789473684
04756,Aroostook County,ME,NA,NA,65.6140350877193
20850,Montgomery County,MD,NA,NA,57.54385964912281
21029,Howard County,MD,NA,97.67441860465115,NA
21093,Baltimore County,MD,NA,NA,8.421052631578947
21208,Baltimore County,MD,NA,NA,48.771929824561404
21218,Baltimore city,MD,11.688311688311687,NA,NA
21223,Baltimore city,MD,NA,NA,74.03508771929825
21228,Baltimore County,MD,58.44155844155844,NA,NA
21230,Baltimore city,MD,NA,51.79704016913319,NA
21403,Anne Arundel County,MD,NA,NA,68.0701754385965
01001,Hampden County,MA,NA,20.084566596194502,NA
01060,Hampshire County,MA,NA,48.837209302325576,NA
01062,Hampshire County,MA,81.38528138528139,NA,NA
01085,Hampden County,MA,NA,NA,6.666666666666667
01230,Berkshire County,MA,NA,NA,89.12280701754386
01238,Berkshire County,MA,NA,NA,83.85964912280703
01420,Worcester County,MA,84.4155844155844,NA,NA
01430,Worcester County,MA,99.13419913419914,NA,NA
01473,Worcester County,MA,NA,42.917547568710354,NA
01562,Worcester County,MA,71.42857142857143,NA,NA
01830,Essex County,MA,NA,5.2854122621564485,NA
01841,Essex County,MA,NA,NA,2.807017543859649
01845,Essex County,MA,NA,NA,24.210526315789473
01880,Middlesex County,MA,NA,30.866807610993657,13.333333333333334
01902,Essex County,MA,NA,0.21141649048625794,NA
02019,Norfolk County,MA,NA,NA,41.75438596491228
02124,Suffolk County,MA,NA,86.4693446088795,NA
02127,Suffolk County,MA,1.7316017316017316,6.342494714587738,NA
02131,Suffolk County,MA,2.1645021645021645,NA,NA
02132,Suffolk County,MA,NA,32.98097251585624,NA
02135,Suffolk County,MA,NA,8.24524312896406,NA
02149,Middlesex County,MA,NA,91.75475687103594,NA
02150,Suffolk County,MA,NA,10.570824524312897,NA
02151,Suffolk County,MA,NA,NA,0.3508771929824561
02152,Suffolk County,MA,NA,6.13107822410148,NA
02301,Plymouth County,MA,NA,1.6913319238900635,NA
02302,Plymouth County,MA,NA,1.4799154334038054,NA
02324,Plymouth County,MA,NA,NA,54.385964912280706
02339,Plymouth County,MA,NA,66.17336152219873,NA
02360,Plymouth County,MA,0.4329004329004329,NA,NA
02375,Bristol County,MA,NA,85.20084566596195,NA
02459,Middlesex County,MA,NA,NA,99.64912280701755
02466,Middlesex County,MA,NA,NA,64.21052631578948
02540,Barnstable County,MA,NA,NA,36.84210526315789
02601,Barnstable County,MA,94.8051948051948,NA,NA
02642,Barnstable County,MA,NA,80.12684989429175,NA
02648,Barnstable County,MA,NA,NA,63.859649122807014
02766,Bristol County,MA,19.913419913419915,NA,NA
48015,Macomb County,MI,NA,54.33403805496829,NA
48035,Macomb County,MI,NA,NA,40.70175438596491
48038,Macomb County,MI,NA,3.8054968287526427,NA
48044,Macomb County,MI,NA,4.862579281183932,NA
48071,Oakland County,MI,30.303030303030305,NA,NA
48080,Macomb County,MI,NA,12.473572938689218,NA
48091,Macomb County,MI,NA,15.433403805496829,NA
48111,Wayne County,MI,NA,NA,28.07017543859649
48130,Washtenaw County,MI,NA,36.36363636363637,NA
48195,Wayne County,MI,NA,8.456659619450317,NA
48197,Washtenaw County,MI,NA,1.2684989429175475,NA
48204,Wayne County,MI,NA,NA,32.98245614035088
48207,Wayne County,MI,NA,33.192389006342495,NA
48227,Wayne County,MI,NA,34.883720930232556,NA
48235,Wayne County,MI,3.463203463203463,NA,NA
48240,Wayne County,MI,NA,56.448202959830866,NA
48306,Oakland County,MI,51.082251082251084,NA,NA
48322,Oakland County,MI,NA,NA,3.8596491228070176
48375,Oakland County,MI,NA,NA,55.08771929824562
48381,Oakland County,MI,NA,54.54545454545454,NA
48446,Lapeer County,MI,16.017316017316016,NA,NA
48602,Saginaw County,MI,NA,NA,42.10526315789473
48640,Midland County,MI,NA,12.896405919661733,NA
48734,Saginaw County,MI,88.31168831168831,NA,NA
48750,Iosco County,MI,NA,NA,64.56140350877193
48864,Ingham County,MI,NA,NA,64.56140350877193
49038,Berrien County,MI,NA,NA,63.1578947368421
49107,Berrien County,MI,NA,78.8583509513742,NA
49285,Ingham County,MI,NA,79.28118393234672,NA
49304,Lake County,MI,NA,90.48625792811839,NA
49508,Kent County,MI,NA,NA,9.824561403508772
49646,Kalkaska County,MI,NA,NA,83.50877192982456
49685,Grand Traverse County,MI,NA,49.68287526427061,NA
49696,Grand Traverse County,MI,NA,NA,91.57894736842105
49783,Chippewa County,MI,24.242424242424242,NA,NA
49866,Marquette County,MI,67.96536796536796,NA,NA
55024,Dakota County,MN,NA,85.83509513742071,NA
55040,Isanti County,MN,NA,69.76744186046511,NA
55118,Dakota County,MN,NA,42.28329809725159,NA
55119,Ramsey County,MN,NA,29.809725158562365,NA
55303,Anoka County,MN,56.27705627705628,NA,NA
55304,Anoka County,MN,46.75324675324675,NA,NA
55347,Hennepin County,MN,NA,62.36786469344609,NA
55378,Scott County,MN,64.06926406926407,NA,NA
55423,Hennepin County,MN,23.376623376623375,NA,NA
55807,St. Louis County,MN,NA,83.72093023255815,NA
55901,Olmsted County,MN,NA,61.733615221987314,NA
55976,Olmsted County,MN,NA,90.06342494714588,NA
55987,Winona County,MN,NA,2.1141649048625792,NA
56001,Blue Earth County,MN,NA,69.13319238900634,NA
56013,Faribault County,MN,NA,NA,80
56031,Martin County,MN,NA,19.23890063424947,NA
56701,Pennington County,MN,22.51082251082251,NA,NA
38965,Yalobusha County,MS,NA,74.20718816067652,NA
39051,Leake County,MS,NA,61.52219873150106,NA
39090,Attala County,MS,92.20779220779221,NA,NA
39365,Neshoba County,MS,NA,NA,88.0701754385965
39482,Lamar County,MS,90.9090909090909,NA,NA
39577,Stone County,MS,NA,86.25792811839324,NA
39702,Lowndes County,MS,44.58874458874459,NA,NA
63021,St. Louis County,MO,NA,NA,8.070175438596491
63026,St. Louis County,MO,NA,10.782241014799155,NA
63033,St. Louis County,MO,17.316017316017316,NA,NA
63114,St. Louis County,MO,NA,28.752642706131077,NA
63118,St. Louis city,MO,NA,42.917547568710354,NA
63128,St. Louis County,MO,NA,NA,37.19298245614035
63129,St. Louis County,MO,NA,5.496828752642706,NA
63138,St. Louis County,MO,NA,NA,72.98245614035088
63139,St. Louis city,MO,NA,63.8477801268499,NA
63143,St. Louis County,MO,NA,93.44608879492601,NA
63146,St. Louis County,MO,NA,NA,6.315789473684211
63304,St. Charles County,MO,NA,13.107822410147993,NA
63379,Lincoln County,MO,NA,NA,37.89473684210527
63640,St. Francois County,MO,46.320346320346324,NA,NA
64012,Cass County,MO,NA,NA,40.35087719298245
64085,Ray County,MO,NA,NA,52.63157894736842
64114,Jackson County,MO,NA,NA,35.08771929824561
64506,Buchanan County,MO,21.21212121212121,NA,NA
64804,Jasper County,MO,NA,37.2093023255814,NA
64870,Jasper County,MO,52.38095238095239,NA,NA
65201,Boone County,MO,NA,61.733615221987314,NA
65351,Saline County,MO,NA,100,NA
68025,Dodge County,NE,NA,24.101479915433405,NA
68112,Douglas County,NE,87.01298701298701,NA,NA
68123,Sarpy County,NE,NA,45.66596194503171,NA
68131,Douglas County,NE,NA,NA,92.63157894736842
89108,Clark County,NV,NA,40.38054968287527,NA
89147,Clark County,NV,NA,NA,55.43859649122807
89406,Churchill County,NV,48.484848484848484,NA,NA
89431,Washoe County,NV,NA,39.53488372093023,26.666666666666668
89436,Washoe County,NV,NA,NA,46.31578947368421
89521,Washoe County,NV,NA,30.443974630021142,NA
03079,Rockingham County,NH,16.883116883116884,NA,NA
03246,Belknap County,NH,NA,NA,20.701754385964914
03275,Merrimack County,NH,NA,NA,68.42105263157895
03276,Merrimack County,NH,NA,82.02959830866807,NA
03281,Hillsborough County,NH,97.40259740259741,NA,NA
03874,Rockingham County,NH,83.98268398268398,NA,NA
07006,Essex County,NJ,70.56277056277057,NA,NA
07047,Hudson County,NJ,NA,0.6342494714587738,NA
07070,Bergen County,NJ,NA,NA,69.82456140350877
07081,Union County,NJ,NA,NA,70.52631578947368
07082,Morris County,NJ,NA,94.08033826638477,NA
07112,Essex County,NJ,19.480519480519483,NA,NA
07465,Passaic County,NJ,NA,76.10993657505286,NA
07481,Bergen County,NJ,NA,73.57293868921776,NA
07631,Bergen County,NJ,NA,23.678646934460886,NA
07860,Sussex County,NJ,NA,26.215644820295985,NA
07869,Morris County,NJ,NA,NA,59.29824561403508
08012,Camden County,NJ,8.225108225108226,NA,NA
08094,Gloucester County,NJ,NA,10.14799154334038,NA
08109,Camden County,NJ,NA,36.57505285412262,NA
08203,Atlantic County,NJ,NA,NA,51.2280701754386
08251,Cape May County,NJ,58.00865800865801,NA,NA
08361,Cumberland County,NJ,NA,NA,50.175438596491226
08540,Mercer County,NJ,NA,33.82663847780127,NA
08618,Mercer County,NJ,0.8658008658008658,NA,NA
08691,Mercer County,NJ,91.77489177489177,NA,NA
08759,Ocean County,NJ,NA,NA,0
08807,Somerset County,NJ,74.45887445887446,NA,NA
08872,Middlesex County,NJ,95.23809523809523,NA,NA
08884,Middlesex County,NJ,NA,NA,94.38596491228071
08902,Middlesex County,NJ,NA,74.20718816067652,NA
87107,Bernalillo County,NM,NA,85.62367864693447,NA
87108,Bernalillo County,NM,NA,4.439746300211417,NA
87109,Bernalillo County,NM,NA,14.376321353065538,NA
87114,Bernalillo County,NM,NA,13.31923890063425,NA
87410,San Juan County,NM,NA,70.19027484143763,NA
87505,Santa Fe County,NM,NA,NA,43.15789473684211
87506,Santa Fe County,NM,87.87878787878788,NA,NA
88005,Doa Ana County,NM,NA,38.90063424947146,NA
88101,Curry County,NM,41.125541125541126,NA,NA
10002,New York County,NY,5.627705627705628,NA,NA
10024,New York County,NY,NA,NA,4.56140350877193
10025,New York County,NY,NA,45.45454545454545,NA
10031,New York County,NY,NA,13.953488372093023,NA
10305,Richmond County,NY,NA,NA,32.98245614035088
10314,Richmond County,NY,NA,NA,5.263157894736842
10457,Bronx County,NY,NA,5.708245243128964,NA
10459,Bronx County,NY,NA,38.05496828752643,NA
10460,Bronx County,NY,NA,1.0570824524312896,NA
10462,Bronx County,NY,NA,47.56871035940804,NA
10463,Bronx County,NY,9.523809523809524,NA,NA
10466,Bronx County,NY,6.0606060606060606,NA,NA
10472,Bronx County,NY,NA,16.27906976744186,NA
10475,Bronx County,NY,28.13852813852814,NA,NA
10509,Putnam County,NY,NA,57.505285412262154,NA
10510,Westchester County,NY,NA,NA,70.17543859649122
10520,Westchester County,NY,NA,NA,65.96491228070175
10601,Westchester County,NY,NA,NA,82.45614035087719
10940,Orange County,NY,NA,NA,20
10950,Orange County,NY,NA,NA,92.98245614035088
10956,Rockland County,NY,NA,NA,90.87719298245615
11207,Kings County,NY,0,NA,NA
11212,Kings County,NY,1.2987012987012987,NA,NA
11220,Kings County,NY,20.346320346320347,26.004228329809724,NA
11222,Kings County,NY,NA,NA,72.28070175438597
11229,Kings County,NY,NA,19.027484143763214,NA
11230,Kings County,NY,NA,NA,34.385964912280706
11233,Kings County,NY,2.5974025974025974,NA,NA
11234,Kings County,NY,NA,43.551797040169134,17.894736842105264
11237,Kings County,NY,NA,13.530655391120508,NA
11364,Queens County,NY,NA,71.24735729386892,NA
11365,Queens County,NY,NA,76.53276955602537,NA
11373,Queens County,NY,NA,15.856236786469344,NA
11374,Queens County,NY,NA,NA,21.75438596491228
11378,Queens County,NY,75.32467532467533,NA,NA
11436,Queens County,NY,NA,NA,86.66666666666667
11566,Nassau County,NY,NA,NA,45.614035087719294
11590,Nassau County,NY,NA,NA,24.561403508771928
11706,Suffolk County,NY,NA,31.501057082452434,NA
11717,Suffolk County,NY,57.14285714285714,NA,NA
11722,Suffolk County,NY,NA,63.63636363636363,NA
11729,Suffolk County,NY,82.68398268398268,NA,NA
11735,Nassau County,NY,NA,60.46511627906976,NA
11741,Suffolk County,NY,NA,64.48202959830867,NA
11752,Suffolk County,NY,NA,NA,91.22807017543859
11791,Nassau County,NY,96.53679653679653,NA,NA
11797,Nassau County,NY,NA,96.61733615221986,NA
11946,Suffolk County,NY,NA,NA,63.1578947368421
12009,Albany County,NY,NA,NA,88.42105263157895
12065,Saratoga County,NY,NA,16.913319238900634,NA
12180,Rensselaer County,NY,NA,36.1522198731501,NA
12205,Albany County,NY,NA,NA,42.80701754385965
12413,Greene County,NY,NA,97.88583509513742,NA
12414,Greene County,NY,NA,71.03594080338267,NA
12524,Dutchess County,NY,NA,NA,84.21052631578947
13088,Onondaga County,NY,NA,47.35729386892177,NA
13210,Onondaga County,NY,NA,89.85200845665962,NA
13308,Oneida County,NY,NA,95.77167019027483,NA
13905,Broome County,NY,NA,NA,2.1052631578947367
14020,Genesee County,NY,NA,NA,27.017543859649123
14067,Niagara County,NY,NA,95.56025369978859,NA
14075,Erie County,NY,NA,30.23255813953488,NA
14111,Erie County,NY,NA,98.5200845665962,NA
14120,Niagara County,NY,6.493506493506493,NA,NA
14131,Niagara County,NY,NA,69.55602536997885,NA
14207,Erie County,NY,35.93073593073593,NA,NA
14208,Erie County,NY,NA,NA,93.6842105263158
14210,Erie County,NY,30.735930735930733,NA,NA
14217,Erie County,NY,29.87012987012987,NA,NA
14223,Erie County,NY,70.995670995671,NA,NA
14225,Erie County,NY,10.822510822510822,51.162790697674424,NA
14424,Ontario County,NY,NA,0.42283298097251587,NA
14432,Ontario County,NY,43.290043290043286,NA,NA
14450,Monroe County,NY,NA,0.8456659619450317,NA
14485,Livingston County,NY,85.71428571428571,NA,NA
14519,Wayne County,NY,NA,26.6384778012685,NA
14611,Monroe County,NY,NA,16.701902748414376,NA
14612,Monroe County,NY,NA,NA,32.631578947368425
14616,Monroe County,NY,4.329004329004329,NA,NA
14618,Monroe County,NY,NA,NA,16.140350877192983
14621,Monroe County,NY,NA,37.63213530655391,NA
14625,Monroe County,NY,53.246753246753244,NA,NA
14733,Chautauqua County,NY,NA,NA,94.73684210526315
14738,Chautauqua County,NY,NA,93.02325581395348,NA
14781,Chautauqua County,NY,NA,98.30866807610994,NA
14850,Tompkins County,NY,7.35930735930736,NA,NA
14870,Steuben County,NY,NA,66.8076109936575,NA
27051,Forsyth County,NC,NA,94.71458773784354,NA
27217,Alamance County,NC,NA,NA,9.473684210526317
27253,Alamance County,NC,17.74891774891775,NA,NA
27258,Alamance County,NC,NA,NA,94.03508771929825
27282,Guilford County,NC,NA,75.26427061310783,NA
27298,Randolph County,NC,NA,68.07610993657505,NA
27312,Chatham County,NC,74.89177489177489,NA,NA
27350,Randolph County,NC,NA,NA,85.96491228070175
27403,Guilford County,NC,NA,65.53911205073996,NA
27405,Guilford County,NC,NA,NA,23.50877192982456
27501,Harnett County,NC,58.87445887445888,NA,NA
27505,Harnett County,NC,90.47619047619048,NA,NA
27511,Wake County,NC,NA,29.175475687103592,NA
27530,Wayne County,NC,NA,20.29598308668076,NA
27560,Wake County,NC,NA,NA,90.52631578947368
27591,Wake County,NC,NA,55.81395348837209,NA
27870,Halifax County,NC,NA,28.32980972515856,NA
27874,Halifax County,NC,NA,95.34883720930233,NA
27944,Perquimans County,NC,NA,NA,62.10526315789474
28021,Gaston County,NC,61.038961038961034,NA,NA
28117,Iredell County,NC,35.064935064935064,NA,NA
28152,Cleveland County,NC,NA,NA,55.78947368421052
28207,Mecklenburg County,NC,100,NA,NA
28315,Moore County,NC,NA,76.95560253699789,NA
28429,New Hanover County,NC,NA,NA,96.49122807017544
28540,Onslow County,NC,NA,25.581395348837212,NA
28601,Catawba County,NC,NA,NA,19.649122807017545
28645,Caldwell County,NC,NA,0,NA
28675,Alleghany County,NC,NA,50.52854122621564,NA
28704,Buncombe County,NC,78.35497835497836,NA,NA
28734,Macon County,NC,18.181818181818183,NA,NA
28762,McDowell County,NC,NA,NA,86.31578947368422
28777,Mitchell County,NC,NA,68.71035940803382,NA
58203,Grand Forks County,ND,NA,58.139534883720934,NA
43026,Franklin County,OH,23.809523809523807,NA,NA
43062,Licking County,OH,41.99134199134199,NA,NA
43071,Licking County,OH,NA,97.46300211416491,NA
43081,Franklin County,OH,NA,8.879492600422834,NA
43125,Franklin County,OH,NA,61.09936575052855,NA
43140,Madison County,OH,NA,83.50951374207189,NA
43204,Franklin County,OH,29.004329004329005,12.050739957716702,NA
43213,Franklin County,OH,NA,53.69978858350951,NA
43214,Franklin County,OH,55.84415584415584,NA,NA
43224,Franklin County,OH,NA,NA,26.31578947368421
43229,Franklin County,OH,NA,7.399577167019028,NA
43410,Sandusky County,OH,NA,NA,76.49122807017544
43420,Sandusky County,OH,NA,NA,61.05263157894737
43537,Lucas County,OH,34.63203463203463,NA,NA
43615,Lucas County,OH,NA,NA,7.719298245614035
43623,Lucas County,OH,NA,NA,35.43859649122807
44050,Lorain County,OH,NA,NA,54.736842105263165
44055,Lorain County,OH,NA,18.181818181818183,NA
44056,Summit County,OH,75.75757575757575,NA,NA
44057,Lake County,OH,NA,52.21987315010571,NA
44070,Cuyahoga County,OH,NA,4.2283298097251585,NA
44077,Lake County,OH,4.761904761904762,NA,NA
44095,Lake County,OH,NA,NA,30.87719298245614
44105,Cuyahoga County,OH,9.090909090909092,NA,NA
44120,Cuyahoga County,OH,NA,22.198731501057082,NA
44124,Cuyahoga County,OH,NA,21.141649048625794,NA
44146,Cuyahoga County,OH,NA,14.587737843551796,NA
44221,Summit County,OH,NA,NA,14.736842105263156
44223,Summit County,OH,NA,NA,38.94736842105263
44319,Summit County,OH,NA,23.25581395348837,NA
44405,Mahoning County,OH,NA,64.05919661733616,NA
44601,Stark County,OH,NA,6.765327695560254,NA
44705,Stark County,OH,NA,34.46088794926004,NA
44805,Ashland County,OH,NA,3.5940803382663846,NA
44883,Seneca County,OH,NA,NA,21.052631578947366
45002,Hamilton County,OH,NA,66.38477801268499,NA
45011,Butler County,OH,NA,2.3255813953488373,NA
45042,Butler County,OH,22.943722943722943,NA,NA
45056,Butler County,OH,NA,NA,77.89473684210526
45177,Clinton County,OH,NA,NA,46.666666666666664
45212,Hamilton County,OH,NA,58.350951374207185,NA
45331,Darke County,OH,31.16883116883117,NA,NA
45356,Miami County,OH,14.71861471861472,NA,NA
45365,Shelby County,OH,NA,12.26215644820296,NA
45416,Montgomery County,OH,NA,87.31501057082453,NA
45439,Montgomery County,OH,NA,74.84143763213531,NA
45459,Montgomery County,OH,NA,57.082452431289646,NA
45669,Lawrence County,OH,NA,19.45031712473573,NA
45750,Washington County,OH,NA,NA,0.7017543859649122
45832,Van Wert County,OH,95.67099567099568,NA,NA
73012,Oklahoma County,OK,NA,47.99154334038055,NA
73071,Cleveland County,OK,NA,48.20295983086681,NA
73111,Oklahoma County,OK,NA,NA,65.96491228070175
73131,Oklahoma County,OK,NA,99.36575052854123,NA
74029,Washington County,OK,NA,NA,95.43859649122807
97006,Washington County,OR,NA,82.24101479915433,NA
97035,Clackamas County,OR,79.65367965367966,NA,NA
97051,Columbia County,OR,71.86147186147186,NA,NA
97062,Washington County,OR,NA,NA,62.10526315789474
97201,Multnomah County,OR,NA,77.80126849894292,NA
97304,Polk County,OR,66.66666666666666,NA,NA
97361,Polk County,OR,86.58008658008657,NA,NA
97368,Lincoln County,OR,NA,98.73150105708245,NA
97415,Curry County,OR,NA,24.947145877378436,NA
97603,Klamath County,OR,NA,NA,24.912280701754387
15057,Washington County,PA,NA,91.12050739957716,NA
15071,Allegheny County,PA,NA,NA,57.89473684210527
15120,Allegheny County,PA,NA,45.03171247357294,NA
15210,Allegheny County,PA,NA,41.64904862579281,NA
15217,Allegheny County,PA,NA,21.56448202959831,NA
15218,Allegheny County,PA,NA,59.40803382663847,NA
15235,Allegheny County,PA,22.07792207792208,NA,NA
15666,Westmoreland County,PA,NA,29.38689217758985,NA
15701,Indiana County,PA,25.541125541125542,NA,NA
16105,Lawrence County,PA,NA,64.05919661733616,NA
16201,Armstrong County,PA,NA,9.090909090909092,NA
16648,Blair County,PA,NA,33.40380549682875,50.526315789473685
16915,Potter County,PA,NA,65.11627906976744,NA
17038,Lebanon County,PA,NA,71.8816067653277,NA
17055,Cumberland County,PA,NA,NA,7.368421052631578
17070,Cumberland County,PA,NA,NA,78.94736842105263
17201,Franklin County,PA,NA,19.873150105708245,NA
17901,Schuylkill County,PA,NA,NA,25.263157894736842
18040,Northampton County,PA,NA,43.34038054968288,NA
18045,Northampton County,PA,NA,NA,10.175438596491228
18104,Lehigh County,PA,NA,NA,3.1578947368421053
18702,Luzerne County,PA,NA,3.382663847780127,NA
18944,Bucks County,PA,NA,77.58985200845666,NA
18966,Bucks County,PA,NA,9.513742071881607,NA
18974,Bucks County,PA,26.406926406926406,NA,NA
19002,Montgomery County,PA,NA,22.41014799154334,NA
19010,Delaware County,PA,NA,41.014799154334035,NA
19067,Bucks County,PA,NA,NA,12.280701754385964
19086,Delaware County,PA,77.05627705627705,NA,NA
19095,Montgomery County,PA,NA,NA,89.47368421052632
19119,Philadelphia County,PA,NA,17.33615221987315,NA
19124,Philadelphia County,PA,10.38961038961039,NA,NA
19131,Philadelphia County,PA,NA,91.5433403805497,NA
19144,Philadelphia County,PA,NA,7.822410147991543,NA
19148,Philadelphia County,PA,37.66233766233766,NA,NA
19342,Delaware County,PA,NA,NA,27.719298245614034
19348,Chester County,PA,NA,NA,71.57894736842105
19363,Chester County,PA,NA,69.97885835095138,NA
19382,Chester County,PA,NA,7.188160676532769,NA
02891,Washington County,RI,NA,NA,61.40350877192983
02905,Providence County,RI,48.05194805194805,NA,NA
02908,Providence County,RI,47.61904761904761,NA,NA
29010,Lee County,SC,81.81818181818183,NA,NA
29016,Richland County,SC,NA,76.74418604651163,NA
29036,Lexington County,SC,NA,NA,77.19298245614034
29135,Calhoun County,SC,NA,88.79492600422833,NA
29229,Richland County,SC,NA,NA,47.01754385964912
29388,Spartanburg County,SC,NA,NA,76.84210526315789
29456,Dorchester County,SC,NA,47.780126849894295,NA
29486,Berkeley County,SC,NA,NA,75.78947368421053
29540,Darlington County,SC,96.96969696969697,NA,NA
29651,Greenville County,SC,NA,12.684989429175475,NA
29661,Greenville County,SC,NA,81.3953488372093,NA
29676,Oconee County,SC,NA,74.63002114164905,NA
29710,York County,SC,NA,49.89429175475687,NA
37022,Sumner County,TN,NA,96.82875264270614,NA
37062,Williamson County,TN,NA,82.8752642706131,NA
37217,Davidson County,TN,NA,54.756871035940804,NA
37354,Monroe County,TN,NA,NA,51.92982456140351
37604,Washington County,TN,NA,19.661733615221987,NA
37650,Unicoi County,TN,NA,45.243128964059196,NA
37766,Campbell County,TN,NA,60.676532769556026,NA
37801,Blount County,TN,NA,11.627906976744185,NA
37818,Greene County,TN,NA,84.56659619450318,NA
37879,Claiborne County,TN,59.307359307359306,NA,NA
37917,Knox County,TN,NA,23.044397463002113,NA
37922,Knox County,TN,NA,51.37420718816068,NA
38106,Shelby County,TN,NA,40.803382663847785,NA
38109,Shelby County,TN,NA,15.221987315010571,NA
38133,Shelby County,TN,NA,NA,83.15789473684211
38225,Weakley County,TN,NA,NA,99.29824561403508
38301,Madison County,TN,NA,16.49048625792812,NA
38382,Gibson County,TN,NA,NA,88.7719298245614
38478,Giles County,TN,NA,NA,67.01754385964912
38506,Putnam County,TN,NA,20.29598308668076,NA
38556,Fentress County,TN,NA,39.112050739957716,NA
75052,Dallas County,TX,NA,NA,31.57894736842105
75060,Dallas County,TX,NA,38.6892177589852,NA
75065,Denton County,TX,NA,95.13742071881607,NA
75092,Grayson County,TX,NA,80.54968287526427,NA
75093,Collin County,TX,54.54545454545454,NA,NA
75165,Ellis County,TX,NA,NA,25.6140350877193
75229,Dallas County,TX,NA,46.51162790697674,NA
75672,Harrison County,TX,NA,62.15644820295984,NA
75835,Houston County,TX,76.62337662337663,NA,NA
75840,Freestone County,TX,NA,79.9154334038055,NA
76014,Tarrant County,TX,55.41125541125541,NA,NA
76034,Tarrant County,TX,NA,61.31078224101479,NA
76048,Hood County,TX,NA,29.38689217758985,NA
76054,Tarrant County,TX,NA,75.68710359408034,NA
76119,Tarrant County,TX,NA,6.553911205073996,NA
76522,Coryell County,TX,NA,NA,12.982456140350877
76531,Hamilton County,TX,NA,84.77801268498943,NA
76574,Williamson County,TX,NA,NA,42.45614035087719
76903,Tom Green County,TX,NA,51.58562367864693,NA
77003,Harris County,TX,87.44588744588745,NA,NA
77004,Harris County,TX,33.76623376623377,44.82029598308668,NA
77022,Harris County,TX,63.63636363636363,NA,NA
77024,Harris County,TX,NA,NA,40
77048,Harris County,TX,NA,92.17758985200845,NA
77051,Harris County,TX,NA,84.14376321353065,NA
77055,Harris County,TX,NA,57.928118393234676,NA
77056,Harris County,TX,NA,55.602536997885835,NA
77062,Harris County,TX,NA,57.71670190274841,59.64912280701754
77068,Harris County,TX,NA,90.9090909090909,NA
77076,Harris County,TX,NA,64.69344608879493,NA
77077,Harris County,TX,NA,NA,78.59649122807018
77082,Harris County,TX,NA,35.517970401691336,NA
77099,Harris County,TX,61.904761904761905,NA,NA
77306,Montgomery County,TX,NA,NA,97.89473684210527
77345,Harris County,TX,NA,NA,69.12280701754386
77346,Harris County,TX,NA,32.346723044397464,NA
77356,Montgomery County,TX,NA,90.27484143763213,NA
77429,Harris County,TX,NA,3.171247357293869,NA
77465,Matagorda County,TX,93.07359307359307,NA,NA
77498,Fort Bend County,TX,62.33766233766234,NA,NA
77502,Harris County,TX,NA,58.985200845665965,NA
77506,Harris County,TX,NA,70.61310782241014,NA
77515,Brazoria County,TX,NA,30.021141649048626,NA
77521,Harris County,TX,NA,28.964059196617338,NA
77536,Harris County,TX,NA,39.74630021141649,NA
77539,Galveston County,TX,59.74025974025974,NA,NA
77568,Galveston County,TX,NA,63.00211416490487,NA
77590,Galveston County,TX,12.987012987012985,NA,NA
77864,Madison County,TX,NA,88.16067653276956,NA
78041,Webb County,TX,NA,NA,29.47368421052631
78043,Webb County,TX,89.17748917748918,NA,NA
78209,Bexar County,TX,NA,59.40803382663847,NA
78210,Bexar County,TX,NA,50.95137420718816,NA
78233,Bexar County,TX,49.35064935064935,NA,NA
78244,Bexar County,TX,NA,78.64693446088795,NA
78373,Nueces County,TX,NA,94.9260042283298,NA
78542,Hidalgo County,TX,NA,NA,51.578947368421055
78664,Williamson County,TX,NA,32.55813953488372,NA
78666,Hays County,TX,NA,NA,22.807017543859647
78723,Travis County,TX,NA,71.24735729386892,NA
78745,Travis County,TX,NA,NA,60.70175438596491
78840,Val Verde County,TX,NA,NA,10.526315789473683
78852,Maverick County,TX,NA,NA,19.298245614035086
79407,Lubbock County,TX,NA,NA,60.35087719298245
79413,Lubbock County,TX,77.48917748917748,NA,NA
79936,El Paso County,TX,NA,17.758985200845668,NA
84020,Salt Lake County,UT,51.515151515151516,NA,NA
84062,Utah County,UT,NA,89.21775898520085,NA
84119,Salt Lake County,UT,NA,71.67019027484145,NA
84124,Salt Lake County,UT,85.28138528138528,NA,NA
84790,Washington County,UT,NA,NA,4.912280701754386
05201,Bennington County,VT,NA,58.7737843551797,NA
20147,Loudoun County,VA,NA,NA,14.035087719298245
20164,Loudoun County,VA,NA,NA,71.9298245614035
22182,Fairfax County,VA,NA,83.29809725158562,NA
22302,Alexandria city,VA,NA,67.44186046511628,NA
22304,Alexandria city,VA,15.584415584415584,31.07822410147992,NA
22311,Alexandria city,VA,96.1038961038961,NA,NA
22314,Alexandria city,VA,NA,NA,67.71929824561404
22405,Stafford County,VA,NA,NA,58.245614035087726
22554,Stafford County,VA,35.4978354978355,NA,NA
22630,Warren County,VA,NA,31.501057082452434,NA
22801,Harrisonburg city,VA,NA,NA,23.859649122807017
23059,Henrico County,VA,NA,65.11627906976744,NA
23113,Chesterfield County,VA,NA,52.43128964059197,NA
23139,Powhatan County,VA,NA,NA,49.122807017543856
23223,Henrico County,VA,NA,NA,32.280701754385966
23229,Henrico County,VA,NA,73.78435517970402,NA
23238,Henrico County,VA,NA,NA,41.40350877192983
23320,Chesapeake city,VA,NA,NA,9.12280701754386
23325,Chesapeake city,VA,NA,NA,45.614035087719294
23451,Virginia Beach city,VA,NA,NA,2.456140350877193
23456,Virginia Beach city,VA,NA,NA,15.789473684210526
23464,Virginia Beach city,VA,NA,NA,1.4035087719298245
23602,Newport News city,VA,NA,27.061310782241016,11.228070175438596
23669,Hampton city,VA,27.27272727272727,NA,NA
23930,Nottoway County,VA,NA,NA,97.19298245614036
24266,Russell County,VA,NA,NA,74.73684210526315
24382,Wythe County,VA,NA,NA,76.14035087719299
24540,Danville city,VA,NA,62.7906976744186,NA
24558,Halifax County,VA,NA,95.9830866807611,NA
24572,Amherst County,VA,73.59307359307358,NA,NA
24592,Halifax County,VA,NA,NA,31.929824561403507
98019,King County,WA,NA,98.09725158562368,NA
98027,King County,WA,NA,NA,56.14035087719298
98052,King County,WA,NA,NA,16.842105263157894
98103,King County,WA,NA,NA,45.26315789473684
98109,King County,WA,69.26406926406926,NA,NA
98115,King County,WA,NA,NA,29.122807017543863
98118,King County,WA,80.08658008658008,NA,NA
98122,King County,WA,NA,NA,54.03508771929825
98125,King County,WA,NA,NA,38.24561403508772
98201,Snohomish County,WA,54.97835497835498,NA,NA
98208,Snohomish County,WA,25.108225108225106,NA,NA
98226,Whatcom County,WA,NA,35.94080338266385,NA
98282,Island County,WA,NA,38.47780126849894,NA
98366,Kitsap County,WA,NA,NA,30.175438596491226
98368,Jefferson County,WA,NA,60.04228329809725,NA
98370,Kitsap County,WA,NA,41.86046511627907,NA
98466,Pierce County,WA,NA,32.76955602536998,NA
98520,Grays Harbor County,WA,72.72727272727273,NA,87.36842105263159
98569,Grays Harbor County,WA,NA,NA,95.08771929824562
98930,Yakima County,WA,NA,80.33826638477801,NA
99320,Benton County,WA,NA,NA,84.56140350877193
99362,Walla Walla County,WA,31.601731601731604,44.60887949260042,NA
20001,District of Columbia,DC,24.675324675324674,NA,NA
20002,District of Columbia,DC,7.792207792207792,NA,NA
20003,District of Columbia,DC,NA,NA,75.43859649122807
20016,District of Columbia,DC,NA,50.317124735729394,NA
20020,District of Columbia,DC,16.450216450216452,NA,NA
25064,Kanawha County,WV,57.57575757575758,NA,NA
25311,Kanawha County,WV,NA,91.9661733615222,NA
53018,Waukesha County,WI,NA,88.79492600422833,NA
53022,Washington County,WI,NA,NA,58.94736842105262
53027,Washington County,WI,NA,NA,75.08771929824562
53095,Washington County,WI,NA,17.970401691331926,NA
53105,Racine County,WI,NA,9.725158562367865,NA
53154,Milwaukee County,WI,NA,9.936575052854122,NA
53205,Milwaukee County,WI,3.896103896103896,NA,NA
53209,Milwaukee County,WI,38.095238095238095,NA,NA
53215,Milwaukee County,WI,NA,NA,8.771929824561402
53225,Milwaukee County,WI,NA,36.57505285412262,NA
53403,Racine County,WI,38.961038961038966,NA,NA
53594,Jefferson County,WI,92.64069264069265,NA,NA
53597,Dane County,WI,68.3982683982684,NA,NA
53704,Dane County,WI,NA,16.0676532769556,NA
53713,Dane County,WI,NA,NA,100
54139,Oconto County,WI,NA,96.19450317124736,NA
54449,Wood County,WI,NA,NA,69.47368421052632
54481,Portage County,WI,NA,NA,39.64912280701755
54729,Chippewa County,WI,NA,21.353065539112052,NA
54755,Buffalo County,WI,NA,76.32135306553911,NA
54806,Ashland County,WI,NA,NA,82.10526315789474
54880,Douglas County,WI,NA,2.748414376321353,NA
