ZipCode,county,state,Youth,Adult
35213,Jefferson County,AL,88.715953307393,NA
35222,Jefferson County,AL,NA,85.18518518518519
35223,Jefferson County,AL,NA,93.73219373219374
35242,Shelby County,AL,37.7431906614786,NA
35661,Colbert County,AL,60.70038910505836,NA
35756,Limestone County,AL,70.23346303501945,NA
36340,Geneva County,AL,NA,89.45868945868945
36467,Covington County,AL,83.65758754863813,NA
36535,Baldwin County,AL,89.6887159533074,NA
36575,Mobile County,AL,NA,50.997150997150996
36576,Baldwin County,AL,NA,99.43019943019942
36618,Mobile County,AL,NA,66.95156695156696
99517,Anchorage Municipality,AK,71.01167315175097,NA
85017,Maricopa County,AZ,18.093385214007782,NA
85029,Maricopa County,AZ,36.57587548638132,49.287749287749286
85032,Maricopa County,AZ,NA,16.80911680911681
85040,Maricopa County,AZ,23.151750972762645,NA
85132,Pinal County,AZ,56.42023346303502,NA
85142,Maricopa County,AZ,7.782101167315175,NA
85209,Maricopa County,AZ,26.07003891050584,NA
85249,Maricopa County,AZ,27.431906614785994,NA
85308,Maricopa County,AZ,19.844357976653697,NA
85345,Maricopa County,AZ,NA,13.675213675213676
85353,Maricopa County,AZ,NA,27.92022792022792
85364,Yuma County,AZ,18.67704280155642,NA
85379,Maricopa County,AZ,29.377431906614788,NA
85388,Maricopa County,AZ,48.83268482490272,90.02849002849003
85701,Pima County,AZ,73.73540856031128,NA
85711,Pima County,AZ,NA,9.401709401709402
85716,Pima County,AZ,9.33852140077821,NA
85755,Pima County,AZ,NA,88.6039886039886
85756,Pima County,AZ,34.04669260700389,NA
85929,Navajo County,AZ,NA,78.34757834757835
86004,Coconino County,AZ,1.7509727626459144,NA
86047,Navajo County,AZ,NA,29.629629629629626
86406,Mohave County,AZ,64.00778210116731,NA
71730,Union County,AR,75.87548638132296,NA
72019,Saline County,AR,69.06614785992218,NA
72205,Pulaski County,AR,NA,72.36467236467237
72417,Craighead County,AR,96.3035019455253,NA
72758,Benton County,AR,NA,51.566951566951566
72761,Benton County,AR,78.01556420233463,NA
72903,Sebastian County,AR,83.26848249027238,NA
90003,Los Angeles County,CA,NA,31.054131054131055
90016,Los Angeles County,CA,NA,68.09116809116809
90230,Los Angeles County,CA,NA,72.07977207977207
90245,Los Angeles County,CA,72.17898832684824,NA
90262,Los Angeles County,CA,21.20622568093385,NA
90266,Los Angeles County,CA,NA,54.98575498575499
90275,Los Angeles County,CA,NA,50.712250712250714
90640,Los Angeles County,CA,40.07782101167315,NA
90650,Los Angeles County,CA,NA,18.233618233618234
90807,Los Angeles County,CA,NA,45.58404558404558
90808,Los Angeles County,CA,NA,90.31339031339031
90813,Los Angeles County,CA,NA,57.83475783475783
91106,Los Angeles County,CA,82.10116731517509,NA
91311,Los Angeles County,CA,77.62645914396887,NA
91326,Los Angeles County,CA,NA,57.54985754985755
91342,Los Angeles County,CA,21.595330739299612,NA
91605,Los Angeles County,CA,74.90272373540856,NA
91607,Los Angeles County,CA,72.17898832684824,NA
91910,San Diego County,CA,76.45914396887159,NA
91942,San Diego County,CA,84.63035019455253,NA
92009,San Diego County,CA,47.47081712062256,NA
92019,San Diego County,CA,56.809338521400775,NA
92025,San Diego County,CA,41.82879377431907,NA
92040,San Diego County,CA,43.77431906614786,NA
92058,San Diego County,CA,92.80155642023347,NA
92069,San Diego County,CA,41.82879377431907,NA
92101,San Diego County,CA,NA,16.23931623931624
92102,San Diego County,CA,NA,32.193732193732195
92117,San Diego County,CA,95.52529182879378,NA
92122,San Diego County,CA,80.73929961089495,NA
92127,San Diego County,CA,NA,82.33618233618233
92139,San Diego County,CA,NA,66.38176638176638
92154,San Diego County,CA,51.75097276264592,NA
92173,San Diego County,CA,83.0739299610895,NA
92220,Riverside County,CA,72.568093385214,NA
92308,San Bernardino County,CA,NA,43.58974358974359
92320,Riverside County,CA,NA,92.3076923076923
92545,Riverside County,CA,58.754863813229576,NA
92571,Riverside County,CA,53.50194552529183,NA
92586,Riverside County,CA,NA,96.58119658119658
92625,Orange County,CA,96.88715953307393,NA
92651,Orange County,CA,NA,76.92307692307693
92660,Orange County,CA,NA,90.88319088319088
92673,Orange County,CA,NA,60.3988603988604
92679,Orange County,CA,NA,78.63247863247864
92703,Orange County,CA,NA,33.61823361823362
92804,Orange County,CA,43.190661478599225,NA
92867,Orange County,CA,66.53696498054474,NA
93041,Ventura County,CA,83.46303501945526,NA
93063,Ventura County,CA,59.92217898832685,NA
93270,Tulare County,CA,NA,100
93286,Tulare County,CA,94.74708171206225,NA
93304,Kern County,CA,NA,21.937321937321936
93306,Kern County,CA,60.505836575875485,NA
93536,Los Angeles County,CA,38.13229571984436,NA
93551,Los Angeles County,CA,NA,48.433048433048434
93555,Kern County,CA,29.766536964980546,NA
93610,Madera County,CA,NA,66.66666666666666
93619,Fresno County,CA,68.09338521400778,37.60683760683761
93654,Fresno County,CA,NA,47.57834757834758
93702,Fresno County,CA,10.894941634241246,NA
93711,Fresno County,CA,NA,60.68376068376068
93720,Fresno County,CA,23.346303501945524,NA
93727,Fresno County,CA,9.53307392996109,NA
93730,Fresno County,CA,84.63035019455253,NA
94022,Santa Clara County,CA,86.38132295719845,NA
94080,San Mateo County,CA,45.525291828793776,27.635327635327634
94102,San Francisco County,CA,NA,8.547008547008547
94107,San Francisco County,CA,NA,39.31623931623932
94114,San Francisco County,CA,NA,80.91168091168092
94403,San Mateo County,CA,45.525291828793776,NA
94520,Contra Costa County,CA,48.249027237354085,NA
94536,Alameda County,CA,60.311284046692606,NA
94565,Contra Costa County,CA,NA,75.49857549857549
94803,Contra Costa County,CA,81.32295719844358,NA
95076,Santa Cruz County,CA,49.416342412451364,NA
95112,Santa Clara County,CA,NA,87.74928774928775
95125,Santa Clara County,CA,NA,41.5954415954416
95304,San Joaquin County,CA,NA,85.75498575498575
95307,Stanislaus County,CA,29.571984435797667,27.350427350427353
95315,Merced County,CA,NA,83.47578347578347
95341,Merced County,CA,NA,50.427350427350426
95350,Stanislaus County,CA,NA,18.51851851851852
95361,Stanislaus County,CA,36.57587548638132,NA
95366,San Joaquin County,CA,NA,93.44729344729345
95422,Lake County,CA,NA,52.70655270655271
95521,Humboldt County,CA,NA,77.49287749287748
95621,Sacramento County,CA,NA,89.17378917378917
95628,Sacramento County,CA,32.1011673151751,NA
95650,Placer County,CA,NA,84.04558404558404
95667,El Dorado County,CA,NA,26.780626780626783
95831,Sacramento County,CA,NA,49.85754985754986
95835,Sacramento County,CA,NA,61.82336182336182
95969,Butte County,CA,NA,56.69515669515669
80012,Arapahoe County,CO,29.961089494163424,11.396011396011396
80013,Arapahoe County,CO,6.22568093385214,NA
80016,Arapahoe County,CO,2.529182879377432,NA
80031,Adams County,CO,NA,33.33333333333333
80120,Arapahoe County,CO,50.38910505836576,NA
80229,Adams County,CO,6.420233463035019,NA
80231,Denver County,CO,30.93385214007782,NA
80239,Denver County,CO,19.26070038910506,NA
80305,Boulder County,CO,91.63424124513618,NA
80634,Weld County,CO,3.11284046692607,NA
80910,El Paso County,CO,NA,22.79202279202279
80917,El Paso County,CO,NA,54.41595441595442
81007,Pueblo County,CO,25.680933852140075,NA
81224,Gunnison County,CO,90.85603112840467,NA
06106,Hartford County,CT,33.26848249027237,NA
06118,Hartford County,CT,31.1284046692607,NA
06234,Windham County,CT,68.48249027237354,NA
06281,Windham County,CT,62.06225680933852,NA
06437,New Haven County,CT,NA,94.30199430199431
06443,New Haven County,CT,72.76264591439688,NA
06451,New Haven County,CT,24.124513618677042,NA
06460,New Haven County,CT,56.03112840466926,NA
06489,Hartford County,CT,NA,25.64102564102564
06610,Fairfield County,CT,NA,24.216524216524217
06880,Fairfield County,CT,NA,43.58974358974359
19703,New Castle County,DE,NA,51.85185185185185
19707,New Castle County,DE,77.431906614786,NA
19938,Kent County,DE,NA,94.87179487179486
32025,Columbia County,FL,NA,64.67236467236467
32055,Columbia County,FL,42.80155642023346,NA
32068,Clay County,FL,NA,12.82051282051282
32084,St. Johns County,FL,51.16731517509727,NA
32137,Flagler County,FL,69.64980544747081,NA
32145,St. Johns County,FL,NA,92.87749287749287
32211,Duval County,FL,NA,47.863247863247864
32225,Duval County,FL,NA,70.08547008547008
32233,Duval County,FL,NA,34.75783475783476
32277,Duval County,FL,61.284046692607006,NA
32514,Escambia County,FL,NA,21.65242165242165
32653,Alachua County,FL,85.99221789883269,NA
32656,Clay County,FL,NA,64.38746438746439
32806,Orange County,FL,68.8715953307393,NA
32839,Orange County,FL,13.03501945525292,NA
33014,Miami-Dade County,FL,69.8443579766537,NA
33028,Broward County,FL,NA,89.74358974358975
33076,Broward County,FL,57.19844357976653,NA
33160,Miami-Dade County,FL,72.76264591439688,NA
33324,Broward County,FL,55.05836575875487,NA
33327,Broward County,FL,NA,78.91737891737893
33411,Palm Beach County,FL,NA,33.04843304843305
33415,Palm Beach County,FL,42.80155642023346,NA
33478,Palm Beach County,FL,NA,92.3076923076923
33558,Hillsborough County,FL,81.1284046692607,NA
33563,Hillsborough County,FL,NA,42.16524216524217
33710,Pinellas County,FL,NA,71.7948717948718
33713,Pinellas County,FL,94.16342412451361,NA
33770,Pinellas County,FL,88.91050583657587,NA
33782,Pinellas County,FL,36.186770428015564,NA
33815,Polk County,FL,NA,36.182336182336186
33909,Lee County,FL,NA,67.52136752136752
34212,Manatee County,FL,NA,74.64387464387464
34234,Sarasota County,FL,41.63424124513619,NA
34236,Sarasota County,FL,NA,83.1908831908832
34480,Marion County,FL,52.33463035019456,NA
34748,Lake County,FL,43.3852140077821,NA
34951,St. Lucie County,FL,95.71984435797665,NA
30016,Newton County,GA,15.953307392996107,NA
30024,Gwinnett County,GA,19.64980544747082,NA
30039,Gwinnett County,GA,67.70428015564202,NA
30062,Cobb County,GA,21.98443579766537,NA
30076,Fulton County,GA,NA,79.2022792022792
30084,DeKalb County,GA,65.36964980544747,NA
30276,Coweta County,GA,NA,65.8119658119658
30306,Fulton County,GA,NA,84.9002849002849
30315,Fulton County,GA,NA,55.27065527065527
30328,Fulton County,GA,70.8171206225681,NA
30533,Lumpkin County,GA,79.76653696498055,NA
30736,Catoosa County,GA,17.898832684824903,NA
30809,Columbia County,GA,71.20622568093385,NA
30815,Richmond County,GA,NA,19.65811965811966
31569,Camden County,GA,NA,97.43589743589743
31794,Tift County,GA,48.054474708171206,NA
39819,Decatur County,GA,63.035019455252915,NA
96706,Honolulu County,HI,12.062256809338521,NA
96817,Honolulu County,HI,20.233463035019454,NA
96819,Honolulu County,HI,13.813229571984436,NA
83201,Bannock County,ID,59.72762645914397,NA
83350,Minidoka County,ID,NA,68.37606837606837
83607,Canyon County,ID,22.17898832684825,NA
83646,Ada County,ID,37.159533073929964,NA
83702,Ada County,ID,NA,25.356125356125357
83706,Ada County,ID,NA,25.071225071225072
60004,Cook County,IL,26.653696498054476,NA
60010,Lake County,IL,33.26848249027237,NA
60048,Lake County,IL,NA,72.93447293447294
60061,Lake County,IL,56.6147859922179,NA
60071,McHenry County,IL,NA,96.01139601139602
60110,Kane County,IL,NA,70.65527065527066
60126,DuPage County,IL,NA,10.541310541310542
60142,McHenry County,IL,40.856031128404666,NA
60174,Kane County,IL,NA,40.74074074074074
60185,DuPage County,IL,NA,63.53276353276354
60187,DuPage County,IL,NA,64.1025641025641
60431,Will County,IL,71.78988326848248,NA
60435,Will County,IL,NA,10.826210826210826
60440,Will County,IL,NA,73.50427350427351
60516,DuPage County,IL,NA,40.45584045584046
60525,Cook County,IL,42.60700389105058,NA
60542,Kane County,IL,47.081712062256805,NA
60561,DuPage County,IL,64.59143968871595,NA
60607,Cook County,IL,55.05836575875487,NA
60620,Cook County,IL,6.031128404669261,NA
60622,Cook County,IL,NA,63.24786324786324
60629,Cook County,IL,NA,6.267806267806268
60634,Cook County,IL,NA,88.31908831908832
60640,Cook County,IL,34.43579766536965,NA
60646,Cook County,IL,53.11284046692607,NA
60657,Cook County,IL,NA,47.008547008547005
60901,Kankakee County,IL,20.038910505836576,NA
61021,Lee County,IL,8.949416342412452,NA
61107,Winnebago County,IL,NA,39.88603988603989
61350,LaSalle County,IL,NA,43.01994301994302
61611,Tazewell County,IL,82.68482490272373,NA
61701,McLean County,IL,NA,57.26495726495726
61705,McLean County,IL,82.87937743190662,NA
62521,Macon County,IL,NA,13.96011396011396
46038,Hamilton County,IN,54.86381322957199,NA
46062,Hamilton County,IN,39.688715953307394,NA
46072,Tipton County,IN,NA,70.94017094017094
46077,Boone County,IN,71.98443579766537,NA
46173,Rush County,IN,NA,49.85754985754986
46222,Marion County,IN,32.490272373540854,NA
46237,Marion County,IN,70.62256809338521,NA
46239,Marion County,IN,NA,48.717948717948715
46304,Porter County,IN,NA,37.32193732193732
46410,Lake County,IN,14.980544747081712,NA
46580,Kosciusko County,IN,61.673151750972764,NA
46703,Steuben County,IN,74.31906614785993,NA
46774,Allen County,IN,NA,78.06267806267806
46802,Allen County,IN,NA,88.88888888888889
47161,Harrison County,IN,97.47081712062257,NA
47220,Jackson County,IN,91.24513618677042,NA
47250,Jefferson County,IN,NA,60.96866096866097
47336,Jay County,IN,97.85992217898833,NA
47368,Randolph County,IN,99.22178988326849,NA
47374,Wayne County,IN,NA,4.843304843304843
47394,Randolph County,IN,NA,83.76068376068376
47630,Warrick County,IN,85.21400778210116,NA
47901,Tippecanoe County,IN,NA,98.00569800569801
50009,Polk County,IA,92.02334630350194,NA
50047,Warren County,IA,NA,94.58689458689459
50158,Marshall County,IA,63.22957198443579,NA
50169,Polk County,IA,99.41634241245137,NA
50317,Polk County,IA,24.5136186770428,NA
50511,Kossuth County,IA,NA,86.32478632478633
51503,Pottawattamie County,IA,2.7237354085603114,NA
51632,Page County,IA,NA,92.02279202279202
52361,Iowa County,IA,94.94163424124513,NA
52403,Linn County,IA,NA,38.17663817663818
52501,Wapello County,IA,30.35019455252918,15.384615384615385
66062,Johnson County,KS,38.715953307393,NA
66101,Wyandotte County,KS,94.94163424124513,NA
66219,Johnson County,KS,88.13229571984435,NA
67226,Sedgwick County,KS,89.49416342412452,NA
67401,Saline County,KS,8.365758754863812,NA
67432,Clay County,KS,92.99610894941634,NA
40014,Oldham County,KY,NA,64.95726495726495
40046,Spencer County,KY,98.63813229571986,NA
40047,Bullitt County,KY,27.626459143968873,NA
40065,Shelby County,KY,NA,37.03703703703704
40216,Jefferson County,KY,14.785992217898833,NA
40223,Jefferson County,KY,63.61867704280155,NA
40241,Jefferson County,KY,57.97665369649806,NA
40324,Scott County,KY,30.544747081712064,NA
40383,Woodford County,KY,70.03891050583657,NA
40403,Madison County,KY,52.723735408560316,NA
40422,Boyle County,KY,52.918287937743195,NA
40511,Fayette County,KY,57.97665369649806,NA
41040,Pendleton County,KY,66.9260700389105,NA
41169,Greenup County,KY,81.71206225680933,NA
41501,Pike County,KY,65.75875486381322,NA
42025,Marshall County,KY,55.05836575875487,NA
42141,Barren County,KY,NA,12.535612535612536
42240,Christian County,KY,22.957198443579767,NA
42303,Daviess County,KY,21.40077821011673,10.256410256410255
70001,Jefferson Parish,LA,NA,4.5584045584045585
70114,Orleans Parish,LA,NA,11.11111111111111
70301,Lafourche Parish,LA,11.478599221789883,NA
70359,Terrebonne Parish,LA,NA,26.21082621082621
70364,Terrebonne Parish,LA,NA,7.977207977207977
70394,Lafourche Parish,LA,26.26459143968872,NA
70420,St. Tammany Parish,LA,57.003891050583654,NA
70785,Livingston Parish,LA,NA,17.94871794871795
70810,East Baton Rouge Parish,LA,6.809338521400778,NA
71001,Bienville Parish,LA,NA,76.06837606837607
71111,Bossier Parish,LA,4.863813229571985,NA
71433,Rapides Parish,LA,NA,94.01709401709401
04258,Androscoggin County,ME,96.10894941634241,NA
04281,Oxford County,ME,NA,69.51566951566952
04743,Aroostook County,ME,97.85992217898833,NA
04769,Aroostook County,ME,NA,53.84615384615385
20833,Montgomery County,MD,96.69260700389106,NA
20852,Montgomery County,MD,84.04669260700389,NA
20853,Montgomery County,MD,54.08560311284047,NA
20878,Montgomery County,MD,NA,41.02564102564102
20904,Montgomery County,MD,NA,51.28205128205128
21012,Anne Arundel County,MD,NA,72.93447293447294
21104,Carroll County,MD,93.3852140077821,NA
21114,Anne Arundel County,MD,NA,80.62678062678063
21239,Baltimore city,MD,NA,73.78917378917379
21403,Anne Arundel County,MD,63.22957198443579,NA
21757,Frederick County,MD,NA,99.71509971509973
01545,Worcester County,MA,12.840466926070038,NA
01570,Worcester County,MA,15.758754863813229,NA
01606,Worcester County,MA,70.23346303501945,NA
01701,Middlesex County,MA,NA,31.908831908831907
01742,Middlesex County,MA,72.76264591439688,NA
01748,Middlesex County,MA,NA,38.74643874643874
01772,Worcester County,MA,NA,86.8945868945869
01801,Middlesex County,MA,NA,1.1396011396011396
01841,Essex County,MA,NA,0
01850,Middlesex County,MA,NA,8.262108262108262
01880,Middlesex County,MA,NA,7.4074074074074066
01915,Essex County,MA,7.003891050583658,1.7094017094017095
02035,Norfolk County,MA,10.116731517509727,NA
02067,Norfolk County,MA,NA,76.35327635327636
02090,Norfolk County,MA,NA,58.68945868945868
02128,Suffolk County,MA,NA,4.273504273504273
02139,Middlesex County,MA,NA,9.116809116809117
02150,Suffolk County,MA,NA,0.8547008547008548
02169,Norfolk County,MA,NA,0.5698005698005698
02176,Middlesex County,MA,76.84824902723736,NA
02368,Norfolk County,MA,NA,2.2792022792022792
02474,Middlesex County,MA,NA,14.529914529914532
02478,Middlesex County,MA,NA,21.082621082621085
02740,Bristol County,MA,0.38910505836575876,NA
02760,Bristol County,MA,19.45525291828794,NA
48034,Oakland County,MI,NA,30.76923076923077
48044,Macomb County,MI,75.29182879377431,NA
48047,Macomb County,MI,NA,14.814814814814813
48049,St. Clair County,MI,89.88326848249028,NA
48060,St. Clair County,MI,8.171206225680933,NA
48084,Oakland County,MI,62.2568093385214,NA
48085,Oakland County,MI,40.66147859922179,25.925925925925924
48103,Washtenaw County,MI,49.416342412451364,NA
48105,Washtenaw County,MI,28.793774319066145,NA
48116,Livingston County,MI,21.78988326848249,NA
48161,Monroe County,MI,NA,7.6923076923076925
48162,Monroe County,MI,14.396887159533073,13.105413105413104
48167,Oakland County,MI,NA,35.04273504273504
48173,Wayne County,MI,54.280155642023345,NA
48178,Oakland County,MI,39.29961089494164,NA
48188,Wayne County,MI,3.8910505836575875,NA
48202,Wayne County,MI,NA,71.22507122507122
48234,Wayne County,MI,NA,80.34188034188034
48301,Oakland County,MI,NA,56.41025641025641
48306,Oakland County,MI,35.40856031128405,NA
48313,Macomb County,MI,NA,52.13675213675214
48324,Oakland County,MI,93.77431906614785,NA
48327,Oakland County,MI,NA,27.065527065527068
48439,Genesee County,MI,NA,14.245014245014245
48603,Saginaw County,MI,46.30350194552529,NA
48625,Clare County,MI,43.77431906614786,NA
48823,Ingham County,MI,NA,29.059829059829063
48836,Livingston County,MI,NA,47.293447293447294
48849,Ionia County,MI,NA,80.05698005698005
49031,Cass County,MI,NA,77.20797720797721
49345,Kent County,MI,77.23735408560312,NA
49659,Antrim County,MI,NA,69.8005698005698
49684,Grand Traverse County,MI,33.65758754863813,NA
49849,Marquette County,MI,NA,41.88034188034188
49855,Marquette County,MI,NA,39.6011396011396
49931,Houghton County,MI,75.87548638132296,NA
55056,Chisago County,MN,59.143968871595334,NA
55071,Washington County,MN,99.0272373540856,NA
55076,Dakota County,MN,60.70038910505836,NA
55125,Washington County,MN,NA,35.8974358974359
55301,Wright County,MN,86.18677042801556,NA
55304,Anoka County,MN,14.202334630350194,NA
55317,Carver County,MN,79.96108949416343,NA
55330,Sherburne County,MN,15.17509727626459,NA
55346,Hennepin County,MN,90.27237354085604,NA
55379,Scott County,MN,NA,23.931623931623932
55398,Sherburne County,MN,68.48249027237354,NA
55419,Hennepin County,MN,8.560311284046692,NA
55437,Hennepin County,MN,NA,96.29629629629629
55912,Mower County,MN,NA,7.122507122507122
56001,Blue Earth County,MN,12.2568093385214,NA
56156,Rock County,MN,NA,84.33048433048434
56258,Lyon County,MN,71.59533073929961,NA
56362,Stearns County,MN,89.10505836575877,NA
56401,Crow Wing County,MN,24.31906614785992,NA
56560,Clay County,MN,13.229571984435799,NA
38672,DeSoto County,MS,92.60700389105058,NA
38732,Bolivar County,MS,NA,32.47863247863248
39042,Rankin County,MS,24.90272373540856,NA
39047,Rankin County,MS,20.622568093385212,NA
39051,Leake County,MS,46.69260700389105,NA
39110,Madison County,MS,NA,33.903133903133906
39175,Hinds County,MS,98.44357976653697,NA
63049,Jefferson County,MO,86.38132295719845,69.23076923076923
63051,Jefferson County,MO,53.89105058365759,NA
63116,St. Louis city,MO,NA,29.914529914529915
63136,St. Louis County,MO,1.1673151750972763,NA
63366,St. Charles County,MO,53.69649805447471,NA
63445,Clark County,MO,NA,98.86039886039886
64012,Cass County,MO,19.06614785992218,NA
64063,Jackson County,MO,23.540856031128403,NA
64113,Jackson County,MO,49.221789883268485,NA
64118,Clay County,MO,8.754863813229571,NA
64158,Clay County,MO,NA,84.61538461538461
64507,Buchanan County,MO,67.89883268482491,NA
65201,Boone County,MO,78.40466926070039,NA
65648,Greene County,MO,NA,95.72649572649573
68025,Dodge County,NE,11.673151750972762,NA
68116,Douglas County,NE,36.57587548638132,NA
68128,Sarpy County,NE,54.474708171206224,NA
68130,Douglas County,NE,37.93774319066148,NA
68164,Douglas County,NE,92.41245136186771,67.23646723646723
68504,Lancaster County,NE,NA,71.50997150997152
68516,Lancaster County,NE,NA,59.54415954415955
68601,Platte County,NE,32.295719844357976,NA
89120,Clark County,NV,87.93774319066148,NA
89129,Clark County,NV,36.38132295719844,NA
89178,Clark County,NV,69.06614785992218,NA
89408,Lyon County,NV,NA,31.62393162393162
89801,Elko County,NV,NA,58.119658119658126
03062,Hillsborough County,NH,22.762645914396888,44.44444444444444
03833,Rockingham County,NH,31.1284046692607,NA
07003,Essex County,NJ,16.147859922178988,NA
07005,Morris County,NJ,87.15953307392996,NA
07068,Essex County,NJ,NA,96.86609686609687
07202,Union County,NJ,41.245136186770424,NA
07712,Monmouth County,NJ,NA,2.849002849002849
07731,Monmouth County,NJ,35.992217898832685,NA
07748,Monmouth County,NJ,46.88715953307393,NA
07764,Monmouth County,NJ,97.27626459143968,NA
07840,Warren County,NJ,65.95330739299611,NA
07885,Morris County,NJ,80.54474708171206,NA
07981,Morris County,NJ,NA,91.73789173789174
08005,Ocean County,NJ,83.85214007782102,NA
08021,Camden County,NJ,2.9182879377431905,NA
08087,Ocean County,NJ,35.21400778210117,NA
08088,Burlington County,NJ,73.92996108949417,NA
08230,Cape May County,NJ,NA,88.03418803418803
08833,Hunterdon County,NJ,NA,98.57549857549857
87031,Valencia County,NM,28.793774319066145,NA
87108,Bernalillo County,NM,75.09727626459144,NA
87112,Bernalillo County,NM,17.509727626459142,NA
87114,Bernalillo County,NM,12.45136186770428,NA
87123,Bernalillo County,NM,47.276264591439684,NA
87144,Sandoval County,NM,NA,19.08831908831909
87301,McKinley County,NM,54.6692607003891,NA
88030,Luna County,NM,64.00778210116731,NA
88220,Eddy County,NM,23.929961089494164,NA
10306,Richmond County,NY,NA,18.803418803418804
10452,Bronx County,NY,0.7782101167315175,NA
10455,Bronx County,NY,NA,34.18803418803419
10562,Westchester County,NY,16.147859922178988,NA
10573,Westchester County,NY,61.86770428015564,NA
10701,Westchester County,NY,2.3346303501945527,NA
11004,Queens County,NY,98.63813229571986,NA
11220,Kings County,NY,NA,3.7037037037037033
11223,Kings County,NY,23.73540856031128,NA
11237,Kings County,NY,NA,21.367521367521366
11368,Queens County,NY,9.14396887159533,NA
11369,Queens County,NY,30.739299610894943,NA
11373,Queens County,NY,45.3307392996109,NA
11377,Queens County,NY,18.28793774319066,NA
11434,Queens County,NY,50.583657587548636,NA
12550,Orange County,NY,NA,26.495726495726498
13031,Onondaga County,NY,NA,38.46153846153847
13077,Cortland County,NY,61.478599221789885,NA
13309,Oneida County,NY,NA,61.53846153846154
13407,Herkimer County,NY,86.96498054474708,NA
13733,Chenango County,NY,NA,62.39316239316239
13734,Tioga County,NY,88.52140077821011,NA
13778,Chenango County,NY,50.778210116731515,NA
13783,Delaware County,NY,94.94163424124513,NA
13905,Broome County,NY,NA,1.4245014245014245
14006,Erie County,NY,90.27237354085604,NA
14051,Erie County,NY,NA,36.75213675213676
14098,Orleans County,NY,99.61089494163424,NA
14127,Erie County,NY,47.66536964980545,NA
14150,Erie County,NY,NA,5.698005698005698
14208,Erie County,NY,NA,24.501424501424502
14222,Erie County,NY,NA,75.78347578347578
14423,Livingston County,NY,NA,82.05128205128204
14502,Wayne County,NY,25.291828793774318,NA
14522,Wayne County,NY,45.91439688715953,NA
14526,Monroe County,NY,73.54085603112841,NA
14606,Monroe County,NY,NA,2.564102564102564
14626,Monroe County,NY,NA,3.133903133903134
14801,Steuben County,NY,79.1828793774319,NA
27030,Surry County,NC,NA,6.552706552706552
27105,Forsyth County,NC,1.9455252918287937,NA
27244,Alamance County,NC,NA,79.77207977207978
27249,Guilford County,NC,40.46692607003891,NA
27253,Alamance County,NC,33.65758754863813,NA
27360,Davidson County,NC,NA,3.9886039886039883
27408,Guilford County,NC,93.3852140077821,NA
27455,Guilford County,NC,NA,44.15954415954416
27501,Harnett County,NC,78.21011673151752,NA
27513,Wake County,NC,82.29571984435798,NA
27518,Wake County,NC,85.7976653696498,NA
27519,Wake County,NC,NA,42.73504273504273
27523,Wake County,NC,NA,86.6096866096866
27574,Person County,NC,31.906614785992215,NA
27576,Johnston County,NC,50,NA
27597,Wake County,NC,87.54863813229572,NA
27610,Wake County,NC,1.556420233463035,NA
27614,Wake County,NC,51.75097276264592,NA
27713,Durham County,NC,47.85992217898833,NA
28079,Union County,NC,44.3579766536965,NA
28115,Iredell County,NC,27.042801556420233,NA
28125,Rowan County,NC,99.80544747081711,NA
28146,Rowan County,NC,80.73929961089495,NA
28376,Hoke County,NC,22.56809338521401,NA
28403,New Hanover County,NC,NA,65.52706552706553
28409,New Hanover County,NC,48.63813229571984,NA
28570,Carteret County,NC,NA,93.16239316239316
28607,Watauga County,NC,NA,44.729344729344724
28638,Caldwell County,NC,39.688715953307394,NA
28655,Burke County,NC,NA,39.03133903133903
28732,Henderson County,NC,51.16731517509727,NA
28734,Macon County,NC,NA,17.37891737891738
28739,Henderson County,NC,65.95330739299611,NA
28748,Buncombe County,NC,NA,52.991452991452995
58103,Cass County,ND,0.5836575875486382,6.837606837606838
58316,Rolette County,ND,58.949416342412455,NA
58703,Ward County,ND,51.55642023346303,NA
43004,Franklin County,OH,64.98054474708171,NA
43026,Franklin County,OH,10.311284046692606,NA
43054,Franklin County,OH,78.59922178988327,NA
43062,Licking County,OH,NA,30.484330484330485
43213,Franklin County,OH,0.19455252918287938,NA
43228,Franklin County,OH,NA,3.418803418803419
43229,Franklin County,OH,0,NA
43230,Franklin County,OH,NA,17.094017094017094
43410,Sandusky County,OH,57.58754863813229,NA
43449,Ottawa County,OH,NA,63.817663817663814
43466,Wood County,OH,92.21789883268482,NA
43545,Henry County,OH,86.38132295719845,NA
43558,Fulton County,OH,NA,49.002849002849004
43605,Lucas County,OH,11.284046692607005,NA
43607,Lucas County,OH,7.976653696498054,NA
43701,Muskingum County,OH,4.085603112840467,NA
43723,Guernsey County,OH,NA,53.27635327635327
44039,Lorain County,OH,9.922178988326849,NA
44067,Summit County,OH,NA,30.1994301994302
44102,Cuyahoga County,OH,NA,0.2849002849002849
44107,Cuyahoga County,OH,NA,1.9943019943019942
44135,Cuyahoga County,OH,1.3618677042801557,NA
44139,Cuyahoga County,OH,28.01556420233463,NA
44144,Cuyahoga County,OH,17.315175097276263,NA
44203,Summit County,OH,3.3073929961089497,NA
44221,Summit County,OH,NA,15.669515669515668
44256,Medina County,OH,46.49805447470817,NA
44306,Summit County,OH,3.6964980544747084,NA
44310,Summit County,OH,20.233463035019454,NA
44321,Summit County,OH,65.36964980544747,NA
44405,Mahoning County,OH,80.1556420233463,NA
44622,Tuscarawas County,OH,34.824902723735406,28.205128205128204
44632,Stark County,OH,NA,97.72079772079772
44685,Summit County,OH,38.52140077821012,NA
44857,Huron County,OH,NA,20.7977207977208
45011,Butler County,OH,7.392996108949417,NA
45140,Clermont County,OH,7.587548638132295,NA
45216,Hamilton County,OH,41.050583657587545,NA
45244,Hamilton County,OH,44.74708171206226,NA
45373,Miami County,OH,4.474708171206226,NA
45434,Greene County,OH,NA,87.46438746438746
45458,Montgomery County,OH,17.509727626459142,NA
45656,Jackson County,OH,59.143968871595334,NA
45804,Allen County,OH,NA,12.250712250712251
45885,Auglaize County,OH,30.155642023346303,NA
73013,Oklahoma County,OK,84.24124513618678,NA
73112,Oklahoma County,OK,22.17898832684825,NA
73507,Comanche County,OK,NA,68.66096866096866
74012,Tulsa County,OK,NA,22.507122507122507
74014,Wagoner County,OK,29.18287937743191,NA
74133,Tulsa County,OK,62.45136186770428,NA
97013,Clackamas County,OR,62.64591439688716,NA
97056,Columbia County,OR,NA,62.96296296296296
97062,Washington County,OR,87.7431906614786,NA
97127,Yamhill County,OR,92.99610894941634,NA
97203,Multnomah County,OR,NA,34.472934472934476
97219,Multnomah County,OR,NA,52.42165242165242
97239,Multnomah County,OR,91.24513618677042,NA
97303,Marion County,OR,38.91050583657588,NA
97355,Linn County,OR,NA,11.965811965811966
97415,Curry County,OR,NA,41.31054131054131
15236,Allegheny County,PA,10.505836575875486,NA
16354,Crawford County,PA,66.73151750972762,NA
16428,Erie County,PA,88.13229571984435,NA
17013,Cumberland County,PA,NA,19.37321937321937
17025,Cumberland County,PA,35.797665369649806,NA
17044,Mifflin County,PA,NA,13.390313390313391
17070,Cumberland County,PA,55.6420233463035,NA
17202,Franklin County,PA,49.80544747081712,NA
17319,York County,PA,NA,60.11396011396012
17501,Lancaster County,PA,94.55252918287937,NA
17520,Lancaster County,PA,NA,95.44159544159544
17701,Lycoming County,PA,5.836575875486381,NA
17846,Columbia County,PA,NA,99.14529914529915
17901,Schuylkill County,PA,10.700389105058365,NA
18013,Northampton County,PA,NA,31.339031339031337
18018,Lehigh County,PA,24.5136186770428,NA
18512,Lackawanna County,PA,67.31517509727627,NA
18519,Lackawanna County,PA,NA,98.29059829059828
18634,Luzerne County,PA,66.34241245136187,NA
18705,Luzerne County,PA,96.49805447470817,NA
18960,Bucks County,PA,NA,82.90598290598291
19020,Bucks County,PA,18.8715953307393,NA
19038,Montgomery County,PA,26.459143968871597,NA
19047,Bucks County,PA,NA,67.80626780626781
19055,Bucks County,PA,NA,46.72364672364672
19070,Delaware County,PA,NA,91.45299145299145
19095,Montgomery County,PA,NA,74.64387464387464
19136,Philadelphia County,PA,NA,11.68091168091168
19446,Montgomery County,PA,NA,16.524216524216524
19464,Montgomery County,PA,NA,5.128205128205128
19605,Berks County,PA,79.57198443579766,NA
19608,Berks County,PA,26.848249027237355,NA
02809,Bristol County,RI,NA,76.63817663817663
02905,Providence County,RI,NA,36.46723646723647
29223,Richland County,SC,NA,81.19658119658119
29316,Spartanburg County,SC,NA,32.763532763532766
29334,Spartanburg County,SC,90.27237354085604,NA
29340,Cherokee County,SC,NA,35.32763532763533
29412,Charleston County,SC,NA,28.49002849002849
29466,Charleston County,SC,57.78210116731517,NA
29483,Dorchester County,SC,4.280155642023346,NA
29485,Dorchester County,SC,5.058365758754864,NA
29501,Florence County,SC,85.60311284046692,NA
29505,Florence County,SC,NA,42.16524216524217
29609,Greenville County,SC,NA,35.61253561253561
29651,Greenville County,SC,89.29961089494164,NA
29681,Greenville County,SC,87.35408560311284,NA
29745,York County,SC,NA,45.2991452991453
29841,Aiken County,SC,5.252918287937743,NA
57039,Lincoln County,SD,97.47081712062257,NA
57104,Minnehaha County,SD,NA,54.700854700854705
57106,Minnehaha County,SD,25.291828793774318,NA
37138,Davidson County,TN,72.76264591439688,NA
37206,Davidson County,TN,NA,28.774928774928775
37209,Davidson County,TN,38.32684824902724,NA
37303,McMinn County,TN,NA,20.51282051282051
37352,Moore County,TN,96.88715953307393,NA
37377,Hamilton County,TN,64.59143968871595,NA
37398,Franklin County,TN,NA,40.17094017094017
37412,Hamilton County,TN,NA,45.01424501424501
37604,Washington County,TN,31.712062256809336,NA
37620,Sullivan County,TN,25.87548638132296,NA
37642,Hawkins County,TN,68.28793774319067,NA
37650,Unicoi County,TN,59.143968871595334,NA
37659,Washington County,TN,67.50972762645915,NA
37763,Roane County,TN,NA,59.25925925925925
37876,Sevier County,TN,44.3579766536965,NA
37918,Knox County,TN,NA,15.0997150997151
37923,Knox County,TN,NA,46.438746438746435
38112,Shelby County,TN,NA,55.84045584045584
38305,Madison County,TN,NA,9.686609686609685
38320,Benton County,TN,80.35019455252919,NA
38351,Henderson County,TN,14.591439688715955,NA
38506,Putnam County,TN,48.249027237354085,NA
38571,Cumberland County,TN,NA,48.148148148148145
75007,Denton County,TX,57.39299610894941,NA
75013,Collin County,TX,NA,81.76638176638177
75020,Grayson County,TX,76.26459143968872,NA
75022,Denton County,TX,NA,72.36467236467237
75035,Collin County,TX,28.404669260700388,NA
75039,Dallas County,TX,NA,74.07407407407408
75043,Dallas County,TX,34.43579766536965,NA
75050,Dallas County,TX,60.11673151750973,NA
75063,Dallas County,TX,71.40077821011673,NA
75070,Collin County,TX,50.97276264591439,NA
75089,Dallas County,TX,NA,53.561253561253565
75093,Collin County,TX,25.09727626459144,NA
75146,Dallas County,TX,27.82101167315175,NA
75154,Ellis County,TX,18.28793774319066,NA
75165,Ellis County,TX,21.011673151750973,NA
75211,Dallas County,TX,6.614785992217899,NA
75220,Dallas County,TX,28.21011673151751,NA
75225,Dallas County,TX,NA,86.03988603988604
75234,Dallas County,TX,NA,61.25356125356125
75240,Dallas County,TX,58.36575875486382,NA
75252,Collin County,TX,NA,58.119658119658126
75253,Dallas County,TX,31.1284046692607,NA
75503,Bowie County,TX,75.4863813229572,NA
75662,Gregg County,TX,NA,74.35897435897436
76010,Tarrant County,TX,NA,17.663817663817664
76021,Tarrant County,TX,NA,29.34472934472934
76034,Tarrant County,TX,82.29571984435798,NA
76053,Tarrant County,TX,42.217898832684824,NA
76063,Tarrant County,TX,2.140077821011673,NA
76067,Palo Pinto County,TX,55.83657587548638,NA
76105,Tarrant County,TX,11.86770428015564,NA
76114,Tarrant County,TX,77.04280155642024,NA
76116,Tarrant County,TX,9.72762645914397,NA
76117,Tarrant County,TX,39.494163424124515,NA
76132,Tarrant County,TX,NA,56.12535612535613
76137,Tarrant County,TX,NA,65.24216524216524
76179,Tarrant County,TX,42.217898832684824,NA
76180,Tarrant County,TX,32.87937743190661,NA
76210,Denton County,TX,39.10505836575876,49.572649572649574
76226,Denton County,TX,46.10894941634241,NA
76244,Tarrant County,TX,5.447470817120623,NA
76259,Denton County,TX,NA,96.86609686609687
76401,Erath County,TX,52.52918287937744,NA
76513,Bell County,TX,3.501945525291829,NA
77011,Harris County,TX,74.12451361867704,NA
77079,Harris County,TX,52.14007782101168,NA
77080,Harris County,TX,37.35408560311284,NA
77093,Harris County,TX,NA,37.89173789173789
77379,Harris County,TX,NA,23.36182336182336
77575,Liberty County,TX,NA,58.97435897435898
77584,Brazoria County,TX,15.369649805447471,NA
77632,Orange County,TX,NA,45.58404558404558
77845,Brazos County,TX,NA,9.971509971509972
77871,Leon County,TX,98.24902723735408,NA
78002,Bexar County,TX,84.24124513618678,NA
78043,Webb County,TX,4.669260700389105,NA
78213,Bexar County,TX,35.019455252918284,NA
78237,Bexar County,TX,17.120622568093385,NA
78244,Bexar County,TX,40.27237354085603,NA
78410,Nueces County,TX,65.1750972762646,NA
78582,Starr County,TX,67.12062256809338,NA
78735,Travis County,TX,90.85603112840467,NA
78839,Zavala County,TX,NA,90.5982905982906
79703,Midland County,TX,74.31906614785993,NA
79902,El Paso County,TX,56.03112840466926,NA
79935,El Paso County,TX,32.68482490272373,NA
79936,El Paso County,TX,12.645914396887159,NA
84040,Davis County,UT,93.96887159533074,NA
84057,Utah County,UT,NA,59.82905982905983
84093,Salt Lake County,UT,48.83268482490272,NA
84119,Salt Lake County,UT,13.618677042801556,NA
84123,Salt Lake County,UT,NA,19.943019943019944
84660,Utah County,UT,37.35408560311284,NA
20151,Fairfax County,VA,NA,82.62108262108262
20171,Fairfax County,VA,50,NA
22003,Fairfax County,VA,20.622568093385212,NA
22101,Fairfax County,VA,NA,91.16809116809117
22124,Fairfax County,VA,81.71206225680933,NA
22151,Fairfax County,VA,76.65369649805449,NA
22205,Arlington County,VA,69.06614785992218,NA
22304,Alexandria city,VA,NA,15.954415954415953
22310,Fairfax County,VA,77.62645914396887,NA
22630,Warren County,VA,NA,23.076923076923077
22657,Shenandoah County,VA,NA,46.15384615384615
23113,Chesterfield County,VA,NA,77.77777777777779
23116,Hanover County,VA,NA,56.98005698005698
23322,Chesapeake city,VA,NA,75.21367521367522
23502,Norfolk city,VA,63.61867704280155,NA
23602,Newport News city,VA,15.56420233463035,NA
24266,Russell County,VA,NA,62.67806267806267
24572,Amherst County,VA,60.70038910505836,NA
24592,Halifax County,VA,NA,24.786324786324787
98023,King County,WA,NA,23.646723646723647
98026,Snohomish County,WA,NA,85.47008547008546
98029,King County,WA,58.36575875486382,NA
98092,King County,WA,NA,22.22222222222222
98203,Snohomish County,WA,14.007782101167315,NA
98282,Island County,WA,NA,79.48717948717949
98370,Kitsap County,WA,NA,65.8119658119658
98422,Pierce County,WA,NA,54.131054131054135
98512,Thurston County,WA,64.00778210116731,NA
98513,Thurston County,WA,89.88326848249028,NA
98674,Cowlitz County,WA,NA,95.15669515669516
98903,Yakima County,WA,94.3579766536965,NA
99006,Spokane County,WA,85.01945525291829,NA
99208,Spokane County,WA,13.424124513618677,NA
99217,Spokane County,WA,NA,70.37037037037037
99301,Franklin County,WA,0.9727626459143969,NA
20011,District of Columbia,DC,16.926070038910506,8.831908831908832
20012,District of Columbia,DC,85.40856031128405,NA
20032,District of Columbia,DC,NA,5.128205128205128
24739,Mercer County,WV,NA,81.48148148148148
25143,Kanawha County,WV,62.64591439688716,NA
26101,Wood County,WV,7.198443579766536,NA
26505,Monongalia County,WV,35.60311284046693,NA
53029,Waukesha County,WI,43.77431906614786,NA
53045,Waukesha County,WI,78.98832684824903,NA
53074,Ozaukee County,WI,91.82879377431907,NA
53081,Sheboygan County,WI,16.147859922178988,NA
53090,Washington County,WI,NA,55.55555555555556
53092,Ozaukee County,WI,81.51750972762646,NA
53132,Milwaukee County,WI,27.042801556420233,NA
53144,Kenosha County,WI,10.894941634241246,NA
53154,Milwaukee County,WI,NA,20.22792022792023
53172,Milwaukee County,WI,78.79377431906615,NA
53207,Milwaukee County,WI,33.07392996108949,NA
53225,Milwaukee County,WI,5.642023346303502,NA
53403,Racine County,WI,75.4863813229572,NA
53405,Racine County,WI,NA,5.982905982905983
53532,Dane County,WI,NA,62.10826210826211
53546,Rock County,WI,34.24124513618677,NA
53590,Dane County,WI,16.731517509727624,NA
53913,Sauk County,WI,43.3852140077821,NA
53959,Sauk County,WI,44.74708171206226,NA
54001,Polk County,WI,79.1828793774319,NA
54016,St. Croix County,WI,74.70817120622569,68.94586894586895
54017,St. Croix County,WI,28.599221789883266,NA
54114,Marinette County,WI,NA,87.17948717948718
54115,Brown County,WI,53.11284046692607,NA
54143,Marinette County,WI,41.245136186770424,NA
54426,Marathon County,WI,100,NA
54660,Monroe County,WI,NA,43.3048433048433
54701,Eau Claire County,WI,45.13618677042802,NA
54848,Rusk County,WI,95.91439688715954,NA
