ZipCode,county,state,Adult,Retirement,Geriatric
35010,Tallapoosa County,AL,NA,29.894179894179896,NA
35079,Blount County,AL,NA,79.62962962962963,NA
35111,Tuscaloosa County,AL,NA,28.835978835978835,NA
35214,Jefferson County,AL,27.55102040816326,NA,NA
35242,Shelby County,AL,NA,11.64021164021164,64.53488372093024
35243,Jefferson County,AL,NA,NA,93.02325581395348
35570,Marion County,AL,NA,NA,73.25581395348837
35630,Lauderdale County,AL,26.27551020408163,NA,NA
35661,Colbert County,AL,60.96938775510205,NA,NA
36277,Calhoun County,AL,80.35714285714286,NA,NA
36421,Covington County,AL,NA,75.39682539682539,NA
36610,Mobile County,AL,56.63265306122449,NA,NA
99611,Kenai Peninsula Borough,AK,64.54081632653062,NA,NA
99835,Sitka City and Borough,AK,NA,NA,85.46511627906976
85024,Maricopa County,AZ,NA,79.1005291005291,NA
85027,Maricopa County,AZ,37.755102040816325,53.96825396825397,NA
85043,Maricopa County,AZ,50.51020408163265,NA,NA
85194,Pinal County,AZ,NA,89.15343915343915,NA
85207,Maricopa County,AZ,NA,24.867724867724867,NA
85212,Maricopa County,AZ,NA,62.43386243386243,NA
85251,Maricopa County,AZ,NA,50.264550264550266,NA
85254,Maricopa County,AZ,NA,30.687830687830687,NA
85260,Maricopa County,AZ,79.59183673469387,NA,NA
85281,Maricopa County,AZ,NA,72.22222222222221,NA
85296,Maricopa County,AZ,28.8265306122449,NA,NA
85340,Maricopa County,AZ,61.224489795918366,NA,NA
85641,Pima County,AZ,NA,70.1058201058201,NA
85705,Pima County,AZ,2.806122448979592,NA,NA
85710,Pima County,AZ,9.183673469387756,NA,NA
85712,Pima County,AZ,19.132653061224488,NA,NA
85730,Pima County,AZ,22.448979591836736,NA,NA
86001,Coconino County,AZ,NA,90.74074074074075,NA
71923,Clark County,AR,NA,63.49206349206349,NA
72104,Hot Spring County,AR,NA,59.25925925925925,NA
72176,Lonoke County,AR,82.6530612244898,NA,NA
72764,Washington County,AR,32.6530612244898,NA,NA
72830,Johnson County,AR,NA,NA,81.3953488372093
90006,Los Angeles County,CA,NA,58.994708994709,NA
90022,Los Angeles County,CA,31.377551020408163,NA,NA
90028,Los Angeles County,CA,NA,NA,38.372093023255815
90247,Los Angeles County,CA,NA,47.883597883597886,NA
90250,Los Angeles County,CA,NA,21.164021164021165,NA
90255,Los Angeles County,CA,25.510204081632654,NA,NA
90260,Los Angeles County,CA,68.36734693877551,NA,NA
90272,Los Angeles County,CA,NA,66.13756613756614,NA
90280,Los Angeles County,CA,NA,36.507936507936506,NA
90403,Los Angeles County,CA,96.1734693877551,NA,NA
90680,Orange County,CA,NA,NA,61.627906976744185
90712,Los Angeles County,CA,NA,47.354497354497354,NA
90813,Los Angeles County,CA,NA,77.77777777777779,NA
91030,Los Angeles County,CA,81.12244897959184,NA,NA
91321,Los Angeles County,CA,NA,63.75661375661375,NA
91384,Los Angeles County,CA,99.23469387755102,NA,NA
91764,San Bernardino County,CA,NA,NA,61.04651162790697
91768,Los Angeles County,CA,39.795918367346935,NA,NA
91776,Los Angeles County,CA,76.53061224489795,NA,NA
91911,San Diego County,CA,20.408163265306122,NA,NA
92024,San Diego County,CA,37.244897959183675,NA,NA
92025,San Diego County,CA,45.66326530612245,NA,NA
92081,San Diego County,CA,NA,NA,50.58139534883721
92106,San Diego County,CA,NA,NA,74.4186046511628
92223,Riverside County,CA,NA,NA,42.44186046511628
92270,Riverside County,CA,NA,6.349206349206349,NA
92307,San Bernardino County,CA,24.23469387755102,NA,NA
92313,San Bernardino County,CA,NA,86.5079365079365,NA
92395,San Bernardino County,CA,23.46938775510204,NA,NA
92570,Riverside County,CA,NA,43.12169312169312,NA
92691,Orange County,CA,48.97959183673469,NA,NA
92882,Riverside County,CA,NA,35.714285714285715,NA
93030,Ventura County,CA,46.42857142857143,NA,NA
93036,Ventura County,CA,57.90816326530612,NA,NA
93274,Tulare County,CA,5.86734693877551,NA,NA
93277,Tulare County,CA,21.683673469387756,NA,NA
93312,Kern County,CA,34.183673469387756,NA,NA
93313,Kern County,CA,71.93877551020408,NA,NA
93401,San Luis Obispo County,CA,74.23469387755102,NA,NA
93703,Fresno County,CA,40.30612244897959,NA,NA
93906,Monterey County,CA,NA,41.7989417989418,NA
93927,Monterey County,CA,85.45918367346938,NA,NA
93955,Monterey County,CA,NA,NA,30.23255813953488
94015,San Mateo County,CA,NA,8.73015873015873,NA
94089,Santa Clara County,CA,NA,81.74603174603175,NA
94109,San Francisco County,CA,NA,10.582010582010582,NA
94122,San Francisco County,CA,89.03061224489795,NA,NA
94301,Santa Clara County,CA,97.70408163265306,NA,NA
94546,Alameda County,CA,71.68367346938776,NA,NA
94549,Contra Costa County,CA,NA,NA,31.976744186046513
94561,Contra Costa County,CA,65.3061224489796,NA,NA
94579,Alameda County,CA,77.8061224489796,NA,NA
95014,Santa Clara County,CA,NA,61.64021164021164,NA
95037,Santa Clara County,CA,51.78571428571429,66.66666666666666,NA
95118,Santa Clara County,CA,77.55102040816327,NA,NA
95120,Santa Clara County,CA,81.37755102040816,NA,NA
95122,Santa Clara County,CA,NA,45.5026455026455,NA
95123,Santa Clara County,CA,NA,25.132275132275133,NA
95126,Santa Clara County,CA,59.94897959183674,NA,NA
95206,San Joaquin County,CA,19.387755102040817,NA,NA
95350,Stanislaus County,CA,NA,12.698412698412698,NA
95361,Stanislaus County,CA,38.265306122448976,NA,NA
95503,Humboldt County,CA,70.1530612244898,NA,NA
95630,Sacramento County,CA,22.70408163265306,NA,NA
95757,Sacramento County,CA,NA,NA,55.81395348837209
95820,Sacramento County,CA,48.214285714285715,NA,NA
95821,Sacramento County,CA,39.03061224489796,NA,NA
95833,Sacramento County,CA,NA,NA,62.7906976744186
95843,Sacramento County,CA,NA,85.44973544973546,NA
95926,Butte County,CA,NA,NA,63.95348837209303
80014,Arapahoe County,CO,27.040816326530614,NA,NA
80022,Adams County,CO,NA,70.37037037037037,NA
80108,Douglas County,CO,NA,NA,88.37209302325581
80120,Arapahoe County,CO,NA,46.2962962962963,NA
80241,Adams County,CO,51.02040816326531,NA,NA
80301,Boulder County,CO,54.33673469387755,NA,NA
80501,Boulder County,CO,64.28571428571429,NA,NA
80525,Larimer County,CO,69.38775510204081,NA,NA
80915,El Paso County,CO,80.10204081632652,NA,57.55813953488372
80920,El Paso County,CO,NA,NA,72.09302325581395
81201,Chaffee County,CO,88.26530612244898,NA,79.65116279069767
81212,Fremont County,CO,35.714285714285715,49.47089947089947,NA
06002,Hartford County,CT,NA,80.42328042328042,NA
06033,Hartford County,CT,94.64285714285714,NA,NA
06051,Hartford County,CT,3.826530612244898,NA,NA
06053,Hartford County,CT,11.224489795918368,NA,NA
06062,Hartford County,CT,NA,NA,89.53488372093024
06066,Tolland County,CT,NA,16.666666666666664,NA
06071,Tolland County,CT,NA,NA,71.51162790697676
06082,Hartford County,CT,17.346938775510203,NA,NA
06114,Hartford County,CT,NA,NA,60.46511627906976
06117,Hartford County,CT,NA,83.86243386243386,NA
06249,New London County,CT,NA,NA,76.16279069767442
06416,Middlesex County,CT,65.81632653061224,NA,NA
06451,New Haven County,CT,NA,68.78306878306879,NA
06606,Fairfield County,CT,NA,30.158730158730158,NA
06611,Fairfield County,CT,69.64285714285714,NA,NA
06704,New Haven County,CT,NA,NA,70.93023255813954
06902,Fairfield County,CT,18.367346938775512,NA,NA
19702,New Castle County,DE,NA,NA,50
19711,New Castle County,DE,NA,9.25925925925926,NA
19713,New Castle County,DE,NA,28.04232804232804,NA
19803,New Castle County,DE,NA,47.08994708994709,NA
19941,Sussex County,DE,92.3469387755102,NA,NA
19958,Sussex County,DE,NA,24.074074074074073,NA
32065,Clay County,FL,77.04081632653062,NA,NA
32148,Putnam County,FL,NA,NA,62.2093023255814
32177,Putnam County,FL,42.60204081632653,NA,NA
32205,Duval County,FL,NA,66.93121693121694,NA
32217,Duval County,FL,NA,43.65079365079365,NA
32506,Escambia County,FL,NA,15.608465608465607,NA
32536,Okaloosa County,FL,NA,22.486772486772484,NA
32605,Alachua County,FL,NA,95.76719576719577,NA
32714,Seminole County,FL,93.36734693877551,NA,40.69767441860465
32738,Volusia County,FL,NA,35.44973544973545,NA
33042,Monroe County,FL,90.05102040816327,NA,NA
33066,Broward County,FL,NA,NA,21.511627906976745
33156,Miami-Dade County,FL,NA,55.29100529100529,NA
33166,Miami-Dade County,FL,NA,51.32275132275132,NA
33409,Palm Beach County,FL,61.47959183673469,NA,NA
33442,Broward County,FL,NA,NA,12.209302325581394
33498,Palm Beach County,FL,NA,83.5978835978836,NA
33615,Hillsborough County,FL,NA,29.629629629629626,NA
33619,Hillsborough County,FL,30.102040816326532,NA,NA
33870,Highlands County,FL,NA,NA,58.139534883720934
33972,Lee County,FL,NA,90.47619047619048,NA
34243,Manatee County,FL,NA,NA,8.720930232558139
34613,Hernando County,FL,NA,NA,32.55813953488372
34654,Pasco County,FL,NA,51.85185185185185,NA
34787,Orange County,FL,NA,91.7989417989418,NA
34953,St. Lucie County,FL,NA,53.43915343915344,NA
34994,Martin County,FL,70.66326530612244,NA,NA
30019,Gwinnett County,GA,NA,40.476190476190474,NA
30024,Gwinnett County,GA,18.112244897959183,NA,NA
30102,Cherokee County,GA,44.13265306122449,NA,NA
30152,Cobb County,GA,51.53061224489795,NA,NA
30157,Paulding County,GA,NA,22.75132275132275,NA
30349,Fulton County,GA,8.16326530612245,NA,NA
30666,Barrow County,GA,76.78571428571429,NA,NA
30680,Barrow County,GA,NA,19.576719576719576,NA
30750,Walker County,GA,NA,100,NA
30809,Columbia County,GA,31.63265306122449,NA,NA
31204,Bibb County,GA,59.94897959183674,NA,NA
31719,Sumter County,GA,NA,78.57142857142857,NA
31763,Lee County,GA,NA,64.55026455026454,NA
96789,Honolulu County,HI,NA,83.06878306878306,NA
83336,Minidoka County,ID,94.89795918367348,NA,NA
83401,Bonneville County,ID,58.41836734693877,NA,NA
83501,Nez Perce County,ID,41.07142857142857,NA,6.976744186046512
83544,Clearwater County,ID,75.51020408163265,NA,NA
83617,Gem County,ID,84.43877551020408,NA,NA
83628,Owyhee County,ID,95.1530612244898,NA,NA
83646,Ada County,ID,NA,31.48148148148148,NA
83651,Canyon County,ID,46.683673469387756,NA,NA
83704,Ada County,ID,15.561224489795919,NA,NA
83709,Ada County,ID,59.43877551020408,NA,NA
83714,Ada County,ID,NA,NA,16.27906976744186
83864,Bonner County,ID,NA,48.148148148148145,NA
83869,Kootenai County,ID,NA,99.47089947089947,NA
60010,Lake County,IL,NA,NA,20.930232558139537
60022,Cook County,IL,NA,92.85714285714286,NA
60035,Lake County,IL,NA,12.16931216931217,NA
60047,Lake County,IL,32.142857142857146,18.78306878306878,NA
60050,McHenry County,IL,33.92857142857143,NA,NA
60061,Lake County,IL,NA,91.53439153439153,NA
60062,Cook County,IL,NA,4.761904761904762,NA
60068,Cook County,IL,NA,34.39153439153439,NA
60073,Lake County,IL,14.795918367346939,NA,NA
60081,McHenry County,IL,83.6734693877551,NA,NA
60134,Kane County,IL,41.3265306122449,NA,NA
60137,DuPage County,IL,NA,28.306878306878307,NA
60142,McHenry County,IL,NA,NA,2.3255813953488373
60152,McHenry County,IL,NA,49.2063492063492,NA
60194,Cook County,IL,67.85714285714286,NA,NA
60201,Cook County,IL,NA,NA,7.55813953488372
60304,Cook County,IL,NA,NA,65.11627906976744
60439,Cook County,IL,NA,50.52910052910053,NA
60441,Will County,IL,NA,25.66137566137566,NA
60447,Grundy County,IL,52.295918367346935,NA,NA
60481,Will County,IL,NA,53.70370370370371,NA
60510,Kane County,IL,30.612244897959183,NA,NA
60521,DuPage County,IL,NA,60.05291005291006,NA
60544,Will County,IL,NA,20.634920634920633,20.348837209302324
60564,Will County,IL,32.90816326530612,21.428571428571427,NA
60565,DuPage County,IL,NA,17.724867724867725,NA
60610,Cook County,IL,NA,56.613756613756614,NA
60619,Cook County,IL,6.377551020408164,NA,NA
60632,Cook County,IL,NA,26.71957671957672,NA
60644,Cook County,IL,NA,NA,48.25581395348838
60657,Cook County,IL,78.06122448979592,NA,NA
60659,Cook County,IL,69.89795918367348,NA,NA
60660,Cook County,IL,23.214285714285715,NA,NA
61102,Winnebago County,IL,75,NA,NA
61109,Winnebago County,IL,43.11224489795919,NA,NA
61264,Rock Island County,IL,NA,82.27513227513228,NA
61301,LaSalle County,IL,NA,NA,90.11627906976744
61873,Champaign County,IL,NA,83.33333333333334,NA
62040,Madison County,IL,NA,8.201058201058201,NA
46033,Hamilton County,IN,NA,86.24338624338624,NA
46036,Madison County,IN,NA,54.761904761904766,NA
46118,Hendricks County,IN,100,NA,NA
46168,Hendricks County,IN,35.204081632653065,NA,NA
46226,Marion County,IN,71.42857142857143,NA,NA
46237,Marion County,IN,NA,NA,18.6046511627907
46256,Marion County,IN,NA,NA,54.65116279069767
46307,Lake County,IN,1.2755102040816326,NA,NA
46368,Porter County,IN,NA,13.756613756613756,NA
46373,Lake County,IN,NA,37.301587301587304,NA
46615,St. Joseph County,IN,NA,71.95767195767195,NA
46818,Allen County,IN,36.224489795918366,NA,NA
47172,Clark County,IN,NA,63.227513227513235,NA
47240,Decatur County,IN,NA,18.51851851851852,NA
47265,Jennings County,IN,52.04081632653062,NA,NA
47330,Wayne County,IN,NA,97.08994708994709,NA
47331,Fayette County,IN,NA,NA,9.30232558139535
47374,Wayne County,IN,NA,3.439153439153439,NA
47546,Dubois County,IN,NA,68.25396825396825,NA
47715,Vanderburgh County,IN,NA,NA,18.023255813953487
50014,Story County,IA,NA,NA,86.62790697674419
50125,Warren County,IA,63.26530612244898,NA,NA
50266,Polk County,IA,NA,91.26984126984127,NA
50317,Polk County,IA,NA,12.962962962962962,NA
50501,Webster County,IA,NA,NA,56.97674418604651
50677,Bremer County,IA,NA,NA,47.674418604651166
50801,Union County,IA,NA,49.735449735449734,NA
51503,Pottawattamie County,IA,NA,23.809523809523807,NA
51632,Page County,IA,NA,NA,36.627906976744185
52302,Linn County,IA,18.877551020408163,NA,NA
52601,Des Moines County,IA,55.10204081632652,NA,NA
52804,Scott County,IA,NA,33.5978835978836,NA
66049,Douglas County,KS,53.316326530612244,NA,NA
66209,Johnson County,KS,88.01020408163265,NA,NA
66434,Brown County,KS,NA,87.03703703703704,NA
66762,Crawford County,KS,NA,NA,51.74418604651163
67410,Dickinson County,KS,77.29591836734694,NA,NA
67801,Ford County,KS,54.08163265306123,NA,NA
67901,Seward County,KS,NA,71.6931216931217,NA
40059,Jefferson County,KY,NA,62.698412698412696,NA
40220,Jefferson County,KY,NA,18.253968253968253,NA
40342,Anderson County,KY,NA,54.232804232804234,NA
40504,Fayette County,KY,39.285714285714285,NA,NA
40505,Fayette County,KY,NA,29.365079365079367,NA
40962,Clay County,KY,NA,17.724867724867725,NA
41102,Boyd County,KY,NA,16.93121693121693,NA
41311,Lee County,KY,84.6938775510204,NA,NA
41501,Pike County,KY,35.45918367346938,NA,NA
42104,Warren County,KY,38.775510204081634,NA,NA
42276,Logan County,KY,51.275510204081634,NA,NA
42420,Henderson County,KY,9.948979591836734,NA,NA
42459,Union County,KY,87.75510204081633,NA,NA
42635,McCreary County,KY,NA,92.32804232804233,NA
42728,Adair County,KY,72.70408163265306,NA,NA
70006,Jefferson Parish,LA,NA,73.80952380952381,NA
70037,Plaquemines Parish,LA,38.52040816326531,NA,NA
70052,St. James Parish,LA,NA,NA,100
70117,Orleans Parish,LA,4.591836734693878,NA,NA
70131,Orleans Parish,LA,57.6530612244898,NA,44.18604651162791
70364,Terrebonne Parish,LA,90.56122448979592,NA,NA
70394,Lafourche Parish,LA,NA,NA,73.83720930232558
70447,St. Tammany Parish,LA,74.74489795918367,NA,NA
70501,Lafayette Parish,LA,NA,21.693121693121693,NA
70533,Vermilion Parish,LA,NA,NA,95.93023255813954
70549,Jefferson Davis Parish,LA,96.93877551020408,NA,NA
70592,Lafayette Parish,LA,25,NA,NA
70714,East Baton Rouge Parish,LA,NA,NA,69.76744186046511
70726,Livingston Parish,LA,NA,39.682539682539684,NA
70808,East Baton Rouge Parish,LA,NA,94.44444444444444,NA
71047,Caddo Parish,LA,83.6734693877551,NA,NA
71112,Bossier Parish,LA,NA,75.92592592592592,NA
71201,Ouachita Parish,LA,29.591836734693878,NA,NA
03904,York County,ME,NA,NA,59.883720930232556
03909,York County,ME,NA,49.735449735449734,NA
04005,York County,ME,NA,4.497354497354497,NA
04072,York County,ME,NA,69.84126984126983,NA
04073,York County,ME,NA,NA,77.32558139534885
04092,Cumberland County,ME,NA,NA,94.76744186046511
04330,Kennebec County,ME,NA,NA,13.953488372093023
04350,Kennebec County,ME,NA,NA,99.4186046511628
04605,Hancock County,ME,NA,NA,82.55813953488372
04901,Kennebec County,ME,5.1020408163265305,2.91005291005291,NA
04915,Waldo County,ME,NA,34.12698412698413,NA
04963,Kennebec County,ME,NA,87.56613756613757,NA
20601,Charles County,MD,62.755102040816325,NA,NA
20676,Calvert County,MD,NA,98.67724867724867,NA
20695,Charles County,MD,NA,96.56084656084656,NA
20705,Prince George's County,MD,NA,70.37037037037037,NA
21012,Anne Arundel County,MD,NA,67.46031746031747,NA
21014,Harford County,MD,NA,87.3015873015873,NA
21015,Harford County,MD,NA,57.407407407407405,NA
21032,Anne Arundel County,MD,86.73469387755102,NA,NA
21042,Howard County,MD,63.52040816326531,NA,NA
21117,Baltimore County,MD,NA,22.22222222222222,NA
21122,Anne Arundel County,MD,NA,11.904761904761903,NA
21204,Baltimore County,MD,83.16326530612244,NA,NA
21209,Baltimore County,MD,NA,60.317460317460316,NA
21401,Anne Arundel County,MD,NA,65.07936507936508,NA
21403,Anne Arundel County,MD,57.39795918367348,NA,NA
21620,Kent County,MD,94.38775510204081,59.523809523809526,NA
21666,Queen Anne's County,MD,86.98979591836735,NA,NA
21804,Wicomico County,MD,45.1530612244898,NA,NA
01033,Hampshire County,MA,NA,82.8042328042328,NA
01082,Hampshire County,MA,NA,37.83068783068783,NA
01085,Hampden County,MA,NA,1.5873015873015872,NA
01119,Hampden County,MA,15.306122448979592,NA,NA
01201,Berkshire County,MA,0,0.26455026455026454,NA
01453,Worcester County,MA,NA,1.0582010582010581,NA
01545,Worcester County,MA,NA,14.550264550264549,NA
01606,Worcester County,MA,NA,NA,83.13953488372093
01701,Middlesex County,MA,NA,NA,9.883720930232558
01702,Middlesex County,MA,NA,NA,6.395348837209303
01746,Middlesex County,MA,17.857142857142858,NA,NA
01778,Middlesex County,MA,NA,NA,75.5813953488372
01824,Middlesex County,MA,9.438775510204081,NA,NA
01834,Essex County,MA,99.48979591836735,NA,NA
01844,Essex County,MA,8.418367346938775,NA,NA
01852,Middlesex County,MA,0.25510204081632654,NA,NA
01863,Middlesex County,MA,NA,59.78835978835979,NA
01890,Middlesex County,MA,NA,NA,15.11627906976744
01915,Essex County,MA,23.97959183673469,NA,NA
01921,Essex County,MA,95.66326530612244,NA,NA
01930,Essex County,MA,NA,33.06878306878307,NA
01938,Essex County,MA,NA,NA,69.18604651162791
01950,Essex County,MA,NA,20.37037037037037,NA
02026,Norfolk County,MA,NA,NA,17.441860465116278
02043,Plymouth County,MA,NA,NA,22.093023255813954
02053,Norfolk County,MA,45.91836734693878,NA,NA
02124,Suffolk County,MA,0.5102040816326531,NA,NA
02128,Suffolk County,MA,NA,44.44444444444444,NA
02129,Suffolk County,MA,16.83673469387755,NA,NA
02135,Suffolk County,MA,NA,NA,1.1627906976744187
02145,Middlesex County,MA,NA,7.142857142857142,NA
02150,Suffolk County,MA,NA,NA,5.813953488372093
02188,Norfolk County,MA,83.41836734693877,NA,NA
02341,Plymouth County,MA,NA,79.36507936507937,NA
02360,Plymouth County,MA,NA,15.079365079365079,NA
02467,Norfolk County,MA,NA,NA,28.488372093023255
02568,Dukes County,MA,NA,72.4867724867725,98.25581395348837
02703,Bristol County,MA,1.0204081632653061,NA,NA
48001,St. Clair County,MI,63.01020408163265,NA,NA
48043,Macomb County,MI,NA,52.64550264550265,NA
48076,Oakland County,MI,NA,23.015873015873016,NA
48080,Macomb County,MI,31.122448979591837,NA,NA
48103,Washtenaw County,MI,NA,NA,19.186046511627907
48105,Washtenaw County,MI,34.43877551020408,NA,NA
48120,Wayne County,MI,66.58163265306123,NA,NA
48126,Wayne County,MI,31.887755102040817,NA,NA
48130,Washtenaw County,MI,NA,38.62433862433862,NA
48141,Wayne County,MI,8.673469387755102,NA,NA
48144,Monroe County,MI,NA,NA,81.97674418604652
48162,Monroe County,MI,NA,2.6455026455026456,NA
48170,Wayne County,MI,NA,19.31216931216931,NA
48188,Wayne County,MI,NA,NA,34.30232558139535
48195,Wayne County,MI,NA,7.936507936507936,NA
48210,Wayne County,MI,NA,54.232804232804234,NA
48230,Wayne County,MI,NA,34.92063492063492,NA
48304,Oakland County,MI,61.98979591836735,NA,NA
48317,Macomb County,MI,NA,17.46031746031746,NA
48335,Oakland County,MI,NA,NA,33.13953488372093
48423,Genesee County,MI,59.183673469387756,NA,NA
48601,Saginaw County,MI,13.010204081632654,NA,NA
48611,Bay County,MI,97.95918367346938,NA,NA
48651,Roscommon County,MI,NA,NA,78.48837209302324
48842,Ingham County,MI,NA,38.095238095238095,NA
48858,Isabella County,MI,NA,NA,11.046511627906977
48911,Ingham County,MI,6.887755102040815,NA,NA
48917,Eaton County,MI,8.928571428571429,NA,NA
49009,Kalamazoo County,MI,37.5,NA,NA
49021,Eaton County,MI,NA,94.17989417989418,NA
49024,Kalamazoo County,MI,NA,57.14285714285714,NA
49046,Barry County,MI,NA,57.67195767195767,NA
49301,Kent County,MI,88.5204081632653,NA,NA
49316,Kent County,MI,NA,43.386243386243386,NA
49321,Kent County,MI,52.55102040816326,NA,NA
49327,Newaygo County,MI,70.40816326530613,NA,NA
49343,Kent County,MI,NA,NA,87.20930232558139
49417,Ottawa County,MI,NA,5.291005291005291,NA
49441,Muskegon County,MI,NA,3.968253968253968,NA
49519,Kent County,MI,44.642857142857146,NA,NA
49525,Kent County,MI,NA,NA,36.04651162790697
49663,Wexford County,MI,86.4795918367347,NA,NA
49855,Marquette County,MI,NA,NA,25
49930,Houghton County,MI,NA,89.94708994708994,NA
55076,Dakota County,MN,NA,NA,95.34883720930233
55317,Carver County,MN,70.91836734693877,NA,NA
55336,McLeod County,MN,NA,NA,43.02325581395349
55403,Hennepin County,MN,NA,32.804232804232804,NA
55404,Hennepin County,MN,NA,88.09523809523809,NA
55443,Hennepin County,MN,26.785714285714285,NA,NA
55448,Anoka County,MN,36.734693877551024,NA,NA
55449,Anoka County,MN,47.44897959183674,NA,NA
55904,Olmsted County,MN,NA,36.77248677248677,NA
55912,Mower County,MN,NA,3.1746031746031744,NA
55987,Winona County,MN,NA,2.380952380952381,NA
56001,Blue Earth County,MN,27.29591836734694,NA,NA
56241,Yellow Medicine County,MN,NA,95.23809523809523,NA
56265,Chippewa County,MN,NA,55.026455026455025,NA
56472,Crow Wing County,MN,NA,88.88888888888889,NA
56501,Becker County,MN,NA,78.3068783068783,66.27906976744185
56560,Clay County,MN,NA,4.232804232804233,NA
56636,Itasca County,MN,NA,68.51851851851852,NA
38834,Alcorn County,MS,NA,21.957671957671955,NA
39092,Scott County,MS,87.5,NA,NA
39095,Holmes County,MS,NA,NA,96.51162790697676
39206,Hinds County,MS,NA,77.24867724867724,NA
39565,Jackson County,MS,NA,NA,84.88372093023256
39571,Harrison County,MS,63.775510204081634,NA,NA
63011,St. Louis County,MO,NA,15.873015873015872,NA
63026,St. Louis County,MO,30.86734693877551,NA,NA
63103,St. Louis city,MO,79.08163265306123,NA,NA
63110,St. Louis city,MO,71.93877551020408,NA,NA
63130,St. Louis County,MO,49.234693877551024,NA,NA
63366,St. Charles County,MO,NA,NA,11.627906976744185
63383,Warren County,MO,NA,NA,41.86046511627907
63701,Cape Girardeau County,MO,NA,69.04761904761905,NA
63755,Cape Girardeau County,MO,58.16326530612245,NA,NA
64014,Jackson County,MO,17.602040816326532,NA,NA
64024,Clay County,MO,NA,33.86243386243386,NA
64063,Jackson County,MO,33.6734693877551,NA,NA
64079,Platte County,MO,NA,76.45502645502646,NA
64086,Jackson County,MO,NA,NA,84.30232558139535
64108,Jackson County,MO,NA,60.58201058201058,NA
64116,Clay County,MO,NA,41.00529100529101,NA
64134,Jackson County,MO,12.755102040816327,NA,NA
64137,Jackson County,MO,68.11224489795919,NA,NA
64624,Caldwell County,MO,98.9795918367347,NA,NA
64644,Caldwell County,MO,NA,99.73544973544973,NA
64850,Newton County,MO,NA,NA,23.837209302325583
65043,Callaway County,MO,NA,NA,91.86046511627907
65084,Morgan County,MO,NA,88.62433862433863,NA
65203,Boone County,MO,NA,9.523809523809524,NA
65270,Randolph County,MO,24.489795918367346,NA,NA
59923,Lincoln County,MT,56.12244897959183,NA,NA
68106,Douglas County,NE,NA,74.86772486772487,NA
68117,Douglas County,NE,86.22448979591837,NA,NA
68137,Douglas County,NE,NA,NA,54.06976744186046
69341,Scotts Bluff County,NE,NA,82.01058201058201,NA
89130,Clark County,NV,NA,52.116402116402114,NA
89431,Washoe County,NV,NA,97.61904761904762,NA
03234,Merrimack County,NH,NA,NA,98.83720930232558
03246,Belknap County,NH,NA,NA,68.02325581395348
03301,Merrimack County,NH,NA,NA,88.95348837209302
03431,Cheshire County,NH,NA,25.396825396825395,NA
03833,Rockingham County,NH,33.41836734693878,NA,NA
07002,Hudson County,NJ,10.459183673469388,NA,NA
07011,Passaic County,NJ,NA,23.544973544973544,NA
07030,Hudson County,NJ,6.63265306122449,NA,NA
07108,Essex County,NJ,NA,90.21164021164022,NA
07111,Essex County,NJ,NA,96.29629629629629,NA
07436,Bergen County,NJ,NA,85.18518518518519,NA
07456,Passaic County,NJ,82.90816326530613,NA,NA
07728,Monmouth County,NJ,NA,NA,4.069767441860465
07836,Morris County,NJ,NA,NA,56.395348837209305
08034,Camden County,NJ,89.54081632653062,NA,NA
08052,Burlington County,NJ,NA,NA,51.162790697674424
08053,Burlington County,NJ,20.918367346938776,NA,NA
08087,Ocean County,NJ,16.3265306122449,NA,NA
08401,Atlantic County,NJ,78.57142857142857,NA,NA
08822,Hunterdon County,NJ,NA,30.423280423280424,NA
08865,Warren County,NJ,38.01020408163265,NA,NA
87108,Bernalillo County,NM,NA,NA,26.744186046511626
87110,Bernalillo County,NM,11.73469387755102,NA,NA
87120,Bernalillo County,NM,9.693877551020408,NA,NA
87501,Santa Fe County,NM,NA,64.81481481481481,NA
87532,Santa Fe County,NM,NA,41.53439153439153,NA
88201,Chaves County,NM,29.336734693877553,NA,NA
88260,Lea County,NM,35.714285714285715,NA,NA
10016,New York County,NY,NA,46.03174603174603,NA
10023,New York County,NY,NA,NA,43.604651162790695
10024,New York County,NY,49.744897959183675,NA,NA
10025,New York County,NY,NA,85.71428571428571,NA
10032,New York County,NY,10.714285714285714,NA,NA
10035,New York County,NY,NA,58.201058201058196,NA
10065,New York County,NY,NA,NA,40.116279069767444
10303,Richmond County,NY,NA,42.857142857142854,NA
10312,Richmond County,NY,NA,NA,22.674418604651162
10452,Bronx County,NY,NA,35.978835978835974,NA
10455,Bronx County,NY,18.622448979591837,7.4074074074074066,NA
10463,Bronx County,NY,NA,3.7037037037037033,NA
10510,Westchester County,NY,NA,97.88359788359789,NA
10541,Putnam County,NY,NA,69.57671957671958,NA
10710,Westchester County,NY,NA,57.936507936507944,NA
11010,Nassau County,NY,91.58163265306123,NA,NA
11021,Nassau County,NY,NA,NA,46.51162790697674
11203,Kings County,NY,NA,5.026455026455026,10.465116279069768
11208,Kings County,NY,7.908163265306123,NA,NA
11209,Kings County,NY,NA,NA,15.69767441860465
11215,Kings County,NY,NA,81.48148148148148,NA
11216,Kings County,NY,NA,6.084656084656085,NA
11236,Kings County,NY,4.336734693877551,NA,NA
11365,Queens County,NY,NA,19.047619047619047,NA
11368,Queens County,NY,7.3979591836734695,NA,NA
11434,Queens County,NY,NA,NA,48.837209302325576
11777,Suffolk County,NY,NA,NA,76.74418604651163
11780,Suffolk County,NY,98.72448979591837,NA,NA
11787,Suffolk County,NY,76.0204081632653,NA,NA
12148,Saratoga County,NY,92.60204081632652,NA,NA
12188,Saratoga County,NY,NA,79.8941798941799,NA
12302,Schenectady County,NY,NA,NA,27.906976744186046
12308,Schenectady County,NY,33.16326530612245,NA,NA
12487,Ulster County,NY,99.74489795918367,NA,NA
12832,Washington County,NY,NA,NA,86.04651162790698
12983,Franklin County,NY,NA,93.12169312169311,NA
13032,Madison County,NY,28.061224489795915,NA,NA
13039,Onondaga County,NY,40.816326530612244,NA,NA
13126,Oswego County,NY,3.061224489795918,NA,NA
13212,Onondaga County,NY,26.53061224489796,NA,NA
13624,Jefferson County,NY,90.81632653061224,NA,NA
13753,Delaware County,NY,60.45918367346938,NA,NA
13795,Broome County,NY,66.83673469387756,NA,NA
13827,Tioga County,NY,NA,30.687830687830687,NA
14120,Niagara County,NY,4.846938775510204,NA,NA
14211,Erie County,NY,NA,14.02116402116402,NA
14223,Erie County,NY,NA,39.682539682539684,NA
14411,Orleans County,NY,22.95918367346939,NA,NA
14420,Monroe County,NY,14.285714285714285,NA,NA
14450,Monroe County,NY,1.7857142857142856,NA,NA
14456,Ontario County,NY,25.765306122448976,NA,NA
14469,Ontario County,NY,84.94897959183673,NA,NA
14610,Monroe County,NY,56.37755102040817,NA,NA
14612,Monroe County,NY,57.14285714285714,NA,NA
14619,Monroe County,NY,13.77551020408163,NA,NA
14620,Monroe County,NY,NA,NA,65.69767441860465
14779,Cattaraugus County,NY,62.5,NA,NA
14838,Chemung County,NY,NA,98.4126984126984,NA
27040,Forsyth County,NC,NA,62.16931216931217,NA
27284,Forsyth County,NC,NA,45.23809523809524,3.488372093023256
27292,Davidson County,NC,NA,1.3227513227513228,NA
27295,Davidson County,NC,3.316326530612245,NA,NA
27302,Alamance County,NC,56.88775510204081,NA,NA
27405,Guilford County,NC,32.39795918367347,NA,NA
27516,Orange County,NC,NA,42.32804232804233,NA
27517,Orange County,NC,NA,NA,91.27906976744185
27539,Wake County,NC,NA,61.904761904761905,NA
27834,Pitt County,NC,7.142857142857142,NA,NA
28025,Cabarrus County,NC,NA,12.433862433862434,NA
28052,Gaston County,NC,NA,23.015873015873016,NA
28128,Stanly County,NC,92.85714285714286,NA,NA
28212,Mecklenburg County,NC,67.60204081632652,NA,NA
28270,Mecklenburg County,NC,NA,NA,44.76744186046512
28277,Mecklenburg County,NC,NA,51.05820105820106,NA
28303,Cumberland County,NC,50.76530612244898,NA,NA
28372,Robeson County,NC,NA,61.111111111111114,NA
28409,New Hanover County,NC,34.94897959183674,NA,NA
28429,New Hanover County,NC,73.9795918367347,NA,NA
28540,Onslow County,NC,21.93877551020408,NA,NA
28557,Carteret County,NC,NA,NA,45.93023255813954
28645,Caldwell County,NC,3.571428571428571,NA,NA
28650,Catawba County,NC,78.8265306122449,NA,NA
28651,Wilkes County,NC,NA,NA,92.44186046511628
28655,Burke County,NC,5.612244897959184,NA,NA
28712,Transylvania County,NC,NA,34.39153439153439,NA
28739,Henderson County,NC,NA,11.375661375661375,68.6046511627907
28792,Henderson County,NC,NA,NA,0.5813953488372093
58601,Stark County,ND,NA,65.34391534391534,NA
43068,Franklin County,OH,NA,NA,23.25581395348837
43074,Delaware County,OH,NA,93.91534391534393,NA
43081,Franklin County,OH,19.897959183673468,NA,NA
43146,Pickaway County,OH,NA,97.35449735449735,NA
43201,Franklin County,OH,43.87755102040816,NA,NA
43212,Franklin County,OH,NA,95.5026455026455,NA
43213,Franklin County,OH,10.204081632653061,NA,NA
43224,Franklin County,OH,41.83673469387755,NA,NA
43228,Franklin County,OH,2.295918367346939,NA,NA
43232,Franklin County,OH,NA,44.70899470899471,NA
43326,Hardin County,OH,NA,41.269841269841265,NA
43410,Sandusky County,OH,47.19387755102041,NA,NA
43560,Lucas County,OH,21.428571428571427,NA,NA
43606,Lucas County,OH,NA,80.95238095238095,NA
43614,Lucas County,OH,NA,8.994708994708994,NA
43701,Muskingum County,OH,NA,0.5291005291005291,NA
43812,Coshocton County,OH,5.357142857142857,NA,NA
43821,Muskingum County,OH,NA,96.03174603174604,NA
43950,Belmont County,OH,NA,13.227513227513226,NA
44001,Lorain County,OH,55.86734693877551,NA,NA
44024,Geauga County,OH,69.13265306122449,NA,NA
44035,Lorain County,OH,NA,0,NA
44039,Lorain County,OH,58.92857142857143,NA,NA
44060,Lake County,OH,NA,5.82010582010582,NA
44077,Lake County,OH,2.0408163265306123,NA,NA
44095,Lake County,OH,NA,7.671957671957672,NA
44105,Cuyahoga County,OH,0.7653061224489796,0.7936507936507936,NA
44109,Cuyahoga County,OH,NA,13.492063492063492,NA
44111,Cuyahoga County,OH,10.96938775510204,NA,NA
44112,Cuyahoga County,OH,NA,61.37566137566137,NA
44116,Cuyahoga County,OH,34.69387755102041,NA,NA
44118,Cuyahoga County,OH,NA,NA,45.348837209302324
44124,Cuyahoga County,OH,NA,NA,8.13953488372093
44129,Cuyahoga County,OH,14.030612244897958,NA,NA
44130,Cuyahoga County,OH,20.153061224489797,8.465608465608465,NA
44133,Cuyahoga County,OH,NA,10.846560846560847,NA
44134,Cuyahoga County,OH,7.653061224489796,NA,NA
44142,Cuyahoga County,OH,NA,50.79365079365079,NA
44145,Cuyahoga County,OH,NA,NA,4.651162790697675
44212,Medina County,OH,NA,6.613756613756613,NA
44256,Medina County,OH,NA,NA,1.744186046511628
44286,Summit County,OH,NA,94.70899470899471,NA
44321,Summit County,OH,NA,42.06349206349206,NA
44484,Trumbull County,OH,55.35714285714286,NA,NA
44514,Mahoning County,OH,NA,27.77777777777778,NA
45241,Hamilton County,OH,NA,37.03703703703704,NA
45365,Shelby County,OH,11.989795918367346,NA,NA
45431,Montgomery County,OH,NA,52.38095238095239,NA
45434,Greene County,OH,NA,88.35978835978835,NA
45459,Montgomery County,OH,NA,55.55555555555556,NA
45502,Clark County,OH,NA,55.82010582010582,NA
45601,Ross County,OH,NA,NA,0
45680,Lawrence County,OH,12.5,NA,NA
45764,Athens County,OH,88.77551020408163,NA,NA
45840,Hancock County,OH,1.530612244897959,NA,NA
73071,Cleveland County,OK,NA,NA,59.30232558139535
73099,Canadian County,OK,NA,5.555555555555555,NA
73106,Oklahoma County,OK,65.05102040816327,NA,NA
73132,Oklahoma County,OK,72.95918367346938,NA,NA
73142,Oklahoma County,OK,NA,91.005291005291,52.90697674418605
74012,Tulsa County,OK,67.3469387755102,NA,NA
74063,Tulsa County,OK,NA,38.88888888888889,NA
74074,Payne County,OK,42.3469387755102,NA,NA
74745,McCurtain County,OK,NA,NA,93.6046511627907
74848,Hughes County,OK,NA,NA,87.79069767441861
74859,Okfuskee County,OK,NA,85.97883597883597,NA
97008,Washington County,OR,NA,NA,34.883720930232556
97035,Clackamas County,OR,NA,84.65608465608466,NA
97060,Multnomah County,OR,NA,86.5079365079365,NA
97080,Multnomah County,OR,89.28571428571429,NA,NA
97086,Clackamas County,OR,87.24489795918367,NA,NA
97138,Clatsop County,OR,54.59183673469388,NA,NA
97201,Multnomah County,OR,NA,74.60317460317461,NA
97223,Washington County,OR,NA,76.19047619047619,NA
97224,Washington County,OR,49.48979591836735,32.27513227513227,NA
97527,Josephine County,OR,41.58163265306122,NA,NA
97530,Jackson County,OR,NA,80.68783068783068,NA
15132,Allegheny County,PA,80.61224489795919,NA,NA
15143,Allegheny County,PA,NA,NA,38.95348837209303
15146,Allegheny County,PA,NA,28.835978835978835,27.325581395348834
15205,Allegheny County,PA,NA,52.64550264550265,NA
15228,Allegheny County,PA,NA,93.38624338624338,NA
15239,Allegheny County,PA,NA,NA,70.34883720930233
15301,Washington County,PA,6.122448979591836,NA,NA
15904,Cambria County,PA,75.76530612244898,NA,NA
16438,Erie County,PA,81.88775510204081,NA,NA
17003,Lebanon County,PA,NA,NA,75
17020,Perry County,PA,NA,67.72486772486772,NA
17022,Lancaster County,PA,NA,NA,19.767441860465116
17036,Dauphin County,PA,80.86734693877551,NA,NA
17055,Cumberland County,PA,NA,14.285714285714285,NA
17057,Dauphin County,PA,46.93877551020408,NA,NA
17313,York County,PA,NA,74.33862433862434,NA
17403,York County,PA,NA,2.1164021164021163,79.06976744186046
17584,Lancaster County,PA,NA,NA,39.53488372093023
17702,Lycoming County,PA,97.44897959183673,NA,NA
17754,Lycoming County,PA,93.11224489795919,75.39682539682539,NA
17821,Montour County,PA,NA,NA,53.48837209302325
18031,Lehigh County,PA,NA,NA,97.67441860465115
18069,Lehigh County,PA,NA,84.12698412698413,NA
18103,Lehigh County,PA,20.918367346938776,NA,NA
18104,Lehigh County,PA,NA,60.84656084656085,NA
18509,Lackawanna County,PA,NA,64.28571428571429,NA
18964,Montgomery County,PA,85.20408163265306,NA,NA
18966,Bucks County,PA,NA,9.788359788359788,NA
19003,Montgomery County,PA,62.244897959183675,NA,NA
19013,Delaware County,PA,2.5510204081632653,NA,NA
19047,Bucks County,PA,20.66326530612245,NA,NA
19063,Delaware County,PA,NA,10.317460317460316,NA
19085,Delaware County,PA,NA,96.82539682539682,NA
19087,Chester County,PA,NA,20.105820105820104,NA
19119,Philadelphia County,PA,53.57142857142857,NA,NA
19139,Philadelphia County,PA,64.79591836734694,NA,NA
19145,Philadelphia County,PA,85.71428571428571,NA,NA
19148,Philadelphia County,PA,67.09183673469387,NA,NA
19152,Philadelphia County,PA,17.091836734693878,NA,NA
19312,Chester County,PA,79.33673469387756,NA,NA
19344,Chester County,PA,72.44897959183673,NA,NA
19348,Chester County,PA,73.72448979591837,NA,NA
19390,Chester County,PA,NA,58.730158730158735,NA
19406,Montgomery County,PA,NA,35.978835978835974,47.093023255813954
19508,Berks County,PA,48.724489795918366,NA,NA
19522,Berks County,PA,NA,31.746031746031743,NA
19526,Berks County,PA,92.09183673469387,NA,NA
19539,Berks County,PA,95.91836734693877,NA,NA
02806,Bristol County,RI,66.07142857142857,NA,NA
02809,Bristol County,RI,53.826530612244895,NA,NA
02835,Newport County,RI,NA,82.53968253968253,NA
02838,Providence County,RI,96.42857142857143,NA,NA
02861,Providence County,RI,NA,26.984126984126984,NA
02864,Providence County,RI,NA,14.814814814814813,NA
02895,Providence County,RI,NA,NA,58.720930232558146
02903,Providence County,RI,NA,98.94179894179894,NA
02904,Providence County,RI,28.57142857142857,NA,NA
02919,Providence County,RI,NA,80.15873015873017,NA
02920,Providence County,RI,24.744897959183675,NA,NA
29072,Lexington County,SC,NA,24.33862433862434,NA
29414,Charleston County,SC,NA,NA,29.651162790697676
29418,Charleston County,SC,NA,58.46560846560847,NA
29483,Dorchester County,SC,NA,17.195767195767196,NA
29492,Berkeley County,SC,NA,81.21693121693121,NA
29511,Horry County,SC,85.96938775510205,NA,NA
29544,Horry County,SC,NA,NA,97.09302325581395
29585,Georgetown County,SC,NA,44.97354497354497,NA
29690,Greenville County,SC,NA,32.53968253968254,NA
29745,York County,SC,48.46938775510204,NA,NA
29835,McCormick County,SC,75.25510204081633,NA,NA
57105,Minnehaha County,SD,NA,73.28042328042328,NA
57106,Minnehaha County,SD,NA,NA,5.232558139534884
37066,Sumner County,TN,NA,6.878306878306878,NA
37110,Warren County,TN,15.051020408163266,NA,NA
37129,Rutherford County,TN,44.89795918367347,NA,NA
37174,Williamson County,TN,45.40816326530612,NA,NA
37323,Bradley County,TN,36.98979591836735,NA,NA
37338,Rhea County,TN,NA,99.20634920634922,NA
37379,Hamilton County,TN,36.47959183673469,NA,NA
37416,Hamilton County,TN,50.255102040816325,NA,NA
37617,Sullivan County,TN,NA,84.92063492063492,NA
37663,Sullivan County,TN,NA,NA,66.86046511627907
37664,Sullivan County,TN,84.18367346938776,44.17989417989418,NA
37686,Sullivan County,TN,96.42857142857143,NA,NA
37743,Greene County,TN,12.244897959183673,NA,NA
37803,Blount County,TN,60.71428571428571,NA,NA
37804,Blount County,TN,NA,16.402116402116402,NA
37813,Hamblen County,TN,23.72448979591837,NA,NA
37876,Sevier County,TN,61.73469387755102,NA,NA
37918,Knox County,TN,13.520408163265307,NA,NA
38116,Shelby County,TN,16.071428571428573,NA,NA
38118,Shelby County,TN,16.581632653061224,NA,NA
38119,Shelby County,TN,NA,93.65079365079364,NA
38310,McNairy County,TN,73.46938775510205,NA,NA
75028,Denton County,TX,NA,38.35978835978836,67.44186046511628
75033,,TX,93.87755102040816,NA,NA
75050,Dallas County,TX,NA,45.767195767195766,NA
75054,Tarrant County,TX,79.8469387755102,NA,NA
75060,Dallas County,TX,NA,40.21164021164021,NA
75061,Dallas County,TX,47.704081632653065,NA,NA
75075,Collin County,TX,58.673469387755105,NA,NA
75088,Dallas County,TX,NA,42.592592592592595,NA
75110,Navarro County,TX,NA,43.91534391534391,NA
75149,Dallas County,TX,NA,26.455026455026452,NA
75160,Kaufman County,TX,NA,NA,52.32558139534884
75208,Dallas County,TX,55.61224489795919,NA,NA
75223,Dallas County,TX,NA,78.04232804232805,NA
75233,Dallas County,TX,NA,NA,72.67441860465115
75240,Dallas County,TX,NA,76.71957671957672,NA
75252,Collin County,TX,NA,56.08465608465608,NA
75418,Fannin County,TX,NA,67.1957671957672,NA
75654,Rusk County,TX,74.48979591836735,NA,NA
75707,Smith County,TX,NA,47.354497354497354,NA
75762,Smith County,TX,68.87755102040816,NA,NA
75791,Smith County,TX,59.693877551020414,NA,NA
76108,Tarrant County,TX,NA,20.8994708994709,NA
76112,Tarrant County,TX,13.26530612244898,NA,NA
76114,Tarrant County,TX,39.54081632653062,NA,NA
76210,Denton County,TX,NA,56.87830687830689,NA
76262,Denton County,TX,42.857142857142854,NA,NA
76266,Denton County,TX,78.31632653061224,NA,NA
76502,Bell County,TX,14.540816326530612,NA,NA
76513,Bell County,TX,27.806122448979593,NA,NA
76522,Coryell County,TX,NA,73.54497354497354,NA
76528,Coryell County,TX,NA,65.87301587301587,NA
76542,Bell County,TX,40.56122448979592,NA,NA
76667,Limestone County,TX,91.3265306122449,NA,NA
76691,McLennan County,TX,NA,NA,94.18604651162791
76710,McLennan County,TX,50,NA,16.86046511627907
76712,McLennan County,TX,NA,NA,30.813953488372093
77009,Harris County,TX,43.62244897959184,NA,NA
77024,Harris County,TX,NA,NA,35.46511627906977
77060,Harris County,TX,NA,73.01587301587301,NA
77081,Harris County,TX,NA,98.14814814814815,NA
77084,Harris County,TX,NA,19.841269841269842,NA
77375,Harris County,TX,19.642857142857142,NA,NA
77379,Harris County,TX,NA,NA,13.372093023255813
77407,Fort Bend County,TX,NA,76.98412698412699,NA
77422,Brazoria County,TX,NA,69.04761904761905,NA
77511,Brazoria County,TX,NA,11.11111111111111,NA
77515,Brazoria County,TX,NA,NA,37.2093023255814
77536,Harris County,TX,95.40816326530613,NA,NA
77546,Galveston County,TX,NA,10.052910052910052,NA
77573,Galveston County,TX,30.357142857142854,NA,NA
77583,Brazoria County,TX,47.95918367346938,NA,NA
77657,Hardin County,TX,53.06122448979592,NA,NA
77833,Washington County,TX,NA,24.33862433862434,NA
77963,Goliad County,TX,NA,87.83068783068782,NA
78006,Kendall County,TX,NA,56.34920634920635,NA
78043,Webb County,TX,NA,26.190476190476193,NA
78223,Bexar County,TX,NA,27.513227513227513,NA
78237,Bexar County,TX,25.255102040816325,NA,NA
78239,Bexar County,TX,NA,66.13756613756614,NA
78254,Bexar County,TX,43.36734693877551,NA,NA
78410,Nueces County,TX,NA,75.13227513227513,NA
78599,Hidalgo County,TX,NA,78.83597883597884,NA
78613,Williamson County,TX,NA,15.343915343915343,NA
78664,Williamson County,TX,42.09183673469388,NA,NA
78754,Travis County,TX,NA,94.97354497354497,NA
78840,Val Verde County,TX,NA,16.137566137566136,NA
79404,Lubbock County,TX,68.62244897959184,NA,NA
79701,Midland County,TX,NA,62.96296296296296,NA
79902,El Paso County,TX,98.21428571428571,NA,NA
84074,Tooele County,UT,4.081632653061225,NA,NA
84106,Salt Lake County,UT,29.846938775510207,NA,NA
84109,Salt Lake County,UT,NA,48.67724867724868,NA
84118,Salt Lake County,UT,15.816326530612246,NA,NA
84129,,UT,NA,25.925925925925924,NA
84606,Utah County,UT,81.63265306122449,NA,NA
84664,Utah County,UT,93.62244897959184,NA,NA
84721,Iron County,UT,NA,64.02116402116403,NA
05819,Caledonia County,VT,NA,71.42857142857143,NA
20164,Loudoun County,VA,40.05102040816326,NA,NA
20175,Loudoun County,VA,NA,NA,80.81395348837209
22030,Fairfax County,VA,26.02040816326531,NA,NA
22301,Alexandria city,VA,90.3061224489796,NA,NA
22314,Alexandria city,VA,NA,46.56084656084656,NA
22406,Stafford County,VA,NA,73.80952380952381,NA
22835,Page County,VA,NA,48.41269841269841,NA
23188,James City County,VA,NA,1.8518518518518516,NA
23323,Chesapeake city,VA,29.081632653061224,31.216931216931215,NA
23453,Virginia Beach city,VA,45.91836734693878,NA,NA
23803,Petersburg city,VA,11.479591836734695,NA,NA
23927,Mecklenburg County,VA,NA,NA,80.23255813953489
24112,Henry County,VA,44.38775510204081,NA,NA
24273,Norton city,VA,64.03061224489795,NA,NA
24279,Wise County,VA,NA,89.68253968253968,NA
24301,Pulaski County,VA,52.806122448979586,NA,NA
24416,Buena Vista city,VA,NA,89.41798941798942,NA
98002,King County,WA,NA,NA,37.7906976744186
98008,King County,WA,NA,NA,31.3953488372093
98033,King County,WA,NA,NA,26.16279069767442
98038,King County,WA,NA,35.18518518518518,NA
98040,King County,WA,65.3061224489796,NA,NA
98053,King County,WA,NA,39.15343915343915,NA
98074,King County,WA,NA,65.60846560846561,NA
98087,Snohomish County,WA,NA,46.82539682539682,NA
98107,King County,WA,82.39795918367348,NA,NA
98110,Kitsap County,WA,89.79591836734694,NA,NA
98125,King County,WA,NA,NA,33.72093023255814
98204,Snohomish County,WA,22.193877551020407,NA,NA
98229,Whatcom County,WA,71.1734693877551,NA,NA
98250,San Juan County,WA,NA,72.75132275132276,NA
98272,Snohomish County,WA,90.81632653061224,NA,NA
98274,Skagit County,WA,NA,40.74074074074074,NA
98335,Pierce County,WA,54.8469387755102,NA,NA
98368,Jefferson County,WA,NA,NA,41.27906976744186
98409,Pierce County,WA,NA,67.98941798941799,NA
98661,Clark County,WA,NA,37.56613756613756,NA
98801,Chelan County,WA,NA,32.01058201058201,NA
99019,Spokane County,WA,NA,91.7989417989418,NA
99207,Spokane County,WA,NA,NA,77.90697674418605
99301,Franklin County,WA,NA,53.17460317460318,12.790697674418606
99320,Benton County,WA,NA,48.94179894179894,NA
99336,Benton County,WA,76.27551020408163,NA,NA
99354,Benton County,WA,NA,28.57142857142857,NA
20011,District of Columbia,DC,28.316326530612244,NA,NA
20020,District of Columbia,DC,NA,NA,25.581395348837212
25271,Jackson County,WV,NA,NA,55.23255813953488
25276,Roane County,WV,NA,NA,63.372093023255815
25314,Kanawha County,WV,NA,77.5132275132275,NA
26047,Hancock County,WV,NA,51.587301587301596,NA
26101,Wood County,WV,NA,NA,49.41860465116279
26201,Upshur County,WV,73.21428571428571,NA,NA
53021,Ozaukee County,WI,97.1938775510204,NA,NA
53027,Washington County,WI,82.14285714285714,NA,NA
53081,Sheboygan County,WI,NA,NA,24.418604651162788
53092,Ozaukee County,WI,NA,71.16402116402116,NA
53129,Milwaukee County,WI,66.3265306122449,NA,NA
53151,Waukesha County,WI,NA,NA,83.72093023255815
53204,Milwaukee County,WI,NA,33.33333333333333,NA
53213,Milwaukee County,WI,91.83673469387756,NA,NA
53221,Milwaukee County,WI,NA,NA,14.534883720930234
53406,Racine County,WI,NA,NA,2.9069767441860463
53523,Dane County,WI,94.13265306122449,NA,NA
53551,Jefferson County,WI,NA,NA,90.69767441860465
53589,Dane County,WI,NA,NA,29.069767441860467
54011,Pierce County,WI,NA,84.39153439153439,NA
54601,La Crosse County,WI,NA,27.24867724867725,NA
54656,Monroe County,WI,NA,39.41798941798942,NA
54669,La Crosse County,WI,98.21428571428571,NA,NA
82070,Albany County,WY,NA,70.37037037037037,NA
82072,Albany County,WY,NA,92.5925925925926,NA
