ZipCode,county,state,Adult
35124,Shelby County,AL,71.0951526032316
35126,Jefferson County,AL,58.707360861759426
35204,Jefferson County,AL,76.30161579892281
35405,Tuscaloosa County,AL,38.06104129263914
35490,Tuscaloosa County,AL,99.46140035906643
35905,Etowah County,AL,90.84380610412927
35950,Marshall County,AL,46.678635547576306
36330,Coffee County,AL,52.244165170556556
36571,Mobile County,AL,75.58348294434471
85007,Maricopa County,AZ,9.515260323159785
85008,Maricopa County,AZ,12.567324955116696
85009,Maricopa County,AZ,48.473967684021545
85019,Maricopa County,AZ,44.52423698384201
85041,Maricopa County,AZ,7.360861759425494
85042,Maricopa County,AZ,28.366247755834827
85051,Maricopa County,AZ,13.464991023339318
85122,Pinal County,AZ,6.642728904847396
85202,Maricopa County,AZ,20.287253141831236
85234,Maricopa County,AZ,37.70197486535009
85716,Pima County,AZ,17.41472172351885
85719,Pima County,AZ,39.85637342908438
86005,Coconino County,AZ,55.296229802513466
72113,Pulaski County,AR,78.81508078994614
90029,Los Angeles County,CA,68.04308797127469
90222,Los Angeles County,CA,74.1472172351885
90250,Los Angeles County,CA,25.852782764811487
90620,Orange County,CA,82.76481149012568
90631,Orange County,CA,40.93357271095152
90723,Los Angeles County,CA,58.16876122082585
90805,Los Angeles County,CA,16.87612208258528
91040,Los Angeles County,CA,89.40754039497307
91306,Los Angeles County,CA,46.14003590664273
91335,Los Angeles County,CA,35.5475763016158
91344,Los Angeles County,CA,50.80789946140036
91377,Ventura County,CA,96.22980251346499
91402,Los Angeles County,CA,29.443447037701976
91506,Los Angeles County,CA,94.43447037701975
91752,Riverside County,CA,57.63016157989228
91789,Los Angeles County,CA,88.33034111310593
92111,San Diego County,CA,60.502692998204665
92128,San Diego County,CA,78.99461400359067
92301,San Bernardino County,CA,39.497307001795335
92308,San Bernardino County,CA,54.57809694793537
92316,San Bernardino County,CA,57.09156193895871
92335,San Bernardino County,CA,8.258527827648116
92374,San Bernardino County,CA,92.99820466786356
92592,Riverside County,CA,31.41831238779174
92651,Orange County,CA,88.1508078994614
92706,Orange County,CA,85.45780969479354
92880,Riverside County,CA,22.082585278276483
93065,Ventura County,CA,14.542190305206462
93257,Tulare County,CA,11.8491921005386
93291,Tulare County,CA,77.0197486535009
93309,Kern County,CA,36.62477558348294
94404,San Mateo County,CA,78.45601436265709
94517,Contra Costa County,CA,96.58886894075404
94541,Alameda County,CA,25.493716337522443
95304,San Joaquin County,CA,93.53680430879713
95355,Stanislaus County,CA,7.1813285457809695
95404,Sonoma County,CA,77.19928186714542
95422,Lake County,CA,66.06822262118493
95628,Sacramento County,CA,68.2226211849192
95632,Sacramento County,CA,66.6068222621185
95762,El Dorado County,CA,55.475763016157984
95820,Sacramento County,CA,56.37342908438061
95946,Nevada County,CA,92.63913824057451
95961,Yuba County,CA,50.44883303411131
95973,Butte County,CA,24.057450628366247
96002,Shasta County,CA,62.47755834829444
96021,Tehama County,CA,80.25134649910234
80005,Jefferson County,CO,64.27289048473968
80030,Adams County,CO,80.61041292639139
80031,Adams County,CO,44.88330341113106
80128,Jefferson County,CO,64.4524236983842
80219,Denver County,CO,3.5906642728904847
80233,Adams County,CO,29.084380610412925
80236,Denver County,CO,86.71454219030521
80237,Denver County,CO,79.35368043087972
80238,Denver County,CO,81.50807899461401
80239,Denver County,CO,25.673249551166965
80249,Denver County,CO,42.72890484739677
80534,Weld County,CO,75.22441651705566
80538,Larimer County,CO,10.951526032315979
80620,Weld County,CO,49.91023339317774
81003,Pueblo County,CO,40.93357271095152
81301,La Plata County,CO,61.04129263913825
06010,Hartford County,CT,0.8976660682226212
06108,Hartford County,CT,34.29084380610413
06415,New London County,CT,60.68222621184919
06608,Fairfield County,CT,70.19748653500898
06786,Litchfield County,CT,87.07360861759426
06820,Fairfield County,CT,93.35727109515261
19713,New Castle County,DE,35.727109515260324
19720,New Castle County,DE,16.337522441651707
19808,New Castle County,DE,23.518850987432675
32084,St. Johns County,FL,33.39317773788151
32216,Duval County,FL,18.67145421903052
32218,Duval County,FL,2.333931777378815
32219,Duval County,FL,80.07181328545781
32244,Duval County,FL,4.66786355475763
32246,Duval County,FL,15.260323159784562
32310,Leon County,FL,73.07001795332137
32459,Walton County,FL,71.63375224416517
32536,Okaloosa County,FL,65.8886894075404
32608,Alachua County,FL,35.18850987432675
32746,Seminole County,FL,59.60502692998204
32958,Indian River County,FL,74.86535008976661
33021,Broward County,FL,53.3213644524237
33023,Broward County,FL,19.389587073608617
33063,Broward County,FL,47.217235188509875
33142,Miami-Dade County,FL,17.953321364452425
33154,Miami-Dade County,FL,95.87073608617594
33168,Miami-Dade County,FL,75.94254937163375
33175,Miami-Dade County,FL,61.759425493716336
33176,Miami-Dade County,FL,74.50628366247756
33308,Broward County,FL,83.12387791741472
33323,Broward County,FL,86.35547576301616
33330,Broward County,FL,94.61400359066428
33433,Palm Beach County,FL,64.81149012567326
33445,Palm Beach County,FL,78.27648114901257
33458,Palm Beach County,FL,26.032315978456015
33470,Palm Beach County,FL,71.8132854578097
33511,Hillsborough County,FL,43.806104129263915
33605,Hillsborough County,FL,61.57989228007181
33614,Hillsborough County,FL,41.292639138240574
33647,Hillsborough County,FL,56.552962298025136
33774,Pinellas County,FL,78.63554757630162
33844,Polk County,FL,44.165170556552965
33928,Lee County,FL,87.25314183123878
34473,Marion County,FL,82.40574506283662
34613,Hernando County,FL,79.71274685816876
34638,Pasco County,FL,75.40394973070018
34741,Osceola County,FL,25.134649910233392
34772,Osceola County,FL,73.60861759425494
34787,Orange County,FL,26.750448833034113
34983,St. Lucie County,FL,22.800718132854577
30030,DeKalb County,GA,52.06463195691203
30039,Gwinnett County,GA,45.062836624775585
30080,Cobb County,GA,58.34829443447038
30096,Gwinnett County,GA,29.263913824057454
30101,Cobb County,GA,28.904847396768403
30120,Bartow County,GA,20.646319569120287
30127,Cobb County,GA,17.7737881508079
30168,Cobb County,GA,65.52962298025135
30187,Douglas County,GA,82.2262118491921
30236,Clayton County,GA,36.2657091561939
30248,Henry County,GA,64.09335727109516
30263,Coweta County,GA,9.156193895870736
30265,Coweta County,GA,56.552962298025136
30274,Clayton County,GA,45.78096947935368
30294,DeKalb County,GA,47.03770197486535
30296,Clayton County,GA,67.3249551166966
30315,Fulton County,GA,34.1113105924596
30318,Fulton County,GA,31.597845601436266
30338,DeKalb County,GA,79.17414721723519
30507,Hall County,GA,49.55116696588869
30534,Dawson County,GA,47.93536804308797
30540,Gilmer County,GA,54.7576301615799
30542,Hall County,GA,57.989228007181325
30543,Hall County,GA,99.82046678635548
30620,Barrow County,GA,76.84021543985638
30622,Oconee County,GA,91.92100538599641
30683,Clarke County,GA,92.10053859964094
30750,Walker County,GA,98.02513464991023
30815,Richmond County,GA,20.825852782764812
31210,Bibb County,GA,67.14542190305207
31909,Muscogee County,GA,45.24236983842011
96816,Honolulu County,HI,36.80430879712747
96819,Honolulu County,HI,15.798922800718133
83221,Bingham County,ID,30.879712746858168
83401,Bonneville County,ID,14.003590664272892
83716,Ada County,ID,84.38061041292639
83801,Kootenai County,ID,91.56193895870736
60004,Cook County,IL,26.21184919210054
60115,DeKalb County,IL,46.319569120287255
60124,Kane County,IL,70.01795332136446
60181,DuPage County,IL,35.00897666068223
60188,DuPage County,IL,18.31238779174147
60304,Cook County,IL,87.61220825852783
60505,Kane County,IL,35.90664272890485
60517,DuPage County,IL,45.421903052064636
60540,DuPage County,IL,32.13644524236984
60545,Kendall County,IL,74.32675044883304
60605,Cook County,IL,64.99102333931778
60625,Cook County,IL,10.053859964093357
60629,Cook County,IL,5.385996409335727
60634,Cook County,IL,8.797127468581687
60660,Cook County,IL,29.80251346499102
61455,McDonough County,IL,89.04847396768402
62234,Madison County,IL,55.65529622980251
46203,Marion County,IN,7.5403949730700175
46304,Porter County,IN,11.490125673249551
46311,Lake County,IN,37.52244165170557
46375,Lake County,IN,36.983842010771994
46383,Porter County,IN,6.463195691202872
46404,Lake County,IN,39.31777378815081
46517,Elkhart County,IN,53.85996409335727
46526,Elkhart County,IN,63.016157989228006
46528,Elkhart County,IN,79.89228007181327
46530,St. Joseph County,IN,84.20107719928187
46613,St. Joseph County,IN,89.94614003590664
46725,Whitley County,IN,34.8294434470377
47130,Clark County,IN,8.07899461400359
47201,Bartholomew County,IN,10.59245960502693
47274,Jackson County,IN,31.05924596050269
50003,Dallas County,IA,97.84560143626571
52361,Iowa County,IA,98.20466786355476
52753,Scott County,IA,97.12746858168761
66106,Wyandotte County,KS,53.14183123877917
66227,Johnson County,KS,97.66606822262118
66503,Riley County,KS,96.05026929982047
67114,Harvey County,KS,83.84201077199282
67210,Sedgwick County,KS,99.2818671454219
67665,Russell County,KS,93.17773788150808
40206,Jefferson County,KY,74.68581687612208
40215,Jefferson County,KY,18.13285457809695
40220,Jefferson County,KY,43.98563734290844
40324,Scott County,KY,12.387791741472173
40403,Madison County,KY,23.339317773788153
41701,Perry County,KY,36.44524236983842
41858,Letcher County,KY,63.37522441651705
42001,McCracken County,KY,33.75224416517056
42303,Daviess County,KY,8.43806104129264
70085,St. Bernard Parish,LA,90.48473967684022
70114,Orleans Parish,LA,8.976660682226212
70301,Lafourche Parish,LA,1.436265709156194
70380,St. Mary Parish,LA,22.44165170556553
70503,Lafayette Parish,LA,43.62657091561939
70647,Calcasieu Parish,LA,50.62836624775583
03904,York County,ME,81.32854578096948
04103,Cumberland County,ME,21.364452423698385
21028,Harford County,MD,99.10233393177738
21075,Howard County,MD,73.24955116696589
21108,Anne Arundel County,MD,89.76660682226212
21114,Anne Arundel County,MD,71.45421903052065
21239,Baltimore city,MD,38.240574506283664
21403,Anne Arundel County,MD,69.47935368043088
21771,Frederick County,MD,70.55655296229803
21793,Frederick County,MD,91.38240574506284
01201,Berkshire County,MA,30.520646319569124
01571,Worcester County,MA,33.931777378815084
01913,Essex County,MA,94.97307001795332
01915,Essex County,MA,0.5385996409335727
01982,Essex County,MA,79.53321364452424
02056,Norfolk County,MA,77.91741472172352
02116,Suffolk County,MA,14.362657091561939
02141,Middlesex County,MA,32.49551166965889
02144,Middlesex County,MA,19.748653500897667
02150,Suffolk County,MA,38.59964093357271
02184,Norfolk County,MA,4.847396768402154
02536,Barnstable County,MA,22.980251346499102
02780,Bristol County,MA,0
48042,Macomb County,MI,21.903052064631957
48098,Oakland County,MI,64.99102333931778
48150,Wayne County,MI,30.16157989228007
48185,Wayne County,MI,4.488330341113106
48313,Macomb County,MI,65.35008976660683
48335,Oakland County,MI,55.83482944344704
48381,Oakland County,MI,71.99281867145422
48433,Genesee County,MI,58.88689407540395
48439,Genesee County,MI,11.310592459605028
48601,Saginaw County,MI,0.718132854578097
48843,Livingston County,MI,11.131059245960502
48858,Isabella County,MI,5.565529622980251
48880,Gratiot County,MI,89.22800718132855
49006,Kalamazoo County,MI,55.11669658886894
49009,Kalamazoo County,MI,10.771992818671453
49024,Kalamazoo County,MI,28.545780969479356
49120,Berrien County,MI,13.464991023339318
49201,Jackson County,MI,39.138240574506284
49424,Ottawa County,MI,14.183123877917414
49721,Cheboygan County,MI,54.937163375224415
55066,Goodhue County,MN,51.526032315978455
55110,Ramsey County,MN,53.680430879712745
55130,Ramsey County,MN,54.039497307001795
55304,Anoka County,MN,45.960502692998205
55343,Hennepin County,MN,49.371633752244165
55387,Carver County,MN,81.50807899461401
55407,Hennepin County,MN,5.9245960502693
55792,St. Louis County,MN,42.36983842010772
55902,Olmsted County,MN,85.63734290843806
55904,Olmsted County,MN,42.549371633752244
55912,Mower County,MN,33.034111310592465
55987,Winona County,MN,6.822262118491921
56073,Brown County,MN,22.621184919210055
56567,Otter Tail County,MN,99.64093357271095
56601,Beltrami County,MN,5.745062836624776
56762,Marshall County,MN,96.40933572710951
63118,St. Louis city,MO,36.983842010771994
64056,Jackson County,MO,27.289048473967686
64111,Jackson County,MO,27.468581687612208
64134,Jackson County,MO,11.669658886894076
64850,Newton County,MO,15.439856373429084
65804,Greene County,MO,33.21364452423698
59718,Gallatin County,MT,41.651705565529625
68136,Sarpy County,NE,95.33213644524237
68507,Lancaster County,NE,92.45960502692998
68516,Lancaster County,NE,72.89048473967684
68601,Platte County,NE,68.58168761220826
69357,Scotts Bluff County,NE,100
69361,Scotts Bluff County,NE,82.58527827648115
89107,Clark County,NV,56.91202872531418
89108,Clark County,NV,21.18491921005386
89120,Clark County,NV,82.04667863554758
89145,Clark County,NV,94.0754039497307
89521,Washoe County,NV,83.30341113105925
07030,Hudson County,NJ,6.104129263913824
07040,Essex County,NJ,96.94793536804309
07060,Union County,NJ,6.283662477558348
07062,Union County,NJ,65.70915619389586
07078,Essex County,NJ,92.81867145421903
07105,Essex County,NJ,10.412926391382406
07111,Essex County,NJ,0.3590664272890485
07503,Passaic County,NJ,19.569120287253142
07666,Bergen County,NJ,12.926391382405743
07753,Monmouth County,NJ,3.949730700179533
08033,Camden County,NJ,90.12567324955117
08109,Camden County,NJ,19.210053859964095
08755,Ocean County,NJ,24.95511669658887
10009,New York County,NY,40.21543985637343
10022,New York County,NY,87.4326750448833
10030,New York County,NY,61.40035906642729
10451,Bronx County,NY,16.15798922800718
10458,Bronx County,NY,0.17953321364452424
10463,Bronx County,NY,35.36804308797127
10950,Orange County,NY,90.66427289048474
11103,Queens County,NY,77.55834829443447
11234,Kings County,NY,57.450628366247756
11355,Queens County,NY,66.24775583482945
11356,Queens County,NY,81.86714542190305
11706,Suffolk County,NY,78.09694793536805
11784,Suffolk County,NY,91.02333931777379
11946,Suffolk County,NY,98.92280071813285
13045,Cortland County,NY,2.5134649910233393
13066,Onondaga County,NY,73.78815080789947
13110,Onondaga County,NY,98.56373429084381
13850,Broome County,NY,15.080789946140035
14052,Erie County,NY,62.11849192100538
14075,Erie County,NY,7.001795332136446
14150,Erie County,NY,5.026929982046679
14220,Erie County,NY,12.746858168761221
14420,Monroe County,NY,14.721723518850988
14424,Ontario County,NY,1.7953321364452424
14467,Monroe County,NY,63.55475763016158
14526,Monroe County,NY,51.34649910233393
14527,Yates County,NY,28.725314183123878
14543,Monroe County,NY,93.71633752244165
14559,Monroe County,NY,9.694793536804308
14612,Monroe County,NY,1.0771992818671454
14616,Monroe County,NY,17.235188509874327
14617,Monroe County,NY,29.982046678635548
14620,Monroe County,NY,28.186714542190305
14621,Monroe County,NY,4.308797127468582
14807,Steuben County,NY,93.89587073608617
14850,Tompkins County,NY,3.7701974865350087
27292,Davidson County,NC,3.052064631956912
27330,Lee County,NC,22.082585278276483
27612,Wake County,NC,63.73429084380611
27804,Nash County,NC,40.035906642728904
27870,Halifax County,NC,23.518850987432675
28054,Gaston County,NC,18.850987432675044
28075,Cabarrus County,NC,91.20287253141831
28078,Mecklenburg County,NC,36.08617594254937
28081,Cabarrus County,NC,21.543985637342907
28173,Union County,NC,44.703770197486534
28451,Brunswick County,NC,32.13644524236984
28601,Catawba County,NC,13.285457809694792
28761,McDowell County,NC,83.66247755834829
28804,Buncombe County,NC,87.79174147217235
58601,Stark County,ND,48.83303411131059
43065,Delaware County,OH,52.42369838420108
43105,Fairfield County,OH,86.89407540394973
43113,Pickaway County,OH,68.9407540394973
43334,Morrow County,OH,80.43087971274686
43551,Wood County,OH,12.208258527827647
44052,Lorain County,OH,1.615798922800718
44130,Cuyahoga County,OH,3.4111310592459607
44216,Summit County,OH,66.42728904847397
44240,Portage County,OH,30.341113105924595
44256,Medina County,OH,2.6929982046678633
44438,Trumbull County,OH,76.66068222621185
44446,Trumbull County,OH,12.028725314183124
44646,Stark County,OH,7.719928186714542
45240,Hamilton County,OH,26.570915619389584
45311,Preble County,OH,89.5870736086176
45324,Greene County,OH,7.899461400359066
45331,Darke County,OH,27.827648114901255
45347,Preble County,OH,80.78994614003591
45420,Montgomery County,OH,28.007181328545784
45662,Scioto County,OH,1.9748653500897666
45804,Allen County,OH,10.23339317773788
73071,Cleveland County,OK,24.775583482944345
73080,McClain County,OK,84.73967684021544
73114,Oklahoma County,OK,60.32315978456014
74003,Osage County,OK,70.3770197486535
74017,Rogers County,OK,49.19210053859964
74055,Tulsa County,OK,59.245960502692995
74070,Osage County,OK,85.09874326750449
74631,Kay County,OK,87.97127468581688
97006,Washington County,OR,34.29084380610413
97071,Marion County,OR,62.29802513464991
97302,Marion County,OR,48.114901256732495
97305,Marion County,OR,27.109515260323157
97333,Benton County,OR,90.30520646319569
97362,Marion County,OR,98.74326750448833
97411,Coos County,OR,86.53500897666068
97424,Lane County,OR,49.730700179533216
15001,Beaver County,PA,19.92818671454219
15044,Allegheny County,PA,67.68402154398564
15062,Westmoreland County,PA,88.50987432675045
15102,Allegheny County,PA,69.6588868940754
15205,Allegheny County,PA,52.96229802513464
15224,Allegheny County,PA,83.48294434470377
16101,Lawrence County,PA,5.206463195691203
17363,York County,PA,84.91921005385996
17403,York County,PA,2.154398563734291
18042,Northampton County,PA,4.129263913824058
18045,Northampton County,PA,43.26750448833034
18109,Lehigh County,PA,27.648114901256733
18201,Luzerne County,PA,19.03052064631957
18901,Bucks County,PA,51.70556552962297
19026,Delaware County,PA,16.696588868940754
19061,Delaware County,PA,31.77737881508079
19104,Philadelphia County,PA,9.874326750448834
19146,Philadelphia County,PA,15.61938958707361
19382,Chester County,PA,13.824057450628366
19426,Montgomery County,PA,40.57450628366247
19454,Montgomery County,PA,48.65350089766607
02911,Providence County,RI,73.4290843806104
29061,Richland County,SC,84.02154398563735
29150,Sumter County,SC,41.83123877917414
29205,Richland County,SC,81.14901256732495
29209,Richland County,SC,50.08976660682226
29229,Richland County,SC,75.76301615798923
29341,Cherokee County,SC,52.6032315978456
29412,Charleston County,SC,38.77917414721723
29510,Georgetown County,SC,71.0951526032316
29577,Horry County,SC,68.40215439856372
29625,Anderson County,SC,37.34290843806104
29644,Greenville County,SC,56.01436265709157
29730,York County,SC,18.31238779174147
29926,Beaufort County,SC,95.51166965888689
57103,Minnehaha County,SD,24.59605026929982
37087,Wilson County,TN,16.517055655296232
37130,Rutherford County,TN,20.107719928186714
37206,Davidson County,TN,39.497307001795335
37343,Hamilton County,TN,23.877917414721722
37421,Hamilton County,TN,30.700179533213646
37854,Roane County,TN,62.83662477558348
37874,Monroe County,TN,45.601436265709154
37917,Knox County,TN,15.978456014362658
37921,Knox County,TN,32.675044883303414
37931,Knox County,TN,47.3967684021544
38115,Shelby County,TN,24.416517055655294
75010,Denton County,TX,72.5314183123878
75019,Dallas County,TX,60.14362657091562
75042,Dallas County,TX,69.12028725314184
75062,Dallas County,TX,51.8850987432675
75070,Collin County,TX,14.90125673249551
75098,Collin County,TX,21.723518850987432
75125,Ellis County,TX,96.76840215439856
75230,Dallas County,TX,76.48114901256733
75235,Dallas County,TX,73.96768402154399
75238,Dallas County,TX,72.71095152603232
75243,Dallas County,TX,13.10592459605027
75644,Upshur County,TX,75.04488330341114
75964,Nacogdoches County,TX,68.76122082585279
76048,Hood County,TX,49.012567324955114
76051,Tarrant County,TX,70.91561938958706
76082,Parker County,TX,61.93895870736086
76108,Tarrant County,TX,44.344703770197484
76137,Tarrant County,TX,20.287253141831236
76140,Tarrant County,TX,43.447037701974864
76201,Denton County,TX,86.17594254937163
76230,Montague County,TX,85.27827648114902
76244,Tarrant County,TX,26.929982046678635
77024,Harris County,TX,67.86355475763017
77036,Harris County,TX,57.809694793536806
77044,Harris County,TX,42.190305206463194
77071,Harris County,TX,66.96588868940754
77073,Harris County,TX,58.88689407540395
77099,Harris County,TX,85.81687612208259
77373,Harris County,TX,67.50448833034112
77459,Fort Bend County,TX,24.236983842010773
77469,Fort Bend County,TX,31.956912028725316
77493,Harris County,TX,66.78635547576302
77504,Harris County,TX,72.35188509874327
77573,Galveston County,TX,41.4721723518851
77581,Brazoria County,TX,82.9443447037702
77584,Brazoria County,TX,8.617594254937163
77656,Hardin County,TX,62.65709156193896
78041,Webb County,TX,42.908438061041295
78073,Bexar County,TX,97.30700179533214
78155,Guadalupe County,TX,25.314183123877914
78221,Bexar County,TX,51.16696588868941
78230,Bexar County,TX,64.63195691202873
78237,Bexar County,TX,33.572710951526034
78501,Hidalgo County,TX,52.782764811490125
78573,Hidalgo County,TX,85.99640933572711
78613,Williamson County,TX,38.42010771992819
78629,Gonzales County,TX,91.74147217235189
78729,Williamson County,TX,94.61400359066428
78758,Travis County,TX,58.52782764811491
78852,Maverick County,TX,61.22082585278277
79364,Lubbock County,TX,92.28007181328546
79701,Midland County,TX,47.57630161579892
79763,Ector County,TX,40.394973070017954
79928,El Paso County,TX,53.50089766606823
84015,Davis County,UT,21.005385996409338
84040,Davis County,UT,80.96947935368043
84067,Weber County,UT,42.010771992818675
84108,Salt Lake County,UT,88.8689407540395
84118,Salt Lake County,UT,17.0556552962298
84121,Salt Lake County,UT,46.49910233393178
84401,Weber County,UT,48.114901256732495
84404,Weber County,UT,59.78456014362658
05401,Chittenden County,VT,54.39856373429084
20121,Fairfax County,VA,71.99281867145422
20181,Prince William County,VA,97.48653500897666
22026,Prince William County,VA,69.6588868940754
22030,Fairfax County,VA,34.64991023339318
22032,Fairfax County,VA,70.73608617594255
22042,Fairfax County,VA,56.193895870736085
22043,Fairfax County,VA,77.37881508078995
22101,Fairfax County,VA,57.27109515260324
22153,Fairfax County,VA,63.91382405745063
22204,Arlington County,VA,31.23877917414722
22206,Arlington County,VA,63.19569120287253
22310,Fairfax County,VA,59.42549371633752
22727,Madison County,VA,95.69120287253142
22801,Harrisonburg city,VA,47.755834829443444
23181,King William County,VA,98.20466786355476
23224,Richmond city,VA,9.33572710951526
23509,Norfolk city,VA,46.858168761220824
23669,Hampton city,VA,23.159784560143628
23831,Chesterfield County,VA,43.08797127468581
24016,Roanoke city,VA,59.964093357271096
24151,Franklin County,VA,50.987432675044886
24244,Scott County,VA,88.68940754039497
98021,Snohomish County,WA,60.86175942549371
98155,King County,WA,50.269299820466784
98166,King County,WA,84.56014362657092
98584,Mason County,WA,38.95870736086176
20019,District of Columbia,DC,2.872531418312388
20020,District of Columbia,DC,1.2567324955116697
24701,Mercer County,WV,32.85457809694793
53024,Ozaukee County,WI,69.12028725314184
53143,Kenosha County,WI,17.594254937163374
53149,Waukesha County,WI,76.12208258527828
53215,Milwaukee County,WI,3.231597845601436
53548,Rock County,WI,26.391382405745063
54155,Brown County,WI,94.25493716337523
54162,Brown County,WI,95.15260323159784
54660,Monroe County,WI,54.039497307001795
54729,Chippewa County,WI,37.881508078994614
54901,Winnebago County,WI,29.622980251346497
54915,Outagamie County,WI,40.754039497307005
82009,Laramie County,WY,77.55834829443447
