ZipCode,county,state,Adult
35022,Jefferson County,AL,42.52577319587629
35096,Talladega County,AL,87.88659793814433
35160,Talladega County,AL,17.525773195876287
35749,Madison County,AL,53.09278350515464
36303,Houston County,AL,59.79381443298969
36611,Mobile County,AL,95.10309278350515
99604,Wade Hampton Census Area,AK,98.4536082474227
99705,Fairbanks North Star Borough,AK,76.03092783505154
85024,Maricopa County,AZ,73.19587628865979
85032,Maricopa County,AZ,48.96907216494845
85044,Maricopa County,AZ,20.876288659793815
85208,Maricopa County,AZ,48.1958762886598
85339,Maricopa County,AZ,57.73195876288659
85706,Pima County,AZ,50.51546391752577
85710,Pima County,AZ,9.536082474226804
85730,Pima County,AZ,75.77319587628865
85742,Pima County,AZ,79.63917525773195
85745,Pima County,AZ,28.09278350515464
71857,Nevada County,AR,95.61855670103093
72120,Pulaski County,AR,47.16494845360825
72404,Craighead County,AR,79.12371134020619
90004,Los Angeles County,CA,48.71134020618557
90201,Los Angeles County,CA,35.051546391752574
90620,Orange County,CA,53.608247422680414
90802,Los Angeles County,CA,55.154639175257735
90813,Los Angeles County,CA,36.597938144329895
91767,Los Angeles County,CA,43.55670103092783
92020,San Diego County,CA,23.45360824742268
92026,San Diego County,CA,59.02061855670103
92083,San Diego County,CA,63.4020618556701
92173,San Diego County,CA,65.4639175257732
92243,Imperial County,CA,28.350515463917525
92324,San Bernardino County,CA,21.90721649484536
92337,San Bernardino County,CA,61.855670103092784
92553,Riverside County,CA,30.412371134020617
92563,Riverside County,CA,36.855670103092784
92596,Riverside County,CA,73.4536082474227
92624,Orange County,CA,95.36082474226805
92673,Orange County,CA,67.0103092783505
93105,Santa Barbara County,CA,99.48453608247422
93309,Kern County,CA,35.824742268041234
93543,Los Angeles County,CA,94.58762886597938
93703,Fresno County,CA,74.48453608247422
93930,Monterey County,CA,74.22680412371135
94510,Solano County,CA,83.24742268041237
94533,Solano County,CA,24.742268041237114
94580,Alameda County,CA,77.83505154639175
94590,Solano County,CA,32.7319587628866
94606,Alameda County,CA,58.24742268041238
80007,Jefferson County,CO,88.91752577319588
80010,Arapahoe County,CO,19.329896907216497
80011,Arapahoe County,CO,8.505154639175258
80501,Boulder County,CO,22.422680412371136
81212,Fremont County,CO,43.29896907216495
06604,Fairfield County,CT,20.36082474226804
06606,Fairfield County,CT,18.556701030927837
06610,Fairfield County,CT,31.185567010309278
06712,New Haven County,CT,89.94845360824742
06790,Litchfield County,CT,6.958762886597938
19734,New Castle County,DE,77.57731958762886
32038,Columbia County,FL,91.23711340206185
32179,Marion County,FL,75
32208,Duval County,FL,1.5463917525773196
32738,Volusia County,FL,39.69072164948454
32773,Seminole County,FL,51.80412371134021
32807,Orange County,FL,50
32808,Orange County,FL,17.2680412371134
32922,Brevard County,FL,52.83505154639175
32967,Indian River County,FL,51.28865979381443
33021,Broward County,FL,51.546391752577314
33064,Broward County,FL,40.97938144329897
33161,Miami-Dade County,FL,38.402061855670105
33411,Palm Beach County,FL,42.01030927835052
33417,Palm Beach County,FL,61.08247422680413
33435,Palm Beach County,FL,50.25773195876289
33458,Palm Beach County,FL,26.804123711340207
33578,Hillsborough County,FL,38.144329896907216
33609,Hillsborough County,FL,74.74226804123711
33625,Hillsborough County,FL,62.11340206185567
33635,Hillsborough County,FL,83.50515463917526
33713,Pinellas County,FL,82.21649484536083
33880,Polk County,FL,25.51546391752577
33881,Polk County,FL,40.4639175257732
33919,Lee County,FL,61.5979381443299
33952,Charlotte County,FL,28.350515463917525
33966,Lee County,FL,92.5257731958763
34288,Sarasota County,FL,98.96907216494846
34655,Pasco County,FL,37.11340206185567
34953,St. Lucie County,FL,6.701030927835052
30039,Gwinnett County,GA,69.58762886597938
30052,Walton County,GA,18.814432989690722
30121,Bartow County,GA,57.98969072164949
30180,Carroll County,GA,24.484536082474225
30189,Cherokee County,GA,57.47422680412371
30260,Clayton County,GA,70.61855670103093
30294,DeKalb County,GA,44.58762886597938
30311,Fulton County,GA,17.010309278350515
30523,Habersham County,GA,81.70103092783505
30535,Habersham County,GA,91.75257731958763
31302,Effingham County,GA,86.5979381443299
31329,Effingham County,GA,90.97938144329896
31533,Coffee County,GA,63.65979381443299
31716,Mitchell County,GA,99.74226804123711
96706,Honolulu County,HI,11.082474226804123
96782,Honolulu County,HI,39.948453608247426
83642,Ada County,ID,18.298969072164947
60074,Cook County,IL,44.84536082474227
60099,Lake County,IL,44.329896907216494
60120,Kane County,IL,30.927835051546392
60124,Kane County,IL,65.20618556701031
60190,DuPage County,IL,76.80412371134021
60409,Cook County,IL,34.27835051546392
60506,Kane County,IL,29.896907216494846
60625,Cook County,IL,11.34020618556701
60628,Cook County,IL,7.989690721649484
60649,Cook County,IL,15.463917525773196
60652,Cook County,IL,32.98969072164948
60654,Cook County,IL,69.84536082474226
61008,Boone County,IL,37.371134020618555
61241,Henry County,IL,88.65979381443299
46012,Madison County,IN,41.23711340206185
46151,Morgan County,IN,28.865979381443296
46235,Marion County,IN,20.618556701030926
46304,Porter County,IN,72.68041237113401
46902,Howard County,IN,21.649484536082475
47129,Clark County,IN,56.70103092783505
47265,Jennings County,IN,25
47803,Vigo County,IN,62.371134020618555
50273,Madison County,IA,96.3917525773196
50401,Cerro Gordo County,IA,13.402061855670103
50501,Webster County,IA,27.577319587628867
51105,Woodbury County,IA,68.29896907216495
66224,Johnson County,KS,90.4639175257732
67147,Sedgwick County,KS,92.0103092783505
40206,Jefferson County,KY,92.78350515463917
40272,Jefferson County,KY,15.206185567010309
40324,Scott County,KY,14.948453608247423
40504,Fayette County,KY,45.618556701030926
41031,Harrison County,KY,59.27835051546392
41230,Lawrence County,KY,29.381443298969074
70053,Jefferson Parish,LA,27.061855670103093
70065,Jefferson Parish,LA,5.154639175257731
70113,Orleans Parish,LA,86.34020618556701
70115,Orleans Parish,LA,54.38144329896907
70129,Orleans Parish,LA,71.64948453608247
70403,Tangipahoa Parish,LA,7.474226804123711
70507,Lafayette Parish,LA,46.391752577319586
70592,Lafayette Parish,LA,34.02061855670103
70665,Calcasieu Parish,LA,38.91752577319588
70726,Livingston Parish,LA,83.76288659793815
70808,East Baton Rouge Parish,LA,47.93814432989691
71282,Madison Parish,LA,54.63917525773196
71295,Franklin Parish,LA,68.04123711340206
71302,Rapides Parish,LA,29.63917525773196
04967,Somerset County,ME,81.18556701030928
20653,St. Mary's County,MD,66.23711340206185
20711,Anne Arundel County,MD,96.1340206185567
20737,Prince George's County,MD,86.08247422680412
21017,Harford County,MD,90.20618556701031
21206,Baltimore city,MD,84.02061855670104
01605,Worcester County,MA,25.257731958762886
01960,Essex County,MA,1.0309278350515463
02054,Norfolk County,MA,71.90721649484536
02127,Suffolk County,MA,2.0618556701030926
02139,Middlesex County,MA,0.5154639175257731
02149,Middlesex County,MA,0
02150,Suffolk County,MA,0.7731958762886598
02184,Norfolk County,MA,6.443298969072164
48044,Macomb County,MI,9.02061855670103
48060,St. Clair County,MI,3.608247422680412
48162,Monroe County,MI,80.6701030927835
48198,Washtenaw County,MI,3.0927835051546393
48204,Wayne County,MI,10.824742268041238
48219,Wayne County,MI,5.670103092783505
48221,Wayne County,MI,27.31958762886598
48228,Wayne County,MI,2.3195876288659796
48238,Wayne County,MI,5.927835051546391
48331,Oakland County,MI,82.9896907216495
48386,Oakland County,MI,84.79381443298969
48420,Genesee County,MI,76.28865979381443
48603,Saginaw County,MI,13.65979381443299
48642,Midland County,MI,19.84536082474227
48840,Ingham County,MI,80.9278350515464
48910,Ingham County,MI,12.886597938144329
49441,Muskegon County,MI,93.55670103092784
49503,Kent County,MI,78.6082474226804
49525,Kent County,MI,37.88659793814433
49783,Chippewa County,MI,56.95876288659794
55044,Dakota County,MN,54.63917525773196
55077,Dakota County,MN,89.43298969072166
55079,Chisago County,MN,81.44329896907216
55110,Ramsey County,MN,52.31958762886598
55112,Ramsey County,MN,43.81443298969072
55121,Dakota County,MN,84.5360824742268
55313,Wright County,MN,58.24742268041238
55350,McLeod County,MN,62.88659793814433
55376,Wright County,MN,85.30927835051546
55411,Hennepin County,MN,3.350515463917526
55425,Hennepin County,MN,73.96907216494846
56345,Morrison County,MN,78.8659793814433
38620,Panola County,MS,98.71134020618557
38668,Tate County,MS,72.42268041237114
39090,Attala County,MS,69.3298969072165
39206,Hinds County,MS,33.24742268041237
39564,Jackson County,MS,94.3298969072165
63303,St. Charles County,MO,24.22680412371134
63367,St. Charles County,MO,59.5360824742268
63801,Scott County,MO,71.1340206185567
64015,Jackson County,MO,45.103092783505154
64050,Jackson County,MO,16.752577319587626
64057,Jackson County,MO,46.134020618556704
64086,Jackson County,MO,37.628865979381445
64131,Jackson County,MO,47.42268041237113
64138,Jackson County,MO,11.855670103092782
64506,Buchanan County,MO,19.587628865979383
59330,Dawson County,MT,86.5979381443299
68025,Dodge County,NE,67.5257731958763
68104,Douglas County,NE,29.12371134020619
68522,Lancaster County,NE,94.84536082474226
89110,Clark County,NV,21.1340206185567
89148,Clark County,NV,49.48453608247423
89433,Washoe County,NV,42.78350515463917
89436,Washoe County,NV,72.16494845360825
07029,Hudson County,NJ,61.34020618556701
07050,Essex County,NJ,93.29896907216495
07112,Essex County,NJ,54.123711340206185
07928,Morris County,NJ,91.49484536082474
08005,Ocean County,NJ,19.072164948453608
08302,Cumberland County,NJ,1.804123711340206
08865,Warren County,NJ,5.412371134020619
88220,Eddy County,NM,22.68041237113402
10028,New York County,NY,82.4742268041237
10031,New York County,NY,9.278350515463918
10314,Richmond County,NY,44.072164948453604
10456,Bronx County,NY,0.25773195876288657
10472,Bronx County,NY,16.237113402061855
10550,Westchester County,NY,27.835051546391753
11102,Queens County,NY,76.5463917525773
11203,Kings County,NY,10.051546391752577
11204,Kings County,NY,32.21649484536083
11206,Kings County,NY,49.74226804123711
11236,Kings County,NY,4.896907216494846
11706,Suffolk County,NY,58.24742268041238
11716,Suffolk County,NY,97.9381443298969
13126,Oswego County,NY,4.639175257731959
13208,Onondaga County,NY,13.917525773195877
14215,Erie County,NY,14.175257731958762
14425,Ontario County,NY,17.783505154639176
14580,Monroe County,NY,32.47422680412371
14710,Chautauqua County,NY,93.81443298969072
14895,Allegany County,NY,62.88659793814433
27025,Rockingham County,NC,77.0618556701031
27401,Guilford County,NC,31.70103092783505
27516,Orange County,NC,65.97938144329896
27519,Wake County,NC,51.80412371134021
27601,Wake County,NC,96.64948453608247
27613,Wake County,NC,53.350515463917525
27704,Durham County,NC,12.11340206185567
27948,Dare County,NC,62.628865979381445
28092,Lincoln County,NC,23.711340206185564
28128,Stanly County,NC,89.17525773195877
28208,Mecklenburg County,NC,9.793814432989691
28217,Mecklenburg County,NC,55.412371134020624
28356,Harnett County,NC,96.90721649484536
28377,Robeson County,NC,80.41237113402062
28429,New Hanover County,NC,82.73195876288659
28574,Onslow County,NC,67.26804123711341
28584,Carteret County,NC,75.51546391752578
58501,Burleigh County,ND,55.670103092783506
43085,Franklin County,OH,97.42268041237114
43119,Franklin County,OH,26.03092783505155
43147,Fairfield County,OH,26.288659793814436
43351,Wyandot County,OH,71.3917525773196
43431,Sandusky County,OH,88.4020618556701
43619,Wood County,OH,66.49484536082474
44004,Ashtabula County,OH,2.8350515463917527
44102,Cuyahoga County,OH,4.123711340206185
44115,Cuyahoga County,OH,64.17525773195877
44138,Cuyahoga County,OH,36.340206185567006
44515,Mahoning County,OH,10.56701030927835
44691,Wayne County,OH,34.79381443298969
45232,Hamilton County,OH,75.25773195876289
45322,Montgomery County,OH,42.2680412371134
45415,Montgomery County,OH,90.72164948453609
45458,Montgomery County,OH,41.49484536082475
45505,Clark County,OH,34.5360824742268
45638,Lawrence County,OH,23.969072164948454
45750,Washington County,OH,13.144329896907218
73036,Canadian County,OK,70.87628865979381
73115,Oklahoma County,OK,60.824742268041234
73170,Cleveland County,OK,36.08247422680412
73801,Woodward County,OK,64.43298969072166
74107,Tulsa County,OK,63.91752577319587
97229,Washington County,OR,39.175257731958766
97355,Linn County,OR,12.371134020618557
97368,Lincoln County,OR,97.68041237113401
97478,Lane County,OR,40.72164948453608
15120,Allegheny County,PA,47.680412371134025
16001,Butler County,PA,3.865979381443299
16830,Clearfield County,PA,31.958762886597935
16915,Potter County,PA,93.04123711340206
17034,Dauphin County,PA,99.22680412371135
17362,York County,PA,67.78350515463917
17745,Clinton County,PA,43.04123711340206
18042,Northampton County,PA,6.185567010309279
18201,Luzerne County,PA,20.103092783505154
18235,Carbon County,PA,35.56701030927835
18960,Bucks County,PA,68.81443298969072
19111,Philadelphia County,PA,4.381443298969072
19136,Philadelphia County,PA,11.597938144329897
19141,Philadelphia County,PA,8.762886597938143
19341,Chester County,PA,72.9381443298969
19446,Montgomery County,PA,65.72164948453609
19454,Montgomery County,PA,45.876288659793815
19604,Berks County,PA,12.628865979381443
02891,Washington County,RI,60.051546391752574
29209,Richland County,SC,48.45360824742268
29455,Charleston County,SC,55.927835051546396
29456,Dorchester County,SC,38.659793814432994
29605,Greenville County,SC,60.30927835051546
57110,Minnehaha County,SD,57.21649484536082
37040,Montgomery County,TN,26.54639175257732
37042,Montgomery County,TN,25.773195876288657
37216,Davidson County,TN,51.03092783505154
37407,Hamilton County,TN,97.16494845360825
37918,Knox County,TN,15.721649484536082
37932,Knox County,TN,81.95876288659794
37934,Knox County,TN,79.38144329896907
38111,Shelby County,TN,22.938144329896907
75002,Collin County,TX,23.195876288659793
75041,Dallas County,TX,46.90721649484536
75056,Denton County,TX,35.30927835051546
75137,Dallas County,TX,85.56701030927834
75215,Dallas County,TX,30.670103092783506
75216,Dallas County,TX,7.216494845360824
76106,Tarrant County,TX,50.77319587628865
76137,Tarrant County,TX,22.164948453608247
76541,Bell County,TX,49.22680412371135
76543,Bell County,TX,88.14432989690721
76634,Bosque County,TX,95.61855670103093
76904,Tom Green County,TX,85.05154639175258
77029,Harris County,TX,69.0721649484536
77057,Harris County,TX,68.55670103092784
77082,Harris County,TX,53.865979381443296
77354,Montgomery County,TX,52.57731958762887
77396,Harris County,TX,40.20618556701031
77407,Fort Bend County,TX,56.44329896907217
77445,Waller County,TX,87.11340206185567
77510,Galveston County,TX,64.94845360824742
77539,Galveston County,TX,21.391752577319586
77568,Galveston County,TX,66.75257731958763
77590,Galveston County,TX,14.690721649484537
77703,Jefferson County,TX,70.10309278350515
77808,Brazos County,TX,84.27835051546391
78229,Bexar County,TX,56.18556701030928
78576,Hidalgo County,TX,94.0721649484536
78660,Travis County,TX,30.15463917525773
79423,Lubbock County,TX,33.76288659793815
84003,Utah County,UT,73.71134020618557
84088,Salt Lake County,UT,39.43298969072165
84118,Salt Lake County,UT,18.04123711340206
84119,Salt Lake County,UT,14.432989690721648
20164,Loudoun County,VA,46.649484536082475
22204,Arlington County,VA,31.443298969072163
22304,Alexandria city,VA,16.49484536082474
22580,Caroline County,VA,98.19587628865979
23223,Henrico County,VA,79.89690721649485
23421,Accomack County,VA,100
23453,Virginia Beach city,VA,87.37113402061856
23505,Norfolk city,VA,41.75257731958763
24012,Roanoke city,VA,33.50515463917525
24201,Bristol city,VA,85.82474226804123
24502,Lynchburg city,VA,45.36082474226804
98006,King County,WA,89.69072164948454
98391,Pierce County,WA,15.979381443298967
99217,Spokane County,WA,77.83505154639175
20020,District of Columbia,DC,2.5773195876288657
20024,District of Columbia,DC,60.567010309278345
26205,Nicholas County,WV,92.0103092783505
53142,Kenosha County,WI,10.309278350515463
53210,Milwaukee County,WI,8.24742268041237
53218,Milwaukee County,WI,7.731958762886598
53511,Rock County,WI,1.2886597938144329
53520,Green County,WI,78.35051546391753
54002,St. Croix County,WI,87.62886597938144
54452,Lincoln County,WI,80.15463917525774
54467,Portage County,WI,64.69072164948454
54952,Winnebago County,WI,77.31958762886599
82009,Laramie County,WY,70.36082474226805
