ZipCode,county,state,Adult,Retirement
35034,Bibb County,AL,94.62184873949579,NA
35080,Shelby County,AL,62.35294117647059,NA
35234,Jefferson County,AL,NA,88.75
36587,Mobile County,AL,79.49579831932773,NA
36701,Dallas County,AL,30.58823529411765,NA
85007,Maricopa County,AZ,12.26890756302521,NA
85013,Maricopa County,AZ,52.94117647058824,NA
85041,Maricopa County,AZ,11.260504201680673,NA
85128,Pinal County,AZ,NA,80.83333333333333
85202,Maricopa County,AZ,56.134453781512605,NA
85255,Maricopa County,AZ,NA,45.83333333333333
85338,Maricopa County,AZ,38.15126050420168,NA
85530,Graham County,AZ,94.28571428571428,NA
85614,Pima County,AZ,NA,22.916666666666664
85705,Pima County,AZ,21.680672268907564,NA
86323,Yavapai County,AZ,55.79831932773109,NA
86503,Apache County,AZ,70.25210084033613,NA
86505,Apache County,AZ,86.21848739495799,NA
71854,Miller County,AR,NA,30
90003,Los Angeles County,CA,39.66386554621849,NA
90015,Los Angeles County,CA,93.4453781512605,NA
90018,Los Angeles County,CA,NA,76.25
90021,Los Angeles County,CA,NA,97.08333333333333
90047,Los Angeles County,CA,16.80672268907563,NA
90059,Los Angeles County,CA,38.655462184873954,NA
90065,Los Angeles County,CA,59.66386554621849,NA
90077,Los Angeles County,CA,98.15126050420167,NA
90220,Los Angeles County,CA,36.470588235294116,NA
90247,Los Angeles County,CA,NA,51.24999999999999
90262,Los Angeles County,CA,38.4873949579832,NA
90301,Los Angeles County,CA,38.991596638655466,NA
90650,Los Angeles County,CA,19.327731092436977,NA
90731,Los Angeles County,CA,34.95798319327731,NA
90745,Los Angeles County,CA,NA,34.166666666666664
91306,Los Angeles County,CA,74.11764705882354,NA
91321,Los Angeles County,CA,93.10924369747899,NA
91331,Los Angeles County,CA,13.61344537815126,NA
91342,Los Angeles County,CA,22.857142857142858,NA
91606,Los Angeles County,CA,63.52941176470588,NA
91706,Los Angeles County,CA,75.7983193277311,NA
91763,San Bernardino County,CA,66.72268907563024,NA
92201,Riverside County,CA,NA,20
92240,Riverside County,CA,58.31932773109244,39.58333333333333
92270,Riverside County,CA,NA,10.833333333333334
92307,San Bernardino County,CA,NA,54.166666666666664
92324,San Bernardino County,CA,NA,42.5
92346,San Bernardino County,CA,29.915966386554622,NA
92354,San Bernardino County,CA,82.35294117647058,NA
92392,San Bernardino County,CA,20.33613445378151,NA
92505,Riverside County,CA,50.42016806722689,NA
92544,Riverside County,CA,NA,49.166666666666664
92553,Riverside County,CA,63.02521008403361,NA
92626,Orange County,CA,84.87394957983193,NA
92629,Orange County,CA,NA,43.333333333333336
92656,Orange County,CA,37.81512605042017,NA
92701,Orange County,CA,90.4201680672269,NA
92840,Orange County,CA,79.83193277310924,NA
93003,Ventura County,CA,16.470588235294116,NA
93004,Ventura County,CA,NA,50.83333333333333
93010,Ventura County,CA,37.64705882352941,NA
93105,Santa Barbara County,CA,88.57142857142857,NA
93219,Tulare County,CA,96.47058823529412,NA
93257,Tulare County,CA,NA,25.416666666666664
93291,Tulare County,CA,24.03361344537815,NA
93401,San Luis Obispo County,CA,NA,52.083333333333336
93458,Santa Barbara County,CA,NA,62.916666666666664
93703,Fresno County,CA,47.22689075630252,NA
94124,San Francisco County,CA,NA,72.08333333333333
94131,San Francisco County,CA,66.21848739495798,NA
94533,Solano County,CA,27.39495798319328,NA
94538,Alameda County,CA,51.09243697478991,NA
94546,Alameda County,CA,NA,59.166666666666664
94574,Napa County,CA,NA,81.66666666666667
95003,Santa Cruz County,CA,NA,71.66666666666667
95073,Santa Cruz County,CA,NA,90.41666666666667
95126,Santa Clara County,CA,67.39495798319328,NA
95209,San Joaquin County,CA,NA,79.58333333333333
95237,San Joaquin County,CA,99.83193277310924,NA
95240,San Joaquin County,CA,50.252100840336134,NA
95380,Stanislaus County,CA,31.26050420168067,NA
95608,Sacramento County,CA,73.78151260504202,NA
95620,Solano County,CA,NA,87.5
95621,Sacramento County,CA,46.05042016806723,NA
95695,Yolo County,CA,69.74789915966386,NA
95815,Sacramento County,CA,68.40336134453781,NA
95818,Sacramento County,CA,75.96638655462185,NA
95825,Sacramento County,CA,53.78151260504202,NA
95833,Sacramento County,CA,43.36134453781513,NA
95901,Yuba County,CA,27.899159663865547,NA
95961,Yuba County,CA,48.0672268907563,NA
80002,Jefferson County,CO,NA,73.75
80014,Arapahoe County,CO,NA,29.583333333333332
80015,Arapahoe County,CO,18.991596638655462,NA
80021,Jefferson County,CO,63.86554621848739,NA
80113,Arapahoe County,CO,62.6890756302521,NA
80503,Boulder County,CO,NA,52.916666666666664
80504,Boulder County,CO,35.79831932773109,NA
80524,Larimer County,CO,33.94957983193277,NA
80538,Larimer County,CO,NA,10.416666666666668
80631,Weld County,CO,10.756302521008404,NA
80906,El Paso County,CO,NA,42.083333333333336
80918,El Paso County,CO,49.747899159663866,NA
81082,Las Animas County,CO,NA,70.83333333333334
06019,Hartford County,CT,91.42857142857143,NA
06040,Hartford County,CT,40.33613445378151,22.5
06042,Hartford County,CT,41.680672268907564,NA
06401,New Haven County,CT,34.621848739495796,NA
06468,Fairfield County,CT,80.84033613445378,NA
06488,New Haven County,CT,NA,40
06512,New Haven County,CT,26.89075630252101,NA
06513,New Haven County,CT,NA,11.25
06516,New Haven County,CT,8.067226890756302,NA
06605,Fairfield County,CT,38.15126050420168,NA
06795,Litchfield County,CT,NA,55.00000000000001
06824,Fairfield County,CT,NA,70
19701,New Castle County,DE,30.756302521008404,NA
19946,Kent County,DE,96.30252100840336,NA
32091,Bradford County,FL,NA,43.75
32114,Volusia County,FL,27.058823529411764,NA
32162,Sumter County,FL,NA,2.083333333333333
32206,Duval County,FL,24.705882352941178,NA
32209,Duval County,FL,NA,15.833333333333332
32210,Duval County,FL,4.53781512605042,NA
32211,Duval County,FL,24.201680672268907,NA
32301,Leon County,FL,67.89915966386555,NA
32304,Leon County,FL,NA,86.66666666666667
32308,Leon County,FL,NA,60.83333333333333
32348,Taylor County,FL,78.4873949579832,NA
32514,Escambia County,FL,28.067226890756302,NA
32565,Santa Rosa County,FL,NA,83.75
32609,Alachua County,FL,22.689075630252102,NA
32666,Putnam County,FL,87.05882352941177,NA
32712,Orange County,FL,65.71428571428571,NA
32771,Seminole County,FL,17.647058823529413,NA
32804,Orange County,FL,NA,68.75
32817,Orange County,FL,69.41176470588235,NA
32818,Orange County,FL,17.478991596638654,NA
32907,Brevard County,FL,NA,23.75
33015,Miami-Dade County,FL,54.78991596638656,NA
33027,Broward County,FL,43.19327731092437,NA
33055,Miami-Dade County,FL,54.621848739495796,NA
33138,Miami-Dade County,FL,72.43697478991596,NA
33175,Miami-Dade County,FL,59.49579831932773,NA
33309,Broward County,FL,61.84873949579832,NA
33405,Palm Beach County,FL,86.38655462184875,NA
33407,Palm Beach County,FL,33.4453781512605,NA
33597,Sumter County,FL,99.66386554621849,NA
33615,Hillsborough County,FL,31.932773109243694,NA
33805,Polk County,FL,NA,37.916666666666664
33873,Hardee County,FL,75.46218487394958,NA
33884,Polk County,FL,NA,46.666666666666664
33901,Lee County,FL,56.80672268907563,NA
33917,Lee County,FL,55.12605042016807,NA
33936,Lee County,FL,52.10084033613446,NA
33950,Charlotte County,FL,77.31092436974791,NA
33971,Lee County,FL,60.50420168067227,NA
34135,Lee County,FL,53.109243697478995,17.083333333333332
34207,Manatee County,FL,57.47899159663865,NA
34221,Manatee County,FL,42.016806722689076,NA
34232,Sarasota County,FL,50.924369747899156,NA
34234,Sarasota County,FL,43.865546218487395,NA
34471,Marion County,FL,NA,48.333333333333336
34475,Marion County,FL,66.55462184873949,NA
34653,Pasco County,FL,33.27731092436974,NA
34668,Pasco County,FL,13.949579831932773,NA
34685,Pinellas County,FL,89.07563025210085,NA
34689,Pinellas County,FL,61.680672268907564,NA
34711,Lake County,FL,25.882352941176475,NA
34744,Osceola County,FL,30.084033613445378,NA
34748,Lake County,FL,55.96638655462185,NA
34947,St. Lucie County,FL,NA,75.41666666666667
34983,St. Lucie County,FL,NA,61.66666666666667
30110,Haralson County,GA,67.05882352941175,NA
30153,Polk County,GA,45.21008403361345,NA
30161,Floyd County,GA,54.45378151260504,NA
30180,Carroll County,GA,NA,39.166666666666664
30315,Fulton County,GA,NA,28.749999999999996
30317,DeKalb County,GA,NA,92.91666666666667
30318,Fulton County,GA,31.76470588235294,NA
30319,DeKalb County,GA,72.94117647058823,NA
30329,DeKalb County,GA,85.71428571428571,NA
30349,Fulton County,GA,9.915966386554622,NA
30354,Fulton County,GA,68.23529411764706,NA
30453,Tattnall County,GA,97.14285714285714,NA
31093,Houston County,GA,NA,36.25
31206,Bibb County,GA,34.285714285714285,NA
31217,Bibb County,GA,65.04201680672269,NA
31331,McIntosh County,GA,93.27731092436974,NA
31632,Lowndes County,GA,81.5126050420168,NA
31909,Muscogee County,GA,NA,30.416666666666664
83442,Jefferson County,ID,46.21848739495798,NA
83854,Kootenai County,ID,NA,56.25
60050,McHenry County,IL,42.35294117647059,NA
60102,McHenry County,IL,51.59663865546219,NA
60164,Cook County,IL,43.529411764705884,NA
60169,Cook County,IL,51.26050420168067,NA
60302,Cook County,IL,NA,16.25
60304,Cook County,IL,60.84033613445378,NA
60453,Cook County,IL,15.126050420168067,NA
60466,Cook County,IL,53.27731092436975,NA
60546,Cook County,IL,NA,98.33333333333333
60624,Cook County,IL,16.63865546218487,NA
60656,Cook County,IL,NA,47.083333333333336
61360,LaSalle County,IL,96.97478991596638,NA
61364,LaSalle County,IL,60,NA
62010,Madison County,IL,79.66386554621849,NA
62226,St. Clair County,IL,46.72268907563025,NA
62363,Pike County,IL,99.32773109243698,NA
62401,Effingham County,IL,66.38655462184873,NA
62703,Sangamon County,IL,NA,32.083333333333336
62948,Williamson County,IL,71.09243697478992,NA
46201,Marion County,IN,19.831932773109244,NA
46228,Marion County,IN,NA,67.5
46260,Marion County,IN,49.411764705882355,NA
46383,Porter County,IN,9.411764705882353,NA
46410,Lake County,IN,NA,6.25
46516,Elkhart County,IN,18.15126050420168,NA
46710,Noble County,IN,91.9327731092437,NA
46777,Wells County,IN,92.26890756302521,NA
46804,Allen County,IN,48.403361344537814,28.333333333333332
46815,Allen County,IN,36.97478991596639,NA
46952,Grant County,IN,53.94957983193277,NA
47167,Washington County,IN,54.285714285714285,NA
47356,Henry County,IN,88.23529411764706,NA
47714,Vanderburgh County,IN,NA,22.083333333333332
47906,Tippecanoe County,IN,NA,30.833333333333336
50010,Story County,IA,NA,69.58333333333333
50501,Webster County,IA,28.403361344537814,NA
51503,Pottawattamie County,IA,10.92436974789916,NA
51534,Mills County,IA,NA,89.58333333333334
52233,Linn County,IA,89.41176470588236,NA
52404,Linn County,IA,11.092436974789916,NA
52761,Muscatine County,IA,NA,13.750000000000002
66067,Franklin County,KS,61.51260504201681,NA
66071,Miami County,KS,NA,76.66666666666667
66221,Johnson County,KS,72.77310924369748,NA
40004,Nelson County,KY,20.840336134453782,NA
40118,Jefferson County,KY,57.815126050420176,NA
40160,Hardin County,KY,36.30252100840336,NA
40211,Jefferson County,KY,14.453781512605044,NA
40214,Jefferson County,KY,7.226890756302522,NA
40218,Jefferson County,KY,14.6218487394958,NA
40258,Jefferson County,KY,26.38655462184874,NA
40353,Montgomery County,KY,25.04201680672269,NA
40361,Bourbon County,KY,40.168067226890756,NA
40505,Fayette County,KY,27.563025210084035,NA
40741,Laurel County,KY,26.218487394957986,NA
40744,Laurel County,KY,33.10924369747899,NA
40769,Whitley County,KY,NA,53.333333333333336
40965,Bell County,KY,29.747899159663866,NA
41001,Campbell County,KY,67.22689075630252,NA
41011,Kenton County,KY,15.294117647058824,NA
41018,Kenton County,KY,28.57142857142857,NA
41071,Campbell County,KY,30.252100840336134,NA
41101,Boyd County,KY,52.60504201680673,NA
41144,Greenup County,KY,44.20168067226891,NA
41301,Wolfe County,KY,74.78991596638656,NA
42066,Graves County,KY,26.554621848739497,NA
42101,Warren County,KY,32.60504201680672,NA
42127,Barren County,KY,71.9327731092437,NA
42240,Christian County,KY,NA,16.666666666666664
42345,Muhlenberg County,KY,58.15126050420169,NA
42420,Henderson County,KY,NA,14.166666666666666
42553,Pulaski County,KY,NA,83.33333333333334
42567,Pulaski County,KY,95.12605042016806,NA
42633,Wayne County,KY,55.63025210084034,NA
42642,Russell County,KY,NA,62.5
42701,Hardin County,KY,NA,12.083333333333334
42749,Hart County,KY,80,NA
70065,Jefferson Parish,LA,NA,2.9166666666666665
70072,Jefferson Parish,LA,39.15966386554622,NA
70084,St. John the Baptist Parish,LA,70.4201680672269,NA
70090,St. James Parish,LA,NA,93.33333333333333
70116,Orleans Parish,LA,NA,87.91666666666667
70119,Orleans Parish,LA,5.042016806722689,NA
70126,Orleans Parish,LA,6.5546218487394965,NA
70128,Orleans Parish,LA,69.24369747899159,NA
70301,Lafourche Parish,LA,16.30252100840336,NA
70360,Terrebonne Parish,LA,86.72268907563026,NA
70363,Terrebonne Parish,LA,NA,33.75
70394,Lafourche Parish,LA,NA,35
70422,Tangipahoa Parish,LA,62.016806722689076,NA
70461,St. Tammany Parish,LA,17.81512605042017,NA
70501,Lafayette Parish,LA,2.3529411764705883,NA
70506,Lafayette Parish,LA,29.2436974789916,NA
70507,Lafayette Parish,LA,75.63025210084034,NA
70510,Vermilion Parish,LA,60.33613445378151,NA
70525,Acadia Parish,LA,79.15966386554622,NA
70601,Calcasieu Parish,LA,64.2016806722689,NA
70710,West Baton Rouge Parish,LA,90.92436974789916,NA
70802,East Baton Rouge Parish,LA,6.386554621848739,NA
71037,Bossier Parish,LA,19.495798319327733,NA
71104,Caddo Parish,LA,47.22689075630252,NA
71118,Caddo Parish,LA,NA,58.333333333333336
71263,West Carroll Parish,LA,55.46218487394958,NA
71292,Ouachita Parish,LA,NA,54.58333333333333
71301,Rapides Parish,LA,NA,65.83333333333333
71463,Allen Parish,LA,64.03361344537815,NA
04071,Cumberland County,ME,96.1344537815126,NA
04101,Cumberland County,ME,70.75630252100841,NA
04957,Somerset County,ME,76.30252100840336,NA
20785,Prince George's County,MD,NA,73.33333333333333
20910,Montgomery County,MD,NA,75
21122,Anne Arundel County,MD,9.57983193277311,NA
21157,Carroll County,MD,NA,47.91666666666667
21213,Baltimore city,MD,NA,15.416666666666668
21214,Baltimore city,MD,63.193277310924366,NA
21227,Baltimore County,MD,57.647058823529406,NA
21236,Baltimore County,MD,42.6890756302521,NA
01013,Hampden County,MA,3.697478991596639,NA
01301,Franklin County,MA,NA,40.416666666666664
01420,Worcester County,MA,0.5042016806722689,NA
01462,Worcester County,MA,NA,65
01463,Middlesex County,MA,48.739495798319325,NA
01506,Worcester County,MA,98.4873949579832,NA
01550,Worcester County,MA,0.8403361344537815,NA
01581,Worcester County,MA,37.3109243697479,NA
01603,Worcester County,MA,1.5126050420168067,NA
01605,Worcester County,MA,NA,1.25
01609,Worcester County,MA,3.5294117647058822,NA
01826,Middlesex County,MA,4.873949579831933,NA
01834,Essex County,MA,81.17647058823529,NA
01850,Middlesex County,MA,9.07563025210084,NA
01854,Middlesex County,MA,1.680672268907563,NA
01906,Essex County,MA,3.361344537815126,NA
01949,Essex County,MA,77.47899159663866,NA
02038,Norfolk County,MA,14.285714285714285,NA
02062,Norfolk County,MA,14.957983193277311,NA
02118,Suffolk County,MA,2.0168067226890756,NA
02119,Suffolk County,MA,0.16806722689075632,NA
02151,Suffolk County,MA,0.33613445378151263,NA
02170,Norfolk County,MA,35.12605042016806,NA
02301,Plymouth County,MA,NA,0
02343,Norfolk County,MA,41.344537815126046,NA
02346,Plymouth County,MA,40.50420168067227,NA
02532,Barnstable County,MA,58.4873949579832,NA
02740,Bristol County,MA,0,NA
02745,Bristol County,MA,2.3529411764705883,NA
48047,Macomb County,MI,14.789915966386555,NA
48089,Macomb County,MI,NA,25.833333333333336
48091,Macomb County,MI,6.890756302521009,NA
48101,Wayne County,MI,59.831932773109244,NA
48174,Wayne County,MI,7.73109243697479,NA
48184,Wayne County,MI,67.73109243697479,NA
48185,Wayne County,MI,80.67226890756302,8.75
48193,Wayne County,MI,57.14285714285714,NA
48204,Wayne County,MI,11.932773109243698,NA
48228,Wayne County,MI,1.1764705882352942,NA
48235,Wayne County,MI,2.689075630252101,NA
48240,Wayne County,MI,23.19327731092437,NA
48342,Oakland County,MI,15.630252100840336,NA
48458,Genesee County,MI,34.78991596638655,NA
48653,Roscommon County,MI,NA,63.74999999999999
48658,Arenac County,MI,82.85714285714286,NA
48661,Ogemaw County,MI,NA,77.08333333333334
49001,Kalamazoo County,MI,23.52941176470588,NA
49009,Kalamazoo County,MI,NA,10
49455,Oceana County,MI,NA,89.16666666666667
49507,Kent County,MI,46.554621848739494,NA
49635,Benzie County,MI,NA,84.16666666666667
49868,Luce County,MI,87.22689075630252,NA
55033,Dakota County,MN,33.78151260504202,NA
55066,Goodhue County,MN,48.90756302521008,NA
55076,Dakota County,MN,NA,90
55082,Washington County,MN,NA,27.500000000000004
55104,Ramsey County,MN,16.134453781512605,NA
55110,Ramsey County,MN,52.43697478991597,NA
55117,Ramsey County,MN,17.310924369747898,NA
55121,Dakota County,MN,84.2016806722689,NA
55128,Washington County,MN,52.10084033613446,NA
55303,Anoka County,MN,NA,37.5
55309,Sherburne County,MN,95.46218487394958,NA
55317,Carver County,MN,78.82352941176471,NA
55331,Hennepin County,MN,NA,69.16666666666667
55344,Hennepin County,MN,89.57983193277312,NA
55378,Scott County,MN,59.32773109243698,NA
55387,Carver County,MN,NA,92.08333333333333
55391,Hennepin County,MN,95.7983193277311,NA
55418,Hennepin County,MN,76.9747899159664,NA
55423,Hennepin County,MN,22.18487394957983,NA
55427,Hennepin County,MN,88.73949579831933,NA
55431,Hennepin County,MN,85.21008403361344,NA
55432,Anoka County,MN,27.22689075630252,NA
55441,Hennepin County,MN,73.94957983193278,NA
55445,Hennepin County,MN,NA,82.91666666666667
55447,Hennepin County,MN,89.74789915966387,NA
55448,Anoka County,MN,NA,57.49999999999999
55811,St. Louis County,MN,79.32773109243698,NA
56001,Blue Earth County,MN,35.294117647058826,NA
56187,Nobles County,MN,NA,40.833333333333336
56267,Stevens County,MN,NA,77.91666666666667
56308,Douglas County,MN,63.193277310924366,46.25
56377,Stearns County,MN,76.1344537815126,NA
56401,Crow Wing County,MN,39.49579831932773,7.083333333333333
56479,Todd County,MN,92.43697478991596,NA
56537,Otter Tail County,MN,NA,11.666666666666666
38614,Coahoma County,MS,54.957983193277315,62.083333333333336
38701,Washington County,MS,64.53781512605042,NA
38751,Sunflower County,MS,82.18487394957982,70.41666666666667
39305,Lauderdale County,MS,57.310924369747895,NA
39307,Lauderdale County,MS,NA,65.41666666666667
39355,Clarke County,MS,84.03361344537815,NA
39553,Jackson County,MS,NA,50
63111,St. Louis city,MO,37.47899159663866,NA
63118,St. Louis city,MO,36.134453781512605,45.416666666666664
63134,St. Louis County,MO,NA,80
63703,Cape Girardeau County,MO,61.34453781512605,NA
64012,Cass County,MO,NA,27.916666666666668
64052,Jackson County,MO,12.100840336134453,NA
64067,Lafayette County,MO,NA,78.33333333333333
64075,Jackson County,MO,45.714285714285715,NA
64116,Clay County,MO,NA,72.5
64127,Jackson County,MO,29.57983193277311,NA
64133,Jackson County,MO,4.705882352941177,5.416666666666667
64137,Jackson County,MO,NA,70.83333333333334
64150,Platte County,MO,92.77310924369748,NA
65018,Moniteau County,MO,NA,99.58333333333333
65202,Boone County,MO,12.436974789915967,NA
65265,Audrain County,MO,62.18487394957983,NA
65613,Polk County,MO,82.01680672268907,NA
65625,Barry County,MO,86.5546218487395,NA
65721,Christian County,MO,58.655462184873954,NA
65746,Webster County,MO,NA,94.16666666666667
59405,Cascade County,MT,NA,18.75
59901,Flathead County,MT,NA,3.75
68048,Cass County,NE,88.90756302521008,NA
68137,Douglas County,NE,80.50420168067227,NA
68154,Douglas County,NE,NA,49.583333333333336
68410,Otoe County,NE,93.94957983193277,NA
68516,Lancaster County,NE,68.73949579831933,NA
89119,Clark County,NV,23.52941176470588,NA
89147,Clark County,NV,44.03361344537815,NA
89460,Douglas County,NV,76.63865546218489,NA
89703,Carson City,NV,89.91596638655463,NA
03101,Hillsborough County,NH,NA,96.25
03820,Strafford County,NH,24.53781512605042,41.25
07039,Essex County,NJ,22.521008403361346,NA
07202,Union County,NJ,50.588235294117645,NA
07640,Bergen County,NJ,NA,84.16666666666667
07660,Bergen County,NJ,NA,79.16666666666666
07662,Bergen County,NJ,94.78991596638654,NA
07701,Monmouth County,NJ,49.57983193277311,NA
07712,Monmouth County,NJ,18.487394957983195,NA
07740,Monmouth County,NJ,32.26890756302521,NA
07751,Monmouth County,NJ,NA,95.83333333333334
07840,Warren County,NJ,37.983193277310924,NA
07871,Sussex County,NJ,92.94117647058823,NA
08003,Camden County,NJ,62.52100840336134,NA
08005,Ocean County,NJ,20.168067226890756,NA
08033,Camden County,NJ,68.73949579831933,NA
08070,Salem County,NJ,51.932773109243705,NA
08102,Camden County,NJ,90.58823529411765,NA
08234,Atlantic County,NJ,87.56302521008404,NA
08270,Cape May County,NJ,81.68067226890756,NA
08540,Mercer County,NJ,NA,96.66666666666667
08610,Mercer County,NJ,8.571428571428571,NA
08618,Mercer County,NJ,42.857142857142854,NA
08619,Mercer County,NJ,51.76470588235295,NA
08753,Ocean County,NJ,2.857142857142857,NA
08809,Hunterdon County,NJ,95.96638655462185,NA
08812,Middlesex County,NJ,NA,86.25
08844,Somerset County,NJ,94.11764705882352,NA
87052,Sandoval County,NM,97.98319327731092,NA
87102,Bernalillo County,NM,25.210084033613445,NA
87106,Bernalillo County,NM,23.865546218487395,NA
87108,Bernalillo County,NM,7.0588235294117645,NA
87301,McKinley County,NM,87.89915966386555,82.08333333333333
87313,McKinley County,NM,78.65546218487395,98.75
87323,McKinley County,NM,NA,94.58333333333333
87325,McKinley County,NM,98.82352941176471,NA
87401,San Juan County,NM,17.983193277310924,NA
87420,San Juan County,NM,NA,85
87505,Santa Fe County,NM,NA,8.333333333333332
87506,Santa Fe County,NM,93.61344537815125,NA
87528,Rio Arriba County,NM,87.73109243697479,NA
87740,Colfax County,NM,NA,82.08333333333333
88001,Doa Ana County,NM,29.411764705882355,NA
88011,Doa Ana County,NM,56.30252100840336,NA
88242,Lea County,NM,NA,95
88345,Lincoln County,NM,75.12605042016807,NA
10001,New York County,NY,44.70588235294118,NA
10004,New York County,NY,NA,95.41666666666667
10011,New York County,NY,NA,21.25
10027,New York County,NY,5.2100840336134455,NA
10029,New York County,NY,98.65546218487395,NA
10030,New York County,NY,NA,60.416666666666664
10039,New York County,NY,NA,41.66666666666667
10305,Richmond County,NY,NA,51.66666666666667
10314,Richmond County,NY,44.537815126050425,5
10456,Bronx County,NY,16.974789915966387,0.4166666666666667
10459,Bronx County,NY,5.378151260504202,NA
10463,Bronx County,NY,8.907563025210084,NA
10467,Bronx County,NY,5.546218487394958,NA
10549,Westchester County,NY,91.59663865546219,91.66666666666666
10598,Westchester County,NY,NA,72.91666666666666
10941,Orange County,NY,90.08403361344538,NA
10954,Rockland County,NY,92.60504201680672,NA
10956,Rockland County,NY,97.81512605042016,NA
10970,Rockland County,NY,NA,91.25
10977,Rockland County,NY,NA,80.41666666666667
11106,Queens County,NY,NA,57.08333333333333
11203,Kings County,NY,NA,7.916666666666666
11212,Kings County,NY,NA,0.8333333333333334
11215,Kings County,NY,NA,35.41666666666667
11229,Kings County,NY,62.857142857142854,NA
11356,Queens County,NY,77.64705882352942,NA
11413,Queens County,NY,77.81512605042018,NA
11419,Queens County,NY,42.52100840336134,NA
11432,Queens County,NY,NA,9.166666666666666
11563,Nassau County,NY,83.02521008403362,NA
11714,Nassau County,NY,80.33613445378151,NA
11777,Suffolk County,NY,99.15966386554622,NA
12054,Albany County,NY,88.40336134453781,NA
12180,Rensselaer County,NY,2.1848739495798317,NA
12203,Albany County,NY,41.008403361344534,NA
12308,Schenectady County,NY,41.51260504201681,NA
12428,Ulster County,NY,83.19327731092437,NA
12529,Columbia County,NY,NA,97.91666666666666
12571,Dutchess County,NY,90.92436974789916,NA
12590,Dutchess County,NY,NA,61.25000000000001
13027,Onondaga County,NY,NA,18.333333333333332
13045,Cortland County,NY,4.201680672268908,NA
13208,Onondaga County,NY,44.36974789915966,NA
13440,Oneida County,NY,32.94117647058823,7.5
13820,Otsego County,NY,11.596638655462185,78.75
13849,Otsego County,NY,78.31932773109244,NA
13905,Broome County,NY,NA,6.666666666666667
14020,Genesee County,NY,13.781512605042018,NA
14215,Erie County,NY,1.3445378151260505,NA
14609,Monroe County,NY,0.6722689075630253,NA
14621,Monroe County,NY,6.050420168067227,NA
14716,Chautauqua County,NY,96.80672268907563,NA
14719,Cattaraugus County,NY,95.63025210084034,NA
14891,Schuyler County,NY,NA,68.33333333333333
27030,Surry County,NC,51.42857142857142,NA
27041,Surry County,NC,74.45378151260505,NA
27048,Rockingham County,NC,NA,60
27106,Forsyth County,NC,NA,4.166666666666666
27263,Randolph County,NC,47.05882352941176,NA
27292,Davidson County,NC,25.210084033613445,NA
27520,Johnston County,NC,35.63025210084034,NA
27549,Franklin County,NC,26.05042016806723,NA
27573,Person County,NC,47.56302521008403,NA
27591,Wake County,NC,NA,53.75
27603,Wake County,NC,25.546218487394956,NA
27604,Wake County,NC,36.806722689075634,NA
27610,Wake County,NC,7.563025210084033,NA
27713,Durham County,NC,NA,20.833333333333336
27828,Pitt County,NC,70.92436974789916,NA
27910,Hertford County,NC,73.27731092436974,NA
28146,Rowan County,NC,36.63865546218487,NA
28205,Mecklenburg County,NC,22.35294117647059,NA
28301,Cumberland County,NC,40.84033613445378,NA
28303,Cumberland County,NC,57.98319327731093,NA
28305,Cumberland County,NC,84.36974789915966,NA
28328,Sampson County,NC,39.32773109243698,NA
28384,Bladen County,NC,64.36974789915966,NA
28433,Bladen County,NC,93.78151260504201,NA
28560,Craven County,NC,32.10084033613445,NA
28716,Haywood County,NC,53.61344537815126,NA
28732,Henderson County,NC,NA,56.666666666666664
58075,Richland County,ND,84.53781512605042,NA
58201,Grand Forks County,ND,34.45378151260504,NA
58237,Walsh County,ND,97.6470588235294,NA
43050,Knox County,OH,53.445378151260506,NA
43130,Fairfield County,OH,13.277310924369749,NA
43215,Franklin County,OH,NA,74.58333333333333
43607,Lucas County,OH,NA,23.333333333333332
43611,Lucas County,OH,NA,31.666666666666664
43701,Muskingum County,OH,6.722689075630252,NA
43725,Guernsey County,OH,15.630252100840336,NA
43762,Muskingum County,OH,NA,97.5
44004,Ashtabula County,OH,NA,3.3333333333333335
44039,Lorain County,OH,9.243697478991598,NA
44077,Lake County,OH,3.865546218487395,NA
44094,Lake County,OH,20,NA
44110,Cuyahoga County,OH,NA,9.583333333333334
44111,Cuyahoga County,OH,1.0084033613445378,NA
44112,Cuyahoga County,OH,NA,5.833333333333333
44118,Cuyahoga County,OH,12.941176470588237,NA
44133,Cuyahoga County,OH,NA,13.333333333333334
44142,Cuyahoga County,OH,NA,52.5
44144,Cuyahoga County,OH,13.445378151260504,NA
44147,Cuyahoga County,OH,NA,32.5
44256,Medina County,OH,4.369747899159663,NA
44432,Columbiana County,OH,66.05042016806722,NA
44502,Mahoning County,OH,45.54621848739496,NA
44505,Mahoning County,OH,NA,38.75
44506,Mahoning County,OH,NA,98.75
44509,Mahoning County,OH,46.38655462184874,NA
44515,Mahoning County,OH,11.76470588235294,NA
44601,Stark County,OH,7.394957983193278,NA
44641,Stark County,OH,68.0672268907563,NA
44644,Carroll County,OH,90.25210084033614,NA
44647,Stark County,OH,78.82352941176471,NA
44691,Wayne County,OH,8.739495798319327,NA
44714,Stark County,OH,70.08403361344537,NA
44833,Crawford County,OH,35.46218487394958,NA
44870,Erie County,OH,1.8487394957983194,2.5
45005,Warren County,OH,NA,19.166666666666668
45011,Butler County,OH,3.0252100840336134,NA
45177,Clinton County,OH,27.73109243697479,NA
45213,Hamilton County,OH,NA,93.75
45311,Preble County,OH,86.89075630252101,NA
45323,Clark County,OH,NA,85.83333333333333
45342,Montgomery County,OH,12.605042016806722,NA
45347,Preble County,OH,95.29411764705881,87.08333333333333
45368,Clark County,OH,89.2436974789916,NA
45385,Greene County,OH,13.109243697478993,NA
45414,Montgomery County,OH,65.04201680672269,NA
45417,Montgomery County,OH,10.588235294117647,NA
45459,Montgomery County,OH,64.70588235294117,NA
45503,Clark County,OH,8.235294117647058,NA
45714,Washington County,OH,19.15966386554622,NA
45760,Meigs County,OH,81.84873949579831,NA
73018,Grady County,OK,48.90756302521008,34.583333333333336
73075,Garvin County,OK,85.3781512605042,NA
73086,Murray County,OK,72.26890756302521,NA
73111,Oklahoma County,OK,NA,59.583333333333336
73533,Stephens County,OK,24.873949579831933,NA
74021,Tulsa County,OK,72.60504201680672,NA
74464,Cherokee County,OK,NA,21.666666666666668
74820,Pontotoc County,OK,9.747899159663866,NA
97007,Washington County,OR,37.142857142857146,NA
97045,Clackamas County,OR,NA,12.916666666666668
97132,Yamhill County,OR,42.18487394957983,NA
97202,Multnomah County,OR,31.092436974789916,NA
97212,Multnomah County,OR,86.05042016806723,NA
97218,Multnomah County,OR,74.6218487394958,NA
97267,Clackamas County,OR,39.831932773109244,NA
97305,Marion County,OR,28.907563025210088,NA
97333,Benton County,OR,69.91596638655462,NA
97801,Umatilla County,OR,38.82352941176471,NA
15068,Westmoreland County,PA,20.504201680672267,NA
15104,Allegheny County,PA,71.42857142857143,NA
15136,Allegheny County,PA,33.61344537815126,NA
15140,Allegheny County,PA,97.3109243697479,NA
15206,Allegheny County,PA,18.65546218487395,NA
15221,Allegheny County,PA,18.319327731092436,NA
15229,Allegheny County,PA,84.70588235294117,NA
15601,Westmoreland County,PA,4.033613445378151,NA
15931,Cambria County,PA,NA,58.333333333333336
16148,Mercer County,PA,50.7563025210084,NA
16201,Armstrong County,PA,NA,12.5
16504,Erie County,PA,83.69747899159664,NA
16830,Clearfield County,PA,31.596638655462183,NA
17331,York County,PA,NA,1.6666666666666667
17408,York County,PA,45.04201680672269,NA
17847,Northumberland County,PA,85.88235294117646,NA
17851,Northumberland County,PA,NA,50.416666666666664
18017,Northampton County,PA,30.252100840336134,NA
18040,Northampton County,PA,71.26050420168067,NA
18091,Northampton County,PA,83.36134453781513,NA
18102,Lehigh County,PA,10.420168067226891,NA
18103,Lehigh County,PA,5.88235294117647,NA
18517,Lackawanna County,PA,NA,88.33333333333333
18702,Luzerne County,PA,8.403361344537815,NA
19063,Delaware County,PA,24.369747899159663,NA
19120,Philadelphia County,PA,18.823529411764707,NA
19132,Philadelphia County,PA,6.218487394957983,NA
19134,Philadelphia County,PA,NA,15
19136,Philadelphia County,PA,12.773109243697478,NA
19138,Philadelphia County,PA,NA,24.583333333333332
19141,Philadelphia County,PA,NA,17.916666666666668
19146,Philadelphia County,PA,NA,26.666666666666668
19320,Chester County,PA,11.428571428571429,NA
19422,Montgomery County,PA,NA,38.333333333333336
19446,Montgomery County,PA,15.966386554621847,NA
19464,Montgomery County,PA,5.714285714285714,NA
19606,Berks County,PA,41.17647058823529,NA
19610,Berks County,PA,67.56302521008404,NA
02864,Providence County,RI,29.075630252100844,NA
02914,Providence County,RI,NA,44.166666666666664
02915,Providence County,RI,77.14285714285715,NA
29118,Orangeburg County,SC,76.47058823529412,NA
29360,Laurens County,SC,43.69747899159664,NA
29506,Florence County,SC,47.56302521008403,NA
29510,Georgetown County,SC,66.890756302521,NA
29691,Oconee County,SC,85.54621848739495,NA
29730,York County,SC,21.176470588235293,NA
57701,Pennington County,SD,21.51260504201681,NA
57752,Shannon County,SD,96.47058823529412,NA
37066,Sumner County,TN,40,NA
37160,Bedford County,TN,21.176470588235293,NA
37190,Cannon County,TN,78.15126050420169,NA
37342,Coffee County,TN,97.47899159663865,NA
37398,Franklin County,TN,47.89915966386555,NA
37404,Hamilton County,TN,65.88235294117646,NA
37660,Sullivan County,TN,10.252100840336134,NA
37722,Cocke County,TN,87.39495798319328,NA
37756,Scott County,TN,99.49579831932773,100
37887,Morgan County,TN,90.75630252100841,NA
38016,Shelby County,TN,54.11764705882353,NA
38109,Shelby County,TN,NA,17.5
38112,Shelby County,TN,65.3781512605042,NA
38230,Weakley County,TN,98.99159663865547,NA
38469,Lawrence County,TN,94.45378151260503,NA
38572,Cumberland County,TN,64.87394957983193,NA
75007,Denton County,TX,NA,27.083333333333332
75028,Denton County,TX,59.15966386554622,NA
75060,Dallas County,TX,44.87394957983194,NA
75080,Dallas County,TX,61.1764705882353,NA
75103,Van Zandt County,TX,80,NA
75180,Dallas County,TX,NA,64.58333333333334
75181,Dallas County,TX,56.470588235294116,NA
75201,Dallas County,TX,77.98319327731093,92.5
75218,Dallas County,TX,NA,57.91666666666667
75224,Dallas County,TX,50.08403361344538,NA
75227,Dallas County,TX,21.008403361344538,NA
75645,Upshur County,TX,92.10084033613445,NA
75835,Houston County,TX,69.5798319327731,NA
75901,Angelina County,TX,71.59663865546219,NA
75979,Tyler County,TX,85.04201680672269,NA
76015,Tarrant County,TX,NA,67.08333333333333
76016,Tarrant County,TX,68.57142857142857,26.25
76111,Tarrant County,TX,NA,66.25
76133,Tarrant County,TX,20.672268907563023,NA
76137,Tarrant County,TX,23.025210084033613,NA
76244,Tarrant County,TX,28.739495798319325,NA
76513,Bell County,TX,10.084033613445378,NA
76539,Lampasas County,TX,NA,81.25
76643,McLennan County,TX,73.10924369747899,NA
76667,Limestone County,TX,60.84033613445378,NA
77045,Harris County,TX,60.50420168067227,NA
77051,Harris County,TX,56.97478991596638,NA
77099,Harris County,TX,NA,67.91666666666667
77338,Harris County,TX,48.23529411764706,NA
77345,Harris County,TX,NA,63.33333333333333
77437,Wharton County,TX,65.54621848739495,NA
77480,Brazoria County,TX,88.0672268907563,NA
77546,Galveston County,TX,NA,44.583333333333336
77550,Galveston County,TX,21.84873949579832,NA
77578,Brazoria County,TX,69.07563025210084,NA
77619,Jefferson County,TX,74.28571428571429,NA
77703,Jefferson County,TX,73.44537815126051,NA
77705,Jefferson County,TX,45.88235294117647,NA
77833,Washington County,TX,48.57142857142857,NA
78133,Comal County,TX,83.8655462184874,NA
78154,Guadalupe County,TX,75.29411764705883,NA
78213,Bexar County,TX,49.91596638655462,NA
78229,Bexar County,TX,55.294117647058826,NA
78244,Bexar County,TX,63.52941176470588,NA
78520,Cameron County,TX,NA,31.25
78521,Cameron County,TX,35.96638655462185,20.416666666666668
78586,Cameron County,TX,46.890756302521005,NA
78739,Travis County,TX,94.9579831932773,NA
78758,Travis County,TX,NA,75.83333333333333
78840,Val Verde County,TX,32.436974789915965,NA
78852,Maverick County,TX,58.82352941176471,NA
79403,Lubbock County,TX,NA,90.83333333333333
79705,Midland County,TX,NA,36.666666666666664
79904,El Paso County,TX,NA,55.833333333333336
84050,Morgan County,UT,NA,85.41666666666666
84115,Salt Lake County,UT,NA,37.083333333333336
84651,Utah County,UT,73.61344537815127,NA
05201,Bennington County,VT,NA,25
05401,Chittenden County,VT,52.77310924369748,NA
22003,Fairfax County,VA,NA,29.166666666666668
22408,Spotsylvania County,VA,NA,55.00000000000001
22851,Page County,VA,83.36134453781513,NA
23229,Henrico County,VA,70.58823529411765,NA
23231,Henrico County,VA,NA,19.583333333333332
23234,Chesterfield County,VA,22.016806722689076,NA
23452,Virginia Beach city,VA,25.71428571428571,NA
23505,Norfolk city,VA,41.84873949579832,NA
23513,Norfolk city,VA,19.66386554621849,NA
23602,Newport News city,VA,32.773109243697476,NA
23669,Hampton city,VA,NA,14.583333333333334
23831,Chesterfield County,VA,72.10084033613445,NA
24019,Roanoke County,VA,58.991596638655466,NA
24179,Roanoke County,VA,NA,47.5
24219,Wise County,VA,43.02521008403362,NA
24301,Pulaski County,VA,60.168067226890756,NA
24368,Wythe County,VA,100,NA
24422,Alleghany County,VA,82.68907563025209,NA
24551,Bedford County,VA,NA,74.16666666666667
98208,Snohomish County,WA,23.361344537815125,NA
98223,Snohomish County,WA,28.235294117647058,NA
98273,Skagit County,WA,31.428571428571427,NA
98363,Clallam County,WA,71.76470588235294,NA
98404,Pierce County,WA,NA,45
98407,Pierce County,WA,NA,48.75
98506,Thurston County,WA,76.63865546218489,NA
98512,Thurston County,WA,81.00840336134453,NA
99206,Spokane County,WA,49.2436974789916,NA
20020,District of Columbia,DC,15.46218487394958,NA
20032,District of Columbia,DC,NA,24.166666666666668
24740,Mercer County,WV,34.11764705882353,NA
25560,Putnam County,WV,NA,66.66666666666666
25801,Raleigh County,WV,14.117647058823529,NA
25880,Raleigh County,WV,NA,77.5
97003,NA,NA,56.63865546218487,NA
26351,Gilmer County,WV,98.31932773109243,NA
53073,Sheboygan County,WI,82.35294117647058,NA
53081,Sheboygan County,WI,17.142857142857142,NA
53085,Sheboygan County,WI,91.76470588235294,NA
53094,Jefferson County,WI,45.21008403361345,NA
53110,Milwaukee County,WI,NA,35.833333333333336
53186,Waukesha County,WI,30.92436974789916,NA
53189,Waukesha County,WI,NA,33.33333333333333
53205,Milwaukee County,WI,3.1932773109243695,NA
53549,Jefferson County,WI,74.95798319327731,NA
53719,Dane County,WI,NA,42.916666666666664
54114,Marinette County,WI,90.92436974789916,NA
54403,Marathon County,WI,NA,32.916666666666664
54409,Langlade County,WI,40.67226890756302,NA
54451,Taylor County,WI,NA,64.16666666666667
54601,La Crosse County,WI,7.899159663865546,NA
54880,Douglas County,WI,NA,4.583333333333333
54914,Outagamie County,WI,26.722689075630253,NA
82935,Sweetwater County,WY,81.34453781512605,NA
