ZipCode,county,state,Adult,Retirement,Geriatric
35016,Marshall County,AL,NA,39.473684210526315,48.1651376146789
35022,Jefferson County,AL,44.065484311050476,NA,NA
35080,Shelby County,AL,NA,72.91021671826626,NA
35118,Jefferson County,AL,94.81582537517053,NA,NA
35150,Talladega County,AL,NA,NA,50.68807339449541
35210,Jefferson County,AL,NA,66.56346749226006,62.84403669724771
35211,Jefferson County,AL,NA,NA,36.69724770642202
35216,Jefferson County,AL,NA,51.39318885448917,NA
35228,Jefferson County,AL,65.89358799454298,NA,NA
35611,Limestone County,AL,NA,NA,57.56880733944955
35614,Limestone County,AL,78.71759890859482,NA,NA
35630,Lauderdale County,AL,36.289222373806275,NA,NA
35640,Morgan County,AL,NA,NA,51.146788990825684
35750,Madison County,AL,64.25648021828103,NA,NA
35756,Limestone County,AL,NA,76.93498452012383,NA
35757,Madison County,AL,76.94406548431105,NA,NA
35760,Madison County,AL,95.08867667121419,NA,NA
35772,Jackson County,AL,NA,98.91640866873065,NA
36037,Butler County,AL,NA,63.1578947368421,NA
36081,Pike County,AL,NA,66.09907120743034,NA
36106,Montgomery County,AL,NA,74.76780185758514,NA
36110,Montgomery County,AL,59.2087312414734,NA,NA
36116,Montgomery County,AL,NA,50.92879256965944,NA
36117,Montgomery County,AL,NA,NA,23.623853211009173
36207,Calhoun County,AL,NA,NA,87.38532110091744
36301,Houston County,AL,22.373806275579806,NA,NA
36312,Houston County,AL,85.81173260572987,NA,NA
36420,Covington County,AL,57.02592087312415,NA,NA
36561,Baldwin County,AL,NA,79.87616099071208,NA
99504,Anchorage Municipality,AK,57.844474761255114,NA,NA
99567,Anchorage Municipality,AK,97.13506139154161,NA,NA
85008,Maricopa County,AZ,16.098226466575717,NA,NA
85019,Maricopa County,AZ,43.656207366984994,NA,NA
85020,Maricopa County,AZ,NA,NA,47.24770642201835
85029,Maricopa County,AZ,NA,NA,77.52293577981652
85031,Maricopa County,AZ,53.88813096862211,NA,NA
85053,Maricopa County,AZ,NA,60.526315789473685,NA
85118,Pinal County,AZ,NA,NA,83.71559633027523
85119,Pinal County,AZ,74.62482946793997,NA,45.412844036697244
85120,Pinal County,AZ,NA,NA,31.65137614678899
85122,Pinal County,AZ,38.062755798090045,NA,NA
85201,Maricopa County,AZ,NA,NA,38.53211009174312
85204,Maricopa County,AZ,48.84038199181446,NA,NA
85206,Maricopa County,AZ,50.068212824010914,NA,14.908256880733944
85224,Maricopa County,AZ,49.65893587994543,NA,NA
85254,Maricopa County,AZ,NA,69.04024767801857,NA
85281,Maricopa County,AZ,40.791268758526606,NA,NA
85298,Maricopa County,AZ,75.44338335607094,NA,NA
85301,Maricopa County,AZ,6.139154160982264,NA,30.045871559633024
85339,Maricopa County,AZ,25.648021828103683,NA,NA
85364,Yuma County,AZ,22.646657571623464,3.8699690402476783,NA
85365,Yuma County,AZ,33.83356070941337,NA,NA
85374,Maricopa County,AZ,NA,18.421052631578945,NA
85607,Cochise County,AZ,NA,44.89164086687307,NA
85714,Pima County,AZ,NA,59.28792569659442,NA
85716,Pima County,AZ,NA,26.31578947368421,NA
85742,Pima County,AZ,83.08321964529331,NA,NA
85750,Pima County,AZ,72.57844474761255,NA,NA
86004,Coconino County,AZ,9.004092769440655,NA,NA
86047,Navajo County,AZ,40.10914051841746,NA,NA
86305,Yavapai County,AZ,70.12278308321964,NA,NA
86315,Yavapai County,AZ,NA,71.05263157894737,NA
86326,Yavapai County,AZ,28.6493860845839,NA,NA
86406,Mohave County,AZ,52.52387448840382,NA,NA
71854,Miller County,AR,NA,26.160990712074305,NA
72034,Faulkner County,AR,54.570259208731244,NA,NA
72110,Conway County,AR,NA,NA,66.28440366972477
72206,Pulaski County,AR,56.480218281036834,NA,NA
72650,Searcy County,AR,NA,92.56965944272446,NA
72701,Washington County,AR,NA,NA,74.54128440366972
72762,Washington County,AR,51.4324693042292,NA,NA
72921,Crawford County,AR,83.90177353342429,NA,NA
72956,Crawford County,AR,53.75170532060027,28.482972136222912,NA
90016,Los Angeles County,CA,NA,96.43962848297214,NA
90019,Los Angeles County,CA,45.839017735334245,NA,NA
90027,Los Angeles County,CA,NA,NA,20.412844036697248
90028,Los Angeles County,CA,70.12278308321964,NA,NA
90201,Los Angeles County,CA,NA,37.306501547987615,NA
90210,Los Angeles County,CA,NA,76.0061919504644,NA
90211,Los Angeles County,CA,NA,93.65325077399382,NA
90242,Los Angeles County,CA,NA,NA,44.72477064220183
90260,Los Angeles County,CA,NA,69.5046439628483,NA
90280,Los Angeles County,CA,NA,NA,41.97247706422018
90503,Los Angeles County,CA,NA,NA,93.34862385321101
90604,Los Angeles County,CA,NA,57.120743034055735,NA
90650,Los Angeles County,CA,81.9918144611187,NA,NA
90710,Los Angeles County,CA,NA,63.77708978328174,NA
90713,Los Angeles County,CA,72.3055934515689,NA,NA
90731,Los Angeles County,CA,NA,62.538699690402474,NA
90740,Orange County,CA,NA,43.653250773993804,NA
90807,Los Angeles County,CA,NA,NA,55.04587155963303
90815,Los Angeles County,CA,NA,NA,63.76146788990825
91335,Los Angeles County,CA,NA,34.82972136222911,NA
91405,Los Angeles County,CA,NA,NA,48.853211009174316
91763,San Bernardino County,CA,69.44065484311051,NA,NA
91773,Los Angeles County,CA,NA,29.721362229102166,NA
91780,Los Angeles County,CA,NA,61.60990712074303,NA
91784,San Bernardino County,CA,NA,47.523219814241486,NA
91786,San Bernardino County,CA,NA,34.52012383900929,NA
91790,Los Angeles County,CA,NA,97.9876160990712,NA
91911,San Diego County,CA,28.512960436562075,NA,11.697247706422019
92029,San Diego County,CA,NA,99.38080495356037,NA
92054,San Diego County,CA,NA,62.38390092879257,NA
92064,San Diego County,CA,99.86357435197817,NA,NA
92103,San Diego County,CA,NA,49.22600619195047,NA
92114,San Diego County,CA,37.51705320600273,27.089783281733748,NA
92117,San Diego County,CA,NA,55.26315789473685,NA
92211,Riverside County,CA,NA,NA,0
92307,San Bernardino County,CA,NA,56.03715170278638,NA
92308,San Bernardino County,CA,NA,NA,42.88990825688073
92336,San Bernardino County,CA,41.882673942701224,17.492260061919502,NA
92373,San Bernardino County,CA,NA,NA,46.788990825688074
92382,San Bernardino County,CA,NA,92.87925696594426,NA
92544,Riverside County,CA,NA,46.749226006191954,59.862385321100916
92585,Riverside County,CA,NA,NA,90.13761467889908
92592,Riverside County,CA,NA,28.328173374613,NA
92603,Orange County,CA,88.13096862210095,NA,NA
92604,Orange County,CA,NA,NA,83.4862385321101
92627,Orange County,CA,24.42019099590723,NA,NA
92629,Orange County,CA,78.99045020463848,NA,NA
92637,Orange County,CA,NA,33.591331269349844,NA
92646,Orange County,CA,NA,7.5851393188854495,NA
92647,Orange County,CA,NA,20.743034055727556,NA
92649,Orange County,CA,59.34515688949522,NA,36.23853211009174
92660,Orange County,CA,65.62073669849931,NA,NA
92677,Orange County,CA,NA,62.22910216718266,NA
92694,Orange County,CA,60.98226466575716,NA,NA
92706,Orange County,CA,NA,NA,63.07339449541285
92707,Orange County,CA,47.61255115961801,NA,NA
92807,Orange County,CA,61.937244201909955,NA,NA
92865,Orange County,CA,NA,80.95975232198143,NA
92886,Orange County,CA,NA,NA,26.376146788990823
93003,Ventura County,CA,NA,56.656346749226,NA
93012,Ventura County,CA,NA,43.4984520123839,NA
93240,Kern County,CA,NA,NA,81.65137614678899
93257,Tulare County,CA,66.9849931787176,NA,NA
93274,Tulare County,CA,8.731241473396999,18.730650154798763,NA
93277,Tulare County,CA,NA,NA,32.798165137614674
93433,San Luis Obispo County,CA,NA,NA,92.88990825688074
93555,Kern County,CA,NA,NA,91.97247706422019
93901,Monterey County,CA,56.753069577080495,NA,NA
93953,Monterey County,CA,NA,83.12693498452013,NA
94010,San Mateo County,CA,NA,NA,13.761467889908257
94022,Santa Clara County,CA,NA,76.47058823529412,NA
94112,San Francisco County,CA,29.058663028649384,NA,5.5045871559633035
94118,San Francisco County,CA,60.16371077762619,NA,NA
94134,San Francisco County,CA,NA,26.93498452012384,NA
94509,Contra Costa County,CA,26.05729877216917,NA,NA
94513,Contra Costa County,CA,39.69986357435198,NA,NA
94533,Solano County,CA,NA,96.74922600619195,NA
94544,Alameda County,CA,21.55525238744884,NA,NA
94558,Napa County,CA,NA,NA,5.73394495412844
94559,Napa County,CA,NA,NA,49.54128440366973
94560,Alameda County,CA,57.16234652114598,NA,NA
94566,Alameda County,CA,NA,38.39009287925697,NA
94588,Alameda County,CA,92.08731241473397,NA,NA
94610,Alameda County,CA,NA,68.88544891640866,NA
94801,Contra Costa County,CA,NA,96.28482972136223,NA
94901,Marin County,CA,NA,39.1640866873065,NA
94903,Marin County,CA,NA,87.77089783281734,NA
94941,Marin County,CA,NA,NA,87.61467889908256
95014,Santa Clara County,CA,70.66848567530695,NA,NA
95023,San Benito County,CA,33.28785811732606,NA,NA
95030,Santa Clara County,CA,NA,NA,66.5137614678899
95122,Santa Clara County,CA,50.4774897680764,NA,NA
95134,Santa Clara County,CA,81.58253751705321,NA,NA
95242,San Joaquin County,CA,NA,54.4891640866873,NA
95327,Tuolumne County,CA,NA,58.978328173374614,NA
95350,Stanislaus County,CA,NA,93.18885448916409,NA
95356,Stanislaus County,CA,NA,97.05882352941177,NA
95361,Stanislaus County,CA,77.35334242837654,NA,NA
95370,Tuolumne County,CA,NA,NA,9.174311926605505
95540,Humboldt County,CA,NA,94.42724458204334,NA
95608,Sacramento County,CA,45.020463847203274,NA,NA
95619,El Dorado County,CA,96.45293315143248,NA,NA
95666,Amador County,CA,99.31787175989086,NA,NA
95682,El Dorado County,CA,63.02864938608458,NA,26.605504587155966
95762,El Dorado County,CA,NA,NA,88.76146788990825
95820,Sacramento County,CA,NA,39.628482972136226,NA
95822,Sacramento County,CA,44.2019099590723,NA,NA
95833,Sacramento County,CA,45.29331514324693,NA,NA
95948,Butte County,CA,82.81036834924966,NA,NA
95949,Nevada County,CA,98.09004092769442,NA,NA
95963,Glenn County,CA,NA,71.20743034055728,NA
96080,Tehama County,CA,48.158253751705324,NA,NA
80002,Jefferson County,CO,NA,NA,78.6697247706422
80013,Arapahoe County,CO,41.60982264665758,NA,NA
80104,Douglas County,CO,60.7094133697135,NA,NA
80127,Jefferson County,CO,NA,50.30959752321982,NA
80134,Douglas County,CO,31.105047748976805,NA,NA
80138,Douglas County,CO,55.7980900409277,NA,NA
80202,Denver County,CO,NA,94.11764705882352,NA
80204,Denver County,CO,NA,NA,94.4954128440367
80209,Denver County,CO,NA,65.17027863777089,NA
80214,Jefferson County,CO,46.52114597544338,NA,NA
80221,Adams County,CO,37.78990450204638,NA,NA
80228,Jefferson County,CO,58.52660300136425,NA,NA
80232,Jefferson County,CO,NA,89.93808049535603,NA
80403,Jefferson County,CO,NA,NA,73.85321100917432
80516,Weld County,CO,NA,62.693498452012385,NA
80524,Larimer County,CO,NA,NA,85.09174311926606
80525,Larimer County,CO,18.144611186903138,9.907120743034056,NA
80526,Larimer County,CO,NA,34.36532507739938,NA
80537,Larimer County,CO,NA,14.860681114551083,NA
80538,Larimer County,CO,14.733969986357435,NA,NA
80631,Weld County,CO,NA,24.76780185758514,NA
80634,Weld County,CO,NA,NA,12.155963302752294
80863,Teller County,CO,NA,99.84520123839009,NA
80915,El Paso County,CO,71.07776261937244,NA,NA
80922,El Paso County,CO,59.481582537517056,NA,90.36697247706422
81301,La Plata County,CO,58.79945429740792,NA,NA
81625,Moffat County,CO,44.474761255115965,59.907120743034056,NA
06001,Hartford County,CT,NA,68.73065015479877,NA
06010,Hartford County,CT,NA,19.96904024767802,5.275229357798166
06066,Tolland County,CT,NA,18.885448916408667,NA
06084,Tolland County,CT,80.90040927694406,NA,NA
06405,New Haven County,CT,NA,NA,13.53211009174312
06450,New Haven County,CT,8.185538881309688,NA,NA
06470,Fairfield County,CT,NA,78.94736842105263,NA
06482,Fairfield County,CT,96.99863574351978,NA,NA
06484,Fairfield County,CT,NA,30.959752321981426,NA
06511,New Haven County,CT,5.866302864938609,NA,NA
06516,New Haven County,CT,53.47885402455662,NA,NA
06604,Fairfield County,CT,NA,36.9969040247678,NA
06704,New Haven County,CT,26.73942701227831,NA,NA
06708,New Haven County,CT,27.012278308321964,NA,NA
06776,Litchfield County,CT,34.379263301500686,NA,NA
06786,Litchfield County,CT,NA,90.24767801857585,NA
06801,Fairfield County,CT,90.99590723055935,NA,NA
06810,Fairfield County,CT,18.417462482946796,NA,84.40366972477065
06830,Fairfield County,CT,NA,NA,15.36697247706422
06851,Fairfield County,CT,NA,NA,31.19266055045872
06880,Fairfield County,CT,81.85538881309687,NA,NA
06896,Fairfield County,CT,NA,90.71207430340557,NA
19707,New Castle County,DE,88.13096862210095,NA,NA
19709,New Castle County,DE,NA,NA,30.73394495412844
19711,New Castle County,DE,NA,NA,54.12844036697248
19720,New Castle County,DE,3.819918144611187,NA,NA
19734,New Castle County,DE,NA,77.86377708978328,NA
19803,New Castle County,DE,67.25784447476126,NA,NA
19804,New Castle County,DE,33.560709413369715,NA,NA
19805,New Castle County,DE,NA,8.04953560371517,33.02752293577982
19808,New Castle County,DE,NA,NA,10.321100917431194
19810,New Castle County,DE,NA,NA,34.403669724770644
19904,Kent County,DE,NA,NA,27.522935779816514
19933,Sussex County,DE,NA,NA,75.45871559633028
19943,Kent County,DE,89.49522510231922,NA,NA
19952,Kent County,DE,NA,59.133126934984524,NA
19963,Sussex County,DE,40.381991814461124,94.89164086687306,NA
19966,Sussex County,DE,28.785811732605733,NA,NA
19973,Sussex County,DE,18.963165075034105,NA,NA
19977,Kent County,DE,59.754433833560704,NA,NA
32003,Clay County,FL,63.710777626193725,NA,NA
32034,Nassau County,FL,54.43383356070941,NA,NA
32086,St. Johns County,FL,47.88540245566166,NA,NA
32097,Nassau County,FL,61.11869031377899,NA,NA
32114,Volusia County,FL,NA,42.87925696594427,NA
32117,Volusia County,FL,38.608458390177354,NA,NA
32128,Volusia County,FL,89.22237380627558,NA,NA
32168,Volusia County,FL,NA,NA,64.22018348623854
32169,Volusia County,FL,NA,61.76470588235294,NA
32207,Duval County,FL,21.69167803547067,NA,NA
32210,Duval County,FL,NA,6.191950464396285,NA
32244,Duval County,FL,7.91268758526603,NA,NA
32250,Duval County,FL,NA,67.3374613003096,NA
32254,Duval County,FL,51.56889495225102,NA,NA
32258,Duval County,FL,NA,NA,61.00917431192661
32259,St. Johns County,FL,49.113233287858115,NA,NA
32404,Bay County,FL,29.195088676671215,NA,NA
32421,Calhoun County,FL,NA,NA,81.88073394495413
32425,Holmes County,FL,57.571623465211466,NA,NA
32507,Escambia County,FL,NA,13.312693498452013,NA
32526,Escambia County,FL,NA,8.204334365325078,NA
32570,Santa Rosa County,FL,42.29195088676671,31.424148606811148,NA
32578,Okaloosa County,FL,NA,NA,24.31192660550459
32701,Seminole County,FL,NA,NA,56.42201834862385
32766,Seminole County,FL,98.4993178717599,NA,NA
32780,Brevard County,FL,NA,NA,7.110091743119266
32789,Orange County,FL,77.21691678035471,NA,NA
32798,Orange County,FL,NA,94.27244582043343,NA
32803,Orange County,FL,77.76261937244202,NA,NA
32808,Orange County,FL,18.826739427012278,NA,NA
32810,Orange County,FL,44.33833560709413,NA,NA
32817,Orange County,FL,71.62346521145976,NA,NA
32904,Brevard County,FL,NA,NA,35.091743119266056
32927,Brevard County,FL,56.889495225102316,NA,NA
32952,Brevard County,FL,NA,NA,21.55963302752294
32963,Indian River County,FL,NA,NA,17.431192660550458
33012,Miami-Dade County,FL,NA,NA,6.192660550458716
33013,Miami-Dade County,FL,NA,68.42105263157895,NA
33014,Miami-Dade County,FL,NA,NA,27.293577981651374
33060,Broward County,FL,42.42837653478854,NA,NA
33063,Broward County,FL,46.65757162346521,29.411764705882355,NA
33125,Miami-Dade County,FL,NA,37.461300309597526,NA
33126,Miami-Dade County,FL,NA,NA,58.48623853211009
33128,Miami-Dade County,FL,NA,NA,72.70642201834863
33141,Miami-Dade County,FL,NA,36.37770897832817,NA
33143,Miami-Dade County,FL,NA,67.02786377708978,NA
33144,Miami-Dade County,FL,85.9481582537517,NA,NA
33165,Miami-Dade County,FL,64.66575716234652,NA,NA
33174,Miami-Dade County,FL,NA,NA,18.807339449541285
33175,Miami-Dade County,FL,NA,NA,19.03669724770642
33178,Miami-Dade County,FL,NA,NA,68.34862385321101
33305,Broward County,FL,NA,89.78328173374614,NA
33308,Broward County,FL,82.26466575716235,NA,5.963302752293578
33311,Broward County,FL,9.413369713506139,NA,NA
33324,Broward County,FL,90.58663028649386,NA,NA
33327,Broward County,FL,NA,NA,85.3211009174312
33328,Broward County,FL,NA,NA,42.88990825688073
33404,Palm Beach County,FL,NA,46.13003095975232,NA
33410,Palm Beach County,FL,NA,34.6749226006192,33.715596330275226
33414,Palm Beach County,FL,79.67257844474761,NA,NA
33431,Palm Beach County,FL,NA,55.10835913312694,NA
33433,Palm Beach County,FL,NA,20.43343653250774,NA
33435,Palm Beach County,FL,NA,80.18575851393189,NA
33441,Broward County,FL,59.61800818553888,NA,NA
33458,Palm Beach County,FL,62.346521145975444,NA,29.128440366972473
33480,Palm Beach County,FL,NA,NA,38.76146788990826
33484,Palm Beach County,FL,NA,32.04334365325077,NA
33487,Palm Beach County,FL,90.85948158253751,NA,42.43119266055046
33496,Palm Beach County,FL,NA,NA,9.63302752293578
33510,Hillsborough County,FL,60.572987721691675,NA,NA
33525,Pasco County,FL,74.7612551159618,NA,NA
33566,Hillsborough County,FL,63.43792633015006,NA,NA
33573,Hillsborough County,FL,NA,21.052631578947366,NA
33605,Hillsborough County,FL,NA,NA,64.90825688073394
33611,Hillsborough County,FL,NA,NA,56.19266055045872
33613,Hillsborough County,FL,46.384720327421554,NA,NA
33635,Hillsborough County,FL,NA,67.49226006191951,NA
33647,Hillsborough County,FL,NA,NA,39.908256880733944
33705,Pinellas County,FL,NA,NA,45.642201834862384
33774,Pinellas County,FL,77.08049113233287,NA,NA
33809,Polk County,FL,81.30968622100954,NA,NA
33823,Polk County,FL,40.92769440654843,44.73684210526316,NA
33825,Highlands County,FL,NA,15.634674922600619,NA
33870,Highlands County,FL,NA,28.947368421052634,43.80733944954128
33904,Lee County,FL,NA,NA,10.091743119266056
33914,Lee County,FL,45.429740791268756,14.241486068111456,NA
33916,Lee County,FL,74.89768076398363,NA,NA
33936,Lee County,FL,51.9781718963165,NA,NA
33983,Charlotte County,FL,NA,88.39009287925697,NA
34112,Collier County,FL,NA,NA,57.798165137614674
34208,Manatee County,FL,31.65075034106412,NA,NA
34209,Manatee County,FL,NA,22.445820433436534,NA
34219,Manatee County,FL,60.30013642564802,NA,NA
34223,Sarasota County,FL,90.04092769440655,NA,NA
34229,Sarasota County,FL,NA,68.11145510835914,NA
34233,Sarasota County,FL,NA,NA,76.8348623853211
34235,Sarasota County,FL,NA,NA,70.41284403669725
34243,Manatee County,FL,NA,24.30340557275542,NA
34266,DeSoto County,FL,41.7462482946794,NA,NA
34285,Sarasota County,FL,90.3137789904502,NA,NA
34287,Sarasota County,FL,NA,NA,18.11926605504587
34470,Marion County,FL,NA,69.65944272445822,NA
34471,Marion County,FL,NA,45.20123839009288,NA
34608,Hernando County,FL,43.92905866302865,NA,NA
34668,Pasco County,FL,NA,21.671826625387,NA
34695,Pinellas County,FL,77.48976807639836,NA,NA
34746,Osceola County,FL,NA,46.43962848297213,NA
34748,Lake County,FL,NA,8.513931888544892,3.211009174311927
34759,Polk County,FL,NA,43.808049535603715,NA
34974,Okeechobee County,FL,57.16234652114598,NA,NA
34982,St. Lucie County,FL,NA,NA,51.8348623853211
34986,St. Lucie County,FL,52.796725784447474,NA,NA
34990,Martin County,FL,87.8581173260573,NA,NA
34997,Martin County,FL,NA,7.430340557275541,NA
30005,Fulton County,GA,74.21555252387448,NA,NA
30017,Gwinnett County,GA,NA,NA,77.06422018348624
30024,Gwinnett County,GA,25.375170532060025,NA,NA
30047,Gwinnett County,GA,NA,NA,42.201834862385326
30052,Walton County,GA,53.206002728512956,NA,NA
30054,Newton County,GA,75.98908594815825,NA,NA
30058,DeKalb County,GA,NA,28.637770897832816,NA
30060,Cobb County,GA,NA,66.40866873065015,NA
30064,Cobb County,GA,67.66712141882674,NA,NA
30087,DeKalb County,GA,NA,NA,34.63302752293578
30132,Paulding County,GA,NA,NA,50.22935779816514
30134,Douglas County,GA,30.013642564802183,NA,NA
30179,Carroll County,GA,62.61937244201909,NA,NA
30180,Carroll County,GA,27.83083219645293,NA,NA
30253,Henry County,GA,31.65075034106412,NA,NA
30269,Fayette County,GA,NA,52.47678018575851,NA
30292,Pike County,GA,93.31514324693042,NA,NA
30319,DeKalb County,GA,NA,NA,28.440366972477065
30328,Fulton County,GA,NA,69.81424148606811,NA
30360,DeKalb County,GA,NA,NA,80.96330275229357
30458,Bulloch County,GA,NA,NA,53.899082568807344
30467,Screven County,GA,NA,63.46749226006192,NA
30519,Gwinnett County,GA,96.043656207367,NA,NA
30536,Gilmer County,GA,NA,75.38699690402477,NA
30642,Greene County,GA,83.76534788540245,NA,NA
30666,Barrow County,GA,87.17598908594816,NA,NA
30815,Richmond County,GA,25.102319236016374,NA,NA
30824,McDuffie County,GA,NA,49.38080495356037,NA
30901,Richmond County,GA,NA,81.73374613003097,NA
30904,Richmond County,GA,NA,19.5046439628483,NA
31032,Jones County,GA,87.03956343792633,NA,NA
31036,Pulaski County,GA,NA,NA,70.64220183486239
31069,Houston County,GA,NA,46.28482972136223,NA
31088,Houston County,GA,19.099590723055933,NA,NA
31324,Bryan County,GA,NA,NA,88.07339449541286
31326,Effingham County,GA,68.62210095497954,NA,NA
31405,Chatham County,GA,NA,71.9814241486068,NA
31411,Chatham County,GA,NA,NA,62.15596330275229
31419,Chatham County,GA,NA,NA,46.788990825688074
31503,Ware County,GA,55.11596180081856,NA,NA
31533,Coffee County,GA,NA,NA,69.03669724770643
31546,Wayne County,GA,NA,NA,95.18348623853211
31606,Lowndes County,GA,NA,99.69040247678018,NA
31701,Dougherty County,GA,49.79536152796726,NA,NA
31750,Ben Hill County,GA,NA,30.185758513931887,NA
31788,Colquitt County,GA,NA,93.343653250774,NA
31816,Meriwether County,GA,NA,87.61609907120743,NA
96761,Maui County,HI,NA,87.15170278637771,NA
96778,Hawaii County,HI,NA,64.08668730650155,NA
96814,Honolulu County,HI,NA,80.4953560371517,NA
96825,Honolulu County,HI,56.61664392905866,NA,NA
83301,Twin Falls County,ID,NA,NA,0.45871559633027525
83350,Minidoka County,ID,NA,NA,77.98165137614679
83544,Clearwater County,ID,NA,NA,86.46788990825688
83616,Ada County,ID,NA,9.287925696594428,NA
83642,Ada County,ID,NA,36.84210526315789,NA
83644,Canyon County,ID,NA,NA,99.77064220183486
83709,Ada County,ID,NA,5.108359133126935,NA
83713,Ada County,ID,NA,16.408668730650156,NA
83854,Kootenai County,ID,NA,58.82352941176471,NA
60014,McHenry County,IL,NA,14.086687306501547,NA
60016,Cook County,IL,NA,10.526315789473683,NA
60018,Cook County,IL,NA,NA,43.57798165137615
60020,Lake County,IL,92.49658935879945,NA,NA
60025,Cook County,IL,NA,92.26006191950464,NA
60045,Lake County,IL,84.72032742155525,NA,NA
60050,McHenry County,IL,NA,NA,17.889908256880734
60056,Cook County,IL,NA,NA,8.715596330275229
60089,Lake County,IL,NA,NA,52.522935779816514
60115,DeKalb County,IL,98.77216916780355,NA,NA
60123,Kane County,IL,25.51159618008186,NA,NA
60178,DeKalb County,IL,NA,48.297213622291025,NA
60181,DuPage County,IL,35.743519781718966,NA,NA
60403,Will County,IL,NA,40.24767801857585,NA
60431,Will County,IL,NA,42.56965944272446,NA
60441,Will County,IL,NA,28.173374613003094,NA
60453,Cook County,IL,68.75852660300137,NA,NA
60459,Cook County,IL,39.15416098226466,NA,NA
60463,Cook County,IL,NA,NA,61.69724770642202
60523,DuPage County,IL,86.49386084583902,NA,NA
60527,DuPage County,IL,54.70668485675307,NA,NA
60540,DuPage County,IL,NA,29.102167182662537,NA
60617,Cook County,IL,NA,2.631578947368421,NA
60618,Cook County,IL,11.050477489768076,NA,22.018348623853214
60620,Cook County,IL,NA,3.7151702786377707,NA
60621,Cook County,IL,NA,NA,40.36697247706422
60623,Cook County,IL,9.686221009549795,NA,NA
60624,Cook County,IL,18.69031377899045,NA,NA
60643,Cook County,IL,NA,4.3343653250774,NA
60644,Cook County,IL,NA,12.538699690402478,NA
60659,Cook County,IL,NA,NA,44.26605504587156
60714,Cook County,IL,NA,40.24767801857585,NA
60957,Ford County,IL,NA,NA,94.26605504587155
61021,Lee County,IL,NA,6.037151702786378,NA
61068,Ogle County,IL,NA,NA,34.862385321100916
61081,Whiteside County,IL,36.4256480218281,NA,NA
61443,Henry County,IL,67.12141882673943,NA,NA
61605,Peoria County,IL,78.1718963165075,NA,NA
61832,Vermilion County,IL,NA,9.13312693498452,NA
62010,Madison County,IL,NA,NA,66.05504587155964
62025,Madison County,IL,NA,42.26006191950464,NA
62035,Madison County,IL,NA,57.43034055727554,NA
62301,Adams County,IL,39.42701227830832,NA,NA
62521,Macon County,IL,NA,7.739938080495357,NA
62615,Sangamon County,IL,NA,96.59442724458205,NA
62690,Macoupin County,IL,NA,97.8328173374613,NA
62703,Sangamon County,IL,NA,NA,44.95412844036697
46032,Hamilton County,IN,NA,59.59752321981424,NA
46135,Putnam County,IN,72.16916780354707,NA,NA
46143,Johnson County,IN,28.376534788540248,NA,NA
46204,Marion County,IN,NA,86.06811145510835,NA
46205,Marion County,IN,NA,NA,79.35779816513761
46214,Marion County,IN,62.07366984993179,NA,NA
46226,Marion County,IN,NA,50.61919504643962,NA
46241,Marion County,IN,NA,NA,54.58715596330275
46307,Lake County,IN,NA,2.0123839009287927,NA
46322,Lake County,IN,NA,24.148606811145513,NA
46341,Porter County,IN,NA,NA,82.79816513761467
46360,LaPorte County,IN,7.639836289222374,NA,NA
46373,Lake County,IN,82.40109140518418,NA,NA
46383,Porter County,IN,10.368349249658936,NA,NA
46385,Porter County,IN,NA,3.4055727554179565,NA
46392,Jasper County,IN,NA,81.26934984520123,NA
46394,Lake County,IN,NA,79.56656346749226,NA
46507,Elkhart County,IN,NA,83.90092879256966,NA
46534,Starke County,IN,59.07230559345157,NA,NA
46561,St. Joseph County,IN,NA,86.687306501548,NA
46815,Allen County,IN,38.199181446111865,NA,NA
46835,Allen County,IN,NA,10.061919504643962,NA
47112,Harrison County,IN,NA,NA,65.13761467889908
47119,Floyd County,IN,NA,82.97213622291022,NA
47130,Clark County,IN,NA,5.572755417956656,NA
47170,Scott County,IN,64.12005457025921,NA,NA
47330,Wayne County,IN,91.268758526603,NA,NA
47362,Henry County,IN,NA,98.29721362229103,NA
47446,Lawrence County,IN,73.806275579809,NA,NA
47805,Vigo County,IN,87.44884038199181,NA,NA
47834,Clay County,IN,88.81309686221009,52.32198142414861,67.88990825688074
47905,Tippecanoe County,IN,NA,52.78637770897833,NA
50009,Polk County,IA,NA,82.04334365325077,NA
50320,Polk County,IA,NA,65.78947368421053,NA
50659,Chickasaw County,IA,NA,86.687306501548,NA
50703,Black Hawk County,IA,66.57571623465212,33.126934984520126,NA
51501,Pottawattamie County,IA,78.1718963165075,9.75232198142415,NA
52213,Linn County,IA,98.22646657571623,NA,NA
52403,Linn County,IA,NA,40.71207430340557,NA
52544,Appanoose County,IA,47.203274215552526,47.8328173374613,NA
52632,Lee County,IA,44.88403819918145,NA,NA
52641,Henry County,IA,NA,NA,53.669724770642205
52722,Scott County,IA,24.283765347885403,NA,NA
66109,Wyandotte County,KS,84.4474761255116,NA,NA
66743,Crawford County,KS,NA,87.30650154798761,NA
67052,Sedgwick County,KS,NA,NA,94.72477064220183
67212,Sedgwick County,KS,NA,NA,48.62385321100918
67401,Saline County,KS,24.965893587994543,NA,NA
67456,McPherson County,KS,92.36016371077763,NA,NA
67550,Pawnee County,KS,NA,99.07120743034056,NA
40004,Nelson County,KY,22.237380627557982,NA,41.284403669724774
40019,Henry County,KY,95.08867667121419,NA,NA
40047,Bullitt County,KY,35.470668485675304,NA,NA
40059,Jefferson County,KY,83.35607094133697,NA,NA
40067,Shelby County,KY,95.63437926330151,NA,NA
40160,Hardin County,KY,NA,NA,55.5045871559633
40165,Bullitt County,KY,16.916780354706685,17.18266253869969,NA
40219,Jefferson County,KY,NA,NA,66.97247706422019
40229,Jefferson County,KY,14.461118690313779,NA,NA
40243,Jefferson County,KY,NA,NA,55.73394495412845
40291,Jefferson County,KY,NA,18.111455108359134,NA
40351,Rowan County,KY,25.92087312414734,NA,29.357798165137616
40361,Bourbon County,KY,NA,NA,61.46788990825688
40391,Clark County,KY,10.914051841746248,NA,NA
40475,Madison County,KY,NA,95.5108359133127,NA
40503,Fayette County,KY,NA,NA,32.11009174311927
40511,Fayette County,KY,NA,48.91640866873065,NA
41014,Kenton County,KY,NA,NA,82.56880733944955
41031,Harrison County,KY,NA,39.318885448916404,NA
41035,Grant County,KY,89.08594815825374,NA,NA
41071,Campbell County,KY,NA,35.60371517027864,NA
42210,Edmonson County,KY,NA,NA,91.5137614678899
42240,Christian County,KY,NA,48.91640866873065,NA
42301,Daviess County,KY,12.278308321964529,NA,NA
42327,McLean County,KY,99.18144611186904,NA,NA
42445,Caldwell County,KY,74.35197817189632,NA,NA
42503,Pulaski County,KY,48.294679399727144,NA,NA
70002,Jefferson Parish,LA,NA,NA,36.00917431192661
70003,Jefferson Parish,LA,NA,3.2507739938080498,NA
70005,Jefferson Parish,LA,39.2905866302865,NA,NA
70043,St. Bernard Parish,LA,17.598908594815825,NA,NA
70117,Orleans Parish,LA,NA,NA,45.18348623853211
70119,Orleans Parish,LA,27.967257844474762,NA,NA
70364,Terrebonne Parish,LA,NA,23.993808049535602,NA
70431,St. Tammany Parish,LA,NA,70.58823529411765,NA
70433,St. Tammany Parish,LA,NA,6.811145510835913,NA
70435,St. Tammany Parish,LA,23.73806275579809,NA,NA
70445,St. Tammany Parish,LA,NA,68.26625386996903,NA
70447,St. Tammany Parish,LA,63.16507503410641,NA,NA
70458,St. Tammany Parish,LA,NA,4.179566563467492,13.073394495412844
70506,Lafayette Parish,LA,NA,53.25077399380805,NA
70508,Lafayette Parish,LA,NA,20.278637770897834,NA
70520,Lafayette Parish,LA,NA,NA,80.5045871559633
70529,Lafayette Parish,LA,NA,80.03095975232199,NA
70611,Calcasieu Parish,LA,NA,NA,75.91743119266054
70634,Beauregard Parish,LA,NA,NA,37.15596330275229
70647,Calcasieu Parish,LA,NA,NA,93.57798165137615
70737,Ascension Parish,LA,34.78854024556617,NA,NA
70764,Iberville Parish,LA,84.58390177353343,NA,NA
70802,East Baton Rouge Parish,LA,8.867667121418826,NA,NA
71047,Caddo Parish,LA,NA,NA,83.25688073394495
71078,De Soto Parish,LA,NA,73.83900928792569,NA
71111,Bossier Parish,LA,7.094133697135062,NA,NA
71112,Bossier Parish,LA,15.416098226466577,23.52941176470588,NA
71201,Ouachita Parish,LA,NA,NA,60.77981651376147
71202,Ouachita Parish,LA,NA,NA,50
71232,Richland Parish,LA,52.11459754433834,NA,NA
71301,Rapides Parish,LA,NA,35.139318885448915,NA
03901,York County,ME,NA,NA,78.21100917431193
04009,Cumberland County,ME,NA,NA,89.44954128440367
04038,Cumberland County,ME,NA,NA,98.1651376146789
04064,York County,ME,79.26330150068213,NA,NA
04072,York County,ME,NA,19.195046439628484,NA
04073,York County,ME,NA,NA,16.51376146788991
04074,Cumberland County,ME,NA,57.585139318885446,NA
04090,York County,ME,NA,32.19814241486068,21.100917431192663
04210,Androscoggin County,ME,22.10095497953615,NA,NA
04240,Androscoggin County,ME,2.8649386084583903,NA,NA
04252,Androscoggin County,ME,99.45429740791269,NA,NA
04280,Androscoggin County,ME,81.17326057298773,NA,NA
04345,Kennebec County,ME,NA,NA,68.11926605504587
04364,Kennebec County,ME,61.52796725784447,NA,NA
04530,Sagadahoc County,ME,71.21418826739428,NA,NA
04572,Lincoln County,ME,72.98772169167803,NA,NA
04938,Franklin County,ME,NA,57.73993808049536,NA
20721,Prince George's County,MD,NA,70.43343653250774,NA
20748,Prince George's County,MD,48.97680763983629,NA,NA
20754,Calvert County,MD,NA,97.67801857585138,NA
20814,Montgomery County,MD,81.44611186903138,NA,NA
20905,Montgomery County,MD,NA,NA,78.89908256880734
21013,Baltimore County,MD,96.72578444747613,NA,NA
21076,Anne Arundel County,MD,NA,82.81733746130031,NA
21206,Baltimore city,MD,NA,11.145510835913312,NA
21216,Baltimore city,MD,NA,NA,53.44036697247706
21218,Baltimore city,MD,NA,10.990712074303406,NA
21228,Baltimore County,MD,NA,74.14860681114551,15.137614678899084
21401,Anne Arundel County,MD,NA,NA,56.65137614678899
21550,Garrett County,MD,NA,43.188854489164086,NA
21601,Talbot County,MD,NA,NA,35.55045871559633
21797,Howard County,MD,NA,NA,90.59633027522935
21811,Worcester County,MD,NA,25.696594427244584,NA
21921,Cecil County,MD,17.871759890859483,NA,NA
01013,Hampden County,MA,20.8731241473397,NA,NA
01028,Hampden County,MA,NA,24.458204334365323,NA
01089,Hampden County,MA,5.184174624829468,NA,NA
01095,Hampden County,MA,NA,63.93188854489165,NA
01201,Berkshire County,MA,0.4092769440654843,0,28.211009174311926
01238,Berkshire County,MA,NA,67.64705882352942,NA
01420,Worcester County,MA,45.70259208731242,NA,NA
01453,Worcester County,MA,23.328785811732605,NA,NA
01464,Middlesex County,MA,73.94270122783084,NA,NA
01475,Worcester County,MA,NA,52.012383900928796,NA
01532,Worcester County,MA,NA,NA,53.21100917431193
01534,Worcester County,MA,91.67803547066849,NA,NA
01570,Worcester County,MA,5.729877216916781,91.79566563467493,NA
01603,Worcester County,MA,NA,NA,20.18348623853211
01604,Worcester County,MA,1.6371077762619373,NA,NA
01607,Worcester County,MA,NA,35.91331269349845,NA
01609,Worcester County,MA,NA,NA,95.41284403669725
01746,Middlesex County,MA,24.829467939972716,NA,NA
01756,Worcester County,MA,91.81446111869032,NA,NA
01810,Essex County,MA,NA,NA,19.495412844036696
01821,Middlesex County,MA,NA,14.705882352941178,NA
01845,Essex County,MA,33.0150068212824,NA,NA
01852,Middlesex County,MA,0.8185538881309686,NA,22.477064220183486
01867,Middlesex County,MA,32.605729877216916,NA,NA
01880,Middlesex County,MA,NA,NA,94.95412844036697
01887,Middlesex County,MA,66.71214188267395,NA,NA
01902,Essex County,MA,1.0914051841746248,NA,NA
02038,Norfolk County,MA,NA,NA,62.61467889908256
02043,Plymouth County,MA,NA,NA,22.706422018348622
02048,Bristol County,MA,23.465211459754435,NA,NA
02050,Plymouth County,MA,55.52523874488404,NA,NA
02072,Norfolk County,MA,NA,NA,44.03669724770643
02116,Suffolk County,MA,95.36152796725784,NA,NA
02119,Suffolk County,MA,0.5457025920873124,76.78018575851394,NA
02124,Suffolk County,MA,0,NA,NA
02127,Suffolk County,MA,NA,58.51393188854489,NA
02132,Suffolk County,MA,NA,NA,7.79816513761468
02135,Suffolk County,MA,5.0477489768076405,NA,NA
02139,Middlesex County,MA,NA,76.62538699690403,NA
02148,Middlesex County,MA,1.5006821282401093,43.962848297213625,NA
02151,Suffolk County,MA,0.6821282401091405,NA,NA
02155,Middlesex County,MA,NA,0.46439628482972134,1.6055045871559634
02169,Norfolk County,MA,NA,73.9938080495356,NA
02180,Middlesex County,MA,NA,NA,14.449541284403669
02186,Norfolk County,MA,NA,NA,23.165137614678898
02191,Norfolk County,MA,68.34924965893589,NA,NA
02301,Plymouth County,MA,0.1364256480218281,NA,NA
02333,Plymouth County,MA,37.10777626193724,NA,NA
02346,Plymouth County,MA,NA,NA,32.56880733944954
02351,Plymouth County,MA,19.64529331514325,NA,NA
02360,Plymouth County,MA,NA,91.95046439628483,NA
02421,Middlesex County,MA,NA,NA,16.055045871559635
02474,Middlesex County,MA,NA,NA,44.4954128440367
02482,Norfolk County,MA,77.89904502046384,NA,NA
02492,Norfolk County,MA,NA,27.55417956656347,NA
02715,Bristol County,MA,94.27012278308322,NA,NA
02720,Bristol County,MA,NA,0.7739938080495357,NA
02721,Bristol County,MA,NA,4.953560371517028,NA
02726,Bristol County,MA,NA,30.340557275541798,NA
02740,Bristol County,MA,0.2728512960436562,NA,NA
02770,Plymouth County,MA,NA,NA,85.77981651376146
02777,Bristol County,MA,10.77762619372442,NA,NA
48035,Macomb County,MI,12.551159618008187,8.359133126934983,NA
48036,Macomb County,MI,NA,27.24458204334365,19.724770642201836
48038,Macomb County,MI,15.688949522510232,5.41795665634675,NA
48042,Macomb County,MI,26.330150068212827,NA,NA
48045,Macomb County,MI,29.6043656207367,NA,39.44954128440367
48051,Macomb County,MI,NA,NA,79.12844036697247
48066,Macomb County,MI,NA,NA,10.77981651376147
48072,Oakland County,MI,NA,NA,55.73394495412845
48073,Oakland County,MI,67.53069577080491,NA,29.587155963302752
48074,St. Clair County,MI,NA,NA,73.62385321100918
48076,Oakland County,MI,NA,NA,37.38532110091743
48082,Macomb County,MI,NA,NA,27.75229357798165
48085,Oakland County,MI,36.01637107776262,NA,NA
48095,Macomb County,MI,NA,89.47368421052632,NA
48101,Wayne County,MI,NA,NA,25.229357798165136
48125,Wayne County,MI,27.421555252387446,NA,NA
48126,Wayne County,MI,NA,NA,16.743119266055047
48128,Wayne County,MI,NA,NA,90.82568807339449
48135,Wayne County,MI,NA,23.684210526315788,NA
48154,Wayne County,MI,NA,6.5015479876160995,NA
48165,Oakland County,MI,NA,84.82972136222911,NA
48170,Wayne County,MI,NA,NA,4.128440366972478
48180,Wayne County,MI,3.2742155525238745,NA,3.669724770642202
48183,Wayne County,MI,11.732605729877218,NA,NA
48185,Wayne County,MI,7.776261937244201,NA,NA
48189,Washtenaw County,MI,NA,NA,72.01834862385321
48195,Wayne County,MI,NA,NA,55.27522935779816
48197,Washtenaw County,MI,NA,17.027863777089784,NA
48198,Washtenaw County,MI,3.1377899045020468,NA,NA
48203,Wayne County,MI,NA,21.981424148606813,NA
48209,Wayne County,MI,NA,48.45201238390093,NA
48219,Wayne County,MI,6.684856753069577,NA,NA
48221,Wayne County,MI,NA,NA,40.825688073394495
48228,Wayne County,MI,13.369713506139155,NA,NA
48310,Macomb County,MI,19.236016371077763,11.91950464396285,NA
48322,Oakland County,MI,NA,6.96594427244582,NA
48323,Oakland County,MI,57.98090040927695,NA,NA
48324,Oakland County,MI,NA,NA,51.60550458715596
48362,Oakland County,MI,NA,54.79876160990712,NA
48382,Oakland County,MI,NA,36.06811145510836,NA
48439,Genesee County,MI,NA,15.015479876160992,NA
48446,Lapeer County,MI,NA,23.219814241486066,NA
48503,Genesee County,MI,82.537517053206,NA,NA
48612,Gladwin County,MI,66.43929058663028,NA,NA
48647,Oscoda County,MI,NA,88.69969040247679,NA
48706,Bay County,MI,10.095497953615281,NA,NA
48763,Iosco County,MI,NA,74.45820433436533,NA
48801,Gratiot County,MI,NA,NA,33.25688073394495
48813,Eaton County,MI,NA,53.56037151702786,NA
48821,Eaton County,MI,97.40791268758527,NA,NA
48823,Ingham County,MI,NA,NA,39.22018348623853
48838,Montcalm County,MI,36.97135061391542,NA,NA
48858,Isabella County,MI,NA,NA,11.926605504587156
48867,Shiawassee County,MI,NA,5.88235294117647,NA
48917,Eaton County,MI,11.459754433833561,NA,NA
49022,Berrien County,MI,12.414733969986358,NA,NA
49036,Branch County,MI,34.24283765347885,NA,NA
49058,Barry County,MI,NA,38.69969040247678,NA
49068,Calhoun County,MI,NA,44.11764705882353,NA
49085,Berrien County,MI,NA,89.00928792569658,NA
49088,Kalamazoo County,MI,NA,97.21362229102168,NA
49090,Van Buren County,MI,NA,82.6625386996904,71.10091743119266
49201,Jackson County,MI,11.323328785811732,NA,NA
49203,Jackson County,MI,10.231923601637108,NA,NA
49221,Lenawee County,MI,4.774897680763983,NA,NA
49301,Kent County,MI,73.53342428376534,NA,NA
49323,Allegan County,MI,NA,NA,92.43119266055045
49329,Montcalm County,MI,NA,64.24148606811146,NA
49346,Mecosta County,MI,NA,69.19504643962848,NA
49412,Newaygo County,MI,NA,NA,57.3394495412844
49417,Ottawa County,MI,NA,NA,49.77064220183486
49418,Kent County,MI,NA,63.00309597523219,NA
49426,Ottawa County,MI,NA,37.61609907120743,NA
49428,Ottawa County,MI,NA,32.35294117647059,NA
49444,Muskegon County,MI,NA,20.588235294117645,NA
49455,Oceana County,MI,NA,87.92569659442725,NA
49456,Ottawa County,MI,NA,NA,89.22018348623854
49457,Muskegon County,MI,NA,95.3560371517028,NA
49460,Ottawa County,MI,NA,77.39938080495357,86.23853211009175
49461,Muskegon County,MI,NA,66.87306501547987,NA
49503,Kent County,MI,13.096862210095498,NA,NA
49504,Kent County,MI,17.053206002728512,NA,NA
49508,Kent County,MI,8.049113233287859,NA,NA
49519,Kent County,MI,20.190995907230562,NA,NA
49534,Kent County,MI,NA,NA,48.39449541284404
49546,Kent County,MI,42.97407912687585,NA,NA
49686,Grand Traverse County,MI,NA,24.922600619195045,NA
49721,Cheboygan County,MI,NA,70.89783281733746,38.30275229357798
49735,Otsego County,MI,NA,19.040247678018577,NA
49779,Presque Isle County,MI,NA,NA,84.63302752293578
55016,Washington County,MN,46.1118690313779,NA,NA
55040,Isanti County,MN,76.53478854024557,NA,NA
55066,Goodhue County,MN,NA,18.575851393188856,NA
55076,Dakota County,MN,65.34788540245566,NA,NA
55101,Ramsey County,MN,NA,79.72136222910217,NA
55119,Ramsey County,MN,NA,NA,41.51376146788991
55337,Dakota County,MN,38.88130968622101,NA,NA
55350,McLeod County,MN,NA,NA,93.11926605504587
55379,Scott County,MN,31.51432469304229,44.42724458204334,NA
55391,Hennepin County,MN,89.35879945429741,NA,NA
55401,Hennepin County,MN,69.57708049113234,NA,NA
55404,Hennepin County,MN,2.1828103683492497,NA,NA
55421,Anoka County,MN,NA,45.04643962848297,NA
55423,Hennepin County,MN,NA,39.93808049535604,NA
55425,Hennepin County,MN,78.581173260573,NA,NA
55437,Hennepin County,MN,NA,78.48297213622291,NA
55447,Hennepin County,MN,NA,59.44272445820433,NA
55719,St. Louis County,MN,NA,86.9969040247678,NA
55744,Itasca County,MN,NA,NA,8.027522935779817
55803,St. Louis County,MN,NA,33.746130030959755,NA
55912,Mower County,MN,NA,NA,1.3761467889908259
55975,Fillmore County,MN,NA,88.08049535603715,NA
56007,Freeborn County,MN,18.00818553888131,7.275541795665634,NA
56164,Pipestone County,MN,NA,NA,47.935779816513765
56265,Chippewa County,MN,NA,NA,98.39449541284404
56364,Morrison County,MN,NA,NA,74.77064220183486
56501,Becker County,MN,NA,NA,20.642201834862387
56560,Clay County,MN,15.143246930422919,NA,NA
56601,Beltrami County,MN,32.06002728512961,NA,NA
56633,Hubbard County,MN,NA,72.13622291021672,NA
38801,Lee County,MS,NA,50.15479876160991,NA
38922,Yalobusha County,MS,94.54297407912688,NA,NA
39042,Rankin County,MS,NA,30.495356037151705,NA
39209,Hinds County,MS,27.55798090040928,NA,NA
39367,Wayne County,MS,NA,64.39628482972137,NA
39401,Forrest County,MS,69.84993178717599,NA,NA
39440,Jones County,MS,NA,NA,50.45871559633027
39466,Pearl River County,MS,NA,NA,73.39449541284404
39507,Harrison County,MS,97.95361527967258,NA,NA
39563,Jackson County,MS,NA,54.33436532507739,NA
39574,Harrison County,MS,NA,54.95356037151703,NA
63026,St. Louis County,MO,NA,NA,23.853211009174313
63044,St. Louis County,MO,NA,NA,52.752293577981646
63049,Jefferson County,MO,80.35470668485675,NA,NA
63052,Jefferson County,MO,54.979536152796726,NA,NA
63105,St. Louis County,MO,NA,NA,67.66055045871559
63114,St. Louis County,MO,NA,30.804953560371516,NA
63115,St. Louis city,MO,NA,79.25696594427245,NA
63121,St. Louis County,MO,NA,NA,87.1559633027523
63123,St. Louis County,MO,NA,90.86687306501547,NA
63128,St. Louis County,MO,NA,21.981424148606813,NA
63131,St. Louis County,MO,NA,72.44582043343654,NA
63137,St. Louis County,MO,43.24693042291951,NA,NA
63301,St. Charles County,MO,NA,82.35294117647058,NA
63368,St. Charles County,MO,NA,58.204334365325074,NA
63383,Warren County,MO,91.40518417462484,NA,NA
63401,Marion County,MO,NA,51.547987616099064,NA
63501,Adair County,MO,NA,64.55108359133128,NA
63601,St. Francois County,MO,NA,NA,66.5137614678899
63640,St. Francois County,MO,44.74761255115961,NA,NA
64030,Jackson County,MO,21.418826739427015,NA,41.05504587155963
64057,Jackson County,MO,NA,49.84520123839009,54.357798165137616
64117,Clay County,MO,42.56480218281037,NA,NA
64151,Platte County,MO,NA,16.873065015479877,NA
64152,Platte County,MO,22.919508867667123,NA,NA
64465,Clinton County,MO,91.81446111869032,NA,NA
64735,Henry County,MO,38.47203274215553,NA,NA
64759,Barton County,MO,NA,62.848297213622295,NA
64850,Newton County,MO,19.37244201909959,NA,59.63302752293578
65265,Audrain County,MO,NA,58.6687306501548,NA
65301,Pettis County,MO,4.911323328785812,NA,NA
65738,Greene County,MO,NA,93.80804953560371,NA
65775,Howell County,MO,37.3806275579809,NA,NA
59068,Carbon County,MT,NA,85.29411764705883,NA
59102,Yellowstone County,MT,NA,NA,2.293577981651376
59270,Richland County,MT,NA,NA,58.256880733944946
59501,Hill County,MT,82.12824010914052,NA,NA
59601,Lewis and Clark County,MT,NA,NA,24.770642201834864
59711,Deer Lodge County,MT,NA,65.94427244582043,NA
59741,Gallatin County,MT,96.1800818553888,NA,NA
59804,Missoula County,MT,NA,76.16099071207431,NA
59870,Ravalli County,MT,99.72714870395635,NA,NA
59901,Flathead County,MT,NA,3.0959752321981426,NA
68005,Sarpy County,NE,93.45156889495226,NA,NA
68025,Dodge County,NE,40.518417462482944,NA,12.614678899082568
68104,Douglas County,NE,30.832196452933154,NA,NA
68111,Douglas County,NE,24.01091405184175,NA,NA
68112,Douglas County,NE,85.26603001364256,NA,NA
68133,Sarpy County,NE,NA,NA,87.8440366972477
68136,Sarpy County,NE,85.53888130968622,NA,NA
68355,Richardson County,NE,NA,NA,69.4954128440367
68845,Buffalo County,NE,NA,83.74613003095975,NA
89102,Clark County,NV,NA,75.54179566563467,NA
89104,Clark County,NV,NA,NA,47.706422018348626
89119,Clark County,NV,25.2387448840382,NA,NA
89130,Clark County,NV,NA,NA,47.477064220183486
89147,Clark County,NV,NA,NA,52.981651376146786
89403,Lyon County,NV,43.11050477489768,NA,NA
89502,Washoe County,NV,23.192360163710777,NA,NA
89511,Washoe County,NV,NA,63.31269349845201,NA
89512,Washoe County,NV,NA,45.6656346749226,76.60550458715596
03054,Hillsborough County,NH,37.51705320600273,NA,NA
03055,Hillsborough County,NH,NA,47.21362229102167,NA
03060,Hillsborough County,NH,9.140518417462483,NA,NA
03102,Hillsborough County,NH,55.934515688949524,51.08359133126935,97.70642201834863
03103,Hillsborough County,NH,8.321964529331515,60.99071207430341,NA
03264,Grafton County,NH,NA,NA,99.54128440366972
03275,Merrimack County,NH,NA,74.30340557275542,NA
03276,Merrimack County,NH,NA,NA,98.62385321100918
03301,Merrimack County,NH,NA,NA,93.80733944954129
03801,Rockingham County,NH,83.4924965893588,NA,NA
03811,Rockingham County,NH,NA,60.371517027863774,NA
03826,Rockingham County,NH,98.36289222373806,NA,NA
07024,Bergen County,NJ,NA,NA,13.990825688073393
07036,Union County,NJ,11.869031377899045,NA,NA
07039,Essex County,NJ,NA,37.15170278637771,NA
07040,Essex County,NJ,81.03683492496589,NA,NA
07045,Morris County,NJ,NA,92.10526315789474,NA
07047,Hudson County,NJ,NA,NA,8.944954128440367
07060,Union County,NJ,NA,22.755417956656345,58.944954128440365
07071,Bergen County,NJ,NA,41.021671826625386,NA
07086,Hudson County,NJ,NA,98.60681114551083,NA
07103,Essex County,NJ,1.7735334242837655,NA,NA
07106,Essex County,NJ,NA,34.21052631578947,NA
07108,Essex County,NJ,2.455661664392906,NA,NA
07109,Essex County,NJ,NA,16.563467492260063,NA
07111,Essex County,NJ,1.9099590723055935,NA,NA
07205,Union County,NJ,NA,90.55727554179566,NA
07410,Bergen County,NJ,NA,25.232198142414862,NA
07430,Bergen County,NJ,NA,53.09597523219814,NA
07470,Passaic County,NJ,51.02319236016372,NA,NA
07503,Passaic County,NJ,92.90586630286494,NA,NA
07644,Bergen County,NJ,44.474761255115965,NA,NA
07716,Monmouth County,NJ,NA,84.05572755417957,NA
07726,Monmouth County,NJ,NA,25.541795665634677,NA
07730,Monmouth County,NJ,NA,74.61300309597523,NA
07731,Monmouth County,NJ,NA,39.78328173374613,NA
07753,Monmouth County,NJ,7.230559345156889,NA,NA
07821,Sussex County,NJ,86.9031377899045,NA,NA
07924,Somerset County,NJ,NA,NA,97.01834862385321
08003,Camden County,NJ,30.968622100954978,NA,NA
08031,Camden County,NJ,76.80763983628923,73.37461300309597,NA
08037,Atlantic County,NJ,NA,NA,24.541284403669724
08069,Salem County,NJ,17.32605729877217,NA,NA
08096,Gloucester County,NJ,6.002728512960437,NA,NA
08210,Cape May County,NJ,NA,NA,52.293577981651374
08302,Cumberland County,NJ,2.3192360163710775,NA,NA
08318,Salem County,NJ,59.89085948158254,NA,NA
08535,Monmouth County,NJ,NA,96.13003095975232,NA
08610,Mercer County,NJ,NA,47.368421052631575,NA
08723,Ocean County,NJ,18.281036834924965,NA,NA
08755,Ocean County,NJ,NA,19.34984520123839,NA
08757,Ocean County,NJ,NA,NA,0.9174311926605505
08758,Ocean County,NJ,NA,NA,65.82568807339449
08809,Hunterdon County,NJ,81.71896316507502,NA,NA
08835,Somerset County,NJ,NA,NA,84.17431192660551
08844,Somerset County,NJ,NA,NA,59.174311926605505
08854,Middlesex County,NJ,NA,11.91950464396285,NA
08857,Middlesex County,NJ,NA,NA,25
08865,Warren County,NJ,NA,8.823529411764707,NA
08882,Middlesex County,NJ,64.93860845839018,NA,NA
87108,Bernalillo County,NM,NA,NA,28.6697247706422
87114,Bernalillo County,NM,55.25238744884038,NA,NA
87508,Santa Fe County,NM,NA,78.0185758513932,NA
88061,Grant County,NM,NA,91.3312693498452,NA
88210,Eddy County,NM,NA,60.8359133126935,NA
88220,Eddy County,NM,NA,22.910216718266255,NA
88240,Lea County,NM,8.594815825375171,NA,NA
10009,New York County,NY,11.596180081855389,NA,NA
10016,New York County,NY,73.12414733969986,50.464396284829725,NA
10018,New York County,NY,90.72305593451568,NA,NA
10025,New York County,NY,NA,NA,3.4403669724770642
10027,New York County,NY,6.412005457025921,NA,NA
10030,New York County,NY,27.285129604365622,NA,NA
10301,Richmond County,NY,18.417462482946796,10.68111455108359,NA
10304,Richmond County,NY,16.5075034106412,21.207430340557277,NA
10310,Richmond County,NY,NA,41.3312693498452,NA
10312,Richmond County,NY,NA,82.50773993808049,NA
10465,Bronx County,NY,NA,39.0092879256966,NA
10467,Bronx County,NY,1.364256480218281,NA,NA
10469,Bronx County,NY,4.092769440654844,NA,NA
10598,Westchester County,NY,NA,NA,35.55045871559633
10703,Westchester County,NY,42.01909959072306,NA,NA
10705,Westchester County,NY,NA,26.625386996904027,NA
10977,Rockland County,NY,37.244201909959074,NA,NA
11020,Nassau County,NY,NA,89.62848297213623,NA
11207,Kings County,NY,NA,1.238390092879257,NA
11208,Kings County,NY,2.046384720327422,NA,NA
11210,Kings County,NY,NA,21.826625386996902,NA
11213,Kings County,NY,6.8212824010914055,31.73374613003096,30.504587155963304
11214,Kings County,NY,NA,NA,10.550458715596331
11215,Kings County,NY,71.35061391541609,33.43653250773993,19.954128440366972
11223,Kings County,NY,NA,12.229102167182662,NA
11226,Kings County,NY,4.638472032742155,NA,NA
11229,Kings County,NY,NA,55.417956656346746,3.89908256880734
11231,Kings County,NY,NA,43.343653250774,54.58715596330275
11235,Kings County,NY,NA,49.690402476780186,2.064220183486239
11236,Kings County,NY,NA,7.120743034055728,NA
11237,Kings County,NY,78.03547066848567,NA,NA
11238,Kings County,NY,NA,NA,39.678899082568805
11354,Queens County,NY,51.15961800818554,NA,NA
11358,Queens County,NY,NA,57.89473684210527,NA
11366,Queens County,NY,96.86221009549796,NA,NA
11385,Queens County,NY,12.005457025920874,NA,NA
11413,Queens County,NY,NA,40.55727554179567,NA
11417,Queens County,NY,NA,NA,71.78899082568807
11429,Queens County,NY,NA,32.972136222910216,NA
11435,Queens County,NY,NA,51.702786377708975,29.81651376146789
11436,Queens County,NY,74.07912687585267,NA,NA
11561,Nassau County,NY,NA,NA,25.688073394495415
11580,Nassau County,NY,NA,NA,31.422018348623855
11590,Nassau County,NY,NA,32.50773993808049,NA
11701,Suffolk County,NY,74.48840381991815,NA,NA
11706,Suffolk County,NY,58.663028649386085,NA,NA
11714,Nassau County,NY,93.86084583901774,NA,NA
11779,Suffolk County,NY,NA,NA,38.07339449541284
11934,Suffolk County,NY,NA,NA,91.05504587155964
11937,Suffolk County,NY,NA,85.60371517027863,NA
12078,Fulton County,NY,5.457025920873124,NA,NA
12134,Fulton County,NY,NA,84.36532507739938,NA
12167,Delaware County,NY,NA,97.52321981424149,NA
12205,Albany County,NY,NA,NA,42.6605504587156
12210,Albany County,NY,NA,92.72445820433437,NA
12303,Schenectady County,NY,NA,NA,96.55963302752293
12401,Ulster County,NY,24.556616643929058,NA,NA
12534,Columbia County,NY,17.735334242837652,NA,NA
12545,Dutchess County,NY,NA,98.14241486068111,NA
12601,Dutchess County,NY,34.65211459754434,NA,NA
12771,Orange County,NY,89.90450204638472,NA,NA
12831,Saratoga County,NY,NA,NA,80.73394495412845
12866,Saratoga County,NY,NA,40.092879256965944,NA
12901,Clinton County,NY,3.956343792633015,NA,NA
13021,Cayuga County,NY,4.229195088676671,NA,NA
13053,Tompkins County,NY,NA,81.11455108359134,NA
13090,Onondaga County,NY,19.508867667121418,NA,NA
13108,Onondaga County,NY,NA,86.37770897832817,NA
13142,Oswego County,NY,73.39699863574351,NA,NA
13203,Onondaga County,NY,NA,54.179566563467496,NA
13205,Onondaga County,NY,NA,NA,43.34862385321101
13326,Otsego County,NY,76.2619372442019,NA,NA
13339,Montgomery County,NY,NA,90.40247678018576,NA
13340,Herkimer County,NY,NA,NA,63.99082568807339
13363,Oneida County,NY,NA,98.45201238390094,NA
13421,Madison County,NY,NA,53.71517027863777,NA
13440,Oneida County,NY,NA,30.030959752321984,NA
13492,Oneida County,NY,NA,NA,59.403669724770644
13601,Jefferson County,NY,NA,17.956656346749224,NA
13617,St. Lawrence County,NY,39.017735334242836,NA,NA
13662,St. Lawrence County,NY,NA,15.789473684210526,NA
13732,Tioga County,NY,NA,42.10526315789473,NA
13787,Broome County,NY,87.99454297407912,NA,NA
13815,Chenango County,NY,16.64392905866303,NA,NA
13827,Tioga County,NY,26.46657571623465,NA,NA
13850,Broome County,NY,NA,4.489164086687306,NA
13901,Broome County,NY,4.502046384720328,NA,NA
14011,Wyoming County,NY,78.99045020463848,NA,NA
14059,Erie County,NY,NA,NA,77.75229357798165
14094,Niagara County,NY,2.728512960436562,2.321981424148607,NA
14098,Orleans County,NY,NA,93.49845201238391,NA
14103,Orleans County,NY,48.70395634379263,NA,NA
14206,Erie County,NY,15.82537517053206,NA,75
14207,Erie County,NY,10.504774897680765,NA,NA
14220,Erie County,NY,NA,24.922600619195045,NA
14222,Erie County,NY,58.93587994542974,NA,NA
14224,Erie County,NY,7.3669849931787175,7.894736842105263,NA
14305,Niagara County,NY,NA,35.139318885448915,NA
14411,Orleans County,NY,NA,88.23529411764706,NA
14424,Ontario County,NY,3.6834924965893587,1.08359133126935,NA
14456,Ontario County,NY,9.549795361527966,NA,NA
14485,Livingston County,NY,84.17462482946793,NA,NA
14534,Monroe County,NY,NA,NA,6.651376146788992
14550,Wyoming County,NY,93.99727148703957,NA,NA
14580,Monroe County,NY,NA,0.15479876160990713,NA
14609,Monroe County,NY,6.2755798090040935,NA,NA
14610,Monroe County,NY,35.06139154160982,NA,NA
14616,Monroe County,NY,NA,NA,28.899082568807337
14620,Monroe County,NY,8.458390177353342,NA,NA
14810,Steuben County,NY,97.81718963165075,NA,NA
14843,Steuben County,NY,NA,NA,97.93577981651376
14850,Tompkins County,NY,6.957708049113233,NA,NA
14901,Chemung County,NY,NA,56.5015479876161,NA
14904,Chemung County,NY,NA,41.640866873065015,NA
27012,Forsyth County,NC,NA,NA,9.862385321100918
27030,Surry County,NC,NA,15.325077399380804,NA
27045,Forsyth County,NC,NA,NA,89.90825688073394
27127,Forsyth County,NC,NA,NA,8.486238532110093
27239,Davidson County,NC,NA,73.52941176470588,NA
27278,Orange County,NC,26.193724420190996,NA,NA
27284,Forsyth County,NC,NA,1.8575851393188854,NA
27292,Davidson County,NC,5.5934515688949515,NA,7.339449541284404
27316,Randolph County,NC,NA,NA,76.37614678899082
27349,Alamance County,NC,84.03819918144612,NA,NA
27360,Davidson County,NC,NA,4.798761609907121,NA
27501,Harnett County,NC,NA,44.42724458204334,NA
27514,Orange County,NC,NA,64.70588235294117,NA
27520,Johnston County,NC,70.53206002728513,NA,NA
27526,Wake County,NC,64.39290586630287,NA,NA
27534,Wayne County,NC,40.24556616643929,NA,NA
27542,Johnston County,NC,75.17053206002728,NA,NA
27560,Wake County,NC,79.53615279672579,NA,NA
27603,Wake County,NC,NA,61.45510835913313,NA
27893,Wilson County,NC,17.462482946793997,NA,NA
27909,Pasquotank County,NC,15.279672578444748,NA,NA
27948,Dare County,NC,66.16643929058664,NA,NA
27962,Washington County,NC,NA,78.328173374613,NA
28083,Cabarrus County,NC,67.66712141882674,NA,NA
28097,Stanly County,NC,NA,NA,92.20183486238533
28110,Union County,NC,58.39017735334243,NA,NA
28112,Union County,NC,NA,NA,36.46788990825688
28124,Cabarrus County,NC,84.85675306957708,NA,NA
28144,Rowan County,NC,NA,NA,97.24770642201835
28208,Mecklenburg County,NC,NA,23.684210526315788,NA
28212,Mecklenburg County,NC,NA,NA,64.6788990825688
28311,Cumberland County,NC,62.48294679399727,NA,NA
28334,Sampson County,NC,65.4843110504775,NA,NA
28345,Richmond County,NC,63.98362892223738,NA,NA
28352,Scotland County,NC,NA,NA,52.06422018348624
28365,Wayne County,NC,NA,71.51702786377709,NA
28379,Richmond County,NC,19.918144611186904,26.006191950464398,34.174311926605505
28409,New Hanover County,NC,NA,16.09907120743034,NA
28539,Onslow County,NC,77.62619372442019,NA,NA
28551,Lenoir County,NC,NA,78.79256965944272,NA
28601,Catawba County,NC,16.780354706684857,NA,NA
28612,Burke County,NC,69.30422919508868,NA,NA
28638,Caldwell County,NC,56.070941336971345,NA,NA
28645,Caldwell County,NC,NA,0.6191950464396285,NA
28655,Burke County,NC,7.503410641200546,NA,NA
28658,Catawba County,NC,NA,40.86687306501548,NA
28734,Macon County,NC,20.327421555252386,NA,NA
28771,Graham County,NC,NA,73.68421052631578,NA
28789,Jackson County,NC,NA,NA,86.0091743119266
28792,Henderson County,NC,NA,NA,1.834862385321101
28906,Cherokee County,NC,NA,27.86377708978328,NA
58104,Cass County,ND,NA,10.8359133126935,NA
58203,Grand Forks County,ND,NA,94.73684210526315,NA
58401,Stutsman County,ND,76.39836289222373,NA,NA
58701,Ward County,ND,NA,60.06191950464397,2.981651376146789
43021,Delaware County,OH,NA,79.10216718266254,NA
43023,Licking County,OH,90.45020463847203,NA,NA
43026,Franklin County,OH,23.601637107776263,NA,NA
43031,Licking County,OH,NA,NA,82.33944954128441
43050,Knox County,OH,9.822646657571624,NA,77.29357798165137
43072,Champaign County,OH,90.17735334242838,NA,NA
43081,Franklin County,OH,26.603001364256478,NA,NA
43110,Franklin County,OH,28.240109140518417,NA,NA
43113,Pickaway County,OH,16.371077762619375,NA,NA
43123,Franklin County,OH,9.959072305593452,NA,NA
43130,Fairfield County,OH,NA,2.476780185758514,NA
43204,Franklin County,OH,30.286493860845837,NA,NA
43209,Franklin County,OH,NA,35.758513931888544,NA
43215,Franklin County,OH,43.79263301500682,NA,NA
43228,Franklin County,OH,4.365620736698499,NA,NA
43230,Franklin County,OH,NA,NA,25.458715596330272
43235,Franklin County,OH,49.38608458390178,NA,NA
43302,Marion County,OH,NA,NA,91.74311926605505
43326,Hardin County,OH,52.38744884038199,NA,NA
43338,Morrow County,OH,63.5743519781719,NA,NA
43351,Wyandot County,OH,45.975443383356065,NA,NA
43357,Logan County,OH,NA,NA,67.43119266055045
43410,Sandusky County,OH,NA,NA,95.87155963302753
43512,Defiance County,OH,NA,NA,68.57798165137615
43515,Fulton County,OH,71.75989085948157,NA,NA
43518,Williams County,OH,NA,90.09287925696594,NA
43526,Defiance County,OH,49.931787175989086,69.96904024767801,NA
43537,Lucas County,OH,NA,45.82043343653251,27.981651376146786
43551,Wood County,OH,15.961800818553886,NA,NA
43560,Lucas County,OH,29.877216916780352,NA,NA
43566,Lucas County,OH,NA,79.41176470588235,NA
43571,Lucas County,OH,NA,75.07739938080495,NA
43606,Lucas County,OH,20.05457025920873,NA,NA
43609,Lucas County,OH,6.548431105047749,NA,NA
43612,Lucas County,OH,5.320600272851296,NA,NA
43613,Lucas County,OH,NA,NA,46.10091743119266
43614,Lucas County,OH,NA,NA,21.3302752293578
43615,Lucas County,OH,22.510231923601637,NA,11.009174311926607
43617,Lucas County,OH,89.63165075034107,NA,NA
43623,Lucas County,OH,31.241473396998636,NA,NA
43701,Muskingum County,OH,NA,0.30959752321981426,NA
43920,Columbiana County,OH,NA,8.6687306501548,NA
43950,Belmont County,OH,NA,NA,65.59633027522935
43952,Jefferson County,OH,NA,9.597523219814242,NA
43964,Jefferson County,OH,30.69577080491132,NA,NA
44001,Lorain County,OH,34.106412005457024,4.024767801857585,NA
44004,Ashtabula County,OH,3.0013642564802185,2.941176470588235,NA
44026,Geauga County,OH,NA,NA,30.963302752293576
44035,Lorain County,OH,0.9549795361527967,NA,0.22935779816513763
44044,Lorain County,OH,NA,NA,56.88073394495413
44052,Lorain County,OH,NA,38.080495356037154,NA
44054,Lorain County,OH,41.06412005457026,NA,NA
44056,Summit County,OH,NA,55.88235294117647,NA
44060,Lake County,OH,9.27694406548431,0.9287925696594427,NA
44094,Lake County,OH,21.964529331514324,NA,NA
44095,Lake County,OH,NA,NA,30.275229357798167
44109,Cuyahoga County,OH,1.227830832196453,NA,NA
44110,Cuyahoga County,OH,NA,6.656346749226007,NA
44111,Cuyahoga County,OH,29.46793997271487,NA,NA
44112,Cuyahoga County,OH,NA,4.643962848297214,NA
44118,Cuyahoga County,OH,NA,NA,6.8807339449541285
44122,Cuyahoga County,OH,NA,NA,0.6880733944954129
44123,Cuyahoga County,OH,32.605729877216916,59.75232198142415,NA
44124,Cuyahoga County,OH,NA,NA,1.146788990825688
44125,Cuyahoga County,OH,NA,NA,11.46788990825688
44128,Cuyahoga County,OH,NA,2.1671826625387,NA
44129,Cuyahoga County,OH,17.189631650750343,13.93188854489164,NA
44131,Cuyahoga County,OH,47.203274215552526,NA,NA
44134,Cuyahoga County,OH,10.641200545702592,NA,NA
44138,Cuyahoga County,OH,37.92633015006821,NA,NA
44221,Summit County,OH,NA,17.647058823529413,NA
44240,Portage County,OH,32.33287858117326,NA,NA
44255,Portage County,OH,NA,85.44891640866872,NA
44286,Summit County,OH,NA,85.91331269349845,NA
44307,Summit County,OH,NA,NA,95.64220183486239
44405,Mahoning County,OH,NA,NA,64.44954128440367
44408,Columbiana County,OH,NA,69.3498452012384,NA
44431,Columbiana County,OH,NA,95.6656346749226,NA
44484,Trumbull County,OH,NA,11.609907120743033,NA
44491,Trumbull County,OH,NA,99.53560371517027,NA
44512,Mahoning County,OH,12.687585266030013,13.003095975232199,NA
44514,Mahoning County,OH,NA,30.65015479876161,NA
44615,Carroll County,OH,79.67257844474761,NA,NA
44646,Stark County,OH,NA,11.30030959752322,NA
44647,Stark County,OH,89.7680763983629,NA,NA
44657,Stark County,OH,NA,61.145510835913306,NA
44705,Stark County,OH,NA,91.48606811145511,NA
44708,Stark County,OH,32.46930422919509,NA,NA
44714,Stark County,OH,96.31650750341065,NA,NA
44805,Ashland County,OH,15.552523874488402,NA,NA
44811,Sandusky County,OH,36.69849931787176,NA,72.47706422018348
44870,Erie County,OH,2.592087312414734,2.786377708978328,7.568807339449542
44903,Richland County,OH,53.069577080491136,NA,NA
45011,Butler County,OH,NA,43.034055727554176,NA
45056,Butler County,OH,NA,NA,70.87155963302753
45205,Hamilton County,OH,25.648021828103683,NA,NA
45212,Hamilton County,OH,35.33424283765348,NA,NA
45308,Darke County,OH,97.5443383356071,NA,NA
45320,Preble County,OH,45.020463847203274,NA,NA
45322,Montgomery County,OH,NA,NA,35.321100917431195
45338,Preble County,OH,NA,NA,99.31192660550458
45373,Miami County,OH,NA,11.455108359133128,NA
45385,Greene County,OH,13.915416098226466,NA,NA
45417,Montgomery County,OH,NA,15.479876160990713,NA
45429,Montgomery County,OH,48.0218281036835,NA,NA
45612,Ross County,OH,NA,78.63777089783281,NA
45619,Lawrence County,OH,NA,55.57275541795666,NA
45631,Gallia County,OH,NA,NA,8.256880733944955
45690,Pike County,OH,20.600272851296044,NA,NA
45801,Allen County,OH,13.642564802182811,NA,NA
45804,Allen County,OH,14.188267394270124,NA,NA
45805,Allen County,OH,NA,25.696594427244584,NA
45840,Hancock County,OH,3.547066848567531,NA,72.24770642201835
45885,Auglaize County,OH,46.24829467939973,NA,51.146788990825684
45891,Van Wert County,OH,35.06139154160982,NA,NA
45895,Auglaize County,OH,69.16780354706685,NA,NA
73008,Oklahoma County,OK,69.84993178717599,NA,NA
73020,Oklahoma County,OK,NA,25.386996904024766,NA
73026,Cleveland County,OK,83.62892223738064,NA,NA
73036,Canadian County,OK,45.56616643929058,NA,NA
73044,Logan County,OK,NA,13.46749226006192,NA
73071,Cleveland County,OK,28.10368349249659,NA,NA
73072,Cleveland County,OK,NA,75.85139318885449,NA
73142,Oklahoma County,OK,NA,NA,58.71559633027523
73170,Cleveland County,OK,NA,14.551083591331269,NA
73505,Comanche County,OK,26.875852660300136,15.944272445820435,NA
73529,Stephens County,OK,NA,NA,86.92660550458714
73533,Stephens County,OK,NA,NA,19.26605504587156
73701,Garfield County,OK,NA,33.90092879256966,NA
74134,Tulsa County,OK,NA,84.21052631578947,NA
74426,McIntosh County,OK,92.76944065484311,NA,NA
74464,Cherokee County,OK,11.186903137789903,NA,NA
74601,Kay County,OK,NA,56.965944272445824,NA
74820,Pontotoc County,OK,NA,5.263157894736842,NA
74873,Pottawatomie County,OK,62.755798090040926,NA,NA
97006,Washington County,OR,NA,32.6625386996904,NA
97013,Clackamas County,OR,NA,NA,56.88073394495413
97015,Clackamas County,OR,NA,NA,99.08256880733946
97023,Clackamas County,OR,NA,85.13931888544892,NA
97030,Multnomah County,OR,51.84174624829468,95.04643962848297,NA
97045,Clackamas County,OR,NA,10.371517027863778,NA
97051,Columbia County,OR,NA,73.21981424148606,NA
97058,Wasco County,OR,NA,31.269349845201237,NA
97068,Clackamas County,OR,NA,NA,58.02752293577982
97113,Washington County,OR,75.30695770804911,NA,NA
97128,Yamhill County,OR,NA,27.708978328173373,NA
97133,Washington County,OR,NA,100,NA
97141,Tillamook County,OR,68.89495225102318,NA,NA
97230,Multnomah County,OR,NA,13.622291021671826,NA
97239,Multnomah County,OR,NA,71.36222910216719,NA
97267,Clackamas County,OR,41.20054570259209,NA,23.394495412844037
97301,Marion County,OR,14.870395634379264,NA,NA
97304,Polk County,OR,61.25511596180082,NA,NA
97305,Marion County,OR,NA,50.61919504643962,NA
97338,Polk County,OR,NA,41.17647058823529,NA
97355,Linn County,OR,13.77899045020464,NA,NA
97361,Polk County,OR,NA,83.43653250773994,NA
97401,Lane County,OR,75.85266030013642,NA,NA
97402,Lane County,OR,23.874488403819917,29.876160990712076,NA
97415,Curry County,OR,50.75034106412005,NA,NA
97503,Jackson County,OR,NA,81.42414860681114,NA
97701,Deschutes County,OR,NA,49.53560371517028,36.92660550458716
97814,Baker County,OR,47.0668485675307,NA,NA
97914,Malheur County,OR,NA,21.517027863777088,NA
15003,Beaver County,PA,NA,NA,67.20183486238533
15084,Allegheny County,PA,NA,NA,83.94495412844036
15101,Allegheny County,PA,73.2605729877217,NA,NA
15102,Allegheny County,PA,NA,27.39938080495356,NA
15122,Allegheny County,PA,NA,56.34674922600619,88.30275229357798
15126,Allegheny County,PA,98.63574351978171,NA,NA
15132,Allegheny County,PA,NA,23.374613003095977,NA
15137,Allegheny County,PA,NA,61.145510835913306,NA
15210,Allegheny County,PA,NA,41.795665634674926,NA
15212,Allegheny County,PA,61.39154160982264,NA,NA
15217,Allegheny County,PA,63.710777626193725,NA,NA
15220,Allegheny County,PA,NA,71.8266253869969,NA
15221,Allegheny County,PA,21.00954979536153,NA,NA
15226,Allegheny County,PA,NA,58.04953560371517,NA
15229,Allegheny County,PA,NA,85.75851393188854,NA
15301,Washington County,PA,50.886766712141885,NA,NA
15370,Greene County,PA,NA,57.27554179566563,NA
15461,Fayette County,PA,NA,91.17647058823529,NA
15552,Somerset County,PA,95.77080491132332,NA,NA
15601,Westmoreland County,PA,NA,1.7027863777089782,12.844036697247708
15644,Westmoreland County,PA,NA,67.95665634674923,NA
15650,Westmoreland County,PA,NA,16.718266253869967,13.302752293577983
15666,Westmoreland County,PA,54.29740791268759,NA,15.825688073394495
15683,Westmoreland County,PA,NA,60.681114551083596,NA
15801,Clearfield County,PA,NA,68.57585139318886,NA
15902,Cambria County,PA,NA,NA,68.80733944954129
15904,Cambria County,PA,NA,80.34055727554178,NA
15905,Cambria County,PA,NA,95.20123839009288,NA
16335,Crawford County,PA,12.824010914051842,NA,21.788990825688074
16510,Erie County,PA,75.57980900409277,NA,NA
16601,Blair County,PA,NA,NA,26.146788990825687
16602,Blair County,PA,NA,65.3250773993808,NA
16648,Blair County,PA,63.16507503410641,NA,NA
16828,Centre County,PA,NA,NA,75.68807339449542
17015,Cumberland County,PA,NA,31.11455108359133,81.42201834862385
17022,Lancaster County,PA,NA,86.22291021671826,NA
17038,Lebanon County,PA,78.44474761255115,NA,NA
17044,Mifflin County,PA,15.006821282401091,6.3467492260061915,NA
17046,Lebanon County,PA,12.141882673942701,NA,NA
17049,Juniata County,PA,98.90859481582538,NA,NA
17055,Cumberland County,PA,NA,52.47678018575851,NA
17110,Dauphin County,PA,NA,61.91950464396285,NA
17112,Dauphin County,PA,NA,NA,15.59633027522936
17268,Franklin County,PA,NA,NA,17.660550458715598
17307,Adams County,PA,95.90723055934515,NA,NA
17327,York County,PA,NA,77.24458204334366,NA
17331,York County,PA,NA,NA,2.522935779816514
17340,Adams County,PA,75.98908594815825,NA,NA
17345,York County,PA,NA,72.75541795665634,NA
17404,York County,PA,NA,13.157894736842104,NA
17406,York County,PA,72.44201909959072,NA,NA
17512,Lancaster County,PA,46.793997271487044,42.414860681114554,NA
17522,Lancaster County,PA,30.559345156889496,NA,NA
17543,Lancaster County,PA,NA,10.21671826625387,NA
17584,Lancaster County,PA,85.67530695770806,73.06501547987617,NA
17701,Lycoming County,PA,84.99317871759891,NA,NA
17754,Lycoming County,PA,70.94133697135061,NA,NA
17821,Montour County,PA,NA,14.241486068111456,NA
17847,Northumberland County,PA,NA,NA,79.81651376146789
17866,Northumberland County,PA,67.66712141882674,NA,NA
17872,Northumberland County,PA,NA,37.77089783281733,NA
17976,Schuylkill County,PA,NA,86.37770897832817,NA
18017,Northampton County,PA,NA,NA,4.81651376146789
18018,Lehigh County,PA,NA,38.69969040247678,NA
18064,Northampton County,PA,NA,NA,20.871559633027523
18073,Montgomery County,PA,NA,NA,83.02752293577981
18109,Lehigh County,PA,NA,47.6780185758514,NA
18301,Monroe County,PA,NA,65.47987616099071,NA
18360,Monroe County,PA,NA,12.38390092879257,NA
18407,Lackawanna County,PA,NA,NA,86.69724770642202
18421,Susquehanna County,PA,NA,NA,96.78899082568807
18428,Pike County,PA,NA,54.024767801857585,NA
18431,Wayne County,PA,NA,NA,71.55963302752293
18519,Lackawanna County,PA,99.59072305593452,NA,NA
18641,Luzerne County,PA,NA,70.12383900928792,NA
18702,Luzerne County,PA,NA,NA,9.403669724770642
18704,Luzerne County,PA,19.781718963165076,NA,11.238532110091743
18707,Luzerne County,PA,61.66439290586631,NA,NA
18966,Bucks County,PA,20.463847203274216,NA,NA
19013,Delaware County,PA,NA,NA,33.94495412844037
19018,Delaware County,PA,32.196452933151434,NA,NA
19030,Bucks County,PA,80.76398362892225,NA,NA
19033,Delaware County,PA,NA,77.08978328173374,NA
19040,Montgomery County,PA,NA,NA,31.880733944954127
19050,Delaware County,PA,NA,12.848297213622292,NA
19061,Delaware County,PA,NA,38.54489164086687,NA
19067,Bucks County,PA,21.828103683492497,NA,14.678899082568808
19073,Delaware County,PA,NA,NA,18.34862385321101
19082,Delaware County,PA,12.96043656207367,NA,NA
19083,Delaware County,PA,32.605729877216916,NA,NA
19087,Chester County,PA,NA,23.06501547987616,NA
19103,Philadelphia County,PA,NA,NA,26.834862385321102
19107,Philadelphia County,PA,NA,NA,79.58715596330275
19116,Philadelphia County,PA,33.42428376534789,NA,NA
19132,Philadelphia County,PA,NA,15.170278637770899,NA
19148,Philadelphia County,PA,NA,NA,16.972477064220186
19151,Philadelphia County,PA,16.234652114597544,NA,NA
19152,Philadelphia County,PA,NA,55.72755417956656,NA
19153,Philadelphia County,PA,69.71350613915416,NA,NA
19154,Philadelphia County,PA,50.34106412005457,NA,NA
19317,Delaware County,PA,NA,84.52012383900929,NA
19344,Chester County,PA,NA,97.36842105263158,NA
19355,Chester County,PA,NA,41.95046439628483,NA
19422,Montgomery County,PA,NA,36.68730650154799,NA
19426,Montgomery County,PA,NA,31.88854489164087,NA
19475,Chester County,PA,NA,NA,71.3302752293578
19525,Montgomery County,PA,NA,NA,73.1651376146789
19601,Berks County,PA,NA,13.777089783281735,46.330275229357795
19607,Berks County,PA,65.75716234652114,19.659442724458202,NA
02835,Newport County,RI,NA,80.80495356037152,NA
02842,Newport County,RI,NA,53.86996904024768,NA
02885,Bristol County,RI,NA,NA,72.93577981651376
02892,Washington County,RI,96.58935879945429,NA,NA
02893,Kent County,RI,NA,89.3188854489164,NA
02910,Providence County,RI,82.67394270122783,65.63467492260062,NA
02921,Providence County,RI,84.31105047748977,NA,NA
29020,Kershaw County,SC,NA,35.44891640866873,NA
29209,Richland County,SC,49.24965893587995,NA,NA
29212,Lexington County,SC,NA,42.72445820433436,NA
29306,Spartanburg County,SC,42.155525238744886,NA,NA
29330,Spartanburg County,SC,85.12960436562074,NA,NA
29353,Union County,SC,88.94952251023193,NA,NA
29406,Charleston County,SC,29.740791268758528,NA,NA
29414,Charleston County,SC,NA,NA,32.3394495412844
29456,Dorchester County,SC,40.65484311050477,48.76160990712074,NA
29466,Charleston County,SC,NA,52.1671826625387,NA
29588,Horry County,SC,NA,9.442724458204333,NA
29605,Greenville County,SC,28.922237380627557,NA,NA
29617,Greenville County,SC,41.20054570259209,NA,NA
29651,Greenville County,SC,24.69304229195089,NA,NA
29669,Anderson County,SC,68.07639836289222,NA,NA
29687,Greenville County,SC,36.56207366984993,NA,NA
29803,Aiken County,SC,47.748976807639835,NA,NA
29812,Barnwell County,SC,85.9481582537517,NA,NA
29851,Aiken County,SC,NA,84.98452012383902,NA
29853,Barnwell County,SC,NA,88.54489164086688,NA
57006,Brookings County,SD,68.89495225102318,NA,NA
57103,Minnehaha County,SD,60.027285129604365,NA,NA
57105,Minnehaha County,SD,50.068212824010914,NA,NA
57106,Minnehaha County,SD,27.148703956343795,5.727554179566564,NA
57401,Brown County,SD,21.145975443383357,NA,NA
57701,Pennington County,SD,95.49795361527967,NA,NA
57783,Lawrence County,SD,NA,95.82043343653251,NA
37015,Cheatham County,TN,64.93860845839018,NA,NA
37043,Montgomery County,TN,41.47339699863574,NA,NA
37087,Wilson County,TN,20.73669849931787,NA,NA
37128,Rutherford County,TN,33.15143246930423,NA,NA
37130,Rutherford County,TN,24.147339699863572,NA,NA
37174,Williamson County,TN,NA,38.23529411764706,NA
37190,Cannon County,TN,NA,NA,69.95412844036697
37206,Davidson County,TN,38.74488403819918,NA,NA
37210,Davidson County,TN,62.89222373806276,NA,NA
37217,Davidson County,TN,NA,NA,80.04587155963303
37331,McMinn County,TN,NA,88.85448916408669,NA
37355,Coffee County,TN,72.03274215552524,51.857585139318886,NA
37377,Hamilton County,TN,86.3574351978172,NA,NA
37604,Washington County,TN,23.05593451568895,NA,NA
37615,Washington County,TN,NA,81.42414860681114,NA
37641,Greene County,TN,75.7162346521146,NA,NA
37716,Anderson County,TN,42.701227830832195,NA,NA
37743,Greene County,TN,14.597544338335608,NA,NA
37804,Blount County,TN,33.69713506139154,18.26625386996904,NA
37917,Knox County,TN,NA,22.60061919504644,NA
37918,Knox County,TN,NA,21.36222910216718,NA
37920,Knox County,TN,13.506139154160982,NA,NA
38063,Lauderdale County,TN,NA,66.25386996904025,NA
38104,Shelby County,TN,NA,NA,74.08256880733946
38114,Shelby County,TN,NA,33.28173374613003,NA
38225,Weakley County,TN,92.49658935879945,NA,NA
38257,Obion County,TN,90.99590723055935,NA,NA
38358,Gibson County,TN,60.436562073669855,NA,NA
38464,Lawrence County,TN,NA,31.57894736842105,NA
38501,Putnam County,TN,NA,17.80185758513932,NA
75028,Denton County,TX,NA,37.925696594427244,NA
75033,,TX,72.71487039563438,NA,NA
75051,Dallas County,TX,NA,47.8328173374613,NA
75061,Dallas County,TX,83.21964529331515,NA,NA
75149,Dallas County,TX,72.8512960436562,NA,NA
75154,Ellis County,TX,NA,41.3312693498452,NA
75212,Dallas County,TX,NA,45.975232198142415,NA
75214,Dallas County,TX,48.43110504774898,NA,NA
75234,Dallas County,TX,NA,50,NA
75240,Dallas County,TX,73.66984993178718,NA,NA
75244,Dallas County,TX,NA,NA,81.88073394495413
75249,Dallas County,TX,NA,84.6749226006192,NA
75253,Dallas County,TX,70.8049113233288,NA,NA
75407,Collin County,TX,68.21282401091405,NA,NA
75410,Wood County,TX,NA,NA,88.53211009174312
75474,Hunt County,TX,66.84856753069577,NA,NA
75601,Gregg County,TX,NA,99.22600619195046,NA
75654,Rusk County,TX,NA,NA,60.550458715596335
75706,Smith County,TX,65.21145975443383,NA,NA
75766,Cherokee County,TX,39.972714870395635,NA,NA
75771,Smith County,TX,57.43519781718963,NA,NA
75901,Angelina County,TX,NA,NA,38.99082568807339
75979,Tyler County,TX,87.58526603001364,NA,NA
76018,Tarrant County,TX,92.2237380627558,NA,NA
76021,Tarrant County,TX,39.56343792633015,NA,NA
76063,Tarrant County,TX,NA,12.693498452012383,NA
76067,Palo Pinto County,TX,56.34379263301501,NA,NA
76092,Tarrant County,TX,70.3956343792633,NA,NA
76104,Tarrant County,TX,NA,62.07430340557275,NA
76109,Tarrant County,TX,NA,NA,78.44036697247707
76133,Tarrant County,TX,NA,NA,25.91743119266055
76134,Tarrant County,TX,31.923601637107772,NA,NA
76137,Tarrant County,TX,NA,56.811145510835914,NA
76210,Denton County,TX,NA,58.35913312693498,NA
76248,Tarrant County,TX,NA,NA,41.74311926605505
76424,Stephens County,TX,NA,NA,61.92660550458715
76450,Young County,TX,NA,67.80185758513932,NA
76504,Bell County,TX,NA,NA,6.422018348623854
76513,Bell County,TX,NA,1.393188854489164,NA
76528,Coryell County,TX,NA,48.60681114551084,NA
76541,Bell County,TX,49.5225102319236,NA,NA
76548,Bell County,TX,NA,17.18266253869969,NA
76549,Bell County,TX,NA,32.81733746130031,NA
76567,Milam County,TX,87.31241473396999,NA,NA
76708,McLennan County,TX,NA,NA,22.706422018348622
76834,Coleman County,TX,94.6793997271487,NA,NA
77004,Harris County,TX,66.0300136425648,NA,NA
77035,Harris County,TX,NA,92.41486068111455,NA
77039,Harris County,TX,NA,56.03715170278638,NA
77045,Harris County,TX,NA,83.28173374613003,NA
77069,Harris County,TX,88.54024556616645,NA,62.38532110091744
77095,Harris County,TX,NA,NA,92.66055045871559
77354,Montgomery County,TX,NA,NA,37.84403669724771
77373,Harris County,TX,NA,26.47058823529412,NA
77379,Harris County,TX,30.42291950886767,NA,NA
77414,Matagorda County,TX,79.39972714870396,NA,NA
77433,Harris County,TX,14.32469304229195,NA,NA
77445,Waller County,TX,NA,76.31578947368422,NA
77447,Harris County,TX,NA,NA,89.6788990825688
77493,Harris County,TX,66.30286493860847,NA,NA
77575,Liberty County,TX,NA,60.216718266253864,NA
77581,Brazoria County,TX,NA,NA,33.48623853211009
77584,Brazoria County,TX,NA,20.123839009287924,NA
77706,Jefferson County,TX,NA,NA,49.31192660550459
77802,Brazos County,TX,NA,19.814241486068113,NA
77901,Victoria County,TX,NA,20.897832817337463,NA
77904,Victoria County,TX,NA,36.22291021671827,27.06422018348624
78065,Atascosa County,TX,NA,NA,80.27522935779817
78119,Karnes County,TX,94.95225102319236,NA,NA
78222,Bexar County,TX,71.48703956343793,NA,NA
78224,Bexar County,TX,86.22100954979535,NA,NA
78228,Bexar County,TX,34.51568894952251,NA,NA
78550,Cameron County,TX,46.93042291950887,NA,NA
78552,Cameron County,TX,NA,NA,61.23853211009175
78628,Williamson County,TX,NA,24.613003095975234,NA
78633,Williamson County,TX,NA,1.5479876160990713,NA
78681,Williamson County,TX,NA,67.18266253869969,NA
78702,Travis County,TX,80.49113233287858,NA,NA
78748,Travis County,TX,74.89768076398363,NA,NA
79109,Randall County,TX,NA,NA,97.47706422018348
79316,Terry County,TX,88.4038199181446,NA,NA
79360,Gaines County,TX,NA,NA,88.9908256880734
79510,Callahan County,TX,NA,82.04334365325077,NA
79602,Taylor County,TX,NA,NA,69.72477064220183
79605,Taylor County,TX,43.38335607094134,NA,NA
79761,Ector County,TX,54.02455661664393,NA,NA
79763,Ector County,TX,39.83628922237381,NA,NA
79935,El Paso County,TX,86.76671214188268,NA,NA
84057,Utah County,UT,NA,NA,85.55045871559633
84062,Utah County,UT,60.84583901773534,NA,91.28440366972477
84088,Salt Lake County,UT,NA,53.40557275541795,NA
84094,Salt Lake County,UT,NA,46.59442724458204,NA
84098,Summit County,UT,NA,46.90402476780186,NA
84118,Salt Lake County,UT,21.282401091405184,NA,NA
84780,Washington County,UT,NA,46.90402476780186,NA
05201,Bennington County,VT,80.6275579809004,NA,NA
05465,Chittenden County,VT,100,NA,NA
05641,Washington County,VT,NA,NA,17.201834862385322
05661,Lamoille County,VT,NA,83.59133126934985,NA
05753,Addison County,VT,NA,72.29102167182663,NA
20105,Loudoun County,VA,86.63028649386084,NA,NA
22030,Fairfax County,VA,68.34924965893589,NA,NA
22033,Fairfax County,VA,64.80218281036835,NA,NA
22101,Fairfax County,VA,54.84311050477489,NA,NA
22192,Prince William County,VA,22.78308321964529,NA,NA
22630,Warren County,VA,30.15006821282401,NA,NA
22802,Harrisonburg city,VA,NA,51.23839009287926,NA
22821,Rockingham County,VA,93.58799454297409,NA,NA
23223,Henrico County,VA,NA,11.76470588235294,NA
23227,Henrico County,VA,NA,NA,63.30275229357798
23235,Chesterfield County,VA,NA,NA,24.08256880733945
23451,Virginia Beach city,VA,NA,NA,4.587155963302752
23455,Virginia Beach city,VA,NA,93.03405572755418,75.22935779816514
23513,Norfolk city,VA,53.34242837653479,NA,NA
23666,Hampton city,VA,13.233287858117325,NA,NA
23803,Petersburg city,VA,13.915416098226466,NA,NA
23832,Chesterfield County,VA,99.0450204638472,NA,NA
23851,Franklin city,VA,NA,NA,40.137614678899084
23930,Nottoway County,VA,97.13506139154161,NA,NA
24279,Wise County,VA,85.40245566166439,NA,NA
24441,Rockingham County,VA,93.1787175989086,NA,NA
24527,Pittsylvania County,VA,NA,94.58204334365325,NA
24630,Tazewell County,VA,79.94542974079127,NA,NA
98010,King County,WA,91.54160982264665,NA,NA
98012,Snohomish County,WA,35.60709413369714,26.625386996904027,NA
98020,Snohomish County,WA,NA,NA,96.3302752293578
98030,King County,WA,NA,NA,49.08256880733945
98036,Snohomish County,WA,51.29604365620737,NA,NA
98053,King County,WA,80.0818553888131,NA,NA
98092,King County,WA,29.195088676671215,NA,NA
98104,King County,WA,50.61391541609823,NA,NA
98110,Kitsap County,WA,NA,70.27863777089783,NA
98116,King County,WA,NA,NA,96.10091743119266
98122,King County,WA,62.21009549795361,NA,NA
98144,King County,WA,34.924965893587995,NA,NA
98155,King County,WA,NA,NA,40.596330275229356
98168,King County,WA,NA,29.566563467492262,NA
98201,Snohomish County,WA,NA,45.356037151702786,NA
98204,Snohomish County,WA,NA,NA,81.19266055045871
98221,Skagit County,WA,67.25784447476126,NA,NA
98223,Snohomish County,WA,NA,54.643962848297214,NA
98225,Whatcom County,WA,57.571623465211466,NA,45.87155963302752
98229,Whatcom County,WA,NA,63.62229102167183,NA
98249,Island County,WA,NA,81.88854489164086,NA
98258,Snohomish County,WA,27.694406548431104,75.07739938080495,NA
98271,Snohomish County,WA,48.567530695770806,NA,NA
98329,Pierce County,WA,NA,77.55417956656346,NA
98335,Pierce County,WA,93.04229195088676,NA,NA
98354,Pierce County,WA,NA,NA,76.14678899082568
98362,Clallam County,WA,NA,36.53250773993808,NA
98367,Kitsap County,WA,52.660300136425654,NA,94.03669724770643
98390,Pierce County,WA,NA,72.60061919504643,NA
98443,Pierce County,WA,NA,NA,100
98445,Pierce County,WA,NA,96.90402476780186,NA
98501,Thurston County,WA,71.89631650750341,NA,NA
98632,Cowlitz County,WA,NA,NA,22.24770642201835
99005,Spokane County,WA,94.1336971350614,NA,NA
99202,Spokane County,WA,NA,70.74303405572755,NA
99208,Spokane County,WA,NA,NA,14.220183486238533
99212,Spokane County,WA,NA,71.671826625387,NA
99218,Spokane County,WA,NA,89.1640866873065,NA
99324,Walla Walla County,WA,NA,75.69659442724458,NA
99352,Benton County,WA,NA,NA,5.045871559633028
20003,District of Columbia,DC,NA,NA,69.95412844036697
20005,District of Columbia,DC,NA,NA,74.31192660550458
20012,District of Columbia,DC,NA,80.6501547987616,NA
20017,District of Columbia,DC,55.66166439290586,65.01547987616098,NA
20020,District of Columbia,DC,36.15279672578445,NA,NA
24701,Mercer County,WV,NA,NA,65.36697247706422
25015,Kanawha County,WV,NA,87.46130030959752,NA
25071,Kanawha County,WV,57.98090040927695,NA,NA
25177,Kanawha County,WV,NA,NA,18.34862385321101
25276,Roane County,WV,94.40654843110505,NA,NA
25313,Kanawha County,WV,52.251023192360165,NA,NA
25411,Morgan County,WV,80.21828103683492,NA,NA
25414,Jefferson County,WV,NA,NA,60.09174311926605
25425,Jefferson County,WV,NA,64.86068111455108,NA
25526,Putnam County,WV,NA,NA,37.61467889908257
25670,Mingo County,WV,NA,74.92260061919505,NA
25704,Wayne County,WV,33.83356070941337,NA,98.85321100917432
26070,Brooke County,WV,NA,NA,69.26605504587155
26105,Wood County,WV,51.705320600272856,NA,NA
26354,Taylor County,WV,52.9331514324693,NA,NA
26501,Monongalia County,WV,NA,29.256965944272444,NA
26505,Monongalia County,WV,NA,34.984520123839005,NA
26508,Monongalia County,WV,47.47612551159618,NA,NA
26554,Marion County,WV,NA,NA,4.3577981651376145
53090,Washington County,WI,NA,77.70897832817337,60.321100917431195
53094,Jefferson County,WI,NA,28.637770897832816,NA
53097,Ozaukee County,WI,93.58799454297409,NA,NA
53110,Milwaukee County,WI,36.83492496589359,NA,NA
53147,Walworth County,WI,NA,NA,50.917431192660544
53154,Milwaukee County,WI,76.67121418826738,NA,NA
53205,Milwaukee County,WI,3.4106412005457027,NA,NA
53206,Milwaukee County,WI,NA,8.978328173374612,NA
53207,Milwaukee County,WI,31.241473396998636,NA,NA
53403,Racine County,WI,38.33560709413369,NA,NA
53538,Jefferson County,WI,53.61527967257844,NA,NA
53549,Jefferson County,WI,NA,NA,63.53211009174312
53566,Green County,WI,54.160982264665755,NA,NA
53590,Dane County,WI,43.519781718963166,NA,NA
53703,Dane County,WI,82.81036834924966,NA,NA
53704,Dane County,WI,NA,16.253869969040245,NA
53705,Dane County,WI,NA,NA,46.559633027522935
53711,Dane County,WI,NA,NA,16.28440366972477
53713,Dane County,WI,55.38881309686221,NA,NA
53963,Dodge County,WI,57.98090040927695,NA,NA
54015,St. Croix County,WI,NA,95.97523219814241,NA
54022,Pierce County,WI,NA,45.356037151702786,NA
54139,Oconto County,WI,NA,93.96284829721363,NA
54140,Outagamie County,WI,NA,91.64086687306502,NA
54151,Marinette County,WI,NA,66.71826625386997,NA
54154,Oconto County,WI,88.67667121418826,NA,NA
54217,Kewaunee County,WI,NA,91.02167182662538,NA
54220,Manitowoc County,WI,NA,NA,12.385321100917432
54235,Door County,WI,64.5293315143247,NA,NA
54313,Brown County,WI,NA,33.90092879256966,NA
54409,Langlade County,WI,42.83765347885403,22.291021671826623,NA
54451,Taylor County,WI,87.72169167803547,NA,NA
54481,Portage County,WI,NA,52.94117647058824,NA
54494,Wood County,WI,35.879945429740786,NA,NA
54603,La Crosse County,WI,56.070941336971345,NA,NA
54840,Burnett County,WI,NA,NA,84.86238532110092
54868,Barron County,WI,NA,44.27244582043344,NA
54880,Douglas County,WI,NA,3.560371517027864,2.7522935779816518
54901,Winnebago County,WI,NA,28.01857585139319,NA
54915,Outagamie County,WI,NA,48.142414860681114,NA
54929,Waupaca County,WI,NA,78.0185758513932,NA
54942,Outagamie County,WI,97.68076398362892,NA,NA
54961,Waupaca County,WI,61.66439290586631,NA,NA
54982,Waushara County,WI,78.85402455661664,NA,NA
54984,Waushara County,WI,NA,98.76160990712074,NA
