ZipCode,county,state,Youth,Pediatric,Adult
35062,Jefferson County,AL,NA,NA,91.10512129380054
35215,Jefferson County,AL,NA,11.931818181818182,18.328840970350406
35216,Jefferson County,AL,NA,61.93181818181818,NA
35242,Shelby County,AL,NA,90.9090909090909,NA
35816,Madison County,AL,88.57142857142857,NA,NA
36067,Autauga County,AL,39.04761904761905,NA,NA
36301,Houston County,AL,NA,48.57954545454545,NA
36426,Escambia County,AL,NA,78.97727272727273,NA
36732,Marengo County,AL,NA,91.19318181818183,NA
36830,Lee County,AL,NA,NA,78.97574123989219
99503,Anchorage Municipality,AK,NA,NA,61.18598382749326
85131,Pinal County,AZ,NA,49.14772727272727,NA
85233,Maricopa County,AZ,NA,NA,54.98652291105122
85303,Maricopa County,AZ,NA,NA,66.0377358490566
85304,Maricopa County,AZ,74.76190476190476,NA,NA
85323,Maricopa County,AZ,NA,NA,77.62803234501348
85350,Yuma County,AZ,NA,40.05681818181818,NA
85621,Santa Cruz County,AZ,NA,19.602272727272727,NA
85705,Pima County,AZ,NA,NA,6.46900269541779
85711,Pima County,AZ,NA,NA,18.598382749326145
86510,Navajo County,AZ,NA,69.31818181818183,NA
71913,Garland County,AR,NA,NA,51.482479784366575
90007,Los Angeles County,CA,90,NA,NA
90025,Los Angeles County,CA,96.19047619047619,NA,NA
90037,Los Angeles County,CA,NA,NA,51.75202156334232
90044,Los Angeles County,CA,NA,7.670454545454546,NA
90045,Los Angeles County,CA,NA,NA,76.28032345013477
90047,Los Angeles County,CA,NA,NA,26.41509433962264
90059,Los Angeles County,CA,71.9047619047619,NA,NA
90222,Los Angeles County,CA,NA,NA,79.24528301886792
90303,Los Angeles County,CA,NA,66.47727272727273,NA
90504,Los Angeles County,CA,NA,NA,80.86253369272237
90631,Orange County,CA,NA,NA,48.24797843665768
90650,Los Angeles County,CA,NA,NA,28.03234501347709
91342,Los Angeles County,CA,NA,NA,29.919137466307276
91706,Los Angeles County,CA,NA,NA,37.46630727762803
91710,San Bernardino County,CA,NA,NA,51.21293800539084
91763,San Bernardino County,CA,NA,NA,76.54986522911051
92040,San Diego County,CA,NA,NA,87.33153638814017
92054,San Diego County,CA,69.52380952380952,NA,NA
92109,San Diego County,CA,NA,NA,81.94070080862534
92115,San Diego County,CA,NA,44.60227272727273,NA
92262,Riverside County,CA,NA,NA,31.805929919137466
92553,Riverside County,CA,NA,NA,39.083557951482476
92606,Orange County,CA,NA,NA,89.4878706199461
92703,Orange County,CA,NA,32.38636363636363,NA
92708,Orange County,CA,NA,87.5,NA
93013,Santa Barbara County,CA,NA,NA,97.30458221024259
93022,Ventura County,CA,NA,NA,96.7654986522911
93105,Santa Barbara County,CA,NA,NA,92.72237196765498
93111,Santa Barbara County,CA,NA,NA,98.11320754716981
93257,Tulare County,CA,NA,NA,56.60377358490566
93446,San Luis Obispo County,CA,NA,13.636363636363635,NA
93458,Santa Barbara County,CA,NA,9.659090909090908,NA
93552,Los Angeles County,CA,NA,55.11363636363637,NA
93622,Fresno County,CA,NA,NA,96.22641509433963
93631,Fresno County,CA,NA,74.43181818181817,NA
93637,Madera County,CA,NA,NA,87.87061994609164
93654,Fresno County,CA,NA,NA,67.9245283018868
93906,Monterey County,CA,NA,61.36363636363637,NA
94102,San Francisco County,CA,NA,NA,45.28301886792453
94565,Contra Costa County,CA,NA,NA,32.88409703504043
94602,Alameda County,CA,NA,72.72727272727273,NA
94607,Alameda County,CA,NA,NA,83.55795148247978
95207,San Joaquin County,CA,NA,NA,32.075471698113205
95358,Stanislaus County,CA,NA,NA,43.66576819407008
95382,Stanislaus County,CA,NA,82.95454545454545,NA
95501,Humboldt County,CA,NA,NA,66.57681940700809
95928,Butte County,CA,NA,28.125,NA
95966,Butte County,CA,NA,NA,50.673854447439346
95969,Butte County,CA,NA,88.92045454545455,NA
80002,Jefferson County,CO,NA,93.4659090909091,NA
80012,Arapahoe County,CO,NA,32.67045454545455,NA
80017,Arapahoe County,CO,NA,NA,82.21024258760107
80113,Arapahoe County,CO,57.61904761904761,NA,NA
80204,Denver County,CO,NA,36.36363636363637,NA
80211,Denver County,CO,NA,76.42045454545455,NA
80247,Arapahoe County,CO,NA,NA,54.17789757412399
80260,Adams County,CO,NA,NA,60.91644204851752
80905,El Paso County,CO,NA,NA,77.89757412398922
80916,El Paso County,CO,69.52380952380952,NA,NA
06019,Hartford County,CT,NA,NA,94.60916442048517
06033,Hartford County,CT,54.285714285714285,NA,NA
06051,Hartford County,CT,NA,NA,7.008086253369273
06092,Hartford County,CT,NA,NA,99.73045822102425
06105,Hartford County,CT,NA,NA,68.73315363881402
06108,Hartford County,CT,NA,26.988636363636363,NA
06111,Hartford County,CT,NA,NA,52.2911051212938
06401,New Haven County,CT,83.80952380952381,NA,NA
06492,New Haven County,CT,NA,76.13636363636364,NA
06511,New Haven County,CT,NA,53.40909090909091,NA
06513,New Haven County,CT,NA,NA,8.62533692722372
06516,New Haven County,CT,NA,NA,14.555256064690028
06605,Fairfield County,CT,NA,NA,47.43935309973046
06610,Fairfield County,CT,NA,78.4090909090909,NA
06779,Litchfield County,CT,98.57142857142858,NA,NA
19947,Sussex County,DE,NA,84.0909090909091,NA
32117,Volusia County,FL,NA,49.715909090909086,NA
32119,Volusia County,FL,NA,NA,86.25336927223721
32205,Duval County,FL,NA,NA,38.544474393531
32207,Duval County,FL,51.42857142857142,NA,NA
32209,Duval County,FL,60.476190476190474,26.136363636363637,NA
32218,Duval County,FL,NA,38.63636363636363,NA
32226,Duval County,FL,85.23809523809524,NA,NA
32244,Duval County,FL,NA,19.886363636363637,NA
32246,Duval County,FL,NA,NA,26.1455525606469
32254,Duval County,FL,NA,76.42045454545455,NA
32344,Jefferson County,FL,NA,94.88636363636364,NA
32547,Okaloosa County,FL,NA,74.43181818181817,NA
32565,Santa Rosa County,FL,NA,NA,88.67924528301887
32570,Santa Rosa County,FL,56.19047619047619,NA,NA
32609,Alachua County,FL,NA,NA,29.649595687331537
32757,Lake County,FL,NA,NA,70.88948787061994
32765,Seminole County,FL,NA,NA,71.15902964959568
32771,Seminole County,FL,NA,54.82954545454546,NA
32808,Orange County,FL,NA,18.46590909090909,NA
32810,Orange County,FL,NA,45.73863636363637,NA
32817,Orange County,FL,NA,NA,78.16711590296495
32824,Orange County,FL,73.80952380952381,NA,NA
32827,Orange County,FL,NA,NA,96.49595687331536
32926,Brevard County,FL,NA,NA,84.63611859838275
32953,Brevard County,FL,92.38095238095238,NA,NA
33015,Miami-Dade County,FL,NA,21.306818181818183,NA
33016,Miami-Dade County,FL,NA,75.85227272727273,NA
33018,Miami-Dade County,FL,NA,NA,86.79245283018868
33023,Broward County,FL,30.952380952380953,NA,NA
33033,Miami-Dade County,FL,NA,23.295454545454543,56.334231805929925
33055,Miami-Dade County,FL,NA,46.30681818181818,NA
33065,Broward County,FL,NA,NA,62.264150943396224
33069,Broward County,FL,NA,72.1590909090909,NA
33125,Miami-Dade County,FL,40,NA,NA
33147,Miami-Dade County,FL,NA,17.045454545454543,NA
33150,Miami-Dade County,FL,NA,46.875,NA
33156,Miami-Dade County,FL,NA,NA,88.94878706199461
33167,Miami-Dade County,FL,NA,53.97727272727273,NA
33168,Miami-Dade County,FL,77.61904761904762,NA,NA
33170,Miami-Dade County,FL,NA,90.3409090909091,NA
33175,Miami-Dade County,FL,NA,NA,69.54177897574124
33178,Miami-Dade County,FL,NA,NA,84.09703504043127
33196,Miami-Dade County,FL,60.476190476190474,NA,NA
33351,Broward County,FL,NA,62.78409090909091,NA
33462,Palm Beach County,FL,NA,NA,81.13207547169812
33470,Palm Beach County,FL,NA,94.0340909090909,NA
33493,Palm Beach County,FL,NA,99.14772727272727,NA
33496,Palm Beach County,FL,NA,NA,84.36657681940702
33527,Hillsborough County,FL,NA,76.98863636363636,NA
33604,Hillsborough County,FL,23.809523809523807,19.03409090909091,NA
33701,Pinellas County,FL,75.71428571428571,NA,NA
33805,Polk County,FL,NA,30.681818181818183,NA
33825,Highlands County,FL,NA,74.43181818181817,NA
33880,Polk County,FL,NA,NA,35.57951482479784
33916,Lee County,FL,NA,NA,52.56064690026954
34116,Collier County,FL,NA,NA,62.53369272237197
34120,Collier County,FL,NA,NA,49.32614555256065
34205,Manatee County,FL,56.666666666666664,NA,NA
34207,Manatee County,FL,NA,NA,68.19407008086253
34208,Manatee County,FL,NA,NA,72.50673854447439
34219,Manatee County,FL,80.47619047619048,NA,NA
34251,Manatee County,FL,98.09523809523809,NA,NA
34747,Osceola County,FL,NA,NA,90.83557951482479
34787,Orange County,FL,NA,NA,37.19676549865229
34947,St. Lucie County,FL,NA,78.125,NA
34950,St. Lucie County,FL,NA,NA,67.65498652291106
30035,DeKalb County,GA,NA,73.01136363636364,NA
30052,Walton County,GA,NA,58.23863636363637,NA
30060,Cobb County,GA,NA,53.69318181818182,NA
30062,Cobb County,GA,37.61904761904762,NA,NA
30078,Gwinnett County,GA,NA,73.86363636363636,NA
30083,DeKalb County,GA,28.57142857142857,68.18181818181817,NA
30135,Douglas County,GA,21.428571428571427,NA,NA
30157,Paulding County,GA,NA,57.38636363636363,NA
30180,Carroll County,GA,24.761904761904763,NA,NA
30223,Spalding County,GA,NA,65.9090909090909,NA
30238,Clayton County,GA,NA,59.94318181818182,NA
30274,Clayton County,GA,NA,65.625,NA
30291,Fulton County,GA,NA,68.4659090909091,NA
30314,Fulton County,GA,NA,68.4659090909091,NA
30316,DeKalb County,GA,66.19047619047619,NA,NA
30317,DeKalb County,GA,NA,96.875,NA
30318,Fulton County,GA,NA,43.465909090909086,41.23989218328841
30519,Gwinnett County,GA,NA,NA,60.64690026954178
30548,Jackson County,GA,91.9047619047619,NA,NA
30606,Clarke County,GA,NA,81.25,NA
30817,Lincoln County,GA,NA,98.01136363636364,NA
30904,Richmond County,GA,57.61904761904761,NA,NA
31052,Bibb County,GA,NA,98.57954545454545,NA
31069,Houston County,GA,NA,82.38636363636364,NA
31089,Washington County,GA,NA,96.02272727272727,NA
31206,Bibb County,GA,NA,NA,43.93530997304582
31404,Chatham County,GA,NA,73.86363636363636,NA
31709,Sumter County,GA,NA,NA,90.29649595687331
31794,Tift County,GA,NA,NA,40.700808625336926
39823,Early County,GA,93.33333333333333,NA,NA
83704,Ada County,ID,33.33333333333333,NA,NA
83854,Kootenai County,ID,NA,70.73863636363636,NA
60067,Cook County,IL,NA,NA,57.95148247978437
60110,Kane County,IL,NA,NA,64.95956873315365
60118,Kane County,IL,NA,NA,85.98382749326146
60126,DuPage County,IL,NA,NA,20.21563342318059
60137,DuPage County,IL,NA,NA,47.7088948787062
60162,Cook County,IL,NA,NA,89.21832884097036
60172,DuPage County,IL,NA,NA,76.01078167115904
60174,Kane County,IL,51.90476190476191,NA,NA
60177,Kane County,IL,70.47619047619048,NA,NA
60402,Cook County,IL,NA,NA,53.908355795148246
60404,Will County,IL,NA,NA,58.490566037735846
60429,Cook County,IL,88.57142857142857,NA,NA
60436,Will County,IL,57.14285714285714,NA,NA
60452,Cook County,IL,63.8095238095238,NA,NA
60473,Cook County,IL,NA,NA,70.35040431266847
60490,Will County,IL,NA,NA,74.12398921832884
60543,Kendall County,IL,NA,NA,50.13477088948787
60615,Cook County,IL,64.28571428571429,NA,NA
60628,Cook County,IL,NA,NA,14.285714285714285
60637,Cook County,IL,44.761904761904766,NA,NA
60643,Cook County,IL,NA,NA,18.059299191374663
60649,Cook County,IL,53.333333333333336,NA,NA
60655,Cook County,IL,34.285714285714285,NA,42.58760107816711
46168,Hendricks County,IN,72.85714285714285,NA,NA
46201,Marion County,IN,NA,56.25,NA
46218,Marion County,IN,18.095238095238095,NA,NA
46234,Marion County,IN,NA,NA,74.66307277628033
46254,Marion County,IN,26.666666666666668,NA,NA
46268,Marion County,IN,NA,83.52272727272727,NA
46304,Porter County,IN,28.095238095238095,NA,NA
46320,Lake County,IN,NA,84.375,NA
46616,St. Joseph County,IN,NA,NA,95.68733153638814
46721,DeKalb County,IN,NA,NA,94.33962264150944
46733,Adams County,IN,NA,NA,56.8733153638814
46738,DeKalb County,IN,NA,NA,82.47978436657682
46803,Allen County,IN,96.66666666666667,NA,NA
47374,Wayne County,IN,NA,NA,9.164420485175203
47802,Vigo County,IN,NA,NA,70.61994609164421
50273,Madison County,IA,NA,NA,93.80053908355795
50311,Polk County,IA,NA,86.93181818181817,NA
50702,Black Hawk County,IA,NA,NA,85.17520215633422
50703,Black Hawk County,IA,64.28571428571429,NA,NA
52240,Johnson County,IA,8.095238095238095,NA,NA
52501,Wapello County,IA,NA,NA,25.336927223719673
67226,Sedgwick County,KS,NA,NA,91.91374663072777
40078,Washington County,KY,NA,98.86363636363636,NA
40165,Bullitt County,KY,66.19047619047619,NA,NA
40206,Jefferson County,KY,NA,NA,80.05390835579514
40210,Jefferson County,KY,NA,55.39772727272727,NA
40211,Jefferson County,KY,NA,28.125,NA
40216,Jefferson County,KY,29.04761904761905,NA,NA
40291,Jefferson County,KY,62.38095238095238,NA,NA
40475,Madison County,KY,NA,NA,16.711590296495956
40517,Fayette County,KY,NA,NA,31.536388140161726
40701,Whitley County,KY,53.333333333333336,35.22727272727273,NA
41129,Boyd County,KY,NA,NA,67.38544474393531
41144,Greenup County,KY,NA,NA,83.55795148247978
42003,McCracken County,KY,NA,NA,59.299191374663074
42066,Graves County,KY,NA,50.56818181818182,34.77088948787062
42240,Christian County,KY,40.476190476190474,NA,NA
70001,Jefferson Parish,LA,NA,NA,8.89487870619946
70062,Jefferson Parish,LA,32.857142857142854,NA,NA
70065,Jefferson Parish,LA,NA,26.420454545454547,NA
70121,Jefferson Parish,LA,NA,44.31818181818182,NA
70363,Terrebonne Parish,LA,5.714285714285714,NA,NA
70394,Lafourche Parish,LA,NA,19.318181818181817,NA
70461,St. Tammany Parish,LA,NA,8.522727272727272,NA
70471,St. Tammany Parish,LA,NA,65.3409090909091,NA
70506,Lafayette Parish,LA,18.571428571428573,NA,NA
70507,Lafayette Parish,LA,NA,NA,57.41239892183289
70535,St. Landry Parish,LA,NA,NA,39.892183288409704
70601,Calcasieu Parish,LA,NA,21.875,NA
70647,Calcasieu Parish,LA,NA,NA,86.52291105121293
70805,East Baton Rouge Parish,LA,NA,6.534090909090909,NA
70811,East Baton Rouge Parish,LA,NA,27.27272727272727,NA
70817,East Baton Rouge Parish,LA,NA,48.57954545454545,NA
70820,East Baton Rouge Parish,LA,NA,NA,98.92183288409704
71108,Caddo Parish,LA,NA,5.965909090909091,NA
71201,Ouachita Parish,LA,NA,28.97727272727273,NA
71241,Union Parish,LA,NA,NA,71.96765498652292
71292,Ouachita Parish,LA,31.9047619047619,NA,NA
04005,York County,ME,NA,NA,25.87601078167116
04043,York County,ME,95.23809523809523,95.17045454545455,NA
04062,Cumberland County,ME,NA,70.17045454545455,NA
04072,York County,ME,NA,63.63636363636363,NA
04073,York County,ME,NA,36.36363636363637,NA
04092,Cumberland County,ME,NA,51.98863636363637,NA
04101,Cumberland County,ME,NA,56.81818181818182,NA
04220,Oxford County,ME,NA,NA,100
04401,Penobscot County,ME,NA,23.579545454545457,NA
04976,Somerset County,ME,49.047619047619044,NA,NA
20747,Prince George's County,MD,91.42857142857143,NA,NA
20748,Prince George's County,MD,79.04761904761905,NA,NA
20772,Prince George's County,MD,NA,NA,63.342318059299195
21144,Anne Arundel County,MD,65.71428571428571,NA,NA
21211,Baltimore city,MD,NA,NA,84.90566037735849
21229,Baltimore city,MD,NA,NA,28.57142857142857
01104,Hampden County,MA,12.857142857142856,12.215909090909092,2.4258760107816713
01760,Middlesex County,MA,NA,NA,50.40431266846361
01844,Essex County,MA,NA,NA,17.25067385444744
01851,Middlesex County,MA,NA,NA,3.5040431266846364
01890,Middlesex County,MA,NA,98.01136363636364,NA
01906,Essex County,MA,NA,NA,4.8517520215633425
01930,Essex County,MA,NA,NA,6.199460916442049
02021,Norfolk County,MA,24.285714285714285,NA,NA
02035,Norfolk County,MA,NA,NA,46.63072776280324
02072,Norfolk County,MA,NA,NA,17.78975741239892
02119,Suffolk County,MA,NA,3.125,NA
02121,Suffolk County,MA,12.857142857142856,40.909090909090914,NA
02124,Suffolk County,MA,NA,NA,0
02125,Suffolk County,MA,NA,NA,0.5390835579514826
02126,Suffolk County,MA,NA,13.636363636363635,NA
02130,Suffolk County,MA,29.523809523809526,NA,NA
02135,Suffolk County,MA,NA,25.28409090909091,7.816711590296496
02136,Suffolk County,MA,15.714285714285714,NA,NA
02141,Middlesex County,MA,NA,89.20454545454545,NA
02142,Middlesex County,MA,NA,NA,97.57412398921834
02145,Middlesex County,MA,NA,18.181818181818183,NA
02148,Middlesex County,MA,NA,1.7045454545454544,NA
02155,Middlesex County,MA,NA,NA,1.6172506738544474
02169,Norfolk County,MA,NA,NA,21.293800539083556
02301,Plymouth County,MA,NA,5.3977272727272725,NA
02458,Middlesex County,MA,NA,NA,61.99460916442049
02724,Bristol County,MA,NA,15.625,NA
48021,Macomb County,MI,NA,42.32954545454545,NA
48034,Oakland County,MI,NA,NA,48.78706199460917
48044,Macomb County,MI,NA,NA,15.902964959568733
48054,St. Clair County,MI,NA,NA,92.99191374663073
48089,Macomb County,MI,11.428571428571429,NA,NA
48091,Macomb County,MI,NA,NA,12.668463611859837
48105,Washtenaw County,MI,NA,NA,53.63881401617251
48122,Wayne County,MI,NA,NA,68.46361185983828
48127,Wayne County,MI,NA,NA,22.641509433962266
48146,Wayne County,MI,NA,14.772727272727273,NA
48167,Oakland County,MI,NA,NA,54.44743935309974
48170,Wayne County,MI,40.95238095238095,NA,NA
48174,Wayne County,MI,10.476190476190476,NA,NA
48187,Wayne County,MI,NA,55.68181818181818,NA
48195,Wayne County,MI,NA,NA,35.84905660377358
48204,Wayne County,MI,NA,32.67045454545455,NA
48205,Wayne County,MI,NA,41.76136363636363,NA
48207,Wayne County,MI,NA,NA,65.49865229110512
48210,Wayne County,MI,NA,60.51136363636363,NA
48212,Wayne County,MI,NA,38.35227272727273,19.946091644204852
48219,Wayne County,MI,1.9047619047619049,NA,NA
48221,Wayne County,MI,NA,29.545454545454547,NA
48224,Wayne County,MI,0.9523809523809524,61.64772727272727,NA
48227,Wayne County,MI,NA,30.113636363636363,NA
48228,Wayne County,MI,NA,5.681818181818182,2.6954177897574128
48234,Wayne County,MI,10.952380952380953,NA,15.363881401617252
48236,Wayne County,MI,NA,95.73863636363636,NA
48238,Wayne County,MI,20,NA,36.118598382749326
48239,Wayne County,MI,NA,NA,16.9811320754717
48312,Macomb County,MI,NA,67.61363636363636,NA
48336,Oakland County,MI,NA,NA,46.36118598382749
48342,Oakland County,MI,NA,31.53409090909091,NA
48377,Oakland County,MI,NA,94.0340909090909,NA
48507,Genesee County,MI,NA,37.784090909090914,NA
48601,Saginaw County,MI,0,NA,NA
48602,Saginaw County,MI,6.190476190476191,13.068181818181818,NA
48624,Gladwin County,MI,NA,80.39772727272727,NA
48843,Livingston County,MI,NA,46.875,NA
49022,Berrien County,MI,NA,62.78409090909091,NA
49058,Barry County,MI,NA,NA,44.20485175202156
49202,Jackson County,MI,62.857142857142854,NA,NA
49307,Mecosta County,MI,70.95238095238095,NA,NA
49341,Kent County,MI,35.23809523809524,NA,NA
49425,Muskegon County,MI,NA,NA,99.19137466307278
49505,Kent County,MI,NA,NA,95.14824797843666
49508,Kent County,MI,NA,60.22727272727273,NA
49509,Kent County,MI,42.38095238095238,NA,NA
49546,Kent County,MI,76.19047619047619,NA,NA
49677,Osceola County,MI,NA,NA,77.35849056603774
55106,Ramsey County,MN,NA,NA,13.20754716981132
55117,Ramsey County,MN,NA,NA,26.954177897574123
55118,Dakota County,MN,NA,NA,65.22911051212938
55369,Hennepin County,MN,25.238095238095237,NA,NA
55404,Hennepin County,MN,NA,NA,1.8867924528301887
55405,Hennepin County,MN,NA,62.5,NA
55407,Hennepin County,MN,NA,35.22727272727273,NA
55411,Hennepin County,MN,NA,34.375,5.3908355795148255
55417,Hennepin County,MN,NA,43.75,87.6010781671159
55419,Hennepin County,MN,NA,30.39772727272727,NA
55423,Hennepin County,MN,92.85714285714286,NA,NA
55428,Hennepin County,MN,NA,69.60227272727273,NA
55792,St. Louis County,MN,NA,NA,49.865229110512125
55804,St. Louis County,MN,NA,NA,82.74932614555256
56308,Douglas County,MN,NA,NA,39.35309973045822
56484,Cass County,MN,99.52380952380952,NA,NA
56560,Clay County,MN,NA,4.829545454545454,NA
38769,Bolivar County,MS,NA,100,NA
38930,Leflore County,MS,NA,NA,53.36927223719676
39090,Attala County,MS,NA,NA,80.3234501347709
39202,Hinds County,MS,NA,83.52272727272727,97.03504043126685
39339,Winston County,MS,NA,65.9090909090909,NA
39507,Harrison County,MS,NA,89.20454545454545,NA
39540,Harrison County,MS,NA,NA,88.40970350404312
39773,Clay County,MS,NA,NA,78.4366576819407
63026,St. Louis County,MO,NA,NA,49.056603773584904
63031,St. Louis County,MO,NA,NA,64.42048517520216
63033,St. Louis County,MO,31.428571428571427,39.48863636363637,NA
63042,St. Louis County,MO,NA,NA,60.37735849056604
63052,Jefferson County,MO,NA,61.07954545454546,66.30727762803235
63104,St. Louis city,MO,77.14285714285715,NA,NA
63110,St. Louis city,MO,69.04761904761905,NA,NA
63115,St. Louis city,MO,50.95238095238095,37.784090909090914,NA
63118,St. Louis city,MO,49.047619047619044,82.10227272727273,NA
63121,St. Louis County,MO,70.95238095238095,NA,NA
63123,St. Louis County,MO,NA,NA,50.943396226415096
63136,St. Louis County,MO,NA,59.09090909090909,NA
63137,St. Louis County,MO,NA,NA,52.02156334231805
63301,St. Charles County,MO,NA,NA,24.258760107816713
63379,Lincoln County,MO,44.285714285714285,NA,42.318059299191376
63775,Perry County,MO,NA,NA,49.59568733153639
64064,Jackson County,MO,NA,88.35227272727273,NA
64110,Jackson County,MO,65.23809523809524,NA,NA
64124,Jackson County,MO,NA,53.97727272727273,NA
64126,Jackson County,MO,NA,62.21590909090909,NA
64138,Jackson County,MO,NA,NA,21.83288409703504
64465,Clinton County,MO,97.61904761904762,NA,NA
64730,Bates County,MO,NA,NA,72.23719676549865
64759,Barton County,MO,NA,75.56818181818183,NA
64801,Jasper County,MO,NA,21.59090909090909,23.71967654986523
64836,Jasper County,MO,NA,NA,29.110512129380055
64850,Newton County,MO,NA,42.04545454545455,NA
64862,Jasper County,MO,100,NA,NA
65240,Boone County,MO,NA,96.30681818181817,NA
65625,Barry County,MO,NA,NA,92.18328840970351
65807,Greene County,MO,23.333333333333332,40.05681818181818,NA
68005,Sarpy County,NE,NA,92.04545454545455,NA
89148,Clark County,NV,NA,NA,60.1078167115903
89703,Carson City,NV,NA,NA,94.07008086253369
03038,Rockingham County,NH,NA,NA,23.450134770889488
03825,Strafford County,NH,NA,93.18181818181817,NA
07017,Essex County,NJ,NA,NA,3.7735849056603774
07042,Essex County,NJ,NA,NA,36.38814016172507
07103,Essex County,NJ,NA,4.545454545454546,29.380053908355798
07112,Essex County,NJ,NA,10.511363636363637,NA
07202,Union County,NJ,NA,NA,12.398921832884097
07208,Union County,NJ,NA,NA,24.797843665768195
07601,Bergen County,NJ,NA,NA,11.859838274932615
07857,Morris County,NJ,NA,NA,99.46091644204851
08005,Ocean County,NJ,NA,NA,28.84097035040431
08012,Camden County,NJ,NA,NA,37.735849056603776
08103,Camden County,NJ,NA,7.1022727272727275,NA
08104,Camden County,NJ,NA,13.352272727272727,NA
08109,Camden County,NJ,NA,23.011363636363637,NA
08110,Camden County,NJ,NA,NA,23.98921832884097
08753,Ocean County,NJ,NA,16.193181818181817,NA
08817,Middlesex County,NJ,NA,NA,31.266846361185983
08865,Warren County,NJ,NA,60.51136363636363,NA
87105,Bernalillo County,NM,NA,8.238636363636363,NA
87110,Bernalillo County,NM,11.904761904761903,NA,54.71698113207547
87124,Sandoval County,NM,NA,NA,21.024258760107816
87327,Cibola County,NM,NA,NA,78.70619946091644
88030,Luna County,NM,NA,NA,73.04582210242587
88220,Eddy County,NM,NA,NA,30.997304582210244
88345,Lincoln County,NM,NA,NA,85.44474393530997
10002,New York County,NY,16.666666666666664,NA,NA
10009,New York County,NY,NA,57.38636363636363,NA
10019,New York County,NY,NA,88.63636363636364,NA
10025,New York County,NY,NA,NA,11.05121293800539
10029,New York County,NY,15.238095238095239,NA,NA
10030,New York County,NY,NA,NA,69.2722371967655
10031,New York County,NY,NA,14.204545454545455,NA
10032,New York County,NY,NA,8.806818181818182,NA
10035,New York County,NY,NA,NA,10.512129380053908
10301,Richmond County,NY,50,NA,NA
10304,Richmond County,NY,NA,NA,25.067385444743934
10452,Bronx County,NY,NA,0.8522727272727272,11.590296495956872
10454,Bronx County,NY,19.047619047619047,NA,NA
10455,Bronx County,NY,NA,2.556818181818182,8.355795148247978
10456,Bronx County,NY,NA,0,0.2695417789757413
10457,Bronx County,NY,2.380952380952381,0.5681818181818182,NA
10458,Bronx County,NY,NA,NA,9.433962264150944
10459,Bronx County,NY,14.761904761904763,NA,NA
10460,Bronx County,NY,NA,1.9886363636363635,NA
10462,Bronx County,NY,7.142857142857142,4.261363636363636,NA
10466,Bronx County,NY,NA,3.4090909090909087,NA
10467,Bronx County,NY,33.80952380952381,NA,0.8086253369272237
10468,Bronx County,NY,NA,7.954545454545454,2.15633423180593
10469,Bronx County,NY,NA,NA,5.929919137466308
10472,Bronx County,NY,3.3333333333333335,24.431818181818183,NA
10473,Bronx County,NY,NA,6.534090909090909,NA
10550,Westchester County,NY,NA,76.98863636363636,NA
10701,Westchester County,NY,NA,3.6931818181818183,NA
10801,Westchester County,NY,NA,22.15909090909091,NA
11003,Nassau County,NY,84.28571428571429,NA,71.69811320754717
11203,Kings County,NY,59.523809523809526,15.909090909090908,NA
11204,Kings County,NY,NA,NA,40.97035040431267
11207,Kings County,NY,0.4761904761904762,22.727272727272727,NA
11208,Kings County,NY,3.8095238095238098,2.840909090909091,NA
11210,Kings County,NY,NA,38.92045454545455,NA
11212,Kings County,NY,4.285714285714286,1.1363636363636365,14.824797843665769
11213,Kings County,NY,NA,NA,9.703504043126685
11216,Kings County,NY,84.76190476190476,NA,NA
11219,Kings County,NY,NA,1.9886363636363635,NA
11220,Kings County,NY,NA,0.2840909090909091,NA
11221,Kings County,NY,NA,NA,5.121293800539084
11226,Kings County,NY,10,18.75,7.277628032345014
11229,Kings County,NY,NA,NA,38.81401617250674
11231,Kings County,NY,NA,NA,55.79514824797843
11234,Kings County,NY,NA,24.147727272727273,NA
11236,Kings County,NY,47.61904761904761,NA,NA
11237,Kings County,NY,NA,9.375,NA
11238,Kings County,NY,NA,64.48863636363636,30.18867924528302
11354,Queens County,NY,NA,31.818181818181817,NA
11372,Queens County,NY,NA,NA,43.39622641509434
11385,Queens County,NY,NA,12.5,NA
11432,Queens County,NY,NA,12.784090909090908,NA
11433,Queens County,NY,NA,25.568181818181817,NA
11550,Nassau County,NY,NA,NA,22.10242587601078
11691,Queens County,NY,NA,NA,17.52021563342318
11720,Suffolk County,NY,NA,79.54545454545455,NA
11722,Suffolk County,NY,NA,33.52272727272727,34.50134770889488
11741,Suffolk County,NY,NA,NA,93.53099730458221
12047,Albany County,NY,NA,NA,75.47169811320755
12065,Saratoga County,NY,62.857142857142854,NA,35.309973045822105
12550,Orange County,NY,NA,59.375,NA
12771,Orange County,NY,NA,NA,79.51482479784366
12901,Clinton County,NY,NA,NA,5.660377358490567
13053,Tompkins County,NY,90.47619047619048,NA,NA
13204,Onondaga County,NY,NA,NA,22.371967654986523
13207,Onondaga County,NY,NA,NA,44.474393530997304
13440,Oneida County,NY,20,NA,NA
13480,Oneida County,NY,NA,NA,93.26145552560648
13736,Tioga County,NY,99.04761904761905,NA,NA
13905,Broome County,NY,NA,56.53409090909091,NA
14072,Erie County,NY,NA,NA,56.06469002695418
14150,Erie County,NY,NA,NA,10.781671159029651
14212,Erie County,NY,NA,NA,55.25606469002695
14218,Erie County,NY,NA,84.94318181818183,79.78436657681941
14225,Erie County,NY,50.476190476190474,NA,NA
14420,Monroe County,NY,29.523809523809526,NA,NA
14424,Ontario County,NY,NA,NA,27.22371967654987
14428,Monroe County,NY,NA,NA,59.83827493261455
14489,Wayne County,NY,NA,NA,45.55256064690027
14606,Monroe County,NY,NA,NA,4.5822102425876015
14609,Monroe County,NY,6.666666666666667,7.386363636363637,NA
14621,Monroe County,NY,NA,9.943181818181818,NA
14733,Chautauqua County,NY,NA,91.19318181818183,NA
14886,Tompkins County,NY,NA,84.94318181818183,NA
27103,Forsyth County,NC,NA,58.52272727272727,NA
27107,Forsyth County,NC,NA,9.943181818181818,NA
27127,Forsyth County,NC,5.238095238095238,NA,NA
27260,Guilford County,NC,NA,50.28409090909091,NA
27295,Davidson County,NC,13.80952380952381,NA,NA
27330,Lee County,NC,NA,NA,33.153638814016176
27344,Chatham County,NC,NA,87.7840909090909,NA
27405,Guilford County,NC,12.380952380952381,NA,NA
27527,Johnston County,NC,NA,NA,81.6711590296496
27536,Vance County,NC,NA,67.61363636363636,NA
27565,Granville County,NC,NA,50.56818181818182,NA
27587,Wake County,NC,NA,NA,32.075471698113205
27609,Wake County,NC,NA,82.95454545454545,NA
27610,Wake County,NC,NA,NA,13.746630727762804
27705,Durham County,NC,NA,NA,32.61455525606469
27834,Pitt County,NC,NA,NA,13.477088948787062
27892,Martin County,NC,NA,NA,61.45552560646901
28036,Mecklenburg County,NC,NA,94.0340909090909,NA
28086,Cleveland County,NC,NA,NA,36.65768194070081
28092,Lincoln County,NC,NA,49.715909090909086,NA
28205,Mecklenburg County,NC,NA,32.10227272727273,NA
28206,Mecklenburg County,NC,NA,58.80681818181818,NA
28210,Mecklenburg County,NC,NA,NA,66.84636118598382
28213,Mecklenburg County,NC,NA,44.88636363636363,NA
28214,Mecklenburg County,NC,NA,48.01136363636363,42.04851752021563
28216,Mecklenburg County,NC,NA,65.05681818181817,19.40700808625337
28227,Mecklenburg County,NC,39.523809523809526,NA,NA
28303,Cumberland County,NC,NA,46.590909090909086,NA
28306,Bladen County,NC,NA,31.25,NA
28312,Cumberland County,NC,NA,70.17045454545455,NA
28365,Wayne County,NC,NA,89.20454545454545,NA
28412,New Hanover County,NC,NA,NA,25.60646900269542
28451,Brunswick County,NC,46.666666666666664,NA,NA
28645,Caldwell County,NC,NA,6.25,6.738544474393531
28651,Wilkes County,NC,NA,97.72727272727273,NA
28659,Wilkes County,NC,NA,NA,30.727762803234505
58104,Cass County,ND,NA,41.47727272727273,NA
43004,Franklin County,OH,NA,67.32954545454545,NA
43023,Licking County,OH,NA,NA,92.45283018867924
43026,Franklin County,OH,22.380952380952383,NA,NA
43055,Licking County,OH,NA,NA,2.964959568733154
43068,Franklin County,OH,NA,3.977272727272727,NA
43138,Hocking County,OH,NA,NA,43.126684636118604
43203,Franklin County,OH,NA,86.36363636363636,NA
43204,Franklin County,OH,NA,36.07954545454545,NA
43207,Franklin County,OH,NA,20.454545454545457,NA
43209,Franklin County,OH,NA,72.1590909090909,NA
43211,Franklin County,OH,NA,17.897727272727273,NA
43213,Franklin County,OH,NA,NA,69.00269541778977
43219,Franklin County,OH,NA,17.329545454545457,NA
43223,Franklin County,OH,1.4285714285714286,NA,NA
43224,Franklin County,OH,NA,29.261363636363637,10.242587601078167
43227,Franklin County,OH,NA,49.43181818181818,33.9622641509434
43229,Franklin County,OH,NA,27.556818181818183,39.62264150943396
43232,Franklin County,OH,9.523809523809524,NA,NA
43235,Franklin County,OH,NA,71.875,NA
43302,Marion County,OH,NA,NA,3.234501347708895
43326,Hardin County,OH,NA,NA,64.15094339622641
43606,Lucas County,OH,NA,NA,27.49326145552561
43607,Lucas County,OH,NA,NA,11.320754716981133
43612,Lucas County,OH,NA,52.55681818181818,NA
43701,Muskingum County,OH,NA,NA,1.3477088948787064
43953,Jefferson County,OH,NA,NA,46.091644204851754
44070,Cuyahoga County,OH,NA,NA,34.23180592991914
44090,Lorain County,OH,NA,84.6590909090909,NA
44094,Lake County,OH,43.80952380952381,NA,NA
44104,Cuyahoga County,OH,25.71428571428571,NA,NA
44105,Cuyahoga County,OH,NA,20.738636363636363,1.078167115902965
44106,Cuyahoga County,OH,NA,45.73863636363637,NA
44107,Cuyahoga County,OH,NA,NA,23.180592991913745
44108,Cuyahoga County,OH,48.57142857142857,NA,NA
44110,Cuyahoga County,OH,NA,28.125,19.67654986522911
44111,Cuyahoga County,OH,NA,34.659090909090914,NA
44112,Cuyahoga County,OH,NA,NA,15.633423180592992
44115,Cuyahoga County,OH,NA,NA,75.74123989218329
44118,Cuyahoga County,OH,NA,NA,53.09973045822103
44129,Cuyahoga County,OH,NA,35.79545454545455,NA
44132,Cuyahoga County,OH,NA,48.01136363636363,70.08086253369272
44136,Cuyahoga County,OH,41.42857142857143,NA,NA
44137,Cuyahoga County,OH,NA,30.96590909090909,NA
44139,Cuyahoga County,OH,NA,92.61363636363636,NA
44146,Cuyahoga County,OH,NA,NA,73.58490566037736
44270,Wayne County,OH,NA,NA,74.93261455525607
44281,Medina County,OH,NA,38.92045454545455,NA
44287,Wayne County,OH,95.71428571428572,NA,NA
44306,Summit County,OH,NA,36.36363636363637,NA
44320,Summit County,OH,NA,NA,27.762803234501348
44413,Columbiana County,OH,82.38095238095238,NA,NA
44420,Trumbull County,OH,NA,56.81818181818182,NA
44481,Trumbull County,OH,NA,NA,87.06199460916442
44515,Mahoning County,OH,32.38095238095238,NA,NA
44646,Stark County,OH,61.904761904761905,NA,19.137466307277627
44663,Tuscarawas County,OH,NA,NA,22.911051212938006
44707,Stark County,OH,NA,67.04545454545455,NA
44870,Erie County,OH,NA,15.340909090909092,NA
45039,Warren County,OH,NA,NA,62.8032345013477
45068,Warren County,OH,93.80952380952381,NA,NA
45205,Hamilton County,OH,27.142857142857142,29.829545454545453,NA
45211,Hamilton County,OH,NA,NA,18.867924528301888
45220,Hamilton County,OH,NA,55.68181818181818,NA
45227,Hamilton County,OH,NA,NA,63.07277628032345
45229,Hamilton County,OH,NA,33.80681818181818,NA
45231,Hamilton County,OH,16.666666666666664,5.113636363636364,NA
45237,Hamilton County,OH,NA,23.863636363636363,41.77897574123989
45238,Hamilton County,OH,NA,NA,24.528301886792452
45242,Hamilton County,OH,NA,71.02272727272727,NA
45244,Hamilton County,OH,NA,NA,65.76819407008087
45246,Hamilton County,OH,NA,78.97727272727273,NA
45255,Hamilton County,OH,NA,80.39772727272727,NA
45320,Preble County,OH,NA,47.44318181818182,NA
45385,Greene County,OH,17.61904761904762,NA,NA
45404,Montgomery County,OH,76.66666666666667,NA,NA
45417,Montgomery County,OH,NA,10.511363636363637,NA
45426,Montgomery County,OH,NA,85.79545454545455,NA
45692,Jackson County,OH,55.714285714285715,NA,NA
45701,Athens County,OH,NA,NA,73.8544474393531
73008,Oklahoma County,OK,NA,NA,77.088948787062
73105,Oklahoma County,OK,94.76190476190476,NA,NA
73115,Oklahoma County,OK,74.28571428571429,NA,NA
73142,Oklahoma County,OK,85.23809523809524,NA,NA
73149,Oklahoma County,OK,NA,93.75,NA
74017,Rogers County,OK,NA,NA,57.95148247978437
74136,Tulsa County,OK,NA,63.35227272727273,NA
74501,Pittsburg County,OK,52.85714285714286,NA,NA
74820,Pontotoc County,OK,16.19047619047619,NA,NA
74851,Pottawatomie County,OK,NA,76.98863636363636,NA
97051,Columbia County,OR,NA,NA,74.39353099730458
97233,Multnomah County,OR,NA,36.36363636363637,NA
97365,Lincoln County,OR,93.80952380952381,NA,NA
97423,Coos County,OR,NA,NA,95.4177897574124
97838,Umatilla County,OR,35.23809523809524,NA,NA
15145,Allegheny County,PA,NA,96.30681818181817,NA
15203,Allegheny County,PA,NA,NA,91.37466307277629
15206,Allegheny County,PA,NA,84.94318181818183,NA
15207,Allegheny County,PA,NA,71.30681818181817,NA
15825,Jefferson County,PA,NA,NA,59.02964959568733
15857,Elk County,PA,NA,92.32954545454545,NA
16503,Erie County,PA,NA,NA,48.517520215633425
16830,Clearfield County,PA,NA,73.57954545454545,NA
17033,Dauphin County,PA,9.047619047619047,NA,NA
17103,Dauphin County,PA,NA,NA,52.83018867924528
17110,Dauphin County,PA,47.14285714285714,NA,NA
17315,York County,PA,NA,NA,40.43126684636118
17401,York County,PA,75.23809523809524,NA,NA
17404,York County,PA,NA,80.11363636363636,NA
17815,Columbia County,PA,36.19047619047619,NA,NA
17963,Schuylkill County,PA,87.14285714285714,NA,NA
18080,Lehigh County,PA,NA,NA,59.56873315363881
18103,Lehigh County,PA,NA,20.170454545454543,36.92722371967655
18201,Luzerne County,PA,48.095238095238095,NA,NA
18235,Carbon County,PA,NA,59.65909090909091,NA
18603,Columbia County,PA,79.52380952380952,NA,NA
18951,Bucks County,PA,22.857142857142858,NA,NA
19020,Bucks County,PA,NA,NA,16.172506738544474
19023,Delaware County,PA,NA,52.84090909090909,42.857142857142854
19083,Delaware County,PA,NA,NA,39.892183288409704
19121,Philadelphia County,PA,NA,78.69318181818183,NA
19131,Philadelphia County,PA,NA,69.88636363636364,NA
19132,Philadelphia County,PA,NA,26.704545454545453,38.00539083557952
19134,Philadelphia County,PA,NA,16.761363636363637,NA
19139,Philadelphia County,PA,NA,44.034090909090914,NA
19140,Philadelphia County,PA,NA,11.079545454545455,4.31266846361186
19141,Philadelphia County,PA,NA,NA,44.74393530997305
19142,Philadelphia County,PA,34.76190476190476,NA,NA
19144,Philadelphia County,PA,NA,42.61363636363637,NA
19145,Philadelphia County,PA,21.904761904761905,NA,NA
19148,Philadelphia County,PA,NA,NA,16.442048517520217
19153,Philadelphia County,PA,NA,NA,76.81940700808624
19342,Delaware County,PA,73.33333333333333,NA,NA
19401,Montgomery County,PA,NA,45.17045454545455,NA
19601,Berks County,PA,NA,NA,28.30188679245283
02838,Providence County,RI,NA,NA,98.38274932614556
29059,Orangeburg County,SC,NA,97.1590909090909,NA
29223,Richland County,SC,NA,NA,35.04043126684636
29406,Charleston County,SC,NA,25.568181818181817,NA
29449,Charleston County,SC,NA,86.93181818181817,NA
29455,Charleston County,SC,89.52380952380953,NA,NA
29461,Berkeley County,SC,NA,53.97727272727273,46.900269541778975
29464,Charleston County,SC,NA,NA,57.68194070080862
29466,Charleston County,SC,NA,NA,63.881401617250674
29527,Horry County,SC,NA,NA,64.6900269541779
29577,Horry County,SC,NA,66.47727272727273,NA
29650,Greenville County,SC,60.476190476190474,NA,NA
29655,Anderson County,SC,NA,95.45454545454545,NA
57642,Corson County,SD,NA,NA,98.6522911051213
37115,Davidson County,TN,NA,40.909090909090914,NA
37209,Davidson County,TN,NA,69.0340909090909,NA
37210,Davidson County,TN,NA,80.39772727272727,NA
37334,Lincoln County,TN,NA,81.81818181818183,NA
37338,Rhea County,TN,NA,97.1590909090909,NA
37343,Hamilton County,TN,NA,71.30681818181817,NA
37404,Hamilton County,TN,NA,82.38636363636364,NA
37757,Campbell County,TN,83.33333333333334,NA,NA
37777,Blount County,TN,NA,92.89772727272727,NA
37804,Blount County,TN,NA,57.38636363636363,NA
37871,Jefferson County,TN,NA,NA,91.64420485175202
37874,Monroe County,TN,67.61904761904762,NA,NA
37921,Knox County,TN,NA,36.36363636363637,NA
38002,Shelby County,TN,68.57142857142857,NA,NA
38016,Shelby County,TN,NA,73.01136363636364,NA
38063,Lauderdale County,TN,NA,NA,57.14285714285714
38103,Shelby County,TN,NA,86.64772727272727,NA
38106,Shelby County,TN,NA,NA,61.725067385444746
38107,Shelby County,TN,NA,81.5340909090909,NA
38108,Shelby County,TN,NA,88.06818181818183,NA
38109,Shelby County,TN,NA,NA,21.563342318059302
38112,Shelby County,TN,46.19047619047619,NA,NA
38117,Shelby County,TN,NA,NA,83.28840970350404
38125,Shelby County,TN,NA,45.17045454545455,NA
38127,Shelby County,TN,NA,11.647727272727272,NA
38128,Shelby County,TN,NA,14.488636363636365,NA
38242,Henry County,TN,85.23809523809524,NA,NA
38305,Madison County,TN,NA,76.98863636363636,NA
38372,Hardin County,TN,68.0952380952381,NA,NA
75024,Collin County,TX,NA,NA,73.31536388140162
75115,Dallas County,TX,NA,42.61363636363637,33.42318059299191
75150,Dallas County,TX,NA,NA,69.81132075471697
75211,Dallas County,TX,NA,9.090909090909092,NA
75224,Dallas County,TX,NA,47.72727272727273,NA
75241,Dallas County,TX,NA,33.23863636363637,NA
75243,Dallas County,TX,2.857142857142857,NA,NA
76001,Tarrant County,TX,NA,51.42045454545454,NA
76006,Tarrant County,TX,NA,63.63636363636363,NA
76039,Tarrant County,TX,59.04761904761905,NA,NA
76207,Denton County,TX,NA,NA,88.14016172506739
76244,Tarrant County,TX,NA,51.13636363636363,NA
76542,Bell County,TX,NA,27.84090909090909,NA
76638,McLennan County,TX,97.14285714285714,NA,NA
77027,Harris County,TX,NA,NA,90.56603773584906
77036,Harris County,TX,45.714285714285715,NA,NA
77067,Harris County,TX,58.57142857142858,NA,NA
77375,Harris County,TX,36.19047619047619,NA,NA
77406,Fort Bend County,TX,NA,NA,58.760107816711596
77449,Harris County,TX,NA,NA,20.754716981132077
77506,Harris County,TX,NA,24.71590909090909,NA
77521,Harris County,TX,NA,NA,41.509433962264154
77532,Harris County,TX,71.9047619047619,NA,NA
77535,Liberty County,TX,67.14285714285714,NA,NA
77584,Brazoria County,TX,NA,NA,20.485175202156334
77590,Galveston County,TX,NA,51.70454545454546,NA
77591,Galveston County,TX,NA,51.98863636363637,NA
77630,Orange County,TX,41.904761904761905,NA,55.525606469002696
77703,Jefferson County,TX,NA,NA,83.01886792452831
77705,Jefferson County,TX,55.23809523809524,NA,NA
78023,Bexar County,TX,80,NA,NA
78073,Bexar County,TX,88.09523809523809,NA,NA
78109,Bexar County,TX,NA,25,NA
78211,Bexar County,TX,54.761904761904766,NA,NA
78521,Cameron County,TX,NA,1.4204545454545454,NA
78541,Hidalgo County,TX,43.333333333333336,NA,NA
78660,Travis County,TX,NA,39.48863636363637,NA
78681,Williamson County,TX,42.857142857142854,NA,NA
78749,Travis County,TX,86.66666666666667,NA,NA
78962,Colorado County,TX,NA,NA,95.95687331536388
79107,Potter County,TX,26.190476190476193,NA,47.16981132075472
79407,Lubbock County,TX,NA,79.54545454545455,NA
79735,Pecos County,TX,NA,NA,80.3234501347709
79765,Ector County,TX,NA,NA,81.40161725067385
79905,El Paso County,TX,NA,11.363636363636363,NA
79915,El Paso County,TX,NA,21.022727272727273,67.11590296495957
84066,Duchesne County,UT,NA,NA,72.77628032345014
84074,Tooele County,UT,NA,NA,7.816711590296496
20164,Loudoun County,VA,51.90476190476191,NA,NA
22303,Fairfax County,VA,80.95238095238095,NA,NA
22309,Fairfax County,VA,NA,64.20454545454545,NA
22901,Albemarle County,VA,38.57142857142858,NA,NA
23114,Chesterfield County,VA,NA,90.3409090909091,NA
23117,Louisa County,VA,NA,NA,90.02695417789758
23223,Henrico County,VA,NA,15.056818181818182,NA
23224,Richmond city,VA,NA,17.329545454545457,NA
23225,Richmond city,VA,30.476190476190478,NA,NA
23237,Chesterfield County,VA,NA,53.125,NA
23455,Virginia Beach city,VA,NA,NA,85.71428571428571
23462,Virginia Beach city,VA,NA,42.61363636363637,NA
23504,Norfolk city,VA,NA,22.443181818181817,NA
23669,Hampton city,VA,NA,NA,33.692722371967655
23803,Petersburg city,VA,NA,33.80681818181818,NA
24354,Smyth County,VA,78.0952380952381,NA,NA
24541,Danville city,VA,NA,NA,47.97843665768194
24614,Buchanan County,VA,90.95238095238095,NA,NA
98002,King County,WA,NA,64.48863636363636,NA
98003,King County,WA,NA,NA,75.2021563342318
98006,King County,WA,NA,NA,71.42857142857143
98012,Snohomish County,WA,19.523809523809526,NA,NA
98058,King County,WA,NA,NA,45.01347708894879
98168,King County,WA,NA,NA,45.82210242587601
98178,King County,WA,82.85714285714286,NA,NA
98233,Skagit County,WA,NA,NA,89.75741239892183
98354,Pierce County,WA,81.9047619047619,NA,NA
98502,Thurston County,WA,87.61904761904762,NA,NA
98664,Clark County,WA,NA,90.05681818181817,NA
98908,Yakima County,WA,78.57142857142857,NA,NA
99301,Franklin County,WA,4.761904761904762,NA,NA
99337,Benton County,WA,NA,40.05681818181818,NA
99362,Walla Walla County,WA,NA,NA,38.274932614555254
20007,District of Columbia,DC,NA,99.7159090909091,NA
20017,District of Columbia,DC,NA,91.19318181818183,NA
20019,District of Columbia,DC,45.23809523809524,NA,7.547169811320755
20020,District of Columbia,DC,13.80952380952381,NA,4.0431266846361185
20032,District of Columbia,DC,NA,34.94318181818182,9.973045822102426
25550,Mason County,WV,NA,86.07954545454545,NA
25962,Greenbrier County,WV,NA,NA,94.87870619946092
26105,Wood County,WV,NA,NA,63.61185983827493
53105,Racine County,WI,60,NA,NA
53158,Kenosha County,WI,NA,NA,30.45822102425876
53204,Milwaukee County,WI,NA,NA,12.93800539083558
53205,Milwaukee County,WI,NA,NA,26.68463611859838
53208,Milwaukee County,WI,36.19047619047619,NA,NA
53209,Milwaukee County,WI,NA,16.477272727272727,NA
53210,Milwaukee County,WI,20.952380952380953,NA,15.09433962264151
53216,Milwaukee County,WI,7.6190476190476195,NA,12.129380053908356
53218,Milwaukee County,WI,8.571428571428571,NA,NA
53219,Milwaukee County,WI,27.61904761904762,NA,NA
53223,Milwaukee County,WI,NA,74.43181818181817,NA
53809,Grant County,WI,NA,NA,97.84366576819407
54455,Marathon County,WI,NA,99.43181818181817,NA
54601,La Crosse County,WI,NA,NA,14.016172506738545
54751,Dunn County,WI,37.61904761904762,NA,NA
54971,Fond du Lac County,WI,81.42857142857143,NA,NA
