ZipCode,county,state,Youth,Pediatric,Adult
35453,Tuscaloosa County,AL,NA,NA,66.17210682492582
35504,Walker County,AL,NA,NA,79.97032640949556
35805,Madison County,AL,NA,NA,56.37982195845698
36064,Montgomery County,AL,NA,NA,97.03264094955489
36582,Mobile County,AL,75.90361445783132,NA,NA
36608,Mobile County,AL,48.19277108433735,NA,NA
99507,Anchorage Municipality,AK,NA,NA,43.32344213649852
99576,Dillingham Census Area,AK,83.73493975903614,NA,NA
85008,Maricopa County,AZ,15.060240963855422,NA,NA
85015,Maricopa County,AZ,65.06024096385542,NA,NA
85016,Maricopa County,AZ,NA,NA,54.3026706231454
85021,Maricopa County,AZ,NA,NA,18.694362017804153
85022,Maricopa County,AZ,NA,NA,29.376854599406528
85042,Maricopa County,AZ,NA,NA,36.35014836795252
85131,Pinal County,AZ,NA,56.69642857142857,NA
85210,Maricopa County,AZ,NA,NA,32.195845697329375
85224,Maricopa County,AZ,77.71084337349397,NA,NA
85233,Maricopa County,AZ,NA,NA,51.038575667655785
85249,Maricopa County,AZ,NA,NA,57.27002967359051
85284,Maricopa County,AZ,NA,NA,86.05341246290801
85326,Maricopa County,AZ,NA,34.82142857142857,NA
85364,Yuma County,AZ,NA,22.321428571428573,NA
85365,Yuma County,AZ,NA,NA,71.81008902077151
85379,Maricopa County,AZ,46.3855421686747,NA,NA
85623,Pinal County,AZ,NA,NA,99.25816023738872
85648,Santa Cruz County,AZ,NA,NA,96.58753709198812
85706,Pima County,AZ,NA,NA,25.370919881305635
85737,Pima County,AZ,NA,NA,92.28486646884274
85745,Pima County,AZ,NA,NA,69.28783382789318
85746,Pima County,AZ,NA,NA,19.584569732937684
85755,Pima County,AZ,NA,NA,96.88427299703264
86040,Coconino County,AZ,NA,NA,75.66765578635015
86401,Mohave County,AZ,NA,NA,45.40059347181009
72058,Faulkner County,AR,NA,NA,89.16913946587538
90007,Los Angeles County,CA,NA,NA,72.55192878338279
90016,Los Angeles County,CA,NA,NA,54.74777448071217
90017,Los Angeles County,CA,NA,79.91071428571429,NA
90033,Los Angeles County,CA,NA,NA,54.89614243323442
90045,Los Angeles County,CA,NA,NA,99.55489614243324
90630,Orange County,CA,NA,NA,59.19881305637982
91304,Los Angeles County,CA,NA,66.07142857142857,NA
91331,Los Angeles County,CA,NA,NA,18.397626112759642
91340,Los Angeles County,CA,NA,NA,74.4807121661721
91352,Los Angeles County,CA,NA,NA,35.311572700296736
91406,Los Angeles County,CA,NA,NA,62.908011869436194
91604,Los Angeles County,CA,NA,NA,69.58456973293768
91606,Los Angeles County,CA,80.12048192771084,NA,NA
91790,Los Angeles County,CA,NA,NA,63.353115727002965
91792,Los Angeles County,CA,92.7710843373494,NA,NA
92025,San Diego County,CA,NA,NA,59.05044510385756
92027,San Diego County,CA,NA,29.464285714285715,NA
92262,Riverside County,CA,57.831325301204814,NA,NA
92336,San Bernardino County,CA,NA,NA,46.58753709198813
92374,San Bernardino County,CA,NA,75.44642857142857,NA
92376,San Bernardino County,CA,NA,NA,14.688427299703264
92553,Riverside County,CA,NA,NA,36.795252225519285
92586,Riverside County,CA,95.18072289156626,NA,NA
92595,Riverside County,CA,NA,NA,51.48367952522255
92620,Orange County,CA,NA,NA,55.19287833827893
92653,Orange County,CA,NA,92.41071428571429,NA
92677,Orange County,CA,NA,NA,42.433234421364986
92706,Orange County,CA,NA,59.82142857142857,NA
92707,Orange County,CA,NA,NA,53.70919881305638
92869,Orange County,CA,NA,71.42857142857143,NA
92880,Riverside County,CA,NA,NA,31.305637982195844
92881,Riverside County,CA,NA,NA,83.53115727002968
93001,Ventura County,CA,NA,76.78571428571429,84.71810089020771
93003,Ventura County,CA,NA,NA,57.418397626112764
93030,Ventura County,CA,NA,50.44642857142857,NA
93033,Ventura County,CA,4.819277108433735,NA,NA
93036,Ventura County,CA,NA,NA,39.910979228486646
93101,Santa Barbara County,CA,NA,NA,95.25222551928783
93215,Kern County,CA,NA,NA,90.3560830860534
93221,Tulare County,CA,NA,83.48214285714286,NA
93257,Tulare County,CA,NA,NA,20.178041543026705
93405,San Luis Obispo County,CA,NA,NA,82.93768545994065
93420,San Luis Obispo County,CA,NA,72.76785714285714,NA
93434,Santa Barbara County,CA,NA,NA,98.07121661721068
93436,Santa Barbara County,CA,NA,NA,24.92581602373887
93446,San Luis Obispo County,CA,NA,NA,36.49851632047478
93451,San Luis Obispo County,CA,NA,96.42857142857143,NA
93455,Santa Barbara County,CA,NA,NA,41.246290801186944
93535,Los Angeles County,CA,30.72289156626506,NA,NA
93611,Fresno County,CA,NA,NA,47.774480712166174
93619,Fresno County,CA,NA,NA,82.7893175074184
93654,Fresno County,CA,NA,NA,64.54005934718101
93726,Fresno County,CA,41.566265060240966,NA,NA
94062,San Mateo County,CA,NA,NA,67.06231454005935
94080,San Mateo County,CA,NA,NA,41.839762611275965
94086,Santa Clara County,CA,NA,NA,70.62314540059347
94102,San Francisco County,CA,NA,NA,13.353115727002967
94109,San Francisco County,CA,NA,NA,37.833827893175076
94121,San Francisco County,CA,NA,NA,94.65875370919882
94124,San Francisco County,CA,54.81927710843374,NA,NA
94132,San Francisco County,CA,85.54216867469879,NA,NA
94501,Alameda County,CA,NA,NA,48.516320474777444
94518,Contra Costa County,CA,NA,NA,86.94362017804154
94523,Contra Costa County,CA,NA,NA,77.59643916913946
94555,Alameda County,CA,NA,NA,77.44807121661721
94565,Contra Costa County,CA,NA,NA,81.00890207715133
94577,Alameda County,CA,NA,NA,47.032640949554896
94580,Alameda County,CA,NA,NA,86.20178041543026
94587,Alameda County,CA,NA,NA,45.99406528189911
94605,Alameda County,CA,NA,NA,68.69436201780415
94621,Alameda County,CA,NA,NA,75.22255192878339
94709,Alameda County,CA,NA,NA,100
95118,Santa Clara County,CA,NA,NA,73.29376854599407
95128,Santa Clara County,CA,NA,NA,46.73590504451038
95203,San Joaquin County,CA,NA,NA,90.50445103857567
95240,San Joaquin County,CA,NA,NA,24.480712166172104
95316,Stanislaus County,CA,NA,NA,95.99406528189911
95327,Tuolumne County,CA,NA,NA,93.91691394658753
95336,San Joaquin County,CA,NA,57.58928571428571,NA
95358,Stanislaus County,CA,NA,NA,39.61424332344214
95380,Stanislaus County,CA,NA,55.35714285714286,NA
95503,Humboldt County,CA,NA,NA,60.38575667655787
95610,Sacramento County,CA,NA,NA,57.12166172106825
95695,Yolo County,CA,NA,NA,77.00296735905044
95776,Yolo County,CA,NA,NA,92.58160237388724
95821,Sacramento County,CA,NA,NA,83.23442136498517
95829,Sacramento County,CA,NA,NA,85.16320474777447
95928,Butte County,CA,NA,NA,44.06528189910979
95953,Sutter County,CA,NA,NA,89.31750741839762
95973,Butte County,CA,NA,NA,32.047477744807125
95988,Glenn County,CA,NA,NA,89.91097922848664
80204,Denver County,CO,NA,NA,31.15727002967359
80501,Boulder County,CO,NA,NA,29.821958456973295
80538,Larimer County,CO,NA,NA,19.13946587537092
80909,El Paso County,CO,NA,NA,34.56973293768546
80910,El Paso County,CO,NA,41.517857142857146,NA
81101,Alamosa County,CO,NA,NA,55.48961424332344
81212,Fremont County,CO,NA,NA,50.89020771513353
81601,Garfield County,CO,NA,NA,87.3887240356083
06002,Hartford County,CT,NA,NA,60.682492581602375
06010,Hartford County,CT,NA,29.910714285714285,3.2640949554896146
06051,Hartford County,CT,NA,NA,7.270029673590504
06053,Hartford County,CT,28.915662650602407,NA,NA
06082,Hartford County,CT,32.53012048192771,NA,NA
06117,Hartford County,CT,NA,NA,81.89910979228486
06118,Hartford County,CT,50,NA,NA
06226,Windham County,CT,NA,48.214285714285715,NA
06238,Tolland County,CT,NA,NA,79.22848664688428
06405,New Haven County,CT,NA,80.80357142857143,52.07715133531158
06450,New Haven County,CT,NA,NA,10.237388724035608
06451,New Haven County,CT,NA,NA,69.13946587537092
06511,New Haven County,CT,NA,16.964285714285715,NA
06513,New Haven County,CT,NA,17.410714285714285,NA
06516,New Haven County,CT,NA,27.232142857142854,NA
06607,Fairfield County,CT,NA,NA,89.02077151335311
06610,Fairfield County,CT,NA,NA,70.91988130563797
06708,New Haven County,CT,NA,NA,31.750741839762615
06830,Fairfield County,CT,NA,77.67857142857143,NA
19702,New Castle County,DE,NA,NA,23.887240356083087
19805,New Castle County,DE,NA,NA,5.192878338278932
19958,Sussex County,DE,NA,NA,43.768545994065285
19973,Sussex County,DE,NA,NA,24.629080118694365
19977,Kent County,DE,NA,NA,32.34421364985163
32209,Duval County,FL,21.686746987951807,33.92857142857143,NA
32503,Escambia County,FL,63.25301204819277,NA,NA
32505,Escambia County,FL,NA,44.19642857142857,NA
32565,Santa Rosa County,FL,NA,NA,87.98219584569733
32583,Santa Rosa County,FL,NA,62.94642857142857,NA
32724,Volusia County,FL,NA,NA,65.43026706231454
33015,Miami-Dade County,FL,NA,NA,87.24035608308606
33025,Broward County,FL,NA,41.07142857142857,NA
33055,Miami-Dade County,FL,NA,54.01785714285714,NA
33125,Miami-Dade County,FL,36.144578313253014,NA,NA
33324,Broward County,FL,74.09638554216868,NA,NA
33471,Glades County,FL,NA,96.875,NA
33612,Hillsborough County,FL,NA,NA,16.913946587537094
33701,Pinellas County,FL,NA,NA,85.45994065281899
33707,Pinellas County,FL,NA,NA,71.06824925816024
33810,Polk County,FL,NA,31.25,NA
33830,Polk County,FL,NA,45.982142857142854,46.14243323442137
33947,Charlotte County,FL,NA,NA,96.73590504451039
33952,Charlotte County,FL,54.21686746987952,NA,NA
33983,Charlotte County,FL,69.27710843373494,NA,NA
34104,Collier County,FL,89.7590361445783,NA,NA
34116,Collier County,FL,NA,NA,59.19881305637982
34473,Marion County,FL,NA,NA,60.089020771513354
34613,Hernando County,FL,NA,87.05357142857143,NA
34688,Pinellas County,FL,99.3975903614458,NA,NA
34982,St. Lucie County,FL,NA,NA,64.09495548961425
30013,Rockdale County,GA,NA,NA,57.71513353115727
30080,Cobb County,GA,69.87951807228916,NA,NA
30084,DeKalb County,GA,NA,83.92857142857143,NA
30153,Polk County,GA,NA,NA,52.37388724035609
30223,Spalding County,GA,53.01204819277109,NA,47.92284866468843
30228,Henry County,GA,NA,NA,40.50445103857567
30241,Troup County,GA,NA,NA,37.53709198813057
30316,DeKalb County,GA,NA,NA,64.39169139465875
30349,Fulton County,GA,NA,49.55357142857143,NA
30436,Toombs County,GA,NA,91.96428571428571,NA
31055,Telfair County,GA,98.79518072289156,NA,NA
31206,Bibb County,GA,75.30120481927712,NA,NA
31513,Appling County,GA,94.57831325301204,NA,NA
31605,Lowndes County,GA,71.6867469879518,NA,NA
31792,Thomas County,GA,NA,82.14285714285714,NA
31904,Muscogee County,GA,NA,NA,74.62908011869436
39817,Decatur County,GA,NA,72.76785714285714,NA
96707,Honolulu County,HI,NA,75.44642857142857,NA
96720,Hawaii County,HI,NA,65.17857142857143,NA
96744,Honolulu County,HI,NA,NA,29.376854599406528
96746,Kauai County,HI,NA,NA,76.70623145400593
96778,Hawaii County,HI,NA,NA,80.26706231454006
96816,Honolulu County,HI,NA,85.26785714285714,NA
96817,Honolulu County,HI,NA,34.375,NA
96819,Honolulu County,HI,NA,47.32142857142857,NA
83338,Jerome County,ID,NA,NA,66.61721068249258
83706,Ada County,ID,NA,NA,38.724035608308604
83854,Kootenai County,ID,35.54216867469879,NA,NA
60074,Cook County,IL,NA,NA,53.11572700296736
60104,Cook County,IL,NA,NA,51.038575667655785
60108,DuPage County,IL,NA,NA,69.73293768545994
60126,DuPage County,IL,NA,NA,16.172106824925816
60142,McHenry County,IL,87.95180722891565,NA,NA
60148,DuPage County,IL,NA,NA,23.14540059347181
60171,Cook County,IL,NA,NA,91.54302670623146
60302,Cook County,IL,NA,NA,43.62017804154303
60401,Will County,IL,NA,NA,97.92284866468842
60402,Cook County,IL,NA,NA,18.100890207715135
60410,Will County,IL,NA,NA,60.23738872403561
60416,Grundy County,IL,NA,NA,71.51335311572701
60423,Will County,IL,77.10843373493977,NA,NA
60443,Cook County,IL,66.86746987951807,NA,57.86350148367953
60451,Will County,IL,23.49397590361446,NA,NA
60453,Cook County,IL,NA,NA,21.66172106824926
60455,Cook County,IL,NA,NA,61.72106824925816
60605,Cook County,IL,NA,NA,70.17804154302671
60607,Cook County,IL,NA,NA,61.42433234421365
60609,Cook County,IL,NA,NA,68.5459940652819
60612,Cook County,IL,38.55421686746988,NA,NA
60614,Cook County,IL,NA,NA,66.02373887240356
60617,Cook County,IL,NA,NA,12.166172106824925
60619,Cook County,IL,5.421686746987952,NA,11.275964391691394
60638,Cook County,IL,NA,NA,15.875370919881307
60639,Cook County,IL,NA,NA,15.43026706231454
60643,Cook County,IL,NA,NA,42.87833827893175
60805,Cook County,IL,NA,NA,82.19584569732937
60954,Kankakee County,IL,NA,NA,85.7566765578635
61108,Winnebago County,IL,NA,NA,67.65578635014838
61856,Piatt County,IL,NA,NA,97.18100890207715
46516,Elkhart County,IN,NA,NA,25.96439169139466
46563,Marshall County,IN,NA,NA,51.92878338278932
46628,St. Joseph County,IN,62.65060240963856,NA,NA
46809,Allen County,IN,NA,NA,67.95252225519289
46953,Grant County,IN,NA,NA,18.24925816023739
47001,Dearborn County,IN,NA,NA,89.76261127596439
47302,Delaware County,IN,NA,NA,27.299703264094955
47711,Vanderburgh County,IN,64.45783132530121,NA,NA
47909,Tippecanoe County,IN,NA,NA,50.29673590504451
50138,Marion County,IA,NA,NA,87.83382789317507
50309,Polk County,IA,NA,NA,69.8813056379822
50310,Polk County,IA,NA,NA,64.2433234421365
50313,Polk County,IA,NA,NA,50.445103857566764
50320,Polk County,IA,NA,68.30357142857143,NA
50616,Floyd County,IA,NA,NA,76.70623145400593
50801,Union County,IA,NA,92.85714285714286,94.3620178041543
52003,Dubuque County,IA,NA,95.53571428571429,NA
52101,Winneshiek County,IA,97.59036144578313,NA,NA
52241,Johnson County,IA,NA,NA,85.01483679525222
66030,Johnson County,KS,NA,NA,65.72700296735906
66061,Johnson County,KS,NA,NA,28.635014836795254
40360,Bath County,KY,NA,NA,74.1839762611276
40509,Fayette County,KY,NA,64.28571428571429,NA
40741,Laurel County,KY,NA,NA,66.46884272997032
40769,Whitley County,KY,NA,NA,43.02670623145401
42320,Ohio County,KY,NA,NA,63.05637982195845
70062,Jefferson Parish,LA,NA,NA,78.48664688427299
70072,Jefferson Parish,LA,0,NA,NA
70075,St. Bernard Parish,LA,NA,NA,94.95548961424333
70094,Jefferson Parish,LA,NA,NA,9.050445103857568
70114,Orleans Parish,LA,NA,NA,16.320474777448073
70123,Jefferson Parish,LA,NA,NA,27.44807121661721
70127,Orleans Parish,LA,NA,NA,12.611275964391691
70130,Orleans Parish,LA,NA,NA,54.00593471810089
70374,Lafourche Parish,LA,NA,37.05357142857143,NA
70394,Lafourche Parish,LA,NA,NA,29.673590504451035
70454,Tangipahoa Parish,LA,NA,NA,14.391691394658753
70458,St. Tammany Parish,LA,NA,NA,9.643916913946587
70517,St. Martin Parish,LA,NA,NA,19.881305637982198
70592,Lafayette Parish,LA,NA,NA,39.02077151335311
70634,Beauregard Parish,LA,NA,NA,35.16320474777448
70726,Livingston Parish,LA,NA,NA,2.6706231454005933
70791,East Baton Rouge Parish,LA,NA,62.05357142857143,NA
70802,East Baton Rouge Parish,LA,NA,39.732142857142854,NA
70805,East Baton Rouge Parish,LA,NA,NA,5.637982195845697
71037,Bossier Parish,LA,20.481927710843372,NA,NA
71108,Caddo Parish,LA,NA,10.267857142857142,NA
71118,Caddo Parish,LA,NA,17.857142857142858,30.56379821958457
71202,Ouachita Parish,LA,NA,9.821428571428571,NA
71235,Lincoln Parish,LA,NA,NA,97.3293768545994
04062,Cumberland County,ME,NA,74.55357142857143,NA
04092,Cumberland County,ME,NA,NA,50.14836795252226
04103,Cumberland County,ME,NA,54.91071428571429,NA
04106,Cumberland County,ME,NA,NA,44.80712166172107
04240,Androscoggin County,ME,7.83132530120482,NA,3.857566765578635
04401,Penobscot County,ME,NA,NA,3.7091988130563793
04468,Penobscot County,ME,NA,NA,78.63501483679525
04605,Hancock County,ME,NA,50.89285714285714,NA
04736,Aroostook County,ME,NA,NA,63.20474777448071
04938,Franklin County,ME,NA,NA,62.46290801186943
04950,Somerset County,ME,NA,NA,83.67952522255193
20653,St. Mary's County,MD,NA,NA,75.22255192878339
20707,Prince George's County,MD,88.55421686746988,NA,NA
21218,Baltimore city,MD,NA,NA,46.439169139465875
21220,Baltimore County,MD,NA,NA,26.706231454005934
21224,Baltimore city,MD,42.168674698795186,NA,NA
21229,Baltimore city,MD,NA,NA,26.55786350148368
21911,Cecil County,MD,90.36144578313254,NA,NA
21921,Cecil County,MD,NA,100,NA
01002,Hampshire County,MA,NA,NA,48.96142433234421
01013,Hampden County,MA,NA,NA,5.786350148367952
01069,Hampden County,MA,NA,NA,38.13056379821958
01082,Hampshire County,MA,NA,NA,34.718100890207715
01104,Hampden County,MA,NA,NA,2.0771513353115725
01107,Hampden County,MA,60.8433734939759,NA,NA
01109,Hampden County,MA,NA,NA,32.789317507418396
01119,Hampden County,MA,NA,NA,25.222551928783382
01201,Berkshire County,MA,NA,NA,1.7804154302670623
01331,Worcester County,MA,83.13253012048193,NA,90.80118694362018
01420,Worcester County,MA,NA,NA,4.896142433234421
01532,Worcester County,MA,NA,NA,59.64391691394659
01535,Worcester County,MA,NA,NA,88.57566765578635
01545,Worcester County,MA,NA,NA,26.112759643916917
01602,Worcester County,MA,NA,NA,61.86943620178042
01609,Worcester County,MA,NA,NA,5.341246290801187
01610,Worcester County,MA,NA,NA,21.068249258160236
01757,Worcester County,MA,NA,NA,4.005934718100891
01801,Middlesex County,MA,NA,NA,89.61424332344214
01824,Middlesex County,MA,NA,NA,15.133531157270031
01832,Essex County,MA,17.46987951807229,NA,NA
01843,Essex County,MA,NA,15.178571428571427,NA
01890,Middlesex County,MA,NA,NA,55.934718100890215
01902,Essex County,MA,NA,4.017857142857143,NA
01923,Essex County,MA,NA,NA,46.88427299703264
02021,Norfolk County,MA,NA,NA,40.35608308605341
02035,Norfolk County,MA,NA,NA,42.13649851632047
02043,Plymouth County,MA,NA,NA,48.21958456973294
02045,Plymouth County,MA,NA,NA,42.581602373887236
02052,Norfolk County,MA,96.3855421686747,NA,NA
02056,Norfolk County,MA,93.37349397590361,NA,NA
02115,Suffolk County,MA,NA,NA,11.42433234421365
02118,Suffolk County,MA,NA,NA,0.1483679525222552
02119,Suffolk County,MA,NA,6.696428571428571,2.522255192878338
02121,Suffolk County,MA,NA,4.910714285714286,0.741839762611276
02122,Suffolk County,MA,NA,37.5,NA
02124,Suffolk County,MA,NA,0.8928571428571428,3.5608308605341246
02127,Suffolk County,MA,NA,NA,87.68545994065282
02128,Suffolk County,MA,NA,11.160714285714286,NA
02129,Suffolk County,MA,NA,24.107142857142858,NA
02130,Suffolk County,MA,NA,NA,62.759643916913944
02131,Suffolk County,MA,NA,NA,2.3738872403560833
02134,Suffolk County,MA,NA,NA,70.32640949554896
02135,Suffolk County,MA,NA,NA,29.970326409495552
02136,Suffolk County,MA,NA,NA,52.818991097922854
02138,Middlesex County,MA,40.36144578313253,NA,18.991097922848667
02139,Middlesex County,MA,15.66265060240964,NA,4.747774480712167
02141,Middlesex County,MA,NA,NA,72.99703264094956
02143,Middlesex County,MA,NA,NA,9.792284866468842
02145,Middlesex County,MA,NA,NA,76.26112759643917
02148,Middlesex County,MA,NA,4.464285714285714,0.8902077151335311
02149,Middlesex County,MA,NA,NA,0.2967359050445104
02150,Suffolk County,MA,NA,NA,19.43620178041543
02151,Suffolk County,MA,NA,NA,35.90504451038576
02155,Middlesex County,MA,6.024096385542169,NA,11.869436201780417
02176,Middlesex County,MA,NA,NA,39.762611275964396
02189,Norfolk County,MA,NA,NA,33.08605341246291
02301,Plymouth County,MA,NA,NA,0
02302,Plymouth County,MA,NA,14.285714285714285,NA
02368,Norfolk County,MA,NA,NA,53.85756676557863
02421,Middlesex County,MA,NA,NA,27.74480712166172
02452,Middlesex County,MA,NA,NA,73.88724035608308
02476,Middlesex County,MA,NA,70.53571428571429,NA
02554,Nantucket County,MA,NA,NA,42.72997032640949
02563,Barnstable County,MA,NA,NA,94.06528189910979
02571,Plymouth County,MA,NA,NA,20.623145400593472
02632,Barnstable County,MA,NA,NA,61.275964391691396
02703,Bristol County,MA,NA,NA,1.483679525222552
02717,Bristol County,MA,NA,NA,90.94955489614243
02718,Bristol County,MA,NA,NA,87.53709198813057
02720,Bristol County,MA,NA,NA,4.302670623145401
02746,Bristol County,MA,39.1566265060241,NA,NA
48014,St. Clair County,MI,NA,NA,98.66468842729971
48021,Macomb County,MI,NA,73.66071428571429,NA
48035,Macomb County,MI,NA,59.375,NA
48038,Macomb County,MI,26.506024096385545,NA,NA
48044,Macomb County,MI,NA,NA,13.501483679525222
48066,Macomb County,MI,NA,NA,26.85459940652819
48072,Oakland County,MI,NA,NA,62.46290801186943
48092,Macomb County,MI,71.08433734939759,NA,NA
48101,Wayne County,MI,78.3132530120482,NA,NA
48103,Washtenaw County,MI,NA,45.535714285714285,23.590504451038576
48104,Washtenaw County,MI,NA,NA,58.753709198813056
48105,Washtenaw County,MI,NA,NA,49.85163204747774
48117,Monroe County,MI,NA,NA,63.353115727002965
48118,Washtenaw County,MI,NA,NA,86.64688427299704
48126,Wayne County,MI,NA,13.392857142857142,NA
48134,Wayne County,MI,NA,77.67857142857143,NA
48138,Wayne County,MI,89.1566265060241,NA,NA
48141,Wayne County,MI,25.301204819277107,NA,13.94658753709199
48146,Wayne County,MI,NA,20.089285714285715,NA
48176,Washtenaw County,MI,NA,NA,51.33531157270029
48180,Wayne County,MI,4.216867469879518,NA,80.56379821958457
48183,Wayne County,MI,NA,NA,65.13353115727003
48185,Wayne County,MI,NA,NA,9.940652818991099
48186,Wayne County,MI,NA,NA,10.682492581602373
48195,Wayne County,MI,NA,NA,33.67952522255193
48198,Washtenaw County,MI,NA,NA,75.07418397626114
48214,Wayne County,MI,NA,NA,28.486646884272997
48216,Wayne County,MI,NA,NA,98.51632047477746
48219,Wayne County,MI,NA,NA,8.753709198813056
48221,Wayne County,MI,NA,35.714285714285715,NA
48227,Wayne County,MI,NA,14.732142857142858,6.231454005934718
48228,Wayne County,MI,NA,NA,17.210682492581604
48234,Wayne County,MI,11.44578313253012,NA,NA
48236,Wayne County,MI,51.80722891566265,NA,NA
48302,Oakland County,MI,NA,99.10714285714286,NA
48310,Macomb County,MI,NA,NA,24.777448071216618
48315,Macomb County,MI,58.43373493975904,NA,NA
48346,Oakland County,MI,NA,NA,47.47774480712167
48386,Oakland County,MI,NA,97.76785714285714,71.81008902077151
48504,Genesee County,MI,NA,25.44642857142857,NA
48642,Midland County,MI,NA,NA,28.041543026706233
48708,Bay County,MI,NA,NA,13.204747774480714
49017,Calhoun County,MI,NA,NA,39.46587537091988
49037,Calhoun County,MI,NA,NA,23.14540059347181
49201,Jackson County,MI,NA,NA,14.243323442136498
49203,Jackson County,MI,37.34939759036144,NA,NA
49221,Lenawee County,MI,NA,NA,7.566765578635016
49442,Muskegon County,MI,NA,NA,27.1513353115727
49444,Muskegon County,MI,NA,38.392857142857146,NA
49503,Kent County,MI,NA,NA,16.765578635014837
49504,Kent County,MI,NA,NA,22.255192878338278
49507,Kent County,MI,NA,37.94642857142857,34.42136498516321
49508,Kent County,MI,NA,NA,35.75667655786351
49509,Kent County,MI,NA,NA,20.02967359050445
49512,Kent County,MI,NA,81.69642857142857,NA
49686,Grand Traverse County,MI,NA,NA,59.495548961424326
55306,Dakota County,MN,NA,NA,93.32344213649851
55328,Wright County,MN,NA,NA,95.54896142433235
55343,Hennepin County,MN,NA,59.82142857142857,NA
55346,Hennepin County,MN,NA,NA,92.43323442136499
55404,Hennepin County,MN,NA,NA,1.9287833827893175
55407,Hennepin County,MN,10.843373493975903,NA,NA
55411,Hennepin County,MN,NA,NA,5.489614243323442
55412,Hennepin County,MN,NA,NA,88.13056379821958
55425,Hennepin County,MN,NA,88.83928571428571,NA
55430,Hennepin County,MN,NA,61.60714285714286,NA
55448,Anoka County,MN,NA,NA,51.632047477744806
55454,Hennepin County,MN,NA,NA,97.77448071216617
55744,Itasca County,MN,NA,NA,24.33234421364985
55746,St. Louis County,MN,NA,42.410714285714285,35.01483679525222
55901,Olmsted County,MN,NA,NA,36.053412462908014
55912,Mower County,MN,NA,NA,11.72106824925816
55987,Winona County,MN,NA,NA,41.839762611275965
56058,Le Sueur County,MN,100,NA,NA
56187,Nobles County,MN,66.26506024096386,NA,NA
56301,Stearns County,MN,NA,NA,55.34124629080118
56401,Crow Wing County,MN,NA,NA,45.25222551928783
56431,Aitkin County,MN,NA,NA,80.86053412462908
56482,Wadena County,MN,NA,NA,60.534124629080125
56601,Beltrami County,MN,NA,NA,10.83086053412463
56630,Beltrami County,MN,NA,91.51785714285714,NA
56716,Polk County,MN,NA,84.375,NA
56721,Polk County,MN,NA,NA,64.83679525222553
38701,Washington County,MS,NA,60.71428571428571,NA
39154,Hinds County,MS,96.98795180722891,NA,NA
39204,Hinds County,MS,NA,39.285714285714285,NA
39206,Hinds County,MS,NA,NA,38.4272997032641
39213,Hinds County,MS,NA,33.035714285714285,NA
39401,Forrest County,MS,NA,62.5,NA
39501,Harrison County,MS,NA,20.535714285714285,NA
39503,Harrison County,MS,NA,19.196428571428573,NA
39532,Harrison County,MS,NA,NA,54.89614243323442
63031,St. Louis County,MO,31.92771084337349,NA,NA
63033,St. Louis County,MO,27.10843373493976,NA,NA
63050,Jefferson County,MO,NA,NA,83.08605341246292
63334,Pike County,MO,86.14457831325302,NA,NA
63552,Macon County,MO,93.97590361445783,NA,NA
64055,Jackson County,MO,NA,NA,12.908011869436201
64063,Jackson County,MO,NA,70.98214285714286,NA
64078,Cass County,MO,87.34939759036145,NA,NA
64111,Jackson County,MO,NA,NA,35.60830860534125
64134,Jackson County,MO,8.433734939759036,NA,NA
64454,Clinton County,MO,NA,NA,98.3679525222552
64744,Cedar County,MO,NA,75,NA
65013,Maries County,MO,NA,86.16071428571429,NA
65202,Boone County,MO,NA,NA,48.367952522255194
65203,Boone County,MO,NA,NA,33.976261127596445
65340,Saline County,MO,NA,NA,44.65875370919881
65559,Phelps County,MO,NA,NA,88.72403560830861
65613,Polk County,MO,NA,NA,68.10089020771514
59405,Cascade County,MT,NA,NA,38.57566765578635
68310,Gage County,NE,NA,87.94642857142857,NA
03052,Hillsborough County,NH,NA,NA,82.64094955489614
03060,Hillsborough County,NH,25.903614457831324,NA,NA
03062,Hillsborough County,NH,NA,NA,27.002967359050444
03743,Sullivan County,NH,59.036144578313255,NA,NA
03833,Rockingham County,NH,NA,NA,48.6646884272997
03870,Rockingham County,NH,NA,NA,99.85163204747775
07002,Hudson County,NJ,NA,NA,58.902077151335305
07005,Morris County,NJ,NA,NA,42.28486646884273
07030,Hudson County,NJ,NA,NA,70.77151335311572
07111,Essex County,NJ,NA,5.357142857142857,NA
07112,Essex County,NJ,28.313253012048197,NA,NA
07524,Passaic County,NJ,NA,NA,39.16913946587537
07712,Monmouth County,NJ,NA,19.642857142857142,5.934718100890208
07735,Monmouth County,NJ,NA,NA,41.3946587537092
08012,Camden County,NJ,NA,NA,35.459940652818986
08046,Burlington County,NJ,NA,NA,10.979228486646884
08401,Atlantic County,NJ,NA,25.892857142857146,NA
08618,Mercer County,NJ,NA,NA,11.572700296735905
08723,Ocean County,NJ,NA,NA,24.183976261127597
08854,Middlesex County,NJ,NA,NA,13.649851632047477
08861,Middlesex County,NJ,7.228915662650602,NA,2.225519287833828
08873,Somerset County,NJ,NA,NA,22.8486646884273
87105,Bernalillo County,NM,NA,NA,7.418397626112759
87106,Bernalillo County,NM,NA,82.58928571428571,NA
87121,Bernalillo County,NM,NA,8.928571428571429,NA
87313,McKinley County,NM,NA,66.07142857142857,NA
88001,Doa Ana County,NM,19.879518072289155,NA,NA
10001,New York County,NY,36.74698795180723,NA,NA
10002,New York County,NY,NA,12.053571428571429,NA
10009,New York County,NY,53.01204819277109,NA,NA
10019,New York County,NY,NA,NA,73.73887240356083
10023,New York County,NY,NA,NA,59.79228486646885
10027,New York County,NY,NA,46.875,52.967359050445104
10029,New York County,NY,NA,0,43.47181008902077
10030,New York County,NY,NA,NA,31.899109792284868
10032,New York County,NY,NA,NA,85.90504451038575
10033,New York County,NY,NA,NA,85.31157270029674
10038,New York County,NY,NA,NA,58.30860534124629
10039,New York County,NY,NA,NA,40.0593471810089
10040,New York County,NY,NA,NA,41.69139465875371
10306,Richmond County,NY,NA,NA,62.31454005934718
10310,Richmond County,NY,NA,45.089285714285715,NA
10451,Bronx County,NY,NA,7.5892857142857135,5.044510385756676
10452,Bronx County,NY,NA,1.7857142857142856,NA
10453,Bronx County,NY,0.6024096385542169,NA,1.3353115727002967
10455,Bronx County,NY,NA,16.517857142857142,NA
10456,Bronx County,NY,NA,0.4464285714285714,0.44510385756676557
10457,Bronx County,NY,NA,8.482142857142858,1.0385756676557862
10458,Bronx County,NY,2.4096385542168677,1.3392857142857142,8.160237388724036
10459,Bronx County,NY,NA,NA,8.605341246290802
10462,Bronx County,NY,NA,NA,11.127596439169139
10466,Bronx County,NY,NA,7.142857142857142,8.011869436201781
10467,Bronx County,NY,NA,20.982142857142858,20.474777448071215
10468,Bronx County,NY,29.518072289156628,NA,32.93768545994065
10469,Bronx County,NY,NA,15.625,NA
10705,Westchester County,NY,NA,NA,15.578635014836795
10927,Rockland County,NY,NA,NA,93.32344213649851
10977,Rockland County,NY,NA,NA,40.94955489614243
11101,Queens County,NY,NA,NA,67.35905044510386
11203,Kings County,NY,NA,NA,15.281899109792285
11206,Kings County,NY,NA,6.25,4.599406528189911
11207,Kings County,NY,NA,2.232142857142857,NA
11208,Kings County,NY,NA,NA,1.6320474777448073
11209,Kings County,NY,NA,NA,76.11275964391692
11212,Kings County,NY,NA,3.571428571428571,12.462908011869436
11213,Kings County,NY,NA,23.214285714285715,8.902077151335313
11214,Kings County,NY,NA,23.660714285714285,NA
11217,Kings County,NY,NA,NA,81.15727002967358
11218,Kings County,NY,NA,NA,25.519287833827892
11219,Kings County,NY,42.77108433734939,NA,NA
11220,Kings County,NY,9.036144578313253,8.035714285714286,6.6765578635014835
11223,Kings County,NY,NA,NA,30.267062314540063
11226,Kings County,NY,NA,24.553571428571427,NA
11232,Kings County,NY,NA,NA,98.81305637982196
11233,Kings County,NY,NA,12.946428571428573,2.8189910979228485
11234,Kings County,NY,NA,30.357142857142854,NA
11236,Kings County,NY,NA,NA,7.71513353115727
11238,Kings County,NY,NA,NA,80.1186943620178
11239,Kings County,NY,NA,NA,93.17507418397626
11368,Queens County,NY,NA,NA,12.01780415430267
11370,Queens County,NY,NA,NA,59.940652818991104
11374,Queens County,NY,NA,NA,78.18991097922849
11416,Queens County,NY,NA,49.107142857142854,NA
11417,Queens County,NY,NA,NA,93.62017804154303
11419,Queens County,NY,NA,32.589285714285715,NA
11429,Queens County,NY,NA,NA,94.21364985163204
11432,Queens County,NY,NA,58.92857142857143,NA
11434,Queens County,NY,NA,NA,21.66172106824926
11435,Queens County,NY,51.80722891566265,NA,NA
11436,Queens County,NY,NA,68.30357142857143,NA
11691,Queens County,NY,18.67469879518072,NA,NA
11746,Suffolk County,NY,72.28915662650603,NA,NA
11778,Suffolk County,NY,NA,NA,90.65281899109793
11949,Suffolk County,NY,NA,NA,98.96142433234422
12068,Montgomery County,NY,NA,NA,99.40652818991099
12182,Rensselaer County,NY,NA,85.26785714285714,NA
12205,Albany County,NY,NA,NA,63.94658753709199
12302,Schenectady County,NY,68.67469879518072,NA,NA
12304,Schenectady County,NY,NA,56.25,NA
12538,Dutchess County,NY,NA,NA,97.47774480712165
12566,Ulster County,NY,NA,NA,96.14243323442136
12754,Sullivan County,NY,NA,NA,87.0919881305638
12803,Saratoga County,NY,NA,NA,77.74480712166172
12804,Warren County,NY,NA,NA,13.798219584569733
12944,Essex County,NY,NA,NA,84.1246290801187
12946,Essex County,NY,NA,NA,45.6973293768546
13027,Onondaga County,NY,NA,NA,20.919881305637983
13069,Oswego County,NY,NA,NA,9.198813056379821
13088,Onondaga County,NY,NA,97.32142857142857,NA
13126,Oswego County,NY,NA,NA,7.121661721068249
13204,Onondaga County,NY,16.867469879518072,NA,NA
13205,Onondaga County,NY,NA,NA,19.73293768545994
13206,Onondaga County,NY,NA,NA,34.124629080118694
13208,Onondaga County,NY,NA,NA,70.47477744807121
13211,Onondaga County,NY,NA,88.83928571428571,NA
13219,Onondaga County,NY,NA,NA,67.06231454005935
13346,Madison County,NY,NA,NA,76.55786350148368
13357,Herkimer County,NY,NA,NA,45.54896142433235
13402,Madison County,NY,NA,NA,98.96142433234422
13440,Oneida County,NY,NA,NA,3.4124629080118694
13452,Montgomery County,NY,NA,NA,90.20771513353115
13601,Jefferson County,NY,NA,42.410714285714285,31.008902077151333
13662,St. Lawrence County,NY,NA,NA,13.056379821958458
13787,Broome County,NY,NA,98.21428571428571,NA
13815,Chenango County,NY,NA,NA,21.364985163204746
13901,Broome County,NY,63.85542168674698,NA,NA
13905,Broome County,NY,NA,NA,2.967359050445104
14004,Erie County,NY,NA,NA,71.2166172106825
14103,Orleans County,NY,NA,NA,55.78635014836796
14132,Niagara County,NY,NA,NA,74.62908011869436
14204,Erie County,NY,NA,88.83928571428571,NA
14206,Erie County,NY,NA,NA,53.41246290801187
14211,Erie County,NY,NA,NA,14.094955489614245
14215,Erie County,NY,48.795180722891565,NA,NA
14216,Erie County,NY,47.59036144578313,NA,NA
14227,Erie County,NY,NA,NA,33.82789317507419
14445,Monroe County,NY,NA,NA,49.40652818991098
14450,Monroe County,NY,3.614457831325301,NA,NA
14513,Wayne County,NY,21.084337349397593,NA,NA
14572,Steuben County,NY,NA,NA,96.439169139465875
14605,Monroe County,NY,NA,NA,14.540059347181009
14606,Monroe County,NY,14.457831325301203,NA,NA
14611,Monroe County,NY,44.57831325301205,44.19642857142857,NA
14615,Monroe County,NY,NA,NA,17.50741839762611
14891,Schuyler County,NY,NA,NA,94.80712166172107
27051,Forsyth County,NC,NA,NA,86.49851632047478
27103,Forsyth County,NC,NA,NA,22.997032640949556
27105,Forsyth County,NC,NA,NA,4.154302670623145
27107,Forsyth County,NC,NA,NA,30.118694362017806
27127,Forsyth County,NC,NA,40.625,NA
27295,Davidson County,NC,13.253012048192772,NA,29.080118694362017
27360,Davidson County,NC,NA,NA,6.824925816023739
27370,Randolph County,NC,NA,NA,82.04747774480711
27401,Guilford County,NC,NA,NA,85.60830860534125
27614,Wake County,NC,66.86746987951807,NA,NA
27804,Nash County,NC,NA,NA,43.916913946587535
27834,Pitt County,NC,NA,22.321428571428573,NA
27896,Wilson County,NC,84.93975903614458,NA,NA
27962,Washington County,NC,NA,NA,79.82195845697329
28147,Rowan County,NC,NA,NA,41.54302670623146
28208,Mecklenburg County,NC,16.265060240963855,NA,NA
28303,Cumberland County,NC,NA,54.46428571428571,NA
28318,Sampson County,NC,NA,NA,95.4005934718101
28451,Brunswick County,NC,NA,NA,72.70029673590504
28601,Catawba County,NC,NA,NA,21.513353115727003
28655,Burke County,NC,NA,NA,9.495548961424333
28677,Iredell County,NC,37.95180722891566,NA,NA
28719,Jackson County,NC,NA,33.482142857142854,NA
58103,Cass County,ND,NA,NA,38.87240356083086
43081,Franklin County,OH,NA,47.32142857142857,NA
43138,Hocking County,OH,27.710843373493976,NA,NA
43201,Franklin County,OH,NA,71.42857142857143,NA
43203,Franklin County,OH,79.51807228915662,NA,NA
43204,Franklin County,OH,NA,3.125,NA
43207,Franklin County,OH,NA,48.660714285714285,17.95252225519288
43211,Franklin County,OH,NA,9.375,47.32937685459941
43219,Franklin County,OH,NA,52.23214285714286,84.27299703264094
43220,Franklin County,OH,NA,NA,79.52522255192879
43224,Franklin County,OH,6.626506024096386,35.267857142857146,NA
43229,Franklin County,OH,NA,13.839285714285715,NA
43230,Franklin County,OH,NA,58.03571428571429,NA
43231,Franklin County,OH,NA,41.964285714285715,NA
43232,Franklin County,OH,10.240963855421686,11.607142857142858,NA
43235,Franklin County,OH,NA,76.78571428571429,NA
43315,Morrow County,OH,NA,NA,91.69139465875371
43607,Lucas County,OH,NA,NA,10.534124629080118
43609,Lucas County,OH,NA,NA,8.456973293768547
43612,Lucas County,OH,NA,28.57142857142857,NA
43614,Lucas County,OH,34.93975903614458,NA,NA
43623,Lucas County,OH,NA,NA,36.20178041543027
43812,Coshocton County,OH,NA,NA,9.347181008902076
43822,Muskingum County,OH,NA,NA,92.87833827893175
43920,Columbiana County,OH,NA,51.78571428571429,NA
43938,Jefferson County,OH,NA,NA,62.166172106824924
44004,Ashtabula County,OH,1.8072289156626504,NA,22.700296735905045
44039,Lorain County,OH,NA,NA,40.80118694362017
44053,Lorain County,OH,NA,63.39285714285714,NA
44054,Lorain County,OH,NA,NA,45.845697329376854
44056,Summit County,OH,NA,NA,75.96439169139467
44057,Lake County,OH,NA,55.80357142857143,37.24035608308605
44060,Lake County,OH,NA,NA,72.25519287833828
44095,Lake County,OH,NA,32.142857142857146,28.931750741839764
44102,Cuyahoga County,OH,NA,2.6785714285714284,0.5934718100890208
44106,Cuyahoga County,OH,NA,NA,67.80415430267063
44107,Cuyahoga County,OH,NA,NA,37.98219584569733
44108,Cuyahoga County,OH,NA,26.785714285714285,43.17507418397626
44109,Cuyahoga County,OH,NA,5.803571428571429,NA
44110,Cuyahoga County,OH,NA,NA,44.510385756676556
44111,Cuyahoga County,OH,NA,29.017857142857146,16.61721068249258
44112,Cuyahoga County,OH,NA,28.125,NA
44116,Cuyahoga County,OH,NA,67.41071428571429,NA
44118,Cuyahoga County,OH,NA,67.85714285714286,17.655786350148368
44120,Cuyahoga County,OH,NA,25,6.379821958456973
44121,Cuyahoga County,OH,NA,NA,65.57863501483679
44122,Cuyahoga County,OH,NA,68.30357142857143,32.49258160237389
44125,Cuyahoga County,OH,NA,NA,16.023738872403563
44129,Cuyahoga County,OH,NA,43.30357142857143,22.403560830860535
44130,Cuyahoga County,OH,NA,NA,51.780415430267055
44131,Cuyahoga County,OH,NA,NA,53.26409495548962
44133,Cuyahoga County,OH,NA,79.01785714285714,NA
44135,Cuyahoga County,OH,NA,NA,6.083086053412463
44137,Cuyahoga County,OH,NA,NA,10.089020771513352
44138,Cuyahoga County,OH,81.32530120481928,NA,NA
44139,Cuyahoga County,OH,NA,NA,52.6706231454006
44140,Cuyahoga County,OH,NA,NA,77.00296735905044
44147,Cuyahoga County,OH,62.048192771084345,NA,NA
44149,Cuyahoga County,OH,NA,NA,91.3946587537092
44212,Medina County,OH,40.963855421686745,NA,NA
44256,Medina County,OH,NA,63.83928571428571,NA
44260,Portage County,OH,NA,NA,78.04154302670622
44281,Medina County,OH,NA,NA,65.28189910979229
44287,Wayne County,OH,NA,NA,97.62611275964392
44308,Summit County,OH,NA,NA,98.21958456973294
44405,Mahoning County,OH,72.89156626506023,NA,NA
44410,Trumbull County,OH,NA,NA,47.18100890207715
44431,Columbiana County,OH,NA,NA,95.84569732937686
44484,Trumbull County,OH,33.734939759036145,NA,37.68545994065282
44485,Trumbull County,OH,NA,NA,25.816023738872403
44504,Mahoning County,OH,NA,NA,88.4272997032641
44614,Stark County,OH,NA,87.94642857142857,NA
44615,Carroll County,OH,NA,77.67857142857143,NA
44870,Erie County,OH,NA,NA,3.115727002967359
45013,Butler County,OH,NA,NA,6.528189910979229
45015,Butler County,OH,NA,NA,64.68842729970326
45069,Butler County,OH,NA,NA,31.602373887240354
45202,Hamilton County,OH,NA,NA,28.783382789317507
45203,Hamilton County,OH,NA,NA,95.6973293768546
45211,Hamilton County,OH,NA,NA,14.836795252225517
45215,Hamilton County,OH,NA,38.392857142857146,68.99109792284867
45217,Hamilton County,OH,NA,NA,91.0979228486647
45223,Hamilton County,OH,NA,NA,53.41246290801187
45224,Hamilton County,OH,NA,NA,30.712166172106826
45227,Hamilton County,OH,NA,69.64285714285714,NA
45238,Hamilton County,OH,12.650602409638553,NA,54.45103857566765
45248,Hamilton County,OH,NA,64.73214285714286,NA
45342,Montgomery County,OH,NA,NA,17.062314540059347
45365,Shelby County,OH,NA,NA,18.397626112759642
45385,Greene County,OH,NA,NA,17.804154302670625
45424,Montgomery County,OH,NA,NA,16.468842729970326
45449,Montgomery County,OH,NA,NA,45.103857566765576
45601,Ross County,OH,3.0120481927710845,NA,1.1869436201780417
45638,Lawrence County,OH,NA,NA,8.30860534124629
45640,Jackson County,OH,22.89156626506024,NA,NA
45662,Scioto County,OH,NA,NA,25.667655786350146
45701,Athens County,OH,NA,NA,71.36498516320475
45714,Washington County,OH,NA,NA,26.409495548961427
45805,Allen County,OH,NA,NA,20.326409495548962
45875,Putnam County,OH,NA,NA,78.7833827893175
45891,Van Wert County,OH,NA,NA,94.51038575667656
73112,Oklahoma County,OK,34.33734939759036,NA,NA
73117,Oklahoma County,OK,NA,95.08928571428571,NA
74012,Tulsa County,OK,NA,NA,34.27299703264095
74948,Sequoyah County,OK,NA,72.32142857142857,NA
97024,Multnomah County,OR,NA,NA,74.92581602373886
97045,Clackamas County,OR,NA,NA,22.106824925816024
97080,Multnomah County,OR,NA,NA,34.86646884272997
97203,Multnomah County,OR,NA,NA,80.71216617210682
97206,Multnomah County,OR,NA,NA,20.77151335311573
97215,Multnomah County,OR,NA,NA,95.10385756676558
97301,Marion County,OR,NA,NA,19.287833827893174
97304,Polk County,OR,NA,NA,68.24925816023739
97325,Marion County,OR,NA,86.60714285714286,NA
97478,Lane County,OR,NA,NA,48.07121661721068
97603,Klamath County,OR,NA,NA,28.338278931750743
15010,Beaver County,PA,50.602409638554214,NA,NA
15025,Allegheny County,PA,NA,NA,60.682492581602375
15037,Allegheny County,PA,NA,NA,89.31750741839762
15065,Allegheny County,PA,NA,NA,93.026706231454
15068,Westmoreland County,PA,NA,66.07142857142857,NA
15145,Allegheny County,PA,NA,NA,91.98813056379822
15210,Allegheny County,PA,NA,NA,23.44213649851632
15219,Allegheny County,PA,NA,NA,41.09792284866469
15401,Fayette County,PA,57.22891566265061,NA,NA
15701,Indiana County,PA,NA,NA,30.712166172106826
15824,Jefferson County,PA,NA,NA,91.83976261127597
15851,Jefferson County,PA,NA,NA,81.30563798219585
16502,Erie County,PA,NA,NA,54.154302670623146
16601,Blair County,PA,NA,NA,14.985163204747776
16701,McKean County,PA,22.289156626506024,NA,NA
16801,Centre County,PA,NA,NA,49.40652818991098
16833,Clearfield County,PA,NA,NA,81.4540059347181
17033,Dauphin County,PA,9.63855421686747,NA,NA
17036,Dauphin County,PA,NA,NA,67.50741839762611
17046,Lebanon County,PA,NA,NA,15.727002967359049
17055,Cumberland County,PA,NA,NA,72.40356083086054
17057,Dauphin County,PA,NA,NA,61.42433234421365
17070,Cumberland County,PA,NA,NA,56.083086053412465
17102,Dauphin County,PA,NA,NA,96.29080118694363
17103,Dauphin County,PA,NA,NA,49.10979228486647
17113,Dauphin County,PA,NA,NA,83.82789317507418
17315,York County,PA,NA,79.01785714285714,NA
17543,Lancaster County,PA,NA,NA,33.38278931750742
17601,Lancaster County,PA,NA,NA,44.362017804154306
17751,Clinton County,PA,NA,NA,81.60237388724035
17801,Northumberland County,PA,NA,NA,29.22848664688427
17847,Northumberland County,PA,NA,NA,74.33234421364985
18102,Lehigh County,PA,1.2048192771084338,NA,NA
18232,Carbon County,PA,NA,NA,99.70326409495549
18426,Pike County,PA,NA,NA,91.98813056379822
18702,Luzerne County,PA,NA,NA,12.759643916913946
18704,Luzerne County,PA,43.97590361445783,NA,NA
18706,Luzerne County,PA,NA,NA,49.10979228486647
19032,Delaware County,PA,NA,NA,88.87240356083086
19104,Philadelphia County,PA,NA,36.607142857142854,NA
19124,Philadelphia County,PA,NA,12.5,NA
19126,Philadelphia County,PA,NA,NA,76.40949554896143
19132,Philadelphia County,PA,NA,NA,10.385756676557865
19135,Philadelphia County,PA,NA,NA,23.738872403560833
19140,Philadelphia County,PA,NA,NA,4.451038575667656
19143,Philadelphia County,PA,NA,46.42857142857143,NA
19390,Chester County,PA,68.07228915662651,NA,NA
19428,Montgomery County,PA,NA,NA,57.86350148367953
19446,Montgomery County,PA,NA,NA,56.23145400593472
19602,Berks County,PA,NA,NA,17.359050445103858
19604,Berks County,PA,NA,16.071428571428573,NA
19607,Berks County,PA,NA,NA,37.0919881305638
19610,Berks County,PA,NA,NA,75.8160237388724
02861,Providence County,RI,NA,NA,40.652818991097924
02893,Kent County,RI,NA,NA,44.95548961424332
02905,Providence County,RI,51.204819277108435,NA,NA
02907,Providence County,RI,NA,NA,50
02908,Providence County,RI,55.42168674698795,NA,NA
29063,Richland County,SC,NA,NA,68.39762611275965
29204,Richland County,SC,NA,NA,79.08011869436203
29303,Spartanburg County,SC,NA,80.35714285714286,NA
29316,Spartanburg County,SC,56.62650602409639,NA,NA
29405,Charleston County,SC,NA,81.25,NA
29461,Berkeley County,SC,NA,60.71428571428571,NA
29483,Dorchester County,SC,NA,52.67857142857143,NA
29520,Chesterfield County,SC,NA,NA,84.56973293768546
29527,Horry County,SC,44.57831325301205,NA,NA
29588,Horry County,SC,NA,51.33928571428571,NA
29601,Greenville County,SC,NA,98.66071428571429,NA
29621,Anderson County,SC,NA,36.160714285714285,NA
29654,Anderson County,SC,NA,52.67857142857143,NA
29906,Beaufort County,SC,NA,NA,78.93175074183976
29944,Hampton County,SC,NA,90.17857142857143,NA
57103,Minnehaha County,SD,NA,NA,32.640949554896146
57201,Codington County,SD,82.53012048192771,NA,NA
37074,Trousdale County,TN,NA,93.75,NA
37160,Bedford County,TN,NA,NA,27.596439169139465
37167,Rutherford County,TN,NA,NA,36.646884272997035
37311,Bradley County,TN,NA,NA,44.21364985163205
37865,Sevier County,TN,NA,NA,50.74183976261127
38112,Shelby County,TN,NA,NA,73.59050445103857
38116,Shelby County,TN,NA,30.357142857142854,NA
38118,Shelby County,TN,13.855421686746988,NA,NA
38141,Shelby County,TN,61.44578313253012,NA,58.6053412462908
38320,Benton County,TN,74.09638554216868,NA,NA
75056,Denton County,TX,24.69879518072289,NA,NA
75061,Dallas County,TX,NA,NA,62.01780415430267
75080,Dallas County,TX,NA,NA,68.84272997032642
75104,Dallas County,TX,NA,NA,33.23442136498516
75142,Kaufman County,TX,NA,NA,72.10682492581603
75165,Ellis County,TX,NA,NA,37.388724035608305
75217,Dallas County,TX,NA,18.303571428571427,NA
75240,Dallas County,TX,76.50602409638554,NA,NA
75670,Harrison County,TX,NA,74.10714285714286,NA
75706,Smith County,TX,90.96385542168674,NA,NA
75757,Smith County,TX,78.91566265060241,NA,NA
75862,Trinity County,TX,NA,NA,92.7299703264095
75979,Tyler County,TX,NA,95.53571428571429,NA
76031,Johnson County,TX,49.39759036144578,NA,NA
76048,Hood County,TX,NA,NA,54.59940652818991
76053,Tarrant County,TX,NA,70.08928571428571,NA
76063,Tarrant County,TX,NA,NA,21.958456973293767
76108,Tarrant County,TX,NA,58.48214285714286,NA
76112,Tarrant County,TX,NA,NA,21.216617210682493
76115,Tarrant County,TX,NA,27.67857142857143,NA
76504,Bell County,TX,NA,NA,46.29080118694362
76513,Bell County,TX,12.048192771084338,NA,NA
76541,Bell County,TX,NA,NA,56.82492581602374
76574,Williamson County,TX,NA,NA,60.97922848664689
76903,Tom Green County,TX,NA,NA,52.22551928783383
77009,Harris County,TX,NA,76.33928571428571,NA
77014,Harris County,TX,NA,43.75,NA
77055,Harris County,TX,NA,NA,69.28783382789318
77067,Harris County,TX,56.024096385542165,NA,NA
77070,Harris County,TX,NA,NA,57.566765578635014
77076,Harris County,TX,NA,NA,63.798219584569736
77084,Harris County,TX,NA,NA,18.84272997032641
77088,Harris County,TX,NA,NA,39.317507418397625
77092,Harris County,TX,NA,NA,66.91394658753708
77302,Montgomery County,TX,NA,NA,79.37685459940653
77328,San Jacinto County,TX,73.49397590361446,NA,NA
77388,Harris County,TX,NA,57.14285714285714,NA
77450,Harris County,TX,NA,NA,79.67359050445104
77465,Matagorda County,TX,NA,99.55357142857143,NA
77505,Harris County,TX,NA,NA,75.5192878338279
77506,Harris County,TX,NA,31.69642857142857,NA
77611,Orange County,TX,81.92771084337349,NA,NA
77640,Jefferson County,TX,NA,NA,70.02967359050444
77833,Washington County,TX,NA,NA,56.97329376854599
77845,Brazos County,TX,NA,90.17857142857143,NA
78046,Webb County,TX,NA,NA,24.03560830860534
78121,Wilson County,TX,NA,NA,91.24629080118694
78130,Comal County,TX,30.120481927710845,NA,NA
78203,Bexar County,TX,NA,NA,93.76854599406528
78221,Bexar County,TX,NA,NA,84.42136498516321
78254,Bexar County,TX,NA,65.17857142857143,NA
78611,Burnet County,TX,NA,NA,86.79525222551929
78617,Travis County,TX,NA,NA,83.38278931750742
78644,Caldwell County,TX,92.16867469879519,NA,NA
84078,Uintah County,UT,NA,NA,58.45697329376854
84095,Salt Lake County,UT,31.32530120481928,NA,NA
84104,Salt Lake County,UT,NA,NA,58.160237388724035
84120,Salt Lake County,UT,18.072289156626507,NA,NA
84128,Salt Lake County,UT,43.373493975903614,NA,NA
84404,Weber County,UT,NA,NA,30.267062314540063
05401,Chittenden County,VT,NA,NA,60.97922848664689
05446,Chittenden County,VT,NA,NA,73.44213649851632
05478,Franklin County,VT,NA,NA,65.8753709198813
20136,Prince William County,VA,NA,NA,78.18991097922849
22101,Fairfax County,VA,59.63855421686747,NA,NA
22655,Frederick County,VA,80.72289156626506,NA,NA
22664,Shenandoah County,VA,NA,NA,83.97626112759644
22963,Fluvanna County,VA,NA,NA,84.86646884272997
23060,Henrico County,VA,NA,NA,72.70029673590504
23222,Richmond city,VA,NA,18.75,NA
23223,Henrico County,VA,NA,NA,6.973293768545995
23227,Henrico County,VA,NA,NA,52.37388724035609
23234,Chesterfield County,VA,NA,NA,28.18991097922849
23504,Norfolk city,VA,NA,26.339285714285715,NA
23505,Norfolk city,VA,NA,NA,48.81305637982196
23669,Hampton city,VA,NA,53.57142857142857,NA
24416,Buena Vista city,VA,NA,90.17857142857143,NA
24527,Pittsylvania County,VA,98.19277108433735,NA,NA
98003,King County,WA,NA,NA,71.66172106824926
98021,Snohomish County,WA,NA,NA,88.27893175074183
98033,King County,WA,NA,NA,74.03560830860533
98106,King County,WA,NA,94.19642857142857,NA
98108,King County,WA,NA,NA,82.49258160237389
98133,King County,WA,NA,94.64285714285714,NA
98144,King County,WA,NA,NA,86.35014836795251
98155,King County,WA,NA,NA,56.37982195845698
98225,Whatcom County,WA,NA,NA,64.98516320474778
98226,Whatcom County,WA,NA,NA,77.29970326409496
98273,Skagit County,WA,65.66265060240963,NA,NA
98296,Snohomish County,WA,NA,NA,56.676557863501486
98368,Jefferson County,WA,NA,93.30357142857143,NA
98374,Pierce County,WA,39.75903614457831,NA,NA
98498,Pierce County,WA,NA,NA,66.61721068249258
98502,Thurston County,WA,NA,NA,73.1454005934718
98632,Cowlitz County,WA,NA,NA,27.89317507418398
98685,Clark County,WA,84.33734939759037,NA,NA
98926,Kittitas County,WA,NA,NA,63.649851632047486
99208,Spokane County,WA,NA,NA,49.70326409495549
99338,Benton County,WA,NA,84.82142857142857,NA
20002,District of Columbia,DC,45.78313253012048,NA,NA
20011,District of Columbia,DC,NA,39.732142857142854,NA
20016,District of Columbia,DC,NA,NA,82.34421364985162
20020,District of Columbia,DC,NA,21.875,22.551928783382788
25530,Wayne County,WV,95.78313253012048,NA,NA
25801,Raleigh County,WV,24.096385542168676,NA,NA
26201,Upshur County,WV,NA,NA,31.454005934718097
26505,Monongalia County,WV,NA,NA,66.32047477744807
26508,Monongalia County,WV,NA,NA,33.531157270029674
26554,Marion County,WV,NA,NA,7.863501483679524
53005,Waukesha County,WI,NA,NA,50.59347181008902
53147,Walworth County,WI,NA,NA,55.637982195845694
53172,Milwaukee County,WI,70.48192771084338,NA,NA
53186,Waukesha County,WI,NA,NA,36.94362017804154
53205,Milwaukee County,WI,NA,NA,25.07418397626113
53206,Milwaukee County,WI,19.27710843373494,NA,NA
53209,Milwaukee County,WI,NA,21.428571428571427,NA
53212,Milwaukee County,WI,NA,49.55357142857143,NA
53213,Milwaukee County,WI,86.74698795180723,NA,NA
53215,Milwaukee County,WI,NA,10.714285714285714,NA
53218,Milwaukee County,WI,NA,NA,38.27893175074184
53219,Milwaukee County,WI,NA,NA,26.26112759643917
53220,Milwaukee County,WI,60.24096385542169,NA,40.20771513353116
53221,Milwaukee County,WI,32.53012048192771,NA,NA
53228,Milwaukee County,WI,NA,NA,80.41543026706232
53532,Dane County,WI,NA,NA,77.74480712166172
53548,Rock County,WI,46.3855421686747,NA,NA
53589,Dane County,WI,91.56626506024097,NA,NA
54017,St. Croix County,WI,NA,87.5,NA
54304,Brown County,WI,NA,83.03571428571429,NA
54311,Brown County,WI,NA,NA,81.60237388724035
54409,Langlade County,WI,NA,NA,47.62611275964392
54482,Portage County,WI,NA,NA,90.0593471810089
54601,La Crosse County,WI,NA,NA,12.314540059347182
