ZipCode,county,state,Youth
35057,Cullman County,AL,80.57432432432432
35071,Jefferson County,AL,61.233108108108105
35244,Jefferson County,AL,66.55405405405406
35406,Tuscaloosa County,AL,74.74662162162163
35771,Jackson County,AL,92.82094594594594
35802,Madison County,AL,55.99662162162162
36078,Elmore County,AL,69.42567567567568
36117,Montgomery County,AL,19.594594594594593
36320,Houston County,AL,92.82094594594594
99507,Anchorage Municipality,AK,14.695945945945946
85008,Maricopa County,AZ,20.777027027027025
85015,Maricopa County,AZ,73.22635135135135
85016,Maricopa County,AZ,67.56756756756756
85018,Maricopa County,AZ,15.54054054054054
85020,Maricopa County,AZ,23.986486486486484
85022,Maricopa County,AZ,20.01689189189189
85023,Maricopa County,AZ,56.33445945945946
85028,Maricopa County,AZ,63.85135135135135
85033,Maricopa County,AZ,9.375
85034,Maricopa County,AZ,86.2331081081081
85035,Maricopa County,AZ,64.10472972972973
85040,Maricopa County,AZ,15.79391891891892
85041,Maricopa County,AZ,16.131756756756758
85043,Maricopa County,AZ,81.50337837837837
85054,Maricopa County,AZ,85.72635135135135
85086,Maricopa County,AZ,18.83445945945946
85087,Maricopa County,AZ,93.91891891891892
85132,Pinal County,AZ,67.65202702702703
85201,Maricopa County,AZ,8.614864864864865
85213,Maricopa County,AZ,85.38851351351352
85226,Maricopa County,AZ,81.6722972972973
85286,Maricopa County,AZ,15.54054054054054
85301,Maricopa County,AZ,2.7027027027027026
85323,Maricopa County,AZ,13.260135135135135
85339,Maricopa County,AZ,24.324324324324326
85378,Maricopa County,AZ,86.2331081081081
85501,Gila County,AZ,88.00675675675676
85621,Santa Cruz County,AZ,90.28716216216216
85634,Pima County,AZ,18.158783783783782
85648,Santa Cruz County,AZ,81.41891891891892
85701,Pima County,AZ,83.44594594594594
85705,Pima County,AZ,36.40202702702703
85706,Pima County,AZ,4.5608108108108105
85710,Pima County,AZ,24.493243243243242
85713,Pima County,AZ,2.871621621621622
85714,Pima County,AZ,49.91554054054054
85746,Pima County,AZ,36.486486486486484
85750,Pima County,AZ,69.00337837837837
85757,Pima County,AZ,58.952702702702695
85941,Apache County,AZ,18.3277027027027
86004,Coconino County,AZ,11.993243243243242
86025,Navajo County,AZ,76.35135135135135
86334,Yavapai County,AZ,97.63513513513513
86401,Mohave County,AZ,12.41554054054054
86406,Mohave County,AZ,73.64864864864865
72110,Conway County,AR,72.04391891891892
72761,Benton County,AR,38.42905405405405
90007,Los Angeles County,CA,64.69594594594594
90011,Los Angeles County,CA,9.797297297297296
90033,Los Angeles County,CA,51.689189189189186
90047,Los Angeles County,CA,92.65202702702703
90066,Los Angeles County,CA,81.25
90221,Los Angeles County,CA,77.7027027027027
90254,Los Angeles County,CA,79.64527027027027
90266,Los Angeles County,CA,72.46621621621621
90277,Los Angeles County,CA,81.08108108108108
90301,Los Angeles County,CA,74.91554054054053
90650,Los Angeles County,CA,78.88513513513513
90660,Los Angeles County,CA,30.152027027027028
90731,Los Angeles County,CA,38.766891891891895
90810,Los Angeles County,CA,88.51351351351352
90813,Los Angeles County,CA,25.506756756756754
91001,Los Angeles County,CA,53.80067567567568
91103,Los Angeles County,CA,69.76351351351352
91204,Los Angeles County,CA,99.23986486486487
91321,Los Angeles County,CA,69.67905405405406
91324,Los Angeles County,CA,79.30743243243244
91340,Los Angeles County,CA,69.08783783783784
91367,Los Angeles County,CA,56.92567567567568
91403,Los Angeles County,CA,95.10135135135135
91731,Los Angeles County,CA,88.09121621621621
92010,San Diego County,CA,63.85135135135135
92024,San Diego County,CA,63.17567567567568
92027,San Diego County,CA,60.05067567567568
92056,San Diego County,CA,94.00337837837837
92083,San Diego County,CA,28.46283783783784
92123,San Diego County,CA,74.32432432432432
92127,San Diego County,CA,89.94932432432432
92128,San Diego County,CA,61.6554054054054
92129,San Diego County,CA,35.388513513513516
92131,San Diego County,CA,89.3581081081081
92223,Riverside County,CA,53.46283783783784
92276,Riverside County,CA,84.62837837837837
92411,San Bernardino County,CA,59.12162162162162
92544,Riverside County,CA,27.7027027027027
92551,Riverside County,CA,36.317567567567565
92562,Riverside County,CA,19.00337837837838
92595,Riverside County,CA,30.658783783783782
92806,Orange County,CA,41.38513513513514
92807,Orange County,CA,54.89864864864865
92821,Orange County,CA,36.14864864864865
92845,Orange County,CA,74.91554054054053
92880,Riverside County,CA,47.04391891891892
93010,Ventura County,CA,83.61486486486487
93012,Ventura County,CA,82.9391891891892
93030,Ventura County,CA,7.939189189189189
93063,Ventura County,CA,20.35472972972973
93257,Tulare County,CA,9.375
93291,Tulare County,CA,5.574324324324325
93305,Kern County,CA,54.054054054054056
93312,Kern County,CA,35.89527027027027
93402,San Luis Obispo County,CA,58.69932432432432
93445,San Luis Obispo County,CA,93.83445945945947
93458,Santa Barbara County,CA,45.861486486486484
93534,Los Angeles County,CA,32.17905405405405
93631,Fresno County,CA,91.4695945945946
93654,Fresno County,CA,48.141891891891895
93705,Fresno County,CA,60.979729729729726
93730,Fresno County,CA,71.70608108108108
94019,San Mateo County,CA,78.37837837837837
94028,San Mateo County,CA,92.4831081081081
94123,San Francisco County,CA,80.57432432432432
94158,San Francisco County,CA,96.62162162162163
94502,Alameda County,CA,82.60135135135135
94513,Contra Costa County,CA,38.26013513513514
94520,Contra Costa County,CA,35.2195945945946
94521,Contra Costa County,CA,27.195945945945947
94531,Contra Costa County,CA,47.888513513513516
94544,Alameda County,CA,48.64864864864865
94549,Contra Costa County,CA,41.638513513513516
94553,Contra Costa County,CA,59.71283783783784
94565,Contra Costa County,CA,11.317567567567567
94583,Contra Costa County,CA,67.65202702702703
94590,Solano County,CA,88.17567567567568
94601,Alameda County,CA,62.077702702702695
94801,Contra Costa County,CA,86.99324324324324
95050,Santa Clara County,CA,74.07094594594594
95116,Santa Clara County,CA,73.05743243243244
95118,Santa Clara County,CA,61.90878378378378
95348,Merced County,CA,11.570945945945946
95355,Stanislaus County,CA,25.760135135135137
95361,Stanislaus County,CA,51.35135135135135
95409,Sonoma County,CA,70.4391891891892
95482,Mendocino County,CA,19.08783783783784
95624,Sacramento County,CA,85.6418918918919
95762,El Dorado County,CA,34.12162162162162
95820,Sacramento County,CA,60.557432432432435
95824,Sacramento County,CA,97.04391891891892
95833,Sacramento County,CA,74.40878378378379
95969,Butte County,CA,43.3277027027027
95973,Butte County,CA,54.054054054054056
80012,Arapahoe County,CO,70.35472972972973
80013,Arapahoe County,CO,4.3074324324324325
80015,Arapahoe County,CO,18.75
80016,Arapahoe County,CO,2.195945945945946
80020,Broomfield County,CO,8.783783783783784
80023,Broomfield County,CO,77.11148648648648
80027,Boulder County,CO,26.60472972972973
80108,Douglas County,CO,45.608108108108105
80109,Douglas County,CO,28.631756756756754
80110,Arapahoe County,CO,94.93243243243244
80112,Arapahoe County,CO,30.574324324324326
80121,Arapahoe County,CO,65.625
80123,Jefferson County,CO,26.773648648648653
80126,Douglas County,CO,12.077702702702704
80127,Jefferson County,CO,78.5472972972973
80206,Denver County,CO,97.12837837837837
80211,Denver County,CO,63.682432432432435
80216,Denver County,CO,84.12162162162163
80220,Denver County,CO,26.182432432432435
80224,Denver County,CO,79.64527027027027
80229,Adams County,CO,46.4527027027027
80236,Denver County,CO,74.07094594594594
80239,Denver County,CO,35.30405405405405
80303,Boulder County,CO,76.18243243243244
80304,Boulder County,CO,38.85135135135135
80424,Summit County,CO,87.5
80503,Boulder County,CO,89.86486486486487
80521,Larimer County,CO,60.05067567567568
80524,Larimer County,CO,16.216216216216218
80602,Adams County,CO,55.15202702702703
80631,Weld County,CO,51.604729729729726
80808,El Paso County,CO,67.65202702702703
81052,Prowers County,CO,86.2331081081081
06111,Hartford County,CT,26.013513513513516
06484,Fairfield County,CT,76.77364864864865
06519,New Haven County,CT,17.14527027027027
06610,Fairfield County,CT,56.75675675675676
06810,Fairfield County,CT,72.7195945945946
06811,Fairfield County,CT,91.38513513513513
06812,Fairfield County,CT,55.57432432432432
06830,Fairfield County,CT,79.64527027027027
06851,Fairfield County,CT,55.57432432432432
06854,Fairfield County,CT,72.2972972972973
06877,Fairfield County,CT,54.729729729729726
06880,Fairfield County,CT,60.557432432432435
19904,Kent County,DE,12.58445945945946
32034,Nassau County,FL,61.40202702702703
32054,Union County,FL,54.054054054054056
32092,St. Johns County,FL,28.885135135135137
32207,Duval County,FL,22.04391891891892
32577,Escambia County,FL,62.75337837837838
32826,Orange County,FL,80.06756756756756
32837,Orange County,FL,35.05067567567568
33015,Miami-Dade County,FL,42.483108108108105
33024,Broward County,FL,17.06081081081081
33025,Broward County,FL,13.006756756756758
33027,Broward County,FL,29.054054054054053
33032,Miami-Dade County,FL,65.79391891891892
33076,Broward County,FL,78.80067567567568
33126,Miami-Dade County,FL,35.388513513513516
33135,Miami-Dade County,FL,52.61824324324324
33137,Miami-Dade County,FL,90.45608108108108
33139,Miami-Dade County,FL,64.69594594594594
33173,Miami-Dade County,FL,56.41891891891891
33313,Broward County,FL,5.743243243243244
33328,Broward County,FL,56.92567567567568
33428,Palm Beach County,FL,89.61148648648648
33432,Palm Beach County,FL,93.75
33461,Palm Beach County,FL,33.44594594594595
33486,Palm Beach County,FL,91.8918918918919
33496,Palm Beach County,FL,82.0945945945946
33547,Hillsborough County,FL,31.08108108108108
33615,Hillsborough County,FL,37.41554054054054
33619,Hillsborough County,FL,46.62162162162162
33904,Lee County,FL,98.39527027027027
33905,Lee County,FL,36.99324324324324
33917,Lee County,FL,37.41554054054054
34212,Manatee County,FL,39.69594594594595
34286,Sarasota County,FL,45.692567567567565
34432,Marion County,FL,77.2804054054054
34475,Marion County,FL,41.638513513513516
34652,Pasco County,FL,96.36824324324324
34655,Pasco County,FL,63.17567567567568
34746,Osceola County,FL,56.75675675675676
34747,Osceola County,FL,99.66216216216216
34758,Osceola County,FL,72.38175675675676
34956,Martin County,FL,83.5304054054054
34990,Martin County,FL,99.74662162162163
30040,Forsyth County,GA,87.24662162162163
30054,Newton County,GA,82.60135135135135
30067,Cobb County,GA,40.87837837837838
30080,Cobb County,GA,39.10472972972973
30082,Cobb County,GA,54.89864864864865
30083,DeKalb County,GA,9.037162162162163
30087,DeKalb County,GA,42.22972972972973
30096,Gwinnett County,GA,18.074324324324326
30101,Cobb County,GA,43.58108108108108
30127,Cobb County,GA,9.881756756756758
30132,Paulding County,GA,20.69256756756757
30144,Cobb County,GA,69.1722972972973
30152,Cobb County,GA,79.5608108108108
30153,Polk County,GA,34.45945945945946
30180,Carroll County,GA,7.685810810810811
30215,Fayette County,GA,43.3277027027027
30223,Spalding County,GA,23.22635135135135
30238,Clayton County,GA,17.39864864864865
30253,Henry County,GA,15.878378378378377
30269,Fayette County,GA,42.22972972972973
30276,Coweta County,GA,70.94594594594594
30306,Fulton County,GA,92.3141891891892
30316,DeKalb County,GA,55.99662162162162
30319,DeKalb County,GA,76.01351351351352
30328,Fulton County,GA,93.66554054054053
30338,DeKalb County,GA,75.33783783783784
30517,Jackson County,GA,45.10135135135135
30606,Clarke County,GA,89.1891891891892
30655,Walton County,GA,14.695945945945946
30736,Catoosa County,GA,11.06418918918919
30755,Whitfield County,GA,74.49324324324324
30809,Columbia County,GA,43.24324324324324
31324,Bryan County,GA,52.61824324324324
31326,Effingham County,GA,95.1858108108108
31407,Chatham County,GA,73.90202702702703
39819,Decatur County,GA,81.75675675675676
96707,Honolulu County,HI,39.611486486486484
96761,Maui County,HI,90.96283783783784
83301,Twin Falls County,ID,34.96621621621622
83406,Bonneville County,ID,80.48986486486487
83501,Nez Perce County,ID,7.179054054054054
83628,Owyhee County,ID,90.54054054054053
83651,Canyon County,ID,66.13175675675676
83704,Ada County,ID,77.61824324324324
60020,Lake County,IL,57.685810810810814
60025,Cook County,IL,15.70945945945946
60056,Cook County,IL,16.638513513513516
60091,Cook County,IL,80.91216216216216
60097,McHenry County,IL,82.26351351351352
60126,DuPage County,IL,7.685810810810811
60140,Kane County,IL,59.88175675675676
60148,DuPage County,IL,10.81081081081081
60156,McHenry County,IL,46.62162162162162
60187,DuPage County,IL,24.66216216216216
60188,DuPage County,IL,39.86486486486486
60302,Cook County,IL,22.888513513513516
60477,Cook County,IL,55.320945945945944
60491,Will County,IL,21.62162162162162
60510,Kane County,IL,25.591216216216218
60564,Will County,IL,55.91216216216216
60625,Cook County,IL,54.560810810810814
60630,Cook County,IL,93.58108108108108
60631,Cook County,IL,62.24662162162162
60637,Cook County,IL,18.158783783783782
60646,Cook County,IL,40.2027027027027
60652,Cook County,IL,36.233108108108105
60656,Cook County,IL,90.11824324324324
60714,Cook County,IL,92.73648648648648
61102,Winnebago County,IL,53.04054054054054
61265,Rock Island County,IL,38.17567567567568
61604,Peoria County,IL,47.04391891891892
61938,Coles County,IL,29.56081081081081
62040,Madison County,IL,28.885135135135137
62467,Effingham County,IL,92.0608108108108
62526,Macon County,IL,67.4831081081081
62703,Sangamon County,IL,86.6554054054054
62801,Marion County,IL,63.17567567567568
62959,Williamson County,IL,81.25
46033,Hamilton County,IN,48.90202702702703
46060,Hamilton County,IN,51.689189189189186
46112,Hendricks County,IN,35.05067567567568
46113,Marion County,IN,63.17567567567568
46123,Hendricks County,IN,31.165540540540544
46224,Marion County,IN,75.59121621621621
46235,Marion County,IN,24.239864864864867
46239,Marion County,IN,27.027027027027028
46322,Lake County,IN,37.0777027027027
46408,Lake County,IN,23.902027027027025
46410,Lake County,IN,30.8277027027027
46815,Allen County,IN,28.209459459459456
46953,Grant County,IN,31.58783783783784
47150,Floyd County,IN,10.641891891891891
47356,Henry County,IN,96.19932432432432
47712,Vanderburgh County,IN,76.18243243243244
50003,Dallas County,IA,90.11824324324324
50009,Polk County,IA,57.34797297297297
50023,Polk County,IA,71.53716216216216
50226,Polk County,IA,85.97972972972973
50266,Polk County,IA,45.10135135135135
50313,Polk County,IA,93.3277027027027
50613,Black Hawk County,IA,68.91891891891892
50701,Black Hawk County,IA,17.31418918918919
51106,Woodbury County,IA,83.36148648648648
51301,Clay County,IA,97.2972972972973
51501,Pottawattamie County,IA,20.10135135135135
52162,Allamakee County,IA,87.75337837837837
52246,Johnson County,IA,28.29391891891892
52317,Johnson County,IA,26.942567567567565
52404,Linn County,IA,1.9425675675675675
52722,Scott County,IA,29.307432432432435
52732,Clinton County,IA,14.949324324324326
52748,Scott County,IA,54.729729729729726
52802,Scott County,IA,94.34121621621621
66049,Douglas County,KS,58.445945945945944
66607,Shawnee County,KS,78.46283783783784
67210,Sedgwick County,KS,99.49324324324324
67748,Logan County,KS,97.38175675675676
40067,Shelby County,KY,88.17567567567568
40160,Hardin County,KY,30.405405405405407
40214,Jefferson County,KY,11.402027027027026
40245,Jefferson County,KY,39.02027027027027
40258,Jefferson County,KY,23.22635135135135
40356,Jessamine County,KY,14.442567567567568
40403,Madison County,KY,39.27364864864865
40422,Boyle County,KY,39.94932432432432
40444,Garrard County,KY,52.61824324324324
40517,Fayette County,KY,27.533783783783782
40965,Bell County,KY,25.760135135135137
41008,Carroll County,KY,68.41216216216216
41164,Carter County,KY,27.364864864864863
41179,Lewis County,KY,80.06756756756756
42303,Daviess County,KY,14.18918918918919
42718,Taylor County,KY,23.56418918918919
42724,Hardin County,KY,97.97297297297297
42754,Grayson County,KY,27.95608108108108
70114,Orleans Parish,LA,3.7162162162162162
70301,Lafourche Parish,LA,0.6756756756756757
70403,Tangipahoa Parish,LA,23.81756756756757
70438,Washington Parish,LA,2.2804054054054053
70648,Allen Parish,LA,43.66554054054054
71006,Bossier Parish,LA,53.80067567567568
71037,Bossier Parish,LA,41.55405405405405
71078,De Soto Parish,LA,94.25675675675676
71111,Bossier Parish,LA,3.885135135135135
71112,Bossier Parish,LA,52.02702702702703
04032,Cumberland County,ME,96.28378378378379
04072,York County,ME,52.195945945945944
04073,York County,ME,38.59797297297297
04102,Cumberland County,ME,52.36486486486487
04240,Androscoggin County,ME,47.55067567567568
04330,Kennebec County,ME,64.02027027027027
20653,St. Mary's County,MD,78.125
21030,Baltimore County,MD,37.33108108108108
21131,Baltimore County,MD,62.33108108108109
21213,Baltimore city,MD,66.80743243243244
21228,Baltimore County,MD,40.45608108108108
21230,Baltimore city,MD,37.9222972972973
21231,Baltimore city,MD,15.118243243243242
21863,Worcester County,MD,95.69256756756756
01033,Hampshire County,MA,91.30067567567568
01040,Hampden County,MA,1.0135135135135136
01089,Hampden County,MA,16.385135135135133
01095,Hampden County,MA,50.50675675675676
01420,Worcester County,MA,14.864864864864865
01475,Worcester County,MA,63.59797297297297
01568,Worcester County,MA,72.88851351351352
01570,Worcester County,MA,65.37162162162163
01606,Worcester County,MA,56.41891891891891
01752,Middlesex County,MA,44.1722972972973
01830,Essex County,MA,5.996621621621621
01852,Middlesex County,MA,5.0675675675675675
01886,Middlesex County,MA,40.28716216216216
01915,Essex County,MA,4.64527027027027
02093,Norfolk County,MA,93.41216216216216
02128,Suffolk County,MA,0.9290540540540541
02130,Suffolk County,MA,10.135135135135135
02132,Suffolk County,MA,42.22972972972973
02136,Suffolk County,MA,19.256756756756758
02144,Middlesex County,MA,59.96621621621622
02151,Suffolk County,MA,5.827702702702703
02301,Plymouth County,MA,6.33445945945946
02460,Middlesex County,MA,67.3141891891892
02745,Bristol County,MA,23.05743243243243
02760,Bristol County,MA,12.162162162162163
48030,Oakland County,MI,22.972972972972975
48033,Oakland County,MI,49.32432432432432
48059,St. Clair County,MI,49.91554054054054
48062,Macomb County,MI,69.76351351351352
48066,Macomb County,MI,8.445945945945946
48074,St. Clair County,MI,67.65202702702703
48088,Macomb County,MI,83.86824324324324
48091,Macomb County,MI,49.07094594594595
48093,Macomb County,MI,31.841216216216218
48103,Washtenaw County,MI,12.33108108108108
48108,Washtenaw County,MI,18.3277027027027
48146,Wayne County,MI,3.2939189189189184
48154,Wayne County,MI,33.86824324324324
48167,Oakland County,MI,94.1722972972973
48169,Livingston County,MI,44.763513513513516
48180,Wayne County,MI,0.7601351351351352
48183,Wayne County,MI,11.233108108108109
48187,Wayne County,MI,41.97635135135135
48195,Wayne County,MI,24.91554054054054
48212,Wayne County,MI,34.88175675675676
48226,Wayne County,MI,75.76013513513513
48238,Wayne County,MI,4.983108108108108
48310,Macomb County,MI,65.11824324324324
48312,Macomb County,MI,66.8918918918919
48328,Oakland County,MI,44.25675675675676
48357,Oakland County,MI,79.89864864864865
48377,Oakland County,MI,93.41216216216216
48382,Oakland County,MI,21.199324324324326
48413,Huron County,MI,44.932432432432435
48421,Lapeer County,MI,95.27027027027027
48444,Lapeer County,MI,48.141891891891895
48446,Lapeer County,MI,77.7027027027027
48461,Lapeer County,MI,96.53716216216216
48473,Genesee County,MI,51.09797297297297
48601,Saginaw County,MI,18.49662162162162
48640,Midland County,MI,50.422297297297305
48809,Ionia County,MI,71.53716216216216
48855,Livingston County,MI,49.32432432432432
48858,Isabella County,MI,5.236486486486487
49024,Kalamazoo County,MI,84.29054054054053
49031,Cass County,MI,87.75337837837837
49056,Van Buren County,MI,80.57432432432432
49058,Barry County,MI,32.432432432432435
49071,Van Buren County,MI,58.27702702702703
49078,Allegan County,MI,72.04391891891892
49112,Cass County,MI,73.3108108108108
49120,Berrien County,MI,61.570945945945944
49203,Jackson County,MI,16.216216216216218
49286,Lenawee County,MI,24.493243243243242
49301,Kent County,MI,51.689189189189186
49321,Kent County,MI,59.12162162162162
49341,Kent County,MI,78.63175675675676
49343,Kent County,MI,89.7804054054054
49423,Ottawa County,MI,40.11824324324324
49457,Muskegon County,MI,37.9222972972973
49464,Ottawa County,MI,25.25337837837838
49503,Kent County,MI,5.827702702702703
49504,Kent County,MI,29.64527027027027
49506,Kent County,MI,53.46283783783784
49508,Kent County,MI,76.8581081081081
49519,Kent County,MI,13.513513513513514
49525,Kent County,MI,75.67567567567568
49735,Otsego County,MI,81.16554054054053
49765,Presque Isle County,MI,76.35135135135135
49841,Marquette County,MI,53.46283783783784
49855,Marquette County,MI,19.341216216216218
55005,Anoka County,MN,97.97297297297297
55019,Rice County,MN,98.47972972972973
55021,Rice County,MN,91.55405405405406
55024,Dakota County,MN,70.4391891891892
55038,Washington County,MN,83.27702702702703
55040,Isanti County,MN,66.38513513513513
55041,Wabasha County,MN,83.9527027027027
55066,Goodhue County,MN,49.91554054054054
55068,Dakota County,MN,68.15878378378379
55070,Anoka County,MN,99.32432432432432
55076,Dakota County,MN,70.4391891891892
55082,Washington County,MN,88.9358108108108
55102,Ramsey County,MN,21.199324324324326
55105,Ramsey County,MN,76.60472972972973
55107,Ramsey County,MN,57.179054054054056
55113,Ramsey County,MN,47.97297297297297
55117,Ramsey County,MN,33.44594594594595
55123,Dakota County,MN,15.287162162162163
55125,Washington County,MN,71.875
55126,Ramsey County,MN,58.02364864864865
55127,Ramsey County,MN,50.8445945945946
55128,Washington County,MN,88.9358108108108
55129,Washington County,MN,77.53378378378379
55303,Anoka County,MN,77.95608108108108
55309,Sherburne County,MN,81.75675675675676
55313,Wright County,MN,10.472972972972974
55316,Hennepin County,MN,85.05067567567568
55318,Carver County,MN,36.6554054054054
55320,Wright County,MN,84.62837837837837
55327,Hennepin County,MN,100
55328,Wright County,MN,88.68243243243244
55330,Sherburne County,MN,30.99662162162162
55331,Hennepin County,MN,17.989864864864867
55345,Hennepin County,MN,71.28378378378379
55347,Hennepin County,MN,46.79054054054054
55356,Hennepin County,MN,94.51013513513513
55363,Wright County,MN,84.62837837837837
55369,Hennepin County,MN,68.66554054054053
55372,Scott County,MN,39.10472972972973
55379,Scott County,MN,40.28716216216216
55386,Carver County,MN,83.1081081081081
55387,Carver County,MN,95.86148648648648
55398,Sherburne County,MN,85.05067567567568
55404,Hennepin County,MN,3.3783783783783785
55406,Hennepin County,MN,63.766891891891895
55407,Hennepin County,MN,55.23648648648649
55409,Hennepin County,MN,58.02364864864865
55411,Hennepin County,MN,26.85810810810811
55421,Anoka County,MN,80.99662162162163
55423,Hennepin County,MN,85.8108108108108
55424,Hennepin County,MN,90.03378378378379
55433,Anoka County,MN,26.013513513513516
55434,Anoka County,MN,38.85135135135135
55435,Hennepin County,MN,96.875
55437,Hennepin County,MN,83.61486486486487
55439,Hennepin County,MN,62.75337837837838
55441,Hennepin County,MN,44.67905405405405
55442,Hennepin County,MN,98.7331081081081
55443,Hennepin County,MN,64.44256756756756
55444,Hennepin County,MN,77.87162162162163
55445,Hennepin County,MN,19.341216216216218
55447,Hennepin County,MN,78.20945945945947
55448,Anoka County,MN,80.57432432432432
55449,Anoka County,MN,46.11486486486486
55709,Itasca County,MN,77.2804054054054
55734,St. Louis County,MN,54.054054054054056
55806,St. Louis County,MN,29.81418918918919
55976,Olmsted County,MN,72.04391891891892
55987,Winona County,MN,10.388513513513512
56001,Blue Earth County,MN,7.263513513513513
56048,Waseca County,MN,91.63851351351352
56069,Le Sueur County,MN,97.12837837837837
56164,Pipestone County,MN,67.98986486486487
56187,Nobles County,MN,62.58445945945946
56201,Kandiyohi County,MN,67.14527027027027
56301,Stearns County,MN,15.878378378378377
56359,Mille Lacs County,MN,98.98648648648648
56377,Stearns County,MN,47.63513513513514
56537,Otter Tail County,MN,33.9527027027027
56560,Clay County,MN,18.58108108108108
56601,Beltrami County,MN,59.797297297297305
56633,Hubbard County,MN,56.58783783783784
56763,Roseau County,MN,92.0608108108108
38683,Tippah County,MS,47.63513513513514
38834,Alcorn County,MS,21.114864864864867
39047,Rankin County,MS,13.682432432432432
39073,Rankin County,MS,81.75675675675676
39094,Leake County,MS,68.41216216216216
39110,Madison County,MS,37.75337837837838
39154,Hinds County,MS,94.67905405405406
39191,Copiah County,MS,87.75337837837837
39350,Neshoba County,MS,8.277027027027026
39560,Harrison County,MS,61.14864864864865
63021,St. Louis County,MO,43.49662162162162
63026,St. Louis County,MO,62.5
63043,St. Louis County,MO,45.10135135135135
63052,Jefferson County,MO,13.85135135135135
63104,St. Louis city,MO,41.38513513513514
63144,St. Louis County,MO,98.64864864864865
63303,St. Charles County,MO,14.358108108108109
63366,St. Charles County,MO,6.25
63379,Lincoln County,MO,43.75
63385,St. Charles County,MO,9.20608108108108
63552,Macon County,MO,93.24324324324324
64050,Jackson County,MO,39.442567567567565
64063,Jackson County,MO,77.11148648648648
64076,Lafayette County,MO,80.4054054054054
64081,Jackson County,MO,26.182432432432435
64083,Cass County,MO,60.47297297297297
64111,Jackson County,MO,82.43243243243244
64117,Clay County,MO,20.60810810810811
64123,Jackson County,MO,63.00675675675676
64126,Jackson County,MO,96.95945945945947
64155,Clay County,MO,46.36824324324324
64439,Platte County,MO,83.9527027027027
64505,Buchanan County,MO,21.4527027027027
64633,Carroll County,MO,53.80067567567568
64744,Cedar County,MO,94.84797297297297
64843,McDonald County,MO,95.52364864864865
65026,Miller County,MO,65.625
65084,Morgan County,MO,96.0304054054054
65202,Boone County,MO,47.2972972972973
65203,Boone County,MO,5.152027027027027
65265,Audrain County,MO,40.54054054054054
65633,Stone County,MO,97.55067567567568
65803,Greene County,MO,57.60135135135135
59102,Yellowstone County,MT,72.80405405405406
59105,Yellowstone County,MT,78.29391891891892
59270,Richland County,MT,92.82094594594594
59404,Cascade County,MT,20.43918918918919
59804,Missoula County,MT,68.75
68025,Dodge County,NE,6.925675675675675
68107,Douglas County,NE,86.73986486486487
68122,Douglas County,NE,80.06756756756756
68355,Richardson County,NE,82.60135135135135
68510,Lancaster County,NE,92.39864864864865
68516,Lancaster County,NE,40.54054054054054
68526,Lancaster County,NE,92.0608108108108
68528,Lancaster County,NE,96.70608108108108
68776,Dakota County,NE,57.34797297297297
89145,Clark County,NV,53.20945945945946
89502,Washoe County,NV,65.96283783783784
89706,Carson City,NV,55.320945945945944
03031,Hillsborough County,NH,87.33108108108108
03044,Rockingham County,NH,98.81756756756756
03045,Hillsborough County,NH,76.01351351351352
03055,Hillsborough County,NH,79.05405405405406
03062,Hillsborough County,NH,15.45608108108108
03103,Hillsborough County,NH,10.81081081081081
03275,Merrimack County,NH,94.42567567567568
03301,Merrimack County,NH,13.85135135135135
03833,Rockingham County,NH,21.368243243243242
07006,Essex County,NJ,76.94256756756756
07013,Passaic County,NJ,97.46621621621621
07040,Essex County,NJ,50.8445945945946
07105,Essex County,NJ,73.1418918918919
07446,Bergen County,NJ,87.58445945945947
07461,Sussex County,NJ,42.736486486486484
07470,Passaic County,NJ,75.08445945945947
07764,Monmouth County,NJ,88.68243243243244
07866,Morris County,NJ,71.19932432432432
07869,Morris County,NJ,57.770270270270274
07932,Morris County,NJ,88.59797297297297
08003,Camden County,NJ,17.736486486486484
08021,Camden County,NJ,2.449324324324324
08031,Camden County,NJ,32.939189189189186
08035,Camden County,NJ,89.69594594594594
08088,Burlington County,NJ,60.810810810810814
08536,Middlesex County,NJ,90.37162162162163
08611,Mercer County,NJ,7.685810810810811
08807,Somerset County,NJ,60.38851351351351
08812,Middlesex County,NJ,54.054054054054056
08816,Middlesex County,NJ,50.16891891891891
08889,Hunterdon County,NJ,75.16891891891892
08902,Middlesex County,NJ,78.04054054054053
87107,Bernalillo County,NM,27.364864864864863
87108,Bernalillo County,NM,27.95608108108108
87112,Bernalillo County,NM,33.108108108108105
87120,Bernalillo County,NM,30.067567567567565
87123,Bernalillo County,NM,49.23986486486486
87740,Colfax County,NM,71.28378378378379
88005,Doa Ana County,NM,21.70608108108108
88030,Luna County,NM,49.66216216216216
10011,New York County,NY,50.25337837837838
10027,New York County,NY,40.87837837837838
10034,New York County,NY,57.854729729729726
10310,Richmond County,NY,27.280405405405407
10454,Bronx County,NY,55.320945945945944
10456,Bronx County,NY,2.1114864864864864
10457,Bronx County,NY,16.97635135135135
10458,Bronx County,NY,5.489864864864865
10462,Bronx County,NY,2.027027027027027
10467,Bronx County,NY,0.2533783783783784
10468,Bronx County,NY,1.5202702702702704
10472,Bronx County,NY,48.817567567567565
10507,Westchester County,NY,94.08783783783784
10509,Putnam County,NY,53.46283783783784
10541,Putnam County,NY,72.63513513513513
10562,Westchester County,NY,9.966216216216216
10701,Westchester County,NY,1.8581081081081081
11102,Queens County,NY,35.89527027027027
11208,Kings County,NY,18.66554054054054
11214,Kings County,NY,11.570945945945946
11229,Kings County,NY,58.69932432432432
11237,Kings County,NY,60.72635135135135
11355,Queens County,NY,6.081081081081082
11356,Queens County,NY,41.13175675675676
11368,Queens County,NY,50.67567567567568
11372,Queens County,NY,66.30067567567568
11374,Queens County,NY,66.72297297297297
11377,Queens County,NY,59.62837837837838
11378,Queens County,NY,45.016891891891895
11385,Queens County,NY,4.8141891891891895
11415,Queens County,NY,99.40878378378379
11432,Queens County,NY,7.4324324324324325
11520,Nassau County,NY,35.641891891891895
11710,Nassau County,NY,90.54054054054053
11967,Suffolk County,NY,43.07432432432432
12019,Saratoga County,NY,64.1891891891892
12401,Ulster County,NY,48.310810810810814
12901,Clinton County,NY,9.712837837837837
12992,Clinton County,NY,82.9391891891892
13021,Cayuga County,NY,3.040540540540541
13039,Onondaga County,NY,37.41554054054054
13066,Onondaga County,NY,45.10135135135135
13068,Tompkins County,NY,84.375
13080,Onondaga County,NY,94.67905405405406
13090,Onondaga County,NY,25.4222972972973
13114,Oswego County,NY,36.57094594594595
13131,Oswego County,NY,84.375
13617,St. Lawrence County,NY,60.895270270270274
13865,Broome County,NY,86.14864864864865
14001,Erie County,NY,69.5945945945946
14120,Niagara County,NY,3.7162162162162162
14206,Erie County,NY,29.39189189189189
14207,Erie County,NY,18.83445945945946
14211,Erie County,NY,2.5337837837837838
14221,Erie County,NY,11.14864864864865
14450,Monroe County,NY,0.5067567567567568
14469,Ontario County,NY,47.38175675675676
14487,Livingston County,NY,50.25337837837838
14526,Monroe County,NY,6.418918918918918
14589,Wayne County,NY,34.12162162162162
14621,Monroe County,NY,1.2668918918918919
14623,Monroe County,NY,6.503378378378379
14625,Monroe County,NY,31.165540540540544
14850,Tompkins County,NY,6.16554054054054
27023,Forsyth County,NC,28.631756756756754
27105,Forsyth County,NC,1.3513513513513513
27106,Forsyth County,NC,7.347972972972973
27127,Forsyth County,NC,32.432432432432435
27239,Davidson County,NC,51.09797297297297
27260,Guilford County,NC,19.510135135135133
27516,Orange County,NC,39.69594594594595
27596,Franklin County,NC,36.73986486486486
27606,Wake County,NC,20.18581081081081
27615,Wake County,NC,69.76351351351352
27713,Durham County,NC,11.486486486486488
27803,Nash County,NC,19.08783783783784
28027,Cabarrus County,NC,26.43581081081081
28054,Gaston County,NC,17.56756756756757
28078,Mecklenburg County,NC,70.1858108108108
28103,Union County,NC,45.10135135135135
28104,Union County,NC,30.91216216216216
28212,Mecklenburg County,NC,10.219594594594595
28270,Mecklenburg County,NC,25.33783783783784
28277,Mecklenburg County,NC,24.66216216216216
28304,Cumberland County,NC,17.22972972972973
28401,New Hanover County,NC,32.685810810810814
28403,New Hanover County,NC,32.0945945945946
28612,Burke County,NC,95.4391891891892
28752,McDowell County,NC,17.820945945945947
58012,Cass County,ND,99.07094594594594
58554,Morton County,ND,67.98986486486487
43004,Franklin County,OH,73.98648648648648
43015,Delaware County,OH,45.94594594594595
43035,Delaware County,OH,3.885135135135135
43065,Delaware County,OH,47.46621621621622
43078,Champaign County,OH,34.54391891891892
43119,Franklin County,OH,9.628378378378379
43123,Franklin County,OH,0.4222972972972973
43125,Franklin County,OH,65.03378378378379
43135,Hocking County,OH,90.87837837837837
43204,Franklin County,OH,23.47972972972973
43205,Franklin County,OH,25.929054054054053
43207,Franklin County,OH,13.597972972972974
43219,Franklin County,OH,49.32432432432432
43223,Franklin County,OH,26.52027027027027
43224,Franklin County,OH,1.435810810810811
43227,Franklin County,OH,20.945945945945947
43229,Franklin County,OH,31.841216216216218
43230,Franklin County,OH,19.93243243243243
43232,Franklin County,OH,2.6182432432432434
43551,Wood County,OH,53.37837837837838
43570,Williams County,OH,88.17567567567568
43605,Lucas County,OH,41.807432432432435
43607,Lucas County,OH,22.466216216216218
43701,Muskingum County,OH,3.4628378378378377
43725,Guernsey County,OH,11.908783783783784
43812,Coshocton County,OH,29.222972972972972
43912,Belmont County,OH,52.2804054054054
43943,Jefferson County,OH,62.58445945945946
44004,Ashtabula County,OH,5.405405405405405
44011,Lorain County,OH,46.28378378378378
44035,Lorain County,OH,0.16891891891891891
44070,Cuyahoga County,OH,5.658783783783783
44077,Lake County,OH,2.956081081081081
44087,Summit County,OH,16.554054054054053
44102,Cuyahoga County,OH,39.52702702702703
44108,Cuyahoga County,OH,46.0304054054054
44111,Cuyahoga County,OH,6.587837837837837
44121,Cuyahoga County,OH,64.1891891891892
44126,Cuyahoga County,OH,91.21621621621621
44129,Cuyahoga County,OH,14.611486486486486
44130,Cuyahoga County,OH,67.39864864864865
44139,Cuyahoga County,OH,89.27364864864865
44145,Cuyahoga County,OH,8.361486486486488
44203,Summit County,OH,3.040540540540541
44221,Summit County,OH,22.719594594594593
44223,Summit County,OH,10.72635135135135
44230,Wayne County,OH,48.39527027027027
44260,Portage County,OH,42.483108108108105
44270,Wayne County,OH,53.29391891891891
44273,Medina County,OH,81.58783783783784
44278,Summit County,OH,40.54054054054054
44305,Summit County,OH,3.6317567567567566
44307,Summit County,OH,64.52702702702703
44313,Summit County,OH,58.192567567567565
44405,Mahoning County,OH,42.060810810810814
44412,Portage County,OH,99.83108108108108
44432,Columbiana County,OH,85.89527027027027
44481,Trumbull County,OH,38.682432432432435
44515,Mahoning County,OH,34.71283783783784
44601,Stark County,OH,17.652027027027025
44618,Wayne County,OH,91.0472972972973
44643,Stark County,OH,97.63513513513513
44685,Summit County,OH,27.95608108108108
44705,Stark County,OH,83.19256756756756
44709,Stark County,OH,66.0472972972973
44805,Ashland County,OH,7.4324324324324325
44857,Huron County,OH,71.95945945945947
45011,Butler County,OH,0.33783783783783783
45013,Butler County,OH,1.1824324324324325
45040,Warren County,OH,4.72972972972973
45044,Butler County,OH,16.89189189189189
45050,Butler County,OH,73.39527027027027
45065,Warren County,OH,48.39527027027027
45066,Warren County,OH,47.80405405405405
45154,Brown County,OH,70.94594594594594
45204,Hamilton County,OH,65.2027027027027
45205,Hamilton County,OH,55.067567567567565
45216,Hamilton County,OH,29.898648648648653
45219,Hamilton County,OH,61.6554054054054
45224,Hamilton County,OH,62.41554054054054
45245,Clermont County,OH,29.898648648648653
45248,Hamilton County,OH,77.02702702702703
45251,Hamilton County,OH,12.753378378378377
45304,Darke County,OH,92.82094594594594
45305,Greene County,OH,84.54391891891892
45324,Greene County,OH,79.3918918918919
45335,Greene County,OH,70.4391891891892
45403,Montgomery County,OH,36.73986486486486
45409,Montgomery County,OH,90.70945945945947
45424,Montgomery County,OH,15.371621621621623
45656,Jackson County,OH,45.77702702702703
45872,Wood County,OH,75.16891891891892
45891,Van Wert County,OH,25.084459459459456
73003,Oklahoma County,OK,44.25675675675676
73008,Oklahoma County,OK,8.02364864864865
73012,Oklahoma County,OK,42.736486486486484
73018,Grady County,OK,69.51013513513513
73044,Logan County,OK,15.033783783783782
73075,Garvin County,OK,85.47297297297297
73099,Canadian County,OK,9.54391891891892
73117,Oklahoma County,OK,65.87837837837837
73401,Carter County,OK,16.385135135135133
73521,Jackson County,OK,30.658783783783782
73750,Kingfisher County,OK,96.70608108108108
74020,Pawnee County,OK,68.41216216216216
74501,Pittsburg County,OK,22.719594594594593
74745,McCurtain County,OK,71.11486486486487
74820,Pontotoc County,OK,34.29054054054054
97035,Clackamas County,OR,70.4391891891892
97045,Clackamas County,OR,47.04391891891892
97078,Washington County,OR,87.16216216216216
97128,Yamhill County,OR,23.73310810810811
97223,Washington County,OR,28.29391891891892
97229,Washington County,OR,4.476351351351352
97304,Polk County,OR,23.14189189189189
97701,Deschutes County,OR,39.27364864864865
97702,Deschutes County,OR,82.5168918918919
15063,Washington County,PA,73.64864864864865
15068,Westmoreland County,PA,59.12162162162162
15071,Allegheny County,PA,83.61486486486487
15102,Allegheny County,PA,97.63513513513513
15106,Allegheny County,PA,78.88513513513513
15122,Allegheny County,PA,19.847972972972975
15208,Allegheny County,PA,55.99662162162162
15212,Allegheny County,PA,8.952702702702704
15236,Allegheny County,PA,40.87837837837838
15237,Allegheny County,PA,17.820945945945947
15243,Allegheny County,PA,46.19932432432432
15301,Washington County,PA,35.641891891891895
15317,Washington County,PA,26.60472972972973
15401,Fayette County,PA,6.925675675675675
15601,Westmoreland County,PA,27.78716216216216
15632,Westmoreland County,PA,75.76013513513513
15834,Cameron County,PA,66.97635135135135
15904,Cambria County,PA,86.90878378378379
16055,Butler County,PA,46.79054054054054
16102,Lawrence County,PA,76.35135135135135
16148,Mercer County,PA,28.46283783783784
16323,Venango County,PA,37.16216216216216
16335,Crawford County,PA,21.030405405405407
16407,Erie County,PA,50.50675675675676
16505,Erie County,PA,71.70608108108108
16827,Centre County,PA,95.94594594594594
17033,Dauphin County,PA,2.364864864864865
17070,Cumberland County,PA,43.07432432432432
17331,York County,PA,3.040540540540541
17356,York County,PA,13.682432432432432
18066,Lehigh County,PA,88.68243243243244
18073,Montgomery County,PA,80.06756756756756
18080,Lehigh County,PA,45.10135135135135
18232,Carbon County,PA,98.90202702702703
18436,Wayne County,PA,88.42905405405406
18610,Monroe County,PA,99.91554054054053
19004,Montgomery County,PA,72.46621621621621
19053,Bucks County,PA,29.054054054054053
19104,Philadelphia County,PA,9.121621621621621
19111,Philadelphia County,PA,24.91554054054054
19115,Philadelphia County,PA,66.38513513513513
19116,Philadelphia County,PA,55.827702702702695
19152,Philadelphia County,PA,32.85472972972973
19154,Philadelphia County,PA,63.09121621621622
19382,Chester County,PA,31.50337837837838
19403,Montgomery County,PA,15.878378378378377
19406,Montgomery County,PA,96.11486486486487
19426,Montgomery County,PA,82.01013513513513
19438,Montgomery County,PA,41.13175675675676
19601,Berks County,PA,1.6891891891891893
02861,Providence County,RI,27.78716216216216
29385,Spartanburg County,SC,72.88851351351352
29403,Charleston County,SC,30.236486486486484
29483,Dorchester County,SC,3.5472972972972974
29566,Horry County,SC,86.2331081081081
29615,Greenville County,SC,50.67567567567568
29617,Greenville County,SC,35.388513513513516
29626,Anderson County,SC,94.51013513513513
29651,Greenville County,SC,8.192567567567567
29673,Greenville County,SC,79.47635135135135
29678,Oconee County,SC,33.02364864864865
29680,Greenville County,SC,74.74662162162163
29681,Greenville County,SC,22.04391891891892
29690,Greenville County,SC,95.52364864864865
57103,Minnehaha County,SD,37.66891891891892
57106,Minnehaha County,SD,16.638513513513516
57108,Lincoln County,SD,31.756756756756754
57110,Minnehaha County,SD,64.52702702702703
37013,Davidson County,TN,73.47972972972973
37030,Smith County,TN,82.60135135135135
37087,Wilson County,TN,51.435810810810814
37128,Rutherford County,TN,22.21283783783784
37138,Davidson County,TN,59.54391891891891
37203,Davidson County,TN,52.44932432432432
37211,Davidson County,TN,6.925675675675675
37217,Davidson County,TN,76.6891891891892
37228,Davidson County,TN,95.69256756756756
37311,Bradley County,TN,66.97635135135135
37421,Hamilton County,TN,21.70608108108108
37615,Washington County,TN,89.10472972972973
37664,Sullivan County,TN,24.66216216216216
37690,Washington County,TN,46.79054054054054
37763,Roane County,TN,61.90878378378378
37771,Loudon County,TN,85.30405405405406
37779,Union County,TN,98.22635135135135
37804,Blount County,TN,13.429054054054054
37918,Knox County,TN,6.587837837837837
38229,Weakley County,TN,99.5777027027027
38372,Hardin County,TN,31.41891891891892
38401,Maury County,TN,6.756756756756757
75002,Collin County,TX,4.8141891891891895
75025,Collin County,TX,58.952702702702695
75041,Dallas County,TX,32.263513513513516
75048,Dallas County,TX,25.084459459459456
75050,Dallas County,TX,61.233108108108105
75061,Dallas County,TX,24.155405405405407
75062,Dallas County,TX,43.91891891891892
75068,Denton County,TX,22.635135135135133
75103,Van Zandt County,TX,54.560810810810814
75142,Kaufman County,TX,33.9527027027027
75152,Ellis County,TX,86.99324324324324
75203,Dallas County,TX,74.07094594594594
75205,Dallas County,TX,89.44256756756756
75211,Dallas County,TX,4.391891891891892
75216,Dallas County,TX,33.192567567567565
75217,Dallas County,TX,15.202702702702704
75229,Dallas County,TX,28.800675675675674
75231,Dallas County,TX,8.108108108108109
75232,Dallas County,TX,23.22635135135135
75240,Dallas County,TX,44.763513513513516
75254,Dallas County,TX,32.77027027027027
75414,Grayson County,TX,91.63851351351352
75455,Titus County,TX,36.73986486486486
75703,Smith County,TX,33.44594594594595
75771,Smith County,TX,17.48310810810811
75803,Anderson County,TX,62.75337837837838
75901,Angelina County,TX,34.71283783783784
75975,Shelby County,TX,98.3108108108108
76002,Tarrant County,TX,22.550675675675674
76009,Johnson County,TX,44.5945945945946
76021,Tarrant County,TX,49.1554054054054
76063,Tarrant County,TX,1.6047297297297296
76088,Parker County,TX,68.75
76104,Tarrant County,TX,19.679054054054053
76105,Tarrant County,TX,27.111486486486484
76106,Tarrant County,TX,10.97972972972973
76112,Tarrant County,TX,12.922297297297296
76117,Tarrant County,TX,68.3277027027027
76119,Tarrant County,TX,1.097972972972973
76140,Tarrant County,TX,37.83783783783784
76164,Tarrant County,TX,38.42905405405405
76179,Tarrant County,TX,9.29054054054054
76182,Tarrant County,TX,77.44932432432432
76230,Montague County,TX,95.0168918918919
76244,Tarrant County,TX,19.763513513513516
76501,Bell County,TX,29.72972972972973
76692,Hill County,TX,65.2027027027027
76706,McLennan County,TX,54.054054054054056
76801,Brown County,TX,48.564189189189186
77007,Harris County,TX,60.05067567567568
77009,Harris County,TX,32.432432432432435
77047,Harris County,TX,90.79391891891892
77056,Harris County,TX,96.4527027027027
77057,Harris County,TX,35.89527027027027
77061,Harris County,TX,26.182432432432435
77080,Harris County,TX,66.21621621621621
77083,Harris County,TX,12.246621621621621
77093,Harris County,TX,22.381756756756758
77316,Montgomery County,TX,74.66216216216216
77339,Harris County,TX,59.375
77345,Harris County,TX,48.057432432432435
77373,Harris County,TX,13.344594594594595
77375,Harris County,TX,14.27364864864865
77381,Montgomery County,TX,91.13175675675676
77385,Montgomery County,TX,49.66216216216216
77389,Harris County,TX,33.44594594594595
77396,Harris County,TX,85.55743243243244
77414,Matagorda County,TX,37.9222972972973
77433,Harris County,TX,44.51013513513514
77479,Fort Bend County,TX,6.841216216216216
77494,Fort Bend County,TX,58.61486486486487
77498,Fort Bend County,TX,84.96621621621621
77511,Brazoria County,TX,4.222972972972973
77539,Galveston County,TX,40.03378378378378
77568,Galveston County,TX,29.39189189189189
77584,Brazoria County,TX,64.69594594594594
77803,Brazos County,TX,13.175675675675674
77836,Burleson County,TX,42.060810810810814
77871,Leon County,TX,86.2331081081081
78006,Kendall County,TX,50.8445945945946
78015,Bexar County,TX,69.76351351351352
78040,Webb County,TX,59.45945945945946
78046,Webb County,TX,0.8445945945945946
78069,Atascosa County,TX,60.979729729729726
78109,Bexar County,TX,41.13175675675676
78160,Wilson County,TX,99.1554054054054
78207,Bexar County,TX,1.7736486486486487
78213,Bexar County,TX,24.070945945945947
78218,Bexar County,TX,2.7871621621621623
78225,Bexar County,TX,84.20608108108108
78229,Bexar County,TX,33.27702702702703
78240,Bexar County,TX,11.824324324324325
78242,Bexar County,TX,12.41554054054054
78250,Bexar County,TX,7.4324324324324325
78254,Bexar County,TX,11.739864864864865
78258,Bexar County,TX,91.97635135135135
78414,Nueces County,TX,27.618243243243246
78504,Hidalgo County,TX,65.45608108108108
78566,Cameron County,TX,57.0945945945946
78577,Hidalgo County,TX,5.320945945945946
78626,Williamson County,TX,60.05067567567568
78628,Williamson County,TX,58.27702702702703
78641,Williamson County,TX,20.52364864864865
78648,Caldwell County,TX,51.09797297297297
78660,Travis County,TX,33.44594594594595
78723,Travis County,TX,87.58445945945947
78731,Travis County,TX,56.58783783783784
79415,Lubbock County,TX,51.520270270270274
79603,Taylor County,TX,8.868243243243242
79707,Midland County,TX,8.445945945945946
79758,Ector County,TX,98.1418918918919
79912,El Paso County,TX,13.006756756756758
84003,Utah County,UT,61.48648648648649
84005,Utah County,UT,89.52702702702703
84009,Salt Lake County,UT,70.86148648648648
84015,Davis County,UT,78.71621621621621
84020,Salt Lake County,UT,20.18581081081081
84062,Utah County,UT,22.21283783783784
84067,Weber County,UT,85.05067567567568
84074,Tooele County,UT,0.5912162162162162
84075,Davis County,UT,37.16216216216216
84081,Salt Lake County,UT,70.27027027027027
84088,Salt Lake County,UT,33.361486486486484
84098,Summit County,UT,48.733108108108105
84109,Salt Lake County,UT,52.61824324324324
84117,Salt Lake County,UT,42.483108108108105
84118,Salt Lake County,UT,61.82432432432432
84121,Salt Lake County,UT,42.736486486486484
84321,Cache County,UT,46.53716216216216
84653,Utah County,UT,84.62837837837837
84663,Utah County,UT,42.98986486486486
05602,Washington County,VT,40.54054054054054
20181,Prince William County,VA,91.63851351351352
22079,Fairfax County,VA,23.56418918918919
22124,Fairfax County,VA,69.1722972972973
22310,Fairfax County,VA,38.3445945945946
22601,Winchester city,VA,86.82432432432432
22701,Culpeper County,VA,41.891891891891895
22801,Harrisonburg city,VA,30.236486486486484
22802,Harrisonburg city,VA,14.020270270270272
22980,Waynesboro city,VA,4.054054054054054
23235,Chesterfield County,VA,44.25675675675676
23323,Chesapeake city,VA,31.165540540540544
23452,Virginia Beach city,VA,12.66891891891892
23454,Virginia Beach city,VA,57.939189189189186
23901,Prince Edward County,VA,52.61824324324324
24012,Roanoke city,VA,21.53716216216216
24230,Wise County,VA,52.02702702702703
24401,Staunton city,VA,64.3581081081081
24551,Bedford County,VA,75.33783783783784
98003,King County,WA,79.22297297297297
98012,Snohomish County,WA,21.95945945945946
98021,Snohomish County,WA,75.50675675675676
98023,King County,WA,24.324324324324326
98028,King County,WA,34.62837837837838
98030,King County,WA,25.591216216216218
98032,King County,WA,65.54054054054053
98040,King County,WA,55.99662162162162
98042,King County,WA,10.472972972972974
98047,King County,WA,92.4831081081081
98057,King County,WA,49.32432432432432
98108,King County,WA,58.445945945945944
98125,King County,WA,30.405405405405407
98133,King County,WA,69.76351351351352
98198,King County,WA,58.69932432432432
98199,King County,WA,43.91891891891892
98203,Snohomish County,WA,8.614864864864865
98208,Snohomish County,WA,73.81756756756756
98223,Snohomish County,WA,10.050675675675675
98284,Skagit County,WA,21.70608108108108
98338,Pierce County,WA,74.5777027027027
98360,Pierce County,WA,35.810810810810814
98374,Pierce County,WA,68.15878378378379
98391,Pierce County,WA,20.777027027027025
98503,Thurston County,WA,64.69594594594594
98512,Thurston County,WA,49.66216216216216
98513,Thurston County,WA,67.22972972972973
98626,Cowlitz County,WA,31.841216216216218
98908,Yakima County,WA,93.15878378378379
99352,Benton County,WA,66.63851351351352
20003,District of Columbia,DC,43.91891891891892
26201,Upshur County,WV,16.638513513513516
26508,Monongalia County,WV,12.753378378378377
53075,Sheboygan County,WI,97.88851351351352
53090,Washington County,WI,57.34797297297297
53110,Milwaukee County,WI,48.90202702702703
53132,Milwaukee County,WI,43.75
53154,Milwaukee County,WI,63.51351351351351
53181,Kenosha County,WI,79.05405405405406
53186,Waukesha County,WI,82.17905405405406
53189,Waukesha County,WI,31.58783783783784
53215,Milwaukee County,WI,62.16216216216216
53217,Milwaukee County,WI,14.527027027027026
53221,Milwaukee County,WI,52.44932432432432
53223,Milwaukee County,WI,73.5641891891892
53402,Racine County,WI,34.29054054054054
53511,Rock County,WI,0
53530,Lafayette County,WI,87.33108108108108
53597,Dane County,WI,71.28378378378379
53704,Dane County,WI,14.020270270270272
53711,Dane County,WI,10.304054054054054
53950,Juneau County,WI,53.04054054054054
53959,Sauk County,WI,32.263513513513516
53963,Dodge County,WI,57.179054054054056
54023,St. Croix County,WI,95.27027027027027
54025,St. Croix County,WI,98.5641891891892
54143,Marinette County,WI,69.1722972972973
54403,Marathon County,WI,51.689189189189186
54455,Marathon County,WI,82.26351351351352
54615,Jackson County,WI,79.89864864864865
54667,Vernon County,WI,75.76013513513513
54880,Douglas County,WI,0.08445945945945946
54902,Winnebago County,WI,86.0641891891892
54937,Fond du Lac County,WI,55.57432432432432
54956,Winnebago County,WI,4.138513513513513
