ZipCode,county,state,Youth,Pediatric,Adult,Retirement
35016,Marshall County,AL,NA,NA,51.5778019586507,NA
35121,Blount County,AL,NA,62.89978678038379,NA,NA
35131,St. Clair County,AL,NA,86.99360341151386,NA,NA
35151,Talladega County,AL,NA,NA,NA,96.79802955665025
35223,Jefferson County,AL,86.92098092643052,NA,NA,NA
35243,Jefferson County,AL,NA,NA,79.4341675734494,NA
35565,Winston County,AL,NA,NA,69.53210010881394,NA
35582,Franklin County,AL,NA,NA,90.75081610446138,NA
35603,Morgan County,AL,NA,NA,18.498367791077257,NA
35633,Lauderdale County,AL,78.2016348773842,NA,NA,NA
35747,Marshall County,AL,83.65122615803816,NA,NA,NA
35773,Madison County,AL,NA,NA,66.0500544069641,NA
35810,Madison County,AL,NA,NA,34.16757344940152,NA
35811,Madison County,AL,NA,NA,NA,48.76847290640394
36541,Mobile County,AL,NA,93.60341151385929,NA,NA
36567,Baldwin County,AL,NA,NA,83.89553862894451,NA
36604,Mobile County,AL,NA,NA,85.85418933623504,NA
36611,Mobile County,AL,NA,53.304904051172706,NA,NA
36613,Mobile County,AL,61.30790190735694,NA,NA,NA
36619,Mobile County,AL,NA,NA,75.73449401523395,NA
36701,Dallas County,AL,25.885558583106267,NA,NA,NA
36804,Lee County,AL,NA,NA,57.562568008705114,NA
36863,Chambers County,AL,NA,70.57569296375267,NA,NA
99501,Anchorage Municipality,AK,26.430517711171664,48.8272921108742,23.83025027203482,74.13793103448276
99502,Anchorage Municipality,AK,87.73841961852861,NA,51.25136017410229,NA
99504,Anchorage Municipality,AK,NA,NA,NA,47.53694581280788
99508,Anchorage Municipality,AK,NA,NA,20.239390642002174,NA
99516,Anchorage Municipality,AK,98.36512261580381,NA,NA,NA
99801,Juneau City and Borough,AK,NA,NA,99.12948857453753,NA
99835,Sitka City and Borough,AK,NA,NA,89.77149075081611,NA
85003,Maricopa County,AZ,NA,NA,79.97823721436343,NA
85007,Maricopa County,AZ,NA,NA,84.43960826985855,NA
85009,Maricopa County,AZ,NA,41.7910447761194,NA,NA
85014,Maricopa County,AZ,NA,81.6631130063966,NA,NA
85015,Maricopa County,AZ,NA,24.733475479744136,NA,NA
85041,Maricopa County,AZ,NA,NA,65.50598476605005,NA
85042,Maricopa County,AZ,NA,NA,58.10663764961915,NA
85122,Pinal County,AZ,5.177111716621254,48.61407249466951,64.8531011969532,NA
85123,Pinal County,AZ,NA,75.69296375266525,NA,NA
85138,Pinal County,AZ,NA,NA,87.81284004352557,NA
85140,Pinal County,AZ,NA,NA,37.10554951033732,NA
85201,Maricopa County,AZ,13.623978201634879,NA,NA,NA
85202,Maricopa County,AZ,NA,51.812366737739865,NA,NA
85210,Maricopa County,AZ,NA,NA,24.70076169749728,NA
85301,Maricopa County,AZ,4.904632152588556,NA,NA,NA
85331,Maricopa County,AZ,NA,NA,54.18933623503809,NA
85332,Yavapai County,AZ,NA,NA,NA,97.29064039408867
85345,Maricopa County,AZ,NA,NA,NA,17.733990147783253
85364,Yuma County,AZ,NA,12.153518123667377,NA,NA
85379,Maricopa County,AZ,NA,NA,NA,65.02463054187191
85382,Maricopa County,AZ,NA,97.86780383795309,NA,NA
85395,Maricopa County,AZ,NA,NA,72.47007616974973,NA
85546,Graham County,AZ,NA,87.42004264392324,NA,NA
85621,Santa Cruz County,AZ,NA,NA,44.50489662676823,NA
85648,Santa Cruz County,AZ,NA,13.646055437100213,NA,NA
85705,Pima County,AZ,NA,77.61194029850746,NA,NA
85706,Pima County,AZ,NA,26.01279317697228,NA,NA
85710,Pima County,AZ,NA,NA,10.772578890097932,NA
85712,Pima County,AZ,NA,NA,52.77475516866159,NA
85713,Pima County,AZ,NA,72.49466950959487,NA,NA
85714,Pima County,AZ,NA,45.41577825159915,NA,NA
85718,Pima County,AZ,NA,NA,89.44504896626768,NA
85719,Pima County,AZ,NA,NA,36.235038084874866,NA
85730,Pima County,AZ,NA,NA,28.726877040261158,NA
85739,Pinal County,AZ,67.57493188010899,NA,NA,NA
85741,Pima County,AZ,NA,48.18763326226013,NA,NA
85745,Pima County,AZ,NA,NA,27.31229597388466,NA
85746,Pima County,AZ,NA,NA,15.233949945593036,NA
85750,Pima County,AZ,NA,NA,67.02937976060936,NA
85756,Pima County,AZ,NA,17.91044776119403,NA,NA
85757,Pima County,AZ,NA,NA,28.944504896626768,NA
85929,Navajo County,AZ,NA,89.97867803837953,NA,NA
85941,Apache County,AZ,NA,21.321961620469082,NA,NA
86025,Navajo County,AZ,NA,74.84008528784648,NA,NA
86040,Coconino County,AZ,NA,NA,64.52665941240478,NA
86047,Navajo County,AZ,55.04087193460491,55.223880597014926,NA,NA
86505,Apache County,AZ,73.84196185286103,NA,84.54842219804135,NA
86510,Navajo County,AZ,NA,36.247334754797436,NA,NA
72120,Pulaski County,AR,NA,NA,NA,58.86699507389162
72160,Arkansas County,AR,66.4850136239782,NA,NA,NA
72223,Pulaski County,AR,NA,NA,NA,67.98029556650246
90001,Los Angeles County,CA,NA,30.916844349680172,NA,NA
90005,Los Angeles County,CA,NA,NA,86.39825897714908,NA
90015,Los Angeles County,CA,NA,NA,NA,99.01477832512316
90019,Los Angeles County,CA,NA,NA,41.34929270946681,NA
90026,Los Angeles County,CA,NA,NA,45.91947769314472,NA
90035,Los Angeles County,CA,NA,NA,NA,41.13300492610838
90038,Los Angeles County,CA,NA,85.50106609808103,NA,NA
90045,Los Angeles County,CA,NA,NA,63.32970620239391,NA
90077,Los Angeles County,CA,NA,NA,97.27965179542981,NA
90094,Los Angeles County,CA,NA,NA,93.68879216539717,NA
90201,Los Angeles County,CA,NA,11.513859275053305,NA,NA
90250,Los Angeles County,CA,NA,NA,26.550598476605003,NA
90255,Los Angeles County,CA,NA,20.46908315565032,NA,NA
90266,Los Angeles County,CA,NA,NA,90.31556039173014,NA
90403,Los Angeles County,CA,NA,NA,67.5734494015234,NA
90504,Los Angeles County,CA,NA,NA,68.55277475516867,NA
90813,Los Angeles County,CA,NA,NA,77.80195865070729,90.64039408866995
91030,Los Angeles County,CA,NA,NA,85.74537540805223,NA
91301,Los Angeles County,CA,NA,NA,73.23177366702937,NA
91303,Los Angeles County,CA,NA,NA,80.8487486398259,NA
91335,Los Angeles County,CA,NA,NA,33.8411316648531,NA
91343,Los Angeles County,CA,76.02179836512262,NA,NA,NA
91356,Los Angeles County,CA,97.00272479564033,NA,NA,NA
91401,Los Angeles County,CA,68.93732970027247,NA,NA,NA
91504,Los Angeles County,CA,NA,NA,71.38193688792165,NA
91505,Los Angeles County,CA,81.19891008174388,NA,NA,80.04926108374384
91711,Los Angeles County,CA,NA,NA,80.19586507072906,NA
91722,Los Angeles County,CA,NA,NA,68.66158868335147,NA
91739,San Bernardino County,CA,NA,NA,61.58868335146899,NA
91910,San Diego County,CA,NA,36.67377398720683,NA,NA
91977,San Diego County,CA,NA,35.39445628997868,NA,NA
91978,San Diego County,CA,NA,93.81663113006397,NA,NA
92009,San Diego County,CA,NA,90.40511727078892,NA,NA
92064,San Diego County,CA,43.05177111716621,NA,NA,NA
92065,San Diego County,CA,NA,69.29637526652452,NA,NA
92069,San Diego County,CA,NA,NA,NA,60.591133004926114
92083,San Diego County,CA,NA,56.71641791044776,NA,NA
92084,San Diego County,CA,NA,41.15138592750533,NA,NA
92102,San Diego County,CA,NA,45.41577825159915,NA,NA
92105,San Diego County,CA,20.435967302452315,9.168443496801707,19.1512513601741,NA
92110,San Diego County,CA,NA,NA,55.60391730141458,NA
92111,San Diego County,CA,NA,77.82515991471215,NA,NA
92115,San Diego County,CA,NA,NA,NA,50.24630541871922
92126,San Diego County,CA,32.15258855585831,NA,NA,NA
92127,San Diego County,CA,NA,83.7953091684435,NA,NA
92130,San Diego County,CA,NA,NA,63.76496191512514,NA
92131,San Diego County,CA,43.32425068119891,NA,NA,NA
92201,Riverside County,CA,NA,NA,NA,23.645320197044335
92264,Riverside County,CA,NA,NA,97.71490750816105,NA
92270,Riverside County,CA,NA,NA,NA,13.793103448275861
92316,San Bernardino County,CA,NA,NA,NA,80.54187192118226
92345,San Bernardino County,CA,NA,NA,12.295973884657236,NA
92346,San Bernardino County,CA,50.95367847411444,NA,NA,NA
92394,San Bernardino County,CA,NA,NA,48.20457018498368,NA
92399,San Bernardino County,CA,NA,NA,33.51468988030468,NA
92404,San Bernardino County,CA,NA,21.108742004264393,NA,35.960591133004925
92411,San Bernardino County,CA,NA,NA,NA,46.30541871921182
92504,Riverside County,CA,52.043596730245234,NA,NA,NA
92675,Orange County,CA,NA,NA,85.31011969532099,NA
92692,Orange County,CA,NA,NA,40.80522306855278,NA
92802,Orange County,CA,NA,NA,53.318824809575624,NA
92806,Orange County,CA,NA,68.44349680170576,NA,NA
93001,Ventura County,CA,NA,39.23240938166311,NA,NA
93003,Ventura County,CA,NA,45.20255863539446,64.20021762785638,NA
93021,Ventura County,CA,NA,NA,NA,57.14285714285714
93035,Ventura County,CA,NA,60.98081023454158,NA,NA
93065,Ventura County,CA,NA,78.25159914712152,NA,NA
93308,Kern County,CA,NA,NA,59.95647442872688,NA
93420,San Luis Obispo County,CA,NA,61.19402985074627,NA,NA
93422,San Luis Obispo County,CA,NA,57.356076759061835,NA,NA
93436,Santa Barbara County,CA,NA,54.15778251599147,NA,NA
93444,San Luis Obispo County,CA,NA,68.01705756929638,NA,NA
93446,San Luis Obispo County,CA,NA,NA,81.93688792165396,NA
93458,Santa Barbara County,CA,NA,NA,87.26877040261154,NA
93535,Los Angeles County,CA,NA,NA,10.990206746463548,NA
93543,Los Angeles County,CA,91.28065395095368,NA,NA,NA
93551,Los Angeles County,CA,NA,88.4861407249467,NA,NA
93552,Los Angeles County,CA,NA,NA,NA,78.32512315270937
93555,Kern County,CA,NA,NA,56.69205658324265,NA
93648,Fresno County,CA,NA,20.8955223880597,NA,NA
93657,Fresno County,CA,NA,NA,54.95103373231773,NA
93702,Fresno County,CA,NA,9.594882729211088,NA,NA
93711,Fresno County,CA,90.73569482288828,NA,NA,NA
93722,Fresno County,CA,NA,5.970149253731343,NA,NA
93905,Monterey County,CA,58.855585831062676,NA,NA,NA
93906,Monterey County,CA,NA,NA,NA,50
94015,San Mateo County,CA,NA,NA,43.41675734494015,NA
94019,San Mateo County,CA,NA,NA,NA,66.25615763546799
94027,San Mateo County,CA,NA,NA,94.45048966267682,NA
94040,Santa Clara County,CA,NA,NA,74.64635473340587,NA
94043,Santa Clara County,CA,NA,NA,72.68770402611534,NA
94062,San Mateo County,CA,NA,95.3091684434968,NA,NA
94063,San Mateo County,CA,NA,NA,42.76387377584331,NA
94070,San Mateo County,CA,NA,NA,77.9107725788901,NA
94102,San Francisco County,CA,83.92370572207084,84.64818763326227,NA,12.31527093596059
94109,San Francisco County,CA,NA,NA,95.10337323177367,NA
94110,San Francisco County,CA,NA,33.26226012793177,60.60935799782372,NA
94112,San Francisco County,CA,NA,21.748400852878465,NA,73.15270935960592
94114,San Francisco County,CA,NA,NA,46.46354733405876,NA
94115,San Francisco County,CA,NA,NA,NA,40.39408866995074
94122,San Francisco County,CA,NA,81.6631130063966,46.028291621327526,NA
94130,San Francisco County,CA,NA,NA,98.5854189336235,NA
94133,San Francisco County,CA,NA,NA,NA,98.52216748768473
94134,San Francisco County,CA,NA,NA,69.96735582154517,NA
94158,San Francisco County,CA,NA,NA,91.94776931447225,NA
94301,Santa Clara County,CA,NA,NA,90.64200217627857,NA
94303,San Mateo County,CA,NA,NA,30.68552774755169,NA
94401,San Mateo County,CA,NA,NA,94.2328618063112,NA
94501,Alameda County,CA,NA,NA,87.48639825897715,NA
94536,Alameda County,CA,NA,NA,63.873775843307946,NA
94553,Contra Costa County,CA,NA,NA,NA,34.23645320197045
94563,Contra Costa County,CA,75.47683923705722,NA,NA,NA
94601,Alameda County,CA,68.39237057220708,NA,NA,NA
94606,Alameda County,CA,NA,58.2089552238806,NA,NA
94610,Alameda County,CA,NA,NA,84.33079434167573,NA
94703,Alameda County,CA,NA,NA,NA,77.58620689655173
94706,Alameda County,CA,NA,NA,NA,86.69950738916256
94903,Marin County,CA,NA,NA,73.6670293797606,NA
94947,Marin County,CA,NA,97.22814498933901,NA,NA
94952,Sonoma County,CA,NA,NA,75.1904243743199,NA
95035,Santa Clara County,CA,NA,NA,48.74863982589772,NA
95124,Santa Clara County,CA,86.64850136239782,NA,NA,NA
95131,Santa Clara County,CA,NA,NA,NA,88.66995073891626
95307,Stanislaus County,CA,NA,NA,34.92927094668117,NA
95340,Merced County,CA,NA,NA,37.75843307943417,NA
95367,Stanislaus County,CA,NA,NA,53.10119695321001,NA
95404,Sonoma County,CA,72.75204359673025,NA,NA,NA
95405,Sonoma County,CA,NA,NA,73.3405875952122,NA
95467,Lake County,CA,NA,NA,98.69423286180631,NA
95608,Sacramento County,CA,NA,NA,NA,27.586206896551722
95628,Sacramento County,CA,NA,NA,96.62676822633297,NA
95667,El Dorado County,CA,NA,NA,64.30903155603917,NA
95817,Sacramento County,CA,NA,NA,78.12840043525571,NA
95823,Sacramento County,CA,NA,NA,NA,25.862068965517242
95826,Sacramento County,CA,91.55313351498637,NA,52.33949945593036,NA
95833,Sacramento County,CA,NA,NA,NA,87.4384236453202
95834,Sacramento County,CA,NA,NA,NA,79.80295566502463
95838,Sacramento County,CA,69.48228882833789,NA,NA,NA
95864,Sacramento County,CA,NA,NA,77.9107725788901,NA
96143,Placer County,CA,NA,87.63326226012794,NA,NA
80005,Jefferson County,CO,NA,NA,NA,89.16256157635468
80010,Arapahoe County,CO,NA,NA,20.89227421109902,NA
80011,Arapahoe County,CO,NA,NA,33.949945593035906,NA
80012,Arapahoe County,CO,NA,24.093816631130064,NA,NA
80015,Arapahoe County,CO,NA,NA,66.37649619151252,NA
80026,Boulder County,CO,NA,NA,NA,55.66502463054187
80112,Arapahoe County,CO,NA,81.4498933901919,NA,NA
80126,Douglas County,CO,NA,NA,51.03373231773667,NA
80127,Jefferson County,CO,NA,NA,NA,81.5270935960591
80203,Denver County,CO,NA,93.17697228144989,NA,NA
80204,Denver County,CO,33.787465940054496,NA,NA,NA
80207,Denver County,CO,32.69754768392371,NA,NA,NA
80209,Denver County,CO,81.47138964577657,NA,NA,NA
80210,Denver County,CO,NA,NA,NA,83.74384236453201
80216,Denver County,CO,NA,NA,68.44396082698584,NA
80219,Denver County,CO,19.618528610354225,NA,NA,NA
80220,Denver County,CO,NA,NA,NA,70.6896551724138
80223,Denver County,CO,NA,67.16417910447761,NA,NA
80226,Jefferson County,CO,30.24523160762943,NA,NA,NA
80232,Jefferson County,CO,NA,NA,76.06093579978237,NA
80237,Denver County,CO,79.83651226158038,NA,NA,NA
80238,Denver County,CO,NA,NA,NA,93.59605911330048
80247,Arapahoe County,CO,67.30245231607628,NA,NA,NA
80260,Adams County,CO,NA,23.240938166311302,45.484221980413494,NA
80439,Jefferson County,CO,NA,NA,NA,58.128078817733986
80514,Weld County,CO,98.09264305177112,NA,NA,NA
80516,Weld County,CO,NA,NA,NA,68.96551724137932
80526,Larimer County,CO,27.79291553133515,NA,NA,NA
80602,Adams County,CO,NA,NA,NA,63.30049261083743
80615,Weld County,CO,NA,NA,81.71926006528835,NA
80631,Weld County,CO,NA,22.388059701492537,10.228509249183896,NA
80808,El Paso County,CO,NA,NA,89.98911860718172,NA
80817,El Paso County,CO,NA,NA,51.79542981501633,NA
80921,El Paso County,CO,NA,99.14712153518124,NA,NA
81007,Pueblo County,CO,60.76294277929155,NA,NA,NA
81008,Pueblo County,CO,NA,NA,82.58977149075082,NA
81132,Rio Grande County,CO,NA,91.47121535181236,NA,NA
81401,Montrose County,CO,NA,NA,46.681175190424376,NA
06010,Hartford County,CT,NA,NA,16.2132752992383,NA
06019,Hartford County,CT,NA,NA,96.84439608269858,NA
06032,Hartford County,CT,NA,NA,NA,75.36945812807882
06040,Hartford County,CT,NA,NA,12.840043525571273,NA
06057,Litchfield County,CT,NA,NA,99.67355821545158,NA
06060,Hartford County,CT,NA,NA,99.78237214363439,NA
06067,Hartford County,CT,NA,NA,NA,70.19704433497537
06085,Hartford County,CT,79.83651226158038,NA,NA,94.33497536945814
06098,Litchfield County,CT,98.9100817438692,NA,NA,NA
06106,Hartford County,CT,NA,NA,NA,19.950738916256157
06108,Hartford County,CT,NA,49.89339019189765,61.80631120783461,NA
06111,Hartford County,CT,NA,94.88272921108742,39.82589771490751,NA
06226,Windham County,CT,NA,NA,65.28835690968444,NA
06250,Tolland County,CT,NA,NA,94.88574537540805,NA
06255,Windham County,CT,NA,NA,74.31991294885746,NA
06401,New Haven County,CT,NA,NA,33.73231773667029,NA
06460,New Haven County,CT,NA,NA,31.991294885745376,NA
06492,New Haven County,CT,NA,NA,70.40261153427639,NA
06513,New Haven County,CT,NA,29.42430703624733,NA,NA
06517,New Haven County,CT,NA,NA,NA,49.75369458128079
06519,New Haven County,CT,NA,NA,25.571273122959738,NA
06706,New Haven County,CT,NA,NA,58.541893362350386,NA
06708,New Haven County,CT,NA,NA,24.483133841131664,NA
06710,New Haven County,CT,NA,NA,57.12731229597389,NA
06786,Litchfield County,CT,82.01634877384197,NA,NA,NA
06790,Litchfield County,CT,NA,NA,NA,3.6945812807881775
06901,Fairfield County,CT,NA,NA,93.03590859630033,NA
19702,New Castle County,DE,NA,NA,NA,25.12315270935961
19707,New Castle County,DE,NA,NA,83.56909684439609,NA
19713,New Castle County,DE,NA,NA,34.05875952121872,NA
19966,Sussex County,DE,NA,46.908315565031984,NA,NA
32034,Nassau County,FL,NA,NA,NA,14.532019704433496
32068,Clay County,FL,NA,NA,59.19477693144722,NA
32084,St. Johns County,FL,55.5858310626703,NA,NA,NA
32114,Volusia County,FL,NA,NA,24.809575625680086,NA
32141,Volusia County,FL,NA,NA,70.72905331882481,NA
32168,Volusia County,FL,NA,NA,60.93579978237214,NA
32216,Duval County,FL,NA,NA,50.16322089227421,NA
32506,Escambia County,FL,NA,NA,NA,24.38423645320197
32534,Escambia County,FL,NA,NA,NA,52.21674876847291
32541,Okaloosa County,FL,NA,NA,NA,43.5960591133005
32561,Santa Rosa County,FL,NA,NA,87.59521218715996,NA
32571,Santa Rosa County,FL,NA,NA,NA,21.428571428571427
32656,Clay County,FL,NA,66.31130063965884,NA,NA
32666,Putnam County,FL,NA,NA,85.52774755168662,NA
32669,Alachua County,FL,NA,NA,66.1588683351469,NA
32724,Volusia County,FL,NA,NA,NA,29.802955665024633
32767,Lake County,FL,NA,96.16204690831557,NA,NA
32806,Orange County,FL,NA,NA,70.29379760609358,NA
32976,Brevard County,FL,NA,NA,NA,59.60591133004927
33012,Miami-Dade County,FL,65.9400544959128,NA,NA,NA
33028,Broward County,FL,NA,NA,91.73014145810664,NA
33032,Miami-Dade County,FL,NA,NA,42.110990206746465,NA
33054,Miami-Dade County,FL,NA,NA,NA,75.61576354679804
33064,Broward County,FL,NA,NA,39.06420021762786,NA
33068,Broward County,FL,NA,NA,43.96082698585419,NA
33125,Miami-Dade County,FL,NA,30.06396588486141,43.63438520130577,NA
33141,Miami-Dade County,FL,NA,76.11940298507463,NA,NA
33142,Miami-Dade County,FL,NA,18.123667377398718,NA,NA
33161,Miami-Dade County,FL,NA,41.57782515991471,NA,NA
33175,Miami-Dade County,FL,NA,NA,NA,30.295566502463057
33177,Miami-Dade County,FL,NA,18.763326226012794,NA,NA
33184,Miami-Dade County,FL,NA,71.85501066098081,NA,NA
33304,Broward County,FL,NA,NA,76.82263329706203,NA
33311,Broward County,FL,NA,NA,8.596300326441785,NA
33463,Palm Beach County,FL,NA,21.961620469083158,NA,NA
33547,Hillsborough County,FL,NA,NA,79.10772578890098,NA
33563,Hillsborough County,FL,NA,NA,47.1164309031556,NA
33611,Hillsborough County,FL,NA,NA,NA,65.02463054187191
33701,Pinellas County,FL,NA,NA,NA,69.95073891625616
33801,Polk County,FL,NA,NA,24.918389553862895,NA
34205,Manatee County,FL,NA,NA,78.89009793253537,NA
34212,Manatee County,FL,NA,NA,NA,61.330049261083744
34473,Marion County,FL,NA,NA,47.98694232861806,NA
34474,Marion County,FL,NA,NA,62.132752992383026,NA
34758,Osceola County,FL,NA,NA,24.26550598476605,NA
34949,St. Lucie County,FL,NA,NA,NA,82.01970443349754
34986,St. Lucie County,FL,NA,NA,48.42219804134929,NA
30014,Newton County,GA,NA,59.70149253731343,NA,NA
30034,DeKalb County,GA,NA,NA,32.861806311207836,NA
30064,Cobb County,GA,NA,NA,61.37105549510338,NA
30116,Carroll County,GA,NA,NA,46.898803046789986,NA
30179,Carroll County,GA,NA,92.96375266524521,NA,NA
30180,Carroll County,GA,NA,NA,54.73340587595212,NA
30188,Cherokee County,GA,NA,NA,24.156692056583243,NA
30253,Henry County,GA,NA,NA,NA,59.35960591133005
30291,Fulton County,GA,NA,61.407249466950965,NA,NA
30324,Fulton County,GA,NA,NA,79.86942328618063,NA
30344,Fulton County,GA,NA,NA,NA,76.10837438423646
30720,Whitfield County,GA,NA,73.13432835820896,NA,NA
30721,Whitfield County,GA,NA,NA,26.115342763873777,NA
31027,Laurens County,GA,82.56130790190736,NA,NA,NA
31064,Jasper County,GA,NA,NA,NA,79.55665024630541
31308,Bryan County,GA,NA,NA,93.36235038084875,NA
31501,Ware County,GA,NA,NA,NA,68.22660098522168
31558,Camden County,GA,NA,86.35394456289978,NA,NA
31907,Muscogee County,GA,NA,NA,10.01088139281828,NA
39828,Grady County,GA,61.30790190735694,NA,NA,NA
96717,Honolulu County,HI,NA,89.97867803837953,NA,NA
96732,Maui County,HI,NA,NA,NA,89.65517241379311
96743,Hawaii County,HI,NA,NA,79.21653971708379,NA
96748,Maui County,HI,NA,NA,90.20674646354733,NA
96793,Maui County,HI,92.91553133514986,NA,NA,NA
96795,Honolulu County,HI,NA,NA,NA,81.77339901477832
96813,Honolulu County,HI,NA,NA,NA,38.669950738916256
96816,Honolulu County,HI,NA,NA,NA,23.891625615763548
83221,Bingham County,ID,NA,NA,NA,25.36945812807882
83340,Blaine County,ID,NA,NA,94.12404787812841,NA
83401,Bonneville County,ID,NA,NA,17.301414581066375,NA
83402,Bonneville County,ID,NA,NA,77.47551686615887,NA
83651,Canyon County,ID,NA,NA,20.130576713819366,NA
83686,Canyon County,ID,NA,NA,NA,7.635467980295567
83687,Canyon County,ID,17.983651226158038,NA,NA,24.63054187192118
83702,Ada County,ID,NA,NA,33.18824809575626,NA
83705,Ada County,ID,NA,NA,32.20892274211099,NA
83706,Ada County,ID,NA,NA,NA,29.55665024630542
83709,Ada County,ID,NA,42.643923240938165,44.613710554951034,NA
83855,Latah County,ID,NA,NA,NA,99.75369458128078
60002,Lake County,IL,NA,NA,59.630032644178456,NA
60010,Lake County,IL,NA,NA,40.369967355821544,NA
60026,Cook County,IL,NA,NA,NA,54.187192118226605
60030,Lake County,IL,NA,NA,42.87268770402611,NA
60035,Lake County,IL,NA,NA,NA,52.95566502463054
60073,Lake County,IL,NA,NA,NA,33.743842364532014
60089,Lake County,IL,47.41144414168937,NA,NA,16.502463054187192
60097,McHenry County,IL,NA,NA,NA,73.89162561576354
60098,McHenry County,IL,NA,NA,NA,20.44334975369458
60106,DuPage County,IL,85.01362397820164,NA,NA,NA
60110,Kane County,IL,87.46594005449592,NA,NA,NA
60126,DuPage County,IL,NA,NA,38.52013057671382,NA
60137,DuPage County,IL,58.31062670299727,NA,89.55386289445049,NA
60148,DuPage County,IL,17.43869209809264,NA,17.19260065288357,NA
60177,Kane County,IL,NA,NA,57.453754080522316,NA
60201,Cook County,IL,37.32970027247956,NA,73.01414581066376,NA
60302,Cook County,IL,NA,NA,36.34385201305767,NA
60403,Will County,IL,62.94277929155313,NA,NA,NA
60411,Cook County,IL,NA,NA,15.88683351468988,NA
60419,Cook County,IL,77.9291553133515,NA,NA,NA
60439,Cook County,IL,53.40599455040872,NA,NA,NA
60443,Cook County,IL,NA,NA,NA,43.103448275862064
60446,Will County,IL,NA,NA,17.51904243743199,NA
60451,Will County,IL,63.76021798365122,NA,NA,NA
60459,Cook County,IL,77.65667574931881,NA,NA,NA
60466,Cook County,IL,NA,NA,48.857453754080524,NA
60477,Cook County,IL,28.882833787465938,NA,29.16213275299238,NA
60481,Will County,IL,NA,NA,67.13819368879217,NA
60491,Will County,IL,38.41961852861036,NA,38.193688792165396,NA
60525,Cook County,IL,NA,NA,NA,53.44827586206896
60526,Cook County,IL,29.155313351498634,NA,NA,NA
60546,Cook County,IL,64.03269754768392,NA,NA,NA
60559,DuPage County,IL,31.33514986376022,NA,NA,NA
60586,Will County,IL,17.166212534059948,NA,NA,NA
60608,Cook County,IL,25.61307901907357,NA,NA,NA
60615,Cook County,IL,NA,NA,81.28400435255713,NA
60620,Cook County,IL,NA,NA,8.705114254624592,NA
60625,Cook County,IL,NA,NA,13.492927094668117,NA
60626,Cook County,IL,NA,NA,21.436343852013056,NA
60634,Cook County,IL,NA,NA,79.97823721436343,NA
60638,Cook County,IL,NA,NA,11.643090315560393,NA
60642,Cook County,IL,NA,NA,76.71381936887923,NA
60651,Cook County,IL,NA,NA,NA,42.857142857142854
60654,Cook County,IL,NA,NA,70.5114254624592,NA
60656,Cook County,IL,85.55858310626702,NA,NA,NA
60660,Cook County,IL,NA,NA,30.03264417845484,NA
60804,Cook County,IL,NA,NA,22.089227421109904,NA
60827,Cook County,IL,NA,NA,NA,83.99014778325123
60942,Vermilion County,IL,NA,NA,88.57453754080522,NA
60957,Ford County,IL,NA,NA,NA,90.88669950738915
61021,Lee County,IL,NA,NA,NA,11.330049261083744
61310,Lee County,IL,NA,NA,NA,95.32019704433498
61520,Fulton County,IL,NA,NA,NA,62.315270935960584
61856,Piatt County,IL,NA,NA,91.1860718171926,NA
61944,Edgar County,IL,69.20980926430518,NA,NA,NA
61951,Moultrie County,IL,NA,NA,96.08269858541894,NA
62226,St. Clair County,IL,NA,NA,43.30794341675735,NA
62526,Macon County,IL,NA,NA,14.145810663764962,12.561576354679804
62881,Marion County,IL,84.74114441416893,NA,NA,NA
62959,Williamson County,IL,NA,NA,42.437431991294886,NA
46011,Madison County,IN,NA,NA,49.40152339499456,NA
46222,Marion County,IN,NA,13.219616204690832,NA,NA
46226,Marion County,IN,NA,28.997867803837952,NA,NA
46307,Lake County,IN,NA,NA,15.995647442872688,NA
46322,Lake County,IN,NA,NA,26.768226332970617,NA
46342,Lake County,IN,NA,NA,6.528835690968444,NA
46350,LaPorte County,IN,NA,NA,10.663764961915124,NA
46356,Lake County,IN,NA,NA,63.54733405875952,NA
46360,LaPorte County,IN,NA,NA,6.746463547334058,NA
46368,Porter County,IN,1.6348773841961852,NA,3.373231773667029,NA
46375,Lake County,IN,NA,NA,35.03808487486398,NA
46383,Porter County,IN,NA,NA,9.249183895538629,NA
46394,Lake County,IN,NA,NA,53.97170837867247,NA
46410,Lake County,IN,NA,NA,8.487486398258977,NA
46517,Elkhart County,IN,NA,NA,48.313384113166485,NA
46807,Allen County,IN,NA,NA,50.81610446137106,NA
46901,Howard County,IN,37.32970027247956,NA,NA,NA
46936,Howard County,IN,NA,NA,74.9727965179543,NA
47025,Dearborn County,IN,41.96185286103542,NA,NA,NA
47167,Washington County,IN,NA,NA,NA,56.15763546798029
47240,Decatur County,IN,NA,76.54584221748401,NA,NA
47274,Jackson County,IN,NA,NA,30.903155603917305,NA
47302,Delaware County,IN,NA,NA,20.5658324265506,NA
47362,Henry County,IN,NA,NA,23.5038084874864,NA
47438,Greene County,IN,NA,NA,97.0620239390642,NA
47591,Knox County,IN,NA,NA,67.6822633297062,NA
47882,Sullivan County,IN,NA,NA,75.0816104461371,NA
47932,Fountain County,IN,NA,NA,NA,74.63054187192118
50010,Story County,IA,NA,NA,56.03917301414582,NA
50138,Marion County,IA,NA,NA,NA,66.99507389162561
50313,Polk County,IA,NA,NA,70.83786724700761,NA
50314,Polk County,IA,43.869209809264305,NA,NA,NA
50315,Polk County,IA,NA,NA,92.16539717083788,NA
50401,Cerro Gordo County,IA,NA,50.74626865671642,41.022850924918394,15.024630541871922
50441,Franklin County,IA,92.64305177111717,NA,NA,NA
50613,Black Hawk County,IA,NA,NA,92.8182807399347,NA
50659,Chickasaw County,IA,99.1825613079019,NA,NA,NA
51250,Sioux County,IA,NA,NA,86.28944504896626,NA
51360,Dickinson County,IA,NA,NA,NA,98.27586206896551
51501,Pottawattamie County,IA,7.901907356948229,NA,3.917301414581066,NA
51534,Mills County,IA,64.30517711171662,NA,NA,NA
51537,Shelby County,IA,74.93188010899182,NA,NA,83.49753694581281
51566,Montgomery County,IA,NA,NA,74.53754080522307,NA
52240,Johnson County,IA,NA,74.4136460554371,NA,NA
52241,Johnson County,IA,NA,NA,45.37540805223069,NA
52361,Iowa County,IA,NA,NA,99.8911860718172,NA
52404,Linn County,IA,3.8147138964577656,NA,NA,NA
52722,Scott County,IA,NA,NA,23.06855277475517,35.221674876847295
52778,Muscatine County,IA,NA,NA,98.36779107725789,NA
66062,Johnson County,KS,NA,NA,13.057671381936888,NA
67156,Cowley County,KS,NA,NA,75.29923830250273,NA
67203,Sedgwick County,KS,NA,NA,70.620239390642,NA
67401,Saline County,KS,39.509536784741144,NA,NA,NA
67432,Clay County,KS,NA,NA,91.94776931447225,NA
67665,Russell County,KS,NA,NA,NA,80.78817733990148
40019,Henry County,KY,NA,NA,92.49183895538629,NA
40033,Marion County,KY,NA,NA,NA,72.41379310344827
40059,Jefferson County,KY,93.46049046321527,NA,NA,NA
40204,Jefferson County,KY,NA,92.32409381663112,NA,NA
40208,Jefferson County,KY,NA,NA,49.9455930359086,NA
40212,Jefferson County,KY,NA,NA,57.671381936887926,NA
40218,Jefferson County,KY,23.705722070844686,NA,NA,NA
40229,Jefferson County,KY,NA,NA,14.472252448313384,28.078817733990146
40312,Powell County,KY,NA,NA,91.40369967355821,NA
40322,Menifee County,KY,NA,NA,99.56474428726877,NA
40351,Rowan County,KY,NA,NA,23.721436343852012,NA
40383,Woodford County,KY,71.38964577656675,NA,NA,NA
40475,Madison County,KY,NA,NA,9.793253536452665,NA
40504,Fayette County,KY,NA,42.643923240938165,NA,NA
40701,Whitley County,KY,NA,27.078891257995735,NA,NA
40935,Knox County,KY,NA,91.47121535181236,NA,NA
41015,Kenton County,KY,NA,62.47334754797441,NA,NA
41017,Kenton County,KY,NA,NA,34.60282916213275,NA
41040,Pendleton County,KY,NA,NA,65.83242655059848,NA
41101,Boyd County,KY,NA,NA,48.09575625680087,26.354679802955665
41230,Lawrence County,KY,NA,NA,28.40043525571273,50.49261083743842
41301,Wolfe County,KY,NA,NA,72.25244831338411,NA
42129,Metcalfe County,KY,NA,65.0319829424307,NA,NA
42240,Christian County,KY,26.70299727520436,NA,NA,NA
42303,Daviess County,KY,NA,NA,11.860718171926006,NA
42330,Muhlenberg County,KY,NA,NA,69.85854189336234,NA
42701,Hardin County,KY,14.441416893732969,NA,NA,NA
42749,Hart County,KY,NA,NA,NA,88.91625615763546
70003,Jefferson Parish,LA,3.2697547683923704,NA,NA,NA
70005,Jefferson Parish,LA,NA,43.49680170575693,NA,NA
70065,Jefferson Parish,LA,NA,NA,23.39499455930359,4.926108374384237
70090,St. James Parish,LA,NA,NA,NA,93.34975369458128
70118,Orleans Parish,LA,NA,NA,49.727965179542984,26.60098522167488
70119,Orleans Parish,LA,NA,NA,5.549510337323178,NA
70128,Orleans Parish,LA,NA,7.889125799573561,NA,NA
70345,Lafourche Parish,LA,NA,NA,75.29923830250273,NA
70360,Terrebonne Parish,LA,33.2425068119891,NA,NA,NA
70363,Terrebonne Parish,LA,NA,6.609808102345416,NA,NA
70377,Terrebonne Parish,LA,NA,72.92110874200426,NA,NA
70390,Assumption Parish,LA,NA,NA,57.12731229597389,NA
70427,Washington Parish,LA,NA,NA,NA,29.310344827586203
70435,St. Tammany Parish,LA,NA,NA,77.6931447225245,NA
70438,Washington Parish,LA,NA,NA,61.04461371055495,NA
70441,St. Helena Parish,LA,NA,22.174840085287848,NA,NA
70450,Washington Parish,LA,NA,NA,97.60609357997824,NA
70452,St. Tammany Parish,LA,NA,NA,23.177366702937977,NA
70454,Tangipahoa Parish,LA,NA,40.72494669509595,NA,NA
70501,Lafayette Parish,LA,NA,NA,16.974972796517953,NA
70543,Acadia Parish,LA,NA,100,NA,NA
70570,St. Landry Parish,LA,NA,NA,25.35364526659412,NA
70583,Lafayette Parish,LA,NA,97.6545842217484,NA,NA
70611,Calcasieu Parish,LA,NA,NA,31.77366702937976,NA
70668,Calcasieu Parish,LA,NA,NA,NA,91.87192118226602
70807,East Baton Rouge Parish,LA,NA,60.76759061833689,NA,NA
71078,De Soto Parish,LA,NA,NA,NA,77.0935960591133
71101,Caddo Parish,LA,NA,22.60127931769723,NA,NA
71202,Ouachita Parish,LA,NA,NA,5.8759521218716,NA
71301,Rapides Parish,LA,11.444141689373296,NA,NA,NA
71423,Grant Parish,LA,NA,NA,90.85963003264418,NA
03901,York County,ME,NA,82.30277185501066,NA,NA
03908,York County,ME,NA,95.94882729211088,NA,NA
04002,York County,ME,NA,NA,NA,79.3103448275862
04005,York County,ME,NA,NA,17.845484221980414,NA
04038,Cumberland County,ME,NA,NA,52.55712731229597,NA
04046,York County,ME,NA,NA,NA,75.86206896551724
04072,York County,ME,NA,57.782515991471215,NA,NA
04073,York County,ME,NA,31.13006396588486,NA,NA
04092,Cumberland County,ME,NA,43.49680170575693,NA,NA
04101,Cumberland County,ME,NA,50.10660980810234,NA,31.2807881773399
04103,Cumberland County,ME,90.46321525885558,NA,NA,NA
04210,Androscoggin County,ME,NA,76.97228144989339,NA,NA
04240,Androscoggin County,ME,NA,NA,53.64526659412405,4.1871921182266005
04345,Kennebec County,ME,NA,66.52452025586354,NA,NA
04358,Kennebec County,ME,NA,NA,98.25897714907508,NA
04364,Kennebec County,ME,83.10626702997274,NA,NA,NA
04412,Penobscot County,ME,NA,81.2366737739872,NA,NA
04730,Aroostook County,ME,NA,NA,55.82154515778019,NA
04742,Aroostook County,ME,66.21253405994551,NA,NA,NA
04743,Aroostook County,ME,NA,NA,NA,93.8423645320197
04769,Aroostook County,ME,NA,51.385927505330486,NA,51.231527093596064
04856,Knox County,ME,NA,NA,97.82372143634385,NA
04901,Kennebec County,ME,NA,NA,26.22415669205658,30.049261083743843
04938,Franklin County,ME,NA,NA,50.59847660500544,NA
04963,Kennebec County,ME,NA,NA,60.82698585418934,NA
20746,Prince George's County,MD,NA,NA,NA,71.42857142857143
21042,Howard County,MD,44.95912806539509,NA,NA,NA
21087,Baltimore County,MD,NA,NA,NA,95.56650246305419
21117,Baltimore County,MD,NA,NA,NA,32.01970443349754
21206,Baltimore city,MD,7.084468664850137,NA,NA,NA
21222,Baltimore County,MD,NA,NA,5.767138193688792,NA
21224,Baltimore city,MD,NA,NA,45.701849836779104,NA
21703,Frederick County,MD,NA,NA,59.73884657236126,NA
21784,Carroll County,MD,NA,NA,NA,63.54679802955665
21901,Cecil County,MD,NA,NA,67.35582154515778,NA
01013,Hampden County,MA,40.59945504087194,NA,NA,NA
01020,Hampden County,MA,NA,NA,4.6789989118607185,NA
01040,Hampden County,MA,NA,NA,6.855277475516866,NA
01104,Hampden County,MA,NA,26.652452025586353,NA,NA
01105,Hampden County,MA,NA,24.093816631130064,NA,NA
01107,Hampden County,MA,NA,11.727078891257996,NA,NA
01108,Hampden County,MA,38.69209809264305,NA,1.7410228509249184,NA
01109,Hampden County,MA,NA,NA,2.6115342763873777,NA
01230,Berkshire County,MA,77.11171662125341,NA,NA,NA
01247,Berkshire County,MA,NA,71.21535181236673,NA,NA
01420,Worcester County,MA,4.35967302452316,NA,NA,NA
01430,Worcester County,MA,NA,NA,77.14907508161045,NA
01440,Worcester County,MA,NA,13.432835820895523,NA,NA
01450,Middlesex County,MA,NA,NA,68.11751904243744,NA
01453,Worcester County,MA,NA,16.844349680170577,NA,NA
01540,Worcester County,MA,NA,NA,NA,56.896551724137936
01541,Worcester County,MA,NA,NA,95.21218715995647,NA
01543,Worcester County,MA,89.91825613079018,NA,93.25353645266594,NA
01545,Worcester County,MA,NA,NA,47.33405875952122,NA
01550,Worcester County,MA,NA,15.56503198294243,NA,NA
01562,Worcester County,MA,NA,NA,60.17410228509249,NA
01570,Worcester County,MA,NA,NA,5.114254624591948,NA
01603,Worcester County,MA,NA,NA,NA,27.093596059113302
01604,Worcester County,MA,NA,NA,NA,3.4482758620689653
01605,Worcester County,MA,NA,NA,12.51360174102285,NA
01606,Worcester County,MA,71.93460490463215,NA,NA,NA
01607,Worcester County,MA,59.40054495912806,NA,NA,NA
01721,Middlesex County,MA,NA,NA,NA,42.610837438423644
01757,Worcester County,MA,NA,NA,2.3939064200217626,NA
01760,Middlesex County,MA,14.986376021798364,NA,NA,NA
01776,Middlesex County,MA,NA,NA,NA,46.79802955665024
01778,Middlesex County,MA,NA,NA,NA,53.94088669950739
01801,Middlesex County,MA,NA,NA,36.126224156692054,NA
01821,Middlesex County,MA,NA,NA,6.093579978237215,NA
01824,Middlesex County,MA,NA,NA,NA,11.083743842364532
01832,Essex County,MA,NA,28.35820895522388,NA,NA
01841,Essex County,MA,NA,31.769722814498934,NA,NA
01850,Middlesex County,MA,NA,NA,9.140369967355822,NA
01864,Middlesex County,MA,NA,NA,47.55168661588684,NA
01886,Middlesex County,MA,NA,NA,NA,37.19211822660098
01887,Middlesex County,MA,24.52316076294278,NA,NA,4.679802955665025
01902,Essex County,MA,NA,NA,NA,1.2315270935960592
01906,Essex County,MA,NA,NA,57.01849836779108,NA
01913,Essex County,MA,NA,NA,27.421109902067464,NA
01930,Essex County,MA,NA,NA,20.674646354733405,NA
01949,Essex County,MA,NA,NA,46.681175190424376,NA
01960,Essex County,MA,NA,NA,0.6528835690968444,0.7389162561576355
01970,Essex County,MA,NA,NA,0.8705114254624592,0.9852216748768473
02026,Norfolk County,MA,NA,NA,5.44069640914037,NA
02043,Plymouth County,MA,NA,NA,69.31447225244831,NA
02048,Bristol County,MA,NA,NA,22.306855277475517,NA
02061,Plymouth County,MA,NA,NA,NA,89.4088669950739
02062,Norfolk County,MA,NA,NA,NA,49.01477832512315
02072,Norfolk County,MA,NA,15.56503198294243,NA,NA
02081,Norfolk County,MA,NA,NA,24.047878128400434,NA
02114,Suffolk County,MA,NA,NA,19.912948857453756,NA
02115,Suffolk County,MA,NA,NA,30.25027203482046,NA
02118,Suffolk County,MA,21.798365122615802,NA,61.15342763873775,NA
02119,Suffolk County,MA,NA,NA,NA,0
02120,Suffolk County,MA,NA,NA,6.9640914036996735,NA
02121,Suffolk County,MA,NA,NA,22.52448313384113,NA
02122,Suffolk County,MA,NA,7.462686567164178,NA,NA
02124,Suffolk County,MA,NA,0.21321961620469082,6.2023939064200215,NA
02125,Suffolk County,MA,NA,NA,0.2176278563656148,NA
02126,Suffolk County,MA,5.449591280653951,NA,5.223068552774755,NA
02127,Suffolk County,MA,NA,11.300639658848615,NA,NA
02129,Suffolk County,MA,NA,NA,NA,32.758620689655174
02130,Suffolk County,MA,15.803814713896458,NA,NA,NA
02131,Suffolk County,MA,NA,NA,27.529923830250276,NA
02134,Suffolk County,MA,NA,NA,71.05549510337323,NA
02135,Suffolk County,MA,NA,NA,23.286180631120786,NA
02136,Suffolk County,MA,NA,NA,15.560391730141458,NA
02138,Middlesex County,MA,NA,NA,NA,10.098522167487685
02139,Middlesex County,MA,NA,89.55223880597015,NA,27.832512315270936
02140,Middlesex County,MA,37.05722070844686,NA,75.62568008705114,NA
02141,Middlesex County,MA,NA,NA,31.88248095756257,NA
02143,Middlesex County,MA,16.076294277929154,NA,43.52557127312296,NA
02144,Middlesex County,MA,NA,NA,22.415669205658322,NA
02145,Middlesex County,MA,NA,12.79317697228145,NA,15.270935960591133
02148,Middlesex County,MA,1.08991825613079,15.351812366737741,2.2850924918389555,NA
02149,Middlesex County,MA,NA,8.955223880597014,60.28291621327529,NA
02150,Suffolk County,MA,19.07356948228883,NA,NA,1.7241379310344827
02151,Suffolk County,MA,NA,5.543710021321962,NA,NA
02152,Suffolk County,MA,88.28337874659401,NA,NA,NA
02155,Middlesex County,MA,NA,78.03837953091684,0.9793253536452665,NA
02170,Norfolk County,MA,NA,NA,34.38520130576714,NA
02176,Middlesex County,MA,NA,NA,9.031556039173013,NA
02190,Norfolk County,MA,NA,NA,30.46789989118607,NA
02302,Plymouth County,MA,NA,6.183368869936034,1.3057671381936888,NA
02360,Plymouth County,MA,NA,NA,8.161044613710555,9.113300492610838
02382,Plymouth County,MA,NA,NA,28.50924918389554,NA
02445,Norfolk County,MA,NA,NA,29.815016322089228,NA
02446,Norfolk County,MA,NA,NA,NA,10.83743842364532
02452,Middlesex County,MA,NA,58.63539445628998,NA,NA
02458,Middlesex County,MA,31.607629427792915,NA,NA,NA
02459,Middlesex County,MA,NA,NA,NA,64.28571428571429
02466,Middlesex County,MA,NA,NA,NA,91.62561576354679
02467,Norfolk County,MA,NA,NA,46.57236126224157,NA
02478,Middlesex County,MA,NA,NA,72.0348204570185,NA
02493,Middlesex County,MA,NA,NA,97.170837867247,NA
02536,Barnstable County,MA,NA,NA,NA,20.19704433497537
02703,Bristol County,MA,NA,NA,0.7616974972796519,NA
02717,Bristol County,MA,NA,NA,NA,95.8128078817734
02721,Bristol County,MA,NA,NA,NA,8.12807881773399
02760,Bristol County,MA,NA,NA,NA,17.24137931034483
02766,Bristol County,MA,NA,NA,NA,14.039408866995073
02767,Bristol County,MA,NA,NA,26.985854189336234,NA
48017,Oakland County,MI,NA,NA,78.34602829162132,NA
48033,Oakland County,MI,NA,NA,41.78454842219804,NA
48044,Macomb County,MI,11.716621253405995,65.67164179104478,NA,NA
48047,Macomb County,MI,NA,NA,43.09031556039173,NA
48051,Macomb County,MI,NA,91.47121535181236,NA,NA
48067,Oakland County,MI,NA,NA,38.737758433079435,NA
48073,Oakland County,MI,NA,NA,61.26224156692056,38.17733990147783
48075,Oakland County,MI,NA,93.81663113006397,NA,NA
48079,St. Clair County,MI,NA,NA,63.003264417845486,NA
48092,Macomb County,MI,NA,NA,32.53536452665941,NA
48093,Macomb County,MI,NA,91.25799573560768,NA,NA
48098,Oakland County,MI,NA,NA,58.32426550598476,39.6551724137931
48103,Washtenaw County,MI,NA,29.637526652452024,17.410228509249183,65.51724137931035
48105,Washtenaw County,MI,NA,NA,NA,72.9064039408867
48108,Washtenaw County,MI,74.38692098092643,NA,39.06420021762786,NA
48111,Wayne County,MI,NA,NA,8.052230685527748,NA
48118,Washtenaw County,MI,77.3841961852861,NA,NA,NA
48125,Wayne County,MI,NA,NA,54.515778019586506,NA
48127,Wayne County,MI,NA,NA,14.907508161044614,NA
48128,Wayne County,MI,93.18801089918256,NA,NA,NA
48130,Washtenaw County,MI,NA,NA,76.38737758433079,41.87192118226601
48134,Wayne County,MI,NA,64.60554371002132,NA,NA
48135,Wayne County,MI,35.14986376021799,NA,NA,NA
48150,Wayne County,MI,NA,NA,98.15016322089227,NA
48152,Wayne County,MI,45.23160762942779,NA,NA,NA
48154,Wayne County,MI,NA,NA,26.659412404787812,NA
48158,Washtenaw County,MI,NA,NA,NA,81.2807881773399
48160,Washtenaw County,MI,58.58310626702997,NA,NA,NA
48164,Wayne County,MI,93.73297002724796,NA,NA,NA
48167,Oakland County,MI,NA,NA,40.80522306855278,NA
48168,Wayne County,MI,34.87738419618528,NA,NA,NA
48170,Wayne County,MI,57.765667574931875,NA,NA,NA
48173,Wayne County,MI,NA,NA,56.25680087051143,NA
48178,Oakland County,MI,46.59400544959128,NA,NA,71.18226600985221
48183,Wayne County,MI,51.771117166212534,50.74626865671642,NA,NA
48184,Wayne County,MI,NA,NA,84.98367791077258,NA
48185,Wayne County,MI,NA,NA,77.58433079434167,NA
48186,Wayne County,MI,NA,26.226012793176974,NA,NA
48187,Wayne County,MI,NA,NA,12.404787812840043,NA
48188,Wayne County,MI,5.994550408719346,NA,86.6158868335147,NA
48189,Washtenaw County,MI,NA,NA,82.3721436343852,NA
48192,Wayne County,MI,NA,NA,20.348204570184983,NA
48193,Wayne County,MI,NA,NA,52.23068552774755,NA
48195,Wayne County,MI,NA,NA,72.36126224156692,NA
48197,Washtenaw County,MI,NA,NA,2.50272034820457,3.201970443349754
48198,Washtenaw County,MI,2.452316076294278,NA,NA,NA
48205,Wayne County,MI,NA,34.7547974413646,NA,NA
48206,Wayne County,MI,31.062670299727518,NA,NA,NA
48220,Oakland County,MI,NA,NA,74.10228509249184,NA
48223,Wayne County,MI,NA,NA,15.01632208922742,NA
48228,Wayne County,MI,NA,17.057569296375267,13.710554951033732,NA
48230,Wayne County,MI,NA,NA,50.70729053318824,NA
48237,Oakland County,MI,21.25340599455041,NA,NA,NA
48238,Wayne County,MI,NA,57.782515991471215,NA,NA
48301,Oakland County,MI,NA,NA,63.65614798694232,NA
48309,Oakland County,MI,NA,NA,65.61479869423286,NA
48310,Macomb County,MI,NA,82.72921108742004,45.26659412404788,NA
48312,Macomb County,MI,NA,81.02345415778251,95.97388465723613,22.660098522167488
48313,Macomb County,MI,NA,52.66524520255863,NA,NA
48314,Macomb County,MI,NA,64.17910447761194,NA,NA
48322,Oakland County,MI,NA,NA,88.90097932535365,NA
48324,Oakland County,MI,90.73569482288828,NA,NA,NA
48326,Oakland County,MI,NA,NA,50.38084874863983,NA
48329,Oakland County,MI,NA,NA,85.41893362350382,NA
48340,Oakland County,MI,NA,NA,12.948857453754082,NA
48342,Oakland County,MI,NA,NA,NA,40.14778325123153
48356,Oakland County,MI,NA,NA,98.91186071817192,NA
48360,Oakland County,MI,NA,NA,71.16430903155604,NA
48374,Oakland County,MI,NA,NA,89.33623503808488,NA
48390,Oakland County,MI,NA,NA,39.93471164309032,NA
48393,Oakland County,MI,NA,NA,45.484221980413494,84.23645320197043
48430,Genesee County,MI,NA,NA,27.747551686615886,NA
48439,Genesee County,MI,19.346049046321525,NA,NA,NA
48441,Huron County,MI,NA,NA,NA,83.2512315270936
48529,Genesee County,MI,97.00272479564033,NA,NA,NA
48601,Saginaw County,MI,NA,NA,2.176278563656148,NA
48602,Saginaw County,MI,NA,NA,4.134929270946682,NA
48612,Gladwin County,MI,76.29427792915531,NA,NA,NA
48616,Saginaw County,MI,NA,NA,54.62459194776932,NA
48642,Midland County,MI,31.607629427792915,NA,NA,NA
48744,Tuscola County,MI,NA,NA,85.96300326441785,NA
48750,Iosco County,MI,NA,NA,NA,67.48768472906403
48763,Iosco County,MI,NA,NA,NA,78.07881773399015
48813,Eaton County,MI,NA,NA,81.06637649619152,NA
48823,Ingham County,MI,NA,NA,NA,33.004926108374384
48827,Eaton County,MI,NA,NA,42.328618063112074,NA
48842,Ingham County,MI,NA,NA,NA,41.6256157635468
48843,Livingston County,MI,2.17983651226158,38.37953091684435,59.52121871599565,7.8817733990147785
48866,Clinton County,MI,NA,NA,90.09793253536452,NA
49008,Kalamazoo County,MI,NA,NA,NA,57.88177339901478
49036,Branch County,MI,NA,NA,31.33841131664853,NA
49087,Kalamazoo County,MI,NA,NA,NA,73.64532019704434
49120,Berrien County,MI,NA,NA,16.866158868335145,NA
49203,Jackson County,MI,NA,NA,33.405875952121875,NA
49224,Calhoun County,MI,NA,NA,NA,64.03940886699507
49230,Jackson County,MI,NA,NA,88.03046789989118,NA
49285,Ingham County,MI,NA,NA,82.15451577801959,NA
49321,Kent County,MI,NA,NA,55.16866158868336,85.4679802955665
49333,Barry County,MI,NA,NA,67.79107725788901,NA
49341,Kent County,MI,NA,NA,NA,31.773399014778324
49345,Kent County,MI,NA,76.54584221748401,NA,NA
49348,Allegan County,MI,NA,NA,35.14689880304679,NA
49404,Ottawa County,MI,NA,88.69936034115139,NA,NA
49423,Ottawa County,MI,NA,42.430703624733475,NA,NA
49424,Ottawa County,MI,NA,40.085287846481876,NA,18.7192118226601
49426,Ottawa County,MI,55.858310626703,NA,NA,NA
49431,Mason County,MI,NA,35.82089552238806,NA,NA
49441,Muskegon County,MI,25.340599455040874,NA,NA,NA
49444,Muskegon County,MI,NA,NA,11.425462459194776,NA
49455,Oceana County,MI,NA,86.56716417910447,NA,NA
49461,Muskegon County,MI,70.84468664850137,NA,NA,NA
49503,Kent County,MI,NA,42.643923240938165,13.275299238302502,NA
49505,Kent County,MI,NA,NA,54.84221980413493,NA
49507,Kent County,MI,NA,53.73134328358209,NA,NA
49508,Kent County,MI,NA,NA,7.072905331882481,NA
49509,Kent County,MI,NA,20.68230277185501,42.54624591947769,NA
49519,Kent County,MI,22.615803814713896,NA,NA,NA
49548,Kent County,MI,NA,NA,8.8139281828074,NA
49707,Alpena County,MI,NA,NA,NA,28.32512315270936
49721,Cheboygan County,MI,NA,NA,NA,40.64039408866995
49735,Otsego County,MI,55.04087193460491,NA,NA,NA
49801,Dickinson County,MI,NA,NA,NA,45.320197044334975
49913,Houghton County,MI,65.12261580381471,NA,NA,NA
49920,Iron County,MI,NA,95.0959488272921,NA,NA
55033,Dakota County,MN,48.228882833787466,NA,NA,NA
55066,Goodhue County,MN,NA,NA,NA,25.615763546798032
55076,Dakota County,MN,NA,NA,58.97714907508161,NA
55101,Ramsey County,MN,NA,NA,35.90859630032644,NA
55103,Ramsey County,MN,NA,NA,73.88465723612623,NA
55104,Ramsey County,MN,7.3569482288828345,NA,NA,NA
55106,Ramsey County,MN,NA,49.46695095948827,NA,NA
55109,Ramsey County,MN,NA,62.046908315565034,NA,NA
55117,Ramsey County,MN,NA,NA,18.063112078346027,NA
55123,Dakota County,MN,NA,NA,NA,93.10344827586206
55318,Carver County,MN,NA,NA,NA,69.45812807881774
55350,McLeod County,MN,NA,89.12579957356077,31.44722524483134,NA
55363,Wright County,MN,94.27792915531336,NA,NA,NA
55371,Mille Lacs County,MN,70.84468664850137,NA,NA,NA
55390,Wright County,MN,100,NA,NA,NA
55403,Hennepin County,MN,NA,NA,85.2013057671382,NA
55404,Hennepin County,MN,6.267029972752043,20.042643923240938,NA,NA
55406,Hennepin County,MN,23.43324250681199,NA,NA,NA
55407,Hennepin County,MN,NA,14.712153518123666,NA,NA
55408,Hennepin County,MN,NA,68.86993603411514,NA,88.17733990147784
55411,Hennepin County,MN,NA,NA,3.5908596300326447,NA
55412,Hennepin County,MN,NA,NA,10.44613710554951,NA
55414,Hennepin County,MN,NA,84.64818763326227,99.02067464635473,NA
55423,Hennepin County,MN,NA,NA,51.142546245919476,NA
55427,Hennepin County,MN,NA,55.863539445628994,NA,NA
55429,Hennepin County,MN,NA,NA,14.689880304678999,NA
55443,Hennepin County,MN,NA,NA,84.11316648531012,NA
55719,St. Louis County,MN,NA,NA,92.38302502720347,NA
55720,Carlton County,MN,NA,NA,63.98258977149075,NA
55744,Itasca County,MN,NA,NA,94.0152339499456,37.93103448275862
55746,St. Louis County,MN,NA,56.07675906183369,NA,NA
55804,St. Louis County,MN,NA,NA,70.07616974972797,NA
55811,St. Louis County,MN,NA,NA,62.35038084874864,9.35960591133005
55904,Olmsted County,MN,NA,NA,NA,85.96059113300493
55912,Mower County,MN,NA,53.5181236673774,8.37867247007617,30.541871921182267
55921,Houston County,MN,80.65395095367847,NA,NA,NA
55944,Dodge County,MN,NA,63.11300639658849,NA,NA
56007,Freeborn County,MN,NA,20.042643923240938,84.76605005440696,NA
56031,Martin County,MN,59.12806539509536,NA,44.831338411316644,NA
56201,Kandiyohi County,MN,NA,NA,43.85201305767138,NA
56258,Lyon County,MN,74.38692098092643,NA,NA,NA
56301,Stearns County,MN,28.337874659400548,NA,NA,NA
56304,Sherburne County,MN,NA,54.58422174840085,NA,NA
56308,Douglas County,MN,NA,NA,74.21109902067464,NA
56345,Morrison County,MN,NA,NA,61.915125136017416,42.11822660098522
56401,Crow Wing County,MN,NA,NA,11.31664853101197,NA
56431,Aitkin County,MN,50.13623978201635,NA,NA,NA
56473,Cass County,MN,NA,85.50106609808103,NA,NA
56501,Becker County,MN,NA,35.39445628997868,NA,NA
56560,Clay County,MN,NA,NA,80.41349292709467,NA
56601,Beltrami County,MN,NA,NA,7.290533188248095,54.92610837438424
56633,Hubbard County,MN,NA,60.12793176972282,NA,NA
56636,Itasca County,MN,NA,55.65031982942431,93.90642002176278,NA
56701,Pennington County,MN,NA,NA,21.653971708378673,NA
56721,Polk County,MN,NA,NA,52.44831338411316,NA
38635,Marshall County,MS,NA,NA,NA,88.42364532019704
38652,Union County,MS,NA,NA,73.55821545157781,NA
38663,Tippah County,MS,NA,NA,69.64091403699673,NA
38701,Washington County,MS,NA,NA,59.847660500544066,NA
39046,Madison County,MS,NA,38.80597014925373,NA,82.75862068965517
39157,Madison County,MS,59.40054495912806,NA,NA,NA
39203,Hinds County,MS,NA,NA,82.58977149075082,NA
39350,Neshoba County,MS,NA,NA,28.618063112078346,NA
39452,George County,MS,41.14441416893733,NA,NA,NA
39556,Hancock County,MS,NA,75.47974413646055,NA,NA
39601,Lincoln County,MS,NA,NA,NA,50.98522167487685
39645,Amite County,MS,NA,NA,89.00979325353646,NA
63010,Jefferson County,MO,NA,NA,40.26115342763873,NA
63080,Franklin County,MO,NA,42.643923240938165,NA,NA
63125,St. Louis County,MO,NA,53.09168443496801,NA,NA
63137,St. Louis County,MO,NA,NA,39.7170837867247,NA
63143,St. Louis County,MO,NA,93.17697228144989,NA,NA
63144,St. Louis County,MO,96.45776566757493,NA,NA,NA
63301,St. Charles County,MO,NA,NA,NA,6.403940886699508
63304,St. Charles County,MO,NA,NA,32.861806311207836,NA
63368,St. Charles County,MO,NA,69.29637526652452,NA,NA
63630,Washington County,MO,91.82561307901908,NA,NA,NA
63640,St. Francois County,MO,NA,41.15138592750533,NA,NA
63775,Perry County,MO,52.58855585831063,NA,NA,NA
64012,Cass County,MO,19.618528610354225,NA,NA,NA
64030,Jackson County,MO,NA,32.83582089552239,NA,NA
64050,Jackson County,MO,NA,46.05543710021322,NA,NA
64056,Jackson County,MO,30.517711171662125,NA,NA,NA
64058,Jackson County,MO,NA,79.1044776119403,NA,NA
64063,Jackson County,MO,NA,79.74413646055437,40.15233949945593,NA
64079,Platte County,MO,NA,NA,55.386289445048966,NA
64081,Jackson County,MO,42.77929155313351,NA,NA,NA
64082,Jackson County,MO,NA,NA,69.42328618063112,NA
64083,Cass County,MO,NA,NA,NA,43.84236453201971
64086,Jackson County,MO,76.566757493188,NA,NA,NA
64110,Jackson County,MO,NA,NA,NA,41.37931034482759
64118,Clay County,MO,NA,NA,NA,13.054187192118228
64126,Jackson County,MO,NA,56.07675906183369,NA,NA
64131,Jackson County,MO,NA,51.1727078891258,16.75734494015234,NA
64134,Jackson County,MO,NA,NA,15.778019586507073,NA
64138,Jackson County,MO,NA,26.226012793176974,NA,NA
64151,Platte County,MO,23.705722070844686,NA,NA,NA
64157,Clay County,MO,49.04632152588556,NA,NA,NA
64501,Buchanan County,MO,NA,52.02558635394456,82.80739934711643,94.58128078817734
64503,Buchanan County,MO,27.247956403269757,NA,NA,NA
64505,Buchanan County,MO,37.87465940054496,NA,NA,NA
64772,Vernon County,MO,NA,84.64818763326227,NA,91.37931034482759
64801,Jasper County,MO,NA,42.00426439232409,NA,NA
64870,Jasper County,MO,NA,44.562899786780385,NA,NA
65013,Maries County,MO,NA,78.67803837953092,NA,NA
65020,Camden County,MO,NA,NA,73.12295973884657,NA
65203,Boone County,MO,NA,49.68017057569296,NA,16.748768472906402
65265,Audrain County,MO,NA,NA,81.39281828073993,NA
65301,Pettis County,MO,NA,NA,4.352557127312296,NA
65606,Oregon County,MO,NA,NA,80.63112078346029,NA
65613,Polk County,MO,NA,NA,55.27747551686616,NA
65714,Christian County,MO,NA,NA,46.13710554951034,NA
65802,Greene County,MO,NA,NA,13.384113166485308,NA
59047,Park County,MT,NA,NA,NA,90.14778325123153
59072,Musselshell County,MT,NA,NA,NA,96.30541871921181
59101,Yellowstone County,MT,36.23978201634878,NA,NA,NA
59404,Cascade County,MT,NA,NA,NA,16.25615763546798
59718,Gallatin County,MT,75.47683923705722,NA,NA,NA
59840,Ravalli County,MT,NA,NA,75.84330794341676,NA
59901,Flathead County,MT,NA,NA,NA,5.41871921182266
68064,Douglas County,NE,99.45504087193461,NA,NA,NA
68124,Douglas County,NE,NA,NA,90.42437431991294,NA
69162,Cheyenne County,NE,NA,NA,94.66811751904244,NA
89110,Clark County,NV,NA,NA,NA,69.70443349753694
89122,Clark County,NV,NA,NA,27.9651795429815,NA
89178,Clark County,NV,70.29972752043598,NA,NA,NA
89403,Lyon County,NV,NA,NA,39.281828073993466,NA
89408,Lyon County,NV,NA,NA,38.95538628944505,NA
89433,Washoe County,NV,NA,NA,40.58759521218716,NA
03038,Rockingham County,NH,NA,NA,15.451577801958653,NA
03054,Hillsborough County,NH,NA,95.73560767590618,NA,NA
03055,Hillsborough County,NH,NA,NA,NA,53.69458128078818
03063,Hillsborough County,NH,NA,NA,NA,48.275862068965516
03076,Hillsborough County,NH,26.158038147138964,NA,44.069640914036995,NA
03087,Rockingham County,NH,NA,NA,48.96626768226333,NA
03103,Hillsborough County,NH,1.9073569482288828,NA,NA,NA
03246,Belknap County,NH,NA,NA,47.22524483133841,NA
03431,Cheshire County,NH,NA,NA,NA,33.497536945812804
03584,Coos County,NH,NA,98.29424307036247,NA,NA
07002,Hudson County,NJ,NA,2.345415778251599,NA,NA
07016,Union County,NJ,NA,NA,84.87486398258977,NA
07060,Union County,NJ,NA,NA,7.725788900979326,NA
07086,Hudson County,NJ,NA,NA,NA,92.36453201970444
07093,Hudson County,NJ,NA,NA,NA,92.85714285714286
07103,Essex County,NJ,NA,67.590618336887,NA,NA
07106,Essex County,NJ,NA,NA,5.658324265505985,NA
07110,Essex County,NJ,NA,NA,72.79651795429814,NA
07206,Union County,NJ,NA,NA,9.902067464635474,NA
07410,Bergen County,NJ,NA,NA,48.5310119695321,NA
07470,Passaic County,NJ,22.888283378746593,NA,NA,NA
07719,Monmouth County,NJ,NA,NA,40.696409140369965,NA
07726,Monmouth County,NJ,NA,NA,32.752992383025024,NA
07922,Union County,NJ,NA,NA,NA,87.68472906403942
07960,Morris County,NJ,NA,NA,21.00108813928183,NA
07974,Union County,NJ,68.66485013623979,NA,NA,NA
08005,Ocean County,NJ,NA,NA,20.45701849836779,NA
08009,Camden County,NJ,NA,NA,NA,68.4729064039409
08021,Camden County,NJ,NA,NA,0.1088139281828074,NA
08031,Camden County,NJ,NA,NA,71.27312295973884,NA
08070,Salem County,NJ,58.03814713896458,NA,NA,NA
08081,Camden County,NJ,NA,15.991471215351813,NA,NA
08085,Gloucester County,NJ,NA,NA,NA,56.65024630541872
08105,Camden County,NJ,NA,NA,1.5233949945593037,NA
08302,Cumberland County,NJ,NA,2.771855010660981,NA,NA
08332,Cumberland County,NJ,NA,31.556503198294244,23.939064200217626,NA
08527,Ocean County,NJ,NA,NA,10.55495103373232,NA
08534,Mercer County,NJ,NA,NA,97.82372143634385,NA
08610,Mercer County,NJ,NA,NA,8.922742110990207,NA
08618,Mercer County,NJ,NA,NA,8.269858541893363,12.807881773399016
08724,Ocean County,NJ,NA,NA,10.88139281828074,NA
08816,Middlesex County,NJ,NA,47.33475479744136,NA,NA
08857,Middlesex County,NJ,NA,NA,9.466811751904244,NA
08902,Middlesex County,NJ,NA,NA,NA,76.35467980295566
87048,Sandoval County,NM,NA,NA,NA,76.60098522167488
87107,Bernalillo County,NM,NA,57.356076759061835,NA,NA
87110,Bernalillo County,NM,NA,NA,14.25462459194777,NA
87112,Bernalillo County,NM,NA,NA,16.539717083786726,NA
87114,Bernalillo County,NM,NA,NA,NA,55.41871921182266
87120,Bernalillo County,NM,NA,30.703624733475483,NA,NA
87121,Bernalillo County,NM,NA,3.1982942430703627,NA,NA
87123,Bernalillo County,NM,NA,NA,15.12513601741023,NA
87124,Sandoval County,NM,NA,NA,13.601741022850925,NA
87144,Sandoval County,NM,NA,NA,22.198041349292712,NA
87301,McKinley County,NM,NA,NA,90.96844396082699,NA
87313,McKinley County,NM,NA,NA,90.53318824809575,NA
87401,San Juan County,NM,NA,NA,18.933623503808487,NA
87420,San Juan County,NM,NA,NA,NA,89.90147783251231
87740,Colfax County,NM,NA,83.7953091684435,NA,NA
88007,Doa Ana County,NM,NA,NA,55.05984766050055,NA
88012,Doa Ana County,NM,NA,NA,NA,55.91133004926109
88210,Eddy County,NM,61.03542234332425,NA,NA,NA
88310,Otero County,NM,NA,NA,25.78890097932535,NA
10001,New York County,NY,NA,NA,NA,71.92118226600985
10002,New York County,NY,NA,4.904051172707889,NA,NA
10014,New York County,NY,NA,NA,NA,61.083743842364534
10018,New York County,NY,NA,NA,86.94232861806312,NA
10019,New York County,NY,NA,NA,62.35038084874864,NA
10024,New York County,NY,NA,NA,78.56365614798693,NA
10025,New York County,NY,NA,57.14285714285714,57.99782372143635,NA
10026,New York County,NY,NA,NA,56.36561479869423,NA
10029,New York County,NY,33.5149863760218,0,69.74972796517955,NA
10030,New York County,NY,NA,NA,79.65179542981502,NA
10031,New York County,NY,NA,10.44776119402985,NA,NA
10035,New York County,NY,16.893732970027248,18.976545842217483,NA,NA
10036,New York County,NY,NA,NA,96.73558215451578,NA
10037,New York County,NY,67.8474114441417,NA,NA,NA
10039,New York County,NY,NA,NA,63.220892274211096,NA
10040,New York County,NY,NA,37.52665245202559,NA,NA
10314,Richmond County,NY,NA,NA,14.58106637649619,NA
10451,Bronx County,NY,NA,NA,56.90968443960826,NA
10453,Bronx County,NY,NA,1.7057569296375266,39.608269858541895,NA
10454,Bronx County,NY,8.174386920980927,NA,7.399347116430903,NA
10457,Bronx County,NY,NA,NA,26.87704026115343,NA
10458,Bronx County,NY,NA,0.6396588486140725,0.3264417845484222,0.49261083743842365
10459,Bronx County,NY,NA,NA,25.462459194776933,NA
10460,Bronx County,NY,NA,1.9189765458422177,1.958650707290533,NA
10462,Bronx County,NY,NA,NA,NA,7.389162561576355
10465,Bronx County,NY,NA,NA,33.29706202393907,NA
10467,Bronx County,NY,NA,NA,5.984766050054406,NA
10468,Bronx County,NY,NA,1.279317697228145,1.632208922742111,NA
10469,Bronx County,NY,NA,7.675906183368871,NA,12.068965517241379
10473,Bronx County,NY,NA,NA,NA,10.344827586206897
10701,Westchester County,NY,NA,2.9850746268656714,NA,NA
10801,Westchester County,NY,NA,16.417910447761194,NA,NA
10952,Rockland County,NY,NA,53.94456289978679,NA,NA
10956,Rockland County,NY,72.20708446866485,NA,NA,NA
11023,Nassau County,NY,NA,NA,97.49727965179544,NA
11201,Kings County,NY,NA,NA,NA,62.80788177339901
11205,Kings County,NY,53.13351498637602,NA,NA,NA
11207,Kings County,NY,0.544959128065395,NA,NA,NA
11208,Kings County,NY,NA,NA,21.76278563656148,NA
11211,Kings County,NY,NA,7.249466950959488,NA,NA
11212,Kings County,NY,NA,NA,1.088139281828074,13.30049261083744
11214,Kings County,NY,NA,54.15778251599147,NA,NA
11220,Kings County,NY,0,0.42643923240938164,37.97606093579978,NA
11221,Kings County,NY,NA,NA,18.715995647442874,NA
11223,Kings County,NY,28.337874659400548,NA,NA,NA
11224,Kings County,NY,NA,NA,21.10990206746464,NA
11226,Kings County,NY,NA,NA,51.4689880304679,NA
11229,Kings County,NY,NA,NA,29.706202393906423,NA
11230,Kings County,NY,NA,NA,80.73993471164309,NA
11232,Kings County,NY,17.71117166212534,5.756929637526652,60.60935799782372,NA
11233,Kings County,NY,NA,NA,50.48966267682263,NA
11235,Kings County,NY,NA,17.69722814498934,NA,NA
11236,Kings County,NY,NA,NA,4.570184983677911,NA
11355,Queens County,NY,NA,5.11727078891258,NA,NA
11368,Queens County,NY,9.536784741144414,NA,NA,NA
11370,Queens County,NY,NA,NA,47.55168661588684,NA
11372,Queens County,NY,NA,NA,62.02393906420022,NA
11373,Queens County,NY,NA,18.336886993603414,16.32208922742111,NA
11374,Queens County,NY,NA,NA,68.00870511425462,NA
11377,Queens County,NY,NA,NA,19.26006528835691,NA
11385,Queens County,NY,NA,8.315565031982942,66.48531011969531,NA
11412,Queens County,NY,NA,NA,94.34167573449402,NA
11414,Queens County,NY,NA,NA,73.449401523395,NA
11416,Queens County,NY,NA,33.90191897654584,NA,NA
11418,Queens County,NY,NA,58.42217484008528,NA,NA
11421,Queens County,NY,NA,38.16631130063966,NA,62.06896551724138
11426,Queens County,NY,NA,NA,NA,78.81773399014779
11432,Queens County,NY,NA,27.505330490405118,NA,NA
11433,Queens County,NY,NA,19.402985074626866,NA,NA
11435,Queens County,NY,NA,9.594882729211088,NA,NA
11518,Nassau County,NY,NA,99.7867803837953,NA,NA
11580,Nassau County,NY,NA,89.55223880597015,NA,NA
11691,Queens County,NY,NA,NA,35.364526659412405,NA
11722,Suffolk County,NY,33.787465940054496,NA,NA,NA
11746,Suffolk County,NY,NA,NA,49.61915125136017,NA
11758,Nassau County,NY,NA,NA,71.9260065288357,NA
11780,Suffolk County,NY,NA,NA,NA,86.45320197044335
11963,Suffolk County,NY,NA,NA,NA,94.82758620689656
11967,Suffolk County,NY,NA,32.19616204690831,NA,NA
12010,Montgomery County,NY,NA,25.37313432835821,NA,NA
12020,Saratoga County,NY,36.78474114441417,NA,NA,NA
12043,Schoharie County,NY,NA,NA,91.51251360174102,NA
12078,Fulton County,NY,NA,NA,NA,14.285714285714285
12122,Schoharie County,NY,NA,NA,71.38193688792165,NA
12144,Rensselaer County,NY,NA,77.18550106609808,NA,NA
12170,Saratoga County,NY,NA,NA,91.29488574537541,NA
12180,Rensselaer County,NY,6.811989100817439,NA,NA,NA
12303,Schenectady County,NY,NA,27.931769722814497,87.37758433079435,NA
12307,Schenectady County,NY,NA,NA,65.17954298150164,NA
12309,Schenectady County,NY,NA,NA,NA,68.7192118226601
12564,Dutchess County,NY,NA,NA,92.70946681175191,NA
12771,Orange County,NY,89.10081743869209,NA,NA,NA
12832,Washington County,NY,NA,NA,73.77584330794342,NA
12839,Washington County,NY,NA,NA,58.759521218715996,NA
12866,Saratoga County,NY,29.427792915531338,NA,NA,NA
12887,Washington County,NY,NA,NA,68.33514689880305,NA
12901,Clinton County,NY,14.713896457765669,NA,NA,NA
12946,Essex County,NY,NA,NA,37.54080522306855,NA
12986,Franklin County,NY,NA,NA,64.09140369967355,NA
13021,Cayuga County,NY,NA,NA,3.808487486398259,NA
13031,Onondaga County,NY,NA,NA,43.19912948857454,NA
13032,Madison County,NY,46.321525885558586,NA,NA,NA
13037,Madison County,NY,NA,NA,82.48095756256801,NA
13066,Onondaga County,NY,NA,NA,66.70293797606094,NA
13068,Tompkins County,NY,82.83378746594006,NA,NA,NA
13069,Oswego County,NY,NA,NA,6.311207834602829,NA
13152,Onondaga County,NY,NA,NA,41.67573449401523,NA
13204,Onondaga County,NY,NA,NA,57.889009793253535,NA
13206,Onondaga County,NY,NA,NA,26.4417845484222,NA
13317,Montgomery County,NY,88.0108991825613,93.81663113006397,NA,NA
13335,Otsego County,NY,NA,NA,88.35690968443961,NA
13357,Herkimer County,NY,NA,NA,37.323177366702936,60.3448275862069
13365,Herkimer County,NY,NA,NA,36.45266594124048,NA
13367,Lewis County,NY,NA,98.93390191897655,NA,NA
13439,Otsego County,NY,86.37602179836512,NA,NA,NA
13452,Montgomery County,NY,NA,NA,NA,96.55172413793103
13460,Chenango County,NY,NA,NA,49.183895538628946,NA
13480,Oneida County,NY,NA,NA,88.2480957562568,NA
13492,Oneida County,NY,NA,91.47121535181236,62.785636561479876,NA
13601,Jefferson County,NY,NA,NA,5.00544069640914,NA
13613,St. Lawrence County,NY,NA,NA,78.34602829162132,NA
13634,Jefferson County,NY,NA,NA,93.47116430903155,NA
13669,St. Lawrence County,NY,NA,63.53944562899787,NA,NA
13676,St. Lawrence County,NY,73.84196185286103,NA,34.82045701849837,NA
13760,Broome County,NY,NA,NA,1.1969532100108813,NA
13790,Broome County,NY,NA,21.535181236673772,NA,NA
13808,Otsego County,NY,88.5558583106267,NA,NA,NA
13820,Otsego County,NY,NA,NA,11.534276387377584,11.822660098522167
13830,Chenango County,NY,NA,98.29424307036247,NA,NA
13856,Delaware County,NY,NA,NA,86.50707290533188,NA
13901,Broome County,NY,15.258855585831062,NA,NA,NA
13905,Broome County,NY,2.7247956403269753,NA,14.363438520130579,NA
14020,Genesee County,NY,NA,NA,NA,19.458128078817737
14150,Erie County,NY,18.52861035422343,NA,NA,NA
14211,Erie County,NY,NA,33.688699360341154,NA,NA
14218,Erie County,NY,NA,NA,20.783460282916213,NA
14222,Erie County,NY,NA,NA,54.08052230685527,NA
14450,Monroe County,NY,NA,NA,18.607181719260065,2.4630541871921183
14454,Livingston County,NY,NA,NA,NA,82.26600985221675
14456,Ontario County,NY,NA,NA,NA,8.374384236453201
14467,Monroe County,NY,NA,NA,55.930359085963,NA
14468,Monroe County,NY,NA,NA,NA,27.339901477832512
14469,Ontario County,NY,NA,NA,41.566920565832426,NA
14470,Orleans County,NY,NA,NA,73.99347116430903,NA
14502,Wayne County,NY,NA,NA,29.923830250272033,NA
14512,Ontario County,NY,NA,NA,NA,70.93596059113301
14513,Wayne County,NY,NA,NA,NA,50.73891625615764
14522,Wayne County,NY,NA,NA,35.69096844396083,NA
14527,Yates County,NY,NA,NA,29.379760609357998,NA
14534,Monroe County,NY,NA,NA,7.50816104461371,NA
14580,Monroe County,NY,NA,79.74413646055437,NA,NA
14606,Monroe County,NY,NA,NA,3.264417845484222,NA
14610,Monroe County,NY,NA,NA,32.3177366702938,31.03448275862069
14616,Monroe County,NY,NA,NA,20.02176278563656,40.88669950738916
14618,Monroe County,NY,10.899182561307901,NA,NA,NA
14621,Monroe County,NY,NA,NA,0.544069640914037,NA
14624,Monroe County,NY,NA,NA,2.9379760609358,NA
14626,Monroe County,NY,NA,NA,3.6996735582154514,6.896551724137931
14701,Chautauqua County,NY,NA,NA,18.824809575625682,NA
14712,Chautauqua County,NY,NA,NA,95.42981501632208,NA
14747,Chautauqua County,NY,95.64032697547684,NA,NA,NA
14830,Steuben County,NY,NA,NA,NA,35.714285714285715
14845,Chemung County,NY,NA,NA,NA,33.99014778325123
14850,Tompkins County,NY,NA,NA,25.897714907508163,NA
14891,Schuyler County,NY,NA,NA,88.68335146898802,NA
27006,Davie County,NC,NA,NA,92.92709466811752,NA
27011,Yadkin County,NC,NA,NA,NA,94.08866995073892
27020,Yadkin County,NC,89.10081743869209,NA,NA,NA
27021,Stokes County,NC,NA,NA,70.18498367791078,NA
27023,Forsyth County,NC,NA,NA,NA,84.97536945812809
27028,Davie County,NC,NA,NA,NA,13.546798029556651
27030,Surry County,NC,NA,NA,7.616974972796518,NA
27103,Forsyth County,NC,NA,75.26652452025586,NA,NA
27106,Forsyth County,NC,NA,NA,15.560391730141458,5.665024630541872
27107,Forsyth County,NC,NA,NA,4.896626768226333,NA
27215,Alamance County,NC,NA,NA,11.969532100108813,NA
27217,Alamance County,NC,NA,33.47547974413646,NA,NA
27262,Guilford County,NC,NA,NA,NA,64.5320197044335
27284,Forsyth County,NC,NA,NA,NA,2.70935960591133
27292,Davidson County,NC,39.23705722070845,NA,NA,NA
27360,Davidson County,NC,5.722070844686648,NA,4.026115342763874,NA
27406,Guilford County,NC,NA,28.14498933901919,NA,NA
27501,Harnett County,NC,NA,83.7953091684435,NA,NA
27519,Wake County,NC,NA,NA,47.442872687704025,NA
27530,Wayne County,NC,29.972752043596728,NA,NA,NA
27610,Wake County,NC,2.997275204359673,NA,NA,NA
27614,Wake County,NC,80.38147138964578,NA,NA,NA
27703,Durham County,NC,NA,14.925373134328357,13.166485310119697,47.04433497536946
27705,Durham County,NC,NA,NA,23.612622415669204,18.226600985221676
27707,Durham County,NC,NA,NA,41.458106637649614,NA
27801,Edgecombe County,NC,NA,59.914712153518124,NA,NA
27892,Martin County,NC,NA,NA,NA,36.45320197044335
28025,Cabarrus County,NC,NA,82.30277185501066,NA,NA
28079,Union County,NC,NA,75.69296375266525,NA,NA
28110,Union County,NC,NA,32.19616204690831,NA,NA
28112,Union County,NC,NA,NA,44.72252448313384,NA
28144,Rowan County,NC,NA,NA,36.56147986942329,NA
28208,Mecklenburg County,NC,NA,15.13859275053305,NA,NA
28214,Mecklenburg County,NC,NA,NA,31.664853101196954,NA
28215,Mecklenburg County,NC,NA,NA,17.6278563656148,NA
28269,Mecklenburg County,NC,NA,29.850746268656714,NA,NA
28352,Scotland County,NC,NA,NA,28.07399347116431,NA
28401,New Hanover County,NC,NA,NA,12.731229597388467,NA
28465,Brunswick County,NC,NA,NA,NA,63.05418719211823
28472,Columbus County,NC,NA,NA,38.62894450489663,NA
28478,Pender County,NC,NA,88.05970149253731,NA,NA
28602,Catawba County,NC,NA,55.010660980810236,NA,NA
28625,Iredell County,NC,NA,NA,NA,75.1231527093596
28630,Caldwell County,NC,NA,44.562899786780385,NA,NA
28638,Caldwell County,NC,NA,83.5820895522388,NA,NA
28645,Caldwell County,NC,NA,4.264392324093817,NA,NA
28655,Burke County,NC,NA,NA,6.637649619151251,NA
28677,Iredell County,NC,NA,37.953091684434966,17.73667029379761,NA
28704,Buncombe County,NC,NA,NA,67.13819368879217,NA
28734,Macon County,NC,NA,NA,18.389553862894452,NA
28786,Haywood County,NC,NA,NA,NA,60.09852216748769
28792,Henderson County,NC,NA,64.60554371002132,NA,15.517241379310345
58078,Cass County,ND,8.71934604904632,49.25373134328358,NA,NA
58103,Cass County,ND,NA,14.285714285714285,NA,3.9408866995073892
58104,Cass County,ND,NA,NA,NA,17.48768472906404
58201,Grand Forks County,ND,NA,NA,33.623503808487484,NA
58203,Grand Forks County,ND,NA,NA,51.90424374319913,NA
58278,Grand Forks County,ND,97.00272479564033,NA,NA,NA
58501,Burleigh County,ND,NA,NA,NA,34.48275862068966
58504,Burleigh County,ND,NA,NA,78.56365614798693,NA
58601,Stark County,ND,NA,NA,NA,71.67487684729063
43026,Franklin County,OH,NA,5.330490405117271,NA,NA
43050,Knox County,OH,NA,NA,33.07943416757345,NA
43055,Licking County,OH,NA,59.488272921108745,NA,NA
43068,Franklin County,OH,NA,NA,37.649619151251365,NA
43076,Perry County,OH,NA,NA,78.78128400435256,NA
43082,Delaware County,OH,NA,NA,59.30359085963003,NA
43123,Franklin County,OH,NA,17.48400852878465,NA,NA
43130,Fairfield County,OH,NA,NA,1.8498367791077257,NA
43206,Franklin County,OH,NA,NA,58.8683351468988,NA
43207,Franklin County,OH,0.2724795640326975,NA,NA,NA
43220,Franklin County,OH,NA,NA,NA,57.389162561576356
43222,Franklin County,OH,NA,NA,54.4069640914037,NA
43223,Franklin County,OH,NA,NA,NA,31.527093596059114
43224,Franklin County,OH,NA,6.396588486140725,NA,21.921182266009854
43227,Franklin County,OH,NA,40.93816631130064,NA,NA
43228,Franklin County,OH,NA,11.087420042643924,NA,NA
43229,Franklin County,OH,NA,44.989339019189764,NA,NA
43231,Franklin County,OH,NA,26.865671641791046,NA,NA
43232,Franklin County,OH,NA,0.8528784648187633,NA,NA
43311,Logan County,OH,NA,NA,32.64417845484222,39.40886699507389
43338,Morrow County,OH,NA,NA,NA,66.00985221674877
43420,Sandusky County,OH,NA,NA,12.622415669205658,NA
43506,Williams County,OH,65.39509536784742,NA,26.00652883569097,NA
43526,Defiance County,OH,NA,NA,44.940152339499456,NA
43545,Henry County,OH,NA,55.437100213219615,NA,NA
43560,Lucas County,OH,NA,NA,27.094668117519046,20.935960591133004
43604,Lucas County,OH,NA,NA,42.00217627856366,NA
43605,Lucas County,OH,NA,NA,2.8291621327529923,NA
43608,Lucas County,OH,NA,NA,10.119695321001087,NA
43609,Lucas County,OH,NA,NA,42.21980413492928,NA
43701,Muskingum County,OH,NA,4.690831556503198,NA,NA
43724,Noble County,OH,NA,NA,NA,92.61083743842364
43812,Coshocton County,OH,NA,17.270788912579956,NA,NA
43935,Belmont County,OH,44.141689373297005,NA,NA,NA
44001,Lorain County,OH,45.23160762942779,NA,NA,NA
44003,Ashtabula County,OH,90.19073569482289,NA,NA,NA
44004,Ashtabula County,OH,0.8174386920980926,NA,NA,NA
44012,Lorain County,OH,41.689373297002724,NA,36.6702937976061,NA
44022,Cuyahoga County,OH,NA,NA,95.86507072905331,69.21182266009852
44023,Geauga County,OH,89.10081743869209,NA,86.72470076169749,NA
44026,Geauga County,OH,NA,NA,97.38846572361263,58.620689655172406
44035,Lorain County,OH,NA,3.411513859275053,0,24.137931034482758
44039,Lorain County,OH,10.08174386920981,NA,NA,NA
44047,Ashtabula County,OH,NA,NA,71.70837867247008,NA
44052,Lorain County,OH,NA,NA,45.810663764961916,NA
44054,Lorain County,OH,84.19618528610354,NA,37.867247007616974,NA
44056,Summit County,OH,92.09809264305177,NA,64.7442872687704,NA
44057,Lake County,OH,NA,85.28784648187633,NA,NA
44060,Lake County,OH,NA,40.085287846481876,7.834602829162132,NA
44067,Summit County,OH,NA,NA,36.996735582154514,24.876847290640395
44070,Cuyahoga County,OH,NA,NA,NA,8.866995073891626
44077,Lake County,OH,NA,61.833688699360344,NA,NA
44090,Lorain County,OH,62.39782016348774,NA,NA,NA
44094,Lake County,OH,61.30790190735694,52.02558635394456,NA,53.20197044334976
44102,Cuyahoga County,OH,NA,1.0660980810234542,NA,NA
44104,Cuyahoga County,OH,NA,NA,4.787812840043525,26.84729064039409
44106,Cuyahoga County,OH,NA,37.73987206823028,NA,NA
44107,Cuyahoga County,OH,53.67847411444142,NA,2.067464635473341,NA
44108,Cuyahoga County,OH,NA,NA,NA,36.206896551724135
44109,Cuyahoga County,OH,NA,2.1321961620469083,0.4352557127312296,2.955665024630542
44110,Cuyahoga County,OH,NA,NA,NA,39.90147783251231
44111,Cuyahoga County,OH,10.626702997275205,2.55863539445629,NA,4.433497536945813
44112,Cuyahoga County,OH,NA,NA,9.466811751904244,55.172413793103445
44119,Cuyahoga County,OH,NA,NA,22.63329706202394,NA
44120,Cuyahoga County,OH,NA,NA,36.779107725788904,NA
44121,Cuyahoga County,OH,NA,NA,53.21001088139282,18.472906403940886
44128,Cuyahoga County,OH,NA,NA,3.1556039173014145,NA
44130,Cuyahoga County,OH,4.087193460490464,25.79957356076759,NA,NA
44132,Cuyahoga County,OH,NA,65.0319829424307,NA,NA
44133,Cuyahoga County,OH,NA,NA,28.835690968443963,NA
44134,Cuyahoga County,OH,62.67029972752044,52.66524520255863,9.684439608269859,NA
44136,Cuyahoga County,OH,26.975476839237057,NA,59.41240478781285,NA
44138,Cuyahoga County,OH,NA,87.84648187633263,NA,NA
44139,Cuyahoga County,OH,NA,72.06823027718549,NA,51.970443349753694
44140,Cuyahoga County,OH,56.94822888283378,NA,NA,NA
44145,Cuyahoga County,OH,NA,NA,75.95212187159956,NA
44147,Cuyahoga County,OH,48.228882833787466,NA,46.24591947769314,NA
44202,Portage County,OH,NA,NA,NA,26.108374384236456
44203,Summit County,OH,NA,6.609808102345416,29.053318824809576,NA
44212,Medina County,OH,51.22615803814714,NA,NA,1.477832512315271
44224,Summit County,OH,12.534059945504087,NA,NA,NA
44230,Wayne County,OH,NA,NA,96.30032644178455,NA
44236,Summit County,OH,NA,NA,52.01305767138194,NA
44240,Portage County,OH,NA,33.90191897654584,NA,NA
44256,Medina County,OH,42.234332425068125,63.75266524520256,22.95973884657236,NA
44266,Portage County,OH,NA,10.23454157782516,NA,NA
44305,Summit County,OH,NA,14.498933901918976,16.430903155603918,NA
44306,Summit County,OH,NA,NA,37.43199129488575,37.68472906403941
44307,Summit County,OH,NA,67.16417910447761,NA,NA
44311,Summit County,OH,NA,NA,76.93144722524482,NA
44313,Summit County,OH,NA,NA,31.556039173014145,NA
44319,Summit County,OH,NA,39.872068230277186,76.6050054406964,NA
44405,Mahoning County,OH,60.49046321525886,NA,NA,NA
44406,Mahoning County,OH,NA,NA,79.32535364526659,NA
44420,Trumbull County,OH,NA,72.70788912579957,95.5386289445049,NA
44431,Columbiana County,OH,NA,88.69936034115139,NA,NA
44432,Columbiana County,OH,NA,NA,84.00435255712732,NA
44436,Mahoning County,OH,NA,NA,NA,84.48275862068965
44460,Columbiana County,OH,NA,NA,22.850924918389552,NA
44471,Mahoning County,OH,NA,NA,52.66594124047879,NA
44481,Trumbull County,OH,NA,NA,58.21545157780196,NA
44483,Trumbull County,OH,NA,NA,17.95429815016322,NA
44505,Mahoning County,OH,13.896457765667575,NA,NA,NA
44507,Mahoning County,OH,NA,NA,50.81610446137106,NA
44514,Mahoning County,OH,NA,NA,75.51686615886834,NA
44601,Stark County,OH,NA,8.528784648187633,NA,NA
44614,Stark County,OH,NA,82.94243070362474,NA,NA
44646,Stark County,OH,NA,37.10021321961621,NA,NA
44662,Stark County,OH,96.18528610354224,NA,NA,NA
44683,Tuscarawas County,OH,NA,58.84861407249466,28.291621327529924,NA
44685,Summit County,OH,NA,NA,44.17845484221981,NA
44705,Stark County,OH,NA,28.35820895522388,56.14798694232862,NA
44710,Stark County,OH,NA,47.12153518123667,NA,NA
44805,Ashland County,OH,NA,23.454157782515992,NA,NA
44827,Crawford County,OH,NA,65.67164179104478,NA,NA
44830,Seneca County,OH,NA,NA,19.58650707290533,NA
44839,Erie County,OH,NA,NA,54.298150163220896,NA
44857,Huron County,OH,17.983651226158038,NA,NA,NA
44906,Richland County,OH,NA,NA,NA,52.21674876847291
45005,Warren County,OH,NA,28.997867803837952,NA,NA
45011,Butler County,OH,NA,13.00639658848614,NA,NA
45014,Butler County,OH,NA,NA,17.08378672470076,NA
45030,Hamilton County,OH,NA,NA,53.86289445048966,NA
45069,Butler County,OH,NA,30.06396588486141,NA,NA
45103,Clermont County,OH,27.79291553133515,NA,29.59738846572361,NA
45122,Clermont County,OH,NA,NA,72.57889009793253,NA
45123,Highland County,OH,54.223433242506815,NA,NA,NA
45140,Clermont County,OH,NA,NA,25.0272034820457,NA
45152,Warren County,OH,79.291553133515,NA,NA,NA
45171,Brown County,OH,NA,NA,82.91621327529923,NA
45202,Hamilton County,OH,NA,NA,21.980413492927095,NA
45211,Hamilton County,OH,NA,11.940298507462686,NA,NA
45217,Hamilton County,OH,NA,NA,83.02502720348205,NA
45231,Hamilton County,OH,NA,NA,9.357997823721437,NA
45238,Hamilton County,OH,6.267029972752043,NA,NA,NA
45239,Hamilton County,OH,NA,NA,18.280739934711644,NA
45241,Hamilton County,OH,NA,NA,69.2056583242655,NA
45242,Hamilton County,OH,57.22070844686649,NA,NA,NA
45244,Hamilton County,OH,50.68119891008175,NA,NA,NA
45373,Miami County,OH,NA,NA,47.0076169749728,NA
45377,Montgomery County,OH,NA,NA,68.98803046789989,NA
45385,Greene County,OH,NA,NA,14.036996735582155,NA
45417,Montgomery County,OH,NA,8.102345415778252,NA,NA
45420,Montgomery County,OH,NA,28.78464818763326,NA,NA
45458,Montgomery County,OH,NA,NA,NA,17.980295566502463
45459,Montgomery County,OH,NA,38.37953091684435,NA,NA
45601,Ross County,OH,NA,3.624733475479744,NA,NA
45612,Ross County,OH,NA,73.13432835820896,NA,NA
45623,Gallia County,OH,NA,NA,93.79760609357997,NA
45629,Scioto County,OH,84.46866485013625,NA,NA,NA
45631,Gallia County,OH,NA,47.33475479744136,38.84657236126225,15.763546798029557
45638,Lawrence County,OH,11.1716621253406,NA,NA,NA
45640,Jackson County,OH,NA,NA,7.94341675734494,NA
45662,Scioto County,OH,NA,22.81449893390192,3.4820457018498367,NA
45669,Lawrence County,OH,35.694822888283376,NA,NA,NA
45692,Jackson County,OH,NA,23.02771855010661,NA,NA
45693,Adams County,OH,NA,NA,47.87812840043525,47.29064039408867
45694,Scioto County,OH,NA,74.4136460554371,NA,NA
45714,Washington County,OH,NA,NA,NA,23.15270935960591
45750,Washington County,OH,NA,66.95095948827291,87.05114254624591,NA
45769,Meigs County,OH,NA,63.965884861407254,NA,NA
45804,Allen County,OH,22.3433242506812,NA,NA,NA
45822,Mercer County,OH,NA,NA,95.6474428726877,NA
45840,Hancock County,OH,NA,19.616204690831555,NA,5.172413793103448
45874,Van Wert County,OH,98.36512261580381,NA,NA,NA
73008,Oklahoma County,OK,13.079019073569482,NA,NA,NA
73025,Oklahoma County,OK,NA,NA,68.87921653971708,NA
73112,Oklahoma County,OK,NA,NA,38.084874863982584,NA
73115,Oklahoma County,OK,NA,60.12793176972282,NA,NA
73122,Oklahoma County,OK,70.02724795640327,NA,NA,NA
73162,Oklahoma County,OK,NA,NA,76.4961915125136,NA
73439,Marshall County,OK,99.72752043596729,NA,NA,NA
73460,Johnston County,OK,NA,73.13432835820896,NA,NA
73717,Woods County,OK,NA,NA,88.35690968443961,NA
74008,Tulsa County,OK,NA,80.17057569296375,NA,NA
74010,Creek County,OK,NA,NA,NA,77.33990147783251
74110,Tulsa County,OK,NA,NA,82.15451577801959,NA
74354,Ottawa County,OK,35.14986376021799,NA,NA,NA
74361,Mayes County,OK,NA,80.81023454157783,NA,NA
74434,Muskogee County,OK,85.01362397820164,NA,NA,NA
74464,Cherokee County,OK,NA,NA,36.01741022850925,NA
74501,Pittsburg County,OK,NA,36.034115138592746,NA,NA
74728,McCurtain County,OK,NA,56.929637526652456,NA,NA
74745,McCurtain County,OK,50.13623978201635,67.80383795309169,NA,NA
74864,Lincoln County,OK,NA,NA,94.55930359085963,NA
74948,Sequoyah County,OK,NA,NA,62.56800870511425,NA
74953,Le Flore County,OK,83.37874659400545,NA,NA,NA
97005,Washington County,OR,NA,78.25159914712152,NA,NA
97023,Clackamas County,OR,NA,96.16204690831557,NA,NA
97034,Clackamas County,OR,NA,NA,79.5429815016322,NA
97045,Clackamas County,OR,NA,NA,NA,48.029556650246306
97062,Washington County,OR,NA,NA,56.474428726877036,NA
97103,Clatsop County,OR,NA,NA,52.8835690968444,NA
97123,Washington County,OR,NA,NA,22.742110990206747,NA
97141,Tillamook County,OR,NA,NA,62.67682263329706,NA
97209,Multnomah County,OR,NA,98.08102345415777,NA,NA
97220,Multnomah County,OR,NA,NA,37.21436343852013,NA
97225,Washington County,OR,NA,NA,NA,95.07389162561576
97230,Multnomah County,OR,NA,NA,24.591947769314473,NA
97233,Multnomah County,OR,NA,31.13006396588486,NA,NA
97236,Multnomah County,OR,NA,NA,21.436343852013056,NA
97266,Multnomah County,OR,NA,NA,34.71164309031556,NA
97317,Marion County,OR,NA,NA,88.13928182807399,NA
97351,Polk County,OR,NA,79.1044776119403,NA,NA
97367,Lincoln County,OR,NA,71.42857142857143,NA,NA
97378,Yamhill County,OR,NA,NA,83.13384113166485,NA
97405,Lane County,OR,NA,NA,71.81719260065287,NA
97411,Coos County,OR,NA,NA,91.83895538628944,NA
97424,Lane County,OR,NA,NA,91.62132752992383,NA
97601,Klamath County,OR,NA,NA,NA,16.995073891625616
97603,Klamath County,OR,19.618528610354225,NA,NA,9.60591133004926
97703,Deschutes County,OR,NA,NA,79.76060935799782,NA
97875,Umatilla County,OR,NA,NA,98.4766050054407,NA
15009,Beaver County,PA,NA,NA,NA,42.364532019704434
15017,Allegheny County,PA,NA,NA,68.98803046789989,NA
15206,Allegheny County,PA,NA,NA,19.804134929270948,NA
15221,Allegheny County,PA,NA,NA,19.477693144722526,NA
15241,Allegheny County,PA,NA,NA,NA,67.73399014778325
15401,Fayette County,PA,88.8283378746594,NA,NA,8.620689655172415
15601,Westmoreland County,PA,NA,33.90191897654584,NA,NA
15644,Westmoreland County,PA,53.950953678474114,NA,NA,NA
15701,Indiana County,PA,54.76839237057221,NA,NA,NA
15767,Jefferson County,PA,NA,NA,30.576713819368877,NA
15905,Cambria County,PA,NA,NA,NA,39.16256157635468
16057,Butler County,PA,NA,NA,65.07072905331881,NA
16201,Armstrong County,PA,NA,NA,NA,16.00985221674877
16316,Crawford County,PA,NA,NA,80.8487486398259,NA
16335,Crawford County,PA,36.23978201634878,NA,NA,NA
16365,Warren County,PA,NA,NA,NA,35.467980295566505
16502,Erie County,PA,NA,61.407249466950965,NA,NA
16504,Erie County,PA,NA,NA,58.65070729053319,NA
16602,Blair County,PA,NA,NA,16.104461371055496,NA
16686,Blair County,PA,NA,NA,81.06637649619152,NA
16693,Blair County,PA,NA,NA,98.04134929270947,NA
16701,McKean County,PA,NA,NA,19.368879216539717,NA
16801,Centre County,PA,NA,NA,NA,34.97536945812808
16803,Centre County,PA,NA,NA,NA,65.76354679802957
16828,Centre County,PA,NA,NA,87.15995647442872,NA
16830,Clearfield County,PA,44.6866485013624,NA,NA,NA
16870,Centre County,PA,NA,NA,86.8335146898803,NA
17003,Lebanon County,PA,47.68392370572207,NA,NA,NA
17011,Cumberland County,PA,NA,NA,NA,60.83743842364532
17022,Lancaster County,PA,8.446866485013624,76.33262260127933,NA,NA
17025,Cumberland County,PA,NA,NA,35.69096844396083,NA
17033,Dauphin County,PA,4.632152588555858,NA,NA,NA
17036,Dauphin County,PA,46.049046321525886,NA,94.77693144722524,NA
17046,Lebanon County,PA,8.991825613079019,NA,NA,NA
17050,Cumberland County,PA,NA,NA,24.37431991294886,NA
17078,Lebanon County,PA,64.85013623978202,NA,19.042437431991292,NA
17103,Dauphin County,PA,NA,39.23240938166311,NA,NA
17104,Dauphin County,PA,NA,46.26865671641791,NA,NA
17111,Dauphin County,PA,NA,NA,45.15778019586507,NA
17112,Dauphin County,PA,NA,NA,91.07725788900979,NA
17202,Franklin County,PA,NA,NA,NA,23.39901477832512
17319,York County,PA,NA,NA,65.72361262241567,NA
17331,York County,PA,NA,NA,76.278563656148,NA
17339,York County,PA,NA,NA,89.88030467899891,NA
17365,York County,PA,NA,NA,99.34711643090316,NA
17366,York County,PA,NA,NA,83.7867247007617,NA
17402,York County,PA,NA,NA,NA,45.073891625615765
17408,York County,PA,NA,NA,NA,22.167487684729064
17543,Lancaster County,PA,NA,NA,25.244831338411316,NA
17552,Lancaster County,PA,62.125340599455036,NA,NA,NA
17701,Lycoming County,PA,NA,27.078891257995735,NA,9.852216748768473
17751,Clinton County,PA,NA,NA,NA,80.29556650246306
17821,Montour County,PA,NA,NA,27.20348204570185,21.182266009852217
17837,Union County,PA,NA,NA,96.51795429815017,NA
17844,Union County,PA,NA,NA,NA,80.78817733990148
17847,Northumberland County,PA,NA,NA,63.43852013057671,NA
17870,Snyder County,PA,NA,NA,46.24591947769314,NA
17901,Schuylkill County,PA,NA,NA,27.63873775843308,NA
17963,Schuylkill County,PA,NA,NA,78.99891186071817,NA
18018,Lehigh County,PA,29.70027247956403,NA,NA,NA
18020,Northampton County,PA,NA,89.33901918976545,NA,NA
18036,Lehigh County,PA,NA,NA,66.81175190424375,NA
18104,Lehigh County,PA,NA,71.00213219616205,NA,NA
18201,Luzerne County,PA,NA,47.33475479744136,NA,NA
18222,Luzerne County,PA,NA,NA,NA,73.39901477832512
18301,Monroe County,PA,56.675749318801095,NA,NA,NA
18353,Monroe County,PA,NA,NA,62.785636561479876,NA
18428,Pike County,PA,80.65395095367847,NA,NA,NA
18433,Lackawanna County,PA,NA,NA,96.40914036996736,NA
18444,Lackawanna County,PA,NA,NA,56.80087051142546,NA
18510,Lackawanna County,PA,NA,NA,64.6354733405876,NA
18512,Lackawanna County,PA,NA,98.29424307036247,NA,76.84729064039408
18612,Luzerne County,PA,NA,NA,NA,54.43349753694581
18621,Luzerne County,PA,NA,NA,NA,87.93103448275862
18634,Luzerne County,PA,NA,68.44349680170576,NA,48.52216748768473
18640,Luzerne County,PA,NA,NA,42.655059847660496,NA
18707,Luzerne County,PA,66.7574931880109,NA,89.11860718171926,36.69950738916256
18914,Bucks County,PA,NA,NA,NA,62.5615763546798
19040,Montgomery County,PA,NA,92.53731343283582,NA,51.47783251231527
19054,Bucks County,PA,NA,NA,NA,83.00492610837439
19075,Montgomery County,PA,NA,NA,NA,99.26108374384236
19104,Philadelphia County,PA,NA,23.88059701492537,NA,NA
19116,Philadelphia County,PA,NA,NA,NA,20.44334975369458
19119,Philadelphia County,PA,NA,NA,NA,74.8768472906404
19121,Philadelphia County,PA,NA,NA,10.337323177366702,NA
19122,Philadelphia County,PA,62.94277929155313,NA,NA,NA
19124,Philadelphia County,PA,NA,NA,1.4145810663764962,NA
19130,Philadelphia County,PA,NA,NA,39.49945593035908,NA
19132,Philadelphia County,PA,NA,19.82942430703625,NA,NA
19134,Philadelphia County,PA,NA,12.153518123667377,NA,NA
19138,Philadelphia County,PA,NA,NA,15.342763873775844,NA
19140,Philadelphia County,PA,NA,NA,2.720348204570185,NA
19143,Philadelphia County,PA,NA,NA,21.871599564744287,19.21182266009852
19320,Chester County,PA,NA,50.10660980810234,NA,NA
19355,Chester County,PA,57.22070844686649,NA,NA,NA
19403,Montgomery County,PA,NA,NA,49.29270946681175,NA
19460,Chester County,PA,20.708446866485016,NA,NA,NA
19602,Berks County,PA,NA,NA,13.928182807399347,NA
02907,Providence County,RI,16.348773841961854,NA,NA,NA
02909,Providence County,RI,27.520435967302454,NA,NA,NA
29067,Lancaster County,SC,NA,93.81663113006397,NA,NA
29170,Lexington County,SC,NA,NA,NA,78.32512315270937
29203,Richland County,SC,NA,NA,NA,28.32512315270936
29209,Richland County,SC,NA,NA,43.63438520130577,NA
29223,Richland County,SC,NA,65.0319829424307,NA,32.26600985221675
29356,Spartanburg County,SC,NA,NA,85.63656147986943,NA
29405,Charleston County,SC,NA,27.505330490405118,NA,NA
29455,Charleston County,SC,NA,NA,NA,37.4384236453202
29461,Berkeley County,SC,NA,NA,35.58215451577802,NA
29472,Dorchester County,SC,NA,86.14072494669509,NA,NA
29477,Dorchester County,SC,NA,NA,NA,91.13300492610837
29625,Anderson County,SC,NA,48.40085287846482,NA,NA
29715,York County,SC,NA,NA,66.2676822633297,NA
29805,Aiken County,SC,NA,97.01492537313433,NA,NA
29841,Aiken County,SC,NA,NA,51.36017410228509,NA
29842,Aiken County,SC,85.55858310626702,80.38379530916845,NA,NA
57006,Brookings County,SD,NA,NA,NA,46.55172413793103
57103,Minnehaha County,SD,NA,NA,NA,6.65024630541872
57104,Minnehaha County,SD,NA,NA,NA,10.591133004926109
57501,Hughes County,SD,72.75204359673025,NA,92.6006528835691,NA
57701,Pennington County,SD,40.05449591280654,NA,NA,NA
57702,Pennington County,SD,NA,NA,92.27421109902068,NA
37013,Davidson County,TN,NA,12.57995735607676,12.18715995647443,NA
37110,Warren County,TN,NA,NA,18.171926006528835,NA
37128,Rutherford County,TN,NA,NA,30.25027203482046,NA
37172,Robertson County,TN,NA,NA,NA,72.16748768472905
37210,Davidson County,TN,NA,72.06823027718549,NA,NA
37334,Lincoln County,TN,NA,NA,38.41131664853101,NA
37367,Bledsoe County,TN,NA,NA,63.003264417845486,NA
37405,Hamilton County,TN,NA,86.99360341151386,NA,NA
37415,Hamilton County,TN,NA,60.12793176972282,NA,NA
37421,Hamilton County,TN,NA,NA,30.141458106637646,NA
37601,Washington County,TN,NA,31.769722814498934,NA,NA
37745,Greene County,TN,NA,NA,NA,29.064039408866993
37774,Loudon County,TN,NA,NA,44.396082698585424,NA
37804,Blount County,TN,NA,NA,31.229597388465724,NA
37814,Hamblen County,TN,NA,NA,34.494015233949945,NA
37914,Knox County,TN,NA,45.84221748400853,NA,NA
38018,Shelby County,TN,NA,NA,66.59412404787814,NA
38057,Fayette County,TN,NA,NA,NA,100
38109,Shelby County,TN,NA,9.381663113006397,13.81936887921654,NA
38115,Shelby County,TN,NA,18.336886993603414,NA,NA
38128,Shelby County,TN,NA,10.660980810234541,NA,NA
38305,Madison County,TN,NA,NA,11.099020674646356,NA
38358,Gibson County,TN,NA,79.1044776119403,NA,NA
38382,Gibson County,TN,73.56948228882834,NA,NA,NA
75020,Grayson County,TX,NA,NA,NA,38.91625615763547
75024,Collin County,TX,49.59128065395095,NA,NA,NA
75035,Collin County,TX,NA,NA,NA,56.40394088669951
75063,Dallas County,TX,NA,NA,55.71273122959739,NA
75071,Collin County,TX,NA,NA,30.794341675734493,NA
75165,Ellis County,TX,56.403269754768395,NA,NA,NA
75205,Dallas County,TX,NA,NA,64.41784548422198,NA
75212,Dallas County,TX,NA,54.79744136460555,NA,NA
75217,Dallas County,TX,NA,33.04904051172708,NA,NA
75225,Dallas County,TX,72.47956403269755,NA,NA,NA
75236,Dallas County,TX,NA,35.18123667377399,NA,NA
75238,Dallas County,TX,45.23160762942779,NA,NA,NA
75503,Bowie County,TX,NA,NA,50.0544069640914,NA
75601,Gregg County,TX,NA,81.6631130063966,NA,NA
75605,Gregg County,TX,NA,66.52452025586354,NA,NA
75647,Gregg County,TX,NA,NA,83.46028291621327,NA
75703,Smith County,TX,18.80108991825613,NA,NA,NA
75708,Smith County,TX,66.7574931880109,NA,NA,NA
76009,Johnson County,TX,NA,52.45202558635395,NA,NA
76010,Tarrant County,TX,15.258855585831062,4.051172707889126,NA,NA
76017,Tarrant County,TX,NA,NA,34.276387377584335,NA
76020,Tarrant County,TX,NA,92.75053304904051,32.10010881392819,NA
76021,Tarrant County,TX,NA,NA,NA,44.33497536945813
76022,Tarrant County,TX,NA,82.94243070362474,NA,NA
76036,Tarrant County,TX,NA,NA,57.12731229597389,NA
76050,Johnson County,TX,NA,90.6183368869936,NA,NA
76053,Tarrant County,TX,48.77384196185286,NA,NA,NA
76106,Tarrant County,TX,NA,30.06396588486141,NA,NA
76110,Tarrant County,TX,63.48773841961853,NA,NA,NA
76116,Tarrant County,TX,NA,24.946695095948826,25.13601741022851,NA
76148,Tarrant County,TX,NA,65.67164179104478,NA,NA
76180,Tarrant County,TX,38.96457765667575,NA,NA,NA
76209,Denton County,TX,NA,NA,77.04026115342764,NA
76227,Denton County,TX,49.31880108991826,NA,NA,NA
76240,Cooke County,TX,NA,NA,NA,38.42364532019704
76309,Wichita County,TX,NA,NA,74.64635473340587,NA
76501,Bell County,TX,13.35149863760218,NA,NA,NA
76502,Bell County,TX,11.989100817438691,NA,NA,1.9704433497536946
76504,Bell County,TX,NA,NA,12.078346028291621,NA
76513,Bell County,TX,32.42506811989101,NA,NA,2.2167487684729066
76537,Williamson County,TX,94.55040871934605,NA,NA,NA
76539,Lampasas County,TX,NA,NA,NA,85.71428571428571
76541,Bell County,TX,NA,NA,84.22198041349293,NA
76543,Bell County,TX,NA,NA,NA,61.330049261083744
76642,Limestone County,TX,NA,95.3091684434968,NA,NA
76651,Ellis County,TX,NA,NA,100,NA
76710,McLennan County,TX,NA,NA,NA,49.50738916256158
76712,McLennan County,TX,24.795640326975477,NA,NA,NA
76904,Tom Green County,TX,20.98092643051771,NA,NA,NA
77014,Harris County,TX,NA,NA,81.71926006528835,NA
77032,Harris County,TX,NA,44.136460554371006,NA,NA
77038,Harris County,TX,NA,51.385927505330486,NA,NA
77055,Harris County,TX,94.00544959128065,NA,NA,NA
77064,Harris County,TX,NA,18.976545842217483,NA,NA
77065,Harris County,TX,NA,62.046908315565034,NA,NA
77067,Harris County,TX,42.50681198910082,NA,NA,NA
77074,Harris County,TX,NA,NA,NA,63.793103448275865
77076,Harris County,TX,NA,56.07675906183369,52.12187159956474,NA
77081,Harris County,TX,NA,44.136460554371006,NA,NA
77083,Harris County,TX,NA,42.217484008528785,NA,NA
77088,Harris County,TX,NA,NA,61.69749727965179,NA
77093,Harris County,TX,78.7465940054496,NA,NA,NA
77306,Montgomery County,TX,NA,NA,89.66267682263329,NA
77328,San Jacinto County,TX,NA,NA,76.16974972796517,NA
77338,Harris County,TX,NA,36.247334754797436,NA,NA
77357,Montgomery County,TX,51.22615803814714,90.8315565031983,NA,NA
77375,Harris County,TX,24.250681198910083,NA,NA,NA
77380,Montgomery County,TX,NA,NA,70.94668117519043,NA
77406,Fort Bend County,TX,43.596730245231605,NA,NA,NA
77445,Waller County,TX,NA,68.23027718550107,NA,NA
77449,Harris County,TX,NA,3.8379530916844353,NA,NA
77471,Fort Bend County,TX,NA,NA,NA,64.77832512315271
77479,Fort Bend County,TX,NA,NA,32.4265505984766,NA
77488,Wharton County,TX,95.36784741144415,NA,NA,NA
77494,Fort Bend County,TX,NA,69.29637526652452,NA,NA
77502,Harris County,TX,35.967302452316076,NA,NA,NA
77510,Galveston County,TX,NA,NA,NA,70.44334975369459
77511,Brazoria County,TX,NA,8.742004264392325,NA,NA
77520,Harris County,TX,NA,71.64179104477611,NA,NA
77521,Harris County,TX,NA,48.8272921108742,NA,NA
77532,Harris County,TX,NA,96.80170575692964,NA,NA
77539,Galveston County,TX,NA,16.631130063965884,NA,NA
77550,Galveston County,TX,NA,16.204690831556505,NA,NA
77554,Galveston County,TX,NA,NA,NA,51.724137931034484
77566,Brazoria County,TX,64.30517711171662,NA,NA,NA
77568,Galveston County,TX,NA,46.481876332622605,NA,NA
77571,Harris County,TX,NA,NA,59.95647442872688,NA
77573,Galveston County,TX,1.3623978201634876,NA,NA,7.142857142857142
77591,Galveston County,TX,NA,43.49680170575693,NA,NA
77630,Orange County,TX,NA,NA,41.240478781284004,NA
77642,Jefferson County,TX,NA,34.7547974413646,NA,NA
77705,Jefferson County,TX,41.41689373297003,NA,NA,NA
77802,Brazos County,TX,NA,91.04477611940298,27.856365614798694,NA
77808,Brazos County,TX,NA,NA,59.08596300326442,NA
77840,Brazos County,TX,NA,73.13432835820896,NA,NA
77845,Brazos County,TX,NA,NA,11.7519042437432,NA
78043,Webb County,TX,NA,24.093816631130064,NA,NA
78207,Bexar County,TX,NA,7.036247334754798,NA,NA
78221,Bexar County,TX,NA,NA,44.28726877040261,NA
78223,Bexar County,TX,12.26158038147139,80.59701492537313,NA,NA
78227,Bexar County,TX,NA,NA,NA,59.11330049261084
78228,Bexar County,TX,3.5422343324250685,NA,NA,NA
78229,Bexar County,TX,NA,39.01918976545842,NA,NA
78240,Bexar County,TX,52.86103542234333,NA,NA,NA
78250,Bexar County,TX,NA,70.57569296375267,NA,NA
78408,Nueces County,TX,NA,NA,NA,79.06403940886699
78415,Nueces County,TX,NA,NA,45.04896626768226,NA
78501,Hidalgo County,TX,10.354223433242508,NA,NA,NA
78520,Cameron County,TX,24.795640326975477,NA,NA,NA
78539,Hidalgo County,TX,NA,NA,57.78019586507072,NA
78542,Hidalgo County,TX,NA,NA,41.78454842219804,NA
78552,Cameron County,TX,NA,NA,68.22633297062023,NA
78577,Hidalgo County,TX,NA,1.4925373134328357,NA,NA
78582,Starr County,TX,44.4141689373297,NA,NA,NA
78626,Williamson County,TX,NA,NA,NA,52.70935960591133
78633,Williamson County,TX,81.74386920980926,NA,NA,18.7192118226601
78636,Blanco County,TX,NA,NA,NA,98.76847290640394
78660,Travis County,TX,NA,NA,29.16213275299238,NA
78665,Williamson County,TX,NA,NA,49.51033732317737,NA
78681,Williamson County,TX,NA,NA,53.75408052230686,NA
78704,Travis County,TX,NA,NA,67.46463547334058,NA
78754,Travis County,TX,NA,NA,NA,97.78325123152709
78957,Bastrop County,TX,NA,NA,86.07181719260065,NA
79323,Yoakum County,TX,NA,86.78038379530916,NA,NA
79761,Ector County,TX,NA,63.32622601279317,NA,NA
79762,Ector County,TX,NA,NA,NA,46.05911330049261
79907,El Paso County,TX,30.517711171662125,23.66737739872068,NA,NA
79924,El Paso County,TX,NA,46.695095948827294,NA,NA
79938,El Paso County,TX,NA,10.021321961620469,NA,NA
84009,Salt Lake County,UT,NA,NA,51.68661588683352,NA
84010,Davis County,UT,NA,NA,41.1316648531012,NA
84017,Summit County,UT,96.73024523160763,NA,NA,NA
84029,Tooele County,UT,NA,NA,NA,82.51231527093597
84036,Summit County,UT,NA,NA,95.7562568008705,NA
84044,Salt Lake County,UT,NA,NA,42.981501632208925,NA
84047,Salt Lake County,UT,NA,NA,29.488574537540806,NA
84060,Summit County,UT,NA,NA,NA,90.39408866995073
84074,Tooele County,UT,NA,NA,4.461371055495103,NA
84084,Salt Lake County,UT,NA,NA,NA,44.827586206896555
84087,Davis County,UT,NA,NA,NA,86.20689655172413
84093,Salt Lake County,UT,NA,NA,77.36670293797606,NA
84096,Salt Lake County,UT,7.629427792915531,NA,NA,66.50246305418719
84098,Summit County,UT,87.19346049046321,NA,85.09249183895538,NA
84103,Salt Lake County,UT,92.37057220708446,NA,NA,NA
84104,Salt Lake County,UT,47.956403269754766,NA,NA,NA
84106,Salt Lake County,UT,NA,NA,NA,57.635467980295566
84115,Salt Lake County,UT,46.86648501362398,NA,NA,NA
84116,Salt Lake County,UT,72.75204359673025,NA,31.120783460282915,NA
84119,Salt Lake County,UT,12.806539509536785,NA,14.798694232861806,NA
84120,Salt Lake County,UT,NA,NA,NA,61.822660098522164
84341,Cache County,UT,NA,NA,80.41349292709467,NA
84501,Carbon County,UT,NA,NA,83.67791077257888,NA
84601,Utah County,UT,NA,NA,NA,96.05911330049261
84604,Utah County,UT,NA,NA,NA,84.72906403940887
05201,Bennington County,VT,NA,96.16204690831557,NA,28.817733990147783
05403,Chittenden County,VT,NA,NA,NA,54.43349753694581
05408,Chittenden County,VT,NA,NA,NA,77.58620689655173
05602,Washington County,VT,NA,NA,95.32100108813928,NA
05672,Lamoille County,VT,NA,NA,NA,99.50738916256158
20176,Loudoun County,VA,NA,NA,47.55168661588684,NA
22551,Spotsylvania County,VA,NA,85.9275053304904,NA,NA
22902,Charlottesville city,VA,NA,NA,26.332970620239394,NA
23075,Henrico County,VA,NA,NA,61.47986942328618,NA
23223,Henrico County,VA,NA,10.874200426439232,NA,NA
23228,Henrico County,VA,NA,NA,48.96626768226333,NA
23234,Chesterfield County,VA,NA,NA,21.327529923830248,NA
23238,Henrico County,VA,NA,NA,NA,66.7487684729064
23451,Virginia Beach city,VA,NA,NA,NA,21.67487684729064
23452,Virginia Beach city,VA,NA,NA,53.53645266594123,NA
23464,Virginia Beach city,VA,NA,NA,NA,5.911330049261084
23518,Norfolk city,VA,NA,50.53304904051173,NA,NA
23838,Chesterfield County,VA,NA,NA,83.24265505984766,NA
23847,Greensville County,VA,NA,NA,87.92165397170838,NA
24013,Roanoke city,VA,NA,NA,74.64635473340587,NA
24141,Radford city,VA,NA,NA,71.59956474428726,NA
24504,Lynchburg city,VA,NA,NA,56.58324265505985,NA
98004,King County,WA,NA,NA,93.14472252448314,NA
98006,King County,WA,NA,NA,55.49510337323177,NA
98011,King County,WA,70.57220708446866,NA,NA,NA
98020,Snohomish County,WA,79.291553133515,NA,NA,NA
98023,King County,WA,NA,NA,28.182807399347116,NA
98027,King County,WA,NA,NA,62.132752992383026,NA
98028,King County,WA,NA,NA,72.14363438520131,NA
98042,King County,WA,NA,NA,NA,49.26108374384236
98055,King County,WA,NA,69.29637526652452,NA,NA
98058,King County,WA,52.31607629427793,NA,88.79216539717085,NA
98059,King County,WA,NA,NA,NA,34.72906403940887
98077,King County,WA,97.82016348773843,NA,NA,NA
98087,Snohomish County,WA,NA,82.94243070362474,NA,NA
98105,King County,WA,NA,NA,NA,74.38423645320196
98107,King County,WA,NA,NA,NA,97.53694581280789
98108,King County,WA,74.93188010899182,NA,NA,NA
98109,King County,WA,NA,NA,99.45593035908597,NA
98110,Kitsap County,WA,76.83923705722071,NA,83.35146898803046,NA
98115,King County,WA,NA,NA,38.3025027203482,NA
98117,King County,WA,NA,NA,60.50054406964092,NA
98122,King County,WA,NA,NA,89.22742110990207,NA
98125,King County,WA,NA,62.68656716417911,NA,NA
98146,King County,WA,NA,NA,58.43307943416758,NA
98199,King County,WA,NA,NA,82.04570184983679,NA
98204,Snohomish County,WA,21.25340599455041,NA,NA,NA
98225,Whatcom County,WA,NA,NA,52.9923830250272,NA
98273,Skagit County,WA,NA,25.15991471215352,31.01196953210011,22.413793103448278
98282,Island County,WA,NA,NA,NA,44.08866995073892
98284,Skagit County,WA,NA,NA,50.16322089227421,NA
98290,Snohomish County,WA,NA,88.05970149253731,NA,NA
98311,Kitsap County,WA,NA,NA,60.39173014145811,58.3743842364532
98362,Clallam County,WA,NA,NA,65.94124047878128,NA
98363,Clallam County,WA,NA,NA,NA,43.34975369458128
98382,Clallam County,WA,NA,NA,NA,44.58128078817734
98404,Pierce County,WA,NA,NA,35.47334058759522,NA
98422,Pierce County,WA,67.8474114441417,NA,NA,NA
98498,Pierce County,WA,40.32697547683924,NA,NA,NA
98563,Grays Harbor County,WA,NA,NA,NA,85.22167487684729
98611,Cowlitz County,WA,94.82288828337875,NA,NA,NA
98626,Cowlitz County,WA,NA,59.27505330490405,NA,NA
98632,Cowlitz County,WA,78.2016348773842,NA,21.218715995647443,NA
98662,Clark County,WA,NA,NA,74.42872687704026,NA
98663,Clark County,WA,NA,69.29637526652452,NA,NA
98801,Chelan County,WA,NA,NA,80.30467899891185,NA
98815,Chelan County,WA,NA,NA,86.18063112078346,NA
98901,Yakima County,WA,NA,NA,53.42763873775843,NA
98932,Yakima County,WA,NA,NA,99.23830250272034,NA
98948,Yakima County,WA,NA,69.29637526652452,NA,NA
99203,Spokane County,WA,NA,NA,NA,72.66009852216749
99336,Benton County,WA,9.264305177111716,40.511727078891255,NA,NA
99337,Benton County,WA,23.160762942779293,73.13432835820896,NA,NA
99343,Franklin County,WA,NA,97.44136460554371,NA,NA
99352,Benton County,WA,NA,NA,NA,30.78817733990148
20002,District of Columbia,DC,NA,NA,6.420021762785637,NA
20010,District of Columbia,DC,NA,47.33475479744136,NA,NA
20011,District of Columbia,DC,NA,25.5863539445629,NA,19.458128078817737
20012,District of Columbia,DC,NA,83.7953091684435,NA,NA
20019,District of Columbia,DC,NA,NA,4.243743199129488,NA
20020,District of Columbia,DC,NA,37.10021321961621,NA,NA
25404,Berkeley County,WV,NA,NA,81.61044613710555,NA
25550,Mason County,WV,NA,NA,49.83677910772579,NA
25801,Raleigh County,WV,NA,NA,NA,14.77832512315271
26003,Ohio County,WV,13.896457765667575,NA,NA,NA
26047,Hancock County,WV,NA,NA,77.14907508161045,NA
26101,Wood County,WV,38.14713896457766,NA,NA,36.94581280788177
26354,Taylor County,WV,NA,NA,48.63982589771491,NA
26378,Lewis County,WV,NA,NA,96.95321001088139,NA
26505,Monongalia County,WV,40.87193460490463,NA,11.207834602829161,11.576354679802956
26508,Monongalia County,WV,22.070844686648503,NA,25.680087051142547,NA
26541,Monongalia County,WV,95.91280653950953,NA,NA,NA
26554,Marion County,WV,NA,36.67377398720683,NA,NA
53012,Ozaukee County,WI,54.495912806539515,NA,NA,NA
53022,Washington County,WI,NA,99.57356076759062,NA,NA
53029,Waukesha County,WI,49.59128065395095,NA,NA,NA
53066,Waukesha County,WI,NA,74.84008528784648,40.369967355821544,NA
53072,Waukesha County,WI,NA,NA,NA,45.566502463054185
53074,Ozaukee County,WI,NA,NA,68.77040261153428,NA
53089,Waukesha County,WI,NA,NA,84.54842219804135,NA
53092,Ozaukee County,WI,NA,NA,NA,92.11822660098522
53103,Waukesha County,WI,NA,NA,98.69423286180631,NA
53110,Milwaukee County,WI,39.782016348773844,NA,NA,NA
53115,Walworth County,WI,NA,94.66950959488273,NA,NA
53132,Milwaukee County,WI,32.9700272479564,NA,NA,NA
53144,Kenosha County,WI,NA,NA,65.39717083786725,NA
53150,Waukesha County,WI,78.7465940054496,NA,NA,NA
53158,Kenosha County,WI,NA,NA,NA,33.251231527093594
53168,Kenosha County,WI,86.10354223433242,NA,NA,NA
53172,Milwaukee County,WI,NA,78.89125799573561,67.89989118607181,NA
53179,Kenosha County,WI,59.40054495912806,NA,NA,NA
53188,Waukesha County,WI,NA,74.20042643923242,NA,NA
53205,Milwaukee County,WI,NA,NA,3.0467899891186074,NA
53206,Milwaukee County,WI,9.809264305177113,14.072494669509595,NA,NA
53208,Milwaukee County,WI,NA,NA,40.04352557127312,NA
53212,Milwaukee County,WI,NA,34.54157782515991,NA,NA
53215,Milwaukee County,WI,16.62125340599455,4.264392324093817,5.331882480957562,NA
53216,Milwaukee County,WI,NA,13.859275053304904,NA,97.04433497536947
53217,Milwaukee County,WI,NA,NA,66.92056583242655,NA
53219,Milwaukee County,WI,NA,32.19616204690831,NA,NA
53220,Milwaukee County,WI,NA,59.06183368869936,NA,NA
53225,Milwaukee County,WI,NA,39.23240938166311,39.39064200217628,NA
53228,Milwaukee County,WI,65.66757493188011,NA,NA,NA
53402,Racine County,WI,34.60490463215259,NA,NA,NA
53405,Racine County,WI,NA,NA,7.1817192600652895,NA
53406,Racine County,WI,69.48228882833789,NA,16.648531011969535,NA
53511,Rock County,WI,NA,NA,NA,0.24630541871921183
53527,Dane County,WI,NA,NA,NA,98.0295566502463
53530,Lafayette County,WI,95.09536784741145,NA,NA,NA
53534,Rock County,WI,NA,NA,NA,59.85221674876847
53546,Rock County,WI,NA,64.17910447761194,19.69532100108814,NA
53548,Rock County,WI,NA,NA,NA,67.24137931034483
53562,Dane County,WI,NA,NA,72.90533188248097,NA
53563,Rock County,WI,NA,NA,78.12840043525571,NA
53575,Dane County,WI,NA,NA,87.70402611534276,NA
53593,Dane County,WI,46.86648501362398,NA,96.19151251360174,NA
53703,Dane County,WI,55.858310626703,NA,NA,NA
53704,Dane County,WI,NA,NA,NA,22.906403940886698
53711,Dane County,WI,NA,NA,35.2557127312296,NA
53719,Dane County,WI,NA,NA,NA,45.566502463054185
54001,Polk County,WI,82.01634877384197,NA,NA,NA
54216,Kewaunee County,WI,NA,99.36034115138592,NA,NA
54303,Brown County,WI,NA,69.08315565031982,NA,NA
54457,Wood County,WI,NA,NA,NA,87.192118226601
54482,Portage County,WI,NA,NA,81.39281828073993,NA
54487,Lincoln County,WI,NA,NA,NA,47.783251231527096
54494,Wood County,WI,71.38964577656675,NA,NA,NA
54601,La Crosse County,WI,60.217983651226156,NA,NA,NA
54630,Trempealeau County,WI,NA,NA,NA,86.94581280788178
54636,La Crosse County,WI,NA,NA,64.96191512513602,NA
54669,La Crosse County,WI,NA,NA,93.57997823721436,NA
54751,Dunn County,WI,NA,NA,NA,32.51231527093596
54822,Barron County,WI,NA,NA,94.88574537540805,NA
54880,Douglas County,WI,NA,NA,NA,6.157635467980295
54914,Outagamie County,WI,34.332425068119896,NA,NA,NA
54915,Outagamie County,WI,NA,NA,36.88792165397171,NA
54956,Winnebago County,WI,NA,77.18550106609808,NA,NA
