ZipCode,county,state,Adult,Retirement,Geriatric
35007,Shelby County,AL,54.73145780051151,NA,NA
35077,Cullman County,AL,NA,66.69802445907807,NA
35226,Jefferson County,AL,NA,NA,23.361034164358262
35401,Tuscaloosa County,AL,29.15601023017903,NA,NA
35404,Tuscaloosa County,AL,NA,30.950141110065854,NA
35453,Tuscaloosa County,AL,NA,92.00376293508937,NA
35470,Sumter County,AL,NA,NA,98.06094182825484
35473,Tuscaloosa County,AL,NA,NA,68.60572483841182
35474,Hale County,AL,NA,NA,87.81163434903047
35475,Tuscaloosa County,AL,NA,NA,77.93167128347184
35476,Tuscaloosa County,AL,NA,NA,61.772853185595565
35611,Limestone County,AL,NA,21.44873000940734,NA
35622,Morgan County,AL,NA,NA,89.28901200369344
35630,Lauderdale County,AL,NA,33.20790216368768,NA
35802,Madison County,AL,NA,NA,19.94459833795014
35811,Madison County,AL,NA,41.29821260583255,NA
36064,Montgomery County,AL,NA,NA,96.86057248384118
36117,Montgomery County,AL,NA,71.7779868297272,NA
36323,Coffee County,AL,NA,NA,88.18097876269621
36330,Coffee County,AL,NA,33.67826904985889,NA
36544,Mobile County,AL,NA,NA,97.87626962142197
36545,Clarke County,AL,NA,89.84007525870179,NA
36567,Baldwin County,AL,NA,NA,63.711911357340725
36572,Mobile County,AL,NA,97.3659454374412,NA
36610,Mobile County,AL,NA,NA,91.5050784856879
36854,Chambers County,AL,NA,63.405456255879585,NA
99515,Anchorage Municipality,AK,NA,NA,83.471837488458
99603,Kenai Peninsula Borough,AK,NA,NA,72.94552169898431
85007,Maricopa County,AZ,NA,30.385700846660395,NA
85013,Maricopa County,AZ,NA,NA,72.11449676823638
85017,Maricopa County,AZ,NA,73.3772342427093,NA
85018,Maricopa County,AZ,NA,37.723424270931325,NA
85021,Maricopa County,AZ,15.856777493606138,NA,44.41366574330563
85022,Maricopa County,AZ,NA,24.55315145813735,81.4404432132964
85023,Maricopa County,AZ,NA,58.7958607714017,NA
85027,Maricopa County,AZ,NA,NA,90.95106186518929
85043,Maricopa County,AZ,NA,NA,92.05909510618652
85044,Maricopa County,AZ,24.296675191815854,NA,NA
85083,Maricopa County,AZ,NA,93.22671683913453,NA
85086,Maricopa County,AZ,NA,NA,94.64450600184672
85087,Maricopa County,AZ,NA,94.54374412041392,NA
85120,Pinal County,AZ,NA,NA,27.793167128347186
85142,Maricopa County,AZ,NA,NA,61.58818097876269
85202,Maricopa County,AZ,24.808184143222505,NA,NA
85204,Maricopa County,AZ,NA,25.02351834430856,NA
85205,Maricopa County,AZ,NA,22.201317027281277,NA
85206,Maricopa County,AZ,NA,NA,10.43397968605725
85224,Maricopa County,AZ,NA,42.99153339604892,NA
85248,Maricopa County,AZ,NA,65.09877704609596,NA
85249,Maricopa County,AZ,NA,35.183443085606775,52.90858725761773
85257,Maricopa County,AZ,NA,NA,40.16620498614959
85297,Maricopa County,AZ,NA,83.9134524929445,NA
85304,Maricopa County,AZ,56.77749360613811,NA,NA
85331,Maricopa County,AZ,NA,51.175917215428036,NA
85344,La Paz County,AZ,NA,32.64346190028222,NA
85351,Maricopa County,AZ,NA,NA,8.587257617728532
85367,Yuma County,AZ,86.70076726342711,NA,NA
85375,Maricopa County,AZ,NA,58.325493885230486,0.3693444136657433
85378,Maricopa County,AZ,98.20971867007673,NA,NA
85607,Cochise County,AZ,NA,NA,87.16528162511543
85622,Pima County,AZ,NA,63.593603010348076,NA
85719,Pima County,AZ,38.36317135549872,NA,NA
85737,Pima County,AZ,NA,NA,41.366574330563246
85746,Pima County,AZ,NA,35.65380997177799,NA
85901,Navajo County,AZ,NA,24.27093132643462,NA
85937,Navajo County,AZ,NA,NA,91.41274238227147
86047,Navajo County,AZ,38.87468030690537,NA,NA
86301,Yavapai County,AZ,NA,26.340545625587957,NA
86314,Yavapai County,AZ,82.6086956521739,58.419567262464724,84.39519852262235
86322,Yavapai County,AZ,NA,NA,86.51892890120037
86323,Yavapai County,AZ,NA,NA,89.19667590027701
86327,Yavapai County,AZ,NA,62.088428974600184,43.39796860572484
86336,Yavapai County,AZ,NA,NA,68.05170821791322
86403,Mohave County,AZ,82.35294117647058,NA,NA
86406,Mohave County,AZ,NA,NA,28.99353647276085
71801,Hempstead County,AR,NA,80.90310442144873,NA
71923,Clark County,AR,NA,64.44026340545625,NA
71943,Pike County,AR,NA,NA,99.16897506925207
72032,Faulkner County,AR,NA,42.33301975540922,NA
72104,Hot Spring County,AR,NA,59.54844778927564,NA
72131,Cleburne County,AR,NA,NA,97.50692520775624
72401,Craighead County,AR,NA,NA,16.06648199445983
72715,Benton County,AR,NA,NA,18.83656509695291
72730,Washington County,AR,NA,NA,97.50692520775624
90008,Los Angeles County,CA,NA,NA,24.192059095106185
90019,Los Angeles County,CA,NA,NA,9.879963065558634
90043,Los Angeles County,CA,NA,NA,31.948291782086795
90047,Los Angeles County,CA,NA,NA,23.822714681440445
90063,Los Angeles County,CA,NA,43.273753527751644,NA
90064,Los Angeles County,CA,NA,48.91815616180621,NA
90245,Los Angeles County,CA,NA,63.12323612417686,NA
90247,Los Angeles County,CA,NA,NA,48.56879039704525
90274,Los Angeles County,CA,91.30434782608695,NA,NA
90275,Los Angeles County,CA,NA,87.77046095954844,NA
90505,Los Angeles County,CA,NA,39.32267168391345,NA
90601,Los Angeles County,CA,NA,90.68673565380998,NA
90604,Los Angeles County,CA,63.171355498721226,NA,NA
90631,Orange County,CA,NA,14.487300094073378,56.87903970452447
90680,Orange County,CA,NA,75.91721542803387,NA
90713,Los Angeles County,CA,NA,54.65663217309501,NA
90720,Orange County,CA,NA,NA,67.59002770083103
90744,Los Angeles County,CA,NA,NA,88.45798707294551
90803,Los Angeles County,CA,NA,NA,49.39981532779317
90810,Los Angeles County,CA,65.47314578005115,NA,NA
90815,Los Angeles County,CA,NA,NA,64.35826408125577
91016,Los Angeles County,CA,NA,NA,45.06001846722069
91201,Los Angeles County,CA,NA,67.45061147695203,NA
91205,Los Angeles County,CA,NA,NA,24.37673130193906
91331,Los Angeles County,CA,15.601023017902813,NA,NA
91362,Ventura County,CA,NA,40.451552210724365,NA
91405,Los Angeles County,CA,NA,42.144873000940734,NA
91763,San Bernardino County,CA,NA,NA,59.46445060018467
91910,San Diego County,CA,28.644501278772378,NA,NA
91911,San Diego County,CA,NA,15.804327375352775,NA
91941,San Diego County,CA,NA,44.77892756349953,NA
91950,San Diego County,CA,NA,NA,15.05078485687904
92019,San Diego County,CA,NA,45.24929444967074,NA
92025,San Diego County,CA,NA,51.64628410159925,NA
92026,San Diego County,CA,NA,47.130761994355595,NA
92029,San Diego County,CA,NA,NA,68.05170821791322
92037,San Diego County,CA,NA,NA,58.448753462603875
92069,San Diego County,CA,NA,53.99811853245532,NA
92071,San Diego County,CA,NA,37.62935089369709,61.21883656509696
92081,San Diego County,CA,NA,69.80244590780809,NA
92102,San Diego County,CA,NA,NA,74.42289935364728
92109,San Diego County,CA,NA,55.5032925682032,NA
92114,San Diego County,CA,NA,23.518344308560675,NA
92117,San Diego County,CA,NA,54.65663217309501,18.005540166204987
92126,San Diego County,CA,NA,30.66792097836312,42.65927977839335
92127,San Diego County,CA,NA,NA,58.63342566943675
92130,San Diego County,CA,NA,NA,79.1320406278855
92234,Riverside County,CA,NA,2.06961429915334,NA
92371,San Bernardino County,CA,NA,NA,91.68975069252078
92592,Riverside County,CA,NA,24.835371589840076,NA
92602,Orange County,CA,NA,NA,95.19852262234534
92603,Orange County,CA,NA,91.53339604891816,NA
92626,Orange County,CA,NA,43.555973659454374,NA
92627,Orange County,CA,NA,NA,16.712834718374882
92630,Orange County,CA,NA,NA,27.0544783010157
92648,Orange County,CA,NA,NA,18.65189289012004
92651,Orange County,CA,NA,79.58607714016934,NA
92660,Orange County,CA,NA,NA,12.65004616805171
92672,Orange County,CA,NA,53.80997177798683,NA
92677,Orange County,CA,NA,8.184383819379114,NA
92692,Orange County,CA,NA,NA,8.771929824561402
92705,Orange County,CA,NA,51.36406396989652,NA
92807,Orange County,CA,NA,87.8645343367827,NA
92831,Orange County,CA,NA,NA,65.466297322253
92869,Orange County,CA,NA,NA,45.614035087719294
92870,Orange County,CA,NA,94.63781749764817,NA
92887,Orange County,CA,NA,NA,54.57063711911358
93035,Ventura County,CA,NA,61.71213546566322,NA
93257,Tulare County,CA,NA,NA,20.683287165281623
93312,Kern County,CA,NA,NA,56.50969529085873
93401,San Luis Obispo County,CA,63.42710997442455,NA,NA
93420,San Luis Obispo County,CA,NA,NA,42.38227146814405
93436,Santa Barbara County,CA,NA,NA,13.111726685133887
93449,San Luis Obispo County,CA,NA,NA,71.56048014773776
93543,Los Angeles County,CA,91.04859335038363,NA,NA
93610,Madera County,CA,78.77237851662404,85.04233301975542,NA
93612,Fresno County,CA,NA,87.48824082784571,NA
93619,Fresno County,CA,NA,NA,54.385964912280706
93636,Madera County,CA,NA,NA,91.96675900277008
93637,Madera County,CA,35.80562659846547,NA,NA
93638,Madera County,CA,22.762148337595907,45.53151458137347,NA
93644,Madera County,CA,NA,97.46001881467544,NA
93657,Fresno County,CA,NA,42.52116650987771,NA
93711,Fresno County,CA,73.91304347826086,NA,NA
93722,Fresno County,CA,NA,12.982126058325495,NA
93726,Fresno County,CA,NA,NA,54.47830101569714
93933,Monterey County,CA,NA,NA,67.40535549399816
93940,Monterey County,CA,NA,NA,19.298245614035086
93950,Monterey County,CA,NA,67.73283160865475,NA
94002,San Mateo County,CA,NA,NA,44.04432132963989
94010,San Mateo County,CA,NA,NA,63.1578947368421
94014,San Mateo County,CA,NA,24.176857949200375,NA
94015,San Mateo County,CA,NA,39.79303857008467,2.585410895660203
94022,Santa Clara County,CA,NA,80.99717779868297,NA
94044,San Mateo County,CA,NA,23.89463781749765,NA
94062,San Mateo County,CA,NA,49.29444967074318,NA
94066,San Mateo County,CA,NA,8.65475070555033,11.357340720221606
94080,San Mateo County,CA,36.57289002557545,NA,19.205909510618653
94087,Santa Clara County,CA,NA,NA,22.71468144044321
94089,Santa Clara County,CA,NA,NA,71.6528162511542
94102,San Francisco County,CA,NA,NA,20.221606648199447
94110,San Francisco County,CA,NA,NA,22.068328716528164
94116,San Francisco County,CA,NA,NA,10.249307479224377
94121,San Francisco County,CA,NA,38.19379115710254,NA
94122,San Francisco County,CA,NA,NA,4.062788550323177
94124,San Francisco County,CA,NA,NA,47.46075715604802
94131,San Francisco County,CA,NA,52.77516462841017,NA
94132,San Francisco County,CA,NA,NA,38.873499538319486
94501,Alameda County,CA,NA,43.1796801505174,61.12650046168052
94505,Contra Costa County,CA,NA,85.32455315145813,NA
94507,Contra Costa County,CA,NA,NA,82.64081255771006
94509,Contra Costa County,CA,NA,11.288805268109126,72.02216066481995
94510,Solano County,CA,NA,61.90028222013171,71.00646352723915
94520,Contra Costa County,CA,NA,88.89934148635936,NA
94521,Contra Costa County,CA,NA,38.38193791157102,NA
94526,Contra Costa County,CA,NA,48.35371589840075,42.47460757156048
94531,Contra Costa County,CA,72.63427109974424,NA,NA
94533,Solano County,CA,NA,NA,45.79870729455217
94536,Alameda County,CA,NA,18.7206020696143,85.13388734995382
94542,Alameda County,CA,NA,96.14299153339604,NA
94544,Alameda County,CA,NA,78.92756349952963,19.113573407202217
94546,Alameda County,CA,NA,NA,58.17174515235457
94547,Contra Costa County,CA,NA,76.1994355597366,NA
94549,Contra Costa County,CA,NA,87.01787394167451,NA
94550,Alameda County,CA,49.87212276214834,NA,NA
94560,Alameda County,CA,NA,NA,75.99261311172668
94565,Contra Costa County,CA,NA,5.832549388523048,22.160664819944596
94568,Alameda County,CA,NA,NA,51.43120960295475
94571,Solano County,CA,NA,61.14769520225776,NA
94577,Alameda County,CA,NA,NA,34.07202216066482
94578,Alameda County,CA,NA,NA,80.05540166204986
94579,Alameda County,CA,NA,77.14016933207903,NA
94582,Contra Costa County,CA,NA,NA,97.1375807940905
94583,Contra Costa County,CA,NA,NA,89.38134810710989
94585,Solano County,CA,NA,75.16462841015993,NA
94587,Alameda County,CA,NA,76.6698024459078,NA
94589,Solano County,CA,NA,NA,41.82825484764543
94590,Solano County,CA,NA,23.142050799623707,78.39335180055402
94591,Solano County,CA,NA,NA,84.48753462603878
94595,Contra Costa County,CA,NA,NA,6.832871652816251
94597,Contra Costa County,CA,NA,NA,80.4247460757156
94598,Contra Costa County,CA,NA,NA,60.48014773776546
94602,Alameda County,CA,NA,87.01787394167451,NA
94603,Alameda County,CA,NA,84.94825964252117,NA
94611,Alameda County,CA,NA,19.19096895578551,NA
94612,Alameda County,CA,NA,NA,75.71560480147738
94621,Alameda County,CA,NA,65.00470366886171,NA
94708,Alameda County,CA,NA,85.98306679209784,NA
94803,Contra Costa County,CA,NA,79.30385700846661,NA
94804,Contra Costa County,CA,NA,41.48635936030104,86.79593721144968
94806,Contra Costa County,CA,NA,NA,54.93998153277931
94904,Marin County,CA,NA,NA,69.3444136657433
94952,Sonoma County,CA,NA,36.030103480714956,NA
94954,Sonoma County,CA,NA,32.173095014111006,29.17820867959372
95008,Santa Clara County,CA,NA,NA,24.561403508771928
95032,Santa Clara County,CA,NA,NA,46.9067405355494
95033,Santa Cruz County,CA,NA,NA,95.66020313942751
95037,Santa Clara County,CA,NA,30.761994355597366,NA
95051,Santa Clara County,CA,NA,NA,73.68421052631578
95070,Santa Clara County,CA,NA,NA,17.359187442289937
95076,Santa Cruz County,CA,24.04092071611253,14.957666980244591,NA
95117,Santa Clara County,CA,NA,NA,67.68236380424746
95120,Santa Clara County,CA,NA,NA,32.50230840258541
95122,Santa Clara County,CA,NA,NA,76.36195752539243
95123,Santa Clara County,CA,NA,23.800564440263404,NA
95125,Santa Clara County,CA,NA,NA,24.7460757156048
95128,Santa Clara County,CA,NA,NA,47.091412742382275
95129,Santa Clara County,CA,NA,NA,79.03970452446907
95207,San Joaquin County,CA,NA,64.15804327375353,NA
95228,Calaveras County,CA,NA,NA,94.18282548476455
95240,San Joaquin County,CA,20.460358056265985,NA,NA
95252,Calaveras County,CA,NA,NA,79.31671283471837
95307,Stanislaus County,CA,36.31713554987212,NA,NA
95336,San Joaquin County,CA,NA,18.626528692380056,NA
95337,San Joaquin County,CA,NA,NA,98.4302862419206
95338,Mariposa County,CA,NA,NA,75.53093259464451
95363,Stanislaus County,CA,NA,NA,92.24376731301939
95376,San Joaquin County,CA,NA,NA,44.41366574330563
95377,San Joaquin County,CA,NA,71.68391345249294,NA
95379,Tuolumne County,CA,98.46547314578005,NA,NA
95403,Sonoma County,CA,NA,NA,48.661126500461684
95409,Sonoma County,CA,NA,NA,13.758079409048937
95423,Lake County,CA,NA,NA,82.36380424746076
95482,Mendocino County,CA,NA,22.295390404515523,NA
95501,Humboldt County,CA,56.52173913043478,69.42615239887112,NA
95540,Humboldt County,CA,NA,NA,54.1089566020314
95602,Placer County,CA,NA,NA,31.117266851338876
95603,Placer County,CA,NA,NA,26.408125577100645
95608,Sacramento County,CA,NA,NA,6.555863342566943
95619,El Dorado County,CA,NA,NA,73.86888273314867
95621,Sacramento County,CA,NA,NA,22.34533702677747
95626,Sacramento County,CA,NA,NA,97.04524469067405
95632,Sacramento County,CA,NA,40.82784571966134,NA
95640,Amador County,CA,NA,NA,92.98245614035088
95648,Placer County,CA,NA,NA,37.21144967682364
95661,Placer County,CA,NA,54.280338664158045,NA
95677,Placer County,CA,NA,81.46754468485419,NA
95687,Solano County,CA,NA,NA,77.65466297322253
95688,Solano County,CA,NA,NA,89.65835641735919
95691,Yolo County,CA,NA,52.49294449670743,66.66666666666666
95694,Yolo County,CA,NA,98.2126058325494,NA
95695,Yolo County,CA,NA,83.72530573847601,NA
95747,Placer County,CA,NA,NA,8.494921514312095
95757,Sacramento County,CA,NA,NA,59.926131117266856
95758,Sacramento County,CA,NA,46.001881467544685,NA
95765,Placer County,CA,NA,68.76763875823141,NA
95818,Sacramento County,CA,NA,93.69708372530575,NA
95819,Sacramento County,CA,NA,88.61712135465663,NA
95821,Sacramento County,CA,NA,27.845719661335842,38.41181902123731
95828,Sacramento County,CA,NA,NA,32.31763619575254
95829,Sacramento County,CA,NA,88.52304797742238,NA
95831,Sacramento County,CA,NA,NA,59.37211449676823
95841,Sacramento County,CA,NA,83.06679209783631,NA
95864,Sacramento County,CA,NA,78.55126999059266,42.10526315789473
95946,Nevada County,CA,NA,67.63875823142051,NA
95948,Butte County,CA,NA,85.60677328316086,NA
95963,Glenn County,CA,NA,NA,62.14219759926131
95969,Butte County,CA,NA,5.456255879586077,2.308402585410896
95973,Butte County,CA,NA,NA,73.9612188365651
95991,Sutter County,CA,NA,35.93603010348072,NA
96002,Shasta County,CA,62.40409207161125,NA,NA
80005,Jefferson County,CO,66.24040920716112,NA,NA
80033,Jefferson County,CO,52.42966751918159,NA,NA
80108,Douglas County,CO,51.406649616368284,59.36030103480715,NA
80121,Arapahoe County,CO,NA,71.87206020696144,NA
80123,Jefferson County,CO,NA,NA,70.17543859649122
80127,Jefferson County,CO,NA,47.88334901222954,NA
80205,Denver County,CO,NA,68.57949200376294,NA
80209,Denver County,CO,69.82097186700767,NA,NA
80221,Adams County,CO,NA,51.0818438381938,NA
80233,Adams County,CO,NA,82.69049858889935,NA
80241,Adams County,CO,61.63682864450127,NA,NA
80247,Arapahoe County,CO,NA,NA,33.97968605724838
80525,Larimer County,CO,48.33759590792839,NA,6.1865189289012
80537,Larimer County,CO,NA,NA,57.340720221606645
80634,Weld County,CO,NA,NA,7.663896583564174
80918,El Paso County,CO,NA,32.54938852304798,NA
80921,El Paso County,CO,89.25831202046037,NA,NA
81006,Pueblo County,CO,NA,73.18908748824083,NA
81301,La Plata County,CO,NA,40.169332079021636,51.24653739612188
06032,Hartford County,CT,94.37340153452686,NA,NA
06040,Hartford County,CT,NA,NA,23.176361957525394
06051,Hartford County,CT,NA,53.43367826904986,35.18005540166205
06074,Hartford County,CT,NA,51.552210724365,NA
06105,Hartford County,CT,NA,31.984948259642522,NA
06107,Hartford County,CT,NA,69.61429915333962,NA
06108,Hartford County,CT,NA,56.63217309501412,NA
06109,Hartford County,CT,NA,84.3838193791157,NA
06111,Hartford County,CT,NA,41.862652869238005,34.256694367497694
06114,Hartford County,CT,NA,46.09595484477893,NA
06119,Hartford County,CT,NA,NA,72.76084949215144
06226,Windham County,CT,49.36061381074169,NA,NA
06237,Tolland County,CT,97.18670076726342,NA,NA
06249,New London County,CT,NA,NA,97.4145891043398
06281,Windham County,CT,NA,NA,95.29085872576178
06415,New London County,CT,59.846547314578004,NA,NA
06450,New Haven County,CT,NA,NA,23.545706371191137
06451,New Haven County,CT,NA,NA,52.63157894736842
06471,New Haven County,CT,NA,82.03198494825963,NA
06484,Fairfield County,CT,NA,NA,15.881809787626963
06488,New Haven County,CT,NA,NA,10.526315789473683
06489,Hartford County,CT,NA,NA,60.84949215143121
06492,New Haven County,CT,NA,NA,3.6934441366574333
06511,New Haven County,CT,NA,8.748824082784571,NA
06513,New Haven County,CT,6.905370843989769,NA,19.021237303785778
06518,New Haven County,CT,NA,78.45719661335842,NA
06605,Fairfield County,CT,NA,60.677328316086545,NA
06606,Fairfield County,CT,21.994884910485936,68.01505174035748,NA
06706,New Haven County,CT,67.51918158567774,NA,NA
06708,New Haven County,CT,NA,NA,38.042474607571556
06770,New Haven County,CT,NA,NA,23.26869806094183
06779,Litchfield County,CT,NA,NA,74.69990766389658
06790,Litchfield County,CT,29.411764705882355,NA,NA
06795,Litchfield County,CT,89.00255754475704,NA,NA
19709,New Castle County,DE,NA,NA,27.23915050784857
19713,New Castle County,DE,NA,NA,33.70267774699908
19720,New Castle County,DE,NA,NA,5.263157894736842
19803,New Castle County,DE,NA,92.09783631232361,28.53185595567867
19904,Kent County,DE,NA,13.358419567262464,NA
19938,Kent County,DE,72.1227621483376,NA,NA
19945,Sussex County,DE,NA,61.241768579492,NA
19958,Sussex County,DE,NA,23.047977422389465,10.341643582640812
19966,Sussex County,DE,NA,NA,46.35272391505079
19970,Sussex County,DE,NA,NA,55.493998153277936
32040,Baker County,FL,NA,82.03198494825963,NA
32043,Clay County,FL,NA,NA,48.938134810710984
32073,Clay County,FL,NA,63.31138287864534,NA
32082,St. Johns County,FL,NA,28.033866415804326,22.899353647276087
32086,St. Johns County,FL,NA,NA,12.465373961218837
32092,St. Johns County,FL,NA,NA,60.5724838411819
32097,Nassau County,FL,NA,33.20790216368768,NA
32129,Volusia County,FL,NA,NA,38.688827331486614
32141,Volusia County,FL,NA,NA,42.56694367497691
32159,Lake County,FL,NA,20.319849482596425,3.6011080332409975
32162,Sumter County,FL,NA,1.975540921919097,NA
32174,Volusia County,FL,NA,9.783631232361243,NA
32202,Duval County,FL,NA,90.87488240827845,NA
32205,Duval County,FL,NA,31.23236124176858,NA
32207,Duval County,FL,NA,NA,83.84118190212374
32208,Duval County,FL,NA,4.51552210724365,39.51985226223454
32209,Duval County,FL,7.161125319693094,47.03668861712135,NA
32210,Duval County,FL,NA,5.174035747883349,NA
32216,Duval County,FL,NA,64.0639698965193,26.777469990766388
32217,Duval County,FL,NA,44.4967074317968,NA
32218,Duval County,FL,6.3938618925831205,NA,20.8679593721145
32225,Duval County,FL,32.48081841432225,13.734713076199437,NA
32226,Duval County,FL,NA,55.691439322671684,78.94736842105263
32233,Duval County,FL,NA,NA,54.84764542936288
32244,Duval County,FL,NA,41.20413922859831,34.34903047091413
32246,Duval County,FL,20.971867007672635,19.379115710254,46.16805170821791
32256,Duval County,FL,NA,36.594543744120415,NA
32257,Duval County,FL,NA,19.943555973659453,NA
32404,Bay County,FL,NA,57.29068673565381,57.710064635272396
32405,Bay County,FL,NA,26.62276575729069,NA
32421,Calhoun County,FL,NA,NA,85.50323176361958
32433,Walton County,FL,NA,39.22859830667921,NA
32444,Bay County,FL,NA,NA,41.18190212373038
32507,Escambia County,FL,NA,NA,15.512465373961218
32526,Escambia County,FL,NA,NA,6.64819944598338
32548,Okaloosa County,FL,NA,NA,71.28347183748845
32563,Santa Rosa County,FL,NA,20.225776105362183,NA
32578,Okaloosa County,FL,58.31202046035806,NA,NA
32608,Alachua County,FL,10.741687979539643,NA,NA
32725,Volusia County,FL,NA,73.28316086547507,NA
32738,Volusia County,FL,NA,34.52492944496707,NA
32773,Seminole County,FL,NA,NA,72.29916897506925
32776,Lake County,FL,NA,82.40827845719662,NA
32778,Lake County,FL,NA,22.765757290686736,65.92797783933518
32819,Orange County,FL,NA,NA,87.53462603878116
32828,Orange County,FL,NA,61.05362182502352,NA
32835,Orange County,FL,NA,NA,52.53924284395198
32837,Orange County,FL,NA,NA,51.338873499538316
32904,Brevard County,FL,NA,NA,31.671283471837487
32905,Brevard County,FL,NA,NA,30.840258541089565
32909,Brevard County,FL,NA,29.350893697083723,40.62788550323177
32937,Brevard County,FL,NA,NA,27.88550323176362
32955,Brevard County,FL,NA,20.13170272812794,NA
32958,Indian River County,FL,NA,10.159924741298212,NA
33009,Broward County,FL,NA,NA,9.04893813481071
33015,Miami-Dade County,FL,55.24296675191815,NA,NA
33026,Broward County,FL,NA,58.23142050799623,NA
33027,Broward County,FL,NA,NA,3.7857802400738687
33032,Miami-Dade County,FL,NA,67.26246472248354,NA
33037,Monroe County,FL,NA,71.40169332079022,NA
33062,Broward County,FL,NA,24.082784571966133,NA
33067,Broward County,FL,NA,NA,64.1735918744229
33069,Broward County,FL,NA,NA,12.096029547553092
33076,Broward County,FL,NA,65.6632173095014,NA
33140,Miami-Dade County,FL,84.14322250639387,NA,NA
33160,Miami-Dade County,FL,NA,33.772342427093136,NA
33168,Miami-Dade County,FL,NA,72.9068673565381,NA
33174,Miami-Dade County,FL,NA,68.9557855126999,NA
33176,Miami-Dade County,FL,NA,NA,25.392428439519854
33179,Miami-Dade County,FL,68.28644501278772,NA,39.7045244690674
33186,Miami-Dade County,FL,NA,29.633113828786456,NA
33308,Broward County,FL,NA,13.170272812793979,NA
33404,Palm Beach County,FL,41.17647058823529,NA,NA
33411,Palm Beach County,FL,NA,NA,20.406278855032316
33414,Palm Beach County,FL,48.08184143222506,NA,NA
33435,Palm Beach County,FL,NA,NA,53.18559556786704
33436,Palm Beach County,FL,NA,NA,13.204062788550322
33446,Palm Beach County,FL,NA,28.974600188146756,NA
33458,Palm Beach County,FL,NA,20.884289746001883,NA
33471,Glades County,FL,NA,NA,92.42843951985226
33480,Palm Beach County,FL,NA,NA,36.56509695290859
33496,Palm Beach County,FL,NA,NA,4.801477377654663
33540,Pasco County,FL,91.81585677749361,NA,NA
33558,Hillsborough County,FL,NA,80.52681091251176,NA
33604,Hillsborough County,FL,27.877237851662407,NA,NA
33612,Hillsborough County,FL,NA,NA,39.05817174515235
33613,Hillsborough County,FL,45.012787723785166,NA,NA
33624,Hillsborough County,FL,NA,43.461900282220135,44.22899353647276
33761,Pinellas County,FL,NA,70.931326434619,74.97691597414588
33813,Polk County,FL,NA,46.75446848541863,NA
33825,Highlands County,FL,NA,NA,19.8522622345337
33830,Polk County,FL,NA,NA,70.54478301015698
33841,Polk County,FL,NA,NA,96.02954755309327
33852,Highlands County,FL,67.0076726342711,17.02728127939793,4.339796860572484
33859,Polk County,FL,NA,NA,77.74699907663897
33870,Highlands County,FL,NA,25.211665098777047,NA
33872,Highlands County,FL,NA,38.758231420508,NA
33873,Hardee County,FL,NA,69.89651928504233,NA
33898,Polk County,FL,64.9616368286445,NA,NA
33922,Lee County,FL,NA,80.05644402634054,NA
33948,Charlotte County,FL,NA,37.81749764816557,NA
33952,Charlotte County,FL,NA,30.57384760112888,NA
33966,Lee County,FL,NA,88.14675446848543,NA
34108,Collier County,FL,NA,NA,67.40535549399816
34110,Collier County,FL,NA,NA,12.557710064635272
34209,Manatee County,FL,NA,NA,20.498614958448755
34229,Sarasota County,FL,93.60613810741688,NA,NA
34239,Sarasota County,FL,NA,NA,44.41366574330563
34240,Sarasota County,FL,NA,90.31044214487301,NA
34243,Manatee County,FL,NA,NA,35.08771929824561
34275,Sarasota County,FL,NA,NA,14.958448753462603
34285,Sarasota County,FL,NA,52.96331138287864,NA
34286,Sarasota County,FL,NA,58.137347130761995,NA
34436,Citrus County,FL,NA,81.74976481655692,NA
34601,Hernando County,FL,NA,NA,41.27423822714682
34608,Hernando County,FL,NA,NA,43.859649122807014
34609,Hernando County,FL,NA,60.018814675446855,NA
34613,Hernando County,FL,NA,NA,30.47091412742382
34688,Pinellas County,FL,NA,88.24082784571966,NA
34691,Pasco County,FL,47.570332480818415,NA,NA
34711,Lake County,FL,NA,NA,2.4930747922437675
34758,Osceola County,FL,NA,48.35371589840075,NA
34990,Martin County,FL,NA,NA,2.1237303785780237
34997,Martin County,FL,NA,6.114769520225776,NA
30011,Barrow County,GA,NA,89.27563499529633,NA
30012,Rockdale County,GA,58.567774936061376,NA,NA
30013,Rockdale County,GA,NA,60.86547507055503,NA
30014,Newton County,GA,82.09718670076727,NA,NA
30019,Gwinnett County,GA,NA,87.95860771401694,45.70637119113574
30021,DeKalb County,GA,NA,94.9200376293509,NA
30022,Fulton County,GA,NA,NA,49.03047091412742
30024,Gwinnett County,GA,NA,21.354656632173093,74.05355493998154
30028,Forsyth County,GA,NA,53.15145813734713,NA
30030,DeKalb County,GA,NA,NA,46.62973222530009
30032,DeKalb County,GA,17.647058823529413,42.42709313264346,NA
30034,DeKalb County,GA,34.015345268542205,NA,52.169898430286246
30038,DeKalb County,GA,NA,NA,85.96491228070175
30039,Gwinnett County,GA,NA,NA,42.65927977839335
30040,Forsyth County,GA,NA,16.745061147695203,NA
30041,Forsyth County,GA,31.9693094629156,NA,NA
30043,Gwinnett County,GA,NA,46.566321730950136,89.56602031394276
30044,Gwinnett County,GA,24.55242966751918,68.20319849482597,43.12096029547553
30045,Gwinnett County,GA,NA,73.3772342427093,NA
30046,Gwinnett County,GA,NA,51.92850423330198,NA
30047,Gwinnett County,GA,67.26342710997443,NA,40.258541089566016
30054,Newton County,GA,76.98209718670077,NA,NA
30058,DeKalb County,GA,75.95907928388746,NA,NA
30075,Fulton County,GA,NA,NA,42.65927977839335
30083,DeKalb County,GA,NA,66.60395108184383,NA
30084,DeKalb County,GA,NA,88.71119473189087,NA
30087,DeKalb County,GA,NA,NA,30.747922437673132
30088,DeKalb County,GA,42.710997442455245,NA,NA
30093,Gwinnett County,GA,NA,NA,86.0572483841182
30094,Rockdale County,GA,NA,28.598306679209784,NA
30096,Gwinnett County,GA,30.69053708439898,27.281279397930387,17.543859649122805
30097,Fulton County,GA,NA,NA,41.089566020313946
30110,Haralson County,GA,NA,NA,57.06371191135734
30115,Cherokee County,GA,NA,37.34713076199436,NA
30121,Bartow County,GA,NA,54.1862652869238,NA
30127,Cobb County,GA,NA,29.068673565380998,NA
30144,Cobb County,GA,NA,48.54186265286924,NA
30157,Paulding County,GA,NA,22.483537158984007,NA
30188,Cherokee County,GA,NA,NA,32.779316712834714
30281,Henry County,GA,NA,15.898400752587019,NA
30291,Fulton County,GA,NA,69.61429915333962,NA
30305,Fulton County,GA,NA,NA,37.580794090489384
30315,Fulton County,GA,33.75959079283887,NA,NA
30316,DeKalb County,GA,NA,47.69520225776105,NA
30340,DeKalb County,GA,87.46803069053708,NA,64.81994459833795
30401,Emanuel County,GA,NA,64.53433678269049,NA
30474,Toombs County,GA,NA,75.07055503292568,NA
30518,Gwinnett County,GA,NA,NA,77.10064635272391
30519,Gwinnett County,GA,NA,67.16839134524929,NA
30523,Habersham County,GA,NA,75.82314205079962,NA
30525,Rabun County,GA,NA,NA,79.87072945521699
30620,Barrow County,GA,NA,NA,94.367497691597407
30655,Walton County,GA,NA,26.152398871119477,NA
30656,Walton County,GA,NA,NA,95.01385041551247
30705,Murray County,GA,NA,NA,63.988919667590025
30736,Catoosa County,GA,14.578005115089516,17.403574788334904,NA
31021,Laurens County,GA,NA,NA,47.830101569713754
31027,Laurens County,GA,NA,NA,93.62880886426593
31055,Telfair County,GA,NA,94.0733772342427,NA
31088,Houston County,GA,NA,NA,16.43582640812558
31093,Houston County,GA,NA,30.291627469426153,NA
31312,Effingham County,GA,NA,NA,84.11819021237304
31328,Chatham County,GA,NA,NA,98.89196675900277
31329,Effingham County,GA,NA,95.5785512699906,NA
31408,Chatham County,GA,NA,NA,86.88827331486611
31503,Ware County,GA,56.26598465473146,NA,NA
31539,Jeff Davis County,GA,NA,66.98024459078081,NA
31545,Wayne County,GA,NA,NA,88.36565096952909
31546,Wayne County,GA,89.769820971867,NA,NA
31548,Camden County,GA,64.45012787723785,NA,NA
31705,Dougherty County,GA,NA,NA,52.72391505078485
31763,Lee County,GA,NA,65.47507055503291,NA
31794,Tift County,GA,NA,52.11665098777046,NA
39840,Randolph County,GA,NA,NA,87.25761772853186
96701,Honolulu County,HI,NA,15.051740357478833,40.35087719298245
96707,Honolulu County,HI,NA,28.50423330197554,NA
96734,Honolulu County,HI,NA,9.219190968955786,7.479224376731302
96743,Hawaii County,HI,85.42199488491049,NA,NA
96744,Honolulu County,HI,NA,2.4459078080903107,22.807017543859647
96750,Hawaii County,HI,NA,95.3904045155221,NA
96782,Honolulu County,HI,NA,NA,76.17728531855957
96786,Honolulu County,HI,NA,42.99153339604892,NA
96789,Honolulu County,HI,NA,34.71307619943556,NA
96792,Honolulu County,HI,NA,20.50799623706491,63.80424746075716
96797,Honolulu County,HI,12.020460358056265,NA,42.0129270544783
96813,Honolulu County,HI,NA,69.99059266227657,NA
96815,Honolulu County,HI,51.66240409207161,NA,NA
96816,Honolulu County,HI,NA,NA,51.061865189289016
96817,Honolulu County,HI,NA,31.514581373471305,48.01477377654663
96821,Honolulu County,HI,NA,NA,15.143120960295475
96822,Honolulu County,HI,NA,NA,62.69621421975992
96825,Honolulu County,HI,NA,NA,2.7700831024930745
96826,Honolulu County,HI,NA,NA,34.995383194829174
83402,Bonneville County,ID,NA,NA,59.556786703601105
83442,Jefferson County,ID,NA,NA,76.5466297322253
83445,Fremont County,ID,96.41943734015345,NA,NA
83605,Canyon County,ID,31.713554987212277,NA,NA
83617,Gem County,ID,NA,NA,31.486611265004615
83669,Ada County,ID,NA,85.98306679209784,NA
83704,Ada County,ID,NA,NA,1.2003693444136658
83714,Ada County,ID,NA,47.50705550329257,NA
83814,Kootenai County,ID,NA,NA,29.6398891966759
83854,Kootenai County,ID,36.828644501278774,NA,NA
60030,Lake County,IL,NA,20.790216368767638,15.69713758079409
60046,Lake County,IL,NA,22.013170272812793,NA
60051,McHenry County,IL,NA,22.671683913452494,35.18005540166205
60056,Cook County,IL,NA,12.793979303857009,NA
60060,Lake County,IL,NA,12.699905926622765,NA
60087,Lake County,IL,NA,NA,58.264081255771
60089,Lake County,IL,43.22250639386189,NA,NA
60093,Cook County,IL,NA,49.1063029162747,NA
60108,DuPage County,IL,NA,NA,30.009233610341646
60123,Kane County,IL,NA,NA,17.451523545706372
60126,DuPage County,IL,NA,2.351834430856068,NA
60130,Cook County,IL,NA,66.13358419567263,NA
60142,McHenry County,IL,NA,NA,1.0156971375807942
60153,Cook County,IL,NA,21.91909689557855,NA
60154,Cook County,IL,NA,NA,30.56325023084026
60155,Cook County,IL,NA,90.02822201317028,NA
60156,McHenry County,IL,NA,NA,75.90027700831024
60171,Cook County,IL,NA,68.76763875823141,NA
60181,DuPage County,IL,NA,27.563499529633113,NA
60189,DuPage County,IL,NA,NA,30.10156971375808
60402,Cook County,IL,NA,NA,29.6398891966759
60409,Cook County,IL,NA,NA,33.61034164358264
60411,Cook County,IL,NA,39.98118532455315,NA
60416,Grundy County,IL,88.7468030690537,NA,NA
60423,Will County,IL,NA,77.79868297271872,NA
60425,Cook County,IL,85.6777493606138,NA,NA
60428,Cook County,IL,NA,81.2793979303857,NA
60432,Will County,IL,63.9386189258312,NA,NA
60433,Will County,IL,NA,75.63499529633114,NA
60439,Cook County,IL,NA,15.710253998118532,23.4533702677747
60441,Will County,IL,NA,24.64722483537159,37.85780240073869
60442,Will County,IL,NA,83.53715898400753,NA
60445,Cook County,IL,NA,NA,68.97506925207756
60451,Will County,IL,NA,48.25964252116651,78.57802400738689
60462,Cook County,IL,NA,4.045155221072436,7.756232686980609
60463,Cook County,IL,NA,NA,23.915050784856877
60473,Cook County,IL,62.9156010230179,NA,NA
60477,Cook County,IL,NA,10.912511759172155,NA
60491,Will County,IL,74.68030690537084,23.33019755409219,NA
60504,DuPage County,IL,NA,59.54844778927564,NA
60513,Cook County,IL,NA,NA,59.18744228993537
60515,DuPage County,IL,NA,32.64346190028222,NA
60517,DuPage County,IL,NA,NA,78.8550323176362
60521,DuPage County,IL,NA,NA,62.603878116343495
60525,Cook County,IL,NA,11.853245531514581,NA
60527,DuPage County,IL,NA,NA,49.2151431209603
60543,Kendall County,IL,NA,45.8137347130762,91.78208679593722
60554,Kane County,IL,NA,NA,80.51708217913203
60561,DuPage County,IL,65.21739130434783,NA,NA
60563,DuPage County,IL,NA,NA,21.791320406278857
60612,Cook County,IL,NA,28.31608654750706,NA
60618,Cook County,IL,NA,17.121354656632175,NA
60632,Cook County,IL,NA,25.68203198494826,25.761772853185594
60633,Cook County,IL,75.1918158567775,NA,NA
60634,Cook County,IL,NA,NA,7.017543859649122
60644,Cook County,IL,11.508951406649617,NA,49.953831948291786
60660,Cook County,IL,30.946291560102303,NA,35.641735918744224
60707,Cook County,IL,NA,7.9962370649106305,NA
60804,Cook County,IL,NA,NA,36.472760849492154
60957,Ford County,IL,NA,NA,87.71929824561403
61021,Lee County,IL,71.0997442455243,NA,NA
61061,Ogle County,IL,NA,76.10536218250236,NA
61101,Winnebago County,IL,NA,42.23894637817497,NA
61115,Winnebago County,IL,NA,24.459078080903105,NA
61201,Rock Island County,IL,41.432225063938624,NA,NA
61264,Rock Island County,IL,NA,85.79492003762935,NA
61455,McDonough County,IL,NA,NA,70.26777469990766
61462,Warren County,IL,NA,85.2304797742239,NA
61554,Tazewell County,IL,NA,9.689557855127,NA
61604,Peoria County,IL,NA,NA,15.512465373961218
61607,Peoria County,IL,NA,79.9623706491063,NA
61614,Peoria County,IL,NA,70.36688617121355,NA
61616,Peoria County,IL,NA,NA,96.95290858725761
61701,McLean County,IL,NA,81.56161806208843,82.82548476454294
61704,McLean County,IL,NA,NA,55.86334256694367
61801,Champaign County,IL,NA,46.4722483537159,NA
61802,Champaign County,IL,NA,NA,45.98337950138504
61821,Champaign County,IL,NA,NA,10.987996306555864
61832,Vermilion County,IL,NA,NA,36.288088642659275
61853,Champaign County,IL,NA,NA,28.624192059095105
62002,Madison County,IL,34.52685421994885,16.839134524929445,13.94275161588181
62010,Madison County,IL,NA,NA,66.4819944598338
62024,Madison County,IL,NA,92.56820319849483,NA
62035,Madison County,IL,NA,NA,74.51523545706371
62234,Madison County,IL,NA,42.709313264346186,NA
62263,Washington County,IL,NA,85.41862652869237,NA
62269,St. Clair County,IL,74.16879795396419,NA,NA
62301,Adams County,IL,NA,34.995296331138285,NA
62401,Effingham County,IL,NA,NA,30.932594644506
62428,Cumberland County,IL,98.9769820971867,NA,NA
62448,Jasper County,IL,93.86189258312021,NA,NA
62471,Fayette County,IL,NA,55.126999059266225,NA
62521,Macon County,IL,NA,NA,47.368421052631575
62626,Macoupin County,IL,NA,93.50893697083725,NA
62675,Menard County,IL,NA,96.51928504233302,NA
62703,Sangamon County,IL,NA,25.587958607714018,NA
62704,Sangamon County,IL,NA,NA,13.019390581717452
62864,Jefferson County,IL,NA,73.65945437441204,71.37580794090489
46011,Madison County,IN,NA,NA,37.02677746999077
46012,Madison County,IN,NA,17.497648165569142,NA
46016,Madison County,IN,19.69309462915601,NA,NA
46033,Hamilton County,IN,NA,NA,40.443213296398895
46036,Madison County,IN,NA,55.59736594543744,NA
46069,Hamilton County,IN,NA,93.03857008466603,NA
46122,Hendricks County,IN,NA,NA,86.24192059095105
46123,Hendricks County,IN,NA,40.92191909689558,NA
46135,Putnam County,IN,NA,NA,37.21144967682364
46140,Hancock County,IN,NA,NA,17.08217913204063
46142,Johnson County,IN,46.80306905370844,NA,NA
46151,Morgan County,IN,NA,17.96801505174036,NA
46231,Marion County,IN,NA,65.8513640639699,NA
46307,Lake County,IN,3.0690537084398977,NA,NA
46310,Jasper County,IN,NA,56.444026340545626,NA
46320,Lake County,IN,NA,NA,74.79224376731301
46322,Lake County,IN,NA,NA,11.265004616805172
46356,Lake County,IN,NA,32.07902163687677,NA
46368,Porter County,IN,4.092071611253197,NA,NA
46392,Jasper County,IN,NA,86.64158043273753,NA
46394,Lake County,IN,NA,53.15145813734713,NA
46530,St. Joseph County,IN,NA,NA,61.865189289012
46550,Elkhart County,IN,NA,95.86077140169333,NA
46619,St. Joseph County,IN,60.10230179028133,NA,NA
46725,Whitley County,IN,NA,18.25023518344309,NA
46816,Allen County,IN,NA,NA,60.664819944598335
46835,Allen County,IN,NA,8.936970837253057,NA
46901,Howard County,IN,3.580562659846547,NA,NA
46902,Howard County,IN,NA,NA,4.524469067405355
46947,Cass County,IN,NA,NA,7.202216066481995
46970,Miami County,IN,13.810741687979538,NA,NA
47012,Franklin County,IN,NA,NA,82.54847645429363
47025,Dearborn County,IN,NA,NA,54.662973222530006
47201,Bartholomew County,IN,16.11253196930946,10.72436500470367,NA
47240,Decatur County,IN,71.86700767263427,NA,NA
47394,Randolph County,IN,NA,NA,52.446906740535546
47404,Monroe County,IN,NA,NA,79.1320406278855
47725,Vanderburgh County,IN,NA,69.42615239887112,NA
47805,Vigo County,IN,NA,76.48165569143931,NA
47834,Clay County,IN,NA,82.31420507996236,NA
47842,Vermillion County,IN,NA,NA,85.3185595567867
47885,Vigo County,IN,NA,74.12982126058326,NA
47932,Fountain County,IN,NA,71.40169332079022,NA
50131,Polk County,IA,NA,NA,84.85687903970452
50322,Polk County,IA,NA,NA,56.32502308402585
50401,Cerro Gordo County,IA,16.36828644501279,NA,11.172668513388736
50511,Kossuth County,IA,NA,NA,68.69806094182826
50613,Black Hawk County,IA,NA,NA,2.21606648199446
51501,Pottawattamie County,IA,NA,40.35747883349012,NA
51503,Pottawattamie County,IA,NA,NA,24.284395198522624
51534,Mills County,IA,NA,NA,92.61311172668513
51537,Shelby County,IA,NA,84.19567262464722,NA
52402,Linn County,IA,23.52941176470588,NA,NA
52601,Des Moines County,IA,17.391304347826086,NA,NA
52627,Lee County,IA,NA,42.80338664158043,NA
52806,Scott County,IA,NA,34.33678269049859,NA
66104,Wyandotte County,KS,32.22506393861892,NA,NA
66106,Wyandotte County,KS,49.10485933503836,NA,NA
66214,Johnson County,KS,NA,83.63123236124177,NA
66216,Johnson County,KS,79.28388746803068,NA,NA
66547,Pottawatomie County,KS,NA,NA,89.75069252077562
66609,Shawnee County,KS,NA,88.05268109125117,NA
66614,Shawnee County,KS,NA,NA,15.23545706371191
66701,Bourbon County,KS,NA,97.27187206020696,NA
67037,Sedgwick County,KS,NA,NA,82.73314866112649
67203,Sedgwick County,KS,78.00511508951406,NA,NA
67217,Sedgwick County,KS,NA,NA,68.32871652816252
67901,Seward County,KS,NA,75.54092191909689,NA
40065,Shelby County,KY,NA,NA,63.52723915050785
40205,Jefferson County,KY,NA,36.97083725305739,NA
40207,Jefferson County,KY,NA,NA,34.533702677746994
40208,Jefferson County,KY,52.94117647058824,NA,NA
40211,Jefferson County,KY,18.15856777493606,NA,NA
40214,Jefferson County,KY,NA,NA,42.93628808864266
40216,Jefferson County,KY,NA,10.348071495766698,NA
40217,Jefferson County,KY,NA,90.59266227657574,NA
40220,Jefferson County,KY,NA,NA,56.6943674976916
40223,Jefferson County,KY,NA,NA,50.13850415512465
40258,Jefferson County,KY,NA,37.81749764816557,NA
40272,Jefferson County,KY,18.67007672634271,14.581373471307622,NA
40291,Jefferson County,KY,NA,15.61618062088429,NA
40356,Jessamine County,KY,NA,NA,77.8393351800554
40403,Madison County,KY,NA,NA,24.653739612188367
40456,Rockcastle County,KY,NA,70.2728127939793,NA
40508,Fayette County,KY,NA,NA,74.14589104339797
40515,Fayette County,KY,NA,NA,81.4404432132964
40965,Bell County,KY,30.434782608695656,NA,NA
41144,Greenup County,KY,43.98976982097187,NA,NA
41339,Breathitt County,KY,50.38363171355499,NA,NA
42066,Graves County,KY,NA,NA,33.425669436749764
42134,Simpson County,KY,NA,68.67356538099718,NA
42301,Daviess County,KY,NA,8.372530573847602,15.327793167128348
42320,Ohio County,KY,NA,NA,48.84579870729455
42345,Muhlenberg County,KY,NA,NA,57.80240073868883
42431,Hopkins County,KY,NA,NA,29.45521698984303
42567,Pulaski County,KY,NA,91.72154280338664,NA
42701,Hardin County,KY,NA,7.808090310442145,NA
42718,Taylor County,KY,NA,7.714016933207903,NA
70003,Jefferson Parish,LA,NA,NA,1.477377654662973
70006,Jefferson Parish,LA,NA,42.05079962370649,NA
70053,Jefferson Parish,LA,NA,NA,80.24007386888273
70056,Jefferson Parish,LA,7.41687979539642,NA,NA
70065,Jefferson Parish,LA,NA,NA,43.76731301939058
70072,Jefferson Parish,LA,NA,NA,3.970452446906741
70090,St. James Parish,LA,NA,95.20225776105362,NA
70094,Jefferson Parish,LA,NA,13.264346190028222,NA
70122,Orleans Parish,LA,NA,9.0310442144873,NA
70123,Jefferson Parish,LA,NA,NA,61.40350877192983
70301,Lafourche Parish,LA,NA,6.867356538099719,14.866112650046167
70354,Lafourche Parish,LA,80.30690537084399,NA,NA
70359,Terrebonne Parish,LA,NA,73.5653809971778,NA
70364,Terrebonne Parish,LA,NA,NA,45.89104339796861
70435,St. Tammany Parish,LA,NA,15.145813734713077,NA
70452,St. Tammany Parish,LA,25.063938618925828,NA,NA
70525,Acadia Parish,LA,NA,56.25587958607714,NA
70526,Acadia Parish,LA,NA,65.56914393226717,59.18744228993537
70535,St. Landry Parish,LA,NA,NA,27.977839335180054
70548,Vermilion Parish,LA,NA,NA,62.32686980609419
70584,St. Landry Parish,LA,NA,87.39416745061148,NA
70605,Calcasieu Parish,LA,NA,25.39981185324553,NA
70663,Calcasieu Parish,LA,NA,NA,42.197599261311176
70669,Calcasieu Parish,LA,NA,63.02916274694261,NA
70706,Livingston Parish,LA,NA,58.70178739416745,NA
70737,Ascension Parish,LA,NA,NA,31.948291782086795
70760,Pointe Coupee Parish,LA,79.79539641943734,NA,NA
70769,Ascension Parish,LA,14.066496163682865,NA,NA
70802,East Baton Rouge Parish,LA,NA,NA,46.81440443213297
70805,East Baton Rouge Parish,LA,4.603580562659847,NA,NA
70809,East Baton Rouge Parish,LA,NA,47.7892756349953,NA
71019,Red River Parish,LA,NA,89.08748824082785,NA
71040,Claiborne Parish,LA,NA,90.49858889934148,NA
71047,Caddo Parish,LA,84.91048593350384,NA,NA
71055,Webster Parish,LA,NA,NA,83.37950138504155
71108,Caddo Parish,LA,NA,NA,98.15327793167128
71111,Bossier Parish,LA,7.928388746803069,NA,67.12834718374884
71119,Caddo Parish,LA,87.7237851662404,63.687676387582314,65.55863342566943
71203,Ouachita Parish,LA,NA,20.41392285983067,32.59464450600185
71220,Morehouse Parish,LA,NA,77.42238946378176,NA
71225,Ouachita Parish,LA,NA,94.73189087488241,NA
71232,Richland Parish,LA,50.63938618925832,NA,NA
71241,Union Parish,LA,NA,80.15051740357478,NA
71291,Ouachita Parish,LA,NA,NA,21.23730378578024
71292,Ouachita Parish,LA,NA,NA,64.63527239150508
71360,Rapides Parish,LA,NA,23.424270931326436,NA
04038,Cumberland County,ME,58.82352941176471,NA,NA
04046,York County,ME,NA,74.69426152398871,NA
04062,Cumberland County,ME,NA,79.77422389463781,NA
04073,York County,ME,NA,29.82126058325494,NA
04090,York County,ME,NA,NA,17.174515235457065
04105,Cumberland County,ME,NA,81.65569143932268,NA
04240,Androscoggin County,ME,NA,37.53527751646284,15.789473684210526
04280,Androscoggin County,ME,NA,NA,61.95752539242844
04345,Kennebec County,ME,NA,NA,68.79039704524469
04412,Penobscot County,ME,NA,75.16462841015993,NA
04619,Washington County,ME,NA,87.30009407337724,NA
20707,Prince George's County,MD,NA,84.47789275634995,NA
20723,Howard County,MD,NA,78.08090310442145,NA
20737,Prince George's County,MD,NA,NA,95.56786703601108
20904,Montgomery County,MD,NA,NA,18.928901200369346
21015,Harford County,MD,NA,57.94920037629351,NA
21061,Anne Arundel County,MD,13.554987212276215,NA,NA
21078,Harford County,MD,NA,50.23518344308561,NA
21146,Anne Arundel County,MD,NA,46.66039510818438,NA
21226,Anne Arundel County,MD,NA,99.71777986829727,NA
21502,Allegany County,MD,NA,53.62182502351834,NA
21601,Talbot County,MD,NA,NA,33.148661126500464
21754,Frederick County,MD,NA,NA,97.78393351800554
21842,Worcester County,MD,NA,NA,45.15235457063712
21911,Cecil County,MD,NA,NA,60.11080332409973
21921,Cecil County,MD,20.20460358056266,NA,18.467220683287167
01013,Hampden County,MA,4.859335038363171,NA,NA
01020,Hampden County,MA,NA,9.501411100658514,NA
01030,Hampden County,MA,NA,NA,79.31671283471837
01040,Hampden County,MA,NA,NA,0.2770083102493075
01056,Hampden County,MA,NA,34.901222953904046,10.064635272391504
01060,Hampshire County,MA,NA,NA,67.31301939058172
01077,Hampden County,MA,NA,NA,80.60941828254848
01085,Hampden County,MA,NA,1.881467544684854,5.170821791320406
01089,Hampden County,MA,NA,25.7761053621825,NA
01108,Hampden County,MA,1.7902813299232736,NA,NA
01109,Hampden County,MA,NA,NA,6.832871652816251
01230,Berkshire County,MA,74.42455242966753,NA,NA
01247,Berkshire County,MA,8.951406649616368,NA,NA
01331,Worcester County,MA,NA,31.138287864534338,NA
01373,Franklin County,MA,NA,96.80150517403575,NA
01376,Franklin County,MA,69.56521739130434,NA,NA
01420,Worcester County,MA,NA,1.5992474129821261,NA
01430,Worcester County,MA,NA,79.11571025399812,NA
01432,Middlesex County,MA,NA,72.34242709313264,NA
01453,Worcester County,MA,NA,0.658513640639699,NA
01460,Middlesex County,MA,NA,NA,66.85133887349953
01475,Worcester County,MA,NA,49.012229539040455,NA
01501,Worcester County,MA,NA,30.47977422389464,20.036934441366576
01507,Worcester County,MA,42.45524296675192,NA,NA
01536,Worcester County,MA,NA,NA,87.53462603878116
01545,Worcester County,MA,NA,14.016933207902163,NA
01562,Worcester County,MA,NA,39.040451552210726,NA
01569,Worcester County,MA,NA,NA,86.0572483841182
01581,Worcester County,MA,NA,NA,60.664819944598335
01588,Worcester County,MA,NA,38.47601128880527,NA
01604,Worcester County,MA,1.278772378516624,NA,NA
01609,Worcester County,MA,NA,NA,29.085872576177284
01610,Worcester County,MA,NA,NA,53.18559556786704
01612,Worcester County,MA,NA,99.62370649106302,NA
01701,Middlesex County,MA,NA,5.268109125117592,6.278855032317636
01702,Middlesex County,MA,NA,3.951081843838194,NA
01741,Middlesex County,MA,NA,97.64816556914393,NA
01749,Middlesex County,MA,NA,NA,49.769159741458914
01754,Middlesex County,MA,NA,93.60301034807149,NA
01756,Worcester County,MA,NA,NA,97.6915974145891
01775,Middlesex County,MA,NA,NA,84.21052631578947
01776,Middlesex County,MA,NA,NA,55.21698984302862
01801,Middlesex County,MA,25.31969309462916,NA,NA
01803,Middlesex County,MA,NA,NA,1.10803324099723
01824,Middlesex County,MA,NA,5.079962370649106,6.094182825484765
01826,Middlesex County,MA,NA,NA,18.19021237303786
01835,Essex County,MA,NA,NA,86.6112650046168
01841,Essex County,MA,NA,NA,1.7543859649122806
01843,Essex County,MA,NA,NA,70.08310249307479
01854,Middlesex County,MA,NA,NA,3.4164358264081254
01863,Middlesex County,MA,NA,NA,60.94182825484764
01867,Middlesex County,MA,NA,NA,14.58910433979686
01879,Middlesex County,MA,NA,49.38852304797742,NA
01880,Middlesex County,MA,NA,NA,11.542012927054477
01902,Essex County,MA,0.2557544757033248,NA,NA
01905,Essex County,MA,NA,5.550329256820319,NA
01906,Essex County,MA,NA,6.9614299153339605,NA
01915,Essex County,MA,NA,41.39228598306679,NA
01952,Essex County,MA,NA,98.77704609595484,NA
01960,Essex County,MA,NA,0.5644402634054563,NA
01970,Essex County,MA,1.5345268542199488,NA,NA
02026,Norfolk County,MA,7.672634271099745,NA,NA
02035,Norfolk County,MA,NA,NA,56.232686980609415
02038,Norfolk County,MA,NA,NA,25.20775623268698
02052,Norfolk County,MA,NA,97.83631232361242,85.78024007386888
02062,Norfolk County,MA,NA,NA,16.80517082179132
02067,Norfolk County,MA,NA,36.21825023518344,NA
02072,Norfolk County,MA,NA,6.208842897460019,NA
02081,Norfolk County,MA,NA,NA,36.749769159741454
02115,Suffolk County,MA,NA,2.916274694261524,NA
02118,Suffolk County,MA,0,NA,NA
02119,Suffolk County,MA,NA,NA,1.9390581717451523
02121,Suffolk County,MA,NA,4.327375352775165,NA
02131,Suffolk County,MA,2.0460358056265986,NA,NA
02132,Suffolk County,MA,NA,1.5051740357478833,NA
02138,Middlesex County,MA,16.879795396419436,NA,67.03601108033241
02140,Middlesex County,MA,NA,NA,23.63804247460757
02143,Middlesex County,MA,8.439897698209718,NA,NA
02145,Middlesex County,MA,NA,NA,8.21791320406279
02148,Middlesex County,MA,NA,0.09407337723424271,NA
02149,Middlesex County,MA,NA,0.8466603951081844,0.9233610341643583
02150,Suffolk County,MA,NA,1.03480714957667,NA
02151,Suffolk County,MA,2.3017902813299234,0,0
02169,Norfolk County,MA,NA,0.28222013170272814,37.765466297322256
02188,Norfolk County,MA,NA,36.50047036688618,NA
02191,Norfolk County,MA,NA,NA,92.33610341643582
02301,Plymouth County,MA,0.7672634271099744,NA,NA
02324,Plymouth County,MA,NA,59.17215428033866,NA
02346,Plymouth County,MA,NA,9.877704609595485,NA
02360,Plymouth County,MA,NA,NA,10.987996306555864
02364,Plymouth County,MA,NA,NA,80.97876269621422
02370,Plymouth County,MA,19.18158567774936,NA,NA
02445,Norfolk County,MA,NA,NA,28.162511542012926
02453,Middlesex County,MA,NA,12.323612417685794,NA
02458,Middlesex County,MA,NA,NA,43.49030470914128
02466,Middlesex County,MA,NA,93.32079021636876,NA
02467,Norfolk County,MA,49.87212276214834,64.53433678269049,NA
02478,Middlesex County,MA,NA,NA,36.19575253924284
02481,Norfolk County,MA,63.68286445012787,51.36406396989652,NA
02540,Barnstable County,MA,NA,35.37158984007526,NA
02568,Dukes County,MA,NA,NA,77.37765466297323
02571,Plymouth County,MA,NA,36.40639698965193,69.62142197599262
02639,Barnstable County,MA,NA,NA,91.59741458910435
02660,Barnstable County,MA,NA,NA,64.81994459833795
02664,Barnstable County,MA,NA,34.24270931326435,NA
02726,Bristol County,MA,32.992327365728904,NA,NA
02760,Bristol County,MA,NA,NA,49.39981532779317
48021,Macomb County,MI,NA,72.43650047036688,NA
48026,Macomb County,MI,NA,40.07525870178739,NA
48035,Macomb County,MI,NA,NA,7.29455216989843
48043,Macomb County,MI,NA,54.468485418626535,NA
48066,Macomb County,MI,22.506393861892583,NA,NA
48080,Macomb County,MI,NA,NA,61.31117266851339
48088,Macomb County,MI,81.07416879795396,NA,NA
48101,Wayne County,MI,NA,26.246472248353715,NA
48111,Wayne County,MI,NA,52.681091251175914,NA
48124,Wayne County,MI,NA,20.602069614299154,35.8264081255771
48126,Wayne County,MI,62.65984654731458,NA,NA
48146,Wayne County,MI,11.76470588235294,69.33207902163687,NA
48154,Wayne County,MI,28.388746803069054,NA,3.8781163434903045
48161,Monroe County,MI,NA,NA,35.91874422899354
48167,Oakland County,MI,NA,NA,11.911357340720222
48169,Livingston County,MI,49.61636828644501,NA,NA
48176,Washtenaw County,MI,43.73401534526854,NA,NA
48187,Wayne County,MI,NA,NA,5.8171745152354575
48197,Washtenaw County,MI,3.8363171355498724,NA,NA
48205,Wayne County,MI,6.649616368286446,NA,NA
48208,Wayne County,MI,61.892583120204606,NA,NA
48212,Wayne County,MI,NA,44.402634054562554,NA
48213,Wayne County,MI,NA,NA,50.78485687903971
48225,Wayne County,MI,NA,64.25211665098777,NA
48228,Wayne County,MI,NA,79.86829727187205,NA
48235,Wayne County,MI,NA,2.539981185324553,NA
48236,Wayne County,MI,NA,66.5098777046096,NA
48238,Wayne County,MI,NA,NA,30.56325023084026
48240,Wayne County,MI,NA,NA,27.60849492151431
48304,Oakland County,MI,NA,NA,25.115420129270543
48310,Macomb County,MI,NA,NA,53.92428439519852
48329,Oakland County,MI,NA,NA,23.915050784856877
48348,Oakland County,MI,NA,43.36782690498589,97.32225300092337
48357,Oakland County,MI,NA,71.11947318908749,NA
48371,Oakland County,MI,NA,45.155221072436504,NA
48377,Oakland County,MI,71.61125319693095,NA,NA
48446,Lapeer County,MI,NA,59.45437441204139,NA
48450,Sanilac County,MI,NA,NA,83.10249307479224
48455,Lapeer County,MI,NA,73.00094073377235,NA
48463,Genesee County,MI,NA,NA,99.35364727608494
48604,Saginaw County,MI,NA,50.79962370649106,NA
48616,Saginaw County,MI,NA,NA,65.09695290858726
48622,Clare County,MI,NA,77.61053621825023,NA
48623,Saginaw County,MI,NA,NA,75.16158818097877
48638,Saginaw County,MI,86.95652173913044,NA,NA
48650,Bay County,MI,NA,91.81561618062088,NA
48723,Tuscola County,MI,NA,NA,40.7202216066482
48739,Iosco County,MI,NA,NA,89.01200369344414
48744,Tuscola County,MI,NA,NA,90.30470914127424
48809,Ionia County,MI,72.37851662404093,NA,83.471837488458
48820,Clinton County,MI,NA,45.90780809031044,50.96952908587258
48823,Ingham County,MI,NA,NA,36.93444136657433
48836,Livingston County,MI,NA,NA,68.97506925207756
48837,Eaton County,MI,NA,67.92097836312324,87.99630655586334
48838,Montcalm County,MI,35.294117647058826,27.18720602069614,NA
48842,Ingham County,MI,NA,NA,84.94921514312097
48843,Livingston County,MI,17.135549872122763,NA,NA
48846,Ionia County,MI,NA,NA,69.89843028624192
48848,Shiawassee County,MI,NA,76.8579492003763,NA
48854,Ingham County,MI,52.17391304347826,55.22107243650047,NA
48858,Isabella County,MI,NA,4.891815616180621,7.386888273314867
48875,Ionia County,MI,84.14322250639387,NA,59.74145891043398
48883,Isabella County,MI,73.40153452685422,NA,NA
48888,Montcalm County,MI,95.65217391304348,NA,NA
48910,Ingham County,MI,NA,11.382878645343368,32.31763619575254
48911,Ingham County,MI,9.718670076726342,12.605832549388523,63.43490304709142
48917,Eaton County,MI,13.043478260869565,6.208842897460019,41.64358264081256
49014,Calhoun County,MI,NA,NA,26.31578947368421
49038,Berrien County,MI,NA,NA,58.72576177285319
49045,Van Buren County,MI,NA,84.85418626528693,NA
49085,Berrien County,MI,NA,41.580432737535276,NA
49087,Kalamazoo County,MI,NA,NA,90.48938134810712
49221,Lenawee County,MI,NA,3.762935089369708,NA
49240,Jackson County,MI,NA,57.47883349012229,NA
49250,Hillsdale County,MI,NA,78.73941674506115,NA
49307,Mecosta County,MI,NA,59.54844778927564,NA
49315,Kent County,MI,NA,34.52492944496707,NA
49321,Kent County,MI,NA,58.04327375352775,NA
49343,Kent County,MI,NA,NA,93.90581717451524
49346,Mecosta County,MI,NA,NA,92.98245614035088
49408,Allegan County,MI,NA,60.48918156161807,NA
49412,Newaygo County,MI,NA,56.820319849482594,NA
49417,Ottawa County,MI,NA,4.609595484477893,14.035087719298245
49442,Muskegon County,MI,5.626598465473146,3.1984948259642523,NA
49444,Muskegon County,MI,NA,56.444026340545626,NA
49456,Ottawa County,MI,NA,NA,19.390581717451525
49460,Ottawa County,MI,NA,81.9379115710254,NA
49503,Kent County,MI,14.322250639386189,NA,NA
49504,Kent County,MI,NA,NA,36.84210526315789
49525,Kent County,MI,NA,20.978363123236125,NA
49534,Kent County,MI,NA,77.516462841016,NA
49546,Kent County,MI,NA,NA,44.87534626038781
49631,Osceola County,MI,NA,65.38099717779869,NA
49686,Grand Traverse County,MI,NA,NA,51.15420129270545
49721,Cheboygan County,MI,NA,NA,36.38042474607572
49802,Dickinson County,MI,NA,NA,69.71375807940905
49855,Marquette County,MI,NA,NA,22.530009233610343
49931,Houghton County,MI,NA,NA,71.19113573407202
49938,Gogebic County,MI,NA,48.07149576669802,NA
55008,Isanti County,MN,78.51662404092072,NA,NA
55025,Washington County,MN,NA,62.84101599247413,NA
55033,Dakota County,MN,34.271099744245525,NA,NA
55075,Dakota County,MN,NA,NA,72.94552169898431
55082,Washington County,MN,NA,79.02163687676388,NA
55104,Ramsey County,MN,NA,38.287864534336784,NA
55112,Ramsey County,MN,NA,NA,17.266851338873497
55113,Ramsey County,MN,NA,44.02634054562559,21.97599261311173
55116,Ramsey County,MN,NA,NA,47.553093259464454
55118,Dakota County,MN,NA,40.63969896519285,NA
55119,Ramsey County,MN,NA,29.44496707431797,NA
55122,Dakota County,MN,NA,NA,86.98060941828255
55128,Washington County,MN,NA,54.562558795860774,NA
55129,Washington County,MN,NA,88.80526810912511,NA
55316,Hennepin County,MN,NA,NA,87.99630655586334
55330,Sherburne County,MN,NA,NA,48.199445983379505
55337,Dakota County,MN,NA,NA,28.07017543859649
55403,Hennepin County,MN,NA,33.019755409219194,NA
55412,Hennepin County,MN,12.787723785166241,NA,NA
55420,Hennepin County,MN,76.47058823529412,NA,NA
55428,Hennepin County,MN,NA,30.197554092191908,NA
55444,Hennepin County,MN,NA,72.71872060206962,NA
55449,Anoka County,MN,54.21994884910486,NA,NA
55720,Carlton County,MN,NA,76.76387582314204,38.96583564173592
55734,St. Louis County,MN,NA,77.23424270931326,NA
55744,Itasca County,MN,NA,NA,29.45521698984303
55792,St. Louis County,MN,NA,NA,77.46999076638966
55902,Olmsted County,MN,NA,60.583254938852306,NA
55912,Mower County,MN,NA,2.8222013170272815,NA
56101,Cottonwood County,MN,NA,74.03574788334902,NA
56187,Nobles County,MN,NA,36.97083725305739,48.291782086795934
56273,Kandiyohi County,MN,NA,NA,85.3185595567867
56283,Redwood County,MN,NA,84.19567262464722,NA
56304,Sherburne County,MN,NA,83.34901222953904,NA
56308,Douglas County,MN,NA,10.253998118532454,NA
56345,Morrison County,MN,NA,36.030103480714956,13.388734995383194
56377,Stearns County,MN,NA,89.6519285042333,NA
56378,Stearns County,MN,NA,NA,60.94182825484764
56379,Benton County,MN,NA,NA,85.22622345337027
56387,Stearns County,MN,NA,NA,78.76269621421976
56501,Becker County,MN,NA,22.95390404515522,NA
56537,Otter Tail County,MN,NA,7.525870178739416,NA
38614,Coahoma County,MS,NA,NA,72.20683287165282
38618,Tate County,MS,NA,69.04985888993414,NA
38632,DeSoto County,MS,53.452685421994886,NA,NA
38654,DeSoto County,MS,NA,18.532455315145814,NA
39110,Madison County,MS,NA,60.11288805268109,NA
39301,Lauderdale County,MS,NA,45.06114769520226,NA
39426,Pearl River County,MS,NA,38.66415804327376,NA
39443,Jones County,MS,NA,NA,47.553093259464454
39452,George County,MS,NA,NA,31.39427516158818
39482,Lamar County,MS,NA,NA,98.24561403508771
39532,Harrison County,MS,NA,16.27469426152399,NA
39563,Jackson County,MS,NA,51.64628410159925,NA
39574,Harrison County,MS,NA,NA,94.92151431209604
39629,Lincoln County,MS,NA,NA,99.07663896583564
63010,Jefferson County,MO,NA,61.52398871119473,18.374884579870727
63011,St. Louis County,MO,NA,NA,46.99907663896584
63028,Jefferson County,MO,NA,19.84948259642521,43.12096029547553
63031,St. Louis County,MO,NA,NA,4.616805170821792
63033,St. Louis County,MO,NA,11.665098777046095,NA
63034,St. Louis County,MO,NA,50.89369708372531,NA
63050,Jefferson County,MO,93.35038363171356,70.17873941674506,NA
63051,Jefferson County,MO,NA,NA,94.73684210526315
63074,St. Louis County,MO,NA,50.51740357478833,NA
63080,Franklin County,MO,47.31457800511509,NA,47.73776546629732
63090,Franklin County,MO,NA,NA,42.93628808864266
63114,St. Louis County,MO,NA,NA,37.48845798707294
63125,St. Louis County,MO,NA,NA,12.834718374884579
63128,St. Louis County,MO,93.09462915601023,NA,32.686980609418285
63136,St. Louis County,MO,NA,8.090310442144872,30.28624192059095
63146,St. Louis County,MO,NA,NA,4.43213296398892
63147,St. Louis city,MO,NA,89.36970837253058,NA
63303,St. Charles County,MO,NA,NA,5.355493998153278
63367,St. Charles County,MO,NA,NA,21.421975992613113
63379,Lincoln County,MO,NA,25.96425211665099,NA
63601,St. Francois County,MO,NA,NA,67.86703601108033
63628,St. Francois County,MO,NA,89.84007525870179,NA
63640,St. Francois County,MO,NA,NA,34.71837488457987
63935,Ripley County,MO,NA,NA,72.48384118190212
64030,Jackson County,MO,21.73913043478261,NA,NA
64050,Jackson County,MO,NA,14.769520225776105,NA
64057,Jackson County,MO,NA,NA,51.8005540166205
64060,Clay County,MO,NA,63.969896519285044,NA
64080,Cass County,MO,NA,75.63499529633114,NA
64082,Jackson County,MO,NA,76.38758231420508,NA
64083,Cass County,MO,NA,37.25305738476011,NA
64118,Clay County,MO,NA,33.584195672624645,NA
64128,Jackson County,MO,NA,27.0931326434619,NA
64130,Jackson County,MO,NA,17.30950141110066,NA
64151,Platte County,MO,NA,14.675446848541862,NA
64429,Clinton County,MO,NA,NA,65.74330563250231
64468,Nodaway County,MO,90.7928388746803,NA,NA
64469,DeKalb County,MO,100,NA,NA
64485,Andrew County,MO,70.33248081841433,NA,NA
64501,Buchanan County,MO,NA,95.76669802445907,NA
64503,Buchanan County,MO,NA,30.103480714957666,NA
64505,Buchanan County,MO,35.54987212276215,NA,NA
64506,Buchanan County,MO,NA,31.890874882408276,14.40443213296399
64683,Grundy County,MO,NA,60.395108184383815,NA
64730,Bates County,MO,NA,NA,55.124653739612185
64744,Cedar County,MO,97.44245524296676,NA,NA
64801,Jasper County,MO,NA,47.22483537158984,48.38411819021237
64836,Jasper County,MO,NA,24.741298212605834,NA
64870,Jasper County,MO,NA,NA,71.09879963065559
65020,Camden County,MO,NA,NA,92.5207756232687
65026,Miller County,MO,NA,73.84760112888053,NA
65203,Boone County,MO,NA,NA,3.508771929824561
65401,Phelps County,MO,NA,NA,27.516158818097875
65459,Pulaski County,MO,NA,89.18156161806209,NA
65559,Phelps County,MO,NA,79.39793038570085,NA
65613,Polk County,MO,NA,33.772342427093136,NA
65648,Greene County,MO,NA,NA,93.90581717451524
65721,Christian County,MO,61.125319693094625,62.18250235183444,NA
65737,Stone County,MO,NA,61.33584195672624,NA
65802,Greene County,MO,NA,16.55691439322672,NA
65810,Greene County,MO,NA,NA,62.41920590951062
59047,Park County,MT,82.86445012787725,NA,95.38319482917821
59068,Carbon County,MT,NA,NA,95.84487534626038
59230,Valley County,MT,NA,NA,77.28531855955679
59457,Fergus County,MT,NA,81.74976481655692,NA
59644,Broadwater County,MT,NA,NA,96.58356417359187
59901,Flathead County,MT,70.58823529411765,18.344308560677327,25.577100646352726
59912,Flathead County,MT,NA,NA,84.57987072945522
59923,Lincoln County,MT,98.72122762148338,98.49482596425212,98.9843028624192
59935,Lincoln County,MT,99.74424552429667,99.90592662276576,96.30655586334257
59937,Flathead County,MT,NA,70.64910630291628,NA
68005,Sarpy County,NE,70.076726342711,NA,44.41366574330563
68008,Washington County,NE,NA,62.5587958607714,NA
68106,Douglas County,NE,NA,NA,50.60018467220684
68107,Douglas County,NE,54.47570332480819,NA,NA
68111,Douglas County,NE,NA,32.455315145813735,NA
68112,Douglas County,NE,NA,NA,91.13573407202216
68114,Douglas County,NE,NA,NA,79.96306555863343
68127,Douglas County,NE,73.65728900255755,NA,NA
68132,Douglas County,NE,NA,99.15333960489181,NA
68133,Sarpy County,NE,NA,98.02445907808091,NA
68134,Douglas County,NE,NA,NA,54.201292705447834
68135,Douglas County,NE,NA,NA,96.21421975992614
68136,Sarpy County,NE,NA,96.98965192850423,NA
68137,Douglas County,NE,NA,46.284101599247414,NA
68147,Sarpy County,NE,NA,99.52963311382878,NA
68154,Douglas County,NE,NA,NA,54.29362880886427
68164,Douglas County,NE,NA,69.1439322671684,70.3601108033241
68504,Lancaster County,NE,NA,92.2859830667921,NA
69001,Red Willow County,NE,NA,NA,90.39704524469067
69101,Lincoln County,NE,NA,20.696142991533396,NA
89122,Clark County,NV,NA,NA,46.445060018467224
89123,Clark County,NV,55.754475703324815,NA,NA
89134,Clark County,NV,NA,NA,12.280701754385964
89135,Clark County,NV,NA,NA,56.14035087719298
89144,Clark County,NV,95.14066496163683,NA,NA
89178,Clark County,NV,NA,NA,98.52262234533703
89403,Lyon County,NV,NA,37.158984007525866,NA
89408,Lyon County,NV,NA,34.430856067732826,63.89658356417359
89431,Washoe County,NV,25.575447570332482,NA,62.23453370267775
89433,Washoe County,NV,NA,NA,75.34626038781164
89434,Washoe County,NV,NA,32.267168391345244,35.549399815327796
89436,Washoe County,NV,NA,9.971777986829727,78.39335180055402
89445,Humboldt County,NV,NA,NA,95.10618651892891
89503,Washoe County,NV,NA,NA,68.23638042474607
89506,Washoe County,NV,NA,27.469426152398874,NA
89511,Washoe County,NV,NA,NA,76.269621421976
89512,Washoe County,NV,48.84910485933504,NA,NA
89521,Washoe County,NV,NA,29.727187206020695,NA
89801,Elko County,NV,NA,97.55409219190969,NA
03038,Rockingham County,NH,17.902813299232736,NA,NA
03054,Hillsborough County,NH,NA,NA,42.197599261311176
03062,Hillsborough County,NH,NA,6.3969896519285045,NA
03234,Merrimack County,NH,NA,98.40075258701788,NA
03246,Belknap County,NH,NA,NA,18.09787626962142
03275,Merrimack County,NH,94.11764705882352,NA,NA
03301,Merrimack County,NH,NA,10.06585136406397,NA
03431,Cheshire County,NH,NA,NA,31.763619575253927
03452,Cheshire County,NH,NA,NA,69.71375807940905
03827,Rockingham County,NH,NA,97.93038570084666,NA
03835,Strafford County,NH,NA,NA,86.98060941828255
03842,Rockingham County,NH,76.72634271099744,25.870178739416744,NA
03885,Rockingham County,NH,92.8388746803069,NA,95.75253924284395
07010,Bergen County,NJ,NA,NA,44.967682363804244
07013,Passaic County,NJ,NA,33.20790216368768,NA
07014,Passaic County,NJ,89.51406649616368,NA,NA
07016,Union County,NJ,NA,41.76857949200377,NA
07033,Union County,NJ,NA,NA,93.35180055401662
07044,Essex County,NJ,NA,NA,80.24007386888273
07047,Hudson County,NJ,NA,1.2229539040451554,NA
07103,Essex County,NJ,NA,1.317027281279398,NA
07202,Union County,NJ,NA,7.149576669802446,NA
07306,Hudson County,NJ,8.184143222506394,NA,NA
07307,Hudson County,NJ,NA,NA,32.2253000923361
07424,Passaic County,NJ,41.94373401534527,NA,NA
07452,Bergen County,NJ,NA,NA,97.1375807940905
07502,Passaic County,NJ,NA,NA,92.797783933518
07503,Passaic County,NJ,NA,60.20696142991533,NA
07522,Passaic County,NJ,NA,28.12793979303857,NA
07601,Bergen County,NJ,9.207161125319693,NA,50.046168051708214
07607,Bergen County,NJ,NA,NA,83.28716528162512
07646,Bergen County,NJ,NA,66.22765757290688,87.34995383194828
07652,Bergen County,NJ,53.70843989769821,21.730950141110068,NA
07663,Bergen County,NJ,67.77493606138107,NA,NA
07666,Bergen County,NJ,NA,NA,69.25207756232687
07675,Bergen County,NJ,NA,46.94261523988711,NA
07712,Monmouth County,NJ,5.115089514066496,NA,NA
07731,Monmouth County,NJ,NA,NA,68.97506925207756
07732,Monmouth County,NJ,96.16368286445012,NA,NA
07755,Monmouth County,NJ,NA,NA,88.64265927977839
07801,Morris County,NJ,NA,NA,39.150507848568786
07825,Warren County,NJ,NA,NA,96.02954755309327
07930,Morris County,NJ,NA,87.6763875823142,NA
08003,Camden County,NJ,NA,38.94637817497648,18.282548476454295
08021,Camden County,NJ,0.5115089514066496,NA,NA
08070,Salem County,NJ,NA,82.5964252116651,NA
08079,Salem County,NJ,46.03580562659847,NA,NA
08096,Gloucester County,NJ,26.598465473145783,NA,NA
08108,Camden County,NJ,68.79795396419436,NA,NA
08203,Atlantic County,NJ,NA,65.1928504233302,NA
08502,Somerset County,NJ,NA,98.6829727187206,NA
08520,Mercer County,NJ,NA,NA,55.67867036011081
08534,Mercer County,NJ,NA,NA,83.471837488458
08610,Mercer County,NJ,NA,46.37817497648166,NA
08723,Ocean County,NJ,NA,18.814675446848543,NA
08753,Ocean County,NJ,NA,NA,9.418282548476455
08755,Ocean County,NJ,NA,NA,7.848568790397045
08757,Ocean County,NJ,NA,3.0103480714957667,4.247460757156047
08759,Ocean County,NJ,NA,12.041392285983067,0.7386888273314866
08822,Hunterdon County,NJ,NA,31.420507996237063,NA
08830,Middlesex County,NJ,NA,64.81655691439323,NA
08854,Middlesex County,NJ,NA,NA,25.48476454293629
08869,Somerset County,NJ,79.53964194373401,NA,NA
87124,Sandoval County,NM,NA,NA,9.510618651892889
87505,Santa Fe County,NM,NA,NA,9.510618651892889
87507,Santa Fe County,NM,NA,17.77986829727187,NA
87544,Los Alamos County,NM,NA,NA,88.82733148661126
87701,San Miguel County,NM,NA,48.16556914393227,NA
88001,Doa Ana County,NM,29.923273657289002,NA,NA
88081,Otero County,NM,NA,85.70084666039511,NA
88130,Roosevelt County,NM,NA,39.13452492944497,NA
88240,Lea County,NM,NA,NA,27.0544783010157
10037,New York County,NY,41.687979539641944,NA,NA
10075,New York County,NY,NA,NA,16.251154201292707
10312,Richmond County,NY,46.29156010230179,NA,NA
10451,Bronx County,NY,4.3478260869565215,NA,NA
10453,Bronx County,NY,1.0230179028132993,NA,NA
10457,Bronx County,NY,NA,NA,9.04893813481071
10458,Bronx County,NY,NA,0.37629350893697083,NA
10460,Bronx County,NY,NA,NA,63.342566943674974
10461,Bronx County,NY,NA,15.428033866415806,22.62234533702678
10462,Bronx County,NY,NA,NA,4.893813481071098
10466,Bronx County,NY,NA,1.6933207902163687,NA
10467,Bronx County,NY,NA,0.4703668861712135,NA
10468,Bronx County,NY,NA,1.7873941674506115,NA
10473,Bronx County,NY,NA,4.703668861712136,NA
10512,Putnam County,NY,NA,NA,62.97322253000923
10520,Westchester County,NY,95.39641943734016,78.6453433678269,NA
10543,Westchester County,NY,NA,76.29350893697084,NA
10552,Westchester County,NY,NA,NA,69.3444136657433
10566,Westchester County,NY,NA,NA,64.54293628808865
10573,Westchester County,NY,NA,NA,29.6398891966759
10579,Putnam County,NY,NA,NA,98.79963065558634
10598,Westchester County,NY,NA,NA,33.148661126500464
10952,Rockland County,NY,NA,NA,62.78855032317636
10990,Orange County,NY,NA,NA,40.53554939981533
10992,Orange County,NY,NA,93.41486359360302,NA
11040,Nassau County,NY,NA,68.29727187206021,NA
11204,Kings County,NY,NA,29.82126058325494,NA
11209,Kings County,NY,NA,NA,12.18836565096953
11214,Kings County,NY,NA,9.501411100658514,5.447830101569714
11219,Kings County,NY,NA,NA,11.634349030470915
11222,Kings County,NY,NA,63.2173095014111,NA
11223,Kings County,NY,NA,NA,30.378578024007385
11224,Kings County,NY,NA,NA,0.8310249307479225
11228,Kings County,NY,NA,41.67450611476952,NA
11233,Kings County,NY,2.813299232736573,NA,NA
11234,Kings County,NY,NA,NA,15.420129270544782
11237,Kings County,NY,NA,NA,50.877192982456144
11238,Kings County,NY,NA,NA,37.85780240073869
11360,Queens County,NY,NA,NA,44.13665743305633
11364,Queens County,NY,NA,71.87206020696144,NA
11375,Queens County,NY,NA,26.904985888993416,NA
11385,Queens County,NY,NA,8.842897460018815,NA
11412,Queens County,NY,NA,44.12041392285983,NA
11422,Queens County,NY,NA,58.7958607714017,NA
11427,Queens County,NY,80.56265984654732,NA,NA
11510,Nassau County,NY,NA,39.604891815616185,NA
11710,Nassau County,NY,NA,NA,70.3601108033241
11717,Suffolk County,NY,23.017902813299234,46.19002822201317,NA
11740,Suffolk County,NY,NA,93.88523047977422,NA
11758,Nassau County,NY,NA,70.83725305738476,NA
11788,Suffolk County,NY,NA,78.17497648165569,NA
11791,Nassau County,NY,NA,NA,59.556786703601105
11801,Nassau County,NY,NA,49.76481655691439,NA
11901,Suffolk County,NY,52.94117647058824,NA,NA
11946,Suffolk County,NY,NA,NA,58.72576177285319
11953,Suffolk County,NY,NA,NA,82.17913204062789
11963,Suffolk County,NY,NA,96.04891815616182,NA
12078,Fulton County,NY,NA,NA,8.40258541089566
12203,Albany County,NY,NA,NA,34.81071098799631
12570,Dutchess County,NY,NA,NA,99.445983379501385
12572,Dutchess County,NY,96.9309462915601,98.58889934148635,NA
12580,Dutchess County,NY,99.23273657289002,NA,NA
12953,Franklin County,NY,NA,54.09219190968956,NA
13088,Onondaga County,NY,NA,45.34336782690499,NA
13126,Oswego County,NY,NA,4.703668861712136,NA
13152,Onondaga County,NY,NA,NA,80.1477377654663
13212,Onondaga County,NY,NA,NA,57.340720221606645
13403,Oneida County,NY,NA,NA,93.44413665743305
13440,Oneida County,NY,3.324808184143223,NA,NA
13612,Jefferson County,NY,99.48849104859335,NA,NA
13746,Broome County,NY,NA,98.11853245531515,NA
13856,Delaware County,NY,NA,34.05456255879586,NA
14006,Erie County,NY,NA,NA,90.12003693444137
14033,Erie County,NY,NA,99.24741298212606,NA
14052,Erie County,NY,NA,52.587017873941676,NA
14072,Erie County,NY,NA,NA,71.6528162511542
14092,Niagara County,NY,NA,NA,45.42936288088642
14108,Niagara County,NY,62.14833759590793,NA,NA
14120,Niagara County,NY,NA,NA,21.421975992613113
14211,Erie County,NY,NA,48.824082784571964,NA
14218,Erie County,NY,NA,74.8824082784572,NA
14225,Erie County,NY,NA,14.205079962370649,NA
14304,Niagara County,NY,NA,19.661335841956724,13.665743305632502
14305,Niagara County,NY,NA,NA,52.26223453370268
14432,Ontario County,NY,39.89769820971867,NA,NA
14513,Wayne County,NY,NA,2.7281279397930387,NA
14519,Wayne County,NY,NA,NA,79.31671283471837
14610,Monroe County,NY,NA,21.636876763875822,NA
14617,Monroe County,NY,NA,3.1044214487300095,NA
14892,Tioga County,NY,NA,54.93885230479775,NA
27006,Davie County,NC,NA,22.295390404515523,NA
27040,Forsyth County,NC,NA,NA,57.61772853185596
27103,Forsyth County,NC,NA,NA,0.554016620498615
27215,Alamance County,NC,40.40920716112532,NA,NA
27265,Guilford County,NC,NA,NA,20.77562326869806
27278,Orange County,NC,NA,NA,16.343490304709142
27295,Davidson County,NC,NA,2.634054562558796,NA
27317,Randolph County,NC,NA,70.74317968015052,NA
27360,Davidson County,NC,6.138107416879795,NA,NA
27405,Guilford County,NC,NA,43.65004703668862,NA
27406,Guilford County,NC,NA,26.434619002822203,NA
27511,Wake County,NC,NA,83.25493885230479,NA
27513,Wake County,NC,NA,52.02257761053622,NA
27517,Orange County,NC,58.05626598465473,NA,NA
27519,Wake County,NC,NA,NA,47.27608494921514
27520,Johnston County,NC,36.0613810741688,NA,NA
27522,Granville County,NC,NA,NA,94.45983379501385
27524,Johnston County,NC,NA,NA,73.77654662973222
27527,Johnston County,NC,NA,95.67262464722484,65.92797783933518
27529,Wake County,NC,NA,13.828786453433677,NA
27537,Vance County,NC,NA,22.765757290686736,NA
27549,Franklin County,NC,NA,66.69802445907807,NA
27557,Nash County,NC,NA,91.90968955785512,NA
27576,Johnston County,NC,NA,84.5719661335842,NA
27577,Johnston County,NC,NA,29.162746942615243,59.74145891043398
27587,Wake County,NC,NA,NA,50.69252077562327
27596,Franklin County,NC,NA,NA,93.62880886426593
27603,Wake County,NC,NA,NA,76.82363804247461
27610,Wake County,NC,NA,4.421448730009407,62.51154201292706
27612,Wake County,NC,NA,36.68861712135465,NA
27613,Wake County,NC,51.91815856777494,33.11382878645344,NA
27615,Wake County,NC,NA,11.47695202257761,NA
27712,Durham County,NC,NA,NA,36.011080332409975
27713,Durham County,NC,NA,NA,16.62049861495845
27801,Edgecombe County,NC,NA,55.691439322671684,NA
27834,Pitt County,NC,NA,13.076199435559738,NA
27909,Pasquotank County,NC,NA,10.348071495766698,17.72853185595568
28092,Lincoln County,NC,NA,11.194731890874882,39.79686057248384
28110,Union County,NC,NA,NA,14.312096029547552
28112,Union County,NC,NA,32.92568203198495,NA
28114,Rutherford County,NC,NA,NA,94.8291782086796
28117,Iredell County,NC,NA,28.692380056444026,NA
28146,Rowan County,NC,NA,42.89746001881468,NA
28203,Mecklenburg County,NC,NA,NA,95.47553093259464
28210,Mecklenburg County,NC,56.77749360613811,NA,NA
28211,Mecklenburg County,NC,NA,NA,37.396121883656505
28226,Mecklenburg County,NC,NA,NA,31.948291782086795
28277,Mecklenburg County,NC,NA,NA,27.331486611265003
28306,Bladen County,NC,NA,NA,38.504155124653735
28311,Cumberland County,NC,NA,40.26340545625588,NA
28326,Harnett County,NC,NA,63.78174976481655,NA
28328,Sampson County,NC,NA,18.814675446848543,NA
28334,Sampson County,NC,NA,NA,38.688827331486614
28405,New Hanover County,NC,38.61892583120204,NA,NA
28431,Columbus County,NC,81.32992327365729,NA,NA
28465,Brunswick County,NC,NA,55.87958607714016,NA
28504,Lenoir County,NC,NA,NA,38.134810710988
28562,Craven County,NC,NA,NA,46.075715604801474
28601,Catawba County,NC,18.925831202046037,NA,NA
28607,Watauga County,NC,NA,35.27751646284102,NA
28612,Burke County,NC,NA,55.40921919096896,NA
28638,Caldwell County,NC,57.54475703324808,NA,NA
28712,Transylvania County,NC,NA,NA,7.940904893813482
28713,Swain County,NC,NA,NA,90.02770083102493
28714,Yancey County,NC,NA,NA,60.2954755309326
28730,Buncombe County,NC,92.07161125319693,NA,NA
28734,Macon County,NC,NA,71.30761994355598,23.73037857802401
28746,Rutherford County,NC,NA,98.87111947318908,NA
28752,McDowell County,NC,NA,66.32173095014112,NA
28761,McDowell County,NC,NA,95.10818438381938,NA
28762,McDowell County,NC,NA,NA,83.0101569713758
28777,Mitchell County,NC,86.44501278772378,NA,NA
28787,Buncombe County,NC,NA,NA,70.82179132040628
28790,Henderson County,NC,NA,100,NA
28791,Henderson County,NC,NA,NA,13.850415512465375
28792,Henderson County,NC,NA,NA,0.18467220683287164
28803,Buncombe County,NC,53.96419437340153,NA,NA
28804,Buncombe County,NC,NA,74.60018814675446,NA
58078,Cass County,ND,NA,12.229539040451552,NA
58103,Cass County,ND,NA,2.1636876763875823,NA
58104,Cass County,ND,34.78260869565217,NA,1.8467220683287167
58201,Grand Forks County,ND,NA,4.985888993414863,NA
58601,Stark County,ND,46.547314578005114,NA,NA
58703,Ward County,ND,45.52429667519181,NA,NA
43017,Franklin County,OH,NA,NA,32.87165281625116
43068,Franklin County,OH,NA,39.69896519285042,NA
43078,Champaign County,OH,38.107416879795394,NA,NA
43081,Franklin County,OH,NA,39.88711194731891,NA
43103,Pickaway County,OH,NA,66.69802445907807,NA
43113,Pickaway County,OH,NA,NA,35.45706371191136
43123,Franklin County,OH,NA,NA,10.61865189289012
43138,Hocking County,OH,NA,NA,32.96398891966759
43140,Madison County,OH,40.92071611253197,NA,NA
43146,Pickaway County,OH,NA,96.89557855126999,NA
43206,Franklin County,OH,16.624040920716112,NA,NA
43207,Franklin County,OH,2.557544757033248,NA,NA
43223,Franklin County,OH,NA,22.10724365004704,NA
43228,Franklin County,OH,NA,10.536218250235184,NA
43229,Franklin County,OH,NA,6.679209783631232,NA
43302,Marion County,OH,NA,NA,2.4007386888273317
43402,Wood County,OH,77.23785166240408,NA,16.98984302862419
43469,Sandusky County,OH,NA,99.71777986829727,NA
43537,Lucas County,OH,NA,45.34336782690499,NA
43551,Wood County,OH,NA,NA,11.72668513388735
43566,Lucas County,OH,NA,NA,80.88642659279779
43609,Lucas County,OH,27.365728900255753,NA,NA
43612,Lucas County,OH,NA,NA,45.24469067405356
43615,Lucas County,OH,NA,3.2925682031984946,NA
43616,Lucas County,OH,NA,9.125117591721544,NA
43623,Lucas County,OH,29.66751918158568,21.82502351834431,NA
43701,Muskingum County,OH,NA,NA,0.6463527239150507
43764,Perry County,OH,75.44757033248082,NA,NA
43906,Belmont County,OH,NA,44.87300094073377,NA
43964,Jefferson County,OH,NA,28.222013170272813,NA
44017,Cuyahoga County,OH,NA,NA,26.500461680517084
44024,Geauga County,OH,NA,NA,13.29639889196676
44026,Geauga County,OH,NA,49.95296331138288,NA
44070,Cuyahoga County,OH,26.08695652173913,NA,NA
44081,Lake County,OH,NA,NA,77.46999076638966
44108,Cuyahoga County,OH,NA,4.13922859830668,NA
44109,Cuyahoga County,OH,NA,12.51175917215428,NA
44116,Cuyahoga County,OH,NA,NA,3.32409972299169
44120,Cuyahoga County,OH,NA,18.438381937911572,NA
44122,Cuyahoga County,OH,NA,3.6688617121354654,3.2317636195752537
44125,Cuyahoga County,OH,NA,NA,6.740535549399815
44128,Cuyahoga County,OH,NA,1.4111006585136407,NA
44129,Cuyahoga County,OH,NA,NA,17.820867959372112
44130,Cuyahoga County,OH,NA,0.940733772342427,4.7091412742382275
44131,Cuyahoga County,OH,80.05115089514067,15.33396048918156,NA
44136,Cuyahoga County,OH,NA,5.9266227657572905,NA
44137,Cuyahoga County,OH,8.695652173913043,NA,NA
44138,Cuyahoga County,OH,NA,20.037629350893695,57.89473684210527
44142,Cuyahoga County,OH,NA,15.992474129821261,16.15881809787627
44203,Summit County,OH,30.179028132992325,6.491063029162747,NA
44212,Medina County,OH,5.3708439897698215,NA,39.981532779316716
44223,Summit County,OH,NA,92.38005644402634,34.62603878116344
44224,Summit County,OH,NA,35.74788334901223,75.16158818097877
44256,Medina County,OH,NA,0.7525870178739417,NA
44278,Summit County,OH,NA,90.12229539040452,88.55032317636196
44281,Medina County,OH,NA,65.75729068673566,NA
44286,Summit County,OH,NA,91.43932267168391,86.42659279778393
44301,Summit County,OH,NA,50.611476952022585,NA
44305,Summit County,OH,NA,34.80714957666981,55.493998153277936
44310,Summit County,OH,NA,86.17121354656632,50.32317636195752
44312,Summit County,OH,NA,7.337723424270931,57.52539242843952
44313,Summit County,OH,NA,50.14111006585137,NA
44314,Summit County,OH,NA,56.726246472248356,90.58171745152355
44320,Summit County,OH,NA,50.987770460959545,56.9713758079409
44321,Summit County,OH,NA,77.89275634995296,71.46814404432132
44333,Summit County,OH,NA,NA,37.02677746999077
44406,Mahoning County,OH,NA,62.276575729068675,21.69898430286242
44444,Trumbull County,OH,NA,83.81937911571026,NA
44446,Trumbull County,OH,NA,14.111006585136407,NA
44460,Columbiana County,OH,NA,6.020696142991533,NA
44471,Mahoning County,OH,NA,NA,86.70360110803324
44511,Mahoning County,OH,26.854219948849106,28.786453433678272,NA
44512,Mahoning County,OH,NA,44.308560677328316,49.307479224376735
44514,Mahoning County,OH,NA,26.71683913452493,NA
44515,Mahoning County,OH,NA,NA,73.13019390581718
44641,Stark County,OH,NA,43.8381937911571,NA
44657,Stark County,OH,NA,60.95954844778928,84.57987072945522
44663,Tuscarawas County,OH,NA,14.863593603010347,64.35826408125577
44691,Wayne County,OH,10.485933503836318,NA,NA
44707,Stark County,OH,65.98465473145781,94.44967074317968,NA
44709,Stark County,OH,NA,44.21448730009408,57.15604801477377
44720,Stark County,OH,NA,NA,12.742382271468145
44805,Ashland County,OH,NA,25.117591721542805,NA
44875,Richland County,OH,NA,NA,45.337026777469994
45014,Butler County,OH,NA,NA,53.37026777469991
45040,Warren County,OH,NA,NA,22.253000923361036
45042,Butler County,OH,NA,33.96048918156162,NA
45044,Butler County,OH,NA,10.818438381937911,NA
45067,Butler County,OH,NA,78.83349012229539,NA
45204,Hamilton County,OH,88.49104859335038,NA,NA
45208,Hamilton County,OH,87.21227621483376,NA,NA
45211,Hamilton County,OH,NA,26.81091251175917,NA
45233,Hamilton County,OH,NA,69.23800564440263,NA
45248,Hamilton County,OH,NA,NA,21.052631578947366
45344,Clark County,OH,NA,NA,65.65096952908587
45356,Miami County,OH,NA,NA,24.469067405355492
45449,Montgomery County,OH,NA,45.62558795860772,NA
45502,Clark County,OH,NA,56.91439322671684,NA
45503,Clark County,OH,NA,NA,9.32594644506002
45619,Lawrence County,OH,NA,93.97930385700846,NA
45623,Gallia County,OH,90.28132992327366,NA,NA
45631,Gallia County,OH,NA,8.27845719661336,NA
45648,Scioto County,OH,NA,16.462841015992474,NA
45669,Lawrence County,OH,22.25063938618926,NA,NA
45680,Lawrence County,OH,NA,NA,35.641735918744224
45694,Scioto County,OH,NA,18.156161806208843,NA
45764,Athens County,OH,NA,NA,91.04339796860572
45806,Allen County,OH,NA,NA,96.76823638042474
45822,Mercer County,OH,NA,NA,19.48291782086796
45882,Mercer County,OH,NA,99.05926622765757,NA
45895,Auglaize County,OH,NA,29.53904045155221,NA
73012,Oklahoma County,OK,NA,NA,55.4016620498615
73020,Oklahoma County,OK,NA,NA,58.264081255771
73034,Oklahoma County,OK,NA,NA,29.362880886426595
73036,Canadian County,OK,43.47826086956522,NA,NA
73044,Logan County,OK,NA,11.947318908748825,41.92059095106187
73065,McClain County,OK,97.69820971867009,NA,NA
73078,Canadian County,OK,NA,97.74223894637818,NA
73106,Oklahoma County,OK,76.21483375959079,NA,NA
73112,Oklahoma County,OK,NA,NA,50.32317636195752
73114,Oklahoma County,OK,NA,77.04609595484479,NA
73120,Oklahoma County,OK,NA,23.98871119473189,NA
73130,Oklahoma County,OK,68.54219948849105,NA,NA
73162,Oklahoma County,OK,NA,NA,52.81625115420129
73701,Garfield County,OK,NA,NA,24.930747922437675
73703,Garfield County,OK,NA,NA,8.310249307479225
74006,Washington County,OK,NA,NA,28.71652816251154
74008,Tulsa County,OK,NA,49.48259642521167,NA
74012,Tulsa County,OK,NA,42.61523988711195,7.571560480147737
74014,Wagoner County,OK,40.153452685421996,21.16650987770461,90.76638965835642
74021,Tulsa County,OK,NA,63.405456255879585,NA
74023,Payne County,OK,NA,54.65663217309501,NA
74029,Washington County,OK,NA,NA,93.8134810710988
74033,Tulsa County,OK,NA,92.47412982126059,NA
74055,Tulsa County,OK,NA,24.36500470366886,NA
74066,Creek County,OK,35.0383631713555,70.55503292568204,NA
74107,Tulsa County,OK,NA,92.66227657572907,NA
74126,Tulsa County,OK,NA,86.45343367826905,NA
74132,Tulsa County,OK,NA,90.31044214487301,NA
74133,Tulsa County,OK,NA,18.0620884289746,40.81255771006463
74134,Tulsa County,OK,NA,NA,77.00831024930747
74135,Tulsa County,OK,83.88746803069054,NA,34.81071098799631
74145,Tulsa County,OK,72.89002557544757,62.65286923800565,NA
74401,Muskogee County,OK,NA,56.34995296331138,NA
74426,McIntosh County,OK,NA,90.78080903104421,NA
74437,Okmulgee County,OK,NA,NA,70.6371191135734
74467,Wagoner County,OK,88.23529411764706,NA,61.95752539242844
74801,Pottawatomie County,OK,NA,NA,39.24284395198522
74864,Lincoln County,OK,NA,NA,72.39150507848568
97007,Washington County,OR,NA,23.61241768579492,NA
97045,Clackamas County,OR,NA,9.313264346190028,14.219759926131118
97103,Clatsop County,OR,59.33503836317136,NA,NA
97124,Washington County,OR,NA,NA,25.94644506001847
97206,Multnomah County,OR,18.414322250639387,19.661335841956724,NA
97229,Washington County,OR,NA,NA,74.60757156048015
97230,Multnomah County,OR,NA,NA,13.48107109879963
97232,Multnomah County,OR,NA,80.80903104421449,NA
97305,Marion County,OR,NA,NA,57.9870729455217
97325,Marion County,OR,NA,92.85042333019756,NA
97355,Linn County,OR,NA,NA,5.724838411819022
97365,Lincoln County,OR,NA,NA,49.67682363804247
97381,Marion County,OR,NA,NA,81.62511542012926
97457,Douglas County,OR,NA,NA,98.61495844875347
97477,Lane County,OR,NA,26.99905926622766,NA
97501,Jackson County,OR,12.27621483375959,NA,27.70083102493075
97526,Josephine County,OR,NA,67.73283160865475,NA
97756,Deschutes County,OR,NA,17.215428033866413,36.10341643582641
97914,Malheur County,OR,NA,NA,46.53739612188366
15037,Allegheny County,PA,NA,NA,89.38134810710989
15044,Allegheny County,PA,NA,NA,20.313942751615883
15063,Washington County,PA,NA,NA,59.0027700831025
15068,Westmoreland County,PA,NA,NA,2.0313942751615883
15146,Allegheny County,PA,NA,NA,26.869806094182824
15210,Allegheny County,PA,NA,NA,47.091412742382275
15221,Allegheny County,PA,NA,NA,15.974145891043397
15226,Allegheny County,PA,NA,NA,36.56509695290859
15235,Allegheny County,PA,NA,NA,6.463527239150507
15236,Allegheny County,PA,NA,NA,9.233610341643583
15367,Washington County,PA,NA,NA,96.58356417359187
15537,Bedford County,PA,NA,61.80620884289746,NA
15801,Clearfield County,PA,11.253196930946292,NA,56.04801477377654
15851,Jefferson County,PA,78.26086956521739,NA,26.59279778393352
15853,Elk County,PA,NA,NA,52.90858725761773
15857,Elk County,PA,NA,7.431796801505174,73.40720221606648
15902,Cambria County,PA,NA,52.39887111947319,NA
16001,Butler County,PA,5.88235294117647,NA,21.144967682363806
16023,Butler County,PA,NA,NA,75.43859649122807
16056,Butler County,PA,97.9539641943734,NA,NA
16142,Lawrence County,PA,NA,NA,68.42105263157895
16146,Mercer County,PA,NA,NA,26.685133887349956
16232,Clarion County,PA,NA,84.10159924741298,NA
16316,Crawford County,PA,NA,68.4854186265287,NA
16503,Erie County,PA,NA,75.35277516462841,NA
16601,Blair County,PA,NA,NA,21.60664819944598
16648,Blair County,PA,NA,NA,46.16805170821791
16801,Centre County,PA,NA,24.929444967074318,NA
17013,Cumberland County,PA,NA,13.640639698965193,NA
17025,Cumberland County,PA,37.34015345268542,NA,NA
17033,Dauphin County,PA,NA,NA,21.329639889196674
17036,Dauphin County,PA,27.10997442455243,NA,NA
17038,Lebanon County,PA,NA,72.15428033866415,NA
17042,Lebanon County,PA,NA,NA,17.91320406278855
17044,Mifflin County,PA,NA,NA,8.86426592797784
17055,Cumberland County,PA,NA,13.828786453433677,5.909510618651892
17057,Dauphin County,PA,NA,NA,40.99722991689751
17109,Dauphin County,PA,NA,82.50235183443085,NA
17225,Franklin County,PA,NA,51.64628410159925,NA
17268,Franklin County,PA,NA,NA,14.773776546629733
17522,Lancaster County,PA,NA,NA,6.3711911357340725
17543,Lancaster County,PA,NA,NA,5.540166204986149
17557,Lancaster County,PA,NA,65.94543744120413,NA
17578,Lancaster County,PA,NA,NA,85.50323176361958
17579,Lancaster County,PA,NA,NA,94.0904893813481
17728,Lycoming County,PA,NA,71.02539981185323,NA
17814,Columbia County,PA,NA,91.34524929444967,NA
17820,Columbia County,PA,NA,NA,98.7072945521699
17821,Montour County,PA,NA,NA,1.662049861495845
18018,Lehigh County,PA,NA,NA,8.125577100646353
18031,Lehigh County,PA,83.12020460358056,NA,NA
18036,Lehigh County,PA,NA,NA,38.227146814404435
18042,Northampton County,PA,NA,3.4807149576669802,NA
18064,Northampton County,PA,NA,NA,73.22253000923361
18066,Lehigh County,PA,NA,80.52681091251176,NA
18080,Lehigh County,PA,NA,78.26904985888994,NA
18088,Northampton County,PA,NA,NA,53.093259464450604
18202,Luzerne County,PA,NA,40.92191909689558,NA
18360,Monroe County,PA,NA,10.630291627469427,NA
18411,Lackawanna County,PA,NA,53.80997177798683,NA
18428,Pike County,PA,NA,NA,51.70821791320406
18431,Wayne County,PA,NA,54.280338664158045,NA
18434,Lackawanna County,PA,NA,98.30667920978364,NA
18444,Lackawanna County,PA,NA,NA,64.72760849492151
18447,Lackawanna County,PA,NA,96.7074317968015,NA
18505,Lackawanna County,PA,45.26854219948849,NA,NA
18508,Lackawanna County,PA,NA,NA,84.0258541089566
18510,Lackawanna County,PA,71.35549872122762,NA,NA
18512,Lackawanna County,PA,69.30946291560103,NA,NA
18640,Luzerne County,PA,NA,NA,20.129270544783008
18702,Luzerne County,PA,10.230179028132993,3.3866415804327374,NA
18940,Bucks County,PA,NA,NA,81.7174515235457
18966,Bucks County,PA,NA,NA,76.45429362880887
18974,Bucks County,PA,59.590792838874684,NA,1.2927054478301014
19003,Montgomery County,PA,73.1457800511509,NA,NA
19018,Delaware County,PA,NA,34.05456255879586,NA
19020,Bucks County,PA,NA,37.4412041392286,11.449676823638043
19023,Delaware County,PA,NA,85.13640639698966,NA
19031,Montgomery County,PA,NA,93.03857008466603,NA
19038,Montgomery County,PA,NA,NA,90.85872576177285
19047,Bucks County,PA,28.13299232736573,NA,NA
19054,Bucks County,PA,NA,NA,95.93721144967682
19057,Bucks County,PA,NA,NA,76.5466297322253
19060,Delaware County,PA,NA,NA,80.97876269621422
19063,Delaware County,PA,NA,NA,9.787626962142197
19067,Bucks County,PA,NA,5.550329256820319,9.97229916897507
19073,Delaware County,PA,NA,31.702728127939793,NA
19081,Delaware County,PA,NA,NA,94.27516158818098
19094,Delaware County,PA,NA,88.24082784571966,NA
19114,Philadelphia County,PA,23.273657289002557,17.68579492003763,19.667590027700832
19118,Philadelphia County,PA,92.32736572890026,NA,NA
19119,Philadelphia County,PA,NA,NA,74.14589104339797
19120,Philadelphia County,PA,NA,30.009407337723427,43.3056325023084
19124,Philadelphia County,PA,12.531969309462914,NA,NA
19132,Philadelphia County,PA,NA,NA,79.77839335180056
19135,Philadelphia County,PA,47.82608695652174,NA,NA
19136,Philadelphia County,PA,15.089514066496163,NA,NA
19138,Philadelphia County,PA,44.75703324808184,NA,NA
19140,Philadelphia County,PA,NA,7.055503292568203,NA
19141,Philadelphia County,PA,10.997442455242968,13.54656632173095,67.68236380424746
19144,Philadelphia County,PA,26.342710997442452,7.61994355597366,NA
19145,Philadelphia County,PA,NA,NA,31.57894736842105
19152,Philadelphia County,PA,NA,NA,10.895660203139428
19320,Chester County,PA,NA,NA,17.543859649122805
19330,Chester County,PA,NA,95.01411100658514,NA
19333,Chester County,PA,NA,99.3414863593603,NA
19348,Chester County,PA,NA,NA,66.20498614958449
19362,Chester County,PA,96.67519181585678,NA,99.81532779316713
19363,Chester County,PA,NA,70.46095954844779,NA
19382,Chester County,PA,NA,6.585136406396989,NA
19390,Chester County,PA,NA,59.07808090310442,91.87442289935365
19401,Montgomery County,PA,NA,57.572906867356544,NA
19403,Montgomery County,PA,52.42966751918159,66.41580432737535,52.35457063711911
19406,Montgomery County,PA,NA,35.08936970837253,82.27146814404432
19422,Montgomery County,PA,NA,NA,81.90212373037858
19426,Montgomery County,PA,NA,27.37535277516463,51.61588180978762
19428,Montgomery County,PA,NA,NA,92.15143120960295
19446,Montgomery County,PA,19.437340153452684,NA,4.986149584487535
19454,Montgomery County,PA,NA,44.68485418626529,NA
19460,Chester County,PA,NA,19.19096895578551,NA
19465,Chester County,PA,NA,64.34619002822201,NA
19468,Montgomery County,PA,42.96675191815857,68.39134524929446,89.10433979686057
19473,Montgomery County,PA,NA,74.12982126058326,NA
19518,Berks County,PA,NA,NA,72.85318559556787
19606,Berks County,PA,NA,3.574788334901223,NA
19607,Berks County,PA,NA,16.839134524929445,NA
02816,Kent County,RI,NA,12.13546566321731,NA
02852,Washington County,RI,NA,NA,33.148661126500464
02860,Providence County,RI,NA,NA,3.139427516158818
02861,Providence County,RI,NA,NA,33.05632502308403
02893,Kent County,RI,NA,19.002822201317027,NA
02906,Providence County,RI,60.35805626598465,NA,NA
02911,Providence County,RI,NA,NA,63.988919667590025
29010,Lee County,SC,NA,81.2793979303857,NA
29020,Kershaw County,SC,NA,31.796801505174038,NA
29072,Lexington County,SC,NA,NA,28.439519852262237
29102,Clarendon County,SC,NA,53.05738476011289,NA
29108,Newberry County,SC,NA,NA,59.0027700831025
29135,Calhoun County,SC,NA,NA,83.93351800554017
29150,Sumter County,SC,39.38618925831202,NA,19.575253924284393
29203,Richland County,SC,NA,NA,33.51800554016621
29360,Laurens County,SC,NA,NA,61.495844875346265
29369,Spartanburg County,SC,NA,62.37064910630291,NA
29405,Charleston County,SC,31.45780051150895,NA,NA
29407,Charleston County,SC,NA,NA,82.08679593721145
29410,Berkeley County,SC,NA,72.62464722483537,69.89843028624192
29412,Charleston County,SC,37.59590792838875,NA,11.72668513388735
29418,Charleston County,SC,NA,86.73565380997178,NA
29420,Dorchester County,SC,NA,NA,87.44228993536473
29449,Charleston County,SC,NA,77.9868297271872,NA
29461,Berkeley County,SC,37.084398976982094,NA,41.735918744229
29464,Charleston County,SC,NA,NA,14.58910433979686
29479,Berkeley County,SC,NA,94.16745061147695,NA
29483,Dorchester County,SC,NA,NA,50.230840258541086
29486,Berkeley County,SC,NA,46.75446848541863,NA
29488,Colleton County,SC,NA,32.36124176857949,49.86149584487535
29501,Florence County,SC,NA,49.1063029162747,NA
29505,Florence County,SC,NA,96.98965192850423,NA
29506,Florence County,SC,NA,53.71589840075258,NA
29520,Chesterfield County,SC,81.58567774936061,NA,NA
29526,Horry County,SC,NA,40.545625587958604,21.791320406278857
29550,Darlington County,SC,NA,57.38476011288805,NA
29555,Florence County,SC,NA,96.42521166509877,NA
29556,Williamsburg County,SC,NA,NA,68.88273314866112
29560,Florence County,SC,NA,NA,66.4819944598338
29572,Horry County,SC,NA,NA,79.59372114496767
29574,Marion County,SC,66.49616368286445,NA,NA
29588,Horry County,SC,NA,NA,58.54108956602031
29605,Greenville County,SC,NA,11.006585136406397,NA
29617,Greenville County,SC,NA,33.20790216368768,NA
29624,Anderson County,SC,NA,NA,64.1735918744229
29627,Anderson County,SC,NA,NA,58.72576177285319
29642,Pickens County,SC,NA,NA,25.669436749769158
29646,Greenwood County,SC,NA,44.590780809031045,NA
29649,Greenwood County,SC,NA,53.43367826904986,NA
29690,Greenville County,SC,NA,70.08466603951082,NA
29692,Laurens County,SC,NA,97.17779868297272,NA
29720,Lancaster County,SC,19.948849104859335,NA,NA
29803,Aiken County,SC,NA,73.00094073377235,NA
29906,Beaufort County,SC,NA,57.76105362182502,NA
57252,Grant County,SD,NA,91.15710253998118,NA
37042,Montgomery County,TN,27.621483375959077,NA,NA
37076,Davidson County,TN,NA,27.93979303857008,NA
37115,Davidson County,TN,NA,NA,33.795013850415515
37122,Wilson County,TN,NA,21.54280338664158,28.3471837488458
37167,Rutherford County,TN,NA,NA,35.364727608494924
37190,Cannon County,TN,NA,88.42897460018816,NA
37203,Davidson County,TN,68.03069053708441,NA,NA
37321,Rhea County,TN,NA,35.4656632173095,65.92797783933518
37329,McMinn County,TN,NA,NA,90.67405355493999
37334,Lincoln County,TN,40.66496163682864,NA,41.45891043397968
37347,Marion County,TN,NA,86.82972718720602,NA
37363,Hamilton County,TN,NA,NA,53.64727608494921
37379,Hamilton County,TN,NA,26.528692380056444,NA
37380,Marion County,TN,NA,NA,98.337950138504155
37416,Hamilton County,TN,NA,NA,74.79224376731301
37660,Sullivan County,TN,NA,NA,8.86426592797784
37664,Sullivan County,TN,NA,NA,26.038781163434905
37716,Anderson County,TN,NA,25.493885230479773,NA
37722,Cocke County,TN,NA,84.5719661335842,NA
37748,Roane County,TN,NA,25.305738476011292,39.4275161588181
37752,Claiborne County,TN,NA,96.2370649106303,NA
37754,Anderson County,TN,94.62915601023018,NA,NA
37756,Scott County,TN,NA,NA,100
37763,Roane County,TN,NA,NA,51.985226223453374
37766,Campbell County,TN,39.38618925831202,NA,30.193905817174517
37769,Anderson County,TN,86.18925831202046,NA,NA
37771,Loudon County,TN,59.07928388746802,NA,NA
37772,Loudon County,TN,NA,NA,87.90397045244691
37774,Loudon County,TN,90.02557544757033,NA,28.901200369344416
37801,Blount County,TN,NA,NA,28.80886426592798
37803,Blount County,TN,NA,45.719661335841955,NA
37804,Blount County,TN,NA,16.086547507055503,NA
37813,Hamblen County,TN,NA,61.61806208842897,NA
37814,Hamblen County,TN,NA,22.577610536218252,NA
37830,Anderson County,TN,64.19437340153452,NA,NA
37840,Roane County,TN,NA,NA,72.57617728531855
37849,Knox County,TN,NA,48.63593603010348,NA
37854,Roane County,TN,NA,60.20696142991533,NA
37860,Hamblen County,TN,NA,99.43555973659454,NA
37862,Sevier County,TN,NA,83.16086547507055,39.51985226223454
37863,Sevier County,TN,NA,87.58231420507995,NA
37865,Sevier County,TN,NA,NA,34.44136657433056
37871,Jefferson County,TN,NA,72.53057384760113,NA
37874,Monroe County,TN,NA,49.67074317968015,54.662973222530006
37879,Claiborne County,TN,NA,NA,81.80978762696213
37886,Blount County,TN,NA,NA,93.16712834718375
37914,Knox County,TN,NA,NA,57.15604801477377
37917,Knox County,TN,NA,NA,25.30009233610342
37920,Knox County,TN,42.19948849104859,14.393226716839136,NA
37921,Knox County,TN,32.73657289002558,NA,NA
37923,Knox County,TN,55.49872122762148,NA,NA
37932,Knox County,TN,NA,64.81655691439323,NA
38012,Haywood County,TN,NA,65.94543744120413,NA
38017,Shelby County,TN,NA,49.858889934148635,NA
38106,Shelby County,TN,NA,38.852304797742235,NA
38108,Shelby County,TN,NA,85.51269990592662,NA
38109,Shelby County,TN,NA,NA,28.162511542012926
38116,Shelby County,TN,NA,28.410159924741297,NA
38117,Shelby County,TN,NA,66.98024459078081,NA
38119,Shelby County,TN,NA,NA,66.7590027700831
38555,Cumberland County,TN,NA,NA,26.96214219759926
38556,Fentress County,TN,NA,73.84760112888053,NA
38558,Cumberland County,TN,NA,82.22013170272812,38.59649122807017
38572,Cumberland County,TN,69.0537084398977,NA,NA
75007,Denton County,TX,NA,NA,34.16435826408126
75009,Collin County,TX,NA,91.6274694261524,88.27331486611266
75023,Collin County,TX,NA,NA,54.016620498614955
75033,,TX,NA,67.35653809971778,NA
75034,Denton County,TX,NA,NA,73.49953831948291
75050,Dallas County,TX,NA,NA,48.01477377654663
75052,Dallas County,TX,NA,40.92191909689558,NA
75060,Dallas County,TX,NA,38.0997177798683,NA
75063,Dallas County,TX,NA,89.6519285042333,NA
75069,Collin County,TX,NA,NA,23.084025854108955
75070,Collin County,TX,NA,8.560677328316087,NA
75071,Collin County,TX,NA,27.657572906867355,NA
75077,Denton County,TX,NA,47.318908748824086,NA
75081,Dallas County,TX,NA,47.412982126058324,NA
75090,Grayson County,TX,NA,NA,84.7645429362881
75103,Van Zandt County,TX,84.65473145780051,NA,NA
75146,Dallas County,TX,NA,NA,65.09695290858726
75169,Van Zandt County,TX,NA,NA,66.38965835641736
75180,Dallas County,TX,NA,67.54468485418627,NA
75209,Dallas County,TX,NA,NA,45.42936288088642
75214,Dallas County,TX,NA,59.17215428033866,NA
75216,Dallas County,TX,NA,7.243650047036689,NA
75225,Dallas County,TX,NA,NA,31.117266851338876
75227,Dallas County,TX,NA,NA,65.83564173591874
75240,Dallas County,TX,74.93606138107417,NA,NA
75248,Dallas County,TX,64.70588235294117,23.23612417685795,NA
75252,Collin County,TX,NA,57.00846660395108,48.661126500461684
75287,Denton County,TX,NA,47.88334901222954,NA
75455,Titus County,TX,57.289002557544755,NA,NA
75457,Franklin County,TX,NA,95.29633113828785,NA
75647,Gregg County,TX,NA,96.61335841956726,NA
75650,Harrison County,TX,NA,94.73189087488241,NA
75670,Harrison County,TX,NA,NA,81.99445983379502
75672,Harrison County,TX,NA,NA,55.77100646352724
75692,Harrison County,TX,95.9079283887468,94.26152398871119,NA
75789,Smith County,TX,NA,89.36970837253058,NA
76010,Tarrant County,TX,NA,53.33960489181562,NA
76011,Tarrant County,TX,NA,58.51364063969896,NA
76013,Tarrant County,TX,NA,NA,25.761772853185594
76014,Tarrant County,TX,NA,43.93226716839135,NA
76016,Tarrant County,TX,NA,NA,69.52908587257618
76021,Tarrant County,TX,NA,37.81749764816557,NA
76028,Johnson County,TX,NA,NA,43.95198522622346
76043,Somervell County,TX,NA,83.9134524929445,NA
76048,Hood County,TX,NA,29.25682031984948,NA
76049,Hood County,TX,75.70332480818415,NA,NA
76052,Tarrant County,TX,NA,85.79492003762935,NA
76086,Parker County,TX,NA,NA,31.301939058171747
76108,Tarrant County,TX,NA,21.260583254938854,NA
76112,Tarrant County,TX,NA,NA,38.31948291782087
76117,Tarrant County,TX,NA,NA,55.86334256694367
76119,Tarrant County,TX,NA,5.738476011288805,NA
76120,Tarrant County,TX,NA,NA,92.70544783010158
76126,Tarrant County,TX,NA,71.21354656632172,NA
76133,Tarrant County,TX,NA,NA,20.960295475530934
76137,Tarrant County,TX,NA,NA,78.02400738688827
76179,Tarrant County,TX,NA,30.85606773283161,56.602031394275166
76201,Denton County,TX,NA,NA,73.31486611265005
76205,Denton County,TX,NA,80.24459078080903,NA
76244,Tarrant County,TX,28.9002557544757,NA,NA
76248,Tarrant County,TX,NA,NA,39.88919667590028
76266,Denton County,TX,NA,76.8579492003763,NA
76302,Wichita County,TX,92.58312020460357,NA,NA
76306,Wichita County,TX,NA,NA,83.19482917820868
76374,Young County,TX,NA,NA,85.68790397045245
76513,Bell County,TX,NA,1.1288805268109126,NA
76522,Coryell County,TX,NA,NA,10.80332409972299
76692,Hill County,TX,NA,57.85512699905927,NA
76834,Coleman County,TX,NA,NA,93.16712834718375
77005,Harris County,TX,NA,55.31514581373471,NA
77011,Harris County,TX,NA,74.41204139228599,NA
77014,Harris County,TX,66.75191815856778,NA,NA
77015,Harris County,TX,NA,43.74412041392286,NA
77019,Harris County,TX,NA,75.44684854186265,NA
77022,Harris County,TX,60.86956521739131,NA,NA
77028,Harris County,TX,NA,64.53433678269049,NA
77036,Harris County,TX,NA,19.09689557855127,NA
77048,Harris County,TX,77.49360613810742,NA,NA
77051,Harris County,TX,57.8005115089514,NA,NA
77056,Harris County,TX,81.84143222506394,NA,44.78301015697138
77060,Harris County,TX,NA,77.23424270931326,NA
77063,Harris County,TX,NA,71.40169332079022,NA
77070,Harris County,TX,48.59335038363171,NA,NA
77071,Harris County,TX,NA,NA,63.25023084025854
77076,Harris County,TX,NA,65.28692380056444,NA
77088,Harris County,TX,33.50383631713555,NA,NA
77093,Harris County,TX,NA,NA,83.471837488458
77095,Harris County,TX,NA,11.006585136406397,49.39981532779317
77099,Harris County,TX,NA,35.55973659454374,NA
77303,Montgomery County,TX,NA,NA,96.39889196675901
77318,Montgomery County,TX,NA,72.81279397930386,NA
77327,Liberty County,TX,70.84398976982096,NA,NA
77351,Polk County,TX,NA,NA,29.17820867959372
77356,Montgomery County,TX,NA,NA,47.92243767313019
77360,Polk County,TX,NA,74.69426152398871,NA
77379,Harris County,TX,NA,7.902163687676388,9.695290858725762
77380,Montgomery County,TX,NA,57.66698024459078,91.22807017543859
77396,Harris County,TX,NA,NA,80.97876269621422
77407,Fort Bend County,TX,56.01023017902813,NA,81.25577100646353
77422,Brazoria County,TX,NA,NA,72.668513388735
77433,Harris County,TX,NA,52.77516462841017,NA
77447,Harris County,TX,NA,88.89934148635936,NA
77450,Harris County,TX,NA,16.36876763875823,NA
77477,Fort Bend County,TX,85.16624040920716,40.63969896519285,NA
77479,Fort Bend County,TX,33.248081841432224,NA,NA
77480,Brazoria County,TX,NA,NA,88.73499538319483
77488,Wharton County,TX,NA,80.71495766698024,NA
77494,Fort Bend County,TX,NA,13.452492944496708,NA
77498,Fort Bend County,TX,NA,NA,56.78670360110804
77510,Galveston County,TX,NA,NA,53.64727608494921
77532,Harris County,TX,NA,62.46472248353716,NA
77536,Harris County,TX,NA,NA,49.03047091412742
77563,Galveston County,TX,NA,47.60112888052681,NA
77568,Galveston County,TX,NA,NA,56.417359187442294
77573,Galveston County,TX,13.299232736572892,NA,19.75992613111727
77586,Harris County,TX,NA,NA,71.9298245614035
77590,Galveston County,TX,NA,11.571025399811854,25.023084025854107
77598,Harris County,TX,NA,NA,88.9196675900277
77651,Jefferson County,TX,NA,NA,75.80794090489381
77706,Jefferson County,TX,NA,31.326434619002825,NA
77905,Victoria County,TX,NA,NA,66.29732225300093
77979,Calhoun County,TX,NA,NA,55.03231763619575
78025,Kerr County,TX,NA,95.48447789275635,NA
78130,Comal County,TX,NA,55.87958607714016,NA
78132,Comal County,TX,NA,NA,78.30101569713757
78213,Bexar County,TX,NA,61.994355597365946,NA
78501,Hidalgo County,TX,NA,NA,12.003693444136658
78521,Cameron County,TX,NA,15.23988711194732,NA
78557,Hidalgo County,TX,NA,NA,96.49122807017544
78596,Hidalgo County,TX,79.02813299232737,NA,NA
78644,Caldwell County,TX,NA,NA,66.85133887349953
78648,Caldwell County,TX,NA,NA,78.67036011080333
78654,Burnet County,TX,NA,NA,14.127423822714682
78861,Medina County,TX,83.37595907928389,NA,NA
78942,Lee County,TX,NA,NA,76.5466297322253
78945,Fayette County,TX,NA,NA,73.59187442289935
79118,Randall County,TX,NA,NA,89.75069252077562
79360,Gaines County,TX,NA,NA,55.21698984302862
79413,Lubbock County,TX,NA,NA,30.932594644506
79606,Taylor County,TX,NA,50.70555032925682,NA
79714,Andrews County,TX,NA,NA,86.3342566943675
79761,Ector County,TX,83.63171355498721,NA,NA
79845,Presidio County,TX,NA,NA,99.90766389658357
79903,El Paso County,TX,NA,86.26528692380056,NA
79927,El Paso County,TX,NA,NA,62.880886426592795
84040,Davis County,UT,NA,86.54750705550329,78.1163434903047
84054,Davis County,UT,NA,74.50611476952022,NA
84067,Weber County,UT,NA,NA,50.50784856879039
84088,Salt Lake County,UT,NA,50.32925682031985,NA
84092,Salt Lake County,UT,NA,NA,71.6528162511542
84097,Utah County,UT,87.97953964194375,NA,NA
84104,Salt Lake County,UT,NA,NA,60.2954755309326
84121,Salt Lake County,UT,44.24552429667519,NA,NA
84770,Washington County,UT,NA,NA,4.986149584487535
84790,Washington County,UT,NA,NA,26.223453370267773
05156,Windsor County,VT,NA,62.65286923800565,61.58818097876269
05488,Franklin County,VT,NA,86.3593603010348,NA
20112,Prince William County,VA,NA,NA,90.2123730378578
22025,Prince William County,VA,NA,80.24459078080903,84.30286241920591
22079,Fairfax County,VA,NA,NA,78.20867959372114
22191,Prince William County,VA,NA,NA,53.46260387811634
22192,Prince William County,VA,23.785166240409207,39.416745061147694,NA
22193,Prince William County,VA,NA,16.650987770460958,39.335180055401665
22206,Arlington County,VA,NA,NA,99.26131117266851
22302,Alexandria city,VA,NA,NA,91.22807017543859
22307,Fairfax County,VA,NA,NA,81.25577100646353
22309,Fairfax County,VA,NA,50.04703668861712,NA
22310,Fairfax County,VA,NA,NA,75.62326869806094
22406,Stafford County,VA,NA,77.61053621825023,NA
22554,Stafford County,VA,NA,41.95672624647225,NA
22701,Culpeper County,VA,NA,15.428033866415806,NA
22920,Nelson County,VA,NA,NA,99.7229916897507
22960,Orange County,VA,NA,61.429915333960494,NA
22968,Greene County,VA,NA,NA,85.0415512465374
22980,Waynesboro city,VA,NA,NA,22.437673130193904
23075,Henrico County,VA,NA,82.78457196613358,NA
23120,Chesterfield County,VA,NA,NA,99.53831948291783
23150,Henrico County,VA,NA,NA,67.95937211449676
23168,James City County,VA,90.53708439897699,91.25117591721543,NA
23188,James City County,VA,NA,2.257761053621825,0.09233610341643582
23228,Henrico County,VA,NA,NA,22.99168975069252
23229,Henrico County,VA,NA,39.51081843838194,NA
23237,Chesterfield County,VA,NA,58.60771401693321,NA
23320,Chesapeake city,VA,31.202046035805626,NA,7.109879963065559
23321,Chesapeake city,VA,NA,90.96895578551269,NA
23322,Chesapeake city,VA,NA,86.92380056444027,NA
23323,Chesapeake city,VA,NA,31.60865475070555,41.55124653739612
23324,Chesapeake city,VA,NA,52.304797742238954,NA
23325,Chesapeake city,VA,NA,NA,43.67497691597414
23434,Suffolk city,VA,NA,NA,12.280701754385964
23451,Virginia Beach city,VA,NA,12.417685794920038,1.569713758079409
23452,Virginia Beach city,VA,25.831202046035806,6.773283160865475,5.632502308402586
23454,Virginia Beach city,VA,NA,NA,2.677746999076639
23455,Virginia Beach city,VA,NA,NA,14.496768236380426
23456,Virginia Beach city,VA,NA,NA,13.573407202216067
23462,Virginia Beach city,VA,NA,60.677328316086545,NA
23487,Isle of Wight County,VA,NA,82.87864534336784,NA
23502,Norfolk city,VA,NA,27.7516462841016,NA
23509,Norfolk city,VA,44.50127877237852,NA,NA
23513,Norfolk city,VA,NA,NA,18.74422899353647
23663,Hampton city,VA,NA,55.03292568203199,65.28162511542013
23664,Hampton city,VA,NA,95.86077140169333,NA
23666,Hampton city,VA,NA,8.466603951081844,NA
23701,Portsmouth city,VA,NA,58.984007525870176,NA
23703,Portsmouth city,VA,NA,NA,33.887349953831944
23704,Portsmouth city,VA,NA,NA,68.51338873499539
23803,Petersburg city,VA,NA,12.88805268109125,NA
23805,Petersburg city,VA,NA,59.9247412982126,NA
23875,Prince George County,VA,NA,74.8824082784572,79.59372114496767
24015,Roanoke city,VA,NA,75.91721542803387,NA
24055,Henry County,VA,NA,NA,63.61957525392429
24084,Pulaski County,VA,NA,76.57572906867357,NA
24121,Bedford County,VA,NA,NA,74.14589104339797
24153,Salem city,VA,NA,NA,16.897506925207757
24201,Bristol city,VA,47.05882352941176,NA,NA
24370,Smyth County,VA,NA,59.54844778927564,NA
24401,Staunton city,VA,NA,NA,4.1551246537396125
24422,Alleghany County,VA,NA,NA,80.60941828254848
24501,Lynchburg city,VA,NA,36.7826904985889,NA
24577,Halifax County,VA,NA,93.69708372530575,NA
98002,King County,WA,39.130434782608695,NA,NA
98003,King County,WA,NA,17.873941674506113,NA
98006,King County,WA,NA,26.05832549388523,NA
98007,King County,WA,85.93350383631714,NA,NA
98022,King County,WA,NA,NA,40.07386888273315
98027,King County,WA,NA,NA,51.985226223453374
98032,King County,WA,45.78005115089514,NA,NA
98034,King County,WA,NA,11.759172154280337,NA
98038,King County,WA,NA,NA,48.476454293628805
98052,King County,WA,50.89514066496164,17.591721542803388,70.91412742382272
98053,King County,WA,NA,72.06020696142991,NA
98110,Kitsap County,WA,NA,NA,53.554939981532776
98112,King County,WA,NA,63.875823142050805,NA
98117,King County,WA,NA,NA,82.45614035087719
98118,King County,WA,NA,NA,67.12834718374884
98146,King County,WA,NA,28.88052681091251,65.37396121883657
98166,King County,WA,NA,NA,80.79409048938135
98178,King County,WA,NA,68.10912511759172,NA
98223,Snohomish County,WA,NA,16.180620884289745,NA
98236,Island County,WA,NA,80.43273753527752,NA
98282,Island County,WA,NA,NA,43.58264081255771
98329,Pierce County,WA,NA,NA,97.96860572483841
98332,Pierce County,WA,91.56010230179028,51.269990592662275,NA
98362,Clallam County,WA,NA,NA,2.954755309325946
98363,Clallam County,WA,NA,36.876763875823144,NA
98367,Kitsap County,WA,51.150895140664964,NA,NA
98372,Pierce County,WA,65.72890025575447,NA,NA
98382,Clallam County,WA,NA,38.57008466603951,0.46168051708217916
98383,Kitsap County,WA,NA,52.11665098777046,NA
98569,Grays Harbor County,WA,NA,79.39793038570085,NA
98580,Pierce County,WA,NA,90.21636876763876,NA
98584,Mason County,WA,37.851662404092075,73.75352775164629,27.42382271468144
98606,Clark County,WA,NA,96.33113828786453,NA
98632,Cowlitz County,WA,NA,3.8570084666039515,NA
98801,Chelan County,WA,NA,56.161806208842904,NA
98823,Grant County,WA,NA,81.09125117591721,NA
98908,Yakima County,WA,NA,NA,44.22899353647276
98930,Yakima County,WA,NA,81.18532455315146,NA
98944,Yakima County,WA,NA,NA,59.926131117266856
99320,Benton County,WA,NA,82.87864534336784,NA
99336,Benton County,WA,NA,NA,2.862419205909511
99337,Benton County,WA,NA,5.362182502351835,6.001846722068329
20012,District of Columbia,DC,NA,NA,77.19298245614034
20016,District of Columbia,DC,NA,48.73000940733772,NA
24739,Mercer County,WV,NA,79.68015051740358,NA
25015,Kanawha County,WV,94.62915601023018,NA,NA
25177,Kanawha County,WV,NA,30.950141110065854,NA
25302,Kanawha County,WV,NA,NA,82.91782086795936
25309,Kanawha County,WV,NA,NA,46.62973222530009
25312,Kanawha County,WV,NA,NA,89.75069252077562
25401,Berkeley County,WV,NA,NA,62.97322253000923
25526,Putnam County,WV,NA,35.74788334901223,NA
25530,Wayne County,WV,NA,NA,85.78024007386888
25541,Cabell County,WV,NA,78.26904985888994,NA
25601,Logan County,WV,77.74936061381074,NA,NA
25701,Cabell County,WV,20.716112531969312,NA,NA
25962,Greenbrier County,WV,NA,91.06302916274694,NA
26003,Ohio County,WV,NA,NA,1.3850415512465373
26062,Hancock County,WV,NA,NA,8.679593721144968
26070,Brooke County,WV,NA,NA,31.855955678670362
26101,Wood County,WV,NA,4.233301975540922,NA
26170,Pleasants County,WV,NA,NA,92.89012003693445
26537,Preston County,WV,NA,NA,94.55216989843028
53024,Ozaukee County,WI,NA,55.87958607714016,NA
53029,Waukesha County,WI,NA,NA,51.8005540166205
53073,Sheboygan County,WI,NA,NA,76.08494921514311
53081,Sheboygan County,WI,21.22762148337596,19.47318908748824,58.07940904893813
53083,Sheboygan County,WI,NA,57.00846660395108,75.06925207756233
53085,Sheboygan County,WI,NA,94.26152398871119,93.53647276084949
53089,Waukesha County,WI,NA,72.15428033866415,NA
53090,Washington County,WI,NA,49.576669802445906,NA
53094,Jefferson County,WI,NA,NA,26.13111726685134
53095,Washington County,WI,54.987212276214834,NA,24.7460757156048
53105,Racine County,WI,NA,9.313264346190028,NA
53132,Milwaukee County,WI,NA,57.00846660395108,NA
53140,Kenosha County,WI,NA,19.567262464722486,24.099722991689752
53143,Kenosha County,WI,NA,62.93508936970837,NA
53144,Kenosha County,WI,21.483375959079286,NA,NA
53158,Kenosha County,WI,NA,23.706491063029162,NA
53168,Kenosha County,WI,NA,92.85042333019756,NA
53186,Waukesha County,WI,NA,NA,29.916897506925206
53189,Waukesha County,WI,61.38107416879796,NA,NA
53208,Milwaukee County,WI,14.83375959079284,NA,NA
53211,Milwaukee County,WI,NA,NA,7.940904893813482
53214,Milwaukee County,WI,15.34526854219949,NA,60.20313942751616
53218,Milwaukee County,WI,9.974424552429667,NA,NA
53221,Milwaukee County,WI,NA,NA,10.710987996306557
53222,Milwaukee County,WI,NA,NA,53.83194829178208
53405,Racine County,WI,NA,21.072436500470367,12.927054478301015
53511,Rock County,WI,NA,0.18814675446848542,NA
53566,Green County,WI,NA,NA,10.156971375807942
53581,Richland County,WI,NA,NA,70.72945521698985
53589,Dane County,WI,NA,32.8316086547507,NA
53704,Dane County,WI,NA,14.299153339604892,NA
53950,Juneau County,WI,NA,92.75634995296332,NA
54001,Polk County,WI,NA,84.76011288805269,NA
54016,St. Croix County,WI,NA,44.96707431796801,40.81255771006463
54020,Polk County,WI,NA,87.206020696143,NA
54114,Marinette County,WI,NA,79.20978363123237,NA
54115,Brown County,WI,NA,83.34901222953904,NA
54153,Oconto County,WI,80.81841432225065,NA,NA
54155,Brown County,WI,NA,92.19190968955786,NA
54157,Marinette County,WI,NA,89.55785512699906,NA
54216,Kewaunee County,WI,NA,NA,99.63065558633426
54217,Kewaunee County,WI,NA,98.96519285042334,NA
54220,Manitowoc County,WI,9.462915601023019,NA,NA
54235,Door County,WI,NA,NA,18.467220683287167
54241,Manitowoc County,WI,NA,NA,37.580794090489384
54302,Brown County,WI,NA,NA,51.52354570637119
54304,Brown County,WI,60.61381074168798,NA,76.91597414589104
54311,Brown County,WI,NA,NA,20.59095106186519
54313,Brown County,WI,NA,NA,65.00461680517083
54401,Marathon County,WI,NA,NA,16.528162511542014
54656,Monroe County,WI,NA,36.312323612417686,NA
54902,Winnebago County,WI,NA,50.423330197554094,NA
54935,Fond du Lac County,WI,NA,NA,3.0470914127423825
82070,Albany County,WY,NA,74.12982126058326,NA
