ZipCode,county,state,Adult,Retirement,Geriatric
35020,Jefferson County,AL,NA,34.94949494949495,NA
35045,Chilton County,AL,NA,NA,95.48532731376976
35054,St. Clair County,AL,NA,NA,88.26185101580135
35210,Jefferson County,AL,NA,69.2929292929293,NA
35244,Jefferson County,AL,49.696969696969695,NA,NA
35601,Morgan County,AL,14.242424242424242,NA,NA
35633,Lauderdale County,AL,NA,NA,95.71106094808127
35653,Franklin County,AL,NA,83.23232323232324,NA
35805,Madison County,AL,NA,NA,73.36343115124153
35811,Madison County,AL,NA,NA,37.92325056433409
35906,Etowah County,AL,NA,NA,92.55079006772009
35976,Marshall County,AL,47.878787878787875,NA,NA
36078,Elmore County,AL,56.36363636363636,NA,NA
36110,Montgomery County,AL,NA,NA,76.2979683972912
36207,Calhoun County,AL,61.51515151515151,NA,NA
36323,Coffee County,AL,NA,NA,88.93905191873588
36544,Mobile County,AL,NA,90.1010101010101,NA
36617,Mobile County,AL,NA,98.7878787878788,NA
99515,Anchorage Municipality,AK,NA,78.18181818181819,NA
85016,Maricopa County,AZ,NA,40.4040404040404,NA
85037,Maricopa County,AZ,27.878787878787882,NA,NA
85040,Maricopa County,AZ,NA,58.78787878787879,NA
85142,Maricopa County,AZ,NA,65.05050505050505,NA
85201,Maricopa County,AZ,NA,38.18181818181819,NA
85248,Maricopa County,AZ,NA,34.54545454545455,NA
85255,Maricopa County,AZ,NA,NA,24.153498871331827
85259,Maricopa County,AZ,NA,NA,56.659142212189614
85266,Maricopa County,AZ,100,NA,NA
85286,Maricopa County,AZ,NA,78.98989898989899,NA
85301,Maricopa County,AZ,5.151515151515151,24.04040404040404,NA
85302,Maricopa County,AZ,NA,31.91919191919192,NA
85308,Maricopa County,AZ,37.27272727272727,NA,NA
85331,Maricopa County,AZ,NA,NA,62.97968397291196
85335,Maricopa County,AZ,NA,NA,81.7155756207675
85345,Maricopa County,AZ,12.424242424242424,NA,NA
85364,Yuma County,AZ,NA,NA,47.17832957110609
85382,Maricopa County,AZ,NA,NA,13.092550790067719
85501,Gila County,AZ,77.57575757575758,NA,NA
85602,Cochise County,AZ,NA,95.75757575757575,NA
85634,Pima County,AZ,NA,33.939393939393945,NA
85710,Pima County,AZ,NA,19.393939393939394,NA
85711,Pima County,AZ,70.3030303030303,NA,NA
85714,Pima County,AZ,NA,61.81818181818181,NA
85718,Pima County,AZ,NA,NA,17.155756207674944
85901,Navajo County,AZ,NA,NA,61.39954853273137
86043,Navajo County,AZ,NA,NA,99.54853273137697
86314,Yavapai County,AZ,NA,26.464646464646464,NA
86326,Yavapai County,AZ,NA,25.656565656565654,17.607223476297968
86429,Mohave County,AZ,93.63636363636364,NA,NA
86442,Mohave County,AZ,NA,13.333333333333334,NA
72223,Pulaski County,AR,NA,NA,47.855530474040634
72416,Craighead County,AR,NA,NA,94.35665914221218
72501,Independence County,AR,NA,29.898989898989896,NA
72712,Benton County,AR,49.696969696969695,NA,NA
72956,Crawford County,AR,52.121212121212125,NA,NA
90003,Los Angeles County,CA,NA,43.83838383838384,NA
90008,Los Angeles County,CA,NA,NA,23.927765237020317
90012,Los Angeles County,CA,90.6060606060606,NA,30.699774266365687
90016,Los Angeles County,CA,NA,NA,26.86230248306998
90022,Los Angeles County,CA,NA,51.11111111111111,21.896162528216703
90036,Los Angeles County,CA,NA,NA,29.571106094808126
90037,Los Angeles County,CA,NA,NA,41.98645598194131
90046,Los Angeles County,CA,NA,77.97979797979798,NA
90057,Los Angeles County,CA,NA,63.43434343434343,NA
90064,Los Angeles County,CA,NA,53.73737373737374,NA
90201,Los Angeles County,CA,NA,42.22222222222222,NA
90240,Los Angeles County,CA,NA,72.32323232323232,NA
90242,Los Angeles County,CA,NA,60.80808080808081,NA
90275,Los Angeles County,CA,NA,NA,6.094808126410835
90280,Los Angeles County,CA,NA,73.33333333333333,NA
90404,Los Angeles County,CA,71.21212121212122,NA,NA
90501,Los Angeles County,CA,50.60606060606061,NA,NA
90602,Los Angeles County,CA,NA,62.02020202020202,NA
90660,Los Angeles County,CA,NA,NA,20.767494356659142
90808,Los Angeles County,CA,NA,NA,73.81489841986456
90813,Los Angeles County,CA,NA,NA,74.04063205417607
91001,Los Angeles County,CA,62.121212121212125,NA,NA
91103,Los Angeles County,CA,NA,NA,71.55756207674943
91201,Los Angeles County,CA,NA,NA,87.3589164785553
91316,Los Angeles County,CA,NA,56.56565656565656,NA
91335,Los Angeles County,CA,34.54545454545455,NA,NA
91343,Los Angeles County,CA,54.24242424242425,NA,NA
91360,Ventura County,CA,NA,NA,16.478555304740404
91401,Los Angeles County,CA,91.21212121212122,NA,NA
91506,Los Angeles County,CA,NA,88.68686868686869,NA
91709,San Bernardino County,CA,NA,NA,42.88939051918736
91732,Los Angeles County,CA,NA,NA,27.539503386004515
91737,San Bernardino County,CA,NA,59.59595959595959,NA
91748,Los Angeles County,CA,NA,NA,33.182844243792324
91770,Los Angeles County,CA,NA,NA,12.641083521444695
91791,Los Angeles County,CA,NA,52.72727272727272,NA
91792,Los Angeles County,CA,NA,NA,91.64785553047405
91910,San Diego County,CA,NA,NA,8.803611738148984
91911,San Diego County,CA,NA,21.41414141414141,NA
91977,San Diego County,CA,38.18181818181819,NA,NA
91978,San Diego County,CA,NA,95.15151515151516,NA
92020,San Diego County,CA,22.424242424242426,NA,31.15124153498871
92056,San Diego County,CA,57.878787878787875,NA,NA
92057,San Diego County,CA,NA,NA,72.686230248307
92064,San Diego County,CA,NA,NA,28.442437923250562
92102,San Diego County,CA,NA,63.83838383838384,NA
92103,San Diego County,CA,NA,NA,44.01805869074492
92109,San Diego County,CA,NA,NA,60.0451467268623
92113,San Diego County,CA,NA,NA,57.33634311512416
92203,Riverside County,CA,NA,74.34343434343434,NA
92227,Imperial County,CA,43.333333333333336,NA,NA
92231,Imperial County,CA,NA,NA,32.95711060948081
92251,Imperial County,CA,NA,NA,83.52144469525959
92260,Riverside County,CA,NA,NA,1.3544018058690745
92324,San Bernardino County,CA,NA,45.85858585858586,NA
92346,San Bernardino County,CA,30,NA,NA
92377,San Bernardino County,CA,NA,NA,93.22799097065463
92394,San Bernardino County,CA,NA,87.67676767676768,NA
92407,San Bernardino County,CA,NA,NA,69.07449209932281
92411,San Bernardino County,CA,NA,NA,96.61399548532731
92509,Riverside County,CA,NA,42.62626262626263,NA
92553,Riverside County,CA,NA,NA,77.42663656884876
92563,Riverside County,CA,NA,88.48484848484848,NA
92630,Orange County,CA,NA,21.21212121212121,NA
92653,Orange County,CA,NA,NA,80.36117381489842
92673,Orange County,CA,NA,67.27272727272727,NA
92708,Orange County,CA,NA,92.12121212121212,NA
92804,Orange County,CA,NA,NA,20.31602708803612
92832,Orange County,CA,NA,90.7070707070707,NA
92844,Orange County,CA,NA,97.37373737373738,NA
92869,Orange County,CA,64.24242424242425,NA,NA
92879,Riverside County,CA,NA,NA,95.03386004514672
93003,Ventura County,CA,NA,NA,12.18961625282167
93030,Ventura County,CA,17.87878787878788,NA,NA
93035,Ventura County,CA,NA,NA,72.91196388261851
93041,Ventura County,CA,NA,63.63636363636363,NA
93203,Kern County,CA,NA,99.39393939393939,NA
93221,Tulare County,CA,NA,80,NA
93306,Kern County,CA,NA,74.14141414141415,NA
93307,Kern County,CA,NA,20.2020202020202,53.04740406320542
93436,Santa Barbara County,CA,NA,18.383838383838384,NA
93550,Los Angeles County,CA,NA,80.60606060606061,NA
93551,Los Angeles County,CA,NA,NA,68.39729119638827
93555,Kern County,CA,NA,NA,35.89164785553047
93610,Madera County,CA,75.15151515151514,NA,NA
93612,Fresno County,CA,NA,NA,41.534988713318285
93635,Merced County,CA,NA,NA,55.98194130925508
93703,Fresno County,CA,90,63.23232323232323,NA
93722,Fresno County,CA,NA,17.17171717171717,NA
93726,Fresno County,CA,21.818181818181817,NA,NA
94025,San Mateo County,CA,NA,NA,25.28216704288939
94085,Santa Clara County,CA,NA,NA,91.19638826185101
94103,San Francisco County,CA,43.03030303030303,NA,NA
94109,San Francisco County,CA,NA,14.545454545454545,NA
94115,San Francisco County,CA,NA,NA,9.932279909706546
94133,San Francisco County,CA,NA,51.515151515151516,25.95936794582393
94303,San Mateo County,CA,30.606060606060602,NA,NA
94538,Alameda County,CA,NA,NA,17.83295711060948
94541,Alameda County,CA,26.36363636363636,NA,NA
94707,Alameda County,CA,NA,91.31313131313131,77.87810383747178
94941,Marin County,CA,NA,NA,32.50564334085779
94960,Marin County,CA,NA,NA,88.036117381489845
95014,Santa Clara County,CA,68.78787878787878,NA,NA
95037,Santa Clara County,CA,NA,37.37373737373738,NA
95070,Santa Clara County,CA,NA,NA,16.02708803611738
95111,Santa Clara County,CA,NA,NA,39.27765237020316
95249,Calaveras County,CA,NA,98.58585858585859,NA
95340,Merced County,CA,NA,83.83838383838383,40.63205417607224
95341,Merced County,CA,NA,NA,81.26410835214448
95377,San Joaquin County,CA,NA,NA,91.42212189616254
95482,Mendocino County,CA,NA,30.50505050505051,NA
95540,Humboldt County,CA,NA,57.97979797979798,NA
95608,Sacramento County,CA,NA,23.03030303030303,NA
95624,Sacramento County,CA,NA,29.494949494949495,NA
95631,Placer County,CA,NA,89.8989898989899,NA
95726,El Dorado County,CA,NA,NA,56.20767494356659
95825,Sacramento County,CA,51.21212121212121,NA,NA
95928,Butte County,CA,NA,38.38383838383838,NA
95966,Butte County,CA,10.303030303030303,NA,NA
95993,Sutter County,CA,NA,45.656565656565654,NA
96130,Lassen County,CA,NA,81.61616161616162,NA
80016,Arapahoe County,CO,NA,NA,59.36794582392777
80109,Douglas County,CO,NA,67.07070707070707,NA
80130,Douglas County,CO,81.51515151515152,NA,NA
80202,Denver County,CO,NA,NA,86.90744920993228
80216,Denver County,CO,NA,97.97979797979798,NA
80221,Adams County,CO,35.75757575757576,NA,NA
80237,Denver County,CO,76.66666666666667,NA,NA
80247,Arapahoe County,CO,NA,81.81818181818183,NA
80302,Boulder County,CO,NA,71.91919191919192,NA
80601,Adams County,CO,NA,43.63636363636363,NA
80634,Weld County,CO,NA,NA,81.48984198645599
80911,El Paso County,CO,NA,NA,55.07900677200903
80916,El Paso County,CO,NA,69.6969696969697,NA
81503,Mesa County,CO,68.48484848484848,NA,NA
06029,Tolland County,CT,NA,NA,83.06997742663657
06095,Hartford County,CT,NA,NA,46.50112866817156
06106,Hartford County,CT,NA,NA,26.63656884875846
06401,New Haven County,CT,NA,65.05050505050505,NA
06403,New Haven County,CT,98.7878787878788,NA,NA
06418,New Haven County,CT,NA,69.8989898989899,NA
06461,New Haven County,CT,NA,NA,65.23702031602708
06477,New Haven County,CT,94.84848484848484,NA,NA
06488,New Haven County,CT,86.36363636363636,NA,NA
06489,Hartford County,CT,34.24242424242424,NA,NA
06516,New Haven County,CT,NA,4.848484848484849,NA
06519,New Haven County,CT,25.454545454545453,NA,NA
06605,Fairfield County,CT,36.666666666666664,NA,NA
06606,Fairfield County,CT,NA,38.58585858585858,NA
06708,New Haven County,CT,24.242424242424242,NA,NA
06798,Litchfield County,CT,NA,NA,68.17155756207674
06810,Fairfield County,CT,NA,23.434343434343436,NA
06811,Fairfield County,CT,NA,NA,14.446952595936793
06854,Fairfield County,CT,46.06060606060606,NA,NA
06905,Fairfield County,CT,NA,53.13131313131313,NA
19701,New Castle County,DE,NA,NA,45.82392776523702
19707,New Castle County,DE,NA,NA,47.629796839729124
19720,New Castle County,DE,NA,4.444444444444445,NA
32080,St. Johns County,FL,73.63636363636363,NA,NA
32127,Volusia County,FL,NA,44.24242424242424,NA
32141,Volusia County,FL,NA,97.57575757575758,NA
32148,Putnam County,FL,82.72727272727273,NA,NA
32168,Volusia County,FL,NA,40,NA
32206,Duval County,FL,21.21212121212121,NA,NA
32208,Duval County,FL,NA,NA,39.729119638826184
32211,Duval County,FL,20.909090909090907,NA,NA
32224,Duval County,FL,NA,48.888888888888886,NA
32225,Duval County,FL,31.818181818181817,NA,NA
32258,Duval County,FL,NA,NA,63.6568848758465
32305,Leon County,FL,NA,NA,79.45823927765237
32446,Jackson County,FL,NA,66.26262626262627,NA
32501,Escambia County,FL,NA,NA,57.11060948081265
32534,Escambia County,FL,NA,NA,45.372460496613996
32536,Okaloosa County,FL,NA,NA,46.95259593679458
32539,Okaloosa County,FL,NA,NA,32.731376975169304
32570,Santa Rosa County,FL,NA,NA,7.44920993227991
32708,Seminole County,FL,NA,42.82828282828282,23.25056433408578
32738,Volusia County,FL,NA,NA,50.338600451467265
32754,Brevard County,FL,78.18181818181819,NA,NA
32801,Orange County,FL,88.18181818181819,NA,NA
32808,Orange County,FL,NA,28.484848484848484,NA
32812,Orange County,FL,NA,NA,63.20541760722348
32817,Orange County,FL,NA,68.68686868686868,NA
32821,Orange County,FL,NA,97.77777777777777,NA
32955,Brevard County,FL,NA,27.27272727272727,NA
32967,Indian River County,FL,80.3030303030303,NA,NA
33015,Miami-Dade County,FL,NA,NA,43.792325056433405
33020,Broward County,FL,33.63636363636363,31.717171717171716,NA
33023,Broward County,FL,NA,49.292929292929294,NA
33033,Miami-Dade County,FL,NA,NA,58.465011286681715
33054,Miami-Dade County,FL,NA,74.74747474747475,NA
33130,Miami-Dade County,FL,NA,NA,60.270880361173816
33135,Miami-Dade County,FL,NA,NA,20.993227990970656
33136,Miami-Dade County,FL,52.121212121212125,NA,NA
33142,Miami-Dade County,FL,NA,NA,15.575620767494355
33145,Miami-Dade County,FL,NA,NA,28.66817155756208
33157,Miami-Dade County,FL,NA,NA,19.187358916478555
33161,Miami-Dade County,FL,70.9090909090909,NA,NA
33162,Miami-Dade County,FL,NA,64.64646464646465,NA
33165,Miami-Dade County,FL,NA,NA,2.708803611738149
33177,Miami-Dade County,FL,NA,53.333333333333336,NA
33186,Miami-Dade County,FL,NA,36.96969696969697,NA
33193,Miami-Dade County,FL,NA,NA,53.27313769751692
33319,Broward County,FL,NA,34.34343434343434,NA
33322,Broward County,FL,NA,35.55555555555556,NA
33334,Broward County,FL,NA,NA,71.33182844243792
33418,Palm Beach County,FL,NA,NA,6.997742663656885
33437,Palm Beach County,FL,NA,NA,0
33442,Broward County,FL,NA,40.60606060606061,NA
33449,Palm Beach County,FL,NA,NA,79.68397291196389
33472,Palm Beach County,FL,NA,74.94949494949495,NA
33569,Hillsborough County,FL,NA,83.03030303030303,NA
33573,Hillsborough County,FL,98.18181818181819,NA,NA
33584,Hillsborough County,FL,59.696969696969695,NA,NA
33610,Hillsborough County,FL,45.151515151515156,NA,NA
33704,Pinellas County,FL,NA,82.82828282828282,NA
33707,Pinellas County,FL,NA,NA,62.75395033860045
33763,Pinellas County,FL,NA,61.212121212121204,NA
33771,Pinellas County,FL,NA,NA,20.090293453724605
33772,Pinellas County,FL,83.03030303030303,NA,NA
33782,Pinellas County,FL,71.51515151515152,NA,NA
33805,Polk County,FL,NA,39.7979797979798,NA
33810,Polk County,FL,NA,NA,24.37923250564334
33823,Polk County,FL,NA,50.303030303030305,NA
33897,Polk County,FL,NA,72.72727272727273,NA
33903,Lee County,FL,66.06060606060606,84.24242424242424,NA
33909,Lee County,FL,NA,48.68686868686869,NA
33916,Lee County,FL,NA,71.11111111111111,NA
33917,Lee County,FL,NA,NA,11.286681715575622
34293,Sarasota County,FL,NA,NA,2.4830699774266365
34429,Citrus County,FL,NA,89.0909090909091,NA
34452,Citrus County,FL,67.57575757575758,NA,NA
34476,Marion County,FL,63.63636363636363,NA,NA
34602,Hernando County,FL,96.06060606060606,NA,NA
34608,Hernando County,FL,NA,51.91919191919192,NA
34711,Lake County,FL,NA,6.0606060606060606,NA
34787,Orange County,FL,NA,NA,18.961625282167045
34952,St. Lucie County,FL,NA,NA,5.191873589164786
34957,Martin County,FL,NA,39.1919191919192,NA
34974,Okeechobee County,FL,NA,44.84848484848485,NA
34997,Martin County,FL,NA,NA,27.088036117381492
30012,Rockdale County,GA,NA,NA,69.3002257336343
30024,Gwinnett County,GA,20.606060606060606,NA,NA
30030,DeKalb County,GA,46.96969696969697,NA,NA
30033,DeKalb County,GA,NA,NA,49.887133182844245
30035,DeKalb County,GA,NA,NA,89.61625282167043
30096,Gwinnett County,GA,NA,67.87878787878789,NA
30147,Floyd County,GA,95.75757575757575,NA,NA
30214,Fayette County,GA,57.27272727272727,NA,NA
30236,Clayton County,GA,67.87878787878789,NA,NA
30240,Troup County,GA,NA,28.888888888888886,NA
30241,Troup County,GA,NA,54.54545454545454,NA
30269,Fayette County,GA,NA,NA,57.78781038374717
30281,Henry County,GA,NA,21.616161616161616,NA
30316,DeKalb County,GA,NA,52.52525252525253,NA
30318,Fulton County,GA,NA,35.15151515151515,NA
30507,Hall County,GA,44.54545454545455,NA,NA
30521,Franklin County,GA,NA,94.54545454545455,NA
30523,Habersham County,GA,NA,98.38383838383838,NA
30540,Gilmer County,GA,NA,NA,51.24153498871332
30554,Hall County,GA,NA,NA,97.06546275395034
30560,Fannin County,GA,NA,94.94949494949495,NA
30601,Clarke County,GA,NA,71.31313131313132,NA
30607,Clarke County,GA,85.75757575757575,NA,NA
30662,Franklin County,GA,NA,95.55555555555556,NA
30752,Dade County,GA,63.33333333333333,NA,NA
30809,Columbia County,GA,NA,67.47474747474747,NA
30828,Warren County,GA,NA,93.73737373737374,NA
30904,Richmond County,GA,37.57575757575757,NA,NA
30906,Richmond County,GA,NA,NA,15.124153498871332
30909,Richmond County,GA,NA,19.19191919191919,NA
31204,Bibb County,GA,NA,33.131313131313135,38.37471783295711
31210,Bibb County,GA,NA,NA,78.1038374717833
31404,Chatham County,GA,53.939393939393945,NA,NA
31410,Chatham County,GA,88.7878787878788,NA,NA
31520,Glynn County,GA,NA,59.1919191919192,NA
31605,Lowndes County,GA,76.06060606060606,NA,NA
31792,Thomas County,GA,NA,37.37373737373738,NA
31906,Muscogee County,GA,NA,48.08080808080808,NA
96706,Honolulu County,HI,NA,NA,13.99548532731377
96766,Kauai County,HI,NA,NA,81.03837471783297
96797,Honolulu County,HI,NA,37.17171717171717,NA
96818,Honolulu County,HI,55.15151515151515,NA,NA
96819,Honolulu County,HI,NA,NA,18.735891647855528
96822,Honolulu County,HI,NA,22.626262626262626,NA
83316,Twin Falls County,ID,NA,NA,96.16252821670429
83605,Canyon County,ID,30.303030303030305,26.86868686868687,NA
83705,Ada County,ID,NA,17.575757575757574,NA
83815,Kootenai County,ID,NA,NA,14.221218961625281
83843,Latah County,ID,NA,56.96969696969697,NA
60005,Cook County,IL,60.60606060606061,74.54545454545455,NA
60010,Lake County,IL,NA,15.95959595959596,NA
60047,Lake County,IL,NA,NA,56.884875846501124
60062,Cook County,IL,NA,NA,0.2257336343115124
60074,Cook County,IL,NA,42.42424242424242,NA
60085,Lake County,IL,NA,NA,25.056433408577877
60154,Cook County,IL,83.93939393939394,NA,NA
60172,DuPage County,IL,66.96969696969697,NA,NA
60181,DuPage County,IL,33.939393939393945,NA,NA
60185,DuPage County,IL,39.39393939393939,NA,NA
60187,DuPage County,IL,40,NA,NA
60193,Cook County,IL,NA,45.25252525252525,NA
60402,Cook County,IL,NA,11.515151515151516,NA
60409,Cook County,IL,33.33333333333333,NA,NA
60410,Will County,IL,NA,NA,72.46049661399549
60411,Cook County,IL,NA,13.131313131313133,NA
60466,Cook County,IL,NA,NA,49.66139954853273
60471,Cook County,IL,NA,95.95959595959596,NA
60473,Cook County,IL,NA,NA,24.604966139954854
60520,DeKalb County,IL,NA,100,NA
60540,DuPage County,IL,NA,33.535353535353536,NA
60561,DuPage County,IL,NA,NA,28.66817155756208
60625,Cook County,IL,10.909090909090908,NA,NA
60628,Cook County,IL,NA,NA,2.2573363431151243
60629,Cook County,IL,NA,NA,6.320541760722348
60640,Cook County,IL,NA,8.484848484848486,NA
60644,Cook County,IL,NA,NA,14.89841986455982
60646,Cook County,IL,NA,NA,24.830699774266364
60651,Cook County,IL,8.181818181818182,NA,NA
60707,Cook County,IL,NA,12.121212121212121,NA
61068,Ogle County,IL,72.12121212121212,NA,NA
61104,Winnebago County,IL,96.96969696969697,NA,NA
61354,LaSalle County,IL,NA,NA,27.313769751693002
61874,Champaign County,IL,NA,NA,44.46952595936794
61951,Moultrie County,IL,NA,78.3838383838384,NA
62012,Macoupin County,IL,93.33333333333333,NA,NA
62223,St. Clair County,IL,NA,NA,50.56433408577878
62232,St. Clair County,IL,NA,NA,86.45598194130926
62263,Washington County,IL,NA,NA,84.19864559819413
62401,Effingham County,IL,NA,57.17171717171718,NA
62568,Christian County,IL,NA,60.2020202020202,NA
62650,Morgan County,IL,NA,NA,34.537246049661405
62656,Logan County,IL,NA,NA,51.69300225733634
46237,Marion County,IN,53.333333333333336,NA,NA
46319,Lake County,IN,NA,32.121212121212125,NA
46321,Lake County,IN,NA,NA,20.54176072234763
46323,Lake County,IN,NA,20.80808080808081,NA
46341,Porter County,IN,NA,NA,84.87584650112868
46383,Porter County,IN,NA,6.8686868686868685,10.609480812641085
46405,Lake County,IN,NA,52.323232323232325,NA
46407,Lake County,IN,NA,74.94949494949495,NA
46534,Starke County,IN,NA,NA,72.00902934537245
46563,Marshall County,IN,NA,NA,57.56207674943566
46804,Allen County,IN,NA,29.09090909090909,NA
46933,Grant County,IN,95.45454545454545,NA,NA
46953,Grant County,IN,NA,13.939393939393941,NA
47006,Ripley County,IN,75.45454545454545,NA,NA
47274,Jackson County,IN,NA,36.56565656565657,NA
47303,Delaware County,IN,NA,NA,67.2686230248307
47304,Delaware County,IN,NA,NA,41.760722347629795
47330,Wayne County,IN,94.24242424242424,NA,NA
47374,Wayne County,IN,NA,NA,10.15801354401806
47394,Randolph County,IN,NA,NA,56.20767494356659
47401,Monroe County,IN,NA,NA,65.91422121896161
47441,Greene County,IN,NA,70.70707070707071,NA
47620,Posey County,IN,NA,65.85858585858585,NA
47714,Vanderburgh County,IN,NA,NA,29.345372460496616
47909,Tippecanoe County,IN,42.42424242424242,NA,NA
50310,Polk County,IA,NA,NA,43.115124153498876
50320,Polk County,IA,50.90909090909091,NA,NA
50501,Webster County,IA,NA,NA,25.5079006772009
52001,Dubuque County,IA,16.363636363636363,NA,NA
52060,Jackson County,IA,NA,NA,85.10158013544017
52577,Mahaska County,IA,39.09090909090909,NA,NA
52803,Scott County,IA,NA,56.16161616161616,NA
52804,Scott County,IA,NA,NA,40.40632054176072
66048,Leavenworth County,KS,36.06060606060606,NA,NA
66441,Geary County,KS,NA,66.86868686868686,NA
66604,Shawnee County,KS,NA,46.06060606060606,NA
66609,Shawnee County,KS,97.57575757575758,NA,NA
66611,Shawnee County,KS,NA,NA,70.8803611738149
66614,Shawnee County,KS,NA,NA,52.595936794582386
67152,Sumner County,KS,NA,87.07070707070706,NA
67204,Sedgwick County,KS,NA,70.5050505050505,NA
67401,Saline County,KS,56.666666666666664,NA,NA
40207,Jefferson County,KY,74.24242424242425,NA,NA
40211,Jefferson County,KY,13.333333333333334,NA,NA
40214,Jefferson County,KY,NA,NA,44.92099322799097
40218,Jefferson County,KY,14.545454545454545,NA,NA
40272,Jefferson County,KY,14.84848484848485,19.5959595959596,NA
40361,Bourbon County,KY,NA,NA,64.55981941309255
40380,Powell County,KY,NA,76.76767676767676,NA
40383,Woodford County,KY,NA,89.29292929292929,NA
40422,Boyle County,KY,NA,NA,58.239277652370205
40504,Fayette County,KY,NA,NA,46.27539503386004
40517,Fayette County,KY,73.93939393939394,NA,NA
40906,Knox County,KY,NA,78.78787878787878,NA
41018,Kenton County,KY,NA,30.909090909090907,NA
41071,Campbell County,KY,NA,39.5959595959596,NA
41179,Lewis County,KY,65.15151515151516,NA,NA
41501,Pike County,KY,11.818181818181818,15.95959595959596,NA
41858,Letcher County,KY,NA,64.24242424242425,NA
42164,Allen County,KY,41.81818181818181,NA,NA
42167,Monroe County,KY,68.18181818181817,NA,NA
42301,Daviess County,KY,NA,12.929292929292929,NA
42303,Daviess County,KY,NA,22.22222222222222,NA
42420,Henderson County,KY,NA,68.08080808080808,NA
42718,Taylor County,KY,NA,NA,7.900677200902935
70006,Jefferson Parish,LA,52.72727272727272,NA,NA
70090,St. James Parish,LA,NA,NA,98.64559819413093
70092,St. Bernard Parish,LA,NA,NA,99.09706546275395
70094,Jefferson Parish,LA,NA,NA,51.91873589164786
70123,Jefferson Parish,LA,NA,22.424242424242426,NA
70128,Orleans Parish,LA,NA,NA,69.52595936794582
70345,Lafourche Parish,LA,48.484848484848484,NA,NA
70373,Lafourche Parish,LA,NA,NA,79.00677200902935
70507,Lafayette Parish,LA,44.24242424242424,NA,80.58690744920993
70546,Jefferson Davis Parish,LA,65.75757575757576,NA,NA
70563,Iberia Parish,LA,NA,NA,62.07674943566591
70570,St. Landry Parish,LA,1.2121212121212122,NA,NA
70601,Calcasieu Parish,LA,NA,10.1010101010101,NA
70607,Calcasieu Parish,LA,15.151515151515152,NA,NA
70634,Beauregard Parish,LA,27.27272727272727,NA,NA
70815,East Baton Rouge Parish,LA,NA,NA,37.020316027088036
71055,Webster Parish,LA,NA,40.80808080808081,NA
71109,Caddo Parish,LA,NA,29.292929292929294,NA
71295,Franklin Parish,LA,NA,57.57575757575758,NA
04083,York County,ME,NA,92.32323232323232,NA
04105,Cumberland County,ME,NA,NA,51.46726862302483
04210,Androscoggin County,ME,NA,11.11111111111111,NA
04401,Penobscot County,ME,1.8181818181818181,NA,NA
04462,Penobscot County,ME,88.18181818181819,NA,NA
04619,Washington County,ME,NA,NA,95.93679458239278
04756,Aroostook County,ME,NA,NA,64.10835214446952
20770,Prince George's County,MD,NA,NA,98.87133182844244
20902,Montgomery County,MD,NA,88.28282828282829,NA
21044,Howard County,MD,NA,NA,69.97742663656885
21076,Anne Arundel County,MD,87.87878787878788,NA,NA
21215,Baltimore city,MD,NA,NA,5.8690744920993225
21217,Baltimore city,MD,NA,20.404040404040405,NA
21231,Baltimore city,MD,NA,70.1010101010101,NA
21502,Allegany County,MD,NA,22.02020202020202,4.514672686230249
21804,Wicomico County,MD,48.484848484848484,NA,NA
01420,Worcester County,MA,NA,2.2222222222222223,NA
01453,Worcester County,MA,NA,NA,13.544018058690746
01520,Worcester County,MA,43.63636363636363,53.939393939393945,NA
01569,Worcester County,MA,NA,NA,60.496613995485326
01720,Middlesex County,MA,36.96969696969697,NA,NA
01721,Middlesex County,MA,NA,NA,65.68848758465012
01741,Middlesex County,MA,NA,98.18181818181819,NA
01826,Middlesex County,MA,NA,NA,17.381489841986454
01830,Essex County,MA,NA,97.17171717171718,NA
01843,Essex County,MA,3.3333333333333335,NA,NA
01844,Essex County,MA,7.878787878787878,NA,NA
01845,Essex County,MA,NA,NA,19.63882618510158
01904,Essex County,MA,99.0909090909091,NA,NA
02019,Norfolk County,MA,38.78787878787879,NA,NA
02124,Suffolk County,MA,NA,0,NA
02125,Suffolk County,MA,87.27272727272727,NA,NA
02127,Suffolk County,MA,NA,NA,9.255079006772009
02136,Suffolk County,MA,13.030303030303031,NA,NA
02169,Norfolk County,MA,NA,NA,0.4514672686230248
02338,Plymouth County,MA,86.66666666666667,NA,NA
02356,Bristol County,MA,78.18181818181819,NA,NA
02360,Plymouth County,MA,NA,NA,1.1286681715575622
02718,Bristol County,MA,NA,95.35353535353536,NA
02745,Bristol County,MA,NA,NA,31.82844243792325
02748,Bristol County,MA,NA,NA,22.799097065462753
02780,Bristol County,MA,64.84848484848484,NA,NA
02790,Bristol County,MA,NA,28.28282828282828,NA
48026,Macomb County,MI,NA,76.56565656565657,NA
48054,St. Clair County,MI,95.15151515151516,NA,NA
48066,Macomb County,MI,NA,9.292929292929292,NA
48073,Oakland County,MI,NA,NA,26.185101580135438
48082,Macomb County,MI,NA,41.61616161616162,NA
48120,Wayne County,MI,NA,96.36363636363636,NA
48126,Wayne County,MI,NA,NA,11.512415349887133
48134,Wayne County,MI,30.909090909090907,NA,NA
48138,Wayne County,MI,NA,62.22222222222222,NA
48183,Wayne County,MI,NA,7.6767676767676765,NA
48185,Wayne County,MI,5.757575757575758,NA,NA
48195,Wayne County,MI,NA,11.91919191919192,NA
48204,Wayne County,MI,9.696969696969697,68.48484848484848,NA
48207,Wayne County,MI,NA,40.2020202020202,NA
48210,Wayne County,MI,NA,58.18181818181818,NA
48211,Wayne County,MI,92.12121212121212,NA,NA
48217,Wayne County,MI,69.6969696969697,NA,71.10609480812641
48219,Wayne County,MI,NA,NA,49.43566591422122
48224,Wayne County,MI,2.1212121212121215,NA,NA
48227,Wayne County,MI,NA,8.686868686868687,NA
48235,Wayne County,MI,2.4242424242424243,3.8383838383838382,NA
48240,Wayne County,MI,NA,59.79797979797979,NA
48306,Oakland County,MI,NA,NA,40.18058690744921
48309,Oakland County,MI,NA,32.525252525252526,NA
48312,Macomb County,MI,27.575757575757574,18.585858585858585,NA
48316,Macomb County,MI,NA,NA,16.252821670428894
48317,Macomb County,MI,74.84848484848486,NA,NA
48327,Oakland County,MI,NA,88.08080808080808,NA
48357,Oakland County,MI,NA,73.53535353535354,NA
48386,Oakland County,MI,NA,47.878787878787875,NA
48433,Genesee County,MI,NA,25.252525252525253,NA
48439,Genesee County,MI,NA,NA,9.706546275395034
48442,Oakland County,MI,49.3939393939394,NA,NA
48444,Lapeer County,MI,NA,NA,85.77878103837472
48507,Genesee County,MI,9.393939393939393,NA,73.13769751693002
48602,Saginaw County,MI,3.939393939393939,NA,NA
48706,Bay County,MI,NA,1.8181818181818181,NA
48813,Eaton County,MI,41.21212121212121,NA,NA
48917,Eaton County,MI,NA,9.494949494949495,NA
49036,Branch County,MI,NA,78.58585858585857,NA
49080,Allegan County,MI,NA,47.474747474747474,NA
49127,Berrien County,MI,NA,NA,55.30474040632054
49202,Jackson County,MI,NA,69.0909090909091,21.21896162528217
49412,Newaygo County,MI,NA,60.60606060606061,NA
49424,Ottawa County,MI,NA,NA,6.5462753950338595
49442,Muskegon County,MI,NA,5.656565656565657,NA
49548,Kent County,MI,NA,15.757575757575756,NA
49659,Antrim County,MI,81.81818181818183,NA,81.941309255079
55025,Washington County,MN,NA,NA,66.36568848758465
55033,Dakota County,MN,NA,85.25252525252526,NA
55051,Kanabec County,MN,NA,44.04040404040404,NA
55060,Steele County,MN,NA,96.96969696969697,NA
55076,Dakota County,MN,NA,59.3939393939394,NA
55128,Washington County,MN,NA,57.37373737373738,NA
55303,Anoka County,MN,18.181818181818183,NA,NA
55330,Sherburne County,MN,NA,NA,52.144469525959366
55378,Scott County,MN,NA,NA,76.07223476297969
55379,Scott County,MN,NA,NA,74.94356659142211
55454,Hennepin County,MN,NA,96.56565656565657,NA
56058,Le Sueur County,MN,NA,NA,87.81038374717834
56071,Scott County,MN,NA,84.04040404040404,NA
56201,Kandiyohi County,MN,NA,NA,53.72460496613996
56379,Benton County,MN,NA,NA,83.7471783295711
56537,Otter Tail County,MN,NA,11.313131313131313,NA
56572,Otter Tail County,MN,NA,68.88888888888889,NA
56573,Otter Tail County,MN,NA,76.16161616161617,NA
38614,Coahoma County,MS,NA,NA,92.32505643340858
38654,DeSoto County,MS,24.848484848484848,NA,NA
38655,Lafayette County,MS,72.42424242424242,NA,NA
38668,Tate County,MS,76.36363636363637,NA,NA
38732,Bolivar County,MS,40.909090909090914,NA,NA
39194,Yazoo County,MS,53.03030303030303,NA,78.55530474040631
39206,Hinds County,MS,31.515151515151512,NA,NA
39211,Hinds County,MS,NA,NA,85.55304740406321
39350,Neshoba County,MS,NA,NA,33.86004514672686
39437,Jones County,MS,65.45454545454545,77.37373737373737,90.74492099322799
39439,Jasper County,MS,NA,96.56565656565657,NA
39507,Harrison County,MS,71.81818181818181,NA,NA
39530,Harrison County,MS,NA,NA,67.49435665914221
39532,Harrison County,MS,NA,NA,14.672686230248308
39553,Jackson County,MS,NA,NA,75.62076749435666
39648,Pike County,MS,NA,53.939393939393945,NA
63016,Jefferson County,MO,NA,NA,96.83972911963883
63017,St. Louis County,MO,NA,NA,2.0316027088036117
63052,Jefferson County,MO,NA,93.93939393939394,NA
63077,Franklin County,MO,73.33333333333333,NA,NA
63084,Franklin County,MO,NA,55.757575757575765,NA
63090,Franklin County,MO,NA,NA,44.92099322799097
63135,St. Louis County,MO,NA,35.35353535353536,NA
63136,St. Louis County,MO,NA,12.323232323232324,NA
63137,St. Louis County,MO,NA,NA,74.4920993227991
63146,St. Louis County,MO,NA,38.78787878787879,NA
63376,St. Charles County,MO,NA,2.4242424242424243,NA
63670,Ste. Genevieve County,MO,NA,73.13131313131314,65.01128668171557
63755,Cape Girardeau County,MO,NA,NA,35.214446952595935
64015,Jackson County,MO,NA,NA,44.24379232505643
64030,Jackson County,MO,NA,20.606060606060606,NA
64050,Jackson County,MO,NA,19.7979797979798,NA
64119,Clay County,MO,NA,NA,35.44018058690745
64155,Clay County,MO,NA,25.858585858585858,NA
64759,Barton County,MO,NA,65.45454545454545,NA
64801,Jasper County,MO,NA,NA,12.866817155756207
64804,Jasper County,MO,NA,NA,8.803611738148984
65066,Gasconade County,MO,84.54545454545455,NA,NA
65203,Boone County,MO,NA,13.535353535353536,NA
65453,Crawford County,MO,NA,NA,77.65237020316027
65536,Laclede County,MO,NA,72.52525252525253,NA
65565,Crawford County,MO,96.36363636363636,NA,NA
65605,Lawrence County,MO,79.39393939393939,NA,NA
65610,Christian County,MO,NA,93.13131313131314,NA
65616,Taney County,MO,NA,NA,22.573363431151243
65711,Wright County,MO,NA,NA,79.00677200902935
65738,Greene County,MO,NA,NA,74.7178329571106
65803,Greene County,MO,NA,14.343434343434344,NA
59405,Cascade County,MT,NA,18.98989898989899,NA
68107,Douglas County,NE,NA,85.05050505050505,NA
68111,Douglas County,NE,54.848484848484844,NA,NA
68131,Douglas County,NE,91.51515151515152,NA,NA
68506,Lancaster County,NE,77.27272727272727,NA,NA
68701,Madison County,NE,NA,76.36363636363637,NA
89101,Clark County,NV,NA,NA,55.30474040632054
89108,Clark County,NV,NA,45.05050505050505,NA
89122,Clark County,NV,NA,NA,48.75846501128668
89123,Clark County,NV,53.63636363636364,NA,NA
89130,Clark County,NV,NA,56.76767676767677,NA
89142,Clark County,NV,NA,NA,93.00225733634312
89145,Clark County,NV,NA,79.39393939393939,NA
89169,Clark County,NV,55.757575757575765,NA,NA
89408,Lyon County,NV,NA,42.02020202020202,NA
03031,Hillsborough County,NH,82.12121212121211,NA,NA
03038,Rockingham County,NH,12.727272727272727,NA,NA
03060,Hillsborough County,NH,NA,13.737373737373737,NA
03062,Hillsborough County,NH,NA,9.696969696969697,NA
03263,Merrimack County,NH,NA,99.19191919191918,NA
03825,Strafford County,NH,NA,51.717171717171716,NA
07011,Passaic County,NJ,NA,31.515151515151512,36.3431151241535
07036,Union County,NJ,NA,20,NA
07042,Essex County,NJ,NA,59.79797979797979,50.112866817155755
07047,Hudson County,NJ,5.454545454545454,NA,NA
07052,Essex County,NJ,NA,NA,15.349887133182843
07055,Passaic County,NJ,NA,4.040404040404041,NA
07070,Bergen County,NJ,NA,NA,66.59142212189616
07087,Hudson County,NJ,NA,6.666666666666667,NA
07202,Union County,NJ,6.969696969696971,NA,NA
07410,Bergen County,NJ,NA,30.303030303030305,NA
07470,Passaic County,NJ,NA,NA,4.063205417607223
07522,Passaic County,NJ,NA,35.95959595959596,90.51918735891647
07726,Monmouth County,NJ,NA,31.313131313131315,NA
07882,Warren County,NJ,NA,NA,71.78329571106094
07930,Morris County,NJ,NA,NA,93.90519187358916
08028,Gloucester County,NJ,18.484848484848484,57.77777777777777,NA
08031,Camden County,NJ,NA,76.96969696969697,NA
08037,Atlantic County,NJ,NA,23.636363636363637,NA
08050,Ocean County,NJ,NA,NA,23.024830699774267
08052,Burlington County,NJ,NA,NA,58.013544018058695
08069,Salem County,NJ,NA,49.898989898989896,NA
08080,Gloucester County,NJ,11.212121212121213,NA,NA
08110,Camden County,NJ,NA,28.68686868686869,NA
08210,Cape May County,NJ,NA,49.09090909090909,NA
08242,Cape May County,NJ,NA,71.91919191919192,NA
08332,Cumberland County,NJ,0.9090909090909091,NA,NA
08527,Ocean County,NJ,NA,NA,4.288939051918736
08618,Mercer County,NJ,NA,8.080808080808081,NA
08742,Ocean County,NJ,32.42424242424242,NA,NA
08757,Ocean County,NJ,NA,5.454545454545454,NA
08822,Hunterdon County,NJ,24.545454545454547,NA,NA
08824,Middlesex County,NJ,NA,NA,94.5823927765237
08854,Middlesex County,NJ,NA,NA,25.733634311512414
08863,Middlesex County,NJ,70.60606060606061,NA,NA
08873,Somerset County,NJ,NA,25.858585858585858,NA
08901,Middlesex County,NJ,NA,88.88888888888889,NA
87106,Bernalillo County,NM,NA,46.26262626262626,NA
87107,Bernalillo County,NM,NA,NA,42.21218961625282
87124,Sandoval County,NM,41.515151515151516,NA,NA
87301,McKinley County,NM,NA,NA,76.52370203160271
88001,Doa Ana County,NM,29.09090909090909,NA,NA
88220,Eddy County,NM,NA,NA,21.21896162528217
88345,Lincoln County,NM,NA,85.65656565656565,NA
88352,Otero County,NM,NA,NA,68.84875846501129
10009,New York County,NY,NA,NA,3.160270880361174
10013,New York County,NY,NA,NA,82.84424379232506
10025,New York County,NY,NA,1.2121212121212122,NA
10032,New York County,NY,NA,7.878787878787878,NA
10033,New York County,NY,17.272727272727273,NA,11.738148984198645
10034,New York County,NY,70,NA,NA
10040,New York County,NY,NA,21.818181818181817,NA
10303,Richmond County,NY,NA,50.101010101010104,NA
10452,Bronx County,NY,NA,0.6060606060606061,8.577878103837472
10457,Bronx County,NY,0,NA,NA
10461,Bronx County,NY,NA,21.01010101010101,NA
10463,Bronx County,NY,NA,5.252525252525253,NA
10473,Bronx County,NY,4.848484848484849,NA,38.82618510158014
10940,Orange County,NY,16.969696969696972,NA,NA
10994,Rockland County,NY,NA,NA,95.25959367945825
11040,Nassau County,NY,NA,70.9090909090909,NA
11105,Queens County,NY,NA,55.959595959595966,NA
11201,Kings County,NY,56.060606060606055,23.232323232323232,NA
11203,Kings County,NY,NA,NA,5.643340857787811
11208,Kings County,NY,0.6060606060606061,NA,NA
11218,Kings County,NY,49.09090909090909,NA,NA
11219,Kings County,NY,NA,22.828282828282827,NA
11220,Kings County,NY,NA,5.858585858585859,NA
11225,Kings County,NY,NA,NA,27.765237020316025
11226,Kings County,NY,NA,3.0303030303030303,NA
11233,Kings County,NY,NA,0.8080808080808081,NA
11236,Kings County,NY,NA,8.88888888888889,NA
11354,Queens County,NY,NA,NA,61.6252821670429
11364,Queens County,NY,NA,73.93939393939394,NA
11373,Queens County,NY,NA,NA,18.510158013544018
11377,Queens County,NY,NA,NA,18.284424379232505
11379,Queens County,NY,NA,NA,48.53273137697517
11432,Queens County,NY,NA,8.282828282828284,NA
11435,Queens County,NY,NA,17.77777777777778,NA
11510,Nassau County,NY,NA,46.666666666666664,NA
11763,Suffolk County,NY,45.75757575757576,NA,NA
11780,Suffolk County,NY,NA,86.46464646464646,NA
11788,Suffolk County,NY,NA,NA,68.62302483069978
11801,Nassau County,NY,NA,NA,48.081264108352144
12078,Fulton County,NY,4.545454545454546,NA,NA
12302,Schenectady County,NY,NA,27.474747474747474,NA
12771,Orange County,NY,NA,79.1919191919192,NA
13088,Onondaga County,NY,NA,NA,60.722347629796836
13165,Seneca County,NY,29.6969696969697,NA,NA
13357,Herkimer County,NY,NA,NA,82.61851015801355
13760,Broome County,NY,NA,NA,0.9029345372460496
13778,Chenango County,NY,NA,52.92929292929293,NA
13901,Broome County,NY,NA,NA,9.480812641083523
14006,Erie County,NY,NA,NA,90.9706546275395
14043,Erie County,NY,NA,NA,55.75620767494357
14150,Erie County,NY,28.78787878787879,7.2727272727272725,NA
14215,Erie County,NY,1.5151515151515151,NA,NA
14220,Erie County,NY,13.939393939393941,NA,NA
14221,Erie County,NY,NA,3.2323232323232323,NA
14222,Erie County,NY,60,NA,NA
14226,Erie County,NY,NA,NA,65.46275395033861
14456,Ontario County,NY,NA,6.262626262626263,NA
14513,Wayne County,NY,NA,NA,27.99097065462754
14532,Ontario County,NY,NA,NA,97.74266365688487
14534,Monroe County,NY,NA,2.0202020202020203,NA
14606,Monroe County,NY,NA,NA,32.27990970654628
14621,Monroe County,NY,0.30303030303030304,NA,NA
14845,Chemung County,NY,NA,32.92929292929293,NA
14850,Tompkins County,NY,NA,7.474747474747474,NA
14895,Allegany County,NY,NA,46.86868686868687,NA
27012,Forsyth County,NC,33.03030303030303,NA,NA
27055,Yadkin County,NC,NA,NA,54.85327313769752
27103,Forsyth County,NC,NA,10.505050505050505,10.383747178329571
27105,Forsyth County,NC,2.727272727272727,3.4343434343434343,NA
27107,Forsyth County,NC,NA,NA,1.580135440180587
27127,Forsyth County,NC,15.454545454545453,NA,NA
27205,Randolph County,NC,NA,27.878787878787882,NA
27217,Alamance County,NC,NA,12.525252525252526,NA
27292,Davidson County,NC,NA,1.0101010101010102,NA
27295,Davidson County,NC,NA,4.242424242424243,NA
27301,Guilford County,NC,NA,82.42424242424242,NA
27310,Guilford County,NC,NA,93.53535353535354,NA
27316,Randolph County,NC,NA,NA,78.78103837471784
27320,Rockingham County,NC,NA,NA,2.9345372460496613
27401,Guilford County,NC,31.212121212121215,NA,NA
27407,Guilford County,NC,19.090909090909093,NA,NA
27516,Orange County,NC,35.15151515151515,14.747474747474747,NA
27520,Johnston County,NC,35.45454545454545,NA,NA
27521,Harnett County,NC,NA,94.34343434343434,NA
27524,Johnston County,NC,NA,71.51515151515152,NA
27536,Vance County,NC,NA,36.36363636363637,NA
27546,Harnett County,NC,64.54545454545455,NA,NA
27549,Franklin County,NC,23.03030303030303,NA,NA
27576,Johnston County,NC,61.81818181818181,NA,NA
27603,Wake County,NC,NA,30.1010101010101,NA
27803,Nash County,NC,NA,77.77777777777779,NA
27823,Halifax County,NC,NA,NA,86.23024830699775
27893,Wilson County,NC,16.060606060606062,NA,NA
27896,Wilson County,NC,NA,NA,70.6546275395034
27949,Dare County,NC,94.54545454545455,NA,NA
28012,Gaston County,NC,66.36363636363637,NA,NA
28025,Cabarrus County,NC,NA,NA,6.772009029345373
28052,Gaston County,NC,NA,31.11111111111111,NA
28078,Mecklenburg County,NC,NA,NA,28.216704288939056
28081,Cabarrus County,NC,22.12121212121212,NA,NA
28270,Mecklenburg County,NC,NA,NA,50.79006772009029
28377,Robeson County,NC,NA,90.5050505050505,78.3295711060948
28411,New Hanover County,NC,NA,43.03030303030303,NA
28463,Columbus County,NC,74.54545454545455,NA,NA
28546,Onslow County,NC,NA,52.121212121212125,NA
28580,Greene County,NC,NA,82.62626262626263,NA
28584,Carteret County,NC,NA,NA,89.1647855530474
28630,Caldwell County,NC,NA,NA,49.20993227990971
28651,Wilkes County,NC,NA,83.63636363636363,NA
28655,Burke County,NC,NA,5.05050505050505,NA
28786,Haywood County,NC,NA,56.36363636363636,NA
58201,Grand Forks County,ND,NA,NA,1.805869074492099
58554,Morton County,ND,NA,NA,7.223476297968396
58701,Ward County,ND,10,NA,NA
43021,Delaware County,OH,NA,84.64646464646465,NA
43035,Delaware County,OH,NA,NA,87.13318284424379
43050,Knox County,OH,32.72727272727273,NA,NA
43054,Franklin County,OH,NA,90.30303030303031,NA
43068,Franklin County,OH,NA,12.727272727272727,NA
43081,Franklin County,OH,22.727272727272727,NA,NA
43082,Delaware County,OH,NA,NA,39.05191873589165
43110,Franklin County,OH,24.848484848484848,46.464646464646464,NA
43207,Franklin County,OH,11.515151515151516,NA,NA
43213,Franklin County,OH,8.787878787878787,NA,NA
43221,Franklin County,OH,NA,NA,37.24604966139955
43222,Franklin County,OH,NA,94.54545454545455,NA
43223,Franklin County,OH,6.0606060606060606,NA,NA
43229,Franklin County,OH,NA,10.303030303030303,NA
43232,Franklin County,OH,NA,NA,54.401805869074494
43334,Morrow County,OH,78.78787878787878,NA,NA
43701,Muskingum County,OH,NA,0.20202020202020202,NA
43725,Guernsey County,OH,NA,NA,22.34762979683973
43906,Belmont County,OH,NA,NA,59.81941309255079
44001,Lorain County,OH,NA,4.646464646464646,NA
44024,Geauga County,OH,NA,16.565656565656568,NA
44052,Lorain County,OH,16.666666666666664,NA,NA
44087,Summit County,OH,NA,16.969696969696972,NA
44092,Lake County,OH,NA,NA,41.08352144469526
44094,Lake County,OH,51.81818181818182,NA,NA
44102,Cuyahoga County,OH,NA,2.6262626262626263,NA
44115,Cuyahoga County,OH,NA,86.06060606060606,NA
44203,Summit County,OH,6.666666666666667,NA,NA
44217,Wayne County,OH,99.69696969696969,NA,NA
44224,Summit County,OH,NA,9.8989898989899,NA
44236,Summit County,OH,NA,NA,38.1489841986456
44241,Portage County,OH,NA,24.444444444444443,NA
44260,Portage County,OH,NA,61.01010101010102,NA
44319,Summit County,OH,51.21212121212121,26.262626262626267,NA
44446,Trumbull County,OH,NA,NA,52.370203160270876
44460,Columbiana County,OH,NA,NA,60.94808126410835
44485,Trumbull County,OH,NA,NA,36.3431151241535
44505,Mahoning County,OH,NA,NA,34.31151241534989
44507,Mahoning County,OH,83.63636363636363,NA,89.84198645598194
44615,Carroll County,OH,NA,55.35353535353536,NA
44691,Wayne County,OH,NA,6.8686868686868685,NA
44709,Stark County,OH,NA,50.70707070707071,NA
44811,Sandusky County,OH,NA,NA,73.58916478555305
44820,Crawford County,OH,NA,NA,21.670428893905193
44903,Richland County,OH,87.57575757575758,NA,NA
45014,Butler County,OH,15.757575757575756,NA,NA
45103,Clermont County,OH,29.393939393939394,26.86868686868687,NA
45176,Clermont County,OH,69.0909090909091,NA,NA
45214,Hamilton County,OH,NA,67.47474747474747,NA
45215,Hamilton County,OH,NA,41.21212121212121,NA
45229,Hamilton County,OH,NA,35.75757575757576,NA
45231,Hamilton County,OH,7.575757575757576,NA,NA
45248,Hamilton County,OH,NA,NA,19.864559819413092
45252,Hamilton County,OH,NA,NA,88.71331828442437
45320,Preble County,OH,NA,41.81818181818181,38.60045146726862
45356,Miami County,OH,NA,14.14141414141414,NA
45381,Preble County,OH,NA,75.75757575757575,NA
45402,Montgomery County,OH,NA,83.43434343434343,NA
45406,Montgomery County,OH,NA,NA,61.17381489841986
45431,Montgomery County,OH,46.666666666666664,NA,NA
45628,Ross County,OH,NA,58.38383838383838,NA
45631,Gallia County,OH,10.606060606060606,NA,NA
45638,Lawrence County,OH,NA,49.696969696969695,NA
45648,Scioto County,OH,26.060606060606062,NA,NA
45680,Lawrence County,OH,NA,34.14141414141414,NA
45714,Washington County,OH,NA,NA,30.248306997742663
45750,Washington County,OH,NA,0.40404040404040403,NA
45840,Hancock County,OH,NA,NA,5.417607223476298
73013,Oklahoma County,OK,NA,NA,7.674943566591422
73034,Oklahoma County,OK,NA,16.363636363636363,NA
73036,Canadian County,OK,NA,65.65656565656566,NA
73075,Garvin County,OK,89.6969696969697,NA,NA
73099,Canadian County,OK,NA,NA,15.80135440180587
73108,Oklahoma County,OK,90.9090909090909,NA,NA
73111,Oklahoma County,OK,90.30303030303031,NA,64.33408577878103
73119,Oklahoma County,OK,23.636363636363637,NA,69.75169300225733
73129,Oklahoma County,OK,NA,NA,77.20090293453724
73134,Oklahoma County,OK,98.48484848484848,NA,NA
73160,Cleveland County,OK,NA,NA,43.566591422121896
73439,Marshall County,OK,NA,84.84848484848484,NA
73446,Marshall County,OK,NA,91.91919191919192,NA
73801,Woodward County,OK,NA,NA,76.74943566591422
73942,Texas County,OK,NA,77.57575757575758,NA
74008,Tulsa County,OK,NA,NA,52.82167042889391
74011,Tulsa County,OK,NA,NA,53.72460496613996
74037,Tulsa County,OK,NA,NA,74.2663656884876
74073,Tulsa County,OK,NA,NA,92.7765237020316
74104,Tulsa County,OK,NA,92.92929292929293,NA
74107,Tulsa County,OK,NA,72.92929292929293,NA
74112,Tulsa County,OK,56.96969696969697,NA,NA
74114,Tulsa County,OK,NA,NA,82.16704288939052
74437,Okmulgee County,OK,86.06060606060606,NA,NA
74467,Wagoner County,OK,NA,60.4040404040404,NA
74501,Pittsburg County,OK,NA,NA,33.63431151241535
74601,Kay County,OK,89.39393939393939,NA,NA
74801,Pottawatomie County,OK,NA,29.6969696969697,NA
74834,Lincoln County,OK,NA,96.16161616161617,NA
74948,Sequoyah County,OK,66.66666666666666,NA,NA
74953,Le Flore County,OK,NA,81.21212121212122,NA
97024,Multnomah County,OR,NA,NA,88.48758465011286
97068,Clackamas County,OR,NA,NA,58.69074492099323
97103,Clatsop County,OR,57.57575757575758,NA,NA
97206,Multnomah County,OR,13.636363636363635,NA,NA
97301,Marion County,OR,12.121212121212121,NA,42.66365688487584
97302,Marion County,OR,NA,48.484848484848484,NA
97303,Marion County,OR,NA,NA,36.794582392776526
97477,Lane County,OR,25.757575757575758,NA,NA
97478,Lane County,OR,40,NA,NA
97504,Jackson County,OR,NA,15.151515151515152,NA
97701,Deschutes County,OR,NA,NA,35.66591422121896
97739,Deschutes County,OR,84.84848484848484,NA,NA
97801,Umatilla County,OR,NA,30.707070707070706,NA
97914,Malheur County,OR,NA,NA,48.98419864559819
15001,Beaver County,PA,20,NA,NA
15012,Westmoreland County,PA,NA,NA,36.11738148984199
15084,Allegheny County,PA,NA,91.11111111111111,NA
15205,Allegheny County,PA,NA,NA,62.30248306997742
15206,Allegheny County,PA,NA,23.83838383838384,NA
15210,Allegheny County,PA,NA,75.95959595959596,NA
15216,Allegheny County,PA,NA,54.94949494949495,NA
15425,Fayette County,PA,NA,26.666666666666668,NA
15601,Westmoreland County,PA,NA,1.6161616161616161,NA
15701,Indiana County,PA,20.303030303030305,NA,NA
16001,Butler County,PA,3.6363636363636362,NA,NA
16025,Butler County,PA,NA,91.51515151515152,NA
16102,Lawrence County,PA,NA,94.14141414141413,NA
16301,Venango County,PA,NA,47.474747474747474,NA
16635,Blair County,PA,NA,NA,96.3882618510158
16823,Centre County,PA,NA,18.787878787878785,NA
16915,Potter County,PA,NA,NA,62.528216704288944
17033,Dauphin County,PA,NA,24.04040404040404,NA
17050,Cumberland County,PA,NA,11.717171717171718,NA
17110,Dauphin County,PA,NA,NA,43.340857787810386
17401,York County,PA,77.87878787878788,NA,NA
17403,York County,PA,NA,24.848484848484848,NA
17404,York County,PA,NA,NA,11.060948081264108
18049,Lehigh County,PA,43.93939393939394,NA,NA
18088,Northampton County,PA,NA,64.04040404040404,NA
18202,Luzerne County,PA,NA,NA,47.40406320541761
18235,Carbon County,PA,NA,NA,72.23476297968398
18360,Monroe County,PA,NA,15.151515151515152,NA
18444,Lackawanna County,PA,62.727272727272734,92.72727272727272,NA
18964,Montgomery County,PA,75.75757575757575,NA,NA
18966,Bucks County,PA,NA,NA,8.35214446952596
19015,Delaware County,PA,NA,NA,70.20316027088036
19046,Montgomery County,PA,46.36363636363636,NA,NA
19063,Delaware County,PA,NA,NA,8.126410835214447
19075,Montgomery County,PA,NA,NA,97.29119638826185
19111,Philadelphia County,PA,19.696969696969695,NA,NA
19125,Philadelphia County,PA,NA,58.58585858585859,NA
19131,Philadelphia County,PA,6.363636363636363,NA,NA
19143,Philadelphia County,PA,NA,1.4141414141414141,NA
19145,Philadelphia County,PA,7.2727272727272725,NA,32.05417607223476
19149,Philadelphia County,PA,NA,33.73737373737374,NA
19320,Chester County,PA,8.484848484848486,NA,NA
19446,Montgomery County,PA,NA,NA,4.740406320541761
19462,Montgomery County,PA,47.57575757575758,NA,NA
19609,Berks County,PA,97.87878787878788,NA,NA
02861,Providence County,RI,NA,NA,33.40857787810384
02865,Providence County,RI,NA,NA,58.91647855530474
02906,Providence County,RI,58.484848484848484,NA,NA
02907,Providence County,RI,NA,55.15151515151515,NA
29020,Kershaw County,SC,NA,39.39393939393939,NA
29058,Lancaster County,SC,NA,NA,99.77426636568849
29115,Orangeburg County,SC,NA,36.76767676767677,NA
29150,Sumter County,SC,NA,32.323232323232325,NA
29210,Richland County,SC,NA,55.55555555555556,NA
29406,Charleston County,SC,26.969696969696972,NA,NA
29407,Charleston County,SC,NA,NA,13.769751693002258
29414,Charleston County,SC,NA,27.878787878787882,NA
29488,Colleton County,SC,37.878787878787875,NA,NA
29512,Marlboro County,SC,NA,66.06060606060606,NA
29532,Darlington County,SC,NA,54.54545454545454,NA
29560,Florence County,SC,NA,NA,67.94582392776523
29609,Greenville County,SC,NA,NA,45.598194130925506
29621,Anderson County,SC,NA,NA,10.835214446952596
29640,Pickens County,SC,NA,NA,30.248306997742663
29642,Pickens County,SC,36.36363636363637,NA,NA
29671,Pickens County,SC,NA,NA,34.76297968397291
29681,Greenville County,SC,NA,16.767676767676768,NA
29706,Chester County,SC,84.24242424242424,NA,NA
29745,York County,SC,83.33333333333334,NA,NA
29803,Aiken County,SC,NA,10.909090909090908,NA
57078,Yankton County,SD,NA,62.22222222222222,NA
57501,Hughes County,SD,NA,66.66666666666666,NA
37033,Hickman County,TN,93.03030303030303,NA,83.97291196388262
37066,Sumner County,TN,NA,10.707070707070706,23.47629796839729
37072,Davidson County,TN,34.84848484848485,NA,NA
37083,Macon County,TN,NA,37.97979797979798,NA
37087,Wilson County,TN,17.575757575757574,NA,NA
37091,Marshall County,TN,42.12121212121212,NA,NA
37128,Rutherford County,TN,NA,53.333333333333336,NA
37186,Sumner County,TN,69.39393939393939,NA,NA
37190,Cannon County,TN,NA,87.47474747474747,NA
37206,Davidson County,TN,NA,45.45454545454545,NA
37211,Davidson County,TN,NA,NA,16.70428893905192
37214,Davidson County,TN,NA,NA,63.88261851015802
37379,Hamilton County,TN,42.72727272727273,NA,NA
37604,Washington County,TN,NA,NA,30.02257336343115
37616,Greene County,TN,NA,NA,90.06772009029346
37643,Carter County,TN,NA,9.090909090909092,NA
37658,Carter County,TN,NA,90.9090909090909,NA
37659,Washington County,TN,NA,93.33333333333333,NA
37683,Johnson County,TN,59.09090909090909,NA,NA
37756,Scott County,TN,99.39393939393939,NA,NA
37801,Blount County,TN,NA,15.555555555555555,NA
37841,Scott County,TN,NA,NA,87.58465011286681
37854,Roane County,TN,61.212121212121204,NA,NA
37873,Hawkins County,TN,NA,NA,97.74266365688487
37920,Knox County,TN,NA,NA,31.376975169300223
37938,Knox County,TN,NA,66.46464646464646,NA
38119,Shelby County,TN,NA,85.85858585858585,NA
38301,Madison County,TN,9.090909090909092,NA,NA
38344,Carroll County,TN,NA,NA,82.39277652370203
38382,Gibson County,TN,80.60606060606061,NA,NA
38401,Maury County,TN,NA,NA,18.058690744920995
38478,Giles County,TN,60.909090909090914,NA,NA
38572,Cumberland County,TN,NA,NA,67.04288939051919
38574,Putnam County,TN,NA,69.2929292929293,NA
38583,White County,TN,28.484848484848484,NA,NA
75062,Dallas County,TX,NA,NA,42.21218961625282
75094,Collin County,TX,NA,81.41414141414141,NA
75116,Dallas County,TX,NA,86.26262626262627,NA
75143,Henderson County,TX,NA,61.41414141414141,NA
75165,Ellis County,TX,NA,NA,22.121896162528216
75204,Dallas County,TX,63.93939393939394,NA,NA
75216,Dallas County,TX,NA,NA,4.966139954853273
75455,Titus County,TX,NA,NA,51.0158013544018
75457,Franklin County,TX,NA,NA,93.45372460496614
75460,Lamar County,TX,NA,71.51515151515152,NA
75497,Wood County,TX,NA,NA,94.13092550790067
75701,Smith County,TX,NA,NA,3.837471783295711
75762,Smith County,TX,78.78787878787878,NA,NA
75766,Cherokee County,TX,NA,NA,3.611738148984198
75771,Smith County,TX,NA,NA,12.415349887133182
75801,Anderson County,TX,NA,NA,70.42889390519187
75965,Nacogdoches County,TX,NA,NA,61.8510158013544
76049,Hood County,TX,NA,NA,23.702031602708804
76116,Tarrant County,TX,NA,NA,16.93002257336343
76133,Tarrant County,TX,19.393939393939394,NA,NA
76367,Wichita County,TX,NA,85.45454545454545,NA
76424,Stephens County,TX,73.03030303030303,NA,NA
76504,Bell County,TX,NA,2.8282828282828283,NA
76707,McLennan County,TX,NA,NA,85.32731376975168
76708,McLennan County,TX,79.6969696969697,NA,NA
77008,Harris County,TX,NA,92.52525252525253,NA
77016,Harris County,TX,NA,43.23232323232323,NA
77030,Harris County,TX,NA,NA,98.1941309255079
77041,Harris County,TX,NA,43.43434343434344,NA
77053,Fort Bend County,TX,NA,58.98989898989899,NA
77059,Harris County,TX,NA,NA,85.77878103837472
77071,Harris County,TX,NA,NA,65.91422121896161
77072,Harris County,TX,NA,NA,80.1354401805869
77075,Harris County,TX,92.72727272727272,NA,NA
77076,Harris County,TX,NA,68.28282828282828,NA
77078,Harris County,TX,NA,64.84848484848484,NA
77081,Harris County,TX,91.81818181818183,NA,NA
77084,Harris County,TX,NA,62.62626262626263,NA
77087,Harris County,TX,60.303030303030305,NA,NA
77099,Harris County,TX,NA,86.46464646464646,NA
77306,Montgomery County,TX,NA,82.22222222222221,NA
77360,Polk County,TX,NA,75.55555555555556,NA
77381,Montgomery County,TX,NA,NA,53.27313769751692
77389,Harris County,TX,NA,63.030303030303024,NA
77406,Fort Bend County,TX,NA,NA,48.306997742663654
77418,Austin County,TX,NA,NA,75.16930022573364
77449,Harris County,TX,NA,NA,54.627539503386004
77469,Fort Bend County,TX,81.21212121212122,NA,76.97516930022573
77474,Austin County,TX,NA,NA,83.29571106094808
77477,Fort Bend County,TX,NA,NA,79.68397291196389
77479,Fort Bend County,TX,NA,NA,29.119638826185103
77488,Wharton County,TX,NA,NA,98.41986455981942
77494,Fort Bend County,TX,NA,NA,34.08577878103837
77498,Fort Bend County,TX,NA,NA,84.65011286681715
77515,Brazoria County,TX,NA,NA,39.503386004514674
77554,Galveston County,TX,NA,79.39393939393939,NA
77562,Harris County,TX,80.9090909090909,NA,NA
77571,Harris County,TX,NA,81.01010101010101,NA
77625,Hardin County,TX,NA,NA,99.32279909706546
77662,Orange County,TX,45.45454545454545,NA,NA
77802,Brazos County,TX,28.18181818181818,NA,NA
77954,DeWitt County,TX,NA,61.61616161616161,NA
77979,Calhoun County,TX,NA,NA,58.91647855530474
77995,Lavaca County,TX,NA,NA,59.59367945823928
78028,Kerr County,TX,NA,17.373737373737374,NA
78041,Webb County,TX,NA,25.454545454545453,26.410835214446955
78061,Frio County,TX,NA,NA,92.09932279909707
78114,Wilson County,TX,58.18181818181818,NA,NA
78130,Comal County,TX,23.939393939393938,NA,NA
78201,Bexar County,TX,NA,NA,41.309255079006775
78207,Bexar County,TX,NA,NA,19.41309255079007
78210,Bexar County,TX,26.666666666666668,NA,NA
78247,Bexar County,TX,NA,62.62626262626263,NA
78251,Bexar County,TX,NA,80,NA
78258,Bexar County,TX,NA,NA,63.20541760722348
78380,Nueces County,TX,NA,NA,86.45598194130926
78404,Nueces County,TX,NA,84.44444444444444,NA
78501,Hidalgo County,TX,NA,25.050505050505052,NA
78520,Cameron County,TX,NA,33.33333333333333,NA
78541,Hidalgo County,TX,NA,NA,54.176072234762984
78542,Hidalgo County,TX,NA,NA,91.87358916478556
78574,Hidalgo County,TX,NA,NA,75.84650112866818
78576,Hidalgo County,TX,NA,99.79797979797979,NA
78586,Cameron County,TX,NA,50.505050505050505,NA
78596,Hidalgo County,TX,NA,NA,31.60270880361174
78626,Williamson County,TX,NA,51.31313131313131,NA
78648,Caldwell County,TX,NA,80.4040404040404,NA
78654,Burnet County,TX,NA,44.64646464646464,NA
78666,Hays County,TX,NA,41.01010101010101,NA
78702,Travis County,TX,80,NA,NA
78717,Williamson County,TX,86.96969696969697,NA,NA
78750,Travis County,TX,NA,79.7979797979798,NA
78758,Travis County,TX,NA,NA,94.80812641083521
78834,Dimmit County,TX,NA,NA,97.51693002257336
78840,Val Verde County,TX,NA,NA,40.85778781038375
78957,Bastrop County,TX,NA,87.87878787878788,NA
79107,Potter County,TX,NA,NA,66.81715575620768
79108,Potter County,TX,96.66666666666667,NA,NA
79109,Randall County,TX,NA,NA,80.81264108352144
79907,El Paso County,TX,39.696969696969695,NA,NA
79930,El Paso County,TX,NA,NA,93.45372460496614
84115,Salt Lake County,UT,40.60606060606061,NA,NA
84123,Salt Lake County,UT,21.21212121212121,NA,NA
05201,Bennington County,VT,NA,NA,34.76297968397291
05301,Windham County,VT,NA,NA,46.72686230248307
05478,Franklin County,VT,59.09090909090909,NA,NA
05641,Washington County,VT,NA,NA,11.963882618510159
20111,Prince William County,VA,NA,73.73737373737373,NA
22015,Fairfax County,VA,NA,50.90909090909091,NA
22026,Prince William County,VA,67.27272727272727,NA,NA
22201,Arlington County,VA,NA,91.71717171717172,NA
22207,Arlington County,VA,55.45454545454545,NA,NA
22302,Alexandria city,VA,NA,70.3030303030303,NA
22305,Alexandria city,VA,76.96969696969697,NA,NA
22401,Fredericksburg city,VA,50.303030303030305,NA,NA
22406,Stafford County,VA,NA,77.17171717171716,NA
22443,Westmoreland County,VA,NA,86.86868686868688,NA
23114,Chesterfield County,VA,93.93939393939394,NA,NA
23188,James City County,VA,NA,NA,0.6772009029345373
23223,Henrico County,VA,4.242424242424243,14.949494949494948,NA
23228,Henrico County,VA,NA,38.98989898989899,NA
23237,Chesterfield County,VA,48.18181818181818,NA,NA
23320,Chesapeake city,VA,NA,17.97979797979798,NA
23454,Virginia Beach city,VA,32.121212121212125,NA,NA
23462,Virginia Beach city,VA,NA,NA,3.3860045146726865
23464,Virginia Beach city,VA,NA,3.6363636363636362,NA
23502,Norfolk city,VA,NA,NA,39.729119638826184
23513,Norfolk city,VA,18.787878787878785,NA,NA
23607,Newport News city,VA,NA,48.282828282828284,NA
23669,Hampton city,VA,23.333333333333332,NA,NA
24012,Roanoke city,VA,NA,NA,30.9255079006772
24013,Roanoke city,VA,NA,87.27272727272727,NA
24014,Roanoke city,VA,NA,NA,64.78555304740406
24087,Montgomery County,VA,NA,98.98989898989899,NA
24201,Bristol city,VA,44.84848484848485,NA,46.04966139954853
24210,Washington County,VA,38.484848484848484,49.494949494949495,NA
24228,Dickenson County,VA,NA,NA,44.46952595936794
24230,Wise County,VA,46.96969696969697,NA,NA
24273,Norton city,VA,NA,75.35353535353535,NA
24279,Wise County,VA,85.45454545454545,NA,NA
24354,Smyth County,VA,NA,44.24242424242424,NA
98031,King County,WA,NA,18.181818181818183,NA
98034,King County,WA,NA,NA,29.79683972911964
98052,King County,WA,NA,NA,13.31828442437923
98119,King County,WA,NA,80.8080808080808,NA
98122,King County,WA,NA,47.070707070707066,NA
98204,Snohomish County,WA,63.030303030303024,NA,NA
98823,Grant County,WA,85.15151515151516,NA,NA
98944,Yakima County,WA,62.42424242424243,NA,NA
20019,District of Columbia,DC,NA,6.4646464646464645,NA
25071,Kanawha County,WV,58.78787878787879,NA,NA
25177,Kanawha County,WV,NA,37.77777777777778,NA
25271,Jackson County,WV,92.42424242424242,64.44444444444444,NA
25306,Kanawha County,WV,72.72727272727273,NA,NA
25312,Kanawha County,WV,NA,NA,90.29345372460497
25510,Cabell County,WV,NA,NA,89.39051918735892
25514,Wayne County,WV,97.27272727272728,NA,NA
25880,Raleigh County,WV,82.42424242424242,NA,NA
25901,Fayette County,WV,NA,54.34343434343434,NA
26101,Wood County,WV,NA,36.16161616161616,NA
26170,Pleasants County,WV,NA,NA,75.39503386004515
26301,Harrison County,WV,NA,47.27272727272727,NA
26501,Monongalia County,WV,NA,NA,37.69751693002257
26601,Braxton County,WV,NA,89.29292929292929,NA
53185,Racine County,WI,NA,NA,67.72009029345372
53205,Milwaukee County,WI,3.0303030303030303,NA,NA
53213,Milwaukee County,WI,NA,34.74747474747475,NA
53218,Milwaukee County,WI,NA,NA,37.24604966139955
53713,Dane County,WI,54.54545454545454,NA,NA
53716,Dane County,WI,NA,NA,84.42437923250564
54157,Marinette County,WI,NA,89.6969696969697,NA
54235,Door County,WI,NA,27.67676767676768,NA
54534,Iron County,WI,NA,NA,100
54729,Chippewa County,WI,NA,24.646464646464647,NA
54736,Pepin County,WI,NA,99.5959595959596,NA
54751,Dunn County,WI,NA,32.72727272727273,NA
54853,Polk County,WI,NA,82.02020202020202,NA
54904,Winnebago County,WI,NA,41.41414141414141,NA
82435,Park County,WY,89.0909090909091,NA,NA
