ZipCode,county,state,Youth,Adult,Retirement,Geriatric
35071,Jefferson County,AL,NA,74.5398773006135,NA,NA
35124,Shelby County,AL,61.57635467980296,NA,NA,NA
35579,Walker County,AL,NA,NA,96.30872483221476,NA
35582,Franklin County,AL,NA,NA,97.6510067114094,NA
35648,Lauderdale County,AL,NA,99.38650306748467,NA,NA
35750,Madison County,AL,80.29556650246306,NA,NA,NA
35758,Madison County,AL,NA,41.41104294478527,NA,NA
35773,Madison County,AL,NA,67.17791411042946,NA,NA
35805,Madison County,AL,NA,NA,NA,77.05627705627705
35810,Madison County,AL,NA,NA,23.154362416107382,NA
35811,Madison County,AL,NA,NA,44.29530201342282,NA
35824,Madison County,AL,100,NA,NA,NA
36025,Elmore County,AL,89.65517241379311,NA,NA,NA
36104,Montgomery County,AL,NA,NA,78.85906040268456,NA
36108,Montgomery County,AL,NA,NA,69.12751677852349,NA
36109,Montgomery County,AL,NA,NA,63.758389261744966,NA
36250,Calhoun County,AL,87.68472906403942,NA,NA,NA
36420,Covington County,AL,NA,NA,NA,67.09956709956711
36502,Escambia County,AL,NA,NA,45.63758389261745,NA
36507,Baldwin County,AL,NA,NA,90.26845637583892,NA
36613,Mobile County,AL,NA,NA,77.85234899328859,NA
36618,Mobile County,AL,77.83251231527095,NA,NA,NA
85006,Maricopa County,AZ,NA,46.62576687116564,NA,NA
85009,Maricopa County,AZ,NA,NA,28.523489932885905,NA
85028,Maricopa County,AZ,85.71428571428571,NA,NA,NA
85128,Pinal County,AZ,NA,43.558282208588956,NA,NA
85138,Pinal County,AZ,NA,42.63803680981595,NA,NA
85248,Maricopa County,AZ,NA,NA,31.543624161073826,NA
85249,Maricopa County,AZ,NA,NA,37.58389261744966,NA
85251,Maricopa County,AZ,NA,43.25153374233129,NA,NA
85255,Maricopa County,AZ,NA,53.68098159509203,NA,NA
85257,Maricopa County,AZ,NA,68.09815950920245,NA,NA
85260,Maricopa County,AZ,73.89162561576354,NA,NA,NA
85283,Maricopa County,AZ,NA,NA,27.85234899328859,NA
85302,Maricopa County,AZ,NA,60.42944785276073,NA,NA
85308,Maricopa County,AZ,NA,36.50306748466258,NA,NA
85338,Maricopa County,AZ,NA,NA,NA,78.78787878787878
85349,Yuma County,AZ,NA,36.809815950920246,NA,NA
85375,Maricopa County,AZ,NA,85.2760736196319,NA,NA
85381,Maricopa County,AZ,74.38423645320196,NA,NA,NA
85501,Gila County,AZ,NA,NA,98.99328859060402,NA
85711,Pima County,AZ,NA,NA,NA,40.25974025974026
85715,Pima County,AZ,NA,78.22085889570552,NA,NA
86401,Mohave County,AZ,NA,NA,NA,48.917748917748916
71701,Ouachita County,AR,NA,NA,NA,68.3982683982684
71943,Pike County,AR,NA,98.46625766871165,NA,NA
72150,Grant County,AR,NA,NA,NA,90.47619047619048
72401,Craighead County,AR,NA,NA,NA,16.883116883116884
72422,Clay County,AR,NA,NA,96.97986577181209,NA
72601,Boone County,AR,NA,NA,NA,21.21212121212121
90022,Los Angeles County,CA,NA,NA,NA,81.38528138528139
90026,Los Angeles County,CA,NA,NA,41.2751677852349,NA
90040,Los Angeles County,CA,NA,92.63803680981594,NA,NA
90044,Los Angeles County,CA,4.433497536945813,NA,NA,NA
90059,Los Angeles County,CA,57.635467980295566,NA,NA,NA
90062,Los Angeles County,CA,NA,NA,59.73154362416108,NA
90064,Los Angeles County,CA,NA,NA,82.88590604026845,NA
90278,Los Angeles County,CA,NA,61.963190184049076,NA,NA
90638,Los Angeles County,CA,NA,NA,NA,28.57142857142857
90640,Los Angeles County,CA,NA,38.65030674846626,NA,NA
90712,Los Angeles County,CA,76.84729064039408,NA,NA,NA
90746,Los Angeles County,CA,NA,NA,NA,76.19047619047619
91030,Los Angeles County,CA,87.192118226601,NA,NA,NA
91201,Los Angeles County,CA,NA,NA,NA,67.96536796536796
91306,Los Angeles County,CA,NA,83.43558282208589,NA,NA
91355,Los Angeles County,CA,NA,70.24539877300614,NA,NA
91504,Los Angeles County,CA,NA,NA,71.14093959731544,NA
91702,Los Angeles County,CA,41.37931034482759,NA,NA,NA
91730,San Bernardino County,CA,37.4384236453202,NA,37.24832214765101,NA
91732,Los Angeles County,CA,NA,NA,NA,30.735930735930733
91733,Los Angeles County,CA,NA,NA,NA,62.33766233766234
91744,Los Angeles County,CA,NA,19.018404907975462,NA,NA
91755,Los Angeles County,CA,NA,NA,NA,49.78354978354979
91932,San Diego County,CA,NA,77.60736196319019,NA,NA
92020,San Diego County,CA,NA,NA,NA,32.467532467532465
92203,Riverside County,CA,NA,NA,20.80536912751678,NA
92220,Riverside County,CA,NA,NA,NA,27.705627705627705
92264,Riverside County,CA,NA,NA,NA,13.41991341991342
92335,San Bernardino County,CA,13.30049261083744,NA,NA,NA
92345,San Bernardino County,CA,NA,58.58895705521472,NA,NA
92354,San Bernardino County,CA,NA,94.47852760736197,NA,NA
92376,San Bernardino County,CA,NA,NA,16.778523489932887,NA
92509,Riverside County,CA,NA,NA,NA,43.290043290043286
92544,Riverside County,CA,NA,NA,NA,64.06926406926407
92620,Orange County,CA,60.09852216748769,NA,NA,NA
92629,Orange County,CA,NA,NA,NA,35.93073593073593
92881,Riverside County,CA,89.16256157635468,NA,NA,NA
93015,Ventura County,CA,NA,NA,NA,96.96969696969697
93035,Ventura County,CA,75.36945812807882,NA,NA,NA
93240,Kern County,CA,NA,NA,NA,85.28138528138528
93277,Tulare County,CA,NA,NA,19.463087248322147,NA
93304,Kern County,CA,NA,NA,80.20134228187919,NA
93306,Kern County,CA,NA,21.472392638036812,NA,NA
93534,Los Angeles County,CA,53.20197044334976,NA,NA,NA
93611,Fresno County,CA,NA,NA,35.90604026845637,NA
93619,Fresno County,CA,NA,46.012269938650306,NA,NA
93631,Fresno County,CA,NA,75.4601226993865,NA,NA
93705,Fresno County,CA,NA,66.56441717791411,NA,NA
93706,Fresno County,CA,30.541871921182267,NA,NA,NA
93933,Monterey County,CA,NA,NA,48.322147651006716,NA
94002,San Mateo County,CA,NA,58.282208588957054,NA,NA
94124,San Francisco County,CA,NA,26.993865030674847,NA,NA
94303,San Mateo County,CA,42.364532019704434,NA,NA,NA
94403,San Mateo County,CA,NA,NA,NA,8.225108225108226
94503,Napa County,CA,NA,NA,NA,73.59307359307358
94536,Alameda County,CA,NA,NA,24.161073825503358,NA
94588,Alameda County,CA,NA,NA,NA,66.23376623376623
94601,Alameda County,CA,NA,NA,39.261744966442954,NA
94609,Alameda County,CA,NA,86.1963190184049,NA,NA
94621,Alameda County,CA,NA,33.74233128834356,NA,NA
94705,Alameda County,CA,NA,NA,NA,82.25108225108225
94947,Marin County,CA,NA,NA,51.67785234899329,NA
94960,Marin County,CA,NA,NA,98.3221476510067,NA
95205,San Joaquin County,CA,NA,78.83435582822086,99.66442953020133,NA
95348,Merced County,CA,NA,NA,NA,86.14718614718615
95350,Stanislaus County,CA,NA,NA,14.093959731543624,NA
95351,Stanislaus County,CA,NA,NA,93.6241610738255,NA
95354,Stanislaus County,CA,NA,35.58282208588957,NA,NA
95376,San Joaquin County,CA,NA,NA,35.90604026845637,NA
95451,Lake County,CA,NA,79.14110429447852,NA,NA
95620,Solano County,CA,93.59605911330048,NA,NA,NA
95628,Sacramento County,CA,NA,NA,NA,25.97402597402597
95695,Yolo County,CA,NA,NA,85.90604026845638,NA
95747,Placer County,CA,NA,44.171779141104295,NA,NA
95823,Sacramento County,CA,NA,14.11042944785276,NA,29.43722943722944
95969,Butte County,CA,NA,32.82208588957055,NA,1.7316017316017316
96080,Tehama County,CA,NA,NA,28.187919463087248,NA
96130,Lassen County,CA,NA,NA,81.54362416107382,NA
80004,Jefferson County,CO,NA,NA,60.738255033557046,41.99134199134199
80022,Adams County,CO,NA,18.404907975460123,NA,NA
80120,Arapahoe County,CO,NA,NA,52.013422818791945,NA
80127,Jefferson County,CO,52.70935960591133,NA,NA,NA
80224,Denver County,CO,NA,64.11042944785275,NA,NA
80906,El Paso County,CO,NA,62.57668711656442,NA,NA
80916,El Paso County,CO,55.66502463054187,39.87730061349693,NA,NA
81211,Chaffee County,CO,NA,NA,NA,90.04329004329004
81403,Montrose County,CO,NA,79.4478527607362,NA,NA
81503,Mesa County,CO,NA,NA,88.25503355704699,NA
06026,Hartford County,CT,NA,NA,90.60402684563759,NA
06098,Litchfield County,CT,NA,NA,47.651006711409394,NA
06281,Windham County,CT,71.92118226600985,NA,NA,NA
06470,Fairfield County,CT,NA,NA,85.23489932885906,NA
06484,Fairfield County,CT,NA,NA,30.87248322147651,NA
06704,New Haven County,CT,NA,23.006134969325153,NA,NA
06824,Fairfield County,CT,NA,NA,NA,59.74025974025974
06854,Fairfield County,CT,NA,NA,74.49664429530202,NA
19703,New Castle County,DE,NA,61.34969325153374,NA,NA
19933,Sussex County,DE,95.07389162561576,NA,NA,NA
19938,Kent County,DE,NA,87.42331288343557,NA,NA
19947,Sussex County,DE,NA,NA,NA,56.27705627705628
19958,Sussex County,DE,NA,NA,4.3624161073825505,NA
19963,Sussex County,DE,NA,NA,NA,55.84415584415584
32073,Clay County,FL,NA,24.539877300613497,NA,NA
32080,St. Johns County,FL,NA,70.24539877300614,NA,NA
32112,Putnam County,FL,NA,95.70552147239265,NA,NA
32223,Duval County,FL,NA,NA,70.46979865771812,NA
32277,Duval County,FL,NA,NA,46.644295302013425,NA
32333,Gadsden County,FL,NA,NA,82.5503355704698,NA
32404,Bay County,FL,NA,59.50920245398773,NA,NA
32539,Okaloosa County,FL,86.20689655172413,NA,NA,NA
32570,Santa Rosa County,FL,NA,12.883435582822086,NA,NA
32726,Lake County,FL,NA,NA,NA,39.39393939393939
32773,Seminole County,FL,NA,51.84049079754601,NA,NA
32805,Orange County,FL,NA,NA,45.302013422818796,NA
32807,Orange County,FL,8.866995073891626,NA,NA,NA
32825,Orange County,FL,NA,34.04907975460122,NA,NA
32901,Brevard County,FL,78.32512315270937,NA,NA,NA
32903,Brevard County,FL,NA,NA,NA,83.11688311688312
32937,Brevard County,FL,NA,NA,NA,71.86147186147186
32958,Indian River County,FL,79.3103448275862,69.01840490797547,NA,NA
32966,Indian River County,FL,NA,NA,32.5503355704698,NA
33023,Broward County,FL,19.21182266009852,NA,NA,NA
33030,Miami-Dade County,FL,39.40886699507389,NA,NA,NA
33070,Monroe County,FL,NA,NA,93.95973154362416,NA
33136,Miami-Dade County,FL,NA,NA,NA,83.98268398268398
33143,Miami-Dade County,FL,63.54679802955665,NA,NA,47.18614718614719
33170,Miami-Dade County,FL,NA,82.20858895705521,NA,NA
33173,Miami-Dade County,FL,NA,NA,NA,19.480519480519483
33176,Miami-Dade County,FL,NA,68.40490797546013,NA,NA
33178,Miami-Dade County,FL,NA,73.92638036809815,NA,NA
33323,Broward County,FL,NA,81.28834355828221,NA,NA
33334,Broward County,FL,NA,56.44171779141104,NA,NA
33404,Palm Beach County,FL,14.77832512315271,NA,NA,NA
33408,Palm Beach County,FL,97.53694581280789,NA,NA,NA
33415,Palm Beach County,FL,51.724137931034484,NA,NA,NA
33417,Palm Beach County,FL,NA,NA,NA,24.242424242424242
33418,Palm Beach County,FL,NA,NA,NA,6.493506493506493
33435,Palm Beach County,FL,NA,NA,NA,58.87445887445888
33445,Palm Beach County,FL,NA,73.00613496932516,NA,NA
33449,Palm Beach County,FL,NA,93.55828220858896,NA,NA
33480,Palm Beach County,FL,NA,NA,NA,38.52813852813853
33558,Hillsborough County,FL,NA,NA,NA,83.54978354978356
33592,Hillsborough County,FL,72.41379310344827,NA,NA,NA
33614,Hillsborough County,FL,NA,38.95705521472393,NA,NA
33619,Hillsborough County,FL,NA,NA,40.26845637583892,NA
33852,Highlands County,FL,NA,NA,NA,3.463203463203463
33898,Polk County,FL,NA,60.122699386503065,NA,NA
33909,Lee County,FL,NA,46.93251533742331,NA,NA
33971,Lee County,FL,NA,58.895705521472394,NA,NA
34116,Collier County,FL,NA,NA,NA,86.58008658008657
34208,Manatee County,FL,NA,28.22085889570552,NA,NA
34287,Sarasota County,FL,NA,NA,NA,15.151515151515152
34691,Pasco County,FL,NA,48.77300613496933,NA,NA
34748,Lake County,FL,52.21674876847291,NA,NA,NA
34772,Osceola County,FL,NA,67.48466257668711,NA,NA
34788,Lake County,FL,NA,93.86503067484662,NA,NA
34981,St. Lucie County,FL,99.01477832512316,NA,NA,NA
34983,St. Lucie County,FL,23.15270935960591,NA,NA,NA
30005,Fulton County,GA,45.812807881773395,NA,NA,NA
30043,Gwinnett County,GA,NA,NA,50.671140939597315,NA
30161,Floyd County,GA,NA,19.938650306748464,22.818791946308725,NA
30236,Clayton County,GA,NA,33.12883435582822,NA,NA
30253,Henry County,GA,NA,NA,NA,45.02164502164502
30263,Coweta County,GA,13.793103448275861,13.190184049079754,NA,NA
30315,Fulton County,GA,NA,NA,26.845637583892618,NA
30521,Franklin County,GA,NA,92.33128834355828,NA,NA
30528,White County,GA,NA,NA,52.68456375838926,NA
30728,Walker County,GA,NA,40.1840490797546,NA,NA
31023,Dodge County,GA,NA,NA,73.15436241610739,NA
31313,Liberty County,GA,NA,NA,75.16778523489933,NA
31404,Chatham County,GA,NA,NA,42.61744966442953,NA
31520,Glynn County,GA,NA,55.21472392638037,NA,NA
31522,Glynn County,GA,NA,NA,NA,75.75757575757575
31523,Glynn County,GA,NA,84.3558282208589,NA,NA
31525,Glynn County,GA,NA,54.29447852760736,NA,NA
31537,Charlton County,GA,NA,67.79141104294479,NA,NA
31539,Jeff Davis County,GA,NA,NA,69.46308724832215,92.20779220779221
31546,Wayne County,GA,NA,85.88957055214725,NA,NA
31907,Muscogee County,GA,NA,10.429447852760736,NA,NA
96720,Hawaii County,HI,49.26108374384236,NA,NA,NA
96740,Hawaii County,HI,NA,NA,61.74496644295302,NA
96778,Hawaii County,HI,84.72906403940887,NA,NA,NA
96816,Honolulu County,HI,45.812807881773395,NA,NA,NA
96818,Honolulu County,HI,70.93596059113301,NA,NA,NA
96819,Honolulu County,HI,NA,NA,15.100671140939598,NA
96821,Honolulu County,HI,NA,NA,NA,13.852813852813853
83616,Ada County,ID,NA,NA,NA,9.956709956709958
83646,Ada County,ID,44.827586206896555,NA,NA,NA
83686,Canyon County,ID,NA,NA,5.033557046979865,NA
83714,Ada County,ID,NA,50,NA,NA
83815,Kootenai County,ID,NA,NA,21.140939597315437,NA
60046,Lake County,IL,NA,NA,NA,49.35064935064935
60051,McHenry County,IL,58.620689655172406,NA,NA,NA
60056,Cook County,IL,29.55665024630542,NA,NA,NA
60061,Lake County,IL,NA,NA,52.348993288590606,NA
60097,McHenry County,IL,NA,NA,71.81208053691275,NA
60130,Cook County,IL,NA,NA,68.12080536912751,NA
60152,McHenry County,IL,NA,77.30061349693251,84.22818791946308,NA
60156,McHenry County,IL,36.45320197044335,NA,NA,NA
60406,Cook County,IL,NA,NA,NA,57.57575757575758
60420,Livingston County,IL,NA,NA,93.95973154362416,NA
60423,Will County,IL,NA,NA,NA,47.61904761904761
60439,Cook County,IL,NA,48.15950920245399,NA,NA
60450,Grundy County,IL,16.25615763546798,NA,NA,NA
60459,Cook County,IL,NA,NA,NA,45.45454545454545
60461,Cook County,IL,NA,NA,NA,77.48917748917748
60506,Kane County,IL,26.108374384236456,NA,NA,NA
60516,DuPage County,IL,NA,NA,30.201342281879196,NA
60544,Will County,IL,NA,41.104294478527606,NA,NA
60555,DuPage County,IL,NA,69.93865030674846,NA,NA
60558,Cook County,IL,61.083743842364534,NA,NA,NA
60563,DuPage County,IL,NA,50.306748466257666,NA,NA
60607,Cook County,IL,NA,NA,50,NA
60644,Cook County,IL,NA,NA,NA,16.450216450216452
60645,Cook County,IL,NA,NA,23.825503355704697,NA
60655,Cook County,IL,25.12315270935961,NA,NA,NA
60656,Cook County,IL,NA,52.760736196319016,NA,NA
61032,Stephenson County,IL,62.5615763546798,NA,NA,NA
61068,Ogle County,IL,NA,NA,54.69798657718121,NA
61108,Winnebago County,IL,NA,NA,25.838926174496645,NA
61244,Rock Island County,IL,83.2512315270936,NA,NA,NA
61615,Peoria County,IL,NA,NA,62.751677852349,NA
62221,St. Clair County,IL,NA,NA,77.85234899328859,NA
62521,Macon County,IL,NA,15.030674846625766,NA,NA
62522,Macon County,IL,NA,NA,53.691275167785236,NA
62526,Macon County,IL,NA,NA,35.57046979865772,NA
62656,Logan County,IL,NA,NA,68.79194630872483,NA
62704,Sangamon County,IL,NA,NA,NA,10.38961038961039
62812,Franklin County,IL,NA,NA,NA,35.064935064935064
62930,Saline County,IL,NA,95.39877300613497,NA,NA
62959,Williamson County,IL,NA,NA,18.79194630872483,NA
46131,Johnson County,IN,50.73891625615764,NA,NA,NA
46135,Putnam County,IN,NA,NA,NA,41.125541125541126
46173,Rush County,IN,NA,59.20245398773007,NA,NA
46237,Marion County,IN,50.73891625615764,NA,NA,NA
46322,Lake County,IN,NA,NA,25.503355704697988,NA
46350,LaPorte County,IN,NA,NA,7.38255033557047,NA
46373,Lake County,IN,53.20197044334976,NA,NA,NA
46383,Porter County,IN,NA,9.815950920245399,NA,NA
46403,Lake County,IN,69.95073891625616,NA,NA,NA
46405,Lake County,IN,NA,NA,51.34228187919463,NA
46516,Elkhart County,IN,NA,NA,89.59731543624162,NA
46755,Noble County,IN,NA,NA,39.59731543624161,NA
46901,Howard County,IN,NA,NA,62.08053691275168,NA
46902,Howard County,IN,NA,NA,2.348993288590604,NA
46953,Grant County,IN,NA,NA,12.080536912751679,NA
47006,Ripley County,IN,NA,NA,NA,87.87878787878788
47150,Floyd County,IN,NA,NA,NA,24.675324675324674
47331,Fayette County,IN,NA,NA,13.422818791946309,NA
47586,Perry County,IN,NA,NA,72.48322147651007,NA
47710,Vanderburgh County,IN,NA,81.59509202453987,NA,NA
47807,Vigo County,IN,NA,NA,80.53691275167785,NA
47909,Tippecanoe County,IN,NA,NA,48.65771812080537,NA
50158,Marshall County,IA,38.42364532019704,NA,NA,NA
50320,Polk County,IA,NA,NA,66.77852348993288,NA
50322,Polk County,IA,NA,NA,57.71812080536913,NA
50548,Humboldt County,IA,NA,97.85276073619632,NA,NA
51503,Pottawattamie County,IA,NA,NA,4.026845637583892,NA
52211,Poweshiek County,IA,98.52216748768473,NA,NA,NA
52403,Linn County,IA,75.86206896551724,NA,NA,NA
52537,Davis County,IA,NA,88.34355828220859,NA,NA
52732,Clinton County,IA,NA,22.392638036809817,NA,NA
52804,Scott County,IA,NA,66.87116564417178,NA,NA
66212,Johnson County,KS,20.689655172413794,NA,NA,NA
67801,Ford County,KS,NA,NA,61.40939597315436,NA
40031,Oldham County,KY,NA,34.66257668711656,NA,NA
40033,Marion County,KY,NA,NA,NA,89.17748917748918
40160,Hardin County,KY,NA,34.96932515337423,NA,NA
40204,Jefferson County,KY,NA,78.52760736196319,NA,NA
40213,Jefferson County,KY,NA,NA,51.006711409395976,NA
40215,Jefferson County,KY,NA,NA,45.97315436241611,NA
40216,Jefferson County,KY,NA,37.11656441717792,NA,NA
40218,Jefferson County,KY,NA,NA,NA,61.904761904761905
40291,Jefferson County,KY,47.29064039408867,NA,18.120805369127517,NA
40337,Montgomery County,KY,NA,93.25153374233128,NA,NA
40342,Anderson County,KY,NA,38.34355828220859,NA,NA
40403,Madison County,KY,NA,NA,42.95302013422819,NA
40419,Lincoln County,KY,NA,82.51533742331289,NA,NA
40509,Fayette County,KY,NA,35.58282208588957,NA,NA
40517,Fayette County,KY,NA,NA,43.624161073825505,NA
40741,Laurel County,KY,NA,NA,NA,51.94805194805194
40906,Knox County,KY,NA,NA,79.19463087248322,NA
41537,Letcher County,KY,NA,88.95705521472392,NA,NA
41653,Floyd County,KY,NA,47.85276073619632,NA,NA
42066,Graves County,KY,NA,NA,NA,34.1991341991342
42071,Calloway County,KY,NA,NA,NA,43.722943722943725
42101,Warren County,KY,NA,8.588957055214724,NA,NA
42127,Barren County,KY,NA,89.2638036809816,NA,NA
42129,Metcalfe County,KY,NA,NA,64.42953020134227,NA
42167,Monroe County,KY,NA,65.03067484662577,NA,NA
42220,Todd County,KY,NA,NA,85.57046979865773,NA
42240,Christian County,KY,NA,NA,14.76510067114094,NA
42276,Logan County,KY,NA,57.97546012269939,NA,NA
42345,Muhlenberg County,KY,NA,NA,NA,63.20346320346321
42431,Hopkins County,KY,NA,NA,28.859060402684566,NA
42501,Pulaski County,KY,41.87192118226601,NA,NA,NA
42701,Hardin County,KY,NA,NA,NA,3.896103896103896
42721,Grayson County,KY,NA,NA,84.8993288590604,NA
70058,Jefferson Parish,LA,NA,16.56441717791411,NA,NA
70072,Jefferson Parish,LA,0,NA,NA,NA
70094,Jefferson Parish,LA,79.80295566502463,NA,NA,NA
70124,Orleans Parish,LA,83.2512315270936,NA,NA,NA
70128,Orleans Parish,LA,NA,18.711656441717793,NA,NA
70374,Lafourche Parish,LA,NA,40.79754601226993,NA,NA
70507,Lafayette Parish,LA,30.049261083743843,NA,NA,NA
70515,Evangeline Parish,LA,NA,92.02453987730061,NA,NA
70520,Lafayette Parish,LA,3.9408866995073892,NA,NA,NA
70526,Acadia Parish,LA,NA,26.380368098159508,NA,NA
70544,Iberia Parish,LA,56.65024630541872,NA,NA,NA
70548,Vermilion Parish,LA,NA,NA,79.19463087248322,NA
70560,Iberia Parish,LA,NA,3.374233128834356,NA,NA
70570,St. Landry Parish,LA,NA,NA,NA,18.181818181818183
70605,Calcasieu Parish,LA,NA,NA,NA,34.1991341991342
70663,Calcasieu Parish,LA,NA,10.736196319018406,NA,NA
70806,East Baton Rouge Parish,LA,NA,NA,NA,41.55844155844156
71055,Webster Parish,LA,NA,95.0920245398773,NA,NA
71112,Bossier Parish,LA,NA,NA,NA,32.900432900432904
71202,Ouachita Parish,LA,1.9704433497536946,NA,NA,NA
71203,Ouachita Parish,LA,NA,11.349693251533742,NA,NA
71303,Rapides Parish,LA,NA,64.41717791411043,NA,NA
71351,Avoyelles Parish,LA,56.65024630541872,NA,NA,NA
04401,Penobscot County,ME,NA,2.7607361963190185,NA,NA
04605,Hancock County,ME,62.06896551724138,NA,NA,NA
04609,Hancock County,ME,NA,NA,92.9530201342282,NA
04619,Washington County,ME,NA,94.1717791411043,NA,94.37229437229438
04938,Franklin County,ME,NA,54.601226993865026,NA,NA
04950,Somerset County,ME,69.45812807881774,NA,NA,NA
04957,Somerset County,ME,98.0295566502463,NA,NA,NA
20602,Charles County,MD,85.22167487684729,NA,NA,NA
20716,Prince George's County,MD,NA,65.95092024539878,NA,NA
20745,Prince George's County,MD,NA,74.23312883435584,NA,NA
21043,Howard County,MD,NA,NA,46.308724832214764,NA
21050,Harford County,MD,NA,NA,74.49664429530202,NA
21157,Carroll County,MD,NA,NA,48.99328859060403,NA
21223,Baltimore city,MD,NA,36.19631901840491,NA,NA
21227,Baltimore County,MD,70.44334975369459,NA,NA,NA
21601,Talbot County,MD,NA,NA,NA,33.76623376623377
01440,Worcester County,MA,NA,13.496932515337424,NA,NA
01604,Worcester County,MA,NA,0.9202453987730062,NA,NA
01702,Middlesex County,MA,NA,1.2269938650306749,NA,NA
01721,Middlesex County,MA,54.679802955665025,NA,NA,NA
01742,Middlesex County,MA,NA,NA,NA,29.87012987012987
01843,Essex County,MA,NA,80.98159509202453,NA,NA
01902,Essex County,MA,NA,NA,0.6711409395973155,NA
01915,Essex County,MA,NA,2.4539877300613497,NA,NA
01960,Essex County,MA,3.4482758620689653,NA,NA,NA
02038,Norfolk County,MA,NA,15.337423312883436,NA,NA
02048,Bristol County,MA,NA,98.77300613496932,13.758389261744966,37.22943722943723
02090,Norfolk County,MA,NA,NA,NA,44.15584415584416
02115,Suffolk County,MA,NA,NA,3.0201342281879198,NA
02118,Suffolk County,MA,NA,NA,NA,3.0303030303030303
02134,Suffolk County,MA,NA,NA,86.91275167785236,NA
02149,Middlesex County,MA,NA,0.3067484662576687,NA,NA
02190,Norfolk County,MA,71.42857142857143,NA,NA,NA
02301,Plymouth County,MA,NA,0,NA,NA
02302,Plymouth County,MA,NA,NA,1.6778523489932886,NA
02343,Norfolk County,MA,65.51724137931035,NA,NA,NA
02370,Plymouth County,MA,NA,NA,NA,60.60606060606061
02379,Plymouth County,MA,NA,NA,NA,93.5064935064935
02539,Dukes County,MA,84.23645320197043,NA,NA,NA
02717,Bristol County,MA,NA,NA,NA,90.9090909090909
02745,Bristol County,MA,NA,3.067484662576687,NA,NA
02748,Bristol County,MA,NA,NA,NA,25.108225108225106
02760,Bristol County,MA,22.167487684729064,NA,NA,NA
48114,Livingston County,MI,NA,NA,NA,57.14285714285714
48125,Wayne County,MI,NA,23.31288343558282,NA,NA
48127,Wayne County,MI,NA,NA,21.476510067114095,NA
48134,Wayne County,MI,NA,30.061349693251532,NA,NA
48135,Wayne County,MI,NA,NA,24.832214765100673,NA
48146,Wayne County,MI,NA,NA,NA,25.541125541125542
48154,Wayne County,MI,20.19704433497537,NA,NA,NA
48168,Wayne County,MI,33.004926108374384,NA,NA,NA
48173,Wayne County,MI,NA,NA,NA,67.53246753246754
48183,Wayne County,MI,NA,NA,NA,46.75324675324675
48195,Wayne County,MI,NA,24.846625766871167,NA,NA
48197,Washtenaw County,MI,NA,NA,1.342281879194631,NA
48220,Oakland County,MI,NA,NA,NA,55.41125541125541
48228,Wayne County,MI,0.49261083743842365,NA,NA,NA
48359,Oakland County,MI,NA,64.7239263803681,NA,NA
48507,Genesee County,MI,NA,NA,NA,38.095238095238095
48603,Saginaw County,MI,NA,NA,NA,6.0606060606060606
48708,Bay County,MI,NA,9.202453987730062,NA,NA
48723,Tuscola County,MI,NA,29.141104294478527,24.496644295302016,NA
48746,Tuscola County,MI,NA,80.67484662576688,NA,NA
48801,Gratiot County,MI,67.98029556650246,NA,NA,NA
48817,Shiawassee County,MI,NA,96.62576687116564,NA,NA
48846,Ionia County,MI,NA,41.717791411042946,NA,NA
49014,Calhoun County,MI,NA,NA,31.879194630872483,NA
49015,Calhoun County,MI,NA,NA,NA,12.554112554112553
49022,Berrien County,MI,NA,NA,NA,20.346320346320347
49083,Kalamazoo County,MI,NA,84.66257668711657,NA,NA
49098,Berrien County,MI,NA,90.49079754601227,NA,NA
49106,Berrien County,MI,NA,NA,95.63758389261746,NA
49201,Jackson County,MI,NA,11.65644171779141,NA,NA
49224,Calhoun County,MI,NA,56.74846625766872,NA,NA
49315,Kent County,MI,NA,NA,NA,42.42424242424242
49412,Newaygo County,MI,NA,NA,58.053691275167786,NA
49455,Oceana County,MI,NA,NA,NA,95.23809523809523
49505,Kent County,MI,NA,NA,NA,19.047619047619047
49601,Wexford County,MI,NA,NA,53.02013422818792,NA
49631,Osceola County,MI,NA,NA,67.11409395973155,NA
49659,Antrim County,MI,NA,NA,86.57718120805369,NA
49686,Grand Traverse County,MI,NA,NA,26.174496644295303,NA
49721,Cheboygan County,MI,NA,NA,NA,37.66233766233766
55060,Steele County,MN,35.467980295566505,NA,31.879194630872483,NA
55104,Ramsey County,MN,5.911330049261084,NA,NA,NA
55118,Dakota County,MN,NA,NA,43.95973154362416,NA
55119,Ramsey County,MN,7.8817733990147785,NA,NA,NA
55313,Wright County,MN,NA,NA,NA,71.42857142857143
55316,Hennepin County,MN,31.03448275862069,NA,NA,NA
55387,Carver County,MN,NA,NA,87.58389261744966,NA
55407,Hennepin County,MN,NA,NA,NA,58.44155844155844
55432,Anoka County,MN,NA,23.619631901840492,NA,NA
55746,St. Louis County,MN,NA,26.68711656441718,NA,28.13852813852814
55802,St. Louis County,MN,NA,NA,95.9731543624161,NA
55904,Olmsted County,MN,NA,NA,38.25503355704698,NA
56001,Blue Earth County,MN,NA,NA,34.899328859060404,NA
56007,Freeborn County,MN,NA,NA,8.053691275167784,10.822510822510822
56031,Martin County,MN,NA,NA,NA,8.658008658008658
56303,Stearns County,MN,NA,32.515337423312886,NA,NA
56347,Todd County,MN,NA,81.90184049079755,NA,NA
56537,Otter Tail County,MN,NA,NA,9.395973154362416,NA
38611,Marshall County,MS,NA,NA,64.09395973154362,NA
38751,Sunflower County,MS,NA,NA,75.83892617449665,NA
38834,Alcorn County,MS,NA,20.245398773006134,NA,NA
38852,Tishomingo County,MS,NA,NA,65.77181208053692,NA
39042,Rankin County,MS,NA,NA,NA,54.97835497835498
39110,Madison County,MS,26.60098522167488,NA,NA,NA
39208,Rankin County,MS,NA,42.02453987730061,NA,NA
39350,Neshoba County,MS,NA,NA,NA,35.4978354978355
39402,Lamar County,MS,23.645320197044335,NA,NA,NA
39483,Marion County,MS,NA,NA,NA,98.26839826839827
39532,Harrison County,MS,NA,NA,NA,16.017316017316016
39652,Pike County,MS,NA,NA,82.21476510067114,NA
63074,St. Louis County,MO,81.2807881773399,NA,NA,NA
63090,Franklin County,MO,NA,76.38036809815951,NA,NA
63103,St. Louis city,MO,NA,87.11656441717791,NA,NA
63115,St. Louis city,MO,NA,NA,55.033557046979865,NA
63121,St. Louis County,MO,NA,30.981595092024538,NA,NA
63125,St. Louis County,MO,NA,46.31901840490797,NA,52.38095238095239
63133,St. Louis County,MO,93.10344827586206,NA,NA,NA
63301,St. Charles County,MO,NA,15.950920245398773,NA,NA
63368,St. Charles County,MO,NA,45.39877300613497,23.48993288590604,NA
63376,St. Charles County,MO,NA,12.269938650306749,NA,NA
63664,Washington County,MO,94.58128078817734,NA,NA,NA
63670,Ste. Genevieve County,MO,NA,NA,NA,68.83116883116884
63857,Dunklin County,MO,36.94581280788177,NA,NA,NA
64029,Jackson County,MO,NA,NA,80.87248322147651,NA
64050,Jackson County,MO,NA,NA,NA,48.05194805194805
64055,Jackson County,MO,11.822660098522167,NA,NA,NA
64056,Jackson County,MO,NA,27.300613496932513,NA,NA
64062,Ray County,MO,NA,NA,NA,97.83549783549783
64080,Cass County,MO,NA,NA,76.51006711409396,NA
64116,Clay County,MO,54.187192118226605,25.4601226993865,NA,NA
64119,Clay County,MO,10.344827586206897,NA,NA,36.36363636363637
64154,Platte County,MO,NA,75.15337423312883,NA,NA
64429,Clinton County,MO,19.704433497536947,NA,NA,NA
64505,Buchanan County,MO,NA,33.43558282208589,NA,NA
64506,Buchanan County,MO,NA,53.987730061349694,NA,NA
64804,Jasper County,MO,NA,NA,NA,7.35930735930736
65301,Pettis County,MO,NA,5.828220858895705,NA,NA
65613,Polk County,MO,NA,NA,NA,15.584415584415584
65803,Greene County,MO,NA,12.576687116564417,NA,NA
68107,Douglas County,NE,43.84236453201971,NA,NA,NA
68137,Douglas County,NE,48.76847290640394,NA,NA,NA
68154,Douglas County,NE,NA,NA,NA,60.17316017316018
68310,Gage County,NE,NA,NA,54.36241610738255,NA
68818,Hamilton County,NE,NA,NA,NA,84.84848484848484
68845,Buffalo County,NE,NA,NA,NA,74.89177489177489
89117,Clark County,NV,NA,NA,36.91275167785235,NA
89121,Clark County,NV,NA,28.52760736196319,NA,NA
89142,Clark County,NV,77.33990147783251,NA,NA,NA
89169,Clark County,NV,NA,55.828220858895705,NA,NA
89423,Douglas County,NV,NA,NA,NA,59.307359307359306
89431,Washoe County,NV,NA,21.779141104294478,41.61073825503356,26.406926406926406
03064,Hillsborough County,NH,9.852216748768473,NA,NA,NA
03235,Merrimack County,NH,NA,68.40490797546013,NA,NA
03276,Merrimack County,NH,NA,NA,83.89261744966443,NA
07017,Essex County,NJ,12.807881773399016,NA,NA,NA
07036,Union County,NJ,NA,NA,17.78523489932886,NA
07054,Morris County,NJ,NA,NA,34.22818791946309,NA
07067,Middlesex County,NJ,NA,76.07361963190185,NA,NA
07072,Bergen County,NJ,NA,NA,93.28859060402685,NA
07094,Hudson County,NJ,NA,98.15950920245399,NA,NA
07111,Essex County,NJ,NA,NA,9.060402684563758,NA
07446,Bergen County,NJ,NA,NA,92.28187919463086,NA
07501,Passaic County,NJ,66.50246305418719,NA,16.44295302013423,54.112554112554115
07514,Passaic County,NJ,NA,NA,NA,78.35497835497836
07712,Monmouth County,NJ,NA,4.294478527607362,NA,NA
07726,Monmouth County,NJ,NA,NA,27.516778523489933,NA
07728,Monmouth County,NJ,NA,NA,14.429530201342283,NA
07733,Monmouth County,NJ,NA,NA,73.8255033557047,NA
08005,Ocean County,NJ,97.04433497536947,83.74233128834356,NA,NA
08028,Gloucester County,NJ,NA,53.37423312883436,NA,NA
08031,Camden County,NJ,99.50738916256158,NA,NA,NA
08033,Camden County,NJ,NA,NA,NA,69.6969696969697
08043,Camden County,NJ,33.004926108374384,NA,NA,NA
08052,Burlington County,NJ,NA,28.834355828220858,NA,NA
08054,Burlington County,NJ,NA,25.153374233128833,NA,NA
08075,Burlington County,NJ,NA,16.257668711656443,NA,NA
08077,Burlington County,NJ,NA,NA,63.42281879194631,NA
08079,Salem County,NJ,90.64039408866995,NA,NA,NA
08081,Camden County,NJ,NA,1.8404907975460123,NA,NA
08088,Burlington County,NJ,NA,NA,NA,54.112554112554115
08094,Gloucester County,NJ,NA,NA,11.74496644295302,NA
08103,Camden County,NJ,NA,NA,21.812080536912752,NA
08110,Camden County,NJ,NA,15.644171779141105,NA,NA
08302,Cumberland County,NJ,92.61083743842364,1.5337423312883436,NA,NA
08360,Cumberland County,NJ,76.35467980295566,NA,NA,NA
08510,Monmouth County,NJ,NA,NA,100,NA
08618,Mercer County,NJ,88.17733990147784,NA,7.38255033557047,NA
08648,Mercer County,NJ,96.55172413793103,NA,NA,NA
08723,Ocean County,NJ,NA,NA,NA,77.92207792207793
08724,Ocean County,NJ,NA,37.11656441717792,NA,NA
08820,Middlesex County,NJ,NA,NA,26.51006711409396,NA
08857,Middlesex County,NJ,NA,NA,NA,23.809523809523807
08865,Warren County,NJ,NA,6.441717791411043,NA,NA
88030,Luna County,NM,NA,NA,NA,61.038961038961034
88201,Chaves County,NM,NA,NA,38.59060402684564,NA
10001,New York County,NY,NA,14.417177914110429,NA,NA
10002,New York County,NY,NA,NA,NA,0
10025,New York County,NY,NA,NA,NA,18.614718614718615
10027,New York County,NY,NA,6.748466257668712,NA,NA
10466,Bronx County,NY,NA,6.134969325153374,NA,NA
10504,Westchester County,NY,NA,NA,NA,93.93939393939394
10562,Westchester County,NY,15.763546798029557,NA,NA,NA
10583,Westchester County,NY,NA,NA,NA,29.004329004329005
10591,Westchester County,NY,NA,NA,76.51006711409396,NA
10701,Westchester County,NY,NA,NA,2.684563758389262,NA
10805,Westchester County,NY,NA,NA,NA,98.7012987012987
10952,Rockland County,NY,NA,NA,88.59060402684564,NA
10990,Orange County,NY,NA,NA,NA,44.58874458874459
11106,Queens County,NY,NA,NA,89.26174496644296,NA
11206,Kings County,NY,6.896551724137931,17.177914110429448,NA,NA
11220,Kings County,NY,NA,4.9079754601226995,NA,NA
11233,Kings County,NY,27.093596059113302,NA,NA,NA
11367,Queens County,NY,NA,50.61349693251533,NA,NA
11368,Queens County,NY,44.33497536945813,NA,NA,NA
11374,Queens County,NY,NA,NA,NA,22.51082251082251
11375,Queens County,NY,NA,NA,NA,33.33333333333333
11379,Queens County,NY,NA,NA,NA,52.81385281385281
11385,Queens County,NY,NA,NA,11.409395973154362,NA
11420,Queens County,NY,NA,NA,NA,31.16883116883117
11530,Nassau County,NY,NA,NA,86.24161073825503,NA
11552,Nassau County,NY,NA,NA,NA,58.00865800865801
11580,Nassau County,NY,NA,NA,NA,30.303030303030305
11706,Suffolk County,NY,NA,NA,33.89261744966443,NA
11720,Suffolk County,NY,NA,NA,75.50335570469798,NA
11743,Suffolk County,NY,NA,NA,NA,11.255411255411255
11768,Suffolk County,NY,NA,91.1042944785276,NA,NA
11782,Suffolk County,NY,NA,NA,NA,74.45887445887446
11788,Suffolk County,NY,NA,NA,NA,72.72727272727273
12047,Albany County,NY,NA,NA,57.38255033557047,NA
12095,Fulton County,NY,NA,NA,32.88590604026846,NA
12550,Orange County,NY,47.783251231527096,NA,NA,NA
12901,Clinton County,NY,NA,4.601226993865031,NA,NA
13077,Cortland County,NY,NA,61.65644171779141,NA,NA
13126,Oswego County,NY,NA,NA,NA,7.792207792207792
13148,Seneca County,NY,NA,25.766871165644172,NA,NA
13165,Seneca County,NY,NA,NA,22.483221476510067,NA
13210,Onondaga County,NY,NA,NA,71.81208053691275,NA
13421,Madison County,NY,24.63054187192118,NA,NA,NA
13456,Oneida County,NY,NA,96.31901840490798,NA,NA
13732,Tioga County,NY,72.9064039408867,NA,NA,NA
13760,Broome County,NY,NA,NA,0.33557046979865773,NA
13827,Tioga County,NY,35.467980295566505,22.699386503067483,NA,NA
13905,Broome County,NY,NA,NA,5.369127516778524,NA
14075,Erie County,NY,34.97536945812808,11.042944785276074,6.0402684563758395,NA
14086,Erie County,NY,NA,NA,55.70469798657718,NA
14103,Orleans County,NY,NA,NA,NA,80.08658008658008
14127,Erie County,NY,NA,49.693251533742334,16.10738255033557,NA
14221,Erie County,NY,NA,NA,NA,9.523809523809524
14224,Erie County,NY,NA,7.668711656441718,8.389261744966444,NA
14428,Monroe County,NY,NA,NA,87.24832214765101,NA
14450,Monroe County,NY,NA,3.6809815950920246,NA,NA
14502,Wayne County,NY,NA,NA,91.2751677852349,NA
14608,Monroe County,NY,38.91625615763547,NA,NA,NA
14611,Monroe County,NY,4.926108374384237,NA,NA,NA
14626,Monroe County,NY,NA,NA,2.013422818791946,NA
14719,Cattaraugus County,NY,91.13300492610837,NA,NA,NA
14760,Cattaraugus County,NY,NA,NA,13.087248322147651,NA
14867,Tompkins County,NY,NA,NA,58.38926174496645,NA
14873,Steuben County,NY,NA,NA,99.32885906040269,NA
14891,Schuyler County,NY,NA,NA,NA,88.74458874458875
14904,Chemung County,NY,NA,NA,97.98657718120806,NA
27023,Forsyth County,NC,49.26108374384236,NA,NA,NA
27025,Rockingham County,NC,NA,NA,78.52348993288591,NA
27027,Rockingham County,NC,95.56650246305419,97.54601226993866,NA,NA
27040,Forsyth County,NC,NA,NA,NA,62.77056277056276
27265,Guilford County,NC,NA,21.165644171779142,NA,NA
27292,Davidson County,NC,NA,NA,1.006711409395973,NA
27320,Rockingham County,NC,18.226600985221676,NA,NA,NA
27370,Randolph County,NC,NA,73.31288343558282,NA,NA
27403,Guilford County,NC,88.66995073891626,NA,NA,NA
27520,Johnston County,NC,NA,NA,33.557046979865774,NA
27576,Johnston County,NC,59.60591133004927,NA,55.369127516778526,NA
27870,Halifax County,NC,NA,NA,NA,79.22077922077922
27909,Pasquotank County,NC,NA,NA,NA,20.77922077922078
28054,Gaston County,NC,NA,NA,NA,32.03463203463203
28110,Union County,NC,28.57142857142857,NA,NA,NA
28173,Union County,NC,NA,NA,50.33557046979866,NA
28303,Cumberland County,NC,NA,NA,NA,51.082251082251084
28306,Bladen County,NC,27.586206896551722,NA,NA,NA
28311,Cumberland County,NC,NA,26.07361963190184,NA,NA
28340,Robeson County,NC,NA,NA,69.79865771812081,NA
28345,Richmond County,NC,NA,60.73619631901841,NA,NA
28358,Robeson County,NC,NA,17.791411042944784,NA,NA
28425,Pender County,NC,NA,NA,60.06711409395973,NA
28560,Craven County,NC,NA,30.368098159509206,NA,NA
28590,Pitt County,NC,NA,NA,64.76510067114094,NA
28612,Burke County,NC,NA,NA,56.375838926174495,NA
28645,Caldwell County,NC,NA,5.214723926380368,NA,0.4329004329004329
28650,Catawba County,NC,NA,65.33742331288343,NA,NA
28655,Burke County,NC,NA,7.975460122699387,NA,NA
28677,Iredell County,NC,NA,NA,21.812080536912752,NA
28681,Alexander County,NC,NA,NA,40.939597315436245,NA
28716,Haywood County,NC,NA,NA,42.281879194630875,NA
28768,Transylvania County,NC,NA,85.58282208588957,NA,NA
28786,Haywood County,NC,NA,NA,18.456375838926174,NA
58072,Barnes County,ND,NA,NA,NA,75.32467532467533
58504,Burleigh County,ND,NA,NA,NA,19.913419913419915
43023,Licking County,OH,78.32512315270937,NA,NA,NA
43050,Knox County,OH,NA,NA,3.3557046979865772,NA
43110,Franklin County,OH,NA,23.92638036809816,NA,NA
43138,Hocking County,OH,NA,31.28834355828221,NA,NA
43209,Franklin County,OH,NA,NA,35.23489932885906,NA
43228,Franklin County,OH,NA,NA,NA,21.645021645021643
43232,Franklin County,OH,NA,5.521472392638037,NA,NA
43609,Lucas County,OH,NA,7.05521472392638,NA,NA
43612,Lucas County,OH,NA,NA,17.114093959731544,NA
43613,Lucas County,OH,NA,19.631901840490798,NA,NA
43731,Perry County,OH,NA,NA,89.93288590604027,NA
44030,Ashtabula County,OH,NA,NA,15.436241610738255,NA
44035,Lorain County,OH,NA,0.6134969325153374,0,NA
44057,Lake County,OH,NA,29.447852760736197,NA,NA
44112,Cuyahoga County,OH,NA,10.122699386503067,4.697986577181208,NA
44121,Cuyahoga County,OH,NA,NA,47.31543624161073,NA
44135,Cuyahoga County,OH,0.9852216748768473,NA,NA,NA
44138,Cuyahoga County,OH,NA,34.355828220858896,59.395973154362416,NA
44145,Cuyahoga County,OH,14.285714285714285,NA,NA,NA
44201,Portage County,OH,NA,91.41104294478528,NA,NA
44221,Summit County,OH,NA,NA,NA,9.090909090909092
44223,Summit County,OH,NA,NA,53.355704697986575,NA
44333,Summit County,OH,NA,NA,NA,40.692640692640694
44484,Trumbull County,OH,NA,84.96932515337423,NA,NA
44512,Mahoning County,OH,NA,NA,NA,14.71861471861472
44646,Stark County,OH,NA,NA,12.416107382550337,NA
44705,Stark County,OH,NA,59.8159509202454,NA,NA
44814,Erie County,OH,89.65517241379311,NA,NA,NA
44890,Huron County,OH,NA,NA,60.40268456375839,NA
45042,Butler County,OH,11.330049261083744,NA,NA,NA
45107,Clinton County,OH,NA,NA,NA,74.02597402597402
45150,Clermont County,OH,NA,NA,30.536912751677853,NA
45223,Hamilton County,OH,NA,NA,87.91946308724832,NA
45224,Hamilton County,OH,NA,NA,NA,81.81818181818183
45229,Hamilton County,OH,NA,NA,67.78523489932886,NA
45231,Hamilton County,OH,NA,NA,19.12751677852349,NA
45239,Hamilton County,OH,NA,NA,NA,42.857142857142854
45245,Clermont County,OH,NA,NA,NA,92.64069264069265
45247,Hamilton County,OH,NA,91.71779141104295,NA,NA
45248,Hamilton County,OH,50.24630541871922,NA,NA,NA
45255,Hamilton County,OH,NA,NA,NA,48.484848484848484
45503,Clark County,OH,NA,NA,NA,6.926406926406926
45662,Scioto County,OH,NA,NA,19.798657718120804,NA
45669,Lawrence County,OH,34.48275862068966,NA,NA,64.93506493506493
45693,Adams County,OH,NA,52.45398773006135,NA,NA
45697,Adams County,OH,NA,97.23926380368098,NA,NA
45750,Washington County,OH,NA,2.147239263803681,NA,NA
45804,Allen County,OH,NA,NA,25.16778523489933,NA
45840,Hancock County,OH,15.270935960591133,NA,NA,NA
45895,Auglaize County,OH,NA,NA,33.22147651006711,NA
73096,Custer County,OK,NA,NA,NA,80.95238095238095
73135,Oklahoma County,OK,NA,NA,57.04697986577181,NA
73159,Oklahoma County,OK,NA,49.38650306748466,NA,NA
73533,Stephens County,OK,8.374384236453201,NA,NA,NA
74011,Tulsa County,OK,NA,65.6441717791411,NA,NA
74048,Nowata County,OK,NA,94.78527607361963,NA,NA
74070,Osage County,OK,NA,NA,79.86577181208054,NA
74074,Payne County,OK,NA,49.079754601226995,NA,NA
74403,Muskogee County,OK,NA,NA,29.53020134228188,NA
74464,Cherokee County,OK,NA,NA,20.13422818791946,NA
74820,Pontotoc County,OK,NA,NA,5.704697986577181,NA
74848,Hughes County,OK,NA,76.68711656441718,NA,NA
74864,Lincoln County,OK,NA,NA,96.64429530201343,NA
74873,Pottawatomie County,OK,NA,NA,66.44295302013423,NA
74941,Haskell County,OK,NA,100,NA,NA
74966,Le Flore County,OK,92.11822660098522,NA,NA,NA
97005,Washington County,OR,NA,50.920245398773,NA,NA
97086,Clackamas County,OR,NA,NA,NA,53.67965367965368
97103,Clatsop County,OR,NA,57.05521472392638,NA,NA
97212,Multnomah County,OR,NA,NA,74.16107382550335,NA
97305,Marion County,OR,NA,NA,NA,63.63636363636363
97504,Jackson County,OR,NA,NA,12.751677852348994,NA
97524,Jackson County,OR,NA,NA,59.06040268456376,NA
97603,Klamath County,OR,NA,NA,NA,1.2987012987012987
97801,Umatilla County,OR,NA,NA,27.181208053691275,NA
15009,Beaver County,PA,82.26600985221675,NA,NA,NA
15108,Allegheny County,PA,NA,NA,17.449664429530202,NA
15301,Washington County,PA,6.403940886699508,NA,NA,NA
15317,Washington County,PA,NA,NA,NA,11.688311688311687
15332,Washington County,PA,NA,83.12883435582822,NA,NA
15501,Somerset County,PA,NA,NA,NA,50.21645021645021
15601,Westmoreland County,PA,2.955665024630542,NA,NA,NA
15632,Westmoreland County,PA,NA,NA,NA,65.36796536796537
15642,Westmoreland County,PA,NA,22.085889570552148,NA,NA
15801,Clearfield County,PA,NA,9.509202453987731,NA,NA
15905,Cambria County,PA,NA,NA,NA,23.376623376623375
16117,Lawrence County,PA,NA,NA,NA,26.83982683982684
16226,Armstrong County,PA,NA,NA,NA,66.66666666666666
16503,Erie County,PA,NA,NA,76.1744966442953,NA
16504,Erie County,PA,66.99507389162561,NA,NA,NA
16652,Huntingdon County,PA,NA,NA,NA,22.07792207792208
16735,McKean County,PA,80.29556650246306,NA,NA,NA
17019,York County,PA,47.783251231527096,NA,NA,NA
17044,Mifflin County,PA,NA,14.723926380368098,NA,NA
17104,Dauphin County,PA,NA,NA,37.919463087248324,87.44588744588745
17111,Dauphin County,PA,NA,NA,6.375838926174497,NA
17315,York County,PA,56.15763546798029,NA,NA,NA
17403,York County,PA,NA,3.9877300613496933,NA,NA
17522,Lancaster County,PA,NA,NA,NA,4.329004329004329
17603,Lancaster County,PA,NA,NA,8.724832214765101,NA
18109,Lehigh County,PA,NA,27.607361963190186,NA,NA
18229,Carbon County,PA,NA,NA,NA,87.01298701298701
18428,Pike County,PA,NA,99.69325153374233,NA,NA
18509,Lackawanna County,PA,NA,NA,67.4496644295302,NA
18702,Luzerne County,PA,18.7192118226601,NA,NA,NA
18704,Luzerne County,PA,NA,NA,NA,4.329004329004329
18966,Bucks County,PA,NA,NA,10.738255033557047,NA
19003,Montgomery County,PA,86.69950738916256,NA,NA,NA
19008,Delaware County,PA,NA,NA,NA,46.320346320346324
19021,Bucks County,PA,74.38423645320196,NA,NA,NA
19026,Delaware County,PA,17.733990147783253,NA,NA,NA
19072,Montgomery County,PA,68.4729064039409,88.03680981595092,NA,NA
19087,Chester County,PA,32.01970443349754,NA,NA,NA
19107,Philadelphia County,PA,NA,48.466257668711656,NA,NA
19118,Philadelphia County,PA,NA,NA,76.51006711409396,NA
19144,Philadelphia County,PA,NA,NA,9.731543624161073,NA
19145,Philadelphia County,PA,NA,31.901840490797547,NA,NA
19147,Philadelphia County,PA,NA,19.32515337423313,NA,NA
19150,Philadelphia County,PA,NA,NA,NA,39.39393939393939
19320,Chester County,PA,NA,11.96319018404908,NA,NA
19348,Chester County,PA,43.34975369458128,NA,NA,NA
19355,Chester County,PA,NA,43.86503067484663,NA,NA
19464,Montgomery County,PA,NA,7.361963190184049,NA,NA
19605,Berks County,PA,63.54679802955665,NA,NA,NA
02863,Providence County,RI,NA,NA,NA,65.80086580086581
29010,Lee County,SC,NA,75.4601226993865,NA,NA
29078,Kershaw County,SC,NA,79.75460122699386,NA,NA
29301,Spartanburg County,SC,NA,NA,NA,61.471861471861466
29307,Spartanburg County,SC,NA,NA,70.13422818791946,NA
29360,Laurens County,SC,NA,72.08588957055214,NA,NA
29420,Dorchester County,SC,NA,NA,NA,87.87878787878788
29488,Colleton County,SC,NA,38.036809815950924,NA,NA
29541,Florence County,SC,NA,NA,NA,96.53679653679653
29588,Horry County,SC,NA,NA,10.06711409395973,NA
29625,Anderson County,SC,39.90147783251231,NA,NA,NA
29657,Pickens County,SC,NA,51.22699386503068,NA,NA
29673,Greenville County,SC,46.79802955665024,NA,NA,NA
29681,Greenville County,SC,NA,NA,15.771812080536913,NA
29690,Greenville County,SC,NA,NA,NA,51.515151515151516
29732,York County,SC,NA,NA,NA,22.943722943722943
29841,Aiken County,SC,NA,55.52147239263804,NA,NA
57301,Davison County,SD,81.2807881773399,NA,NA,NA
57747,Fall River County,SD,NA,NA,NA,70.12987012987013
57772,Shannon County,SD,NA,NA,NA,100
37048,Sumner County,TN,NA,NA,97.31543624161074,NA
37055,Dickson County,TN,NA,24.233128834355828,NA,97.40259740259741
37075,Sumner County,TN,NA,NA,6.7114093959731544,NA
37087,Wilson County,TN,NA,NA,61.07382550335571,NA
37129,Rutherford County,TN,NA,NA,31.20805369127517,NA
37186,Sumner County,TN,NA,NA,81.87919463087249,NA
37206,Davidson County,TN,24.137931034482758,NA,NA,NA
37217,Davidson County,TN,NA,45.70552147239264,NA,NA
37221,Davidson County,TN,NA,66.25766871165644,NA,NA
37321,Rhea County,TN,NA,NA,38.59060402684564,NA
37331,McMinn County,TN,94.08866995073892,NA,NA,NA
37397,Marion County,TN,NA,NA,90.93959731543623,NA
37601,Washington County,TN,22.660098522167488,NA,NA,NA
37604,Washington County,TN,NA,20.858895705521473,NA,NA
37643,Carter County,TN,NA,13.803680981595093,NA,NA
37659,Washington County,TN,NA,39.263803680981596,NA,NA
37664,Sullivan County,TN,NA,NA,49.664429530201346,NA
37681,Washington County,TN,NA,89.87730061349694,NA,NA
37738,Sevier County,TN,NA,NA,94.96644295302013,NA
37760,Jefferson County,TN,NA,61.04294478527608,NA,NA
37772,Loudon County,TN,NA,NA,NA,69.26406926406926
37801,Blount County,TN,NA,NA,NA,31.16883116883117
37821,Cocke County,TN,NA,NA,NA,36.79653679653679
37861,Grainger County,TN,NA,NA,66.10738255033557,NA
37874,Monroe County,TN,NA,42.944785276073624,NA,NA
37917,Knox County,TN,NA,18.098159509202453,NA,NA
37938,Knox County,TN,NA,NA,NA,72.2943722943723
38108,Shelby County,TN,NA,NA,56.711409395973156,NA
38257,Obion County,TN,NA,89.57055214723927,NA,NA
38261,Obion County,TN,28.078817733990146,NA,NA,NA
38320,Benton County,TN,65.51724137931035,NA,NA,NA
38343,Gibson County,TN,NA,NA,54.0268456375839,NA
38344,Carroll County,TN,NA,72.39263803680981,NA,NA
38358,Gibson County,TN,NA,NA,NA,64.5021645021645
38375,McNairy County,TN,NA,NA,73.15436241610739,NA
38401,Maury County,TN,NA,8.895705521472392,7.046979865771812,NA
38462,Lewis County,TN,NA,69.32515337423312,NA,NA
38506,Putnam County,TN,NA,44.785276073619634,NA,NA
38571,Cumberland County,TN,NA,NA,44.63087248322148,NA
75042,Dallas County,TX,NA,NA,65.1006711409396,NA
75043,Dallas County,TX,NA,20.552147239263803,NA,NA
75061,Dallas County,TX,9.35960591133005,NA,NA,NA
75070,Collin County,TX,NA,16.87116564417178,NA,NA
75074,Collin County,TX,21.67487684729064,NA,NA,NA
75093,Collin County,TX,29.064039408866993,NA,NA,NA
75137,Dallas County,TX,NA,NA,77.51677852348993,NA
75147,Kaufman County,TX,NA,NA,NA,91.34199134199135
75154,Ellis County,TX,NA,47.239263803680984,NA,NA
75156,Henderson County,TX,NA,52.14723926380368,NA,NA
75401,Hunt County,TX,63.54679802955665,NA,NA,NA
75410,Wood County,TX,NA,90.49079754601227,NA,NA
75440,Rains County,TX,NA,90.1840490797546,NA,NA
75503,Bowie County,TX,NA,NA,56.04026845637584,NA
75551,Cass County,TX,NA,NA,95.30201342281879,NA
75601,Gregg County,TX,65.02463054187191,NA,NA,NA
75604,Gregg County,TX,58.128078817733986,NA,NA,NA
75605,Gregg County,TX,NA,NA,39.93288590604027,NA
75647,Gregg County,TX,NA,NA,NA,73.16017316017316
75801,Anderson County,TX,NA,63.80368098159509,NA,NA
75961,Nacogdoches County,TX,NA,NA,NA,96.1038961038961
76012,Tarrant County,TX,NA,NA,NA,50.649350649350644
76063,Tarrant County,TX,2.4630541871921183,NA,NA,NA
76067,Palo Pinto County,TX,NA,55.828220858895705,NA,NA
76240,Cooke County,TX,NA,42.331288343558285,NA,NA
76542,Bell County,TX,16.748768472906402,NA,NA,NA
76642,Limestone County,TX,NA,69.6319018404908,NA,NA
76706,McLennan County,TX,NA,37.73006134969325,NA,NA
76901,Tom Green County,TX,NA,53.06748466257669,NA,NA
77004,Harris County,TX,NA,29.754601226993866,NA,NA
77020,Harris County,TX,63.05418719211823,NA,NA,NA
77021,Harris County,TX,NA,NA,NA,53.246753246753244
77034,Harris County,TX,NA,NA,65.43624161073825,NA
77042,Harris County,TX,NA,NA,NA,79.65367965367966
77044,Harris County,TX,NA,39.57055214723926,NA,NA
77047,Harris County,TX,59.11330049261084,NA,NA,NA
77075,Harris County,TX,60.09852216748769,NA,NA,NA
77085,Harris County,TX,NA,86.50306748466258,NA,NA
77301,Montgomery County,TX,NA,57.668711656441715,NA,NA
77328,San Jacinto County,TX,NA,77.91411042944786,NA,NA
77346,Harris County,TX,NA,NA,34.56375838926174,NA
77385,Montgomery County,TX,40.39408866995074,NA,NA,NA
77396,Harris County,TX,31.527093596059114,NA,NA,NA
77433,Harris County,TX,NA,NA,20.469798657718123,NA
77469,Fort Bend County,TX,NA,NA,NA,45.887445887445885
77471,Fort Bend County,TX,NA,NA,NA,82.68398268398268
77546,Galveston County,TX,NA,NA,11.073825503355705,NA
77583,Brazoria County,TX,NA,NA,70.80536912751678,NA
77590,Galveston County,TX,10.83743842364532,NA,NA,NA
77627,Jefferson County,TX,NA,70.85889570552148,NA,NA
77632,Orange County,TX,NA,54.90797546012271,NA,NA
77662,Orange County,TX,NA,NA,49.328859060402685,NA
77705,Jefferson County,TX,42.364532019704434,NA,NA,NA
77706,Jefferson County,TX,NA,51.533742331288344,NA,NA
77845,Brazos County,TX,NA,NA,3.691275167785235,NA
77859,Robertson County,TX,NA,NA,NA,84.4155844155844
77979,Calhoun County,TX,NA,71.16564417177914,NA,NA
78040,Webb County,TX,NA,NA,NA,17.74891774891775
78043,Webb County,TX,NA,45.0920245398773,NA,NA
78108,Guadalupe County,TX,67.48768472906403,NA,NA,NA
78114,Wilson County,TX,NA,57.36196319018405,NA,NA
78155,Guadalupe County,TX,7.389162561576355,NA,NA,NA
78238,Bexar County,TX,NA,NA,83.55704697986577,NA
78332,Jim Wells County,TX,NA,62.88343558282209,NA,NA
78361,Jim Hogg County,TX,96.05911330049261,NA,NA,NA
78405,Nueces County,TX,NA,NA,NA,91.77489177489177
78410,Nueces County,TX,NA,NA,NA,89.6103896103896
78582,Starr County,TX,NA,NA,NA,27.27272727272727
78586,Cameron County,TX,NA,NA,47.98657718120805,NA
78628,Williamson County,TX,54.679802955665025,NA,NA,NA
78962,Colorado County,TX,NA,NA,NA,94.8051948051948
79119,Randall County,TX,73.39901477832512,NA,NA,NA
79549,Scurry County,TX,NA,NA,44.966442953020135,NA
79761,Ector County,TX,32.51231527093596,NA,NA,NA
84040,Davis County,UT,NA,NA,88.9261744966443,NA
84078,Uintah County,UT,NA,17.484662576687114,NA,NA
84084,Salt Lake County,UT,NA,NA,41.946308724832214,NA
84105,Salt Lake County,UT,NA,76.99386503067484,NA,NA
84404,Weber County,UT,12.31527093596059,NA,NA,NA
84501,Carbon County,UT,NA,63.190184049079754,84.56375838926175,NA
84651,Utah County,UT,NA,71.47239263803681,NA,NA
05446,Chittenden County,VT,NA,63.49693251533742,NA,NA
05641,Washington County,VT,NA,NA,NA,12.121212121212121
05676,Washington County,VT,NA,92.63803680981594,NA,NA
22041,Fairfax County,VA,NA,NA,68.45637583892618,NA
22408,Spotsylvania County,VA,NA,NA,58.38926174496645,NA
22554,Stafford County,VA,25.615763546798032,32.20858895705521,NA,NA
22657,Shenandoah County,VA,NA,NA,72.81879194630872,NA
23005,Hanover County,VA,82.75862068965517,NA,NA,NA
23093,Louisa County,VA,NA,99.079754601227,NA,NA
23227,Henrico County,VA,45.320197044334975,NA,NA,NA
23234,Chesterfield County,VA,1.477832512315271,NA,NA,NA
23322,Chesapeake city,VA,NA,NA,NA,14.285714285714285
23454,Virginia Beach city,VA,NA,NA,NA,2.1645021645021645
23950,Mecklenburg County,VA,NA,NA,NA,99.56709956709958
24012,Roanoke city,VA,NA,NA,43.288590604026844,NA
24017,Roanoke city,VA,33.99014778325123,NA,NA,NA
24073,Montgomery County,VA,37.93103448275862,NA,NA,NA
24236,Washington County,VA,NA,NA,92.61744966442953,NA
24244,Scott County,VA,NA,84.04907975460122,NA,NA
24256,Dickenson County,VA,NA,NA,94.63087248322147,NA
24277,Lee County,VA,NA,NA,NA,95.67099567099568
24354,Smyth County,VA,NA,NA,40.604026845637584,NA
24370,Smyth County,VA,NA,80.3680981595092,NA,NA
24531,Pittsylvania County,VA,91.62561576354679,NA,NA,NA
24540,Danville city,VA,NA,NA,29.194630872483224,NA
98012,Snohomish County,WA,NA,31.595092024539877,NA,NA
98020,Snohomish County,WA,NA,82.82208588957054,NA,NA
98208,Snohomish County,WA,21.182266009852217,NA,NA,NA
98360,Pierce County,WA,NA,74.84662576687117,NA,NA
98405,Pierce County,WA,NA,NA,63.08724832214765,NA
98512,Thurston County,WA,NA,NA,NA,70.56277056277057
98513,Thurston County,WA,NA,NA,62.41610738255034,NA
98580,Pierce County,WA,NA,96.93251533742331,NA,NA
98584,Mason County,WA,40.88669950738916,NA,NA,NA
98663,Clark County,WA,NA,NA,81.20805369127517,NA
98901,Yakima County,WA,68.96551724137932,NA,NA,NA
98908,Yakima County,WA,NA,40.49079754601227,NA,NA
99205,Spokane County,WA,NA,71.77914110429448,NA,NA
99223,Spokane County,WA,NA,NA,NA,56.709956709956714
99320,Benton County,WA,NA,86.80981595092024,NA,NA
99353,Benton County,WA,NA,88.65030674846625,NA,NA
24701,Mercer County,WV,NA,30.67484662576687,NA,NA
25530,Wayne County,WV,NA,73.61963190184049,NA,NA
25541,Cabell County,WV,NA,87.73006134969326,NA,NA
25570,Wayne County,WV,NA,72.69938650306749,NA,NA
25801,Raleigh County,WV,NA,NA,NA,5.627705627705628
25840,Fayette County,WV,NA,NA,NA,93.07359307359307
26164,Jackson County,WV,NA,62.26993865030674,NA,NA
26501,Monongalia County,WV,NA,NA,29.86577181208054,NA
26505,Monongalia County,WV,NA,NA,NA,17.316017316017316
53010,Fond du Lac County,WI,NA,NA,91.61073825503355,NA
53142,Kenosha County,WI,5.41871921182266,NA,NA,NA
53204,Milwaukee County,WI,NA,8.282208588957054,36.577181208053695,NA
53214,Milwaukee County,WI,NA,NA,10.40268456375839,NA
53220,Milwaukee County,WI,NA,NA,NA,12.987012987012985
53711,Dane County,WI,17.24137931034483,35.2760736196319,NA,NA
53910,Adams County,WI,NA,NA,98.65771812080537,NA
53916,Dodge County,WI,NA,44.47852760736196,46.97986577181208,NA
54201,Kewaunee County,WI,NA,96.0122699386503,NA,NA
54302,Brown County,WI,NA,27.914110429447852,NA,NA
54403,Marathon County,WI,NA,47.54601226993865,NA,NA
54457,Wood County,WI,NA,NA,NA,70.995670995671
54481,Portage County,WI,NA,NA,NA,5.194805194805195
54534,Iron County,WI,NA,NA,NA,99.13419913419914
54555,Price County,WI,NA,NA,91.94630872483222,NA
54650,La Crosse County,WI,NA,NA,NA,0.8658008658008658
54843,Sawyer County,WI,NA,NA,83.22147651006712,NA
54902,Winnebago County,WI,NA,NA,NA,38.961038961038966
54929,Waupaca County,WI,NA,NA,NA,85.71428571428571
54935,Fond du Lac County,WI,NA,NA,NA,2.5974025974025974
54982,Waushara County,WI,NA,NA,NA,80.51948051948052
82007,Laramie County,WY,NA,NA,NA,76.62337662337663
82501,Fremont County,WY,NA,80.06134969325154,71.47651006711409,NA
