ZipCode,county,state,Adult,Retirement,Geriatric
35022,Jefferson County,AL,NA,16.997167138810198,NA
35045,Chilton County,AL,NA,NA,93.9306358381503
35079,Blount County,AL,NA,NA,90.7514450867052
35217,Jefferson County,AL,49.35064935064935,NA,NA
35769,Jackson County,AL,NA,93.48441926345609,NA
35801,Madison County,AL,NA,NA,45.08670520231214
35802,Madison County,AL,NA,NA,25.43352601156069
35803,Madison County,AL,NA,37.960339943342774,NA
35811,Madison County,AL,40.909090909090914,NA,NA
35816,Madison County,AL,NA,NA,86.9942196531792
36067,Autauga County,AL,34.41558441558442,NA,NA
36104,Montgomery County,AL,NA,80.45325779036827,NA
36110,Montgomery County,AL,NA,NA,74.56647398843931
36207,Calhoun County,AL,NA,95.18413597733712,NA
36272,Calhoun County,AL,NA,93.76770538243626,NA
36352,Houston County,AL,89.93506493506493,NA,NA
36618,Mobile County,AL,NA,NA,71.67630057803468
99504,Anchorage Municipality,AK,NA,NA,60.115606936416185
99508,Anchorage Municipality,AK,NA,NA,64.16184971098265
99654,Matanuska-Susitna Borough,AK,NA,NA,75.14450867052022
85007,Maricopa County,AZ,NA,34.27762039660057,NA
85029,Maricopa County,AZ,NA,44.47592067988669,52.312138728323696
85031,Maricopa County,AZ,NA,70.53824362606233,NA
85033,Maricopa County,AZ,NA,43.05949008498583,NA
85119,Pinal County,AZ,NA,NA,48.554913294797686
85138,Pinal County,AZ,NA,NA,77.16763005780348
85206,Maricopa County,AZ,NA,NA,15.606936416184972
85207,Maricopa County,AZ,NA,67.42209631728045,NA
85210,Maricopa County,AZ,NA,86.11898016997166,NA
85212,Maricopa County,AZ,59.09090909090909,NA,NA
85233,Maricopa County,AZ,40.25974025974026,NA,NA
85306,Maricopa County,AZ,NA,NA,62.138728323699425
85349,Yuma County,AZ,NA,68.27195467422096,NA
85375,Maricopa County,AZ,NA,NA,2.023121387283237
85621,Santa Cruz County,AZ,NA,NA,39.884393063583815
85641,Pima County,AZ,86.68831168831169,NA,NA
85710,Pima County,AZ,NA,16.43059490084986,NA
85730,Pima County,AZ,NA,28.89518413597734,NA
85746,Pima County,AZ,NA,39.6600566572238,NA
86004,Coconino County,AZ,6.1688311688311686,NA,NA
86045,Coconino County,AZ,NA,NA,79.47976878612717
86314,Yavapai County,AZ,NA,25.21246458923513,NA
86401,Mohave County,AZ,NA,7.365439093484419,NA
86406,Mohave County,AZ,NA,27.762039660056658,NA
86409,Mohave County,AZ,7.792207792207792,NA,NA
86413,Mohave County,AZ,NA,92.91784702549575,NA
71603,Jefferson County,AR,70.12987012987013,NA,NA
71635,Ashley County,AR,86.03896103896103,NA,NA
72390,Phillips County,AR,NA,NA,95.95375722543352
72401,Craighead County,AR,NA,NA,20.23121387283237
72560,Stone County,AR,NA,64.30594900849859,NA
72712,Benton County,AR,48.05194805194805,NA,45.664739884393065
72715,Benton County,AR,NA,NA,23.699421965317917
72762,Washington County,AR,NA,NA,82.36994219653178
72903,Sebastian County,AR,75.97402597402598,NA,NA
90002,Los Angeles County,CA,NA,64.87252124645893,NA
90035,Los Angeles County,CA,NA,NA,30.346820809248555
90221,Los Angeles County,CA,36.038961038961034,NA,NA
90270,Los Angeles County,CA,NA,94.3342776203966,NA
90280,Los Angeles County,CA,30.519480519480517,NA,NA
90291,Los Angeles County,CA,NA,NA,71.09826589595376
90404,Los Angeles County,CA,85.06493506493507,NA,NA
90638,Los Angeles County,CA,85.3896103896104,NA,NA
90810,Los Angeles County,CA,NA,86.40226628895185,NA
91103,Los Angeles County,CA,NA,NA,70.8092485549133
91206,Los Angeles County,CA,NA,NA,15.028901734104046
91306,Los Angeles County,CA,40.58441558441558,NA,NA
91320,Ventura County,CA,NA,NA,53.179190751445084
91411,Los Angeles County,CA,98.37662337662337,NA,NA
91605,Los Angeles County,CA,NA,NA,83.23699421965318
91606,Los Angeles County,CA,62.66233766233766,85.8356940509915,NA
91701,San Bernardino County,CA,NA,NA,55.49132947976878
91766,Los Angeles County,CA,NA,50.14164305949008,NA
92027,San Diego County,CA,NA,NA,49.421965317919074
92078,San Diego County,CA,NA,53.54107648725213,NA
92109,San Diego County,CA,NA,60.05665722379604,NA
92115,San Diego County,CA,30.1948051948052,NA,NA
92122,San Diego County,CA,NA,NA,55.202312138728324
92126,San Diego County,CA,NA,34.844192634560905,NA
92231,Imperial County,CA,NA,13.881019830028329,NA
92234,Riverside County,CA,NA,18.69688385269122,NA
92284,San Bernardino County,CA,25.324675324675322,NA,NA
92324,San Bernardino County,CA,NA,43.626062322946176,NA
92371,San Bernardino County,CA,NA,NA,90.46242774566474
92397,San Bernardino County,CA,NA,89.51841359773371,NA
92399,San Bernardino County,CA,28.57142857142857,NA,NA
92509,Riverside County,CA,NA,39.94334277620396,86.41618497109826
92555,Riverside County,CA,NA,NA,80.63583815028902
92801,Orange County,CA,69.8051948051948,NA,NA
92804,Orange County,CA,NA,NA,28.034682080924856
92833,Orange County,CA,51.94805194805194,NA,54.91329479768786
92843,Orange County,CA,NA,56.657223796033996,NA
92869,Orange County,CA,63.961038961038966,NA,NA
93041,Ventura County,CA,67.20779220779221,NA,NA
93103,Santa Barbara County,CA,NA,NA,95.37572254335261
93257,Tulare County,CA,NA,24.645892351274785,NA
93312,Kern County,CA,38.63636363636363,NA,NA
93455,Santa Barbara County,CA,NA,NA,17.341040462427745
93535,Los Angeles County,CA,8.116883116883116,NA,NA
93551,Los Angeles County,CA,NA,59.490084985835686,NA
93635,Merced County,CA,92.53246753246754,NA,NA
93720,Fresno County,CA,31.493506493506494,NA,NA
94518,Contra Costa County,CA,NA,NA,59.82658959537572
94526,Contra Costa County,CA,NA,NA,47.10982658959538
94556,Contra Costa County,CA,NA,94.05099150141642,NA
94563,Contra Costa County,CA,NA,NA,79.1907514450867
94566,Alameda County,CA,NA,40.79320113314447,NA
95035,Santa Clara County,CA,82.46753246753246,NA,NA
95110,Santa Clara County,CA,NA,NA,94.50867052023122
95123,Santa Clara County,CA,NA,NA,68.20809248554913
95207,San Joaquin County,CA,19.805194805194805,NA,NA
95209,San Joaquin County,CA,NA,NA,65.3179190751445
95242,San Joaquin County,CA,NA,NA,52.02312138728323
95340,Merced County,CA,NA,NA,44.50867052023121
95354,Stanislaus County,CA,NA,61.756373937677054,NA
95540,Humboldt County,CA,NA,58.640226628895185,NA
95602,Placer County,CA,NA,NA,36.41618497109826
95603,Placer County,CA,NA,NA,31.502890173410403
95632,Sacramento County,CA,NA,NA,66.76300578034682
95966,Butte County,CA,NA,9.06515580736544,NA
95969,Butte County,CA,NA,NA,5.780346820809249
96097,Siskiyou County,CA,NA,NA,73.121387283237
96143,Placer County,CA,99.67532467532467,NA,NA
80127,Jefferson County,CO,46.42857142857143,NA,NA
80130,Douglas County,CO,81.16883116883116,NA,NA
80206,Denver County,CO,73.37662337662337,NA,NA
80228,Jefferson County,CO,NA,60.62322946175638,NA
80229,Adams County,CO,NA,44.47592067988669,NA
80723,Morgan County,CO,NA,NA,83.8150289017341
81212,Fremont County,CO,39.935064935064936,NA,NA
06066,Tolland County,CT,NA,18.980169971671387,NA
06082,Hartford County,CT,NA,NA,17.63005780346821
06084,Tolland County,CT,NA,NA,61.849710982658955
06488,New Haven County,CT,NA,39.376770538243626,NA
06790,Litchfield County,CT,NA,2.5495750708215295,NA
06795,Litchfield County,CT,NA,61.18980169971672,NA
06854,Fairfield County,CT,NA,76.77053824362606,NA
06906,Fairfield County,CT,98.7012987012987,NA,NA
19709,New Castle County,DE,NA,22.096317280453256,NA
19734,New Castle County,DE,NA,83.56940509915015,NA
19901,Kent County,DE,NA,19.54674220963173,NA
19904,Kent County,DE,12.662337662337661,NA,NA
19960,Sussex County,DE,79.87012987012987,NA,NA
19968,Sussex County,DE,78.24675324675324,NA,NA
32033,St. Johns County,FL,NA,93.20113314447592,NA
32063,Baker County,FL,NA,NA,88.4393063583815
32073,Clay County,FL,NA,NA,60.982658959537574
32114,Volusia County,FL,NA,NA,57.51445086705203
32117,Volusia County,FL,31.818181818181817,NA,NA
32134,Marion County,FL,NA,90.93484419263456,NA
32168,Volusia County,FL,NA,NA,32.947976878612714
32207,Duval County,FL,NA,11.89801699716714,NA
32210,Duval County,FL,3.2467532467532463,NA,NA
32211,Duval County,FL,19.480519480519483,NA,NA
32303,Leon County,FL,43.18181818181818,NA,NA
32501,Escambia County,FL,NA,NA,58.38150289017341
32533,Escambia County,FL,27.27272727272727,NA,NA
32726,Lake County,FL,NA,NA,72.25433526011561
32751,Orange County,FL,74.67532467532467,NA,NA
32825,Orange County,FL,30.844155844155846,NA,NA
32904,Brevard County,FL,48.37662337662338,NA,NA
32907,Brevard County,FL,NA,NA,22.254335260115607
32934,Brevard County,FL,NA,NA,77.74566473988439
32958,Indian River County,FL,NA,NA,7.514450867052023
33013,Miami-Dade County,FL,NA,72.52124645892351,NA
33020,Broward County,FL,27.5974025974026,NA,NA
33027,Broward County,FL,NA,41.64305949008499,NA
33033,Miami-Dade County,FL,41.23376623376623,56.09065155807366,NA
33034,Miami-Dade County,FL,NA,NA,89.01734104046243
33127,Miami-Dade County,FL,NA,NA,69.94219653179191
33135,Miami-Dade County,FL,NA,NA,28.61271676300578
33178,Miami-Dade County,FL,NA,NA,69.36416184971098
33186,Miami-Dade County,FL,53.246753246753244,NA,NA
33196,Miami-Dade County,FL,68.83116883116884,NA,NA
33312,Broward County,FL,NA,19.263456090651555,NA
33314,Broward County,FL,NA,NA,84.6820809248555
33404,Palm Beach County,FL,36.36363636363637,NA,NA
33408,Palm Beach County,FL,78.24675324675324,NA,NA
33440,Hendry County,FL,52.922077922077925,NA,NA
33511,Hillsborough County,FL,NA,NA,53.75722543352601
33513,Sumter County,FL,NA,NA,82.65895953757226
33538,Sumter County,FL,NA,96.3172804532578,NA
33544,Pasco County,FL,NA,58.92351274787535,NA
33565,Hillsborough County,FL,74.02597402597402,NA,NA
33573,Hillsborough County,FL,NA,NA,4.624277456647398
33616,Hillsborough County,FL,91.23376623376623,NA,NA
33619,Hillsborough County,FL,33.76623376623377,41.07648725212464,NA
33624,Hillsborough County,FL,55.84415584415584,NA,NA
33634,Hillsborough County,FL,71.1038961038961,NA,NA
33765,Pinellas County,FL,77.59740259740259,NA,NA
33781,Pinellas County,FL,NA,38.52691218130311,NA
33801,Polk County,FL,22.07792207792208,NA,NA
33837,Polk County,FL,NA,53.82436260623229,NA
33875,Highlands County,FL,NA,NA,47.97687861271676
33896,Polk County,FL,NA,NA,86.1271676300578
33901,Lee County,FL,55.519480519480524,47.30878186968839,NA
33909,Lee County,FL,41.883116883116884,NA,NA
33952,Charlotte County,FL,NA,34.56090651558073,35.26011560693642
33982,Charlotte County,FL,NA,87.53541076487252,NA
34120,Collier County,FL,NA,NA,85.83815028901735
34223,Sarasota County,FL,NA,58.92351274787535,NA
34231,Sarasota County,FL,84.74025974025975,NA,NA
34236,Sarasota County,FL,NA,NA,56.358381502890175
34238,Sarasota County,FL,85.71428571428571,NA,NA
34446,Citrus County,FL,NA,NA,39.30635838150289
34453,Citrus County,FL,NA,92.3512747875354,NA
34481,Marion County,FL,NA,NA,16.473988439306357
34608,Hernando County,FL,NA,NA,78.03468208092485
34667,Pasco County,FL,NA,NA,24.85549132947977
34668,Pasco County,FL,NA,24.07932011331445,NA
30016,Newton County,GA,NA,22.379603399433428,NA
30044,Gwinnett County,GA,NA,NA,88.15028901734104
30066,Cobb County,GA,NA,NA,37.57225433526011
30084,DeKalb County,GA,NA,NA,68.4971098265896
30165,Floyd County,GA,NA,NA,41.040462427745666
30185,Carroll County,GA,97.72727272727273,NA,NA
30215,Fayette County,GA,NA,NA,46.53179190751445
30238,Clayton County,GA,NA,64.02266288951841,NA
30248,Henry County,GA,61.038961038961034,NA,NA
30338,DeKalb County,GA,NA,NA,38.15028901734104
30349,Fulton County,GA,6.8181818181818175,NA,NA
30427,Tattnall County,GA,87.98701298701299,NA,NA
30458,Bulloch County,GA,NA,37.6770538243626,NA
30517,Jackson County,GA,87.01298701298701,NA,NA
30523,Habersham County,GA,NA,78.18696883852692,NA
30531,Habersham County,GA,NA,NA,91.04046242774567
30546,Towns County,GA,NA,72.80453257790369,NA
30721,Whitfield County,GA,NA,49.008498583569406,NA
30824,McDuffie County,GA,NA,53.25779036827195,NA
30901,Richmond County,GA,90.25974025974025,NA,NA
30907,Columbia County,GA,NA,11.3314447592068,NA
31316,Long County,GA,94.8051948051948,NA,NA
31322,Chatham County,GA,NA,77.33711048158641,NA
31329,Effingham County,GA,NA,95.75070821529745,NA
31411,Chatham County,GA,NA,NA,64.73988439306359
31419,Chatham County,GA,NA,NA,49.71098265895954
31520,Glynn County,GA,NA,NA,65.60693641618496
31537,Charlton County,GA,70.77922077922078,NA,NA
31773,Thomas County,GA,NA,98.30028328611898,NA
31792,Thomas County,GA,33.116883116883116,NA,NA
39837,Miller County,GA,NA,88.10198300283287,84.39306358381504
96701,Honolulu County,HI,NA,NA,13.005780346820808
96720,Hawaii County,HI,NA,82.15297450424929,NA
96748,Maui County,HI,94.48051948051948,NA,NA
96817,Honolulu County,HI,NA,5.382436260623229,NA
96822,Honolulu County,HI,NA,NA,13.294797687861271
96826,Honolulu County,HI,NA,70.82152974504248,NA
83301,Twin Falls County,ID,NA,13.031161473087819,NA
83544,Clearwater County,ID,NA,NA,99.42196531791907
83617,Gem County,ID,NA,50.70821529745042,NA
83687,Canyon County,ID,20.77922077922078,NA,NA
83713,Ada County,ID,NA,16.147308781869686,NA
83714,Ada County,ID,NA,15.29745042492918,NA
83805,Boundary County,ID,NA,NA,89.88439306358381
60004,Cook County,IL,NA,NA,63.29479768786127
60016,Cook County,IL,23.051948051948052,NA,NA
60035,Lake County,IL,NA,NA,4.335260115606936
60067,Cook County,IL,77.27272727272727,NA,NA
60115,DeKalb County,IL,NA,NA,32.080924855491325
60142,McHenry County,IL,NA,NA,3.7572254335260116
60440,Will County,IL,18.181818181818183,NA,NA
60450,Grundy County,IL,NA,17.847025495750707,23.410404624277454
60452,Cook County,IL,NA,NA,42.77456647398844
60455,Cook County,IL,NA,54.39093484419264,NA
60465,Cook County,IL,49.67532467532468,NA,NA
60482,Cook County,IL,NA,NA,97.10982658959537
60607,Cook County,IL,NA,51.84135977337111,NA
60623,Cook County,IL,NA,NA,19.36416184971098
60636,Cook County,IL,32.7922077922078,NA,NA
60637,Cook County,IL,NA,13.314447592067987,NA
60643,Cook County,IL,NA,NA,10.69364161849711
60714,Cook County,IL,NA,NA,14.450867052023122
61068,Ogle County,IL,71.75324675324676,NA,NA
61073,Winnebago County,IL,NA,42.77620396600567,NA
61081,Whiteside County,IL,66.23376623376623,NA,NA
61103,Winnebago County,IL,NA,91.5014164305949,NA
61265,Rock Island County,IL,NA,32.577903682719544,NA
61350,LaSalle County,IL,NA,71.38810198300283,NA
61554,Tazewell County,IL,26.948051948051948,NA,NA
61603,Peoria County,IL,88.63636363636364,NA,NA
61611,Tazewell County,IL,76.2987012987013,NA,NA
61614,Peoria County,IL,NA,74.22096317280453,NA
61761,McLean County,IL,38.961038961038966,NA,NA
61821,Champaign County,IL,NA,NA,16.184971098265898
62002,Madison County,IL,NA,NA,19.07514450867052
62220,St. Clair County,IL,NA,NA,72.54335260115607
62401,Effingham County,IL,NA,NA,36.127167630057805
62420,Clark County,IL,NA,NA,93.35260115606935
62568,Christian County,IL,80.1948051948052,97.73371104815864,NA
62656,Logan County,IL,NA,70.25495750708215,NA
62832,Perry County,IL,NA,NA,52.601156069364166
62864,Jefferson County,IL,NA,42.492917847025495,NA
62959,Williamson County,IL,NA,18.413597733711047,NA
62960,Massac County,IL,NA,NA,53.46820809248555
46041,Clinton County,IN,32.467532467532465,NA,NA
46135,Putnam County,IN,NA,NA,41.90751445086705
46140,Hancock County,IN,NA,NA,21.09826589595376
46142,Johnson County,IN,NA,NA,29.190751445086704
46158,Morgan County,IN,NA,NA,26.011560693641616
46201,Marion County,IN,NA,37.39376770538244,NA
46224,Marion County,IN,NA,NA,43.35260115606936
46235,Marion County,IN,17.857142857142858,NA,NA
46303,Lake County,IN,44.8051948051948,NA,NA
46408,Lake County,IN,NA,51.27478753541076,NA
46507,Elkhart County,IN,NA,90.08498583569406,NA
46526,Elkhart County,IN,NA,NA,43.641618497109825
46545,St. Joseph County,IN,49.02597402597403,NA,NA
46580,Kosciusko County,IN,NA,NA,34.68208092485549
46804,Allen County,IN,43.83116883116883,NA,NA
46805,Allen County,IN,NA,54.95750708215298,NA
46819,Allen County,IN,NA,NA,93.0635838150289
46901,Howard County,IN,NA,NA,8.38150289017341
46902,Howard County,IN,NA,3.1161473087818696,NA
46953,Grant County,IN,11.03896103896104,NA,NA
47150,Floyd County,IN,NA,7.0821529745042495,NA
47330,Wayne County,IN,92.20779220779221,NA,NA
47374,Wayne County,IN,21.1038961038961,NA,2.312138728323699
47630,Warrick County,IN,NA,NA,37.283236994219656
50010,Story County,IA,60.064935064935064,NA,NA
50322,Polk County,IA,NA,NA,61.27167630057804
51503,Pottawattamie County,IA,NA,3.6827195467422094,NA
52205,Jones County,IA,NA,NA,73.98843930635837
52302,Linn County,IA,NA,NA,44.797687861271676
52402,Linn County,IA,NA,NA,38.4393063583815
52403,Linn County,IA,NA,77.33711048158641,NA
66032,Anderson County,KS,NA,96.60056657223795,NA
66106,Wyandotte County,KS,NA,69.40509915014165,NA
66207,Johnson County,KS,NA,NA,45.95375722543353
66604,Shawnee County,KS,NA,43.90934844192634,NA
66609,Shawnee County,KS,NA,88.95184135977338,NA
66617,Shawnee County,KS,95.45454545454545,NA,NA
67203,Sedgwick County,KS,NA,NA,80.92485549132948
67204,Sedgwick County,KS,NA,71.95467422096317,NA
67213,Sedgwick County,KS,65.5844155844156,NA,NA
67460,McPherson County,KS,83.76623376623377,NA,NA
40160,Hardin County,KY,31.16883116883117,NA,57.22543352601156
40208,Jefferson County,KY,51.62337662337663,NA,NA
40214,Jefferson County,KY,6.493506493506493,NA,NA
40219,Jefferson County,KY,12.012987012987013,NA,NA
40229,Jefferson County,KY,11.363636363636363,NA,NA
40241,Jefferson County,KY,NA,NA,32.65895953757225
40272,Jefferson County,KY,12.987012987012985,16.71388101983003,NA
40356,Jessamine County,KY,13.311688311688311,NA,47.398843930635834
40475,Madison County,KY,NA,NA,25.14450867052023
40484,Lincoln County,KY,NA,61.18980169971672,NA
40504,Fayette County,KY,NA,65.43909348441926,NA
40701,Whitley County,KY,10.064935064935066,NA,30.057803468208093
40734,Knox County,KY,NA,98.01699716713881,NA
41035,Grant County,KY,45.45454545454545,NA,NA
41040,Pendleton County,KY,70.45454545454545,NA,NA
41071,Campbell County,KY,NA,35.977337110481585,NA
42003,McCracken County,KY,NA,NA,34.971098265895954
42066,Graves County,KY,NA,23.229461756373937,NA
42071,Calloway County,KY,NA,NA,86.70520231213872
42276,Logan County,KY,58.11688311688312,NA,NA
42301,Daviess County,KY,NA,10.764872521246458,NA
42701,Hardin County,KY,NA,NA,8.959537572254336
70092,St. Bernard Parish,LA,NA,NA,96.53179190751445
70427,Washington Parish,LA,14.61038961038961,NA,NA
70441,St. Helena Parish,LA,88.31168831168831,NA,NA
70460,St. Tammany Parish,LA,NA,NA,50.28901734104046
70461,St. Tammany Parish,LA,16.558441558441558,NA,NA
70508,Lafayette Parish,LA,NA,21.529745042492916,NA
70512,St. Landry Parish,LA,NA,78.47025495750708,NA
70578,Acadia Parish,LA,20.12987012987013,NA,NA
70586,Evangeline Parish,LA,NA,40.50991501416431,NA
70669,Calcasieu Parish,LA,56.81818181818182,NA,NA
70722,East Feliciana Parish,LA,81.4935064935065,NA,NA
71078,De Soto Parish,LA,NA,80.16997167138811,NA
71115,Caddo Parish,LA,NA,NA,42.19653179190752
71201,Ouachita Parish,LA,NA,NA,63.8728323699422
71203,Ouachita Parish,LA,7.467532467532467,NA,NA
71220,Morehouse Parish,LA,95.77922077922078,NA,NA
71263,West Carroll Parish,LA,NA,NA,59.53757225433526
71295,Franklin Parish,LA,99.02597402597402,NA,NA
71446,Vernon Parish,LA,96.1038961038961,NA,NA
03901,York County,ME,NA,84.98583569405099,NA
04073,York County,ME,NA,NA,18.497109826589593
04330,Kennebec County,ME,5.194805194805195,NA,NA
04619,Washington County,ME,86.36363636363636,NA,NA
04950,Somerset County,ME,NA,76.20396600566572,NA
04976,Somerset County,ME,15.584415584415584,NA,NA
20613,Prince George's County,MD,87.66233766233766,NA,NA
20678,Calvert County,MD,NA,NA,96.24277456647398
20743,Prince George's County,MD,NA,NA,54.6242774566474
20744,Prince George's County,MD,NA,NA,52.89017341040463
21227,Baltimore County,MD,NA,52.97450424929179,NA
21230,Baltimore city,MD,34.090909090909086,NA,NA
21502,Allegany County,MD,NA,19.8300283286119,NA
21784,Carroll County,MD,NA,NA,80.05780346820809
21811,Worcester County,MD,NA,28.328611898016998,NA
01040,Hampden County,MA,0,NA,NA
01104,Hampden County,MA,NA,92.63456090651559,NA
01331,Worcester County,MA,NA,NA,40.7514450867052
01364,Franklin County,MA,NA,62.606232294617556,NA
01440,Worcester County,MA,NA,NA,13.583815028901732
01568,Worcester County,MA,NA,NA,99.13294797687861
01602,Worcester County,MA,NA,NA,26.589595375722542
01702,Middlesex County,MA,NA,NA,6.358381502890173
01840,Essex County,MA,NA,99.43342776203966,NA
01902,Essex County,MA,NA,6.232294617563739,3.1791907514450863
01950,Essex County,MA,NA,NA,22.254335260115607
01970,Essex County,MA,NA,NA,9.248554913294797
02056,Norfolk County,MA,NA,81.86968838526913,NA
02139,Middlesex County,MA,98.05194805194806,NA,NA
02184,Norfolk County,MA,NA,NA,11.271676300578035
02189,Norfolk County,MA,22.4025974025974,NA,NA
02302,Plymouth County,MA,NA,1.9830028328611897,NA
02368,Norfolk County,MA,NA,4.815864022662889,NA
02420,Middlesex County,MA,35.38961038961039,NA,NA
02453,Middlesex County,MA,NA,15.01416430594901,NA
02718,Bristol County,MA,NA,100,NA
02721,Bristol County,MA,NA,NA,14.16184971098266
02723,Bristol County,MA,79.54545454545455,NA,NA
02740,Bristol County,MA,NA,0,NA
48001,St. Clair County,MI,72.72727272727273,NA,NA
48009,Oakland County,MI,NA,NA,56.936416184971094
48044,Macomb County,MI,NA,5.099150141643059,NA
48071,Oakland County,MI,NA,NA,48.26589595375722
48085,Oakland County,MI,NA,NA,78.90173410404624
48122,Wayne County,MI,NA,92.06798866855524,NA
48127,Wayne County,MI,NA,NA,9.53757225433526
48183,Wayne County,MI,NA,NA,14.739884393063585
48185,Wayne County,MI,4.220779220779221,NA,NA
48197,Washtenaw County,MI,1.2987012987012987,NA,NA
48221,Wayne County,MI,NA,32.86118980169972,NA
48313,Macomb County,MI,NA,62.3229461756374,NA
48323,Oakland County,MI,NA,NA,83.52601156069365
48390,Oakland County,MI,37.01298701298701,NA,NA
48439,Genesee County,MI,NA,15.58073654390935,NA
48473,Genesee County,MI,42.532467532467535,NA,NA
48504,Genesee County,MI,NA,46.45892351274787,NA
48532,Genesee County,MI,NA,41.92634560906516,NA
48601,Saginaw County,MI,NA,NA,6.9364161849710975
48647,Oscoda County,MI,92.85714285714286,NA,NA
48706,Bay County,MI,NA,1.69971671388102,NA
48723,Tuscola County,MI,NA,64.58923512747874,NA
48746,Tuscola County,MI,84.4155844155844,NA,NA
48750,Iosco County,MI,NA,NA,64.45086705202311
48846,Ionia County,MI,37.66233766233766,NA,NA
48917,Eaton County,MI,NA,7.932011331444759,NA
49013,Van Buren County,MI,NA,NA,85.26011560693641
49022,Berrien County,MI,NA,NA,21.38728323699422
49094,Branch County,MI,91.55844155844156,NA,NA
49201,Jackson County,MI,NA,NA,10.115606936416185
49250,Hillsdale County,MI,NA,81.01983002832861,NA
49337,Newaygo County,MI,71.42857142857143,NA,NA
49464,Ottawa County,MI,NA,NA,34.104046242774565
49684,Grand Traverse County,MI,58.44155844155844,NA,NA
49712,Charlevoix County,MI,NA,NA,60.40462427745664
49801,Dickinson County,MI,NA,NA,51.445086705202314
49913,Houghton County,MI,60.71428571428571,NA,NA
55076,Dakota County,MN,63.63636363636363,NA,NA
55109,Ramsey County,MN,NA,NA,33.23699421965318
55302,Wright County,MN,NA,NA,90.17341040462428
55336,McLeod County,MN,NA,75.3541076487252,NA
55431,Hennepin County,MN,NA,NA,71.38728323699422
56001,Blue Earth County,MN,NA,37.110481586402265,51.15606936416185
56013,Faribault County,MN,NA,NA,73.69942196531792
56265,Chippewa County,MN,79.22077922077922,NA,NA
56649,Koochiching County,MN,NA,60.90651558073654,NA
38834,Alcorn County,MS,NA,26.628895184135974,NA
38851,Chickasaw County,MS,NA,NA,91.90751445086705
39145,Rankin County,MS,NA,99.71671388101983,NA
39180,Warren County,MS,NA,NA,40.17341040462428
39183,Warren County,MS,NA,NA,78.61271676300578
39301,Lauderdale County,MS,NA,50.991501416430594,NA
39437,Jones County,MS,NA,79.88668555240793,NA
39540,Harrison County,MS,NA,66.57223796033995,NA
39773,Clay County,MS,NA,NA,76.01156069364163
63021,St. Louis County,MO,NA,NA,10.982658959537572
63028,Jefferson County,MO,NA,25.77903682719547,47.687861271676304
63031,St. Louis County,MO,NA,46.1756373937677,NA
63049,Jefferson County,MO,NA,NA,71.96531791907515
63110,St. Louis city,MO,NA,65.72237960339945,NA
63111,St. Louis city,MO,32.142857142857146,NA,NA
63118,St. Louis city,MO,NA,NA,82.08092485549133
63128,St. Louis County,MO,NA,24.362606232294617,NA
63136,St. Louis County,MO,NA,10.48158640226629,NA
63366,St. Charles County,MO,11.688311688311687,NA,NA
63379,Lincoln County,MO,NA,31.444759206798867,NA
63601,St. Francois County,MO,76.94805194805194,NA,NA
64050,Jackson County,MO,NA,NA,46.82080924855491
64123,Jackson County,MO,42.2077922077922,NA,NA
64133,Jackson County,MO,NA,3.9660056657223794,NA
64154,Platte County,MO,76.62337662337663,NA,NA
65559,Phelps County,MO,NA,NA,72.54335260115607
65802,Greene County,MO,10.714285714285714,NA,NA
65803,Greene County,MO,9.415584415584416,NA,NA
59101,Yellowstone County,MT,38.311688311688314,NA,NA
59635,Lewis and Clark County,MT,NA,NA,91.32947976878613
68506,Lancaster County,NE,77.59740259740259,NA,NA
89102,Clark County,NV,52.27272727272727,NA,NA
89119,Clark County,NV,NA,52.124645892351275,NA
89147,Clark County,NV,NA,83.0028328611898,NA
89502,Washoe County,NV,17.532467532467532,NA,NA
03103,Hillsborough County,NH,4.870129870129871,NA,NA
03246,Belknap County,NH,NA,NA,21.965317919075144
03820,Strafford County,NH,NA,NA,15.895953757225435
07020,Bergen County,NJ,NA,NA,88.72832369942196
07024,Bergen County,NJ,NA,NA,13.872832369942195
07052,Essex County,NJ,44.15584415584416,NA,NA
07055,Passaic County,NJ,NA,NA,31.79190751445087
07090,Union County,NJ,NA,96.03399433427762,NA
07093,Hudson County,NJ,5.844155844155844,NA,NA
07108,Essex County,NJ,NA,57.79036827195468,NA
07504,Passaic County,NJ,NA,94.61756373937678,98.84393063583815
07601,Bergen County,NJ,5.51948051948052,NA,NA
07603,Bergen County,NJ,NA,NA,87.57225433526011
07731,Monmouth County,NJ,28.8961038961039,NA,NA
07733,Monmouth County,NJ,NA,76.48725212464589,NA
07746,Monmouth County,NJ,NA,NA,69.07514450867052
08077,Burlington County,NJ,NA,66.85552407932012,NA
08094,Gloucester County,NJ,NA,NA,50
08205,Atlantic County,NJ,47.07792207792208,NA,NA
08360,Cumberland County,NJ,NA,8.78186968838527,NA
08361,Cumberland County,NJ,NA,52.69121813031161,NA
08609,Mercer County,NJ,NA,NA,76.58959537572254
08618,Mercer County,NJ,NA,5.94900849858357,NA
08619,Mercer County,NJ,48.701298701298704,NA,NA
08701,Ocean County,NJ,1.6233766233766231,NA,NA
08742,Ocean County,NJ,NA,NA,35.54913294797688
08759,Ocean County,NJ,NA,NA,0
08809,Hunterdon County,NJ,82.14285714285714,NA,NA
08857,Middlesex County,NJ,67.20779220779221,NA,NA
08861,Middlesex County,NJ,0.974025974025974,NA,NA
08873,Somerset County,NJ,NA,63.172804532577906,NA
87571,Taos County,NM,57.7922077922078,NA,NA
88011,Doa Ana County,NM,NA,47.59206798866856,NA
88231,Lea County,NM,NA,98.86685552407933,NA
88240,Lea County,NM,NA,NA,32.369942196531795
10001,New York County,NY,NA,33.42776203966006,NA
10002,New York County,NY,NA,NA,2.601156069364162
10011,New York County,NY,NA,18.13031161473088,NA
10025,New York County,NY,NA,NA,4.046242774566474
10032,New York County,NY,NA,5.6657223796034,NA
10039,New York County,NY,NA,NA,45.3757225433526
10301,Richmond County,NY,NA,NA,20.520231213872833
10309,Richmond County,NY,NA,50.14164305949008,NA
10453,Bronx County,NY,NA,0.84985835694051,NA
10467,Bronx County,NY,NA,0.28328611898017,NA
10468,Bronx County,NY,NA,57.22379603399433,NA
10475,Bronx County,NY,NA,NA,7.803468208092486
10520,Westchester County,NY,NA,94.90084985835693,NA
10703,Westchester County,NY,35.714285714285715,NA,NA
10801,Westchester County,NY,NA,NA,36.70520231213873
10923,Rockland County,NY,97.07792207792207,NA,NA
11201,Kings County,NY,NA,22.6628895184136,NA
11211,Kings County,NY,NA,NA,54.04624277456648
11219,Kings County,NY,NA,21.246458923512748,NA
11226,Kings County,NY,NA,20.679886685552407,NA
11235,Kings County,NY,NA,NA,15.31791907514451
11354,Queens County,NY,NA,NA,27.167630057803464
11357,Queens County,NY,NA,49.29178470254957,NA
11360,Queens County,NY,NA,NA,48.84393063583815
11370,Queens County,NY,NA,NA,62.71676300578035
11374,Queens County,NY,NA,NA,24.566473988439306
11419,Queens County,NY,NA,30.31161473087819,NA
11429,Queens County,NY,NA,33.14447592067989,NA
11432,Queens County,NY,NA,6.515580736543909,NA
11433,Queens County,NY,NA,68.55524079320114,NA
11725,Suffolk County,NY,NA,NA,24.277456647398843
11743,Suffolk County,NY,NA,NA,17.91907514450867
11763,Suffolk County,NY,NA,81.30311614730878,NA
11949,Suffolk County,NY,NA,86.96883852691218,NA
12078,Fulton County,NY,NA,9.34844192634561,NA
12204,Albany County,NY,NA,90.6515580736544,NA
13045,Cortland County,NY,NA,9.91501416430595,NA
13108,Onondaga County,NY,NA,NA,97.6878612716763
13165,Seneca County,NY,61.68831168831169,22.946175637393768,NA
13790,Broome County,NY,NA,NA,68.78612716763006
13830,Chenango County,NY,68.18181818181817,NA,NA
13905,Broome County,NY,NA,4.53257790368272,NA
14020,Genesee County,NY,NA,13.59773371104816,NA
14075,Erie County,NY,7.142857142857142,NA,46.24277456647399
14098,Orleans County,NY,NA,97.45042492917847,NA
14150,Erie County,NY,4.545454545454546,NA,NA
14206,Erie County,NY,NA,NA,74.85549132947978
14207,Erie County,NY,NA,84.70254957507082,NA
14224,Erie County,NY,NA,8.21529745042493,NA
14420,Monroe County,NY,14.935064935064934,NA,NA
14586,Monroe County,NY,NA,68.83852691218131,NA
14606,Monroe County,NY,NA,12.747875354107649,NA
14608,Monroe County,NY,NA,38.243626062322946,NA
14609,Monroe County,NY,NA,1.13314447592068,NA
14611,Monroe County,NY,NA,17.280453257790366,NA
14612,Monroe County,NY,NA,NA,34.39306358381503
14760,Cattaraugus County,NY,8.766233766233766,NA,NA
27107,Forsyth County,NC,NA,NA,19.942196531791907
27127,Forsyth County,NC,13.96103896103896,NA,NA
27239,Davidson County,NC,NA,79.03682719546742,NA
27317,Randolph County,NC,NA,74.5042492917847,NA
27360,Davidson County,NC,NA,4.2492917847025495,NA
27405,Guilford County,NC,9.740259740259742,NA,NA
27408,Guilford County,NC,NA,58.35694050991501,NA
27524,Johnston County,NC,NA,73.93767705382436,NA
27530,Wayne County,NC,65.9090909090909,23.512747875354105,NA
27536,Vance County,NC,NA,NA,23.98843930635838
27545,Wake County,NC,42.857142857142854,NA,NA
27591,Wake County,NC,NA,59.773371104815865,NA
27603,Wake County,NC,56.493506493506494,NA,NA
27617,Wake County,NC,NA,77.05382436260622,NA
27704,Durham County,NC,NA,NA,39.017341040462426
27856,Nash County,NC,NA,NA,76.30057803468208
27863,Wayne County,NC,NA,75.07082152974505,NA
27890,Halifax County,NC,100,NA,NA
27910,Hertford County,NC,NA,NA,66.1849710982659
27932,Chowan County,NC,56.16883116883117,NA,NA
28012,Gaston County,NC,64.6103896103896,NA,NA
28056,Gaston County,NC,93.5064935064935,NA,NA
28120,Gaston County,NC,NA,49.57507082152974,NA
28269,Mecklenburg County,NC,NA,NA,40.46242774566474
28270,Mecklenburg County,NC,63.31168831168831,NA,NA
28314,Cumberland County,NC,28.246753246753247,NA,NA
28349,Duplin County,NC,NA,99.15014164305948,NA
28358,Robeson County,NC,15.909090909090908,NA,NA
28382,Sampson County,NC,83.44155844155844,NA,NA
28394,Moore County,NC,NA,NA,95.66473988439307
28401,New Hanover County,NC,NA,33.711048158640224,NA
28501,Lenoir County,NC,NA,NA,58.092485549132945
28651,Wilkes County,NC,87.33766233766234,NA,NA
28655,Burke County,NC,NA,NA,11.849710982658959
28716,Haywood County,NC,50.649350649350644,NA,NA
28748,Buncombe County,NC,NA,86.40226628895185,NA
28779,Jackson County,NC,NA,63.45609065155807,NA
28792,Henderson County,NC,NA,10.198300283286118,1.7341040462427744
28906,Cherokee County,NC,NA,30.02832861189802,NA
58078,Cass County,ND,24.675324675324674,NA,NA
58201,Grand Forks County,ND,NA,NA,3.4682080924855487
43017,Franklin County,OH,NA,NA,37.861271676300575
43025,Licking County,OH,NA,NA,93.64161849710982
43054,Franklin County,OH,NA,69.12181303116147,NA
43055,Licking County,OH,NA,1.41643059490085,NA
43068,Franklin County,OH,8.441558441558442,NA,NA
43085,Franklin County,OH,NA,NA,81.21387283236994
43103,Pickaway County,OH,NA,71.671388101983,NA
43110,Franklin County,OH,NA,NA,67.34104046242774
43130,Fairfield County,OH,NA,2.8328611898017,5.202312138728324
43223,Franklin County,OH,NA,26.912181303116146,NA
43228,Franklin County,OH,NA,NA,22.832369942196532
43232,Franklin County,OH,2.272727272727273,NA,56.06936416184971
43512,Defiance County,OH,NA,NA,17.91907514450867
43567,Fulton County,OH,NA,41.359773371104815,NA
43610,Lucas County,OH,NA,96.88385269121812,NA
43612,Lucas County,OH,3.571428571428571,NA,NA
43952,Jefferson County,OH,27.92207792207792,NA,NA
44023,Geauga County,OH,72.40259740259741,NA,NA
44035,Lorain County,OH,NA,NA,0.5780346820809248
44041,Ashtabula County,OH,NA,NA,28.32369942196532
44052,Lorain County,OH,NA,NA,8.670520231213873
44060,Lake County,OH,NA,NA,1.1560693641618496
44102,Cuyahoga County,OH,0.3246753246753247,NA,NA
44105,Cuyahoga County,OH,15.259740259740258,NA,NA
44109,Cuyahoga County,OH,0.6493506493506493,NA,6.6473988439306355
44110,Cuyahoga County,OH,NA,6.79886685552408,NA
44111,Cuyahoga County,OH,10.38961038961039,NA,NA
44122,Cuyahoga County,OH,75.32467532467533,NA,NA
44134,Cuyahoga County,OH,NA,NA,6.069364161849711
44143,Cuyahoga County,OH,NA,NA,2.8901734104046244
44240,Portage County,OH,NA,21.813031161473088,NA
44256,Medina County,OH,NA,0.56657223796034,NA
44303,Summit County,OH,NA,73.08781869688386,NA
44319,Summit County,OH,51.298701298701296,NA,NA
44460,Columbiana County,OH,18.83116883116883,7.64872521246459,NA
44511,Mahoning County,OH,NA,NA,58.67052023121387
44647,Stark County,OH,NA,45.3257790368272,NA
44691,Wayne County,OH,NA,NA,16.76300578034682
44805,Ashland County,OH,12.337662337662337,NA,NA
44820,Crawford County,OH,56.81818181818182,NA,NA
44907,Richland County,OH,39.61038961038961,NA,NA
45014,Butler County,OH,NA,20.113314447592067,NA
45040,Warren County,OH,29.87012987012987,36.54390934844193,NA
45102,Clermont County,OH,NA,62.889518413597735,NA
45106,Clermont County,OH,NA,89.80169971671388,NA
45121,Brown County,OH,73.7012987012987,NA,NA
45171,Brown County,OH,NA,NA,89.30635838150289
45215,Hamilton County,OH,NA,87.25212464589235,NA
45239,Hamilton County,OH,16.233766233766232,NA,NA
45331,Darke County,OH,25,NA,NA
45356,Miami County,OH,NA,NA,30.63583815028902
45410,Montgomery County,OH,NA,95.46742209631728,NA
45424,Montgomery County,OH,NA,NA,9.826589595375722
45601,Ross County,OH,NA,NA,0.2890173410404624
45638,Lawrence County,OH,21.428571428571427,NA,29.47976878612717
45662,Scioto County,OH,NA,2.26628895184136,NA
45771,Meigs County,OH,NA,98.58356940509914,NA
45891,Van Wert County,OH,NA,NA,33.52601156069364
73026,Cleveland County,OK,NA,78.75354107648725,NA
73055,Stephens County,OK,NA,NA,75.14450867052022
73071,Cleveland County,OK,NA,14.44759206798867,NA
73075,Garvin County,OK,NA,NA,84.10404624277457
73099,Canadian County,OK,NA,33.994334277620396,NA
73110,Oklahoma County,OK,17.20779220779221,NA,NA
73111,Oklahoma County,OK,66.88311688311688,NA,NA
73115,Oklahoma County,OK,NA,NA,41.32947976878613
73159,Oklahoma County,OK,NA,28.611898016997166,NA
73651,Kiowa County,OK,96.75324675324676,NA,NA
73662,Beckham County,OK,NA,NA,99.71098265895954
74037,Tulsa County,OK,83.11688311688312,NA,NA
74441,Cherokee County,OK,NA,NA,92.77456647398844
74501,Pittsburg County,OK,52.27272727272727,NA,NA
74604,Kay County,OK,NA,NA,54.33526011560693
74801,Pottawatomie County,OK,NA,27.47875354107649,NA
74804,Pottawatomie County,OK,68.18181818181817,48.44192634560906,NA
74820,Pontotoc County,OK,NA,NA,27.45664739884393
74868,Seminole County,OK,73.05194805194806,NA,NA
74948,Sequoyah County,OK,NA,82.43626062322946,NA
74962,Sequoyah County,OK,97.40259740259741,NA,NA
97008,Washington County,OR,NA,56.657223796033996,NA
97132,Yamhill County,OR,37.98701298701299,NA,NA
97201,Multnomah County,OR,NA,NA,73.41040462427746
97424,Lane County,OR,NA,38.81019830028329,NA
97478,Lane County,OR,36.688311688311686,NA,NA
97814,Baker County,OR,75.64935064935064,NA,NA
97914,Malheur County,OR,22.727272727272727,NA,NA
15001,Beaver County,PA,18.506493506493506,NA,NA
15132,Allegheny County,PA,NA,26.345609065155806,NA
15208,Allegheny County,PA,55.1948051948052,NA,NA
15425,Fayette County,PA,NA,25.495750708215297,NA
15632,Westmoreland County,PA,NA,NA,63.58381502890174
15644,Westmoreland County,PA,62.66233766233766,NA,NA
15748,Indiana County,PA,88.96103896103897,NA,NA
15825,Jefferson County,PA,NA,NA,31.213872832369944
16101,Lawrence County,PA,NA,NA,4.913294797687861
16201,Armstrong County,PA,NA,11.048158640226628,NA
16323,Venango County,PA,NA,73.37110481586402,NA
16504,Erie County,PA,62.33766233766234,NA,NA
16510,Erie County,PA,NA,NA,26.878612716763005
16648,Blair County,PA,NA,NA,51.73410404624278
16915,Potter County,PA,NA,69.97167138810198,63.005780346820806
17013,Cumberland County,PA,NA,15.864022662889518,NA
17042,Lebanon County,PA,21.753246753246753,NA,NA
17078,Lebanon County,PA,NA,11.614730878186968,NA
17111,Dauphin County,PA,NA,NA,41.61849710982659
17522,Lancaster County,PA,NA,12.181303116147308,NA
17557,Lancaster County,PA,NA,NA,50.86705202312138
17603,Lancaster County,PA,NA,NA,10.404624277456648
17701,Lycoming County,PA,NA,NA,7.225433526011561
17756,Lycoming County,PA,75,NA,NA
17870,Snyder County,PA,NA,NA,42.48554913294797
18103,Lehigh County,PA,3.896103896103896,NA,NA
18202,Luzerne County,PA,46.103896103896105,NA,NA
18235,Carbon County,PA,29.545454545454547,NA,NA
18411,Lackawanna County,PA,47.4025974025974,NA,NA
18951,Bucks County,PA,NA,17.56373937677054,NA
18976,Bucks County,PA,NA,NA,43.93063583815029
19007,Bucks County,PA,24.025974025974026,NA,NA
19021,Bucks County,PA,64.28571428571429,NA,NA
19027,Montgomery County,PA,NA,NA,27.74566473988439
19044,Montgomery County,PA,65.25974025974025,NA,NA
19050,Delaware County,PA,25.97402597402597,NA,NA
19067,Bucks County,PA,16.883116883116884,NA,NA
19073,Delaware County,PA,54.54545454545454,NA,NA
19087,Chester County,PA,82.79220779220779,NA,NA
19107,Philadelphia County,PA,NA,52.40793201133145,NA
19139,Philadelphia County,PA,2.5974025974025974,NA,NA
19146,Philadelphia County,PA,NA,26.062322946175637,NA
19380,Chester County,PA,NA,NA,5.491329479768786
19382,Chester County,PA,NA,8.498583569405099,NA
19440,Montgomery County,PA,NA,67.13881019830028,NA
19446,Montgomery County,PA,43.506493506493506,NA,NA
02806,Bristol County,RI,74.35064935064936,NA,NA
02816,Kent County,RI,NA,14.730878186968837,NA
02888,Kent County,RI,50,NA,NA
29330,Spartanburg County,SC,NA,84.13597733711048,NA
29341,Cherokee County,SC,45.77922077922078,NA,NA
29349,Spartanburg County,SC,NA,NA,28.61271676300578
29406,Charleston County,SC,23.7012987012987,NA,NA
29483,Dorchester County,SC,NA,20.96317280453258,NA
29560,Florence County,SC,NA,NA,67.63005780346822
29571,Marion County,SC,NA,83.85269121813032,NA
29620,Abbeville County,SC,NA,97.16713881019831,NA
29625,Anderson County,SC,NA,29.745042492917843,NA
29691,Oconee County,SC,NA,NA,94.79768786127167
29728,Chesterfield County,SC,84.0909090909091,NA,NA
29803,Aiken County,SC,NA,9.631728045325778,NA
29841,Aiken County,SC,NA,31.1614730878187,NA
29902,Beaufort County,SC,NA,NA,78.32369942196532
37066,Sumner County,TN,35.064935064935064,NA,NA
37096,Perry County,TN,NA,NA,81.79190751445087
37115,Davidson County,TN,NA,24.929178470254957,NA
37166,DeKalb County,TN,60.064935064935064,NA,NA
37167,Rutherford County,TN,NA,88.6685552407932,NA
37206,Davidson County,TN,NA,43.342776203966004,NA
37211,Davidson County,TN,NA,NA,21.67630057803468
37355,Coffee County,TN,33.44155844155844,NA,NA
37379,Hamilton County,TN,NA,32.01133144475921,NA
37650,Unicoi County,TN,NA,48.1586402266289,NA
37708,Grainger County,TN,NA,NA,95.08670520231213
37722,Cocke County,TN,89.28571428571429,NA,97.39884393063583
37743,Greene County,TN,NA,3.39943342776204,NA
37754,Anderson County,TN,NA,NA,93.9306358381503
37813,Hamblen County,TN,25.649350649350648,NA,NA
37830,Anderson County,TN,23.376623376623375,NA,NA
37841,Scott County,TN,NA,84.41926345609065,NA
37865,Sevier County,TN,39.285714285714285,NA,NA
37873,Hawkins County,TN,NA,NA,97.97687861271676
37886,Blount County,TN,NA,NA,92.1965317919075
37919,Knox County,TN,NA,NA,43.0635838150289
37922,Knox County,TN,NA,55.240793201133144,NA
38002,Shelby County,TN,NA,69.68838526912181,NA
38068,Fayette County,TN,NA,82.71954674220963,NA
38108,Shelby County,TN,NA,60.3399433427762,NA
38119,Shelby County,TN,NA,87.81869688385268,NA
38225,Weakley County,TN,93.18181818181817,NA,NA
38330,Gibson County,TN,96.42857142857143,NA,NA
38351,Henderson County,TN,NA,45.609065155807365,NA
38483,Lawrence County,TN,94.15584415584416,NA,NA
38501,Putnam County,TN,NA,NA,30.924855491329478
38506,Putnam County,TN,NA,NA,36.99421965317919
38583,White County,TN,61.36363636363637,NA,NA
75009,Collin County,TX,NA,91.21813031161473,NA
75020,Grayson County,TX,46.75324675324675,NA,NA
75021,Grayson County,TX,NA,90.36827195467421,NA
75065,Denton County,TX,NA,NA,96.82080924855492
75071,Collin County,TX,NA,NA,69.65317919075144
75110,Navarro County,TX,41.55844155844156,NA,NA
75146,Dallas County,TX,NA,NA,67.05202312138728
75208,Dallas County,TX,NA,56.37393767705382,NA
75401,Hunt County,TX,NA,62.03966005665722,NA
75462,Lamar County,TX,NA,85.55240793201133,NA
75702,Smith County,TX,NA,77.90368271954674,NA
75758,Henderson County,TX,NA,44.47592067988669,NA
75773,Wood County,TX,NA,NA,17.052023121387283
75904,Angelina County,TX,NA,14.164305949008499,NA
75956,Jasper County,TX,NA,89.23512747875354,87.28323699421965
76020,Tarrant County,TX,NA,30.878186968838527,NA
76021,Tarrant County,TX,NA,41.92634560906516,NA
76109,Tarrant County,TX,59.74025974025974,NA,NA
76115,Tarrant County,TX,50.649350649350644,NA,NA
76120,Tarrant County,TX,NA,84.98583569405099,NA
76126,Tarrant County,TX,NA,74.78753541076487,NA
76131,Tarrant County,TX,NA,66.0056657223796,NA
76227,Denton County,TX,NA,79.60339943342775,NA
76240,Cooke County,TX,NA,73.65439093484419,NA
76309,Wichita County,TX,80.51948051948052,NA,NA
76384,Wilbarger County,TX,NA,63.73937677053825,NA
76542,Bell County,TX,NA,NA,19.653179190751445
76543,Bell County,TX,NA,NA,57.51445086705203
76550,Lampasas County,TX,66.55844155844156,NA,NA
76692,Hill County,TX,NA,NA,61.5606936416185
77022,Harris County,TX,NA,55.524079320113316,NA
77034,Harris County,TX,59.41558441558441,NA,NA
77040,Harris County,TX,NA,31.728045325779036,92.48554913294798
77059,Harris County,TX,NA,NA,85.26011560693641
77067,Harris County,TX,NA,83.28611898016997,NA
77070,Harris County,TX,NA,NA,70.23121387283237
77071,Harris County,TX,NA,NA,65.89595375722543
77081,Harris County,TX,69.15584415584416,NA,NA
77096,Harris County,TX,NA,47.02549575070821,NA
77098,Harris County,TX,NA,NA,98.55491329479769
77328,San Jacinto County,TX,81.81818181818183,NA,NA
77346,Harris County,TX,NA,36.26062322946176,NA
77357,Montgomery County,TX,64.93506493506493,NA,NA
77373,Harris County,TX,NA,29.178470254957507,NA
77386,Montgomery County,TX,NA,54.107648725212464,NA
77388,Harris County,TX,NA,NA,66.47398843930635
77396,Harris County,TX,NA,NA,80.34682080924856
77407,Fort Bend County,TX,54.22077922077923,NA,NA
77449,Harris County,TX,NA,27.19546742209632,NA
77459,Fort Bend County,TX,NA,12.464589235127479,NA
77465,Matagorda County,TX,90.5844155844156,NA,NA
77469,Fort Bend County,TX,NA,35.69405099150141,NA
77484,Waller County,TX,NA,NA,87.861271676300575
77488,Wharton County,TX,NA,NA,79.47976878612717
77498,Fort Bend County,TX,NA,55.80736543909348,NA
77536,Harris County,TX,37.33766233766234,NA,NA
77550,Galveston County,TX,NA,NA,8.092485549132949
77566,Brazoria County,TX,53.896103896103895,NA,NA
77575,Liberty County,TX,69.48051948051948,NA,NA
77583,Brazoria County,TX,53.57142857142857,NA,NA
77627,Jefferson County,TX,NA,NA,56.64739884393064
77642,Jefferson County,TX,26.2987012987013,NA,NA
77705,Jefferson County,TX,NA,66.28895184135978,NA
77706,Jefferson County,TX,47.72727272727273,NA,NA
77833,Washington County,TX,NA,29.461756373937675,18.786127167630056
77845,Brazos County,TX,9.090909090909092,NA,NA
77957,Jackson County,TX,91.55844155844156,NA,NA
78040,Webb County,TX,NA,75.92067988668555,NA
78046,Webb County,TX,NA,28.04532577903683,NA
78210,Bexar County,TX,NA,NA,55.78034682080924
78224,Bexar County,TX,NA,NA,82.94797687861272
78410,Nueces County,TX,NA,80.73654390934844,NA
78504,Hidalgo County,TX,NA,48.725212464589234,NA
78520,Cameron County,TX,NA,NA,26.300578034682083
78582,Starr County,TX,NA,44.19263456090651,NA
78596,Hidalgo County,TX,NA,58.07365439093485,NA
78735,Travis County,TX,NA,NA,77.16763005780348
78834,Dimmit County,TX,93.83116883116884,NA,NA
78840,Val Verde County,TX,NA,NA,12.716763005780345
79407,Lubbock County,TX,NA,NA,60.69364161849711
79423,Lubbock County,TX,NA,NA,35.83815028901734
79424,Lubbock County,TX,NA,NA,20.809248554913296
79705,Midland County,TX,NA,35.12747875354108,NA
79925,El Paso County,TX,NA,NA,38.72832369942196
79930,El Paso County,TX,NA,NA,58.95953757225434
79938,El Paso County,TX,NA,67.98866855524079,NA
84067,Weber County,UT,34.74025974025974,NA,NA
84075,Davis County,UT,NA,88.38526912181302,NA
84106,Salt Lake County,UT,NA,NA,29.76878612716763
84107,Salt Lake County,UT,NA,46.742209631728045,NA
84120,Salt Lake County,UT,29.22077922077922,NA,NA
84401,Weber County,UT,NA,54.6742209631728,NA
84405,Weber County,UT,NA,65.15580736543909,NA
84780,Washington County,UT,NA,NA,49.13294797687861
05156,Windsor County,VT,NA,67.70538243626062,NA
05641,Washington County,VT,67.85714285714286,NA,NA
05819,Caledonia County,VT,NA,NA,67.91907514450867
20155,Prince William County,VA,NA,47.59206798866856,NA
22015,Fairfax County,VA,NA,NA,91.61849710982659
22306,Fairfax County,VA,NA,49.858356940509914,NA
22315,Fairfax County,VA,58.76623376623377,NA,NA
23188,James City County,VA,NA,NA,1.4450867052023122
23223,Henrico County,VA,1.948051948051948,NA,33.81502890173411
23238,Henrico County,VA,NA,NA,44.21965317919075
23314,Isle of Wight County,VA,NA,NA,98.26589595375722
23321,Chesapeake city,VA,NA,NA,25.722543352601157
23323,Chesapeake city,VA,NA,35.41076487252124,NA
23452,Virginia Beach city,VA,20.454545454545457,NA,NA
23454,Virginia Beach city,VA,26.623376623376622,NA,NA
23607,Newport News city,VA,NA,45.892351274787536,NA
24230,Wise County,VA,78.8961038961039,NA,NA
24382,Wythe County,VA,NA,NA,70.52023121387283
24441,Rockingham County,VA,NA,75.63739376770539,NA
24630,Tazewell County,VA,NA,NA,89.59537572254335
98055,King County,WA,NA,NA,76.878612716763
98056,King County,WA,57.467532467532465,NA,NA
98104,King County,WA,45.12987012987013,NA,NA
98110,Kitsap County,WA,NA,NA,59.2485549132948
98125,King County,WA,NA,36.54390934844193,NA
98208,Snohomish County,WA,19.155844155844157,NA,NA
98258,Snohomish County,WA,NA,NA,62.42774566473989
98273,Skagit County,WA,80.84415584415584,NA,NA
98382,Clallam County,WA,54.87012987012987,NA,NA
98391,Pierce County,WA,13.636363636363635,NA,NA
98802,Douglas County,WA,NA,30.59490084985836,NA
99205,Spokane County,WA,NA,NA,50.57803468208093
20003,District of Columbia,DC,50.324675324675326,NA,NA
20019,District of Columbia,DC,2.922077922077922,NA,12.138728323699421
24874,Wyoming County,WV,99.35064935064936,NA,NA
24986,Greenbrier County,WV,90.9090909090909,NA,NA
25015,Kanawha County,WV,95.12987012987013,NA,NA
25177,Kanawha County,WV,NA,72.23796033994334,NA
25271,Jackson County,WV,89.6103896103896,NA,NA
25309,Kanawha County,WV,NA,57.50708215297451,NA
25387,Kanawha County,WV,NA,79.3201133144476,NA
25430,Jefferson County,WV,72.07792207792207,NA,NA
25801,Raleigh County,WV,NA,NA,12.427745664739884
25901,Fayette County,WV,NA,91.78470254957507,NA
26378,Lewis County,WV,NA,NA,100
26426,Harrison County,WV,NA,81.58640226628894,NA
53073,Sheboygan County,WI,NA,NA,75.72254335260115
53105,Racine County,WI,14.285714285714285,NA,NA
53150,Waukesha County,WI,NA,40.226628895184135,NA
53213,Milwaukee County,WI,NA,32.29461756373937,NA
53545,Rock County,WI,NA,20.113314447592067,NA
53548,Rock County,WI,24.350649350649352,NA,NA
54016,St. Croix County,WI,44.48051948051948,NA,NA
54017,St. Croix County,WI,NA,39.09348441926346,NA
54481,Portage County,WI,NA,NA,11.560693641618498
54552,Price County,WI,NA,NA,74.27745664739885
54601,La Crosse County,WI,NA,NA,0.8670520231213872
54630,Trempealeau County,WI,NA,NA,81.5028901734104
54656,Monroe County,WI,NA,NA,22.832369942196532
54660,Monroe County,WI,NA,51.55807365439094,65.02890173410405
54703,Eau Claire County,WI,NA,NA,39.59537572254335
54729,Chippewa County,WI,NA,23.79603399433428,NA
82007,Laramie County,WY,61.68831168831169,NA,NA
82240,Goshen County,WY,NA,NA,84.6820809248555
82435,Park County,WY,NA,71.10481586402267,NA
