ZipCode,county,state,Youth,Adult,Retirement,Geriatric
35007,Shelby County,AL,NA,44.44444444444444,NA,NA
35010,Tallapoosa County,AL,NA,NA,NA,26.430517711171664
35022,Jefferson County,AL,NA,NA,NA,18.1653042688465
35040,Shelby County,AL,NA,NA,NA,82.83378746594006
35043,Shelby County,AL,74.57627118644068,NA,NA,NA
35071,Jefferson County,AL,NA,NA,NA,57.765667574931875
35079,Blount County,AL,NA,87.47795414462081,NA,NA
35080,Shelby County,AL,NA,51.940035273368615,72.36566643405443,NA
35085,Chilton County,AL,NA,93.65079365079364,NA,NA
35114,Shelby County,AL,NA,NA,NA,85.83106267029973
35120,St. Clair County,AL,NA,NA,74.73831123517097,NA
35125,St. Clair County,AL,NA,NA,NA,88.28337874659401
35206,Jefferson County,AL,NA,NA,NA,62.5794732061762
35222,Jefferson County,AL,NA,88.09523809523809,NA,NA
35223,Jefferson County,AL,NA,86.59611992945327,NA,NA
35228,Jefferson County,AL,NA,NA,NA,83.65122615803816
35235,Jefferson County,AL,NA,NA,NA,74.75022706630337
35242,Shelby County,AL,NA,NA,NA,5.449591280653951
35565,Winston County,AL,NA,NA,74.59874389392883,60.944595821980016
35603,Morgan County,AL,NA,14.19753086419753,NA,NA
35611,Limestone County,AL,NA,20.98765432098765,NA,NA
35801,Madison County,AL,NA,NA,NA,39.509536784741144
35806,Madison County,AL,NA,NA,NA,55.04087193460491
35904,Etowah County,AL,NA,NA,55.966503838101886,NA
35905,Etowah County,AL,NA,NA,NA,93.18801089918256
35959,Cherokee County,AL,NA,NA,NA,97.27520435967303
35960,Cherokee County,AL,NA,NA,77.73900907187719,NA
35967,DeKalb County,AL,NA,NA,NA,69.66394187102634
35976,Marshall County,AL,NA,40.65255731922399,NA,NA
36083,Macon County,AL,NA,NA,85.76413119330077,NA
36092,Elmore County,AL,NA,NA,NA,87.28428701180745
36105,Montgomery County,AL,NA,NA,84.99651081646896,NA
36109,Montgomery County,AL,NA,42.592592592592595,NA,NA
36116,Montgomery County,AL,NA,NA,NA,49.77293369663942
36206,Calhoun County,AL,NA,69.31216931216932,74.73831123517097,NA
36207,Calhoun County,AL,NA,50,NA,NA
36303,Houston County,AL,28.8135593220339,NA,NA,NA
36310,Henry County,AL,NA,89.15343915343915,NA,NA
36312,Houston County,AL,NA,NA,95.74319609211445,NA
36330,Coffee County,AL,NA,NA,32.93789253314724,NA
36507,Baldwin County,AL,NA,34.30335097001764,NA,69.20980926430518
36526,Baldwin County,AL,NA,NA,NA,25.703905540417804
36532,Baldwin County,AL,NA,NA,58.4089323098395,NA
36542,Baldwin County,AL,NA,75.30864197530865,NA,NA
36607,Mobile County,AL,NA,80.0705467372134,NA,NA
36693,Mobile County,AL,75.70621468926554,NA,NA,NA
36703,Dallas County,AL,NA,NA,NA,78.92824704813806
36744,Hale County,AL,NA,69.9294532627866,NA,NA
36784,Clarke County,AL,NA,NA,82.6238660153524,NA
36801,Lee County,AL,NA,80.42328042328042,NA,NA
36804,Lee County,AL,NA,NA,70.34193998604327,NA
36830,Lee County,AL,NA,60.758377425044095,NA,NA
36867,Russell County,AL,NA,NA,38.72993719469644,NA
99503,Anchorage Municipality,AK,NA,40.476190476190474,NA,NA
99515,Anchorage Municipality,AK,NA,NA,75.15701325889742,NA
99577,Anchorage Municipality,AK,NA,NA,NA,98.27429609445957
99654,Matanuska-Susitna Borough,AK,NA,NA,38.59036985345429,NA
99669,Kenai Peninsula Borough,AK,NA,67.28395061728395,NA,NA
99701,Fairbanks North Star Borough,AK,NA,NA,70.13258897418004,NA
85006,Maricopa County,AZ,NA,NA,40.47452896022331,NA
85008,Maricopa County,AZ,NA,NA,20.9351011863224,NA
85018,Maricopa County,AZ,NA,NA,NA,91.64396003633061
85028,Maricopa County,AZ,NA,NA,85.90369853454291,84.19618528610354
85033,Maricopa County,AZ,NA,NA,NA,69.11898274296094
85040,Maricopa County,AZ,NA,NA,53.10537334263782,NA
85050,Maricopa County,AZ,NA,NA,NA,64.57765667574932
85086,Maricopa County,AZ,58.75706214689266,NA,37.89253314724355,NA
85122,Pinal County,AZ,NA,NA,10.258199581297976,NA
85132,Pinal County,AZ,NA,NA,66.22470341939986,NA
85138,Pinal County,AZ,NA,79.71781305114638,NA,NA
85140,Pinal County,AZ,NA,30.246913580246915,NA,NA
85143,Pinal County,AZ,NA,62.698412698412696,NA,NA
85201,Maricopa County,AZ,NA,NA,30.07676203768318,NA
85203,Maricopa County,AZ,NA,78.65961199294532,NA,NA
85205,Maricopa County,AZ,NA,NA,NA,19.527702089009992
85206,Maricopa County,AZ,NA,NA,NA,9.173478655767484
85224,Maricopa County,AZ,NA,NA,NA,48.501362397820166
85225,Maricopa County,AZ,8.47457627118644,NA,NA,NA
85233,Maricopa County,AZ,NA,80.15873015873017,NA,NA
85248,Maricopa County,AZ,NA,NA,26.448011165387296,NA
85255,Maricopa County,AZ,NA,NA,NA,79.10990009082653
85256,Maricopa County,AZ,NA,98.94179894179894,NA,NA
85258,Maricopa County,AZ,NA,NA,NA,30.517711171662125
85259,Maricopa County,AZ,NA,NA,NA,52.67938237965486
85262,Maricopa County,AZ,NA,NA,73.06350314026517,NA
85281,Maricopa County,AZ,NA,61.64021164021164,NA,NA
85283,Maricopa County,AZ,NA,NA,22.958827634333566,NA
85296,Maricopa County,AZ,NA,28.74779541446208,81.29797627355198,NA
85301,Maricopa County,AZ,NA,NA,NA,24.613987284287013
85302,Maricopa County,AZ,NA,21.252204585537918,23.30774598743894,NA
85304,Maricopa County,AZ,NA,75.83774250440916,NA,NA
85306,Maricopa County,AZ,NA,77.07231040564373,NA,NA
85308,Maricopa County,AZ,NA,NA,13.747383112351711,NA
85323,Maricopa County,AZ,NA,27.86596119929453,NA,NA
85326,Maricopa County,AZ,NA,25.044091710758376,NA,NA
85338,Maricopa County,AZ,61.016949152542374,NA,NA,NA
85340,Maricopa County,AZ,NA,82.71604938271605,NA,NA
85351,Maricopa County,AZ,NA,NA,59.874389392882065,NA
85373,Maricopa County,AZ,NA,NA,NA,84.1053587647593
85378,Maricopa County,AZ,NA,90.29982363315696,NA,NA
85392,Maricopa County,AZ,NA,NA,NA,77.56584922797457
85395,Maricopa County,AZ,NA,NA,97.55757152826239,68.66485013623979
85621,Santa Cruz County,AZ,NA,NA,NA,32.51589464123524
85622,Pima County,AZ,NA,NA,93.9288206559665,NA
85635,Cochise County,AZ,NA,50.970017636684304,NA,NA
85650,Cochise County,AZ,NA,NA,56.7341242149337,NA
85704,Pima County,AZ,NA,NA,26.378227494766225,NA
85705,Pima County,AZ,NA,NA,5.861828332170272,NA
85714,Pima County,AZ,NA,NA,NA,76.11262488646685
85715,Pima County,AZ,NA,NA,84.50802512212142,NA
85730,Pima County,AZ,35.59322033898305,NA,NA,NA
85739,Pinal County,AZ,NA,NA,24.982554082344734,NA
85749,Pima County,AZ,NA,NA,35.519888346127004,NA
85755,Pima County,AZ,NA,NA,46.96441032798325,NA
85756,Pima County,AZ,NA,83.68606701940035,NA,NA
86005,Coconino County,AZ,NA,NA,NA,99.1825613079019
86301,Yavapai County,AZ,NA,NA,62.875087229588274,NA
86305,Yavapai County,AZ,NA,NA,31.751570132588974,NA
86314,Yavapai County,AZ,NA,14.02116402116402,NA,NA
86322,Yavapai County,AZ,NA,NA,86.39218422889044,NA
86323,Yavapai County,AZ,NA,75.66137566137566,59.73482205163991,NA
86403,Mohave County,AZ,NA,82.27513227513228,NA,NA
86413,Mohave County,AZ,NA,NA,61.54919748778786,NA
86429,Mohave County,AZ,NA,NA,56.94347522679693,67.57493188010899
86505,Apache County,AZ,NA,NA,71.5980460572226,NA
71646,Ashley County,AR,NA,91.71075837742504,NA,NA
71665,Cleveland County,AR,NA,NA,NA,92.09809264305177
71801,Hempstead County,AR,NA,84.65608465608466,NA,NA
71822,Little River County,AR,NA,NA,91.69574319609211,NA
71909,Garland County,AR,NA,93.91534391534393,NA,NA
71913,Garland County,AR,NA,32.18694885361552,NA,10.354223433242508
71929,Hot Spring County,AR,NA,95.94356261022926,NA,NA
72012,White County,AR,NA,80.68783068783068,NA,NA
72015,Saline County,AR,NA,NA,NA,54.677565849227975
72019,Saline County,AR,NA,NA,87.85764131193301,NA
72032,Faulkner County,AR,NA,NA,40.75366364270761,NA
72034,Faulkner County,AR,NA,NA,NA,14.532243415077204
72076,Pulaski County,AR,NA,NA,33.00767620376831,NA
72103,Saline County,AR,NA,78.1305114638448,NA,NA
72104,Hot Spring County,AR,NA,NA,57.8506629448709,NA
72118,Pulaski County,AR,NA,NA,58.6880669923238,NA
72120,Pulaski County,AR,NA,38.447971781305114,NA,NA
72204,Pulaski County,AR,NA,44.79717813051146,NA,NA
72206,Pulaski County,AR,NA,NA,25.471039776692255,NA
72364,Crittenden County,AR,NA,NA,NA,98.9100817438692
72401,Craighead County,AR,NA,57.14285714285714,NA,NA
72404,Craighead County,AR,NA,NA,NA,91.64396003633061
72450,Greene County,AR,NA,NA,59.45568736915562,NA
72501,Independence County,AR,NA,NA,22.400558269364968,NA
72521,Sharp County,AR,98.87005649717514,NA,NA,NA
72543,Cleburne County,AR,NA,NA,85.62456385205863,NA
72601,Boone County,AR,NA,NA,28.471737613398464,NA
72653,Baxter County,AR,92.09039548022598,NA,NA,NA
72718,Benton County,AR,NA,99.64726631393297,NA,NA
72762,Washington County,AR,NA,NA,NA,51.13533151680291
72764,Washington County,AR,NA,NA,82.9030006978367,NA
72904,Sebastian County,AR,NA,53.26278659611992,NA,NA
72921,Crawford County,AR,NA,NA,78.15771109560363,NA
72947,Crawford County,AR,NA,97.70723104056437,NA,NA
90003,Los Angeles County,CA,NA,NA,NA,54.85921889191644
90011,Los Angeles County,CA,NA,NA,42.56803907885555,NA
90015,Los Angeles County,CA,NA,NA,NA,77.9291553133515
90022,Los Angeles County,CA,NA,NA,NA,20.254314259763852
90024,Los Angeles County,CA,NA,NA,NA,69.39146230699365
90025,Los Angeles County,CA,NA,NA,NA,7.720254314259764
90027,Los Angeles County,CA,54.23728813559322,NA,NA,NA
90032,Los Angeles County,CA,NA,NA,NA,45.86739327883742
90033,Los Angeles County,CA,NA,NA,NA,42.50681198910082
90039,Los Angeles County,CA,NA,NA,NA,74.29609445958219
90044,Los Angeles County,CA,NA,42.945326278659614,14.724354501046754,32.42506811989101
90046,Los Angeles County,CA,NA,NA,19.678995115143056,NA
90201,Los Angeles County,CA,NA,27.24867724867725,NA,NA
90210,Los Angeles County,CA,NA,NA,45.21981856245639,NA
90221,Los Angeles County,CA,NA,NA,NA,48.77384196185286
90230,Los Angeles County,CA,NA,NA,46.755059316120025,NA
90240,Los Angeles County,CA,NA,76.80776014109347,NA,NA
90241,Los Angeles County,CA,NA,NA,49.82554082344731,NA
90247,Los Angeles County,CA,NA,44.88536155202822,NA,NA
90266,Los Angeles County,CA,NA,NA,46.40614096301465,NA
90272,Los Angeles County,CA,NA,83.9506172839506,NA,NA
90291,Los Angeles County,CA,NA,94.70899470899471,55.82693649685974,NA
90303,Los Angeles County,CA,NA,87.21340388007054,NA,NA
90405,Los Angeles County,CA,NA,NA,52.337752965806004,NA
90503,Los Angeles County,CA,NA,NA,40.26517794836008,NA
90504,Los Angeles County,CA,NA,63.580246913580254,NA,NA
90603,Los Angeles County,CA,NA,NA,NA,43.96003633060854
90605,Los Angeles County,CA,NA,49.2063492063492,NA,NA
90621,Orange County,CA,NA,NA,NA,67.66575840145322
90630,Orange County,CA,NA,NA,17.725052337752967,NA
90660,Los Angeles County,CA,NA,NA,NA,19.891008174386922
90680,Orange County,CA,NA,52.02821869488537,NA,NA
90720,Orange County,CA,NA,67.81305114638448,NA,NA
90740,Orange County,CA,NA,NA,40.54431263084438,NA
90802,Los Angeles County,CA,NA,74.33862433862434,NA,NA
90810,Los Angeles County,CA,NA,NA,NA,99.36421435059037
91040,Los Angeles County,CA,NA,NA,NA,91.46230699364214
91104,Los Angeles County,CA,NA,NA,48.77878576413119,NA
91201,Los Angeles County,CA,NA,NA,88.4159106769016,NA
91202,Los Angeles County,CA,NA,NA,NA,62.39782016348774
91214,Los Angeles County,CA,NA,91.35802469135803,NA,NA
91302,Los Angeles County,CA,NA,NA,75.64549895324494,NA
91303,Los Angeles County,CA,83.61581920903954,NA,NA,NA
91304,Los Angeles County,CA,NA,NA,NA,14.07811080835604
91306,Los Angeles County,CA,NA,35.09700176366843,NA,NA
91307,Los Angeles County,CA,NA,NA,81.0188415910677,NA
91324,Los Angeles County,CA,NA,NA,NA,80.01816530426885
91325,Los Angeles County,CA,NA,NA,64.7592463363573,53.86012715712988
91326,Los Angeles County,CA,NA,NA,NA,75.74931880108991
91331,Los Angeles County,CA,NA,9.876543209876543,NA,NA
91350,Los Angeles County,CA,NA,56.261022927689595,NA,NA
91354,Los Angeles County,CA,77.96610169491525,NA,NA,NA
91360,Ventura County,CA,NA,NA,NA,16.62125340599455
91402,Los Angeles County,CA,NA,22.75132275132275,NA,NA
91423,Los Angeles County,CA,NA,65.16754850088184,NA,NA
91505,Los Angeles County,CA,NA,NA,78.01814375436147,NA
91606,Los Angeles County,CA,NA,NA,NA,41.59854677565849
91702,Los Angeles County,CA,NA,57.760141093474424,NA,NA
91709,San Bernardino County,CA,NA,28.835978835978835,NA,NA
91711,Los Angeles County,CA,NA,NA,28.19260293091417,NA
91731,Los Angeles County,CA,NA,31.657848324514994,NA,NA
91744,Los Angeles County,CA,NA,NA,NA,16.893732970027248
91745,Los Angeles County,CA,NA,NA,NA,63.48773841961853
91754,Los Angeles County,CA,NA,94.44444444444444,NA,NA
91755,Los Angeles County,CA,NA,NA,96.7201674808095,44.141689373297005
91768,Los Angeles County,CA,NA,37.56613756613756,NA,NA
91770,Los Angeles County,CA,NA,43.65079365079365,NA,NA
91776,Los Angeles County,CA,NA,NA,NA,51.952770208901
91784,San Bernardino County,CA,NA,67.01940035273368,NA,NA
91790,Los Angeles County,CA,NA,NA,NA,70.93551316984559
91792,Los Angeles County,CA,NA,NA,NA,68.57402361489555
91911,San Diego County,CA,NA,49.382716049382715,NA,NA
91950,San Diego County,CA,NA,31.48148148148148,NA,NA
92009,San Diego County,CA,NA,59.43562610229277,39.28820655966504,NA
92019,San Diego County,CA,NA,NA,43.61479413817167,NA
92020,San Diego County,CA,NA,NA,NA,84.37783832879201
92021,San Diego County,CA,NA,NA,12.142358688066993,NA
92024,San Diego County,CA,NA,66.93121693121694,NA,NA
92027,San Diego County,CA,NA,NA,45.15003489183531,NA
92036,San Diego County,CA,NA,NA,99.30216329378926,NA
92057,San Diego County,CA,NA,NA,NA,33.787465940054496
92064,San Diego County,CA,NA,NA,70.62107466852756,66.84831970935512
92083,San Diego County,CA,NA,NA,63.712491277041174,NA
92101,San Diego County,CA,NA,12.081128747795415,8.23447313328681,NA
92102,San Diego County,CA,NA,32.36331569664903,NA,NA
92104,San Diego County,CA,NA,23.28042328042328,NA,NA
92105,San Diego County,CA,NA,NA,27.634333565945568,NA
92111,San Diego County,CA,NA,47.44268077601411,NA,22.70663033605813
92117,San Diego County,CA,NA,49.82363315696649,NA,NA
92124,San Diego County,CA,NA,84.92063492063492,NA,NA
92126,San Diego County,CA,NA,81.92239858906525,NA,NA
92127,San Diego County,CA,NA,91.62257495590829,NA,NA
92128,San Diego County,CA,NA,NA,78.15771109560363,NA
92130,San Diego County,CA,NA,56.79012345679012,NA,NA
92131,San Diego County,CA,NA,65.25573192239858,NA,NA
92139,San Diego County,CA,NA,NA,NA,49.137148047229786
92154,San Diego County,CA,NA,NA,NA,11.53496821071753
92220,Riverside County,CA,71.1864406779661,NA,NA,NA
92223,Riverside County,CA,NA,25.925925925925924,NA,NA
92227,Imperial County,CA,NA,NA,54.91974877878576,NA
92241,Riverside County,CA,NA,94.00352733686067,80.73970690858339,NA
92260,Riverside County,CA,NA,NA,NA,0.9082652134423252
92274,Riverside County,CA,NA,88.35978835978835,NA,NA
92284,San Bernardino County,CA,NA,21.957671957671955,NA,NA
92307,San Bernardino County,CA,NA,NA,53.31472435450104,NA
92311,San Bernardino County,CA,NA,78.39506172839506,NA,NA
92314,San Bernardino County,CA,NA,NA,NA,89.3732970027248
92320,Riverside County,CA,NA,94.79717813051145,NA,NA
92324,San Bernardino County,CA,NA,NA,37.4738311235171,NA
92336,San Bernardino County,CA,NA,NA,14.096301465457085,NA
92342,San Bernardino County,CA,NA,NA,98.8834612700628,NA
92345,San Bernardino County,CA,NA,8.465608465608465,NA,21.34423251589464
92374,San Bernardino County,CA,NA,NA,NA,46.41235240690282
92376,San Bernardino County,CA,NA,NA,NA,51.58946412352407
92392,San Bernardino County,CA,NA,15.784832451499117,NA,NA
92397,San Bernardino County,CA,NA,NA,NA,99.27338782924615
92408,San Bernardino County,CA,NA,NA,NA,99.81834695731153
92501,Riverside County,CA,NA,73.80952380952381,NA,NA
92508,Riverside County,CA,NA,NA,NA,85.92188919164397
92543,Riverside County,CA,NA,NA,50.87229588276343,NA
92544,Riverside County,CA,NA,NA,NA,57.67484105358764
92545,Riverside County,CA,NA,68.07760141093475,NA,NA
92553,Riverside County,CA,NA,NA,NA,42.05267938237965
92557,Riverside County,CA,NA,NA,46.545708304256806,NA
92570,Riverside County,CA,NA,NA,76.27355198883461,NA
92584,Riverside County,CA,50.847457627118644,NA,NA,NA
92592,Riverside County,CA,NA,NA,24.912770411723656,NA
92610,Orange County,CA,NA,NA,95.18492672714585,NA
92614,Orange County,CA,NA,NA,61.130495464061404,NA
92620,Orange County,CA,NA,37.742504409171076,NA,NA
92627,Orange County,CA,NA,46.2962962962963,26.65736217725052,NA
92629,Orange County,CA,NA,NA,72.57501744591765,NA
92630,Orange County,CA,NA,NA,50.662944870900205,25.068119891008173
92646,Orange County,CA,NA,NA,6.978367062107467,NA
92647,Orange County,CA,NA,NA,17.585484996510818,NA
92648,Orange County,CA,NA,NA,56.94347522679693,NA
92651,Orange County,CA,NA,NA,43.47522679692952,NA
92672,Orange County,CA,NA,60.9347442680776,52.128401953942785,NA
92677,Orange County,CA,NA,NA,60.43265875785067,NA
92679,Orange County,CA,NA,53.880070546737215,NA,NA
92683,Orange County,CA,NA,NA,52.6168876482903,NA
92688,Orange County,CA,NA,31.746031746031743,90.3698534542917,NA
92692,Orange County,CA,NA,NA,NA,7.901907356948229
92703,Orange County,CA,NA,33.5978835978836,NA,NA
92704,Orange County,CA,NA,NA,31.6817864619679,NA
92705,Orange County,CA,NA,NA,50.314026517794844,NA
92707,Orange County,CA,NA,68.51851851851852,NA,NA
92801,Orange County,CA,NA,NA,30.07676203768318,NA
92802,Orange County,CA,NA,NA,39.84647592463364,NA
92805,Orange County,CA,NA,70.19400352733686,NA,NA
92821,Orange County,CA,NA,NA,NA,27.42960944595822
92831,Orange County,CA,NA,76.19047619047619,NA,NA
92835,Orange County,CA,NA,96.91358024691358,NA,NA
92840,Orange County,CA,NA,NA,70.48150732728541,NA
92841,Orange County,CA,NA,95.76719576719577,NA,NA
92844,Orange County,CA,NA,65.78483245149911,NA,95.45867393278837
92845,Orange County,CA,66.66666666666666,NA,NA,NA
92860,Riverside County,CA,NA,NA,87.78785764131193,NA
92867,Orange County,CA,NA,NA,NA,28.792007266121704
92868,Orange County,CA,NA,57.67195767195767,NA,NA
92879,Riverside County,CA,NA,NA,NA,59.491371480472296
92880,Riverside County,CA,NA,NA,52.89602233077459,NA
92882,Riverside County,CA,NA,NA,33.77529658060014,NA
92886,Orange County,CA,NA,73.98589065255732,14.445219818562457,NA
92887,Orange County,CA,NA,68.34215167548501,NA,NA
93003,Ventura County,CA,NA,NA,16.678297278436848,NA
93004,Ventura County,CA,NA,48.500881834215164,NA,NA
93015,Ventura County,CA,26.55367231638418,NA,NA,NA
93033,Ventura County,CA,NA,9.700176366843033,NA,NA
93041,Ventura County,CA,NA,57.231040564373906,NA,NA
93063,Ventura County,CA,NA,NA,21.98185624563852,41.3260672116258
93105,Santa Barbara County,CA,NA,NA,96.99930216329379,NA
93117,Santa Barbara County,CA,NA,NA,NA,79.01907356948229
93240,Kern County,CA,NA,NA,NA,85.1952770208901
93257,Tulare County,CA,NA,10.934744268077601,NA,NA
93263,Kern County,CA,NA,NA,89.11374738311235,NA
93286,Tulare County,CA,NA,NA,NA,97.09355131698456
93292,Tulare County,CA,NA,35.89065255731923,NA,NA
93304,Kern County,CA,NA,NA,42.986741102581995,NA
93312,Kern County,CA,NA,33.50970017636684,NA,NA
93401,San Luis Obispo County,CA,NA,49.47089947089947,NA,NA
93436,Santa Barbara County,CA,NA,NA,NA,11.716621253405995
93442,San Luis Obispo County,CA,NA,79.80599647266314,NA,NA
93444,San Luis Obispo County,CA,NA,NA,61.33984647592463,NA
93458,Santa Barbara County,CA,NA,NA,NA,46.13987284287012
93510,Los Angeles County,CA,NA,NA,96.1618981158409,NA
93536,Los Angeles County,CA,NA,NA,49.68597348220516,NA
93543,Los Angeles County,CA,NA,NA,96.23168178646196,NA
93550,Los Angeles County,CA,NA,NA,76.76203768318214,NA
93611,Fresno County,CA,NA,NA,68.66713189113747,NA
93612,Fresno County,CA,NA,NA,NA,75.02270663033606
93646,Fresno County,CA,NA,NA,94.2079553384508,NA
93657,Fresno County,CA,NA,NA,41.032798325191905,NA
93704,Fresno County,CA,NA,NA,NA,98.36512261580381
93720,Fresno County,CA,NA,NA,22.889043963712492,NA
93722,Fresno County,CA,NA,7.495590828924162,NA,NA
93901,Monterey County,CA,NA,46.82539682539682,NA,NA
94014,San Mateo County,CA,NA,39.682539682539684,NA,NA
94015,San Mateo County,CA,NA,NA,8.37404047452896,NA
94030,San Mateo County,CA,NA,NA,58.19958129797628,NA
94062,San Mateo County,CA,NA,48.67724867724868,NA,NA
94070,San Mateo County,CA,NA,90.65255731922399,64.34054431263084,NA
94080,San Mateo County,CA,NA,28.21869488536155,NA,NA
94107,San Francisco County,CA,NA,NA,NA,47.774750227066306
94110,San Francisco County,CA,NA,NA,7.117934403349616,NA
94112,San Francisco County,CA,NA,NA,30.286113049546405,NA
94116,San Francisco County,CA,NA,NA,NA,9.08265213442325
94117,San Francisco County,CA,NA,NA,39.63712491277041,NA
94131,San Francisco County,CA,NA,NA,NA,56.13079019073569
94303,San Mateo County,CA,NA,71.51675485008818,NA,NA
94403,San Mateo County,CA,NA,NA,NA,42.05267938237965
94509,Contra Costa County,CA,NA,NA,10.956036287508724,NA
94513,Contra Costa County,CA,NA,NA,NA,25.61307901907357
94517,Contra Costa County,CA,NA,93.7389770723104,NA,NA
94526,Contra Costa County,CA,NA,NA,47.1039776692254,NA
94533,Solano County,CA,NA,67.63668430335098,NA,11.1716621253406
94534,Solano County,CA,NA,NA,NA,37.78383287920072
94536,Alameda County,CA,NA,NA,18.49267271458479,NA
94539,Alameda County,CA,NA,NA,NA,73.84196185286103
94541,Alameda County,CA,NA,NA,15.491974877878576,NA
94549,Contra Costa County,CA,NA,77.1604938271605,NA,NA
94551,Alameda County,CA,NA,NA,50.593161200279134,NA
94558,Napa County,CA,NA,NA,NA,59.67302452316077
94560,Alameda County,CA,NA,NA,43.75436147941382,NA
94564,Contra Costa County,CA,NA,NA,63.29378925331473,NA
94565,Contra Costa County,CA,NA,NA,NA,20.16348773841962
94572,Contra Costa County,CA,NA,95.06172839506173,NA,NA
94577,Alameda County,CA,NA,63.051146384479715,NA,31.970935513169845
94578,Alameda County,CA,NA,NA,91.06769016050245,NA
94595,Contra Costa County,CA,NA,NA,NA,34.60490463215259
94601,Alameda County,CA,NA,NA,34.612700628053034,NA
94611,Alameda County,CA,NA,81.12874779541445,NA,NA
94618,Alameda County,CA,NA,81.39329805996472,NA,NA
94621,Alameda County,CA,NA,NA,63.782274947662245,NA
94706,Alameda County,CA,NA,89.85890652557319,NA,NA
94803,Contra Costa County,CA,NA,NA,76.90160502442428,NA
94804,Contra Costa County,CA,NA,NA,NA,86.64850136239782
94901,Marin County,CA,NA,47.70723104056437,NA,NA
94928,Sonoma County,CA,NA,NA,NA,42.05267938237965
94952,Sonoma County,CA,NA,NA,34.75226796929519,NA
94965,Marin County,CA,NA,NA,NA,77.02089009990918
95035,Santa Clara County,CA,NA,NA,NA,93.73297002724796
95060,Santa Cruz County,CA,NA,NA,46.47592463363573,NA
95070,Santa Clara County,CA,NA,NA,71.45847871598046,NA
95111,Santa Clara County,CA,NA,NA,NA,37.60217983651226
95117,Santa Clara County,CA,NA,69.66490299823633,NA,90.00908265213442
95123,Santa Clara County,CA,NA,NA,24.21493370551291,NA
95125,Santa Clara County,CA,NA,NA,18.283321702721565,NA
95126,Santa Clara County,CA,NA,NA,81.29797627355198,NA
95127,Santa Clara County,CA,NA,NA,41.73063503140265,21.88919164396004
95132,Santa Clara County,CA,NA,NA,NA,54.31425976385105
95148,Santa Clara County,CA,NA,NA,39.35799023028611,NA
95202,San Joaquin County,CA,NA,25.83774250440917,NA,NA
95204,San Joaquin County,CA,NA,86.94885361552028,66.85275645498953,NA
95209,San Joaquin County,CA,NA,71.0758377425044,NA,NA
95334,Merced County,CA,NA,81.30511463844798,NA,NA
95336,San Joaquin County,CA,NA,NA,NA,21.071752951861946
95340,Merced County,CA,45.76271186440678,NA,NA,39.23705722070845
95341,Merced County,CA,NA,50.88183421516755,NA,NA
95348,Merced County,CA,NA,NA,NA,97.00272479564033
95354,Stanislaus County,CA,NA,NA,54.64061409630146,NA
95355,Stanislaus County,CA,NA,NA,7.257501744591766,NA
95356,Stanislaus County,CA,NA,NA,NA,55.858310626703
95365,Merced County,CA,NA,NA,99.93021632937894,NA
95367,Stanislaus County,CA,NA,NA,NA,52.043596730245234
95370,Tuolumne County,CA,NA,NA,2.930914166085136,NA
95376,San Joaquin County,CA,NA,NA,NA,44.50499545867393
95380,Stanislaus County,CA,NA,23.456790123456788,NA,NA
95403,Sonoma County,CA,NA,NA,36.21772505233775,13.260672116257947
95448,Sonoma County,CA,NA,NA,NA,43.23342415985468
95451,Lake County,CA,NA,NA,NA,62.125340599455036
95540,Humboldt County,CA,NA,NA,52.75645498953245,NA
95608,Sacramento County,CA,NA,NA,NA,5.722070844686648
95610,Sacramento County,CA,NA,NA,75.22679692951849,NA
95616,Yolo County,CA,NA,NA,NA,75.386012715713
95624,Sacramento County,CA,NA,NA,22.26099092812282,NA
95626,Sacramento County,CA,NA,NA,99.23237962316817,NA
95661,Placer County,CA,NA,59.523809523809526,NA,NA
95667,El Dorado County,CA,NA,27.689594356261022,23.377529658060013,NA
95687,Solano County,CA,NA,32.89241622574956,NA,NA
95691,Yolo County,CA,NA,76.10229276895943,NA,NA
95694,Yolo County,CA,NA,NA,97.83670621074668,NA
95713,Placer County,CA,96.045197740113,NA,NA,NA
95747,Placer County,CA,NA,NA,NA,7.811080835603996
95762,El Dorado County,CA,NA,44.00352733686067,NA,NA
95818,Sacramento County,CA,NA,NA,NA,95.2770208900999
95822,Sacramento County,CA,NA,NA,74.31960921144453,18.4377838328792
95824,Sacramento County,CA,NA,NA,86.04326587578507,NA
95826,Sacramento County,CA,NA,NA,53.59385903698535,NA
95827,Sacramento County,CA,NA,83.77425044091711,NA,NA
95828,Sacramento County,CA,NA,NA,NA,30.336058128973658
95832,Sacramento County,CA,NA,NA,90.16050244242847,NA
95835,Sacramento County,CA,NA,61.72839506172839,NA,NA
95841,Sacramento County,CA,NA,NA,80.53035589672017,NA
95843,Sacramento County,CA,NA,NA,NA,77.02089009990918
95926,Butte County,CA,NA,NA,NA,33.060853769300635
95953,Sutter County,CA,NA,NA,90.57920446615492,NA
95959,Nevada County,CA,NA,NA,47.24354501046755,NA
95961,Yuba County,CA,NA,39.0652557319224,NA,NA
95965,Butte County,CA,NA,NA,63.991625959525464,NA
95966,Butte County,CA,NA,NA,7.536636427076064,NA
95969,Butte County,CA,NA,NA,NA,3.178928247048138
95973,Butte County,CA,NA,NA,NA,16.25794732061762
95993,Sutter County,CA,NA,NA,37.1946964410328,NA
96003,Shasta County,CA,NA,NA,NA,22.615803814713896
96007,Shasta County,CA,NA,61.022927689594354,NA,NA
96130,Lassen County,CA,NA,NA,78.15771109560363,NA
96161,Nevada County,CA,NA,NA,NA,81.74386920980926
80013,Arapahoe County,CO,NA,8.289241622574956,19.050942079553383,NA
80020,Broomfield County,CO,NA,38.80070546737213,30.425680390788557,NA
80022,Adams County,CO,NA,NA,NA,73.66030881017257
80027,Boulder County,CO,NA,89.59435626102292,81.29797627355198,NA
80107,Elbert County,CO,NA,85.18518518518519,NA,NA
80111,Arapahoe County,CO,NA,NA,NA,70.20890099909174
80118,Douglas County,CO,NA,NA,NA,90.28156221616712
80121,Arapahoe County,CO,NA,NA,90.43963712491278,NA
80124,Douglas County,CO,NA,NA,NA,92.37057220708446
80130,Douglas County,CO,NA,72.39858906525573,NA,NA
80134,Douglas County,CO,NA,21.693121693121693,NA,NA
80136,Adams County,CO,NA,97.61904761904762,NA,NA
80202,Denver County,CO,NA,45.326278659611994,NA,NA
80204,Denver County,CO,NA,17.989417989417987,NA,NA
80207,Denver County,CO,NA,NA,67.69016050244244,NA
80222,Denver County,CO,NA,36.41975308641975,NA,NA
80223,Denver County,CO,NA,NA,NA,89.00999091734786
80233,Adams County,CO,NA,NA,49.05792044661549,NA
80304,Boulder County,CO,NA,95.67901234567901,NA,NA
80401,Jefferson County,CO,NA,63.403880070546734,NA,NA
80403,Jefferson County,CO,NA,NA,82.41451500348919,NA
80513,Larimer County,CO,NA,NA,80.25122121423587,NA
80516,Weld County,CO,NA,59.61199294532628,NA,NA
80525,Larimer County,CO,NA,NA,NA,5.631244323342416
80526,Larimer County,CO,NA,31.834215167548503,67.13189113747383,NA
80537,Larimer County,CO,NA,NA,12.42149337055129,NA
80538,Larimer County,CO,NA,10.405643738977071,NA,23.251589464123523
80631,Weld County,CO,NA,6.790123456790123,NA,NA
80634,Weld County,CO,NA,2.1164021164021163,NA,NA
80640,Adams County,CO,NA,70.81128747795414,NA,NA
80642,Weld County,CO,NA,NA,99.65108164689462,NA
80906,El Paso County,CO,NA,54.40917107583775,NA,NA
80910,El Paso County,CO,NA,20.72310405643739,NA,NA
80915,El Paso County,CO,NA,NA,NA,63.03360581289736
80920,El Paso County,CO,NA,79.27689594356261,NA,NA
80922,El Paso County,CO,NA,NA,NA,76.47593097184378
81003,Pueblo County,CO,NA,NA,NA,83.10626702997274
81004,Pueblo County,CO,NA,21.340388007054674,NA,NA
81050,Otero County,CO,NA,68.16578483245151,NA,NA
81321,Montezuma County,CO,NA,NA,86.18283321702721,NA
81507,Mesa County,CO,NA,NA,65.45708304256804,NA
81620,Eagle County,CO,NA,98.58906525573192,NA,NA
06002,Hartford County,CT,NA,NA,NA,29.246139872842868
06010,Hartford County,CT,5.084745762711865,NA,NA,42.415985467756585
06032,Hartford County,CT,NA,NA,NA,46.95731153496821
06033,Hartford County,CT,NA,NA,52.477320307048146,47.048138056312446
06040,Hartford County,CT,NA,8.641975308641975,NA,NA
06042,Hartford County,CT,NA,32.98059964726631,NA,NA
06067,Hartford County,CT,NA,NA,86.95045359385904,NA
06071,Tolland County,CT,NA,NA,NA,79.83651226158038
06076,Tolland County,CT,NA,NA,92.11444521981856,NA
06082,Hartford County,CT,NA,16.225749559082892,84.92672714584786,NA
06084,Tolland County,CT,NA,NA,NA,56.76657584014533
06096,Hartford County,CT,NA,NA,81.64689462665736,NA
06106,Hartford County,CT,NA,NA,11.51430565247732,NA
06239,Windham County,CT,NA,NA,NA,82.1071752951862
06268,Tolland County,CT,NA,NA,95.53384508025123,72.57039055404178
06401,New Haven County,CT,NA,NA,NA,80.38147138964578
06405,New Haven County,CT,NA,NA,24.424284717376135,NA
06410,New Haven County,CT,NA,NA,NA,38.41961852861036
06422,Middlesex County,CT,NA,93.12169312169311,NA,NA
06451,New Haven County,CT,NA,NA,35.86880669923238,52.86103542234333
06457,Middlesex County,CT,NA,NA,NA,6.176203451407812
06460,New Haven County,CT,NA,NA,NA,68.21071752951862
06468,Fairfield County,CT,NA,95.14991181657848,NA,NA
06470,Fairfield County,CT,NA,NA,80.94905792044662,NA
06471,New Haven County,CT,NA,88.53615520282186,NA,NA
06480,Middlesex County,CT,NA,NA,71.73761339846476,NA
06483,New Haven County,CT,NA,57.583774250440925,NA,NA
06484,Fairfield County,CT,NA,NA,63.57292393579902,NA
06489,Hartford County,CT,NA,26.984126984126984,NA,NA
06492,New Haven County,CT,NA,17.813051146384478,NA,NA
06511,New Haven County,CT,NA,NA,8.722958827634333,NA
06514,New Haven County,CT,NA,NA,82.06559665038381,NA
06611,Fairfield County,CT,NA,NA,62.17725052337752,NA
06708,New Haven County,CT,NA,18.871252204585538,NA,NA
06770,New Haven County,CT,NA,NA,59.59525471039777,NA
06776,Litchfield County,CT,NA,NA,29.58827634333566,NA
06790,Litchfield County,CT,18.07909604519774,NA,NA,4.813805631244324
06811,Fairfield County,CT,NA,NA,24.49406838799721,NA
06830,Fairfield County,CT,NA,NA,NA,65.48592188919164
06840,Fairfield County,CT,NA,NA,75.64549895324494,NA
06850,Fairfield County,CT,NA,NA,33.98464759246336,NA
06877,Fairfield County,CT,69.49152542372882,NA,NA,NA
06880,Fairfield County,CT,NA,NA,NA,58.21980018165305
06883,Fairfield County,CT,NA,NA,NA,84.9227974568574
06897,Fairfield County,CT,NA,NA,74.9476622470342,NA
19701,New Castle County,DE,NA,23.10405643738977,NA,NA
19707,New Castle County,DE,NA,NA,64.96859734822051,NA
19713,New Castle County,DE,NA,NA,26.02930914166085,NA
19720,New Castle County,DE,NA,NA,2.2330774598743894,NA
19734,New Castle County,DE,NA,NA,NA,86.0127157129882
19805,New Castle County,DE,NA,14.638447971781304,35.93859036985346,NA
19808,New Castle County,DE,NA,18.871252204585538,18.562456385205863,4.904632152588556
19901,Kent County,DE,NA,42.7689594356261,NA,19.527702089009992
19934,Kent County,DE,NA,NA,NA,60.85376930063578
19938,Kent County,DE,NA,59.876543209876544,NA,NA
19958,Sussex County,DE,NA,NA,3.4193998604326583,NA
19960,Sussex County,DE,59.887005649717516,NA,88.34612700628053,NA
19966,Sussex County,DE,40.67796610169492,NA,NA,NA
19971,Sussex County,DE,NA,66.22574955908289,NA,83.92370572207084
32034,Nassau County,FL,NA,74.86772486772487,NA,NA
32064,Suwannee County,FL,NA,NA,NA,80.83560399636693
32080,St. Johns County,FL,NA,65.60846560846561,19.818562456385205,23.160762942779293
32086,St. Johns County,FL,NA,37.03703703703704,NA,NA
32097,Nassau County,FL,NA,78.48324514991182,32.72854152128402,NA
32114,Volusia County,FL,NA,NA,NA,52.95186194368756
32118,Volusia County,FL,NA,NA,87.15980460572226,67.8474114441417
32119,Volusia County,FL,NA,NA,49.75575715282624,NA
32128,Volusia County,FL,NA,NA,NA,40.508628519527704
32136,Flagler County,FL,NA,NA,70.96999302163294,NA
32137,Flagler County,FL,NA,NA,53.942777390090725,NA
32162,Sumter County,FL,NA,NA,15.003489183531055,NA
32164,Flagler County,FL,NA,NA,46.61549197487788,10.263396911898274
32168,Volusia County,FL,NA,NA,31.54221912072575,25.431425976385103
32176,Volusia County,FL,NA,85.80246913580247,NA,NA
32205,Duval County,FL,NA,NA,67.20167480809491,NA
32208,Duval County,FL,NA,NA,28.75087229588276,NA
32209,Duval County,FL,NA,3.6155202821869485,NA,NA
32210,Duval County,FL,NA,3.439153439153439,NA,NA
32211,Duval County,FL,NA,NA,39.49755757152826,NA
32221,Duval County,FL,NA,26.278659611992943,NA,NA
32223,Duval County,FL,NA,NA,30.63503140265178,NA
32224,Duval County,FL,NA,NA,40.82344731332868,NA
32244,Duval County,FL,NA,4.232804232804233,8.932309839497558,NA
32246,Duval County,FL,NA,NA,NA,46.049046321525886
32254,Duval County,FL,NA,41.9753086419753,NA,NA
32256,Duval County,FL,NA,NA,35.24075366364271,NA
32258,Duval County,FL,NA,NA,32.2400558269365,NA
32308,Leon County,FL,NA,NA,NA,33.787465940054496
32352,Gadsden County,FL,NA,NA,97.20865317515701,NA
32404,Bay County,FL,NA,NA,NA,18.982742960944595
32435,Walton County,FL,NA,NA,NA,65.66757493188011
32439,Walton County,FL,NA,NA,67.96929518492672,NA
32444,Bay County,FL,NA,NA,NA,40.87193460490463
32459,Walton County,FL,NA,58.377425044091716,27.564549895324493,NA
32505,Escambia County,FL,NA,15.343915343915343,NA,NA
32506,Escambia County,FL,NA,NA,14.515003489183531,12.079927338782923
32531,Okaloosa County,FL,NA,NA,74.59874389392883,NA
32534,Escambia County,FL,NA,NA,42.77739009071877,NA
32539,Okaloosa County,FL,NA,NA,23.726448011165388,NA
32541,Okaloosa County,FL,67.79661016949152,NA,NA,NA
32561,Santa Rosa County,FL,NA,NA,78.99511514305652,NA
32563,Santa Rosa County,FL,NA,NA,NA,21.61671207992734
32578,Okaloosa County,FL,NA,47.001763668430335,NA,NA
32579,Okaloosa County,FL,NA,NA,NA,73.93278837420527
32606,Alachua County,FL,NA,NA,NA,3.2697547683923704
32607,Alachua County,FL,NA,NA,NA,53.224341507720254
32641,Alachua County,FL,NA,NA,84.22889043963713,NA
32656,Clay County,FL,NA,NA,57.64131193300768,NA
32701,Seminole County,FL,NA,NA,NA,54.223433242506815
32703,Orange County,FL,NA,19.31216931216931,NA,NA
32713,Volusia County,FL,NA,93.03350970017637,NA,NA
32714,Seminole County,FL,NA,NA,62.59595254710397,40.781108083560405
32724,Volusia County,FL,NA,NA,NA,19.891008174386922
32726,Lake County,FL,NA,45.59082892416226,NA,NA
32736,Lake County,FL,NA,91.18165784832452,NA,NA
32746,Seminole County,FL,NA,76.5432098765432,NA,NA
32763,Volusia County,FL,NA,NA,NA,22.070844686648503
32765,Seminole County,FL,NA,NA,38.66015352407537,NA
32767,Lake County,FL,NA,99.0299823633157,NA,NA
32778,Lake County,FL,NA,NA,23.447313328681087,NA
32789,Orange County,FL,NA,NA,NA,81.2897366030881
32792,Orange County,FL,NA,NA,45.28960223307746,NA
32803,Orange County,FL,NA,NA,69.36496859734822,NA
32805,Orange County,FL,NA,NA,NA,64.57765667574932
32806,Orange County,FL,NA,NA,NA,28.882833787465938
32808,Orange County,FL,NA,NA,21.07466852756455,NA
32810,Orange County,FL,NA,34.12698412698413,NA,NA
32820,Orange County,FL,NA,90.56437389770723,NA,NA
32822,Orange County,FL,NA,16.75485008818342,NA,NA
32825,Orange County,FL,NA,NA,13.189113747383113,44.23251589464123
32826,Orange County,FL,NA,NA,NA,81.47138964577657
32832,Orange County,FL,NA,NA,NA,81.65304268846502
32833,Orange County,FL,NA,NA,91.27704117236567,87.01180744777474
32835,Orange County,FL,NA,NA,50.383810188415914,NA
32839,Orange County,FL,NA,NA,36.427076064200975,NA
32926,Brevard County,FL,NA,67.3721340388007,NA,NA
32935,Brevard County,FL,NA,NA,NA,18.256130790190735
32955,Brevard County,FL,NA,43.03350970017637,NA,NA
32958,Indian River County,FL,NA,62.874779541446216,NA,NA
32962,Indian River County,FL,NA,NA,37.05512909979065,21.34423251589464
33004,Broward County,FL,NA,71.51675485008818,NA,NA
33013,Miami-Dade County,FL,NA,NA,NA,20.799273387829246
33014,Miami-Dade County,FL,NA,NA,NA,59.85467756584922
33015,Miami-Dade County,FL,NA,NA,NA,76.38510445049954
33020,Broward County,FL,NA,26.63139329805996,60.64200976971389,NA
33021,Broward County,FL,NA,NA,20.167480809490577,NA
33033,Miami-Dade County,FL,NA,36.507936507936506,NA,NA
33034,Miami-Dade County,FL,NA,NA,NA,89.55495004541326
33050,Monroe County,FL,NA,NA,58.96720167480809,NA
33054,Miami-Dade County,FL,NA,NA,NA,71.29881925522253
33056,Miami-Dade County,FL,NA,34.65608465608466,NA,NA
33063,Broward County,FL,NA,NA,NA,9.35513169845595
33064,Broward County,FL,NA,32.27513227513227,NA,NA
33065,Broward County,FL,NA,NA,NA,71.84377838328791
33067,Broward County,FL,NA,NA,76.90160502442428,NA
33076,Broward County,FL,NA,NA,NA,59.12806539509536
33125,Miami-Dade County,FL,NA,NA,34.19399860432659,NA
33137,Miami-Dade County,FL,NA,90.8289241622575,NA,NA
33140,Miami-Dade County,FL,NA,NA,NA,18.52861035422343
33145,Miami-Dade County,FL,NA,NA,NA,27.79291553133515
33147,Miami-Dade County,FL,NA,28.306878306878307,NA,NA
33154,Miami-Dade County,FL,NA,NA,NA,29.155313351498634
33161,Miami-Dade County,FL,NA,NA,NA,35.694822888283376
33162,Miami-Dade County,FL,NA,NA,85.27564549895324,NA
33165,Miami-Dade County,FL,NA,52.99823633156967,32.37962316817865,NA
33166,Miami-Dade County,FL,NA,NA,51.08164689462665,NA
33167,Miami-Dade County,FL,NA,NA,NA,83.46957311534968
33173,Miami-Dade County,FL,NA,NA,NA,52.13442325158947
33175,Miami-Dade County,FL,NA,NA,20.30704815073273,NA
33177,Miami-Dade County,FL,NA,NA,47.87159804605722,18.89191643960036
33179,Miami-Dade County,FL,NA,53.79188712522046,NA,74.47774750227066
33183,Miami-Dade County,FL,NA,NA,NA,36.78474114441417
33304,Broward County,FL,NA,96.20811287477954,NA,NA
33308,Broward County,FL,NA,NA,NA,2.997275204359673
33313,Broward County,FL,NA,NA,38.032100488485696,NA
33315,Broward County,FL,NA,NA,85.06629448709002,NA
33322,Broward County,FL,NA,NA,64.41032798325192,9.536784741144414
33324,Broward County,FL,NA,NA,43.75436147941382,NA
33325,Broward County,FL,NA,NA,NA,93.91462306993643
33328,Broward County,FL,NA,79.45326278659613,NA,NA
33334,Broward County,FL,NA,46.4726631393298,NA,70.6630336058129
33401,Palm Beach County,FL,NA,59.17107583774251,NA,NA
33407,Palm Beach County,FL,NA,NA,NA,61.48955495004541
33410,Palm Beach County,FL,NA,NA,67.4808094905792,NA
33415,Palm Beach County,FL,NA,NA,NA,53.13351498637602
33417,Palm Beach County,FL,NA,NA,NA,18.7102633969119
33426,Palm Beach County,FL,NA,NA,NA,47.86557674841054
33430,Palm Beach County,FL,NA,NA,NA,74.20526793823797
33433,Palm Beach County,FL,NA,NA,83.18213538032101,NA
33437,Palm Beach County,FL,NA,NA,NA,0.09082652134423251
33440,Hendry County,FL,NA,NA,65.66643405443126,NA
33445,Palm Beach County,FL,NA,NA,NA,23.06993642143506
33446,Palm Beach County,FL,NA,NA,65.17794836008373,NA
33449,Palm Beach County,FL,NA,90.21164021164022,NA,NA
33455,Martin County,FL,NA,92.06349206349206,NA,NA
33458,Palm Beach County,FL,NA,NA,NA,24.069028156221616
33461,Palm Beach County,FL,NA,NA,NA,52.497729336966394
33472,Palm Beach County,FL,NA,NA,NA,18.80108991825613
33480,Palm Beach County,FL,NA,NA,NA,34.968210717529516
33484,Palm Beach County,FL,NA,NA,NA,1.9073569482288828
33486,Palm Beach County,FL,NA,NA,47.52267969295185,NA
33498,Palm Beach County,FL,NA,NA,NA,55.313351498637594
33511,Hillsborough County,FL,7.344632768361582,NA,NA,NA
33523,Pasco County,FL,NA,NA,NA,59.40054495912806
33542,Pasco County,FL,NA,NA,46.26657362177251,NA
33567,Hillsborough County,FL,NA,NA,97.06908583391485,NA
33573,Hillsborough County,FL,NA,NA,18.143754361479413,NA
33592,Hillsborough County,FL,NA,NA,NA,94.64123524069028
33596,Hillsborough County,FL,NA,NA,57.990230286113054,NA
33602,Hillsborough County,FL,NA,NA,79.27424982554082,88.37420526793824
33605,Hillsborough County,FL,39.548022598870055,NA,NA,NA
33606,Hillsborough County,FL,NA,NA,93.23098394975575,NA
33607,Hillsborough County,FL,NA,NA,84.36845778087927,NA
33610,Hillsborough County,FL,NA,11.728395061728394,NA,NA
33614,Hillsborough County,FL,NA,NA,76.48290300069783,NA
33618,Hillsborough County,FL,NA,NA,NA,31.607629427792915
33702,Pinellas County,FL,NA,45.41446208112875,NA,NA
33704,Pinellas County,FL,NA,NA,79.69295184926727,NA
33705,Pinellas County,FL,NA,NA,NA,43.596730245231605
33706,Pinellas County,FL,NA,NA,67.27145847871599,NA
33707,Pinellas County,FL,NA,NA,27.91346824842987,58.855585831062676
33708,Pinellas County,FL,NA,NA,61.47941381716679,NA
33709,Pinellas County,FL,NA,NA,NA,47.41144414168937
33710,Pinellas County,FL,NA,43.386243386243386,NA,NA
33711,Pinellas County,FL,NA,NA,91.83531053733427,NA
33756,Pinellas County,FL,NA,NA,70.83042568039079,NA
33765,Pinellas County,FL,NA,88.00705467372134,NA,NA
33772,Pinellas County,FL,NA,73.98589065255732,NA,NA
33776,Pinellas County,FL,NA,NA,NA,76.65758401453225
33781,Pinellas County,FL,NA,NA,33.28681088625262,NA
33785,Pinellas County,FL,NA,NA,99.51151430565248,NA
33801,Polk County,FL,NA,NA,NA,54.04178019981835
33823,Polk County,FL,NA,NA,42.21912072575017,NA
33825,Highlands County,FL,NA,NA,NA,55.5858310626703
33830,Polk County,FL,NA,NA,NA,90.82652134423252
33843,Polk County,FL,NA,NA,NA,67.30245231607628
33844,Polk County,FL,NA,32.804232804232804,NA,NA
33850,Polk County,FL,NA,NA,NA,81.92552225249773
33852,Highlands County,FL,NA,NA,15.910676901605026,NA
33860,Polk County,FL,NA,NA,62.38660153524075,73.38782924613987
33870,Highlands County,FL,NA,NA,NA,63.21525885558583
33872,Highlands County,FL,NA,63.49206349206349,NA,NA
33875,Highlands County,FL,NA,NA,67.34124214933705,NA
33884,Polk County,FL,NA,52.20458553791887,NA,24.88646684831971
33905,Lee County,FL,NA,NA,21.493370551290997,NA
33909,Lee County,FL,NA,37.213403880070544,NA,NA
33913,Lee County,FL,NA,NA,27.424982554082344,NA
33914,Lee County,FL,NA,NA,45.49895324494068,NA
33916,Lee County,FL,NA,NA,NA,75.20435967302453
33922,Lee County,FL,NA,NA,NA,97.45685740236148
33935,Hendry County,FL,NA,NA,NA,79.56403269754769
33947,Charlotte County,FL,NA,NA,77.3900907187718,NA
33950,Charlotte County,FL,NA,NA,64.06140963014654,NA
33954,Charlotte County,FL,NA,NA,NA,71.84377838328791
33966,Lee County,FL,NA,NA,85.48499651081647,NA
33967,Lee County,FL,NA,NA,58.47871598046057,NA
33971,Lee County,FL,44.06779661016949,NA,NA,NA
33973,Lee County,FL,NA,NA,88.90439637124913,NA
33991,Lee County,FL,NA,NA,35.58967201674808,NA
34112,Collier County,FL,NA,NA,NA,17.166212534059948
34113,Collier County,FL,NA,NA,55.129099790648986,NA
34119,Collier County,FL,NA,NA,61.20027913468249,53.58764759309719
34134,Lee County,FL,NA,NA,60.50244242847174,NA
34145,Collier County,FL,NA,NA,40.334961618981154,NA
34202,Manatee County,FL,NA,61.37566137566137,35.7990230286113,NA
34203,Manatee County,FL,NA,NA,17.93440334961619,NA
34208,Manatee County,FL,NA,52.46913580246913,NA,NA
34233,Sarasota County,FL,NA,NA,44.731332868108865,NA
34235,Sarasota County,FL,NA,NA,54.91974877878576,NA
34238,Sarasota County,FL,NA,77.77777777777779,NA,NA
34239,Sarasota County,FL,NA,75.92592592592592,NA,NA
34266,DeSoto County,FL,NA,NA,78.7857641311933,NA
34287,Sarasota County,FL,NA,NA,NA,13.71480472297911
34292,Sarasota County,FL,NA,NA,46.05722260990928,NA
34293,Sarasota County,FL,NA,NA,5.652477320307049,NA
34436,Citrus County,FL,NA,NA,79.48360083740404,NA
34450,Citrus County,FL,NA,NA,NA,64.75930971843779
34452,Citrus County,FL,NA,NA,NA,74.93188010899182
34474,Marion County,FL,62.14689265536724,NA,NA,78.29246139872843
34481,Marion County,FL,NA,68.78306878306879,NA,10.354223433242508
34482,Marion County,FL,NA,NA,NA,66.93914623069936
34484,Sumter County,FL,98.30508474576271,NA,NA,NA
34606,Hernando County,FL,NA,NA,NA,29.8819255222525
34608,Hernando County,FL,NA,NA,NA,43.68755676657584
34613,Hernando County,FL,NA,NA,30.77459874389393,29.064486830154408
34654,Pasco County,FL,NA,NA,NA,94.18710263396912
34655,Pasco County,FL,NA,NA,NA,15.89464123524069
34667,Pasco County,FL,NA,NA,NA,17.983651226158038
34668,Pasco County,FL,NA,NA,NA,26.067211625794734
34677,Pinellas County,FL,NA,NA,NA,55.13169845594914
34690,Pasco County,FL,NA,66.75485008818343,NA,NA
34741,Osceola County,FL,NA,19.841269841269842,67.06210746685277,NA
34746,Osceola County,FL,NA,31.128747795414462,NA,NA
34748,Lake County,FL,NA,45.85537918871252,8.164689462665736,34.514078110808356
34758,Osceola County,FL,NA,18.606701940035272,47.1039776692254,NA
34769,Osceola County,FL,NA,NA,NA,45.594913714804726
34787,Orange County,FL,NA,NA,18.004187020237264,NA
34946,St. Lucie County,FL,83.05084745762711,76.27865961199295,NA,NA
34947,St. Lucie County,FL,NA,NA,NA,89.91825613079018
34952,St. Lucie County,FL,NA,79.18871252204586,35.65945568736916,NA
34953,St. Lucie County,FL,NA,NA,5.512909979064899,NA
34974,Okeechobee County,FL,NA,NA,NA,36.6030881017257
34986,St. Lucie County,FL,NA,NA,NA,6.357856494096276
34997,Martin County,FL,NA,NA,NA,25.522252497729337
30012,Rockdale County,GA,NA,NA,79.83251919050942,NA
30013,Rockdale County,GA,NA,NA,NA,61.398728428701176
30016,Newton County,GA,NA,36.15520282186949,NA,NA
30019,Gwinnett County,GA,NA,33.95061728395062,NA,NA
30032,DeKalb County,GA,NA,NA,40.893230983949756,NA
30040,Forsyth County,GA,NA,NA,52.407536636427075,NA
30043,Gwinnett County,GA,NA,19.1358024691358,44.940683879972084,NA
30046,Gwinnett County,GA,90.3954802259887,NA,50.73272854152129,NA
30047,Gwinnett County,GA,NA,NA,60.36287508722958,NA
30052,Walton County,GA,NA,61.552028218694886,NA,NA
30058,DeKalb County,GA,NA,17.636684303350968,25.05233775296581,51.771117166212534
30060,Cobb County,GA,NA,NA,64.7592463363573,NA
30062,Cobb County,GA,NA,NA,12.491277041172367,NA
30064,Cobb County,GA,NA,54.58553791887125,NA,NA
30066,Cobb County,GA,NA,41.269841269841265,NA,NA
30068,Cobb County,GA,NA,NA,56.4549895324494,NA
30082,Cobb County,GA,NA,NA,NA,73.38782924613987
30087,DeKalb County,GA,NA,NA,17.585484996510818,NA
30096,Gwinnett County,GA,NA,52.82186948853615,NA,89.10081743869209
30097,Fulton County,GA,NA,NA,NA,76.29427792915531
30101,Cobb County,GA,NA,NA,23.517096999302165,NA
30102,Cherokee County,GA,NA,71.16402116402116,NA,NA
30115,Cherokee County,GA,NA,NA,NA,66.39418710263398
30122,Douglas County,GA,NA,NA,NA,78.11080835603997
30126,Cobb County,GA,NA,38.095238095238095,NA,NA
30127,Cobb County,GA,NA,15.167548500881834,NA,NA
30135,Douglas County,GA,NA,NA,11.584089323098395,NA
30152,Cobb County,GA,84.18079096045197,NA,NA,NA
30157,Paulding County,GA,NA,22.22222222222222,22.819260293091418,NA
30161,Floyd County,GA,NA,NA,17.725052337752967,NA
30165,Floyd County,GA,NA,NA,62.665736217725055,NA
30180,Carroll County,GA,NA,NA,84.08932309839497,NA
30184,Bartow County,GA,NA,NA,NA,96.27611262488647
30187,Douglas County,GA,NA,72.04585537918872,NA,NA
30188,Cherokee County,GA,NA,NA,13.119330076762036,NA
30206,Pike County,GA,NA,99.38271604938271,NA,NA
30214,Fayette County,GA,NA,NA,NA,37.4205267938238
30215,Fayette County,GA,NA,NA,67.89951151430566,NA
30223,Spalding County,GA,NA,NA,33.63572923935799,NA
30240,Troup County,GA,NA,21.516754850088184,NA,NA
30260,Clayton County,GA,NA,86.41975308641975,NA,NA
30263,Coweta County,GA,NA,NA,10.397766922540127,NA
30277,Coweta County,GA,NA,NA,NA,80.56312443233425
30281,Henry County,GA,NA,52.292768959435634,14.863921842288905,NA
30294,DeKalb County,GA,NA,NA,51.98883461270063,68.39237057220708
30314,Fulton County,GA,NA,NA,NA,49.50045413260672
30318,Fulton County,GA,NA,NA,27.006280530355898,NA
30319,DeKalb County,GA,NA,NA,NA,22.979109900090826
30331,Fulton County,GA,NA,NA,6.908583391486392,NA
30344,Fulton County,GA,NA,NA,NA,76.47593097184378
30345,DeKalb County,GA,80.22598870056498,NA,NA,NA
30346,DeKalb County,GA,NA,99.20634920634922,NA,NA
30349,Fulton County,GA,NA,6.349206349206349,9.490579204466156,NA
30417,Evans County,GA,NA,NA,96.02233077459874,NA
30467,Screven County,GA,NA,51.763668430335095,NA,NA
30507,Hall County,GA,NA,NA,93.85903698534544,NA
30513,Fannin County,GA,NA,NA,NA,70.02724795640327
30518,Gwinnett County,GA,NA,NA,32.10048848569434,NA
30519,Gwinnett County,GA,51.41242937853108,NA,29.309141660851363,NA
30523,Habersham County,GA,NA,91.18165784832452,NA,59.763851044505
30525,Rabun County,GA,NA,NA,95.11514305652477,NA
30528,White County,GA,NA,NA,47.9413817166783,65.03178928247048
30534,Dawson County,GA,NA,36.596119929453266,30.844382414515003,NA
30542,Hall County,GA,NA,NA,NA,53.76930063578564
30560,Fannin County,GA,NA,NA,93.44033496161897,91.82561307901908
30566,Hall County,GA,NA,NA,93.51011863224005,NA
30577,Stephens County,GA,NA,39.77072310405644,NA,NA
30582,Towns County,GA,NA,NA,NA,77.83832879200726
30629,Madison County,GA,NA,NA,98.60432658757851,NA
30633,Madison County,GA,NA,NA,87.92742498255409,NA
30635,Elbert County,GA,72.31638418079096,NA,NA,NA
30673,Wilkes County,GA,NA,89.68253968253968,NA,NA
30680,Barrow County,GA,NA,NA,56.17585484996511,NA
30710,Whitfield County,GA,NA,89.15343915343915,NA,NA
30721,Whitfield County,GA,NA,NA,41.3119330076762,NA
30728,Walker County,GA,NA,NA,NA,68.75567665758402
30741,Walker County,GA,NA,NA,16.189811584089323,NA
30747,Chattooga County,GA,NA,NA,64.06140963014654,NA
30809,Columbia County,GA,NA,31.216931216931215,NA,NA
30830,Burke County,GA,NA,NA,NA,74.11444141689373
31029,Monroe County,GA,NA,NA,93.02163293789253,NA
31036,Pulaski County,GA,NA,NA,92.39357990230286,NA
31047,Houston County,GA,NA,NA,94.27773900907188,NA
31063,Macon County,GA,NA,NA,NA,99.09173478655767
31069,Houston County,GA,NA,NA,44.033496161898114,NA
31082,Washington County,GA,NA,82.18694885361552,NA,NA
31093,Houston County,GA,NA,NA,29.867411025819955,39.509536784741144
31206,Bibb County,GA,NA,NA,NA,60.12715712988192
31220,Bibb County,GA,NA,NA,NA,92.00726612170754
31312,Effingham County,GA,NA,NA,76.62247034193999,NA
31322,Chatham County,GA,NA,NA,97.7669225401256,NA
31331,McIntosh County,GA,NA,NA,NA,94.73206176203452
31405,Chatham County,GA,NA,NA,NA,31.33514986376022
31406,Chatham County,GA,NA,NA,NA,26.067211625794734
31410,Chatham County,GA,NA,NA,NA,88.64668483197093
31513,Appling County,GA,NA,NA,69.92323796231682,NA
31635,Lanier County,GA,94.35028248587571,NA,NA,NA
31714,Turner County,GA,NA,70.8994708994709,NA,NA
31719,Sumter County,GA,NA,92.9453262786596,NA,NA
31793,Tift County,GA,NA,60.22927689594356,NA,NA
31794,Tift County,GA,NA,NA,NA,37.51135331516803
31804,Harris County,GA,NA,NA,NA,90.64486830154405
31816,Meriwether County,GA,NA,NA,97.34822051639917,NA
31833,Troup County,GA,NA,72.22222222222221,NA,NA
31903,Muscogee County,GA,NA,28.57142857142857,NA,NA
31904,Muscogee County,GA,NA,NA,NA,48.86466848319709
31907,Muscogee County,GA,NA,28.130511463844798,NA,NA
39828,Grady County,GA,NA,63.844797178130506,70.2721563154222,NA
39837,Miller County,GA,NA,68.69488536155202,NA,NA
96701,Honolulu County,HI,NA,NA,NA,39.41871026339691
96704,Hawaii County,HI,NA,NA,98.39497557571528,NA
96707,Honolulu County,HI,NA,NA,28.053035589672014,NA
96720,Hawaii County,HI,NA,NA,21.56315422191207,NA
96740,Hawaii County,HI,NA,NA,NA,80.1998183469573
96744,Honolulu County,HI,NA,NA,18.771807397069086,NA
96753,Maui County,HI,NA,NA,72.08653175157013,NA
96766,Kauai County,HI,NA,NA,71.73761339846476,NA
96778,Hawaii County,HI,NA,NA,NA,93.64214350590372
96797,Honolulu County,HI,NA,NA,5.163991625959525,NA
96814,Honolulu County,HI,NA,64.02116402116403,NA,NA
96815,Honolulu County,HI,NA,NA,22.67969295184927,NA
96816,Honolulu County,HI,NA,58.201058201058196,70.06280530355897,NA
96817,Honolulu County,HI,NA,NA,NA,24.341507720254317
96818,Honolulu County,HI,NA,NA,NA,67.75658492279746
96819,Honolulu County,HI,NA,NA,45.42916957431961,NA
83221,Bingham County,ID,NA,NA,NA,78.56494096276113
83401,Bonneville County,ID,NA,NA,NA,47.229791099000906
83406,Bonneville County,ID,NA,NA,71.17934403349616,NA
83467,Lemhi County,ID,NA,NA,NA,60.672116257947316
83607,Canyon County,ID,NA,NA,NA,40.962761126248864
83634,Ada County,ID,NA,NA,NA,61.30790190735694
83644,Canyon County,ID,NA,NA,49.33705512909979,NA
83646,Ada County,ID,NA,NA,31.26308443824145,NA
83651,Canyon County,ID,NA,NA,NA,11.53496821071753
83702,Ada County,ID,NA,26.543209876543212,NA,NA
83704,Ada County,ID,NA,NA,57.43196092114445,NA
83706,Ada County,ID,NA,NA,NA,15.440508628519527
83709,Ada County,ID,NA,70.37037037037037,NA,NA
83814,Kootenai County,ID,NA,60.14109347442681,NA,NA
83815,Kootenai County,ID,NA,62.43386243386243,NA,NA
60002,Lake County,IL,NA,NA,30.983949755757152,NA
60010,Lake County,IL,NA,NA,NA,51.22615803814714
60012,McHenry County,IL,NA,79.54144620811287,NA,NA
60016,Cook County,IL,NA,NA,9.211444521981857,NA
60025,Cook County,IL,NA,NA,62.5261688764829,NA
60030,Lake County,IL,NA,NA,NA,13.805631244323344
60044,Lake County,IL,NA,NA,NA,60.58128973660308
60047,Lake County,IL,NA,NA,NA,96.18528610354224
60050,McHenry County,IL,NA,33.33333333333333,NA,NA
60051,McHenry County,IL,NA,NA,23.237962316817864,NA
60061,Lake County,IL,NA,NA,NA,36.69391462306994
60062,Cook County,IL,NA,34.21516754850088,4.18702023726448,5.177111716621254
60067,Cook County,IL,NA,NA,NA,11.89827429609446
60068,Cook County,IL,NA,NA,NA,17.257039055404178
60076,Cook County,IL,NA,NA,NA,49.31880108991826
60077,Cook County,IL,NA,NA,NA,6.539509536784741
60087,Lake County,IL,NA,63.051146384479715,NA,NA
60090,Cook County,IL,NA,NA,NA,14.623069936421434
60091,Cook County,IL,NA,NA,NA,13.079019073569482
60098,McHenry County,IL,NA,27.513227513227513,NA,NA
60102,McHenry County,IL,NA,NA,73.41242149337054,NA
60103,DuPage County,IL,NA,24.250440917107582,NA,NA
60107,Cook County,IL,NA,NA,NA,57.58401453224341
60120,Kane County,IL,NA,23.544973544973544,24.84298674110258,NA
60123,Kane County,IL,NA,NA,NA,15.712988192552224
60126,DuPage County,IL,NA,8.37742504409171,NA,NA
60130,Cook County,IL,NA,NA,64.89881367759945,NA
60131,Cook County,IL,62.14689265536724,NA,NA,NA
60137,DuPage County,IL,NA,NA,NA,10.626702997275205
60139,DuPage County,IL,NA,NA,33.00767620376831,67.93823796548592
60143,DuPage County,IL,NA,NA,71.17934403349616,NA
60153,Cook County,IL,NA,NA,21.2142358688067,NA
60155,Cook County,IL,89.26553672316385,NA,NA,NA
60156,McHenry County,IL,35.02824858757062,62.257495590828924,NA,NA
60164,Cook County,IL,NA,NA,72.9937194696441,NA
60174,Kane County,IL,36.15819209039548,NA,NA,35.513169845594916
60178,DeKalb County,IL,NA,NA,NA,50.40871934604905
60181,DuPage County,IL,NA,NA,27.145847871598043,75.47683923705722
60188,DuPage County,IL,NA,NA,NA,35.78564940962761
60192,Cook County,IL,67.2316384180791,NA,NA,NA
60193,Cook County,IL,78.53107344632768,NA,59.944173063503136,25.158946412352407
60302,Cook County,IL,NA,29.01234567901235,NA,NA
60417,Will County,IL,NA,NA,NA,49.68210717529519
60419,Cook County,IL,NA,39.94708994708995,NA,84.28701180744778
60422,Cook County,IL,NA,NA,43.33565945568737,NA
60425,Cook County,IL,NA,NA,NA,82.28882833787466
60428,Cook County,IL,NA,83.33333333333334,NA,NA
60431,Will County,IL,NA,NA,38.93928820655967,NA
60433,Will County,IL,NA,54.32098765432099,NA,NA
60440,Will County,IL,NA,NA,12.212142358688068,NA
60445,Cook County,IL,NA,NA,NA,68.48319709355131
60466,Cook County,IL,NA,NA,NA,46.59400544959128
60467,Cook County,IL,33.33333333333333,NA,NA,NA
60471,Cook County,IL,NA,65.52028218694885,NA,NA
60477,Cook County,IL,NA,22.22222222222222,83.67062107466853,NA
60481,Will County,IL,NA,61.81657848324515,NA,NA
60501,Cook County,IL,NA,NA,88.76482903000698,NA
60502,DuPage County,IL,NA,NA,NA,86.83015440508629
60504,DuPage County,IL,NA,62.52204585537919,NA,NA
60510,Kane County,IL,NA,NA,45.56873691556176,NA
60517,DuPage County,IL,NA,NA,82.55408234473133,NA
60523,DuPage County,IL,NA,NA,NA,38.14713896457766
60532,DuPage County,IL,NA,NA,41.939986043265876,NA
60561,DuPage County,IL,NA,51.32275132275132,NA,NA
60563,DuPage County,IL,NA,NA,35.10118632240056,NA
60586,Will County,IL,NA,NA,27.77390090718772,NA
60601,Cook County,IL,NA,96.73721340388008,NA,NA
60605,Cook County,IL,NA,NA,NA,58.4014532243415
60607,Cook County,IL,57.06214689265536,NA,NA,NA
60609,Cook County,IL,NA,8.818342151675484,NA,NA
60612,Cook County,IL,NA,NA,NA,32.334241598546775
60614,Cook County,IL,NA,47.883597883597886,NA,9.809264305177113
60615,Cook County,IL,NA,NA,13.88695045359386,NA
60616,Cook County,IL,NA,NA,8.094905792044662,NA
60617,Cook County,IL,NA,NA,NA,14.259763851044504
60618,Cook County,IL,NA,NA,NA,16.439600363306088
60619,Cook County,IL,NA,4.5855379188712515,NA,1.1807447774750226
60620,Cook County,IL,NA,NA,2.4424284717376135,21.98001816530427
60623,Cook County,IL,NA,NA,NA,12.352406902815623
60625,Cook County,IL,NA,NA,12.002791346824843,NA
60626,Cook County,IL,NA,NA,6.001395673412421,NA
60628,Cook County,IL,NA,5.555555555555555,NA,NA
60634,Cook County,IL,NA,NA,NA,34.968210717529516
60638,Cook County,IL,NA,NA,6.769016050244243,3.905540417801998
60639,Cook County,IL,NA,NA,6.699232379623169,NA
60642,Cook County,IL,76.27118644067797,NA,NA,NA
60643,Cook County,IL,NA,NA,3.070481507327285,NA
60645,Cook County,IL,NA,NA,54.57083042568039,NA
60646,Cook County,IL,NA,NA,NA,22.434150772025433
60652,Cook County,IL,NA,NA,20.446615491974878,NA
60656,Cook County,IL,NA,NA,NA,40.417801998183464
60657,Cook County,IL,NA,17.724867724867725,43.19609211444522,NA
60659,Cook County,IL,NA,NA,23.796231681786463,NA
60714,Cook County,IL,NA,NA,36.98534542916958,8.265213442325159
60804,Cook County,IL,NA,17.195767195767196,NA,34.87738419618528
60914,Kankakee County,IL,NA,28.659611992945326,NA,NA
60970,Iroquois County,IL,NA,74.25044091710758,NA,NA
61008,Boone County,IL,NA,NA,NA,28.247048138056314
61021,Lee County,IL,9.6045197740113,NA,NA,NA
61061,Ogle County,IL,NA,NA,NA,45.776566757493185
61101,Winnebago County,IL,NA,41.710758377425044,NA,NA
61102,Winnebago County,IL,NA,NA,NA,73.02452316076294
61109,Winnebago County,IL,55.367231638418076,NA,NA,NA
61310,Lee County,IL,NA,NA,94.90579204466155,NA
61354,LaSalle County,IL,NA,NA,49.476622470341944,NA
61364,LaSalle County,IL,NA,48.76543209876543,NA,NA
61401,Knox County,IL,NA,NA,26.238660153524073,NA
61443,Henry County,IL,NA,NA,49.05792044661549,NA
61455,McDonough County,IL,NA,NA,63.15422191207257,NA
61554,Tazewell County,IL,NA,54.58553791887125,NA,NA
61607,Peoria County,IL,NA,NA,NA,91.18982742960945
61611,Tazewell County,IL,NA,68.51851851851852,NA,NA
61616,Peoria County,IL,NA,NA,NA,96.82107175295187
61801,Champaign County,IL,NA,NA,NA,45.68574023614895
61853,Champaign County,IL,NA,NA,NA,66.39418710263398
61856,Piatt County,IL,NA,NA,NA,96.3669391462307
61938,Coles County,IL,NA,88.62433862433863,NA,NA
62002,Madison County,IL,NA,NA,NA,12.26158038147139
62025,Madison County,IL,NA,NA,38.869504535938596,22.252497729336966
62052,Jersey County,IL,NA,NA,NA,89.64577656675749
62207,St. Clair County,IL,98.87005649717514,NA,NA,NA
62234,Madison County,IL,NA,NA,41.172365666434054,NA
62263,Washington County,IL,NA,NA,NA,85.55858310626702
62363,Pike County,IL,88.13559322033898,NA,NA,NA
62411,Effingham County,IL,NA,NA,NA,100
62441,Clark County,IL,NA,87.56613756613757,NA,NA
62448,Jasper County,IL,NA,NA,NA,97.72933696639419
62450,Richland County,IL,NA,NA,NA,40.14532243415077
62521,Macon County,IL,NA,10.758377425044092,7.048150732728542,NA
62526,Macon County,IL,NA,9.611992945326278,NA,NA
62626,Macoupin County,IL,NA,98.50088183421516,NA,NA
62650,Morgan County,IL,NA,NA,NA,32.15258855585831
62702,Sangamon County,IL,37.28813559322034,NA,NA,NA
62703,Sangamon County,IL,NA,26.366843033509703,NA,NA
62704,Sangamon County,IL,NA,NA,NA,46.23069936421435
62711,Sangamon County,IL,NA,NA,NA,42.05267938237965
62812,Franklin County,IL,NA,NA,NA,84.83197093551317
62864,Jefferson County,IL,NA,42.06349206349206,NA,NA
62896,Franklin County,IL,NA,NA,NA,48.955495004541326
62901,Jackson County,IL,NA,58.994708994709,NA,NA
46012,Madison County,IN,NA,NA,16.74808094905792,NA
46013,Madison County,IN,NA,29.100529100529098,NA,NA
46032,Hamilton County,IN,NA,NA,56.4549895324494,NA
46036,Madison County,IN,NA,53.96825396825397,NA,NA
46037,Hamilton County,IN,NA,NA,NA,64.94096276112626
46041,Clinton County,IN,NA,NA,NA,44.05086285195277
46052,Boone County,IN,NA,NA,78.57641311933008,44.77747502270663
46060,Hamilton County,IN,NA,NA,24.284717376133987,NA
46062,Hamilton County,IN,NA,NA,NA,43.50590372388737
46069,Hamilton County,IN,NA,NA,90.16050244242847,96.00363306085377
46074,Hamilton County,IN,NA,NA,NA,66.57584014532243
46106,Johnson County,IN,NA,NA,88.48569434752268,NA
46124,Johnson County,IN,NA,NA,69.78367062107466,NA
46140,Hancock County,IN,NA,25.573192239858905,NA,NA
46142,Johnson County,IN,NA,NA,10.188415910676902,NA
46173,Rush County,IN,NA,NA,41.80041870202373,NA
46176,Shelby County,IN,NA,78.83597883597884,9.281228192602931,NA
46203,Marion County,IN,NA,NA,44.17306350314026,24.795640326975477
46208,Marion County,IN,NA,61.19929453262787,NA,NA
46214,Marion County,IN,NA,NA,NA,35.967302452316076
46217,Marion County,IN,NA,NA,NA,38.87375113533152
46218,Marion County,IN,NA,30.599647266313934,NA,NA
46219,Marion County,IN,NA,NA,15.282623866015351,NA
46221,Marion County,IN,NA,NA,39.00907187718074,NA
46224,Marion County,IN,NA,NA,NA,37.23887375113533
46226,Marion County,IN,NA,52.99823633156967,12.56106071179344,20.52679382379655
46227,Marion County,IN,NA,NA,NA,3.451407811080836
46228,Marion County,IN,NA,NA,69.64410327983252,NA
46235,Marion County,IN,NA,17.019400352733687,NA,NA
46241,Marion County,IN,NA,NA,NA,52.2252497729337
46250,Marion County,IN,NA,NA,62.94487090020935,86.19436875567665
46307,Lake County,IN,NA,1.4109347442680775,NA,NA
46320,Lake County,IN,NA,NA,48.56943475226797,NA
46321,Lake County,IN,NA,NA,NA,19.43687556766576
46322,Lake County,IN,NA,NA,NA,9.71843778383288
46323,Lake County,IN,NA,NA,NA,30.97184377838329
46327,Lake County,IN,NA,NA,54.78018143754362,NA
46350,LaPorte County,IN,NA,29.365079365079367,68.3182135380321,15.168029064486829
46360,LaPorte County,IN,NA,4.144620811287478,NA,NA
46368,Porter County,IN,NA,NA,NA,11.353315168029065
46383,Porter County,IN,NA,5.908289241622574,NA,10.80835603996367
46385,Porter County,IN,NA,NA,2.372644801116539,NA
46392,Jasper County,IN,NA,NA,84.71737613398464,NA
46405,Lake County,IN,NA,NA,45.708304256803906,NA
46410,Lake County,IN,NA,5.291005291005291,3.4891835310537336,NA
46514,Elkhart County,IN,NA,NA,18.911374738311235,NA
46516,Elkhart County,IN,NA,79.36507936507937,90.99790648988136,97.27520435967303
46534,Starke County,IN,NA,77.42504409171076,NA,NA
46544,St. Joseph County,IN,NA,83.24514991181657,NA,38.51044504995459
46561,St. Joseph County,IN,NA,82.8042328042328,NA,NA
46562,Kosciusko County,IN,NA,NA,93.71946964410328,NA
46613,St. Joseph County,IN,NA,82.98059964726632,NA,NA
46615,St. Joseph County,IN,NA,69.40035273368606,NA,NA
46637,St. Joseph County,IN,NA,82.36331569664902,NA,NA
46703,Steuben County,IN,NA,75.39682539682539,NA,NA
46725,Whitley County,IN,NA,NA,17.864619678995115,27.974568574023618
46750,Huntington County,IN,NA,NA,NA,19.255222524977295
46805,Allen County,IN,NA,NA,79.41381716678298,NA
46806,Allen County,IN,NA,70.63492063492063,NA,NA
46815,Allen County,IN,NA,59.17107583774251,NA,NA
46816,Allen County,IN,NA,26.102292768959433,NA,59.945504087193456
46818,Allen County,IN,NA,NA,42.916957431960924,72.29791099000909
46825,Allen County,IN,NA,NA,78.92533147243545,NA
46835,Allen County,IN,NA,NA,8.862526168876483,NA
46952,Grant County,IN,NA,15.255731922398589,5.094207955338451,NA
46970,Miami County,IN,NA,NA,74.31960921144453,NA
47006,Ripley County,IN,NA,NA,61.618981158408936,NA
47031,Ripley County,IN,NA,91.44620811287479,NA,NA
47060,Dearborn County,IN,NA,98.67724867724867,NA,NA
47129,Clark County,IN,NA,NA,47.24354501046755,NA
47165,Washington County,IN,NA,92.85714285714286,NA,NA
47170,Scott County,IN,NA,52.557319223985886,NA,NA
47201,Bartholomew County,IN,NA,9.964726631393297,NA,NA
47203,Bartholomew County,IN,NA,NA,NA,10.717529518619436
47303,Delaware County,IN,NA,30.423280423280424,80.87927424982554,NA
47353,Union County,IN,89.83050847457628,NA,NA,NA
47401,Monroe County,IN,NA,58.81834215167549,NA,NA
47404,Monroe County,IN,NA,NA,72.71458478715981,NA
47421,Lawrence County,IN,NA,NA,NA,69.5731153496821
47432,Orange County,IN,NA,NA,NA,98.54677565849228
47446,Lawrence County,IN,NA,62.96296296296296,NA,NA
47448,Brown County,IN,NA,97.35449735449735,NA,NA
47546,Dubois County,IN,NA,45.94356261022928,NA,NA
47591,Knox County,IN,NA,NA,22.191207257501745,NA
47601,Warrick County,IN,NA,NA,NA,41.0535876475931
47711,Vanderburgh County,IN,NA,85.62610229276896,NA,NA
47802,Vigo County,IN,NA,NA,NA,33.15168029064487
47834,Clay County,IN,NA,58.28924162257496,NA,NA
47906,Tippecanoe County,IN,NA,NA,NA,29.3369663941871
47960,White County,IN,NA,60.317460317460316,NA,36.05812897366031
50208,Jasper County,IA,NA,NA,NA,44.95912806539509
50220,Dallas County,IA,NA,NA,91.55617585484997,NA
50266,Polk County,IA,NA,NA,NA,82.37965485921889
50309,Polk County,IA,NA,NA,63.0844382414515,NA
50312,Polk County,IA,NA,NA,NA,82.74296094459582
50315,Polk County,IA,NA,NA,NA,41.87102633969119
50316,Polk County,IA,NA,NA,NA,71.84377838328791
50317,Polk County,IA,NA,9.523809523809524,12.351709699930217,NA
50327,Polk County,IA,NA,78.21869488536154,NA,NA
50501,Webster County,IA,NA,NA,69.50453593859038,NA
50595,Hamilton County,IA,NA,NA,NA,70.39055404178019
50644,Buchanan County,IA,NA,NA,76.62247034193999,NA
50702,Black Hawk County,IA,NA,NA,77.52965806001396,NA
50703,Black Hawk County,IA,68.36158192090396,24.16225749559083,NA,NA
51041,Sioux County,IA,NA,100,NA,NA
51334,Emmet County,IA,NA,59.70017636684304,NA,NA
51501,Pottawattamie County,IA,NA,NA,NA,27.702089009990914
51503,Pottawattamie County,IA,NA,NA,3.279832519190509,NA
51601,Page County,IA,NA,NA,68.0390788555478,NA
52001,Dubuque County,IA,NA,NA,20.237264480111655,NA
52002,Dubuque County,IA,NA,NA,NA,77.02089009990918
52003,Dubuque County,IA,NA,84.30335097001763,NA,NA
52240,Johnson County,IA,NA,NA,NA,22.524977293369663
52246,Johnson County,IA,NA,NA,87.29937194696441,NA
52402,Linn County,IA,NA,16.666666666666664,NA,NA
52501,Wapello County,IA,NA,11.64021164021164,NA,NA
52556,Jefferson County,IA,NA,72.66313932980599,NA,NA
52577,Mahaska County,IA,NA,NA,NA,55.949137148047235
52627,Lee County,IA,NA,38.88888888888889,NA,NA
52632,Lee County,IA,NA,NA,32.449406838799725,NA
52641,Henry County,IA,NA,NA,NA,51.40781108083561
52722,Scott County,IA,NA,17.46031746031746,NA,NA
52748,Scott County,IA,NA,NA,91.34682484298673,NA
52803,Scott County,IA,NA,NA,81.08862526168876,90.73569482288828
52804,Scott County,IA,NA,NA,NA,39.055404178019984
52806,Scott County,IA,NA,65.34391534391534,NA,NA
66006,Douglas County,KS,NA,NA,90.71877180739708,NA
66007,Leavenworth County,KS,NA,NA,NA,78.38328792007266
66044,Douglas County,KS,NA,NA,85.34542916957432,NA
66048,Leavenworth County,KS,NA,27.954144620811288,NA,NA
66049,Douglas County,KS,NA,NA,NA,91.3714804722979
66062,Johnson County,KS,NA,8.73015873015873,NA,NA
66083,Johnson County,KS,NA,NA,74.52896022330775,NA
66086,Leavenworth County,KS,NA,NA,80.60013956734124,NA
66102,Wyandotte County,KS,NA,NA,NA,56.58492279745686
66205,Johnson County,KS,NA,NA,64.68946266573622,NA
66208,Johnson County,KS,NA,NA,47.03419399860433,NA
66210,Johnson County,KS,NA,NA,NA,48.5921889191644
66215,Johnson County,KS,31.07344632768362,NA,NA,NA
66503,Riley County,KS,NA,NA,NA,94.55040871934605
66618,Shawnee County,KS,NA,87.12522045855378,NA,NA
67060,Sedgwick County,KS,NA,NA,NA,95.00454132606721
67203,Sedgwick County,KS,NA,NA,65.87578506629448,NA
67204,Sedgwick County,KS,NA,NA,66.36427076064201,NA
67207,Sedgwick County,KS,NA,NA,NA,78.7465940054496
67213,Sedgwick County,KS,NA,55.29100529100529,NA,NA
67214,Sedgwick County,KS,NA,85.3615520282187,NA,NA
67216,Sedgwick County,KS,NA,NA,66.43405443126309,NA
67217,Sedgwick County,KS,31.63841807909605,45.767195767195766,NA,NA
67220,Sedgwick County,KS,NA,NA,96.78995115143056,NA
67230,Sedgwick County,KS,NA,NA,99.16259595254711,NA
67357,Labette County,KS,NA,NA,57.50174459176552,NA
67401,Saline County,KS,NA,NA,18.004187020237264,NA
67460,McPherson County,KS,93.22033898305084,NA,NA,NA
67501,Reno County,KS,NA,NA,70.13258897418004,NA
67502,Reno County,KS,NA,NA,NA,50.68119891008175
67550,Pawnee County,KS,NA,NA,NA,72.84287011807447
67735,Sherman County,KS,NA,NA,81.50732728541522,NA
40004,Nelson County,KY,NA,15.961199294532626,NA,NA
40059,Jefferson County,KY,NA,NA,62.45638520586183,NA
40065,Shelby County,KY,NA,NA,26.65736217725052,NA
40069,Washington County,KY,NA,62.78659611992945,NA,NA
40146,Breckinridge County,KY,NA,92.06349206349206,NA,NA
40175,Hardin County,KY,NA,51.14638447971781,NA,NA
40203,Jefferson County,KY,NA,18.253968253968253,NA,NA
40207,Jefferson County,KY,NA,NA,30.49546406140963,NA
40211,Jefferson County,KY,NA,11.11111111111111,NA,NA
40212,Jefferson County,KY,19.2090395480226,NA,NA,NA
40214,Jefferson County,KY,NA,5.026455026455026,NA,42.870118074477745
40218,Jefferson County,KY,NA,NA,NA,56.31244323342416
40219,Jefferson County,KY,NA,NA,19.469644103279833,NA
40220,Jefferson County,KY,NA,32.53968253968254,NA,NA
40229,Jefferson County,KY,NA,10.141093474426807,NA,NA
40241,Jefferson County,KY,NA,NA,NA,64.39600363306084
40242,Jefferson County,KY,NA,NA,70.69085833914865,NA
40258,Jefferson County,KY,NA,18.78306878306878,36.287508722958826,NA
40272,Jefferson County,KY,NA,11.375661375661375,NA,NA
40291,Jefferson County,KY,NA,NA,NA,68.30154405086284
40299,Jefferson County,KY,NA,29.894179894179896,NA,NA
40324,Scott County,KY,NA,NA,19.120725750174458,NA
40330,Mercer County,KY,NA,46.56084656084656,NA,NA
40403,Madison County,KY,NA,NA,85.62456385205863,NA
40444,Garrard County,KY,84.7457627118644,52.116402116402114,NA,NA
40447,Jackson County,KY,NA,NA,82.69364968597348,NA
40475,Madison County,KY,NA,NA,38.171667829727845,NA
40508,Fayette County,KY,NA,29.276895943562607,NA,NA
40517,Fayette County,KY,NA,NA,38.38101884159107,NA
40701,Whitley County,KY,NA,9.082892416225748,NA,NA
40741,Laurel County,KY,NA,NA,37.40404745289602,NA
40744,Laurel County,KY,NA,25.925925925925924,NA,NA
40962,Clay County,KY,NA,15.432098765432098,NA,NA
41008,Carroll County,KY,NA,73.54497354497354,79.0648988136776,NA
41015,Kenton County,KY,NA,NA,57.92044661549197,NA
41017,Kenton County,KY,NA,NA,72.85415212840195,NA
41042,Boone County,KY,NA,NA,NA,2.9064486830154403
41051,Kenton County,KY,NA,31.922398589065253,NA,NA
41056,Mason County,KY,NA,NA,63.50314026517795,56.039963669391454
41076,Campbell County,KY,NA,NA,47.452896022330776,NA
41144,Greenup County,KY,70.05649717514125,35.44973544973545,NA,NA
41164,Carter County,KY,NA,NA,NA,47.68392370572207
41224,Martin County,KY,82.485875706214685,NA,NA,NA
41501,Pike County,KY,NA,NA,11.65387299371947,NA
41649,Floyd County,KY,NA,98.14814814814815,NA,NA
41858,Letcher County,KY,NA,NA,NA,60.217983651226156
42001,McCracken County,KY,NA,NA,17.096999302163294,NA
42101,Warren County,KY,NA,25.132275132275133,NA,NA
42240,Christian County,KY,NA,NA,45.35938590369854,NA
42276,Logan County,KY,NA,NA,56.38520586182834,NA
42301,Daviess County,KY,NA,NA,81.22819260293092,NA
42345,Muhlenberg County,KY,NA,NA,NA,57.22070844686649
42408,Hopkins County,KY,NA,75.13227513227513,NA,NA
42431,Hopkins County,KY,NA,NA,23.866015352407537,NA
42437,Union County,KY,NA,NA,NA,84.6503178928247
42501,Pulaski County,KY,NA,NA,55.68736915561758,34.332425068119896
42539,Casey County,KY,NA,NA,NA,73.7511353315168
42544,Pulaski County,KY,NA,78.9241622574956,NA,NA
42567,Pulaski County,KY,NA,96.64902998236332,NA,NA
42602,Clinton County,KY,NA,NA,89.60223307745987,NA
42635,McCreary County,KY,NA,NA,94.06838799720866,NA
70003,Jefferson Parish,LA,NA,NA,NA,18.07447774750227
70056,Jefferson Parish,LA,NA,NA,NA,20.89009990917348
70058,Jefferson Parish,LA,NA,NA,9.909281228192603,NA
70072,Jefferson Parish,LA,NA,1.0582010582010581,NA,NA
70094,Jefferson Parish,LA,NA,NA,NA,47.86557674841054
70117,Orleans Parish,LA,NA,NA,14.305652477320308,NA
70118,Orleans Parish,LA,NA,NA,15.701325889741803,NA
70344,Terrebonne Parish,LA,NA,NA,NA,94.91371480472299
70403,Tangipahoa Parish,LA,NA,NA,NA,60.76294277929155
70427,Washington Parish,LA,NA,NA,NA,24.159854677565846
70431,St. Tammany Parish,LA,NA,NA,69.57431960921144,NA
70433,St. Tammany Parish,LA,NA,24.42680776014109,NA,NA
70454,Tangipahoa Parish,LA,NA,7.142857142857142,NA,NA
70461,St. Tammany Parish,LA,6.214689265536723,NA,NA,NA
70517,St. Martin Parish,LA,NA,NA,51.84926727145848,NA
70560,Iberia Parish,LA,NA,13.139329805996471,11.025819958129798,NA
70563,Iberia Parish,LA,NA,NA,61.89811584089323,NA
70634,Beauregard Parish,LA,NA,NA,NA,34.15077202543142
70769,Ascension Parish,LA,NA,NA,35.24075366364271,NA
70775,West Feliciana Parish,LA,NA,NA,89.95115143056525,NA
70802,East Baton Rouge Parish,LA,NA,NA,37.61339846475924,NA
70805,East Baton Rouge Parish,LA,NA,14.814814814814813,NA,NA
70809,East Baton Rouge Parish,LA,NA,NA,NA,36.8755676657584
70815,East Baton Rouge Parish,LA,NA,13.051146384479717,NA,NA
70816,East Baton Rouge Parish,LA,NA,4.320987654320987,30.00697836706211,NA
70817,East Baton Rouge Parish,LA,NA,NA,12.840195394277739,NA
71104,Caddo Parish,LA,NA,NA,65.31751570132589,NA
71106,Caddo Parish,LA,NA,NA,10.60711793440335,NA
71107,Caddo Parish,LA,NA,NA,15.980460572226098,NA
71109,Caddo Parish,LA,NA,NA,22.051639916259596,NA
71111,Bossier Parish,LA,NA,NA,44.31263084438242,NA
71119,Caddo Parish,LA,NA,NA,NA,89.19164396003633
71270,Lincoln Parish,LA,NA,20.54673721340388,NA,NA
71301,Rapides Parish,LA,NA,NA,31.193300767620375,NA
71302,Rapides Parish,LA,NA,NA,NA,48.13805631244323
71373,Concordia Parish,LA,NA,NA,NA,92.7338782924614
71465,La Salle Parish,LA,90.96045197740112,99.91181657848325,NA,NA
03904,York County,ME,NA,NA,52.68667131891137,NA
04005,York County,ME,NA,NA,3.8381018841591072,NA
04046,York County,ME,NA,NA,NA,68.93732970027247
04062,Cumberland County,ME,75.14124293785311,NA,NA,72.75204359673025
04073,York County,ME,NA,NA,29.16957431960921,NA
04083,York County,ME,NA,NA,89.39288206559665,NA
04270,Oxford County,ME,NA,NA,NA,75.20435967302453
04345,Kennebec County,ME,NA,NA,NA,67.93823796548592
04401,Penobscot County,ME,NA,NA,30.35589672016748,NA
04572,Lincoln County,ME,NA,NA,NA,98.09264305177112
04736,Aroostook County,ME,NA,NA,39.70690858339149,80.74477747502272
04937,Somerset County,ME,NA,50.70546737213404,NA,NA
04963,Kennebec County,ME,NA,54.14462081128748,NA,NA
20659,St. Mary's County,MD,NA,NA,55.47801814375436,NA
20707,Prince George's County,MD,NA,NA,82.41451500348919,NA
20708,Prince George's County,MD,NA,NA,71.52826238660154,NA
20723,Howard County,MD,NA,77.33686067019401,NA,NA
20746,Prince George's County,MD,NA,56.08465608465608,NA,NA
20748,Prince George's County,MD,NA,NA,63.6427076064201,NA
20781,Prince George's County,MD,NA,88.80070546737213,NA,NA
20854,Montgomery County,MD,NA,NA,31.123517096999304,NA
20874,Montgomery County,MD,NA,NA,NA,96.91189827429609
20877,Montgomery County,MD,NA,NA,82.13538032100487,NA
20878,Montgomery County,MD,NA,NA,NA,70.02724795640327
20901,Montgomery County,MD,NA,71.8694885361552,NA,52.497729336966394
20902,Montgomery County,MD,NA,84.47971781305115,61.27006280530356,NA
21001,Harford County,MD,NA,55.026455026455025,NA,NA
21009,Harford County,MD,NA,NA,NA,64.75930971843779
21012,Anne Arundel County,MD,NA,NA,NA,73.02452316076294
21013,Baltimore County,MD,NA,95.85537918871252,NA,NA
21030,Baltimore County,MD,NA,NA,NA,69.66394187102634
21042,Howard County,MD,NA,NA,54.36147941381717,NA
21048,Carroll County,MD,NA,NA,86.32240055826936,NA
21093,Baltimore County,MD,NA,NA,NA,6.085376930063579
21117,Baltimore County,MD,38.4180790960452,NA,NA,NA
21120,Baltimore County,MD,NA,97.2663139329806,NA,NA
21122,Anne Arundel County,MD,NA,6.172839506172839,11.444521981856246,NA
21146,Anne Arundel County,MD,NA,NA,NA,61.671207992733876
21201,Baltimore city,MD,NA,NA,45.778087927424984,NA
21208,Baltimore County,MD,NA,NA,29.937194696441033,NA
21213,Baltimore city,MD,25.98870056497175,NA,NA,NA
21215,Baltimore city,MD,NA,NA,36.49685973482205,NA
21222,Baltimore County,MD,NA,19.48853615520282,NA,NA
21224,Baltimore city,MD,NA,NA,32.588974180041866,NA
21227,Baltimore County,MD,NA,NA,NA,26.793823796548594
21234,Baltimore County,MD,NA,NA,NA,24.432334241598546
21236,Baltimore County,MD,41.80790960451977,NA,NA,NA
21239,Baltimore city,MD,NA,NA,NA,23.342415985467756
21502,Allegany County,MD,NA,NA,15.422191207257502,NA
21613,Dorchester County,MD,NA,NA,53.7334263782275,NA
21704,Frederick County,MD,NA,NA,95.81297976273552,NA
21740,Washington County,MD,NA,15.696649029982362,NA,24.704813805631247
21754,Frederick County,MD,NA,93.5626102292769,NA,NA
21784,Carroll County,MD,NA,NA,54.71039776692253,NA
21801,Wicomico County,MD,NA,NA,58.33914863921842,NA
21804,Wicomico County,MD,NA,41.7989417989418,NA,34.42325158946412
21811,Worcester County,MD,NA,49.91181657848324,23.16817864619679,NA
01013,Hampden County,MA,NA,29.541446208112877,44.731332868108865,NA
01020,Hampden County,MA,NA,NA,9.002093510118632,NA
01028,Hampden County,MA,NA,NA,76.41311933007677,NA
01036,Hampden County,MA,NA,95.59082892416225,NA,NA
01040,Hampden County,MA,NA,86.5079365079365,NA,NA
01056,Hampden County,MA,NA,41.622574955908284,NA,NA
01089,Hampden County,MA,NA,NA,25.40125610607118,NA
01095,Hampden County,MA,NA,NA,62.03768318213538,NA
01104,Hampden County,MA,NA,NA,94.97557571528262,NA
01106,Hampden County,MA,NA,NA,91.90509420795534,NA
01109,Hampden County,MA,NA,NA,34.54291695743196,NA
01151,Hampden County,MA,NA,NA,48.42986741102582,NA
01201,Berkshire County,MA,NA,0.9700176366843033,2.5122121423586883,NA
01230,Berkshire County,MA,NA,NA,47.9413817166783,57.49318801089919
01247,Berkshire County,MA,NA,NA,7.815771109560362,17.80199818346957
01420,Worcester County,MA,NA,0.26455026455026454,NA,NA
01453,Worcester County,MA,11.299435028248588,NA,NA,NA
01545,Worcester County,MA,NA,NA,48.42986741102582,NA
01602,Worcester County,MA,NA,5.467372134038801,NA,NA
01603,Worcester County,MA,NA,NA,NA,91.9164396003633
01605,Worcester County,MA,NA,NA,0.34891835310537334,NA
01609,Worcester County,MA,NA,NA,4.3963712491277045,NA
01701,Middlesex County,MA,NA,NA,5.792044661549197,NA
01721,Middlesex County,MA,NA,NA,34.82205163991626,NA
01747,Worcester County,MA,NA,NA,95.95254710397766,NA
01752,Middlesex County,MA,NA,2.821869488536155,NA,NA
01757,Worcester County,MA,NA,1.763668430335097,92.95184926727146,NA
01760,Middlesex County,MA,NA,NA,6.28053035589672,NA
01801,Middlesex County,MA,NA,NA,NA,25.885558583106267
01821,Middlesex County,MA,NA,NA,NA,5.994550408719346
01824,Middlesex County,MA,NA,NA,5.443126308443825,NA
01826,Middlesex County,MA,NA,NA,2.09351011863224,NA
01832,Essex County,MA,NA,NA,8.443824145150035,NA
01835,Essex County,MA,NA,NA,NA,86.19436875567665
01845,Essex County,MA,73.44632768361582,NA,NA,NA
01852,Middlesex County,MA,NA,NA,0.8374040474528961,NA
01880,Middlesex County,MA,33.89830508474576,NA,NA,NA
01904,Essex County,MA,NA,NA,10.746685275645499,NA
01913,Essex County,MA,NA,NA,7.885554780181438,NA
01915,Essex County,MA,NA,NA,NA,0.8174386920980926
01921,Essex County,MA,NA,95.41446208112875,NA,NA
01923,Essex County,MA,NA,NA,NA,1.725703905540418
01930,Essex County,MA,NA,15.608465608465607,NA,NA
01945,Essex County,MA,NA,35.5379188712522,NA,NA
01949,Essex County,MA,85.31073446327684,NA,NA,NA
01970,Essex County,MA,NA,5.2028218694885355,NA,30.24523160762943
02025,Norfolk County,MA,97.17514124293785,NA,NA,NA
02035,Norfolk County,MA,NA,NA,20.097697138869506,NA
02038,Norfolk County,MA,NA,10.846560846560847,47.3831123517097,NA
02052,Norfolk County,MA,57.6271186440678,NA,NA,NA
02053,Norfolk County,MA,NA,NA,NA,88.46503178928246
02081,Norfolk County,MA,NA,18.342151675485006,NA,72.38873751135331
02090,Norfolk County,MA,NA,NA,NA,39.782016348773844
02115,Suffolk County,MA,NA,NA,21.702721563154224,NA
02119,Suffolk County,MA,NA,NA,NA,2.7247956403269753
02121,Suffolk County,MA,NA,NA,NA,3.8147138964577656
02124,Suffolk County,MA,NA,NA,0.06978367062107467,NA
02125,Suffolk County,MA,NA,NA,NA,6.448683015440508
02128,Suffolk County,MA,NA,8.994708994708994,0.7676203768318213,26.612170753860127
02130,Suffolk County,MA,NA,NA,12.70062805303559,NA
02132,Suffolk County,MA,NA,NA,1.1165387299371947,NA
02135,Suffolk County,MA,NA,3.3509700176366843,NA,NA
02139,Middlesex County,MA,NA,2.204585537918871,NA,NA
02143,Middlesex County,MA,NA,61.99294532627866,38.45080251221214,NA
02148,Middlesex County,MA,NA,0,NA,NA
02149,Middlesex County,MA,NA,NA,0.41870202372644805,50.590372388737514
02152,Suffolk County,MA,NA,NA,6.4200976971388695,NA
02155,Middlesex County,MA,NA,NA,NA,0.544959128065395
02169,Norfolk County,MA,NA,0.5291005291005291,NA,NA
02180,Middlesex County,MA,22.033898305084744,96.82539682539682,NA,NA
02186,Norfolk County,MA,NA,NA,60.08374040474529,NA
02188,Norfolk County,MA,NA,NA,35.170969993021636,NA
02190,Norfolk County,MA,NA,NA,31.960921144452197,NA
02191,Norfolk County,MA,NA,55.20282186948854,NA,73.56948228882834
02346,Plymouth County,MA,NA,NA,40.61409630146546,NA
02360,Plymouth County,MA,NA,NA,4.256803907885555,NA
02467,Norfolk County,MA,NA,71.78130511463846,NA,NA
02472,Middlesex County,MA,NA,NA,31.332868108862527,NA
02481,Norfolk County,MA,NA,49.735449735449734,NA,NA
02493,Middlesex County,MA,NA,NA,NA,53.496821071752954
02601,Barnstable County,MA,NA,35.18518518518518,NA,NA
02632,Barnstable County,MA,NA,42.857142857142854,NA,32.879200726612176
02639,Barnstable County,MA,NA,NA,NA,72.11625794732062
02675,Barnstable County,MA,NA,NA,NA,44.4141689373297
02719,Bristol County,MA,NA,NA,45.847871598046055,NA
02720,Bristol County,MA,0.5649717514124294,0.1763668430335097,NA,NA
02723,Bristol County,MA,NA,40.0352733686067,NA,NA
02740,Bristol County,MA,NA,0.08818342151675485,NA,NA
02747,Bristol County,MA,NA,23.809523809523807,NA,NA
02748,Bristol County,MA,NA,NA,NA,20.98092643051771
02766,Bristol County,MA,NA,NA,7.397069085833915,NA
02780,Bristol County,MA,NA,2.91005291005291,1.04675505931612,NA
48005,Macomb County,MI,NA,NA,92.0446615491975,NA
48021,Macomb County,MI,NA,NA,14.79413817166783,NA
48025,Oakland County,MI,87.57062146892656,NA,92.46336357292394,NA
48026,Macomb County,MI,NA,30.864197530864196,NA,NA
48030,Oakland County,MI,NA,36.77248677248677,57.57152826238661,NA
48033,Oakland County,MI,NA,NA,29.030006978367062,NA
48034,Oakland County,MI,NA,84.03880070546738,50.383810188415914,NA
48035,Macomb County,MI,NA,NA,7.745987438939288,NA
48036,Macomb County,MI,NA,NA,24.07536636427076,14.804722979109899
48044,Macomb County,MI,NA,6.084656084656085,5.024424284717377,NA
48045,Macomb County,MI,NA,NA,48.36008374040475,NA
48060,St. Clair County,MI,NA,14.90299823633157,26.30844382414515,NA
48065,Macomb County,MI,NA,NA,74.1102581995813,NA
48066,Macomb County,MI,NA,NA,NA,5.358764759309718
48072,Oakland County,MI,NA,44.5326278659612,NA,NA
48074,St. Clair County,MI,NA,63.051146384479715,NA,NA
48076,Oakland County,MI,NA,57.936507936507944,NA,34.241598546775656
48080,Macomb County,MI,NA,NA,NA,21.071752951861946
48081,Macomb County,MI,29.943502824858758,NA,NA,NA
48082,Macomb County,MI,NA,41.269841269841265,NA,NA
48088,Macomb County,MI,NA,NA,20.516399162595953,NA
48089,Macomb County,MI,NA,NA,19.74877878576413,NA
48091,Macomb County,MI,8.47457627118644,4.850088183421517,NA,NA
48094,Macomb County,MI,NA,44.26807760141093,47.52267969295185,NA
48098,Oakland County,MI,NA,52.64550264550265,33.00767620376831,NA
48103,Washtenaw County,MI,NA,12.433862433862434,NA,NA
48105,Washtenaw County,MI,NA,NA,NA,1.9981834695731153
48111,Wayne County,MI,NA,NA,NA,22.70663033605813
48124,Wayne County,MI,NA,NA,NA,71.75295186194369
48127,Wayne County,MI,NA,10.493827160493826,NA,NA
48128,Wayne County,MI,NA,NA,NA,77.56584922797457
48134,Wayne County,MI,NA,NA,NA,42.68846503178928
48141,Wayne County,MI,NA,NA,13.46824842986741,NA
48144,Monroe County,MI,NA,NA,NA,89.82742960944596
48158,Washtenaw County,MI,NA,88.18342151675485,NA,NA
48161,Monroe County,MI,NA,5.731922398589065,NA,NA
48162,Monroe County,MI,NA,35.80246913580247,NA,NA
48165,Oakland County,MI,NA,73.6331569664903,NA,NA
48166,Monroe County,MI,NA,NA,34.263782274947665,NA
48168,Wayne County,MI,NA,NA,NA,26.975476839237057
48170,Wayne County,MI,NA,NA,NA,2.452316076294278
48174,Wayne County,MI,NA,26.190476190476193,NA,NA
48178,Oakland County,MI,NA,76.01410934744268,NA,4.995458673932789
48180,Wayne County,MI,NA,NA,NA,2.17983651226158
48183,Wayne County,MI,NA,NA,NA,8.71934604904632
48187,Wayne County,MI,NA,NA,16.05024424284717,NA
48197,Washtenaw County,MI,NA,1.9400352733686066,NA,NA
48202,Wayne County,MI,NA,NA,37.334263782274945,NA
48205,Wayne County,MI,NA,NA,NA,61.12624886466848
48211,Wayne County,MI,NA,83.06878306878306,NA,NA
48212,Wayne County,MI,NA,NA,11.095603628750872,NA
48215,Wayne County,MI,NA,31.569664902998234,NA,NA
48218,Wayne County,MI,NA,86.86067019400353,NA,NA
48221,Wayne County,MI,NA,NA,4.466154919748779,2.2706630336058127
48224,Wayne County,MI,NA,12.257495590828924,NA,NA
48228,Wayne County,MI,NA,1.1463844797178129,NA,NA
48236,Wayne County,MI,NA,NA,11.723656664340544,NA
48240,Wayne County,MI,NA,17.548500881834215,NA,NA
48309,Oakland County,MI,NA,28.92416225749559,NA,19.527702089009992
48310,Macomb County,MI,NA,13.31569664902998,10.048848569434753,NA
48313,Macomb County,MI,NA,70.45855379188713,18.632240055826937,NA
48314,Macomb County,MI,NA,36.33156966490299,NA,NA
48316,Macomb County,MI,NA,NA,NA,16.076294277929154
48317,Macomb County,MI,NA,NA,16.399162595952546,58.94641235240691
48328,Oakland County,MI,NA,NA,NA,70.48138056312443
48329,Oakland County,MI,NA,NA,17.445917655268666,NA
48342,Oakland County,MI,NA,38.97707231040564,NA,NA
48346,Oakland County,MI,NA,32.01058201058201,NA,NA
48356,Oakland County,MI,NA,86.331569664903,NA,NA
48375,Oakland County,MI,NA,NA,NA,82.19800181653044
48377,Oakland County,MI,NA,NA,72.01674808094906,NA
48386,Oakland County,MI,NA,NA,73.48220516399162,NA
48420,Genesee County,MI,NA,40.123456790123456,NA,NA
48421,Lapeer County,MI,NA,NA,94.7662247034194,NA
48423,Genesee County,MI,NA,NA,18.353105373342636,NA
48439,Genesee County,MI,NA,NA,NA,89.3732970027248
48458,Genesee County,MI,NA,NA,51.151430565247736,NA
48506,Genesee County,MI,NA,NA,35.03140265177949,NA
48601,Saginaw County,MI,NA,NA,41.38171667829728,NA
48626,Saginaw County,MI,NA,97.00176366843033,NA,NA
48632,Clare County,MI,NA,NA,84.0195394277739,NA
48638,Saginaw County,MI,NA,NA,40.68387997208654,NA
48640,Midland County,MI,NA,8.112874779541446,NA,NA
48661,Ogemaw County,MI,NA,NA,NA,28.337874659400548
48708,Bay County,MI,NA,NA,6.559665038381018,NA
48723,Tuscola County,MI,NA,23.633156966490297,NA,NA
48732,Bay County,MI,NA,NA,NA,82.56130790190736
48813,Eaton County,MI,NA,32.71604938271605,14.026517794836007,NA
48843,Livingston County,MI,NA,NA,3.558967201674808,NA
48846,Ionia County,MI,NA,NA,46.05722260990928,NA
48864,Ingham County,MI,NA,NA,43.12630844382414,NA
48867,Shiawassee County,MI,NA,5.114638447971781,NA,NA
48895,Ingham County,MI,NA,NA,80.66992323796231,NA
48910,Ingham County,MI,2.824858757062147,NA,NA,NA
48917,Eaton County,MI,NA,7.319223985890652,NA,8.900999091734786
49037,Calhoun County,MI,NA,NA,NA,40.14532243415077
49085,Berrien County,MI,NA,NA,39.218422889043964,NA
49099,St. Joseph County,MI,NA,85.89065255731923,NA,NA
49107,Berrien County,MI,NA,NA,76.27355198883461,78.83742052679382
49120,Berrien County,MI,NA,11.816578483245149,NA,NA
49201,Jackson County,MI,NA,NA,NA,5.267938237965486
49203,Jackson County,MI,NA,5.82010582010582,5.931612002791347,33.42415985467756
49224,Calhoun County,MI,NA,NA,55.268667131891135,NA
49230,Jackson County,MI,NA,NA,44.66154919748779,NA
49251,Ingham County,MI,NA,NA,NA,97.82016348773843
49286,Lenawee County,MI,NA,78.04232804232805,NA,38.782924613987284
49307,Mecosta County,MI,NA,NA,NA,42.960944595821985
49328,Allegan County,MI,NA,NA,99.86043265875784,NA
49331,Kent County,MI,NA,NA,73.69155617585486,NA
49333,Barry County,MI,NA,NA,95.324494068388,NA
49337,Newaygo County,MI,NA,NA,84.78715980460572,NA
49340,Mecosta County,MI,NA,99.55908289241623,NA,NA
49345,Kent County,MI,NA,85.97883597883597,NA,NA
49346,Mecosta County,MI,NA,NA,67.4808094905792,NA
49401,Ottawa County,MI,NA,NA,83.60083740404745,NA
49408,Allegan County,MI,NA,73.89770723104057,59.17655268667132,NA
49412,Newaygo County,MI,NA,NA,54.29169574319609,NA
49418,Kent County,MI,NA,NA,90.648988136776,NA
49423,Ottawa County,MI,NA,9.788359788359788,NA,51.044504995458674
49424,Ottawa County,MI,NA,NA,NA,7.538601271571299
49426,Ottawa County,MI,20.33898305084746,66.31393298059965,NA,NA
49444,Muskegon County,MI,16.94915254237288,NA,17.306350314026517,NA
49445,Muskegon County,MI,NA,NA,16.88764829030007,NA
49450,Allegan County,MI,NA,97.79541446208113,NA,NA
49503,Kent County,MI,NA,9.171075837742503,NA,NA
49504,Kent County,MI,NA,NA,11.235170969993021,NA
49509,Kent County,MI,NA,NA,13.60781577110956,NA
49519,Kent County,MI,NA,13.932980599647266,NA,NA
49601,Wexford County,MI,NA,40.917107583774246,NA,30.336058128973658
49646,Kalkaska County,MI,NA,NA,97.97627355198884,NA
49651,Missaukee County,MI,NA,NA,97.27843684577809,NA
49655,Osceola County,MI,NA,NA,99.30216329378926,NA
49660,Manistee County,MI,NA,NA,24.005582693649686,NA
49677,Osceola County,MI,NA,NA,NA,57.31153496821072
49707,Alpena County,MI,NA,NA,17.236566643405443,NA
49721,Cheboygan County,MI,NA,NA,33.91486392184228,34.69573115349682
49738,Crawford County,MI,NA,69.40035273368606,NA,NA
49770,Emmet County,MI,NA,NA,48.15073272854152,NA
49855,Marquette County,MI,30.508474576271187,NA,NA,NA
49858,Menominee County,MI,NA,NA,NA,87.73841961852861
49868,Luce County,MI,NA,94.53262786596119,NA,66.12170753860127
55016,Washington County,MN,NA,NA,59.52547103977669,NA
55033,Dakota County,MN,NA,NA,NA,27.06630336058129
55051,Kanabec County,MN,NA,53.43915343915344,NA,NA
55075,Dakota County,MN,NA,NA,77.45987438939288,NA
55076,Dakota County,MN,NA,NA,53.454291695743194,NA
55103,Ramsey County,MN,NA,NA,69.01605024424285,NA
55112,Ramsey County,MN,NA,35.626102292768955,NA,15.531335149863759
55116,Ramsey County,MN,NA,NA,56.66434054431263,NA
55117,Ramsey County,MN,NA,90.47619047619048,NA,NA
55119,Ramsey County,MN,NA,NA,NA,38.69209809264305
55123,Dakota County,MN,NA,76.71957671957672,NA,NA
55124,Dakota County,MN,NA,NA,NA,90.09990917347865
55125,Washington County,MN,NA,NA,45.91765526866713,NA
55126,Ramsey County,MN,NA,NA,NA,58.03814713896458
55127,Ramsey County,MN,NA,NA,NA,72.20708446866485
55130,Ramsey County,MN,27.11864406779661,NA,NA,92.64305177111717
55309,Sherburne County,MN,NA,70.72310405643739,NA,98.18346957311535
55313,Wright County,MN,NA,47.795414462081126,38.311235170969994,NA
55316,Hennepin County,MN,NA,59.34744268077602,NA,NA
55330,Sherburne County,MN,14.124293785310735,67.54850088183422,91.48639218422889,NA
55337,Dakota County,MN,NA,29.188712522045858,NA,NA
55346,Hennepin County,MN,NA,NA,88.1367759944173,NA
55355,Meeker County,MN,NA,NA,73.2728541521284,NA
55364,Hennepin County,MN,NA,95.5026455026455,NA,NA
55369,Hennepin County,MN,NA,29.98236331569665,NA,NA
55374,Hennepin County,MN,76.8361581920904,NA,NA,NA
55378,Scott County,MN,NA,48.236331569664905,85.20586182833217,NA
55398,Sherburne County,MN,NA,NA,86.60153524075366,NA
55406,Hennepin County,MN,NA,NA,98.32519190509421,NA
55407,Hennepin County,MN,4.519774011299435,NA,NA,NA
55410,Hennepin County,MN,NA,NA,NA,78.2016348773842
55413,Hennepin County,MN,NA,87.3015873015873,NA,NA
55418,Hennepin County,MN,NA,23.368606701940035,NA,NA
55421,Anoka County,MN,NA,46.73721340388007,NA,NA
55426,Hennepin County,MN,NA,NA,NA,35.33151680290645
55427,Hennepin County,MN,NA,47.53086419753087,NA,NA
55433,Anoka County,MN,NA,30.511463844797177,51.29099790648988,NA
55435,Hennepin County,MN,NA,NA,NA,58.21980018165305
55449,Anoka County,MN,NA,NA,69.15561758548499,NA
55719,St. Louis County,MN,68.36158192090396,NA,NA,NA
55720,Carlton County,MN,NA,NA,39.35799023028611,37.32970027247956
55806,St. Louis County,MN,NA,NA,58.54849965108164,NA
55810,St. Louis County,MN,NA,NA,NA,66.21253405994551
55901,Olmsted County,MN,NA,NA,22.74947662247034,NA
55904,Olmsted County,MN,NA,NA,NA,32.15258855585831
55912,Mower County,MN,NA,NA,NA,0.36330608537693004
56011,Scott County,MN,NA,NA,92.53314724354502,NA
56073,Brown County,MN,NA,NA,42.00976971388695,NA
56156,Rock County,MN,NA,NA,NA,70.48138056312443
56172,Murray County,MN,NA,NA,97.62735519888346,NA
56303,Stearns County,MN,NA,NA,NA,81.10808356039963
56334,Pope County,MN,NA,NA,NA,65.12261580381471
56362,Stearns County,MN,NA,NA,NA,50.86285195277021
56379,Benton County,MN,NA,NA,93.78925331472435,84.9227974568574
56401,Crow Wing County,MN,NA,7.936507936507936,3.907885554780181,NA
56444,Crow Wing County,MN,NA,NA,85.4152128401954,NA
56470,Hubbard County,MN,NA,61.111111111111114,NA,NA
56537,Otter Tail County,MN,NA,61.46384479717813,NA,NA
56601,Beltrami County,MN,NA,NA,0.9071877180739707,NA
56671,Beltrami County,MN,NA,90.03527336860671,NA,NA
56763,Roseau County,MN,NA,71.42857142857143,NA,NA
38620,Panola County,MS,NA,NA,99.58129797627355,NA
38652,Union County,MS,NA,70.28218694885362,NA,NA
38654,DeSoto County,MS,NA,NA,NA,26.521344232515894
38655,Lafayette County,MS,NA,NA,66.08513607815772,NA
38668,Tate County,MS,NA,67.72486772486772,NA,NA
38801,Lee County,MS,NA,64.81481481481481,NA,NA
38834,Alcorn County,MS,NA,NA,21.35380321004885,NA
39059,Copiah County,MS,NA,74.60317460317461,NA,NA
39069,Jefferson County,MS,NA,NA,96.51081646894627,92.27974568574024
39074,Scott County,MS,NA,NA,61.967899511514304,NA
39110,Madison County,MS,NA,NA,NA,26.70299727520436
39157,Madison County,MS,NA,NA,NA,61.48955495004541
39180,Warren County,MS,NA,NA,NA,91.28065395095368
39183,Warren County,MS,NA,55.82010582010582,82.27494766224703,NA
39203,Hinds County,MS,NA,NA,NA,93.82379654859218
39206,Hinds County,MS,NA,24.95590828924162,NA,92.55222524977293
39208,Rankin County,MS,NA,NA,51.57013258897418,NA
39305,Lauderdale County,MS,NA,NA,81.78646196789951,NA
39426,Pearl River County,MS,NA,NA,71.66782972784368,NA
39465,Forrest County,MS,NA,NA,77.6692254012561,NA
39466,Pearl River County,MS,NA,NA,NA,17.07538601271571
39470,Pearl River County,MS,NA,NA,NA,62.125340599455036
39483,Marion County,MS,NA,80.59964726631394,NA,NA
39531,Harrison County,MS,NA,64.72663139329806,NA,NA
39560,Harrison County,MS,NA,NA,8.025122121423585,NA
39577,Stone County,MS,NA,85.00881834215167,NA,NA
39645,Amite County,MS,NA,NA,89.5324494068388,NA
39735,Choctaw County,MS,NA,NA,96.44103279832518,NA
39773,Clay County,MS,NA,NA,NA,76.02179836512262
63017,St. Louis County,MO,NA,NA,9.560362875087229,NA
63026,St. Louis County,MO,NA,NA,NA,55.40417801998183
63043,St. Louis County,MO,NA,46.20811287477954,NA,NA
63077,Franklin County,MO,NA,NA,69.85345429169574,NA
63084,Franklin County,MO,NA,NA,NA,41.41689373297003
63114,St. Louis County,MO,NA,51.14638447971781,NA,NA
63115,St. Louis city,MO,NA,NA,51.360781577110956,NA
63118,St. Louis city,MO,NA,NA,NA,83.01544050862853
63130,St. Louis County,MO,NA,NA,82.9030006978367,NA
63134,St. Louis County,MO,NA,NA,83.87997208653175,NA
63135,St. Louis County,MO,NA,27.160493827160494,NA,NA
63147,St. Louis city,MO,NA,51.05820105820106,NA,NA
63301,St. Charles County,MO,NA,11.199294532627865,NA,NA
63303,St. Charles County,MO,NA,19.400352733686066,NA,NA
63348,St. Charles County,MO,NA,NA,92.67271458478716,NA
63367,St. Charles County,MO,NA,NA,NA,57.94732061762035
63552,Macon County,MO,NA,NA,83.11235170969992,NA
63628,St. Francois County,MO,NA,NA,NA,64.48683015440508
63640,St. Francois County,MO,NA,NA,68.73691556175855,70.84468664850137
63755,Cape Girardeau County,MO,NA,NA,48.709002093510115,NA
63841,Stoddard County,MO,NA,NA,71.10956036287509,NA
63935,Ripley County,MO,NA,76.63139329805998,NA,NA
64012,Cass County,MO,NA,22.92768959435626,NA,NA
64014,Jackson County,MO,NA,46.56084656084656,NA,NA
64024,Clay County,MO,NA,NA,33.426378227494766,NA
64034,Jackson County,MO,NA,94.26807760141094,NA,NA
64037,Lafayette County,MO,NA,NA,79.55338450802513,NA
64050,Jackson County,MO,NA,NA,13.817166782972784,NA
64052,Jackson County,MO,NA,8.55379188712522,NA,NA
64057,Jackson County,MO,NA,NA,NA,51.86194368755677
64076,Lafayette County,MO,NA,62.61022927689594,NA,NA
64078,Cass County,MO,NA,84.47971781305115,NA,NA
64089,Clay County,MO,NA,45.5026455026455,NA,NA
64116,Clay County,MO,NA,NA,NA,48.13805631244323
64119,Clay County,MO,10.16949152542373,NA,17.02721563154222,NA
64123,Jackson County,MO,NA,NA,NA,80.83560399636693
64130,Jackson County,MO,NA,4.938271604938271,NA,NA
64132,Jackson County,MO,NA,12.610229276895943,NA,NA
64156,Clay County,MO,NA,NA,99.30216329378926,NA
64157,Clay County,MO,15.819209039548024,NA,NA,NA
64490,DeKalb County,MO,NA,NA,98.67411025819958,NA
64601,Livingston County,MO,NA,NA,NA,20.708446866485016
64834,Jasper County,MO,NA,NA,NA,63.85104450499546
64850,Newton County,MO,NA,NA,83.81018841591069,76.74841053587647
65043,Callaway County,MO,NA,NA,86.11304954640615,NA
65066,Gasconade County,MO,NA,NA,NA,97.63851044504996
65084,Morgan County,MO,NA,81.56966490299824,NA,NA
65202,Boone County,MO,NA,32.62786596119929,NA,NA
65203,Boone County,MO,7.909604519774012,NA,NA,NA
65233,Cooper County,MO,NA,NA,61.75854849965108,NA
65240,Boone County,MO,NA,NA,90.78855547801814,NA
65251,Callaway County,MO,NA,NA,52.267969295184926,NA
65340,Saline County,MO,NA,30.070546737213405,NA,NA
65560,Dent County,MO,NA,NA,NA,29.972752043596728
65622,Dallas County,MO,NA,88.27160493827161,NA,NA
65706,Webster County,MO,NA,NA,NA,58.4014532243415
65721,Christian County,MO,NA,NA,NA,90.37238873751136
65737,Stone County,MO,NA,NA,60.50244242847174,NA
65793,Howell County,MO,NA,92.23985890652557,NA,NA
65802,Greene County,MO,NA,9.25925925925926,NA,NA
65804,Greene County,MO,NA,NA,31.472435450104676,12.98819255222525
59072,Musselshell County,MT,NA,NA,86.25261688764829,NA
59405,Cascade County,MT,NA,NA,13.398464759246338,NA
59601,Lewis and Clark County,MT,NA,NA,14.654570830425682,NA
59714,Gallatin County,MT,74.01129943502825,NA,NA,NA
59715,Gallatin County,MT,NA,44.88536155202822,NA,NA
59901,Flathead County,MT,NA,NA,2.0237264480111654,NA
59923,Lincoln County,MT,NA,NA,NA,61.76203451407811
59937,Flathead County,MT,NA,NA,89.67201674808095,NA
68005,Sarpy County,NE,NA,NA,NA,44.50499545867393
68048,Cass County,NE,NA,NA,NA,88.73751135331517
68106,Douglas County,NE,NA,NA,NA,50.40871934604905
68108,Douglas County,NE,NA,67.01940035273368,NA,NA
68111,Douglas County,NE,NA,NA,NA,56.76657584014533
68117,Douglas County,NE,NA,NA,96.37124912770412,NA
68128,Sarpy County,NE,NA,NA,NA,82.47048138056311
68134,Douglas County,NE,NA,NA,NA,96.45776566757493
68136,Sarpy County,NE,NA,NA,86.46196789951152,NA
68138,Sarpy County,NE,NA,NA,91.90509420795534,NA
68147,Sarpy County,NE,NA,NA,NA,88.0108991825613
68305,Nemaha County,NE,NA,NA,NA,96.00363306085377
68504,Lancaster County,NE,NA,NA,88.90439637124913,NA
68516,Lancaster County,NE,24.293785310734464,NA,NA,NA
68521,Lancaster County,NE,NA,NA,NA,90.55404178019982
68601,Platte County,NE,NA,54.58553791887125,39.776692254012566,NA
89101,Clark County,NV,NA,23.809523809523807,NA,NA
89103,Clark County,NV,NA,46.03174603174603,NA,NA
89108,Clark County,NV,NA,NA,NA,31.42597638510445
89113,Clark County,NV,NA,NA,76.8318213538032,86.10354223433242
89117,Clark County,NV,NA,NA,33.565945568736915,34.968210717529516
89118,Clark County,NV,NA,NA,NA,88.0108991825613
89121,Clark County,NV,NA,23.192239858906525,NA,NA
89122,Clark County,NV,NA,NA,NA,46.23069936421435
89128,Clark County,NV,46.32768361581921,NA,NA,NA
89129,Clark County,NV,NA,NA,36.77599441730635,NA
89134,Clark County,NV,NA,91.09347442680776,46.05722260990928,45.14078110808356
89135,Clark County,NV,NA,NA,NA,85.37693006357856
89147,Clark County,NV,NA,35.361552028218696,NA,NA
89156,Clark County,NV,NA,59.876543209876544,NA,NA
89406,Churchill County,NV,NA,NA,26.099092812281928,NA
89408,Lyon County,NV,NA,NA,NA,63.94187102633969
89433,Washoe County,NV,NA,NA,NA,74.5685740236149
89502,Washoe County,NV,16.38418079096045,NA,NA,NA
89703,Carson City,NV,NA,87.91887125220458,NA,NA
89801,Elko County,NV,NA,NA,65.52686671318911,NA
03037,Rockingham County,NH,NA,99.73544973544973,NA,NA
03038,Rockingham County,NH,NA,NA,48.91835310537334,NA
03045,Hillsborough County,NH,NA,NA,NA,87.92007266121708
03055,Hillsborough County,NH,49.152542372881356,NA,NA,NA
03070,Hillsborough County,NH,NA,98.05996472663139,NA,NA
03079,Rockingham County,NH,NA,12.698412698412698,NA,NA
03104,Hillsborough County,NH,NA,11.28747795414462,NA,NA
03301,Merrimack County,NH,NA,14.285714285714285,9.69993021632938,NA
03598,Coos County,NH,NA,99.0299823633157,NA,NA
03743,Sullivan County,NH,NA,NA,NA,68.11989100817438
03842,Rockingham County,NH,NA,NA,NA,64.30517711171662
03848,Rockingham County,NH,NA,NA,88.20655966503838,NA
03865,Rockingham County,NH,NA,NA,89.81158408932309,NA
03874,Rockingham County,NH,NA,NA,NA,48.31970935513169
07003,Essex County,NJ,NA,NA,NA,29.70027247956403
07004,Essex County,NJ,NA,94.62081128747796,NA,83.74205267938238
07010,Bergen County,NJ,NA,42.151675485008816,NA,NA
07017,Essex County,NJ,NA,NA,NA,13.896457765667575
07026,Bergen County,NJ,NA,NA,99.09281228192603,NA
07030,Hudson County,NJ,NA,NA,24.284717376133987,NA
07035,Morris County,NJ,NA,54.58553791887125,NA,NA
07036,Union County,NJ,NA,47.61904761904761,NA,NA
07041,Essex County,NJ,NA,NA,NA,90.91734786557674
07042,Essex County,NJ,NA,NA,NA,46.775658492279746
07052,Essex County,NJ,NA,56.87830687830689,12.28192602930914,51.6802906448683
07054,Morris County,NJ,79.66101694915254,NA,NA,NA
07070,Bergen County,NJ,NA,NA,NA,63.48773841961853
07073,Bergen County,NJ,NA,NA,92.32379623168178,NA
07090,Union County,NJ,NA,NA,NA,40.59945504087194
07092,Union County,NJ,NA,NA,91.62595952547103,NA
07095,Middlesex County,NJ,NA,65.4320987654321,NA,NA
07104,Essex County,NJ,NA,NA,3.3496161898115844,NA
07108,Essex County,NJ,NA,1.3227513227513228,NA,NA
07110,Essex County,NJ,NA,NA,NA,54.495912806539515
07201,Union County,NJ,NA,55.379188712522044,NA,NA
07302,Hudson County,NJ,NA,88.88888888888889,NA,NA
07307,Hudson County,NJ,NA,NA,71.31891137473832,30.06357856494096
07410,Bergen County,NJ,NA,NA,22.609909281228195,NA
07424,Passaic County,NJ,NA,33.24514991181658,NA,NA
07470,Passaic County,NJ,NA,NA,96.09211444521982,NA
07504,Passaic County,NJ,NA,NA,74.9476622470342,NA
07508,Passaic County,NJ,NA,NA,39.49755757152826,NA
07522,Passaic County,NJ,NA,NA,27.84368457780879,NA
07601,Bergen County,NJ,NA,NA,4.954640614096301,14.168937329700274
07643,Bergen County,NJ,NA,NA,87.57850662944871,NA
07652,Bergen County,NJ,NA,43.56261022927689,NA,NA
07656,Bergen County,NJ,NA,89.50617283950618,NA,NA
07663,Bergen County,NJ,NA,NA,NA,81.19891008174388
07712,Monmouth County,NJ,NA,NA,4.6057222609909285,NA
07727,Monmouth County,NJ,NA,73.19223985890653,NA,NA
07731,Monmouth County,NJ,NA,NA,36.6364270760642,NA
07733,Monmouth County,NJ,NA,93.38624338624338,NA,NA
07735,Monmouth County,NJ,NA,58.11287477954144,NA,NA
07747,Monmouth County,NJ,NA,NA,36.14794138171668,54.85921889191644
07748,Monmouth County,NJ,NA,NA,57.2923935799023,NA
07801,Morris County,NJ,NA,NA,26.168876482903002,NA
07843,Sussex County,NJ,NA,NA,79.83251919050942,NA
07866,Morris County,NJ,81.35593220338984,NA,NA,NA
07932,Morris County,NJ,NA,88.71252204585538,NA,NA
08003,Camden County,NJ,NA,21.604938271604937,NA,NA
08004,Camden County,NJ,NA,48.32451499118166,NA,NA
08005,Ocean County,NJ,NA,NA,27.704117236566645,NA
08009,Camden County,NJ,NA,NA,60.15352407536636,NA
08012,Camden County,NJ,NA,NA,12.630844382414516,NA
08015,Burlington County,NJ,NA,NA,NA,33.96911898274296
08016,Burlington County,NJ,NA,NA,21.004884856943477,NA
08029,Camden County,NJ,NA,NA,NA,96.54859218891917
08046,Burlington County,NJ,NA,NA,22.470341939986042,NA
08054,Burlington County,NJ,NA,NA,11.933007676203768,50.86285195277021
08071,Gloucester County,NJ,NA,84.74426807760142,NA,NA
08080,Gloucester County,NJ,NA,NA,55.059316120027916,NA
08087,Ocean County,NJ,NA,NA,NA,46.68483197093551
08088,Burlington County,NJ,NA,NA,NA,47.13896457765668
08094,Gloucester County,NJ,NA,NA,9.071877180739707,NA
08105,Camden County,NJ,NA,NA,NA,44.323342415985465
08110,Camden County,NJ,NA,NA,21.144452198185625,NA
08204,Cape May County,NJ,NA,NA,18.422889043963714,NA
08234,Atlantic County,NJ,NA,NA,43.33565945568737,NA
08260,Cape May County,NJ,63.2768361581921,NA,NA,NA
08401,Atlantic County,NJ,NA,0.4409171075837742,NA,NA
08527,Ocean County,NJ,NA,NA,5.2337752965806,4.450499545867393
08609,Mercer County,NJ,NA,NA,NA,76.83923705722071
08618,Mercer County,NJ,NA,0.8818342151675485,NA,NA
08620,Mercer County,NJ,NA,92.5925925925926,NA,98.81925522252499
08628,Mercer County,NJ,NA,NA,79.69295184926727,NA
08690,Mercer County,NJ,NA,NA,49.19748778785764,NA
08724,Ocean County,NJ,NA,NA,47.801814375436145,NA
08753,Ocean County,NJ,NA,NA,NA,8.174386920980927
08755,Ocean County,NJ,NA,NA,NA,6.902815622161672
08757,Ocean County,NJ,NA,66.66666666666666,NA,4.541326067211625
08759,Ocean County,NJ,NA,NA,11.863224005582694,NA
08807,Somerset County,NJ,NA,NA,38.241451500348916,NA
08812,Middlesex County,NJ,NA,63.31569664902999,NA,NA
08816,Middlesex County,NJ,NA,NA,NA,99.54586739327884
08817,Middlesex County,NJ,NA,47.17813051146385,NA,NA
08820,Middlesex County,NJ,NA,NA,NA,16.71207992733878
08831,Middlesex County,NJ,NA,NA,NA,1.3623978201634876
08833,Hunterdon County,NJ,NA,NA,86.88066992323796,NA
08844,Somerset County,NJ,NA,NA,55.268667131891135,NA
08865,Warren County,NJ,NA,NA,NA,10.899182561307901
08873,Somerset County,NJ,NA,NA,19.190509420795536,NA
87020,Cibola County,NM,NA,NA,74.45917655268667,NA
87105,Bernalillo County,NM,NA,3.1746031746031744,3.0006978367062107,NA
87106,Bernalillo County,NM,NA,NA,NA,55.13169845594914
87107,Bernalillo County,NM,NA,28.04232804232804,NA,40.32697547683924
87108,Bernalillo County,NM,11.864406779661017,NA,4.117236566643405,NA
87111,Bernalillo County,NM,15.254237288135593,NA,NA,NA
87112,Bernalillo County,NM,NA,11.552028218694884,NA,NA
87113,Bernalillo County,NM,NA,74.42680776014109,NA,NA
87124,Sandoval County,NM,NA,NA,NA,8.537693006357856
87144,Sandoval County,NM,NA,45.14991181657848,16.608513607815773,NA
87401,San Juan County,NM,NA,14.550264550264549,NA,NA
87410,San Juan County,NM,NA,90.38800705467372,NA,NA
87413,San Juan County,NM,NA,NA,51.91905094207956,NA
87506,Santa Fe County,NM,NA,NA,NA,85.74023614895549
88007,Doa Ana County,NM,NA,NA,51.709699930216324,NA
88008,Doa Ana County,NM,NA,NA,NA,96.73024523160763
88061,Grant County,NM,NA,NA,NA,95.18619436875568
88081,Otero County,NM,NA,73.36860670194002,NA,NA
88101,Curry County,NM,5.649717514124294,7.848324514991181,NA,NA
88130,Roosevelt County,NM,NA,NA,37.124912770411726,NA
88220,Eddy County,NM,NA,NA,NA,20.072661217075385
10001,New York County,NY,NA,NA,4.815073272854152,NA
10016,New York County,NY,NA,NA,46.755059316120025,NA
10021,New York County,NY,NA,NA,22.330774598743893,NA
10023,New York County,NY,NA,72.13403880070547,NA,3.3605812897366025
10024,New York County,NY,NA,NA,NA,3.633060853769301
10025,New York County,NY,NA,NA,0.48848569434752265,NA
10026,New York County,NY,NA,20.811287477954142,NA,32.69754768392371
10027,New York County,NY,NA,NA,42.4284717376134,NA
10028,New York County,NY,NA,NA,64.480111653873,NA
10029,New York County,NY,NA,NA,25.540823447313326,0.18165304268846502
10032,New York County,NY,NA,NA,NA,3.9963669391462306
10034,New York County,NY,NA,83.15696649029982,NA,NA
10035,New York County,NY,NA,NA,6.838799720865317,NA
10038,New York County,NY,NA,NA,37.264480111653874,NA
10039,New York County,NY,NA,NA,36.078157711095606,NA
10065,New York County,NY,NA,NA,58.96720167480809,NA
10075,New York County,NY,NA,NA,NA,14.441416893732969
10303,Richmond County,NY,NA,NA,42.1493370551291,NA
10305,Richmond County,NY,NA,NA,NA,27.611262488646688
10306,Richmond County,NY,60.451977401129945,16.402116402116402,13.258897418004187,NA
10310,Richmond County,NY,NA,NA,37.962316817864625,NA
10456,Bronx County,NY,NA,6.701940035273369,NA,NA
10458,Bronx County,NY,NA,3.7918871252204585,NA,NA
10460,Bronx County,NY,NA,1.2345679012345678,NA,NA
10462,Bronx County,NY,NA,NA,45.08025122121423,NA
10463,Bronx County,NY,NA,NA,3.2100488485694347,NA
10465,Bronx County,NY,NA,NA,NA,90.19073569482289
10466,Bronx County,NY,NA,3.527336860670194,NA,NA
10468,Bronx County,NY,NA,NA,NA,5.086285195277021
10469,Bronx County,NY,NA,NA,NA,23.978201634877383
10470,Bronx County,NY,NA,NA,57.71109560362875,NA
10471,Bronx County,NY,NA,NA,75.43614794138172,NA
10472,Bronx County,NY,NA,NA,NA,13.35149863760218
10473,Bronx County,NY,NA,NA,NA,6.267029972752043
10475,Bronx County,NY,NA,NA,60.99092812281926,NA
10524,Putnam County,NY,NA,NA,NA,92.91553133514986
10528,Westchester County,NY,NA,89.77072310405644,NA,NA
10541,Putnam County,NY,NA,NA,91.13747383112351,NA
10573,Westchester County,NY,NA,NA,64.20097697138868,27.974568574023618
10598,Westchester County,NY,NA,NA,NA,31.062670299727518
10705,Westchester County,NY,NA,NA,23.58688066992324,26.33969118982743
10710,Westchester County,NY,NA,NA,84.50802512212142,NA
10801,Westchester County,NY,NA,NA,65.73621772505234,NA
10977,Rockland County,NY,58.19209039548022,NA,NA,NA
10989,Rockland County,NY,NA,NA,89.11374738311235,NA
10990,Orange County,NY,NA,NA,97.90648988136776,NA
11001,Nassau County,NY,NA,NA,80.11165387299371,NA
11004,Queens County,NY,NA,NA,NA,66.7574931880109
11040,Nassau County,NY,NA,NA,NA,23.887375113533153
11105,Queens County,NY,NA,52.733686067019406,NA,NA
11106,Queens County,NY,NA,NA,NA,36.96639418710264
11201,Kings County,NY,NA,NA,NA,59.30971843778383
11203,Kings County,NY,NA,NA,27.983251919050943,NA
11204,Kings County,NY,NA,NA,29.16957431960921,NA
11207,Kings County,NY,0,NA,NA,NA
11208,Kings County,NY,NA,NA,0.6978367062107467,NA
11209,Kings County,NY,NA,NA,NA,10.535876475930973
11210,Kings County,NY,NA,NA,NA,67.30245231607628
11211,Kings County,NY,NA,NA,NA,12.897366030881017
11214,Kings County,NY,NA,NA,73.62177250523378,NA
11215,Kings County,NY,NA,NA,28.890439637124913,NA
11219,Kings County,NY,NA,NA,16.329378925331472,9.990917347865578
11220,Kings County,NY,2.2598870056497176,NA,NA,NA
11222,Kings County,NY,NA,53.35097001763669,NA,NA
11223,Kings County,NY,NA,NA,41.59106769016051,NA
11226,Kings County,NY,24.858757062146893,3.262786596119929,1.5352407536636425,NA
11228,Kings County,NY,NA,53.61552028218695,NA,NA
11229,Kings County,NY,NA,NA,16.05024424284717,2.361489554950045
11232,Kings County,NY,NA,NA,87.43893928820657,NA
11234,Kings County,NY,NA,NA,9.281228192602931,13.533151680290645
11235,Kings County,NY,NA,NA,NA,8.810172570390554
11238,Kings County,NY,NA,NA,NA,36.51226158038147
11239,Kings County,NY,NA,83.42151675485009,NA,NA
11356,Queens County,NY,NA,NA,82.83321702721564,NA
11357,Queens County,NY,NA,NA,41.80041870202373,30.699364214350588
11362,Queens County,NY,NA,NA,83.4612700628053,72.93369663941871
11365,Queens County,NY,NA,NA,55.54780181437544,28.15622161671208
11367,Queens County,NY,NA,40.29982363315697,NA,54.13260672116258
11368,Queens County,NY,NA,5.379188712522046,NA,NA
11373,Queens County,NY,NA,11.46384479717813,NA,NA
11374,Queens County,NY,NA,NA,NA,17.620345140781108
11375,Queens County,NY,NA,NA,NA,4.632152588555858
11377,Queens County,NY,NA,NA,NA,17.34786557674841
11378,Queens County,NY,NA,NA,54.84996510816469,NA
11385,Queens County,NY,NA,7.760141093474426,8.792742498255409,NA
11412,Queens County,NY,NA,NA,NA,41.96185286103542
11421,Queens County,NY,NA,NA,52.75645498953245,NA
11422,Queens County,NY,NA,NA,57.15282623866015,NA
11426,Queens County,NY,NA,NA,92.88206559665039,66.93914623069936
11432,Queens County,NY,NA,NA,6.14096301465457,NA
11518,Nassau County,NY,NA,NA,87.15980460572226,NA
11520,Nassau County,NY,NA,NA,34.473133286810885,35.513169845594916
11530,Nassau County,NY,NA,NA,NA,49.04632152588556
11550,Nassau County,NY,NA,NA,13.956734124214934,NA
11561,Nassau County,NY,NA,NA,NA,19.07356948228883
11691,Queens County,NY,NA,NA,NA,53.67847411444142
11692,Queens County,NY,NA,73.19223985890653,NA,NA
11701,Suffolk County,NY,NA,NA,NA,35.42234332425068
11702,Suffolk County,NY,NA,97.08994708994709,NA,NA
11710,Nassau County,NY,NA,60.405643738977076,NA,NA
11738,Suffolk County,NY,NA,NA,89.81158408932309,NA
11743,Suffolk County,NY,NA,NA,NA,11.989100817438691
11747,Suffolk County,NY,NA,NA,66.15491974877878,NA
11754,Suffolk County,NY,NA,NA,81.99581297976273,NA
11768,Suffolk County,NY,NA,NA,NA,81.2897366030881
11772,Suffolk County,NY,NA,NA,21.912072575017447,NA
11778,Suffolk County,NY,NA,NA,NA,87.46594005449592
11783,Nassau County,NY,NA,NA,83.39148639218423,64.21435059037239
11787,Suffolk County,NY,NA,NA,68.5973482205164,NA
11792,Suffolk County,NY,NA,96.38447971781305,NA,NA
11797,Nassau County,NY,NA,NA,NA,88.8283378746594
11798,Suffolk County,NY,NA,73.6331569664903,NA,NA
11951,Suffolk County,NY,NA,62.34567901234568,NA,NA
11961,Suffolk County,NY,NA,NA,59.17655268667132,NA
12010,Montgomery County,NY,NA,NA,NA,4.35967302452316
12019,Saratoga County,NY,NA,NA,NA,95.73115349682108
12065,Saratoga County,NY,NA,48.94179894179894,NA,19.164396003633062
12118,Saratoga County,NY,NA,NA,80.73970690858339,NA
12125,Columbia County,NY,NA,98.4126984126984,NA,NA
12180,Rensselaer County,NY,NA,1.6754850088183422,NA,NA
12205,Albany County,NY,NA,NA,73.69155617585486,39.782016348773844
12206,Albany County,NY,NA,63.75661375661375,NA,NA
12211,Albany County,NY,NA,NA,72.29588276343335,NA
12302,Schenectady County,NY,NA,NA,NA,81.01725703905541
12309,Schenectady County,NY,NA,NA,NA,38.23796548592189
12477,Ulster County,NY,NA,71.6931216931217,NA,NA
12508,Dutchess County,NY,NA,NA,NA,71.38964577656675
12522,Dutchess County,NY,NA,NA,88.55547801814375,NA
12534,Columbia County,NY,NA,39.32980599647266,NA,NA
12538,Dutchess County,NY,NA,NA,55.68736915561758,NA
12549,Orange County,NY,NA,NA,97.48778785764132,NA
12561,Ulster County,NY,NA,88.44797178130511,NA,NA
12580,Dutchess County,NY,NA,NA,98.0460572226099,NA
12790,Sullivan County,NY,NA,NA,90.02093510118632,NA
12828,Washington County,NY,NA,36.24338624338625,NA,NA
12831,Saratoga County,NY,NA,40.38800705467372,NA,NA
12883,Essex County,NY,80.7909604519774,NA,NA,NA
12901,Clinton County,NY,NA,2.7336860670194003,NA,NA
12946,Essex County,NY,NA,62.08112874779541,NA,NA
13027,Onondaga County,NY,NA,NA,13.32868108862526,NA
13069,Oswego County,NY,NA,20.634920634920633,NA,NA
13077,Cortland County,NY,NA,NA,65.8060013956734,NA
13090,Onondaga County,NY,NA,13.492063492063492,24.773203070481507,NA
13108,Onondaga County,NY,NA,NA,88.76482903000698,NA
13126,Oswego County,NY,NA,NA,NA,8.991825613079019
13204,Onondaga County,NY,NA,NA,51.01186322400558,NA
13206,Onondaga County,NY,NA,NA,95.25471039776691,NA
13208,Onondaga County,NY,NA,NA,34.68248429867411,NA
13329,Herkimer County,NY,NA,74.77954144620811,NA,NA
13357,Herkimer County,NY,66.10169491525424,NA,NA,83.56039963669392
13421,Madison County,NY,19.774011299435028,49.64726631393298,NA,NA
13440,Oneida County,NY,NA,1.4991181657848323,3.9776692254012564,NA
13492,Oneida County,NY,NA,NA,45.91765526866713,NA
13733,Chenango County,NY,NA,91.9753086419753,NA,NA
13901,Broome County,NY,NA,NA,NA,10.08174386920981
14004,Erie County,NY,NA,NA,73.34263782274948,NA
14020,Genesee County,NY,NA,NA,11.37473831123517,NA
14051,Erie County,NY,NA,NA,NA,93.55131698455949
14057,Erie County,NY,NA,73.36860670194002,NA,NA
14072,Erie County,NY,NA,NA,NA,91.09900090826521
14075,Erie County,NY,NA,58.90652557319223,4.884856943475227,NA
14092,Niagara County,NY,NA,43.47442680776014,NA,NA
14094,Niagara County,NY,6.779661016949152,1.5873015873015872,NA,NA
14131,Niagara County,NY,NA,NA,98.11584089323098,NA
14150,Erie County,NY,NA,NA,NA,15.077202543142597
14171,Cattaraugus County,NY,NA,97.44268077601411,NA,NA
14204,Erie County,NY,NA,NA,53.66364270760642,NA
14209,Erie County,NY,NA,NA,90.85833914863922,NA
14211,Erie County,NY,NA,6.790123456790123,NA,NA
14215,Erie County,NY,NA,10.229276895943562,NA,NA
14217,Erie County,NY,NA,NA,NA,80.10899182561307
14220,Erie County,NY,NA,37.301587301587304,NA,NA
14224,Erie County,NY,NA,4.056437389770723,7.18771807397069,NA
14225,Erie County,NY,NA,6.966490299823633,NA,NA
14227,Erie County,NY,NA,NA,NA,21.25340599455041
14304,Niagara County,NY,NA,NA,40.96301465457083,NA
14414,Livingston County,NY,NA,NA,NA,86.37602179836512
14420,Monroe County,NY,NA,12.786596119929452,NA,NA
14424,Ontario County,NY,38.983050847457626,NA,NA,NA
14432,Ontario County,NY,NA,30.687830687830687,NA,NA
14450,Monroe County,NY,NA,2.380952380952381,NA,NA
14471,Ontario County,NY,NA,NA,86.67131891137474,NA
14482,Genesee County,NY,NA,75.04409171075838,NA,NA
14512,Ontario County,NY,NA,NA,63.01465457083043,NA
14513,Wayne County,NY,NA,NA,2.3028611304954643,NA
14534,Monroe County,NY,NA,4.761904761904762,NA,NA
14564,Ontario County,NY,NA,16.490299823633155,NA,36.14895549500454
14580,Monroe County,NY,NA,0.7936507936507936,NA,NA
14590,Wayne County,NY,NA,NA,57.083042568039076,NA
14606,Monroe County,NY,NA,2.2927689594356258,NA,NA
14609,Monroe County,NY,NA,NA,9.141660851360783,NA
14615,Monroe County,NY,NA,NA,29.44870900209351,NA
14617,Monroe County,NY,NA,23.015873015873016,NA,NA
14620,Monroe County,NY,NA,4.497354497354497,NA,NA
14626,Monroe County,NY,NA,NA,20.795533845080254,NA
14701,Chautauqua County,NY,NA,2.5573192239858904,1.1863224005582695,NA
14830,Steuben County,NY,NA,NA,26.58757850662945,NA
14850,Tompkins County,NY,NA,NA,NA,24.97729336966394
14882,Tompkins County,NY,NA,80.24691358024691,NA,NA
27027,Rockingham County,NC,NA,95.94356261022926,NA,NA
27052,Stokes County,NC,NA,82.6278659611993,NA,NA
27104,Forsyth County,NC,NA,25.485008818342152,NA,NA
27107,Forsyth County,NC,NA,NA,2.7913468248429867,NA
27127,Forsyth County,NC,NA,NA,NA,4.268846503178928
27205,Randolph County,NC,NA,35.714285714285715,NA,NA
27207,Chatham County,NC,98.87005649717514,NA,NA,NA
27215,Alamance County,NC,NA,8.201058201058201,NA,NA
27217,Alamance County,NC,NA,NA,8.304256803907887,NA
27235,Guilford County,NC,NA,NA,NA,91.55313351498637
27262,Guilford County,NC,NA,66.4021164021164,56.4549895324494,NA
27265,Guilford County,NC,NA,16.93121693121693,NA,NA
27278,Orange County,NC,NA,NA,10.88625261688765,NA
27284,Forsyth County,NC,NA,NA,30.216329378925334,NA
27288,Rockingham County,NC,NA,81.04056437389771,NA,NA
27295,Davidson County,NC,NA,NA,39.986043265875786,NA
27312,Chatham County,NC,NA,NA,NA,12.62488646684832
27313,Guilford County,NC,NA,84.12698412698413,NA,93.00635785649409
27317,Randolph County,NC,NA,NA,69.29518492672715,NA
27320,Rockingham County,NC,NA,NA,7.955338450802513,NA
27350,Randolph County,NC,NA,NA,NA,81.83469573115349
27358,Guilford County,NC,NA,NA,NA,96.54859218891917
27360,Davidson County,NC,NA,NA,3.628750872295883,8.446866485013624
27379,Caswell County,NC,NA,NA,NA,77.3841961852861
27407,Guilford County,NC,NA,NA,32.03070481507327,NA
27505,Harnett County,NC,97.74011299435028,NA,NA,NA
27518,Wake County,NC,NA,84.12698412698413,NA,NA
27520,Johnston County,NC,NA,NA,81.71667829727843,NA
27524,Johnston County,NC,NA,NA,68.38799720865318,NA
27527,Johnston County,NC,54.23728813559322,NA,NA,NA
27530,Wayne County,NC,25.423728813559322,11.904761904761903,NA,NA
27536,Vance County,NC,NA,23.985890652557316,NA,17.43869209809264
27540,Wake County,NC,34.463276836158194,NA,NA,NA
27545,Wake County,NC,NA,38.447971781305114,NA,NA
27569,Johnston County,NC,NA,69.04761904761905,NA,NA
27574,Person County,NC,NA,58.46560846560847,49.96510816468947,NA
27589,Warren County,NC,NA,NA,65.17794836008373,NA
27591,Wake County,NC,NA,NA,53.10537334263782,NA
27596,Franklin County,NC,NA,NA,60.71179344033496,NA
27597,Wake County,NC,NA,43.20987654320987,NA,NA
27603,Wake County,NC,NA,NA,22.470341939986042,NA
27606,Wake County,NC,32.7683615819209,NA,NA,NA
27609,Wake County,NC,NA,NA,66.57362177250523,NA
27612,Wake County,NC,NA,NA,35.380321004884856,87.46594005449592
27613,Wake County,NC,NA,NA,32.658757850662944,NA
27614,Wake County,NC,NA,60.758377425044095,NA,NA
27705,Durham County,NC,NA,17.989417989417987,NA,NA
27707,Durham County,NC,NA,NA,NA,15.89464123524069
27712,Durham County,NC,NA,NA,36.49685973482205,NA
27713,Durham County,NC,NA,NA,NA,14.713896457765669
27850,Halifax County,NC,NA,NA,77.87857641311933,NA
27855,Hertford County,NC,NA,81.74603174603175,NA,NA
27856,Nash County,NC,NA,71.25220458553791,NA,NA
27870,Halifax County,NC,NA,NA,NA,40.05449591280654
27880,Wilson County,NC,92.65536723163842,NA,NA,NA
27889,Beaufort County,NC,NA,27.336860670194003,NA,NA
27893,Wilson County,NC,NA,NA,NA,30.154405086285195
27909,Pasquotank County,NC,NA,10.670194003527337,NA,16.167120799273388
28012,Gaston County,NC,NA,NA,NA,41.59854677565849
28018,Rutherford County,NC,NA,92.32804232804233,NA,NA
28027,Cabarrus County,NC,NA,NA,NA,56.58492279745686
28031,Mecklenburg County,NC,NA,79.8941798941799,NA,NA
28034,Gaston County,NC,NA,NA,88.62526168876484,NA
28043,Rutherford County,NC,NA,NA,NA,45.322434150772025
28052,Gaston County,NC,NA,NA,NA,41.14441416893733
28086,Cleveland County,NC,NA,NA,29.797627355198884,NA
28092,Lincoln County,NC,NA,NA,10.60711793440335,NA
28097,Stanly County,NC,NA,NA,88.27634333565946,NA
28104,Union County,NC,NA,NA,NA,45.95821980018165
28117,Iredell County,NC,NA,26.366843033509703,NA,81.56221616712081
28120,Gaston County,NC,NA,NA,42.63782274947662,NA
28134,Mecklenburg County,NC,NA,NA,89.32309839497557,NA
28147,Rowan County,NC,NA,27.77777777777778,NA,NA
28150,Cleveland County,NC,NA,66.49029982363317,NA,71.20799273387829
28152,Cleveland County,NC,NA,78.57142857142857,NA,NA
28163,Stanly County,NC,NA,NA,NA,95.36784741144415
28168,Lincoln County,NC,NA,65.87301587301587,NA,NA
28173,Union County,NC,NA,NA,44.38241451500349,NA
28202,Mecklenburg County,NC,NA,86.68430335097001,NA,NA
28206,Mecklenburg County,NC,NA,35.00881834215168,NA,NA
28208,Mecklenburg County,NC,NA,7.671957671957672,NA,NA
28214,Mecklenburg County,NC,NA,24.867724867724867,NA,NA
28215,Mecklenburg County,NC,NA,NA,15.073272854152128,NA
28227,Mecklenburg County,NC,NA,17.10758377425044,NA,NA
28273,Mecklenburg County,NC,NA,38.095238095238095,NA,NA
28277,Mecklenburg County,NC,NA,NA,NA,25.340599455040874
28304,Cumberland County,NC,NA,NA,41.45150034891835,NA
28305,Cumberland County,NC,NA,NA,78.50662944870899,NA
28306,Bladen County,NC,NA,57.407407407407405,NA,36.96639418710264
28311,Cumberland County,NC,NA,NA,73.20307048150732,NA
28314,Cumberland County,NC,NA,NA,34.12421493370552,NA
28326,Harnett County,NC,NA,NA,NA,92.09809264305177
28340,Robeson County,NC,NA,NA,66.78297278436845,NA
28358,Robeson County,NC,NA,40.74074074074074,NA,NA
28364,Robeson County,NC,NA,38.35978835978836,NA,NA
28372,Robeson County,NC,NA,NA,60.921144452198185,NA
28376,Hoke County,NC,NA,NA,29.65806001395673,NA
28382,Sampson County,NC,NA,NA,81.08862526168876,NA
28384,Bladen County,NC,NA,NA,92.8122819260293,NA
28405,New Hanover County,NC,NA,29.717813051146386,NA,NA
28411,New Hanover County,NC,NA,NA,NA,45.049954586739325
28412,New Hanover County,NC,NA,NA,NA,23.43324250681199
28461,Brunswick County,NC,NA,NA,NA,13.987284287011809
28462,Brunswick County,NC,NA,NA,58.89741800418702,NA
28472,Columbus County,NC,NA,NA,40.19539427773901,NA
28546,Onslow County,NC,NA,NA,NA,33.5149863760218
28551,Lenoir County,NC,NA,NA,94.41730635031402,NA
28560,Craven County,NC,NA,NA,35.72923935799023,NA
28580,Greene County,NC,NA,72.8395061728395,NA,NA
28584,Carteret County,NC,NA,NA,61.33984647592463,NA
28590,Pitt County,NC,NA,NA,NA,62.48864668483197
28601,Catawba County,NC,NA,NA,7.6762037683182145,NA
28602,Catawba County,NC,NA,NA,NA,61.94368755676658
28612,Burke County,NC,NA,NA,53.10537334263782,NA
28613,Catawba County,NC,NA,34.92063492063492,NA,NA
28625,Iredell County,NC,NA,NA,15.212840195394278,20.345140781108086
28645,Caldwell County,NC,NA,NA,0.2791346824842987,NA
28650,Catawba County,NC,NA,57.231040564373906,NA,NA
28655,Burke County,NC,NA,38.62433862433862,NA,NA
28658,Catawba County,NC,NA,36.860670194003525,NA,NA
28673,Catawba County,NC,NA,95.326278659612,NA,NA
28677,Iredell County,NC,NA,NA,NA,77.29336966394187
28712,Transylvania County,NC,NA,NA,NA,6.993642143505904
28716,Haywood County,NC,NA,NA,71.87718073970692,NA
28731,Henderson County,NC,NA,NA,NA,47.86557674841054
28739,Henderson County,NC,NA,NA,NA,6.811989100817439
28752,McDowell County,NC,NA,NA,65.38729937194697,NA
28753,Madison County,NC,NA,NA,76.13398464759247,NA
28759,Henderson County,NC,NA,NA,NA,51.40781108083561
28762,McDowell County,NC,NA,NA,94.62665736217724,NA
28768,Transylvania County,NC,NA,NA,60.15352407536636,NA
28787,Buncombe County,NC,NA,NA,72.92393579902303,NA
28803,Buncombe County,NC,NA,74.16225749559084,NA,NA
28804,Buncombe County,NC,NA,78.9241622574956,NA,67.12079927338783
28806,Buncombe County,NC,NA,NA,39.078855547801815,30.60853769300636
58072,Barnes County,ND,NA,86.77248677248677,NA,NA
58104,Cass County,ND,NA,NA,NA,2.633969118982743
58201,Grand Forks County,ND,NA,27.07231040564374,NA,NA
58203,Grand Forks County,ND,NA,NA,NA,82.01634877384197
58503,Burleigh County,ND,NA,NA,24.63363572923936,NA
58504,Burleigh County,ND,NA,46.38447971781305,NA,NA
58701,Ward County,ND,3.954802259887006,31.30511463844797,NA,13.44232515894641
43015,Delaware County,OH,NA,12.081128747795415,NA,NA
43019,Knox County,OH,NA,67.1957671957672,NA,NA
43031,Licking County,OH,NA,NA,NA,85.4677565849228
43056,Licking County,OH,NA,32.098765432098766,NA,NA
43062,Licking County,OH,NA,NA,25.819958129797627,NA
43081,Franklin County,OH,NA,NA,38.10188415910677,NA
43105,Fairfield County,OH,NA,77.95414462081128,NA,NA
43113,Pickaway County,OH,NA,NA,41.24214933705513,NA
43119,Franklin County,OH,NA,20.282186948853614,NA,NA
43123,Franklin County,OH,NA,NA,6.210746685275645,NA
43130,Fairfield County,OH,NA,NA,1.3956734124214933,NA
43140,Madison County,OH,NA,NA,66.29448709002094,NA
43147,Fairfield County,OH,NA,NA,NA,44.6866485013624
43160,Fayette County,OH,NA,NA,53.87299371946964,57.129881925522255
43162,Madison County,OH,NA,87.38977072310405,NA,NA
43203,Franklin County,OH,NA,NA,82.9030006978367,NA
43204,Franklin County,OH,NA,20.8994708994709,11.165387299371947,NA
43207,Franklin County,OH,NA,NA,5.303558967201675,NA
43209,Franklin County,OH,NA,NA,31.82135380321005,NA
43211,Franklin County,OH,NA,NA,66.64340544312631,NA
43219,Franklin County,OH,NA,12.522045855379188,NA,NA
43220,Franklin County,OH,NA,NA,48.08094905792045,37.6930063578565
43223,Franklin County,OH,NA,4.409171075837742,NA,NA
43302,Marion County,OH,NA,NA,1.6050244242847174,NA
43311,Logan County,OH,NA,NA,32.86810886252617,NA
43326,Hardin County,OH,NA,NA,NA,78.65576748410535
43334,Morrow County,OH,NA,NA,57.78087927424983,NA
43338,Morrow County,OH,NA,NA,NA,93.46049046321527
43402,Wood County,OH,NA,47.08994708994709,NA,NA
43410,Sandusky County,OH,NA,NA,47.662247034194,NA
43430,Ottawa County,OH,86.4406779661017,NA,NA,NA
43440,Ottawa County,OH,NA,NA,NA,84.55949137148048
43506,Williams County,OH,NA,20.458553791887123,NA,NA
43518,Williams County,OH,NA,NA,93.16120027913468,NA
43526,Defiance County,OH,NA,NA,68.52756454989533,NA
43537,Lucas County,OH,21.468926553672315,NA,NA,NA
43551,Wood County,OH,NA,11.022927689594356,5.373342637822749,NA
43566,Lucas County,OH,NA,NA,NA,94.82288828337875
43606,Lucas County,OH,NA,13.844797178130511,65.10816468946267,NA
43607,Lucas County,OH,NA,22.045855379188712,NA,NA
43613,Lucas County,OH,NA,2.9982363315696645,20.02791346824843,43.68755676657584
43614,Lucas County,OH,NA,NA,8.583391486392184,15.622161671207992
43615,Lucas County,OH,NA,3.0864197530864197,NA,NA
43620,Lucas County,OH,NA,NA,86.46196789951152,NA
43623,Lucas County,OH,NA,21.869488536155202,NA,28.973660308810175
43701,Muskingum County,OH,NA,4.673721340388007,NA,1.08991825613079
43725,Guernsey County,OH,NA,NA,30.91416608513608,NA
43812,Coshocton County,OH,NA,NA,6.071179344033497,NA
43832,Tuscarawas County,OH,NA,NA,NA,95.91280653950953
43906,Belmont County,OH,NA,41.18165784832451,NA,NA
43910,Jefferson County,OH,NA,82.89241622574956,NA,NA
43938,Jefferson County,OH,NA,NA,NA,70.20890099909174
43944,Jefferson County,OH,NA,NA,90.02093510118632,NA
43950,Belmont County,OH,NA,NA,NA,65.84922797456856
43952,Jefferson County,OH,NA,NA,8.51360781577111,NA
43953,Jefferson County,OH,NA,NA,59.73482205163991,NA
44001,Lorain County,OH,NA,71.95767195767195,2.5819958129797627,NA
44004,Ashtabula County,OH,NA,NA,1.8143754361479414,12.443233424159855
44017,Cuyahoga County,OH,NA,31.040564373897706,33.77529658060014,NA
44023,Geauga County,OH,NA,NA,74.24982554082345,NA
44035,Lorain County,OH,NA,0.3527336860670194,0,0
44039,Lorain County,OH,NA,NA,1.9539427773900906,NA
44052,Lorain County,OH,NA,NA,14.584787159804605,4.72297910990009
44053,Lorain County,OH,NA,NA,4.535938590369853,NA
44055,Lorain County,OH,NA,7.054673721340388,NA,NA
44057,Lake County,OH,44.06779661016949,NA,NA,NA
44070,Cuyahoga County,OH,NA,NA,80.18143754361479,3.7238873751135335
44090,Lorain County,OH,NA,NA,73.831123517097,NA
44094,Lake County,OH,NA,NA,NA,10.990009082652135
44102,Cuyahoga County,OH,NA,NA,NA,9.627611262488648
44103,Cuyahoga County,OH,NA,7.231040564373897,NA,29.518619436875564
44105,Cuyahoga County,OH,NA,NA,0.20935101186322402,NA
44108,Cuyahoga County,OH,NA,NA,4.326587578506629,NA
44109,Cuyahoga County,OH,NA,0.6172839506172839,30.565247732030702,4.087193460490464
44110,Cuyahoga County,OH,NA,97.17813051146385,33.28681088625262,NA
44111,Cuyahoga County,OH,NA,NA,1.465457083042568,NA
44112,Cuyahoga County,OH,10.734463276836157,NA,NA,NA
44113,Cuyahoga County,OH,NA,56.4373897707231,NA,NA
44116,Cuyahoga County,OH,NA,NA,62.10746685275645,NA
44117,Cuyahoga County,OH,NA,NA,NA,39.14623069936422
44121,Cuyahoga County,OH,NA,29.717813051146386,NA,NA
44124,Cuyahoga County,OH,NA,NA,NA,0.2724795640326975
44125,Cuyahoga County,OH,NA,30.776014109347443,NA,NA
44128,Cuyahoga County,OH,NA,NA,90.9281228192603,1.4532243415077202
44129,Cuyahoga County,OH,NA,NA,NA,16.348773841961854
44130,Cuyahoga County,OH,NA,NA,50.17445917655269,NA
44132,Cuyahoga County,OH,NA,19.753086419753085,NA,NA
44133,Cuyahoga County,OH,NA,22.134038800705465,NA,NA
44134,Cuyahoga County,OH,NA,5.996472663139329,NA,NA
44135,Cuyahoga County,OH,NA,29.629629629629626,6.489881367759945,NA
44137,Cuyahoga County,OH,NA,NA,36.9155617585485,NA
44140,Cuyahoga County,OH,NA,NA,25.610607117934403,NA
44142,Cuyahoga County,OH,NA,NA,50.94207955338451,NA
44143,Cuyahoga County,OH,NA,NA,NA,1.6348773841961852
44145,Cuyahoga County,OH,NA,NA,NA,3.088101725703906
44202,Portage County,OH,NA,NA,51.43056524773203,5.812897366030881
44216,Summit County,OH,NA,NA,58.060013956734124,NA
44223,Summit County,OH,NA,NA,48.29030006978367,NA
44224,Summit County,OH,NA,NA,NA,7.3569482288828345
44240,Portage County,OH,NA,NA,NA,16.530426884650318
44255,Portage County,OH,NA,67.81305114638448,NA,NA
44256,Medina County,OH,NA,33.06878306878307,NA,NA
44266,Portage County,OH,NA,7.4074074074074066,NA,4.178019981834695
44278,Summit County,OH,NA,NA,NA,42.68846503178928
44301,Summit County,OH,NA,26.807760141093475,NA,NA
44306,Summit County,OH,NA,61.904761904761905,NA,NA
44320,Summit County,OH,NA,14.109347442680775,NA,NA
44321,Summit County,OH,NA,NA,40.40474528960223,NA
44408,Columbiana County,OH,NA,NA,67.62037683182135,NA
44410,Trumbull County,OH,NA,NA,21.84228890439637,NA
44425,Trumbull County,OH,NA,NA,NA,43.05177111716621
44432,Columbiana County,OH,NA,55.99647266313933,NA,NA
44444,Trumbull County,OH,NA,45.06172839506173,81.85624563852059,NA
44445,Columbiana County,OH,NA,NA,99.7208653175157,NA
44460,Columbiana County,OH,NA,17.28395061728395,NA,NA
44484,Trumbull County,OH,NA,NA,NA,14.895549500454134
44515,Mahoning County,OH,NA,NA,39.148639218422886,NA
44614,Stark County,OH,NA,70.1058201058201,NA,NA
44632,Stark County,OH,NA,78.74779541446209,NA,NA
44641,Stark County,OH,NA,NA,NA,24.250681198910083
44646,Stark County,OH,NA,83.5978835978836,62.735519888346126,NA
44662,Stark County,OH,NA,NA,84.8569434752268,NA
44663,Tuscarawas County,OH,NA,NA,49.406838799720866,NA
44672,Mahoning County,OH,NA,NA,78.57641311933008,NA
44683,Tuscarawas County,OH,NA,NA,73.5519888346127,NA
44685,Summit County,OH,NA,39.15343915343915,NA,22.161671207992732
44703,Stark County,OH,NA,43.20987654320987,NA,NA
44705,Stark County,OH,NA,NA,33.49616189811584,NA
44707,Stark County,OH,NA,51.85185185185185,NA,NA
44708,Stark County,OH,NA,NA,66.71318911374739,NA
44718,Stark County,OH,77.40112994350282,NA,NA,49.59128065395095
44720,Stark County,OH,NA,NA,NA,11.1716621253406
44805,Ashland County,OH,NA,NA,NA,20.435967302452315
44839,Erie County,OH,NA,47.97178130511463,NA,NA
44842,Ashland County,OH,NA,NA,NA,86.37602179836512
44851,Huron County,OH,NA,97.97178130511463,NA,NA
44857,Huron County,OH,NA,66.84303350970018,NA,NA
44889,Huron County,OH,NA,NA,85.1360781577111,NA
44903,Richland County,OH,NA,14.991181657848324,NA,39.96366939146231
44907,Richland County,OH,NA,34.5679012345679,NA,NA
45002,Hamilton County,OH,NA,NA,NA,97.91099000908265
45005,Warren County,OH,NA,NA,13.677599441730633,NA
45011,Butler County,OH,NA,NA,NA,9.173478655767484
45014,Butler County,OH,NA,NA,15.771109560362875,NA
45030,Hamilton County,OH,NA,NA,49.546406140963015,NA
45040,Warren County,OH,NA,57.054673721340386,NA,NA
45066,Warren County,OH,NA,54.232804232804234,44.45219818562457,NA
45069,Butler County,OH,NA,48.05996472663139,NA,NA
45102,Clermont County,OH,NA,NA,56.24563852058618,NA
45103,Clermont County,OH,NA,NA,NA,52.40690281562216
45121,Brown County,OH,NA,64.99118165784833,80.32100488485693,NA
45123,Highland County,OH,NA,56.261022927689595,NA,NA
45133,Highland County,OH,NA,NA,NA,53.224341507720254
45140,Clermont County,OH,NA,NA,46.685275645498955,NA
45150,Clermont County,OH,NA,NA,NA,32.60672116257947
45204,Hamilton County,OH,NA,80.68783068783068,NA,NA
45205,Hamilton County,OH,NA,17.989417989417987,NA,NA
45206,Hamilton County,OH,NA,46.913580246913575,NA,NA
45208,Hamilton County,OH,NA,NA,80.46057222609909,NA
45220,Hamilton County,OH,NA,91.53439153439153,NA,NA
45227,Hamilton County,OH,NA,NA,41.66085136078158,NA
45229,Hamilton County,OH,48.58757062146893,NA,NA,NA
45230,Hamilton County,OH,NA,45.23809523809524,NA,NA
45238,Hamilton County,OH,NA,NA,12.770411723656663,NA
45240,Hamilton County,OH,NA,51.410934744268076,NA,NA
45241,Hamilton County,OH,NA,NA,34.333565945568736,NA
45242,Hamilton County,OH,NA,NA,NA,38.60127157129882
45246,Hamilton County,OH,NA,69.84126984126983,NA,NA
45248,Hamilton County,OH,NA,NA,55.54780181437544,NA
45322,Montgomery County,OH,NA,NA,44.731332868108865,NA
45324,Greene County,OH,NA,NA,14.166085136078157,17.529518619436875
45331,Darke County,OH,NA,21.693121693121693,NA,NA
45344,Clark County,OH,NA,50.52910052910053,NA,NA
45356,Miami County,OH,NA,38.2716049382716,9.42079553384508,NA
45371,Miami County,OH,NA,47.354497354497354,71.94696441032798,NA
45373,Miami County,OH,NA,24.074074074074073,9.769713886950454,NA
45377,Montgomery County,OH,NA,NA,43.5450104675506,56.49409627611263
45381,Preble County,OH,NA,NA,72.57501744591765,NA
45385,Greene County,OH,NA,NA,NA,5.903723887375113
45405,Montgomery County,OH,NA,19.929453262786595,NA,NA
45406,Montgomery County,OH,NA,NA,NA,56.76657584014533
45414,Montgomery County,OH,NA,NA,89.04396371249128,NA
45431,Montgomery County,OH,NA,NA,NA,34.78655767484105
45432,Greene County,OH,NA,NA,54.221912072575016,NA
45503,Clark County,OH,NA,5.64373897707231,9.839497557571528,8.083560399636694
45601,Ross County,OH,NA,0.7054673721340388,NA,NA
45619,Lawrence County,OH,NA,NA,91.41660851360781,NA
45640,Jackson County,OH,NA,24.514991181657848,NA,NA
45648,Scioto County,OH,NA,NA,15.352407536636429,NA
45656,Jackson County,OH,NA,NA,NA,71.38964577656675
45660,Adams County,OH,65.5367231638418,NA,NA,NA
45662,Scioto County,OH,NA,2.4691358024691357,NA,NA
45669,Lawrence County,OH,NA,15.079365079365079,NA,NA
45680,Lawrence County,OH,NA,35.978835978835974,25.819958129797627,NA
45692,Jackson County,OH,NA,NA,NA,65.66757493188011
45750,Washington County,OH,NA,NA,NA,1.544050862851953
45767,Washington County,OH,NA,99.73544973544973,NA,NA
45784,Washington County,OH,93.78531073446328,66.57848324514991,NA,NA
45801,Allen County,OH,NA,NA,19.190509420795536,NA
45822,Mercer County,OH,32.20338983050847,NA,NA,17.892824704813805
45840,Hancock County,OH,NA,28.39506172839506,1.884159106769016,NA
45895,Auglaize County,OH,NA,26.89594356261023,NA,NA
73018,Grady County,OK,NA,NA,28.19260293091417,NA
73026,Cleveland County,OK,NA,NA,NA,80.29064486830154
73034,Oklahoma County,OK,NA,NA,12.072575017445917,NA
73065,McClain County,OK,NA,97.53086419753086,NA,NA
73068,Cleveland County,OK,NA,85.27336860670194,NA,NA
73072,Cleveland County,OK,NA,23.721340388007054,NA,NA
73075,Garvin County,OK,NA,NA,NA,85.28610354223434
73077,Noble County,OK,NA,NA,NA,71.02633969118983
73078,Canadian County,OK,NA,NA,79.27424982554082,NA
73106,Oklahoma County,OK,NA,NA,90.30006978367062,NA
73108,Oklahoma County,OK,NA,NA,71.03977669225401,NA
73116,Oklahoma County,OK,NA,NA,82.13538032100487,NA
73120,Oklahoma County,OK,NA,NA,61.82833217027216,NA
73135,Oklahoma County,OK,NA,NA,54.08234473133287,NA
73142,Oklahoma County,OK,NA,77.5132275132275,NA,NA
73159,Oklahoma County,OK,48.0225988700565,NA,NA,NA
73160,Cleveland County,OK,NA,10.317460317460316,NA,NA
73162,Oklahoma County,OK,NA,NA,14.235868806699232,NA
73507,Comanche County,OK,NA,NA,NA,23.614895549500453
73533,Stephens County,OK,NA,NA,83.32170272156316,NA
73742,Kingfisher County,OK,NA,NA,99.02302861130495,NA
74010,Creek County,OK,56.49717514124294,NA,NA,NA
74011,Tulsa County,OK,NA,59.082892416225754,NA,NA
74017,Rogers County,OK,NA,NA,46.755059316120025,21.707538601271573
74019,Rogers County,OK,NA,NA,52.0586182833217,NA
74048,Nowata County,OK,NA,92.7689594356261,NA,NA
74075,Payne County,OK,NA,53.70370370370371,NA,NA
74105,Tulsa County,OK,NA,64.28571428571429,NA,NA
74114,Tulsa County,OK,NA,NA,NA,83.28792007266121
74126,Tulsa County,OK,NA,72.39858906525573,NA,NA
74133,Tulsa County,OK,NA,NA,NA,8.35603996366939
74136,Tulsa County,OK,NA,NA,41.10258199581298,NA
74401,Muskogee County,OK,NA,NA,54.08234473133287,NA
74421,Okmulgee County,OK,NA,NA,96.85973482205164,NA
74429,Wagoner County,OK,NA,NA,71.38869504535938,NA
74501,Pittsburg County,OK,36.72316384180791,43.82716049382716,NA,NA
74601,Kay County,OK,NA,NA,NA,98.45594913714805
74604,Kay County,OK,NA,NA,57.2923935799023,NA
74631,Kay County,OK,NA,NA,NA,84.01453224341508
74745,McCurtain County,OK,NA,NA,NA,86.83015440508629
74804,Pottawatomie County,OK,NA,58.64197530864198,NA,NA
74820,Pontotoc County,OK,NA,6.261022927689594,NA,NA
74848,Hughes County,OK,NA,70.8994708994709,NA,NA
74859,Okfuskee County,OK,NA,NA,NA,91.00817438692098
74959,Le Flore County,OK,NA,75.48500881834215,NA,NA
74960,Adair County,OK,NA,NA,36.357292393579904,NA
97007,Washington County,OR,NA,NA,NA,35.87647593097184
97051,Columbia County,OR,NA,NA,73.06350314026517,NA
97058,Wasco County,OR,NA,NA,26.448011165387296,NA
97080,Multnomah County,OR,NA,NA,NA,33.69663941871026
97115,Yamhill County,OR,NA,98.32451499118166,NA,NA
97124,Washington County,OR,NA,22.57495590828924,NA,NA
97132,Yamhill County,OR,NA,NA,25.05233775296581,NA
97140,Washington County,OR,NA,NA,59.31612002791346,NA
97141,Tillamook County,OR,NA,NA,NA,71.38964577656675
97206,Multnomah County,OR,NA,NA,NA,33.33333333333333
97210,Multnomah County,OR,NA,NA,NA,99.63669391462307
97215,Multnomah County,OR,NA,87.56613756613757,NA,NA
97216,Multnomah County,OR,NA,NA,63.921842288904394,NA
97221,Multnomah County,OR,NA,NA,95.46406140963015,NA
97230,Multnomah County,OR,NA,NA,11.79344033496162,NA
97233,Multnomah County,OR,NA,13.403880070546737,NA,NA
97266,Multnomah County,OR,NA,NA,29.72784368457781,NA
97302,Marion County,OR,NA,NA,39.91625959525471,NA
97322,Linn County,OR,NA,NA,10.816468946266573,NA
97333,Benton County,OR,NA,NA,NA,53.40599455040872
97352,Marion County,OR,NA,92.41622574955908,NA,NA
97355,Linn County,OR,49.717514124293785,NA,26.796929518492675,NA
97386,Linn County,OR,NA,42.239858906525576,NA,NA
97426,Lane County,OR,NA,NA,74.1102581995813,NA
97444,Curry County,OR,NA,98.76543209876543,NA,NA
97470,Douglas County,OR,NA,26.71957671957672,21.423586880669923,NA
97471,Douglas County,OR,NA,NA,28.75087229588276,NA
97477,Lane County,OR,NA,20.105820105820104,NA,NA
97502,Jackson County,OR,NA,NA,NA,29.791099000908268
97520,Jackson County,OR,NA,NA,44.59176552686671,NA
97526,Josephine County,OR,NA,NA,NA,45.23160762942779
97527,Josephine County,OR,NA,NA,NA,18.34695731153497
97535,Jackson County,OR,NA,NA,68.8764829030007,NA
97603,Klamath County,OR,NA,44.70899470899471,NA,NA
97759,Deschutes County,OR,NA,NA,NA,85.64940962761126
97814,Baker County,OR,NA,NA,NA,43.415077202543145
97882,Umatilla County,OR,NA,95.23809523809523,NA,NA
15001,Beaver County,PA,NA,64.6384479717813,NA,NA
15009,Beaver County,PA,NA,NA,NA,69.48228882833789
15037,Allegheny County,PA,NA,NA,NA,66.66666666666666
15061,Beaver County,PA,NA,NA,NA,55.76748410535877
15084,Allegheny County,PA,NA,62.16931216931217,NA,NA
15106,Allegheny County,PA,NA,49.55908289241622,NA,NA
15108,Allegheny County,PA,NA,NA,NA,7.1752951861943695
15136,Allegheny County,PA,NA,NA,NA,43.32425068119891
15206,Allegheny County,PA,NA,42.504409171075835,NA,NA
15209,Allegheny County,PA,NA,NA,67.34124214933705,NA
15210,Allegheny County,PA,NA,12.345679012345679,NA,NA
15211,Allegheny County,PA,NA,84.83245149911816,NA,NA
15221,Allegheny County,PA,NA,NA,58.75785066294487,NA
15223,Allegheny County,PA,NA,NA,NA,75.74931880108991
15226,Allegheny County,PA,NA,NA,NA,34.968210717529516
15227,Allegheny County,PA,45.19774011299435,NA,NA,NA
15228,Allegheny County,PA,NA,NA,65.87578506629448,NA
15234,Allegheny County,PA,NA,82.01058201058201,NA,NA
15236,Allegheny County,PA,NA,NA,25.680390788555478,7.992733878292461
15241,Allegheny County,PA,NA,NA,NA,49.137148047229786
15301,Washington County,PA,NA,NA,NA,9.44595821980018
15317,Washington County,PA,NA,NA,NA,12.170753860127158
15401,Fayette County,PA,NA,NA,NA,5.540417801998183
15425,Fayette County,PA,NA,NA,56.7341242149337,NA
15601,Westmoreland County,PA,NA,NA,NA,0.7266121707538601
15642,Westmoreland County,PA,NA,NA,4.745289602233078,NA
15656,Westmoreland County,PA,NA,NA,NA,72.47956403269755
15690,Westmoreland County,PA,NA,89.41798941798942,94.06838799720866,76.93006357856494
15701,Indiana County,PA,NA,NA,NA,11.080835603996366
15825,Jefferson County,PA,NA,NA,75.29658060013956,NA
15905,Cambria County,PA,NA,NA,32.79832519190509,NA
16002,Butler County,PA,NA,NA,89.74180041870203,NA
16053,Butler County,PA,NA,NA,NA,67.48410535876475
16201,Armstrong County,PA,NA,56.96649029982363,NA,NA
16438,Erie County,PA,NA,NA,NA,89.28247048138056
16502,Erie County,PA,NA,69.1358024691358,NA,NA
16601,Blair County,PA,NA,7.583774250440917,NA,NA
16602,Blair County,PA,NA,NA,10.118632240055828,NA
16652,Huntingdon County,PA,NA,NA,NA,54.586739327883734
16803,Centre County,PA,NA,NA,57.15282623866015,NA
16827,Centre County,PA,NA,NA,87.0900209351012,NA
16830,Clearfield County,PA,NA,NA,NA,14.350590372388739
17015,Cumberland County,PA,NA,68.87125220458555,NA,NA
17019,York County,PA,NA,56.613756613756614,NA,NA
17022,Lancaster County,PA,NA,14.37389770723104,NA,13.623978201634879
17025,Cumberland County,PA,NA,28.483245149911816,NA,69.93642143505903
17033,Dauphin County,PA,NA,NA,NA,19.346049046321525
17044,Mifflin County,PA,20.903954802259886,NA,32.17027215631542,NA
17055,Cumberland County,PA,NA,24.6031746031746,NA,NA
17070,Cumberland County,PA,NA,NA,NA,71.38964577656675
17078,Lebanon County,PA,NA,14.726631393298058,NA,NA
17084,Mifflin County,PA,NA,89.0652557319224,NA,80.56312443233425
17112,Dauphin County,PA,NA,NA,NA,10.172570390554043
17201,Franklin County,PA,NA,NA,16.538729937194695,NA
17222,Franklin County,PA,NA,NA,NA,33.15168029064487
17236,Franklin County,PA,NA,NA,NA,60.49046321525886
17257,Cumberland County,PA,NA,19.576719576719576,NA,NA
17313,York County,PA,NA,NA,NA,63.306085376930064
17320,Adams County,PA,NA,96.11992945326278,NA,NA
17331,York County,PA,NA,NA,0.6280530355896721,1.2715712988192553
17362,York County,PA,NA,NA,45.56873691556176,NA
17368,York County,PA,NA,NA,77.94836008374041,NA
17402,York County,PA,NA,15.873015873015872,NA,3.5422343324250685
17404,York County,PA,NA,NA,NA,79.20072661217075
17519,Lancaster County,PA,NA,NA,98.95324494068389,NA
17554,Lancaster County,PA,NA,79.62962962962963,NA,NA
17584,Lancaster County,PA,NA,NA,72.50523377529659,75.65849227974569
17701,Lycoming County,PA,NA,NA,4.675505931612003,NA
17754,Lycoming County,PA,NA,NA,NA,23.705722070844686
17777,Northumberland County,PA,NA,NA,93.30076762037683,NA
17814,Columbia County,PA,NA,NA,96.65038381018842,NA
17847,Northumberland County,PA,NA,NA,NA,82.56130790190736
17851,Northumberland County,PA,NA,NA,47.662247034194,NA
17870,Snyder County,PA,NA,41.53439153439153,25.75017445917655,NA
18015,Northampton County,PA,NA,NA,20.725750174459176,NA
18018,Lehigh County,PA,NA,NA,NA,7.447774750227067
18037,Lehigh County,PA,NA,NA,NA,83.10626702997274
18045,Northampton County,PA,NA,NA,NA,37.96548592188919
18062,Lehigh County,PA,NA,NA,26.86671318911375,62.3069936421435
18072,Northampton County,PA,NA,NA,88.06699232379623,NA
18073,Montgomery County,PA,NA,73.01587301587301,NA,NA
18201,Luzerne County,PA,NA,16.57848324514991,NA,NA
18229,Carbon County,PA,NA,NA,83.53105373342638,NA
18252,Schuylkill County,PA,NA,NA,81.5771109560363,NA
18301,Monroe County,PA,NA,NA,25.95952547103978,NA
18324,Pike County,PA,NA,NA,97.69713886950454,NA
18328,Pike County,PA,NA,NA,91.76552686671319,NA
18360,Monroe County,PA,NA,NA,NA,12.534059945504087
18407,Lackawanna County,PA,NA,40.476190476190474,NA,NA
18411,Lackawanna County,PA,NA,NA,52.128401953942785,NA
18428,Pike County,PA,NA,69.40035273368606,NA,NA
18505,Lackawanna County,PA,NA,NA,32.519190509420795,46.86648501362398
18509,Lackawanna County,PA,NA,48.85361552028218,NA,NA
18512,Lackawanna County,PA,NA,NA,NA,59.218891916439595
18518,Lackawanna County,PA,NA,NA,72.08653175157013,NA
18603,Columbia County,PA,NA,37.47795414462081,NA,NA
18642,Luzerne County,PA,NA,NA,77.52965806001396,NA
18702,Luzerne County,PA,NA,NA,24.07536636427076,NA
18704,Luzerne County,PA,NA,13.756613756613756,77.1109560362875,NA
18810,Bradford County,PA,NA,NA,95.0453593859037,NA
18901,Bucks County,PA,NA,NA,20.376831821353804,NA
18966,Bucks County,PA,NA,NA,NA,41.23524069028156
18974,Bucks County,PA,NA,NA,NA,2.0890099909173476
19010,Delaware County,PA,NA,49.029982363315696,NA,NA
19014,Delaware County,PA,NA,NA,37.82274947662247,NA
19031,Montgomery County,PA,NA,NA,97.34822051639917,NA
19038,Montgomery County,PA,NA,NA,20.6559665038381,NA
19047,Bucks County,PA,NA,NA,68.73691556175855,NA
19057,Bucks County,PA,NA,27.42504409171076,NA,41.507720254314265
19061,Delaware County,PA,NA,24.33862433862434,NA,NA
19063,Delaware County,PA,NA,NA,40.05582693649686,NA
19072,Montgomery County,PA,NA,NA,85.97348220516399,NA
19078,Delaware County,PA,NA,NA,NA,94.36875567665759
19083,Delaware County,PA,NA,NA,NA,59.491371480472296
19090,Montgomery County,PA,NA,41.09347442680776,NA,NA
19103,Philadelphia County,PA,NA,NA,19.539427773900908,NA
19106,Philadelphia County,PA,NA,93.20987654320987,NA,NA
19111,Philadelphia County,PA,NA,NA,3.768318213538032,NA
19120,Philadelphia County,PA,3.389830508474576,2.6455026455026456,NA,NA
19121,Philadelphia County,PA,NA,NA,19.190509420795536,NA
19124,Philadelphia County,PA,NA,NA,NA,22.3433242506812
19128,Philadelphia County,PA,NA,NA,23.93579902302861,NA
19130,Philadelphia County,PA,NA,NA,31.402651779483605,NA
19132,Philadelphia County,PA,NA,NA,NA,45.322434150772025
19136,Philadelphia County,PA,NA,NA,NA,36.421435059037236
19138,Philadelphia County,PA,NA,NA,18.632240055826937,NA
19139,Philadelphia County,PA,NA,17.372134038800706,NA,NA
19140,Philadelphia County,PA,NA,NA,7.466852756454989,NA
19141,Philadelphia County,PA,NA,NA,13.049546406140964,NA
19143,Philadelphia County,PA,NA,NA,NA,6.721162579473205
19144,Philadelphia County,PA,NA,3.880070546737213,NA,NA
19146,Philadelphia County,PA,NA,NA,NA,47.59309718437784
19148,Philadelphia County,PA,12.429378531073446,6.525573192239858,NA,NA
19150,Philadelphia County,PA,NA,NA,75.5059316120028,NA
19154,Philadelphia County,PA,NA,82.09876543209876,NA,25.9763851044505
19320,Chester County,PA,NA,NA,9.979064898813677,NA
19335,Chester County,PA,NA,NA,44.24284717376134,NA
19342,Delaware County,PA,NA,41.44620811287478,NA,NA
19343,Chester County,PA,NA,NA,85.83391486392185,NA
19348,Chester County,PA,NA,NA,42.28890439637125,NA
19355,Chester County,PA,NA,NA,38.52058618283321,NA
19438,Montgomery County,PA,NA,NA,49.19748778785764,28.610354223433244
19454,Montgomery County,PA,NA,37.38977072310406,NA,NA
19530,Berks County,PA,NA,NA,63.29378925331473,NA
19551,Berks County,PA,NA,90.74074074074075,NA,NA
19560,Berks County,PA,NA,77.1604938271605,NA,NA
19604,Berks County,PA,NA,9.435626102292769,NA,NA
19608,Berks County,PA,NA,NA,56.87369155617586,NA
02809,Bristol County,RI,NA,NA,29.378925331472434,NA
02816,Kent County,RI,NA,NA,78.08792742498255,NA
02896,Providence County,RI,NA,NA,NA,74.29609445958219
02919,Providence County,RI,NA,34.39153439153439,NA,NA
02920,Providence County,RI,NA,NA,NA,7.266121707538602
29020,Kershaw County,SC,NA,58.64197530864198,NA,NA
29040,Sumter County,SC,NA,NA,96.30146545708304,98.0018165304269
29042,Bamberg County,SC,NA,91.7989417989418,NA,NA
29045,Kershaw County,SC,NA,NA,48.77878576413119,NA
29053,Lexington County,SC,NA,NA,98.18562456385206,NA
29061,Richland County,SC,NA,NA,84.08932309839497,95.45867393278837
29069,Darlington County,SC,NA,NA,90.50942079553384,NA
29072,Lexington County,SC,NA,22.39858906525573,NA,NA
29073,Lexington County,SC,42.93785310734463,NA,NA,NA
29078,Kershaw County,SC,NA,90.12345679012346,NA,NA
29102,Clarendon County,SC,64.97175141242938,NA,NA,49.863760217983646
29107,Orangeburg County,SC,NA,97.88359788359789,NA,NA
29108,Newberry County,SC,NA,49.11816578483245,NA,58.03814713896458
29148,Clarendon County,SC,NA,NA,NA,93.18801089918256
29154,Sumter County,SC,NA,44.35626102292769,NA,NA
29164,Aiken County,SC,NA,NA,NA,98.63760217983652
29210,Richland County,SC,NA,67.46031746031747,NA,NA
29212,Lexington County,SC,NA,55.55555555555556,NA,NA
29229,Richland County,SC,NA,NA,51.57013258897418,NA
29302,Spartanburg County,SC,NA,NA,70.48150732728541,NA
29316,Spartanburg County,SC,NA,64.4620811287478,NA,NA
29330,Spartanburg County,SC,NA,NA,94.55687369155618,NA
29340,Cherokee County,SC,NA,34.479717813051145,NA,NA
29341,Cherokee County,SC,NA,NA,51.5003489183531,NA
29365,Spartanburg County,SC,NA,NA,87.99720865317515,NA
29369,Spartanburg County,SC,NA,NA,NA,79.47320617620345
29414,Charleston County,SC,NA,NA,NA,27.247956403269757
29445,Berkeley County,SC,NA,NA,22.051639916259596,NA
29449,Charleston County,SC,NA,NA,74.73831123517097,NA
29455,Charleston County,SC,NA,NA,66.85275645498953,NA
29461,Berkeley County,SC,NA,NA,29.09979064898814,NA
29464,Charleston County,SC,NA,NA,NA,12.715712988192552
29483,Dorchester County,SC,NA,NA,NA,50.13623978201635
29485,Dorchester County,SC,NA,53.17460317460318,NA,NA
29488,Colleton County,SC,NA,NA,31.61200279134683,NA
29505,Florence County,SC,NA,NA,49.82554082344731,NA
29520,Chesterfield County,SC,63.2768361581921,NA,NA,NA
29526,Horry County,SC,NA,NA,8.653175157013258,NA
29532,Darlington County,SC,NA,NA,48.639218422889044,NA
29569,Horry County,SC,NA,NA,NA,70.75386012715713
29571,Marion County,SC,NA,NA,94.34752267969296,NA
29576,Horry County,SC,NA,NA,75.08722958827634,NA
29579,Horry County,SC,NA,NA,29.518492672714586,NA
29582,Horry County,SC,NA,NA,NA,57.039055404178015
29583,Florence County,SC,NA,91.005291005291,NA,NA
29585,Georgetown County,SC,NA,NA,NA,32.78837420526794
29611,Greenville County,SC,NA,NA,NA,64.12352406902816
29615,Greenville County,SC,NA,51.67548500881834,NA,16.802906448683018
29617,Greenville County,SC,NA,NA,68.94626657362177,NA
29646,Greenwood County,SC,NA,NA,NA,62.76112624886467
29649,Greenwood County,SC,NA,57.84832451499118,NA,NA
29650,Greenville County,SC,NA,64.19753086419753,NA,NA
29662,Greenville County,SC,NA,55.64373897707231,NA,NA
29671,Pickens County,SC,NA,NA,60.01395673412422,NA
29678,Oconee County,SC,81.92090395480226,NA,NA,NA
29684,Anderson County,SC,79.09604519774011,NA,NA,NA
29702,Cherokee County,SC,NA,NA,NA,84.46866485013625
29715,York County,SC,NA,NA,NA,63.03360581289736
29730,York County,SC,NA,44.091710758377424,NA,NA
29732,York County,SC,NA,NA,19.958129797627354,NA
29803,Aiken County,SC,NA,36.860670194003525,NA,NA
29910,Beaufort County,SC,NA,NA,34.96161898115841,NA
57042,Lake County,SD,NA,NA,42.35868806699232,NA
57103,Minnehaha County,SD,NA,NA,2.8611304954640615,NA
57201,Codington County,SD,NA,72.39858906525573,NA,NA
57301,Davison County,SD,NA,41.88712522045856,NA,NA
57701,Pennington County,SD,NA,16.137566137566136,NA,NA
57770,Shannon County,SD,NA,77.68959435626103,NA,NA
37027,Williamson County,TN,NA,NA,NA,15.258855585831062
37036,Dickson County,TN,NA,NA,92.53314724354502,NA
37040,Montgomery County,TN,NA,NA,NA,62.0345140781108
37042,Montgomery County,TN,NA,20.01763668430335,NA,50.22706630336058
37055,Dickson County,TN,NA,20.105820105820104,NA,58.6739327883742
37058,Stewart County,TN,NA,NA,98.46475924633636,NA
37066,Sumner County,TN,NA,NA,NA,21.707538601271573
37067,Williamson County,TN,NA,NA,68.24842986741103,NA
37075,Sumner County,TN,NA,13.580246913580247,NA,NA
37087,Wilson County,TN,NA,NA,20.865317515701324,NA
37090,Wilson County,TN,NA,55.908289241622576,NA,79.291553133515
37110,Warren County,TN,NA,40.82892416225749,58.96720167480809,NA
37115,Davidson County,TN,NA,NA,56.03628750872296,31.88010899182561
37128,Rutherford County,TN,NA,71.34038800705468,NA,NA
37130,Rutherford County,TN,NA,NA,27.21563154221912,NA
37138,Davidson County,TN,NA,43.82716049382716,NA,NA
37167,Rutherford County,TN,NA,22.663139329805997,NA,NA
37172,Robertson County,TN,NA,12.962962962962962,28.68108862526169,NA
37186,Sumner County,TN,NA,NA,93.37055129099791,NA
37207,Davidson County,TN,NA,NA,25.331472435450102,NA
37209,Davidson County,TN,NA,NA,52.96580600139568,NA
37210,Davidson County,TN,NA,NA,NA,93.09718437783833
37215,Davidson County,TN,NA,NA,60.99092812281926,36.23978201634878
37217,Davidson County,TN,NA,36.067019400352734,NA,NA
37221,Davidson County,TN,51.9774011299435,NA,NA,30.699364214350588
37303,McMinn County,TN,NA,18.430335097001763,NA,NA
37321,Rhea County,TN,NA,NA,NA,66.21253405994551
37331,McMinn County,TN,NA,94.3562610229277,NA,NA
37363,Hamilton County,TN,NA,NA,37.68318213538032,NA
37367,Bledsoe County,TN,1.1299435028248588,NA,NA,NA
37377,Hamilton County,TN,NA,NA,16.817864619678996,NA
37385,Monroe County,TN,NA,NA,58.19958129797628,NA
37398,Franklin County,TN,NA,NA,53.454291695743194,NA
37412,Hamilton County,TN,NA,NA,NA,53.04268846503179
37419,Hamilton County,TN,NA,NA,NA,87.64759309718437
37601,Washington County,TN,NA,41.00529100529101,NA,NA
37604,Washington County,TN,NA,16.843033509700174,16.46894626657362,28.428701180744774
37620,Sullivan County,TN,NA,10.582010582010582,NA,NA
37642,Hawkins County,TN,NA,42.592592592592595,NA,NA
37659,Washington County,TN,NA,NA,62.24703419399861,NA
37660,Sullivan County,TN,NA,6.613756613756613,7.327285415212841,NA
37664,Sullivan County,TN,NA,NA,NA,23.79654859218892
37686,Sullivan County,TN,NA,NA,85.55478018143754,NA
37716,Anderson County,TN,NA,NA,25.26168876482903,NA
37742,Loudon County,TN,NA,69.22398589065256,NA,NA
37743,Greene County,TN,NA,NA,3.14026517794836,NA
37766,Campbell County,TN,NA,NA,NA,28.610354223433244
37771,Loudon County,TN,NA,NA,53.03558967201675,NA
37774,Loudon County,TN,NA,NA,19.888346127006283,NA
37777,Blount County,TN,NA,NA,51.709699930216324,NA
37801,Blount County,TN,NA,57.49559082892416,NA,NA
37813,Hamblen County,TN,NA,NA,93.09141660851361,NA
37814,Hamblen County,TN,NA,NA,23.02861130495464,NA
37826,McMinn County,TN,91.52542372881356,NA,NA,NA
37830,Anderson County,TN,NA,50.08818342151675,NA,NA
37840,Roane County,TN,NA,NA,51.22121423586881,NA
37854,Roane County,TN,NA,49.29453262786596,NA,NA
37857,Hawkins County,TN,49.717514124293785,NA,36.70621074668527,NA
37877,Hamblen County,TN,NA,72.66313932980599,NA,99.72752043596729
37917,Knox County,TN,NA,NA,18.981158408932313,22.888283378746593
37920,Knox County,TN,27.683615819209038,NA,NA,NA
37921,Knox County,TN,NA,25.308641975308642,NA,NA
37934,Knox County,TN,NA,NA,38.72993719469644,NA
38004,Tipton County,TN,NA,85.5379188712522,NA,NA
38006,Crockett County,TN,NA,NA,93.99860432658758,NA
38012,Haywood County,TN,NA,72.22222222222221,64.61967899511515,NA
38016,Shelby County,TN,NA,44.17989417989418,NA,NA
38017,Shelby County,TN,NA,39.24162257495591,NA,NA
38049,Tipton County,TN,NA,NA,99.79064898813678,NA
38104,Shelby County,TN,NA,NA,68.45778087927425,NA
38109,Shelby County,TN,1.694915254237288,NA,NA,NA
38111,Shelby County,TN,NA,NA,77.25052337752966,NA
38119,Shelby County,TN,NA,NA,NA,89.73660308810173
38128,Shelby County,TN,NA,NA,31.891137473831122,NA
38134,Shelby County,TN,37.85310734463277,NA,NA,NA
38135,Shelby County,TN,70.62146892655367,NA,NA,NA
38225,Weakley County,TN,85.87570621468926,NA,NA,NA
38257,Obion County,TN,NA,NA,86.95045359385904,NA
38320,Benton County,TN,NA,NA,NA,72.57039055404178
38372,Hardin County,TN,NA,43.12169312169312,43.68457780879274,NA
38401,Maury County,TN,NA,NA,NA,54.76839237057221
38474,Maury County,TN,NA,72.8395061728395,NA,NA
38483,Lawrence County,TN,NA,NA,NA,97.54768392370572
38556,Fentress County,TN,NA,NA,NA,87.19346049046321
38574,Putnam County,TN,NA,75.22045855379189,94.4870900209351,NA
38583,White County,TN,NA,NA,24.703419399860433,NA
75001,Dallas County,TX,NA,NA,NA,94.09627611262489
75006,Dallas County,TX,NA,NA,NA,25.158946412352407
75010,Denton County,TX,NA,NA,76.55268667131891,NA
75024,Collin County,TX,NA,80.42328042328042,NA,NA
75028,Denton County,TX,NA,48.148148148148145,NA,73.02452316076294
75032,Rockwall County,TX,NA,NA,78.43684577808793,NA
75034,Denton County,TX,NA,NA,NA,36.330608537693
75042,Dallas County,TX,NA,NA,NA,87.82924613987284
75043,Dallas County,TX,NA,NA,14.305652477320308,24.432334241598546
75050,Dallas County,TX,NA,NA,NA,48.31970935513169
75052,Dallas County,TX,NA,NA,61.688764829030006,NA
75056,Denton County,TX,13.559322033898304,NA,NA,NA
75063,Dallas County,TX,NA,50.617283950617285,NA,NA
75067,Denton County,TX,NA,75.57319223985891,88.6950453593859,NA
75070,Collin County,TX,NA,12.874779541446207,NA,NA
75071,Collin County,TX,NA,NA,27.355198883461266,NA
75074,Collin County,TX,NA,76.3668430335097,NA,NA
75082,Collin County,TX,NA,69.66490299823633,NA,NA
75088,Dallas County,TX,NA,NA,95.39427773900907,NA
75093,Collin County,TX,NA,NA,28.960223307745984,NA
75110,Navarro County,TX,NA,36.68430335097001,NA,NA
75115,Dallas County,TX,NA,18.51851851851852,NA,NA
75143,Henderson County,TX,NA,NA,55.268667131891135,NA
75154,Ellis County,TX,NA,37.91887125220458,NA,NA
75160,Kaufman County,TX,NA,56.08465608465608,NA,NA
75203,Dallas County,TX,NA,NA,65.59665038381019,NA
75208,Dallas County,TX,NA,NA,50.10467550593162,NA
75224,Dallas County,TX,NA,40.123456790123456,NA,NA
75227,Dallas County,TX,NA,16.049382716049383,NA,66.03088101725703
75228,Dallas County,TX,NA,NA,NA,20.52679382379655
75230,Dallas County,TX,NA,85.71428571428571,NA,NA
75234,Dallas County,TX,NA,61.28747795414462,NA,NA
75241,Dallas County,TX,NA,19.047619047619047,NA,NA
75244,Dallas County,TX,NA,NA,84.64759246336358,NA
75248,Dallas County,TX,NA,NA,NA,32.879200726612176
75249,Dallas County,TX,NA,64.10934744268077,NA,NA
75253,Dallas County,TX,NA,NA,81.92602930914165,NA
75287,Denton County,TX,NA,34.832451499118164,NA,NA
75440,Rains County,TX,NA,NA,75.29658060013956,NA
75455,Titus County,TX,NA,45.67901234567901,NA,47.32061762034514
75457,Franklin County,TX,NA,NA,NA,92.7338782924614
75482,Hopkins County,TX,NA,NA,52.54710397766923,NA
75604,Gregg County,TX,NA,NA,55.82693649685974,NA
75605,Gregg County,TX,NA,NA,NA,65.12261580381471
75633,Panola County,TX,NA,NA,50.52337752965806,NA
75652,Rusk County,TX,NA,NA,NA,74.0236148955495
75693,Gregg County,TX,95.48022598870057,NA,NA,NA
75703,Smith County,TX,NA,NA,NA,15.349682107175294
75766,Cherokee County,TX,NA,NA,34.40334961618981,65.9400544959128
75773,Wood County,TX,NA,NA,24.56385205861828,NA
75791,Smith County,TX,NA,NA,92.18422889043964,NA
75860,Freestone County,TX,NA,NA,NA,95.64032697547684
75862,Trinity County,TX,NA,NA,78.57641311933008,NA
75951,Jasper County,TX,NA,73.10405643738977,NA,NA
76002,Tarrant County,TX,NA,NA,60.78157711095603,NA
76006,Tarrant County,TX,NA,NA,70.41172365666434,NA
76009,Johnson County,TX,NA,55.026455026455025,NA,NA
76014,Tarrant County,TX,NA,NA,75.85484996510816,NA
76016,Tarrant County,TX,NA,NA,NA,69.02815622161671
76018,Tarrant County,TX,NA,NA,58.54849965108164,NA
76020,Tarrant County,TX,NA,25.66137566137566,86.8108862526169,53.950953678474114
76021,Tarrant County,TX,NA,60.58201058201058,NA,NA
76034,Tarrant County,TX,NA,NA,59.665038381018846,NA
76053,Tarrant County,TX,NA,35.273368606701936,NA,NA
76054,Tarrant County,TX,NA,NA,73.831123517097,NA
76058,Johnson County,TX,46.32768361581921,NA,NA,NA
76063,Tarrant County,TX,NA,NA,10.4675505931612,NA
76084,Johnson County,TX,NA,NA,89.11374738311235,NA
76109,Tarrant County,TX,NA,NA,NA,80.47229791099001
76111,Tarrant County,TX,NA,NA,67.7599441730635,NA
76132,Tarrant County,TX,NA,55.64373897707231,NA,NA
76208,Denton County,TX,NA,NA,NA,69.20980926430518
76209,Denton County,TX,NA,NA,75.57571528262386,NA
76210,Denton County,TX,NA,NA,54.50104675505931,NA
76240,Cooke County,TX,NA,33.68606701940035,NA,NA
76244,Tarrant County,TX,NA,21.428571428571427,49.546406140963015,NA
76374,Young County,TX,NA,NA,91.20725750174459,NA
76448,Eastland County,TX,NA,NA,95.81297976273552,NA
76501,Bell County,TX,NA,11.992945326278658,NA,NA
76513,Bell County,TX,NA,6.437389770723104,NA,NA
76542,Bell County,TX,NA,NA,19.609211444521982,NA
76548,Bell County,TX,NA,81.65784832451499,NA,NA
76692,Hill County,TX,NA,NA,55.129099790648986,NA
76712,McLennan County,TX,23.163841807909606,NA,NA,NA
76901,Tom Green County,TX,NA,NA,27.076064200976973,NA
77002,Harris County,TX,96.045197740113,NA,NA,NA
77014,Harris County,TX,NA,NA,60.15352407536636,NA
77018,Harris County,TX,NA,37.65432098765432,NA,NA
77021,Harris County,TX,NA,30.335097001763668,NA,NA
77026,Harris County,TX,NA,NA,NA,63.306085376930064
77029,Harris County,TX,NA,NA,67.7599441730635,NA
77031,Harris County,TX,NA,NA,83.7404047452896,NA
77035,Harris County,TX,NA,NA,NA,75.11353315168029
77036,Harris County,TX,NA,NA,19.39986043265876,50.04541326067211
77042,Harris County,TX,NA,NA,66.99232379623167,75.47683923705722
77045,Harris County,TX,NA,50.17636684303351,NA,NA
77048,Harris County,TX,NA,NA,75.7850662944871,NA
77058,Harris County,TX,NA,NA,80.04187020237265,NA
77071,Harris County,TX,NA,NA,NA,62.67029972752044
77077,Harris County,TX,NA,NA,NA,34.05994550408719
77080,Harris County,TX,NA,64.55026455026454,65.03838101884159,NA
77082,Harris County,TX,NA,NA,34.05443126308444,NA
77085,Harris County,TX,71.75141242937853,NA,NA,NA
77095,Harris County,TX,NA,NA,10.537334263782276,NA
77304,Montgomery County,TX,NA,NA,50.80251221214236,NA
77327,Liberty County,TX,NA,NA,NA,69.8455949137148
77328,San Jacinto County,TX,NA,NA,94.83600837404047,NA
77338,Harris County,TX,41.24293785310734,NA,56.03628750872296,NA
77339,Harris County,TX,NA,NA,NA,32.06176203451408
77345,Harris County,TX,61.5819209039548,NA,NA,NA
77351,Polk County,TX,NA,NA,NA,27.520435967302454
77356,Montgomery County,TX,NA,59.70017636684304,NA,NA
77357,Montgomery County,TX,NA,54.93827160493827,NA,NA
77365,Montgomery County,TX,23.728813559322035,83.86243386243386,NA,NA
77373,Harris County,TX,18.64406779661017,24.691358024691358,NA,NA
77377,Harris County,TX,NA,NA,NA,45.50408719346049
77379,Harris County,TX,NA,NA,NA,8.628519527702089
77385,Montgomery County,TX,NA,NA,72.36566643405443,NA
77406,Fort Bend County,TX,NA,NA,25.191905094207957,NA
77423,Waller County,TX,NA,NA,NA,94.45958219800181
77429,Harris County,TX,NA,NA,23.58688066992324,NA
77433,Harris County,TX,NA,10.052910052910052,NA,NA
77449,Harris County,TX,NA,32.451499118165785,21.702721563154224,NA
77471,Fort Bend County,TX,55.367231638418076,NA,NA,79.92733878292462
77478,Fort Bend County,TX,NA,79.98236331569665,NA,47.502270663033606
77494,Fort Bend County,TX,29.37853107344633,NA,NA,NA
77498,Fort Bend County,TX,NA,NA,NA,56.22161671207992
77504,Harris County,TX,NA,NA,74.04047452896022,NA
77515,Brazoria County,TX,NA,NA,NA,37.87465940054496
77517,Galveston County,TX,94.91525423728814,NA,NA,NA
77523,Chambers County,TX,NA,50.264550264550266,NA,NA
77536,Harris County,TX,NA,33.15696649029982,NA,NA
77541,Brazoria County,TX,NA,NA,NA,87.37511353315168
77545,Fort Bend County,TX,NA,NA,87.36915561758548,NA
77563,Galveston County,TX,NA,NA,46.33635729239358,NA
77566,Brazoria County,TX,NA,NA,41.52128401953943,NA
77568,Galveston County,TX,NA,29.365079365079367,NA,NA
77571,Harris County,TX,NA,NA,NA,49.95458673932788
77573,Galveston County,TX,NA,8.024691358024691,NA,NA
77581,Brazoria County,TX,NA,NA,17.515701325889744,NA
77632,Orange County,TX,NA,NA,68.10886252616888,NA
77701,Jefferson County,TX,NA,NA,64.27076064200978,NA
77703,Jefferson County,TX,NA,86.24338624338624,NA,NA
77802,Brazos County,TX,NA,NA,NA,38.23796548592189
77803,Brazos County,TX,NA,52.292768959435634,NA,NA
77845,Brazos County,TX,NA,NA,NA,15.712988192552224
77871,Leon County,TX,NA,NA,NA,65.57674841053588
78023,Bexar County,TX,NA,85.97883597883597,NA,NA
78028,Kerr County,TX,NA,63.66843033509701,NA,30.881017257039055
78041,Webb County,TX,NA,NA,NA,63.94187102633969
78043,Webb County,TX,NA,NA,NA,27.157129881925524
78046,Webb County,TX,NA,NA,23.02861130495464,NA
78063,Bandera County,TX,NA,85.97883597883597,NA,NA
78065,Atascosa County,TX,NA,84.30335097001763,72.78436845778089,NA
78130,Comal County,TX,NA,82.45149911816578,NA,NA
78154,Guadalupe County,TX,NA,NA,NA,60.217983651226156
78155,Guadalupe County,TX,NA,NA,NA,31.244323342415985
78201,Bexar County,TX,NA,19.66490299823633,NA,NA
78209,Bexar County,TX,NA,NA,56.24563852058618,NA
78212,Bexar County,TX,72.88135593220339,NA,NA,NA
78217,Bexar County,TX,NA,NA,63.22400558269366,NA
78222,Bexar County,TX,NA,NA,77.80879274249826,NA
78223,Bexar County,TX,NA,16.313932980599645,NA,NA
78226,Bexar County,TX,NA,NA,NA,99.90917347865576
78227,Bexar County,TX,NA,NA,NA,31.69845594913715
78230,Bexar County,TX,NA,NA,NA,50.31789282470481
78239,Bexar County,TX,NA,NA,NA,71.11716621253406
78244,Bexar County,TX,NA,NA,NA,84.9227974568574
78251,Bexar County,TX,NA,NA,75.92463363572925,NA
78260,Bexar County,TX,NA,76.98412698412699,NA,NA
78362,San Patricio County,TX,NA,NA,NA,99.00090826521344
78405,Nueces County,TX,NA,74.95590828924162,95.60362875087229,NA
78411,Nueces County,TX,NA,48.41269841269841,NA,68.75567665758402
78501,Hidalgo County,TX,NA,88.88888888888889,NA,NA
78520,Cameron County,TX,NA,NA,NA,56.403269754768395
78552,Cameron County,TX,NA,NA,NA,60.39963669391463
78573,Hidalgo County,TX,NA,NA,43.75436147941382,NA
78574,Hidalgo County,TX,NA,NA,NA,39.32788374205268
78576,Hidalgo County,TX,NA,93.82716049382715,NA,NA
78589,Hidalgo County,TX,NA,33.86243386243386,NA,NA
78596,Hidalgo County,TX,NA,NA,NA,29.3369663941871
78599,Hidalgo County,TX,NA,NA,NA,87.10263396911898
78628,Williamson County,TX,NA,67.98941798941799,NA,NA
78633,Williamson County,TX,NA,NA,0.5582693649685974,NA
78642,Williamson County,TX,NA,NA,NA,65.30426884650318
78643,Llano County,TX,NA,NA,83.94975575715281,NA
78666,Hays County,TX,NA,22.839506172839506,33.217027215631546,NA
78681,Williamson County,TX,NA,NA,28.541521284019538,NA
78734,Travis County,TX,NA,90.91710758377425,66.50383810188416,NA
78744,Travis County,TX,NA,56.4373897707231,NA,NA
78745,Travis County,TX,NA,NA,NA,55.5858310626703
78747,Travis County,TX,NA,NA,98.25540823447312,NA
78753,Travis County,TX,NA,NA,NA,58.58310626702997
78758,Travis County,TX,NA,46.03174603174603,NA,58.76475930971844
78840,Val Verde County,TX,NA,NA,NA,7.629427792915531
79106,Potter County,TX,NA,47.17813051146385,NA,NA
79403,Lubbock County,TX,NA,NA,93.6496859734822,NA
79412,Lubbock County,TX,NA,NA,NA,77.3841961852861
79423,Lubbock County,TX,NA,25.308641975308642,NA,NA
79424,Lubbock County,TX,NA,NA,36.84577808792743,14.986376021798364
79606,Taylor County,TX,NA,80.8641975308642,NA,NA
79701,Midland County,TX,NA,NA,NA,95.00454132606721
79705,Midland County,TX,NA,52.910052910052904,NA,NA
79901,El Paso County,TX,NA,NA,84.2986741102582,NA
79912,El Paso County,TX,NA,22.486772486772484,NA,NA
79924,El Paso County,TX,NA,NA,NA,17.620345140781108
79932,El Paso County,TX,NA,78.3068783068783,NA,NA
79938,El Paso County,TX,NA,27.60141093474427,NA,NA
84003,Utah County,UT,NA,NA,NA,88.19255222524977
84015,Davis County,UT,NA,17.901234567901234,45.01046755059316,NA
84040,Davis County,UT,NA,NA,84.36845778087927,NA
84043,Utah County,UT,NA,38.71252204585538,NA,NA
84045,Utah County,UT,NA,70.54673721340387,NA,NA
84047,Salt Lake County,UT,17.51412429378531,NA,NA,NA
84054,Davis County,UT,NA,68.95943562610229,NA,NA
84075,Davis County,UT,NA,NA,95.67341242149338,NA
84088,Salt Lake County,UT,NA,31.393298059964724,NA,NA
84093,Salt Lake County,UT,NA,75.74955908289242,NA,NA
84095,Salt Lake County,UT,NA,NA,NA,39.509536784741144
84102,Salt Lake County,UT,NA,76.45502645502646,NA,NA
84107,Salt Lake County,UT,NA,NA,92.25401256106072,NA
84108,Salt Lake County,UT,NA,NA,NA,33.5149863760218
84109,Salt Lake County,UT,NA,NA,80.39078855547803,NA
84111,Salt Lake County,UT,NA,NA,82.34473133286811,NA
84119,Salt Lake County,UT,12.994350282485875,NA,NA,NA
84120,Salt Lake County,UT,NA,NA,16.259595254710398,NA
84121,Salt Lake County,UT,NA,NA,13.538032100488486,NA
84128,Salt Lake County,UT,NA,65.07936507936508,65.87578506629448,NA
84404,Weber County,UT,NA,NA,NA,78.01998183469573
84606,Utah County,UT,NA,83.50970017636683,NA,NA
84651,Utah County,UT,NA,66.13756613756614,NA,NA
84660,Utah County,UT,43.50282485875706,59.876543209876544,NA,NA
84737,Washington County,UT,NA,NA,86.7411025819958,NA
84770,Washington County,UT,NA,NA,NA,31.78928247048138
84790,Washington County,UT,53.672316384180796,NA,NA,NA
05091,Windsor County,VT,NA,NA,NA,79.74568574023615
05143,Windsor County,VT,NA,96.38447971781305,NA,88.8283378746594
05401,Chittenden County,VT,NA,NA,44.52198185624564,NA
20136,Prince William County,VA,NA,NA,NA,99.45504087193461
20169,Prince William County,VA,NA,NA,69.36496859734822,NA
20170,Fairfax County,VA,NA,56.70194003527337,76.20376831821353,NA
20175,Loudoun County,VA,NA,NA,69.9930216329379,43.68755676657584
20186,Fauquier County,VA,NA,NA,NA,63.48773841961853
20190,Fairfax County,VA,NA,NA,92.74249825540824,NA
22003,Fairfax County,VA,NA,NA,NA,79.38237965485922
22015,Fairfax County,VA,NA,NA,42.847173761339846,NA
22030,Fairfax County,VA,42.3728813559322,NA,79.97208653175157,NA
22042,Fairfax County,VA,NA,NA,NA,73.02452316076294
22066,Fairfax County,VA,NA,NA,82.76343335659456,NA
22079,Fairfax County,VA,NA,NA,63.43335659455688,NA
22150,Fairfax County,VA,NA,NA,NA,21.525885558583106
22181,Fairfax County,VA,NA,NA,93.51011863224005,NA
22182,Fairfax County,VA,NA,NA,94.69644103279833,NA
22191,Prince William County,VA,NA,14.462081128747794,NA,NA
22193,Prince William County,VA,NA,NA,15.561758548499652,NA
22202,Arlington County,VA,NA,NA,87.57850662944871,NA
22204,Arlington County,VA,NA,NA,42.4284717376134,NA
22207,Arlington County,VA,NA,NA,NA,43.142597638510445
22301,Alexandria city,VA,NA,NA,97.13886950453595,NA
22308,Fairfax County,VA,NA,NA,NA,54.31425976385105
22309,Fairfax County,VA,NA,NA,48.98813677599442,60.03633060853769
22407,Spotsylvania County,VA,NA,NA,14.933705512909977,23.524069028156223
22408,Spotsylvania County,VA,NA,58.0246913580247,NA,NA
22601,Winchester city,VA,NA,NA,NA,62.76112624886467
22611,Clarke County,VA,NA,NA,89.46266573621773,NA
22655,Frederick County,VA,NA,50.79365079365079,NA,NA
22801,Harrisonburg city,VA,NA,NA,32.2400558269365,NA
22802,Harrisonburg city,VA,NA,20.37037037037037,NA,NA
22812,Rockingham County,VA,NA,NA,83.25191905094208,NA
22824,Shenandoah County,VA,NA,94.09171075837742,NA,NA
22844,Shenandoah County,VA,NA,80.24691358024691,NA,NA
22903,Charlottesville city,VA,NA,NA,NA,31.51680290644868
22923,Greene County,VA,NA,NA,98.74389392882065,NA
22936,Albemarle County,VA,NA,NA,87.71807397069085,NA
22968,Greene County,VA,NA,NA,69.22540125610607,84.74114441416893
22980,Waynesboro city,VA,NA,NA,21.632937892533146,2.815622161671208
23059,Henrico County,VA,NA,NA,NA,86.37602179836512
23111,Hanover County,VA,NA,NA,12.909979064898813,NA
23114,Chesterfield County,VA,NA,85.09700176366843,NA,NA
23185,James City County,VA,NA,NA,2.6517794836008375,0.4541326067211626
23188,James City County,VA,NA,NA,1.7445917655268668,0.6357856494096277
23222,Richmond city,VA,NA,NA,NA,37.148047229791096
23314,Isle of Wight County,VA,NA,NA,78.15771109560363,NA
23320,Chesapeake city,VA,NA,NA,12.97976273551989,NA
23321,Chesapeake city,VA,NA,NA,27.285415212840196,NA
23323,Chesapeake city,VA,NA,NA,30.63503140265178,NA
23430,Isle of Wight County,VA,NA,NA,28.611304954640616,NA
23434,Suffolk city,VA,NA,58.553791887125215,NA,NA
23453,Virginia Beach city,VA,NA,NA,69.01605024424285,NA
23454,Virginia Beach city,VA,NA,25.220458553791886,NA,NA
23455,Virginia Beach city,VA,NA,NA,7.606420097697139,NA
23456,Virginia Beach city,VA,47.45762711864407,50.44091710758377,58.827634333565946,46.503178928247046
23462,Virginia Beach city,VA,14.689265536723164,NA,NA,NA
23464,Virginia Beach city,VA,NA,13.668430335097002,2.1632937892533146,1.8165304268846505
23502,Norfolk city,VA,NA,NA,27.424982554082344,NA
23508,Norfolk city,VA,NA,NA,62.31681786461968,NA
23513,Norfolk city,VA,NA,NA,28.401953942777393,NA
23605,Newport News city,VA,NA,NA,NA,79.56403269754769
23669,Hampton city,VA,NA,18.69488536155203,11.304954640614097,NA
23707,Portsmouth city,VA,NA,NA,NA,75.93097184377838
23832,Chesterfield County,VA,NA,NA,NA,63.48773841961853
23842,Prince George County,VA,NA,94.17989417989418,NA,NA
24018,Roanoke County,VA,NA,NA,NA,6.630336058128973
24019,Roanoke County,VA,NA,77.60141093474427,NA,NA
24060,Montgomery County,VA,NA,81.21693121693121,NA,NA
24124,Giles County,VA,NA,89.32980599647267,NA,NA
24201,Bristol city,VA,NA,38.00705467372134,NA,NA
24219,Wise County,VA,NA,NA,68.17864619678996,NA
24277,Lee County,VA,NA,NA,100,NA
24354,Smyth County,VA,NA,NA,NA,88.5558583106267
24360,Wythe County,VA,NA,93.38624338624338,NA,NA
24401,Staunton city,VA,NA,9.347442680776014,NA,NA
24501,Lynchburg city,VA,NA,NA,70.90020935101187,NA
24502,Lynchburg city,VA,NA,68.25396825396825,NA,NA
24504,Lynchburg city,VA,NA,NA,70.69085833914865,NA
24541,Danville city,VA,NA,NA,28.332170272156315,NA
24563,Pittsylvania County,VA,NA,93.29805996472663,NA,94.00544959128065
24574,Amherst County,VA,NA,NA,NA,97.1843778383288
24588,Campbell County,VA,NA,NA,NA,83.74205267938238
24592,Halifax County,VA,NA,24.77954144620811,NA,NA
98002,King County,WA,NA,NA,NA,38.05631244323342
98003,King County,WA,NA,NA,54.012561060711796,NA
98005,King County,WA,NA,NA,79.6231681786462,NA
98007,King County,WA,NA,NA,NA,49.40962761126249
98020,Snohomish County,WA,NA,NA,NA,28.428701180744774
98021,Snohomish County,WA,53.10734463276836,NA,NA,NA
98022,King County,WA,NA,NA,NA,74.8410535876476
98027,King County,WA,NA,NA,NA,52.2252497729337
98029,King County,WA,NA,NA,60.78157711095603,NA
98030,King County,WA,NA,21.164021164021165,NA,NA
98032,King County,WA,NA,37.03703703703704,NA,NA
98034,King County,WA,NA,NA,43.96371249127704,NA
98036,Snohomish County,WA,NA,NA,36.00837404047453,NA
98038,King County,WA,NA,NA,33.70551290997906,NA
98040,King County,WA,NA,NA,53.38450802512212,NA
98042,King County,WA,NA,NA,NA,19.80018165304269
98052,King County,WA,52.54237288135594,NA,NA,NA
98053,King County,WA,NA,NA,34.89183531053733,NA
98057,King County,WA,64.40677966101694,NA,NA,NA
98058,King County,WA,NA,NA,18.213538032100487,NA
98059,King County,WA,NA,39.59435626102293,NA,NA
98070,King County,WA,NA,NA,69.7138869504536,NA
98074,King County,WA,NA,81.83421516754849,NA,NA
98092,King County,WA,NA,NA,50.03489183531053,29.609445958219798
98105,King County,WA,NA,NA,NA,50.68119891008175
98110,Kitsap County,WA,NA,54.4973544973545,NA,NA
98117,King County,WA,NA,80.95238095238095,NA,NA
98118,King County,WA,NA,NA,31.053733426378226,NA
98122,King County,WA,NA,50.35273368606702,NA,NA
98125,King County,WA,NA,33.95061728395062,NA,31.15349682107175
98144,King County,WA,NA,25.749559082892414,NA,NA
98146,King County,WA,NA,NA,28.12281926029309,65.30426884650318
98148,King County,WA,NA,NA,96.51081646894627,NA
98155,King County,WA,NA,NA,37.68318213538032,NA
98198,King County,WA,NA,NA,NA,57.765667574931875
98201,Snohomish County,WA,NA,NA,76.90160502442428,NA
98223,Snohomish County,WA,NA,79.1005291005291,15.143056524773202,NA
98225,Whatcom County,WA,NA,NA,40.05582693649686,NA
98236,Island County,WA,NA,NA,NA,92.4613987284287
98252,Snohomish County,WA,NA,NA,98.81367759944173,NA
98258,Snohomish County,WA,NA,NA,77.32030704815074,NA
98270,Snohomish County,WA,NA,15.432098765432098,NA,NA
98271,Snohomish County,WA,NA,NA,48.22051639916259,NA
98274,Skagit County,WA,NA,NA,NA,27.883742052679384
98292,Snohomish County,WA,NA,53.5273368606702,NA,NA
98296,Snohomish County,WA,NA,39.32980599647266,NA,NA
98310,Kitsap County,WA,NA,60.49382716049383,62.80530355896721,NA
98312,Kitsap County,WA,59.32203389830508,64.37389770723104,NA,NA
98329,Pierce County,WA,NA,70.01763668430335,NA,NA
98332,Pierce County,WA,NA,NA,50.24424284717376,NA
98359,Kitsap County,WA,NA,98.85361552028219,NA,NA
98362,Clallam County,WA,NA,NA,6.350314026517795,NA
98370,Kitsap County,WA,NA,66.0493827160494,NA,NA
98374,Pierce County,WA,NA,NA,37.54361479413817,NA
98382,Clallam County,WA,NA,NA,1.6748080949057922,0.9990917347865577
98418,Pierce County,WA,NA,87.03703703703704,NA,NA
98443,Pierce County,WA,NA,NA,NA,98.72842870118075
98444,Pierce County,WA,NA,30.158730158730158,NA,NA
98445,Pierce County,WA,NA,NA,53.80321004884857,NA
98467,Pierce County,WA,NA,77.86596119929453,NA,NA
98550,Grays Harbor County,WA,NA,92.68077601410934,NA,NA
98569,Grays Harbor County,WA,NA,NA,77.18073970690858,NA
98584,Mason County,WA,NA,NA,15.631542219120725,NA
98632,Cowlitz County,WA,NA,NA,4.047452896022331,NA
98802,Douglas County,WA,NA,43.738977072310405,NA,NA
98851,Grant County,WA,NA,NA,NA,93.18801089918256
98901,Yakima County,WA,NA,NA,43.26587578506629,NA
98908,Yakima County,WA,NA,NA,10.32798325191905,NA
98930,Yakima County,WA,NA,NA,78.85554780181437,NA
99004,Spokane County,WA,NA,NA,87.43893928820657,NA
99016,Spokane County,WA,NA,NA,NA,74.65940054495913
99026,Stevens County,WA,NA,94.97354497354497,NA,NA
99205,Spokane County,WA,NA,34.74426807760141,NA,NA
99206,Spokane County,WA,NA,39.85890652557319,NA,26.248864668483197
99223,Spokane County,WA,NA,NA,NA,82.92461398728429
99338,Benton County,WA,NA,NA,NA,62.76112624886467
99354,Benton County,WA,NA,NA,26.86671318911375,NA
20001,District of Columbia,DC,22.598870056497177,NA,NA,NA
20002,District of Columbia,DC,NA,NA,6.6294487090020935,NA
20009,District of Columbia,DC,NA,NA,42.079553384508024,NA
20019,District of Columbia,DC,NA,NA,3.6985345429169576,NA
20020,District of Columbia,DC,NA,1.8518518518518516,NA,NA
20024,District of Columbia,DC,NA,NA,59.38590369853455,83.28792007266121
24701,Mercer County,WV,NA,NA,NA,25.794732061762033
25064,Kanawha County,WV,NA,74.51499118165785,NA,48.68301544050863
25143,Kanawha County,WV,NA,54.05643738977073,NA,NA
25271,Jackson County,WV,NA,60.670194003527335,NA,58.94641235240691
25311,Kanawha County,WV,NA,NA,NA,57.402361489554956
25314,Kanawha County,WV,NA,NA,44.10327983251919,NA
25411,Morgan County,WV,NA,NA,NA,52.770208900999094
25413,Berkeley County,WV,88.13559322033898,NA,NA,NA
25427,Berkeley County,WV,NA,55.467372134038804,NA,NA
25701,Cabell County,WV,NA,13.227513227513226,NA,NA
25705,Cabell County,WV,NA,NA,NA,61.21707538601272
25801,Raleigh County,WV,NA,NA,NA,61.03542234332425
26003,Ohio County,WV,NA,3.968253968253968,1.3258897418004187,NA
26041,Marshall County,WV,NA,NA,NA,44.77747502270663
26062,Hancock County,WV,NA,NA,21.2142358688067,NA
26104,Wood County,WV,NA,30.864197530864196,73.97069085833915,16.98455949137148
26105,Wood County,WV,NA,42.32804232804233,NA,NA
26241,Randolph County,WV,NA,NA,NA,27.247956403269757
26288,Webster County,WV,NA,NA,NA,77.56584922797457
26301,Harrison County,WV,NA,NA,NA,55.49500454132607
26378,Lewis County,WV,NA,96.20811287477954,NA,NA
26452,Lewis County,WV,NA,51.587301587301596,NA,NA
26505,Monongalia County,WV,39.548022598870055,NA,5.582693649685973,NA
26554,Marion County,WV,NA,NA,0.9769713886950453,2.5431425976385107
26757,Hampshire County,WV,NA,NA,79.20446615491976,NA
53018,Waukesha County,WI,NA,94.88536155202821,NA,NA
53033,Washington County,WI,NA,NA,NA,95.8219800181653
53051,Waukesha County,WI,NA,81.48148148148148,58.060013956734124,NA
53066,Waukesha County,WI,NA,33.77425044091711,9.630146545708303,NA
53072,Waukesha County,WI,NA,NA,NA,38.96457765667575
53083,Sheboygan County,WI,NA,NA,54.43126308443824,NA
53095,Washington County,WI,NA,44.62081128747795,NA,NA
53105,Racine County,WI,NA,NA,NA,26.88465031789282
53121,Walworth County,WI,NA,37.83068783068783,NA,NA
53142,Kenosha County,WI,NA,NA,16.95743196092114,NA
53149,Waukesha County,WI,NA,NA,35.380321004884856,NA
53151,Waukesha County,WI,NA,NA,NA,13.169845594913715
53177,Racine County,WI,NA,76.89594356261023,NA,NA
53205,Milwaukee County,WI,27.683615819209038,NA,42.986741102581995,NA
53206,Milwaukee County,WI,NA,NA,NA,41.59854677565849
53208,Milwaukee County,WI,NA,51.49911816578483,NA,NA
53209,Milwaukee County,WI,NA,2.0282186948853616,NA,NA
53211,Milwaukee County,WI,NA,NA,NA,6.993642143505904
53212,Milwaukee County,WI,NA,NA,NA,42.50681198910082
53213,Milwaukee County,WI,NA,NA,63.85205861828332,NA
53215,Milwaukee County,WI,NA,3.7037037037037033,NA,NA
53217,Milwaukee County,WI,NA,NA,NA,11.444141689373296
53219,Milwaukee County,WI,NA,NA,NA,9.900090826521344
53220,Milwaukee County,WI,NA,NA,20.586182833217027,12.806539509536785
53221,Milwaukee County,WI,NA,NA,17.096999302163294,NA
53228,Milwaukee County,WI,NA,65.69664902998237,NA,NA
53405,Racine County,WI,NA,NA,2.7215631542219123,NA
53511,Rock County,WI,NA,NA,0.13956734124214934,NA
53531,Dane County,WI,NA,98.2363315696649,NA,NA
53532,Dane County,WI,NA,NA,NA,78.4741144414169
53545,Rock County,WI,NA,NA,15.771109560362875,NA
53546,Rock County,WI,NA,42.41622574955908,NA,NA
53548,Rock County,WI,NA,21.075837742504408,NA,NA
53559,Dane County,WI,NA,82.45149911816578,NA,NA
53590,Dane County,WI,NA,85.44973544973546,72.08653175157013,NA
53704,Dane County,WI,NA,8.906525573192239,NA,NA
53813,Grant County,WI,NA,91.88712522045856,NA,NA
53913,Sauk County,WI,NA,63.844797178130506,NA,11.807447774750226
53925,Columbia County,WI,NA,87.56613756613757,98.53454291695743,NA
53959,Sauk County,WI,NA,68.43033509700176,NA,NA
54016,St. Croix County,WI,NA,NA,NA,40.59945504087194
54121,Florence County,WI,NA,92.50440917107584,NA,NA
54153,Oconto County,WI,NA,87.83068783068782,NA,NA
54170,Outagamie County,WI,NA,96.38447971781305,NA,NA
54171,Oconto County,WI,NA,99.20634920634922,NA,NA
54220,Manitowoc County,WI,NA,NA,1.2561060711793441,NA
54301,Brown County,WI,NA,74.60317460317461,NA,NA
54303,Brown County,WI,NA,39.50617283950617,NA,NA
54311,Brown County,WI,NA,NA,NA,18.619436875567665
54401,Marathon County,WI,NA,33.42151675485009,NA,NA
54423,Portage County,WI,NA,99.47089947089947,NA,NA
54455,Marathon County,WI,NA,64.81481481481481,NA,NA
54476,Marathon County,WI,NA,NA,64.54989532449406,NA
54487,Lincoln County,WI,NA,89.94708994708994,NA,NA
54494,Wood County,WI,87.00564971751412,NA,5.652477320307049,NA
54495,Wood County,WI,NA,NA,NA,76.11262488646685
54521,Vilas County,WI,NA,NA,NA,90.46321525885558
54646,Juneau County,WI,NA,NA,NA,94.27792915531336
54660,Monroe County,WI,NA,NA,NA,61.85286103542234
54701,Eau Claire County,WI,NA,NA,18.84159106769016,NA
54724,Chippewa County,WI,NA,NA,NA,86.73932788374205
54729,Chippewa County,WI,NA,NA,17.376133984647595,NA
54914,Outagamie County,WI,NA,19.223985890652557,NA,NA
54961,Waupaca County,WI,NA,NA,76.06420097697139,NA
54981,Waupaca County,WI,NA,NA,42.7076064200977,NA
82009,Laramie County,WY,NA,65.87301587301587,NA,51.316984559491374
82240,Goshen County,WY,NA,NA,96.92951849267271,NA
82604,Natrona County,WY,NA,NA,75.92463363572925,NA
82801,Sheridan County,WY,NA,NA,NA,67.21162579473207
82901,Sweetwater County,WY,NA,48.589065255731924,NA,NA
82935,Sweetwater County,WY,NA,NA,79.0648988136776,NA
