ZipCode,county,state,Adult,Retirement,Geriatric
35055,Cullman County,AL,NA,NA,54.54545454545454
35213,Jefferson County,AL,90.48152295632698,NA,NA
35214,Jefferson County,AL,NA,44.33497536945813,NA
35217,Jefferson County,AL,NA,NA,79.54545454545455
35242,Shelby County,AL,37.51399776035834,16.748768472906402,NA
35470,Sumter County,AL,97.42441209406495,NA,NA
35501,Walker County,AL,73.23628219484883,NA,NA
35565,Winston County,AL,NA,80.29556650246306,NA
35616,Colbert County,AL,NA,89.16256157635468,NA
35653,Franklin County,AL,NA,83.49753694581281,NA
35674,Colbert County,AL,41.65733482642777,NA,NA
35758,Madison County,AL,45.12877939529675,NA,NA
35803,Madison County,AL,NA,41.13300492610838,NA
35811,Madison County,AL,48.15229563269877,NA,NA
35903,Etowah County,AL,63.49384098544233,NA,NA
35904,Etowah County,AL,53.30347144456887,NA,NA
36203,Calhoun County,AL,NA,58.620689655172406,NA
36272,Calhoun County,AL,NA,78.81773399014779,NA
36310,Henry County,AL,NA,92.36453201970444,NA
36527,Baldwin County,AL,84.99440089585666,NA,NA
36551,Baldwin County,AL,NA,92.85714285714286,NA
36587,Mobile County,AL,83.09070548712207,NA,NA
36603,Mobile County,AL,NA,NA,89.77272727272727
36619,Mobile County,AL,NA,75.61576354679804,NA
36701,Dallas County,AL,33.03471444568869,NA,NA
36869,Russell County,AL,NA,NA,69.31818181818183
99504,Anchorage Municipality,AK,63.045912653975364,NA,NA
99615,Kodiak Island Borough,AK,86.33818589025756,NA,NA
99623,,AK,86.00223964165733,NA,NA
99669,Kenai Peninsula Borough,AK,NA,62.315270935960584,NA
85007,Maricopa County,AZ,NA,73.39901477832512,NA
85009,Maricopa County,AZ,18.141097424412095,NA,NA
85012,Maricopa County,AZ,88.9137737961926,NA,NA
85014,Maricopa County,AZ,NA,63.30049261083743,NA
85016,Maricopa County,AZ,50.72788353863382,NA,NA
85032,Maricopa County,AZ,19.932810750279955,NA,NA
85035,Maricopa County,AZ,21.724524076147816,NA,NA
85041,Maricopa County,AZ,12.430011198208286,NA,NA
85122,Pinal County,AZ,NA,NA,21.59090909090909
85139,Pinal County,AZ,NA,77.83251231527095,NA
85202,Maricopa County,AZ,26.203807390817467,NA,NA
85205,Maricopa County,AZ,NA,31.2807881773399,NA
85207,Maricopa County,AZ,NA,34.23645320197045,NA
85226,Maricopa County,AZ,62.93393057110862,NA,NA
85248,Maricopa County,AZ,NA,NA,4.545454545454546
85251,Maricopa County,AZ,47.1444568868981,NA,NA
85259,Maricopa County,AZ,NA,NA,50
85262,Maricopa County,AZ,NA,NA,86.93181818181817
85281,Maricopa County,AZ,41.881298992161256,NA,NA
85308,Maricopa County,AZ,40.089585666293395,NA,NA
85338,Maricopa County,AZ,39.75363941769317,NA,NA
85345,Maricopa County,AZ,NA,NA,28.97727272727273
85355,Maricopa County,AZ,87.34602463605823,NA,NA
85364,Yuma County,AZ,5.039193729003359,NA,NA
85375,Maricopa County,AZ,NA,28.817733990147783,NA
85392,Maricopa County,AZ,NA,56.40394088669951,NA
85395,Maricopa County,AZ,NA,NA,67.61363636363636
85622,Pima County,AZ,NA,NA,50.56818181818182
85635,Cochise County,AZ,30.57110862262038,NA,NA
85705,Pima County,AZ,5.263157894736842,NA,NA
85742,Pima County,AZ,NA,56.40394088669951,NA
85748,Pima County,AZ,NA,NA,58.52272727272727
86004,Coconino County,AZ,NA,NA,95.45454545454545
86040,Coconino County,AZ,NA,83.00492610837439,NA
86301,Yavapai County,AZ,74.2441209406495,NA,NA
86303,Yavapai County,AZ,NA,NA,48.29545454545455
86314,Yavapai County,AZ,21.836506159014558,NA,NA
86409,Mohave County,AZ,38.40985442329227,5.911330049261084,NA
86442,Mohave County,AZ,NA,14.285714285714285,NA
71603,Jefferson County,AR,NA,28.57142857142857,NA
71957,Montgomery County,AR,NA,NA,99.43181818181817
72031,Van Buren County,AR,NA,NA,91.47727272727273
72455,Randolph County,AR,NA,74.63054187192118,NA
72601,Boone County,AR,63.26987681970885,NA,NA
72653,Baxter County,AR,51.735722284434495,NA,NA
72823,Pope County,AR,NA,NA,90.9090909090909
72949,Franklin County,AR,NA,NA,74.43181818181817
90006,Los Angeles County,CA,NA,66.00985221674877,NA
90018,Los Angeles County,CA,44.34490481522956,NA,NA
90019,Los Angeles County,CA,NA,32.51231527093596,NA
90022,Los Angeles County,CA,42.66517357222844,NA,NA
90059,Los Angeles County,CA,NA,62.80788177339901,NA
90064,Los Angeles County,CA,33.25867861142217,NA,NA
90212,Los Angeles County,CA,92.27323628219484,NA,NA
90241,Los Angeles County,CA,85.21836506159015,NA,NA
90277,Los Angeles County,CA,61.81410974244122,NA,NA
90505,Los Angeles County,CA,67.30123180291153,NA,NA
90623,Orange County,CA,NA,84.48275862068965,NA
90680,Orange County,CA,68.19708846584547,NA,NA
90802,Los Angeles County,CA,59.3505039193729,72.66009852216749,NA
91103,Los Angeles County,CA,NA,84.23645320197043,NA
91201,Los Angeles County,CA,NA,72.9064039408867,NA
91205,Los Angeles County,CA,76.93169092945129,NA,NA
91342,Los Angeles County,CA,26.091825307950728,NA,NA
91351,Los Angeles County,CA,NA,NA,87.5
91352,Los Angeles County,CA,67.86114221724524,NA,NA
91722,Los Angeles County,CA,76.59574468085107,NA,NA
91724,Los Angeles County,CA,NA,77.0935960591133,NA
91740,Los Angeles County,CA,NA,59.60591133004927,NA
91784,San Bernardino County,CA,78.83538633818588,NA,NA
91789,Los Angeles County,CA,NA,NA,48.86363636363637
91945,San Diego County,CA,69.42889137737961,NA,NA
92021,San Diego County,CA,20.492721164613663,NA,NA
92024,San Diego County,CA,NA,50.98522167487685,NA
92025,San Diego County,CA,NA,59.35960591133005,NA
92040,San Diego County,CA,56.55095184770437,32.26600985221675,NA
92064,San Diego County,CA,NA,42.364532019704434,NA
92071,San Diego County,CA,31.24300111982083,NA,NA
92084,San Diego County,CA,67.07726763717805,NA,NA
92101,San Diego County,CA,81.18701007838746,13.546798029556651,NA
92308,San Bernardino County,CA,NA,33.497536945812804,NA
92336,San Bernardino County,CA,13.773796192609183,NA,NA
92346,San Bernardino County,CA,NA,51.970443349753694,NA
92363,San Bernardino County,CA,NA,81.03448275862068,NA
92410,San Bernardino County,CA,38.52183650615901,NA,NA
92503,Riverside County,CA,97.20044792833147,NA,NA
92504,Riverside County,CA,49.16013437849944,NA,NA
92562,Riverside County,CA,NA,NA,33.52272727272727
92587,Riverside County,CA,NA,87.192118226601,NA
92649,Orange County,CA,64.27771556550952,NA,NA
92683,Orange County,CA,NA,NA,2.272727272727273
92804,Orange County,CA,19.036954087346025,NA,NA
92806,Orange County,CA,NA,NA,39.77272727272727
92841,Orange County,CA,NA,70.19704433497537,NA
92866,Orange County,CA,86.56215005599104,NA,NA
92867,Orange County,CA,68.64501679731244,NA,NA
93010,Ventura County,CA,NA,31.527093596059114,NA
93012,Ventura County,CA,75.25195968645016,NA,NA
93022,Ventura County,CA,NA,94.58128078817734,NA
93023,Ventura County,CA,77.93952967525196,NA,NA
93030,Ventura County,CA,22.396416573348265,NA,NA
93110,Santa Barbara County,CA,92.38521836506159,NA,NA
93221,Tulare County,CA,94.96080627099664,NA,NA
93313,Kern County,CA,60.806270996640535,NA,NA
93402,San Luis Obispo County,CA,91.15341545352743,NA,NA
93420,San Luis Obispo County,CA,74.80403135498321,NA,NA
93460,Santa Barbara County,CA,99.77603583426652,NA,NA
93552,Los Angeles County,CA,66.51735722284434,NA,NA
93619,Fresno County,CA,NA,47.53694581280788,NA
93657,Fresno County,CA,NA,50.24630541871922,NA
93703,Fresno County,CA,52.183650615901456,NA,NA
93706,Fresno County,CA,28.443449048152296,NA,NA
93726,Fresno County,CA,27.435610302351627,53.69458128078818,NA
93907,Monterey County,CA,82.75475923852184,NA,NA
93923,Monterey County,CA,NA,NA,9.659090909090908
94043,Santa Clara County,CA,80.85106382978722,NA,NA
94061,San Mateo County,CA,61.03023516237403,NA,NA
94080,San Mateo County,CA,NA,9.60591133004926,NA
94089,Santa Clara County,CA,85.77827547592385,NA,NA
94102,San Francisco County,CA,10.078387458006718,9.35960591133005,NA
94303,San Mateo County,CA,33.93057110862262,NA,NA
94306,Santa Clara County,CA,NA,72.9064039408867,NA
94404,San Mateo County,CA,78.72340425531915,NA,NA
94503,Napa County,CA,92.04927211646137,NA,NA
94505,Contra Costa County,CA,89.80963045912654,NA,NA
94533,Solano County,CA,NA,30.78817733990148,NA
94544,Alameda County,CA,58.454647256438975,NA,NA
94579,Alameda County,CA,NA,79.55665024630541,NA
94608,Alameda County,CA,NA,58.128078817733986,NA
94610,Alameda County,CA,72.22844344904816,NA,NA
94901,Marin County,CA,92.1612541993281,NA,NA
95128,Santa Clara County,CA,42.889137737961924,NA,NA
95205,San Joaquin County,CA,58.67861142217245,NA,NA
95206,San Joaquin County,CA,NA,33.004926108374384,NA
95207,San Joaquin County,CA,27.32362821948488,NA,NA
95330,San Joaquin County,CA,NA,83.74384236453201,NA
95350,Stanislaus County,CA,NA,18.7192118226601,NA
95401,Sonoma County,CA,66.85330347144458,NA,NA
95602,Placer County,CA,NA,55.41871921182266,NA
95610,Sacramento County,CA,NA,50.49261083743842,NA
95618,Yolo County,CA,NA,94.82758620689656,NA
95621,Sacramento County,CA,50.391937290033596,NA,NA
95662,Sacramento County,CA,NA,NA,31.25
95670,Sacramento County,CA,40.537513997760364,NA,NA
95678,Placer County,CA,NA,38.91625615763547,NA
95946,Nevada County,CA,NA,NA,69.88636363636364
95966,Butte County,CA,NA,12.31527093596059,NA
80012,Arapahoe County,CO,15.005599104143338,NA,NA
80013,Arapahoe County,CO,13.5498320268757,NA,NA
80017,Arapahoe County,CO,77.71556550951848,NA,NA
80104,Douglas County,CO,NA,NA,88.06818181818183
80122,Arapahoe County,CO,NA,59.11330049261084,NA
80202,Denver County,CO,60.694288913773796,NA,NA
80204,Denver County,CO,62.70996640537514,NA,NA
80207,Denver County,CO,50.61590145576707,NA,NA
80220,Denver County,CO,40.089585666293395,NA,NA
80224,Denver County,CO,71.22060470324747,NA,NA
80260,Adams County,CO,55.20716685330347,NA,NA
80401,Jefferson County,CO,NA,55.41871921182266,NA
80501,Boulder County,CO,NA,84.97536945812809,NA
80906,El Paso County,CO,NA,78.57142857142857,NA
81005,Pueblo County,CO,NA,65.76354679802957,NA
81328,Montezuma County,CO,NA,99.50738916256158,NA
81501,Mesa County,CO,52.40761478163493,NA,NA
06053,Hartford County,CT,14.781634938409855,NA,NA
06082,Hartford County,CT,24.188129899216126,NA,NA
06106,Hartford County,CT,29.11534154535274,18.226600985221676,NA
06112,Hartford County,CT,NA,59.85221674876847,NA
06401,New Haven County,CT,36.39417693169093,NA,NA
06415,New London County,CT,62.48600223964166,NA,NA
06457,Middlesex County,CT,NA,NA,6.8181818181818175
06468,Fairfield County,CT,85.21836506159015,NA,NA
06471,New Haven County,CT,93.72900335946248,NA,NA
06605,Fairfield County,CT,39.75363941769317,NA,NA
06607,Fairfield County,CT,86.45016797312431,NA,NA
06608,Fairfield County,CT,71.66853303471444,NA,NA
06705,New Haven County,CT,28.66741321388578,NA,NA
06716,New Haven County,CT,NA,69.45812807881774,NA
06770,New Haven County,CT,30.123180291153417,NA,NA
06811,Fairfield County,CT,54.08734602463606,NA,NA
19707,New Castle County,DE,98.88017917133259,71.92118226600985,NA
19713,New Castle County,DE,NA,35.714285714285715,NA
19807,New Castle County,DE,NA,98.76847290640394,NA
19973,Sussex County,DE,20.828667413213886,NA,NA
32065,Clay County,FL,49.496080627099666,NA,NA
32073,Clay County,FL,29.67525195968645,NA,NA
32086,St. Johns County,FL,NA,24.38423645320197,NA
32097,Nassau County,FL,66.06942889137738,NA,NA
32110,Flagler County,FL,76.03583426651736,NA,NA
32114,Volusia County,FL,28.89137737961926,NA,NA
32117,Volusia County,FL,38.96976483762598,NA,NA
32159,Lake County,FL,73.90817469204927,NA,NA
32162,Sumter County,FL,NA,3.201970443349754,NA
32164,Flagler County,FL,NA,21.182266009852217,NA
32207,Duval County,FL,NA,NA,49.43181818181818
32209,Duval County,FL,NA,19.950738916256157,NA
32210,Duval County,FL,5.599104143337066,8.866995073891626,NA
32216,Duval County,FL,24.076147816349383,NA,NA
32219,Duval County,FL,NA,72.16748768472905,NA
32225,Duval County,FL,NA,22.167487684729064,NA
32254,Duval County,FL,56.88689809630459,NA,NA
32347,Taylor County,FL,89.02575587905936,NA,NA
32444,Bay County,FL,76.37178051511758,NA,NA
32456,Gulf County,FL,90.2575587905935,NA,NA
32501,Escambia County,FL,64.05375139977603,NA,NA
32505,Escambia County,FL,23.516237402015676,NA,NA
32507,Escambia County,FL,NA,16.502463054187192,NA
32514,Escambia County,FL,NA,NA,8.522727272727272
32533,Escambia County,FL,NA,NA,22.727272727272727
32536,Okaloosa County,FL,NA,31.773399014778324,NA
32550,Walton County,FL,91.37737961926092,NA,NA
32571,Santa Rosa County,FL,71.10862262038073,NA,NA
32641,Alachua County,FL,NA,63.793103448275865,NA
32680,Dixie County,FL,NA,79.80295566502463,NA
32703,Orange County,FL,28.66741321388578,NA,NA
32730,Seminole County,FL,NA,96.30541871921181,NA
32735,Lake County,FL,NA,97.29064039408867,NA
32771,Seminole County,FL,NA,40.39408866995074,NA
32779,Seminole County,FL,NA,NA,32.38636363636363
32798,Orange County,FL,NA,NA,98.86363636363636
32803,Orange County,FL,NA,76.10837438423646,NA
32812,Orange County,FL,43.225083986562154,NA,NA
32821,Orange County,FL,86.22620380739082,NA,NA
32822,Orange County,FL,60.02239641657335,NA,NA
32836,Orange County,FL,NA,NA,85.79545454545455
32901,Brevard County,FL,64.61366181410975,NA,NA
32909,Brevard County,FL,46.69652855543113,NA,NA
32935,Brevard County,FL,24.972004479283314,49.50738916256158,NA
32967,Indian River County,FL,56.326987681970884,NA,NA
33015,Miami-Dade County,FL,60.47032474804032,NA,NA
33020,Broward County,FL,35.72228443449048,NA,NA
33021,Broward County,FL,56.774916013437846,NA,NA
33024,Broward County,FL,35.498320268757,NA,NA
33026,Broward County,FL,NA,64.28571428571429,NA
33032,Miami-Dade County,FL,48.82418812989921,NA,NA
33141,Miami-Dade County,FL,NA,40.88669950738916,NA
33157,Miami-Dade County,FL,NA,28.078817733990146,NA
33161,Miami-Dade County,FL,41.097424412094064,NA,NA
33311,Broward County,FL,8.958566629339305,NA,NA
33312,Broward County,FL,40.985442329227325,NA,NA
33319,Broward County,FL,49.72004479283314,NA,NA
33321,Broward County,FL,NA,NA,1.7045454545454544
33328,Broward County,FL,NA,NA,38.06818181818182
33404,Palm Beach County,FL,NA,53.20197044334976,NA
33410,Palm Beach County,FL,NA,NA,25
33415,Palm Beach County,FL,NA,NA,51.13636363636363
33434,Palm Beach County,FL,87.79395296752519,NA,NA
33436,Palm Beach County,FL,65.17357222844345,NA,NA
33445,Palm Beach County,FL,NA,NA,19.318181818181817
33458,Palm Beach County,FL,NA,NA,21.022727272727273
33483,Palm Beach County,FL,NA,NA,40.909090909090914
33573,Hillsborough County,FL,NA,27.586206896551722,NA
33579,Hillsborough County,FL,78.38745800671893,NA,NA
33592,Hillsborough County,FL,94.17693169092945,NA,NA
33598,Hillsborough County,FL,NA,NA,84.0909090909091
33607,Hillsborough County,FL,60.13437849944009,NA,NA
33610,Hillsborough County,FL,NA,42.610837438423644,NA
33626,Hillsborough County,FL,NA,NA,82.95454545454545
33702,Pinellas County,FL,60.91825307950728,NA,NA
33709,Pinellas County,FL,59.238521836506166,NA,NA
33801,Polk County,FL,29.003359462486,NA,NA
33810,Polk County,FL,NA,74.13793103448276,NA
33811,Polk County,FL,75.81187010078388,NA,NA
33852,Highlands County,FL,68.75699888017918,NA,NA
33901,Lee County,FL,61.92609182530795,NA,NA
33920,Lee County,FL,99.66405375139978,NA,NA
33950,Charlotte County,FL,82.0828667413214,NA,NA
33990,Lee County,FL,43.89697648376259,NA,NA
34104,Collier County,FL,62.038073908174695,NA,NA
34134,Lee County,FL,98.65621500559911,NA,NA
34224,Charlotte County,FL,NA,66.99507389162561,NA
34232,Sarasota County,FL,55.76707726763718,NA,NA
34234,Sarasota County,FL,47.92833146696528,NA,NA
34285,Sarasota County,FL,NA,24.63054187192118,NA
34293,Sarasota County,FL,NA,8.620689655172415,NA
34420,Marion County,FL,96.08062709966406,NA,NA
34448,Citrus County,FL,NA,NA,85.22727272727273
34452,Citrus County,FL,71.55655095184771,NA,NA
34473,Marion County,FL,NA,89.16256157635468,NA
34474,Marion County,FL,NA,NA,81.81818181818183
34476,Marion County,FL,69.87681970884658,NA,NA
34482,Marion County,FL,NA,NA,66.47727272727273
34606,Hernando County,FL,50.83986562150056,NA,NA
34609,Hernando County,FL,NA,NA,16.477272727272727
34652,Pasco County,FL,48.37625979843225,NA,NA
34655,Pasco County,FL,38.745800671892496,NA,NA
34677,Pinellas County,FL,NA,NA,51.70454545454546
34691,Pasco County,FL,NA,82.51231527093597,NA
34695,Pinellas County,FL,NA,NA,47.159090909090914
34698,Pinellas County,FL,62.48600223964166,NA,NA
34711,Lake County,FL,27.88353863381859,NA,NA
34743,Osceola County,FL,56.43896976483762,NA,NA
34761,Orange County,FL,NA,47.04433497536946,NA
34952,St. Lucie County,FL,30.79507278835386,12.561576354679804,NA
34957,Martin County,FL,82.86674132138859,39.90147783251231,NA
30024,Gwinnett County,GA,NA,NA,31.818181818181817
30052,Walton County,GA,NA,12.068965517241379,NA
30064,Cobb County,GA,70.88465845464725,NA,NA
30094,Rockdale County,GA,55.43113101903695,NA,NA
30096,Gwinnett County,GA,32.36282194848824,NA,NA
30101,Cobb County,GA,32.13885778275476,NA,NA
30115,Cherokee County,GA,NA,43.34975369458128,NA
30132,Paulding County,GA,NA,NA,44.88636363636363
30204,Lamar County,GA,NA,88.42364532019704,NA
30214,Fayette County,GA,85.55431131019037,NA,NA
30236,Clayton County,GA,37.06606942889138,NA,NA
30269,Fayette County,GA,NA,57.635467980295566,NA
30286,Upson County,GA,59.12653975363942,NA,NA
30294,DeKalb County,GA,79.50727883538634,NA,NA
30310,Fulton County,GA,NA,22.413793103448278,NA
30457,Treutlen County,GA,NA,96.55172413793103,NA
30507,Hall County,GA,51.62374020156775,NA,NA
30531,Habersham County,GA,91.26539753639418,NA,NA
30534,Dawson County,GA,49.608062709966404,NA,NA
30540,Gilmer County,GA,58.23068309070548,NA,NA
30546,Towns County,GA,NA,NA,46.590909090909086
30605,Clarke County,GA,63.941769316909294,NA,NA
30629,Madison County,GA,97.3124300111982,NA,NA
30655,Walton County,GA,NA,35.467980295566505,NA
30736,Catoosa County,GA,15.11758118701008,62.06896551724138,NA
30815,Richmond County,GA,26.875699888017916,NA,NA
31052,Bibb County,GA,95.29675251959686,NA,NA
31064,Jasper County,GA,NA,81.2807881773399,NA
31513,Appling County,GA,77.60358342665174,NA,NA
31794,Tift County,GA,70.10078387458006,NA,NA
39823,Early County,GA,NA,NA,70.45454545454545
96720,Hawaii County,HI,NA,67.48768472906403,NA
96734,Honolulu County,HI,NA,NA,9.090909090909092
96793,Maui County,HI,NA,90.88669950738915,NA
96826,Honolulu County,HI,50.50391937290034,NA,NA
83619,Payette County,ID,86.00223964165733,NA,NA
83709,Ada County,ID,NA,6.403940886699508,NA
83716,Ada County,ID,NA,46.30541871921182,NA
83814,Kootenai County,ID,39.41769316909294,NA,NA
83864,Bonner County,ID,NA,57.389162561576356,NA
60005,Cook County,IL,64.501679731243,NA,NA
60014,McHenry County,IL,66.62933930571108,NA,NA
60025,Cook County,IL,51.17581187010079,NA,NA
60050,McHenry County,IL,45.68868980963046,NA,NA
60077,Cook County,IL,69.09294512877939,NA,NA
60099,Lake County,IL,48.488241881299,NA,NA
60120,Kane County,IL,33.48264277715566,NA,NA
60126,DuPage County,IL,13.66181410974244,NA,NA
60133,Cook County,IL,NA,NA,73.29545454545455
60148,DuPage County,IL,NA,7.389162561576355,NA
60152,McHenry County,IL,82.30683090705487,NA,NA
60177,Kane County,IL,67.63717805151175,NA,52.84090909090909
60411,Cook County,IL,17.245240761478165,NA,NA
60439,Cook County,IL,NA,23.645320197044335,NA
60453,Cook County,IL,NA,11.576354679802956,NA
60459,Cook County,IL,39.641657334826434,NA,NA
60462,Cook County,IL,32.13885778275476,NA,NA
60487,Cook County,IL,NA,NA,59.09090909090909
60617,Cook County,IL,9.070548712206048,NA,NA
60624,Cook County,IL,NA,NA,38.63636363636363
60640,Cook County,IL,12.318029115341545,NA,NA
60641,Cook County,IL,17.80515117581187,NA,NA
60651,Cook County,IL,11.310190369540873,NA,NA
60805,Cook County,IL,79.05935050391936,NA,NA
60950,Kankakee County,IL,NA,71.42857142857143,NA
61036,Jo Daviess County,IL,97.98432250839866,NA,NA
61072,Winnebago County,IL,82.6427771556551,NA,NA
61104,Winnebago County,IL,NA,98.0295566502463,NA
61571,Tazewell County,IL,NA,58.3743842364532,NA
61701,McLean County,IL,37.402015677491605,NA,NA
61938,Coles County,IL,53.97536394176932,NA,23.863636363636363
62095,Madison County,IL,87.01007838745801,NA,NA
62301,Adams County,IL,40.42553191489361,NA,NA
62448,Jasper County,IL,NA,NA,80.68181818181817
62882,Marion County,IL,100,NA,NA
62901,Jackson County,IL,72.78835386338186,NA,NA
62959,Williamson County,IL,NA,NA,15.340909090909092
62966,Jackson County,IL,NA,53.44827586206896,NA
46016,Madison County,IN,NA,NA,37.5
46033,Hamilton County,IN,88.3538633818589,NA,NA
46041,Clinton County,IN,73.68421052631578,NA,NA
46062,Hamilton County,IN,68.86898096304591,NA,NA
46131,Johnson County,IN,NA,NA,11.931818181818182
46140,Hancock County,IN,35.162374020156776,24.137931034482758,NA
46142,Johnson County,IN,51.06382978723404,NA,NA
46151,Morgan County,IN,31.35498320268757,NA,NA
46160,Brown County,IN,96.30459126539753,NA,NA
46173,Rush County,IN,86.89809630459126,NA,NA
46176,Shelby County,IN,21.052631578947366,NA,NA
46201,Marion County,IN,23.292273236282195,NA,NA
46203,Marion County,IN,40.089585666293395,NA,NA
46219,Marion County,IN,NA,25.12315270935961,NA
46222,Marion County,IN,25.64389697648376,34.48275862068966,NA
46227,Marion County,IN,12.877939529675253,NA,NA
46237,Marion County,IN,24.412094064949606,NA,NA
46260,Marion County,IN,NA,NA,32.95454545454545
46307,Lake County,IN,NA,2.4630541871921183,NA
46342,Lake County,IN,6.83090705487122,NA,NA
46375,Lake County,IN,NA,23.15270935960591,NA
46392,Jasper County,IN,74.80403135498321,NA,NA
46405,Lake County,IN,NA,54.43349753694581,NA
46517,Elkhart County,IN,57.55879059350504,NA,NA
46545,St. Joseph County,IN,NA,NA,34.659090909090914
46616,St. Joseph County,IN,NA,99.01477832512316,NA
46725,Whitley County,IN,35.94624860022396,NA,NA
46807,Allen County,IN,60.246360582306835,NA,NA
46808,Allen County,IN,37.96192609182531,NA,NA
46815,Allen County,IN,NA,41.87192118226601,NA
46816,Allen County,IN,NA,82.26600985221675,NA
46818,Allen County,IN,47.816349384098544,NA,NA
46902,Howard County,IN,NA,5.172413793103448,NA
46970,Miami County,IN,13.213885778275476,NA,NA
47201,Bartholomew County,IN,15.789473684210526,NA,NA
47302,Delaware County,IN,23.516237402015676,NA,NA
47331,Fayette County,IN,NA,16.995073891625616,NA
47394,Randolph County,IN,NA,88.66995073891626,NA
47403,Monroe County,IN,70.77267637178052,NA,NA
47714,Vanderburgh County,IN,18.701007838745802,NA,NA
47872,Parke County,IN,NA,NA,73.86363636363636
47918,Fountain County,IN,89.47368421052632,NA,NA
50111,Polk County,IA,91.0414333706607,NA,NA
50322,Polk County,IA,NA,NA,53.40909090909091
51503,Pottawattamie County,IA,11.646136618141098,NA,NA
52003,Dubuque County,IA,90.48152295632698,NA,NA
52353,Washington County,IA,84.09854423292273,NA,NA
52402,Linn County,IA,NA,NA,26.704545454545453
52404,Linn County,IA,61.702127659574465,23.39901477832512,NA
52501,Wapello County,IA,19.148936170212767,NA,NA
52632,Lee County,IA,47.368421052631575,NA,NA
52655,Des Moines County,IA,89.24972004479284,NA,NA
66062,Johnson County,KS,NA,21.428571428571427,NA
66067,Franklin County,KS,NA,60.591133004926114,NA
66083,Johnson County,KS,NA,NA,76.70454545454545
66749,Allen County,KS,NA,89.65517241379311,NA
67211,Sedgwick County,KS,NA,90.64039408866995,NA
67212,Sedgwick County,KS,NA,NA,43.18181818181818
67801,Ford County,KS,67.7491601343785,NA,NA
40059,Jefferson County,KY,83.76259798432251,NA,NA
40065,Shelby County,KY,NA,36.206896551724135,NA
40108,Meade County,KY,76.03583426651736,NA,NA
40118,Jefferson County,KY,63.1578947368421,NA,NA
40160,Hardin County,KY,37.849944008958566,NA,NA
40207,Jefferson County,KY,78.27547592385218,NA,NA
40208,Jefferson County,KY,NA,91.62561576354679,NA
40212,Jefferson County,KY,NA,42.11822660098522,NA
40213,Jefferson County,KY,41.2094064949608,NA,NA
40214,Jefferson County,KY,8.3986562150056,NA,NA
40272,Jefferson County,KY,50.9518477043673,NA,NA
40336,Estill County,KY,NA,57.88177339901478,NA
40342,Anderson County,KY,74.46808510638297,NA,NA
40353,Montgomery County,KY,NA,36.94581280788177,NA
40383,Woodford County,KY,79.73124300111982,NA,56.81818181818182
40403,Madison County,KY,NA,46.79802955665024,NA
40514,Fayette County,KY,NA,NA,81.25
40517,Fayette County,KY,NA,47.783251231527096,NA
41011,Kenton County,KY,52.2956326987682,NA,NA
41014,Kenton County,KY,61.14221724524076,NA,NA
41016,Kenton County,KY,85.8902575587906,NA,NA
41018,Kenton County,KY,30.90705487122061,NA,NA
41031,Harrison County,KY,64.38969764837627,NA,NA
41071,Campbell County,KY,32.47480403135498,NA,NA
41074,Campbell County,KY,NA,98.27586206896551,NA
41094,Boone County,KY,NA,73.64532019704434,NA
41095,Gallatin County,KY,99.88801791713325,NA,NA
41301,Wolfe County,KY,79.84322508398655,NA,NA
42240,Christian County,KY,7.502799552071669,NA,NA
42261,Butler County,KY,NA,91.87192118226602,NA
42303,Daviess County,KY,42.5531914893617,NA,NA
42431,Hopkins County,KY,NA,69.21182266009852,NA
42701,Hardin County,KY,77.82754759238522,NA,NA
42718,Taylor County,KY,16.349384098544235,NA,NA
42726,Grayson County,KY,NA,76.35467980295566,NA
42728,Adair County,KY,NA,48.52216748768473,NA
70003,Jefferson Parish,LA,10.638297872340425,NA,NA
70037,Plaquemines Parish,LA,49.38409854423293,NA,NA
70043,St. Bernard Parish,LA,NA,71.18226600985221,NA
70119,Orleans Parish,LA,99.10414333706606,NA,NA
70131,Orleans Parish,LA,19.372900335946248,NA,NA
70301,Lafourche Parish,LA,NA,11.822660098522167,NA
70438,Washington Parish,LA,17.69316909294513,18.96551724137931,NA
70665,Calcasieu Parish,LA,41.993281075027994,NA,NA
70726,Livingston Parish,LA,3.0235162374020157,NA,NA
70785,Livingston Parish,LA,22.620380739081746,NA,NA
70806,East Baton Rouge Parish,LA,17.357222844344903,NA,NA
70810,East Baton Rouge Parish,LA,10.526315789473683,NA,NA
71291,Ouachita Parish,LA,13.997760358342665,NA,NA
71295,Franklin Parish,LA,90.70548712206048,NA,NA
71303,Rapides Parish,LA,NA,78.32512315270937,NA
04011,Cumberland County,ME,NA,32.758620689655174,NA
04092,Cumberland County,ME,46.69652855543113,NA,NA
04102,Cumberland County,ME,40.76147816349384,NA,NA
04239,Franklin County,ME,NA,NA,75
04330,Kennebec County,ME,7.166853303471445,NA,NA
20657,Calvert County,MD,76.48376259798432,NA,NA
20705,Prince George's County,MD,NA,78.07881773399015,NA
20715,Prince George's County,MD,74.13213885778276,NA,NA
20735,Prince George's County,MD,67.41321388577828,NA,NA
20743,Prince George's County,MD,41.54535274356103,NA,NA
20783,Prince George's County,MD,NA,NA,57.95454545454546
21009,Harford County,MD,56.99888017917133,NA,NA
21042,Howard County,MD,76.81970884658455,NA,NA
21157,Carroll County,MD,NA,NA,15.909090909090908
21158,Carroll County,MD,NA,70.6896551724138,NA
21206,Baltimore city,MD,47.59238521836507,NA,NA
21213,Baltimore city,MD,24.63605823068309,NA,NA
21218,Baltimore city,MD,42.777155655095186,NA,NA
21221,Baltimore County,MD,25.41993281075028,NA,NA
21222,Baltimore County,MD,49.16013437849944,2.955665024630542,NA
21224,Baltimore city,MD,21.27659574468085,NA,NA
21225,Baltimore city,MD,42.21724524076148,NA,NA
21229,Baltimore city,MD,NA,62.5615763546798,NA
21234,Baltimore County,MD,21.50055991041433,NA,NA
21237,Baltimore County,MD,61.59014557670772,NA,NA
21502,Allegany County,MD,NA,25.615763546798032,NA
21550,Garrett County,MD,79.05935050391936,NA,NA
21620,Kent County,MD,88.01791713325868,NA,NA
21701,Frederick County,MD,NA,NA,34.090909090909086
21740,Washington County,MD,59.014557670772675,NA,NA
01035,Hampshire County,MA,98.0963045912654,NA,NA
01040,Hampden County,MA,2.6875699888017914,NA,NA
01056,Hampden County,MA,73.1243001119821,NA,NA
01077,Hampden County,MA,75.92385218365062,NA,NA
01085,Hampden County,MA,2.57558790593505,NA,NA
01104,Hampden County,MA,2.3516237402015676,NA,NA
01109,Hampden County,MA,NA,11.330049261083744,NA
01201,Berkshire County,MA,1.4557670772676372,NA,NA
01247,Berkshire County,MA,7.278835386338185,NA,NA
01420,Worcester County,MA,38.63381858902575,NA,NA
01440,Worcester County,MA,3.135498320268757,NA,NA
01469,Middlesex County,MA,81.63493840985441,NA,NA
01473,Worcester County,MA,77.15565509518477,NA,NA
01475,Worcester County,MA,32.47480403135498,56.896551724137936,NA
01524,Worcester County,MA,92.72116461366181,NA,NA
01605,Worcester County,MA,2.015677491601344,NA,NA
01606,Worcester County,MA,NA,21.921182266009854,NA
01702,Middlesex County,MA,1.6797312430011198,NA,NA
01752,Middlesex County,MA,23.06830907054871,NA,NA
01757,Worcester County,MA,52.74356103023516,NA,NA
01801,Middlesex County,MA,90.92945128779395,NA,NA
01830,Essex County,MA,2.463605823068309,9.113300492610838,27.84090909090909
01841,Essex County,MA,0.11198208286674133,NA,NA
01862,Middlesex County,MA,89.58566629339306,54.187192118226605,NA
01904,Essex County,MA,14.44568868980963,NA,NA
01905,Essex County,MA,2.127659574468085,NA,NA
01915,Essex County,MA,3.4714445688689812,NA,NA
01930,Essex County,MA,4.8152295632698765,NA,NA
02019,Norfolk County,MA,NA,97.78325123152709,NA
02026,Norfolk County,MA,6.270996640537514,NA,NA
02043,Plymouth County,MA,99.32810750279955,NA,NA
02061,Plymouth County,MA,74.69204927211646,NA,NA
02067,Norfolk County,MA,66.18141097424413,NA,NA
02118,Suffolk County,MA,0.33594624860022393,NA,NA
02127,Suffolk County,MA,1.9036954087346025,NA,NA
02129,Suffolk County,MA,80.51511758118701,NA,NA
02136,Suffolk County,MA,3.807390817469205,NA,NA
02139,Middlesex County,MA,NA,4.1871921182266005,NA
02143,Middlesex County,MA,NA,14.77832512315271,NA
02144,Middlesex County,MA,25.755879059350505,NA,NA
02148,Middlesex County,MA,6.606942889137738,0.24630541871921183,NA
02151,Suffolk County,MA,0.22396416573348266,NA,NA
02189,Norfolk County,MA,29.227323628219487,NA,NA
02190,Norfolk County,MA,98.76819708846585,NA,NA
02301,Plymouth County,MA,0,NA,NA
02302,Plymouth County,MA,1.3437849944008957,NA,NA
02332,Plymouth County,MA,78.94736842105263,NA,NA
02346,Plymouth County,MA,14.55767077267637,NA,NA
02359,Plymouth County,MA,35.27435610302352,NA,NA
02451,Middlesex County,MA,31.019036954087348,NA,NA
02452,Middlesex County,MA,NA,99.26108374384236,NA
02571,Plymouth County,MA,85.44232922732363,NA,NA
02601,Barnstable County,MA,NA,29.310344827586203,NA
02645,Barnstable County,MA,96.86450167973123,NA,NA
02673,Barnstable County,MA,NA,98.52216748768473,NA
02720,Bristol County,MA,NA,0.9852216748768473,NA
02721,Bristol County,MA,55.5431131019037,NA,NA
02723,Bristol County,MA,20.716685330347147,NA,NA
02745,Bristol County,MA,19.596864501679732,NA,NA
02746,Bristol County,MA,4.031354983202688,NA,NA
02747,Bristol County,MA,34.04255319148936,NA,NA
02748,Bristol County,MA,47.704367301231805,NA,NA
02766,Bristol County,MA,87.56998880179171,NA,NA
02780,Bristol County,MA,NA,NA,10.795454545454545
48015,Macomb County,MI,65.17357222844345,NA,NA
48030,Oakland County,MI,50.16797312430011,NA,NA
48038,Macomb County,MI,17.02127659574468,6.65024630541872,NA
48044,Macomb County,MI,10.3023516237402,NA,NA
48060,St. Clair County,MI,NA,7.142857142857142,NA
48071,Oakland County,MI,NA,75.86206896551724,NA
48089,Macomb County,MI,NA,NA,44.31818181818182
48091,Macomb County,MI,7.726763717805152,NA,NA
48094,Macomb County,MI,59.68645016797313,NA,NA
48111,Wayne County,MI,8.286674132138858,NA,NA
48124,Wayne County,MI,25.195968645016798,NA,NA
48133,Monroe County,MI,94.0649496080627,NA,NA
48135,Wayne County,MI,79.28331466965287,NA,NA
48162,Monroe County,MI,NA,NA,12.5
48176,Washtenaw County,MI,NA,30.295566502463057,NA
48180,Wayne County,MI,4.367301231802911,2.70935960591133,NA
48183,Wayne County,MI,12.653975363941768,NA,NA
48197,Washtenaw County,MI,4.143337066069429,NA,NA
48198,Washtenaw County,MI,20.38073908174692,NA,NA
48202,Wayne County,MI,NA,46.55172413793103,NA
48203,Wayne County,MI,19.820828667413217,28.32512315270936,NA
48204,Wayne County,MI,NA,36.69950738916256,NA
48208,Wayne County,MI,64.72564389697648,NA,NA
48209,Wayne County,MI,NA,81.5270935960591,NA
48213,Wayne County,MI,14.669652855543113,NA,NA
48217,Wayne County,MI,72.90033594624859,83.2512315270936,NA
48223,Wayne County,MI,16.461366181410973,NA,NA
48225,Wayne County,MI,NA,91.37931034482759,NA
48227,Wayne County,MI,22.732362821948488,NA,NA
48238,Wayne County,MI,NA,22.906403940886698,NA
48240,Wayne County,MI,26.31578947368421,NA,NA
48322,Oakland County,MI,NA,10.591133004926109,NA
48348,Oakland County,MI,NA,50.98522167487685,NA
48362,Oakland County,MI,80.06718924972004,NA,NA
48393,Oakland County,MI,55.20716685330347,NA,NA
48439,Genesee County,MI,16.685330347144458,NA,NA
48446,Lapeer County,MI,19.70884658454647,NA,NA
48458,Genesee County,MI,36.50615901455767,60.09852216748769,NA
48503,Genesee County,MI,23.180291153415453,NA,NA
48519,Genesee County,MI,NA,NA,92.04545454545455
48602,Saginaw County,MI,NA,15.024630541871922,NA
48625,Clare County,MI,34.71444568868981,NA,NA
48640,Midland County,MI,13.101903695408733,19.704433497536947,NA
48750,Iosco County,MI,97.64837625979843,NA,NA
48823,Ingham County,MI,39.193729003359465,NA,NA
48846,Ionia County,MI,45.24076147816349,NA,NA
48867,Shiawassee County,MI,8.846584546472565,8.374384236453201,6.25
48906,Ingham County,MI,16.573348264277715,NA,NA
48910,Ingham County,MI,15.677491601343785,17.48768472906404,NA
48917,Eaton County,MI,39.52967525195968,NA,11.363636363636363
49007,Kalamazoo County,MI,45.912653975363945,85.71428571428571,NA
49009,Kalamazoo County,MI,16.12541993281075,NA,NA
49045,Van Buren County,MI,NA,84.72906403940887,NA
49073,Barry County,MI,85.1063829787234,NA,NA
49085,Berrien County,MI,NA,49.01477832512315,NA
49120,Berrien County,MI,NA,20.935960591133004,NA
49127,Berrien County,MI,84.32250839865621,NA,NA
49202,Jackson County,MI,38.18589025755879,NA,NA
49203,Jackson County,MI,9.630459126539753,NA,NA
49418,Kent County,MI,44.680851063829785,NA,NA
49419,Allegan County,MI,96.976483762598,NA,NA
49441,Muskegon County,MI,NA,5.41871921182266,NA
49505,Kent County,MI,65.39753639417694,NA,NA
49508,Kent County,MI,7.054871220604703,NA,NA
49601,Wexford County,MI,55.655095184770445,NA,NA
49685,Grand Traverse County,MI,NA,54.679802955665025,NA
49686,Grand Traverse County,MI,NA,NA,14.204545454545455
49740,Emmet County,MI,NA,68.22660098522168,NA
49855,Marquette County,MI,52.519596864501686,NA,NA
55016,Washington County,MN,48.26427771556551,NA,NA
55024,Dakota County,MN,NA,87.93103448275862,NA
55057,Rice County,MN,91.6013437849944,NA,NA
55060,Steele County,MN,43.784994400895854,NA,NA
55066,Goodhue County,MN,NA,60.3448275862069,NA
55101,Ramsey County,MN,38.85778275475924,NA,NA
55104,Ramsey County,MN,72.00447928331467,NA,NA
55105,Ramsey County,MN,80.73908174692049,NA,NA
55106,Ramsey County,MN,7.950727883538635,NA,NA
55117,Ramsey County,MN,21.388577827547593,NA,NA
55119,Ramsey County,MN,17.91713325867861,NA,NA
55302,Wright County,MN,96.64053751399776,NA,NA
55303,Anoka County,MN,22.84434490481523,NA,NA
55311,Hennepin County,MN,NA,70.93596059113301,NA
55330,Sherburne County,MN,NA,46.05911330049261,NA
55404,Hennepin County,MN,1.5677491601343785,NA,NA
55408,Hennepin County,MN,45.464725643896976,NA,NA
55413,Hennepin County,MN,NA,52.70935960591133,NA
55417,Hennepin County,MN,58.006718924972,NA,NA
55425,Hennepin County,MN,80.40313549832027,NA,NA
55429,Hennepin County,MN,NA,44.58128078817734,52.27272727272727
55431,Hennepin County,MN,NA,NA,71.5909090909091
55449,Anoka County,MN,59.3505039193729,NA,NA
55744,Itasca County,MN,NA,NA,3.4090909090909087
56073,Brown County,MN,NA,16.25615763546798,NA
56215,Swift County,MN,93.505039193729,NA,NA
56560,Clay County,MN,3.5834266517357225,NA,NA
56601,Beltrami County,MN,7.3908174692049275,NA,NA
38618,Tate County,MS,NA,74.38423645320196,NA
38637,DeSoto County,MS,57.446808510638306,NA,NA
38676,Tunica County,MS,95.63269876819709,NA,NA
39042,Rankin County,MS,39.97760358342665,NA,NA
39046,Madison County,MS,NA,61.083743842364534,NA
39328,Kemper County,MS,96.41657334826428,NA,NA
39350,Neshoba County,MS,31.80291153415454,NA,NA
39532,Harrison County,MS,NA,25.12315270935961,NA
63020,Jefferson County,MO,NA,NA,47.72727272727273
63021,St. Louis County,MO,NA,14.532019704433496,NA
63116,St. Louis city,MO,NA,60.83743842364532,NA
63367,St. Charles County,MO,65.50951847704367,NA,NA
63376,St. Charles County,MO,13.325867861142218,NA,NA
63389,Lincoln County,MO,NA,93.34975369458128,NA
63845,Mississippi County,MO,NA,94.33497536945814,NA
64015,Jackson County,MO,17.133258678611423,NA,NA
64029,Jackson County,MO,46.02463605823068,NA,NA
64052,Jackson County,MO,43.673012318029116,NA,NA
64060,Clay County,MO,53.75139977603583,NA,NA
64067,Lafayette County,MO,72.67637178051511,NA,NA
64093,Johnson County,MO,NA,NA,92.61363636363636
64114,Jackson County,MO,NA,NA,25.568181818181817
64117,Clay County,MO,NA,50,NA
64130,Jackson County,MO,NA,26.354679802955665,NA
64133,Jackson County,MO,5.711086226203808,NA,NA
64151,Platte County,MO,36.954087346024636,NA,NA
64601,Livingston County,MO,57.89473684210527,NA,NA
64628,Linn County,MO,88.80179171332587,NA,NA
64834,Jasper County,MO,NA,NA,63.63636363636363
65401,Phelps County,MO,44.23292273236282,NA,NA
65616,Taney County,MO,86.78611422172452,NA,NA
65653,Taney County,MO,94.40089585666294,NA,NA
65672,Taney County,MO,95.07278835386337,NA,NA
65803,Greene County,MO,43.44904815229563,NA,NA
59072,Musselshell County,MT,NA,89.90147783251231,NA
59803,Missoula County,MT,89.36170212765957,NA,NA
68008,Washington County,NE,NA,NA,62.5
68106,Douglas County,NE,81.74692049272116,NA,NA
68111,Douglas County,NE,NA,40.64039408866995,NA
68154,Douglas County,NE,NA,NA,86.36363636363636
68333,Saline County,NE,97.76035834266517,NA,NA
68850,Dawson County,NE,86.56215005599104,NA,NA
89104,Clark County,NV,44.90481522956327,NA,NA
89107,Clark County,NV,NA,69.95073891625616,NA
89119,Clark County,NV,26.98768197088466,NA,NA
89143,Clark County,NV,NA,95.32019704433498,NA
89146,Clark County,NV,84.65845464725645,NA,NA
89403,Lyon County,NV,77.49160134378499,NA,NA
89423,Douglas County,NV,NA,64.03940886699507,NA
89506,Washoe County,NV,23.74020156774916,NA,NA
89703,Carson City,NV,NA,75.1231527093596,NA
89706,Carson City,NV,70.32474804031355,NA,NA
03060,Hillsborough County,NH,7.838745800671893,NA,NA
03103,Hillsborough County,NH,NA,13.793103448275861,NA
03104,Hillsborough County,NH,18.477043673012318,NA,NA
03220,Belknap County,NH,91.48936170212765,NA,NA
03860,Carroll County,NH,NA,NA,60.79545454545454
03867,Strafford County,NH,27.99552071668533,NA,NA
07003,Essex County,NJ,85.66629339305712,NA,NA
07013,Passaic County,NJ,78.61142217245241,NA,NA
07018,Essex County,NJ,NA,29.064039408866993,NA
07026,Bergen County,NJ,20.268756998880182,NA,NA
07032,Hudson County,NJ,26.651735722284435,NA,NA
07070,Bergen County,NJ,75.69988801791713,NA,NA
07087,Hudson County,NJ,57.67077267637178,NA,NA
07104,Essex County,NJ,1.1198208286674132,NA,NA
07108,Essex County,NJ,NA,24.876847290640395,NA
07208,Union County,NJ,18.58902575587906,NA,NA
07405,Morris County,NJ,NA,NA,60.22727272727273
07644,Bergen County,NJ,NA,99.75369458128078,NA
07738,Monmouth County,NJ,98.54423292273236,NA,NA
07740,Monmouth County,NJ,8.174692049272117,NA,NA
07747,Monmouth County,NJ,38.18589025755879,NA,NA
07762,Monmouth County,NJ,NA,NA,80.11363636363636
07882,Warren County,NJ,98.99216125419933,NA,NA
07928,Morris County,NJ,95.18477043673013,NA,NA
08005,Ocean County,NJ,23.404255319148938,NA,13.636363636363635
08016,Burlington County,NJ,22.956326987681972,NA,NA
08030,Camden County,NJ,NA,87.4384236453202,NA
08034,Camden County,NJ,97.87234042553192,NA,NA
08052,Burlington County,NJ,81.8589025755879,NA,NA
08066,Gloucester County,NJ,33.5946248600224,NA,NA
08080,Gloucester County,NJ,14.893617021276595,NA,NA
08081,Camden County,NJ,NA,10.344827586206897,NA
08090,Gloucester County,NJ,75.36394176931691,NA,NA
08096,Gloucester County,NJ,6.047032474804031,NA,NA
08103,Camden County,NJ,5.93505039193729,NA,NA
08104,Camden County,NJ,8.51063829787234,3.6945812807881775,NA
08105,Camden County,NJ,91.93729003359462,NA,NA
08109,Camden County,NJ,59.910414333706605,NA,NA
08234,Atlantic County,NJ,26.42777155655095,17.24137931034483,NA
08401,Atlantic County,NJ,NA,27.339901477832512,NA
08505,Burlington County,NJ,69.42889137737961,NA,NA
08536,Middlesex County,NJ,63.829787234042556,NA,NA
08611,Mercer County,NJ,66.40537513997761,NA,72.1590909090909
08723,Ocean County,NJ,20.6047032474804,NA,NA
08753,Ocean County,NJ,4.25531914893617,NA,NA
08759,Ocean County,NJ,NA,1.9704433497536946,NA
08854,Middlesex County,NJ,NA,15.763546798029557,NA
87002,Valencia County,NM,58.566629339305706,NA,NA
87016,Torrance County,NM,NA,100,NA
87031,Valencia County,NM,NA,35.221674876847295,NA
87102,Bernalillo County,NM,27.547592385218366,NA,55.68181818181818
87112,Bernalillo County,NM,18.81298992161254,NA,NA
87120,Bernalillo County,NM,NA,17.733990147783253,NA
87121,Bernalillo County,NM,NA,NA,18.75
87124,Sandoval County,NM,NA,NA,10.227272727272728
87505,Santa Fe County,NM,6.4949608062709965,NA,NA
87701,San Miguel County,NM,NA,55.172413793103445,NA
88001,Doa Ana County,NM,31.914893617021278,NA,NA
88203,Chaves County,NM,24.748040313549833,NA,NA
88345,Lincoln County,NM,NA,85.96059113300493,NA
10001,New York County,NY,16.23740201567749,7.635467980295567,NA
10002,New York County,NY,NA,27.093596059113302,NA
10009,New York County,NY,12.541993281075028,NA,NA
10014,New York County,NY,88.46584546472565,NA,NA
10016,New York County,NY,NA,93.10344827586206,NA
10025,New York County,NY,31.46696528555431,15.517241379310345,NA
10029,New York County,NY,NA,0.49261083743842365,NA
10036,New York County,NY,44.568868980963046,NA,NA
10301,Richmond County,NY,54.1993281075028,NA,NA
10309,Richmond County,NY,67.97312430011199,NA,NA
10314,Richmond County,NY,NA,30.541871921182267,NA
10451,Bronx County,NY,22.17245240761478,NA,NA
10454,Bronx County,NY,33.370660694288915,NA,NA
10456,Bronx County,NY,NA,0,NA
10458,Bronx County,NY,0.5599104143337066,8.12807881773399,NA
10459,Bronx County,NY,NA,12.807881773399016,NA
10461,Bronx County,NY,NA,NA,17.613636363636363
10467,Bronx County,NY,0.8958566629339306,NA,NA
10522,Westchester County,NY,NA,97.53694581280789,NA
10707,Westchester County,NY,94.73684210526315,NA,NA
10952,Rockland County,NY,NA,86.45320197044335,NA
11050,Nassau County,NY,NA,61.57635467980296,NA
11207,Kings County,NY,0.7838745800671892,NA,NA
11208,Kings County,NY,10.19036954087346,NA,NA
11212,Kings County,NY,1.2318029115341544,1.2315270935960592,NA
11213,Kings County,NY,6.382978723404255,NA,NA
11221,Kings County,NY,22.284434490481523,NA,NA
11222,Kings County,NY,69.6528555431131,NA,NA
11223,Kings County,NY,NA,16.00985221674877,NA
11224,Kings County,NY,NA,6.896551724137931,NA
11230,Kings County,NY,21.612541993281077,NA,NA
11356,Queens County,NY,NA,85.22167487684729,NA
11385,Queens County,NY,12.76595744680851,NA,NA
11419,Queens County,NY,45.8006718924972,NA,NA
11432,Queens County,NY,68.42105263157895,NA,NA
11433,Queens County,NY,NA,34.97536945812808,NA
11542,Nassau County,NY,69.98880179171333,NA,NA
11550,Nassau County,NY,15.34154535274356,NA,NA
11575,Nassau County,NY,74.35610302351624,NA,NA
11576,Nassau County,NY,NA,NA,61.93181818181818
11581,Nassau County,NY,NA,90.14778325123153,NA
11598,Nassau County,NY,95.96864501679731,NA,NA
11691,Queens County,NY,11.198208286674133,NA,NA
11701,Suffolk County,NY,76.03583426651736,70.44334975369459,NA
11710,Nassau County,NY,NA,NA,27.27272727272727
11713,Suffolk County,NY,87.68197088465845,NA,NA
11729,Suffolk County,NY,81.07502799552073,NA,NA
11743,Suffolk County,NY,93.39305711086226,NA,NA
11758,Nassau County,NY,NA,41.37931034482759,NA
11763,Suffolk County,NY,NA,51.724137931034484,NA
11772,Suffolk County,NY,72.11646136618141,NA,NA
11776,Suffolk County,NY,64.83762597984322,NA,NA
11784,Suffolk County,NY,75.13997760358343,NA,NA
11801,Nassau County,NY,66.85330347144458,NA,NA
11967,Suffolk County,NY,83.98656215005599,NA,NA
12009,Albany County,NY,NA,NA,88.63636363636364
12118,Saratoga County,NY,68.98096304591266,NA,NA
12209,Albany County,NY,89.92161254199328,NA,NA
12306,Schenectady County,NY,37.73796192609182,NA,NA
12428,Ulster County,NY,87.45800671892498,NA,NA
12534,Columbia County,NY,NA,26.108374384236456,NA
12553,Orange County,NY,NA,72.41379310344827,NA
12566,Ulster County,NY,NA,95.56650246305419,NA
13126,Oswego County,NY,5.375139977603583,NA,NA
13205,Onondaga County,NY,16.90929451287794,NA,NA
13208,Onondaga County,NY,48.04031354983203,NA,NA
13209,Onondaga County,NY,54.1993281075028,NA,NA
13210,Onondaga County,NY,41.993281075027994,NA,NA
13340,Herkimer County,NY,63.71780515117581,NA,NA
13403,Oneida County,NY,90.2575587905935,NA,NA
13613,St. Lawrence County,NY,84.88241881298993,NA,NA
13795,Broome County,NY,NA,92.61083743842364,NA
13905,Broome County,NY,3.2474804031354982,NA,NA
14040,Genesee County,NY,98.43225083986562,NA,NA
14059,Erie County,NY,NA,NA,84.6590909090909
14062,Chautauqua County,NY,97.08846584546473,NA,NA
14075,Erie County,NY,11.08622620380739,7.8817733990147785,NA
14080,Erie County,NY,95.52071668533034,NA,NA
14201,Erie County,NY,55.99104143337066,NA,NA
14207,Erie County,NY,9.854423292273236,NA,NA
14209,Erie County,NY,90.81746920492722,NA,NA
14220,Erie County,NY,18.365061590145576,NA,NA
14225,Erie County,NY,11.758118701007838,NA,NA
14227,Erie County,NY,30.011198208286675,NA,NA
14304,Niagara County,NY,6.159014557670773,NA,NA
14305,Niagara County,NY,30.68309070548712,NA,NA
14425,Ontario County,NY,NA,67.98029556650246,NA
14512,Ontario County,NY,80.96304591265397,NA,NA
14526,Monroe County,NY,20.044792833146698,NA,NA
14534,Monroe County,NY,7.61478163493841,NA,NA
14616,Monroe County,NY,NA,10.83743842364532,NA
14618,Monroe County,NY,56.10302351623741,NA,NA
14619,Monroe County,NY,NA,44.827586206896555,NA
14621,Monroe County,NY,1.007838745800672,NA,NA
14624,Monroe County,NY,4.479283314669653,NA,NA
14810,Steuben County,NY,37.29003359462486,NA,NA
14847,Seneca County,NY,93.84098544232923,NA,NA
14871,Chemung County,NY,NA,NA,96.5909090909091
14883,Tioga County,NY,NA,95.07389162561576,NA
27011,Yadkin County,NC,NA,95.8128078817734,NA
27012,Forsyth County,NC,88.57782754759238,NA,NA
27028,Davie County,NC,NA,NA,14.772727272727273
27041,Surry County,NC,78.49944008958568,NA,NA
27045,Forsyth County,NC,NA,61.822660098522164,NA
27203,Randolph County,NC,32.026875699888016,NA,NA
27215,Alamance County,NC,NA,NA,7.954545454545454
27217,Alamance County,NC,16.7973124300112,NA,NA
27263,Randolph County,NC,51.847704367301226,NA,NA
27265,Guilford County,NC,NA,20.44334975369458,NA
27360,Davidson County,NC,5.1511758118701,6.157635467980295,NA
27406,Guilford County,NC,NA,1.477832512315271,NA
27524,Johnston County,NC,NA,75.36945812807882,NA
27536,Vance County,NC,34.37849944008959,NA,NA
27546,Harnett County,NC,NA,NA,63.06818181818182
27604,Wake County,NC,NA,45.073891625615765,NA
27701,Durham County,NC,55.87905935050392,NA,NA
27834,Pitt County,NC,8.734602463605823,NA,NA
27864,Edgecombe County,NC,93.05711086226204,NA,NA
27910,Hertford County,NC,78.05151175811869,NA,NA
27944,Perquimans County,NC,NA,57.14285714285714,NA
27962,Washington County,NC,77.37961926091825,NA,NA
28021,Gaston County,NC,NA,NA,68.75
28052,Gaston County,NC,NA,NA,40.340909090909086
28054,Gaston County,NC,NA,NA,23.295454545454543
28056,Gaston County,NC,53.63941769316909,NA,NA
28117,Iredell County,NC,35.61030235162374,NA,NA
28146,Rowan County,NC,72.45240761478163,NA,NA
28147,Rowan County,NC,37.62597984322508,NA,59.65909090909091
28163,Stanly County,NC,NA,NA,98.29545454545455
28173,Union County,NC,NA,NA,35.79545454545455
28209,Mecklenburg County,NC,NA,NA,72.72727272727273
28217,Mecklenburg County,NC,59.79843225083986,NA,NA
28227,Mecklenburg County,NC,25.53191489361702,NA,NA
28269,Mecklenburg County,NC,17.469204927211646,NA,NA
28277,Mecklenburg County,NC,NA,23.891625615763548,NA
28314,Cumberland County,NC,NA,41.6256157635468,NA
28345,Richmond County,NC,68.3090705487122,NA,NA
28348,Cumberland County,NC,NA,44.08866995073892,NA
28376,Hoke County,NC,NA,38.669950738916256,NA
28401,New Hanover County,NC,13.885778275475925,NA,NA
28409,New Hanover County,NC,46.58454647256439,22.660098522167488,NA
28411,New Hanover County,NC,43.00111982082866,NA,NA
28412,New Hanover County,NC,53.75139977603583,NA,NA
28478,Pender County,NC,NA,94.08866995073892,NA
28513,Pitt County,NC,NA,80.78817733990148,NA
28551,Lenoir County,NC,70.2127659574468,83.99014778325123,NA
28584,Carteret County,NC,NA,68.96551724137932,NA
28585,Jones County,NC,99.55207166853303,NA,NA
28636,Alexander County,NC,93.16909294512878,NA,NA
28638,Caldwell County,NC,61.47816349384099,NA,NA
28658,Catawba County,NC,NA,NA,42.04545454545455
28678,Alexander County,NC,NA,NA,97.72727272727273
28714,Yancey County,NC,NA,NA,56.81818181818182
28779,Jackson County,NC,NA,65.51724137931035,NA
28786,Haywood County,NC,41.433370660694294,NA,NA
58103,Cass County,ND,8.622620380739082,NA,NA
58104,Cass County,ND,36.73012318029115,NA,NA
43040,Union County,OH,NA,25.862068965517242,NA
43055,Licking County,OH,NA,NA,0.5681818181818182
43062,Licking County,OH,NA,NA,39.20454545454545
43110,Franklin County,OH,29.227323628219487,NA,NA
43123,Franklin County,OH,9.29451287793953,NA,NA
43130,Fairfield County,OH,2.799552071668533,NA,NA
43147,Fairfield County,OH,29.89921612541993,NA,NA
43162,Madison County,OH,92.94512877939529,77.58620689655173,NA
43204,Franklin County,OH,6.9428891377379625,NA,NA
43205,Franklin County,OH,53.07950727883539,NA,NA
43207,Franklin County,OH,2.9115341545352744,NA,NA
43215,Franklin County,OH,45.24076147816349,NA,NA
43224,Franklin County,OH,NA,20.689655172413794,NA
43227,Franklin County,OH,28.10750279955207,NA,NA
43608,Lucas County,OH,10.974244120940648,NA,NA
43612,Lucas County,OH,27.21164613661814,NA,NA
43906,Belmont County,OH,NA,52.463054187192114,NA
43952,Jefferson County,OH,9.40649496080627,NA,NA
44011,Lorain County,OH,NA,31.03448275862069,NA
44012,Lorain County,OH,NA,39.40886699507389,NA
44024,Geauga County,OH,NA,19.21182266009852,NA
44035,Lorain County,OH,0.4479283314669653,NA,NA
44052,Lorain County,OH,NA,NA,5.113636363636364
44055,Lorain County,OH,11.87010078387458,NA,NA
44060,Lake County,OH,8.062709966405375,NA,NA
44077,Lake County,OH,NA,3.9408866995073892,NA
44105,Cuyahoga County,OH,NA,0.7389162561576355,NA
44107,Cuyahoga County,OH,3.6954087346024638,4.433497536945813,NA
44109,Cuyahoga County,OH,0.6718924972004479,NA,NA
44111,Cuyahoga County,OH,2.2396416573348263,NA,NA
44112,Cuyahoga County,OH,NA,5.665024630541872,NA
44114,Cuyahoga County,OH,72.22844344904816,NA,NA
44124,Cuyahoga County,OH,30.23516237402016,NA,NA
44125,Cuyahoga County,OH,1.7917133258678613,NA,NA
44144,Cuyahoga County,OH,NA,10.098522167487685,NA
44223,Summit County,OH,54.871220604703254,NA,NA
44256,Medina County,OH,5.487122060470324,NA,NA
44260,Portage County,OH,75.47592385218364,NA,NA
44266,Portage County,OH,NA,NA,3.977272727272727
44301,Summit County,OH,35.83426651735722,NA,NA
44306,Summit County,OH,NA,39.16256157635468,NA
44307,Summit County,OH,53.30347144456887,NA,NA
44308,Summit County,OH,96.7525195968645,NA,NA
44312,Summit County,OH,19.260918253079506,NA,NA
44446,Trumbull County,OH,17.581187010078388,NA,NA
44483,Trumbull County,OH,20.940649496080628,NA,NA
44647,Stark County,OH,58.34266517357223,48.76847290640394,NA
44688,Stark County,OH,99.21612541993281,NA,NA
44691,Wayne County,OH,9.518477043673013,NA,NA
44811,Sandusky County,OH,36.84210526315789,NA,NA
44820,Crawford County,OH,27.659574468085108,NA,NA
44857,Huron County,OH,NA,9.852216748768473,NA
44870,Erie County,OH,3.9193729003359463,NA,NA
44890,Huron County,OH,47.1444568868981,NA,NA
45005,Warren County,OH,12.094064949608063,NA,NA
45030,Hamilton County,OH,63.60582306830908,NA,NA
45036,Warren County,OH,25.979843225083986,NA,NA
45039,Warren County,OH,56.99888017917133,NA,NA
45044,Butler County,OH,30.45912653975364,NA,NA
45056,Butler County,OH,74.80403135498321,NA,NA
45067,Butler County,OH,92.83314669652856,NA,NA
45107,Clinton County,OH,87.12206047032474,NA,NA
45140,Clermont County,OH,29.451287793952968,NA,NA
45202,Hamilton County,OH,25.195968645016798,NA,NA
45231,Hamilton County,OH,9.966405375139978,NA,NA
45237,Hamilton County,OH,70.66069428891377,NA,NA
45342,Montgomery County,OH,NA,13.054187192118228,NA
45406,Montgomery County,OH,81.2989921612542,47.29064039408867,NA
45420,Montgomery County,OH,31.57894736842105,NA,NA
45424,Montgomery County,OH,NA,14.039408866995073,NA
45429,Montgomery County,OH,80.17917133258679,NA,NA
45431,Montgomery County,OH,53.527435610302355,NA,NA
45434,Greene County,OH,NA,73.89162561576354,NA
45502,Clark County,OH,NA,NA,78.97727272727273
45503,Clark County,OH,NA,15.270935960591133,NA
45504,Clark County,OH,94.51287793952967,NA,NA
45631,Gallia County,OH,14.109742441209406,NA,NA
45686,Gallia County,OH,87.2340425531915,NA,NA
45750,Washington County,OH,3.3594624860022395,NA,0
45801,Allen County,OH,15.453527435610305,NA,NA
45895,Auglaize County,OH,36.17021276595745,NA,NA
73034,Oklahoma County,OK,NA,18.472906403940886,NA
73052,Garvin County,OK,NA,86.69950738916256,NA
73055,Stephens County,OK,NA,NA,76.13636363636364
73064,Canadian County,OK,83.31466965285554,NA,NA
73114,Oklahoma County,OK,62.37402015677491,NA,NA
73115,Oklahoma County,OK,NA,48.029556650246306,NA
73160,Cleveland County,OK,15.90145576707727,NA,NA
73401,Carter County,OK,18.029115341545353,NA,NA
74006,Washington County,OK,NA,43.5960591133005,NA
74008,Tulsa County,OK,73.4602463605823,NA,NA
74019,Rogers County,OK,54.75923852183651,NA,NA
74070,Osage County,OK,84.21052631578947,NA,NA
74073,Tulsa County,OK,NA,NA,97.1590909090909
74074,Payne County,OK,NA,45.566502463054185,NA
74133,Tulsa County,OK,71.89249720044792,NA,NA
74134,Tulsa County,OK,NA,NA,77.8409090909091
74361,Mayes County,OK,NA,69.70443349753694,NA
74403,Muskogee County,OK,73.01231802911533,33.743842364532014,NA
74464,Cherokee County,OK,12.206047032474803,NA,35.79545454545455
74728,McCurtain County,OK,NA,86.20689655172413,NA
97027,Clackamas County,OR,83.53863381858902,NA,NA
97030,Multnomah County,OR,22.508398656215007,NA,NA
97035,Clackamas County,OR,78.16349384098544,NA,NA
97045,Clackamas County,OR,19.48488241881299,NA,NA
97048,Columbia County,OR,NA,93.8423645320197,NA
97060,Multnomah County,OR,49.0481522956327,NA,NA
97103,Clatsop County,OR,NA,52.21674876847291,NA
97116,Washington County,OR,57.33482642777156,NA,NA
97140,Washington County,OR,64.83762597984322,NA,NA
97209,Multnomah County,OR,44.34490481522956,NA,NA
97212,Multnomah County,OR,NA,NA,93.18181818181817
97218,Multnomah County,OR,79.3952967525196,NA,NA
97222,Clackamas County,OR,82.53079507278835,NA,NA
97230,Multnomah County,OR,28.331466965285557,NA,NA
97232,Multnomah County,OR,NA,NA,78.4090909090909
97239,Multnomah County,OR,NA,NA,55.11363636363637
97402,Lane County,OR,25.867861142217247,NA,NA
97424,Lane County,OR,51.95968645016797,NA,NA
97478,Lane County,OR,NA,NA,42.61363636363637
97501,Jackson County,OR,11.422172452407615,NA,NA
97504,Jackson County,OR,NA,51.47783251231527,NA
97801,Umatilla County,OR,40.87346024636058,NA,NA
97850,Union County,OR,46.13661814109742,NA,NA
15025,Allegheny County,PA,57.78275475923852,NA,NA
15106,Allegheny County,PA,65.95744680851064,NA,NA
15147,Allegheny County,PA,73.90817469204927,NA,NA
15207,Allegheny County,PA,67.52519596864501,NA,NA
15210,Allegheny County,PA,71.78051511758119,NA,NA
15213,Allegheny County,PA,NA,NA,28.40909090909091
15216,Allegheny County,PA,64.16573348264278,NA,NA
15219,Allegheny County,PA,NA,56.15763546798029,NA
15229,Allegheny County,PA,87.90593505039193,NA,NA
15317,Washington County,PA,34.93840985442329,NA,NA
15370,Greene County,PA,58.79059350503919,NA,NA
15425,Fayette County,PA,NA,65.02463054187191,NA
15478,Fayette County,PA,77.15565509518477,66.7487684729064,NA
15601,Westmoreland County,PA,44.79283314669653,NA,NA
15701,Indiana County,PA,27.0996640537514,NA,NA
15834,Cameron County,PA,73.34826427771557,NA,NA
15902,Cambria County,PA,50.27995520716685,NA,NA
16001,Butler County,PA,4.927211646136618,NA,NA
16121,Mercer County,PA,NA,90.39408866995073,NA
16301,Venango County,PA,56.662933930571114,NA,NA
16323,Venango County,PA,60.358342665173566,NA,NA
16335,Crawford County,PA,14.33370660694289,NA,NA
16407,Erie County,PA,83.2026875699888,NA,NA
16502,Erie County,PA,NA,85.4679802955665,NA
16503,Erie County,PA,41.76931690929451,NA,NA
16509,Erie County,PA,NA,38.42364532019704,NA
16693,Blair County,PA,93.61702127659575,NA,NA
17003,Lebanon County,PA,54.871220604703254,NA,NA
17019,York County,PA,NA,NA,64.20454545454545
17020,Perry County,PA,84.5464725643897,NA,NA
17201,Franklin County,PA,14.221724524076148,NA,NA
17350,Adams County,PA,67.07726763717805,NA,NA
17356,York County,PA,35.38633818589026,NA,NA
17403,York County,PA,4.591265397536394,NA,NA
17404,York County,PA,15.565509518477045,NA,NA
17701,Lycoming County,PA,5.823068309070549,NA,NA
17724,Bradford County,PA,95.85666293393056,NA,NA
17837,Union County,PA,NA,45.812807881773395,NA
18069,Lehigh County,PA,88.68980963045912,NA,NA
18091,Northampton County,PA,NA,91.13300492610837,NA
18102,Lehigh County,PA,10.862262038073908,NA,NA
18201,Luzerne County,PA,24.412094064949606,NA,NA
18504,Lackawanna County,PA,35.94624860022396,NA,NA
18505,Lackawanna County,PA,48.93617021276596,NA,NA
18509,Lackawanna County,PA,64.83762597984322,NA,NA
18640,Luzerne County,PA,50.055991041433366,NA,NA
18705,Luzerne County,PA,NA,49.26108374384236,NA
18707,Luzerne County,PA,NA,37.19211822660098,NA
18914,Bucks County,PA,68.53303471444569,NA,NA
18925,Bucks County,PA,95.29675251959686,NA,NA
18930,Bucks County,PA,98.32026875699889,NA,NA
18960,Bucks County,PA,NA,68.7192118226601,NA
19002,Montgomery County,PA,44.00895856662934,NA,NA
19013,Delaware County,PA,23.96416573348264,NA,NA
19020,Bucks County,PA,10.414333706606943,NA,NA
19021,Bucks County,PA,70.4367301231803,NA,NA
19044,Montgomery County,PA,88.24188129899217,77.33990147783251,NA
19056,Bucks County,PA,94.2889137737962,NA,NA
19082,Delaware County,PA,NA,NA,65.3409090909091
19107,Philadelphia County,PA,NA,53.94088669950739,NA
19116,Philadelphia County,PA,34.1545352743561,NA,NA
19122,Philadelphia County,PA,NA,76.84729064039408,NA
19124,Philadelphia County,PA,11.534154535274356,NA,NA
19128,Philadelphia County,PA,23.852183650615903,NA,NA
19131,Philadelphia County,PA,NA,4.679802955665025,NA
19136,Philadelphia County,PA,15.22956326987682,NA,NA
19137,Philadelphia County,PA,NA,80.54187192118226,NA
19143,Philadelphia County,PA,NA,1.7241379310344827,NA
19144,Philadelphia County,PA,NA,13.30049261083744,NA
19151,Philadelphia County,PA,18.253079507278834,NA,NA
19152,Philadelphia County,PA,NA,26.354679802955665,NA
19333,Chester County,PA,96.528555431131025,NA,NA
19342,Delaware County,PA,56.21500559910414,NA,NA
19390,Chester County,PA,83.31466965285554,NA,NA
19446,Montgomery County,PA,52.8555431131019,NA,NA
19462,Montgomery County,PA,54.64725643896976,NA,NA
19464,Montgomery County,PA,6.718924972004479,NA,NA
19601,Berks County,PA,4.703247480403135,NA,NA
19605,Berks County,PA,36.28219484882419,NA,NA
19608,Berks County,PA,NA,29.55665024630542,NA
02816,Kent County,RI,32.92273236282195,NA,NA
02857,Providence County,RI,89.69764837625979,NA,NA
02891,Washington County,RI,65.73348264277715,NA,NA
02910,Providence County,RI,58.902575587905936,NA,NA
02915,Providence County,RI,81.97088465845465,NA,NA
29180,Fairfield County,SC,NA,79.06403940886699,NA
29210,Richland County,SC,NA,58.86699507389162,NA
29223,Richland County,SC,29.56326987681971,NA,NA
29316,Spartanburg County,SC,NA,37.68472906403941,NA
29340,Cherokee County,SC,47.368421052631575,NA,NA
29341,Cherokee County,SC,NA,NA,71.02272727272727
29388,Spartanburg County,SC,70.4367301231803,NA,NA
29461,Berkeley County,SC,NA,38.17733990147783,NA
29607,Greenville County,SC,NA,32.01970443349754,NA
29625,Anderson County,SC,NA,33.99014778325123,NA
29640,Pickens County,SC,NA,NA,24.431818181818183
29706,Chester County,SC,39.08174692049272,NA,64.77272727272727
29707,Lancaster County,SC,NA,NA,56.25
29710,York County,SC,NA,54.92610837438424,NA
29732,York County,SC,37.17805151175812,NA,NA
29927,Jasper County,SC,NA,NA,82.38636363636364
57103,Minnehaha County,SD,NA,NA,26.136363636363637
57106,Minnehaha County,SD,28.21948488241881,NA,1.1363636363636365
57108,Lincoln County,SD,NA,NA,5.681818181818182
37040,Montgomery County,TN,NA,37.93103448275862,NA
37042,Montgomery County,TN,NA,42.857142857142854,NA
37066,Sumner County,TN,13.437849944008958,NA,NA
37075,Sumner County,TN,21.164613661814112,NA,NA
37076,Davidson County,TN,41.2094064949608,71.67487684729063,NA
37086,Rutherford County,TN,NA,67.24137931034483,NA
37091,Marshall County,TN,45.576707726763715,NA,NA
37101,Humphreys County,TN,79.9552071668533,NA,NA
37110,Warren County,TN,NA,NA,19.886363636363637
37122,Wilson County,TN,34.60246360582307,NA,22.15909090909091
37129,Rutherford County,TN,21.948488241881297,NA,NA
37148,Sumner County,TN,46.472564389697645,NA,NA
37184,Wilson County,TN,NA,92.11822660098522,NA
37186,Sumner County,TN,72.56438969764838,NA,NA
37187,Dickson County,TN,81.41097424412094,NA,NA
37307,Polk County,TN,94.8488241881299,NA,NA
37321,Rhea County,TN,34.82642777155655,NA,94.31818181818183
37354,Monroe County,TN,43.225083986562154,NA,NA
37385,Monroe County,TN,NA,66.50246305418719,NA
37388,Coffee County,TN,38.07390817469205,NA,NA
37604,Washington County,TN,25.083986562150056,NA,NA
37650,Unicoi County,TN,NA,50.73891625615764,NA
37705,Anderson County,TN,NA,NA,94.88636363636364
37743,Greene County,TN,15.90145576707727,NA,NA
37766,Campbell County,TN,42.329227323628224,30.049261083743843,NA
37771,Loudon County,TN,62.26203807390818,NA,NA
37801,Blount County,TN,20.156774916013436,NA,NA
37826,McMinn County,TN,94.62486002239642,NA,NA
37849,Knox County,TN,NA,55.41871921182266,NA
37854,Roane County,TN,65.8454647256439,NA,NA
37869,Hancock County,TN,92.49720044792834,NA,NA
37917,Knox County,TN,22.060470324748042,NA,NA
37918,Knox County,TN,18.81298992161254,NA,NA
37921,Knox County,TN,35.05039193729003,NA,NA
38004,Tipton County,TN,91.71332586786114,NA,NA
38060,Fayette County,TN,93.28107502799551,96.05911330049261,NA
38108,Shelby County,TN,63.26987681970885,NA,NA
38305,Madison County,TN,NA,NA,13.068181818181818
38474,Maury County,TN,NA,NA,96.02272727272727
38506,Putnam County,TN,48.600223964165735,NA,NA
38571,Cumberland County,TN,NA,NA,53.97727272727273
38583,White County,TN,NA,NA,17.045454545454543
75032,Rockwall County,TX,69.76483762597985,NA,NA
75074,Collin County,TX,84.65845464725645,NA,NA
75150,Dallas County,TX,28.555431131019038,NA,NA
75160,Kaufman County,TX,71.44456886898097,NA,NA
75165,Ellis County,TX,33.81858902575588,NA,NA
75214,Dallas County,TX,NA,66.25615763546799,NA
75243,Dallas County,TX,NA,49.75369458128079,NA
75474,Hunt County,TX,NA,64.5320197044335,NA
75482,Hopkins County,TX,NA,NA,35.22727272727273
75751,Henderson County,TX,54.535274356103024,NA,29.545454545454547
75789,Smith County,TX,88.12989921612542,NA,NA
75904,Angelina County,TX,NA,19.21182266009852,NA
76028,Johnson County,TX,NA,4.926108374384237,NA
76108,Tarrant County,TX,45.016797312430015,29.802955665024633,NA
76112,Tarrant County,TX,NA,20.19704433497537,NA
76230,Montague County,TX,84.32250839865621,NA,NA
76301,Wichita County,TX,54.42329227323628,NA,NA
76706,McLennan County,TX,40.6494960806271,NA,NA
77006,Harris County,TX,81.52295632698768,NA,NA
77044,Harris County,TX,NA,67.73399014778325,NA
77045,Harris County,TX,66.29339305711086,NA,NA
77051,Harris County,TX,NA,63.05418719211823,NA
77082,Harris County,TX,NA,NA,90.3409090909091
77096,Harris County,TX,NA,NA,45.45454545454545
77302,Montgomery County,TX,76.93169092945129,NA,NA
77320,Walker County,TX,NA,NA,67.04545454545455
77355,Montgomery County,TX,NA,NA,75.56818181818183
77377,Harris County,TX,51.51175811870101,NA,NA
77407,Fort Bend County,TX,60.58230683090705,NA,NA
77414,Matagorda County,TX,52.96752519596865,NA,NA
77493,Harris County,TX,NA,NA,68.18181818181817
77494,Fort Bend County,TX,NA,21.67487684729064,NA
77520,Harris County,TX,51.17581187010079,NA,NA
77521,Harris County,TX,NA,NA,30.113636363636363
77530,Harris County,TX,NA,86.94581280788178,NA
77584,Brazoria County,TX,NA,NA,30.681818181818183
77836,Burleson County,TX,73.4602463605823,NA,NA
77840,Brazos County,TX,52.63157894736842,NA,NA
77901,Victoria County,TX,NA,NA,61.36363636363637
78028,Kerr County,TX,44.120940649496085,NA,NA
78076,Zapata County,TX,90.03359462486003,NA,NA
78114,Wilson County,TX,62.82194848824189,NA,NA
78155,Guadalupe County,TX,29.78723404255319,NA,NA
78217,Bexar County,TX,74.58006718924972,NA,NA
78244,Bexar County,TX,69.31690929451287,NA,NA
78247,Bexar County,TX,NA,64.77832512315271,NA
78572,Hidalgo County,TX,NA,NA,2.840909090909091
78610,Hays County,TX,NA,NA,83.52272727272727
78626,Williamson County,TX,NA,NA,20.454545454545457
78653,Travis County,TX,NA,93.59605911330048,NA
78666,Hays County,TX,32.69876819708847,NA,NA
78745,Travis County,TX,NA,63.54679802955665,NA
79106,Potter County,TX,NA,43.103448275862064,NA
79107,Potter County,TX,39.305711086226204,NA,NA
84005,Utah County,UT,83.87458006718926,NA,NA
84010,Davis County,UT,NA,65.02463054187191,NA
84015,Davis County,UT,NA,NA,65.9090909090909
84041,Davis County,UT,43.11310190369541,NA,NA
84084,Salt Lake County,UT,NA,45.320197044334975,NA
84096,Salt Lake County,UT,32.81075027995521,NA,NA
84401,Weber County,UT,NA,82.75862068965517,NA
84403,Weber County,UT,NA,68.4729064039409,NA
84404,Weber County,UT,26.539753639417697,NA,NA
84405,Weber County,UT,80.29115341545354,NA,NA
84601,Utah County,UT,96.1926091825308,NA,NA
05403,Chittenden County,VT,70.996640537514,NA,NA
05819,Caledonia County,VT,82.19484882418813,NA,NA
05855,Orleans County,VT,NA,NA,76.70454545454545
20109,Prince William County,VA,NA,88.17733990147784,NA
20112,Prince William County,VA,80.62709966405374,NA,NA
20186,Fauquier County,VA,NA,76.60098522167488,NA
22003,Fairfax County,VA,NA,NA,43.75
22026,Prince William County,VA,71.33258678611423,NA,NA
22443,Westmoreland County,VA,89.02575587905936,NA,NA
22701,Culpeper County,VA,68.08510638297872,NA,NA
22901,Albemarle County,VA,NA,33.251231527093594,NA
22980,Waynesboro city,VA,11.98208286674132,NA,NA
23112,Chesterfield County,VA,49.94400895856663,NA,NA
23185,James City County,VA,43.56103023516237,NA,NA
23188,James City County,VA,NA,3.4482758620689653,NA
23223,Henrico County,VA,24.86002239641657,NA,NA
23228,Henrico County,VA,NA,39.6551724137931,NA
23320,Chesapeake city,VA,NA,NA,7.386363636363637
23452,Virginia Beach city,VA,27.77155655095185,NA,NA
23453,Virginia Beach city,VA,82.4188129899216,NA,NA
24017,Roanoke city,VA,30.347144456886898,NA,NA
24153,Salem city,VA,73.79619260918253,NA,NA
24219,Wise County,VA,NA,74.8768472906404,NA
24273,Norton city,VA,NA,NA,93.18181818181817
24293,Wise County,VA,58.118701007838744,NA,NA
24501,Lynchburg city,VA,34.37849944008959,NA,NA
24502,Lynchburg city,VA,49.83202687569989,NA,NA
24517,Campbell County,VA,NA,88.91625615763546,NA
24541,Danville city,VA,NA,37.4384236453202,NA
98033,King County,WA,NA,35.960591133004925,NA
98034,King County,WA,NA,17.980295566502463,NA
98036,Snohomish County,WA,NA,43.5960591133005,NA
98107,King County,WA,75.58790593505039,NA,NA
98116,King County,WA,76.70772676371782,NA,NA
98125,King County,WA,46.13661814109742,NA,NA
98208,Snohomish County,WA,26.763717805151177,NA,NA
98258,Snohomish County,WA,NA,52.70935960591133,NA
98260,Island County,WA,98.20828667413214,NA,NA
98284,Skagit County,WA,59.57446808510638,NA,NA
98296,Snohomish County,WA,53.191489361702125,NA,NA
98466,Pierce County,WA,NA,40.14778325123153,NA
98498,Pierce County,WA,NA,NA,46.02272727272727
98589,Thurston County,WA,NA,96.79802955665025,NA
98626,Cowlitz County,WA,51.399776035834265,NA,NA
98632,Cowlitz County,WA,24.300111982082868,NA,NA
98665,Clark County,WA,NA,79.3103448275862,NA
98823,Grant County,WA,NA,82.01970443349754,NA
98902,Yakima County,WA,33.70660694288914,NA,NA
98903,Yakima County,WA,NA,61.330049261083744,NA
98944,Yakima County,WA,66.74132138857783,NA,NA
99003,Spokane County,WA,95.74468085106383,NA,NA
99022,Spokane County,WA,NA,87.68472906403942,NA
99156,Pend Oreille County,WA,90.14557670772676,NA,NA
99205,Spokane County,WA,NA,81.77339901477832,41.47727272727273
20002,District of Columbia,DC,52.07166853303471,NA,NA
20007,District of Columbia,DC,82.86674132138859,NA,NA
20011,District of Columbia,DC,10.750279955207166,NA,NA
20020,District of Columbia,DC,NA,NA,18.181818181818183
24701,Mercer County,WV,NA,34.72906403940887,NA
25130,Boone County,WV,NA,NA,100
25304,Kanawha County,WV,NA,80.04926108374384,NA
25504,Cabell County,WV,65.62150055991042,NA,NA
26034,Hancock County,WV,91.82530795072789,NA,NA
26041,Marshall County,WV,NA,26.84729064039409,NA
26104,Wood County,WV,42.44120940649496,NA,NA
26301,Harrison County,WV,9.182530795072788,NA,NA
26541,Monongalia County,WV,97.5363941769317,NA,NA
26554,Marion County,WV,NA,2.2167487684729066,NA
26726,Mineral County,WV,48.712206047032474,NA,NA
53005,Waukesha County,WI,47.03247480403135,NA,NA
53011,Sheboygan County,WI,99.44008958566629,NA,NA
53072,Waukesha County,WI,NA,NA,36.93181818181818
53081,Sheboygan County,WI,55.09518477043673,NA,NA
53118,Waukesha County,WI,93.95296752519597,NA,NA
53129,Milwaukee County,WI,79.50727883538634,NA,NA
53142,Kenosha County,WI,12.989921612541993,NA,NA
53151,Waukesha County,WI,46.360582306830906,NA,NA
53186,Waukesha County,WI,33.14669652855543,NA,NA
53204,Milwaukee County,WI,34.266517357222845,NA,NA
53207,Milwaukee County,WI,31.69092945128779,NA,NA
53210,Milwaukee County,WI,9.742441209406495,NA,NA
53214,Milwaukee County,WI,46.920492721164614,NA,NA
53220,Milwaukee County,WI,36.61814109742441,NA,NA
53548,Rock County,WI,31.13101903695409,NA,NA
54002,St. Croix County,WI,NA,NA,89.20454545454545
54022,Pierce County,WI,62.150055991041434,NA,NA
54143,Marinette County,WI,57.222844344904814,NA,NA
54313,Brown County,WI,69.20492721164614,NA,NA
54457,Wood County,WI,83.65061590145577,NA,NA
54487,Lincoln County,WI,NA,48.275862068965516,NA
54501,Oneida County,WI,NA,27.586206896551722,NA
54521,Vilas County,WI,92.60918253079508,NA,NA
54568,Vilas County,WI,NA,97.04433497536947,NA
54650,La Crosse County,WI,61.36618141097424,11.083743842364532,NA
54703,Eau Claire County,WI,NA,36.45320197044335,NA
54902,Winnebago County,WI,61.254199328107504,NA,NA
