ZipCode,county,state,Adult
35222,Jefferson County,AL,91.02244389027432
35223,Jefferson County,AL,90.27431421446383
35470,Sumter County,AL,96.75810473815461
35811,Madison County,AL,45.885286783042396
85132,Pinal County,AZ,42.394014962593516
85204,Maricopa County,AZ,19.201995012468828
85301,Maricopa County,AZ,6.483790523690773
85303,Maricopa County,AZ,56.85785536159601
85530,Graham County,AZ,85.785536159601
85705,Pima County,AZ,4.987531172069826
85713,Pima County,AZ,9.226932668329177
85939,Navajo County,AZ,99.50124688279301
86047,Navajo County,AZ,38.90274314214464
72019,Saline County,AR,74.3142144638404
72076,Pulaski County,AR,56.10972568578554
90007,Los Angeles County,CA,65.33665835411472
90013,Los Angeles County,CA,59.60099750623441
90022,Los Angeles County,CA,40.399002493765586
91202,Los Angeles County,CA,87.78054862842892
91604,Los Angeles County,CA,62.593516209476306
91710,San Bernardino County,CA,41.64588528678304
91744,Los Angeles County,CA,24.189526184538654
91780,Los Angeles County,CA,86.53366583541147
92037,San Diego County,CA,83.54114713216958
92104,San Diego County,CA,64.08977556109726
92111,San Diego County,CA,58.60349127182045
92129,San Diego County,CA,61.34663341645885
92395,San Bernardino County,CA,32.16957605985037
92407,San Bernardino County,CA,23.690773067331673
92503,Riverside County,CA,98.25436408977556
92595,Riverside County,CA,45.38653366583541
92656,Orange County,CA,37.65586034912718
92662,Orange County,CA,100
93215,Kern County,CA,62.84289276807981
93422,San Luis Obispo County,CA,54.11471321695761
93455,Santa Barbara County,CA,34.91271820448878
93552,Los Angeles County,CA,60.84788029925187
93906,Monterey County,CA,43.391521197007485
93933,Monterey County,CA,87.03241895261846
94070,San Mateo County,CA,82.29426433915212
94553,Contra Costa County,CA,47.13216957605985
94578,Alameda County,CA,56.35910224438903
94611,Alameda County,CA,65.5860349127182
95032,Santa Clara County,CA,78.30423940149626
95123,Santa Clara County,CA,42.643391521197
95355,Stanislaus County,CA,12.468827930174564
95405,Sonoma County,CA,75.56109725685786
95501,Humboldt County,CA,57.356608478803
95603,Placer County,CA,70.07481296758104
95618,Yolo County,CA,94.0149625935162
95758,Sacramento County,CA,57.605985037406484
95826,Sacramento County,CA,58.35411471321695
95966,Butte County,CA,13.715710723192021
80003,Jefferson County,CO,76.05985037406484
80013,Arapahoe County,CO,13.216957605985039
80207,Denver County,CO,47.381546134663346
80221,Adams County,CO,35.66084788029925
80301,Boulder County,CO,63.092269326683294
80503,Boulder County,CO,68.5785536159601
81003,Pueblo County,CO,39.40149625935162
81230,Gunnison County,CO,91.2718204488778
06040,Hartford County,CT,13.715710723192021
06255,Windham County,CT,77.0573566084788
06457,Middlesex County,CT,10.473815461346634
06492,New Haven County,CT,26.433915211970078
06607,Fairfield County,CT,83.0423940149626
06706,New Haven County,CT,63.84039900249376
06812,Fairfield County,CT,97.0074812967581
06851,Fairfield County,CT,62.094763092269325
19805,New Castle County,DE,3.2418952618453867
19808,New Castle County,DE,27.680798004987533
19966,Sussex County,DE,29.42643391521197
32073,Clay County,FL,28.6783042394015
32541,Okaloosa County,FL,69.57605985037407
32703,Orange County,FL,28.179551122194514
32708,Seminole County,FL,52.36907730673317
32754,Brevard County,FL,76.30922693266832
33066,Broward County,FL,91.77057356608479
33071,Broward County,FL,57.85536159600998
33134,Miami-Dade County,FL,77.3067331670823
33170,Miami-Dade County,FL,83.79052369077307
33183,Miami-Dade County,FL,81.29675810473816
33406,Palm Beach County,FL,78.80299251870323
33434,Palm Beach County,FL,85.286783042394
33460,Palm Beach County,FL,52.867830423940156
33510,Hillsborough County,FL,60.349127182044896
33569,Hillsborough County,FL,75.81047381546135
33579,Hillsborough County,FL,73.56608478802993
33604,Hillsborough County,FL,29.177057356608476
33763,Pinellas County,FL,85.03740648379052
33765,Pinellas County,FL,74.81296758104739
34205,Manatee County,FL,37.65586034912718
34234,Sarasota County,FL,44.88778054862843
34243,Manatee County,FL,63.34164588528678
34690,Pasco County,FL,74.06483790523691
34691,Pasco County,FL,50.374064837905244
30060,Cobb County,GA,72.06982543640898
30064,Cobb County,GA,65.83541147132169
30188,Cherokee County,GA,27.18204488778055
30230,Troup County,GA,78.05486284289277
30517,Jackson County,GA,84.53865336658353
31036,Pulaski County,GA,73.81546134663341
83440,Madison County,ID,71.82044887780549
60008,Cook County,IL,70.57356608478803
60534,Cook County,IL,79.80049875311721
60630,Cook County,IL,28.428927680798004
61701,McLean County,IL,35.16209476309227
61802,Champaign County,IL,66.58354114713218
62821,White County,IL,92.01995012468828
46041,Clinton County,IN,37.406483790523694
46203,Marion County,IN,38.65336658354115
46234,Marion County,IN,64.83790523690773
46239,Marion County,IN,58.85286783042394
46304,Porter County,IN,16.458852867830423
46321,Lake County,IN,39.15211970074813
46349,Newton County,IN,98.75311720698254
46360,LaPorte County,IN,7.4812967581047385
46404,Lake County,IN,68.82793017456359
46410,Lake County,IN,9.72568578553616
46517,Elkhart County,IN,79.05236907730672
46774,Allen County,IN,64.33915211970074
46901,Howard County,IN,48.12967581047381
46952,Grant County,IN,24.438902743142144
47460,Owen County,IN,77.55610972568579
47501,Daviess County,IN,41.895261845386536
47720,Vanderburgh County,IN,75.06234413965088
51501,Pottawattamie County,IA,55.86034912718204
40211,Jefferson County,KY,17.70573566084788
40212,Jefferson County,KY,30.423940149625935
40214,Jefferson County,KY,8.728179551122196
40291,Jefferson County,KY,23.19201995012469
40403,Madison County,KY,27.431421446384043
40508,Fayette County,KY,38.15461346633416
41008,Carroll County,KY,80.79800498753117
41071,Campbell County,KY,31.92019950124688
42101,Warren County,KY,8.478802992518704
42240,Christian County,KY,7.98004987531172
70056,Jefferson Parish,LA,5.985037406483791
70301,Lafourche Parish,LA,2.493765586034913
70435,St. Tammany Parish,LA,25.6857855361596
70764,Iberville Parish,LA,69.32668329177058
70806,East Baton Rouge Parish,LA,17.206982543640898
71040,Claiborne Parish,LA,70.32418952618454
71269,Richland Parish,LA,51.6209476309227
04090,York County,ME,66.83291770573567
04463,Piscataquis County,ME,98.50374064837905
20774,Prince George's County,MD,47.880299251870326
20901,Montgomery County,MD,78.55361596009975
01040,Hampden County,MA,0.7481296758104738
01085,Hampden County,MA,80.54862842892769
01201,Berkshire County,MA,0.4987531172069825
01524,Worcester County,MA,95.01246882793018
01545,Worcester County,MA,22.693266832917704
01569,Worcester County,MA,97.50623441396509
01570,Worcester County,MA,43.89027431421446
01607,Worcester County,MA,65.08728179551122
01609,Worcester County,MA,3.4912718204488775
01826,Middlesex County,MA,5.486284289276807
01841,Essex County,MA,0.24937655860349126
01850,Middlesex County,MA,10.723192019950124
01851,Middlesex County,MA,1.99501246882793
01902,Essex County,MA,3.7406483790523692
01905,Essex County,MA,82.54364089775561
01906,Essex County,MA,61.84538653366584
02081,Norfolk County,MA,26.932668329177055
02119,Suffolk County,MA,0.997506234413965
02150,Suffolk County,MA,6.234413965087282
02151,Suffolk County,MA,1.2468827930174564
02169,Norfolk County,MA,15.211970074812967
02184,Norfolk County,MA,88.02992518703242
02301,Plymouth County,MA,0
02322,Norfolk County,MA,99.75062344139651
02338,Plymouth County,MA,93.51620947630923
02339,Plymouth County,MA,93.76558603491272
02370,Plymouth County,MA,19.45137157107232
02719,Bristol County,MA,53.11720698254364
02739,Plymouth County,MA,94.2643391521197
02740,Bristol County,MA,45.137157107231914
02746,Bristol County,MA,18.952618453865338
02748,Bristol County,MA,72.56857855361596
48001,St. Clair County,MI,71.571072319202
48064,St. Clair County,MI,96.50872817955111
48066,Macomb County,MI,3.99002493765586
48067,Oakland County,MI,40.64837905236908
48074,St. Clair County,MI,71.3216957605985
48092,Macomb County,MI,33.16708229426434
48097,St. Clair County,MI,89.52618453865337
48198,Washtenaw County,MI,2.7431421446384037
48207,Wayne County,MI,24.93765586034913
48214,Wayne County,MI,25.187032418952622
48219,Wayne County,MI,6.982543640897755
48235,Wayne County,MI,20.199501246882793
48342,Oakland County,MI,19.950124688279303
48360,Oakland County,MI,73.31670822942642
48412,Lapeer County,MI,93.01745635910224
48505,Genesee County,MI,23.940149625935163
48706,Bay County,MI,10.224438902743142
48708,Bay County,MI,10.972568578553615
49120,Berrien County,MI,49.62593516209476
49507,Kent County,MI,7.231920199501247
55040,Isanti County,MN,72.81795511221945
55101,Ramsey County,MN,37.1571072319202
55117,Ramsey County,MN,21.94513715710723
55318,Carver County,MN,61.59600997506235
55412,Hennepin County,MN,12.718204488778055
55746,St. Louis County,MN,29.925187032418954
55805,St. Louis County,MN,49.87531172069826
56215,Swift County,MN,91.52119700748129
63118,St. Louis city,MO,35.910224438902745
63301,St. Charles County,MO,18.453865336658353
63385,St. Charles County,MO,22.194513715710723
64114,Jackson County,MO,39.900249376558605
64854,McDonald County,MO,90.52369077306733
59801,Missoula County,MT,66.33416458852868
89149,Clark County,NV,67.58104738154613
89431,Washoe County,NV,26.683291770573565
89512,Washoe County,NV,21.44638403990025
03038,Rockingham County,NH,16.708229426433917
03060,Hillsborough County,NH,8.229426433915211
03064,Hillsborough County,NH,32.917705735660846
07003,Essex County,NJ,12.967581047381547
07032,Hudson County,NJ,95.51122194513717
07109,Essex County,NJ,96.00997506234414
07514,Passaic County,NJ,33.915211970074814
07727,Monmouth County,NJ,79.80049875311721
07840,Warren County,NJ,69.07730673316709
07928,Morris County,NJ,92.26932668329178
08048,Burlington County,NJ,85.53615960099751
08104,Camden County,NJ,9.226932668329177
08302,Cumberland County,NJ,13.466334164588527
08618,Mercer County,NJ,8.977556109725686
87031,Valencia County,NM,32.66832917705736
87571,Taos County,NM,59.35162094763092
10454,Bronx County,NY,32.418952618453865
10595,Westchester County,NY,86.28428927680798
11010,Nassau County,NY,87.53117206982543
11103,Queens County,NY,90.02493765586036
11105,Queens County,NY,63.591022443890274
11220,Kings County,NY,4.239401496259352
11501,Nassau County,NY,92.51870324189527
11722,Suffolk County,NY,27.93017456359102
11752,Suffolk County,NY,97.75561097256858
11768,Suffolk County,NY,90.77306733167082
11776,Suffolk County,NY,60.099750623441395
12414,Greene County,NY,81.54613466334165
12754,Sullivan County,NY,81.79551122194513
13084,Onondaga County,NY,95.26184538653366
13088,Onondaga County,NY,31.67082294264339
13205,Onondaga County,NY,16.957605985037407
13209,Onondaga County,NY,52.618453865336654
13210,Onondaga County,NY,39.65087281795511
13212,Onondaga County,NY,34.1645885286783
14043,Erie County,NY,36.408977556109726
14072,Erie County,NY,46.633416458852864
14136,Chautauqua County,NY,88.5286783042394
14206,Erie County,NY,17.45635910224439
14207,Erie County,NY,11.221945137157107
14210,Erie County,NY,30.673316708229425
14215,Erie County,NY,1.4962593516209477
14220,Erie County,NY,18.453865336658353
14526,Monroe County,NY,51.3715710723192
14569,Wyoming County,NY,68.07980049875312
14586,Monroe County,NY,36.15960099750624
14609,Monroe County,NY,6.733167082294264
14624,Monroe County,NY,2.9925187032418954
14901,Chemung County,NY,33.416458852867834
27817,Beaufort County,NC,81.04738154613467
27856,Nash County,NC,77.80548628428927
27883,Wilson County,NC,98.00498753117208
27896,Wilson County,NC,56.60847880299252
28075,Cabarrus County,NC,88.2793017456359
28412,New Hanover County,NC,20.698254364089774
28713,Swain County,NC,74.56359102244389
43004,Franklin County,OH,46.38403990024938
43231,Franklin County,OH,52.119700748129674
43315,Morrow County,OH,66.08478802992519
43338,Morrow County,OH,62.34413965087282
43402,Wood County,OH,26.184538653366584
43608,Lucas County,OH,12.219451371571072
43611,Lucas County,OH,48.6284289276808
43613,Lucas County,OH,4.738154613466334
43623,Lucas County,OH,31.17206982543641
43950,Belmont County,OH,43.64089775561097
44004,Ashtabula County,OH,2.2443890274314215
44074,Lorain County,OH,79.30174563591022
44111,Cuyahoga County,OH,29.67581047381546
44114,Cuyahoga County,OH,34.66334164588529
44129,Cuyahoga County,OH,19.70074812967581
44134,Cuyahoga County,OH,11.72069825436409
44314,Summit County,OH,31.421446384039903
44333,Summit County,OH,89.02743142144638
44622,Tuscarawas County,OH,36.65835411471321
44870,Erie County,OH,1.7456359102244388
45040,Warren County,OH,34.413965087281795
45102,Clermont County,OH,40.14962593516209
45152,Warren County,OH,89.52618453865337
45231,Hamilton County,OH,11.471321695760599
45320,Preble County,OH,43.89027431421446
45431,Montgomery County,OH,51.87032418952619
45680,Lawrence County,OH,16.209476309226932
73020,Oklahoma County,OK,44.38902743142145
73036,Canadian County,OK,44.63840399002494
74106,Tulsa County,OK,41.14713216957606
74403,Muskogee County,OK,36.907730673316706
97301,Marion County,OR,15.96009975062344
15063,Washington County,PA,67.08229426433915
15104,Allegheny County,PA,70.82294264339151
15120,Allegheny County,PA,49.37655860349127
15131,Allegheny County,PA,97.2568578553616
15201,Allegheny County,PA,84.28927680798004
15204,Allegheny County,PA,68.3291770573566
15210,Allegheny County,PA,50.12468827930174
15234,Allegheny County,PA,86.78304239401497
15236,Allegheny County,PA,53.61596009975062
15601,Westmoreland County,PA,5.236907730673317
15613,Westmoreland County,PA,67.83042394014963
16001,Butler County,PA,4.488778054862843
16101,Lawrence County,PA,7.73067331670823
16226,Armstrong County,PA,71.07231920199501
16335,Crawford County,PA,14.214463840399002
16502,Erie County,PA,47.381546134663346
17103,Dauphin County,PA,43.14214463840399
17104,Dauphin County,PA,23.44139650872818
17401,York County,PA,50.62344139650873
17522,Lancaster County,PA,30.174563591022448
17701,Lycoming County,PA,5.7356608478802995
17724,Bradford County,PA,94.2643391521197
17847,Northumberland County,PA,86.0349127182045
18013,Northampton County,PA,41.39650872817955
18411,Lackawanna County,PA,54.862842892768086
18517,Lackawanna County,PA,93.26683291770573
19002,Montgomery County,PA,42.14463840399002
19014,Delaware County,PA,46.88279301745636
19020,Bucks County,PA,35.41147132169576
19026,Delaware County,PA,22.942643391521198
19034,Montgomery County,PA,95.76059850374065
19046,Montgomery County,PA,51.12219451371571
19103,Philadelphia County,PA,50.87281795511222
19125,Philadelphia County,PA,55.11221945137157
19129,Philadelphia County,PA,67.33167082294264
19133,Philadelphia County,PA,20.448877805486283
19136,Philadelphia County,PA,15.46134663341646
19142,Philadelphia County,PA,15.710723192019952
19151,Philadelphia County,PA,18.204488778054863
19428,Montgomery County,PA,76.80798004987531
19462,Montgomery County,PA,53.36658354114713
19565,Berks County,PA,79.80049875311721
02817,Kent County,RI,87.28179551122194
02859,Providence County,RI,92.76807980049875
02888,Kent County,RI,55.61097256857855
29646,Greenwood County,SC,48.37905236907731
29650,Greenville County,SC,42.8927680798005
37067,Williamson County,TN,84.78802992518703
37166,DeKalb County,TN,61.09725685785536
37405,Hamilton County,TN,75.31172069825436
37660,Sullivan County,TN,11.970074812967582
37714,Campbell County,TN,94.76309226932669
37748,Roane County,TN,38.403990024937656
37914,Knox County,TN,40.89775561097257
38128,Shelby County,TN,25.43640897755611
75041,Dallas County,TX,49.12718204488778
75104,Dallas County,TX,60.59850374064838
75149,Dallas County,TX,24.688279301745634
75254,Dallas County,TX,83.79052369077307
76052,Tarrant County,TX,83.29177057356608
76082,Parker County,TX,59.85037406483791
76088,Parker County,TX,82.04488778054862
76148,Tarrant County,TX,45.6359102244389
77006,Harris County,TX,76.30922693266832
77026,Harris County,TX,58.104738154613464
77035,Harris County,TX,46.13466334164589
78073,Bexar County,TX,96.25935162094763
78155,Guadalupe County,TX,28.92768079800499
78203,Bexar County,TX,88.7780548628429
78260,Bexar County,TX,82.7930174563591
84101,Salt Lake County,UT,99.25187032418953
84404,Weber County,UT,25.935162094763093
22193,Prince William County,VA,17.955112219451372
22701,Culpeper County,VA,30.92269326683292
23237,Chesterfield County,VA,54.3640897755611
24112,Henry County,VA,22.443890274314214
24333,Galax city,VA,54.613466334164585
98203,Snohomish County,WA,53.86533665835411
98226,Whatcom County,WA,69.82543640897757
98375,Pierce County,WA,57.107231920199496
98446,Pierce County,WA,89.27680798004988
24740,Mercer County,WV,33.66583541147132
24870,Wyoming County,WV,99.00249376558602
25143,Kanawha County,WV,64.58852867830423
25387,Kanawha County,WV,79.55112219451371
25701,Cabell County,WV,21.197007481296758
26062,Hancock County,WV,14.962593516209477
26105,Wood County,WV,55.36159600997507
26301,Harrison County,WV,9.975062344139651
53051,Waukesha County,WI,48.87780548628429
53083,Sheboygan County,WI,72.31920199501248
53140,Kenosha County,WI,14.713216957605985
53205,Milwaukee County,WI,21.695760598503743
53704,Dane County,WI,14.463840399002494
53719,Dane County,WI,59.10224438902743
54311,Brown County,WI,73.06733167082294
54935,Fond du Lac County,WI,20.947630922693268
