ZipCode,county,state,Youth,Pediatric,Adult
35004,St. Clair County,AL,NA,NA,85.86698337292161
35062,Jefferson County,AL,NA,98.48484848484848,NA
35188,Bibb County,AL,97.50692520775624,NA,NA
35226,Jefferson County,AL,NA,NA,56.888361045130644
35244,Jefferson County,AL,NA,NA,56.41330166270784
35453,Tuscaloosa County,AL,NA,NA,63.53919239904988
35466,Pickens County,AL,NA,NA,89.31116389548693
35555,Fayette County,AL,NA,79.7979797979798,NA
35661,Colbert County,AL,64.26592797783933,NA,NA
35747,Marshall County,AL,NA,NA,89.07363420427554
35761,Madison County,AL,NA,75.75757575757575,NA
35763,Madison County,AL,NA,85.85858585858585,NA
35805,Madison County,AL,NA,NA,52.25653206650831
35811,Madison County,AL,NA,NA,47.86223277909738
35906,Etowah County,AL,NA,NA,90.02375296912113
35960,Cherokee County,AL,NA,NA,76.84085510688836
36067,Autauga County,AL,NA,30.808080808080806,NA
36111,Montgomery County,AL,NA,NA,70.30878859857482
36203,Calhoun County,AL,NA,NA,58.313539192399055
36375,Geneva County,AL,NA,NA,79.45368171021377
36426,Escambia County,AL,66.7590027700831,NA,NA
36522,Mobile County,AL,89.47368421052632,NA,NA
36618,Mobile County,AL,NA,NA,76.95961995249407
36695,Mobile County,AL,NA,64.14141414141415,NA
36870,Lee County,AL,NA,NA,82.3040380047506
99503,Anchorage Municipality,AK,NA,NA,54.513064133016634
99508,Anchorage Municipality,AK,NA,NA,20.902612826603324
99559,Bethel Census Area,AK,NA,NA,97.26840855106889
99604,Wade Hampton Census Area,AK,NA,93.43434343434343,NA
99623,,AK,69.25207756232687,NA,NA
99686,Valdez-Cordova Census Area,AK,91.96675900277008,NA,NA
99701,Fairbanks North Star Borough,AK,NA,66.66666666666666,41.80522565320665
85016,Maricopa County,AZ,NA,NA,50
85020,Maricopa County,AZ,NA,NA,44.89311163895487
85022,Maricopa County,AZ,NA,NA,23.75296912114014
85023,Maricopa County,AZ,NA,NA,33.6104513064133
85042,Maricopa County,AZ,NA,NA,31.47268408551069
85050,Maricopa County,AZ,NA,NA,63.657957244655584
85051,Maricopa County,AZ,NA,25.757575757575758,NA
85201,Maricopa County,AZ,NA,NA,16.6270783847981
85205,Maricopa County,AZ,28.80886426592798,NA,NA
85210,Maricopa County,AZ,NA,NA,26.959619952494062
85249,Maricopa County,AZ,25.48476454293629,NA,NA
85259,Maricopa County,AZ,82.54847645429363,NA,NA
85268,Maricopa County,AZ,92.24376731301939,NA,NA
85296,Maricopa County,AZ,NA,NA,40.380047505938244
85351,Maricopa County,AZ,NA,NA,76.48456057007125
85379,Maricopa County,AZ,NA,52.02020202020202,NA
85392,Maricopa County,AZ,9.418282548476455,51.010101010101,NA
85714,Pima County,AZ,NA,NA,40.142517814726844
85742,Pima County,AZ,NA,55.55555555555556,59.38242280285036
85746,Pima County,AZ,NA,NA,15.558194774346793
85941,Apache County,AZ,NA,NA,16.152019002375297
86053,Coconino County,AZ,NA,74.24242424242425,NA
86303,Yavapai County,AZ,74.51523545706371,NA,NA
86409,Mohave County,AZ,NA,33.83838383838384,78.38479809976246
71655,Drew County,AR,NA,NA,84.32304038004752
72104,Hot Spring County,AR,NA,NA,64.96437054631829
72207,Pulaski County,AR,NA,NA,93.70546318289786
72638,Carroll County,AR,NA,NA,98.33729216152018
72764,Washington County,AR,NA,NA,44.53681710213777
72916,Sebastian County,AR,92.24376731301939,NA,NA
90002,Los Angeles County,CA,NA,NA,86.93586698337292
90007,Los Angeles County,CA,NA,NA,34.56057007125891
90023,Los Angeles County,CA,NA,NA,44.418052256532064
90025,Los Angeles County,CA,NA,NA,65.43942992874109
90043,Los Angeles County,CA,NA,NA,53.56294536817102
90220,Los Angeles County,CA,NA,NA,39.66745843230404
90221,Los Angeles County,CA,30.747922437673132,NA,NA
90250,Los Angeles County,CA,NA,NA,28.978622327790976
90660,Los Angeles County,CA,NA,NA,34.204275534441805
90712,Los Angeles County,CA,NA,NA,66.6270783847981
90731,Los Angeles County,CA,20.77562326869806,NA,NA
90744,Los Angeles County,CA,NA,NA,66.6270783847981
90805,Los Angeles County,CA,NA,7.575757575757576,NA
90806,Los Angeles County,CA,NA,39.8989898989899,NA
91335,Los Angeles County,CA,NA,27.77777777777778,NA
91355,Los Angeles County,CA,88.9196675900277,NA,NA
91387,Los Angeles County,CA,NA,NA,52.37529691211401
91390,Los Angeles County,CA,73.40720221606648,NA,NA
91607,Los Angeles County,CA,NA,83.33333333333334,NA
91701,San Bernardino County,CA,62.04986149584487,NA,NA
91730,San Bernardino County,CA,NA,57.57575757575758,NA
91740,Los Angeles County,CA,76.73130193905817,NA,NA
91746,Los Angeles County,CA,70.6371191135734,NA,NA
91761,San Bernardino County,CA,NA,NA,29.216152019002372
91775,Los Angeles County,CA,84.48753462603878,NA,NA
92009,San Diego County,CA,48.75346260387812,NA,NA
92021,San Diego County,CA,NA,NA,18.171021377672208
92027,San Diego County,CA,NA,NA,54.98812351543943
92252,San Bernardino County,CA,NA,NA,78.85985748218528
92260,Riverside County,CA,89.19667590027701,NA,NA
92274,Riverside County,CA,NA,NA,79.69121140142518
92308,San Bernardino County,CA,NA,61.61616161616161,NA
92311,San Bernardino County,CA,NA,48.484848484848484,NA
92316,San Bernardino County,CA,NA,NA,60.57007125890736
92344,San Bernardino County,CA,NA,NA,80.9976247030879
92407,San Bernardino County,CA,NA,NA,20.665083135391924
92501,Riverside County,CA,NA,NA,94.53681710213777
92505,Riverside County,CA,NA,NA,80.28503562945369
92543,Riverside County,CA,64.26592797783933,NA,NA
92553,Riverside County,CA,NA,NA,32.66033254156769
92557,Riverside County,CA,NA,NA,43.34916864608076
92584,Riverside County,CA,NA,NA,51.543942992874115
92591,Riverside County,CA,NA,NA,56.76959619952494
92653,Orange County,CA,48.75346260387812,NA,NA
92683,Orange County,CA,NA,NA,19.47743467933492
92708,Orange County,CA,NA,NA,42.87410926365796
92835,Orange County,CA,NA,99.4949494949495,NA
93003,Ventura County,CA,32.96398891966759,NA,NA
93101,Santa Barbara County,CA,NA,NA,92.75534441805226
93291,Tulare County,CA,NA,NA,25.05938242280285
93311,Kern County,CA,NA,NA,87.88598574821853
93312,Kern County,CA,NA,87.87878787878788,46.080760095011875
93446,San Luis Obispo County,CA,41.82825484764543,NA,32.304038004750595
93454,Santa Barbara County,CA,35.18005540166205,NA,NA
93465,San Luis Obispo County,CA,NA,NA,83.0166270783848
93551,Los Angeles County,CA,NA,NA,63.18289786223278
93618,Tulare County,CA,NA,18.68686868686869,NA
93905,Monterey County,CA,55.67867036011081,NA,NA
93906,Monterey County,CA,13.573407202216067,NA,NA
94085,Santa Clara County,CA,NA,65.65656565656566,NA
94087,Santa Clara County,CA,NA,NA,82.6603325415677
94107,San Francisco County,CA,86.14958448753463,NA,NA
94115,San Francisco County,CA,NA,78.28282828282829,NA
94131,San Francisco County,CA,75.62326869806094,NA,NA
94503,Napa County,CA,NA,NA,90.97387173396675
94510,Solano County,CA,NA,NA,85.62945368171022
94544,Alameda County,CA,NA,NA,21.021377672209027
94545,Alameda County,CA,70.91412742382272,NA,NA
94553,Contra Costa County,CA,NA,NA,49.049881235154395
94561,Contra Costa County,CA,NA,NA,46.19952494061758
94587,Alameda County,CA,73.40720221606648,NA,NA
94590,Solano County,CA,67.86703601108033,NA,NA
94603,Alameda County,CA,NA,NA,55.34441805225653
94610,Alameda County,CA,NA,NA,88.71733966745843
94621,Alameda County,CA,NA,NA,38.836104513064136
94947,Marin County,CA,82.27146814404432,NA,NA
95014,Santa Clara County,CA,NA,NA,72.20902612826603
95051,Santa Clara County,CA,NA,NA,52.37529691211401
95123,Santa Clara County,CA,NA,NA,44.655581947743464
95136,Santa Clara County,CA,61.495844875346265,NA,NA
95212,San Joaquin County,CA,NA,NA,83.2541567695962
95330,San Joaquin County,CA,NA,NA,83.8479809976247
95358,Stanislaus County,CA,NA,NA,36.22327790973871
95361,Stanislaus County,CA,35.73407202216066,NA,NA
95368,Stanislaus County,CA,NA,NA,83.9667458432304
95382,Stanislaus County,CA,50.69252077562327,NA,NA
95407,Sonoma County,CA,36.288088642659275,NA,NA
95422,Lake County,CA,NA,75.75757575757575,NA
95482,Mendocino County,CA,26.59279778393352,NA,NA
95501,Humboldt County,CA,78.94736842105263,NA,NA
95666,Amador County,CA,99.7229916897507,NA,NA
95667,El Dorado County,CA,NA,63.13131313131313,NA
95746,Placer County,CA,NA,NA,84.08551068883611
95758,Sacramento County,CA,NA,NA,62.11401425178147
95815,Sacramento County,CA,60.11080332409973,88.38383838383838,NA
95818,Sacramento County,CA,NA,NA,79.80997624703087
95820,Sacramento County,CA,NA,NA,82.7790973871734
95823,Sacramento County,CA,NA,NA,48.218527315914486
95833,Sacramento County,CA,85.3185595567867,NA,NA
95835,Sacramento County,CA,NA,NA,73.87173396674585
95841,Sacramento County,CA,NA,NA,86.57957244655582
95928,Butte County,CA,NA,NA,41.09263657957244
95966,Butte County,CA,NA,NA,13.420427553444181
96001,Shasta County,CA,45.15235457063712,NA,NA
96019,Shasta County,CA,NA,NA,79.33491686460808
96067,Siskiyou County,CA,NA,NA,99.40617577197149
80013,Arapahoe County,CO,7.202216066481995,NA,NA
80014,Arapahoe County,CO,NA,NA,37.88598574821852
80015,Arapahoe County,CO,NA,NA,20.54631828978622
80016,Arapahoe County,CO,3.32409972299169,NA,NA
80017,Arapahoe County,CO,NA,NA,45.24940617577197
80023,Broomfield County,CO,NA,92.92929292929293,NA
80116,Douglas County,CO,NA,NA,98.57482185273159
80120,Arapahoe County,CO,NA,NA,88.47980997624703
80132,El Paso County,CO,72.02216066481995,NA,NA
80202,Denver County,CO,NA,NA,61.282660332541575
80205,Denver County,CO,NA,NA,15.795724465558195
80212,Denver County,CO,NA,NA,93.46793349168647
80214,Jefferson County,CO,NA,44.44444444444444,NA
80218,Denver County,CO,NA,NA,68.17102137767222
80219,Denver County,CO,NA,NA,5.938242280285035
80226,Jefferson County,CO,NA,NA,57.24465558194775
80233,Adams County,CO,NA,NA,31.947743467933492
80239,Denver County,CO,NA,6.565656565656567,NA
80260,Adams County,CO,NA,14.646464646464647,NA
80302,Boulder County,CO,NA,96.46464646464646,NA
80503,Boulder County,CO,46.81440443213297,NA,NA
80504,Boulder County,CO,NA,NA,39.073634204275535
80525,Larimer County,CO,13.019390581717452,NA,NA
80526,Larimer County,CO,22.71468144044321,NA,NA
80543,Weld County,CO,85.59556786703601,NA,NA
80601,Adams County,CO,NA,NA,40.49881235154395
80603,Weld County,CO,54.84764542936288,NA,NA
80631,Weld County,CO,NA,13.131313131313133,10.570071258907364
80651,Weld County,CO,NA,NA,99.5249406175772
80907,El Paso County,CO,NA,NA,61.995249406175766
80909,El Paso County,CO,NA,NA,65.67695961995248
80910,El Paso County,CO,NA,NA,29.572446555819475
80911,El Paso County,CO,NA,NA,48.574821852731596
80919,El Paso County,CO,NA,NA,75.41567695961994
81001,Pueblo County,CO,NA,35.35353535353536,NA
81403,Montrose County,CO,NA,NA,82.3040380047506
81504,Mesa County,CO,31.57894736842105,NA,NA
81505,Mesa County,CO,94.45983379501385,NA,NA
06029,Tolland County,CT,NA,NA,65.55819477434679
06042,Hartford County,CT,NA,NA,45.48693586698337
06051,Hartford County,CT,NA,NA,4.98812351543943
06074,Hartford County,CT,32.96398891966759,NA,NA
06106,Hartford County,CT,NA,NA,5.7007125890736345
06109,Hartford County,CT,NA,NA,71.25890736342043
06226,Windham County,CT,NA,NA,19.358669833729216
06410,New Haven County,CT,56.232686980609415,NA,NA
06488,New Haven County,CT,NA,NA,85.74821852731591
06489,Hartford County,CT,61.21883656509696,NA,NA
06515,New Haven County,CT,NA,NA,35.273159144893114
06880,Fairfield County,CT,NA,NA,57.71971496437055
19701,New Castle County,DE,NA,NA,33.2541567695962
19702,New Castle County,DE,NA,NA,18.052256532066508
19709,New Castle County,DE,NA,NA,24.70308788598575
19713,New Castle County,DE,NA,NA,82.54156769596199
19934,Kent County,DE,NA,75.25252525252525,NA
32043,Clay County,FL,NA,NA,51.66270783847982
32060,Suwannee County,FL,NA,27.27272727272727,NA
32092,St. Johns County,FL,NA,NA,90.14251781472684
32117,Volusia County,FL,NA,NA,73.04038004750593
32128,Volusia County,FL,NA,96.46464646464646,NA
32145,St. Johns County,FL,95.84487534626038,NA,NA
32164,Flagler County,FL,NA,NA,41.56769596199525
32218,Duval County,FL,NA,NA,4.86935866983373
32224,Duval County,FL,NA,NA,66.3895486935867
32233,Duval County,FL,NA,NA,47.26840855106889
32305,Leon County,FL,NA,NA,71.02137767220903
32308,Leon County,FL,NA,NA,78.14726840855107
32309,Leon County,FL,NA,NA,80.04750593824228
32333,Gadsden County,FL,NA,NA,86.10451306413302
32424,Calhoun County,FL,NA,NA,74.94061757719716
32601,Alachua County,FL,NA,NA,93.82422802850357
32607,Alachua County,FL,54.29362880886427,NA,NA
32609,Alachua County,FL,NA,NA,23.871733966745843
32668,Levy County,FL,NA,94.94949494949495,NA
32713,Volusia County,FL,93.35180055401662,NA,NA
32738,Volusia County,FL,NA,26.262626262626267,NA
32773,Seminole County,FL,NA,46.464646464646464,NA
32792,Orange County,FL,NA,NA,67.6959619952494
32807,Orange County,FL,NA,26.262626262626267,NA
32817,Orange County,FL,NA,15.151515151515152,89.66745843230403
32818,Orange County,FL,16.06648199445983,NA,NA
32822,Orange County,FL,NA,NA,22.565320665083135
32828,Orange County,FL,NA,NA,43.82422802850356
32832,Orange County,FL,NA,NA,88.24228028503563
32901,Brevard County,FL,NA,NA,64.25178147268409
32940,Brevard County,FL,63.43490304709142,NA,NA
33030,Miami-Dade County,FL,NA,22.727272727272727,NA
33032,Miami-Dade County,FL,NA,NA,48.812351543942995
33033,Miami-Dade County,FL,NA,NA,49.4061757719715
33063,Broward County,FL,48.199445983379505,NA,NA
33139,Miami-Dade County,FL,NA,NA,67.2209026128266
33143,Miami-Dade County,FL,NA,79.7979797979798,NA
33169,Miami-Dade County,FL,NA,NA,77.90973871733968
33174,Miami-Dade County,FL,NA,61.61616161616161,NA
33311,Broward County,FL,NA,NA,35.03562945368171
33313,Broward County,FL,NA,NA,25.17814726840855
33321,Broward County,FL,NA,NA,64.4893111638955
33417,Palm Beach County,FL,NA,NA,65.7957244655582
33428,Palm Beach County,FL,NA,NA,42.39904988123516
33525,Pasco County,FL,NA,70.2020202020202,NA
33534,Hillsborough County,FL,NA,NA,77.07838479809976
33540,Pasco County,FL,91.68975069252078,NA,NA
33545,Pasco County,FL,NA,NA,88.95486935866982
33584,Hillsborough County,FL,NA,NA,85.03562945368171
33637,Hillsborough County,FL,NA,83.83838383838383,NA
33702,Pinellas County,FL,NA,NA,61.40142517814727
33771,Pinellas County,FL,56.78670360110804,29.292929292929294,NA
33776,Pinellas County,FL,NA,NA,99.7624703087886
33781,Pinellas County,FL,NA,NA,55.225653206650826
33823,Polk County,FL,NA,11.616161616161616,NA
33860,Polk County,FL,NA,34.34343434343434,NA
33908,Lee County,FL,NA,NA,67.57719714964371
33950,Charlotte County,FL,NA,NA,80.76009501187649
33972,Lee County,FL,NA,NA,88.12351543942994
33982,Charlotte County,FL,NA,NA,92.87410926365796
33993,Lee County,FL,NA,NA,58.076009501187656
34113,Collier County,FL,NA,NA,84.56057007125891
34203,Manatee County,FL,NA,NA,63.42042755344418
34275,Sarasota County,FL,NA,NA,80.64133016627079
34288,Sarasota County,FL,NA,NA,87.76722090261283
34472,Marion County,FL,NA,35.35353535353536,NA
34480,Marion County,FL,NA,NA,67.93349168646081
34655,Pasco County,FL,NA,NA,39.90498812351544
34685,Pinellas County,FL,86.70360110803324,NA,NA
34741,Osceola County,FL,NA,13.636363636363635,27.790973871733964
34771,Osceola County,FL,NA,NA,97.5059382422803
34946,St. Lucie County,FL,NA,NA,83.6104513064133
34952,St. Lucie County,FL,NA,NA,29.80997624703088
30005,Fulton County,GA,37.67313019390582,NA,NA
30014,Newton County,GA,18.559556786703602,NA,NA
30024,Gwinnett County,GA,NA,NA,62.826603325415675
30025,Walton County,GA,84.21052631578947,NA,NA
30080,Cobb County,GA,NA,NA,83.4916864608076
30083,DeKalb County,GA,NA,24.747474747474747,NA
30093,Gwinnett County,GA,NA,NA,64.8456057007126
30096,Gwinnett County,GA,NA,NA,32.4228028503563
30110,Haralson County,GA,NA,NA,71.97149643705463
30115,Cherokee County,GA,NA,NA,46.55581947743468
30116,Carroll County,GA,NA,NA,56.057007125890735
30117,Carroll County,GA,NA,NA,40.02375296912114
30152,Cobb County,GA,NA,NA,64.13301662707839
30153,Polk County,GA,NA,NA,48.574821852731596
30180,Carroll County,GA,10.249307479224377,NA,NA
30252,Henry County,GA,NA,NA,46.318289786223275
30269,Fayette County,GA,58.17174515235457,NA,NA
30306,Fulton County,GA,64.81994459833795,NA,NA
30307,DeKalb County,GA,93.07479224376732,NA,NA
30311,Fulton County,GA,NA,NA,18.28978622327791
30340,DeKalb County,GA,68.42105263157895,NA,NA
30518,Gwinnett County,GA,31.57894736842105,54.04040404040404,NA
30813,Columbia County,GA,25.761772853185594,NA,38.59857482185273
30906,Richmond County,GA,NA,NA,8.788598574821853
31069,Houston County,GA,NA,NA,47.980997624703086
31088,Houston County,GA,NA,37.37373737373738,NA
31316,Long County,GA,93.62880886426593,NA,NA
31601,Lowndes County,GA,NA,NA,30.760095011876487
31707,Dougherty County,GA,NA,69.1919191919192,NA
31906,Muscogee County,GA,NA,NA,77.19714964370546
39842,Terrell County,GA,NA,95.45454545454545,NA
96706,Honolulu County,HI,9.141274238227147,NA,NA
96740,Hawaii County,HI,NA,NA,68.76484560570071
96749,Hawaii County,HI,NA,NA,83.729216152019
96789,Honolulu County,HI,NA,NA,26.128266033254157
96797,Honolulu County,HI,NA,47.97979797979798,NA
96825,Honolulu County,HI,54.016620498614955,NA,NA
83605,Canyon County,ID,NA,10.606060606060606,NA
83647,Elmore County,ID,40.99722991689751,NA,NA
83686,Canyon County,ID,NA,NA,9.97624703087886
83703,Ada County,ID,88.36565096952909,NA,NA
83801,Kootenai County,ID,96.39889196675901,NA,NA
83814,Kootenai County,ID,NA,87.37373737373737,NA
83858,Kootenai County,ID,NA,82.32323232323232,NA
83861,Benewah County,ID,NA,NA,98.812351543943
60033,McHenry County,IL,NA,NA,90.61757719714964
60046,Lake County,IL,NA,NA,75.29691211401425
60047,Lake County,IL,66.7590027700831,NA,NA
60050,McHenry County,IL,NA,100,NA
60056,Cook County,IL,NA,NA,75.77197149643705
60073,Lake County,IL,NA,NA,18.883610451306414
60074,Cook County,IL,56.50969529085873,NA,NA
60077,Cook County,IL,NA,NA,86.69833729216153
60084,Lake County,IL,NA,NA,92.16152019002375
60085,Lake County,IL,NA,90.40404040404042,NA
60093,Cook County,IL,NA,NA,81.47268408551069
60099,Lake County,IL,47.92243767313019,NA,NA
60102,McHenry County,IL,NA,NA,55.463182897862225
60115,DeKalb County,IL,NA,NA,47.50593824228028
60120,Kane County,IL,NA,NA,33.3729216152019
60123,Kane County,IL,NA,NA,25.415676959619955
60142,McHenry County,IL,NA,NA,49.524940617577194
60176,Cook County,IL,NA,NA,85.1543942992874
60181,DuPage County,IL,NA,NA,36.46080760095012
60187,DuPage County,IL,34.903047091412745,NA,44.180522565320665
60423,Will County,IL,28.254847645429365,NA,NA
60432,Will County,IL,NA,98.98989898989899,NA
60440,Will County,IL,NA,NA,23.51543942992874
60450,Grundy County,IL,12.465373961218837,NA,NA
60462,Cook County,IL,NA,NA,31.828978622327792
60463,Cook County,IL,NA,NA,78.50356294536816
60482,Cook County,IL,87.53462603878116,NA,NA
60502,DuPage County,IL,NA,NA,61.75771971496437
60505,Kane County,IL,NA,80.8080808080808,NA
60542,Kane County,IL,NA,NA,72.68408551068883
60563,DuPage County,IL,NA,NA,53.80047505938242
60565,DuPage County,IL,16.343490304709142,NA,NA
60621,Cook County,IL,NA,NA,74.10926365795724
60623,Cook County,IL,NA,77.27272727272727,8.551068883610451
60628,Cook County,IL,14.681440443213297,NA,NA
60629,Cook County,IL,NA,53.03030303030303,NA
60630,Cook County,IL,NA,NA,27.672209026128264
60633,Cook County,IL,NA,NA,74.46555819477435
60634,Cook County,IL,NA,92.42424242424242,13.30166270783848
60639,Cook County,IL,NA,NA,11.995249406175772
60641,Cook County,IL,NA,NA,49.7624703087886
60644,Cook County,IL,NA,NA,9.382422802850355
60652,Cook County,IL,NA,NA,34.441805225653205
60653,Cook County,IL,NA,93.43434343434343,NA
61061,Ogle County,IL,NA,NA,95.48693586698337
61068,Ogle County,IL,NA,NA,74.34679334916865
61081,Whiteside County,IL,NA,NA,37.05463182897862
61101,Winnebago County,IL,NA,NA,55.463182897862225
61401,Knox County,IL,NA,91.91919191919192,87.29216152019002
61607,Peoria County,IL,90.30470914127424,NA,NA
61761,McLean County,IL,39.88919667590028,NA,NA
61920,Coles County,IL,80.88642659279779,NA,NA
62002,Madison County,IL,NA,NA,36.342042755344416
62301,Adams County,IL,NA,NA,41.448931116389545
62305,Adams County,IL,NA,NA,75.53444180522565
62550,Shelby County,IL,96.95290858725761,NA,NA
62703,Sangamon County,IL,NA,NA,35.74821852731592
62704,Sangamon County,IL,NA,NA,54.750593824228034
62801,Marion County,IL,78.1163434903047,NA,NA
62812,Franklin County,IL,NA,NA,94.89311163895488
46033,Hamilton County,IN,NA,NA,69.71496437054631
46038,Hamilton County,IN,NA,NA,86.22327790973871
46041,Clinton County,IN,NA,NA,40.973871733966746
46062,Hamilton County,IN,73.13019390581718,NA,NA
46113,Marion County,IN,78.1163434903047,NA,NA
46163,Hancock County,IN,70.3601108033241,NA,NA
46214,Marion County,IN,NA,NA,65.201900237529685
46218,Marion County,IN,NA,NA,12.470308788598574
46229,Marion County,IN,13.29639889196676,NA,28.38479809976247
46234,Marion County,IN,92.797783933518,NA,NA
46236,Marion County,IN,NA,73.73737373737373,NA
46320,Lake County,IN,NA,NA,84.798099762470315
46321,Lake County,IN,23.822714681440445,NA,NA
46323,Lake County,IN,NA,NA,24.46555819477435
46342,Lake County,IN,40.16620498614959,NA,6.413301662707839
46350,LaPorte County,IN,NA,NA,11.282660332541568
46360,LaPorte County,IN,NA,NA,6.65083135391924
46383,Porter County,IN,NA,NA,9.144893111638956
46404,Lake County,IN,NA,NA,73.04038004750593
46845,Allen County,IN,40.7202216066482,NA,NA
46936,Howard County,IN,NA,NA,93.58669833729216
46975,Fulton County,IN,44.87534626038781,NA,NA
47122,Floyd County,IN,NA,NA,92.51781472684085
47130,Clark County,IN,NA,NA,12.589073634204276
47201,Bartholomew County,IN,NA,NA,14.726840855106888
47240,Decatur County,IN,30.193905817174517,NA,NA
47336,Jay County,IN,98.06094182825484,NA,NA
47353,Union County,IN,NA,84.34343434343434,NA
47374,Wayne County,IN,NA,NA,5.344418052256532
47904,Tippecanoe County,IN,NA,NA,67.3396674584323
47933,Montgomery County,IN,NA,NA,38.36104513064133
47960,White County,IN,48.199445983379505,NA,NA
50021,Polk County,IA,NA,NA,78.97862232779097
50111,Polk County,IA,NA,NA,89.90498812351544
50216,Guthrie County,IA,96.1218836565097,NA,NA
50322,Polk County,IA,65.09695290858726,NA,NA
50501,Webster County,IA,NA,NA,29.69121140142518
50588,Buena Vista County,IA,75.06925207756233,NA,NA
51002,Buena Vista County,IA,NA,NA,99.1686460807601
51012,Cherokee County,IA,91.41274238227147,NA,NA
51360,Dickinson County,IA,83.93351800554017,NA,NA
51501,Pottawattamie County,IA,NA,NA,4.275534441805226
51503,Pottawattamie County,IA,NA,NA,10.688836104513063
52175,Fayette County,IA,100,NA,NA
52328,Linn County,IA,88.08864265927978,NA,NA
52404,Linn County,IA,NA,NA,10.926365795724466
52405,Linn County,IA,NA,NA,46.318289786223275
52501,Wapello County,IA,29.362880886426595,NA,16.7458432304038
52577,Mahaska County,IA,34.07202216066482,NA,NA
52761,Muscatine County,IA,53.73961218836565,NA,14.251781472684085
66002,Atchison County,KS,73.40720221606648,NA,NA
66030,Johnson County,KS,79.77839335180056,NA,NA
66085,Johnson County,KS,NA,NA,95.84323040380048
66618,Shawnee County,KS,NA,NA,91.80522565320665
66748,Allen County,KS,99.445983379501385,NA,NA
66762,Crawford County,KS,NA,NA,73.51543942992875
66901,Cloud County,KS,60.387811634349035,NA,NA
67114,Harvey County,KS,NA,88.88888888888889,NA
67152,Sumner County,KS,NA,97.97979797979798,NA
67209,Sedgwick County,KS,NA,NA,95.36817102137766
67501,Reno County,KS,63.711911357340725,NA,NA
67846,Finney County,KS,39.05817174515235,NA,26.48456057007126
40228,Jefferson County,KY,NA,NA,72.92161520190024
40361,Bourbon County,KY,NA,NA,43.111638954869356
40383,Woodford County,KY,NA,NA,77.31591448931117
40391,Clark County,KY,NA,NA,10.21377672209026
40402,Jackson County,KY,98.89196675900277,NA,NA
40403,Madison County,KY,NA,34.34343434343434,NA
41030,Grant County,KY,NA,NA,78.50356294536816
41339,Breathitt County,KY,NA,NA,56.65083135391924
42101,Warren County,KY,11.911357340720222,NA,NA
42301,Daviess County,KY,NA,NA,12.114014251781473
42701,Hardin County,KY,NA,NA,14.133016627078385
70118,Orleans Parish,LA,NA,NA,21.49643705463183
70119,Orleans Parish,LA,NA,NA,5.581947743467933
70460,St. Tammany Parish,LA,NA,NA,15.320665083135394
70501,Lafayette Parish,LA,NA,NA,2.375296912114014
70570,St. Landry Parish,LA,0,NA,NA
70601,Calcasieu Parish,LA,NA,NA,14.964370546318289
70802,East Baton Rouge Parish,LA,NA,NA,7.363420427553444
70807,East Baton Rouge Parish,LA,NA,NA,15.914489311163896
70810,East Baton Rouge Parish,LA,NA,NA,9.73871733966746
70815,East Baton Rouge Parish,LA,NA,NA,18.28978622327791
71107,Caddo Parish,LA,NA,NA,3.5629453681710213
71111,Bossier Parish,LA,6.094182825484765,NA,NA
71241,Union Parish,LA,NA,81.81818181818183,NA
71343,Catahoula Parish,LA,NA,NA,62.70783847980997
71360,Rapides Parish,LA,NA,3.535353535353535,NA
03904,York County,ME,NA,NA,80.87885985748218
04938,Franklin County,ME,NA,NA,59.97624703087886
20603,Charles County,MD,NA,NA,73.63420427553444
20657,Calvert County,MD,74.79224376731301,NA,NA
20659,St. Mary's County,MD,NA,NA,69.23990498812351
20685,Calvert County,MD,NA,NA,96.79334916864607
20716,Prince George's County,MD,84.7645429362881,NA,NA
20794,Howard County,MD,NA,NA,90.38004750593825
20815,Montgomery County,MD,NA,NA,97.74346793349169
20817,Montgomery County,MD,NA,NA,81.94774346793349
20850,Montgomery County,MD,46.26038781163435,NA,72.80285035629454
21001,Harford County,MD,39.335180055401665,NA,NA
21015,Harford County,MD,NA,NA,76.36579572446556
21042,Howard County,MD,NA,NA,75.05938242280284
21146,Anne Arundel County,MD,NA,NA,74.82185273159145
21206,Baltimore city,MD,NA,NA,14.489311163895488
21214,Baltimore city,MD,72.57617728531855,NA,NA
21218,Baltimore city,MD,38.227146814404435,NA,NA
21921,Cecil County,MD,17.72853185595568,NA,NA
01001,Hampden County,MA,79.50138504155125,NA,NA
01013,Hampden County,MA,NA,NA,3.800475059382423
01020,Hampden County,MA,21.60664819944598,NA,NA
01056,Hampden County,MA,59.2797783933518,NA,NA
01062,Hampshire County,MA,NA,NA,92.04275534441805
01069,Hampden County,MA,NA,NA,98.09976247030879
01075,Hampshire County,MA,NA,NA,93.34916864608076
01201,Berkshire County,MA,1.662049861495845,NA,NA
01230,Berkshire County,MA,NA,NA,99.6437054631829
01420,Worcester County,MA,NA,NA,3.2066508313539197
01475,Worcester County,MA,NA,NA,95.13064133016627
01569,Worcester County,MA,NA,NA,42.16152019002376
01603,Worcester County,MA,NA,NA,1.7814726840855106
01609,Worcester County,MA,59.0027700831025,NA,NA
01720,Middlesex County,MA,18.282548476454295,NA,NA
01742,Middlesex County,MA,NA,NA,62.94536817102138
01749,Middlesex County,MA,NA,NA,98.69358669833728
01752,Middlesex County,MA,NA,NA,4.156769596199525
01803,Middlesex County,MA,NA,NA,24.109263657957243
01830,Essex County,MA,NA,NA,1.4251781472684086
01832,Essex County,MA,NA,NA,4.394299287410926
01841,Essex County,MA,NA,NA,94.06175771971496
01843,Essex County,MA,19.390581717451525,NA,NA
01844,Essex County,MA,NA,NA,10.095011876484561
01902,Essex County,MA,NA,NA,32.18527315914489
01905,Essex County,MA,NA,NA,1.3064133016627077
01970,Essex County,MA,36.011080332409975,NA,NA
02038,Norfolk County,MA,NA,NA,16.270783847980997
02119,Suffolk County,MA,NA,NA,0.23752969121140144
02129,Suffolk County,MA,NA,NA,92.39904988123516
02134,Suffolk County,MA,NA,NA,14.608076009501186
02136,Suffolk County,MA,NA,NA,2.019002375296912
02184,Norfolk County,MA,NA,50.505050505050505,30.878859857482183
02301,Plymouth County,MA,NA,0,0
02302,Plymouth County,MA,16.343490304709142,NA,9.619952494061758
02346,Plymouth County,MA,NA,NA,13.539192399049881
02359,Plymouth County,MA,NA,NA,34.91686460807601
02476,Middlesex County,MA,46.81440443213297,NA,NA
02482,Norfolk County,MA,NA,NA,78.02850356294537
02724,Bristol County,MA,NA,NA,91.56769596199526
02740,Bristol County,MA,NA,NA,0.11876484560570072
02743,Bristol County,MA,NA,NA,85.5106888361045
02745,Bristol County,MA,32.13296398891966,NA,NA
02746,Bristol County,MA,NA,NA,70.54631828978623
48001,St. Clair County,MI,NA,NA,74.58432304038006
48026,Macomb County,MI,NA,NA,42.517814726840854
48035,Macomb County,MI,NA,NA,12.826603325415679
48038,Macomb County,MI,NA,NA,16.033254156769598
48059,St. Clair County,MI,68.42105263157895,NA,NA
48060,St. Clair County,MI,NA,NA,3.9192399049881232
48066,Macomb County,MI,NA,NA,21.377672209026127
48072,Oakland County,MI,NA,NA,59.97624703087886
48122,Wayne County,MI,44.32132963988919,NA,NA
48138,Wayne County,MI,NA,NA,94.18052256532067
48146,Wayne County,MI,4.986149584487535,NA,NA
48162,Monroe County,MI,11.634349030470915,NA,NA
48170,Wayne County,MI,21.88365650969529,NA,NA
48173,Wayne County,MI,56.78670360110804,NA,NA
48176,Washtenaw County,MI,24.099722991689752,NA,NA
48182,Monroe County,MI,42.38227146814405,NA,NA
48187,Wayne County,MI,NA,NA,13.182897862232778
48192,Wayne County,MI,NA,NA,21.021377672209027
48197,Washtenaw County,MI,NA,NA,17.458432304038006
48198,Washtenaw County,MI,NA,NA,2.8503562945368173
48209,Wayne County,MI,NA,15.151515151515152,NA
48210,Wayne County,MI,NA,NA,30.28503562945368
48213,Wayne County,MI,NA,NA,13.895486935866982
48214,Wayne County,MI,NA,60.1010101010101,NA
48221,Wayne County,MI,23.545706371191137,NA,NA
48224,Wayne County,MI,NA,NA,2.494061757719715
48228,Wayne County,MI,1.3850415512465373,NA,NA
48230,Wayne County,MI,NA,NA,60.21377672209026
48234,Wayne County,MI,NA,NA,9.263657957244655
48309,Oakland County,MI,NA,NA,40.736342042755346
48336,Oakland County,MI,32.13296398891966,NA,NA
48381,Oakland County,MI,77.8393351800554,NA,NA
48382,Oakland County,MI,NA,NA,57.60095011876485
48430,Genesee County,MI,33.51800554016621,NA,NA
48458,Genesee County,MI,NA,NA,71.37767220902613
48507,Genesee County,MI,NA,21.21212121212121,NA
48532,Genesee County,MI,NA,69.6969696969697,NA
48601,Saginaw County,MI,NA,NA,2.137767220902613
48602,Saginaw County,MI,NA,NA,22.209026128266032
48642,Midland County,MI,NA,NA,22.327790973871732
48651,Roscommon County,MI,NA,NA,93.94299287410927
48653,Roscommon County,MI,NA,NA,80.28503562945369
48708,Bay County,MI,NA,56.060606060606055,NA
48867,Shiawassee County,MI,7.756232686980609,NA,NA
48910,Ingham County,MI,NA,NA,14.370546318289787
48911,Ingham County,MI,NA,NA,7.957244655581948
48917,Eaton County,MI,NA,NA,11.163895486935866
49010,Allegan County,MI,NA,NA,50.3562945368171
49017,Calhoun County,MI,37.95013850415512,NA,NA
49068,Calhoun County,MI,NA,NA,64.37054631828978
49120,Berrien County,MI,NA,NA,17.102137767220903
49221,Lenawee County,MI,NA,44.44444444444444,NA
49230,Jackson County,MI,89.47368421052632,NA,NA
49316,Kent County,MI,NA,NA,58.90736342042755
49417,Ottawa County,MI,31.301939058171747,NA,NA
49444,Muskegon County,MI,NA,NA,12.232779097387175
49504,Kent County,MI,NA,NA,17.220902612826603
49507,Kent County,MI,NA,5.555555555555555,6.175771971496437
49519,Kent County,MI,NA,18.181818181818183,NA
49735,Otsego County,MI,NA,NA,39.548693586698334
49849,Marquette County,MI,NA,NA,55.93824228028503
49855,Marquette County,MI,NA,NA,17.220902612826603
55014,Anoka County,MN,NA,NA,71.49643705463184
55037,Pine County,MN,NA,NA,95.96199524940617
55044,Dakota County,MN,22.437673130193904,40.4040404040404,NA
55057,Rice County,MN,NA,91.41414141414141,NA
55082,Washington County,MN,NA,NA,40.85510688836104
55104,Ramsey County,MN,NA,NA,53.20665083135392
55106,Ramsey County,MN,NA,4.040404040404041,8.076009501187649
55107,Ramsey County,MN,NA,NA,96.43705463182897
55112,Ramsey County,MN,NA,NA,47.980997624703086
55117,Ramsey County,MN,NA,NA,19.002375296912113
55121,Dakota County,MN,NA,NA,87.05463182897863
55128,Washington County,MN,NA,41.91919191919192,NA
55303,Anoka County,MN,NA,NA,20.783847980997624
55304,Anoka County,MN,11.080332409972298,NA,NA
55313,Wright County,MN,NA,NA,84.91686460807601
55318,Carver County,MN,53.18559556786704,NA,NA
55330,Sherburne County,MN,44.04432132963989,NA,48.9311163895487
55331,Hennepin County,MN,NA,NA,89.78622327790974
55345,Hennepin County,MN,NA,59.59595959595959,NA
55364,Hennepin County,MN,81.4404432132964,NA,NA
55379,Scott County,MN,NA,NA,31.59144893111639
55404,Hennepin County,MN,NA,NA,11.75771971496437
55411,Hennepin County,MN,NA,NA,19.83372921615202
55412,Hennepin County,MN,NA,6.0606060606060606,11.045130641330166
55417,Hennepin County,MN,NA,NA,57.95724465558195
55426,Hennepin County,MN,NA,NA,87.29216152019002
55429,Hennepin County,MN,NA,NA,48.33729216152019
55432,Anoka County,MN,37.396121883656505,NA,27.197149643705465
55437,Hennepin County,MN,NA,NA,87.17339667458432
55443,Hennepin County,MN,NA,NA,37.648456057007124
55448,Anoka County,MN,NA,NA,47.74346793349169
55806,St. Louis County,MN,41.27423822714682,NA,NA
55811,St. Louis County,MN,NA,NA,91.21140142517815
55906,Olmsted County,MN,NA,68.68686868686868,NA
55955,Dodge County,MN,96.39889196675901,NA,NA
55976,Olmsted County,MN,NA,84.84848484848484,NA
56058,Le Sueur County,MN,NA,NA,97.38717339667458
56345,Morrison County,MN,NA,NA,35.62945368171022
56379,Benton County,MN,20.221606648199447,NA,NA
56501,Becker County,MN,62.603878116343495,NA,NA
56549,Clay County,MN,74.23822714681441,NA,NA
56560,Clay County,MN,NA,25.252525252525253,NA
56573,Otter Tail County,MN,NA,NA,69.59619952494062
56633,Hubbard County,MN,NA,NA,89.42992874109264
56670,Beltrami County,MN,NA,93.43434343434343,NA
38637,DeSoto County,MS,NA,NA,57.36342042755345
38866,Lee County,MS,NA,NA,88.83610451306413
38941,Leflore County,MS,NA,NA,98.45605700712589
39046,Madison County,MS,NA,28.28282828282828,NA
39047,Rankin County,MS,NA,NA,61.63895486935868
39074,Scott County,MS,NA,NA,45.01187648456057
39110,Madison County,MS,18.83656509695291,NA,NA
39180,Warren County,MS,17.174515235457065,NA,NA
39401,Forrest County,MS,NA,37.37373737373738,NA
39507,Harrison County,MS,NA,NA,74.22802850356295
39601,Lincoln County,MS,NA,NA,54.39429928741093
39702,Lowndes County,MS,NA,NA,43.705463182897866
63042,St. Louis County,MO,NA,NA,80.16627078384798
63103,St. Louis city,MO,NA,NA,97.03087885985748
63121,St. Louis County,MO,NA,36.36363636363637,NA
63303,St. Charles County,MO,19.113573407202217,NA,NA
63383,Warren County,MO,32.13296398891966,NA,NA
63628,St. Francois County,MO,27.42382271468144,NA,NA
63701,Cape Girardeau County,MO,NA,NA,45.843230403800476
63901,Butler County,MO,NA,23.232323232323232,NA
64012,Cass County,MO,NA,NA,32.8978622327791
64050,Jackson County,MO,NA,33.33333333333333,NA
64052,Jackson County,MO,NA,NA,64.7268408551069
64055,Jackson County,MO,NA,NA,8.907363420427554
64064,Jackson County,MO,NA,NA,60.92636579572447
64078,Cass County,MO,NA,60.1010101010101,NA
64082,Jackson County,MO,72.02216066481995,NA,NA
64127,Jackson County,MO,NA,NA,7.244655581947744
64132,Jackson County,MO,NA,20.2020202020202,NA
64152,Platte County,MO,NA,NA,22.68408551068884
64153,Platte County,MO,87.81163434903047,NA,NA
64155,Clay County,MO,NA,NA,26.840855106888363
64156,Clay County,MO,NA,NA,67.6959619952494
64429,Clinton County,MO,NA,NA,58.55106888361045
64503,Buchanan County,MO,NA,NA,30.641330166270787
64505,Buchanan County,MO,30.193905817174517,NA,NA
64870,Jasper County,MO,NA,32.82828282828283,NA
65203,Boone County,MO,NA,NA,28.50356294536817
65265,Audrain County,MO,NA,NA,85.98574821852732
65616,Taney County,MO,NA,NA,43.23040380047506
65737,Stone County,MO,NA,NA,97.62470308788599
59102,Yellowstone County,MT,NA,NA,50.712589073634206
59405,Cascade County,MT,63.1578947368421,NA,NA
59718,Gallatin County,MT,NA,NA,42.042755344418055
59801,Missoula County,MT,NA,NA,69.95249406175772
59808,Missoula County,MT,NA,NA,88.59857482185272
68130,Douglas County,NE,38.78116343490305,NA,NA
68135,Douglas County,NE,NA,NA,75.77197149643705
68503,Lancaster County,NE,52.90858725761773,NA,NA
68516,Lancaster County,NE,23.26869806094183,NA,NA
68521,Lancaster County,NE,NA,65.15151515151516,NA
68601,Platte County,NE,66.20498614958449,NA,NA
89101,Clark County,NV,NA,NA,68.646080760095
89110,Clark County,NV,NA,NA,23.634204275534444
89115,Clark County,NV,NA,NA,24.346793349168646
89122,Clark County,NV,NA,NA,30.16627078384798
89129,Clark County,NV,35.45706371191136,NA,NA
89166,Clark County,NV,NA,NA,69.95249406175772
89169,Clark County,NV,NA,NA,62.47030878859857
89178,Clark County,NV,NA,NA,77.43467933491686
89183,Clark County,NV,57.61772853185596,NA,NA
89431,Washoe County,NV,NA,NA,25.534441805225654
89433,Washoe County,NV,NA,NA,47.149643705463184
89436,Washoe County,NV,27.146814404432135,NA,NA
89502,Washoe County,NV,NA,NA,23.159144893111637
89509,Washoe County,NV,NA,NA,58.19477434679335
89511,Washoe County,NV,NA,NA,70.90261282660333
89703,Carson City,NV,NA,NA,92.63657957244655
03045,Hillsborough County,NH,NA,86.36363636363636,NA
03054,Hillsborough County,NH,NA,NA,39.19239904988123
03079,Rockingham County,NH,NA,NA,53.681710213776725
03229,Merrimack County,NH,95.01385041551247,NA,NA
03263,Merrimack County,NH,NA,NA,99.2874109263658
03431,Cheshire County,NH,NA,NA,34.79809976247031
03773,Sullivan County,NH,NA,NA,85.2731591448931
03833,Rockingham County,NH,65.09695290858726,NA,NA
07002,Hudson County,NJ,4.1551246537396125,NA,NA
07003,Essex County,NJ,NA,NA,11.520190023752969
07010,Bergen County,NJ,NA,NA,56.53206650831354
07030,Hudson County,NJ,NA,NA,7.8384798099762465
07036,Union County,NJ,NA,NA,11.63895486935867
07042,Essex County,NJ,NA,59.09090909090909,NA
07047,Hudson County,NJ,NA,NA,6.0570071258907365
07055,Passaic County,NJ,4.43213296398892,NA,1.187648456057007
07059,Somerset County,NJ,94.73684210526315,NA,NA
07065,Union County,NJ,52.07756232686981,NA,NA
07067,Middlesex County,NJ,51.24653739612188,NA,NA
07083,Union County,NJ,NA,NA,18.52731591448931
07093,Hudson County,NJ,NA,NA,7.719714964370546
07103,Essex County,NJ,NA,NA,0.9501187648456058
07104,Essex County,NJ,16.897506925207757,NA,NA
07109,Essex County,NJ,47.368421052631575,NA,NA
07305,Hudson County,NJ,NA,NA,0.5938242280285035
07407,Bergen County,NJ,NA,NA,37.52969121140142
07524,Passaic County,NJ,NA,NA,35.39192399049881
07940,Morris County,NJ,NA,NA,96.31828978622327
08005,Ocean County,NJ,NA,NA,21.73396674584323
08016,Burlington County,NJ,NA,89.8989898989899,4.038004750593824
08021,Camden County,NJ,NA,NA,0.35629453681710216
08043,Camden County,NJ,NA,NA,50.3562945368171
08050,Ocean County,NJ,NA,NA,43.58669833729216
08052,Burlington County,NJ,19.94459833795014,NA,NA
08081,Camden County,NJ,NA,NA,1.66270783847981
08088,Burlington County,NJ,NA,NA,55.819477434679335
08108,Camden County,NJ,72.57617728531855,NA,NA
08210,Cape May County,NJ,NA,NA,44.06175771971497
08234,Atlantic County,NJ,NA,NA,5.10688836104513
08330,Atlantic County,NJ,NA,NA,34.08551068883611
08401,Atlantic County,NJ,NA,NA,4.631828978622328
08402,Atlantic County,NJ,71.74515235457064,NA,NA
08822,Hunterdon County,NJ,22.160664819944596,NA,NA
08852,Middlesex County,NJ,70.08310249307479,NA,NA
08861,Middlesex County,NJ,NA,NA,1.5439429928741093
08873,Somerset County,NJ,14.40443213296399,NA,NA
87102,Bernalillo County,NM,NA,NA,25.771971496437057
87106,Bernalillo County,NM,NA,NA,24.94061757719715
87107,Bernalillo County,NM,NA,NA,39.42992874109264
87109,Bernalillo County,NM,NA,NA,20.190023752969122
87114,Bernalillo County,NM,NA,NA,9.85748218527316
87123,Bernalillo County,NM,NA,NA,15.320665083135394
87144,Sandoval County,NM,NA,NA,23.39667458432304
87328,McKinley County,NM,NA,64.64646464646465,NA
87401,San Juan County,NM,NA,9.090909090909092,NA
87505,Santa Fe County,NM,NA,16.666666666666664,28.147268408551067
87544,Los Alamos County,NM,NA,NA,69.12114014251782
87557,Taos County,NM,NA,79.29292929292929,NA
88001,Doa Ana County,NM,NA,NA,31.71021377672209
88030,Luna County,NM,68.14404432132964,NA,NA
88203,Chaves County,NM,NA,18.68686868686869,22.446555819477435
88240,Lea County,NM,8.310249307479225,NA,NA
10029,New York County,NY,NA,NA,0.4750593824228029
10306,Richmond County,NY,NA,NA,59.857482185273156
10452,Bronx County,NY,NA,NA,0.7125890736342043
10461,Bronx County,NY,NA,29.797979797979796,NA
10467,Bronx County,NY,NA,NA,5.819477434679335
10468,Bronx County,NY,2.21606648199446,NA,27.315914489311165
11206,Kings County,NY,NA,NA,2.9691211401425175
11221,Kings County,NY,4.7091412742382275,NA,NA
11223,Kings County,NY,22.99168975069252,NA,NA
11375,Queens County,NY,NA,NA,56.17577197149644
11413,Queens County,NY,NA,NA,81.59144893111639
11420,Queens County,NY,NA,9.595959595959595,NA
11520,Nassau County,NY,NA,NA,38.71733966745843
11560,Nassau County,NY,NA,NA,99.8812351543943
11580,Nassau County,NY,NA,NA,66.1520190023753
11705,Suffolk County,NY,NA,NA,97.14964370546319
11735,Nassau County,NY,79.22437673130193,NA,NA
11763,Suffolk County,NY,NA,NA,52.13776722090261
12157,Schoharie County,NY,NA,71.71717171717171,NA
12801,Warren County,NY,NA,NA,23.040380047505938
12804,Warren County,NY,NA,NA,9.501187648456057
12822,Saratoga County,NY,NA,NA,78.50356294536816
13021,Cayuga County,NY,24.653739612188367,NA,NA
13037,Madison County,NY,NA,NA,68.28978622327791
13039,Onondaga County,NY,NA,95.45454545454545,NA
13057,Onondaga County,NY,NA,NA,57.00712589073634
13069,Oswego County,NY,NA,NA,29.334916864608076
13088,Onondaga County,NY,NA,NA,32.4228028503563
13126,Oswego County,NY,NA,NA,4.750593824228028
13160,Cayuga County,NY,98.61495844875347,NA,NA
13206,Onondaga County,NY,NA,NA,28.741092636579573
13207,Onondaga County,NY,NA,NA,36.81710213776722
13219,Onondaga County,NY,51.8005540166205,NA,91.68646080760095
13413,Oneida County,NY,NA,NA,56.294536817102134
13452,Montgomery County,NY,NA,NA,86.46080760095012
13471,Oneida County,NY,NA,NA,95.72446555819477
13760,Broome County,NY,NA,NA,0.831353919239905
13778,Chenango County,NY,NA,NA,70.42755344418052
13833,Broome County,NY,NA,NA,78.26603325415678
13901,Broome County,NY,NA,NA,23.990498812351543
13905,Broome County,NY,1.9390581717451523,NA,NA
14051,Erie County,NY,61.772853185595565,NA,NA
14075,Erie County,NY,28.53185595567867,NA,NA
14086,Erie County,NY,NA,NA,23.27790973871734
14120,Niagara County,NY,5.8171745152354575,NA,NA
14127,Erie County,NY,49.307479224376735,NA,NA
14150,Erie County,NY,15.23545706371191,NA,NA
14208,Erie County,NY,NA,NA,68.88361045130641
14215,Erie County,NY,7.479224376731302,NA,NA
14218,Erie County,NY,53.46260387811634,NA,22.090261282660332
14219,Erie County,NY,65.65096952908587,NA,NA
14220,Erie County,NY,NA,NA,16.5083135391924
14222,Erie County,NY,NA,NA,63.657957244655584
14224,Erie County,NY,NA,NA,6.532066508313539
14226,Erie County,NY,49.307479224376735,NA,NA
14424,Ontario County,NY,NA,NA,3.0878859857482186
14428,Monroe County,NY,NA,NA,52.73159144893111
14437,Livingston County,NY,NA,NA,50.5938242280285
14450,Monroe County,NY,NA,NA,3.32541567695962
14464,Monroe County,NY,NA,96.46464646464646,NA
14481,Livingston County,NY,94.18282548476455,NA,NA
14546,Monroe County,NY,NA,NA,88.24228028503563
14612,Monroe County,NY,NA,NA,2.2565320665083135
14615,Monroe County,NY,NA,NA,45.605700712589076
14619,Monroe County,NY,NA,NA,51.306413301662715
14620,Monroe County,NY,NA,NA,7.1258907363420425
14750,Chautauqua County,NY,NA,NA,88.00475059382423
14845,Chemung County,NY,NA,NA,18.76484560570071
14886,Tompkins County,NY,63.711911357340725,NA,NA
27103,Forsyth County,NC,NA,NA,17.458432304038006
27262,Guilford County,NC,NA,73.23232323232324,NA
27278,Orange County,NC,NA,NA,25.890736342042754
27288,Rockingham County,NC,NA,NA,49.6437054631829
27360,Davidson County,NC,NA,NA,4.513064133016627
27406,Guilford County,NC,NA,NA,24.82185273159145
27410,Guilford County,NC,NA,NA,71.73396674584322
27511,Wake County,NC,NA,NA,71.85273159144893
27516,Orange County,NC,55.4016620498615,NA,NA
27518,Wake County,NC,85.59556786703601,NA,NA
27537,Vance County,NC,31.024930747922436,NA,NA
27540,Wake County,NC,29.085872576177284,NA,53.32541567695962
27606,Wake County,NC,NA,NA,54.27553444180523
27613,Wake County,NC,80.33240997229917,NA,NA
27705,Durham County,NC,NA,NA,84.2042755344418
27708,Durham County,NC,NA,NA,98.2185273159145
27803,Nash County,NC,NA,NA,54.86935866983374
27889,Beaufort County,NC,NA,NA,37.29216152019003
27910,Hertford County,NC,NA,NA,76.24703087885986
27944,Perquimans County,NC,NA,NA,72.56532066508314
28001,Stanly County,NC,NA,NA,37.88598574821852
28036,Mecklenburg County,NC,66.4819944598338,NA,NA
28110,Union County,NC,NA,NA,25.890736342042754
28117,Iredell County,NC,NA,NA,35.74821852731592
28133,Anson County,NC,NA,NA,100
28160,Rutherford County,NC,NA,NA,94.65558194774347
28210,Mecklenburg County,NC,NA,NA,61.520190023752974
28215,Mecklenburg County,NC,NA,NA,17.81472684085511
28227,Mecklenburg County,NC,20.498614958448755,NA,NA
28269,Mecklenburg County,NC,NA,19.696969696969695,NA
28376,Hoke County,NC,20.77562326869806,NA,NA
28546,Onslow County,NC,NA,NA,30.522565320665084
28570,Carteret County,NC,NA,50,NA
28590,Pitt County,NC,43.76731301939058,NA,NA
28673,Catawba County,NC,NA,NA,90.85510688836105
28787,Buncombe County,NC,80.60941828254848,NA,73.04038004750593
58104,Cass County,ND,NA,54.54545454545454,NA
58201,Grand Forks County,ND,6.3711911357340725,NA,NA
58501,Burleigh County,ND,NA,NA,60.33254156769596
58801,Williams County,ND,NA,NA,41.92399049881235
43055,Licking County,OH,NA,5.05050505050505,NA
43065,Delaware County,OH,NA,NA,54.156769596199524
43130,Fairfield County,OH,NA,NA,31.235154394299286
43147,Fairfield County,OH,NA,NA,28.26603325415677
43206,Franklin County,OH,NA,NA,14.84560570071259
43207,Franklin County,OH,0.8310249307479225,NA,NA
43215,Franklin County,OH,25.761772853185594,NA,NA
43219,Franklin County,OH,NA,3.0303030303030303,NA
43222,Franklin County,OH,NA,NA,64.01425178147268
43224,Franklin County,OH,NA,NA,6.7695961995249405
43232,Franklin County,OH,NA,0.5050505050505051,NA
43235,Franklin County,OH,NA,NA,51.9002375296912
43528,Lucas County,OH,NA,NA,47.03087885985748
43701,Muskingum County,OH,0.2770083102493075,NA,7.600950118764846
43920,Columbiana County,OH,NA,NA,11.401425178147269
44060,Lake County,OH,NA,NA,8.194774346793348
44067,Summit County,OH,NA,NA,41.68646080760095
44070,Cuyahoga County,OH,NA,NA,26.72209026128266
44077,Lake County,OH,NA,NA,21.852731591448933
44092,Lake County,OH,NA,NA,49.8812351543943
44102,Cuyahoga County,OH,NA,4.545454545454546,NA
44106,Cuyahoga County,OH,NA,NA,13.064133016627078
44107,Cuyahoga County,OH,NA,NA,1.9002375296912115
44111,Cuyahoga County,OH,NA,2.0202020202020203,NA
44114,Cuyahoga County,OH,NA,NA,38.12351543942993
44121,Cuyahoga County,OH,NA,41.41414141414141,NA
44126,Cuyahoga County,OH,NA,36.36363636363637,59.026128266033254
44136,Cuyahoga County,OH,NA,NA,33.4916864608076
44147,Cuyahoga County,OH,NA,52.02020202020202,NA
44236,Summit County,OH,NA,NA,62.23277909738717
44256,Medina County,OH,NA,12.626262626262626,24.228028503562946
44306,Summit County,OH,NA,NA,12.351543942992874
44406,Mahoning County,OH,14.958448753462603,NA,NA
44444,Trumbull County,OH,NA,NA,60.80760095011877
44485,Trumbull County,OH,NA,NA,19.596199524940616
44507,Mahoning County,OH,NA,NA,82.89786223277909
44512,Mahoning County,OH,NA,NA,12.945368171021377
44515,Mahoning County,OH,50.13850415512465,NA,NA
44601,Stark County,OH,5.263157894736842,NA,NA
44685,Summit County,OH,NA,NA,52.37529691211401
44691,Wayne County,OH,NA,NA,36.46080760095012
44709,Stark County,OH,13.573407202216067,NA,NA
44720,Stark County,OH,NA,NA,34.3230403800475
44857,Huron County,OH,NA,NA,26.365795724465556
44875,Richland County,OH,NA,NA,47.387173396674584
45011,Butler County,OH,0.554016620498615,NA,2.7315914489311166
45014,Butler County,OH,8.587257617728532,NA,NA
45040,Warren County,OH,8.033240997229916,NA,NA
45042,Butler County,OH,NA,NA,22.921615201900238
45102,Clermont County,OH,NA,NA,42.63657957244655
45103,Clermont County,OH,NA,NA,32.066508313539195
45106,Clermont County,OH,NA,NA,57.71971496437055
45107,Clinton County,OH,NA,NA,86.34204275534442
45133,Highland County,OH,10.80332409972299,NA,NA
45135,Highland County,OH,93.90581717451524,NA,NA
45202,Hamilton County,OH,NA,NA,61.16389548693587
45219,Hamilton County,OH,NA,75.75757575757575,NA
45227,Hamilton County,OH,45.42936288088642,NA,NA
45231,Hamilton County,OH,NA,2.525252525252525,NA
45239,Hamilton County,OH,NA,14.14141414141414,19.239904988123516
45255,Hamilton County,OH,70.91412742382272,NA,NA
45304,Darke County,OH,NA,NA,90.49881235154395
45335,Greene County,OH,83.37950138504155,NA,NA
45344,Clark County,OH,36.288088642659275,NA,NA
45356,Miami County,OH,2.4930747922437675,NA,NA
45377,Montgomery County,OH,NA,NA,90.26128266033254
45405,Montgomery County,OH,NA,NA,27.909738717339668
45406,Montgomery County,OH,NA,10.1010101010101,NA
45414,Montgomery County,OH,NA,NA,35.15439429928741
45424,Montgomery County,OH,NA,NA,13.657957244655583
45503,Clark County,OH,NA,NA,8.669833729216151
45504,Clark County,OH,NA,NA,94.41805225653206
45601,Ross County,OH,NA,NA,6.88836104513064
45638,Lawrence County,OH,NA,NA,5.463182897862233
45662,Scioto County,OH,NA,NA,3.44418052256532
45669,Lawrence County,OH,27.977839335180054,NA,NA
45750,Washington County,OH,3.6011080332409975,NA,NA
45801,Allen County,OH,NA,NA,14.014251781472684
45805,Allen County,OH,NA,NA,16.389548693586697
45822,Mercer County,OH,27.70083102493075,NA,NA
45872,Wood County,OH,NA,NA,87.64845605700712
73012,Oklahoma County,OK,58.72576177285319,NA,NA
73064,Canadian County,OK,NA,NA,59.14489311163895
73106,Oklahoma County,OK,NA,NA,75.65320665083135
73127,Oklahoma County,OK,NA,48.98989898989899,NA
73132,Oklahoma County,OK,NA,NA,63.064133016627075
73159,Oklahoma County,OK,NA,NA,53.32541567695962
74108,Tulsa County,OK,NA,NA,97.9809976247031
74127,Tulsa County,OK,NA,NA,69.47743467933492
74133,Tulsa County,OK,NA,NA,37.410926365795724
74137,Tulsa County,OK,NA,NA,81.353919239905
74145,Tulsa County,OK,NA,82.82828282828282,NA
74432,McIntosh County,OK,NA,NA,95.24940617577197
74601,Kay County,OK,50.96952908587258,NA,NA
74804,Pottawatomie County,OK,NA,NA,72.32779097387173
74834,Lincoln County,OK,NA,NA,91.33016627078385
97019,Multnomah County,OR,97.50692520775624,NA,NA
97030,Multnomah County,OR,NA,NA,20.071258907363422
97031,Hood River County,OR,NA,86.36363636363636,NA
97045,Clackamas County,OR,NA,62.62626262626263,NA
97128,Yamhill County,OR,NA,NA,58.66983372921615
97138,Clatsop County,OR,NA,NA,99.04988123515439
97203,Multnomah County,OR,NA,45.95959595959596,NA
97211,Multnomah County,OR,NA,NA,50.712589073634206
97216,Multnomah County,OR,NA,42.42424242424242,NA
97223,Washington County,OR,NA,NA,33.8479809976247
97233,Multnomah County,OR,NA,20.707070707070706,NA
97236,Multnomah County,OR,NA,NA,22.68408551068884
97266,Multnomah County,OR,NA,NA,38.242280285035626
97303,Marion County,OR,NA,54.54545454545454,NA
97305,Marion County,OR,NA,NA,30.28503562945368
97477,Lane County,OR,52.35457063711911,NA,NA
97501,Jackson County,OR,NA,NA,10.451306413301662
97702,Deschutes County,OR,NA,NA,51.06888361045131
97814,Baker County,OR,NA,NA,49.287410926365794
15012,Westmoreland County,PA,NA,NA,68.52731591448931
15033,Washington County,PA,NA,NA,91.92399049881234
15061,Beaver County,PA,NA,NA,87.29216152019002
15065,Allegheny County,PA,NA,NA,89.54869358669833
15102,Allegheny County,PA,NA,NA,70.78384798099762
15136,Allegheny County,PA,NA,NA,35.39192399049881
15206,Allegheny County,PA,NA,74.24242424242425,NA
15217,Allegheny County,PA,NA,NA,66.6270783847981
15227,Allegheny County,PA,NA,NA,43.942992874109265
15301,Washington County,PA,NA,40.909090909090914,33.0166270783848
15656,Westmoreland County,PA,NA,NA,77.55344418052258
15668,Westmoreland County,PA,81.99445983379502,NA,NA
16214,Clarion County,PA,82.54847645429363,NA,NA
16301,Venango County,PA,NA,NA,81.11638954869359
16323,Venango County,PA,NA,NA,60.33254156769596
16601,Blair County,PA,NA,31.313131313131315,NA
16701,McKean County,PA,8.86426592797784,NA,NA
17033,Dauphin County,PA,NA,NA,39.311163895486935
17046,Lebanon County,PA,NA,12.121212121212121,NA
17084,Mifflin County,PA,NA,NA,93.23040380047506
17401,York County,PA,NA,21.71717171717172,NA
17403,York County,PA,55.95567867036011,NA,3.681710213776722
17408,York County,PA,26.869806094182824,NA,NA
17543,Lancaster County,PA,NA,NA,27.55344418052256
17740,Lycoming County,PA,NA,NA,59.61995249406176
17844,Union County,PA,NA,NA,96.08076009501187
17901,Schuylkill County,PA,NA,NA,29.928741092636578
18015,Northampton County,PA,NA,NA,10.332541567695962
18018,Lehigh County,PA,NA,NA,27.078384798099762
18055,Northampton County,PA,NA,NA,76.00950118764845
18091,Northampton County,PA,NA,NA,86.81710213776722
18252,Schuylkill County,PA,NA,71.21212121212122,NA
18407,Lackawanna County,PA,NA,NA,54.513064133016634
18424,Lackawanna County,PA,98.337950138504155,NA,NA
18503,Lackawanna County,PA,NA,NA,96.19952494061758
18508,Lackawanna County,PA,65.92797783933518,NA,NA
18640,Luzerne County,PA,34.62603878116344,NA,NA
18702,Luzerne County,PA,14.127423822714682,NA,NA
18938,Bucks County,PA,NA,NA,95.01187648456056
19020,Bucks County,PA,NA,NA,38.95486935866984
19050,Delaware County,PA,NA,NA,33.966745843230406
19063,Delaware County,PA,24.930747922437675,NA,NA
19104,Philadelphia County,PA,11.357340720221606,NA,NA
19107,Philadelphia County,PA,NA,NA,51.66270783847982
19116,Philadelphia County,PA,43.21329639889196,NA,NA
19120,Philadelphia County,PA,NA,7.07070707070707,NA
19138,Philadelphia County,PA,NA,NA,15.676959619952493
19140,Philadelphia County,PA,NA,NA,2.6128266033254155
19142,Philadelphia County,PA,NA,NA,15.201900237529692
19143,Philadelphia County,PA,NA,NA,1.0688836104513064
19146,Philadelphia County,PA,NA,NA,18.646080760095014
19152,Philadelphia County,PA,NA,NA,59.263657957244654
19335,Chester County,PA,NA,NA,20.30878859857482
19401,Montgomery County,PA,NA,NA,10.807600950118765
19438,Montgomery County,PA,80.05540166204986,NA,NA
19446,Montgomery County,PA,NA,NA,17.695961995249405
19605,Berks County,PA,NA,NA,36.69833729216152
02813,Washington County,RI,NA,NA,96.55581947743468
02865,Providence County,RI,NA,NA,74.70308788598575
02886,Kent County,RI,29.6398891966759,NA,38.36104513064133
29203,Richland County,SC,NA,NA,13.77672209026128
29229,Richland County,SC,NA,NA,44.29928741092636
29414,Charleston County,SC,29.916897506925206,NA,NA
29456,Dorchester County,SC,NA,NA,73.75296912114014
29479,Berkeley County,SC,77.5623268698061,NA,NA
29483,Dorchester County,SC,5.540166204986149,NA,NA
29485,Dorchester County,SC,6.64819944598338,NA,NA
29577,Horry County,SC,NA,NA,69.23990498812351
29607,Greenville County,SC,15.789473684210526,NA,NA
29627,Anderson County,SC,NA,NA,66.5083135391924
29631,Pickens County,SC,95.01385041551247,NA,NA
29651,Greenville County,SC,NA,NA,24.584323040380045
29661,Greenville County,SC,NA,NA,89.19239904988123
29710,York County,SC,69.80609418282549,NA,NA
29730,York County,SC,NA,67.17171717171718,NA
29842,Aiken County,SC,83.37950138504155,NA,NA
29927,Jasper County,SC,NA,90.9090909090909,NA
57106,Minnehaha County,SD,NA,51.515151515151516,NA
57301,Davison County,SD,NA,NA,55.70071258907363
57401,Brown County,SD,NA,57.57575757575758,NA
57501,Hughes County,SD,NA,67.17171717171718,NA
37027,Williamson County,TN,NA,NA,46.912114014251785
37040,Montgomery County,TN,NA,NA,28.859857482185276
37064,Williamson County,TN,NA,NA,54.03800475059383
37075,Sumner County,TN,34.34903047091413,NA,NA
37083,Macon County,TN,68.42105263157895,NA,NA
37091,Marshall County,TN,NA,NA,45.96199524940617
37146,Cheatham County,TN,NA,NA,94.77434679334917
37167,Rutherford County,TN,NA,32.323232323232325,NA
37206,Davidson County,TN,NA,NA,40.61757719714964
37214,Davidson County,TN,NA,NA,66.9833729216152
37303,McMinn County,TN,36.84210526315789,NA,NA
37311,Bradley County,TN,NA,NA,41.211401425178146
37354,Monroe County,TN,39.335180055401665,NA,NA
37355,Coffee County,TN,57.61772853185596,NA,NA
37405,Hamilton County,TN,NA,NA,79.21615201900238
37421,Hamilton County,TN,NA,53.03030303030303,NA
37620,Sullivan County,TN,NA,43.43434343434344,NA
37643,Carter County,TN,NA,NA,15.08313539192399
37801,Blount County,TN,NA,NA,17.933491686460805
37922,Knox County,TN,47.64542936288089,NA,NA
38012,Haywood County,TN,NA,NA,81.71021377672209
38017,Shelby County,TN,NA,NA,79.57244655581948
38118,Shelby County,TN,NA,NA,21.61520190023753
38242,Henry County,TN,NA,NA,55.10688836104512
38305,Madison County,TN,NA,NA,11.87648456057007
38372,Hardin County,TN,NA,70.2020202020202,58.432304038004744
38401,Maury County,TN,NA,NA,8.31353919239905
38555,Cumberland County,TN,NA,NA,45.72446555819478
38572,Cumberland County,TN,NA,NA,69.0023752969121
75033,,TX,24.099722991689752,NA,73.99049881235155
75038,Dallas County,TX,NA,NA,68.40855106888361
75052,Dallas County,TX,40.443213296398895,NA,NA
75060,Dallas County,TX,NA,49.494949494949495,NA
75061,Dallas County,TX,NA,17.17171717171717,NA
75063,Dallas County,TX,NA,NA,65.32066508313538
75092,Grayson County,TX,60.387811634349035,NA,NA
75156,Henderson County,TX,NA,NA,57.00712589073634
75173,Collin County,TX,NA,NA,96.91211401425178
75180,Dallas County,TX,NA,21.71717171717172,NA
75204,Dallas County,TX,NA,NA,68.05225653206651
75218,Dallas County,TX,66.7590027700831,NA,NA
75241,Dallas County,TX,20.77562326869806,NA,NA
75605,Gregg County,TX,NA,63.63636363636363,NA
75650,Harrison County,TX,NA,NA,81.23515439429929
75662,Gregg County,TX,NA,NA,61.75771971496437
75703,Smith County,TX,15.512465373961218,NA,NA
75751,Henderson County,TX,NA,57.57575757575758,NA
76018,Tarrant County,TX,NA,42.42424242424242,NA
76036,Tarrant County,TX,NA,NA,66.0332541567696
76039,Tarrant County,TX,NA,NA,43.46793349168646
76049,Hood County,TX,NA,NA,44.655581947743464
76051,Tarrant County,TX,NA,NA,37.76722090261283
76058,Johnson County,TX,NA,NA,85.39192399049881
76063,Tarrant County,TX,3.0470914127423825,NA,NA
76078,Wise County,TX,62.880886426592795,NA,NA
76086,Parker County,TX,58.448753462603875,NA,NA
76102,Tarrant County,TX,NA,NA,76.60332541567696
76108,Tarrant County,TX,NA,NA,45.36817102137768
76112,Tarrant County,TX,17.451523545706372,NA,NA
76116,Tarrant County,TX,NA,NA,64.60807600950119
76117,Tarrant County,TX,NA,NA,41.211401425178146
76126,Tarrant County,TX,49.307479224376735,NA,NA
76148,Tarrant County,TX,NA,NA,47.62470308788598
76262,Denton County,TX,NA,NA,53.087885985748215
76273,Grayson County,TX,87.25761772853186,NA,NA
76301,Wichita County,TX,NA,NA,53.919239904988125
76354,Wichita County,TX,NA,NA,83.2541567695962
76424,Stephens County,TX,NA,57.07070707070707,NA
76528,Coryell County,TX,NA,NA,34.679334916864605
76542,Bell County,TX,NA,NA,16.7458432304038
76712,McLennan County,TX,19.667590027700832,NA,NA
77015,Harris County,TX,NA,47.474747474747474,NA
77032,Harris County,TX,NA,NA,84.44180522565321
77038,Harris County,TX,NA,38.38383838383838,NA
77045,Harris County,TX,NA,NA,65.08313539192399
77047,Harris County,TX,51.52354570637119,NA,NA
77053,Fort Bend County,TX,NA,8.585858585858585,NA
77093,Harris County,TX,NA,24.242424242424242,NA
77328,San Jacinto County,TX,NA,NA,81.94774346793349
77354,Montgomery County,TX,NA,NA,57.36342042755345
77373,Harris County,TX,52.63157894736842,38.88888888888889,NA
77388,Harris County,TX,54.57063711911358,NA,NA
77407,Fort Bend County,TX,26.31578947368421,NA,NA
77414,Matagorda County,TX,NA,46.96969696969697,52.01900237529691
77484,Waller County,TX,77.28531855955679,NA,NA
77505,Harris County,TX,NA,NA,72.09026128266032
77598,Harris County,TX,NA,NA,65.91448931116389
77662,Orange County,TX,NA,NA,51.42517814726841
77706,Jefferson County,TX,59.556786703601105,NA,NA
77802,Brazos County,TX,NA,NA,30.04750593824228
77803,Brazos County,TX,NA,NA,31.353919239904986
77808,Brazos County,TX,59.83379501385041,NA,NA
77845,Brazos County,TX,NA,NA,12.707838479809977
78015,Bexar County,TX,83.10249307479224,NA,NA
78052,Atascosa County,TX,91.13573407202216,NA,NA
78064,Atascosa County,TX,60.94182825484764,NA,NA
78076,Zapata County,TX,NA,84.84848484848484,NA
78102,Bee County,TX,NA,30.303030303030305,NA
78112,Bexar County,TX,NA,77.77777777777779,NA
78114,Wilson County,TX,NA,NA,63.18289786223278
78130,Comal County,TX,NA,NA,26.60332541567696
78210,Bexar County,TX,NA,NA,29.453681710213775
78216,Bexar County,TX,NA,NA,50.1187648456057
78221,Bexar County,TX,NA,NA,52.850356294536816
78245,Bexar County,TX,NA,NA,28.028503562945367
78415,Nueces County,TX,10.526315789473683,NA,NA
78520,Cameron County,TX,NA,1.5151515151515151,NA
78521,Cameron County,TX,NA,1.0101010101010102,NA
78557,Hidalgo County,TX,NA,11.11111111111111,NA
78572,Hidalgo County,TX,NA,NA,21.971496437054633
78574,Hidalgo County,TX,NA,NA,42.16152019002376
78589,Hidalgo County,TX,NA,28.78787878787879,46.55581947743468
78610,Hays County,TX,NA,NA,77.67220902612827
78666,Hays County,TX,NA,NA,32.779097387173394
78702,Travis County,TX,NA,NA,80.52256532066508
78730,Travis County,TX,NA,NA,94.29928741092637
78741,Travis County,TX,NA,NA,76.72209026128266
78801,Uvalde County,TX,38.504155124653735,NA,NA
79124,Potter County,TX,90.30470914127424,NA,NA
79423,Lubbock County,TX,62.32686980609419,NA,NA
79424,Lubbock County,TX,NA,NA,30.997624703087883
79603,Taylor County,TX,NA,NA,35.98574821852731
79605,Taylor County,TX,NA,NA,45.13064133016627
79707,Midland County,TX,NA,NA,40.26128266033254
79764,Ector County,TX,57.340720221606645,NA,NA
79912,El Paso County,TX,NA,16.161616161616163,NA
79927,El Paso County,TX,46.26038781163435,NA,NA
84003,Utah County,UT,NA,NA,50.2375296912114
84010,Davis County,UT,70.91412742382272,NA,NA
84047,Salt Lake County,UT,NA,NA,79.92874109263659
84070,Salt Lake County,UT,NA,89.39393939393939,NA
84074,Tooele County,UT,1.10803324099723,NA,NA
84078,Uintah County,UT,NA,NA,19.121140142517813
84081,Salt Lake County,UT,NA,NA,36.935866983372925
84088,Salt Lake County,UT,NA,NA,42.99287410926366
84123,Salt Lake County,UT,NA,NA,25.653206650831358
84321,Cache County,UT,12.465373961218837,NA,NA
84404,Weber County,UT,9.695290858725762,NA,62.589073634204276
84414,Weber County,UT,67.59002770083103,NA,NA
84501,Carbon County,UT,NA,NA,69.83372921615202
84601,Utah County,UT,NA,NA,76.12826603325415
84606,Utah County,UT,85.0415512465374,NA,NA
84660,Utah County,UT,37.119113573407205,NA,73.39667458432304
84721,Iron County,UT,NA,NA,72.44655581947742
84770,Washington County,UT,NA,80.8080808080808,NA
84790,Washington County,UT,NA,NA,51.18764845605701
20155,Prince William County,VA,42.38227146814405,NA,NA
22003,Fairfax County,VA,NA,NA,70.66508313539192
22030,Fairfax County,VA,NA,NA,36.104513064133016
22032,Fairfax County,VA,NA,NA,71.61520190023754
22191,Prince William County,VA,NA,NA,19.71496437054632
22193,Prince William County,VA,NA,8.080808080808081,NA
22201,Arlington County,VA,NA,NA,67.10213776722091
22209,Arlington County,VA,NA,NA,91.09263657957246
22407,Spotsylvania County,VA,18.005540166204987,NA,NA
22603,Frederick County,VA,81.4404432132964,NA,NA
22664,Shenandoah County,VA,NA,NA,79.09738717339667
22801,Harrisonburg city,VA,42.10526315789473,NA,NA
22849,Page County,VA,75.90027700831024,NA,NA
23222,Richmond city,VA,NA,NA,19.95249406175772
23223,Henrico County,VA,2.7700831024930745,NA,NA
23231,Henrico County,VA,NA,NA,27.43467933491687
23236,Chesterfield County,VA,NA,NA,67.45843230403801
23454,Virginia Beach city,VA,45.70637119113574,NA,NA
23462,Virginia Beach city,VA,12.18836565096953,NA,NA
23513,Norfolk city,VA,NA,NA,21.258907363420427
23607,Newport News city,VA,NA,NA,61.04513064133017
23662,Poquoson city,VA,NA,NA,97.8622327790974
23692,York County,VA,NA,NA,92.99287410926365
23803,Petersburg city,VA,NA,43.43434343434344,NA
23860,Hopewell city,VA,NA,NA,37.173396674584325
24054,Henry County,VA,88.64265927977839,NA,NA
24401,Staunton city,VA,NA,56.56565656565656,NA
98002,King County,WA,41.55124653739612,NA,NA
98006,King County,WA,44.59833795013851,NA,NA
98023,King County,WA,NA,NA,66.270783847981
98024,King County,WA,NA,NA,96.67458432304038
98027,King County,WA,NA,NA,70.19002375296913
98115,King County,WA,NA,NA,42.75534441805225
98122,King County,WA,25.20775623268698,NA,NA
98125,King County,WA,NA,NA,46.79334916864608
98204,Snohomish County,WA,NA,NA,31.116389548693586
98229,Whatcom County,WA,89.47368421052632,NA,NA
98258,Snohomish County,WA,9.97229916897507,NA,NA
98271,Snohomish County,WA,NA,72.22222222222221,NA
98273,Skagit County,WA,NA,NA,33.729216152019006
98284,Skagit County,WA,NA,NA,59.50118764845605
98296,Snohomish County,WA,NA,NA,52.850356294536816
98310,Kitsap County,WA,NA,65.65656565656566,NA
98335,Pierce County,WA,54.84764542936288,NA,NA
98366,Kitsap County,WA,NA,NA,28.978622327790976
98391,Pierce County,WA,NA,NA,16.983372921615203
98408,Pierce County,WA,81.16343490304709,NA,NA
98512,Thurston County,WA,NA,NA,84.56057007125891
98528,Mason County,WA,NA,NA,95.60570071258907
98632,Cowlitz County,WA,NA,NA,59.73871733966746
98801,Chelan County,WA,NA,NA,28.622327790973873
98926,Kittitas County,WA,NA,NA,62.23277909738717
98942,Yakima County,WA,NA,NA,93.11163895486936
99202,Spokane County,WA,77.00831024930747,NA,NA
99207,Spokane County,WA,NA,NA,58.78859857482185
20002,District of Columbia,DC,NA,NA,6.294536817102138
20032,District of Columbia,DC,NA,17.67676767676768,NA
25813,Raleigh County,WV,NA,NA,91.44893111638956
26501,Monongalia County,WV,45.98337950138504,NA,NA
26554,Marion County,WV,NA,NA,5.225653206650831
26726,Mineral County,WV,NA,NA,48.45605700712589
53027,Washington County,WI,95.56786703601108,NA,NA
53083,Sheboygan County,WI,75.34626038781164,NA,NA
53090,Washington County,WI,75.90027700831024,NA,NA
53098,Dodge County,WI,NA,NA,71.02137767220903
53105,Racine County,WI,NA,44.44444444444444,NA
53126,Racine County,WI,NA,NA,83.1353919239905
53128,Walworth County,WI,50.41551246537396,NA,NA
53132,Milwaukee County,WI,76.45429362880887,NA,NA
53154,Milwaukee County,WI,NA,NA,26.247030878859857
53170,Kenosha County,WI,90.30470914127424,NA,NA
53189,Waukesha County,WI,NA,NA,63.895486935866984
53210,Milwaukee County,WI,NA,NA,9.026128266033254
53212,Milwaukee County,WI,NA,23.232323232323232,NA
53216,Milwaukee County,WI,NA,NA,33.1353919239905
53219,Milwaukee County,WI,NA,NA,20.42755344418052
53223,Milwaukee County,WI,NA,31.313131313131315,NA
53402,Racine County,WI,NA,NA,7.007125890736342
53523,Dane County,WI,86.42659279778393,NA,NA
53549,Jefferson County,WI,NA,NA,77.79097387173397
53704,Dane County,WI,NA,68.18181818181817,NA
53711,Dane County,WI,NA,NA,39.78622327790974
53716,Dane County,WI,43.21329639889196,NA,NA
54130,Outagamie County,WI,69.25207756232687,39.39393939393939,NA
54136,Outagamie County,WI,NA,NA,92.28028503562945
54153,Oconto County,WI,78.67036011080333,NA,NA
54166,Shawano County,WI,NA,NA,75.17814726840855
54220,Manitowoc County,WI,NA,NA,7.4821852731591445
54302,Brown County,WI,NA,72.72727272727273,NA
54403,Marathon County,WI,NA,NA,50.95011876484561
54443,Portage County,WI,97.229916897506925,NA,NA
54481,Portage County,WI,NA,NA,60.688836104513065
54495,Wood County,WI,NA,NA,81.82897862232778
54601,La Crosse County,WI,3.8781163434903045,NA,8.432304038004752
54656,Monroe County,WI,42.38227146814405,NA,NA
54660,Monroe County,WI,NA,NA,82.18527315914488
54701,Eau Claire County,WI,NA,NA,49.16864608076009
54703,Eau Claire County,WI,NA,78.78787878787878,25.29691211401425
54758,Trempealeau County,WI,NA,NA,98.93111638954869
54874,Douglas County,WI,98.89196675900277,NA,NA
54915,Outagamie County,WI,NA,61.111111111111114,NA
54944,Outagamie County,WI,86.70360110803324,NA,NA
54956,Winnebago County,WI,6.9252077562326875,NA,NA
82401,Washakie County,WY,NA,NA,90.73634204275535
82718,Campbell County,WY,33.795013850415515,NA,NA
