ZipCode,county,state,Adult,Retirement,Geriatric
35020,Jefferson County,AL,NA,NA,39.361702127659576
35023,Jefferson County,AL,32.62032085561498,NA,NA
35120,St. Clair County,AL,63.71275783040489,NA,NA
35125,St. Clair County,AL,60.27501909854851,NA,NA
35126,Jefferson County,AL,NA,52.80898876404494,NA
35214,Jefferson County,AL,NA,40.12841091492777,NA
35235,Jefferson County,AL,58.670741023682204,NA,NA
35242,Shelby County,AL,NA,12.680577849117174,NA
35549,Walker County,AL,92.51336898395722,NA,NA
35563,Marion County,AL,92.28418640183345,NA,NA
35622,Morgan County,AL,95.33995416348358,NA,NA
35630,Lauderdale County,AL,NA,35.47351524879615,NA
35634,Lauderdale County,AL,88.23529411764706,NA,NA
35674,Colbert County,AL,38.50267379679144,NA,NA
35750,Madison County,AL,62.643239113827356,NA,NA
35758,Madison County,AL,41.711229946524064,NA,NA
35801,Madison County,AL,NA,NA,41.48936170212766
35805,Madison County,AL,47.89915966386555,NA,NA
35903,Etowah County,AL,NA,29.85553772070626,NA
35904,Etowah County,AL,48.20473644003056,NA,NA
35906,Etowah County,AL,90.52711993888465,NA,NA
36078,Elmore County,AL,56.455309396485866,NA,NA
36109,Montgomery County,AL,NA,67.89727126805778,NA
36265,Calhoun County,AL,56.073338426279605,NA,NA
36303,Houston County,AL,NA,41.25200642054575,NA
36330,Coffee County,AL,NA,35.95505617977528,NA
36420,Covington County,AL,82.73491214667685,NA,NA
36421,Covington County,AL,84.03361344537815,NA,NA
36507,Baldwin County,AL,42.93353705118411,NA,NA
36535,Baldwin County,AL,NA,21.669341894060995,NA
36567,Baldwin County,AL,65.69900687547747,NA,NA
36580,Baldwin County,AL,89.91596638655463,NA,NA
36582,Mobile County,AL,51.56608097784569,NA,NA
36608,Mobile County,AL,47.44079449961803,NA,NA
36695,Mobile County,AL,37.203972498090145,NA,NA
36801,Lee County,AL,NA,NA,75.88652482269504
36862,Chambers County,AL,NA,94.54253611556982,NA
99504,Anchorage Municipality,AK,22.994652406417114,NA,NA
99507,Anchorage Municipality,AK,36.36363636363637,NA,NA
99515,Anchorage Municipality,AK,NA,NA,88.65248226950354
99567,Anchorage Municipality,AK,NA,98.3948635634029,NA
99835,Sitka City and Borough,AK,62.94881588999236,NA,NA
85008,Maricopa County,AZ,14.056531703590528,NA,NA
85014,Maricopa County,AZ,NA,90.36918138041734,NA
85017,Maricopa County,AZ,34.988540870893814,NA,NA
85018,Maricopa County,AZ,68.98395721925134,NA,NA
85027,Maricopa County,AZ,45.2253628724217,NA,NA
85029,Maricopa County,AZ,24.598930481283425,NA,NA
85040,Maricopa County,AZ,NA,NA,78.36879432624113
85050,Maricopa County,AZ,58.51795263559969,NA,NA
85051,Maricopa County,AZ,NA,37.56019261637239,NA
85053,Maricopa County,AZ,48.739495798319325,NA,NA
85086,Maricopa County,AZ,NA,42.21508828250401,NA
85122,Pinal County,AZ,NA,NA,27.30496453900709
85128,Pinal County,AZ,NA,60.99518459069021,NA
85138,Pinal County,AZ,42.6279602750191,NA,NA
85143,Pinal County,AZ,39.19022154316272,NA,NA
85202,Maricopa County,AZ,21.237585943468297,NA,NA
85204,Maricopa County,AZ,14.820473644003057,NA,NA
85205,Maricopa County,AZ,NA,NA,23.404255319148938
85206,Maricopa County,AZ,NA,NA,9.574468085106384
85207,Maricopa County,AZ,27.57830404889228,NA,NA
85226,Maricopa County,AZ,57.60122230710466,NA,77.6595744680851
85260,Maricopa County,AZ,NA,NA,22.340425531914892
85296,Maricopa County,AZ,36.134453781512605,NA,NA
85323,Maricopa County,AZ,NA,88.12199036918138,NA
85331,Maricopa County,AZ,NA,NA,62.76595744680851
85338,Maricopa County,AZ,36.74560733384263,NA,NA
85340,Maricopa County,AZ,NA,85.39325842696628,NA
85344,La Paz County,AZ,41.17647058823529,NA,NA
85354,Maricopa County,AZ,NA,98.23434991974318,NA
85375,Maricopa County,AZ,87.39495798319328,NA,NA
85390,Maricopa County,AZ,NA,71.74959871589085,NA
85552,Graham County,AZ,86.09625668449198,NA,NA
85602,Cochise County,AZ,86.32543926661573,NA,NA
85607,Cochise County,AZ,29.106187929717343,NA,NA
85614,Pima County,AZ,NA,19.26163723916533,NA
85615,Cochise County,AZ,NA,84.43017656500803,NA
85635,Cochise County,AZ,61.42093200916731,NA,NA
85650,Cochise County,AZ,83.42245989304813,NA,NA
85701,Pima County,AZ,66.6157372039725,NA,NA
85704,Pima County,AZ,NA,NA,21.98581560283688
85706,Pima County,AZ,NA,8.667736757624397,NA
85710,Pima County,AZ,9.702062643239113,NA,NA
85711,Pima County,AZ,9.62566844919786,NA,NA
85712,Pima County,AZ,NA,46.3884430176565,NA
85719,Pima County,AZ,NA,38.84430176565008,NA
85730,Pima County,AZ,NA,26.324237560192614,NA
85741,Pima County,AZ,NA,82.6645264847512,NA
86005,Coconino County,AZ,53.78151260504202,76.88603531300161,NA
86301,Yavapai County,AZ,NA,29.534510433386842,NA
86303,Yavapai County,AZ,66.23376623376623,NA,NA
86322,Yavapai County,AZ,NA,68.21829855537722,NA
86401,Mohave County,AZ,NA,7.704654895666131,NA
86409,Mohave County,AZ,NA,5.9390048154093105,NA
86426,Mohave County,AZ,81.43621084797556,NA,NA
71655,Drew County,AR,95.26355996944233,NA,NA
71801,Hempstead County,AR,NA,NA,66.31205673758865
71901,Garland County,AR,50.190985485103134,NA,NA
72019,Saline County,AR,74.40794499618029,NA,NA
72023,Lonoke County,AR,63.101604278074866,NA,NA
72212,Pulaski County,AR,NA,69.98394863563404,NA
72401,Craighead County,AR,66.69213139801376,NA,NA
72472,Poinsett County,AR,NA,90.0481540930979,NA
72501,Independence County,AR,NA,NA,29.432624113475175
72601,Boone County,AR,57.83040488922842,NA,NA
72701,Washington County,AR,NA,75.4414125200642,NA
72956,Crawford County,AR,NA,28.08988764044944,NA
90001,Los Angeles County,CA,49.35064935064935,NA,NA
90008,Los Angeles County,CA,NA,80.25682182985554,NA
90011,Los Angeles County,CA,NA,46.54895666131621,NA
90013,Los Angeles County,CA,58.89992360580596,NA,NA
90020,Los Angeles County,CA,NA,57.14285714285714,NA
90026,Los Angeles County,CA,49.73262032085562,NA,NA
90033,Los Angeles County,CA,47.28800611153552,NA,NA
90048,Los Angeles County,CA,79.44996180290298,NA,NA
90220,Los Angeles County,CA,NA,58.42696629213483,NA
90247,Los Angeles County,CA,NA,52.96950240770465,NA
90266,Los Angeles County,CA,64.93506493506493,NA,NA
90301,Los Angeles County,CA,37.89152024446142,NA,NA
90405,Los Angeles County,CA,NA,57.62439807383628,NA
90631,Orange County,CA,38.19709702062643,NA,NA
90650,Los Angeles County,CA,18.181818181818183,NA,NA
90732,Los Angeles County,CA,NA,70.46548956661316,57.446808510638306
90802,Los Angeles County,CA,NA,NA,93.61702127659575
90807,Los Angeles County,CA,54.77463712757831,NA,NA
90815,Los Angeles County,CA,52.94117647058824,NA,NA
91204,Los Angeles County,CA,85.63789152024445,NA,NA
91303,Los Angeles County,CA,85.1031321619557,NA,NA
91307,Los Angeles County,CA,NA,87.64044943820225,NA
91361,Ventura County,CA,NA,67.41573033707866,NA
91402,Los Angeles County,CA,28.418640183346067,NA,NA
91423,Los Angeles County,CA,NA,NA,52.4822695035461
91606,Los Angeles County,CA,NA,89.08507223113965,NA
91730,San Bernardino County,CA,20.55003819709702,NA,NA
91750,Los Angeles County,CA,66.92131398013751,NA,NA
91761,San Bernardino County,CA,25.89763177998472,NA,NA
91766,Los Angeles County,CA,44.0794499618029,NA,NA
91780,Los Angeles County,CA,89.1520244461421,NA,NA
91789,Los Angeles County,CA,85.2559205500382,NA,NA
91790,Los Angeles County,CA,56.22612681436211,NA,NA
91901,San Diego County,CA,88.54087089381207,NA,NA
91913,San Diego County,CA,74.7135217723453,NA,NA
91945,San Diego County,CA,NA,76.08346709470305,NA
92020,San Diego County,CA,58.21237585943469,NA,NA
92021,San Diego County,CA,48.586707410236826,NA,NA
92024,San Diego County,CA,NA,NA,31.560283687943265
92027,San Diego County,CA,77.92207792207793,NA,NA
92028,San Diego County,CA,NA,50.7223113964687,NA
92056,San Diego County,CA,NA,73.35473515248796,NA
92067,San Diego County,CA,NA,NA,65.24822695035462
92069,San Diego County,CA,70.74102368220015,NA,NA
92081,San Diego County,CA,72.57448433919022,NA,58.156028368794324
92101,San Diego County,CA,14.973262032085561,NA,NA
92103,San Diego County,CA,NA,84.75120385232745,NA
92104,San Diego County,CA,NA,36.43659711075441,NA
92106,San Diego County,CA,96.18029029793735,69.18138041733548,NA
92113,San Diego County,CA,25.97402597402597,NA,57.09219858156028
92120,San Diego County,CA,81.05423987776929,NA,NA
92129,San Diego County,CA,61.2681436210848,NA,NA
92173,San Diego County,CA,66.00458365164248,NA,NA
92256,San Bernardino County,CA,NA,99.83948635634029,NA
92260,Riverside County,CA,NA,13.643659711075443,NA
92308,San Bernardino County,CA,NA,27.287319422150887,NA
92324,San Bernardino County,CA,20.932009167303285,NA,NA
92335,San Bernardino County,CA,NA,52.487961476725516,NA
92345,San Bernardino County,CA,10.847975553857907,NA,NA
92376,San Bernardino County,CA,NA,16.53290529695024,NA
92392,San Bernardino County,CA,19.404125286478227,NA,58.51063829787234
92395,San Bernardino County,CA,28.80061115355233,NA,NA
92405,San Bernardino County,CA,NA,NA,94.32624113475178
92407,San Bernardino County,CA,18.105423987776927,NA,NA
92501,Riverside County,CA,80.061115355233,87.1589085072231,NA
92532,Riverside County,CA,71.73414820473644,NA,NA
92543,Riverside County,CA,43.31550802139038,NA,NA
92553,Riverside County,CA,28.342245989304814,NA,NA
92570,Riverside County,CA,NA,46.70947030497592,NA
92571,Riverside County,CA,43.69747899159664,NA,NA
92586,Riverside County,CA,NA,47.512038523274484,NA
92587,Riverside County,CA,NA,90.69020866773675,NA
92595,Riverside County,CA,44.232238349885414,NA,NA
92618,Orange County,CA,88.0061115355233,NA,NA
92646,Orange County,CA,NA,8.346709470304976,6.382978723404255
92657,Orange County,CA,NA,94.86356340288926,NA
92688,Orange County,CA,40.64171122994652,NA,NA
92704,Orange County,CA,35.59969442322384,NA,NA
92705,Orange County,CA,74.10236822001528,NA,NA
92831,Orange County,CA,NA,NA,68.43971631205675
92832,Orange County,CA,59.43468296409473,NA,NA
92840,Orange County,CA,54.316271963330784,NA,NA
92866,Orange County,CA,84.18640183346065,NA,NA
93001,Ventura County,CA,NA,30.01605136436597,NA
93010,Ventura County,CA,NA,NA,9.219858156028367
93023,Ventura County,CA,NA,61.47672552166934,NA
93030,Ventura County,CA,51.33689839572193,NA,NA
93060,Ventura County,CA,40.25974025974026,NA,NA
93308,Kern County,CA,29.793735676088616,NA,NA
93442,San Luis Obispo County,CA,86.17265087853323,NA,NA
93444,San Luis Obispo County,CA,93.353705118411,NA,NA
93446,San Luis Obispo County,CA,28.265851795263558,NA,NA
93465,San Luis Obispo County,CA,81.2070282658518,NA,NA
93535,Los Angeles County,CA,37.35676088617265,NA,NA
93637,Madera County,CA,34.45378151260504,NA,NA
93648,Fresno County,CA,NA,99.03691813804173,NA
93726,Fresno County,CA,22.61268143621085,NA,NA
93906,Monterey County,CA,NA,NA,46.808510638297875
94002,San Mateo County,CA,59.129106187929715,NA,NA
94010,San Mateo County,CA,54.85103132161956,NA,NA
94066,San Mateo County,CA,47.44079449961803,NA,NA
94087,Santa Clara County,CA,80.82505729564554,NA,NA
94089,Santa Clara County,CA,83.34606569900687,NA,NA
94103,San Francisco County,CA,63.78915202444614,54.574638844301774,NA
94109,San Francisco County,CA,NA,11.878009630818621,NA
94110,San Francisco County,CA,13.06340718105424,NA,NA
94117,San Francisco County,CA,NA,NA,74.11347517730496
94124,San Francisco County,CA,26.279602750190982,NA,NA
94509,Contra Costa County,CA,NA,12.520064205457466,NA
94531,Contra Costa County,CA,NA,NA,42.90780141843972
94552,Alameda County,CA,NA,94.3820224719101,NA
94553,Contra Costa County,CA,NA,NA,47.16312056737589
94565,Contra Costa County,CA,22.841864018334608,7.865168539325842,NA
94568,Alameda County,CA,NA,NA,55.319148936170215
94582,Contra Costa County,CA,70.58823529411765,NA,NA
94589,Solano County,CA,62.490450725744836,NA,NA
94590,Solano County,CA,NA,26.80577849117175,NA
94611,Alameda County,CA,64.85867074102369,NA,NA
94618,Alameda County,CA,87.8533231474408,NA,NA
94619,Alameda County,CA,NA,63.08186195826645,NA
94621,Alameda County,CA,34.6829640947288,NA,NA
94703,Alameda County,CA,NA,82.34349919743178,NA
94928,Sonoma County,CA,64.3239113827349,NA,NA
95010,Santa Cruz County,CA,NA,94.0609951845907,NA
95023,San Benito County,CA,29.717341482047367,NA,NA
95120,Santa Clara County,CA,89.76317799847212,NA,NA
95202,San Joaquin County,CA,31.47440794499618,NA,NA
95210,San Joaquin County,CA,NA,NA,71.98581560283688
95240,San Joaquin County,CA,15.889992360580596,NA,NA
95307,Stanislaus County,CA,NA,47.19101123595505,NA
95338,Mariposa County,CA,NA,74.47833065810595,NA
95350,Stanislaus County,CA,NA,49.2776886035313,NA
95351,Stanislaus County,CA,22.15431627196333,NA,NA
95354,Stanislaus County,CA,36.058059587471355,NA,NA
95355,Stanislaus County,CA,NA,NA,26.24113475177305
95363,Stanislaus County,CA,NA,84.26966292134831,NA
95370,Tuolumne County,CA,27.883880825057293,4.654895666131622,NA
95376,San Joaquin County,CA,NA,NA,47.87234042553192
95404,Sonoma County,CA,91.29106187929717,NA,NA
95472,Sonoma County,CA,NA,62.43980738362761,NA
95519,Humboldt County,CA,NA,52.487961476725516,NA
95546,Humboldt County,CA,98.7012987012987,NA,NA
95628,Sacramento County,CA,64.78227654698243,NA,NA
95660,Sacramento County,CA,43.544690603514134,NA,NA
95683,Sacramento County,CA,NA,96.30818619582665,NA
95695,Yolo County,CA,NA,56.5008025682183,67.02127659574468
95811,Sacramento County,CA,97.70817417876242,NA,NA
95816,Sacramento County,CA,56.37891520244461,NA,NA
95818,Sacramento County,CA,93.12452253628724,NA,NA
95820,Sacramento County,CA,54.54545454545454,NA,NA
95823,Sacramento County,CA,12.528647822765471,18.298555377207062,NA
95842,Sacramento County,CA,NA,78.97271268057786,NA
95926,Butte County,CA,68.83116883116884,NA,NA
95928,Butte County,CA,36.82200152788388,NA,NA
95946,Nevada County,CA,92.13139801375095,NA,NA
95954,Butte County,CA,44.614209320091675,NA,NA
95965,Butte County,CA,NA,NA,42.5531914893617
95966,Butte County,CA,40.0305576776165,NA,NA
95969,Butte County,CA,NA,34.99197431781702,NA
95991,Sutter County,CA,NA,37.881219903691814,NA
80002,Jefferson County,CO,NA,82.18298555377207,NA
80003,Jefferson County,CO,NA,58.26645264847512,NA
80012,Arapahoe County,CO,11.688311688311687,NA,NA
80017,Arapahoe County,CO,41.55844155844156,NA,NA
80020,Broomfield County,CO,NA,33.86837881219903,NA
80023,Broomfield County,CO,85.2559205500382,NA,NA
80026,Boulder County,CO,NA,50.24077046548957,NA
80031,Adams County,CO,41.940412528647826,NA,NA
80113,Arapahoe County,CO,62.26126814362109,NA,NA
80128,Jefferson County,CO,62.03208556149733,NA,NA
80138,Douglas County,CO,NA,71.107544141252,NA
80205,Denver County,CO,12.910618792971734,NA,NA
80206,Denver County,CO,NA,69.34189406099517,NA
80207,Denver County,CO,46.6768525592055,NA,NA
80209,Denver County,CO,65.54621848739495,NA,NA
80212,Denver County,CO,NA,75.76243980738363,NA
80216,Denver County,CO,70.9702062643239,NA,NA
80219,Denver County,CO,5.347593582887701,NA,NA
80220,Denver County,CO,37.05118411000764,NA,NA
80223,Denver County,CO,NA,57.62439807383628,NA
80229,Adams County,CO,NA,42.69662921348314,NA
80260,Adams County,CO,NA,63.7239165329053,NA
80401,Jefferson County,CO,40.183346065699006,51.68539325842697,NA
80513,Larimer County,CO,77.6165011459129,NA,NA
80516,Weld County,CO,NA,NA,96.45390070921985
80521,Larimer County,CO,NA,67.25521669341894,NA
80525,Larimer County,CO,15.73720397249809,NA,NA
80620,Weld County,CO,76.47058823529412,NA,NA
80634,Weld County,CO,NA,2.4077046548956664,NA
80909,El Paso County,CO,75.85943468296409,NA,NA
80910,El Paso County,CO,60.962566844919785,NA,NA
80916,El Paso County,CO,39.95416348357525,NA,NA
80922,El Paso County,CO,NA,81.86195826645265,NA
81001,Pueblo County,CO,22.38349885408709,NA,NA
81003,Pueblo County,CO,38.19709702062643,NA,NA
81005,Pueblo County,CO,40.71810542398778,62.76083467094703,NA
81006,Pueblo County,CO,NA,78.330658105939,NA
81212,Fremont County,CO,NA,54.41412520064205,NA
81328,Montezuma County,CO,NA,99.35794542536117,NA
81520,Mesa County,CO,NA,85.23274478330659,NA
81521,Mesa County,CO,71.12299465240642,NA,NA
06002,Hartford County,CT,NA,NA,34.04255319148936
06010,Hartford County,CT,1.757066462948816,NA,NA
06051,Hartford County,CT,NA,18.619582664526487,NA
06053,Hartford County,CT,NA,26.003210272873194,NA
06066,Tolland County,CT,17.87624140565317,NA,NA
06096,Hartford County,CT,81.89457601222307,NA,NA
06105,Hartford County,CT,22.765469824293355,NA,NA
06106,Hartford County,CT,NA,13.48314606741573,NA
06107,Hartford County,CT,NA,NA,53.191489361702125
06112,Hartford County,CT,17.57066462948816,NA,NA
06114,Hartford County,CT,NA,48.47512038523274,NA
06401,New Haven County,CT,32.92589763177998,NA,NA
06405,New Haven County,CT,NA,27.608346709470304,NA
06415,New London County,CT,83.04048892284186,NA,NA
06457,Middlesex County,CT,33.155080213903744,8.98876404494382,38.297872340425535
06460,New Haven County,CT,31.16883116883117,16.211878009630816,NA
06470,Fairfield County,CT,85.4087089381207,NA,NA
06477,New Haven County,CT,91.7494270435447,NA,NA
06479,Hartford County,CT,95.41634835752483,NA,NA
06480,Middlesex County,CT,72.95645530939649,NA,NA
06484,Fairfield County,CT,NA,71.26805778491172,NA
06498,Middlesex County,CT,91.82582123758594,NA,NA
06511,New Haven County,CT,4.889228418640183,NA,NA
06513,New Haven County,CT,22.07792207792208,NA,NA
06516,New Haven County,CT,NA,24.558587479935795,NA
06517,New Haven County,CT,53.62872421695951,NA,NA
06604,Fairfield County,CT,NA,36.75762439807384,NA
06605,Fairfield County,CT,NA,65.48956661316213,NA
06606,Fairfield County,CT,52.25362872421696,NA,NA
06607,Fairfield County,CT,84.11000763941941,NA,NA
06610,Fairfield County,CT,29.335370511841102,NA,NA
06614,Fairfield County,CT,NA,33.386837881219904,NA
06702,New Haven County,CT,86.86019862490451,NA,NA
06708,New Haven County,CT,23.9877769289534,NA,39.00709219858156
06790,Litchfield County,CT,6.5699006875477455,NA,NA
06810,Fairfield County,CT,NA,20.38523274478331,NA
06824,Fairfield County,CT,71.81054239877768,NA,NA
06825,Fairfield County,CT,85.48510313216195,NA,NA
06880,Fairfield County,CT,NA,66.45264847512038,NA
06901,Fairfield County,CT,96.48586707410237,NA,NA
06902,Fairfield County,CT,22.001527883880826,NA,NA
19702,New Castle County,DE,NA,17.97752808988764,NA
19720,New Castle County,DE,2.826585179526356,62.2792937399679,NA
19802,New Castle County,DE,NA,23.434991974317818,NA
19804,New Castle County,DE,30.32849503437739,NA,NA
19943,Kent County,DE,90.22154316271963,NA,NA
19970,Sussex County,DE,NA,62.60032102728732,NA
19973,Sussex County,DE,16.042780748663102,NA,NA
32003,Clay County,FL,NA,53.29052969502408,NA
32043,Clay County,FL,NA,22.150882825040128,NA
32046,Nassau County,FL,NA,91.49277688603532,NA
32055,Columbia County,FL,NA,66.93418940609952,NA
32065,Clay County,FL,45.836516424751714,NA,NA
32073,Clay County,FL,60.198624904507255,NA,19.858156028368796
32091,Bradford County,FL,46.29488158899924,NA,NA
32110,Flagler County,FL,71.27578304048893,NA,NA
32136,Flagler County,FL,93.65928189457601,NA,NA
32137,Flagler County,FL,56.30252100840336,NA,NA
32168,Volusia County,FL,64.55309396485866,NA,NA
32174,Volusia County,FL,49.65622612681436,11.396468699839486,NA
32209,Duval County,FL,4.507257448433919,NA,NA
32217,Duval County,FL,NA,47.03049759229535,NA
32218,Duval County,FL,3.819709702062643,4.49438202247191,NA
32220,Duval County,FL,NA,55.37720706260032,NA
32223,Duval County,FL,73.414820473644,NA,NA
32225,Duval County,FL,31.016042780748666,NA,NA
32333,Gadsden County,FL,95.7983193277311,NA,NA
32347,Taylor County,FL,88.99923605805958,NA,NA
32408,Bay County,FL,75.93582887700535,NA,NA
32435,Walton County,FL,NA,78.00963081861958,NA
32446,Jackson County,FL,66.15737203972498,NA,NA
32448,Jackson County,FL,NA,NA,98.22695035460993
32505,Escambia County,FL,NA,10.112359550561797,NA
32506,Escambia County,FL,NA,NA,13.829787234042554
32526,Escambia County,FL,14.591291061879296,NA,NA
32533,Escambia County,FL,NA,NA,31.20567375886525
32536,Okaloosa County,FL,NA,25.842696629213485,NA
32539,Okaloosa County,FL,43.62108479755539,NA,NA
32571,Santa Rosa County,FL,65.39343009931245,NA,NA
32578,Okaloosa County,FL,56.760886172650885,NA,NA
32641,Alachua County,FL,26.737967914438503,NA,NA
32703,Orange County,FL,24.44614209320092,NA,NA
32708,Seminole County,FL,48.51031321619557,NA,NA
32714,Seminole County,FL,68.44919786096256,NA,NA
32720,Volusia County,FL,NA,NA,28.01418439716312
32724,Volusia County,FL,57.67761650114591,NA,NA
32736,Lake County,FL,NA,NA,80.1418439716312
32763,Volusia County,FL,63.40718105423988,NA,NA
32808,Orange County,FL,15.889992360580596,NA,NA
32812,Orange County,FL,NA,82.5040128410915,NA
32825,Orange County,FL,34.75935828877005,NA,NA
32826,Orange County,FL,NA,98.87640449438202,NA
32837,Orange County,FL,21.695951107715814,NA,NA
32901,Brevard County,FL,59.28189457601223,NA,NA
32904,Brevard County,FL,50.95492742551566,NA,NA
32907,Brevard County,FL,NA,19.42215088282504,NA
32922,Brevard County,FL,52.024446142093204,NA,NA
32927,Brevard County,FL,56.68449197860963,NA,NA
32960,Indian River County,FL,NA,NA,49.645390070921984
33020,Broward County,FL,NA,26.163723916532906,NA
33024,Broward County,FL,31.932773109243694,NA,NA
33027,Broward County,FL,43.46829640947288,NA,NA
33032,Miami-Dade County,FL,74.63712757830405,NA,NA
33065,Broward County,FL,NA,53.45104333868379,NA
33076,Broward County,FL,NA,72.23113964686998,NA
33133,Miami-Dade County,FL,NA,40.77046548956662,NA
33136,Miami-Dade County,FL,53.39954163483576,NA,NA
33140,Miami-Dade County,FL,94.72880061115355,NA,NA
33174,Miami-Dade County,FL,NA,NA,15.602836879432624
33183,Miami-Dade County,FL,80.90145148968678,NA,NA
33185,Miami-Dade County,FL,NA,NA,73.04964539007092
33313,Broward County,FL,NA,42.375601926163725,NA
33323,Broward County,FL,NA,81.38041733547352,NA
33406,Palm Beach County,FL,78.83880825057295,NA,NA
33408,Palm Beach County,FL,NA,72.87319422150883,NA
33410,Palm Beach County,FL,54.163483575248286,NA,NA
33418,Palm Beach County,FL,57.14285714285714,NA,NA
33428,Palm Beach County,FL,39.037433155080215,NA,NA
33433,Palm Beach County,FL,NA,20.545746388443018,NA
33436,Palm Beach County,FL,NA,NA,12.76595744680851
33458,Palm Beach County,FL,NA,NA,26.95035460992908
33461,Palm Beach County,FL,62.10847975553858,NA,NA
33463,Palm Beach County,FL,52.17723453017571,NA,NA
33470,Palm Beach County,FL,67.68525592055003,NA,NA
33477,Palm Beach County,FL,98.01375095492743,NA,NA
33541,Pasco County,FL,NA,75.28089887640449,NA
33547,Hillsborough County,FL,82.8113063407181,NA,NA
33549,Hillsborough County,FL,NA,NA,63.829787234042556
33578,Hillsborough County,FL,37.967914438502675,NA,NA
33592,Hillsborough County,FL,78.53323147440796,NA,NA
33610,Hillsborough County,FL,NA,38.20224719101123,NA
33618,Hillsborough County,FL,78.68601986249045,NA,NA
33701,Pinellas County,FL,50.42016806722689,NA,NA
33707,Pinellas County,FL,NA,30.818619582664525,NA
33709,Pinellas County,FL,53.85790679908327,NA,NA
33714,Pinellas County,FL,NA,73.83627608346708,NA
33756,Pinellas County,FL,48.89228418640184,NA,NA
33759,Pinellas County,FL,NA,80.57784911717496,NA
33764,Pinellas County,FL,NA,49.75922953451043,NA
33774,Pinellas County,FL,74.10236822001528,NA,NA
33777,Pinellas County,FL,80.67226890756302,NA,NA
33782,Pinellas County,FL,NA,52.1669341894061,NA
33785,Pinellas County,FL,99.69442322383499,NA,NA
33805,Polk County,FL,NA,34.51043338683788,NA
33810,Polk County,FL,NA,34.18940609951846,65.95744680851064
33852,Highlands County,FL,NA,NA,4.964539007092199
33860,Polk County,FL,86.86019862490451,NA,NA
33905,Lee County,FL,90.67990832696715,NA,NA
33916,Lee County,FL,41.634835752482815,NA,NA
33917,Lee County,FL,55.15660809778456,NA,NA
34108,Collier County,FL,90.98548510313216,NA,NA
34113,Collier County,FL,83.26967150496563,NA,NA
34209,Manatee County,FL,67.30328495034378,NA,NA
34232,Sarasota County,FL,49.96180290297937,NA,24.46808510638298
34234,Sarasota County,FL,43.9266615737204,NA,NA
34237,Sarasota County,FL,NA,76.24398073836277,NA
34608,Hernando County,FL,NA,49.11717495987159,NA
34613,Hernando County,FL,76.54698242933537,NA,NA
34652,Pasco County,FL,NA,55.53772070626003,NA
34653,Pasco County,FL,65.24064171122996,NA,NA
34655,Pasco County,FL,35.82887700534759,NA,NA
34668,Pasco County,FL,44.38502673796791,21.829855537720707,NA
34683,Pinellas County,FL,NA,NA,50
34690,Pasco County,FL,73.64400305576775,NA,NA
34698,Pinellas County,FL,57.44843391902216,22.47191011235955,NA
34711,Lake County,FL,23.758594346829643,6.099518459069021,NA
34743,Osceola County,FL,50.649350649350644,NA,NA
34747,Osceola County,FL,NA,61.79775280898876,NA
34758,Osceola County,FL,NA,NA,64.53900709219859
34952,St. Lucie County,FL,26.508785332314744,NA,NA
34984,St. Lucie County,FL,58.365164247517185,NA,NA
30019,Gwinnett County,GA,NA,41.41252006420545,NA
30028,Forsyth County,GA,61.80290297937356,NA,NA
30052,Walton County,GA,NA,9.309791332263243,NA
30071,Gwinnett County,GA,87.54774637127578,NA,NA
30078,Gwinnett County,GA,NA,45.90690208667737,NA
30080,Cobb County,GA,NA,63.40288924558587,NA
30087,DeKalb County,GA,NA,21.187800963081862,NA
30092,Gwinnett County,GA,64.70588235294117,NA,NA
30101,Cobb County,GA,77.1581359816654,NA,NA
30102,Cherokee County,GA,50.03819709702063,NA,NA
30106,Cobb County,GA,68.83116883116884,79.93579454253612,NA
30115,Cherokee County,GA,42.55156608097785,NA,NA
30117,Carroll County,GA,NA,33.06581059390048,NA
30127,Cobb County,GA,18.792971734148207,NA,NA
30132,Paulding County,GA,68.37280366692131,NA,NA
30144,Cobb County,GA,NA,50.7223113964687,NA
30157,Paulding County,GA,27.960275019098546,NA,NA
30179,Carroll County,GA,NA,93.90048154093098,NA
30230,Troup County,GA,93.58288770053476,NA,NA
30238,Clayton County,GA,NA,63.56340288924559,NA
30241,Troup County,GA,NA,53.77207062600321,NA
30253,Henry County,GA,27.807486631016044,54.09309791332263,NA
30263,Coweta County,GA,NA,NA,28.723404255319153
30276,Coweta County,GA,91.52024446142093,NA,NA
30281,Henry County,GA,NA,17.81701444622793,NA
30318,Fulton County,GA,NA,30.17656500802568,32.269503546099294
30345,DeKalb County,GA,84.72116119174943,NA,NA
30506,Hall County,GA,65.46982429335371,NA,NA
30533,Lumpkin County,GA,68.22001527883882,NA,NA
30577,Stephens County,GA,76.92895339954163,NA,NA
30605,Clarke County,GA,NA,NA,67.73049645390071
30720,Whitfield County,GA,57.52482811306341,NA,NA
30736,Catoosa County,GA,11.76470588235294,NA,84.39716312056737
30815,Richmond County,GA,NA,NA,54.96453900709219
30909,Richmond County,GA,27.57830404889228,NA,24.822695035460992
31008,Peach County,GA,75.32467532467533,NA,NA
31014,Bleckley County,GA,NA,78.81219903691814,76.24113475177306
31204,Bibb County,GA,67.15049656226127,NA,NA
31320,Liberty County,GA,80.36669213139801,NA,NA
31326,Effingham County,GA,65.62261268143621,NA,NA
31405,Chatham County,GA,NA,39.1653290529695,NA
31501,Ware County,GA,68.52559205500381,NA,NA
31601,Lowndes County,GA,27.19633307868602,NA,NA
31709,Sumter County,GA,NA,81.05939004815409,NA
31730,Mitchell County,GA,81.81818181818183,NA,NA
31904,Muscogee County,GA,33.61344537815126,NA,NA
96741,Kauai County,HI,92.81894576012223,NA,NA
96744,Honolulu County,HI,20.855614973262032,NA,NA
96786,Honolulu County,HI,NA,45.26484751203853,NA
96793,Maui County,HI,NA,68.86035313001605,NA
96813,Honolulu County,HI,NA,NA,42.198581560283685
96816,Honolulu County,HI,81.3598166539343,NA,NA
83201,Bannock County,ID,NA,NA,34.39716312056738
83211,Power County,ID,86.24904507257448,NA,NA
83221,Bingham County,ID,29.488158899923604,18.138041733547354,NA
83301,Twin Falls County,ID,NA,1.4446227929373996,NA
83404,Bonneville County,ID,82.9640947288006,NA,NA
83607,Canyon County,ID,NA,NA,43.97163120567376
83651,Canyon County,ID,18.029029793735678,NA,NA
83843,Latah County,ID,NA,56.98234349919743,NA
83864,Bonner County,ID,NA,53.13001605136437,NA
60002,Lake County,IL,63.86554621848739,NA,NA
60008,Cook County,IL,70.28265851795264,NA,50.35460992907801
60014,McHenry County,IL,26.05042016806723,NA,NA
60033,McHenry County,IL,72.19251336898395,NA,NA
60046,Lake County,IL,41.78762414056531,NA,NA
60064,Lake County,IL,78.15126050420169,NA,NA
60099,Lake County,IL,44.76699770817418,NA,NA
60104,Cook County,IL,43.69747899159664,NA,NA
60123,Kane County,IL,NA,15.730337078651685,NA
60302,Cook County,IL,36.440030557677616,NA,NA
60440,Will County,IL,55.61497326203209,NA,NA
60443,Cook County,IL,NA,38.362760834670944,NA
60445,Cook County,IL,59.35828877005348,NA,NA
60458,Cook County,IL,83.8044308632544,NA,NA
60501,Cook County,IL,96.94423223834988,NA,NA
60516,DuPage County,IL,NA,29.373996789727126,NA
60525,Cook County,IL,NA,NA,11.702127659574469
60532,DuPage County,IL,NA,45.74638844301766,NA
60534,Cook County,IL,94.11764705882352,NA,NA
60542,Kane County,IL,NA,NA,66.31205673758865
60543,Kendall County,IL,39.64858670741024,NA,NA
60563,DuPage County,IL,48.586707410236826,NA,NA
60585,Will County,IL,58.747135217723454,NA,NA
60586,Will County,IL,15.126050420168067,NA,NA
60612,Cook County,IL,54.01069518716578,NA,NA
60615,Cook County,IL,NA,17.014446227929376,NA
60630,Cook County,IL,60.04583651642476,NA,NA
60631,Cook County,IL,34.22459893048128,NA,NA
60638,Cook County,IL,10.313216195569137,NA,NA
60640,Cook County,IL,9.396485867074103,NA,NA
60641,Cook County,IL,13.903743315508022,NA,NA
60643,Cook County,IL,NA,4.815409309791333,6.73758865248227
60644,Cook County,IL,8.55614973262032,NA,NA
60647,Cook County,IL,8.25057295645531,NA,NA
60652,Cook County,IL,30.710466004583655,NA,NA
60660,Cook County,IL,28.647822765469826,NA,NA
60714,Cook County,IL,76.0122230710466,NA,NA
60805,Cook County,IL,74.25515660809778,NA,NA
60915,Kankakee County,IL,NA,64.68699839486356,NA
61081,Whiteside County,IL,NA,14.606741573033707,NA
61101,Winnebago County,IL,50.572956455309395,NA,NA
61102,Winnebago County,IL,NA,59.87158908507223,NA
61107,Winnebago County,IL,NA,72.71268057784911,NA
61111,Winnebago County,IL,NA,56.01926163723917,NA
61114,Winnebago County,IL,NA,NA,43.61702127659575
61462,Warren County,IL,NA,89.40609951845907,NA
61611,Tazewell County,IL,75.40106951871658,NA,NA
61832,Vermilion County,IL,11.153552330022919,NA,NA
62033,Macoupin County,IL,98.16653934300993,NA,NA
62088,Macoupin County,IL,93.43009931245226,NA,NA
62208,St. Clair County,IL,89.53399541634836,NA,NA
62274,Perry County,IL,82.50572956455309,NA,NA
62441,Clark County,IL,NA,NA,93.97163120567376
62526,Macon County,IL,NA,NA,2.8368794326241136
62839,Clay County,IL,NA,83.62760834670947,NA
46032,Hamilton County,IN,NA,NA,21.631205673758867
46052,Boone County,IN,46.142093200916726,NA,NA
46074,Hamilton County,IN,67.60886172650878,NA,NA
46131,Johnson County,IN,32.92589763177998,NA,NA
46158,Morgan County,IN,57.75401069518716,NA,NA
46167,Hendricks County,IN,98.62490450725745,NA,NA
46181,Johnson County,IN,99.083269671504965,NA,NA
46202,Marion County,IN,64.62948815889993,NA,NA
46214,Marion County,IN,60.50420168067227,NA,NA
46221,Marion County,IN,32.085561497326204,NA,NA
46222,Marion County,IN,20.702826585179526,NA,NA
46224,Marion County,IN,33.537051184110005,51.20385232744783,NA
46227,Marion County,IN,38.731856378915204,NA,NA
46239,Marion County,IN,83.65164247517188,NA,NA
46256,Marion County,IN,NA,44.141252006420544,NA
46304,Porter County,IN,13.139801375095491,17.335473515248793,NA
46307,Lake County,IN,NA,2.247191011235955,1.4184397163120568
46311,Lake County,IN,35.21772345301757,NA,NA
46312,Lake County,IN,16.577540106951872,NA,NA
46323,Lake County,IN,21.31398013750955,NA,NA
46341,Porter County,IN,NA,68.37881219903691,NA
46342,Lake County,IN,NA,12.359550561797752,NA
46356,Lake County,IN,NA,34.34991974317817,NA
46368,Porter County,IN,2.6737967914438503,NA,NA
46373,Lake County,IN,NA,37.23916532905297,NA
46375,Lake County,IN,NA,16.853932584269664,NA
46516,Elkhart County,IN,50.87853323147441,NA,NA
46601,St. Joseph County,IN,NA,99.51845906902086,NA
46774,Allen County,IN,63.63636363636363,NA,NA
46807,Allen County,IN,81.13063407181055,65.1685393258427,NA
46901,Howard County,IN,1.9098548510313216,NA,NA
46902,Howard County,IN,20.77922077922078,NA,NA
46952,Grant County,IN,18.869365928189456,NA,NA
46996,Pulaski County,IN,79.29717341482048,NA,NA
47150,Floyd County,IN,40.947288006111535,NA,NA
47302,Delaware County,IN,53.17035905271199,NA,NA
47331,Fayette County,IN,15.278838808250573,NA,NA
47374,Wayne County,IN,23.682200152788386,NA,NA
47404,Monroe County,IN,NA,79.7752808988764,NA
47432,Orange County,IN,99.77081741787624,NA,NA
47446,Lawrence County,IN,70.66462948815891,NA,NA
47460,Owen County,IN,77.7692895339954,NA,NA
47553,Martin County,IN,88.77005347593582,NA,NA
47620,Posey County,IN,NA,67.73675762439807,NA
47711,Vanderburgh County,IN,29.946524064171122,NA,NA
47803,Vigo County,IN,63.94194041252865,NA,NA
50023,Polk County,IA,NA,86.03531300160515,NA
50036,Boone County,IA,NA,NA,20.921985815602838
50131,Polk County,IA,79.9083269671505,NA,NA
50213,Clarke County,IA,80.36669213139801,NA,NA
50310,Polk County,IA,21.92513368983957,NA,NA
50313,Polk County,IA,43.00993124522536,NA,NA
50321,Polk County,IA,91.67303284950343,NA,NA
50327,Polk County,IA,84.33919022154316,NA,NA
50536,Palo Alto County,IA,NA,92.61637239165329,NA
51054,Woodbury County,IA,97.86096256684492,NA,NA
51250,Sioux County,IA,90.29793735676088,NA,NA
51360,Dickinson County,IA,NA,65.97110754414125,NA
51503,Pottawattamie County,IA,9.167303284950345,NA,NA
52302,Linn County,IA,NA,35.15248796147672,NA
52405,Linn County,IA,NA,NA,43.262411347517734
52655,Des Moines County,IA,89.07563025210085,NA,NA
52732,Clinton County,IA,NA,27.447833065810595,NA
52804,Scott County,IA,16.959511077158133,NA,NA
66047,Douglas County,KS,88.92284186401834,NA,NA
66064,Miami County,KS,NA,97.1107544141252,NA
66067,Franklin County,KS,61.11535523300229,NA,NA
66086,Leavenworth County,KS,NA,87.31942215088283,NA
66102,Wyandotte County,KS,55.23300229182582,NA,NA
66104,Wyandotte County,KS,NA,44.301765650080256,NA
66205,Johnson County,KS,NA,NA,73.04964539007092
66212,Johnson County,KS,NA,14.285714285714285,NA
66214,Johnson County,KS,91.36745607333843,NA,NA
66217,Johnson County,KS,97.5553857906799,NA,NA
66436,Jackson County,KS,94.88158899923606,NA,NA
66608,Shawnee County,KS,94.8051948051948,NA,NA
66713,Cherokee County,KS,NA,NA,59.21985815602837
66801,Lyon County,KS,80.59587471352178,NA,NA
67005,Cowley County,KS,NA,78.97271268057786,NA
67205,Sedgwick County,KS,91.9022154316272,92.29534510433388,NA
67211,Sedgwick County,KS,NA,NA,96.80851063829788
67212,Sedgwick County,KS,65.77540106951871,NA,NA
67401,Saline County,KS,NA,21.508828250401287,NA
67456,McPherson County,KS,NA,80.89887640449437,NA
67501,Reno County,KS,70.12987012987013,NA,NA
67801,Ford County,KS,NA,65.1685393258427,NA
40118,Jefferson County,KY,NA,68.69983948635634,NA
40202,Jefferson County,KY,84.64476699770817,NA,NA
40203,Jefferson County,KY,23.14744079449962,NA,NA
40204,Jefferson County,KY,94.11764705882352,NA,NA
40212,Jefferson County,KY,27.043544690603515,NA,NA
40213,Jefferson County,KY,38.044308632543924,NA,NA
40215,Jefferson County,KY,19.556913674560732,NA,NA
40218,Jefferson County,KY,14.209320091673034,NA,NA
40219,Jefferson County,KY,12.987012987012985,NA,NA
40220,Jefferson County,KY,NA,20.224719101123593,NA
40229,Jefferson County,KY,NA,19.58266452648475,NA
40272,Jefferson County,KY,NA,NA,25.886524822695034
40324,Scott County,KY,46.37127578304049,22.953451043338685,NA
40351,Rowan County,KY,NA,51.52487961476726,NA
40353,Montgomery County,KY,22.841864018334608,NA,NA
40380,Powell County,KY,NA,80.57784911717496,NA
40486,Jackson County,KY,NA,99.67897271268058,NA
40504,Fayette County,KY,75.63025210084034,NA,NA
40505,Fayette County,KY,25.13368983957219,NA,NA
40508,Fayette County,KY,36.516424751718866,NA,NA
40515,Fayette County,KY,52.63559969442322,NA,NA
40517,Fayette County,KY,22.15431627196333,NA,NA
40741,Laurel County,KY,NA,41.73354735152488,NA
41008,Carroll County,KY,NA,85.553772070626,NA
41014,Kenton County,KY,55.996944232238356,NA,NA
41015,Kenton County,KY,86.40183346065699,NA,NA
41017,Kenton County,KY,34.07181054239878,NA,NA
41030,Grant County,KY,76.1650114591291,NA,NA
41042,Boone County,KY,27.119938884644768,NA,NA
41048,Boone County,KY,84.72116119174943,NA,NA
41071,Campbell County,KY,63.02521008403361,NA,NA
41076,Campbell County,KY,73.94957983193278,NA,NA
41179,Lewis County,KY,64.01833460656991,NA,NA
41230,Lawrence County,KY,27.19633307868602,NA,NA
41339,Breathitt County,KY,51.10771581359816,NA,NA
42048,Marshall County,KY,98.85408708938121,NA,NA
42103,Warren County,KY,88.38808250572956,NA,NA
42129,Metcalfe County,KY,60.80977845683728,NA,NA
42220,Todd County,KY,88.61726508785333,NA,NA
42303,Daviess County,KY,10.542398777692895,NA,NA
42701,Hardin County,KY,11.9938884644767,NA,NA
70003,Jefferson Parish,LA,34.91214667685256,NA,NA
70030,St. Charles Parish,LA,99.38884644766998,NA,NA
70037,Plaquemines Parish,LA,45.683728036669216,NA,NA
70047,St. Charles Parish,LA,NA,73.19422150882825,NA
70065,Jefferson Parish,LA,4.27807486631016,3.5313001605136436,NA
70072,Jefferson Parish,LA,0.9931245225362872,NA,NA
70094,Jefferson Parish,LA,25.59205500381971,NA,NA
70112,Orleans Parish,LA,44.84339190221543,NA,NA
70114,Orleans Parish,LA,11.077158135981666,NA,NA
70118,Orleans Parish,LA,18.6401833460657,NA,NA
70126,Orleans Parish,LA,6.875477463712758,NA,NA
70360,Terrebonne Parish,LA,11.535523300229181,NA,NA
70394,Lafourche Parish,LA,NA,NA,32.97872340425532
70403,Tangipahoa Parish,LA,64.40030557677616,NA,NA
70420,St. Tammany Parish,LA,72.72727272727273,NA,NA
70433,St. Tammany Parish,LA,NA,NA,2.4822695035460995
70438,Washington Parish,LA,NA,NA,15.24822695035461
70452,St. Tammany Parish,LA,NA,33.22632423756019,NA
70454,Tangipahoa Parish,LA,91.21466768525592,NA,NA
70506,Lafayette Parish,LA,6.493506493506493,NA,NA
70554,Evangeline Parish,LA,77.23453017570665,NA,NA
70570,St. Landry Parish,LA,NA,11.075441412520064,NA
70663,Calcasieu Parish,LA,9.014514896867839,NA,NA
70726,Livingston Parish,LA,1.3750954927425516,NA,NA
70737,Ascension Parish,LA,95.56913674560732,NA,NA
70754,Livingston Parish,LA,NA,88.76404494382022,NA
70764,Iberville Parish,LA,37.05118411000764,NA,NA
70767,West Baton Rouge Parish,LA,NA,73.51524879614767,NA
70791,East Baton Rouge Parish,LA,NA,NA,72.69503546099291
70815,East Baton Rouge Parish,LA,NA,NA,37.5886524822695
70818,East Baton Rouge Parish,LA,NA,95.02407704654897,NA
71037,Bossier Parish,LA,18.487394957983195,NA,NA
71047,Caddo Parish,LA,NA,85.71428571428571,NA
71075,Webster Parish,LA,NA,84.91171749598716,NA
71105,Caddo Parish,LA,42.32238349885409,NA,NA
71111,Bossier Parish,LA,NA,NA,31.914893617021278
71129,Caddo Parish,LA,42.47517188693659,NA,NA
71225,Ouachita Parish,LA,71.88693659281896,NA,NA
71457,Natchitoches Parish,LA,NA,NA,34.751773049645394
04073,York County,ME,NA,NA,13.47517730496454
04240,Androscoggin County,ME,14.514896867838045,NA,NA
04401,Penobscot County,ME,1.8334606569900689,NA,NA
04416,Hancock County,ME,89.4576012223071,NA,NA
04605,Hancock County,ME,76.24140565317036,NA,NA
04756,Aroostook County,ME,NA,NA,63.12056737588653
04769,Aroostook County,ME,64.47669977081742,NA,NA
04938,Franklin County,ME,54.69824293353705,NA,NA
04976,Somerset County,ME,NA,15.08828250401284,NA
20619,St. Mary's County,MD,88.77005347593582,NA,NA
20747,Prince George's County,MD,49.35064935064935,NA,NA
20781,Prince George's County,MD,NA,98.7158908507223,NA
20814,Montgomery County,MD,78.99159663865547,NA,NA
20832,Montgomery County,MD,81.74178762414056,NA,NA
20837,Montgomery County,MD,98.31932773109243,NA,NA
21001,Harford County,MD,65.3170359052712,NA,NA
21037,Anne Arundel County,MD,72.34530175706647,NA,NA
21048,Carroll County,MD,NA,NA,94.68085106382979
21122,Anne Arundel County,MD,8.632543926661572,NA,NA
21207,Baltimore County,MD,NA,24.23756019261637,NA
21215,Baltimore city,MD,8.403361344537815,NA,NA
21216,Baltimore city,MD,83.9572192513369,NA,NA
21220,Baltimore County,MD,69.90068754774637,NA,NA
21222,Baltimore County,MD,NA,2.7287319422150884,NA
21224,Baltimore city,MD,49.50343773873186,NA,NA
21227,Baltimore County,MD,57.29564553093965,NA,29.432624113475175
21229,Baltimore city,MD,NA,19.903691813804173,NA
21502,Allegany County,MD,25.210084033613445,NA,NA
21550,Garrett County,MD,74.25515660809778,NA,NA
21613,Dorchester County,MD,NA,59.22953451043339,NA
21740,Washington County,MD,53.475935828877006,NA,NA
21754,Frederick County,MD,NA,NA,99.29078014184397
21769,Frederick County,MD,NA,95.6661316211878,NA
21788,Frederick County,MD,82.50572956455309,NA,NA
21911,Cecil County,MD,77.54010695187165,NA,NA
01007,Hampshire County,MA,52.86478227654698,NA,NA
01020,Hampden County,MA,NA,97.75280898876404,NA
01030,Hampden County,MA,53.09396485867074,NA,NA
01035,Hampshire County,MA,98.3957219251337,NA,NA
01040,Hampden County,MA,57.98319327731093,0,NA
01056,Hampden County,MA,97.32620320855615,NA,45.39007092198582
01069,Hampden County,MA,30.557677616501145,NA,NA
01077,Hampden County,MA,NA,NA,85.46099290780141
01085,Hampden County,MA,83.19327731092437,NA,NA
01104,Hampden County,MA,79.14438502673798,NA,NA
01105,Hampden County,MA,3.132161955691368,NA,NA
01109,Hampden County,MA,NA,8.186195826645266,NA
01230,Berkshire County,MA,69.82429335370512,NA,NA
01440,Worcester County,MA,1.4514896867838043,NA,NA
01453,Worcester County,MA,0.6875477463712758,NA,NA
01469,Middlesex County,MA,NA,NA,80.49645390070921
01524,Worcester County,MA,75.01909854851031,NA,NA
01536,Worcester County,MA,NA,86.8378812199037,NA
01570,Worcester County,MA,4.660045836516425,NA,NA
01581,Worcester County,MA,NA,56.34028892455859,NA
01585,Worcester County,MA,77.84568372803668,NA,NA
01602,Worcester County,MA,NA,20.706260032102726,20.56737588652482
01609,Worcester County,MA,NA,NA,3.546099290780142
01610,Worcester County,MA,5.576776165011459,NA,NA
01701,Middlesex County,MA,94.04125286478228,NA,NA
01757,Worcester County,MA,47.593582887700535,NA,NA
01760,Middlesex County,MA,39.801375095492745,NA,NA
01824,Middlesex County,MA,9.931245225362872,NA,NA
01830,Essex County,MA,26.43239113827349,NA,NA
01832,Essex County,MA,97.17341482047365,NA,NA
01841,Essex County,MA,NA,0.4815409309791332,NA
01843,Essex County,MA,93.81207028265852,NA,NA
01845,Essex County,MA,29.106187929717343,NA,NA
01851,Middlesex County,MA,94.9579831932773,NA,NA
01852,Middlesex County,MA,NA,1.9261637239165328,NA
01854,Middlesex County,MA,30.481283422459892,NA,NA
01867,Middlesex County,MA,NA,39.807383627608345,NA
01876,Middlesex County,MA,NA,3.210272873194221,NA
01887,Middlesex County,MA,30.6340718105424,NA,NA
01890,Middlesex County,MA,NA,31.942215088282506,NA
01902,Essex County,MA,0.15278838808250572,NA,NA
01905,Essex County,MA,60.65699006875478,NA,NA
01906,Essex County,MA,2.750190985485103,NA,NA
01913,Essex County,MA,61.49732620320856,NA,NA
01915,Essex County,MA,81.66539343009931,NA,NA
01930,Essex County,MA,3.590527119938885,0.9630818619582664,NA
02038,Norfolk County,MA,45.760122230710465,NA,NA
02048,Bristol County,MA,20.626432391138273,NA,NA
02061,Plymouth County,MA,98.09014514896867,NA,NA
02081,Norfolk County,MA,23.22383498854087,NA,NA
02119,Suffolk County,MA,12.070282658517954,NA,NA
02122,Suffolk County,MA,1.145912910618793,NA,NA
02127,Suffolk County,MA,24.904507257448433,NA,NA
02129,Suffolk County,MA,19.327731092436977,NA,NA
02132,Suffolk County,MA,44.46142093200917,NA,3.1914893617021276
02135,Suffolk County,MA,88.31168831168831,NA,NA
02139,Middlesex County,MA,NA,3.3707865168539324,NA
02143,Middlesex County,MA,6.11153552330023,NA,NA
02145,Middlesex County,MA,4.965622612681436,NA,NA
02148,Middlesex County,MA,96.1038961038961,NA,NA
02155,Middlesex County,MA,0.38197097020626436,NA,NA
02169,Norfolk County,MA,79.83193277310924,NA,NA
02170,Norfolk County,MA,NA,9.149277688603531,NA
02184,Norfolk County,MA,6.264323911382736,NA,NA
02186,Norfolk County,MA,NA,NA,18.439716312056735
02189,Norfolk County,MA,24.75171886936593,NA,NA
02301,Plymouth County,MA,0,0.32102728731942215,NA
02302,Plymouth County,MA,0.6111535523300229,NA,NA
02324,Plymouth County,MA,NA,24.077046548956663,NA
02338,Plymouth County,MA,95.72192513368985,NA,NA
02351,Plymouth County,MA,NA,NA,87.58865248226951
02359,Plymouth County,MA,31.62719633307869,NA,NA
02370,Plymouth County,MA,14.896867838044308,NA,NA
02375,Bristol County,MA,99.31245225362872,NA,NA
02382,Plymouth County,MA,27.42551566080978,56.17977528089888,NA
02446,Norfolk County,MA,20.32085561497326,NA,NA
02451,Middlesex County,MA,26.585179526355994,NA,NA
02458,Middlesex County,MA,50.190985485103134,NA,NA
02476,Middlesex County,MA,96.86783804430863,NA,NA
02536,Barnstable County,MA,98.5485103132162,47.99357945425361,NA
02601,Barnstable County,MA,NA,22.953451043338685,NA
02645,Barnstable County,MA,68.22001527883882,NA,NA
02718,Bristol County,MA,81.5126050420168,NA,NA
02720,Bristol County,MA,41.86401833460657,0.8025682182985553,NA
02721,Bristol County,MA,90.83269671504965,NA,NA
02723,Bristol County,MA,2.3682200152788386,NA,NA
02724,Bristol County,MA,3.7433155080213902,NA,NA
02740,Bristol County,MA,7.639419404125286,NA,NA
02744,Bristol County,MA,95.11077158135983,NA,NA
02766,Bristol County,MA,95.49274255156608,NA,NA
02780,Bristol County,MA,20.01527883880825,73.67576243980739,NA
48015,Macomb County,MI,59.74025974025974,NA,NA
48038,Macomb County,MI,13.521772345301757,NA,NA
48042,Macomb County,MI,23.376623376623375,NA,NA
48044,Macomb County,MI,34.53017570664629,NA,NA
48045,Macomb County,MI,26.12681436210848,NA,NA
48047,Macomb County,MI,14.43850267379679,NA,NA
48048,Macomb County,MI,76.24140565317036,NA,NA
48059,St. Clair County,MI,NA,44.78330658105939,NA
48060,St. Clair County,MI,17.79984721161192,6.741573033707865,16.312056737588655
48066,Macomb County,MI,3.437738731856379,NA,NA
48071,Oakland County,MI,76.69977081741789,NA,NA
48088,Macomb County,MI,47.82276546982429,NA,NA
48089,Macomb County,MI,NA,23.434991974317818,NA
48091,Macomb County,MI,7.028265851795264,NA,NA
48092,Macomb County,MI,79.52635599694423,NA,NA
48111,Wayne County,MI,NA,32.263242375601926,NA
48118,Washtenaw County,MI,NA,33.547351524879616,NA
48122,Wayne County,MI,83.11688311688312,NA,NA
48124,Wayne County,MI,55.30939648586708,NA,NA
48146,Wayne County,MI,8.78533231474408,NA,NA
48150,Wayne County,MI,63.33078686019863,NA,NA
48154,Wayne County,MI,25.821237585943468,NA,NA
48160,Washtenaw County,MI,73.87318563789152,NA,NA
48161,Monroe County,MI,7.792207792207792,NA,NA
48169,Livingston County,MI,78.30404889228419,NA,NA
48174,Wayne County,MI,NA,91.65329052969501,NA
48184,Wayne County,MI,49.12146676852559,NA,NA
48185,Wayne County,MI,6.187929717341483,NA,NA
48188,Wayne County,MI,13.139801375095491,NA,NA
48195,Wayne County,MI,25.286478227654698,NA,NA
48198,Washtenaw County,MI,2.291825821237586,NA,NA
48201,Wayne County,MI,85.56149732620321,NA,NA
48203,Wayne County,MI,NA,22.31139646869984,NA
48204,Wayne County,MI,10.771581359816654,NA,NA
48205,Wayne County,MI,21.84873949579832,NA,NA
48211,Wayne County,MI,NA,98.5553772070626,NA
48212,Wayne County,MI,NA,72.07062600321026,NA
48213,Wayne County,MI,11.382734912146677,NA,NA
48219,Wayne County,MI,5.4239877769289535,NA,NA
48221,Wayne County,MI,5.88235294117647,NA,NA
48223,Wayne County,MI,12.681436210847977,NA,NA
48224,Wayne County,MI,58.97631779984721,NA,NA
48227,Wayne County,MI,69.2131398013751,NA,NA
48228,Wayne County,MI,11.611917494270434,NA,NA
48234,Wayne County,MI,NA,14.767255216693421,NA
48235,Wayne County,MI,2.0626432391138274,NA,NA
48237,Oakland County,MI,NA,NA,29.078014184397162
48239,Wayne County,MI,8.938120702826586,NA,NA
48309,Oakland County,MI,36.28724216959511,NA,NA
48314,Macomb County,MI,NA,NA,24.113475177304963
48340,Oakland County,MI,NA,34.831460674157306,NA
48341,Oakland County,MI,87.77692895339955,NA,NA
48342,Oakland County,MI,47.74637127578304,NA,NA
48346,Oakland County,MI,NA,NA,44.680851063829785
48356,Oakland County,MI,97.63177998472116,NA,NA
48359,Oakland County,MI,NA,NA,97.87234042553192
48382,Oakland County,MI,52.10084033613446,NA,NA
48386,Oakland County,MI,64.24751718869366,NA,NA
48423,Genesee County,MI,34.30099312452254,NA,NA
48439,Genesee County,MI,NA,14.446227929373997,NA
48446,Lapeer County,MI,NA,NA,18.085106382978726
48473,Genesee County,MI,46.75324675324675,NA,NA
48503,Genesee County,MI,52.94117647058824,NA,NA
48504,Genesee County,MI,NA,NA,52.12765957446809
48505,Genesee County,MI,18.33460656990069,55.53772070626003,NA
48506,Genesee County,MI,60.58059587471352,NA,NA
48507,Genesee County,MI,10.466004583651642,NA,NA
48529,Genesee County,MI,93.5064935064935,NA,NA
48601,Saginaw County,MI,1.6042780748663104,NA,NA
48602,Saginaw County,MI,20.168067226890756,NA,NA
48604,Saginaw County,MI,59.205500381970964,NA,NA
48626,Saginaw County,MI,NA,77.20706260032102,NA
48708,Bay County,MI,8.097784568372804,NA,NA
48732,Bay County,MI,NA,NA,53.90070921985816
48801,Gratiot County,MI,50.49656226126814,NA,32.269503546099294
48838,Montcalm County,MI,66.46294881588999,NA,NA
48858,Isabella County,MI,NA,7.062600321027287,8.156028368794328
48906,Ingham County,MI,12.834224598930483,NA,NA
48910,Ingham County,MI,NA,13.001605136436597,NA
48911,Ingham County,MI,30.02291825821238,NA,NA
48917,Eaton County,MI,36.59281894576012,NA,NA
49001,Kalamazoo County,MI,82.35294117647058,NA,NA
49009,Kalamazoo County,MI,44.537815126050425,NA,10.99290780141844
49017,Calhoun County,MI,32.16195569136745,NA,NA
49022,Berrien County,MI,10.38961038961039,NA,NA
49048,Kalamazoo County,MI,17.723453017570666,NA,NA
49065,Van Buren County,MI,77.31092436974791,NA,NA
49083,Kalamazoo County,MI,87.16577540106952,NA,NA
49090,Van Buren County,MI,60.886172650878535,NA,NA
49091,St. Joseph County,MI,47.9755538579068,NA,NA
49098,Berrien County,MI,91.44385026737967,NA,NA
49203,Jackson County,MI,7.944996180290298,NA,NA
49247,Lenawee County,MI,74.78991596638656,NA,NA
49329,Montcalm County,MI,NA,69.34189406099517,NA
49331,Kent County,MI,NA,43.17817014446228,NA
49423,Ottawa County,MI,12.146676852559207,NA,NA
49428,Ottawa County,MI,55.46218487394958,NA,NA
49504,Kent County,MI,NA,12.841091492776885,7.092198581560284
49651,Missaukee County,MI,NA,NA,65.60283687943263
49686,Grand Traverse County,MI,NA,64.84751203852326,NA
49690,Grand Traverse County,MI,NA,95.50561797752809,NA
49740,Emmet County,MI,93.27731092436974,66.6131621187801,NA
49802,Dickinson County,MI,NA,NA,72.3404255319149
49868,Luce County,MI,NA,NA,69.50354609929079
49870,Dickinson County,MI,99.54163483575248,NA,NA
55008,Isanti County,MN,73.72039724980901,NA,NA
55016,Washington County,MN,44.690603514132924,NA,NA
55024,Dakota County,MN,NA,91.17174959871589,NA
55038,Washington County,MN,82.8113063407181,NA,NA
55060,Steele County,MN,40.48892284186402,NA,NA
55068,Dakota County,MN,66.99770817417875,NA,NA
55101,Ramsey County,MN,35.9816653934301,NA,NA
55102,Ramsey County,MN,79.06799083269671,39.64686998394863,NA
55106,Ramsey County,MN,7.104660045836517,NA,NA
55109,Ramsey County,MN,NA,28.57142857142857,NA
55110,Ramsey County,MN,NA,37.7207062600321,NA
55117,Ramsey County,MN,16.424751718869366,NA,NA
55119,Ramsey County,MN,NA,NA,40.42553191489361
55122,Dakota County,MN,95.03437738731857,NA,NA
55125,Washington County,MN,73.49121466768526,50.40128410914928,NA
55302,Wright County,MN,96.71504965622613,NA,NA
55313,Wright County,MN,58.288770053475936,NA,NA
55343,Hennepin County,MN,NA,41.41252006420545,NA
55345,Hennepin County,MN,NA,76.72552166934189,NA
55369,Hennepin County,MN,NA,NA,64.8936170212766
55379,Scott County,MN,62.18487394957983,45.90690208667737,NA
55403,Hennepin County,MN,NA,89.8876404494382,NA
55404,Hennepin County,MN,0.9167303284950344,4.333868378812198,NA
55405,Hennepin County,MN,39.57219251336899,NA,NA
55409,Hennepin County,MN,74.94270435446906,NA,NA
55411,Hennepin County,MN,NA,86.9983948635634,NA
55412,Hennepin County,MN,9.549274255156607,NA,NA
55417,Hennepin County,MN,79.22077922077922,NA,NA
55421,Anoka County,MN,21.543162719633308,NA,41.13475177304964
55422,Hennepin County,MN,NA,42.0545746388443,NA
55426,Hennepin County,MN,NA,39.00481540930979,NA
55427,Hennepin County,MN,NA,92.45585874799357,NA
55429,Hennepin County,MN,NA,40.6099518459069,NA
55430,Hennepin County,MN,52.78838808250573,NA,NA
55432,Anoka County,MN,59.052711993888465,NA,NA
55433,Anoka County,MN,70.05347593582889,NA,NA
55744,Itasca County,MN,NA,NA,3.900709219858156
55902,Olmsted County,MN,NA,64.84751203852326,NA
55912,Mower County,MN,7.257448433919023,NA,NA
56320,Stearns County,MN,97.40259740259741,NA,NA
56444,Crow Wing County,MN,97.02062643239114,NA,NA
56560,Clay County,MN,12.757830404889228,5.457463884430177,NA
56716,Polk County,MN,33.460656990068756,NA,NA
38632,DeSoto County,MS,53.32314744079451,NA,NA
38637,DeSoto County,MS,51.94805194805194,NA,NA
38652,Union County,MS,NA,77.68860353130016,NA
38863,Pontotoc County,MS,67.30328495034378,NA,NA
39042,Rankin County,MS,36.97478991596639,29.69502407704655,NA
39120,Adams County,MS,NA,NA,44.32624113475177
39209,Hinds County,MS,24.52253628724217,NA,NA
39213,Hinds County,MS,NA,53.6115569823435,NA
39305,Lauderdale County,MS,NA,56.66131621187801,NA
39339,Winston County,MS,74.48433919022153,NA,NA
39401,Forrest County,MS,34.37738731856379,NA,30.851063829787233
39466,Pearl River County,MS,27.501909854851032,NA,NA
39470,Pearl River County,MS,NA,78.00963081861958,NA
39560,Harrison County,MS,NA,9.630818619582666,NA
39564,Jackson County,MS,35.90527119938884,NA,NA
63011,St. Louis County,MO,74.02597402597402,NA,NA
63026,St. Louis County,MO,39.037433155080215,NA,NA
63074,St. Louis County,MO,NA,NA,80.85106382978722
63111,St. Louis city,MO,82.35294117647058,NA,NA
63115,St. Louis city,MO,NA,56.82182985553772,NA
63116,St. Louis city,MO,NA,88.60353130016051,NA
63125,St. Louis County,MO,75.09549274255156,NA,NA
63128,St. Louis County,MO,75.09549274255156,NA,NA
63129,St. Louis County,MO,48.1283422459893,NA,NA
63134,St. Louis County,MO,NA,NA,68.08510638297872
63139,St. Louis city,MO,NA,70.62600321027287,NA
63601,St. Francois County,MO,46.90603514132926,NA,NA
63841,Stoddard County,MO,53.85790679908327,77.84911717495987,NA
63857,Dunklin County,MO,NA,86.67736757624398,NA
63901,Butler County,MO,14.132925897631779,NA,NA
63933,Dunklin County,MO,98.93048128342245,NA,NA
64015,Jackson County,MO,13.59816653934301,NA,NA
64052,Jackson County,MO,11.000763941940413,NA,NA
64056,Jackson County,MO,NA,57.46388443017657,NA
64080,Cass County,MO,NA,79.45425361155698,NA
64082,Jackson County,MO,NA,80.41733547351525,NA
64093,Johnson County,MO,NA,35.79454253611557,NA
64114,Jackson County,MO,38.8846447669977,NA,33.687943262411345
64116,Clay County,MO,25.744843391902215,NA,NA
64117,Clay County,MO,NA,81.70144462279293,NA
64119,Clay County,MO,60.65699006875478,NA,NA
64133,Jackson County,MO,4.354469060351414,NA,NA
64134,Jackson County,MO,13.445378151260504,NA,NA
64801,Jasper County,MO,13.674560733384263,NA,NA
64870,Jasper County,MO,NA,NA,74.822695035461
65201,Boone County,MO,NA,65.65008025682182,NA
65202,Boone County,MO,NA,NA,14.539007092198581
65270,Randolph County,MO,NA,NA,64.18439716312056
65401,Phelps County,MO,41.02368220015279,NA,NA
65608,Douglas County,MO,NA,86.35634028892456,NA
65616,Taney County,MO,70.89381207028266,NA,NA
65625,Barry County,MO,89.38120702826585,NA,NA
65672,Taney County,MO,94.57601222307105,NA,NA
65737,Stone County,MO,NA,65.81059390048154,NA
65802,Greene County,MO,11.459129106187929,NA,NA
65803,Greene County,MO,39.72498090145149,NA,NA
65804,Greene County,MO,31.398013750954927,NA,NA
65807,Greene County,MO,28.87700534759358,NA,5.319148936170213
65810,Greene County,MO,89.6103896103896,NA,NA
59072,Musselshell County,MT,NA,92.776886035313,NA
59101,Yellowstone County,MT,NA,NA,11.347517730496454
59602,Lewis and Clark County,MT,NA,31.13964686998395,NA
59722,Powell County,MT,99.23605805958748,NA,NA
59860,Lake County,MT,NA,82.02247191011236,NA
68046,Sarpy County,NE,68.0672268907563,NA,NA
68127,Douglas County,NE,69.28953399541635,NA,NA
68803,Hall County,NE,71.65775401069519,NA,55.673758865248224
68847,Buffalo County,NE,80.51948051948052,NA,NA
69101,Lincoln County,NE,NA,NA,10.28368794326241
89101,Clark County,NV,29.87012987012987,NA,54.60992907801418
89103,Clark County,NV,NA,59.3900481540931,NA
89118,Clark County,NV,NA,NA,92.5531914893617
89431,Washoe County,NV,72.88006111535523,NA,NA
89434,Washoe County,NV,47.13521772345302,NA,NA
89502,Washoe County,NV,NA,NA,74.11347517730496
89503,Washoe County,NV,NA,43.4991974317817,NA
89509,Washoe County,NV,52.711993888464484,NA,NA
89706,Carson City,NV,NA,74.95987158908507,NA
03038,Rockingham County,NH,13.292589763177997,NA,NA
03045,Hillsborough County,NH,NA,74.31781701444623,NA
03051,Hillsborough County,NH,24.216959511077157,NA,NA
03053,Rockingham County,NH,NA,23.756019261637242,NA
03110,Hillsborough County,NH,NA,NA,12.411347517730496
03281,Hillsborough County,NH,79.29717341482048,NA,NA
03842,Rockingham County,NH,72.49809014514896,NA,NA
03862,Rockingham County,NH,NA,NA,93.26241134751773
03874,Rockingham County,NH,49.809014514896866,NA,NA
07003,Essex County,NJ,10.084033613445378,NA,NA
07017,Essex County,NJ,NA,14.92776886035313,NA
07054,Morris County,NJ,54.621848739495796,NA,NA
07059,Somerset County,NJ,86.63101604278076,NA,NA
07095,Middlesex County,NJ,42.70435446906035,NA,NA
07102,Essex County,NJ,33.30786860198625,NA,NA
07103,Essex County,NJ,NA,2.086677367576244,NA
07104,Essex County,NJ,15.049656226126814,NA,NA
07106,Essex County,NJ,5.042016806722689,NA,NA
07107,Essex County,NJ,10.618792971734148,6.5810593900481535,NA
07206,Union County,NJ,NA,35.313001605136435,NA
07461,Sussex County,NJ,43.086325439266616,NA,NA
07734,Monmouth County,NJ,95.18716577540107,NA,NA
07747,Monmouth County,NJ,NA,NA,59.57446808510638
07843,Sussex County,NJ,71.88693659281896,NA,NA
07871,Sussex County,NJ,59.43468296409473,NA,NA
07876,Morris County,NJ,92.74255156608098,NA,NA
07882,Warren County,NJ,55.003819709702064,NA,NA
07920,Somerset County,NJ,85.02673796791443,NA,NA
07960,Morris County,NJ,20.091673032849503,NA,NA
08003,Camden County,NJ,61.87929717341481,NA,NA
08016,Burlington County,NJ,NA,25.36115569823435,NA
08021,Camden County,NJ,3.361344537815126,98.07383627608347,NA
08030,Camden County,NJ,22.536287242169596,NA,NA
08037,Atlantic County,NJ,16.195569136745608,NA,NA
08046,Burlington County,NJ,28.49503437738732,NA,NA
08048,Burlington County,NJ,65.01145912910619,NA,NA
08051,Gloucester County,NJ,61.726508785332314,NA,NA
08052,Burlington County,NJ,29.106187929717343,NA,NA
08053,Burlington County,NJ,NA,NA,14.184397163120568
08059,Camden County,NJ,52.33002291825821,NA,NA
08075,Burlington County,NJ,NA,29.052969502407706,NA
08081,Camden County,NJ,1.2987012987012987,NA,NA
08087,Ocean County,NJ,86.707410236822,NA,NA
08088,Burlington County,NJ,50.72574484339191,NA,NA
08096,Gloucester County,NJ,NA,8.667736757624397,NA
08102,Camden County,NJ,NA,66.13162118780096,NA
08103,Camden County,NJ,4.81283422459893,NA,NA
08242,Cape May County,NJ,NA,75.76243980738363,NA
08244,Atlantic County,NJ,90.75630252100841,NA,NA
08270,Cape May County,NJ,NA,100,NA
08302,Cumberland County,NJ,NA,9.951845906902086,NA
08322,Gloucester County,NJ,57.37203972498091,NA,NA
08330,Atlantic County,NJ,30.099312452253628,NA,NA
08360,Cumberland County,NJ,7.18105423987777,NA,NA
08401,Atlantic County,NJ,NA,3.8523274478330656,NA
08505,Burlington County,NJ,NA,59.55056179775281,NA
08520,Mercer County,NJ,99.00687547746372,NA,NA
08535,Monmouth County,NJ,NA,NA,99.64539007092199
08610,Mercer County,NJ,32.54392666157372,NA,NA
08691,Mercer County,NJ,NA,NA,89.00709219858156
08723,Ocean County,NJ,66.99770817417875,NA,NA
08724,Ocean County,NJ,10.007639419404125,NA,NA
08742,Ocean County,NJ,31.70359052711994,NA,NA
08751,Ocean County,NJ,80.67226890756302,NA,NA
08759,Ocean County,NJ,96.2566844919786,1.7656500802568218,NA
08824,Middlesex County,NJ,97.93735676088617,NA,NA
08852,Middlesex County,NJ,82.20015278838808,NA,NA
08861,Middlesex County,NJ,NA,NA,19.148936170212767
08879,Middlesex County,NJ,NA,NA,71.27659574468085
08902,Middlesex County,NJ,NA,NA,73.75886524822694
87031,Valencia County,NM,30.17570664629488,70.14446227929373,NA
87109,Bernalillo County,NM,NA,73.99678972712681,NA
87120,Bernalillo County,NM,NA,13.162118780096307,NA
87317,McKinley County,NM,NA,NA,100
87413,San Juan County,NM,NA,57.30337078651685,NA
87505,Santa Fe County,NM,5.500381970970206,NA,NA
87506,Santa Fe County,NM,NA,48.635634028892454,NA
87507,Santa Fe County,NM,35.294117647058826,NA,NA
87532,Santa Fe County,NM,72.11611917494271,NA,NA
88012,Doa Ana County,NM,68.67838044308633,NA,NA
88201,Chaves County,NM,NA,37.23916532905297,NA
88240,Lea County,NM,NA,17.656500802568218,NA
10003,New York County,NY,55.69136745607334,NA,NA
10014,New York County,NY,87.8533231474408,58.10593900481541,NA
10027,New York County,NY,5.118411000763942,NA,NA
10031,New York County,NY,8.861726508785333,NA,NA
10036,New York County,NY,41.252864782276546,NA,NA
10040,New York County,NY,35.064935064935064,NA,NA
10303,Richmond County,NY,NA,82.8250401284109,NA
10314,Richmond County,NY,NA,NA,4.25531914893617
10451,Bronx County,NY,NA,32.42375601926163,NA
10452,Bronx County,NY,6.722689075630252,NA,NA
10459,Bronx County,NY,5.271199388846448,NA,25.177304964539005
10462,Bronx County,NY,6.951871657754011,NA,NA
10466,Bronx County,NY,22.689075630252102,2.568218298555377,NA
10467,Bronx County,NY,0.30557677616501144,NA,NA
10468,Bronx County,NY,1.06951871657754,NA,NA
10469,Bronx County,NY,18.41100076394194,NA,NA
10474,Bronx County,NY,61.34453781512605,NA,NA
10541,Putnam County,NY,NA,78.49117174959872,NA
10543,Westchester County,NY,71.58135981665393,NA,NA
10591,Westchester County,NY,NA,NA,63.47517730496454
10701,Westchester County,NY,1.2223071046600458,5.136436597110754,NA
10703,Westchester County,NY,40.106951871657756,71.42857142857143,NA
10704,Westchester County,NY,71.19938884644768,NA,NA
10940,Orange County,NY,16.80672268907563,NA,NA
10977,Rockland County,NY,NA,60.67415730337079,NA
10992,Orange County,NY,99.61802902979373,NA,NA
11010,Nassau County,NY,NA,93.73996789727127,NA
11050,Nassau County,NY,NA,57.9454253611557,NA
11103,Queens County,NY,NA,NA,79.07801418439716
11205,Kings County,NY,12.605042016806722,NA,NA
11208,Kings County,NY,8.479755538579067,NA,NA
11211,Kings County,NY,NA,18.45906902086677,NA
11212,Kings County,NY,0.4583651642475172,21.990369181380416,NA
11214,Kings County,NY,49.19786096256685,NA,NA
11216,Kings County,NY,78.91520244461421,NA,NA
11221,Kings County,NY,17.417876241405654,NA,NA
11223,Kings County,NY,NA,NA,4.609929078014184
11229,Kings County,NY,86.5546218487395,NA,NA
11235,Kings County,NY,NA,NA,0.7092198581560284
11236,Kings County,NY,21.466768525592055,NA,NA
11239,Kings County,NY,89.99236058059587,NA,NA
11364,Queens County,NY,77.69289533995416,NA,NA
11367,Queens County,NY,49.2742551566081,NA,NA
11379,Queens County,NY,84.2627960275019,NA,NA
11419,Queens County,NY,85.86707410236822,NA,NA
11421,Queens County,NY,NA,58.42696629213483,NA
11435,Queens County,NY,NA,74.63884430176564,NA
11552,Nassau County,NY,95.64553093964858,NA,NA
11566,Nassau County,NY,NA,NA,47.5177304964539
11598,Nassau County,NY,98.77769289533995,NA,NA
11691,Queens County,NY,35.44690603514133,7.3836276083467105,NA
11702,Suffolk County,NY,96.02750190985485,NA,NA
11703,Suffolk County,NY,91.06187929717342,NA,NA
11713,Suffolk County,NY,87.39495798319328,NA,NA
11722,Suffolk County,NY,24.06417112299465,NA,NA
11725,Suffolk County,NY,87.70053475935828,NA,NA
11751,Suffolk County,NY,97.2498090145149,NA,NA
11768,Suffolk County,NY,92.58976317799848,NA,NA
11772,Suffolk County,NY,33.919022154316266,NA,NA
11776,Suffolk County,NY,59.58747135217723,NA,NA
11778,Suffolk County,NY,NA,NA,92.19858156028369
11779,Suffolk County,NY,73.10924369747899,NA,NA
11798,Suffolk County,NY,79.98472116119176,NA,NA
12010,Montgomery County,NY,5.653170359052712,NA,NA
12078,Fulton County,NY,4.4308632543926665,NA,NA
12090,Rensselaer County,NY,67.99083269671506,NA,NA
12203,Albany County,NY,41.40565317035905,NA,NA
12205,Albany County,NY,56.455309396485866,NA,NA
12401,Ulster County,NY,21.390374331550802,45.585874799357946,33.33333333333333
12413,Greene County,NY,NA,82.98555377207063,NA
12508,Dutchess County,NY,93.88846447669977,NA,NA
12550,Orange County,NY,33.99541634835753,NA,NA
12754,Sullivan County,NY,NA,94.70304975922953,NA
12828,Washington County,NY,74.8663101604278,NA,NA
12833,Saratoga County,NY,91.59663865546219,NA,NA
12866,Saratoga County,NY,NA,NA,7.446808510638298
12901,Clinton County,NY,3.2085561497326207,NA,NA
13027,Onondaga County,NY,NA,53.93258426966292,45.744680851063826
13066,Onondaga County,NY,69.44232238349886,NA,NA
13073,Tompkins County,NY,NA,72.3916532905297,NA
13159,Onondaga County,NY,89.1520244461421,NA,NA
13208,Onondaga County,NY,12.452253628724216,NA,NA
13350,Herkimer County,NY,37.58594346829641,NA,NA
13357,Herkimer County,NY,38.655462184873954,NA,NA
13460,Chenango County,NY,52.406417112299465,NA,NA
13605,Jefferson County,NY,NA,88.28250401284109,NA
13661,Jefferson County,NY,99.92360580595874,NA,NA
13662,St. Lawrence County,NY,8.0213903743315509,NA,NA
13736,Tioga County,NY,97.0970206264324,NA,NA
13760,Broome County,NY,0.53475935828877,NA,NA
13830,Chenango County,NY,67.76165011459129,NA,NA
13901,Broome County,NY,3.896103896103896,5.296950240770466,NA
14001,Erie County,NY,72.57448433919022,NA,NA
14032,Erie County,NY,NA,97.59229534510433,NA
14047,Erie County,NY,NA,NA,98.22695035460993
14048,Chautauqua County,NY,40.41252864782277,NA,NA
14051,Erie County,NY,NA,47.99357945425361,NA
14059,Erie County,NY,NA,NA,85.81560283687944
14067,Niagara County,NY,81.97097020626433,NA,NA
14072,Erie County,NY,44.919786096256686,NA,NA
14092,Niagara County,NY,NA,47.351524879614765,NA
14108,Niagara County,NY,59.9694423223835,NA,NA
14120,Niagara County,NY,4.736440030557677,NA,NA
14127,Erie County,NY,15.431627196333078,NA,NA
14207,Erie County,NY,8.326967150496563,NA,NA
14210,Erie County,NY,27.349121466768526,NA,NA
14214,Erie County,NY,NA,43.82022471910113,NA
14218,Erie County,NY,19.25133689839572,NA,NA
14222,Erie County,NY,NA,71.91011235955057,NA
14224,Erie County,NY,NA,8.507223113964688,NA
14227,Erie County,NY,25.439266615737203,NA,NA
14228,Erie County,NY,48.96867838044309,NA,NA
14414,Livingston County,NY,65.16424751718868,NA,NA
14424,Ontario County,NY,NA,1.1235955056179776,NA
14485,Livingston County,NY,82.04736440030558,NA,NA
14589,Wayne County,NY,37.66233766233766,NA,NA
14610,Monroe County,NY,31.550802139037433,NA,NA
14616,Monroe County,NY,17.95263559969442,NA,NA
14626,Monroe County,NY,3.055767761650115,NA,5.673758865248227
14701,Chautauqua County,NY,2.9029793735676086,NA,NA
14710,Chautauqua County,NY,96.56226126814363,NA,NA
14739,Allegany County,NY,NA,97.43178170144462,NA
14801,Steuben County,NY,77.08174178762414,NA,NA
14830,Steuben County,NY,24.980901451489686,NA,46.45390070921986
14901,Chemung County,NY,79.67914438502673,NA,NA
14904,Chemung County,NY,28.72421695951108,NA,NA
27012,Forsyth County,NC,32.314744079449966,4.975922953451043,6.028368794326241
27043,Stokes County,NC,NA,NA,70.56737588652481
27055,Yadkin County,NC,NA,46.22792937399679,NA
27105,Forsyth County,NC,2.13903743315508,NA,NA
27106,Forsyth County,NC,NA,4.173354735152488,NA
27107,Forsyth County,NC,4.201680672268908,NA,NA
27127,Forsyth County,NC,NA,5.617977528089887,NA
27217,Alamance County,NC,13.292589763177997,NA,NA
27260,Guilford County,NC,23.834988540870896,NA,NA
27265,Guilford County,NC,20.473644003055767,NA,NA
27278,Orange County,NC,23.300229182582125,NA,NA
27288,Rockingham County,NC,13.82734912146677,NA,NA
27292,Davidson County,NC,4.583651642475172,1.2841091492776886,NA
27302,Alamance County,NC,NA,NA,25.53191489361702
27370,Randolph County,NC,73.72039724980901,62.92134831460674,NA
27371,Montgomery County,NC,NA,88.4430176565008,NA
27509,Granville County,NC,NA,NA,89.36170212765957
27529,Wake County,NC,NA,15.890850722311397,NA
27540,Wake County,NC,76.77616501145913,NA,NA
27549,Franklin County,NC,NA,32.42375601926163,NA
27569,Johnston County,NC,75.70664629488158,NA,NA
27587,Wake County,NC,NA,NA,76.95035460992908
27591,Wake County,NC,NA,58.90850722311396,NA
27596,Franklin County,NC,66.53934300993124,66.29213483146067,81.56028368794325
27603,Wake County,NC,22.994652406417114,NA,NA
27712,Durham County,NC,72.34530175706647,NA,NA
27822,Wilson County,NC,NA,91.97431781701445,NA
27858,Pitt County,NC,26.814362108479756,NA,NA
27882,Nash County,NC,87.31856378915202,NA,NA
27948,Dare County,NC,NA,NA,92.90780141843972
28036,Mecklenburg County,NC,84.56837280366692,NA,NA
28043,Rutherford County,NC,NA,40.28892455858748,NA
28054,Gaston County,NC,NA,26.64526484751204,NA
28092,Lincoln County,NC,23.911382734912145,NA,NA
28164,Gaston County,NC,94.6524064171123,NA,NA
28206,Mecklenburg County,NC,44.00305576776165,NA,NA
28208,Mecklenburg County,NC,NA,NA,41.843971631205676
28210,Mecklenburg County,NC,NA,60.03210272873194,30.141843971631204
28212,Mecklenburg County,NC,NA,59.069020866773684,NA
28215,Mecklenburg County,NC,15.508021390374333,NA,NA
28270,Mecklenburg County,NC,63.177998472116116,NA,NA
28278,Mecklenburg County,NC,NA,NA,86.52482269503547
28312,Cumberland County,NC,NA,NA,79.7872340425532
28314,Cumberland County,NC,32.69671504965623,NA,NA
28315,Moore County,NC,93.2009167303285,NA,NA
28320,Bladen County,NC,75.70664629488158,NA,NA
28328,Sampson County,NC,38.34988540870894,NA,NA
28348,Cumberland County,NC,NA,39.48635634028893,NA
28358,Robeson County,NC,16.50114591291062,28.892455858747994,NA
28379,Richmond County,NC,NA,26.484751203852326,NA
28387,Moore County,NC,NA,NA,48.58156028368794
28401,New Hanover County,NC,10.92436974789916,NA,NA
28405,New Hanover County,NC,NA,30.658105939004816,NA
28409,New Hanover County,NC,42.780748663101605,16.37239165329053,NA
28425,Pender County,NC,NA,NA,83.68794326241135
28472,Columbus County,NC,NA,44.62279293739968,NA
28513,Pitt County,NC,NA,NA,95.39007092198581
28516,Carteret County,NC,NA,60.19261637239165,74.822695035461
28525,Lenoir County,NC,99.8472116119175,NA,NA
28540,Onslow County,NC,NA,25.68218298555377,NA
28562,Craven County,NC,NA,NA,12.056737588652481
28570,Carteret County,NC,55.767761650114586,NA,86.87943262411348
28607,Watauga County,NC,NA,37.07865168539326,NA
28636,Alexander County,NC,NA,96.14767255216692,NA
28638,Caldwell County,NC,NA,70.9470304975923,NA
28640,Ashe County,NC,96.79144385026738,NA,NA
28645,Caldwell County,NC,NA,0.6420545746388443,NA
28659,Wilkes County,NC,NA,27.12680577849117,NA
28677,Iredell County,NC,NA,19.743178170144464,NA
28697,Wilkes County,NC,NA,59.71107544141252,NA
28715,Buncombe County,NC,NA,50.56179775280899,NA
28716,Haywood County,NC,NA,NA,44.680851063829785
28731,Henderson County,NC,NA,51.84590690208668,NA
28734,Macon County,NC,NA,8.025682182985554,NA
28748,Buncombe County,NC,NA,89.56661316211878,NA
28768,Transylvania County,NC,87.62414056531703,NA,NA
28786,Haywood County,NC,38.42627960275019,17.49598715890851,NA
28792,Henderson County,NC,33.76623376623377,NA,NA
28806,Buncombe County,NC,42.857142857142854,NA,NA
28904,Clay County,NC,NA,NA,51.77304964539007
28906,Cherokee County,NC,51.79526355996944,NA,NA
58103,Cass County,ND,NA,3.0497592295345104,NA
58301,Ramsey County,ND,NA,69.82343499197432,NA
58503,Burleigh County,ND,35.67608861726509,NA,NA
43015,Delaware County,OH,NA,33.70786516853933,NA
43019,Knox County,OH,NA,NA,79.43262411347519
43050,Knox County,OH,7.563025210084033,NA,NA
43065,Delaware County,OH,NA,NA,49.29078014184397
43078,Champaign County,OH,36.210847975553854,NA,78.01418439716312
43081,Franklin County,OH,NA,10.272873194221509,NA
43103,Pickaway County,OH,92.66615737203972,NA,NA
43160,Fayette County,OH,13.750954927425516,NA,NA
43162,Madison County,OH,92.43697478991596,NA,NA
43204,Franklin County,OH,6.035141329258977,NA,NA
43205,Franklin County,OH,48.05194805194805,NA,NA
43219,Franklin County,OH,15.355233002291827,NA,NA
43220,Franklin County,OH,90.9090909090909,NA,NA
43223,Franklin County,OH,NA,NA,62.056737588652474
43227,Franklin County,OH,NA,NA,37.94326241134752
43228,Franklin County,OH,19.022154316271962,NA,NA
43231,Franklin County,OH,48.43391902215431,NA,NA
43235,Franklin County,OH,NA,74.95987158908507,NA
43338,Morrow County,OH,61.65011459129106,NA,NA
43351,Wyandot County,OH,NA,NA,51.06382978723404
43551,Wood County,OH,NA,7.223113964686998,NA
43558,Fulton County,OH,58.59434682964094,NA,NA
43604,Lucas County,OH,44.996180290297936,54.73515248796148,NA
43606,Lucas County,OH,17.11229946524064,NA,NA
43609,Lucas County,OH,5.194805194805195,NA,NA
43610,Lucas County,OH,67.22689075630252,NA,NA
43612,Lucas County,OH,22.38349885408709,NA,NA
43613,Lucas County,OH,3.6669213139801378,NA,NA
43616,Lucas County,OH,NA,NA,18.79432624113475
43731,Perry County,OH,73.56760886172651,NA,NA
43832,Tuscarawas County,OH,62.56684491978609,NA,NA
43920,Columbiana County,OH,9.854851031321619,NA,NA
44003,Ashtabula County,OH,89.76317799847212,NA,NA
44004,Ashtabula County,OH,47.66997708174179,NA,1.0638297872340425
44011,Lorain County,OH,NA,25.52166934189406,NA
44035,Lorain County,OH,0.07639419404125286,0.16051364365971107,0
44052,Lorain County,OH,2.5210084033613445,NA,NA
44054,Lorain County,OH,38.961038961038966,NA,NA
44055,Lorain County,OH,9.243697478991598,NA,NA
44057,Lake County,OH,29.640947288006114,NA,NA
44077,Lake County,OH,3.514132925897632,NA,NA
44102,Cuyahoga County,OH,0.2291825821237586,NA,NA
44105,Cuyahoga County,OH,6.646294881588998,NA,NA
44106,Cuyahoga County,OH,NA,48.31460674157304,NA
44113,Cuyahoga County,OH,8.174178762414057,NA,NA
44114,Cuyahoga County,OH,34.14820473644003,68.86035313001605,NA
44120,Cuyahoga County,OH,NA,4.012841091492777,NA
44123,Cuyahoga County,OH,29.02979373567609,NA,NA
44124,Cuyahoga County,OH,NA,NA,0.3546099290780142
44128,Cuyahoga County,OH,16.653934300993125,NA,NA
44135,Cuyahoga County,OH,37.2803666921314,NA,NA
44137,Cuyahoga County,OH,6.3407181054239885,NA,NA
44138,Cuyahoga County,OH,34.83575248281131,NA,NA
44212,Medina County,OH,3.2849503437738727,NA,NA
44216,Summit County,OH,63.483575248281134,NA,NA
44256,Medina County,OH,3.972498090145149,NA,NA
44301,Summit County,OH,32.391138273491215,NA,NA
44306,Summit County,OH,38.80825057295645,NA,NA
44307,Summit County,OH,NA,92.13483146067416,NA
44312,Summit County,OH,14.744079449961802,NA,NA
44313,Summit County,OH,NA,16.693418940609952,NA
44314,Summit County,OH,NA,21.34831460674157,NA
44420,Trumbull County,OH,40.33613445378151,NA,NA
44481,Trumbull County,OH,28.036669213139803,NA,NA
44483,Trumbull County,OH,16.119174942704355,NA,NA
44502,Mahoning County,OH,45.53093964858671,NA,NA
44515,Mahoning County,OH,10.695187165775401,NA,NA
44601,Stark County,OH,7.3338426279602755,NA,NA
44657,Stark County,OH,84.87394957983193,NA,NA
44663,Tuscarawas County,OH,NA,NA,9.929078014184398
44676,Wayne County,OH,93.96485867074102,NA,NA
44691,Wayne County,OH,7.868601986249045,NA,NA
44705,Stark County,OH,26.203208556149733,NA,NA
44709,Stark County,OH,NA,NA,60.63829787234043
44811,Sandusky County,OH,66.31016042780749,NA,NA
44833,Crawford County,OH,34.60656990068755,NA,NA
44857,Huron County,OH,NA,7.54414125200642,NA
44870,Erie County,OH,1.680672268907563,NA,NA
44875,Richland County,OH,73.2620320855615,NA,NA
44890,Huron County,OH,43.39190221543163,NA,NA
45015,Butler County,OH,82.6585179526356,NA,NA
45040,Warren County,OH,NA,34.67094703049759,NA
45042,Butler County,OH,55.080213903743314,36.27608346709471,NA
45044,Butler County,OH,NA,NA,17.73049645390071
45066,Warren County,OH,NA,48.796147672552166,NA
45102,Clermont County,OH,70.35905271199388,NA,NA
45107,Clinton County,OH,85.63789152024445,NA,NA
45150,Clermont County,OH,39.419404125286476,NA,NA
45176,Clermont County,OH,67.53246753246754,NA,NA
45202,Hamilton County,OH,55.30939648586708,NA,NA
45204,Hamilton County,OH,87.08938120702827,NA,NA
45206,Hamilton County,OH,56.608097784568365,NA,NA
45212,Hamilton County,OH,65.08785332314744,NA,NA
45214,Hamilton County,OH,NA,71.58908507223114,NA
45223,Hamilton County,OH,46.21848739495798,NA,NA
45238,Hamilton County,OH,14.285714285714285,NA,NA
45239,Hamilton County,OH,16.730328495034378,NA,NA
45251,Hamilton County,OH,54.92742551566081,NA,NA
45318,Miami County,OH,98.24293353705119,NA,NA
45331,Darke County,OH,NA,24.879614767255216,NA
45365,Shelby County,OH,12.299465240641712,NA,NA
45414,Montgomery County,OH,31.70359052711994,NA,NA
45417,Montgomery County,OH,9.090909090909092,NA,NA
45419,Montgomery County,OH,86.01986249045072,NA,NA
45439,Montgomery County,OH,54.01069518716578,NA,NA
45449,Montgomery County,OH,69.74789915966386,NA,NA
45502,Clark County,OH,NA,NA,83.33333333333334
45503,Clark County,OH,7.715813598166539,45.10433386837881,NA
45663,Scioto County,OH,NA,64.52648475120385,NA
45669,Lawrence County,OH,NA,18.940609951845907,NA
45750,Washington County,OH,1.5278838808250574,NA,NA
45840,Hancock County,OH,2.5974025974025974,NA,NA
73044,Logan County,OK,NA,13.804173354735152,NA
73052,Garvin County,OK,94.49961802902979,NA,NA
73072,Cleveland County,OK,29.411764705882355,NA,NA
73084,Oklahoma County,OK,80.97784568372803,NA,NA
73086,Murray County,OK,NA,NA,82.26950354609929
73106,Oklahoma County,OK,NA,NA,90.0709219858156
73159,Oklahoma County,OK,48.357524828113064,NA,NA
73162,Oklahoma County,OK,52.482811306340714,NA,NA
73501,Comanche County,OK,59.66386554621849,NA,NA
74006,Washington County,OK,NA,NA,30.49645390070922
74021,Tulsa County,OK,72.26890756302521,NA,NA
74037,Tulsa County,OK,NA,91.01123595505618,NA
74048,Nowata County,OK,95.87471352177235,NA,NA
74063,Tulsa County,OK,60.42780748663101,NA,NA
74066,Creek County,OK,33.84262796027502,NA,NA
74073,Tulsa County,OK,NA,NA,96.09929078014184
74074,Payne County,OK,NA,41.091492776886035,NA
74106,Tulsa County,OK,NA,78.49117174959872,NA
74115,Tulsa County,OK,NA,76.40449438202246,NA
74129,Tulsa County,OK,58.13598166539343,NA,NA
74134,Tulsa County,OK,NA,NA,81.91489361702128
74331,Delaware County,OK,NA,95.18459069020867,NA
74344,Delaware County,OK,76.39419404125286,NA,NA
74401,Muskogee County,OK,NA,NA,70.2127659574468
74426,McIntosh County,OK,93.04812834224599,NA,NA
74429,Wagoner County,OK,78.68601986249045,NA,NA
74437,Okmulgee County,OK,NA,81.54093097913324,NA
74728,McCurtain County,OK,NA,90.52969502407706,NA
74820,Pontotoc County,OK,NA,6.260032102728733,NA
74884,Seminole County,OK,NA,83.14606741573034,NA
74948,Sequoyah County,OK,NA,83.94863563402889,NA
74953,Le Flore County,OK,83.57524828113063,NA,NA
74962,Sequoyah County,OK,NA,95.98715890850723,NA
97008,Washington County,OR,NA,87.96147672552166,NA
97027,Clackamas County,OR,94.34682964094728,NA,NA
97030,Multnomah County,OR,51.41329258976318,NA,NA
97035,Clackamas County,OR,NA,67.09470304975923,NA
97045,Clackamas County,OR,NA,10.593900481540931,NA
97058,Wasco County,OR,NA,NA,38.652482269503544
97080,Multnomah County,OR,61.19174942704354,NA,NA
97116,Washington County,OR,51.87165775401069,NA,NA
97123,Washington County,OR,NA,NA,21.27659574468085
97124,Washington County,OR,NA,22.632423756019264,NA
97132,Yamhill County,OR,NA,69.66292134831461,NA
97206,Multnomah County,OR,46.524064171122994,NA,NA
97209,Multnomah County,OR,NA,64.36597110754414,NA
97217,Multnomah County,OR,43.85026737967914,NA,NA
97218,Multnomah County,OR,74.5607333842628,NA,NA
97222,Clackamas County,OR,NA,31.46067415730337,NA
97223,Washington County,OR,NA,24.879614767255216,NA
97230,Multnomah County,OR,24.140565317035907,NA,NA
97303,Marion County,OR,NA,46.70947030497592,NA
97305,Marion County,OR,26.814362108479756,NA,NA
97355,Linn County,OR,NA,6.902086677367576,NA
97402,Lane County,OR,NA,29.213483146067414,NA
97404,Lane County,OR,NA,49.919743178170144,NA
97424,Lane County,OR,NA,NA,35.815602836879435
97448,Lane County,OR,NA,NA,95.0354609929078
97465,Curry County,OR,NA,94.22150882825039,NA
97478,Lane County,OR,NA,NA,50.70921985815603
97503,Jackson County,OR,NA,NA,97.51773049645391
97504,Jackson County,OR,NA,12.199036918138042,NA
97537,Jackson County,OR,83.72803666921314,NA,NA
97739,Deschutes County,OR,NA,NA,82.97872340425532
97838,Umatilla County,OR,51.48968678380443,NA,NA
97914,Malheur County,OR,24.82811306340718,60.51364365971108,NA
15001,Beaver County,PA,21.008403361344538,NA,NA
15045,Allegheny County,PA,96.63865546218487,NA,NA
15059,Beaver County,PA,94.27043544690603,NA,NA
15061,Beaver County,PA,NA,NA,60.28368794326241
15065,Allegheny County,PA,68.52559205500381,NA,NA
15068,Westmoreland County,PA,19.63330786860199,9.791332263242374,NA
15108,Allegheny County,PA,43.162719633307866,NA,NA
15122,Allegheny County,PA,53.70511841100076,NA,NA
15132,Allegheny County,PA,NA,63.242375601926156,NA
15136,Allegheny County,PA,32.009167303284954,NA,NA
15147,Allegheny County,PA,68.67838044308633,NA,NA
15201,Allegheny County,PA,NA,86.19582664526484,NA
15207,Allegheny County,PA,61.57372039724981,NA,NA
15208,Allegheny County,PA,NA,80.09630818619583,NA
15210,Allegheny County,PA,15.20244461420932,NA,NA
15212,Allegheny County,PA,25.515660809778456,NA,NA
15217,Allegheny County,PA,61.87929717341481,NA,NA
15226,Allegheny County,PA,90.52711993888465,60.35313001605136,NA
15235,Allegheny County,PA,NA,15.248796147672552,NA
15301,Washington County,PA,28.57142857142857,NA,NA
15417,Fayette County,PA,90.06875477463713,NA,NA
15461,Fayette County,PA,95.9511077158136,NA,NA
15601,Westmoreland County,PA,NA,1.6051364365971106,NA
15613,Westmoreland County,PA,NA,51.20385232744783,NA
15666,Westmoreland County,PA,54.239877769289535,NA,NA
15801,Clearfield County,PA,NA,NA,1.773049645390071
15904,Cambria County,PA,62.719633307868605,NA,NA
15905,Cambria County,PA,NA,35.63402889245586,NA
15946,Cambria County,PA,90.14514896867838,NA,NA
16057,Butler County,PA,NA,NA,71.63120567375887
16066,Butler County,PA,67.45607333842628,NA,NA
16301,Venango County,PA,78.45683728036668,NA,NA
16407,Erie County,PA,80.21390374331551,NA,NA
16503,Erie County,PA,38.5790679908327,NA,NA
16510,Erie County,PA,42.016806722689076,NA,NA
16602,Blair County,PA,13.980137509549273,NA,NA
16828,Centre County,PA,NA,NA,82.62411347517731
16901,Tioga County,PA,69.97708174178763,NA,NA
17013,Cumberland County,PA,21.161191749427044,NA,17.02127659574468
17022,Lancaster County,PA,17.3414820473644,NA,NA
17025,Cumberland County,PA,35.75248281130634,NA,NA
17036,Dauphin County,PA,NA,11.235955056179774,NA
17055,Cumberland County,PA,NA,15.890850722311397,NA
17078,Lebanon County,PA,17.57066462948816,NA,NA
17109,Dauphin County,PA,26.661573720397254,NA,NA
17201,Franklin County,PA,NA,NA,15.957446808510639
17325,Adams County,PA,25.362872421695954,NA,NA
17331,York County,PA,7.4102368220015284,NA,NA
17345,York County,PA,71.27578304048893,NA,NA
17349,York County,PA,NA,79.29373996789727,NA
17356,York County,PA,NA,NA,36.87943262411347
17403,York County,PA,NA,3.6918138041733553,NA
17404,York County,PA,42.39877769289534,NA,NA
17512,Lancaster County,PA,45.45454545454545,NA,NA
17517,Lancaster County,PA,82.12375859434682,NA,NA
17847,Northumberland County,PA,66.08097784568373,NA,NA
18014,Northampton County,PA,75.47746371275782,NA,NA
18017,Northampton County,PA,6.799083269671505,NA,NA
18042,Northampton County,PA,5.958747135217724,NA,NA
18052,Lehigh County,PA,20.24446142093201,NA,NA
18055,Northampton County,PA,NA,54.25361155698234,NA
18102,Lehigh County,PA,0.7639419404125287,NA,NA
18103,Lehigh County,PA,26.355996944232242,NA,NA
18201,Luzerne County,PA,70.9702062643239,NA,NA
18503,Lackawanna County,PA,96.33307868601986,NA,NA
18504,Lackawanna County,PA,32.467532467532465,NA,NA
18603,Columbia County,PA,14.36210847975554,NA,NA
18707,Luzerne County,PA,NA,30.97913322632424,NA
18801,Susquehanna County,PA,NA,70.30497592295345,NA
18840,Bradford County,PA,65.92818945760122,NA,NA
18847,Susquehanna County,PA,92.36058059587471,NA,NA
18951,Bucks County,PA,54.46906035141329,NA,NA
19013,Delaware County,PA,39.34300993124523,13.32263242375602,NA
19020,Bucks County,PA,8.708938120702827,9.470304975922954,NA
19026,Delaware County,PA,69.13674560733384,NA,NA
19027,Montgomery County,PA,47.05882352941176,NA,NA
19032,Delaware County,PA,NA,96.95024077046548,NA
19033,Delaware County,PA,93.73567608861727,NA,NA
19036,Delaware County,PA,NA,79.45425361155698,NA
19046,Montgomery County,PA,NA,NA,36.52482269503546
19047,Bucks County,PA,NA,NA,26.595744680851062
19055,Bucks County,PA,55.767761650114586,NA,NA
19082,Delaware County,PA,11.306340718105425,NA,NA
19083,Delaware County,PA,NA,NA,23.75886524822695
19104,Philadelphia County,PA,41.4820473644003,NA,NA
19111,Philadelphia County,PA,40.565317035905274,6.420545746388442,NA
19114,Philadelphia County,PA,19.480519480519483,NA,NA
19121,Philadelphia County,PA,9.472880061115355,NA,NA
19122,Philadelphia County,PA,76.85255920550038,NA,NA
19124,Philadelphia County,PA,0.8403361344537815,NA,NA
19125,Philadelphia County,PA,50.80213903743316,NA,NA
19128,Philadelphia County,PA,19.098548510313215,NA,NA
19132,Philadelphia County,PA,6.417112299465241,NA,NA
19134,Philadelphia County,PA,2.979373567608862,49.43820224719101,NA
19136,Philadelphia County,PA,11.917494270435448,NA,NA
19140,Philadelphia County,PA,2.2154316271963332,NA,NA
19141,Philadelphia County,PA,NA,15.569823434991974,NA
19143,Philadelphia County,PA,NA,NA,8.51063829787234
19144,Philadelphia County,PA,24.293353705118413,40.44943820224719,NA
19146,Philadelphia County,PA,16.27196333078686,NA,NA
19152,Philadelphia County,PA,19.63330786860199,19.101123595505616,NA
19154,Philadelphia County,PA,15.813598166539345,NA,NA
19341,Chester County,PA,NA,NA,53.54609929078015
19425,Chester County,PA,NA,NA,87.94326241134752
19464,Montgomery County,PA,5.729564553093964,NA,NA
19465,Chester County,PA,NA,NA,69.50354609929079
19468,Montgomery County,PA,43.23911382734912,NA,NA
19565,Berks County,PA,79.60275019098549,NA,NA
19601,Berks County,PA,18.258212375859433,NA,NA
19602,Berks County,PA,11.841100076394193,NA,NA
19605,Berks County,PA,32.773109243697476,NA,NA
02816,Kent County,RI,28.953399541634834,NA,NA
02840,Newport County,RI,45.98930481283423,NA,NA
02879,Washington County,RI,90.4507257448434,NA,NA
02888,Kent County,RI,NA,43.98073836276083,NA
02891,Washington County,RI,60.122230710466006,NA,20.212765957446805
02895,Providence County,RI,12.22307104660046,NA,NA
02919,Providence County,RI,73.33842627960276,NA,NA
29010,Lee County,SC,NA,NA,55.673758865248224
29123,Lexington County,SC,NA,97.91332263242376,NA
29142,Orangeburg County,SC,NA,95.82664526484751,NA
29172,Lexington County,SC,NA,88.92455858747994,NA
29203,Richland County,SC,NA,21.02728731942215,NA
29204,Richland County,SC,71.42857142857143,NA,NA
29301,Spartanburg County,SC,33.68983957219251,NA,NA
29316,Spartanburg County,SC,NA,31.30016051364366,NA
29330,Spartanburg County,SC,83.42245989304813,NA,NA
29407,Charleston County,SC,NA,12.038523274478331,NA
29440,Georgetown County,SC,NA,NA,28.368794326241137
29456,Dorchester County,SC,NA,49.59871589085072,NA
29466,Charleston County,SC,51.56608097784569,NA,NA
29483,Dorchester County,SC,17.494270435446907,NA,NA
29488,Colleton County,SC,37.73873185637891,NA,NA
29501,Florence County,SC,NA,15.409309791332262,NA
29566,Horry County,SC,77.99847211611917,NA,NA
29576,Horry County,SC,NA,44.9438202247191,NA
29579,Horry County,SC,NA,32.90529695024077,NA
29588,Horry County,SC,39.49579831932773,NA,22.69503546099291
29621,Anderson County,SC,39.877769289533994,NA,NA
29640,Pickens County,SC,23.45301757066463,NA,NA
29691,Oconee County,SC,NA,89.08507223113965,87.2340425531915
29702,Cherokee County,SC,NA,NA,89.71631205673759
29730,York County,SC,19.862490450725744,NA,NA
29732,York County,SC,NA,24.23756019261637,NA
29907,Beaufort County,SC,NA,NA,56.38297872340425
29927,Jasper County,SC,86.78380443086326,NA,84.04255319148936
57069,Clay County,SD,89.6103896103896,NA,NA
57106,Minnehaha County,SD,58.82352941176471,NA,NA
37031,Sumner County,TN,99.46524064171123,NA,NA
37034,Marshall County,TN,83.88082505729565,NA,NA
37066,Sumner County,TN,39.26661573720398,NA,NA
37072,Davidson County,TN,33.231474407944994,NA,NA
37074,Trousdale County,TN,69.5187165775401,83.30658105939006,NA
37075,Sumner County,TN,16.348357524828113,NA,NA
37076,Davidson County,TN,38.044308632543924,NA,NA
37086,Rutherford County,TN,49.57983193277311,NA,NA
37091,Marshall County,TN,42.16959511077158,NA,NA
37098,Hickman County,TN,80.061115355233,NA,98.93617021276596
37122,Wilson County,TN,30.40488922841864,NA,NA
37129,Rutherford County,TN,17.188693659281896,NA,NA
37130,Rutherford County,TN,21.08479755538579,NA,NA
37160,Bedford County,TN,19.862490450725744,NA,NA
37172,Robertson County,TN,NA,31.621187800963078,NA
37186,Sumner County,TN,67.9144385026738,NA,NA
37207,Davidson County,TN,12.375859434682965,NA,NA
37209,Davidson County,TN,66.768525592055,NA,NA
37214,Davidson County,TN,62.33766233766234,NA,NA
37303,McMinn County,TN,23.605805958747137,NA,NA
37311,Bradley County,TN,36.898395721925134,NA,NA
37312,Bradley County,TN,45.91291061879297,NA,NA
37321,Rhea County,TN,30.863254392666157,NA,NA
37323,Bradley County,TN,44.30863254392666,NA,NA
37327,Sequatchie County,TN,45.30175706646295,NA,NA
37385,Monroe County,TN,80.21390374331551,NA,NA
37388,Coffee County,TN,35.370511841100075,NA,NA
37415,Hamilton County,TN,61.038961038961034,NA,NA
37642,Hawkins County,TN,NA,48.95666131621188,NA
37664,Sullivan County,TN,21.772345301757067,NA,NA
37690,Washington County,TN,88.69365928189458,NA,NA
37711,Hawkins County,TN,NA,NA,90.42553191489363
37716,Anderson County,TN,40.79449961802903,NA,NA
37748,Roane County,TN,36.66921313980138,NA,NA
37772,Loudon County,TN,78.38044308632544,NA,NA
37774,Loudon County,TN,NA,23.91653290529695,NA
37813,Hamblen County,TN,29.488158899923604,NA,NA
37830,Anderson County,TN,NA,25.20064205457464,NA
37862,Sevier County,TN,NA,NA,40.0709219858156
37869,Hancock County,TN,92.20779220779221,NA,NA
37871,Jefferson County,TN,NA,77.52808988764045,NA
37887,Morgan County,TN,NA,83.46709470304975,NA
37917,Knox County,TN,17.265087853323145,NA,NA
37919,Knox County,TN,56.760886172650885,NA,NA
38004,Tipton County,TN,91.13827349121468,NA,NA
38104,Shelby County,TN,NA,74.79935794542536,NA
38106,Shelby County,TN,16.883116883116884,NA,NA
38114,Shelby County,TN,NA,NA,57.446808510638306
38118,Shelby County,TN,18.71657754010695,NA,NA
38127,Shelby County,TN,9.778456837280366,NA,NA
38141,Shelby County,TN,49.88540870893812,NA,NA
38225,Weakley County,TN,92.81894576012223,NA,NA
38237,Weakley County,TN,NA,68.53932584269663,NA
38256,Henry County,TN,96.40947288006112,NA,NA
38261,Obion County,TN,NA,34.02889245585875,NA
38305,Madison County,TN,NA,10.754414125200643,NA
38363,Decatur County,TN,92.81894576012223,NA,NA
38372,Hardin County,TN,NA,47.67255216693419,NA
38555,Cumberland County,TN,42.016806722689076,NA,NA
38571,Cumberland County,TN,NA,43.659711075441415,NA
75007,Denton County,TX,NA,NA,35.46099290780142
75020,Grayson County,TX,50.34377387318564,NA,NA
75044,Dallas County,TX,NA,NA,67.37588652482269
75065,Denton County,TX,87.01298701298701,NA,NA
75069,Collin County,TX,51.03132161955691,NA,NA
75070,Collin County,TX,15.584415584415584,NA,NA
75077,Denton County,TX,NA,50.08025682182986,40.78014184397163
75098,Collin County,TX,57.90679908326967,NA,NA
75104,Dallas County,TX,59.74025974025974,NA,NA
75148,Henderson County,TX,NA,92.93739967897271,NA
75149,Dallas County,TX,18.94576012223071,NA,NA
75474,Hunt County,TX,NA,61.95826645264848,NA
75605,Gregg County,TX,NA,38.04173354735153,NA
75633,Panola County,TX,NA,55.0561797752809,NA
75662,Gregg County,TX,56.14973262032086,NA,46.09929078014184
75751,Henderson County,TX,49.04507257448434,NA,NA
75758,Henderson County,TX,NA,42.69662921348314,NA
75964,Nacogdoches County,TX,NA,NA,91.13475177304964
75965,Nacogdoches County,TX,70.43544690603514,NA,61.347517730496456
76009,Johnson County,TX,NA,66.77367576243981,NA
76017,Tarrant County,TX,33.3842627960275,NA,NA
76020,Tarrant County,TX,31.321619556913678,28.25040128410915,NA
76087,Parker County,TX,69.06035141329258,NA,NA
76088,Parker County,TX,81.28342245989305,NA,NA
76111,Tarrant County,TX,NA,NA,97.16312056737588
76123,Tarrant County,TX,NA,NA,88.29787234042553
76131,Tarrant County,TX,53.246753246753244,NA,NA
76133,Tarrant County,TX,19.786096256684495,NA,NA
76301,Wichita County,TX,48.81588999236058,NA,NA
76426,Wise County,TX,NA,NA,60.99290780141844
76528,Coryell County,TX,30.863254392666157,NA,NA
76633,McLennan County,TX,97.78456837280368,NA,NA
76634,Bosque County,TX,NA,NA,91.84397163120568
76706,McLennan County,TX,37.50954927425516,NA,NA
77021,Harris County,TX,NA,36.597110754414125,NA
77033,Harris County,TX,57.14285714285714,NA,NA
77051,Harris County,TX,NA,NA,70.92198581560284
77056,Harris County,TX,NA,NA,48.58156028368794
77062,Harris County,TX,NA,NA,58.86524822695035
77070,Harris County,TX,NA,NA,35.1063829787234
77082,Harris County,TX,NA,NA,61.347517730496456
77089,Harris County,TX,NA,32.74478330658106,NA
77090,Harris County,TX,30.786860198624904,NA,NA
77093,Harris County,TX,45.98930481283423,NA,NA
77351,Polk County,TX,NA,61.63723916532905,NA
77355,Montgomery County,TX,NA,NA,81.20567375886525
77406,Fort Bend County,TX,NA,28.41091492776886,NA
77422,Brazoria County,TX,NA,NA,77.30496453900709
77429,Harris County,TX,NA,5.778491171749598,NA
77459,Fort Bend County,TX,NA,11.717495987158909,NA
77471,Fort Bend County,TX,NA,62.11878009630819,NA
77480,Brazoria County,TX,NA,85.71428571428571,NA
77484,Waller County,TX,NA,85.07223113964687,NA
77489,Fort Bend County,TX,32.23834988540871,NA,NA
77493,Harris County,TX,64.01833460656991,NA,NA
77498,Fort Bend County,TX,56.913674560733384,NA,NA
77515,Brazoria County,TX,NA,NA,39.71631205673759
77520,Harris County,TX,47.13521772345302,NA,NA
77539,Galveston County,TX,NA,10.914927768860354,NA
77550,Galveston County,TX,NA,13.964686998394862,NA
77573,Galveston County,TX,10.236822001527884,NA,NA
77583,Brazoria County,TX,NA,NA,91.48936170212765
77611,Orange County,TX,78.07486631016043,NA,NA
77642,Jefferson County,TX,NA,32.102728731942214,NA
77656,Hardin County,TX,NA,64.04494382022472,NA
77833,Washington County,TX,48.20473644003056,26.96629213483146,NA
78041,Webb County,TX,NA,NA,27.659574468085108
78061,Frio County,TX,NA,NA,95.74468085106383
78132,Comal County,TX,72.03972498090145,NA,NA
78154,Guadalupe County,TX,75.55385790679908,NA,NA
78201,Bexar County,TX,25.057295645530942,NA,NA
78207,Bexar County,TX,NA,14.125200642054574,NA
78213,Bexar County,TX,NA,67.57624398073835,NA
78216,Bexar County,TX,46.98242933537051,NA,NA
78217,Bexar County,TX,69.3659281894576,NA,NA
78232,Bexar County,TX,NA,43.17817014446228,NA
78237,Bexar County,TX,NA,23.274478330658106,NA
78245,Bexar County,TX,NA,50.7223113964687,NA
78250,Bexar County,TX,45.60733384262796,NA,NA
78251,Bexar County,TX,58.05958747135218,NA,NA
78258,Bexar County,TX,NA,73.03370786516854,NA
78336,San Patricio County,TX,NA,95.18459069020867,NA
78521,Cameron County,TX,NA,17.174959871589085,NA
78566,Cameron County,TX,NA,93.09791332263242,NA
78573,Hidalgo County,TX,57.06646294881589,NA,NA
78610,Hays County,TX,NA,NA,84.75177304964538
78611,Burnet County,TX,NA,NA,14.893617021276595
78644,Caldwell County,TX,69.59511077158136,NA,NA
78654,Burnet County,TX,NA,39.325842696629216,NA
78660,Travis County,TX,NA,NA,54.25531914893617
78664,Williamson County,TX,NA,NA,23.04964539007092
78723,Travis County,TX,63.25439266615738,NA,NA
78745,Travis County,TX,62.796027501909855,61.15569823434992,NA
78753,Travis County,TX,NA,NA,62.4113475177305
78840,Val Verde County,TX,NA,NA,8.865248226950355
78852,Maverick County,TX,NA,NA,17.375886524822697
78861,Medina County,TX,79.75553857906799,NA,NA
78942,Lee County,TX,98.47211611917494,NA,NA
79106,Potter County,TX,NA,38.52327447833066,NA
79109,Randall County,TX,41.10007639419404,NA,NA
79118,Randall County,TX,NA,87.47993579454254,NA
79404,Lubbock County,TX,77.00534759358288,NA,NA
79407,Lubbock County,TX,NA,NA,59.9290780141844
79424,Lubbock County,TX,NA,NA,16.666666666666664
79556,Nolan County,TX,59.893048128342244,NA,NA
79720,Howard County,TX,NA,55.21669341894061,NA
79756,Ward County,TX,NA,90.85072231139647,NA
79763,Ector County,TX,37.4331550802139,NA,NA
79907,El Paso County,TX,40.87089381207028,NA,NA
79924,El Paso County,TX,46.60045836516425,NA,NA
79932,El Paso County,TX,84.49197860962568,NA,NA
84010,Davis County,UT,44.15584415584416,NA,NA
84014,Davis County,UT,91.97860962566845,NA,NA
84015,Davis County,UT,22.307104660045837,NA,68.79432624113475
84020,Salt Lake County,UT,NA,NA,85.1063829787234
84032,Wasatch County,UT,88.08250572956456,NA,NA
84044,Salt Lake County,UT,46.829640947288006,NA,NA
84047,Salt Lake County,UT,28.113063407181055,NA,NA
84074,Tooele County,UT,4.125286478227655,NA,NA
84084,Salt Lake County,UT,NA,40.93097913322632,NA
84115,Salt Lake County,UT,41.3292589763178,NA,NA
84120,Salt Lake County,UT,NA,18.780096308186195,NA
84123,Salt Lake County,UT,56.99006875477464,NA,NA
84128,Salt Lake County,UT,42.24598930481284,NA,NA
84401,Weber County,UT,46.37127578304049,52.32744783306581,NA
84404,Weber County,UT,21.543162719633308,77.36757624398074,NA
84405,Weber County,UT,NA,64.20545746388443,NA
84721,Iron County,UT,NA,93.57945425361156,NA
05641,Washington County,VT,35.14132925897632,NA,NA
20111,Prince William County,VA,NA,77.04654895666133,NA
20112,Prince William County,VA,76.08861726508785,NA,NA
20187,Fauquier County,VA,81.58899923605806,NA,NA
22191,Prince William County,VA,NA,30.337078651685395,NA
22192,Prince William County,VA,20.397249809014514,NA,NA
22207,Arlington County,VA,55.92055003819709,NA,NA
22306,Fairfax County,VA,31.16883116883117,NA,NA
22309,Fairfax County,VA,28.189457601222305,NA,NA
22408,Spotsylvania County,VA,NA,NA,76.59574468085107
22554,Stafford County,VA,NA,44.46227929373997,NA
22556,Stafford County,VA,72.80366692131398,NA,NA
22602,Frederick County,VA,NA,54.89566613162119,NA
22701,Culpeper County,VA,85.94346829640948,NA,NA
22802,Harrisonburg city,VA,60.35141329258976,NA,NA
22815,Rockingham County,VA,55.46218487394958,NA,NA
22901,Albemarle County,VA,35.52330022918258,NA,NA
22973,Greene County,VA,NA,93.25842696629213,NA
22980,Waynesboro city,VA,9.32009167303285,NA,2.127659574468085
23002,Amelia County,VA,87.24216959511078,NA,NA
23140,New Kent County,VA,NA,89.7271268057785,NA
23185,James City County,VA,70.81741787624141,NA,NA
23227,Henrico County,VA,NA,36.11556982343499,NA
23229,Henrico County,VA,69.59511077158136,NA,NA
23231,Henrico County,VA,24.675324675324674,NA,NA
23238,Henrico County,VA,NA,63.88443017656501,NA
23452,Virginia Beach city,VA,23.45301757066463,NA,NA
23453,Virginia Beach city,VA,51.18411000763942,NA,NA
23456,Virginia Beach city,VA,NA,NA,13.120567375886525
23503,Norfolk city,VA,50.114591291061885,NA,NA
23508,Norfolk city,VA,76.62337662337663,NA,NA
23509,Norfolk city,VA,45.14896867838044,NA,NA
23513,Norfolk city,VA,NA,NA,19.50354609929078
23602,Newport News city,VA,31.092436974789916,NA,NA
23607,Newport News city,VA,99.15966386554622,NA,NA
23901,Prince Edward County,VA,62.87242169595111,NA,NA
23930,Nottoway County,VA,94.42322383498855,NA,NA
24014,Roanoke city,VA,NA,93.41894060995185,NA
24018,Roanoke County,VA,NA,30.337078651685395,7.801418439716312
24078,Henry County,VA,85.79067990832698,NA,NA
24112,Henry County,VA,68.14362108479756,NA,NA
24121,Bedford County,VA,NA,NA,78.72340425531915
24201,Bristol city,VA,NA,43.01765650080257,NA
24219,Wise County,VA,86.47822765469824,NA,NA
24228,Dickenson County,VA,70.20626432391138,NA,NA
24517,Campbell County,VA,NA,96.78972712680579,NA
98002,King County,WA,37.81512605042017,NA,NA
98003,King County,WA,30.252100840336134,NA,NA
98005,King County,WA,85.17952635599696,NA,NA
98022,King County,WA,NA,81.2199036918138,NA
98023,King County,WA,26.814362108479756,NA,NA
98026,Snohomish County,WA,NA,NA,52.836879432624116
98052,King County,WA,NA,20.064205457463885,NA
98070,King County,WA,NA,76.56500802568218,NA
98106,King County,WA,NA,72.55216693418942,NA
98116,King County,WA,71.50496562261269,NA,75.53191489361703
98229,Whatcom County,WA,NA,67.89727126805778,NA
98230,Whatcom County,WA,NA,74.15730337078652,NA
98258,Snohomish County,WA,NA,47.8330658105939,NA
98270,Snohomish County,WA,19.17494270435447,NA,NA
98290,Snohomish County,WA,45.378151260504204,NA,NA
98311,Kitsap County,WA,64.171122994652407,NA,NA
98328,Pierce County,WA,NA,87.64044943820225,NA
98366,Kitsap County,WA,NA,28.731942215088285,NA
98370,Kitsap County,WA,73.10924369747899,42.53611556982344,NA
98391,Pierce County,WA,14.667685255920551,NA,NA
98408,Pierce County,WA,62.33766233766234,NA,NA
98499,Pierce County,WA,NA,NA,47.87234042553192
98501,Thurston County,WA,NA,36.91813804173354,NA
98503,Thurston County,WA,NA,51.84590690208668,NA
98506,Thurston County,WA,77.46371275783041,NA,NA
98531,Lewis County,WA,NA,NA,37.234042553191486
98632,Cowlitz County,WA,54.39266615737204,NA,NA
98660,Clark County,WA,89.3048128342246,NA,NA
98663,Clark County,WA,NA,84.59069020866774,NA
98664,Clark County,WA,NA,NA,51.41843971631206
98671,Clark County,WA,NA,84.1091492776886,NA
98686,Clark County,WA,NA,91.3322632423756,NA
98801,Chelan County,WA,25.668449197860966,NA,NA
98802,Douglas County,WA,53.55233002291826,27.929373996789725,NA
98908,Yakima County,WA,NA,NA,10.638297872340425
99003,Spokane County,WA,NA,96.46869983948636,NA
99022,Spokane County,WA,NA,96.62921348314607,NA
99114,Stevens County,WA,NA,75.4414125200642,NA
99206,Spokane County,WA,NA,NA,68.79432624113475
99208,Spokane County,WA,NA,27.768860353130016,NA
99212,Spokane County,WA,84.4155844155844,NA,NA
99216,Spokane County,WA,66.38655462184873,NA,NA
99320,Benton County,WA,88.1588999236058,NA,NA
99337,Benton County,WA,27.73109243697479,NA,NA
20002,District of Columbia,DC,NA,61.31621187800963,NA
20019,District of Columbia,DC,4.048892284186402,NA,NA
20020,District of Columbia,DC,1.9862490450725745,31.781701444622794,NA
20024,District of Columbia,DC,NA,91.81380417335474,NA
20032,District of Columbia,DC,5.729564553093964,NA,NA
25304,Kanawha County,WV,90.37433155080214,NA,NA
25313,Kanawha County,WV,51.718869365928185,NA,NA
25320,Kanawha County,WV,84.95034377387319,NA,NA
25411,Morgan County,WV,77.38731856378915,NA,NA
25419,Berkeley County,WV,82.27654698242934,NA,NA
26003,Ohio County,WV,NA,2.889245585874799,NA
26201,Upshur County,WV,58.44155844155844,NA,NA
26301,Harrison County,WV,31.856378915202445,NA,NA
26354,Taylor County,WV,NA,45.42536115569823,NA
26505,Monongalia County,WV,10.16042780748663,NA,NA
26726,Mineral County,WV,45.07257448433919,NA,NA
53051,Waukesha County,WI,NA,24.719101123595504,NA
53089,Waukesha County,WI,66.84491978609626,NA,NA
53095,Washington County,WI,NA,55.85874799357945,NA
53098,Dodge County,WI,65.85179526355996,NA,NA
53120,Walworth County,WI,NA,83.62760834670947,NA
53121,Walworth County,WI,47.36440030557677,NA,NA
53129,Milwaukee County,WI,NA,70.62600321027287,NA
53143,Kenosha County,WI,18.563789152024444,NA,NA
53144,Kenosha County,WI,16.959511077158133,NA,NA
53146,Waukesha County,WI,92.0550038197097,NA,NA
53149,Waukesha County,WI,NA,38.68378812199037,NA
53153,Waukesha County,WI,100,NA,NA
53172,Milwaukee County,WI,NA,39.96789727126806,NA
53186,Waukesha County,WI,63.559969442322384,NA,NA
53202,Milwaukee County,WI,78.22765469824293,NA,36.17021276595745
53205,Milwaukee County,WI,2.4446142093200915,NA,NA
53211,Milwaukee County,WI,NA,22.792937399678973,NA
53213,Milwaukee County,WI,52.482811306340714,NA,NA
53214,Milwaukee County,WI,NA,10.43338683788122,NA
53219,Milwaukee County,WI,NA,11.396468699839486,NA
53220,Milwaukee County,WI,33.07868601986249,NA,NA
53221,Milwaukee County,WI,NA,20.86677367576244,NA
53227,Milwaukee County,WI,NA,58.74799357945425,NA
53511,Rock County,WI,7.4866310160427805,NA,NA
53573,Grant County,WI,NA,99.19743178170144,NA
53575,Dane County,WI,97.47899159663865,NA,NA
53704,Dane County,WI,11.229946524064172,NA,NA
53713,Dane County,WI,NA,60.67415730337079,NA
53950,Juneau County,WI,88.38808250572956,NA,NA
53959,Sauk County,WI,75.24828113063407,NA,NA
53965,Sauk County,WI,70.5118411000764,NA,NA
54002,St. Croix County,WI,NA,NA,90.78014184397163
54143,Marinette County,WI,51.26050420168067,NA,NA
54494,Wood County,WI,32.84950343773873,NA,NA
54495,Wood County,WI,78.6096256684492,NA,NA
54548,Oneida County,WI,NA,NA,86.17021276595744
54665,Vernon County,WI,NA,NA,56.73758865248227
54729,Chippewa County,WI,67.83804430863253,NA,NA
54801,Washburn County,WI,NA,97.27126805778491,NA
54822,Barron County,WI,NA,90.20866773675762,NA
54843,Sawyer County,WI,NA,86.51685393258427,NA
54914,Outagamie County,WI,24.369747899159663,NA,NA
54935,Fond du Lac County,WI,15.584415584415584,NA,NA
82009,Laramie County,WY,73.03284950343773,NA,NA
82414,Park County,WY,NA,41.73354735152488,NA
