ZipCode,county,state,Adult
35077,Cullman County,AL,69.18429003021149
35611,Limestone County,AL,29.909365558912388
36081,Pike County,AL,87.61329305135952
99501,Anchorage Municipality,AK,26.283987915407852
99615,Kodiak Island Borough,AK,88.21752265861026
99709,Fairbanks North Star Borough,AK,74.32024169184291
85009,Maricopa County,AZ,19.033232628398792
85020,Maricopa County,AZ,47.43202416918429
85021,Maricopa County,AZ,16.012084592145015
85029,Maricopa County,AZ,64.95468277945619
85037,Maricopa County,AZ,30.513595166163142
85051,Maricopa County,AZ,20.241691842900302
85283,Maricopa County,AZ,24.169184290030213
85308,Maricopa County,AZ,44.10876132930513
85719,Pima County,AZ,42.90030211480362
85730,Pima County,AZ,31.722054380664655
85737,Pima County,AZ,74.01812688821752
86033,Navajo County,AZ,71.6012084592145
86441,Mohave County,AZ,99.69788519637463
72032,Faulkner County,AR,50.453172205438065
90047,Los Angeles County,CA,21.45015105740181
90221,Los Angeles County,CA,14.19939577039275
91761,San Bernardino County,CA,29.305135951661633
91977,San Diego County,CA,45.31722054380665
92029,San Diego County,CA,90.03021148036254
92056,San Diego County,CA,64.6525679758308
92114,San Diego County,CA,39.577039274924466
92119,San Diego County,CA,93.05135951661632
92129,San Diego County,CA,66.16314199395771
92131,San Diego County,CA,77.0392749244713
92234,Riverside County,CA,19.939577039274926
92507,Riverside County,CA,52.567975830815705
92553,Riverside County,CA,68.27794561933534
92582,Riverside County,CA,78.85196374622356
92657,Orange County,CA,98.18731117824774
92703,Orange County,CA,49.244712990936556
92707,Orange County,CA,53.47432024169184
92887,Orange County,CA,96.97885196374622
93240,Kern County,CA,95.46827794561933
93312,Kern County,CA,76.43504531722054
93314,Kern County,CA,86.404833836858
93401,San Luis Obispo County,CA,65.55891238670695
93722,Fresno County,CA,11.178247734138973
94102,San Francisco County,CA,9.969788519637463
94501,Alameda County,CA,48.338368580060425
94523,Contra Costa County,CA,75.52870090634441
94561,Contra Costa County,CA,48.6404833836858
94952,Sonoma County,CA,96.07250755287009
95060,Santa Cruz County,CA,80.06042296072508
95240,San Joaquin County,CA,20.84592145015106
95307,Stanislaus County,CA,40.181268882175225
95320,San Joaquin County,CA,79.7583081570997
95328,Stanislaus County,CA,96.67673716012085
95386,Stanislaus County,CA,89.72809667673715
95503,Humboldt County,CA,59.21450151057401
95642,Amador County,CA,96.37462235649546
95662,Sacramento County,CA,75.83081570996978
95841,Sacramento County,CA,90.33232628398792
95901,Yuba County,CA,28.700906344410875
95928,Butte County,CA,87.00906344410876
80205,Denver County,CO,17.82477341389728
80221,Adams County,CO,39.87915407854985
80247,Arapahoe County,CO,50.755287009063444
80538,Larimer County,CO,16.61631419939577
81504,Mesa County,CO,36.555891238670696
06040,Hartford County,CT,13.897280966767372
06447,Hartford County,CT,97.58308157099698
06450,New Haven County,CT,6.948640483383686
06519,New Haven County,CT,28.3987915407855
06607,Fairfield County,CT,88.51963746223565
06708,New Haven County,CT,27.19033232628399
06854,Fairfield County,CT,56.49546827794561
19805,New Castle County,DE,3.3232628398791544
19904,Kent County,DE,18.731117824773413
32068,Clay County,FL,16.314199395770395
32084,St. Johns County,FL,35.04531722054381
32177,Putnam County,FL,56.797583081571
32210,Duval County,FL,4.833836858006042
32216,Duval County,FL,24.47129909365559
32225,Duval County,FL,34.74320241691843
32409,Bay County,FL,81.87311178247734
32504,Escambia County,FL,60.12084592145015
32656,Clay County,FL,76.13293051359517
32825,Orange County,FL,74.92447129909365
32953,Brevard County,FL,67.06948640483384
33186,Miami-Dade County,FL,60.42296072507553
33334,Broward County,FL,62.839879154078545
33444,Palm Beach County,FL,69.78851963746223
33772,Pinellas County,FL,84.59214501510573
33778,Pinellas County,FL,92.44712990936556
33781,Pinellas County,FL,83.08157099697885
33904,Lee County,FL,48.036253776435046
33908,Lee County,FL,67.97583081570997
34474,Marion County,FL,71.90332326283988
34950,St. Lucie County,FL,62.53776435045317
30012,Rockdale County,GA,64.35045317220543
30117,Carroll County,GA,41.389728096676734
30120,Bartow County,GA,25.075528700906347
30125,Polk County,GA,47.129909365558916
30188,Cherokee County,GA,26.586102719033235
30268,Fulton County,GA,86.10271903323263
30319,DeKalb County,GA,76.73716012084593
30646,Madison County,GA,93.35347432024169
31093,Houston County,GA,42.296072507552864
31904,Muscogee County,GA,37.764350453172206
96771,Hawaii County,HI,97.2809667673716
96813,Honolulu County,HI,43.80664652567976
83814,Kootenai County,ID,43.50453172205438
83856,Bonner County,ID,94.86404833836858
60131,Cook County,IL,79.15407854984893
60506,Kane County,IL,31.1178247734139
60513,Cook County,IL,52.26586102719033
60586,Will County,IL,20.54380664652568
60622,Cook County,IL,46.82779456193353
61021,Lee County,IL,39.274924471299094
62233,Randolph County,IL,99.09365558912387
46312,Lake County,IN,22.054380664652566
46324,Lake County,IN,58.30815709969789
46802,Allen County,IN,86.404833836858
46807,Allen County,IN,60.72507552870091
47001,Dearborn County,IN,89.12386706948641
47403,Monroe County,IN,91.54078549848943
47807,Vigo County,IN,82.4773413897281
47904,Tippecanoe County,IN,67.6737160120846
50701,Black Hawk County,IA,42.296072507552864
51351,Dickinson County,IA,98.79154078549848
52404,Linn County,IA,10.876132930513595
52501,Wapello County,IA,19.637462235649547
66062,Johnson County,KS,14.501510574018129
67203,Sedgwick County,KS,77.64350453172206
40047,Bullitt County,KY,35.34743202416919
40210,Jefferson County,KY,52.87009063444109
40216,Jefferson County,KY,11.48036253776435
40475,Madison County,KY,10.574018126888216
40504,Fayette County,KY,53.776435045317214
40517,Fayette County,KY,25.981873111782477
41071,Campbell County,KY,68.8821752265861
42303,Daviess County,KY,12.990936555891238
42420,Henderson County,KY,12.084592145015106
42431,Hopkins County,KY,27.492447129909365
42717,Cumberland County,KY,65.25679758308158
42754,Grayson County,KY,33.23262839879154
70006,Jefferson Parish,LA,59.818731117824775
70030,St. Charles Parish,LA,100
70458,St. Tammany Parish,LA,6.3444108761329305
71006,Bossier Parish,LA,61.631419939577036
71201,Ouachita Parish,LA,44.41087613293052
04072,York County,ME,50.15105740181269
04276,Oxford County,ME,72.20543806646525
20874,Montgomery County,MD,57.09969788519638
01030,Hampden County,MA,84.29003021148036
01075,Hampshire County,MA,95.77039274924472
01085,Hampden County,MA,3.0211480362537766
01109,Hampden County,MA,0.6042296072507553
01583,Worcester County,MA,83.68580060422961
01841,Essex County,MA,0
01879,Middlesex County,MA,34.13897280966767
02038,Norfolk County,MA,18.12688821752266
02118,Suffolk County,MA,0.3021148036253776
02122,Suffolk County,MA,59.516616314199396
02125,Suffolk County,MA,1.2084592145015105
02149,Middlesex County,MA,82.17522658610272
02151,Suffolk County,MA,90.6344410876133
02180,Middlesex County,MA,51.963746223564954
02301,Plymouth County,MA,64.04833836858006
02554,Nantucket County,MA,41.99395770392749
02720,Bristol County,MA,0.906344410876133
02721,Bristol County,MA,1.5105740181268883
48060,St. Clair County,MI,3.625377643504532
48079,St. Clair County,MI,72.80966767371602
48170,Wayne County,MI,19.335347432024168
48178,Oakland County,MI,40.483383685800604
48195,Wayne County,MI,29.003021148036257
48307,Oakland County,MI,23.867069486404834
48473,Genesee County,MI,54.38066465256798
48864,Ingham County,MI,77.94561933534743
49008,Kalamazoo County,MI,74.62235649546828
49048,Kalamazoo County,MI,23.564954682779458
49058,Barry County,MI,36.25377643504532
49442,Muskegon County,MI,3.927492447129909
49509,Kent County,MI,18.429003021148034
49601,Wexford County,MI,57.70392749244713
49801,Dickinson County,MI,73.111782477341393
55046,Rice County,MN,99.39577039274926
55082,Washington County,MN,43.202416918429
55128,Washington County,MN,58.610271903323266
55404,Hennepin County,MN,2.719033232628399
55422,Hennepin County,MN,35.95166163141994
55746,St. Louis County,MN,29.607250755287005
55805,St. Louis County,MN,55.58912386706949
56320,Stearns County,MN,97.88519637462235
56470,Hubbard County,MN,75.22658610271903
56633,Hubbard County,MN,93.65558912386706
39401,Forrest County,MS,38.972809667673715
63628,St. Francois County,MO,73.41389728096676
63935,Ripley County,MO,63.74622356495468
64052,Jackson County,MO,13.595166163141995
64064,Jackson County,MO,61.329305135951664
64772,Vernon County,MO,51.66163141993958
89406,Churchill County,NV,51.3595166163142
89434,Washoe County,NV,54.68277945619335
89706,Carson City,NV,70.39274924471299
03867,Strafford County,NH,26.888217522658607
07060,Union County,NJ,8.459214501510575
07111,Essex County,NJ,2.416918429003021
07601,Bergen County,NJ,7.552870090634441
07724,Monmouth County,NJ,95.16616314199395
07821,Sussex County,NJ,90.93655589123867
08079,Salem County,NJ,54.0785498489426
08205,Atlantic County,NJ,22.356495468277945
08360,Cumberland County,NJ,48.94259818731118
08816,Middlesex County,NJ,44.41087613293052
11223,Kings County,NY,63.141993957703924
11427,Queens County,NY,80.66465256797582
11763,Suffolk County,NY,55.58912386706949
13039,Onondaga County,NY,54.98489425981873
13619,Jefferson County,NY,57.40181268882175
13662,St. Lawrence County,NY,9.365558912386707
14207,Erie County,NY,38.670694864048336
14433,Wayne County,NY,66.76737160120845
14522,Wayne County,NY,41.08761329305136
14608,Monroe County,NY,17.220543806646525
14615,Monroe County,NY,15.407854984894259
27107,Forsyth County,NC,5.13595166163142
27215,Alamance County,NC,13.293051359516618
27292,Davidson County,NC,5.438066465256798
27701,Durham County,NC,82.77945619335347
27704,Durham County,NC,15.709969788519636
27889,Beaufort County,NC,37.160120845921455
28025,Cabarrus County,NC,14.803625377643503
28105,Mecklenburg County,NC,67.37160120845923
28128,Stanly County,NC,94.5619335347432
28211,Mecklenburg County,NC,35.64954682779456
28504,Lenoir County,NC,55.2870090634441
43080,Licking County,OH,91.8429003021148
43204,Franklin County,OH,6.042296072507553
43224,Franklin County,OH,6.646525679758309
43402,Wood County,OH,25.6797583081571
43609,Lucas County,OH,28.09667673716012
44145,Cuyahoga County,OH,22.9607250755287
44313,Summit County,OH,34.44108761329305
44483,Trumbull County,OH,21.148036253776432
44646,Stark County,OH,12.084592145015106
44663,Tuscarawas County,OH,17.522658610271904
44811,Sandusky County,OH,38.368580060422964
44890,Huron County,OH,51.057401812688816
45208,Hamilton County,OH,89.42598187311178
45231,Hamilton County,OH,9.667673716012084
45305,Greene County,OH,79.45619335347432
45601,Ross County,OH,1.812688821752266
74074,Payne County,OK,56.19335347432024
74301,Craig County,OK,69.18429003021149
74403,Muskogee County,OK,40.78549848942598
97202,Multnomah County,OR,32.93051359516616
97402,Lane County,OR,24.773413897280967
15071,Allegheny County,PA,88.82175226586104
16001,Butler County,PA,4.229607250755287
16507,Erie County,PA,87.91540785498489
17019,York County,PA,73.71601208459214
17109,Dauphin County,PA,30.211480362537763
17268,Franklin County,PA,22.658610271903324
19013,Delaware County,PA,4.531722054380665
19020,Bucks County,PA,10.27190332326284
19055,Bucks County,PA,61.933534743202415
19104,Philadelphia County,PA,47.73413897280967
19320,Chester County,PA,11.782477341389729
02860,Providence County,RI,8.761329305135952
29072,Lexington County,SC,32.02416918429003
29115,Orangeburg County,SC,46.52567975830816
29365,Spartanburg County,SC,70.09063444108762
29671,Pickens County,SC,58.91238670694864
29902,Beaufort County,SC,83.38368580060424
37130,Rutherford County,TN,62.2356495468278
37312,Bradley County,TN,53.17220543806647
37334,Lincoln County,TN,46.22356495468278
37421,Hamilton County,TN,33.53474320241692
37664,Sullivan County,TN,25.377643504531722
75104,Dallas County,TX,27.794561933534744
75156,Henderson County,TX,83.98791540785498
75228,Dallas County,TX,8.157099697885197
75501,Bowie County,TX,37.764350453172206
75901,Angelina County,TX,45.9214501510574
75956,Jasper County,TX,91.23867069486404
76017,Tarrant County,TX,37.46223564954683
76240,Cooke County,TX,49.546827794561935
77015,Harris County,TX,49.848942598187314
77627,Jefferson County,TX,77.34138972809667
78209,Bexar County,TX,72.50755287009063
78741,Travis County,TX,78.54984894259819
79705,Midland County,TX,32.62839879154079
79707,Midland County,TX,41.69184290030212
79936,El Paso County,TX,16.91842900302115
84047,Salt Lake County,UT,32.3262839879154
84106,Salt Lake County,UT,45.61933534743202
84124,Salt Lake County,UT,85.1963746223565
84129,,UT,71.29909365558912
84404,Weber County,UT,63.141993957703924
22101,Fairfax County,VA,61.027190332326285
22205,Arlington County,VA,92.14501510574019
22308,Fairfax County,VA,87.31117824773413
23220,Richmond city,VA,70.99697885196375
23860,Hopewell city,VA,36.85800604229607
24450,Rockbridge County,VA,81.2688821752266
24541,Danville city,VA,45.01510574018127
24651,Tazewell County,VA,93.65558912386706
98023,King County,WA,30.815709969788518
98043,Snohomish County,WA,80.96676737160121
98122,King County,WA,65.86102719033232
98166,King County,WA,85.49848942598187
98338,Pierce County,WA,58.006042296072515
98660,Clark County,WA,92.74924471299094
98902,Yakima County,WA,33.8368580060423
25414,Jefferson County,WV,70.69486404833837
26047,Hancock County,WV,85.80060422960725
26101,Wood County,WV,5.740181268882175
26301,Harrison County,WV,9.06344410876133
53081,Sheboygan County,WI,21.75226586102719
53140,Kenosha County,WI,15.105740181268882
53142,Kenosha County,WI,12.688821752265861
53216,Milwaukee County,WI,7.854984894259818
53219,Milwaukee County,WI,23.26283987915408
53405,Racine County,WI,7.250755287009064
53511,Rock County,WI,2.1148036253776437
53597,Dane County,WI,66.46525679758308
53716,Dane County,WI,80.36253776435045
54020,Polk County,WI,81.57099697885197
54166,Shawano County,WI,94.25981873111783
54235,Door County,WI,68.58006042296071
54301,Brown County,WI,84.89425981873111
54302,Brown County,WI,31.419939577039273
54449,Wood County,WI,78.24773413897282
54538,Oneida County,WI,98.48942598187311
