ZipCode,county,state,Adult,Retirement
35031,Blount County,AL,87.4762808349146,NA
35043,Shelby County,AL,73.81404174573055,NA
35215,Jefferson County,AL,7.969639468690702,NA
35226,Jefferson County,AL,92.40986717267552,NA
35401,Tuscaloosa County,AL,22.39089184060721,NA
35613,Limestone County,AL,38.70967741935484,NA
35630,Lauderdale County,AL,27.893738140417458,NA
35907,Etowah County,AL,77.22960151802657,NA
36278,Randolph County,AL,96.9639468690702,NA
36301,Houston County,AL,NA,16.41337386018237
36507,Baldwin County,AL,NA,67.47720364741642
36605,Mobile County,AL,NA,54.40729483282675
36618,Mobile County,AL,NA,86.01823708206688
85028,Maricopa County,AZ,NA,64.74164133738601
85035,Maricopa County,AZ,59.772296015180274,NA
85086,Maricopa County,AZ,86.33776091081594,NA
85209,Maricopa County,AZ,80.07590132827325,NA
85304,Maricopa County,AZ,49.146110056926,NA
85335,Maricopa County,AZ,61.48007590132827,NA
85382,Maricopa County,AZ,69.63946869070209,NA
85383,Maricopa County,AZ,24.47817836812144,NA
85629,Pima County,AZ,NA,62.00607902735562
85701,Pima County,AZ,81.78368121442125,NA
85933,Navajo County,AZ,NA,96.04863221884499
86301,Yavapai County,AZ,61.66982922201139,NA
71953,Polk County,AR,75.33206831119544,NA
72114,Pulaski County,AR,NA,98.17629179331307
90002,Los Angeles County,CA,NA,62.91793313069909
90016,Los Angeles County,CA,NA,84.19452887537993
90018,Los Angeles County,CA,34.9146110056926,NA
90020,Los Angeles County,CA,NA,59.57446808510638
90035,Los Angeles County,CA,82.5426944971537,37.68996960486322
90037,Los Angeles County,CA,NA,41.94528875379939
90044,Los Angeles County,CA,5.88235294117647,NA
90277,Los Angeles County,CA,NA,83.28267477203647
90404,Los Angeles County,CA,NA,60.790273556231
90504,Los Angeles County,CA,63.946869070208734,NA
90620,Orange County,CA,NA,83.89057750759878
90701,Los Angeles County,CA,86.90702087286527,NA
90746,Los Angeles County,CA,70.58823529411765,NA
90803,Los Angeles County,CA,NA,49.848024316109424
91107,Los Angeles County,CA,NA,51.3677811550152
91406,Los Angeles County,CA,71.72675521821633,NA
91706,Los Angeles County,CA,22.58064516129032,NA
91711,Los Angeles County,CA,NA,96.35258358662614
91761,San Bernardino County,CA,21.25237191650854,33.73860182370821
91764,San Bernardino County,CA,33.96584440227704,NA
92019,San Diego County,CA,NA,48.02431610942249
92020,San Diego County,CA,NA,7.90273556231003
92102,San Diego County,CA,35.294117647058826,61.39817629179332
92107,San Diego County,CA,NA,71.73252279635258
92120,San Diego County,CA,71.5370018975332,NA
92173,San Diego County,CA,58.254269449715366,NA
92260,Riverside County,CA,NA,48.632218844984806
92301,San Bernardino County,CA,30.36053130929791,78.72340425531915
92374,San Bernardino County,CA,40.98671726755218,NA
92376,San Bernardino County,CA,8.159392789373813,NA
92394,San Bernardino County,CA,45.73055028462998,NA
92395,San Bernardino County,CA,24.09867172675522,77.20364741641338
92553,Riverside County,CA,NA,44.07294832826747
92562,Riverside County,CA,NA,33.130699088145896
92586,Riverside County,CA,72.10626185958255,NA
92646,Orange County,CA,NA,8.51063829787234
92648,Orange County,CA,25.426944971537,NA
92801,Orange County,CA,30.55028462998102,32.82674772036474
92807,Orange County,CA,NA,41.03343465045592
92881,Riverside County,CA,67.55218216318785,NA
93117,Santa Barbara County,CA,NA,76.59574468085107
93257,Tulare County,CA,11.57495256166983,NA
93305,Kern County,CA,39.46869070208729,NA
93454,Santa Barbara County,CA,NA,49.24012158054711
93611,Fresno County,CA,34.34535104364326,NA
93630,Fresno County,CA,74.38330170777988,NA
93720,Fresno County,CA,NA,79.33130699088146
94044,San Mateo County,CA,49.52561669829222,NA
94061,San Mateo County,CA,72.67552182163189,NA
94116,San Francisco County,CA,NA,91.7933130699088
94117,San Francisco County,CA,62.99810246679317,NA
94122,San Francisco County,CA,44.4022770398482,NA
94124,San Francisco County,CA,67.74193548387096,NA
94559,Napa County,CA,NA,62.61398176291794
94588,Alameda County,CA,66.22390891840607,NA
94589,Solano County,CA,NA,53.49544072948328
94952,Sonoma County,CA,69.25996204933587,NA
94954,Sonoma County,CA,46.29981024667932,NA
95032,Santa Clara County,CA,69.44971537001898,NA
95116,Santa Clara County,CA,NA,56.838905775075986
95122,Santa Clara County,CA,NA,51.3677811550152
95136,Santa Clara County,CA,55.40796963946869,NA
95138,Santa Clara County,CA,96.7741935483871,NA
95210,San Joaquin County,CA,36.05313092979127,NA
95355,Stanislaus County,CA,7.590132827324478,NA
95366,San Joaquin County,CA,73.43453510436433,NA
95391,San Joaquin County,CA,75.52182163187857,NA
95451,Lake County,CA,NA,53.799392097264445
95472,Sonoma County,CA,76.280834914611,NA
95482,Mendocino County,CA,NA,24.924012158054712
95519,Humboldt County,CA,NA,80.54711246200608
95624,Sacramento County,CA,NA,24.316109422492403
95630,Sacramento County,CA,NA,18.237082066869302
95747,Placer County,CA,NA,75.07598784194529
96001,Shasta County,CA,18.785578747628083,NA
96021,Tehama County,CA,87.85578747628084,NA
80013,Arapahoe County,CO,NA,85.1063829787234
80022,Adams County,CO,NA,40.121580547112465
80027,Boulder County,CO,56.73624288425047,NA
80031,Adams County,CO,35.86337760910816,NA
80123,Jefferson County,CO,NA,57.75075987841946
80220,Denver County,CO,31.119544592030362,NA
80228,Jefferson County,CO,91.27134724857684,NA
80233,Adams County,CO,NA,57.14285714285714
80302,Boulder County,CO,NA,91.48936170212765
80433,Jefferson County,CO,95.06641366223909,NA
80526,Larimer County,CO,NA,32.52279635258359
80528,Larimer County,CO,73.24478178368122,NA
80601,Adams County,CO,NA,73.55623100303951
80917,El Paso County,CO,57.685009487666036,NA
81303,La Plata County,CO,NA,88.44984802431611
81321,Montezuma County,CO,NA,65.04559270516718
06053,Hartford County,CT,NA,25.227963525835868
06066,Tolland County,CT,15.370018975332068,NA
06281,Windham County,CT,60.341555977229596,NA
06443,New Haven County,CT,63.37760910815939,NA
06511,New Haven County,CT,3.795066413662239,NA
06515,New Haven County,CT,26.56546489563567,NA
06605,Fairfield County,CT,NA,63.525835866261396
06704,New Haven County,CT,19.54459203036053,NA
06811,Fairfield County,CT,NA,65.65349544072949
06840,Fairfield County,CT,89.56356736242884,NA
19711,New Castle County,DE,NA,10.94224924012158
19804,New Castle County,DE,25.616698292220114,NA
19809,New Castle County,DE,55.787476280834916,NA
19904,Kent County,DE,40.41745730550284,NA
19938,Kent County,DE,NA,63.22188449848024
19947,Sussex County,DE,42.50474383301708,NA
32065,Clay County,FL,39.46869070208729,NA
32068,Clay County,FL,10.436432637571158,NA
32086,St. Johns County,FL,NA,19.45288753799392
32117,Volusia County,FL,30.170777988614798,NA
32159,Lake County,FL,NA,22.796352583586625
32164,Flagler County,FL,31.499051233396585,NA
32205,Duval County,FL,22.960151802656547,NA
32209,Duval County,FL,19.35483870967742,NA
32210,Duval County,FL,3.225806451612903,NA
32221,Duval County,FL,NA,36.474164133738604
32226,Duval County,FL,42.125237191650854,NA
32244,Duval County,FL,4.364326375711575,NA
32405,Bay County,FL,23.52941176470588,NA
32506,Escambia County,FL,NA,18.541033434650455
32514,Escambia County,FL,NA,68.38905775075987
32526,Escambia County,FL,12.333965844402277,NA
32570,Santa Rosa County,FL,NA,5.775075987841945
32666,Putnam County,FL,95.63567362428842,NA
32940,Brevard County,FL,NA,25.227963525835868
33015,Miami-Dade County,FL,NA,46.504559270516715
33020,Broward County,FL,27.13472485768501,NA
33023,Broward County,FL,17.077798861480076,46.808510638297875
33034,Miami-Dade County,FL,87.09677419354838,NA
33054,Miami-Dade County,FL,46.67931688804554,NA
33064,Broward County,FL,35.10436432637571,NA
33068,Broward County,FL,NA,82.37082066869301
33126,Miami-Dade County,FL,84.25047438330171,NA
33141,Miami-Dade County,FL,NA,37.08206686930091
33175,Miami-Dade County,FL,NA,61.702127659574465
33313,Broward County,FL,51.23339658444023,NA
33410,Palm Beach County,FL,NA,34.34650455927052
33418,Palm Beach County,FL,NA,66.56534954407294
33428,Palm Beach County,FL,NA,82.67477203647417
33436,Palm Beach County,FL,52.75142314990512,NA
33467,Palm Beach County,FL,76.0910815939279,NA
33549,Hillsborough County,FL,NA,82.97872340425532
33770,Pinellas County,FL,54.459203036053125,NA
33771,Pinellas County,FL,81.21442125237192,NA
33810,Polk County,FL,23.14990512333966,NA
33872,Highlands County,FL,63.75711574952562,NA
33948,Charlotte County,FL,NA,74.46808510638297
33974,Lee County,FL,72.29601518026566,NA
33983,Charlotte County,FL,66.60341555977229,NA
34120,Collier County,FL,33.206831119544596,NA
34202,Manatee County,FL,NA,39.209726443769
34208,Manatee County,FL,78.17836812144212,NA
34221,Manatee County,FL,85.57874762808349,NA
34237,Sarasota County,FL,NA,71.42857142857143
34285,Sarasota County,FL,84.25047438330171,NA
34471,Marion County,FL,48.57685009487666,NA
34683,Pinellas County,FL,58.44402277039848,NA
34744,Osceola County,FL,NA,38.297872340425535
34786,Orange County,FL,96.20493358633776,NA
30032,DeKalb County,GA,11.005692599620494,NA
30044,Gwinnett County,GA,NA,15.80547112462006
30102,Cherokee County,GA,NA,29.48328267477204
30117,Carroll County,GA,29.98102466793169,NA
30223,Spalding County,GA,34.53510436432637,NA
30228,Henry County,GA,28.083491461100568,NA
30238,Clayton County,GA,49.71537001897533,NA
30281,Henry County,GA,NA,18.84498480243161
30312,Fulton County,GA,NA,57.446808510638306
30331,Fulton County,GA,14.800759013282732,NA
30360,DeKalb County,GA,NA,94.22492401215806
30504,Hall County,GA,NA,92.70516717325228
30512,Union County,GA,NA,52.27963525835866
30519,Gwinnett County,GA,NA,31.61094224924012
30542,Hall County,GA,48.57685009487666,NA
30606,Clarke County,GA,35.673624288425046,NA
30646,Madison County,GA,82.73244781783681,NA
30677,Oconee County,GA,NA,76.29179331306992
30680,Barrow County,GA,50.284629981024665,NA
30721,Whitfield County,GA,21.062618595825427,NA
30830,Burke County,GA,72.67552182163189,NA
30907,Columbia County,GA,68.1214421252372,NA
30909,Richmond County,GA,NA,56.23100303951368
31024,Putnam County,GA,NA,40.42553191489361
31419,Chatham County,GA,NA,32.21884498480243
31520,Glynn County,GA,47.24857685009488,NA
31601,Lowndes County,GA,NA,95.13677811550151
31620,Cook County,GA,69.07020872865274,NA
96797,Honolulu County,HI,NA,69.90881458966565
96825,Honolulu County,HI,50.664136622390885,NA
83201,Bannock County,ID,52.371916508538895,NA
83318,Cassia County,ID,NA,48.328267477203646
83646,Ada County,ID,NA,7.598784194528875
83686,Canyon County,ID,6.83111954459203,NA
60012,McHenry County,IL,92.59962049335864,NA
60014,McHenry County,IL,NA,14.893617021276595
60015,Lake County,IL,78.36812144212524,NA
60016,Cook County,IL,20.872865275142317,44.37689969604863
60035,Lake County,IL,NA,13.069908814589665
60050,McHenry County,IL,65.08538899430741,NA
60060,Lake County,IL,NA,15.19756838905775
60074,Cook County,IL,39.27893738140417,NA
60130,Cook County,IL,NA,68.08510638297872
60148,DuPage County,IL,12.903225806451612,NA
60194,Cook County,IL,67.17267552182163,NA
60411,Cook County,IL,11.195445920303605,NA
60431,Will County,IL,37.571157495256166,NA
60433,Will County,IL,57.49525616698292,NA
60527,DuPage County,IL,NA,10.638297872340425
60554,Kane County,IL,82.92220113851992,NA
60612,Cook County,IL,NA,29.17933130699088
60618,Cook County,IL,7.2106261859582546,NA
60623,Cook County,IL,NA,11.55015197568389
60628,Cook County,IL,26.944971537001898,NA
60641,Cook County,IL,40.03795066413662,NA
60647,Cook County,IL,NA,20.972644376899694
60804,Cook County,IL,17.647058823529413,NA
60970,Iroquois County,IL,89.94307400379506,NA
61073,Winnebago County,IL,82.35294117647058,NA
61244,Rock Island County,IL,95.82542694497154,NA
61604,Peoria County,IL,NA,39.51367781155015
61611,Tazewell County,IL,NA,94.52887537993921
61701,McLean County,IL,28.6527514231499,NA
61755,Tazewell County,IL,NA,99.3920972644377
62450,Richland County,IL,NA,59.87841945288754
62471,Fayette County,IL,85.19924098671727,NA
46123,Hendricks County,IN,44.97153700189753,NA
46227,Marion County,IN,NA,6.382978723404255
46304,Porter County,IN,84.0607210626186,NA
46307,Lake County,IN,NA,16.109422492401215
46322,Lake County,IN,21.44212523719165,NA
46371,LaPorte County,IN,99.62049335863378,NA
46514,Elkhart County,IN,26.755218216318788,NA
46526,Elkhart County,IN,53.32068311195446,NA
46530,St. Joseph County,IN,90.13282732447819,NA
46804,Allen County,IN,NA,23.70820668693009
46901,Howard County,IN,NA,4.25531914893617
46933,Grant County,IN,NA,75.37993920972644
47601,Warrick County,IN,56.54648956356736,NA
47630,Warrick County,IN,67.36242884250474,NA
47710,Vanderburgh County,IN,32.63757115749525,NA
47905,Tippecanoe County,IN,NA,55.92705167173252
50023,Polk County,IA,83.11195445920305,NA
50138,Marion County,IA,49.33586337760911,NA
50265,Polk County,IA,36.24288425047438,NA
50315,Polk County,IA,50.47438330170778,NA
50595,Hamilton County,IA,70.39848197343453,NA
50703,Black Hawk County,IA,25.996204933586338,29.48328267477204
51301,Clay County,IA,85.38899430740038,NA
51501,Pottawattamie County,IA,15.939278937381404,NA
51503,Pottawattamie County,IA,29.79127134724858,NA
52101,Winneshiek County,IA,65.2751423149905,NA
52761,Muscatine County,IA,NA,11.854103343465045
66043,Leavenworth County,KS,98.67172675521822,NA
66049,Douglas County,KS,53.510436432637576,NA
66748,Allen County,KS,99.81024667931689,NA
67203,Sedgwick County,KS,NA,90.27355623100304
67208,Sedgwick County,KS,89.75332068311197,NA
67217,Sedgwick County,KS,NA,77.81155015197568
67410,Dickinson County,KS,79.88614800759012,NA
67530,Barton County,KS,64.13662239089184,NA
67851,Finney County,KS,99.24098671726756,NA
40059,Jefferson County,KY,71.15749525616698,NA
40162,Hardin County,KY,97.34345351043643,NA
40211,Jefferson County,KY,40.03795066413662,NA
40216,Jefferson County,KY,NA,47.11246200607903
40229,Jefferson County,KY,NA,21.27659574468085
40351,Rowan County,KY,NA,52.88753799392097
40356,Jessamine County,KY,12.144212523719165,NA
40729,Laurel County,KY,91.65085388994308,NA
42003,McCracken County,KY,42.69449715370019,NA
42071,Calloway County,KY,38.33017077798861,NA
42320,Ohio County,KY,47.6280834914611,NA
42718,Taylor County,KY,38.51992409867172,NA
70072,Jefferson Parish,LA,NA,44.984802431610944
70125,Orleans Parish,LA,33.017077798861486,NA
70360,Terrebonne Parish,LA,9.867172675521822,NA
70363,Terrebonne Parish,LA,2.846299810246679,NA
70427,Washington Parish,LA,13.472485768500949,NA
70435,St. Tammany Parish,LA,18.026565464895636,NA
70438,Washington Parish,LA,NA,68.69300911854104
70592,Lafayette Parish,LA,NA,70.2127659574468
70634,Beauregard Parish,LA,NA,38.90577507598784
70802,East Baton Rouge Parish,LA,23.33965844402277,NA
70818,East Baton Rouge Parish,LA,88.9943074003795,NA
71107,Caddo Parish,LA,1.8975332068311195,NA
71108,Caddo Parish,LA,52.94117647058824,NA
71109,Caddo Parish,LA,5.502846299810247,NA
71220,Morehouse Parish,LA,15.749525616698293,NA
04002,York County,ME,88.23529411764706,NA
04073,York County,ME,66.41366223908919,NA
04086,Sagadahoc County,ME,70.20872865275142,NA
04102,Cumberland County,ME,NA,73.25227963525836
04976,Somerset County,ME,13.851992409867172,NA
20706,Prince George's County,MD,53.70018975332068,NA
20720,Prince George's County,MD,NA,96.96048632218846
20743,Prince George's County,MD,83.68121442125236,NA
20748,Prince George's County,MD,42.314990512333964,NA
20854,Montgomery County,MD,NA,34.954407294832826
20895,Montgomery County,MD,NA,93.00911854103343
21030,Baltimore County,MD,85.7685009487666,NA
21214,Baltimore city,MD,55.97722960151803,NA
21215,Baltimore city,MD,NA,10.030395136778116
21236,Baltimore County,MD,NA,86.93009118541033
21740,Washington County,MD,NA,26.443768996960486
21863,Worcester County,MD,94.30740037950665,NA
01013,Hampden County,MA,NA,13.677811550151976
01069,Hampden County,MA,57.3055028462998,NA
01085,Hampden County,MA,22.2011385199241,NA
01108,Hampden County,MA,9.67741935483871,NA
01201,Berkshire County,MA,3.415559772296015,NA
01364,Franklin County,MA,44.212523719165084,NA
01523,Worcester County,MA,71.91650853889942,NA
01602,Worcester County,MA,46.48956356736243,NA
01604,Worcester County,MA,0.18975332068311196,NA
01607,Worcester County,MA,NA,36.17021276595745
01608,Worcester County,MA,74.76280834914611,NA
01701,Middlesex County,MA,34.15559772296015,NA
01742,Middlesex County,MA,51.423149905123346,NA
01850,Middlesex County,MA,NA,74.77203647416414
01867,Middlesex County,MA,56.166982922201136,NA
01876,Middlesex County,MA,75.71157495256166,NA
01890,Middlesex County,MA,41.935483870967744,NA
01902,Essex County,MA,0,NA
01904,Essex County,MA,9.108159392789373,12.462006079027356
01913,Essex County,MA,67.93168880455408,NA
01945,Essex County,MA,37.76091081593928,NA
01970,Essex County,MA,NA,0.60790273556231
02019,Norfolk County,MA,NA,8.814589665653495
02026,Norfolk County,MA,NA,16.717325227963524
02061,Plymouth County,MA,62.04933586337761,NA
02067,Norfolk County,MA,76.47058823529412,NA
02114,Suffolk County,MA,NA,37.99392097264438
02124,Suffolk County,MA,NA,0
02134,Suffolk County,MA,37.00189753320683,NA
02171,Norfolk County,MA,NA,20.060790273556233
02176,Middlesex County,MA,27.32447817836812,NA
02188,Norfolk County,MA,NA,38.60182370820669
02301,Plymouth County,MA,NA,1.82370820668693
02343,Norfolk County,MA,35.483870967741936,NA
02421,Middlesex County,MA,16.698292220113853,NA
02481,Norfolk County,MA,NA,58.05471124620061
02536,Barnstable County,MA,NA,13.37386018237082
02747,Bristol County,MA,24.857685009487664,NA
48033,Oakland County,MI,NA,31.30699088145897
48035,Macomb County,MI,8.918406072106261,NA
48043,Macomb County,MI,59.20303605313093,NA
48045,Macomb County,MI,21.631878557874764,NA
48047,Macomb County,MI,NA,14.58966565349544
48072,Oakland County,MI,NA,81.7629179331307
48080,Macomb County,MI,32.82732447817837,NA
48085,Oakland County,MI,27.703984819734345,NA
48104,Washtenaw County,MI,NA,35.56231003039514
48124,Wayne County,MI,17.4573055028463,NA
48125,Wayne County,MI,65.84440227703985,NA
48127,Wayne County,MI,56.35673624288425,NA
48170,Wayne County,MI,11.954459203036052,2.735562310030395
48185,Wayne County,MI,4.174573055028463,60.182370820668694
48215,Wayne County,MI,NA,55.01519756838906
48334,Oakland County,MI,NA,35.25835866261398
48457,Genesee County,MI,92.97912713472486,NA
48744,Tuscola County,MI,99.05123339658444,NA
48858,Isabella County,MI,NA,59.27051671732523
48895,Ingham County,MI,NA,82.06686930091185
48912,Ingham County,MI,48.19734345351044,NA
49002,Kalamazoo County,MI,73.05502846299811,NA
49010,Allegan County,MI,41.17647058823529,46.20060790273556
49022,Berrien County,MI,52.18216318785579,NA
49024,Kalamazoo County,MI,NA,21.88449848024316
49048,Kalamazoo County,MI,14.61100569259962,NA
49079,Van Buren County,MI,NA,78.11550151975683
49202,Jackson County,MI,95.2561669829222,NA
49221,Lenawee County,MI,NA,53.191489361702125
49230,Jackson County,MI,NA,49.544072948328264
49286,Lenawee County,MI,NA,47.72036474164133
49331,Kent County,MI,NA,97.26443768996961
49333,Barry County,MI,63.18785578747628,NA
49345,Kent County,MI,65.46489563567363,NA
49348,Allegan County,MI,29.22201138519924,NA
49428,Ottawa County,MI,NA,28.87537993920973
49506,Kent County,MI,54.079696394686906,NA
49509,Kent County,MI,11.385199240986717,NA
49668,Wexford County,MI,98.292220113852,NA
49841,Marquette County,MI,NA,76.89969604863222
55045,Chisago County,MN,NA,75.98784194528876
55063,Pine County,MN,68.50094876660341,NA
55066,Goodhue County,MN,NA,19.756838905775076
55068,Dakota County,MN,59.39278937381404,NA
55104,Ramsey County,MN,43.07400379506641,NA
55128,Washington County,MN,45.16129032258064,NA
55304,Anoka County,MN,NA,44.680851063829785
55347,Hennepin County,MN,NA,64.43768996960486
55376,Wright County,MN,79.69639468690703,NA
55806,St. Louis County,MN,NA,62.31003039513677
55987,Winona County,MN,NA,22.188449848024316
56470,Hubbard County,MN,91.08159392789373,NA
56573,Otter Tail County,MN,NA,92.401215805471125
56716,Polk County,MN,28.27324478178368,NA
38654,DeSoto County,MS,75.90132827324479,NA
38916,Calhoun County,MS,93.92789373814043,NA
39183,Warren County,MS,58.06451612903226,NA
39206,Hinds County,MS,NA,78.419452887538
39232,Rankin County,MS,96.39468690702088,NA
39339,Winston County,MS,NA,65.95744680851064
39503,Harrison County,MS,80.83491461100569,NA
39581,Jackson County,MS,70.77798861480076,NA
39666,Pike County,MS,NA,84.49848024316108
63016,Jefferson County,MO,88.42504743833017,NA
63033,St. Louis County,MO,NA,79.0273556231003
63043,St. Louis County,MO,49.905123339658445,NA
63070,Jefferson County,MO,97.72296015180265,NA
63119,St. Louis County,MO,NA,45.59270516717325
63135,St. Louis County,MO,NA,28.57142857142857
63301,St. Charles County,MO,NA,3.64741641337386
63366,St. Charles County,MO,10.62618595825427,NA
63367,St. Charles County,MO,NA,33.43465045592705
63645,Madison County,MO,NA,74.16413373860182
63834,Mississippi County,MO,94.11764705882352,NA
63841,Stoddard County,MO,46.86907020872865,NA
64086,Jackson County,MO,31.309297912713475,NA
64106,Jackson County,MO,25.047438330170777,NA
64123,Jackson County,MO,40.60721062618596,NA
64138,Jackson County,MO,NA,17.325227963525837
64482,Atchison County,MO,99.43074003795066,NA
64772,Vernon County,MO,38.1404174573055,NA
64850,Newton County,MO,14.041745730550284,NA
65738,Greene County,MO,NA,79.93920972644378
65775,Howell County,MO,28.842504743833018,NA
65807,Greene County,MO,24.28842504743833,NA
59718,Gallatin County,MT,NA,86.62613981762918
59901,Flathead County,MT,90.32258064516128,NA
89135,Clark County,NV,83.30170777988614,NA
89142,Clark County,NV,59.96204933586338,NA
89156,Clark County,NV,60.72106261859582,NA
89502,Washoe County,NV,17.267552182163186,NA
03103,Hillsborough County,NH,4.743833017077799,NA
03867,Strafford County,NH,19.924098671726757,NA
07036,Union County,NJ,NA,17.62917933130699
07087,Hudson County,NJ,NA,5.47112462006079
07108,Essex County,NJ,1.3282732447817838,NA
07202,Union County,NJ,NA,9.422492401215806
07508,Passaic County,NJ,26.37571157495256,NA
07652,Bergen County,NJ,97.15370018975332,NA
07852,Morris County,NJ,NA,99.69604863221885
07869,Morris County,NJ,51.04364326375711,NA
07876,Morris County,NJ,100,NA
08022,Burlington County,NJ,NA,83.58662613981764
08104,Camden County,NJ,NA,2.127659574468085
08234,Atlantic County,NJ,3.0360531309297913,NA
08302,Cumberland County,NJ,NA,10.33434650455927
08527,Ocean County,NJ,NA,6.68693009118541
08618,Mercer County,NJ,0.3795066413662239,NA
08648,Mercer County,NJ,39.84819734345351,NA
08691,Mercer County,NJ,84.81973434535104,NA
08757,Ocean County,NJ,10.246679316888045,NA
08758,Ocean County,NJ,NA,72.03647416413374
08861,Middlesex County,NJ,21.821631878557877,NA
08902,Middlesex County,NJ,82.16318785578748,NA
87106,Bernalillo County,NM,85.7685009487666,NA
87109,Bernalillo County,NM,45.35104364326376,NA
87144,Sandoval County,NM,48.38709677419355,NA
87401,San Juan County,NM,14.421252371916509,NA
87402,San Juan County,NM,79.31688804554081,NA
87410,San Juan County,NM,NA,72.3404255319149
88012,Doa Ana County,NM,30.740037950664135,NA
88101,Curry County,NM,8.349146110056926,NA
10011,New York County,NY,64.70588235294117,NA
10038,New York County,NY,NA,41.33738601823708
10039,New York County,NY,27.514231499051235,NA
10310,Richmond County,NY,NA,42.24924012158054
10312,Richmond County,NY,40.79696394686907,NA
10452,Bronx County,NY,NA,8.206686930091186
10455,Bronx County,NY,3.6053130929791273,NA
10456,Bronx County,NY,1.5180265654648957,NA
10469,Bronx County,NY,15.559772296015181,NA
10472,Bronx County,NY,NA,1.21580547112462
10598,Westchester County,NY,89.18406072106262,NA
10701,Westchester County,NY,0.9487666034155597,NA
10901,Rockland County,NY,NA,89.96960486322189
11201,Kings County,NY,18.59582542694497,NA
11207,Kings County,NY,NA,58.35866261398176
11214,Kings County,NY,NA,11.246200607902736
11215,Kings County,NY,NA,30.69908814589666
11219,Kings County,NY,NA,20.66869300911854
11220,Kings County,NY,NA,26.13981762917933
11221,Kings County,NY,NA,3.343465045592705
11355,Queens County,NY,NA,17.933130699088146
11368,Queens County,NY,6.072106261859583,NA
11375,Queens County,NY,NA,28.267477203647417
11378,Queens County,NY,57.874762808349146,NA
11542,Nassau County,NY,NA,81.45896656534954
11693,Queens County,NY,81.40417457305503,NA
11704,Suffolk County,NY,52.56166982922201,NA
11777,Suffolk County,NY,NA,99.08814589665653
11951,Suffolk County,NY,NA,91.1854103343465
11953,Suffolk County,NY,93.54838709677419,NA
12182,Rensselaer County,NY,46.110056925996204,NA
12198,Rensselaer County,NY,NA,85.71428571428571
12601,Dutchess County,NY,26.185958254269448,NA
12832,Washington County,NY,68.3111954459203,NA
12839,Washington County,NY,23.719165085388994,NA
13021,Cayuga County,NY,2.4667931688804554,NA
13145,Oswego County,NY,NA,98.48024316109422
13203,Onondaga County,NY,16.508538899430743,NA
13209,Onondaga County,NY,43.45351043643264,NA
13367,Lewis County,NY,NA,87.53799392097264
13492,Oneida County,NY,NA,51.06382978723404
13662,St. Lawrence County,NY,6.261859582542694,NA
13732,Tioga County,NY,NA,43.46504559270517
13820,Otsego County,NY,8.72865275142315,NA
13850,Broome County,NY,13.66223908918406,NA
13905,Broome County,NY,1.1385199240986716,NA
14032,Erie County,NY,NA,96.65653495440729
14103,Orleans County,NY,41.745730550284634,NA
14150,Erie County,NY,4.554079696394687,NA
14210,Erie County,NY,NA,45.2887537993921
14220,Erie County,NY,NA,24.012158054711247
14224,Erie County,NY,22.011385199240987,NA
14225,Erie County,NY,7.400379506641366,NA
14502,Wayne County,NY,23.908918406072104,NA
14522,Wayne County,NY,NA,88.14589665653494
14534,Monroe County,NY,5.313092979127135,0.911854103343465
14586,Monroe County,NY,29.03225806451613,NA
14624,Monroe County,NY,1.7077798861480076,NA
14626,Monroe County,NY,2.2770398481973433,NA
14737,Cattaraugus County,NY,80.26565464895636,NA
27017,Surry County,NC,68.69070208728652,NA
27018,Yadkin County,NC,66.98292220113852,NA
27040,Forsyth County,NC,NA,27.0516717325228
27127,Forsyth County,NC,NA,4.86322188449848
27205,Randolph County,NC,65.65464895635674,NA
27214,Guilford County,NC,91.46110056925995,NA
27215,Alamance County,NC,62.808349146110054,NA
27295,Davidson County,NC,NA,3.0395136778115504
27405,Guilford County,NC,NA,12.158054711246201
27505,Harnett County,NC,95.44592030360532,NA
27513,Wake County,NC,NA,94.83282674772036
27514,Orange County,NC,55.21821631878557,NA
27534,Wayne County,NC,31.87855787476281,NA
27615,Wake County,NC,36.81214421252372,NA
27850,Halifax County,NC,83.87096774193549,NA
27910,Hertford County,NC,36.43263757115749,NA
28001,Stanly County,NC,58.82352941176471,NA
28025,Cabarrus County,NC,NA,13.98176291793313
28027,Cabarrus County,NC,16.129032258064516,6.990881458966565
28040,Rutherford County,NC,77.41935483870968,NA
28105,Mecklenburg County,NC,NA,50.455927051671736
28164,Gaston County,NC,71.15749525616698,NA
28166,Iredell County,NC,70.77798861480076,NA
28411,New Hanover County,NC,63.5673624288425,NA
28472,Columbus County,NC,NA,45.59270516717325
28516,Carteret County,NC,92.78937381404174,NA
28602,Catawba County,NC,19.165085388994306,NA
28613,Catawba County,NC,NA,86.32218844984803
28625,Iredell County,NC,NA,58.662613981762924
28630,Caldwell County,NC,29.411764705882355,NA
28690,Burke County,NC,50.853889943074,NA
43025,Licking County,OH,98.86148007590133,NA
43064,Madison County,OH,73.62428842504744,NA
43078,Champaign County,OH,NA,85.41033434650456
43110,Franklin County,OH,20.113851992409867,NA
43130,Fairfield County,OH,NA,1.5197568389057752
43232,Franklin County,OH,18.40607210626186,NA
43449,Ottawa County,OH,NA,80.24316109422493
43543,Williams County,OH,NA,92.09726443768997
43551,Wood County,OH,11.76470588235294,NA
43611,Lucas County,OH,NA,27.35562310030395
43614,Lucas County,OH,81.02466793168881,NA
43615,Lucas County,OH,NA,5.167173252279635
43701,Muskingum County,OH,NA,0.303951367781155
43724,Noble County,OH,97.53320683111954,NA
43832,Tuscarawas County,OH,NA,67.17325227963525
43968,Columbiana County,OH,NA,66.26139817629179
44001,Lorain County,OH,NA,23.10030395136778
44024,Geauga County,OH,NA,14.285714285714285
44039,Lorain County,OH,6.451612903225806,NA
44053,Lorain County,OH,NA,6.079027355623101
44055,Lorain County,OH,7.590132827324478,NA
44057,Lake County,OH,24.667931688804554,NA
44060,Lake County,OH,5.692599620493358,NA
44087,Summit County,OH,NA,15.19756838905775
44117,Cuyahoga County,OH,38.89943074003795,NA
44145,Cuyahoga County,OH,61.10056925996204,NA
44471,Mahoning County,OH,NA,75.37993920972644
44622,Tuscarawas County,OH,NA,70.51671732522796
44646,Stark County,OH,31.688804554079695,NA
44691,Wayne County,OH,NA,27.659574468085108
44709,Stark County,OH,78.55787476280834,NA
44720,Stark County,OH,57.1157495256167,NA
45011,Butler County,OH,13.282732447817835,NA
45219,Hamilton County,OH,90.5123339658444,NA
45231,Hamilton County,OH,6.641366223908918,NA
45236,Hamilton County,OH,48.95635673624288,NA
45322,Montgomery County,OH,77.60910815939279,NA
45324,Greene County,OH,8.538899430740038,NA
45342,Montgomery County,OH,9.487666034155598,NA
45403,Montgomery County,OH,33.776091081593925,NA
45417,Montgomery County,OH,7.020872865275142,NA
45601,Ross County,OH,NA,2.43161094224924
45638,Lawrence County,OH,3.795066413662239,NA
73034,Oklahoma County,OK,25.23719165085389,NA
73036,Canadian County,OK,37.381404174573056,NA
73115,Oklahoma County,OK,54.26944971537002,NA
73119,Oklahoma County,OK,NA,39.81762917933131
74008,Tulsa County,OK,60.53130929791271,NA
74137,Tulsa County,OK,NA,58.96656534954408
74354,Ottawa County,OK,72.48576850094877,NA
74467,Wagoner County,OK,78.74762808349146,NA
74601,Kay County,OK,41.17647058823529,NA
74884,Seminole County,OK,90.70208728652752,NA
97055,Clackamas County,OR,NA,81.15501519756839
97062,Washington County,OR,77.03984819734345,NA
97202,Multnomah County,OR,NA,50.75987841945289
97205,Multnomah County,OR,NA,93.61702127659575
97236,Multnomah County,OR,47.05882352941176,NA
97367,Lincoln County,OR,NA,68.9969604863222
97478,Lane County,OR,64.32637571157495,NA
97504,Jackson County,OR,18.216318785578746,NA
97603,Klamath County,OR,16.888045540796963,NA
15025,Allegheny County,PA,70.01897533206831,NA
15212,Allegheny County,PA,20.683111954459203,NA
15227,Allegheny County,PA,NA,21.580547112462007
15537,Bedford County,PA,90.89184060721063,NA
15601,Westmoreland County,PA,2.6565464895635675,NA
16105,Lawrence County,PA,54.83870967741935,NA
16146,Mercer County,PA,NA,42.5531914893617
16150,Mercer County,PA,92.22011385199241,NA
16823,Centre County,PA,18.975332068311197,NA
16830,Clearfield County,PA,NA,27.96352583586626
17011,Cumberland County,PA,22.770398481973434,NA
17025,Cumberland County,PA,29.601518026565465,NA
17055,Cumberland County,PA,NA,17.02127659574468
17313,York County,PA,NA,77.50759878419453
17319,York County,PA,60.91081593927894,NA
17408,York County,PA,39.08918406072106,NA
17552,Lancaster County,PA,64.89563567362428,NA
17603,Lancaster County,PA,61.859582542694504,8.814589665653495
17701,Lycoming County,PA,37.19165085388994,NA
17931,Schuylkill County,PA,NA,90.5775075987842
18062,Lehigh County,PA,NA,89.66565349544074
18067,Northampton County,PA,36.62239089184061,NA
18104,Lehigh County,PA,NA,4.5592705167173255
18302,Monroe County,PA,48.007590132827325,NA
18436,Wayne County,PA,51.992409867172675,NA
18944,Bucks County,PA,50.094876660341555,NA
19014,Delaware County,PA,NA,41.641337386018236
19026,Delaware County,PA,NA,31.914893617021278
19120,Philadelphia County,PA,14.990512333965844,NA
19122,Philadelphia County,PA,NA,73.86018237082067
19132,Philadelphia County,PA,4.933586337760911,NA
19134,Philadelphia County,PA,2.0872865275142316,NA
19142,Philadelphia County,PA,78.93738140417457,NA
19143,Philadelphia County,PA,0.7590132827324478,NA
19335,Chester County,PA,45.54079696394687,NA
19355,Chester County,PA,NA,43.161094224924014
19462,Montgomery County,PA,43.833017077798864,NA
19468,Montgomery County,PA,NA,34.650455927051674
19547,Berks County,PA,NA,88.75379939209726
19560,Berks County,PA,74.38330170777988,NA
02814,Providence County,RI,76.66034155597723,NA
02889,Kent County,RI,54.64895635673624,NA
02891,Washington County,RI,NA,24.620060790273556
02895,Providence County,RI,NA,25.835866261398177
29045,Kershaw County,SC,NA,56.53495440729483
29150,Sumter County,SC,32.44781783681214,NA
29223,Richland County,SC,20.49335863377609,NA
29420,Dorchester County,SC,44.59203036053131,NA
29456,Dorchester County,SC,74.95256166982922,NA
29501,Florence County,SC,28.46299810246679,NA
29510,Georgetown County,SC,58.63377609108159,NA
29631,Pickens County,SC,98.4819734345351,NA
29653,Greenwood County,SC,94.87666034155598,NA
29673,Greenville County,SC,NA,19.148936170212767
29690,Greenville County,SC,NA,70.82066869300911
29710,York County,SC,NA,51.97568389057751
29730,York County,SC,16.318785578747626,NA
29853,Barnwell County,SC,86.14800759013282,NA
29944,Hampton County,SC,NA,95.74468085106383
57005,Minnehaha County,SD,75.14231499051233,NA
57730,Custer County,SD,NA,97.87234042553192
37042,Montgomery County,TN,53.13092979127134,NA
37080,Davidson County,TN,68.88045540796965,NA
37150,Macon County,TN,NA,98.78419452887537
37174,Williamson County,TN,44.78178368121442,NA
37205,Davidson County,TN,96.58444022770398,NA
37323,Bradley County,TN,37.95066413662239,NA
37334,Lincoln County,TN,33.586337760910816,NA
37411,Hamilton County,TN,64.51612903225806,NA
37601,Washington County,TN,14.231499051233396,NA
37643,Carter County,TN,10.815939278937382,NA
37721,Knox County,TN,62.428842504743834,NA
37742,Loudon County,TN,66.79316888045541,NA
37774,Loudon County,TN,94.68690702087287,NA
37801,Blount County,TN,13.092979127134724,NA
38017,Shelby County,TN,42.8842504743833,NA
38315,McNairy County,TN,93.7381404174573,NA
38355,Gibson County,TN,97.91271347248576,NA
75040,Dallas County,TX,15.180265654648956,NA
75051,Dallas County,TX,NA,50.15197568389058
75063,Dallas County,TX,53.889943074003796,NA
75070,Collin County,TX,NA,42.857142857142854
75082,Collin County,TX,NA,87.2340425531915
75115,Dallas County,TX,NA,20.364741641337385
75142,Kaufman County,TX,56.92599620493358,NA
75219,Dallas County,TX,47.24857685009488,NA
75232,Dallas County,TX,NA,43.46504559270517
75244,Dallas County,TX,NA,95.44072948328267
75428,Hunt County,TX,84.62998102466793,NA
75482,Hopkins County,TX,55.02846299810247,NA
75570,Bowie County,TX,NA,93.9209726443769
75638,Morris County,TX,93.16888045540796,NA
76065,Ellis County,TX,NA,35.86626139817629
76126,Tarrant County,TX,NA,72.94832826747721
76247,Denton County,TX,74.00379506641366,NA
76504,Bell County,TX,33.396584440227706,NA
77063,Harris County,TX,60.151802656546494,NA
77071,Harris County,TX,79.12713472485768,NA
77089,Harris County,TX,41.555977229601524,69.30091185410335
77327,Liberty County,TX,59.01328273244781,NA
77429,Harris County,TX,10.056925996204933,NA
77478,Fort Bend County,TX,NA,79.63525835866263
77488,Wharton County,TX,61.29032258064516,NA
77539,Galveston County,TX,17.836812144212523,NA
77833,Washington County,TX,NA,65.34954407294833
77868,Grimes County,TX,62.04933586337761,NA
78045,Webb County,TX,20.30360531309298,NA
78114,Wilson County,TX,NA,52.58358662613982
78746,Travis County,TX,NA,87.84194528875379
79905,El Paso County,TX,88.04554079696395,NA
79936,El Paso County,TX,88.8045540796964,NA
79938,El Paso County,TX,81.97343453510436,NA
84010,Davis County,UT,86.52751423149905,NA
84025,Davis County,UT,94.49715370018976,NA
05401,Chittenden County,VT,NA,48.93617021276596
05452,Chittenden County,VT,NA,36.77811550151976
05701,Rutland County,VT,NA,40.72948328267477
22101,Fairfax County,VA,47.81783681214421,NA
22151,Fairfax County,VA,NA,84.49848024316108
22182,Fairfax County,VA,59.58254269449716,NA
22202,Arlington County,VA,NA,89.36170212765957
22304,Alexandria city,VA,12.523719165085389,NA
22306,Fairfax County,VA,NA,47.41641337386018
22508,Orange County,VA,76.85009487666035,NA
22630,Warren County,VA,NA,34.04255319148936
22712,Fauquier County,VA,81.40417457305503,NA
22801,Harrisonburg city,VA,79.5066413662239,NA
22901,Albemarle County,VA,NA,26.74772036474164
23093,Louisa County,VA,NA,61.09422492401215
23103,Goochland County,VA,NA,100
23111,Hanover County,VA,83.49146110056927,NA
23435,Suffolk city,VA,96.01518026565465,NA
23454,Virginia Beach city,VA,69.8292220113852,NA
23456,Virginia Beach city,VA,NA,9.72644376899696
23464,Virginia Beach city,VA,44.022770398481974,NA
23505,Norfolk city,VA,NA,30.3951367781155
23508,Norfolk city,VA,87.66603415559773,NA
24014,Roanoke city,VA,62.61859582542695,NA
24228,Dickenson County,VA,NA,55.62310030395137
24382,Wythe County,VA,43.26375711574953,NA
24541,Danville city,VA,32.25806451612903,NA
98002,King County,WA,32.06831119544592,NA
98007,King County,WA,NA,93.3130699088146
98008,King County,WA,NA,69.6048632218845
98026,Snohomish County,WA,30.929791271347252,NA
98043,Snohomish County,WA,NA,80.85106382978722
98112,King County,WA,NA,66.8693009118541
98118,King County,WA,66.03415559772297,NA
98133,King County,WA,25.806451612903224,NA
98271,Snohomish County,WA,NA,54.7112462006079
98402,Pierce County,WA,77.7988614800759,NA
98445,Pierce County,WA,NA,60.48632218844985
98513,Thurston County,WA,NA,64.13373860182371
98580,Pierce County,WA,NA,89.05775075987842
98642,Clark County,WA,91.84060721062619,NA
98685,Clark County,WA,NA,90.88145896656535
98908,Yakima County,WA,34.72485768500949,NA
99114,Stevens County,WA,NA,71.12462006079028
99163,Whitman County,WA,87.28652751423151,NA
99202,Spokane County,WA,NA,72.64437689969606
99324,Walla Walla County,WA,77.98861480075901,NA
99338,Benton County,WA,NA,67.78115501519757
99362,Walla Walla County,WA,55.597722960151806,NA
20005,District of Columbia,DC,80.64516129032258,NA
20008,District of Columbia,DC,74.00379506641366,NA
24740,Mercer County,WV,NA,29.48328267477204
25071,Kanawha County,WV,51.61290322580645,NA
25560,Putnam County,WV,84.81973434535104,NA
25701,Cabell County,WV,43.643263757115754,NA
25813,Raleigh County,WV,86.71726755218216,NA
26201,Upshur County,WV,19.734345351043643,NA
26206,Webster County,WV,NA,97.56838905775076
26250,Barbour County,WV,80.45540796963947,NA
53076,Washington County,WI,92.0303605313093,NA
53105,Racine County,WI,93.35863377609108,NA
53110,Milwaukee County,WI,NA,31.00303951367781
53204,Milwaukee County,WI,NA,37.38601823708207
53216,Milwaukee County,WI,5.1233396584440225,NA
53405,Racine County,WI,NA,3.951367781155015
53511,Rock County,WI,0.5692599620493358,NA
53546,Rock County,WI,NA,63.829787234042556
53548,Rock County,WI,NA,23.404255319148938
53704,Dane County,WI,9.297912713472485,NA
53963,Dodge County,WI,51.61290322580645,NA
54155,Brown County,WI,89.37381404174573,NA
54170,Outagamie County,WI,98.10246679316889,NA
54494,Wood County,WI,NA,7.29483282674772
54660,Monroe County,WI,45.920303605313094,NA
54728,Barron County,WI,88.61480075901328,NA
54880,Douglas County,WI,12.7134724857685,22.492401215805472
54935,Fond du Lac County,WI,NA,12.76595744680851
54937,Fond du Lac County,WI,NA,55.319148936170215
54971,Fond du Lac County,WI,NA,54.1033434650456
