ZipCode,county,state,Adult,Retirement
35020,Jefferson County,AL,39,NA
35071,Jefferson County,AL,68.25,NA
35208,Jefferson County,AL,NA,69.82758620689656
35404,Tuscaloosa County,AL,13,NA
35630,Lauderdale County,AL,28.249999999999996,NA
35652,Lauderdale County,AL,88.5,NA
36303,Houston County,AL,NA,38.793103448275865
36575,Mobile County,AL,NA,70.40229885057471
36726,Wilcox County,AL,NA,92.52873563218391
99559,Bethel Census Area,AK,98,NA
99801,Juneau City and Borough,AK,44.5,NA
85020,Maricopa County,AZ,35.25,NA
85027,Maricopa County,AZ,NA,50.86206896551724
85040,Maricopa County,AZ,NA,51.43678160919541
85209,Maricopa County,AZ,57.75,NA
85233,Maricopa County,AZ,37.5,NA
85251,Maricopa County,AZ,NA,47.98850574712644
85641,Pima County,AZ,NA,67.24137931034483
85746,Pima County,AZ,10.75,NA
86301,Yavapai County,AZ,NA,58.620689655172406
86351,Yavapai County,AZ,NA,72.70114942528735
86406,Mohave County,AZ,44.25,NA
71854,Miller County,AR,76.25,NA
72076,Pulaski County,AR,NA,35.3448275862069
72143,White County,AR,NA,10.344827586206897
72404,Craighead County,AR,NA,68.96551724137932
72714,Benton County,AR,89,NA
72756,Benton County,AR,55.00000000000001,NA
90025,Los Angeles County,CA,76,NA
90043,Los Angeles County,CA,NA,22.126436781609197
90280,Los Angeles County,CA,NA,36.206896551724135
90630,Orange County,CA,NA,69.54022988505747
90631,Orange County,CA,NA,17.24137931034483
91104,Los Angeles County,CA,NA,46.55172413793103
91320,Ventura County,CA,80.5,NA
91342,Los Angeles County,CA,65.75,NA
91360,Ventura County,CA,NA,44.54022988505747
91362,Ventura County,CA,NA,69.25287356321839
91387,Los Angeles County,CA,40.25,NA
91601,Los Angeles County,CA,62.25000000000001,NA
91764,San Bernardino County,CA,87.5,NA
91765,Los Angeles County,CA,90.75,NA
91784,San Bernardino County,CA,85.75,NA
92009,San Diego County,CA,61.25000000000001,NA
92011,San Diego County,CA,NA,57.758620689655174
92126,San Diego County,CA,79.5,NA
92231,Imperial County,CA,60.75000000000001,NA
92301,San Bernardino County,CA,NA,42.241379310344826
92316,San Bernardino County,CA,NA,73.5632183908046
92562,Riverside County,CA,NA,33.04597701149425
92629,Orange County,CA,NA,81.89655172413794
92870,Orange County,CA,34.25,23.850574712643677
92882,Riverside County,CA,26.75,NA
93021,Ventura County,CA,NA,45.97701149425287
93065,Ventura County,CA,12.75,NA
93551,Los Angeles County,CA,NA,51.14942528735632
93555,Kern County,CA,24.25,NA
93637,Madera County,CA,73.25,NA
93702,Fresno County,CA,NA,64.08045977011494
93723,Fresno County,CA,96.75,NA
93726,Fresno County,CA,NA,43.96551724137931
94019,San Mateo County,CA,NA,53.735632183908045
94103,San Francisco County,CA,10.25,NA
94509,Contra Costa County,CA,19.5,NA
94513,Contra Costa County,CA,31,NA
95126,Santa Clara County,CA,60.25,75.57471264367817
95492,Sonoma County,CA,58.75,NA
95683,Sacramento County,CA,100,NA
95969,Butte County,CA,NA,6.609195402298851
96080,Tehama County,CA,78.5,NA
80002,Jefferson County,CO,NA,72.12643678160919
80125,Douglas County,CO,88.5,NA
80126,Douglas County,CO,47.25,NA
80226,Jefferson County,CO,NA,71.26436781609196
80234,Adams County,CO,57.99999999999999,NA
80239,Denver County,CO,23.75,NA
80303,Boulder County,CO,90,NA
80701,Morgan County,CO,50.24999999999999,NA
81054,Bent County,CO,99.5,NA
81526,Mesa County,CO,97.5,NA
06071,Tolland County,CT,77,NA
06095,Hartford County,CT,67.25,NA
06105,Hartford County,CT,NA,34.195402298850574
06234,Windham County,CT,59.75,NA
06260,Windham County,CT,NA,84.19540229885058
06415,New London County,CT,49.5,NA
06513,New Haven County,CT,4,NA
06604,Fairfield County,CT,18,NA
06610,Fairfield County,CT,NA,51.724137931034484
06708,New Haven County,CT,20.75,NA
06770,New Haven County,CT,23,NA
19904,Kent County,DE,NA,16.091954022988507
19975,Sussex County,DE,NA,50.287356321839084
32046,Nassau County,FL,NA,93.39080459770115
32052,Hamilton County,FL,NA,80.45977011494253
32065,Clay County,FL,NA,79.3103448275862
32179,Marion County,FL,NA,93.67816091954023
32331,Madison County,FL,97.25,NA
32514,Escambia County,FL,NA,13.505747126436782
32547,Okaloosa County,FL,NA,47.98850574712644
32571,Santa Rosa County,FL,NA,14.655172413793101
32583,Santa Rosa County,FL,54.25,NA
32618,Alachua County,FL,NA,78.73563218390804
32653,Alachua County,FL,NA,86.49425287356321
32669,Alachua County,FL,62.5,NA
32712,Orange County,FL,NA,33.62068965517241
32738,Volusia County,FL,NA,98.5632183908046
32771,Seminole County,FL,NA,34.48275862068966
32951,Brevard County,FL,NA,77.58620689655173
32967,Indian River County,FL,NA,73.85057471264368
33010,Miami-Dade County,FL,NA,39.94252873563218
33018,Miami-Dade County,FL,70,NA
33035,Miami-Dade County,FL,NA,82.47126436781609
33062,Broward County,FL,66,NA
33140,Miami-Dade County,FL,NA,63.50574712643679
33141,Miami-Dade County,FL,54.50000000000001,NA
33401,Palm Beach County,FL,81.75,NA
33414,Palm Beach County,FL,79.75,NA
33417,Palm Beach County,FL,NA,52.58620689655172
33426,Palm Beach County,FL,72.5,NA
33469,Palm Beach County,FL,NA,78.44827586206897
33544,Pasco County,FL,74.25,NA
33569,Hillsborough County,FL,NA,74.13793103448276
33597,Sumter County,FL,99.75,NA
33604,Hillsborough County,FL,22.75,NA
33710,Pinellas County,FL,46.25,NA
33770,Pinellas County,FL,52.5,NA
33812,Polk County,FL,NA,83.9080459770115
33907,Lee County,FL,NA,85.34482758620689
33976,Lee County,FL,67,NA
34104,Collier County,FL,NA,86.7816091954023
34212,Manatee County,FL,NA,50.57471264367817
34293,Sarasota County,FL,43.25,NA
34602,Hernando County,FL,88.25,NA
34667,Pasco County,FL,39.5,73.27586206896551
34695,Pinellas County,FL,NA,64.9425287356322
34953,St. Lucie County,FL,6.25,NA
34990,Martin County,FL,NA,25
30025,Walton County,GA,NA,79.02298850574712
30039,Gwinnett County,GA,NA,75.86206896551724
30052,Walton County,GA,NA,9.482758620689655
30062,Cobb County,GA,NA,63.793103448275865
30066,Cobb County,GA,70.75,NA
30071,Gwinnett County,GA,78.25,NA
30075,Fulton County,GA,NA,19.54022988505747
30083,DeKalb County,GA,NA,31.321839080459768
30107,Cherokee County,GA,85.25,NA
30120,Bartow County,GA,18.75,NA
30135,Douglas County,GA,11.75,NA
30314,Fulton County,GA,NA,42.5287356321839
30542,Hall County,GA,48.25,NA
30642,Greene County,GA,NA,82.18390804597702
30655,Walton County,GA,NA,29.310344827586203
30739,Walker County,GA,NA,99.42528735632183
96786,Honolulu County,HI,73.75,NA
96818,Honolulu County,HI,48.75,NA
83333,Blaine County,ID,91,NA
83644,Canyon County,ID,NA,94.25287356321839
83661,Payette County,ID,NA,60.63218390804598
83687,Canyon County,ID,20,NA
83714,Ada County,ID,41,NA
83864,Bonner County,ID,84.25,NA
60062,Cook County,IL,NA,4.885057471264368
60073,Lake County,IL,60.5,NA
60076,Cook County,IL,40,NA
60077,Cook County,IL,NA,60.05747126436781
60089,Lake County,IL,NA,10.632183908045976
60101,DuPage County,IL,25.75,NA
60102,McHenry County,IL,42.75,NA
60172,DuPage County,IL,NA,40.51724137931034
60419,Cook County,IL,NA,35.91954022988506
60448,Will County,IL,51.24999999999999,NA
60466,Cook County,IL,45.25,NA
60543,Kendall County,IL,NA,43.103448275862064
60560,Kendall County,IL,NA,87.06896551724138
60607,Cook County,IL,45,NA
60615,Cook County,IL,24,NA
60620,Cook County,IL,7.000000000000001,NA
60637,Cook County,IL,41.5,NA
60657,Cook County,IL,19.25,NA
60707,Cook County,IL,NA,39.6551724137931
61072,Winnebago County,IL,88,NA
61550,Tazewell County,IL,NA,64.65517241379311
61604,Peoria County,IL,NA,37.35632183908046
61611,Tazewell County,IL,NA,40.804597701149426
61615,Peoria County,IL,NA,55.172413793103445
46143,Johnson County,IN,22,NA
46167,Hendricks County,IN,NA,91.95402298850574
46221,Marion County,IN,27.750000000000004,NA
46236,Marion County,IN,56.49999999999999,NA
46237,Marion County,IN,16.75,NA
46239,Marion County,IN,50.5,NA
46342,Lake County,IN,5.5,NA
46701,Noble County,IN,NA,88.50574712643679
47130,Clark County,IN,32.5,NA
47250,Jefferson County,IN,NA,79.59770114942529
47336,Jay County,IN,98.75,NA
47711,Vanderburgh County,IN,26,NA
47715,Vanderburgh County,IN,28.000000000000004,NA
47960,White County,IN,82,NA
50265,Polk County,IA,36.25,NA
50317,Polk County,IA,36.5,14.942528735632186
50401,Cerro Gordo County,IA,9.5,NA
51503,Pottawattamie County,IA,NA,4.310344827586207
52002,Dubuque County,IA,94.75,NA
52732,Clinton County,IA,NA,27.873563218390807
66061,Johnson County,KS,NA,28.735632183908045
66538,Nemaha County,KS,93,NA
67226,Sedgwick County,KS,NA,91.37931034482759
67337,Montgomery County,KS,NA,66.37931034482759
40013,Nelson County,KY,NA,87.643678160919535
40206,Jefferson County,KY,63.74999999999999,NA
40741,Laurel County,KY,NA,39.36781609195402
41051,Kenton County,KY,34.75,NA
41164,Carter County,KY,30,NA
42001,McCracken County,KY,NA,20.977011494252874
70005,Jefferson Parish,LA,30.5,24.137931034482758
70065,Jefferson Parish,LA,66.25,NA
70301,Lafourche Parish,LA,NA,8.333333333333332
70401,Tangipahoa Parish,LA,54,NA
70471,St. Tammany Parish,LA,NA,21.26436781609195
70544,Iberia Parish,LA,NA,88.79310344827587
70548,Vermilion Parish,LA,62.74999999999999,NA
70592,Lafayette Parish,LA,NA,63.2183908045977
70706,Livingston Parish,LA,29.75,NA
70737,Ascension Parish,LA,NA,65.80459770114942
70791,East Baton Rouge Parish,LA,11,NA
70809,East Baton Rouge Parish,LA,73.5,NA
70810,East Baton Rouge Parish,LA,NA,27.011494252873565
70820,East Baton Rouge Parish,LA,70.25,NA
71301,Rapides Parish,LA,NA,33.90804597701149
71328,Rapides Parish,LA,NA,70.6896551724138
03903,York County,ME,NA,71.83908045977012
04092,Cumberland County,ME,NA,28.448275862068968
04107,Cumberland County,ME,NA,97.70114942528735
04901,Kennebec County,ME,23.5,NA
04963,Kennebec County,ME,NA,61.7816091954023
20747,Prince George's County,MD,41.75,NA
20852,Montgomery County,MD,NA,80.74712643678161
21044,Howard County,MD,NA,83.33333333333334
21050,Harford County,MD,NA,66.95402298850574
21158,Carroll County,MD,75.5,NA
21220,Baltimore County,MD,NA,61.206896551724135
21224,Baltimore city,MD,NA,35.05747126436782
21239,Baltimore city,MD,NA,20.114942528735632
21771,Frederick County,MD,NA,58.333333333333336
21788,Frederick County,MD,90.5,NA
21853,Somerset County,MD,87.25,NA
21903,Cecil County,MD,NA,100
01013,Hampden County,MA,NA,13.793103448275861
01301,Franklin County,MA,NA,87.356321839080465
01463,Middlesex County,MA,69.75,NA
01504,Worcester County,MA,65.25,NA
01510,Worcester County,MA,18.25,NA
01720,Middlesex County,MA,62,31.60919540229885
01757,Worcester County,MA,2,NA
01776,Middlesex County,MA,93.75,NA
01778,Middlesex County,MA,NA,44.252873563218394
01821,Middlesex County,MA,NA,2.0114942528735633
01938,Essex County,MA,42,NA
01940,Essex County,MA,56.99999999999999,NA
01944,Essex County,MA,NA,92.24137931034483
01950,Essex County,MA,92.5,NA
02026,Norfolk County,MA,4.5,NA
02050,Plymouth County,MA,65.5,NA
02066,Plymouth County,MA,64.25,NA
02067,Norfolk County,MA,NA,37.06896551724138
02072,Norfolk County,MA,NA,36.49425287356322
02090,Norfolk County,MA,61,NA
02115,Suffolk County,MA,25.5,NA
02116,Suffolk County,MA,NA,3.7356321839080464
02121,Suffolk County,MA,NA,0.28735632183908044
02138,Middlesex County,MA,82.25,NA
02148,Middlesex County,MA,NA,0
02151,Suffolk County,MA,0,NA
02155,Middlesex County,MA,NA,0.5747126436781609
02169,Norfolk County,MA,9.25,NA
02176,Middlesex County,MA,67.75,NA
02301,Plymouth County,MA,NA,18.96551724137931
02333,Plymouth County,MA,28.999999999999996,NA
02360,Plymouth County,MA,1.25,16.954022988505745
02379,Plymouth County,MA,NA,83.04597701149426
02451,Middlesex County,MA,86.75,NA
02467,Norfolk County,MA,NA,59.48275862068966
02482,Norfolk County,MA,68.75,NA
02740,Bristol County,MA,9.75,NA
02746,Bristol County,MA,NA,96.83908045977012
02771,Bristol County,MA,35.75,NA
02780,Bristol County,MA,0.5,NA
48021,Macomb County,MI,NA,18.39080459770115
48066,Macomb County,MI,NA,7.471264367816093
48067,Oakland County,MI,33.75,NA
48070,Oakland County,MI,NA,90.51724137931035
48074,St. Clair County,MI,NA,65.22988505747126
48093,Macomb County,MI,17,NA
48094,Macomb County,MI,72.25,NA
48108,Washtenaw County,MI,35,NA
48114,Livingston County,MI,47.75,NA
48116,Livingston County,MI,26.25,NA
48122,Wayne County,MI,74.25,NA
48150,Wayne County,MI,25,NA
48160,Washtenaw County,MI,NA,52.01149425287356
48162,Monroe County,MI,10.5,NA
48167,Oakland County,MI,37,NA
48180,Wayne County,MI,NA,2.586206896551724
48192,Wayne County,MI,15.5,NA
48197,Washtenaw County,MI,2.25,NA
48202,Wayne County,MI,58.5,NA
48204,Wayne County,MI,51.74999999999999,NA
48206,Wayne County,MI,25,NA
48207,Wayne County,MI,NA,34.770114942528735
48210,Wayne County,MI,NA,95.6896551724138
48307,Oakland County,MI,NA,21.839080459770116
48312,Macomb County,MI,NA,16.379310344827587
48316,Macomb County,MI,66.75,NA
48322,Oakland County,MI,37.75,6.896551724137931
48323,Oakland County,MI,NA,83.62068965517241
48348,Oakland County,MI,33.5,NA
48381,Oakland County,MI,NA,49.712643678160916
48430,Genesee County,MI,53.75,NA
48439,Genesee County,MI,NA,15.517241379310345
48463,Genesee County,MI,NA,95.97701149425288
48610,Arenac County,MI,NA,97.41379310344827
48640,Midland County,MI,8,NA
48879,Clinton County,MI,46,NA
48895,Ingham County,MI,NA,75
49080,Allegan County,MI,NA,41.09195402298851
49085,Berrien County,MI,51,NA
49221,Lenawee County,MI,3.75,NA
49506,Kent County,MI,NA,70.11494252873564
49507,Kent County,MI,5,NA
49721,Cheboygan County,MI,45.75,NA
49935,Iron County,MI,NA,62.06896551724138
55076,Dakota County,MN,55.50000000000001,NA
55104,Ramsey County,MN,12.25,NA
55106,Ramsey County,MN,NA,25.862068965517242
55124,Dakota County,MN,NA,80.74712643678161
55128,Washington County,MN,43.75,NA
55301,Wright County,MN,NA,98.85057471264368
55316,Hennepin County,MN,90.25,NA
55318,Carver County,MN,53.25,NA
55792,St. Louis County,MN,NA,30.17241379310345
55912,Mower County,MN,6.75,NA
56187,Nobles County,MN,63,NA
38672,DeSoto County,MS,92.75,NA
39042,Rankin County,MS,30.25,NA
39046,Madison County,MS,NA,49.42528735632184
39073,Rankin County,MS,58.25,NA
39183,Warren County,MS,79.25,NA
39339,Winston County,MS,NA,56.32183908045977
39530,Harrison County,MS,NA,84.77011494252874
39560,Harrison County,MS,52.5,NA
63031,St. Louis County,MO,14.75,NA
63084,Franklin County,MO,49,NA
63376,St. Charles County,MO,8.25,NA
63501,Adair County,MO,NA,57.47126436781609
64012,Cass County,MO,NA,25.57471264367816
64114,Jackson County,MO,32,NA
64132,Jackson County,MO,40.75,NA
64759,Barton County,MO,NA,93.96551724137932
65340,Saline County,MO,31.25,54.02298850574713
65560,Dent County,MO,52,NA
68022,Douglas County,NE,69,NA
68108,Douglas County,NE,NA,89.08045977011494
68110,Douglas County,NE,NA,70.97701149425288
68152,Douglas County,NE,98.5,NA
89101,Clark County,NV,56.25,NA
89107,Clark County,NV,47,NA
89166,Clark County,NV,78.75,NA
89410,Douglas County,NV,NA,30.45977011494253
89433,Washoe County,NV,NA,53.16091954022989
89434,Washoe County,NV,38.25,NA
03048,Hillsborough County,NH,NA,99.71264367816092
03062,Hillsborough County,NH,NA,36.7816091954023
03841,Rockingham County,NH,91.5,NA
07050,Essex County,NJ,9,NA
07502,Passaic County,NJ,33,NA
07712,Monmouth County,NJ,NA,5.172413793103448
07719,Monmouth County,NJ,NA,56.03448275862068
07843,Sussex County,NJ,84.5,NA
08003,Camden County,NJ,NA,39.08045977011494
08054,Burlington County,NJ,22.5,NA
08094,Gloucester County,NJ,NA,10.919540229885058
08312,Gloucester County,NJ,52.25,NA
08723,Ocean County,NJ,13.25,NA
08757,Ocean County,NJ,NA,4.022988505747127
08759,Ocean County,NJ,8.75,NA
08857,Middlesex County,NJ,7.249999999999999,96.55172413793103
08876,Somerset County,NJ,NA,93.10344827586206
87105,Bernalillo County,NM,3.5000000000000004,NA
87109,Bernalillo County,NM,14.249999999999998,NA
87110,Bernalillo County,NM,NA,9.770114942528735
87508,Santa Fe County,NM,NA,46.839080459770116
88260,Lea County,NM,37.25,NA
10029,New York County,NY,4.75,NA
10306,Richmond County,NY,16.5,NA
10451,Bronx County,NY,NA,5.747126436781609
10467,Bronx County,NY,22.25,NA
10472,Bronx County,NY,1.7500000000000002,2.8735632183908044
10601,Westchester County,NY,NA,77.87356321839081
11020,Nassau County,NY,NA,89.9425287356322
11203,Kings County,NY,78,NA
11212,Kings County,NY,NA,0.8620689655172413
11225,Kings County,NY,NA,15.804597701149426
11374,Queens County,NY,NA,25.287356321839084
11421,Queens County,NY,NA,77.01149425287356
11510,Nassau County,NY,59,NA
11738,Suffolk County,NY,NA,85.63218390804597
11968,Suffolk County,NY,NA,95.40229885057471
12020,Saratoga County,NY,NA,55.45977011494253
12157,Schoharie County,NY,92,NA
12183,Albany County,NY,NA,99.13793103448276
12211,Albany County,NY,79,NA
12304,Schenectady County,NY,27.500000000000004,NA
12549,Orange County,NY,98.25,NA
12590,Dutchess County,NY,NA,57.18390804597702
12790,Sullivan County,NY,NA,86.20689655172413
12801,Warren County,NY,17.25,NA
12804,Warren County,NY,NA,40.229885057471265
13045,Cortland County,NY,NA,10.057471264367816
13090,Onondaga County,NY,NA,56.60919540229885
13092,Cayuga County,NY,93.5,NA
13148,Seneca County,NY,NA,29.310344827586203
13407,Herkimer County,NY,56.00000000000001,NA
13413,Oneida County,NY,NA,29.88505747126437
13440,Oneida County,NY,1.5,NA
13797,Broome County,NY,NA,97.12643678160919
14036,Genesee County,NY,95,NA
14040,Genesee County,NY,97.75,NA
14075,Erie County,NY,NA,31.03448275862069
14094,Niagara County,NY,11.25,NA
14206,Erie County,NY,NA,26.14942528735632
14208,Erie County,NY,NA,26.436781609195403
14210,Erie County,NY,69.5,NA
14221,Erie County,NY,NA,3.4482758620689653
14224,Erie County,NY,NA,8.045977011494253
14304,Niagara County,NY,4.25,NA
14305,Niagara County,NY,5.75,NA
14420,Monroe County,NY,41.25,NA
14423,Livingston County,NY,82.5,NA
14424,Ontario County,NY,2.75,NA
14435,Livingston County,NY,95.5,NA
14437,Livingston County,NY,38.5,NA
14450,Monroe County,NY,NA,1.7241379310344827
14472,Monroe County,NY,43,NA
14513,Wayne County,NY,23.25,NA
14519,Wayne County,NY,20.25,NA
14526,Monroe County,NY,12.25,14.080459770114942
14534,Monroe County,NY,77.5,2.2988505747126435
14551,Wayne County,NY,43.5,NA
14564,Ontario County,NY,46.75,NA
14572,Steuben County,NY,89.5,NA
14580,Monroe County,NY,NA,4.597701149425287
14609,Monroe County,NY,NA,1.1494252873563218
14610,Monroe County,NY,71.75,NA
14617,Monroe County,NY,6.5,43.39080459770115
14618,Monroe County,NY,42.25,76.72413793103449
14621,Monroe County,NY,0.75,NA
14624,Monroe County,NY,2.5,18.103448275862068
14735,Allegany County,NY,94.25,NA
14845,Chemung County,NY,NA,28.160919540229884
14905,Chemung County,NY,96,NA
27105,Forsyth County,NC,12,NA
27265,Guilford County,NC,17.5,NA
27292,Davidson County,NC,NA,1.4367816091954022
27330,Lee County,NC,19.75,NA
27350,Randolph County,NC,NA,87.93103448275862
27410,Guilford County,NC,NA,98.27586206896551
27513,Wake County,NC,NA,48.56321839080459
27516,Orange County,NC,NA,12.068965517241379
27519,Wake County,NC,NA,47.701149425287355
27529,Wake County,NC,NA,16.666666666666664
27587,Wake County,NC,NA,9.195402298850574
27617,Wake County,NC,NA,68.10344827586206
27707,Durham County,NC,NA,7.183908045977011
28025,Cabarrus County,NC,NA,62.356321839080465
28092,Lincoln County,NC,NA,12.643678160919542
28152,Cleveland County,NC,34.5,NA
28277,Mecklenburg County,NC,NA,49.137931034482754
28312,Cumberland County,NC,59.5,NA
28655,Burke County,NC,6,NA
28659,Wilkes County,NC,NA,27.586206896551722
28677,Iredell County,NC,NA,20.689655172413794
28715,Buncombe County,NC,44,NA
28803,Buncombe County,NC,46.5,NA
28804,Buncombe County,NC,NA,68.39080459770115
43004,Franklin County,OH,68,NA
43028,Knox County,OH,87.75,NA
43064,Madison County,OH,NA,77.87356321839081
43082,Delaware County,OH,NA,38.2183908045977
43110,Franklin County,OH,51.5,NA
43119,Franklin County,OH,NA,85.0574712643678
43162,Madison County,OH,NA,67.24137931034483
43203,Franklin County,OH,NA,77.29885057471265
43212,Franklin County,OH,NA,85.91954022988506
43220,Franklin County,OH,NA,46.264367816091955
43221,Franklin County,OH,61.5,NA
43224,Franklin County,OH,NA,15.229885057471265
43227,Franklin County,OH,20.5,NA
43229,Franklin County,OH,24.75,NA
43235,Franklin County,OH,39.75,NA
43326,Hardin County,OH,71.5,NA
43551,Wood County,OH,56.75,NA
43560,Lucas County,OH,NA,14.367816091954023
43608,Lucas County,OH,7.5,NA
43612,Lucas County,OH,NA,17.52873563218391
43613,Lucas County,OH,16.25,NA
43701,Muskingum County,OH,1,NA
43812,Coshocton County,OH,5.25,NA
44012,Lorain County,OH,NA,6.0344827586206895
44035,Lorain County,OH,0.25,7.758620689655173
44057,Lake County,OH,NA,17.81609195402299
44077,Lake County,OH,55.75,NA
44103,Cuyahoga County,OH,7.75,NA
44105,Cuyahoga County,OH,NA,32.18390804597701
44108,Cuyahoga County,OH,3,NA
44112,Cuyahoga County,OH,NA,27.298850574712645
44120,Cuyahoga County,OH,3.25,NA
44122,Cuyahoga County,OH,21.5,NA
44135,Cuyahoga County,OH,30.75,35.63218390804598
44143,Cuyahoga County,OH,NA,13.218390804597702
44240,Portage County,OH,NA,20.402298850574713
44320,Summit County,OH,13.750000000000002,NA
44444,Trumbull County,OH,47.5,NA
44511,Mahoning County,OH,21.75,NA
44512,Mahoning County,OH,NA,60.91954022988506
44514,Mahoning County,OH,NA,59.195402298850574
44870,Erie County,OH,NA,3.1609195402298855
45030,Hamilton County,OH,NA,47.12643678160919
45040,Warren County,OH,80,NA
45050,Butler County,OH,83.75,97.98850574712644
45056,Butler County,OH,63.5,NA
45103,Clermont County,OH,NA,23.563218390804597
45121,Brown County,OH,NA,74.42528735632183
45150,Clermont County,OH,75.25,NA
45152,Warren County,OH,NA,91.66666666666666
45231,Hamilton County,OH,NA,48.56321839080459
45239,Hamilton County,OH,13.5,NA
45244,Hamilton County,OH,NA,41.66666666666667
45251,Hamilton County,OH,73,NA
45342,Montgomery County,OH,53,NA
45356,Miami County,OH,NA,41.37931034482759
45368,Clark County,OH,86,NA
45402,Montgomery County,OH,NA,74.71264367816092
45660,Adams County,OH,NA,75.86206896551724
45669,Lawrence County,OH,NA,19.82758620689655
45801,Allen County,OH,NA,23.275862068965516
45895,Auglaize County,OH,92.25,NA
73030,Murray County,OK,77.25,NA
73132,Oklahoma County,OK,49.75,NA
73701,Garfield County,OK,NA,31.896551724137932
74012,Tulsa County,OK,NA,11.494252873563218
74063,Tulsa County,OK,75.75,NA
74801,Pottawatomie County,OK,NA,54.88505747126437
97211,Multnomah County,OR,94,NA
97229,Washington County,OR,32.75,NA
97321,Linn County,OR,NA,24.71264367816092
97458,Coos County,OR,NA,90.22988505747126
97504,Jackson County,OR,18.5,NA
97741,Jefferson County,OR,NA,92.81609195402298
15207,Allegheny County,PA,76.75,NA
15213,Allegheny County,PA,NA,66.0919540229885
15227,Allegheny County,PA,NA,21.551724137931032
15552,Somerset County,PA,94.5,NA
15626,Westmoreland County,PA,NA,88.2183908045977
15642,Westmoreland County,PA,NA,5.459770114942529
16117,Lawrence County,PA,47.75,NA
16506,Erie County,PA,NA,57.758620689655174
17057,Dauphin County,PA,15.25,NA
17112,Dauphin County,PA,14.000000000000002,NA
17201,Franklin County,PA,71.25,NA
17202,Franklin County,PA,NA,65.51724137931035
17233,Fulton County,PA,74,NA
17363,York County,PA,NA,60.3448275862069
17603,Lancaster County,PA,NA,8.908045977011495
17814,Columbia County,PA,NA,84.48275862068965
17870,Snyder County,PA,42.5,NA
17972,Schuylkill County,PA,57.25,NA
18018,Lehigh County,PA,NA,8.620689655172415
18078,Lehigh County,PA,NA,89.65517241379311
18102,Lehigh County,PA,NA,6.321839080459771
19013,Delaware County,PA,33.25,NA
19072,Montgomery County,PA,NA,55.74712643678161
19078,Delaware County,PA,NA,66.66666666666666
19083,Delaware County,PA,NA,12.931034482758621
19087,Chester County,PA,NA,53.44827586206896
19094,Delaware County,PA,NA,81.60919540229885
19130,Philadelphia County,PA,35.5,NA
19144,Philadelphia County,PA,21,38.50574712643678
19152,Philadelphia County,PA,15.75,NA
19335,Chester County,PA,14.499999999999998,NA
19468,Montgomery County,PA,NA,33.33333333333333
19473,Montgomery County,PA,NA,67.81609195402298
02893,Kent County,RI,31.5,NA
02906,Providence County,RI,50,NA
02920,Providence County,RI,26.5,NA
29150,Sumter County,SC,32.25,NA
29212,Lexington County,SC,59.25,NA
29325,Laurens County,SC,49.25,NA
29388,Spartanburg County,SC,77.75,NA
29455,Charleston County,SC,NA,32.4712643678161
29456,Dorchester County,SC,31.75,NA
29708,York County,SC,70.5,NA
29709,Chesterfield County,SC,84,NA
29728,Chesterfield County,SC,89.25,NA
29902,Beaufort County,SC,NA,59.77011494252874
37013,Davidson County,TN,8.5,NA
37075,Sumner County,TN,NA,32.758620689655174
37091,Marshall County,TN,NA,45.11494252873563
37138,Davidson County,TN,NA,76.4367816091954
37167,Rutherford County,TN,54.75,NA
37209,Davidson County,TN,72.75,NA
37322,Meigs County,TN,57.49999999999999,NA
37381,Rhea County,TN,76.5,NA
37419,Hamilton County,TN,95.75,NA
37743,Greene County,TN,10,NA
37754,Anderson County,TN,89.5,NA
37801,Blount County,TN,NA,41.95402298850575
37857,Hawkins County,TN,NA,37.93103448275862
37863,Sevier County,TN,75,NA
38053,Shelby County,TN,NA,75.28735632183908
38120,Shelby County,TN,99,NA
38260,Obion County,TN,NA,95.11494252873564
38574,Putnam County,TN,NA,61.49425287356321
75075,Collin County,TX,60,NA
75126,Kaufman County,TX,28.749999999999996,NA
75180,Dallas County,TX,NA,62.93103448275862
75212,Dallas County,TX,NA,42.81609195402299
75214,Dallas County,TX,NA,79.88505747126436
75227,Dallas County,TX,16,NA
75235,Dallas County,TX,83,NA
75237,Dallas County,TX,39.25,NA
75240,Dallas County,TX,NA,96.26436781609196
75243,Dallas County,TX,11.5,NA
75657,Marion County,TX,87,NA
75707,Smith County,TX,NA,45.689655172413794
75751,Henderson County,TX,NA,44.827586206896555
76036,Tarrant County,TX,53.5,NA
76086,Parker County,TX,NA,52.87356321839081
76105,Tarrant County,TX,NA,24.42528735632184
76504,Bell County,TX,NA,19.25287356321839
76513,Bell County,TX,NA,11.781609195402298
76574,Williamson County,TX,44.75,NA
77022,Harris County,TX,74.75,NA
77083,Harris County,TX,NA,26.72413793103448
77356,Montgomery County,TX,61.75000000000001,NA
77365,Montgomery County,TX,NA,54.02298850574713
77459,Fort Bend County,TX,21.25,NA
77539,Galveston County,TX,48.5,NA
77581,Brazoria County,TX,27.250000000000004,NA
77584,Brazoria County,TX,34,NA
77590,Galveston County,TX,38,NA
77713,Jefferson County,TX,NA,81.32183908045977
77803,Brazos County,TX,24.5,NA
78041,Webb County,TX,NA,22.413793103448278
78244,Bexar County,TX,55.25,NA
78368,San Patricio County,TX,81,NA
78572,Hidalgo County,TX,NA,18.67816091954023
78582,Starr County,TX,63.24999999999999,NA
78628,Williamson County,TX,NA,54.59770114942529
78704,Travis County,TX,NA,72.98850574712644
78758,Travis County,TX,NA,94.82758620689656
79764,Ector County,TX,50.5,NA
79765,Ector County,TX,65,NA
79938,El Paso County,TX,NA,56.896551724137936
84095,Salt Lake County,UT,36.75,NA
84098,Summit County,UT,81,NA
84109,Salt Lake County,UT,80.25,NA
84129,,UT,27,NA
84663,Utah County,UT,86.25,NA
05201,Bennington County,VT,NA,22.701149425287355
20110,Manassas city,VA,NA,52.29885057471264
20165,Loudoun County,VA,64,NA
22030,Fairfax County,VA,72,NA
22192,Prince William County,VA,64.5,NA
22802,Harrisonburg city,VA,NA,45.40229885057471
23111,Hanover County,VA,45.5,NA
23325,Chesapeake city,VA,69.25,NA
23452,Virginia Beach city,VA,67.5,NA
23454,Virginia Beach city,VA,NA,11.206896551724139
23662,Poquoson city,VA,NA,90.80459770114942
23692,York County,VA,NA,43.67816091954023
24523,Bedford County,VA,29.25,NA
98006,King County,WA,NA,29.022988505747126
98008,King County,WA,80.75,NA
98021,Snohomish County,WA,85.5,NA
98022,King County,WA,NA,22.988505747126435
98055,King County,WA,NA,62.643678160919535
98059,King County,WA,40.5,NA
98070,King County,WA,93,NA
98102,King County,WA,96.5,NA
98122,King County,WA,95.25,NA
98125,King County,WA,66.5,64.36781609195403
98168,King County,WA,29.5,NA
98177,King County,WA,NA,89.36781609195403
98275,Snohomish County,WA,99.25,NA
98371,Pierce County,WA,NA,50
98499,Pierce County,WA,NA,47.41379310344828
98501,Thurston County,WA,91.25,NA
98611,Cowlitz County,WA,NA,68.67816091954023
98660,Clark County,WA,NA,82.75862068965517
98823,Grant County,WA,96.25,NA
98837,Grant County,WA,28.499999999999996,NA
98855,Okanogan County,WA,82.75,NA
98908,Yakima County,WA,NA,12.35632183908046
98942,Yakima County,WA,NA,94.54022988505747
98944,Yakima County,WA,NA,91.0919540229885
20015,District of Columbia,DC,81.5,NA
24740,Mercer County,WV,NA,30.747126436781606
25311,Kanawha County,WV,64.75,79.88505747126436
25704,Wayne County,WV,71,NA
26034,Hancock County,WV,84.75,NA
26037,Brooke County,WV,NA,58.90804597701149
26104,Wood County,WV,83.5,NA
26501,Monongalia County,WV,15,NA
26847,Grant County,WV,NA,71.55172413793103
53121,Walworth County,WI,38.5,NA
53151,Waukesha County,WI,36,NA
53158,Kenosha County,WI,19,NA
53172,Milwaukee County,WI,NA,37.64367816091954
53188,Waukesha County,WI,91.75,NA
53549,Jefferson County,WI,68.5,NA
54114,Marinette County,WI,NA,72.41379310344827
54481,Portage County,WI,17.75,NA
54603,La Crosse County,WI,85,NA
54893,Burnett County,WI,97,NA
54982,Waushara County,WI,86.5,NA
82240,Goshen County,WY,83.25,NA
