ZipCode,county,state,Adult,Retirement,Geriatric
35004,St. Clair County,AL,NA,NA,84.79166666666667
35007,Shelby County,AL,29.890453834115803,NA,NA
35023,Jefferson County,AL,NA,NA,27.291666666666664
35077,Cullman County,AL,NA,36.95286195286195,NA
35151,Talladega County,AL,NA,91.66666666666666,NA
35242,Shelby County,AL,NA,5.808080808080808,NA
35401,Tuscaloosa County,AL,NA,NA,22.083333333333332
35404,Tuscaloosa County,AL,NA,NA,73.64583333333333
35406,Tuscaloosa County,AL,NA,NA,73.125
35453,Tuscaloosa County,AL,NA,90.40404040404042,NA
35475,Tuscaloosa County,AL,NA,NA,40.3125
35546,Fayette County,AL,72.9264475743349,NA,NA
35578,Walker County,AL,NA,51.34680134680135,NA
35579,Walker County,AL,NA,70.45454545454545,NA
35586,Lamar County,AL,77.77777777777779,NA,NA
35601,Morgan County,AL,NA,7.154882154882154,NA
35645,Lauderdale County,AL,NA,NA,59.583333333333336
35661,Colbert County,AL,NA,41.245791245791246,NA
35749,Madison County,AL,73.23943661971832,NA,NA
35768,Jackson County,AL,37.558685446009385,NA,33.4375
35803,Madison County,AL,NA,39.56228956228956,NA
35953,St. Clair County,AL,NA,78.28282828282829,NA
35957,Marshall County,AL,27.230046948356808,NA,NA
36016,Barbour County,AL,91.07981220657277,NA,NA
36024,Elmore County,AL,NA,67.76094276094277,NA
36049,Crenshaw County,AL,NA,84.0909090909091,NA
36104,Montgomery County,AL,NA,64.81481481481481,NA
36108,Montgomery County,AL,NA,NA,53.95833333333333
36530,Baldwin County,AL,NA,77.60942760942761,NA
36532,Baldwin County,AL,NA,11.616161616161616,NA
36551,Baldwin County,AL,NA,59.09090909090909,NA
36576,Baldwin County,AL,85.75899843505478,NA,NA
36695,Mobile County,AL,NA,NA,40.520833333333336
36701,Dallas County,AL,NA,63.468013468013474,NA
36863,Chambers County,AL,NA,36.195286195286194,NA
36867,Russell County,AL,93.89671361502347,NA,NA
99507,Anchorage Municipality,AK,NA,NA,98.64583333333333
99517,Anchorage Municipality,AK,NA,91.41414141414141,NA
85018,Maricopa County,AZ,NA,41.83501683501684,23.4375
85020,Maricopa County,AZ,NA,17.424242424242426,NA
85022,Maricopa County,AZ,74.64788732394366,NA,NA
85032,Maricopa County,AZ,8.450704225352112,33.58585858585859,43.333333333333336
85040,Maricopa County,AZ,44.60093896713615,NA,NA
85041,Maricopa County,AZ,3.599374021909233,NA,NA
85048,Maricopa County,AZ,66.35367762128325,NA,NA
85083,Maricopa County,AZ,54.61658841940532,NA,NA
85120,Pinal County,AZ,75.5868544600939,NA,NA
85140,Pinal County,AZ,NA,56.64983164983165,NA
85207,Maricopa County,AZ,NA,NA,56.25
85208,Maricopa County,AZ,NA,20.2020202020202,NA
85209,Maricopa County,AZ,NA,NA,24.375
85212,Maricopa County,AZ,36.15023474178404,NA,NA
85213,Maricopa County,AZ,NA,51.43097643097643,NA
85215,Maricopa County,AZ,NA,63.13131313131313,NA
85225,Maricopa County,AZ,NA,NA,47.604166666666664
85248,Maricopa County,AZ,NA,NA,33.541666666666664
85249,Maricopa County,AZ,26.76056338028169,NA,NA
85251,Maricopa County,AZ,NA,NA,14.895833333333334
85255,Maricopa County,AZ,NA,NA,70.20833333333333
85258,Maricopa County,AZ,NA,NA,34.166666666666664
85262,Maricopa County,AZ,NA,NA,70.10416666666667
85263,Maricopa County,AZ,NA,NA,88.22916666666667
85310,Maricopa County,AZ,NA,40.909090909090914,NA
85326,Maricopa County,AZ,NA,80.89225589225589,NA
85345,Maricopa County,AZ,NA,NA,35.9375
85364,Yuma County,AZ,NA,1.2626262626262625,NA
85367,Yuma County,AZ,NA,81.22895622895624,NA
85374,Maricopa County,AZ,NA,28.535353535353536,NA
85375,Maricopa County,AZ,NA,NA,4.895833333333333
85381,Maricopa County,AZ,NA,NA,18.75
85383,Maricopa County,AZ,15.336463223787167,18.855218855218855,NA
85392,Maricopa County,AZ,NA,25.420875420875422,NA
85395,Maricopa County,AZ,NA,22.97979797979798,NA
85501,Gila County,AZ,NA,NA,39.58333333333333
85539,Gila County,AZ,97.1830985915493,NA,NA
85541,Gila County,AZ,53.051643192488264,NA,NA
85544,Gila County,AZ,NA,NA,100
85546,Graham County,AZ,29.26447574334898,NA,NA
85552,Graham County,AZ,78.09076682316119,83.08080808080808,NA
85602,Cochise County,AZ,NA,84.006734006734,NA
85607,Cochise County,AZ,NA,NA,28.020833333333332
85621,Santa Cruz County,AZ,NA,70.37037037037037,NA
85634,Pima County,AZ,76.21283255086072,NA,NA
85635,Cochise County,AZ,NA,NA,56.14583333333333
85648,Santa Cruz County,AZ,NA,36.61616161616162,NA
85653,Pima County,AZ,58.21596244131455,NA,NA
85710,Pima County,AZ,NA,7.65993265993266,NA
85716,Pima County,AZ,10.485133020344287,NA,NA
85730,Pima County,AZ,14.553990610328638,NA,NA
85739,Pinal County,AZ,NA,NA,10.208333333333334
85742,Pima County,AZ,NA,48.063973063973066,NA
85743,Pima County,AZ,NA,13.552188552188552,NA
85755,Pima County,AZ,NA,25,NA
85757,Pima County,AZ,NA,NA,93.75
86001,Coconino County,AZ,31.92488262910798,NA,NA
86004,Coconino County,AZ,NA,57.91245791245792,NA
86301,Yavapai County,AZ,NA,14.898989898989898,NA
86305,Yavapai County,AZ,NA,18.097643097643097,NA
86327,Yavapai County,AZ,NA,NA,40.729166666666664
86351,Yavapai County,AZ,NA,NA,88.54166666666666
86401,Mohave County,AZ,81.2206572769953,NA,NA
86413,Mohave County,AZ,37.08920187793427,13.047138047138047,NA
86426,Mohave County,AZ,NA,49.57912457912458,NA
71801,Hempstead County,AR,92.64475743348983,NA,NA
71832,Sevier County,AR,60.876369327073554,NA,NA
72012,White County,AR,NA,NA,35
72031,Van Buren County,AR,NA,82.15488215488216,NA
72034,Faulkner County,AR,NA,59.25925925925925,NA
72067,Cleburne County,AR,NA,51.936026936026934,NA
72086,Lonoke County,AR,NA,63.55218855218855,NA
72088,Van Buren County,AR,NA,90.06734006734007,NA
72113,Pulaski County,AR,NA,NA,68.33333333333333
72118,Pulaski County,AR,NA,NA,19.583333333333332
72120,Pulaski County,AR,25.19561815336463,NA,NA
72131,Cleburne County,AR,NA,95.37037037037037,NA
72143,White County,AR,20.657276995305164,87.87878787878788,NA
72160,Arkansas County,AR,NA,99.32659932659934,NA
72404,Craighead County,AR,NA,42.676767676767675,NA
72701,Washington County,AR,40.845070422535215,NA,NA
72714,Benton County,AR,NA,38.215488215488215,NA
72715,Benton County,AR,NA,NA,25.416666666666664
90004,Los Angeles County,CA,NA,NA,20.625
90016,Los Angeles County,CA,NA,10.437710437710438,NA
90024,Los Angeles County,CA,NA,94.10774410774411,NA
90028,Los Angeles County,CA,NA,NA,17.1875
90037,Los Angeles County,CA,58.68544600938967,NA,NA
90039,Los Angeles County,CA,NA,46.2962962962963,NA
90046,Los Angeles County,CA,NA,31.734006734006737,NA
90057,Los Angeles County,CA,NA,NA,76.45833333333333
90069,Los Angeles County,CA,86.07198748043818,NA,NA
90201,Los Angeles County,CA,NA,19.36026936026936,NA
90242,Los Angeles County,CA,84.66353677621284,NA,NA
90250,Los Angeles County,CA,36.30672926447575,11.868686868686869,NA
90275,Los Angeles County,CA,NA,NA,38.02083333333333
90505,Los Angeles County,CA,NA,NA,34.0625
90620,Orange County,CA,NA,18.939393939393938,NA
90680,Orange County,CA,NA,NA,34.166666666666664
90740,Orange County,CA,NA,44.107744107744104,NA
91040,Los Angeles County,CA,NA,35.26936026936027,NA
91103,Los Angeles County,CA,NA,49.41077441077441,NA
91206,Los Angeles County,CA,NA,NA,4.479166666666667
91208,Los Angeles County,CA,NA,96.29629629629629,NA
91304,Los Angeles County,CA,NA,48.65319865319865,6.354166666666666
91316,Los Angeles County,CA,NA,28.28282828282828,NA
91324,Los Angeles County,CA,88.88888888888889,NA,NA
91335,Los Angeles County,CA,NA,NA,4.583333333333333
91342,Los Angeles County,CA,31.142410015649453,NA,NA
91343,Los Angeles County,CA,NA,46.88552188552188,NA
91344,Los Angeles County,CA,NA,12.037037037037036,NA
91352,Los Angeles County,CA,NA,70.2020202020202,NA
91356,Los Angeles County,CA,NA,NA,10.520833333333334
91361,Ventura County,CA,NA,78.87205387205387,NA
91387,Los Angeles County,CA,NA,20.95959595959596,NA
91402,Los Angeles County,CA,NA,38.88888888888889,NA
91405,Los Angeles County,CA,NA,22.22222222222222,NA
91701,San Bernardino County,CA,NA,NA,57.91666666666667
91709,San Bernardino County,CA,NA,90.74074074074075,NA
91710,San Bernardino County,CA,20.187793427230048,NA,NA
91711,Los Angeles County,CA,NA,98.31649831649831,NA
91750,Los Angeles County,CA,41.31455399061033,NA,NA
91767,Los Angeles County,CA,NA,NA,21.979166666666668
91773,Los Angeles County,CA,NA,62.62626262626263,NA
91950,San Diego County,CA,19.561815336463223,NA,NA
92011,San Diego County,CA,NA,96.63299663299664,NA
92014,San Diego County,CA,NA,49.74747474747475,NA
92027,San Diego County,CA,52.42566510172144,NA,NA
92028,San Diego County,CA,NA,25.252525252525253,NA
92054,San Diego County,CA,NA,65.9090909090909,NA
92056,San Diego County,CA,NA,37.03703703703704,NA
92071,San Diego County,CA,NA,41.75084175084175,NA
92075,San Diego County,CA,NA,NA,42.604166666666664
92084,San Diego County,CA,NA,34.25925925925926,NA
92111,San Diego County,CA,NA,NA,11.25
92114,San Diego County,CA,NA,13.215488215488216,NA
92123,San Diego County,CA,NA,NA,29.375
92203,Riverside County,CA,NA,9.006734006734007,NA
92220,Riverside County,CA,NA,NA,11.041666666666666
92234,Riverside County,CA,NA,41.41414141414141,NA
92241,Riverside County,CA,NA,98.14814814814815,NA
92250,Imperial County,CA,NA,NA,72.08333333333333
92251,Imperial County,CA,68.38810641627543,NA,NA
92252,San Bernardino County,CA,NA,95.1178451178451,NA
92253,Riverside County,CA,NA,70.62289562289563,NA
92260,Riverside County,CA,33.80281690140845,NA,NA
92262,Riverside County,CA,72.76995305164318,4.377104377104377,NA
92264,Riverside County,CA,NA,4.882154882154882,22.395833333333336
92284,San Bernardino County,CA,60.093896713615024,73.9057239057239,NA
92316,San Bernardino County,CA,30.203442879499214,NA,NA
92320,Riverside County,CA,81.69014084507043,NA,NA
92324,San Bernardino County,CA,NA,NA,91.77083333333333
92354,San Bernardino County,CA,NA,82.74410774410774,NA
92373,San Bernardino County,CA,NA,56.060606060606055,97.5
92407,San Bernardino County,CA,NA,NA,32.8125
92411,San Bernardino County,CA,NA,42.76094276094276,NA
92503,Riverside County,CA,NA,30.723905723905727,NA
92509,Riverside County,CA,NA,19.696969696969695,NA
92544,Riverside County,CA,NA,23.82154882154882,NA
92549,Riverside County,CA,NA,73.56902356902357,NA
92563,Riverside County,CA,NA,NA,62.60416666666667
92586,Riverside County,CA,NA,NA,9.895833333333332
92603,Orange County,CA,NA,NA,98.22916666666667
92606,Orange County,CA,NA,95.70707070707071,NA
92624,Orange County,CA,NA,89.22558922558923,NA
92627,Orange County,CA,NA,63.2996632996633,NA
92649,Orange County,CA,56.02503912363067,62.62626262626263,NA
92673,Orange County,CA,NA,67.34006734006735,NA
92675,Orange County,CA,NA,NA,60.729166666666664
92683,Orange County,CA,NA,NA,86.14583333333333
92692,Orange County,CA,91.23630672926447,11.531986531986533,NA
92706,Orange County,CA,NA,NA,30.520833333333336
92708,Orange County,CA,NA,7.3232323232323235,NA
92806,Orange County,CA,NA,NA,18.333333333333332
92845,Orange County,CA,NA,83.5016835016835,NA
92886,Orange County,CA,NA,8.24915824915825,NA
93001,Ventura County,CA,NA,NA,68.64583333333333
93003,Ventura County,CA,51.64319248826291,NA,NA
93010,Ventura County,CA,NA,12.289562289562289,NA
93063,Ventura County,CA,NA,NA,18.645833333333332
93274,Tulare County,CA,NA,NA,59.27083333333333
93277,Tulare County,CA,NA,40.99326599326599,NA
93286,Tulare County,CA,74.96087636932708,NA,NA
93308,Kern County,CA,NA,15.488215488215488,NA
93309,Kern County,CA,16.74491392801252,NA,13.645833333333332
93405,San Luis Obispo County,CA,NA,NA,73.75
93420,San Luis Obispo County,CA,NA,45.87542087542087,NA
93446,San Luis Obispo County,CA,14.710485133020345,43.93939393939394,NA
93463,Santa Barbara County,CA,NA,89.73063973063972,NA
93510,Los Angeles County,CA,NA,97.3063973063973,NA
93535,Los Angeles County,CA,4.694835680751173,NA,NA
93536,Los Angeles County,CA,NA,26.936026936026934,22.5
93552,Los Angeles County,CA,NA,44.78114478114478,NA
93704,Fresno County,CA,NA,29.713804713804713,NA
93726,Fresno County,CA,NA,NA,70
93923,Monterey County,CA,NA,81.31313131313132,NA
93930,Monterey County,CA,NA,77.27272727272727,NA
93940,Monterey County,CA,NA,13.973063973063974,25.937500000000004
93950,Monterey County,CA,NA,NA,27.604166666666668
93955,Monterey County,CA,NA,17.59259259259259,NA
94010,San Mateo County,CA,NA,NA,4.270833333333333
94025,San Mateo County,CA,NA,NA,30.312499999999996
94030,San Mateo County,CA,NA,NA,48.645833333333336
94080,San Mateo County,CA,NA,NA,43.854166666666664
94102,San Francisco County,CA,NA,2.7777777777777777,NA
94108,San Francisco County,CA,NA,NA,24.0625
94110,San Francisco County,CA,66.19718309859155,NA,10.416666666666668
94116,San Francisco County,CA,NA,NA,18.958333333333332
94117,San Francisco County,CA,NA,NA,70.625
94122,San Francisco County,CA,82.94209702660407,NA,NA
94403,San Mateo County,CA,NA,NA,31.25
94506,Contra Costa County,CA,NA,NA,43.645833333333336
94510,Solano County,CA,NA,66.24579124579124,NA
94513,Contra Costa County,CA,82.62910798122066,NA,NA
94526,Contra Costa County,CA,NA,25.084175084175087,NA
94530,Contra Costa County,CA,NA,85.18518518518519,NA
94533,Solano County,CA,NA,80.47138047138047,NA
94538,Alameda County,CA,NA,22.55892255892256,54.895833333333336
94544,Alameda County,CA,NA,45.033670033670035,NA
94558,Napa County,CA,NA,NA,35.104166666666664
94559,Napa County,CA,39.280125195618155,NA,NA
94560,Alameda County,CA,NA,NA,39.166666666666664
94571,Solano County,CA,NA,NA,97.8125
94578,Alameda County,CA,53.52112676056338,NA,NA
94579,Alameda County,CA,NA,NA,82.8125
94587,Alameda County,CA,NA,71.46464646464646,NA
94595,Contra Costa County,CA,NA,NA,2.9166666666666665
94596,Contra Costa County,CA,NA,NA,29.270833333333336
94602,Alameda County,CA,NA,NA,92.8125
94606,Alameda County,CA,NA,NA,90.625
94611,Alameda County,CA,NA,31.64983164983165,NA
94618,Alameda County,CA,NA,97.55892255892256,NA
94708,Alameda County,CA,NA,NA,38.54166666666667
94803,Contra Costa County,CA,NA,45.95959595959596,NA
94904,Marin County,CA,NA,60.52188552188552,NA
94939,Marin County,CA,NA,NA,65.72916666666667
94941,Marin County,CA,NA,21.464646464646464,NA
94945,Marin County,CA,NA,NA,29.583333333333332
94954,Sonoma County,CA,NA,17.67676767676768,NA
94965,Marin County,CA,NA,76.76767676767676,NA
95003,Santa Cruz County,CA,NA,NA,28.125
95032,Santa Clara County,CA,NA,77.10437710437711,NA
95037,Santa Clara County,CA,NA,88.97306397306397,NA
95073,Santa Cruz County,CA,NA,NA,55.208333333333336
95111,Santa Clara County,CA,NA,NA,73.22916666666667
95116,Santa Clara County,CA,24.100156494522693,NA,NA
95117,Santa Clara County,CA,NA,98.23232323232324,NA
95118,Santa Clara County,CA,62.441314553990615,NA,86.77083333333333
95123,Santa Clara County,CA,NA,NA,63.645833333333336
95125,Santa Clara County,CA,NA,43.09764309764309,NA
95126,Santa Clara County,CA,41.62754303599374,NA,NA
95129,Santa Clara County,CA,NA,NA,54.0625
95130,Santa Clara County,CA,NA,NA,89.58333333333334
95132,Santa Clara County,CA,NA,57.49158249158249,NA
95133,Santa Clara County,CA,NA,70.95959595959596,NA
95206,San Joaquin County,CA,NA,NA,58.12500000000001
95223,Calaveras County,CA,99.06103286384976,NA,NA
95228,Calaveras County,CA,NA,79.54545454545455,NA
95340,Merced County,CA,NA,NA,87.70833333333333
95350,Stanislaus County,CA,NA,NA,7.187499999999999
95370,Tuolumne County,CA,NA,NA,69.6875
95376,San Joaquin County,CA,NA,82.65993265993265,NA
95382,Stanislaus County,CA,NA,NA,70.72916666666667
95401,Sonoma County,CA,70.5790297339593,NA,NA
95403,Sonoma County,CA,78.56025039123631,53.45117845117845,NA
95404,Sonoma County,CA,NA,13.88888888888889,68.02083333333333
95405,Sonoma County,CA,NA,79.7979797979798,NA
95407,Sonoma County,CA,38.18466353677621,NA,NA
95409,Sonoma County,CA,NA,NA,61.979166666666664
95422,Lake County,CA,37.715179968701094,NA,NA
95425,Sonoma County,CA,NA,51.68350168350169,98.33333333333333
95476,Sonoma County,CA,NA,NA,64.79166666666667
95610,Sacramento County,CA,63.53677621283255,NA,86.35416666666667
95628,Sacramento County,CA,NA,73.4006734006734,59.166666666666664
95630,Sacramento County,CA,NA,40.48821548821549,NA
95632,Sacramento County,CA,38.497652582159624,NA,NA
95642,Amador County,CA,NA,82.4074074074074,NA
95650,Placer County,CA,NA,94.94949494949495,NA
95662,Sacramento County,CA,NA,86.44781144781145,NA
95677,Placer County,CA,NA,NA,69.0625
95726,El Dorado County,CA,NA,NA,75.20833333333333
95746,Placer County,CA,NA,87.79461279461279,NA
95747,Placer County,CA,22.535211267605636,NA,NA
95821,Sacramento County,CA,49.29577464788733,NA,NA
95822,Sacramento County,CA,NA,NA,49.375
95824,Sacramento County,CA,NA,NA,66.25
95926,Butte County,CA,NA,NA,49.270833333333336
95946,Nevada County,CA,69.17057902973396,NA,NA
95948,Butte County,CA,NA,NA,89.16666666666667
95949,Nevada County,CA,NA,25.757575757575758,NA
95961,Yuba County,CA,NA,NA,56.666666666666664
95973,Butte County,CA,NA,59.51178451178451,NA
95988,Glenn County,CA,NA,60.01683501683501,NA
95993,Sutter County,CA,NA,73.23232323232324,NA
96001,Shasta County,CA,NA,46.464646464646464,NA
96002,Shasta County,CA,35.2112676056338,NA,NA
96003,Shasta County,CA,NA,32.57575757575758,NA
96080,Tehama County,CA,62.59780907668232,NA,NA
96150,El Dorado County,CA,NA,84.42760942760943,NA
80015,Arapahoe County,CO,NA,29.96632996632997,NA
80020,Broomfield County,CO,NA,16.835016835016837,NA
80031,Adams County,CO,NA,71.12794612794613,NA
80111,Arapahoe County,CO,NA,NA,34.791666666666664
80120,Arapahoe County,CO,NA,NA,21.041666666666668
80122,Arapahoe County,CO,55.08607198748044,78.70370370370371,57.49999999999999
80204,Denver County,CO,NA,34.17508417508417,NA
80214,Jefferson County,CO,23.161189358372457,NA,NA
80219,Denver County,CO,NA,NA,25.833333333333336
80221,Adams County,CO,NA,NA,94.27083333333334
80223,Denver County,CO,NA,28.78787878787879,NA
80227,Jefferson County,CO,NA,NA,46.666666666666664
80233,Adams County,CO,NA,NA,58.958333333333336
80421,Park County,CO,NA,68.18181818181817,NA
80503,Boulder County,CO,NA,28.619528619528616,41.354166666666664
80504,Boulder County,CO,NA,65.23569023569024,NA
80516,Weld County,CO,NA,54.966329966329965,NA
80524,Larimer County,CO,16.275430359937403,NA,NA
80525,Larimer County,CO,26.917057902973397,4.461279461279461,NA
80537,Larimer County,CO,NA,66.83501683501683,NA
80538,Larimer County,CO,NA,40.4040404040404,60.3125
80601,Adams County,CO,NA,NA,88.33333333333333
80634,Weld County,CO,NA,0.6734006734006733,3.5416666666666665
80723,Morgan County,CO,50.86071987480438,61.44781144781145,NA
80863,Teller County,CO,NA,53.28282828282829,NA
80915,El Paso County,CO,NA,65.15151515151516,NA
80917,El Paso County,CO,NA,NA,86.5625
80920,El Paso County,CO,NA,33.33333333333333,NA
81006,Pueblo County,CO,NA,NA,39.895833333333336
81089,Huerfano County,CO,NA,NA,45.9375
81201,Chaffee County,CO,NA,98.56902356902357,NA
81321,Montezuma County,CO,NA,73.73737373737373,NA
81413,Delta County,CO,NA,NA,63.854166666666664
06002,Hartford County,CT,NA,NA,69.375
06010,Hartford County,CT,NA,NA,66.45833333333333
06040,Hartford County,CT,NA,49.831649831649834,NA
06043,Tolland County,CT,NA,84.0909090909091,NA
06066,Tolland County,CT,NA,72.13804713804713,NA
06082,Hartford County,CT,NA,52.946127946127945,33.33333333333333
06088,Hartford County,CT,NA,NA,99.16666666666667
06096,Hartford County,CT,NA,NA,62.916666666666664
06105,Hartford County,CT,NA,NA,60.62499999999999
06106,Hartford County,CT,NA,6.0606060606060606,NA
06108,Hartford County,CT,NA,29.882154882154882,NA
06232,Tolland County,CT,100,NA,NA
06405,New Haven County,CT,NA,55.47138047138047,NA
06410,New Haven County,CT,88.41940532081377,NA,NA
06419,Middlesex County,CT,NA,80.72390572390572,NA
06443,New Haven County,CT,NA,97.64309764309765,NA
06450,New Haven County,CT,NA,NA,51.770833333333336
06457,Middlesex County,CT,NA,3.7037037037037033,NA
06468,Fairfield County,CT,NA,92.84511784511784,NA
06471,New Haven County,CT,NA,NA,86.25
06473,New Haven County,CT,NA,69.02356902356902,NA
06512,New Haven County,CT,13.458528951486699,NA,NA
06518,New Haven County,CT,NA,NA,13.333333333333334
06606,Fairfield County,CT,NA,59.00673400673401,36.354166666666664
06614,Fairfield County,CT,NA,NA,69.89583333333333
06759,Litchfield County,CT,NA,NA,83.64583333333333
06770,New Haven County,CT,NA,12.121212121212121,58.64583333333333
06786,Litchfield County,CT,NA,NA,75.83333333333333
06801,Fairfield County,CT,NA,29.545454545454547,NA
06810,Fairfield County,CT,9.389671361502346,NA,NA
06811,Fairfield County,CT,NA,NA,6.145833333333333
06830,Fairfield County,CT,NA,NA,31.770833333333332
06851,Fairfield County,CT,NA,NA,71.97916666666667
06880,Fairfield County,CT,NA,93.51851851851852,NA
06902,Fairfield County,CT,NA,63.804713804713806,1.9791666666666665
06903,Fairfield County,CT,NA,NA,65.625
06905,Fairfield County,CT,NA,NA,17.395833333333332
19701,New Castle County,DE,NA,NA,94.47916666666667
19702,New Castle County,DE,9.076682316118937,NA,NA
19709,New Castle County,DE,32.550860719874805,NA,NA
19711,New Castle County,DE,16.431924882629108,NA,NA
19720,New Castle County,DE,NA,1.0942760942760943,NA
19805,New Castle County,DE,10.328638497652582,NA,NA
19808,New Castle County,DE,NA,NA,2.1875
19810,New Castle County,DE,NA,NA,76.66666666666667
19904,Kent County,DE,NA,25.589225589225588,NA
19952,Kent County,DE,NA,30.808080808080806,NA
19958,Sussex County,DE,NA,54.882154882154886,NA
19966,Sussex County,DE,NA,3.61952861952862,50.31250000000001
19968,Sussex County,DE,71.20500782472612,NA,NA
19973,Sussex County,DE,NA,NA,62.81250000000001
32034,Nassau County,FL,NA,20.37037037037037,35.625
32060,Suwannee County,FL,75.27386541471049,NA,NA
32071,Suwannee County,FL,NA,NA,87.29166666666667
32073,Clay County,FL,NA,47.8956228956229,NA
32081,St. Johns County,FL,98.27856025039124,NA,NA
32095,St. Johns County,FL,NA,69.1919191919192,NA
32097,Nassau County,FL,69.79655712050078,NA,NA
32118,Volusia County,FL,76.68231611893583,NA,NA
32119,Volusia County,FL,NA,60.858585858585855,NA
32128,Volusia County,FL,NA,53.78787878787878,62.708333333333336
32129,Volusia County,FL,NA,69.78114478114477,NA
32130,Volusia County,FL,94.67918622848201,NA,NA
32141,Volusia County,FL,NA,68.18181818181817,NA
32162,Sumter County,FL,NA,NA,7.083333333333333
32164,Flagler County,FL,NA,81.98653198653199,NA
32168,Volusia County,FL,NA,17.76094276094276,NA
32174,Volusia County,FL,NA,60.437710437710436,NA
32176,Volusia County,FL,NA,72.72727272727273,NA
32207,Duval County,FL,NA,59.84848484848485,NA
32211,Duval County,FL,NA,NA,37.8125
32224,Duval County,FL,NA,74.74747474747475,NA
32225,Duval County,FL,NA,NA,43.75
32233,Duval County,FL,47.57433489827856,NA,NA
32250,Duval County,FL,NA,64.47811447811448,NA
32259,St. Johns County,FL,NA,NA,22.1875
32311,Leon County,FL,NA,NA,55.833333333333336
32327,Wakulla County,FL,NA,NA,42.5
32351,Gadsden County,FL,NA,NA,90
32413,Bay County,FL,NA,27.946127946127948,NA
32425,Holmes County,FL,33.48982785602504,NA,NA
32431,Jackson County,FL,NA,96.12794612794613,NA
32440,Jackson County,FL,NA,54.20875420875421,NA
32504,Escambia County,FL,NA,14.225589225589225,NA
32514,Escambia County,FL,NA,NA,55.52083333333333
32526,Escambia County,FL,7.82472613458529,NA,NA
32531,Okaloosa County,FL,NA,NA,49.47916666666667
32539,Okaloosa County,FL,NA,46.717171717171716,14.374999999999998
32541,Okaloosa County,FL,88.10641627543035,NA,NA
32547,Okaloosa County,FL,NA,NA,23.854166666666668
32561,Santa Rosa County,FL,NA,NA,64.89583333333333
32563,Santa Rosa County,FL,NA,10.85858585858586,NA
32566,Santa Rosa County,FL,NA,NA,75.10416666666667
32605,Alachua County,FL,NA,64.3097643097643,NA
32680,Dixie County,FL,NA,43.77104377104377,NA
32703,Orange County,FL,34.58528951486698,NA,NA
32712,Orange County,FL,39.906103286384976,NA,NA
32714,Seminole County,FL,NA,NA,53.02083333333333
32750,Seminole County,FL,43.1924882629108,NA,NA
32779,Seminole County,FL,NA,NA,37.916666666666664
32789,Orange County,FL,NA,NA,58.020833333333336
32796,Brevard County,FL,NA,55.80808080808081,NA
32808,Orange County,FL,64.31924882629107,NA,NA
32811,Orange County,FL,13.145539906103288,NA,NA
32820,Orange County,FL,NA,80.97643097643098,NA
32901,Brevard County,FL,NA,23.737373737373737,NA
32904,Brevard County,FL,28.482003129890455,NA,NA
32907,Brevard County,FL,NA,NA,24.895833333333332
32920,Brevard County,FL,NA,NA,31.458333333333332
32940,Brevard County,FL,NA,86.86868686868688,NA
32976,Brevard County,FL,NA,NA,24.479166666666664
33013,Miami-Dade County,FL,NA,NA,10.625
33020,Broward County,FL,NA,78.61952861952862,NA
33036,Monroe County,FL,NA,95.7912457912458,NA
33040,Monroe County,FL,25.352112676056336,NA,NA
33055,Miami-Dade County,FL,NA,31.986531986531986,NA
33060,Broward County,FL,NA,26.599326599326602,NA
33064,Broward County,FL,21.12676056338028,NA,NA
33066,Broward County,FL,72.45696400625978,NA,NA
33067,Broward County,FL,NA,65.48821548821549,NA
33071,Broward County,FL,31.768388106416275,NA,NA
33125,Miami-Dade County,FL,NA,19.52861952861953,NA
33133,Miami-Dade County,FL,NA,73.06397306397307,NA
33135,Miami-Dade County,FL,71.51799687010954,NA,NA
33140,Miami-Dade County,FL,NA,NA,79.375
33144,Miami-Dade County,FL,NA,NA,62.5
33165,Miami-Dade County,FL,NA,39.39393939393939,NA
33169,Miami-Dade County,FL,NA,NA,72.1875
33172,Miami-Dade County,FL,56.18153364632238,NA,NA
33175,Miami-Dade County,FL,NA,NA,45.520833333333336
33183,Miami-Dade County,FL,NA,41.4983164983165,NA
33184,Miami-Dade County,FL,NA,NA,57.08333333333333
33308,Broward County,FL,NA,7.4074074074074066,77.08333333333334
33330,Broward County,FL,73.55242566510172,NA,NA
33404,Palm Beach County,FL,NA,46.043771043771045,NA
33408,Palm Beach County,FL,NA,NA,84.375
33410,Palm Beach County,FL,NA,37.878787878787875,NA
33418,Palm Beach County,FL,NA,55.97643097643098,NA
33428,Palm Beach County,FL,NA,NA,85.20833333333333
33432,Palm Beach County,FL,94.20970266040689,NA,NA
33433,Palm Beach County,FL,NA,NA,68.125
33434,Palm Beach County,FL,NA,NA,71.14583333333333
33435,Palm Beach County,FL,NA,89.47811447811448,NA
33437,Palm Beach County,FL,NA,65.82491582491582,NA
33455,Martin County,FL,NA,NA,19.479166666666668
33477,Palm Beach County,FL,NA,81.39730639730641,NA
33483,Palm Beach County,FL,NA,NA,54.270833333333336
33484,Palm Beach County,FL,NA,94.86531986531986,NA
33486,Palm Beach County,FL,NA,87.2895622895623,63.541666666666664
33487,Palm Beach County,FL,NA,43.013468013468014,NA
33496,Palm Beach County,FL,NA,NA,76.14583333333333
33525,Pasco County,FL,NA,22.306397306397308,NA
33594,Hillsborough County,FL,NA,NA,62.291666666666664
33609,Hillsborough County,FL,49.60876369327074,NA,NA
33612,Hillsborough County,FL,NA,19.19191919191919,NA
33613,Hillsborough County,FL,NA,47.97979797979798,NA
33618,Hillsborough County,FL,NA,72.55892255892256,NA
33625,Hillsborough County,FL,NA,NA,78.95833333333333
33701,Pinellas County,FL,NA,NA,27.708333333333336
33712,Pinellas County,FL,NA,31.313131313131315,29.062500000000004
33767,Pinellas County,FL,80.59467918622848,NA,76.25
33809,Polk County,FL,NA,NA,13.958333333333334
33825,Highlands County,FL,NA,NA,9.0625
33837,Polk County,FL,NA,47.13804713804714,NA
33844,Polk County,FL,67.4491392801252,NA,NA
33859,Polk County,FL,82.47261345852895,NA,NA
33875,Highlands County,FL,68.70109546165885,37.71043771043771,NA
33884,Polk County,FL,36.93270735524257,NA,NA
33904,Lee County,FL,21.439749608763695,NA,NA
33908,Lee County,FL,NA,NA,3.4375000000000004
33909,Lee County,FL,NA,NA,88.95833333333333
33913,Lee County,FL,NA,NA,56.041666666666664
33950,Charlotte County,FL,NA,15.656565656565657,NA
33974,Lee County,FL,74.80438184663537,NA,NA
33980,Charlotte County,FL,NA,43.51851851851852,NA
34109,Collier County,FL,51.956181533646316,NA,NA
34112,Collier County,FL,NA,NA,8.75
34119,Collier County,FL,NA,46.63299663299663,NA
34120,Collier County,FL,NA,21.96969696969697,NA
34134,Lee County,FL,NA,NA,16.041666666666668
34201,Manatee County,FL,NA,NA,42.70833333333333
34209,Manatee County,FL,NA,NA,81.04166666666667
34211,Manatee County,FL,NA,NA,44.479166666666664
34223,Sarasota County,FL,NA,62.121212121212125,NA
34231,Sarasota County,FL,32.08137715179969,NA,21.875
34235,Sarasota County,FL,NA,NA,14.791666666666666
34237,Sarasota County,FL,NA,94.1919191919192,NA
34241,Sarasota County,FL,NA,NA,21.25
34243,Manatee County,FL,NA,11.700336700336699,NA
34287,Sarasota County,FL,NA,15.067340067340067,22.604166666666668
34293,Sarasota County,FL,NA,NA,19.0625
34465,Citrus County,FL,NA,34.51178451178451,NA
34470,Marion County,FL,NA,NA,40.833333333333336
34472,Marion County,FL,NA,27.104377104377104,NA
34473,Marion County,FL,NA,NA,50.10416666666667
34474,Marion County,FL,NA,72.97979797979798,NA
34476,Marion County,FL,NA,NA,11.458333333333332
34479,Marion County,FL,NA,NA,82.29166666666666
34491,Marion County,FL,NA,NA,9.375
34604,Hernando County,FL,NA,NA,96.25
34606,Hernando County,FL,24.2566510172144,41.66666666666667,NA
34655,Pasco County,FL,NA,12.542087542087543,NA
34683,Pinellas County,FL,NA,NA,20.416666666666668
34684,Pinellas County,FL,NA,45.79124579124579,NA
34711,Lake County,FL,34.11580594679186,NA,NA
34731,Lake County,FL,NA,89.81481481481481,NA
34746,Osceola County,FL,NA,89.56228956228956,NA
34748,Lake County,FL,NA,20.791245791245792,0.4166666666666667
34759,Polk County,FL,NA,78.45117845117845,NA
34761,Orange County,FL,NA,NA,46.5625
34951,St. Lucie County,FL,NA,88.72053872053873,NA
34953,St. Lucie County,FL,NA,17.003367003367003,NA
34957,Martin County,FL,NA,17.255892255892256,NA
34997,Martin County,FL,NA,NA,1.6666666666666667
30004,Fulton County,GA,NA,86.53198653198653,NA
30005,Fulton County,GA,NA,43.43434343434344,NA
30014,Newton County,GA,NA,15.993265993265993,NA
30024,Gwinnett County,GA,NA,NA,16.458333333333332
30028,Forsyth County,GA,NA,82.57575757575758,65.41666666666667
30040,Forsyth County,GA,NA,41.91919191919192,NA
30041,Forsyth County,GA,NA,50.08417508417509,NA
30044,Gwinnett County,GA,NA,47.55892255892255,NA
30045,Gwinnett County,GA,NA,NA,80.83333333333333
30060,Cobb County,GA,NA,NA,66.35416666666667
30062,Cobb County,GA,NA,NA,67.5
30064,Cobb County,GA,NA,18.181818181818183,NA
30067,Cobb County,GA,38.028169014084504,NA,62.083333333333336
30075,Fulton County,GA,NA,29.208754208754208,NA
30092,Gwinnett County,GA,NA,79.37710437710437,NA
30094,Rockdale County,GA,NA,75.92592592592592,NA
30096,Gwinnett County,GA,NA,15.572390572390574,NA
30097,Fulton County,GA,NA,69.6969696969697,NA
30101,Cobb County,GA,NA,NA,16.875
30113,Haralson County,GA,NA,NA,94.58333333333333
30132,Paulding County,GA,54.929577464788736,NA,NA
30152,Cobb County,GA,56.4945226917058,NA,NA
30214,Fayette County,GA,NA,NA,51.354166666666664
30222,Meriwether County,GA,95.93114241001565,NA,NA
30224,Spalding County,GA,67.6056338028169,NA,NA
30238,Clayton County,GA,31.29890453834116,NA,NA
30240,Troup County,GA,14.241001564945227,NA,NA
30248,Henry County,GA,NA,32.996632996633,NA
30252,Henry County,GA,NA,25.084175084175087,33.85416666666667
30263,Coweta County,GA,45.07042253521127,5.555555555555555,NA
30269,Fayette County,GA,NA,77.77777777777779,NA
30274,Clayton County,GA,NA,NA,77.39583333333333
30294,DeKalb County,GA,NA,NA,33.645833333333336
30306,Fulton County,GA,71.04851330203444,NA,NA
30311,Fulton County,GA,NA,NA,23.645833333333332
30315,Fulton County,GA,NA,54.46127946127947,15.937499999999998
30328,Fulton County,GA,88.26291079812206,NA,NA
30331,Fulton County,GA,60.25039123630673,3.4511784511784516,NA
30342,Fulton County,GA,57.12050078247262,NA,NA
30344,Fulton County,GA,49.60876369327074,NA,NA
30345,DeKalb County,GA,NA,86.95286195286195,NA
30350,Fulton County,GA,NA,NA,31.354166666666668
30457,Treutlen County,GA,NA,68.93939393939394,NA
30504,Hall County,GA,NA,43.35016835016835,NA
30512,Union County,GA,NA,47.64309764309764,NA
30518,Gwinnett County,GA,NA,38.97306397306397,40
30523,Habersham County,GA,NA,84.68013468013467,NA
30525,Rabun County,GA,NA,NA,42.083333333333336
30549,Jackson County,GA,NA,NA,85
30577,Stephens County,GA,NA,58.5016835016835,NA
30635,Elbert County,GA,NA,54.37710437710438,NA
30815,Richmond County,GA,77.93427230046949,NA,NA
30824,McDuffie County,GA,28.951486697965574,NA,NA
30907,Columbia County,GA,NA,4.62962962962963,NA
31005,Houston County,GA,NA,51.85185185185185,NA
31029,Monroe County,GA,NA,91.83501683501683,NA
31036,Pulaski County,GA,83.4115805946792,NA,NA
31063,Macon County,GA,NA,NA,83.95833333333333
31093,Houston County,GA,NA,64.98316498316498,NA
31312,Effingham County,GA,NA,NA,69.47916666666667
31410,Chatham County,GA,NA,NA,30.9375
31510,Bacon County,GA,NA,NA,78.95833333333333
31555,Wayne County,GA,92.01877934272301,NA,NA
31566,Brantley County,GA,NA,99.4949494949495,NA
31605,Lowndes County,GA,NA,96.38047138047138,NA
31620,Cook County,GA,NA,60.77441077441077,NA
31632,Lowndes County,GA,55.712050078247266,NA,NA
31750,Ben Hill County,GA,89.67136150234741,NA,NA
31807,Harris County,GA,NA,99.83164983164983,NA
31811,Harris County,GA,99.53051643192488,NA,NA
31820,Muscogee County,GA,76.36932707355243,NA,NA
31907,Muscogee County,GA,NA,1.1784511784511784,NA
39819,Decatur County,GA,74.49139280125195,NA,NA
96706,Honolulu County,HI,5.320813771517996,NA,NA
96732,Maui County,HI,NA,56.986531986531986,86.66666666666667
96756,Kauai County,HI,NA,95.95959595959596,NA
96782,Honolulu County,HI,NA,45.11784511784512,NA
96789,Honolulu County,HI,12.832550860719873,NA,NA
96792,Honolulu County,HI,NA,NA,11.5625
96797,Honolulu County,HI,NA,2.356902356902357,NA
96813,Honolulu County,HI,NA,39.225589225589225,NA
96816,Honolulu County,HI,NA,48.821548821548824,NA
96817,Honolulu County,HI,22.22222222222222,NA,NA
96819,Honolulu County,HI,NA,NA,9.166666666666666
96825,Honolulu County,HI,NA,NA,1.4583333333333333
83202,Bannock County,ID,97.96557120500783,NA,95.3125
83221,Bingham County,ID,NA,8.67003367003367,NA
83440,Madison County,ID,46.478873239436616,39.98316498316498,NA
83445,Fremont County,ID,NA,69.86531986531986,NA
83501,Nez Perce County,ID,NA,NA,13.229166666666666
83544,Clearwater County,ID,NA,NA,32.1875
83607,Canyon County,ID,NA,NA,74.58333333333333
83638,Valley County,ID,NA,43.77104377104377,NA
83651,Canyon County,ID,65.88419405320813,22.474747474747474,NA
83686,Canyon County,ID,NA,41.16161616161616,NA
83702,Ada County,ID,NA,57.82828282828283,NA
83705,Ada County,ID,NA,25.336700336700336,NA
83709,Ada County,ID,NA,NA,75.625
83805,Boundary County,ID,NA,70.45454545454545,NA
83854,Kootenai County,ID,64.7887323943662,NA,NA
83858,Kootenai County,ID,NA,68.51851851851852,NA
60004,Cook County,IL,70.89201877934272,NA,NA
60005,Cook County,IL,NA,20.454545454545457,NA
60013,McHenry County,IL,NA,80.21885521885523,NA
60014,McHenry County,IL,NA,NA,26.666666666666668
60025,Cook County,IL,NA,NA,21.354166666666664
60030,Lake County,IL,23.78716744913928,11.195286195286196,NA
60062,Cook County,IL,NA,NA,34.89583333333333
60090,Cook County,IL,NA,NA,64.375
60091,Cook County,IL,91.8622848200313,63.72053872053872,NA
60106,DuPage County,IL,NA,NA,84.47916666666667
60110,Kane County,IL,NA,33.417508417508415,NA
60118,Kane County,IL,49.45226917057903,NA,NA
60120,Kane County,IL,NA,13.804713804713806,NA
60123,Kane County,IL,NA,59.59595959595959,NA
60134,Kane County,IL,NA,NA,43.541666666666664
60137,DuPage County,IL,NA,85.77441077441077,41.5625
60178,DeKalb County,IL,69.01408450704226,89.8989898989899,NA
60185,DuPage County,IL,NA,NA,42.916666666666664
60193,Cook County,IL,NA,3.9562289562289563,NA
60406,Cook County,IL,NA,41.329966329966325,NA
60408,Will County,IL,NA,84.68013468013467,NA
60409,Cook County,IL,NA,NA,34.479166666666664
60410,Will County,IL,NA,86.61616161616162,NA
60417,Will County,IL,NA,19.36026936026936,NA
60421,Will County,IL,96.24413145539906,NA,NA
60423,Will County,IL,NA,10.606060606060606,NA
60439,Cook County,IL,NA,8.417508417508419,51.66666666666667
60442,Will County,IL,NA,NA,52.81249999999999
60449,Will County,IL,94.5226917057903,NA,NA
60450,Grundy County,IL,NA,NA,75.72916666666667
60451,Will County,IL,12.363067292644757,NA,NA
60453,Cook County,IL,NA,52.69360269360269,NA
60462,Cook County,IL,NA,NA,3.75
60464,Cook County,IL,95.14866979655712,NA,NA
60477,Cook County,IL,NA,5.63973063973064,NA
60481,Will County,IL,NA,75.42087542087542,NA
60482,Cook County,IL,NA,NA,92.5
60491,Will County,IL,NA,NA,70.3125
60510,Kane County,IL,NA,72.22222222222221,NA
60516,DuPage County,IL,63.69327073552425,NA,NA
60517,DuPage County,IL,NA,16.58249158249158,NA
60525,Cook County,IL,NA,36.784511784511785,NA
60526,Cook County,IL,NA,95.03367003367003,NA
60527,DuPage County,IL,NA,NA,87.08333333333333
60548,DeKalb County,IL,NA,81.56565656565657,94.6875
60555,DuPage County,IL,46.322378716744915,NA,NA
60585,Will County,IL,NA,30.303030303030305,NA
60611,Cook County,IL,NA,9.764309764309765,62.916666666666664
60612,Cook County,IL,11.267605633802818,NA,NA
60613,Cook County,IL,NA,89.14141414141415,NA
60614,Cook County,IL,NA,75.75757575757575,NA
60615,Cook County,IL,NA,NA,7.8125
60616,Cook County,IL,NA,NA,49.6875
60617,Cook County,IL,NA,20.53872053872054,NA
60618,Cook County,IL,NA,57.32323232323232,NA
60623,Cook County,IL,NA,5.134680134680135,NA
60637,Cook County,IL,NA,NA,9.479166666666666
60638,Cook County,IL,NA,3.1144781144781146,NA
60641,Cook County,IL,NA,7.491582491582492,NA
60645,Cook County,IL,NA,NA,8.541666666666666
60655,Cook County,IL,NA,64.22558922558923,NA
60659,Cook County,IL,97.65258215962442,NA,NA
60660,Cook County,IL,NA,59.68013468013468,NA
60914,Kankakee County,IL,NA,29.545454545454547,52.708333333333336
60950,Kankakee County,IL,84.19405320813772,NA,NA
61008,Boone County,IL,65.10172143974961,NA,68.54166666666667
61012,Boone County,IL,98.74804381846636,NA,NA
61061,Ogle County,IL,NA,NA,55.208333333333336
61073,Winnebago County,IL,NA,NA,57.1875
61081,Whiteside County,IL,NA,84.51178451178451,1.1458333333333333
61103,Winnebago County,IL,NA,NA,74.6875
61107,Winnebago County,IL,NA,NA,8.229166666666666
61111,Winnebago County,IL,NA,NA,73.95833333333334
61115,Winnebago County,IL,NA,13.720538720538721,NA
61270,Whiteside County,IL,NA,NA,28.958333333333336
61301,LaSalle County,IL,63.22378716744914,NA,NA
61354,LaSalle County,IL,33.64632237871675,NA,NA
61401,Knox County,IL,NA,NA,7.916666666666666
61455,McDonough County,IL,NA,NA,14.479166666666668
61739,Livingston County,IL,NA,NA,95
61761,McLean County,IL,NA,80.13468013468014,NA
61820,Champaign County,IL,NA,NA,38.854166666666664
62010,Madison County,IL,90.45383411580595,NA,NA
62040,Madison County,IL,NA,NA,6.5625
62233,Randolph County,IL,NA,93.35016835016835,NA
62278,Randolph County,IL,NA,83.83838383838383,NA
62454,Crawford County,IL,NA,42.42424242424242,NA
62526,Macon County,IL,NA,NA,1.7708333333333333
62557,Christian County,IL,86.3849765258216,NA,NA
62650,Morgan County,IL,NA,NA,83.22916666666667
62702,Sangamon County,IL,NA,NA,71.5625
62712,Sangamon County,IL,NA,38.63636363636363,NA
62837,Wayne County,IL,68.23161189358372,NA,NA
62863,Wabash County,IL,84.19405320813772,NA,NA
46032,Hamilton County,IN,NA,NA,49.791666666666664
46131,Johnson County,IN,40.062597809076685,NA,4.6875
46135,Putnam County,IN,NA,NA,37.083333333333336
46142,Johnson County,IN,24.726134585289515,NA,NA
46163,Hancock County,IN,64.94522691705791,NA,39.58333333333333
46168,Hendricks County,IN,NA,27.18855218855219,NA
46205,Marion County,IN,92.33176838810641,NA,NA
46217,Marion County,IN,NA,68.68686868686868,NA
46219,Marion County,IN,NA,9.175084175084175,NA
46224,Marion County,IN,NA,NA,60.520833333333336
46227,Marion County,IN,NA,49.494949494949495,NA
46250,Marion County,IN,53.20813771517997,NA,NA
46303,Lake County,IN,51.4866979655712,NA,NA
46304,Porter County,IN,NA,61.27946127946128,NA
46307,Lake County,IN,0.9389671361502347,47.81144781144781,0.625
46319,Lake County,IN,37.245696400625974,NA,NA
46350,LaPorte County,IN,3.912363067292645,NA,NA
46368,Porter County,IN,74.02190923317684,0.5892255892255892,55.41666666666667
46375,Lake County,IN,NA,NA,40.625
46383,Porter County,IN,NA,14.814814814814813,NA
46394,Lake County,IN,33.95931142410016,NA,NA
46405,Lake County,IN,60.56338028169014,NA,NA
46408,Lake County,IN,27.699530516431924,NA,62.083333333333336
46514,Elkhart County,IN,NA,NA,41.14583333333333
46516,Elkhart County,IN,28.325508607198746,NA,NA
46530,St. Joseph County,IN,NA,56.81818181818182,NA
46567,Kosciusko County,IN,NA,87.7104377104377,NA
46574,St. Joseph County,IN,NA,93.01346801346801,NA
46628,St. Joseph County,IN,NA,47.30639730639731,NA
46706,DeKalb County,IN,NA,75.5050505050505,NA
46755,Noble County,IN,38.341158059467915,NA,NA
46901,Howard County,IN,15.96244131455399,NA,14.270833333333332
46933,Grant County,IN,NA,90.15151515151516,NA
46940,Wabash County,IN,NA,99.57912457912458,NA
46953,Grant County,IN,NA,76.5993265993266,NA
46992,Wabash County,IN,18.30985915492958,NA,NA
47150,Floyd County,IN,NA,NA,9.6875
47170,Scott County,IN,NA,28.1986531986532,NA
47201,Bartholomew County,IN,NA,5.4713804713804715,NA
47203,Bartholomew County,IN,NA,NA,41.66666666666667
47240,Decatur County,IN,NA,10.26936026936027,NA
47303,Delaware County,IN,NA,48.98989898989899,NA
47304,Delaware County,IN,NA,NA,17.604166666666668
47330,Wayne County,IN,NA,NA,83.54166666666667
47362,Henry County,IN,NA,NA,38.229166666666664
47374,Wayne County,IN,NA,40.15151515151515,NA
47394,Randolph County,IN,NA,54.292929292929294,NA
47591,Knox County,IN,NA,80.63973063973064,36.041666666666664
47620,Posey County,IN,82.15962441314554,NA,NA
47711,Vanderburgh County,IN,NA,NA,53.85416666666667
47714,Vanderburgh County,IN,NA,NA,12.916666666666668
47909,Tippecanoe County,IN,NA,NA,87.91666666666667
47933,Montgomery County,IN,80.75117370892019,22.727272727272727,NA
47960,White County,IN,NA,33.16498316498316,NA
50036,Boone County,IA,NA,NA,27.500000000000004
50158,Marshall County,IA,14.397496087636933,NA,44.79166666666667
50401,Cerro Gordo County,IA,NA,NA,0.20833333333333334
50428,Cerro Gordo County,IA,NA,65.57239057239057,NA
50595,Hamilton County,IA,NA,56.313131313131315,NA
50616,Floyd County,IA,NA,25.589225589225588,NA
50662,Fayette County,IA,NA,82.91245791245791,NA
50677,Bremer County,IA,NA,NA,91.45833333333333
51031,Plymouth County,IA,NA,86.7003367003367,NA
51401,Carroll County,IA,60.40688575899843,NA,NA
51503,Pottawattamie County,IA,NA,1.6835016835016834,NA
51632,Page County,IA,NA,34.34343434343434,51.45833333333333
52001,Dubuque County,IA,NA,11.363636363636363,NA
52057,Delaware County,IA,79.96870109546165,NA,NA
52302,Linn County,IA,12.676056338028168,NA,NA
52403,Linn County,IA,23.943661971830984,NA,NA
52556,Jefferson County,IA,NA,NA,89.79166666666667
52655,Des Moines County,IA,91.54929577464789,NA,NA
66044,Douglas County,KS,NA,NA,47.91666666666667
66047,Douglas County,KS,NA,84.25925925925925,NA
66049,Douglas County,KS,69.95305164319248,18.939393939393938,NA
66062,Johnson County,KS,NA,63.97306397306397,NA
66106,Wyandotte County,KS,NA,92.17171717171718,NA
66204,Johnson County,KS,NA,95.87542087542089,52.29166666666667
66205,Johnson County,KS,NA,36.36363636363637,NA
66213,Johnson County,KS,NA,65.74074074074075,NA
66215,Johnson County,KS,NA,NA,38.333333333333336
66216,Johnson County,KS,NA,NA,44.6875
66219,Johnson County,KS,NA,49.158249158249156,NA
66224,Johnson County,KS,NA,98.65319865319864,NA
66441,Geary County,KS,86.85446009389672,NA,NA
66503,Riley County,KS,NA,56.56565656565656,NA
66608,Shawnee County,KS,74.17840375586854,NA,NA
66614,Shawnee County,KS,18.9358372456964,NA,NA
66701,Bourbon County,KS,NA,92.003367003367,NA
67052,Sedgwick County,KS,95.61815336463224,NA,NA
67156,Cowley County,KS,NA,68.18181818181817,NA
67216,Sedgwick County,KS,50.23474178403756,NA,NA
67218,Sedgwick County,KS,51.01721439749609,NA,NA
67401,Saline County,KS,12.519561815336463,NA,NA
67550,Pawnee County,KS,NA,98.82154882154882,NA
67601,Ellis County,KS,NA,8.754208754208754,2.7083333333333335
67665,Russell County,KS,NA,NA,99.0625
40013,Nelson County,KY,NA,78.95622895622895,NA
40014,Oldham County,KY,45.852895148669795,NA,NA
40059,Jefferson County,KY,NA,34.84848484848485,NA
40160,Hardin County,KY,NA,68.85521885521885,NA
40165,Bullitt County,KY,NA,26.430976430976433,NA
40207,Jefferson County,KY,47.417840375586856,NA,NA
40212,Jefferson County,KY,NA,40.65656565656566,NA
40213,Jefferson County,KY,85.60250391236308,46.380471380471384,NA
40214,Jefferson County,KY,47.26134585289515,NA,NA
40216,Jefferson County,KY,51.173708920187785,NA,NA
40222,Jefferson County,KY,NA,NA,52.5
40228,Jefferson County,KY,NA,NA,87.1875
40242,Jefferson County,KY,NA,NA,92.70833333333334
40272,Jefferson County,KY,NA,79.8821548821549,NA
40324,Scott County,KY,NA,NA,58.333333333333336
40342,Anderson County,KY,NA,29.292929292929294,NA
40356,Jessamine County,KY,NA,NA,90.41666666666667
40391,Clark County,KY,NA,NA,78.75
40403,Madison County,KY,NA,21.043771043771045,NA
40503,Fayette County,KY,NA,NA,45.625
40505,Fayette County,KY,35.52425665101722,NA,NA
40508,Fayette County,KY,NA,NA,80
40515,Fayette County,KY,NA,60.690235690235696,NA
40741,Laurel County,KY,12.989045383411579,NA,NA
40769,Whitley County,KY,NA,93.93939393939394,NA
40831,Harlan County,KY,NA,94.27609427609428,NA
40977,Bell County,KY,NA,38.131313131313135,NA
41042,Boone County,KY,NA,2.525252525252525,NA
41048,Boone County,KY,84.50704225352112,NA,NA
41051,Kenton County,KY,44.91392801251956,NA,NA
41056,Mason County,KY,NA,NA,26.875
41143,Carter County,KY,61.658841940532085,NA,NA
41301,Wolfe County,KY,NA,53.198653198653204,NA
41701,Perry County,KY,NA,85.26936026936028,NA
41749,Leslie County,KY,NA,94.78114478114477,NA
41858,Letcher County,KY,97.80907668231612,NA,NA
42038,Lyon County,KY,NA,84.59595959595958,NA
42071,Calloway County,KY,NA,64.14141414141415,NA
42129,Metcalfe County,KY,77.46478873239437,NA,NA
42330,Muhlenberg County,KY,NA,52.44107744107745,NA
42503,Pulaski County,KY,24.413145539906104,NA,NA
42635,McCreary County,KY,70.73552425665102,NA,NA
42642,Russell County,KY,NA,NA,80.3125
42728,Adair County,KY,NA,NA,31.979166666666664
42748,Larue County,KY,NA,83.58585858585859,NA
70003,Jefferson Parish,LA,NA,NA,0.8333333333333334
70043,St. Bernard Parish,LA,NA,NA,85.3125
70047,St. Charles Parish,LA,96.87010954616588,NA,NA
70062,Jefferson Parish,LA,NA,NA,92.91666666666667
70068,St. John the Baptist Parish,LA,NA,8.164983164983166,NA
70119,Orleans Parish,LA,NA,NA,77.1875
70360,Terrebonne Parish,LA,89.98435054773083,NA,NA
70392,St. Mary Parish,LA,NA,62.37373737373737,NA
70401,Tangipahoa Parish,LA,83.09859154929578,NA,NA
70452,St. Tammany Parish,LA,NA,93.85521885521885,NA
70454,Tangipahoa Parish,LA,NA,32.82828282828283,NA
70458,St. Tammany Parish,LA,14.084507042253522,NA,NA
70501,Lafayette Parish,LA,NA,53.61952861952862,NA
70506,Lafayette Parish,LA,NA,71.38047138047138,28.541666666666664
70507,Lafayette Parish,LA,NA,76.43097643097643,NA
70560,Iberia Parish,LA,NA,5.723905723905724,NA
70563,Iberia Parish,LA,NA,NA,50.10416666666667
70601,Calcasieu Parish,LA,NA,3.535353535353535,NA
70605,Calcasieu Parish,LA,NA,NA,90.9375
70615,Calcasieu Parish,LA,NA,NA,93.95833333333333
70706,Livingston Parish,LA,NA,NA,79.89583333333333
70726,Livingston Parish,LA,NA,NA,79.16666666666666
70737,Ascension Parish,LA,15.492957746478872,NA,NA
70764,Iberville Parish,LA,NA,53.03030303030303,NA
70775,West Feliciana Parish,LA,45.22691705790297,NA,81.35416666666667
70808,East Baton Rouge Parish,LA,NA,NA,41.041666666666664
70809,East Baton Rouge Parish,LA,32.70735524256651,92.08754208754209,NA
70810,East Baton Rouge Parish,LA,NA,88.88888888888889,NA
70816,East Baton Rouge Parish,LA,NA,NA,66.45833333333333
70817,East Baton Rouge Parish,LA,NA,NA,25.208333333333332
71006,Bossier Parish,LA,NA,82.49158249158249,NA
71037,Bossier Parish,LA,NA,74.24242424242425,NA
71040,Claiborne Parish,LA,66.51017214397497,NA,NA
71047,Caddo Parish,LA,30.51643192488263,NA,NA
71106,Caddo Parish,LA,NA,23.14814814814815,NA
71107,Caddo Parish,LA,NA,50.16835016835017,NA
71111,Bossier Parish,LA,NA,6.228956228956229,NA
71202,Ouachita Parish,LA,NA,13.383838383838384,NA
71220,Morehouse Parish,LA,89.04538341158059,NA,NA
71291,Ouachita Parish,LA,5.007824726134586,NA,NA
71295,Franklin Parish,LA,NA,NA,39.375
71303,Rapides Parish,LA,NA,42.255892255892256,NA
71360,Rapides Parish,LA,64.63223787167449,NA,11.770833333333334
71457,Natchitoches Parish,LA,NA,NA,14.583333333333334
04011,Cumberland County,ME,31.29890453834116,NA,NA
04043,York County,ME,40.68857589984351,NA,NA
04086,Sagadahoc County,ME,NA,NA,20.520833333333332
04103,Cumberland County,ME,NA,NA,5.625
04401,Penobscot County,ME,7.668231611893583,NA,NA
04572,Lincoln County,ME,NA,91.75084175084174,NA
04605,Hancock County,ME,49.92175273865415,NA,48.4375
20613,Prince George's County,MD,NA,NA,66.77083333333333
20657,Calvert County,MD,NA,NA,58.333333333333336
20659,St. Mary's County,MD,NA,86.78451178451179,NA
20723,Howard County,MD,55.55555555555556,NA,NA
20724,Anne Arundel County,MD,78.24726134585289,NA,NA
20748,Prince George's County,MD,NA,36.11111111111111,44.0625
20815,Montgomery County,MD,NA,NA,60.416666666666664
20817,Montgomery County,MD,NA,45.20202020202021,NA
20854,Montgomery County,MD,NA,17.34006734006734,NA
20866,Montgomery County,MD,NA,79.2087542087542,NA
20878,Montgomery County,MD,NA,53.535353535353536,NA
20895,Montgomery County,MD,NA,88.55218855218855,NA
20902,Montgomery County,MD,NA,82.82828282828282,NA
20905,Montgomery County,MD,NA,75.33670033670033,NA
21034,Harford County,MD,NA,95.28619528619528,NA
21045,Howard County,MD,NA,NA,28.229166666666668
21057,Baltimore County,MD,NA,NA,61.25000000000001
21060,Anne Arundel County,MD,NA,21.21212121212121,NA
21061,Anne Arundel County,MD,52.112676056338024,54.7979797979798,NA
21085,Harford County,MD,NA,83.33333333333334,NA
21117,Baltimore County,MD,77.15179968701096,NA,61.77083333333333
21206,Baltimore city,MD,NA,NA,10.833333333333334
21207,Baltimore County,MD,NA,44.44444444444444,NA
21208,Baltimore County,MD,NA,58.670033670033675,NA
21212,Baltimore city,MD,NA,NA,87.5
21218,Baltimore city,MD,NA,NA,23.333333333333332
21221,Baltimore County,MD,NA,10.185185185185185,12.1875
21225,Baltimore city,MD,NA,21.885521885521886,NA
21227,Baltimore County,MD,NA,NA,54.479166666666664
21228,Baltimore County,MD,NA,5.218855218855219,NA
21502,Allegany County,MD,48.82629107981221,NA,NA
21532,Allegany County,MD,NA,89.98316498316498,NA
21620,Kent County,MD,NA,NA,43.22916666666667
21701,Frederick County,MD,36.77621283255086,NA,NA
21713,Washington County,MD,NA,94.02356902356902,NA
21740,Washington County,MD,NA,12.962962962962962,NA
21742,Washington County,MD,NA,NA,16.145833333333336
21774,Frederick County,MD,65.41471048513301,NA,NA
21783,Washington County,MD,NA,79.46127946127946,NA
21784,Carroll County,MD,NA,NA,83.33333333333334
21801,Wicomico County,MD,NA,NA,65.3125
21921,Cecil County,MD,NA,NA,86.875
01002,Hampshire County,MA,46.165884194053206,NA,48.95833333333333
01013,Hampden County,MA,NA,NA,73.4375
01027,Hampshire County,MA,NA,21.127946127946128,NA
01030,Hampden County,MA,NA,66.07744107744108,NA
01035,Hampshire County,MA,NA,NA,81.5625
01085,Hampden County,MA,NA,0.7575757575757576,NA
01089,Hampden County,MA,NA,71.8013468013468,10.9375
01095,Hampden County,MA,NA,NA,89.27083333333333
01106,Hampden County,MA,NA,NA,84.58333333333333
01129,Hampden County,MA,93.11424100156495,NA,NA
01201,Berkshire County,MA,NA,0,NA
01226,Berkshire County,MA,NA,34.090909090909086,NA
01240,Berkshire County,MA,NA,NA,57.70833333333333
01247,Berkshire County,MA,NA,79.12457912457911,67.29166666666667
01331,Worcester County,MA,34.27230046948357,NA,NA
01376,Franklin County,MA,NA,85.6902356902357,NA
01420,Worcester County,MA,NA,44.36026936026936,NA
01440,Worcester County,MA,NA,20.117845117845118,NA
01450,Middlesex County,MA,NA,NA,81.45833333333333
01460,Middlesex County,MA,22.69170579029734,NA,NA
01469,Middlesex County,MA,NA,NA,98.02083333333333
01475,Worcester County,MA,NA,NA,15.104166666666666
01520,Worcester County,MA,NA,NA,93.125
01527,Worcester County,MA,33.17683881064163,NA,NA
01550,Worcester County,MA,NA,69.94949494949495,NA
01569,Worcester County,MA,NA,NA,27.083333333333332
01581,Worcester County,MA,NA,NA,73.02083333333333
01603,Worcester County,MA,NA,0.8417508417508417,NA
01605,Worcester County,MA,0.4694835680751174,NA,NA
01742,Middlesex County,MA,NA,52.52525252525253,NA
01746,Middlesex County,MA,91.39280125195619,NA,NA
01749,Middlesex County,MA,NA,19.19191919191919,NA
01752,Middlesex County,MA,NA,22.81144781144781,75
01754,Middlesex County,MA,NA,NA,97.08333333333333
01756,Worcester County,MA,NA,65.40404040404042,NA
01772,Worcester County,MA,NA,NA,96.04166666666667
01776,Middlesex County,MA,NA,21.38047138047138,NA
01801,Middlesex County,MA,NA,NA,36.875
01821,Middlesex County,MA,NA,0.5050505050505051,50.520833333333336
01824,Middlesex County,MA,NA,NA,2.8125
01826,Middlesex County,MA,1.7214397496087637,NA,NA
01830,Essex County,MA,59.4679186228482,NA,NA
01841,Essex County,MA,NA,0.08417508417508417,NA
01845,Essex County,MA,NA,NA,9.583333333333334
01852,Middlesex County,MA,NA,6.7340067340067336,NA
01854,Middlesex County,MA,NA,2.1885521885521886,NA
01864,Middlesex County,MA,NA,NA,64.58333333333334
01879,Middlesex County,MA,NA,NA,96.97916666666667
01880,Middlesex County,MA,2.8169014084507045,NA,NA
01887,Middlesex County,MA,NA,NA,27.708333333333336
01906,Essex County,MA,NA,3.787878787878788,64.47916666666667
01923,Essex County,MA,NA,74.57912457912458,35.41666666666667
01930,Essex County,MA,NA,NA,25.729166666666664
01940,Essex County,MA,NA,79.62962962962963,85.52083333333333
01945,Essex County,MA,NA,9.427609427609427,44.583333333333336
01950,Essex County,MA,45.539906103286384,NA,NA
01951,Essex County,MA,NA,99.24242424242425,NA
01960,Essex County,MA,NA,NA,12.812499999999998
01970,Essex County,MA,NA,17.50841750841751,NA
02026,Norfolk County,MA,NA,39.141414141414145,NA
02062,Norfolk County,MA,NA,NA,71.875
02067,Norfolk County,MA,35.83724569640063,NA,NA
02090,Norfolk County,MA,NA,69.02356902356902,17.708333333333336
02116,Suffolk County,MA,89.51486697965572,NA,NA
02118,Suffolk County,MA,42.41001564945227,NA,NA
02121,Suffolk County,MA,NA,61.531986531986526,NA
02122,Suffolk County,MA,NA,0.25252525252525254,NA
02125,Suffolk County,MA,0.1564945226917058,NA,NA
02127,Suffolk County,MA,NA,NA,4.791666666666667
02128,Suffolk County,MA,15.64945226917058,NA,NA
02129,Suffolk County,MA,NA,NA,63.95833333333333
02131,Suffolk County,MA,NA,NA,0.9375
02135,Suffolk County,MA,NA,NA,26.458333333333332
02136,Suffolk County,MA,NA,14.646464646464647,NA
02138,Middlesex County,MA,NA,16.245791245791246,NA
02145,Middlesex County,MA,NA,NA,17.291666666666668
02148,Middlesex County,MA,NA,18.35016835016835,9.895833333333332
02149,Middlesex County,MA,NA,NA,36.25
02150,Suffolk County,MA,6.729264475743349,NA,NA
02151,Suffolk County,MA,NA,21.548821548821547,NA
02155,Middlesex County,MA,NA,37.45791245791246,NA
02176,Middlesex County,MA,NA,55.05050505050505,NA
02324,Plymouth County,MA,NA,10.942760942760943,NA
02351,Plymouth County,MA,NA,NA,67.70833333333334
02360,Plymouth County,MA,NA,15.31986531986532,NA
02465,Middlesex County,MA,NA,24.410774410774412,18.125
02472,Middlesex County,MA,NA,2.6936026936026933,NA
02474,Middlesex County,MA,NA,75.25252525252525,NA
02478,Middlesex County,MA,84.03755868544602,NA,NA
02481,Norfolk County,MA,57.90297339593115,NA,NA
02482,Norfolk County,MA,79.18622848200313,NA,NA
02493,Middlesex County,MA,NA,96.54882154882155,NA
02494,Norfolk County,MA,78.71674491392801,NA,NA
02536,Barnstable County,MA,NA,6.1447811447811445,NA
02631,Barnstable County,MA,NA,23.653198653198654,16.458333333333332
02632,Barnstable County,MA,NA,24.326599326599325,NA
02664,Barnstable County,MA,NA,NA,14.6875
02673,Barnstable County,MA,NA,31.14478114478115,NA
02675,Barnstable County,MA,NA,NA,95.625
02720,Bristol County,MA,NA,9.848484848484848,NA
02721,Bristol County,MA,NA,NA,30.208333333333332
02738,Plymouth County,MA,NA,58.75420875420876,NA
02740,Bristol County,MA,2.97339593114241,NA,NA
02745,Bristol County,MA,NA,69.36026936026936,NA
02777,Bristol County,MA,NA,6.397306397306397,NA
02780,Bristol County,MA,11.424100156494523,NA,30.625000000000004
48005,Macomb County,MI,NA,NA,53.125
48009,Oakland County,MI,NA,73.31649831649831,NA
48017,Oakland County,MI,54.61658841940532,NA,NA
48021,Macomb County,MI,NA,NA,32.604166666666664
48036,Macomb County,MI,52.738654147104846,47.22222222222222,6.770833333333333
48044,Macomb County,MI,NA,NA,63.125
48045,Macomb County,MI,36.46322378716745,67.08754208754209,NA
48047,Macomb County,MI,NA,76.93602693602693,13.750000000000002
48048,Macomb County,MI,NA,59.68013468013468,NA
48060,St. Clair County,MI,NA,2.0202020202020203,NA
48066,Macomb County,MI,NA,NA,35.729166666666664
48071,Oakland County,MI,NA,NA,70.52083333333333
48074,St. Clair County,MI,NA,59.93265993265994,NA
48082,Macomb County,MI,NA,51.76767676767676,NA
48085,Oakland County,MI,NA,96.71717171717171,NA
48103,Washtenaw County,MI,26.134585289514867,23.98989898989899,NA
48114,Livingston County,MI,NA,46.801346801346796,NA
48124,Wayne County,MI,NA,11.11111111111111,15.520833333333334
48127,Wayne County,MI,6.416275430359937,29.124579124579125,48.333333333333336
48150,Wayne County,MI,NA,NA,42.1875
48152,Wayne County,MI,17.683881064162755,NA,3.125
48162,Monroe County,MI,NA,38.2996632996633,NA
48166,Monroe County,MI,NA,66.75084175084174,NA
48168,Wayne County,MI,NA,61.86868686868687,NA
48169,Livingston County,MI,NA,78.11447811447812,NA
48170,Wayne County,MI,NA,NA,26.5625
48173,Wayne County,MI,NA,39.81481481481482,NA
48176,Washtenaw County,MI,NA,45.53872053872054,NA
48178,Oakland County,MI,NA,NA,2.2916666666666665
48184,Wayne County,MI,9.546165884194053,NA,16.25
48185,Wayne County,MI,NA,16.75084175084175,NA
48195,Wayne County,MI,NA,48.73737373737374,NA
48197,Washtenaw County,MI,NA,66.16161616161617,6.041666666666667
48203,Wayne County,MI,NA,71.29629629629629,NA
48206,Wayne County,MI,15.179968701095461,NA,NA
48219,Wayne County,MI,NA,65.06734006734007,NA
48220,Oakland County,MI,NA,22.39057239057239,NA
48225,Wayne County,MI,46.79186228482003,NA,NA
48228,Wayne County,MI,0.6259780907668232,NA,NA
48234,Wayne County,MI,16.588419405320813,NA,NA
48236,Wayne County,MI,NA,6.313131313131313,NA
48237,Oakland County,MI,NA,NA,12.395833333333334
48240,Wayne County,MI,NA,29.797979797979796,NA
48302,Oakland County,MI,NA,NA,12.291666666666666
48306,Oakland County,MI,23.474178403755868,NA,NA
48307,Oakland County,MI,NA,NA,5.416666666666667
48310,Macomb County,MI,9.702660406885759,35.52188552188552,NA
48316,Macomb County,MI,21.90923317683881,NA,NA
48322,Oakland County,MI,NA,NA,48.020833333333336
48324,Oakland County,MI,NA,80.05050505050505,NA
48327,Oakland County,MI,17.214397496087635,NA,NA
48328,Oakland County,MI,NA,NA,15
48329,Oakland County,MI,86.2284820031299,NA,NA
48331,Oakland County,MI,20.031298904538342,NA,NA
48340,Oakland County,MI,NA,18.013468013468014,NA
48348,Oakland County,MI,NA,NA,64.27083333333333
48382,Oakland County,MI,NA,18.265993265993266,NA
48386,Oakland County,MI,NA,43.18181818181818,NA
48390,Oakland County,MI,NA,51.26262626262626,NA
48458,Genesee County,MI,NA,28.367003367003367,NA
48462,Oakland County,MI,NA,62.2895622895623,NA
48506,Genesee County,MI,NA,19.94949494949495,NA
48602,Saginaw County,MI,19.718309859154928,NA,NA
48603,Saginaw County,MI,NA,NA,3.958333333333333
48618,Midland County,MI,NA,NA,93.02083333333333
48625,Clare County,MI,NA,71.12794612794613,NA
48640,Midland County,MI,NA,NA,11.875
48642,Midland County,MI,11.580594679186229,NA,NA
48706,Bay County,MI,NA,73.65319865319864,NA
48734,Saginaw County,MI,NA,64.56228956228956,NA
48759,Huron County,MI,NA,88.21548821548821,NA
48801,Gratiot County,MI,NA,48.148148148148145,NA
48813,Eaton County,MI,85.13302034428794,NA,NA
48823,Ingham County,MI,NA,NA,59.47916666666667
48827,Eaton County,MI,48.6697965571205,NA,NA
48842,Ingham County,MI,NA,19.865319865319865,NA
48843,Livingston County,MI,NA,NA,60.10416666666667
48850,Montcalm County,MI,NA,NA,56.666666666666664
48855,Livingston County,MI,NA,66.32996632996633,NA
48858,Isabella County,MI,14.86697965571205,NA,3.229166666666667
48864,Ingham County,MI,83.25508607198748,NA,NA
48867,Shiawassee County,MI,NA,2.6094276094276094,2.5
48880,Gratiot County,MI,NA,NA,82.08333333333333
48883,Isabella County,MI,NA,35.26936026936027,NA
48892,Ingham County,MI,97.339593114241,NA,NA
48895,Ingham County,MI,NA,NA,66.66666666666666
48911,Ingham County,MI,NA,7.07070707070707,NA
48917,Eaton County,MI,3.755868544600939,NA,NA
49002,Kalamazoo County,MI,42.72300469483568,NA,NA
49036,Branch County,MI,NA,NA,94.16666666666667
49043,Van Buren County,MI,NA,93.18181818181817,NA
49046,Barry County,MI,NA,52.10437710437711,NA
49048,Kalamazoo County,MI,NA,15.74074074074074,NA
49080,Allegan County,MI,NA,NA,25.520833333333332
49101,Berrien County,MI,NA,99.41077441077442,NA
49201,Jackson County,MI,32.3943661971831,78.53535353535354,NA
49203,Jackson County,MI,NA,51.010101010101,NA
49242,Hillsdale County,MI,NA,23.400673400673398,NA
49304,Lake County,MI,82.00312989045383,61.36363636363637,NA
49346,Mecosta County,MI,NA,37.878787878787875,85.83333333333333
49426,Ottawa County,MI,NA,NA,71.77083333333333
49441,Muskegon County,MI,NA,12.457912457912458,NA
49442,Muskegon County,MI,19.248826291079812,NA,NA
49464,Ottawa County,MI,NA,18.68686868686869,NA
49503,Kent County,MI,NA,NA,88.4375
49659,Antrim County,MI,NA,79.04040404040404,NA
49660,Manistee County,MI,NA,13.299663299663301,NA
49663,Wexford County,MI,73.0829420970266,NA,NA
49684,Grand Traverse County,MI,NA,34.00673400673401,NA
49685,Grand Traverse County,MI,NA,24.747474747474747,NA
49738,Crawford County,MI,NA,NA,90.83333333333333
49770,Emmet County,MI,NA,NA,32.083333333333336
49781,Mackinac County,MI,NA,67.92929292929293,NA
49849,Marquette County,MI,NA,27.27272727272727,NA
49855,Marquette County,MI,87.63693270735524,NA,NA
55009,Goodhue County,MN,NA,31.22895622895623,NA
55025,Washington County,MN,NA,NA,93.64583333333333
55051,Kanabec County,MN,NA,NA,91.14583333333334
55063,Pine County,MN,NA,67.84511784511784,NA
55068,Dakota County,MN,NA,47.474747474747474,NA
55072,Pine County,MN,NA,99.74747474747475,NA
55112,Ramsey County,MN,NA,NA,81.14583333333333
55119,Ramsey County,MN,79.34272300469483,NA,NA
55126,Ramsey County,MN,61.18935837245696,NA,NA
55308,Sherburne County,MN,96.08763693270735,NA,NA
55355,Meeker County,MN,NA,42.92929292929293,NA
55364,Hennepin County,MN,NA,45.62289562289562,NA
55371,Mille Lacs County,MN,NA,NA,94.375
55403,Hennepin County,MN,94.83568075117371,NA,NA
55404,Hennepin County,MN,NA,NA,84.16666666666667
55406,Hennepin County,MN,NA,61.86868686868687,NA
55430,Hennepin County,MN,NA,50.589225589225585,NA
55431,Hennepin County,MN,62.1283255086072,44.696969696969695,NA
55442,Hennepin County,MN,NA,70.70707070707071,NA
55720,Carlton County,MN,NA,77.86195286195287,91.5625
55792,St. Louis County,MN,76.99530516431925,NA,NA
55804,St. Louis County,MN,NA,18.602693602693606,NA
55901,Olmsted County,MN,NA,12.710437710437711,NA
55981,Wabasha County,MN,NA,NA,45.3125
56007,Freeborn County,MN,NA,3.1986531986531985,NA
56071,Scott County,MN,NA,NA,93.22916666666666
56101,Cottonwood County,MN,NA,NA,96.77083333333333
56156,Rock County,MN,NA,32.15488215488215,NA
56201,Kandiyohi County,MN,NA,94.44444444444444,NA
56353,Mille Lacs County,MN,NA,NA,91.04166666666667
56362,Stearns County,MN,NA,NA,68.4375
56379,Benton County,MN,NA,77.52525252525253,NA
56387,Stearns County,MN,NA,NA,64.6875
56442,Crow Wing County,MN,NA,NA,29.166666666666668
56484,Cass County,MN,NA,NA,82.5
56560,Clay County,MN,6.885758998435055,NA,NA
56636,Itasca County,MN,96.55712050078247,NA,NA
56721,Polk County,MN,33.02034428794992,NA,NA
38606,Panola County,MS,NA,NA,66.875
38614,Coahoma County,MS,NA,56.734006734006734,NA
38751,Sunflower County,MS,58.52895148669796,NA,NA
38829,Prentiss County,MS,NA,NA,25.520833333333332
38834,Alcorn County,MS,NA,11.952861952861953,NA
38843,Itawamba County,MS,80.12519561815337,NA,NA
38863,Pontotoc County,MS,NA,NA,64.89583333333333
39120,Adams County,MS,22.848200312989047,NA,NA
39213,Hinds County,MS,NA,81.48148148148148,NA
39367,Wayne County,MS,NA,NA,65.72916666666667
39437,Jones County,MS,NA,74.4949494949495,NA
39567,Jackson County,MS,59.780907668231606,NA,NA
39577,Stone County,MS,67.13615023474179,NA,NA
39705,Lowndes County,MS,NA,78.78787878787878,NA
39759,Oktibbeha County,MS,NA,NA,53.645833333333336
63017,St. Louis County,MO,40.532081377151805,NA,NA
63020,Jefferson County,MO,NA,73.14814814814815,NA
63026,St. Louis County,MO,56.96400625978091,NA,NA
63031,St. Louis County,MO,NA,NA,56.97916666666667
63033,St. Louis County,MO,NA,5.976430976430977,NA
63034,St. Louis County,MO,NA,27.02020202020202,NA
63042,St. Louis County,MO,NA,NA,95.72916666666667
63089,Franklin County,MO,NA,96.8013468013468,NA
63090,Franklin County,MO,NA,77.02020202020202,NA
63105,St. Louis County,MO,NA,NA,33.020833333333336
63108,St. Louis city,MO,NA,61.195286195286194,NA
63118,St. Louis city,MO,NA,69.52861952861953,NA
63121,St. Louis County,MO,NA,NA,21.145833333333332
63122,St. Louis County,MO,NA,32.23905723905724,NA
63123,St. Louis County,MO,NA,NA,0.7291666666666666
63125,St. Louis County,MO,NA,14.225589225589225,NA
63129,St. Louis County,MO,26.291079812206576,NA,NA
63141,St. Louis County,MO,NA,60.94276094276094,NA
63143,St. Louis County,MO,NA,NA,97.1875
63301,St. Charles County,MO,NA,1.3468013468013467,NA
63366,St. Charles County,MO,NA,24.831649831649834,NA
63383,Warren County,MO,NA,88.63636363636364,NA
63501,Adair County,MO,NA,34.764309764309765,68.75
63701,Cape Girardeau County,MO,NA,67.50841750841751,NA
63775,Perry County,MO,NA,17.76094276094276,NA
63825,Stoddard County,MO,NA,NA,49.583333333333336
63834,Mississippi County,MO,NA,52.18855218855219,NA
63857,Dunklin County,MO,63.06729264475743,NA,NA
63957,Wayne County,MO,NA,NA,81.97916666666667
64011,Lafayette County,MO,NA,99.07407407407408,NA
64012,Cass County,MO,NA,85.1010101010101,NA
64014,Jackson County,MO,32.237871674491394,NA,NA
64055,Jackson County,MO,29.42097026604069,NA,50.83333333333333
64058,Jackson County,MO,NA,NA,97.91666666666666
64064,Jackson County,MO,NA,23.484848484848484,67.70833333333334
64067,Lafayette County,MO,42.56651017214397,NA,NA
64075,Jackson County,MO,49.13928012519562,NA,46.770833333333336
64081,Jackson County,MO,NA,76.01010101010101,60.9375
64082,Jackson County,MO,45.69640062597809,NA,NA
64086,Jackson County,MO,NA,42.08754208754209,NA
64089,Clay County,MO,30.829420970266042,NA,NA
64105,Jackson County,MO,79.49921752738655,NA,NA
64116,Clay County,MO,NA,21.296296296296298,NA
64133,Jackson County,MO,NA,NA,53.541666666666664
64138,Jackson County,MO,71.36150234741784,NA,NA
64152,Platte County,MO,NA,84.34343434343434,NA
64155,Clay County,MO,13.302034428794993,NA,NA
64482,Atchison County,MO,NA,99.91582491582491,NA
64735,Henry County,MO,17.84037558685446,NA,NA
64870,Jasper County,MO,25.978090766823158,NA,NA
65202,Boone County,MO,NA,10.521885521885523,NA
65265,Audrain County,MO,NA,NA,88.02083333333334
65270,Randolph County,MO,NA,NA,51.87500000000001
65301,Pettis County,MO,NA,NA,45.104166666666664
65355,Benton County,MO,NA,9.511784511784512,NA
65616,Taney County,MO,NA,50.252525252525245,NA
65757,Greene County,MO,NA,98.48484848484848,NA
65802,Greene County,MO,64.00625978090767,NA,55.104166666666664
59047,Park County,MT,NA,NA,81.25
59068,Carbon County,MT,NA,NA,68.22916666666666
59230,Valley County,MT,NA,NA,64.0625
59404,Cascade County,MT,NA,4.292929292929292,65.10416666666666
59601,Lewis and Clark County,MT,NA,NA,49.166666666666664
59602,Lewis and Clark County,MT,93.42723004694837,36.447811447811446,NA
59715,Gallatin County,MT,92.80125195618153,NA,NA
59840,Ravalli County,MT,NA,92.34006734006735,NA
59901,Flathead County,MT,NA,0.9259259259259258,NA
68022,Douglas County,NE,NA,NA,47.39583333333333
68106,Douglas County,NE,NA,44.612794612794616,NA
68114,Douglas County,NE,73.86541471048514,NA,NA
68147,Sarpy County,NE,NA,80.72390572390572,NA
68305,Nemaha County,NE,82.62910798122066,71.88552188552188,NA
68310,Gage County,NE,NA,NA,6.25
68410,Otoe County,NE,NA,NA,53.43750000000001
68502,Lancaster County,NE,NA,93.26599326599326,NA
68503,Lancaster County,NE,NA,87.96296296296296,NA
68601,Platte County,NE,NA,22.053872053872052,NA
68776,Dakota County,NE,53.834115805946794,NA,NA
68801,Hall County,NE,NA,37.28956228956229,NA
68803,Hall County,NE,NA,73.98989898989899,82.70833333333333
68845,Buffalo County,NE,NA,34.93265993265993,NA
69101,Lincoln County,NE,NA,NA,75.52083333333334
89120,Clark County,NV,NA,NA,53.75
89131,Clark County,NV,52.26917057902973,NA,NA
89139,Clark County,NV,51.79968701095462,NA,NA
89403,Lyon County,NV,NA,81.81818181818183,NA
89406,Churchill County,NV,NA,15.235690235690235,89.6875
89410,Douglas County,NV,NA,15.909090909090908,NA
89436,Washoe County,NV,13.615023474178404,NA,NA
89451,Washoe County,NV,NA,NA,54.58333333333333
89502,Washoe County,NV,NA,9.343434343434344,NA
89511,Washoe County,NV,NA,NA,39.375
89701,Carson City,NV,NA,NA,19.166666666666668
89706,Carson City,NV,38.654147104851326,NA,NA
03032,Rockingham County,NH,NA,NA,96.875
03045,Hillsborough County,NH,NA,NA,90.3125
03049,Hillsborough County,NH,NA,NA,44.166666666666664
03062,Hillsborough County,NH,11.11111111111111,3.2828282828282833,NA
03102,Hillsborough County,NH,NA,75,NA
03110,Hillsborough County,NH,NA,70.87542087542089,NA
03246,Belknap County,NH,NA,73.48484848484848,8.125
03276,Merrimack County,NH,NA,93.68686868686868,74.89583333333333
03301,Merrimack County,NH,NA,NA,21.770833333333332
03303,Merrimack County,NH,NA,NA,56.458333333333336
03755,Grafton County,NH,NA,NA,84.0625
03801,Rockingham County,NH,NA,77.94612794612794,NA
03827,Rockingham County,NH,NA,96.96969696969697,NA
03842,Rockingham County,NH,NA,NA,92.39583333333333
03894,Carroll County,NH,NA,69.44444444444444,NA
07002,Hudson County,NJ,0.3129890453834116,NA,NA
07011,Passaic County,NJ,NA,12.878787878787879,NA
07017,Essex County,NJ,NA,59.34343434343434,NA
07018,Essex County,NJ,NA,NA,57.604166666666664
07026,Bergen County,NJ,NA,NA,63.22916666666667
07027,Union County,NJ,NA,NA,85.72916666666667
07039,Essex County,NJ,NA,19.107744107744107,45.416666666666664
07041,Essex County,NJ,NA,87.37373737373737,NA
07052,Essex County,NJ,8.607198748043817,NA,NA
07068,Essex County,NJ,NA,NA,95.52083333333333
07069,Somerset County,NJ,NA,NA,93.33333333333333
07079,Essex County,NJ,NA,57.57575757575758,NA
07083,Union County,NJ,NA,47.72727272727273,NA
07092,Union County,NJ,NA,NA,89.375
07093,Hudson County,NJ,55.39906103286385,NA,NA
07105,Essex County,NJ,NA,72.05387205387206,NA
07110,Essex County,NJ,NA,90.9090909090909,NA
07202,Union County,NJ,NA,NA,76.875
07204,Union County,NJ,NA,94.52861952861953,NA
07410,Bergen County,NJ,73.23943661971832,NA,77.29166666666667
07481,Bergen County,NJ,NA,NA,52.1875
07514,Passaic County,NJ,39.749608763693274,NA,NA
07621,Bergen County,NJ,NA,NA,40.416666666666664
07624,Bergen County,NJ,NA,91.07744107744108,NA
07652,Bergen County,NJ,NA,72.81144781144782,NA
07701,Monmouth County,NJ,64.16275430359939,NA,NA
07716,Monmouth County,NJ,95.46165884194053,NA,NA
07728,Monmouth County,NJ,NA,NA,1.25
07731,Monmouth County,NJ,40.21909233176839,NA,NA
07840,Warren County,NJ,NA,NA,13.854166666666668
07866,Morris County,NJ,NA,89.64646464646465,NA
07920,Somerset County,NJ,NA,NA,53.22916666666667
08004,Camden County,NJ,NA,32.07070707070707,NA
08033,Camden County,NJ,NA,NA,30.729166666666668
08055,Burlington County,NJ,NA,NA,78.33333333333333
08075,Burlington County,NJ,7.981220657276995,NA,NA
08080,Gloucester County,NJ,NA,NA,72.39583333333334
08086,Gloucester County,NJ,NA,72.47474747474747,NA
08087,Ocean County,NJ,NA,38.38383838383838,NA
08088,Burlington County,NJ,NA,13.131313131313133,NA
08105,Camden County,NJ,NA,NA,54.166666666666664
08215,Atlantic County,NJ,NA,30.05050505050505,NA
08244,Atlantic County,NJ,44.44444444444444,NA,NA
08312,Gloucester County,NJ,NA,NA,69.47916666666667
08318,Salem County,NJ,NA,34.68013468013468,NA
08550,Mercer County,NJ,NA,NA,57.395833333333336
08618,Mercer County,NJ,NA,NA,48.541666666666664
08701,Ocean County,NJ,NA,NA,0.5208333333333333
08721,Ocean County,NJ,NA,27.609427609427613,NA
08757,Ocean County,NJ,NA,NA,0
08758,Ocean County,NJ,NA,NA,32.395833333333336
08759,Ocean County,NJ,5.164319248826291,NA,28.4375
08822,Hunterdon County,NJ,NA,NA,42.395833333333336
08846,Middlesex County,NJ,NA,38.804713804713806,NA
08848,Hunterdon County,NJ,NA,NA,83.64583333333333
08850,Middlesex County,NJ,NA,83.92255892255892,66.97916666666667
08859,Middlesex County,NJ,29.577464788732392,NA,NA
08861,Middlesex County,NJ,NA,15.151515151515152,NA
08872,Middlesex County,NJ,NA,NA,74.79166666666667
08889,Hunterdon County,NJ,NA,60.18518518518518,NA
87002,Valencia County,NM,NA,NA,54.6875
87031,Valencia County,NM,61.502347417840376,NA,NA
87059,Bernalillo County,NM,NA,49.91582491582491,NA
87105,Bernalillo County,NM,NA,23.063973063973066,5.833333333333333
87109,Bernalillo County,NM,NA,NA,4.166666666666666
87110,Bernalillo County,NM,5.94679186228482,NA,NA
87111,Bernalillo County,NM,NA,4.966329966329966,NA
87120,Bernalillo County,NM,4.538341158059469,52.27272727272727,NA
87122,Bernalillo County,NM,NA,NA,28.749999999999996
87123,Bernalillo County,NM,NA,14.393939393939394,NA
87505,Santa Fe County,NM,1.8779342723004695,49.66329966329967,NA
87507,Santa Fe County,NM,NA,9.932659932659933,NA
87740,Colfax County,NM,59.154929577464785,NA,NA
88005,Doa Ana County,NM,NA,NA,66.04166666666667
88011,Doa Ana County,NM,NA,44.27609427609428,73.85416666666667
88030,Luna County,NM,NA,70.7912457912458,NA
88101,Curry County,NM,NA,2.441077441077441,2.083333333333333
88201,Chaves County,NM,NA,19.612794612794612,NA
88203,Chaves County,NM,11.89358372456964,27.77777777777778,NA
88210,Eddy County,NM,81.53364632237871,NA,NA
88240,Lea County,NM,NA,8.501683501683502,NA
88310,Otero County,NM,35.68075117370892,NA,NA
10010,New York County,NY,NA,NA,67.08333333333333
10019,New York County,NY,NA,NA,10.104166666666666
10023,New York County,NY,NA,NA,29.791666666666668
10025,New York County,NY,85.28951486697966,35.18518518518518,36.666666666666664
10026,New York County,NY,NA,NA,78.125
10028,New York County,NY,NA,72.39057239057239,NA
10038,New York County,NY,71.98748043818466,NA,NA
10301,Richmond County,NY,41.62754303599374,NA,35.833333333333336
10305,Richmond County,NY,NA,39.47811447811448,NA
10306,Richmond County,NY,NA,NA,20.9375
10309,Richmond County,NY,NA,87.96296296296296,NA
10314,Richmond County,NY,NA,45.707070707070706,NA
10460,Bronx County,NY,NA,NA,4.375
10461,Bronx County,NY,NA,27.693602693602692,NA
10462,Bronx County,NY,2.3474178403755865,NA,NA
10466,Bronx County,NY,NA,19.696969696969695,NA
10469,Bronx County,NY,NA,55.55555555555556,NA
10473,Bronx County,NY,1.5649452269170578,NA,NA
10475,Bronx County,NY,NA,4.208754208754209,NA
10524,Putnam County,NY,NA,NA,80.41666666666667
10536,Westchester County,NY,NA,61.7003367003367,NA
10543,Westchester County,NY,44.75743348982786,NA,NA
10583,Westchester County,NY,NA,NA,11.979166666666668
10705,Westchester County,NY,NA,NA,31.874999999999996
10710,Westchester County,NY,NA,31.060606060606062,52.916666666666664
10801,Westchester County,NY,17.05790297339593,NA,NA
10805,Westchester County,NY,NA,NA,78.85416666666667
10940,Orange County,NY,NA,23.905723905723907,NA
10950,Orange County,NY,NA,51.515151515151516,NA
10952,Rockland County,NY,NA,NA,30
10956,Rockland County,NY,NA,86.02693602693603,NA
10960,Rockland County,NY,NA,74.07407407407408,NA
11005,Queens County,NY,NA,100,NA
11030,Nassau County,NY,99.8435054773083,NA,NA
11050,Nassau County,NY,NA,NA,31.5625
11102,Queens County,NY,NA,NA,17.8125
11203,Kings County,NY,18.622848200312987,NA,NA
11204,Kings County,NY,NA,69.1919191919192,NA
11207,Kings County,NY,7.198748043818466,NA,NA
11208,Kings County,NY,NA,NA,71.66666666666667
11209,Kings County,NY,NA,NA,54.79166666666667
11216,Kings County,NY,NA,NA,25.104166666666668
11221,Kings County,NY,NA,NA,31.666666666666664
11224,Kings County,NY,NA,NA,29.479166666666668
11225,Kings County,NY,48.5133020344288,NA,NA
11229,Kings County,NY,NA,NA,48.854166666666664
11235,Kings County,NY,NA,37.62626262626262,NA
11237,Kings County,NY,NA,37.54208754208754,NA
11238,Kings County,NY,NA,NA,50.9375
11354,Queens County,NY,NA,NA,49.895833333333336
11355,Queens County,NY,NA,NA,5.729166666666666
11364,Queens County,NY,NA,NA,30.416666666666664
11365,Queens County,NY,NA,NA,13.020833333333334
11366,Queens County,NY,99.37402190923318,NA,NA
11368,Queens County,NY,NA,NA,75.41666666666667
11375,Queens County,NY,NA,78.1986531986532,NA
11377,Queens County,NY,NA,NA,78.54166666666667
11501,Nassau County,NY,NA,NA,38.958333333333336
11542,Nassau County,NY,NA,NA,15.416666666666668
11553,Nassau County,NY,NA,NA,81.66666666666667
11554,Nassau County,NY,NA,NA,10.3125
11561,Nassau County,NY,NA,57.744107744107744,NA
11577,Nassau County,NY,NA,NA,95.41666666666667
11590,Nassau County,NY,NA,NA,57.1875
11691,Queens County,NY,NA,NA,7.916666666666666
11692,Queens County,NY,29.107981220657276,NA,NA
11722,Suffolk County,NY,NA,35.1010101010101,NA
11735,Nassau County,NY,NA,32.659932659932664,NA
11746,Suffolk County,NY,NA,NA,28.333333333333332
11752,Suffolk County,NY,NA,NA,52.604166666666664
11753,Nassau County,NY,NA,67.5925925925926,NA
11778,Suffolk County,NY,NA,NA,73.54166666666667
11783,Nassau County,NY,NA,NA,31.145833333333332
11787,Suffolk County,NY,NA,87.12121212121212,NA
11791,Nassau County,NY,78.87323943661971,NA,NA
11950,Suffolk County,NY,NA,NA,87.8125
12010,Montgomery County,NY,NA,26.17845117845118,NA
12025,Fulton County,NY,NA,NA,85.10416666666667
12047,Albany County,NY,NA,NA,74.0625
12110,Albany County,NY,NA,NA,19.895833333333332
12186,Albany County,NY,NA,79.29292929292929,NA
12189,Albany County,NY,68.07511737089203,NA,NA
12413,Greene County,NY,57.27699530516433,NA,NA
12534,Columbia County,NY,8.92018779342723,NA,NA
12569,Dutchess County,NY,NA,61.02693602693603,NA
12866,Saratoga County,NY,NA,58.333333333333336,51.041666666666664
12953,Franklin County,NY,10.641627543035993,NA,NA
12983,Franklin County,NY,NA,68.01346801346801,NA
13021,Cayuga County,NY,10.954616588419405,NA,6.5625
13032,Madison County,NY,NA,96.88552188552188,NA
13040,Cortland County,NY,66.04068857589984,NA,NA
13108,Onondaga County,NY,62.75430359937402,NA,NA
13126,Oswego County,NY,1.0954616588419406,NA,NA
13140,Cayuga County,NY,77.30829420970265,NA,NA
13165,Seneca County,NY,71.83098591549296,NA,NA
13214,Onondaga County,NY,NA,NA,85.9375
13339,Montgomery County,NY,NA,27.441077441077443,NA
13340,Herkimer County,NY,83.7245696400626,NA,NA
13413,Oneida County,NY,NA,71.96969696969697,NA
13440,Oneida County,NY,23.630672926447573,NA,NA
13642,St. Lawrence County,NY,16.901408450704224,NA,NA
13662,St. Lawrence County,NY,3.1298904538341157,NA,NA
13669,St. Lawrence County,NY,NA,NA,22.8125
13685,Jefferson County,NY,NA,98.98989898989899,NA
13760,Broome County,NY,NA,NA,24.270833333333332
14020,Genesee County,NY,37.40219092331768,NA,NA
14040,Genesee County,NY,NA,91.24579124579124,NA
14068,Erie County,NY,NA,NA,54.37499999999999
14075,Erie County,NY,NA,NA,47.083333333333336
14086,Erie County,NY,12.206572769953052,9.25925925925926,NA
14094,Niagara County,NY,24.56964006259781,NA,NA
14120,Niagara County,NY,NA,28.95622895622896,NA
14125,Genesee County,NY,NA,99.15824915824916,NA
14141,Erie County,NY,NA,NA,51.87500000000001
14150,Erie County,NY,2.0344287949921753,NA,6.979166666666667
14207,Erie County,NY,NA,37.121212121212125,40.208333333333336
14214,Erie County,NY,NA,NA,90.72916666666667
14215,Erie County,NY,NA,50.505050505050505,NA
14216,Erie County,NY,NA,86.11111111111111,NA
14217,Erie County,NY,NA,41.582491582491585,NA
14219,Erie County,NY,NA,26.851851851851855,NA
14221,Erie County,NY,NA,46.96969696969697,NA
14222,Erie County,NY,NA,57.23905723905723,NA
14225,Erie County,NY,NA,7.575757575757576,NA
14227,Erie County,NY,NA,NA,28.541666666666664
14420,Monroe County,NY,NA,76.26262626262627,NA
14424,Ontario County,NY,NA,NA,56.875
14433,Wayne County,NY,36.61971830985916,NA,NA
14445,Monroe County,NY,NA,NA,99.6875
14450,Monroe County,NY,NA,68.0976430976431,NA
14454,Livingston County,NY,NA,NA,91.97916666666667
14466,Ontario County,NY,80.12519561815337,NA,NA
14468,Monroe County,NY,NA,NA,88.75
14469,Ontario County,NY,NA,29.040404040404038,NA
14472,Monroe County,NY,NA,56.22895622895623,NA
14489,Wayne County,NY,53.990610328638496,NA,NA
14522,Wayne County,NY,NA,61.784511784511785,NA
14526,Monroe County,NY,NA,62.96296296296296,NA
14580,Monroe County,NY,NA,57.996632996633004,NA
14609,Monroe County,NY,NA,60.1010101010101,NA
14610,Monroe County,NY,15.805946791862285,NA,NA
14612,Monroe County,NY,NA,24.66329966329966,NA
14613,Monroe County,NY,NA,85.52188552188552,NA
14617,Monroe County,NY,2.503912363067293,NA,NA
14618,Monroe County,NY,NA,5.05050505050505,NA
14622,Monroe County,NY,79.02973395931141,NA,NA
14625,Monroe County,NY,NA,56.3973063973064,92.60416666666667
14626,Monroe County,NY,NA,NA,74.375
14712,Chautauqua County,NY,83.4115805946792,NA,NA
14750,Chautauqua County,NY,61.97183098591549,NA,NA
14801,Steuben County,NY,71.67449139280126,NA,NA
14840,Steuben County,NY,NA,48.4006734006734,NA
14843,Steuben County,NY,NA,NA,21.666666666666668
14845,Chemung County,NY,27.386541471048513,NA,NA
14850,Tompkins County,NY,NA,15.824915824915825,NA
14867,Tompkins County,NY,NA,NA,96.35416666666666
14879,Steuben County,NY,98.12206572769952,NA,NA
14895,Allegany County,NY,89.82785602503913,NA,NA
14901,Chemung County,NY,79.65571205007824,NA,NA
27020,Yadkin County,NC,NA,NA,93.33333333333333
27030,Surry County,NC,NA,33.24915824915825,NA
27103,Forsyth County,NC,8.137715179968701,NA,NA
27105,Forsyth County,NC,NA,50.33670033670033,84.27083333333333
27106,Forsyth County,NC,NA,30.134680134680135,NA
27107,Forsyth County,NC,1.2519561815336464,NA,NA
27127,Forsyth County,NC,NA,NA,59.895833333333336
27214,Guilford County,NC,NA,48.23232323232323,NA
27215,Alamance County,NC,69.32707355242567,1.936026936026936,NA
27217,Alamance County,NC,7.042253521126761,54.629629629629626,NA
27253,Alamance County,NC,NA,26.430976430976433,82.39583333333333
27278,Orange County,NC,NA,NA,45.729166666666664
27292,Davidson County,NC,1.4084507042253522,NA,NA
27320,Rockingham County,NC,NA,NA,1.3541666666666667
27332,Lee County,NC,20.81377151799687,NA,NA
27360,Davidson County,NC,NA,1.7676767676767675,NA
27401,Guilford County,NC,NA,97.81144781144782,NA
27405,Guilford County,NC,NA,97.13804713804713,NA
27501,Harnett County,NC,NA,44.94949494949495,NA
27509,Granville County,NC,NA,98.73737373737373,NA
27514,Orange County,NC,NA,62.20538720538721,NA
27520,Johnston County,NC,41.47104851330204,NA,NA
27524,Johnston County,NC,NA,NA,84.6875
27537,Vance County,NC,NA,65.993265993266,NA
27557,Nash County,NC,NA,90.31986531986533,NA
27576,Johnston County,NC,35.99374021909233,NA,NA
27587,Wake County,NC,NA,81.73400673400674,NA
27596,Franklin County,NC,NA,NA,39.0625
27597,Wake County,NC,NA,88.38383838383838,NA
27604,Wake County,NC,NA,NA,26.979166666666664
27609,Wake County,NC,NA,58.417508417508415,NA
27612,Wake County,NC,NA,NA,16.770833333333332
27614,Wake County,NC,NA,NA,71.35416666666666
27701,Durham County,NC,93.58372456964005,NA,NA
27704,Durham County,NC,59.624413145539904,NA,NA
27705,Durham County,NC,NA,NA,96.14583333333333
27855,Hertford County,NC,NA,96.46464646464646,NA
27870,Halifax County,NC,NA,75.08417508417509,NA
27889,Beaufort County,NC,NA,44.19191919191919,NA
27909,Pasquotank County,NC,NA,35.43771043771044,NA
27958,Currituck County,NC,NA,NA,61.5625
27983,Bertie County,NC,31.61189358372457,NA,NA
28001,Stanly County,NC,NA,NA,75.20833333333333
28021,Gaston County,NC,NA,35.01683501683502,NA
28025,Cabarrus County,NC,NA,6.565656565656567,NA
28027,Cabarrus County,NC,NA,17.17171717171717,NA
28037,Lincoln County,NC,82.31611893583725,NA,NA
28075,Cabarrus County,NC,NA,NA,85.625
28092,Lincoln County,NC,NA,57.407407407407405,52.083333333333336
28097,Stanly County,NC,NA,58.24915824915825,NA
28114,Rutherford County,NC,NA,NA,98.95833333333334
28124,Cabarrus County,NC,NA,92.67676767676768,NA
28152,Cleveland County,NC,NA,NA,46.25
28168,Lincoln County,NC,67.76212832550861,NA,NA
28170,Anson County,NC,NA,NA,37.708333333333336
28202,Mecklenburg County,NC,NA,64.8989898989899,NA
28211,Mecklenburg County,NC,NA,30.387205387205384,79.58333333333333
28216,Mecklenburg County,NC,NA,7.23905723905724,NA
28277,Mecklenburg County,NC,NA,28.114478114478114,77.91666666666667
28301,Cumberland County,NC,NA,NA,84.89583333333334
28306,Bladen County,NC,41.00156494522692,NA,NA
28312,Cumberland County,NC,NA,71.63299663299664,NA
28314,Cumberland County,NC,NA,52.35690235690236,NA
28315,Moore County,NC,NA,NA,88.64583333333333
28327,Moore County,NC,NA,32.91245791245791,98.125
28340,Robeson County,NC,NA,NA,86.97916666666666
28358,Robeson County,NC,NA,14.73063973063973,NA
28374,Moore County,NC,92.95774647887323,NA,NA
28376,Hoke County,NC,NA,88.80471380471381,18.229166666666664
28379,Richmond County,NC,NA,NA,79.6875
28411,New Hanover County,NC,NA,NA,20.104166666666668
28443,Pender County,NC,57.74647887323944,NA,34.583333333333336
28461,Brunswick County,NC,NA,38.552188552188554,NA
28472,Columbus County,NC,79.81220657276995,74.41077441077442,NA
28479,Brunswick County,NC,NA,87.03703703703704,NA
28501,Lenoir County,NC,NA,NA,23.958333333333336
28562,Craven County,NC,NA,NA,55.729166666666664
28570,Carteret County,NC,NA,89.22558922558923,NA
28604,Watauga County,NC,97.4960876369327,NA,NA
28625,Iredell County,NC,10.172143974960877,NA,NA
28655,Burke County,NC,NA,65.31986531986533,NA
28715,Buncombe County,NC,NA,66.91919191919192,NA
28716,Haywood County,NC,NA,82.32323232323232,NA
28734,Macon County,NC,42.87949921752739,NA,NA
28739,Henderson County,NC,NA,NA,3.6458333333333335
28741,Macon County,NC,NA,56.060606060606055,NA
28748,Buncombe County,NC,NA,NA,96.5625
28754,Madison County,NC,NA,NA,65.52083333333333
28756,Polk County,NC,NA,98.9057239057239,NA
28778,Buncombe County,NC,NA,NA,66.14583333333334
28792,Henderson County,NC,NA,NA,34.6875
28803,Buncombe County,NC,66.82316118935837,NA,NA
28904,Clay County,NC,NA,69.61279461279462,NA
28906,Cherokee County,NC,28.794992175273865,13.636363636363635,NA
58103,Cass County,ND,NA,71.04377104377105,NA
58104,Cass County,ND,NA,55.892255892255896,NA
58201,Grand Forks County,ND,NA,16.414141414141415,NA
58501,Burleigh County,ND,NA,13.973063973063974,51.145833333333336
58504,Burleigh County,ND,NA,81.9023569023569,NA
58601,Stark County,ND,NA,76.0942760942761,NA
43015,Delaware County,OH,NA,NA,71.45833333333333
43026,Franklin County,OH,NA,9.68013468013468,NA
43050,Knox County,OH,NA,NA,53.333333333333336
43055,Licking County,OH,NA,0.33670033670033667,10.729166666666666
43078,Champaign County,OH,NA,20.033670033670035,NA
43081,Franklin County,OH,NA,4.040404040404041,NA
43082,Delaware County,OH,NA,82.23905723905723,NA
43130,Fairfield County,OH,NA,46.12794612794613,NA
43140,Madison County,OH,NA,NA,89.0625
43205,Franklin County,OH,50.54773082942097,NA,NA
43219,Franklin County,OH,8.607198748043817,NA,NA
43224,Franklin County,OH,NA,6.986531986531987,NA
43230,Franklin County,OH,NA,6.902356902356903,NA
43316,Wyandot County,OH,NA,NA,81.77083333333334
43420,Sandusky County,OH,NA,NA,26.354166666666668
43502,Fulton County,OH,NA,55.218855218855225,NA
43532,Henry County,OH,NA,97.89562289562289,NA
43605,Lucas County,OH,NA,NA,80.10416666666667
43608,Lucas County,OH,3.4428794992175273,NA,NA
43609,Lucas County,OH,NA,67.42424242424242,NA
43611,Lucas County,OH,NA,NA,90.10416666666666
43612,Lucas County,OH,NA,26.767676767676768,20.208333333333332
43615,Lucas County,OH,NA,NA,63.33333333333333
43620,Lucas County,OH,NA,NA,99.89583333333333
43701,Muskingum County,OH,NA,0.16835016835016833,NA
43764,Perry County,OH,NA,NA,98.4375
43812,Coshocton County,OH,13.928012519561817,NA,NA
43821,Muskingum County,OH,56.8075117370892,NA,NA
43830,Muskingum County,OH,NA,NA,88.75
43906,Belmont County,OH,NA,NA,26.25
43907,Harrison County,OH,NA,39.8989898989899,NA
43912,Belmont County,OH,NA,91.16161616161617,NA
43920,Columbiana County,OH,4.225352112676056,NA,NA
43935,Belmont County,OH,NA,85.85858585858585,NA
43953,Jefferson County,OH,41.94053208137715,12.205387205387206,NA
43964,Jefferson County,OH,74.33489827856025,NA,NA
43968,Columbiana County,OH,NA,92.50841750841751,NA
44004,Ashtabula County,OH,NA,42.592592592592595,NA
44023,Geauga County,OH,NA,NA,71.25
44026,Geauga County,OH,NA,NA,12.083333333333334
44035,Lorain County,OH,0,NA,NA
44041,Ashtabula County,OH,NA,17.087542087542086,NA
44052,Lorain County,OH,NA,8.333333333333332,NA
44057,Lake County,OH,NA,7.912457912457913,NA
44060,Lake County,OH,2.660406885758998,24.15824915824916,NA
44072,Geauga County,OH,NA,NA,99.79166666666667
44081,Lake County,OH,NA,68.77104377104376,NA
44092,Lake County,OH,NA,64.64646464646465,46.35416666666667
44095,Lake County,OH,NA,20.707070707070706,NA
44109,Cuyahoga County,OH,22.37871674491393,NA,NA
44110,Cuyahoga County,OH,NA,NA,17.5
44115,Cuyahoga County,OH,NA,51.936026936026934,NA
44116,Cuyahoga County,OH,NA,NA,70.41666666666667
44128,Cuyahoga County,OH,NA,25.5050505050505,5.9375
44129,Cuyahoga County,OH,NA,6.6498316498316505,NA
44130,Cuyahoga County,OH,NA,NA,48.229166666666664
44131,Cuyahoga County,OH,NA,27.525252525252526,NA
44134,Cuyahoga County,OH,NA,NA,11.145833333333334
44135,Cuyahoga County,OH,18.466353677621285,NA,NA
44136,Cuyahoga County,OH,72.45696400625978,NA,NA
44138,Cuyahoga County,OH,54.147104851330205,NA,NA
44140,Cuyahoga County,OH,NA,NA,89.89583333333333
44141,Cuyahoga County,OH,NA,NA,79.27083333333333
44149,Cuyahoga County,OH,NA,60.26936026936027,NA
44212,Medina County,OH,NA,NA,58.54166666666667
44221,Summit County,OH,NA,8.080808080808081,5.208333333333334
44223,Summit County,OH,NA,25.925925925925924,NA
44224,Summit County,OH,NA,3.3670033670033668,NA
44231,Portage County,OH,NA,NA,76.35416666666667
44233,Medina County,OH,80.9076682316119,NA,NA
44256,Medina County,OH,NA,44.86531986531986,NA
44266,Portage County,OH,NA,NA,83.4375
44301,Summit County,OH,NA,48.90572390572391,NA
44405,Mahoning County,OH,NA,35.774410774410775,NA
44460,Columbiana County,OH,NA,NA,27.187499999999996
44470,Trumbull County,OH,NA,87.37373737373737,NA
44484,Trumbull County,OH,NA,5.303030303030303,NA
44502,Mahoning County,OH,23.317683881064163,NA,NA
44514,Mahoning County,OH,NA,NA,8.333333333333332
44515,Mahoning County,OH,NA,4.797979797979798,NA
44641,Stark County,OH,NA,57.07070707070707,NA
44663,Tuscarawas County,OH,NA,26.68350168350168,NA
44705,Stark County,OH,13.77151799687011,NA,NA
44820,Crawford County,OH,NA,4.713804713804714,NA
44830,Seneca County,OH,NA,35.774410774410775,NA
44857,Huron County,OH,87.32394366197182,NA,NA
44870,Erie County,OH,7.355242566510173,NA,NA
44905,Richland County,OH,NA,40.06734006734007,NA
45002,Hamilton County,OH,NA,NA,98.54166666666667
45014,Butler County,OH,56.33802816901409,NA,NA
45106,Clermont County,OH,NA,NA,76.77083333333333
45123,Highland County,OH,NA,NA,16.979166666666668
45133,Highland County,OH,85.91549295774648,NA,NA
45140,Clermont County,OH,NA,24.915824915824917,NA
45150,Clermont County,OH,NA,14.983164983164984,NA
45159,Clinton County,OH,NA,97.72727272727273,NA
45177,Clinton County,OH,NA,NA,19.6875
45205,Hamilton County,OH,NA,28.367003367003367,NA
45206,Hamilton County,OH,NA,NA,45
45208,Hamilton County,OH,NA,48.569023569023564,NA
45211,Hamilton County,OH,77.62128325508607,NA,NA
45216,Hamilton County,OH,35.36776212832551,NA,NA
45230,Hamilton County,OH,NA,47.053872053872055,NA
45236,Hamilton County,OH,NA,NA,59.375
45359,Miami County,OH,NA,97.47474747474747,NA
45409,Montgomery County,OH,70.4225352112676,NA,NA
45429,Montgomery County,OH,NA,NA,7.5
45503,Clark County,OH,NA,22.643097643097644,30.104166666666664
45505,Clark County,OH,16.118935837245697,NA,NA
45601,Ross County,OH,NA,1.0101010101010102,NA
45732,Athens County,OH,NA,94.61279461279462,NA
45750,Washington County,OH,0.7824726134585289,NA,NA
45801,Allen County,OH,5.633802816901409,NA,NA
45804,Allen County,OH,NA,NA,39.270833333333336
45806,Allen County,OH,NA,NA,26.145833333333336
45810,Hardin County,OH,72.30046948356808,NA,NA
45831,Putnam County,OH,NA,97.39057239057239,NA
45840,Hancock County,OH,NA,9.595959595959595,NA
45895,Auglaize County,OH,39.593114241001565,NA,NA
73008,Oklahoma County,OK,NA,NA,17.916666666666668
73010,McClain County,OK,NA,33.5016835016835,50.625
73013,Oklahoma County,OK,NA,NA,46.875
73018,Grady County,OK,26.604068857589986,NA,NA
73020,Oklahoma County,OK,22.065727699530516,NA,NA
73026,Cleveland County,OK,NA,63.215488215488215,NA
73034,Oklahoma County,OK,NA,6.481481481481481,NA
73044,Logan County,OK,NA,NA,69.79166666666666
73045,Oklahoma County,OK,NA,NA,86.04166666666667
73052,Garvin County,OK,NA,NA,72.70833333333333
73072,Cleveland County,OK,NA,NA,35.208333333333336
73099,Canadian County,OK,7.511737089201878,NA,NA
73129,Oklahoma County,OK,NA,91.91919191919192,NA
73533,Stephens County,OK,NA,NA,6.458333333333334
74003,Osage County,OK,NA,43.686868686868685,NA
74020,Pawnee County,OK,NA,NA,74.27083333333333
74063,Tulsa County,OK,NA,NA,44.166666666666664
74066,Creek County,OK,NA,18.77104377104377,NA
74127,Tulsa County,OK,NA,93.0976430976431,NA
74136,Tulsa County,OK,NA,NA,67.60416666666667
74137,Tulsa County,OK,NA,NA,16.666666666666664
74301,Craig County,OK,60.56338028169014,NA,NA
74426,McIntosh County,OK,85.44600938967136,NA,NA
74501,Pittsburg County,OK,53.677621283255085,NA,NA
74601,Kay County,OK,62.91079812206573,NA,NA
74820,Pontotoc County,OK,3.286384976525822,NA,NA
97005,Washington County,OR,NA,60.35353535353535,NA
97030,Multnomah County,OR,NA,NA,8.645833333333334
97034,Clackamas County,OR,NA,31.818181818181817,NA
97051,Columbia County,OR,NA,42.84511784511785,NA
97070,Clackamas County,OR,NA,31.818181818181817,47.5
97123,Washington County,OR,NA,37.20538720538721,NA
97213,Multnomah County,OR,NA,NA,23.75
97219,Multnomah County,OR,NA,74.91582491582491,79.79166666666667
97224,Washington County,OR,NA,80.3030303030303,NA
97229,Washington County,OR,66.66666666666666,NA,NA
97330,Benton County,OR,NA,61.02693602693603,NA
97394,Lincoln County,OR,NA,45.45454545454545,NA
97404,Lane County,OR,87.48043818466354,NA,NA
97426,Lane County,OR,NA,NA,51.24999999999999
97439,Lane County,OR,72.14397496087636,NA,NA
97459,Coos County,OR,NA,92.5925925925926,NA
97502,Jackson County,OR,NA,10.1010101010101,NA
97504,Jackson County,OR,NA,5.387205387205387,NA
97537,Jackson County,OR,93.74021909233177,NA,NA
97601,Klamath County,OR,NA,55.639730639730644,NA
97701,Deschutes County,OR,NA,24.579124579124578,NA
97703,Deschutes County,OR,NA,89.05723905723906,NA
97754,Crook County,OR,NA,NA,33.958333333333336
97756,Deschutes County,OR,NA,66.4983164983165,15.729166666666666
97759,Deschutes County,OR,NA,80.55555555555556,NA
97801,Umatilla County,OR,NA,NA,6.875000000000001
97814,Baker County,OR,NA,NA,19.375
97818,Morrow County,OR,65.72769953051643,NA,NA
97914,Malheur County,OR,NA,67.17171717171718,93.54166666666667
15001,Beaver County,PA,NA,7.828282828282829,96.66666666666667
15005,Beaver County,PA,61.03286384976526,NA,NA
15009,Beaver County,PA,NA,NA,80.52083333333333
15010,Beaver County,PA,NA,NA,21.5625
15024,Allegheny County,PA,86.697965571205,NA,24.166666666666668
15065,Allegheny County,PA,43.03599374021909,NA,NA
15066,Beaver County,PA,NA,NA,29.895833333333332
15068,Westmoreland County,PA,NA,NA,77.5
15089,Westmoreland County,PA,59.937402190923315,NA,40.9375
15101,Allegheny County,PA,43.66197183098591,NA,NA
15102,Allegheny County,PA,NA,13.383838383838384,NA
15108,Allegheny County,PA,21.752738654147105,76.34680134680136,NA
15120,Allegheny County,PA,NA,NA,83.125
15129,Allegheny County,PA,NA,92.67676767676768,NA
15131,Allegheny County,PA,NA,52.861952861952865,NA
15136,Allegheny County,PA,68.54460093896714,NA,NA
15201,Allegheny County,PA,97.0266040688576,NA,NA
15204,Allegheny County,PA,75.11737089201877,NA,NA
15206,Allegheny County,PA,NA,NA,23.020833333333332
15209,Allegheny County,PA,57.43348982785602,37.71043771043771,NA
15210,Allegheny County,PA,8.294209702660407,NA,NA
15212,Allegheny County,PA,NA,61.61616161616161,49.0625
15235,Allegheny County,PA,12.050078247261347,NA,15.625
15237,Allegheny County,PA,NA,10.69023569023569,56.56250000000001
15238,Allegheny County,PA,NA,90.57239057239057,NA
15243,Allegheny County,PA,NA,NA,93.85416666666667
15317,Washington County,PA,NA,20.286195286195287,21.458333333333332
15370,Greene County,PA,53.36463223787168,51.09427609427609,NA
15417,Fayette County,PA,NA,NA,81.875
15425,Fayette County,PA,NA,31.565656565656564,NA
15478,Fayette County,PA,NA,72.3063973063973,NA
15501,Somerset County,PA,55.86854460093896,NA,NA
15537,Bedford County,PA,NA,NA,95.9375
15642,Westmoreland County,PA,NA,53.87205387205387,NA
15644,Westmoreland County,PA,NA,16.666666666666664,NA
15658,Westmoreland County,PA,NA,NA,97.60416666666667
15666,Westmoreland County,PA,NA,16.161616161616163,NA
15668,Westmoreland County,PA,NA,NA,56.35416666666667
15681,Indiana County,PA,98.90453834115806,NA,NA
15717,Indiana County,PA,NA,55.3030303030303,NA
15851,Jefferson County,PA,90.14084507042254,NA,NA
15857,Elk County,PA,NA,NA,74.47916666666666
15901,Cambria County,PA,NA,50.841750841750844,NA
15905,Cambria County,PA,52.58215962441315,NA,NA
15906,Cambria County,PA,NA,NA,43.125
15931,Cambria County,PA,NA,87.20538720538721,NA
15943,Cambria County,PA,NA,76.5993265993266,NA
15963,Somerset County,PA,NA,70.1178451178451,NA
16001,Butler County,PA,NA,40.31986531986532,NA
16046,Butler County,PA,NA,84.84848484848484,NA
16055,Butler County,PA,92.17527386541471,NA,NA
16056,Butler County,PA,96.24413145539906,NA,NA
16117,Lawrence County,PA,30.359937402190923,NA,NA
16125,Mercer County,PA,20.50078247261346,NA,NA
16232,Clarion County,PA,NA,91.4983164983165,NA
16316,Crawford County,PA,NA,77.44107744107744,NA
16335,Crawford County,PA,58.37245696400626,62.03703703703704,NA
16346,Venango County,PA,NA,NA,60.83333333333333
16354,Crawford County,PA,65.25821596244131,NA,NA
16424,Crawford County,PA,99.68701095461658,NA,NA
16433,Crawford County,PA,NA,NA,99.375
16601,Blair County,PA,4.381846635367762,2.861952861952862,50.416666666666664
16602,Blair County,PA,NA,35.60606060606061,NA
16652,Huntingdon County,PA,NA,8.585858585858585,38.645833333333336
16701,McKean County,PA,NA,10.774410774410773,NA
16749,McKean County,PA,NA,NA,98.85416666666667
16801,Centre County,PA,46.635367762128325,NA,NA
16915,Potter County,PA,94.05320813771519,NA,NA
16933,Tioga County,PA,NA,80.97643097643098,NA
17015,Cumberland County,PA,NA,48.484848484848484,NA
17019,York County,PA,83.8810641627543,NA,NA
17020,Perry County,PA,54.460093896713616,NA,NA
17025,Cumberland County,PA,NA,70.03367003367003,NA
17033,Dauphin County,PA,NA,NA,9.791666666666666
17042,Lebanon County,PA,NA,36.27946127946128,NA
17066,Huntingdon County,PA,47.88732394366197,NA,NA
17068,Perry County,PA,84.97652582159625,NA,NA
17078,Lebanon County,PA,NA,NA,32.708333333333336
17109,Dauphin County,PA,NA,NA,12.708333333333332
17201,Franklin County,PA,20.344287949921753,NA,NA
17222,Franklin County,PA,NA,NA,92.1875
17268,Franklin County,PA,28.638497652582164,NA,NA
17315,York County,PA,NA,NA,38.75
17331,York County,PA,57.58998435054773,0.42087542087542085,0.3125
17340,Adams County,PA,47.104851330203445,24.242424242424242,NA
17404,York County,PA,NA,NA,42.8125
17512,Lancaster County,PA,87.94992175273866,NA,NA
17516,Lancaster County,PA,NA,63.04713804713805,NA
17517,Lancaster County,PA,NA,30.47138047138047,NA
17522,Lancaster County,PA,NA,NA,36.145833333333336
17603,Lancaster County,PA,NA,NA,2.3958333333333335
17701,Lycoming County,PA,NA,2.272727272727273,68.95833333333333
17728,Lycoming County,PA,NA,40.15151515151515,NA
17756,Lycoming County,PA,NA,NA,95.20833333333333
17815,Columbia County,PA,NA,NA,72.60416666666667
17851,Northumberland County,PA,NA,NA,82.60416666666667
17866,Northumberland County,PA,NA,91.58249158249158,NA
17921,Schuylkill County,PA,NA,53.36700336700336,NA
18014,Northampton County,PA,NA,NA,18.020833333333332
18017,Northampton County,PA,2.190923317683881,1.5151515151515151,76.97916666666667
18020,Northampton County,PA,NA,35.69023569023569,69.27083333333334
18031,Lehigh County,PA,NA,43.265993265993266,NA
18032,Lehigh County,PA,95.77464788732394,NA,NA
18036,Lehigh County,PA,NA,77.27272727272727,NA
18062,Lehigh County,PA,25.508607198748045,NA,NA
18064,Northampton County,PA,NA,68.60269360269359,36.97916666666667
18104,Lehigh County,PA,NA,NA,1.0416666666666665
18109,Lehigh County,PA,NA,46.464646464646464,NA
18201,Luzerne County,PA,11.737089201877934,11.447811447811448,NA
18202,Luzerne County,PA,27.699530516431924,NA,20.3125
18210,Carbon County,PA,NA,42.340067340067336,91.25
18229,Carbon County,PA,NA,95.53872053872054,NA
18232,Carbon County,PA,NA,98.4006734006734,NA
18237,Schuylkill County,PA,90.29733959311424,NA,NA
18252,Schuylkill County,PA,NA,27.86195286195286,NA
18255,Carbon County,PA,67.2926447574335,NA,NA
18302,Monroe County,PA,NA,66.41414141414141,NA
18407,Lackawanna County,PA,NA,74.32659932659934,NA
18436,Wayne County,PA,NA,34.427609427609426,NA
18509,Lackawanna County,PA,34.89827856025039,NA,NA
18612,Luzerne County,PA,NA,24.074074074074073,NA
18704,Luzerne County,PA,9.859154929577464,NA,NA
18705,Luzerne County,PA,30.985915492957744,NA,NA
18706,Luzerne County,PA,NA,77.6936026936027,NA
18707,Luzerne County,PA,NA,57.65993265993266,94.79166666666666
18901,Bucks County,PA,NA,NA,82.1875
18940,Bucks County,PA,NA,54.12457912457912,NA
18944,Bucks County,PA,NA,NA,41.770833333333336
18951,Bucks County,PA,NA,7.9966329966329965,NA
18964,Montgomery County,PA,NA,NA,30.833333333333336
18966,Bucks County,PA,NA,NA,39.791666666666664
19002,Montgomery County,PA,NA,NA,76.04166666666666
19026,Delaware County,PA,NA,NA,77.8125
19030,Bucks County,PA,NA,39.73063973063973,NA
19038,Montgomery County,PA,NA,32.49158249158249,NA
19053,Bucks County,PA,NA,58.58585858585859,NA
19061,Delaware County,PA,NA,NA,78.64583333333334
19063,Delaware County,PA,NA,85.43771043771044,NA
19086,Delaware County,PA,NA,NA,58.229166666666664
19087,Chester County,PA,NA,90.48821548821549,NA
19104,Philadelphia County,PA,NA,82.07070707070707,NA
19111,Philadelphia County,PA,19.874804381846637,1.8518518518518516,NA
19114,Philadelphia County,PA,NA,NA,8.958333333333334
19115,Philadelphia County,PA,NA,40.74074074074074,NA
19116,Philadelphia County,PA,NA,NA,41.875
19119,Philadelphia County,PA,70.1095461658842,NA,NA
19120,Philadelphia County,PA,NA,71.54882154882155,NA
19124,Philadelphia County,PA,NA,NA,29.6875
19130,Philadelphia County,PA,NA,NA,23.229166666666668
19131,Philadelphia County,PA,NA,NA,27.916666666666668
19136,Philadelphia County,PA,NA,90.65656565656566,NA
19137,Philadelphia County,PA,NA,81.64983164983165,NA
19138,Philadelphia County,PA,NA,10.353535353535353,59.791666666666664
19147,Philadelphia County,PA,78.40375586854461,NA,NA
19150,Philadelphia County,PA,NA,11.026936026936026,NA
19154,Philadelphia County,PA,NA,NA,12.395833333333334
19301,Chester County,PA,NA,NA,34.375
19320,Chester County,PA,51.330203442879494,NA,NA
19341,Chester County,PA,48.98278560250392,NA,22.916666666666664
19365,Chester County,PA,NA,NA,50
19380,Chester County,PA,NA,2.1043771043771047,NA
19382,Chester County,PA,NA,NA,65.20833333333333
19390,Chester County,PA,NA,NA,79.47916666666667
19403,Montgomery County,PA,NA,NA,13.541666666666666
19438,Montgomery County,PA,NA,NA,13.4375
19444,Montgomery County,PA,63.69327073552425,NA,NA
19446,Montgomery County,PA,56.65101721439749,NA,NA
19460,Chester County,PA,NA,NA,55.625
19468,Montgomery County,PA,NA,38.04713804713805,NA
19475,Chester County,PA,NA,NA,71.04166666666667
19518,Berks County,PA,NA,NA,59.583333333333336
19520,Chester County,PA,NA,NA,61.354166666666664
19547,Berks County,PA,NA,97.22222222222221,NA
19560,Berks County,PA,NA,NA,41.25
19565,Berks County,PA,NA,NA,25.3125
19605,Berks County,PA,NA,NA,78.02083333333333
19607,Berks County,PA,NA,42.003367003367,NA
02806,Bristol County,RI,NA,NA,24.6875
02817,Kent County,RI,65.41471048513301,NA,NA
02818,Kent County,RI,NA,94.36026936026936,NA
02830,Providence County,RI,89.358372456964,NA,NA
02840,Newport County,RI,NA,14.47811447811448,NA
02864,Providence County,RI,NA,NA,55.93749999999999
02879,Washington County,RI,NA,39.30976430976431,46.979166666666664
02882,Washington County,RI,NA,90.993265993266,NA
02886,Kent County,RI,NA,NA,2.604166666666667
02889,Kent County,RI,NA,40.82491582491583,NA
02891,Washington County,RI,NA,NA,70.9375
02893,Kent County,RI,19.092331768388107,31.397306397306394,NA
02895,Providence County,RI,6.103286384976526,33.670033670033675,NA
02904,Providence County,RI,NA,8.922558922558922,7.395833333333333
02910,Providence County,RI,NA,35.774410774410775,NA
02914,Providence County,RI,NA,21.632996632996633,NA
02920,Providence County,RI,NA,NA,3.854166666666667
29010,Lee County,SC,NA,NA,68.85416666666667
29036,Lexington County,SC,45.38341158059468,NA,NA
29045,Kershaw County,SC,48.35680751173709,NA,80.72916666666666
29053,Lexington County,SC,34.42879499217527,NA,NA
29055,Chester County,SC,84.66353677621284,NA,NA
29210,Richland County,SC,NA,NA,22.291666666666668
29301,Spartanburg County,SC,NA,85.01683501683502,70.83333333333334
29303,Spartanburg County,SC,62.284820031298906,NA,NA
29316,Spartanburg County,SC,59.154929577464785,84.93265993265993,NA
29323,Spartanburg County,SC,33.33333333333333,NA,NA
29385,Spartanburg County,SC,NA,80.3030303030303,NA
29414,Charleston County,SC,17.52738654147105,NA,NA
29461,Berkeley County,SC,NA,NA,18.854166666666668
29466,Charleston County,SC,52.895148669796555,NA,NA
29472,Dorchester County,SC,NA,74.15824915824916,NA
29488,Colleton County,SC,NA,17.929292929292927,NA
29505,Florence County,SC,NA,NA,18.541666666666668
29527,Horry County,SC,NA,46.21212121212121,NA
29550,Darlington County,SC,NA,NA,16.354166666666668
29576,Horry County,SC,76.05633802816901,NA,NA
29579,Horry County,SC,NA,64.73063973063972,NA
29615,Greenville County,SC,NA,NA,38.125
29617,Greenville County,SC,81.37715179968701,NA,NA
29626,Anderson County,SC,NA,NA,25.937500000000004
29669,Anderson County,SC,NA,NA,69.16666666666667
29680,Greenville County,SC,NA,57.15488215488216,NA
29681,Greenville County,SC,NA,24.494949494949495,NA
29690,Greenville County,SC,NA,NA,83.02083333333333
29707,Lancaster County,SC,NA,NA,63.74999999999999
29708,York County,SC,NA,33.92255892255892,NA
29732,York County,SC,NA,NA,8.854166666666668
29745,York County,SC,NA,NA,72.29166666666667
29801,Aiken County,SC,NA,23.232323232323232,NA
29902,Beaufort County,SC,NA,67.67676767676768,NA
29909,Beaufort County,SC,NA,75.58922558922558,45.208333333333336
29910,Beaufort County,SC,NA,88.13131313131312,NA
57005,Minnehaha County,SD,76.52582159624414,NA,NA
57042,Lake County,SD,NA,91.32996632996633,NA
57108,Lincoln County,SD,NA,78.03030303030303,NA
57301,Davison County,SD,NA,16.329966329966332,NA
57702,Pennington County,SD,NA,68.43434343434343,3.3333333333333335
57730,Custer County,SD,NA,NA,43.4375
37013,Davidson County,TN,NA,7.744107744107744,NA
37027,Williamson County,TN,NA,95.45454545454545,NA
37064,Williamson County,TN,NA,NA,91.66666666666666
37066,Sumner County,TN,4.851330203442879,3.872053872053872,NA
37067,Williamson County,TN,NA,NA,37.291666666666664
37083,Macon County,TN,NA,37.28956228956229,NA
37167,Rutherford County,TN,15.023474178403756,NA,NA
37172,Robertson County,TN,9.233176838810643,NA,NA
37205,Davidson County,TN,NA,26.346801346801346,8.4375
37206,Davidson County,TN,17.996870109546165,NA,NA
37207,Davidson County,TN,NA,NA,61.145833333333336
37216,Davidson County,TN,28.169014084507044,NA,NA
37217,Davidson County,TN,NA,NA,85.41666666666666
37218,Davidson County,TN,NA,39.64646464646464,NA
37341,Hamilton County,TN,87.01095461658842,NA,NA
37347,Marion County,TN,NA,52.609427609427605,NA
37363,Hamilton County,TN,47.73082942097027,NA,24.791666666666668
37367,Bledsoe County,TN,NA,NA,33.125
37615,Washington County,TN,NA,31.48148148148148,NA
37620,Sullivan County,TN,6.572769953051644,NA,NA
37641,Greene County,TN,NA,30.555555555555557,NA
37643,Carter County,TN,NA,2.9461279461279464,7.291666666666667
37645,Hawkins County,TN,70.2660406885759,NA,NA
37663,Sullivan County,TN,44.28794992175274,NA,37.5
37716,Anderson County,TN,NA,NA,50.72916666666667
37725,Jefferson County,TN,NA,71.71717171717171,15.208333333333332
37743,Greene County,TN,6.259780907668231,NA,NA
37745,Greene County,TN,50.07824726134585,NA,NA
37748,Roane County,TN,18.153364632237874,NA,NA
37766,Campbell County,TN,19.405320813771517,NA,NA
37801,Blount County,TN,NA,23.316498316498315,NA
37803,Blount County,TN,NA,36.53198653198653,NA
37804,Blount County,TN,NA,41.07744107744108,NA
37853,Blount County,TN,NA,88.2996632996633,NA
37865,Sevier County,TN,NA,22.13804713804714,NA
37874,Monroe County,TN,NA,26.094276094276093,NA
37879,Claiborne County,TN,30.672926447574334,NA,NA
37917,Knox County,TN,NA,30.976430976430976,NA
37923,Knox County,TN,NA,20.622895622895623,NA
37931,Knox County,TN,NA,64.39393939393939,NA
38002,Shelby County,TN,43.3489827856025,NA,NA
38006,Crockett County,TN,NA,NA,72.91666666666666
38008,Hardeman County,TN,NA,NA,80.20833333333334
38011,Tipton County,TN,NA,NA,64.16666666666667
38016,Shelby County,TN,29.7339593114241,NA,NA
38017,Shelby County,TN,NA,26.262626262626267,NA
38023,Tipton County,TN,NA,NA,75.9375
38060,Fayette County,TN,NA,67.25589225589226,NA
38106,Shelby County,TN,10.015649452269171,NA,NA
38108,Shelby County,TN,NA,NA,67.39583333333333
38112,Shelby County,TN,39.436619718309856,NA,NA
38115,Shelby County,TN,NA,NA,78.4375
38116,Shelby County,TN,10.7981220657277,NA,NA
38125,Shelby County,TN,32.863849765258216,NA,NA
38127,Shelby County,TN,4.068857589984351,NA,NA
38343,Gibson County,TN,64.47574334898279,NA,NA
38464,Lawrence County,TN,69.48356807511738,NA,NA
38501,Putnam County,TN,NA,55.72390572390572,42.291666666666664
38555,Cumberland County,TN,21.5962441314554,83.41750841750842,NA
38556,Fentress County,TN,NA,72.81144781144782,NA
38570,Overton County,TN,NA,NA,43.958333333333336
75028,Denton County,TX,NA,40.572390572390574,NA
75041,Dallas County,TX,NA,NA,61.875
75061,Dallas County,TX,NA,12.373737373737374,NA
75070,Collin County,TX,NA,4.124579124579125,NA
75080,Dallas County,TX,58.84194053208138,NA,NA
75088,Dallas County,TX,76.83881064162755,NA,NA
75165,Ellis County,TX,NA,65.65656565656566,NA
75216,Dallas County,TX,NA,32.323232323232325,NA
75240,Dallas County,TX,NA,45.28619528619529,NA
75474,Hunt County,TX,39.123630672926446,NA,NA
75551,Cass County,TX,NA,66.58249158249158,NA
75633,Panola County,TX,NA,NA,44.375
75662,Gregg County,TX,NA,16.91919191919192,NA
75703,Smith County,TX,41.158059467918626,NA,NA
75766,Cherokee County,TX,NA,NA,1.875
75773,Wood County,TX,NA,NA,5.104166666666667
75783,Wood County,TX,NA,15.404040404040403,NA
75862,Trinity County,TX,NA,47.30639730639731,NA
75949,Angelina County,TX,75.43035993740219,NA,NA
75951,Jasper County,TX,NA,NA,37.604166666666664
75965,Nacogdoches County,TX,NA,49.32659932659932,NA
76028,Johnson County,TX,NA,NA,5
76031,Johnson County,TX,NA,NA,36.770833333333336
76040,Tarrant County,TX,27.073552425665103,NA,NA
76049,Hood County,TX,21.283255086071986,NA,NA
76118,Tarrant County,TX,NA,63.888888888888886,NA
76148,Tarrant County,TX,NA,NA,55.00000000000001
76205,Denton County,TX,61.34585289514867,NA,NA
76424,Stephens County,TX,46.79186228482003,NA,NA
76458,Jack County,TX,81.69014084507043,NA,67.91666666666667
76504,Bell County,TX,34.74178403755869,53.70370370370371,NA
76522,Coryell County,TX,NA,44.023569023569024,NA
76567,Milam County,TX,NA,NA,65.9375
76634,Bosque County,TX,NA,38.46801346801347,NA
76642,Limestone County,TX,45.852895148669795,NA,NA
76708,McLennan County,TX,27.54303599374022,NA,NA
76821,Runnels County,TX,NA,59.34343434343434,NA
76834,Coleman County,TX,NA,53.956228956228955,61.66666666666667
76849,Kimble County,TX,NA,NA,72.70833333333333
76903,Tom Green County,TX,48.200312989045386,NA,NA
76950,Sutton County,TX,NA,97.97979797979798,NA
77007,Harris County,TX,NA,86.27946127946127,NA
77008,Harris County,TX,38.967136150234744,NA,NA
77014,Harris County,TX,NA,NA,90.52083333333333
77018,Harris County,TX,NA,44.52861952861953,NA
77020,Harris County,TX,NA,27.27272727272727,NA
77026,Harris County,TX,75.7433489827856,NA,NA
77036,Harris County,TX,54.30359937402191,NA,NA
77037,Harris County,TX,93.27073552425665,NA,NA
77039,Harris County,TX,NA,62.54208754208754,NA
77051,Harris County,TX,NA,NA,33.125
77054,Harris County,TX,NA,92.42424242424242,NA
77056,Harris County,TX,NA,NA,41.458333333333336
77059,Harris County,TX,NA,NA,77.60416666666666
77077,Harris County,TX,NA,64.05723905723906,NA
77096,Harris County,TX,NA,56.481481481481474,NA
77306,Montgomery County,TX,NA,NA,72.5
77316,Montgomery County,TX,NA,53.956228956228955,NA
77320,Walker County,TX,NA,58.92255892255892,NA
77336,Harris County,TX,NA,NA,80.9375
77340,Walker County,TX,NA,NA,80.625
77351,Polk County,TX,NA,NA,32.5
77360,Polk County,TX,NA,62.45791245791246,NA
77378,Montgomery County,TX,NA,NA,95.72916666666667
77379,Harris County,TX,NA,20.875420875420875,NA
77388,Harris County,TX,NA,NA,97.39583333333334
77406,Fort Bend County,TX,NA,14.47811447811448,NA
77414,Matagorda County,TX,25.665101721439747,77.18855218855218,NA
77422,Brazoria County,TX,NA,NA,36.5625
77433,Harris County,TX,NA,8.83838383838384,NA
77437,Wharton County,TX,NA,87.37373737373737,NA
77447,Harris County,TX,NA,NA,62.39583333333333
77479,Fort Bend County,TX,NA,9.006734006734007,NA
77480,Brazoria County,TX,NA,83.24915824915826,NA
77486,Brazoria County,TX,NA,NA,89.47916666666667
77511,Brazoria County,TX,NA,NA,22.708333333333332
77517,Galveston County,TX,63.38028169014085,NA,NA
77541,Brazoria County,TX,NA,NA,73.33333333333333
77546,Galveston County,TX,NA,4.545454545454546,14.0625
77563,Galveston County,TX,NA,NA,44.895833333333336
77573,Galveston County,TX,NA,12.626262626262626,NA
77581,Brazoria County,TX,NA,86.36363636363636,NA
77583,Brazoria County,TX,66.97965571205008,NA,NA
77586,Harris County,TX,NA,79.96632996632997,NA
77640,Jefferson County,TX,NA,NA,83.85416666666666
77642,Jefferson County,TX,61.815336463223794,NA,NA
77651,Jefferson County,TX,NA,60.60606060606061,NA
77845,Brazos County,TX,NA,1.5993265993265993,7.708333333333334
77868,Grimes County,TX,NA,55.13468013468014,NA
77901,Victoria County,TX,NA,NA,11.354166666666666
77904,Victoria County,TX,NA,18.434343434343432,NA
77954,DeWitt County,TX,NA,30.808080808080806,NA
77979,Calhoun County,TX,94.99217527386541,NA,NA
78040,Webb County,TX,48.04381846635368,NA,NA
78041,Webb County,TX,58.05946791862285,NA,NA
78046,Webb County,TX,NA,12.794612794612794,NA
78114,Wilson County,TX,NA,NA,37.1875
78133,Comal County,TX,37.715179968701094,NA,NA
78216,Bexar County,TX,NA,32.407407407407405,NA
78232,Bexar County,TX,69.64006259780908,NA,23.541666666666668
78251,Bexar County,TX,NA,45.28619528619529,NA
78410,Nueces County,TX,NA,NA,74.16666666666667
78520,Cameron County,TX,NA,34.5959595959596,NA
78606,Blanco County,TX,NA,NA,98.75
78620,Hays County,TX,NA,NA,47.604166666666664
78639,Llano County,TX,NA,70.2020202020202,NA
78640,Hays County,TX,23.004694835680752,NA,NA
78643,Llano County,TX,NA,76.85185185185185,96.45833333333333
78669,Travis County,TX,NA,NA,92.08333333333333
78737,Hays County,TX,NA,75.84175084175084,NA
78739,Travis County,TX,NA,94.6969696969697,NA
78759,Travis County,TX,NA,51.178451178451176,14.166666666666666
78945,Fayette County,TX,NA,NA,60
79106,Potter County,TX,55.24256651017214,NA,NA
79109,Randall County,TX,20.970266040688575,NA,NA
79118,Randall County,TX,NA,48.98989898989899,NA
79364,Lubbock County,TX,NA,98.06397306397307,NA
79415,Lubbock County,TX,NA,95.62289562289563,NA
79510,Callahan County,TX,NA,53.11447811447812,NA
79549,Scurry County,TX,68.85758998435054,NA,NA
79556,Nolan County,TX,NA,NA,45.9375
79706,Midland County,TX,50.70422535211267,NA,NA
79720,Howard County,TX,30.046948356807512,NA,NA
79905,El Paso County,TX,NA,NA,23.125
79907,El Paso County,TX,NA,50.67340067340067,NA
79912,El Paso County,TX,NA,NA,27.291666666666664
79936,El Paso County,TX,NA,NA,37.291666666666664
84025,Davis County,UT,50.23474178403756,NA,NA
84032,Wasatch County,UT,NA,85.60606060606061,NA
84041,Davis County,UT,44.13145539906103,32.744107744107744,NA
84047,Salt Lake County,UT,NA,22.895622895622896,NA
84084,Salt Lake County,UT,87.16744913928012,NA,NA
84098,Summit County,UT,NA,NA,47.604166666666664
84103,Salt Lake County,UT,42.25352112676056,NA,NA
84108,Salt Lake County,UT,NA,NA,58.75
84119,Salt Lake County,UT,NA,NA,15.312500000000002
84337,Box Elder County,UT,NA,85.26936026936028,NA
84713,Beaver County,UT,99.21752738654148,NA,NA
84790,Washington County,UT,NA,5.892255892255893,NA
05001,Windsor County,VT,90.61032863849765,NA,NA
05156,Windsor County,VT,80.12519561815337,NA,NA
05201,Bennington County,VT,NA,NA,57.8125
05401,Chittenden County,VT,NA,76.17845117845118,NA
05676,Washington County,VT,NA,NA,87.39583333333333
05851,Caledonia County,VT,NA,73.82154882154882,NA
20190,Fairfax County,VA,NA,92.84511784511784,NA
22101,Fairfax County,VA,NA,NA,19.6875
22152,Fairfax County,VA,NA,36.868686868686865,NA
22191,Prince William County,VA,NA,NA,47.1875
22203,Arlington County,VA,NA,NA,59.06249999999999
22207,Arlington County,VA,NA,NA,19.270833333333336
22303,Fairfax County,VA,NA,58.16498316498316,NA
22314,Alexandria city,VA,NA,83.16498316498317,NA
22520,Westmoreland County,VA,NA,NA,63.33333333333333
22546,Caroline County,VA,NA,NA,51.5625
22655,Frederick County,VA,89.2018779342723,NA,NA
22701,Culpeper County,VA,NA,NA,12.604166666666666
22901,Albemarle County,VA,NA,NA,67.1875
22911,Albemarle County,VA,NA,NA,61.04166666666667
22932,Albemarle County,VA,98.43505477308294,NA,NA
22980,Waynesboro city,VA,NA,82.996632996633,NA
23060,Henrico County,VA,90.76682316118936,NA,NA
23113,Chesterfield County,VA,NA,NA,42.916666666666664
23139,Powhatan County,VA,NA,23.56902356902357,NA
23185,James City County,VA,NA,1.430976430976431,NA
23188,James City County,VA,NA,NA,0.10416666666666667
23192,Hanover County,VA,NA,NA,60.20833333333333
23227,Henrico County,VA,NA,74.83164983164983,NA
23502,Norfolk city,VA,18.779342723004692,NA,NA
24084,Pulaski County,VA,NA,63.63636363636363,NA
24171,Patrick County,VA,NA,55.387205387205384,NA
24201,Bristol city,VA,25.039123630672925,21.801346801346803,NA
24260,Russell County,VA,91.70579029733959,54.54545454545454,NA
24266,Russell County,VA,88.57589984350548,NA,NA
24333,Galax city,VA,28.012519561815335,NA,NA
24348,Grayson County,VA,92.48826291079813,NA,NA
24502,Lynchburg city,VA,NA,NA,20.625
24503,Lynchburg city,VA,NA,NA,16.979166666666668
24531,Pittsylvania County,VA,NA,83.75420875420876,NA
24541,Danville city,VA,NA,49.158249158249156,NA
24551,Bedford County,VA,95.30516431924883,NA,NA
24605,Tazewell County,VA,17.370892018779344,NA,NA
98008,King County,WA,NA,NA,94.0625
98012,Snohomish County,WA,NA,NA,7.604166666666666
98023,King County,WA,NA,6.8181818181818175,NA
98030,King County,WA,NA,42.17171717171717,NA
98031,King County,WA,NA,67.003367003367,NA
98032,King County,WA,NA,NA,99.58333333333333
98040,King County,WA,NA,NA,61.458333333333336
98042,King County,WA,75.8998435054773,NA,NA
98055,King County,WA,NA,NA,40.10416666666667
98059,King County,WA,26.447574334898277,NA,NA
98072,King County,WA,NA,50.75757575757576,NA
98075,King County,WA,NA,62.878787878787875,NA
98106,King County,WA,NA,36.61616161616162,NA
98109,King County,WA,NA,NA,95.10416666666667
98110,Kitsap County,WA,NA,NA,24.583333333333332
98118,King County,WA,NA,NA,46.145833333333336
98144,King County,WA,NA,NA,48.125
98155,King County,WA,25.821596244131456,NA,NA
98221,Skagit County,WA,90.92331768388107,NA,NA
98225,Whatcom County,WA,67.76212832550861,78.36700336700336,NA
98233,Skagit County,WA,96.71361502347418,NA,NA
98270,Snohomish County,WA,NA,NA,26.770833333333332
98274,Skagit County,WA,NA,54.71380471380471,NA
98277,Island County,WA,NA,11.784511784511785,NA
98294,Snohomish County,WA,NA,88.46801346801347,NA
98335,Pierce County,WA,NA,79.71380471380472,NA
98337,Kitsap County,WA,73.70892018779342,NA,NA
98338,Pierce County,WA,NA,16.4983164983165,NA
98368,Jefferson County,WA,NA,11.27946127946128,NA
98371,Pierce County,WA,NA,28.703703703703702,NA
98382,Clallam County,WA,NA,NA,52.39583333333333
98383,Kitsap County,WA,94.36619718309859,27.946127946127948,NA
98403,Pierce County,WA,NA,93.43434343434343,NA
98405,Pierce County,WA,NA,NA,33.75
98499,Pierce County,WA,24.88262910798122,NA,NA
98513,Thurston County,WA,NA,NA,35.520833333333336
98520,Grays Harbor County,WA,NA,92.25589225589226,NA
98524,Mason County,WA,NA,51.5993265993266,NA
98528,Mason County,WA,NA,NA,38.4375
98531,Lewis County,WA,NA,NA,15.729166666666666
98541,Grays Harbor County,WA,NA,81.14478114478115,NA
98580,Pierce County,WA,NA,56.9023569023569,NA
98632,Cowlitz County,WA,81.06416275430361,26.01010101010101,NA
98642,Clark County,WA,NA,97.05387205387206,NA
98801,Chelan County,WA,NA,38.72053872053872,NA
98812,Okanogan County,WA,NA,85.94276094276094,NA
98823,Grant County,WA,98.59154929577466,NA,NA
98841,Okanogan County,WA,NA,96.04377104377105,NA
98903,Yakima County,WA,NA,NA,30.9375
99006,Spokane County,WA,NA,58.080808080808076,NA
99301,Franklin County,WA,43.50547730829421,NA,4.0625
99350,Benton County,WA,NA,87.62626262626263,NA
20002,District of Columbia,DC,NA,3.0303030303030303,NA
20007,District of Columbia,DC,NA,NA,32.916666666666664
20009,District of Columbia,DC,NA,NA,91.875
20011,District of Columbia,DC,NA,NA,11.666666666666666
20020,District of Columbia,DC,40.375586854460096,NA,NA
24901,Greenbrier County,WV,NA,NA,91.35416666666667
25177,Kanawha County,WV,NA,58.838383838383834,35.3125
25314,Kanawha County,WV,NA,90.82491582491582,NA
25404,Berkeley County,WV,NA,93.77104377104376,NA
25411,Morgan County,WV,88.73239436619718,NA,82.91666666666667
25427,Berkeley County,WV,NA,NA,88.125
25430,Jefferson County,WV,43.81846635367762,NA,NA
25526,Putnam County,WV,58.99843505477308,NA,NA
25550,Mason County,WV,NA,15.993265993265993,NA
25560,Putnam County,WV,NA,86.19528619528619,NA
25705,Cabell County,WV,NA,29.46127946127946,NA
25901,Fayette County,WV,NA,25.757575757575758,NA
26041,Marshall County,WV,NA,66.66666666666666,20
26070,Brooke County,WV,NA,36.02693602693603,NA
26104,Wood County,WV,43.97496087636933,NA,NA
26155,Wetzel County,WV,NA,33.08080808080808,NA
26164,Jackson County,WV,38.810641627543035,NA,NA
26301,Harrison County,WV,NA,33.754208754208754,48.645833333333336
26330,Harrison County,WV,NA,NA,46.458333333333336
26378,Lewis County,WV,86.5414710485133,NA,NA
26426,Harrison County,WV,NA,93.60269360269359,NA
26537,Preston County,WV,35.0547730829421,NA,NA
26651,Nicholas County,WV,87.79342723004694,95.1178451178451,NA
53037,Washington County,WI,NA,50.92592592592593,97.29166666666667
53045,Waukesha County,WI,NA,89.39393939393939,NA
53051,Waukesha County,WI,NA,75.16835016835017,18.4375
53073,Sheboygan County,WI,NA,NA,86.45833333333334
53081,Sheboygan County,WI,NA,52.77777777777778,NA
53092,Ozaukee County,WI,NA,42.50841750841751,NA
53105,Racine County,WI,NA,21.71717171717172,NA
53118,Waukesha County,WI,NA,NA,90.20833333333333
53122,Waukesha County,WI,NA,62.79461279461279,NA
53130,Milwaukee County,WI,NA,NA,78.22916666666667
53140,Kenosha County,WI,5.477308294209703,NA,NA
53149,Waukesha County,WI,NA,75.67340067340066,NA
53151,Waukesha County,WI,NA,50.42087542087542,NA
53186,Waukesha County,WI,NA,NA,13.020833333333334
53208,Milwaukee County,WI,NA,14.14141414141414,NA
53209,Milwaukee County,WI,NA,48.31649831649832,3.0208333333333335
53211,Milwaukee County,WI,NA,59.17508417508418,NA
53214,Milwaukee County,WI,5.790297339593114,NA,NA
53217,Milwaukee County,WI,NA,76.51515151515152,76.5625
53218,Milwaukee County,WI,NA,NA,36.45833333333333
53227,Milwaukee County,WI,NA,29.37710437710438,NA
53405,Racine County,WI,NA,NA,5.3125
53520,Green County,WI,NA,74.66329966329967,NA
53538,Jefferson County,WI,NA,NA,97.70833333333333
53572,Dane County,WI,NA,63.2996632996633,NA
53581,Richland County,WI,NA,83.58585858585859,77.70833333333333
53589,Dane County,WI,NA,18.51851851851852,NA
53590,Dane County,WI,NA,NA,28.854166666666664
53711,Dane County,WI,NA,NA,20.833333333333336
53713,Dane County,WI,NA,30.218855218855218,NA
53714,Dane County,WI,NA,NA,32.29166666666667
53716,Dane County,WI,NA,28.872053872053872,NA
53807,Grant County,WI,NA,NA,94.89583333333333
53821,Crawford County,WI,NA,NA,58.854166666666664
53959,Sauk County,WI,NA,NA,87.60416666666667
54020,Polk County,WI,NA,NA,92.29166666666667
54165,Outagamie County,WI,NA,NA,99.27083333333333
54166,Shawano County,WI,NA,NA,41.979166666666664
54311,Brown County,WI,NA,NA,9.270833333333334
54401,Marathon County,WI,NA,NA,45.83333333333333
54603,La Crosse County,WI,NA,NA,5.520833333333333
54629,Buffalo County,WI,NA,99.66329966329967,NA
54630,Trempealeau County,WI,NA,NA,99.47916666666666
54701,Eau Claire County,WI,NA,30.555555555555557,NA
54729,Chippewa County,WI,NA,10.016835016835017,NA
54730,Dunn County,WI,NA,50,NA
54755,Buffalo County,WI,NA,43.51851851851852,NA
54868,Barron County,WI,42.09702660406886,NA,NA
54915,Outagamie County,WI,NA,NA,25
54935,Fond du Lac County,WI,NA,NA,1.5625
54986,Winnebago County,WI,NA,72.64309764309765,NA
82414,Park County,WY,NA,90.23569023569024,NA
82501,Fremont County,WY,NA,96.21212121212122,NA
82633,Converse County,WY,NA,NA,47.291666666666664
82718,Campbell County,WY,NA,38.97306397306397,NA
82801,Sheridan County,WY,NA,33.83838383838384,NA
