ZipCode,county,state,Adult,Retirement
35213,Jefferson County,AL,82.97872340425532,NA
35217,Jefferson County,AL,47.5177304964539,NA
35810,Madison County,AL,NA,20.21563342318059
36067,Autauga County,AL,35.22458628841608,46.36118598382749
36607,Mobile County,AL,78.72340425531915,NA
36618,Mobile County,AL,NA,83.55795148247978
36863,Chambers County,AL,88.17966903073287,NA
99611,Kenai Peninsula Borough,AK,84.39716312056737,NA
99669,Kenai Peninsula Borough,AK,NA,54.71698113207547
85012,Maricopa County,AZ,80.37825059101655,NA
85021,Maricopa County,AZ,38.77068557919622,NA
85234,Maricopa County,AZ,81.32387706855792,NA
85257,Maricopa County,AZ,NA,85.71428571428571
85268,Maricopa County,AZ,77.06855791962175,NA
85713,Pima County,AZ,NA,9.164420485175203
85741,Pima County,AZ,63.593380614657214,NA
86315,Yavapai County,AZ,NA,87.87061994609164
86409,Mohave County,AZ,NA,4.31266846361186
86503,Apache County,AZ,64.77541371158392,NA
71603,Jefferson County,AR,34.2789598108747,NA
71913,Garland County,AR,36.17021276595745,NA
72143,White County,AR,NA,10.242587601078167
72396,Cross County,AR,NA,71.42857142857143
72472,Poinsett County,AR,75.88652482269504,NA
72802,Pope County,AR,NA,65.49865229110512
90016,Los Angeles County,CA,42.08037825059102,NA
90034,Los Angeles County,CA,NA,80.59299191374663
90272,Los Angeles County,CA,82.50591016548464,NA
91406,Los Angeles County,CA,49.881796690307326,NA
91701,San Bernardino County,CA,NA,29.110512129380055
91752,Riverside County,CA,50.59101654846335,NA
91775,Los Angeles County,CA,NA,77.62803234501348
92037,San Diego County,CA,75.177304964539,NA
92064,San Diego County,CA,NA,36.65768194070081
92065,San Diego County,CA,47.99054373522459,NA
92071,San Diego County,CA,NA,72.50673854447439
92084,San Diego County,CA,55.55555555555556,NA
92102,San Diego County,CA,NA,57.41239892183289
92105,San Diego County,CA,18.203309692671397,NA
92117,San Diego County,CA,76.35933806146572,NA
92122,San Diego County,CA,67.37588652482269,NA
92129,San Diego County,CA,NA,46.900269541778975
92130,San Diego County,CA,80.85106382978722,NA
92210,Riverside County,CA,NA,79.24528301886792
92223,Riverside County,CA,29.314420803782504,NA
92241,Riverside County,CA,NA,80.05390835579514
92253,Riverside County,CA,NA,38.00539083557952
92308,San Bernardino County,CA,NA,25.067385444743934
92354,San Bernardino County,CA,76.8321513002364,NA
92620,Orange County,CA,NA,41.509433962264154
92647,Orange County,CA,21.98581560283688,NA
92656,Orange County,CA,34.04255319148936,NA
92882,Riverside County,CA,60.99290780141844,NA
92887,Orange County,CA,68.32151300236407,NA
93422,San Luis Obispo County,CA,70.2127659574468,NA
93455,Santa Barbara County,CA,31.914893617021278,NA
94112,San Francisco County,CA,NA,7.008086253369273
94124,San Francisco County,CA,55.319148936170215,NA
94598,Contra Costa County,CA,NA,53.09973045822103
94941,Marin County,CA,68.5579196217494,NA
94947,Marin County,CA,90.54373522458629,NA
94954,Sonoma County,CA,47.75413711583924,NA
95023,San Benito County,CA,NA,69.2722371967655
95073,Santa Cruz County,CA,96.2174940898345,NA
95337,San Joaquin County,CA,38.061465721040186,NA
95350,Stanislaus County,CA,48.226950354609926,NA
95403,Sonoma County,CA,NA,84.09703504043127
95616,Yolo County,CA,NA,66.84636118598382
95648,Placer County,CA,NA,22.641509433962266
95672,El Dorado County,CA,94.79905437352247,NA
95819,Sacramento County,CA,NA,97.03504043126685
95822,Sacramento County,CA,NA,41.77897574123989
95966,Butte County,CA,NA,8.89487870619946
95991,Sutter County,CA,NA,36.118598382749326
96002,Shasta County,CA,NA,64.6900269541779
80004,Jefferson County,CO,54.1371158392435,NA
80014,Arapahoe County,CO,NA,24.528301886792452
80017,Arapahoe County,CO,NA,86.25336927223721
80116,Douglas County,CO,NA,95.95687331536388
80210,Denver County,CO,53.664302600472816,NA
80247,Arapahoe County,CO,37.35224586288416,NA
80601,Adams County,CO,NA,37.735849056603776
80603,Weld County,CO,92.19858156028369,NA
80923,El Paso County,CO,NA,81.94070080862534
81007,Pueblo County,CO,NA,39.35309973045822
81401,Montrose County,CO,NA,94.33962264150944
81611,Pitkin County,CO,97.63593380614657,NA
06016,Hartford County,CT,83.21513002364065,NA
06105,Hartford County,CT,NA,69.54177897574124
06106,Hartford County,CT,NA,14.016172506738545
06119,Hartford County,CT,NA,94.87870619946092
06260,Windham County,CT,NA,76.54986522911051
06450,New Haven County,CT,6.382978723404255,NA
06511,New Haven County,CT,NA,11.590296495956872
06517,New Haven County,CT,NA,41.23989218328841
06770,New Haven County,CT,24.113475177304963,NA
06877,Fairfield County,CT,NA,59.02964959568733
06902,Fairfield County,CT,NA,11.859838274932615
19808,New Castle County,DE,NA,20.754716981132077
19943,Kent County,DE,65.24822695035462,NA
19947,Sussex County,DE,43.02600472813239,NA
19973,Sussex County,DE,45.39007092198582,NA
32060,Suwannee County,FL,NA,45.01347708894879
32063,Baker County,FL,83.68794326241135,NA
32065,Clay County,FL,40.8983451536643,NA
32073,Clay County,FL,23.87706855791962,NA
32209,Duval County,FL,21.749408983451538,NA
32444,Bay County,FL,90.30732860520094,NA
32446,Jackson County,FL,NA,61.99460916442049
32601,Alachua County,FL,87.2340425531915,NA
32608,Alachua County,FL,72.3404255319149,NA
32696,Levy County,FL,60.7565011820331,NA
32703,Orange County,FL,NA,18.598382749326145
32763,Volusia County,FL,NA,99.19137466307278
32784,Lake County,FL,NA,97.57412398921834
32789,Orange County,FL,NA,90.02695417789758
32935,Brevard County,FL,20.094562647754138,NA
33020,Broward County,FL,NA,90.56603773584906
33063,Broward County,FL,NA,28.30188679245283
33176,Miami-Dade County,FL,65.48463356973994,NA
33177,Miami-Dade County,FL,42.31678486997636,NA
33184,Miami-Dade County,FL,70.6855791962175,NA
33334,Broward County,FL,NA,87.33153638814017
33401,Palm Beach County,FL,NA,73.58490566037736
33702,Pinellas County,FL,50.82742316784869,NA
33803,Polk County,FL,NA,82.74932614555256
33823,Polk County,FL,NA,43.93530997304582
33844,Polk County,FL,36.64302600472813,NA
33952,Charlotte County,FL,25.768321513002363,NA
34465,Citrus County,FL,97.16312056737588,NA
34987,St. Lucie County,FL,NA,92.18328840970351
30022,Fulton County,GA,38.297872340425535,NA
30034,DeKalb County,GA,29.78723404255319,NA
30044,Gwinnett County,GA,NA,15.09433962264151
30052,Walton County,GA,NA,8.62533692722372
30127,Cobb County,GA,18.912529550827422,NA
30310,Fulton County,GA,NA,16.711590296495956
30458,Bulloch County,GA,NA,32.61455525606469
30474,Toombs County,GA,NA,74.66307277628033
30504,Hall County,GA,74.46808510638297,NA
30527,Hall County,GA,94.56264775413712,NA
30565,Jackson County,GA,91.01654846335697,NA
30650,Morgan County,GA,NA,68.46361185983828
30752,Dade County,GA,57.446808510638306,NA
31216,Bibb County,GA,76.59574468085107,NA
31217,Bibb County,GA,61.22931442080378,NA
31545,Wayne County,GA,NA,50.943396226415096
31620,Cook County,GA,69.97635933806147,NA
31906,Muscogee County,GA,NA,40.700808625336926
96701,Honolulu County,HI,NA,17.52021563342318
96818,Honolulu County,HI,NA,32.075471698113205
83301,Twin Falls County,ID,4.0189125295508275,NA
83402,Bonneville County,ID,88.65248226950354,NA
83616,Ada County,ID,NA,10.781671159029651
60007,Cook County,IL,NA,17.25067385444744
60013,McHenry County,IL,NA,32.34501347708895
60015,Lake County,IL,NA,59.83827493261455
60016,Cook County,IL,NA,63.07277628032345
60085,Lake County,IL,NA,29.919137466307276
60099,Lake County,IL,39.2434988179669,NA
60104,Cook County,IL,NA,60.64690026954178
60110,Kane County,IL,47.28132387706856,NA
60123,Kane County,IL,NA,15.902964959568733
60171,Cook County,IL,91.25295508274232,NA
60440,Will County,IL,20.56737588652482,NA
60441,Will County,IL,NA,63.61185983827493
60453,Cook County,IL,15.36643026004728,NA
60462,Cook County,IL,NA,6.199460916442049
60502,DuPage County,IL,NA,88.14016172506739
60516,DuPage County,IL,44.91725768321513,NA
60525,Cook County,IL,NA,14.285714285714285
60540,DuPage County,IL,29.078014184397162,NA
60611,Cook County,IL,NA,54.98652291105122
60615,Cook County,IL,55.7919621749409,NA
60622,Cook County,IL,35.69739952718676,NA
60641,Cook County,IL,NA,15.902964959568733
60643,Cook County,IL,51.536643026004725,NA
60652,Cook County,IL,28.368794326241137,NA
60957,Ford County,IL,92.67139479905437,NA
61102,Winnebago County,IL,NA,89.21832884097036
61354,LaSalle County,IL,NA,50.673854447439346
61356,Bureau County,IL,NA,63.881401617250674
61362,Bureau County,IL,NA,92.45283018867924
61523,Peoria County,IL,NA,75.74123989218329
61873,Champaign County,IL,NA,96.22641509433963
62454,Crawford County,IL,86.05200945626478,NA
62521,Macon County,IL,67.84869976359337,NA
62864,Jefferson County,IL,NA,38.274932614555254
46143,Johnson County,IN,23.64066193853428,NA
46214,Marion County,IN,NA,43.126684636118604
46304,Porter County,IN,13.002364066193852,NA
46373,Lake County,IN,NA,35.309973045822105
46614,St. Joseph County,IN,NA,52.56064690026954
46706,DeKalb County,IN,45.15366430260047,NA
46725,Whitley County,IN,30.969267139479907,NA
46774,Allen County,IN,58.86524822695035,NA
46815,Allen County,IN,33.09692671394799,NA
46947,Cass County,IN,NA,12.129380053908356
47060,Dearborn County,IN,97.39952718676122,NA
47304,Delaware County,IN,49.645390070921984,NA
47371,Jay County,IN,53.42789598108747,NA
47404,Monroe County,IN,62.64775413711584,NA
47882,Sullivan County,IN,NA,76.01078167115904
47932,Fountain County,IN,NA,70.61994609164421
50138,Marion County,IA,NA,58.22102425876011
50144,Decatur County,IA,NA,99.46091644204851
50171,Poweshiek County,IA,98.81796690307328,NA
50219,Marion County,IA,NA,51.482479784366575
50501,Webster County,IA,NA,34.23180592991914
50701,Black Hawk County,IA,33.80614657210402,NA
52068,Dubuque County,IA,NA,100
52641,Henry County,IA,NA,54.44743935309974
52732,Clinton County,IA,NA,25.87601078167116
66102,Wyandotte County,KS,NA,39.62264150943396
66434,Brown County,KS,86.52482269503547,NA
66605,Shawnee County,KS,NA,52.2911051212938
67045,Greenwood County,KS,99.05437352245863,NA
40065,Shelby County,KY,39.479905437352244,NA
40215,Jefferson County,KY,48.46335697399527,NA
40291,Jefferson County,KY,18.439716312056735,NA
40299,Jefferson County,KY,34.751773049645394,NA
40383,Woodford County,KY,68.08510638297872,NA
40514,Fayette County,KY,86.99763593380615,NA
41051,Kenton County,KY,NA,33.153638814016176
41056,Mason County,KY,NA,66.0377358490566
42701,Hardin County,KY,11.82033096926714,NA
42754,Grayson County,KY,58.62884160756501,NA
70001,Jefferson Parish,LA,21.513002364066196,NA
70118,Orleans Parish,LA,87.94326241134752,NA
70126,Orleans Parish,LA,NA,91.37466307277629
70508,Lafayette Parish,LA,NA,54.17789757412399
70601,Calcasieu Parish,LA,NA,8.086253369272237
03903,York County,ME,NA,76.28032345013477
04039,Cumberland County,ME,73.99527186761229,NA
04043,York County,ME,62.4113475177305,NA
04096,Cumberland County,ME,NA,93.80053908355795
04236,Androscoggin County,ME,NA,98.92183288409704
04240,Androscoggin County,ME,NA,2.6954177897574128
04401,Penobscot County,ME,2.127659574468085,NA
04605,Hancock County,ME,42.5531914893617,NA
04901,Kennebec County,ME,5.4373522458628845,NA
04917,Kennebec County,ME,87.47044917257683,NA
04957,Somerset County,ME,NA,82.21024258760107
04976,Somerset County,ME,16.312056737588655,NA
21045,Howard County,MD,NA,96.49595687331536
21050,Harford County,MD,NA,73.31536388140162
21085,Harford County,MD,NA,85.44474393530997
21117,Baltimore County,MD,NA,23.450134770889488
21133,Baltimore County,MD,56.26477541371159,NA
21208,Baltimore County,MD,NA,30.997304582210244
21213,Baltimore city,MD,NA,46.63072776280324
21217,Baltimore city,MD,NA,18.059299191374663
21629,Caroline County,MD,89.12529550827422,NA
21702,Frederick County,MD,NA,67.11590296495957
21784,Carroll County,MD,52.95508274231678,NA
21817,Somerset County,MD,NA,86.79245283018868
01056,Hampden County,MA,NA,35.04043126684636
01062,Hampshire County,MA,96.6903073286052,NA
01085,Hampden County,MA,NA,2.4258760107816713
01095,Hampden County,MA,NA,63.342318059299195
01109,Hampden County,MA,2.6004728132387704,NA
01151,Hampden County,MA,NA,50.13477088948787
01247,Berkshire County,MA,7.092198581560284,NA
01545,Worcester County,MA,64.30260047281324,NA
01550,Worcester County,MA,NA,21.024258760107816
01610,Worcester County,MA,34.515366430260045,NA
01742,Middlesex County,MA,52.4822695035461,35.57951482479784
01752,Middlesex County,MA,3.7825059101654848,NA
01879,Middlesex County,MA,28.132387706855795,NA
01913,Essex County,MA,25.768321513002363,NA
01950,Essex County,MA,NA,57.95148247978437
01969,Essex County,MA,84.86997635933807,NA
02066,Plymouth County,MA,83.451536643026,NA
02121,Suffolk County,MA,20.803782505910164,NA
02129,Suffolk County,MA,NA,25.336927223719673
02130,Suffolk County,MA,77.54137115839244,NA
02135,Suffolk County,MA,4.7281323877068555,NA
02139,Middlesex County,MA,NA,38.544474393531
02140,Middlesex County,MA,70.92198581560284,NA
02141,Middlesex County,MA,60.520094562647756,NA
02145,Middlesex County,MA,NA,9.703504043126685
02150,Suffolk County,MA,40.189125295508276,NA
02151,Suffolk County,MA,0,NA
02170,Norfolk County,MA,31.44208037825059,NA
02180,Middlesex County,MA,12.76595744680851,NA
02351,Plymouth County,MA,45.62647754137116,NA
02364,Plymouth County,MA,90.78014184397163,NA
02421,Middlesex County,MA,NA,35.57951482479784
02446,Norfolk County,MA,19.858156028368796,NA
02474,Middlesex County,MA,13.711583924349883,NA
02492,Norfolk County,MA,NA,26.954177897574123
02740,Bristol County,MA,NA,0
02748,Bristol County,MA,NA,88.67924528301887
02760,Bristol County,MA,NA,12.398921832884097
48033,Oakland County,MI,NA,30.727762803234505
48038,Macomb County,MI,NA,28.03234501347709
48044,Macomb County,MI,NA,6.738544474393531
48060,St. Clair County,MI,NA,29.380053908355798
48072,Oakland County,MI,48.69976359338061,NA
48105,Washtenaw County,MI,NA,78.4366576819407
48126,Wayne County,MI,NA,38.81401617250674
48127,Wayne County,MI,NA,53.36927223719676
48135,Wayne County,MI,22.458628841607563,NA
48158,Washtenaw County,MI,NA,78.70619946091644
48161,Monroe County,MI,NA,73.8544474393531
48162,Monroe County,MI,NA,3.5040431266846364
48180,Wayne County,MI,3.0732860520094563,NA
48188,Wayne County,MI,40.66193853427896,NA
48221,Wayne County,MI,25.295508274231675,NA
48228,Wayne County,MI,1.1820330969267139,NA
48230,Wayne County,MI,73.28605200945626,NA
48235,Wayne County,MI,NA,56.06469002695418
48236,Wayne County,MI,NA,14.555256064690028
48331,Oakland County,MI,35.46099290780142,NA
48359,Oakland County,MI,61.938534278959814,NA
48504,Genesee County,MI,NA,42.04851752021563
48821,Eaton County,MI,NA,84.63611859838275
48838,Montcalm County,MI,73.04964539007092,NA
48843,Livingston County,MI,NA,4.5822102425876015
49009,Kalamazoo County,MI,NA,7.547169811320755
49021,Eaton County,MI,75.41371158392435,NA
49024,Kalamazoo County,MI,56.73758865248227,20.485175202156334
49080,Allegan County,MI,NA,39.892183288409704
49099,St. Joseph County,MI,84.86997635933807,NA
49201,Jackson County,MI,NA,5.121293800539084
49333,Barry County,MI,66.19385342789597,NA
49412,Newaygo County,MI,NA,82.21024258760107
49423,Ottawa County,MI,NA,8.355795148247978
49431,Mason County,MI,NA,22.371967654986523
49509,Kent County,MI,41.13475177304964,NA
49685,Grand Traverse County,MI,NA,47.43935309973046
49866,Marquette County,MI,54.84633569739953,NA
55006,Isanti County,MN,98.10874704491725,NA
55066,Goodhue County,MN,NA,18.867924528301888
55109,Ramsey County,MN,NA,28.57142857142857
55112,Ramsey County,MN,39.00709219858156,NA
55304,Anoka County,MN,38.53427895981088,NA
55336,McLeod County,MN,NA,70.88948787061994
55337,Dakota County,MN,NA,21.563342318059302
55362,Wright County,MN,89.36170212765957,NA
55398,Sherburne County,MN,69.50354609929079,NA
55719,St. Louis County,MN,78.01418439716312,NA
55744,Itasca County,MN,NA,7.277628032345014
55746,St. Louis County,MN,55.082742316784874,NA
55901,Olmsted County,MN,NA,60.1078167115903
55944,Dodge County,MN,85.81560283687944,NA
56007,Freeborn County,MN,76.12293144208037,NA
56011,Scott County,MN,84.63356973995272,NA
56071,Scott County,MN,81.08747044917257,NA
56187,Nobles County,MN,NA,71.69811320754717
56267,Stevens County,MN,82.03309692671394,NA
56345,Morrison County,MN,79.66903073286052,36.38814016172507
56352,Stearns County,MN,80.37825059101655,NA
56560,Clay County,MN,40.42553191489361,NA
56701,Pennington County,MN,49.40898345153664,NA
56721,Polk County,MN,52.00945626477541,NA
38671,DeSoto County,MS,33.56973995271868,NA
38821,Monroe County,MS,59.810874704491724,NA
39194,Yazoo County,MS,NA,88.94878706199461
39426,Pearl River County,MS,53.90070921985816,NA
39452,George County,MS,26.24113475177305,NA
39520,Hancock County,MS,30.73286052009456,NA
39667,Walthall County,MS,NA,62.53369272237197
63021,St. Louis County,MO,41.60756501182033,NA
63034,St. Louis County,MO,NA,51.21293800539084
63040,St. Louis County,MO,98.3451536643026,NA
63043,St. Louis County,MO,NA,48.517520215633425
63052,Jefferson County,MO,73.5224586288416,NA
63111,St. Louis city,MO,NA,49.865229110512125
63125,St. Louis County,MO,41.371158392434985,27.762803234501348
63301,St. Charles County,MO,14.184397163120568,NA
63376,St. Charles County,MO,10.16548463356974,NA
63383,Warren County,MO,73.99527186761229,NA
63830,Pemiscot County,MO,NA,83.82749326145552
64057,Jackson County,MO,NA,47.97843665768194
64109,Jackson County,MO,27.89598108747045,NA
64113,Jackson County,MO,65.01182033096927,NA
64134,Jackson County,MO,NA,33.692722371967655
64152,Platte County,MO,20.33096926713948,NA
64503,Buchanan County,MO,56.50118203309693,NA
65203,Boone County,MO,24.349881796690305,NA
65686,Stone County,MO,NA,92.72237196765498
65708,Barry County,MO,NA,80.86253369272237
65721,Christian County,MO,NA,61.45552560646901
68008,Washington County,NE,NA,62.264150943396224
89142,Clark County,NV,81.56028368794325,NA
03045,Hillsborough County,NH,65.95744680851064,NA
03060,Hillsborough County,NH,7.801418439716312,NA
03079,Rockingham County,NH,NA,51.75202156334232
03103,Hillsborough County,NH,6.619385342789598,NA
03246,Belknap County,NH,NA,81.40161725067385
03301,Merrimack County,NH,NA,64.95956873315365
03766,Grafton County,NH,87.70685579196218,NA
03865,Rockingham County,NH,NA,87.6010781671159
07059,Somerset County,NJ,78.72340425531915,NA
07076,Union County,NJ,79.19621749408984,NA
07108,Essex County,NJ,13.238770685579196,NA
07305,Hudson County,NJ,14.420803782505912,NA
07481,Bergen County,NJ,67.61229314420804,NA
07621,Bergen County,NJ,NA,60.91644204851752
07747,Monmouth County,NJ,63.829787234042556,NA
07753,Monmouth County,NJ,5.673758865248227,NA
07860,Sussex County,NJ,26.47754137115839,NA
08012,Camden County,NJ,5.91016548463357,NA
08016,Burlington County,NJ,18.67612293144208,NA
08079,Salem County,NJ,NA,77.088948787062
08103,Camden County,NJ,22.22222222222222,NA
08360,Cumberland County,NJ,8.037825059101655,NA
08610,Mercer County,NJ,8.747044917257684,NA
08826,Hunterdon County,NJ,100,NA
87108,Bernalillo County,NM,NA,5.3908355795148255
87109,Bernalillo County,NM,NA,15.363881401617252
87110,Bernalillo County,NM,NA,58.490566037735846
87114,Bernalillo County,NM,8.983451536643026,NA
87301,McKinley County,NM,94.08983451536643,NA
87317,McKinley County,NM,96.92671394799054,NA
87401,San Juan County,NM,NA,71.96765498652292
87420,San Juan County,NM,NA,66.30727762803235
87507,Santa Fe County,NM,32.62411347517731,NA
87528,Rio Arriba County,NM,82.26950354609929,NA
88101,Curry County,NM,9.692671394799055,NA
88203,Chaves County,NM,48.93617021276596,NA
88240,Lea County,NM,NA,18.328840970350406
10022,New York County,NY,NA,48.24797843665768
10023,New York County,NY,NA,45.55256064690027
10028,New York County,NY,NA,30.18867924528302
10036,New York County,NY,36.40661938534279,NA
10451,Bronx County,NY,17.73049645390071,NA
10459,Bronx County,NY,4.964539007092199,NA
11030,Nassau County,NY,NA,98.11320754716981
11040,Nassau County,NY,NA,69.00269541778977
11207,Kings County,NY,0.7092198581560284,NA
11211,Kings County,NY,14.893617021276595,NA
11213,Kings County,NY,NA,5.929919137466308
11216,Kings County,NY,11.11111111111111,NA
11360,Queens County,NY,NA,79.51482479784366
11763,Suffolk County,NY,NA,43.39622641509434
11790,Suffolk County,NY,NA,94.07008086253369
12065,Saratoga County,NY,75.41371158392435,NA
12123,Rensselaer County,NY,NA,94.60916442048517
12180,Rensselaer County,NY,2.3640661938534278,NA
13021,Cayuga County,NY,NA,2.15633423180593
13031,Onondaga County,NY,NA,55.25606469002695
13032,Madison County,NY,NA,42.318059299191376
13037,Madison County,NY,58.392434988179666,NA
13045,Cortland County,NY,NA,9.433962264150944
13148,Seneca County,NY,24.822695035460992,NA
13323,Oneida County,NY,65.72104018912529,NA
13357,Herkimer County,NY,NA,81.13207547169812
13440,Oneida County,NY,1.8912529550827424,28.84097035040431
13760,Broome County,NY,19.38534278959811,0.5390835579514826
13862,Broome County,NY,66.66666666666666,NA
13901,Broome County,NY,4.25531914893617,NA
13905,Broome County,NY,1.4184397163120568,NA
14020,Genesee County,NY,NA,67.65498652291106
14052,Erie County,NY,NA,96.7654986522911
14111,Erie County,NY,95.0354609929078,NA
14127,Erie County,NY,15.839243498817968,NA
14131,Niagara County,NY,NA,69.81132075471697
14424,Ontario County,NY,17.257683215130022,NA
14425,Ontario County,NY,46.808510638297875,NA
14450,Monroe County,NY,NA,44.20485175202156
14469,Ontario County,NY,39.71631205673759,NA
14513,Wayne County,NY,5.200945626477541,NA
14519,Wayne County,NY,NA,61.18598382749326
14559,Monroe County,NY,NA,19.137466307277627
14564,Ontario County,NY,72.81323877068559,NA
14580,Monroe County,NY,0.9456264775413712,NA
14612,Monroe County,NY,NA,1.6172506738544474
14616,Monroe County,NY,3.546099290780142,NA
14620,Monroe County,NY,6.8557919621749415,NA
14623,Monroe County,NY,46.335697399527184,NA
14624,Monroe County,NY,16.548463356973993,NA
14772,Cattaraugus County,NY,85.57919621749409,NA
14810,Steuben County,NY,31.678486997635936,NA
14850,Tompkins County,NY,NA,6.46900269541779
27012,Forsyth County,NC,30.260047281323878,22.641509433962266
27253,Alamance County,NC,16.78486997635934,NA
27284,Forsyth County,NC,NA,1.8867924528301887
27526,Wake County,NC,26.95035460992908,NA
27527,Johnston County,NC,NA,98.38274932614556
27545,Wake County,NC,69.03073286052009,NA
27612,Wake County,NC,NA,37.46630727762803
28012,Gaston County,NC,NA,50.40431266846361
28016,Gaston County,NC,43.97163120567376,NA
28173,Union County,NC,NA,45.82210242587601
28210,Mecklenburg County,NC,NA,89.4878706199461
28211,Mecklenburg County,NC,30.49645390070922,NA
28303,Cumberland County,NC,53.191489361702125,NA
28328,Sampson County,NC,NA,74.93261455525607
28650,Catawba County,NC,62.88416075650118,NA
28721,Haywood County,NC,69.26713947990544,NA
28804,Buncombe County,NC,NA,74.12398921832884
58104,Cass County,ND,NA,12.668463611859837
58701,Ward County,ND,10.401891252955082,NA
43015,Delaware County,OH,15.602836879432624,NA
43028,Knox County,OH,NA,90.29649595687331
43050,Knox County,OH,NA,4.0431266846361185
43055,Licking County,OH,NA,1.078167115902965
43123,Franklin County,OH,8.51063829787234,NA
43211,Franklin County,OH,10.638297872340425,NA
43213,Franklin County,OH,NA,80.3234501347709
43512,Defiance County,OH,NA,4.8517520215633425
43558,Fulton County,OH,NA,85.98382749326146
43560,Lucas County,OH,25.53191489361702,NA
43701,Muskingum County,OH,NA,0.8086253369272237
43725,Guernsey County,OH,NA,53.63881401617251
43935,Belmont County,OH,45.8628841607565,NA
43938,Jefferson County,OH,88.4160756501182,NA
43950,Belmont County,OH,37.825059101654844,47.7088948787062
44001,Lorain County,OH,NA,3.7735849056603774
44035,Lorain County,OH,0.2364066193853428,NA
44039,Lorain County,OH,NA,2.964959568733154
44077,Lake County,OH,19.62174940898345,66.57681940700809
44087,Summit County,OH,NA,14.824797843665769
44094,Lake County,OH,19.148936170212767,NA
44105,Cuyahoga County,OH,26.713947990543733,NA
44107,Cuyahoga County,OH,1.6548463356973995,NA
44108,Cuyahoga County,OH,NA,83.01886792452831
44109,Cuyahoga County,OH,0.4728132387706856,NA
44111,Cuyahoga County,OH,11.347517730496454,NA
44118,Cuyahoga County,OH,NA,9.973045822102426
44128,Cuyahoga County,OH,17.02127659574468,NA
44135,Cuyahoga County,OH,NA,33.9622641509434
44137,Cuyahoga County,OH,6.1465721040189125,NA
44138,Cuyahoga County,OH,NA,21.293800539083556
44146,Cuyahoga County,OH,59.33806146572104,NA
44149,Cuyahoga County,OH,NA,16.9811320754717
44266,Portage County,OH,9.456264775413711,NA
44281,Medina County,OH,21.27659574468085,NA
44305,Summit County,OH,NA,34.50134770889488
44313,Summit County,OH,28.60520094562648,NA
44406,Mahoning County,OH,NA,25.60646900269542
44410,Trumbull County,OH,35.9338061465721,NA
44667,Wayne County,OH,NA,93.53099730458221
44805,Ashland County,OH,13.47517730496454,NA
44903,Richland County,OH,71.8676122931442,NA
45011,Butler County,OH,2.8368794326241136,NA
45013,Butler County,OH,NA,3.234501347708895
45215,Hamilton County,OH,54.60992907801418,NA
45217,Hamilton County,OH,NA,78.70619946091644
45238,Hamilton County,OH,14.657210401891252,15.633423180592992
45322,Montgomery County,OH,NA,46.091644204851754
45338,Preble County,OH,NA,88.40970350404312
45404,Montgomery County,OH,51.30023640661938,NA
45406,Montgomery County,OH,43.73522458628842,NA
45432,Greene County,OH,66.43026004728132,NA
45449,Montgomery County,OH,NA,77.35849056603774
45459,Montgomery County,OH,NA,19.946091644204852
45640,Jackson County,OH,NA,75.47169811320755
45656,Jackson County,OH,NA,91.64420485175202
45657,Scioto County,OH,95.50827423167848,NA
45690,Pike County,OH,17.96690307328605,NA
45750,Washington County,OH,12.293144208037825,31.536388140161726
45822,Mercer County,OH,NA,30.45822102425876
45891,Van Wert County,OH,NA,22.10242587601078
73025,Oklahoma County,OK,NA,56.334231805929925
73130,Oklahoma County,OK,59.57446808510638,NA
73701,Garfield County,OK,44.44444444444444,NA
74012,Tulsa County,OK,25.059101654846334,NA
74074,Payne County,OK,43.498817966903076,NA
74106,Tulsa County,OK,NA,72.77628032345014
74403,Muskogee County,OK,33.33333333333333,NA
74464,Cherokee County,OK,9.219858156028367,NA
97007,Washington County,OR,NA,26.1455525606469
97068,Clackamas County,OR,NA,55.79514824797843
97086,Clackamas County,OR,NA,67.9245283018868
97128,Yamhill County,OR,NA,27.22371967654987
97221,Multnomah County,OR,92.43498817966903,NA
97239,Multnomah County,OR,NA,95.68733153638814
97322,Linn County,OR,13.947990543735225,NA
97365,Lincoln County,OR,NA,73.04582210242587
97446,Linn County,OR,93.14420803782507,NA
97462,Douglas County,OR,NA,89.75741239892183
97470,Douglas County,OR,61.702127659574465,23.180592991913745
97504,Jackson County,OR,21.04018912529551,NA
97801,Umatilla County,OR,34.988179669030735,NA
15021,Washington County,PA,92.90780141843972,NA
15063,Washington County,PA,61.46572104018912,NA
15090,Allegheny County,PA,NA,70.35040431266847
15102,Allegheny County,PA,NA,26.41509433962264
15106,Allegheny County,PA,54.37352245862884,NA
15132,Allegheny County,PA,12.056737588652481,NA
15136,Allegheny County,PA,29.550827423167846,NA
15214,Allegheny County,PA,51.06382978723404,NA
15215,Allegheny County,PA,74.70449172576832,NA
15301,Washington County,PA,7.5650118203309695,NA
15330,Washington County,PA,99.52718676122932,NA
15501,Somerset County,PA,NA,90.83557951482479
15530,Somerset County,PA,93.85342789598108,NA
15683,Westmoreland County,PA,71.15839243498819,NA
16023,Butler County,PA,NA,91.10512129380054
16301,Venango County,PA,46.09929078014184,NA
16316,Crawford County,PA,77.06855791962175,NA
16502,Erie County,PA,41.843971631205676,NA
16601,Blair County,PA,86.7612293144208,70.08086253369272
16648,Blair County,PA,56.02836879432624,NA
16652,Huntingdon County,PA,37.11583924349882,NA
17055,Cumberland County,PA,NA,16.442048517520217
17110,Dauphin County,PA,NA,23.71967654986523
17111,Dauphin County,PA,16.07565011820331,NA
17112,Dauphin County,PA,46.57210401891253,NA
17325,Adams County,PA,NA,5.660377358490567
17404,York County,PA,36.87943262411347,13.477088948787062
17557,Lancaster County,PA,NA,67.38544474393531
17601,Lancaster County,PA,64.53900709219859,NA
17745,Clinton County,PA,37.5886524822695,NA
17815,Columbia County,PA,17.494089834515368,NA
18018,Lehigh County,PA,22.69503546099291,NA
18020,Northampton County,PA,NA,65.76819407008087
18040,Northampton County,PA,NA,40.97035040431267
18055,Northampton County,PA,78.25059101654847,NA
18067,Northampton County,PA,78.4869976359338,NA
18104,Lehigh County,PA,15.130023640661939,NA
18235,Carbon County,PA,NA,27.49326145552561
18612,Luzerne County,PA,74.94089834515366,NA
18902,Bucks County,PA,90.0709219858156,NA
18940,Bucks County,PA,60.047281323877066,NA
19020,Bucks County,PA,95.74468085106383,NA
19047,Bucks County,PA,24.58628841607565,NA
19050,Delaware County,PA,NA,13.20754716981132
19076,Delaware County,PA,94.32624113475178,NA
19107,Philadelphia County,PA,80.1418439716312,NA
19133,Philadelphia County,PA,NA,31.805929919137466
19134,Philadelphia County,PA,3.309692671394799,NA
19143,Philadelphia County,PA,50.11820330969267,1.3477088948787064
19145,Philadelphia County,PA,30.023640661938533,NA
19149,Philadelphia County,PA,8.274231678486997,NA
19335,Chester County,PA,47.04491725768322,NA
19390,Chester County,PA,72.57683215130024,NA
19454,Montgomery County,PA,86.28841607565012,NA
19512,Berks County,PA,58.156028368794324,NA
19522,Berks County,PA,62.174940898345156,NA
19539,Berks County,PA,99.29078014184397,NA
02817,Kent County,RI,81.7966903073286,NA
02879,Washington County,RI,NA,32.88409703504043
29036,Lexington County,SC,84.16075650118204,NA
29067,Lancaster County,SC,79.90543735224587,NA
29205,Richland County,SC,NA,95.14824797843666
29323,Spartanburg County,SC,NA,47.16981132075472
29414,Charleston County,SC,32.38770685579196,NA
29449,Charleston County,SC,NA,75.2021563342318
29582,Horry County,SC,NA,81.6711590296496
29649,Greenwood County,SC,63.35697399527187,NA
29687,Greenville County,SC,31.20567375886525,NA
29847,Edgefield County,SC,NA,98.6522911051213
57078,Yankton County,SD,NA,56.60377358490566
57301,Davison County,SD,NA,31.266846361185983
37042,Montgomery County,TN,NA,37.19676549865229
37064,Williamson County,TN,NA,49.056603773584904
37115,Davidson County,TN,67.139479905437355,NA
37128,Rutherford County,TN,NA,49.59568733153639
37221,Davidson County,TN,NA,60.37735849056604
37327,Sequatchie County,TN,NA,61.725067385444746
37813,Hamblen County,TN,27.659574468085108,NA
37814,Hamblen County,TN,NA,23.98921832884097
37932,Knox County,TN,NA,91.91374663072777
38125,Shelby County,TN,51.77304964539007,NA
75009,Collin County,TX,NA,86.52291105121293
75039,Dallas County,TX,88.88888888888889,NA
75077,Denton County,TX,NA,78.16711590296495
75104,Dallas County,TX,23.167848699763592,NA
75125,Ellis County,TX,NA,97.57412398921834
75209,Dallas County,TX,NA,67.9245283018868
75703,Smith County,TX,NA,24.258760107816713
75766,Cherokee County,TX,NA,7.816711590296496
75951,Jasper County,TX,NA,42.318059299191376
76001,Tarrant County,TX,52.24586288416076,NA
76008,Parker County,TX,96.45390070921985,NA
76020,Tarrant County,TX,71.39479905437352,NA
76023,Wise County,TX,89.83451536643025,NA
76033,Johnson County,TX,NA,36.92722371967655
76063,Tarrant County,TX,NA,43.66576819407008
76110,Tarrant County,TX,NA,48.78706199460917
76227,Denton County,TX,97.87234042553192,NA
76522,Coryell County,TX,NA,12.93800539083558
76528,Coryell County,TX,28.841607565011824,NA
76539,Lampasas County,TX,98.581560283687935,NA
76577,Milam County,TX,99.76359338061465,NA
77007,Harris County,TX,50.35460992907801,NA
77019,Harris County,TX,66.903073286052,NA
77054,Harris County,TX,70.44917257683215,NA
77064,Harris County,TX,NA,74.12398921832884
77066,Harris County,TX,89.59810874704492,55.525606469002696
77091,Harris County,TX,73.75886524822694,NA
77316,Montgomery County,TX,NA,59.56873315363881
77406,Fort Bend County,TX,NA,64.42048517520216
77433,Harris County,TX,12.529550827423167,NA
77479,Fort Bend County,TX,NA,72.23719676549865
77520,Harris County,TX,68.79432624113475,NA
77551,Galveston County,TX,NA,24.797843665768195
77619,Jefferson County,TX,NA,97.30458221024259
77627,Jefferson County,TX,NA,84.36657681940702
77632,Orange County,TX,49.1725768321513,NA
77657,Hardin County,TX,NA,59.299191374663074
77662,Orange County,TX,42.78959810874704,NA
77833,Washington County,TX,43.97163120567376,NA
78045,Webb County,TX,23.404255319148938,NA
78233,Bexar County,TX,39.952718676122934,NA
78521,Cameron County,TX,32.15130023640662,17.78975741239892
78664,Williamson County,TX,43.262411347517734,NA
78669,Travis County,TX,91.725768321513,NA
78723,Travis County,TX,57.68321513002365,NA
78734,Travis County,TX,NA,68.73315363881402
79904,El Paso County,TX,63.12056737588653,NA
84009,Salt Lake County,UT,NA,57.14285714285714
84037,Davis County,UT,NA,62.53369272237197
84078,Uintah County,UT,NA,34.50134770889488
84095,Salt Lake County,UT,NA,26.68463611859838
84096,Salt Lake County,UT,27.18676122931442,NA
84108,Salt Lake County,UT,79.43262411347519,NA
84117,Salt Lake County,UT,71.63120567375887,NA
84660,Utah County,UT,64.0661938534279,93.26145552560648
05091,Windsor County,VT,NA,92.99191374663073
05452,Chittenden County,VT,NA,33.42318059299191
05661,Lamoille County,VT,72.10401891252955,NA
20147,Loudoun County,VA,NA,53.908355795148246
22015,Fairfax County,VA,NA,44.74393530997305
22101,Fairfax County,VA,NA,45.28301886792453
22192,Prince William County,VA,NA,39.083557951482476
22301,Alexandria city,VA,NA,95.4177897574124
22306,Fairfax County,VA,NA,44.474393530997304
22815,Rockingham County,VA,83.92434988179669,NA
22901,Albemarle County,VA,32.860520094562645,NA
23181,King William County,VA,NA,84.90566037735849
23192,Hanover County,VA,95.27186761229315,NA
23231,Henrico County,VA,22.93144208037825,NA
23320,Chesapeake city,VA,57.919621749408975,NA
23669,Hampton city,VA,NA,13.746630727762804
24014,Roanoke city,VA,82.74231678486997,NA
24017,Roanoke city,VA,NA,40.16172506738545
24066,Botetourt County,VA,95.98108747044918,NA
24151,Franklin County,VA,NA,49.32614555256065
24477,Augusta County,VA,56.973995271867615,NA
24521,Amherst County,VA,77.77777777777779,NA
98028,King County,WA,NA,63.881401617250674
98029,King County,WA,60.28368794326241,NA
98117,King County,WA,NA,52.02156334231805
98119,King County,WA,85.34278959810875,NA
98126,King County,WA,NA,57.68194070080862
98225,Whatcom County,WA,52.71867612293144,NA
98239,Island County,WA,NA,58.760107816711596
98335,Pierce County,WA,57.21040189125296,NA
98371,Pierce County,WA,NA,52.83018867924528
98902,Yakima County,WA,59.10165484633569,NA
98951,Yakima County,WA,NA,85.17520215633422
99206,Spokane County,WA,44.680851063829785,NA
99350,Benton County,WA,91.48936170212765,NA
20007,District of Columbia,DC,NA,65.22911051212938
20019,District of Columbia,DC,4.491725768321513,NA
25840,Fayette County,WV,NA,77.89757412398922
26301,Harrison County,WV,NA,11.05121293800539
53076,Washington County,WI,NA,99.73045822102425
53081,Sheboygan County,WI,NA,56.8733153638814
53140,Kenosha County,WI,11.583924349881796,NA
53142,Kenosha County,WI,9.929078014184398,19.40700808625337
53190,Walworth County,WI,NA,83.28840970350404
53206,Milwaukee County,WI,NA,10.512129380053908
53213,Milwaukee County,WI,NA,29.649595687331537
53221,Milwaukee County,WI,NA,19.67654986522911
53223,Milwaukee County,WI,NA,11.320754716981133
53228,Milwaukee County,WI,NA,42.857142857142854
53405,Racine County,WI,7.328605200945626,NA
53511,Rock County,WI,NA,0.2695417789757413
53527,Dane County,WI,NA,87.06199460916442
53704,Dane County,WI,10.874704491725769,NA
53959,Sauk County,WI,NA,40.16172506738545
54020,Polk County,WI,69.73995271867612,NA
54154,Oconto County,WI,91.96217494089835,NA
54603,La Crosse County,WI,NA,21.83288409703504
54656,Monroe County,WI,NA,71.15902964959568
54901,Winnebago County,WI,27.423167848699766,NA
54937,Fond du Lac County,WI,NA,79.78436657681941
54944,Outagamie County,WI,93.61702127659575,NA
54961,Waupaca County,WI,NA,76.81940700808624
82520,Fremont County,WY,93.3806146572104,NA
