ZipCode,county,state,Adult,Retirement
35586,Lamar County,AL,NA,98.80952380952381
36201,Calhoun County,AL,40.74074074074074,NA
36608,Mobile County,AL,NA,60.71428571428571
99518,Anchorage Municipality,AK,94.44444444444444,NA
85007,Maricopa County,AZ,17.12962962962963,NA
85715,Pima County,AZ,94.9074074074074,NA
85730,Pima County,AZ,38.88888888888889,NA
85737,Pima County,AZ,NA,63.095238095238095
85750,Pima County,AZ,NA,88.69047619047619
90034,Los Angeles County,CA,57.407407407407405,NA
90230,Los Angeles County,CA,98.14814814814815,NA
90249,Los Angeles County,CA,NA,94.04761904761905
90272,Los Angeles County,CA,NA,79.76190476190477
90501,Los Angeles County,CA,NA,71.42857142857143
90640,Los Angeles County,CA,NA,45.23809523809524
91016,Los Angeles County,CA,NA,100
91301,Los Angeles County,CA,84.72222222222221,NA
91405,Los Angeles County,CA,NA,58.333333333333336
91765,Los Angeles County,CA,77.31481481481481,NA
92026,San Diego County,CA,NA,62.5
92254,Riverside County,CA,99.07407407407408,NA
92504,Riverside County,CA,NA,67.85714285714286
92551,Riverside County,CA,78.70370370370371,NA
92881,Riverside County,CA,NA,83.92857142857143
93003,Ventura County,CA,24.537037037037038,NA
93010,Ventura County,CA,46.75925925925926,NA
93065,Ventura County,CA,NA,34.523809523809526
93550,Los Angeles County,CA,20.833333333333336,NA
93901,Monterey County,CA,NA,82.73809523809523
94103,San Francisco County,CA,19.90740740740741,NA
94114,San Francisco County,CA,62.96296296296296,NA
94132,San Francisco County,CA,87.03703703703704,NA
94303,San Mateo County,CA,41.2037037037037,NA
94536,Alameda County,CA,45.83333333333333,NA
94610,Alameda County,CA,NA,80.35714285714286
95118,Santa Clara County,CA,74.07407407407408,NA
95125,Santa Clara County,CA,NA,35.714285714285715
95608,Sacramento County,CA,55.092592592592595,NA
95621,Sacramento County,CA,NA,50
95628,Sacramento County,CA,NA,57.738095238095234
95757,Sacramento County,CA,85.18518518518519,NA
95834,Sacramento County,CA,NA,85.71428571428571
96001,Shasta County,CA,34.25925925925926,NA
80014,Arapahoe County,CO,NA,39.88095238095239
80016,Arapahoe County,CO,36.11111111111111,NA
80031,Adams County,CO,53.24074074074075,NA
80116,Douglas County,CO,100,NA
80127,Jefferson County,CO,62.5,NA
80238,Denver County,CO,86.11111111111111,NA
81505,Mesa County,CO,92.12962962962963,NA
06053,Hartford County,CT,17.59259259259259,NA
06112,Hartford County,CT,27.77777777777778,NA
06114,Hartford County,CT,27.314814814814813,NA
06277,Windham County,CT,89.35185185185185,NA
06281,Windham County,CT,76.85185185185185,NA
06484,Fairfield County,CT,NA,44.642857142857146
06854,Fairfield County,CT,61.111111111111114,NA
33015,Miami-Dade County,FL,66.20370370370371,NA
33030,Miami-Dade County,FL,58.79629629629629,NA
33405,Palm Beach County,FL,90.27777777777779,NA
33606,Hillsborough County,FL,91.20370370370371,NA
33613,Hillsborough County,FL,56.94444444444444,NA
33647,Hillsborough County,FL,65.27777777777779,NA
33703,Pinellas County,FL,69.44444444444444,NA
34677,Pinellas County,FL,NA,86.30952380952381
30032,DeKalb County,GA,NA,22.023809523809522
30157,Paulding County,GA,40.27777777777778,NA
30308,Fulton County,GA,NA,93.45238095238095
30312,Fulton County,GA,73.14814814814815,NA
30518,Gwinnett County,GA,51.388888888888886,NA
30906,Richmond County,GA,13.425925925925927,45.83333333333333
31791,Worth County,GA,66.66666666666666,NA
96789,Honolulu County,HI,NA,16.071428571428573
96816,Honolulu County,HI,NA,32.73809523809524
83617,Gem County,ID,82.4074074074074,NA
83716,Ada County,ID,NA,57.14285714285714
60025,Cook County,IL,NA,8.928571428571429
60051,McHenry County,IL,NA,39.285714285714285
60076,Cook County,IL,NA,36.904761904761905
60085,Lake County,IL,29.629629629629626,NA
60093,Cook County,IL,NA,65.47619047619048
60191,DuPage County,IL,NA,89.28571428571429
60302,Cook County,IL,46.2962962962963,NA
60419,Cook County,IL,NA,82.14285714285714
60430,Cook County,IL,90.74074074074075,NA
60438,Cook County,IL,59.72222222222222,NA
60540,DuPage County,IL,42.592592592592595,NA
60605,Cook County,IL,NA,60.11904761904761
60611,Cook County,IL,88.42592592592592,35.11904761904761
60616,Cook County,IL,NA,19.642857142857142
60622,Cook County,IL,50.46296296296296,NA
60624,Cook County,IL,25,40.476190476190474
60640,Cook County,IL,NA,14.880952380952381
60641,Cook County,IL,NA,30.952380952380953
60644,Cook County,IL,NA,25
60649,Cook County,IL,22.22222222222222,17.261904761904763
60655,Cook County,IL,43.05555555555556,NA
62526,Macon County,IL,18.98148148148148,NA
46140,Hancock County,IN,86.57407407407408,NA
46201,Marion County,IN,30.09259259259259,NA
46226,Marion County,IN,NA,29.761904761904763
46383,Porter County,IN,14.351851851851851,NA
50265,Polk County,IA,81.01851851851852,NA
50401,Cerro Gordo County,IA,NA,18.452380952380953
50441,Franklin County,IA,NA,64.88095238095238
52240,Johnson County,IA,NA,33.92857142857143
52761,Muscatine County,IA,18.51851851851852,NA
52806,Scott County,IA,NA,50.595238095238095
66617,Shawnee County,KS,NA,92.26190476190477
67005,Cowley County,KS,68.05555555555556,NA
40165,Bullitt County,KY,NA,32.142857142857146
70047,St. Charles Parish,LA,80.0925925925926,NA
70438,Washington Parish,LA,21.296296296296298,NA
70601,Calcasieu Parish,LA,NA,16.666666666666664
70802,East Baton Rouge Parish,LA,11.11111111111111,NA
04074,Cumberland County,ME,77.77777777777779,NA
04843,Knox County,ME,96.29629629629629,NA
20706,Prince George's County,MD,NA,69.64285714285714
21144,Anne Arundel County,MD,88.88888888888889,NA
21213,Baltimore city,MD,64.81481481481481,61.904761904761905
21214,Baltimore city,MD,NA,80.95238095238095
21228,Baltimore County,MD,NA,23.214285714285715
21230,Baltimore city,MD,48.61111111111111,NA
21231,Baltimore city,MD,NA,79.16666666666666
21401,Anne Arundel County,MD,NA,46.42857142857143
21903,Cecil County,MD,97.68518518518519,NA
01104,Hampden County,MA,3.2407407407407405,NA
01510,Worcester County,MA,NA,21.428571428571427
01588,Worcester County,MA,NA,55.952380952380956
01701,Middlesex County,MA,16.203703703703702,NA
01720,Middlesex County,MA,47.22222222222222,NA
01752,Middlesex County,MA,NA,25.595238095238095
01821,Middlesex County,MA,NA,7.142857142857142
01880,Middlesex County,MA,NA,11.30952380952381
01950,Essex County,MA,32.407407407407405,NA
01966,Essex County,MA,NA,76.19047619047619
02030,Norfolk County,MA,95.37037037037037,NA
02115,Suffolk County,MA,12.5,8.333333333333332
02119,Suffolk County,MA,30.555555555555557,NA
02120,Suffolk County,MA,8.796296296296296,NA
02122,Suffolk County,MA,2.7777777777777777,NA
02126,Suffolk County,MA,6.481481481481481,NA
02128,Suffolk County,MA,0.4629629629629629,5.357142857142857
02141,Middlesex County,MA,NA,75
02150,Suffolk County,MA,1.3888888888888888,NA
02151,Suffolk County,MA,18.055555555555554,NA
02152,Suffolk County,MA,NA,48.214285714285715
02155,Middlesex County,MA,63.42592592592593,NA
02180,Middlesex County,MA,NA,72.61904761904762
02184,Norfolk County,MA,38.425925925925924,NA
02186,Norfolk County,MA,22.685185185185187,NA
02481,Norfolk County,MA,NA,67.26190476190477
02492,Norfolk County,MA,NA,41.66666666666667
02554,Nantucket County,MA,NA,66.66666666666666
02726,Bristol County,MA,43.51851851851852,NA
02740,Bristol County,MA,NA,0.5952380952380952
02780,Bristol County,MA,0,6.547619047619048
48033,Oakland County,MI,NA,47.023809523809526
48048,Macomb County,MI,NA,97.02380952380952
48093,Macomb County,MI,31.01851851851852,NA
48125,Wayne County,MI,NA,60.71428571428571
48126,Wayne County,MI,49.53703703703704,NA
48170,Wayne County,MI,21.75925925925926,NA
48180,Wayne County,MI,25.462962962962965,NA
48185,Wayne County,MI,9.25925925925926,NA
48204,Wayne County,MI,15.74074074074074,NA
48205,Wayne County,MI,33.7962962962963,NA
48214,Wayne County,MI,NA,74.40476190476191
48220,Oakland County,MI,61.57407407407407,95.23809523809523
48236,Wayne County,MI,45.370370370370374,NA
48239,Wayne County,MI,14.814814814814813,NA
48240,Wayne County,MI,NA,70.23809523809523
48302,Oakland County,MI,NA,59.523809523809526
49071,Van Buren County,MI,82.87037037037037,NA
49091,St. Joseph County,MI,NA,52.976190476190474
49418,Kent County,MI,79.16666666666666,NA
49456,Ottawa County,MI,58.333333333333336,NA
49464,Ottawa County,MI,65.27777777777779,NA
49659,Antrim County,MI,NA,91.07142857142857
49866,Marquette County,MI,70.37037037037037,NA
55125,Washington County,MN,NA,87.5
55409,Hennepin County,MN,NA,98.21428571428571
55425,Hennepin County,MN,84.25925925925925,NA
56069,Le Sueur County,MN,97.22222222222221,NA
56345,Morrison County,MN,NA,53.57142857142857
56601,Beltrami County,MN,11.574074074074074,NA
56701,Pennington County,MN,31.01851851851852,NA
39531,Harrison County,MS,NA,58.92857142857143
63043,St. Louis County,MO,67.12962962962963,NA
63121,St. Louis County,MO,43.98148148148148,NA
63385,St. Charles County,MO,NA,26.190476190476193
64155,Clay County,MO,36.574074074074076,NA
64772,Vernon County,MO,55.55555555555556,NA
59404,Cascade County,MT,NA,20.238095238095237
59714,Gallatin County,MT,76.38888888888889,NA
68355,Richardson County,NE,NA,92.85714285714286
03077,Rockingham County,NH,79.62962962962963,NA
03079,Rockingham County,NH,NA,33.33333333333333
03275,Merrimack County,NH,85.64814814814815,NA
03431,Cheshire County,NH,NA,41.07142857142857
07104,Essex County,NJ,49.074074074074076,NA
08012,Camden County,NJ,9.722222222222223,NA
08820,Middlesex County,NJ,NA,38.095238095238095
87031,Valencia County,NM,NA,44.047619047619044
87106,Bernalillo County,NM,34.72222222222222,NA
87109,Bernalillo County,NM,28.703703703703702,NA
10002,New York County,NY,4.62962962962963,NA
10011,New York County,NY,52.77777777777778,NA
10016,New York County,NY,NA,64.28571428571429
10025,New York County,NY,NA,23.809523809523807
10026,New York County,NY,71.29629629629629,NA
10027,New York County,NY,6.944444444444445,NA
10029,New York County,NY,7.4074074074074066,NA
10452,Bronx County,NY,NA,2.976190476190476
10455,Bronx County,NY,35.18518518518518,NA
10457,Bronx County,NY,NA,13.690476190476192
10458,Bronx County,NY,0.9259259259259258,1.7857142857142856
10460,Bronx County,NY,NA,4.761904761904762
10466,Bronx County,NY,6.018518518518518,NA
10469,Bronx County,NY,NA,13.095238095238097
10538,Westchester County,NY,98.61111111111111,NA
10977,Rockland County,NY,NA,70.83333333333334
11201,Kings County,NY,32.870370370370374,NA
11203,Kings County,NY,48.148148148148145,NA
11209,Kings County,NY,NA,68.45238095238095
11210,Kings County,NY,NA,71.42857142857143
11213,Kings County,NY,7.87037037037037,NA
11226,Kings County,NY,4.166666666666666,NA
11233,Kings County,NY,NA,4.166666666666666
11237,Kings County,NY,37.03703703703704,NA
11779,Suffolk County,NY,NA,63.69047619047619
12061,Rensselaer County,NY,91.66666666666666,NA
12078,Fulton County,NY,NA,73.80952380952381
12303,Schenectady County,NY,51.85185185185185,NA
13662,St. Lawrence County,NY,13.88888888888889,NA
13760,Broome County,NY,NA,1.1904761904761905
13797,Broome County,NY,96.75925925925925,NA
14132,Niagara County,NY,NA,87.5
14209,Erie County,NY,NA,83.33333333333334
14215,Erie County,NY,NA,12.5
14227,Erie County,NY,37.5,NA
14445,Monroe County,NY,54.166666666666664,NA
14612,Monroe County,NY,NA,5.952380952380952
14870,Steuben County,NY,NA,96.42857142857143
27021,Stokes County,NC,80.55555555555556,NA
27104,Forsyth County,NC,NA,10.714285714285714
27106,Forsyth County,NC,20.37037037037037,NA
27127,Forsyth County,NC,23.14814814814815,NA
27265,Guilford County,NC,31.944444444444443,NA
27405,Guilford County,NC,50.92592592592593,NA
27587,Wake County,NC,NA,17.857142857142858
58078,Cass County,ND,NA,28.57142857142857
58501,Burleigh County,ND,NA,42.857142857142854
43138,Hocking County,OH,44.44444444444444,NA
44011,Lorain County,OH,44.907407407407405,NA
44087,Summit County,OH,NA,29.166666666666668
44104,Cuyahoga County,OH,NA,68.45238095238095
44105,Cuyahoga County,OH,1.8518518518518516,NA
44106,Cuyahoga County,OH,NA,27.380952380952383
44108,Cuyahoga County,OH,26.851851851851855,NA
44111,Cuyahoga County,OH,NA,7.738095238095238
44118,Cuyahoga County,OH,72.68518518518519,NA
44123,Cuyahoga County,OH,NA,36.30952380952381
44125,Cuyahoga County,OH,2.314814814814815,NA
44129,Cuyahoga County,OH,23.61111111111111,NA
44133,Cuyahoga County,OH,39.81481481481482,NA
44144,Cuyahoga County,OH,19.444444444444446,15.476190476190476
44212,Medina County,OH,3.7037037037037033,3.571428571428571
44319,Summit County,OH,64.35185185185185,NA
44601,Stark County,OH,12.962962962962962,NA
44646,Stark County,OH,NA,22.61904761904762
44857,Huron County,OH,NA,14.285714285714285
44875,Richland County,OH,54.629629629629626,NA
45044,Butler County,OH,8.333333333333332,NA
45209,Hamilton County,OH,NA,97.61904761904762
45239,Hamilton County,OH,25.925925925925924,NA
45406,Montgomery County,OH,24.074074074074073,NA
45424,Montgomery County,OH,16.666666666666664,NA
45601,Ross County,OH,10.185185185185185,0
45648,Scioto County,OH,37.96296296296296,NA
45750,Washington County,OH,NA,2.380952380952381
73109,Oklahoma County,OK,75.46296296296296,NA
74361,Mayes County,OK,NA,77.38095238095238
74571,Le Flore County,OK,99.53703703703704,NA
97035,Clackamas County,OR,81.94444444444444,NA
97322,Linn County,OR,NA,26.785714285714285
97444,Curry County,OR,93.05555555555556,NA
15221,Allegheny County,PA,28.240740740740737,NA
15236,Allegheny County,PA,62.03703703703704,NA
15642,Westmoreland County,PA,NA,10.119047619047619
16214,Clarion County,PA,83.79629629629629,NA
16335,Crawford County,PA,NA,19.047619047619047
17070,Cumberland County,PA,57.870370370370374,NA
17078,Lebanon County,PA,NA,20.833333333333336
17103,Dauphin County,PA,52.31481481481482,NA
17104,Dauphin County,PA,NA,51.19047619047619
17112,Dauphin County,PA,NA,9.523809523809524
17751,Clinton County,PA,NA,86.90476190476191
17756,Lycoming County,PA,83.33333333333334,NA
17815,Columbia County,PA,26.38888888888889,NA
17820,Columbia County,PA,NA,91.66666666666666
17972,Schuylkill County,PA,73.61111111111111,NA
18801,Susquehanna County,PA,NA,77.97619047619048
18940,Bucks County,PA,NA,56.547619047619044
19004,Montgomery County,PA,95.83333333333334,NA
19146,Philadelphia County,PA,NA,73.21428571428571
02806,Bristol County,RI,NA,78.57142857142857
29486,Berkeley County,SC,70.83333333333334,NA
29651,Greenville County,SC,33.33333333333333,NA
57106,Minnehaha County,SD,NA,11.904761904761903
57701,Pennington County,SD,NA,31.547619047619047
37398,Franklin County,TN,60.18518518518518,NA
38109,Shelby County,TN,NA,30.357142857142854
75232,Dallas County,TX,60.18518518518518,NA
75801,Anderson County,TX,74.53703703703704,NA
76021,Tarrant County,TX,NA,55.35714285714286
76550,Lampasas County,TX,75,NA
77026,Harris County,TX,NA,90.47619047619048
77033,Harris County,TX,68.51851851851852,NA
77035,Harris County,TX,55.55555555555556,NA
77042,Harris County,TX,81.48148148148148,NA
77388,Harris County,TX,NA,47.61904761904761
77406,Fort Bend County,TX,59.25925925925925,NA
77505,Harris County,TX,75.92592592592592,NA
77551,Galveston County,TX,39.351851851851855,NA
77573,Galveston County,TX,15.277777777777779,38.69047619047619
77591,Galveston County,TX,68.98148148148148,NA
78228,Bexar County,TX,NA,89.88095238095238
78504,Hidalgo County,TX,53.24074074074075,NA
78633,Williamson County,TX,NA,24.404761904761905
84032,Wasatch County,UT,NA,84.52380952380952
84074,Tooele County,UT,5.555555555555555,NA
84123,Salt Lake County,UT,NA,54.761904761904766
05452,Chittenden County,VT,71.75925925925925,NA
05495,Chittenden County,VT,NA,76.78571428571429
20148,Loudoun County,VA,69.9074074074074,NA
22039,Fairfax County,VA,NA,85.11904761904762
23185,James City County,VA,50,NA
24112,Henry County,VA,NA,27.976190476190478
24588,Campbell County,VA,NA,99.40476190476191
98003,King County,WA,41.66666666666667,NA
98026,Snohomish County,WA,47.22222222222222,NA
98104,King County,WA,NA,54.166666666666664
98108,King County,WA,93.51851851851852,NA
98110,Kitsap County,WA,NA,48.80952380952381
98121,King County,WA,87.5,NA
98133,King County,WA,42.129629629629626,NA
98168,King County,WA,NA,43.452380952380956
98198,King County,WA,NA,42.26190476190476
98226,Whatcom County,WA,78.24074074074075,NA
98264,Whatcom County,WA,NA,81.54761904761905
98405,Pierce County,WA,NA,75.59523809523809
98682,Clark County,WA,72.22222222222221,NA
99352,Benton County,WA,NA,37.5
20003,District of Columbia,DC,63.888888888888886,NA
20008,District of Columbia,DC,87.96296296296296,NA
20019,District of Columbia,DC,5.092592592592593,NA
26181,Wood County,WV,NA,94.64285714285714
26201,Upshur County,WV,35.648148148148145,NA
26501,Monongalia County,WV,29.166666666666668,NA
26726,Mineral County,WV,56.481481481481474,NA
53147,Walworth County,WI,NA,51.19047619047619
53216,Milwaukee County,WI,12.037037037037036,NA
53224,Milwaukee County,WI,NA,66.07142857142857
53405,Racine County,WI,10.648148148148149,NA
53538,Jefferson County,WI,NA,49.404761904761905
53555,Columbia County,WI,NA,95.83333333333334
53562,Dane County,WI,93.98148148148148,NA
53575,Dane County,WI,92.5925925925926,NA
53717,Dane County,WI,89.81481481481481,NA
54603,La Crosse County,WI,67.5925925925926,NA
54650,La Crosse County,WI,NA,52.38095238095239
