ZipCode,county,state,Youth,Adult
35224,Jefferson County,AL,98.24561403508771,NA
35630,Lauderdale County,AL,NA,33.579335793357934
35633,Lauderdale County,AL,NA,58.671586715867164
36037,Butler County,AL,NA,60.51660516605166
36251,Clay County,AL,NA,92.25092250922509
99508,Anchorage Municipality,AK,NA,22.509225092250922
99603,Kenai Peninsula Borough,AK,NA,90.7749077490775
99669,Kenai Peninsula Borough,AK,71.9298245614035,NA
85032,Maricopa County,AZ,26.900584795321635,NA
85142,Maricopa County,AZ,11.11111111111111,NA
85143,Pinal County,AZ,36.84210526315789,NA
85204,Maricopa County,AZ,NA,18.45018450184502
85225,Maricopa County,AZ,NA,16.605166051660518
85286,Maricopa County,AZ,NA,38.74538745387454
85629,Pima County,AZ,56.14035087719298,NA
85741,Pima County,AZ,14.619883040935672,NA
86503,Apache County,AZ,NA,38.00738007380074
86556,Apache County,AZ,NA,91.88191881918819
71671,Bradley County,AR,NA,90.03690036900369
72206,Pulaski County,AR,NA,56.82656826568265
72401,Craighead County,AR,NA,19.557195571955717
90003,Los Angeles County,CA,NA,39.11439114391143
90011,Los Angeles County,CA,NA,61.62361623616236
90254,Los Angeles County,CA,75.43859649122807,NA
90504,Los Angeles County,CA,68.42105263157895,NA
90680,Orange County,CA,NA,62.36162361623616
90805,Los Angeles County,CA,NA,22.14022140221402
91324,Los Angeles County,CA,NA,77.12177121771218
91740,Los Angeles County,CA,NA,84.87084870848709
92131,San Diego County,CA,NA,94.4649446494465
92240,Riverside County,CA,NA,25.092250922509223
92307,San Bernardino County,CA,33.33333333333333,NA
92335,San Bernardino County,CA,NA,97.7859778597786
92352,San Bernardino County,CA,NA,97.41697416974169
92394,San Bernardino County,CA,NA,53.50553505535055
92509,Riverside County,CA,NA,59.77859778597786
92706,Orange County,CA,67.83625730994152,NA
92780,Orange County,CA,49.707602339181285,NA
92805,Orange County,CA,NA,28.782287822878228
92881,Riverside County,CA,NA,71.95571955719558
93030,Ventura County,CA,17.543859649122805,NA
93280,Kern County,CA,NA,90.40590405904058
93702,Fresno County,CA,NA,77.49077490774908
93705,Fresno County,CA,52.046783625730995,NA
93933,Monterey County,CA,NA,66.05166051660517
94102,San Francisco County,CA,NA,12.546125461254611
94133,San Francisco County,CA,NA,73.80073800738008
94303,San Mateo County,CA,NA,30.25830258302583
94506,Contra Costa County,CA,36.25730994152047,NA
94565,Contra Costa County,CA,NA,24.723247232472325
94585,Solano County,CA,NA,80.81180811808119
94588,Alameda County,CA,NA,88.19188191881919
94941,Marin County,CA,29.82456140350877,NA
95304,San Joaquin County,CA,NA,89.2988929889299
95358,Stanislaus County,CA,NA,32.47232472324723
95624,Sacramento County,CA,NA,51.66051660516605
95667,El Dorado County,CA,NA,35.05535055350554
95682,El Dorado County,CA,69.00584795321637,NA
95765,Placer County,CA,NA,70.11070110701108
95842,Sacramento County,CA,NA,74.16974169741697
80018,Arapahoe County,CO,NA,76.01476014760148
80020,Broomfield County,CO,NA,47.97047970479705
80127,Jefferson County,CO,NA,51.291512915129154
80219,Denver County,CO,NA,8.856088560885608
80421,Park County,CO,NA,96.6789667896679
80524,Larimer County,CO,NA,32.84132841328413
80631,Weld County,CO,NA,13.284132841328415
80817,El Paso County,CO,90.05847953216374,NA
81003,Pueblo County,CO,NA,67.15867158671587
81625,Moffat County,CO,NA,43.542435424354245
06076,Tolland County,CT,NA,71.58671586715867
06513,New Haven County,CT,23.391812865497073,NA
06608,Fairfield County,CT,61.40350877192983,NA
19805,New Castle County,DE,8.771929824561402,NA
32024,Columbia County,FL,NA,65.31365313653137
32117,Volusia County,FL,NA,36.162361623616235
32401,Bay County,FL,NA,41.32841328413284
32608,Alachua County,FL,NA,54.61254612546126
32754,Brevard County,FL,NA,74.90774907749078
32828,Orange County,FL,NA,40.59040590405904
32835,Orange County,FL,NA,82.28782287822878
33040,Monroe County,FL,NA,72.32472324723247
33146,Miami-Dade County,FL,NA,98.5239852398524
33182,Miami-Dade County,FL,85.96491228070175,NA
33186,Miami-Dade County,FL,NA,54.981549815498155
33513,Sumter County,FL,NA,81.54981549815497
33756,Pinellas County,FL,NA,49.44649446494465
34221,Manatee County,FL,NA,42.435424354243544
34601,Hernando County,FL,NA,53.874538745387454
34604,Hernando County,FL,83.62573099415205,NA
30115,Cherokee County,GA,NA,42.80442804428044
30127,Cobb County,GA,46.198830409356724,NA
30217,Heard County,GA,NA,67.52767527675276
30297,Clayton County,GA,NA,61.254612546125465
30453,Tattnall County,GA,NA,89.66789667896678
31204,Bibb County,GA,NA,35.42435424354243
31211,Bibb County,GA,NA,69.37269372693727
96766,Kauai County,HI,70.76023391812866,NA
96778,Hawaii County,HI,76.60818713450293,NA
96822,Honolulu County,HI,NA,43.91143911439114
83835,Kootenai County,ID,NA,60.147601476014756
60005,Cook County,IL,63.1578947368421,NA
60131,Cook County,IL,NA,70.84870848708486
60411,Cook County,IL,NA,17.343173431734318
60622,Cook County,IL,NA,39.85239852398524
60654,Cook County,IL,91.22807017543859,NA
62208,St. Clair County,IL,NA,85.60885608856088
62615,Sangamon County,IL,NA,100
62821,White County,IL,92.98245614035088,NA
46012,Madison County,IN,NA,40.959409594095945
46123,Hendricks County,IN,NA,52.767527675276746
46151,Morgan County,IN,60.23391812865497,NA
46201,Marion County,IN,NA,54.24354243542435
46312,Lake County,IN,NA,21.033210332103323
46324,Lake County,IN,28.07017543859649,NA
46350,LaPorte County,IN,NA,37.269372693726936
46360,LaPorte County,IN,NA,9.96309963099631
46368,Porter County,IN,NA,5.904059040590406
46410,Lake County,IN,18.71345029239766,NA
46806,Allen County,IN,55.55555555555556,NA
47371,Jay County,IN,NA,57.93357933579336
47374,Wayne County,IN,NA,25.830258302583026
47421,Lawrence County,IN,70.17543859649122,NA
47542,Dubois County,IN,76.0233918128655,NA
50036,Boone County,IA,NA,66.42066420664207
52402,Linn County,IA,NA,55.35055350553506
52632,Lee County,IA,64.91228070175438,NA
67210,Sedgwick County,KS,97.6608187134503,NA
67357,Labette County,KS,NA,78.22878228782287
40215,Jefferson County,KY,NA,22.878228782287824
40356,Jessamine County,KY,NA,18.081180811808117
40508,Fayette County,KY,NA,36.90036900369004
41339,Breathitt County,KY,NA,52.398523985239855
41465,Magoffin County,KY,NA,61.99261992619927
42001,McCracken County,KY,NA,31.365313653136536
42141,Barren County,KY,25.730994152046783,NA
42376,Daviess County,KY,88.30409356725146,NA
70058,Jefferson Parish,LA,NA,5.166051660516605
70072,Jefferson Parish,LA,NA,2.214022140221402
70119,Orleans Parish,LA,NA,8.487084870848708
70560,Iberia Parish,LA,3.508771929824561,NA
70601,Calcasieu Parish,LA,9.35672514619883,NA
70807,East Baton Rouge Parish,LA,59.06432748538012,NA
04210,Androscoggin County,ME,NA,23.247232472324722
04401,Penobscot County,ME,NA,17.712177121771216
20886,Montgomery County,MD,NA,75.64575645756457
21040,Harford County,MD,NA,62.73062730627307
21120,Baltimore County,MD,93.56725146198829,NA
21217,Baltimore city,MD,NA,26.199261992619927
21218,Baltimore city,MD,NA,14.760147601476014
01201,Berkshire County,MA,2.923976608187134,NA
01301,Franklin County,MA,46.783625730994146,16.236162361623617
01453,Worcester County,MA,NA,1.4760147601476015
01605,Worcester County,MA,0.5847953216374269,NA
01801,Middlesex County,MA,NA,85.97785977859779
01826,Middlesex County,MA,NA,7.380073800738007
01833,Essex County,MA,NA,80.07380073800738
01851,Middlesex County,MA,NA,4.428044280442804
01960,Essex County,MA,NA,1.107011070110701
02118,Suffolk County,MA,NA,0.36900369003690037
02124,Suffolk County,MA,NA,0
02176,Middlesex County,MA,33.91812865497076,NA
02180,Middlesex County,MA,28.654970760233915,NA
02360,Plymouth County,MA,8.187134502923977,NA
02379,Plymouth County,MA,58.47953216374269,NA
02459,Middlesex County,MA,52.046783625730995,NA
02478,Middlesex County,MA,NA,59.40959409594095
02481,Norfolk County,MA,62.57309941520468,NA
02747,Bristol County,MA,74.85380116959064,NA
48044,Macomb County,MI,NA,12.915129151291513
48071,Oakland County,MI,43.27485380116959,NA
48091,Macomb County,MI,12.865497076023392,NA
48146,Wayne County,MI,NA,71.21771217712177
48180,Wayne County,MI,NA,5.535055350553505
48207,Wayne County,MI,19.298245614035086,NA
48219,Wayne County,MI,NA,9.22509225092251
48313,Macomb County,MI,69.5906432748538,NA
48371,Oakland County,MI,NA,68.26568265682657
48505,Genesee County,MI,59.64912280701754,NA
48801,Gratiot County,MI,NA,52.02952029520295
48836,Livingston County,MI,53.80116959064327,NA
49117,Berrien County,MI,100,NA
49203,Jackson County,MI,30.994152046783626,NA
49270,Monroe County,MI,NA,97.04797047970479
49601,Wexford County,MI,NA,50.184501845018445
55110,Ramsey County,MN,51.461988304093566,NA
55124,Dakota County,MN,21.637426900584796,NA
55404,Hennepin County,MN,NA,1.8450184501845017
55413,Hennepin County,MN,71.34502923976608,NA
55414,Hennepin County,MN,NA,87.4538745387454
55422,Hennepin County,MN,NA,32.10332103321033
55443,Hennepin County,MN,NA,33.94833948339483
56143,Jackson County,MN,NA,88.92988929889299
56557,Norman County,MN,NA,84.13284132841329
38614,Coahoma County,MS,NA,87.08487084870849
39083,Copiah County,MS,NA,78.59778597785979
39355,Clarke County,MS,NA,83.39483394833948
39365,Neshoba County,MS,91.81286549707602,NA
39437,Jones County,MS,NA,64.57564575645756
39440,Jones County,MS,2.3391812865497075,NA
39443,Jones County,MS,NA,65.68265682656826
39531,Harrison County,MS,43.27485380116959,NA
39564,Jackson County,MS,NA,99.2619926199262
63033,St. Louis County,MO,49.122807017543856,NA
63101,St. Louis city,MO,NA,99.63099630996311
63114,St. Louis County,MO,NA,28.044280442804425
63755,Cape Girardeau County,MO,NA,96.30996309963099
63851,Pemiscot County,MO,NA,81.18081180811808
64119,Clay County,MO,14.035087719298245,NA
65203,Boone County,MO,NA,60.88560885608856
65301,Pettis County,MO,NA,7.011070110701106
65803,Greene County,MO,NA,67.89667896678966
65804,Greene County,MO,63.74269005847953,NA
68111,Douglas County,NE,NA,23.616236162361623
68116,Douglas County,NE,67.2514619883041,NA
68137,Douglas County,NE,41.52046783625731,NA
68845,Buffalo County,NE,74.26900584795322,NA
68850,Dawson County,NE,61.98830409356725,NA
89117,Clark County,NV,73.68421052631578,NA
03064,Hillsborough County,NH,13.450292397660817,NA
07107,Essex County,NJ,NA,2.5830258302583027
07108,Essex County,NJ,NA,3.6900369003690034
07111,Essex County,NJ,15.204678362573098,NA
07305,Hudson County,NJ,6.432748538011696,NA
07424,Passaic County,NJ,79.53216374269006,NA
07524,Passaic County,NJ,78.3625730994152,NA
07901,Union County,NJ,NA,72.69372693726937
08081,Camden County,NJ,NA,2.952029520295203
08225,Atlantic County,NJ,NA,91.14391143911439
08629,Mercer County,NJ,50.877192982456144,NA
08826,Hunterdon County,NJ,94.15204678362574,NA
87105,Bernalillo County,NM,NA,42.066420664206646
87110,Bernalillo County,NM,5.263157894736842,NA
87111,Bernalillo County,NM,NA,6.642066420664207
87401,San Juan County,NM,NA,21.771217712177123
87532,Santa Fe County,NM,44.44444444444444,NA
88201,Chaves County,NM,NA,37.63837638376384
88240,Lea County,NM,NA,10.70110701107011
10458,Bronx County,NY,NA,0.7380073800738007
10470,Bronx County,NY,80.11695906432749,NA
10472,Bronx County,NY,NA,4.059040590405904
10977,Rockland County,NY,NA,34.31734317343174
11206,Kings County,NY,11.695906432748536,NA
11216,Kings County,NY,NA,15.867158671586715
11220,Kings County,NY,NA,6.273062730627306
11230,Kings County,NY,32.16374269005848,NA
11233,Kings County,NY,NA,3.3210332103321036
11432,Queens County,NY,16.374269005847953,NA
11435,Queens County,NY,NA,41.69741697416974
11510,Nassau County,NY,39.1812865497076,NA
11581,Nassau County,NY,98.83040935672514,NA
11967,Suffolk County,NY,NA,34.686346863468636
12401,Ulster County,NY,35.08771929824561,NA
12477,Ulster County,NY,89.47368421052632,NA
13031,Onondaga County,NY,NA,47.23247232472325
13044,Oswego County,NY,96.49122807017544,NA
13165,Seneca County,NY,NA,63.09963099630996
13224,Onondaga County,NY,NA,50.55350553505535
13662,St. Lawrence County,NY,NA,11.808118081180812
14215,Erie County,NY,9.941520467836257,NA
14610,Monroe County,NY,47.953216374269005,NA
14622,Monroe County,NY,NA,27.30627306273063
14757,Chautauqua County,NY,NA,94.0959409594096
14760,Cattaraugus County,NY,NA,14.391143911439114
14818,Schuyler County,NY,99.41520467836257,NA
27105,Forsyth County,NC,NA,4.797047970479705
27107,Forsyth County,NC,NA,23.985239852398525
27215,Alamance County,NC,45.614035087719294,NA
27534,Wayne County,NC,NA,38.37638376383764
27565,Granville County,NC,86.54970760233918,NA
27591,Wake County,NC,66.08187134502924,NA
27615,Wake County,NC,NA,44.28044280442804
28115,Iredell County,NC,NA,24.354243542435423
28117,Iredell County,NC,NA,31.73431734317343
28166,Iredell County,NC,81.87134502923976,NA
28352,Scotland County,NC,77.19298245614034,NA
28358,Robeson County,NC,NA,20.29520295202952
28401,New Hanover County,NC,22.22222222222222,NA
28572,Duplin County,NC,83.04093567251462,NA
28586,Craven County,NC,95.90643274853801,NA
28645,Caldwell County,NC,7.017543859649122,NA
28677,Iredell County,NC,NA,49.07749077490775
28678,Alexander County,NC,90.64327485380117,NA
28690,Burke County,NC,NA,79.70479704797047
43040,Union County,OH,NA,28.413284132841326
43068,Franklin County,OH,0,NA
43078,Champaign County,OH,NA,36.53136531365313
43302,Marion County,OH,NA,19.18819188191882
43528,Lucas County,OH,54.385964912280706,NA
43567,Fulton County,OH,NA,53.13653136531366
43812,Coshocton County,OH,18.128654970760234,NA
43938,Jefferson County,OH,87.13450292397661,NA
44012,Lorain County,OH,36.84210526315789,NA
44142,Cuyahoga County,OH,NA,29.15129151291513
44221,Summit County,OH,NA,18.81918819188192
44230,Wayne County,OH,NA,83.02583025830258
44260,Portage County,OH,NA,93.35793357933579
44310,Summit County,OH,NA,15.129151291512915
44444,Trumbull County,OH,66.08187134502924,NA
44470,Trumbull County,OH,NA,98.8929889298893
44511,Mahoning County,OH,NA,26.937269372693727
44702,Stark County,OH,NA,82.65682656826569
44720,Stark County,OH,27.485380116959064,NA
44730,Stark County,OH,92.39766081871345,NA
44857,Huron County,OH,22.807017543859647,98.1549815498155
45013,Butler County,OH,3.508771929824561,NA
45230,Hamilton County,OH,NA,79.33579335793358
45231,Hamilton County,OH,NA,12.177121771217712
45402,Montgomery County,OH,NA,57.564575645756456
45415,Montgomery County,OH,54.385964912280706,NA
45429,Montgomery County,OH,84.7953216374269,NA
45638,Lawrence County,OH,NA,8.118081180811808
45680,Lawrence County,OH,NA,45.75645756457565
73110,Oklahoma County,OK,29.239766081871345,NA
74008,Tulsa County,OK,NA,86.34686346863468
74020,Pawnee County,OK,NA,84.50184501845018
74074,Payne County,OK,NA,48.33948339483395
74107,Tulsa County,OK,NA,64.94464944649447
74464,Cherokee County,OK,NA,13.653136531365314
74801,Pottawatomie County,OK,NA,39.48339483394834
97051,Columbia County,OR,NA,63.837638376383765
97210,Multnomah County,OR,NA,74.53874538745387
97526,Josephine County,OR,NA,27.67527675276753
97603,Klamath County,OR,24.561403508771928,NA
15501,Somerset County,PA,64.32748538011695,NA
16117,Lawrence County,PA,NA,56.08856088560885
16127,Mercer County,PA,NA,68.63468634686348
16335,Crawford County,PA,NA,15.498154981549817
16407,Erie County,PA,NA,78.96678966789668
16509,Erie County,PA,NA,35.79335793357934
16635,Blair County,PA,NA,76.38376383763837
17055,Cumberland County,PA,72.51461988304094,NA
17331,York County,PA,NA,11.439114391143912
17837,Union County,PA,73.09941520467837,NA
18201,Luzerne County,PA,32.748538011695906,NA
18504,Lackawanna County,PA,NA,32.84132841328413
18704,Luzerne County,PA,NA,21.40221402214022
19008,Delaware County,PA,88.88888888888889,NA
19076,Delaware County,PA,NA,80.44280442804428
19135,Philadelphia County,PA,20.46783625730994,NA
19140,Philadelphia County,PA,38.01169590643275,NA
19143,Philadelphia County,PA,1.7543859649122806,NA
19311,Chester County,PA,77.19298245614034,NA
19382,Chester County,PA,5.847953216374268,NA
19508,Berks County,PA,NA,55.71955719557196
02813,Washington County,RI,NA,95.5719557195572
02816,Kent County,RI,50.29239766081871,NA
02878,Newport County,RI,NA,77.85977859778598
29053,Lexington County,SC,NA,59.040590405904055
29405,Charleston County,SC,NA,29.520295202952028
29483,Dorchester County,SC,7.602339181286549,NA
29555,Florence County,SC,94.73684210526315,NA
29609,Greenville County,SC,NA,44.64944649446495
29615,Greenville County,SC,65.49707602339181,NA
29666,Greenwood County,SC,95.32163742690058,NA
29728,Chesterfield County,SC,84.21052631578947,NA
29902,Beaufort County,SC,82.45614035087719,NA
37110,Warren County,TN,NA,20.66420664206642
37115,Davidson County,TN,21.052631578947366,NA
37172,Robertson County,TN,40.35087719298245,NA
37303,McMinn County,TN,38.59649122807017,NA
37321,Rhea County,TN,NA,30.996309963099634
37327,Sequatchie County,TN,NA,46.125461254612546
37343,Hamilton County,TN,NA,26.56826568265683
37743,Greene County,TN,NA,16.974169741697416
37813,Hamblen County,TN,NA,29.88929889298893
37879,Claiborne County,TN,48.53801169590643,NA
37923,Knox County,TN,31.57894736842105,NA
38139,Shelby County,TN,87.71929824561403,NA
75043,Dallas County,TX,35.67251461988304,NA
75071,Collin County,TX,25.146198830409354,NA
75125,Ellis County,TX,NA,95.9409594095941
75208,Dallas County,TX,NA,64.20664206642066
75228,Dallas County,TX,NA,11.07011070110701
75233,Dallas County,TX,NA,69.00369003690037
75703,Smith County,TX,23.976608187134502,NA
75771,Smith County,TX,78.94736842105263,NA
76001,Tarrant County,TX,80.7017543859649,NA
76542,Bell County,TX,NA,88.56088560885608
76705,McLennan County,TX,53.216374269005854,NA
77018,Harris County,TX,NA,46.86346863468634
77031,Harris County,TX,NA,75.27675276752768
77073,Harris County,TX,44.44444444444444,NA
77084,Harris County,TX,16.95906432748538,NA
77093,Harris County,TX,NA,46.494464944649444
77301,Montgomery County,TX,NA,58.30258302583026
77327,Liberty County,TX,47.368421052631575,NA
77346,Harris County,TX,30.409356725146196,NA
77373,Harris County,TX,26.31578947368421,30.627306273062732
77414,Matagorda County,TX,NA,73.06273062730627
77532,Harris County,TX,NA,45.018450184501845
77541,Brazoria County,TX,NA,50.92250922509225
77642,Jefferson County,TX,40.93567251461988,NA
77662,Orange County,TX,34.50292397660819,NA
77703,Jefferson County,TX,NA,95.20295202952029
77708,Jefferson County,TX,NA,92.98892988929889
78028,Kerr County,TX,NA,40.22140221402214
78043,Webb County,TX,NA,70.47970479704797
78207,Bexar County,TX,4.678362573099415,NA
78413,Nueces County,TX,NA,69.74169741697416
78542,Hidalgo County,TX,NA,45.38745387453875
78664,Williamson County,TX,NA,73.43173431734317
78723,Travis County,TX,39.76608187134503,NA
79336,Hockley County,TX,57.89473684210527,NA
79602,Taylor County,TX,NA,81.91881918819189
79756,Ward County,TX,85.38011695906432,NA
84074,Tooele County,UT,1.1695906432748537,NA
84078,Uintah County,UT,NA,19.92619926199262
84115,Salt Lake County,UT,42.10526315789473,NA
84404,Weber County,UT,15.789473684210526,NA
84770,Washington County,UT,NA,93.72693726937268
22032,Fairfax County,VA,60.23391812865497,NA
22193,Prince William County,VA,81.28654970760235,NA
22207,Arlington County,VA,42.69005847953216,NA
22611,Clarke County,VA,NA,94.8339483394834
23451,Virginia Beach city,VA,NA,43.17343173431734
23924,Mecklenburg County,VA,NA,87.82287822878229
24230,Wise County,VA,NA,48.708487084870846
24557,Pittsylvania County,VA,NA,83.76383763837639
98203,Snohomish County,WA,NA,49.815498154981555
98335,Pierce County,WA,NA,63.46863468634686
98403,Pierce County,WA,NA,92.619926199262
98499,Pierce County,WA,NA,47.601476014760145
99301,Franklin County,WA,NA,14.022140221402212
20032,District of Columbia,DC,10.526315789473683,NA
24739,Mercer County,WV,NA,91.5129151291513
26003,Ohio County,WV,NA,9.59409594095941
97003,NA,NA,NA,57.19557195571956
26104,Wood County,WV,56.72514619883041,NA
26187,Wood County,WV,97.07602339181285,NA
26416,Barbour County,WV,57.30994152046783,NA
53081,Sheboygan County,WI,19.883040935672515,76.75276752767527
53154,Milwaukee County,WI,NA,25.461254612546124
53210,Milwaukee County,WI,12.280701754385964,NA
53215,Milwaukee County,WI,NA,7.7490774907749085
53219,Milwaukee County,WI,NA,66.78966789667896
53402,Racine County,WI,NA,10.33210332103321
54024,Polk County,WI,NA,85.23985239852398
54902,Winnebago County,WI,NA,56.457564575645755
54929,Waupaca County,WI,NA,86.71586715867159
