ZipCode,county,state,Adult,Retirement,Geriatric
35010,Tallapoosa County,AL,NA,20.33898305084746,NA
35055,Cullman County,AL,NA,NA,82.46268656716418
35064,Jefferson County,AL,NA,56.240369799691834,NA
35173,Jefferson County,AL,28.504672897196258,NA,NA
35206,Jefferson County,AL,NA,NA,52.23880597014925
35218,Jefferson County,AL,NA,99.22958397534669,NA
35226,Jefferson County,AL,NA,36.517719568567024,NA
35234,Jefferson County,AL,NA,NA,94.77611940298507
35404,Tuscaloosa County,AL,51.63551401869159,NA,NA
35453,Tuscaloosa County,AL,NA,47.61171032357473,NA
35654,Franklin County,AL,NA,91.67950693374422,NA
35747,Marshall County,AL,65.88785046728972,NA,NA
36301,Houston County,AL,NA,8.47457627118644,NA
36303,Houston County,AL,11.682242990654206,NA,NA
36420,Covington County,AL,68.69158878504673,NA,NA
36549,Baldwin County,AL,NA,49.30662557781202,NA
36877,Lee County,AL,NA,NA,98.88059701492537
99567,Anchorage Municipality,AK,73.5981308411215,NA,NA
99709,Fairbanks North Star Borough,AK,NA,NA,67.16417910447761
85018,Maricopa County,AZ,NA,NA,66.7910447761194
85022,Maricopa County,AZ,NA,16.486902927580893,NA
85032,Maricopa County,AZ,NA,40.98613251155624,NA
85037,Maricopa County,AZ,NA,41.75654853620955,NA
85143,Pinal County,AZ,NA,21.725731895223422,NA
85202,Maricopa County,AZ,32.242990654205606,NA,NA
85205,Maricopa County,AZ,NA,14.791987673343607,NA
85206,Maricopa County,AZ,NA,44.99229583975347,NA
85215,Maricopa County,AZ,78.50467289719626,NA,NA
85268,Maricopa County,AZ,NA,35.28505392912172,NA
85345,Maricopa County,AZ,NA,6.6255778120184905,NA
85379,Maricopa County,AZ,NA,37.750385208012325,NA
85383,Maricopa County,AZ,38.55140186915888,NA,NA
85396,Maricopa County,AZ,NA,35.43913713405239,NA
85614,Pima County,AZ,NA,NA,2.6119402985074625
85755,Pima County,AZ,NA,59.47611710323575,NA
86301,Yavapai County,AZ,NA,17.873651771956855,NA
86303,Yavapai County,AZ,NA,55.31587057010786,NA
86326,Yavapai County,AZ,NA,81.81818181818183,NA
86401,Mohave County,AZ,NA,NA,35.44776119402985
90036,Los Angeles County,CA,NA,27.11864406779661,NA
90047,Los Angeles County,CA,NA,NA,18.65671641791045
90049,Los Angeles County,CA,NA,27.73497688751926,NA
90275,Los Angeles County,CA,NA,NA,30.970149253731343
90606,Los Angeles County,CA,NA,38.366718027734976,NA
90630,Orange County,CA,25.70093457943925,NA,NA
90712,Los Angeles County,CA,NA,89.36825885978429,NA
90713,Los Angeles County,CA,45.09345794392524,NA,NA
90803,Los Angeles County,CA,NA,29.275808936825886,NA
90807,Los Angeles County,CA,87.85046728971963,64.56086286594761,NA
91001,Los Angeles County,CA,NA,NA,58.95522388059702
91105,Los Angeles County,CA,92.28971962616822,NA,NA
91106,Los Angeles County,CA,NA,61.78736517719569,NA
91214,Los Angeles County,CA,76.4018691588785,NA,NA
91360,Ventura County,CA,NA,30.354391371340522,NA
91709,San Bernardino County,CA,NA,41.44838212634823,NA
91761,San Bernardino County,CA,81.30841121495327,NA,NA
92107,San Diego County,CA,NA,95.22342064714945,NA
92126,San Diego County,CA,NA,62.249614791987675,NA
92127,San Diego County,CA,66.82242990654206,NA,NA
92210,Riverside County,CA,NA,NA,43.656716417910445
92252,San Bernardino County,CA,NA,NA,88.80597014925374
92264,Riverside County,CA,NA,NA,10.820895522388058
92301,San Bernardino County,CA,NA,27.426810477657938,NA
92320,Riverside County,CA,NA,77.04160246533128,NA
92359,San Bernardino County,CA,NA,NA,92.91044776119402
92637,Orange County,CA,NA,46.379044684129425,1.4925373134328357
92651,Orange County,CA,NA,NA,95.52238805970148
92656,Orange County,CA,57.943925233644855,59.01386748844376,NA
92691,Orange County,CA,75,NA,NA
92692,Orange County,CA,NA,39.44530046224962,NA
92704,Orange County,CA,NA,48.07395993836672,NA
92835,Orange County,CA,NA,NA,13.432835820895523
93010,Ventura County,CA,NA,14.946070878274268,NA
93035,Ventura County,CA,NA,68.41294298921417,NA
93101,Santa Barbara County,CA,NA,66.71802773497689,NA
93105,Santa Barbara County,CA,NA,97.07241910631741,NA
93454,Santa Barbara County,CA,16.822429906542055,NA,NA
93727,Fresno County,CA,7.710280373831775,NA,NA
93950,Monterey County,CA,NA,NA,87.68656716417911
94044,San Mateo County,CA,NA,NA,33.582089552238806
94070,San Mateo County,CA,75.46728971962617,NA,NA
94134,San Francisco County,CA,21.02803738317757,NA,NA
94303,San Mateo County,CA,82.71028037383178,NA,NA
94403,San Mateo County,CA,NA,NA,8.208955223880597
94526,Contra Costa County,CA,NA,83.20493066255779,NA
94546,Alameda County,CA,NA,77.50385208012327,49.25373134328358
94558,Napa County,CA,NA,3.389830508474576,NA
94572,Contra Costa County,CA,85.74766355140187,NA,NA
94583,Contra Costa County,CA,85.2803738317757,NA,NA
94605,Alameda County,CA,70.7943925233645,NA,NA
94607,Alameda County,CA,NA,77.19568567026194,NA
94619,Alameda County,CA,NA,38.52080123266564,NA
94901,Marin County,CA,NA,NA,78.73134328358209
94928,Sonoma County,CA,63.78504672897196,NA,NA
94941,Marin County,CA,80.8411214953271,NA,55.970149253731336
95003,Santa Cruz County,CA,97.42990654205607,NA,NA
95014,Santa Clara County,CA,65.18691588785047,NA,NA
95060,Santa Cruz County,CA,NA,71.9568567026194,NA
95062,Santa Cruz County,CA,NA,96.3020030816641,NA
95065,Santa Cruz County,CA,NA,94.29892141756548,NA
95066,Santa Cruz County,CA,71.02803738317756,NA,NA
95073,Santa Cruz County,CA,NA,NA,94.02985074626866
95076,Santa Cruz County,CA,NA,32.66563944530046,NA
95127,Santa Clara County,CA,NA,NA,18.28358208955224
95252,Calaveras County,CA,NA,NA,99.6268656716418
95327,Tuolumne County,CA,NA,NA,33.95522388059701
95340,Merced County,CA,NA,60.55469953775039,NA
95360,Stanislaus County,CA,NA,88.4437596302003,NA
95667,El Dorado County,CA,NA,NA,55.59701492537313
95747,Placer County,CA,NA,NA,7.462686567164178
95835,Sacramento County,CA,NA,47.61171032357473,NA
95928,Butte County,CA,NA,71.80277349768875,NA
95959,Nevada County,CA,NA,30.508474576271187,NA
95965,Butte County,CA,NA,NA,73.13432835820896
95973,Butte County,CA,11.214953271028037,NA,NA
80014,Arapahoe County,CO,NA,90.75500770416025,NA
80016,Arapahoe County,CO,73.13084112149532,NA,NA
80020,Broomfield County,CO,NA,20.49306625577812,NA
80027,Boulder County,CO,94.62616822429906,NA,NA
80107,Elbert County,CO,90.18691588785047,NA,NA
80108,Douglas County,CO,NA,NA,61.56716417910447
80112,Arapahoe County,CO,32.71028037383177,NA,NA
80122,Arapahoe County,CO,57.71028037383178,87.51926040061633,NA
80123,Jefferson County,CO,90.65420560747664,73.03543913713405,NA
80124,Douglas County,CO,92.7570093457944,97.99691833590138,NA
80127,Jefferson County,CO,NA,59.32203389830508,NA
80134,Douglas County,CO,NA,87.36517719568567,NA
80138,Douglas County,CO,32.00934579439252,NA,NA
80206,Denver County,CO,67.99065420560748,NA,NA
80209,Denver County,CO,86.44859813084112,NA,NA
80224,Denver County,CO,NA,78.5824345146379,NA
80504,Boulder County,CO,18.22429906542056,NA,NA
80538,Larimer County,CO,NA,50.53929121725732,NA
80550,Weld County,CO,NA,25.885978428351308,NA
81101,Alamosa County,CO,76.63551401869158,NA,NA
81428,Delta County,CO,NA,NA,97.76119402985076
81501,Mesa County,CO,NA,38.82896764252696,NA
81504,Mesa County,CO,NA,34.20647149460709,NA
81521,Mesa County,CO,NA,85.97842835130972,NA
06016,Hartford County,CT,NA,NA,75.3731343283582
06040,Hartford County,CT,NA,62.40369799691834,NA
06110,Hartford County,CT,NA,71.1864406779661,NA
06118,Hartford County,CT,NA,50.38520801232666,NA
06410,New Haven County,CT,NA,NA,80.59701492537313
06417,Middlesex County,CT,NA,92.14175654853621,NA
06450,New Haven County,CT,NA,7.395993836671804,NA
06451,New Haven County,CT,12.850467289719624,NA,NA
06460,New Haven County,CT,NA,31.587057010785824,NA
06478,New Haven County,CT,NA,NA,85.82089552238806
06489,Hartford County,CT,NA,68.87519260400616,NA
06513,New Haven County,CT,2.336448598130841,NA,NA
06514,New Haven County,CT,NA,61.94144838212635,NA
06519,New Haven County,CT,35.280373831775705,NA,NA
06615,Fairfield County,CT,28.27102803738318,NA,NA
06798,Litchfield County,CT,NA,NA,54.850746268656714
06824,Fairfield County,CT,79.43925233644859,NA,NA
06897,Fairfield County,CT,NA,89.83050847457628,NA
19702,New Castle County,DE,74.53271028037383,NA,NA
19709,New Castle County,DE,NA,93.99075500770417,80.97014925373134
19711,New Castle County,DE,86.6822429906542,93.22033898305084,NA
19720,New Castle County,DE,NA,1.5408320493066257,NA
19803,New Castle County,DE,NA,NA,93.65671641791045
19808,New Castle County,DE,82.4766355140187,NA,NA
19901,Kent County,DE,61.915887850467286,NA,NA
19947,Sussex County,DE,NA,23.882896764252695,NA
19973,Sussex County,DE,NA,NA,72.01492537313433
32168,Volusia County,FL,NA,NA,20.8955223880597
32174,Volusia County,FL,NA,6.471494607087827,NA
32179,Marion County,FL,NA,NA,86.94029850746269
32206,Duval County,FL,NA,12.942989214175654,NA
32209,Duval County,FL,2.570093457943925,NA,NA
32210,Duval County,FL,NA,NA,6.7164179104477615
32223,Duval County,FL,NA,20.801232665639446,NA
32225,Duval County,FL,40.18691588785047,NA,NA
32244,Duval County,FL,3.0373831775700935,41.910631741140215,68.65671641791045
32256,Duval County,FL,NA,22.95839753466872,NA
32303,Leon County,FL,NA,81.20184899845917,NA
32503,Escambia County,FL,NA,8.012326656394453,NA
32605,Alachua County,FL,39.25233644859813,NA,NA
32607,Alachua County,FL,NA,26.194144838212637,NA
32608,Alachua County,FL,NA,8.936825885978427,NA
32669,Alachua County,FL,NA,70.10785824345146,NA
32708,Seminole County,FL,NA,NA,17.91044776119403
32766,Seminole County,FL,81.54205607476635,NA,NA
32778,Lake County,FL,NA,NA,22.761194029850746
32839,Orange County,FL,14.252336448598129,NA,NA
32901,Brevard County,FL,60.046728971962615,NA,NA
32922,Brevard County,FL,26.869158878504674,NA,NA
32958,Indian River County,FL,NA,6.933744221879815,NA
33016,Miami-Dade County,FL,NA,35.59322033898305,NA
33024,Broward County,FL,15.887850467289718,NA,NA
33125,Miami-Dade County,FL,NA,22.342064714946073,NA
33126,Miami-Dade County,FL,NA,26.348228043143294,NA
33140,Miami-Dade County,FL,NA,NA,14.17910447761194
33156,Miami-Dade County,FL,NA,80.73959938366718,NA
33193,Miami-Dade County,FL,NA,33.89830508474576,NA
33319,Broward County,FL,NA,18.02773497688752,NA
33325,Broward County,FL,NA,45.14637904468413,NA
33418,Palm Beach County,FL,NA,16.79506933744222,NA
33434,Palm Beach County,FL,NA,NA,5.223880597014925
33435,Palm Beach County,FL,52.570093457943926,NA,NA
33478,Palm Beach County,FL,NA,90.29275808936826,NA
33540,Pasco County,FL,NA,51.463790446841294,NA
33563,Hillsborough County,FL,93.22429906542055,NA,NA
33567,Hillsborough County,FL,50.70093457943925,NA,NA
33603,Hillsborough County,FL,93.92523364485982,NA,NA
33611,Hillsborough County,FL,NA,NA,43.28358208955223
33624,Hillsborough County,FL,NA,57.31895223420646,NA
33637,Hillsborough County,FL,96.02803738317756,NA,NA
33705,Pinellas County,FL,53.271028037383175,NA,NA
33707,Pinellas County,FL,NA,19.106317411402156,NA
33756,Pinellas County,FL,25,51.30970724191063,NA
33811,Polk County,FL,NA,49.76887519260401,NA
33904,Lee County,FL,NA,9.244992295839753,NA
33952,Charlotte County,FL,NA,NA,24.253731343283583
33966,Lee County,FL,NA,NA,94.40298507462687
33971,Lee County,FL,94.85981308411215,NA,NA
34202,Manatee County,FL,NA,87.67334360554699,NA
34208,Manatee County,FL,NA,83.05084745762711,NA
34228,Sarasota County,FL,NA,NA,72.76119402985076
34231,Sarasota County,FL,NA,NA,20.522388059701495
34232,Sarasota County,FL,NA,80.12326656394453,NA
34243,Manatee County,FL,NA,57.6271186440678,NA
34476,Marion County,FL,NA,23.112480739599384,NA
34653,Pasco County,FL,NA,NA,10.074626865671641
34655,Pasco County,FL,NA,15.10015408320493,NA
34668,Pasco County,FL,NA,NA,53.35820895522389
34690,Pasco County,FL,48.831775700934585,NA,NA
34756,Lake County,FL,100,NA,NA
34761,Orange County,FL,68.92523364485982,NA,NA
34787,Orange County,FL,NA,NA,76.86567164179104
34952,St. Lucie County,FL,NA,NA,57.08955223880597
34953,St. Lucie County,FL,3.2710280373831773,3.2357473035439135,NA
34974,Okeechobee County,FL,NA,52.69645608628659,NA
34984,St. Lucie County,FL,NA,54.699537750385204,89.55223880597015
34990,Martin County,FL,64.01869158878505,NA,2.2388059701492535
30011,Barrow County,GA,69.1588785046729,NA,NA
30019,Gwinnett County,GA,21.49532710280374,NA,62.68656716417911
30024,Gwinnett County,GA,89.01869158878505,NA,30.597014925373134
30045,Gwinnett County,GA,36.44859813084112,NA,NA
30078,Gwinnett County,GA,NA,NA,83.95522388059702
30080,Cobb County,GA,NA,66.40986132511556,NA
30127,Cobb County,GA,77.57009345794393,NA,NA
30143,Pickens County,GA,NA,49.46070878274268,NA
30188,Cherokee County,GA,NA,8.628659476117104,NA
30268,Fulton County,GA,75.23364485981308,NA,NA
30269,Fayette County,GA,NA,31.432973805855163,NA
30286,Upson County,GA,NA,NA,42.16417910447761
30309,Fulton County,GA,NA,85.51617873651772,NA
30329,DeKalb County,GA,92.05607476635514,NA,NA
30338,DeKalb County,GA,NA,NA,26.492537313432834
30344,Fulton County,GA,NA,24.19106317411402,NA
30345,DeKalb County,GA,78.73831775700934,NA,NA
30519,Gwinnett County,GA,NA,19.876733436055467,NA
30521,Franklin County,GA,71.26168224299066,NA,NA
30533,Lumpkin County,GA,NA,NA,48.134328358208954
30606,Clarke County,GA,NA,58.85978428351309,NA
30662,Franklin County,GA,NA,NA,77.61194029850746
30677,Oconee County,GA,NA,54.08320493066255,NA
30680,Barrow County,GA,47.429906542056074,NA,NA
30701,Gordon County,GA,NA,16.94915254237288,NA
30736,Catoosa County,GA,NA,10.785824345146379,NA
30904,Richmond County,GA,NA,NA,52.61194029850746
30909,Richmond County,GA,37.149532710280376,NA,NA
31015,Crisp County,GA,NA,46.5331278890601,NA
31093,Houston County,GA,NA,NA,33.2089552238806
31204,Bibb County,GA,NA,42.526964560862865,NA
31210,Bibb County,GA,NA,NA,36.940298507462686
31324,Bryan County,GA,NA,98.92141756548536,NA
31401,Chatham County,GA,66.35514018691589,NA,NA
31405,Chatham County,GA,NA,51.92604006163328,NA
31406,Chatham County,GA,NA,74.884437596302,NA
31411,Chatham County,GA,NA,75.346687211094,NA
31601,Lowndes County,GA,NA,NA,38.43283582089552
31707,Dougherty County,GA,30.140186915887853,NA,NA
31714,Turner County,GA,NA,86.59476117103236,NA
31721,Dougherty County,GA,82.2429906542056,NA,NA
31820,Muscogee County,GA,77.10280373831776,NA,NA
31906,Muscogee County,GA,70.09345794392523,NA,NA
96708,Maui County,HI,NA,87.05701078582435,NA
96813,Honolulu County,HI,58.177570093457945,NA,NA
96821,Honolulu County,HI,NA,NA,11.194029850746269
83445,Fremont County,ID,NA,80.43143297380585,NA
83634,Ada County,ID,NA,70.87827426810478,NA
83642,Ada County,ID,NA,NA,56.71641791044776
83687,Canyon County,ID,10.74766355140187,NA,NA
83704,Ada County,ID,NA,48.536209553158706,NA
83709,Ada County,ID,NA,42.68104776579353,NA
83713,Ada County,ID,20.093457943925234,78.89060092449924,NA
83714,Ada County,ID,24.53271028037383,NA,NA
60004,Cook County,IL,NA,24.345146379044685,NA
60010,Lake County,IL,47.89719626168225,NA,NA
60015,Lake County,IL,NA,58.24345146379045,NA
60026,Cook County,IL,NA,NA,51.49253731343284
60035,Lake County,IL,NA,71.03235747303543,NA
60046,Lake County,IL,20.794392523364486,NA,NA
60056,Cook County,IL,NA,8.166409861325114,NA
60060,Lake County,IL,NA,NA,62.31343283582089
60061,Lake County,IL,NA,NA,79.8507462686567
60070,Cook County,IL,NA,54.853620955315876,NA
60076,Cook County,IL,NA,66.2557781201849,NA
60089,Lake County,IL,NA,NA,73.50746268656717
60107,Cook County,IL,29.205607476635514,NA,NA
60110,Kane County,IL,27.102803738317753,NA,NA
60120,Kane County,IL,NA,16.640986132511557,NA
60123,Kane County,IL,10.046728971962617,NA,NA
60302,Cook County,IL,18.69158878504673,NA,NA
60403,Will County,IL,NA,67.64252696456087,NA
60411,Cook County,IL,23.83177570093458,NA,NA
60453,Cook County,IL,NA,NA,23.88059701492537
60513,Cook County,IL,NA,NA,50
60521,DuPage County,IL,NA,67.4884437596302,NA
60527,DuPage County,IL,30.60747663551402,NA,NA
60541,Kendall County,IL,NA,98.61325115562404,NA
60611,Cook County,IL,NA,11.40215716486903,NA
60613,Cook County,IL,NA,20.955315870570107,NA
60614,Cook County,IL,10.2803738317757,NA,NA
60615,Cook County,IL,13.084112149532709,NA,NA
60616,Cook County,IL,NA,85.67026194144837,14.55223880597015
60618,Cook County,IL,5.14018691588785,NA,NA
60619,Cook County,IL,NA,NA,9.328358208955224
60628,Cook County,IL,NA,15.254237288135593,NA
60643,Cook County,IL,NA,2.0030816640986133,NA
60644,Cook County,IL,NA,64.09861325115563,NA
60646,Cook County,IL,27.33644859813084,NA,NA
60649,Cook County,IL,NA,4.468412942989214,NA
60657,Cook County,IL,71.96261682242991,44.684129429892145,NA
60660,Cook County,IL,52.10280373831776,48.99845916795069,NA
61019,Stephenson County,IL,99.76635514018692,NA,NA
61072,Winnebago County,IL,54.67289719626168,NA,NA
61101,Winnebago County,IL,53.0373831775701,NA,60.447761194029844
61114,Winnebago County,IL,NA,46.99537750385208,NA
61265,Rock Island County,IL,NA,18.64406779661017,NA
61523,Peoria County,IL,NA,56.85670261941448,NA
62040,Madison County,IL,NA,24.03697996918336,NA
62305,Adams County,IL,NA,38.21263482280431,NA
62521,Macon County,IL,NA,4.006163328197227,NA
62960,Massac County,IL,NA,NA,39.55223880597015
46032,Hamilton County,IN,NA,NA,15.298507462686567
46036,Madison County,IN,NA,63.02003081664098,NA
46040,Hancock County,IN,NA,69.49152542372882,NA
46143,Johnson County,IN,NA,32.357473035439135,23.134328358208954
46221,Marion County,IN,NA,24.80739599383667,NA
46226,Marion County,IN,22.897196261682243,NA,NA
46254,Marion County,IN,NA,43.451463790446844,NA
46260,Marion County,IN,24.766355140186917,NA,NA
46341,Porter County,IN,NA,42.21879815100154,NA
46360,LaPorte County,IN,13.785046728971961,NA,NA
46383,Porter County,IN,4.906542056074766,NA,NA
46392,Jasper County,IN,NA,65.33127889060091,NA
46614,St. Joseph County,IN,NA,NA,71.26865671641791
46733,Adams County,IN,24.065420560747665,NA,NA
47130,Clark County,IN,NA,54.08320493066255,NA
47150,Floyd County,IN,35.981308411214954,NA,NA
47167,Washington County,IN,NA,29.738058551617875,NA
47201,Bartholomew County,IN,NA,44.06779661016949,NA
47265,Jennings County,IN,NA,NA,38.059701492537314
47421,Lawrence County,IN,19.626168224299064,NA,NA
47452,Orange County,IN,99.06542056074767,NA,NA
50009,Polk County,IA,NA,89.98459167950693,NA
50315,Polk County,IA,NA,66.87211093990754,NA
50322,Polk County,IA,NA,36.05546995377504,NA
51301,Clay County,IA,NA,25.115562403698,NA
51401,Carroll County,IA,79.90654205607477,NA,NA
51503,Pottawattamie County,IA,NA,41.14021571648691,NA
52001,Dubuque County,IA,51.16822429906542,NA,NA
52245,Johnson County,IA,NA,87.98151001540832,40.67164179104478
52246,Johnson County,IA,NA,NA,24.62686567164179
52353,Washington County,IA,NA,NA,47.01492537313433
52501,Wapello County,IA,NA,69.9537750385208,NA
52722,Scott County,IA,NA,17.41140215716487,NA
52748,Scott County,IA,NA,73.6517719568567,NA
52761,Muscatine County,IA,NA,7.24191063174114,NA
52804,Scott County,IA,NA,90.9090909090909,NA
52806,Scott County,IA,NA,64.86902927580893,NA
66061,Johnson County,KS,30.8411214953271,NA,NA
66062,Johnson County,KS,79.2056074766355,NA,NA
66064,Miami County,KS,NA,95.37750385208012,NA
66109,Wyandotte County,KS,NA,83.66718027734977,NA
66112,Wyandotte County,KS,NA,NA,92.16417910447761
66204,Johnson County,KS,NA,42.06471494607088,NA
66208,Johnson County,KS,96.49532710280374,NA,NA
66210,Johnson County,KS,NA,89.52234206471495,NA
66217,Johnson County,KS,NA,NA,99.25373134328358
66725,Cherokee County,KS,70.32710280373831,NA,NA
67005,Cowley County,KS,85.98130841121495,74.42218798151,NA
67114,Harvey County,KS,NA,NA,49.62686567164179
67601,Ellis County,KS,63.55140186915887,NA,NA
40004,Nelson County,KY,NA,16.33281972265023,NA
40069,Washington County,KY,NA,83.35901386748844,NA
40165,Bullitt County,KY,7.476635514018691,NA,NA
40211,Jefferson County,KY,NA,22.650231124807398,NA
40212,Jefferson County,KY,NA,50.847457627118644,NA
40216,Jefferson County,KY,19.158878504672895,NA,NA
40219,Jefferson County,KY,39.018691588785046,NA,85.44776119402985
40220,Jefferson County,KY,NA,53.62095531587057,NA
40243,Jefferson County,KY,NA,NA,42.91044776119403
40299,Jefferson County,KY,19.39252336448598,NA,NA
40330,Mercer County,KY,68.45794392523365,NA,NA
40503,Fayette County,KY,NA,NA,54.47761194029851
40508,Fayette County,KY,18.925233644859812,NA,NA
41230,Lawrence County,KY,NA,56.39445300462249,NA
41501,Pike County,KY,37.38317757009346,NA,NA
42001,McCracken County,KY,NA,54.39137134052389,29.850746268656714
42003,McCracken County,KY,NA,92.6040061633282,NA
42066,Graves County,KY,NA,53.929121725731896,NA
42164,Allen County,KY,NA,35.74730354391371,NA
42211,Trigg County,KY,64.25233644859813,26.964560862865948,NA
42240,Christian County,KY,3.9719626168224296,NA,NA
70115,Orleans Parish,LA,70.56074766355141,NA,NA
70117,Orleans Parish,LA,NA,82.12634822804314,NA
70119,Orleans Parish,LA,NA,57.93528505392912,NA
70125,Orleans Parish,LA,NA,72.88135593220339,NA
70128,Orleans Parish,LA,NA,19.568567026194145,NA
70461,St. Tammany Parish,LA,NA,70.41602465331279,NA
70462,Livingston Parish,LA,NA,83.82126348228043,NA
70501,Lafayette Parish,LA,0.46728971962616817,NA,NA
70548,Vermilion Parish,LA,89.25233644859813,NA,NA
70726,Livingston Parish,LA,NA,4.160246533127889,NA
70775,West Feliciana Parish,LA,85.04672897196261,NA,NA
70802,East Baton Rouge Parish,LA,NA,NA,38.80597014925373
70805,East Baton Rouge Parish,LA,NA,42.3728813559322,NA
70806,East Baton Rouge Parish,LA,NA,NA,29.47761194029851
70810,East Baton Rouge Parish,LA,NA,NA,86.19402985074626
70817,East Baton Rouge Parish,LA,NA,NA,89.17910447761194
70820,East Baton Rouge Parish,LA,88.3177570093458,NA,NA
71047,Caddo Parish,LA,31.308411214953267,NA,NA
71078,De Soto Parish,LA,NA,56.08628659476117,NA
71105,Caddo Parish,LA,NA,97.84283513097073,NA
71111,Bossier Parish,LA,NA,7.704160246533127,NA
71115,Caddo Parish,LA,NA,82.89676425269646,NA
71241,Union Parish,LA,NA,NA,45.8955223880597
71254,East Carroll Parish,LA,NA,84.28351309707242,NA
71263,West Carroll Parish,LA,81.07476635514018,NA,NA
71269,Richland Parish,LA,NA,NA,73.88059701492537
71291,Ouachita Parish,LA,60.51401869158879,NA,61.19402985074627
71301,Rapides Parish,LA,28.971962616822427,NA,NA
71302,Rapides Parish,LA,NA,37.28813559322034,NA
71303,Rapides Parish,LA,40.887850467289724,73.95993836671802,NA
71457,Natchitoches Parish,LA,NA,90.13867488443759,NA
04062,Cumberland County,ME,59.57943925233645,NA,NA
04103,Cumberland County,ME,NA,37.13405238828968,NA
04240,Androscoggin County,ME,NA,0.7704160246533128,NA
04743,Aroostook County,ME,96.72897196261682,NA,NA
20708,Prince George's County,MD,NA,99.38366718027734,NA
20721,Prince George's County,MD,NA,86.90292758089369,NA
20744,Prince George's County,MD,65.42056074766354,66.56394453004623,63.43283582089553
20746,Prince George's County,MD,91.82242990654206,44.8382126348228,NA
20901,Montgomery County,MD,NA,63.02003081664098,NA
21014,Harford County,MD,NA,18.952234206471495,NA
21015,Harford County,MD,NA,36.82588597842835,NA
21029,Howard County,MD,NA,93.68258859784284,NA
21043,Howard County,MD,NA,69.79969183359015,NA
21044,Howard County,MD,26.635514018691588,NA,NA
21047,Harford County,MD,NA,95.0693374422188,NA
21050,Harford County,MD,69.85981308411215,NA,NA
21061,Anne Arundel County,MD,NA,NA,48.507462686567166
21084,Harford County,MD,NA,89.21417565485362,NA
21111,Baltimore County,MD,NA,92.29583975346686,NA
21113,Anne Arundel County,MD,NA,85.05392912172573,NA
21117,Baltimore County,MD,16.588785046728972,NA,59.32835820895522
21120,Baltimore County,MD,91.58878504672897,NA,NA
21136,Baltimore County,MD,NA,NA,58.2089552238806
21204,Baltimore County,MD,46.728971962616825,NA,NA
21206,Baltimore city,MD,NA,NA,51.11940298507462
21207,Baltimore County,MD,49.06542056074766,NA,NA
21208,Baltimore County,MD,NA,20.03081664098613,NA
21210,Baltimore city,MD,NA,81.51001540832048,NA
21215,Baltimore city,MD,NA,23.42064714946071,NA
21217,Baltimore city,MD,10.981308411214954,NA,NA
21228,Baltimore County,MD,NA,NA,35.07462686567165
21234,Baltimore County,MD,NA,NA,3.731343283582089
21236,Baltimore County,MD,NA,74.73035439137135,NA
21401,Anne Arundel County,MD,NA,45.45454545454545,NA
21601,Talbot County,MD,NA,NA,26.865671641791046
21817,Somerset County,MD,NA,86.28659476117103,NA
21921,Cecil County,MD,60.280373831775705,71.34052388289676,NA
01013,Hampden County,MA,NA,NA,44.776119402985074
01085,Hampden County,MA,NA,NA,27.238805970149254
01420,Worcester County,MA,NA,NA,41.04477611940299
01607,Worcester County,MA,NA,48.69029275808937,NA
01610,Worcester County,MA,0,NA,NA
01702,Middlesex County,MA,NA,NA,4.104477611940299
01720,Middlesex County,MA,NA,NA,31.343283582089555
01749,Middlesex County,MA,NA,NA,78.35820895522389
01776,Middlesex County,MA,95.7943925233645,NA,NA
01801,Middlesex County,MA,NA,0.30816640986132515,0.3731343283582089
01821,Middlesex County,MA,35.74766355140187,NA,NA
01843,Essex County,MA,NA,32.5115562403698,NA
01844,Essex County,MA,0.23364485981308408,NA,NA
01851,Middlesex County,MA,NA,11.093990755007704,NA
01950,Essex County,MA,31.775700934579437,NA,NA
02129,Suffolk County,MA,59.813084112149525,NA,NA
02130,Suffolk County,MA,NA,0.6163328197226503,NA
02169,Norfolk County,MA,NA,2.9275808936825887,NA
02171,Norfolk County,MA,NA,9.861325115562405,NA
02180,Middlesex County,MA,80.37383177570094,NA,NA
02420,Middlesex County,MA,NA,75.50077041602465,NA
02474,Middlesex County,MA,NA,39.753466872110934,NA
02478,Middlesex County,MA,NA,39.59938366718028,NA
02492,Norfolk County,MA,NA,68.7211093990755,NA
02660,Barnstable County,MA,NA,72.72727272727273,NA
02664,Barnstable County,MA,NA,NA,56.343283582089555
02745,Bristol County,MA,0.46728971962616817,NA,NA
02747,Bristol County,MA,NA,NA,54.1044776119403
48001,St. Clair County,MI,NA,49.152542372881356,NA
48014,St. Clair County,MI,NA,98.15100154083206,NA
48021,Macomb County,MI,35.046728971962615,NA,NA
48033,Oakland County,MI,63.3177570093458,NA,NA
48040,St. Clair County,MI,NA,NA,64.17910447761194
48075,Oakland County,MI,NA,NA,17.537313432835823
48076,Oakland County,MI,17.990654205607477,NA,NA
48081,Macomb County,MI,47.19626168224299,NA,NA
48116,Livingston County,MI,NA,NA,7.835820895522389
48146,Wayne County,MI,18.457943925233643,NA,NA
48154,Wayne County,MI,NA,35.901386748844374,NA
48160,Washtenaw County,MI,93.45794392523365,NA,NA
48170,Wayne County,MI,NA,12.63482280431433,NA
48174,Wayne County,MI,NA,8.166409861325114,NA
48187,Wayne County,MI,NA,NA,5.970149253731343
48192,Wayne County,MI,NA,19.41448382126348,NA
48201,Wayne County,MI,NA,36.36363636363637,NA
48202,Wayne County,MI,16.355140186915886,NA,NA
48205,Wayne County,MI,NA,7.858243451463791,50.74626865671642
48206,Wayne County,MI,NA,17.103235747303543,NA
48221,Wayne County,MI,NA,19.26040061633282,NA
48236,Wayne County,MI,64.48598130841121,NA,NA
48322,Oakland County,MI,NA,NA,19.029850746268657
48327,Oakland County,MI,42.523364485981304,NA,NA
48328,Oakland County,MI,NA,43.91371340523883,NA
48430,Genesee County,MI,13.317757009345794,NA,NA
48708,Bay County,MI,41.58878504672897,NA,NA
48842,Ingham County,MI,NA,65.48536209553158,NA
48867,Shiawassee County,MI,15.42056074766355,NA,NA
48875,Ionia County,MI,NA,NA,83.2089552238806
48893,Isabella County,MI,87.14953271028037,NA,NA
48906,Ingham County,MI,NA,NA,55.223880597014926
49014,Calhoun County,MI,9.11214953271028,NA,NA
49022,Berrien County,MI,34.112149532710276,NA,NA
49120,Berrien County,MI,NA,NA,11.567164179104477
49201,Jackson County,MI,NA,NA,5.597014925373134
49221,Lenawee County,MI,NA,NA,26.119402985074625
49269,Jackson County,MI,NA,NA,76.49253731343283
49401,Ottawa County,MI,NA,64.09861325115563,NA
49418,Kent County,MI,20.327102803738317,NA,NA
49428,Ottawa County,MI,NA,18.489984591679505,NA
49444,Muskegon County,MI,NA,11.864406779661017,NA
49464,Ottawa County,MI,55.84112149532711,NA,NA
49506,Kent County,MI,NA,68.56702619414484,NA
49546,Kent County,MI,NA,NA,37.6865671641791
49665,Osceola County,MI,NA,92.44992295839754,NA
49721,Cheboygan County,MI,NA,50.077041602465336,NA
49749,Cheboygan County,MI,NA,NA,63.80597014925373
49855,Marquette County,MI,NA,NA,16.791044776119403
49878,Delta County,MI,NA,82.7426810477658,NA
55060,Steele County,MN,NA,60.55469953775039,NA
55063,Pine County,MN,NA,44.22187981510015,NA
55068,Dakota County,MN,NA,86.13251155624036,NA
55082,Washington County,MN,NA,14.021571648690292,NA
55104,Ramsey County,MN,NA,52.38828967642527,NA
55106,Ramsey County,MN,NA,14.637904468412943,NA
55109,Ramsey County,MN,NA,43.143297380585516,NA
55112,Ramsey County,MN,49.29906542056075,NA,NA
55118,Dakota County,MN,NA,NA,16.044776119402986
55123,Dakota County,MN,58.177570093457945,NA,NA
55125,Washington County,MN,NA,29.583975346687215,NA
55330,Sherburne County,MN,NA,79.19876733436055,NA
55340,Hennepin County,MN,NA,100,NA
55349,Wright County,MN,95.09345794392523,NA,NA
55371,Mille Lacs County,MN,NA,NA,91.04477611940298
55413,Hennepin County,MN,NA,28.197226502311246,NA
55804,St. Louis County,MN,NA,49.61479198767334,NA
56003,Nicollet County,MN,NA,48.228043143297384,NA
56031,Martin County,MN,NA,NA,35.82089552238806
56044,Sibley County,MN,NA,99.84591679506933,NA
56085,Brown County,MN,71.49532710280374,NA,NA
56172,Murray County,MN,NA,99.69183359013869,NA
56560,Clay County,MN,7.009345794392523,NA,NA
38654,DeSoto County,MS,NA,64.71494607087827,NA
38804,Lee County,MS,NA,78.12018489984591,NA
38829,Prentiss County,MS,NA,25.26964560862866,NA
39056,Hinds County,MS,73.36448598130842,NA,NA
39059,Copiah County,MS,NA,63.63636363636363,NA
39110,Madison County,MS,NA,92.91217257318952,NA
39206,Hinds County,MS,NA,NA,80.22388059701493
39503,Harrison County,MS,NA,1.694915254237288,NA
39553,Jackson County,MS,NA,59.630200308166415,NA
39567,Jackson County,MS,NA,NA,59.70149253731343
39573,Stone County,MS,NA,88.28967642526965,NA
39574,Harrison County,MS,31.074766355140188,NA,NA
39701,Lowndes County,MS,NA,67.33436055469953,93.28358208955224
39744,Webster County,MS,75.93457943925233,NA,NA
63011,St. Louis County,MO,NA,NA,3.3582089552238807
63069,Franklin County,MO,82.94392523364486,NA,NA
63107,St. Louis city,MO,43.69158878504673,NA,NA
63109,St. Louis city,MO,NA,NA,45.149253731343286
63111,St. Louis city,MO,NA,59.78428351309707,NA
63131,St. Louis County,MO,NA,74.26810477657936,NA
63303,St. Charles County,MO,34.57943925233645,6.163328197226503,NA
63640,St. Francois County,MO,22.19626168224299,NA,NA
63701,Cape Girardeau County,MO,NA,NA,15.298507462686567
64030,Jackson County,MO,NA,32.81972265023113,NA
64060,Clay County,MO,NA,NA,52.98507462686567
64132,Jackson County,MO,NA,33.12788906009245,NA
64133,Jackson County,MO,2.102803738317757,NA,NA
64138,Jackson County,MO,NA,8.782742681047766,NA
64155,Clay County,MO,NA,55.932203389830505,NA
64429,Clinton County,MO,28.738317757009348,NA,NA
64505,Buchanan County,MO,NA,13.405238828967642,NA
64507,Buchanan County,MO,NA,50.693374422187986,NA
64735,Henry County,MO,NA,NA,28.73134328358209
65301,Pettis County,MO,NA,3.8520801232665636,NA
65616,Taney County,MO,NA,20.647149460708782,NA
65810,Greene County,MO,NA,NA,51.865671641791046
59102,Yellowstone County,MT,NA,NA,0.7462686567164178
59602,Lewis and Clark County,MT,36.68224299065421,NA,NA
59715,Gallatin County,MT,NA,21.263482280431433,NA
59808,Missoula County,MT,NA,65.79352850539291,NA
59901,Flathead County,MT,NA,12.326656394453005,NA
68025,Dodge County,NE,NA,40.06163328197226,NA
68114,Douglas County,NE,NA,NA,76.11940298507463
68124,Douglas County,NE,NA,63.32819722650231,NA
68164,Douglas County,NE,NA,97.68875192604007,NA
68845,Buffalo County,NE,62.149532710280376,NA,NA
69101,Lincoln County,NE,34.81308411214953,NA,NA
89119,Clark County,NV,NA,28.65947611710323,NA
89502,Washoe County,NV,NA,10.323574730354391,27.611940298507463
89508,Washoe County,NV,67.5233644859813,88.59784283513096,NA
89509,Washoe County,NV,NA,55.77812018489985,NA
89512,Washoe County,NV,NA,28.043143297380585,NA
03064,Hillsborough County,NH,NA,28.50539291217257,NA
03076,Hillsborough County,NH,NA,34.66872110939907,NA
03103,Hillsborough County,NH,NA,5.546995377503852,NA
03561,Grafton County,NH,NA,91.06317411402158,NA
03773,Sullivan County,NH,58.87850467289719,NA,NA
03867,Strafford County,NH,72.42990654205607,80.89368258859785,NA
07001,Middlesex County,NJ,NA,NA,95.8955223880597
07003,Essex County,NJ,NA,NA,68.28358208955224
07005,Morris County,NJ,NA,61.47919876733437,NA
07011,Passaic County,NJ,NA,NA,57.46268656716418
07039,Essex County,NJ,NA,NA,22.01492537313433
07065,Union County,NJ,11.448598130841122,NA,NA
07066,Union County,NJ,78.27102803738318,NA,NA
07080,Middlesex County,NJ,NA,91.52542372881356,NA
07201,Union County,NJ,4.205607476635514,NA,NA
07202,Union County,NJ,3.7383177570093453,NA,NA
07203,Union County,NJ,NA,34.9768875192604,NA
07407,Bergen County,NJ,NA,36.97996918335901,NA
07430,Bergen County,NJ,76.16822429906543,NA,NA
07470,Passaic County,NJ,NA,14.175654853620955,NA
07502,Passaic County,NJ,NA,NA,91.4179104477612
07621,Bergen County,NJ,NA,NA,36.19402985074627
07734,Monmouth County,NJ,9.813084112149532,NA,NA
07748,Monmouth County,NJ,40.42056074766355,NA,NA
07757,Monmouth County,NJ,NA,79.50693374422187,NA
07920,Somerset County,NJ,NA,76.42526964560862,NA
07921,Somerset County,NJ,NA,NA,70.8955223880597
07936,Morris County,NJ,91.1214953271028,NA,NA
07960,Morris County,NJ,NA,NA,46.64179104477612
08002,Camden County,NJ,69.39252336448598,NA,NA
08028,Gloucester County,NJ,8.878504672897195,NA,NA
08046,Burlington County,NJ,3.5046728971962615,NA,NA
08054,Burlington County,NJ,NA,45.76271186440678,NA
08081,Camden County,NJ,55.373831775700936,NA,NA
08085,Gloucester County,NJ,87.38317757009347,NA,NA
08093,Gloucester County,NJ,NA,NA,67.91044776119402
08096,Gloucester County,NJ,NA,4.314329738058552,NA
08098,Salem County,NJ,84.34579439252336,NA,NA
08106,Camden County,NJ,93.69158878504673,NA,NA
08108,Camden County,NJ,NA,34.05238828967643,NA
08110,Camden County,NJ,7.242990654205607,NA,NA
08234,Atlantic County,NJ,NA,70.57010785824345,NA
08540,Mercer County,NJ,NA,21.417565485362093,NA
08724,Ocean County,NJ,58.64485981308412,NA,NA
08759,Ocean County,NJ,NA,NA,0
08820,Middlesex County,NJ,NA,NA,44.40298507462687
08831,Middlesex County,NJ,88.08411214953271,NA,NA
08837,Middlesex County,NJ,NA,91.98767334360555,NA
08844,Somerset County,NJ,48.36448598130841,NA,NA
08846,Middlesex County,NJ,NA,48.38212634822804,NA
08865,Warren County,NJ,2.803738317757009,NA,NA
08876,Somerset County,NJ,NA,37.59630200308167,NA
08889,Hunterdon County,NJ,NA,96.61016949152543,NA
87031,Valencia County,NM,NA,17.565485362095533,NA
87102,Bernalillo County,NM,NA,28.35130970724191,NA
87110,Bernalillo County,NM,21.962616822429908,NA,NA
87506,Santa Fe County,NM,NA,28.8135593220339,NA
88001,Doa Ana County,NM,NA,NA,39.17910447761194
88005,Doa Ana County,NM,NA,NA,63.059701492537314
10002,New York County,NY,NA,1.2326656394453006,NA
10016,New York County,NY,NA,30.0462249614792,NA
10021,New York County,NY,NA,73.18952234206472,NA
10028,New York County,NY,NA,79.35285053929123,NA
10301,Richmond County,NY,NA,6.317411402157165,NA
10303,Richmond County,NY,NA,26.656394453004623,NA
10314,Richmond County,NY,NA,14.329738058551616,NA
10459,Bronx County,NY,71.72897196261682,NA,NA
10567,Westchester County,NY,94.39252336448598,NA,NA
10590,Westchester County,NY,NA,NA,100
10603,Westchester County,NY,NA,NA,66.4179104477612
10704,Westchester County,NY,84.57943925233646,NA,NA
10709,Westchester County,NY,NA,77.34976887519261,NA
10710,Westchester County,NY,NA,NA,34.32835820895522
10940,Orange County,NY,61.21495327102804,NA,NA
11021,Nassau County,NY,NA,88.13559322033898,64.92537313432835
11206,Kings County,NY,47.66355140186916,NA,NA
11207,Kings County,NY,39.719626168224295,NA,NA
11212,Kings County,NY,4.205607476635514,NA,NA
11218,Kings County,NY,NA,NA,25.37313432835821
11225,Kings County,NY,NA,NA,22.388059701492537
11226,Kings County,NY,NA,1.078582434514638,NA
11234,Kings County,NY,NA,NA,11.940298507462686
11238,Kings County,NY,NA,29.121725731895225,NA
11554,Nassau County,NY,NA,NA,16.417910447761194
11704,Suffolk County,NY,NA,NA,20.149253731343283
11710,Nassau County,NY,NA,75.80893682588598,NA
11720,Suffolk County,NY,NA,NA,81.34328358208955
11725,Suffolk County,NY,NA,NA,13.059701492537313
11727,Suffolk County,NY,NA,44.22187981510015,NA
11738,Suffolk County,NY,NA,NA,88.43283582089553
11746,Suffolk County,NY,NA,NA,77.23880597014924
11776,Suffolk County,NY,NA,NA,32.46268656716418
11791,Nassau County,NY,80.60747663551402,NA,NA
11935,Suffolk County,NY,NA,NA,79.47761194029852
11942,Suffolk County,NY,NA,NA,97.01492537313433
11949,Suffolk County,NY,NA,96.14791987673344,NA
11961,Suffolk County,NY,NA,NA,25.74626865671642
12205,Albany County,NY,57.242990654205606,NA,NA
12477,Ulster County,NY,NA,NA,79.1044776119403
12538,Dutchess County,NY,NA,37.442218798151,NA
12561,Ulster County,NY,96.96261682242991,NA,NA
12571,Dutchess County,NY,NA,96.76425269645608,NA
12828,Washington County,NY,49.532710280373834,NA,NA
12866,Saratoga County,NY,NA,23.728813559322035,NA
12962,Clinton County,NY,NA,52.2342064714946,NA
12979,Clinton County,NY,NA,99.07550077041603,NA
13077,Cortland County,NY,NA,NA,69.77611940298507
13104,Onondaga County,NY,NA,NA,74.6268656716418
13135,Oswego County,NY,72.66355140186917,NA,NA
13203,Onondaga County,NY,9.345794392523365,NA,NA
13206,Onondaga County,NY,12.616822429906541,NA,NA
13207,Onondaga County,NY,NA,51.15562403697997,NA
13302,Oswego County,NY,95.32710280373831,NA,NA
13327,Lewis County,NY,NA,95.68567026194145,NA
13421,Madison County,NY,12.149532710280374,NA,NA
13492,Oneida County,NY,NA,NA,47.38805970149254
13617,St. Lawrence County,NY,NA,47.45762711864407,NA
13662,St. Lawrence County,NY,17.289719626168225,NA,NA
13676,St. Lawrence County,NY,NA,53.15870570107858,NA
13790,Broome County,NY,NA,3.697996918335902,NA
13820,Otsego County,NY,5.841121495327103,NA,NA
13905,Broome County,NY,NA,2.157164869029276,NA
14036,Genesee County,NY,NA,89.6764252696456,NA
14063,Chautauqua County,NY,NA,81.97226502311248,NA
14092,Niagara County,NY,NA,27.426810477657938,NA
14120,Niagara County,NY,NA,3.0816640986132513,NA
14424,Ontario County,NY,69.62616822429906,NA,NA
14450,Monroe County,NY,1.1682242990654206,18.181818181818183,NA
14464,Monroe County,NY,NA,70.57010785824345,NA
14512,Ontario County,NY,50.467289719626166,NA,NA
14548,Ontario County,NY,42.05607476635514,NA,NA
14564,Ontario County,NY,30.373831775700932,60.0924499229584,NA
14619,Monroe County,NY,NA,52.54237288135594,NA
14727,Allegany County,NY,NA,58.39753466872111,NA
14840,Steuben County,NY,NA,59.93836671802774,NA
27104,Forsyth County,NC,NA,NA,1.8656716417910446
27107,Forsyth County,NC,1.8691588785046727,NA,1.1194029850746268
27215,Alamance County,NC,6.074766355140187,NA,NA
27217,Alamance County,NC,NA,NA,30.223880597014922
27292,Davidson County,NC,NA,17.257318952234208,NA
27330,Lee County,NC,NA,39.13713405238829,NA
27401,Guilford County,NC,NA,NA,69.02985074626866
27406,Guilford County,NC,21.261682242990652,NA,NA
27410,Guilford County,NC,NA,74.57627118644068,NA
27504,Johnston County,NC,NA,40.36979969183359,NA
27511,Wake County,NC,42.28971962616823,NA,NA
27514,Orange County,NC,NA,74.11402157164869,NA
27516,Orange County,NC,82.00934579439252,57.01078582434514,NA
27517,Orange County,NC,NA,NA,41.7910447761194
27518,Wake County,NC,NA,32.973805855161785,NA
27519,Wake County,NC,53.50467289719626,NA,NA
27525,Franklin County,NC,NA,NA,92.53731343283582
27540,Wake County,NC,NA,NA,69.40298507462687
27587,Wake County,NC,NA,4.622496147919876,NA
27603,Wake County,NC,NA,40.67796610169492,NA
27608,Wake County,NC,NA,87.82742681047766,NA
27610,Wake County,NC,54.4392523364486,NA,NA
27614,Wake County,NC,44.626168224299064,NA,NA
27616,Wake County,NC,NA,22.033898305084744,NA
27704,Durham County,NC,NA,69.33744221879815,NA
27713,Durham County,NC,66.58878504672897,NA,NA
27896,Wilson County,NC,29.906542056074763,NA,NA
27944,Perquimans County,NC,NA,30.970724191063177,NA
28001,Stanly County,NC,NA,53.004622496147924,NA
28056,Gaston County,NC,NA,NA,89.92537313432835
28117,Iredell County,NC,16.121495327102803,NA,NA
28206,Mecklenburg County,NC,62.383177570093466,NA,NA
28215,Mecklenburg County,NC,NA,9.399075500770417,NA
28227,Mecklenburg County,NC,9.579439252336448,NA,NA
28352,Scotland County,NC,36.915887850467286,NA,NA
28358,Robeson County,NC,8.644859813084112,NA,NA
28360,Robeson County,NC,NA,40.21571648690293,NA
28601,Catawba County,NC,40.654205607476634,NA,NA
28610,Catawba County,NC,NA,NA,95.1492537313433
28713,Swain County,NC,NA,38.82896764252696,NA
28748,Buncombe County,NC,NA,63.48228043143297,NA
28791,Henderson County,NC,NA,NA,10.44776119402985
28906,Cherokee County,NC,26.168224299065418,NA,NA
58554,Morton County,ND,NA,NA,7.08955223880597
58801,Williams County,ND,45.32710280373832,NA,NA
43055,Licking County,OH,NA,26.810477657935284,NA
43064,Madison County,OH,NA,98.30508474576271,NA
43123,Franklin County,OH,54.90654205607477,NA,NA
43125,Franklin County,OH,NA,NA,88.05970149253731
43140,Madison County,OH,46.02803738317757,NA,NA
43204,Franklin County,OH,NA,44.53004622496148,NA
43326,Hardin County,OH,NA,24.65331278890601,NA
43431,Sandusky County,OH,94.1588785046729,NA,NA
43560,Lucas County,OH,74.76635514018692,NA,NA
43566,Lucas County,OH,NA,79.96918335901387,NA
43605,Lucas County,OH,0.9345794392523363,NA,NA
43620,Lucas County,OH,NA,69.02927580893683,NA
43725,Guernsey County,OH,7.943925233644859,NA,NA
44044,Lorain County,OH,NA,66.10169491525424,NA
44060,Lake County,OH,NA,0,NA
44070,Cuyahoga County,OH,NA,43.6055469953775,NA
44077,Lake County,OH,NA,NA,29.1044776119403
44102,Cuyahoga County,OH,14.719626168224298,NA,NA
44105,Cuyahoga County,OH,NA,67.95069337442219,NA
44107,Cuyahoga County,OH,NA,NA,48.88059701492538
44112,Cuyahoga County,OH,NA,NA,12.686567164179104
44118,Cuyahoga County,OH,6.775700934579438,NA,NA
44120,Cuyahoga County,OH,1.4018691588785046,1.386748844375963,NA
44121,Cuyahoga County,OH,NA,7.0878274268104775,NA
44125,Cuyahoga County,OH,NA,5.084745762711865,NA
44126,Cuyahoga County,OH,NA,54.54545454545454,NA
44133,Cuyahoga County,OH,14.018691588785046,NA,NA
44134,Cuyahoga County,OH,NA,NA,2.9850746268656714
44137,Cuyahoga County,OH,NA,5.3929121725731894,NA
44138,Cuyahoga County,OH,NA,13.251155624036981,NA
44146,Cuyahoga County,OH,NA,NA,25
44149,Cuyahoga County,OH,NA,NA,8.955223880597014
44212,Medina County,OH,NA,0.15408320493066258,NA
44240,Portage County,OH,NA,10.631741140215716,NA
44408,Columbiana County,OH,NA,47.14946070878274,NA
44622,Tuscarawas County,OH,43.45794392523364,NA,NA
44646,Stark County,OH,NA,6.779661016949152,NA
44647,Stark County,OH,27.570093457943923,NA,NA
44691,Wayne County,OH,4.672897196261682,NA,NA
44705,Stark County,OH,NA,21.571648690292758,NA
44720,Stark County,OH,NA,62.557781201849,NA
44870,Erie County,OH,NA,NA,4.477611940298507
45036,Warren County,OH,NA,NA,31.343283582089555
45066,Warren County,OH,NA,28.96764252696456,NA
45315,Montgomery County,OH,NA,NA,96.26865671641791
45323,Clark County,OH,79.67289719626169,NA,NA
45331,Darke County,OH,NA,13.559322033898304,NA
45381,Preble County,OH,NA,NA,66.04477611940298
45403,Montgomery County,OH,NA,84.89984591679507,NA
45415,Montgomery County,OH,NA,82.58859784283513,NA
45440,Montgomery County,OH,37.850467289719624,NA,NA
45648,Scioto County,OH,NA,33.7442218798151,NA
45714,Washington County,OH,44.85981308411215,NA,NA
45742,Washington County,OH,NA,95.53158705701078,NA
73020,Oklahoma County,OK,22.66355140186916,15.408320493066254,NA
73034,Oklahoma County,OK,14.953271028037381,NA,NA
73044,Logan County,OK,55.60747663551402,NA,NA
73096,Custer County,OK,42.757009345794394,NA,NA
73107,Oklahoma County,OK,56.074766355140184,NA,NA
73111,Oklahoma County,OK,41.822429906542055,NA,NA
73116,Oklahoma County,OK,88.55140186915888,NA,NA
73129,Oklahoma County,OK,NA,53.312788906009246,NA
73134,Oklahoma County,OK,97.19626168224299,NA,NA
73142,Oklahoma County,OK,77.33644859813083,NA,NA
73151,Oklahoma County,OK,99.53271028037383,NA,NA
73159,Oklahoma County,OK,50.93457943925234,NA,NA
73801,Woodward County,OK,NA,53.46687211093991,NA
74066,Creek County,OK,17.523364485981308,21.879815100154083,NA
74114,Tulsa County,OK,92.5233644859813,NA,NA
74126,Tulsa County,OK,72.19626168224299,NA,NA
74135,Tulsa County,OK,NA,24.961479198767332,NA
74136,Tulsa County,OK,NA,56.70261941448382,NA
74432,McIntosh County,OK,NA,58.705701078582436,NA
97004,Clackamas County,OR,NA,85.20801232665639,NA
97007,Washington County,OR,NA,16.178736517719567,NA
97132,Yamhill County,OR,NA,NA,23.507462686567166
97212,Multnomah County,OR,NA,NA,74.25373134328358
97218,Multnomah County,OR,NA,90.60092449922959,NA
97220,Multnomah County,OR,NA,60.24653312788906,NA
97222,Clackamas County,OR,15.654205607476634,NA,NA
97224,Washington County,OR,67.7570093457944,NA,NA
97304,Polk County,OR,NA,34.514637904468415,NA
97305,Marion County,OR,67.05607476635514,NA,NA
97306,Marion County,OR,NA,65.0231124807396,NA
97338,Polk County,OR,NA,NA,45.52238805970149
97365,Lincoln County,OR,NA,67.02619414483821,NA
97424,Lane County,OR,NA,NA,27.985074626865668
97467,Douglas County,OR,NA,46.84129429892142,NA
97504,Jackson County,OR,NA,7.550077041602465,NA
97702,Deschutes County,OR,76.86915887850468,22.80431432973806,NA
97703,Deschutes County,OR,NA,NA,97.38805970149254
97814,Baker County,OR,NA,25.731895223420647,NA
15062,Westmoreland County,PA,91.35514018691589,NA,NA
15071,Allegheny County,PA,NA,NA,43.656716417910445
15202,Allegheny County,PA,NA,NA,39.92537313432835
15204,Allegheny County,PA,43.22429906542056,NA,NA
15205,Allegheny County,PA,25.233644859813083,NA,NA
15217,Allegheny County,PA,NA,12.172573189522343,13.805970149253731
15221,Allegheny County,PA,44.39252336448598,NA,NA
15222,Allegheny County,PA,NA,73.80585516178738,NA
15236,Allegheny County,PA,90.42056074766354,NA,NA
15243,Allegheny County,PA,NA,55.62403697996918,NA
15857,Elk County,PA,NA,5.238828967642527,NA
16803,Centre County,PA,NA,38.058551617873654,NA
16827,Centre County,PA,NA,91.37134052388289,NA
17011,Cumberland County,PA,NA,10.015408320493066,NA
17022,Lancaster County,PA,NA,67.18027734976889,NA
17036,Dauphin County,PA,NA,42.83513097072419,NA
17038,Lebanon County,PA,NA,94.14483821263482,NA
17050,Cumberland County,PA,59.112149532710276,NA,NA
17055,Cumberland County,PA,NA,NA,6.343283582089552
17057,Dauphin County,PA,NA,76.11710323574731,NA
17078,Lebanon County,PA,NA,91.83359013867488,4.850746268656716
17109,Dauphin County,PA,NA,72.41910631741139,NA
17111,Dauphin County,PA,NA,46.687211093990754,NA
17112,Dauphin County,PA,NA,2.465331278890601,NA
17201,Franklin County,PA,46.49532710280374,NA,12.313432835820896
17257,Cumberland County,PA,11.682242990654206,NA,NA
17316,Adams County,PA,NA,94.76117103235747,NA
17406,York County,PA,19.859813084112147,NA,NA
17517,Lancaster County,PA,32.476635514018696,NA,NA
17545,Lancaster County,PA,95.56074766355141,NA,NA
17566,Lancaster County,PA,80.14018691588785,NA,NA
17701,Lycoming County,PA,NA,19.568567026194145,NA
17745,Clinton County,PA,NA,76.88751926040062,NA
18015,Northampton County,PA,NA,13.713405238828969,NA
18040,Northampton County,PA,NA,NA,32.08955223880597
18067,Northampton County,PA,21.72897196261682,NA,NA
18103,Lehigh County,PA,NA,2.6194144838212634,NA
18201,Luzerne County,PA,NA,NA,21.641791044776117
18411,Lackawanna County,PA,25.46728971962617,NA,NA
18510,Lackawanna County,PA,65.65420560747664,NA,NA
18707,Luzerne County,PA,NA,61.17103235747303,NA
18966,Bucks County,PA,NA,41.60246533127889,NA
19006,Montgomery County,PA,NA,95.99383667180277,NA
19008,Delaware County,PA,67.28971962616822,NA,NA
19018,Delaware County,PA,NA,NA,47.76119402985074
19026,Delaware County,PA,NA,NA,70.52238805970148
19041,Delaware County,PA,NA,98.7673343605547,NA
19070,Delaware County,PA,NA,99.53775038520801,NA
19096,Montgomery County,PA,NA,51.61787365177196,NA
19103,Philadelphia County,PA,NA,NA,50.373134328358205
19111,Philadelphia County,PA,39.48598130841122,NA,NA
19116,Philadelphia County,PA,NA,88.75192604006163,NA
19124,Philadelphia County,PA,5.373831775700935,NA,NA
19128,Philadelphia County,PA,NA,15.870570107858242,NA
19135,Philadelphia County,PA,NA,22.18798151001541,NA
19140,Philadelphia County,PA,NA,4.776579352850539,NA
19141,Philadelphia County,PA,41.35514018691589,48.844375963020035,NA
19142,Philadelphia County,PA,89.95327102803739,NA,NA
19145,Philadelphia County,PA,NA,94.45300462249615,NA
19148,Philadelphia County,PA,31.542056074766357,NA,NA
19149,Philadelphia County,PA,NA,82.12634822804314,NA
19154,Philadelphia County,PA,NA,84.7457627118644,NA
19344,Chester County,PA,NA,86.4406779661017,NA
19350,Chester County,PA,NA,69.64560862865947,NA
19382,Chester County,PA,77.80373831775701,NA,NA
19405,Montgomery County,PA,98.36448598130842,NA,NA
19438,Montgomery County,PA,NA,60.24653312788906,NA
19465,Chester County,PA,84.81308411214953,43.759630200308166,NA
19522,Berks County,PA,41.1214953271028,NA,NA
19530,Berks County,PA,NA,89.06009244992296,NA
02816,Kent County,RI,63.084112149532714,NA,NA
02818,Kent County,RI,NA,25.423728813559322,NA
02852,Washington County,RI,NA,16.024653312788907,NA
02891,Washington County,RI,NA,97.22650231124807,NA
02895,Providence County,RI,22.429906542056074,NA,NA
02896,Providence County,RI,NA,61.63328197226502,NA
02904,Providence County,RI,NA,9.70724191063174,NA
29063,Richland County,SC,35.51401869158878,NA,NA
29078,Kershaw County,SC,NA,72.57318952234206,NA
29130,Fairfield County,SC,NA,93.8366718027735,NA
29154,Sumter County,SC,29.439252336448597,NA,NA
29169,Lexington County,SC,NA,96.45608628659477,NA
29203,Richland County,SC,NA,11.710323574730355,NA
29205,Richland County,SC,NA,91.21725731895224,NA
29212,Lexington County,SC,NA,NA,40.298507462686565
29302,Spartanburg County,SC,NA,73.34360554699538,NA
29306,Spartanburg County,SC,60.747663551401864,NA,NA
29349,Spartanburg County,SC,NA,10.477657935285054,NA
29412,Charleston County,SC,NA,11.248073959938367,NA
29455,Charleston County,SC,NA,62.09553158705701,NA
29461,Berkeley County,SC,NA,71.49460708782742,NA
29466,Charleston County,SC,NA,31.124807395993837,NA
29505,Florence County,SC,25.934579439252335,NA,NA
29526,Horry County,SC,NA,5.855161787365177,NA
29642,Pickens County,SC,NA,NA,19.776119402985074
29662,Greenville County,SC,NA,75.96302003081664,NA
29670,Anderson County,SC,NA,65.17719568567027,NA
29671,Pickens County,SC,NA,40.36979969183359,NA
29702,Cherokee County,SC,51.86915887850467,NA,NA
29707,Lancaster County,SC,NA,NA,60.820895522388064
29708,York County,SC,NA,77.96610169491525,NA
29720,Lancaster County,SC,64.7196261682243,NA,NA
29732,York County,SC,64.95327102803739,NA,NA
29803,Aiken County,SC,NA,4.930662557781202,NA
29909,Beaufort County,SC,NA,31.895223420647152,NA
57006,Brookings County,SD,NA,68.25885978428352,NA
57703,Pennington County,SD,NA,57.781201848998464,NA
57747,Fall River County,SD,NA,93.0662557781202,NA
37013,Davidson County,TN,6.308411214953271,NA,NA
37027,Williamson County,TN,NA,12.480739599383666,NA
37040,Montgomery County,TN,50,NA,NA
37043,Montgomery County,TN,NA,63.944530046224955,NA
37087,Wilson County,TN,NA,39.907550077041606,NA
37090,Wilson County,TN,NA,59.01386748844376,NA
37110,Warren County,TN,NA,14.48382126348228,NA
37127,Rutherford County,TN,NA,57.473035439137135,NA
37130,Rutherford County,TN,NA,75.19260400616334,NA
37148,Sumner County,TN,NA,57.16486902927581,NA
37160,Bedford County,TN,NA,20.184899845916796,NA
37167,Rutherford County,TN,NA,13.86748844375963,NA
37209,Davidson County,TN,NA,62.71186440677966,NA
37215,Davidson County,TN,NA,41.294298921417564,NA
37216,Davidson County,TN,NA,68.10477657935286,NA
37324,Franklin County,TN,NA,NA,84.70149253731343
37620,Sullivan County,TN,NA,NA,65.67164179104478
38060,Fayette County,TN,NA,NA,71.64179104477611
38108,Shelby County,TN,NA,35.130970724191066,NA
38111,Shelby County,TN,NA,NA,34.701492537313435
38117,Shelby County,TN,NA,71.64869029275809,NA
38125,Shelby County,TN,57.476635514018696,NA,NA
38138,Shelby County,TN,66.1214953271028,NA,NA
38501,Putnam County,TN,NA,88.9060092449923,NA
75013,Collin County,TX,53.73831775700935,NA,77.98507462686567
75019,Dallas County,TX,33.177570093457945,NA,NA
75024,Collin County,TX,38.78504672897196,NA,NA
75063,Dallas County,TX,36.21495327102804,NA,NA
75069,Collin County,TX,NA,76.27118644067797,NA
75070,Collin County,TX,8.177570093457943,NA,64.55223880597015
75074,Collin County,TX,68.22429906542055,NA,NA
75077,Denton County,TX,NA,85.824345146379045,NA
75081,Dallas County,TX,NA,29.738058551617875,NA
75092,Grayson County,TX,52.336448598130836,NA,NA
75093,Collin County,TX,NA,45.76271186440678,NA
75104,Dallas County,TX,NA,43.29738058551618,NA
75110,Navarro County,TX,NA,27.73497688751926,NA
75115,Dallas County,TX,NA,10.16949152542373,NA
75117,Van Zandt County,TX,99.29906542056075,NA,NA
75137,Dallas County,TX,72.89719626168224,NA,NA
75154,Ellis County,TX,50.23364485981309,NA,NA
75203,Dallas County,TX,NA,45.60862865947612,NA
75204,Dallas County,TX,62.850467289719624,NA,NA
75209,Dallas County,TX,NA,46.22496147919877,NA
75216,Dallas County,TX,NA,23.26656394453005,NA
75218,Dallas County,TX,NA,38.52080123266564,NA
75227,Dallas County,TX,NA,NA,53.73134328358209
75232,Dallas County,TX,NA,84.12942989214176,NA
75238,Dallas County,TX,NA,79.04468412942988,NA
75254,Dallas County,TX,96.26168224299066,NA,NA
75672,Harrison County,TX,NA,40.83204930662558,NA
75785,Cherokee County,TX,NA,34.82280431432974,NA
75835,Houston County,TX,44.1588785046729,NA,NA
75935,Shelby County,TX,NA,58.55161787365177,NA
75966,Newton County,TX,98.83177570093457,NA,NA
76008,Parker County,TX,83.64485981308411,NA,NA
76014,Tarrant County,TX,NA,NA,57.83582089552238
76028,Johnson County,TX,NA,1.848998459167951,NA
76051,Tarrant County,TX,97.89719626168224,NA,NA
76063,Tarrant County,TX,NA,26.502311248073962,NA
76116,Tarrant County,TX,NA,45.300462249614796,NA
76504,Bell County,TX,NA,0.9244992295839755,NA
76513,Bell County,TX,NA,0.46224961479198773,NA
76901,Tom Green County,TX,NA,18.335901386748844,NA
77009,Harris County,TX,51.16822429906542,NA,NA
77021,Harris County,TX,NA,49.922958397534664,NA
77025,Harris County,TX,NA,NA,84.32835820895522
77036,Harris County,TX,NA,13.097072419106318,NA
77040,Harris County,TX,NA,17.719568567026194,NA
77041,Harris County,TX,NA,51.771956856702616,NA
77051,Harris County,TX,NA,36.209553158705695,NA
77053,Fort Bend County,TX,38.31775700934579,NA,NA
77069,Harris County,TX,NA,81.0477657935285,98.13432835820896
77075,Harris County,TX,83.8785046728972,NA,NA
77083,Harris County,TX,23.364485981308412,NA,NA
77084,Harris County,TX,48.598130841121495,65.63944530046226,NA
77087,Harris County,TX,NA,96.91833590138675,NA
77090,Harris County,TX,39.953271028037385,34.36055469953775,NA
77096,Harris County,TX,NA,26.040061633281976,NA
77099,Harris County,TX,32.94392523364486,NA,NA
77302,Montgomery County,TX,NA,58.089368258859785,NA
77303,Montgomery County,TX,88.78504672897196,NA,NA
77304,Montgomery County,TX,NA,NA,41.417910447761194
77336,Harris County,TX,NA,83.5130970724191,NA
77339,Harris County,TX,NA,97.38058551617874,NA
77346,Harris County,TX,NA,47.919876733436055,NA
77355,Montgomery County,TX,NA,98.45916795069337,NA
77380,Montgomery County,TX,92.99065420560748,NA,NA
77381,Montgomery County,TX,NA,72.26502311248075,65.29850746268657
77385,Montgomery County,TX,85.2803738317757,NA,NA
77388,Harris County,TX,NA,84.59167950693374,NA
77389,Harris County,TX,97.66355140186917,NA,NA
77396,Harris County,TX,46.26168224299065,NA,NA
77401,Harris County,TX,98.13084112149532,NA,NA
77406,Fort Bend County,TX,NA,42.98921417565486,NA
77433,Harris County,TX,62.616822429906534,NA,NA
77447,Harris County,TX,48.13084112149533,NA,NA
77450,Harris County,TX,NA,33.59013867488444,96.64179104477611
77474,Austin County,TX,NA,33.43605546995377,NA
77494,Fort Bend County,TX,83.17757009345794,30.81664098613251,NA
77498,Fort Bend County,TX,NA,84.43759630200309,NA
77503,Harris County,TX,NA,78.73651771956857,NA
77532,Harris County,TX,23.130841121495326,NA,NA
77536,Harris County,TX,NA,23.57473035439137,NA
77546,Galveston County,TX,81.77570093457945,6.00924499229584,NA
77551,Galveston County,TX,NA,NA,17.16417910447761
77573,Galveston County,TX,5.607476635514018,NA,NA
77578,Brazoria County,TX,43.925233644859816,NA,NA
77581,Brazoria County,TX,NA,12.01848998459168,NA
77584,Brazoria County,TX,6.5420560747663545,NA,NA
77630,Orange County,TX,NA,76.73343605546995,60.07462686567165
77657,Hardin County,TX,78.97196261682244,NA,NA
77802,Brazos County,TX,13.551401869158877,NA,NA
77807,Brazos County,TX,73.83177570093457,NA,NA
77840,Brazos County,TX,NA,80.2773497688752,NA
77879,Burleson County,TX,NA,94.91525423728814,NA
77995,Lavaca County,TX,NA,83.9753466872111,NA
78124,Guadalupe County,TX,86.21495327102804,NA,NA
78132,Comal County,TX,NA,86.74884437596302,NA
78209,Bexar County,TX,NA,NA,72.38805970149254
78227,Bexar County,TX,NA,32.20338983050847,NA
78416,Nueces County,TX,61.44859813084113,NA,NA
78520,Cameron County,TX,59.345794392523366,NA,NA
78572,Hidalgo County,TX,NA,9.553158705701078,NA
78577,Hidalgo County,TX,52.80373831775701,NA,NA
78589,Hidalgo County,TX,61.6822429906542,NA,NA
78611,Burnet County,TX,55.140186915887845,NA,NA
78654,Burnet County,TX,NA,85.36209553158706,NA
78665,Williamson County,TX,28.037383177570092,NA,NA
78757,Travis County,TX,NA,NA,81.71641791044776
78956,Fayette County,TX,NA,75.65485362095532,NA
79110,Randall County,TX,NA,62.865947611710325,NA
79323,Yoakum County,TX,53.97196261682243,NA,NA
79360,Gaines County,TX,NA,NA,46.26865671641791
79412,Lubbock County,TX,NA,NA,61.56716417910447
79424,Lubbock County,TX,NA,NA,83.5820895522388
79705,Midland County,TX,NA,NA,36.56716417910448
79707,Midland County,TX,57.009345794392516,25.577812018489986,NA
79764,Ector County,TX,33.41121495327103,NA,NA
84009,Salt Lake County,UT,56.54205607476636,NA,NA
84050,Morgan County,UT,NA,70.26194144838213,NA
84074,Tooele County,UT,NA,10.939907550077042,NA
84404,Weber County,UT,NA,NA,37.3134328358209
84405,Weber County,UT,NA,95.83975346687211,NA
84414,Weber County,UT,NA,78.27426810477658,NA
84737,Washington County,UT,NA,NA,91.7910447761194
05201,Bennington County,VT,NA,55.1617873651772,NA
05403,Chittenden County,VT,NA,29.429892141756547,NA
05488,Franklin County,VT,NA,36.67180277349769,NA
05495,Chittenden County,VT,NA,69.02927580893683,NA
20187,Fauquier County,VA,NA,52.85053929121726,NA
22032,Fairfax County,VA,NA,55.007704160246526,NA
22033,Fairfax County,VA,37.61682242990654,NA,NA
22182,Fairfax County,VA,75.70093457943925,NA,NA
22193,Prince William County,VA,49.76635514018692,NA,NA
22204,Arlington County,VA,14.485981308411214,NA,NA
22304,Alexandria city,VA,NA,76.5793528505393,NA
22312,Fairfax County,VA,24.299065420560748,NA,NA
22655,Frederick County,VA,NA,60.86286594761171,NA
22657,Shenandoah County,VA,74.06542056074767,NA,NA
22727,Madison County,VA,NA,NA,67.53731343283582
22802,Harrisonburg city,VA,12.383177570093459,NA,NA
22901,Albemarle County,VA,NA,NA,28.35820895522388
22942,Louisa County,VA,NA,81.35593220338984,NA
23005,Hanover County,VA,NA,55.46995377503852,NA
23059,Henrico County,VA,NA,94.60708782742681,NA
23112,Chesterfield County,VA,NA,15.562403697996919,NA
23116,Hanover County,VA,86.91588785046729,73.49768875192603,NA
23294,Henrico County,VA,NA,97.5346687211094,NA
23323,Chesapeake city,VA,83.41121495327103,NA,NA
23453,Virginia Beach city,VA,NA,NA,82.83582089552239
23502,Norfolk city,VA,NA,18.64406779661017,NA
23831,Chesterfield County,VA,60.981308411214954,NA,NA
23974,Lunenburg County,VA,NA,90.44684129429892,NA
24263,Lee County,VA,NA,NA,90.67164179104478
24319,Smyth County,VA,NA,93.37442218798151,86.94029850746269
24523,Bedford County,VA,17.75700934579439,NA,NA
24556,Bedford County,VA,98.5981308411215,NA,NA
24558,Halifax County,VA,45.794392523364486,NA,NA
98012,Snohomish County,WA,NA,15.716486902927581,NA
98020,Snohomish County,WA,NA,63.63636363636363,NA
98055,King County,WA,NA,79.81510015408321,NA
98117,King County,WA,NA,61.325115562403695,NA
98118,King County,WA,23.598130841121495,NA,NA
98122,King County,WA,NA,24.499229583975346,NA
98155,King County,WA,NA,67.79661016949152,NA
98208,Snohomish County,WA,NA,80.58551617873651,NA
98226,Whatcom County,WA,NA,22.496147919876734,NA
98229,Whatcom County,WA,74.29906542056075,NA,NA
98230,Whatcom County,WA,NA,47.14946070878274,NA
98236,Island County,WA,NA,77.65793528505392,NA
98249,Island County,WA,NA,65.94761171032357,NA
98371,Pierce County,WA,42.99065420560748,NA,86.56716417910447
98466,Pierce County,WA,37.850467289719624,NA,NA
98512,Thurston County,WA,NA,75.03852080123266,NA
98532,Lewis County,WA,89.7196261682243,NA,NA
98596,Lewis County,WA,NA,92.75808936825885,NA
98607,Clark County,WA,54.20560747663551,NA,NA
98665,Clark County,WA,NA,53.77503852080123,NA
98684,Clark County,WA,NA,NA,90.29850746268657
98801,Chelan County,WA,NA,3.5439137134052388,NA
98926,Kittitas County,WA,NA,NA,14.925373134328357
20001,District of Columbia,DC,56.77570093457944,30.662557781201848,NA
20002,District of Columbia,DC,NA,81.66409861325116,NA
20003,District of Columbia,DC,84.11214953271028,NA,NA
20007,District of Columbia,DC,NA,78.42835130970724,NA
20012,District of Columbia,DC,NA,93.52850539291218,NA
20019,District of Columbia,DC,1.6355140186915886,2.311248073959938,NA
20020,District of Columbia,DC,33.8785046728972,45.76271186440678,NA
20037,District of Columbia,DC,NA,NA,85.07462686567165
25312,Kanawha County,WV,NA,31.741140215716484,NA
25438,Jefferson County,WV,90.88785046728972,NA,NA
25704,Wayne County,WV,NA,NA,75.74626865671642
25840,Fayette County,WV,NA,77.8120184899846,NA
26101,Wood County,WV,NA,2.773497688751926,NA
26105,Wood County,WV,NA,NA,19.402985074626866
26201,Upshur County,WV,NA,32.04930662557781,NA
26847,Grant County,WV,NA,56.548536209553156,NA
53033,Washington County,WI,NA,87.05701078582435,NA
53074,Ozaukee County,WI,NA,51.92604006163328,NA
53090,Washington County,WI,NA,NA,70.1492537313433
53105,Racine County,WI,NA,NA,75
53115,Walworth County,WI,26.401869158878505,NA,NA
53118,Waukesha County,WI,NA,72.11093990755008,NA
53142,Kenosha County,WI,33.64485981308411,11.556240369799692,NA
53143,Kenosha County,WI,27.80373831775701,NA,NA
53147,Walworth County,WI,NA,50.231124807396,NA
53168,Kenosha County,WI,NA,82.43451463790447,NA
53172,Milwaukee County,WI,78.03738317757009,NA,NA
53189,Waukesha County,WI,NA,NA,58.582089552238806
53204,Milwaukee County,WI,15.186915887850466,NA,NA
53206,Milwaukee County,WI,NA,5.701078582434515,NA
53209,Milwaukee County,WI,8.411214953271028,9.090909090909092,NA
53210,Milwaukee County,WI,17.056074766355138,NA,NA
53211,Milwaukee County,WI,NA,12.788906009244993,NA
53215,Milwaukee County,WI,10.514018691588785,NA,NA
53216,Milwaukee County,WI,NA,51.00154083204931,32.83582089552239
53224,Milwaukee County,WI,NA,31.2788906009245,NA
53227,Milwaukee County,WI,45.5607476635514,NA,NA
53590,Dane County,WI,20.5607476635514,NA,NA
53717,Dane County,WI,NA,37.90446841294299,NA
53913,Sauk County,WI,NA,NA,9.701492537313433
54017,St. Croix County,WI,29.439252336448597,NA,NA
54022,Pierce County,WI,NA,27.27272727272727,NA
54140,Outagamie County,WI,NA,NA,98.50746268656717
54166,Shawano County,WI,NA,30.20030816640986,NA
54235,Door County,WI,NA,39.29121725731895,NA
54313,Brown County,WI,NA,NA,20.8955223880597
54401,Marathon County,WI,NA,61.016949152542374,NA
54403,Marathon County,WI,NA,NA,8.582089552238806
54409,Langlade County,WI,46.96261682242991,NA,NA
54494,Wood County,WI,NA,21.10939907550077,NA
54552,Price County,WI,NA,NA,82.08955223880598
54822,Barron County,WI,NA,64.40677966101694,NA
54902,Winnebago County,WI,56.30841121495327,NA,NA
54904,Winnebago County,WI,89.48598130841121,NA,NA
54913,Outagamie County,WI,87.61682242990653,79.66101694915254,NA
54914,Outagamie County,WI,34.345794392523366,33.281972265023114,NA
82604,Natrona County,WY,NA,NA,42.53731343283582
