ZipCode,county,state,Adult,Retirement,Geriatric
35014,Talladega County,AL,NA,96.80696661828738,NA
35022,Jefferson County,AL,NA,NA,21.518987341772153
35054,St. Clair County,AL,NA,92.16255442670537,NA
35094,Jefferson County,AL,65.16690856313497,NA,NA
35173,Jefferson County,AL,55.152394775036285,NA,NA
35179,Cullman County,AL,NA,NA,91.45569620253164
35211,Jefferson County,AL,17.126269956458636,NA,NA
35214,Jefferson County,AL,34.83309143686502,NA,NA
35217,Jefferson County,AL,NA,NA,79.58860759493672
35242,Shelby County,AL,NA,NA,37.9746835443038
35490,Tuscaloosa County,AL,96.9521044992743,NA,NA
35570,Marion County,AL,NA,NA,57.27848101265823
35611,Limestone County,AL,NA,NA,60.44303797468354
35650,Lawrence County,AL,NA,44.412191582002905,NA
35803,Madison County,AL,69.66618287373004,NA,NA
35810,Madison County,AL,33.38171262699564,NA,NA
35816,Madison County,AL,NA,72.56894049346879,NA
35978,DeKalb County,AL,NA,NA,97.46835443037975
36117,Montgomery County,AL,NA,NA,20.72784810126582
36303,Houston County,AL,24.528301886792452,NA,NA
36330,Coffee County,AL,NA,NA,53.63924050632911
36344,Geneva County,AL,NA,88.82438316400581,NA
36350,Dale County,AL,92.74310595065312,NA,NA
36477,Geneva County,AL,91.29172714078373,NA,NA
36507,Baldwin County,AL,NA,69.66618287373004,NA
36526,Baldwin County,AL,NA,39.912917271407835,NA
36532,Baldwin County,AL,NA,63.86066763425254,NA
36542,Baldwin County,AL,NA,70.68214804063861,NA
36553,Washington County,AL,98.8388969521045,NA,NA
36610,Mobile County,AL,67.05370101596516,NA,NA
36801,Lee County,AL,NA,67.34397677793905,NA
36830,Lee County,AL,NA,63.13497822931785,NA
36870,Lee County,AL,83.30914368650217,NA,NA
99504,Anchorage Municipality,AK,NA,43.10595065312046,NA
99603,Kenai Peninsula Borough,AK,NA,58.78084179970973,NA
99901,Ketchikan Gateway Borough,AK,44.55732946298984,NA,NA
85018,Maricopa County,AZ,37.59071117561684,39.477503628447025,NA
85023,Maricopa County,AZ,NA,62.40928882438317,68.19620253164557
85027,Maricopa County,AZ,NA,87.66328011611031,NA
85029,Maricopa County,AZ,NA,43.39622641509434,53.48101265822785
85042,Maricopa County,AZ,NA,88.09869375907112,NA
85048,Maricopa County,AZ,54.862119013062404,NA,NA
85118,Pinal County,AZ,97.09724238026125,NA,NA
85122,Pinal County,AZ,NA,11.901306240928882,29.27215189873418
85139,Pinal County,AZ,59.07111756168359,NA,NA
85142,Maricopa County,AZ,10.449927431059507,NA,NA
85194,Pinal County,AZ,NA,94.04934687953556,NA
85205,Maricopa County,AZ,NA,NA,24.20886075949367
85206,Maricopa County,AZ,49.92743105950653,NA,NA
85208,Maricopa County,AZ,NA,NA,27.056962025316455
85210,Maricopa County,AZ,23.9477503628447,NA,NA
85248,Maricopa County,AZ,NA,NA,6.80379746835443
85263,Maricopa County,AZ,NA,NA,93.0379746835443
85298,Maricopa County,AZ,NA,NA,83.22784810126582
85302,Maricopa County,AZ,NA,24.092888243831638,NA
85335,Maricopa County,AZ,37.735849056603776,NA,NA
85338,Maricopa County,AZ,NA,NA,77.37341772151899
85355,Maricopa County,AZ,NA,NA,98.89240506329115
85364,Yuma County,AZ,NA,2.9027576197387517,NA
85378,Maricopa County,AZ,93.90420899854863,NA,NA
85381,Maricopa County,AZ,68.50507982583454,79.82583454281567,NA
85392,Maricopa County,AZ,NA,51.814223512336724,NA
85614,Pima County,AZ,NA,18.142235123367197,NA
85641,Pima County,AZ,NA,NA,91.13924050632912
85650,Cochise County,AZ,86.066763425254,NA,NA
85705,Pima County,AZ,3.6284470246734397,5.2249637155297535,NA
85718,Pima County,AZ,NA,57.03918722786647,NA
85749,Pima County,AZ,NA,NA,78.79746835443038
86004,Coconino County,AZ,NA,12.62699564586357,NA
86301,Yavapai County,AZ,NA,27.431059506531202,56.80379746835443
86322,Yavapai County,AZ,NA,66.90856313497822,NA
86403,Mohave County,AZ,NA,57.76487663280116,NA
86404,Mohave County,AZ,NA,NA,44.303797468354425
86409,Mohave County,AZ,NA,NA,22.468354430379748
86442,Mohave County,AZ,NA,9.724238026124818,NA
71601,Jefferson County,AR,NA,59.79680696661829,NA
71603,Jefferson County,AR,37.445573294629895,NA,NA
71801,Hempstead County,AR,NA,NA,87.5
71913,Garland County,AR,NA,NA,11.39240506329114
72076,Pulaski County,AR,NA,35.268505079825836,NA
72104,Hot Spring County,AR,NA,NA,61.70886075949367
72150,Grant County,AR,96.80696661828738,NA,NA
72211,Pulaski County,AR,86.35703918722787,NA,57.75316455696202
72704,Washington County,AR,NA,NA,93.9873417721519
72715,Benton County,AR,NA,NA,20.253164556962027
72753,Washington County,AR,NA,NA,97.78481012658227
72758,Benton County,AR,NA,NA,53.95569620253164
90002,Los Angeles County,CA,NA,64.4412191582003,NA
90004,Los Angeles County,CA,48.47605224963715,NA,NA
90006,Los Angeles County,CA,NA,62.554426705370105,NA
90011,Los Angeles County,CA,26.124818577648767,NA,NA
90018,Los Angeles County,CA,NA,70.53701015965167,NA
90038,Los Angeles County,CA,NA,78.3744557329463,NA
90041,Los Angeles County,CA,79.9709724238026,NA,NA
90044,Los Angeles County,CA,NA,16.545718432510885,36.708860759493675
90046,Los Angeles County,CA,NA,21.190130624092888,NA
90049,Los Angeles County,CA,NA,NA,21.360759493670887
90059,Los Angeles County,CA,37.88098693759071,NA,NA
90066,Los Angeles County,CA,NA,71.84325108853412,NA
90069,Los Angeles County,CA,NA,52.1044992743106,NA
90201,Los Angeles County,CA,33.236574746008706,NA,58.70253164556962
90220,Los Angeles County,CA,35.41364296081277,NA,NA
90221,Los Angeles County,CA,NA,NA,55.5379746835443
90240,Los Angeles County,CA,NA,74.74600870827285,NA
90249,Los Angeles County,CA,NA,NA,56.0126582278481
90275,Los Angeles County,CA,NA,40.05805515239477,NA
90278,Los Angeles County,CA,NA,55.587808417997095,NA
90501,Los Angeles County,CA,NA,NA,81.80379746835443
90503,Los Angeles County,CA,NA,NA,35.91772151898734
90505,Los Angeles County,CA,NA,41.36429608127721,NA
90630,Orange County,CA,NA,59.21625544267054,NA
90631,Orange County,CA,72.56894049346879,52.97532656023222,NA
90710,Los Angeles County,CA,86.64731494920174,NA,NA
90717,Los Angeles County,CA,NA,NA,60.12658227848101
90720,Orange County,CA,NA,64.00580551523947,NA
90732,Los Angeles County,CA,NA,91.8722786647315,NA
90740,Orange County,CA,NA,NA,23.575949367088608
90804,Los Angeles County,CA,48.62119013062409,NA,NA
90805,Los Angeles County,CA,NA,21.6255442670537,NA
90806,Los Angeles County,CA,61.53846153846154,NA,NA
91001,Los Angeles County,CA,63.7155297532656,NA,NA
91024,Los Angeles County,CA,97.53265602322206,NA,NA
91104,Los Angeles County,CA,47.750362844702465,NA,44.462025316455694
91206,Los Angeles County,CA,NA,56.313497822931794,NA
91207,Los Angeles County,CA,97.38751814223512,NA,NA
91302,Los Angeles County,CA,NA,NA,66.77215189873418
91303,Los Angeles County,CA,NA,97.677793904209,NA
91342,Los Angeles County,CA,57.47460087082729,NA,NA
91354,Los Angeles County,CA,NA,NA,82.91139240506328
91355,Los Angeles County,CA,NA,NA,66.93037974683544
91362,Ventura County,CA,NA,NA,60.75949367088608
91384,Los Angeles County,CA,NA,92.59796806966618,NA
91403,Los Angeles County,CA,84.61538461538461,NA,NA
91423,Los Angeles County,CA,NA,NA,55.06329113924051
91604,Los Angeles County,CA,NA,62.264150943396224,NA
91706,Los Angeles County,CA,NA,33.236574746008706,NA
91709,San Bernardino County,CA,NA,NA,78.00632911392405
91722,Los Angeles County,CA,NA,59.651669085631355,NA
91730,San Bernardino County,CA,NA,35.55878084179971,NA
91744,Los Angeles County,CA,54.426705370101594,NA,NA
91754,Los Angeles County,CA,NA,NA,24.050632911392405
91755,Los Angeles County,CA,NA,NA,49.050632911392405
91766,Los Angeles County,CA,NA,NA,71.99367088607595
91911,San Diego County,CA,NA,16.25544267053701,NA
91942,San Diego County,CA,NA,NA,27.21518987341772
92008,San Diego County,CA,95.7910014513788,NA,NA
92021,San Diego County,CA,16.69085631349782,13.062409288824384,26.89873417721519
92024,San Diego County,CA,NA,80.98693759071118,NA
92029,San Diego County,CA,NA,78.95500725689405,NA
92037,San Diego County,CA,NA,NA,22.78481012658228
92058,San Diego County,CA,NA,89.84034833091437,NA
92069,San Diego County,CA,NA,56.313497822931794,NA
92078,San Diego County,CA,NA,50.50798258345428,NA
92102,San Diego County,CA,NA,62.84470246734397,NA
92104,San Diego County,CA,29.31785195936139,NA,NA
92105,San Diego County,CA,NA,NA,58.06962025316456
92109,San Diego County,CA,76.63280116110305,NA,NA
92113,San Diego County,CA,25.979680696661827,NA,NA
92116,San Diego County,CA,NA,NA,97.62658227848101
92122,San Diego County,CA,NA,71.11756168359942,NA
92123,San Diego County,CA,NA,NA,66.13924050632912
92128,San Diego County,CA,79.39042089985486,NA,NA
92139,San Diego County,CA,NA,76.34252539912917,NA
92201,Riverside County,CA,62.84470246734397,NA,NA
92211,Riverside County,CA,NA,NA,0
92227,Imperial County,CA,NA,60.37735849056604,NA
92240,Riverside County,CA,22.93178519593614,NA,NA
92253,Riverside County,CA,NA,8.417997097242381,NA
92260,Riverside County,CA,60.2322206095791,NA,NA
92262,Riverside County,CA,NA,42.52539912917271,NA
92270,Riverside County,CA,NA,37.300435413642965,NA
92284,San Bernardino County,CA,NA,25.544267053701013,62.81645569620253
92316,San Bernardino County,CA,56.313497822931794,NA,NA
92346,San Bernardino County,CA,NA,47.46008708272859,NA
92363,San Bernardino County,CA,NA,81.56748911465893,NA
92392,San Bernardino County,CA,NA,NA,84.17721518987342
92394,San Bernardino County,CA,53.84615384615385,65.45718432510886,NA
92407,San Bernardino County,CA,18.432510885341074,NA,NA
92410,San Bernardino County,CA,35.99419448476052,NA,NA
92503,Riverside County,CA,NA,NA,41.93037974683544
92505,Riverside County,CA,NA,NA,73.41772151898735
92509,Riverside County,CA,NA,NA,43.67088607594937
92545,Riverside County,CA,45.42815674891146,NA,NA
92567,Riverside County,CA,NA,96.37155297532655,NA
92570,Riverside County,CA,NA,47.314949201741655,NA
92586,Riverside County,CA,84.1799709724238,NA,NA
92620,Orange County,CA,NA,NA,52.37341772151899
92625,Orange County,CA,NA,70.10159651669086,54.74683544303798
92626,Orange County,CA,92.59796806966618,NA,NA
92627,Orange County,CA,NA,28.30188679245283,16.297468354430382
92637,Orange County,CA,NA,30.62409288824383,NA
92651,Orange County,CA,NA,NA,34.810126582278485
92677,Orange County,CA,NA,9.288824383164005,62.0253164556962
92679,Orange County,CA,NA,65.31204644412192,NA
92688,Orange County,CA,NA,77.2133526850508,NA
92705,Orange County,CA,NA,54.28156748911466,NA
92801,Orange County,CA,37.010159651669085,NA,NA
92805,Orange County,CA,64.73149492017417,NA,NA
92835,Orange County,CA,85.05079825834542,NA,NA
92883,Riverside County,CA,NA,66.90856313497822,70.09493670886076
93001,Ventura County,CA,NA,28.156748911465897,NA
93004,Ventura County,CA,61.10304789550073,NA,NA
93012,Ventura County,CA,73.58490566037736,NA,NA
93033,Ventura County,CA,NA,8.853410740203193,NA
93203,Kern County,CA,NA,98.98403483309144,NA
93245,Kings County,CA,NA,74.45573294629898,NA
93257,Tulare County,CA,13.788098693759071,NA,NA
93274,Tulare County,CA,NA,16.835994194484762,NA
93285,Kern County,CA,NA,99.2743105950653,NA
93292,Tulare County,CA,44.12191582002903,NA,NA
93307,Kern County,CA,14.368650217706822,NA,NA
93420,San Luis Obispo County,CA,73.29462989840349,NA,NA
93422,San Luis Obispo County,CA,NA,48.33091436865022,NA
93436,Santa Barbara County,CA,70.39187227866474,NA,NA
93460,Santa Barbara County,CA,99.85486211901306,NA,NA
93536,Los Angeles County,CA,46.73439767779391,NA,NA
93550,Los Angeles County,CA,66.76342525399129,47.750362844702465,NA
93551,Los Angeles County,CA,59.50653120464441,NA,NA
93552,Los Angeles County,CA,NA,NA,92.40506329113924
93611,Fresno County,CA,NA,34.68795355587808,NA
93638,Madera County,CA,19.738751814223512,49.20174165457185,NA
93640,Fresno County,CA,NA,98.4034833091437,NA
93706,Fresno County,CA,78.80986937590711,NA,NA
93728,Fresno County,CA,82.00290275761974,NA,NA
93930,Monterey County,CA,NA,93.17851959361393,NA
93950,Monterey County,CA,NA,NA,63.29113924050633
94025,San Mateo County,CA,NA,74.89114658925979,NA
94030,San Mateo County,CA,NA,NA,21.202531645569618
94061,San Mateo County,CA,NA,54.862119013062404,NA
94087,Santa Clara County,CA,NA,NA,25.79113924050633
94109,San Francisco County,CA,NA,NA,5.063291139240507
94114,San Francisco County,CA,NA,55.152394775036285,NA
94115,San Francisco County,CA,NA,36.284470246734394,NA
94121,San Francisco County,CA,NA,NA,10.601265822784809
94301,Santa Clara County,CA,NA,89.84034833091437,NA
94506,Contra Costa County,CA,NA,NA,95.72784810126582
94507,Contra Costa County,CA,NA,NA,82.75316455696202
94513,Contra Costa County,CA,NA,22.206095791001452,NA
94533,Solano County,CA,NA,NA,12.658227848101266
94536,Alameda County,CA,NA,NA,19.936708860759495
94561,Contra Costa County,CA,41.654571843251084,NA,NA
94568,Alameda County,CA,NA,67.77939042089986,NA
94577,Alameda County,CA,NA,NA,36.234177215189874
94578,Alameda County,CA,NA,NA,52.21518987341772
94587,Alameda County,CA,38.75181422351234,NA,NA
94598,Contra Costa County,CA,NA,56.60377358490566,NA
94619,Alameda County,CA,NA,63.42525399129173,NA
94706,Alameda County,CA,93.61393323657474,NA,NA
95008,Santa Clara County,CA,68.94049346879537,NA,NA
95120,Santa Clara County,CA,NA,NA,35.12658227848101
95125,Santa Clara County,CA,NA,19.593613933236576,NA
95148,Santa Clara County,CA,NA,44.26705370101596,NA
95202,San Joaquin County,CA,31.204644412191584,NA,NA
95206,San Joaquin County,CA,NA,24.383164005805515,NA
95209,San Joaquin County,CA,NA,NA,87.34177215189874
95242,San Joaquin County,CA,NA,54.71698113207547,NA
95348,Merced County,CA,70.82728592162555,NA,NA
95354,Stanislaus County,CA,70.97242380261248,NA,NA
95356,Stanislaus County,CA,NA,44.847605224963715,NA
95380,Stanislaus County,CA,65.45718432510886,NA,NA
95401,Sonoma County,CA,63.86066763425254,NA,NA
95404,Sonoma County,CA,77.06821480406386,NA,22.943037974683545
95409,Sonoma County,CA,NA,50.653120464441216,NA
95476,Sonoma County,CA,NA,34.97822931785196,NA
95482,Mendocino County,CA,39.7677793904209,NA,NA
95492,Sonoma County,CA,NA,61.10304789550073,NA
95519,Humboldt County,CA,NA,51.959361393323654,NA
95531,Del Norte County,CA,NA,52.39477503628447,NA
95610,Sacramento County,CA,80.6966618287373,45.71843251088534,NA
95621,Sacramento County,CA,NA,NA,25.4746835443038
95630,Sacramento County,CA,NA,NA,25.158227848101266
95648,Placer County,CA,NA,NA,39.24050632911392
95677,Placer County,CA,NA,NA,83.54430379746836
95678,Placer County,CA,NA,NA,63.76582278481012
95685,Amador County,CA,NA,96.22641509433963,NA
95691,Yolo County,CA,NA,55.29753265602322,NA
95746,Placer County,CA,NA,78.80986937590711,74.84177215189874
95811,Sacramento County,CA,96.5166908563135,NA,NA
95818,Sacramento County,CA,NA,NA,82.59493670886076
95827,Sacramento County,CA,72.859216255442675,NA,NA
95829,Sacramento County,CA,NA,90.85631349782292,NA
95953,Sutter County,CA,NA,94.48476052249637,NA
95965,Butte County,CA,NA,28.44702467343977,NA
95973,Butte County,CA,60.957910014513786,NA,NA
95993,Sutter County,CA,NA,NA,29.58860759493671
96055,Tehama County,CA,97.24238026124819,NA,NA
80107,Elbert County,CO,NA,82.5834542815675,NA
80110,Arapahoe County,CO,71.84325108853412,NA,NA
80111,Arapahoe County,CO,NA,NA,72.94303797468355
80112,Arapahoe County,CO,NA,NA,84.33544303797468
80120,Arapahoe County,CO,NA,NA,94.77848101265823
80138,Douglas County,CO,57.61973875181422,NA,NA
80207,Denver County,CO,46.29898403483309,NA,NA
80224,Denver County,CO,NA,85.05079825834542,NA
80227,Jefferson County,CO,87.37300435413643,NA,NA
80231,Denver County,CO,40.9288824383164,NA,NA
80233,Adams County,CO,NA,NA,37.5
80303,Boulder County,CO,NA,NA,87.0253164556962
80524,Larimer County,CO,NA,25.1088534107402,NA
80631,Weld County,CO,8.272859216255442,NA,NA
80701,Morgan County,CO,22.786647314949203,NA,NA
80751,Logan County,CO,79.82583454281567,NA,NA
80831,El Paso County,CO,NA,78.22931785195935,NA
80863,Teller County,CO,NA,NA,93.35443037974683
80907,El Paso County,CO,NA,64.87663280116111,NA
80918,El Paso County,CO,NA,34.542815674891145,NA
80920,El Paso County,CO,NA,64.58635703918722,NA
80922,El Paso County,CO,61.24818577648766,NA,NA
81006,Pueblo County,CO,78.08417997097243,NA,NA
81082,Las Animas County,CO,70.24673439767778,NA,NA
81147,Archuleta County,CO,NA,61.24818577648766,NA
81323,Montezuma County,CO,NA,NA,85.91772151898735
06002,Hartford County,CT,NA,NA,33.70253164556962
06010,Hartford County,CT,NA,2.1770682148040637,23.575949367088608
06016,Hartford County,CT,90.85631349782292,NA,NA
06035,Hartford County,CT,96.08127721335269,NA,NA
06037,Hartford County,CT,NA,NA,45.094936708860764
06042,Hartford County,CT,40.638606676342526,NA,NA
06051,Hartford County,CT,4.063860667634253,NA,NA
06053,Hartford County,CT,11.756168359941945,NA,NA
06085,Hartford County,CT,NA,NA,91.29746835443038
06105,Hartford County,CT,NA,33.671988388969524,NA
06473,New Haven County,CT,74.60087082728593,NA,NA
06478,New Haven County,CT,NA,67.34397677793905,NA
06483,New Haven County,CT,69.08563134978229,NA,NA
06488,New Haven County,CT,NA,76.63280116110305,NA
06512,New Haven County,CT,NA,NA,86.70886075949366
06515,New Haven County,CT,31.349782293178517,NA,NA
06604,Fairfield County,CT,NA,35.99419448476052,NA
06704,New Haven County,CT,23.076923076923077,NA,NA
06811,Fairfield County,CT,80.84179970972424,25.834542815674894,NA
06850,Fairfield County,CT,NA,36.42960812772134,NA
06851,Fairfield County,CT,64.58635703918722,NA,NA
06902,Fairfield County,CT,NA,10.159651669085632,NA
19701,New Castle County,DE,NA,15.965166908563136,NA
19711,New Castle County,DE,NA,42.23512336719884,NA
19803,New Castle County,DE,NA,51.37880986937591,NA
19805,New Castle County,DE,3.0478955007256894,NA,NA
19934,Kent County,DE,77.35849056603774,NA,NA
19945,Sussex County,DE,NA,NA,68.67088607594937
19952,Kent County,DE,86.64731494920174,NA,NA
19966,Sussex County,DE,25.689404934687953,NA,NA
19977,Kent County,DE,NA,NA,48.892405063291136
32025,Columbia County,FL,40.20319303338171,NA,NA
32038,Columbia County,FL,NA,91.72714078374456,NA
32071,Suwannee County,FL,NA,NA,99.36708860759494
32095,St. Johns County,FL,91.43686502177069,NA,NA
32097,Nassau County,FL,NA,35.12336719883889,NA
32129,Volusia County,FL,NA,NA,76.58227848101265
32162,Sumter County,FL,NA,1.5965166908563133,NA
32164,Flagler County,FL,71.98838896952104,13.788098693759071,NA
32210,Duval County,FL,4.78955007256894,NA,NA
32218,Duval County,FL,NA,3.0478955007256894,NA
32219,Duval County,FL,49.20174165457185,NA,NA
32223,Duval County,FL,NA,32.801161103047896,NA
32233,Duval County,FL,NA,38.75181422351234,NA
32244,Duval County,FL,NA,NA,36.392405063291136
32246,Duval County,FL,NA,61.97387518142236,NA
32250,Duval County,FL,NA,29.898403483309146,NA
32256,Duval County,FL,70.53701015965167,NA,NA
32257,Duval County,FL,NA,NA,50.4746835443038
32407,Bay County,FL,NA,NA,70.41139240506328
32409,Bay County,FL,NA,73.14949201741655,NA
32541,Okaloosa County,FL,NA,38.46153846153847,29.746835443037973
32566,Santa Rosa County,FL,38.46153846153847,NA,NA
32571,Santa Rosa County,FL,NA,13.497822931785198,NA
32579,Okaloosa County,FL,NA,90.56603773584906,NA
32583,Santa Rosa County,FL,NA,NA,42.24683544303797
32640,Putnam County,FL,NA,73.87518142235123,NA
32778,Lake County,FL,NA,NA,31.170886075949365
32779,Seminole County,FL,NA,40.20319303338171,40.664556962025316
32796,Brevard County,FL,NA,26.2699564586357,NA
32822,Orange County,FL,20.319303338171263,NA,NA
32827,Orange County,FL,NA,99.56458635703919,NA
32836,Orange County,FL,NA,NA,82.4367088607595
32901,Brevard County,FL,61.393323657474596,NA,NA
32926,Brevard County,FL,NA,NA,17.87974683544304
32934,Brevard County,FL,78.22931785195935,NA,NA
32935,Brevard County,FL,20.174165457184326,NA,NA
32952,Brevard County,FL,NA,NA,76.10759493670885
32953,Brevard County,FL,NA,18.867924528301888,NA
32958,Indian River County,FL,NA,NA,6.6455696202531636
32962,Indian River County,FL,53.70101596516691,NA,NA
32963,Indian River County,FL,NA,53.84615384615385,NA
32966,Indian River County,FL,NA,NA,15.50632911392405
32976,Brevard County,FL,95.06531204644412,NA,NA
33009,Broward County,FL,NA,NA,9.968354430379748
33012,Miami-Dade County,FL,48.33091436865022,NA,NA
33014,Miami-Dade County,FL,71.55297532656023,75.47169811320755,NA
33015,Miami-Dade County,FL,NA,NA,46.360759493670884
33023,Broward County,FL,20.609579100145137,46.15384615384615,NA
33027,Broward County,FL,43.10595065312046,NA,NA
33030,Miami-Dade County,FL,48.040638606676346,NA,NA
33033,Miami-Dade County,FL,45.573294629898406,53.55587808417997,NA
33054,Miami-Dade County,FL,55.442670537010166,NA,74.68354430379746
33064,Broward County,FL,NA,NA,12.341772151898734
33065,Broward County,FL,52.1044992743106,NA,38.449367088607595
33066,Broward County,FL,NA,NA,17.563291139240505
33068,Broward County,FL,48.76632801161103,NA,NA
33069,Broward County,FL,NA,NA,11.708860759493671
33130,Miami-Dade County,FL,95.355587808418,NA,NA
33136,Miami-Dade County,FL,NA,86.35703918722787,NA
33139,Miami-Dade County,FL,NA,85.19593613933236,NA
33143,Miami-Dade County,FL,NA,NA,47.151898734177216
33147,Miami-Dade County,FL,NA,74.1654571843251,NA
33165,Miami-Dade County,FL,NA,NA,4.430379746835443
33174,Miami-Dade County,FL,NA,73.43976777939042,NA
33175,Miami-Dade County,FL,NA,NA,15.981012658227847
33177,Miami-Dade County,FL,NA,NA,90.50632911392405
33180,Miami-Dade County,FL,NA,46.589259796806964,NA
33312,Broward County,FL,NA,55.878084179970976,NA
33317,Broward County,FL,NA,NA,48.734177215189874
33319,Broward County,FL,45.86357039187228,NA,NA
33321,Broward County,FL,NA,23.51233671988389,NA
33322,Broward County,FL,NA,86.5021770682148,NA
33328,Broward County,FL,87.51814223512336,NA,NA
33334,Broward County,FL,58.345428156748916,NA,NA
33404,Palm Beach County,FL,NA,NA,78.48101265822784
33406,Palm Beach County,FL,NA,87.51814223512336,NA
33411,Palm Beach County,FL,40.9288824383164,NA,22.151898734177212
33412,Palm Beach County,FL,NA,85.48621190130625,NA
33433,Palm Beach County,FL,NA,NA,2.3734177215189876
33436,Palm Beach County,FL,NA,NA,12.974683544303797
33437,Palm Beach County,FL,NA,NA,0.4746835443037975
33441,Broward County,FL,NA,66.32801161103048,NA
33446,Palm Beach County,FL,NA,NA,26.740506329113924
33455,Martin County,FL,NA,21.04499274310595,NA
33460,Palm Beach County,FL,50.2177068214804,NA,73.41772151898735
33463,Palm Beach County,FL,NA,NA,58.38607594936709
33472,Palm Beach County,FL,NA,NA,22.626582278481013
33538,Sumter County,FL,NA,NA,95.25316455696202
33573,Hillsborough County,FL,NA,NA,2.848101265822785
33596,Hillsborough County,FL,NA,89.25979680696662,NA
33602,Hillsborough County,FL,NA,84.03483309143687,NA
33603,Hillsborough County,FL,NA,NA,96.20253164556962
33611,Hillsborough County,FL,NA,61.68359941944848,NA
33612,Hillsborough County,FL,NA,36.574746008708274,NA
33618,Hillsborough County,FL,82.72859216255442,NA,NA
33624,Hillsborough County,FL,NA,NA,80.0632911392405
33629,Hillsborough County,FL,NA,83.88969521044993,NA
33701,Pinellas County,FL,NA,NA,63.60759493670886
33703,Pinellas County,FL,62.699564586357035,NA,NA
33707,Pinellas County,FL,NA,NA,25
33712,Pinellas County,FL,NA,60.957910014513786,NA
33760,Pinellas County,FL,82.43831640058055,NA,NA
33764,Pinellas County,FL,46.15384615384615,NA,NA
33771,Pinellas County,FL,NA,NA,22.943037974683545
33772,Pinellas County,FL,NA,NA,42.879746835443036
33773,Pinellas County,FL,NA,77.35849056603774,NA
33774,Pinellas County,FL,NA,NA,62.5
33801,Polk County,FL,61.82873730043541,NA,NA
33810,Polk County,FL,28.737300435413644,NA,NA
33811,Polk County,FL,NA,NA,91.61392405063292
33812,Polk County,FL,NA,91.8722786647315,NA
33823,Polk County,FL,NA,NA,62.5
33843,Polk County,FL,93.75907111756169,NA,NA
33844,Polk County,FL,40.20319303338171,NA,NA
33870,Highlands County,FL,30.62409288824383,NA,NA
33875,Highlands County,FL,NA,NA,48.25949367088608
33880,Polk County,FL,NA,NA,29.430379746835445
33884,Polk County,FL,NA,46.29898403483309,NA
33897,Polk County,FL,NA,75.18142235123368,NA
33903,Lee County,FL,NA,29.46298984034833,NA
33907,Lee County,FL,52.249637155297535,NA,NA
33908,Lee County,FL,NA,NA,1.1075949367088607
33920,Lee County,FL,NA,97.53265602322206,NA
33922,Lee County,FL,94.48476052249637,NA,87.65822784810126
33931,Lee County,FL,NA,NA,62.0253164556962
33936,Lee County,FL,53.26560232220609,NA,NA
33950,Charlotte County,FL,NA,NA,25.63291139240506
33953,Charlotte County,FL,NA,NA,90.03164556962025
33971,Lee County,FL,62.989840348330915,NA,NA
34116,Collier County,FL,NA,64.58635703918722,NA
34119,Collier County,FL,NA,NA,18.5126582278481
34135,Lee County,FL,NA,13.642960812772134,NA
34202,Manatee County,FL,72.71407837445574,NA,NA
34205,Manatee County,FL,37.15529753265602,NA,NA
34221,Manatee County,FL,NA,66.61828737300436,NA
34224,Charlotte County,FL,NA,NA,41.77215189873418
34237,Sarasota County,FL,64.00580551523947,NA,NA
34291,Sarasota County,FL,NA,91.43686502177069,NA
34292,Sarasota County,FL,NA,NA,48.575949367088604
34293,Sarasota County,FL,NA,NA,4.272151898734177
34433,Citrus County,FL,89.98548621190132,NA,NA
34479,Marion County,FL,NA,NA,86.07594936708861
34601,Hernando County,FL,54.71698113207547,NA,NA
34609,Hernando County,FL,NA,NA,62.0253164556962
34639,Pasco County,FL,NA,58.490566037735846,NA
34655,Pasco County,FL,NA,NA,58.86075949367089
34683,Pinellas County,FL,NA,NA,51.42405063291139
34684,Pinellas County,FL,NA,48.185776487663276,NA
34698,Pinellas County,FL,59.361393323657474,NA,NA
34743,Osceola County,FL,82.14804063860667,NA,NA
34744,Osceola County,FL,NA,NA,54.27215189873418
34761,Orange County,FL,NA,79.10014513788099,NA
34769,Osceola County,FL,NA,52.249637155297535,NA
34771,Osceola County,FL,NA,NA,87.9746835443038
34772,Osceola County,FL,72.13352685050798,NA,NA
34949,St. Lucie County,FL,NA,NA,74.5253164556962
34952,St. Lucie County,FL,26.41509433962264,NA,7.753164556962025
34983,St. Lucie County,FL,NA,26.995645863570395,NA
34986,St. Lucie County,FL,NA,NA,8.860759493670885
34987,St. Lucie County,FL,NA,NA,76.89873417721519
34997,Martin County,FL,31.349782293178517,NA,NA
30040,Forsyth County,GA,NA,NA,50.63291139240506
30041,Forsyth County,GA,NA,44.99274310595066,NA
30058,DeKalb County,GA,NA,26.705370101596515,NA
30114,Cherokee County,GA,NA,NA,39.08227848101266
30115,Cherokee County,GA,NA,NA,69.30379746835443
30120,Bartow County,GA,21.6255442670537,NA,NA
30127,Cobb County,GA,19.448476052249635,NA,NA
30134,Douglas County,GA,NA,29.31785195936139,NA
30161,Floyd County,GA,NA,19.3033381712627,NA
30165,Floyd County,GA,26.850507982583455,NA,NA
30189,Cherokee County,GA,57.9100145137881,NA,93.19620253164557
30240,Troup County,GA,NA,NA,36.392405063291136
30241,Troup County,GA,NA,52.5399129172714,NA
30252,Henry County,GA,NA,50.943396226415096,NA
30263,Coweta County,GA,11.175616835994195,NA,NA
30276,Coweta County,GA,77.2133526850508,NA,NA
30294,DeKalb County,GA,44.99274310595066,NA,NA
30311,Fulton County,GA,16.835994194484762,NA,NA
30338,DeKalb County,GA,79.5355587808418,NA,NA
30341,DeKalb County,GA,74.31059506531204,NA,NA
30349,Fulton County,GA,7.837445573294629,NA,NA
30519,Gwinnett County,GA,NA,30.914368650217703,NA
30520,Franklin County,GA,NA,99.70972423802613,NA
30523,Habersham County,GA,NA,NA,64.71518987341773
30548,Jackson County,GA,NA,51.23367198838898,NA
30549,Jackson County,GA,NA,NA,68.82911392405063
30601,Clarke County,GA,73.87518142235123,NA,NA
30606,Clarke County,GA,NA,24.963715529753266,30.537974683544306
30620,Barrow County,GA,NA,92.3076923076923,NA
30677,Oconee County,GA,92.3076923076923,NA,NA
30705,Murray County,GA,31.78519593613933,NA,NA
30720,Whitfield County,GA,59.651669085631355,NA,NA
30728,Walker County,GA,NA,72.42380261248186,NA
30742,Catoosa County,GA,83.74455732946299,NA,NA
30752,Dade County,GA,NA,NA,94.62025316455697
30817,Lincoln County,GA,NA,NA,90.66455696202532
30909,Richmond County,GA,28.011611030478957,NA,NA
31015,Crisp County,GA,NA,30.76923076923077,57.91139240506329
31029,Monroe County,GA,NA,82.29317851959361,NA
31061,Baldwin County,GA,NA,26.41509433962264,NA
31313,Liberty County,GA,89.69521044992743,NA,NA
31405,Chatham County,GA,NA,39.18722786647315,NA
31411,Chatham County,GA,NA,79.9709724238026,NA
31503,Ware County,GA,57.03918722786647,NA,NA
31510,Bacon County,GA,82.87373004354136,NA,NA
31539,Jeff Davis County,GA,NA,71.98838896952104,NA
31543,Brantley County,GA,NA,100,NA
31601,Lowndes County,GA,27.431059506531202,NA,NA
31602,Lowndes County,GA,76.19738751814224,NA,NA
31701,Dougherty County,GA,49.49201741654572,NA,NA
31909,Muscogee County,GA,42.670537010159656,NA,NA
39837,Miller County,GA,NA,NA,84.65189873417721
96708,Maui County,HI,96.22641509433963,NA,NA
96738,Hawaii County,HI,NA,NA,99.5253164556962
96744,Honolulu County,HI,NA,NA,4.746835443037975
96792,Honolulu County,HI,NA,62.699564586357035,NA
96816,Honolulu County,HI,NA,16.110304789550074,NA
96825,Honolulu County,HI,58.490566037735846,NA,NA
83301,Twin Falls County,ID,3.7735849056603774,NA,0.31645569620253167
83316,Twin Falls County,ID,NA,NA,68.35443037974683
83330,Gooding County,ID,NA,NA,93.5126582278481
83404,Bonneville County,ID,NA,50.79825834542816,NA
83501,Nez Perce County,ID,NA,NA,32.436708860759495
83607,Canyon County,ID,41.21915820029027,NA,NA
83686,Canyon County,ID,8.127721335268506,24.818577648766325,NA
83704,Ada County,ID,98.69375907111755,NA,NA
83713,Ada County,ID,NA,15.384615384615385,NA
83716,Ada County,ID,56.02322206095791,40.78374455732946,NA
60018,Cook County,IL,NA,NA,46.20253164556962
60030,Lake County,IL,NA,NA,15.031645569620252
60062,Cook County,IL,NA,NA,0.7911392405063291
60068,Cook County,IL,NA,NA,20.094936708860757
60076,Cook County,IL,NA,NA,15.18987341772152
60077,Cook County,IL,NA,28.011611030478957,NA
60103,DuPage County,IL,NA,NA,44.620253164556964
60107,Cook County,IL,NA,38.02612481857765,NA
60123,Kane County,IL,NA,14.804063860667634,NA
60137,DuPage County,IL,NA,NA,12.025316455696203
60152,McHenry County,IL,82.14804063860667,NA,NA
60171,Cook County,IL,88.24383164005806,NA,NA
60172,DuPage County,IL,NA,NA,84.49367088607595
60181,DuPage County,IL,NA,NA,45.41139240506329
60185,DuPage County,IL,NA,26.705370101596515,NA
60189,DuPage County,IL,NA,20.899854862119014,NA
60191,DuPage County,IL,72.42380261248186,NA,NA
60192,Cook County,IL,NA,NA,85.12658227848101
60193,Cook County,IL,41.944847605224965,NA,NA
60403,Will County,IL,NA,NA,52.53164556962025
60419,Cook County,IL,NA,75.3265602322206,NA
60431,Will County,IL,NA,43.54136429608128,NA
60441,Will County,IL,NA,26.56023222060958,NA
60475,Will County,IL,84.76052249637155,NA,NA
60540,DuPage County,IL,NA,27.28592162554427,NA
60545,Kendall County,IL,NA,84.47024673439768,NA
60564,Will County,IL,40.05805515239477,NA,NA
60609,Cook County,IL,11.320754716981133,NA,NA
60615,Cook County,IL,26.56023222060958,NA,NA
60623,Cook County,IL,NA,11.030478955007258,NA
60624,Cook County,IL,70.10159651669086,NA,NA
60626,Cook County,IL,NA,5.515239477503629,NA
60628,Cook County,IL,7.6923076923076925,NA,NA
60629,Cook County,IL,6.676342525399129,NA,NA
60630,Cook County,IL,NA,11.756168359941945,NA
60632,Cook County,IL,46.44412191582003,NA,NA
60639,Cook County,IL,9.724238026124818,NA,NA
60641,Cook County,IL,14.223512336719885,NA,NA
60644,Cook County,IL,34.68795355587808,NA,NA
60645,Cook County,IL,NA,19.88388969521045,NA
60647,Cook County,IL,NA,18.432510885341074,NA
60649,Cook County,IL,NA,7.402031930333817,NA
60660,Cook County,IL,NA,NA,38.13291139240506
60707,Cook County,IL,21.04499274310595,NA,NA
60915,Kankakee County,IL,NA,65.16690856313497,NA
61068,Ogle County,IL,NA,54.57184325108854,NA
61101,Winnebago County,IL,NA,NA,47.46835443037975
61102,Winnebago County,IL,92.88824383164005,NA,NA
61107,Winnebago County,IL,NA,NA,19.303797468354432
61401,Knox County,IL,66.18287373004354,NA,NA
61520,Fulton County,IL,NA,57.61973875181422,NA
61525,Peoria County,IL,NA,NA,91.61392405063292
61614,Peoria County,IL,NA,NA,24.525316455696203
61727,De Witt County,IL,77.6487663280116,NA,NA
61920,Coles County,IL,60.66763425253991,NA,NA
62002,Madison County,IL,NA,NA,13.449367088607595
62025,Madison County,IL,NA,43.10595065312046,NA
62040,Madison County,IL,NA,40.9288824383164,NA
62220,St. Clair County,IL,89.25979680696662,NA,75.79113924050634
62221,St. Clair County,IL,NA,NA,66.45569620253164
62226,St. Clair County,IL,NA,24.383164005805515,NA
62249,Madison County,IL,NA,NA,34.335443037974684
62450,Richland County,IL,NA,NA,45.56962025316456
62557,Christian County,IL,87.95355587808417,NA,NA
62565,Shelby County,IL,NA,77.6487663280116,NA
62930,Saline County,IL,NA,NA,80.85443037974683
62948,Williamson County,IL,NA,NA,95.41139240506328
46001,Madison County,IN,NA,NA,59.01898734177215
46060,Hamilton County,IN,NA,25.689404934687953,NA
46072,Tipton County,IN,NA,NA,65.50632911392405
46140,Hancock County,IN,NA,NA,17.088607594936708
46151,Morgan County,IN,NA,NA,30.37974683544304
46160,Brown County,IN,NA,90.27576197387518,NA
46201,Marion County,IN,55.00725689404935,NA,NA
46214,Marion County,IN,NA,NA,39.24050632911392
46219,Marion County,IN,12.772133526850507,NA,12.5
46231,Marion County,IN,NA,NA,95.09493670886076
46235,Marion County,IN,20.899854862119014,73.29462989840349,64.08227848101265
46268,Marion County,IN,NA,NA,31.962025316455694
46303,Lake County,IN,NA,NA,55.22151898734177
46307,Lake County,IN,NA,NA,3.0063291139240507
46312,Lake County,IN,NA,NA,26.582278481012654
46324,Lake County,IN,17.851959361393323,NA,NA
46342,Lake County,IN,NA,12.336719883889694,NA
46360,LaPorte County,IN,5.950653120464441,NA,NA
46404,Lake County,IN,36.71988388969521,NA,NA
46514,Elkhart County,IN,31.78519593613933,NA,NA
46526,Elkhart County,IN,NA,NA,41.29746835443038
46542,Kosciusko County,IN,NA,NA,96.83544303797468
46545,St. Joseph County,IN,NA,NA,43.037974683544306
46562,Kosciusko County,IN,96.5166908563135,NA,NA
46567,Kosciusko County,IN,NA,84.90566037735849,NA
46580,Kosciusko County,IN,50.50798258345428,NA,NA
46582,Kosciusko County,IN,NA,79.68069666182875,NA
46614,St. Joseph County,IN,NA,56.02322206095791,NA
46619,St. Joseph County,IN,NA,70.68214804063861,NA
46637,St. Joseph County,IN,NA,84.1799709724238,NA
46711,Adams County,IN,NA,NA,79.27215189873418
46774,Allen County,IN,NA,NA,63.4493670886076
46818,Allen County,IN,NA,48.040638606676346,NA
46845,Allen County,IN,NA,46.73439767779391,NA
46901,Howard County,IN,2.0319303338171264,NA,NA
46902,Howard County,IN,3.9187227866473147,NA,NA
46947,Cass County,IN,NA,NA,9.018987341772151
46952,Grant County,IN,NA,NA,18.9873417721519
46953,Grant County,IN,NA,10.449927431059507,NA
47024,Franklin County,IN,98.25834542815674,NA,NA
47167,Washington County,IN,NA,NA,67.40506329113924
47201,Bartholomew County,IN,NA,NA,13.291139240506327
47265,Jennings County,IN,24.383164005805515,NA,51.89873417721519
47302,Delaware County,IN,NA,31.93033381712627,NA
47303,Delaware County,IN,NA,53.99129172714079,NA
47348,Blackford County,IN,NA,59.361393323657474,NA
47371,Jay County,IN,NA,NA,81.64556962025317
47441,Greene County,IN,NA,NA,61.23417721518988
47553,Martin County,IN,NA,NA,88.29113924050634
50010,Story County,IA,NA,NA,71.04430379746836
50310,Polk County,IA,NA,NA,45.88607594936709
50311,Polk County,IA,55.878084179970976,NA,NA
50501,Webster County,IA,NA,NA,28.322784810126585
50703,Black Hawk County,IA,30.043541364296082,NA,NA
51031,Plymouth County,IA,NA,53.12046444121916,NA
51103,Woodbury County,IA,NA,NA,77.05696202531645
51104,Woodbury County,IA,NA,NA,81.32911392405063
51632,Page County,IA,NA,67.19883889695211,NA
52001,Dubuque County,IA,16.25544267053701,22.35123367198839,NA
52057,Delaware County,IA,NA,83.45428156748912,NA
52060,Jackson County,IA,NA,NA,84.81012658227847
52240,Johnson County,IA,NA,17.99709724238026,NA
52317,Johnson County,IA,NA,77.93904208998549,NA
52349,Benton County,IA,NA,NA,70.88607594936708
52537,Davis County,IA,90.42089985486213,NA,NA
52544,Appanoose County,IA,45.71843251088534,NA,NA
52722,Scott County,IA,21.480406386066765,NA,NA
52803,Scott County,IA,NA,54.426705370101594,NA
66012,Wyandotte County,KS,91.00145137880988,NA,NA
66047,Douglas County,KS,88.53410740203192,NA,NA
66048,Leavenworth County,KS,NA,48.62119013062409,NA
66062,Johnson County,KS,NA,14.223512336719885,NA
66104,Wyandotte County,KS,NA,44.55732946298984,NA
66209,Johnson County,KS,NA,NA,33.860759493670884
66542,Shawnee County,KS,NA,97.38751814223512,NA
66614,Shawnee County,KS,38.31640058055152,NA,NA
66618,Shawnee County,KS,92.45283018867924,NA,NA
67207,Sedgwick County,KS,86.64731494920174,NA,NA
67301,Montgomery County,KS,NA,NA,75.31645569620254
67401,Saline County,KS,21.91582002902758,NA,NA
67420,Mitchell County,KS,94.92017416545718,NA,NA
67502,Reno County,KS,NA,88.96952104499275,NA
67601,Ellis County,KS,NA,NA,7.9113924050632916
67801,Ford County,KS,NA,NA,79.11392405063292
67846,Finney County,KS,NA,NA,24.367088607594937
67871,Scott County,KS,NA,71.11756168359942,NA
40071,Spencer County,KY,NA,52.685050798258345,NA
40165,Bullitt County,KY,47.46008708272859,NA,NA
40205,Jefferson County,KY,85.92162554426706,NA,NA
40208,Jefferson County,KY,55.29753265602322,NA,NA
40210,Jefferson County,KY,NA,58.92597968069666,NA
40211,Jefferson County,KY,NA,37.59071117561684,NA
40215,Jefferson County,KY,19.88388969521045,80.55152394775035,NA
40228,Jefferson County,KY,NA,70.10159651669086,NA
40241,Jefferson County,KY,NA,41.07402031930334,NA
40272,Jefferson County,KY,14.658925979680696,NA,NA
40291,Jefferson County,KY,NA,NA,34.01898734177215
40351,Rowan County,KY,NA,NA,29.11392405063291
40356,Jessamine County,KY,NA,21.77068214804064,NA
40361,Bourbon County,KY,NA,59.07111756168359,NA
40383,Woodford County,KY,NA,NA,64.39873417721519
40391,Clark County,KY,NA,11.611030478955007,NA
40403,Madison County,KY,23.51233671988389,NA,NA
40444,Garrard County,KY,64.87663280116111,NA,NA
40484,Lincoln County,KY,75.61683599419449,NA,NA
40504,Fayette County,KY,NA,NA,49.36708860759494
40769,Whitley County,KY,NA,58.055152394775035,NA
41001,Campbell County,KY,NA,NA,83.70253164556962
41056,Mason County,KY,46.73439767779391,NA,NA
41101,Boyd County,KY,18.287373004354137,NA,NA
41102,Boyd County,KY,NA,NA,24.68354430379747
41179,Lewis County,KY,65.89259796806967,NA,NA
41224,Martin County,KY,83.59941944847606,NA,NA
41240,Johnson County,KY,NA,NA,73.41772151898735
41501,Pike County,KY,NA,12.772133526850507,NA
42141,Barren County,KY,43.83164005805516,NA,NA
42211,Trigg County,KY,NA,NA,58.22784810126582
42261,Butler County,KY,NA,92.45283018867924,NA
42301,Daviess County,KY,NA,41.654571843251084,14.715189873417723
42408,Hopkins County,KY,83.45428156748912,NA,NA
42420,Henderson County,KY,9.288824383164005,NA,NA
42445,Caldwell County,KY,NA,NA,90.82278481012658
70058,Jefferson Parish,LA,2.1770682148040637,NA,NA
70065,Jefferson Parish,LA,NA,NA,4.588607594936709
70072,Jefferson Parish,LA,NA,2.467343976777939,NA
70090,St. James Parish,LA,NA,82.14804063860667,NA
70118,Orleans Parish,LA,NA,17.561683599419446,NA
70122,Orleans Parish,LA,NA,10.014513788098693,NA
70125,Orleans Parish,LA,NA,NA,84.01898734177216
70126,Orleans Parish,LA,6.966618287373004,NA,NA
70131,Orleans Parish,LA,95.50072568940493,NA,NA
70339,Assumption Parish,LA,NA,NA,96.51898734177216
70363,Terrebonne Parish,LA,4.499274310595065,NA,NA
70364,Terrebonne Parish,LA,NA,NA,52.68987341772152
70394,Lafourche Parish,LA,NA,NA,32.594936708860764
70435,St. Tammany Parish,LA,21.190130624092888,NA,NA
70454,Tangipahoa Parish,LA,NA,7.982583454281568,NA
70506,Lafayette Parish,LA,NA,NA,26.10759493670886
70508,Lafayette Parish,LA,NA,NA,31.80379746835443
70535,St. Landry Parish,LA,NA,NA,30.69620253164557
70563,Iberia Parish,LA,NA,91.58200290275762,NA
70570,St. Landry Parish,LA,NA,98.8388969521045,NA
70615,Calcasieu Parish,LA,60.37735849056604,NA,NA
70634,Beauregard Parish,LA,NA,38.6066763425254,NA
70726,Livingston Parish,LA,1.5965166908563133,NA,NA
70760,Pointe Coupee Parish,LA,NA,88.53410740203192,NA
70815,East Baton Rouge Parish,LA,16.835994194484762,NA,NA
71203,Ouachita Parish,LA,NA,21.91582002902758,NA
71292,Ouachita Parish,LA,44.70246734397678,NA,NA
71301,Rapides Parish,LA,NA,33.52685050798258,NA
71342,La Salle Parish,LA,NA,69.23076923076923,NA
71360,Rapides Parish,LA,NA,25.25399129172714,NA
71435,Caldwell Parish,LA,NA,NA,100
71483,Winn Parish,LA,42.23512336719884,NA,NA
03906,York County,ME,NA,99.41944847605225,NA
04021,Cumberland County,ME,NA,NA,79.43037974683544
04240,Androscoggin County,ME,NA,17.271407837445572,NA
04330,Kennebec County,ME,NA,4.499274310595065,NA
04468,Penobscot County,ME,98.11320754716981,NA,NA
04769,Aroostook County,ME,66.32801161103048,NA,15.664556962025317
04917,Kennebec County,ME,NA,92.88824383164005,NA
04976,Somerset County,ME,NA,14.368650217706822,NA
20613,Prince George's County,MD,NA,NA,95.56962025316456
20815,Montgomery County,MD,NA,NA,40.189873417721515
20878,Montgomery County,MD,NA,NA,72.78481012658227
20904,Montgomery County,MD,NA,NA,20.569620253164558
20906,Montgomery County,MD,NA,NA,10.917721518987342
21037,Anne Arundel County,MD,76.92307692307693,NA,NA
21042,Howard County,MD,74.89114658925979,NA,NA
21045,Howard County,MD,53.41074020319303,NA,NA
21047,Harford County,MD,NA,87.08272859216255,NA
21048,Carroll County,MD,NA,91.29172714078373,NA
21108,Anne Arundel County,MD,NA,NA,82.12025316455697
21128,Baltimore County,MD,NA,89.69521044992743,NA
21202,Baltimore city,MD,NA,88.09869375907112,NA
21207,Baltimore County,MD,NA,NA,16.61392405063291
21212,Baltimore city,MD,44.847605224963715,NA,NA
21220,Baltimore County,MD,19.013062409288825,NA,NA
21222,Baltimore County,MD,NA,1.4513788098693758,NA
21239,Baltimore city,MD,35.84905660377358,NA,NA
21702,Frederick County,MD,74.02031930333817,NA,NA
21901,Cecil County,MD,NA,NA,81.4873417721519
21921,Cecil County,MD,15.965166908563136,NA,NA
01020,Hampden County,MA,NA,43.68650217706821,NA
01040,Hampden County,MA,NA,0,NA
01062,Hampshire County,MA,NA,70.97242380261248,NA
01082,Hampshire County,MA,NA,37.010159651669085,NA
01109,Hampden County,MA,NA,6.966618287373004,NA
01118,Hampden County,MA,NA,60.52249637155298,NA
01238,Berkshire County,MA,58.63570391872278,NA,NA
01247,Berkshire County,MA,6.531204644412192,NA,NA
01267,Berkshire County,MA,NA,75.76197387518143,NA
01301,Franklin County,MA,NA,NA,52.84810126582279
01420,Worcester County,MA,NA,NA,6.012658227848101
01523,Worcester County,MA,NA,52.83018867924528,NA
01527,Worcester County,MA,NA,NA,33.22784810126582
01540,Worcester County,MA,NA,NA,66.29746835443038
01570,Worcester County,MA,NA,NA,17.405063291139243
01701,Middlesex County,MA,NA,NA,8.544303797468354
01720,Middlesex County,MA,NA,NA,41.61392405063291
01752,Middlesex County,MA,NA,12.046444121915819,NA
01775,Middlesex County,MA,NA,NA,83.86075949367088
01824,Middlesex County,MA,NA,NA,8.38607594936709
01830,Essex County,MA,NA,5.079825834542816,NA
01854,Middlesex County,MA,NA,NA,6.170886075949367
01890,Middlesex County,MA,NA,30.333817126269956,NA
01902,Essex County,MA,NA,0.8708272859216255,NA
01906,Essex County,MA,NA,NA,6.962025316455696
01907,Essex County,MA,NA,NA,16.139240506329113
01915,Essex County,MA,1.741654571843251,NA,NA
01940,Essex County,MA,NA,NA,19.77848101265823
01970,Essex County,MA,18.57764876632801,NA,NA
02019,Norfolk County,MA,NA,NA,43.196202531645575
02026,Norfolk County,MA,NA,14.658925979680696,NA
02035,Norfolk County,MA,NA,63.28011611030478,NA
02062,Norfolk County,MA,NA,NA,57.43670886075949
02067,Norfolk County,MA,NA,NA,54.90506329113924
02081,Norfolk County,MA,NA,NA,38.924050632911396
02118,Suffolk County,MA,NA,81.27721335268505,NA
02119,Suffolk County,MA,1.4513788098693758,NA,NA
02121,Suffolk County,MA,NA,NA,5.8544303797468356
02122,Suffolk County,MA,1.1611030478955007,NA,NA
02124,Suffolk County,MA,NA,0.14513788098693758,NA
02126,Suffolk County,MA,0.29027576197387517,NA,NA
02128,Suffolk County,MA,0.14513788098693758,NA,NA
02155,Middlesex County,MA,NA,NA,21.677215189873415
02169,Norfolk County,MA,NA,0.5805515239477503,NA
02186,Norfolk County,MA,NA,NA,19.462025316455698
02190,Norfolk County,MA,81.71262699564586,NA,NA
02301,Plymouth County,MA,NA,NA,1.5822784810126582
02360,Plymouth County,MA,NA,NA,11.075949367088606
02370,Plymouth County,MA,NA,23.222060957910013,NA
02467,Norfolk County,MA,NA,27.866473149492016,NA
02493,Middlesex County,MA,NA,NA,59.17721518987342
02554,Nantucket County,MA,NA,53.41074020319303,NA
02642,Barnstable County,MA,NA,83.16400580551525,NA
02673,Barnstable County,MA,NA,NA,55.69620253164557
02721,Bristol County,MA,NA,3.6284470246734397,NA
02723,Bristol County,MA,2.467343976777939,NA,NA
02760,Bristol County,MA,NA,10.304789550072568,NA
48003,Lapeer County,MI,90.27576197387518,NA,NA
48017,Oakland County,MI,NA,78.51959361393324,NA
48030,Oakland County,MI,46.00870827285922,NA,NA
48034,Oakland County,MI,NA,NA,44.936708860759495
48035,Macomb County,MI,NA,8.272859216255442,NA
48036,Macomb County,MI,NA,NA,57.120253164556964
48042,Macomb County,MI,NA,NA,28.639240506329116
48071,Oakland County,MI,NA,NA,88.60759493670885
48083,Oakland County,MI,NA,66.47314949201741,NA
48085,Oakland County,MI,32.801161103047896,NA,NA
48091,Macomb County,MI,7.111756168359943,NA,NA
48092,Macomb County,MI,NA,20.029027576197386,NA
48101,Wayne County,MI,24.092888243831638,NA,NA
48116,Livingston County,MI,29.753265602322205,NA,NA
48117,Monroe County,MI,57.76487663280116,NA,NA
48125,Wayne County,MI,60.81277213352685,NA,NA
48150,Wayne County,MI,NA,19.448476052249635,NA
48154,Wayne County,MI,NA,5.950653120464441,6.487341772151899
48158,Washtenaw County,MI,80.55152394775035,NA,NA
48167,Oakland County,MI,42.96081277213353,NA,NA
48170,Wayne County,MI,14.949201741654573,2.7576197387518144,3.9556962025316458
48180,Wayne County,MI,NA,NA,3.1645569620253164
48185,Wayne County,MI,6.095791001451379,NA,NA
48188,Wayne County,MI,NA,5.660377358490567,NA
48189,Washtenaw County,MI,NA,NA,75
48195,Wayne County,MI,25.1088534107402,NA,NA
48203,Wayne County,MI,NA,NA,40.03164556962025
48215,Wayne County,MI,39.18722786647315,NA,NA
48219,Wayne County,MI,24.963715529753266,NA,NA
48221,Wayne County,MI,NA,NA,3.3227848101265818
48225,Wayne County,MI,41.509433962264154,NA,NA
48226,Wayne County,MI,NA,NA,94.14556962025317
48227,Wayne County,MI,3.3381712626995643,NA,NA
48228,Wayne County,MI,NA,5.805515239477503,NA
48235,Wayne County,MI,NA,NA,10.284810126582279
48240,Wayne County,MI,91.58200290275762,NA,NA
48301,Oakland County,MI,NA,NA,49.68354430379747
48312,Macomb County,MI,26.2699564586357,NA,NA
48313,Macomb County,MI,28.592162554426704,NA,NA
48315,Macomb County,MI,NA,17.41654571843251,NA
48340,Oakland County,MI,10.740203193033382,NA,NA
48342,Oakland County,MI,15.674891146589259,NA,NA
48346,Oakland County,MI,39.912917271407835,NA,NA
48386,Oakland County,MI,NA,NA,54.58860759493671
48423,Genesee County,MI,34.39767779390421,NA,NA
48429,Shiawassee County,MI,NA,73.00435413642961,NA
48455,Lapeer County,MI,NA,NA,86.39240506329115
48505,Genesee County,MI,NA,55.00725689404935,NA
48509,Genesee County,MI,83.88969521044993,NA,NA
48532,Genesee County,MI,NA,NA,53.79746835443038
48603,Saginaw County,MI,NA,7.837445573294629,NA
48625,Clare County,MI,30.18867924528302,NA,NA
48640,Midland County,MI,NA,13.352685050798257,NA
48642,Midland County,MI,NA,NA,7.436708860759493
48657,Midland County,MI,NA,NA,58.38607594936709
48734,Saginaw County,MI,NA,NA,70.56962025316456
48746,Tuscola County,MI,94.04934687953556,NA,98.10126582278481
48842,Ingham County,MI,NA,NA,59.96835443037975
48858,Isabella County,MI,6.821480406386067,NA,9.335443037974683
48910,Ingham County,MI,12.62699564586357,NA,NA
48917,Eaton County,MI,8.563134978229318,6.821480406386067,NA
49007,Kalamazoo County,MI,41.79970972423803,NA,NA
49017,Calhoun County,MI,NA,NA,26.265822784810126
49048,Kalamazoo County,MI,NA,NA,13.60759493670886
49057,Van Buren County,MI,85.19593613933236,NA,NA
49058,Barry County,MI,NA,37.88098693759071,NA
49082,Branch County,MI,85.34107402031931,NA,NA
49201,Jackson County,MI,36.574746008708274,NA,NA
49203,Jackson County,MI,NA,NA,7.59493670886076
49221,Lenawee County,MI,4.354136429608127,NA,35.28481012658228
49270,Monroe County,MI,NA,96.08127721335269,NA
49285,Ingham County,MI,NA,81.71262699564586,NA
49307,Mecosta County,MI,56.60377358490566,NA,NA
49315,Kent County,MI,NA,NA,85.60126582278481
49412,Newaygo County,MI,NA,NA,60.28481012658228
49418,Kent County,MI,NA,NA,99.20886075949366
49424,Ottawa County,MI,NA,NA,9.651898734177216
49428,Ottawa County,MI,84.1799709724238,NA,NA
49441,Muskegon County,MI,NA,NA,2.689873417721519
49460,Ottawa County,MI,NA,84.32510885341074,NA
49503,Kent County,MI,NA,36.71988388969521,NA
49506,Kent County,MI,NA,NA,18.354430379746837
49519,Kent County,MI,17.561683599419446,NA,NA
49546,Kent County,MI,NA,NA,11.867088607594937
49660,Manistee County,MI,NA,NA,29.90506329113924
49686,Grand Traverse County,MI,NA,NA,16.77215189873418
49690,Grand Traverse County,MI,95.21044992743106,NA,NA
49707,Alpena County,MI,32.94629898403483,19.15820029027576,NA
49721,Cheboygan County,MI,NA,NA,75.15822784810126
49854,Schoolcraft County,MI,NA,NA,65.98101265822784
49855,Marquette County,MI,15.529753265602322,15.09433962264151,NA
49866,Marquette County,MI,64.00580551523947,NA,NA
49913,Houghton County,MI,64.4412191582003,NA,NA
55021,Rice County,MN,NA,NA,51.42405063291139
55033,Dakota County,MN,32.365747460087086,NA,NA
55040,Isanti County,MN,77.50362844702468,NA,NA
55051,Kanabec County,MN,NA,39.042089985486214,NA
55057,Rice County,MN,NA,66.18287373004354,NA
55076,Dakota County,MN,NA,NA,89.55696202531645
55107,Ramsey County,MN,NA,93.90420899854863,NA
55109,Ramsey County,MN,48.91146589259797,NA,NA
55110,Ramsey County,MN,NA,37.010159651669085,NA
55113,Ramsey County,MN,NA,NA,24.68354430379747
55118,Dakota County,MN,NA,NA,23.417721518987342
55119,Ramsey County,MN,NA,29.898403483309146,43.196202531645575
55128,Washington County,MN,NA,56.74891146589259,NA
55130,Ramsey County,MN,NA,NA,99.5253164556962
55303,Anoka County,MN,NA,33.236574746008706,NA
55336,McLeod County,MN,NA,77.06821480406386,NA
55347,Hennepin County,MN,NA,65.74746008708273,NA
55369,Hennepin County,MN,NA,45.86357039187228,NA
55372,Scott County,MN,NA,63.7155297532656,NA
55408,Hennepin County,MN,12.046444121915819,NA,NA
55413,Hennepin County,MN,NA,82.00290275761974,NA
55427,Hennepin County,MN,NA,NA,57.59493670886076
55429,Hennepin County,MN,13.062409288824384,NA,NA
55430,Hennepin County,MN,19.15820029027576,NA,NA
55435,Hennepin County,MN,NA,NA,63.92405063291139
55442,Hennepin County,MN,NA,87.95355587808417,86.23417721518987
55448,Anoka County,MN,77.93904208998549,NA,NA
55744,Itasca County,MN,NA,4.78955007256894,NA
55746,St. Louis County,MN,NA,30.18867924528302,NA
55807,St. Louis County,MN,52.5399129172714,NA,NA
55810,St. Louis County,MN,NA,50.2177068214804,NA
55811,St. Louis County,MN,32.22060957910015,NA,NA
55912,Mower County,MN,NA,NA,0.949367088607595
55987,Winona County,MN,35.703918722786646,NA,NA
56352,Stearns County,MN,NA,NA,77.84810126582279
56378,Stearns County,MN,NA,83.45428156748912,NA
56431,Aitkin County,MN,NA,42.0899854862119,NA
56470,Hubbard County,MN,NA,36.139332365747464,NA
56482,Wadena County,MN,NA,NA,72.15189873417721
56515,Otter Tail County,MN,NA,NA,69.14556962025317
56537,Otter Tail County,MN,NA,NA,14.39873417721519
56560,Clay County,MN,1.8867924528301887,NA,1.4240506329113924
56649,Koochiching County,MN,63.42525399129173,NA,NA
38668,Tate County,MS,NA,NA,80.37974683544303
38901,Grenada County,MS,NA,NA,42.721518987341774
39051,Leake County,MS,50.36284470246735,NA,NA
39056,Hinds County,MS,NA,74.02031930333817,NA
39206,Hinds County,MS,NA,48.76632801161103,NA
39211,Hinds County,MS,69.23076923076923,NA,NA
39213,Hinds County,MS,38.6066763425254,NA,NA
39350,Neshoba County,MS,28.011611030478957,NA,NA
39401,Forrest County,MS,NA,55.587808417997095,NA
39530,Harrison County,MS,NA,99.85486211901306,NA
39553,Jackson County,MS,NA,NA,77.68987341772153
39577,Stone County,MS,NA,89.5500725689405,NA
39601,Lincoln County,MS,NA,NA,40.348101265822784
39654,Lawrence County,MS,94.33962264150944,NA,NA
63005,St. Louis County,MO,NA,NA,64.87341772151899
63114,St. Louis County,MO,26.705370101596515,NA,NA
63116,St. Louis city,MO,38.171262699564586,NA,NA
63123,St. Louis County,MO,NA,NA,3.6392405063291138
63128,St. Louis County,MO,NA,NA,35.44303797468354
63129,St. Louis County,MO,NA,NA,40.98101265822785
63141,St. Louis County,MO,84.1799709724238,76.77793904208998,NA
63367,St. Charles County,MO,NA,NA,23.89240506329114
63601,St. Francois County,MO,NA,NA,69.77848101265823
64024,Clay County,MO,18.867924528301888,NA,NA
64052,Jackson County,MO,10.595065312046444,NA,NA
64055,Jackson County,MO,NA,6.531204644412192,NA
64058,Jackson County,MO,79.9709724238026,NA,NA
64064,Jackson County,MO,91.14658925979681,NA,NA
64080,Cass County,MO,67.48911465892597,NA,NA
64089,Clay County,MO,NA,NA,95.72784810126582
64093,Johnson County,MO,NA,NA,47.78481012658228
64109,Jackson County,MO,NA,34.39767779390421,NA
64111,Jackson County,MO,27.576197387518143,NA,NA
64118,Clay County,MO,5.805515239477503,6.095791001451379,NA
64119,Clay County,MO,NA,19.013062409288825,NA
64124,Jackson County,MO,NA,68.50507982583454,NA
64132,Jackson County,MO,16.110304789550074,NA,NA
64683,Grundy County,MO,NA,NA,64.55696202531645
64834,Jasper County,MO,87.22786647314949,NA,NA
65084,Morgan County,MO,88.38896952104498,NA,NA
65560,Dent County,MO,62.554426705370105,NA,NA
65625,Barry County,MO,89.11465892597968,NA,NA
65653,Taney County,MO,NA,NA,82.91139240506328
65737,Stone County,MO,NA,NA,79.90506329113924
65802,Greene County,MO,11.611030478955007,NA,NA
65810,Greene County,MO,NA,68.94049346879537,NA
59401,Cascade County,MT,86.5021770682148,NA,NA
59601,Lewis and Clark County,MT,NA,NA,21.835443037974684
59635,Lewis and Clark County,MT,93.32365747460088,NA,NA
59901,Flathead County,MT,34.25253991291727,NA,NA
59923,Lincoln County,MT,NA,NA,66.61392405063292
68025,Dodge County,NE,NA,22.641509433962266,NA
68111,Douglas County,NE,NA,33.9622641509434,NA
68131,Douglas County,NE,NA,NA,88.76582278481013
68147,Sarpy County,NE,NA,95.50072568940493,NA
68506,Lancaster County,NE,NA,NA,41.139240506329116
68507,Lancaster County,NE,92.01741654571843,NA,NA
68516,Lancaster County,NE,NA,NA,49.208860759493675
68521,Lancaster County,NE,NA,80.2612481857765,71.51898734177216
68526,Lancaster County,NE,97.677793904209,NA,NA
68601,Platte County,NE,NA,80.11611030478954,NA
68776,Dakota County,NE,NA,82.87373004354136,NA
69101,Lincoln County,NE,79.24528301886792,NA,NA
69153,Keith County,NE,NA,81.42235123367199,NA
69301,Box Butte County,NE,NA,NA,72.46835443037975
89103,Clark County,NV,NA,NA,86.86708860759494
89119,Clark County,NV,NA,49.63715529753265,NA
89134,Clark County,NV,NA,NA,12.183544303797468
89183,Clark County,NV,68.21480406386067,NA,NA
89410,Douglas County,NV,NA,NA,39.87341772151899
89434,Washoe County,NV,NA,33.81712626995646,37.81645569620253
89521,Washoe County,NV,NA,NA,70.72784810126582
89701,Carson City,NV,40.78374455732946,NA,NA
03038,Rockingham County,NH,NA,15.529753265602322,NA
03049,Hillsborough County,NH,NA,98.25834542815674,NA
03053,Rockingham County,NH,NA,21.480406386066765,NA
03062,Hillsborough County,NH,19.3033381712627,NA,NA
03275,Merrimack County,NH,NA,45.86357039187228,NA
03303,Merrimack County,NH,76.77793904208998,NA,NA
03431,Cheshire County,NH,30.914368650217703,NA,NA
03860,Carroll County,NH,NA,NA,67.40506329113924
07010,Bergen County,NJ,90.13062409288824,NA,NA
07013,Passaic County,NJ,NA,NA,55.85443037974683
07039,Essex County,NJ,NA,NA,30.854430379746834
07055,Passaic County,NJ,NA,2.6124818577648767,NA
07071,Bergen County,NJ,71.40783744557329,NA,NA
07103,Essex County,NJ,0.8708272859216255,NA,NA
07104,Essex County,NJ,0.5805515239477503,NA,25.949367088607595
07109,Essex County,NJ,47.8955007256894,NA,NA
07205,Union County,NJ,NA,NA,96.04430379746836
07305,Hudson County,NJ,0.43541364296081275,NA,NA
07306,Hudson County,NJ,NA,10.595065312046444,NA
07410,Bergen County,NJ,53.99129172714079,NA,NA
07417,Bergen County,NJ,89.5500725689405,NA,NA
07480,Passaic County,NJ,NA,NA,73.25949367088607
07628,Bergen County,NJ,NA,NA,49.5253164556962
07726,Monmouth County,NJ,NA,23.9477503628447,32.278481012658226
07733,Monmouth County,NJ,NA,77.50362844702468,NA
07735,Monmouth County,NJ,NA,NA,79.58860759493672
07828,Morris County,NJ,63.13497822931785,NA,NA
07840,Warren County,NJ,37.300435413642965,NA,NA
08002,Camden County,NJ,NA,NA,39.71518987341772
08029,Camden County,NJ,NA,NA,97.31012658227847
08050,Ocean County,NJ,NA,NA,26.424050632911396
08053,Burlington County,NJ,NA,NA,14.082278481012658
08055,Burlington County,NJ,NA,NA,74.20886075949366
08070,Salem County,NJ,NA,NA,78.16455696202532
08081,Camden County,NJ,NA,6.386066763425253,NA
08094,Gloucester County,NJ,NA,NA,50.9493670886076
08096,Gloucester County,NJ,NA,NA,15.822784810126583
08103,Camden County,NJ,NA,NA,65.18987341772153
08104,Camden County,NJ,0.7256894049346879,NA,NA
08108,Camden County,NJ,NA,56.89404934687954,NA
08201,Atlantic County,NJ,NA,83.30914368650217,NA
08343,Gloucester County,NJ,NA,NA,98.25949367088607
08527,Ocean County,NJ,NA,NA,59.49367088607595
08638,Mercer County,NJ,NA,NA,73.89240506329115
08731,Ocean County,NJ,NA,49.92743105950653,NA
08735,Ocean County,NJ,NA,98.69375907111755,NA
08736,Monmouth County,NJ,NA,NA,72.31012658227847
08742,Ocean County,NJ,NA,41.79970972423803,NA
08757,Ocean County,NJ,NA,NA,0.6329113924050633
08816,Middlesex County,NJ,NA,NA,40.50632911392405
08822,Hunterdon County,NJ,NA,32.65602322206096,NA
08846,Middlesex County,NJ,NA,73.7300435413643,NA
08865,Warren County,NJ,NA,9.143686502177069,NA
08873,Somerset County,NJ,NA,20.609579100145137,NA
08879,Middlesex County,NJ,36.42960812772134,NA,NA
87102,Bernalillo County,NM,22.35123367198839,49.34687953555878,NA
87106,Bernalillo County,NM,58.78084179970973,NA,NA
87120,Bernalillo County,NM,8.99854862119013,NA,NA
87121,Bernalillo County,NM,4.934687953555878,NA,NA
87123,Bernalillo County,NM,NA,NA,14.556962025316455
87505,Santa Fe County,NM,NA,4.2089985486211905,NA
87701,San Miguel County,NM,NA,NA,50.31645569620253
88001,Doa Ana County,NM,28.30188679245283,NA,NA
88007,Doa Ana County,NM,NA,56.16835994194484,NA
88130,Roosevelt County,NM,NA,40.638606676342526,NA
88203,Chaves County,NM,NA,16.25544267053701,60.60126582278481
88210,Eddy County,NM,NA,64.15094339622641,NA
88220,Eddy County,NM,NA,20.4644412191582,NA
10002,New York County,NY,NA,NA,1.740506329113924
10003,New York County,NY,NA,NA,18.5126582278481
10024,New York County,NY,NA,NA,5.379746835443038
10038,New York County,NY,NA,NA,60.91772151898734
10303,Richmond County,NY,42.52539912917271,NA,NA
10310,Richmond County,NY,50.943396226415096,NA,NA
10451,Bronx County,NY,NA,NA,33.54430379746836
10453,Bronx County,NY,NA,1.0159651669085632,NA
10455,Bronx County,NY,NA,NA,14.873417721518987
10457,Bronx County,NY,NA,0.7256894049346879,NA
10458,Bronx County,NY,5.079825834542816,NA,NA
10459,Bronx County,NY,5.370101596516691,NA,NA
10462,Bronx County,NY,NA,3.483309143686502,NA
10467,Bronx County,NY,5.515239477503629,NA,NA
10469,Bronx County,NY,NA,NA,5.537974683544303
10543,Westchester County,NY,74.89114658925979,NA,NA
10562,Westchester County,NY,NA,68.3599419448476,NA
10924,Orange County,NY,NA,95.21044992743106,NA
10940,Orange County,NY,17.271407837445572,NA,NA
10977,Rockland County,NY,34.39767779390421,NA,NA
10989,Rockland County,NY,NA,93.46879535558782,NA
11040,Nassau County,NY,NA,NA,28.955696202531644
11101,Queens County,NY,87.08272859216255,NA,NA
11105,Queens County,NY,NA,54.13642960812772,NA
11206,Kings County,NY,2.3222060957910013,NA,NA
11208,Kings County,NY,1.0159651669085632,NA,NA
11209,Kings County,NY,NA,17.706821480406386,NA
11219,Kings County,NY,NA,NA,11.234177215189874
11224,Kings County,NY,NA,NA,1.89873417721519
11226,Kings County,NY,NA,1.8867924528301887,NA
11229,Kings County,NY,28.88243831640058,NA,NA
11230,Kings County,NY,NA,39.62264150943396,NA
11231,Kings County,NY,NA,45.42815674891146,NA
11233,Kings County,NY,NA,NA,9.49367088607595
11236,Kings County,NY,4.644412191582003,6.676342525399129,NA
11372,Queens County,NY,32.075471698113205,NA,NA
11373,Queens County,NY,NA,NA,20.88607594936709
11374,Queens County,NY,NA,NA,21.044303797468356
11385,Queens County,NY,NA,42.96081277213353,NA
11428,Queens County,NY,68.3599419448476,NA,NA
11434,Queens County,NY,NA,51.66908563134979,NA
11550,Nassau County,NY,NA,15.820029027576195,NA
11720,Suffolk County,NY,NA,NA,30.063291139240505
11741,Suffolk County,NY,NA,69.52104499274311,NA
11747,Suffolk County,NY,NA,71.69811320754717,NA
11756,Nassau County,NY,62.264150943396224,NA,NA
11762,Nassau County,NY,NA,NA,77.21518987341773
11777,Suffolk County,NY,NA,95.355587808418,NA
11779,Suffolk County,NY,42.815674891146585,NA,NA
11784,Suffolk County,NY,73.43976777939042,NA,NA
11950,Suffolk County,NY,81.13207547169812,87.66328011611031,NA
11953,Suffolk County,NY,NA,93.75907111756169,NA
12198,Rensselaer County,NY,NA,89.25979680696662,NA
12205,Albany County,NY,NA,43.83164005805516,NA
12302,Schenectady County,NY,NA,62.84470246734397,NA
12303,Schenectady County,NY,NA,42.670537010159656,NA
12309,Schenectady County,NY,NA,NA,42.405063291139236
12528,Ulster County,NY,98.54862119013063,NA,NA
12550,Orange County,NY,NA,57.32946298984035,NA
12564,Dutchess County,NY,NA,NA,94.9367088607595
12590,Dutchess County,NY,NA,68.21480406386067,NA
12601,Dutchess County,NY,30.478955007256893,NA,NA
12603,Dutchess County,NY,NA,NA,36.86708860759494
12834,Washington County,NY,74.89114658925979,NA,NA
12866,Saratoga County,NY,NA,8.563134978229318,NA
12921,Clinton County,NY,93.17851959361393,NA,NA
12953,Franklin County,NY,18.722786647314948,NA,NA
13030,Madison County,NY,NA,96.37155297532655,NA
13031,Onondaga County,NY,47.16981132075472,NA,NA
13069,Oswego County,NY,NA,NA,49.84177215189873
13110,Onondaga County,NY,NA,99.12917271407838,NA
13142,Oswego County,NY,73.7300435413643,NA,NA
13206,Onondaga County,NY,25.834542815674894,NA,NA
13207,Onondaga County,NY,32.65602322206096,NA,NA
13212,Onondaga County,NY,NA,NA,63.13291139240506
13324,Herkimer County,NY,99.41944847605225,NA,NA
13440,Oneida County,NY,NA,3.9187227866473147,NA
13452,Montgomery County,NY,NA,98.11320754716981,NA
13748,Broome County,NY,NA,94.62989840348331,NA
13760,Broome County,NY,NA,0.43541364296081275,NA
13790,Broome County,NY,8.853410740203193,NA,NA
13905,Broome County,NY,NA,NA,3.79746835443038
14006,Erie County,NY,71.69811320754717,NA,NA
14032,Erie County,NY,87.80841799709724,NA,NA
14072,Erie County,NY,44.26705370101596,NA,NA
14103,Orleans County,NY,47.60522496371553,NA,NA
14150,Erie County,NY,NA,NA,16.930379746835442
14209,Erie County,NY,NA,NA,90.18987341772153
14214,Erie County,NY,NA,43.97677793904209,NA
14220,Erie County,NY,NA,23.367198838896954,NA
14222,Erie County,NY,NA,69.81132075471697,NA
14225,Erie County,NY,NA,NA,45.72784810126582
14226,Erie County,NY,NA,NA,67.24683544303798
14227,Erie County,NY,25.39912917271408,NA,NA
14456,Ontario County,NY,NA,27.14078374455733,NA
14487,Livingston County,NY,NA,61.53846153846154,NA
14580,Monroe County,NY,NA,NA,2.2151898734177213
14606,Monroe County,NY,36.284470246734394,NA,NA
14613,Monroe County,NY,NA,93.03338171262699,NA
14626,Monroe County,NY,NA,3.1930333817126266,NA
14706,Cattaraugus County,NY,63.28011611030478,NA,NA
14760,Cattaraugus County,NY,10.014513788098693,NA,NA
14871,Chemung County,NY,NA,NA,91.61392405063292
27260,Guilford County,NC,23.367198838896954,NA,NA
27284,Forsyth County,NC,NA,1.1611030478955007,NA
27376,Moore County,NC,NA,NA,92.08860759493672
27455,Guilford County,NC,NA,NA,53.16455696202531
27501,Harnett County,NC,56.45863570391872,NA,69.62025316455697
27511,Wake County,NC,NA,NA,37.0253164556962
27516,Orange County,NC,NA,11.320754716981133,NA
27520,Johnston County,NC,NA,71.55297532656023,NA
27529,Wake County,NC,NA,14.949201741654573,NA
27530,Wayne County,NC,15.384615384615385,NA,NA
27542,Johnston County,NC,NA,NA,88.92405063291139
27606,Wake County,NC,NA,NA,54.43037974683544
27610,Wake County,NC,NA,4.063860667634253,NA
27613,Wake County,NC,54.13642960812772,NA,NA
27704,Durham County,NC,NA,NA,35.75949367088608
27705,Durham County,NC,NA,NA,18.829113924050635
27809,Nash County,NC,NA,NA,99.84177215189874
27834,Pitt County,NC,NA,NA,51.74050632911392
27870,Halifax County,NC,NA,NA,45.25316455696203
27882,Nash County,NC,NA,88.67924528301887,NA
27892,Martin County,NC,NA,28.88243831640058,NA
27893,Wilson County,NC,15.820029027576195,NA,NA
27909,Pasquotank County,NC,NA,NA,17.563291139240505
27932,Chowan County,NC,NA,NA,39.55696202531646
28021,Gaston County,NC,NA,NA,71.83544303797468
28031,Mecklenburg County,NC,NA,43.97677793904209,NA
28043,Rutherford County,NC,NA,39.7677793904209,NA
28052,Gaston County,NC,NA,23.657474600870827,NA
28081,Cabarrus County,NC,22.49637155297533,NA,NA
28110,Union County,NC,NA,NA,14.240506329113925
28210,Mecklenburg County,NC,NA,NA,31.4873417721519
28304,Cumberland County,NC,33.38171262699564,NA,NA
28326,Harnett County,NC,NA,68.79535558780842,NA
28379,Richmond County,NC,17.41654571843251,NA,NA
28383,Robeson County,NC,85.63134978229317,NA,NA
28384,Bladen County,NC,65.60232220609579,NA,NA
28429,New Hanover County,NC,NA,85.63134978229317,NA
28516,Carteret County,NC,NA,NA,72.94303797468355
28540,Onslow County,NC,NA,NA,33.06962025316456
28546,Onslow County,NC,NA,49.782293178519595,NA
28557,Carteret County,NC,NA,NA,55.22151898734177
28584,Carteret County,NC,NA,66.0377358490566,NA
28658,Catawba County,NC,NA,NA,52.05696202531646
28681,Alexander County,NC,NA,39.33236574746009,NA
28697,Wilkes County,NC,67.9245283018868,NA,NA
28714,Yancey County,NC,NA,45.573294629898406,NA
28715,Buncombe County,NC,53.55587808417997,NA,NA
28779,Jackson County,NC,62.11901306240929,NA,NA
28786,Haywood County,NC,NA,NA,21.99367088607595
28792,Henderson County,NC,NA,40.49346879535559,1.2658227848101267
28806,Buncombe County,NC,91.8722786647315,NA,NA
58103,Cass County,ND,7.402031930333817,NA,NA
58501,Burleigh County,ND,NA,NA,9.177215189873419
58504,Burleigh County,ND,58.20029027576198,NA,NA
58601,Stark County,ND,46.589259796806964,NA,NA
43072,Champaign County,OH,90.71117561683599,NA,NA
43081,Franklin County,OH,NA,9.433962264150944,NA
43085,Franklin County,OH,NA,65.60232220609579,NA
43110,Franklin County,OH,NA,41.509433962264154,NA
43113,Pickaway County,OH,NA,11.175616835994195,NA
43123,Franklin County,OH,NA,NA,10.759493670886076
43125,Franklin County,OH,NA,NA,77.37341772151899
43204,Franklin County,OH,NA,NA,43.82911392405063
43206,Franklin County,OH,NA,NA,64.24050632911393
43209,Franklin County,OH,NA,34.25253991291727,46.04430379746836
43211,Franklin County,OH,11.030478955007258,31.78519593613933,NA
43213,Franklin County,OH,9.57910014513788,NA,NA
43228,Franklin County,OH,3.483309143686502,NA,NA
43229,Franklin County,OH,NA,7.111756168359943,NA
43230,Franklin County,OH,NA,12.917271407837447,NA
43357,Logan County,OH,NA,94.92017416545718,NA
43528,Lucas County,OH,NA,NA,71.36075949367088
43537,Lucas County,OH,NA,NA,27.37341772151899
43543,Williams County,OH,NA,NA,93.82911392405063
43551,Wood County,OH,NA,4.644412191582003,NA
43566,Lucas County,OH,NA,87.37300435413643,NA
43607,Lucas County,OH,6.386066763425253,NA,NA
43614,Lucas County,OH,10.88534107402032,NA,NA
43615,Lucas County,OH,NA,NA,8.069620253164556
43623,Lucas County,OH,27.866473149492016,NA,NA
43793,Monroe County,OH,NA,NA,99.0506329113924
43812,Coshocton County,OH,NA,NA,10.443037974683545
43832,Tuscarawas County,OH,NA,69.37590711175616,NA
43844,Coshocton County,OH,95.64586357039188,NA,NA
43906,Belmont County,OH,51.523947750362844,NA,NA
43947,Belmont County,OH,NA,85.77648766328012,NA
44017,Cuyahoga County,OH,38.89695210449927,NA,NA
44035,Lorain County,OH,NA,NA,0.15822784810126583
44050,Lorain County,OH,NA,NA,56.32911392405063
44060,Lake County,OH,7.256894049346879,NA,NA
44087,Summit County,OH,NA,NA,74.0506329113924
44102,Cuyahoga County,OH,0,NA,NA
44111,Cuyahoga County,OH,1.3062409288824384,NA,NA
44120,Cuyahoga County,OH,NA,2.3222060957910013,NA
44133,Cuyahoga County,OH,28.44702467343977,NA,NA
44134,Cuyahoga County,OH,NA,NA,4.90506329113924
44135,Cuyahoga County,OH,3.1930333817126266,NA,NA
44138,Cuyahoga County,OH,34.97822931785196,NA,NA
44143,Cuyahoga County,OH,NA,NA,2.0569620253164556
44145,Cuyahoga County,OH,18.142235123367197,NA,NA
44202,Portage County,OH,NA,17.126269956458636,NA
44212,Medina County,OH,54.28156748911466,NA,NA
44266,Portage County,OH,NA,4.354136429608127,6.329113924050633
44305,Summit County,OH,14.804063860667634,NA,NA
44311,Summit County,OH,55.587808417997095,NA,NA
44312,Summit County,OH,NA,8.127721335268506,NA
44413,Columbiana County,OH,NA,NA,81.17088607594937
44420,Trumbull County,OH,39.477503628447025,NA,NA
44438,Trumbull County,OH,NA,NA,93.67088607594937
44460,Columbiana County,OH,NA,36.86502177068215,NA
44505,Mahoning County,OH,33.9622641509434,NA,NA
44646,Stark County,OH,9.288824383164005,NA,NA
44647,Stark County,OH,83.01886792452831,NA,NA
44662,Stark County,OH,80.2612481857765,NA,NA
44685,Summit County,OH,NA,NA,27.531645569620256
44702,Stark County,OH,NA,98.54862119013063,NA
44708,Stark County,OH,29.172714078374458,NA,NA
44827,Crawford County,OH,NA,79.24528301886792,NA
44839,Erie County,OH,NA,NA,31.4873417721519
44851,Huron County,OH,NA,97.96806966618288,NA
44906,Richland County,OH,35.55878084179971,NA,NA
45005,Warren County,OH,8.417997097242381,NA,NA
45015,Butler County,OH,NA,70.39187227866474,NA
45040,Warren County,OH,NA,NA,25.31645569620253
45068,Warren County,OH,NA,NA,75.63291139240506
45176,Clermont County,OH,NA,NA,88.13291139240506
45177,Clinton County,OH,24.818577648766325,NA,NA
45204,Hamilton County,OH,95.93613933236574,NA,NA
45245,Clermont County,OH,NA,49.49201741654572,NA
45320,Preble County,OH,NA,35.55878084179971,NA
45344,Clark County,OH,NA,NA,68.5126582278481
45356,Miami County,OH,15.239477503628446,NA,NA
45373,Miami County,OH,NA,NA,36.075949367088604
45385,Greene County,OH,12.336719883889694,NA,NA
45402,Montgomery County,OH,NA,85.92162554426706,NA
45410,Montgomery County,OH,NA,NA,89.71518987341773
45417,Montgomery County,OH,NA,14.078374455732948,NA
45420,Montgomery County,OH,NA,NA,46.360759493670884
45424,Montgomery County,OH,NA,NA,7.2784810126582276
45429,Montgomery County,OH,NA,NA,17.246835443037973
45440,Montgomery County,OH,NA,76.0522496371553,NA
45619,Lawrence County,OH,NA,57.18432510885341,NA
45662,Scioto County,OH,2.9027576197387517,NA,NA
45680,Lawrence County,OH,13.642960812772134,NA,38.13291139240506
45801,Allen County,OH,12.191582002902758,NA,NA
45805,Allen County,OH,14.078374455732948,NA,NA
45806,Allen County,OH,67.77939042089986,NA,NA
45832,Van Wert County,OH,94.77503628447025,NA,NA
45840,Hancock County,OH,2.7576197387518144,NA,NA
73006,Caddo County,OK,99.2743105950653,NA,NA
73045,Oklahoma County,OK,NA,NA,69.9367088607595
73107,Oklahoma County,OK,57.03918722786647,NA,NA
73115,Oklahoma County,OK,NA,NA,38.607594936708864
73120,Oklahoma County,OK,NA,25.834542815674894,NA
73150,Oklahoma County,OK,NA,82.5834542815675,96.99367088607595
73170,Cleveland County,OK,NA,NA,8.702531645569621
73701,Garfield County,OK,NA,NA,27.689873417721518
73703,Garfield County,OK,NA,NA,9.81012658227848
73942,Texas County,OK,NA,NA,94.4620253164557
74023,Payne County,OK,69.52104499274311,NA,NA
74037,Tulsa County,OK,83.16400580551525,NA,NA
74039,Creek County,OK,98.4034833091437,NA,NA
74075,Payne County,OK,NA,60.81277213352685,NA
74112,Tulsa County,OK,NA,NA,68.9873417721519
74129,Tulsa County,OK,NA,83.01886792452831,NA
74146,Tulsa County,OK,NA,NA,96.67721518987342
74403,Muskogee County,OK,NA,25.39912917271408,NA
74434,Muskogee County,OK,NA,88.38896952104498,NA
74464,Cherokee County,OK,NA,NA,43.82911392405063
74728,McCurtain County,OK,NA,NA,80.22151898734177
97005,Washington County,OR,51.959361393323654,NA,NA
97013,Clackamas County,OR,NA,75.47169811320755,NA
97031,Hood River County,OR,74.31059506531204,NA,NA
97038,Clackamas County,OR,NA,NA,69.4620253164557
97058,Wasco County,OR,43.2510885341074,NA,NA
97060,Multnomah County,OR,NA,NA,75.4746835443038
97070,Clackamas County,OR,66.61828737300436,NA,NA
97103,Clatsop County,OR,59.21625544267054,47.60522496371553,NA
97201,Multnomah County,OR,NA,80.6966618287373,NA
97218,Multnomah County,OR,78.66473149492018,NA,NA
97301,Marion County,OR,13.352685050798257,NA,NA
97322,Linn County,OR,14.368650217706822,NA,NA
97338,Polk County,OR,NA,NA,61.07594936708861
97402,Lane County,OR,21.335268505079828,NA,NA
97424,Lane County,OR,NA,NA,37.34177215189873
97478,Lane County,OR,76.34252539912917,NA,NA
97496,Douglas County,OR,60.087082728592165,NA,NA
97504,Jackson County,OR,NA,NA,5.2215189873417724
97526,Josephine County,OR,NA,32.22060957910015,51.10759493670886
97527,Josephine County,OR,NA,NA,22.310126582278482
97701,Deschutes County,OR,NA,NA,37.18354430379747
97741,Jefferson County,OR,NA,76.0522496371553,NA
97756,Deschutes County,OR,39.33236574746009,NA,NA
97801,Umatilla County,OR,NA,NA,16.455696202531644
97850,Union County,OR,NA,25.834542815674894,50.79113924050633
15001,Beaver County,PA,NA,15.529753265602322,NA
15010,Beaver County,PA,22.060957910014515,NA,NA
15074,Beaver County,PA,NA,58.63570391872278,NA
15122,Allegheny County,PA,NA,NA,18.037974683544302
15135,Allegheny County,PA,NA,NA,89.39873417721519
15210,Allegheny County,PA,NA,NA,54.11392405063291
15236,Allegheny County,PA,51.37880986937591,NA,NA
15239,Allegheny County,PA,NA,69.95645863570392,NA
15301,Washington County,PA,NA,3.7735849056603774,NA
15317,Washington County,PA,NA,7.6923076923076925,NA
15401,Fayette County,PA,NA,NA,8.069620253164556
15478,Fayette County,PA,75.90711175616835,NA,NA
15668,Westmoreland County,PA,NA,62.11901306240929,NA
15767,Jefferson County,PA,29.60812772133527,NA,NA
15902,Cambria County,PA,NA,NA,71.04430379746836
15909,Cambria County,PA,NA,NA,94.30379746835443
16105,Lawrence County,PA,64.29608127721336,NA,NA
16201,Armstrong County,PA,NA,NA,13.924050632911392
16229,Armstrong County,PA,NA,NA,87.18354430379746
16652,Huntingdon County,PA,NA,NA,19.62025316455696
17003,Lebanon County,PA,51.088534107402026,NA,NA
17011,Cumberland County,PA,27.721335268505083,NA,NA
17025,Cumberland County,PA,NA,NA,72.62658227848101
17050,Cumberland County,PA,NA,8.708272859216255,NA
17104,Dauphin County,PA,NA,75.90711175616835,NA
17257,Cumberland County,PA,NA,22.93178519593614,NA
17325,Adams County,PA,25.25399129172714,NA,NA
17349,York County,PA,NA,NA,98.57594936708861
17543,Lancaster County,PA,24.67343976777939,NA,NA
17566,Lancaster County,PA,87.66328011611031,NA,NA
17603,Lancaster County,PA,9.143686502177069,NA,NA
17801,Northumberland County,PA,NA,NA,33.22784810126582
17857,Northumberland County,PA,70.68214804063861,NA,NA
18020,Northampton County,PA,79.68069666182875,27.721335268505083,NA
18036,Lehigh County,PA,NA,33.09143686502177,NA
18042,Northampton County,PA,NA,NA,18.196202531645568
18302,Monroe County,PA,56.89404934687954,NA,NA
18353,Monroe County,PA,68.06966618287373,NA,NA
18507,Lackawanna County,PA,NA,NA,85.75949367088607
18640,Luzerne County,PA,NA,31.059506531204644,NA
18661,Luzerne County,PA,NA,NA,78.95569620253164
18705,Luzerne County,PA,57.32946298984035,NA,NA
18938,Bucks County,PA,NA,67.9245283018868,NA
18966,Bucks County,PA,NA,42.815674891146585,10.126582278481013
19030,Bucks County,PA,NA,74.89114658925979,NA
19036,Delaware County,PA,84.90566037735849,NA,NA
19057,Bucks County,PA,34.107402031930334,NA,NA
19067,Bucks County,PA,NA,6.2409288824383164,NA
19070,Delaware County,PA,NA,95.93613933236574,NA
19072,Montgomery County,PA,NA,91.00145137880988,NA
19086,Delaware County,PA,NA,NA,74.20886075949366
19118,Philadelphia County,PA,NA,79.39042089985486,NA
19122,Philadelphia County,PA,49.34687953555878,NA,NA
19124,Philadelphia County,PA,NA,NA,27.848101265822784
19128,Philadelphia County,PA,19.593613933236576,NA,NA
19132,Philadelphia County,PA,NA,NA,51.26582278481012
19136,Philadelphia County,PA,11.901306240928882,NA,NA
19139,Philadelphia County,PA,4.2089985486211905,4.78955007256894,NA
19140,Philadelphia County,PA,NA,7.547169811320755,NA
19141,Philadelphia County,PA,33.81712626995646,NA,NA
19143,Philadelphia County,PA,NA,12.481857764876633,NA
19144,Philadelphia County,PA,5.2249637155297535,NA,NA
19145,Philadelphia County,PA,NA,45.13788098693759,NA
19146,Philadelphia County,PA,51.23367198838898,NA,NA
19148,Philadelphia County,PA,7.982583454281568,NA,NA
19150,Philadelphia County,PA,NA,22.060957910014515,NA
19348,Chester County,PA,NA,46.879535558780844,NA
19444,Montgomery County,PA,NA,NA,80.69620253164557
19454,Montgomery County,PA,NA,48.47605224963715,NA
19462,Montgomery County,PA,50.79825834542816,NA,83.38607594936708
19464,Montgomery County,PA,5.660377358490567,NA,NA
19475,Chester County,PA,NA,96.9521044992743,NA
19525,Montgomery County,PA,74.1654571843251,NA,NA
19539,Berks County,PA,97.96806966618288,NA,NA
02809,Bristol County,RI,NA,31.059506531204644,NA
02813,Washington County,RI,NA,NA,67.87974683544303
02818,Kent County,RI,NA,NA,42.08860759493671
02871,Newport County,RI,88.09869375907112,NA,NA
02908,Providence County,RI,NA,35.84905660377358,NA
29020,Kershaw County,SC,89.84034833091437,NA,NA
29044,Richland County,SC,NA,94.77503628447025,NA
29070,Lexington County,SC,80.40638606676342,NA,NA
29153,Sumter County,SC,NA,65.02177068214804,NA
29223,Richland County,SC,NA,24.238026124818575,NA
29302,Spartanburg County,SC,81.8577648766328,NA,NA
29401,Charleston County,SC,97.82293178519593,NA,NA
29406,Charleston County,SC,NA,60.087082728592165,NA
29407,Charleston County,SC,NA,11.46589259796807,NA
29412,Charleston County,SC,NA,18.722786647314948,11.39240506329114
29445,Berkeley County,SC,NA,23.076923076923077,NA
29456,Dorchester County,SC,NA,50.07256894049347,NA
29464,Charleston County,SC,NA,60.66763425253991,NA
29466,Charleston County,SC,NA,84.76052249637155,NA
29470,Charleston County,SC,96.37155297532655,NA,NA
29488,Colleton County,SC,38.02612481857765,NA,NA
29505,Florence County,SC,52.685050798258345,NA,NA
29550,Darlington County,SC,44.26705370101596,NA,NA
29568,Horry County,SC,94.1944847605225,NA,NA
29571,Marion County,SC,72.27866473149493,NA,NA
29576,Horry County,SC,NA,10.88534107402032,NA
29579,Horry County,SC,NA,31.349782293178517,NA
29588,Horry County,SC,NA,9.57910014513788,23.259493670886076
29624,Anderson County,SC,39.62264150943396,NA,NA
29625,Anderson County,SC,35.268505079825836,NA,53.00632911392405
29650,Greenville County,SC,NA,44.55732946298984,NA
29680,Greenville County,SC,50.07256894049347,NA,NA
29691,Oconee County,SC,NA,NA,82.27848101265823
29728,Chesterfield County,SC,NA,NA,90.98101265822784
29841,Aiken County,SC,NA,NA,56.9620253164557
29909,Beaufort County,SC,NA,15.239477503628446,NA
57108,Lincoln County,SD,NA,18.287373004354137,NA
57201,Codington County,SD,82.5834542815675,67.63425253991292,NA
57301,Davison County,SD,51.814223512336724,NA,NA
57701,Pennington County,SD,55.73294629898403,NA,NA
37013,Davidson County,TN,10.304789550072568,NA,NA
37027,Williamson County,TN,42.380261248185775,NA,NA
37042,Montgomery County,TN,NA,37.735849056603776,NA
37064,Williamson County,TN,NA,13.933236574746008,NA
37067,Williamson County,TN,NA,NA,75.9493670886076
37072,Davidson County,TN,33.09143686502177,NA,NA
37110,Warren County,TN,NA,NA,28.79746835443038
37160,Bedford County,TN,NA,NA,38.765822784810126
37167,Rutherford County,TN,NA,22.786647314949203,NA
37184,Wilson County,TN,NA,92.74310595065312,NA
37185,Humphreys County,TN,NA,NA,81.9620253164557
37208,Davidson County,TN,27.28592162554427,NA,NA
37209,Davidson County,TN,NA,57.9100145137881,NA
37211,Davidson County,TN,20.4644412191582,NA,NA
37214,Davidson County,TN,NA,55.442670537010166,NA
37216,Davidson County,TN,NA,90.71117561683599,NA
37217,Davidson County,TN,45.28301886792453,NA,NA
37221,Davidson County,TN,NA,23.657474600870827,NA
37327,Sequatchie County,TN,NA,66.76342525399129,NA
37380,Marion County,TN,NA,NA,89.24050632911393
37643,Carter County,TN,12.917271407837447,NA,NA
37716,Anderson County,TN,75.3265602322206,NA,NA
37722,Cocke County,TN,NA,96.9521044992743,NA
37766,Campbell County,TN,NA,NA,32.75316455696203
37777,Blount County,TN,65.02177068214804,NA,NA
37807,Union County,TN,76.48766328011611,NA,NA
37813,Hamblen County,TN,81.56748911465893,NA,NA
37830,Anderson County,TN,NA,22.49637155297533,NA
37876,Sevier County,TN,NA,NA,37.65822784810127
37918,Knox County,TN,NA,19.738751814223512,NA
37921,Knox County,TN,30.76923076923077,NA,NA
38002,Shelby County,TN,72.859216255442675,NA,NA
38024,Dyer County,TN,25.39912917271408,NA,NA
38120,Shelby County,TN,NA,95.64586357039188,NA
38242,Henry County,TN,81.27721335268505,NA,NA
38351,Henderson County,TN,NA,NA,41.29746835443038
38478,Giles County,TN,NA,64.29608127721336,NA
75002,Collin County,TX,NA,NA,46.677215189873415
75013,Collin County,TX,NA,NA,90.34810126582279
75020,Grayson County,TX,NA,34.83309143686502,NA
75024,Collin County,TX,65.31204644412192,NA,NA
75028,Denton County,TX,NA,37.300435413642965,NA
75062,Dallas County,TX,NA,30.478955007256893,NA
75065,Denton County,TX,NA,97.82293178519593,NA
75070,Collin County,TX,16.545718432510885,NA,NA
75071,Collin County,TX,NA,28.592162554426704,NA
75090,Grayson County,TX,51.66908563134979,NA,NA
75115,Dallas County,TX,23.222060957910013,NA,NA
75143,Henderson County,TX,NA,NA,67.08860759493672
75147,Kaufman County,TX,NA,NA,89.87341772151899
75150,Dallas County,TX,NA,NA,43.5126582278481
75180,Dallas County,TX,71.26269956458636,NA,NA
75217,Dallas County,TX,8.708272859216255,NA,NA
75220,Dallas County,TX,52.39477503628447,NA,NA
75229,Dallas County,TX,NA,47.16981132075472,NA
75232,Dallas County,TX,NA,NA,61.39240506329114
75236,Dallas County,TX,66.90856313497822,NA,NA
75241,Dallas County,TX,23.657474600870827,NA,NA
75253,Dallas County,TX,69.95645863570392,NA,NA
75407,Collin County,TX,67.19883889695211,NA,NA
75462,Lamar County,TX,90.56603773584906,NA,NA
75474,Hunt County,TX,66.47314949201741,NA,NA
75501,Bowie County,TX,NA,20.754716981132077,NA
75551,Cass County,TX,86.21190130624092,NA,NA
75652,Rusk County,TX,NA,NA,76.74050632911393
75751,Henderson County,TX,50.653120464441216,NA,NA
75757,Smith County,TX,NA,42.380261248185775,NA
75771,Smith County,TX,85.77648766328012,NA,NA
75839,Anderson County,TX,NA,NA,85.44303797468355
75862,Trinity County,TX,NA,NA,84.96835443037975
75904,Angelina County,TX,36.86502177068215,NA,NA
75951,Jasper County,TX,54.57184325108854,NA,NA
75972,San Augustine County,TX,75.90711175616835,NA,NA
76013,Tarrant County,TX,67.48911465892597,NA,NA
76016,Tarrant County,TX,NA,21.335268505079828,NA
76017,Tarrant County,TX,NA,NA,35.60126582278481
76036,Tarrant County,TX,NA,59.94194484760522,NA
76048,Hood County,TX,NA,29.753265602322205,NA
76054,Tarrant County,TX,NA,NA,70.25316455696202
76058,Johnson County,TX,NA,79.5355587808418,NA
76063,Tarrant County,TX,NA,12.191582002902758,NA
76065,Ellis County,TX,NA,34.107402031930334,NA
76066,Parker County,TX,99.41944847605225,NA,NA
76084,Johnson County,TX,NA,93.46879535558782,NA
76103,Tarrant County,TX,68.79535558780842,NA,NA
76109,Tarrant County,TX,63.42525399129173,NA,NA
76116,Tarrant County,TX,NA,NA,19.145569620253163
76117,Tarrant County,TX,NA,NA,61.86708860759494
76148,Tarrant County,TX,43.68650217706821,NA,NA
76180,Tarrant County,TX,NA,NA,30.22151898734177
76244,Tarrant County,TX,27.14078374455733,NA,NA
76273,Grayson County,TX,NA,94.33962264150944,NA
76302,Wichita County,TX,NA,NA,89.08227848101265
76502,Bell County,TX,16.400580551523948,NA,NA
76504,Bell County,TX,NA,1.741654571843251,NA
76549,Bell County,TX,61.68359941944848,NA,NA
76710,McLennan County,TX,NA,NA,12.81645569620253
76903,Tom Green County,TX,NA,NA,48.10126582278481
77009,Harris County,TX,49.782293178519595,NA,NA
77013,Harris County,TX,NA,95.7910014513788,NA
77016,Harris County,TX,NA,NA,47.310126582278485
77041,Harris County,TX,NA,38.89695210449927,NA
77044,Harris County,TX,39.042089985486214,NA,NA
77053,Fort Bend County,TX,NA,58.20029027576198,NA
77062,Harris County,TX,NA,59.50653120464441,NA
77068,Harris County,TX,NA,NA,96.99367088607595
77071,Harris County,TX,NA,NA,87.81645569620254
77085,Harris County,TX,NA,86.64731494920174,NA
77086,Harris County,TX,NA,NA,98.41772151898735
77090,Harris County,TX,30.333817126269956,NA,NA
77302,Montgomery County,TX,75.3265602322206,NA,NA
77346,Harris County,TX,58.92597968069666,NA,NA
77351,Polk County,TX,NA,20.319303338171263,NA
77385,Montgomery County,TX,NA,78.66473149492018,NA
77441,Fort Bend County,TX,NA,85.92162554426706,NA
77471,Fort Bend County,TX,40.20319303338171,NA,NA
77479,Fort Bend County,TX,31.349782293178517,16.9811320754717,NA
77486,Brazoria County,TX,NA,NA,88.4493670886076
77489,Fort Bend County,TX,NA,69.08563134978229,NA
77520,Harris County,TX,NA,60.2322206095791,NA
77546,Galveston County,TX,NA,9.869375907111756,NA
77566,Brazoria County,TX,NA,46.44412191582003,47.62658227848101
77590,Galveston County,TX,13.788098693759071,NA,NA
77625,Hardin County,TX,NA,82.29317851959361,NA
77630,Orange County,TX,43.39622641509434,NA,46.677215189873415
77802,Brazos County,TX,26.995645863570395,17.851959361393323,NA
77803,Brazos County,TX,NA,45.28301886792453,NA
77833,Washington County,TX,NA,NA,13.132911392405063
77840,Brazos County,TX,NA,72.859216255442675,NA
77845,Brazos County,TX,10.159651669085632,NA,NA
77868,Grimes County,TX,73.14949201741655,NA,NA
77901,Victoria County,TX,NA,NA,28.164556962025316
78028,Kerr County,TX,NA,NA,7.120253164556963
78040,Webb County,TX,43.97677793904209,38.02612481857765,NA
78045,Webb County,TX,24.238026124818575,NA,NA
78114,Wilson County,TX,NA,51.088534107402026,NA
78133,Comal County,TX,NA,74.60087082728593,NA
78221,Bexar County,TX,48.91146589259797,NA,NA
78223,Bexar County,TX,NA,27.576197387518143,NA
78247,Bexar County,TX,NA,61.24818577648766,NA
78254,Bexar County,TX,NA,NA,92.40506329113924
78380,Nueces County,TX,NA,NA,85.28481012658227
78418,Nueces County,TX,NA,80.84179970972424,NA
78516,Hidalgo County,TX,65.74746008708273,NA,59.17721518987342
78537,Hidalgo County,TX,NA,38.31640058055152,NA
78552,Cameron County,TX,NA,NA,65.34810126582279
78574,Hidalgo County,TX,NA,35.268505079825836,44.778481012658226
78584,Starr County,TX,71.11756168359942,NA,50.15822784810127
78586,Cameron County,TX,NA,47.02467343976778,31.0126582278481
78596,Hidalgo County,TX,78.51959361393324,NA,34.49367088607595
78602,Bastrop County,TX,67.19883889695211,65.89259796806967,NA
78610,Hays County,TX,79.10014513788099,NA,NA
78628,Williamson County,TX,NA,NA,2.5316455696202533
78639,Llano County,TX,NA,NA,32.120253164556964
78654,Burnet County,TX,NA,NA,13.765822784810128
78660,Travis County,TX,NA,31.64005805515239,NA
78721,Travis County,TX,NA,96.66182873730044,NA
78730,Travis County,TX,93.46879535558782,NA,NA
78757,Travis County,TX,NA,95.06531204644412,NA
78759,Travis County,TX,NA,NA,34.96835443037975
78801,Uvalde County,TX,NA,NA,71.67721518987342
79106,Potter County,TX,NA,NA,46.99367088607595
79110,Randall County,TX,69.81132075471697,NA,NA
79355,Yoakum County,TX,99.70972423802613,NA,NA
79364,Lubbock County,TX,91.72714078374456,NA,NA
79510,Callahan County,TX,NA,NA,86.5506329113924
79756,Ward County,TX,78.95500725689405,NA,NA
79904,El Paso County,TX,69.23076923076923,NA,NA
79907,El Paso County,TX,NA,18.57764876632801,NA
79928,El Paso County,TX,53.12046444121916,NA,NA
79936,El Paso County,TX,13.20754716981132,NA,NA
79938,El Paso County,TX,NA,67.9245283018868,NA
84015,Davis County,UT,22.206095791001452,NA,NA
84020,Salt Lake County,UT,47.02467343976778,NA,NA
84029,Tooele County,UT,NA,86.79245283018868,NA
84032,Wasatch County,UT,NA,80.2612481857765,NA
84043,Utah County,UT,48.040638606676346,NA,NA
84054,Davis County,UT,NA,NA,97.94303797468355
84084,Salt Lake County,UT,NA,40.20319303338171,NA
84093,Salt Lake County,UT,NA,93.32365747460088,NA
84103,Salt Lake County,UT,NA,NA,34.177215189873415
84115,Salt Lake County,UT,NA,32.94629898403483,NA
84321,Cache County,UT,NA,73.58490566037736,NA
84401,Weber County,UT,NA,NA,76.26582278481013
84790,Washington County,UT,NA,NA,5.537974683544303
20141,Loudoun County,VA,99.12917271407838,NA,NA
20147,Loudoun County,VA,NA,57.47460087082729,NA
20169,Prince William County,VA,84.03483309143687,NA,NA
20176,Loudoun County,VA,52.97532656023222,63.57039187227866,NA
22015,Fairfax County,VA,NA,47.750362844702465,NA
22039,Fairfax County,VA,NA,81.13207547169812,NA
22124,Fairfax County,VA,88.82438316400581,NA,NA
22180,Fairfax County,VA,NA,85.19593613933236,NA
22304,Alexandria city,VA,NA,32.51088534107402,NA
22306,Fairfax County,VA,30.914368650217703,NA,NA
22308,Fairfax County,VA,NA,86.21190130624092,NA
22310,Fairfax County,VA,58.055152394775035,NA,NA
22312,Fairfax County,VA,NA,68.65021770682148,NA
22401,Fredericksburg city,VA,NA,NA,65.66455696202532
22405,Stafford County,VA,NA,NA,59.81012658227848
22443,Westmoreland County,VA,88.67924528301887,NA,NA
22485,King George County,VA,68.65021770682148,NA,NA
22815,Rockingham County,VA,56.60377358490566,NA,NA
23103,Goochland County,VA,100,NA,NA
23111,Hanover County,VA,NA,14.513788098693759,NA
23113,Chesterfield County,VA,NA,NA,53.32278481012658
23139,Powhatan County,VA,NA,49.056603773584904,NA
23150,Henrico County,VA,81.27721335268505,NA,NA
23222,Richmond city,VA,17.99709724238026,NA,NA
23223,Henrico County,VA,NA,NA,31.329113924050635
23224,Richmond city,VA,NA,29.027576197387518,NA
23225,Richmond city,VA,15.09433962264151,NA,NA
23314,Isle of Wight County,VA,NA,NA,92.40506329113924
23322,Chesapeake city,VA,NA,NA,56.17088607594937
23434,Suffolk city,VA,NA,8.99854862119013,NA
23452,Virginia Beach city,VA,NA,7.256894049346879,NA
23464,Virginia Beach city,VA,NA,20.174165457184326,NA
23607,Newport News city,VA,20.754716981132077,NA,NA
23666,Hampton city,VA,NA,41.944847605224965,NA
23803,Petersburg city,VA,12.336719883889694,NA,NA
23831,Chesterfield County,VA,74.74600870827285,28.737300435413644,NA
23832,Chesterfield County,VA,NA,50.2177068214804,NA
23838,Chesterfield County,VA,NA,77.79390420899854,NA
23851,Franklin city,VA,NA,NA,40.664556962025316
24012,Roanoke city,VA,NA,NA,32.91139240506329
24019,Roanoke County,VA,60.52249637155298,NA,NA
24073,Montgomery County,VA,NA,53.26560232220609,NA
24121,Bedford County,VA,NA,NA,76.42405063291139
24184,Franklin County,VA,NA,NA,92.87974683544303
24211,Washington County,VA,85.48621190130625,NA,NA
24540,Danville city,VA,NA,NA,42.563291139240505
24541,Danville city,VA,NA,29.60812772133527,NA
98007,King County,WA,NA,NA,56.32911392405063
98008,King County,WA,NA,72.27866473149493,NA
98012,Snohomish County,WA,NA,24.383164005805515,NA
98031,King County,WA,NA,90.13062409288824,NA
98034,King County,WA,35.12336719883889,NA,NA
98040,King County,WA,NA,NA,44.14556962025317
98042,King County,WA,17.706821480406386,NA,NA
98072,King County,WA,NA,58.345428156748916,NA
98092,King County,WA,NA,NA,34.651898734177216
98109,King County,WA,NA,87.22786647314949,NA
98125,King County,WA,42.0899854862119,NA,NA
98133,King County,WA,29.898403483309146,NA,NA
98168,King County,WA,NA,NA,47.94303797468354
98178,King County,WA,59.79680696661829,NA,NA
98264,Whatcom County,WA,NA,NA,61.39240506329114
98282,Island County,WA,NA,NA,48.41772151898734
98290,Snohomish County,WA,45.13788098693759,NA,NA
98382,Clallam County,WA,NA,2.0319303338171264,NA
98383,Kitsap County,WA,NA,86.93759071117562,NA
98407,Pierce County,WA,NA,NA,78.63924050632912
98516,Thurston County,WA,NA,76.34252539912917,NA
98604,Clark County,WA,89.40493468795356,76.92307692307693,NA
98620,Klickitat County,WA,NA,NA,67.72151898734177
98626,Cowlitz County,WA,47.314949201741655,NA,NA
98664,Clark County,WA,NA,71.40783744557329,NA
98801,Chelan County,WA,NA,5.370101596516691,NA
98816,Chelan County,WA,NA,81.8577648766328,NA
98902,Yakima County,WA,29.46298984034833,NA,NA
98903,Yakima County,WA,75.76197387518143,NA,NA
99022,Spokane County,WA,NA,89.11465892597968,NA
99203,Spokane County,WA,NA,72.71407837445574,NA
99207,Spokane County,WA,NA,NA,65.82278481012658
99217,Spokane County,WA,NA,91.14658925979681,NA
99224,Spokane County,WA,NA,78.08417997097243,NA
99338,Benton County,WA,NA,29.172714078374458,NA
99352,Benton County,WA,43.54136429608128,NA,NA
99354,Benton County,WA,NA,NA,20.411392405063292
20009,District of Columbia,DC,33.38171262699564,NA,NA
20012,District of Columbia,DC,94.62989840348331,NA,NA
20016,District of Columbia,DC,NA,51.37880986937591,NA
24740,Mercer County,WV,32.51088534107402,NA,NA
25143,Kanawha County,WV,66.0377358490566,72.13352685050798,NA
25177,Kanawha County,WV,13.497822931785198,32.075471698113205,15.348101265822786
25401,Berkeley County,WV,NA,32.365747460087086,NA
25403,Berkeley County,WV,78.3744557329463,NA,NA
25404,Berkeley County,WV,41.36429608127721,NA,NA
25570,Wayne County,WV,77.79390420899854,NA,NA
25901,Fayette County,WV,80.98693759071118,84.61538461538461,NA
26003,Ohio County,WV,NA,NA,3.481012658227848
26041,Marshall County,WV,NA,NA,50
26047,Hancock County,WV,NA,NA,78.16455696202532
26537,Preston County,WV,61.97387518142236,NA,NA
26554,Marion County,WV,NA,NA,4.113924050632911
53042,Manitowoc County,WI,NA,90.27576197387518,NA
53045,Waukesha County,WI,NA,48.91146589259797,NA
53066,Waukesha County,WI,NA,10.740203193033382,NA
53095,Washington County,WI,56.16835994194484,NA,NA
53146,Waukesha County,WI,NA,NA,81.0126582278481
53158,Kenosha County,WI,21.77068214804064,NA,NA
53206,Milwaukee County,WI,9.869375907111756,NA,NA
53209,Milwaukee County,WI,2.6124818577648767,NA,NA
53210,Milwaukee County,WI,NA,16.69085631349782,NA
53212,Milwaukee County,WI,NA,13.20754716981132,NA
53221,Milwaukee County,WI,20.029027576197386,NA,NA
53402,Racine County,WI,6.2409288824383164,NA,NA
53403,Racine County,WI,36.139332365747464,NA,NA
53511,Rock County,WI,NA,0.29027576197387517,NA
53528,Dane County,WI,NA,NA,98.73417721518987
53546,Rock County,WI,NA,3.3381712626995643,NA
53548,Rock County,WI,NA,NA,28.00632911392405
53562,Dane County,WI,NA,NA,65.03164556962025
53589,Dane County,WI,NA,74.31059506531204,NA
53590,Dane County,WI,NA,41.21915820029027,NA
53704,Dane County,WI,11.46589259796807,NA,NA
53717,Dane County,WI,NA,61.82873730043541,NA
53719,Dane County,WI,NA,NA,62.9746835443038
53913,Sauk County,WI,NA,53.70101596516691,NA
53916,Dodge County,WI,NA,NA,28.48101265822785
53950,Juneau County,WI,NA,94.1944847605225,NA
53959,Sauk County,WI,NA,NA,59.65189873417721
53963,Dodge County,WI,59.94194484760522,NA,NA
54016,St. Croix County,WI,49.63715529753265,NA,NA
54025,St. Croix County,WI,93.03338171262699,NA,NA
54129,Calumet County,WI,98.98403483309144,NA,NA
54140,Outagamie County,WI,92.16255442670537,NA,NA
54143,Marinette County,WI,52.83018867924528,NA,NA
54154,Oconto County,WI,88.96952104499275,NA,92.24683544303798
54220,Manitowoc County,WI,NA,1.3062409288824384,NA
54302,Brown County,WI,NA,97.24238026124819,NA
54304,Brown County,WI,22.641509433962266,NA,NA
54313,Brown County,WI,NA,31.349782293178517,NA
54484,Marathon County,WI,NA,NA,96.36075949367088
54601,La Crosse County,WI,7.547169811320755,NA,NA
54901,Winnebago County,WI,29.027576197387518,NA,NA
54904,Winnebago County,WI,NA,NA,56.32911392405063
54914,Outagamie County,WI,23.802612481857764,NA,NA
82240,Goshen County,WY,NA,83.45428156748912,NA
82601,Natrona County,WY,NA,NA,68.0379746835443
82716,Campbell County,WY,NA,NA,80.5379746835443
82718,Campbell County,WY,62.40928882438317,NA,NA
