ZipCode,county,state,Youth,Adult,Retirement,Geriatric
35007,Shelby County,AL,NA,NA,43.98976982097187,NA
35022,Jefferson County,AL,NA,39.36039360393604,17.391304347826086,NA
35046,Chilton County,AL,NA,NA,90.40920716112531,NA
35115,Shelby County,AL,NA,NA,NA,91.8848167539267
35125,St. Clair County,AL,NA,58.42558425584256,NA,NA
35127,Jefferson County,AL,NA,83.64083640836408,NA,NA
35150,Talladega County,AL,56.86274509803921,NA,NA,53.66492146596858
35173,Jefferson County,AL,NA,50.061500615006146,NA,NA
35244,Jefferson County,AL,NA,48.831488314883146,NA,NA
35401,Tuscaloosa County,AL,NA,25.953259532595325,NA,NA
35405,Tuscaloosa County,AL,NA,NA,51.150895140664964,NA
35406,Tuscaloosa County,AL,NA,NA,NA,41.361256544502616
35475,Tuscaloosa County,AL,NA,51.04551045510455,NA,NA
35476,Tuscaloosa County,AL,NA,64.57564575645756,NA,NA
35565,Winston County,AL,NA,NA,80.9462915601023,NA
35601,Morgan County,AL,NA,12.915129151291513,NA,NA
35603,Morgan County,AL,26.225490196078432,NA,NA,NA
35613,Limestone County,AL,38.23529411764706,NA,NA,NA
35630,Lauderdale County,AL,NA,NA,NA,48.42931937172775
35640,Morgan County,AL,25,NA,NA,NA
35653,Franklin County,AL,NA,78.72078720787208,NA,NA
35673,Morgan County,AL,76.47058823529412,71.09471094710948,NA,NA
35674,Colbert County,AL,NA,34.19434194341943,NA,NA
35758,Madison County,AL,40.68627450980392,NA,NA,NA
35802,Madison County,AL,NA,68.75768757687577,NA,NA
35810,Madison County,AL,NA,NA,NA,20.418848167539267
35906,Etowah County,AL,NA,88.43788437884379,NA,NA
35950,Marshall County,AL,69.36274509803921,NA,NA,NA
35951,Marshall County,AL,NA,NA,NA,81.15183246073299
36110,Montgomery County,AL,NA,56.08856088560885,NA,NA
36116,Montgomery County,AL,21.568627450980394,20.418204182041823,NA,NA
36264,Cleburne County,AL,NA,85.60885608856088,NA,NA
36305,Houston County,AL,NA,NA,70.71611253196932,NA
36330,Coffee County,AL,NA,NA,40.92071611253197,51.57068062827225
36375,Geneva County,AL,NA,75.03075030750308,80.56265984654732,NA
36467,Covington County,AL,92.15686274509804,NA,NA,NA
36527,Baldwin County,AL,NA,NA,96.03580562659847,NA
36542,Baldwin County,AL,NA,NA,72.1227621483376,NA
36571,Mobile County,AL,64.70588235294117,NA,NA,NA
36604,Mobile County,AL,NA,87.20787207872078,NA,NA
36613,Mobile County,AL,NA,NA,81.07416879795396,NA
36695,Mobile County,AL,NA,33.33333333333333,NA,NA
36748,Marengo County,AL,98.2843137254902,NA,NA,NA
36867,Russell County,AL,NA,NA,79.41176470588235,NA
36869,Russell County,AL,NA,NA,68.15856777493606,NA
36874,Lee County,AL,NA,NA,85.42199488491049,NA
99501,Anchorage Municipality,AK,NA,22.14022140221402,NA,NA
99504,Anchorage Municipality,AK,NA,21.894218942189422,47.82608695652174,NA
99705,Fairbanks North Star Borough,AK,71.32352941176471,NA,NA,NA
85008,Maricopa County,AZ,8.823529411764707,NA,NA,NA
85009,Maricopa County,AZ,10.294117647058822,NA,NA,NA
85027,Maricopa County,AZ,NA,42.066420664206646,NA,74.60732984293193
85028,Maricopa County,AZ,80.14705882352942,NA,NA,NA
85041,Maricopa County,AZ,NA,8.856088560885608,NA,NA
85051,Maricopa County,AZ,22.30392156862745,NA,NA,NA
85118,Pinal County,AZ,NA,NA,71.35549872122762,NA
85142,Maricopa County,AZ,NA,NA,28.644501278772378,NA
85201,Maricopa County,AZ,NA,13.284132841328415,NA,NA
85203,Maricopa County,AZ,NA,36.90036900369004,NA,NA
85226,Maricopa County,AZ,NA,NA,NA,77.22513089005236
85248,Maricopa County,AZ,NA,NA,33.248081841432224,NA
85251,Maricopa County,AZ,NA,NA,58.18414322250639,NA
85255,Maricopa County,AZ,NA,NA,80.17902813299233,NA
85258,Maricopa County,AZ,NA,NA,60.35805626598465,NA
85283,Maricopa County,AZ,NA,NA,28.13299232736573,NA
85296,Maricopa County,AZ,34.31372549019608,NA,NA,NA
85301,Maricopa County,AZ,NA,42.55842558425584,NA,NA
85326,Maricopa County,AZ,9.068627450980392,NA,NA,NA
85338,Maricopa County,AZ,37.00980392156863,NA,NA,NA
85339,Maricopa County,AZ,NA,21.40221402214022,NA,NA
85353,Maricopa County,AZ,NA,NA,83.88746803069054,NA
85379,Maricopa County,AZ,NA,30.50430504305043,NA,NA
85381,Maricopa County,AZ,85.5392156862745,65.55965559655597,NA,NA
85388,Maricopa County,AZ,NA,69.61869618696187,NA,NA
85396,Maricopa County,AZ,72.30392156862744,NA,NA,NA
85501,Gila County,AZ,67.8921568627451,NA,NA,NA
85616,Cochise County,AZ,NA,95.8179581795818,NA,NA
85635,Cochise County,AZ,52.94117647058824,NA,NA,NA
85710,Pima County,AZ,NA,9.10209102091021,NA,NA
85713,Pima County,AZ,NA,7.011070110701106,NA,NA
85746,Pima County,AZ,NA,NA,43.22250639386189,NA
85755,Pima County,AZ,NA,NA,54.47570332480819,NA
71857,Nevada County,AR,NA,NA,97.18670076726342,NA
71909,Garland County,AR,NA,NA,NA,12.041884816753926
71913,Garland County,AR,NA,NA,NA,10.99476439790576
71929,Hot Spring County,AR,NA,96.9249692496925,NA,NA
72034,Faulkner County,AR,NA,NA,NA,14.136125654450263
72076,Pulaski County,AR,NA,NA,NA,13.874345549738221
72110,Conway County,AR,NA,NA,NA,68.06282722513089
72116,Pulaski County,AR,NA,NA,47.570332480818415,NA
72210,Pulaski County,AR,NA,88.80688806888068,NA,NA
72211,Pulaski County,AR,NA,NA,84.65473145780051,NA
72335,St. Francis County,AR,NA,NA,NA,96.33507853403141
72364,Crittenden County,AR,NA,94.8339483394834,NA,NA
72450,Greene County,AR,NA,NA,26.47058823529412,NA
72455,Randolph County,AR,NA,NA,73.78516624040921,NA
72543,Cleburne County,AR,NA,NA,NA,54.45026178010471
72576,Fulton County,AR,NA,NA,96.54731457800511,96.59685863874346
72631,Carroll County,AR,NA,NA,NA,93.717277486911
72653,Baxter County,AR,NA,NA,22.122762148337596,NA
72712,Benton County,AR,42.40196078431372,NA,NA,NA
72718,Benton County,AR,98.52941176470588,NA,NA,NA
72736,Benton County,AR,NA,90.159901599016,NA,NA
72753,Washington County,AR,NA,NA,97.57033248081841,NA
72801,Pope County,AR,NA,82.65682656826569,NA,NA
72956,Crawford County,AR,NA,50.55350553505535,NA,NA
90005,Los Angeles County,CA,NA,NA,79.66751918158567,NA
90007,Los Angeles County,CA,NA,NA,NA,53.403141361256544
90022,Los Angeles County,CA,35.049019607843135,NA,NA,NA
90023,Los Angeles County,CA,NA,37.88437884378843,NA,NA
90029,Los Angeles County,CA,NA,NA,NA,39.00523560209424
90035,Los Angeles County,CA,77.45098039215686,NA,NA,NA
90037,Los Angeles County,CA,NA,NA,46.930946291560105,NA
90044,Los Angeles County,CA,NA,NA,19.69309462915601,NA
90046,Los Angeles County,CA,NA,NA,24.93606138107417,NA
90056,Los Angeles County,CA,NA,NA,NA,74.3455497382199
90201,Los Angeles County,CA,37.99019607843137,NA,42.58312020460358,NA
90250,Los Angeles County,CA,NA,24.231242312423124,NA,NA
90255,Los Angeles County,CA,NA,30.01230012300123,NA,NA
90262,Los Angeles County,CA,NA,NA,58.69565217391305,NA
90274,Los Angeles County,CA,NA,NA,67.51918158567774,NA
90280,Los Angeles County,CA,27.450980392156865,NA,NA,NA
90304,Los Angeles County,CA,80.3921568627451,NA,NA,NA
90501,Los Angeles County,CA,NA,NA,63.42710997442455,NA
90505,Los Angeles County,CA,87.5,NA,NA,NA
90630,Orange County,CA,NA,48.585485854858554,NA,NA
90640,Los Angeles County,CA,NA,NA,NA,29.581151832460733
90650,Los Angeles County,CA,24.019607843137255,NA,NA,NA
90706,Los Angeles County,CA,NA,25.21525215252153,NA,NA
90744,Los Angeles County,CA,50.245098039215684,60.88560885608856,NA,NA
90745,Los Angeles County,CA,63.48039215686274,NA,NA,NA
90802,Los Angeles County,CA,NA,91.5129151291513,NA,NA
90803,Los Angeles County,CA,NA,NA,53.196930946291566,NA
90806,Los Angeles County,CA,NA,56.82656826568265,NA,NA
91104,Los Angeles County,CA,NA,NA,56.905370843989765,NA
91106,Los Angeles County,CA,NA,91.38991389913899,NA,NA
91205,Los Angeles County,CA,NA,NA,NA,24.86910994764398
91206,Los Angeles County,CA,NA,NA,59.846547314578004,NA
91302,Los Angeles County,CA,NA,NA,NA,63.089005235602095
91307,Los Angeles County,CA,NA,NA,86.82864450127877,NA
91324,Los Angeles County,CA,NA,76.99876998769987,NA,NA
91331,Los Angeles County,CA,35.53921568627451,NA,NA,NA
91335,Los Angeles County,CA,NA,NA,38.87468030690537,NA
91350,Los Angeles County,CA,NA,NA,85.6777493606138,NA
91354,Los Angeles County,CA,NA,79.33579335793358,NA,NA
91367,Los Angeles County,CA,NA,56.94956949569495,NA,18.06282722513089
91504,Los Angeles County,CA,NA,NA,92.8388746803069,NA
91702,Los Angeles County,CA,NA,NA,49.74424552429667,NA
91710,San Bernardino County,CA,13.23529411764706,NA,NA,NA
91722,Los Angeles County,CA,75.98039215686273,NA,NA,NA
91737,San Bernardino County,CA,NA,78.84378843788437,NA,NA
91748,Los Angeles County,CA,NA,70.84870848708486,NA,NA
91750,Los Angeles County,CA,NA,NA,47.18670076726343,NA
91754,Los Angeles County,CA,NA,85.85485854858548,65.34526854219949,NA
91764,San Bernardino County,CA,NA,36.53136531365313,NA,NA
91776,Los Angeles County,CA,NA,NA,68.67007672634271,NA
91790,Los Angeles County,CA,NA,NA,56.52173913043478,NA
91911,San Diego County,CA,NA,23.616236162361623,NA,NA
92008,San Diego County,CA,NA,79.08979089790897,NA,NA
92021,San Diego County,CA,NA,15.129151291512915,NA,24.083769633507853
92025,San Diego County,CA,45.588235294117645,NA,58.43989769820972,NA
92037,San Diego County,CA,NA,NA,NA,21.465968586387437
92057,San Diego County,CA,NA,NA,64.70588235294117,NA
92078,San Diego County,CA,NA,NA,53.83631713554987,NA
92104,San Diego County,CA,NA,NA,41.30434782608695,NA
92105,San Diego County,CA,NA,NA,34.14322250639386,NA
92114,San Diego County,CA,NA,NA,29.283887468030688,NA
92203,Riverside County,CA,NA,NA,NA,30.36649214659686
92236,Riverside County,CA,NA,45.018450184501845,NA,NA
92253,Riverside County,CA,61.76470588235294,NA,NA,NA
92262,Riverside County,CA,NA,NA,NA,45.0261780104712
92264,Riverside County,CA,NA,NA,NA,12.827225130890053
92315,San Bernardino County,CA,NA,93.84993849938499,NA,NA
92316,San Bernardino County,CA,74.01960784313727,NA,NA,NA
92346,San Bernardino County,CA,NA,NA,52.0460358056266,NA
92352,San Bernardino County,CA,NA,NA,96.29156010230179,NA
92377,San Bernardino County,CA,NA,80.44280442804428,NA,NA
92394,San Bernardino County,CA,NA,49.32349323493235,NA,NA
92395,San Bernardino County,CA,NA,NA,49.36061381074169,NA
92399,San Bernardino County,CA,NA,NA,22.37851662404092,25.392670157068064
92404,San Bernardino County,CA,NA,49.20049200492005,NA,NA
92405,San Bernardino County,CA,NA,46.248462484624845,NA,NA
92407,San Bernardino County,CA,NA,NA,56.26598465473146,NA
92509,Riverside County,CA,NA,23.124231242312423,NA,NA
92544,Riverside County,CA,NA,NA,53.069053708439895,NA
92551,Riverside County,CA,90.44117647058823,NA,NA,NA
92557,Riverside County,CA,NA,NA,54.347826086956516,NA
92562,Riverside County,CA,NA,NA,37.97953964194373,NA
92571,Riverside County,CA,NA,40.836408364083645,60.10230179028133,NA
92591,Riverside County,CA,50.49019607843137,NA,NA,NA
92592,Riverside County,CA,NA,28.290282902829027,30.69053708439898,NA
92595,Riverside County,CA,46.32352941176471,NA,NA,NA
92627,Orange County,CA,NA,NA,33.37595907928389,NA
92630,Orange County,CA,NA,NA,19.565217391304348,NA
92646,Orange County,CA,NA,NA,43.73401534526854,NA
92660,Orange County,CA,NA,NA,NA,11.2565445026178
92673,Orange County,CA,NA,NA,NA,69.10994764397905
92675,Orange County,CA,NA,86.34686346863468,NA,NA
92688,Orange County,CA,38.72549019607843,NA,NA,NA
92802,Orange County,CA,NA,55.59655596555966,NA,NA
92804,Orange County,CA,NA,44.895448954489545,60.230179028132994,NA
92831,Orange County,CA,88.48039215686273,NA,NA,NA
92833,Orange County,CA,55.14705882352941,50.79950799507995,NA,54.712041884816756
92840,Orange County,CA,NA,NA,43.73401534526854,NA
92866,Orange County,CA,NA,93.1119311193112,NA,NA
92867,Orange County,CA,71.32352941176471,NA,NA,NA
92880,Riverside County,CA,35.78431372549019,NA,NA,NA
93010,Ventura County,CA,NA,NA,26.854219948849106,NA
93033,Ventura County,CA,2.941176470588235,NA,9.59079283887468,NA
93063,Ventura County,CA,NA,NA,26.726342710997443,NA
93065,Ventura County,CA,NA,NA,NA,57.06806282722513
93221,Tulare County,CA,NA,NA,82.35294117647058,NA
93230,Kings County,CA,NA,17.589175891758916,NA,NA
93277,Tulare County,CA,34.55882352941176,NA,NA,NA
93280,Kern County,CA,81.12745098039215,NA,NA,NA
93308,Kern County,CA,46.07843137254902,NA,NA,NA
93311,Kern County,CA,NA,NA,63.810741687979544,NA
93446,San Luis Obispo County,CA,44.36274509803921,NA,NA,NA
93458,Santa Barbara County,CA,NA,14.145141451414514,NA,NA
93561,Kern County,CA,67.15686274509804,NA,NA,NA
93619,Fresno County,CA,24.754901960784316,NA,NA,NA
93631,Fresno County,CA,78.18627450980392,NA,NA,NA
93635,Merced County,CA,NA,40.46740467404674,NA,NA
93638,Madera County,CA,7.107843137254902,NA,NA,NA
93701,Fresno County,CA,88.48039215686273,NA,NA,NA
93702,Fresno County,CA,NA,NA,NA,83.24607329842932
93726,Fresno County,CA,NA,21.27921279212792,NA,NA
93906,Monterey County,CA,NA,39.97539975399754,NA,NA
93907,Monterey County,CA,NA,NA,83.24808184143222,NA
93924,Monterey County,CA,NA,NA,82.9923273657289,NA
93930,Monterey County,CA,NA,NA,92.32736572890026,NA
93940,Monterey County,CA,77.94117647058823,NA,NA,NA
94066,San Mateo County,CA,NA,NA,10.997442455242968,NA
94080,San Mateo County,CA,NA,NA,7.289002557544758,NA
94114,San Francisco County,CA,NA,48.21648216482165,NA,NA
94117,San Francisco County,CA,NA,35.30135301353013,NA,NA
94118,San Francisco County,CA,NA,56.94956949569495,40.40920716112532,NA
94127,San Francisco County,CA,NA,NA,NA,58.1151832460733
94301,Santa Clara County,CA,NA,NA,89.89769820971867,NA
94404,San Mateo County,CA,NA,NA,NA,42.14659685863874
94506,Contra Costa County,CA,NA,NA,79.53964194373401,NA
94507,Contra Costa County,CA,NA,NA,75.1918158567775,NA
94526,Contra Costa County,CA,NA,67.89667896678966,NA,NA
94533,Solano County,CA,NA,23.247232472324722,NA,NA
94541,Alameda County,CA,NA,24.108241082410824,NA,NA
94551,Alameda County,CA,NA,49.56949569495695,NA,NA
94559,Napa County,CA,NA,NA,66.75191815856778,NA
94560,Alameda County,CA,NA,NA,52.94117647058824,NA
94578,Alameda County,CA,NA,NA,59.590792838874684,NA
94579,Alameda County,CA,NA,NA,NA,48.42931937172775
94583,Contra Costa County,CA,82.84313725490196,NA,NA,NA
94591,Solano County,CA,NA,NA,45.52429667519181,NA
94601,Alameda County,CA,21.07843137254902,NA,NA,NA
94621,Alameda County,CA,39.46078431372549,NA,NA,NA
94903,Marin County,CA,NA,NA,58.31202046035806,NA
95003,Santa Cruz County,CA,NA,NA,93.98976982097187,61.25654450261781
95008,Santa Clara County,CA,NA,NA,NA,25.13089005235602
95012,Monterey County,CA,NA,84.9938499384994,NA,NA
95020,Santa Clara County,CA,NA,80.93480934809348,NA,NA
95032,Santa Clara County,CA,NA,77.36777367773678,NA,NA
95125,Santa Clara County,CA,NA,NA,23.273657289002557,NA
95136,Santa Clara County,CA,NA,NA,69.69309462915601,NA
95205,San Joaquin County,CA,NA,NA,58.69565217391305,NA
95206,San Joaquin County,CA,NA,21.15621156211562,28.9002557544757,NA
95209,San Joaquin County,CA,NA,NA,NA,63.35078534031413
95247,Calaveras County,CA,NA,NA,NA,82.19895287958116
95301,Merced County,CA,NA,47.10947109471095,NA,NA
95324,Merced County,CA,NA,94.4649446494465,NA,NA
95340,Merced County,CA,NA,34.563345633456336,NA,NA
95358,Stanislaus County,CA,NA,30.38130381303813,NA,NA
95367,Stanislaus County,CA,NA,55.227552275522754,NA,NA
95383,Tuolumne County,CA,NA,95.3259532595326,NA,NA
95448,Sonoma County,CA,NA,NA,NA,46.07329842931937
95476,Sonoma County,CA,NA,73.18573185731857,NA,NA
95492,Sonoma County,CA,NA,NA,64.45012787723785,NA
95540,Humboldt County,CA,NA,60.27060270602706,NA,NA
95608,Sacramento County,CA,NA,40.34440344403444,21.483375959079286,NA
95618,Yolo County,CA,NA,NA,94.50127877237851,NA
95621,Sacramento County,CA,NA,43.17343173431734,NA,NA
95648,Placer County,CA,NA,62.85362853628536,NA,NA
95713,Placer County,CA,NA,89.79089790897909,NA,NA
95747,Placer County,CA,NA,41.32841328413284,NA,NA
95762,El Dorado County,CA,51.9607843137255,NA,NA,NA
95823,Sacramento County,CA,NA,NA,59.46291560102301,NA
95824,Sacramento County,CA,78.67647058823529,NA,NA,NA
95832,Sacramento County,CA,NA,NA,93.35038363171356,NA
95833,Sacramento County,CA,NA,NA,67.13554987212275,NA
95835,Sacramento County,CA,69.11764705882352,NA,NA,NA
95838,Sacramento County,CA,NA,34.932349323493234,NA,NA
95843,Sacramento County,CA,NA,63.714637146371466,NA,NA
95949,Nevada County,CA,NA,NA,NA,48.42931937172775
96003,Shasta County,CA,NA,74.41574415744158,NA,NA
80012,Arapahoe County,CO,34.55882352941176,NA,NA,NA
80013,Arapahoe County,CO,NA,NA,24.296675191815854,NA
80014,Arapahoe County,CO,NA,NA,28.516624040920718,40.31413612565445
80017,Arapahoe County,CO,NA,38.74538745387454,NA,NA
80023,Broomfield County,CO,NA,83.51783517835179,NA,NA
80031,Adams County,CO,NA,38.99138991389914,NA,NA
80126,Douglas County,CO,NA,52.398523985239855,NA,NA
80204,Denver County,CO,33.088235294117645,55.35055350553506,NA,NA
80211,Denver County,CO,NA,37.02337023370234,NA,NA
80237,Denver County,CO,NA,NA,66.49616368286445,NA
80304,Boulder County,CO,NA,NA,NA,92.40837696335078
80501,Boulder County,CO,NA,19.92619926199262,NA,74.86910994764398
80504,Boulder County,CO,12.745098039215685,NA,NA,NA
80528,Larimer County,CO,NA,54.12054120541205,NA,NA
80538,Larimer County,CO,NA,NA,7.8005115089514065,NA
80601,Adams County,CO,NA,NA,45.012787723785166,NA
80631,Weld County,CO,NA,32.47232472324723,67.90281329923273,NA
80906,El Paso County,CO,NA,NA,46.29156010230179,NA
80909,El Paso County,CO,NA,24.354243542435423,NA,NA
80910,El Paso County,CO,NA,NA,62.02046035805626,NA
80918,El Paso County,CO,NA,NA,39.89769820971867,NA
80922,El Paso County,CO,NA,NA,NA,80.6282722513089
81008,Pueblo County,CO,NA,NA,NA,87.43455497382199
81144,Rio Grande County,CO,NA,NA,NA,79.31937172774869
81201,Chaffee County,CO,NA,NA,NA,64.92146596858639
81230,Gunnison County,CO,NA,NA,99.10485933503837,NA
81321,Montezuma County,CO,NA,69.12669126691267,NA,NA
81526,Mesa County,CO,NA,NA,NA,94.24083769633508
81650,Garfield County,CO,NA,NA,69.82097186700767,NA
06010,Hartford County,CT,5.637254901960785,NA,NA,3.4031413612565444
06033,Hartford County,CT,NA,NA,NA,52.35602094240838
06067,Hartford County,CT,NA,NA,NA,67.01570680628272
06096,Hartford County,CT,NA,81.05781057810579,NA,NA
06109,Hartford County,CT,NA,NA,NA,69.63350785340315
06111,Hartford County,CT,NA,NA,NA,34.81675392670157
06112,Hartford County,CT,NA,NA,NA,62.04188481675392
06118,Hartford County,CT,35.78431372549019,NA,NA,NA
06120,Hartford County,CT,NA,49.815498154981555,NA,NA
06249,New London County,CT,NA,93.60393603936039,NA,NA
06281,Windham County,CT,NA,68.14268142681426,NA,NA
06424,Middlesex County,CT,NA,77.85977859778598,NA,NA
06457,Middlesex County,CT,NA,7.872078720787208,NA,NA
06460,New Haven County,CT,NA,29.02829028290283,NA,NA
06475,Middlesex County,CT,NA,82.65682656826569,NA,NA
06484,Fairfield County,CT,NA,NA,32.73657289002558,NA
06488,New Haven County,CT,NA,NA,43.09462915601023,9.947643979057592
06492,New Haven County,CT,57.107843137254896,NA,13.299232736572892,NA
06513,New Haven County,CT,NA,4.797047970479705,8.823529411764707,NA
06514,New Haven County,CT,NA,33.702337023370234,NA,NA
06606,Fairfield County,CT,NA,NA,38.23529411764706,NA
06704,New Haven County,CT,NA,NA,60.48593350383632,NA
06708,New Haven County,CT,NA,22.75522755227552,NA,NA
06795,Litchfield County,CT,NA,NA,63.171355498721226,NA
06810,Fairfield County,CT,NA,15.375153751537516,NA,NA
06811,Fairfield County,CT,NA,NA,29.53964194373401,NA
06854,Fairfield County,CT,49.50980392156863,NA,NA,64.13612565445025
06877,Fairfield County,CT,74.26470588235294,NA,NA,NA
06880,Fairfield County,CT,52.450980392156865,NA,NA,NA
19701,New Castle County,DE,NA,27.060270602706026,NA,NA
19720,New Castle County,DE,37.5,NA,NA,NA
19802,New Castle County,DE,NA,14.637146371463713,NA,NA
19805,New Castle County,DE,NA,2.706027060270603,NA,31.93717277486911
19904,Kent County,DE,NA,NA,16.36828644501279,NA
32055,Columbia County,FL,NA,41.94341943419434,NA,NA
32063,Baker County,FL,70.83333333333334,NA,NA,NA
32068,Clay County,FL,NA,NA,9.207161125319693,NA
32114,Volusia County,FL,NA,NA,48.84910485933504,NA
32128,Volusia County,FL,NA,NA,67.64705882352942,NA
32141,Volusia County,FL,NA,NA,NA,45.287958115183244
32148,Putnam County,FL,76.9607843137255,NA,NA,NA
32189,Putnam County,FL,NA,91.02091020910208,NA,NA
32221,Duval County,FL,NA,29.88929889298893,NA,43.97905759162304
32246,Duval County,FL,NA,NA,NA,50.523560209424076
32257,Duval County,FL,NA,NA,25.063938618925828,NA
32277,Duval County,FL,NA,NA,50.25575447570333,NA
32310,Leon County,FL,66.42156862745098,NA,NA,NA
32312,Leon County,FL,NA,NA,63.04347826086957,NA
32317,Leon County,FL,NA,NA,NA,89.26701570680629
32324,Gadsden County,FL,NA,97.17097170971711,97.82608695652173,NA
32327,Wakulla County,FL,86.76470588235294,NA,NA,NA
32413,Bay County,FL,NA,74.53874538745387,NA,NA
32431,Jackson County,FL,NA,85.73185731857319,NA,NA
32446,Jackson County,FL,NA,66.05166051660517,NA,NA
32503,Escambia County,FL,NA,20.04920049200492,NA,NA
32506,Escambia County,FL,NA,45.26445264452644,NA,NA
32570,Santa Rosa County,FL,NA,10.70110701107011,NA,NA
32607,Alachua County,FL,25.735294117647058,NA,NA,NA
32626,Levy County,FL,NA,NA,NA,93.45549738219894
32669,Alachua County,FL,NA,68.88068880688807,NA,NA
32693,Gilchrist County,FL,72.79411764705883,NA,NA,NA
32703,Orange County,FL,33.82352941176471,NA,NA,NA
32708,Seminole County,FL,NA,NA,44.37340153452685,NA
32714,Seminole County,FL,NA,NA,70.58823529411765,NA
32720,Volusia County,FL,NA,NA,44.8849104859335,28.534031413612563
32738,Volusia County,FL,NA,36.28536285362854,42.071611253196934,NA
32757,Lake County,FL,NA,NA,31.841432225063937,NA
32763,Volusia County,FL,NA,62.36162361623616,NA,NA
32771,Seminole County,FL,NA,16.605166051660518,NA,NA
32773,Seminole County,FL,NA,NA,83.37595907928389,NA
32779,Seminole County,FL,NA,76.38376383763837,NA,NA
32780,Brevard County,FL,NA,40.71340713407134,NA,NA
32789,Orange County,FL,NA,NA,NA,55.235602094240846
32805,Orange County,FL,NA,32.59532595325953,NA,NA
32806,Orange County,FL,NA,NA,NA,32.19895287958115
32807,Orange County,FL,NA,46.61746617466175,NA,NA
32808,Orange County,FL,5.147058823529411,NA,26.214833759590796,NA
32810,Orange County,FL,NA,39.72939729397294,NA,NA
32817,Orange County,FL,NA,NA,71.61125319693095,81.41361256544502
32819,Orange County,FL,NA,72.20172201722018,NA,NA
32822,Orange County,FL,NA,NA,26.854219948849106,NA
32824,Orange County,FL,NA,NA,NA,41.8848167539267
32826,Orange County,FL,NA,92.74292742927429,NA,NA
32828,Orange County,FL,NA,NA,68.41432225063939,NA
32839,Orange County,FL,15.441176470588236,26.56826568265683,NA,NA
32905,Brevard County,FL,NA,61.377613776137764,NA,NA
32958,Indian River County,FL,NA,70.23370233702337,12.65984654731458,NA
33009,Broward County,FL,NA,65.06765067650676,50.89514066496164,NA
33013,Miami-Dade County,FL,NA,73.06273062730627,NA,NA
33014,Miami-Dade County,FL,NA,NA,NA,22.5130890052356
33016,Miami-Dade County,FL,36.51960784313725,NA,NA,NA
33018,Miami-Dade County,FL,NA,75.39975399753997,NA,NA
33019,Broward County,FL,NA,87.94587945879458,NA,NA
33025,Broward County,FL,21.813725490196077,NA,NA,NA
33027,Broward County,FL,NA,NA,45.14066496163683,NA
33055,Miami-Dade County,FL,NA,NA,NA,17.539267015706805
33060,Broward County,FL,NA,37.269372693726936,NA,NA
33068,Broward County,FL,NA,45.38745387453875,NA,NA
33128,Miami-Dade County,FL,NA,NA,NA,78.27225130890052
33132,Miami-Dade County,FL,98.0392156862745,NA,NA,NA
33134,Miami-Dade County,FL,NA,76.62976629766297,NA,NA
33141,Miami-Dade County,FL,NA,NA,40.79283887468031,NA
33150,Miami-Dade County,FL,NA,52.152521525215256,NA,NA
33155,Miami-Dade County,FL,66.17647058823529,NA,35.16624040920716,NA
33162,Miami-Dade County,FL,NA,60.39360393603936,67.3913043478261,NA
33180,Miami-Dade County,FL,NA,NA,51.406649616368284,NA
33183,Miami-Dade County,FL,NA,NA,NA,40.575916230366495
33185,Miami-Dade County,FL,NA,NA,75.83120204603581,NA
33187,Miami-Dade County,FL,NA,NA,NA,78.79581151832461
33196,Miami-Dade County,FL,41.66666666666667,67.52767527675276,NA,NA
33301,Broward County,FL,NA,NA,91.94373401534527,NA
33305,Broward County,FL,NA,89.54489544895449,NA,NA
33309,Broward County,FL,11.029411764705882,NA,51.790281329923275,NA
33311,Broward County,FL,NA,29.643296432964327,NA,28.01047120418848
33313,Broward County,FL,NA,NA,47.05882352941176,NA
33315,Broward County,FL,NA,NA,89.13043478260869,NA
33323,Broward County,FL,NA,NA,80.56265984654732,NA
33334,Broward County,FL,NA,NA,NA,75.39267015706807
33401,Palm Beach County,FL,NA,NA,77.74936061381074,NA
33404,Palm Beach County,FL,NA,71.46371463714637,NA,NA
33415,Palm Beach County,FL,47.794117647058826,NA,NA,NA
33426,Palm Beach County,FL,NA,79.33579335793358,NA,NA
33430,Palm Beach County,FL,53.67647058823529,NA,NA,NA
33435,Palm Beach County,FL,NA,NA,61.76470588235294,NA
33437,Palm Beach County,FL,93.62745098039215,NA,20.33248081841432,NA
33446,Palm Beach County,FL,NA,NA,35.0383631713555,NA
33455,Martin County,FL,NA,NA,NA,10.209424083769633
33460,Palm Beach County,FL,54.166666666666664,NA,NA,NA
33463,Palm Beach County,FL,NA,NA,42.710997442455245,NA
33478,Palm Beach County,FL,NA,95.44895448954489,NA,NA
33510,Hillsborough County,FL,NA,57.44157441574416,NA,NA
33525,Pasco County,FL,NA,NA,49.87212276214834,NA
33548,Hillsborough County,FL,NA,96.1869618696187,NA,NA
33549,Hillsborough County,FL,NA,75.15375153751538,NA,NA
33578,Hillsborough County,FL,NA,82.16482164821647,NA,NA
33597,Sumter County,FL,NA,NA,99.74424552429667,NA
33604,Hillsborough County,FL,NA,NA,NA,84.29319371727748
33606,Hillsborough County,FL,NA,86.46986469864699,NA,NA
33611,Hillsborough County,FL,NA,NA,64.70588235294117,NA
33612,Hillsborough County,FL,15.196078431372548,NA,NA,NA
33615,Hillsborough County,FL,NA,NA,36.44501278772378,NA
33619,Hillsborough County,FL,NA,34.31734317343174,44.50127877237852,NA
33625,Hillsborough County,FL,NA,61.131611316113165,NA,NA
33702,Pinellas County,FL,NA,NA,68.54219948849105,NA
33704,Pinellas County,FL,NA,84.62484624846248,NA,NA
33705,Pinellas County,FL,NA,NA,NA,47.12041884816754
33709,Pinellas County,FL,NA,NA,61.63682864450127,NA
33712,Pinellas County,FL,53.92156862745098,NA,NA,NA
33714,Pinellas County,FL,92.15686274509804,NA,NA,NA
33716,Pinellas County,FL,93.13725490196079,NA,NA,NA
33759,Pinellas County,FL,NA,NA,79.923273657289,51.832460732984295
33761,Pinellas County,FL,NA,88.56088560885608,NA,NA
33776,Pinellas County,FL,NA,NA,NA,80.89005235602095
33781,Pinellas County,FL,NA,NA,41.17647058823529,NA
33803,Polk County,FL,NA,63.22263222632226,NA,NA
33813,Polk County,FL,NA,NA,53.452685421994886,NA
33815,Polk County,FL,NA,NA,72.76214833759592,NA
33823,Polk County,FL,NA,34.44034440344404,NA,NA
33852,Highlands County,FL,NA,NA,20.971867007672635,NA
33897,Polk County,FL,90.19607843137256,NA,74.93606138107417,NA
33908,Lee County,FL,NA,61.746617466174655,NA,0.7853403141361256
33913,Lee County,FL,NA,NA,NA,51.047120418848166
33922,Lee County,FL,NA,NA,84.01534526854219,NA
33928,Lee County,FL,NA,NA,36.0613810741688,NA
33971,Lee County,FL,NA,NA,71.0997442455243,NA
33983,Charlotte County,FL,NA,NA,NA,60.73298429319372
34105,Collier County,FL,NA,NA,75.31969309462916,NA
34109,Collier County,FL,NA,75.89175891758919,NA,NA
34145,Collier County,FL,NA,NA,49.87212276214834,NA
34203,Manatee County,FL,NA,NA,62.27621483375959,NA
34205,Manatee County,FL,NA,NA,NA,42.40837696335078
34219,Manatee County,FL,NA,57.19557195571956,NA,NA
34222,Manatee County,FL,NA,77.61377613776138,NA,NA
34223,Sarasota County,FL,NA,NA,60.99744245524297,NA
34233,Sarasota County,FL,73.52941176470588,NA,84.52685421994885,NA
34234,Sarasota County,FL,NA,NA,49.232736572890026,NA
34237,Sarasota County,FL,NA,NA,NA,75.6544502617801
34238,Sarasota County,FL,NA,NA,NA,6.020942408376963
34286,Sarasota County,FL,NA,NA,NA,80.10471204188482
34452,Citrus County,FL,NA,NA,74.16879795396419,NA
34465,Citrus County,FL,NA,NA,70.20460358056266,NA
34480,Marion County,FL,NA,61.99261992619927,NA,NA
34601,Hernando County,FL,NA,NA,68.79795396419436,NA
34652,Pasco County,FL,NA,41.45141451414514,NA,NA
34653,Pasco County,FL,NA,NA,NA,12.56544502617801
34667,Pasco County,FL,43.13725490196079,NA,NA,NA
34668,Pasco County,FL,NA,NA,23.52941176470588,NA
34689,Pinellas County,FL,NA,NA,45.78005115089514,NA
34691,Pasco County,FL,NA,45.63345633456334,NA,NA
34711,Lake County,FL,NA,NA,4.092071611253197,NA
34759,Polk County,FL,6.372549019607843,NA,NA,NA
34949,St. Lucie County,FL,NA,NA,NA,75.91623036649214
34982,St. Lucie County,FL,40.931372549019606,NA,42.8388746803069,NA
30008,Cobb County,GA,64.2156862745098,NA,NA,NA
30012,Rockdale County,GA,NA,NA,NA,71.20418848167539
30022,Fulton County,GA,NA,40.59040590405904,NA,NA
30024,Gwinnett County,GA,NA,NA,26.08695652173913,NA
30028,Forsyth County,GA,NA,60.63960639606396,NA,NA
30038,DeKalb County,GA,18.38235294117647,43.665436654366545,NA,NA
30041,Forsyth County,GA,NA,NA,11.892583120204604,NA
30045,Gwinnett County,GA,NA,59.53259532595327,NA,NA
30046,Gwinnett County,GA,NA,NA,NA,44.24083769633508
30058,DeKalb County,GA,NA,NA,31.32992327365729,NA
30084,DeKalb County,GA,NA,NA,NA,68.58638743455498
30116,Carroll County,GA,NA,48.33948339483395,55.754475703324815,NA
30132,Paulding County,GA,NA,NA,NA,52.617801047120416
30134,Douglas County,GA,NA,NA,34.52685421994885,NA
30141,Paulding County,GA,NA,87.82287822878229,NA,NA
30153,Polk County,GA,NA,NA,56.39386189258312,NA
30168,Cobb County,GA,NA,61.62361623616236,NA,NA
30179,Carroll County,GA,76.7156862745098,NA,NA,NA
30189,Cherokee County,GA,NA,53.75153751537516,NA,NA
30214,Fayette County,GA,NA,NA,46.03580562659847,NA
30230,Troup County,GA,NA,77.24477244772447,NA,NA
30236,Clayton County,GA,48.28431372549019,NA,NA,NA
30252,Henry County,GA,65.68627450980392,NA,NA,NA
30288,Clayton County,GA,NA,89.42189421894219,NA,NA
30291,Fulton County,GA,NA,39.23739237392374,74.04092071611254,NA
30297,Clayton County,GA,NA,89.9138991389914,NA,NA
30306,Fulton County,GA,NA,NA,NA,92.93193717277487
30315,Fulton County,GA,49.50980392156863,NA,NA,NA
30324,Fulton County,GA,86.02941176470588,NA,NA,NA
30326,Fulton County,GA,NA,NA,NA,98.42931937172776
30458,Bulloch County,GA,NA,NA,40.153452685421996,NA
30607,Clarke County,GA,NA,93.2349323493235,NA,NA
30620,Barrow County,GA,83.08823529411765,NA,NA,NA
30662,Franklin County,GA,81.37254901960785,NA,NA,NA
30701,Gordon County,GA,23.52941176470588,NA,NA,NA
30720,Whitfield County,GA,63.23529411764706,NA,NA,NA
30808,McDuffie County,GA,96.81372549019608,NA,NA,NA
30909,Richmond County,GA,NA,NA,NA,22.774869109947645
31005,Houston County,GA,NA,83.39483394833948,NA,NA
31015,Crisp County,GA,NA,NA,36.31713554987212,NA
31021,Laurens County,GA,48.77450980392157,NA,NA,NA
31082,Washington County,GA,NA,NA,74.8081841432225,NA
31088,Houston County,GA,56.127450980392155,NA,NA,14.659685863874344
31308,Bryan County,GA,NA,94.2189421894219,NA,NA
31406,Chatham County,GA,NA,NA,70.46035805626599,NA
31513,Appling County,GA,NA,NA,75.57544757033247,NA
31522,Glynn County,GA,NA,91.26691266912668,NA,NA
31523,Glynn County,GA,NA,84.50184501845018,NA,NA
31602,Lowndes County,GA,NA,37.63837638376384,NA,NA
31632,Lowndes County,GA,68.38235294117648,NA,NA,NA
31705,Dougherty County,GA,41.17647058823529,NA,NA,NA
31709,Sumter County,GA,79.65686274509804,NA,NA,NA
31792,Thomas County,GA,NA,33.456334563345635,37.468030690537084,NA
31803,Marion County,GA,NA,96.6789667896679,NA,NA
31822,Harris County,GA,NA,NA,NA,98.1675392670157
31903,Muscogee County,GA,58.333333333333336,NA,NA,NA
31906,Muscogee County,GA,NA,NA,48.209718670076725,NA
31907,Muscogee County,GA,NA,8.487084870848708,2.941176470588235,NA
39817,Decatur County,GA,NA,65.92865928659286,NA,NA
39845,Seminole County,GA,NA,NA,NA,78.27225130890052
96706,Honolulu County,HI,41.911764705882355,10.824108241082412,NA,NA
96734,Honolulu County,HI,NA,NA,NA,7.591623036649215
96756,Kauai County,HI,NA,NA,NA,97.64397905759162
96782,Honolulu County,HI,NA,36.40836408364084,NA,NA
96792,Honolulu County,HI,NA,11.808118081180812,25.31969309462916,27.486910994764397
96818,Honolulu County,HI,NA,53.38253382533825,38.61892583120204,NA
96819,Honolulu County,HI,NA,16.482164821648215,NA,NA
96821,Honolulu County,HI,NA,NA,NA,13.089005235602095
83204,Bannock County,ID,NA,NA,NA,82.98429319371728
83211,Power County,ID,NA,83.76383763837639,NA,NA
83333,Blaine County,ID,NA,NA,67.13554987212275,NA
83404,Bonneville County,ID,NA,54.981549815498155,NA,NA
83406,Bonneville County,ID,NA,67.65067650676507,NA,NA
83442,Jefferson County,ID,48.03921568627451,NA,NA,NA
83544,Clearwater County,ID,NA,84.00984009840099,NA,NA
83605,Canyon County,ID,NA,NA,24.55242966751918,NA
83607,Canyon County,ID,NA,39.11439114391143,35.42199488491048,NA
83617,Gem County,ID,NA,72.81672816728168,NA,NA
83686,Canyon County,ID,NA,NA,29.028132992327365,NA
83714,Ada County,ID,NA,NA,15.728900255754475,NA
83815,Kootenai County,ID,NA,35.05535055350554,NA,NA
83835,Kootenai County,ID,NA,57.564575645756456,NA,NA
83854,Kootenai County,ID,NA,NA,24.04092071611253,NA
60007,Cook County,IL,NA,NA,18.414322250639387,NA
60008,Cook County,IL,NA,NA,64.57800511508951,NA
60031,Lake County,IL,NA,NA,NA,55.75916230366492
60067,Cook County,IL,NA,NA,21.355498721227622,NA
60076,Cook County,IL,NA,NA,NA,13.350785340314136
60077,Cook County,IL,NA,61.869618696186954,NA,NA
60101,DuPage County,IL,NA,NA,NA,15.18324607329843
60115,DeKalb County,IL,50.73529411764706,NA,NA,NA
60133,Cook County,IL,NA,NA,54.85933503836316,NA
60154,Cook County,IL,NA,52.64452644526445,NA,NA
60155,Cook County,IL,89.95098039215686,NA,NA,NA
60175,Kane County,IL,NA,NA,NA,76.96335078534031
60185,DuPage County,IL,16.911764705882355,NA,NA,NA
60187,DuPage County,IL,NA,NA,41.56010230179028,NA
60193,Cook County,IL,NA,NA,9.462915601023019,NA
60302,Cook County,IL,NA,NA,15.34526854219949,NA
60404,Will County,IL,NA,NA,47.44245524296675,NA
60406,Cook County,IL,NA,NA,76.8542199488491,NA
60411,Cook County,IL,NA,NA,10.358056265984656,NA
60431,Will County,IL,NA,41.08241082410824,NA,NA
60436,Will County,IL,NA,59.286592865928654,NA,NA
60439,Cook County,IL,NA,NA,19.30946291560102,NA
60440,Will County,IL,NA,19.18819188191882,NA,NA
60441,Will County,IL,NA,NA,30.179028132992325,NA
60450,Grundy County,IL,NA,24.600246002460025,18.286445012787723,NA
60452,Cook County,IL,NA,NA,NA,41.09947643979058
60453,Cook County,IL,NA,NA,7.928388746803069,5.49738219895288
60459,Cook County,IL,NA,33.08733087330874,NA,NA
60462,Cook County,IL,NA,26.322263222632223,NA,NA
60477,Cook County,IL,NA,NA,13.938618925831204,NA
60478,Cook County,IL,NA,78.22878228782287,NA,NA
60491,Will County,IL,NA,35.17835178351783,NA,NA
60506,Kane County,IL,NA,NA,27.621483375959077,NA
60513,Cook County,IL,NA,NA,NA,60.47120418848168
60517,DuPage County,IL,NA,72.57072570725708,NA,NA
60527,DuPage County,IL,NA,52.152521525215256,10.869565217391305,NA
60540,DuPage County,IL,22.794117647058822,NA,31.585677749360613,NA
60546,Cook County,IL,NA,49.32349323493235,NA,NA
60558,Cook County,IL,NA,NA,NA,59.424083769633505
60559,DuPage County,IL,29.65686274509804,NA,NA,NA
60561,DuPage County,IL,NA,NA,NA,31.413612565445025
60601,Cook County,IL,NA,86.22386223862239,NA,NA
60610,Cook County,IL,NA,NA,23.40153452685422,NA
60619,Cook County,IL,NA,NA,NA,1.832460732984293
60626,Cook County,IL,NA,NA,39.64194373401534,NA
60634,Cook County,IL,NA,NA,8.05626598465473,NA
60636,Cook County,IL,NA,NA,29.283887468030688,NA
60643,Cook County,IL,NA,NA,3.324808184143223,NA
60644,Cook County,IL,NA,NA,13.554987212276215,NA
60652,Cook County,IL,NA,28.782287822878228,NA,NA
60901,Kankakee County,IL,NA,68.01968019680197,NA,NA
61021,Lee County,IL,12.009803921568627,NA,NA,NA
61032,Stephenson County,IL,NA,33.579335793357934,NA,NA
61108,Winnebago County,IL,NA,NA,82.73657289002557,NA
61265,Rock Island County,IL,NA,47.478474784747846,71.73913043478261,NA
61350,LaSalle County,IL,NA,NA,36.57289002557545,NA
61550,Tazewell County,IL,NA,NA,NA,45.54973821989529
61611,Tazewell County,IL,46.568627450980394,NA,NA,NA
61801,Champaign County,IL,NA,NA,84.39897698209718,NA
62010,Madison County,IL,NA,NA,NA,90.0523560209424
62024,Madison County,IL,94.36274509803921,NA,NA,NA
62040,Madison County,IL,NA,NA,9.846547314578006,NA
62060,Madison County,IL,NA,99.0159901599016,NA,NA
62204,St. Clair County,IL,NA,NA,97.9539641943734,NA
62208,St. Clair County,IL,51.470588235294116,NA,NA,NA
62260,St. Clair County,IL,NA,NA,91.56010230179028,NA
62263,Washington County,IL,NA,92.12792127921279,NA,NA
62298,Monroe County,IL,NA,NA,NA,72.25130890052355
62305,Adams County,IL,NA,NA,65.85677749360613,NA
62521,Macon County,IL,NA,12.177121771217712,NA,NA
62522,Macon County,IL,NA,NA,57.033248081841435,NA
62526,Macon County,IL,NA,NA,7.289002557544758,NA
62565,Shelby County,IL,NA,83.88683886838868,NA,NA
62703,Sangamon County,IL,NA,NA,31.9693094629156,NA
46033,Hamilton County,IN,NA,NA,32.864450127877234,NA
46041,Clinton County,IN,NA,NA,59.20716112531969,NA
46052,Boone County,IN,83.82352941176471,NA,NA,NA
46122,Hendricks County,IN,NA,80.81180811808119,NA,NA
46151,Morgan County,IN,NA,NA,22.762148337595907,NA
46158,Morgan County,IN,NA,NA,30.562659846547312,NA
46167,Hendricks County,IN,NA,NA,NA,98.95287958115183
46168,Hendricks County,IN,NA,40.22140221402214,NA,NA
46176,Shelby County,IN,NA,NA,NA,58.90052356020943
46220,Marion County,IN,NA,NA,52.30179028132992,NA
46224,Marion County,IN,NA,31.119311193111933,NA,NA
46236,Marion County,IN,NA,NA,NA,70.94240837696336
46250,Marion County,IN,NA,78.47478474784748,NA,NA
46256,Marion County,IN,NA,NA,49.10485933503836,NA
46268,Marion County,IN,74.75490196078431,NA,NA,NA
46304,Porter County,IN,NA,NA,19.30946291560102,NA
46307,Lake County,IN,NA,1.5990159901599015,1.9181585677749362,NA
46311,Lake County,IN,NA,NA,18.0306905370844,NA
46321,Lake County,IN,NA,NA,NA,21.98952879581152
46350,LaPorte County,IN,NA,8.979089790897909,NA,NA
46368,Porter County,IN,2.450980392156863,2.5830258302583027,NA,NA
46373,Lake County,IN,NA,NA,42.96675191815857,NA
46385,Porter County,IN,NA,7.626076260762607,NA,NA
46540,Elkhart County,IN,NA,NA,98.9769820971867,NA
46567,Kosciusko County,IN,NA,NA,85.80562659846548,NA
46580,Kosciusko County,IN,NA,NA,58.951406649616366,NA
46615,St. Joseph County,IN,NA,NA,78.9002557544757,NA
46774,Allen County,IN,NA,62.73062730627307,NA,NA
46795,LaGrange County,IN,NA,NA,88.36317135549872,NA
46804,Allen County,IN,NA,NA,26.598465473145783,NA
46805,Allen County,IN,NA,67.77367773677737,NA,52.617801047120416
46808,Allen County,IN,NA,NA,NA,67.80104712041884
46901,Howard County,IN,9.558823529411764,NA,NA,NA
46923,Carroll County,IN,NA,NA,NA,87.95811518324608
46952,Grant County,IN,64.4607843137255,NA,6.138107416879795,NA
46970,Miami County,IN,NA,10.45510455104551,NA,NA
46979,Howard County,IN,NA,NA,97.44245524296676,NA
47006,Ripley County,IN,NA,73.30873308733086,NA,NA
47150,Floyd County,IN,NA,37.51537515375154,NA,NA
47201,Bartholomew County,IN,NA,11.685116851168512,NA,NA
47302,Delaware County,IN,NA,NA,NA,56.54450261780105
47303,Delaware County,IN,NA,69.61869618696187,NA,NA
47304,Delaware County,IN,39.705882352941174,NA,NA,NA
47331,Fayette County,IN,12.5,NA,NA,NA
47362,Henry County,IN,NA,NA,12.148337595907927,NA
47403,Monroe County,IN,NA,NA,60.61381074168798,NA
47404,Monroe County,IN,NA,66.42066420664207,NA,NA
47446,Lawrence County,IN,NA,NA,92.96675191815856,NA
47448,Brown County,IN,NA,NA,93.09462915601023,NA
47454,Orange County,IN,NA,NA,NA,85.6020942408377
47501,Daviess County,IN,NA,NA,25.95907928388747,NA
47546,Dubois County,IN,NA,NA,43.350383631713555,NA
47712,Vanderburgh County,IN,NA,NA,47.9539641943734,NA
47725,Vanderburgh County,IN,NA,NA,NA,82.72251308900523
47885,Vigo County,IN,NA,NA,77.49360613810742,NA
47905,Tippecanoe County,IN,NA,41.82041820418204,NA,NA
47906,Tippecanoe County,IN,60.78431372549019,NA,NA,NA
47909,Tippecanoe County,IN,NA,NA,51.91815856777494,NA
47978,Jasper County,IN,NA,NA,91.81585677749361,NA
50003,Dallas County,IA,NA,96.4329643296433,NA,NA
50010,Story County,IA,NA,NA,78.00511508951406,NA
50112,Poweshiek County,IA,95.34313725490196,NA,NA,NA
50208,Jasper County,IA,NA,NA,NA,47.38219895287958
50310,Polk County,IA,NA,NA,53.70843989769821,NA
50644,Buchanan County,IA,NA,NA,82.86445012787725,NA
50662,Fayette County,IA,NA,70.11070110701108,NA,NA
51105,Woodbury County,IA,NA,NA,NA,97.64397905759162
51360,Dickinson County,IA,NA,87.69987699877,NA,NA
51566,Montgomery County,IA,NA,90.89790897908979,NA,NA
52339,Tama County,IA,NA,98.76998769987699,NA,NA
52402,Linn County,IA,NA,NA,NA,34.031413612565444
52544,Appanoose County,IA,NA,42.80442804428044,NA,NA
52601,Des Moines County,IA,NA,12.054120541205412,NA,NA
52632,Lee County,IA,NA,NA,74.42455242966753,NA
52732,Clinton County,IA,NA,21.771217712177123,NA,NA
52761,Muscatine County,IA,NA,NA,13.427109974424553,NA
52806,Scott County,IA,NA,NA,41.81585677749361,NA
66048,Leavenworth County,KS,NA,NA,52.42966751918159,NA
66062,Johnson County,KS,14.460784313725492,NA,NA,NA
66104,Wyandotte County,KS,NA,28.044280442804425,NA,NA
66112,Wyandotte County,KS,NA,NA,78.77237851662404,NA
66210,Johnson County,KS,62.5,76.87576875768758,NA,NA
66441,Geary County,KS,NA,72.69372693726937,NA,NA
66801,Lyon County,KS,NA,NA,59.71867007672634,NA
66839,Coffey County,KS,NA,NA,96.80306905370844,NA
67114,Harvey County,KS,NA,NA,66.62404092071611,NA
67152,Sumner County,KS,NA,NA,89.25831202046037,NA
67216,Sedgwick County,KS,NA,NA,72.63427109974424,NA
67217,Sedgwick County,KS,NA,NA,NA,69.89528795811518
67401,Saline County,KS,NA,20.29520295202952,NA,NA
67530,Barton County,KS,NA,NA,NA,63.87434554973822
67544,Barton County,KS,95.83333333333334,NA,NA,NA
67550,Pawnee County,KS,NA,NA,89.769820971867,NA
67661,Phillips County,KS,NA,NA,99.36061381074168,NA
67871,Scott County,KS,NA,NA,NA,60.994764397905755
40143,Breckinridge County,KY,NA,90.03690036900369,NA,NA
40165,Bullitt County,KY,NA,NA,NA,50.78534031413613
40211,Jefferson County,KY,NA,NA,44.24552429667519,NA
40216,Jefferson County,KY,NA,9.348093480934809,13.171355498721226,NA
40242,Jefferson County,KY,NA,82.53382533825338,NA,NA
40353,Montgomery County,KY,NA,NA,33.631713554987215,NA
40361,Bourbon County,KY,NA,36.039360393603936,NA,NA
40391,Clark County,KY,NA,NA,NA,23.036649214659686
40484,Lincoln County,KY,NA,71.34071340713407,NA,NA
40741,Laurel County,KY,NA,NA,78.38874680306905,NA
40744,Laurel County,KY,NA,29.766297662976633,NA,NA
40977,Bell County,KY,NA,54.24354243542435,NA,NA
41011,Kenton County,KY,NA,13.776137761377614,NA,NA
41017,Kenton County,KY,NA,NA,22.89002557544757,NA
41018,Kenton County,KY,NA,NA,27.877237851662407,NA
41042,Boone County,KY,NA,NA,NA,3.926701570680628
41051,Kenton County,KY,NA,37.392373923739235,NA,NA
41071,Campbell County,KY,NA,NA,39.130434782608695,NA
41076,Campbell County,KY,NA,NA,NA,20.157068062827225
41102,Boyd County,KY,NA,20.91020910209102,NA,NA
41219,Johnson County,KY,NA,98.0319803198032,NA,NA
41230,Lawrence County,KY,NA,26.076260762607628,NA,NA
41240,Johnson County,KY,NA,57.687576875768755,76.72634271099744,NA
41501,Pike County,KY,12.990196078431374,NA,NA,NA
41701,Perry County,KY,NA,31.61131611316113,NA,NA
42001,McCracken County,KY,NA,64.32964329643296,NA,NA
42003,McCracken County,KY,NA,14.391143911439114,NA,NA
42025,Marshall County,KY,NA,44.03444034440344,NA,31.675392670157066
42276,Logan County,KY,NA,56.457564575645755,NA,NA
42303,Daviess County,KY,NA,56.70356703567035,NA,NA
42320,Ohio County,KY,47.05882352941176,NA,NA,NA
42420,Henderson County,KY,NA,9.71709717097171,NA,NA
42629,Russell County,KY,NA,NA,95.78005115089513,NA
42633,Wayne County,KY,NA,53.13653136531366,NA,NA
42642,Russell County,KY,NA,NA,NA,64.92146596858639
70002,Jefferson Parish,LA,29.166666666666668,NA,NA,NA
70003,Jefferson Parish,LA,NA,31.980319803198032,73.40153452685422,NA
70053,Jefferson Parish,LA,97.05882352941177,NA,NA,NA
70065,Jefferson Parish,LA,NA,NA,21.86700767263427,NA
70072,Jefferson Parish,LA,NA,69.49569495694958,NA,NA
70118,Orleans Parish,LA,NA,17.958179581795818,20.716112531969312,NA
70121,Jefferson Parish,LA,60.78431372549019,NA,NA,NA
70123,Jefferson Parish,LA,NA,NA,20.588235294117645,NA
70360,Terrebonne Parish,LA,NA,38.49938499384994,NA,NA
70363,Terrebonne Parish,LA,NA,NA,NA,41.361256544502616
70364,Terrebonne Parish,LA,NA,NA,NA,50.26178010471204
70380,St. Mary Parish,LA,NA,22.386223862238623,NA,NA
70394,Lafourche Parish,LA,NA,NA,35.80562659846547,NA
70427,Washington Parish,LA,NA,NA,NA,28.01047120418848
70447,St. Tammany Parish,LA,NA,60.147601476014756,NA,NA
70471,St. Tammany Parish,LA,NA,42.189421894218945,NA,NA
70506,Lafayette Parish,LA,9.803921568627452,NA,NA,NA
70507,Lafayette Parish,LA,29.65686274509804,NA,NA,NA
70510,Vermilion Parish,LA,NA,71.21771217712177,NA,NA
70548,Vermilion Parish,LA,NA,NA,81.84143222506394,62.82722513089005
70586,Evangeline Parish,LA,NA,NA,NA,48.167539267015705
70615,Calcasieu Parish,LA,NA,56.21156211562116,NA,NA
70714,East Baton Rouge Parish,LA,57.84313725490197,NA,NA,NA
70763,St. James Parish,LA,NA,NA,99.48849104859335,NA
70774,Ascension Parish,LA,68.38235294117648,NA,NA,NA
70777,East Feliciana Parish,LA,NA,89.0528905289053,NA,NA
70802,East Baton Rouge Parish,LA,NA,6.273062730627306,NA,NA
70805,East Baton Rouge Parish,LA,NA,2.8290282902829027,NA,NA
70817,East Baton Rouge Parish,LA,8.333333333333332,NA,NA,NA
70818,East Baton Rouge Parish,LA,NA,NA,77.10997442455243,NA
71052,De Soto Parish,LA,NA,NA,NA,79.84293193717278
71106,Caddo Parish,LA,NA,NA,14.194373401534527,NA
71109,Caddo Parish,LA,8.57843137254902,NA,NA,NA
71291,Ouachita Parish,LA,NA,NA,33.50383631713555,21.20418848167539
71302,Rapides Parish,LA,37.254901960784316,NA,NA,NA
71343,Catahoula Parish,LA,92.8921568627451,NA,NA,NA
71360,Rapides Parish,LA,NA,NA,29.15601023017903,NA
71423,Grant Parish,LA,60.29411764705882,NA,NA,NA
71457,Natchitoches Parish,LA,NA,NA,25.575447570332482,NA
71463,Allen Parish,LA,NA,NA,90.153452685422,NA
03908,York County,ME,83.08823529411765,NA,NA,NA
04064,York County,ME,NA,NA,NA,32.98429319371728
04072,York County,ME,NA,NA,20.460358056265985,NA
04240,Androscoggin County,ME,NA,1.7220172201722017,20.20460358056266,NA
04330,Kennebec County,ME,4.166666666666666,NA,37.59590792838875,NA
04457,Penobscot County,ME,NA,71.95571955719558,NA,NA
04468,Penobscot County,ME,84.06862745098039,NA,NA,NA
04572,Lincoln County,ME,NA,NA,NA,94.76439790575915
04901,Kennebec County,ME,NA,NA,3.0690537084398977,NA
04917,Kennebec County,ME,NA,NA,92.1994884910486,NA
20603,Charles County,MD,NA,NA,88.87468030690538,NA
20613,Prince George's County,MD,88.97058823529412,NA,NA,NA
20622,Charles County,MD,98.52941176470588,NA,NA,NA
20646,Charles County,MD,64.95098039215686,NA,NA,NA
20705,Prince George's County,MD,NA,91.7589175891759,NA,NA
20706,Prince George's County,MD,NA,58.91758917589176,NA,NA
20708,Prince George's County,MD,NA,NA,NA,89.52879581151832
20721,Prince George's County,MD,NA,75.27675276752768,NA,NA
20743,Prince George's County,MD,NA,NA,73.52941176470588,NA
20746,Prince George's County,MD,NA,65.80565805658057,NA,NA
20772,Prince George's County,MD,NA,48.954489544895445,NA,NA
20782,Prince George's County,MD,NA,93.4809348093481,NA,NA
20837,Montgomery County,MD,NA,97.04797047970479,NA,NA
20852,Montgomery County,MD,NA,NA,89.51406649616368,NA
20879,Montgomery County,MD,NA,NA,90.7928388746803,NA
20901,Montgomery County,MD,82.35294117647058,NA,NA,NA
20904,Montgomery County,MD,44.36274509803921,NA,NA,NA
21001,Harford County,MD,NA,NA,NA,65.96858638743456
21014,Harford County,MD,NA,NA,34.271099744245525,NA
21042,Howard County,MD,NA,NA,62.53196930946292,NA
21045,Howard County,MD,51.71568627450981,NA,NA,NA
21048,Carroll County,MD,NA,NA,NA,99.47643979057592
21061,Anne Arundel County,MD,NA,10.33210332103321,NA,NA
21113,Anne Arundel County,MD,NA,NA,71.99488491048594,NA
21144,Anne Arundel County,MD,NA,59.163591635916355,NA,NA
21157,Carroll County,MD,NA,50.43050430504306,NA,NA
21215,Baltimore city,MD,NA,7.995079950799508,45.65217391304348,NA
21220,Baltimore County,MD,NA,17.83517835178352,NA,NA
21223,Baltimore city,MD,NA,NA,NA,70.68062827225131
21236,Baltimore County,MD,NA,39.48339483394834,NA,NA
21403,Anne Arundel County,MD,NA,64.94464944649447,NA,NA
21601,Talbot County,MD,NA,NA,NA,34.29319371727749
21613,Dorchester County,MD,NA,NA,61.508951406649615,NA
21703,Frederick County,MD,NA,62.97662976629766,NA,NA
21716,Frederick County,MD,97.79411764705883,NA,NA,NA
21771,Frederick County,MD,NA,NA,70.71611253196932,NA
21804,Wicomico County,MD,NA,NA,NA,37.696335078534034
21842,Worcester County,MD,NA,NA,NA,47.90575916230366
21875,Wicomico County,MD,NA,96.06396063960639,NA,NA
01001,Hampden County,MA,NA,NA,NA,38.481675392670155
01002,Hampshire County,MA,78.43137254901961,NA,NA,NA
01005,Worcester County,MA,NA,72.44772447724476,NA,NA
01013,Hampden County,MA,NA,2.952029520295203,NA,98.69109947643979
01062,Hampshire County,MA,NA,74.04674046740467,NA,NA
01075,Hampshire County,MA,NA,NA,NA,46.33507853403142
01085,Hampden County,MA,NA,11.193111931119311,NA,NA
01201,Berkshire County,MA,NA,NA,0.2557544757033248,NA
01226,Berkshire County,MA,NA,NA,69.18158567774935,NA
01247,Berkshire County,MA,42.64705882352941,NA,NA,NA
01360,Franklin County,MA,NA,98.5239852398524,NA,NA
01420,Worcester County,MA,NA,77.12177121771218,NA,NA
01440,Worcester County,MA,40.44117647058824,1.3530135301353015,8.439897698209718,NA
01453,Worcester County,MA,14.215686274509803,NA,37.34015345268542,NA
01507,Worcester County,MA,NA,NA,NA,86.64921465968587
01510,Worcester County,MA,NA,19.43419434194342,98.46547314578005,NA
01550,Worcester County,MA,NA,NA,2.6854219948849107,NA
01588,Worcester County,MA,NA,NA,45.907928388746804,NA
01603,Worcester County,MA,NA,NA,2.4296675191815855,NA
01604,Worcester County,MA,4.411764705882353,NA,NA,NA
01606,Worcester County,MA,NA,49.69249692496925,NA,NA
01702,Middlesex County,MA,7.107843137254902,NA,NA,NA
01749,Middlesex County,MA,NA,NA,42.45524296675192,NA
01752,Middlesex County,MA,NA,NA,13.810741687979538,NA
01757,Worcester County,MA,NA,NA,5.115089514066496,NA
01760,Middlesex County,MA,47.549019607843135,NA,NA,NA
01803,Middlesex County,MA,NA,53.50553505535055,NA,NA
01821,Middlesex County,MA,NA,NA,15.9846547314578,NA
01824,Middlesex County,MA,NA,NA,6.905370843989769,6.806282722513089
01830,Essex County,MA,NA,1.107011070110701,NA,NA
01832,Essex County,MA,NA,3.936039360393604,NA,NA
01841,Essex County,MA,NA,3.8130381303813037,NA,NA
01844,Essex County,MA,NA,NA,2.813299232736573,NA
01850,Middlesex County,MA,96.07843137254902,30.873308733087327,NA,NA
01851,Middlesex County,MA,42.15686274509804,NA,NA,NA
01852,Middlesex County,MA,NA,0.36900369003690037,NA,NA
01863,Middlesex County,MA,91.66666666666666,NA,NA,NA
01902,Essex County,MA,NA,26.44526445264453,NA,NA
01913,Essex County,MA,NA,NA,9.07928388746803,NA
01915,Essex County,MA,NA,NA,NA,1.5706806282722512
01921,Essex County,MA,NA,NA,91.17647058823529,NA
01923,Essex County,MA,NA,93.35793357933579,NA,NA
01945,Essex County,MA,59.31372549019608,NA,NA,NA
01970,Essex County,MA,NA,NA,1.1508951406649617,NA
02038,Norfolk County,MA,NA,12.546125461254611,16.11253196930946,NA
02048,Bristol County,MA,NA,NA,14.45012787723785,NA
02062,Norfolk County,MA,NA,NA,11.636828644501279,NA
02067,Norfolk County,MA,75.73529411764706,NA,NA,NA
02081,Norfolk County,MA,NA,NA,52.813299232736576,NA
02093,Norfolk County,MA,NA,57.81057810578106,84.78260869565217,NA
02115,Suffolk County,MA,NA,NA,3.70843989769821,NA
02118,Suffolk County,MA,NA,0.24600246002460024,1.0230179028132993,NA
02119,Suffolk County,MA,NA,0,98.84910485933503,NA
02121,Suffolk County,MA,NA,NA,0.5115089514066496,NA
02124,Suffolk County,MA,0.49019607843137253,NA,NA,NA
02126,Suffolk County,MA,NA,81.67281672816729,NA,NA
02127,Suffolk County,MA,NA,NA,41.30434782608695,NA
02136,Suffolk County,MA,NA,1.4760147601476015,4.3478260869565215,NA
02148,Middlesex County,MA,NA,NA,NA,0.5235602094240838
02150,Suffolk County,MA,0,NA,NA,NA
02151,Suffolk County,MA,NA,0.12300123001230012,0,NA
02169,Norfolk County,MA,NA,NA,0.639386189258312,NA
02170,Norfolk County,MA,NA,31.119311193111933,NA,NA
02186,Norfolk County,MA,NA,13.407134071340712,27.237851662404093,NA
02324,Plymouth County,MA,NA,11.07011070110701,NA,NA
02346,Plymouth County,MA,NA,NA,12.27621483375959,NA
02359,Plymouth County,MA,NA,29.520295202952028,NA,NA
02360,Plymouth County,MA,NA,NA,0.3836317135549872,NA
02364,Plymouth County,MA,NA,52.398523985239855,NA,NA
02368,Norfolk County,MA,NA,NA,NA,19.10994764397906
02446,Norfolk County,MA,NA,NA,6.521739130434782,NA
02453,Middlesex County,MA,NA,NA,NA,15.968586387434556
02481,Norfolk County,MA,NA,NA,NA,56.80628272251309
02571,Plymouth County,MA,79.16666666666666,NA,NA,NA
02660,Barnstable County,MA,NA,NA,NA,65.96858638743456
02668,Barnstable County,MA,NA,NA,88.61892583120205,NA
02724,Bristol County,MA,NA,4.059040590405904,NA,NA
02738,Plymouth County,MA,NA,94.34194341943419,NA,NA
02746,Bristol County,MA,31.61764705882353,NA,NA,NA
02769,Bristol County,MA,NA,NA,65.08951406649616,NA
02790,Bristol County,MA,NA,NA,NA,29.84293193717277
48001,St. Clair County,MI,NA,70.60270602706026,NA,NA
48025,Oakland County,MI,NA,81.42681426814268,NA,NA
48030,Oakland County,MI,NA,NA,66.11253196930946,89.00523560209425
48038,Macomb County,MI,NA,NA,NA,4.18848167539267
48040,St. Clair County,MI,NA,NA,NA,95.02617801047121
48065,Macomb County,MI,NA,NA,80.17902813299233,NA
48066,Macomb County,MI,NA,3.6900369003690034,NA,NA
48071,Oakland County,MI,NA,NA,40.66496163682864,NA
48089,Macomb County,MI,NA,NA,25.191815856777495,NA
48092,Macomb County,MI,NA,NA,23.657289002557544,NA
48103,Washtenaw County,MI,NA,14.760147601476014,NA,NA
48111,Wayne County,MI,NA,6.765067650676507,NA,NA
48116,Livingston County,MI,24.509803921568626,NA,NA,NA
48118,Washtenaw County,MI,NA,NA,NA,29.05759162303665
48124,Wayne County,MI,45.34313725490196,NA,NA,NA
48146,Wayne County,MI,NA,8.364083640836409,NA,NA
48162,Monroe County,MI,NA,11.931119311193111,NA,NA
48170,Wayne County,MI,26.715686274509803,NA,NA,NA
48183,Wayne County,MI,NA,9.22509225092251,NA,NA
48192,Wayne County,MI,NA,NA,34.910485933503836,NA
48198,Washtenaw County,MI,NA,2.214022140221402,NA,NA
48206,Wayne County,MI,29.411764705882355,26.814268142681424,NA,NA
48209,Wayne County,MI,23.284313725490197,NA,NA,NA
48210,Wayne County,MI,13.480392156862745,25.830258302583026,NA,NA
48228,Wayne County,MI,NA,1.2300123001230012,NA,NA
48236,Wayne County,MI,NA,30.75030750307503,NA,9.424083769633508
48306,Oakland County,MI,NA,43.419434194341946,NA,NA
48310,Macomb County,MI,NA,15.621156211562115,NA,NA
48312,Macomb County,MI,18.872549019607842,NA,NA,NA
48340,Oakland County,MI,NA,NA,39.38618925831202,NA
48371,Oakland County,MI,41.42156862745098,NA,NA,NA
48439,Genesee County,MI,NA,NA,54.73145780051151,NA
48455,Lapeer County,MI,NA,NA,77.23785166240408,NA
48475,Huron County,MI,NA,99.7539975399754,NA,NA
48503,Genesee County,MI,NA,NA,21.22762148337596,NA
48601,Saginaw County,MI,0.7352941176470588,NA,NA,NA
48625,Clare County,MI,NA,28.90528905289053,NA,NA
48726,Tuscola County,MI,NA,NA,NA,84.55497382198953
48732,Bay County,MI,NA,53.997539975399754,NA,NA
48813,Eaton County,MI,NA,38.622386223862236,NA,NA
48836,Livingston County,MI,NA,54.48954489544895,NA,73.03664921465969
48843,Livingston County,MI,NA,NA,NA,7.329842931937172
48846,Ionia County,MI,NA,NA,54.0920716112532,NA
48855,Livingston County,MI,68.38235294117648,NA,NA,NA
48881,Ionia County,MI,NA,NA,94.11764705882352,NA
48883,Isabella County,MI,NA,NA,90.92071611253198,NA
48911,Ingham County,MI,NA,NA,NA,26.17801047120419
49006,Kalamazoo County,MI,NA,50.307503075030745,NA,NA
49008,Kalamazoo County,MI,NA,NA,NA,57.59162303664922
49015,Calhoun County,MI,20.34313725490196,NA,32.09718670076726,NA
49017,Calhoun County,MI,NA,30.13530135301353,NA,NA
49037,Calhoun County,MI,NA,NA,35.933503836317136,NA
49053,Kalamazoo County,MI,NA,81.30381303813039,NA,NA
49058,Barry County,MI,NA,NA,44.62915601023018,NA
49091,St. Joseph County,MI,NA,NA,NA,50
49265,Lenawee County,MI,NA,91.63591635916359,NA,NA
49286,Lenawee County,MI,NA,NA,52.55754475703325,NA
49341,Kent County,MI,23.03921568627451,NA,NA,NA
49455,Oceana County,MI,NA,NA,NA,95.28795811518324
49507,Kent County,MI,2.2058823529411766,NA,NA,NA
49685,Grand Traverse County,MI,NA,53.01353013530136,NA,NA
49735,Otsego County,MI,NA,32.226322263222634,NA,NA
55016,Washington County,MN,11.76470588235294,NA,NA,NA
55024,Dakota County,MN,NA,NA,NA,87.69633507853402
55025,Washington County,MN,38.72549019607843,NA,NA,NA
55037,Pine County,MN,NA,98.8929889298893,NA,NA
55044,Dakota County,MN,27.205882352941174,50.79950799507995,NA,NA
55045,Chisago County,MN,NA,93.9729397293973,NA,NA
55060,Steele County,MN,NA,36.77736777367774,NA,NA
55068,Dakota County,MN,NA,67.03567035670358,NA,NA
55076,Dakota County,MN,NA,NA,61.253196930946295,68.58638743455498
55079,Chisago County,MN,NA,NA,93.86189258312021,NA
55110,Ramsey County,MN,NA,NA,76.34271099744245,35.07853403141361
55112,Ramsey County,MN,37.745098039215684,NA,NA,NA
55118,Dakota County,MN,NA,NA,47.570332480818415,NA
55119,Ramsey County,MN,NA,43.05043050430504,NA,NA
55121,Dakota County,MN,NA,NA,96.67519181585678,NA
55125,Washington County,MN,NA,NA,NA,40.05235602094241
55126,Ramsey County,MN,NA,84.37884378843789,NA,60.20942408376963
55304,Anoka County,MN,NA,NA,48.72122762148338,NA
55318,Carver County,MN,NA,60.02460024600246,69.94884910485933,NA
55328,Wright County,MN,86.02941176470588,NA,NA,NA
55331,Hennepin County,MN,NA,NA,NA,100
55336,McLeod County,MN,NA,71.83271832718327,NA,NA
55337,Dakota County,MN,17.647058823529413,NA,NA,NA
55347,Hennepin County,MN,NA,86.83886838868389,NA,NA
55371,Mille Lacs County,MN,NA,NA,75.57544757033247,NA
55372,Scott County,MN,NA,62.48462484624846,NA,NA
55391,Hennepin County,MN,NA,NA,NA,73.82198952879581
55406,Hennepin County,MN,NA,NA,NA,67.27748691099477
55414,Hennepin County,MN,72.05882352941177,NA,NA,NA
55416,Hennepin County,MN,NA,42.92742927429274,NA,NA
55419,Hennepin County,MN,11.519607843137255,NA,NA,NA
55423,Hennepin County,MN,NA,52.64452644526445,NA,NA
55426,Hennepin County,MN,NA,NA,45.26854219948849,NA
55441,Hennepin County,MN,NA,NA,NA,78.01047120418848
55443,Hennepin County,MN,NA,66.29766297662977,NA,NA
56058,Le Sueur County,MN,NA,89.0528905289053,NA,NA
56065,Blue Earth County,MN,NA,98.4009840098401,NA,NA
56093,Waseca County,MN,NA,NA,NA,23.82198952879581
56265,Chippewa County,MN,NA,NA,NA,38.7434554973822
56267,Stevens County,MN,NA,68.63468634686348,NA,NA
56431,Aitkin County,MN,NA,72.81672816728168,NA,NA
56470,Hubbard County,MN,NA,NA,42.19948849104859,NA
56557,Norman County,MN,NA,85.36285362853629,NA,NA
56560,Clay County,MN,1.715686274509804,NA,NA,NA
56601,Beltrami County,MN,4.411764705882353,NA,NA,NA
56701,Pennington County,MN,NA,NA,25.831202046035806,NA
38611,Marshall County,MS,NA,NA,69.43734015345268,NA
38637,DeSoto County,MS,35.294117647058826,NA,NA,NA
38672,DeSoto County,MS,69.36274509803921,NA,NA,NA
38732,Bolivar County,MS,NA,NA,45.39641943734015,NA
39042,Rankin County,MS,NA,33.210332103321036,NA,NA
39051,Leake County,MS,NA,46.98646986469865,NA,NA
39074,Scott County,MS,NA,38.25338253382534,NA,NA
39090,Attala County,MS,NA,70.60270602706026,NA,NA
39094,Leake County,MS,NA,95.20295202952029,NA,NA
39168,Smith County,MS,NA,NA,91.43222506393862,NA
39426,Pearl River County,MS,NA,NA,NA,65.70680628272252
39437,Jones County,MS,NA,NA,80.81841432225065,69.10994764397905
39443,Jones County,MS,NA,67.15867158671587,NA,NA
39465,Forrest County,MS,NA,NA,84.01534526854219,NA
39466,Pearl River County,MS,NA,NA,17.135549872122763,NA
39520,Hancock County,MS,NA,NA,44.75703324808184,NA
39532,Harrison County,MS,NA,44.28044280442804,NA,NA
39564,Jackson County,MS,NA,32.71832718327183,35.54987212276215,NA
39750,Webster County,MS,96.32352941176471,NA,NA,NA
39759,Oktibbeha County,MS,NA,NA,60.86956521739131,NA
63090,Franklin County,MO,NA,75.89175891758919,NA,NA
63107,St. Louis city,MO,NA,86.5928659286593,NA,NA
63112,St. Louis city,MO,NA,53.62853628536285,NA,NA
63113,St. Louis city,MO,NA,NA,73.1457800511509,NA
63117,St. Louis County,MO,NA,NA,NA,86.12565445026178
63128,St. Louis County,MO,NA,NA,23.91304347826087,NA
63136,St. Louis County,MO,NA,7.503075030750307,NA,NA
63143,St. Louis County,MO,NA,NA,NA,95.81151832460732
63146,St. Louis County,MO,NA,51.53751537515375,NA,NA
63304,St. Charles County,MO,NA,NA,NA,15.44502617801047
63367,St. Charles County,MO,NA,NA,38.107416879795394,NA
63376,St. Charles County,MO,NA,NA,NA,4.712041884816754
63456,Monroe County,MO,91.91176470588235,NA,NA,NA
63670,Ste. Genevieve County,MO,NA,NA,75.31969309462916,NA
63775,Perry County,MO,NA,35.67035670356704,NA,NA
63901,Butler County,MO,NA,NA,NA,35.340314136125656
64012,Cass County,MO,52.450980392156865,NA,NA,NA
64060,Clay County,MO,NA,NA,NA,66.49214659685863
64063,Jackson County,MO,NA,NA,NA,80.36649214659685
64076,Lafayette County,MO,NA,NA,85.93350383631714,NA
64077,Ray County,MO,NA,96.5559655596556,NA,NA
64079,Platte County,MO,NA,NA,51.66240409207161,NA
64080,Cass County,MO,84.31372549019608,NA,NA,NA
64085,Ray County,MO,NA,78.59778597785979,NA,NA
64108,Jackson County,MO,74.26470588235294,NA,NA,NA
64110,Jackson County,MO,NA,34.686346863468636,NA,NA
64111,Jackson County,MO,NA,NA,NA,91.09947643979058
64116,Clay County,MO,NA,NA,NA,52.617801047120416
64119,Clay County,MO,NA,NA,22.634271099744247,NA
64127,Jackson County,MO,NA,6.150061500615006,NA,NA
64133,Jackson County,MO,NA,4.674046740467404,NA,NA
64151,Platte County,MO,NA,31.48831488314883,NA,NA
64152,Platte County,MO,NA,18.696186961869618,NA,NA
64155,Clay County,MO,NA,23.001230012300123,NA,NA
64505,Buchanan County,MO,NA,31.73431734317343,NA,NA
64506,Buchanan County,MO,NA,NA,7.161125319693094,NA
64507,Buchanan County,MO,NA,NA,43.60613810741688,NA
64628,Linn County,MO,NA,NA,97.69820971867009,NA
64801,Jasper County,MO,14.460784313725492,NA,15.473145780051151,NA
65202,Boone County,MO,NA,NA,24.42455242966752,NA
65340,Saline County,MO,27.941176470588236,NA,NA,NA
65355,Benton County,MO,NA,NA,22.25063938618926,NA
65807,Greene County,MO,NA,26.937269372693727,16.751918158567776,NA
59201,McCone County,MT,94.85294117647058,NA,NA,NA
59405,Cascade County,MT,NA,NA,17.007672634271103,NA
59602,Lewis and Clark County,MT,NA,NA,NA,35.602094240837694
59901,Flathead County,MT,NA,NA,NA,1.0471204188481675
68005,Sarpy County,NE,NA,NA,71.86700767263427,NA
68008,Washington County,NE,NA,NA,69.56521739130434,NA
68111,Douglas County,NE,NA,NA,39.514066496163686,NA
68114,Douglas County,NE,NA,78.96678966789668,NA,NA
68138,Sarpy County,NE,NA,92.8659286592866,NA,NA
68144,Douglas County,NE,NA,NA,56.77749360613811,NA
68154,Douglas County,NE,NA,NA,53.58056265984654,NA
68503,Lancaster County,NE,54.90196078431373,NA,NA,NA
68512,Lancaster County,NE,NA,91.88191881918819,NA,NA
68803,Hall County,NE,NA,NA,NA,93.19371727748691
68847,Buffalo County,NE,NA,79.21279212792129,NA,NA
69101,Lincoln County,NE,58.08823529411765,NA,NA,NA
69162,Cheyenne County,NE,NA,79.70479704797047,NA,NA
89113,Clark County,NV,87.99019607843137,NA,NA,NA
89122,Clark County,NV,NA,25.707257072570727,NA,NA
89134,Clark County,NV,NA,NA,54.0920716112532,NA
89139,Clark County,NV,NA,75.64575645756457,NA,NA
89142,Clark County,NV,73.0392156862745,NA,NA,NA
89147,Clark County,NV,NA,NA,NA,56.282722513089
89431,Washoe County,NV,NA,NA,NA,24.345549738219894
89434,Washoe County,NV,NA,43.91143911439114,NA,NA
89508,Washoe County,NV,NA,NA,78.51662404092072,NA
89509,Washoe County,NV,54.166666666666664,NA,NA,NA
89512,Washoe County,NV,NA,15.744157441574416,NA,NA
89701,Carson City,NV,50.73529411764706,NA,NA,NA
89815,Elko County,NV,NA,NA,83.50383631713555,NA
03042,Rockingham County,NH,NA,NA,87.7237851662404,NA
03054,Hillsborough County,NH,NA,NA,18.797953964194374,NA
03062,Hillsborough County,NH,NA,NA,7.672634271099745,NA
03064,Hillsborough County,NH,NA,29.274292742927425,NA,NA
03103,Hillsborough County,NH,NA,NA,9.718670076726342,NA
03110,Hillsborough County,NH,NA,NA,40.28132992327366,NA
03301,Merrimack County,NH,NA,NA,NA,26.701570680628272
03458,Hillsborough County,NH,NA,NA,NA,42.67015706806283
03773,Sullivan County,NH,NA,82.41082410824109,NA,NA
03833,Rockingham County,NH,35.78431372549019,NA,40.53708439897698,NA
03842,Rockingham County,NH,NA,NA,32.22506393861892,NA
03873,Rockingham County,NH,NA,NA,99.61636828644501,NA
07001,Middlesex County,NJ,NA,NA,68.03069053708441,NA
07010,Bergen County,NJ,NA,NA,69.30946291560103,NA
07016,Union County,NJ,NA,85.85485854858548,NA,NA
07028,Essex County,NJ,99.01960784313727,NA,NA,NA
07036,Union County,NJ,NA,NA,75.95907928388746,NA
07060,Union County,NJ,NA,28.413284132841326,NA,NA
07066,Union County,NJ,NA,NA,91.68797953964194,NA
07073,Bergen County,NJ,NA,NA,94.37340153452686,NA
07083,Union County,NJ,NA,15.498154981549817,NA,NA
07087,Hudson County,NJ,11.27450980392157,3.3210332103321036,NA,NA
07092,Union County,NJ,NA,79.82779827798278,NA,NA
07104,Essex County,NJ,NA,0.8610086100861009,NA,NA
07107,Essex County,NJ,NA,92.25092250922509,NA,NA
07109,Essex County,NJ,NA,13.899138991389915,NA,NA
07111,Essex County,NJ,NA,NA,NA,18.848167539267017
07208,Union County,NJ,44.11764705882353,NA,NA,NA
07304,Hudson County,NJ,91.17647058823529,NA,NA,NA
07306,Hudson County,NJ,NA,5.658056580565805,NA,NA
07410,Bergen County,NJ,NA,NA,27.237851662404093,NA
07421,Passaic County,NJ,NA,89.54489544895449,NA,NA
07481,Bergen County,NJ,NA,NA,NA,62.56544502617801
07604,Bergen County,NJ,NA,NA,88.7468030690537,NA
07607,Bergen County,NJ,NA,76.38376383763837,NA,NA
07648,Bergen County,NJ,NA,NA,98.59335038363172,NA
07701,Monmouth County,NJ,NA,46.74046740467405,NA,NA
07724,Monmouth County,NJ,NA,NA,39.769820971867006,NA
07727,Monmouth County,NJ,NA,78.22878228782287,NA,NA
07728,Monmouth County,NJ,NA,46.125461254612546,NA,NA
07730,Monmouth County,NJ,NA,NA,NA,70.41884816753927
07733,Monmouth County,NJ,NA,NA,76.98209718670077,NA
07740,Monmouth County,NJ,NA,6.642066420664207,NA,NA
07751,Monmouth County,NJ,NA,68.51168511685117,NA,NA
07753,Monmouth County,NJ,NA,NA,NA,8.638743455497382
07828,Morris County,NJ,NA,NA,73.01790281329923,NA
07840,Warren County,NJ,NA,NA,NA,32.460732984293195
07936,Morris County,NJ,NA,NA,87.46803069053708,NA
08002,Camden County,NJ,50.73529411764706,NA,NA,NA
08004,Camden County,NJ,NA,56.580565805658054,NA,NA
08005,Ocean County,NJ,NA,18.20418204182042,NA,NA
08029,Camden County,NJ,NA,NA,97.18670076726342,NA
08030,Camden County,NJ,NA,NA,65.21739130434783,NA
08062,Gloucester County,NJ,NA,36.162361623616235,NA,NA
08103,Camden County,NJ,NA,5.412054120541206,NA,NA
08105,Camden County,NJ,26.225490196078432,NA,NA,NA
08107,Camden County,NJ,77.20588235294117,NA,NA,NA
08204,Cape May County,NJ,NA,NA,NA,31.151832460732987
08251,Cape May County,NJ,NA,51.90651906519065,NA,NA
08332,Cumberland County,NJ,19.852941176470587,9.96309963099631,NA,NA
08520,Mercer County,NJ,NA,NA,68.15856777493606,NA
08536,Middlesex County,NJ,NA,55.96555965559655,NA,NA
08559,Hunterdon County,NJ,NA,91.14391143911439,NA,NA
08611,Mercer County,NJ,NA,NA,35.67774936061381,NA
08638,Mercer County,NJ,NA,11.439114391143912,NA,NA
08648,Mercer County,NJ,NA,NA,NA,85.34031413612566
08690,Mercer County,NJ,NA,NA,57.416879795396426,NA
08722,Ocean County,NJ,NA,NA,89.25831202046037,NA
08724,Ocean County,NJ,NA,9.348093480934809,NA,NA
08753,Ocean County,NJ,10.53921568627451,NA,NA,NA
08759,Ocean County,NJ,NA,NA,1.6624040920716114,NA
08809,Hunterdon County,NJ,94.36274509803921,NA,NA,NA
08830,Middlesex County,NJ,NA,NA,70.97186700767263,NA
08852,Middlesex County,NJ,NA,NA,NA,93.97905759162303
08853,Somerset County,NJ,NA,NA,98.08184143222506,NA
08854,Middlesex County,NJ,NA,8.118081180811808,NA,NA
08861,Middlesex County,NJ,3.6764705882352944,NA,NA,NA
87020,Cibola County,NM,NA,NA,80.43478260869566,NA
87108,Bernalillo County,NM,NA,NA,4.987212276214834,NA
87111,Bernalillo County,NM,NA,4.182041820418204,NA,NA
87120,Bernalillo County,NM,NA,9.59409594095941,NA,NA
87121,Bernalillo County,NM,21.323529411764707,NA,5.498721227621484,NA
87323,McKinley County,NM,97.54901960784314,NA,NA,NA
87410,San Juan County,NM,NA,NA,75.06393861892583,NA
87571,Taos County,NM,NA,NA,55.24296675191815,NA
88024,Doa Ana County,NM,NA,99.87699876998771,NA,NA
88220,Eddy County,NM,NA,NA,NA,22.25130890052356
88240,Lea County,NM,NA,26.199261992619927,NA,NA
10002,New York County,NY,NA,NA,2.557544757033248,NA
10004,New York County,NY,NA,NA,NA,99.73821989528795
10010,New York County,NY,NA,84.74784747847478,NA,NA
10014,New York County,NY,NA,85.23985239852398,NA,NA
10017,New York County,NY,NA,95.079950799508,NA,NA
10019,New York County,NY,NA,64.82164821648216,66.24040920716112,NA
10026,New York County,NY,NA,25.092250922509223,NA,NA
10028,New York County,NY,NA,NA,34.015345268542205,NA
10029,New York County,NY,NA,0.6150061500615006,NA,NA
10030,New York County,NY,NA,56.33456334563346,NA,NA
10032,New York County,NY,NA,NA,7.033248081841433,NA
10075,New York County,NY,NA,85.11685116851169,NA,NA
10312,Richmond County,NY,NA,NA,NA,18.586387434554975
10451,Bronx County,NY,6.127450980392156,NA,NA,NA
10453,Bronx County,NY,NA,0.984009840098401,NA,NA
10454,Bronx County,NY,NA,NA,5.626598465473146,NA
10456,Bronx County,NY,NA,2.337023370233702,0.1278772378516624,NA
10457,Bronx County,NY,NA,0.7380073800738007,NA,NA
10458,Bronx County,NY,NA,5.166051660516605,NA,6.282722513089005
10461,Bronx County,NY,NA,NA,19.18158567774936,NA
10463,Bronx County,NY,NA,NA,3.8363171355498724,2.6178010471204187
10465,Bronx County,NY,NA,30.25830258302583,NA,NA
10466,Bronx County,NY,NA,4.920049200492005,18.67007672634271,NA
10467,Bronx County,NY,1.2254901960784315,NA,0.7672634271099744,NA
10468,Bronx County,NY,20.833333333333336,NA,2.1739130434782608,NA
10473,Bronx County,NY,NA,NA,6.265984654731457,NA
10512,Putnam County,NY,NA,NA,72.25063938618926,NA
10536,Westchester County,NY,NA,NA,93.60613810741688,NA
10550,Westchester County,NY,24.264705882352942,24.846248462484624,24.808184143222505,NA
10552,Westchester County,NY,NA,NA,NA,73.56020942408377
10580,Westchester County,NY,NA,NA,NA,74.08376963350786
10583,Westchester County,NY,NA,NA,81.45780051150895,29.31937172774869
10601,Westchester County,NY,NA,85.48585485854858,NA,NA
10701,Westchester County,NY,3.9215686274509802,NA,NA,NA
10705,Westchester County,NY,30.88235294117647,33.94833948339483,NA,NA
10901,Rockland County,NY,NA,NA,71.48337595907928,NA
10920,Rockland County,NY,85.7843137254902,NA,NA,NA
10956,Rockland County,NY,NA,NA,73.91304347826086,NA
10977,Rockland County,NY,62.745098039215684,NA,NA,NA
11050,Nassau County,NY,NA,94.7109471094711,NA,NA
11101,Queens County,NY,NA,57.19557195571956,NA,NA
11106,Queens County,NY,NA,NA,65.47314578005115,NA
11207,Kings County,NY,NA,0.4920049200492005,NA,NA
11208,Kings County,NY,NA,18.942189421894216,NA,NA
11211,Kings County,NY,NA,44.03444034440344,NA,NA
11218,Kings County,NY,NA,NA,15.601023017902813,NA
11220,Kings County,NY,0.24509803921568626,NA,NA,NA
11221,Kings County,NY,30.637254901960787,NA,NA,NA
11226,Kings County,NY,NA,4.305043050430505,NA,NA
11230,Kings County,NY,NA,16.236162361623617,NA,NA
11234,Kings County,NY,NA,NA,11.76470588235294,NA
11235,Kings County,NY,NA,NA,NA,1.3089005235602094
11236,Kings County,NY,NA,4.551045510455105,NA,NA
11238,Kings County,NY,NA,19.803198031980322,14.961636828644501,NA
11354,Queens County,NY,26.96078431372549,NA,72.37851662404093,NA
11355,Queens County,NY,NA,NA,57.92838874680307,NA
11357,Queens County,NY,NA,73.92373923739237,NA,NA
11358,Queens County,NY,NA,NA,62.787723785166236,NA
11367,Queens County,NY,NA,NA,52.17391304347826,NA
11368,Queens County,NY,NA,NA,17.774936061381077,NA
11369,Queens County,NY,NA,NA,NA,49.47643979057592
11370,Queens County,NY,NA,86.96186961869618,NA,NA
11377,Queens County,NY,NA,NA,56.01023017902813,NA
11385,Queens County,NY,10.049019607843137,NA,69.0537084398977,NA
11411,Queens County,NY,NA,NA,77.62148337595907,NA
11420,Queens County,NY,NA,NA,74.29667519181585,NA
11423,Queens County,NY,NA,51.41451414514145,NA,NA
11426,Queens County,NY,84.55882352941177,NA,82.9923273657289,NA
11432,Queens County,NY,42.8921568627451,NA,NA,NA
11501,Nassau County,NY,92.64705882352942,NA,NA,NA
11518,Nassau County,NY,NA,NA,NA,91.62303664921467
11520,Nassau County,NY,NA,NA,76.08695652173914,NA
11542,Nassau County,NY,NA,NA,57.033248081841435,NA
11550,Nassau County,NY,NA,NA,17.647058823529413,NA
11553,Nassau County,NY,65.93137254901961,81.54981549815497,NA,NA
11557,Nassau County,NY,NA,NA,NA,92.14659685863874
11561,Nassau County,NY,NA,NA,34.654731457800516,NA
11691,Queens County,NY,NA,8.733087330873309,NA,NA
11703,Suffolk County,NY,NA,88.92988929889299,NA,NA
11706,Suffolk County,NY,NA,22.509225092250922,38.36317135549872,NA
11710,Nassau County,NY,NA,NA,64.3222506393862,34.29319371727749
11714,Nassau County,NY,NA,NA,78.13299232736573,NA
11717,Suffolk County,NY,NA,NA,NA,27.748691099476442
11722,Suffolk County,NY,63.970588235294116,NA,NA,66.75392670157068
11780,Suffolk County,NY,NA,NA,NA,62.04188481675392
11788,Suffolk County,NY,NA,72.07872078720787,NA,NA
11795,Suffolk County,NY,NA,NA,NA,26.96335078534031
11798,Suffolk County,NY,NA,NA,NA,83.50785340314137
11801,Nassau County,NY,NA,59.90159901599016,NA,NA
11935,Suffolk County,NY,NA,NA,98.20971867007673,NA
11937,Suffolk County,NY,94.85294117647058,NA,NA,NA
11967,Suffolk County,NY,NA,NA,82.09718670076727,NA
12020,Saratoga County,NY,NA,18.81918819188192,28.388746803069054,39.52879581151832
12047,Albany County,NY,NA,28.65928659286593,NA,NA
12065,Saratoga County,NY,NA,NA,17.902813299232736,NA
12180,Rensselaer County,NY,NA,NA,43.47826086956522,NA
12401,Ulster County,NY,NA,NA,51.534526854219955,NA
12534,Columbia County,NY,NA,14.883148831488317,NA,NA
12538,Dutchess County,NY,NA,92.98892988929889,NA,NA
12601,Dutchess County,NY,70.34313725490196,NA,NA,NA
12603,Dutchess County,NY,NA,NA,59.07928388746802,NA
12801,Warren County,NY,NA,NA,66.87979539641944,NA
12803,Saratoga County,NY,NA,69.98769987699876,NA,NA
12804,Warren County,NY,NA,NA,46.80306905370844,NA
12870,Essex County,NY,99.75490196078431,NA,NA,NA
12992,Clinton County,NY,NA,58.30258302583026,NA,NA
12993,Essex County,NY,NA,95.9409594095941,NA,NA
13030,Madison County,NY,NA,80.07380073800738,NA,NA
13039,Onondaga County,NY,NA,NA,NA,85.86387434554975
13082,Madison County,NY,NA,73.43173431734317,NA,NA
13090,Onondaga County,NY,NA,NA,30.051150895140665,NA
13202,Onondaga County,NY,NA,61.00861008610086,NA,NA
13203,Onondaga County,NY,46.81372549019608,NA,NA,NA
13209,Onondaga County,NY,78.92156862745098,46.86346863468634,NA,NA
13215,Onondaga County,NY,NA,NA,57.54475703324808,NA
13309,Oneida County,NY,NA,NA,81.32992327365729,NA
13316,Oneida County,NY,NA,65.31365313653137,NA,NA
13323,Oneida County,NY,NA,88.19188191881919,NA,NA
13326,Otsego County,NY,NA,NA,NA,32.72251308900523
13421,Madison County,NY,NA,NA,57.8005115089514,NA
13617,St. Lawrence County,NY,33.57843137254902,NA,NA,NA
13850,Broome County,NY,NA,NA,3.4526854219948846,NA
14020,Genesee County,NY,17.15686274509804,NA,NA,NA
14072,Erie County,NY,NA,NA,40.02557544757033,NA
14075,Erie County,NY,NA,NA,5.754475703324808,43.717277486910994
14085,Erie County,NY,NA,NA,91.30434782608695,NA
14086,Erie County,NY,NA,NA,20.843989769820972,NA
14108,Niagara County,NY,87.99019607843137,NA,NA,NA
14120,Niagara County,NY,NA,NA,6.649616368286446,21.727748691099478
14150,Erie County,NY,18.627450980392158,NA,NA,NA
14213,Erie County,NY,NA,NA,47.31457800511509,NA
14424,Ontario County,NY,NA,NA,1.278772378516624,NA
14513,Wayne County,NY,NA,5.535055350553505,NA,NA
14521,Seneca County,NY,93.62745098039215,NA,NA,NA
14525,Genesee County,NY,89.70588235294117,NA,NA,NA
14526,Monroe County,NY,NA,46.371463714637144,NA,NA
14534,Monroe County,NY,NA,NA,2.0460358056265986,NA
14606,Monroe County,NY,8.088235294117647,NA,12.404092071611252,NA
14608,Monroe County,NY,38.72549019607843,NA,NA,NA
14610,Monroe County,NY,NA,29.397293972939732,NA,NA
14612,Monroe County,NY,NA,1.8450184501845017,NA,NA
14615,Monroe County,NY,NA,NA,36.70076726342711,NA
14616,Monroe County,NY,5.392156862745098,3.4440344403444034,NA,NA
14618,Monroe County,NY,NA,16.728167281672818,NA,NA
14620,Monroe County,NY,NA,NA,16.879795396419436,NA
14622,Monroe County,NY,NA,NA,20.076726342710998,NA
14624,Monroe County,NY,3.1862745098039214,NA,NA,NA
14701,Chautauqua County,NY,NA,NA,17.51918158567775,NA
14743,Cattaraugus County,NY,NA,99.1389913899139,NA,NA
14804,Allegany County,NY,97.30392156862744,NA,NA,NA
14845,Chemung County,NY,NA,NA,29.66751918158568,NA
14850,Tompkins County,NY,NA,NA,5.3708439897698215,NA
14895,Allegany County,NY,32.35294117647059,NA,NA,NA
27023,Forsyth County,NC,NA,70.35670356703567,NA,NA
27028,Davie County,NC,NA,NA,NA,16.49214659685864
27030,Surry County,NC,NA,NA,1.7902813299232736,NA
27043,Stokes County,NC,NA,84.25584255842558,NA,NA
27045,Forsyth County,NC,85.29411764705883,NA,NA,NA
27104,Forsyth County,NC,NA,NA,6.010230179028133,NA
27215,Alamance County,NC,NA,NA,4.475703324808184,NA
27249,Guilford County,NC,16.176470588235293,NA,NA,NA
27253,Alamance County,NC,NA,16.113161131611317,NA,NA
27262,Guilford County,NC,38.48039215686275,NA,NA,NA
27282,Guilford County,NC,NA,74.78474784747847,NA,NA
27299,Davidson County,NC,82.59803921568627,97.66297662976629,NA,NA
27325,Moore County,NC,NA,NA,NA,96.8586387434555
27330,Lee County,NC,NA,22.263222632226324,NA,NA
27377,Guilford County,NC,NA,NA,73.65728900255755,83.7696335078534
27408,Guilford County,NC,NA,NA,59.846547314578004,NA
27409,Guilford County,NC,88.97058823529412,NA,NA,NA
27501,Harnett County,NC,NA,52.89052890528906,NA,68.32460732984293
27511,Wake County,NC,NA,NA,NA,35.602094240837694
27519,Wake County,NC,NA,NA,86.70076726342711,NA
27530,Wayne County,NC,NA,NA,NA,28.79581151832461
27537,Vance County,NC,NA,34.809348093480935,NA,NA
27539,Wake County,NC,NA,60.76260762607626,NA,NA
27545,Wake County,NC,85.04901960784314,NA,NA,NA
27577,Johnston County,NC,54.65686274509803,NA,NA,NA
27587,Wake County,NC,18.872549019607842,NA,NA,NA
27591,Wake County,NC,NA,58.17958179581796,NA,NA
27596,Franklin County,NC,NA,66.54366543665436,NA,NA
27597,Wake County,NC,NA,50.184501845018445,NA,NA
27603,Wake County,NC,NA,21.894218942189422,27.10997442455243,NA
27608,Wake County,NC,87.00980392156863,NA,NA,NA
27614,Wake County,NC,NA,NA,41.048593350383634,NA
27616,Wake County,NC,NA,20.17220172201722,NA,NA
27617,Wake County,NC,NA,NA,77.8772378516624,NA
27705,Durham County,NC,NA,21.40221402214022,NA,NA
27707,Durham County,NC,NA,NA,7.544757033248081,NA
27713,Durham County,NC,NA,23.739237392373923,NA,14.921465968586386
27801,Edgecombe County,NC,NA,39.48339483394834,NA,NA
27803,Nash County,NC,NA,NA,50.25575447570333,NA
27823,Halifax County,NC,86.02941176470588,NA,NA,NA
27846,Martin County,NC,NA,NA,98.72122762148338,NA
27870,Halifax County,NC,NA,22.75522755227552,NA,NA
27886,Edgecombe County,NC,NA,35.54735547355474,NA,NA
27893,Wilson County,NC,NA,14.514145141451415,NA,33.50785340314136
27944,Perquimans County,NC,NA,NA,56.13810741687979,NA
27954,Dare County,NC,NA,NA,87.85166240409207,NA
27983,Bertie County,NC,NA,NA,65.98465473145781,NA
28034,Gaston County,NC,NA,44.40344403444034,NA,NA
28037,Lincoln County,NC,NA,94.0959409594096,55.49872122762148,NA
28054,Gaston County,NC,NA,18.57318573185732,NA,NA
28114,Rutherford County,NC,NA,95.5719557195572,NA,NA
28115,Iredell County,NC,31.127450980392158,20.66420664206642,NA,NA
28147,Rowan County,NC,NA,NA,53.96419437340153,NA
28216,Mecklenburg County,NC,NA,10.08610086100861,NA,NA
28227,Mecklenburg County,NC,57.59803921568627,NA,NA,NA
28270,Mecklenburg County,NC,NA,NA,81.58567774936061,NA
28305,Cumberland County,NC,NA,NA,85.16624040920716,NA
28306,Bladen County,NC,NA,NA,NA,40.83769633507853
28312,Cumberland County,NC,NA,65.55965559655597,NA,NA
28360,Robeson County,NC,NA,78.10578105781057,NA,NA
28366,Sampson County,NC,NA,NA,92.58312020460357,NA
28377,Robeson County,NC,NA,NA,91.04859335038363,NA
28390,Harnett County,NC,NA,NA,NA,89.79057591623037
28405,New Hanover County,NC,NA,69.00369003690037,33.887468030690535,NA
28429,New Hanover County,NC,NA,82.90282902829028,NA,NA
28445,Onslow County,NC,NA,NA,NA,98.95287958115183
28458,Duplin County,NC,NA,NA,88.1074168797954,NA
28461,Brunswick County,NC,NA,NA,NA,13.612565445026178
28469,Brunswick County,NC,NA,NA,95.2685421994885,NA
28504,Lenoir County,NC,NA,45.38745387453875,NA,NA
28518,Duplin County,NC,NA,NA,89.00255754475704,NA
28546,Onslow County,NC,NA,NA,53.32480818414322,NA
28555,Onslow County,NC,NA,NA,94.24552429667519,NA
28557,Carteret County,NC,NA,NA,79.02813299232737,NA
28560,Craven County,NC,19.362745098039216,NA,NA,NA
28562,Craven County,NC,NA,39.97539975399754,NA,NA
28601,Catawba County,NC,NA,13.653136531365314,8.567774936061381,17.015706806282722
28602,Catawba County,NC,NA,NA,46.41943734015345,NA
28610,Catawba County,NC,NA,82.04182041820418,NA,NA
28658,Catawba County,NC,NA,NA,46.547314578005114,NA
28673,Catawba County,NC,NA,NA,92.07161125319693,NA
28697,Wilkes County,NC,65.19607843137256,NA,NA,NA
28714,Yancey County,NC,NA,69.24969249692496,NA,NA
28719,Jackson County,NC,45.588235294117645,NA,NA,90.31413612565446
28734,Macon County,NC,NA,16.851168511685117,NA,NA
28748,Buncombe County,NC,NA,62.60762607626076,NA,NA
28752,McDowell County,NC,NA,15.252152521525215,14.83375959079284,NA
58072,Barnes County,ND,NA,NA,95.39641943734016,NA
58103,Cass County,ND,1.9607843137254901,7.134071340713407,NA,2.356020942408377
58104,Cass County,ND,NA,NA,NA,2.8795811518324608
43015,Delaware County,OH,NA,NA,6.3938618925831205,NA
43017,Franklin County,OH,NA,NA,NA,33.7696335078534
43050,Knox County,OH,NA,7.380073800738007,NA,NA
43065,Delaware County,OH,NA,NA,30.30690537084399,NA
43081,Franklin County,OH,NA,NA,10.230179028132993,NA
43110,Franklin County,OH,NA,NA,10.10230179028133,NA
43147,Fairfield County,OH,NA,23.739237392373923,27.621483375959077,NA
43221,Franklin County,OH,55.14705882352941,NA,NA,NA
43223,Franklin County,OH,NA,5.781057810578106,NA,NA
43229,Franklin County,OH,NA,NA,8.184143222506394,NA
43230,Franklin County,OH,NA,NA,15.089514066496163,NA
43302,Marion County,OH,NA,1.968019680196802,NA,NA
43357,Logan County,OH,NA,97.90897908979089,NA,NA
43402,Wood County,OH,NA,20.78720787207872,NA,NA
43512,Defiance County,OH,NA,NA,55.1150895140665,NA
43545,Henry County,OH,NA,NA,NA,59.947643979057595
43605,Lucas County,OH,NA,NA,NA,57.32984293193717
43608,Lucas County,OH,NA,8.61008610086101,NA,NA
43614,Lucas County,OH,73.77450980392157,NA,NA,NA
43615,Lucas County,OH,5.88235294117647,NA,NA,NA
43616,Lucas County,OH,NA,12.300123001230013,NA,NA
43938,Jefferson County,OH,NA,51.66051660516605,NA,NA
44004,Ashtabula County,OH,1.4705882352941175,NA,NA,NA
44012,Lorain County,OH,NA,NA,38.61892583120204,NA
44023,Geauga County,OH,NA,NA,49.48849104859335,NA
44035,Lorain County,OH,33.33333333333333,NA,NA,NA
44072,Geauga County,OH,NA,NA,89.64194373401536,NA
44092,Lake County,OH,NA,NA,NA,8.37696335078534
44108,Cuyahoga County,OH,NA,NA,NA,14.397905759162304
44109,Cuyahoga County,OH,0.9803921568627451,5.289052890528905,NA,NA
44119,Cuyahoga County,OH,NA,19.557195571955717,NA,NA
44120,Cuyahoga County,OH,12.254901960784313,NA,NA,NA
44121,Cuyahoga County,OH,NA,NA,12.915601023017903,NA
44129,Cuyahoga County,OH,NA,14.268142681426815,NA,NA
44130,Cuyahoga County,OH,NA,NA,1.4066496163682864,NA
44135,Cuyahoga County,OH,NA,3.075030750307503,NA,NA
44140,Cuyahoga County,OH,NA,NA,32.48081841432225,NA
44203,Summit County,OH,NA,6.027060270602706,NA,NA
44230,Wayne County,OH,67.40196078431373,NA,NA,NA
44256,Medina County,OH,NA,NA,NA,2.094240837696335
44471,Mahoning County,OH,NA,54.858548585485856,NA,NA
44507,Mahoning County,OH,NA,52.02952029520295,NA,NA
44512,Mahoning County,OH,NA,10.57810578105781,NA,NA
44646,Stark County,OH,NA,9.71709717097171,NA,NA
44657,Stark County,OH,NA,83.02583025830258,NA,NA
44691,Wayne County,OH,NA,7.7490774907749085,4.731457800511509,NA
44721,Stark County,OH,NA,NA,NA,74.86910994764398
44805,Ashland County,OH,NA,12.423124231242312,NA,NA
44903,Richland County,OH,NA,17.712177121771216,NA,NA
45013,Butler County,OH,NA,NA,NA,4.450261780104712
45030,Hamilton County,OH,NA,55.84255842558426,NA,NA
45040,Warren County,OH,NA,NA,87.59590792838875,NA
45044,Butler County,OH,NA,NA,13.554987212276215,NA
45069,Butler County,OH,NA,NA,19.053708439897697,NA
45102,Clermont County,OH,NA,35.30135301353013,NA,NA
45133,Highland County,OH,NA,NA,61.38107416879796,NA
45176,Clermont County,OH,NA,67.40467404674047,NA,NA
45202,Hamilton County,OH,NA,19.06519065190652,NA,NA
45205,Hamilton County,OH,NA,21.40221402214022,NA,NA
45211,Hamilton County,OH,NA,NA,32.608695652173914,NA
45233,Hamilton County,OH,NA,NA,NA,39.26701570680628
45238,Hamilton County,OH,NA,13.038130381303814,NA,NA
45239,Hamilton County,OH,NA,16.359163591635916,NA,NA
45240,Hamilton County,OH,9.068627450980392,NA,NA,NA
45247,Hamilton County,OH,60.29411764705882,NA,NA,NA
45251,Hamilton County,OH,NA,NA,NA,43.455497382198956
45309,Montgomery County,OH,NA,NA,NA,44.76439790575916
45311,Preble County,OH,NA,NA,93.22250639386189,NA
45342,Montgomery County,OH,NA,10.947109471094711,NA,NA
45344,Clark County,OH,NA,59.040590405904055,NA,NA
45356,Miami County,OH,3.431372549019608,NA,NA,NA
45365,Shelby County,OH,NA,11.562115621156211,14.705882352941178,NA
45373,Miami County,OH,NA,NA,12.65984654731458,NA
45383,Miami County,OH,NA,NA,94.8849104859335,NA
45385,Greene County,OH,NA,NA,NA,7.068062827225131
45403,Montgomery County,OH,NA,NA,82.09718670076727,NA
45432,Greene County,OH,NA,71.58671586715867,NA,NA
45439,Montgomery County,OH,NA,51.291512915129154,NA,NA
45458,Montgomery County,OH,NA,NA,12.531969309462914,NA
45638,Lawrence County,OH,NA,NA,66.36828644501279,NA
45651,Vinton County,OH,NA,NA,61.76470588235294,NA
45750,Washington County,OH,NA,NA,0.8951406649616368,NA
45804,Allen County,OH,NA,11.31611316113161,NA,19.895287958115183
45806,Allen County,OH,NA,NA,NA,58.1151832460733
45840,Hancock County,OH,NA,2.4600246002460024,NA,NA
45891,Van Wert County,OH,NA,NA,NA,30.104712041884817
73012,Oklahoma County,OK,NA,NA,NA,58.63874345549738
73018,Grady County,OK,NA,46.494464944649444,NA,NA
73020,Oklahoma County,OK,NA,NA,28.005115089514064,NA
73026,Cleveland County,OK,NA,NA,79.15601023017904,NA
73044,Logan County,OK,25.245098039215684,NA,NA,NA
73072,Cleveland County,OK,NA,27.552275522755227,28.77237851662404,36.12565445026178
73086,Murray County,OK,79.41176470588235,NA,NA,NA
73099,Canadian County,OK,NA,NA,5.88235294117647,16.75392670157068
73119,Oklahoma County,OK,NA,NA,NA,71.72774869109948
73160,Cleveland County,OK,NA,NA,4.219948849104859,NA
73162,Oklahoma County,OK,NA,NA,18.542199488491047,17.801047120418847
73170,Cleveland County,OK,NA,NA,15.856777493606138,NA
73401,Carter County,OK,NA,12.792127921279212,NA,NA
73460,Johnston County,OK,NA,NA,71.22762148337596,NA
73507,Comanche County,OK,NA,NA,32.864450127877234,NA
73644,Beckham County,OK,NA,NA,NA,79.05759162303664
73651,Kiowa County,OK,NA,NA,95.01278772378517,NA
74006,Washington County,OK,NA,55.47355473554736,NA,NA
74010,Creek County,OK,59.068627450980394,NA,NA,NA
74011,Tulsa County,OK,NA,NA,51.150895140664964,NA
74017,Rogers County,OK,NA,74.29274292742927,NA,NA
74105,Tulsa County,OK,69.85294117647058,NA,NA,NA
74128,Tulsa County,OK,70.83333333333334,NA,NA,NA
74133,Tulsa County,OK,NA,NA,NA,8.900523560209423
74136,Tulsa County,OK,NA,NA,50.51150895140665,NA
74145,Tulsa County,OK,44.85294117647059,NA,NA,NA
74467,Wagoner County,OK,NA,NA,62.02046035805626,NA
74604,Kay County,OK,87.00980392156863,NA,65.72890025575447,NA
74804,Pottawatomie County,OK,NA,92.3739237392374,NA,NA
74864,Lincoln County,OK,NA,NA,NA,76.43979057591623
97034,Clackamas County,OR,NA,82.28782287822878,NA,NA
97045,Clackamas County,OR,NA,14.022140221402212,11.253196930946292,NA
97068,Clackamas County,OR,NA,NA,62.40409207161125,NA
97080,Multnomah County,OR,40.19607843137255,NA,NA,NA
97086,Clackamas County,OR,NA,53.75153751537516,NA,NA
97141,Tillamook County,OR,NA,65.31365313653137,NA,NA
97211,Multnomah County,OR,NA,NA,58.05626598465473,NA
97212,Multnomah County,OR,NA,NA,77.36572890025576,NA
97219,Multnomah County,OR,NA,61.50061500615006,NA,NA
97232,Multnomah County,OR,NA,NA,84.91048593350384,NA
97236,Multnomah County,OR,75.98039215686273,NA,NA,NA
97266,Multnomah County,OR,NA,31.857318573185733,NA,NA
97267,Clackamas County,OR,NA,NA,NA,18.32460732984293
97305,Marion County,OR,NA,NA,54.47570332480819,NA
97317,Marion County,OR,48.529411764705884,NA,NA,NA
97321,Linn County,OR,NA,NA,25.44757033248082,NA
97322,Linn County,OR,52.20588235294118,NA,NA,NA
97355,Linn County,OR,NA,NA,5.242966751918159,NA
97361,Polk County,OR,NA,81.79581795817958,NA,NA
97386,Linn County,OR,NA,48.954489544895445,NA,NA
97408,Lane County,OR,NA,NA,96.9309462915601,NA
97415,Curry County,OR,93.62745098039215,NA,NA,NA
97423,Coos County,OR,NA,NA,80.05115089514067,NA
97424,Lane County,OR,NA,NA,NA,36.64921465968586
97470,Douglas County,OR,80.63725490196079,NA,NA,NA
97478,Lane County,OR,NA,37.76137761377613,NA,NA
97501,Jackson County,OR,73.2843137254902,NA,NA,NA
97504,Jackson County,OR,NA,NA,NA,25.654450261780106
97526,Josephine County,OR,NA,NA,NA,47.64397905759162
97701,Deschutes County,OR,NA,63.09963099630996,NA,NA
97702,Deschutes County,OR,68.13725490196079,NA,NA,NA
15010,Beaver County,PA,NA,20.54120541205412,NA,NA
15071,Allegheny County,PA,59.31372549019608,NA,NA,NA
15090,Allegheny County,PA,47.05882352941176,NA,NA,NA
15104,Allegheny County,PA,NA,NA,87.21227621483376,NA
15112,Allegheny County,PA,NA,99.3849938499385,NA,NA
15129,Allegheny County,PA,NA,NA,82.35294117647058,NA
15143,Allegheny County,PA,NA,NA,50.767263427109974,NA
15212,Allegheny County,PA,NA,23.985239852398525,NA,NA
15216,Allegheny County,PA,NA,NA,57.289002557544755,NA
15217,Allegheny County,PA,NA,NA,23.017902813299234,19.63350785340314
15222,Allegheny County,PA,NA,86.10086100861008,NA,NA
15239,Allegheny County,PA,NA,83.14883148831488,NA,NA
15301,Washington County,PA,NA,NA,4.603580562659847,NA
15401,Fayette County,PA,NA,NA,4.859335038363171,NA
15601,Westmoreland County,PA,NA,19.68019680196802,1.5345268542199488,NA
15644,Westmoreland County,PA,NA,NA,37.72378516624041,11.780104712041885
15701,Indiana County,PA,NA,NA,NA,11.518324607329843
15714,Cambria County,PA,NA,80.19680196801968,NA,NA
15767,Jefferson County,PA,NA,27.79827798277983,NA,NA
15834,Cameron County,PA,NA,68.26568265682657,NA,NA
15857,Elk County,PA,NA,NA,8.951406649616368,NA
15902,Cambria County,PA,NA,NA,NA,72.5130890052356
15963,Somerset County,PA,NA,NA,61.125319693094625,NA
16001,Butler County,PA,NA,NA,NA,3.1413612565445024
16053,Butler County,PA,NA,NA,NA,90.57591623036649
16323,Venango County,PA,56.372549019607845,NA,NA,NA
16504,Erie County,PA,62.00980392156863,NA,NA,NA
16602,Blair County,PA,NA,12.669126691266912,NA,NA
16801,Centre County,PA,39.705882352941174,NA,NA,NA
16823,Centre County,PA,NA,NA,16.624040920716112,NA
16827,Centre County,PA,NA,NA,90.66496163682865,NA
16830,Clearfield County,PA,NA,28.53628536285363,NA,NA
16858,Clearfield County,PA,96.56862745098039,NA,NA,NA
16915,Potter County,PA,NA,83.14883148831488,NA,NA
17013,Cumberland County,PA,NA,NA,16.496163682864452,NA
17042,Lebanon County,PA,NA,42.435424354243544,NA,NA
17055,Cumberland County,PA,NA,NA,NA,37.43455497382199
17104,Dauphin County,PA,15.686274509803921,NA,42.327365728900254,NA
17111,Dauphin County,PA,NA,67.28167281672816,NA,NA
17112,Dauphin County,PA,NA,NA,NA,10.471204188481675
17202,Franklin County,PA,NA,27.429274292742928,NA,NA
17268,Franklin County,PA,NA,17.343173431734318,NA,NA
17315,York County,PA,NA,27.30627306273063,NA,NA
17316,Adams County,PA,NA,74.16974169741697,NA,NA
17331,York County,PA,6.61764705882353,NA,NA,NA
17345,York County,PA,NA,70.97170971709717,NA,NA
17350,Adams County,PA,57.107843137254896,NA,NA,NA
17363,York County,PA,NA,80.56580565805658,NA,NA
17370,York County,PA,NA,90.6519065190652,NA,NA
17403,York County,PA,NA,NA,NA,15.706806282722512
17563,Lancaster County,PA,NA,100,NA,NA
17701,Lycoming County,PA,NA,5.043050430504305,NA,5.7591623036649215
17754,Lycoming County,PA,90.68627450980392,NA,81.71355498721228,27.225130890052355
17815,Columbia County,PA,NA,NA,NA,12.30366492146597
17821,Montour County,PA,28.186274509803923,25.338253382533825,NA,NA
17866,Northumberland County,PA,NA,NA,65.47314578005115,NA
17921,Schuylkill County,PA,83.57843137254902,NA,NA,NA
17963,Schuylkill County,PA,NA,NA,NA,88.48167539267016
18017,Northampton County,PA,NA,NA,26.342710997442452,NA
18031,Lehigh County,PA,NA,77.73677736777368,NA,NA
18045,Northampton County,PA,NA,NA,NA,7.853403141361256
18052,Lehigh County,PA,NA,NA,37.212276214833764,NA
18067,Northampton County,PA,NA,NA,30.946291560102303,NA
18069,Lehigh County,PA,NA,NA,90.02557544757033,NA
18071,Carbon County,PA,NA,51.16851168511685,NA,52.09424083769634
18104,Lehigh County,PA,NA,NA,3.9641943734015346,3.4031413612565444
18202,Luzerne County,PA,NA,47.724477244772444,NA,NA
18330,Monroe County,PA,NA,NA,95.9079283887468,NA
18403,Lackawanna County,PA,NA,84.74784747847478,NA,NA
18434,Lackawanna County,PA,NA,97.41697416974169,NA,NA
18603,Columbia County,PA,NA,13.161131611316112,NA,NA
18702,Luzerne County,PA,NA,NA,NA,6.544502617801047
18705,Luzerne County,PA,NA,53.25953259532595,NA,NA
18840,Bradford County,PA,NA,NA,NA,84.81675392670157
18925,Bucks County,PA,NA,97.539975399754,NA,NA
18929,Bucks County,PA,NA,NA,83.63171355498721,NA
18944,Bucks County,PA,NA,NA,50.63938618925832,NA
18951,Bucks County,PA,NA,NA,18.15856777493606,25.916230366492147
18969,Montgomery County,PA,NA,NA,96.16368286445012,NA
18974,Bucks County,PA,NA,NA,11.508951406649617,NA
18977,Bucks County,PA,NA,NA,NA,86.91099476439791
19002,Montgomery County,PA,NA,NA,23.785166240409207,NA
19008,Delaware County,PA,NA,NA,41.94373401534527,NA
19013,Delaware County,PA,16.176470588235293,NA,NA,NA
19018,Delaware County,PA,32.84313725490196,NA,NA,NA
19020,Bucks County,PA,NA,8.241082410824108,8.695652173913043,NA
19026,Delaware County,PA,NA,NA,36.95652173913043,NA
19038,Montgomery County,PA,61.274509803921575,NA,NA,NA
19050,Delaware County,PA,NA,28.16728167281673,14.322250639386189,NA
19057,Bucks County,PA,NA,66.17466174661747,NA,NA
19063,Delaware County,PA,NA,21.033210332103323,12.020460358056265,NA
19073,Delaware County,PA,NA,NA,39.00255754475703,NA
19116,Philadelphia County,PA,NA,NA,NA,23.56020942408377
19120,Philadelphia County,PA,NA,3.198031980319803,NA,NA
19125,Philadelphia County,PA,NA,77.49077490774908,NA,NA
19126,Philadelphia County,PA,50,NA,NA,NA
19131,Philadelphia County,PA,NA,5.904059040590406,NA,NA
19136,Philadelphia County,PA,28.186274509803923,NA,NA,NA
19139,Philadelphia County,PA,NA,4.428044280442804,NA,NA
19142,Philadelphia County,PA,NA,41.57441574415744,NA,NA
19146,Philadelphia County,PA,NA,15.867158671586715,NA,NA
19147,Philadelphia County,PA,NA,96.30996309963099,NA,NA
19149,Philadelphia County,PA,NA,7.2570725707257075,NA,NA
19151,Philadelphia County,PA,NA,43.542435424354245,NA,NA
19154,Philadelphia County,PA,NA,NA,18.925831202046037,NA
19311,Chester County,PA,NA,94.58794587945879,NA,NA
19320,Chester County,PA,NA,NA,13.043478260869565,NA
19341,Chester County,PA,NA,73.55473554735548,NA,56.02094240837696
19380,Chester County,PA,7.8431372549019605,NA,NA,NA
19401,Montgomery County,PA,NA,NA,NA,36.12565445026178
19428,Montgomery County,PA,NA,NA,NA,77.74869109947645
19454,Montgomery County,PA,NA,NA,NA,44.24083769633508
19460,Chester County,PA,NA,NA,NA,19.3717277486911
19462,Montgomery County,PA,NA,75.89175891758919,NA,NA
19464,Montgomery County,PA,NA,24.477244772447722,NA,NA
19465,Chester County,PA,NA,NA,NA,67.5392670157068
19468,Montgomery County,PA,58.82352941176471,NA,NA,NA
19512,Berks County,PA,52.94117647058824,NA,NA,NA
19601,Berks County,PA,NA,3.5670356703567037,NA,NA
19602,Berks County,PA,43.13725490196079,NA,NA,71.20418848167539
19605,Berks County,PA,NA,30.627306273062732,NA,NA
19608,Berks County,PA,NA,NA,NA,45.811518324607334
02825,Providence County,RI,NA,NA,NA,94.50261780104712
02840,Newport County,RI,NA,NA,31.45780051150895,NA
02852,Washington County,RI,NA,44.40344403444034,NA,NA
02893,Kent County,RI,NA,33.82533825338253,NA,NA
02906,Providence County,RI,NA,NA,49.61636828644501,NA
02911,Providence County,RI,NA,NA,62.65984654731458,NA
29016,Richland County,SC,NA,76.62976629766297,NA,NA
29053,Lexington County,SC,77.45098039215686,NA,NA,NA
29055,Chester County,SC,95.34313725490196,NA,NA,NA
29061,Richland County,SC,NA,NA,NA,95.54973821989529
29063,Richland County,SC,66.66666666666666,NA,NA,NA
29115,Orangeburg County,SC,NA,NA,36.18925831202046,NA
29130,Fairfield County,SC,NA,94.95694956949569,NA,NA
29153,Sumter County,SC,NA,NA,67.77493606138107,NA
29212,Lexington County,SC,NA,NA,48.209718670076725,NA
29307,Spartanburg County,SC,NA,63.34563345633456,NA,NA
29349,Spartanburg County,SC,NA,NA,21.611253196930946,NA
29406,Charleston County,SC,22.058823529411764,24.969249692496927,NA,NA
29418,Charleston County,SC,NA,38.86838868388684,NA,NA
29483,Dorchester County,SC,NA,NA,21.099744245524295,NA
29485,Dorchester County,SC,NA,NA,33.75959079283887,NA
29526,Horry County,SC,70.34313725490196,NA,NA,NA
29569,Horry County,SC,NA,NA,64.06649616368286,NA
29571,Marion County,SC,NA,87.33087330873309,NA,NA
29572,Horry County,SC,NA,NA,88.23529411764706,NA
29588,Horry County,SC,NA,NA,10.485933503836318,NA
29607,Greenville County,SC,NA,27.92127921279213,NA,NA
29621,Anderson County,SC,NA,NA,19.948849104859335,NA
29646,Greenwood County,SC,27.450980392156865,NA,NA,NA
29649,Greenwood County,SC,NA,66.78966789667896,NA,NA
29673,Greenville County,SC,NA,NA,19.82097186700767,NA
29687,Greenville County,SC,31.862745098039213,NA,NA,NA
29812,Barnwell County,SC,NA,NA,60.74168797953964,NA
29831,Aiken County,SC,NA,99.63099630996311,NA,NA
29906,Beaufort County,SC,NA,NA,63.42710997442455,NA
57103,Minnehaha County,SD,NA,NA,3.1969309462915603,NA
57783,Lawrence County,SD,NA,NA,48.46547314578005,NA
37042,Montgomery County,TN,16.666666666666664,NA,NA,NA
37066,Sumner County,TN,NA,NA,8.312020460358056,NA
37069,Williamson County,TN,NA,88.31488314883148,NA,NA
37167,Rutherford County,TN,NA,NA,NA,37.17277486910995
37186,Sumner County,TN,NA,NA,85.16624040920716,NA
37203,Davidson County,TN,NA,62.11562115621157,NA,NA
37206,Davidson County,TN,NA,NA,78.26086956521739,NA
37207,Davidson County,TN,13.970588235294118,NA,NA,NA
37327,Sequatchie County,TN,NA,NA,NA,86.38743455497382
37342,Coffee County,TN,NA,97.2939729397294,NA,NA
37363,Hamilton County,TN,NA,NA,46.67519181585678,NA
37379,Hamilton County,TN,NA,40.959409594095945,NA,NA
37421,Hamilton County,TN,NA,NA,30.818414322250636,NA
37601,Washington County,TN,NA,NA,50.127877237851656,NA
37604,Washington County,TN,NA,NA,21.73913043478261,NA
37721,Knox County,TN,NA,87.57687576875769,NA,NA
37748,Roane County,TN,NA,32.96432964329643,31.713554987212277,NA
37764,Sevier County,TN,NA,NA,84.91048593350384,NA
37772,Loudon County,TN,NA,NA,NA,63.35078534031413
37807,Union County,TN,NA,71.58671586715867,NA,NA
37814,Hamblen County,TN,NA,NA,28.26086956521739,NA
37841,Scott County,TN,NA,NA,87.34015345268543,NA
37849,Knox County,TN,NA,NA,55.49872122762148,NA
37854,Roane County,TN,NA,58.05658056580566,NA,NA
37862,Sevier County,TN,NA,37.14637146371464,NA,NA
37877,Hamblen County,TN,NA,NA,90.28132992327366,NA
37912,Knox County,TN,NA,29.15129151291513,NA,NA
37917,Knox County,TN,NA,16.974169741697416,NA,NA
37919,Knox County,TN,71.81372549019608,NA,NA,NA
37920,Knox County,TN,31.127450980392158,NA,NA,NA
37921,Knox County,TN,17.647058823529413,NA,NA,NA
37938,Knox County,TN,63.725490196078425,NA,NA,NA
38001,Crockett County,TN,NA,NA,95.14066496163683,NA
38008,Hardeman County,TN,NA,73.80073800738008,NA,NA
38053,Shelby County,TN,NA,NA,NA,30.89005235602094
38106,Shelby County,TN,NA,NA,46.16368286445013,NA
38115,Shelby County,TN,NA,NA,64.19437340153452,NA
38118,Shelby County,TN,NA,18.081180811808117,NA,NA
38138,Shelby County,TN,NA,86.71586715867159,79.28388746803068,46.596858638743456
38141,Shelby County,TN,NA,47.84747847478475,NA,NA
38230,Weakley County,TN,NA,98.6469864698647,NA,NA
38261,Obion County,TN,NA,NA,73.1457800511509,NA
38301,Madison County,TN,NA,NA,NA,38.21989528795812
38320,Benton County,TN,NA,90.159901599016,NA,NA
38372,Hardin County,TN,NA,NA,NA,39.52879581151832
38382,Gibson County,TN,NA,NA,83.75959079283888,NA
38401,Maury County,TN,13.725490196078432,NA,NA,57.85340314136126
38570,Overton County,TN,NA,NA,NA,85.07853403141361
38574,Putnam County,TN,NA,79.95079950799509,NA,NA
75035,Collin County,TX,32.59803921568628,NA,NA,NA
75039,Dallas County,TX,93.38235294117648,NA,NA,NA
75040,Dallas County,TX,4.901960784313726,NA,29.923273657289002,NA
75044,Dallas County,TX,NA,NA,30.946291560102303,NA
75051,Dallas County,TX,14.950980392156863,NA,NA,NA
75067,Denton County,TX,15.931372549019606,NA,NA,NA
75070,Collin County,TX,10.784313725490197,NA,10.741687979539643,NA
75080,Dallas County,TX,NA,59.53259532595327,NA,NA
75089,Dallas County,TX,62.00980392156863,NA,NA,NA
75092,Grayson County,TX,62.99019607843137,NA,NA,NA
75093,Collin County,TX,28.921568627450984,NA,NA,NA
75098,Collin County,TX,NA,55.71955719557196,NA,NA
75104,Dallas County,TX,NA,23.370233702337025,NA,NA
75126,Kaufman County,TX,NA,30.996309963099634,NA,NA
75134,Dallas County,TX,82.1078431372549,NA,NA,NA
75165,Ellis County,TX,23.52941176470588,27.67527675276753,NA,NA
75204,Dallas County,TX,NA,62.11562115621157,72.50639386189258,NA
75208,Dallas County,TX,NA,63.46863468634686,NA,NA
75214,Dallas County,TX,NA,44.64944649446495,NA,NA
75231,Dallas County,TX,NA,45.75645756457565,NA,NA
75243,Dallas County,TX,NA,13.407134071340712,NA,NA
75244,Dallas County,TX,NA,NA,88.49104859335038,NA
75287,Denton County,TX,22.54901960784314,NA,NA,NA
75418,Fannin County,TX,NA,NA,74.55242966751918,NA
75501,Bowie County,TX,NA,31.365313653136536,NA,NA
75569,Bowie County,TX,NA,99.2619926199262,NA,NA
75601,Gregg County,TX,NA,NA,78.64450127877238,NA
75604,Gregg County,TX,NA,NA,NA,77.4869109947644
75647,Gregg County,TX,NA,63.960639606396064,NA,NA
75709,Smith County,TX,NA,NA,86.95652173913044,NA
75751,Henderson County,TX,NA,NA,54.987212276214834,NA
75755,Upshur County,TX,99.50980392156863,NA,NA,NA
75801,Anderson County,TX,NA,64.69864698646987,NA,NA
75803,Anderson County,TX,NA,66.54366543665436,NA,NA
75844,Houston County,TX,NA,NA,94.62915601023018,NA
75969,Angelina County,TX,NA,98.2779827798278,NA,NA
76001,Tarrant County,TX,NA,NA,94.75703324808184,NA
76009,Johnson County,TX,NA,64.08364083640836,NA,NA
76011,Tarrant County,TX,NA,55.104551045510455,64.70588235294117,NA
76013,Tarrant County,TX,NA,NA,NA,26.439790575916227
76016,Tarrant County,TX,NA,NA,NA,33.246073298429316
76020,Tarrant County,TX,NA,NA,31.202046035805626,NA
76022,Tarrant County,TX,59.31372549019608,NA,NA,NA
76028,Johnson County,TX,NA,NA,NA,10.732984293193718
76031,Johnson County,TX,NA,NA,NA,92.67015706806284
76033,Johnson County,TX,NA,70.47970479704797,NA,NA
76039,Tarrant County,TX,NA,36.65436654366543,NA,NA
76049,Hood County,TX,NA,38.00738007380074,NA,NA
76085,Parker County,TX,75.24509803921569,NA,NA,NA
76086,Parker County,TX,81.86274509803921,NA,NA,NA
76087,Parker County,TX,NA,87.08487084870849,NA,NA
76114,Tarrant County,TX,NA,43.29643296432965,59.33503836317136,NA
76119,Tarrant County,TX,2.696078431372549,NA,NA,NA
76123,Tarrant County,TX,NA,47.601476014760145,NA,NA
76140,Tarrant County,TX,NA,NA,NA,72.5130890052356
76207,Denton County,TX,NA,80.56580565805658,NA,NA
76248,Tarrant County,TX,NA,NA,48.9769820971867,NA
76252,Cooke County,TX,99.26470588235294,NA,NA,NA
76262,Denton County,TX,NA,45.87945879458795,NA,NA
76401,Erath County,TX,NA,63.59163591635917,NA,NA
76437,Eastland County,TX,90.93137254901961,NA,NA,NA
76504,Bell County,TX,NA,NA,2.3017902813299234,NA
76541,Bell County,TX,NA,45.87945879458795,NA,NA
76643,McLennan County,TX,NA,NA,67.0076726342711,NA
76667,Limestone County,TX,NA,58.794587945879464,NA,NA
76705,McLennan County,TX,20.588235294117645,NA,NA,NA
76708,McLennan County,TX,25.98039215686275,NA,NA,NA
76856,Mason County,TX,NA,NA,100,NA
77011,Harris County,TX,NA,NA,NA,64.65968586387434
77022,Harris County,TX,NA,NA,57.54475703324808,NA
77023,Harris County,TX,NA,61.254612546125465,NA,NA
77025,Harris County,TX,NA,69.86469864698647,NA,NA
77038,Harris County,TX,NA,79.58179581795818,NA,NA
77040,Harris County,TX,NA,NA,32.35294117647059,NA
77068,Harris County,TX,NA,NA,93.73401534526855,NA
77069,Harris County,TX,NA,NA,51.023017902813294,NA
77071,Harris County,TX,36.76470588235294,NA,NA,NA
77077,Harris County,TX,NA,NA,34.271099744245525,NA
77082,Harris County,TX,NA,NA,NA,59.68586387434554
77083,Harris County,TX,NA,41.69741697416974,NA,NA
77088,Harris County,TX,30.14705882352941,NA,NA,NA
77089,Harris County,TX,25.49019607843137,NA,36.828644501278774,NA
77092,Harris County,TX,NA,NA,NA,81.93717277486911
77095,Harris County,TX,NA,NA,14.066496163682865,NA
77338,Harris County,TX,NA,74.90774907749078,NA,NA
77339,Harris County,TX,NA,57.93357933579336,NA,NA
77354,Montgomery County,TX,NA,NA,NA,37.696335078534034
77355,Montgomery County,TX,NA,NA,96.41943734015345,NA
77372,Montgomery County,TX,NA,87.94587945879458,NA,NA
77379,Harris County,TX,NA,25.461254612546124,9.974424552429667,NA
77380,Montgomery County,TX,NA,NA,63.29923273657288,NA
77437,Wharton County,TX,NA,65.19065190651907,NA,NA
77447,Harris County,TX,NA,89.2988929889299,NA,NA
77494,Fort Bend County,TX,NA,17.097170971709716,NA,NA
77505,Harris County,TX,NA,66.91266912669127,NA,NA
77520,Harris County,TX,NA,NA,63.68286445012787,NA
77521,Harris County,TX,NA,NA,34.654731457800516,NA
77523,Chambers County,TX,NA,58.671586715867164,NA,NA
77531,Brazoria County,TX,NA,NA,86.44501278772378,NA
77539,Galveston County,TX,NA,19.311193111931118,NA,NA
77546,Galveston County,TX,NA,NA,11.12531969309463,NA
77571,Harris County,TX,18.137254901960784,NA,NA,NA
77587,Harris County,TX,75,NA,NA,NA
77625,Hardin County,TX,NA,81.05781057810579,NA,NA
77632,Orange County,TX,NA,NA,NA,81.67539267015707
77640,Jefferson County,TX,NA,NA,NA,64.3979057591623
77706,Jefferson County,TX,NA,48.708487084870846,NA,NA
77904,Victoria County,TX,NA,39.85239852398524,NA,NA
77954,DeWitt County,TX,NA,NA,63.9386189258312,NA
78006,Kendall County,TX,NA,NA,NA,71.98952879581152
78009,Medina County,TX,NA,NA,NA,96.07329842931938
78041,Webb County,TX,30.392156862745097,NA,NA,NA
78045,Webb County,TX,NA,23.493234932349324,NA,NA
78046,Webb County,TX,NA,15.006150061500614,NA,NA
78070,Comal County,TX,NA,NA,87.0843989769821,NA
78073,Bexar County,TX,NA,95.6949569495695,NA,NA
78102,Bee County,TX,NA,NA,76.59846547314578,NA
78130,Comal County,TX,NA,22.63222632226322,NA,NA
78132,Comal County,TX,NA,NA,NA,82.19895287958116
78201,Bexar County,TX,NA,NA,21.994884910485936,42.93193717277487
78209,Bexar County,TX,NA,NA,NA,42.93193717277487
78210,Bexar County,TX,NA,24.723247232472325,56.649616368286445,NA
78214,Bexar County,TX,NA,NA,70.33248081841433,NA
78217,Bexar County,TX,NA,69.37269372693727,NA,NA
78224,Bexar County,TX,43.627450980392155,NA,NA,NA
78227,Bexar County,TX,NA,35.79335793357934,NA,NA
78230,Bexar County,TX,NA,NA,62.9156010230179,NA
78245,Bexar County,TX,NA,NA,55.24296675191815,NA
78249,Bexar County,TX,NA,60.39360393603936,NA,NA
78251,Bexar County,TX,49.26470588235294,NA,82.35294117647058,NA
78254,Bexar County,TX,20.098039215686274,NA,NA,NA
78260,Bexar County,TX,NA,81.91881918819189,NA,NA
78415,Nueces County,TX,NA,NA,55.88235294117647,NA
78418,Nueces County,TX,NA,NA,NA,73.29842931937172
78550,Cameron County,TX,NA,NA,43.98976982097187,NA
78572,Hidalgo County,TX,NA,18.327183271832716,NA,5.2356020942408374
78577,Hidalgo County,TX,NA,NA,NA,9.68586387434555
78610,Hays County,TX,NA,NA,76.47058823529412,NA
78611,Burnet County,TX,75.49019607843137,NA,NA,NA
78628,Williamson County,TX,49.01960784313725,NA,NA,NA
78640,Hays County,TX,NA,42.189421894218945,NA,NA
78660,Travis County,TX,NA,NA,36.95652173913043,NA
78665,Williamson County,TX,NA,NA,30.434782608695656,NA
78666,Hays County,TX,NA,26.691266912669125,NA,NA
78731,Travis County,TX,NA,NA,90.53708439897699,NA
78734,Travis County,TX,NA,92.619926199262,NA,NA
78735,Travis County,TX,91.42156862745098,NA,NA,NA
78736,Travis County,TX,NA,NA,99.23273657289002,NA
78749,Travis County,TX,NA,NA,85.54987212276215,NA
78945,Fayette County,TX,NA,NA,86.06138107416879,NA
79107,Potter County,TX,43.872549019607845,NA,NA,NA
79412,Lubbock County,TX,80.88235294117648,NA,NA,NA
79424,Lubbock County,TX,NA,NA,9.335038363171355,NA
79705,Midland County,TX,NA,NA,37.851662404092075,NA
79907,El Paso County,TX,28.676470588235293,NA,NA,NA
84003,Utah County,UT,NA,43.788437884378844,NA,NA
84041,Davis County,UT,19.607843137254903,35.916359163591636,NA,NA
84043,Utah County,UT,NA,45.141451414514144,NA,NA
84054,Davis County,UT,NA,NA,NA,88.7434554973822
84057,Utah County,UT,NA,68.38868388683886,NA,NA
84104,Salt Lake County,UT,NA,47.35547355473555,NA,NA
84106,Salt Lake County,UT,NA,34.07134071340713,NA,NA
84121,Salt Lake County,UT,NA,NA,NA,17.277486910994764
84335,Cache County,UT,NA,91.88191881918819,NA,NA
84403,Weber County,UT,NA,NA,68.92583120204604,NA
84501,Carbon County,UT,NA,64.45264452644527,NA,NA
84663,Utah County,UT,NA,73.67773677736777,NA,NA
05156,Windsor County,VT,NA,NA,NA,61.78010471204188
05201,Bennington County,VT,NA,47.97047970479705,24.168797953964194,NA
05404,Chittenden County,VT,NA,NA,98.20971867007673,NA
05482,Chittenden County,VT,NA,NA,87.97953964194375,NA
05602,Washington County,VT,NA,NA,NA,51.30890052356021
05701,Rutland County,VT,NA,38.13038130381304,NA,NA
20120,Fairfax County,VA,NA,NA,79.66751918158567,NA
20121,Fairfax County,VA,66.66666666666666,NA,NA,NA
20132,Loudoun County,VA,NA,90.7749077490775,NA,NA
20165,Loudoun County,VA,53.431372549019606,NA,NA,NA
20170,Fairfax County,VA,NA,NA,NA,91.36125654450262
20190,Fairfax County,VA,NA,84.00984009840099,NA,NA
22003,Fairfax County,VA,NA,NA,27.493606138107417,NA
22042,Fairfax County,VA,NA,51.66051660516605,NA,NA
22150,Fairfax County,VA,NA,NA,NA,23.298429319371728
22191,Prince William County,VA,7.598039215686274,NA,NA,NA
22303,Fairfax County,VA,65.19607843137256,NA,NA,NA
22304,Alexandria city,VA,NA,88.68388683886839,NA,NA
22309,Fairfax County,VA,NA,NA,NA,61.518324607329845
22406,Stafford County,VA,72.30392156862744,NA,NA,NA
22443,Westmoreland County,VA,NA,99.50799507995079,NA,NA
22630,Warren County,VA,NA,NA,38.36317135549872,NA
22657,Shenandoah County,VA,NA,NA,93.47826086956522,NA
22801,Harrisonburg city,VA,44.85294117647059,NA,NA,20.680628272251308
22968,Greene County,VA,NA,64.08364083640836,NA,NA
22980,Waynesboro city,VA,NA,NA,3.580562659846547,NA
23060,Henrico County,VA,NA,63.714637146371466,NA,NA
23072,Gloucester County,VA,NA,NA,76.21483375959079,NA
23075,Henrico County,VA,55.63725490196079,NA,NA,NA
23103,Goochland County,VA,84.80392156862744,NA,NA,NA
23139,Powhatan County,VA,NA,NA,52.55754475703325,NA
23185,James City County,VA,NA,NA,NA,0.2617801047120419
23222,Richmond city,VA,NA,17.22017220172202,NA,NA
23231,Henrico County,VA,31.862745098039213,NA,NA,NA
23235,Chesterfield County,VA,NA,54.61254612546126,NA,NA
23294,Henrico County,VA,NA,NA,NA,86.91099476439791
23321,Chesapeake city,VA,NA,48.09348093480935,NA,NA
23322,Chesapeake city,VA,NA,54.73554735547356,NA,NA
23325,Chesapeake city,VA,NA,NA,NA,46.8586387434555
23435,Suffolk city,VA,NA,48.46248462484625,39.25831202046036,NA
23505,Norfolk city,VA,NA,NA,35.16624040920716,NA
23508,Norfolk city,VA,NA,74.66174661746618,NA,NA
23601,Newport News city,VA,NA,59.40959409594095,NA,NA
23602,Newport News city,VA,NA,NA,29.66751918158568,NA
23605,Newport News city,VA,NA,NA,NA,84.03141361256544
23606,Newport News city,VA,58.333333333333336,NA,NA,NA
23662,Poquoson city,VA,NA,96.8019680196802,NA,NA
23666,Hampton city,VA,NA,NA,10.61381074168798,NA
23890,Sussex County,VA,NA,NA,NA,97.38219895287958
23950,Mecklenburg County,VA,100,NA,NA,NA
24211,Washington County,VA,NA,NA,NA,70.15706806282722
24401,Staunton city,VA,NA,NA,6.7774936061381075,NA
24590,Albemarle County,VA,NA,NA,NA,87.95811518324608
98003,King County,WA,NA,NA,22.506393861892583,24.60732984293194
98005,King County,WA,NA,NA,NA,53.66492146596858
98006,King County,WA,NA,NA,NA,55.497382198952884
98021,Snohomish County,WA,55.63725490196079,NA,NA,NA
98027,King County,WA,NA,NA,48.08184143222506,NA
98030,King County,WA,NA,25.584255842558424,NA,NA
98032,King County,WA,NA,NA,NA,65.44502617801047
98038,King County,WA,NA,32.84132841328413,41.687979539641944,NA
98042,King County,WA,NA,NA,48.59335038363171,NA
98053,King County,WA,NA,75.52275522755227,NA,NA
98058,King County,WA,NA,NA,23.145780051150894,NA
98087,Snohomish County,WA,NA,75.76875768757687,NA,NA
98101,King County,WA,NA,NA,NA,36.910994764397905
98103,King County,WA,NA,47.23247232472325,NA,NA
98115,King County,WA,67.64705882352942,NA,NA,NA
98133,King County,WA,NA,NA,NA,9.162303664921465
98208,Snohomish County,WA,NA,54.24354243542435,NA,NA
98272,Snohomish County,WA,NA,58.54858548585485,NA,NA
98284,Skagit County,WA,NA,NA,NA,16.230366492146597
98290,Snohomish County,WA,NA,42.68142681426814,NA,NA
98312,Kitsap County,WA,NA,38.37638376383764,NA,NA
97003,NA,NA,81.37254901960785,NA,NA,NA
98375,Pierce County,WA,NA,NA,81.07416879795396,NA
98404,Pierce County,WA,NA,32.349323493234934,NA,79.58115183246073
98422,Pierce County,WA,NA,NA,70.076726342711,NA
98528,Mason County,WA,NA,NA,86.31713554987212,NA
98612,Wahkiakum County,WA,NA,NA,95.65217391304348,NA
98620,Klickitat County,WA,NA,77.98277982779828,NA,NA
98631,Pacific County,WA,NA,NA,NA,97.12041884816755
98632,Cowlitz County,WA,NA,18.45018450184502,NA,NA
98802,Douglas County,WA,NA,50.67650676506765,NA,NA
98815,Chelan County,WA,NA,87.4538745387454,NA,NA
99114,Stevens County,WA,NA,80.19680196801968,NA,NA
99324,Walla Walla County,WA,NA,NA,84.01534526854219,NA
99352,Benton County,WA,NA,41.20541205412054,NA,NA
20003,District of Columbia,DC,NA,49.938499384993854,NA,NA
20005,District of Columbia,DC,NA,NA,86.44501278772378,NA
20009,District of Columbia,DC,NA,NA,NA,76.70157068062828
20011,District of Columbia,DC,NA,32.10332103321033,14.578005115089516,NA
20020,District of Columbia,DC,6.862745098039216,2.091020910209102,NA,NA
25309,Kanawha County,WV,NA,NA,58.567774936061376,NA
25403,Berkeley County,WV,NA,NA,72.89002557544757,NA
25506,Lincoln County,WV,NA,90.52890528905289,NA,NA
25514,Wayne County,WV,NA,92.49692496924969,NA,NA
25701,Cabell County,WV,61.51960784313726,NA,16.240409207161125,NA
25801,Raleigh County,WV,17.401960784313726,NA,NA,8.115183246073299
26501,Monongalia County,WV,NA,17.466174661746617,NA,NA
26505,Monongalia County,WV,NA,10.209102091020911,NA,NA
26753,Mineral County,WV,NA,98.1549815498155,NA,NA
53012,Ozaukee County,WI,NA,NA,NA,30.628272251308903
53081,Sheboygan County,WI,NA,NA,NA,20.94240837696335
53092,Ozaukee County,WI,NA,59.77859778597786,NA,NA
53103,Waukesha County,WI,NA,NA,99.87212276214834,NA
53105,Racine County,WI,NA,NA,11.253196930946292,NA
53129,Milwaukee County,WI,NA,NA,NA,54.973821989528794
53147,Walworth County,WI,NA,44.772447724477246,NA,54.18848167539267
53186,Waukesha County,WI,NA,27.183271832718326,NA,NA
53212,Milwaukee County,WI,NA,NA,15.217391304347828,NA
53215,Milwaukee County,WI,NA,NA,25.703324808184142,NA
53216,Milwaukee County,WI,NA,6.396063960639606,NA,NA
53218,Milwaukee County,WI,NA,6.888068880688807,NA,NA
53223,Milwaukee County,WI,60.049019607843135,15.990159901599016,NA,NA
53233,Milwaukee County,WI,89.4607843137255,NA,NA,NA
53534,Rock County,WI,87.74509803921569,NA,NA,NA
53548,Rock County,WI,34.068627450980394,NA,NA,NA
53575,Dane County,WI,NA,NA,74.68030690537084,NA
53593,Dane County,WI,NA,NA,NA,59.16230366492147
53704,Dane County,WI,56.61764705882353,NA,NA,NA
53711,Dane County,WI,NA,NA,NA,49.73821989528796
53821,Crawford County,WI,NA,NA,NA,76.17801047120419
53965,Sauk County,WI,NA,NA,NA,90.83769633507853
54021,Pierce County,WI,79.90196078431373,NA,NA,NA
54130,Outagamie County,WI,70.09803921568627,NA,NA,NA
54136,Outagamie County,WI,NA,90.159901599016,NA,NA
54166,Shawano County,WI,NA,NA,92.45524296675191,48.42931937172775
54220,Manitowoc County,WI,NA,6.519065190651907,NA,NA
54311,Brown County,WI,NA,93.72693726937268,NA,NA
54403,Marathon County,WI,NA,NA,33.12020460358056,NA
54455,Marathon County,WI,NA,72.32472324723247,NA,NA
54476,Marathon County,WI,NA,76.26076260762608,NA,NA
54481,Portage County,WI,NA,NA,17.263427109974426,NA
54601,La Crosse County,WI,NA,NA,NA,0
54801,Washburn County,WI,NA,NA,97.05882352941177,NA
54840,Burnett County,WI,NA,97.7859778597786,NA,NA
54868,Barron County,WI,NA,NA,81.96930946291559,NA
54880,Douglas County,WI,NA,NA,24.680306905370845,NA
54923,Green Lake County,WI,NA,NA,92.71099744245525,NA
54929,Waupaca County,WI,NA,NA,95.5242966751918,NA
54935,Fond du Lac County,WI,NA,NA,NA,4.973821989528796
82716,Campbell County,WY,NA,NA,86.18925831202046,NA
