ZipCode,county,state,Retirement
35578,Walker County,AL,82.5278810408922
36117,Montgomery County,AL,36.80297397769517
36530,Baldwin County,AL,88.84758364312268
36693,Mobile County,AL,60.594795539033456
99712,Fairbanks North Star Borough,AK,98.14126394052045
85006,Maricopa County,AZ,42.75092936802974
85035,Maricopa County,AZ,59.479553903345725
85209,Maricopa County,AZ,24.907063197026023
85226,Maricopa County,AZ,68.77323420074349
85268,Maricopa County,AZ,56.50557620817844
85344,La Paz County,AZ,69.51672862453532
85345,Maricopa County,AZ,13.754646840148698
86503,Apache County,AZ,78.43866171003717
86514,Apache County,AZ,99.25650557620817
71671,Bradley County,AR,96.6542750929368
72032,Faulkner County,AR,91.82156133828995
91106,Los Angeles County,CA,79.92565055762083
91206,Los Angeles County,CA,80.29739776951673
91214,Los Angeles County,CA,76.2081784386617
91913,San Diego County,CA,78.81040892193309
92264,Riverside County,CA,13.011152416356877
92345,San Bernardino County,CA,47.95539033457249
92506,Riverside County,CA,74.34944237918215
92655,Orange County,CA,93.3085501858736
92660,Orange County,CA,39.405204460966544
92780,Orange County,CA,57.249070631970255
92833,Orange County,CA,31.226765799256505
92886,Orange County,CA,19.33085501858736
93631,Fresno County,CA,88.10408921933085
94010,San Mateo County,CA,33.82899628252788
94025,San Mateo County,CA,71.37546468401487
94949,Marin County,CA,72.86245353159852
95482,Mendocino County,CA,27.137546468401485
95648,Placer County,CA,25.27881040892193
95815,Sacramento County,CA,63.56877323420075
95959,Nevada County,CA,50.18587360594795
80206,Denver County,CO,65.05576208178438
80211,Denver County,CO,46.09665427509294
80526,Larimer County,CO,33.457249070631974
80634,Weld County,CO,4.089219330855019
81201,Chaffee County,CO,75.46468401486989
06010,Hartford County,CT,6.319702602230483
06238,Tolland County,CT,62.45353159851301
06473,New Haven County,CT,32.71375464684015
06614,Fairfield County,CT,33.08550185873606
06790,Litchfield County,CT,4.83271375464684
06825,Fairfield County,CT,94.42379182156134
19720,New Castle County,DE,6.691449814126393
32148,Putnam County,FL,71.74721189591078
32162,Sumter County,FL,4.4609665427509295
32701,Seminole County,FL,70.26022304832715
32730,Seminole County,FL,93.68029739776952
33010,Miami-Dade County,FL,39.77695167286245
33014,Miami-Dade County,FL,95.16728624535315
33142,Miami-Dade County,FL,20.817843866171003
33169,Miami-Dade County,FL,49.07063197026022
33319,Broward County,FL,65.79925650557621
33756,Pinellas County,FL,72.4907063197026
33872,Highlands County,FL,39.03345724907063
34110,Collier County,FL,51.301115241635685
34473,Marion County,FL,85.50185873605948
34652,Pasco County,FL,53.90334572490706
30025,Walton County,GA,82.8996282527881
30082,Cobb County,GA,82.15613382899627
30132,Paulding County,GA,36.43122676579926
30213,Fulton County,GA,87.36059479553904
30273,Clayton County,GA,86.2453531598513
30314,Fulton County,GA,44.237918215613384
30344,Fulton County,GA,73.97769516728626
30815,Richmond County,GA,46.468401486988846
30906,Richmond County,GA,31.970260223048324
31061,Baldwin County,GA,29.739776951672862
31601,Lowndes County,GA,36.059479553903344
31602,Lowndes County,GA,75.8364312267658
83864,Bonner County,ID,50.92936802973978
60101,DuPage County,IL,57.62081784386617
60103,DuPage County,IL,24.53531598513011
60148,DuPage County,IL,9.293680297397769
60441,Will County,IL,64.31226765799256
60629,Cook County,IL,46.84014869888476
61021,Lee County,IL,10.037174721189592
61032,Stephenson County,IL,18.21561338289963
62274,Perry County,IL,85.13011152416357
62881,Marion County,IL,92.19330855018588
46561,St. Joseph County,IN,89.59107806691449
46825,Allen County,IN,28.624535315985128
47803,Vigo County,IN,55.39033457249071
50313,Polk County,IA,66.17100371747212
51103,Woodbury County,IA,65.4275092936803
52001,Dubuque County,IA,24.1635687732342
52172,Allamakee County,IA,90.70631970260223
52339,Tama County,IA,100
67206,Sedgwick County,KS,84.75836431226766
40291,Jefferson County,KY,20.074349442379184
41572,Pike County,KY,94.79553903345726
42127,Barren County,KY,77.69516728624535
70058,Jefferson Parish,LA,14.49814126394052
70301,Lafourche Parish,LA,11.152416356877323
70811,East Baton Rouge Parish,LA,73.23420074349443
71108,Caddo Parish,LA,40.14869888475837
71203,Ouachita Parish,LA,23.42007434944238
04011,Cumberland County,ME,27.509293680297397
04270,Oxford County,ME,69.88847583643123
04849,Waldo County,ME,96.28252788104089
21050,Harford County,MD,95.53903345724906
21201,Baltimore city,MD,47.58364312267658
01915,Essex County,MA,12.639405204460965
01930,Essex County,MA,10.408921933085502
01960,Essex County,MA,0.7434944237918215
02124,Suffolk County,MA,0
02130,Suffolk County,MA,3.717472118959108
02138,Middlesex County,MA,9.66542750929368
02780,Bristol County,MA,3.3457249070631967
48071,Oakland County,MI,92.56505576208178
48187,Wayne County,MI,5.5762081784386615
48197,Washtenaw County,MI,17.843866171003718
48219,Wayne County,MI,21.189591078066915
48326,Oakland County,MI,54.646840148698885
49120,Berrien County,MI,15.613382899628252
55102,Ramsey County,MN,38.28996282527881
55337,Dakota County,MN,23.04832713754647
55374,Hennepin County,MN,90.33457249070632
55439,Hennepin County,MN,91.07806691449815
55811,St. Louis County,MN,30.855018587360593
56474,Cass County,MN,86.98884758364312
56501,Becker County,MN,27.881040892193308
56537,Otter Tail County,MN,11.524163568773234
56601,Beltrami County,MN,68.40148698884758
64052,Jackson County,MO,71.00371747211895
64127,Jackson County,MO,35.31598513011153
65737,Stone County,MO,62.0817843866171
59401,Cascade County,MT,67.28624535315984
59870,Ravalli County,MT,78.06691449814126
89406,Churchill County,NV,30.483271375464682
07018,Essex County,NJ,22.304832713754646
07110,Essex County,NJ,56.13382899628253
07750,Monmouth County,NJ,98.51301115241635
87301,McKinley County,NM,83.27137546468401
87413,San Juan County,NM,54.27509293680297
87420,San Juan County,NM,66.54275092936803
10016,New York County,NY,48.3271375464684
10025,New York County,NY,2.2304832713754648
10029,New York County,NY,17.100371747211895
10035,New York County,NY,10.780669144981413
10461,Bronx County,NY,19.702602230483272
10463,Bronx County,NY,7.806691449814126
11050,Nassau County,NY,55.01858736059479
11373,Queens County,NY,16.356877323420075
11379,Queens County,NY,58.36431226765799
12553,Orange County,NY,68.02973977695167
12590,Dutchess County,NY,64.68401486988847
12804,Warren County,NY,11.895910780669144
13027,Onondaga County,NY,17.472118959107807
13108,Onondaga County,NY,88.84758364312268
13209,Onondaga County,NY,70.26022304832715
13323,Oneida County,NY,49.814126394052046
14132,Niagara County,NY,77.32342007434944
14221,Erie County,NY,5.5762081784386615
14467,Monroe County,NY,52.41635687732342
14513,Wayne County,NY,7.063197026022305
14580,Monroe County,NY,0.37174721189591076
14618,Monroe County,NY,13.382899628252787
27012,Forsyth County,NC,7.434944237918216
27017,Surry County,NC,92.93680297397769
27052,Stokes County,NC,58.36431226765799
27516,Orange County,NC,14.869888475836431
27519,Wake County,NC,52.78810408921933
27530,Wayne County,NC,21.933085501858738
27886,Edgecombe County,NC,43.12267657992565
27892,Martin County,NC,31.59851301115242
27896,Wilson County,NC,75.09293680297398
28018,Rutherford County,NC,97.02602230483272
28025,Cabarrus County,NC,15.241635687732341
28504,Lenoir County,NC,60.223048327137555
28560,Craven County,NC,37.9182156133829
28584,Carteret County,NC,63.19702602230484
28806,Buncombe County,NC,40.520446096654275
43055,Licking County,OH,2.6022304832713754
43138,Hocking County,OH,30.111524163568777
43205,Franklin County,OH,56.877323420074354
43229,Franklin County,OH,37.174721189591075
43235,Franklin County,OH,89.96282527881041
43506,Williams County,OH,25.27881040892193
43545,Henry County,OH,91.44981412639405
43556,Defiance County,OH,98.88475836431226
43613,Lucas County,OH,23.79182156133829
44011,Lorain County,OH,26.022304832713754
44056,Summit County,OH,81.41263940520446
44060,Lake County,OH,1.486988847583643
44067,Summit County,OH,53.53159851301115
44074,Lorain County,OH,44.60966542750929
44105,Cuyahoga County,OH,1.1152416356877324
44212,Medina County,OH,1.858736059479554
44240,Portage County,OH,55.762081784386616
44305,Summit County,OH,35.687732342007436
44312,Summit County,OH,38.66171003717472
44333,Summit County,OH,40.89219330855018
44483,Trumbull County,OH,14.12639405204461
44833,Crawford County,OH,18.587360594795538
44889,Huron County,OH,59.85130111524164
45066,Warren County,OH,45.353159851301115
45322,Montgomery County,OH,45.72490706319702
45417,Montgomery County,OH,15.985130111524162
73049,Oklahoma County,OK,81.78438661710037
73505,Comanche County,OK,16.728624535315987
73601,Custer County,OK,79.5539033457249
74037,Tulsa County,OK,83.64312267657994
97128,Yamhill County,OR,29.36802973977695
97478,Lane County,OR,43.866171003717476
97814,Baker County,OR,42.00743494423792
15085,Westmoreland County,PA,74.72118959107806
16875,Centre County,PA,97.76951672862454
17042,Lebanon County,PA,8.550185873605948
17110,Dauphin County,PA,61.71003717472119
17921,Schuylkill County,PA,84.01486988847584
18103,Lehigh County,PA,8.921933085501859
18603,Columbia County,PA,18.95910780669145
19114,Philadelphia County,PA,21.561338289962826
19130,Philadelphia County,PA,34.20074349442379
19145,Philadelphia County,PA,41.2639405204461
19150,Philadelphia County,PA,76.57992565055763
19342,Delaware County,PA,76.95167286245353
19607,Berks County,PA,80.66914498141264
19610,Berks County,PA,34.572490706319705
29073,Lexington County,SC,37.54646840148699
29860,Edgefield County,SC,69.14498141263941
29902,Beaufort County,SC,87.73234200743495
37355,Coffee County,TN,50.55762081784386
37865,Sevier County,TN,41.63568773234201
37880,Meigs County,TN,95.91078066914498
38053,Shelby County,TN,52.78810408921933
75074,Collin County,TX,32.342007434944236
75165,Ellis County,TX,26.765799256505574
75169,Van Zandt County,TX,94.05204460966543
75218,Dallas County,TX,59.10780669144982
75248,Dallas County,TX,28.25278810408922
75462,Lamar County,TX,81.04089219330855
75494,Wood County,TX,66.91449814126395
75703,Smith County,TX,8.178438661710038
75765,Wood County,TX,42.37918215613383
76110,Tarrant County,TX,48.698884758364315
77012,Harris County,TX,79.182156133829
77075,Harris County,TX,86.61710037174721
77092,Harris County,TX,63.94052044609665
77336,Harris County,TX,73.60594795539033
77640,Jefferson County,TX,85.87360594795538
77984,Lavaca County,TX,88.47583643122677
78541,Hidalgo County,TX,60.594795539033456
84010,Davis County,UT,57.99256505576208
84065,Salt Lake County,UT,43.49442379182156
84093,Salt Lake County,UT,49.44237918215613
84109,Salt Lake County,UT,52.04460966542751
05001,Windsor County,VT,84.38661710037175
22041,Fairfax County,VA,67.65799256505576
24639,Tazewell County,VA,99.62825278810409
98021,Snohomish County,WA,44.60966542750929
98029,King County,WA,62.825278810408925
98198,King County,WA,28.99628252788104
98801,Chelan County,WA,34.94423791821561
26003,Ohio County,WV,5.204460966542751
26301,Harrison County,WV,12.267657992565056
26554,Marion County,WV,2.973977695167286
53061,Calumet County,WI,97.39776951672863
53095,Washington County,WI,20.44609665427509
53546,Rock County,WI,26.394052044609666
53562,Dane County,WI,61.33828996282528
54467,Portage County,WI,72.11895910780669
54669,La Crosse County,WI,47.21189591078067
54880,Douglas County,WI,22.676579925650557
54937,Fond du Lac County,WI,51.6728624535316
