ZipCode,county,state,Adult,Retirement,Geriatric
35016,Marshall County,AL,NA,NA,47.107438016528924
35022,Jefferson County,AL,NA,16.306306306306308,NA
35072,Coosa County,AL,NA,81.71171171171171,NA
35150,Talladega County,AL,NA,NA,50.20661157024794
35205,Jefferson County,AL,NA,70.09009009009009,NA
35206,Jefferson County,AL,NA,48.73873873873874,NA
35211,Jefferson County,AL,NA,60.54054054054055,NA
35218,Jefferson County,AL,NA,88.91891891891892,NA
35223,Jefferson County,AL,NA,76.93693693693695,NA
35503,Walker County,AL,NA,NA,77.06611570247934
35601,Morgan County,AL,NA,14.594594594594595,NA
35603,Morgan County,AL,20.238095238095237,NA,NA
35613,Limestone County,AL,42.46031746031746,NA,NA
35620,Limestone County,AL,84.92063492063492,NA,NA
35630,Lauderdale County,AL,NA,36.21621621621622,NA
35654,Franklin County,AL,NA,NA,92.76859504132231
35660,Colbert County,AL,NA,NA,82.85123966942149
35674,Colbert County,AL,NA,49.549549549549546,NA
35757,Madison County,AL,NA,76.3963963963964,NA
35758,Madison County,AL,40.476190476190474,39.81981981981982,NA
35761,Madison County,AL,NA,73.51351351351352,NA
35763,Madison County,AL,NA,58.37837837837838,NA
35959,Cherokee County,AL,96.82539682539682,NA,NA
36079,Pike County,AL,85.31746031746032,NA,NA
36092,Elmore County,AL,NA,55.945945945945944,NA
36420,Covington County,AL,NA,NA,61.15702479338842
36561,Baldwin County,AL,NA,NA,91.11570247933885
36611,Mobile County,AL,NA,98.1081081081081,NA
36701,Dallas County,AL,NA,30.720720720720724,NA
99502,Anchorage Municipality,AK,NA,77.29729729729729,NA
99516,Anchorage Municipality,AK,NA,89.009009009009,NA
99645,Matanuska-Susitna Borough,AK,NA,65.94594594594595,NA
99701,Fairbanks North Star Borough,AK,NA,NA,82.43801652892562
99801,Juneau City and Borough,AK,51.19047619047619,NA,NA
85016,Maricopa County,AZ,NA,36.03603603603604,NA
85019,Maricopa County,AZ,NA,90.09009009009009,NA
85027,Maricopa County,AZ,NA,56.12612612612613,NA
85032,Maricopa County,AZ,NA,61.711711711711715,NA
85051,Maricopa County,AZ,17.857142857142858,NA,NA
85132,Pinal County,AZ,NA,66.21621621621621,NA
85202,Maricopa County,AZ,NA,49.0990990990991,NA
85208,Maricopa County,AZ,NA,39.189189189189186,NA
85248,Maricopa County,AZ,NA,30.36036036036036,NA
85256,Maricopa County,AZ,NA,98.73873873873875,NA
85268,Maricopa County,AZ,NA,57.38738738738739,NA
85281,Maricopa County,AZ,38.88888888888889,NA,NA
85304,Maricopa County,AZ,NA,64.14414414414415,NA
85339,Maricopa County,AZ,NA,53.153153153153156,NA
85340,Maricopa County,AZ,NA,80.36036036036036,NA
85344,La Paz County,AZ,NA,35.765765765765764,NA
85365,Yuma County,AZ,82.14285714285714,NA,NA
85374,Maricopa County,AZ,NA,18.28828828828829,NA
85375,Maricopa County,AZ,NA,22.432432432432435,NA
85383,Maricopa County,AZ,29.761904761904763,NA,NA
85392,Maricopa County,AZ,60.317460317460316,NA,NA
85603,Cochise County,AZ,NA,NA,82.02479338842976
85621,Santa Cruz County,AZ,NA,NA,35.53719008264463
85704,Pima County,AZ,NA,64.14414414414415,NA
85705,Pima County,AZ,NA,34.95495495495496,NA
85710,Pima County,AZ,36.904761904761905,NA,34.710743801652896
85713,Pima County,AZ,NA,9.0990990990991,NA
85755,Pima County,AZ,NA,50.27027027027027,NA
85757,Pima County,AZ,NA,56.3963963963964,NA
86045,Coconino County,AZ,NA,40.81081081081081,NA
86326,Yavapai County,AZ,NA,59.27927927927929,NA
86403,Mohave County,AZ,NA,56.21621621621622,NA
71646,Ashley County,AR,NA,95.58558558558559,NA
71655,Drew County,AR,NA,66.57657657657657,NA
71801,Hempstead County,AR,NA,NA,61.98347107438017
71953,Polk County,AR,NA,53.6036036036036,NA
71957,Montgomery County,AR,NA,NA,99.17355371900827
72370,Mississippi County,AR,NA,94.41441441441441,NA
72416,Craighead County,AR,95.23809523809523,NA,NA
72521,Sharp County,AR,97.61904761904762,NA,NA
72701,Washington County,AR,72.61904761904762,NA,NA
72704,Washington County,AR,83.73015873015873,NA,NA
72904,Sebastian County,AR,NA,63.60360360360361,NA
72916,Sebastian County,AR,96.42857142857143,NA,NA
90011,Los Angeles County,CA,NA,46.846846846846844,NA
90012,Los Angeles County,CA,NA,NA,31.818181818181817
90022,Los Angeles County,CA,NA,47.02702702702703,NA
90026,Los Angeles County,CA,NA,40.18018018018018,NA
90029,Los Angeles County,CA,NA,69.45945945945947,NA
90031,Los Angeles County,CA,NA,68.46846846846847,NA
90037,Los Angeles County,CA,NA,42.07207207207207,NA
90038,Los Angeles County,CA,NA,NA,80.37190082644628
90042,Los Angeles County,CA,NA,NA,30.57851239669421
90045,Los Angeles County,CA,NA,NA,42.35537190082644
90057,Los Angeles County,CA,NA,24.054054054054056,NA
90068,Los Angeles County,CA,98.4126984126984,NA,NA
90242,Los Angeles County,CA,NA,58.28828828828829,NA
90250,Los Angeles County,CA,NA,NA,33.47107438016529
90278,Los Angeles County,CA,67.06349206349206,NA,NA
90291,Los Angeles County,CA,NA,59.189189189189186,NA
90403,Los Angeles County,CA,NA,68.64864864864865,NA
90505,Los Angeles County,CA,NA,NA,33.67768595041322
90601,Los Angeles County,CA,NA,88.1981981981982,NA
90620,Orange County,CA,NA,37.2972972972973,NA
90630,Orange County,CA,NA,20.9009009009009,NA
90650,Los Angeles County,CA,NA,14.684684684684685,NA
90680,Orange County,CA,NA,NA,66.94214876033058
90710,Los Angeles County,CA,NA,62.43243243243243,NA
90712,Los Angeles County,CA,NA,51.44144144144144,NA
90813,Los Angeles County,CA,NA,48.468468468468465,NA
91006,Los Angeles County,CA,NA,NA,87.80991735537191
91007,Los Angeles County,CA,NA,97.38738738738739,NA
91011,Los Angeles County,CA,NA,82.70270270270271,NA
91016,Los Angeles County,CA,NA,57.47747747747748,NA
91030,Los Angeles County,CA,NA,78.73873873873873,NA
91214,Los Angeles County,CA,NA,NA,46.48760330578512
91306,Los Angeles County,CA,NA,NA,46.48760330578512
91360,Ventura County,CA,69.84126984126983,NA,NA
91367,Los Angeles County,CA,NA,50.18018018018018,NA
91606,Los Angeles County,CA,NA,55.765765765765764,NA
91706,Los Angeles County,CA,NA,34.234234234234236,NA
91710,San Bernardino County,CA,NA,54.95495495495496,NA
91732,Los Angeles County,CA,43.25396825396825,NA,NA
91791,Los Angeles County,CA,NA,50,NA
91941,San Diego County,CA,NA,47.11711711711712,NA
91945,San Diego County,CA,NA,NA,72.10743801652893
91950,San Diego County,CA,NA,35.13513513513514,NA
91977,San Diego County,CA,NA,27.74774774774775,NA
92027,San Diego County,CA,NA,49.18918918918919,NA
92065,San Diego County,CA,NA,64.05405405405405,NA
92071,San Diego County,CA,NA,40,NA
92131,San Diego County,CA,NA,74.32432432432432,NA
92223,Riverside County,CA,31.349206349206348,NA,NA
92227,Imperial County,CA,NA,NA,43.80165289256198
92270,Riverside County,CA,NA,8.378378378378379,NA
92284,San Bernardino County,CA,NA,27.387387387387385,NA
92301,San Bernardino County,CA,NA,47.47747747747748,NA
92308,San Bernardino County,CA,NA,NA,42.14876033057851
92320,Riverside County,CA,NA,92.43243243243244,NA
92342,San Bernardino County,CA,NA,NA,94.62809917355372
92354,San Bernardino County,CA,NA,NA,57.231404958677686
92359,San Bernardino County,CA,99.20634920634922,NA,NA
92374,San Bernardino County,CA,NA,NA,47.5206611570248
92376,San Bernardino County,CA,NA,15.945945945945947,NA
92392,San Bernardino County,CA,NA,31.98198198198198,NA
92395,San Bernardino County,CA,NA,44.14414414414414,NA
92407,San Bernardino County,CA,NA,51.80180180180181,NA
92507,Riverside County,CA,NA,70.27027027027027,NA
92544,Riverside County,CA,NA,NA,84.0909090909091
92553,Riverside County,CA,28.57142857142857,NA,NA
92555,Riverside County,CA,NA,87.92792792792793,NA
92557,Riverside County,CA,NA,50,NA
92583,Riverside County,CA,NA,NA,83.67768595041323
92591,Riverside County,CA,50,NA,NA
92602,Orange County,CA,NA,NA,93.80165289256198
92603,Orange County,CA,NA,88.73873873873875,72.72727272727273
92604,Orange County,CA,84.52380952380952,NA,NA
92618,Orange County,CA,NA,96.12612612612612,NA
92627,Orange County,CA,NA,30.45045045045045,17.56198347107438
92637,Orange County,CA,NA,NA,3.925619834710744
92653,Orange County,CA,NA,53.24324324324324,NA
92660,Orange County,CA,NA,93.6036036036036,NA
92677,Orange County,CA,NA,NA,57.64462809917356
92701,Orange County,CA,NA,97.83783783783784,NA
92703,Orange County,CA,NA,54.864864864864856,NA
92704,Orange County,CA,NA,NA,41.52892561983471
92802,Orange County,CA,NA,44.5945945945946,38.84297520661157
92804,Orange County,CA,17.063492063492063,19.18918918918919,NA
92833,Orange County,CA,NA,30.810810810810814,NA
92840,Orange County,CA,NA,NA,25
92867,Orange County,CA,NA,NA,65.49586776859503
92870,Orange County,CA,NA,23.963963963963963,NA
93035,Ventura County,CA,NA,NA,69.42148760330579
93060,Ventura County,CA,NA,75.85585585585586,NA
93274,Tulare County,CA,NA,NA,26.446280991735538
93308,Kern County,CA,NA,64.32432432432432,NA
93309,Kern County,CA,35.714285714285715,NA,NA
93313,Kern County,CA,56.74603174603175,NA,NA
93420,San Luis Obispo County,CA,76.19047619047619,NA,NA
93427,Santa Barbara County,CA,NA,98.1981981981982,NA
93454,Santa Barbara County,CA,34.523809523809526,NA,NA
93534,Los Angeles County,CA,NA,38.648648648648646,NA
93535,Los Angeles County,CA,NA,38.46846846846847,NA
93555,Kern County,CA,NA,NA,36.570247933884296
93614,Madera County,CA,NA,NA,78.71900826446281
93631,Fresno County,CA,NA,NA,81.19834710743802
93637,Madera County,CA,NA,59.45945945945946,NA
93705,Fresno County,CA,NA,44.86486486486487,NA
93706,Fresno County,CA,NA,41.711711711711715,NA
93722,Fresno County,CA,NA,14.774774774774773,NA
94010,San Mateo County,CA,54.761904761904766,NA,10.950413223140496
94024,Santa Clara County,CA,NA,NA,86.57024793388429
94103,San Francisco County,CA,NA,17.117117117117118,NA
94131,San Francisco County,CA,NA,83.06306306306305,NA
94134,San Francisco County,CA,NA,NA,29.338842975206614
94303,San Mateo County,CA,30.158730158730158,NA,NA
94507,Contra Costa County,CA,NA,NA,80.16528925619835
94513,Contra Costa County,CA,37.698412698412696,NA,NA
94520,Contra Costa County,CA,NA,NA,68.59504132231406
94538,Alameda County,CA,NA,NA,21.280991735537192
94546,Alameda County,CA,NA,NA,23.7603305785124
94549,Contra Costa County,CA,NA,NA,32.231404958677686
94568,Alameda County,CA,NA,62.972972972972975,NA
94587,Alameda County,CA,NA,22.07207207207207,NA
94595,Contra Costa County,CA,94.44444444444444,NA,NA
94608,Alameda County,CA,59.12698412698413,NA,NA
94952,Sonoma County,CA,NA,NA,49.586776859504134
95037,Santa Clara County,CA,61.904761904761905,NA,NA
95051,Santa Clara County,CA,47.22222222222222,NA,NA
95120,Santa Clara County,CA,NA,52.34234234234234,NA
95127,Santa Clara County,CA,NA,NA,86.15702479338843
95133,Santa Clara County,CA,NA,94.68468468468468,NA
95206,San Joaquin County,CA,NA,27.027027027027028,NA
95212,San Joaquin County,CA,NA,84.77477477477477,NA
95215,San Joaquin County,CA,NA,86.3063063063063,NA
95242,San Joaquin County,CA,NA,82.43243243243244,NA
95315,Merced County,CA,NA,96.30630630630631,NA
95334,Merced County,CA,87.6984126984127,NA,NA
95358,Stanislaus County,CA,33.730158730158735,NA,NA
95382,Stanislaus County,CA,NA,29.099099099099103,NA
95403,Sonoma County,CA,NA,NA,16.115702479338843
95405,Sonoma County,CA,NA,56.21621621621622,NA
95610,Sacramento County,CA,47.61904761904761,NA,NA
95624,Sacramento County,CA,NA,61.531531531531535,NA
95630,Sacramento County,CA,NA,17.38738738738739,NA
95648,Placer County,CA,NA,25.225225225225223,NA
95661,Placer County,CA,NA,NA,50
95667,El Dorado County,CA,NA,4.684684684684685,NA
95678,Placer County,CA,NA,NA,84.29752066115702
95687,Solano County,CA,NA,21.98198198198198,24.586776859504134
95746,Placer County,CA,NA,90.990990990991,NA
95747,Placer County,CA,NA,NA,10.743801652892563
95765,Placer County,CA,78.17460317460318,NA,NA
95815,Sacramento County,CA,NA,NA,75.20661157024794
95831,Sacramento County,CA,NA,80.990990990991,NA
95832,Sacramento County,CA,NA,NA,96.48760330578511
95833,Sacramento County,CA,NA,NA,67.76859504132231
95928,Butte County,CA,NA,33.6036036036036,NA
95949,Nevada County,CA,NA,51.80180180180181,NA
95993,Sutter County,CA,NA,72.88288288288288,NA
80002,Jefferson County,CO,NA,NA,78.099173553719
80004,Jefferson County,CO,NA,60.99099099099099,71.07438016528926
80005,Jefferson County,CO,65.07936507936508,NA,NA
80007,Jefferson County,CO,NA,96.66666666666667,NA
80012,Arapahoe County,CO,NA,29.72972972972973,NA
80016,Arapahoe County,CO,NA,17.56756756756757,NA
80022,Adams County,CO,NA,40.9009009009009,NA
80033,Jefferson County,CO,NA,NA,66.32231404958677
80112,Arapahoe County,CO,NA,NA,83.05785123966942
80129,Douglas County,CO,NA,86.66666666666667,NA
80226,Jefferson County,CO,NA,91.8018018018018,NA
80229,Adams County,CO,NA,43.15315315315315,NA
80236,Denver County,CO,NA,91.26126126126127,NA
80239,Denver County,CO,NA,NA,53.51239669421488
80504,Boulder County,CO,NA,24.864864864864867,NA
80517,Larimer County,CO,NA,NA,67.97520661157024
80526,Larimer County,CO,NA,NA,35.74380165289256
80601,Adams County,CO,NA,39.0990990990991,NA
80816,Teller County,CO,NA,86.84684684684684,NA
80905,El Paso County,CO,NA,77.11711711711712,NA
80906,El Paso County,CO,NA,41.53153153153153,NA
80907,El Paso County,CO,NA,61.261261261261254,NA
80909,El Paso County,CO,25.793650793650798,NA,NA
80911,El Paso County,CO,NA,76.21621621621621,52.892561983471076
81003,Pueblo County,CO,NA,81.98198198198197,NA
81052,Prowers County,CO,NA,55.585585585585584,NA
81101,Alamosa County,CO,46.03174603174603,NA,NA
81147,Archuleta County,CO,NA,NA,63.22314049586777
81416,Delta County,CO,NA,83.69369369369369,NA
81504,Mesa County,CO,NA,56.666666666666664,NA
06001,Hartford County,CT,NA,67.29729729729729,NA
06002,Hartford County,CT,NA,30.090090090090087,32.438016528925615
06013,Hartford County,CT,NA,NA,96.900826446281
06016,Hartford County,CT,NA,91.98198198198199,NA
06033,Hartford County,CT,63.49206349206349,NA,NA
06037,Hartford County,CT,NA,NA,41.11570247933884
06066,Tolland County,CT,NA,18.37837837837838,NA
06082,Hartford County,CT,NA,NA,14.87603305785124
06085,Hartford County,CT,NA,NA,89.87603305785123
06088,Hartford County,CT,NA,NA,89.6694214876033
06089,Hartford County,CT,NA,99.81981981981983,NA
06095,Hartford County,CT,NA,81.53153153153153,NA
06105,Hartford County,CT,NA,34.68468468468468,NA
06107,Hartford County,CT,NA,NA,51.03305785123967
06111,Hartford County,CT,NA,75.13513513513513,NA
06118,Hartford County,CT,26.58730158730159,NA,36.77685950413223
06413,Middlesex County,CT,68.65079365079364,65.04504504504504,NA
06415,New London County,CT,NA,69.63963963963964,NA
06424,Middlesex County,CT,NA,81.35135135135135,NA
06443,New Haven County,CT,NA,NA,64.25619834710744
06461,New Haven County,CT,NA,75.49549549549549,NA
06473,New Haven County,CT,NA,65.4054054054054,NA
06475,Middlesex County,CT,NA,59.72972972972973,NA
06480,Middlesex County,CT,NA,72.52252252252252,NA
06489,Hartford County,CT,34.12698412698413,NA,9.710743801652892
06512,New Haven County,CT,NA,22.702702702702705,NA
06514,New Haven County,CT,NA,NA,68.18181818181817
06606,Fairfield County,CT,NA,33.693693693693696,NA
06615,Fairfield County,CT,51.98412698412699,NA,NA
06786,Litchfield County,CT,NA,NA,76.44628099173553
06790,Litchfield County,CT,NA,2.3423423423423424,NA
06830,Fairfield County,CT,NA,38.1981981981982,12.603305785123966
06850,Fairfield County,CT,NA,37.747747747747745,NA
19711,New Castle County,DE,NA,10.72072072072072,NA
19802,New Castle County,DE,NA,60.09009009009009,50.82644628099173
19810,New Castle County,DE,61.111111111111114,NA,NA
19901,Kent County,DE,NA,18.55855855855856,NA
19956,Sussex County,DE,NA,NA,70.45454545454545
19962,Kent County,DE,NA,74.23423423423424,NA
19973,Sussex County,DE,NA,20.45045045045045,15.702479338842975
19975,Sussex County,DE,NA,55.4054054054054,NA
32024,Columbia County,FL,NA,42.52252252252252,NA
32038,Columbia County,FL,82.93650793650794,NA,NA
32092,St. Johns County,FL,NA,41.351351351351354,NA
32097,Nassau County,FL,NA,68.55855855855856,NA
32162,Sumter County,FL,NA,2.1621621621621623,NA
32163,Sumter County,FL,NA,33.87387387387387,NA
32174,Volusia County,FL,NA,11.351351351351353,NA
32176,Volusia County,FL,NA,72.25225225225225,NA
32216,Duval County,FL,NA,NA,28.92561983471074
32223,Duval County,FL,NA,33.96396396396396,NA
32225,Duval County,FL,NA,15.585585585585585,NA
32244,Duval County,FL,NA,43.513513513513516,NA
32250,Duval County,FL,65.87301587301587,NA,NA
32309,Leon County,FL,NA,NA,55.16528925619835
32310,Leon County,FL,NA,89.0990990990991,NA
32401,Bay County,FL,40.07936507936508,NA,NA
32507,Escambia County,FL,NA,13.153153153153152,NA
32548,Okaloosa County,FL,NA,83.87387387387388,NA
32567,Okaloosa County,FL,NA,97.74774774774775,NA
32609,Alachua County,FL,NA,52.43243243243243,NA
32653,Alachua County,FL,NA,38.01801801801802,NA
32713,Volusia County,FL,NA,66.75675675675676,NA
32738,Volusia County,FL,NA,69.54954954954955,NA
32757,Lake County,FL,NA,29.099099099099103,NA
32765,Seminole County,FL,NA,42.792792792792795,NA
32792,Orange County,FL,NA,49.27927927927928,NA
32818,Orange County,FL,19.047619047619047,NA,NA
32824,Orange County,FL,44.84126984126984,66.21621621621621,NA
32839,Orange County,FL,NA,40.54054054054054,NA
32935,Brevard County,FL,NA,NA,22.727272727272727
33010,Miami-Dade County,FL,NA,NA,12.396694214876034
33012,Miami-Dade County,FL,46.82539682539682,NA,NA
33019,Broward County,FL,NA,NA,58.88429752066116
33025,Broward County,FL,NA,54.32432432432432,NA
33026,Broward County,FL,NA,94.95495495495496,NA
33063,Broward County,FL,NA,29.009009009009006,NA
33127,Miami-Dade County,FL,NA,93.69369369369369,NA
33134,Miami-Dade County,FL,NA,54.5045045045045,64.0495867768595
33136,Miami-Dade County,FL,NA,NA,97.72727272727273
33137,Miami-Dade County,FL,84.12698412698413,NA,NA
33138,Miami-Dade County,FL,NA,NA,45.24793388429752
33139,Miami-Dade County,FL,NA,81.35135135135135,11.776859504132231
33145,Miami-Dade County,FL,NA,76.3963963963964,NA
33155,Miami-Dade County,FL,NA,65.31531531531532,NA
33160,Miami-Dade County,FL,NA,NA,16.735537190082646
33168,Miami-Dade County,FL,NA,72.07207207207207,NA
33175,Miami-Dade County,FL,NA,24.594594594594597,NA
33176,Miami-Dade County,FL,NA,35.13513513513514,NA
33183,Miami-Dade County,FL,NA,NA,38.22314049586777
33184,Miami-Dade County,FL,NA,67.83783783783784,NA
33313,Broward County,FL,24.206349206349206,NA,NA
33325,Broward County,FL,NA,NA,91.73553719008265
33432,Palm Beach County,FL,NA,76.75675675675676,NA
33467,Palm Beach County,FL,NA,25.405405405405407,NA
33476,Palm Beach County,FL,NA,NA,99.79338842975206
33484,Palm Beach County,FL,NA,NA,19.62809917355372
33573,Hillsborough County,FL,NA,21.08108108108108,NA
33618,Hillsborough County,FL,NA,NA,34.917355371900825
33629,Hillsborough County,FL,NA,80.63063063063063,NA
33647,Hillsborough County,FL,NA,46.306306306306304,NA
33702,Pinellas County,FL,57.53968253968254,NA,NA
33755,Pinellas County,FL,46.42857142857143,NA,NA
33763,Pinellas County,FL,NA,NA,41.735537190082646
33772,Pinellas County,FL,NA,70.45045045045045,NA
33774,Pinellas County,FL,NA,NA,57.85123966942148
33801,Polk County,FL,NA,42.88288288288288,NA
33811,Polk County,FL,NA,69.009009009009,NA
33825,Highlands County,FL,NA,15.135135135135137,NA
33843,Polk County,FL,93.65079365079364,NA,NA
33859,Polk County,FL,NA,65.22522522522523,NA
33860,Polk County,FL,66.66666666666666,NA,NA
33870,Highlands County,FL,NA,28.82882882882883,NA
33881,Polk County,FL,NA,33.24324324324324,NA
33897,Polk County,FL,NA,69.009009009009,NA
33898,Polk County,FL,NA,67.38738738738739,NA
33901,Lee County,FL,NA,45.22522522522522,NA
33903,Lee County,FL,NA,31.62162162162162,NA
33904,Lee County,FL,NA,16.846846846846848,NA
33908,Lee County,FL,NA,6.0360360360360366,NA
33928,Lee County,FL,NA,32.52252252252252,NA
33935,Hendry County,FL,NA,67.47747747747748,NA
33947,Charlotte County,FL,NA,78.10810810810811,NA
33967,Lee County,FL,NA,60.9009009009009,NA
33972,Lee County,FL,87.3015873015873,NA,NA
33974,Lee County,FL,NA,92.88288288288288,NA
33981,Charlotte County,FL,NA,90.45045045045045,NA
34104,Collier County,FL,NA,53.51351351351351,NA
34211,Manatee County,FL,NA,NA,79.13223140495867
34266,DeSoto County,FL,NA,80.09009009009009,NA
34285,Sarasota County,FL,NA,54.77477477477477,NA
34287,Sarasota County,FL,55.952380952380956,NA,NA
34292,Sarasota County,FL,NA,NA,12.8099173553719
34432,Marion County,FL,NA,NA,62.8099173553719
34479,Marion County,FL,73.80952380952381,NA,NA
34481,Marion County,FL,NA,NA,13.842975206611571
34491,Marion County,FL,NA,32.972972972972975,NA
34606,Hernando County,FL,45.23809523809524,39.54954954954955,NA
34655,Pasco County,FL,NA,26.036036036036037,NA
34683,Pinellas County,FL,NA,NA,45.04132231404959
34685,Pinellas County,FL,NA,74.68468468468468,NA
34983,St. Lucie County,FL,NA,28.82882882882883,NA
34997,Martin County,FL,NA,NA,5.991735537190083
30005,Fulton County,GA,NA,74.86486486486487,NA
30009,Fulton County,GA,NA,72.97297297297297,NA
30022,Fulton County,GA,NA,46.03603603603604,NA
30045,Gwinnett County,GA,64.28571428571429,NA,NA
30058,DeKalb County,GA,NA,28.558558558558563,NA
30066,Cobb County,GA,NA,26.666666666666668,NA
30067,Cobb County,GA,NA,66.03603603603604,NA
30083,DeKalb County,GA,NA,32.612612612612615,NA
30094,Rockdale County,GA,NA,NA,60.12396694214877
30101,Cobb County,GA,28.174603174603174,NA,NA
30103,Bartow County,GA,NA,80.36036036036036,NA
30104,Polk County,GA,NA,89.63963963963964,NA
30157,Paulding County,GA,27.77777777777778,NA,NA
30180,Carroll County,GA,NA,37.38738738738739,NA
30223,Spalding County,GA,NA,37.027027027027025,65.08264462809917
30224,Spalding County,GA,NA,52.072072072072075,NA
30238,Clayton County,GA,57.936507936507944,NA,NA
30268,Fulton County,GA,NA,73.24324324324324,NA
30269,Fayette County,GA,NA,52.25225225225225,NA
30274,Clayton County,GA,NA,NA,89.0495867768595
30291,Fulton County,GA,NA,68.10810810810811,NA
30307,DeKalb County,GA,NA,79.1891891891892,NA
30328,Fulton County,GA,75.39682539682539,NA,NA
30338,DeKalb County,GA,NA,66.84684684684684,NA
30411,Wheeler County,GA,NA,99.72972972972973,NA
30434,Jefferson County,GA,94.84126984126983,NA,NA
30507,Hall County,GA,NA,63.42342342342342,NA
30510,Habersham County,GA,NA,93.87387387387388,NA
30518,Gwinnett County,GA,NA,35.585585585585584,NA
30519,Gwinnett County,GA,NA,32.79279279279279,NA
30523,Habersham County,GA,NA,73.33333333333333,NA
30536,Gilmer County,GA,NA,78.10810810810811,NA
30553,Franklin County,GA,NA,84.77477477477477,NA
30577,Stephens County,GA,NA,66.66666666666666,NA
30655,Walton County,GA,NA,29.81981981981982,NA
30809,Columbia County,GA,NA,46.57657657657658,NA
30815,Richmond County,GA,23.809523809523807,NA,NA
30830,Burke County,GA,NA,NA,71.69421487603306
30904,Richmond County,GA,NA,18.73873873873874,NA
30906,Richmond County,GA,NA,6.216216216216217,80.99173553719008
30907,Columbia County,GA,NA,10.9009009009009,NA
31005,Houston County,GA,NA,94.86486486486486,NA
31030,Peach County,GA,NA,NA,80.78512396694215
31217,Bibb County,GA,NA,51.17117117117117,NA
31320,Liberty County,GA,NA,84.5945945945946,NA
31513,Appling County,GA,NA,69.72972972972973,NA
31545,Wayne County,GA,78.96825396825396,NA,NA
31634,Clinch County,GA,89.28571428571429,NA,NA
31719,Sumter County,GA,NA,79.63963963963964,NA
31730,Mitchell County,GA,NA,84.50450450450451,NA
31750,Ben Hill County,GA,NA,29.90990990990991,NA
31794,Tift County,GA,NA,17.83783783783784,NA
39819,Decatur County,GA,NA,NA,66.32231404958677
96706,Honolulu County,HI,NA,12.522522522522522,NA
96720,Hawaii County,HI,NA,77.56756756756756,NA
96746,Kauai County,HI,NA,67.47747747747748,NA
96749,Hawaii County,HI,NA,NA,79.33884297520662
96754,Kauai County,HI,NA,99.009009009009,NA
96778,Hawaii County,HI,77.38095238095238,NA,NA
96782,Honolulu County,HI,NA,24.774774774774773,NA
96822,Honolulu County,HI,NA,NA,10.537190082644628
83221,Bingham County,ID,NA,18.10810810810811,NA
83274,Bingham County,ID,NA,96.21621621621622,NA
83661,Payette County,ID,NA,64.5045045045045,NA
60010,Lake County,IL,NA,13.513513513513514,NA
60013,McHenry County,IL,NA,NA,52.066115702479344
60026,Cook County,IL,NA,NA,26.859504132231404
60062,Cook County,IL,NA,NA,0.6198347107438017
60067,Cook County,IL,NA,19.54954954954955,NA
60073,Lake County,IL,NA,27.65765765765766,NA
60089,Lake County,IL,NA,10.63063063063063,NA
60120,Kane County,IL,NA,28.28828828828829,NA
60126,DuPage County,IL,NA,3.423423423423423,NA
60133,Cook County,IL,NA,50.54054054054053,NA
60142,McHenry County,IL,44.047619047619044,10.81081081081081,NA
60153,Cook County,IL,NA,25.495495495495497,NA
60164,Cook County,IL,41.269841269841265,NA,NA
60187,DuPage County,IL,NA,37.11711711711712,NA
60192,Cook County,IL,NA,84.05405405405405,NA
60193,Cook County,IL,NA,NA,29.545454545454547
60201,Cook County,IL,NA,NA,8.264462809917356
60406,Cook County,IL,NA,90.63063063063062,NA
60409,Cook County,IL,33.33333333333333,NA,NA
60415,Cook County,IL,NA,NA,95.24793388429752
60422,Cook County,IL,NA,47.56756756756757,NA
60438,Cook County,IL,NA,71.08108108108108,31.611570247933884
60453,Cook County,IL,17.46031746031746,NA,NA
60466,Cook County,IL,NA,54.414414414414416,NA
60532,DuPage County,IL,48.41269841269841,NA,NA
60538,Kendall County,IL,65.47619047619048,NA,NA
60563,DuPage County,IL,NA,38.46846846846847,NA
60565,DuPage County,IL,NA,20.09009009009009,NA
60612,Cook County,IL,NA,NA,68.38842975206612
60617,Cook County,IL,NA,2.8828828828828827,2.6859504132231407
60624,Cook County,IL,NA,26.576576576576578,NA
60628,Cook County,IL,NA,61.62162162162163,NA
60629,Cook County,IL,NA,NA,9.917355371900827
60630,Cook County,IL,NA,12.432432432432433,NA
60631,Cook County,IL,NA,48.91891891891892,NA
60636,Cook County,IL,NA,NA,24.173553719008265
60638,Cook County,IL,NA,NA,5.785123966942149
60653,Cook County,IL,32.53968253968254,31.351351351351354,NA
60714,Cook County,IL,NA,41.26126126126126,NA
61032,Stephenson County,IL,NA,16.576576576576578,NA
61061,Ogle County,IL,NA,NA,46.28099173553719
61107,Winnebago County,IL,NA,32.432432432432435,NA
61252,Whiteside County,IL,NA,98.37837837837839,84.50413223140497
61254,Henry County,IL,NA,75.04504504504504,NA
61270,Whiteside County,IL,NA,79.90990990990991,NA
61738,Woodford County,IL,NA,99.36936936936937,NA
61761,McLean County,IL,NA,42.16216216216216,NA
61821,Champaign County,IL,43.65079365079365,NA,44.00826446280991
61920,Coles County,IL,NA,NA,40.49586776859504
62025,Madison County,IL,NA,42.972972972972975,NA
62049,Montgomery County,IL,NA,86.84684684684684,NA
62208,St. Clair County,IL,NA,NA,59.29752066115702
62234,Madison County,IL,53.57142857142857,NA,NA
62249,Madison County,IL,81.74603174603175,NA,NA
62301,Adams County,IL,37.301587301587304,37.47747747747748,NA
62401,Effingham County,IL,NA,NA,32.64462809917356
62521,Macon County,IL,NA,8.468468468468467,NA
62568,Christian County,IL,NA,57.567567567567565,NA
62656,Logan County,IL,NA,88.55855855855856,NA
62864,Jefferson County,IL,NA,NA,35.33057851239669
46001,Madison County,IN,90.47619047619048,NA,NA
46011,Madison County,IN,NA,21.26126126126126,NA
46012,Madison County,IN,NA,20.18018018018018,NA
46013,Madison County,IN,NA,NA,31.40495867768595
46062,Hamilton County,IN,NA,16.396396396396394,NA
46184,Johnson County,IN,79.36507936507937,NA,NA
46203,Marion County,IN,8.73015873015873,NA,NA
46221,Marion County,IN,NA,43.513513513513516,NA
46222,Marion County,IN,NA,28.37837837837838,NA
46224,Marion County,IN,NA,50.810810810810814,NA
46227,Marion County,IN,NA,32.7027027027027,NA
46254,Marion County,IN,NA,NA,97.10743801652893
46303,Lake County,IN,48.01587301587302,NA,NA
46321,Lake County,IN,NA,NA,24.793388429752067
46327,Lake County,IN,NA,58.648648648648646,NA
46342,Lake County,IN,NA,13.063063063063062,NA
46350,LaPorte County,IN,NA,NA,19.421487603305785
46368,Porter County,IN,3.1746031746031744,NA,NA
46375,Lake County,IN,NA,52.792792792792795,NA
46385,Porter County,IN,NA,23.513513513513516,22.520661157024794
46392,Jasper County,IN,NA,85.04504504504504,NA
46408,Lake County,IN,NA,47.83783783783784,NA
46410,Lake County,IN,NA,27.117117117117118,NA
46514,Elkhart County,IN,NA,22.34234234234234,NA
46517,Elkhart County,IN,50.79365079365079,NA,NA
46534,Starke County,IN,60.71428571428571,77.83783783783784,NA
46563,Marshall County,IN,NA,24.414414414414416,NA
46628,St. Joseph County,IN,NA,49.63963963963964,NA
46723,Whitley County,IN,NA,NA,95.45454545454545
46793,DeKalb County,IN,NA,99.1891891891892,NA
46815,Allen County,IN,NA,NA,20.24793388429752
46902,Howard County,IN,3.968253968253968,NA,NA
46932,Cass County,IN,95.63492063492063,NA,NA
46975,Fulton County,IN,55.158730158730165,NA,NA
47111,Clark County,IN,61.50793650793651,NA,NA
47150,Floyd County,IN,11.11111111111111,NA,NA
47240,Decatur County,IN,NA,74.50450450450451,NA
47446,Lawrence County,IN,NA,69.009009009009,NA
47542,Dubois County,IN,NA,NA,74.58677685950413
47711,Vanderburgh County,IN,NA,NA,20.454545454545457
47712,Vanderburgh County,IN,NA,NA,50.6198347107438
47842,Vermillion County,IN,NA,NA,83.47107438016529
47932,Fountain County,IN,NA,70.45045045045045,NA
47960,White County,IN,75,NA,NA
50312,Polk County,IA,NA,86.03603603603604,NA
50322,Polk County,IA,NA,57.927927927927925,NA
50613,Black Hawk County,IA,NA,12.702702702702704,NA
50701,Black Hawk County,IA,NA,25.675675675675674,NA
51103,Woodbury County,IA,NA,63.60360360360361,NA
51106,Woodbury County,IA,50.39682539682539,NA,NA
51537,Shelby County,IA,NA,NA,45.867768595041326
52240,Johnson County,IA,NA,19.72972972972973,NA
52501,Wapello County,IA,NA,NA,30.165289256198346
52537,Davis County,IA,90.07936507936508,NA,NA
52544,Appanoose County,IA,NA,NA,48.34710743801653
52632,Lee County,IA,NA,NA,63.84297520661158
52761,Muscatine County,IA,NA,12.072072072072073,26.033057851239672
66006,Douglas County,KS,NA,NA,97.52066115702479
66046,Douglas County,KS,NA,NA,96.07438016528926
66064,Miami County,KS,NA,95.76576576576576,NA
66409,Shawnee County,KS,NA,97.11711711711712,NA
66441,Geary County,KS,NA,NA,79.75206611570248
66614,Shawnee County,KS,NA,18.91891891891892,NA
67156,Cowley County,KS,NA,81.89189189189189,NA
67401,Saline County,KS,NA,20.99099099099099,NA
67410,Dickinson County,KS,NA,NA,65.28925619834712
67456,McPherson County,KS,91.66666666666666,74.5945945945946,90.28925619834712
67601,Ellis County,KS,NA,18.1981981981982,NA
40026,Oldham County,KY,NA,96.84684684684684,NA
40071,Spencer County,KY,NA,NA,89.25619834710744
40143,Breckinridge County,KY,NA,93.96396396396396,NA
40162,Hardin County,KY,NA,NA,98.7603305785124
40211,Jefferson County,KY,16.26984126984127,NA,NA
40220,Jefferson County,KY,NA,20.36036036036036,NA
40229,Jefferson County,KY,13.88888888888889,NA,NA
40291,Jefferson County,KY,NA,NA,32.64462809917356
40351,Rowan County,KY,NA,NA,28.305785123966942
40391,Clark County,KY,7.936507936507936,12.342342342342343,NA
40906,Knox County,KY,NA,NA,47.107438016528924
40935,Knox County,KY,NA,99.27927927927928,NA
41048,Boone County,KY,NA,86.3963963963964,NA
41076,Campbell County,KY,NA,50.990990990990994,NA
41102,Boyd County,KY,NA,18.73873873873874,NA
41129,Boyd County,KY,NA,NA,91.52892561983471
41314,Owsley County,KY,NA,93.78378378378378,NA
41522,Pike County,KY,79.76190476190477,NA,NA
41553,Pike County,KY,NA,NA,99.58677685950413
42025,Marshall County,KY,NA,NA,31.198347107438018
42031,Hickman County,KY,NA,90.18018018018019,NA
42101,Warren County,KY,7.142857142857142,15.315315315315313,NA
42103,Warren County,KY,NA,83.42342342342343,NA
42104,Warren County,KY,NA,NA,93.59504132231406
42122,Warren County,KY,NA,99.54954954954955,NA
42420,Henderson County,KY,NA,12.882882882882882,NA
42633,Wayne County,KY,NA,36.126126126126124,NA
42701,Hardin County,KY,13.095238095238097,NA,54.958677685950406
42718,Taylor County,KY,NA,10.09009009009009,NA
70002,Jefferson Parish,LA,NA,NA,34.29752066115703
70043,St. Bernard Parish,LA,NA,NA,80.57851239669421
70047,St. Charles Parish,LA,NA,88.82882882882883,NA
70053,Jefferson Parish,LA,NA,60.450450450450454,NA
70065,Jefferson Parish,LA,NA,2.9729729729729732,NA
70068,St. John the Baptist Parish,LA,NA,16.756756756756758,NA
70072,Jefferson Parish,LA,NA,3.5135135135135136,NA
70087,St. Charles Parish,LA,NA,89.36936936936937,NA
70090,St. James Parish,LA,NA,78.64864864864865,NA
70117,Orleans Parish,LA,NA,17.207207207207205,NA
70122,Orleans Parish,LA,NA,NA,51.2396694214876
70130,Orleans Parish,LA,NA,36.93693693693694,NA
70359,Terrebonne Parish,LA,NA,72.16216216216216,NA
70433,St. Tammany Parish,LA,NA,7.747747747747748,NA
70438,Washington Parish,LA,NA,13.783783783783784,NA
70445,St. Tammany Parish,LA,63.888888888888886,NA,NA
70447,St. Tammany Parish,LA,NA,62.972972972972975,NA
70454,Tangipahoa Parish,LA,NA,9.54954954954955,NA
70471,St. Tammany Parish,LA,42.857142857142854,NA,NA
70501,Lafayette Parish,LA,NA,25.315315315315317,NA
70503,Lafayette Parish,LA,NA,25.855855855855857,NA
70605,Calcasieu Parish,LA,NA,NA,34.090909090909086
70737,Ascension Parish,LA,NA,52.88288288288289,NA
71037,Bossier Parish,LA,NA,53.69369369369369,NA
71047,Caddo Parish,LA,NA,50.9009009009009,NA
71055,Webster Parish,LA,NA,36.306306306306304,NA
71201,Ouachita Parish,LA,NA,NA,84.91735537190083
71203,Ouachita Parish,LA,NA,24.234234234234233,NA
71282,Madison Parish,LA,NA,86.75675675675676,NA
04072,York County,ME,40.87301587301587,NA,NA
04401,Penobscot County,ME,2.380952380952381,NA,11.15702479338843
04530,Sagadahoc County,ME,NA,NA,60.33057851239669
04736,Aroostook County,ME,NA,44.23423423423423,NA
04841,Knox County,ME,NA,48.91891891891892,NA
04901,Kennebec County,ME,NA,3.783783783783784,NA
04953,Penobscot County,ME,NA,95.85585585585585,NA
20711,Anne Arundel County,MD,NA,92.25225225225225,NA
20746,Prince George's County,MD,NA,64.86486486486487,NA
20785,Prince George's County,MD,NA,75.76576576576576,NA
20906,Montgomery County,MD,NA,39.45945945945946,NA
21014,Harford County,MD,NA,NA,37.39669421487603
21029,Howard County,MD,NA,97.56756756756756,NA
21044,Howard County,MD,NA,62.88288288288288,NA
21047,Harford County,MD,NA,82.88288288288288,NA
21093,Baltimore County,MD,NA,NA,38.01652892561984
21122,Anne Arundel County,MD,NA,13.423423423423422,NA
21128,Baltimore County,MD,NA,NA,63.42975206611571
21205,Baltimore city,MD,NA,91.17117117117117,NA
21207,Baltimore County,MD,NA,60.36036036036037,NA
21212,Baltimore city,MD,NA,33.153153153153156,NA
21221,Baltimore County,MD,NA,21.71171171171171,NA
21228,Baltimore County,MD,NA,11.801801801801801,NA
21502,Allegany County,MD,NA,55.04504504504505,NA
21655,Caroline County,MD,NA,97.02702702702702,NA
21742,Washington County,MD,NA,68.01801801801803,NA
01001,Hampden County,MA,NA,20,NA
01027,Hampshire County,MA,NA,87.02702702702703,NA
01085,Hampden County,MA,NA,2.0720720720720722,NA
01527,Worcester County,MA,NA,27.207207207207208,NA
01532,Worcester County,MA,NA,74.05405405405405,NA
01742,Middlesex County,MA,NA,70.18018018018019,NA
01803,Middlesex County,MA,NA,NA,19.834710743801654
01810,Essex County,MA,15.873015873015872,NA,NA
01826,Middlesex County,MA,NA,3.3333333333333335,NA
01833,Essex County,MA,NA,90.54054054054053,NA
01852,Middlesex County,MA,NA,1.3513513513513513,NA
01880,Middlesex County,MA,NA,6.396396396396396,NA
01904,Essex County,MA,NA,12.972972972972974,NA
01905,Essex County,MA,NA,7.567567567567568,NA
01906,Essex County,MA,NA,NA,7.851239669421488
01944,Essex County,MA,NA,96.57657657657658,NA
01952,Essex County,MA,NA,84.95495495495496,NA
01960,Essex County,MA,NA,0.45045045045045046,NA
02118,Suffolk County,MA,NA,89.27927927927928,NA
02121,Suffolk County,MA,NA,0.36036036036036034,NA
02124,Suffolk County,MA,NA,NA,1.4462809917355373
02130,Suffolk County,MA,NA,NA,4.958677685950414
02134,Suffolk County,MA,NA,83.24324324324324,NA
02140,Middlesex County,MA,NA,NA,25.826446280991732
02143,Middlesex County,MA,NA,NA,17.97520661157025
02152,Suffolk County,MA,NA,7.657657657657657,94.42148760330579
02171,Norfolk County,MA,NA,NA,91.32231404958677
02176,Middlesex County,MA,NA,6.846846846846846,NA
02351,Plymouth County,MA,NA,24.504504504504503,NA
02360,Plymouth County,MA,NA,0.18018018018018017,1.2396694214876034
02453,Middlesex County,MA,NA,NA,18.388429752066116
02703,Bristol County,MA,NA,0.7207207207207207,NA
02721,Bristol County,MA,NA,NA,11.15702479338843
02740,Bristol County,MA,NA,NA,0.2066115702479339
02780,Bristol County,MA,NA,NA,11.570247933884298
48083,Oakland County,MI,63.095238095238095,NA,NA
48089,Macomb County,MI,NA,NA,49.17355371900827
48098,Oakland County,MI,NA,36.57657657657658,NA
48101,Wayne County,MI,NA,NA,22.933884297520663
48105,Washtenaw County,MI,NA,NA,3.512396694214876
48118,Washtenaw County,MI,NA,NA,28.719008264462808
48127,Wayne County,MI,NA,NA,34.50413223140496
48141,Wayne County,MI,NA,52.61261261261261,NA
48146,Wayne County,MI,NA,NA,76.85950413223141
48165,Oakland County,MI,NA,NA,96.69421487603306
48176,Washtenaw County,MI,NA,25.135135135135133,59.09090909090909
48178,Oakland County,MI,NA,NA,8.677685950413224
48186,Wayne County,MI,5.952380952380952,11.17117117117117,NA
48188,Wayne County,MI,NA,7.297297297297297,NA
48189,Washtenaw County,MI,NA,NA,95.0413223140496
48224,Wayne County,MI,NA,NA,53.925619834710744
48228,Wayne County,MI,NA,7.4774774774774775,NA
48234,Wayne County,MI,NA,14.954954954954955,NA
48235,Wayne County,MI,NA,3.6036036036036037,NA
48307,Oakland County,MI,NA,21.53153153153153,NA
48310,Macomb County,MI,NA,45.94594594594595,NA
48315,Macomb County,MI,41.66666666666667,NA,NA
48323,Oakland County,MI,NA,44.5045045045045,NA
48336,Oakland County,MI,NA,NA,29.132231404958674
48341,Oakland County,MI,NA,74.95495495495496,NA
48348,Oakland County,MI,NA,46.21621621621622,NA
48374,Oakland County,MI,NA,72.7927927927928,NA
48386,Oakland County,MI,NA,43.06306306306306,NA
48420,Genesee County,MI,NA,NA,43.595041322314046
48507,Genesee County,MI,NA,31.71171171171171,NA
48519,Genesee County,MI,NA,NA,87.19008264462809
48622,Clare County,MI,NA,75.4054054054054,NA
48640,Midland County,MI,9.523809523809524,NA,NA
48642,Midland County,MI,NA,NA,8.677685950413224
48651,Roscommon County,MI,92.06349206349206,NA,NA
48656,Roscommon County,MI,NA,86.12612612612612,NA
48661,Ogemaw County,MI,NA,54.054054054054056,NA
48706,Bay County,MI,NA,1.4414414414414414,NA
48823,Ingham County,MI,NA,NA,37.1900826446281
48843,Livingston County,MI,14.285714285714285,NA,NA
48911,Ingham County,MI,6.746031746031746,NA,NA
49010,Allegan County,MI,45.63492063492063,NA,NA
49015,Calhoun County,MI,NA,29.36936936936937,NA
49038,Berrien County,MI,NA,NA,59.50413223140496
49057,Van Buren County,MI,NA,73.51351351351352,NA
49085,Berrien County,MI,NA,NA,66.11570247933885
49090,Van Buren County,MI,NA,41.711711711711715,NA
49098,Berrien County,MI,NA,83.42342342342343,NA
49127,Berrien County,MI,NA,NA,53.099173553719005
49201,Jackson County,MI,NA,28.73873873873874,NA
49221,Lenawee County,MI,NA,5.315315315315315,NA
49315,Kent County,MI,NA,37.207207207207205,NA
49417,Ottawa County,MI,NA,NA,15.495867768595042
49507,Kent County,MI,NA,23.333333333333332,NA
49601,Wexford County,MI,NA,51.80180180180181,NA
49707,Alpena County,MI,NA,NA,48.96694214876033
49712,Charlevoix County,MI,NA,NA,55.99173553719008
49783,Chippewa County,MI,NA,56.846846846846844,NA
49801,Dickinson County,MI,NA,NA,46.48760330578512
49841,Marquette County,MI,NA,74.77477477477478,NA
49855,Marquette County,MI,18.253968253968253,15.765765765765765,NA
49930,Houghton County,MI,NA,71.8018018018018,NA
49935,Iron County,MI,NA,NA,57.438016528925615
49938,Gogebic County,MI,NA,50.27027027027027,56.611570247933884
55033,Dakota County,MN,NA,56.57657657657658,NA
55068,Dakota County,MN,NA,80.18018018018019,NA
55102,Ramsey County,MN,NA,40.27027027027027,NA
55104,Ramsey County,MN,NA,40.630630630630634,NA
55107,Ramsey County,MN,NA,68.73873873873873,NA
55108,Ramsey County,MN,NA,NA,92.35537190082644
55118,Dakota County,MN,NA,NA,24.380165289256198
55121,Dakota County,MN,NA,95.22522522522523,NA
55128,Washington County,MN,NA,NA,47.93388429752066
55303,Anoka County,MN,NA,34.234234234234236,NA
55308,Sherburne County,MN,NA,97.92792792792793,NA
55344,Hennepin County,MN,NA,91.7117117117117,NA
55347,Hennepin County,MN,NA,61.891891891891895,NA
55407,Hennepin County,MN,NA,NA,54.33884297520662
55408,Hennepin County,MN,NA,NA,88.22314049586777
55421,Anoka County,MN,NA,46.93693693693694,NA
55429,Hennepin County,MN,NA,NA,83.26446280991735
55432,Anoka County,MN,NA,45.585585585585584,61.57024793388429
55434,Anoka County,MN,NA,NA,75.41322314049587
55443,Hennepin County,MN,NA,45.85585585585585,NA
55447,Hennepin County,MN,NA,NA,79.54545454545455
55454,Hennepin County,MN,86.5079365079365,NA,NA
55720,Carlton County,MN,NA,43.873873873873876,NA
55746,St. Louis County,MN,NA,65.49549549549549,NA
55792,St. Louis County,MN,76.5873015873016,NA,NA
55803,St. Louis County,MN,NA,NA,81.81818181818183
55901,Olmsted County,MN,NA,26.216216216216214,NA
55912,Mower County,MN,NA,4.1441441441441444,NA
55987,Winona County,MN,NA,22.52252252252252,NA
56001,Blue Earth County,MN,NA,NA,46.074380165289256
56007,Freeborn County,MN,NA,7.837837837837839,NA
56031,Martin County,MN,NA,19.36936936936937,NA
56097,Faribault County,MN,NA,96.84684684684684,NA
56308,Douglas County,MN,NA,45.765765765765764,NA
56401,Crow Wing County,MN,NA,5.585585585585585,NA
56468,Crow Wing County,MN,NA,82.7927927927928,NA
56472,Crow Wing County,MN,NA,69.36936936936937,NA
56501,Becker County,MN,NA,NA,19.214876033057852
56572,Otter Tail County,MN,NA,64.77477477477478,NA
56601,Beltrami County,MN,NA,NA,13.223140495867769
56716,Polk County,MN,NA,70.990990990991,NA
38620,Panola County,MS,NA,99.09909909909909,NA
38652,Union County,MS,NA,71.17117117117117,NA
38834,Alcorn County,MS,NA,25.585585585585584,NA
38852,Tishomingo County,MS,NA,63.78378378378379,NA
39204,Hinds County,MS,NA,85.85585585585585,NA
39212,Hinds County,MS,NA,62.25225225225225,NA
39367,Wayne County,MS,NA,63.42342342342342,NA
39553,Jackson County,MS,NA,NA,73.55371900826447
39730,Monroe County,MS,NA,64.86486486486487,NA
39744,Webster County,MS,NA,78.28828828828829,NA
63303,St. Charles County,MO,NA,10.99099099099099,NA
63304,St. Charles County,MO,NA,14.054054054054054,NA
63366,St. Charles County,MO,NA,NA,10.12396694214876
63368,St. Charles County,MO,NA,21.62162162162162,NA
63379,Lincoln County,MO,NA,29.45945945945946,NA
63385,St. Charles County,MO,NA,NA,17.768595041322314
63601,St. Francois County,MO,NA,55.4954954954955,NA
63841,Stoddard County,MO,NA,71.71171171171171,NA
63937,Carter County,MO,NA,99.90990990990991,NA
64052,Jackson County,MO,NA,36.3963963963964,NA
64055,Jackson County,MO,NA,36.666666666666664,NA
64057,Jackson County,MO,NA,49.81981981981982,NA
64063,Jackson County,MO,NA,39.189189189189186,NA
64064,Jackson County,MO,NA,47.65765765765766,NA
64081,Jackson County,MO,NA,NA,38.63636363636363
64086,Jackson County,MO,NA,41.08108108108108,NA
64116,Clay County,MO,25.396825396825395,NA,NA
64124,Jackson County,MO,NA,87.74774774774775,NA
64128,Jackson County,MO,NA,NA,75.82644628099173
64133,Jackson County,MO,NA,4.774774774774775,NA
64506,Buchanan County,MO,NA,6.936936936936937,NA
64735,Henry County,MO,NA,42.34234234234234,NA
65202,Boone County,MO,11.904761904761903,22.792792792792792,NA
65203,Boone County,MO,89.68253968253968,NA,NA
65270,Randolph County,MO,NA,NA,61.36363636363637
65401,Phelps County,MO,NA,NA,29.75206611570248
65560,Dent County,MO,62.698412698412696,NA,NA
65738,Greene County,MO,NA,79.0990990990991,NA
65747,Barry County,MO,NA,95.4954954954955,NA
65793,Howell County,MO,NA,NA,92.97520661157024
65802,Greene County,MO,12.3015873015873,NA,NA
65804,Greene County,MO,NA,34.77477477477478,15.909090909090908
65806,Greene County,MO,NA,98.46846846846847,NA
59330,Dawson County,MT,NA,NA,85.74380165289256
59718,Gallatin County,MT,NA,40.36036036036036,NA
59801,Missoula County,MT,NA,NA,56.81818181818182
68110,Douglas County,NE,NA,NA,98.34710743801654
68134,Douglas County,NE,NA,58.37837837837838,NA
68154,Douglas County,NE,NA,79.36936936936937,NA
69001,Red Willow County,NE,NA,NA,47.93388429752066
89102,Clark County,NV,52.77777777777778,NA,NA
89113,Clark County,NV,NA,77.65765765765765,NA
89144,Clark County,NV,NA,85.4954954954955,NA
89148,Clark County,NV,NA,71.98198198198197,NA
89436,Washoe County,NV,NA,11.531531531531531,NA
89706,Carson City,NV,NA,68.1981981981982,NA
03054,Hillsborough County,NH,NA,17.2972972972973,NA
03452,Cheshire County,NH,NA,NA,66.94214876033058
03811,Rockingham County,NH,NA,60.630630630630634,99.3801652892562
03860,Carroll County,NH,NA,90.81081081081082,NA
07017,Essex County,NJ,NA,15.045045045045043,NA
07031,Bergen County,NJ,NA,NA,97.31404958677686
07055,Passaic County,NJ,NA,3.6936936936936933,NA
07065,Union County,NJ,NA,34.054054054054056,NA
07083,Union County,NJ,NA,28.01801801801802,NA
07104,Essex County,NJ,NA,NA,25.413223140495866
07305,Hudson County,NJ,0.3968253968253968,2.2522522522522523,NA
07410,Bergen County,NJ,NA,NA,82.64462809917356
07461,Sussex County,NJ,NA,60.27027027027027,NA
07719,Monmouth County,NJ,NA,62.34234234234234,NA
07747,Monmouth County,NJ,NA,39.909909909909906,NA
07750,Monmouth County,NJ,NA,98.91891891891892,NA
07823,Warren County,NJ,NA,82.97297297297297,NA
07866,Morris County,NJ,73.01587301587301,NA,NA
07882,Warren County,NJ,NA,57.83783783783784,NA
07901,Union County,NJ,NA,83.96396396396396,NA
08046,Burlington County,NJ,NA,NA,64.87603305785123
08062,Gloucester County,NJ,NA,77.74774774774775,NA
08075,Burlington County,NJ,NA,29.639639639639643,NA
08083,Camden County,NJ,44.44444444444444,NA,NA
08098,Salem County,NJ,NA,87.38738738738738,NA
08701,Ocean County,NJ,NA,NA,2.8925619834710745
08755,Ocean County,NJ,NA,18.64864864864865,NA
08807,Somerset County,NJ,32.142857142857146,NA,NA
08812,Middlesex County,NJ,NA,88.46846846846846,NA
08817,Middlesex County,NJ,NA,22.25225225225225,NA
08831,Middlesex County,NJ,NA,9.00900900900901,NA
08850,Middlesex County,NJ,NA,93.24324324324324,NA
08854,Middlesex County,NJ,NA,11.981981981981981,NA
08857,Middlesex County,NJ,NA,15.225225225225225,NA
08876,Somerset County,NJ,NA,59.27927927927929,NA
87002,Valencia County,NM,NA,55.31531531531532,NA
87016,Torrance County,NM,NA,NA,100
87047,Bernalillo County,NM,NA,94.05405405405406,NA
87102,Bernalillo County,NM,24.6031746031746,NA,NA
87105,Bernalillo County,NM,NA,4.234234234234234,NA
87106,Bernalillo County,NM,59.12698412698413,NA,NA
87110,Bernalillo County,NM,NA,NA,41.32231404958678
87112,Bernalillo County,NM,NA,9.81981981981982,NA
87121,Bernalillo County,NM,NA,31.53153153153153,NA
87123,Bernalillo County,NM,NA,5.495495495495495,NA
87124,Sandoval County,NM,NA,8.91891891891892,NA
87144,Sandoval County,NM,NA,NA,50.413223140495866
87401,San Juan County,NM,20.634920634920633,NA,NA
88012,Doa Ana County,NM,NA,80,NA
88130,Roosevelt County,NM,74.60317460317461,41.62162162162162,NA
88201,Chaves County,NM,NA,37.92792792792793,NA
88203,Chaves County,NM,NA,82.43243243243244,55.578512396694215
88220,Eddy County,NM,NA,22.52252252252252,NA
88310,Otero County,NM,NA,26.486486486486488,NA
10002,New York County,NY,NA,3.153153153153153,NA
10009,New York County,NY,NA,NA,5.1652892561983474
10011,New York County,NY,NA,53.96396396396397,NA
10019,New York County,NY,NA,91.8918918918919,NA
10021,New York County,NY,NA,NA,19.00826446280992
10023,New York County,NY,NA,NA,5.371900826446281
10025,New York County,NY,NA,NA,18.801652892561986
10026,New York County,NY,NA,NA,35.9504132231405
10028,New York County,NY,NA,NA,21.074380165289256
10029,New York County,NY,NA,NA,8.057851239669422
10033,New York County,NY,NA,18.46846846846847,15.289256198347106
10075,New York County,NY,88.4920634920635,NA,NA
10305,Richmond County,NY,21.03174603174603,NA,NA
10310,Richmond County,NY,49.2063492063492,NA,53.30578512396694
10312,Richmond County,NY,NA,NA,21.90082644628099
10451,Bronx County,NY,NA,6.306306306306306,7.644628099173553
10452,Bronx County,NY,NA,0.5405405405405406,NA
10456,Bronx County,NY,NA,0.09009009009009009,NA
10457,Bronx County,NY,NA,NA,62.396694214876035
10459,Bronx County,NY,NA,9.27927927927928,NA
10460,Bronx County,NY,NA,1.1711711711711712,NA
10462,Bronx County,NY,28.968253968253972,NA,NA
10463,Bronx County,NY,NA,4.504504504504505,NA
10466,Bronx County,NY,NA,NA,41.942148760330575
10467,Bronx County,NY,NA,NA,1.859504132231405
10468,Bronx County,NY,NA,17.47747747747748,9.090909090909092
10469,Bronx County,NY,NA,7.027027027027027,NA
10472,Bronx County,NY,NA,1.8018018018018018,NA
10598,Westchester County,NY,NA,75.49549549549549,NA
10701,Westchester County,NY,NA,4.414414414414415,NA
10703,Westchester County,NY,NA,NA,90.49586776859503
10990,Orange County,NY,NA,38.73873873873874,NA
11101,Queens County,NY,NA,93.51351351351352,NA
11201,Kings County,NY,NA,20.27027027027027,NA
11204,Kings County,NY,68.25396825396825,NA,NA
11205,Kings County,NY,NA,19.45945945945946,NA
11206,Kings County,NY,NA,1.0810810810810811,NA
11210,Kings County,NY,NA,21.891891891891895,NA
11213,Kings County,NY,NA,5.8558558558558556,NA
11219,Kings County,NY,NA,56.03603603603604,NA
11221,Kings County,NY,NA,NA,6.40495867768595
11222,Kings County,NY,NA,NA,64.6694214876033
11223,Kings County,NY,NA,12.162162162162163,NA
11224,Kings County,NY,NA,NA,2.272727272727273
11226,Kings County,NY,NA,2.7927927927927927,NA
11228,Kings County,NY,NA,NA,47.72727272727273
11235,Kings County,NY,NA,NA,1.0330578512396695
11357,Queens County,NY,NA,94.5945945945946,NA
11362,Queens County,NY,NA,84.32432432432432,NA
11372,Queens County,NY,NA,21.8018018018018,NA
11375,Queens County,NY,NA,30.180180180180184,NA
11377,Queens County,NY,NA,15.315315315315313,NA
11378,Queens County,NY,NA,58.828828828828826,NA
11413,Queens County,NY,NA,41.351351351351354,NA
11419,Queens County,NY,NA,28.1981981981982,NA
11426,Queens County,NY,NA,77.29729729729729,NA
11434,Queens County,NY,NA,NA,52.68595041322314
11722,Suffolk County,NY,NA,63.96396396396396,NA
11727,Suffolk County,NY,NA,30.54054054054054,NA
11738,Suffolk County,NY,NA,NA,87.60330578512396
11756,Nassau County,NY,NA,68.1981981981982,NA
11791,Nassau County,NY,NA,NA,60.33057851239669
11795,Suffolk County,NY,NA,71.17117117117117,NA
12025,Fulton County,NY,NA,96.3963963963964,NA
12033,Rensselaer County,NY,NA,NA,76.03305785123968
12065,Saratoga County,NY,NA,NA,23.553719008264462
12159,Albany County,NY,NA,NA,69.83471074380165
12188,Saratoga County,NY,83.33333333333334,NA,NA
12302,Schenectady County,NY,NA,24.324324324324326,NA
12306,Schenectady County,NY,NA,NA,42.97520661157025
12538,Dutchess County,NY,NA,59.09909909909909,NA
12553,Orange County,NY,NA,65.76576576576578,NA
12701,Sullivan County,NY,NA,66.84684684684684,NA
12754,Sullivan County,NY,NA,NA,60.9504132231405
12801,Warren County,NY,21.825396825396826,NA,NA
12803,Saratoga County,NY,NA,83.42342342342343,NA
12804,Warren County,NY,NA,41.98198198198198,NA
12809,Washington County,NY,94.04761904761905,NA,NA
12866,Saratoga County,NY,NA,40.99099099099099,NA
13021,Cayuga County,NY,NA,1.7117117117117115,NA
13027,Onondaga County,NY,NA,52.52252252252252,NA
13036,Oswego County,NY,64.68253968253968,NA,NA
13045,Cortland County,NY,NA,9.90990990990991,NA
13066,Onondaga County,NY,NA,82.61261261261261,NA
13077,Cortland County,NY,NA,65.58558558558558,NA
13080,Onondaga County,NY,NA,98.55855855855856,NA
13082,Madison County,NY,NA,92.16216216216216,NA
13090,Onondaga County,NY,NA,28.10810810810811,NA
13108,Onondaga County,NY,87.6984126984127,NA,NA
13116,Onondaga County,NY,NA,98.01801801801801,NA
13118,Cayuga County,NY,NA,84.14414414414414,NA
13142,Oswego County,NY,NA,89.90990990990991,NA
13148,Seneca County,NY,NA,81.26126126126127,NA
13152,Onondaga County,NY,NA,82.25225225225226,NA
13158,Cortland County,NY,NA,99.45945945945947,NA
13159,Onondaga County,NY,NA,94.05405405405406,NA
13164,Onondaga County,NY,NA,100,NA
13203,Onondaga County,NY,21.428571428571427,NA,NA
13208,Onondaga County,NY,NA,NA,75.6198347107438
13210,Onondaga County,NY,39.285714285714285,68.82882882882882,NA
13214,Onondaga County,NY,NA,NA,81.61157024793388
13219,Onondaga County,NY,NA,49.90990990990991,NA
13316,Oneida County,NY,NA,93.42342342342343,NA
13323,Oneida County,NY,NA,50.630630630630634,NA
13350,Herkimer County,NY,NA,33.42342342342342,NA
13357,Herkimer County,NY,NA,54.59459459459459,NA
13490,Oneida County,NY,NA,99.63963963963964,NA
13617,St. Lawrence County,NY,NA,34.41441441441441,NA
13662,St. Lawrence County,NY,7.5396825396825395,NA,NA
13760,Broome County,NY,NA,0.2702702702702703,NA
13820,Otsego County,NY,NA,NA,16.32231404958678
13825,Otsego County,NY,NA,95.31531531531532,NA
14011,Wyoming County,NY,NA,NA,90.9090909090909
14051,Erie County,NY,NA,48.28828828828829,NA
14059,Erie County,NY,NA,78.46846846846847,77.68595041322314
14063,Chautauqua County,NY,NA,48.1981981981982,NA
14072,Erie County,NY,NA,35.67567567567568,NA
14075,Erie County,NY,NA,32.25225225225225,NA
14086,Erie County,NY,22.61904761904762,NA,NA
14092,Niagara County,NY,NA,NA,45.45454545454545
14098,Orleans County,NY,NA,96.03603603603604,NA
14221,Erie County,NY,NA,NA,14.46280991735537
14222,Erie County,NY,NA,NA,96.28099173553719
14224,Erie County,NY,NA,8.558558558558559,11.983471074380166
14226,Erie County,NY,32.93650793650794,37.47747747747748,NA
14227,Erie County,NY,NA,25.945945945945947,NA
14420,Monroe County,NY,NA,58.108108108108105,NA
14454,Livingston County,NY,77.77777777777779,NA,NA
14464,Monroe County,NY,55.55555555555556,NA,NA
14482,Genesee County,NY,NA,NA,88.42975206611571
14512,Ontario County,NY,80.15873015873017,NA,NA
14514,Monroe County,NY,NA,83.33333333333334,NA
14533,Livingston County,NY,NA,98.82882882882883,NA
14534,Monroe County,NY,NA,1.6216216216216217,NA
14580,Monroe County,NY,1.1904761904761905,NA,NA
14586,Monroe County,NY,NA,88.10810810810811,NA
14616,Monroe County,NY,NA,NA,28.09917355371901
14618,Monroe County,NY,NA,11.441441441441441,NA
14624,Monroe County,NY,NA,1.981981981981982,NA
14701,Chautauqua County,NY,NA,1.891891891891892,NA
14760,Cattaraugus County,NY,NA,12.792792792792792,NA
14787,Chautauqua County,NY,NA,89.72972972972974,NA
14823,Steuben County,NY,NA,83.15315315315316,NA
14843,Steuben County,NY,NA,31.261261261261264,NA
14850,Tompkins County,NY,NA,6.126126126126126,NA
14904,Chemung County,NY,29.365079365079367,NA,NA
27012,Forsyth County,NC,NA,4.324324324324325,NA
27027,Rockingham County,NC,NA,92.07207207207207,NA
27055,Yadkin County,NC,NA,NA,52.47933884297521
27103,Forsyth County,NC,NA,8.73873873873874,1.6528925619834711
27127,Forsyth County,NC,NA,NA,7.43801652892562
27203,Randolph County,NC,NA,48.64864864864865,57.85123966942148
27215,Alamance County,NC,NA,29.27927927927928,NA
27284,Forsyth County,NC,NA,1.5315315315315314,NA
27288,Rockingham County,NC,NA,23.153153153153152,NA
27292,Davidson County,NC,NA,0.8108108108108109,NA
27295,Davidson County,NC,NA,NA,3.3057851239669422
27320,Rockingham County,NC,NA,NA,4.545454545454546
27350,Randolph County,NC,NA,90.90090090090091,NA
27405,Guilford County,NC,11.507936507936508,NA,NA
27406,Guilford County,NC,NA,0.990990990990991,NA
27516,Orange County,NC,NA,45.67567567567568,23.140495867768596
27517,Orange County,NC,NA,NA,17.355371900826448
27530,Wayne County,NC,NA,20.63063063063063,NA
27534,Wayne County,NC,38.492063492063494,51.53153153153153,NA
27545,Wake County,NC,NA,NA,39.46280991735537
27577,Johnston County,NC,NA,32.072072072072075,NA
27589,Warren County,NC,90.87301587301587,65.13513513513513,NA
27604,Wake County,NC,NA,41.171171171171174,NA
27609,Wake County,NC,NA,NA,27.27272727272727
27705,Durham County,NC,NA,63.873873873873876,NA
27801,Edgecombe County,NC,NA,56.93693693693693,NA
27851,Wilson County,NC,NA,NA,98.96694214876032
27863,Wayne County,NC,NA,NA,92.56198347107438
27889,Beaufort County,NC,NA,23.603603603603602,NA
27893,Wilson County,NC,NA,23.693693693693692,NA
27896,Wilson County,NC,54.36507936507936,74.32432432432432,NA
27944,Perquimans County,NC,NA,51.711711711711715,NA
27949,Dare County,NC,NA,NA,78.099173553719
27983,Bertie County,NC,58.333333333333336,NA,NA
28031,Mecklenburg County,NC,NA,43.78378378378379,NA
28079,Union County,NC,NA,NA,40.289256198347104
28147,Rowan County,NC,NA,49.72972972972973,NA
28150,Cleveland County,NC,NA,72.34234234234235,NA
28168,Lincoln County,NC,NA,NA,88.63636363636364
28210,Mecklenburg County,NC,NA,NA,30.785123966942145
28211,Mecklenburg County,NC,NA,58.648648648648646,NA
28311,Cumberland County,NC,NA,73.78378378378379,NA
28314,Cumberland County,NC,NA,NA,43.388429752066116
28333,Wayne County,NC,71.42857142857143,80.27027027027027,NA
28348,Cumberland County,NC,NA,40.090090090090094,NA
28360,Robeson County,NC,NA,61.44144144144145,NA
28365,Wayne County,NC,NA,71.53153153153153,76.2396694214876
28405,New Hanover County,NC,NA,64.6846846846847,NA
28411,New Hanover County,NC,NA,38.828828828828826,NA
28460,Onslow County,NC,NA,78.91891891891892,NA
28465,Brunswick County,NC,NA,84.23423423423422,NA
28504,Lenoir County,NC,NA,61.17117117117117,NA
28513,Pitt County,NC,NA,NA,89.46280991735537
28540,Onslow County,NC,27.380952380952383,NA,NA
28551,Lenoir County,NC,NA,82.16216216216216,NA
28562,Craven County,NC,NA,21.17117117117117,NA
28584,Carteret County,NC,NA,62.16216216216216,NA
28601,Catawba County,NC,NA,9.36936936936937,NA
28604,Watauga County,NC,NA,67.2072072072072,NA
28640,Ashe County,NC,96.03174603174604,NA,NA
28645,Caldwell County,NC,NA,7.117117117117116,NA
28659,Wilkes County,NC,NA,NA,39.25619834710744
28675,Alleghany County,NC,NA,NA,74.17355371900827
28717,Jackson County,NC,NA,NA,98.14049586776859
28721,Haywood County,NC,80.55555555555556,NA,NA
28739,Henderson County,NC,NA,64.32432432432432,NA
28785,Haywood County,NC,NA,NA,73.14049586776859
28906,Cherokee County,NC,NA,NA,20.66115702479339
58078,Cass County,ND,NA,67.02702702702703,NA
58103,Cass County,ND,NA,2.6126126126126126,2.066115702479339
58554,Morton County,ND,NA,27.297297297297295,NA
58701,Ward County,ND,10.317460317460316,8.82882882882883,NA
43026,Franklin County,OH,NA,57.117117117117125,NA
43040,Union County,OH,NA,NA,23.34710743801653
43044,Champaign County,OH,NA,94.23423423423424,NA
43056,Licking County,OH,NA,NA,55.78512396694215
43065,Delaware County,OH,NA,NA,44.83471074380165
43076,Perry County,OH,NA,92.61261261261261,NA
43130,Fairfield County,OH,NA,2.5225225225225225,NA
43205,Franklin County,OH,NA,94.77477477477477,NA
43214,Franklin County,OH,82.53968253968253,NA,NA
43219,Franklin County,OH,18.650793650793652,NA,NA
43224,Franklin County,OH,5.555555555555555,NA,NA
43231,Franklin County,OH,NA,83.78378378378379,NA
43235,Franklin County,OH,NA,35.945945945945944,NA
43302,Marion County,OH,2.7777777777777777,NA,NA
43402,Wood County,OH,NA,NA,18.59504132231405
43420,Sandusky County,OH,10.714285714285714,NA,NA
43528,Lucas County,OH,NA,44.68468468468468,NA
43543,Williams County,OH,NA,NA,92.14876033057851
43551,Wood County,OH,NA,6.756756756756757,NA
43567,Fulton County,OH,NA,71.35135135135135,NA
43614,Lucas County,OH,NA,10.54054054054054,NA
43812,Coshocton County,OH,NA,35.4954954954955,NA
44023,Geauga County,OH,NA,NA,14.256198347107437
44035,Lorain County,OH,0,0,NA
44050,Lorain County,OH,NA,79.54954954954955,NA
44052,Lorain County,OH,NA,63.153153153153156,NA
44054,Lorain County,OH,NA,38.108108108108105,76.65289256198346
44055,Lorain County,OH,NA,54.68468468468468,NA
44067,Summit County,OH,NA,70.8108108108108,NA
44074,Lorain County,OH,NA,NA,51.446280991735534
44077,Lake County,OH,3.571428571428571,NA,NA
44087,Summit County,OH,NA,85.94594594594595,NA
44089,Erie County,OH,NA,9.72972972972973,10.330578512396695
44090,Lorain County,OH,NA,87.65765765765767,56.81818181818182
44102,Cuyahoga County,OH,NA,17.92792792792793,NA
44103,Cuyahoga County,OH,NA,12.252252252252251,NA
44104,Cuyahoga County,OH,4.365079365079365,NA,NA
44105,Cuyahoga County,OH,0.7936507936507936,NA,NA
44107,Cuyahoga County,OH,NA,42.61261261261261,NA
44108,Cuyahoga County,OH,NA,5.9459459459459465,NA
44109,Cuyahoga County,OH,NA,NA,6.6115702479338845
44110,Cuyahoga County,OH,NA,36.666666666666664,NA
44111,Cuyahoga County,OH,NA,2.7027027027027026,NA
44112,Cuyahoga County,OH,NA,4.864864864864865,NA
44115,Cuyahoga County,OH,NA,97.65765765765767,NA
44116,Cuyahoga County,OH,NA,NA,6.8181818181818175
44118,Cuyahoga County,OH,NA,10.18018018018018,5.578512396694215
44120,Cuyahoga County,OH,NA,3.2432432432432434,NA
44121,Cuyahoga County,OH,NA,45.40540540540541,NA
44122,Cuyahoga County,OH,NA,5.225225225225225,NA
44124,Cuyahoga County,OH,26.190476190476193,NA,0.4132231404958678
44130,Cuyahoga County,OH,NA,0.6306306306306306,NA
44138,Cuyahoga County,OH,NA,23.783783783783786,NA
44142,Cuyahoga County,OH,NA,NA,16.94214876033058
44143,Cuyahoga County,OH,NA,NA,2.479338842975207
44145,Cuyahoga County,OH,NA,4.954954954954955,NA
44147,Cuyahoga County,OH,NA,NA,29.958677685950413
44202,Portage County,OH,NA,NA,36.98347107438016
44203,Summit County,OH,NA,8.198198198198197,NA
44212,Medina County,OH,NA,8.64864864864865,3.71900826446281
44224,Summit County,OH,NA,8.108108108108109,NA
44231,Portage County,OH,NA,87.56756756756758,NA
44240,Portage County,OH,NA,19.72972972972973,NA
44241,Portage County,OH,34.92063492063492,NA,NA
44266,Portage County,OH,8.333333333333332,NA,NA
44281,Medina County,OH,NA,13.333333333333334,NA
44287,Wayne County,OH,NA,68.37837837837839,NA
44314,Summit County,OH,NA,20.81081081081081,NA
44320,Summit County,OH,19.841269841269842,53.42342342342342,NA
44410,Trumbull County,OH,NA,25.765765765765764,NA
44505,Mahoning County,OH,NA,NA,35.12396694214876
44646,Stark County,OH,NA,11.621621621621623,NA
44657,Stark County,OH,86.11111111111111,NA,NA
44685,Summit County,OH,NA,22.882882882882882,27.066115702479337
44705,Stark County,OH,NA,36.846846846846844,NA
44706,Stark County,OH,NA,42.7027027027027,NA
44714,Stark County,OH,NA,70.9009009009009,NA
44805,Ashland County,OH,15.079365079365079,5.405405405405405,NA
44837,Huron County,OH,NA,97.47747747747748,NA
44857,Huron County,OH,NA,7.3873873873873865,NA
44870,Erie County,OH,1.984126984126984,NA,NA
44889,Huron County,OH,NA,60.72072072072072,NA
45036,Warren County,OH,NA,26.306306306306304,38.429752066115704
45039,Warren County,OH,NA,62.52252252252253,NA
45069,Butler County,OH,NA,NA,14.669421487603307
45102,Clermont County,OH,NA,NA,72.52066115702479
45103,Clermont County,OH,NA,NA,53.71900826446281
45171,Brown County,OH,NA,85.58558558558559,NA
45230,Hamilton County,OH,56.34920634920635,NA,NA
45238,Hamilton County,OH,16.666666666666664,NA,NA
45241,Hamilton County,OH,NA,37.83783783783784,NA
45255,Hamilton County,OH,NA,46.48648648648649,NA
45309,Montgomery County,OH,NA,60.18018018018017,NA
45373,Miami County,OH,NA,11.711711711711711,NA
45403,Montgomery County,OH,NA,76.84684684684684,86.77685950413223
45405,Montgomery County,OH,NA,76.66666666666667,NA
45432,Greene County,OH,NA,57.747747747747745,NA
45440,Montgomery County,OH,NA,69.90990990990991,NA
45503,Clark County,OH,NA,45.4954954954955,NA
45640,Jackson County,OH,NA,NA,12.190082644628099
45648,Scioto County,OH,NA,NA,32.02479338842975
45656,Jackson County,OH,86.90476190476191,NA,NA
45701,Athens County,OH,67.46031746031747,NA,NA
45750,Washington County,OH,NA,6.666666666666667,NA
45840,Hancock County,OH,NA,3.063063063063063,NA
45872,Wood County,OH,NA,95.4054054054054,NA
73018,Grady County,OK,NA,31.801801801801805,NA
73034,Oklahoma County,OK,NA,48.55855855855856,NA
73044,Logan County,OK,NA,13.603603603603604,NA
73072,Cleveland County,OK,NA,NA,36.15702479338843
73105,Oklahoma County,OK,NA,96.48648648648648,NA
73115,Oklahoma County,OK,NA,43.15315315315315,NA
73120,Oklahoma County,OK,NA,27.47747747747748,NA
73132,Oklahoma County,OK,NA,45.04504504504504,NA
73162,Oklahoma County,OK,NA,16.936936936936934,NA
73170,Cleveland County,OK,NA,NA,9.297520661157025
73505,Comanche County,OK,NA,15.675675675675677,NA
73538,Comanche County,OK,99.60317460317461,NA,NA
74006,Washington County,OK,NA,39.54954954954955,NA
74011,Tulsa County,OK,NA,46.3963963963964,NA
74015,Rogers County,OK,NA,88.01801801801801,NA
74301,Craig County,OK,NA,72.70270270270271,NA
74344,Delaware County,OK,NA,53.333333333333336,NA
74571,Le Flore County,OK,NA,87.74774774774775,NA
74743,Choctaw County,OK,NA,86.57657657657658,70.66115702479338
74884,Seminole County,OK,NA,77.47747747747748,NA
74959,Le Flore County,OK,NA,NA,91.94214876033058
97007,Washington County,OR,NA,NA,37.60330578512397
97123,Washington County,OR,NA,14.504504504504503,NA
97128,Yamhill County,OR,NA,27.837837837837835,NA
97132,Yamhill County,OR,NA,NA,30.991735537190085
97201,Multnomah County,OR,NA,76.03603603603604,NA
97202,Multnomah County,OR,NA,49.36936936936937,NA
97209,Multnomah County,OR,NA,NA,83.88429752066115
97217,Multnomah County,OR,NA,48.37837837837838,NA
97224,Washington County,OR,NA,NA,27.892561983471076
97267,Clackamas County,OR,NA,38.91891891891892,NA
97301,Marion County,OR,NA,24.684684684684687,NA
97365,Lincoln County,OR,NA,40.45045045045045,NA
97367,Lincoln County,OR,NA,66.12612612612612,NA
97378,Yamhill County,OR,NA,NA,79.9586776859504
97394,Lincoln County,OR,NA,NA,67.56198347107438
97420,Coos County,OR,NA,42.252252252252255,44.214876033057855
97504,Jackson County,OR,23.015873015873016,NA,NA
15001,Beaver County,PA,NA,16.036036036036037,NA
15009,Beaver County,PA,NA,38.37837837837838,NA
15025,Allegheny County,PA,NA,47.2972972972973,NA
15033,Washington County,PA,91.26984126984127,NA,NA
15044,Allegheny County,PA,NA,NA,22.31404958677686
15063,Washington County,PA,NA,NA,59.71074380165289
15068,Westmoreland County,PA,NA,NA,4.75206611570248
15116,Allegheny County,PA,NA,84.41441441441442,NA
15122,Allegheny County,PA,NA,56.75675675675676,NA
15129,Allegheny County,PA,NA,95.94594594594594,NA
15132,Allegheny County,PA,13.492063492063492,NA,NA
15133,Allegheny County,PA,NA,85.13513513513513,NA
15136,Allegheny County,PA,NA,36.486486486486484,NA
15201,Allegheny County,PA,NA,51.621621621621614,NA
15221,Allegheny County,PA,NA,61.08108108108108,NA
15228,Allegheny County,PA,NA,65.85585585585586,NA
15243,Allegheny County,PA,NA,NA,33.057851239669425
15317,Washington County,PA,NA,9.45945945945946,NA
15332,Washington County,PA,NA,91.44144144144144,NA
15601,Westmoreland County,PA,NA,1.2612612612612613,NA
15683,Westmoreland County,PA,NA,60.810810810810814,NA
15904,Cambria County,PA,NA,NA,21.694214876033058
15946,Cambria County,PA,NA,87.2072072072072,NA
16001,Butler County,PA,NA,NA,4.132231404958678
16117,Lawrence County,PA,NA,NA,26.65289256198347
16314,Crawford County,PA,93.25396825396825,NA,NA
16407,Erie County,PA,NA,64.5945945945946,NA
16424,Crawford County,PA,NA,93.06306306306307,NA
16428,Erie County,PA,NA,92.43243243243244,NA
16438,Erie County,PA,NA,89.54954954954954,NA
16505,Erie County,PA,NA,NA,58.67768595041323
16652,Huntingdon County,PA,NA,54.234234234234236,NA
16749,McKean County,PA,NA,86.48648648648648,NA
16830,Clearfield County,PA,NA,NA,51.85950413223141
17022,Lancaster County,PA,NA,14.864864864864865,NA
17036,Dauphin County,PA,NA,11.26126126126126,NA
17042,Lebanon County,PA,NA,31.17117117117117,NA
17043,Cumberland County,PA,NA,94.95495495495496,NA
17111,Dauphin County,PA,NA,6.486486486486487,NA
17112,Dauphin County,PA,NA,5.675675675675676,NA
17201,Franklin County,PA,NA,19.90990990990991,NA
17319,York County,PA,NA,NA,87.39669421487604
17517,Lancaster County,PA,NA,59.009009009009006,NA
17522,Lancaster County,PA,NA,11.081081081081082,NA
17543,Lancaster County,PA,NA,43.42342342342342,NA
17603,Lancaster County,PA,9.126984126984127,NA,NA
17815,Columbia County,PA,NA,NA,48.553719008264466
17851,Northumberland County,PA,74.20634920634922,NA,NA
17976,Schuylkill County,PA,NA,89.45945945945945,NA
18036,Lehigh County,PA,NA,34.054054054054056,NA
18042,Northampton County,PA,5.158730158730158,5.045045045045045,NA
18049,Lehigh County,PA,NA,41.891891891891895,NA
18103,Lehigh County,PA,4.761904761904762,NA,NA
18337,Pike County,PA,NA,66.3963963963964,NA
18360,Monroe County,PA,NA,12.522522522522522,NA
18428,Pike County,PA,NA,82.07207207207207,NA
18444,Lackawanna County,PA,NA,70.45045045045045,NA
18642,Luzerne County,PA,NA,78.46846846846847,NA
18657,Wyoming County,PA,NA,NA,61.77685950413223
18705,Luzerne County,PA,NA,44.32432432432433,NA
18840,Bradford County,PA,70.63492063492063,NA,NA
18940,Bucks County,PA,67.85714285714286,NA,NA
18951,Bucks County,PA,NA,16.576576576576578,27.479338842975203
18954,Bucks County,PA,NA,75.94594594594595,NA
19003,Montgomery County,PA,NA,89.81981981981983,NA
19007,Bucks County,PA,NA,62.52252252252253,71.48760330578511
19021,Bucks County,PA,NA,78.01801801801803,NA
19040,Montgomery County,PA,NA,76.21621621621621,NA
19104,Philadelphia County,PA,NA,NA,51.652892561983464
19119,Philadelphia County,PA,NA,54.14414414414415,NA
19124,Philadelphia County,PA,NA,10.45045045045045,NA
19144,Philadelphia County,PA,NA,10,NA
19148,Philadelphia County,PA,NA,NA,15.082644628099173
19151,Philadelphia County,PA,NA,17.027027027027028,NA
19153,Philadelphia County,PA,NA,77.02702702702703,NA
19154,Philadelphia County,PA,NA,NA,30.37190082644628
19312,Chester County,PA,88.88888888888889,NA,NA
19342,Delaware County,PA,NA,77.2072072072072,NA
19363,Chester County,PA,NA,69.009009009009,NA
19460,Chester County,PA,NA,23.333333333333332,NA
19464,Montgomery County,PA,NA,NA,33.264462809917354
19510,Berks County,PA,NA,86.21621621621621,NA
19512,Berks County,PA,NA,NA,54.132231404958674
19522,Berks County,PA,71.82539682539682,35.04504504504504,NA
19526,Berks County,PA,NA,59.54954954954955,NA
19555,Berks County,PA,NA,NA,98.55371900826447
19606,Berks County,PA,NA,5.135135135135135,18.181818181818183
19610,Berks County,PA,NA,34.86486486486486,NA
02816,Kent County,RI,NA,14.234234234234233,NA
02860,Providence County,RI,31.746031746031743,NA,6.198347107438017
02865,Providence County,RI,NA,NA,55.99173553719008
02871,Newport County,RI,69.04761904761905,NA,NA
02878,Newport County,RI,NA,NA,62.1900826446281
02886,Kent County,RI,NA,23.783783783783786,NA
02889,Kent County,RI,NA,17.65765765765766,NA
02893,Kent County,RI,NA,22.972972972972975,NA
02915,Providence County,RI,NA,55.13513513513514,NA
29020,Kershaw County,SC,NA,34.41441441441441,NA
29044,Richland County,SC,NA,NA,94.83471074380165
29118,Orangeburg County,SC,NA,70.27027027027027,NA
29150,Sumter County,SC,NA,26.756756756756754,NA
29325,Laurens County,SC,58.730158730158735,NA,NA
29330,Spartanburg County,SC,NA,82.34234234234235,NA
29418,Charleston County,SC,NA,59.54954954954955,NA
29485,Dorchester County,SC,NA,30.99099099099099,NA
29550,Darlington County,SC,42.06349206349206,NA,NA
29566,Horry County,SC,81.34920634920636,NA,NA
29577,Horry County,SC,NA,52.16216216216216,NA
29579,Horry County,SC,NA,32.88288288288289,NA
29588,Horry County,SC,NA,10.36036036036036,NA
29605,Greenville County,SC,NA,NA,63.01652892561983
29650,Greenville County,SC,NA,44.054054054054056,NA
29651,Greenville County,SC,NA,13.693693693693692,NA
29673,Greenville County,SC,NA,18.01801801801802,NA
29680,Greenville County,SC,48.80952380952381,30.54054054054054,NA
29681,Greenville County,SC,NA,14.414414414414415,NA
29730,York County,SC,NA,90,NA
29732,York County,SC,NA,NA,22.107438016528928
29851,Aiken County,SC,NA,97.2972972972973,NA
29906,Beaufort County,SC,76.98412698412699,NA,NA
29909,Beaufort County,SC,NA,15.855855855855856,NA
29926,Beaufort County,SC,NA,61.8018018018018,NA
57006,Brookings County,SD,70.23809523809523,NA,NA
57069,Clay County,SD,NA,88.28828828828829,NA
57078,Yankton County,SD,NA,85.22522522522522,NA
57103,Minnehaha County,SD,NA,3.873873873873874,NA
57105,Minnehaha County,SD,NA,44.32432432432433,NA
57108,Lincoln County,SD,NA,NA,8.47107438016529
57401,Brown County,SD,NA,8.288288288288289,NA
57501,Hughes County,SD,NA,62.70270270270271,NA
57701,Pennington County,SD,NA,16.216216216216218,NA
37015,Cheatham County,TN,NA,46.03603603603604,NA
37025,Hickman County,TN,NA,NA,93.38842975206612
37027,Williamson County,TN,NA,75.22522522522522,NA
37055,Dickson County,TN,NA,74.14414414414414,NA
37066,Sumner County,TN,NA,39.00900900900901,NA
37072,Davidson County,TN,NA,NA,85.53719008264463
37075,Sumner County,TN,NA,6.576576576576576,NA
37080,Davidson County,TN,NA,NA,90.70247933884298
37083,Macon County,TN,NA,33.33333333333333,NA
37087,Wilson County,TN,NA,25.045045045045043,NA
37091,Marshall County,TN,NA,51.08108108108108,NA
37098,Hickman County,TN,NA,98.64864864864865,NA
37101,Humphreys County,TN,NA,89.0990990990991,90.08264462809917
37115,Davidson County,TN,NA,23.063063063063062,NA
37122,Wilson County,TN,30.555555555555557,NA,NA
37128,Rutherford County,TN,NA,51.35135135135135,NA
37129,Rutherford County,TN,19.444444444444446,NA,NA
37130,Rutherford County,TN,NA,30.99099099099099,NA
37138,Davidson County,TN,52.77777777777778,NA,NA
37172,Robertson County,TN,NA,32.25225225225225,NA
37205,Davidson County,TN,NA,NA,21.280991735537192
37206,Davidson County,TN,NA,NA,85.3305785123967
37209,Davidson County,TN,NA,56.3963963963964,NA
37211,Davidson County,TN,NA,19.0990990990991,20.867768595041323
37215,Davidson County,TN,NA,NA,37.8099173553719
37218,Davidson County,TN,NA,68.91891891891892,NA
37354,Monroe County,TN,NA,43.96396396396396,NA
37367,Bledsoe County,TN,70.63492063492063,NA,NA
37388,Coffee County,TN,36.11111111111111,NA,NA
37415,Hamilton County,TN,NA,58.198198198198206,NA
37419,Hamilton County,TN,NA,91.53153153153153,NA
37615,Washington County,TN,NA,59.909909909909906,NA
37664,Sullivan County,TN,NA,48.01801801801802,NA
37692,Unicoi County,TN,NA,NA,73.96694214876032
37725,Jefferson County,TN,NA,91.35135135135135,36.36363636363637
37745,Greene County,TN,26.984126984126984,NA,NA
37760,Jefferson County,TN,NA,NA,73.34710743801654
37807,Union County,TN,NA,93.15315315315316,NA
37857,Hawkins County,TN,NA,40.72072072072072,NA
37865,Sevier County,TN,NA,44.77477477477477,NA
37912,Knox County,TN,NA,55.85585585585585,NA
37914,Knox County,TN,NA,38.288288288288285,NA
37918,Knox County,TN,NA,21.44144144144144,NA
38104,Shelby County,TN,NA,NA,73.7603305785124
38114,Shelby County,TN,NA,32.16216216216216,NA
38119,Shelby County,TN,NA,84.68468468468468,NA
38401,Maury County,TN,30.952380952380953,NA,NA
38462,Lewis County,TN,NA,79.1891891891892,NA
38544,Putnam County,TN,NA,81.08108108108108,NA
75013,Collin County,TX,NA,NA,88.84297520661157
75019,Dallas County,TX,NA,53.873873873873876,NA
75020,Grayson County,TX,NA,NA,40.70247933884297
75042,Dallas County,TX,69.44444444444444,NA,NA
75043,Dallas County,TX,NA,NA,28.512396694214875
75044,Dallas County,TX,NA,28.468468468468465,NA
75056,Denton County,TX,35.317460317460316,NA,62.603305785123965
75069,Collin County,TX,49.60317460317461,NA,NA
75070,Collin County,TX,NA,42.432432432432435,NA
75080,Dallas County,TX,NA,43.69369369369369,NA
75098,Collin County,TX,25,NA,NA
75103,Van Zandt County,TX,NA,50.45045045045045,NA
75110,Navarro County,TX,NA,NA,39.66942148760331
75115,Dallas County,TX,NA,NA,25.206611570247933
75148,Henderson County,TX,NA,87.47747747747748,NA
75161,Kaufman County,TX,NA,97.2072072072072,NA
75206,Dallas County,TX,52.38095238095239,NA,NA
75217,Dallas County,TX,NA,NA,40.082644628099175
75230,Dallas County,TX,NA,47.11711711711712,NA
75233,Dallas County,TX,NA,81.62162162162161,NA
75234,Dallas County,TX,NA,NA,44.421487603305785
75491,Grayson County,TX,NA,NA,95.86776859504133
75604,Gregg County,TX,NA,91.62162162162161,NA
75633,Panola County,TX,NA,53.783783783783775,NA
75693,Gregg County,TX,NA,98.28828828828829,NA
75701,Smith County,TX,NA,13.243243243243244,7.024793388429752
75703,Smith County,TX,NA,26.396396396396398,3.0991735537190084
75704,Smith County,TX,NA,75.31531531531532,NA
75706,Smith County,TX,NA,NA,85.9504132231405
75707,Smith County,TX,NA,80.8108108108108,NA
75751,Henderson County,TX,NA,50.72072072072073,NA
75757,Smith County,TX,NA,73.87387387387388,NA
75758,Henderson County,TX,NA,43.15315315315315,NA
75766,Cherokee County,TX,38.095238095238095,8.018018018018019,NA
75835,Houston County,TX,NA,76.12612612612612,NA
75904,Angelina County,TX,NA,13.963963963963963,NA
75948,Sabine County,TX,NA,NA,81.40495867768594
76017,Tarrant County,TX,NA,30.270270270270274,NA
76028,Johnson County,TX,NA,4.054054054054054,13.429752066115702
76033,Johnson County,TX,39.682539682539684,NA,NA
76049,Hood County,TX,NA,19.00900900900901,26.239669421487605
76053,Tarrant County,TX,NA,NA,44.62809917355372
76065,Ellis County,TX,NA,35.4054054054054,NA
76087,Parker County,TX,75.79365079365078,NA,NA
76108,Tarrant County,TX,NA,24.954954954954957,NA
76111,Tarrant County,TX,NA,67.65765765765765,NA
76126,Tarrant County,TX,NA,70,NA
76205,Denton County,TX,NA,78.82882882882883,NA
76208,Denton County,TX,NA,NA,67.35537190082644
76230,Montague County,TX,NA,71.62162162162163,NA
76240,Cooke County,TX,NA,35.13513513513514,NA
76255,Montague County,TX,NA,90.36036036036036,NA
76273,Grayson County,TX,NA,NA,86.77685950413223
76305,Wichita County,TX,NA,92.97297297297298,NA
76354,Wichita County,TX,NA,NA,68.80165289256198
76426,Wise County,TX,NA,67.92792792792793,NA
76502,Bell County,TX,NA,0.9009009009009009,0
76528,Coryell County,TX,NA,13.873873873873874,NA
76567,Milam County,TX,NA,57.65765765765766,NA
76712,McLennan County,TX,NA,NA,7.231404958677685
76825,McCulloch County,TX,NA,73.51351351351352,NA
77012,Harris County,TX,NA,81.8018018018018,NA
77031,Harris County,TX,80.95238095238095,NA,NA
77036,Harris County,TX,57.14285714285714,23.243243243243246,NA
77051,Harris County,TX,NA,58.01801801801801,NA
77057,Harris County,TX,NA,57.117117117117125,NA
77070,Harris County,TX,NA,24.144144144144146,NA
77074,Harris County,TX,NA,58.91891891891892,NA
77077,Harris County,TX,NA,31.44144144144144,NA
77078,Harris County,TX,NA,61.35135135135135,NA
77080,Harris County,TX,NA,NA,58.26446280991735
77083,Harris County,TX,NA,26.846846846846844,NA
77087,Harris County,TX,NA,55.67567567567567,NA
77091,Harris County,TX,59.92063492063492,NA,NA
77092,Harris County,TX,NA,62.792792792792795,NA
77095,Harris County,TX,NA,46.666666666666664,NA
77327,Liberty County,TX,73.4126984126984,NA,NA
77338,Harris County,TX,NA,NA,69.21487603305785
77345,Harris County,TX,NA,88.64864864864866,NA
77357,Montgomery County,TX,NA,73.06306306306305,NA
77358,Walker County,TX,NA,NA,93.18181818181817
77362,Montgomery County,TX,NA,94.23423423423424,NA
77373,Harris County,TX,NA,26.936936936936938,NA
77382,Montgomery County,TX,NA,NA,69.62809917355372
77388,Harris County,TX,NA,34.5945945945946,NA
77389,Harris County,TX,NA,85.4054054054054,NA
77422,Brazoria County,TX,NA,NA,70.24793388429752
77445,Waller County,TX,NA,79.63963963963964,NA
77449,Harris County,TX,NA,90.27027027027027,NA
77459,Fort Bend County,TX,NA,44.86486486486487,NA
77478,Fort Bend County,TX,NA,79.009009009009,49.79338842975206
77488,Wharton County,TX,NA,79.36936936936937,NA
77494,Fort Bend County,TX,NA,15.495495495495495,NA
77498,Fort Bend County,TX,NA,52.972972972972975,NA
77505,Harris County,TX,NA,61.98198198198198,NA
77535,Liberty County,TX,NA,46.666666666666664,NA
77550,Galveston County,TX,NA,14.144144144144144,NA
77571,Harris County,TX,NA,47.927927927927925,NA
77584,Brazoria County,TX,NA,19.63963963963964,NA
77630,Orange County,TX,NA,33.513513513513516,NA
77651,Jefferson County,TX,NA,69.72972972972973,NA
77656,Hardin County,TX,62.301587301587304,NA,NA
77706,Jefferson County,TX,NA,33.78378378378378,NA
77802,Brazos County,TX,NA,19.18918918918919,NA
77808,Brazos County,TX,66.26984126984127,NA,NA
77845,Brazos County,TX,9.920634920634921,4.594594594594595,NA
77995,Lavaca County,TX,NA,NA,56.40495867768595
78040,Webb County,TX,NA,71.35135135135135,NA
78102,Bee County,TX,NA,70.72072072072072,NA
78108,Guadalupe County,TX,NA,72.43243243243244,NA
78154,Guadalupe County,TX,NA,73.96396396396396,NA
78209,Bexar County,TX,NA,59.72972972972973,NA
78218,Bexar County,TX,NA,NA,74.79338842975206
78223,Bexar County,TX,NA,30,NA
78250,Bexar County,TX,NA,55.22522522522523,NA
78258,Bexar County,TX,NA,NA,60.74380165289256
78380,Nueces County,TX,NA,NA,84.71074380165288
78411,Nueces County,TX,NA,NA,66.73553719008265
78416,Nueces County,TX,NA,95.13513513513514,NA
78504,Hidalgo County,TX,NA,NA,59.917355371900825
78516,Hidalgo County,TX,NA,NA,54.54545454545454
78526,Cameron County,TX,NA,62.07207207207207,NA
78541,Hidalgo County,TX,51.587301587301596,NA,NA
78542,Hidalgo County,TX,NA,27.927927927927925,NA
78574,Hidalgo County,TX,NA,NA,40.70247933884297
78599,Hidalgo County,TX,NA,79.81981981981981,85.12396694214877
78611,Burnet County,TX,NA,NA,78.92561983471074
78624,Gillespie County,TX,NA,49.36936936936937,NA
78733,Travis County,TX,98.01587301587301,NA,NA
78852,Maverick County,TX,NA,39.369369369369366,20.041322314049587
78861,Medina County,TX,NA,85.3153153153153,NA
79107,Potter County,TX,36.507936507936506,NA,NA
79403,Lubbock County,TX,53.96825396825397,NA,NA
79416,Lubbock County,TX,NA,56.93693693693693,NA
79423,Lubbock County,TX,NA,21.35135135135135,NA
79701,Midland County,TX,NA,NA,77.89256198347107
79905,El Paso County,TX,NA,57.117117117117125,NA
79936,El Paso County,TX,14.682539682539684,NA,NA
79938,El Paso County,TX,NA,NA,65.9090909090909
84010,Davis County,UT,NA,NA,23.96694214876033
84015,Davis County,UT,NA,48.73873873873874,63.63636363636363
84040,Davis County,UT,NA,NA,75
84041,Davis County,UT,NA,NA,72.31404958677686
84065,Salt Lake County,UT,NA,76.57657657657657,NA
84067,Weber County,UT,NA,60,NA
84081,Salt Lake County,UT,NA,58.55855855855856,NA
84084,Salt Lake County,UT,NA,72.61261261261261,NA
84094,Salt Lake County,UT,NA,78.28828828828829,NA
84095,Salt Lake County,UT,NA,27.56756756756757,NA
84097,Utah County,UT,NA,NA,97.93388429752066
84104,Salt Lake County,UT,NA,66.3963963963964,NA
84107,Salt Lake County,UT,NA,95.67567567567568,NA
84109,Salt Lake County,UT,NA,52.702702702702695,NA
84115,Salt Lake County,UT,NA,NA,58.47107438016529
84116,Salt Lake County,UT,NA,33.06306306306306,NA
84118,Salt Lake County,UT,NA,53.06306306306306,NA
84124,Salt Lake County,UT,NA,NA,78.51239669421489
84401,Weber County,UT,NA,51.17117117117117,NA
05001,Windsor County,VT,NA,96.75675675675676,NA
05143,Windsor County,VT,NA,90.72072072072072,NA
05819,Caledonia County,VT,NA,73.06306306306305,NA
20105,Loudoun County,VA,NA,91.08108108108108,NA
20152,Loudoun County,VA,NA,NA,94.00826446280992
22003,Fairfax County,VA,NA,26.126126126126124,NA
22560,Essex County,VA,NA,85.58558558558559,NA
22801,Harrisonburg city,VA,NA,35.765765765765764,NA
22932,Albemarle County,VA,NA,88.28828828828829,NA
22947,Albemarle County,VA,NA,NA,86.36363636363636
22980,Waynesboro city,VA,NA,47.2972972972973,NA
23103,Goochland County,VA,100,NA,NA
23116,Hanover County,VA,72.22222222222221,NA,NA
23139,Powhatan County,VA,NA,NA,45.66115702479338
23150,Henrico County,VA,NA,80.54054054054053,NA
23188,James City County,VA,NA,NA,0.8264462809917356
23223,Henrico County,VA,NA,11.891891891891893,NA
23225,Richmond city,VA,NA,20.54054054054054,NA
23455,Virginia Beach city,VA,NA,9.0990990990991,NA
23456,Virginia Beach city,VA,NA,9.54954954954955,NA
23464,Virginia Beach city,VA,NA,22.162162162162165,NA
23505,Norfolk city,VA,NA,31.891891891891895,NA
23601,Newport News city,VA,NA,45.13513513513514,NA
23669,Hampton city,VA,NA,NA,9.50413223140496
23842,Prince George County,VA,NA,94.50450450450451,NA
23924,Mecklenburg County,VA,NA,NA,95.66115702479338
24112,Henry County,VA,NA,14.324324324324325,NA
24354,Smyth County,VA,NA,NA,43.18181818181818
24422,Alleghany County,VA,NA,NA,77.47933884297521
24522,Appomattox County,VA,85.71428571428571,NA,NA
24540,Danville city,VA,NA,NA,39.0495867768595
98004,King County,WA,NA,65.58558558558558,NA
98006,King County,WA,NA,29.549549549549546,NA
98021,Snohomish County,WA,NA,48.10810810810811,NA
98029,King County,WA,NA,87.11711711711712,NA
98031,King County,WA,NA,NA,42.768595041322314
98036,Snohomish County,WA,NA,39.54954954954955,NA
98040,King County,WA,NA,NA,39.87603305785124
98059,King County,WA,NA,NA,88.01652892561982
98109,King County,WA,NA,NA,55.371900826446286
98110,Kitsap County,WA,NA,NA,82.23140495867769
98118,King County,WA,78.57142857142857,NA,NA
98257,Skagit County,WA,98.80952380952381,NA,NA
98801,Chelan County,WA,NA,7.207207207207207,NA
98802,Douglas County,WA,NA,63.33333333333333,NA
98816,Chelan County,WA,97.22222222222221,77.92792792792793,NA
98837,Grant County,WA,NA,30.9009009009009,NA
98942,Yakima County,WA,NA,63.24324324324324,NA
99156,Pend Oreille County,WA,NA,NA,70.86776859504133
99208,Spokane County,WA,NA,NA,42.561983471074385
99217,Spokane County,WA,NA,87.29729729729729,NA
99324,Walla Walla County,WA,NA,92.7927927927928,NA
20001,District of Columbia,DC,23.41269841269841,80.72072072072072,NA
20002,District of Columbia,DC,NA,37.65765765765766,NA
20015,District of Columbia,DC,NA,NA,65.70247933884298
25071,Kanawha County,WV,NA,80.9009009009009,NA
25276,Roane County,WV,NA,67.74774774774774,NA
25302,Kanawha County,WV,NA,NA,52.066115702479344
25309,Kanawha County,WV,NA,NA,48.553719008264466
25401,Berkeley County,WV,NA,67.11711711711712,NA
25414,Jefferson County,WV,NA,71.8018018018018,NA
25801,Raleigh County,WV,15.476190476190476,NA,NA
26505,Monongalia County,WV,NA,NA,17.148760330578515
53061,Calumet County,WI,NA,92.25225225225225,NA
53073,Sheboygan County,WI,NA,73.42342342342343,NA
53094,Jefferson County,WI,NA,28.558558558558563,NA
53118,Waukesha County,WI,NA,NA,77.27272727272727
53122,Waukesha County,WI,NA,NA,72.93388429752066
53140,Kenosha County,WI,12.698412698412698,NA,NA
53202,Milwaukee County,WI,NA,NA,69.00826446280992
53206,Milwaukee County,WI,NA,10.27027027027027,NA
53215,Milwaukee County,WI,NA,3.963963963963964,NA
53216,Milwaukee County,WI,NA,17.74774774774775,NA
53219,Milwaukee County,WI,NA,NA,13.016528925619836
53222,Milwaukee County,WI,NA,NA,54.75206611570248
53402,Racine County,WI,NA,2.4324324324324325,NA
53406,Racine County,WI,NA,16.486486486486488,NA
53511,Rock County,WI,1.5873015873015872,5.7657657657657655,NA
53520,Green County,WI,92.46031746031747,NA,NA
53536,Rock County,WI,NA,85.76576576576576,NA
53545,Rock County,WI,NA,NA,16.528925619834713
53546,Rock County,WI,NA,NA,33.88429752066116
53551,Jefferson County,WI,NA,75.67567567567568,NA
53589,Dane County,WI,NA,92.7027027027027,64.46280991735537
53590,Dane County,WI,NA,NA,25.6198347107438
53705,Dane County,WI,NA,NA,14.049586776859504
53916,Dodge County,WI,NA,45.31531531531531,27.685950413223143
53948,Juneau County,WI,NA,NA,71.28099173553719
54016,St. Croix County,WI,NA,47.74774774774775,NA
54114,Marinette County,WI,NA,NA,74.17355371900827
54130,Outagamie County,WI,NA,NA,70.0413223140496
54220,Manitowoc County,WI,6.349206349206349,NA,NA
54481,Portage County,WI,22.22222222222222,16.036036036036037,NA
54601,La Crosse County,WI,NA,NA,13.636363636363635
54603,La Crosse County,WI,NA,NA,49.3801652892562
54650,La Crosse County,WI,NA,7.927927927927928,4.338842975206612
54656,Monroe County,WI,NA,NA,71.900826446281
54729,Chippewa County,WI,NA,20.72072072072072,NA
54755,Buffalo County,WI,92.85714285714286,NA,NA
54822,Barron County,WI,NA,NA,94.00826446280992
54937,Fond du Lac County,WI,NA,81.17117117117118,NA
82716,Campbell County,WY,NA,93.24324324324324,NA
