ZipCode,county,state,Adult,Retirement,Geriatric
35010,Tallapoosa County,AL,NA,32.42736644798501,NA
35045,Chilton County,AL,NA,73.57075913776944,NA
35121,Blount County,AL,65.52072800808898,NA,NA
35127,Jefferson County,AL,NA,59.8875351452671,NA
35179,Cullman County,AL,NA,NA,99.2084432717678
35207,Jefferson County,AL,NA,85.94189315838801,NA
35210,Jefferson County,AL,NA,69.0721649484536,NA
35211,Jefferson County,AL,NA,22.02436738519213,NA
35242,Shelby County,AL,NA,NA,6.464379947229551
35404,Tuscaloosa County,AL,16.380182002022245,NA,NA
35405,Tuscaloosa County,AL,8.088978766430738,NA,NA
35594,Marion County,AL,NA,NA,92.0844327176781
35601,Morgan County,AL,NA,13.58950328022493,NA
35653,Franklin County,AL,79.87866531850354,NA,NA
35810,Madison County,AL,33.67037411526795,NA,22.295514511873353
35901,Etowah County,AL,37.41152679474216,NA,NA
35967,DeKalb County,AL,68.14964610717897,NA,NA
36027,Barbour County,AL,41.25379170879677,NA,NA
36033,Butler County,AL,NA,98.12558575445173,NA
36092,Elmore County,AL,NA,55.295220243673846,NA
36116,Montgomery County,AL,21.638018200202225,NA,NA
36266,Clay County,AL,86.5520728008089,NA,NA
36278,Randolph County,AL,97.37108190091,NA,NA
36301,Houston County,AL,NA,NA,23.350923482849602
36330,Coffee County,AL,NA,34.58294283036551,NA
36360,Dale County,AL,NA,36.551077788191186,NA
36460,Monroe County,AL,84.6309403437816,95.87628865979381,NA
36507,Baldwin County,AL,NA,67.76007497656981,NA
36532,Baldwin County,AL,NA,22.30552952202437,NA
36542,Baldwin County,AL,NA,69.25960637300844,NA
36575,Mobile County,AL,61.172901921132464,NA,95.25065963060686
36582,Mobile County,AL,NA,NA,85.62005277044855
36618,Mobile County,AL,74.92416582406472,NA,NA
36619,Mobile County,AL,79.06976744186046,NA,NA
36801,Lee County,AL,NA,NA,74.67018469656992
36830,Lee County,AL,NA,89.03467666354264,NA
99501,Anchorage Municipality,AK,57.22952477249748,NA,NA
99502,Anchorage Municipality,AK,NA,NA,73.87862796833772
99517,Anchorage Municipality,AK,NA,79.85004686035614,NA
99654,Matanuska-Susitna Borough,AK,NA,40.955951265229615,NA
99709,Fairbanks North Star Borough,AK,NA,85.66073102155578,NA
99801,Juneau City and Borough,AK,51.66835187057634,NA,NA
85009,Maricopa County,AZ,14.256825075834175,NA,NA
85020,Maricopa County,AZ,NA,33.364573570759134,NA
85022,Maricopa County,AZ,NA,26.991565135895033,51.05540897097626
85029,Maricopa County,AZ,NA,41.518275538894095,NA
85032,Maricopa County,AZ,NA,24.36738519212746,NA
85044,Maricopa County,AZ,20.424671385237612,NA,NA
85119,Pinal County,AZ,NA,NA,46.965699208443276
85120,Pinal County,AZ,NA,34.395501405810684,NA
85122,Pinal County,AZ,NA,11.808809746954077,NA
85132,Pinal County,AZ,40.24266936299292,NA,NA
85138,Pinal County,AZ,NA,69.63448922211809,NA
85139,Pinal County,AZ,NA,76.47610121836927,NA
85142,Maricopa County,AZ,10.717896865520729,NA,64.1160949868074
85143,Pinal County,AZ,38.42264914054601,NA,NA
85202,Maricopa County,AZ,55.51061678463094,NA,NA
85204,Maricopa County,AZ,NA,27.553889409559513,NA
85205,Maricopa County,AZ,NA,62.51171508903468,NA
85206,Maricopa County,AZ,NA,NA,10.554089709762533
85207,Maricopa County,AZ,28.71587462082912,NA,NA
85208,Maricopa County,AZ,NA,NA,64.5118733509235
85209,Maricopa County,AZ,NA,NA,19.656992084432716
85212,Maricopa County,AZ,59.75733063700708,NA,NA
85213,Maricopa County,AZ,NA,NA,68.07387862796834
85224,Maricopa County,AZ,NA,NA,82.58575197889182
85225,Maricopa County,AZ,NA,27.085285848172447,NA
85233,Maricopa County,AZ,74.62082912032356,NA,NA
85248,Maricopa County,AZ,NA,NA,34.82849604221636
85255,Maricopa County,AZ,NA,NA,65.30343007915567
85257,Maricopa County,AZ,NA,68.41611996251171,43.27176781002638
85268,Maricopa County,AZ,NA,56.70103092783505,NA
85281,Maricopa County,AZ,37.917087967644086,NA,NA
85301,Maricopa County,AZ,24.16582406471183,NA,NA
85302,Maricopa County,AZ,27.502527805864506,NA,NA
85326,Maricopa County,AZ,NA,42.080599812558575,NA
85338,Maricopa County,AZ,36.602628918099086,NA,NA
85339,Maricopa County,AZ,22.548028311425682,NA,NA
85340,Maricopa County,AZ,69.05965621840244,NA,NA
85351,Maricopa County,AZ,NA,NA,0.2638522427440633
85353,Maricopa County,AZ,NA,80.88097469540769,NA
85363,Maricopa County,AZ,NA,93.34582942830365,NA
85367,Yuma County,AZ,NA,NA,9.498680738786279
85373,Maricopa County,AZ,NA,48.92221180880975,18.337730870712402
85374,Maricopa County,AZ,NA,16.682286785379567,NA
85379,Maricopa County,AZ,33.26592517694641,NA,NA
85383,Maricopa County,AZ,29.524772497472195,35.23898781630741,82.32189973614776
85392,Maricopa County,AZ,NA,95.31396438612933,NA
85395,Maricopa County,AZ,76.03640040444894,NA,NA
85396,Maricopa County,AZ,NA,93.72071227741331,NA
85552,Graham County,AZ,NA,NA,99.6042216358839
85602,Cochise County,AZ,85.13650151668351,NA,NA
85607,Cochise County,AZ,29.726996966632964,NA,NA
85614,Pima County,AZ,NA,18.088097469540767,NA
85635,Cochise County,AZ,NA,49.85941893158388,34.43271767810027
85641,Pima County,AZ,NA,NA,92.34828496042216
85704,Pima County,AZ,NA,NA,23.7467018469657
85706,Pima County,AZ,NA,7.6850984067478905,NA
85710,Pima County,AZ,9.403437815975733,NA,NA
85737,Pima County,AZ,NA,48.35988753514527,NA
85739,Pinal County,AZ,NA,27.4601686972821,NA
85749,Pima County,AZ,NA,37.675726335520146,NA
85750,Pima County,AZ,71.38523761375126,NA,NA
85757,Pima County,AZ,61.77957532861477,NA,NA
85941,Apache County,AZ,13.65015166835187,NA,NA
86001,Coconino County,AZ,NA,80.69353327085285,NA
86004,Coconino County,AZ,6.673407482305358,NA,NA
86045,Coconino County,AZ,26.693629929221434,NA,NA
86314,Yavapai County,AZ,17.69464105156724,NA,NA
86323,Yavapai County,AZ,54.80283114256825,62.41799437675727,NA
86336,Yavapai County,AZ,NA,64.66729147141518,NA
86442,Mohave County,AZ,NA,40.393626991565135,NA
71635,Ashley County,AR,NA,58.95032802249297,NA
71909,Garland County,AR,NA,31.490159325210872,NA
72023,Lonoke County,AR,62.588473205257834,NA,NA
72104,Hot Spring County,AR,NA,60.63730084348641,58.70712401055409
72110,Conway County,AR,NA,NA,69.78891820580475
72160,Arkansas County,AR,NA,NA,67.67810026385224
72212,Pulaski County,AR,NA,66.63542642924087,NA
72390,Phillips County,AR,NA,92.68978444236177,NA
72404,Craighead County,AR,52.679474216380186,NA,NA
72455,Randolph County,AR,NA,72.44611059044048,NA
72472,Poinsett County,AR,NA,87.16026241799437,NA
72501,Independence County,AR,NA,23.89878163074039,31.00263852242744
72634,Marion County,AR,NA,92.12746016869728,NA
72653,Baxter County,AR,46.00606673407482,NA,NA
72701,Washington County,AR,NA,73.10215557638237,NA
72756,Benton County,AR,NA,NA,63.3245382585752
72762,Washington County,AR,NA,60.63730084348641,NA
72837,Pope County,AR,88.27098078867543,NA,NA
72901,Sebastian County,AR,NA,73.85192127460168,NA
90001,Los Angeles County,CA,NA,NA,57.78364116094987
90006,Los Angeles County,CA,NA,59.98125585754451,NA
90023,Los Angeles County,CA,40.141557128412536,NA,NA
90031,Los Angeles County,CA,72.4974721941355,NA,NA
90033,Los Angeles County,CA,45.80384226491405,NA,NA
90041,Los Angeles County,CA,76.54196157735086,NA,NA
90046,Los Angeles County,CA,NA,NA,5.145118733509235
90057,Los Angeles County,CA,NA,21.55576382380506,NA
90059,Los Angeles County,CA,NA,56.41986879100281,NA
90062,Los Angeles County,CA,NA,NA,56.200527704485495
90063,Los Angeles County,CA,NA,NA,56.068601583113455
90064,Los Angeles County,CA,NA,NA,24.274406332453825
90069,Los Angeles County,CA,57.128412537917086,NA,NA
90201,Los Angeles County,CA,97.77553083923155,NA,NA
90210,Los Angeles County,CA,NA,NA,19.788918205804748
90221,Los Angeles County,CA,11.02123356926188,NA,NA
90241,Los Angeles County,CA,56.825075834175934,NA,NA
90247,Los Angeles County,CA,NA,50.328022492970945,NA
90250,Los Angeles County,CA,NA,NA,35.75197889182058
90254,Los Angeles County,CA,85.54095045500506,83.50515463917526,NA
90255,Los Angeles County,CA,31.951466127401417,NA,NA
90266,Los Angeles County,CA,NA,48.73477038425492,NA
90274,Los Angeles County,CA,NA,62.13683223992502,NA
90277,Los Angeles County,CA,NA,31.208997188378635,NA
90291,Los Angeles County,CA,89.58543983822042,NA,NA
90302,Los Angeles County,CA,NA,83.1302717900656,NA
90403,Los Angeles County,CA,NA,NA,29.683377308707126
90602,Los Angeles County,CA,66.22851365015167,NA,NA
90606,Los Angeles County,CA,NA,60.168697282099345,NA
90630,Orange County,CA,NA,57.450796626054355,NA
90631,Orange County,CA,NA,NA,22.427440633245382
90638,Los Angeles County,CA,NA,36.73851921274602,NA
90703,Los Angeles County,CA,NA,71.7900656044986,NA
90717,Los Angeles County,CA,NA,90.44048734770385,57.78364116094987
90720,Orange County,CA,NA,NA,70.05277044854881
90740,Orange County,CA,NA,44.04873477038426,NA
90746,Los Angeles County,CA,80.18200202224469,54.35801312089972,NA
90802,Los Angeles County,CA,NA,70.57169634489222,NA
90804,Los Angeles County,CA,47.320525783619814,NA,NA
90808,Los Angeles County,CA,94.94438827098078,89.97188378631678,NA
91007,Los Angeles County,CA,NA,86.035613870665415,NA
91016,Los Angeles County,CA,NA,56.888472352389876,NA
91042,Los Angeles County,CA,NA,51.17150890346767,NA
91105,Los Angeles County,CA,NA,NA,80.73878627968337
91301,Los Angeles County,CA,NA,NA,87.86279683377309
91302,Los Angeles County,CA,83.417593528817,NA,NA
91304,Los Angeles County,CA,NA,NA,99.73614775725594
91316,Los Angeles County,CA,73.30637007077856,54.076850984067484,NA
91320,Ventura County,CA,NA,54.076850984067484,NA
91335,Los Angeles County,CA,NA,33.0834114339269,NA
91343,Los Angeles County,CA,NA,NA,40.105540897097626
91345,Los Angeles County,CA,87.96764408493428,NA,NA
91362,Ventura County,CA,69.05965621840244,NA,NA
91730,San Bernardino County,CA,20.525783619817997,NA,NA
91741,Los Angeles County,CA,NA,NA,48.68073878627968
91744,Los Angeles County,CA,NA,NA,20.448548812664907
91748,Los Angeles County,CA,NA,NA,72.95514511873351
91764,San Bernardino County,CA,NA,NA,72.29551451187335
91765,Los Angeles County,CA,NA,55.01405810684161,NA
91766,Los Angeles County,CA,NA,45.923149015932516,NA
91773,Los Angeles County,CA,76.33973710819009,NA,NA
91776,Los Angeles County,CA,86.45096056622852,NA,NA
91790,Los Angeles County,CA,82.10313447927199,NA,37.73087071240106
91901,San Diego County,CA,66.0262891809909,NA,NA
91902,San Diego County,CA,NA,86.41049671977507,NA
91911,San Diego County,CA,NA,NA,39.44591029023747
91942,San Diego County,CA,NA,42.642924086223054,26.781002638522427
91945,San Diego County,CA,62.7906976744186,NA,NA
91977,San Diego County,CA,NA,26.710402999062794,NA
92009,San Diego County,CA,69.8685540950455,NA,NA
92019,San Diego County,CA,NA,46.954076850984066,NA
92020,San Diego County,CA,22.95247724974722,NA,NA
92024,San Diego County,CA,NA,44.70477975632615,NA
92037,San Diego County,CA,NA,50.98406747891284,NA
92056,San Diego County,CA,NA,NA,11.87335092348285
92057,San Diego County,CA,83.9231547017189,NA,NA
92058,San Diego County,CA,96.25884732052579,89.31583880037488,NA
92069,San Diego County,CA,NA,NA,81.66226912928761
92081,San Diego County,CA,NA,72.63355201499532,NA
92101,San Diego County,CA,15.267947421638016,NA,NA
92102,San Diego County,CA,73.0030333670374,NA,NA
92105,San Diego County,CA,NA,68.88472352389878,NA
92113,San Diego County,CA,25.884732052578364,NA,NA
92117,San Diego County,CA,58.84732052578362,NA,NA
92123,San Diego County,CA,NA,NA,64.90765171503958
92126,San Diego County,CA,NA,31.865042174320525,NA
92139,San Diego County,CA,NA,74.50796626054358,NA
92154,San Diego County,CA,NA,NA,14.116094986807386
92173,San Diego County,CA,NA,77.78819119025304,NA
92211,Riverside County,CA,NA,95.40768509840674,68.46965699208444
92220,Riverside County,CA,60.76845298281091,NA,NA
92223,Riverside County,CA,79.474216380182,NA,NA
92227,Imperial County,CA,NA,57.919400187441425,NA
92241,Riverside County,CA,NA,83.97375820056232,NA
92253,Riverside County,CA,NA,NA,8.839050131926122
92260,Riverside County,CA,NA,NA,0.79155672823219
92270,Riverside County,CA,NA,58.85660731021556,NA
92307,San Bernardino County,CA,NA,55.95126522961574,NA
92308,San Bernardino County,CA,NA,25.773195876288657,NA
92325,San Bernardino County,CA,NA,88.09746954076851,NA
92336,San Bernardino County,CA,10.414560161779574,NA,NA
92392,San Bernardino County,CA,18.806875631951467,NA,NA
92411,San Bernardino County,CA,NA,40.11246485473289,NA
92503,Riverside County,CA,72.59858442871587,NA,NA
92507,Riverside County,CA,44.18604651162791,NA,NA
92509,Riverside County,CA,NA,NA,41.82058047493404
92543,Riverside County,CA,NA,NA,53.166226912928764
92562,Riverside County,CA,NA,32.80224929709466,NA
92595,Riverside County,CA,NA,65.32333645735707,NA
92603,Orange County,CA,NA,NA,77.04485488126649
92618,Orange County,CA,NA,91.09653233364574,NA
92627,Orange County,CA,55.81395348837209,NA,53.825857519788926
92637,Orange County,CA,NA,NA,44.327176781002635
92646,Orange County,CA,28.2103134479272,NA,NA
92660,Orange County,CA,62.99292214357938,NA,NA
92677,Orange County,CA,NA,NA,21.767810026385224
92683,Orange County,CA,50.15166835187057,NA,NA
92688,Orange County,CA,NA,NA,57.65171503957783
92694,Orange County,CA,58.74620829120324,NA,NA
92804,Orange County,CA,NA,17.713214620431113,NA
92831,Orange County,CA,95.75328614762387,NA,NA
92843,Orange County,CA,39.838220424671384,NA,NA
92867,Orange County,CA,61.880687563195146,NA,NA
92880,Riverside County,CA,57.633973710819006,NA,NA
92882,Riverside County,CA,NA,35.988753514526714,NA
92887,Orange County,CA,NA,78.35051546391753,NA
93003,Ventura County,CA,16.177957532861477,NA,NA
93004,Ventura County,CA,NA,NA,54.88126649076517
93010,Ventura County,CA,36.29929221435793,NA,NA
93012,Ventura County,CA,NA,43.86129334582943,NA
93030,Ventura County,CA,NA,NA,29.815303430079155
93063,Ventura County,CA,NA,62.60543580131209,NA
93065,Ventura County,CA,16.076845298281093,18.650421743205246,NA
93230,Kings County,CA,18.200202224469162,NA,NA
93257,Tulare County,CA,NA,NA,22.823218997361476
93274,Tulare County,CA,NA,NA,26.517150395778366
93277,Tulare County,CA,27.199191102123354,53.88940955951266,NA
93291,Tulare County,CA,21.73913043478261,NA,NA
93292,Tulare County,CA,43.27603640040445,NA,NA
93309,Kern County,CA,NA,NA,33.773087071240106
93312,Kern County,CA,NA,NA,59.63060686015831
93405,San Luis Obispo County,CA,NA,90.81537019681349,NA
93420,San Luis Obispo County,CA,NA,46.29803186504217,NA
93422,San Luis Obispo County,CA,NA,79.75632614807873,NA
93436,Santa Barbara County,CA,16.683518705763397,NA,NA
93444,San Luis Obispo County,CA,NA,64.94845360824742,NA
93446,San Luis Obispo County,CA,NA,42.83036551077789,NA
93449,San Luis Obispo County,CA,96.66329625884732,94.00187441424555,NA
93455,Santa Barbara County,CA,34.883720930232556,NA,NA
93535,Los Angeles County,CA,NA,37.39456419868791,NA
93591,Los Angeles County,CA,NA,98.6879100281162,NA
93612,Fresno County,CA,47.01718907987866,NA,NA
93630,Fresno County,CA,83.01314459049544,NA,NA
93702,Fresno County,CA,64.00404448938322,NA,NA
93704,Fresno County,CA,53.69059656218403,NA,NA
93727,Fresno County,CA,46.61274014155713,NA,NA
93923,Monterey County,CA,NA,NA,9.366754617414248
93950,Monterey County,CA,NA,NA,60.29023746701847
94015,San Mateo County,CA,NA,9.746954076850985,NA
94024,Santa Clara County,CA,NA,NA,65.30343007915567
94066,San Mateo County,CA,NA,NA,11.477572559366754
94070,San Mateo County,CA,NA,68.50984067478912,NA
94102,San Francisco County,CA,NA,NA,22.03166226912929
94115,San Francisco County,CA,NA,36.36363636363637,NA
94121,San Francisco County,CA,NA,NA,10.817941952506596
94122,San Francisco County,CA,NA,NA,4.485488126649076
94131,San Francisco County,CA,66.53185035389282,NA,85.8839050131926
94303,San Mateo County,CA,30.030333670374116,NA,NA
94404,San Mateo County,CA,NA,NA,41.82058047493404
94501,Alameda County,CA,NA,44.61105904404874,NA
94502,Alameda County,CA,NA,NA,76.78100263852242
94506,Contra Costa County,CA,NA,NA,82.18997361477572
94513,Contra Costa County,CA,70.98078867542974,21.930646672914715,NA
94526,Contra Costa County,CA,NA,49.39081537019681,NA
94530,Contra Costa County,CA,NA,NA,45.51451187335092
94539,Alameda County,CA,NA,NA,40.76517150395778
94544,Alameda County,CA,NA,11.90253045923149,NA
94545,Alameda County,CA,NA,72.82099343955014,NA
94550,Alameda County,CA,NA,35.520149953139644,NA
94577,Alameda County,CA,39.02932254802831,NA,NA
94578,Alameda County,CA,80.48533872598584,54.63917525773196,NA
94579,Alameda County,CA,NA,NA,49.07651715039577
94580,Alameda County,CA,NA,66.9165885660731,NA
94598,Contra Costa County,CA,NA,NA,62.401055408970976
94601,Alameda County,CA,47.21941354903944,NA,NA
94602,Alameda County,CA,NA,59.700093720712275,NA
94605,Alameda County,CA,NA,NA,34.96042216358839
94611,Alameda County,CA,NA,21.274601686972822,NA
94706,Alameda County,CA,94.13549039433772,NA,NA
94806,Contra Costa County,CA,NA,NA,58.575197889182064
94925,Marin County,CA,NA,NA,93.40369393139841
94952,Sonoma County,CA,NA,36.92596063730084,NA
95010,Santa Cruz County,CA,NA,NA,97.22955145118733
95019,Santa Cruz County,CA,95.65217391304348,NA,NA
95037,Santa Clara County,CA,NA,NA,31.79419525065963
95051,Santa Clara County,CA,NA,52.108716026241794,NA
95054,Santa Clara County,CA,84.93427704752276,95.12652296157451,NA
95076,Santa Cruz County,CA,19.61577350859454,NA,35.224274406332455
95129,Santa Clara County,CA,NA,77.69447047797563,NA
95207,San Joaquin County,CA,NA,28.39737582005623,NA
95209,San Joaquin County,CA,49.44388270980789,NA,NA
95220,San Joaquin County,CA,NA,NA,83.7730870712401
95240,San Joaquin County,CA,NA,45.829428303655106,NA
95336,San Joaquin County,CA,32.355915065722954,NA,25.989445910290236
95348,Merced County,CA,NA,67.66635426429241,NA
95350,Stanislaus County,CA,NA,47.985004686035616,NA
95370,Tuolumne County,CA,28.91809908998989,NA,NA
95380,Stanislaus County,CA,90.19211324570273,NA,NA
95401,Sonoma County,CA,NA,NA,44.854881266490764
95404,Sonoma County,CA,90.3943377148635,NA,NA
95409,Sonoma County,CA,NA,NA,14.511873350923482
95437,Mendocino County,CA,76.23862487360971,NA,NA
95451,Lake County,CA,80.18200202224469,NA,NA
95490,Mendocino County,CA,NA,NA,61.74142480211082
95501,Humboldt County,CA,NA,33.73945641986879,NA
95531,Del Norte County,CA,NA,51.452671040299904,NA
95540,Humboldt County,CA,NA,55.5763823805061,NA
95602,Placer County,CA,98.38220424671385,97.56326148078726,NA
95603,Placer County,CA,71.38523761375126,46.860356138706656,28.759894459102902
95608,Sacramento County,CA,NA,17.90065604498594,6.860158311345646
95621,Sacramento County,CA,NA,35.520149953139644,NA
95624,Sacramento County,CA,49.74721941354904,NA,NA
95628,Sacramento County,CA,64.91405460060668,NA,NA
95630,Sacramento County,CA,NA,15.932521087160262,NA
95670,Sacramento County,CA,NA,NA,28.100263852242747
95762,El Dorado County,CA,NA,NA,42.61213720316623
95776,Yolo County,CA,88.4732052578362,NA,NA
95829,Sacramento County,CA,NA,89.59700093720713,NA
95831,Sacramento County,CA,NA,50.42174320524836,24.406332453825858
95926,Butte County,CA,36.804853387259854,NA,NA
95954,Butte County,CA,NA,NA,38.12664907651715
95965,Butte County,CA,NA,29.053420805998126,NA
95969,Butte County,CA,NA,5.716963448922212,NA
96001,Shasta County,CA,NA,NA,47.62532981530343
80005,Jefferson County,CO,61.476238624873616,NA,NA
80011,Arapahoe County,CO,NA,NA,47.4934036939314
80012,Arapahoe County,CO,NA,NA,18.86543535620053
80033,Jefferson County,CO,NA,63.3552014995314,NA
80111,Arapahoe County,CO,NA,NA,73.7467018469657
80202,Denver County,CO,54.903943377148636,NA,NA
80204,Denver County,CO,NA,65.5107778819119,NA
80220,Denver County,CO,NA,NA,83.11345646437994
80226,Jefferson County,CO,NA,NA,64.24802110817942
80227,Jefferson County,CO,NA,69.82193064667291,54.61741424802111
80231,Denver County,CO,40.647118301314464,NA,NA
80232,Jefferson County,CO,NA,NA,51.58311345646438
80239,Denver County,CO,NA,83.22399250234301,NA
80303,Boulder County,CO,81.90091001011123,NA,NA
80501,Boulder County,CO,21.1324570273003,NA,NA
80517,Larimer County,CO,NA,98.87535145267104,NA
80526,Larimer County,CO,NA,32.52108716026242,NA
80528,Larimer County,CO,82.20424671385238,NA,NA
80601,Adams County,CO,35.99595551061678,NA,NA
80634,Weld County,CO,NA,NA,8.311345646437996
80642,Weld County,CO,98.88776541961577,NA,NA
80645,Weld County,CO,96.05662285136502,NA,NA
80751,Logan County,CO,44.99494438827098,NA,NA
80831,El Paso County,CO,NA,97.00093720712277,NA
80863,Teller County,CO,92.11324570273003,NA,NA
80909,El Paso County,CO,25.783619817997977,NA,NA
81004,Pueblo County,CO,NA,28.865979381443296,NA
81006,Pueblo County,CO,NA,76.1012183692596,NA
81201,Chaffee County,CO,83.417593528817,NA,NA
81212,Fremont County,CO,NA,52.8584817244611,NA
81504,Mesa County,CO,NA,55.85754451733833,NA
81505,Mesa County,CO,NA,NA,86.14775725593667
81625,Moffat County,CO,41.75935288169869,NA,NA
06010,Hartford County,CT,1.5166835187057632,NA,2.242744063324538
06043,Tolland County,CT,91.6076845298281,NA,NA
06051,Hartford County,CT,3.336703741152679,NA,NA
06053,Hartford County,CT,NA,24.273664479850048,NA
06066,Tolland County,CT,17.99797775530839,NA,NA
06070,Hartford County,CT,NA,84.34864104967198,NA
06084,Tolland County,CT,NA,90.62792877225867,NA
06095,Hartford County,CT,NA,28.39737582005623,NA
06405,New Haven County,CT,43.47826086956522,NA,NA
06460,New Haven County,CT,NA,14.71415182755389,NA
06484,Fairfield County,CT,NA,NA,16.886543535620053
06489,Hartford County,CT,NA,15.557638238050608,NA
06492,New Haven County,CT,NA,NA,3.95778364116095
06512,New Haven County,CT,23.96359959555106,NA,15.963060686015831
06513,New Haven County,CT,22.04246713852376,8.341143392689784,21.240105540897098
06516,New Haven County,CT,NA,NA,10.158311345646439
06517,New Haven County,CT,NA,42.45548266166823,NA
06606,Fairfield County,CT,NA,32.89597000937207,38.78627968337731
06705,New Haven County,CT,NA,28.678537956888473,NA
06770,New Haven County,CT,NA,NA,25.725593667546175
06779,Litchfield County,CT,88.87765419615774,NA,NA
06804,Fairfield County,CT,NA,56.13870665417057,NA
06831,Fairfield County,CT,NA,NA,66.62269129287598
06902,Fairfield County,CT,21.840242669362993,10.871602624179943,NA
19713,New Castle County,DE,NA,NA,36.80738786279684
19720,New Castle County,DE,NA,2.7179006560449857,NA
19904,Kent County,DE,NA,82.94283036551077,NA
19947,Sussex County,DE,47.118301314459046,NA,NA
19958,Sussex County,DE,NA,25.023430178069354,NA
19973,Sussex County,DE,16.48129423660263,18.837863167760073,NA
32033,St. Johns County,FL,NA,93.06466729147141,NA
32080,St. Johns County,FL,NA,NA,28.49604221635884
32084,St. Johns County,FL,NA,NA,37.071240105540895
32110,Flagler County,FL,72.29524772497471,NA,NA
32118,Volusia County,FL,NA,67.0103092783505,NA
32128,Volusia County,FL,NA,62.23055295220243,NA
32130,Volusia County,FL,NA,NA,97.75725593667546
32137,Flagler County,FL,NA,5.810684161199625,NA
32148,Putnam County,FL,NA,NA,73.08707124010554
32159,Lake County,FL,89.0798786653185,NA,NA
32168,Volusia County,FL,NA,NA,29.551451187335093
32206,Duval County,FL,NA,20.805998125585752,NA
32209,Duval County,FL,42.366026289180994,NA,NA
32210,Duval County,FL,NA,91.94001874414246,NA
32216,Duval County,FL,NA,NA,29.023746701846964
32218,Duval County,FL,3.2355915065722956,NA,NA
32244,Duval County,FL,NA,10.590440487347703,NA
32266,Duval County,FL,NA,98.96907216494846,NA
32305,Leon County,FL,NA,80.59981255857545,NA
32312,Leon County,FL,NA,NA,58.31134564643799
32352,Gadsden County,FL,97.06774519716885,NA,NA
32404,Bay County,FL,25.68250758341759,NA,NA
32408,Bay County,FL,76.33973710819009,68.22867853795688,NA
32425,Holmes County,FL,94.8432760364004,NA,NA
32444,Bay County,FL,72.3963599595551,NA,44.72295514511873
32446,Jackson County,FL,NA,65.5107778819119,NA
32462,Washington County,FL,NA,NA,95.11873350923483
32505,Escambia County,FL,NA,9.559512652296158,NA
32514,Escambia County,FL,24.87360970677452,NA,7.651715039577836
32533,Escambia County,FL,NA,NA,31.926121372031663
32578,Okaloosa County,FL,NA,NA,21.372031662269126
32579,Okaloosa County,FL,NA,89.50328022492971,NA
32615,Alachua County,FL,67.3407482305359,NA,NA
32626,Levy County,FL,91.0010111223458,NA,NA
32640,Putnam County,FL,NA,92.03373945641987,85.22427440633246
32643,Alachua County,FL,54.4994944388271,NA,98.02110817941953
32653,Alachua County,FL,67.54297269969666,NA,48.02110817941953
32656,Clay County,FL,NA,60.35613870665417,NA
32696,Levy County,FL,NA,49.48453608247423,NA
32707,Seminole County,FL,NA,59.137769447047795,NA
32712,Orange County,FL,NA,NA,23.350923482849602
32713,Volusia County,FL,NA,71.22774133083412,NA
32746,Seminole County,FL,NA,41.89315838800375,NA
32773,Seminole County,FL,NA,80.22492970946578,NA
32779,Seminole County,FL,78.26086956521739,NA,NA
32812,Orange County,FL,NA,NA,25.065963060686013
32819,Orange County,FL,NA,75.16401124648547,NA
32822,Orange County,FL,53.892821031344795,23.523898781630738,NA
32904,Brevard County,FL,NA,NA,35.62005277044855
32905,Brevard County,FL,NA,NA,34.168865435356196
32927,Brevard County,FL,NA,47.51640112464855,NA
32937,Brevard County,FL,NA,NA,30.07915567282322
32952,Brevard County,FL,NA,NA,56.200527704485495
32962,Indian River County,FL,NA,NA,26.121372031662272
32968,Indian River County,FL,82.81092012133469,NA,NA
32976,Brevard County,FL,83.61981799797775,NA,NA
33009,Broward County,FL,87.76541961577351,NA,NA
33016,Miami-Dade County,FL,NA,NA,25.19788918205805
33019,Broward County,FL,NA,NA,60.554089709762536
33028,Broward County,FL,NA,84.06747891283973,NA
33030,Miami-Dade County,FL,46.71385237613751,NA,NA
33033,Miami-Dade County,FL,44.590495449949444,NA,NA
33056,Miami-Dade County,FL,NA,47.891283973758206,NA
33063,Broward County,FL,43.882709807886755,NA,NA
33064,Broward County,FL,NA,NA,13.060686015831136
33066,Broward County,FL,NA,NA,19.261213720316622
33067,Broward County,FL,80.48533872598584,NA,NA
33069,Broward County,FL,NA,90.1593252108716,NA
33131,Miami-Dade County,FL,NA,NA,95.77836411609498
33138,Miami-Dade County,FL,NA,63.82380506091846,NA
33141,Miami-Dade County,FL,NA,NA,67.41424802110818
33142,Miami-Dade County,FL,NA,18.088097469540767,NA
33155,Miami-Dade County,FL,76.74418604651163,NA,NA
33156,Miami-Dade County,FL,NA,56.60731021555764,NA
33160,Miami-Dade County,FL,NA,34.67666354264292,17.150395778364118
33165,Miami-Dade County,FL,NA,NA,2.3746701846965697
33173,Miami-Dade County,FL,NA,53.13964386129335,NA
33174,Miami-Dade County,FL,NA,NA,16.75461741424802
33176,Miami-Dade County,FL,71.7896865520728,NA,NA
33178,Miami-Dade County,FL,95.44994944388272,NA,NA
33179,Miami-Dade County,FL,NA,66.72914714151827,NA
33180,Miami-Dade County,FL,NA,44.98594189315839,NA
33182,Miami-Dade County,FL,NA,89.69072164948454,NA
33185,Miami-Dade County,FL,94.43882709807887,NA,NA
33187,Miami-Dade County,FL,83.01314459049544,NA,NA
33305,Broward County,FL,91.10212335692619,NA,NA
33309,Broward County,FL,NA,NA,71.50395778364116
33311,Broward County,FL,7.077856420626897,NA,NA
33312,Broward County,FL,NA,17.05716963448922,64.77572559366754
33313,Broward County,FL,22.143579373104146,NA,44.9868073878628
33319,Broward County,FL,44.69160768452983,NA,NA
33321,Broward County,FL,NA,NA,3.16622691292876
33334,Broward County,FL,NA,51.82755388940956,NA
33404,Palm Beach County,FL,NA,NA,43.66754617414248
33408,Palm Beach County,FL,NA,70.19681349578258,39.70976253298153
33411,Palm Beach County,FL,NA,NA,22.163588390501317
33413,Palm Beach County,FL,NA,NA,97.0976253298153
33415,Palm Beach County,FL,44.99494438827098,NA,NA
33418,Palm Beach County,FL,NA,27.27272727272727,8.970976253298153
33435,Palm Beach County,FL,NA,56.70103092783505,NA
33455,Martin County,FL,NA,59.41893158388004,NA
33458,Palm Beach County,FL,NA,22.118088097469542,NA
33460,Palm Beach County,FL,NA,61.9493908153702,73.87862796833772
33471,Glades County,FL,NA,NA,93.93139841688655
33472,Palm Beach County,FL,NA,97.8444236176195,NA
33483,Palm Beach County,FL,NA,96.15745079662605,NA
33510,Hillsborough County,FL,NA,NA,75.46174142480211
33525,Pasco County,FL,NA,NA,74.27440633245382
33538,Sumter County,FL,NA,95.68884723523898,NA
33547,Hillsborough County,FL,NA,NA,71.10817941952506
33556,Hillsborough County,FL,NA,NA,71.2401055408971
33558,Hillsborough County,FL,NA,81.44329896907216,NA
33566,Hillsborough County,FL,NA,68.04123711340206,NA
33573,Hillsborough County,FL,NA,NA,1.8469656992084433
33597,Sumter County,FL,97.57330637007078,NA,NA
33602,Hillsborough County,FL,NA,82.56794751640113,NA
33606,Hillsborough County,FL,NA,81.630740393627,NA
33607,Hillsborough County,FL,53.99393326592518,NA,NA
33611,Hillsborough County,FL,74.51971688574316,NA,NA
33612,Hillsborough County,FL,NA,36.45735707591378,NA
33613,Hillsborough County,FL,43.68048533872599,NA,NA
33614,Hillsborough County,FL,37.8159757330637,NA,NA
33615,Hillsborough County,FL,NA,31.115276476101215,NA
33624,Hillsborough County,FL,NA,NA,47.75725593667546
33635,Hillsborough County,FL,NA,70.19681349578258,NA
33705,Pinellas County,FL,31.14256825075834,NA,79.28759894459102
33712,Pinellas County,FL,NA,58.66916588566073,NA
33763,Pinellas County,FL,NA,87.72258669165886,NA
33764,Pinellas County,FL,NA,48.078725398313026,NA
33777,Pinellas County,FL,80.99089989888778,74.60168697282099,NA
33778,Pinellas County,FL,NA,69.44704779756327,NA
33805,Polk County,FL,NA,33.64573570759138,NA
33810,Polk County,FL,NA,33.55201499531397,NA
33813,Polk County,FL,NA,81.16213683223992,NA
33825,Highlands County,FL,NA,49.671977507029055,NA
33830,Polk County,FL,38.52376137512639,NA,NA
33837,Polk County,FL,52.37613751263903,NA,NA
33852,Highlands County,FL,NA,NA,5.277044854881266
33870,Highlands County,FL,NA,NA,9.894459102902374
33872,Highlands County,FL,NA,38.98781630740394,NA
33880,Polk County,FL,NA,46.29803186504217,NA
33881,Polk County,FL,40.04044489383215,NA,NA
33897,Polk County,FL,NA,73.75820056232428,NA
33901,Lee County,FL,56.31951466127402,NA,NA
33903,Lee County,FL,NA,NA,80.47493403693932
33908,Lee County,FL,NA,NA,8.179419525065963
33917,Lee County,FL,NA,17.33833177132146,NA
33922,Lee County,FL,NA,NA,89.31398416886543
33935,Hendry County,FL,NA,NA,81.39841688654353
33947,Charlotte County,FL,94.53993933265924,80.78725398313027,NA
33952,Charlotte County,FL,26.99696663296259,NA,33.37730870712401
33953,Charlotte County,FL,NA,NA,91.688654353562
33954,Charlotte County,FL,NA,NA,75.19788918205805
33972,Lee County,FL,86.95652173913044,NA,NA
33974,Lee County,FL,NA,NA,96.43799472295514
33981,Charlotte County,FL,NA,NA,68.60158311345647
33982,Charlotte County,FL,NA,87.81630740393626,NA
33983,Charlotte County,FL,76.03640040444894,NA,NA
33990,Lee County,FL,39.53488372093023,NA,NA
34112,Collier County,FL,NA,NA,58.31134564643799
34114,Collier County,FL,NA,NA,46.56992084432718
34145,Collier County,FL,NA,43.58013120899719,NA
34203,Manatee County,FL,NA,57.63823805060918,NA
34205,Manatee County,FL,36.400404448938325,NA,NA
34208,Manatee County,FL,28.816986855409503,NA,NA
34209,Manatee County,FL,NA,20.149953139643863,22.559366754617415
34210,Manatee County,FL,88.06875631951466,NA,NA
34221,Manatee County,FL,NA,25.679475164011244,NA
34234,Sarasota County,FL,NA,NA,41.29287598944591
34243,Manatee County,FL,NA,NA,6.068601583113456
34266,DeSoto County,FL,NA,NA,37.46701846965699
34275,Sarasota County,FL,NA,NA,15.699208443271766
34287,Sarasota County,FL,54.70171890798786,NA,NA
34288,Sarasota County,FL,NA,NA,83.37730870712402
34448,Citrus County,FL,NA,NA,96.70184696569922
34453,Citrus County,FL,NA,NA,89.44591029023746
34473,Marion County,FL,NA,63.91752577319587,NA
34491,Marion County,FL,64.71183013144591,31.77132146204311,NA
34604,Hernando County,FL,NA,NA,95.51451187335093
34608,Hernando County,FL,NA,81.06841611996252,NA
34613,Hernando County,FL,NA,71.97750702905343,NA
34653,Pasco County,FL,NA,30.646672914714152,NA
34654,Pasco County,FL,NA,NA,61.60949868073878
34655,Pasco County,FL,NA,NA,76.51715039577837
34683,Pinellas County,FL,67.64408493427705,NA,NA
34691,Pasco County,FL,47.4216380182002,NA,NA
34695,Pinellas County,FL,NA,NA,51.97889182058047
34714,Lake County,FL,NA,NA,84.30079155672823
34744,Osceola County,FL,NA,NA,51.31926121372031
34746,Osceola County,FL,NA,47.23523898781631,NA
34748,Lake County,FL,20.72800808897877,NA,NA
34761,Orange County,FL,NA,NA,33.11345646437995
34787,Orange County,FL,27.603640040444894,NA,NA
34950,St. Lucie County,FL,NA,49.671977507029055,NA
34952,St. Lucie County,FL,26.693629929221434,NA,NA
34953,St. Lucie County,FL,NA,5.435801312089971,20.844327176781004
34957,Martin County,FL,NA,33.270852858481724,NA
34974,Okeechobee County,FL,NA,NA,39.84168865435356
34982,St. Lucie County,FL,NA,74.41424554826617,NA
34983,St. Lucie County,FL,23.25581395348837,NA,NA
34987,St. Lucie County,FL,89.98988877654196,NA,NA
34990,Martin County,FL,NA,NA,2.638522427440633
34996,Martin County,FL,NA,67.76007497656981,NA
34997,Martin County,FL,NA,6.935332708528586,NA
30009,Fulton County,GA,NA,76.8509840674789,76.2532981530343
30011,Barrow County,GA,NA,NA,91.2928759894459
30016,Newton County,GA,13.447927199191101,NA,NA
30032,DeKalb County,GA,NA,NA,24.142480211081793
30034,DeKalb County,GA,32.45702730030334,NA,NA
30044,Gwinnett County,GA,NA,NA,78.89182058047494
30046,Gwinnett County,GA,50.353892821031344,NA,NA
30066,Cobb County,GA,NA,NA,35.88390501319261
30075,Fulton County,GA,40.950455005055616,NA,NA
30082,Cobb County,GA,76.9464105156724,NA,NA
30087,DeKalb County,GA,NA,19.0253045923149,NA
30097,Fulton County,GA,NA,NA,43.931398416886545
30126,Cobb County,GA,NA,65.69821930646673,NA
30127,Cobb County,GA,18.503538928210315,NA,NA
30143,Pickens County,GA,NA,NA,86.80738786279683
30153,Polk County,GA,43.5793731041456,50.51546391752577,NA
30238,Clayton County,GA,NA,60.91846298031866,NA
30248,Henry County,GA,NA,61.668228678537965,NA
30263,Coweta County,GA,NA,12.089971883786317,NA
30269,Fayette County,GA,NA,50.7029053420806,NA
30274,Clayton County,GA,42.2649140546006,NA,NA
30294,DeKalb County,GA,43.68048533872599,93.25210871602624,NA
30297,Clayton County,GA,59.656218402426695,NA,NA
30314,Fulton County,GA,46.20829120323559,NA,NA
30315,Fulton County,GA,NA,NA,39.1820580474934
30337,Fulton County,GA,80.788675429727,NA,NA
30344,Fulton County,GA,NA,39.268978444236176,NA
30345,DeKalb County,GA,NA,NA,91.42480211081794
30354,Fulton County,GA,69.56521739130434,NA,NA
30417,Evans County,GA,NA,90.06560449859418,NA
30427,Tattnall County,GA,86.24873609706775,NA,84.69656992084433
30442,Jenkins County,GA,79.97977755308392,NA,NA
30506,Hall County,GA,32.659251769464106,NA,NA
30507,Hall County,GA,45.90495449949444,NA,NA
30510,Habersham County,GA,94.64105156723963,NA,NA
30523,Habersham County,GA,NA,NA,87.46701846965699
30533,Lumpkin County,GA,69.66632962588474,45.923149015932516,NA
30536,Gilmer County,GA,NA,NA,82.45382585751979
30540,Gilmer County,GA,NA,NA,51.187335092348285
30559,Fannin County,GA,NA,99.62511715089035,NA
30606,Clarke County,GA,NA,NA,29.947229551451187
30629,Madison County,GA,NA,NA,94.1952506596306
30705,Murray County,GA,NA,39.175257731958766,NA
30740,Whitfield County,GA,NA,NA,96.04221635883906
30752,Dade County,GA,NA,77.60074976569823,NA
30809,Columbia County,GA,NA,45.36082474226804,NA
31021,Laurens County,GA,85.03538928210314,NA,NA
31029,Monroe County,GA,75.0252780586451,NA,NA
31031,Wilkinson County,GA,NA,NA,98.41688654353563
31061,Baldwin County,GA,NA,26.804123711340207,NA
31210,Bibb County,GA,63.59959555106168,NA,NA
31313,Liberty County,GA,68.45298281092013,NA,NA
31539,Jeff Davis County,GA,NA,70.57169634489222,NA
31548,Camden County,GA,59.35288169868554,NA,NA
31558,Camden County,GA,NA,NA,78.23218997361478
31601,Lowndes County,GA,61.071789686552066,NA,NA
31605,Lowndes County,GA,NA,NA,77.9683377308707
31632,Lowndes County,GA,NA,81.91190253045923,NA
31636,Lowndes County,GA,NA,62.980318650421744,NA
31705,Dougherty County,GA,32.45702730030334,NA,NA
31750,Ben Hill County,GA,NA,28.209934395501406,NA
31763,Lee County,GA,NA,68.60356138706653,NA
31773,Thomas County,GA,NA,NA,100
31904,Muscogee County,GA,NA,16.588566073102157,NA
31907,Muscogee County,GA,NA,59.79381443298969,NA
31909,Muscogee County,GA,NA,25.866916588566074,NA
39828,Grady County,GA,72.90192113245702,NA,NA
96701,Honolulu County,HI,NA,NA,43.403693931398415
96732,Maui County,HI,79.67644084934277,NA,NA
96749,Hawaii County,HI,NA,76.28865979381443,NA
96786,Honolulu County,HI,35.99595551061678,NA,NA
96793,Maui County,HI,NA,90.25304592314902,NA
96815,Honolulu County,HI,51.66835187057634,NA,NA
96816,Honolulu County,HI,NA,15.463917525773196,NA
96817,Honolulu County,HI,NA,NA,3.034300791556728
96819,Honolulu County,HI,17.492416582406474,NA,NA
96822,Honolulu County,HI,41.86046511627907,17.80693533270853,NA
83301,Twin Falls County,ID,3.1344792719919106,NA,NA
83318,Cassia County,ID,65.01516683518706,NA,NA
83404,Bonneville County,ID,NA,NA,83.50923482849603
83501,Nez Perce County,ID,NA,10.49671977507029,4.221635883905013
83616,Ada County,ID,NA,9.840674789128398,NA
83634,Ada County,ID,NA,47.1415182755389,NA
83642,Ada County,ID,NA,NA,6.200527704485488
83647,Elmore County,ID,NA,48.82849109653233,NA
83687,Canyon County,ID,NA,16.026241799437678,NA
83704,Ada County,ID,17.795753286147622,NA,1.7150395778364116
83705,Ada County,ID,79.37310414560162,14.058106841611998,NA
83843,Latah County,ID,65.11627906976744,NA,NA
60008,Cook County,IL,NA,NA,49.47229551451187
60018,Cook County,IL,NA,NA,99.07651715039579
60025,Cook County,IL,NA,3.748828491096532,NA
60046,Lake County,IL,NA,23.430178069353328,NA
60048,Lake County,IL,NA,NA,36.93931398416886
60062,Cook County,IL,NA,4.029990627928772,NA
60073,Lake County,IL,NA,26.33552014995314,NA
60076,Cook County,IL,NA,21.46204311152765,NA
60085,Lake County,IL,NA,29.334582942830366,27.96833773087071
60089,Lake County,IL,NA,40.8622305529522,NA
60098,McHenry County,IL,NA,NA,13.588390501319262
60099,Lake County,IL,43.174924165824066,39.831302717900655,NA
60107,Cook County,IL,NA,75.07029053420806,NA
60108,DuPage County,IL,NA,26.522961574507963,NA
60120,Kane County,IL,29.625884732052576,NA,NA
60123,Kane County,IL,NA,50.60918462980318,18.733509234828496
60131,Cook County,IL,75.32861476238625,NA,NA
60137,DuPage County,IL,37.00707785642063,NA,NA
60139,DuPage County,IL,NA,73.47703842549204,NA
60148,DuPage County,IL,NA,4.311152764761013,NA
60155,Cook County,IL,83.82204246713853,NA,NA
60156,McHenry County,IL,NA,58.38800374882849,NA
60178,DeKalb County,IL,NA,NA,53.562005277044854
60191,DuPage County,IL,71.18301314459049,NA,NA
60192,Cook County,IL,88.37209302325581,NA,NA
60201,Cook County,IL,46.30940343781597,NA,4.749340369393139
60202,Cook County,IL,62.28513650151668,NA,NA
60402,Cook County,IL,NA,8.997188378631678,NA
60419,Cook County,IL,NA,35.051546391752574,NA
60430,Cook County,IL,68.75631951466129,50.7029053420806,NA
60439,Cook County,IL,NA,NA,26.2532981530343
60446,Will County,IL,NA,NA,44.45910290237467
60448,Will County,IL,57.93731041456016,NA,NA
60465,Cook County,IL,NA,53.70196813495782,NA
60468,Will County,IL,NA,92.78350515463917,NA
60471,Cook County,IL,NA,69.16588566073102,NA
60477,Cook County,IL,NA,12.18369259606373,NA
60501,Cook County,IL,89.18099089989889,NA,97.4934036939314
60540,DuPage County,IL,NA,27.835051546391753,NA
60565,DuPage County,IL,NA,NA,47.229551451187334
60607,Cook County,IL,NA,NA,77.30870712401055
60610,Cook County,IL,45.5005055611729,NA,NA
60613,Cook County,IL,30.23255813953488,NA,NA
60616,Cook County,IL,NA,9.184629803186505,NA
60623,Cook County,IL,NA,11.527647610121837,NA
60628,Cook County,IL,7.280080889787664,3.1865042174320526,NA
60629,Cook County,IL,NA,3.467666354264293,NA
60631,Cook County,IL,34.47927199191102,NA,NA
60633,Cook County,IL,NA,NA,60.15831134564644
60636,Cook County,IL,NA,NA,24.010554089709764
60638,Cook County,IL,NA,NA,3.2981530343007917
60639,Cook County,IL,NA,6.654170571696345,NA
60640,Cook County,IL,8.897876643073811,NA,7.12401055408971
60643,Cook County,IL,8.796764408493427,NA,38.39050131926121
60647,Cook County,IL,NA,18.46298031865042,NA
60649,Cook County,IL,NA,NA,18.073878627968337
60651,Cook County,IL,8.39231547017189,NA,15.171503957783642
60654,Cook County,IL,NA,85.37956888472353,NA
60659,Cook County,IL,49.94944388270981,NA,NA
60660,Cook County,IL,NA,NA,38.522427440633244
61008,Boone County,IL,NA,NA,32.849604221635886
61072,Winnebago County,IL,NA,70.57169634489222,NA
61073,Winnebago County,IL,NA,38.80037488284911,NA
61108,Winnebago County,IL,NA,22.774133083411435,NA
61111,Winnebago County,IL,NA,NA,53.43007915567283
61201,Rock Island County,IL,NA,29.70946579194002,NA
61265,Rock Island County,IL,NA,29.522024367385193,NA
61356,Bureau County,IL,92.3154701718908,NA,NA
61401,Knox County,IL,NA,NA,56.596306068601585
61520,Fulton County,IL,74.72194135490395,NA,33.24538258575198
61614,Peoria County,IL,NA,NA,24.538258575197887
61920,Coles County,IL,NA,52.108716026241794,NA
62002,Madison County,IL,NA,NA,50.92348284960422
62018,Madison County,IL,99.69666329625885,NA,NA
62040,Madison County,IL,21.03134479271992,NA,NA
62060,Madison County,IL,99.08998988877654,NA,NA
62206,St. Clair County,IL,NA,74.13308341143393,NA
62221,St. Clair County,IL,NA,78.25679475164011,NA
62226,St. Clair County,IL,NA,25.30459231490159,NA
62230,Clinton County,IL,92.92214357937311,NA,NA
62249,Madison County,IL,NA,NA,35.09234828496042
62526,Macon County,IL,NA,NA,3.430079155672823
62565,Shelby County,IL,NA,NA,77.83641160949868
62702,Sangamon County,IL,61.57735085945399,NA,NA
62703,Sangamon County,IL,NA,NA,46.306068601583114
62801,Marion County,IL,53.28614762386249,27.647610121836923,NA
62812,Franklin County,IL,NA,58.10684161199625,NA
62839,Clay County,IL,86.14762386248736,NA,NA
62948,Williamson County,IL,NA,NA,89.5778364116095
62959,Williamson County,IL,NA,90.53420805998125,NA
46012,Madison County,IN,40.44489383215369,NA,NA
46038,Hamilton County,IN,NA,NA,87.59894459102902
46060,Hamilton County,IN,NA,65.41705716963449,NA
46112,Hendricks County,IN,NA,NA,69.92084432717678
46131,Johnson County,IN,33.367037411526795,NA,10.686015831134563
46142,Johnson County,IN,45.601617795753285,NA,NA
46164,Johnson County,IN,NA,99.90627928772258,NA
46201,Marion County,IN,NA,34.02061855670103,NA
46203,Marion County,IN,9.30232558139535,NA,NA
46205,Marion County,IN,39.23154701718908,NA,NA
46217,Marion County,IN,NA,NA,42.0844327176781
46235,Marion County,IN,20.323559150657232,72.07122774133083,NA
46237,Marion County,IN,NA,9.653233364573572,NA
46268,Marion County,IN,NA,NA,99.34036939313984
46303,Lake County,IN,48.23053589484327,NA,NA
46307,Lake County,IN,NA,NA,1.978891820580475
46311,Lake County,IN,NA,NA,27.440633245382585
46312,Lake County,IN,17.290192113245702,38.0506091846298,NA
46319,Lake County,IN,NA,24.554826616682288,NA
46321,Lake County,IN,NA,51.07778819119025,NA
46322,Lake County,IN,NA,NA,11.345646437994723
46373,Lake County,IN,32.861476238624874,NA,NA
46408,Lake County,IN,NA,80.13120899718838,NA
46517,Elkhart County,IN,51.46612740141558,NA,NA
46526,Elkhart County,IN,58.64509605662285,NA,NA
46540,Elkhart County,IN,NA,NA,97.75725593667546
46580,Kosciusko County,IN,NA,NA,32.189973614775724
46725,Whitley County,IN,33.06370070778564,NA,NA
46767,Noble County,IN,90.29322548028311,NA,NA
46804,Allen County,IN,47.72497472194136,NA,NA
46805,Allen County,IN,NA,NA,51.45118733509235
46808,Allen County,IN,35.49039433771487,NA,NA
46819,Allen County,IN,NA,74.88284910965324,NA
46845,Allen County,IN,60.86956521739131,NA,NA
46902,Howard County,IN,NA,NA,5.540897097625329
46975,Fulton County,IN,54.29726996966633,NA,NA
46992,Wabash County,IN,36.70374115267948,NA,NA
47006,Ripley County,IN,75.12639029322547,65.13589503280225,NA
47112,Harrison County,IN,58.54398382204246,NA,NA
47130,Clark County,IN,NA,3.936269915651359,NA
47331,Fayette County,IN,NA,12.371134020618557,NA
47348,Blackford County,IN,NA,57.73195876288659,NA
47374,Wayne County,IN,4.145601617795753,NA,NA
47403,Monroe County,IN,86.85540950455005,NA,NA
47424,Greene County,IN,NA,NA,94.85488126649076
47805,Vigo County,IN,NA,NA,91.82058047493403
47885,Vigo County,IN,NA,76.56982193064667,NA
50022,Cass County,IA,NA,84.5360824742268,NA
50036,Boone County,IA,70.27300303336703,NA,NA
50129,Greene County,IA,NA,NA,93.53562005277045
50266,Polk County,IA,NA,82.4742268041237,NA
50311,Polk County,IA,81.19312436804853,NA,NA
50317,Polk County,IA,NA,48.641049671977505,NA
50320,Polk County,IA,51.36501516683518,NA,NA
50322,Polk County,IA,65.21739130434783,NA,NA
50401,Cerro Gordo County,IA,NA,NA,0.6596306068601583
50461,Mitchell County,IA,NA,NA,89.18205804749341
50501,Webster County,IA,60.16177957532861,NA,NA
50595,Hamilton County,IA,79.97977755308392,NA,NA
50701,Black Hawk County,IA,NA,23.33645735707591,NA
50703,Black Hawk County,IA,NA,NA,34.696569920844325
50801,Union County,IA,41.6582406471183,53.42080599812559,NA
51351,Dickinson County,IA,NA,NA,87.20316622691293
51503,Pottawattamie County,IA,NA,3.373945641986879,NA
51537,Shelby County,IA,NA,85.56701030927834,NA
52001,Dubuque County,IA,NA,NA,50
52804,Scott County,IA,NA,92.59606373008434,NA
52806,Scott County,IA,21.941354903943378,NA,NA
52807,Scott County,IA,NA,NA,72.0316622691293
66007,Leavenworth County,KS,NA,88.56607310215557,NA
66048,Leavenworth County,KS,NA,46.485473289597,NA
66061,Johnson County,KS,20.222446916076844,NA,NA
66086,Leavenworth County,KS,91.80990899898887,NA,NA
66109,Wyandotte County,KS,NA,NA,32.71767810026385
66210,Johnson County,KS,78.36198179979777,NA,52.110817941952504
66212,Johnson County,KS,NA,13.683223992502343,NA
66213,Johnson County,KS,NA,47.70384254920337,NA
66219,Johnson County,KS,NA,84.62980318650422,NA
66221,Johnson County,KS,73.60970677451971,NA,NA
66502,Riley County,KS,NA,71.32146204311152,NA
66547,Pottawatomie County,KS,NA,NA,90.76517150395779
66604,Shawnee County,KS,50.25278058645096,NA,NA
66610,Shawnee County,KS,NA,NA,86.80738786279683
66616,Shawnee County,KS,93.52881698685542,NA,NA
66701,Bourbon County,KS,69.26188068756319,NA,NA
67037,Sedgwick County,KS,NA,86.69165885660732,NA
67156,Cowley County,KS,NA,NA,49.86807387862797
67217,Sedgwick County,KS,NA,NA,70.31662269129288
67357,Labette County,KS,51.97168857431749,NA,NA
67701,Thomas County,KS,78.05864509605662,NA,NA
67901,Seward County,KS,NA,93.6269915651359,NA
40004,Nelson County,KY,18.90798786653185,NA,NA
40057,Henry County,KY,96.35995955510617,NA,NA
40160,Hardin County,KY,35.38928210313448,53.514526710403,NA
40210,Jefferson County,KY,44.388270980788676,NA,NA
40212,Jefferson County,KY,NA,36.83223992502343,NA
40220,Jefferson County,KY,40.54600606673407,NA,NA
40222,Jefferson County,KY,NA,65.97938144329896,NA
40228,Jefferson County,KY,69.9696663296259,NA,NA
40324,Scott County,KY,NA,NA,37.994722955145114
40356,Jessamine County,KY,14.661274014155712,NA,NA
40361,Bourbon County,KY,NA,57.263355201499536,NA
40380,Powell County,KY,NA,94.18931583880038,NA
40391,Clark County,KY,8.190091001011123,NA,NA
40403,Madison County,KY,23.356926188068755,NA,NA
40475,Madison County,KY,7.987866531850354,NA,NA
40769,Whitley County,KY,36.19817997977755,NA,NA
41004,Bracken County,KY,98.28109201213347,NA,NA
41031,Harrison County,KY,NA,37.86316776007498,NA
41035,Grant County,KY,48.93832153690597,NA,NA
41071,Campbell County,KY,NA,33.45829428303655,NA
41075,Campbell County,KY,NA,NA,60.817941952506594
41076,Campbell County,KY,NA,NA,21.63588390501319
41091,Boone County,KY,NA,NA,59.894459102902374
41101,Boyd County,KY,70.87967644084934,NA,NA
41102,Boyd County,KY,NA,NA,24.670184696569923
41230,Lawrence County,KY,NA,43.86129334582943,NA
41339,Breathitt County,KY,NA,75.53889409559513,NA
41501,Pike County,KY,12.133468149646106,NA,NA
42025,Marshall County,KY,NA,NA,32.58575197889182
42029,Marshall County,KY,NA,NA,93.13984168865436
42101,Warren County,KY,NA,14.432989690721648,65.17150395778364
42301,Daviess County,KY,38.01820020222447,9.934395501405811,16.226912928759894
42303,Daviess County,KY,38.32153690596562,NA,NA
42629,Russell County,KY,NA,NA,95.3825857519789
42642,Russell County,KY,NA,67.29147141518276,NA
42748,Larue County,KY,86.34984833164813,NA,NA
70006,Jefferson Parish,LA,NA,43.29896907216495,NA
70047,St. Charles Parish,LA,NA,NA,75.98944591029023
70072,Jefferson Parish,LA,NA,NA,4.353562005277045
70115,Orleans Parish,LA,NA,NA,42.34828496042216
70122,Orleans Parish,LA,NA,10.21555763823805,NA
70301,Lafourche Parish,LA,1.9211324570273005,NA,NA
70363,Terrebonne Parish,LA,89.28210313447927,NA,NA
70364,Terrebonne Parish,LA,7.482305358948432,NA,NA
70380,St. Mary Parish,LA,NA,67.38519212746017,NA
70427,Washington Parish,LA,NA,20.89971883786317,NA
70452,St. Tammany Parish,LA,21.334681496461073,NA,NA
70458,St. Tammany Parish,LA,5.763397371081901,NA,NA
70503,Lafayette Parish,LA,NA,62.69915651358951,NA
70515,Evangeline Parish,LA,92.82103134479271,NA,NA
70520,Lafayette Parish,LA,NA,91.19025304592316,NA
70548,Vermilion Parish,LA,NA,79.19400187441424,NA
70554,Evangeline Parish,LA,77.75530839231547,NA,NA
70570,St. Landry Parish,LA,NA,10.965323336457358,17.678100263852244
70584,St. Landry Parish,LA,NA,NA,89.5778364116095
70586,Evangeline Parish,LA,16.177957532861477,NA,48.94459102902375
70592,Lafayette Parish,LA,NA,71.88378631677601,NA
70601,Calcasieu Parish,LA,NA,7.1227741330834125,NA
70607,Calcasieu Parish,LA,14.459049544994945,NA,NA
70634,Beauregard Parish,LA,26.59251769464105,NA,NA
70663,Calcasieu Parish,LA,NA,NA,45.77836411609499
70726,Livingston Parish,LA,NA,7.497656982193064,NA
70791,East Baton Rouge Parish,LA,14.35793731041456,NA,NA
70810,East Baton Rouge Parish,LA,7.886754297269969,64.85473289597002,NA
71006,Bossier Parish,LA,NA,72.91471415182755,NA
71047,Caddo Parish,LA,54.60060667340748,NA,NA
71049,De Soto Parish,LA,97.97775530839232,NA,NA
71082,Caddo Parish,LA,NA,NA,94.72295514511873
71103,Caddo Parish,LA,56.117290192113245,NA,NA
71202,Ouachita Parish,LA,NA,26.241799437675727,NA
71203,Ouachita Parish,LA,NA,21.743205248359885,NA
71292,Ouachita Parish,LA,13.144590495449949,NA,NA
71301,Rapides Parish,LA,7.381193124368049,NA,NA
71334,Concordia Parish,LA,NA,82.19306466729147,NA
71346,Rapides Parish,LA,NA,99.34395501405811,NA
71351,Avoyelles Parish,LA,67.13852376137513,NA,NA
71483,Winn Parish,LA,41.354903943377145,NA,NA
04046,York County,ME,NA,NA,72.0316622691293
04086,Sagadahoc County,ME,NA,NA,49.20844327176781
04092,Cumberland County,ME,41.55712841253792,26.61668228678538,NA
04210,Androscoggin County,ME,NA,8.52858481724461,NA
04240,Androscoggin County,ME,NA,NA,16.62269129287599
04274,Androscoggin County,ME,93.42770475227502,NA,NA
04280,Androscoggin County,ME,NA,93.90815370196813,NA
04281,Oxford County,ME,NA,NA,71.89973614775725
04350,Kennebec County,ME,98.17997977755309,NA,NA
04468,Penobscot County,ME,NA,NA,73.21899736147758
04578,Lincoln County,ME,NA,NA,92.61213720316623
04769,Aroostook County,ME,64.30738119312437,NA,NA
04901,Kennebec County,ME,25.278058645096056,NA,NA
04976,Somerset County,ME,NA,14.245548266166825,NA
20603,Charles County,MD,NA,88.94095595126524,NA
20607,Prince George's County,MD,90.69767441860465,NA,NA
20659,St. Mary's County,MD,NA,58.29428303655108,NA
20732,Calvert County,MD,NA,96.25117150890347,NA
20743,Prince George's County,MD,NA,72.16494845360825,NA
20744,Prince George's County,MD,48.43276036400405,75.44517338331771,NA
20772,Prince George's County,MD,50.859453993933265,NA,NA
20783,Prince George's County,MD,NA,NA,63.58839050131926
20854,Montgomery County,MD,NA,NA,36.147757255936675
20878,Montgomery County,MD,NA,NA,73.61477572559367
20904,Montgomery County,MD,NA,49.57825679475164,NA
21015,Harford County,MD,NA,NA,83.24538258575198
21035,Anne Arundel County,MD,93.12436804853387,NA,NA
21060,Anne Arundel County,MD,NA,39.831302717900655,NA
21093,Baltimore County,MD,NA,24.6485473289597,NA
21122,Anne Arundel County,MD,7.684529828109202,NA,NA
21136,Baltimore County,MD,60.46511627906976,NA,NA
21207,Baltimore County,MD,NA,21.649484536082475,NA
21215,Baltimore city,MD,NA,NA,7.255936675461741
21222,Baltimore County,MD,NA,1.874414245548266,NA
21224,Baltimore city,MD,NA,NA,31.6622691292876
21230,Baltimore city,MD,NA,NA,72.82321899736148
21401,Anne Arundel County,MD,27.906976744186046,NA,20.71240105540897
21502,Allegany County,MD,24.67138523761375,17.150890346766634,5.013192612137203
21620,Kent County,MD,NA,96.71977507029054,NA
21660,Caroline County,MD,98.48331648129424,NA,NA
21701,Frederick County,MD,NA,60.44985941893158,NA
21704,Frederick County,MD,NA,NA,98.28496042216359
21740,Washington County,MD,NA,NA,28.891820580474935
21769,Frederick County,MD,NA,NA,96.56992084432717
21784,Carroll County,MD,NA,NA,50.3957783641161
21842,Worcester County,MD,NA,62.88659793814433,NA
01013,Hampden County,MA,NA,NA,76.64907651715039
01027,Hampshire County,MA,NA,NA,86.01583113456465
01030,Hampden County,MA,NA,NA,79.94722955145119
01040,Hampden County,MA,52.78058645096056,NA,NA
01056,Hampden County,MA,NA,36.26991565135895,NA
01060,Hampshire County,MA,NA,48.45360824742268,NA
01075,Hampshire County,MA,NA,52.014995313964384,NA
01085,Hampden County,MA,NA,1.7806935332708531,NA
01201,Berkshire County,MA,1.0111223458038423,0,NA
01247,Berkshire County,MA,6.167846309403438,8.434864104967197,NA
01440,Worcester County,MA,81.3953488372093,NA,9.102902374670185
01510,Worcester County,MA,NA,11.059044048734771,NA
01520,Worcester County,MA,NA,NA,88.52242744063325
01543,Worcester County,MA,NA,NA,94.5910290237467
01550,Worcester County,MA,NA,83.69259606373008,NA
01569,Worcester County,MA,38.119312436804854,NA,NA
01581,Worcester County,MA,NA,NA,62.66490765171504
01590,Worcester County,MA,NA,NA,83.64116094986808
01604,Worcester County,MA,0.6066734074823054,NA,NA
01720,Middlesex County,MA,70.57633973710819,NA,NA
01803,Middlesex County,MA,NA,NA,18.20580474934037
01824,Middlesex County,MA,NA,NA,6.596306068601583
01841,Essex County,MA,0.7077856420626896,NA,NA
01845,Essex County,MA,NA,11.715089034676664,NA
01863,Middlesex County,MA,56.52173913043478,NA,NA
01880,Middlesex County,MA,NA,4.873477038425492,12.005277044854882
01886,Middlesex County,MA,23.86248736097068,NA,NA
01915,Essex County,MA,1.314459049544995,NA,NA
01923,Essex County,MA,3.0333670374115265,NA,1.3192612137203166
01930,Essex County,MA,93.22548028311427,NA,NA
01949,Essex County,MA,50.55611729019211,NA,NA
02043,Plymouth County,MA,NA,50.140581068416125,NA
02050,Plymouth County,MA,20.82912032355915,NA,NA
02061,Plymouth County,MA,NA,NA,76.38522427440633
02062,Norfolk County,MA,NA,10.77788191190253,17.54617414248021
02119,Suffolk County,MA,0,NA,NA
02122,Suffolk County,MA,NA,0.937207122774133,NA
02124,Suffolk County,MA,50.05055611729019,NA,NA
02143,Middlesex County,MA,5.864509605662286,NA,NA
02145,Middlesex County,MA,NA,8.903467666354265,NA
02148,Middlesex County,MA,NA,0.09372071227741331,0.13192612137203166
02149,Middlesex County,MA,0.20222446916076847,NA,NA
02150,Suffolk County,MA,NA,0.8434864104967198,NA
02151,Suffolk County,MA,0.10111223458038424,NA,NA
02169,Norfolk County,MA,0.3033367037411527,44.329896907216494,NA
02176,Middlesex County,MA,NA,NA,13.192612137203167
02180,Middlesex County,MA,NA,20.33739456419869,NA
02184,Norfolk County,MA,NA,6.279287722586692,6.728232189973616
02186,Norfolk County,MA,NA,23.992502343017808,NA
02190,Norfolk County,MA,29.92922143579373,33.92689784442362,NA
02302,Plymouth County,MA,NA,15.27647610121837,NA
02332,Plymouth County,MA,NA,NA,52.90237467018469
02339,Plymouth County,MA,NA,96.06373008434865,50.52770448548812
02360,Plymouth County,MA,NA,0.18744142455482662,NA
02368,Norfolk County,MA,NA,4.123711340206185,NA
02370,Plymouth County,MA,NA,23.617619493908155,NA
02446,Norfolk County,MA,NA,NA,7.783641160949868
02453,Middlesex County,MA,NA,48.547328959700096,NA
02472,Middlesex County,MA,NA,5.623242736644799,NA
02474,Middlesex County,MA,NA,22.399250234301782,NA
02536,Barnstable County,MA,NA,12.933458294283037,NA
02540,Barnstable County,MA,NA,NA,71.76781002638522
02554,Nantucket County,MA,NA,52.57731958762887,65.8311345646438
02568,Dukes County,MA,NA,41.33083411433927,NA
02642,Barnstable County,MA,NA,81.7244611059044,NA
02721,Bristol County,MA,NA,NA,9.630606860158311
02723,Bristol County,MA,2.0222446916076846,NA,NA
02724,Bristol County,MA,NA,NA,3.562005277044855
02744,Bristol County,MA,NA,31.021555763823805,NA
48017,Oakland County,MI,NA,NA,69.26121372031663
48030,Oakland County,MI,44.893832153690596,NA,NA
48038,Macomb County,MI,13.549039433771487,NA,NA
48047,Macomb County,MI,NA,NA,33.90501319261214
48066,Macomb County,MI,NA,6.747891283973758,NA
48071,Oakland County,MI,60.97067745197169,NA,NA
48073,Oakland County,MI,NA,33.177132146204315,NA
48075,Oakland County,MI,34.07482305358948,NA,NA
48076,Oakland County,MI,68.04853387259858,NA,NA
48081,Macomb County,MI,NA,60.543580131209,NA
48082,Macomb County,MI,NA,35.80131208997188,NA
48083,Oakland County,MI,59.150657229524775,NA,NA
48095,Macomb County,MI,NA,NA,93.66754617414247
48101,Wayne County,MI,NA,28.116213683223997,NA
48120,Wayne County,MI,NA,87.06654170571696,NA
48122,Wayne County,MI,NA,NA,98.68073878627969
48126,Wayne County,MI,10.819009100101113,NA,NA
48134,Wayne County,MI,NA,44.42361761949391,NA
48146,Wayne County,MI,35.28816986855409,NA,NA
48169,Livingston County,MI,NA,NA,36.675461741424805
48170,Wayne County,MI,NA,2.6241799437675724,NA
48174,Wayne County,MI,31.648129423660265,NA,NA
48197,Washtenaw County,MI,1.820020222446916,NA,NA
48205,Wayne County,MI,3.9433771486349847,NA,NA
48207,Wayne County,MI,NA,34.02061855670103,NA
48214,Wayne County,MI,20.12133468149646,NA,NA
48219,Wayne County,MI,24.772497472194136,NA,NA
48224,Wayne County,MI,15.672396359959556,NA,55.4089709762533
48227,Wayne County,MI,2.5278058645096055,35.42642924086223,NA
48230,Wayne County,MI,53.69059656218403,NA,NA
48234,Wayne County,MI,34.17593528816987,NA,NA
48235,Wayne County,MI,NA,2.530459231490159,NA
48236,Wayne County,MI,33.77148634984833,NA,NA
48238,Wayne County,MI,4.954499494438827,NA,NA
48240,Wayne County,MI,55.91506572295247,NA,NA
48301,Oakland County,MI,67.03741152679474,NA,NA
48304,Oakland County,MI,70.27300303336703,NA,NA
48307,Oakland County,MI,NA,19.49390815370197,NA
48309,Oakland County,MI,NA,24.92970946579194,NA
48312,Macomb County,MI,60.66734074823054,14.620431115276475,NA
48323,Oakland County,MI,NA,42.736644798500464,NA
48324,Oakland County,MI,NA,56.3261480787254,NA
48326,Oakland County,MI,NA,54.82661668228679,NA
48328,Oakland County,MI,NA,NA,37.203166226912934
48329,Oakland County,MI,35.69261880687563,NA,NA
48336,Oakland County,MI,NA,NA,29.155672823218996
48340,Oakland County,MI,10.920121334681497,NA,NA
48348,Oakland County,MI,NA,44.70477975632615,61.34564643799473
48383,Oakland County,MI,NA,NA,72.69129287598945
48390,Oakland County,MI,NA,NA,38.65435356200528
48423,Genesee County,MI,NA,NA,40.369393139841684
48433,Genesee County,MI,55.61172901921132,19.77507029053421,NA
48439,Genesee County,MI,44.08493427704752,NA,NA
48441,Huron County,MI,NA,NA,69.65699208443272
48457,Genesee County,MI,NA,NA,96.30606860158312
48504,Genesee County,MI,NA,43.48641049671977,NA
48506,Genesee County,MI,25.379170879676437,NA,NA
48509,Genesee County,MI,81.49646107178968,NA,NA
48601,Saginaw County,MI,1.4155712841253791,2.999062792877226,NA
48638,Saginaw County,MI,59.95955510616785,NA,61.21372031662269
48640,Midland County,MI,9.908998988877654,13.120899718837864,NA
48642,Midland County,MI,53.58948432760364,NA,NA
48706,Bay County,MI,NA,1.4058106841611997,NA
48708,Bay County,MI,NA,6.4667291471415185,NA
48723,Tuscola County,MI,NA,61.19962511715089,NA
48808,Clinton County,MI,95.95551061678464,NA,NA
48827,Eaton County,MI,NA,NA,53.95778364116095
48846,Ionia County,MI,40.849342770475225,NA,NA
48864,Ingham County,MI,NA,NA,62.13720316622692
48867,Shiawassee County,MI,NA,5.248359887535145,NA
48875,Ionia County,MI,NA,77.41330834114339,NA
48879,Clinton County,MI,52.88169868554095,NA,NA
48880,Gratiot County,MI,87.8665318503539,NA,NA
48910,Ingham County,MI,12.032355915065724,12.46485473289597,NA
49004,Kalamazoo County,MI,NA,NA,56.464379947229546
49006,Kalamazoo County,MI,NA,64.7610121836926,NA
49093,St. Joseph County,MI,NA,NA,36.01583113456465
49099,St. Joseph County,MI,NA,NA,80.60686015831135
49103,Berrien County,MI,NA,NA,64.37994722955145
49120,Berrien County,MI,NA,NA,16.094986807387862
49202,Jackson County,MI,NA,29.70946579194002,NA
49270,Monroe County,MI,NA,95.22024367385193,NA
49286,Lenawee County,MI,NA,NA,41.68865435356201
49315,Kent County,MI,NA,NA,40.76517150395778
49316,Kent County,MI,53.083923154701715,NA,NA
49349,Newaygo County,MI,NA,NA,85.09234828496042
49412,Newaygo County,MI,NA,57.54451733833177,58.04749340369393
49417,Ottawa County,MI,NA,4.686035613870666,NA
49418,Kent County,MI,NA,25.398313027179007,NA
49419,Allegan County,MI,88.67542972699697,NA,NA
49423,Ottawa County,MI,12.234580384226492,7.216494845360824,NA
49424,Ottawa County,MI,15.874620829120323,45.45454545454545,NA
49426,Ottawa County,MI,42.669362992922146,NA,NA
49431,Mason County,MI,NA,22.68041237113402,NA
49441,Muskegon County,MI,12.639029322548028,NA,NA
49442,Muskegon County,MI,NA,3.280224929709466,NA
49444,Muskegon County,MI,NA,NA,23.218997361477573
49464,Ottawa County,MI,54.19615773508595,NA,NA
49505,Kent County,MI,NA,NA,17.810026385224276
49507,Kent County,MI,5.156723963599596,NA,NA
49508,Kent County,MI,5.96562184024267,NA,NA
49601,Wexford County,MI,NA,50.234301780693535,NA
49646,Kalkaska County,MI,55.106167846309404,NA,NA
49651,Missaukee County,MI,NA,NA,65.56728232189974
49659,Antrim County,MI,93.73104145601617,NA,NA
49685,Grand Traverse County,MI,81.79979777553083,NA,NA
49707,Alpena County,MI,33.46814964610718,NA,NA
49721,Cheboygan County,MI,NA,NA,38.91820580474934
49801,Dickinson County,MI,NA,NA,50.131926121372025
49802,Dickinson County,MI,NA,NA,72.55936675461741
49854,Schoolcraft County,MI,NA,NA,88.39050131926122
49920,Iron County,MI,NA,88.28491096532333,NA
49931,Houghton County,MI,NA,75.16401124648547,NA
49935,Iron County,MI,74.21638018200201,NA,NA
55016,Washington County,MN,NA,62.04311152764761,NA
55033,Dakota County,MN,65.62184024266936,NA,NA
55038,Washington County,MN,NA,89.31583880037488,NA
55044,Dakota County,MN,NA,60.824742268041234,NA
55056,Chisago County,MN,NA,86.78537956888472,NA
55060,Steele County,MN,NA,28.959700093720713,NA
55076,Dakota County,MN,NA,56.23242736644799,70.05277044854881
55102,Ramsey County,MN,31.547017189079877,38.0506091846298,NA
55105,Ramsey County,MN,NA,66.07310215557638,NA
55109,Ramsey County,MN,92.51769464105156,NA,NA
55118,Dakota County,MN,52.98281092012134,NA,NA
55119,Ramsey County,MN,14.155712841253793,NA,NA
55124,Dakota County,MN,40.74823053589484,38.23805060918463,49.20844327176781
55125,Washington County,MN,NA,NA,76.12137203166228
55320,Wright County,MN,NA,95.78256794751641,NA
55330,Sherburne County,MN,43.882709807886755,NA,NA
55337,Dakota County,MN,NA,NA,30.21108179419525
55364,Hennepin County,MN,NA,NA,79.55145118733509
55369,Hennepin County,MN,NA,NA,65.03957783641161
55371,Mille Lacs County,MN,53.48837209302325,NA,NA
55374,Hennepin County,MN,NA,92.50234301780694,NA
55379,Scott County,MN,NA,45.26710402999063,NA
55408,Hennepin County,MN,11.729019211324571,NA,NA
55411,Hennepin County,MN,2.3255813953488373,NA,NA
55419,Hennepin County,MN,77.45197168857432,NA,NA
55420,Hennepin County,MN,NA,NA,44.59102902374671
55429,Hennepin County,MN,12.841253791708795,NA,NA
55431,Hennepin County,MN,64.71183013144591,NA,NA
55433,Anoka County,MN,NA,54.35801312089972,NA
55442,Hennepin County,MN,NA,86.41049671977507,NA
55709,Itasca County,MN,NA,98.40674789128397,NA
55746,St. Louis County,MN,NA,30.646672914714152,NA
55811,St. Louis County,MN,32.96258847320526,NA,1.58311345646438
55901,Olmsted County,MN,NA,NA,11.741424802110819
55987,Winona County,MN,NA,58.57544517338332,NA
55992,Goodhue County,MN,99.29221435793731,NA,NA
56031,Martin County,MN,48.129423660262894,NA,NA
56058,Le Sueur County,MN,NA,NA,88.52242744063325
56093,Waseca County,MN,73.40748230535895,NA,NA
56164,Pipestone County,MN,NA,85.00468603561387,NA
56201,Kandiyohi County,MN,NA,62.980318650421744,NA
56241,Yellow Medicine County,MN,NA,97.46954076850984,NA
56265,Chippewa County,MN,NA,96.34489222118088,NA
56283,Redwood County,MN,90.79878665318503,NA,NA
56308,Douglas County,MN,62.48736097067745,NA,NA
56320,Stearns County,MN,NA,NA,87.73087071240106
56334,Pope County,MN,NA,79.47516401124649,NA
56362,Stearns County,MN,NA,92.87722586691659,NA
56378,Stearns County,MN,NA,82.3805060918463,NA
56387,Stearns County,MN,NA,NA,79.41952506596306
56425,Crow Wing County,MN,NA,NA,36.54353562005277
56431,Aitkin County,MN,NA,NA,28.232189973614773
56470,Hubbard County,MN,NA,74.32052483598875,NA
56479,Todd County,MN,NA,82.56794751640113,NA
56572,Otter Tail County,MN,NA,68.69728209934397,NA
56601,Beltrami County,MN,NA,1.3120899718837862,NA
56701,Pennington County,MN,NA,NA,34.300791556728235
38618,Tate County,MS,NA,72.25866916588566,NA
38672,DeSoto County,MS,NA,96.81349578256795,NA
38703,Washington County,MS,73.20525783619817,NA,NA
38771,Sunflower County,MS,NA,99.81255857544518,NA
38801,Lee County,MS,73.50859453993934,NA,NA
38851,Chickasaw County,MS,NA,NA,94.32717678100263
38901,Grenada County,MS,NA,NA,41.29287598944591
39051,Leake County,MS,48.634984833164815,NA,NA
39074,Scott County,MS,40.34378159757331,NA,NA
39110,Madison County,MS,NA,NA,68.73350923482849
39114,Simpson County,MS,93.93326592517694,NA,NA
39119,Covington County,MS,NA,NA,97.36147757255937
39170,Hinds County,MS,84.42871587462083,NA,NA
39206,Hinds County,MS,NA,46.67291471415182,NA
39213,Hinds County,MS,37.613751263902934,NA,NA
39301,Lauderdale County,MS,18.6046511627907,NA,NA
39355,Clarke County,MS,85.74317492416583,NA,NA
39401,Forrest County,MS,NA,54.54545454545454,NA
39429,Marion County,MS,NA,NA,63.45646437994723
39440,Jones County,MS,84.22649140546005,NA,NA
39470,Pearl River County,MS,NA,NA,66.09498680738787
39501,Harrison County,MS,19.514661274014156,NA,NA
39525,Hancock County,MS,NA,53.32708528584818,NA
39530,Harrison County,MS,NA,99.15651358950328,NA
39532,Harrison County,MS,NA,NA,16.490765171503956
39553,Jackson County,MS,NA,82.56794751640113,77.57255936675462
39560,Harrison County,MS,NA,8.809746954076852,NA
39562,Jackson County,MS,NA,45.923149015932516,NA
39567,Jackson County,MS,NA,57.919400187441425,NA
39601,Lincoln County,MS,49.140546006066735,NA,NA
39652,Pike County,MS,NA,81.91190253045923,NA
39730,Monroe County,MS,NA,91.37769447047798,60.817941952506594
63033,St. Louis County,MO,16.885743174924166,12.839737582005622,5.408970976253298
63043,St. Louis County,MO,55.71284125379171,NA,NA
63052,Jefferson County,MO,NA,88.37863167760075,NA
63084,Franklin County,MO,56.52173913043478,52.8584817244611,NA
63109,St. Louis city,MO,NA,40.487347703842545,NA
63112,St. Louis city,MO,55.308392315470165,NA,NA
63118,St. Louis city,MO,35.085945399393324,NA,NA
63120,St. Louis city,MO,66.73407482305359,NA,NA
63123,St. Louis County,MO,39.130434782608695,NA,NA
63127,St. Louis County,MO,NA,NA,63.06068601583114
63129,St. Louis County,MO,NA,NA,7.9155672823219
63134,St. Louis County,MO,NA,87.53514526710403,NA
63146,St. Louis County,MO,NA,32.98969072164948,NA
63385,St. Charles County,MO,NA,45.54826616682287,NA
63401,Marion County,MO,NA,49.95313964386129,NA
63628,St. Francois County,MO,66.32962588473205,NA,NA
63937,Carter County,MO,98.98887765419616,NA,NA
64055,Jackson County,MO,NA,NA,14.24802110817942
64057,Jackson County,MO,NA,NA,54.61741424802111
64063,Jackson County,MO,41.05156723963599,37.76944704779756,NA
64086,Jackson County,MO,37.108190091001006,NA,NA
64089,Clay County,MO,NA,NA,96.17414248021107
64093,Johnson County,MO,NA,NA,45.382585751978894
64108,Jackson County,MO,62.1840242669363,NA,NA
64109,Jackson County,MO,30.434782608695656,NA,NA
64111,Jackson County,MO,61.375126390293225,NA,NA
64116,Clay County,MO,NA,40.487347703842545,NA
64118,Clay County,MO,NA,5.904404873477039,NA
64127,Jackson County,MO,6.268958543983821,NA,NA
64130,Jackson County,MO,NA,17.994376757263357,NA
64131,Jackson County,MO,14.964610717896864,NA,NA
64151,Platte County,MO,NA,15.182755388940954,NA
64468,Nodaway County,MO,69.36299292214359,NA,NA
64503,Buchanan County,MO,NA,31.39643861293346,NA
64505,Buchanan County,MO,67.84630940343781,NA,NA
64506,Buchanan County,MO,NA,NA,1.0554089709762533
64601,Livingston County,MO,NA,NA,79.81530343007915
64744,Cedar County,MO,78.46309403437816,NA,NA
64801,Jasper County,MO,13.751263902932253,NA,NA
65020,Camden County,MO,NA,71.69634489222118,NA
65201,Boone County,MO,47.92719919110212,NA,NA
65203,Boone County,MO,25.075834175935285,NA,NA
65251,Callaway County,MO,32.0525783619818,NA,NA
65355,Benton County,MO,NA,18.275538894095593,NA
65360,Henry County,MO,88.67542972699697,NA,NA
65559,Phelps County,MO,NA,79.94376757263355,NA
65560,Dent County,MO,58.84732052578362,NA,NA
65686,Stone County,MO,NA,85.28584817244611,NA
65706,Webster County,MO,NA,NA,61.477572559366756
65714,Christian County,MO,49.848331648129424,NA,NA
65802,Greene County,MO,11.324570273003033,NA,NA
59601,Lewis and Clark County,MT,NA,NA,21.503957783641162
59801,Missoula County,MT,87.66430738119313,NA,NA
59901,Flathead County,MT,NA,NA,0.395778364116095
68025,Dodge County,NE,NA,NA,76.91292875989446
68046,Sarpy County,NE,NA,NA,79.02374670184696
68104,Douglas County,NE,28.00808897876643,NA,NA
68107,Douglas County,NE,NA,55.670103092783506,NA
68137,Douglas County,NE,NA,NA,60.29023746701847
68152,Douglas County,NE,NA,91.5651358950328,NA
68154,Douglas County,NE,NA,48.26616682286786,NA
68310,Gage County,NE,NA,NA,82.98153034300792
68505,Lancaster County,NE,NA,NA,81.26649076517151
68512,Lancaster County,NE,NA,94.65791940018744,NA
68601,Platte County,NE,NA,78.1630740393627,NA
68661,Colfax County,NE,NA,100,NA
68776,Dakota County,NE,NA,81.16213683223992,NA
68847,Buffalo County,NE,NA,80.50609184629803,NA
69361,Scotts Bluff County,NE,NA,64.10496719775071,NA
89101,Clark County,NV,30.33367037411527,66.54170571696345,NA
89103,Clark County,NV,NA,56.9821930646673,NA
89108,Clark County,NV,22.446916076845298,39.08153701968135,NA
89113,Clark County,NV,92.71991911021233,NA,NA
89117,Clark County,NV,36.905965621840245,34.957825679475164,NA
89121,Clark County,NV,NA,NA,34.56464379947229
89122,Clark County,NV,27.80586450960566,NA,NA
89128,Clark County,NV,80.68756319514662,NA,NA
89130,Clark County,NV,NA,NA,48.54881266490765
89144,Clark County,NV,NA,NA,90.63324538258574
89148,Clark County,NV,NA,75.72633552014996,NA
89431,Washoe County,NV,NA,NA,26.649076517150394
89434,Washoe County,NV,45.70273003033367,NA,NA
89523,Washoe County,NV,95.85439838220424,NA,NA
03045,Hillsborough County,NH,89.78766430738119,NA,65.96306068601582
03051,Hillsborough County,NH,23.761375126390295,NA,NA
03060,Hillsborough County,NH,30.535894843276033,NA,NA
03076,Hillsborough County,NH,NA,NA,66.2269129287599
03087,Rockingham County,NH,52.07280080889788,NA,NA
03246,Belknap County,NH,NA,NA,19.92084432717678
03275,Merrimack County,NH,NA,78.912839737582,NA
03582,Coos County,NH,NA,97.75070290534208,NA
03801,Rockingham County,NH,NA,42.2680412371134,NA
03825,Strafford County,NH,NA,47.32895970009372,NA
03833,Rockingham County,NH,NA,NA,32.0580474934037
07002,Hudson County,NJ,10.51567239635996,NA,NA
07003,Essex County,NJ,9.605662285136502,NA,35.224274406332455
07012,Passaic County,NJ,NA,89.87816307403936,NA
07013,Passaic County,NJ,NA,NA,52.37467018469657
07017,Essex County,NJ,1.7189079878665317,NA,NA
07018,Essex County,NJ,NA,20.618556701030926,NA
07024,Bergen County,NJ,96.15773508594539,NA,NA
07030,Hudson County,NJ,NA,NA,43.79947229551451
07036,Union County,NJ,NA,NA,33.64116094986807
07071,Bergen County,NJ,99.19110212335693,NA,NA
07090,Union County,NJ,NA,67.47891283973757,NA
07111,Essex County,NJ,0.8088978766430739,7.966260543580131,NA
07203,Union County,NJ,95.04550050556118,NA,NA
07208,Union County,NJ,NA,NA,45.25065963060686
07305,Hudson County,NJ,5.055611729019211,2.0618556701030926,NA
07306,Hudson County,NJ,NA,NA,54.485488126649074
07410,Bergen County,NJ,NA,23.992502343017808,NA
07463,Bergen County,NJ,97.67441860465115,NA,NA
07480,Passaic County,NJ,NA,92.970946579194,NA
07504,Passaic County,NJ,63.80182002022244,NA,NA
07522,Passaic County,NJ,4.752275025278059,NA,NA
07601,Bergen County,NJ,6.370070778564206,NA,NA
07631,Bergen County,NJ,NA,NA,82.84960422163589
07652,Bergen County,NJ,NA,23.055295220243675,10.29023746701847
07660,Bergen County,NJ,65.82406471183013,NA,NA
07666,Bergen County,NJ,65.4196157735086,NA,NA
07724,Monmouth County,NJ,29.322548028311424,NA,NA
07733,Monmouth County,NJ,NA,75.82005623242736,NA
07739,Monmouth County,NJ,96.96663296258848,NA,NA
07762,Monmouth County,NJ,98.685540950455,NA,NA
07840,Warren County,NJ,NA,29.615745079662602,NA
07860,Sussex County,NJ,NA,24.835988753514528,NA
07866,Morris County,NJ,67.9474216380182,NA,NA
07930,Morris County,NJ,NA,NA,94.45910290237467
07950,Morris County,NJ,NA,77.13214620431116,NA
08002,Camden County,NJ,90.59656218402426,NA,NA
08004,Camden County,NJ,NA,60.168697282099345,NA
08012,Camden County,NJ,NA,13.870665417057172,NA
08028,Gloucester County,NJ,NA,NA,67.54617414248021
08043,Camden County,NJ,NA,NA,20.316622691292878
08048,Burlington County,NJ,87.1587462082912,NA,NA
08068,Burlington County,NJ,NA,68.3223992502343,NA
08070,Salem County,NJ,NA,51.17150890346767,NA
08075,Burlington County,NJ,15.06572295247725,28.022492970946576,NA
08080,Gloucester County,NJ,NA,NA,30.87071240105541
08081,Camden County,NJ,NA,6.091846298031865,NA
08096,Gloucester County,NJ,4.3478260869565215,NA,NA
08105,Camden County,NJ,0.910010111223458,NA,NA
08108,Camden County,NJ,64.20626895854399,NA,NA
08109,Camden County,NJ,NA,37.019681349578256,68.99736147757255
08110,Camden County,NJ,NA,NA,87.99472295514512
08205,Atlantic County,NJ,NA,19.681349578256796,NA
08230,Cape May County,NJ,NA,NA,91.02902374670184
08234,Atlantic County,NJ,3.5389282103134483,NA,NA
08260,Cape May County,NJ,NA,NA,62.66490765171504
08302,Cumberland County,NJ,NA,9.465791940018745,NA
08330,Atlantic County,NJ,NA,28.58481724461106,49.6042216358839
08360,Cumberland County,NJ,NA,7.591377694470477,NA
08501,Monmouth County,NJ,NA,97.28209934395501,NA
08540,Mercer County,NJ,NA,34.4892221180881,NA
08724,Ocean County,NJ,NA,14.058106841611998,NA
08753,Ocean County,NJ,15.975733063700709,NA,NA
08755,Ocean County,NJ,NA,NA,8.443271767810026
08757,Ocean County,NJ,NA,23.80506091846298,NA
08759,Ocean County,NJ,NA,NA,0.9234828496042217
08816,Middlesex County,NJ,NA,NA,40.369393139841684
08820,Middlesex County,NJ,NA,NA,20.184696569920842
08831,Middlesex County,NJ,NA,8.059981255857544,1.1873350923482848
08854,Middlesex County,NJ,7.785642062689585,NA,NA
08865,Warren County,NJ,4.550050556117291,NA,NA
08873,Somerset County,NJ,NA,NA,19.92084432717678
87020,Cibola County,NM,79.57532861476238,NA,NA
87104,Bernalillo County,NM,85.23761375126391,NA,NA
87105,Bernalillo County,NM,NA,NA,15.567282321899736
87112,Bernalillo County,NM,NA,76.38238050609185,29.419525065963057
87122,Bernalillo County,NM,NA,NA,63.98416886543535
87124,Sandoval County,NM,NA,7.778819119025304,NA
87508,Santa Fe County,NM,NA,51.73383317713215,NA
88005,Doa Ana County,NM,NA,38.51921274601687,NA
88203,Chaves County,NM,NA,74.97656982193065,NA
88210,Eddy County,NM,NA,61.57450796626054,NA
88242,Lea County,NM,78.76643073811931,NA,NA
88260,Lea County,NM,74.31749241658241,NA,NA
10001,New York County,NY,12.740141557128412,4.5923149015932525,NA
10002,New York County,NY,NA,2.436738519212746,NA
10003,New York County,NY,NA,NA,84.5646437994723
10009,New York County,NY,9.2012133468149635,NA,NA
10014,New York County,NY,87.56319514661274,NA,63.06068601583114
10017,New York County,NY,NA,70.3842549203374,NA
10026,New York County,NY,NA,17.24461105904405,NA
10030,New York County,NY,NA,NA,55.01319261213721
10039,New York County,NY,NA,76.0074976569822,NA
10301,Richmond County,NY,NA,NA,17.282321899736147
10304,Richmond County,NY,14.560161779575328,19.212746016869726,NA
10305,Richmond County,NY,NA,NA,32.321899736147756
10309,Richmond County,NY,84.83316481294236,NA,NA
10453,Bronx County,NY,0.5055611729019212,NA,NA
10458,Bronx County,NY,4.246713852376137,NA,NA
10459,Bronx County,NY,4.651162790697675,NA,NA
10467,Bronx County,NY,4.752275025278059,NA,NA
10468,Bronx County,NY,24.3680485338726,NA,NA
10512,Putnam County,NY,79.17087967644085,NA,NA
10516,Putnam County,NY,99.89888776541962,NA,NA
10528,Westchester County,NY,93.83215369059657,NA,NA
10567,Westchester County,NY,NA,82.84910965323337,NA
10580,Westchester County,NY,96.66329625884732,NA,NA
10589,Westchester County,NY,NA,NA,80.87071240105541
10705,Westchester County,NY,NA,NA,30.474934036939317
10901,Rockland County,NY,NA,NA,42.87598944591029
10924,Orange County,NY,91.6076845298281,93.81443298969072,NA
10956,Rockland County,NY,NA,72.5398313027179,NA
11010,Nassau County,NY,NA,68.13495782567948,NA
11102,Queens County,NY,49.3427704752275,NA,NA
11204,Kings County,NY,NA,NA,36.41160949868074
11206,Kings County,NY,NA,1.218369259606373,NA
11207,Kings County,NY,NA,NA,8.575197889182059
11209,Kings County,NY,68.85743174924166,NA,NA
11210,Kings County,NY,NA,NA,32.45382585751979
11214,Kings County,NY,NA,10.684161199625116,NA
11216,Kings County,NY,NA,5.998125585754452,NA
11221,Kings County,NY,NA,2.8116213683223994,NA
11224,Kings County,NY,19.312436804853387,NA,NA
11225,Kings County,NY,24.469160768452983,NA,30.738786279683378
11230,Kings County,NY,NA,8.622305529522025,NA
11236,Kings County,NY,NA,36.17619493908153,NA
11237,Kings County,NY,NA,13.402061855670103,NA
11355,Queens County,NY,NA,15.651358950328023,NA
11362,Queens County,NY,NA,86.78537956888472,NA
11365,Queens County,NY,NA,20.524835988753516,NA
11367,Queens County,NY,NA,NA,57.25593667546174
11372,Queens County,NY,NA,NA,8.047493403693931
11373,Queens County,NY,NA,NA,21.108179419525065
11412,Queens County,NY,NA,NA,78.7598944591029
11419,Queens County,NY,NA,26.897844423617617,NA
11420,Queens County,NY,NA,NA,31.53034300791557
11434,Queens County,NY,14.762386248736098,NA,NA
11507,Nassau County,NY,NA,98.31302717900657,NA
11518,Nassau County,NY,NA,NA,92.21635883905013
11530,Nassau County,NY,NA,NA,52.770448548812666
11545,Nassau County,NY,NA,97.1883786316776,NA
11552,Nassau County,NY,97.26996966632963,NA,NA
11554,Nassau County,NY,57.43174924165824,NA,NA
11558,Nassau County,NY,NA,83.41143392689784,NA
11561,Nassau County,NY,NA,30.084348641049672,NA
11570,Nassau County,NY,NA,NA,78.3641160949868
11691,Queens County,NY,8.291203235591507,NA,56.596306068601585
11720,Suffolk County,NY,95.24772497472193,NA,NA
11726,Suffolk County,NY,77.04752275025278,NA,NA
11733,Suffolk County,NY,NA,88.84723523898782,NA
11741,Suffolk County,NY,NA,67.47891283973757,81.13456464379946
11742,Suffolk County,NY,NA,94.93908153701967,NA
11758,Nassau County,NY,NA,NA,18.601583113456467
11769,Suffolk County,NY,NA,93.43955014058108,NA
11772,Suffolk County,NY,NA,NA,41.16094986807388
11779,Suffolk County,NY,41.96157735085945,NA,NA
11801,Nassau County,NY,60.262891809909,NA,NA
11937,Suffolk County,NY,NA,NA,70.44854881266491
11942,Suffolk County,NY,100,NA,NA
11946,Suffolk County,NY,NA,94.2830365510778,NA
11953,Suffolk County,NY,85.84428715874621,NA,NA
11961,Suffolk County,NY,NA,61.761949390815374,NA
11968,Suffolk County,NY,NA,NA,83.90501319261213
11971,Suffolk County,NY,NA,NA,92.34828496042216
12018,Rensselaer County,NY,NA,NA,88.12664907651715
12095,Fulton County,NY,NA,30.55295220243674,NA
12148,Saratoga County,NY,NA,NA,90.50131926121372
12189,Albany County,NY,41.96157735085945,NA,NA
12205,Albany County,NY,NA,41.79943767572634,NA
12401,Ulster County,NY,NA,45.0796626054358,NA
12508,Dutchess County,NY,NA,78.8191190253046,NA
12528,Ulster County,NY,NA,94.09559512652295,NA
12534,Columbia County,NY,NA,17.525773195876287,NA
12550,Orange County,NY,34.27704752275025,NA,NA
12553,Orange County,NY,NA,69.82193064667291,NA
12590,Dutchess County,NY,56.01617795753286,NA,NA
12603,Dutchess County,NY,NA,53.98313027179007,NA
12804,Warren County,NY,NA,64.0112464854733,NA
12901,Clinton County,NY,2.62891809908999,NA,NA
12953,Franklin County,NY,18.099089989888775,NA,NA
12962,Clinton County,NY,65.72295247724975,NA,NA
13021,Cayuga County,NY,2.8311425682507583,1.6869728209934396,NA
13032,Madison County,NY,NA,44.14245548266167,NA
13037,Madison County,NY,63.094034378159755,NA,NA
13068,Tompkins County,NY,79.27199191102123,NA,NA
13069,Oswego County,NY,5.358948432760364,NA,47.88918205804749
13073,Tompkins County,NY,NA,69.44704779756327,NA
13084,Onondaga County,NY,NA,97.9381443298969,NA
13152,Onondaga County,NY,NA,NA,95.64643799472296
13158,Cortland County,NY,98.0788675429727,NA,NA
13208,Onondaga County,NY,12.537917087967642,NA,NA
13209,Onondaga County,NY,NA,73.10215557638237,NA
13212,Onondaga County,NY,66.6329625884732,NA,NA
13365,Herkimer County,NY,NA,NA,52.638522427440634
13440,Oneida County,NY,NA,NA,7.387862796833773
13901,Broome County,NY,NA,NA,12.137203166226913
13905,Broome County,NY,NA,NA,2.1108179419525066
14006,Erie County,NY,NA,64.10496719775071,NA
14020,Genesee County,NY,NA,NA,26.912928759894463
14047,Erie County,NY,NA,78.35051546391753,NA
14072,Erie County,NY,NA,NA,74.14248021108179
14094,Niagara County,NY,NA,1.9681349578256795,27.308707124010557
14127,Erie County,NY,NA,13.495782567947517,NA
14150,Erie County,NY,28.311425682507586,4.217432052483598,NA
14207,Erie County,NY,NA,NA,98.41688654353563
14208,Erie County,NY,30.940343781597573,NA,NA
14210,Erie County,NY,28.109201213346815,NA,NA
14218,Erie County,NY,18.70576339737108,39.268978444236176,NA
14220,Erie County,NY,NA,23.711340206185564,NA
14221,Erie County,NY,NA,NA,13.456464379947231
14222,Erie County,NY,NA,95.59512652296156,NA
14225,Erie County,NY,8.493427704752275,NA,NA
14304,Niagara County,NY,4.448938321536906,NA,NA
14423,Livingston County,NY,89.38321536905966,NA,NA
14469,Ontario County,NY,85.9453993933266,55.10777881911903,NA
14526,Monroe County,NY,15.773508594539939,NA,NA
14534,Monroe County,NY,6.572295247724974,NA,NA
14559,Monroe County,NY,NA,NA,30.606860158311346
14564,Ontario County,NY,NA,14.901593252108716,NA
14605,Monroe County,NY,9.100101112234581,NA,NA
14606,Monroe County,NY,NA,11.433926897844424,NA
14607,Monroe County,NY,NA,41.70571696344892,NA
14608,Monroe County,NY,13.043478260869565,NA,NA
14609,Monroe County,NY,NA,0.7497656982193065,NA
14611,Monroe County,NY,6.875631951466127,NA,NA
14617,Monroe County,NY,6.471183013144591,NA,NA
14619,Monroe County,NY,NA,38.89409559512652,NA
14624,Monroe County,NY,2.1233569261880687,NA,NA
14701,Chautauqua County,NY,NA,NA,12.401055408970976
14733,Chautauqua County,NY,83.72093023255815,NA,NA
14750,Chautauqua County,NY,NA,NA,90.23746701846966
14779,Cattaraugus County,NY,NA,87.16026241799437,NA
14810,Steuben County,NY,34.681496461071795,NA,NA
14812,Schuyler County,NY,NA,96.53233364573572,NA
14845,Chemung County,NY,49.24165824064712,NA,NA
14850,Tompkins County,NY,NA,NA,29.155672823218996
14871,Chemung County,NY,NA,NA,92.87598944591029
14879,Steuben County,NY,NA,98.78163074039362,NA
14895,Allegany County,NY,30.83923154701719,NA,NA
27012,Forsyth County,NC,NA,22.961574507966258,NA
27027,Rockingham County,NC,97.87664307381193,NA,NA
27028,Davie County,NC,NA,6.560449859418932,NA
27052,Stokes County,NC,NA,88.47235238987817,NA
27103,Forsyth County,NC,15.57128412537917,NA,NA
27106,Forsyth County,NC,NA,NA,0.5277044854881267
27107,Forsyth County,NC,3.842264914054601,NA,NA
27215,Alamance County,NC,10.313447927199192,NA,NA
27263,Randolph County,NC,NA,54.2642924086223,NA
27265,Guilford County,NC,19.919110212335692,NA,NA
27284,Forsyth County,NC,NA,1.499531396438613,NA
27312,Chatham County,NC,NA,16.49484536082474,14.775725593667547
27330,Lee County,NC,22.95247724974722,NA,NA
27332,Lee County,NC,72.80080889787665,NA,NA
27501,Harnett County,NC,81.69868554095045,NA,NA
27502,Wake County,NC,NA,NA,56.86015831134564
27504,Johnston County,NC,86.95652173913044,62.980318650421744,NA
27517,Orange County,NC,56.72396359959555,NA,17.41424802110818
27523,Wake County,NC,NA,NA,98.94459102902374
27526,Wake County,NC,29.120323559150656,NA,NA
27529,Wake County,NC,25.581395348837212,NA,NA
27539,Wake County,NC,61.172901921132464,65.79194001874414,NA
27542,Johnston County,NC,NA,NA,98.81266490765171
27549,Franklin County,NC,57.73508594539939,NA,NA
27574,Person County,NC,NA,52.483598875351454,NA
27577,Johnston County,NC,46.41051567239636,NA,NA
27587,Wake County,NC,22.345803842264914,NA,NA
27597,Wake County,NC,NA,58.20056232427366,NA
27608,Wake County,NC,NA,NA,98.15303430079155
27609,Wake County,NC,NA,NA,27.83641160949868
27610,Wake County,NC,NA,4.498594189315839,27.572559366754618
27612,Wake County,NC,60.56622851365015,NA,NA
27704,Durham County,NC,11.830131445904954,NA,NA
27707,Durham County,NC,NA,6.373008434864105,18.997361477572557
27804,Nash County,NC,NA,NA,75.06596306068602
27856,Nash County,NC,NA,66.2605435801312,NA
27909,Pasquotank County,NC,13.245702730030334,NA,19.261213720316622
28027,Cabarrus County,NC,NA,5.5295220243673855,NA
28031,Mecklenburg County,NC,NA,42.17432052483599,NA
28054,Gaston County,NC,19.41354903943377,81.44329896907216,NA
28079,Union County,NC,NA,NA,42.61213720316623
28081,Cabarrus County,NC,22.75025278058645,NA,NA
28083,Cabarrus County,NC,NA,19.49390815370197,NA
28092,Lincoln County,NC,23.356926188068755,NA,NA
28105,Mecklenburg County,NC,NA,NA,38.258575197889186
28110,Union County,NC,NA,14.526710402999063,NA
28138,Rowan County,NC,63.80182002022244,NA,NA
28208,Mecklenburg County,NC,37.2093023255814,NA,NA
28209,Mecklenburg County,NC,NA,71.50890346766636,NA
28217,Mecklenburg County,NC,NA,70.85285848172445,NA
28301,Cumberland County,NC,NA,NA,53.29815303430079
28303,Cumberland County,NC,57.330637007077854,NA,NA
28304,Cumberland County,NC,NA,44.51733833177132,NA
28305,Cumberland County,NC,NA,81.81818181818183,NA
28311,Cumberland County,NC,NA,40.76850984067479,NA
28312,Cumberland County,NC,66.32962588473205,NA,NA
28334,Sampson County,NC,NA,66.35426429240863,40.23746701846966
28358,Robeson County,NC,17.087967644084934,NA,NA
28376,Hoke County,NC,32.659251769464106,NA,NA
28382,Sampson County,NC,NA,84.34864104967198,NA
28383,Robeson County,NC,82.50758341759354,NA,NA
28384,Bladen County,NC,NA,NA,93.66754617414247
28387,Moore County,NC,77.5530839231547,NA,NA
28390,Harnett County,NC,NA,67.19775070290535,NA
28409,New Hanover County,NC,NA,14.807872539831301,NA
28411,New Hanover County,NC,NA,NA,48.284960422163586
28420,Brunswick County,NC,96.56218402426694,NA,NA
28445,Onslow County,NC,NA,NA,95.77836411609498
28457,Pender County,NC,75.42972699696662,NA,NA
28458,Duplin County,NC,NA,NA,99.86807387862797
28472,Columbus County,NC,71.99191102123356,NA,46.833773087071236
28480,New Hanover County,NC,99.59555106167846,NA,NA
28513,Pitt County,NC,NA,79.00656044985942,NA
28551,Lenoir County,NC,63.29625884732053,NA,NA
28557,Carteret County,NC,80.88978766430738,40.487347703842545,52.242744063324544
28560,Craven County,NC,NA,NA,50.79155672823219
28562,Craven County,NC,NA,NA,13.852242744063325
28601,Catawba County,NC,NA,8.24742268041237,NA
28602,Catawba County,NC,22.24469160768453,NA,65.69920844327177
28613,Catawba County,NC,42.77047522750253,NA,NA
28621,Surry County,NC,NA,51.17150890346767,NA
28645,Caldwell County,NC,NA,0.4686035613870665,NA
28657,Avery County,NC,NA,66.1668228678538,NA
28715,Buncombe County,NC,51.162790697674424,NA,NA
28748,Buncombe County,NC,NA,86.5979381443299,NA
28806,Buncombe County,NC,NA,41.611996251171504,NA
58075,Richland County,ND,NA,NA,91.02902374670184
58103,Cass County,ND,6.976744186046512,NA,NA
58554,Morton County,ND,NA,26.054358013120897,9.102902374670185
58703,Ward County,ND,NA,NA,79.68337730870712
43011,Knox County,OH,87.36097067745197,NA,NA
43015,Delaware County,OH,15.267947421638016,NA,NA
43017,Franklin County,OH,NA,NA,36.27968337730871
43050,Knox County,OH,NA,NA,5.936675461741425
43062,Licking County,OH,NA,28.772258669165886,NA
43068,Franklin County,OH,NA,64.29240862230553,NA
43076,Perry County,OH,82.40647118301314,NA,NA
43123,Franklin County,OH,NA,NA,10.949868073878628
43130,Fairfield County,OH,1.1122345803842264,2.2492970946579196,NA
43138,Hocking County,OH,32.153690596562186,NA,NA
43160,Fayette County,OH,NA,18.744142455482663,NA
43204,Franklin County,OH,5.6622851365015165,12.277413308341144,NA
43215,Franklin County,OH,NA,NA,80.21108179419525
43227,Franklin County,OH,NA,NA,39.1820580474934
43229,Franklin County,OH,NA,NA,20.976253298153033
43230,Franklin County,OH,NA,13.027179006560448,NA
43231,Franklin County,OH,48.02831142568251,NA,NA
43235,Franklin County,OH,NA,NA,67.94195250659631
43302,Marion County,OH,1.6177957532861478,NA,NA
43311,Logan County,OH,32.25480283114257,NA,NA
43351,Wyandot County,OH,NA,NA,50.263852242744065
43412,Lucas County,OH,NA,97.37582005623243,NA
43502,Fulton County,OH,NA,NA,73.48284960422163
43512,Defiance County,OH,3.741152679474216,NA,NA
43526,Defiance County,OH,NA,NA,66.75461741424802
43543,Williams County,OH,71.68857431749241,NA,NA
43551,Wood County,OH,13.953488372093023,5.060918462980318,NA
43560,Lucas County,OH,26.49140546006067,NA,NA
43608,Lucas County,OH,NA,42.36176194939081,NA
43612,Lucas County,OH,4.044489383215369,NA,NA
43614,Lucas County,OH,39.635995955510616,NA,18.46965699208443
43616,Lucas County,OH,NA,10.309278350515463,NA
43623,Lucas County,OH,NA,23.149015932521085,34.03693931398417
43701,Muskingum County,OH,0.40444893832153694,0.28116213683223995,NA
43713,Belmont County,OH,NA,NA,74.27440633245382
43910,Jefferson County,OH,88.57431749241658,NA,NA
43917,Jefferson County,OH,NA,98.03186504217432,NA
43920,Columbiana County,OH,NA,9.372071227741332,NA
43950,Belmont County,OH,74.11526794742164,NA,NA
44004,Ashtabula County,OH,NA,18.275538894095593,NA
44012,Lorain County,OH,NA,5.154639175257731,NA
44047,Ashtabula County,OH,43.07381193124368,NA,NA
44050,Lorain County,OH,NA,NA,53.03430079155673
44060,Lake County,OH,30.940343781597573,0.5623242736644799,NA
44062,Geauga County,OH,92.01213346814964,NA,NA
44070,Cuyahoga County,OH,NA,3.8425492033739452,NA
44074,Lorain County,OH,NA,47.047797563261476,NA
44089,Erie County,OH,NA,8.716026241799439,NA
44103,Cuyahoga County,OH,8.998988877654195,NA,NA
44110,Cuyahoga County,OH,NA,NA,43.403693931398415
44116,Cuyahoga County,OH,NA,NA,3.6939313984168867
44121,Cuyahoga County,OH,9.504550050556118,NA,NA
44122,Cuyahoga County,OH,NA,3.5613870665417062,NA
44130,Cuyahoga County,OH,NA,NA,0
44133,Cuyahoga County,OH,NA,NA,9.762532981530343
44135,Cuyahoga County,OH,NA,NA,24.934036939313984
44149,Cuyahoga County,OH,NA,NA,12.66490765171504
44201,Portage County,OH,NA,95.97000937207123,NA
44202,Portage County,OH,NA,16.96344892221181,NA
44203,Summit County,OH,NA,36.6447985004686,NA
44212,Medina County,OH,2.730030333670374,0.6560449859418931,NA
44217,Wayne County,OH,NA,99.06279287722587,NA
44221,Summit County,OH,NA,52.389878163074044,NA
44231,Portage County,OH,NA,NA,80.21108179419525
44241,Portage County,OH,33.56926188068756,18.93158388003749,NA
44256,Medina County,OH,NA,0.37488284910965325,NA
44266,Portage County,OH,NA,4.967197750702906,3.825857519788918
44270,Wayne County,OH,63.49848331648129,NA,NA
44281,Medina County,OH,22.548028311425682,NA,NA
44305,Summit County,OH,NA,NA,58.970976253298154
44311,Summit County,OH,53.1850353892821,85.47328959700093,NA
44313,Summit County,OH,31.243680485338725,NA,NA
44321,Summit County,OH,NA,43.767572633552014,NA
44410,Trumbull County,OH,72.69969666329625,NA,NA
44432,Columbiana County,OH,NA,75.35145267104029,NA
44440,Trumbull County,OH,NA,87.62886597938144,NA
44460,Columbiana County,OH,NA,6.841611996251172,NA
44483,Trumbull County,OH,16.582406471183013,11.62136832239925,NA
44512,Mahoning County,OH,38.72598584428716,NA,NA
44601,Stark County,OH,NA,7.310215557638237,NA
44614,Stark County,OH,77.35085945399393,NA,NA
44646,Stark County,OH,9.706774519716886,NA,17.941952506596305
44663,Tuscarawas County,OH,13.346814964610717,NA,NA
44666,Stark County,OH,98.78665318503539,NA,NA
44805,Ashland County,OH,NA,3.6551077788191186,NA
44813,Richland County,OH,NA,NA,80.07915567282322
44820,Crawford County,OH,22.851365015166834,NA,NA
44903,Richland County,OH,18.301314459049543,16.776007497656984,NA
44907,Richland County,OH,42.46713852376138,NA,NA
45011,Butler County,OH,NA,NA,45.64643799472295
45013,Butler County,OH,NA,NA,2.7704485488126647
45036,Warren County,OH,55.20728008088979,NA,NA
45040,Warren County,OH,NA,NA,24.80211081794195
45044,Butler County,OH,NA,11.996251171508904,NA
45066,Warren County,OH,NA,47.79756326148078,NA
45067,Butler County,OH,59.25176946410515,NA,NA
45069,Butler County,OH,NA,NA,13.720316622691293
45103,Clermont County,OH,NA,NA,55.01319261213721
45107,Clinton County,OH,NA,NA,70.71240105540898
45154,Brown County,OH,94.33771486349848,NA,NA
45157,Clermont County,OH,81.49646107178968,93.53327085285848,NA
45176,Clermont County,OH,68.65520728008089,NA,NA
45215,Hamilton County,OH,26.188068756319517,NA,70.58047493403694
45217,Hamilton County,OH,NA,81.91190253045923,NA
45231,Hamilton County,OH,NA,16.213683223992504,NA
45238,Hamilton County,OH,NA,13.964386129334583,NA
45239,Hamilton County,OH,17.391304347826086,32.708528584817245,NA
45246,Hamilton County,OH,NA,NA,67.15039577836411
45247,Hamilton County,OH,NA,NA,28.36411609498681
45251,Hamilton County,OH,NA,61.01218369259607,89.5778364116095
45255,Hamilton County,OH,NA,45.17338331771322,NA
45315,Montgomery County,OH,NA,90.81537019681349,NA
45320,Preble County,OH,42.46713852376138,35.8950328022493,NA
45342,Montgomery County,OH,11.425682507583417,NA,NA
45373,Miami County,OH,6.774519716885743,NA,NA
45403,Montgomery County,OH,NA,NA,88.91820580474933
45406,Montgomery County,OH,67.23963599595551,NA,NA
45420,Montgomery County,OH,NA,38.706654170571696,NA
45424,Montgomery County,OH,NA,NA,5.804749340369393
45429,Montgomery County,OH,NA,NA,55.67282321899736
45619,Lawrence County,OH,NA,55.48266166822869,NA
45638,Lawrence County,OH,23.660262891809907,NA,NA
45663,Scioto County,OH,NA,NA,75.59366754617413
45690,Pike County,OH,50.6572295247725,NA,NA
45750,Washington County,OH,1.2133468149646107,NA,NA
45805,Allen County,OH,NA,24.461105904404874,NA
45817,Allen County,OH,86.75429726996967,NA,NA
45840,Hancock County,OH,2.224469160768453,2.343017806935333,NA
45891,Van Wert County,OH,31.445904954499493,NA,NA
45895,Auglaize County,OH,33.16481294236603,30.834114339268982,NA
73099,Canadian County,OK,14.054600606673407,NA,NA
73109,Oklahoma County,OK,NA,68.69728209934397,NA
73115,Oklahoma County,OK,59.95955510616785,NA,NA
73120,Oklahoma County,OK,75.53083923154702,NA,NA
73162,Oklahoma County,OK,52.27502527805864,NA,NA
73701,Garfield County,OK,NA,NA,27.70448548812665
74017,Rogers County,OK,NA,49.01593252108716,NA
74019,Rogers County,OK,NA,NA,74.80211081794195
74021,Tulsa County,OK,NA,66.44798500468603,NA
74063,Tulsa County,OK,NA,37.20712277413308,NA
74074,Payne County,OK,47.52275025278059,NA,NA
74126,Tulsa County,OK,93.62992922143579,NA,NA
74129,Tulsa County,OK,57.53286147623863,NA,NA
74133,Tulsa County,OK,33.872598584428715,NA,NA
74136,Tulsa County,OK,NA,78.53795688847235,NA
74344,Delaware County,OK,NA,52.57731958762887,NA
74346,Delaware County,OK,NA,78.53795688847235,NA
74354,Ottawa County,OK,55.00505561172901,NA,NA
74401,Muskogee County,OK,NA,57.07591377694471,NA
74403,Muskogee County,OK,NA,25.960637300843487,NA
74464,Cherokee County,OK,8.695652173913043,NA,NA
74868,Seminole County,OK,NA,63.63636363636363,NA
97008,Washington County,OR,NA,84.16119962511715,NA
97013,Clackamas County,OR,NA,73.85192127460168,NA
97030,Multnomah County,OR,NA,53.23336457357076,NA
97035,Clackamas County,OR,NA,64.57357075913777,NA
97045,Clackamas County,OR,15.166835187057634,10.402999062792876,NA
97060,Multnomah County,OR,44.48938321536906,NA,NA
97103,Clatsop County,OR,NA,45.923149015932516,NA
97123,Washington County,OR,20.82912032355915,13.30834114339269,NA
97124,Washington County,OR,NA,NA,28.62796833773087
97128,Yamhill County,OR,NA,NA,25.857519788918204
97201,Multnomah County,OR,93.32659251769464,NA,NA
97209,Multnomah County,OR,NA,NA,86.2796833773087
97213,Multnomah County,OR,38.92821031344793,NA,NA
97214,Multnomah County,OR,75.22750252780587,NA,NA
97220,Multnomah County,OR,37.71486349848331,NA,NA
97233,Multnomah County,OR,16.78463094034378,NA,54.221635883905016
97303,Marion County,OR,42.9726996966633,NA,NA
97333,Benton County,OR,70.77856420626895,NA,NA
97338,Polk County,OR,NA,39.64386129334583,NA
97383,Marion County,OR,80.38422649140546,NA,NA
97391,Lincoln County,OR,99.49443882709808,NA,NA
97402,Lane County,OR,20.626895854398384,NA,NA
97415,Curry County,OR,49.03943377148635,NA,NA
97420,Coos County,OR,NA,40.20618556701031,NA
97424,Lane County,OR,NA,35.33270852858482,NA
97443,Douglas County,OR,NA,99.2502343017807,NA
97467,Douglas County,OR,NA,NA,66.49076517150397
97479,Douglas County,OR,NA,53.514526710403,48.41688654353562
97501,Jackson County,OR,NA,10.121836925960636,NA
97526,Josephine County,OR,NA,32.239925023430175,NA
97701,Deschutes County,OR,85.9453993933266,NA,NA
97801,Umatilla County,OR,NA,63.73008434864105,NA
97814,Baker County,OR,NA,43.58013120899719,NA
15022,Washington County,PA,NA,NA,88.91820580474933
15057,Washington County,PA,NA,NA,81.92612137203166
15065,Allegheny County,PA,NA,NA,44.19525065963061
15074,Beaver County,PA,66.93629929221436,NA,NA
15089,Westmoreland County,PA,NA,NA,79.15567282321899
15122,Allegheny County,PA,NA,NA,19.525065963060687
15143,Allegheny County,PA,NA,NA,43.007915567282325
15202,Allegheny County,PA,53.99393326592518,NA,NA
15210,Allegheny County,PA,NA,40.01874414245548,NA
15212,Allegheny County,PA,24.974721941354904,NA,NA
15213,Allegheny County,PA,NA,74.6954076850984,NA
15216,Allegheny County,PA,NA,NA,82.71767810026385
15219,Allegheny County,PA,34.580384226491404,NA,42.0844327176781
15235,Allegheny County,PA,19.716885743174924,NA,NA
15301,Washington County,PA,NA,NA,11.081794195250659
15320,Greene County,PA,74.72194135490395,NA,NA
15401,Fayette County,PA,NA,28.30365510777882,NA
15425,Fayette County,PA,NA,21.087160262417996,NA
15666,Westmoreland County,PA,NA,30.45923149015933,NA
15717,Indiana County,PA,NA,NA,54.089709762532976
15834,Cameron County,PA,88.97876643073812,NA,NA
15851,Jefferson County,PA,NA,NA,90.10554089709763
15905,Cambria County,PA,78.66531850353893,NA,NA
15906,Cambria County,PA,NA,69.35332708528584,NA
15931,Cambria County,PA,71.89079878665319,NA,NA
16001,Butler County,PA,19.11021233569262,NA,NA
16033,Butler County,PA,NA,NA,99.47229551451187
16066,Butler County,PA,NA,37.95688847235239,NA
16102,Lawrence County,PA,NA,79.19400187441424,NA
16412,Erie County,PA,NA,90.34676663542643,NA
16502,Erie County,PA,45.39939332659252,NA,NA
16508,Erie County,PA,NA,62.980318650421744,NA
16701,McKean County,PA,NA,59.512652296157455,NA
16743,McKean County,PA,NA,93.15838800374883,NA
16866,Centre County,PA,NA,73.38331771321462,NA
17011,Cumberland County,PA,NA,NA,14.907651715039577
17020,Perry County,PA,NA,NA,89.9736147757256
17050,Cumberland County,PA,NA,9.090909090909092,NA
17070,Cumberland County,PA,NA,NA,74.93403693931398
17078,Lebanon County,PA,NA,NA,4.089709762532982
17090,Perry County,PA,NA,91.65885660731021,NA
17112,Dauphin County,PA,NA,NA,12.269129287598943
17201,Franklin County,PA,NA,NA,17.018469656992085
17233,Fulton County,PA,82.6086956521739,NA,NA
17257,Cumberland County,PA,NA,NA,37.598944591029024
17301,Adams County,PA,98.58442871587462,NA,NA
17517,Lancaster County,PA,56.21840242669363,NA,NA
17545,Lancaster County,PA,NA,29.990627928772255,NA
17566,Lancaster County,PA,85.64206268958544,NA,NA
17603,Lancaster County,PA,NA,7.872539831302718,NA
17701,Lycoming County,PA,NA,4.404873477038426,NA
17702,Lycoming County,PA,NA,NA,69.12928759894459
17856,Union County,PA,99.79777553083923,NA,NA
17901,Schuylkill County,PA,27.30030333670374,NA,NA
18013,Northampton County,PA,NA,41.14339268978444,NA
18018,Lehigh County,PA,58.24064711830131,NA,NA
18042,Northampton County,PA,5.5611729019211324,NA,NA
18049,Lehigh County,PA,NA,39.64386129334583,NA
18067,Northampton County,PA,NA,NA,39.97361477572559
18088,Northampton County,PA,71.0819009100101,NA,NA
18102,Lehigh County,PA,NA,5.248359887535145,NA
18103,Lehigh County,PA,NA,29.42830365510778,NA
18330,Monroe County,PA,NA,NA,85.35620052770449
18411,Lackawanna County,PA,50.353892821031344,NA,NA
18436,Wayne County,PA,58.03842264914054,NA,NA
18508,Lackawanna County,PA,NA,NA,55.93667546174142
18510,Lackawanna County,PA,68.45298281092013,NA,NA
18603,Columbia County,PA,NA,15.83880037488285,NA
18640,Luzerne County,PA,NA,NA,59.49868073878628
18707,Luzerne County,PA,NA,29.896907216494846,NA
18914,Bucks County,PA,NA,86.31677600749765,NA
18954,Bucks County,PA,NA,78.72539831302718,NA
18960,Bucks County,PA,NA,NA,86.2796833773087
18966,Bucks County,PA,NA,NA,10.026385224274406
18969,Montgomery County,PA,NA,NA,75.59366754617413
18976,Bucks County,PA,NA,44.14245548266167,41.029023746701846
19006,Montgomery County,PA,50.96056622851365,NA,NA
19007,Bucks County,PA,27.098078867542974,NA,NA
19013,Delaware County,PA,2.932254802831143,NA,NA
19014,Delaware County,PA,NA,NA,47.0976253298153
19020,Bucks County,PA,NA,NA,11.609498680738787
19030,Bucks County,PA,NA,73.66447985004686,NA
19047,Bucks County,PA,25.176946410515672,NA,NA
19053,Bucks County,PA,NA,71.1340206185567,NA
19063,Delaware County,PA,NA,43.11152764761012,NA
19067,Bucks County,PA,NA,73.2895970009372,10.422163588390502
19078,Delaware County,PA,68.25075834175935,NA,NA
19082,Delaware County,PA,11.122345803842265,NA,NA
19111,Philadelphia County,PA,39.43377148634985,NA,NA
19116,Philadelphia County,PA,NA,13.214620431115275,NA
19120,Philadelphia County,PA,2.4266936299292214,4.779756326148079,NA
19131,Philadelphia County,PA,6.066734074823053,NA,NA
19132,Philadelphia County,PA,NA,13.776944704779757,NA
19133,Philadelphia County,PA,NA,32.52108716026242,NA
19136,Philadelphia County,PA,11.627906976744185,NA,NA
19138,Philadelphia County,PA,NA,20.056232427366446,NA
19139,Philadelphia County,PA,21.23356926188069,NA,NA
19143,Philadelphia County,PA,7.583417593528817,1.1246485473289598,NA
19145,Philadelphia County,PA,NA,43.01780693533271,35.48812664907652
19148,Philadelphia County,PA,NA,12.652296157450795,14.379947229551451
19149,Philadelphia County,PA,7.17896865520728,NA,NA
19151,Philadelphia County,PA,NA,15.745079662605436,NA
19320,Chester County,PA,NA,NA,18.997361477572557
19343,Chester County,PA,NA,NA,86.54353562005277
19348,Chester County,PA,NA,NA,31.00263852242744
19380,Chester County,PA,NA,NA,2.5065963060686016
19382,Chester County,PA,15.470171890798786,7.403936269915651,NA
19401,Montgomery County,PA,8.59453993933266,NA,NA
19428,Montgomery County,PA,48.53387259858442,NA,NA
19438,Montgomery County,PA,NA,51.921274601686974,33.50923482849604
19464,Montgomery County,PA,25.985844287158745,NA,NA
19465,Chester County,PA,90.09100101112234,NA,NA
19473,Montgomery County,PA,NA,76.56982193064667,NA
19512,Berks County,PA,NA,NA,55.8047493403694
19607,Berks County,PA,NA,17.525773195876287,NA
02809,Bristol County,RI,NA,31.302717900656045,NA
02822,Washington County,RI,92.11324570273003,NA,NA
02860,Providence County,RI,NA,11.246485473289598,NA
02864,Providence County,RI,28.412537917087967,NA,NA
02871,Newport County,RI,NA,37.488284910965326,NA
02886,Kent County,RI,34.78260869565217,NA,59.76253298153035
02888,Kent County,RI,52.17391304347826,NA,NA
02891,Washington County,RI,NA,24.179943767572635,NA
02904,Providence County,RI,35.79373104145602,NA,NA
02906,Providence County,RI,NA,42.83036551077789,NA
02908,Providence County,RI,NA,35.988753514526714,NA
02909,Providence County,RI,19.211324570273003,NA,NA
02911,Providence County,RI,NA,NA,67.01846965699208
02916,Providence County,RI,95.04550050556118,NA,NA
29003,Bamberg County,SC,NA,90.81537019681349,NA
29045,Kershaw County,SC,NA,51.64011246485474,NA
29078,Kershaw County,SC,81.29423660262893,NA,NA
29223,Richland County,SC,NA,64.38612933458295,NA
29316,Spartanburg County,SC,NA,30.36551077788191,NA
29349,Spartanburg County,SC,27.30030333670374,NA,NA
29406,Charleston County,SC,26.289180990899897,NA,NA
29412,Charleston County,SC,35.8948432760364,NA,NA
29418,Charleston County,SC,NA,58.76288659793815,NA
29461,Berkeley County,SC,NA,NA,45.11873350923483
29510,Georgetown County,SC,67.74519716885743,NA,NA
29526,Horry County,SC,NA,10.028116213683223,NA
29532,Darlington County,SC,63.70070778564207,51.546391752577314,NA
29536,Dillon County,SC,57.0273003033367,NA,94.06332453825857
29560,Florence County,SC,NA,NA,69.26121372031663
29566,Horry County,SC,NA,NA,57.38786279683378
29568,Horry County,SC,NA,64.47985004686035,NA
29575,Horry County,SC,91.40546006066734,NA,NA
29576,Horry County,SC,NA,NA,15.303430079155673
29579,Horry County,SC,56.4206268958544,NA,NA
29585,Georgetown County,SC,NA,NA,37.86279683377309
29588,Horry County,SC,38.82709807886754,NA,NA
29607,Greenville County,SC,NA,NA,62.66490765171504
29650,Greenville County,SC,NA,42.549203373945645,49.6042216358839
29671,Pickens County,SC,NA,NA,37.33509234828496
29678,Oconee County,SC,NA,97.09465791940019,NA
29696,Oconee County,SC,NA,89.78444236176195,NA
29708,York County,SC,NA,65.13589503280225,NA
29710,York County,SC,59.04954499494439,NA,NA
29936,Jasper County,SC,NA,86.22305529522023,NA
57103,Minnehaha County,SD,24.26693629929221,NA,NA
57107,Minnehaha County,SD,NA,98.50046860356139,NA
57108,Lincoln County,SD,NA,55.763823805060916,5.672823218997362
57201,Codington County,SD,NA,NA,46.17414248021108
57350,Beadle County,SD,57.83619817997978,NA,NA
57401,Brown County,SD,NA,7.029053420805999,NA
57555,Todd County,SD,96.8655207280081,NA,NA
57701,Pennington County,SD,53.38725985844287,NA,NA
37013,Davidson County,TN,10.616784630940344,14.995313964386128,NA
37027,Williamson County,TN,NA,20.4311152764761,NA
37040,Montgomery County,TN,NA,30.927835051546392,NA
37062,Williamson County,TN,83.21536905965623,NA,NA
37066,Sumner County,TN,NA,NA,26.385224274406333
37067,Williamson County,TN,NA,72.72727272727273,NA
37083,Macon County,TN,NA,32.239925023430175,NA
37087,Wilson County,TN,NA,22.492970946579195,68.07387862796834
37110,Warren County,TN,17.18907987866532,23.2427366447985,NA
37115,Davidson County,TN,11.93124368048534,NA,NA
37122,Wilson County,TN,NA,22.86785379568885,NA
37127,Rutherford County,TN,NA,NA,88.25857519788917
37128,Rutherford County,TN,NA,49.95313964386129,NA
37138,Davidson County,TN,NA,54.73289597000937,NA
37160,Bedford County,TN,NA,32.052483598875355,NA
37167,Rutherford County,TN,29.221435793731043,NA,NA
37188,Robertson County,TN,NA,78.0693533270853,NA
37189,Davidson County,TN,99.3933265925177,NA,NA
37207,Davidson County,TN,12.335692618806876,NA,NA
37209,Davidson County,TN,34.37815975733064,NA,NA
37210,Davidson County,TN,NA,NA,77.44063324538259
37211,Davidson County,TN,19.716885743174924,NA,NA
37214,Davidson County,TN,61.67846309403438,NA,NA
37216,Davidson County,TN,49.646107178968656,NA,NA
37321,Rhea County,TN,NA,NA,68.86543535620054
37331,McMinn County,TN,NA,NA,67.28232189973615
37404,Hamilton County,TN,66.0262891809909,NA,NA
37421,Hamilton County,TN,NA,NA,27.176781002638524
37601,Washington County,TN,NA,11.34020618556701,NA
37659,Washington County,TN,NA,27.366447985004687,NA
37664,Sullivan County,TN,21.53690596562184,NA,NA
37725,Jefferson County,TN,NA,58.38800374882849,NA
37757,Campbell County,TN,NA,77.97563261480788,NA
37763,Roane County,TN,69.66632962588474,NA,NA
37803,Blount County,TN,35.18705763397371,NA,NA
37804,Blount County,TN,NA,16.307403936269914,NA
37813,Hamblen County,TN,78.56420626895854,NA,NA
37814,Hamblen County,TN,NA,NA,70.97625329815304
37830,Anderson County,TN,NA,61.293345829428304,NA
37840,Roane County,TN,NA,NA,93.00791556728231
37857,Hawkins County,TN,NA,38.612933458294286,NA
37869,Hancock County,TN,91.20323559150657,NA,NA
37876,Sevier County,TN,NA,19.868791002811623,NA
37912,Knox County,TN,NA,55.10777881911903,NA
37919,Knox County,TN,NA,NA,40.369393139841684
38001,Crockett County,TN,NA,95.0328022492971,NA
38012,Haywood County,TN,NA,68.9784442361762,NA
38024,Dyer County,TN,NA,34.02061855670103,NA
38049,Tipton County,TN,NA,99.71883786316776,NA
38107,Shelby County,TN,NA,61.01218369259607,NA
38108,Shelby County,TN,NA,56.51358950328023,NA
38115,Shelby County,TN,NA,NA,74.53825857519789
38117,Shelby County,TN,NA,NA,54.35356200527705
38135,Shelby County,TN,NA,NA,75.32981530343008
38221,Benton County,TN,96.46107178968654,NA,NA
38301,Madison County,TN,10.010111223458038,NA,NA
38305,Madison County,TN,NA,NA,15.03957783641161
38363,Decatur County,TN,92.41658240647118,NA,NA
38478,Giles County,TN,58.341759352881695,61.761949390815374,NA
38544,Putnam County,TN,68.35187057633973,NA,NA
75006,Dallas County,TX,NA,26.14807872539831,NA
75019,Dallas County,TX,56.926188068756325,NA,NA
75024,Collin County,TX,63.094034378159755,NA,NA
75032,Rockwall County,TX,62.89180990899899,NA,NA
75034,Denton County,TX,NA,NA,39.577836411609496
75043,Dallas County,TX,54.29726996966633,NA,NA
75050,Dallas County,TX,75.6319514661274,NA,NA
75056,Denton County,TX,NA,70.47797563261481,NA
75057,Denton County,TX,84.12537917087968,NA,NA
75061,Dallas County,TX,NA,NA,46.701846965699204
75068,Denton County,TX,33.9737108190091,55.295220243673846,NA
75069,Collin County,TX,NA,31.6776007497657,25.32981530343008
75075,Collin County,TX,NA,32.146204311152765,NA
75080,Dallas County,TX,NA,41.98687910028116,NA
75082,Collin County,TX,76.84529828109201,NA,NA
75103,Van Zandt County,TX,NA,49.203373945641985,NA
75142,Kaufman County,TX,NA,NA,63.58839050131926
75147,Kaufman County,TX,NA,NA,91.55672823218998
75150,Dallas County,TX,24.064711830131447,NA,NA
75154,Ellis County,TX,NA,77.31958762886599,NA
75156,Henderson County,TX,NA,NA,63.58839050131926
75169,Van Zandt County,TX,73.91304347826086,NA,NA
75182,Dallas County,TX,NA,99.43767572633551,NA
75189,Rockwall County,TX,NA,NA,81.92612137203166
75203,Dallas County,TX,NA,NA,84.96042216358839
75216,Dallas County,TX,30.1314459049545,NA,NA
75227,Dallas County,TX,19.009100101112235,NA,NA
75230,Dallas County,TX,NA,46.485473289597,NA
75235,Dallas County,TX,NA,69.72820993439551,NA
75238,Dallas County,TX,NA,NA,48.812664907651715
75248,Dallas County,TX,NA,25.49203373945642,NA
75287,Denton County,TX,74.31749241658241,NA,NA
75407,Collin County,TX,65.31850353892821,71.50890346766636,NA
75418,Fannin County,TX,NA,92.2211808809747,NA
75460,Lamar County,TX,59.85844287158746,NA,NA
75491,Grayson County,TX,NA,95.50140581068416,NA
75494,Wood County,TX,NA,NA,58.17941952506597
75501,Bowie County,TX,NA,NA,48.02110817941953
75604,Gregg County,TX,NA,88.09746954076851,NA
75752,Henderson County,TX,97.06774519716885,NA,NA
75757,Smith County,TX,77.65419615773509,NA,NA
75766,Cherokee County,TX,37.31041456016178,NA,NA
75771,Smith County,TX,NA,27.928772258669166,NA
75862,Trinity County,TX,NA,NA,87.20316622691293
75904,Angelina County,TX,70.4752275025278,NA,NA
75961,Nacogdoches County,TX,70.67745197168858,NA,NA
75965,Nacogdoches County,TX,89.88877654196158,NA,86.6754617414248
76001,Tarrant County,TX,NA,79.94376757263355,NA
76011,Tarrant County,TX,NA,58.95032802249297,NA
76020,Tarrant County,TX,NA,NA,56.99208443271768
76023,Wise County,TX,NA,NA,97.62532981530343
76028,Johnson County,TX,11.526794742163801,22.58669165885661,NA
76033,Johnson County,TX,NA,37.11340206185567,NA
76034,Tarrant County,TX,NA,62.23055295220243,NA
76039,Tarrant County,TX,NA,61.480787253983124,NA
76048,Hood County,TX,NA,NA,43.13984168865435
76049,Hood County,TX,NA,17.432052483598877,NA
76053,Tarrant County,TX,42.871587462082914,NA,NA
76063,Tarrant County,TX,14.863498483316482,NA,NA
76065,Ellis County,TX,NA,33.833177132146204,NA
76110,Tarrant County,TX,NA,49.109653233364575,NA
76115,Tarrant County,TX,52.47724974721941,NA,NA
76116,Tarrant County,TX,24.469160768452983,NA,NA
76133,Tarrant County,TX,NA,19.306466729147143,NA
76134,Tarrant County,TX,NA,NA,64.64379947229551
76135,Tarrant County,TX,59.35288169868554,NA,NA
76179,Tarrant County,TX,NA,31.958762886597935,NA
76205,Denton County,TX,NA,80.97469540768509,NA
76207,Denton County,TX,NA,84.81724461105904,NA
76210,Denton County,TX,NA,57.825679475164016,NA
76227,Denton County,TX,NA,NA,71.37203166226914
76230,Montague County,TX,82.0020222446916,NA,NA
76240,Cooke County,TX,41.15267947421638,NA,NA
76244,Tarrant County,TX,27.704752275025278,NA,NA
76367,Wichita County,TX,NA,96.43861293345829,NA
76384,Wilbarger County,TX,77.85642062689585,NA,NA
76522,Coryell County,TX,NA,NA,11.081794195250659
76539,Lampasas County,TX,NA,87.91002811621368,NA
76548,Bell County,TX,46.71385237613751,NA,NA
76567,Milam County,TX,NA,57.16963448922212,NA
76574,Williamson County,TX,NA,19.306466729147143,NA
76645,Hill County,TX,79.77755308392315,NA,NA
76708,McLennan County,TX,NA,52.8584817244611,NA
76712,McLennan County,TX,NA,38.42549203373945,NA
76801,Brown County,TX,NA,45.7357075913777,NA
76901,Tom Green County,TX,51.56723963599595,NA,NA
77003,Harris County,TX,84.0242669362993,NA,NA
77036,Harris County,TX,NA,20.99343955014058,NA
77038,Harris County,TX,81.09201213346815,NA,NA
77044,Harris County,TX,38.624873609706775,NA,NA
77045,Harris County,TX,59.35288169868554,NA,84.43271767810026
77050,Harris County,TX,NA,99.53139643861293,NA
77051,Harris County,TX,82.20424671385238,NA,NA
77062,Harris County,TX,85.43983822042466,NA,NA
77064,Harris County,TX,38.22042467138524,NA,NA
77069,Harris County,TX,NA,44.89222118088097,NA
77083,Harris County,TX,NA,NA,72.42744063324538
77093,Harris County,TX,NA,NA,55.01319261213721
77302,Montgomery County,TX,NA,80.22492970946578,NA
77356,Montgomery County,TX,70.07077856420626,NA,NA
77357,Montgomery County,TX,NA,77.03842549203374,NA
77373,Harris County,TX,NA,25.117150890346768,NA
77382,Montgomery County,TX,66.73407482305359,NA,NA
77384,Montgomery County,TX,NA,90.72164948453609,NA
77433,Harris County,TX,12.43680485338726,NA,NA
77437,Wharton County,TX,NA,63.448922211808814,NA
77449,Harris County,TX,NA,NA,53.693931398416886
77450,Harris County,TX,NA,NA,41.55672823218997
77469,Fort Bend County,TX,NA,NA,43.931398416886545
77477,Fort Bend County,TX,82.91203235591507,41.23711340206185,NA
77479,Fort Bend County,TX,NA,16.869728209934394,NA
77480,Brazoria County,TX,89.48432760364004,NA,NA
77498,Fort Bend County,TX,NA,52.29615745079662,NA
77506,Harris County,TX,NA,74.03936269915651,NA
77511,Brazoria County,TX,NA,NA,16.358839050131927
77515,Brazoria County,TX,51.061678463094026,NA,NA
77523,Chambers County,TX,84.32760364004045,NA,NA
77530,Harris County,TX,58.442871587462086,NA,NA
77535,Liberty County,TX,41.96157735085945,45.64198687910028,NA
77541,Brazoria County,TX,49.54499494438827,NA,NA
77546,Galveston County,TX,77.14863498483317,NA,NA
77568,Galveston County,TX,36.5015166835187,NA,NA
77573,Galveston County,TX,NA,NA,59.10290237467019
77586,Harris County,TX,NA,66.72914714151827,NA
77590,Galveston County,TX,13.852376137512639,12.74601686972821,NA
77630,Orange County,TX,NA,NA,78.49604221635884
77662,Orange County,TX,46.51162790697674,NA,NA
77803,Brazos County,TX,28.61476238624874,43.39268978444236,NA
77833,Washington County,TX,NA,NA,14.643799472295516
77845,Brazos County,TX,10.212335692618806,NA,NA
77864,Madison County,TX,NA,NA,78.10026385224275
77868,Grimes County,TX,71.28412537917089,41.04967197750703,NA
77879,Burleson County,TX,95.55106167846309,72.35238987816307,NA
77901,Victoria County,TX,26.39029322548028,NA,NA
77905,Victoria County,TX,64.61071789686552,NA,NA
77979,Calhoun County,TX,74.01415571284126,NA,NA
78041,Webb County,TX,39.23154701718908,19.962511715089036,NA
78064,Atascosa County,TX,78.8675429726997,NA,NA
78070,Comal County,TX,NA,85.09840674789129,NA
78119,Karnes County,TX,95.34883720930233,NA,NA
78130,Comal County,TX,23.559150657229523,NA,NA
78154,Guadalupe County,TX,75.93528816986856,NA,NA
78204,Bexar County,TX,86.65318503538928,NA,NA
78224,Bexar County,TX,61.880687563195146,82.28678537956888,NA
78225,Bexar County,TX,89.68655207280081,NA,NA
78237,Bexar County,TX,31.850353892821033,21.180880974695405,NA
78240,Bexar County,TX,NA,60.07497656982193,NA
78258,Bexar County,TX,NA,NA,62.401055408970976
78261,Bexar County,TX,NA,81.34957825679476,NA
78382,Aransas County,TX,87.1587462082912,NA,NA
78405,Nueces County,TX,NA,NA,91.95250659630607
78415,Nueces County,TX,NA,NA,60.02638522427441
78418,Nueces County,TX,NA,NA,71.50395778364116
78516,Hidalgo County,TX,63.397371081900914,NA,NA
78520,Cameron County,TX,58.03842264914054,NA,NA
78526,Cameron County,TX,72.19413549039434,NA,NA
78537,Hidalgo County,TX,NA,37.582005623242736,NA
78559,Cameron County,TX,91.91102123356926,NA,NA
78574,Hidalgo County,TX,NA,87.44142455482663,NA
78577,Hidalgo County,TX,NA,21.368322399250232,NA
78584,Starr County,TX,70.17189079878665,NA,NA
78611,Burnet County,TX,NA,NA,15.8311345646438
78613,Williamson County,TX,NA,NA,4.881266490765172
78634,Williamson County,TX,62.08291203235592,NA,NA
78645,Travis County,TX,88.16986855409505,NA,NA
78660,Travis County,TX,29.01921132457027,31.58388003748828,NA
78665,Williamson County,TX,NA,27.17900656044986,NA
78730,Travis County,TX,94.03437815975732,NA,NA
78745,Travis County,TX,NA,NA,59.23482849604221
78750,Travis County,TX,NA,79.38144329896907,NA
78753,Travis County,TX,NA,NA,87.0712401055409
78758,Travis County,TX,NA,83.03655107778819,NA
78934,Colorado County,TX,NA,67.76007497656981,NA
79109,Randall County,TX,NA,NA,51.58311345646438
79510,Callahan County,TX,NA,89.12839737582006,NA
79765,Ector County,TX,NA,94.3767572633552,NA
79772,Reeves County,TX,94.23660262891809,NA,NA
79907,El Paso County,TX,39.737108190091,NA,NA
79912,El Paso County,TX,NA,NA,22.95514511873351
79924,El Paso County,TX,45.29828109201213,NA,NA
79928,El Paso County,TX,NA,65.04217432052484,NA
79932,El Paso County,TX,NA,NA,73.35092348284961
79936,El Paso County,TX,12.942366026289182,NA,NA
79938,El Paso County,TX,NA,NA,70.71240105540898
84003,Utah County,UT,NA,NA,66.75461741424802
84010,Davis County,UT,NA,59.137769447047795,23.7467018469657
84043,Utah County,UT,46.71385237613751,NA,NA
84057,Utah County,UT,NA,79.66260543580131,NA
84067,Weber County,UT,NA,59.606373008434865,NA
84070,Salt Lake County,UT,NA,88.65979381443299,NA
84074,Tooele County,UT,3.640040444893832,NA,NA
84093,Salt Lake County,UT,NA,49.2970946579194,NA
84094,Salt Lake County,UT,NA,47.32895970009372,NA
84096,Salt Lake County,UT,78.159757330637,NA,NA
84106,Salt Lake County,UT,37.51263902932255,NA,25.593667546174142
84116,Salt Lake County,UT,30.63700707785642,NA,NA
84118,Salt Lake County,UT,NA,83.59887535145268,NA
84121,Salt Lake County,UT,NA,15.089034676663543,NA
84401,Weber County,UT,44.99494438827098,NA,NA
84601,Utah County,UT,NA,88.0037488284911,NA
84663,Utah County,UT,75.83417593528817,NA,NA
84770,Washington County,UT,NA,26.42924086223055,NA
84790,Washington County,UT,NA,12.558575445173384,NA
05091,Windsor County,VT,NA,NA,81.53034300791556
05482,Chittenden County,VT,97.4721941354904,86.78537956888472,NA
20109,Prince William County,VA,34.98483316481295,NA,NA
20111,Prince William County,VA,55.409504550050556,NA,NA
20112,Prince William County,VA,NA,79.56888472352391,NA
20147,Loudoun County,VA,NA,NA,12.928759894459102
20165,Loudoun County,VA,72.09302325581395,NA,NA
22043,Fairfax County,VA,NA,NA,88.78627968337732
22102,Fairfax County,VA,NA,NA,81.79419525065963
22152,Fairfax County,VA,NA,70.10309278350515,NA
22153,Fairfax County,VA,NA,85.8481724461106,NA
22191,Prince William County,VA,NA,29.24086223055295,NA
22192,Prince William County,VA,NA,39.55014058106842,NA
22207,Arlington County,VA,NA,NA,46.437994722955146
22305,Alexandria city,VA,76.64307381193125,NA,NA
22401,Fredericksburg city,VA,50.758341759352874,NA,NA
22405,Stafford County,VA,NA,NA,57.38786279683378
22407,Spotsylvania County,VA,85.33872598584429,NA,NA
22473,Northumberland County,VA,NA,NA,94.85488126649076
22630,Warren County,VA,26.895854398382202,NA,NA
22657,Shenandoah County,VA,NA,74.78912839737582,NA
22801,Harrisonburg city,VA,NA,34.30178069353327,23.08707124010554
22812,Rockingham County,VA,NA,NA,62.13720316622692
23002,Amelia County,VA,NA,NA,96.83377308707124
23005,Hanover County,VA,NA,NA,77.70448548812665
23060,Henrico County,VA,NA,NA,45.77836411609499
23072,Gloucester County,VA,77.24974721941355,NA,NA
23111,Hanover County,VA,NA,14.339268978444236,NA
23113,Chesterfield County,VA,NA,83.7863167760075,NA
23116,Hanover County,VA,67.44186046511628,NA,NA
23139,Powhatan County,VA,NA,46.76663542642924,NA
23223,Henrico County,VA,NA,NA,31.266490765171508
23225,Richmond city,VA,NA,NA,31.266490765171508
23229,Henrico County,VA,NA,NA,21.899736147757256
23231,Henrico County,VA,NA,15.370196813495781,NA
23236,Chesterfield County,VA,NA,NA,58.839050131926115
23322,Chesapeake city,VA,NA,NA,52.5065963060686
23434,Suffolk city,VA,NA,NA,12.796833773087071
23435,Suffolk city,VA,78.96865520728008,NA,NA
23454,Virginia Beach city,VA,NA,11.059044048734771,NA
23462,Virginia Beach city,VA,NA,9.278350515463918,NA
23464,Virginia Beach city,VA,NA,NA,1.4511873350923483
23509,Norfolk city,VA,43.377148634984835,NA,NA
23513,Norfolk city,VA,18.402426693629927,NA,NA
23662,Poquoson city,VA,NA,80.41237113402062,NA
23666,Hampton city,VA,11.223458038422649,40.299906279287725,6.33245382585752
23875,Prince George County,VA,NA,76.8509840674789,NA
23901,Prince Edward County,VA,62.38624873609707,NA,NA
24018,Roanoke County,VA,NA,NA,7.519788918205805
24019,Roanoke County,VA,NA,25.585754451733834,NA
24055,Henry County,VA,87.46208291203236,71.41518275538894,NA
24134,Giles County,VA,NA,91.75257731958763,NA
24141,Radford city,VA,NA,NA,59.23482849604221
24153,Salem city,VA,NA,16.119962511715087,NA
24251,Scott County,VA,NA,84.72352389878162,NA
24401,Staunton city,VA,NA,NA,4.617414248021108
24416,Buena Vista city,VA,69.36299292214359,NA,NA
24501,Lynchburg city,VA,30.738119312436808,NA,NA
24502,Lynchburg city,VA,44.79271991911021,NA,NA
24541,Danville city,VA,NA,30.178069353327086,NA
24572,Amherst County,VA,64.40849342770476,84.25492033739457,NA
24588,Campbell County,VA,NA,NA,84.03693931398418
24592,Halifax County,VA,31.344792719919113,NA,30.343007915567284
24609,Tazewell County,VA,92.61880687563195,NA,NA
98001,King County,WA,NA,75.91377694470478,NA
98003,King County,WA,NA,NA,26.912928759894463
98023,King County,WA,NA,NA,25.46174142480211
98034,King County,WA,NA,NA,32.98153034300791
98037,Snohomish County,WA,64.40849342770476,NA,NA
98052,King County,WA,NA,77.41330834114339,NA
98053,King County,WA,NA,37.30084348641049,NA
98070,King County,WA,NA,74.13308341143393,NA
98087,Snohomish County,WA,48.837209302325576,NA,NA
98092,King County,WA,NA,52.57731958762887,NA
98105,King County,WA,82.6086956521739,NA,NA
98108,King County,WA,NA,NA,84.82849604221636
98117,King County,WA,NA,53.79568884723523,NA
98125,King County,WA,73.81193124368049,NA,NA
98133,King County,WA,NA,56.04498594189315,NA
98146,King County,WA,NA,NA,67.81002638522428
98155,King County,WA,NA,39.456419868791,NA
98168,King County,WA,NA,NA,46.04221635883905
98188,King County,WA,NA,NA,61.87335092348285
98201,Snohomish County,WA,NA,91.28397375820056,NA
98208,Snohomish County,WA,NA,24.742268041237114,NA
98223,Snohomish County,WA,26.08695652173913,NA,NA
98225,Whatcom County,WA,NA,43.11152764761012,NA
98252,Snohomish County,WA,83.21536905965623,NA,NA
98264,Whatcom County,WA,91.20323559150657,NA,NA
98270,Snohomish County,WA,NA,NA,85.75197889182058
98273,Skagit County,WA,NA,NA,6.992084432717678
98275,Snohomish County,WA,NA,NA,92.74406332453826
98290,Snohomish County,WA,44.18604651162791,NA,NA
98296,Snohomish County,WA,47.82608695652174,NA,NA
98311,Kitsap County,WA,NA,50.89034676663543,NA
98362,Clallam County,WA,NA,6.091846298031865,NA
98365,Jefferson County,WA,NA,96.90721649484536,NA
98366,Kitsap County,WA,25.480283114256824,NA,NA
98370,Kitsap County,WA,NA,NA,55.4089709762533
98371,Pierce County,WA,68.95854398382204,NA,NA
98388,Pierce County,WA,NA,94.84536082474226,NA
98404,Pierce County,WA,NA,41.424554826616685,NA
98498,Pierce County,WA,NA,84.81724461105904,NA
98503,Thurston County,WA,71.58746208291204,NA,NA
98506,Thurston County,WA,NA,76.19493908153702,NA
98513,Thurston County,WA,NA,63.54264292408622,NA
98531,Lewis County,WA,NA,48.078725398313026,NA
98584,Mason County,WA,NA,85.75445173383318,NA
98620,Klickitat County,WA,NA,NA,66.35883905013192
98629,Clark County,WA,NA,96.53233364573572,NA
98664,Clark County,WA,NA,70.00937207122774,NA
98686,Clark County,WA,90.49544994944388,NA,NA
98901,Yakima County,WA,NA,91.4714151827554,NA
98902,Yakima County,WA,29.828109201213348,NA,13.984168865435356
99004,Spokane County,WA,NA,NA,85.4881266490765
99021,Spokane County,WA,NA,94.65791940018744,NA
99037,Spokane County,WA,94.74216380182003,NA,NA
99206,Spokane County,WA,NA,61.387066541705714,NA
99224,Spokane County,WA,NA,76.56982193064667,NA
99301,Franklin County,WA,10.111223458038422,NA,NA
99336,Benton County,WA,NA,1.5932521087160263,2.9023746701846966
99362,Walla Walla County,WA,28.51365015166835,NA,NA
20001,District of Columbia,DC,21.435793731041457,NA,NA
20010,District of Columbia,DC,NA,47.61012183692596,NA
20019,District of Columbia,DC,3.4378159757330633,NA,NA
20032,District of Columbia,DC,5.25783619817998,NA,NA
24740,Mercer County,WV,65.92517694641052,NA,NA
25271,Jackson County,WV,NA,NA,62.00527704485488
25302,Kanawha County,WV,NA,57.263355201499536,NA
25313,Kanawha County,WV,51.162790697674424,NA,NA
25411,Morgan County,WV,77.95753286147624,NA,NA
25414,Jefferson County,WV,NA,75.53889409559513,60.68601583113457
25801,Raleigh County,WV,64.1051567239636,38.33177132146204,NA
25813,Raleigh County,WV,NA,94.3767572633552,NA
25901,Fayette County,WV,48.7360970677452,NA,NA
26003,Ohio County,WV,5.460060667340748,NA,NA
26037,Brooke County,WV,NA,67.10402999062794,NA
26041,Marshall County,WV,48.33164812942366,18.556701030927837,NA
26104,Wood County,WV,NA,20.149953139643863,NA
26150,Wood County,WV,NA,86.035613870665415,NA
26201,Upshur County,WV,23.154701718907987,NA,15.435356200527705
26241,Randolph County,WV,NA,21.836925960637302,NA
26301,Harrison County,WV,31.749241658240646,NA,NA
26330,Harrison County,WV,NA,27.741330834114343,NA
26354,Taylor County,WV,51.870576339737106,NA,NA
26505,Monongalia County,WV,9.80788675429727,NA,NA
26525,Preston County,WV,90.79878665318503,NA,NA
26601,Braxton County,WV,NA,NA,84.03693931398418
26753,Mineral County,WV,NA,88.7535145267104,NA
53045,Waukesha County,WI,84.73205257836199,NA,NA
53051,Waukesha County,WI,NA,22.211808809746955,NA
53072,Waukesha County,WI,NA,77.22586691658857,42.34828496042216
53081,Sheboygan County,WI,16.98685540950455,NA,23.350923482849602
53083,Sheboygan County,WI,NA,87.34770384254921,NA
53090,Washington County,WI,NA,NA,61.08179419525066
53095,Washington County,WI,NA,16.40112464854733,NA
53108,Racine County,WI,NA,97.65698219306466,NA
53122,Waukesha County,WI,NA,NA,77.17678100263852
53144,Kenosha County,WI,17.593528816986854,NA,NA
53147,Walworth County,WI,NA,NA,51.84696569920845
53151,Waukesha County,WI,41.45601617795754,NA,NA
53185,Racine County,WI,60.262891809909,NA,NA
53204,Milwaukee County,WI,NA,34.67666354264292,NA
53211,Milwaukee County,WI,NA,20.712277413308342,8.70712401055409
53213,Milwaukee County,WI,NA,NA,47.361477572559366
53216,Milwaukee County,WI,29.42366026289181,NA,NA
53218,Milwaukee County,WI,NA,8.153701968134957,39.050131926121374
53222,Milwaukee County,WI,NA,35.14526710402999,57.12401055408971
53226,Milwaukee County,WI,NA,71.04029990627929,NA
53235,Milwaukee County,WI,NA,NA,75.59366754617413
53402,Racine County,WI,47.62386248736097,2.1555763823805063,NA
53527,Dane County,WI,NA,92.3149015932521,NA
53538,Jefferson County,WI,52.47724974721941,34.864104967197754,NA
53545,Rock County,WI,NA,54.9203373945642,NA
53546,Rock County,WI,17.89686552072801,3.0927835051546393,NA
53549,Jefferson County,WI,75.73306370070779,NA,NA
53589,Dane County,WI,NA,73.00843486410497,69.52506596306068
53704,Dane County,WI,39.93933265925177,NA,NA
53705,Dane County,WI,NA,NA,12.532981530343006
53711,Dane County,WI,35.591506572295245,NA,13.324538258575197
53717,Dane County,WI,NA,59.137769447047795,NA
53925,Columbia County,WI,NA,98.5941893158388,NA
53948,Juneau County,WI,84.5298281092012,NA,NA
53959,Sauk County,WI,NA,77.88191190253045,NA
54011,Pierce County,WI,NA,NA,90.76517150395779
54025,St. Croix County,WI,93.02325581395348,NA,NA
54115,Brown County,WI,NA,30.2717900656045,NA
54154,Oconto County,WI,NA,NA,93.13984168865436
54162,Brown County,WI,NA,NA,96.96569920844327
54166,Shawano County,WI,NA,91.84629803186503,NA
54302,Brown County,WI,NA,94.56419868791002,NA
54311,Brown County,WI,NA,25.21087160262418,22.691292875989447
54313,Brown County,WI,NA,70.94657919400188,NA
54403,Marathon County,WI,46.107178968655205,NA,NA
54481,Portage County,WI,20.020222446916076,NA,NA
54495,Wood County,WI,NA,83.88003748828491,NA
54501,Oneida County,WI,NA,19.119025304592316,NA
54555,Price County,WI,NA,92.3149015932521,80.87071240105541
54601,La Crosse County,WI,NA,1.0309278350515463,NA
54615,Jackson County,WI,73.1041456016178,79.00656044985942,NA
54656,Monroe County,WI,NA,NA,20.58047493403694
54703,Eau Claire County,WI,NA,29.14714151827554,NA
54880,Douglas County,WI,NA,2.9053420805998127,NA
54901,Winnebago County,WI,62.689585439838226,65.88566073102156,NA
54904,Winnebago County,WI,NA,35.520149953139644,NA
54911,Outagamie County,WI,73.7108190091001,NA,68.33773087071239
54913,Outagamie County,WI,NA,85.09840674789129,NA
54929,Waupaca County,WI,NA,83.31771321462043,NA
54937,Fond du Lac County,WI,NA,NA,50.65963060686016
54971,Fond du Lac County,WI,NA,NA,90.36939313984169
54982,Waushara County,WI,NA,NA,78.62796833773086
82001,Laramie County,WY,NA,62.79287722586692,NA
82609,Natrona County,WY,NA,98.21930646672915,NA
82718,Campbell County,WY,91.50657229524772,NA,NA
82930,Uinta County,WY,NA,89.22211808809747,NA
