ZipCode,county,state,Adult
35242,Shelby County,AL,33.33333333333333
35244,Jefferson County,AL,51.85185185185185
35904,Etowah County,AL,48.484848484848484
36576,Baldwin County,AL,97.3063973063973
99517,Anchorage Municipality,AK,65.31986531986533
99654,Matanuska-Susitna Borough,AK,38.38383838383838
85024,Maricopa County,AZ,88.88888888888889
85027,Maricopa County,AZ,44.44444444444444
85044,Maricopa County,AZ,19.52861952861953
85207,Maricopa County,AZ,28.95622895622896
85233,Maricopa County,AZ,42.76094276094276
85635,Cochise County,AZ,26.262626262626267
85714,Pima County,AZ,35.01683501683502
71730,Union County,AR,49.494949494949495
72209,Pulaski County,AR,55.892255892255896
72404,Craighead County,AR,52.861952861952865
72472,Poinsett County,AR,81.14478114478115
72762,Washington County,AR,50.505050505050505
72956,Crawford County,AR,53.198653198653204
90044,Los Angeles County,CA,6.0606060606060606
90046,Los Angeles County,CA,54.20875420875421
90240,Los Angeles County,CA,79.7979797979798
90740,Orange County,CA,71.04377104377105
91345,Los Angeles County,CA,85.52188552188552
91356,Los Angeles County,CA,78.11447811447812
91601,Los Angeles County,CA,68.68686868686868
91722,Los Angeles County,CA,72.05387205387206
91730,San Bernardino County,CA,19.865319865319865
91740,Los Angeles County,CA,66.32996632996633
91913,San Diego County,CA,74.07407407407408
92083,San Diego County,CA,63.97306397306397
92113,San Diego County,CA,24.915824915824917
92336,San Bernardino County,CA,10.1010101010101
92562,Riverside County,CA,28.619528619528616
92604,Orange County,CA,78.78787878787878
92660,Orange County,CA,62.62626262626263
92801,Orange County,CA,35.69023569023569
92807,Orange County,CA,58.92255892255892
92844,Orange County,CA,88.55218855218855
93230,Kings County,CA,16.4983164983165
93706,Fresno County,CA,22.895622895622896
93930,Monterey County,CA,89.22558922558923
93933,Monterey County,CA,67.003367003367
94531,Contra Costa County,CA,36.02693602693603
94541,Alameda County,CA,24.579124579124578
94555,Alameda County,CA,70.03367003367003
94595,Contra Costa County,CA,92.92929292929293
95215,San Joaquin County,CA,80.8080808080808
95355,Stanislaus County,CA,7.4074074074074066
95901,Yuba County,CA,23.905723905723907
96019,Shasta County,CA,75.42087542087542
80104,Douglas County,CO,57.91245791245792
80121,Arapahoe County,CO,92.25589225589226
80517,Larimer County,CO,90.57239057239057
80916,El Paso County,CO,39.39393939393939
81625,Moffat County,CO,42.42424242424242
06010,Hartford County,CT,1.3468013468013467
06026,Hartford County,CT,95.95959595959596
06515,New Haven County,CT,31.313131313131315
32091,Bradford County,FL,45.45454545454545
32206,Duval County,FL,21.548821548821547
32254,Duval County,FL,77.10437710437711
32526,Escambia County,FL,13.131313131313133
32536,Okaloosa County,FL,84.17508417508418
32605,Alachua County,FL,30.303030303030305
32641,Alachua County,FL,26.936026936026934
32708,Seminole County,FL,76.0942760942761
32805,Orange County,FL,34.34343434343434
32808,Orange County,FL,14.47811447811448
33040,Monroe County,FL,47.13804713804714
33170,Miami-Dade County,FL,83.16498316498317
33312,Broward County,FL,37.03703703703704
33319,Broward County,FL,45.11784511784512
33498,Palm Beach County,FL,98.98989898989899
33544,Pasco County,FL,80.13468013468014
33558,Hillsborough County,FL,85.85858585858585
33853,Polk County,FL,68.01346801346801
33870,Highlands County,FL,30.976430976430976
33919,Lee County,FL,61.27946127946128
34109,Collier County,FL,89.8989898989899
34117,Collier County,FL,67.34006734006735
34639,Pasco County,FL,79.12457912457911
34744,Osceola County,FL,29.629629629629626
34748,Lake County,FL,20.875420875420875
30035,DeKalb County,GA,60.26936026936027
30122,Douglas County,GA,57.57575757575758
30307,DeKalb County,GA,91.58249158249158
30833,Jefferson County,GA,98.31649831649831
31093,Houston County,GA,35.35353535353536
31602,Lowndes County,GA,40.06734006734007
31620,Cook County,GA,76.43097643097643
31768,Colquitt County,GA,33.670033670033675
96707,Honolulu County,HI,38.72053872053872
83404,Bonneville County,ID,56.9023569023569
83440,Madison County,ID,93.60269360269359
60004,Cook County,IL,26.599326599326602
60067,Cook County,IL,46.801346801346796
60115,DeKalb County,IL,43.09764309764309
60126,DuPage County,IL,9.764309764309765
60491,Will County,IL,39.05723905723906
60503,Will County,IL,81.81818181818183
60609,Cook County,IL,10.774410774410773
60614,Cook County,IL,21.885521885521886
60827,Cook County,IL,76.76767676767676
61704,McLean County,IL,40.4040404040404
62049,Montgomery County,IL,94.94949494949495
46036,Madison County,IN,63.63636363636363
46220,Marion County,IN,75.75757575757575
46227,Marion County,IN,8.417508417508419
46322,Lake County,IN,25.589225589225588
46342,Lake County,IN,4.040404040404041
46706,DeKalb County,IN,48.821548821548824
46748,Allen County,IN,92.5925925925926
46902,Howard County,IN,20.53872053872054
46947,Cass County,IN,12.121212121212121
47374,Wayne County,IN,22.55892255892256
47601,Warrick County,IN,84.84848484848484
50315,Polk County,IA,7.744107744107744
52317,Johnson County,IA,54.54545454545454
52544,Appanoose County,IA,44.78114478114478
67235,Sedgwick County,KS,96.63299663299664
67301,Montgomery County,KS,81.48148148148148
40004,Nelson County,KY,17.845117845117844
40272,Jefferson County,KY,12.794612794612794
40336,Estill County,KY,56.56565656565656
41040,Pendleton County,KY,69.02356902356902
70433,St. Tammany Parish,LA,5.723905723905724
70605,Calcasieu Parish,LA,17.17171717171717
70810,East Baton Rouge Parish,LA,7.07070707070707
04915,Waldo County,ME,73.73737373737373
20715,Prince George's County,MD,69.36026936026936
21136,Baltimore County,MD,60.26936026936027
01105,Hampden County,MA,2.6936026936026933
02121,Suffolk County,MA,64.3097643097643
02131,Suffolk County,MA,87.87878787878788
02169,Norfolk County,MA,0
48383,Oakland County,MI,72.39057239057239
48415,Saginaw County,MI,52.52525252525253
48423,Genesee County,MI,32.996632996633
48507,Genesee County,MI,9.427609427609427
48640,Midland County,MI,9.090909090909092
49090,Van Buren County,MI,59.93265993265994
49506,Kent County,MI,25.252525252525253
55124,Dakota County,MN,40.74074074074074
55321,Wright County,MN,97.3063973063973
55345,Hennepin County,MN,88.21548821548821
55416,Hennepin County,MN,45.79124579124579
55447,Hennepin County,MN,75.08417508417509
55744,Itasca County,MN,14.14141414141414
56537,Otter Tail County,MN,16.835016835016837
56573,Otter Tail County,MN,64.98316498316498
39211,Hinds County,MS,66.66666666666666
39501,Harrison County,MS,19.19191919191919
64034,Jackson County,MO,86.53198653198653
64118,Clay County,MO,3.7037037037037033
68818,Hamilton County,NE,98.65319865319864
68901,Adams County,NE,67.67676767676768
68949,Phelps County,NE,93.93939393939394
69341,Scotts Bluff County,NE,87.54208754208754
89103,Clark County,NV,55.218855218855225
89433,Washoe County,NV,42.08754208754209
03842,Rockingham County,NH,73.4006734006734
07018,Essex County,NJ,4.713804713804714
07047,Hudson County,NJ,97.97979797979798
07508,Passaic County,NJ,30.63973063973064
07631,Bergen County,NJ,29.96632996632997
07728,Monmouth County,NJ,13.468013468013467
07762,Monmouth County,NJ,95.28619528619528
08002,Camden County,NJ,57.23905723905723
08070,Salem County,NJ,52.18855218855219
08088,Burlington County,NJ,51.515151515151516
08527,Ocean County,NJ,94.61279461279462
08638,Mercer County,NJ,11.784511784511785
08701,Ocean County,NJ,2.356902356902357
08758,Ocean County,NJ,83.5016835016835
87420,San Juan County,NM,31.64983164983165
87740,Colfax County,NM,82.82828282828282
10453,Bronx County,NY,0.33670033670033667
10704,Westchester County,NY,71.71717171717171
11208,Kings County,NY,1.0101010101010102
11236,Kings County,NY,3.3670033670033668
11372,Queens County,NY,31.986531986531986
11720,Suffolk County,NY,72.72727272727273
11746,Suffolk County,NY,77.44107744107744
11798,Suffolk County,NY,91.24579124579124
11933,Suffolk County,NY,99.66329966329967
13126,Oswego County,NY,3.0303030303030303
13204,Onondaga County,NY,11.447811447811448
13365,Herkimer County,NY,36.36363636363637
13367,Lewis County,NY,41.07744107744108
13440,Oneida County,NY,1.6835016835016834
13492,Oneida County,NY,65.65656565656566
13825,Otsego County,NY,83.83838383838383
14009,Wyoming County,NY,84.51178451178451
14043,Erie County,NY,33.670033670033675
14072,Erie County,NY,43.77104377104377
14224,Erie County,NY,4.377104377104377
14450,Monroe County,NY,2.0202020202020203
14472,Monroe County,NY,50.841750841750844
14514,Monroe County,NY,69.6969696969697
14543,Monroe County,NY,90.23569023569024
14589,Wayne County,NY,36.7003367003367
14617,Monroe County,NY,5.05050505050505
14622,Monroe County,NY,23.56902356902357
14623,Monroe County,NY,15.151515151515152
27018,Yadkin County,NC,74.74747474747475
27021,Stokes County,NC,41.41414141414141
27407,Guilford County,NC,17.50841750841751
28079,Union County,NC,49.831649831649834
28117,Iredell County,NC,31.986531986531986
28345,Richmond County,NC,62.2895622895623
28754,Madison County,NC,93.26599326599326
58701,Ward County,ND,10.437710437710438
44287,Wayne County,OH,82.49158249158249
44306,Summit County,OH,8.754208754208754
44413,Columbiana County,OH,74.41077441077442
44432,Columbiana County,OH,65.993265993266
44511,Mahoning County,OH,23.232323232323232
44646,Stark County,OH,8.080808080808081
44691,Wayne County,OH,6.397306397306397
44857,Huron County,OH,22.22222222222222
44883,Seneca County,OH,16.161616161616163
45044,Butler County,OH,25.925925925925924
45050,Butler County,OH,87.20538720538721
45240,Hamilton County,OH,27.609427609427613
45341,Clark County,OH,99.32659932659934
45344,Clark County,OH,59.25925925925925
73099,Canadian County,OK,12.457912457912458
73112,Oklahoma County,OK,38.04713804713805
73507,Comanche County,OK,48.148148148148145
74601,Kay County,OK,46.464646464646464
97013,Clackamas County,OR,61.61616161616161
97267,Clackamas County,OR,37.71043771043771
97415,Curry County,OR,49.158249158249156
97527,Josephine County,OR,47.81144781144781
97850,Union County,OR,41.75084175084175
15012,Westmoreland County,PA,63.2996632996633
17545,Lancaster County,PA,46.12794612794613
17901,Schuylkill County,PA,27.27272727272727
17963,Schuylkill County,PA,79.46127946127946
18052,Lehigh County,PA,18.51851851851852
18508,Lackawanna County,PA,61.95286195286195
18610,Monroe County,PA,78.45117845117845
18969,Montgomery County,PA,86.19528619528619
29461,Berkeley County,SC,34.68013468013468
29550,Darlington County,SC,43.77104377104377
29906,Beaufort County,SC,70.70707070707071
37110,Warren County,TN,14.814814814814813
37160,Bedford County,TN,18.181818181818183
37402,Hamilton County,TN,96.96969696969697
75056,Denton County,TX,32.659932659932664
75090,Grayson County,TX,50.16835016835017
75503,Bowie County,TX,53.535353535353536
75966,Newton County,TX,95.62289562289563
76244,Tarrant County,TX,27.946127946127948
76567,Milam County,TX,85.18518518518519
77003,Harris County,TX,82.15488215488216
77026,Harris County,TX,56.22895622895623
77038,Harris County,TX,77.77777777777779
77041,Harris County,TX,62.96296296296296
77055,Harris County,TX,60.94276094276094
77066,Harris County,TX,70.37037037037037
77095,Harris County,TX,15.824915824915825
77449,Harris County,TX,11.11111111111111
77531,Brazoria County,TX,71.04377104377105
77539,Galveston County,TX,20.2020202020202
77550,Galveston County,TX,18.855218855218855
77662,Orange County,TX,47.474747474747474
78041,Webb County,TX,39.73063973063973
78109,Bexar County,TX,51.178451178451176
78245,Bexar County,TX,23.905723905723907
78542,Hidalgo County,TX,43.43434343434344
78602,Bastrop County,TX,64.64646464646465
78626,Williamson County,TX,59.59595959595959
79355,Yoakum County,TX,100
79360,Gaines County,TX,54.882154882154886
79424,Lubbock County,TX,28.28282828282828
79912,El Paso County,TX,29.292929292929294
79915,El Paso County,TX,55.55555555555556
84120,Salt Lake County,UT,6.7340067340067336
84128,Salt Lake County,UT,73.06397306397307
22657,Shenandoah County,VA,53.87205387205387
24175,Botetourt County,VA,89.56228956228956
98823,Grant County,WA,80.47138047138047
99021,Spokane County,WA,94.27609427609428
20001,District of Columbia,DC,21.21212121212121
25312,Kanawha County,WV,68.35016835016835
53022,Washington County,WI,86.86868686868688
53061,Calumet County,WI,90.9090909090909
53085,Sheboygan County,WI,91.91919191919192
53105,Racine County,WI,13.804713804713806
53217,Milwaukee County,WI,37.37373737373738
53511,Rock County,WI,0.6734006734006733
53546,Rock County,WI,15.488215488215488
53910,Adams County,WI,96.29629629629629
54220,Manitowoc County,WI,5.387205387205387
54961,Waupaca County,WI,58.58585858585859
82718,Campbell County,WY,58.24915824915825
