ZipCode,county,state,Adult,Retirement,Geriatric
35043,Shelby County,AL,NA,93.73368146214099,NA
35111,Tuscaloosa County,AL,NA,65.0130548302872,NA
35211,Jefferson County,AL,12.834224598930483,NA,NA
35244,Jefferson County,AL,40.37433155080214,NA,NA
35404,Tuscaloosa County,AL,71.92513368983957,NA,NA
35406,Tuscaloosa County,AL,NA,45.69190600522193,NA
35601,Morgan County,AL,NA,NA,65.31531531531532
35640,Morgan County,AL,NA,NA,45.04504504504504
35802,Madison County,AL,NA,64.22976501305483,NA
35901,Etowah County,AL,28.609625668449194,NA,NA
35951,Marshall County,AL,NA,76.76240208877284,NA
35976,Marshall County,AL,NA,NA,49.549549549549546
36117,Montgomery County,AL,25.935828877005346,NA,NA
36278,Randolph County,AL,NA,NA,90.09009009009009
36608,Mobile County,AL,NA,46.21409921671018,NA
36784,Clarke County,AL,87.96791443850267,NA,NA
99501,Anchorage Municipality,AK,NA,68.9295039164491,NA
99701,Fairbanks North Star Borough,AK,29.144385026737968,NA,NA
85048,Maricopa County,AZ,NA,64.49086161879896,NA
85335,Maricopa County,AZ,NA,NA,79.72972972972973
85363,Maricopa County,AZ,NA,NA,81.53153153153153
85365,Yuma County,AZ,21.92513368983957,18.01566579634465,NA
85614,Pima County,AZ,NA,54.308093994778076,NA
85629,Pima County,AZ,NA,61.35770234986945,NA
85643,Cochise County,AZ,NA,92.95039164490862,NA
85716,Pima County,AZ,NA,25.848563968668408,NA
85750,Pima County,AZ,58.02139037433155,NA,NA
86004,Coconino County,AZ,NA,11.488250652741515,NA
71665,Cleveland County,AR,88.50267379679144,NA,NA
71909,Garland County,AR,NA,NA,11.26126126126126
72034,Faulkner County,AR,NA,NA,13.963963963963963
72116,Pulaski County,AR,NA,39.947780678851174,NA
72176,Lonoke County,AR,NA,NA,95.04504504504504
72227,Pulaski County,AR,NA,96.8668407310705,NA
72761,Benton County,AR,62.834224598930476,NA,NA
72764,Washington County,AR,32.35294117647059,NA,NA
72834,Yell County,AR,76.7379679144385,NA,NA
90024,Los Angeles County,CA,NA,55.35248041775457,NA
90034,Los Angeles County,CA,NA,NA,72.52252252252252
90035,Los Angeles County,CA,56.417112299465245,NA,NA
90065,Los Angeles County,CA,NA,NA,54.5045045045045
90248,Los Angeles County,CA,NA,NA,91.44144144144144
90274,Los Angeles County,CA,NA,62.14099216710183,NA
90292,Los Angeles County,CA,81.81818181818183,79.37336814621409,NA
90620,Orange County,CA,NA,34.72584856396867,NA
90630,Orange County,CA,NA,NA,31.08108108108108
90650,Los Angeles County,CA,41.17647058823529,NA,NA
90703,Los Angeles County,CA,53.7433155080214,NA,NA
91024,Los Angeles County,CA,NA,94.7780678851175,NA
91201,Los Angeles County,CA,NA,65.79634464751958,NA
91710,San Bernardino County,CA,31.283422459893046,NA,NA
91732,Los Angeles County,CA,NA,NA,23.873873873873876
91741,Los Angeles County,CA,NA,50.65274151436031,NA
91761,San Bernardino County,CA,NA,32.637075718015666,NA
92037,San Diego County,CA,71.3903743315508,NA,NA
92056,San Diego County,CA,NA,NA,9.90990990990991
92111,San Diego County,CA,NA,NA,21.17117117117117
92113,San Diego County,CA,NA,80.15665796344648,NA
92120,San Diego County,CA,NA,NA,45.4954954954955
92127,San Diego County,CA,NA,67.36292428198433,NA
92262,Riverside County,CA,NA,72.84595300261097,NA
92307,San Bernardino County,CA,NA,54.83028720626631,NA
92376,San Bernardino County,CA,6.684491978609626,NA,NA
92557,Riverside County,CA,NA,48.04177545691906,NA
92624,Orange County,CA,NA,NA,94.5945945945946
92688,Orange County,CA,NA,70.23498694516971,NA
92802,Orange County,CA,NA,41.514360313315926,NA
92833,Orange County,CA,NA,93.47258485639686,NA
92835,Orange County,CA,NA,83.5509138381201,NA
93065,Ventura County,CA,NA,18.79895561357702,NA
93306,Kern County,CA,16.844919786096256,NA,NA
93436,Santa Barbara County,CA,NA,NA,11.711711711711711
93638,Madera County,CA,NA,NA,48.1981981981982
93705,Fresno County,CA,25.668449197860966,NA,NA
93710,Fresno County,CA,75.66844919786097,NA,NA
94010,San Mateo County,CA,43.85026737967914,NA,NA
94111,San Francisco County,CA,NA,NA,87.38738738738738
94115,San Francisco County,CA,NA,NA,40.090090090090094
94123,San Francisco County,CA,NA,NA,57.65765765765766
94501,Alameda County,CA,32.887700534759354,NA,NA
94513,Contra Costa County,CA,27.27272727272727,NA,NA
94538,Alameda County,CA,NA,42.03655352480418,NA
94553,Contra Costa County,CA,35.02673796791444,NA,NA
94587,Alameda County,CA,NA,21.93211488250653,NA
94595,Contra Costa County,CA,NA,NA,8.108108108108109
94949,Marin County,CA,68.18181818181817,NA,NA
94960,Marin County,CA,83.15508021390374,NA,NA
95023,San Benito County,CA,NA,33.68146214099217,NA
95037,Santa Clara County,CA,47.860962566844925,NA,NA
95060,Santa Cruz County,CA,NA,47.78067885117493,71.17117117117117
95070,Santa Clara County,CA,NA,71.01827676240208,NA
95206,San Joaquin County,CA,70.32085561497327,NA,NA
95482,Mendocino County,CA,72.19251336898395,NA,NA
95492,Sonoma County,CA,NA,82.24543080939948,NA
95503,Humboldt County,CA,65.24064171122996,NA,NA
95608,Sacramento County,CA,79.67914438502673,NA,NA
95618,Yolo County,CA,85.56149732620321,NA,NA
95662,Sacramento County,CA,58.288770053475936,NA,NA
95667,El Dorado County,CA,NA,NA,26.576576576576578
95670,Sacramento County,CA,NA,31.070496083550914,NA
95678,Placer County,CA,40.909090909090914,NA,NA
95822,Sacramento County,CA,NA,NA,59.009009009009006
95969,Butte County,CA,NA,4.960835509138381,NA
96003,Shasta County,CA,35.82887700534759,NA,NA
96093,Trinity County,CA,NA,89.55613577023499,NA
80011,Arapahoe County,CO,NA,33.420365535248045,NA
80013,Arapahoe County,CO,30.74866310160428,NA,NA
80033,Jefferson County,CO,65.77540106951871,NA,NA
80104,Douglas County,CO,48.1283422459893,NA,NA
80109,Douglas County,CO,NA,90.33942558746736,NA
80122,Arapahoe County,CO,97.59358288770053,NA,NA
80127,Jefferson County,CO,NA,86.42297650130548,NA
80132,El Paso County,CO,NA,61.096605744125334,NA
80210,Denver County,CO,NA,NA,70.72072072072072
80239,Denver County,CO,NA,50.391644908616186,NA
80260,Adams County,CO,NA,NA,66.21621621621621
80525,Larimer County,CO,12.299465240641712,NA,NA
80526,Larimer County,CO,31.550802139037433,32.114882506527415,NA
80620,Weld County,CO,36.898395721925134,NA,NA
80634,Weld County,CO,1.06951871657754,NA,NA
80701,Morgan County,CO,NA,42.81984334203655,NA
80831,El Paso County,CO,78.87700534759358,NA,NA
80916,El Paso County,CO,NA,91.90600522193212,NA
81147,Archuleta County,CO,NA,58.485639686684074,NA
81211,Chaffee County,CO,NA,85.6396866840731,NA
81623,Garfield County,CO,NA,97.911227154047,NA
06033,Hartford County,CT,49.465240641711226,NA,NA
06037,Hartford County,CT,NA,96.08355091383812,NA
06040,Hartford County,CT,8.288770053475936,NA,NA
06106,Hartford County,CT,NA,11.22715404699739,NA
06112,Hartford County,CT,NA,NA,60.810810810810814
06401,New Haven County,CT,NA,NA,43.69369369369369
06450,New Haven County,CT,3.4759358288770055,NA,NA
06514,New Haven County,CT,NA,31.33159268929504,NA
06515,New Haven County,CT,NA,69.45169712793734,NA
06810,Fairfield County,CT,63.36898395721925,NA,NA
06811,Fairfield County,CT,63.101604278074866,NA,NA
06812,Fairfield County,CT,NA,75.71801566579634,NA
06903,Fairfield County,CT,NA,NA,60.36036036036037
19711,New Castle County,DE,54.81283422459893,8.355091383812011,15.765765765765765
19806,New Castle County,DE,NA,71.27937336814621,NA
19966,Sussex County,DE,49.19786096256685,NA,NA
32008,Suwannee County,FL,78.34224598930481,NA,NA
32024,Columbia County,FL,NA,72.58485639686684,NA
32034,Nassau County,FL,NA,6.266318537859007,NA
32065,Clay County,FL,35.294117647058826,NA,NA
32068,Clay County,FL,NA,7.049608355091384,NA
32071,Suwannee County,FL,NA,84.07310704960835,NA
32114,Volusia County,FL,17.647058823529413,NA,NA
32117,Volusia County,FL,NA,78.3289817232376,NA
32128,Volusia County,FL,NA,62.40208877284596,NA
32207,Duval County,FL,NA,NA,51.35135135135135
32224,Duval County,FL,50.534759358288774,NA,NA
32405,Bay County,FL,20.855614973262032,NA,NA
32526,Escambia County,FL,10.962566844919785,NA,NA
32563,Santa Rosa County,FL,NA,22.97650130548303,NA
32579,Okaloosa County,FL,NA,97.12793733681463,NA
32615,Alachua County,FL,NA,88.51174934725849,NA
32641,Alachua County,FL,NA,NA,72.07207207207207
32707,Seminole County,FL,NA,NA,36.486486486486484
32907,Brevard County,FL,39.57219251336899,NA,NA
32935,Brevard County,FL,15.775401069518717,NA,NA
32937,Brevard County,FL,NA,58.7467362924282,NA
32963,Indian River County,FL,NA,NA,13.063063063063062
33066,Broward County,FL,NA,55.09138381201044,NA
33126,Miami-Dade County,FL,58.82352941176471,NA,17.56756756756757
33129,Miami-Dade County,FL,NA,86.68407310704961,NA
33161,Miami-Dade County,FL,NA,46.73629242819843,NA
33166,Miami-Dade County,FL,NA,53.00261096605744,NA
33313,Broward County,FL,NA,38.90339425587467,NA
33406,Palm Beach County,FL,64.70588235294117,NA,NA
33411,Palm Beach County,FL,NA,19.843342036553523,NA
33412,Palm Beach County,FL,NA,90.60052219321149,NA
33432,Palm Beach County,FL,NA,NA,22.52252252252252
33445,Palm Beach County,FL,97.86096256684492,NA,NA
33461,Palm Beach County,FL,NA,NA,82.43243243243244
33487,Palm Beach County,FL,NA,NA,35.585585585585584
33498,Palm Beach County,FL,NA,NA,57.20720720720721
33772,Pinellas County,FL,NA,69.9738903394256,NA
33777,Pinellas County,FL,67.11229946524064,NA,NA
33953,Charlotte County,FL,94.91978609625669,NA,NA
34104,Collier County,FL,NA,51.697127937336816,NA
34208,Manatee County,FL,NA,47.25848563968668,NA
34231,Sarasota County,FL,45.45454545454545,NA,NA
34442,Citrus County,FL,68.71657754010695,NA,NA
34461,Citrus County,FL,86.63101604278076,NA,NA
34491,Marion County,FL,NA,31.59268929503917,NA
34610,Pasco County,FL,56.951871657754005,NA,NA
34668,Pasco County,FL,9.62566844919786,NA,NA
34741,Osceola County,FL,NA,NA,63.06306306306306
34984,St. Lucie County,FL,NA,NA,93.24324324324324
34990,Martin County,FL,54.01069518716578,NA,NA
30005,Fulton County,GA,59.09090909090909,NA,NA
30014,Newton County,GA,NA,NA,64.41441441441441
30028,Forsyth County,GA,73.52941176470588,NA,NA
30033,DeKalb County,GA,NA,NA,42.792792792792795
30134,Douglas County,GA,NA,29.765013054830288,NA
30311,Fulton County,GA,NA,21.148825065274153,NA
30339,Cobb County,GA,91.71122994652407,NA,NA
30906,Richmond County,GA,5.614973262032086,NA,NA
31096,Johnson County,GA,NA,95.03916449086162,NA
31707,Dougherty County,GA,43.31550802139038,NA,NA
39828,Grady County,GA,NA,69.71279373368147,NA
96813,Honolulu County,HI,26.737967914438503,NA,NA
83703,Ada County,ID,NA,25.06527415143603,NA
83709,Ada County,ID,NA,95.822454308094,NA
83713,Ada County,ID,NA,50.13054830287206,NA
60014,McHenry County,IL,NA,12.27154046997389,NA
60045,Lake County,IL,69.78609625668449,NA,NA
60048,Lake County,IL,NA,25.326370757180154,NA
60060,Lake County,IL,NA,13.054830287206268,NA
60062,Cook County,IL,NA,28.98172323759791,NA
60067,Cook County,IL,NA,17.232375979112273,NA
60081,McHenry County,IL,89.83957219251337,NA,NA
60091,Cook County,IL,60.42780748663101,57.44125326370757,NA
60107,Cook County,IL,NA,NA,59.45945945945946
60142,McHenry County,IL,NA,NA,2.7027027027027026
60178,DeKalb County,IL,NA,93.21148825065274,47.74774774774775
60187,DuPage County,IL,NA,34.46475195822455,NA
60201,Cook County,IL,NA,22.193211488250654,NA
60302,Cook County,IL,NA,12.010443864229766,NA
60403,Will County,IL,51.87165775401069,NA,NA
60426,Cook County,IL,NA,23.49869451697128,NA
60473,Cook County,IL,NA,46.99738903394256,NA
60514,DuPage County,IL,NA,88.51174934725849,NA
60534,Cook County,IL,NA,NA,89.63963963963964
60607,Cook County,IL,NA,75.97911227154047,NA
60609,Cook County,IL,64.97326203208557,NA,NA
60612,Cook County,IL,42.780748663101605,NA,NA
60619,Cook County,IL,4.0106951871657754,NA,NA
60621,Cook County,IL,NA,NA,32.88288288288289
60625,Cook County,IL,9.090909090909092,NA,NA
60638,Cook County,IL,30.213903743315505,NA,NA
60649,Cook County,IL,10.695187165775401,NA,NA
60656,Cook County,IL,NA,74.67362924281984,NA
60707,Cook County,IL,NA,7.5718015665796345,NA
60827,Cook County,IL,NA,54.04699738903395,NA
60901,Kankakee County,IL,77.54010695187165,NA,NA
60914,Kankakee County,IL,NA,19.06005221932115,NA
60970,Iroquois County,IL,66.57754010695187,NA,NA
61008,Boone County,IL,NA,16.710182767624023,NA
61032,Stephenson County,IL,28.342245989304814,NA,NA
61073,Winnebago County,IL,NA,71.80156657963447,NA
61265,Rock Island County,IL,NA,NA,12.162162162162163
61348,LaSalle County,IL,91.17647058823529,NA,NA
61401,Knox County,IL,NA,NA,16.666666666666664
61727,De Witt County,IL,95.18716577540107,NA,NA
61802,Champaign County,IL,NA,91.38381201044386,NA
61832,Vermilion County,IL,NA,39.1644908616188,NA
61874,Champaign County,IL,NA,NA,37.83783783783784
61953,Douglas County,IL,NA,NA,77.47747747747748
62269,St. Clair County,IL,57.75401069518716,38.38120104438642,NA
62650,Morgan County,IL,45.18716577540107,NA,NA
62839,Clay County,IL,75.1336898395722,NA,NA
46037,Hamilton County,IN,NA,34.9869451697128,NA
46041,Clinton County,IN,NA,52.74151436031331,NA
46060,Hamilton County,IN,NA,26.370757180156655,NA
46072,Tipton County,IN,65.50802139037432,NA,NA
46107,Marion County,IN,51.87165775401069,NA,NA
46120,Putnam County,IN,NA,87.98955613577023,NA
46151,Morgan County,IN,50.26737967914438,NA,NA
46184,Johnson County,IN,82.0855614973262,NA,NA
46218,Marion County,IN,7.4866310160427805,NA,NA
46227,Marion County,IN,7.219251336898395,NA,NA
46304,Porter County,IN,NA,NA,21.62162162162162
46311,Lake County,IN,NA,14.882506527415144,NA
46327,Lake County,IN,90.9090909090909,NA,NA
46385,Porter County,IN,NA,22.45430809399478,NA
46737,Steuben County,IN,NA,NA,61.261261261261254
46807,Allen County,IN,43.58288770053476,NA,NA
46902,Howard County,IN,16.577540106951872,2.088772845953003,NA
47243,Jefferson County,IN,NA,95.30026109660574,NA
47546,Dubois County,IN,44.6524064171123,NA,NA
47714,Vanderburgh County,IN,NA,53.52480417754569,NA
47904,Tippecanoe County,IN,51.33689839572193,NA,NA
47909,Tippecanoe County,IN,NA,NA,30.630630630630627
50158,Marshall County,IA,NA,NA,23.423423423423422
50322,Polk County,IA,83.42245989304813,NA,NA
50428,Cerro Gordo County,IA,NA,NA,40.54054054054054
52057,Delaware County,IA,87.70053475935828,NA,NA
52136,Howard County,IA,NA,73.89033942558747,NA
52233,Linn County,IA,NA,93.99477806788512,NA
52240,Johnson County,IA,NA,17.75456919060052,NA
52317,Johnson County,IA,NA,71.54046997389034,NA
52641,Henry County,IA,61.76470588235294,NA,NA
66007,Leavenworth County,KS,85.29411764705883,NA,NA
66086,Leavenworth County,KS,NA,NA,89.1891891891892
66102,Wyandotte County,KS,NA,39.686684073107045,NA
66207,Johnson County,KS,NA,NA,36.93693693693694
66216,Johnson County,KS,NA,81.72323759791122,NA
66534,Nemaha County,KS,98.3957219251337,NA,NA
40013,Nelson County,KY,74.33155080213903,NA,NA
40014,Oldham County,KY,NA,84.59530026109661,NA
40160,Hardin County,KY,24.86631016042781,NA,NA
40205,Jefferson County,KY,70.85561497326202,36.55352480417754,NA
40291,Jefferson County,KY,NA,NA,25.225225225225223
40508,Fayette County,KY,26.47058823529412,NA,NA
40965,Bell County,KY,20.588235294117645,29.50391644908616,NA
41005,Boone County,KY,NA,53.78590078328982,NA
41011,Kenton County,KY,11.229946524064172,NA,NA
42642,Russell County,KY,57.21925133689839,NA,NA
42743,Green County,KY,NA,63.70757180156657,NA
70001,Jefferson Parish,LA,NA,NA,8.558558558558559
70374,Lafourche Parish,LA,NA,84.33420365535248,NA
70394,Lafourche Parish,LA,NA,78.85117493472585,NA
70444,Tangipahoa Parish,LA,39.839572192513366,NA,NA
70458,St. Tammany Parish,LA,18.983957219251337,NA,NA
70508,Lafayette Parish,LA,NA,NA,80.63063063063063
70517,St. Martin Parish,LA,10.16042780748663,15.926892950391643,NA
70634,Beauregard Parish,LA,NA,36.29242819843342,NA
70814,East Baton Rouge Parish,LA,28.87700534759358,NA,NA
71006,Bossier Parish,LA,67.9144385026738,NA,NA
71295,Franklin Parish,LA,41.711229946524064,NA,NA
71303,Rapides Parish,LA,22.727272727272727,NA,52.25225225225225
71449,Sabine Parish,LA,60.6951871657754,NA,NA
71457,Natchitoches Parish,LA,4.545454545454546,NA,NA
04011,Cumberland County,ME,NA,25.587467362924283,NA
04038,Cumberland County,ME,NA,44.90861618798956,NA
04062,Cumberland County,ME,NA,92.68929503916449,NA
04210,Androscoggin County,ME,NA,61.8798955613577,NA
04240,Androscoggin County,ME,NA,NA,1.3513513513513513
04330,Kennebec County,ME,NA,4.699738903394255,NA
04473,Penobscot County,ME,NA,96.60574412532638,NA
04605,Hancock County,ME,36.36363636363637,NA,NA
04619,Washington County,ME,NA,82.76762402088774,NA
20653,St. Mary's County,MD,NA,NA,88.28828828828829
20724,Anne Arundel County,MD,73.79679144385027,NA,NA
20744,Prince George's County,MD,NA,36.81462140992167,NA
20747,Prince George's County,MD,39.3048128342246,NA,NA
20783,Prince George's County,MD,NA,79.11227154046998,NA
20904,Montgomery County,MD,NA,48.825065274151434,NA
21001,Harford County,MD,NA,63.44647519582245,NA
21028,Harford County,MD,96.79144385026738,NA,NA
21045,Howard County,MD,NA,66.0574412532637,NA
21122,Anne Arundel County,MD,NA,NA,62.16216216216216
21209,Baltimore County,MD,NA,NA,66.66666666666666
21217,Baltimore city,MD,NA,15.143603133159269,NA
21218,Baltimore city,MD,NA,63.9686684073107,NA
21221,Baltimore County,MD,NA,NA,22.972972972972975
21230,Baltimore city,MD,29.67914438502674,NA,NA
21286,Baltimore County,MD,NA,67.1018276762402,NA
21771,Frederick County,MD,NA,NA,100
01001,Hampden County,MA,NA,18.5378590078329,NA
01020,Hampden County,MA,2.13903743315508,NA,NA
01560,Worcester County,MA,98.93048128342245,NA,NA
01570,Worcester County,MA,NA,95.56135770234987,NA
01702,Middlesex County,MA,39.037433155080215,NA,NA
01748,Middlesex County,MA,89.57219251336899,NA,NA
01752,Middlesex County,MA,79.41176470588235,NA,NA
01826,Middlesex County,MA,17.379679144385026,NA,NA
01830,Essex County,MA,NA,33.94255874673629,NA
01879,Middlesex County,MA,99.46524064171123,NA,NA
01921,Essex County,MA,NA,98.9556135770235,NA
01923,Essex County,MA,NA,NA,0.9009009009009009
01960,Essex County,MA,NA,62.92428198433421,NA
01985,Essex County,MA,NA,NA,97.74774774774775
02048,Bristol County,MA,44.11764705882353,NA,NA
02115,Suffolk County,MA,NA,2.3498694516971277,NA
02121,Suffolk County,MA,0.267379679144385,NA,NA
02124,Suffolk County,MA,NA,0,NA
02130,Suffolk County,MA,NA,NA,4.054054054054054
02148,Middlesex County,MA,0,0.26109660574412535,NA
02151,Suffolk County,MA,33.42245989304813,NA,NA
02155,Middlesex County,MA,NA,0.5221932114882507,NA
02330,Plymouth County,MA,NA,91.12271540469973,NA
02346,Plymouth County,MA,NA,NA,24.324324324324326
02370,Plymouth County,MA,NA,24.281984334203656,NA
02375,Bristol County,MA,NA,92.16710182767625,NA
02420,Middlesex County,MA,NA,NA,39.189189189189186
02451,Middlesex County,MA,NA,94.51697127937337,NA
02481,Norfolk County,MA,NA,51.958224543080945,NA
02536,Barnstable County,MA,47.32620320855615,NA,NA
02601,Barnstable County,MA,2.6737967914438503,NA,NA
02631,Barnstable County,MA,NA,44.38642297650131,NA
02673,Barnstable County,MA,46.25668449197861,NA,NA
02747,Bristol County,MA,NA,NA,86.03603603603604
02769,Bristol County,MA,38.770053475935825,NA,NA
02771,Bristol County,MA,NA,43.60313315926893,NA
48021,Macomb County,MI,NA,NA,65.76576576576578
48030,Oakland County,MI,NA,60.835509138381205,NA
48038,Macomb County,MI,NA,3.3942558746736298,NA
48044,Macomb County,MI,NA,3.91644908616188,NA
48105,Washtenaw County,MI,NA,NA,3.153153153153153
48116,Livingston County,MI,NA,NA,9.45945945945946
48154,Wayne County,MI,NA,5.221932114882506,NA
48160,Washtenaw County,MI,NA,NA,59.909909909909906
48169,Livingston County,MI,NA,28.720626631853786,NA
48174,Wayne County,MI,5.080213903743315,NA,73.42342342342343
48180,Wayne County,MI,NA,50.91383812010444,33.78378378378378
48184,Wayne County,MI,NA,83.02872062663185,NA
48188,Wayne County,MI,9.893048128342247,NA,NA
48207,Wayne County,MI,15.240641711229946,80.4177545691906,NA
48210,Wayne County,MI,19.25133689839572,NA,NA
48213,Wayne County,MI,NA,NA,49.0990990990991
48227,Wayne County,MI,NA,5.483028720626632,NA
48230,Wayne County,MI,84.75935828877004,NA,54.95495495495496
48234,Wayne County,MI,5.88235294117647,NA,NA
48235,Wayne County,MI,NA,NA,82.88288288288288
48238,Wayne County,MI,NA,14.360313315926893,NA
48304,Oakland County,MI,56.68449197860963,NA,NA
48306,Oakland County,MI,35.56149732620321,NA,NA
48309,Oakland County,MI,26.203208556149733,NA,NA
48310,Macomb County,MI,NA,10.182767624020887,NA
48313,Macomb County,MI,20.32085561497326,NA,NA
48315,Macomb County,MI,74.59893048128342,NA,NA
48316,Macomb County,MI,33.9572192513369,NA,NA
48317,Macomb County,MI,NA,17.4934725848564,NA
48322,Oakland County,MI,NA,84.85639686684074,NA
48327,Oakland County,MI,NA,39.425587467362924,NA
48341,Oakland County,MI,22.459893048128343,NA,NA
48473,Genesee County,MI,NA,37.33681462140992,NA
48504,Genesee County,MI,NA,73.62924281984334,NA
48507,Genesee County,MI,7.754010695187167,NA,NA
48610,Arenac County,MI,NA,98.43342036553526,NA
48617,Clare County,MI,60.962566844919785,NA,NA
48624,Gladwin County,MI,NA,NA,18.46846846846847
48640,Midland County,MI,63.63636363636363,NA,NA
48642,Midland County,MI,NA,NA,56.30630630630631
48734,Saginaw County,MI,NA,74.1514360313316,67.11711711711712
48917,Eaton County,MI,NA,NA,37.38738738738739
49028,Branch County,MI,NA,81.4621409921671,NA
49120,Berrien County,MI,11.497326203208557,NA,NA
49201,Jackson County,MI,NA,NA,6.756756756756757
49221,Lenawee County,MI,33.155080213903744,27.154046997389038,NA
49283,Jackson County,MI,99.19786096256684,NA,NA
49321,Kent County,MI,48.663101604278076,NA,NA
49337,Newaygo County,MI,NA,58.22454308093995,NA
49426,Ottawa County,MI,NA,35.24804177545692,NA
49441,Muskegon County,MI,NA,24.804177545691903,NA
49685,Grand Traverse County,MI,NA,47.25848563968668,NA
49706,Emmet County,MI,94.11764705882352,NA,NA
49707,Alpena County,MI,NA,NA,12.612612612612612
49855,Marquette County,MI,NA,49.34725848563969,NA
49931,Houghton County,MI,NA,NA,70.27027027027027
55082,Washington County,MN,NA,24.02088772845953,NA
55330,Sherburne County,MN,34.75935828877005,NA,NA
55406,Hennepin County,MN,82.35294117647058,NA,NA
55442,Hennepin County,MN,84.22459893048129,NA,NA
56401,Crow Wing County,MN,NA,27.676240208877285,20.27027027027027
56474,Cass County,MN,99.73262032085562,NA,NA
56482,Wadena County,MN,NA,56.13577023498695,NA
56537,Otter Tail County,MN,14.705882352941178,6.7885117493472595,NA
56601,Beltrami County,MN,NA,0.7832898172323759,NA
39203,Hinds County,MS,86.89839572192514,NA,NA
39212,Hinds County,MS,17.11229946524064,NA,NA
39402,Lamar County,MS,55.61497326203209,NA,NA
39443,Jones County,MS,55.88235294117647,NA,NA
39475,Lamar County,MS,NA,NA,97.2972972972973
39540,Harrison County,MS,68.18181818181817,NA,NA
39759,Oktibbeha County,MS,NA,79.89556135770235,NA
63017,St. Louis County,MO,NA,41.77545691906005,NA
63038,St. Louis County,MO,96.2566844919786,NA,NA
63043,St. Louis County,MO,85.02673796791443,NA,NA
63111,St. Louis city,MO,NA,NA,69.36936936936937
63118,St. Louis city,MO,24.598930481283425,NA,NA
63120,St. Louis city,MO,NA,NA,95.94594594594594
63122,St. Louis County,MO,73.2620320855615,NA,NA
63125,St. Louis County,MO,NA,NA,10.81081081081081
63126,St. Louis County,MO,77.00534759358288,NA,NA
63128,St. Louis County,MO,NA,21.409921671018274,NA
63137,St. Louis County,MO,NA,40.992167101827675,NA
63146,St. Louis County,MO,43.04812834224599,NA,NA
63303,St. Charles County,MO,NA,8.616187989556137,5.8558558558558556
63367,St. Charles County,MO,NA,NA,19.81981981981982
63456,Monroe County,MO,NA,94.25587467362925,NA
63775,Perry County,MO,NA,66.84073107049609,NA
64076,Lafayette County,MO,NA,77.02349869451697,NA
64119,Clay County,MO,NA,19.5822454308094,NA
65020,Camden County,MO,NA,NA,53.153153153153156
65560,Dent County,MO,NA,77.28459530026109,NA
65714,Christian County,MO,NA,43.34203655352481,NA
65738,Greene County,MO,NA,90.07832898172323,NA
59102,Yellowstone County,MT,NA,NA,0.45045045045045046
59270,Richland County,MT,77.80748663101605,NA,NA
68007,Douglas County,NE,94.6524064171123,NA,NA
68110,Douglas County,NE,NA,73.36814621409921,NA
68505,Lancaster County,NE,NA,NA,78.37837837837837
68803,Hall County,NE,NA,51.174934725848566,NA
69101,Lincoln County,NE,NA,23.237597911227155,NA
89436,Washoe County,NV,NA,9.660574412532636,NA
89445,Humboldt County,NV,83.9572192513369,NA,NA
89447,Lyon County,NV,NA,NA,83.78378378378379
89511,Washoe County,NV,93.58288770053476,NA,NA
89521,Washoe County,NV,NA,NA,95.4954954954955
89523,Washoe County,NV,NA,NA,80.63063063063063
03049,Hillsborough County,NH,NA,69.19060052219321,NA
03053,Rockingham County,NH,52.406417112299465,NA,NA
03458,Hillsborough County,NH,84.49197860962568,NA,NA
07006,Essex County,NJ,53.20855614973262,NA,NA
07075,Bergen County,NJ,NA,NA,81.98198198198197
07081,Union County,NJ,77.27272727272727,NA,NA
07110,Essex County,NJ,NA,55.87467362924282,NA
07508,Passaic County,NJ,22.192513368983956,NA,NA
07621,Bergen County,NJ,NA,83.81201044386422,NA
07701,Monmouth County,NJ,37.967914438502675,NA,NA
07731,Monmouth County,NJ,NA,38.1201044386423,NA
07748,Monmouth County,NJ,NA,NA,92.7927927927928
08527,Ocean County,NJ,NA,4.43864229765013,NA
08618,Mercer County,NJ,4.81283422459893,NA,NA
08816,Middlesex County,NJ,NA,NA,32.432432432432435
08831,Middlesex County,NJ,NA,36.0313315926893,NA
87031,Valencia County,NM,NA,27.93733681462141,NA
87107,Bernalillo County,NM,56.14973262032086,59.268929503916446,NA
87112,Bernalillo County,NM,NA,NA,5.405405405405405
87124,Sandoval County,NM,NA,87.72845953002611,NA
88210,Eddy County,NM,81.55080213903744,NA,NA
88310,Otero County,NM,88.77005347593582,NA,NA
10021,New York County,NY,NA,NA,14.864864864864865
10029,New York County,NY,62.03208556149733,NA,NA
10032,New York County,NY,49.73262032085562,NA,NA
10034,New York County,NY,86.36363636363636,NA,NA
10301,Richmond County,NY,NA,NA,14.414414414414415
10304,Richmond County,NY,NA,20.626631853785902,NA
10452,Bronx County,NY,12.566844919786096,NA,NA
10468,Bronx County,NY,NA,1.0443864229765014,NA
10470,Bronx County,NY,68.98395721925134,NA,NA
10512,Putnam County,NY,NA,NA,62.612612612612615
10605,Westchester County,NY,NA,86.16187989556136,NA
10941,Orange County,NY,NA,NA,76.57657657657657
10960,Rockland County,NY,NA,NA,74.77477477477478
10977,Rockland County,NY,NA,NA,45.94594594594595
11214,Kings County,NY,NA,NA,7.207207207207207
11216,Kings County,NY,NA,68.1462140992167,NA
11217,Kings County,NY,NA,NA,48.64864864864865
11233,Kings County,NY,NA,8.87728459530026,NA
11235,Kings County,NY,61.229946524064175,NA,NA
11357,Queens County,NY,NA,42.55874673629243,NA
11374,Queens County,NY,NA,NA,17.117117117117118
11428,Queens County,NY,NA,NA,77.02702702702703
11435,Queens County,NY,NA,13.577023498694519,NA
11580,Nassau County,NY,NA,91.64490861618799,NA
11717,Suffolk County,NY,14.973262032085561,NA,NA
11772,Suffolk County,NY,NA,NA,33.33333333333333
12010,Montgomery County,NY,18.449197860962567,NA,NA
12122,Schoharie County,NY,NA,88.25065274151436,NA
12804,Warren County,NY,NA,7.83289817232376,NA
12966,Franklin County,NY,86.89839572192514,NA,NA
12992,Clinton County,NY,48.93048128342246,NA,NA
13035,Madison County,NY,74.8663101604278,NA,NA
13045,Cortland County,NY,1.8716577540106951,7.310704960835509,NA
13069,Oswego County,NY,NA,40.2088772845953,NA
13073,Tompkins County,NY,72.72727272727273,NA,NA
13074,Oswego County,NY,67.64705882352942,NA,NA
13088,Onondaga County,NY,NA,44.64751958224543,NA
13118,Cayuga County,NY,NA,NA,99.09909909909909
13120,Onondaga County,NY,NA,99.21671018276761,NA
13332,Madison County,NY,93.31550802139037,NA,NA
13407,Herkimer County,NY,53.475935828877006,NA,NA
13691,Jefferson County,NY,95.98930481283422,NA,NA
13801,Chenango County,NY,98.1283422459893,NA,NA
13901,Broome County,NY,54.278074866310156,NA,NA
13905,Broome County,NY,NA,NA,3.6036036036036037
14020,Genesee County,NY,NA,10.704960835509137,NA
14127,Erie County,NY,NA,12.532637075718014,NA
14150,Erie County,NY,NA,NA,14.864864864864865
14207,Erie County,NY,NA,31.853785900783286,NA
14211,Erie County,NY,25.40106951871658,NA,NA
14214,Erie County,NY,22.994652406417114,NA,NA
14220,Erie County,NY,10.427807486631016,NA,NA
14224,Erie County,NY,50,NA,NA
14225,Erie County,NY,6.149732620320856,49.869451697127936,NA
14482,Genesee County,NY,67.37967914438502,NA,NA
14510,Livingston County,NY,52.67379679144385,NA,NA
14589,Wayne County,NY,27.807486631016044,NA,NA
14606,Monroe County,NY,NA,NA,27.47747747747748
14613,Monroe County,NY,NA,33.15926892950392,NA
14615,Monroe County,NY,NA,30.809399477806785,NA
14623,Monroe County,NY,13.636363636363635,NA,NA
14626,Monroe County,NY,1.3368983957219251,NA,NA
14850,Tompkins County,NY,2.941176470588235,NA,NA
27030,Surry County,NC,4.27807486631016,NA,NA
27043,Stokes County,NC,NA,90.86161879895562,NA
27052,Stokes County,NC,NA,89.03394255874673,NA
27107,Forsyth County,NC,2.406417112299465,NA,1.8018018018018018
27127,Forsyth County,NC,NA,NA,68.01801801801803
27239,Davidson County,NC,NA,99.47780678851174,NA
27263,Randolph County,NC,NA,53.26370757180157,NA
27306,Montgomery County,NC,81.01604278074866,NA,NA
27509,Granville County,NC,NA,87.46736292428199,NA
27514,Orange County,NC,50.80213903743316,NA,NA
27520,Johnston County,NC,24.331550802139038,NA,NA
27522,Granville County,NC,64.171122994652407,NA,NA
27536,Vance County,NC,NA,65.27415143603133,NA
27549,Franklin County,NC,NA,NA,28.82882882882883
27591,Wake County,NC,NA,54.56919060052219,NA
27606,Wake County,NC,NA,NA,44.5945945945946
27822,Wilson County,NC,NA,NA,91.8918918918919
27932,Chowan County,NC,46.524064171122994,NA,NA
27949,Dare County,NC,NA,NA,93.69369369369369
27954,Dare County,NC,NA,80.67885117493474,NA
27962,Washington County,NC,59.893048128342244,NA,NA
28027,Cabarrus County,NC,58.55614973262032,NA,18.91891891891892
28040,Rutherford County,NC,NA,81.20104438642298,NA
28078,Mecklenburg County,NC,NA,30.548302872062667,NA
28144,Rowan County,NC,NA,NA,44.14414414414414
28205,Mecklenburg County,NC,16.31016042780749,NA,NA
28216,Mecklenburg County,NC,NA,13.315926892950392,NA
28304,Cumberland County,NC,NA,42.297650130548305,NA
28312,Cumberland County,NC,NA,75.45691906005221,NA
28401,New Hanover County,NC,8.0213903743315509,NA,NA
28504,Lenoir County,NC,37.16577540106952,NA,NA
28557,Carteret County,NC,66.84491978609626,NA,NA
28625,Iredell County,NC,13.903743315508022,NA,NA
28630,Caldwell County,NC,NA,NA,41.891891891891895
28645,Caldwell County,NC,NA,19.321148825065272,NA
28675,Alleghany County,NC,NA,NA,76.12612612612612
28787,Buncombe County,NC,NA,NA,68.91891891891892
58201,Grand Forks County,ND,NA,NA,2.2522522522522523
43016,Franklin County,OH,NA,NA,35.13513513513514
43023,Licking County,OH,NA,NA,78.82882882882883
43103,Pickaway County,OH,NA,NA,75.22522522522522
43119,Franklin County,OH,62.299465240641716,NA,NA
43224,Franklin County,OH,NA,12.793733681462141,NA
43227,Franklin County,OH,NA,35.77023498694517,NA
43610,Lucas County,OH,91.44385026737967,NA,NA
43615,Lucas County,OH,NA,NA,7.657657657657657
43619,Wood County,OH,NA,66.57963446475196,NA
43701,Muskingum County,OH,NA,4.177545691906006,NA
43725,Guernsey County,OH,11.76470588235294,NA,NA
43906,Belmont County,OH,NA,NA,90.54054054054053
44022,Cuyahoga County,OH,NA,26.109660574412537,NA
44055,Lorain County,OH,6.417112299465241,NA,NA
44077,Lake County,OH,41.97860962566845,NA,NA
44094,Lake County,OH,NA,2.610966057441253,NA
44102,Cuyahoga County,OH,NA,1.3054830287206265,NA
44103,Cuyahoga County,OH,NA,NA,27.027027027027028
44105,Cuyahoga County,OH,NA,NA,68.46846846846847
44109,Cuyahoga County,OH,0.53475935828877,NA,NA
44114,Cuyahoga County,OH,NA,NA,84.23423423423422
44121,Cuyahoga County,OH,NA,NA,18.01801801801802
44123,Cuyahoga County,OH,NA,60.574412532637076,NA
44125,Cuyahoga County,OH,NA,6.527415143603134,NA
44132,Cuyahoga County,OH,48.1283422459893,NA,NA
44138,Cuyahoga County,OH,NA,89.29503916449086,NA
44149,Cuyahoga County,OH,NA,14.621409921671018,NA
44203,Summit County,OH,NA,5.7441253263707575,NA
44253,Medina County,OH,100,NA,NA
44333,Summit County,OH,NA,41.253263707571804,NA
44425,Trumbull County,OH,NA,24.54308093994778,NA
44442,Mahoning County,OH,NA,97.38903394255874,NA
44484,Trumbull County,OH,21.65775401069519,NA,NA
44502,Mahoning County,OH,NA,NA,77.92792792792793
44515,Mahoning County,OH,NA,NA,50.9009009009009
44646,Stark County,OH,NA,9.921671018276761,NA
44691,Wayne County,OH,42.513368983957214,NA,NA
44830,Seneca County,OH,14.171122994652407,NA,NA
44833,Crawford County,OH,24.06417112299465,NA,NA
45013,Butler County,OH,1.6042780748663104,NA,NA
45069,Butler County,OH,NA,15.404699738903393,NA
45177,Clinton County,OH,17.914438502673796,NA,NA
45227,Hamilton County,OH,40.64171122994652,NA,NA
45424,Montgomery County,OH,8.823529411764707,NA,NA
45601,Ross County,OH,3.2085561497326207,NA,NA
45619,Lawrence County,OH,21.390374331550802,NA,NA
45651,Vinton County,OH,NA,56.39686684073107,NA
45750,Washington County,OH,0.8021390374331552,16.187989556135772,NA
45769,Meigs County,OH,NA,74.41253263707573,NA
73013,Oklahoma County,OK,23.262032085561497,6.005221932114883,NA
73034,Oklahoma County,OK,NA,11.74934725848564,NA
73069,Cleveland County,OK,NA,NA,38.73873873873874
73521,Jackson County,OK,NA,57.180156657963444,NA
73703,Garfield County,OK,NA,NA,9.00900900900901
74104,Tulsa County,OK,NA,NA,94.14414414414415
97005,Washington County,OR,NA,NA,36.03603603603604
97031,Hood River County,OR,59.35828877005348,NA,NA
97034,Clackamas County,OR,NA,60.313315926892955,NA
97058,Wasco County,OR,NA,NA,31.53153153153153
97086,Clackamas County,OR,44.919786096256686,NA,NA
97133,Washington County,OR,97.05882352941177,NA,NA
97217,Multnomah County,OR,NA,76.2402088772846,NA
97236,Multnomah County,OR,NA,NA,58.108108108108105
97404,Lane County,OR,NA,46.47519582245431,NA
97415,Curry County,OR,NA,75.19582245430809,NA
97424,Lane County,OR,NA,68.66840731070496,NA
97478,Lane County,OR,NA,43.08093994778068,NA
97503,Jackson County,OR,55.080213903743314,NA,NA
97520,Jackson County,OR,NA,89.81723237597912,NA
97535,Jackson County,OR,NA,98.17232375979113,NA
15057,Washington County,PA,NA,72.0626631853786,NA
15218,Allegheny County,PA,NA,NA,58.55855855855856
15219,Allegheny County,PA,23.796791443850267,NA,NA
15221,Allegheny County,PA,NA,23.759791122715406,NA
15227,Allegheny County,PA,31.818181818181817,NA,NA
15235,Allegheny County,PA,16.042780748663102,NA,NA
15237,Allegheny County,PA,NA,22.715404699738905,NA
15238,Allegheny County,PA,NA,NA,30.180180180180184
15241,Allegheny County,PA,87.43315508021391,NA,NA
15330,Washington County,PA,NA,99.73890339425587,NA
15601,Westmoreland County,PA,NA,10.966057441253264,NA
15748,Indiana County,PA,89.03743315508021,NA,NA
15845,Elk County,PA,95.45454545454545,NA,NA
16066,Butler County,PA,NA,37.85900783289817,NA
16148,Mercer County,PA,NA,NA,6.306306306306306
16201,Armstrong County,PA,89.3048128342246,NA,NA
16335,Crawford County,PA,8.55614973262032,NA,NA
16648,Blair County,PA,NA,67.88511749347258,NA
16801,Centre County,PA,60.16042780748663,NA,NA
16823,Centre County,PA,NA,49.08616187989556,NA
16947,Bradford County,PA,NA,NA,84.68468468468468
17003,Lebanon County,PA,NA,NA,83.33333333333334
17022,Lancaster County,PA,40.106951871657756,NA,NA
17034,Dauphin County,PA,NA,97.65013054830287,NA
17055,Cumberland County,PA,NA,14.099216710182768,NA
17066,Huntingdon County,PA,80.74866310160428,NA,NA
17067,Lebanon County,PA,NA,NA,53.6036036036036
17320,Adams County,PA,NA,NA,64.86486486486487
17325,Adams County,PA,NA,28.459530026109658,NA
17404,York County,PA,NA,81.98433420365535,NA
17406,York County,PA,29.411764705882355,NA,NA
17517,Lancaster County,PA,NA,57.702349869451695,67.56756756756756
17522,Lancaster County,PA,85.828877005347593,79.63446475195822,NA
17824,Northumberland County,PA,NA,73.10704960835508,NA
17837,Union County,PA,NA,NA,19.36936936936937
18015,Northampton County,PA,NA,86.94516971279373,NA
18017,Northampton County,PA,38.50267379679144,NA,NA
18040,Northampton County,PA,78.6096256684492,NA,NA
18042,Northampton County,PA,NA,3.1331592689295036,NA
18067,Northampton County,PA,NA,26.89295039164491,NA
18104,Lehigh County,PA,NA,2.8720626631853787,NA
18202,Luzerne County,PA,63.903743315508024,NA,NA
18252,Schuylkill County,PA,NA,52.48041775456919,NA
18301,Monroe County,PA,28.07486631016043,NA,NA
18360,Monroe County,PA,NA,NA,90.990990990991
18428,Pike County,PA,NA,NA,50.45045045045045
18644,Luzerne County,PA,94.38502673796792,NA,NA
18661,Luzerne County,PA,NA,NA,98.64864864864865
18704,Luzerne County,PA,NA,10.443864229765012,NA
18705,Luzerne County,PA,NA,NA,63.96396396396396
18944,Bucks County,PA,69.25133689839572,NA,NA
18966,Bucks County,PA,13.368983957219251,NA,NA
18974,Bucks County,PA,NA,40.73107049608355,NA
18976,Bucks County,PA,66.31016042780749,NA,NA
19038,Montgomery County,PA,30.481283422459892,NA,NA
19075,Montgomery County,PA,79.14438502673798,NA,NA
19094,Delaware County,PA,NA,83.28981723237598,NA
19111,Philadelphia County,PA,15.508021390374333,NA,NA
19115,Philadelphia County,PA,NA,52.219321148825074,NA
19118,Philadelphia County,PA,NA,72.32375979112271,NA
19131,Philadelphia County,PA,NA,1.8276762402088773,NA
19132,Philadelphia County,PA,19.786096256684495,NA,NA
19135,Philadelphia County,PA,12.032085561497325,NA,NA
19342,Delaware County,PA,NA,NA,20.72072072072072
19382,Chester County,PA,NA,60.052219321148826,NA
19428,Montgomery County,PA,NA,70.49608355091384,NA
19468,Montgomery County,PA,NA,NA,39.63963963963964
19512,Berks County,PA,91.97860962566845,NA,NA
19547,Berks County,PA,NA,NA,87.83783783783784
02809,Bristol County,RI,72.45989304812835,NA,NA
02852,Washington County,RI,NA,NA,27.927927927927925
02861,Providence County,RI,NA,92.42819843342036,NA
02864,Providence County,RI,51.06951871657755,NA,NA
02889,Kent County,RI,18.71657754010695,NA,NA
02896,Providence County,RI,NA,NA,74.32432432432432
02910,Providence County,RI,42.24598930481284,NA,NA
29102,Clarendon County,SC,NA,NA,46.846846846846844
29223,Richland County,SC,NA,NA,41.44144144144144
29322,Spartanburg County,SC,NA,85.37859007832898,NA
29412,Charleston County,SC,NA,55.61357702349869,NA
29483,Dorchester County,SC,NA,NA,47.2972972972973
29501,Florence County,SC,23.52941176470588,NA,NA
29560,Florence County,SC,NA,64.75195822454309,NA
29576,Horry County,SC,NA,9.39947780678851,NA
29654,Anderson County,SC,NA,NA,72.97297297297297
29662,Greenville County,SC,NA,59.7911227154047,NA
29687,Greenville County,SC,NA,21.671018276762403,NA
57078,Yankton County,SD,59.62566844919787,NA,NA
57106,Minnehaha County,SD,NA,NA,43.24324324324324
57110,Minnehaha County,SD,NA,NA,25.225225225225223
37043,Montgomery County,TN,NA,20.10443864229765,NA
37067,Williamson County,TN,74.06417112299465,67.62402088772846,NA
37211,Davidson County,TN,NA,NA,54.054054054054056
37355,Coffee County,TN,27.00534759358289,NA,NA
37379,Hamilton County,TN,NA,28.198433420365536,NA
37683,Johnson County,TN,NA,NA,63.51351351351351
37725,Jefferson County,TN,NA,NA,29.27927927927928
37821,Cocke County,TN,NA,NA,29.72972972972973
37912,Knox County,TN,NA,NA,55.85585585585585
37917,Knox County,TN,13.101604278074866,NA,NA
38024,Dyer County,TN,18.181818181818183,NA,NA
38053,Shelby County,TN,NA,51.43603133159269,NA
75006,Dallas County,TX,37.70053475935829,63.18537859007834,NA
75009,Collin County,TX,92.7807486631016,NA,NA
75019,Dallas County,TX,45.98930481283423,NA,NA
75023,Collin County,TX,44.38502673796791,NA,NA
75028,Denton County,TX,NA,35.50913838120104,NA
75035,Collin County,TX,NA,48.04177545691906,NA
75040,Dallas County,TX,NA,26.631853785900784,NA
75050,Dallas County,TX,NA,48.04177545691906,NA
75070,Collin County,TX,NA,8.093994778067886,NA
75075,Collin County,TX,NA,NA,40.99099099099099
75078,Collin County,TX,92.51336898395722,NA,NA
75094,Collin County,TX,NA,76.50130548302873,NA
75203,Dallas County,TX,62.56684491978609,NA,NA
75217,Dallas County,TX,6.951871657754011,NA,NA
75237,Dallas County,TX,36.096256684491976,NA,NA
75482,Hopkins County,TX,86.09625668449198,NA,NA
75703,Smith County,TX,NA,45.43080939947781,NA
75704,Smith County,TX,96.52406417112299,NA,NA
75751,Henderson County,TX,NA,NA,98.1981981981982
76013,Tarrant County,TX,NA,NA,22.07207207207207
76028,Johnson County,TX,9.358288770053475,NA,NA
76051,Tarrant County,TX,93.85026737967914,NA,NA
76067,Palo Pinto County,TX,NA,56.6579634464752,NA
76087,Parker County,TX,78.07486631016043,NA,NA
76210,Denton County,TX,NA,56.919060052219315,NA
76262,Denton County,TX,76.20320855614973,NA,NA
76306,Wichita County,TX,55.080213903743314,NA,NA
76446,Erath County,TX,82.88770053475936,NA,NA
76504,Bell County,TX,NA,38.642297650130544,NA
76522,Coryell County,TX,NA,9.138381201044385,NA
76528,Coryell County,TX,64.43850267379679,NA,NA
76542,Bell County,TX,NA,NA,46.3963963963964
76574,Williamson County,TX,NA,20.887728459530024,NA
76801,Brown County,TX,NA,NA,52.702702702702695
77015,Harris County,TX,33.68983957219251,NA,NA
77017,Harris County,TX,46.79144385026738,NA,NA
77065,Harris County,TX,75.1336898395722,NA,NA
77072,Harris County,TX,69.5187165775401,NA,NA
77084,Harris County,TX,34.22459893048128,NA,NA
77088,Harris County,TX,54.54545454545454,NA,NA
77380,Montgomery County,TX,79.67914438502673,NA,NA
77471,Fort Bend County,TX,NA,NA,99.54954954954955
77494,Fort Bend County,TX,NA,NA,28.37837837837838
77521,Harris County,TX,NA,78.59007832898173,NA
77554,Galveston County,TX,NA,NA,61.711711711711715
77573,Galveston County,TX,29.67914438502674,NA,NA
77611,Orange County,TX,NA,NA,86.48648648648648
78041,Webb County,TX,31.016042780748666,NA,NA
78046,Webb County,TX,76.47058823529412,NA,NA
78114,Wilson County,TX,70.58823529411765,NA,NA
78217,Bexar County,TX,57.21925133689839,NA,NA
78220,Bexar County,TX,90.10695187165776,NA,NA
78223,Bexar County,TX,NA,NA,24.774774774774773
78258,Bexar County,TX,NA,65.53524804177546,NA
78414,Nueces County,TX,52.94117647058824,NA,NA
78516,Hidalgo County,TX,NA,NA,96.3963963963964
78645,Travis County,TX,NA,85.11749347258485,NA
78666,Hays County,TX,21.12299465240642,NA,NA
78681,Williamson County,TX,47.05882352941176,NA,NA
78741,Travis County,TX,NA,NA,79.72972972972973
79763,Ector County,TX,27.540106951871657,NA,NA
79766,Ector County,TX,93.04812834224599,NA,NA
79772,Reeves County,TX,65.77540106951871,NA,NA
79927,El Paso County,TX,47.593582887700535,NA,NA
84014,Davis County,UT,80.4812834224599,NA,NA
84065,Salt Lake County,UT,32.085561497326204,NA,NA
84098,Summit County,UT,NA,45.16971279373368,NA
84103,Salt Lake County,UT,NA,NA,26.126126126126124
84119,Salt Lake County,UT,34.49197860962567,NA,71.62162162162163
84121,Salt Lake County,UT,NA,NA,51.80180180180181
84335,Cache County,UT,NA,NA,88.73873873873875
84790,Washington County,UT,NA,NA,4.504504504504505
05403,Chittenden County,VT,NA,45.69190600522193,NA
05488,Franklin County,VT,71.12299465240642,NA,NA
22202,Arlington County,VA,88.23529411764706,NA,NA
22315,Fairfax County,VA,81.28342245989305,NA,NA
22630,Warren County,VA,NA,32.89817232375979,NA
22727,Madison County,VA,97.32620320855615,NA,NA
22801,Harrisonburg city,VA,NA,80.67885117493474,NA
22827,Rockingham County,VA,NA,85.90078328981723,NA
22903,Charlottesville city,VA,NA,16.449086161879894,NA
22932,Albemarle County,VA,92.24598930481284,NA,NA
22942,Louisa County,VA,69.78609625668449,NA,NA
23111,Hanover County,VA,NA,NA,16.216216216216218
23139,Powhatan County,VA,NA,44.12532637075718,NA
23322,Chesapeake city,VA,45.72192513368984,NA,NA
23455,Virginia Beach city,VA,NA,37.0757180156658,NA
23462,Virginia Beach city,VA,NA,NA,4.954954954954955
23513,Norfolk city,VA,NA,30.026109660574413,NA
23661,Hampton city,VA,NA,62.66318537859008,NA
23662,Poquoson city,VA,NA,NA,96.84684684684684
23831,Chesterfield County,VA,NA,NA,85.13513513513513
24416,Buena Vista city,VA,NA,87.20626631853786,NA
24502,Lynchburg city,VA,NA,NA,10.36036036036036
24522,Appomattox County,VA,71.3903743315508,NA,NA
24563,Pittsylvania County,VA,NA,96.34464751958225,NA
24592,Halifax County,VA,NA,32.375979112271544,NA
24614,Buchanan County,VA,51.60427807486631,NA,NA
98001,King County,WA,NA,37.33681462140992,NA
98002,King County,WA,NA,NA,34.234234234234236
98005,King County,WA,72.99465240641712,NA,NA
98022,King County,WA,NA,57.96344647519582,34.68468468468468
98030,King County,WA,NA,NA,42.34234234234234
98043,Snohomish County,WA,NA,77.54569190600522,NA
98059,King County,WA,37.4331550802139,NA,NA
98072,King County,WA,NA,NA,55.4054054054054
98105,King County,WA,90.37433155080214,NA,NA
98118,King County,WA,61.49732620320856,NA,NA
98126,King County,WA,NA,82.50652741514361,NA
98168,King County,WA,NA,27.415143603133156,NA
98204,Snohomish County,WA,19.518716577540108,NA,NA
98239,Island County,WA,95.72192513368985,NA,NA
98264,Whatcom County,WA,NA,NA,56.75675675675676
98272,Snohomish County,WA,NA,40.469973890339425,NA
98274,Skagit County,WA,83.68983957219251,NA,NA
98311,Kitsap County,WA,NA,49.60835509138381,NA
98312,Kitsap County,WA,NA,NA,73.87387387387388
98366,Kitsap County,WA,NA,NA,85.58558558558559
98371,Pierce County,WA,NA,NA,38.288288288288285
98382,Clallam County,WA,NA,16.971279373368144,NA
98387,Pierce County,WA,NA,59.00783289817232,NA
99206,Spokane County,WA,NA,61.61879895561357,NA
20003,District of Columbia,DC,41.44385026737968,NA,NA
20019,District of Columbia,DC,NA,3.6553524804177546,NA
24901,Greenbrier County,WV,NA,NA,75.67567567567568
25064,Kanawha County,WV,NA,NA,79.27927927927928
25403,Berkeley County,WV,NA,66.31853785900783,NA
25414,Jefferson County,WV,NA,70.75718015665797,NA
25526,Putnam County,WV,32.62032085561498,NA,NA
25570,Wayne County,WV,80.21390374331551,NA,NA
25701,Cabell County,WV,NA,13.577023498694519,NA
25705,Cabell County,WV,NA,18.27676240208877,NA
25901,Fayette County,WV,38.23529411764706,NA,NA
26003,Ohio County,WV,NA,1.5665796344647518,NA
26301,Harrison County,WV,5.347593582887701,NA,NA
26330,Harrison County,WV,36.63101604278075,NA,NA
26501,Monongalia County,WV,14.43850267379679,NA,NA
53092,Ozaukee County,WI,NA,NA,13.513513513513514
53132,Milwaukee County,WI,NA,20.365535248041773,NA
53207,Milwaukee County,WI,20.053475935828878,NA,NA
53209,Milwaukee County,WI,NA,34.20365535248042,NA
53216,Milwaukee County,WI,3.7433155080213902,15.66579634464752,NA
53511,Rock County,WI,NA,77.80678851174935,NA
53538,Jefferson County,WI,NA,68.40731070496084,NA
53558,Dane County,WI,NA,74.93472584856397,NA
53705,Dane County,WI,NA,43.86422976501306,NA
53714,Dane County,WI,NA,78.06788511749347,NA
53717,Dane County,WI,NA,59.268929503916446,NA
53805,Grant County,WI,NA,100,NA
53809,Grant County,WI,98.66310160427807,NA,NA
53925,Columbia County,WI,82.35294117647058,NA,NA
53963,Dodge County,WI,90.64171122994652,NA,NA
54115,Brown County,WI,NA,30.287206266318538,NA
54220,Manitowoc County,WI,NA,NA,0
54241,Manitowoc County,WI,NA,NA,31.53153153153153
54401,Marathon County,WI,NA,29.242819843342037,NA
54451,Taylor County,WI,75.93582887700535,NA,50
54729,Chippewa County,WI,25.13368983957219,NA,NA
54830,Burnett County,WI,NA,98.69451697127938,NA
54981,Waupaca County,WI,NA,NA,69.81981981981981
82201,Platte County,WY,NA,NA,92.34234234234235
82801,Sheridan County,WY,NA,NA,86.93693693693693
