ZipCode,county,state,Adult
35022,Jefferson County,AL,43.0622009569378
35768,Jackson County,AL,66.98564593301435
35810,Madison County,AL,88.99521531100478
99603,Kenai Peninsula Borough,AK,80.38277511961722
99701,Fairbanks North Star Borough,AK,38.27751196172249
85015,Maricopa County,AZ,18.660287081339714
85041,Maricopa County,AZ,8.61244019138756
85205,Maricopa County,AZ,31.100478468899524
85255,Maricopa County,AZ,55.980861244019145
85283,Maricopa County,AZ,18.181818181818183
86004,Coconino County,AZ,6.220095693779904
72315,Mississippi County,AR,58.85167464114832
72758,Benton County,AR,65.07177033492823
90043,Los Angeles County,CA,51.674641148325364
91007,Los Angeles County,CA,93.30143540669856
91739,San Bernardino County,CA,68.89952153110048
92084,San Diego County,CA,64.5933014354067
92311,San Bernardino County,CA,40.19138755980861
92505,Riverside County,CA,79.42583732057416
92530,Riverside County,CA,37.32057416267943
92596,Riverside County,CA,76.55502392344498
92843,Orange County,CA,41.14832535885167
94102,San Francisco County,CA,7.177033492822966
94403,San Mateo County,CA,57.89473684210527
94538,Alameda County,CA,53.588516746411486
95110,Santa Clara County,CA,85.64593301435407
95351,Stanislaus County,CA,22.00956937799043
95361,Stanislaus County,CA,75.5980861244019
95370,Tuolumne County,CA,78.4688995215311
81004,Pueblo County,CO,27.751196172248804
06042,Hartford County,CT,42.58373205741627
06095,Hartford County,CT,45.45454545454545
06105,Hartford County,CT,22.48803827751196
06489,Hartford County,CT,34.44976076555024
06610,Fairfield County,CT,30.62200956937799
06706,New Haven County,CT,66.50717703349282
06877,Fairfield County,CT,80.86124401913875
19943,Kent County,DE,72.24880382775119
32425,Holmes County,FL,62.20095693779905
32526,Escambia County,FL,50.23923444976076
32821,Orange County,FL,84.688995215311
33033,Miami-Dade County,FL,48.32535885167464
33126,Miami-Dade County,FL,72.72727272727273
33319,Broward County,FL,48.803827751196174
33455,Martin County,FL,86.1244019138756
33578,Hillsborough County,FL,37.79904306220095
33852,Highlands County,FL,66.02870813397129
33881,Polk County,FL,41.62679425837321
34135,Lee County,FL,54.54545454545454
34208,Manatee County,FL,29.1866028708134
34237,Sarasota County,FL,64.11483253588517
34947,St. Lucie County,FL,61.72248803827751
30017,Gwinnett County,GA,70.81339712918661
30041,Forsyth County,GA,32.057416267942585
30096,Gwinnett County,GA,30.14354066985646
30103,Bartow County,GA,73.68421052631578
30294,DeKalb County,GA,47.368421052631575
30621,Oconee County,GA,97.1291866028708
96761,Maui County,HI,91.86602870813397
96792,Honolulu County,HI,11.961722488038278
83333,Blaine County,ID,84.21052631578947
83350,Minidoka County,ID,77.03349282296651
83467,Lemhi County,ID,88.51674641148325
83501,Nez Perce County,ID,50.717703349282296
83651,Canyon County,ID,16.74641148325359
83709,Ada County,ID,15.311004784688995
60016,Cook County,IL,25.358851674641148
60164,Cook County,IL,45.933014354066984
60644,Cook County,IL,7.655502392344498
60646,Cook County,IL,55.02392344497608
61080,Winnebago County,IL,88.03827751196172
62226,St. Clair County,IL,49.760765550239235
62703,Sangamon County,IL,32.535885167464116
46176,Shelby County,IN,15.789473684210526
46725,Whitley County,IN,33.014354066985646
47532,Dubois County,IN,98.08612440191388
50801,Union County,IA,44.49760765550239
52317,Johnson County,IA,82.29665071770334
52732,Clinton County,IA,22.966507177033492
40272,Jefferson County,KY,12.918660287081341
40511,Fayette County,KY,43.54066985645933
41230,Lawrence County,KY,28.708133971291865
41701,Perry County,KY,35.406698564593306
41858,Letcher County,KY,63.63636363636363
42053,McCracken County,KY,96.17224880382776
71047,Caddo Parish,LA,58.3732057416268
71251,Jackson Parish,LA,99.04306220095694
20815,Montgomery County,MD,85.16746411483254
20833,Montgomery County,MD,96.65071770334929
20906,Montgomery County,MD,59.33014354066985
01945,Essex County,MA,46.411483253588514
02128,Suffolk County,MA,0
02767,Bristol County,MA,26.794258373205743
48036,Macomb County,MI,31.57894736842105
48228,Wayne County,MI,0.4784688995215311
48312,Macomb County,MI,27.27272727272727
48335,Oakland County,MI,56.45933014354066
48603,Saginaw County,MI,11.483253588516746
49454,Mason County,MI,86.60287081339713
49855,Marquette County,MI,14.354066985645932
55107,Ramsey County,MN,76.07655502392345
55116,Ramsey County,MN,71.77033492822966
55118,Dakota County,MN,55.50239234449761
55119,Ramsey County,MN,12.440191387559809
55371,Mille Lacs County,MN,56.9377990430622
55917,Steele County,MN,100
38732,Bolivar County,MS,42.10526315789473
39213,Hinds County,MS,38.75598086124402
64024,Clay County,MO,17.22488038277512
64157,Clay County,MO,35.88516746411483
65203,Boone County,MO,25.358851674641148
68776,Dakota County,NE,83.25358851674642
89801,Elko County,NV,71.29186602870813
07403,Passaic County,NJ,62.67942583732058
07513,Passaic County,NJ,65.55023923444976
07644,Bergen County,NJ,44.97607655502392
08215,Atlantic County,NJ,39.23444976076555
08852,Middlesex County,NJ,60.76555023923444
08865,Warren County,NJ,4.784688995215311
10002,New York County,NY,3.827751196172249
10018,New York County,NY,92.34449760765551
10032,New York County,NY,10.526315789473683
10040,New York County,NY,70.33492822966507
10472,Bronx County,NY,0.9569377990430622
10710,Westchester County,NY,97.60765550239235
11214,Kings County,NY,52.63157894736842
11563,Nassau County,NY,87.08133971291866
12180,Rensselaer County,NY,1.4354066985645932
12866,Saratoga County,NY,77.51196172248804
13820,Otsego County,NY,9.569377990430622
13901,Broome County,NY,3.349282296650718
14051,Erie County,NY,46.889952153110045
14094,Niagara County,NY,13.397129186602871
14607,Monroe County,NY,19.138755980861244
14624,Monroe County,NY,1.9138755980861244
14845,Chemung County,NY,16.267942583732058
27284,Forsyth County,NC,6.698564593301436
27560,Wake County,NC,77.99043062200957
27616,Wake County,NC,21.5311004784689
27704,Durham County,NC,11.004784688995215
27850,Halifax County,NC,91.38755980861244
28016,Gaston County,NC,51.196172248803826
28112,Union County,NC,52.15311004784689
28152,Cleveland County,NC,40.66985645933015
28352,Scotland County,NC,28.22966507177033
28640,Ashe County,NC,95.21531100478468
28645,Caldwell County,NC,2.8708133971291865
28753,Madison County,NC,83.73205741626795
28806,Buncombe County,NC,44.01913875598086
58203,Grand Forks County,ND,60.28708133971292
58237,Walsh County,ND,93.77990430622009
58368,Pierce County,ND,98.56459330143541
43227,Franklin County,OH,23.444976076555022
43608,Lucas County,OH,8.133971291866029
43755,Guernsey County,OH,99.52153110047847
45040,Warren County,OH,34.92822966507177
45169,Clinton County,OH,79.90430622009569
45249,Hamilton County,OH,92.82296650717703
45806,Allen County,OH,68.89952153110048
45840,Hancock County,OH,2.3923444976076556
73096,Custer County,OK,69.85645933014354
73110,Oklahoma County,OK,17.703349282296653
97236,Multnomah County,OR,20.095693779904305
97338,Polk County,OR,52.63157894736842
15210,Allegheny County,PA,14.832535885167463
15909,Cambria County,PA,90.43062200956938
16127,Mercer County,PA,74.16267942583733
16335,Crawford County,PA,10.047846889952153
16509,Erie County,PA,95.69377990430623
17050,Cumberland County,PA,23.923444976076556
18052,Lehigh County,PA,19.617224880382775
18504,Lackawanna County,PA,33.014354066985646
19139,Philadelphia County,PA,4.30622009569378
02886,Kent County,RI,82.77511961722487
29303,Spartanburg County,SC,49.282296650717704
29455,Charleston County,SC,57.41626794258373
29706,Chester County,SC,36.36363636363637
37604,Washington County,TN,20.574162679425836
37754,Anderson County,TN,94.25837320574163
37918,Knox County,TN,13.875598086124402
38310,McNairy County,TN,94.73684210526315
75063,Dallas County,TX,63.1578947368421
75216,Dallas County,TX,5.741626794258373
75240,Dallas County,TX,73.20574162679426
75462,Lamar County,TX,90.9090909090909
75647,Gregg County,TX,67.94258373205741
77051,Harris County,TX,61.24401913875598
77459,Fort Bend County,TX,24.880382775119617
77573,Galveston County,TX,9.090909090909092
77701,Jefferson County,TX,81.3397129186603
78130,Comal County,TX,24.401913875598087
78220,Bexar County,TX,67.46411483253588
78242,Bexar County,TX,54.066985645933016
78602,Bastrop County,TX,68.42105263157895
78645,Travis County,TX,89.95215311004785
78746,Travis County,TX,78.94736842105263
78750,Travis County,TX,89.47368421052632
79107,Potter County,TX,36.84210526315789
84005,Utah County,UT,81.81818181818183
84047,Salt Lake County,UT,29.665071770334926
84088,Salt Lake County,UT,39.71291866028708
84404,Weber County,UT,21.052631578947366
84651,Utah County,UT,74.64114832535886
20190,Fairfax County,VA,87.5598086124402
23518,Norfolk city,VA,47.84688995215311
24017,Roanoke city,VA,26.31578947368421
24740,Mercer County,WV,33.97129186602871
26508,Monongalia County,WV,5.263157894736842
54449,Wood County,WI,75.11961722488039
54650,La Crosse County,WI,59.80861244019139
