ZipCode,county,state,Adult
35005,Jefferson County,AL,94.34060228452752
35020,Jefferson County,AL,40.965732087227416
35179,Cullman County,AL,96.98857736240913
35206,Jefferson County,AL,59.865005192108
35209,Jefferson County,AL,75.75285565939771
35215,Jefferson County,AL,29.179646936656283
35226,Jefferson County,AL,45.37902388369678
35228,Jefferson County,AL,83.28141225337488
35235,Jefferson County,AL,52.85565939771547
35242,Shelby County,AL,62.2533748701973
35401,Tuscaloosa County,AL,21.806853582554517
35405,Tuscaloosa County,AL,6.074766355140187
35466,Pickens County,AL,85.61786085150571
35601,Morgan County,AL,39.66770508826583
35630,Lauderdale County,AL,61.111111111111114
35633,Lauderdale County,AL,52.85565939771547
35652,Lauderdale County,AL,92.21183800623052
35661,Colbert County,AL,85.15057113187953
35674,Colbert County,AL,31.308411214953267
35758,Madison County,AL,34.83904465212876
35951,Marshall County,AL,62.72066458982347
35957,Marshall County,AL,84.99480789200416
35967,DeKalb County,AL,62.35721703011423
35986,DeKalb County,AL,77.3104880581516
36033,Butler County,AL,98.23468328141225
36067,Autauga County,AL,31.775700934579437
36089,Bullock County,AL,91.53686396677051
36092,Elmore County,AL,42.41952232606438
36108,Montgomery County,AL,38.57736240913811
36110,Montgomery County,AL,89.35617860851505
36117,Montgomery County,AL,28.76427829698858
36360,Dale County,AL,43.97715472481828
36522,Mobile County,AL,87.43509865005193
36551,Baldwin County,AL,75.4932502596054
36575,Mobile County,AL,56.230529595015575
36608,Mobile County,AL,41.17341640706127
36609,Mobile County,AL,56.74974039460021
36701,Dallas County,AL,23.624091381100726
36726,Wilcox County,AL,86.18899273104881
36732,Marengo County,AL,72.32606438213914
99502,Anchorage Municipality,AK,49.63655244029076
99504,Anchorage Municipality,AK,18.22429906542056
99615,Kodiak Island Borough,AK,79.95846313603323
85009,Maricopa County,AZ,10.74766355140187
85013,Maricopa County,AZ,46.10591900311526
85016,Maricopa County,AZ,39.719626168224295
85019,Maricopa County,AZ,34.94288681204569
85032,Maricopa County,AZ,11.941848390446522
85033,Maricopa County,AZ,12.980269989615783
85037,Maricopa County,AZ,21.49532710280374
85041,Maricopa County,AZ,6.5939771547248185
85053,Maricopa County,AZ,42.834890965732086
85203,Maricopa County,AZ,33.59293873312565
85204,Maricopa County,AZ,60.79958463136034
85208,Maricopa County,AZ,41.48494288681205
85225,Maricopa County,AZ,9.44963655244029
85283,Maricopa County,AZ,15.005192107995846
85296,Maricopa County,AZ,28.971962616822427
85301,Maricopa County,AZ,37.7466251298027
85326,Maricopa County,AZ,24.81827622014538
85335,Maricopa County,AZ,63.91484942886812
85345,Maricopa County,AZ,37.64278296988577
85349,Yuma County,AZ,30.218068535825545
85614,Pima County,AZ,70.61266874350987
85705,Pima County,AZ,15.991692627206646
85712,Pima County,AZ,78.97196261682244
85716,Pima County,AZ,14.485981308411214
85746,Pima County,AZ,10.020768431983386
86001,Coconino County,AZ,17.1858774662513
86004,Coconino County,AZ,4.9325025960539985
86040,Coconino County,AZ,62.46105919003115
86045,Coconino County,AZ,21.18380062305296
86314,Yavapai County,AZ,13.447559709241952
86327,Yavapai County,AZ,91.95223260643822
86429,Mohave County,AZ,87.79854620976117
86442,Mohave County,AZ,93.35410176531673
86538,Apache County,AZ,96.72897196261682
72206,Pulaski County,AR,50.9865005192108
72335,St. Francis County,AR,86.50051921079958
72712,Benton County,AR,74.66251298027
72758,Benton County,AR,56.85358255451713
72764,Washington County,AR,34.319833852544136
90003,Los Angeles County,CA,31.61993769470405
90005,Los Angeles County,CA,87.07165109034268
90007,Los Angeles County,CA,59.086188992731046
90011,Los Angeles County,CA,81.46417445482867
90018,Los Angeles County,CA,67.13395638629284
90019,Los Angeles County,CA,36.81204569055036
90029,Los Angeles County,CA,59.65732087227414
90042,Los Angeles County,CA,78.19314641744548
90044,Los Angeles County,CA,25.4932502596054
90057,Los Angeles County,CA,88.3177570093458
90064,Los Angeles County,CA,23.727933541017656
90068,Los Angeles County,CA,85.51401869158879
90201,Los Angeles County,CA,26.895119418483905
90241,Los Angeles County,CA,51.45379023883697
90242,Los Angeles County,CA,71.28764278296988
90250,Los Angeles County,CA,86.44859813084112
90303,Los Angeles County,CA,89.77154724818276
90603,Los Angeles County,CA,77.36240913811008
90638,Los Angeles County,CA,52.75181723779855
90650,Los Angeles County,CA,14.589823468328142
90732,Los Angeles County,CA,81.77570093457945
90740,Orange County,CA,66.30321910695743
90803,Los Angeles County,CA,73.57217030114226
90804,Los Angeles County,CA,41.64070612668744
91103,Los Angeles County,CA,95.11941848390447
91205,Los Angeles County,CA,66.7705088265836
91335,Los Angeles County,CA,26.843198338525443
91342,Los Angeles County,CA,77.72585669781932
91351,Los Angeles County,CA,61.63032191069574
91352,Los Angeles County,CA,21.806853582554517
91402,Los Angeles County,CA,88.11007268951194
91405,Los Angeles County,CA,40.913811007268954
91406,Los Angeles County,CA,49.11734164070612
91601,Los Angeles County,CA,86.13707165109035
91602,Los Angeles County,CA,78.8681204569055
91701,San Bernardino County,CA,21.547248182762203
91702,Los Angeles County,CA,84.83904465212876
91730,San Bernardino County,CA,77.25856697819314
91732,Los Angeles County,CA,37.79854620976116
91764,San Bernardino County,CA,33.177570093457945
91766,Los Angeles County,CA,69.21079958463136
91790,Los Angeles County,CA,50.467289719626166
91910,San Diego County,CA,21.339563862928348
91911,San Diego County,CA,20.24922118380062
91941,San Diego County,CA,82.03530633437175
91945,San Diego County,CA,57.63239875389408
92021,San Diego County,CA,12.201453790238837
92028,San Diego County,CA,60.95534787123572
92058,San Diego County,CA,86.7601246105919
92064,San Diego County,CA,47.19626168224299
92065,San Diego County,CA,97.66355140186917
92078,San Diego County,CA,51.09034267912772
92113,San Diego County,CA,55.140186915887845
92117,San Diego County,CA,54.72481827622014
92139,San Diego County,CA,69.52232606438213
92154,San Diego County,CA,34.008307372793354
92227,Imperial County,CA,37.38317757009346
92233,Imperial County,CA,99.32502596053997
92240,Riverside County,CA,18.38006230529595
92243,Imperial County,CA,86.91588785046729
92251,Imperial County,CA,68.79543094496366
92260,Riverside County,CA,52.440290758047766
92284,San Bernardino County,CA,72.74143302180686
92307,San Bernardino County,CA,23.98753894080997
92308,San Bernardino County,CA,46.26168224299065
92311,San Bernardino County,CA,66.04361370716511
92336,San Bernardino County,CA,32.398753894081
92342,San Bernardino County,CA,98.18276220145378
92345,San Bernardino County,CA,54.04984423676012
92346,San Bernardino County,CA,23.156801661474557
92371,San Bernardino County,CA,99.89615784008308
92376,San Bernardino County,CA,78.50467289719626
92392,San Bernardino County,CA,48.0269989615784
92395,San Bernardino County,CA,57.78816199376947
92503,Riverside County,CA,16.355140186915886
92504,Riverside County,CA,38.52544132917965
92505,Riverside County,CA,43.509865005192104
92530,Riverside County,CA,30.63343717549325
92543,Riverside County,CA,36.24091381100727
92548,Riverside County,CA,93.25025960539979
92553,Riverside County,CA,82.55451713395638
92563,Riverside County,CA,62.98026998961579
92571,Riverside County,CA,68.89927310488058
92582,Riverside County,CA,69.67808930425753
92649,Orange County,CA,79.80269989615783
92660,Orange County,CA,82.86604361370716
92677,Orange County,CA,28.452751817237797
92691,Orange County,CA,49.584631360332295
92701,Orange County,CA,91.01765316718587
92706,Orange County,CA,95.95015576323988
92707,Orange County,CA,39.25233644859813
92806,Orange County,CA,54.153686396677045
92870,Orange County,CA,33.3852544132918
92882,Riverside County,CA,59.813084112149525
93003,Ventura County,CA,12.305295950155763
93035,Ventura County,CA,65.2128764278297
93060,Ventura County,CA,33.177570093457945
93117,Santa Barbara County,CA,80.94496365524402
93204,Kings County,CA,92.93873312564901
93215,Kern County,CA,56.59397715472482
93257,Tulare County,CA,38.88888888888889
93274,Tulare County,CA,23.00103842159917
93277,Tulare County,CA,21.443406022845274
93291,Tulare County,CA,17.497403946002077
93292,Tulare County,CA,89.56386292834891
93309,Kern County,CA,76.63551401869158
93313,Kern County,CA,77.36240913811008
93436,Santa Barbara County,CA,12.668743509865005
93445,San Luis Obispo County,CA,93.04257528556595
93455,Santa Barbara County,CA,27.570093457943923
93458,Santa Barbara County,CA,11.214953271028037
93501,Kern County,CA,98.13084112149532
93505,Kern County,CA,95.27518172377985
93534,Los Angeles County,CA,33.12564901349948
93550,Los Angeles County,CA,10.539979231568017
93552,Los Angeles County,CA,55.24402907580478
93555,Kern County,CA,21.23572170301142
93560,Kern County,CA,74.71443406022846
93609,Fresno County,CA,99.16926272066459
93630,Fresno County,CA,96.15784008307374
93638,Madera County,CA,15.36863966770509
93662,Fresno County,CA,53.84215991692627
93701,Fresno County,CA,72.58566978193146
93703,Fresno County,CA,95.74247144340602
93705,Fresno County,CA,78.14122533748701
93710,Fresno County,CA,84.00830737279335
93711,Fresno County,CA,64.33021806853583
93737,Fresno County,CA,96.57320872274143
93901,Monterey County,CA,99.0134994807892
93905,Monterey County,CA,67.0301142263759
94002,San Mateo County,CA,53.32294911734164
94027,San Mateo County,CA,95.6386292834891
94043,Santa Clara County,CA,71.80685358255452
94062,San Mateo County,CA,53.426791277258566
94086,Santa Clara County,CA,91.17341640706127
94110,San Francisco County,CA,10.228452751817239
94122,San Francisco County,CA,43.873312564901354
94404,San Mateo County,CA,69.52232606438213
94509,Contra Costa County,CA,52.18068535825545
94544,Alameda County,CA,87.01973001038421
94549,Contra Costa County,CA,79.54309449636553
94564,Contra Costa County,CA,82.8141225337487
94568,Alameda County,CA,97.14434060228453
94577,Alameda County,CA,32.86604361370716
94602,Alameda County,CA,92.57528556593977
94603,Alameda County,CA,74.14330218068535
94706,Alameda County,CA,91.74454828660437
94806,Contra Costa County,CA,30.166147455867083
94903,Marin County,CA,72.79335410176532
95020,Santa Clara County,CA,28.19314641744548
95051,Santa Clara County,CA,41.90031152647975
95076,Santa Cruz County,CA,16.147455867082037
95111,Santa Clara County,CA,67.39356178608516
95116,Santa Clara County,CA,39.77154724818276
95118,Santa Clara County,CA,91.90031152647975
95127,Santa Clara County,CA,69.93769470404985
95128,Santa Clara County,CA,80.47767393561787
95207,San Joaquin County,CA,18.016614745586708
95301,Merced County,CA,43.04257528556594
95307,Stanislaus County,CA,27.8816199376947
95320,San Joaquin County,CA,70.66458982346833
95355,Stanislaus County,CA,6.4901349948078915
95358,Stanislaus County,CA,26.583592938733126
95361,Stanislaus County,CA,38.006230529595015
95382,Stanislaus County,CA,20.924195223260643
95401,Sonoma County,CA,55.295950155763244
95482,Mendocino County,CA,66.51090342679127
95501,Humboldt County,CA,49.94807892004154
95521,Humboldt County,CA,82.45067497403946
95624,Sacramento County,CA,44.39252336448598
95691,Yolo County,CA,50.415368639667705
95726,El Dorado County,CA,79.17964693665628
95746,Placer County,CA,79.07580477673936
95821,Sacramento County,CA,39.3042575285566
95822,Sacramento County,CA,35.61786085150571
95824,Sacramento County,CA,80.78920041536864
95838,Sacramento County,CA,31.879543094496366
95901,Yuba County,CA,20.093457943925234
95926,Butte County,CA,30.114226375908622
95948,Butte County,CA,95.69055036344756
95953,Sutter County,CA,93.82139148494288
95965,Butte County,CA,82.71028037383178
95966,Butte County,CA,7.892004153686397
95991,Sutter County,CA,24.81827622014538
96021,Tehama County,CA,72.6895119418484
96022,Tehama County,CA,78.19314641744548
96130,Lassen County,CA,72.22222222222221
96161,Nevada County,CA,87.95430944963655
80007,Jefferson County,CO,88.62928348909658
80012,Arapahoe County,CO,8.878504672897195
80013,Arapahoe County,CO,7.580477673935618
80014,Arapahoe County,CO,61.889927310488055
80033,Jefferson County,CO,47.09241952232606
80107,Elbert County,CO,88.1619937694704
80128,Jefferson County,CO,56.64589823468328
80129,Douglas County,CO,90.49844236760126
80134,Douglas County,CO,22.118380062305295
80204,Denver County,CO,51.86915887850467
80207,Denver County,CO,39.56386292834891
80210,Denver County,CO,52.69989615784009
80214,Jefferson County,CO,37.954309449636554
80216,Denver County,CO,93.87331256490134
80230,Denver County,CO,91.64070612668743
80231,Denver County,CO,67.54932502596054
80234,Adams County,CO,60.43613707165109
80236,Denver County,CO,79.95846313603323
80249,Denver County,CO,32.76220145379024
80301,Boulder County,CO,56.80166147455867
80538,Larimer County,CO,9.657320872274143
80550,Weld County,CO,26.012461059190027
80620,Weld County,CO,72.06645898234683
80621,Weld County,CO,72.32606438213914
80631,Weld County,CO,28.245067497403948
80701,Morgan County,CO,18.32814122533749
80723,Morgan County,CO,95.22326064382139
80817,El Paso County,CO,50.67497403946002
80916,El Paso County,CO,33.021806853582554
80918,El Paso County,CO,73.00103842159918
81001,Pueblo County,CO,17.91277258566978
81082,Las Animas County,CO,62.56490134994807
81201,Chaffee County,CO,80.32191069574247
81416,Delta County,CO,70.92419522326064
81425,Montrose County,CO,95.06749740394599
81501,Mesa County,CO,41.22533748701973
81520,Mesa County,CO,89.20041536863967
81601,Garfield County,CO,77.20664589823468
06032,Hartford County,CT,76.11630321910697
06051,Hartford County,CT,2.4922118380062304
06098,Litchfield County,CT,74.61059190031153
06112,Hartford County,CT,45.27518172377986
06120,Hartford County,CT,46.88473520249221
06239,Windham County,CT,31.775700934579437
06260,Windham County,CT,27.102803738317753
06473,New Haven County,CT,66.6147455867082
06511,New Haven County,CT,3.322949117341641
06514,New Haven County,CT,30.78920041536864
06516,New Haven County,CT,5.347871235721703
06519,New Haven County,CT,54.51713395638629
06605,Fairfield County,CT,29.906542056074763
06606,Fairfield County,CT,14.589823468328142
06608,Fairfield County,CT,61.163032191069576
06612,Fairfield County,CT,97.71547248182763
06702,New Haven County,CT,83.02180685358256
06704,New Haven County,CT,18.483904465212877
06705,New Haven County,CT,19.314641744548286
06706,New Haven County,CT,57.11318795430945
06801,Fairfield County,CT,67.80893042575286
06902,Fairfield County,CT,17.549325025960542
19720,New Castle County,DE,13.707165109034266
19802,New Castle County,DE,11.786085150571132
19934,Kent County,DE,68.63966770508827
19943,Kent County,DE,64.38213914849429
19946,Kent County,DE,98.39044652128764
19960,Sussex County,DE,73.46832814122534
19962,Kent County,DE,72.481827622014535
32025,Columbia County,FL,34.57943925233645
32043,Clay County,FL,41.58878504672897
32046,Nassau County,FL,76.79127725856698
32064,Suwannee County,FL,94.0809968847352
32066,Lafayette County,FL,96.36552440290758
32080,St. Johns County,FL,88.7331256490135
32092,St. Johns County,FL,49.48078920041537
32114,Volusia County,FL,19.36656282450675
32117,Volusia County,FL,29.023883696780896
32129,Volusia County,FL,94.75597092419522
32204,Duval County,FL,62.30529595015576
32206,Duval County,FL,51.76531671858775
32208,Duval County,FL,0.5192107995846313
32209,Duval County,FL,51.92107995846313
32211,Duval County,FL,17.653167185877468
32222,Duval County,FL,73.83177570093457
32225,Duval County,FL,75.02596053997922
32244,Duval County,FL,3.9460020768431985
32250,Duval County,FL,57.06126687435099
32304,Leon County,FL,54.04984423676012
32311,Leon County,FL,98.0269989615784
32327,Wakulla County,FL,74.87019730010385
32401,Bay County,FL,34.42367601246106
32536,Okaloosa County,FL,57.424714434060235
32539,Okaloosa County,FL,36.44859813084112
32541,Okaloosa County,FL,63.862928348909655
32547,Okaloosa County,FL,38.68120456905504
32608,Alachua County,FL,5.607476635514018
32656,Clay County,FL,67.34164070612668
32725,Volusia County,FL,65.00519210799584
32726,Lake County,FL,50.05192107995846
32738,Volusia County,FL,33.07372793354102
32757,Lake County,FL,54.56905503634476
32763,Volusia County,FL,57.89200415368639
32776,Lake County,FL,81.77570093457945
32808,Orange County,FL,43.19833852544133
32821,Orange County,FL,79.75077881619937
32839,Orange County,FL,23.05295950155763
32927,Brevard County,FL,51.14226375908619
32934,Brevard County,FL,69.67808930425753
32958,Indian River County,FL,65.57632398753894
32967,Indian River County,FL,44.600207684319834
33010,Miami-Dade County,FL,63.18795430944964
33012,Miami-Dade County,FL,41.43302180685358
33023,Broward County,FL,16.303219106957425
33026,Broward County,FL,82.76220145379024
33035,Miami-Dade County,FL,92.31568016614744
33037,Monroe County,FL,88.99273104880582
33063,Broward County,FL,38.161993769470406
33068,Broward County,FL,90.44652128764278
33135,Miami-Dade County,FL,72.89719626168224
33137,Miami-Dade County,FL,92.83489096573209
33138,Miami-Dade County,FL,68.01661474558671
33147,Miami-Dade County,FL,28.089304257528557
33160,Miami-Dade County,FL,63.70716510903427
33165,Miami-Dade County,FL,82.60643821391484
33174,Miami-Dade County,FL,70.50882658359295
33180,Miami-Dade County,FL,78.03738317757009
33183,Miami-Dade County,FL,76.4797507788162
33185,Miami-Dade County,FL,77.10280373831776
33193,Miami-Dade County,FL,60.33229491173417
33309,Broward County,FL,81.61993769470405
33311,Broward County,FL,46.36552440290758
33312,Broward County,FL,30.581516095534788
33313,Broward County,FL,78.6085150571132
33324,Broward County,FL,65.73208722741433
33404,Palm Beach County,FL,80.99688473520249
33407,Palm Beach County,FL,25.70093457943925
33436,Palm Beach County,FL,53.84215991692627
33460,Palm Beach County,FL,73.00103842159918
33463,Palm Beach County,FL,46.26168224299065
33476,Palm Beach County,FL,93.97715472481828
33511,Hillsborough County,FL,67.23779854620976
33541,Pasco County,FL,75.33748701973
33542,Pasco County,FL,89.40809968847351
33556,Hillsborough County,FL,71.91069574247145
33563,Hillsborough County,FL,45.32710280373832
33566,Hillsborough County,FL,55.86708203530634
33570,Hillsborough County,FL,61.37071651090342
33584,Hillsborough County,FL,79.64693665628245
33619,Hillsborough County,FL,64.74558670820353
33624,Hillsborough County,FL,51.14226375908619
33705,Pinellas County,FL,24.610591900311526
33710,Pinellas County,FL,47.66355140186916
33781,Pinellas County,FL,74.03946002076843
33809,Polk County,FL,45.84631360332295
33844,Polk County,FL,34.57943925233645
33852,Highlands County,FL,56.957424714434055
33853,Polk County,FL,85.98130841121495
33860,Polk County,FL,58.151609553478714
33880,Polk County,FL,19.937694704049843
33936,Lee County,FL,45.638629283489095
33954,Charlotte County,FL,91.32917964693665
33955,Charlotte County,FL,97.55970924195223
33967,Lee County,FL,81.77570093457945
33973,Lee County,FL,85.04672897196261
33981,Charlotte County,FL,91.8483904465213
34210,Manatee County,FL,84.68328141225338
34234,Sarasota County,FL,36.55244029075805
34470,Marion County,FL,47.87123572170301
34488,Marion County,FL,70.14537902388369
34609,Hernando County,FL,84.89096573208724
34610,Pasco County,FL,63.75908618899273
34639,Pasco County,FL,78.50467289719626
34668,Pasco County,FL,69.62616822429906
34669,Pasco County,FL,74.76635514018692
34691,Pasco County,FL,41.848390446521286
34711,Lake County,FL,18.587746625129803
34715,Lake County,FL,52.388369678089305
34741,Osceola County,FL,19.833852544132917
34743,Osceola County,FL,44.75597092419522
34746,Osceola County,FL,32.191069574247145
34748,Lake County,FL,16.926272066458985
34758,Osceola County,FL,52.59605399792315
34761,Orange County,FL,35.82554517133956
34771,Osceola County,FL,88.52544132917964
34947,St. Lucie County,FL,78.66043613707166
34953,St. Lucie County,FL,21.962616822429908
34957,Martin County,FL,46.93665628245067
34982,St. Lucie County,FL,51.298026998961575
30011,Barrow County,GA,68.48390446521287
30013,Rockdale County,GA,42.938733125649016
30014,Newton County,GA,22.84527518172378
30032,DeKalb County,GA,9.865005192107997
30035,DeKalb County,GA,55.347871235721705
30039,Gwinnett County,GA,35.51401869158878
30043,Gwinnett County,GA,19.055036344755973
30058,DeKalb County,GA,50.93457943925234
30060,Cobb County,GA,34.994807892004154
30084,DeKalb County,GA,60.59190031152648
30110,Haralson County,GA,62.149532710280376
30116,Carroll County,GA,44.91173416407061
30117,Carroll County,GA,28.556593977154726
30126,Cobb County,GA,71.59916926272066
30127,Cobb County,GA,15.109034267912772
30157,Paulding County,GA,22.585669781931465
30161,Floyd County,GA,15.939771547248183
30175,Pickens County,GA,91.1214953271028
30184,Bartow County,GA,93.71754932502596
30236,Clayton County,GA,61.78608515057113
30253,Henry County,GA,22.37798546209761
30263,Coweta County,GA,34.112149532710276
30265,Coweta County,GA,76.73935617860852
30294,DeKalb County,GA,37.850467289719624
30311,Fulton County,GA,12.2533748701973
30314,Fulton County,GA,40.86188992731049
30417,Evans County,GA,78.8681204569055
30439,Candler County,GA,82.9698857736241
30458,Bulloch County,GA,29.335410176531674
30507,Hall County,GA,40.55036344755971
30542,Hall County,GA,49.89615784008307
30643,Hart County,GA,61.73416407061267
30680,Barrow County,GA,17.289719626168225
30705,Murray County,GA,25.908618899273105
30721,Whitfield County,GA,20.5607476635514
30725,Walker County,GA,93.76947040498442
30752,Dade County,GA,57.37279335410177
30813,Columbia County,GA,27.570093457943923
30906,Richmond County,GA,47.97507788161994
31021,Laurens County,GA,35.72170301142264
31093,Houston County,GA,28.868120456905505
31313,Liberty County,GA,62.66874350986501
31401,Chatham County,GA,63.49948078920041
31501,Ware County,GA,63.65524402907581
39819,Decatur County,GA,95.84631360332295
96701,Honolulu County,HI,29.8546209761163
96720,Hawaii County,HI,28.712357217030117
96740,Hawaii County,HI,58.72274143302181
96756,Kauai County,HI,96.4693665628245
96778,Hawaii County,HI,67.80893042575286
96822,Honolulu County,HI,36.033229491173415
83201,Bannock County,ID,19.158878504672895
83401,Bonneville County,ID,11.734164070612668
83440,Madison County,ID,88.42159916926272
83442,Jefferson County,ID,39.3042575285566
83634,Ada County,ID,36.65628245067498
83642,Ada County,ID,14.537902388369679
83705,Ada County,ID,59.91692627206646
83814,Kootenai County,ID,29.543094496365523
83815,Kootenai County,ID,31.931464174454828
83835,Kootenai County,ID,80.4257528556594
60120,Kane County,IL,23.779854620976117
60126,DuPage County,IL,7.632398753894081
60169,Cook County,IL,44.652128764278295
60302,Cook County,IL,29.49117341640706
60402,Cook County,IL,9.293873312564902
60435,Will County,IL,7.995846313603323
60447,Grundy County,IL,54.361370716510905
60468,Will County,IL,95.37902388369677
60478,Cook County,IL,75.85669781931465
60514,DuPage County,IL,90.65420560747664
60520,DeKalb County,IL,98.90965732087228
60560,Kendall County,IL,40.2907580477674
60565,DuPage County,IL,26.947040498442366
60586,Will County,IL,11.682242990654206
60607,Cook County,IL,46.469366562824504
60624,Cook County,IL,12.461059190031152
60625,Cook County,IL,8.722741433021806
60631,Cook County,IL,61.99376947040498
60634,Cook County,IL,7.840083073727934
60636,Cook County,IL,29.646936656282453
60651,Cook County,IL,6.230529595015576
60652,Cook County,IL,83.69678089304257
60657,Cook County,IL,17.39356178608515
60805,Cook County,IL,69.98961578400831
61356,Bureau County,IL,72.17030114226375
61455,McDonough County,IL,84.06022845275182
61554,Tazewell County,IL,25.285565939771548
62025,Madison County,IL,64.27829698857737
62095,Madison County,IL,81.10072689511942
62521,Macon County,IL,10.176531671858775
62703,Sangamon County,IL,26.116303219106957
62704,Sangamon County,IL,43.613707165109034
62806,Edwards County,IL,96.93665628245067
46016,Madison County,IN,11.578400830737278
46037,Hamilton County,IN,64.17445482866043
46052,Boone County,IN,39.20041536863967
46055,Hancock County,IN,79.0238836967809
46142,Johnson County,IN,71.3914849428868
46143,Johnson County,IN,20.093457943925234
46160,Brown County,IN,94.70404984423676
46218,Marion County,IN,73.5202492211838
46222,Marion County,IN,16.770508826583594
46224,Marion County,IN,27.206645898234683
46227,Marion County,IN,31.516095534787127
46237,Marion County,IN,48.65005192107996
46241,Marion County,IN,16.87435098650052
46254,Marion County,IN,69.47040498442367
46260,Marion County,IN,42.679127725856695
46311,Lake County,IN,27.93354101765317
46319,Lake County,IN,23.156801661474557
46408,Lake County,IN,43.71754932502596
46410,Lake County,IN,25.38940809968847
46514,Elkhart County,IN,25.908618899273105
46516,Elkhart County,IN,13.811007268951196
46526,Elkhart County,IN,54.56905503634476
46619,St. Joseph County,IN,51.97300103842159
46703,Steuben County,IN,49.0134994807892
46714,Wells County,IN,55.55555555555556
46733,Adams County,IN,39.04465212876428
46774,Allen County,IN,83.17757009345794
46803,Allen County,IN,94.91173416407062
46806,Allen County,IN,23.416407061266874
46807,Allen County,IN,48.96157840083074
46816,Allen County,IN,25.649013499480787
46825,Allen County,IN,34.73520249221183
46835,Allen County,IN,28.34890965732087
46901,Howard County,IN,11.007268951194185
46923,Carroll County,IN,79.54309449636553
46992,Wabash County,IN,29.95846313603323
47025,Dearborn County,IN,36.863966770508824
47150,Floyd County,IN,8.359293873312565
47170,Scott County,IN,82.398753894081
47201,Bartholomew County,IN,36.60436137071651
47265,Jennings County,IN,53.99792315680166
47305,Delaware County,IN,94.75597092419522
47336,Jay County,IN,98.54620976116303
47374,Wayne County,IN,3.167185877466251
47512,Knox County,IN,96.57320872274143
47591,Knox County,IN,32.035306334371754
47630,Warrick County,IN,71.59916926272066
47714,Vanderburgh County,IN,10.955347871235722
47720,Vanderburgh County,IN,72.11838006230529
47807,Vigo County,IN,43.30218068535825
47834,Clay County,IN,27.725856697819314
47905,Tippecanoe County,IN,70.19730010384217
47909,Tippecanoe County,IN,35.72170301142264
50213,Clarke County,IA,76.27206645898235
50317,Polk County,IA,35.66978193146417
50511,Kossuth County,IA,90.86188992731049
50595,Hamilton County,IA,75.96053997923157
51501,Pottawattamie County,IA,14.849428868120457
52240,Johnson County,IA,51.505711318795434
52302,Linn County,IA,17.86085150571132
52403,Linn County,IA,39.61578400830737
52544,Appanoose County,IA,38.7331256490135
52627,Lee County,IA,41.53686396677051
52722,Scott County,IA,50.62305295950156
52806,Scott County,IA,17.601246105919003
66012,Wyandotte County,KS,87.90238836967809
66062,Johnson County,KS,8.255451713395638
66106,Wyandotte County,KS,44.02907580477674
66209,Johnson County,KS,93.19833852544133
67005,Cowley County,KS,51.60955347871236
67060,Sedgwick County,KS,93.0944963655244
40014,Oldham County,KY,67.44548286604362
40033,Marion County,KY,56.230529595015575
40069,Washington County,KY,65.47248182762202
40175,Hardin County,KY,55.71131879543094
40210,Jefferson County,KY,38.26583592938733
40228,Jefferson County,KY,63.29179646936657
40229,Jefferson County,KY,9.501557632398754
40241,Jefferson County,KY,48.701973001038425
40272,Jefferson County,KY,10.851505711318795
40324,Scott County,KY,59.761163032191064
40422,Boyle County,KY,45.11941848390447
40484,Lincoln County,KY,66.82242990654206
40505,Fayette County,KY,19.88577362409138
40517,Fayette County,KY,17.808930425752855
40741,Laurel County,KY,18.639667705088268
40823,Harlan County,KY,76.11630321910697
40906,Knox County,KY,62.876427829698855
40965,Bell County,KY,22.84527518172378
40977,Bell County,KY,88.47352024922118
41015,Kenton County,KY,22.741433021806852
41031,Harrison County,KY,53.16718587746625
41035,Grant County,KY,43.25025960539979
41042,Boone County,KY,56.12668743509865
41048,Boone County,KY,93.92523364485982
41051,Kenton County,KY,33.95638629283489
41075,Campbell County,KY,68.17237798546209
41101,Boyd County,KY,14.330218068535824
41553,Pike County,KY,97.71547248182763
41822,Knott County,KY,99.27310488058151
42003,McCracken County,KY,11.578400830737278
42127,Barren County,KY,65.93977154724818
42141,Barren County,KY,9.553478712357217
42164,Allen County,KY,81.93146417445483
42240,Christian County,KY,4.7767393561786085
42261,Butler County,KY,83.64485981308411
42330,Muhlenberg County,KY,67.65316718587746
42437,Union County,KY,73.67601246105919
42743,Green County,KY,64.90134994807892
70030,St. Charles Parish,LA,87.79854620976117
70041,Plaquemines Parish,LA,98.70197300103843
70058,Jefferson Parish,LA,1.3499480789200415
70062,Jefferson Parish,LA,48.23468328141225
70065,Jefferson Parish,LA,78.40083073727934
70068,St. John the Baptist Parish,LA,74.29906542056075
70072,Jefferson Parish,LA,30.99688473520249
70090,St. James Parish,LA,90.03115264797508
70117,Orleans Parish,LA,74.87019730010385
70118,Orleans Parish,LA,92.00415368639668
70119,Orleans Parish,LA,38.058151609553484
70125,Orleans Parish,LA,31.723779854620975
70127,Orleans Parish,LA,47.559709241952234
70128,Orleans Parish,LA,13.655244029075805
70129,Orleans Parish,LA,89.51194184839044
70301,Lafourche Parish,LA,27.41433021806853
70359,Terrebonne Parish,LA,26.99896157840083
70360,Terrebonne Parish,LA,90.18691588785047
70363,Terrebonne Parish,LA,73.41640706126688
70364,Terrebonne Parish,LA,90.96573208722741
70394,Lafourche Parish,LA,16.822429906542055
70395,Terrebonne Parish,LA,93.14641744548287
70403,Tangipahoa Parish,LA,79.85462097611631
70438,Washington Parish,LA,10.59190031152648
70443,Tangipahoa Parish,LA,92.41952232606438
70458,St. Tammany Parish,LA,3.8421599169262723
70460,St. Tammany Parish,LA,96.2097611630322
70466,Tangipahoa Parish,LA,77.518172377985465
70501,Lafayette Parish,LA,86.3447559709242
70506,Lafayette Parish,LA,4.205607476635514
70514,St. Mary Parish,LA,99.48078920041536
70517,St. Martin Parish,LA,10.384215991692628
70544,Iberia Parish,LA,29.595015576323984
70548,Vermilion Parish,LA,30.4257528556594
70560,Iberia Parish,LA,1.557632398753894
70563,Iberia Parish,LA,33.90446521287643
70570,St. Landry Parish,LA,44.85981308411215
70577,St. Landry Parish,LA,89.97923156801662
70578,Acadia Parish,LA,95.53478712357217
70582,St. Martin Parish,LA,75.90861889927311
70601,Calcasieu Parish,LA,0.9345794392523363
70607,Calcasieu Parish,LA,40.13499480789201
70611,Calcasieu Parish,LA,24.766355140186917
70757,Iberville Parish,LA,87.69470404984425
70802,East Baton Rouge Parish,LA,73.15680166147456
70806,East Baton Rouge Parish,LA,59.39771547248183
70810,East Baton Rouge Parish,LA,27.82969885773624
70811,East Baton Rouge Parish,LA,57.58047767393562
70814,East Baton Rouge Parish,LA,30.68535825545171
70815,East Baton Rouge Parish,LA,88.5773624091381
70816,East Baton Rouge Parish,LA,96.88473520249221
71006,Bossier Parish,LA,50.05192107995846
71037,Bossier Parish,LA,98.75389408099689
71040,Claiborne Parish,LA,65.10903426791276
71047,Caddo Parish,LA,96.52128764278297
71055,Webster Parish,LA,13.966770508826585
71106,Caddo Parish,LA,43.925233644859816
71107,Caddo Parish,LA,1.8691588785046727
71111,Bossier Parish,LA,3.582554517133956
71202,Ouachita Parish,LA,63.44755970924195
71203,Ouachita Parish,LA,6.334371754932502
71254,East Carroll Parish,LA,99.06542056074767
71291,Ouachita Parish,LA,33.33333333333333
71295,Franklin Parish,LA,15.160955347871235
71343,Catahoula Parish,LA,51.03842159916926
71446,Vernon Parish,LA,8.203530633437175
04090,York County,ME,60.6957424714434
04102,Cumberland County,ME,64.07061266874351
04240,Androscoggin County,ME,1.142263759086189
20619,St. Mary's County,MD,84.57943925233646
20743,Prince George's County,MD,31.204569055036345
20747,Prince George's County,MD,43.45794392523364
20871,Montgomery County,MD,85.25441329179647
20877,Montgomery County,MD,75.23364485981308
20886,Montgomery County,MD,73.00103842159918
21047,Harford County,MD,82.2429906542056
21131,Baltimore County,MD,94.4963655244029
21146,Anne Arundel County,MD,66.45898234683281
21216,Baltimore city,MD,31.568016614745588
21220,Baltimore County,MD,14.90134994807892
21221,Baltimore County,MD,16.71858774662513
21225,Baltimore city,MD,31.412253374870197
21227,Baltimore County,MD,51.81723779854621
21229,Baltimore city,MD,86.96780893042575
01007,Hampshire County,MA,47.30010384215992
01075,Hampshire County,MA,2.8556593977154723
01107,Hampden County,MA,43.665628245067495
01108,Hampden County,MA,93.61370716510903
01151,Hampden County,MA,23.364485981308412
01201,Berkshire County,MA,0.4153686396677051
01420,Worcester County,MA,28.29698857736241
01432,Middlesex County,MA,44.96365524402908
01453,Worcester County,MA,5.867082035306334
01550,Worcester County,MA,5.919003115264798
01581,Worcester County,MA,97.19626168224299
01603,Worcester County,MA,88.21391484942886
01607,Worcester County,MA,10.43613707165109
01612,Worcester County,MA,97.35202492211839
01702,Middlesex County,MA,18.951194184839046
01757,Worcester County,MA,11.2668743509865
01801,Middlesex County,MA,57.99584631360333
01821,Middlesex County,MA,20.50882658359294
01824,Middlesex County,MA,89.04465212876428
01841,Essex County,MA,78.81619937694704
01843,Essex County,MA,13.862928348909657
01844,Essex County,MA,80.5815160955348
01852,Middlesex County,MA,64.48598130841121
01854,Middlesex County,MA,81.2564901349948
01863,Middlesex County,MA,51.14226375908619
01864,Middlesex County,MA,45.534787123572166
01876,Middlesex County,MA,5.192107995846314
01880,Middlesex County,MA,5.244029075804776
01886,Middlesex County,MA,19.21079958463136
01890,Middlesex County,MA,41.01765316718588
02025,Norfolk County,MA,94.39252336448598
02030,Norfolk County,MA,93.45794392523365
02038,Norfolk County,MA,10.488058151609552
02121,Suffolk County,MA,60.12461059190031
02124,Suffolk County,MA,0.20768431983385255
02125,Suffolk County,MA,8.618899273104882
02127,Suffolk County,MA,0.6230529595015576
02128,Suffolk County,MA,49.79231568016615
02131,Suffolk County,MA,0.8307372793354102
02149,Middlesex County,MA,0
02151,Suffolk County,MA,4.049844236760125
02155,Middlesex County,MA,0.363447559709242
02176,Middlesex County,MA,5.503634475597092
02180,Middlesex County,MA,9.916926272066458
02359,Plymouth County,MA,25.33748701973001
02472,Middlesex County,MA,25.597092419522326
02562,Barnstable County,MA,98.65005192107996
02568,Dukes County,MA,68.5877466251298
02660,Barnstable County,MA,99.74039460020768
02721,Bristol County,MA,0.05192107995846314
02745,Bristol County,MA,1.2461059190031152
02760,Bristol County,MA,8.826583592938734
48003,Lapeer County,MI,86.08515057113188
48021,Macomb County,MI,7.892004153686397
48025,Oakland County,MI,92.99065420560748
48026,Macomb County,MI,31.931464174454828
48033,Oakland County,MI,37.22741433021807
48036,Macomb County,MI,74.40290758047767
48044,Macomb County,MI,49.16926272066459
48048,Macomb County,MI,71.91069574247145
48051,Macomb County,MI,55.088265835929384
48060,St. Clair County,MI,1.9730010384215992
48066,Macomb County,MI,2.1806853582554515
48071,Oakland County,MI,82.08722741433021
48073,Oakland County,MI,25.233644859813083
48075,Oakland County,MI,61.52647975077882
48080,Macomb County,MI,65.31671858774662
48084,Oakland County,MI,99.63655244029076
48088,Macomb County,MI,41.796469366562825
48091,Macomb County,MI,4.880581516095535
48093,Macomb County,MI,16.25129802699896
48094,Macomb County,MI,48.18276220145379
48111,Wayne County,MI,5.14018691588785
48117,Monroe County,MI,50.467289719626166
48125,Wayne County,MI,79.90654205607477
48126,Wayne County,MI,65.83592938733126
48127,Wayne County,MI,37.123572170301145
48135,Wayne County,MI,19.106957424714434
48141,Wayne County,MI,6.28245067497404
48146,Wayne County,MI,5.815160955347872
48162,Monroe County,MI,69.98961578400831
48164,Wayne County,MI,69.98961578400831
48180,Wayne County,MI,12.77258566978193
48183,Wayne County,MI,6.905503634475598
48186,Wayne County,MI,4.361370716510903
48187,Wayne County,MI,54.30944963655244
48198,Washtenaw County,MI,1.453790238836968
48210,Wayne County,MI,55.97092419522326
48211,Wayne County,MI,85.56593977154725
48214,Wayne County,MI,49.37694704049844
48219,Wayne County,MI,3.4267912772585665
48220,Oakland County,MI,73.20872274143302
48223,Wayne County,MI,9.813084112149532
48224,Wayne County,MI,76.42782969885774
48227,Wayne County,MI,2.0249221183800623
48228,Wayne County,MI,21.391484942886812
48229,Wayne County,MI,81.30841121495327
48235,Wayne County,MI,11.838006230529595
48237,Oakland County,MI,17.030114226375908
48238,Wayne County,MI,20.404984423676012
48239,Wayne County,MI,28.037383177570092
48301,Oakland County,MI,95.17133956386293
48307,Oakland County,MI,46.728971962616825
48312,Macomb County,MI,21.131879543094495
48317,Macomb County,MI,52.49221183800623
48323,Oakland County,MI,52.12876427829699
48324,Oakland County,MI,90.75804776739356
48328,Oakland County,MI,34.52751817237799
48331,Oakland County,MI,33.54101765316719
48375,Oakland County,MI,48.07892004153687
48382,Oakland County,MI,46.00207684319834
48386,Oakland County,MI,58.87850467289719
48423,Genesee County,MI,27.51817237798546
48429,Shiawassee County,MI,61.57840083073728
48439,Genesee County,MI,38.21391484942887
48505,Genesee County,MI,46.52128764278297
48507,Genesee County,MI,91.22533748701973
48509,Genesee County,MI,76.84319833852544
48601,Saginaw County,MI,24.922118380062305
48602,Saginaw County,MI,58.72274143302181
48603,Saginaw County,MI,36.70820353063344
48611,Bay County,MI,88.7331256490135
48642,Midland County,MI,48.598130841121495
48708,Bay County,MI,27.102803738317753
48732,Bay County,MI,50.77881619937694
48858,Isabella County,MI,4.413291796469367
48906,Ingham County,MI,37.850467289719624
48911,Ingham County,MI,4.984423676012461
49006,Kalamazoo County,MI,76.06438213914849
49014,Calhoun County,MI,15.42056074766355
49022,Berrien County,MI,7.476635514018691
49024,Kalamazoo County,MI,22.37798546209761
49031,Cass County,MI,81.61993769470405
49047,Cass County,MI,49.48078920041537
49090,Van Buren County,MI,81.30841121495327
49093,St. Joseph County,MI,26.479750778816197
49201,Jackson County,MI,6.5420560747663545
49230,Jackson County,MI,69.36656282450674
49242,Hillsdale County,MI,44.54828660436137
49286,Lenawee County,MI,53.374870197300105
49401,Ottawa County,MI,55.45171339563863
49412,Newaygo County,MI,62.56490134994807
49415,Muskegon County,MI,84.73520249221184
49424,Ottawa County,MI,12.045690550363448
49428,Ottawa County,MI,49.74039460020768
49444,Muskegon County,MI,7.320872274143301
49457,Muskegon County,MI,68.7435098650052
49503,Kent County,MI,8.463136033229492
49505,Kent County,MI,19.626168224299064
49507,Kent County,MI,40.03115264797508
49508,Kent County,MI,3.9979231568016615
49519,Kent County,MI,13.395638629283487
49548,Kent County,MI,26.272066458982344
49651,Missaukee County,MI,96.83281412253375
49685,Grand Traverse County,MI,92.47144340602284
49783,Chippewa County,MI,16.978193146417446
49930,Houghton County,MI,76.27206645898235
55021,Rice County,MN,66.92627206645898
55056,Chisago County,MN,76.99896157840082
55060,Steele County,MN,33.48909657320872
55075,Dakota County,MN,37.07165109034268
55101,Ramsey County,MN,28.608515057113188
55102,Ramsey County,MN,25.44132917964694
55115,Washington County,MN,90.23883696780894
55118,Dakota County,MN,47.81931464174455
55121,Dakota County,MN,83.28141225337488
55124,Dakota County,MN,67.91277258566979
55125,Washington County,MN,69.21079958463136
55128,Washington County,MN,45.638629283489095
55130,Ramsey County,MN,75.33748701973
55306,Dakota County,MN,86.6043613707165
55337,Dakota County,MN,90.39460020768432
55343,Hennepin County,MN,40.49844236760124
55344,Hennepin County,MN,96.41744548286604
55345,Hennepin County,MN,88.88888888888889
55405,Hennepin County,MN,32.65835929387331
55406,Hennepin County,MN,20.768431983385256
55416,Hennepin County,MN,71.02803738317756
55418,Hennepin County,MN,58.09968847352025
55426,Hennepin County,MN,24.247144340602283
55430,Hennepin County,MN,47.14434060228453
55434,Anoka County,MN,60.53997923156802
55444,Hennepin County,MN,54.7767393561786
55734,St. Louis County,MN,90.91381100726895
55744,Itasca County,MN,12.512980269989615
55803,St. Louis County,MN,65.05711318795431
56308,Douglas County,MN,23.312564901349948
56345,Morrison County,MN,75.80477673935619
56347,Todd County,MN,94.02907580477674
56482,Wadena County,MN,75.23364485981308
56537,Otter Tail County,MN,75.54517133956386
56560,Clay County,MN,24.039460020768434
56601,Beltrami County,MN,4.46521287642783
56633,Hubbard County,MN,85.66978193146417
56751,Roseau County,MN,95.48286604361371
38614,Coahoma County,MS,49.22118380062305
38620,Panola County,MS,99.22118380062305
38654,DeSoto County,MS,53.73831775700935
38834,Alcorn County,MS,16.1993769470405
38865,Alcorn County,MS,85.41017653167185
38868,Lee County,MS,98.07892004153686
39040,Yazoo County,MS,99.37694704049844
39046,Madison County,MS,74.19522326064381
39047,Rankin County,MS,50.36344755970924
39150,Claiborne County,MS,98.4423676012461
39208,Rankin County,MS,35.150571131879545
39213,Hinds County,MS,31.204569055036345
39364,Lauderdale County,MS,99.53271028037383
39440,Jones County,MS,54.82866043613706
39452,George County,MS,21.910695742471443
39479,Covington County,MS,97.92315680166148
39503,Harrison County,MS,8.047767393561786
39531,Harrison County,MS,67.96469366562825
39532,Harrison County,MS,40.34267912772586
39601,Lincoln County,MS,96.0539979231568
39702,Lowndes County,MS,33.8006230529595
39773,Clay County,MS,63.811007268951194
63010,Jefferson County,MO,35.046728971962615
63033,St. Louis County,MO,12.72066458982347
63080,Franklin County,MO,41.6926272066459
63107,St. Louis city,MO,63.136033229491176
63108,St. Louis city,MO,94.60020768431984
63134,St. Louis County,MO,37.59086188992731
63141,St. Louis County,MO,77.0508826583593
63147,St. Louis city,MO,55.60747663551402
63379,Lincoln County,MO,24.97403946002077
63385,St. Charles County,MO,12.980269989615783
63401,Marion County,MO,44.39252336448598
63601,St. Francois County,MO,71.33956386292834
63901,Butler County,MO,10.799584631360332
64056,Jackson County,MO,21.70301142263759
64130,Jackson County,MO,5.036344755970925
64134,Jackson County,MO,10.332294911734165
64154,Platte County,MO,71.18380062305296
64489,Gentry County,MO,99.79231568016614
64501,Buchanan County,MO,98.49428868120457
64701,Cass County,MO,39.875389408099686
64836,Jasper County,MO,47.611630321910695
65202,Boone County,MO,8.566978193146417
65270,Randolph County,MO,24.55867082035306
65742,Webster County,MO,85.35825545171339
65775,Howell County,MO,76.94704049844236
65803,Greene County,MO,7.736240913811007
59401,Cascade County,MT,80.21806853582555
59714,Gallatin County,MT,85.202492211838
68104,Douglas County,NE,56.074766355140184
68116,Douglas County,NE,57.89200415368639
68137,Douglas County,NE,49.63655244029076
68142,Douglas County,NE,98.28660436137072
68521,Lancaster County,NE,59.345794392523366
68524,Lancaster County,NE,98.96157840083075
89108,Clark County,NV,18.06853582554517
89113,Clark County,NV,72.84527518172378
89115,Clark County,NV,17.133956386292834
89119,Clark County,NV,17.445482866043612
89129,Clark County,NV,44.96365524402908
89146,Clark County,NV,77.98546209761163
89149,Clark County,NV,61.007268951194185
89429,Lyon County,NV,80.11422637590861
89431,Washoe County,NV,51.66147455867082
89436,Washoe County,NV,19.262720664589825
89509,Washoe County,NV,47.0404984423676
89701,Carson City,NV,67.44548286604362
89706,Carson City,NV,58.51505711318795
03053,Rockingham County,NH,57.3208722741433
03055,Hillsborough County,NH,43.56178608515057
03062,Hillsborough County,NH,47.19626168224299
03063,Hillsborough County,NH,40.809968847352025
03064,Hillsborough County,NH,25.18172377985462
03087,Rockingham County,NH,46.573208722741434
03103,Hillsborough County,NH,4.101765316718588
03222,Grafton County,NH,96.26168224299066
03249,Belknap County,NH,88.00623052959502
03431,Cheshire County,NH,25.02596053997923
07008,Middlesex County,NJ,96.10591900311528
07011,Passaic County,NJ,46.41744548286604
07012,Passaic County,NJ,94.13291796469366
07017,Essex County,NJ,1.2980269989615785
07026,Bergen County,NJ,12.149532710280374
07030,Hudson County,NJ,58.307372793354105
07042,Essex County,NJ,20.612668743509865
07047,Hudson County,NJ,3.4267912772585665
07054,Morris County,NJ,48.753894080996886
07055,Passaic County,NJ,0.46728971962616817
07103,Essex County,NJ,15.524402907580479
07104,Essex County,NJ,69.05503634475598
07107,Essex County,NJ,7.5285565939771555
07202,Union County,NJ,4.672897196261682
07203,Union County,NJ,55.9190031152648
07304,Hudson County,NJ,29.439252336448597
07305,Hudson County,NJ,48.546209761163034
07306,Hudson County,NJ,84.2159916926272
07410,Bergen County,NJ,46.00207684319834
07501,Passaic County,NJ,39.09657320872274
07504,Passaic County,NJ,83.54101765316719
07506,Passaic County,NJ,64.38213914849429
07621,Bergen County,NJ,80.89304257528556
07650,Bergen County,NJ,99.68847352024922
07712,Monmouth County,NJ,14.122533748701974
07825,Warren County,NJ,87.22741433021807
07826,Sussex County,NJ,97.92315680166148
07840,Warren County,NJ,29.646936656282453
07860,Sussex County,NJ,22.274143302180686
07945,Morris County,NJ,91.48494288681205
08021,Camden County,NJ,46.98857736240914
08037,Atlantic County,NJ,12.616822429906541
08051,Gloucester County,NJ,82.08722741433021
08054,Burlington County,NJ,20.35306334371755
08055,Burlington County,NJ,86.50051921079958
08080,Gloucester County,NJ,34.890965732087224
08104,Camden County,NJ,25.077881619937692
08105,Camden County,NJ,63.2398753894081
08201,Atlantic County,NJ,97.30010384215991
08232,Atlantic County,NJ,21.599169262720665
08251,Cape May County,NJ,48.80581516095535
08260,Cape May County,NJ,26.99896157840083
08302,Cumberland County,NJ,0.5711318795430945
08401,Atlantic County,NJ,49.27310488058151
08550,Mercer County,NJ,92.73104880581516
08610,Mercer County,NJ,26.635514018691588
08618,Mercer County,NJ,0.3115264797507788
08628,Mercer County,NJ,86.18899273104881
08753,Ocean County,NJ,1.4018691588785046
08755,Ocean County,NJ,19.574247144340603
08817,Middlesex County,NJ,17.75700934579439
08835,Somerset County,NJ,98.80581516095535
08861,Middlesex County,NJ,0.726895119418484
08873,Somerset County,NJ,11.474558670820354
87031,Valencia County,NM,24.299065420560748
87102,Bernalillo County,NM,18.120456905503634
87105,Bernalillo County,NM,2.544132917964694
87106,Bernalillo County,NM,78.34890965732087
87114,Bernalillo County,NM,5.970924195223261
87121,Bernalillo County,NM,35.92938733125649
87124,Sandoval County,NM,34.7871235721703
87402,San Juan County,NM,83.54101765316719
87505,Santa Fe County,NM,3.5306334371754935
87701,San Miguel County,NM,46.780893042575286
88001,Doa Ana County,NM,22.48182762201454
88005,Doa Ana County,NM,89.92731048805815
88011,Doa Ana County,NM,50.77881619937694
88024,Doa Ana County,NM,99.84423676012462
88030,Luna County,NM,57.26895119418484
88045,Hidalgo County,NM,99.5846313603323
88101,Curry County,NM,7.165109034267912
88240,Lea County,NM,42.36760124610592
88242,Lea County,NM,74.35098650051921
88260,Lea County,NM,36.39667705088266
88310,Otero County,NM,20.301142263759086
10029,New York County,NY,0.1557632398753894
10039,New York County,NY,61.059190031152646
10309,Richmond County,NY,56.178608515057114
10452,Bronx County,NY,12.357217030114226
10454,Bronx County,NY,4.724818276220145
10455,Bronx County,NY,2.907580477673936
10457,Bronx County,NY,40.75804776739356
10458,Bronx County,NY,3.2191069574247146
10459,Bronx County,NY,38.78504672897196
10460,Bronx County,NY,9.968847352024921
10466,Bronx County,NY,3.011422637590862
10467,Bronx County,NY,20.19730010384216
10469,Bronx County,NY,30.893042575285566
10472,Bronx County,NY,26.427829698857735
10473,Bronx County,NY,68.69158878504673
10474,Bronx County,NY,90.134994807892
10566,Westchester County,NY,53.426791277258566
10573,Westchester County,NY,64.07061266874351
10701,Westchester County,NY,0.778816199376947
10927,Rockland County,NY,86.6043613707165
10940,Orange County,NY,13.291796469366563
10977,Rockland County,NY,62.04569055036345
11003,Nassau County,NY,54.932502596054
11101,Queens County,NY,53.634475597092425
11102,Queens County,NY,73.72793354101765
11204,Kings County,NY,24.402907580477674
11206,Kings County,NY,1.505711318795431
11207,Kings County,NY,0.10384215991692627
11208,Kings County,NY,16.40706126687435
11212,Kings County,NY,26.323987538940806
11215,Kings County,NY,28.868120456905505
11218,Kings County,NY,13.603322949117342
11220,Kings County,NY,2.284527518172378
11221,Kings County,NY,1.8172377985462098
11223,Kings County,NY,17.289719626168225
11226,Kings County,NY,50.31152647975078
11228,Kings County,NY,58.359293873312566
11230,Kings County,NY,13.084112149532709
11233,Kings County,NY,9.397715472481828
11234,Kings County,NY,16.614745586708203
11235,Kings County,NY,36.29283489096573
11236,Kings County,NY,2.751817237798546
11365,Queens County,NY,46.10591900311526
11372,Queens County,NY,26.116303219106957
11373,Queens County,NY,87.74662512980271
11374,Queens County,NY,65.57632398753894
11375,Queens County,NY,44.96365524402908
11419,Queens County,NY,35.254413291796475
11420,Queens County,NY,44.02907580477674
11421,Queens County,NY,28.608515057113188
11432,Queens County,NY,72.63759086188992
11434,Queens County,NY,84.26791277258567
11436,Queens County,NY,87.59086188992731
11520,Nassau County,NY,27.673935617860852
11542,Nassau County,NY,58.25545171339564
11550,Nassau County,NY,9.034267912772584
11575,Nassau County,NY,30.47767393561786
11691,Queens County,NY,6.178608515057113
11757,Suffolk County,NY,70.76843198338526
11782,Suffolk County,NY,94.54828660436138
12090,Rensselaer County,NY,62.928348909657316
12095,Fulton County,NY,41.1214953271028
12110,Albany County,NY,72.42990654205607
12180,Rensselaer County,NY,1.1941848390446521
12204,Albany County,NY,63.29179646936657
12304,Schenectady County,NY,25.85669781931464
12307,Schenectady County,NY,63.084112149532714
12487,Ulster County,NY,99.4288681204569
12901,Clinton County,NY,2.0768431983385254
12926,Franklin County,NY,95.58670820353063
13021,Cayuga County,NY,2.1287642782969884
13032,Madison County,NY,62.46105919003115
13080,Onondaga County,NY,97.0404984423676
13126,Oswego County,NY,16.510903426791277
13165,Seneca County,NY,22.949117341640708
13204,Onondaga County,NY,9.138110072689512
13209,Onondaga County,NY,42.99065420560748
13214,Onondaga County,NY,93.6656282450675
13215,Onondaga County,NY,48.338525441329175
13440,Oneida County,NY,1.0903426791277258
13605,Jefferson County,NY,94.75597092419522
13619,Jefferson County,NY,43.71754932502596
13778,Chenango County,NY,60.747663551401864
13790,Broome County,NY,6.853582554517133
13905,Broome County,NY,0.8826583592938734
14051,Erie County,NY,69.88577362409139
14120,Niagara County,NY,3.2710280373831773
14211,Erie County,NY,6.386292834890965
14215,Erie County,NY,0.9865005192107996
14218,Erie County,NY,47.767393561786086
14219,Erie County,NY,48.28660436137071
14224,Erie County,NY,21.287642782969883
14225,Erie County,NY,28.400830737279335
14305,Niagara County,NY,3.790238836967809
14420,Monroe County,NY,42.627206645898234
14424,Ontario County,NY,1.6614745586708204
14425,Ontario County,NY,14.018691588785046
14450,Monroe County,NY,1.7133956386292832
14580,Monroe County,NY,5.088265835929388
14605,Monroe County,NY,6.645898234683282
14606,Monroe County,NY,13.343717549325026
14607,Monroe County,NY,15.472481827622014
14608,Monroe County,NY,10.07268951194185
14609,Monroe County,NY,19.470404984423677
14615,Monroe County,NY,8.93042575285566
14617,Monroe County,NY,4.569055036344756
14622,Monroe County,NY,19.781931464174455
14624,Monroe County,NY,1.6095534787123573
14701,Chautauqua County,NY,13.75908618899273
14738,Chautauqua County,NY,92.6791277258567
27028,Davie County,NC,11.889927310488059
27055,Yadkin County,NC,61.37071651090342
27127,Forsyth County,NC,11.163032191069574
27217,Alamance County,NC,38.47352024922118
27260,Guilford County,NC,18.69158878504673
27262,Guilford County,NC,36.44859813084112
27292,Davidson County,NC,3.063343717549325
27295,Davidson County,NC,2.4402907580477673
27330,Lee County,NC,18.431983385254412
27332,Lee County,NC,34.164070612668745
27360,Davidson County,NC,32.8141225337487
27519,Wake County,NC,45.43094496365524
27522,Granville County,NC,74.55867082035307
27534,Wayne County,NC,30.47767393561786
27542,Johnston County,NC,67.54932502596054
27545,Wake County,NC,41.06957424714434
27560,Wake County,NC,72.22222222222221
27577,Johnston County,NC,41.27725856697819
27601,Wake County,NC,97.35202492211839
27704,Durham County,NC,8.982346832814123
27713,Durham County,NC,20.456905503634477
27801,Edgecombe County,NC,35.306334371754936
27804,Nash County,NC,29.646936656282453
27834,Pitt County,NC,25.12980269989616
27886,Edgecombe County,NC,32.13914849428868
27892,Martin County,NC,44.13291796469366
27910,Hertford County,NC,35.87746625129803
28012,Gaston County,NC,59.65732087227414
28023,Rowan County,NC,64.74558670820353
28025,Cabarrus County,NC,8.307372793354102
28027,Cabarrus County,NC,65.26479750778816
28079,Union County,NC,44.18483904465213
28086,Cleveland County,NC,21.02803738317757
28103,Union County,NC,75.64901349948079
28117,Iredell County,NC,26.116303219106957
28146,Rowan County,NC,27.98546209761163
28147,Rowan County,NC,27.725856697819314
28164,Gaston County,NC,76.53167185877466
28206,Mecklenburg County,NC,82.65835929387332
28208,Mecklenburg County,NC,30.26998961578401
28212,Mecklenburg County,NC,20.976116303219104
28215,Mecklenburg County,NC,12.09761163032191
28217,Mecklenburg County,NC,48.338525441329175
28311,Cumberland County,NC,55.19210799584632
28314,Cumberland County,NC,26.687435098650052
28334,Sampson County,NC,23.468328141225335
28352,Scotland County,NC,21.651090342679126
28364,Robeson County,NC,71.85877466251299
28372,Robeson County,NC,68.89927310488058
28398,Duplin County,NC,80.73727933541018
28401,New Hanover County,NC,7.78816199376947
28409,New Hanover County,NC,68.32814122533749
28411,New Hanover County,NC,32.55451713395638
28412,New Hanover County,NC,90.60228452751818
28443,Pender County,NC,54.56905503634476
28451,Brunswick County,NC,24.714434060228452
28469,Brunswick County,NC,92.15991692627206
28470,Brunswick County,NC,67.65316718587746
28478,Pender County,NC,97.09241952232607
28557,Carteret County,NC,76.37590861889927
28580,Greene County,NC,75.0778816199377
28586,Craven County,NC,80.52959501557633
28613,Catawba County,NC,68.84735202492212
28634,Iredell County,NC,95.01557632398755
28694,Ashe County,NC,89.30425752855659
28704,Buncombe County,NC,64.95327102803739
28712,Transylvania County,NC,46.780893042575286
28715,Buncombe County,NC,45.742471443406025
28716,Haywood County,NC,47.30010384215992
28719,Jackson County,NC,42.575285565939765
28779,Jackson County,NC,80.68535825545172
28786,Haywood County,NC,31.15264797507788
28906,Cherokee County,NC,75.12980269989615
58103,Cass County,ND,68.38006230529595
58701,Ward County,ND,54.361370716510905
58703,Ward County,ND,38.992731048805815
43015,Delaware County,OH,11.370716510903426
43028,Knox County,OH,91.64070612668743
43055,Licking County,OH,9.08618899273105
43068,Franklin County,OH,7.4247144340602285
43078,Champaign County,OH,29.12772585669782
43113,Pickaway County,OH,39.875389408099686
43123,Franklin County,OH,5.399792315680166
43211,Franklin County,OH,8.151609553478712
43213,Franklin County,OH,30.893042575285566
43219,Franklin County,OH,11.993769470404985
43223,Franklin County,OH,4.153686396677051
43224,Franklin County,OH,3.894080996884735
43227,Franklin County,OH,18.795430944963655
43228,Franklin County,OH,2.232606438213915
43230,Franklin County,OH,12.40913811007269
43311,Logan County,OH,26.064382139148496
43452,Ottawa County,OH,84.42367601246106
43512,Defiance County,OH,2.803738317757009
43545,Henry County,OH,92.36760124610592
43558,Fulton County,OH,52.80373831775701
43566,Lucas County,OH,89.66770508826583
43567,Fulton County,OH,86.29283489096574
43604,Lucas County,OH,37.38317757009346
43605,Lucas County,OH,42.523364485981304
43607,Lucas County,OH,4.309449636552441
43608,Lucas County,OH,6.022845275181724
43613,Lucas County,OH,2.336448598130841
43615,Lucas County,OH,32.71028037383177
43616,Lucas County,OH,10.2803738317757
43701,Muskingum County,OH,0.25960539979231567
43920,Columbiana County,OH,6.801661474558671
43944,Jefferson County,OH,95.43094496365524
43947,Belmont County,OH,73.31256490134996
43950,Belmont County,OH,36.08515057113188
44001,Lorain County,OH,24.5067497403946
44030,Ashtabula County,OH,18.795430944963655
44035,Lorain County,OH,6.438213914849429
44044,Lorain County,OH,45.17133956386293
44050,Lorain County,OH,69.00311526479751
44057,Lake County,OH,23.83177570093458
44077,Lake County,OH,15.264797507788161
44087,Summit County,OH,36.915887850467286
44104,Cuyahoga County,OH,17.237798546209763
44109,Cuyahoga County,OH,62.77258566978193
44110,Cuyahoga County,OH,7.113187954309449
44111,Cuyahoga County,OH,0.6749740394600208
44114,Cuyahoga County,OH,61.941848390446516
44115,Cuyahoga County,OH,59.96884735202492
44118,Cuyahoga County,OH,35.098650051921084
44121,Cuyahoga County,OH,7.009345794392523
44123,Cuyahoga County,OH,23.67601246105919
44132,Cuyahoga County,OH,54.153686396677045
44135,Cuyahoga County,OH,1.9210799584631362
44137,Cuyahoga County,OH,22.01453790238837
44143,Cuyahoga County,OH,29.335410176531674
44146,Cuyahoga County,OH,4.8286604361370715
44203,Summit County,OH,22.533748701973
44223,Summit County,OH,43.35410176531671
44224,Summit County,OH,17.70508826583593
44233,Medina County,OH,85.04672897196261
44240,Portage County,OH,23.572170301142265
44270,Wayne County,OH,58.61889927310489
44301,Summit County,OH,26.479750778816197
44306,Summit County,OH,7.372793354101765
44320,Summit County,OH,13.551401869158877
44502,Mahoning County,OH,38.36967808930426
44511,Mahoning County,OH,19.418483904465216
44646,Stark County,OH,7.061266874350987
44654,Holmes County,OH,77.88161993769471
44685,Summit County,OH,41.90031152647975
44691,Wayne County,OH,5.503634475597092
44703,Stark County,OH,47.45586708203531
44830,Seneca County,OH,14.174454828660435
44870,Erie County,OH,1.0384215991692627
45013,Butler County,OH,14.953271028037381
45066,Warren County,OH,59.034267912772584
45069,Butler County,OH,18.795430944963655
45102,Clermont County,OH,32.087227414330215
45177,Clinton County,OH,20.041536863966773
45216,Hamilton County,OH,54.153686396677045
45229,Hamilton County,OH,25.54517133956386
45231,Hamilton County,OH,27.466251298027
45238,Hamilton County,OH,10.903426791277258
45239,Hamilton County,OH,13.239875389408098
45251,Hamilton County,OH,49.06542056074766
45324,Greene County,OH,7.268951194184839
45331,Darke County,OH,22.118380062305295
45342,Montgomery County,OH,8.670820353063343
45344,Clark County,OH,54.98442367601246
45365,Shelby County,OH,57.217030114226375
45380,Darke County,OH,97.87123572170302
45385,Greene County,OH,35.41017653167186
45405,Montgomery County,OH,19.989615784008308
45417,Montgomery County,OH,6.12668743509865
45420,Montgomery County,OH,56.54205607476636
45424,Montgomery County,OH,34.060228452751815
45426,Montgomery County,OH,76.8951194184839
45429,Montgomery County,OH,71.23572170301142
45431,Montgomery County,OH,42.31568016614746
45439,Montgomery County,OH,48.13084112149533
45440,Montgomery County,OH,57.68431983385255
45503,Clark County,OH,5.451713395638629
45505,Clark County,OH,26.375908618899274
45638,Lawrence County,OH,69.83385254413291
45659,Lawrence County,OH,81.72377985462099
45662,Scioto County,OH,1.7653167185877467
45669,Lawrence County,OH,14.797507788161992
45714,Washington County,OH,46.20976116303219
45750,Washington County,OH,23.260643821391486
45784,Washington County,OH,69.4184839044652
45804,Allen County,OH,9.190031152647975
45822,Mercer County,OH,33.59293873312565
45840,Hancock County,OH,13.136033229491172
45887,Allen County,OH,92.05607476635514
45895,Auglaize County,OH,26.739356178608514
73010,McClain County,OK,43.04257528556594
73034,Oklahoma County,OK,24.091381100726895
73099,Canadian County,OK,10.643821391484941
73115,Oklahoma County,OK,90.08307372793354
73117,Oklahoma County,OK,91.27725856697819
73118,Oklahoma County,OK,89.82346832814122
73159,Oklahoma County,OK,42.26375908618899
73160,Cleveland County,OK,9.60539979231568
73501,Comanche County,OK,53.79023883696781
74003,Osage County,OK,84.63136033229492
74070,Osage County,OK,77.466251298027
74106,Tulsa County,OK,33.28141225337487
74126,Tulsa County,OK,91.58878504672897
74127,Tulsa County,OK,60.020768431983385
74129,Tulsa County,OK,52.232606438213914
74134,Tulsa County,OK,69.10695742471444
74354,Ottawa County,OK,50
74361,Mayes County,OK,61.2668743509865
74631,Kay County,OK,81.4122533748702
74801,Pottawatomie County,OK,33.69678089304258
74965,Adair County,OK,86.7601246105919
97005,Washington County,OR,44.807892004153686
97056,Columbia County,OR,66.6147455867082
97060,Multnomah County,OR,38.31775700934579
97124,Washington County,OR,82.50259605399792
97206,Multnomah County,OR,10.695742471443406
97220,Multnomah County,OR,31.360332294911736
97222,Clackamas County,OR,25.70093457943925
97301,Marion County,OR,9.709241952232608
97306,Marion County,OR,53.68639667705089
97321,Linn County,OR,23.5202492211838
97355,Linn County,OR,35.3582554517134
97402,Lane County,OR,50.155763239875384
97471,Douglas County,OR,14.07061266874351
97478,Lane County,OR,34.26791277258567
97603,Klamath County,OR,48.90965732087228
97701,Deschutes County,OR,83.3852544132918
97756,Deschutes County,OR,66.14745586708204
97914,Malheur County,OR,19.52232606438214
15022,Washington County,PA,79.23156801661474
15057,Washington County,PA,75.33748701973
15068,Westmoreland County,PA,15.57632398753894
15071,Allegheny County,PA,80.37383177570094
15102,Allegheny County,PA,60.90342679127726
15132,Allegheny County,PA,9.2419522326064385
15146,Allegheny County,PA,73.77985462097611
15202,Allegheny County,PA,48.857736240913816
15217,Allegheny County,PA,56.438213914849435
15301,Washington County,PA,4.517133956386292
15801,Clearfield County,PA,27.31048805815161
15902,Cambria County,PA,70.9761163032191
15906,Cambria County,PA,53.58255451713395
16001,Butler County,PA,15.732087227414329
16101,Lawrence County,PA,22.68951194184839
16316,Crawford County,PA,81.51609553478713
16335,Crawford County,PA,33.85254413291797
16503,Erie County,PA,64.69366562824507
16505,Erie County,PA,67.08203530633438
16510,Erie County,PA,88.36967808930426
16511,Erie County,PA,77.67393561786086
17003,Lebanon County,PA,43.35410176531671
17011,Cumberland County,PA,22.22222222222222
17020,Perry County,PA,77.82969885773625
17046,Lebanon County,PA,7.217030114226376
17111,Dauphin County,PA,12.56490134994808
17201,Franklin County,PA,8.09968847352025
17257,Cumberland County,PA,19.730010384215994
17315,York County,PA,73.93561786085151
17404,York County,PA,56.38629283489096
17540,Lancaster County,PA,75.64901349948079
17557,Lancaster County,PA,73.83177570093457
17603,Lancaster County,PA,52.024922118380054
17737,Lycoming County,PA,90.65420560747664
17752,Lycoming County,PA,90.2907580477674
17851,Northumberland County,PA,63.55140186915887
17921,Schuylkill County,PA,92.21183800623052
18042,Northampton County,PA,3.7383177570093453
18052,Lehigh County,PA,16.043613707165107
18202,Luzerne County,PA,43.71754932502596
18634,Luzerne County,PA,39.3042575285566
18704,Luzerne County,PA,13.187954309449637
18960,Bucks County,PA,65.93977154724818
18969,Montgomery County,PA,62.20145379023884
19002,Montgomery County,PA,33.74870197300104
19013,Delaware County,PA,32.346832814122536
19025,Montgomery County,PA,92.88681204569055
19035,Montgomery County,PA,90.80996884735202
19044,Montgomery County,PA,60.17653167185878
19050,Delaware County,PA,24.19522326064382
19055,Bucks County,PA,77.72585669781932
19061,Delaware County,PA,58.93042575285566
19063,Delaware County,PA,51.557632398753896
19066,Montgomery County,PA,83.12564901349948
19078,Delaware County,PA,84.94288681204569
19082,Delaware County,PA,84.7871235721703
19083,Delaware County,PA,58.203530633437175
19103,Philadelphia County,PA,42.05607476635514
19104,Philadelphia County,PA,34.47559709241953
19119,Philadelphia County,PA,20.66458982346833
19120,Philadelphia County,PA,14.434060228452752
19121,Philadelphia County,PA,29.283489096573206
19126,Philadelphia County,PA,28.504672897196258
19131,Philadelphia County,PA,4.257528556593977
19132,Philadelphia County,PA,56.490134994807896
19137,Philadelphia County,PA,92.47144340602284
19138,Philadelphia County,PA,10.07268951194185
19139,Philadelphia County,PA,2.596053997923157
19141,Philadelphia County,PA,5.711318795430945
19153,Philadelphia County,PA,61.838006230529594
19154,Philadelphia County,PA,42.782969885773625
19311,Chester County,PA,95.32710280373831
19320,Chester County,PA,6.95742471443406
19335,Chester County,PA,14.278296988577363
19382,Chester County,PA,11.42263759086189
19405,Montgomery County,PA,99.06542056074767
19426,Montgomery County,PA,30.32191069574247
19440,Montgomery County,PA,58.359293873312566
19446,Montgomery County,PA,11.526479750778815
19464,Montgomery County,PA,3.6344755970924196
19468,Montgomery County,PA,36.188992731048806
19543,Berks County,PA,98.5981308411215
19601,Berks County,PA,14.693665628245068
19604,Berks County,PA,56.69781931464174
19605,Berks County,PA,26.791277258566975
02860,Providence County,RI,5.29595015576324
02914,Providence County,RI,72.01453790238837
29039,Orangeburg County,SC,100
29045,Kershaw County,SC,70.45690550363447
29115,Orangeburg County,SC,32.60643821391485
29172,Lexington County,SC,94.96365524402907
29203,Richland County,SC,8.411214953271028
29204,Richland County,SC,66.56282450674973
29210,Richland County,SC,38.110072689511945
29229,Richland County,SC,81.15264797507788
29302,Spartanburg County,SC,74.24714434060229
29303,Spartanburg County,SC,39.46002076843199
29316,Spartanburg County,SC,95.89823468328142
29325,Laurens County,SC,51.298026998961575
29330,Spartanburg County,SC,79.43925233644859
29403,Charleston County,SC,40.238836967808936
29445,Berkeley County,SC,20.82035306334372
29450,Berkeley County,SC,99.94807892004154
29512,Marlboro County,SC,52.336448598130836
29536,Dillon County,SC,51.71339563862928
29565,Dillon County,SC,90.34267912772586
29581,Horry County,SC,97.81931464174455
29617,Greenville County,SC,65.16095534787124
29621,Anderson County,SC,32.91796469366563
29640,Pickens County,SC,79.49117341640705
29644,Greenville County,SC,48.338525441329175
29672,Oconee County,SC,94.44444444444444
29715,York County,SC,64.01869158878505
29730,York County,SC,15.784008307372794
57104,Minnehaha County,SD,83.95638629283489
57201,Codington County,SD,74.97403946002078
57301,Davison County,SD,74.45482866043614
57501,Hughes County,SD,94.28868120456906
57701,Pennington County,SD,15.835929387331257
37013,Davidson County,TN,7.684319833852545
37025,Hickman County,TN,96.67705088265835
37034,Marshall County,TN,93.40602284527519
37062,Williamson County,TN,79.95846313603323
37075,Sumner County,TN,12.876427829698859
37091,Marshall County,TN,68.12045690550363
37129,Rutherford County,TN,13.499480789200415
37167,Rutherford County,TN,23.104880581516095
37203,Davidson County,TN,57.84008307372793
37206,Davidson County,TN,29.231568016614744
37209,Davidson County,TN,76.63551401869158
37216,Davidson County,TN,44.34060228452752
37311,Bradley County,TN,30.010384215991692
37312,Bradley County,TN,38.78504672897196
37343,Hamilton County,TN,19.003115264797508
37354,Monroe County,TN,65.83592938733126
37618,Sullivan County,TN,70.40498442367601
37642,Hawkins County,TN,45.898234683281416
37721,Knox County,TN,64.84942886812047
37745,Greene County,TN,56.02284527518172
37760,Jefferson County,TN,57.009345794392516
37764,Sevier County,TN,71.1318795430945
37826,McMinn County,TN,75.96053997923157
37840,Roane County,TN,70.82035306334372
37876,Sevier County,TN,29.023883696780896
37909,Knox County,TN,82.29491173416406
37915,Knox County,TN,97.50778816199377
37918,Knox County,TN,11.059190031152648
37921,Knox County,TN,59.55347871235722
37923,Knox County,TN,49.428868120456904
37931,Knox County,TN,38.62928348909657
38011,Tipton County,TN,88.26583592938732
38017,Shelby County,TN,42.00415368639668
38018,Shelby County,TN,64.48598130841121
38108,Shelby County,TN,52.07684319833853
38115,Shelby County,TN,89.61578400830737
38118,Shelby County,TN,15.005192107995846
38122,Shelby County,TN,51.4018691588785
38127,Shelby County,TN,6.749740394600208
38128,Shelby County,TN,16.56282450674974
38134,Shelby County,TN,32.91796469366563
38135,Shelby County,TN,77.62201453790239
38138,Shelby County,TN,85.66978193146417
38225,Weakley County,TN,90.55036344755972
38242,Henry County,TN,73.93561786085151
38301,Madison County,TN,53.11526479750779
38305,Madison County,TN,30.73727933541018
38478,Giles County,TN,53.426791277258566
38501,Putnam County,TN,83.48909657320873
38506,Putnam County,TN,37.175493250259606
38555,Cumberland County,TN,68.06853582554517
38570,Overton County,TN,66.1993769470405
75001,Dallas County,TX,89.46002076843197
75002,Collin County,TX,18.1723779854621
75006,Dallas County,TX,42.731048805815156
75023,Collin County,TX,50.20768431983386
75028,Denton County,TX,53.01142263759087
75034,Denton County,TX,34.164070612668745
75048,Dallas County,TX,69.1588785046729
75051,Dallas County,TX,38.36967808930426
75060,Dallas County,TX,37.019730010384215
75061,Dallas County,TX,48.338525441329175
75074,Collin County,TX,50.571131879543096
75077,Denton County,TX,39.823468328141225
75081,Dallas County,TX,66.87435098650052
75090,Grayson County,TX,44.39252336448598
75098,Collin County,TX,18.276220145379025
75110,Navarro County,TX,39.09657320872274
75146,Dallas County,TX,58.56697819314641
75149,Dallas County,TX,15.2128764278297
75154,Ellis County,TX,40.55036344755971
75165,Ellis County,TX,58.46313603322949
75180,Dallas County,TX,85.82554517133957
75181,Dallas County,TX,50.88265835929388
75204,Dallas County,TX,82.86604361370716
75208,Dallas County,TX,58.72274143302181
75217,Dallas County,TX,6.697819314641744
75220,Dallas County,TX,85.82554517133957
75223,Dallas County,TX,83.8006230529595
75227,Dallas County,TX,15.680166147455868
75229,Dallas County,TX,40.44652128764278
75233,Dallas County,TX,68.22429906542055
75234,Dallas County,TX,64.58982346832815
75235,Dallas County,TX,86.86396677050882
75238,Dallas County,TX,63.29179646936657
75243,Dallas County,TX,40.55036344755971
75244,Dallas County,TX,87.38317757009347
75248,Dallas County,TX,55.347871235721705
75252,Collin County,TX,63.03219106957425
75253,Dallas County,TX,62.40913811007269
75501,Bowie County,TX,27.258566978193144
75601,Gregg County,TX,70.82035306334372
75603,Gregg County,TX,95.7943925233645
75604,Gregg County,TX,36.3447559709242
75644,Upshur County,TX,66.30321910695743
75645,Upshur County,TX,77.10280373831776
75650,Harrison County,TX,91.43302180685359
75670,Harrison County,TX,89.09657320872275
75766,Cherokee County,TX,30.32191069574247
75785,Cherokee County,TX,65.36863966770508
75972,San Augustine County,TX,66.97819314641744
76006,Tarrant County,TX,66.04361370716511
76009,Johnson County,TX,60.17653167185878
76011,Tarrant County,TX,79.07580477673936
76033,Johnson County,TX,32.45067497403946
76036,Tarrant County,TX,55.7632398753894
76039,Tarrant County,TX,33.43717549325026
76040,Tarrant County,TX,42.834890965732086
76048,Hood County,TX,40.03115264797508
76065,Ellis County,TX,35.981308411214954
76078,Wise County,TX,84.47559709241952
76103,Tarrant County,TX,61.47455867082036
76106,Tarrant County,TX,44.18483904465213
76110,Tarrant County,TX,39.46002076843199
76116,Tarrant County,TX,19.67808930425753
76117,Tarrant County,TX,30.010384215991692
76133,Tarrant County,TX,15.628245067497403
76180,Tarrant County,TX,37.38317757009346
76205,Denton County,TX,83.43717549325027
76542,Bell County,TX,11.11111111111111
77004,Harris County,TX,23.883696780893043
77011,Harris County,TX,93.56178608515057
77014,Harris County,TX,94.2367601246106
77016,Harris County,TX,37.69470404984423
77020,Harris County,TX,55.7632398753894
77024,Harris County,TX,59.44963655244029
77032,Harris County,TX,79.2834890965732
77034,Harris County,TX,54.98442367601246
77036,Harris County,TX,49.84423676012461
77037,Harris County,TX,88.68120456905504
77040,Harris County,TX,42.15991692627207
77041,Harris County,TX,83.17757009345794
77044,Harris County,TX,32.294911734164074
77048,Harris County,TX,68.22429906542055
77054,Harris County,TX,74.09138110072689
77056,Harris County,TX,72.9491173416407
77064,Harris County,TX,31.671858774662514
77066,Harris County,TX,64.64174454828661
77068,Harris County,TX,92.62720664589823
77073,Harris County,TX,77.93354101765317
77074,Harris County,TX,74.76635514018692
77077,Harris County,TX,41.27725856697819
77082,Harris County,TX,46.677050882658364
77085,Harris County,TX,84.16407061266874
77089,Harris County,TX,40.55036344755971
77090,Harris County,TX,59.13811007268951
77092,Harris County,TX,53.219106957424714
77093,Harris County,TX,38.88888888888889
77096,Harris County,TX,56.3343717549325
77301,Montgomery County,TX,52.54413291796469
77356,Montgomery County,TX,85.7736240913811
77371,San Jacinto County,TX,87.12357217030114
77372,Montgomery County,TX,87.12357217030114
77379,Harris County,TX,55.60747663551402
77396,Harris County,TX,66.40706126687435
77414,Matagorda County,TX,41.6926272066459
77449,Harris County,TX,34.3717549325026
77459,Fort Bend County,TX,53.219106957424714
77479,Fort Bend County,TX,25.80477673935618
77486,Brazoria County,TX,94.6521287642783
77506,Harris County,TX,57.424714434060235
77523,Chambers County,TX,54.88058151609554
77535,Liberty County,TX,36.08515057113188
77546,Galveston County,TX,21.754932502596052
77573,Galveston County,TX,31.412253374870197
77619,Jefferson County,TX,69.31464174454828
77642,Jefferson County,TX,24.66251298026999
77651,Jefferson County,TX,87.59086188992731
77665,Chambers County,TX,86.39667705088266
77701,Jefferson County,TX,76.22014537902389
77708,Jefferson County,TX,93.30218068535827
77808,Brazos County,TX,57.68431983385255
78006,Kendall County,TX,81.93146417445483
78040,Webb County,TX,70.24922118380063
78043,Webb County,TX,37.22741433021807
78109,Bexar County,TX,74.5067497403946
78132,Comal County,TX,67.65316718587746
78207,Bexar County,TX,17.082035306334372
78210,Bexar County,TX,20.87227414330218
78211,Bexar County,TX,50.25960539979232
78214,Bexar County,TX,61.21495327102804
78220,Bexar County,TX,83.07372793354102
78221,Bexar County,TX,42.05607476635514
78223,Bexar County,TX,15.887850467289718
78227,Bexar County,TX,32.45067497403946
78228,Bexar County,TX,93.50986500519211
78232,Bexar County,TX,70.7165109034268
78239,Bexar County,TX,59.44963655244029
78244,Bexar County,TX,57.424714434060235
78332,Jim Wells County,TX,59.60539979231568
78336,San Patricio County,TX,91.38110072689511
78415,Nueces County,TX,43.04257528556594
78552,Cameron County,TX,65.73208722741433
78572,Hidalgo County,TX,15.316718587746625
78574,Hidalgo County,TX,80.16614745586709
78577,Hidalgo County,TX,23.935617860851504
78582,Starr County,TX,64.17445482866043
78586,Cameron County,TX,71.5472481827622
78596,Hidalgo County,TX,70.24922118380063
78602,Bastrop County,TX,60.17653167185878
78613,Williamson County,TX,28.14122533748702
78641,Williamson County,TX,17.964693665628246
78653,Travis County,TX,73.57217030114226
78654,Burnet County,TX,72.481827622014535
78660,Travis County,TX,22.585669781931465
78666,Hays County,TX,73.36448598130842
78721,Travis County,TX,96.78089304257529
78723,Travis County,TX,91.06957424714433
78744,Travis County,TX,61.2668743509865
78747,Travis County,TX,89.82346832814122
78754,Travis County,TX,78.71235721703012
78801,Uvalde County,TX,83.90446521287642
78840,Val Verde County,TX,59.19003115264797
78852,Maverick County,TX,52.64797507788161
79339,Lamb County,TX,97.24818276220145
79360,Gaines County,TX,49.32502596053998
79403,Lubbock County,TX,87.48701973001039
79407,Lubbock County,TX,44.704049844236756
79412,Lubbock County,TX,82.34683281412254
79415,Lubbock County,TX,86.03322949117342
79416,Lubbock County,TX,78.29698857736241
79423,Lubbock County,TX,75.18172377985462
79424,Lubbock County,TX,22.06645898234683
79735,Pecos County,TX,66.25129802699897
79756,Ward County,TX,70.35306334371755
79761,Ector County,TX,87.33125649013499
79763,Ector County,TX,63.966770508826585
79903,El Paso County,TX,84.11214953271028
79938,El Paso County,TX,62.04569055036345
84003,Utah County,UT,40.13499480789201
84043,Utah County,UT,41.38110072689512
84044,Salt Lake County,UT,39.875389408099686
84047,Salt Lake County,UT,22.793354101765317
84062,Utah County,UT,54.46521287642783
84067,Weber County,UT,65.42056074766354
84074,Tooele County,UT,2.699896157840083
84104,Salt Lake County,UT,73.26064382139148
84111,Salt Lake County,UT,71.07995846313602
84115,Salt Lake County,UT,67.1858774662513
84119,Salt Lake County,UT,9.76116303219107
84128,Salt Lake County,UT,82.19106957424714
84660,Utah County,UT,63.55140186915887
84770,Washington County,UT,34.57943925233645
05403,Chittenden County,VT,60.38421599169263
05446,Chittenden County,VT,60.43613707165109
05478,Franklin County,VT,52.232606438213914
20110,Manassas city,VA,31.048805815160957
20112,Prince William County,VA,71.70301142263759
20136,Prince William County,VA,65.57632398753894
20164,Loudoun County,VA,40.39460020768432
20187,Fauquier County,VA,77.57009345794393
20194,Fairfax County,VA,88.00623052959502
22150,Fairfax County,VA,50.67497403946002
22153,Fairfax County,VA,55.503634475597096
22193,Prince William County,VA,78.71235721703012
22201,Arlington County,VA,56.90550363447559
22305,Alexandria city,VA,71.70301142263759
22306,Fairfax County,VA,83.85254413291796
22310,Fairfax County,VA,78.08930425752855
22312,Fairfax County,VA,84.3717549325026
22407,Spotsylvania County,VA,14.693665628245068
22546,Caroline County,VA,69.67808930425753
22556,Stafford County,VA,88.7331256490135
23188,James City County,VA,71.49532710280374
23222,Richmond city,VA,13.91484942886812
23223,Henrico County,VA,2.3883696780893042
23225,Richmond city,VA,71.44340602284528
23234,Chesterfield County,VA,16.095534787123572
23462,Virginia Beach city,VA,47.40394600207684
23502,Norfolk city,VA,79.38733125649013
23503,Norfolk city,VA,85.46209761163031
23504,Norfolk city,VA,22.326064382139148
23605,Newport News city,VA,75.59709241952233
23607,Newport News city,VA,16.614745586708203
23669,Hampton city,VA,18.743509865005194
23803,Petersburg city,VA,35.41017653167186
23851,Franklin city,VA,81.56801661474559
24019,Roanoke County,VA,79.69885773624091
24153,Salem city,VA,29.80269989615784
24401,Staunton city,VA,8.774662512980271
24501,Lynchburg city,VA,24.350986500519213
24541,Danville city,VA,30.8411214953271
24572,Amherst County,VA,59.241952232606444
24641,Tazewell County,VA,78.4527518172378
98003,King County,WA,58.67082035306335
98028,King County,WA,89.7196261682243
98031,King County,WA,37.331256490135
98037,Snohomish County,WA,59.241952232606444
98038,King County,WA,28.76427829698858
98058,King County,WA,27.36240913811007
98059,King County,WA,42.15991692627207
98107,King County,WA,87.53894080996885
98112,King County,WA,52.85565939771547
98115,King County,WA,32.242990654205606
98133,King County,WA,24.45482866043614
98166,King County,WA,76.58359293873312
98177,King County,WA,68.53582554517133
98178,King County,WA,79.2834890965732
98201,Snohomish County,WA,45.22326064382139
98251,Snohomish County,WA,97.6116303219107
98270,Snohomish County,WA,47.71547248182762
98277,Island County,WA,85.30633437175493
98338,Pierce County,WA,44.18483904465213
98366,Kitsap County,WA,20.71651090342679
98406,Pierce County,WA,60.072689511941846
98467,Pierce County,WA,80.26998961578401
98520,Grays Harbor County,WA,58.98234683281412
98531,Lewis County,WA,70.50882658359295
98550,Grays Harbor County,WA,94.18483904465212
98686,Clark County,WA,88.88888888888889
98802,Douglas County,WA,47.92315680166148
98932,Yakima County,WA,98.85773624091381
98948,Yakima County,WA,87.22741433021807
99212,Spokane County,WA,80.5815160955348
99216,Spokane County,WA,61.6822429906542
99350,Benton County,WA,84.47559709241952
99352,Benton County,WA,36.7601246105919
20002,District of Columbia,DC,3.6863966770508827
20011,District of Columbia,DC,5.763239875389408
20019,District of Columbia,DC,2.64797507788162
20020,District of Columbia,DC,11.318795430944965
20024,District of Columbia,DC,81.20456905503634
25313,Kanawha County,WV,45.742471443406025
25427,Berkeley County,WV,60.79958463136034
25570,Wayne County,WV,89.1484942886812
26003,Ohio County,WV,21.079958463136034
26101,Wood County,WV,3.374870197300104
26105,Wood County,WV,45.482866043613704
26155,Wetzel County,WV,92.73104880581516
26201,Upshur County,WV,18.53582554517134
26261,Nicholas County,WV,96.31360332294912
26301,Harrison County,WV,46.573208722741434
26501,Monongalia County,WV,45.95015576323988
26554,Marion County,WV,2.959501557632399
26582,Marion County,WV,98.33852544132918
26651,Nicholas County,WV,95.95015576323988
26726,Mineral County,WV,37.53894080996885
53050,Dodge County,WI,92.05607476635514
53066,Waukesha County,WI,35.51401869158878
53073,Sheboygan County,WI,81.04880581516095
53074,Ozaukee County,WI,66.71858774662512
53090,Washington County,WI,60.59190031152648
53186,Waukesha County,WI,58.04776739356179
53188,Waukesha County,WI,53.06334371754933
53204,Milwaukee County,WI,24.143302180685357
53205,Milwaukee County,WI,12.824506749740394
53209,Milwaukee County,WI,68.43198338525441
53210,Milwaukee County,WI,5.659397715472482
53214,Milwaukee County,WI,9.345794392523365
53215,Milwaukee County,WI,3.115264797507788
53216,Milwaukee County,WI,4.569055036344756
53217,Milwaukee County,WI,31.10072689511942
53218,Milwaukee County,WI,45.586708203530634
53219,Milwaukee County,WI,14.330218068535824
53222,Milwaukee County,WI,53.9460020768432
53223,Milwaukee County,WI,12.92834890965732
53224,Milwaukee County,WI,65.52440290758048
53225,Milwaukee County,WI,8.515057113187954
53233,Milwaukee County,WI,86.70820353063343
53546,Rock County,WI,14.226375908618898
53558,Dane County,WI,85.82554517133957
53711,Dane County,WI,62.824506749740394
53916,Dodge County,WI,36.915887850467286
54016,St. Croix County,WI,42.47144340602284
54401,Marathon County,WI,35.150571131879545
54449,Wood County,WI,89.25233644859813
54467,Portage County,WI,84.31983385254414
54481,Portage County,WI,16.458982346832816
54501,Oneida County,WI,47.45586708203531
54538,Oneida County,WI,97.35202492211839
54615,Jackson County,WI,67.28971962616822
54701,Eau Claire County,WI,83.74870197300103
54755,Buffalo County,WI,91.74454828660437
82007,Laramie County,WY,57.11318795430945
82718,Campbell County,WY,80.8411214953271
