ZipCode,county,state,Adult
35215,Jefferson County,AL,8.189655172413794
35406,Tuscaloosa County,AL,72.05459770114942
35550,Walker County,AL,79.09482758620689
35749,Madison County,AL,76.07758620689656
35763,Madison County,AL,75
35951,Marshall County,AL,64.29597701149426
36025,Elmore County,AL,96.12068965517241
36117,Montgomery County,AL,32.327586206896555
36330,Coffee County,AL,74.35344827586206
99501,Anchorage Municipality,AK,20.545977011494255
99559,Bethel Census Area,AK,87.28448275862068
99603,Kenai Peninsula Borough,AK,76.29310344827587
99701,Fairbanks North Star Borough,AK,34.62643678160919
85009,Maricopa County,AZ,12.571839080459771
85043,Maricopa County,AZ,78.66379310344827
85194,Pinal County,AZ,92.88793103448276
85206,Maricopa County,AZ,45.33045977011494
85210,Maricopa County,AZ,22.198275862068968
85234,Maricopa County,AZ,31.68103448275862
85253,Maricopa County,AZ,84.62643678160919
85282,Maricopa County,AZ,40.445402298850574
85302,Maricopa County,AZ,24.71264367816092
85308,Maricopa County,AZ,65.80459770114942
85364,Yuma County,AZ,2.586206896551724
85501,Gila County,AZ,73.27586206896551
85621,Santa Cruz County,AZ,44.9712643678161
86034,Navajo County,AZ,99.06609195402298
86503,Apache County,AZ,33.764367816091955
86538,Apache County,AZ,90.94827586206897
72150,Grant County,AR,92.60057471264368
72543,Cleburne County,AR,64.36781609195403
72830,Johnson County,AR,78.66379310344827
72927,Logan County,AR,85.41666666666666
90001,Los Angeles County,CA,46.479885057471265
90002,Los Angeles County,CA,82.25574712643679
90012,Los Angeles County,CA,63.64942528735632
90019,Los Angeles County,CA,94.97126436781609
90022,Los Angeles County,CA,35.91954022988506
90033,Los Angeles County,CA,72.91666666666666
90037,Los Angeles County,CA,68.67816091954023
90274,Los Angeles County,CA,85.84770114942529
90291,Los Angeles County,CA,95.33045977011494
90602,Los Angeles County,CA,62.71551724137932
90630,Orange County,CA,47.62931034482759
90640,Los Angeles County,CA,34.339080459770116
90650,Los Angeles County,CA,49.42528735632184
90805,Los Angeles County,CA,16.666666666666664
90813,Los Angeles County,CA,31.60919540229885
91016,Los Angeles County,CA,57.543103448275865
91202,Los Angeles County,CA,86.7816091954023
91208,Los Angeles County,CA,92.09770114942529
91384,Los Angeles County,CA,74.42528735632183
91606,Los Angeles County,CA,59.554597701149426
91702,Los Angeles County,CA,63.86494252873563
91740,Los Angeles County,CA,63.00287356321839
91763,San Bernardino County,CA,63.29022988505747
91789,Los Angeles County,CA,81.17816091954023
91941,San Diego County,CA,97.19827586206897
91945,San Diego County,CA,82.18390804597702
92021,San Diego County,CA,45.258620689655174
92026,San Diego County,CA,79.45402298850574
92028,San Diego County,CA,62.5
92071,San Diego County,CA,58.04597701149425
92104,San Diego County,CA,26.36494252873563
92105,San Diego County,CA,16.163793103448278
92115,San Diego County,CA,30.31609195402299
92119,San Diego County,CA,84.91379310344827
92126,San Diego County,CA,44.396551724137936
92201,Riverside County,CA,23.275862068965516
92227,Imperial County,CA,82.61494252873564
92236,Riverside County,CA,43.67816091954023
92243,Imperial County,CA,24.20977011494253
92307,San Bernardino County,CA,26.795977011494255
92335,San Bernardino County,CA,35.3448275862069
92336,San Bernardino County,CA,9.339080459770114
92373,San Bernardino County,CA,67.95977011494253
92376,San Bernardino County,CA,8.333333333333332
92405,San Bernardino County,CA,44.54022988505747
92407,San Bernardino County,CA,81.89655172413794
92410,San Bernardino County,CA,64.87068965517241
92501,Riverside County,CA,76.65229885057471
92503,Riverside County,CA,18.67816091954023
92507,Riverside County,CA,41.09195402298851
92509,Riverside County,CA,71.12068965517241
92647,Orange County,CA,20.689655172413794
92683,Orange County,CA,75.07183908045977
92707,Orange County,CA,83.47701149425288
92780,Orange County,CA,68.10344827586206
92805,Orange County,CA,73.92241379310344
92807,Orange County,CA,57.04022988505747
92835,Orange County,CA,78.01724137931035
92869,Orange County,CA,59.77011494252874
92882,Riverside County,CA,61.63793103448276
92883,Riverside County,CA,65.58908045977012
93063,Ventura County,CA,89.9425287356322
93105,Santa Barbara County,CA,88.07471264367817
93230,Kings County,CA,17.097701149425287
93268,Kern County,CA,91.23563218390804
93274,Tulare County,CA,5.531609195402299
93306,Kern County,CA,19.468390804597703
93307,Kern County,CA,12.643678160919542
93401,San Luis Obispo County,CA,56.537356321839084
93422,San Luis Obispo County,CA,46.76724137931034
93454,Santa Barbara County,CA,29.669540229885055
93458,Santa Barbara County,CA,43.89367816091954
93550,Los Angeles County,CA,12.284482758620689
93551,Los Angeles County,CA,54.66954022988506
93555,Kern County,CA,24.137931034482758
93618,Tulare County,CA,54.0948275862069
93630,Fresno County,CA,79.23850574712644
93631,Fresno County,CA,89.22413793103449
93638,Madera County,CA,50.287356321839084
93703,Fresno County,CA,73.13218390804597
93704,Fresno County,CA,51.293103448275865
93705,Fresno County,CA,32.04022988505747
93722,Fresno County,CA,8.620689655172415
93726,Fresno County,CA,20.25862068965517
93727,Fresno County,CA,13.649425287356323
93737,Fresno County,CA,96.83908045977012
93905,Monterey County,CA,68.606321839080465
93906,Monterey County,CA,69.61206896551724
93930,Monterey County,CA,73.0603448275862
94041,Santa Clara County,CA,90.73275862068965
94044,San Mateo County,CA,52.80172413793104
94080,San Mateo County,CA,77.6580459770115
94102,San Francisco County,CA,77.29885057471265
94105,San Francisco County,CA,94.4683908045977
94115,San Francisco County,CA,48.56321839080459
94116,San Francisco County,CA,56.106321839080465
94118,San Francisco County,CA,79.88505747126436
94121,San Francisco County,CA,69.97126436781609
94122,San Francisco County,CA,85.34482758620689
94134,San Francisco County,CA,69.03735632183908
94530,Contra Costa County,CA,98.77873563218391
94533,Solano County,CA,22.48563218390805
94536,Alameda County,CA,30.24425287356322
94541,Alameda County,CA,23.49137931034483
94544,Alameda County,CA,17.24137931034483
94545,Alameda County,CA,74.71264367816092
94555,Alameda County,CA,66.0919540229885
94565,Contra Costa County,CA,20.474137931034484
94587,Alameda County,CA,35.48850574712644
94597,Contra Costa County,CA,70.47413793103449
94601,Alameda County,CA,73.63505747126436
94945,Marin County,CA,91.02011494252874
94954,Sonoma County,CA,49.353448275862064
95008,Santa Clara County,CA,84.48275862068965
95023,San Benito County,CA,26.72413793103448
95035,Santa Clara County,CA,49.497126436781606
95076,Santa Cruz County,CA,18.46264367816092
95116,Santa Clara County,CA,42.5287356321839
95123,Santa Clara County,CA,37.212643678160916
95127,Santa Clara County,CA,82.32758620689656
95134,Santa Clara County,CA,75.93390804597702
95240,San Joaquin County,CA,45.689655172413794
95307,Stanislaus County,CA,64.15229885057471
95351,Stanislaus County,CA,54.166666666666664
95355,Stanislaus County,CA,8.045977011494253
95358,Stanislaus County,CA,29.382183908045977
95363,Stanislaus County,CA,61.27873563218391
95382,Stanislaus County,CA,23.92241379310345
95407,Sonoma County,CA,59.84195402298851
95476,Sonoma County,CA,69.97126436781609
95540,Humboldt County,CA,89.58333333333334
95562,Humboldt County,CA,99.56896551724138
95605,Yolo County,CA,97.91666666666666
95616,Yolo County,CA,90.37356321839081
95747,Placer County,CA,39.72701149425287
95815,Sacramento County,CA,64.79885057471265
95820,Sacramento County,CA,77.08333333333334
95821,Sacramento County,CA,42.025862068965516
95822,Sacramento County,CA,38.793103448275865
95926,Butte County,CA,33.11781609195402
95928,Butte County,CA,32.974137931034484
95966,Butte County,CA,9.698275862068966
95971,Plumas County,CA,93.0316091954023
95988,Glenn County,CA,81.03448275862068
95991,Sutter County,CA,28.01724137931034
96150,El Dorado County,CA,87.93103448275862
80020,Broomfield County,CO,44.037356321839084
80112,Arapahoe County,CO,53.80747126436781
80219,Denver County,CO,4.238505747126436
80229,Adams County,CO,13.505747126436782
80260,Adams County,CO,46.19252873563218
80403,Jefferson County,CO,86.63793103448276
80524,Larimer County,CO,76.72413793103449
80549,Larimer County,CO,84.55459770114942
80631,Weld County,CO,7.902298850574713
80634,Weld County,CO,1.7241379310344827
80918,El Paso County,CO,74.20977011494253
80921,El Paso County,CO,82.97413793103449
81001,Pueblo County,CO,19.97126436781609
81425,Montrose County,CO,98.0603448275862
06052,Hartford County,CT,77.15517241379311
06082,Hartford County,CT,18.031609195402297
06096,Hartford County,CT,78.01724137931035
06106,Hartford County,CT,4.022988505747127
06112,Hartford County,CT,48.060344827586206
06118,Hartford County,CT,24.42528735632184
06226,Windham County,CT,15.660919540229884
06239,Windham County,CT,35.63218390804598
06278,Windham County,CT,97.62931034482759
06405,New Haven County,CT,40.73275862068966
06511,New Haven County,CT,21.408045977011493
06512,New Haven County,CT,22.054597701149426
06513,New Haven County,CT,3.4482758620689653
06514,New Haven County,CT,34.554597701149426
06515,New Haven County,CT,28.59195402298851
06516,New Haven County,CT,6.824712643678161
06518,New Haven County,CT,93.606321839080465
06605,Fairfield County,CT,32.90229885057471
06610,Fairfield County,CT,60.129310344827594
06708,New Haven County,CT,21.479885057471265
06716,New Haven County,CT,84.77011494252874
06776,Litchfield County,CT,27.586206896551722
06790,Litchfield County,CT,5.100574712643678
06877,Fairfield County,CT,76.79597701149426
19701,New Castle County,DE,26.29310344827586
19720,New Castle County,DE,84.05172413793103
19734,New Castle County,DE,75.64655172413794
19801,New Castle County,DE,87.78735632183908
19803,New Castle County,DE,61.422413793103445
19808,New Castle County,DE,21.479885057471265
19901,Kent County,DE,49.2816091954023
19963,Sussex County,DE,34.12356321839081
19973,Sussex County,DE,45.83333333333333
32055,Columbia County,FL,40.229885057471265
32092,St. Johns County,FL,51.86781609195402
32130,Volusia County,FL,96.69540229885058
32174,Volusia County,FL,46.62356321839081
32206,Duval County,FL,20.04310344827586
32208,Duval County,FL,8.764367816091955
32209,Duval County,FL,3.5919540229885056
32210,Duval County,FL,3.089080459770115
32218,Duval County,FL,2.8017241379310347
32219,Duval County,FL,44.4683908045977
32221,Duval County,FL,28.663793103448278
32571,Santa Rosa County,FL,43.103448275862064
32656,Clay County,FL,68.96551724137932
32708,Seminole County,FL,45.18678160919541
32725,Volusia County,FL,35.05747126436782
32738,Volusia County,FL,36.35057471264368
32796,Brevard County,FL,52.514367816091955
32937,Brevard County,FL,72.27011494252874
33032,Miami-Dade County,FL,40.94827586206897
33035,Miami-Dade County,FL,91.95402298850574
33064,Broward County,FL,37.06896551724138
33142,Miami-Dade County,FL,50.43103448275862
33168,Miami-Dade County,FL,87.42816091954023
33169,Miami-Dade County,FL,41.37931034482759
33181,Miami-Dade County,FL,80.31609195402298
33311,Broward County,FL,28.448275862068968
33316,Broward County,FL,98.63505747126436
33428,Palm Beach County,FL,67.09770114942529
33440,Hendry County,FL,50.7183908045977
33441,Broward County,FL,55.45977011494253
33584,Hillsborough County,FL,79.38218390804597
33604,Hillsborough County,FL,23.132183908045977
33619,Hillsborough County,FL,34.91379310344828
33770,Pinellas County,FL,57.68678160919541
33781,Pinellas County,FL,46.839080459770116
33813,Polk County,FL,60.05747126436781
33825,Highlands County,FL,51.65229885057471
34113,Collier County,FL,79.02298850574712
34117,Collier County,FL,65.01436781609196
34205,Manatee County,FL,65.73275862068965
34286,Sarasota County,FL,93.31896551724138
34287,Sarasota County,FL,52.370689655172406
34473,Marion County,FL,48.85057471264368
34613,Hernando County,FL,73.5632183908046
34690,Pasco County,FL,70.40229885057471
34951,St. Lucie County,FL,81.46551724137932
34953,St. Lucie County,FL,4.741379310344827
30043,Gwinnett County,GA,21.623563218390803
30058,DeKalb County,GA,19.612068965517242
30060,Cobb County,GA,38.146551724137936
30097,Fulton County,GA,59.985632183908045
30126,Cobb County,GA,43.39080459770115
30132,Paulding County,GA,32.112068965517246
30188,Cherokee County,GA,20.833333333333336
30220,Coweta County,GA,88.79310344827587
30240,Troup County,GA,25.071839080459768
30241,Troup County,GA,26.652298850574713
30248,Henry County,GA,57.974137931034484
30252,Henry County,GA,38.64942528735632
30312,Fulton County,GA,59.41091954022989
30507,Hall County,GA,43.31896551724138
30519,Gwinnett County,GA,45.97701149425287
30542,Hall County,GA,52.72988505747126
30553,Franklin County,GA,87.42816091954023
30683,Clarke County,GA,87.85919540229885
30720,Whitfield County,GA,54.741379310344826
31015,Crisp County,GA,48.20402298850575
31027,Laurens County,GA,95.11494252873564
31093,Houston County,GA,32.39942528735632
31211,Bibb County,GA,70.33045977011494
31216,Bibb County,GA,80.5316091954023
31750,Ben Hill County,GA,58.11781609195402
31808,Harris County,GA,88.43390804597702
96706,Honolulu County,HI,10.416666666666668
96744,Honolulu County,HI,18.96551724137931
96761,Maui County,HI,86.85344827586206
96792,Honolulu County,HI,11.85344827586207
96819,Honolulu County,HI,15.517241379310345
83201,Bannock County,ID,21.982758620689655
83263,Franklin County,ID,92.02586206896551
83301,Twin Falls County,ID,77.22701149425288
83338,Jerome County,ID,94.68390804597702
83350,Minidoka County,ID,89.29597701149426
83440,Madison County,ID,69.18103448275862
83501,Nez Perce County,ID,13.433908045977011
83642,Ada County,ID,86.20689655172413
83646,Ada County,ID,11.566091954022989
83647,Elmore County,ID,73.49137931034483
83651,Canyon County,ID,16.882183908045977
83672,Washington County,ID,91.66666666666666
83686,Canyon County,ID,7.614942528735632
83687,Canyon County,ID,21.048850574712645
83702,Ada County,ID,62.28448275862068
83705,Ada County,ID,61.70977011494253
83706,Ada County,ID,75.79022988505747
83709,Ada County,ID,74.13793103448276
83713,Ada County,ID,95.47413793103449
83860,Bonner County,ID,96.04885057471265
60004,Cook County,IL,24.20977011494253
60030,Lake County,IL,72.70114942528735
60056,Cook County,IL,38.577586206896555
60099,Lake County,IL,39.94252873563218
60133,Cook County,IL,43.53448275862069
60137,DuPage County,IL,33.26149425287356
60154,Cook County,IL,51.724137931034484
60169,Cook County,IL,46.98275862068966
60174,Kane County,IL,45.54597701149425
60175,Kane County,IL,60.63218390804598
60195,Cook County,IL,99.71264367816092
60304,Cook County,IL,57.18390804597702
60433,Will County,IL,61.206896551724135
60447,Grundy County,IL,56.32183908045977
60451,Will County,IL,52.514367816091955
60452,Cook County,IL,76.36494252873564
60526,Cook County,IL,72.84482758620689
60532,DuPage County,IL,45.11494252873563
60543,Kendall County,IL,36.206896551724135
60544,Will County,IL,37.35632183908046
60560,Kendall County,IL,42.95977011494253
60586,Will County,IL,14.080459770114942
60601,Cook County,IL,85.0574712643678
60611,Cook County,IL,55.603448275862064
60613,Cook County,IL,26.867816091954023
60623,Cook County,IL,6.752873563218391
60638,Cook County,IL,9.051724137931034
60641,Cook County,IL,12.5
60651,Cook County,IL,7.830459770114942
60655,Cook County,IL,83.6925287356322
61109,Winnebago County,IL,44.612068965517246
61356,Bureau County,IL,73.70689655172413
61443,Henry County,IL,83.33333333333334
61611,Tazewell County,IL,72.12643678160919
61761,McLean County,IL,69.89942528735632
61951,Moultrie County,IL,89.51149425287356
62223,St. Clair County,IL,69.75574712643679
62226,St. Clair County,IL,43.247126436781606
62806,Edwards County,IL,99.20977011494253
46016,Madison County,IN,14.00862068965517
46032,Hamilton County,IN,74.78448275862068
46184,Johnson County,IN,72.5574712643678
46254,Marion County,IN,21.048850574712645
46307,Lake County,IN,27.873563218390807
46311,Lake County,IN,31.46551724137931
46312,Lake County,IN,15.373563218390803
46320,Lake County,IN,33.90804597701149
46323,Lake County,IN,19.68390804597701
46327,Lake County,IN,84.12356321839081
46341,Porter County,IN,62.643678160919535
46368,Porter County,IN,1.8678160919540232
46394,Lake County,IN,55.10057471264368
46404,Lake County,IN,65.1580459770115
46514,Elkhart County,IN,28.807471264367816
46528,Elkhart County,IN,73.85057471264368
46561,St. Joseph County,IN,85.20114942528735
46628,St. Joseph County,IN,49.56896551724138
46795,LaGrange County,IN,96.91091954022988
46818,Allen County,IN,39.439655172413794
46902,Howard County,IN,2.9454022988505746
46947,Cass County,IN,11.781609195402298
46953,Grant County,IN,11.278735632183908
47201,Bartholomew County,IN,11.494252873563218
47246,Bartholomew County,IN,99.13793103448276
47586,Perry County,IN,67.60057471264368
47601,Warrick County,IN,90.51724137931035
47620,Posey County,IN,69.4683908045977
47715,Vanderburgh County,IN,29.238505747126435
47834,Clay County,IN,30.81896551724138
47906,Tippecanoe County,IN,55.172413793103445
47933,Montgomery County,IN,30.603448275862068
50021,Polk County,IA,73.27586206896551
50266,Polk County,IA,76.00574712643679
50322,Polk County,IA,61.7816091954023
50501,Webster County,IA,23.99425287356322
50702,Black Hawk County,IA,41.37931034482759
51002,Buena Vista County,IA,99.49712643678161
51054,Woodbury County,IA,96.4080459770115
51108,Woodbury County,IA,90.1580459770115
51442,Crawford County,IA,90.22988505747126
52246,Johnson County,IA,82.04022988505747
52402,Linn County,IA,18.318965517241377
52403,Linn County,IA,42.38505747126437
52405,Linn County,IA,38.64942528735632
52556,Jefferson County,IA,75.64655172413794
52577,Mahaska County,IA,36.70977011494253
52722,Scott County,IA,19.396551724137932
52730,Clinton County,IA,92.60057471264368
52761,Muscatine County,IA,38.93678160919541
52803,Scott County,IA,66.37931034482759
66061,Johnson County,KS,18.893678160919542
67601,Ellis County,KS,40.589080459770116
40004,Nelson County,KY,17.95977011494253
40065,Shelby County,KY,40.014367816091955
40160,Hardin County,KY,31.321839080459768
40175,Hardin County,KY,57.83045977011494
40206,Jefferson County,KY,86.99712643678161
40215,Jefferson County,KY,17.81609195402299
40311,Nicholas County,KY,72.48563218390804
40356,Jessamine County,KY,13.07471264367816
40380,Powell County,KY,70.47413793103449
40422,Boyle County,KY,47.8448275862069
40701,Whitley County,KY,10.129310344827585
40977,Bell County,KY,53.66379310344828
41005,Boone County,KY,82.6867816091954
41035,Grant County,KY,45.9051724137931
41074,Campbell County,KY,98.34770114942529
41076,Campbell County,KY,70.61781609195403
41144,Greenup County,KY,39.51149425287356
41168,Boyd County,KY,95.76149425287356
41169,Greenup County,KY,67.3132183908046
41501,Pike County,KY,11.422413793103448
41553,Pike County,KY,97.77298850574712
41653,Floyd County,KY,44.10919540229885
42104,Warren County,KY,71.91091954022988
42167,Monroe County,KY,63.577586206896555
42276,Logan County,KY,55.31609195402298
42647,McCreary County,KY,99.92816091954023
70002,Jefferson Parish,LA,46.19252873563218
70037,Plaquemines Parish,LA,71.83908045977012
70065,Jefferson Parish,LA,3.3764367816091956
70072,Jefferson Parish,LA,34.69827586206897
70094,Jefferson Parish,LA,23.347701149425287
70115,Orleans Parish,LA,67.09770114942529
70127,Orleans Parish,LA,80.60344827586206
70301,Lafourche Parish,LA,1.3649425287356323
70401,Tangipahoa Parish,LA,93.67816091954023
70438,Washington Parish,LA,41.66666666666667
70512,St. Landry Parish,LA,63.36206896551724
70560,Iberia Parish,LA,1.5804597701149428
70586,Evangeline Parish,LA,14.798850574712644
70592,Lafayette Parish,LA,28.376436781609193
70663,Calcasieu Parish,LA,64.4396551724138
70726,Livingston Parish,LA,25.502873563218394
70769,Ascension Parish,LA,35.775862068965516
70805,East Baton Rouge Parish,LA,2.0114942528735633
70808,East Baton Rouge Parish,LA,73.41954022988506
70810,East Baton Rouge Parish,LA,30.89080459770115
70814,East Baton Rouge Parish,LA,34.48275862068966
70817,East Baton Rouge Parish,LA,31.752873563218394
71037,Bossier Parish,LA,49.78448275862069
71055,Webster Parish,LA,16.307471264367816
71111,Bossier Parish,LA,4.3821839080459775
71263,West Carroll Parish,LA,52.1551724137931
71295,Franklin Parish,LA,50.07183908045977
71334,Concordia Parish,LA,95.90517241379311
03903,York County,ME,81.53735632183908
03904,York County,ME,90.44540229885058
03909,York County,ME,54.45402298850575
04043,York County,ME,63.2183908045977
04101,Cumberland County,ME,34.84195402298851
20852,Montgomery County,MD,89.79885057471265
20853,Montgomery County,MD,78.52011494252874
20910,Montgomery County,MD,58.26149425287356
21047,Harford County,MD,81.60919540229885
21207,Baltimore County,MD,20.905172413793103
21209,Baltimore County,MD,62.212643678160916
21228,Baltimore County,MD,51.508620689655174
21230,Baltimore city,MD,97.41379310344827
21286,Baltimore County,MD,92.52873563218391
21620,Kent County,MD,83.9080459770115
21774,Frederick County,MD,85.91954022988506
01028,Hampden County,MA,44.18103448275862
01108,Hampden County,MA,10.488505747126437
01109,Hampden County,MA,7.327586206896551
01201,Berkshire County,MA,0.7183908045977011
01230,Berkshire County,MA,66.45114942528735
01267,Berkshire County,MA,78.5919540229885
01571,Worcester County,MA,28.735632183908045
01581,Worcester County,MA,94.82758620689656
01603,Worcester County,MA,1.0057471264367817
01604,Worcester County,MA,6.10632183908046
01606,Worcester County,MA,16.810344827586206
01609,Worcester County,MA,1.9396551724137931
01748,Middlesex County,MA,95.83333333333334
01752,Middlesex County,MA,2.1551724137931036
01843,Essex County,MA,81.393678160919535
01844,Essex County,MA,7.6867816091954015
01854,Middlesex County,MA,1.0775862068965518
01860,Essex County,MA,80.31609195402298
01867,Middlesex County,MA,26.436781609195403
01906,Essex County,MA,78.23275862068965
01913,Essex County,MA,24.20977011494253
01915,Essex County,MA,0.9339080459770116
01923,Essex County,MA,18.24712643678161
02056,Norfolk County,MA,70.11494252873564
02108,Suffolk County,MA,88.29022988505747
02121,Suffolk County,MA,19.03735632183908
02124,Suffolk County,MA,12.71551724137931
02125,Suffolk County,MA,0
02129,Suffolk County,MA,2.442528735632184
02130,Suffolk County,MA,0.5028735632183908
02136,Suffolk County,MA,1.1494252873563218
02143,Middlesex County,MA,24.64080459770115
02151,Suffolk County,MA,17.74425287356322
02155,Middlesex County,MA,6.321839080459771
02169,Norfolk County,MA,0.07183908045977011
02171,Norfolk County,MA,28.879310344827587
02176,Middlesex County,MA,7.183908045977011
02180,Middlesex County,MA,40.51724137931034
02330,Plymouth County,MA,49.137931034482754
02360,Plymouth County,MA,0.28735632183908044
02451,Middlesex County,MA,24.49712643678161
02452,Middlesex County,MA,62.356321839080465
02453,Middlesex County,MA,8.548850574712644
02472,Middlesex County,MA,6.39367816091954
02601,Barnstable County,MA,20.761494252873565
02645,Barnstable County,MA,64.9425287356322
02703,Bristol County,MA,17.025862068965516
02740,Bristol County,MA,0.35919540229885055
02745,Bristol County,MA,13.577586206896552
02760,Bristol County,MA,10.704022988505747
02766,Bristol County,MA,50.143678160919535
48003,Lapeer County,MI,85.70402298850574
48005,Macomb County,MI,90.08620689655173
48009,Oakland County,MI,77.37068965517241
48023,St. Clair County,MI,91.52298850574712
48044,Macomb County,MI,51.58045977011494
48048,Macomb County,MI,89.4396551724138
48051,Macomb County,MI,57.327586206896555
48062,Macomb County,MI,81.82471264367817
48066,Macomb County,MI,2.227011494252874
48073,Oakland County,MI,28.23275862068966
48083,Oakland County,MI,56.82471264367817
48085,Oakland County,MI,29.74137931034483
48094,Macomb County,MI,50.86206896551724
48101,Wayne County,MI,22.341954022988507
48117,Monroe County,MI,53.08908045977011
48120,Wayne County,MI,71.62356321839081
48124,Wayne County,MI,52.083333333333336
48125,Wayne County,MI,79.59770114942529
48126,Wayne County,MI,56.03448275862068
48127,Wayne County,MI,40.08620689655172
48135,Wayne County,MI,21.839080459770116
48141,Wayne County,MI,31.82471264367816
48144,Monroe County,MI,87.57183908045977
48146,Wayne County,MI,7.543103448275862
48150,Wayne County,MI,26.07758620689655
48162,Monroe County,MI,11.925287356321839
48170,Wayne County,MI,12.78735632183908
48174,Wayne County,MI,6.4655172413793105
48180,Wayne County,MI,46.048850574712645
48183,Wayne County,MI,54.59770114942529
48186,Wayne County,MI,5.459770114942529
48195,Wayne County,MI,56.68103448275862
48203,Wayne County,MI,14.224137931034484
48205,Wayne County,MI,3.3045977011494254
48206,Wayne County,MI,26.07758620689655
48209,Wayne County,MI,55.81896551724138
48210,Wayne County,MI,24.856321839080458
48213,Wayne County,MI,10.272988505747128
48215,Wayne County,MI,80.17241379310344
48219,Wayne County,MI,4.310344827586207
48220,Oakland County,MI,45.61781609195402
48221,Wayne County,MI,4.597701149425287
48223,Wayne County,MI,12.140804597701148
48227,Wayne County,MI,33.69252873563218
48228,Wayne County,MI,49.85632183908046
48313,Macomb County,MI,25.646551724137932
48328,Oakland County,MI,37.35632183908046
48386,Oakland County,MI,60.91954022988506
48393,Oakland County,MI,46.19252873563218
48423,Genesee County,MI,30.31609195402299
48430,Genesee County,MI,24.71264367816092
48441,Huron County,MI,92.16954022988506
48446,Lapeer County,MI,13.721264367816092
48455,Lapeer County,MI,96.55172413793103
48463,Genesee County,MI,98.70689655172413
48506,Genesee County,MI,23.563218390804597
48602,Saginaw County,MI,2.658045977011494
48612,Gladwin County,MI,82.6867816091954
48640,Midland County,MI,9.123563218390805
48650,Bay County,MI,78.30459770114942
48837,Eaton County,MI,56.82471264367817
48888,Montcalm County,MI,80.10057471264368
48893,Isabella County,MI,71.76724137931035
48910,Ingham County,MI,11.350574712643677
48912,Ingham County,MI,52.370689655172406
49022,Berrien County,MI,35.201149425287355
49024,Kalamazoo County,MI,58.90804597701149
49047,Cass County,MI,51.86781609195402
49099,St. Joseph County,MI,88.00287356321839
49107,Berrien County,MI,67.88793103448276
49221,Lenawee County,MI,19.468390804597703
49307,Mecosta County,MI,52.1551724137931
49319,Kent County,MI,62.06896551724138
49321,Kent County,MI,56.60919540229885
49337,Newaygo County,MI,66.8103448275862
49349,Newaygo County,MI,58.90804597701149
49415,Muskegon County,MI,84.62643678160919
49424,Ottawa County,MI,14.583333333333334
49506,Kent County,MI,23.635057471264368
49507,Kent County,MI,42.672413793103445
49508,Kent County,MI,4.813218390804598
49519,Kent County,MI,46.910919540229884
49534,Kent County,MI,56.68103448275862
49546,Kent County,MI,37.14080459770115
49548,Kent County,MI,6.896551724137931
49684,Grand Traverse County,MI,55.38793103448276
49686,Grand Traverse County,MI,47.8448275862069
49801,Dickinson County,MI,62.71551724137932
49946,Baraga County,MI,93.46264367816092
55016,Washington County,MN,70.6896551724138
55033,Dakota County,MN,29.166666666666668
55076,Dakota County,MN,59.62643678160919
55103,Ramsey County,MN,45.33045977011494
55104,Ramsey County,MN,14.439655172413794
55106,Ramsey County,MN,6.0344827586206895
55107,Ramsey County,MN,71.47988505747126
55110,Ramsey County,MN,48.922413793103445
55112,Ramsey County,MN,39.58333333333333
55129,Washington County,MN,71.98275862068965
55340,Hennepin County,MN,99.35344827586206
55376,Wright County,MN,83.54885057471265
55387,Carver County,MN,74.92816091954023
55407,Hennepin County,MN,5.603448275862069
55412,Hennepin County,MN,8.261494252873563
55442,Hennepin County,MN,76.86781609195403
55449,Anoka County,MN,50.79022988505747
55912,Mower County,MN,6.17816091954023
56007,Freeborn County,MN,64.00862068965517
56258,Lyon County,MN,72.19827586206897
56304,Sherburne County,MN,58.83620689655172
56425,Crow Wing County,MN,86.0632183908046
56573,Otter Tail County,MN,61.92528735632183
56601,Beltrami County,MN,68.17528735632183
56671,Beltrami County,MN,91.8103448275862
56763,Roseau County,MN,74.856321839080465
38632,DeSoto County,MS,50.21551724137932
38680,DeSoto County,MS,96.55172413793103
38834,Alcorn County,MS,18.606321839080458
39047,Rankin County,MS,52.945402298850574
39071,Madison County,MS,95.25862068965517
39111,Simpson County,MS,74.06609195402298
39194,Yazoo County,MS,91.88218390804597
39206,Hinds County,MS,27.945402298850574
39212,Hinds County,MS,69.68390804597702
39367,Wayne County,MS,77.87356321839081
39401,Forrest County,MS,30.531609195402297
39443,Jones County,MS,64.22413793103449
39503,Harrison County,MS,9.770114942528735
39507,Harrison County,MS,66.88218390804597
39573,Stone County,MS,89.65517241379311
63005,St. Louis County,MO,85.0574712643678
63033,St. Louis County,MO,15.014367816091953
63116,St. Louis city,MO,33.90804597701149
63120,St. Louis city,MO,84.33908045977012
63125,St. Louis County,MO,41.30747126436782
63130,St. Louis County,MO,52.01149425287356
63146,St. Louis County,MO,76.9396551724138
63385,St. Charles County,MO,15.301724137931034
63601,St. Francois County,MO,42.60057471264368
63624,St. Francois County,MO,97.5574712643678
64040,Johnson County,MO,79.8132183908046
64063,Jackson County,MO,38.07471264367816
64079,Platte County,MO,56.9683908045977
64116,Clay County,MO,57.11206896551724
64119,Clay County,MO,9.985632183908045
64157,Clay County,MO,32.25574712643678
64468,Nodaway County,MO,64.72701149425288
64506,Buchanan County,MO,17.887931034482758
64683,Grundy County,MO,58.620689655172406
65203,Boone County,MO,72.62931034482759
65301,Pettis County,MO,19.68390804597701
65325,Benton County,MO,98.99425287356321
65336,Johnson County,MO,95.1867816091954
65337,Pettis County,MO,97.27011494252874
65355,Benton County,MO,94.32471264367817
65802,Greene County,MO,37.57183908045977
65803,Greene County,MO,9.554597701149426
65807,Greene County,MO,26.221264367816094
59840,Ravalli County,MT,75.50287356321839
68138,Sarpy County,NE,92.60057471264368
68144,Douglas County,NE,66.59482758620689
68410,Otoe County,NE,93.893678160919535
68462,Lancaster County,NE,99.78448275862068
68502,Lancaster County,NE,68.39080459770115
68776,Dakota County,NE,77.51436781609196
89119,Clark County,NV,53.879310344827594
89141,Clark County,NV,75.21551724137932
89408,Lyon County,NV,36.56609195402299
89433,Washoe County,NV,39.15229885057471
89434,Washoe County,NV,42.81609195402299
89436,Washoe County,NV,22.126436781609197
89506,Washoe County,NV,17.52873563218391
89523,Washoe County,NV,53.37643678160919
03051,Hillsborough County,NH,21.695402298850574
03062,Hillsborough County,NH,50
03103,Hillsborough County,NH,4.885057471264368
03275,Merrimack County,NH,74.64080459770115
03461,Cheshire County,NH,93.96551724137932
03766,Grafton County,NH,90.73275862068965
03833,Rockingham County,NH,37.85919540229885
07002,Hudson County,NJ,9.410919540229886
07030,Hudson County,NJ,5.890804597701149
07033,Union County,NJ,91.37931034482759
07112,Essex County,NJ,17.385057471264368
07201,Union County,NJ,7.040229885057471
07305,Hudson County,NJ,33.33333333333333
07410,Bergen County,NJ,76.07758620689656
07417,Bergen County,NJ,84.8419540229885
07513,Passaic County,NJ,59.26724137931034
07522,Passaic County,NJ,22.916666666666664
07628,Bergen County,NJ,39.58333333333333
07631,Bergen County,NJ,27.442528735632184
07728,Monmouth County,NJ,14.367816091954023
07748,Monmouth County,NJ,28.089080459770116
07840,Warren County,NJ,32.68678160919541
07950,Morris County,NJ,61.35057471264368
08046,Burlington County,NJ,59.48275862068966
08053,Burlington County,NJ,86.35057471264368
08075,Burlington County,NJ,43.75
08078,Camden County,NJ,82.32758620689656
08080,Gloucester County,NJ,10.632183908045976
08093,Gloucester County,NJ,36.422413793103445
08106,Camden County,NJ,95.6896551724138
08234,Atlantic County,NJ,86.13505747126436
08332,Cumberland County,NJ,33.83620689655172
08361,Cumberland County,NJ,87.06896551724138
08401,Atlantic County,NJ,18.82183908045977
08609,Mercer County,NJ,10.201149425287356
08619,Mercer County,NJ,48.20402298850575
08816,Middlesex County,NJ,34.339080459770116
08861,Middlesex County,NJ,10.560344827586206
08865,Warren County,NJ,3.9511494252873565
08873,Somerset County,NJ,13.936781609195403
08902,Middlesex County,NJ,84.91379310344827
87106,Bernalillo County,NM,69.54022988505747
87111,Bernalillo County,NM,2.8735632183908044
87120,Bernalillo County,NM,33.4051724137931
87121,Bernalillo County,NM,3.5201149425287355
87402,San Juan County,NM,83.04597701149426
87740,Colfax County,NM,93.46264367816092
88001,Doa Ana County,NM,59.12356321839081
88203,Chaves County,NM,18.39080459770115
88310,Otero County,NM,23.060344827586206
10021,New York County,NY,71.69540229885058
10023,New York County,NY,48.491379310344826
10025,New York County,NY,5.028735632183908
10029,New York County,NY,4.166666666666666
10305,Richmond County,NY,18.17528735632184
10309,Richmond County,NY,58.333333333333336
10454,Bronx County,NY,5.818965517241379
10458,Bronx County,NY,0.14367816091954022
10466,Bronx County,NY,20.330459770114942
10468,Bronx County,NY,22.557471264367816
10566,Westchester County,NY,55.5316091954023
10956,Rockland County,NY,77.94540229885058
10977,Rockland County,NY,63.64942528735632
11206,Kings County,NY,1.5086206896551724
11207,Kings County,NY,0.21551724137931033
11208,Kings County,NY,0.5747126436781609
11218,Kings County,NY,15.876436781609197
11220,Kings County,NY,35.27298850574713
11237,Kings County,NY,22.988505747126435
11368,Queens County,NY,28.520114942528735
11372,Queens County,NY,28.951149425287355
11416,Queens County,NY,75.35919540229885
11423,Queens County,NY,95.40229885057471
11426,Queens County,NY,93.75
11429,Queens County,NY,69.39655172413794
11435,Queens County,NY,37.57183908045977
11553,Nassau County,NY,78.87931034482759
11703,Suffolk County,NY,95.97701149425288
11801,Nassau County,NY,80.96264367816092
12043,Schoharie County,NY,54.956896551724135
12053,Schenectady County,NY,93.10344827586206
12202,Albany County,NY,25.43103448275862
12203,Albany County,NY,68.82183908045977
12828,Washington County,NY,41.235632183908045
12834,Washington County,NY,68.17528735632183
12839,Washington County,NY,25.93390804597701
13031,Onondaga County,NY,42.95977011494253
13066,Onondaga County,NY,66.23563218390804
13069,Oswego County,NY,4.525862068965517
13090,Onondaga County,NY,46.048850574712645
13146,Wayne County,NY,89.87068965517241
13148,Seneca County,NY,57.25574712643679
13332,Madison County,NY,85.5603448275862
13367,Lewis County,NY,38.002873563218394
13439,Otsego County,NY,80.67528735632183
13440,Oneida County,NY,1.221264367816092
13476,Oneida County,NY,87.356321839080465
13617,St. Lawrence County,NY,32.758620689655174
13661,Jefferson County,NY,99.64080459770115
13760,Broome County,NY,0.43103448275862066
13790,Broome County,NY,54.525862068965516
13815,Chenango County,NY,12.931034482758621
13820,Otsego County,NY,8.979885057471265
13838,Delaware County,NY,86.42241379310344
13856,Delaware County,NY,91.3074712643678
13901,Broome County,NY,37.71551724137931
14020,Genesee County,NY,59.33908045977011
14032,Erie County,NY,82.90229885057471
14043,Erie County,NY,31.537356321839084
14058,Genesee County,NY,85.70402298850574
14094,Niagara County,NY,62.14080459770115
14120,Niagara County,NY,3.807471264367816
14167,Wyoming County,NY,98.85057471264368
14207,Erie County,NY,7.399425287356322
14208,Erie County,NY,27.65804597701149
14210,Erie County,NY,58.4051724137931
14220,Erie County,NY,42.31321839080459
14221,Erie County,NY,10.991379310344827
14227,Erie County,NY,23.132183908045977
14414,Livingston County,NY,83.97988505747126
14420,Monroe County,NY,14.655172413793101
14424,Ontario County,NY,15.589080459770116
14428,Monroe County,NY,73.77873563218391
14433,Wayne County,NY,57.90229885057471
14437,Livingston County,NY,72.98850574712644
14456,Ontario County,NY,6.609195402298851
14467,Monroe County,NY,57.47126436781609
14489,Wayne County,NY,31.03448275862069
14502,Wayne County,NY,59.69827586206896
14505,Wayne County,NY,83.54885057471265
14522,Wayne County,NY,31.896551724137932
14526,Monroe County,NY,14.439655172413794
14530,Wyoming County,NY,91.0919540229885
14559,Monroe County,NY,76.4367816091954
14564,Ontario County,NY,51.14942528735632
14586,Monroe County,NY,31.25
14606,Monroe County,NY,1.7959770114942528
14607,Monroe County,NY,17.67241379310345
14608,Monroe County,NY,12.21264367816092
14609,Monroe County,NY,22.413793103448278
14613,Monroe County,NY,38.362068965517246
14615,Monroe County,NY,69.10919540229885
14616,Monroe County,NY,2.083333333333333
14617,Monroe County,NY,46.55172413793103
14619,Monroe County,NY,13.218390804597702
14623,Monroe County,NY,15.948275862068966
14624,Monroe County,NY,15.086206896551724
14626,Monroe County,NY,16.522988505747126
14701,Chautauqua County,NY,16.020114942528735
14787,Chautauqua County,NY,88.57758620689656
14806,Allegany County,NY,94.18103448275862
14810,Steuben County,NY,63.93678160919541
14830,Steuben County,NY,22.701149425287355
27043,Stokes County,NC,82.11206896551724
27101,Forsyth County,NC,80.24425287356321
27107,Forsyth County,NC,3.2327586206896552
27239,Davidson County,NC,66.3074712643678
27284,Forsyth County,NC,61.13505747126437
27288,Rockingham County,NC,12.428160919540229
27292,Davidson County,NC,3.6637931034482754
27317,Randolph County,NC,78.16091954022988
27513,Wake County,NC,82.32758620689656
27534,Wayne County,NC,33.90804597701149
27540,Wake County,NC,44.612068965517246
27549,Franklin County,NC,21.192528735632184
27565,Granville County,NC,21.336206896551722
27801,Edgecombe County,NC,38.43390804597701
27896,Wilson County,NC,77.01149425287356
28173,Union County,NC,37.93103448275862
28303,Cumberland County,NC,54.81321839080459
28306,Bladen County,NC,30.31609195402299
28364,Robeson County,NC,43.462643678160916
28403,New Hanover County,NC,39.224137931034484
28540,Onslow County,NC,25
28560,Craven County,NC,27.729885057471265
28694,Ashe County,NC,96.1925287356322
28712,Transylvania County,NC,49.64080459770115
58801,Williams County,ND,79.52586206896551
43055,Licking County,OH,11.135057471264368
43123,Franklin County,OH,29.094827586206897
43147,Fairfield County,OH,72.3419540229885
43160,Fayette County,OH,41.52298850574713
43211,Franklin County,OH,9.913793103448276
43222,Franklin County,OH,88.36206896551724
43223,Franklin County,OH,4.956896551724138
43302,Marion County,OH,43.60632183908046
43402,Wood County,OH,19.899425287356323
43410,Sandusky County,OH,96.26436781609196
43430,Ottawa County,OH,91.37931034482759
43447,Wood County,OH,94.75574712643679
43512,Defiance County,OH,3.1609195402298855
43545,Henry County,OH,94.61206896551724
43551,Wood County,OH,78.44827586206897
43604,Lucas County,OH,70.90517241379311
43605,Lucas County,OH,1.4367816091954022
43606,Lucas County,OH,15.804597701149426
43607,Lucas County,OH,5.244252873563219
43611,Lucas County,OH,13.00287356321839
43613,Lucas County,OH,50.93390804597702
43615,Lucas County,OH,18.103448275862068
43620,Lucas County,OH,88.14655172413794
43623,Lucas County,OH,25.21551724137931
43701,Muskingum County,OH,5.747126436781609
43725,Guernsey County,OH,13.864942528735632
43764,Perry County,OH,67.60057471264368
43920,Columbiana County,OH,65.87643678160919
43943,Jefferson County,OH,95.04310344827587
43945,Columbiana County,OH,98.92241379310344
43950,Belmont County,OH,39.29597701149425
43952,Jefferson County,OH,7.112068965517242
44004,Ashtabula County,OH,1.293103448275862
44011,Lorain County,OH,29.454022988505745
44028,Lorain County,OH,94.10919540229885
44047,Ashtabula County,OH,70.76149425287356
44050,Lorain County,OH,70.11494252873564
44052,Lorain County,OH,77.72988505747126
44055,Lorain County,OH,32.18390804597701
44056,Summit County,OH,98.20402298850574
44070,Cuyahoga County,OH,55.24425287356321
44077,Lake County,OH,2.3706896551724137
44092,Lake County,OH,42.09770114942529
44102,Cuyahoga County,OH,2.514367816091954
44106,Cuyahoga County,OH,9.482758620689655
44108,Cuyahoga County,OH,32.543103448275865
44111,Cuyahoga County,OH,0.8620689655172413
44116,Cuyahoga County,OH,38.93678160919541
44118,Cuyahoga County,OH,10.919540229885058
44121,Cuyahoga County,OH,8.692528735632184
44122,Cuyahoga County,OH,70.97701149425288
44124,Cuyahoga County,OH,57.61494252873563
44125,Cuyahoga County,OH,0.7902298850574714
44127,Cuyahoga County,OH,83.76436781609196
44130,Cuyahoga County,OH,21.26436781609195
44132,Cuyahoga County,OH,22.772988505747126
44134,Cuyahoga County,OH,7.471264367816093
44136,Cuyahoga County,OH,60.20114942528736
44138,Cuyahoga County,OH,31.106321839080458
44202,Portage County,OH,30.962643678160916
44203,Summit County,OH,5.387931034482758
44212,Medina County,OH,17.169540229885058
44260,Portage County,OH,67.24137931034483
44266,Portage County,OH,8.405172413793103
44278,Summit County,OH,58.69252873563219
44280,Medina County,OH,94.18103448275862
44307,Summit County,OH,73.99425287356321
44320,Summit County,OH,47.12643678160919
44321,Summit County,OH,75.86206896551724
44408,Columbiana County,OH,88.86494252873564
44438,Trumbull County,OH,69.25287356321839
44446,Trumbull County,OH,12.35632183908046
44471,Mahoning County,OH,54.310344827586206
44512,Mahoning County,OH,36.06321839080459
44641,Stark County,OH,64.58333333333334
44707,Stark County,OH,58.54885057471264
44827,Crawford County,OH,92.3132183908046
44833,Crawford County,OH,30.747126436781606
44883,Seneca County,OH,16.738505747126435
45013,Butler County,OH,2.2988505747126435
45014,Butler County,OH,13.793103448275861
45036,Warren County,OH,19.181034482758623
45044,Butler County,OH,24.06609195402299
45102,Clermont County,OH,35.70402298850575
45103,Clermont County,OH,25.718390804597703
45135,Highland County,OH,95.61781609195403
45140,Clermont County,OH,55.962643678160916
45144,Adams County,OH,92.81609195402298
45157,Clermont County,OH,77.37068965517241
45177,Clinton County,OH,22.844827586206897
45214,Hamilton County,OH,47.62931034482759
45224,Hamilton County,OH,19.82758620689655
45225,Hamilton County,OH,66.02011494252874
45227,Hamilton County,OH,48.060344827586206
45230,Hamilton County,OH,77.58620689655173
45237,Hamilton County,OH,27.801724137931032
45239,Hamilton County,OH,15.445402298850574
45305,Greene County,OH,71.1925287356322
45322,Montgomery County,OH,69.32471264367817
45356,Miami County,OH,13.14655172413793
45373,Miami County,OH,5.962643678160919
45410,Montgomery County,OH,83.26149425287356
45417,Montgomery County,OH,7.758620689655173
45458,Montgomery County,OH,37.35632183908046
45614,Gallia County,OH,76.22126436781609
45690,Pike County,OH,47.77298850574713
45742,Washington County,OH,88.43390804597702
45875,Putnam County,OH,67.60057471264368
45885,Auglaize County,OH,40.15804597701149
73012,Oklahoma County,OK,47.34195402298851
73013,Oklahoma County,OK,30.028735632183906
73071,Cleveland County,OK,55.74712643678161
73099,Canadian County,OK,41.95402298850575
73118,Oklahoma County,OK,89.00862068965517
73162,Oklahoma County,OK,49.64080459770115
74039,Creek County,OK,94.89942528735632
74066,Creek County,OK,30.17241379310345
74073,Tulsa County,OK,93.24712643678161
74464,Cherokee County,OK,8.117816091954024
74801,Pottawatomie County,OK,36.56609195402299
97026,Marion County,OR,99.92816091954023
97038,Clackamas County,OR,66.16379310344827
97045,Clackamas County,OR,62.57183908045977
97058,Wasco County,OR,39.36781609195402
97060,Multnomah County,OR,41.16379310344828
97071,Marion County,OR,55.89080459770115
97086,Clackamas County,OR,53.23275862068966
97124,Washington County,OR,25.79022988505747
97201,Multnomah County,OR,90.58908045977012
97212,Multnomah County,OR,63.07471264367817
97221,Multnomah County,OR,86.42241379310344
97223,Washington County,OR,27.083333333333332
97229,Washington County,OR,79.74137931034483
97233,Multnomah County,OR,14.942528735632186
97301,Marion County,OR,12.068965517241379
97305,Marion County,OR,58.189655172413794
97317,Marion County,OR,88.14655172413794
97322,Linn County,OR,42.16954022988506
97355,Linn County,OR,11.063218390804598
97470,Douglas County,OR,29.310344827586203
97504,Jackson County,OR,19.32471264367816
97601,Klamath County,OR,48.7787356321839
97603,Klamath County,OR,18.53448275862069
97701,Deschutes County,OR,60.3448275862069
97801,Umatilla County,OR,34.195402298850574
97838,Umatilla County,OR,65.87643678160919
15001,Beaver County,PA,19.10919540229885
15044,Allegheny County,PA,83.11781609195403
15068,Westmoreland County,PA,50.646551724137936
15071,Allegheny County,PA,80.02873563218391
15102,Allegheny County,PA,62.42816091954023
15132,Allegheny County,PA,39.08045977011494
15146,Allegheny County,PA,46.695402298850574
15210,Allegheny County,PA,14.152298850574713
15332,Washington County,PA,81.9683908045977
15425,Fayette County,PA,29.597701149425287
15642,Westmoreland County,PA,20.402298850574713
15834,Cameron County,PA,65.22988505747126
15853,Elk County,PA,60.70402298850575
15902,Cambria County,PA,96.33620689655173
15906,Cambria County,PA,55.603448275862064
15946,Cambria County,PA,86.27873563218391
16201,Armstrong County,PA,63.36206896551724
16335,Crawford County,PA,36.853448275862064
16365,Warren County,PA,34.195402298850574
16415,Erie County,PA,90.58908045977012
16830,Clearfield County,PA,27.227011494252874
16866,Centre County,PA,61.99712643678161
16901,Tioga County,PA,86.56609195402298
16915,Potter County,PA,80.81896551724138
17019,York County,PA,63.146551724137936
17036,Dauphin County,PA,22.629310344827587
17042,Lebanon County,PA,3.8793103448275863
17046,Lebanon County,PA,8.836206896551724
17068,Perry County,PA,96.47988505747126
17111,Dauphin County,PA,80.45977011494253
17201,Franklin County,PA,9.841954022988505
17202,Franklin County,PA,26.50862068965517
17301,Adams County,PA,97.84482758620689
17331,York County,PA,6.25
17339,York County,PA,96.76724137931035
17402,York County,PA,50.50287356321839
17403,York County,PA,16.451149425287355
17404,York County,PA,38.50574712643678
17540,Lancaster County,PA,76.50862068965517
17701,Lycoming County,PA,3.7356321839080464
17752,Lycoming County,PA,89.65517241379311
17847,Northumberland County,PA,62.85919540229885
17972,Schuylkill County,PA,61.56609195402298
18020,Northampton County,PA,41.73850574712644
18042,Northampton County,PA,57.758620689655174
18073,Montgomery County,PA,91.16379310344827
18102,Lehigh County,PA,0.646551724137931
18324,Pike County,PA,71.47988505747126
18328,Pike County,PA,97.70114942528735
18360,Monroe County,PA,60.416666666666664
18403,Lackawanna County,PA,83.1896551724138
18407,Lackawanna County,PA,74.49712643678161
18411,Lackawanna County,PA,47.270114942528735
18419,Wyoming County,PA,94.54022988505747
18433,Lackawanna County,PA,90.30172413793103
18447,Lackawanna County,PA,75.143678160919535
18509,Lackawanna County,PA,79.95689655172413
18634,Luzerne County,PA,72.41379310344827
18640,Luzerne County,PA,83.40517241379311
18701,Luzerne County,PA,99.856321839080465
18707,Luzerne County,PA,89.15229885057471
18966,Bucks County,PA,47.485632183908045
18976,Bucks County,PA,50.35919540229885
19010,Delaware County,PA,56.106321839080465
19013,Delaware County,PA,35.991379310344826
19014,Delaware County,PA,71.26436781609196
19015,Delaware County,PA,87.14080459770115
19018,Delaware County,PA,25.862068965517242
19026,Delaware County,PA,49.06609195402299
19053,Bucks County,PA,62.93103448275862
19061,Delaware County,PA,60.991379310344826
19076,Delaware County,PA,78.95114942528735
19078,Delaware County,PA,92.16954022988506
19082,Delaware County,PA,10.057471264367816
19083,Delaware County,PA,59.91379310344828
19111,Philadelphia County,PA,2.7298850574712645
19115,Philadelphia County,PA,50.57471264367817
19116,Philadelphia County,PA,27.011494252873565
19121,Philadelphia County,PA,65.30172413793103
19131,Philadelphia County,PA,5.172413793103448
19141,Philadelphia County,PA,7.255747126436781
19143,Philadelphia County,PA,18.75
19144,Philadelphia County,PA,21.910919540229884
19145,Philadelphia County,PA,6.968390804597702
19154,Philadelphia County,PA,14.870689655172415
19320,Chester County,PA,33.548850574712645
19335,Chester County,PA,48.99425287356322
19344,Chester County,PA,92.38505747126436
19401,Montgomery County,PA,7.974137931034483
19428,Montgomery County,PA,74.20977011494253
19438,Montgomery County,PA,46.19252873563218
19446,Montgomery County,PA,44.32471264367816
19454,Montgomery County,PA,42.456896551724135
19464,Montgomery County,PA,23.635057471264368
19465,Chester County,PA,87.21264367816092
19508,Berks County,PA,51.36494252873563
19560,Berks County,PA,79.23850574712644
19567,Berks County,PA,91.52298850574712
19602,Berks County,PA,10.847701149425287
02871,Newport County,RI,83.83620689655173
02879,Washington County,RI,66.66666666666666
02886,Kent County,RI,30.603448275862068
02891,Washington County,RI,56.393678160919535
29150,Sumter County,SC,35.12931034482759
29203,Richland County,SC,57.39942528735632
29349,Spartanburg County,SC,24.568965517241377
29403,Charleston County,SC,42.81609195402299
29414,Charleston County,SC,31.321839080459768
29440,Georgetown County,SC,45.043103448275865
29445,Berkeley County,SC,23.77873563218391
29464,Charleston County,SC,43.17528735632184
29477,Dorchester County,SC,88.57758620689656
29536,Dillon County,SC,54.38218390804598
29579,Horry County,SC,53.735632183908045
29617,Greenville County,SC,66.95402298850574
29644,Greenville County,SC,51.077586206896555
29651,Greenville County,SC,53.59195402298851
29706,Chester County,SC,65.30172413793103
57104,Minnehaha County,SD,28.160919540229884
57301,Davison County,SD,47.19827586206897
37069,Williamson County,TN,86.85344827586206
37072,Davidson County,TN,29.813218390804597
37122,Wilson County,TN,27.370689655172413
37130,Rutherford County,TN,19.25287356321839
37206,Davidson County,TN,32.4712643678161
37311,Bradley County,TN,33.04597701149425
37381,Rhea County,TN,81.106321839080465
37406,Hamilton County,TN,65.51724137931035
37743,Greene County,TN,11.709770114942529
37821,Cocke County,TN,14.295977011494255
37830,Anderson County,TN,23.347701149425287
37871,Jefferson County,TN,82.54310344827587
37919,Knox County,TN,78.37643678160919
38039,Hardeman County,TN,97.48563218390804
38053,Shelby County,TN,47.34195402298851
38111,Shelby County,TN,20.186781609195403
38122,Shelby County,TN,53.95114942528736
38134,Shelby County,TN,36.2787356321839
38506,Putnam County,TN,40.229885057471265
38562,Jackson County,TN,84.19540229885058
38570,Overton County,TN,67.81609195402298
38583,White County,TN,24.856321839080458
75068,Denton County,TX,29.95689655172414
75069,Collin County,TX,48.20402298850575
75088,Dallas County,TX,67.38505747126436
75149,Dallas County,TX,17.45689655172414
75156,Henderson County,TX,48.706896551724135
75189,Rockwall County,TX,44.252873563218394
75210,Dallas County,TX,66.66666666666666
75217,Dallas County,TX,8.405172413793103
75220,Dallas County,TX,47.55747126436782
75402,Hunt County,TX,90.01436781609196
75501,Bowie County,TX,30.10057471264368
76009,Johnson County,TX,61.853448275862064
76010,Tarrant County,TX,16.379310344827587
76014,Tarrant County,TX,48.41954022988506
76016,Tarrant County,TX,65.01436781609196
76033,Johnson County,TX,36.13505747126437
76049,Hood County,TX,37.212643678160916
76067,Palo Pinto County,TX,53.37643678160919
76180,Tarrant County,TX,40.660919540229884
76504,Bell County,TX,9.267241379310345
76543,Bell County,TX,60.48850574712644
76706,McLennan County,TX,33.62068965517241
76712,McLennan County,TX,82.83045977011494
77012,Harris County,TX,87.57183908045977
77015,Harris County,TX,38.793103448275865
77016,Harris County,TX,40.804597701149426
77023,Harris County,TX,59.195402298850574
77035,Harris County,TX,39.798850574712645
77036,Harris County,TX,52.65804597701149
77038,Harris County,TX,95.54597701149426
77042,Harris County,TX,97.05459770114942
77064,Harris County,TX,35.560344827586206
77065,Harris County,TX,60.560344827586206
77072,Harris County,TX,53.52011494252874
77077,Harris County,TX,43.82183908045977
77083,Harris County,TX,39.87068965517241
77086,Harris County,TX,85.63218390804597
77095,Harris County,TX,16.594827586206897
77302,Montgomery County,TX,68.31896551724138
77304,Montgomery County,TX,60.84770114942529
77338,Harris County,TX,84.41091954022988
77401,Harris County,TX,68.75
77406,Fort Bend County,TX,43.96551724137931
77407,Fort Bend County,TX,52.29885057471264
77449,Harris County,TX,10.272988505747128
77459,Fort Bend County,TX,22.270114942528735
77471,Fort Bend County,TX,37.787356321839084
77493,Harris County,TX,60.70402298850575
77502,Harris County,TX,77.80172413793103
77521,Harris County,TX,27.514367816091955
77530,Harris County,TX,56.106321839080465
77550,Galveston County,TX,51.22126436781609
77551,Galveston County,TX,25.35919540229885
77568,Galveston County,TX,32.83045977011494
77571,Harris County,TX,26.939655172413797
77584,Brazoria County,TX,9.626436781609195
77586,Harris County,TX,48.56321839080459
77706,Jefferson County,TX,47.98850574712644
77845,Brazos County,TX,35.3448275862069
78014,La Salle County,TX,97.12643678160919
78022,Live Oak County,TX,97.98850574712644
78041,Webb County,TX,36.49425287356322
78065,Atascosa County,TX,86.63793103448276
78248,Bexar County,TX,88.72126436781609
78253,Bexar County,TX,56.46551724137932
78257,Bexar County,TX,99.42528735632183
78390,San Patricio County,TX,99.2816091954023
78503,Hidalgo County,TX,68.39080459770115
78537,Hidalgo County,TX,63.50574712643679
78541,Hidalgo County,TX,49.92816091954023
78542,Hidalgo County,TX,40.37356321839081
78552,Cameron County,TX,67.45689655172413
78574,Hidalgo County,TX,66.95402298850574
78611,Burnet County,TX,76.58045977011494
78612,Bastrop County,TX,89.36781609195403
78621,Bastrop County,TX,68.0316091954023
78628,Williamson County,TX,71.26436781609196
78724,Travis County,TX,70.83333333333334
78753,Travis County,TX,60.27298850574713
78834,Dimmit County,TX,98.27586206896551
79107,Potter County,TX,32.61494252873563
79109,Randall County,TX,36.92528735632184
79201,Childress County,TX,98.49137931034483
79411,Lubbock County,TX,97.27011494252874
79415,Lubbock County,TX,65.66091954022988
79714,Andrews County,TX,79.66954022988506
79720,Howard County,TX,51.43678160919541
79763,Ector County,TX,33.47701149425287
79835,El Paso County,TX,93.17528735632183
79915,El Paso County,TX,53.01724137931034
79924,El Paso County,TX,42.16954022988506
79928,El Paso County,TX,75.50287356321839
79930,El Paso County,TX,75.21551724137932
79934,El Paso County,TX,78.8074712643678
79936,El Paso County,TX,11.925287356321839
84003,Utah County,UT,42.74425287356322
84009,Salt Lake County,UT,53.16091954022989
84015,Davis County,UT,54.23850574712644
84041,Davis County,UT,67.52873563218391
84065,Salt Lake County,UT,36.997126436781606
84078,Uintah County,UT,15.229885057471265
84096,Salt Lake County,UT,26.00574712643678
84106,Salt Lake County,UT,34.770114942528735
84107,Salt Lake County,UT,70.25862068965517
84123,Salt Lake County,UT,20.04310344827586
84128,Salt Lake County,UT,38.29022988505747
84321,Cache County,UT,85.99137931034483
84401,Weber County,UT,41.88218390804598
84660,Utah County,UT,65.44540229885058
84780,Washington County,UT,73.20402298850574
20121,Fairfax County,VA,64.4396551724138
20147,Loudoun County,VA,36.7816091954023
20148,Loudoun County,VA,80.74712643678161
20152,Loudoun County,VA,75.35919540229885
20171,Fairfax County,VA,91.73850574712644
22041,Fairfax County,VA,68.82183908045977
22079,Fairfax County,VA,88.9367816091954
22152,Fairfax County,VA,54.956896551724135
22181,Fairfax County,VA,87.71551724137932
22191,Prince William County,VA,16.091954022988507
22193,Prince William County,VA,41.810344827586206
22207,Arlington County,VA,52.87356321839081
22306,Fairfax County,VA,92.95977011494253
22309,Fairfax County,VA,25.57471264367816
22310,Fairfax County,VA,53.304597701149426
22314,Alexandria city,VA,29.52586206896552
22602,Frederick County,VA,51.79597701149425
22835,Page County,VA,58.90804597701149
22901,Albemarle County,VA,85.27298850574712
22903,Charlottesville city,VA,27.298850574712645
23139,Powhatan County,VA,68.53448275862068
23222,Richmond city,VA,16.23563218390805
23223,Henrico County,VA,61.06321839080459
23225,Richmond city,VA,12.859195402298852
23464,Virginia Beach city,VA,74.49712643678161
23601,Newport News city,VA,80.89080459770115
23703,Portsmouth city,VA,54.88505747126437
23803,Petersburg city,VA,11.206896551724139
23860,Hopewell city,VA,29.88505747126437
24060,Montgomery County,VA,94.39655172413794
24078,Henry County,VA,81.60919540229885
24210,Washington County,VA,34.985632183908045
24230,Wise County,VA,44.89942528735632
24551,Bedford County,VA,81.25
98012,Snohomish County,WA,28.951149425287355
98021,Snohomish County,WA,79.16666666666666
98087,Snohomish County,WA,45.76149425287356
98117,King County,WA,90.87643678160919
98144,King County,WA,28.23275862068966
98204,Snohomish County,WA,25.143678160919542
98221,Skagit County,WA,61.422413793103445
98223,Snohomish County,WA,23.77873563218391
98270,Snohomish County,WA,17.600574712643677
98294,Snohomish County,WA,89.08045977011494
98372,Pierce County,WA,58.4051724137931
98391,Pierce County,WA,13.290229885057473
98531,Lewis County,WA,71.26436781609196
98902,Yakima County,WA,26.580459770114945
99163,Whitman County,WA,72.77298850574712
99206,Spokane County,WA,44.827586206896555
99301,Franklin County,WA,9.195402298850574
99320,Benton County,WA,84.19540229885058
99336,Benton County,WA,11.637931034482758
99337,Benton County,WA,25.287356321839084
99350,Benton County,WA,96.98275862068965
99354,Benton County,WA,40.94827586206897
20011,District of Columbia,DC,31.178160919540232
20015,District of Columbia,DC,85.41666666666666
20016,District of Columbia,DC,71.04885057471265
20019,District of Columbia,DC,3.0172413793103448
20032,District of Columbia,DC,4.454022988505748
25541,Cabell County,WV,92.45689655172413
25705,Cabell County,WV,16.954022988505745
26003,Ohio County,WV,4.669540229885057
26041,Marshall County,WV,45.474137931034484
26187,Wood County,WV,66.45114942528735
26201,Upshur County,WV,20.977011494252874
26301,Harrison County,WV,6.53735632183908
26452,Lewis County,WV,81.32183908045977
26508,Monongalia County,WV,4.094827586206897
26704,Hampshire County,WV,93.96551724137932
53021,Ozaukee County,WI,98.13218390804597
53022,Washington County,WI,64.08045977011494
53066,Waukesha County,WI,81.75287356321839
53083,Sheboygan County,WI,93.82183908045977
53094,Jefferson County,WI,40.87643678160919
53105,Racine County,WI,44.75574712643678
53115,Walworth County,WI,49.20977011494253
53132,Milwaukee County,WI,38.2183908045977
53142,Kenosha County,WI,8.908045977011495
53143,Kenosha County,WI,17.313218390804597
53144,Kenosha County,WI,15.732758620689655
53154,Milwaukee County,WI,20.617816091954023
53182,Racine County,WI,63.64942528735632
53188,Waukesha County,WI,21.695402298850574
53202,Milwaukee County,WI,47.054597701149426
53204,Milwaukee County,WI,27.083333333333332
53208,Milwaukee County,WI,10.775862068965516
53209,Milwaukee County,WI,1.6522988505747127
53223,Milwaukee County,WI,15.158045977011495
53224,Milwaukee County,WI,35.84770114942529
53403,Racine County,WI,31.968390804597703
53405,Racine County,WI,5.316091954022988
53406,Racine County,WI,13.36206896551724
53959,Sauk County,WI,41.5948275862069
54017,St. Croix County,WI,51.00574712643679
54021,Pierce County,WI,93.39080459770115
54022,Pierce County,WI,54.02298850574713
54220,Manitowoc County,WI,5.675287356321839
54460,Clark County,WI,98.5632183908046
54473,Portage County,WI,98.41954022988506
54601,La Crosse County,WI,6.68103448275862
54636,La Crosse County,WI,64.65517241379311
54751,Dunn County,WI,33.189655172413794
54935,Fond du Lac County,WI,14.727011494252872
54956,Winnebago County,WI,58.764367816091955
82009,Laramie County,WY,69.75574712643679
