ZipCode,county,state,Adult,Retirement,Geriatric
35022,Jefferson County,AL,NA,NA,72.68907563025209
35023,Jefferson County,AL,NA,13.777777777777779,NA
35040,Shelby County,AL,NA,NA,80.25210084033614
35064,Jefferson County,AL,NA,75.1111111111111,NA
35077,Cullman County,AL,NA,NA,68.90756302521008
35160,Talladega County,AL,NA,45.33333333333333,NA
35206,Jefferson County,AL,NA,47.11111111111111,NA
35208,Jefferson County,AL,NA,73.92592592592592,NA
35501,Walker County,AL,68.35443037974683,NA,NA
36083,Macon County,AL,NA,NA,71.84873949579831
36580,Baldwin County,AL,NA,NA,96.63865546218487
99801,Juneau City and Borough,AK,NA,93.77777777777779,NA
99835,Sitka City and Borough,AK,64.24050632911393,NA,NA
85119,Pinal County,AZ,70.88607594936708,NA,NA
85139,Pinal County,AZ,NA,90.51851851851852,NA
85206,Maricopa County,AZ,NA,NA,9.243697478991598
85224,Maricopa County,AZ,NA,NA,78.57142857142857
85350,Yuma County,AZ,NA,68,NA
85367,Yuma County,AZ,NA,NA,7.773109243697479
85634,Pima County,AZ,NA,65.92592592592592,NA
85735,Pima County,AZ,NA,NA,76.26050420168067
85936,Apache County,AZ,NA,99.85185185185185,NA
86040,Coconino County,AZ,87.65822784810126,NA,NA
86045,Coconino County,AZ,NA,NA,46.21848739495798
86047,Navajo County,AZ,68.9873417721519,32.148148148148145,NA
86305,Yavapai County,AZ,NA,NA,53.57142857142857
86406,Mohave County,AZ,NA,62.96296296296296,NA
86503,Apache County,AZ,NA,NA,45.588235294117645
71753,Columbia County,AR,NA,NA,55.25210084033614
71901,Garland County,AR,NA,45.03703703703704,NA
71923,Clark County,AR,NA,66.07407407407408,NA
72032,Faulkner County,AR,NA,NA,63.23529411764706
72058,Faulkner County,AR,NA,NA,99.57983193277312
72114,Pulaski County,AR,92.40506329113924,NA,NA
72116,Pulaski County,AR,98.10126582278481,NA,80.88235294117648
72120,Pulaski County,AR,NA,NA,97.26890756302521
72143,White County,AR,NA,NA,5.042016806722689
72205,Pulaski County,AR,NA,58.074074074074076,71.00840336134453
72206,Pulaski County,AR,59.17721518987342,27.40740740740741,NA
72209,Pulaski County,AR,58.22784810126582,69.18518518518518,NA
72211,Pulaski County,AR,95.56962025316456,NA,NA
72227,Pulaski County,AR,75,NA,NA
72715,Benton County,AR,NA,62.66666666666667,NA
90003,Los Angeles County,CA,NA,38.666666666666664,NA
90011,Los Angeles County,CA,31.0126582278481,NA,NA
90019,Los Angeles County,CA,NA,23.703703703703706,NA
90065,Los Angeles County,CA,NA,NA,54.83193277310925
90230,Los Angeles County,CA,NA,48.888888888888886,NA
90250,Los Angeles County,CA,NA,22.51851851851852,NA
90278,Los Angeles County,CA,NA,90.07407407407408,NA
90293,Los Angeles County,CA,NA,95.55555555555556,98.10924369747899
90404,Los Angeles County,CA,NA,57.925925925925924,NA
90621,Orange County,CA,NA,62.51851851851852,NA
90623,Orange County,CA,95.25316455696202,NA,NA
90650,Los Angeles County,CA,24.68354430379747,NA,NA
90660,Los Angeles County,CA,NA,35.25925925925926,NA
90703,Los Angeles County,CA,NA,NA,32.983193277310924
90706,Los Angeles County,CA,NA,36.44444444444444,NA
90806,Los Angeles County,CA,60.75949367088608,NA,NA
90807,Los Angeles County,CA,57.59493670886076,NA,NA
90810,Los Angeles County,CA,62.34177215189873,NA,NA
91007,Los Angeles County,CA,NA,98.22222222222223,NA
91010,Los Angeles County,CA,NA,64.29629629629629,NA
91042,Los Angeles County,CA,NA,89.03703703703704,NA
91107,Los Angeles County,CA,NA,NA,38.02521008403361
91206,Los Angeles County,CA,NA,55.111111111111114,NA
91306,Los Angeles County,CA,NA,50.07407407407407,NA
91335,Los Angeles County,CA,NA,69.62962962962963,NA
91340,Los Angeles County,CA,NA,83.85185185185186,NA
91352,Los Angeles County,CA,NA,43.55555555555555,NA
91405,Los Angeles County,CA,94.62025316455697,NA,76.68067226890757
91601,Los Angeles County,CA,93.67088607594937,NA,NA
91711,Los Angeles County,CA,NA,NA,18.69747899159664
91739,San Bernardino County,CA,NA,NA,75.63025210084034
91746,Los Angeles County,CA,NA,NA,74.57983193277312
91755,Los Angeles County,CA,NA,NA,42.857142857142854
91773,Los Angeles County,CA,NA,NA,46.008403361344534
91902,San Diego County,CA,NA,NA,64.07563025210085
91911,San Diego County,CA,NA,NA,6.722689075630252
92014,San Diego County,CA,NA,80.44444444444444,NA
92021,San Diego County,CA,NA,NA,24.579831932773107
92028,San Diego County,CA,NA,88.74074074074075,NA
92078,San Diego County,CA,NA,48,NA
92114,San Diego County,CA,NA,24.88888888888889,NA
92117,San Diego County,CA,NA,NA,18.067226890756302
92120,San Diego County,CA,NA,NA,49.36974789915966
92126,San Diego County,CA,NA,31.703703703703706,NA
92154,San Diego County,CA,NA,19.11111111111111,NA
92201,Riverside County,CA,NA,16.14814814814815,NA
92243,Imperial County,CA,NA,67.55555555555556,NA
92324,San Bernardino County,CA,26.265822784810126,41.18518518518518,NA
92335,San Bernardino County,CA,NA,14.962962962962964,NA
92336,San Bernardino County,CA,NA,71.25925925925925,NA
92345,San Bernardino County,CA,NA,NA,23.949579831932773
92346,San Bernardino County,CA,93.35443037974683,NA,NA
92354,San Bernardino County,CA,NA,89.18518518518519,NA
92374,San Bernardino County,CA,48.10126582278481,NA,NA
92392,San Bernardino County,CA,NA,29.777777777777775,NA
92404,San Bernardino County,CA,87.9746835443038,28.444444444444443,NA
92405,San Bernardino County,CA,50.63291139240506,NA,NA
92411,San Bernardino County,CA,NA,73.48148148148148,NA
92553,Riverside County,CA,33.22784810126582,NA,NA
92557,Riverside County,CA,NA,48.74074074074074,NA
92602,Orange County,CA,NA,92.2962962962963,NA
92618,Orange County,CA,67.08860759493672,NA,NA
92626,Orange County,CA,46.835443037974684,NA,NA
92646,Orange County,CA,NA,8.444444444444445,NA
92653,Orange County,CA,NA,53.185185185185176,NA
92660,Orange County,CA,NA,40.59259259259259,NA
92692,Orange County,CA,NA,NA,7.563025210084033
92707,Orange County,CA,NA,NA,60.71428571428571
92780,Orange County,CA,NA,NA,69.9579831932773
92802,Orange County,CA,NA,86.37037037037038,NA
92879,Riverside County,CA,57.27848101265823,NA,NA
93010,Ventura County,CA,NA,23.25925925925926,NA
93230,Kings County,CA,NA,50.07407407407407,NA
93305,Kern County,CA,NA,82.37037037037037,NA
93455,Santa Barbara County,CA,NA,NA,10.92436974789916
93458,Santa Barbara County,CA,NA,28.000000000000004,NA
93611,Fresno County,CA,NA,NA,56.51260504201681
93638,Madera County,CA,NA,NA,51.68067226890757
93703,Fresno County,CA,48.734177215189874,NA,NA
93722,Fresno County,CA,39.55696202531646,48.888888888888886,NA
93726,Fresno County,CA,26.89873417721519,NA,NA
93727,Fresno County,CA,NA,NA,34.45378151260504
94002,San Mateo County,CA,NA,NA,43.27731092436975
94014,San Mateo County,CA,NA,25.62962962962963,7.142857142857142
94025,San Mateo County,CA,55.69620253164557,NA,NA
94027,San Mateo County,CA,NA,96.88888888888889,NA
94041,Santa Clara County,CA,NA,88.29629629629629,NA
94043,Santa Clara County,CA,NA,68.5925925925926,NA
94061,San Mateo County,CA,NA,NA,15.546218487394958
94063,San Mateo County,CA,NA,41.03703703703704,NA
94080,San Mateo County,CA,NA,7.2592592592592595,NA
94103,San Francisco County,CA,NA,53.629629629629626,NA
94107,San Francisco County,CA,NA,NA,77.73109243697479
94109,San Francisco County,CA,NA,11.407407407407408,NA
94112,San Francisco County,CA,NA,32.44444444444444,NA
94121,San Francisco County,CA,NA,90.37037037037037,NA
94122,San Francisco County,CA,52.84810126582279,NA,29.6218487394958
94124,San Francisco County,CA,76.58227848101265,NA,NA
94127,San Francisco County,CA,NA,70.22222222222221,NA
94131,San Francisco County,CA,NA,NA,56.72268907563025
94133,San Francisco County,CA,NA,NA,89.91596638655463
94134,San Francisco County,CA,42.405063291139236,NA,NA
94301,Santa Clara County,CA,NA,84.74074074074073,NA
94306,Santa Clara County,CA,99.0506329113924,NA,NA
94501,Alameda County,CA,42.08860759493671,NA,NA
94510,Solano County,CA,NA,NA,66.80672268907563
94513,Contra Costa County,CA,NA,60.592592592592595,NA
94518,Contra Costa County,CA,NA,NA,90.75630252100841
94533,Solano County,CA,NA,76.14814814814815,NA
94536,Alameda County,CA,NA,NA,19.327731092436977
94546,Alameda County,CA,NA,NA,57.35294117647059
94553,Contra Costa County,CA,NA,NA,42.226890756302524
94555,Alameda County,CA,NA,70.07407407407408,NA
94565,Contra Costa County,CA,NA,58.96296296296296,NA
94582,Contra Costa County,CA,70.56962025316456,NA,NA
94602,Alameda County,CA,NA,60.14814814814815,63.65546218487395
94707,Alameda County,CA,NA,96.29629629629629,NA
94901,Marin County,CA,60.12658227848101,NA,NA
94941,Marin County,CA,90.82278481012658,NA,NA
95032,Santa Clara County,CA,NA,69.18518518518518,47.47899159663865
95051,Santa Clara County,CA,50.31645569620253,78.81481481481481,NA
95361,Stanislaus County,CA,NA,28.14814814814815,NA
95367,Stanislaus County,CA,NA,NA,52.52100840336135
95404,Sonoma County,CA,NA,NA,21.638655462184875
95490,Mendocino County,CA,NA,52.59259259259259,NA
95610,Sacramento County,CA,50.9493670886076,NA,NA
95667,El Dorado County,CA,NA,4,NA
95687,Solano County,CA,72.15189873417721,NA,NA
95742,Sacramento County,CA,NA,92.5925925925926,NA
95817,Sacramento County,CA,NA,NA,73.52941176470588
95818,Sacramento County,CA,NA,97.33333333333334,NA
95822,Sacramento County,CA,NA,NA,21.008403361344538
95825,Sacramento County,CA,NA,NA,71.21848739495799
95945,Nevada County,CA,NA,37.48148148148148,NA
95991,Sutter County,CA,NA,72,NA
95993,Sutter County,CA,52.21518987341772,NA,25.630252100840334
80012,Arapahoe County,CO,NA,78.51851851851852,17.22689075630252
80013,Arapahoe County,CO,NA,88.5925925925926,NA
80014,Arapahoe County,CO,NA,63.40740740740741,NA
80015,Arapahoe County,CO,24.367088607594937,NA,NA
80111,Arapahoe County,CO,73.10126582278481,NA,NA
80123,Jefferson County,CO,53.48101265822785,NA,NA
80124,Douglas County,CO,NA,NA,89.70588235294117
80128,Jefferson County,CO,NA,83.11111111111111,NA
80134,Douglas County,CO,NA,36.592592592592595,NA
80138,Douglas County,CO,82.91139240506328,NA,NA
80202,Denver County,CO,NA,NA,84.03361344537815
80206,Denver County,CO,NA,64.88888888888889,NA
80219,Denver County,CO,NA,NA,55.67226890756303
80222,Denver County,CO,NA,77.92592592592592,NA
80224,Denver County,CO,NA,NA,54.83193277310925
80233,Adams County,CO,32.594936708860764,NA,NA
80237,Denver County,CO,NA,NA,68.69747899159664
80239,Denver County,CO,29.746835443037973,NA,NA
80260,Adams County,CO,NA,61.33333333333333,NA
80537,Larimer County,CO,NA,NA,21.218487394957982
81003,Pueblo County,CO,40.822784810126585,79.11111111111111,NA
81212,Fremont County,CO,NA,NA,35.924369747899156
81303,La Plata County,CO,NA,NA,93.27731092436974
06073,Hartford County,CT,NA,NA,99.78991596638656
06082,Hartford County,CT,NA,47.55555555555556,NA
06108,Hartford County,CT,NA,NA,87.60504201680672
06416,Middlesex County,CT,NA,NA,78.78151260504201
06705,New Haven County,CT,NA,NA,39.91596638655462
06801,Fairfield County,CT,NA,56.592592592592595,NA
19707,New Castle County,DE,NA,87.85185185185185,NA
19801,New Castle County,DE,NA,87.70370370370371,NA
19805,New Castle County,DE,NA,NA,29.20168067226891
19963,Sussex County,DE,NA,NA,50.42016806722689
32082,St. Johns County,FL,NA,29.333333333333332,NA
32162,Sumter County,FL,NA,2.074074074074074,NA
32164,Flagler County,FL,39.87341772151899,NA,10.084033613445378
32206,Duval County,FL,NA,NA,72.05882352941177
32608,Alachua County,FL,11.39240506329114,NA,NA
32696,Levy County,FL,NA,49.629629629629626,NA
32773,Seminole County,FL,NA,NA,69.11764705882352
32779,Seminole County,FL,NA,40.2962962962963,NA
32839,Orange County,FL,NA,NA,52.73109243697479
33013,Miami-Dade County,FL,NA,88.44444444444444,NA
33016,Miami-Dade County,FL,NA,57.18518518518518,NA
33021,Broward County,FL,NA,21.333333333333336,NA
33023,Broward County,FL,NA,NA,47.05882352941176
33024,Broward County,FL,NA,NA,19.95798319327731
33027,Broward County,FL,NA,NA,4.411764705882353
33028,Broward County,FL,NA,NA,68.27731092436974
33030,Miami-Dade County,FL,50,NA,NA
33033,Miami-Dade County,FL,46.20253164556962,NA,NA
33040,Monroe County,FL,49.050632911392405,NA,NA
33055,Miami-Dade County,FL,NA,60.44444444444444,NA
33068,Broward County,FL,95.88607594936708,NA,NA
33126,Miami-Dade County,FL,NA,44.2962962962963,NA
33130,Miami-Dade County,FL,NA,NA,82.77310924369748
33139,Miami-Dade County,FL,85.75949367088607,NA,NA
33142,Miami-Dade County,FL,NA,NA,16.386554621848738
33149,Miami-Dade County,FL,NA,96.74074074074073,NA
33161,Miami-Dade County,FL,NA,77.33333333333333,36.344537815126046
33165,Miami-Dade County,FL,NA,34.81481481481482,NA
33175,Miami-Dade County,FL,NA,NA,14.705882352941178
33178,Miami-Dade County,FL,NA,76.88888888888889,NA
33180,Miami-Dade County,FL,NA,44,NA
33184,Miami-Dade County,FL,NA,88.88888888888889,NA
33185,Miami-Dade County,FL,NA,71.4074074074074,NA
33186,Miami-Dade County,FL,NA,30.518518518518515,NA
33308,Broward County,FL,81.32911392405063,NA,NA
33321,Broward County,FL,NA,NA,78.36134453781513
33326,Broward County,FL,NA,NA,46.42857142857143
33327,Broward County,FL,NA,90.66666666666666,NA
33351,Broward County,FL,NA,61.77777777777778,NA
33437,Palm Beach County,FL,NA,NA,0.21008403361344538
33549,Hillsborough County,FL,NA,NA,59.45378151260504
33556,Hillsborough County,FL,NA,86.07407407407408,NA
33701,Pinellas County,FL,NA,NA,57.56302521008403
33716,Pinellas County,FL,NA,NA,81.5126050420168
33760,Pinellas County,FL,92.08860759493672,NA,NA
33810,Polk County,FL,NA,33.77777777777778,NA
33813,Polk County,FL,NA,47.40740740740741,NA
33880,Polk County,FL,28.48101265822785,NA,NA
33903,Lee County,FL,NA,29.48148148148148,NA
34142,Collier County,FL,84.81012658227847,NA,NA
34145,Collier County,FL,NA,NA,62.18487394957983
34205,Manatee County,FL,NA,46.370370370370374,NA
34207,Manatee County,FL,59.81012658227848,NA,NA
34287,Sarasota County,FL,NA,27.703703703703702,NA
34470,Marion County,FL,56.64556962025317,NA,NA
34655,Pasco County,FL,NA,NA,17.436974789915965
34677,Pinellas County,FL,NA,NA,81.9327731092437
34731,Lake County,FL,NA,NA,86.76470588235294
34746,Osceola County,FL,NA,46.81481481481482,NA
34974,Okeechobee County,FL,NA,40.2962962962963,NA
30012,Rockdale County,GA,NA,51.25925925925926,NA
30019,Gwinnett County,GA,NA,40.59259259259259,NA
30030,DeKalb County,GA,NA,NA,46.63865546218487
30035,DeKalb County,GA,NA,44.148148148148145,NA
30083,DeKalb County,GA,NA,30.37037037037037,NA
30157,Paulding County,GA,NA,NA,47.05882352941176
30213,Fulton County,GA,83.86075949367088,NA,NA
30224,Spalding County,GA,58.86075949367089,NA,NA
30281,Henry County,GA,NA,17.185185185185183,NA
30310,Fulton County,GA,NA,NA,47.89915966386555
30315,Fulton County,GA,NA,23.40740740740741,NA
30317,DeKalb County,GA,NA,76.29629629629629,NA
30318,Fulton County,GA,NA,NA,64.91596638655463
30344,Fulton County,GA,NA,73.03703703703704,NA
30434,Jefferson County,GA,96.20253164556962,NA,NA
30518,Gwinnett County,GA,NA,34.51851851851852,NA
30534,Dawson County,GA,NA,33.18518518518518,NA
30673,Wilkes County,GA,98.73417721518987,NA,NA
30906,Richmond County,GA,NA,53.77777777777778,NA
30907,Columbia County,GA,77.84810126582279,NA,NA
31079,Wilcox County,GA,NA,99.70370370370371,NA
31093,Houston County,GA,38.607594936708864,NA,NA
31419,Chatham County,GA,NA,NA,44.32773109243697
31705,Dougherty County,GA,36.392405063291136,NA,NA
31709,Sumter County,GA,NA,NA,86.5546218487395
31791,Worth County,GA,NA,62.22222222222222,NA
96701,Honolulu County,HI,NA,16.59259259259259,NA
96706,Honolulu County,HI,NA,66.37037037037037,NA
96744,Honolulu County,HI,NA,NA,3.1512605042016806
96782,Honolulu County,HI,NA,22.074074074074073,NA
96792,Honolulu County,HI,NA,21.037037037037038,NA
96814,Honolulu County,HI,89.55696202531645,NA,NA
83263,Franklin County,ID,NA,86.81481481481481,NA
83338,Jerome County,ID,NA,22.666666666666664,NA
83619,Payette County,ID,NA,67.85185185185185,NA
60010,Lake County,IL,NA,NA,15.336134453781513
60015,Lake County,IL,NA,NA,52.3109243697479
60016,Cook County,IL,NA,10.666666666666668,NA
60031,Lake County,IL,54.43037974683544,NA,NA
60035,Lake County,IL,NA,12.592592592592592,NA
60044,Lake County,IL,NA,85.62962962962963,NA
60045,Lake County,IL,NA,NA,10.92436974789916
60051,McHenry County,IL,NA,NA,33.61344537815126
60069,Lake County,IL,NA,NA,31.30252100840336
60085,Lake County,IL,25,NA,NA
60090,Cook County,IL,NA,25.77777777777778,NA
60130,Cook County,IL,NA,67.4074074074074,NA
60153,Cook County,IL,NA,22.962962962962962,NA
60154,Cook County,IL,NA,63.11111111111111,NA
60156,McHenry County,IL,NA,NA,73.10924369747899
60162,Cook County,IL,84.17721518987342,98.96296296296296,NA
60169,Cook County,IL,NA,NA,47.689075630252105
60176,Cook County,IL,NA,85.18518518518519,NA
60189,DuPage County,IL,NA,59.55555555555555,NA
60201,Cook County,IL,49.36708860759494,19.85185185185185,NA
60415,Cook County,IL,NA,72.88888888888889,NA
60417,Will County,IL,NA,NA,50.84033613445378
60426,Cook County,IL,97.46835443037975,NA,NA
60431,Will County,IL,44.620253164556964,NA,NA
60440,Will County,IL,NA,77.03703703703704,NA
60453,Cook County,IL,NA,8.296296296296296,NA
60455,Cook County,IL,56.0126582278481,49.333333333333336,NA
60515,DuPage County,IL,NA,NA,22.268907563025213
60521,DuPage County,IL,73.73417721518987,NA,NA
60608,Cook County,IL,NA,12.88888888888889,34.66386554621849
60610,Cook County,IL,47.78481012658228,NA,NA
60612,Cook County,IL,NA,NA,82.35294117647058
60615,Cook County,IL,NA,15.851851851851853,17.857142857142858
60616,Cook County,IL,NA,NA,74.15966386554622
60617,Cook County,IL,NA,NA,51.26050420168067
60619,Cook County,IL,10.126582278481013,25.925925925925924,NA
60620,Cook County,IL,11.075949367088606,43.7037037037037,3.571428571428571
60621,Cook County,IL,NA,30.666666666666664,NA
60622,Cook County,IL,NA,45.18518518518518,NA
60623,Cook County,IL,NA,NA,12.605042016806722
60624,Cook County,IL,NA,24.14814814814815,NA
60625,Cook County,IL,17.72151898734177,NA,NA
60628,Cook County,IL,NA,3.851851851851852,NA
60632,Cook County,IL,NA,78.22222222222223,NA
60636,Cook County,IL,NA,24.88888888888889,NA
60637,Cook County,IL,NA,66.66666666666666,NA
60638,Cook County,IL,14.240506329113925,59.25925925925925,NA
60643,Cook County,IL,NA,NA,5.6722689075630255
60644,Cook County,IL,NA,12.148148148148149,14.285714285714285
60646,Cook County,IL,NA,NA,60.50420168067227
60649,Cook County,IL,NA,NA,16.80672268907563
60653,Cook County,IL,NA,28.888888888888886,85.71428571428571
61021,Lee County,IL,NA,33.33333333333333,39.285714285714285
61032,Stephenson County,IL,NA,53.03703703703704,44.957983193277315
61071,Whiteside County,IL,NA,NA,43.90756302521008
61072,Winnebago County,IL,NA,68.14814814814815,NA
61080,Winnebago County,IL,NA,78.37037037037037,NA
61107,Winnebago County,IL,NA,NA,18.487394957983195
61114,Winnebago County,IL,NA,99.4074074074074,40.96638655462185
61270,Whiteside County,IL,NA,77.48148148148148,NA
61455,McDonough County,IL,NA,NA,31.932773109243694
61874,Champaign County,IL,NA,NA,41.17647058823529
62269,St. Clair County,IL,NA,39.25925925925926,NA
62526,Macon County,IL,18.670886075949365,NA,NA
62549,Macon County,IL,NA,94.66666666666667,NA
62704,Sangamon County,IL,52.21518987341772,NA,NA
62801,Marion County,IL,NA,26.51851851851852,NA
62881,Marion County,IL,NA,NA,40.12605042016807
46214,Marion County,IN,NA,44.592592592592595,NA
46219,Marion County,IN,NA,54.51851851851852,NA
46221,Marion County,IN,NA,42.22222222222222,NA
46222,Marion County,IN,71.20253164556962,NA,NA
46254,Marion County,IN,27.531645569620256,NA,NA
46307,Lake County,IN,NA,14.666666666666666,NA
46310,Jasper County,IN,NA,NA,76.47058823529412
46312,Lake County,IN,NA,38.96296296296296,NA
46322,Lake County,IN,30.37974683544304,NA,NA
46383,Porter County,IN,NA,5.333333333333334,NA
46511,Marshall County,IN,NA,NA,96.21848739495799
46792,Huntington County,IN,NA,98.81481481481481,NA
46804,Allen County,IN,NA,NA,36.76470588235294
46806,Allen County,IN,33.54430379746836,NA,NA
46807,Allen County,IN,NA,62.81481481481481,NA
46825,Allen County,IN,NA,NA,29.831932773109244
46947,Cass County,IN,NA,10.814814814814815,NA
47150,Floyd County,IN,NA,NA,21.428571428571427
47170,Scott County,IN,NA,79.85185185185185,NA
47720,Vanderburgh County,IN,NA,83.55555555555556,NA
47802,Vigo County,IN,NA,NA,33.61344537815126
47904,Tippecanoe County,IN,86.07594936708861,NA,NA
50049,Lucas County,IA,NA,NA,68.0672268907563
50313,Polk County,IA,43.67088607594937,NA,NA
50315,Polk County,IA,NA,61.33333333333333,NA
50316,Polk County,IA,86.70886075949366,NA,NA
51012,Cherokee County,IA,99.68354430379746,NA,NA
51103,Woodbury County,IA,54.74683544303798,NA,NA
51555,Harrison County,IA,NA,99.25925925925925,NA
52101,Winneshiek County,IA,NA,65.18518518518519,NA
52240,Johnson County,IA,26.582278481012654,NA,NA
52241,Johnson County,IA,NA,96.5925925925926,NA
52245,Johnson County,IA,NA,39.7037037037037,NA
52246,Johnson County,IA,NA,NA,29.831932773109244
52302,Linn County,IA,NA,NA,72.47899159663865
52601,Des Moines County,IA,NA,48.148148148148145,11.554621848739496
52722,Scott County,IA,NA,26.962962962962962,NA
66104,Wyandotte County,KS,NA,NA,56.09243697478992
66216,Johnson County,KS,NA,82.51851851851852,NA
66441,Geary County,KS,NA,NA,79.41176470588235
40013,Nelson County,KY,NA,89.92592592592594,NA
40065,Shelby County,KY,NA,28.14814814814815,NA
40228,Jefferson County,KY,NA,NA,61.34453781512605
40243,Jefferson County,KY,NA,79.7037037037037,NA
40475,Madison County,KY,NA,NA,72.89915966386555
40511,Fayette County,KY,NA,NA,69.32773109243698
40514,Fayette County,KY,NA,89.48148148148148,NA
40741,Laurel County,KY,NA,40.88888888888889,NA
41091,Boone County,KY,74.68354430379746,NA,NA
41101,Boyd County,KY,24.050632911392405,NA,NA
42025,Marshall County,KY,NA,NA,28.991596638655466
42104,Warren County,KY,NA,45.48148148148148,NA
42141,Barren County,KY,NA,NA,38.445378151260506
42754,Grayson County,KY,NA,NA,43.48739495798319
70058,Jefferson Parish,LA,NA,12,NA
70068,St. John the Baptist Parish,LA,NA,NA,79.62184873949579
70072,Jefferson Parish,LA,NA,58.666666666666664,NA
70117,Orleans Parish,LA,NA,NA,86.34453781512606
70118,Orleans Parish,LA,NA,55.55555555555556,NA
70122,Orleans Parish,LA,NA,10.37037037037037,NA
70125,Orleans Parish,LA,NA,94.81481481481482,NA
70126,Orleans Parish,LA,NA,NA,19.537815126050422
70127,Orleans Parish,LA,NA,66.51851851851852,NA
70301,Lafourche Parish,LA,NA,NA,13.23529411764706
70360,Terrebonne Parish,LA,NA,NA,70.58823529411765
70363,Terrebonne Parish,LA,NA,29.037037037037038,NA
70373,Lafourche Parish,LA,93.0379746835443,NA,NA
70401,Tangipahoa Parish,LA,31.645569620253166,NA,NA
70447,St. Tammany Parish,LA,NA,64.44444444444444,NA
70461,St. Tammany Parish,LA,23.417721518987342,NA,NA
70501,Lafayette Parish,LA,NA,22.814814814814817,NA
70592,Lafayette Parish,LA,66.45569620253164,NA,NA
70714,East Baton Rouge Parish,LA,NA,51.55555555555556,NA
70722,East Feliciana Parish,LA,NA,NA,90.54621848739495
70769,Ascension Parish,LA,14.556962025316455,83.7037037037037,NA
70785,Livingston Parish,LA,81.0126582278481,NA,NA
70807,East Baton Rouge Parish,LA,NA,86.66666666666667,NA
70808,East Baton Rouge Parish,LA,49.68354430379747,41.18518518518518,NA
70814,East Baton Rouge Parish,LA,40.189873417721515,93.62962962962963,NA
70816,East Baton Rouge Parish,LA,NA,68.88888888888889,NA
71006,Bossier Parish,LA,NA,70.37037037037037,NA
71103,Caddo Parish,LA,NA,NA,90.12605042016807
71106,Caddo Parish,LA,NA,NA,49.57983193277311
71107,Caddo Parish,LA,NA,80.88888888888889,NA
71232,Richland Parish,LA,NA,71.11111111111111,NA
71292,Ouachita Parish,LA,19.303797468354432,NA,NA
71295,Franklin Parish,LA,NA,56.148148148148145,NA
04011,Cumberland County,ME,NA,NA,15.966386554621847
04074,Cumberland County,ME,68.67088607594937,NA,NA
04079,Cumberland County,ME,NA,NA,65.96638655462185
04086,Sagadahoc County,ME,NA,52.888888888888886,NA
04103,Cumberland County,ME,NA,NA,12.815126050420167
04416,Hancock County,ME,NA,82.07407407407408,NA
04578,Lincoln County,ME,NA,91.85185185185185,NA
04742,Aroostook County,ME,NA,NA,84.24369747899159
20650,St. Mary's County,MD,NA,85.62962962962963,NA
20721,Prince George's County,MD,78.79746835443038,NA,NA
20769,Prince George's County,MD,NA,NA,98.94957983193278
20770,Prince George's County,MD,NA,84,92.22689075630252
20785,Prince George's County,MD,60.44303797468354,NA,NA
21030,Baltimore County,MD,97.78481012658227,NA,NA
21042,Howard County,MD,NA,81.77777777777779,NA
21050,Harford County,MD,NA,95.7037037037037,NA
21136,Baltimore County,MD,NA,49.48148148148148,NA
21144,Anne Arundel County,MD,NA,56.888888888888886,NA
21202,Baltimore city,MD,NA,81.62962962962963,NA
21204,Baltimore County,MD,89.24050632911393,NA,NA
21209,Baltimore County,MD,66.77215189873418,NA,98.73949579831933
21213,Baltimore city,MD,NA,13.185185185185185,NA
21217,Baltimore city,MD,NA,NA,77.31092436974791
21218,Baltimore city,MD,NA,NA,4.201680672268908
21221,Baltimore County,MD,NA,19.407407407407405,NA
21224,Baltimore city,MD,22.78481012658228,NA,NA
21230,Baltimore city,MD,NA,52.2962962962963,NA
21231,Baltimore city,MD,NA,NA,73.52941176470588
21239,Baltimore city,MD,NA,18.37037037037037,NA
01106,Hampden County,MA,92.72151898734177,NA,NA
01420,Worcester County,MA,NA,1.925925925925926,27.73109243697479
01510,Worcester County,MA,NA,NA,35.714285714285715
01520,Worcester County,MA,NA,50.66666666666667,NA
01550,Worcester County,MA,NA,NA,2.100840336134454
01562,Worcester County,MA,89.87341772151899,NA,NA
01605,Worcester County,MA,NA,19.703703703703702,NA
01701,Middlesex County,MA,41.77215189873418,NA,NA
01730,Middlesex County,MA,NA,89.33333333333333,NA
01803,Middlesex County,MA,NA,NA,17.016806722689076
01810,Essex County,MA,NA,15.11111111111111,NA
01843,Essex County,MA,NA,NA,31.512605042016805
01845,Essex County,MA,NA,11.851851851851853,NA
01850,Middlesex County,MA,NA,17.77777777777778,NA
01852,Middlesex County,MA,0.31645569620253167,NA,NA
01867,Middlesex County,MA,NA,NA,48.319327731092436
01876,Middlesex County,MA,NA,2.5185185185185186,NA
01880,Middlesex County,MA,36.075949367088604,6.37037037037037,42.64705882352941
01886,Middlesex County,MA,NA,29.925925925925927,NA
01890,Middlesex County,MA,NA,91.7037037037037,NA
01905,Essex County,MA,NA,7.4074074074074066,NA
01906,Essex County,MA,NA,38.370370370370374,NA
01915,Essex County,MA,NA,25.333333333333336,NA
01938,Essex County,MA,79.74683544303798,NA,NA
01950,Essex County,MA,NA,21.62962962962963,NA
01960,Essex County,MA,NA,43.851851851851855,0
01970,Essex County,MA,NA,0.4444444444444444,NA
02038,Norfolk County,MA,NA,14.518518518518519,NA
02062,Norfolk County,MA,21.202531645569618,NA,NA
02072,Norfolk County,MA,NA,NA,8.61344537815126
02111,Suffolk County,MA,61.70886075949367,NA,62.60504201680672
02114,Suffolk County,MA,NA,NA,42.436974789915965
02115,Suffolk County,MA,NA,NA,23.52941176470588
02116,Suffolk County,MA,21.835443037974684,20.444444444444446,13.445378151260504
02119,Suffolk County,MA,0,0.14814814814814814,41.806722689075634
02121,Suffolk County,MA,25.949367088607595,5.777777777777778,48.94957983193277
02122,Suffolk County,MA,17.088607594936708,26.814814814814813,NA
02124,Suffolk County,MA,1.2658227848101267,NA,NA
02125,Suffolk County,MA,17.405063291139243,65.62962962962963,NA
02126,Suffolk County,MA,6.6455696202531636,87.55555555555556,NA
02127,Suffolk County,MA,NA,58.370370370370374,NA
02128,Suffolk County,MA,0.6329113924050633,NA,NA
02129,Suffolk County,MA,NA,85.92592592592592,NA
02130,Suffolk County,MA,NA,1.6296296296296295,NA
02131,Suffolk County,MA,NA,26.37037037037037,NA
02134,Suffolk County,MA,NA,94.37037037037037,NA
02135,Suffolk County,MA,NA,9.185185185185185,NA
02136,Suffolk County,MA,3.1645569620253164,82.81481481481482,NA
02138,Middlesex County,MA,NA,30.22222222222222,NA
02139,Middlesex County,MA,23.10126582278481,85.03703703703704,91.80672268907563
02141,Middlesex County,MA,35.75949367088608,NA,NA
02143,Middlesex County,MA,NA,9.925925925925926,NA
02144,Middlesex County,MA,82.59493670886076,NA,NA
02145,Middlesex County,MA,NA,78.66666666666666,NA
02148,Middlesex County,MA,0.949367088607595,3.259259259259259,0.42016806722689076
02149,Middlesex County,MA,NA,20.296296296296294,35.294117647058826
02152,Suffolk County,MA,NA,NA,37.81512605042017
02155,Middlesex County,MA,1.5822784810126582,NA,NA
02169,Norfolk County,MA,18.037974683544302,NA,NA
02190,Norfolk County,MA,64.87341772151899,NA,NA
02301,Plymouth County,MA,9.81012658227848,NA,NA
02343,Norfolk County,MA,NA,NA,94.11764705882352
02359,Plymouth County,MA,NA,61.62962962962963,NA
02368,Norfolk County,MA,NA,NA,20.588235294117645
02445,Norfolk County,MA,NA,33.03703703703704,NA
02446,Norfolk County,MA,NA,6.518518518518518,NA
02459,Middlesex County,MA,NA,20,NA
02472,Middlesex County,MA,NA,33.925925925925924,NA
02474,Middlesex County,MA,NA,22.22222222222222,NA
02476,Middlesex County,MA,NA,23.85185185185185,NA
02494,Norfolk County,MA,NA,NA,75
02638,Barnstable County,MA,NA,88.14814814814815,NA
02703,Bristol County,MA,NA,0.7407407407407408,NA
02718,Bristol County,MA,NA,78.07407407407408,NA
02746,Bristol County,MA,3.481012658227848,NA,NA
02780,Bristol County,MA,NA,32.2962962962963,NA
48035,Macomb County,MI,NA,8.74074074074074,NA
48042,Macomb County,MI,NA,24.592592592592595,NA
48043,Macomb County,MI,NA,NA,60.29411764705882
48047,Macomb County,MI,NA,13.481481481481481,NA
48072,Oakland County,MI,NA,NA,53.78151260504202
48073,Oakland County,MI,NA,NA,25.42016806722689
48085,Oakland County,MI,NA,64.5925925925926,NA
48091,Macomb County,MI,10.443037974683545,NA,NA
48098,Oakland County,MI,NA,35.55555555555556,NA
48103,Washtenaw County,MI,NA,NA,13.655462184873949
48105,Washtenaw County,MI,NA,NA,2.3109243697478994
48111,Wayne County,MI,NA,54.22222222222223,NA
48117,Monroe County,MI,83.54430379746836,NA,NA
48118,Washtenaw County,MI,NA,69.03703703703704,25.840336134453786
48126,Wayne County,MI,15.18987341772152,NA,NA
48127,Wayne County,MI,NA,18.22222222222222,81.5126050420168
48134,Wayne County,MI,35.12658227848101,NA,NA
48135,Wayne County,MI,NA,21.777777777777775,52.10084033613446
48141,Wayne County,MI,NA,52,NA
48146,Wayne County,MI,NA,NA,24.369747899159663
48165,Oakland County,MI,NA,87.4074074074074,NA
48166,Monroe County,MI,46.20253164556962,NA,NA
48167,Oakland County,MI,NA,NA,43.69747899159664
48168,Wayne County,MI,NA,84.29629629629629,NA
48169,Livingston County,MI,NA,NA,66.17647058823529
48180,Wayne County,MI,NA,63.70370370370371,NA
48183,Wayne County,MI,NA,6.074074074074074,NA
48185,Wayne County,MI,31.962025316455694,32.592592592592595,NA
48189,Washtenaw County,MI,NA,NA,89.28571428571429
48195,Wayne County,MI,NA,9.481481481481481,NA
48197,Washtenaw County,MI,NA,52.148148148148145,NA
48198,Washtenaw County,MI,NA,NA,75.21008403361344
48201,Wayne County,MI,72.46835443037975,NA,NA
48212,Wayne County,MI,NA,NA,64.28571428571429
48215,Wayne County,MI,NA,51.11111111111111,NA
48221,Wayne County,MI,NA,74.37037037037038,18.907563025210084
48224,Wayne County,MI,NA,57.03703703703704,52.73109243697479
48227,Wayne County,MI,NA,7.703703703703704,58.61344537815126
48229,Wayne County,MI,61.39240506329114,NA,NA
48230,Wayne County,MI,NA,36.2962962962963,NA
48234,Wayne County,MI,NA,NA,22.899159663865547
48235,Wayne County,MI,NA,59.111111111111114,8.823529411764707
48240,Wayne County,MI,NA,NA,26.47058823529412
48312,Macomb County,MI,31.329113924050635,NA,NA
48324,Oakland County,MI,63.60759493670886,NA,NA
48327,Oakland County,MI,37.65822784810127,NA,NA
48329,Oakland County,MI,NA,19.25925925925926,NA
48331,Oakland County,MI,88.60759493670885,NA,NA
48356,Oakland County,MI,NA,81.33333333333333,95.58823529411765
48359,Oakland County,MI,NA,95.85185185185185,NA
48381,Oakland County,MI,NA,54.81481481481482,48.319327731092436
48382,Oakland County,MI,NA,NA,60.08403361344538
48390,Oakland County,MI,NA,81.92592592592592,34.87394957983193
48451,Genesee County,MI,NA,74.66666666666667,NA
48473,Genesee County,MI,47.151898734177216,NA,NA
48622,Clare County,MI,75.31645569620254,NA,NA
48708,Bay County,MI,NA,NA,22.058823529411764
48823,Ingham County,MI,NA,24.74074074074074,NA
48895,Ingham County,MI,NA,79.25925925925927,NA
49014,Calhoun County,MI,NA,NA,25.210084033613445
49071,Van Buren County,MI,NA,NA,90.12605042016807
49093,St. Joseph County,MI,NA,NA,31.092436974789916
49302,Kent County,MI,NA,91.25925925925927,NA
49423,Ottawa County,MI,NA,8.592592592592592,NA
49444,Muskegon County,MI,NA,73.77777777777777,NA
49460,Ottawa County,MI,93.9873417721519,NA,NA
49659,Antrim County,MI,80.69620253164557,NA,NA
49712,Charlevoix County,MI,NA,75.85185185185185,NA
49735,Otsego County,MI,NA,17.62962962962963,NA
49849,Marquette County,MI,NA,NA,69.9579831932773
49920,Iron County,MI,NA,59.40740740740741,NA
49938,Gogebic County,MI,NA,NA,55.88235294117647
49953,Ontonagon County,MI,NA,84.88888888888889,NA
55009,Goodhue County,MN,NA,NA,92.64705882352942
55024,Dakota County,MN,NA,NA,94.74789915966386
55045,Chisago County,MN,NA,90.96296296296296,NA
55066,Goodhue County,MN,NA,54.37037037037037,NA
55077,Dakota County,MN,NA,NA,76.05042016806722
55113,Ramsey County,MN,NA,NA,22.689075630252102
55126,Ramsey County,MN,NA,NA,57.98319327731093
55303,Anoka County,MN,NA,69.77777777777779,NA
55330,Sherburne County,MN,45.88607594936709,NA,NA
55372,Scott County,MN,NA,NA,93.4873949579832
55398,Sherburne County,MN,NA,NA,96.84873949579831
55404,Hennepin County,MN,27.21518987341772,3.111111111111111,NA
55405,Hennepin County,MN,NA,NA,97.05882352941177
55406,Hennepin County,MN,30.063291139240505,64,NA
55407,Hennepin County,MN,NA,53.925925925925924,NA
55409,Hennepin County,MN,NA,NA,97.89915966386555
55411,Hennepin County,MN,NA,93.33333333333333,91.59663865546219
55412,Hennepin County,MN,NA,NA,87.39495798319328
55413,Hennepin County,MN,75.63291139240506,NA,NA
55416,Hennepin County,MN,NA,87.25925925925925,NA
55421,Anoka County,MN,NA,45.77777777777778,NA
55427,Hennepin County,MN,NA,NA,99.36974789915966
55437,Hennepin County,MN,NA,NA,54.621848739495796
55720,Carlton County,MN,NA,NA,37.60504201680672
55792,St. Louis County,MN,NA,NA,94.32773109243698
55803,St. Louis County,MN,NA,31.11111111111111,NA
55804,St. Louis County,MN,NA,35.7037037037037,NA
55805,St. Louis County,MN,NA,68.74074074074073,77.52100840336135
55904,Olmsted County,MN,NA,93.03703703703704,32.773109243697476
55912,Mower County,MN,NA,80.14814814814815,33.193277310924366
55987,Winona County,MN,NA,NA,1.4705882352941175
56031,Martin County,MN,NA,56.00000000000001,89.07563025210085
56085,Brown County,MN,NA,NA,92.85714285714286
56258,Lyon County,MN,NA,94.22222222222221,91.38655462184873
56484,Cass County,MN,NA,NA,96.00840336134453
56501,Becker County,MN,NA,NA,16.176470588235293
56537,Otter Tail County,MN,56.32911392405063,8.88888888888889,NA
56601,Beltrami County,MN,NA,NA,27.310924369747898
38930,Leflore County,MS,43.35443037974683,NA,NA
39525,Hancock County,MS,NA,NA,67.22689075630252
39532,Harrison County,MS,NA,NA,13.865546218487395
39571,Harrison County,MS,NA,34.22222222222222,NA
63129,St. Louis County,MO,NA,7.111111111111111,NA
63141,St. Louis County,MO,NA,71.85185185185186,NA
63147,St. Louis city,MO,NA,NA,100
64050,Jackson County,MO,NA,15.703703703703702,NA
64081,Jackson County,MO,NA,72.44444444444444,NA
64130,Jackson County,MO,NA,18.51851851851852,NA
64870,Jasper County,MO,NA,NA,67.01680672268907
65203,Boone County,MO,NA,80,NA
65301,Pettis County,MO,NA,NA,27.100840336134453
65355,Benton County,MO,NA,NA,89.49579831932773
65608,Douglas County,MO,NA,NA,88.02521008403362
65712,Lawrence County,MO,NA,NA,87.81512605042016
65721,Christian County,MO,NA,63.85185185185185,NA
59102,Yellowstone County,MT,NA,NA,0.6302521008403361
59501,Hill County,MT,NA,NA,69.53781512605042
59714,Gallatin County,MT,NA,NA,84.45378151260505
59840,Ravalli County,MT,NA,91.4074074074074,NA
68104,Douglas County,NE,NA,NA,44.11764705882353
68107,Douglas County,NE,NA,NA,63.02521008403361
68114,Douglas County,NE,NA,NA,45.168067226890756
68130,Douglas County,NE,NA,72.5925925925926,75.42016806722688
89128,Clark County,NV,NA,69.92592592592592,NA
89148,Clark County,NV,NA,NA,83.82352941176471
89434,Washoe County,NV,48.41772151898734,NA,NA
89436,Washoe County,NV,NA,11.703703703703704,NA
03051,Hillsborough County,NH,28.164556962025316,NA,NA
03063,Hillsborough County,NH,NA,74.22222222222223,NA
03257,Merrimack County,NH,NA,NA,62.81512605042017
03431,Cheshire County,NH,NA,NA,4.831932773109244
03446,Cheshire County,NH,NA,83.4074074074074,59.2436974789916
03811,Rockingham County,NH,NA,60.88888888888889,NA
03824,Strafford County,NH,NA,NA,80.0420168067227
07206,Union County,NJ,37.9746835443038,NA,NA
07305,Hudson County,NJ,NA,2.2222222222222223,NA
07306,Hudson County,NJ,NA,43.111111111111114,NA
07470,Passaic County,NJ,NA,3.4074074074074074,NA
07663,Bergen County,NJ,64.24050632911393,74.81481481481481,NA
07666,Bergen County,NJ,NA,41.77777777777778,NA
07730,Monmouth County,NJ,NA,44.888888888888886,NA
07866,Morris County,NJ,NA,NA,41.38655462184874
07936,Morris County,NJ,NA,80.74074074074075,NA
08015,Burlington County,NJ,NA,NA,68.4873949579832
08021,Camden County,NJ,NA,35.851851851851855,NA
08108,Camden County,NJ,NA,NA,87.18487394957984
08401,Atlantic County,NJ,78.48101265822784,NA,NA
08757,Ocean County,NJ,NA,3.7037037037037033,NA
08807,Somerset County,NJ,NA,42.074074074074076,NA
87001,Sandoval County,NM,94.30379746835443,NA,NA
87106,Bernalillo County,NM,NA,41.48148148148148,NA
87110,Bernalillo County,NM,NA,NA,7.352941176470589
87113,Bernalillo County,NM,81.9620253164557,NA,NA
87120,Bernalillo County,NM,13.60759493670886,NA,NA
87124,Sandoval County,NM,NA,38.074074074074076,NA
87323,McKinley County,NM,NA,97.62962962962963,NA
87413,San Juan County,NM,NA,54.962962962962955,NA
87420,San Juan County,NM,NA,NA,48.94957983193277
87566,Rio Arriba County,NM,99.36708860759494,99.55555555555556,NA
88001,Doa Ana County,NM,NA,NA,48.109243697478995
10002,New York County,NY,NA,NA,11.974789915966387
10009,New York County,NY,NA,4.444444444444445,NA
10014,New York County,NY,NA,55.851851851851855,NA
10018,New York County,NY,NA,NA,88.23529411764706
10022,New York County,NY,84.49367088607595,NA,NA
10023,New York County,NY,NA,88,3.7815126050420167
10024,New York County,NY,NA,21.185185185185183,NA
10026,New York County,NY,NA,17.48148148148148,NA
10027,New York County,NY,NA,89.77777777777777,NA
10029,New York County,NY,29.430379746835445,NA,NA
10031,New York County,NY,NA,14.222222222222221,NA
10032,New York County,NY,16.455696202531644,6.814814814814815,3.9915966386554618
10034,New York County,NY,NA,NA,66.59663865546219
10038,New York County,NY,79.11392405063292,NA,NA
10039,New York County,NY,NA,38.81481481481481,NA
10040,New York County,NY,NA,54.074074074074076,80.67226890756302
10301,Richmond County,NY,NA,10.962962962962964,NA
10314,Richmond County,NY,NA,3.5555555555555554,NA
10451,Bronx County,NY,NA,5.9259259259259265,NA
10452,Bronx County,NY,9.49367088607595,36.74074074074074,NA
10453,Bronx County,NY,NA,82.96296296296296,NA
10454,Bronx County,NY,NA,5.62962962962963,NA
10455,Bronx County,NY,6.012658227848101,40.14814814814815,NA
10456,Bronx County,NY,22.468354430379748,50.51851851851852,NA
10457,Bronx County,NY,NA,0.5925925925925926,NA
10458,Bronx County,NY,NA,0.2962962962962963,NA
10459,Bronx County,NY,7.9113924050632916,NA,NA
10460,Bronx County,NY,18.9873417721519,12.444444444444445,8.403361344537815
10462,Bronx County,NY,51.89873417721519,NA,NA
10466,Bronx County,NY,6.329113924050633,NA,NA
10467,Bronx County,NY,19.936708860759495,6.222222222222222,NA
10469,Bronx County,NY,NA,NA,25
10471,Bronx County,NY,NA,75.40740740740742,NA
10472,Bronx County,NY,NA,15.555555555555555,NA
10473,Bronx County,NY,NA,75.55555555555556,NA
10475,Bronx County,NY,NA,NA,4.621848739495799
10583,Westchester County,NY,NA,NA,26.05042016806723
10941,Orange County,NY,NA,NA,74.36974789915966
11103,Queens County,NY,96.51898734177216,NA,NA
11203,Kings County,NY,NA,74.51851851851852,6.512605042016808
11207,Kings County,NY,7.59493670886076,24,6.932773109243698
11208,Kings County,NY,12.341772151898734,1.1851851851851851,15.126050420168067
11209,Kings County,NY,NA,NA,10.504201680672269
11210,Kings County,NY,NA,58.22222222222222,64.28571428571429
11212,Kings County,NY,2.2151898734177213,36,NA
11213,Kings County,NY,NA,52.44444444444445,NA
11216,Kings County,NY,16.77215189873418,57.77777777777777,18.907563025210084
11218,Kings County,NY,53.79746835443038,NA,NA
11220,Kings County,NY,NA,4.296296296296296,65.33613445378151
11223,Kings County,NY,NA,NA,30.252100840336134
11224,Kings County,NY,25.63291139240506,NA,NA
11226,Kings County,NY,NA,72.74074074074073,8.193277310924369
11229,Kings County,NY,NA,87.1111111111111,NA
11233,Kings County,NY,NA,42.51851851851852,NA
11236,Kings County,NY,5.379746835443038,8,NA
11237,Kings County,NY,29.11392405063291,13.925925925925926,NA
11238,Kings County,NY,NA,83.25925925925925,36.97478991596639
11355,Queens County,NY,NA,NA,13.025210084033615
11364,Queens County,NY,NA,95.11111111111111,61.13445378151261
11373,Queens County,NY,20.569620253164558,50.96296296296296,NA
11377,Queens County,NY,NA,50.37037037037037,NA
11419,Queens County,NY,72.78481012658227,NA,NA
11420,Queens County,NY,NA,34.66666666666667,NA
11422,Queens County,NY,NA,59.851851851851855,62.39495798319328
11426,Queens County,NY,NA,NA,63.86554621848739
11429,Queens County,NY,NA,67.25925925925927,NA
11514,Nassau County,NY,NA,NA,94.9579831932773
11550,Nassau County,NY,NA,NA,31.72268907563025
11570,Nassau County,NY,NA,NA,40.7563025210084
11575,Nassau County,NY,NA,86.96296296296296,NA
11581,Nassau County,NY,NA,NA,64.70588235294117
11590,Nassau County,NY,NA,79.4074074074074,58.19327731092437
11691,Queens County,NY,12.974683544303797,NA,NA
11704,Suffolk County,NY,NA,48.44444444444444,NA
11706,Suffolk County,NY,NA,32.88888888888889,NA
11713,Suffolk County,NY,87.0253164556962,NA,NA
11751,Suffolk County,NY,88.29113924050634,NA,NA
12043,Schoharie County,NY,NA,NA,93.90756302521008
12208,Albany County,NY,NA,64.74074074074075,NA
12304,Schenectady County,NY,NA,NA,57.56302521008403
12542,Ulster County,NY,NA,NA,98.31932773109243
12803,Saratoga County,NY,NA,81.03703703703704,NA
13042,Oswego County,NY,NA,98.37037037037038,NA
13066,Onondaga County,NY,69.62025316455697,NA,NA
13166,Cayuga County,NY,83.22784810126582,NA,NA
13326,Otsego County,NY,74.0506329113924,57.62962962962963,NA
13365,Herkimer County,NY,NA,30.814814814814817,NA
13439,Otsego County,NY,85.12658227848101,NA,NA
13601,Jefferson County,NY,NA,NA,14.495798319327733
13760,Broome County,NY,2.5316455696202533,NA,NA
13790,Broome County,NY,NA,7.851851851851851,NA
13820,Otsego County,NY,NA,6.962962962962963,14.07563025210084
13865,Broome County,NY,NA,68.2962962962963,NA
14068,Erie County,NY,NA,97.92592592592592,NA
14120,Niagara County,NY,NA,32.74074074074074,NA
14209,Erie County,NY,NA,72.14814814814815,NA
14445,Monroe County,NY,NA,86.22222222222223,NA
14454,Livingston County,NY,NA,79.55555555555556,NA
14514,Monroe County,NY,69.30379746835443,NA,NA
14526,Monroe County,NY,21.518987341772153,NA,NA
14534,Monroe County,NY,34.810126582278485,NA,NA
14559,Monroe County,NY,NA,18.666666666666668,NA
14580,Monroe County,NY,NA,5.185185185185185,NA
14609,Monroe County,NY,NA,0.8888888888888888,NA
14611,Monroe County,NY,10.759493670886076,78.96296296296296,NA
14612,Monroe County,NY,NA,NA,28.15126050420168
14618,Monroe County,NY,NA,11.25925925925926,12.184873949579831
14619,Monroe County,NY,NA,40,NA
14620,Monroe County,NY,NA,51.40740740740741,36.554621848739494
14845,Chemung County,NY,NA,25.48148148148148,NA
14904,Chemung County,NY,NA,NA,92.43697478991596
27021,Stokes County,NC,85.44303797468355,29.629629629629626,NA
27105,Forsyth County,NC,NA,NA,5.46218487394958
27106,Forsyth County,NC,NA,19.407407407407405,9.453781512605042
27107,Forsyth County,NC,NA,21.777777777777775,NA
27127,Forsyth County,NC,NA,4.148148148148148,NA
27217,Alamance County,NC,NA,9.777777777777779,NA
27292,Davidson County,NC,NA,1.037037037037037,NA
27295,Davidson County,NC,NA,NA,1.680672268907563
27511,Wake County,NC,NA,NA,67.64705882352942
27514,Orange County,NC,62.65822784810127,NA,32.563025210084035
27525,Franklin County,NC,NA,62.07407407407407,NA
27545,Wake County,NC,NA,NA,38.655462184873954
27572,Person County,NC,NA,NA,95.37815126050421
27610,Wake County,NC,NA,30.074074074074076,NA
27703,Durham County,NC,NA,10.074074074074074,NA
27704,Durham County,NC,43.037974683544306,NA,NA
27705,Durham County,NC,NA,43.25925925925926,NA
27707,Durham County,NC,45.56962025316456,77.18518518518519,17.436974789915965
27822,Wilson County,NC,NA,NA,91.80672268907563
27909,Pasquotank County,NC,NA,NA,53.78151260504202
28025,Cabarrus County,NC,NA,12.74074074074074,NA
28078,Mecklenburg County,NC,NA,NA,27.941176470588236
28079,Union County,NC,53.16455696202531,NA,NA
28173,Union County,NC,NA,46.96296296296296,NA
28205,Mecklenburg County,NC,NA,NA,45.378151260504204
28213,Mecklenburg County,NC,NA,51.85185185185185,NA
28303,Cumberland County,NC,NA,NA,44.747899159663866
28328,Sampson County,NC,41.45569620253164,NA,NA
28451,Brunswick County,NC,NA,NA,38.865546218487395
28546,Onslow County,NC,NA,47.11111111111111,NA
28779,Jackson County,NC,NA,60.29629629629629,NA
28786,Haywood County,NC,NA,NA,20.798319327731093
28792,Henderson County,NC,NA,NA,7.9831932773109235
58078,Cass County,ND,NA,13.925925925925926,NA
58104,Cass County,ND,NA,42.66666666666667,NA
43055,Licking County,OH,NA,NA,3.361344537815126
43061,Delaware County,OH,100,NA,NA
43071,Licking County,OH,NA,99.11111111111111,NA
43082,Delaware County,OH,NA,NA,37.39495798319328
43160,Fayette County,OH,19.62025316455696,NA,NA
43201,Franklin County,OH,NA,94.37037037037037,NA
43202,Franklin County,OH,NA,93.92592592592592,NA
43206,Franklin County,OH,44.303797468354425,56.2962962962963,NA
43211,Franklin County,OH,16.139240506329113,NA,NA
43221,Franklin County,OH,NA,NA,36.134453781512605
43223,Franklin County,OH,9.177215189873419,23.11111111111111,NA
43224,Franklin County,OH,NA,48.2962962962963,NA
43227,Franklin County,OH,27.848101265822784,NA,NA
43228,Franklin County,OH,5.063291139240507,75.70370370370371,NA
43229,Franklin County,OH,33.860759493670884,NA,NA
43235,Franklin County,OH,NA,NA,26.89075630252101
43560,Lucas County,OH,NA,13.62962962962963,NA
43566,Lucas County,OH,NA,NA,77.10084033613445
44001,Lorain County,OH,NA,NA,55.46218487394958
44004,Ashtabula County,OH,NA,2.814814814814815,NA
44012,Lorain County,OH,NA,NA,33.403361344537814
44021,Geauga County,OH,NA,NA,93.0672268907563
44035,Lorain County,OH,NA,0,9.873949579831933
44052,Lorain County,OH,38.291139240506325,NA,5.2521008403361344
44055,Lorain County,OH,13.291139240506327,NA,NA
44056,Summit County,OH,NA,NA,73.10924369747899
44057,Lake County,OH,NA,16,NA
44060,Lake County,OH,NA,7.555555555555555,NA
44067,Summit County,OH,NA,17.037037037037038,NA
44072,Geauga County,OH,NA,NA,76.89075630252101
44074,Lorain County,OH,NA,46.51851851851852,NA
44077,Lake County,OH,NA,2.666666666666667,NA
44090,Lorain County,OH,NA,NA,56.30252100840336
44094,Lake County,OH,NA,NA,0.8403361344537815
44102,Cuyahoga County,OH,15.50632911392405,NA,NA
44104,Cuyahoga County,OH,5.69620253164557,18.074074074074073,NA
44105,Cuyahoga County,OH,32.91139240506329,NA,NA
44106,Cuyahoga County,OH,14.873417721518987,NA,NA
44107,Cuyahoga County,OH,NA,NA,5.88235294117647
44108,Cuyahoga County,OH,4.430379746835443,28.59259259259259,NA
44109,Cuyahoga County,OH,NA,1.3333333333333335,NA
44114,Cuyahoga County,OH,37.34177215189873,NA,NA
44117,Cuyahoga County,OH,NA,NA,39.075630252100844
44118,Cuyahoga County,OH,NA,63.25925925925926,NA
44122,Cuyahoga County,OH,NA,4.7407407407407405,NA
44123,Cuyahoga County,OH,34.177215189873415,NA,NA
44124,Cuyahoga County,OH,30.69620253164557,NA,NA
44128,Cuyahoga County,OH,4.113924050632911,34.074074074074076,NA
44131,Cuyahoga County,OH,NA,NA,50
44133,Cuyahoga County,OH,NA,NA,40.54621848739496
44135,Cuyahoga County,OH,NA,36.148148148148145,NA
44136,Cuyahoga County,OH,34.49367088607595,NA,NA
44137,Cuyahoga County,OH,8.860759493670885,39.55555555555556,NA
44138,Cuyahoga County,OH,NA,20.74074074074074,NA
44141,Cuyahoga County,OH,NA,57.18518518518518,NA
44143,Cuyahoga County,OH,NA,46.666666666666664,NA
44144,Cuyahoga County,OH,63.92405063291139,NA,NA
44146,Cuyahoga County,OH,71.51898734177216,1.4814814814814816,NA
44147,Cuyahoga County,OH,NA,NA,26.680672268907564
44202,Portage County,OH,NA,54.666666666666664,6.092436974789916
44203,Summit County,OH,NA,NA,30.88235294117647
44212,Medina County,OH,4.746835443037975,NA,NA
44221,Summit County,OH,NA,16.296296296296298,NA
44256,Medina County,OH,NA,NA,1.050420168067227
44310,Summit County,OH,15.822784810126583,NA,NA
44313,Summit County,OH,35.44303797468354,15.407407407407408,NA
44320,Summit County,OH,NA,53.333333333333336,NA
44406,Mahoning County,OH,NA,NA,22.478991596638657
44451,Mahoning County,OH,NA,97.48148148148148,NA
44622,Tuscarawas County,OH,NA,NA,16.596638655462183
44833,Crawford County,OH,NA,16.444444444444446,NA
44904,Richland County,OH,82.27848101265823,96,NA
45044,Butler County,OH,8.227848101265822,NA,NA
45211,Hamilton County,OH,NA,27.85185185185185,NA
45237,Hamilton County,OH,87.34177215189874,NA,NA
45356,Miami County,OH,NA,NA,84.66386554621849
45405,Montgomery County,OH,NA,44.44444444444444,NA
45420,Montgomery County,OH,NA,39.7037037037037,NA
45619,Lawrence County,OH,79.43037974683544,NA,NA
45714,Washington County,OH,55.379746835443036,NA,NA
45805,Allen County,OH,NA,NA,79.2016806722689
73120,Oklahoma County,OK,NA,25.185185185185183,NA
73160,Cleveland County,OK,NA,4.888888888888889,NA
73162,Oklahoma County,OK,NA,71.70370370370371,NA
73507,Comanche County,OK,78.16455696202532,NA,NA
74048,Nowata County,OK,NA,96.44444444444444,NA
74063,Tulsa County,OK,NA,NA,48.739495798319325
74104,Tulsa County,OK,NA,97.03703703703704,NA
74361,Mayes County,OK,NA,64.14814814814814,78.99159663865547
74401,Muskogee County,OK,75.9493670886076,NA,NA
74432,McIntosh County,OK,NA,47.85185185185185,NA
74745,McCurtain County,OK,NA,NA,97.47899159663865
74820,Pontotoc County,OK,12.658227848101266,5.037037037037037,NA
97005,Washington County,OR,NA,70.66666666666667,NA
97006,Washington County,OR,NA,66.96296296296296,NA
97080,Multnomah County,OR,NA,NA,34.03361344537815
97138,Clatsop County,OR,63.29113924050633,NA,NA
97140,Washington County,OR,NA,NA,83.61344537815127
97201,Multnomah County,OR,NA,92,NA
97209,Multnomah County,OR,NA,62.37037037037037,NA
97214,Multnomah County,OR,NA,77.62962962962962,NA
97217,Multnomah County,OR,NA,76.5925925925926,NA
97223,Washington County,OR,NA,61.18518518518519,NA
97225,Washington County,OR,NA,98.07407407407408,NA
97229,Washington County,OR,NA,NA,38.23529411764706
97303,Marion County,OR,44.936708860759495,NA,NA
97381,Marion County,OR,NA,86.51851851851852,NA
97394,Lincoln County,OR,NA,NA,65.75630252100841
15025,Allegheny County,PA,NA,NA,57.14285714285714
15085,Westmoreland County,PA,NA,74.07407407407408,NA
15205,Allegheny County,PA,NA,55.7037037037037,NA
15213,Allegheny County,PA,71.83544303797468,NA,NA
15217,Allegheny County,PA,NA,NA,82.56302521008404
15220,Allegheny County,PA,NA,72.14814814814815,NA
15235,Allegheny County,PA,NA,14.814814814814813,NA
15238,Allegheny County,PA,NA,NA,35.50420168067227
15241,Allegheny County,PA,NA,NA,50.21008403361344
15644,Westmoreland County,PA,NA,NA,11.76470588235294
15801,Clearfield County,PA,12.025316455696203,6.666666666666667,2.73109243697479
15824,Jefferson County,PA,NA,NA,51.05042016806722
16046,Butler County,PA,NA,73.62962962962963,NA
16056,Butler County,PA,NA,NA,71.42857142857143
16506,Erie County,PA,NA,NA,85.08403361344537
16652,Huntingdon County,PA,NA,17.333333333333336,NA
16830,Clearfield County,PA,NA,NA,14.915966386554622
17011,Cumberland County,PA,NA,55.407407407407405,NA
17022,Lancaster County,PA,NA,14.37037037037037,NA
17036,Dauphin County,PA,NA,42.96296296296296,75.84033613445378
17042,Lebanon County,PA,7.2784810126582276,28.74074074074074,NA
17050,Cumberland County,PA,NA,9.037037037037036,NA
17057,Dauphin County,PA,NA,15.259259259259258,NA
17067,Lebanon County,PA,NA,NA,54.41176470588235
17111,Dauphin County,PA,NA,31.555555555555554,NA
17241,Cumberland County,PA,91.77215189873418,NA,NA
17315,York County,PA,NA,48.44444444444444,NA
17404,York County,PA,18.354430379746837,66.81481481481481,NA
17552,Lancaster County,PA,42.721518987341774,NA,NA
17579,Lancaster County,PA,NA,93.48148148148148,NA
17728,Lycoming County,PA,NA,NA,97.68907563025209
17801,Northumberland County,PA,NA,18.962962962962962,NA
17815,Columbia County,PA,NA,NA,46.63865546218487
17820,Columbia County,PA,NA,NA,77.94117647058823
17821,Montour County,PA,NA,NA,2.941176470588235
17847,Northumberland County,PA,NA,76.74074074074075,NA
18067,Northampton County,PA,NA,NA,37.18487394957983
18102,Lehigh County,PA,NA,NA,20.168067226890756
18104,Lehigh County,PA,20.88607594936709,NA,NA
18109,Lehigh County,PA,32.278481012658226,NA,NA
18201,Luzerne County,PA,NA,21.48148148148148,NA
18411,Lackawanna County,PA,NA,NA,23.739495798319325
18434,Lackawanna County,PA,NA,NA,90.96638655462185
18447,Lackawanna County,PA,NA,NA,58.40336134453782
18505,Lackawanna County,PA,NA,35.11111111111111,NA
18621,Luzerne County,PA,NA,85.33333333333334,NA
18702,Luzerne County,PA,36.708860759493675,4.592592592592593,NA
18954,Bucks County,PA,NA,NA,84.87394957983193
18974,Bucks County,PA,NA,NA,2.5210084033613445
19010,Delaware County,PA,NA,41.629629629629626,43.0672268907563
19020,Bucks County,PA,NA,NA,9.663865546218489
19035,Montgomery County,PA,NA,98.66666666666667,NA
19050,Delaware County,PA,NA,12.296296296296298,NA
19060,Delaware County,PA,NA,92.88888888888889,NA
19064,Delaware County,PA,NA,92.14814814814815,NA
19083,Delaware County,PA,NA,NA,23.10924369747899
19104,Philadelphia County,PA,NA,16.88888888888889,79.83193277310924
19114,Philadelphia County,PA,NA,18.814814814814813,NA
19124,Philadelphia County,PA,NA,41.92592592592593,NA
19129,Philadelphia County,PA,67.40506329113924,NA,NA
19130,Philadelphia County,PA,NA,NA,51.89075630252101
19131,Philadelphia County,PA,NA,2.9629629629629632,NA
19134,Philadelphia County,PA,NA,13.037037037037036,NA
19139,Philadelphia County,PA,58.54430379746836,76,NA
19142,Philadelphia County,PA,45.25316455696203,NA,NA
19143,Philadelphia County,PA,2.848101265822785,NA,NA
19145,Philadelphia County,PA,NA,64.88888888888889,NA
19147,Philadelphia County,PA,81.64556962025317,NA,51.470588235294116
19151,Philadelphia County,PA,NA,53.48148148148149,NA
19312,Chester County,PA,68.0379746835443,NA,NA
19344,Chester County,PA,NA,NA,70.7983193277311
19518,Berks County,PA,NA,NA,69.53781512605042
19522,Berks County,PA,67.72151898734177,NA,NA
02852,Washington County,RI,NA,24.444444444444443,NA
29070,Lexington County,SC,76.89873417721519,NA,NA
29204,Richland County,SC,NA,67.7037037037037,NA
29456,Dorchester County,SC,NA,47.7037037037037,NA
29488,Colleton County,SC,NA,NA,50.63025210084034
29576,Horry County,SC,NA,11.555555555555555,NA
29577,Horry County,SC,NA,50.81481481481481,NA
29607,Greenville County,SC,65.18987341772153,NA,NA
29842,Aiken County,SC,88.92405063291139,NA,NA
29860,Edgefield County,SC,NA,69.48148148148148,NA
29907,Beaufort County,SC,NA,NA,52.73109243697479
57105,Minnehaha County,SD,NA,11.11111111111111,NA
57701,Pennington County,SD,25.31645569620253,NA,NA
57747,Fall River County,SD,NA,NA,61.76470588235294
37040,Montgomery County,TN,NA,NA,85.29411764705883
37043,Montgomery County,TN,69.9367088607595,NA,NA
37067,Williamson County,TN,NA,NA,70.37815126050421
37076,Davidson County,TN,40.50632911392405,NA,NA
37087,Wilson County,TN,NA,22.37037037037037,NA
37135,Williamson County,TN,91.45569620253164,NA,NA
37160,Bedford County,TN,NA,31.851851851851855,NA
37207,Davidson County,TN,NA,91.11111111111111,NA
37210,Davidson County,TN,91.13924050632912,NA,NA
37411,Hamilton County,TN,NA,NA,58.82352941176471
37412,Hamilton County,TN,NA,59.851851851851855,NA
37659,Washington County,TN,NA,NA,24.159663865546218
37664,Sullivan County,TN,NA,NA,24.789915966386555
37745,Greene County,TN,NA,20.14814814814815,NA
37774,Loudon County,TN,NA,NA,63.4453781512605
37777,Blount County,TN,NA,NA,81.30252100840336
37841,Scott County,TN,NA,80.2962962962963,NA
38128,Shelby County,TN,NA,34.37037037037037,NA
38305,Madison County,TN,13.924050632911392,NA,NA
38401,Maury County,TN,NA,NA,19.747899159663866
38572,Cumberland County,TN,NA,58.51851851851851,NA
75007,Denton County,TX,80.0632911392405,NA,NA
75039,Dallas County,TX,NA,97.77777777777777,NA
75043,Dallas County,TX,NA,16.74074074074074,NA
75044,Dallas County,TX,NA,26.222222222222225,NA
75048,Dallas County,TX,NA,58.666666666666664,NA
75056,Denton County,TX,NA,30.814814814814817,NA
75104,Dallas County,TX,NA,65.48148148148148,NA
75149,Dallas County,TX,NA,27.111111111111114,NA
75208,Dallas County,TX,65.82278481012658,NA,NA
75218,Dallas County,TX,NA,60.592592592592595,NA
75219,Dallas County,TX,NA,NA,40.33613445378151
75225,Dallas County,TX,97.15189873417721,NA,NA
75228,Dallas County,TX,NA,NA,23.319327731092436
75248,Dallas County,TX,NA,24.296296296296298,NA
75287,Denton County,TX,NA,77.77777777777779,NA
75407,Collin County,TX,NA,NA,96.42857142857143
75602,Gregg County,TX,NA,67.11111111111111,NA
76010,Tarrant County,TX,23.734177215189874,NA,NA
76017,Tarrant County,TX,NA,NA,32.142857142857146
76053,Tarrant County,TX,90.18987341772153,NA,NA
76102,Tarrant County,TX,NA,NA,88.65546218487394
76109,Tarrant County,TX,61.07594936708861,NA,NA
76112,Tarrant County,TX,20.253164556962027,NA,NA
76115,Tarrant County,TX,NA,70.96296296296296,NA
76116,Tarrant County,TX,NA,NA,18.277310924369747
76117,Tarrant County,TX,38.924050632911396,NA,NA
76126,Tarrant County,TX,77.21518987341773,NA,NA
76135,Tarrant County,TX,NA,65.33333333333333,NA
76140,Tarrant County,TX,NA,42.81481481481482,NA
76502,Bell County,TX,NA,56.74074074074073,NA
76528,Coryell County,TX,NA,NA,59.03361344537815
76542,Bell County,TX,NA,NA,67.43697478991596
76543,Bell County,TX,NA,NA,30.672268907563026
76571,Bell County,TX,NA,61.77777777777778,NA
76643,McLennan County,TX,NA,84.44444444444444,54.20168067226891
76661,Falls County,TX,NA,82.07407407407408,NA
76705,McLennan County,TX,NA,90.81481481481481,26.260504201680675
76707,McLennan County,TX,NA,NA,83.40336134453781
77008,Harris County,TX,NA,94.96296296296296,NA
77014,Harris County,TX,62.9746835443038,NA,NA
77016,Harris County,TX,NA,38.51851851851852,NA
77021,Harris County,TX,41.139240506329116,NA,NA
77023,Harris County,TX,NA,NA,88.8655462184874
77036,Harris County,TX,NA,74.96296296296296,NA
77053,Fort Bend County,TX,NA,81.18518518518518,NA
77068,Harris County,TX,NA,97.18518518518519,NA
77071,Harris County,TX,65.50632911392405,NA,60.924369747899156
77079,Harris County,TX,NA,82.66666666666667,NA
77081,Harris County,TX,NA,92.44444444444444,NA
77088,Harris County,TX,NA,31.851851851851855,NA
77089,Harris County,TX,NA,31.25925925925926,NA
77091,Harris County,TX,59.49367088607595,NA,NA
77096,Harris County,TX,NA,75.25925925925925,NA
77355,Montgomery County,TX,NA,76.44444444444444,NA
77418,Austin County,TX,NA,NA,98.52941176470588
77545,Fort Bend County,TX,NA,NA,91.17647058823529
77546,Galveston County,TX,NA,10.222222222222223,NA
77573,Galveston County,TX,NA,NA,82.14285714285714
77591,Galveston County,TX,90.50632911392405,NA,NA
77802,Brazos County,TX,62.0253164556962,NA,NA
77803,Brazos County,TX,NA,NA,94.53781512605042
77964,Lavaca County,TX,NA,71.55555555555554,NA
78046,Webb County,TX,51.26582278481012,23.555555555555554,NA
78201,Bexar County,TX,NA,NA,39.49579831932773
78209,Bexar County,TX,NA,NA,39.49579831932773
78240,Bexar County,TX,47.151898734177216,NA,NA
78245,Bexar County,TX,28.79746835443038,NA,NA
78249,Bexar County,TX,NA,63.55555555555556,NA
78415,Nueces County,TX,NA,49.925925925925924,NA
78520,Cameron County,TX,NA,26.074074074074073,NA
78550,Cameron County,TX,NA,37.18518518518519,NA
78577,Hidalgo County,TX,NA,NA,9.033613445378151
78589,Hidalgo County,TX,NA,35.40740740740741,NA
78611,Burnet County,TX,NA,84.5925925925926,NA
78654,Burnet County,TX,NA,93.18518518518518,NA
78753,Travis County,TX,NA,70.51851851851852,NA
78852,Maverick County,TX,NA,NA,53.36134453781513
78956,Fayette County,TX,NA,91.55555555555556,NA
79424,Lubbock County,TX,NA,39.407407407407405,NA
79606,Taylor County,TX,NA,NA,28.361344537815125
79903,El Paso County,TX,NA,NA,34.2436974789916
84010,Davis County,UT,43.9873417721519,NA,NA
84060,Summit County,UT,NA,NA,85.50420168067227
84067,Weber County,UT,NA,NA,99.15966386554622
84088,Salt Lake County,UT,NA,52.74074074074074,71.63865546218487
84102,Salt Lake County,UT,NA,85.48148148148148,NA
84104,Salt Lake County,UT,NA,68.44444444444444,NA
84107,Salt Lake County,UT,74.36708860759494,NA,NA
84115,Salt Lake County,UT,NA,NA,56.9327731092437
84123,Salt Lake County,UT,NA,38.22222222222222,NA
84404,Weber County,UT,NA,89.62962962962962,NA
05091,Windsor County,VT,NA,95.25925925925925,NA
05452,Chittenden County,VT,NA,34.96296296296296,86.1344537815126
05478,Franklin County,VT,NA,94.07407407407408,NA
05701,Rutland County,VT,NA,9.333333333333334,10.714285714285714
20169,Prince William County,VA,NA,70.66666666666667,NA
22015,Fairfax County,VA,57.91139240506329,NA,NA
22180,Fairfax County,VA,NA,NA,61.5546218487395
22630,Warren County,VA,NA,NA,34.87394957983193
22802,Harrisonburg city,VA,NA,49.629629629629626,NA
22901,Albemarle County,VA,NA,NA,6.302521008403361
22902,Charlottesville city,VA,NA,31.407407407407405,NA
22903,Charlottesville city,VA,NA,NA,32.35294117647059
22911,Albemarle County,VA,NA,NA,78.15126050420169
22936,Albemarle County,VA,NA,98.51851851851852,93.69747899159664
23072,Gloucester County,VA,77.53164556962025,NA,NA
23222,Richmond city,VA,54.11392405063291,NA,NA
23321,Chesapeake city,VA,80.37974683544303,NA,NA
23323,Chesapeake city,VA,39.24050632911392,NA,NA
23435,Suffolk city,VA,NA,NA,49.78991596638656
23462,Virginia Beach city,VA,NA,9.62962962962963,NA
23502,Norfolk city,VA,NA,29.037037037037038,NA
23518,Norfolk city,VA,NA,27.555555555555557,NA
23664,Hampton city,VA,NA,NA,74.78991596638656
23669,Hampton city,VA,NA,46.22222222222222,NA
23805,Petersburg city,VA,NA,61.03703703703703,NA
23947,Charlotte County,VA,NA,NA,95.7983193277311
24083,Botetourt County,VA,NA,NA,86.76470588235294
24136,Giles County,VA,98.41772151898735,NA,NA
24279,Wise County,VA,94.9367088607595,NA,NA
24319,Smyth County,VA,NA,NA,95.16806722689076
24401,Staunton city,VA,NA,NA,30.462184873949578
24590,Albemarle County,VA,NA,NA,81.09243697478992
98003,King County,WA,NA,81.33333333333333,NA
98020,Snohomish County,WA,NA,NA,29.411764705882355
98027,King County,WA,NA,42.37037037037037,NA
98037,Snohomish County,WA,NA,NA,83.19327731092437
98040,King County,WA,NA,56.44444444444444,NA
98055,King County,WA,76.26582278481013,NA,NA
98057,King County,WA,NA,66.07407407407408,NA
98075,King County,WA,NA,73.18518518518519,NA
98077,King County,WA,NA,NA,85.92436974789915
98103,King County,WA,51.58227848101266,39.111111111111114,NA
98104,King County,WA,NA,37.77777777777778,NA
98112,King County,WA,NA,65.77777777777779,NA
98115,King County,WA,70.25316455696202,NA,NA
98118,King County,WA,NA,33.48148148148148,28.781512605042014
98144,King County,WA,66.13924050632912,NA,NA
98177,King County,WA,NA,57.48148148148148,NA
98198,King County,WA,NA,90.22222222222223,NA
98292,Snohomish County,WA,NA,37.629629629629626,NA
98331,Clallam County,WA,NA,92.74074074074075,NA
98366,Kitsap County,WA,NA,27.25925925925926,NA
98405,Pierce County,WA,NA,NA,65.54621848739495
98801,Chelan County,WA,NA,NA,28.57142857142857
98816,Chelan County,WA,NA,NA,73.52941176470588
98908,Yakima County,WA,NA,44.74074074074074,NA
99353,Benton County,WA,NA,59.7037037037037,NA
20002,District of Columbia,DC,8.544303797468354,8.148148148148149,NA
20009,District of Columbia,DC,37.0253164556962,NA,NA
20015,District of Columbia,DC,NA,NA,65.12605042016807
25312,Kanawha County,WV,NA,51.70370370370371,NA
25701,Cabell County,WV,22.151898734177212,NA,NA
25705,Cabell County,WV,NA,NA,59.87394957983193
25801,Raleigh County,WV,NA,NA,59.66386554621849
26041,Marshall County,WV,NA,73.33333333333333,NA
26301,Harrison County,WV,NA,NA,20.3781512605042
26330,Harrison County,WV,NA,26.666666666666668,NA
26501,Monongalia County,WV,55.06329113924051,NA,NA
26505,Monongalia County,WV,NA,33.62962962962963,NA
53012,Ozaukee County,WI,NA,NA,27.521008403361346
53066,Waukesha County,WI,73.41772151898735,NA,NA
53081,Sheboygan County,WI,NA,20.59259259259259,NA
53094,Jefferson County,WI,NA,NA,61.97478991596639
53098,Dodge County,WI,NA,55.111111111111114,NA
53122,Waukesha County,WI,NA,NA,72.26890756302521
53130,Milwaukee County,WI,NA,NA,67.85714285714286
53150,Waukesha County,WI,NA,37.03703703703704,NA
53154,Milwaukee County,WI,NA,10.518518518518519,NA
53189,Waukesha County,WI,NA,95.4074074074074,NA
53205,Milwaukee County,WI,3.79746835443038,45.925925925925924,NA
53209,Milwaukee County,WI,NA,1.7777777777777777,NA
53210,Milwaukee County,WI,11.708860759493671,NA,NA
53212,Milwaukee County,WI,NA,13.333333333333334,42.016806722689076
53215,Milwaukee County,WI,6.962025316455696,NA,NA
53217,Milwaukee County,WI,NA,NA,45.79831932773109
53220,Milwaukee County,WI,NA,84.14814814814815,66.17647058823529
53223,Milwaukee County,WI,NA,NA,44.537815126050425
53224,Milwaukee County,WI,NA,NA,80.46218487394958
53225,Milwaukee County,WI,NA,37.333333333333336,NA
53227,Milwaukee County,WI,NA,NA,15.546218487394958
53402,Racine County,WI,NA,2.3703703703703702,NA
53511,Rock County,WI,1.89873417721519,5.481481481481482,1.8907563025210083
53527,Dane County,WI,96.83544303797468,NA,NA
53566,Green County,WI,56.9620253164557,17.925925925925927,41.596638655462186
53593,Dane County,WI,NA,NA,82.98319327731093
53594,Jefferson County,WI,NA,96.14814814814815,NA
53703,Dane County,WI,NA,NA,88.4453781512605
53705,Dane County,WI,NA,46.074074074074076,10.294117647058822
53711,Dane County,WI,NA,49.18518518518519,11.344537815126051
53716,Dane County,WI,NA,80.5925925925926,NA
53916,Dodge County,WI,86.39240506329115,NA,NA
54208,Brown County,WI,NA,100,NA
54304,Brown County,WI,NA,45.62962962962963,NA
54603,La Crosse County,WI,NA,20.88888888888889,12.394957983193278
54650,La Crosse County,WI,NA,36.888888888888886,21.84873949579832
54656,Monroe County,WI,NA,37.77777777777778,NA
54880,Douglas County,WI,NA,43.407407407407405,1.2605042016806722
