ZipCode,county,state,Adult,Retirement,Geriatric
35022,Jefferson County,AL,NA,39.33649289099526,NA
35064,Jefferson County,AL,62.04588910133844,NA,NA
35208,Jefferson County,AL,NA,64.88151658767772,NA
35209,Jefferson County,AL,NA,54.45497630331754,NA
35211,Jefferson County,AL,NA,15.450236966824646,NA
35214,Jefferson County,AL,30.975143403441685,28.151658767772513,NA
35215,Jefferson County,AL,7.0745697896749515,76.39810426540285,NA
35226,Jefferson County,AL,NA,NA,17.033356990773598
35234,Jefferson County,AL,NA,NA,79.4889992902768
35501,Walker County,AL,NA,NA,97.23207948899929
35633,Lauderdale County,AL,NA,48.1042654028436,NA
35748,Madison County,AL,NA,NA,88.85734563520226
36067,Autauga County,AL,NA,NA,59.82966643009227
36116,Montgomery County,AL,19.78967495219885,NA,NA
36201,Calhoun County,AL,61.75908221797323,70.9004739336493,NA
36303,Houston County,AL,NA,63.317535545023695,NA
36330,Coffee County,AL,NA,24.644549763033176,NA
36532,Baldwin County,AL,NA,NA,15.755855216465578
36541,Mobile County,AL,NA,72.22748815165878,NA
36693,Mobile County,AL,NA,NA,79.98580553584102
36695,Mobile County,AL,NA,20.284360189573462,NA
99507,Anchorage Municipality,AK,32.69598470363289,NA,NA
99577,Anchorage Municipality,AK,NA,NA,85.66359119943222
99705,Fairbanks North Star Borough,AK,NA,85.87677725118483,NA
99801,Juneau City and Borough,AK,50.09560229445506,56.25592417061611,92.33498935415189
99835,Sitka City and Borough,AK,NA,68.43601895734596,NA
99901,Ketchikan Gateway Borough,AK,40.72657743785851,NA,NA
85003,Maricopa County,AZ,NA,NA,98.5805535841022
85008,Maricopa County,AZ,12.4282982791587,15.876777251184834,NA
85016,Maricopa County,AZ,NA,NA,81.33427963094393
85017,Maricopa County,AZ,NA,62.464454976303315,NA
85018,Maricopa County,AZ,NA,27.535545023696685,NA
85019,Maricopa County,AZ,NA,59.09952606635072,81.05039034776436
85021,Maricopa County,AZ,39.67495219885277,NA,NA
85022,Maricopa County,AZ,53.346080305927345,NA,NA
85028,Maricopa County,AZ,NA,NA,73.66926898509581
85034,Maricopa County,AZ,NA,98.67298578199052,NA
85040,Maricopa County,AZ,71.60611854684512,NA,NA
85041,Maricopa County,AZ,6.9789674952198855,15.924170616113745,NA
85042,Maricopa County,AZ,24.378585086042065,NA,NA
85043,Maricopa County,AZ,55.44933078393881,NA,NA
85051,Maricopa County,AZ,44.072657743785854,60.90047393364929,NA
85083,Maricopa County,AZ,93.59464627151051,NA,NA
85085,Maricopa County,AZ,NA,NA,75.65649396735273
85131,Pinal County,AZ,NA,63.649289099526065,NA
85139,Pinal County,AZ,54.875717017208416,NA,NA
85201,Maricopa County,AZ,13.09751434034417,NA,NA
85202,Maricopa County,AZ,NA,35.165876777251185,NA
85203,Maricopa County,AZ,NA,NA,81.83108587650815
85224,Maricopa County,AZ,NA,NA,84.74095102909865
85225,Maricopa County,AZ,NA,17.819905213270143,NA
85248,Maricopa County,AZ,59.273422562141484,53.838862559241704,NA
85251,Maricopa County,AZ,NA,40.33175355450237,NA
85258,Maricopa County,AZ,NA,42.464454976303315,NA
85283,Maricopa County,AZ,51.24282982791587,NA,NA
85284,Maricopa County,AZ,NA,96.01895734597157,88.36053938963803
85295,Maricopa County,AZ,NA,NA,83.53442157558553
85301,Maricopa County,AZ,NA,44.312796208530806,NA
85306,Maricopa County,AZ,NA,47.91469194312796,NA
85310,Maricopa County,AZ,79.1586998087954,NA,NA
85323,Maricopa County,AZ,NA,NA,79.63094393186657
85326,Maricopa County,AZ,NA,30.18957345971564,NA
85344,La Paz County,AZ,36.137667304015295,NA,NA
85349,Yuma County,AZ,68.73804971319312,96.30331753554502,51.738821859474804
85350,Yuma County,AZ,80.49713193116634,56.350710900473935,62.810503903477645
85356,Yuma County,AZ,NA,NA,99.14833215046131
85363,Maricopa County,AZ,98.56596558317399,NA,NA
85364,Yuma County,AZ,2.1032504780114722,86.7298578199052,85.87650816181689
85365,Yuma County,AZ,NA,NA,6.88431511710433
85367,Yuma County,AZ,NA,NA,6.458481192334989
85375,Maricopa County,AZ,NA,NA,0.5677785663591199
85378,Maricopa County,AZ,NA,89.57345971563981,NA
85383,Maricopa County,AZ,NA,60.14218009478674,NA
85388,Maricopa County,AZ,NA,91.51658767772511,NA
85550,Graham County,AZ,76.0038240917782,NA,NA
85622,Pima County,AZ,NA,52.55924170616114,73.81121362668559
85634,Pima County,AZ,74.18738049713193,19.28909952606635,NA
85643,Cochise County,AZ,96.17590822179733,NA,NA
85648,Santa Cruz County,AZ,NA,NA,83.6763662171753
85705,Pima County,AZ,NA,4.170616113744076,NA
85706,Pima County,AZ,NA,5.0710900473933656,NA
85710,Pima County,AZ,NA,NA,24.556422995031937
85713,Pima County,AZ,27.915869980879542,5.308056872037914,NA
85714,Pima County,AZ,NA,NA,63.875088715401
85719,Pima County,AZ,NA,27.109004739336495,NA
85745,Pima County,AZ,23.61376673040153,NA,NA
85755,Pima County,AZ,93.40344168260039,NA,NA
86001,Coconino County,AZ,19.50286806883365,33.93364928909953,NA
86004,Coconino County,AZ,NA,34.170616113744074,NA
86033,Navajo County,AZ,NA,94.36018957345972,NA
86040,Coconino County,AZ,NA,NA,81.19233498935415
86042,Navajo County,AZ,NA,99.0995260663507,NA
86043,Navajo County,AZ,99.80879541108987,99.62085308056872,NA
86045,Coconino County,AZ,NA,NA,83.17955997161107
86047,Navajo County,AZ,NA,22.417061611374407,NA
86301,Yavapai County,AZ,69.12045889101339,NA,NA
86503,Apache County,AZ,69.21606118546845,91.04265402843602,82.9666430092264
86505,Apache County,AZ,NA,NA,45.493257629524486
86507,Apache County,AZ,92.54302103250478,99.71563981042654,NA
86510,Navajo County,AZ,58.69980879541109,NA,NA
86514,Apache County,AZ,NA,95.49763033175356,98.08374733853798
71603,Jefferson County,AR,NA,14.265402843601896,NA
71655,Drew County,AR,NA,98.00947867298578,NA
71667,Lincoln County,AR,NA,NA,56.7068843151171
71923,Clark County,AR,NA,53.41232227488152,NA
71957,Montgomery County,AR,98.8527724665392,NA,99.21930447125621
72007,Lonoke County,AR,NA,81.18483412322274,NA
72032,Faulkner County,AR,38.4321223709369,NA,NA
72046,Lonoke County,AR,97.80114722753346,NA,NA
72076,Pulaski County,AR,NA,24.691943127962084,NA
72086,Lonoke County,AR,69.59847036328873,NA,NA
72103,Saline County,AR,NA,82.60663507109005,NA
72113,Pulaski County,AR,NA,33.838862559241704,NA
72114,Pulaski County,AR,NA,NA,96.59332860184529
72116,Pulaski County,AR,NA,29.81042654028436,NA
72117,Pulaski County,AR,54.302103250478005,67.72511848341233,NA
72118,Pulaski County,AR,NA,96.87203791469194,NA
72120,Pulaski County,AR,NA,NA,31.227821149751595
72143,White County,AR,NA,49.90521327014218,NA
72204,Pulaski County,AR,NA,20.33175355450237,79.84386089425124
72206,Pulaski County,AR,89.8661567877629,NA,69.19801277501774
72207,Pulaski County,AR,NA,71.46919431279622,NA
72209,Pulaski County,AR,93.49904397705545,92.60663507109005,49.18381831085876
72212,Pulaski County,AR,NA,52.65402843601896,NA
72227,Pulaski County,AR,75.33460803059273,NA,NA
72450,Greene County,AR,NA,16.255924170616115,NA
72701,Washington County,AR,NA,59.0047393364929,NA
72712,Benton County,AR,48.85277246653919,NA,NA
72801,Pope County,AR,NA,NA,66.85592618878637
72834,Yell County,AR,NA,NA,46.841731724627394
72858,Pope County,AR,NA,100,NA
90004,Los Angeles County,CA,NA,26.919431279620852,NA
90006,Los Angeles County,CA,NA,NA,87.8637331440738
90007,Los Angeles County,CA,27.437858508604208,NA,38.39602555003548
90011,Los Angeles County,CA,88.24091778202677,32.8436018957346,29.879347054648687
90018,Los Angeles County,CA,NA,20.568720379146917,NA
90019,Los Angeles County,CA,NA,16.966824644549764,NA
90023,Los Angeles County,CA,NA,45.355450236966824,NA
90024,Los Angeles County,CA,80.97514340344169,NA,4.2583392476933994
90025,Los Angeles County,CA,NA,24.454976303317537,NA
90029,Los Angeles County,CA,NA,84.97630331753554,NA
90032,Los Angeles County,CA,NA,46.018957345971565,36.124911284599
90036,Los Angeles County,CA,NA,NA,22.427253371185238
90037,Los Angeles County,CA,NA,NA,30.30518097941803
90041,Los Angeles County,CA,NA,89.28909952606635,NA
90045,Los Angeles County,CA,NA,95.11848341232228,NA
90047,Los Angeles County,CA,NA,7.440758293838863,NA
90048,Los Angeles County,CA,NA,NA,33.073101490418736
90049,Los Angeles County,CA,NA,33.69668246445497,NA
90057,Los Angeles County,CA,NA,15.260663507109005,44.42867281760113
90063,Los Angeles County,CA,52.29445506692161,NA,NA
90066,Los Angeles County,CA,NA,NA,19.020581973030517
90069,Los Angeles County,CA,NA,37.96208530805687,NA
90077,Los Angeles County,CA,NA,NA,62.810503903477645
90201,Los Angeles County,CA,NA,90.42654028436019,NA
90210,Los Angeles County,CA,NA,35.54502369668246,NA
90220,Los Angeles County,CA,NA,74.21800947867298,NA
90248,Los Angeles County,CA,91.49139579349904,NA,88.5734563520227
90250,Los Angeles County,CA,NA,NA,23.988644428672817
90260,Los Angeles County,CA,NA,NA,52.37757274662882
90275,Los Angeles County,CA,NA,63.03317535545023,5.535841022001419
90280,Los Angeles County,CA,NA,NA,29.45351312987935
90293,Los Angeles County,CA,NA,78.1042654028436,NA
90301,Los Angeles County,CA,NA,NA,49.680624556423
90405,Los Angeles County,CA,NA,41.99052132701422,NA
90503,Los Angeles County,CA,NA,30.80568720379147,NA
90504,Los Angeles County,CA,NA,NA,71.89496096522356
90603,Los Angeles County,CA,NA,NA,33.427963094393185
90604,Los Angeles County,CA,NA,95.260663507109,NA
90620,Orange County,CA,NA,96.77725118483413,NA
90630,Orange County,CA,NA,13.601895734597155,NA
90650,Los Angeles County,CA,17.304015296367112,8.72037914691943,NA
90703,Los Angeles County,CA,NA,NA,25.195173882185944
90706,Los Angeles County,CA,NA,24.976303317535546,NA
90713,Los Angeles County,CA,NA,42.18009478672986,NA
90720,Orange County,CA,NA,48.29383886255924,NA
90723,Los Angeles County,CA,NA,NA,80.41163946061036
90740,Orange County,CA,NA,NA,15.40099361249113
90803,Los Angeles County,CA,NA,34.834123222748815,NA
90804,Los Angeles County,CA,NA,52.13270142180095,NA
90807,Los Angeles County,CA,NA,45.11848341232228,NA
91006,Los Angeles County,CA,94.93307839388146,NA,NA
91030,Los Angeles County,CA,NA,68.67298578199052,NA
91104,Los Angeles County,CA,NA,NA,29.66643009226402
91105,Los Angeles County,CA,95.31548757170172,NA,NA
91107,Los Angeles County,CA,NA,NA,28.388928317955997
91311,Los Angeles County,CA,NA,39.383886255924175,NA
91325,Los Angeles County,CA,NA,NA,43.29311568488289
91331,Los Angeles County,CA,NA,NA,22.995031937544358
91340,Los Angeles County,CA,65.48757170172084,93.60189573459715,NA
91342,Los Angeles County,CA,NA,92.22748815165876,NA
91344,Los Angeles County,CA,91.58699808795411,NA,NA
91351,Los Angeles County,CA,NA,65.16587677725119,NA
91352,Los Angeles County,CA,NA,31.37440758293839,NA
91355,Los Angeles County,CA,NA,37.725118483412324,NA
91364,Los Angeles County,CA,NA,NA,31.369765791341376
91390,Los Angeles County,CA,84.99043977055449,NA,NA
91401,Los Angeles County,CA,NA,NA,78.28246983676365
91402,Los Angeles County,CA,24.8565965583174,NA,20.93683463449255
91406,Los Angeles County,CA,NA,27.345971563981042,NA
91505,Los Angeles County,CA,75.71701720841301,NA,58.83605393896381
91606,Los Angeles County,CA,NA,42.55924170616114,NA
91701,San Bernardino County,CA,NA,81.99052132701422,NA
91710,San Bernardino County,CA,NA,11.516587677725118,NA
91723,Los Angeles County,CA,NA,78.81516587677724,NA
91730,San Bernardino County,CA,NA,25.023696682464454,NA
91732,Los Angeles County,CA,NA,NA,21.078779276082326
91750,Los Angeles County,CA,NA,NA,55.64229950319376
91754,Los Angeles County,CA,NA,47.10900473933649,NA
91763,San Bernardino County,CA,65.86998087954112,NA,NA
91764,San Bernardino County,CA,NA,48.67298578199052,NA
91767,Los Angeles County,CA,NA,38.90995260663507,NA
91770,Los Angeles County,CA,NA,NA,37.5443577004968
91780,Los Angeles County,CA,NA,49.47867298578199,35.34421575585522
91792,Los Angeles County,CA,69.88527724665391,92.51184834123222,NA
91910,San Diego County,CA,NA,55.26066350710901,NA
91911,San Diego County,CA,22.179732313575524,NA,NA
91914,San Diego County,CA,NA,94.97630331753555,NA
91932,San Diego County,CA,98.18355640535373,NA,NA
91942,San Diego County,CA,NA,81.09004739336493,NA
91945,San Diego County,CA,62.33269598470363,NA,NA
92008,San Diego County,CA,NA,50.23696682464455,NA
92009,San Diego County,CA,NA,NA,65.64939673527324
92020,San Diego County,CA,NA,25.071090047393362,NA
92021,San Diego County,CA,NA,8.151658767772512,49.32576295244854
92024,San Diego County,CA,39.961759082217974,NA,NA
92028,San Diego County,CA,NA,37.25118483412322,NA
92054,San Diego County,CA,43.11663479923518,NA,NA
92056,San Diego County,CA,NA,NA,7.594038325053229
92057,San Diego County,CA,58.22179732313576,NA,NA
92064,San Diego County,CA,NA,26.161137440758292,NA
92065,San Diego County,CA,NA,NA,79.347054648687
92069,San Diego County,CA,89.48374760994264,NA,NA
92101,San Diego County,CA,NA,5.734597156398104,27.82114975159688
92109,San Diego County,CA,NA,NA,44.499645138396026
92113,San Diego County,CA,NA,NA,42.867281760113556
92114,San Diego County,CA,31.07074569789675,NA,NA
92119,San Diego County,CA,NA,NA,79.55997161107167
92120,San Diego County,CA,NA,NA,39.10574875798439
92122,San Diego County,CA,74.76099426386233,55.63981042654028,NA
92154,San Diego County,CA,NA,13.317535545023695,NA
92201,Riverside County,CA,22.466539196940726,NA,NA
92211,Riverside County,CA,NA,NA,0.14194464158977999
92223,Riverside County,CA,80.01912045889101,NA,NA
92231,Imperial County,CA,NA,NA,4.329311568488289
92241,Riverside County,CA,95.21988527724665,NA,NA
92250,Imperial County,CA,NA,NA,77.64371894960965
92253,Riverside County,CA,NA,27.86729857819905,NA
92257,Imperial County,CA,NA,98.76777251184834,NA
92262,Riverside County,CA,NA,NA,32.00851667849538
92284,San Bernardino County,CA,NA,17.44075829383886,NA
92311,San Bernardino County,CA,NA,NA,68.27537260468416
92313,San Bernardino County,CA,NA,82.27488151658767,NA
92316,San Bernardino County,CA,52.77246653919694,NA,NA
92335,San Bernardino County,CA,NA,87.81990521327015,32.64726756564939
92336,San Bernardino County,CA,NA,88.90995260663507,30.872959545777146
92337,San Bernardino County,CA,NA,87.96208530805687,NA
92346,San Bernardino County,CA,NA,NA,45.77714691270405
92374,San Bernardino County,CA,85.94646271510517,NA,NA
92376,San Bernardino County,CA,NA,80.18957345971563,NA
92377,San Bernardino County,CA,NA,91.4218009478673,NA
92394,San Bernardino County,CA,NA,79.71563981042654,NA
92395,San Bernardino County,CA,NA,30.52132701421801,NA
92399,San Bernardino County,CA,29.636711281070742,NA,NA
92404,San Bernardino County,CA,NA,19.90521327014218,NA
92407,San Bernardino County,CA,NA,84.2654028436019,NA
92410,San Bernardino County,CA,31.931166347992352,20.61611374407583,68.41731724627395
92411,San Bernardino County,CA,77.82026768642447,94.07582938388626,NA
92504,Riverside County,CA,NA,73.12796208530806,NA
92505,Riverside County,CA,NA,71.32701421800948,NA
92530,Riverside County,CA,33.17399617590822,NA,NA
92545,Riverside County,CA,NA,27.630331753554504,NA
92551,Riverside County,CA,69.31166347992351,NA,NA
92553,Riverside County,CA,61.85468451242829,NA,NA
92557,Riverside County,CA,NA,84.02843601895734,NA
92562,Riverside County,CA,NA,57.48815165876777,NA
92571,Riverside County,CA,39.29254302103251,NA,NA
92582,Riverside County,CA,90.63097514340345,NA,NA
92603,Orange County,CA,NA,NA,87.72178850248403
92610,Orange County,CA,NA,97.67772511848342,NA
92612,Orange County,CA,NA,NA,85.94748048261178
92614,Orange County,CA,NA,50.71090047393365,NA
92618,Orange County,CA,86.23326959847036,NA,NA
92620,Orange County,CA,86.1376673040153,NA,NA
92626,Orange County,CA,42.16061185468451,32.08530805687204,72.67565649396735
92627,Orange County,CA,NA,NA,59.97161107168204
92629,Orange County,CA,NA,NA,75.7984386089425
92646,Orange County,CA,NA,25.971563981042657,NA
92648,Orange County,CA,NA,NA,43.64797728885735
92651,Orange County,CA,NA,NA,74.37899219304471
92656,Orange County,CA,NA,69.71563981042654,NA
92660,Orange County,CA,NA,93.98104265402843,NA
92663,Orange County,CA,NA,90.75829383886256,NA
92673,Orange County,CA,95.98470363288719,NA,NA
92677,Orange County,CA,NA,NA,13.981547196593327
92679,Orange County,CA,NA,49.43127962085308,NA
92683,Orange County,CA,NA,NA,20.723917672107877
92692,Orange County,CA,NA,NA,6.3875088715401
92703,Orange County,CA,NA,NA,51.45493257629524
92704,Orange County,CA,NA,23.412322274881518,NA
92705,Orange County,CA,NA,97.86729857819904,NA
92707,Orange County,CA,NA,39.19431279620853,NA
92708,Orange County,CA,71.1281070745698,NA,77.07594038325053
92802,Orange County,CA,NA,NA,28.885734563520227
92804,Orange County,CA,13.38432122370937,42.41706161137441,91.62526614620297
92807,Orange County,CA,83.93881453154876,NA,31.44073811213627
92832,Orange County,CA,NA,91.65876777251185,NA
92833,Orange County,CA,51.7208413001912,NA,NA
92840,Orange County,CA,NA,NA,65.57842441447835
92865,Orange County,CA,NA,76.01895734597156,NA
92866,Orange County,CA,NA,NA,62.810503903477645
92867,Orange County,CA,NA,NA,55.85521646557843
92880,Riverside County,CA,NA,43.17535545023697,NA
92883,Riverside County,CA,68.06883365200764,NA,55.42938254080908
93012,Ventura County,CA,NA,NA,19.37544357700497
93023,Ventura County,CA,NA,46.39810426540284,NA
93030,Ventura County,CA,NA,NA,20.652945351312987
93101,Santa Barbara County,CA,NA,NA,82.46983676366217
93221,Tulare County,CA,NA,NA,97.37402413058906
93245,Kings County,CA,NA,NA,66.85592618878637
93247,Tulare County,CA,80.40152963671127,NA,NA
93257,Tulare County,CA,11.854684512428298,NA,14.549325762952448
93267,Tulare County,CA,99.1395793499044,NA,NA
93274,Tulare County,CA,NA,41.23222748815166,NA
93305,Kern County,CA,NA,45.497630331753555,NA
93309,Kern County,CA,NA,71.8957345971564,NA
93535,Los Angeles County,CA,NA,61.61137440758294,NA
93552,Los Angeles County,CA,NA,66.91943127962085,NA
93635,Merced County,CA,73.9961759082218,NA,NA
93638,Madera County,CA,51.52963671128107,NA,NA
93648,Fresno County,CA,NA,87.29857819905213,NA
93702,Fresno County,CA,27.151051625239003,NA,66.50106458481191
93704,Fresno County,CA,NA,74.88151658767772,NA
93711,Fresno County,CA,NA,NA,25.337118523775725
93722,Fresno County,CA,32.98279158699809,NA,25.479063165365506
93905,Monterey County,CA,NA,40.85308056872038,NA
93930,Monterey County,CA,76.76864244741873,NA,NA
93940,Monterey County,CA,NA,51.94312796208531,NA
94002,San Mateo County,CA,56.88336520076482,NA,33.71185237757275
94010,San Mateo County,CA,NA,96.96682464454976,NA
94014,San Mateo County,CA,45.506692160611856,NA,NA
94015,San Mateo County,CA,NA,29.33649289099526,18.73669268985096
94022,Santa Clara County,CA,NA,69.85781990521328,NA
94024,Santa Clara County,CA,NA,58.86255924170616,NA
94025,San Mateo County,CA,88.33652007648183,NA,18.381831085876506
94040,Santa Clara County,CA,NA,89.00473933649289,57.416607523066
94043,Santa Clara County,CA,76.95984703632888,83.64928909952607,94.3222143364088
94044,San Mateo County,CA,NA,17.535545023696685,NA
94061,San Mateo County,CA,NA,40.52132701421801,NA
94062,San Mateo County,CA,56.97896749521989,70.99526066350711,36.40880056777856
94063,San Mateo County,CA,NA,NA,82.46983676366217
94066,San Mateo County,CA,43.69024856596558,NA,NA
94080,San Mateo County,CA,NA,NA,1.1355571327182399
94086,Santa Clara County,CA,85.27724665391969,88.24644549763033,NA
94089,Santa Clara County,CA,NA,73.17535545023696,NA
94102,San Francisco County,CA,52.58126195028681,44.170616113744074,NA
94103,San Francisco County,CA,40.24856596558317,10.616113744075829,NA
94107,San Francisco County,CA,NA,91.18483412322274,NA
94109,San Francisco County,CA,26.673040152963672,NA,36.47977288857346
94110,San Francisco County,CA,NA,61.37440758293838,15.89779985805536
94112,San Francisco County,CA,76.38623326959846,22.464454976303315,46.628814762242726
94114,San Francisco County,CA,NA,97.10900473933648,NA
94115,San Francisco County,CA,49.521988527724666,NA,54.15188076650106
94116,San Francisco County,CA,NA,60.14218009478674,74.94677075940383
94117,San Francisco County,CA,34.41682600382409,30.473933649289098,85.16678495386799
94118,San Francisco County,CA,NA,NA,63.44925479063165
94121,San Francisco County,CA,NA,78.34123222748815,NA
94122,San Francisco County,CA,86.9980879541109,75.92417061611374,42.37047551454933
94123,San Francisco County,CA,NA,90.52132701421802,88.0056777856636
94124,San Francisco County,CA,59.94263862332696,75.2132701421801,69.33995741660752
94127,San Francisco County,CA,NA,NA,44.357700496806245
94131,San Francisco County,CA,NA,86.1611374407583,88.21859474804826
94132,San Francisco County,CA,93.11663479923517,NA,61.816891412349186
94134,San Francisco County,CA,37.5717017208413,50.900473933649295,20.014194464158976
94301,Santa Clara County,CA,NA,97.06161137440759,50.248403122782115
94303,San Mateo County,CA,26.099426386233272,70.56872037914692,NA
94306,Santa Clara County,CA,NA,NA,72.74662881476223
94403,San Mateo County,CA,NA,81.51658767772511,NA
94404,San Mateo County,CA,74.5697896749522,67.34597156398104,NA
94501,Alameda County,CA,84.4168260038241,31.84834123222749,78.56635911994321
94506,Contra Costa County,CA,77.91586998087953,NA,NA
94513,Contra Costa County,CA,NA,NA,20.511000709723206
94515,Napa County,CA,NA,NA,80.8374733853797
94520,Contra Costa County,CA,67.78202676864244,NA,NA
94523,Contra Costa County,CA,NA,45.355450236966824,NA
94526,Contra Costa County,CA,NA,37.10900473933649,NA
94531,Contra Costa County,CA,NA,NA,30.58907026259759
94533,Solano County,CA,21.70172084130019,NA,NA
94539,Alameda County,CA,NA,NA,28.246983676366217
94553,Contra Costa County,CA,NA,NA,32.789212207239174
94555,Alameda County,CA,NA,84.07582938388626,97.1611071682044
94558,Napa County,CA,NA,NA,1.4194464158977997
94560,Alameda County,CA,NA,NA,94.39318665720369
94565,Contra Costa County,CA,20.55449330783939,25.213270142180093,78.06955287437899
94566,Alameda County,CA,64.24474187380497,NA,NA
94568,Alameda County,CA,NA,90.71090047393365,NA
94577,Alameda County,CA,NA,22.938388625592417,NA
94578,Alameda County,CA,NA,41.56398104265403,35.77004968062455
94587,Alameda County,CA,NA,14.312796208530806,8.30376153300213
94589,Solano County,CA,61.089866156787764,NA,NA
94591,Solano County,CA,67.39961759082217,NA,NA
94595,Contra Costa County,CA,94.35946462715104,NA,NA
94598,Contra Costa County,CA,NA,42.03791469194313,NA
94603,Alameda County,CA,NA,42.322274881516584,NA
94605,Alameda County,CA,23.04015296367113,14.881516587677726,NA
94606,Alameda County,CA,NA,47.725118483412324,NA
94607,Alameda County,CA,NA,NA,86.87012065294535
94608,Alameda County,CA,NA,NA,76.5791341376863
94610,Alameda County,CA,NA,83.93364928909952,NA
94709,Alameda County,CA,NA,NA,83.88928317955997
94710,Alameda County,CA,NA,96.6350710900474,NA
94803,Contra Costa County,CA,NA,89.43127962085308,NA
94941,Marin County,CA,NA,NA,24.059616749467708
94954,Sonoma County,CA,NA,23.080568720379148,22.143364088005676
95003,Santa Cruz County,CA,NA,NA,47.622427253371185
95014,Santa Clara County,CA,NA,NA,44.499645138396026
95020,Santa Clara County,CA,NA,72.8909952606635,NA
95023,San Benito County,CA,26.19502868068834,22.985781990521325,NA
95030,Santa Clara County,CA,NA,97.25118483412322,55.287437899219306
95032,Santa Clara County,CA,NA,57.53554502369668,NA
95035,Santa Clara County,CA,50.382409177820264,34.644549763033176,44.854506742370475
95037,Santa Clara County,CA,NA,22.03791469194313,NA
95046,Santa Clara County,CA,NA,93.93364928909953,NA
95050,Santa Clara County,CA,NA,47.345971563981045,NA
95051,Santa Clara County,CA,NA,NA,61.320085166784956
95062,Santa Cruz County,CA,NA,NA,53.72604684173172
95112,Santa Clara County,CA,NA,63.74407582938388,NA
95116,Santa Clara County,CA,NA,38.90995260663507,NA
95117,Santa Clara County,CA,NA,NA,55.003548616039744
95120,Santa Clara County,CA,NA,38.43601895734597,57.48757984386089
95121,Santa Clara County,CA,NA,75.40284360189573,NA
95122,Santa Clara County,CA,NA,36.39810426540284,64.22995031937543
95123,Santa Clara County,CA,NA,NA,22.427253371185238
95124,Santa Clara County,CA,60.32504780114722,61.70616113744076,NA
95125,Santa Clara County,CA,87.47609942638623,45.023696682464454,NA
95129,Santa Clara County,CA,NA,87.20379146919431,NA
95132,Santa Clara County,CA,NA,54.976303317535546,87.2959545777147
95133,Santa Clara County,CA,NA,59.241706161137444,NA
95134,Santa Clara County,CA,79.92351816443595,NA,NA
95148,Santa Clara County,CA,NA,30.23696682464455,NA
95206,San Joaquin County,CA,NA,NA,40.02838892831795
95307,Stanislaus County,CA,NA,NA,52.022711142654366
95336,San Joaquin County,CA,28.680688336520078,NA,NA
95354,Stanislaus County,CA,NA,45.26066350710901,NA
95376,San Joaquin County,CA,NA,NA,34.066713981547196
95377,San Joaquin County,CA,NA,NA,83.7473385379702
95382,Stanislaus County,CA,NA,52.70142180094787,33.073101490418736
95388,Merced County,CA,NA,NA,91.19943222143364
95389,Mariposa County,CA,NA,94.88151658767772,NA
95391,San Joaquin County,CA,NA,89.95260663507109,NA
95401,Sonoma County,CA,NA,37.29857819905214,NA
95403,Sonoma County,CA,NA,NA,58.33924769339958
95405,Sonoma County,CA,NA,43.17535545023697,NA
95407,Sonoma County,CA,NA,43.981042654028435,NA
95482,Mendocino County,CA,71.70172084130019,79.478672985782,NA
95490,Mendocino County,CA,NA,NA,89.14123491838183
95492,Sonoma County,CA,NA,46.824644549763036,NA
95531,Del Norte County,CA,NA,NA,75.01774308019871
95602,Placer County,CA,NA,37.44075829383886,56.84882895670689
95616,Yolo County,CA,92.16061185468452,NA,NA
95621,Sacramento County,CA,NA,24.928909952606634,47.125621007806956
95630,Sacramento County,CA,NA,10.710900473933648,66.14620298083747
95632,Sacramento County,CA,NA,NA,52.66146202980837
95640,Amador County,CA,NA,87.39336492890996,NA
95648,Placer County,CA,NA,NA,5.11000709723208
95660,Sacramento County,CA,NA,46.682464454976305,NA
95670,Sacramento County,CA,NA,56.824644549763036,NA
95691,Yolo County,CA,53.72848948374761,NA,NA
95709,El Dorado County,CA,NA,NA,80.55358410220013
95742,Sacramento County,CA,NA,89.62085308056872,NA
95747,Placer County,CA,NA,NA,50.46132008516678
95758,Sacramento County,CA,NA,83.12796208530806,NA
95762,El Dorado County,CA,NA,NA,29.524485450674238
95765,Placer County,CA,NA,58.199052132701425,NA
95815,Sacramento County,CA,NA,NA,65.72036905606812
95816,Sacramento County,CA,NA,NA,67.06884315117104
95818,Sacramento County,CA,NA,62.796208530805686,NA
95819,Sacramento County,CA,NA,NA,82.75372604684173
95820,Sacramento County,CA,NA,27.86729857819905,NA
95821,Sacramento County,CA,NA,20.33175355450237,NA
95822,Sacramento County,CA,NA,30.66350710900474,NA
95823,Sacramento County,CA,NA,NA,20.298083747338538
95825,Sacramento County,CA,NA,NA,93.75443577004968
95826,Sacramento County,CA,54.780114722753346,NA,NA
95827,Sacramento County,CA,NA,58.67298578199052,NA
95829,Sacramento County,CA,NA,NA,67.21078779276083
95831,Sacramento County,CA,NA,37.91469194312796,NA
95835,Sacramento County,CA,NA,NA,83.10858765081618
95838,Sacramento County,CA,34.22562141491396,NA,52.73243435060326
95842,Sacramento County,CA,NA,86.91943127962085,NA
95864,Sacramento County,CA,93.30783938814533,NA,65.01064584811922
95926,Butte County,CA,68.45124282982792,NA,NA
95945,Nevada County,CA,NA,26.208530805687204,NA
95969,Butte County,CA,NA,58.43601895734597,NA
80003,Jefferson County,CO,NA,42.796208530805686,NA
80010,Arapahoe County,CO,NA,31.84834123222749,80.1277501774308
80011,Arapahoe County,CO,NA,57.91469194312796,NA
80012,Arapahoe County,CO,NA,18.72037914691943,NA
80013,Arapahoe County,CO,NA,65.82938388625593,88.78637331440738
80014,Arapahoe County,CO,NA,17.014218009478675,NA
80015,Arapahoe County,CO,17.208413001912046,NA,92.97374024130589
80016,Arapahoe County,CO,NA,NA,43.9318665720369
80017,Arapahoe County,CO,NA,NA,78.49538679914833
80020,Broomfield County,CO,NA,NA,59.68772178850248
80022,Adams County,CO,NA,28.34123222748815,NA
80023,Broomfield County,CO,NA,68.76777251184835,89.63804116394606
80026,Boulder County,CO,NA,NA,56.21007806955287
80031,Adams County,CO,NA,75.78199052132702,NA
80104,Douglas County,CO,NA,81.8957345971564,NA
80107,Elbert County,CO,NA,68.81516587677726,NA
80108,Douglas County,CO,NA,77.6303317535545,NA
80111,Arapahoe County,CO,73.1357552581262,NA,58.48119233498935
80112,Arapahoe County,CO,NA,43.649289099526065,75.1596877217885
80120,Arapahoe County,CO,NA,NA,36.195883605393895
80121,Arapahoe County,CO,NA,61.4218009478673,NA
80122,Arapahoe County,CO,54.684512428298284,NA,39.24769339957417
80123,Jefferson County,CO,48.087954110898664,NA,NA
80127,Jefferson County,CO,78.96749521988528,36.6350710900474,NA
80128,Jefferson County,CO,NA,88.05687203791469,60.9652235628105
80130,Douglas County,CO,NA,NA,67.84953867991483
80134,Douglas County,CO,24.18738049713193,76.2085308056872,NA
80204,Denver County,CO,55.35372848948374,NA,NA
80205,Denver County,CO,11.281070745697896,74.31279620853081,89.42512420156139
80206,Denver County,CO,NA,52.322274881516584,NA
80207,Denver County,CO,42.734225621414915,58.00947867298578,65.08161816891412
80210,Denver County,CO,NA,73.64928909952607,NA
80211,Denver County,CO,35.08604206500956,83.45971563981043,NA
80212,Denver County,CO,NA,59.09952606635072,97.37402413058906
80214,Jefferson County,CO,41.01338432122371,NA,NA
80218,Denver County,CO,NA,NA,99.361249112846
80219,Denver County,CO,41.96940726577438,46.25592417061611,NA
80220,Denver County,CO,NA,53.317535545023695,96.52235628105039
80223,Denver County,CO,NA,73.55450236966826,NA
80224,Denver County,CO,NA,90.90047393364928,95.10290986515258
80227,Jefferson County,CO,NA,83.36492890995261,NA
80231,Denver County,CO,37.2848948374761,NA,NA
80232,Jefferson County,CO,NA,NA,38.325053229240595
80233,Adams County,CO,NA,95.82938388625593,NA
80237,Denver County,CO,NA,48.1042654028436,59.40383250532293
80239,Denver County,CO,22.753346080305928,84.7867298578199,73.38537970191625
80247,Arapahoe County,CO,38.52772466539197,NA,24.8403122782115
80249,Denver County,CO,NA,64.40758293838863,NA
80504,Boulder County,CO,NA,48.29383886255924,NA
80517,Larimer County,CO,NA,NA,90.20581973030518
80525,Larimer County,CO,46.367112810707454,NA,NA
80528,Larimer County,CO,NA,61.658767772511844,NA
80601,Adams County,CO,NA,27.1563981042654,NA
80701,Morgan County,CO,NA,NA,70.12065294535131
80816,Teller County,CO,NA,79.66824644549763,NA
80908,El Paso County,CO,NA,96.6824644549763,NA
80916,El Paso County,CO,NA,56.11374407582939,NA
80918,El Paso County,CO,78.48948374760994,NA,28.743789921930446
80920,El Paso County,CO,NA,78.90995260663507,NA
81006,Pueblo County,CO,NA,NA,64.65578424414478
81082,Las Animas County,CO,NA,64.17061611374407,NA
81212,Fremont County,CO,NA,NA,60.39744499645139
81230,Gunnison County,CO,NA,93.8388625592417,NA
81401,Montrose County,CO,48.47036328871893,NA,NA
06002,Hartford County,CT,NA,NA,23.20794889992903
06010,Hartford County,CT,1.6252390057361379,0.8530805687203791,NA
06029,Tolland County,CT,NA,52.89099526066351,NA
06032,Hartford County,CT,NA,86.30331753554502,NA
06040,Hartford County,CT,NA,11.943127962085308,NA
06051,Hartford County,CT,NA,NA,25.5500354861604
06066,Tolland County,CT,NA,NA,43.78992193044712
06076,Tolland County,CT,NA,87.6303317535545,NA
06106,Hartford County,CT,NA,7.725118483412323,52.30660042583393
06107,Hartford County,CT,NA,NA,85.66359119943222
06108,Hartford County,CT,NA,NA,96.09652235628106
06111,Hartford County,CT,NA,NA,24.982256919801276
06112,Hartford County,CT,NA,NA,49.53867991483322
06114,Hartford County,CT,NA,34.2654028436019,NA
06241,Windham County,CT,NA,77.39336492890996,NA
06249,New London County,CT,83.74760994263862,NA,NA
06281,Windham County,CT,NA,NA,90.91554293825408
06410,New Haven County,CT,NA,NA,29.027679205110008
06422,Middlesex County,CT,NA,NA,99.2902767920511
06437,New Haven County,CT,NA,NA,25.124201561391057
06450,New Haven County,CT,4.3021032504780115,NA,17.17530163236338
06451,New Haven County,CT,NA,NA,73.7402413058907
06460,New Haven County,CT,NA,9.47867298578199,NA
06470,Fairfield County,CT,NA,NA,64.65578424414478
06478,New Haven County,CT,NA,51.469194312796205,NA
06489,Hartford County,CT,29.541108986615676,NA,5.39389638041164
06492,New Haven County,CT,NA,7.061611374407582,NA
06514,New Haven County,CT,NA,57.01421800947867,NA
06516,New Haven County,CT,NA,1.2322274881516588,NA
06519,New Haven County,CT,22.084130019120458,NA,NA
06614,Fairfield County,CT,NA,22.13270142180095,NA
06615,Fairfield County,CT,NA,46.58767772511848,NA
06708,New Haven County,CT,21.223709369024856,NA,NA
06830,Fairfield County,CT,NA,NA,7.45209368346345
06854,Fairfield County,CT,NA,NA,51.242015613910574
06855,Fairfield County,CT,NA,98.86255924170617,NA
06902,Fairfield County,CT,NA,51.421800947867304,2.7679205110007095
19702,New Castle County,DE,NA,40.616113744075825,NA
19709,New Castle County,DE,NA,74.54976303317535,NA
19713,New Castle County,DE,NA,19.5260663507109,NA
19720,New Castle County,DE,NA,14.928909952606634,NA
19802,New Castle County,DE,NA,NA,40.099361249112846
19803,New Castle County,DE,NA,70.37914691943128,NA
19810,New Castle County,DE,NA,26.398104265402843,NA
19934,Kent County,DE,NA,NA,48.89992902767921
19947,Sussex County,DE,NA,NA,40.596167494677076
19958,Sussex County,DE,NA,1.7535545023696684,6.95528743789922
19973,Sussex County,DE,NA,NA,9.581263307310149
32025,Columbia County,FL,36.90248565965583,NA,NA
32055,Columbia County,FL,40.43977055449331,NA,NA
32068,Clay County,FL,10.707456978967496,NA,NA
32071,Suwannee County,FL,NA,94.21800947867298,NA
32084,St. Johns County,FL,NA,51.279620853080566,NA
32091,Bradford County,FL,NA,29.43127962085308,NA
32127,Volusia County,FL,NA,NA,17.955997161107167
32129,Volusia County,FL,NA,57.81990521327014,NA
32148,Putnam County,FL,NA,60.568720379146924,NA
32159,Lake County,FL,NA,NA,3.33569907735983
32179,Marion County,FL,77.24665391969407,NA,NA
32208,Duval County,FL,NA,40.616113744075825,NA
32209,Duval County,FL,2.7724665391969405,NA,NA
32210,Duval County,FL,NA,22.89099526066351,NA
32218,Duval County,FL,NA,1.1848341232227488,NA
32223,Duval County,FL,NA,NA,36.834634492547906
32224,Duval County,FL,NA,31.27962085308057,NA
32225,Duval County,FL,NA,NA,9.297374024130589
32233,Duval County,FL,38.910133843212236,NA,NA
32244,Duval County,FL,NA,6.350710900473934,NA
32301,Leon County,FL,NA,61.84834123222749,55.07452093683464
32308,Leon County,FL,NA,81.04265402843602,NA
32404,Bay County,FL,59.17782026768642,NA,NA
32405,Bay County,FL,61.95028680688337,NA,NA
32455,Walton County,FL,85.08604206500956,NA,NA
32536,Okaloosa County,FL,NA,49.5260663507109,NA
32563,Santa Rosa County,FL,32.217973231357554,NA,NA
32583,Santa Rosa County,FL,NA,NA,79.13413768630234
32605,Alachua County,FL,NA,NA,84.52803406671399
32609,Alachua County,FL,NA,38.5781990521327,87.08303761533001
32615,Alachua County,FL,65.86998087954112,NA,NA
32640,Putnam County,FL,60.80305927342257,NA,NA
32701,Seminole County,FL,56.118546845124285,NA,NA
32703,Orange County,FL,21.510516252390058,40.758293838862556,NA
32708,Seminole County,FL,NA,61.51658767772512,NA
32738,Volusia County,FL,34.79923518164436,NA,NA
32773,Seminole County,FL,NA,NA,59.90063875088716
32778,Lake County,FL,NA,NA,21.291696238466997
32779,Seminole County,FL,78.77629063097514,NA,NA
32792,Orange County,FL,NA,69.24170616113744,NA
32807,Orange County,FL,46.27151051625239,NA,NA
32828,Orange County,FL,35.46845124282983,NA,NA
32837,Orange County,FL,NA,36.96682464454976,NA
32907,Brevard County,FL,NA,12.985781990521328,NA
32935,Brevard County,FL,NA,30.61611374407583,NA
32940,Brevard County,FL,NA,NA,3.47764371894961
32952,Brevard County,FL,NA,32.98578199052133,NA
32960,Indian River County,FL,49.235181644359464,NA,35.060326472675655
32966,Indian River County,FL,NA,55.165876777251185,NA
33009,Broward County,FL,NA,66.63507109004739,NA
33012,Miami-Dade County,FL,44.55066921606118,77.25118483412322,35.62810503903477
33014,Miami-Dade County,FL,NA,98.10426540284361,66.35911994322214
33015,Miami-Dade County,FL,NA,31.611374407582936,NA
33016,Miami-Dade County,FL,NA,87.1090047393365,NA
33018,Miami-Dade County,FL,NA,43.17535545023697,NA
33019,Broward County,FL,NA,72.3696682464455,NA
33020,Broward County,FL,NA,16.919431279620852,NA
33021,Broward County,FL,NA,15.402843601895736,NA
33023,Broward County,FL,18.35564053537285,NA,NA
33024,Broward County,FL,NA,15.592417061611375,NA
33026,Broward County,FL,85.18164435946463,NA,NA
33027,Broward County,FL,NA,86.25592417061611,NA
33028,Broward County,FL,NA,72.79620853080569,59.048970901348476
33030,Miami-Dade County,FL,NA,69.09952606635072,NA
33032,Miami-Dade County,FL,41.01338432122371,83.55450236966824,NA
33033,Miami-Dade County,FL,41.491395793499045,39.905213270142184,75.30163236337827
33037,Monroe County,FL,NA,NA,65.15259048970901
33050,Monroe County,FL,NA,NA,51.59687721788503
33054,Miami-Dade County,FL,51.625239005736134,96.25592417061611,NA
33055,Miami-Dade County,FL,92.82982791586998,47.39336492890995,NA
33056,Miami-Dade County,FL,NA,68.81516587677726,35.91199432221433
33060,Broward County,FL,NA,91.37440758293839,NA
33062,Broward County,FL,NA,NA,1.8452803406671399
33065,Broward County,FL,NA,71.23222748815165,NA
33076,Broward County,FL,76.2906309751434,NA,NA
33125,Miami-Dade County,FL,NA,25.59241706161137,30.80198722498226
33126,Miami-Dade County,FL,NA,66.82464454976304,NA
33130,Miami-Dade County,FL,94.45506692160612,NA,NA
33133,Miami-Dade County,FL,78.48948374760994,NA,52.59048970901349
33134,Miami-Dade County,FL,NA,NA,21.646557842441446
33135,Miami-Dade County,FL,NA,61.84834123222749,NA
33136,Miami-Dade County,FL,NA,72.55924170616113,NA
33138,Miami-Dade County,FL,NA,79.5734597156398,82.68275372604684
33140,Miami-Dade County,FL,NA,NA,14.194464158977999
33142,Miami-Dade County,FL,51.816443594646266,74.40758293838863,NA
33144,Miami-Dade County,FL,NA,55.97156398104265,NA
33145,Miami-Dade County,FL,NA,66.6824644549763,NA
33147,Miami-Dade County,FL,NA,58.90995260663507,62.24272533711852
33149,Miami-Dade County,FL,NA,NA,91.412349183818307
33150,Miami-Dade County,FL,80.87954110898661,NA,82.04400283889282
33156,Miami-Dade County,FL,NA,NA,67.77856635911994
33157,Miami-Dade County,FL,NA,13.981042654028435,NA
33160,Miami-Dade County,FL,NA,59.38388625592417,10.432931156848829
33161,Miami-Dade County,FL,NA,35.78199052132701,NA
33162,Miami-Dade County,FL,60.61185468451242,NA,NA
33166,Miami-Dade County,FL,NA,40.80568720379147,NA
33167,Miami-Dade County,FL,95.02868068833652,NA,NA
33168,Miami-Dade County,FL,NA,61.943127962085306,71.39815471965933
33169,Miami-Dade County,FL,NA,70.23696682464455,NA
33172,Miami-Dade County,FL,NA,47.48815165876778,NA
33175,Miami-Dade County,FL,56.40535372848948,NA,NA
33176,Miami-Dade County,FL,70.26768642447419,23.507109004739338,NA
33178,Miami-Dade County,FL,NA,97.20379146919431,56.56493967352733
33180,Miami-Dade County,FL,NA,NA,37.047551454932574
33182,Miami-Dade County,FL,NA,80.28436018957346,95.8126330731015
33183,Miami-Dade County,FL,NA,62.08530805687204,27.82114975159688
33185,Miami-Dade County,FL,NA,NA,58.268275372604684
33186,Miami-Dade County,FL,NA,21.32701421800948,50.745209368346345
33193,Miami-Dade County,FL,NA,NA,39.815471965933284
33308,Broward County,FL,NA,9.004739336492891,NA
33309,Broward County,FL,NA,32.74881516587678,NA
33311,Broward County,FL,NA,NA,19.162526614620297
33315,Broward County,FL,NA,NA,81.90205819730305
33316,Broward County,FL,NA,62.227488151658775,NA
33317,Broward County,FL,NA,32.32227488151659,NA
33319,Broward County,FL,NA,19.47867298578199,NA
33321,Broward County,FL,NA,16.635071090047393,38.75088715400994
33324,Broward County,FL,NA,67.81990521327013,NA
33326,Broward County,FL,NA,47.67772511848341,NA
33328,Broward County,FL,NA,NA,30.518097941802697
33404,Palm Beach County,FL,35.5640535372849,NA,NA
33411,Palm Beach County,FL,NA,NA,14.052519517388218
33414,Palm Beach County,FL,45.506692160611856,NA,NA
33418,Palm Beach County,FL,NA,17.96208530805687,6.1745919091554295
33428,Palm Beach County,FL,NA,39.95260663507109,NA
33434,Palm Beach County,FL,NA,NA,3.5486160397444997
33436,Palm Beach County,FL,57.45697896749522,NA,NA
33437,Palm Beach County,FL,NA,NA,0.28388928317955997
33441,Broward County,FL,56.69216061185468,50.947867298578196,NA
33442,Broward County,FL,NA,84.69194312796209,NA
33446,Palm Beach County,FL,NA,NA,1.7743080198722498
33461,Palm Beach County,FL,NA,75.73459715639811,NA
33462,Palm Beach County,FL,71.79732313575525,NA,NA
33523,Pasco County,FL,NA,45.11848341232228,NA
33542,Pasco County,FL,NA,NA,34.35060326472676
33544,Pasco County,FL,NA,43.03317535545024,NA
33570,Hillsborough County,FL,NA,42.74881516587678,NA
33578,Hillsborough County,FL,NA,46.96682464454977,NA
33594,Hillsborough County,FL,62.81070745697897,NA,NA
33603,Hillsborough County,FL,NA,86.2085308056872,NA
33617,Hillsborough County,FL,NA,NA,72.53371185237756
33619,Hillsborough County,FL,NA,26.492890995260666,NA
33712,Pinellas County,FL,NA,76.77725118483413,NA
33714,Pinellas County,FL,NA,57.58293838862559,NA
33770,Pinellas County,FL,NA,NA,67.92051100070972
33771,Pinellas County,FL,NA,NA,15.188076650106458
33782,Pinellas County,FL,NA,70.4265402843602,NA
33805,Polk County,FL,NA,23.22274881516588,NA
33870,Highlands County,FL,NA,18.19905213270142,NA
33909,Lee County,FL,NA,31.137440758293838,NA
33912,Lee County,FL,NA,88.86255924170617,NA
33931,Lee County,FL,NA,81.9431279620853,NA
33950,Charlotte County,FL,NA,NA,15.96877217885025
33957,Lee County,FL,NA,63.22274881516587,NA
33974,Lee County,FL,NA,89.95260663507109,NA
33990,Lee County,FL,NA,93.88625592417061,89.49609652235628
34105,Collier County,FL,NA,NA,32.576295244854506
34108,Collier County,FL,NA,NA,22.356281050390347
34110,Collier County,FL,NA,38.1042654028436,NA
34113,Collier County,FL,NA,45.829383886255926,NA
34134,Lee County,FL,NA,NA,27.395315826827538
34135,Lee County,FL,NA,8.388625592417062,NA
34209,Manatee County,FL,NA,NA,14.26543647977289
34211,Manatee County,FL,NA,NA,70.68843151171043
34212,Manatee County,FL,NA,42.3696682464455,NA
34221,Manatee County,FL,NA,17.251184834123222,NA
34231,Sarasota County,FL,NA,10.37914691943128,NA
34232,Sarasota County,FL,78.8718929254302,NA,NA
34242,Sarasota County,FL,NA,NA,39.602555003548616
34266,DeSoto County,FL,NA,NA,58.69410929737402
34285,Sarasota County,FL,NA,11.421800947867299,NA
34286,Sarasota County,FL,NA,46.25592417061611,NA
34293,Sarasota County,FL,48.66156787762906,NA,NA
34446,Citrus County,FL,NA,76.58767772511848,NA
34476,Marion County,FL,NA,26.729857819905213,51.38396025550035
34479,Marion County,FL,NA,73.69668246445498,78.99219304471256
34480,Marion County,FL,NA,90.56872037914691,NA
34484,Sumter County,FL,NA,99.33649289099526,NA
34491,Marion County,FL,NA,NA,45.42228530872959
34601,Hernando County,FL,NA,50.09478672985782,NA
34608,Hernando County,FL,37.858508604206506,NA,NA
34639,Pasco County,FL,NA,74.64454976303317,NA
34655,Pasco County,FL,32.026768642447415,NA,11.639460610361958
34669,Pasco County,FL,NA,85.45023696682465,NA
34711,Lake County,FL,NA,NA,18.026969481902057
34736,Lake County,FL,NA,35.355450236966824,NA
34743,Osceola County,FL,47.992351816443595,NA,NA
34748,Lake County,FL,NA,NA,0.7097232079488999
34759,Polk County,FL,NA,31.27962085308057,50.95812633073101
34761,Orange County,FL,NA,29.099526066350712,NA
34787,Orange County,FL,NA,13.696682464454977,NA
34788,Lake County,FL,NA,NA,22.285308729595457
34949,St. Lucie County,FL,NA,70.71090047393365,NA
34952,St. Lucie County,FL,NA,47.77251184834123,NA
34974,Okeechobee County,FL,55.25812619502868,NA,NA
34982,St. Lucie County,FL,NA,25.639810426540283,39.24769339957417
34987,St. Lucie County,FL,NA,91.27962085308057,NA
34990,Martin County,FL,NA,15.781990521327014,NA
34997,Martin County,FL,NA,4.739336492890995,NA
30004,Fulton County,GA,41.395793499043975,NA,NA
30005,Fulton County,GA,NA,NA,78.42441447835344
30013,Rockdale County,GA,NA,NA,90.27679205110007
30016,Newton County,GA,63.38432122370937,NA,NA
30030,DeKalb County,GA,45.88910133843212,NA,NA
30032,DeKalb County,GA,11.089866156787762,52.98578199052133,NA
30034,DeKalb County,GA,28.87189292543021,NA,86.58623136976578
30035,DeKalb County,GA,59.65583173996176,NA,NA
30041,Forsyth County,GA,26.290630975143404,6.6350710900473935,NA
30052,Walton County,GA,NA,5.213270142180095,17.10432931156849
30058,DeKalb County,GA,NA,81.27962085308057,NA
30064,Cobb County,GA,NA,74.92890995260663,NA
30066,Cobb County,GA,47.60994263862332,NA,NA
30067,Cobb County,GA,NA,83.50710900473933,NA
30076,Fulton County,GA,NA,NA,51.242015613910574
30080,Cobb County,GA,NA,NA,55.85521646557843
30084,DeKalb County,GA,NA,NA,91.83818310858764
30087,DeKalb County,GA,NA,13.459715639810426,NA
30088,DeKalb County,GA,38.623326959847034,NA,NA
30092,Gwinnett County,GA,NA,81.13744075829385,NA
30132,Paulding County,GA,32.313575525812624,25.734597156398102,NA
30143,Pickens County,GA,64.62715105162525,NA,NA
30188,Cherokee County,GA,NA,NA,24.343506032647266
30240,Troup County,GA,NA,16.066350710900473,NA
30241,Troup County,GA,NA,38.76777251184834,NA
30253,Henry County,GA,NA,72.32227488151659,NA
30265,Coweta County,GA,52.48565965583174,NA,NA
30273,Clayton County,GA,63.0019120458891,NA,NA
30274,Clayton County,GA,NA,NA,95.7416607523066
30281,Henry County,GA,NA,11.18483412322275,NA
30296,Clayton County,GA,63.28871892925431,NA,NA
30297,Clayton County,GA,58.604206500956025,NA,NA
30307,DeKalb County,GA,98.66156787762907,NA,NA
30308,Fulton County,GA,NA,78.43601895734598,NA
30309,Fulton County,GA,NA,87.39336492890996,NA
30310,Fulton County,GA,57.17017208413002,38.29383886255924,NA
30311,Fulton County,GA,NA,13.791469194312796,NA
30312,Fulton County,GA,NA,NA,94.81902058197304
30314,Fulton County,GA,NA,67.67772511848341,40.312278211497514
30315,Fulton County,GA,28.489483747609945,79.43127962085308,NA
30316,DeKalb County,GA,NA,NA,36.834634492547906
30317,DeKalb County,GA,NA,89.62085308056872,NA
30318,Fulton County,GA,NA,19.85781990521327,NA
30327,Fulton County,GA,NA,60.33175355450236,NA
30328,Fulton County,GA,NA,58.720379146919434,NA
30331,Fulton County,GA,17.01720841300191,NA,NA
30344,Fulton County,GA,NA,28.81516587677725,NA
30349,Fulton County,GA,NA,81.27962085308057,NA
30354,Fulton County,GA,NA,65.30805687203791,NA
30512,Union County,GA,NA,36.6350710900474,NA
30534,Dawson County,GA,NA,22.796208530805686,NA
30546,Towns County,GA,NA,NA,38.821859474804825
30677,Oconee County,GA,NA,64.45497630331754,67.06884315117104
30701,Gordon County,GA,NA,18.15165876777251,NA
30707,Walker County,GA,75.90822179732314,NA,NA
30741,Walker County,GA,18.54684512428298,NA,NA
30753,Chattooga County,GA,NA,94.7867298578199,NA
30809,Columbia County,GA,NA,7.251184834123222,NA
30815,Richmond County,GA,19.694072657743785,35.023696682464454,NA
30901,Richmond County,GA,NA,77.01421800947867,NA
30904,Richmond County,GA,NA,11.895734597156398,NA
30906,Richmond County,GA,NA,20.71090047393365,71.82398864442867
30907,Columbia County,GA,23.900573613766728,6.208530805687204,22.07239176721079
30909,Richmond County,GA,NA,71.65876777251185,66.78495386799148
31027,Laurens County,GA,96.08030592734225,NA,NA
31029,Monroe County,GA,74.95219885277247,NA,NA
31069,Houston County,GA,NA,NA,35.98296664300923
31204,Bibb County,GA,31.35755258126195,NA,NA
31216,Bibb County,GA,NA,NA,65.22356281050389
31513,Appling County,GA,NA,NA,87.36692689850958
31516,Pierce County,GA,NA,NA,92.83179559971612
31533,Coffee County,GA,NA,NA,56.91980127750177
31545,Wayne County,GA,NA,39.71563981042654,NA
31546,Wayne County,GA,NA,84.83412322274881,NA
31643,Brooks County,GA,NA,91.75355450236967,NA
31705,Dougherty County,GA,NA,NA,74.02413058907025
31779,Mitchell County,GA,NA,63.93364928909953,NA
31820,Muscogee County,GA,NA,76.49289099526067,NA
31909,Muscogee County,GA,NA,17.345971563981042,NA
96701,Honolulu County,HI,NA,10.52132701421801,6.103619588360539
96706,Honolulu County,HI,9.27342256214149,7.156398104265403,9.9361249112846
96744,Honolulu County,HI,NA,1.042654028436019,NA
96782,Honolulu County,HI,34.894837476099426,NA,88.28956706884316
96789,Honolulu County,HI,NA,4.549763033175355,NA
96797,Honolulu County,HI,NA,3.3175355450236967,6.813342796309439
96813,Honolulu County,HI,NA,23.886255924170616,30.16323633782825
96814,Honolulu County,HI,72.08413001912047,NA,NA
96815,Honolulu County,HI,NA,16.587677725118482,13.129879347054649
96816,Honolulu County,HI,NA,39.76303317535545,NA
96817,Honolulu County,HI,NA,42.70142180094787,2.2711142654364798
96818,Honolulu County,HI,53.632887189292546,83.98104265402844,83.32150461320084
96819,Honolulu County,HI,NA,35.687203791469194,13.626685592618879
96821,Honolulu County,HI,NA,NA,70.54648687012065
96822,Honolulu County,HI,NA,NA,6.245564229950319
96825,Honolulu County,HI,NA,41.75355450236967,51.59687721788503
96826,Honolulu County,HI,NA,21.27962085308057,NA
83276,Caribou County,ID,NA,97.96208530805687,NA
83301,Twin Falls County,ID,NA,NA,0.21291696238466998
83318,Cassia County,ID,NA,33.93364928909953,NA
83333,Blaine County,ID,NA,48.81516587677725,NA
83338,Jerome County,ID,NA,16.018957345971565,NA
83686,Canyon County,ID,NA,1.8957345971563981,NA
83687,Canyon County,ID,NA,10.85308056872038,NA
83702,Ada County,ID,NA,13.127962085308056,NA
83703,Ada County,ID,NA,NA,39.6735273243435
83706,Ada County,ID,NA,NA,11.28459900638751
83709,Ada County,ID,NA,NA,2.1291696238466997
83714,Ada County,ID,NA,NA,8.01987224982257
83815,Kootenai County,ID,NA,11.753554502369669,NA
83854,Kootenai County,ID,NA,NA,11.497515968772179
60004,Cook County,IL,NA,28.90995260663507,NA
60007,Cook County,IL,55.16252390057361,60.616113744075825,NA
60015,Lake County,IL,NA,NA,41.731724627395316
60022,Cook County,IL,NA,NA,83.7473385379702
60025,Cook County,IL,NA,NA,1.98722498225692
60026,Cook County,IL,NA,34.976303317535546,NA
60035,Lake County,IL,NA,NA,0.99361249112846
60047,Lake County,IL,35.37284894837477,NA,42.583392476933994
60053,Cook County,IL,NA,22.606635071090047,19.659332860184527
60056,Cook County,IL,NA,8.625592417061611,4.045422285308729
60061,Lake County,IL,NA,70.66350710900474,NA
60062,Cook County,IL,NA,NA,4.613200851667849
60076,Cook County,IL,NA,66.25592417061611,10.078069552874378
60077,Cook County,IL,NA,19.57345971563981,NA
60085,Lake County,IL,NA,NA,50.67423704755145
60087,Lake County,IL,71.31931166347992,85.35545023696682,46.20298083747338
60089,Lake County,IL,NA,NA,41.092973740241305
60090,Cook County,IL,NA,NA,10.645848119233499
60091,Cook County,IL,NA,14.218009478672986,85.0958126330731
60093,Cook County,IL,79.54110898661568,NA,NA
60101,DuPage County,IL,NA,14.454976303317535,NA
60102,McHenry County,IL,47.89674952198853,NA,NA
60103,DuPage County,IL,NA,48.056872037914694,NA
60104,Cook County,IL,39.29254302103251,NA,NA
60106,DuPage County,IL,NA,80,23.917672107877927
60110,Kane County,IL,NA,NA,62.66855926188787
60115,DeKalb County,IL,39.866156787762904,NA,NA
60126,DuPage County,IL,NA,14.123222748815165,20.36905606813343
60130,Cook County,IL,88.52772466539197,NA,NA
60137,DuPage County,IL,NA,NA,8.090844570617458
60142,McHenry County,IL,NA,NA,0.7806955287437899
60148,DuPage County,IL,NA,2.843601895734597,NA
60153,Cook County,IL,38.04971319311664,NA,40.52519517388218
60154,Cook County,IL,NA,NA,22.995031937544358
60155,Cook County,IL,83.65200764818356,NA,93.82540809084458
60172,DuPage County,IL,NA,NA,76.29524485450673
60181,DuPage County,IL,NA,20.14218009478673,NA
60185,DuPage County,IL,NA,52.3696682464455,NA
60188,DuPage County,IL,NA,NA,60.68133427963094
60190,DuPage County,IL,NA,NA,85.30872959545776
60201,Cook County,IL,44.263862332695986,NA,56.99077359829666
60202,Cook County,IL,61.66347992351816,NA,NA
60302,Cook County,IL,67.97323135755258,NA,NA
60401,Will County,IL,NA,68.5308056872038,NA
60402,Cook County,IL,87.2848948374761,NA,NA
60406,Cook County,IL,NA,NA,42.51242015613911
60409,Cook County,IL,NA,21.80094786729858,58.055358410220016
60410,Will County,IL,49.7131931166348,NA,NA
60417,Will County,IL,NA,25.402843601895736,NA
60418,Cook County,IL,NA,98.48341232227487,NA
60425,Cook County,IL,NA,86.11374407582937,NA
60428,Cook County,IL,87.76290630975143,NA,NA
60439,Cook County,IL,44.74187380497132,81.4691943127962,NA
60443,Cook County,IL,91.77820267686424,85.82938388625593,NA
60445,Cook County,IL,NA,39.19431279620853,NA
60451,Will County,IL,NA,NA,81.68914123491838
60453,Cook County,IL,NA,4.928909952606635,NA
60455,Cook County,IL,50.573613766730396,NA,NA
60457,Cook County,IL,76.48183556405354,NA,NA
60462,Cook County,IL,NA,2.6066350710900474,NA
60465,Cook County,IL,NA,NA,72.46273953158268
60472,Cook County,IL,NA,97.44075829383885,NA
60473,Cook County,IL,NA,69.57345971563981,NA
60475,Will County,IL,NA,74.64454976303317,NA
60478,Cook County,IL,NA,65.45023696682465,NA
60491,Will County,IL,NA,NA,32.71823988644429
60506,Kane County,IL,NA,16.729857819905213,NA
60510,Kane County,IL,NA,36.06635071090047,42.01561391057488
60516,DuPage County,IL,NA,18.81516587677725,NA
60517,DuPage County,IL,NA,22.180094786729857,33.49893541518807
60521,DuPage County,IL,NA,48.95734597156398,NA
60523,DuPage County,IL,NA,39.81042654028436,NA
60525,Cook County,IL,NA,NA,35.699077359829666
60532,DuPage County,IL,NA,NA,32.00851667849538
60538,Kendall County,IL,NA,NA,53.1582682753726
60544,Will County,IL,NA,67.06161137440758,10.574875798438608
60546,Cook County,IL,NA,NA,80.62455642299503
60555,DuPage County,IL,72.65774378585085,NA,NA
60558,Cook County,IL,NA,51.37440758293839,NA
60559,DuPage County,IL,NA,NA,48.616039744499645
60586,Will County,IL,NA,20.4739336492891,NA
60605,Cook County,IL,NA,33.41232227488152,NA
60608,Cook County,IL,9.847036328871893,68.81516587677726,5.039034776437189
60609,Cook County,IL,8.98661567877629,NA,12.42015613910575
60610,Cook County,IL,NA,NA,12.491128459900638
60612,Cook County,IL,NA,NA,75.94038325053229
60614,Cook County,IL,NA,9.90521327014218,NA
60615,Cook County,IL,23.518164435946463,10.189573459715639,NA
60616,Cook County,IL,NA,5.687203791469194,NA
60617,Cook County,IL,NA,12.085308056872037,NA
60619,Cook County,IL,5.066921606118547,37.06161137440758,56.0681334279631
60620,Cook County,IL,NA,31.611374407582936,35.34421575585522
60621,Cook County,IL,NA,21.46919431279621,NA
60622,Cook County,IL,NA,32.41706161137441,NA
60623,Cook County,IL,NA,6.919431279620854,37.686302342086584
60624,Cook County,IL,14.722753346080305,NA,NA
60625,Cook County,IL,NA,NA,42.79630943931866
60628,Cook County,IL,NA,94.73933649289098,14.47835344215756
60629,Cook County,IL,NA,1.8009478672985781,NA
60631,Cook County,IL,NA,35.11848341232228,NA
60632,Cook County,IL,12.810707456978967,NA,NA
60633,Cook County,IL,NA,55.26066350710901,NA
60637,Cook County,IL,46.367112810707454,32.55924170616113,14.83321504613201
60638,Cook County,IL,NA,46.350710900473935,39.17672107877927
60639,Cook County,IL,33.460803059273424,4.644549763033176,NA
60640,Cook County,IL,6.787762906309751,4.360189573459715,86.65720369056068
60643,Cook County,IL,54.39770554493308,1.4218009478672986,4.755145493257629
60644,Cook County,IL,NA,53.981042654028435,40.66713981547196
60646,Cook County,IL,NA,32.08530805687204,NA
60649,Cook County,IL,NA,82.93838862559242,42.15755855216465
60652,Cook County,IL,27.342256214149142,NA,NA
60653,Cook County,IL,80.11472275334609,54.88151658767772,NA
60657,Cook County,IL,NA,7.488151658767772,NA
60707,Cook County,IL,53.15487571701721,NA,NA
60804,Cook County,IL,NA,NA,26.330731014904185
60827,Cook County,IL,79.34990439770554,NA,49.32576295244854
60954,Kankakee County,IL,NA,NA,62.10078069552875
61021,Lee County,IL,66.63479923518165,58.00947867298578,NA
61032,Stephenson County,IL,NA,39.66824644549763,35.13129879347054
61061,Ogle County,IL,NA,NA,35.84102200141945
61071,Whiteside County,IL,23.709369024856596,39.5260663507109,NA
61072,Winnebago County,IL,NA,56.58767772511848,71.04329311568488
61073,Winnebago County,IL,NA,62.93838862559241,NA
61080,Winnebago County,IL,NA,71.13744075829383,NA
61081,Whiteside County,IL,NA,58.1042654028436,85.16678495386799
61102,Winnebago County,IL,60.42065009560229,NA,NA
61107,Winnebago County,IL,NA,21.18483412322275,NA
61201,Rock Island County,IL,NA,20.42654028436019,NA
61240,Rock Island County,IL,NA,84.83412322274881,NA
61254,Henry County,IL,NA,65.49763033175356,NA
61342,LaSalle County,IL,NA,89.71563981042654,NA
61350,LaSalle County,IL,79.82791586998088,NA,NA
61364,LaSalle County,IL,NA,41.090047393364934,NA
61455,McDonough County,IL,NA,NA,57.98438608942512
61614,Peoria County,IL,NA,NA,46.91270404542229
61701,McLean County,IL,NA,NA,40.951029098651524
61727,De Witt County,IL,NA,NA,34.20865862313698
61761,McLean County,IL,39.101338432122375,NA,24.20156139105749
61801,Champaign County,IL,NA,NA,68.0624556422995
61802,Champaign County,IL,NA,20.80568720379147,NA
61820,Champaign County,IL,NA,NA,87.9347054648687
61821,Champaign County,IL,85.75525812619503,35.45023696682465,65.86231369765791
61822,Champaign County,IL,NA,70.4265402843602,NA
61832,Vermilion County,IL,NA,5.971563981042654,NA
61846,Vermilion County,IL,NA,66.06635071090048,NA
61853,Champaign County,IL,NA,84.12322274881517,21.362668559261888
61856,Piatt County,IL,NA,84.40758293838863,NA
61874,Champaign County,IL,NA,51.84834123222749,64.65578424414478
61883,Vermilion County,IL,96.65391969407266,NA,NA
61938,Coles County,IL,78.10707456978967,NA,NA
62033,Macoupin County,IL,NA,73.60189573459715,NA
62040,Madison County,IL,NA,5.829383886255924,10.858765081618168
62454,Crawford County,IL,NA,NA,44.854506742370475
62521,Macon County,IL,NA,46.872037914691944,NA
62526,Macon County,IL,NA,4.218009478672986,NA
62711,Sangamon County,IL,NA,66.44549763033176,NA
62712,Sangamon County,IL,NA,NA,92.68985095812633
62801,Marion County,IL,NA,NA,24.130589070262598
62881,Marion County,IL,NA,NA,30.660042583392478
46011,Madison County,IN,NA,NA,26.969481902058195
46017,Madison County,IN,NA,67.77251184834124,NA
46032,Hamilton County,IN,NA,NA,14.97515968772179
46036,Madison County,IN,NA,43.55450236966825,NA
46037,Hamilton County,IN,NA,NA,53.016323633782825
46041,Clinton County,IN,NA,40.71090047393365,NA
46062,Hamilton County,IN,61.281070745697896,NA,NA
46124,Johnson County,IN,83.17399617590823,NA,NA
46201,Marion County,IN,NA,23.696682464454977,NA
46204,Marion County,IN,41.01338432122371,NA,NA
46205,Marion County,IN,NA,45.7345971563981,NA
46214,Marion County,IN,58.69980879541109,NA,NA
46218,Marion County,IN,NA,12.938388625592417,NA
46220,Marion County,IN,NA,33.175355450236964,38.39602555003548
46226,Marion County,IN,62.04588910133844,36.91943127962085,NA
46229,Marion County,IN,58.508604206500955,NA,NA
46235,Marion County,IN,NA,92.74881516587678,NA
46241,Marion County,IN,19.120458891013385,84.54976303317535,NA
46254,Marion County,IN,NA,19.00473933649289,90.7735982966643
46260,Marion County,IN,46.08030592734226,NA,NA
46310,Jasper County,IN,NA,44.40758293838862,NA
46324,Lake County,IN,15.86998087954111,NA,NA
46342,Lake County,IN,NA,NA,11.85237757274663
46356,Lake County,IN,NA,23.033175355450236,NA
46375,Lake County,IN,NA,NA,65.36550745209368
46383,Porter County,IN,NA,18.909952606635073,8.161816891412348
46392,Jasper County,IN,NA,NA,95.24485450674237
46407,Lake County,IN,NA,63.08056872037915,NA
46582,Kosciusko County,IN,NA,NA,90.91554293825408
46733,Adams County,IN,NA,34.360189573459714,NA
46750,Huntington County,IN,NA,50,NA
46774,Allen County,IN,NA,81.56398104265404,NA
46815,Allen County,IN,NA,NA,11.923349893541518
46825,Allen County,IN,37.09369024856596,NA,22.924059616749467
46952,Grant County,IN,NA,NA,12.207239176721078
47150,Floyd County,IN,35.65965583173996,NA,NA
47274,Jackson County,IN,NA,21.137440758293838,NA
47374,Wayne County,IN,NA,1.5165876777251186,NA
47448,Brown County,IN,NA,85.07109004739335,NA
47586,Perry County,IN,NA,85.16587677725119,NA
47591,Knox County,IN,NA,16.492890995260666,NA
47598,Pike County,IN,99.90439770554494,NA,NA
47601,Warrick County,IN,NA,29.66824644549763,NA
47720,Vanderburgh County,IN,NA,88.5308056872038,NA
47885,Vigo County,IN,NA,NA,72.03690560681333
47905,Tippecanoe County,IN,40.344168260038245,NA,NA
47960,White County,IN,NA,NA,27.18239886444287
47978,Jasper County,IN,NA,56.208530805687204,NA
50138,Marion County,IA,NA,48.530805687203795,NA
50158,Marshall County,IA,NA,NA,52.94535131298793
50208,Jasper County,IA,58.22179732313576,NA,NA
50265,Polk County,IA,84.89483747609943,NA,98.93541518807665
50309,Polk County,IA,NA,53.3649289099526,NA
50310,Polk County,IA,54.49330783938815,NA,NA
50313,Polk County,IA,NA,53.69668246445498,NA
50314,Polk County,IA,45.69789674952199,NA,NA
50315,Polk County,IA,NA,15.734597156398102,NA
50317,Polk County,IA,10.22944550669216,NA,NA
50401,Cerro Gordo County,IA,NA,5.592417061611375,NA
50461,Mitchell County,IA,NA,79.24170616113744,NA
50662,Fayette County,IA,NA,80.42654028436019,NA
50801,Union County,IA,NA,40.23696682464455,NA
51104,Woodbury County,IA,NA,NA,95.52874378992193
51537,Shelby County,IA,NA,NA,93.32860184528035
51555,Harrison County,IA,NA,97.67772511848342,NA
52101,Winneshiek County,IA,NA,NA,71.32718239886444
52205,Jones County,IA,91.10898661567877,NA,NA
52240,Johnson County,IA,20.076481835564053,12.606635071090047,50.745209368346345
52245,Johnson County,IA,NA,78.86255924170617,NA
52246,Johnson County,IA,NA,53.22274881516588,56.13910574875799
52302,Linn County,IA,NA,23.649289099526065,NA
52317,Johnson County,IA,52.67686424474187,86.54028436018957,NA
52402,Linn County,IA,NA,49.19431279620853,NA
52404,Linn County,IA,6.692160611854685,10.4739336492891,21.362668559261888
52501,Wapello County,IA,13.479923518164435,NA,NA
52544,Appanoose County,IA,NA,NA,36.62171753016323
52577,Mahaska County,IA,NA,65.59241706161137,NA
52601,Des Moines County,IA,NA,36.492890995260666,35.486160397445
52632,Lee County,IA,NA,24.170616113744074,NA
52655,Des Moines County,IA,NA,96.11374407582939,NA
52732,Clinton County,IA,55.544933078393875,17.393364928909953,NA
52761,Muscatine County,IA,10.133843212237094,NA,NA
52803,Scott County,IA,NA,NA,83.96025550035486
52804,Scott County,IA,15.296367112810708,NA,NA
66061,Johnson County,KS,NA,2.132701421800948,NA
66104,Wyandotte County,KS,NA,NA,75.44357700496806
66209,Johnson County,KS,NA,30.80568720379147,NA
66212,Johnson County,KS,NA,36.77725118483413,NA
66220,Johnson County,KS,NA,NA,96.94819020581973
66441,Geary County,KS,73.61376673040154,NA,NA
66604,Shawnee County,KS,NA,28.86255924170616,NA
66605,Shawnee County,KS,NA,41.37440758293839,NA
67401,Saline County,KS,NA,NA,43.222143364088005
67460,McPherson County,KS,NA,NA,53.016323633782825
67530,Barton County,KS,NA,NA,51.1000709723208
67601,Ellis County,KS,NA,NA,25.833924769339955
67701,Thomas County,KS,NA,NA,74.73385379701917
40014,Oldham County,KY,NA,53.27014218009478,NA
40203,Jefferson County,KY,NA,28.48341232227488,NA
40218,Jefferson County,KY,12.906309751434033,NA,NA
40220,Jefferson County,KY,NA,13.080568720379146,NA
40228,Jefferson County,KY,NA,54.691943127962084,NA
40272,Jefferson County,KY,13.001912045889103,NA,NA
40324,Scott County,KY,NA,14.834123222748815,NA
40361,Bourbon County,KY,NA,NA,48.757984386089426
40509,Fayette County,KY,NA,28.29383886255924,NA
40744,Laurel County,KY,28.20267686424474,NA,NA
41017,Kenton County,KY,NA,44.2654028436019,NA
41042,Boone County,KY,4.2065009560229445,3.7914691943127963,NA
41143,Carter County,KY,75.52581261950286,NA,NA
41501,Pike County,KY,10.51625239005736,NA,NA
41522,Pike County,KY,76.8642447418738,NA,NA
42127,Barren County,KY,NA,70.18957345971563,NA
42167,Monroe County,KY,NA,93.27014218009478,NA
42240,Christian County,KY,NA,8.246445497630333,NA
42539,Casey County,KY,NA,NA,61.74591909155429
70001,Jefferson Parish,LA,20.363288718929255,NA,NA
70002,Jefferson Parish,LA,NA,21.09004739336493,NA
70006,Jefferson Parish,LA,NA,NA,20.085166784953866
70043,St. Bernard Parish,LA,NA,82.55924170616113,NA
70052,St. James Parish,LA,NA,99.478672985782,NA
70058,Jefferson Parish,LA,NA,NA,64.44286728176012
70065,Jefferson Parish,LA,NA,28.720379146919434,NA
70090,St. James Parish,LA,NA,89.85781990521326,NA
70113,Orleans Parish,LA,NA,57.06161137440758,NA
70114,Orleans Parish,LA,8.508604206500955,73.88625592417061,NA
70115,Orleans Parish,LA,NA,47.203791469194314,NA
70117,Orleans Parish,LA,3.0592734225621414,NA,NA
70118,Orleans Parish,LA,NA,NA,22.56919801277502
70119,Orleans Parish,LA,3.5372848948374758,58.29383886255924,57.34563520227112
70122,Orleans Parish,LA,3.9196940726577436,6.2559241706161135,10.22001419446416
70124,Orleans Parish,LA,NA,97.53554502369668,NA
70125,Orleans Parish,LA,NA,98.5308056872038,NA
70126,Orleans Parish,LA,NA,44.691943127962084,12.845990063875087
70127,Orleans Parish,LA,NA,72.03791469194313,53.44215755855216
70128,Orleans Parish,LA,NA,55.78199052132702,NA
70130,Orleans Parish,LA,NA,59.85781990521327,98.15471965933286
70131,Orleans Parish,LA,NA,58.62559241706161,NA
70301,Lafourche Parish,LA,57.64818355640535,NA,NA
70345,Lafourche Parish,LA,NA,33.127962085308056,NA
70373,Lafourche Parish,LA,81.64435946462714,NA,67.63662171753016
70380,St. Mary Parish,LA,55.73613766730402,NA,NA
70394,Lafourche Parish,LA,53.53728489483748,NA,NA
70403,Tangipahoa Parish,LA,26.95984703632887,NA,NA
70433,St. Tammany Parish,LA,5.353728489483748,4.454976303317536,NA
70438,Washington Parish,LA,NA,8.009478672985782,NA
70452,St. Tammany Parish,LA,NA,NA,46.132008516678496
70454,Tangipahoa Parish,LA,NA,NA,22.64017033356991
70458,St. Tammany Parish,LA,NA,NA,5.819730305180979
70460,St. Tammany Parish,LA,NA,86.82464454976304,NA
70461,St. Tammany Parish,LA,87.5717017208413,63.41232227488152,NA
70462,Livingston Parish,LA,NA,NA,99.57416607523066
70471,St. Tammany Parish,LA,40.91778202676864,NA,NA
70506,Lafayette Parish,LA,4.588910133843212,NA,NA
70507,Lafayette Parish,LA,NA,98.05687203791469,NA
70512,St. Landry Parish,LA,86.61567877629062,NA,NA
70517,St. Martin Parish,LA,63.47992351816444,NA,NA
70525,Acadia Parish,LA,51.05162523900574,NA,NA
70529,Lafayette Parish,LA,NA,74.97630331753554,NA
70554,Evangeline Parish,LA,NA,97.39336492890996,NA
70560,Iberia Parish,LA,NA,7.345971563981042,54.86160397444997
70570,St. Landry Parish,LA,NA,65.63981042654028,NA
70582,St. Martin Parish,LA,NA,80.09478672985783,NA
70583,Lafayette Parish,LA,NA,95.87677725118483,NA
70586,Evangeline Parish,LA,14.531548757170173,NA,NA
70633,Calcasieu Parish,LA,97.131931166348,NA,NA
70648,Allen Parish,LA,77.43785850860421,NA,NA
70706,Livingston Parish,LA,NA,NA,73.88218594748048
70726,Livingston Parish,LA,NA,NA,13.76863023420866
70754,Livingston Parish,LA,NA,73.2701421800948,95.24485450674237
70767,West Baton Rouge Parish,LA,86.90248565965584,57.39336492890995,NA
70775,West Feliciana Parish,LA,NA,NA,88.6444286728176
70791,East Baton Rouge Parish,LA,NA,NA,57.84244144783535
70802,East Baton Rouge Parish,LA,NA,63.838862559241704,NA
70805,East Baton Rouge Parish,LA,16.44359464627151,NA,NA
70806,East Baton Rouge Parish,LA,41.77820267686425,25.781990521327014,NA
70808,East Baton Rouge Parish,LA,NA,79.38388625592417,33.286018452803404
70809,East Baton Rouge Parish,LA,NA,NA,61.60397444996452
70810,East Baton Rouge Parish,LA,52.96367112810707,NA,NA
70812,East Baton Rouge Parish,LA,NA,91.4218009478673,92.40596167494677
70814,East Baton Rouge Parish,LA,NA,92.08530805687204,NA
70815,East Baton Rouge Parish,LA,NA,NA,26.259758694109298
70816,East Baton Rouge Parish,LA,NA,NA,25.621007806955287
71006,Bossier Parish,LA,NA,58.90995260663507,NA
71023,Webster Parish,LA,97.70554493307839,NA,NA
71037,Bossier Parish,LA,NA,40.094786729857816,NA
71040,Claiborne Parish,LA,70.36328871892925,82.27488151658767,NA
71047,Caddo Parish,LA,53.059273422562136,NA,NA
71101,Caddo Parish,LA,NA,98.67298578199052,NA
71103,Caddo Parish,LA,NA,NA,96.80624556422995
71106,Caddo Parish,LA,NA,NA,58.62313697657914
71107,Caddo Parish,LA,16.634799235181642,NA,NA
71108,Caddo Parish,LA,79.44550669216062,64.59715639810426,NA
71109,Caddo Parish,LA,48.565965583174,49.14691943127962,NA
71111,Bossier Parish,LA,NA,7.819905213270142,NA
71112,Bossier Parish,LA,11.18546845124283,15.545023696682463,NA
71119,Caddo Parish,LA,NA,81.80094786729858,NA
71129,Caddo Parish,LA,NA,91.56398104265404,NA
71220,Morehouse Parish,LA,50.956022944550675,NA,69.69481902058197
71225,Ouachita Parish,LA,NA,96.82464454976302,NA
71235,Lincoln Parish,LA,97.60994263862332,99.0995260663507,NA
71292,Ouachita Parish,LA,40.82217973231357,NA,NA
71302,Rapides Parish,LA,23.996175908221797,NA,NA
71328,Rapides Parish,LA,63.862332695984705,NA,NA
71360,Rapides Parish,LA,NA,90.28436018957346,19.588360539389637
04005,York County,ME,NA,2.3696682464454977,7.3811213626685594
04011,Cumberland County,ME,NA,NA,72.95954577714691
04046,York County,ME,82.88718929254301,NA,NA
04062,Cumberland County,ME,NA,34.07582938388626,NA
04064,York County,ME,NA,65.2132701421801,NA
04073,York County,ME,NA,NA,8.58765081618169
04090,York County,ME,NA,20.09478672985782,NA
04101,Cumberland County,ME,33.652007648183556,NA,NA
04103,Cumberland County,ME,20.45889101338432,NA,9.439318665720368
04106,Cumberland County,ME,NA,NA,23.562810503903478
04268,Oxford County,ME,NA,76.06635071090048,NA
04401,Penobscot County,ME,NA,8.436018957345972,42.65436479772888
04412,Penobscot County,ME,NA,NA,99.00638750887154
04416,Hancock County,ME,NA,98.34123222748815,NA
04426,Piscataquis County,ME,NA,75.02369668246446,NA
04444,Penobscot County,ME,NA,54.07582938388625,83.53442157558553
04530,Sagadahoc County,ME,NA,33.27014218009479,NA
04605,Hancock County,ME,43.881453154875715,NA,NA
04730,Aroostook County,ME,NA,NA,22.782114975159686
04736,Aroostook County,ME,81.16634799235182,30.568720379146917,NA
04742,Aroostook County,ME,NA,55.63981042654028,78.21149751596877
04769,Aroostook County,ME,NA,81.75355450236967,40.38325053229241
04841,Knox County,ME,NA,NA,41.8736692689851
04849,Waldo County,ME,NA,NA,62.52661462029808
04901,Kennebec County,ME,3.824091778202677,NA,NA
04915,Waldo County,ME,NA,NA,69.62384669978708
20678,Calvert County,MD,NA,69.95260663507109,NA
20706,Prince George's County,MD,58.89101338432122,NA,NA
20716,Prince George's County,MD,NA,77.39336492890996,NA
20720,Prince George's County,MD,82.31357552581262,NA,NA
20723,Howard County,MD,82.31357552581262,NA,NA
20724,Anne Arundel County,MD,NA,95.54502369668246,NA
20735,Prince George's County,MD,NA,56.872037914691944,NA
20770,Prince George's County,MD,NA,77.77251184834122,NA
20774,Prince George's County,MD,NA,87.15639810426539,NA
20866,Montgomery County,MD,90.05736137667304,NA,NA
20882,Montgomery County,MD,NA,96.49289099526067,NA
20886,Montgomery County,MD,NA,68.00947867298578,NA
20904,Montgomery County,MD,NA,NA,12.987934705464868
20906,Montgomery County,MD,NA,27.20379146919431,NA
21009,Harford County,MD,NA,56.25592417061611,NA
21044,Howard County,MD,NA,51.75355450236967,NA
21045,Howard County,MD,49.61759082217973,NA,NA
21060,Anne Arundel County,MD,27.437858508604208,NA,NA
21076,Anne Arundel County,MD,85.56405353728489,NA,NA
21090,Anne Arundel County,MD,NA,NA,68.48828956706883
21117,Baltimore County,MD,NA,85.260663507109,NA
21131,Baltimore County,MD,NA,85.35545023696682,NA
21133,Baltimore County,MD,NA,NA,29.524485450674238
21136,Baltimore County,MD,59.65583173996176,37.39336492890995,NA
21152,Baltimore County,MD,97.99235181644359,NA,NA
21157,Carroll County,MD,NA,32.93838862559242,NA
21201,Baltimore city,MD,NA,36.208530805687204,NA
21202,Baltimore city,MD,NA,NA,89.77998580553584
21205,Baltimore city,MD,NA,64.92890995260665,NA
21206,Baltimore city,MD,39.19694072657744,NA,79.70191625266146
21207,Baltimore County,MD,74.37858508604207,47.44075829383886,10.929737402413059
21208,Baltimore County,MD,NA,57.156398104265406,NA
21211,Baltimore city,MD,NA,NA,63.59119943222144
21212,Baltimore city,MD,NA,21.990521327014218,NA
21213,Baltimore city,MD,80.78393881453155,8.104265402843602,NA
21215,Baltimore city,MD,84.60803059273422,27.86729857819905,47.19659332860184
21217,Baltimore city,MD,21.12810707456979,NA,97.09013484740952
21218,Baltimore city,MD,NA,6.824644549763033,2.9098651525904895
21221,Baltimore County,MD,71.9885277246654,NA,NA
21222,Baltimore County,MD,NA,11.232227488151658,2.9808374733853795
21223,Baltimore city,MD,32.409177820267686,NA,NA
21224,Baltimore city,MD,NA,59.0047393364929,82.18594748048261
21225,Baltimore city,MD,NA,29.95260663507109,NA
21228,Baltimore County,MD,NA,31.469194312796205,NA
21230,Baltimore city,MD,NA,39.28909952606635,NA
21231,Baltimore city,MD,68.16443594646272,NA,NA
21234,Baltimore County,MD,NA,25.545023696682463,2.34208658623137
21237,Baltimore County,MD,54.20650095602294,40.094786729857816,NA
21239,Baltimore city,MD,67.20841300191205,12.511848341232227,68.98509581263306
21244,Baltimore County,MD,NA,25.402843601895736,NA
21401,Anne Arundel County,MD,NA,55.7345971563981,12.349183818310859
21666,Queen Anne's County,MD,97.03632887189293,89.0995260663507,NA
21771,Frederick County,MD,NA,53.08056872037915,NA
21804,Wicomico County,MD,NA,42.18009478672986,NA
01020,Hampden County,MA,NA,6.4454976303317535,NA
01030,Hampden County,MA,NA,60,NA
01040,Hampden County,MA,NA,NA,18.665720369056068
01057,Hampden County,MA,86.4244741873805,NA,NA
01085,Hampden County,MA,0.9560229445506693,NA,NA
01108,Hampden County,MA,9.560229445506693,2.4644549763033177,NA
01109,Hampden County,MA,0,NA,NA
01420,Worcester County,MA,NA,0.42654028436018954,NA
01453,Worcester County,MA,31.453154875717015,NA,NA
01460,Middlesex County,MA,NA,NA,54.43577004968062
01462,Worcester County,MA,NA,57.81990521327014,NA
01463,Middlesex County,MA,NA,38.43601895734597,NA
01468,Worcester County,MA,NA,86.06635071090048,NA
01532,Worcester County,MA,NA,NA,72.39176721078779
01543,Worcester County,MA,NA,73.17535545023696,NA
01545,Worcester County,MA,16.347992351816444,NA,NA
01570,Worcester County,MA,NA,1.1374407582938388,NA
01581,Worcester County,MA,NA,40.85308056872038,NA
01588,Worcester County,MA,18.738049713193117,NA,NA
01603,Worcester County,MA,1.147227533460803,73.7914691943128,NA
01604,Worcester County,MA,NA,0.5213270142180095,NA
01605,Worcester County,MA,NA,24.834123222748815,10.149041873669269
01606,Worcester County,MA,NA,NA,6.0326472675656495
01609,Worcester County,MA,16.252390057361378,NA,2.8388928317955995
01720,Middlesex County,MA,32.88718929254302,NA,NA
01721,Middlesex County,MA,31.73996175908222,NA,NA
01730,Middlesex County,MA,NA,85.16587677725119,89.3541518807665
01742,Middlesex County,MA,NA,60.947867298578196,NA
01749,Middlesex County,MA,NA,25.308056872037916,NA
01754,Middlesex County,MA,NA,41.800947867298575,NA
01772,Worcester County,MA,91.8738049713193,NA,NA
01773,Middlesex County,MA,NA,82.22748815165876,66.43009226401703
01776,Middlesex County,MA,NA,92.03791469194313,NA
01801,Middlesex County,MA,6.787762906309751,58.81516587677725,0.63875088715401
01803,Middlesex County,MA,19.21606118546845,37.203791469194314,88.43151171043293
01810,Essex County,MA,NA,38.199052132701425,60.042583392476935
01821,Middlesex County,MA,NA,81.84834123222748,69.97870830376152
01824,Middlesex County,MA,NA,3.886255924170616,4.82611781405252
01830,Essex County,MA,NA,23.175355450236967,NA
01833,Essex County,MA,NA,93.55450236966824,NA
01841,Essex County,MA,NA,NA,45.848119233498934
01843,Essex County,MA,NA,NA,24.414478353442156
01844,Essex County,MA,6.5009560229445515,NA,2.0581973030518097
01845,Essex County,MA,25.717017208413,NA,64.58481192334989
01850,Middlesex County,MA,NA,41.800947867298575,NA
01851,Middlesex County,MA,29.349904397705544,NA,NA
01854,Middlesex County,MA,NA,2.654028436018957,3.1227821149751596
01860,Essex County,MA,NA,NA,77.64371894960965
01862,Middlesex County,MA,NA,36.018957345971565,59.11994322214337
01863,Middlesex County,MA,NA,NA,89.56706884315118
01867,Middlesex County,MA,25.52581261950287,91.13744075829385,84.3860894251242
01876,Middlesex County,MA,5.640535372848948,28.62559241706161,25.90489709013485
01880,Middlesex County,MA,NA,41.46919431279621,7.6650106458481195
01886,Middlesex County,MA,21.414913957934992,NA,37.970191625266146
01887,Middlesex County,MA,5.25812619502868,54.2654028436019,46.344925479063164
01890,Middlesex County,MA,NA,97.81990521327015,7.523066004258339
01902,Essex County,MA,NA,24.028436018957347,NA
01905,Essex County,MA,0.7648183556405354,NA,NA
01906,Essex County,MA,1.9120458891013385,5.213270142180095,23.491838183108587
01907,Essex County,MA,NA,22.085308056872037,10.716820440028389
01913,Essex County,MA,NA,NA,84.03122782114976
01915,Essex County,MA,NA,NA,51.8097941802697
01923,Essex County,MA,NA,2.938388625592417,NA
01938,Essex County,MA,NA,90.75829383886256,63.73314407381121
01940,Essex County,MA,NA,NA,12.70404542228531
01945,Essex County,MA,NA,42.89099526066351,70.83037615330021
01949,Essex County,MA,NA,91.32701421800948,95.0319375443577
01960,Essex County,MA,0.3824091778202677,31.70616113744076,58.97799858055358
01966,Essex County,MA,NA,NA,85.30872959545776
01969,Essex County,MA,NA,NA,96.4513839602555
01970,Essex County,MA,NA,12.890995260663507,NA
01982,Essex County,MA,NA,96.58767772511848,NA
01983,Essex County,MA,NA,72.8436018957346,NA
02021,Norfolk County,MA,NA,NA,4.897090134847409
02026,Norfolk County,MA,NA,9.383886255924171,NA
02035,Norfolk County,MA,NA,NA,45.13839602555004
02038,Norfolk County,MA,NA,8.862559241706162,18.097941802696948
02043,Plymouth County,MA,NA,NA,43.364088005677786
02062,Norfolk County,MA,NA,6.492890995260664,NA
02066,Plymouth County,MA,NA,NA,87.08303761533001
02111,Suffolk County,MA,NA,NA,20.44002838892832
02114,Suffolk County,MA,49.90439770554494,26.066350710900476,NA
02115,Suffolk County,MA,25.908221797323133,67.58293838862559,66.99787083037614
02116,Suffolk County,MA,66.25239005736138,1.0900473933649288,39.38963804116394
02118,Suffolk County,MA,12.1414913957935,32.51184834123223,72.03690560681333
02119,Suffolk County,MA,70.65009560229446,31.563981042654028,15.046132008516677
02120,Suffolk County,MA,NA,88.38862559241706,99.07735982966643
02121,Suffolk County,MA,82.60038240917783,30.995260663507107,76.79205110007096
02122,Suffolk County,MA,35.75525812619503,43.127962085308056,71.89496096522356
02124,Suffolk County,MA,22.848948374760994,87.53554502369668,33.9957416607523
02125,Suffolk County,MA,0.09560229445506692,61.04265402843602,5.322924059616749
02126,Suffolk County,MA,30.688336520076483,73.45971563981043,11.00070972320795
02127,Suffolk County,MA,0.6692160611854685,NA,32.50532292405961
02128,Suffolk County,MA,19.02485659655832,77.20379146919431,NA
02129,Suffolk County,MA,62.7151051625239,51.09004739336493,32.150461320085164
02130,Suffolk County,MA,41.586998087954115,49.052132701421804,17.246273953158266
02131,Suffolk County,MA,NA,52.41706161137441,30.44712562100781
02132,Suffolk County,MA,39.961759082217974,9.24170616113744,NA
02134,Suffolk County,MA,NA,92.46445497630333,43.78992193044712
02135,Suffolk County,MA,65.2963671128107,NA,20.865862313697658
02136,Suffolk County,MA,NA,63.69668246445498,57.06174591909156
02138,Middlesex County,MA,NA,3.080568720379147,54.790631653655076
02139,Middlesex County,MA,23.135755258126196,43.3649289099526,32.789212207239174
02140,Middlesex County,MA,84.51242829827916,29.905213270142177,NA
02141,Middlesex County,MA,NA,16.398104265402843,NA
02143,Middlesex County,MA,NA,NA,72.3207948899929
02144,Middlesex County,MA,NA,50.61611374407583,89.99290276792051
02145,Middlesex County,MA,3.3460803059273423,28.38862559241706,5.748757984386089
02148,Middlesex County,MA,1.5296367112810707,24.123222748815166,15.684882895670688
02149,Middlesex County,MA,31.166347992351817,14.691943127962084,NA
02150,Suffolk County,MA,40.63097514340344,42.274881516587676,2.2001419446415897
02151,Suffolk County,MA,17.877629063097515,36.350710900473935,2.69694819020582
02152,Suffolk County,MA,10.994263862332696,NA,5.464868701206529
02155,Middlesex County,MA,17.39961759082218,22.22748815165877,NA
02169,Norfolk County,MA,9.751434034416825,49.33649289099526,15.826827537260469
02170,Norfolk County,MA,NA,NA,47.977288857345634
02171,Norfolk County,MA,28.58508604206501,11.800947867298579,NA
02176,Middlesex County,MA,NA,3.744075829383886,35.202271114265436
02180,Middlesex County,MA,NA,83.74407582938389,NA
02184,Norfolk County,MA,NA,NA,45.990063875088715
02186,Norfolk County,MA,65.10516252390057,NA,NA
02188,Norfolk County,MA,NA,NA,58.12633073101491
02301,Plymouth County,MA,19.980879541108987,11.658767772511847,43.080198722498224
02302,Plymouth County,MA,0.5736137667304015,0.47393364928909953,NA
02333,Plymouth County,MA,30.592734225621417,NA,NA
02343,Norfolk County,MA,36.615678776290636,57.44075829383887,NA
02346,Plymouth County,MA,NA,31.137440758293838,NA
02359,Plymouth County,MA,64.43594646271511,NA,NA
02360,Plymouth County,MA,NA,0.047393364928909956,NA
02364,Plymouth County,MA,NA,80.61611374407583,NA
02368,Norfolk County,MA,1.4340344168260037,2.5592417061611377,13.34279630943932
02375,Bristol County,MA,NA,76.30331753554502,NA
02420,Middlesex County,MA,34.70363288718929,95.59241706161139,81.760113555713275
02421,Middlesex County,MA,NA,76.82464454976304,82.2569198012775
02445,Norfolk County,MA,24.760994263862333,NA,NA
02446,Norfolk County,MA,NA,22.464454976303315,NA
02453,Middlesex County,MA,NA,NA,41.37686302342087
02459,Middlesex County,MA,NA,83.8388625592417,31.724627395315824
02460,Middlesex County,MA,92.25621414913958,NA,63.875088715401
02461,Middlesex County,MA,93.88145315487571,NA,NA
02465,Middlesex County,MA,55.06692160611855,35.87677725118483,NA
02467,Norfolk County,MA,48.37476099426386,53.55450236966824,NA
02468,Middlesex County,MA,89.10133843212236,NA,NA
02474,Middlesex County,MA,12.045889101338432,48.43601895734597,7.097232079488999
02476,Middlesex County,MA,NA,68.62559241706161,NA
02478,Middlesex County,MA,NA,93.64928909952607,NA
02492,Norfolk County,MA,NA,69.95260663507109,NA
02494,Norfolk County,MA,NA,53.88625592417061,NA
02631,Barnstable County,MA,NA,NA,28.105039034776436
02703,Bristol County,MA,NA,17.156398104265403,55.07452093683464
02740,Bristol County,MA,NA,NA,0.07097232079488999
02743,Bristol County,MA,NA,54.59715639810426,NA
02745,Bristol County,MA,NA,4.786729857819905,NA
02747,Bristol County,MA,NA,37.535545023696685,54.009936124911285
02760,Bristol County,MA,NA,6.587677725118484,NA
02769,Bristol County,MA,NA,47.014218009478675,NA
02770,Plymouth County,MA,98.2791586998088,92.98578199052133,81.61816891412349
02771,Bristol County,MA,37.858508604206506,NA,NA
02780,Bristol County,MA,18.068833652007648,0.33175355450236965,NA
48005,Macomb County,MI,NA,NA,94.53513129879347
48015,Macomb County,MI,NA,73.08056872037915,NA
48021,Macomb County,MI,NA,11.137440758293838,54.57771469127041
48025,Oakland County,MI,NA,88.62559241706161,NA
48033,Oakland County,MI,NA,NA,14.052519517388218
48034,Oakland County,MI,NA,85.63981042654028,NA
48035,Macomb County,MI,NA,NA,71.18523775727466
48036,Macomb County,MI,NA,NA,60.11355571327183
48038,Macomb County,MI,11.759082217973232,18.341232227488153,NA
48043,Macomb County,MI,30.879541108986615,NA,79.91483321504613
48044,Macomb County,MI,NA,3.1279620853080567,NA
48047,Macomb County,MI,NA,35.59241706161138,NA
48051,Macomb County,MI,58.98661567877629,NA,NA
48059,St. Clair County,MI,NA,31.04265402843602,16.678495386799145
48060,St. Clair County,MI,16.921606118546844,NA,NA
48072,Oakland County,MI,NA,72.18009478672985,NA
48073,Oakland County,MI,NA,NA,19.162526614620297
48075,Oakland County,MI,NA,82.8909952606635,NA
48076,Oakland County,MI,NA,16.824644549763033,NA
48080,Macomb County,MI,NA,7.772511848341232,16.891412349183817
48081,Macomb County,MI,NA,NA,9.723207948899928
48085,Oakland County,MI,29.732313575525815,17.914691943127963,34.918381831085874
48088,Macomb County,MI,NA,47.96208530805687,NA
48089,Macomb County,MI,NA,77.53554502369668,NA
48091,Macomb County,MI,NA,9.14691943127962,30.872959545777146
48092,Macomb County,MI,NA,14.028436018957347,NA
48094,Macomb County,MI,NA,37.44075829383886,NA
48098,Oakland County,MI,61.281070745697896,NA,NA
48101,Wayne County,MI,21.606118546845124,18.862559241706162,NA
48103,Washtenaw County,MI,45.219885277246654,21.232227488151658,64.93967352732435
48104,Washtenaw County,MI,NA,74.739336492891,41.944641589779984
48105,Washtenaw County,MI,73.04015296367112,36.161137440758296,11.994322214336409
48108,Washtenaw County,MI,36.04206500956023,91.8483412322275,16.678495386799145
48111,Wayne County,MI,5.544933078393881,79.33649289099526,NA
48114,Livingston County,MI,NA,NA,73.17246273953158
48116,Livingston County,MI,NA,70.85308056872039,7.026259758694109
48118,Washtenaw County,MI,NA,NA,19.659332860184527
48120,Wayne County,MI,NA,NA,97.94180269694819
48122,Wayne County,MI,82.02676864244742,NA,NA
48124,Wayne County,MI,NA,84.36018957345972,NA
48125,Wayne County,MI,56.21414913957935,NA,NA
48126,Wayne County,MI,71.22370936902486,NA,77.9985805535841
48127,Wayne County,MI,10.89866156787763,NA,89.92193044712562
48130,Washtenaw County,MI,NA,NA,32.22143364088006
48131,Monroe County,MI,NA,77.77251184834122,NA
48135,Wayne County,MI,NA,84.59715639810426,73.0305180979418
48138,Wayne County,MI,NA,76.87203791469194,31.227821149751595
48141,Wayne County,MI,NA,84.92890995260663,88.71540099361249
48146,Wayne County,MI,NA,NA,49.254790631653655
48150,Wayne County,MI,25.1434034416826,44.739336492891,NA
48152,Wayne County,MI,81.26195028680688,40.42654028436019,NA
48154,Wayne County,MI,NA,4.312796208530806,64.86870120652945
48161,Monroe County,MI,NA,12.559241706161137,NA
48167,Oakland County,MI,39.0057361376673,50.04739336492891,7.877927608232789
48168,Wayne County,MI,NA,62.4170616113744,91.5542938254081
48169,Livingston County,MI,48.087954110898664,NA,NA
48170,Wayne County,MI,NA,76.63507109004739,13.484740951029098
48174,Wayne County,MI,NA,8.625592417061611,61.46202980837473
48176,Washtenaw County,MI,NA,78.19905213270142,15.330021291696239
48178,Oakland County,MI,31.73996175908222,NA,43.9318665720369
48180,Wayne County,MI,NA,9.95260663507109,NA
48183,Wayne County,MI,7.45697896749522,21.61137440758294,NA
48185,Wayne County,MI,4.1108986615678775,22.55924170616114,NA
48186,Wayne County,MI,61.18546845124283,NA,95.38679914833214
48187,Wayne County,MI,NA,54.12322274881517,NA
48188,Wayne County,MI,NA,75.16587677725119,85.59261887863732
48189,Washtenaw County,MI,NA,40.047393364928915,NA
48191,Washtenaw County,MI,92.44741873804972,NA,NA
48192,Wayne County,MI,NA,87.91469194312796,NA
48193,Wayne County,MI,NA,NA,27.6792051100071
48195,Wayne County,MI,NA,5.781990521327014,73.59829666430092
48197,Washtenaw County,MI,45.02868068833652,60.094786729857816,NA
48198,Washtenaw County,MI,14.053537284894837,33.74407582938389,47.83534421575585
48201,Wayne County,MI,NA,NA,77.00496806245565
48202,Wayne County,MI,29.063097514340345,NA,NA
48203,Wayne County,MI,NA,45.54502369668246,27.750177430801987
48204,Wayne County,MI,NA,20.047393364928908,72.249822569198
48206,Wayne County,MI,25.1434034416826,18.388625592417064,96.73527324343506
48208,Wayne County,MI,57.07456978967495,68.38862559241706,79.06316536550744
48209,Wayne County,MI,57.265774378585085,69.00473933649289,55.57132718239887
48212,Wayne County,MI,56.787762906309744,54.691943127962084,82.61178140525195
48213,Wayne County,MI,72.27533460803059,49.81042654028436,86.16039744499645
48214,Wayne County,MI,NA,15.971563981042655,29.16962384669979
48215,Wayne County,MI,NA,71.18483412322276,NA
48220,Oakland County,MI,NA,88.15165876777252,38.89283179559971
48221,Wayne County,MI,NA,2.748815165876777,62.59758694109298
48223,Wayne County,MI,62.90630975143403,NA,95.17388218594748
48225,Wayne County,MI,NA,90.99526066350711,NA
48227,Wayne County,MI,17.11281070745698,45.639810426540286,16.252661462029806
48228,Wayne County,MI,66.92160611854685,23.981042654028435,84.95386799148332
48230,Wayne County,MI,NA,90.09478672985782,74.66288147622427
48234,Wayne County,MI,30.401529636711285,NA,NA
48235,Wayne County,MI,45.31548757170172,46.208530805687204,31.653655074520938
48236,Wayne County,MI,NA,93.41232227488152,6.67139815471966
48237,Oakland County,MI,NA,11.469194312796208,NA
48238,Wayne County,MI,22.37093690248566,NA,56.42299503193754
48239,Wayne County,MI,76.67304015296367,72.46445497630332,NA
48240,Wayne County,MI,81.45315487571702,NA,NA
48301,Oakland County,MI,NA,NA,66.71398154719658
48304,Oakland County,MI,NA,38.862559241706165,NA
48307,Oakland County,MI,NA,13.886255924170616,8.729595457771469
48312,Macomb County,MI,23.422562141491397,NA,5.180979418026969
48313,Macomb County,MI,NA,14.360189573459717,12.7750177430802
48314,Macomb County,MI,NA,76.49289099526067,16.323633782824697
48315,Macomb County,MI,NA,11.848341232227488,NA
48316,Macomb County,MI,NA,NA,11.710432931156848
48322,Oakland County,MI,NA,4.502369668246446,1.9162526614620299
48323,Oakland County,MI,NA,65.78199052132702,NA
48324,Oakland County,MI,61.47227533460803,NA,91.27040454222853
48326,Oakland County,MI,52.103250478011475,NA,NA
48331,Oakland County,MI,NA,13.601895734597155,NA
48335,Oakland County,MI,NA,NA,57.70049680624556
48336,Oakland County,MI,NA,NA,19.801277501774308
48341,Oakland County,MI,NA,30.23696682464455,NA
48356,Oakland County,MI,NA,75.2132701421801,99.64513839602554
48374,Oakland County,MI,NA,NA,90.56068133427964
48375,Oakland County,MI,51.91204588910134,NA,NA
48377,Oakland County,MI,67.01720841300191,NA,21.646557842441446
48380,Oakland County,MI,NA,89.478672985782,NA
48381,Oakland County,MI,93.21223709369025,92.27488151658768,96.23846699787083
48382,Oakland County,MI,NA,NA,50.17743080198722
48383,Oakland County,MI,NA,NA,84.03122782114976
48386,Oakland County,MI,NA,80.56872037914692,NA
48390,Oakland County,MI,NA,24.549763033175356,NA
48420,Genesee County,MI,46.65391969407266,NA,NA
48430,Genesee County,MI,NA,12.654028436018958,NA
48439,Genesee County,MI,11.376673040152964,NA,NA
48441,Huron County,MI,NA,NA,54.293825408090846
48450,Sanilac County,MI,96.17590822179733,NA,NA
48503,Genesee County,MI,NA,12.417061611374407,NA
48504,Genesee County,MI,69.69407265774379,NA,NA
48532,Genesee County,MI,36.90248565965583,27.677725118483416,NA
48603,Saginaw County,MI,NA,5.450236966824645,5.677785663591199
48626,Saginaw County,MI,NA,60.99526066350711,NA
48661,Ogemaw County,MI,NA,40.42654028436019,NA
48708,Bay County,MI,NA,45.87677725118483,NA
48730,Iosco County,MI,NA,NA,53.58410220014195
48836,Livingston County,MI,54.588910133843214,NA,NA
48843,Livingston County,MI,NA,NA,91.34137686302341
48854,Ingham County,MI,88.62332695984703,42.843601895734594,NA
48855,Livingston County,MI,75.04780114722753,NA,NA
48864,Ingham County,MI,NA,NA,47.622427253371185
48867,Shiawassee County,MI,28.011472275334608,NA,NA
48888,Montcalm County,MI,NA,69.95260663507109,NA
48911,Ingham County,MI,NA,8.530805687203792,NA
48917,Eaton County,MI,32.79158699808795,25.781990521327014,NA
49036,Branch County,MI,26.95984703632887,15.355450236966824,NA
49048,Kalamazoo County,MI,NA,20.14218009478673,NA
49058,Barry County,MI,NA,26.63507109004739,NA
49068,Calhoun County,MI,NA,32.18009478672986,NA
49120,Berrien County,MI,44.072657743785854,NA,NA
49201,Jackson County,MI,NA,2.227488151658768,4.68417317246274
49203,Jackson County,MI,NA,23.554502369668246,NA
49221,Lenawee County,MI,NA,2.1800947867298577,24.27253371185238
49230,Jackson County,MI,74.28298279158699,NA,NA
49265,Lenawee County,MI,NA,NA,97.51596877217885
49286,Lenawee County,MI,NA,82.79620853080569,29.240596167494676
49331,Kent County,MI,51.33843212237094,NA,NA
49349,Newaygo County,MI,NA,65.11848341232226,NA
49412,Newaygo County,MI,NA,NA,75.0887154009936
49417,Ottawa County,MI,NA,3.175355450236967,NA
49418,Kent County,MI,NA,50.758293838862556,NA
49423,Ottawa County,MI,NA,4.976303317535545,NA
49441,Muskegon County,MI,NA,1.5639810426540284,NA
49507,Kent County,MI,NA,14.976303317535544,NA
49508,Kent County,MI,NA,5.497630331753554,NA
49735,Otsego County,MI,NA,11.706161137440759,NA
49765,Presque Isle County,MI,NA,67.1563981042654,NA
49849,Marquette County,MI,NA,NA,61.036195883605394
49855,Marquette County,MI,NA,9.57345971563981,16.03974449964514
49868,Luce County,MI,NA,82.08530805687204,NA
49938,Gogebic County,MI,NA,NA,96.94819020581973
55009,Goodhue County,MN,NA,76.68246445497631,NA
55066,Goodhue County,MN,NA,NA,80.34066713981547
55079,Chisago County,MN,81.54875717017208,NA,NA
55102,Ramsey County,MN,28.20267686424474,NA,NA
55104,Ramsey County,MN,NA,NA,34.77643718949609
55108,Ramsey County,MN,NA,89.00473933649289,NA
55109,Ramsey County,MN,45.41108986615679,NA,NA
55112,Ramsey County,MN,NA,NA,11.426543647977288
55113,Ramsey County,MN,47.22753346080306,NA,46.983676366217175
55116,Ramsey County,MN,68.92925430210325,NA,NA
55117,Ramsey County,MN,NA,26.63507109004739,NA
55118,Dakota County,MN,NA,64.97630331753554,NA
55119,Ramsey County,MN,12.332695984703633,NA,NA
55124,Dakota County,MN,NA,27.677725118483416,NA
55125,Washington County,MN,NA,36.25592417061612,NA
55126,Ramsey County,MN,NA,NA,77.35982966643009
55130,Ramsey County,MN,49.90439770554494,NA,NA
55303,Anoka County,MN,NA,22.748815165876778,NA
55313,Wright County,MN,NA,NA,53.513129879347055
55337,Dakota County,MN,68.16443594646272,NA,NA
55347,Hennepin County,MN,95.79349904397706,89.90521327014218,NA
55352,Scott County,MN,NA,95.2132701421801,NA
55372,Scott County,MN,NA,NA,69.76579134137685
55403,Hennepin County,MN,56.59655831739961,NA,NA
55404,Hennepin County,MN,7.743785850860421,85.73459715639811,NA
55405,Hennepin County,MN,34.608030592734224,NA,NA
55407,Hennepin County,MN,NA,83.3175355450237,NA
55408,Hennepin County,MN,NA,NA,98.01277501774308
55409,Hennepin County,MN,NA,92.70142180094787,NA
55411,Hennepin County,MN,NA,88.29383886255924,65.72036905606812
55413,Hennepin County,MN,41.87380497131931,67.86729857819905,NA
55418,Hennepin County,MN,NA,59.47867298578199,NA
55419,Hennepin County,MN,NA,46.11374407582938,62.10078069552875
55421,Anoka County,MN,NA,32.98578199052133,NA
55423,Hennepin County,MN,NA,62.93838862559241,NA
55427,Hennepin County,MN,82.12237093690248,NA,NA
55432,Anoka County,MN,NA,31.516587677725116,NA
55433,Anoka County,MN,NA,41.04265402843602,NA
55442,Hennepin County,MN,NA,75.02369668246446,NA
55443,Hennepin County,MN,NA,31.84834123222749,93.54151880766501
55446,Hennepin County,MN,83.46080305927343,NA,NA
55449,Anoka County,MN,52.00764818355641,NA,NA
55720,Carlton County,MN,30.78393881453155,87.77251184834122,NA
55731,St. Louis County,MN,NA,86.35071090047394,NA
55734,St. Louis County,MN,NA,65.6872037914692,NA
55792,St. Louis County,MN,70.93690248565966,NA,15.40099361249113
55803,St. Louis County,MN,88.81453154875717,NA,74.23704755145494
55804,St. Louis County,MN,NA,NA,14.691270404542228
55805,St. Louis County,MN,94.26386233269598,NA,NA
55806,St. Louis County,MN,62.23709369024857,NA,92.1220723917672
55807,St. Louis County,MN,48.94837476099426,NA,NA
55808,St. Louis County,MN,96.65391969407266,NA,NA
55811,St. Louis County,MN,28.967495219885276,53.93364928909953,77.43080198722498
55812,St. Louis County,MN,NA,82.70142180094787,70.9013484740951
55901,Olmsted County,MN,NA,49.715639810426545,NA
55902,Olmsted County,MN,NA,NA,52.022711142654366
55904,Olmsted County,MN,71.03250478011472,25.497630331753555,NA
55912,Mower County,MN,5.831739961759083,59.57345971563981,35.98296664300923
55921,Houston County,MN,89.19694072657744,NA,50.03548616039745
55944,Dodge County,MN,90.82217973231359,NA,NA
55947,Houston County,MN,NA,46.58767772511848,NA
55976,Olmsted County,MN,NA,NA,66.57203690560681
55981,Wabasha County,MN,NA,90.14218009478672,NA
55987,Winona County,MN,53.441682600382414,30.66350710900474,70.75940383250531
56007,Freeborn County,MN,14.340344168260039,82.18009478672987,36.550745209368344
56013,Faribault County,MN,NA,97.6303317535545,NA
56031,Martin County,MN,NA,63.17535545023697,7.16820440028389
56071,Scott County,MN,NA,NA,99.50319375443577
56073,Brown County,MN,NA,NA,68.13342796309439
56093,Waseca County,MN,NA,NA,79.27608232789211
56143,Jackson County,MN,NA,90.37914691943128,NA
56156,Rock County,MN,NA,NA,25.05322924059617
56258,Lyon County,MN,76.09942638623328,41.65876777251185,31.511710432931157
56267,Stevens County,MN,NA,41.090047393364934,NA
56308,Douglas County,MN,NA,NA,21.149751596877216
56377,Stearns County,MN,78.20267686424475,81.27962085308057,NA
56464,Wadena County,MN,NA,85.68720379146919,NA
56501,Becker County,MN,NA,68.95734597156398,NA
56515,Otter Tail County,MN,NA,NA,54.08090844570618
56537,Otter Tail County,MN,NA,71.80094786729858,49.112845990063875
56560,Clay County,MN,1.338432122370937,49.5260663507109,18.594748048261177
56572,Otter Tail County,MN,94.5506692160612,55.07109004739337,NA
56601,Beltrami County,MN,NA,56.49289099526066,71.46912704045423
56621,Clearwater County,MN,NA,79.71563981042654,57.06174591909156
56633,Hubbard County,MN,95.50669216061185,NA,68.55926188786373
56649,Koochiching County,MN,91.39579349904398,NA,NA
38606,Panola County,MS,NA,69.28909952606635,NA
38614,Coahoma County,MS,NA,NA,59.545777146912705
38637,DeSoto County,MS,49.80879541108987,NA,NA
38751,Sunflower County,MS,NA,NA,78.63733144073811
38824,Prentiss County,MS,91.30019120458891,NA,NA
38829,Prentiss County,MS,NA,30.14218009478673,NA
38930,Leflore County,MS,NA,32.18009478672986,NA
39042,Rankin County,MS,NA,19.33649289099526,NA
39046,Madison County,MS,26.003824091778206,41.51658767772512,NA
39213,Hinds County,MS,NA,38.43601895734597,NA
39402,Lamar County,MS,NA,42.55924170616114,NA
39429,Marion County,MS,NA,82.46445497630332,NA
39455,Lamar County,MS,99.61759082217974,NA,NA
39470,Pearl River County,MS,93.69024856596559,NA,NA
39503,Harrison County,MS,NA,NA,23.13697657913414
39520,Hancock County,MS,NA,61.80094786729858,NA
39525,Hancock County,MS,NA,91.9431279620853,NA
39560,Harrison County,MS,NA,28.24644549763033,NA
39573,Stone County,MS,NA,NA,96.02555003548616
39667,Walthall County,MS,NA,NA,35.557132718239885
39701,Lowndes County,MS,NA,NA,94.96096522356281
63011,St. Louis County,MO,NA,NA,18.523775727466287
63017,St. Louis County,MO,NA,6.777251184834124,0.9226401703335699
63021,St. Louis County,MO,42.35181644359465,29.5260663507109,NA
63026,St. Louis County,MO,NA,NA,13.20085166784954
63031,St. Louis County,MO,NA,6.729857819905213,NA
63033,St. Louis County,MO,NA,7.677725118483412,NA
63042,St. Louis County,MO,46.749521988527725,NA,NA
63049,Jefferson County,MO,78.68068833652008,NA,NA
63069,Franklin County,MO,NA,77.91469194312796,NA
63106,St. Louis city,MO,NA,64.26540284360189,NA
63108,St. Louis city,MO,NA,NA,51.88076650106459
63120,St. Louis city,MO,NA,91.70616113744076,NA
63121,St. Louis County,MO,NA,36.492890995260666,NA
63125,St. Louis County,MO,NA,NA,55.9971611071682
63128,St. Louis County,MO,NA,14.170616113744074,NA
63135,St. Louis County,MO,29.82791586998088,NA,NA
63136,St. Louis County,MO,NA,5.924170616113744,NA
63138,St. Louis County,MO,NA,35.829383886255926,NA
63146,St. Louis County,MO,NA,NA,4.187366926898509
63301,St. Charles County,MO,NA,1.2796208530805688,NA
63501,Adair County,MO,NA,52.46445497630332,NA
63552,Macon County,MO,NA,NA,46.486870120652945
63601,St. Francois County,MO,NA,NA,55.287437899219306
64012,Cass County,MO,NA,NA,27.253371185237757
64030,Jackson County,MO,50.19120458891013,10.80568720379147,NA
64052,Jackson County,MO,NA,24.549763033175356,NA
64056,Jackson County,MO,23.80497131931166,NA,NA
64068,Clay County,MO,NA,3.9336492890995256,NA
64106,Jackson County,MO,26.38623326959847,NA,NA
64108,Jackson County,MO,NA,49.85781990521327,NA
64109,Jackson County,MO,NA,23.696682464454977,97.65791341376863
64110,Jackson County,MO,NA,60.85308056872037,NA
64111,Jackson County,MO,NA,33.649289099526065,NA
64114,Jackson County,MO,82.79158699808795,64.07582938388626,NA
64118,Clay County,MO,NA,4.407582938388625,NA
64119,Clay County,MO,NA,13.270142180094787,NA
64123,Jackson County,MO,NA,NA,91.12845990063875
64127,Jackson County,MO,4.780114722753346,24.786729857819907,91.4833215046132
64130,Jackson County,MO,5.162523900573614,NA,NA
64131,Jackson County,MO,43.78585086042065,NA,NA
64133,Jackson County,MO,NA,35.07109004739337,NA
64137,Jackson County,MO,77.34225621414915,NA,NA
64138,Jackson County,MO,72.848948374761,NA,22.853087295954577
64152,Platte County,MO,NA,24.265402843601898,NA
64154,Platte County,MO,NA,90.9478672985782,73.88218594748048
64155,Clay County,MO,NA,65.97156398104266,NA
64506,Buchanan County,MO,NA,4.075829383886256,NA
64633,Carroll County,MO,NA,75.59241706161137,NA
64735,Henry County,MO,NA,NA,26.68559261887864
64834,Jasper County,MO,NA,82.65402843601896,NA
65041,Gasconade County,MO,NA,80.61611374407583,NA
65201,Boone County,MO,NA,79.5260663507109,NA
65202,Boone County,MO,9.177820267686425,65.87677725118483,NA
65203,Boone County,MO,22.562141491395792,29.71563981042654,3.19375443577005
65233,Cooper County,MO,NA,NA,94.03832505322924
65251,Callaway County,MO,NA,NA,69.90773598296664
65265,Audrain County,MO,NA,45.45023696682464,NA
65270,Randolph County,MO,NA,28.672985781990523,NA
65340,Saline County,MO,33.269598470363285,NA,86.5152590489709
65441,Crawford County,MO,NA,NA,93.04471256210078
65459,Pulaski County,MO,98.75717017208413,NA,NA
65711,Wright County,MO,NA,NA,67.63662171753016
65712,Lawrence County,MO,NA,NA,84.24414478353442
65721,Christian County,MO,55.92734225621415,NA,NA
65738,Greene County,MO,NA,NA,61.95883605393896
65742,Webster County,MO,NA,87.39336492890996,47.90631653655075
65747,Barry County,MO,NA,94.3127962085308,NA
65802,Greene County,MO,9.27342256214149,NA,NA
65803,Greene County,MO,8.413001912045889,NA,NA
65804,Greene County,MO,NA,23.22274881516588,NA
65810,Greene County,MO,NA,NA,79.77288857345636
59047,Park County,MT,NA,NA,38.679914833215044
59101,Yellowstone County,MT,NA,66.39810426540285,NA
59102,Yellowstone County,MT,NA,NA,21.788502484031227
59405,Cascade County,MT,NA,9.85781990521327,NA
59501,Hill County,MT,NA,80.28436018957346,NA
59601,Lewis and Clark County,MT,NA,NA,13.76863023420866
59634,Jefferson County,MT,NA,90.23696682464455,NA
59801,Missoula County,MT,NA,NA,44.499645138396026
59937,Flathead County,MT,NA,60.047393364928915,NA
68005,Sarpy County,NE,NA,55.21327014218009,34.066713981547196
68046,Sarpy County,NE,NA,NA,65.43647977288857
68105,Douglas County,NE,70.74569789674953,NA,96.66430092264017
68111,Douglas County,NE,NA,23.459715639810426,45.56422995031937
68116,Douglas County,NE,NA,78.19905213270142,NA
68128,Sarpy County,NE,NA,62.796208530805686,NA
68133,Sarpy County,NE,96.36711281070745,NA,NA
68134,Douglas County,NE,NA,NA,74.87579843860894
68137,Douglas County,NE,NA,34.360189573459714,NA
68505,Lancaster County,NE,83.26959847036329,NA,NA
68506,Lancaster County,NE,NA,NA,78.85024840312278
68507,Lancaster County,NE,90.43977055449331,NA,NA
69341,Scotts Bluff County,NE,NA,NA,80.76650106458482
89107,Clark County,NV,NA,51.56398104265403,NA
89117,Clark County,NV,NA,59.90521327014218,NA
89131,Clark County,NV,NA,34.12322274881517,NA
89433,Washoe County,NV,NA,76.87203791469194,NA
89436,Washoe County,NV,NA,NA,66.07523066004258
89441,Washoe County,NV,81.35755258126196,NA,72.81760113555713
89506,Washoe County,NV,NA,20,82.11497515968772
89521,Washoe County,NV,NA,56.39810426540285,NA
89523,Washoe County,NV,NA,19.90521327014218,NA
89701,Carson City,NV,NA,NA,32.434350603264726
03031,Hillsborough County,NH,NA,NA,43.50603264726757
03051,Hillsborough County,NH,NA,NA,18.168914123491838
03054,Hillsborough County,NH,NA,10.66350710900474,NA
03060,Hillsborough County,NH,NA,51.469194312796205,11.071682044002838
03062,Hillsborough County,NH,NA,4.834123222748815,9.226401703335698
03076,Hillsborough County,NH,45.124282982791584,43.74407582938389,50.95812633073101
03103,Hillsborough County,NH,4.397705544933078,NA,NA
03257,Merrimack County,NH,99.52198852772467,NA,81.47622427253371
03431,Cheshire County,NH,NA,80.71090047393365,3.97444996451384
03446,Cheshire County,NH,NA,NA,78.92122072391767
03458,Hillsborough County,NH,NA,68.43601895734596,NA
03743,Sullivan County,NH,NA,27.345971563981042,NA
03755,Grafton County,NH,NA,92.65402843601895,80.97941802696948
03766,Grafton County,NH,NA,55.497630331753555,37.89921930447125
03833,Rockingham County,NH,37.18929254302103,NA,NA
03840,Rockingham County,NH,99.33078393881452,99.85781990521328,NA
03870,Rockingham County,NH,NA,79.90521327014218,NA
07011,Passaic County,NJ,NA,NA,76.5081618168914
07016,Union County,NJ,NA,65.54502369668246,NA
07017,Essex County,NJ,NA,37.29857819905214,NA
07036,Union County,NJ,NA,60.71090047393365,NA
07039,Essex County,NJ,NA,76.11374407582939,NA
07042,Essex County,NJ,NA,NA,36.97657913413769
07047,Hudson County,NJ,NA,NA,4.116394606103619
07050,Essex County,NJ,NA,20.4739336492891,NA
07055,Passaic County,NJ,NA,14.644549763033176,NA
07059,Somerset County,NJ,NA,92.8436018957346,NA
07065,Union County,NJ,NA,22.70142180094787,NA
07076,Union County,NJ,NA,NA,70.1916252661462
07080,Middlesex County,NJ,NA,46.11374407582938,NA
07087,Hudson County,NJ,NA,NA,55.21646557842441
07093,Hudson County,NJ,79.06309751434034,NA,NA
07103,Essex County,NJ,NA,37.156398104265406,NA
07104,Essex County,NJ,NA,1.6587677725118484,16.820440028388926
07107,Essex County,NJ,NA,2.4170616113744074,74.16607523066004
07108,Essex County,NJ,NA,41.090047393364934,NA
07202,Union County,NJ,NA,5.355450236966824,NA
07203,Union County,NJ,NA,87.06161137440759,76.72107877927608
07205,Union County,NJ,NA,NA,69.48190205819729
07208,Union County,NJ,NA,46.44549763033176,NA
07304,Hudson County,NJ,15.965583173996176,NA,NA
07305,Hudson County,NJ,NA,0.6635071090047393,NA
07306,Hudson County,NJ,NA,52.74881516587677,NA
07403,Passaic County,NJ,NA,NA,91.05748757984387
07410,Bergen County,NJ,NA,NA,23.846699787083036
07438,Morris County,NJ,NA,91.56398104265404,NA
07501,Passaic County,NJ,11.950286806883364,58.53080568720379,37.331440738112136
07502,Passaic County,NJ,NA,59.76303317535545,87.65081618168914
07601,Bergen County,NJ,NA,NA,59.19091554293825
07628,Bergen County,NJ,85.37284894837475,NA,NA
07631,Bergen County,NJ,NA,NA,39.88644428672818
07640,Bergen County,NJ,NA,NA,95.8126330731015
07648,Bergen County,NJ,NA,NA,92.76082327892122
07660,Bergen County,NJ,NA,74.45497630331754,NA
07661,Bergen County,NJ,NA,NA,67.4237047551455
07663,Bergen County,NJ,NA,65.92417061611374,NA
07701,Monmouth County,NJ,46.558317399617586,NA,NA
07712,Monmouth County,NJ,NA,2.890995260663507,NA
07726,Monmouth County,NJ,NA,68.19905213270142,NA
07728,Monmouth County,NJ,NA,69.14691943127961,NA
07730,Monmouth County,NJ,NA,66.96682464454976,NA
07731,Monmouth County,NJ,NA,28.056872037914694,NA
07748,Monmouth County,NJ,27.724665391969406,NA,NA
07750,Monmouth County,NJ,NA,99.57345971563981,NA
07753,Monmouth County,NJ,NA,NA,50.60326472675657
07762,Monmouth County,NJ,NA,NA,66.00425833924768
07843,Sussex County,NJ,NA,90.85308056872037,NA
07860,Sussex County,NJ,NA,80.23696682464455,NA
07882,Warren County,NJ,NA,NA,58.9070262597587
07901,Union County,NJ,NA,NA,88.99929027679205
07930,Morris County,NJ,NA,78.67298578199052,NA
07945,Morris County,NJ,NA,NA,88.50248403122782
07960,Morris County,NJ,18.164435946462714,NA,NA
08030,Camden County,NJ,20.26768642447419,NA,NA
08034,Camden County,NJ,NA,66.30331753554502,NA
08050,Ocean County,NJ,NA,NA,16.962384669978707
08075,Burlington County,NJ,NA,NA,48.474095102909864
08077,Burlington County,NJ,NA,50.99526066350711,NA
08080,Gloucester County,NJ,9.655831739961759,NA,NA
08105,Camden County,NJ,NA,NA,33.64088005677785
08110,Camden County,NJ,42.638623326959845,NA,NA
08204,Cape May County,NJ,NA,45.54502369668246,NA
08234,Atlantic County,NJ,NA,33.50710900473934,NA
08260,Cape May County,NJ,NA,NA,48.119233498935415
08270,Cape May County,NJ,NA,NA,86.72817601135557
08332,Cumberland County,NJ,NA,9.62085308056872,NA
08401,Atlantic County,NJ,NA,13.744075829383887,NA
08527,Ocean County,NJ,7.361376673040152,NA,NA
08530,Hunterdon County,NJ,NA,94.40758293838863,NA
08609,Mercer County,NJ,NA,57.677725118483416,NA
08618,Mercer County,NJ,NA,23.838862559241704,NA
08619,Mercer County,NJ,NA,43.838862559241704,NA
08629,Mercer County,NJ,NA,88.10426540284361,NA
08648,Mercer County,NJ,NA,62.18009478672985,39.460610361958835
08690,Mercer County,NJ,NA,NA,38.2540809084457
08701,Ocean County,NJ,NA,5.402843601895735,NA
08753,Ocean County,NJ,NA,1.943127962085308,NA
08759,Ocean County,NJ,8.69980879541109,NA,0
08816,Middlesex County,NJ,NA,48.72037914691943,NA
08817,Middlesex County,NJ,20.172084130019122,NA,NA
08820,Middlesex County,NJ,NA,67.96208530805687,NA
08831,Middlesex County,NJ,NA,5.118483412322275,NA
08848,Hunterdon County,NJ,97.22753346080306,NA,NA
08857,Middlesex County,NJ,66.34799235181644,NA,NA
87001,Sandoval County,NM,94.07265774378585,NA,NA
87024,Sandoval County,NM,98.08795411089865,NA,NA
87052,Sandoval County,NM,97.4187380497132,NA,NA
87102,Bernalillo County,NM,NA,NA,77.14691270404542
87105,Bernalillo County,NM,NA,NA,70.40454222853087
87107,Bernalillo County,NM,NA,66.11374407582939,NA
87109,Bernalillo County,NM,NA,8.767772511848342,NA
87111,Bernalillo County,NM,NA,52.08530805687204,NA
87112,Bernalillo County,NM,NA,5.639810426540285,2.48403122782115
87113,Bernalillo County,NM,NA,97.29857819905213,NA
87114,Bernalillo County,NM,31.54875717017208,NA,19.091554293825407
87120,Bernalillo County,NM,33.07839388145315,NA,NA
87121,Bernalillo County,NM,NA,20.71090047393365,NA
87122,Bernalillo County,NM,NA,57.72511848341232,NA
87123,Bernalillo County,NM,NA,2.2748815165876777,NA
87124,Sandoval County,NM,60.22944550669216,NA,NA
87144,Sandoval County,NM,NA,NA,70.47551454932577
87301,McKinley County,NM,NA,88.19905213270141,NA
87327,Cibola County,NM,69.02485659655831,NA,99.71611071682044
87328,McKinley County,NM,92.92543021032505,NA,NA
87401,San Juan County,NM,16.156787762906312,NA,NA
87416,San Juan County,NM,NA,99.00473933649289,NA
87420,San Juan County,NM,28.776290630975144,82.41706161137441,94.10929737402412
87506,Santa Fe County,NM,84.03441682600382,34.59715639810427,NA
87507,Santa Fe County,NM,67.11281070745699,NA,NA
87701,San Miguel County,NM,50.76481835564054,36.96682464454976,NA
88012,Doa Ana County,NM,NA,36.06635071090047,NA
88101,Curry County,NM,NA,3.6018957345971563,NA
10002,New York County,NY,NA,83.17535545023696,8.445706174591908
10009,New York County,NY,68.35564053537286,51.13744075829384,17.7430801987225
10011,New York County,NY,NA,NA,55.500354861603974
10012,New York County,NY,NA,75.49763033175356,NA
10013,New York County,NY,94.64627151051626,NA,41.8026969481902
10016,New York County,NY,NA,36.824644549763036,NA
10019,New York County,NY,NA,NA,46.69978708303761
10021,New York County,NY,NA,16.540284360189574,NA
10023,New York County,NY,NA,68.34123222748815,NA
10024,New York County,NY,NA,47.535545023696685,NA
10025,New York County,NY,NA,0.14218009478672985,41.589779985805535
10026,New York County,NY,NA,82.03791469194313,25.40809084457062
10027,New York County,NY,57.74378585086042,75.68720379146919,NA
10028,New York County,NY,82.69598470363289,82.70142180094787,NA
10029,New York County,NY,58.12619502868069,38.341232227488156,33.21504613200852
10030,New York County,NY,21.319311663479922,NA,NA
10031,New York County,NY,53.25047801147228,NA,83.25053229240596
10032,New York County,NY,NA,89.24170616113744,NA
10033,New York County,NY,15.105162523900573,73.2701421800948,8.800567778566359
10034,New York County,NY,NA,NA,96.3804116394606
10035,New York County,NY,NA,25.687203791469194,NA
10036,New York County,NY,36.233269598470365,33.459715639810426,43.15117104329312
10037,New York County,NY,NA,43.08056872037915,NA
10038,New York County,NY,NA,63.60189573459716,NA
10039,New York County,NY,NA,62.32227488151659,NA
10065,New York County,NY,NA,78.67298578199052,NA
10075,New York County,NY,NA,94.17061611374407,NA
10301,Richmond County,NY,14.627151051625239,NA,NA
10303,Richmond County,NY,NA,95.02369668246445,NA
10304,Richmond County,NY,43.21223709369025,NA,NA
10305,Richmond County,NY,NA,9.76303317535545,NA
10308,Richmond County,NY,NA,NA,60.539389638041165
10310,Richmond County,NY,NA,94.02843601895735,NA
10314,Richmond County,NY,62.619502868068835,NA,NA
10451,Bronx County,NY,15.487571701720842,21.51658767772512,65.43647977288857
10452,Bronx County,NY,78.39388145315488,83.69668246445498,80.90844570617459
10453,Bronx County,NY,85.46845124282983,89.33649289099526,57.771469127040454
10454,Bronx County,NY,47.32313575525813,20.900473933649288,52.16465578424414
10455,Bronx County,NY,81.83556405353728,86.58767772511848,NA
10456,Bronx County,NY,73.51816443594646,56.16113744075829,12.63307310149042
10457,Bronx County,NY,13.288718929254303,80.90047393364928,NA
10458,Bronx County,NY,3.154875717017208,41.279620853080566,74.4499645138396
10459,Bronx County,NY,83.36520076481835,61.943127962085306,NA
10460,Bronx County,NY,1.24282982791587,67.6303317535545,51.17104329311568
10461,Bronx County,NY,10.420650095602294,81.27962085308057,47.338537970191624
10462,Bronx County,NY,25.04780114722753,1.7061611374407581,4.471256210078069
10463,Bronx County,NY,89.0057361376673,49.28909952606635,13.058907026259758
10466,Bronx County,NY,NA,92.79620853080569,80.0567778566359
10467,Bronx County,NY,NA,66.35071090047393,9.084457061745919
10468,Bronx County,NY,NA,77.34597156398104,4.5422285308729595
10469,Bronx County,NY,50.47801147227533,58.199052132701425,69.55287437899219
10470,Bronx County,NY,NA,77.96208530805687,87.50887154009936
10471,Bronx County,NY,NA,NA,28.17601135557133
10472,Bronx County,NY,29.15869980879541,50.85308056872038,9.794180269694818
10473,Bronx County,NY,2.8680688336520075,79.95260663507109,86.79914833215047
10475,Bronx County,NY,23.23135755258126,6.113744075829384,3.8325053229240598
10550,Westchester County,NY,NA,15.118483412322275,NA
10553,Westchester County,NY,NA,99.24170616113744,98.65152590489708
10583,Westchester County,NY,NA,66.58767772511848,NA
10589,Westchester County,NY,NA,NA,36.337828246983676
10950,Orange County,NY,NA,97.77251184834124,NA
10960,Rockland County,NY,NA,NA,63.23633782824698
10984,Rockland County,NY,NA,87.72511848341232,NA
11003,Nassau County,NY,95.88910133843213,NA,83.46344925479063
11004,Queens County,NY,NA,95.16587677725119,NA
11050,Nassau County,NY,NA,NA,20.156139105748757
11103,Queens County,NY,NA,80.28436018957346,NA
11201,Kings County,NY,54.11089866156787,NA,NA
11203,Kings County,NY,NA,82.8436018957346,69.76579134137685
11204,Kings County,NY,NA,21.51658767772512,4.329311568488289
11205,Kings County,NY,NA,42.55924170616114,NA
11206,Kings County,NY,83.5564053537285,72.60663507109004,53.37118523775728
11207,Kings County,NY,32.504780114722756,68.72037914691943,71.6820440028389
11208,Kings County,NY,6.309751434034416,7.5829383886255926,72.17885024840312
11209,Kings County,NY,NA,11.943127962085308,34.27963094393186
11210,Kings County,NY,NA,45.308056872037916,NA
11211,Kings County,NY,65.00956022944551,62.03791469194313,NA
11212,Kings County,NY,65.20076481835564,35.260663507109,3.9034776437189493
11213,Kings County,NY,42.06500956022944,54.170616113744074,NA
11214,Kings County,NY,NA,30.047393364928908,NA
11216,Kings County,NY,59.08221797323135,NA,NA
11217,Kings County,NY,NA,NA,41.234918381831086
11218,Kings County,NY,15.583173996175908,35.73459715639811,NA
11219,Kings County,NY,NA,12.464454976303317,NA
11220,Kings County,NY,17.78202676864245,50.379146919431285,NA
11221,Kings County,NY,32.60038240917782,72.51184834123224,NA
11222,Kings County,NY,NA,52.13270142180095,91.76721078779276
11223,Kings County,NY,19.59847036328872,NA,NA
11224,Kings County,NY,NA,71.51658767772511,NA
11225,Kings County,NY,NA,87.67772511848341,NA
11226,Kings County,NY,2.294455066921606,92.55924170616113,6.529453513129879
11229,Kings County,NY,24.665391969407267,42.51184834123223,1.27750177430802
11230,Kings County,NY,NA,NA,3.4066713981547196
11233,Kings County,NY,38.81453154875717,59.62085308056872,62.029808374733854
11234,Kings County,NY,18.833652007648183,51.800947867298575,NA
11235,Kings County,NY,NA,8.341232227488153,18.949609652235626
11236,Kings County,NY,2.48565965583174,60.4739336492891,90.13484740951029
11237,Kings County,NY,58.030592734225614,69.90521327014217,86.23136976579134
11238,Kings County,NY,NA,56.06635071090047,NA
11239,Kings County,NY,87.85850860420649,NA,NA
11355,Queens County,NY,25.1434034416826,10.42654028436019,9.510290986515258
11356,Queens County,NY,NA,74.45497630331754,85.66359119943222
11358,Queens County,NY,NA,93.08056872037915,NA
11360,Queens County,NY,NA,71.09004739336493,NA
11365,Queens County,NY,NA,14.549763033175356,NA
11367,Queens County,NY,46.94072657743786,32.98578199052133,NA
11368,Queens County,NY,NA,39.57345971563981,NA
11369,Queens County,NY,NA,79.14691943127961,NA
11370,Queens County,NY,NA,51.65876777251185,NA
11372,Queens County,NY,NA,87.58293838862559,NA
11373,Queens County,NY,NA,9.431279620853081,NA
11374,Queens County,NY,89.2925430210325,67.20379146919431,63.09439318665721
11377,Queens County,NY,NA,9.194312796208532,NA
11385,Queens County,NY,69.40726577437859,51.04265402843602,NA
11411,Queens County,NY,92.73422562141491,63.08056872037915,NA
11417,Queens County,NY,88.43212237093691,38.24644549763033,NA
11419,Queens County,NY,NA,17.77251184834123,NA
11420,Queens County,NY,47.41873804971319,23.933649289099527,21.859474804826117
11421,Queens County,NY,67.59082217973231,NA,NA
11426,Queens County,NY,NA,97.01421800947867,82.32789212207238
11427,Queens County,NY,NA,NA,52.4485450674237
11429,Queens County,NY,NA,55.45023696682464,NA
11432,Queens County,NY,NA,24.075829383886255,NA
11433,Queens County,NY,77.62906309751433,86.82464454976304,NA
11434,Queens County,NY,NA,9.052132701421801,NA
11435,Queens County,NY,9.27342256214149,NA,19.446415897799856
11436,Queens County,NY,71.31931166347992,NA,NA
11510,Nassau County,NY,NA,29.194312796208532,NA
11520,Nassau County,NY,66.4435946462715,NA,NA
11550,Nassau County,NY,NA,80.52132701421802,NA
11553,Nassau County,NY,90.24856596558317,NA,NA
11566,Nassau County,NY,NA,34.360189573459714,NA
11580,Nassau County,NY,NA,NA,71.25621007806954
11691,Queens County,NY,NA,43.791469194312796,12.13626685592619
11704,Suffolk County,NY,NA,36.58767772511848,NA
11709,Nassau County,NY,NA,95.73459715639811,NA
11713,Suffolk County,NY,NA,91.80094786729858,NA
11717,Suffolk County,NY,NA,68.29383886255924,NA
11733,Suffolk County,NY,NA,77.58293838862559,NA
11746,Suffolk County,NY,NA,29.0521327014218,NA
11753,Nassau County,NY,NA,91.04265402843602,NA
11756,Nassau County,NY,57.93499043977055,NA,NA
11777,Suffolk County,NY,NA,NA,77.92760823278921
11801,Nassau County,NY,NA,38.341232227488156,NA
11933,Suffolk County,NY,NA,NA,57.274662881476225
12037,Columbia County,NY,NA,82.13270142180095,NA
12043,Schoharie County,NY,NA,60.52132701421801,53.72604684173172
12065,Saratoga County,NY,NA,10.33175355450237,NA
12078,Fulton County,NY,2.676864244741874,NA,NA
12157,Schoharie County,NY,NA,99.0521327014218,NA
12180,Rensselaer County,NY,NA,4.881516587677725,26.472675656493966
12182,Rensselaer County,NY,NA,38.62559241706161,NA
12184,Columbia County,NY,NA,76.68246445497631,86.44428672817601
12186,Albany County,NY,98.37476099426387,NA,NA
12304,Schenectady County,NY,NA,26.350710900473935,96.16749467707594
12306,Schenectady County,NY,NA,NA,64.44286728176012
12550,Orange County,NY,NA,42.93838862559242,NA
12754,Sullivan County,NY,NA,NA,78.28246983676365
12801,Warren County,NY,NA,NA,58.69410929737402
12803,Saratoga County,NY,70.17208413001912,NA,NA
12828,Washington County,NY,75.81261950286807,NA,NA
12866,Saratoga County,NY,NA,NA,5.25195173882186
12944,Essex County,NY,NA,96.35071090047393,NA
12946,Essex County,NY,NA,46.540284360189574,NA
13027,Onondaga County,NY,42.54302103250478,NA,NA
13035,Madison County,NY,NA,64.739336492891,NA
13066,Onondaga County,NY,69.78967495219885,NA,63.875088715401
13090,Onondaga County,NY,NA,NA,68.34634492547906
13126,Oswego County,NY,NA,3.3649289099526065,NA
13135,Oswego County,NY,85.8508604206501,NA,NA
13205,Onondaga County,NY,11.47227533460803,NA,31.156848828956708
13208,Onondaga County,NY,NA,26.066350710900476,NA
13209,Onondaga County,NY,NA,NA,60.18452803406671
13210,Onondaga County,NY,NA,59.38388625592417,NA
13308,Oneida County,NY,96.84512428298278,NA,NA
13316,Oneida County,NY,NA,54.21800947867299,NA
13323,Oneida County,NY,NA,70.28436018957346,NA
13326,Otsego County,NY,NA,44.88151658767773,NA
13329,Herkimer County,NY,NA,94.21800947867298,NA
13340,Herkimer County,NY,55.831739961759084,NA,NA
13346,Madison County,NY,67.68642447418738,NA,NA
13350,Herkimer County,NY,NA,83.7914691943128,NA
13365,Herkimer County,NY,NA,56.540284360189574,NA
13413,Oneida County,NY,NA,53.649289099526065,NA
13421,Madison County,NY,22.27533460803059,NA,NA
13439,Otsego County,NY,NA,98.24644549763033,NA
13492,Oneida County,NY,NA,36.25592417061612,NA
13617,St. Lawrence County,NY,NA,NA,81.26330731014905
13625,St. Lawrence County,NY,96.46271510516252,NA,NA
13662,St. Lawrence County,NY,NA,NA,25.975869410929736
13676,St. Lawrence County,NY,66.53919694072657,NA,NA
13733,Chenango County,NY,NA,48.76777251184834,NA
13815,Chenango County,NY,13.193116634799235,NA,52.80340667139816
13820,Otsego County,NY,33.93881453154876,43.459715639810426,NA
13827,Tioga County,NY,20.745697896749522,NA,NA
13830,Chenango County,NY,NA,65.260663507109,NA
13905,Broome County,NY,NA,NA,1.20652945351313
14020,Genesee County,NY,NA,7.535545023696683,NA
14063,Chautauqua County,NY,NA,68.1042654028436,NA
14075,Erie County,NY,6.596558317399618,NA,NA
14086,Erie County,NY,18.929254302103253,NA,NA
14094,Niagara County,NY,NA,NA,17.459190915542937
14120,Niagara County,NY,3.2504780114722758,NA,NA
14212,Erie County,NY,39.48374760994264,NA,NA
14213,Erie County,NY,NA,64.83412322274881,NA
14215,Erie County,NY,NA,3.9810426540284363,NA
14217,Erie County,NY,NA,11.563981042654028,NA
14225,Erie County,NY,32.026768642447415,9.66824644549763,NA
14226,Erie County,NY,NA,25.165876777251185,NA
14228,Erie County,NY,NA,NA,84.24414478353442
14305,Niagara County,NY,NA,NA,42.228530872959546
14411,Orleans County,NY,NA,28.76777251184834,NA
14414,Livingston County,NY,NA,68.0568720379147,NA
14420,Monroe County,NY,45.98470363288719,NA,NA
14432,Ontario County,NY,NA,37.725118483412324,75.7984386089425
14450,Monroe County,NY,NA,NA,3.0518097941802695
14456,Ontario County,NY,NA,18.246445497630333,NA
14467,Monroe County,NY,NA,71.99052132701422,NA
14470,Orleans County,NY,NA,43.17535545023697,84.59900638750887
14472,Monroe County,NY,NA,18.436018957345972,NA
14513,Wayne County,NY,3.72848948374761,NA,NA
14525,Genesee County,NY,NA,98.38862559241706,NA
14526,Monroe County,NY,13.957934990439771,NA,17.388218594748047
14534,Monroe County,NY,47.70554493307839,9.810426540284361,50.53229240596168
14543,Monroe County,NY,91.8738049713193,NA,NA
14551,Wayne County,NY,NA,55.26066350710901,NA
14559,Monroe County,NY,36.52007648183556,NA,NA
14569,Wyoming County,NY,67.30401529636711,NA,NA
14580,Monroe County,NY,0.47801147227533464,NA,NA
14605,Monroe County,NY,7.265774378585086,NA,NA
14606,Monroe County,NY,NA,52.796208530805686,NA
14608,Monroe County,NY,63.09751434034416,24.739336492890995,NA
14609,Monroe County,NY,3.4416826003824093,17.6303317535545,NA
14610,Monroe County,NY,28.107074569789674,67.29857819905213,NA
14611,Monroe County,NY,5.449330783938815,39.62085308056872,40.73811213626686
14612,Monroe County,NY,NA,0.2843601895734597,54.36479772888574
14615,Monroe County,NY,NA,56.72985781990521,NA
14616,Monroe County,NY,2.0076481835564053,NA,NA
14617,Monroe County,NY,4.97131931166348,34.02843601895735,NA
14618,Monroe County,NY,NA,30.90047393364929,8.87154009936125
14619,Monroe County,NY,43.49904397705545,NA,NA
14620,Monroe County,NY,NA,NA,26.827537260468414
14621,Monroe County,NY,0.28680688336520077,0.7109004739336493,NA
14623,Monroe County,NY,15.678776290630974,NA,NA
14624,Monroe County,NY,NA,0.6161137440758294,NA
14626,Monroe County,NY,NA,1.3744075829383886,NA
14701,Chautauqua County,NY,NA,NA,33.782824698367634
14706,Cattaraugus County,NY,NA,51.61137440758294,NA
14724,Chautauqua County,NY,NA,99.19431279620852,NA
14845,Chemung County,NY,NA,51.32701421800948,NA
14850,Tompkins County,NY,3.632887189292543,2.7014218009478674,NA
14871,Chemung County,NY,NA,85.97156398104265,NA
14904,Chemung County,NY,NA,64.21800947867298,NA
27006,Davie County,NC,NA,68.15165876777252,NA
27012,Forsyth County,NC,NA,16.113744075829384,24.698367636621718
27017,Surry County,NC,NA,34.78672985781991,NA
27021,Stokes County,NC,NA,20.85308056872038,NA
27023,Forsyth County,NC,NA,75.82938388625593,NA
27028,Davie County,NC,NA,4.597156398104266,NA
27030,Surry County,NC,NA,NA,19.30447125621008
27051,Forsyth County,NC,NA,NA,68.91412349183818
27053,Stokes County,NC,NA,NA,92.05110007097232
27103,Forsyth County,NC,NA,47.1563981042654,22.0014194464159
27104,Forsyth County,NC,27.820267686424476,3.2701421800947865,47.338537970191624
27105,Forsyth County,NC,NA,0.8056872037914692,NA
27106,Forsyth County,NC,11.567877629063098,45.21327014218009,60.61036195883606
27107,Forsyth County,NC,2.581261950286807,66.96682464454976,10.290986515259048
27127,Forsyth County,NC,NA,17.061611374407583,3.6905606813342797
27205,Randolph County,NC,NA,92.13270142180095,NA
27215,Alamance County,NC,8.221797323135755,NA,NA
27253,Alamance County,NC,NA,10.04739336492891,NA
27262,Guilford County,NC,NA,NA,84.88289567068843
27265,Guilford County,NC,NA,8.199052132701421,14.9041873669269
27278,Orange County,NC,NA,67.34597156398104,10.78779276082328
27284,Forsyth County,NC,27.246653919694076,48.24644549763033,NA
27292,Davidson County,NC,NA,6.872037914691943,2.55500354861604
27295,Davidson County,NC,NA,14.739336492890995,NA
27302,Alamance County,NC,99.4263862332696,NA,17.317246273953156
27312,Chatham County,NC,NA,86.01895734597157,NA
27320,Rockingham County,NC,NA,NA,1.4904187366926898
27344,Chatham County,NC,47.801147227533455,NA,NA
27360,Davidson County,NC,NA,1.9905213270142181,NA
27406,Guilford County,NC,NA,19.099526066350712,NA
27410,Guilford County,NC,NA,7.9620853080568725,NA
27502,Wake County,NC,NA,28.199052132701425,NA
27513,Wake County,NC,NA,40.52132701421801,38.53797019162526
27514,Orange County,NC,60.61185468451242,52.51184834123222,NA
27516,Orange County,NC,NA,NA,14.33640880056778
27517,Orange County,NC,NA,NA,80.48261178140525
27518,Wake County,NC,88.7189292543021,NA,NA
27519,Wake County,NC,49.4263862332696,72.65402843601896,NA
27522,Granville County,NC,NA,62.32227488151659,NA
27526,Wake County,NC,NA,14.075829383886257,NA
27529,Wake County,NC,22.94455066921606,NA,NA
27530,Wayne County,NC,13.766730401529637,13.175355450236967,NA
27537,Vance County,NC,NA,NA,32.789212207239174
27560,Wake County,NC,NA,71.56398104265402,79.20511000709723
27565,Granville County,NC,NA,NA,69.41092973740241
27569,Johnston County,NC,NA,NA,81.12136266855926
27572,Person County,NC,87.95411089866157,77.01421800947867,NA
27573,Person County,NC,NA,41.61137440758294,NA
27587,Wake County,NC,NA,5.165876777251185,NA
27604,Wake County,NC,NA,28.436018957345972,NA
27609,Wake County,NC,NA,21.84834123222749,NA
27610,Wake County,NC,NA,21.04265402843602,NA
27612,Wake County,NC,NA,26.540284360189574,NA
27613,Wake County,NC,NA,24.407582938388625,87.01206529453513
27614,Wake County,NC,NA,NA,34.563520227111425
27701,Durham County,NC,NA,76.30331753554502,NA
27703,Durham County,NC,8.891013384321225,NA,78.14052519517388
27704,Durham County,NC,NA,17.725118483412324,58.19730305180979
27705,Durham County,NC,NA,52.93838862559242,NA
27707,Durham County,NC,NA,NA,61.533002129169624
27712,Durham County,NC,NA,27.86729857819905,76.93399574166075
27713,Durham County,NC,76.19502868068834,NA,NA
27839,Halifax County,NC,NA,99.95260663507109,NA
27850,Halifax County,NC,NA,90.04739336492891,NA
27870,Halifax County,NC,NA,53.41232227488152,30.234208658623135
27889,Beaufort County,NC,NA,15.071090047393366,NA
27932,Chowan County,NC,NA,NA,27.324343506032644
27944,Perquimans County,NC,NA,37.867298578199055,NA
28025,Cabarrus County,NC,NA,NA,5.961674946770759
28054,Gaston County,NC,18.26003824091778,17.203791469194314,NA
28073,Cleveland County,NC,NA,84.64454976303317,NA
28078,Mecklenburg County,NC,30.49713193116635,NA,NA
28129,Stanly County,NC,95.50669216061185,NA,NA
28144,Rowan County,NC,NA,NA,38.11213626685593
28208,Mecklenburg County,NC,7.552581261950286,NA,NA
28211,Mecklenburg County,NC,NA,45.687203791469194,NA
28213,Mecklenburg County,NC,NA,38.67298578199052,NA
28215,Mecklenburg County,NC,NA,73.03317535545024,NA
28273,Mecklenburg County,NC,NA,NA,62.45564229950319
28301,Cumberland County,NC,NA,44.45497630331754,NA
28303,Cumberland County,NC,NA,NA,34.705464868701206
28304,Cumberland County,NC,NA,31.80094786729858,NA
28328,Sampson County,NC,33.55640535372849,NA,NA
28348,Cumberland County,NC,NA,27.345971563981042,NA
28372,Robeson County,NC,NA,50.52132701421801,NA
28379,Richmond County,NC,15.200764818355642,NA,NA
28387,Moore County,NC,NA,NA,34.35060326472676
28422,Brunswick County,NC,NA,NA,93.25762952448545
28425,Pender County,NC,NA,NA,89.21220723917672
28431,Columbus County,NC,NA,NA,76.15330021291696
28461,Brunswick County,NC,NA,4.028436018957346,NA
28539,Onslow County,NC,NA,95.45023696682465,NA
28625,Iredell County,NC,15.77437858508604,NA,NA
28645,Caldwell County,NC,NA,NA,10.007097232079488
28675,Alleghany County,NC,NA,70.71090047393365,NA
28677,Iredell County,NC,14.435946462715105,NA,NA
28697,Wilkes County,NC,64.81835564053537,44.45497630331754,NA
28714,Yancey County,NC,NA,NA,47.338537970191624
28716,Haywood County,NC,NA,63.270142180094794,NA
28741,Macon County,NC,NA,NA,80.62455642299503
28792,Henderson County,NC,NA,28.578199052132703,0.49680624556423
28804,Buncombe County,NC,NA,NA,54.57771469127041
58078,Cass County,ND,NA,8.293838862559241,41.16394606103619
58103,Cass County,ND,5.736137667304015,27.29857819905213,70.33356990773598
58104,Cass County,ND,29.923518164435947,73.8388625592417,31.866572036905605
58201,Grand Forks County,ND,NA,3.5545023696682465,NA
58203,Grand Forks County,ND,NA,NA,71.5400993612491
58554,Morton County,ND,NA,NA,30.092264017033354
58601,Stark County,ND,NA,55.87677725118484,NA
58701,Ward County,ND,NA,26.445497630331754,49.893541518807666
58703,Ward County,ND,NA,64.739336492891,NA
58763,Mountrail County,ND,NA,99.52606635071089,NA
58801,Williams County,ND,33.747609942638626,NA,NA
43015,Delaware County,OH,13.862332695984703,NA,NA
43017,Franklin County,OH,NA,59.19431279620853,NA
43021,Delaware County,OH,NA,NA,65.29453513129879
43026,Franklin County,OH,NA,13.033175355450238,NA
43028,Knox County,OH,NA,67.86729857819905,NA
43035,Delaware County,OH,NA,72.08530805687204,NA
43055,Licking County,OH,1.0516252390057361,NA,1.6323633782824698
43062,Licking County,OH,70.07648183556405,NA,NA
43065,Delaware County,OH,NA,17.819905213270143,NA
43068,Franklin County,OH,8.126195028680689,29.241706161137444,NA
43072,Champaign County,OH,NA,96.91943127962085,NA
43076,Perry County,OH,NA,67.48815165876778,NA
43081,Franklin County,OH,NA,50.23696682464455,15.40099361249113
43082,Delaware County,OH,NA,NA,27.963094393186655
43085,Franklin County,OH,66.73040152963671,79.85781990521326,69.97870830376152
43138,Hocking County,OH,NA,70.521327014218,NA
43147,Fairfield County,OH,NA,49.763033175355446,NA
43160,Fayette County,OH,NA,NA,76.86302342086586
43202,Franklin County,OH,80.21032504780115,NA,NA
43204,Franklin County,OH,NA,33.36492890995261,NA
43205,Franklin County,OH,NA,75.6398104265403,NA
43206,Franklin County,OH,NA,95.07109004739337,NA
43207,Franklin County,OH,NA,57.20379146919431,NA
43209,Franklin County,OH,49.043977055449325,NA,64.15897799858055
43211,Franklin County,OH,35.27724665391969,88.76777251184834,NA
43213,Franklin County,OH,7.934990439770555,NA,NA
43214,Franklin County,OH,49.330783938814534,NA,67.56564939673527
43219,Franklin County,OH,65.86998087954112,NA,NA
43220,Franklin County,OH,NA,70.9004739336493,NA
43221,Franklin County,OH,NA,NA,26.330731014904185
43224,Franklin County,OH,4.015296367112811,8.483412322274882,NA
43227,Franklin County,OH,20.84130019120459,NA,NA
43228,Franklin County,OH,34.03441682600382,NA,NA
43229,Franklin County,OH,4.875717017208412,47.06161137440758,NA
43230,Franklin County,OH,NA,NA,45.63520227111427
43232,Franklin County,OH,NA,NA,40.88005677785664
43235,Franklin County,OH,NA,94.59715639810426,NA
43302,Marion County,OH,13.575525812619501,NA,NA
43326,Hardin County,OH,NA,29.57345971563981,NA
43420,Sandusky County,OH,NA,NA,44.78353442157559
43506,Williams County,OH,NA,16.113744075829384,NA
43512,Defiance County,OH,NA,2.085308056872038,8.516678495386799
43526,Defiance County,OH,46.17590822179732,NA,NA
43560,Lucas County,OH,NA,35.92417061611374,NA
43605,Lucas County,OH,NA,75.97156398104265,NA
43612,Lucas County,OH,NA,NA,34.77643718949609
43613,Lucas County,OH,NA,15.308056872037914,NA
43614,Lucas County,OH,8.795411089866157,6.161137440758294,NA
43623,Lucas County,OH,NA,16.208530805687204,NA
43783,Perry County,OH,NA,NA,99.9290276792051
43793,Monroe County,OH,NA,NA,63.02342086586231
43938,Jefferson County,OH,NA,58.34123222748815,NA
43952,Jefferson County,OH,NA,NA,23.278921220723916
44001,Lorain County,OH,26.864244741873804,47.58293838862559,NA
44004,Ashtabula County,OH,44.83747609942639,NA,9.36834634492548
44011,Lorain County,OH,29.254302103250478,NA,29.737402413058906
44012,Lorain County,OH,81.93116634799236,NA,76.08232789212207
44022,Cuyahoga County,OH,NA,69.76303317535545,NA
44024,Geauga County,OH,NA,35.2132701421801,NA
44026,Geauga County,OH,NA,NA,52.519517388218595
44028,Lorain County,OH,NA,59.241706161137444,NA
44030,Ashtabula County,OH,NA,NA,77.50177430801988
44035,Lorain County,OH,23.32695984703633,25.876777251184834,1.5613910574875798
44039,Lorain County,OH,NA,55.829383886255926,NA
44044,Lorain County,OH,NA,NA,43.577004968062454
44050,Lorain County,OH,NA,69.47867298578198,NA
44052,Lorain County,OH,1.8164435946462716,51.8957345971564,NA
44053,Lorain County,OH,30.019120458891013,NA,NA
44054,Lorain County,OH,NA,85.59241706161137,NA
44057,Lake County,OH,NA,10.23696682464455,NA
44060,Lake County,OH,NA,NA,0.35486160397444994
44067,Summit County,OH,NA,10.995260663507109,7.73598296664301
44070,Cuyahoga County,OH,NA,19.14691943127962,37.75727466288147
44072,Geauga County,OH,NA,78.43601895734598,NA
44074,Lorain County,OH,NA,33.791469194312796,40.80908445706174
44076,Ashtabula County,OH,NA,69.62085308056872,NA
44077,Lake County,OH,NA,0.9004739336492891,0.42583392476933996
44087,Summit County,OH,NA,NA,66.57203690560681
44089,Erie County,OH,NA,28.104265402843602,50.39034776437189
44090,Lorain County,OH,NA,65.35545023696683,75.65649396735273
44094,Lake County,OH,17.590822179732314,NA,22.711142654364796
44102,Cuyahoga County,OH,43.59464627151052,26.587677725118485,7.310149041873669
44103,Cuyahoga County,OH,NA,32.03791469194313,NA
44104,Cuyahoga County,OH,37.76290630975143,73.69668246445498,40.17033356990773
44105,Cuyahoga County,OH,34.990439770554495,11.61137440758294,45.209368346344924
44106,Cuyahoga County,OH,34.512428298279154,76.96682464454976,74.52093683463448
44107,Cuyahoga County,OH,NA,29.620853080568722,4.9680624556423
44108,Cuyahoga County,OH,74.66539196940727,20.23696682464455,41.02200141944641
44109,Cuyahoga County,OH,0.19120458891013384,NA,63.37828246983677
44110,Cuyahoga County,OH,7.839388145315487,87.34597156398104,30.021291696238467
44111,Cuyahoga County,OH,0.8604206500956023,27.77251184834123,54.506742370475514
44112,Cuyahoga County,OH,52.39005736137668,35.355450236966824,NA
44113,Cuyahoga County,OH,6.118546845124283,78.05687203791469,76.15330021291696
44116,Cuyahoga County,OH,NA,80.9478672985782,21.930447125621008
44117,Cuyahoga County,OH,NA,NA,91.98012775017743
44118,Cuyahoga County,OH,72.94455066921606,63.88625592417062,37.970191625266146
44119,Cuyahoga County,OH,NA,94.83412322274881,NA
44120,Cuyahoga County,OH,69.50286806883366,45.07109004739336,48.33215046132008
44121,Cuyahoga County,OH,NA,NA,13.27182398864443
44122,Cuyahoga County,OH,75.1434034416826,86.49289099526067,52.87437899219305
44123,Cuyahoga County,OH,25.52581261950287,15.213270142180093,NA
44124,Cuyahoga County,OH,NA,0.9478672985781991,77.2888573456352
44125,Cuyahoga County,OH,NA,27.488151658767773,NA
44128,Cuyahoga County,OH,NA,49.24170616113744,79.4180269694819
44130,Cuyahoga County,OH,NA,16.872037914691944,NA
44132,Cuyahoga County,OH,21.988527724665392,NA,NA
44133,Cuyahoga County,OH,78.0114722753346,31.753554502369667,6.60042583392477
44134,Cuyahoga County,OH,NA,NA,17.885024840312276
44135,Cuyahoga County,OH,16.826003824091778,69.0521327014218,16.11071682044003
44136,Cuyahoga County,OH,25.812619502868067,4.691943127962086,NA
44137,Cuyahoga County,OH,24.091778202676863,83.60189573459715,18.310858765081615
44139,Cuyahoga County,OH,NA,54.3127962085308,9.013484740951029
44141,Cuyahoga County,OH,NA,75.30805687203791,NA
44142,Cuyahoga County,OH,NA,NA,10.50390347764372
44143,Cuyahoga County,OH,81.64435946462714,NA,NA
44144,Cuyahoga County,OH,61.5678776290631,NA,63.59119943222144
44145,Cuyahoga County,OH,88.14531548757171,NA,34.49254790631653
44146,Cuyahoga County,OH,NA,8.81516587677725,56.35202271114266
44147,Cuyahoga County,OH,NA,18.578199052132703,20.581973030518096
44149,Cuyahoga County,OH,NA,60.14218009478674,NA
44202,Portage County,OH,31.166347992351817,62.13270142180095,NA
44203,Summit County,OH,NA,61.137440758293835,NA
44212,Medina County,OH,NA,5.023696682464455,29.382540809084457
44230,Wayne County,OH,NA,NA,75.37260468417317
44236,Summit County,OH,NA,NA,26.89850958126331
44240,Portage County,OH,NA,63.55450236966824,11.994322214336409
44241,Portage County,OH,NA,13.412322274881516,NA
44255,Portage County,OH,NA,68.24644549763033,NA
44256,Medina County,OH,NA,3.6492890995260665,NA
44260,Portage County,OH,70.45889101338432,NA,NA
44266,Portage County,OH,NA,3.459715639810427,3.2647267565649396
44278,Summit County,OH,NA,31.04265402843602,NA
44303,Summit County,OH,NA,58.388625592417064,83.0376153300213
44306,Summit County,OH,NA,74.02843601895735,NA
44307,Summit County,OH,NA,79.19431279620854,NA
44310,Summit County,OH,8.604206500956023,13.933649289099526,86.08942512420155
44312,Summit County,OH,NA,5.545023696682464,NA
44313,Summit County,OH,63.5755258126195,NA,38.183108587650814
44314,Summit County,OH,NA,NA,92.61887863733143
44320,Summit County,OH,15.391969407265774,72.70142180094787,45.351312987934705
44333,Summit County,OH,NA,NA,26.969481902058195
44410,Trumbull County,OH,35.18164435946463,NA,NA
44460,Columbiana County,OH,NA,NA,14.549325762952448
44484,Trumbull County,OH,NA,7.0142180094786735,41.447835344215754
44485,Trumbull County,OH,NA,NA,25.691980127750174
44502,Mahoning County,OH,NA,84.50236966824644,NA
44614,Stark County,OH,NA,56.6350710900474,NA
44646,Stark County,OH,NA,6.966824644549763,11.213626685592619
44657,Stark County,OH,NA,49.38388625592417,NA
44685,Summit County,OH,NA,14.786729857819905,NA
44691,Wayne County,OH,NA,18.909952606635073,NA
44720,Stark County,OH,NA,NA,55.71327182398864
44805,Ashland County,OH,41.30019120458891,NA,NA
44851,Huron County,OH,NA,94.40758293838863,NA
44903,Richland County,OH,NA,11.374407582938389,NA
44906,Richland County,OH,NA,67.44075829383887,50.31937544357701
44907,Richland County,OH,73.90057361376672,NA,NA
45011,Butler County,OH,1.7208413001912046,NA,NA
45013,Butler County,OH,NA,14.502369668246445,NA
45039,Warren County,OH,NA,80.80568720379146,NA
45069,Butler County,OH,20.84130019120459,NA,NA
45152,Warren County,OH,NA,72.08530805687204,NA
45169,Clinton County,OH,NA,95.97156398104265,NA
45171,Brown County,OH,NA,77.77251184834122,NA
45174,Hamilton County,OH,100,NA,NA
45202,Hamilton County,OH,52.868068833652,82.51184834123222,NA
45205,Hamilton County,OH,NA,92.18009478672985,NA
45211,Hamilton County,OH,NA,53.55450236966824,NA
45212,Hamilton County,OH,64.24474187380497,NA,NA
45217,Hamilton County,OH,NA,90.56872037914691,NA
45223,Hamilton County,OH,NA,74.59715639810427,NA
45227,Hamilton County,OH,NA,66.77725118483411,NA
45229,Hamilton County,OH,28.393881453154872,NA,NA
45230,Hamilton County,OH,NA,35.59241706161138,NA
45231,Hamilton County,OH,6.21414913957935,NA,NA
45237,Hamilton County,OH,NA,14.597156398104266,NA
45239,Hamilton County,OH,NA,22.274881516587676,NA
45309,Montgomery County,OH,NA,47.29857819905213,NA
45342,Montgomery County,OH,NA,NA,13.76863023420866
45356,Miami County,OH,NA,6.682464454976303,NA
45383,Miami County,OH,NA,89.52606635071089,NA
45406,Montgomery County,OH,NA,64.31279620853081,NA
45409,Montgomery County,OH,NA,98.38862559241706,NA
45415,Montgomery County,OH,NA,77.1563981042654,NA
45424,Montgomery County,OH,NA,NA,24.627395315826828
45432,Greene County,OH,72.17973231357553,75.35545023696683,NA
45434,Greene County,OH,NA,57.58293838862559,NA
45449,Montgomery County,OH,NA,33.88625592417062,NA
45458,Montgomery County,OH,36.7112810707457,NA,NA
45601,Ross County,OH,NA,0,NA
45640,Jackson County,OH,NA,21.37440758293839,NA
45680,Lawrence County,OH,40.53537284894838,NA,59.545777146912705
45750,Washington County,OH,NA,3.6966824644549763,NA
45768,Washington County,OH,NA,99.38388625592417,NA
45895,Auglaize County,OH,NA,NA,61.39105748757985
73036,Canadian County,OK,NA,50.80568720379147,NA
73044,Logan County,OK,NA,7.867298578199051,NA
73075,Garvin County,OK,86.04206500956023,NA,NA
73086,Murray County,OK,72.37093690248567,NA,NA
73109,Oklahoma County,OK,NA,55.07109004739337,NA
73142,Oklahoma County,OK,NA,68.5308056872038,NA
73460,Johnston County,OK,NA,54.40758293838862,NA
73501,Comanche County,OK,57.361376673040155,NA,NA
73505,Comanche County,OK,21.03250478011472,9.5260663507109,NA
73507,Comanche County,OK,NA,53.74407582938389,NA
73527,Comanche County,OK,NA,99.90521327014218,NA
74006,Washington County,OK,NA,27.251184834123222,NA
74014,Wagoner County,OK,34.32122370936902,15.687203791469194,NA
74017,Rogers County,OK,NA,36.824644549763036,NA
74021,Tulsa County,OK,72.75334608030593,NA,NA
74029,Washington County,OK,NA,88.48341232227487,NA
74047,Tulsa County,OK,NA,90.56872037914691,NA
74063,Tulsa County,OK,NA,NA,84.66997870830376
74074,Payne County,OK,NA,28.53080568720379,NA
74115,Tulsa County,OK,NA,59.810426540284354,NA
74127,Tulsa County,OK,NA,54.59715639810426,NA
74128,Tulsa County,OK,NA,75.45023696682465,NA
74133,Tulsa County,OK,NA,13.364928909952607,NA
74136,Tulsa County,OK,NA,66.1611374407583,NA
74301,Craig County,OK,NA,86.6824644549763,NA
74331,Delaware County,OK,93.69024856596559,NA,NA
74344,Delaware County,OK,77.05544933078394,NA,NA
74352,Mayes County,OK,NA,NA,86.37331440738112
74361,Mayes County,OK,65.67877629063098,NA,NA
74365,Mayes County,OK,87.66730401529637,NA,NA
74436,Muskogee County,OK,NA,91.99052132701422,NA
74437,Okmulgee County,OK,NA,66.01895734597156,NA
74447,Okmulgee County,OK,NA,NA,31.724627395315824
74523,Pushmataha County,OK,NA,77.29857819905213,NA
74571,Le Flore County,OK,NA,81.61137440758294,NA
74631,Kay County,OK,NA,NA,73.52732434350602
74728,McCurtain County,OK,NA,NA,67.3527324343506
74745,McCurtain County,OK,NA,98.29383886255924,NA
74820,Pontotoc County,OK,NA,18.246445497630333,NA
74851,Pottawatomie County,OK,NA,57.345971563981045,NA
74859,Okfuskee County,OK,90.05736137667304,NA,NA
74948,Sequoyah County,OK,NA,89.76303317535546,NA
74960,Adair County,OK,NA,78.29383886255924,51.88076650106459
97004,Clackamas County,OR,NA,95.260663507109,NA
97005,Washington County,OR,48.2791586998088,85.02369668246446,NA
97007,Washington County,OR,NA,69.81042654028437,26.969481902058195
97008,Washington County,OR,NA,40.23696682464455,NA
97009,Clackamas County,OR,NA,NA,99.85805535841023
97015,Clackamas County,OR,53.82409177820268,NA,NA
97034,Clackamas County,OR,NA,88.43601895734598,25.26614620298084
97035,Clackamas County,OR,NA,50.4739336492891,NA
97055,Clackamas County,OR,NA,38.67298578199052,NA
97060,Multnomah County,OR,NA,32.3696682464455,NA
97062,Washington County,OR,60.133843212237096,NA,NA
97068,Clackamas County,OR,NA,87.25118483412322,NA
97070,Clackamas County,OR,NA,NA,23.775727466288146
97071,Marion County,OR,NA,NA,41.66075230660042
97080,Multnomah County,OR,NA,12.180094786729857,59.26188786373314
97086,Clackamas County,OR,NA,NA,90.70262597586941
97123,Washington County,OR,19.311663479923517,NA,NA
97124,Washington County,OR,NA,NA,18.80766501064585
97202,Multnomah County,OR,NA,NA,88.92831795599716
97203,Multnomah County,OR,NA,NA,92.40596167494677
97206,Multnomah County,OR,12.523900573613766,NA,NA
97209,Multnomah County,OR,NA,79.0995260663507,NA
97217,Multnomah County,OR,39.5793499043977,95.35545023696682,89.77998580553584
97219,Multnomah County,OR,NA,NA,42.37047551454933
97222,Clackamas County,OR,NA,72.98578199052133,30.872959545777146
97223,Washington County,OR,26.577437858508606,NA,NA
97224,Washington County,OR,NA,23.791469194312796,NA
97227,Multnomah County,OR,NA,99.81042654028435,NA
97229,Washington County,OR,70.55449330783938,NA,28.53087295954578
97230,Multnomah County,OR,56.21414913957935,7.914691943127962,NA
97232,Multnomah County,OR,NA,NA,97.30305180979418
97239,Multnomah County,OR,NA,85.92417061611374,45.91909155429382
97267,Clackamas County,OR,NA,27.014218009478675,NA
97302,Marion County,OR,NA,81.23222748815165,NA
97321,Linn County,OR,NA,NA,49.751596877217885
97322,Linn County,OR,12.715105162523901,NA,NA
97351,Polk County,OR,NA,73.93364928909952,NA
97367,Lincoln County,OR,NA,21.70616113744076,NA
97404,Lane County,OR,NA,35.308056872037916,NA
97405,Lane County,OR,NA,79.00473933649289,37.47338537970192
97411,Coos County,OR,NA,57.77251184834123,NA
97415,Curry County,OR,NA,16.303317535545023,NA
97477,Lane County,OR,NA,19.71563981042654,NA
97478,Lane County,OR,NA,NA,36.26685592618878
97479,Douglas County,OR,73.80497131931166,NA,NA
97603,Klamath County,OR,NA,2.7962085308056874,NA
97703,Deschutes County,OR,NA,NA,68.70120652945351
97801,Umatilla County,OR,NA,16.729857819905213,NA
97914,Malheur County,OR,75.62141491395793,NA,NA
15001,Beaver County,PA,NA,39.0521327014218,13.626685592618879
15017,Allegheny County,PA,NA,NA,39.460610361958835
15037,Allegheny County,PA,NA,NA,54.22285308729595
15045,Allegheny County,PA,NA,NA,97.72888573456352
15066,Beaver County,PA,NA,55.497630331753555,NA
15090,Allegheny County,PA,NA,NA,48.89992902767921
15104,Allegheny County,PA,70.8413001912046,NA,NA
15108,Allegheny County,PA,NA,NA,5.606813342796309
15132,Allegheny County,PA,NA,47.58293838862559,NA
15139,Allegheny County,PA,99.04397705544933,93.12796208530806,49.53867991483322
15146,Allegheny County,PA,NA,NA,19.94322214336409
15147,Allegheny County,PA,NA,NA,61.88786373314408
15201,Allegheny County,PA,NA,70.80568720379146,NA
15203,Allegheny County,PA,NA,NA,75.1596877217885
15210,Allegheny County,PA,NA,NA,37.331440738112136
15213,Allegheny County,PA,72.46653919694073,NA,NA
15216,Allegheny County,PA,NA,39.14691943127962,NA
15217,Allegheny County,PA,NA,13.507109004739338,13.555713271823988
15218,Allegheny County,PA,NA,NA,45.28034066713982
15219,Allegheny County,PA,NA,37.677725118483416,NA
15223,Allegheny County,PA,NA,73.93364928909952,NA
15227,Allegheny County,PA,NA,13.838862559241708,NA
15235,Allegheny County,PA,NA,9.09952606635071,26.117814052519517
15238,Allegheny County,PA,86.80688336520076,NA,NA
15239,Allegheny County,PA,NA,54.54976303317536,NA
15332,Washington County,PA,NA,87.86729857819905,NA
15601,Westmoreland County,PA,NA,0.23696682464454977,NA
15613,Westmoreland County,PA,NA,NA,54.93257629524485
15642,Westmoreland County,PA,NA,3.033175355450237,NA
15714,Cambria County,PA,NA,94.12322274881517,93.04471256210078
15767,Jefferson County,PA,79.25430210325047,NA,NA
15801,Clearfield County,PA,NA,42.13270142180095,44.996451383960256
15902,Cambria County,PA,42.25621414913958,NA,NA
16001,Butler County,PA,NA,0.5687203791469194,NA
16002,Butler County,PA,57.55258126195029,NA,NA
16066,Butler County,PA,NA,NA,28.601845280340665
16407,Erie County,PA,NA,54.691943127962084,NA
16441,Erie County,PA,NA,65.40284360189574,NA
16505,Erie County,PA,NA,44.834123222748815,NA
16506,Erie County,PA,NA,52.55924170616114,NA
16652,Huntingdon County,PA,NA,NA,12.491128459900638
16801,Centre County,PA,NA,NA,7.806955287437899
16803,Centre County,PA,62.4282982791587,NA,62.313697657913416
16823,Centre County,PA,19.88527724665392,NA,NA
16827,Centre County,PA,NA,81.70616113744076,NA
16830,Clearfield County,PA,NA,19.24170616113744,59.47480482611781
16841,Centre County,PA,NA,78.38862559241706,NA
16866,Centre County,PA,NA,84.739336492891,NA
17003,Lebanon County,PA,NA,NA,96.87721788502483
17020,Perry County,PA,NA,59.33649289099526,NA
17033,Dauphin County,PA,81.07074569789675,44.312796208530806,93.47054648687012
17036,Dauphin County,PA,21.892925430210326,30.75829383886256,92.1930447125621
17038,Lebanon County,PA,NA,NA,81.90205819730305
17044,Mifflin County,PA,NA,4.265402843601896,NA
17046,Lebanon County,PA,56.022944550669216,NA,89.70901348474095
17049,Juniata County,PA,NA,98.62559241706161,NA
17055,Cumberland County,PA,NA,NA,81.5471965933286
17057,Dauphin County,PA,NA,38.90995260663507,31.08587650816182
17067,Lebanon County,PA,NA,94.50236966824644,74.30801987224982
17070,Cumberland County,PA,43.977055449330784,NA,NA
17078,Lebanon County,PA,79.63671128107075,29.85781990521327,82.89567068843151
17103,Dauphin County,PA,NA,NA,85.52164655784244
17104,Dauphin County,PA,NA,25.260663507109005,NA
17109,Dauphin County,PA,NA,38.1042654028436,21.50461320085167
17110,Dauphin County,PA,NA,NA,30.660042583392478
17111,Dauphin County,PA,14.818355640535371,NA,NA
17112,Dauphin County,PA,15.965583173996176,NA,53.86799148332151
17113,Dauphin County,PA,NA,40.18957345971564,NA
17202,Franklin County,PA,NA,10,NA
17236,Franklin County,PA,NA,61.56398104265403,48.40312278211498
17257,Cumberland County,PA,NA,48.90995260663507,NA
17268,Franklin County,PA,16.730401529636712,NA,NA
17315,York County,PA,NA,8.530805687203792,NA
17322,York County,PA,91.68260038240918,NA,NA
17331,York County,PA,NA,0.18957345971563982,NA
17353,Adams County,PA,NA,95.781990521327,NA
17363,York County,PA,NA,54.45497630331754,63.875088715401
17403,York County,PA,NA,0.9952606635071091,NA
17404,York County,PA,10.038240917782026,NA,NA
17543,Lancaster County,PA,NA,6.303317535545023,NA
17552,Lancaster County,PA,NA,24.502369668246445,NA
17584,Lancaster County,PA,NA,NA,30.376153300212916
17601,Lancaster County,PA,NA,37.81990521327015,NA
17603,Lancaster County,PA,7.648183556405354,NA,NA
17701,Lycoming County,PA,2.9636711281070744,2.938388625592417,NA
17737,Lycoming County,PA,NA,NA,67.92051100070972
17752,Lycoming County,PA,NA,98.95734597156398,NA
17754,Lycoming County,PA,NA,66.82464454976304,NA
17777,Northumberland County,PA,NA,NA,64.37189496096522
17801,Northumberland County,PA,NA,64.36018957345972,NA
17814,Columbia County,PA,95.41108986615679,NA,NA
17815,Columbia County,PA,NA,29.47867298578199,8.58765081618169
17821,Montour County,PA,NA,35.97156398104266,45.706174591909154
17824,Northumberland County,PA,NA,97.48815165876778,NA
17837,Union County,PA,NA,63.317535545023695,NA
17844,Union County,PA,74.47418738049714,NA,NA
17847,Northumberland County,PA,NA,34.691943127962084,NA
17851,Northumberland County,PA,67.87762906309752,NA,NA
17872,Northumberland County,PA,NA,25.924170616113745,NA
18017,Northampton County,PA,NA,1.4691943127962086,NA
18020,Northampton County,PA,NA,19.38388625592417,NA
18040,Northampton County,PA,NA,80.99526066350711,NA
18045,Northampton County,PA,NA,NA,28.67281760113556
18051,Lehigh County,PA,NA,99.43127962085309,NA
18064,Northampton County,PA,NA,NA,60.82327892122073
18073,Montgomery County,PA,NA,NA,76.43718949609652
18104,Lehigh County,PA,NA,1.6113744075829384,32.22143364088006
18201,Luzerne County,PA,52.198852772466545,NA,21.00780695528744
18301,Monroe County,PA,NA,19.431279620853083,NA
18360,Monroe County,PA,NA,7.156398104265403,NA
18411,Lackawanna County,PA,NA,41.800947867298575,NA
18504,Lackawanna County,PA,NA,30.426540284360186,NA
18505,Lackawanna County,PA,NA,24.360189573459714,NA
18603,Columbia County,PA,NA,39.95260663507109,NA
18640,Luzerne County,PA,NA,21.70616113744076,NA
18644,Luzerne County,PA,NA,NA,66.21717530163235
18651,Luzerne County,PA,NA,72.93838862559242,NA
18655,Luzerne County,PA,97.89674952198853,NA,NA
18702,Luzerne County,PA,NA,17.488151658767773,NA
18704,Luzerne County,PA,NA,33.60189573459716,26.04684173172463
18705,Luzerne County,PA,NA,65.7345971563981,NA
18706,Luzerne County,PA,37.380497131931165,NA,NA
18707,Luzerne County,PA,NA,20.66350710900474,NA
18801,Susquehanna County,PA,92.35181644359464,53.127962085308056,NA
18925,Bucks County,PA,97.4187380497132,NA,NA
18951,Bucks County,PA,NA,NA,18.452803406671396
18976,Bucks County,PA,NA,NA,28.459900638750884
19003,Montgomery County,PA,NA,58.53080568720379,NA
19010,Delaware County,PA,57.83938814531548,29.00473933649289,NA
19018,Delaware County,PA,24.95219885277247,NA,NA
19023,Delaware County,PA,63.95793499043977,NA,NA
19027,Montgomery County,PA,42.92543021032505,23.080568720379148,NA
19038,Montgomery County,PA,NA,15.639810426540285,NA
19041,Delaware County,PA,NA,NA,87.79276082327893
19050,Delaware County,PA,NA,89.19431279620854,NA
19064,Delaware County,PA,NA,32.274881516587676,NA
19067,Bucks County,PA,NA,NA,6.742370475514549
19073,Delaware County,PA,NA,NA,40.17033356990773
19078,Delaware County,PA,NA,62.464454976303315,NA
19082,Delaware County,PA,35.94646271510516,NA,NA
19083,Delaware County,PA,NA,33.27014218009479,47.764371894960966
19086,Delaware County,PA,68.64244741873804,NA,NA
19087,Chester County,PA,51.434034416826,NA,77.85663591199432
19103,Philadelphia County,PA,NA,NA,47.26756564939674
19104,Philadelphia County,PA,9.082217973231357,85.54502369668246,86.01845280340667
19114,Philadelphia County,PA,17.97323135755258,82.98578199052132,NA
19120,Philadelphia County,PA,NA,21.658767772511847,NA
19121,Philadelphia County,PA,7.170172084130019,NA,NA
19123,Philadelphia County,PA,NA,62.70142180094786,NA
19131,Philadelphia County,PA,4.684512428298279,65.07109004739337,NA
19132,Philadelphia County,PA,4.493307839388145,NA,34.918381831085874
19134,Philadelphia County,PA,NA,8.056872037914692,NA
19136,Philadelphia County,PA,NA,17.10900473933649,NA
19138,Philadelphia County,PA,63.09751434034416,45.97156398104265,NA
19139,Philadelphia County,PA,19.407265774378583,74.17061611374407,42.93825408090844
19141,Philadelphia County,PA,NA,9.336492890995261,NA
19142,Philadelphia County,PA,NA,29.763033175355453,NA
19143,Philadelphia County,PA,6.405353728489484,54.83412322274882,NA
19146,Philadelphia County,PA,NA,47.25118483412322,NA
19147,Philadelphia County,PA,17.495219885277248,NA,NA
19149,Philadelphia County,PA,NA,18.72037914691943,NA
19150,Philadelphia County,PA,NA,77.72511848341233,60.75230660042583
19151,Philadelphia County,PA,12.619502868068832,10.52132701421801,49.96451383960255
19152,Philadelphia County,PA,NA,12.654028436018958,NA
19153,Philadelphia County,PA,NA,89.14691943127963,NA
19154,Philadelphia County,PA,NA,10.710900473933648,NA
19312,Chester County,PA,NA,34.360189573459714,NA
19355,Chester County,PA,NA,64.69194312796208,90.84457061745918
19380,Chester County,PA,NA,NA,1.7033356990773598
19382,Chester County,PA,NA,61.469194312796205,NA
19403,Montgomery County,PA,51.14722753346081,20.99526066350711,3.61958836053939
19406,Montgomery County,PA,NA,76.25592417061611,NA
19422,Montgomery County,PA,NA,93.22274881516589,84.3860894251242
19440,Montgomery County,PA,NA,90.33175355450237,NA
19446,Montgomery County,PA,NA,57.96208530805688,44.07381121362668
19464,Montgomery County,PA,NA,42.08530805687204,23.70475514549326
19468,Montgomery County,PA,NA,NA,33.569907735982966
19508,Berks County,PA,NA,NA,64.30092264017033
19547,Berks County,PA,NA,80.85308056872039,NA
19602,Berks County,PA,9.94263862332696,98.90995260663507,NA
19605,Berks County,PA,NA,NA,16.11071682044003
19606,Berks County,PA,NA,2.037914691943128,NA
19607,Berks County,PA,NA,NA,8.87154009936125
19608,Berks County,PA,NA,15.023696682464454,NA
19610,Berks County,PA,NA,23.317535545023695,NA
02814,Providence County,RI,NA,78.00947867298578,NA
02817,Kent County,RI,88.04971319311663,NA,NA
02830,Providence County,RI,NA,93.69668246445497,NA
02860,Providence County,RI,5.927342256214149,NA,2.62597586941093
02861,Providence County,RI,30.210325047801145,NA,NA
02888,Kent County,RI,50.66921606118547,NA,NA
02895,Providence County,RI,NA,50.142180094786724,NA
02905,Providence County,RI,NA,NA,42.725337118523775
02907,Providence County,RI,38.24091778202677,NA,NA
02909,Providence County,RI,NA,58.48341232227489,NA
02915,Providence County,RI,NA,73.41232227488152,NA
02919,Providence County,RI,NA,19.00473933649289,11.781405251951739
29048,Orangeburg County,SC,NA,NA,95.45777146912704
29070,Lexington County,SC,77.151051625239,NA,NA
29206,Richland County,SC,NA,88.5781990521327,NA
29209,Richland County,SC,NA,69.28909952606635,NA
29306,Spartanburg County,SC,NA,55.97156398104265,NA
29316,Spartanburg County,SC,NA,20.9478672985782,NA
29356,Spartanburg County,SC,NA,62.55924170616114,NA
29403,Charleston County,SC,43.021032504780116,NA,NA
29405,Charleston County,SC,25.430210325047803,78.43601895734598,NA
29407,Charleston County,SC,37.476099426386234,31.990521327014214,9.865152590489709
29412,Charleston County,SC,67.49521988527725,43.69668246445498,33.924769339957415
29418,Charleston County,SC,NA,46.77725118483412,NA
29440,Georgetown County,SC,NA,NA,20.156139105748757
29445,Berkeley County,SC,NA,16.350710900473935,NA
29455,Charleston County,SC,NA,92.3696682464455,26.756564939673527
29475,Colleton County,SC,99.7131931166348,NA,NA
29483,Dorchester County,SC,NA,12.369668246445498,NA
29486,Berkeley County,SC,59.65583173996176,NA,NA
29520,Chesterfield County,SC,NA,88.81516587677724,NA
29576,Horry County,SC,NA,NA,38.60894251242016
29577,Horry County,SC,NA,38.00947867298578,39.6735273243435
29588,Horry County,SC,NA,29.383886255924168,NA
29605,Greenville County,SC,NA,NA,18.80766501064585
29626,Anderson County,SC,NA,NA,44.14478353442158
29642,Pickens County,SC,NA,10.142180094786731,NA
29644,Greenville County,SC,80.59273422562141,NA,NA
29649,Greenwood County,SC,NA,NA,37.75727466288147
29651,Greenville County,SC,NA,34.73933649289099,NA
29673,Greenville County,SC,NA,11.27962085308057,NA
29680,Greenville County,SC,NA,19.81042654028436,NA
29691,Oconee County,SC,NA,74.07582938388626,NA
29693,Oconee County,SC,NA,61.27962085308057,NA
29707,Lancaster County,SC,NA,34.88151658767772,15.117104329311568
29801,Aiken County,SC,NA,33.22274881516588,NA
29803,Aiken County,SC,NA,48.29383886255924,11.56848828956707
29841,Aiken County,SC,NA,18.104265402843602,NA
29842,Aiken County,SC,NA,88.90995260663507,NA
29853,Barnwell County,SC,NA,96.54028436018957,NA
29907,Beaufort County,SC,NA,69.62085308056872,NA
29909,Beaufort County,SC,NA,9.66824644549763,NA
29926,Beaufort County,SC,NA,NA,24.911284599006386
29928,Beaufort County,SC,NA,NA,33.00212916962384
57006,Brookings County,SD,NA,64.54976303317535,NA
57069,Clay County,SD,86.9980879541109,NA,NA
57103,Minnehaha County,SD,NA,48.009478672985786,56.56493967352733
57104,Minnehaha County,SD,NA,3.4123222748815163,37.047551454932574
57105,Minnehaha County,SD,NA,NA,23.349893541518806
57106,Minnehaha County,SD,NA,21.895734597156398,37.26046841731724
57108,Lincoln County,SD,NA,12.796208530805686,NA
57110,Minnehaha County,SD,89.77055449330784,NA,23.420865862313697
57301,Davison County,SD,NA,NA,47.338537970191624
57701,Pennington County,SD,NA,39.09952606635071,NA
37013,Davidson County,TN,NA,NA,60.18452803406671
37022,Sumner County,TN,NA,85.78199052132702,NA
37027,Williamson County,TN,38.24091778202677,46.44549763033176,11.142654364797728
37043,Montgomery County,TN,34.13001912045889,NA,NA
37067,Williamson County,TN,NA,84.3127962085308,NA
37072,Davidson County,TN,NA,NA,48.261178140525196
37075,Sumner County,TN,15.009560229445507,3.5071090047393367,NA
37083,Macon County,TN,NA,57.29857819905213,NA
37085,Rutherford County,TN,98.47036328871893,NA,NA
37087,Wilson County,TN,49.1395793499044,NA,NA
37122,Wilson County,TN,NA,48.5781990521327,71.611071682044
37129,Rutherford County,TN,NA,19.620853080568722,NA
37130,Rutherford County,TN,NA,NA,26.18878637331441
37167,Rutherford County,TN,NA,15.829383886255924,NA
37188,Robertson County,TN,84.79923518164436,NA,NA
37203,Davidson County,TN,NA,NA,80.1277501774308
37204,Davidson County,TN,NA,NA,98.86444286728177
37205,Davidson County,TN,NA,71.61137440758294,NA
37206,Davidson County,TN,NA,63.507109004739334,93.89638041163946
37207,Davidson County,TN,10.611854684512428,18.53080568720379,87.50887154009936
37208,Davidson County,TN,60.51625239005736,NA,NA
37209,Davidson County,TN,NA,NA,48.474095102909864
37211,Davidson County,TN,NA,12.180094786729857,NA
37212,Davidson County,TN,NA,NA,93.89638041163946
37215,Davidson County,TN,NA,50.66350710900473,61.036195883605394
37216,Davidson County,TN,47.51434034416826,80,NA
37218,Davidson County,TN,92.63862332695984,59.526066350710906,NA
37221,Davidson County,TN,NA,NA,57.55855216465579
37324,Franklin County,TN,90.72657743785851,NA,NA
37343,Hamilton County,TN,NA,NA,47.05464868701206
37363,Hamilton County,TN,NA,91.89573459715639,NA
37367,Bledsoe County,TN,NA,51.70616113744075,NA
37379,Hamilton County,TN,NA,19.194312796208532,NA
37381,Rhea County,TN,NA,53.79146919431279,NA
37398,Franklin County,TN,NA,43.60189573459716,NA
37415,Hamilton County,TN,NA,44.78672985781991,77.50177430801988
37421,Hamilton County,TN,NA,18.009478672985782,NA
37604,Washington County,TN,18.451242829827915,NA,NA
37716,Anderson County,TN,NA,NA,46.77075940383251
37743,Greene County,TN,10.707456978967496,NA,50.88715400993612
37771,Loudon County,TN,NA,86.96682464454977,NA
37772,Loudon County,TN,NA,48.1042654028436,NA
37804,Blount County,TN,NA,11.27962085308057,NA
37814,Hamblen County,TN,30.30592734225621,NA,NA
37821,Cocke County,TN,NA,NA,25.762952448545068
37862,Sevier County,TN,NA,72.3696682464455,NA
37920,Knox County,TN,37.66730401529637,NA,NA
37931,Knox County,TN,NA,NA,43.43506032647267
38053,Shelby County,TN,NA,39.81042654028436,NA
38106,Shelby County,TN,NA,NA,73.10149041873669
38108,Shelby County,TN,NA,43.981042654028435,NA
38118,Shelby County,TN,NA,42.93838862559242,73.45635202271114
38127,Shelby County,TN,NA,76.1611374407583,NA
38134,Shelby County,TN,NA,74.07582938388626,NA
38242,Henry County,TN,NA,26.303317535545023,NA
38344,Carroll County,TN,90.34416826003823,NA,NA
38372,Hardin County,TN,NA,NA,60.89425124201562
38401,Maury County,TN,50.2868068833652,4.1232227488151665,NA
38462,Lewis County,TN,NA,69.19431279620854,NA
38501,Putnam County,TN,NA,NA,86.30234208658624
38555,Cumberland County,TN,NA,27.81990521327014,NA
75033,,TX,NA,56.77725118483412,NA
75040,Dallas County,TX,NA,70.14218009478674,NA
75042,Dallas County,TX,NA,51.94312796208531,NA
75043,Dallas County,TX,NA,61.090047393364934,NA
75044,Dallas County,TX,54.97131931166348,18.056872037914694,NA
75050,Dallas County,TX,NA,36.6350710900474,NA
75056,Denton County,TX,NA,NA,80.26969481902059
75061,Dallas County,TX,NA,NA,65.86231369765791
75062,Dallas County,TX,45.79349904397706,NA,NA
75075,Collin County,TX,NA,57.25118483412322,NA
75082,Collin County,TX,NA,NA,58.41022001419447
75115,Dallas County,TX,NA,12.132701421800949,NA
75134,Dallas County,TX,NA,62.55924170616114,NA
75149,Dallas County,TX,17.686424474187383,52.843601895734594,NA
75159,Dallas County,TX,89.38814531548758,NA,NA
75189,Rockwall County,TX,44.93307839388145,NA,NA
75203,Dallas County,TX,NA,55.87677725118484,NA
75205,Dallas County,TX,86.7112810707457,NA,NA
75212,Dallas County,TX,77.72466539196941,NA,37.6153300212917
75216,Dallas County,TX,NA,47.77251184834123,59.33286018452804
75217,Dallas County,TX,NA,26.872037914691944,NA
75223,Dallas County,TX,NA,NA,88.14762242725337
75224,Dallas County,TX,NA,78.62559241706161,NA
75228,Dallas County,TX,NA,12.843601895734597,NA
75229,Dallas County,TX,43.30783938814531,32.8436018957346,NA
75232,Dallas County,TX,NA,NA,44.14478353442158
75233,Dallas County,TX,73.23135755258127,NA,NA
75235,Dallas County,TX,NA,NA,72.81760113555713
75236,Dallas County,TX,64.1491395793499,NA,NA
75237,Dallas County,TX,94.16826003824092,63.93364928909953,NA
75238,Dallas County,TX,NA,82.3696682464455,NA
75241,Dallas County,TX,NA,22.274881516587676,44.14478353442158
75243,Dallas County,TX,NA,NA,27.963094393186655
75253,Dallas County,TX,66.73040152963671,NA,NA
75410,Wood County,TX,NA,NA,98.79347054648687
75497,Wood County,TX,98.8527724665392,NA,NA
75503,Bowie County,TX,NA,NA,17.530163236337827
75602,Gregg County,TX,60.038240917782026,NA,NA
75662,Gregg County,TX,53.82409177820268,NA,NA
75703,Smith County,TX,NA,34.360189573459714,0.8516678495386799
75766,Cherokee County,TX,NA,NA,20.794889992902768
75771,Smith County,TX,NA,18.62559241706161,9.155429382540808
75791,Smith County,TX,NA,30.09478672985782,NA
75803,Anderson County,TX,66.1567877629063,NA,NA
75965,Nacogdoches County,TX,NA,NA,46.27395315826828
76010,Tarrant County,TX,68.54684512428298,41.37440758293839,NA
76016,Tarrant County,TX,NA,15.165876777251185,NA
76017,Tarrant County,TX,30.11472275334608,NA,NA
76021,Tarrant County,TX,68.83365200764818,NA,NA
76053,Tarrant County,TX,NA,56.96682464454976,NA
76063,Tarrant County,TX,NA,NA,11.355571327182398
76084,Johnson County,TX,NA,95.6872037914692,NA
76105,Tarrant County,TX,71.51051625239006,66.54028436018957,NA
76106,Tarrant County,TX,NA,44.12322274881517,NA
76107,Tarrant County,TX,NA,NA,48.1902058197303
76110,Tarrant County,TX,42.35181644359465,NA,NA
76114,Tarrant County,TX,NA,40.9478672985782,NA
76115,Tarrant County,TX,NA,60.33175355450236,NA
76119,Tarrant County,TX,74.8565965583174,25.118483412322274,NA
76123,Tarrant County,TX,47.13193116634799,NA,NA
76126,Tarrant County,TX,NA,60.71090047393365,57.84244144783535
76131,Tarrant County,TX,NA,50.52132701421801,NA
76132,Tarrant County,TX,NA,NA,68.84315117104329
76133,Tarrant County,TX,NA,44.88151658767773,NA
76134,Tarrant County,TX,24.5697896749522,97.1563981042654,NA
76164,Tarrant County,TX,NA,59.90521327014218,NA
76177,Tarrant County,TX,94.83747609942638,NA,NA
76501,Bell County,TX,44.55066921606118,41.32701421800948,19.8722498225692
76502,Bell County,TX,NA,0.09478672985781991,37.189496096522355
76504,Bell County,TX,8.317399617590821,NA,17.601135557132718
76513,Bell County,TX,NA,61.23222748815166,6.31653655074521
76528,Coryell County,TX,NA,NA,16.60752306600426
76541,Bell County,TX,NA,30.947867298578196,41.234918381831086
76542,Bell County,TX,NA,NA,70.97232079489
76543,Bell County,TX,NA,12.274881516587678,3.7615330021291693
76548,Bell County,TX,NA,10.04739336492891,29.098651525904895
76549,Bell County,TX,NA,NA,81.40525195173882
76571,Bell County,TX,NA,93.74407582938389,NA
76574,Williamson County,TX,NA,NA,29.31156848828957
76634,Bosque County,TX,NA,NA,97.58694109297375
76643,McLennan County,TX,NA,78.67298578199052,NA
76655,McLennan County,TX,NA,90.18957345971565,NA
76657,McLennan County,TX,NA,NA,90.63165365507452
76661,Falls County,TX,NA,NA,88.07665010645847
76691,McLennan County,TX,NA,99.28909952606635,NA
76704,McLennan County,TX,NA,97.58293838862559,NA
76705,McLennan County,TX,84.7036328871893,63.45971563981042,NA
76708,McLennan County,TX,NA,96.06635071090047,74.59190915542938
76710,McLennan County,TX,NA,30.379146919431278,NA
76712,McLennan County,TX,NA,86.44549763033176,55.71327182398864
76903,Tom Green County,TX,NA,NA,32.36337828246983
77004,Harris County,TX,NA,NA,54.57771469127041
77009,Harris County,TX,NA,25.308056872037916,93.68346344925479
77011,Harris County,TX,NA,86.63507109004739,NA
77016,Harris County,TX,NA,NA,31.58268275372605
77018,Harris County,TX,NA,NA,53.93896380411639
77019,Harris County,TX,72.56214149139579,NA,NA
77021,Harris County,TX,82.50478011472275,60.28436018957346,36.62171753016323
77022,Harris County,TX,55.64053537284895,NA,40.38325053229241
77026,Harris County,TX,NA,96.2085308056872,51.45493257629524
77032,Harris County,TX,NA,NA,99.71611071682044
77033,Harris County,TX,93.97705544933078,NA,NA
77035,Harris County,TX,40.152963671128106,NA,NA
77043,Harris County,TX,NA,67.1090047393365,NA
77047,Harris County,TX,91.01338432122371,NA,97.79985805535841
77048,Harris County,TX,89.96175908221798,NA,NA
77051,Harris County,TX,NA,44.644549763033176,NA
77053,Fort Bend County,TX,NA,92.8436018957346,NA
77057,Harris County,TX,NA,43.93364928909953,NA
77058,Harris County,TX,NA,71.27962085308057,NA
77061,Harris County,TX,NA,70.61611374407583,NA
77063,Harris County,TX,NA,NA,97.8708303761533
77071,Harris County,TX,96.94072657743786,NA,NA
77072,Harris County,TX,NA,71.4218009478673,NA
77075,Harris County,TX,50.860420650095605,NA,NA
77084,Harris County,TX,39.77055449330784,NA,NA
77085,Harris County,TX,NA,NA,95.59971611071683
77093,Harris County,TX,NA,39.383886255924175,42.29950319375443
77095,Harris County,TX,NA,32.796208530805686,NA
77099,Harris County,TX,NA,NA,84.17317246273953
77373,Harris County,TX,NA,NA,59.75869410929737
77429,Harris County,TX,NA,1.8483412322274881,NA
77449,Harris County,TX,NA,49.00473933649289,NA
77477,Fort Bend County,TX,NA,80.4739336492891,NA
77478,Fort Bend County,TX,NA,NA,69.26898509581262
77484,Waller County,TX,NA,70.09478672985782,NA
77488,Wharton County,TX,NA,69.28909952606635,NA
77498,Fort Bend County,TX,NA,39.47867298578199,NA
77504,Harris County,TX,NA,NA,63.804116394606105
77511,Brazoria County,TX,14.149139579349903,7.298578199052133,NA
77514,Chambers County,TX,96.5583173996176,NA,NA
77518,Galveston County,TX,90.53537284894837,NA,NA
77539,Galveston County,TX,NA,6.540284360189573,NA
77550,Galveston County,TX,NA,57.10900473933649,94.25124201561391
77551,Galveston County,TX,60.9942638623327,50.426540284360186,78.77927608232788
77554,Galveston County,TX,NA,32.41706161137441,94.18026969481902
77563,Galveston County,TX,NA,83.88625592417061,85.45067423704755
77565,Galveston County,TX,NA,NA,95.8126330731015
77568,Galveston County,TX,NA,51.18483412322274,76.01135557132717
77573,Galveston County,TX,NA,49.66824644549763,75.58552164655784
77590,Galveston County,TX,NA,7.630331753554502,NA
77591,Galveston County,TX,56.50095602294455,NA,94.46415897799858
77640,Jefferson County,TX,NA,80.75829383886256,NA
77642,Jefferson County,TX,NA,21.421800947867297,NA
77662,Orange County,TX,44.45506692160612,NA,NA
77706,Jefferson County,TX,48.66156787762906,NA,NA
77713,Jefferson County,TX,NA,78.43601895734598,NA
77801,Brazos County,TX,NA,NA,100
77802,Brazos County,TX,NA,12.322274881516588,87.43789921930447
77803,Brazos County,TX,NA,NA,73.31440738112136
77879,Burleson County,TX,NA,92.93838862559241,NA
77901,Victoria County,TX,NA,13.554502369668247,NA
77964,Lavaca County,TX,NA,60.71090047393365,NA
77995,Lavaca County,TX,NA,64.02843601895735,NA
78040,Webb County,TX,NA,NA,60.46841731724627
78043,Webb County,TX,NA,18.48341232227488,NA
78046,Webb County,TX,14.244741873804973,85.49763033175356,NA
78076,Zapata County,TX,87.38049713193116,NA,NA
78109,Bexar County,TX,NA,93.3175355450237,NA
78130,Comal County,TX,NA,43.838862559241704,NA
78201,Bexar County,TX,NA,12.748815165876778,29.8083747338538
78211,Bexar County,TX,NA,46.682464454976305,NA
78214,Bexar County,TX,65.48757170172084,NA,NA
78216,Bexar County,TX,42.829827915869984,NA,NA
78249,Bexar County,TX,NA,NA,61.24911284599006
78250,Bexar County,TX,NA,41.65876777251185,NA
78264,Bexar County,TX,86.32887189292543,NA,NA
78363,Kleberg County,TX,59.46462715105163,NA,NA
78374,San Patricio County,TX,NA,92.32227488151659,NA
78413,Nueces County,TX,NA,NA,53.1582682753726
78516,Hidalgo County,TX,NA,37.6303317535545,NA
78526,Cameron County,TX,NA,50.33175355450237,NA
78542,Hidalgo County,TX,NA,17.677725118483412,NA
78574,Hidalgo County,TX,NA,NA,29.879347054648687
78586,Cameron County,TX,NA,32.70142180094787,NA
78596,Hidalgo County,TX,NA,NA,23.562810503903478
78611,Burnet County,TX,NA,78.95734597156398,NA
78617,Travis County,TX,NA,81.65876777251185,NA
78621,Bastrop County,TX,NA,83.03317535545024,NA
78628,Williamson County,TX,NA,79.0521327014218,73.17246273953158
78633,Williamson County,TX,95.69789674952199,19.66824644549763,57.20369056068133
78639,Llano County,TX,NA,31.37440758293839,NA
78641,Williamson County,TX,NA,10.90047393364929,NA
78654,Burnet County,TX,NA,62.227488151658775,NA
78657,Llano County,TX,NA,53.127962085308056,NA
78660,Travis County,TX,24.47418738049713,NA,NA
78664,Williamson County,TX,NA,89.38388625592417,15.613910574875797
78681,Williamson County,TX,NA,NA,49.82256919801277
78727,Travis County,TX,NA,83.08056872037915,NA
78734,Travis County,TX,NA,NA,98.50958126330731
78744,Travis County,TX,65.67877629063098,NA,NA
78840,Val Verde County,TX,NA,NA,5.819730305180979
78861,Medina County,TX,NA,77.1090047393365,NA
78934,Colorado County,TX,97.32313575525812,NA,NA
78956,Fayette County,TX,NA,87.96208530805687,94.60610361958835
79403,Lubbock County,TX,NA,NA,71.04329311568488
79701,Midland County,TX,NA,52.98578199052133,NA
79705,Midland County,TX,NA,22.274881516587676,NA
79765,Ector County,TX,71.89292543021033,NA,NA
79907,El Paso County,TX,NA,NA,21.220723917672107
79922,El Paso County,TX,NA,99.76303317535546,NA
79927,El Paso County,TX,NA,48.62559241706161,NA
79935,El Paso County,TX,NA,66.44549763033176,NA
79938,El Paso County,TX,NA,51.94312796208531,NA
84010,Davis County,UT,NA,NA,15.259048970901349
84015,Davis County,UT,NA,95.40284360189574,NA
84020,Salt Lake County,UT,NA,NA,90.48970901348474
84044,Salt Lake County,UT,76.5774378585086,NA,NA
84047,Salt Lake County,UT,NA,32.55924170616113,98.36763662171752
84058,Utah County,UT,NA,93.12796208530806,NA
84087,Davis County,UT,NA,NA,98.72249822569198
84088,Salt Lake County,UT,NA,85.11848341232228,NA
84092,Salt Lake County,UT,NA,93.03317535545024,NA
84094,Salt Lake County,UT,NA,34.21800947867298,58.48119233498935
84095,Salt Lake County,UT,NA,NA,63.307310149041875
84098,Summit County,UT,NA,34.312796208530806,NA
84102,Salt Lake County,UT,NA,80.09478672985783,60.18452803406671
84103,Salt Lake County,UT,NA,NA,89.28317955997161
84104,Salt Lake County,UT,46.749521988527725,NA,93.6124911284599
84106,Salt Lake County,UT,NA,71.04265402843602,16.536550745209368
84109,Salt Lake County,UT,NA,71.84834123222748,NA
84111,Salt Lake County,UT,NA,92.41706161137441,NA
84115,Salt Lake County,UT,36.32887189292543,NA,NA
84117,Salt Lake County,UT,NA,NA,56.281050390347765
84119,Salt Lake County,UT,NA,26.208530805687204,NA
84120,Salt Lake County,UT,6.022944550669216,NA,NA
84121,Salt Lake County,UT,NA,71.75355450236967,NA
84123,Salt Lake County,UT,NA,26.824644549763033,NA
84124,Salt Lake County,UT,80.68833652007649,NA,38.89283179559971
84404,Weber County,UT,NA,26.018957345971565,NA
84405,Weber County,UT,NA,49.09952606635071,NA
84414,Weber County,UT,NA,97.34597156398104,NA
84664,Utah County,UT,99.23518164435946,NA,NA
84790,Washington County,UT,43.40344168260038,NA,NA
05060,Orange County,VT,NA,NA,98.43860894251242
05089,Windsor County,VT,NA,NA,93.18665720369056
05091,Windsor County,VT,NA,97.91469194312796,95.6706884315117
05156,Windsor County,VT,86.52007648183556,NA,NA
05401,Chittenden County,VT,NA,83.22274881516589,90.34776437189495
05403,Chittenden County,VT,64.72275334608031,NA,70.26259758694108
05404,Chittenden County,VT,NA,94.50236966824644,NA
05408,Chittenden County,VT,83.8432122370937,66.72985781990522,69.12704045422285
05446,Chittenden County,VT,64.81835564053537,29.95260663507109,53.30021291696239
05450,Franklin County,VT,NA,NA,92.902767920511
05452,Chittenden County,VT,NA,24.170616113744074,NA
05468,Chittenden County,VT,NA,88.34123222748815,47.977288857345634
05478,Franklin County,VT,82.21797323135756,21.943127962085306,NA
05482,Chittenden County,VT,NA,NA,46.486870120652945
05676,Washington County,VT,NA,98.1516587677725,NA
05701,Rutland County,VT,36.32887189292543,86.77725118483413,NA
05733,Rutland County,VT,NA,93.45971563981043,NA
05753,Addison County,VT,NA,NA,76.5791341376863
20112,Prince William County,VA,NA,67.25118483412322,NA
20175,Loudoun County,VA,NA,NA,33.286018452803404
20190,Fairfax County,VA,NA,NA,90.41873669268985
22003,Fairfax County,VA,NA,16.682464454976305,NA
22102,Fairfax County,VA,NA,NA,69.05606813342796
22150,Fairfax County,VA,NA,NA,48.82895670688431
22180,Fairfax County,VA,NA,71.37440758293839,NA
22193,Prince William County,VA,12.237093690248566,NA,NA
22206,Arlington County,VA,NA,86.35071090047394,NA
22207,Arlington County,VA,NA,30.33175355450237,NA
22304,Alexandria city,VA,13.671128107074571,NA,NA
22314,Alexandria city,VA,29.44550669216061,70.33175355450237,NA
22556,Stafford County,VA,73.4225621414914,NA,NA
22655,Frederick County,VA,59.56022944550669,NA,NA
22701,Culpeper County,VA,NA,10.947867298578199,NA
22801,Harrisonburg city,VA,NA,NA,14.762242725337119
22802,Harrisonburg city,VA,58.41300191204589,NA,NA
22835,Page County,VA,NA,38.056872037914694,NA
22853,Rockingham County,VA,94.74187380497132,NA,NA
22901,Albemarle County,VA,NA,69.28909952606635,26.54364797728886
22902,Charlottesville city,VA,NA,88.72037914691943,27.608232789212206
22903,Charlottesville city,VA,NA,62.89099526066351,84.74095102909865
22911,Albemarle County,VA,90.91778202676865,49.95260663507109,52.235628105039034
22963,Fluvanna County,VA,NA,84.21800947867298,34.63449254790631
22968,Greene County,VA,64.53154875717017,NA,NA
23040,Cumberland County,VA,NA,NA,94.81902058197304
23059,Henrico County,VA,NA,54.976303317535546,NA
23072,Gloucester County,VA,NA,NA,46.41589779985806
23093,Louisa County,VA,62.4282982791587,45.7345971563981,NA
23114,Chesterfield County,VA,NA,54.360189573459714,NA
23117,Louisa County,VA,NA,74.3601895734597,NA
23185,James City County,VA,NA,1.3270142180094786,NA
23188,James City County,VA,NA,0.7582938388625593,NA
23220,Richmond city,VA,NA,40.9478672985782,90.0638750887154
23221,Richmond city,VA,NA,88.67298578199052,NA
23222,Richmond city,VA,16.539196940726576,NA,NA
23223,Henrico County,VA,2.198852772466539,NA,NA
23224,Richmond city,VA,35.85086042065009,72.70142180094787,NA
23225,Richmond city,VA,NA,75.11848341232228,NA
23227,Henrico County,VA,NA,59.66824644549763,NA
23228,Henrico County,VA,NA,22.654028436018958,16.323633782824697
23229,Henrico County,VA,NA,64.07582938388626,NA
23231,Henrico County,VA,21.79732313575526,NA,NA
23451,Virginia Beach city,VA,NA,36.44549763033175,14.33640880056778
23452,Virginia Beach city,VA,74.09177820267686,NA,NA
23455,Virginia Beach city,VA,NA,27.061611374407583,NA
23456,Virginia Beach city,VA,NA,NA,8.374733853797018
23462,Virginia Beach city,VA,NA,5.829383886255924,NA
23464,Virginia Beach city,VA,NA,45.92417061611375,NA
23504,Norfolk city,VA,24.282982791587,NA,NA
23513,Norfolk city,VA,NA,NA,12.916962384669977
23601,Newport News city,VA,59.36902485659655,NA,NA
23661,Hampton city,VA,NA,49.5260663507109,NA
23666,Hampton city,VA,NA,6.018957345971564,NA
23693,York County,VA,NA,55.26066350710901,NA
23836,Chesterfield County,VA,NA,NA,99.43222143364088
23847,Greensville County,VA,NA,54.02843601895735,NA
24014,Roanoke city,VA,NA,18.672985781990523,NA
24121,Bedford County,VA,NA,76.44549763033174,NA
24124,Giles County,VA,91.8738049713193,NA,NA
24401,Staunton city,VA,NA,3.838862559241706,NA
24421,Augusta County,VA,NA,93.36492890995261,NA
24450,Rockbridge County,VA,NA,NA,61.17814052519518
24501,Lynchburg city,VA,26.76864244741874,26.729857819905213,NA
24527,Pittsylvania County,VA,NA,NA,98.22569198012775
24540,Danville city,VA,NA,17.298578199052134,28.95670688431512
24541,Danville city,VA,33.365200764818354,NA,NA
24572,Amherst County,VA,63.67112810707457,NA,NA
24590,Albemarle County,VA,NA,75.54502369668246,NA
98003,King County,WA,NA,13.175355450236967,NA
98004,King County,WA,NA,83.27014218009478,NA
98005,King County,WA,84.22562141491396,NA,NA
98023,King County,WA,NA,56.39810426540285,NA
98026,Snohomish County,WA,NA,55.59241706161138,NA
98027,King County,WA,NA,NA,42.01561391057488
98028,King County,WA,91.20458891013385,NA,NA
98031,King County,WA,NA,9.289099526066352,NA
98033,King County,WA,65.39196940726578,71.94312796208531,NA
98037,Snohomish County,WA,63.67112810707457,NA,NA
98038,King County,WA,NA,24.881516587677723,38.89283179559971
98040,King County,WA,NA,NA,91.69623846699787
98052,King County,WA,NA,43.981042654028435,NA
98053,King County,WA,78.29827915869981,NA,NA
98056,King County,WA,NA,74.739336492891,NA
98057,King County,WA,NA,53.41232227488152,NA
98058,King County,WA,NA,44.88151658767773,NA
98070,King County,WA,NA,60.426540284360186,NA
98077,King County,WA,NA,69.47867298578198,NA
98101,King County,WA,NA,73.36492890995261,NA
98102,King County,WA,NA,54.88151658767772,89.07026259758695
98103,King County,WA,NA,62.65402843601896,NA
98104,King County,WA,NA,NA,44.499645138396026
98105,King County,WA,NA,85.30805687203792,NA
98106,King County,WA,NA,NA,83.32150461320084
98108,King County,WA,NA,52.13270142180095,NA
98109,King County,WA,NA,NA,98.29666430092264
98110,Kitsap County,WA,NA,59.71563981042654,NA
98112,King County,WA,NA,98.81516587677726,48.89992902767921
98116,King County,WA,NA,51.23222748815166,NA
98118,King County,WA,NA,74.26540284360189,NA
98121,King County,WA,NA,91.23222748815166,NA
98125,King County,WA,73.32695984703633,23.317535545023695,24.485450674237047
98133,King County,WA,NA,90.4739336492891,92.26401703335699
98144,King County,WA,64.05353728489483,NA,NA
98155,King County,WA,NA,28.95734597156398,NA
98166,King County,WA,NA,84.45497630331754,NA
98177,King County,WA,NA,44.45497630331754,74.09510290986515
98188,King County,WA,NA,44.21800947867299,NA
98198,King County,WA,NA,17.582938388625593,NA
98199,King County,WA,NA,96.1611374407583,75.51454932576294
98204,Snohomish County,WA,NA,35.45023696682465,NA
98221,Skagit County,WA,NA,43.3649289099526,NA
98273,Skagit County,WA,26.38623326959847,8.909952606635072,NA
98274,Skagit County,WA,NA,29.28909952606635,NA
98282,Island County,WA,NA,27.582938388625593,NA
98296,Snohomish County,WA,NA,NA,63.52022711142654
98363,Clallam County,WA,NA,61.75355450236967,NA
98366,Kitsap County,WA,NA,NA,19.517388218594746
98367,Kitsap County,WA,79.73231357552581,NA,NA
98380,Kitsap County,WA,NA,63.74407582938388,NA
98404,Pierce County,WA,31.644359464627154,NA,NA
98467,Pierce County,WA,82.98279158699809,NA,NA
98516,Thurston County,WA,88.91013384321224,NA,NA
98528,Mason County,WA,NA,72.22748815165878,NA
98550,Grays Harbor County,WA,NA,NA,94.74804826117814
98607,Clark County,WA,NA,NA,68.7721788502484
98664,Clark County,WA,NA,NA,36.76366217175301
98801,Chelan County,WA,22.65774378585086,23.601895734597157,22.214336408800566
98802,Douglas County,WA,NA,52.274881516587676,61.67494677075941
98815,Chelan County,WA,NA,99.66824644549763,NA
98826,Chelan County,WA,NA,96.44549763033176,NA
98902,Yakima County,WA,NA,47.867298578199055,NA
98908,Yakima County,WA,NA,7.109004739336493,NA
99206,Spokane County,WA,NA,48.48341232227488,NA
99352,Benton County,WA,NA,NA,1.34847409510291
20001,District of Columbia,DC,NA,8.909952606635072,NA
20002,District of Columbia,DC,NA,NA,28.31795599716111
20009,District of Columbia,DC,NA,94.92890995260663,NA
20010,District of Columbia,DC,NA,NA,45.06742370475514
20015,District of Columbia,DC,87.18929254302104,NA,NA
20017,District of Columbia,DC,89.67495219885278,NA,NA
20018,District of Columbia,DC,41.68260038240918,16.398104265402843,NA
20019,District of Columbia,DC,2.390057361376673,2.322274881516588,NA
20020,District of Columbia,DC,NA,3.2227488151658767,NA
25302,Kanawha County,WV,NA,44.59715639810427,NA
25427,Berkeley County,WV,NA,56.6350710900474,NA
25701,Cabell County,WV,14.91395793499044,NA,NA
25704,Wayne County,WV,NA,NA,35.202271114265436
25705,Cabell County,WV,NA,43.507109004739334,49.32576295244854
25801,Raleigh County,WV,11.663479923518166,NA,NA
26003,Ohio County,WV,NA,NA,1.0645848119233499
26104,Wood County,WV,NA,46.06635071090047,12.278211497515969
26164,Jackson County,WV,85.65965583173997,NA,NA
26187,Wood County,WV,NA,NA,39.88644428672818
26241,Randolph County,WV,NA,77.67772511848341,NA
26301,Harrison County,WV,NA,6.066350710900474,NA
26330,Harrison County,WV,44.263862332695986,NA,NA
26431,Harrison County,WV,NA,58.720379146919434,NA
26505,Monongalia County,WV,69.88527724665391,22.843601895734597,71.75301632363377
26508,Monongalia County,WV,NA,64.50236966824644,10.361958836053939
26582,Marion County,WV,NA,64.97630331753554,NA
26836,Hardy County,WV,NA,NA,70.61745919091554
53005,Waukesha County,WI,38.718929254302104,83.41232227488152,67.21078779276083
53022,Washington County,WI,NA,NA,74.804826117814045
53027,Washington County,WI,NA,32.55924170616113,NA
53029,Waukesha County,WI,NA,37.535545023696685,NA
53037,Washington County,WI,NA,74.739336492891,NA
53045,Waukesha County,WI,84.22562141491396,33.55450236966825,NA
53066,Waukesha County,WI,38.1453154875717,31.232227488151658,13.413768630234207
53072,Waukesha County,WI,NA,87.01421800947867,NA
53073,Sheboygan County,WI,NA,64.59715639810426,NA
53085,Sheboygan County,WI,NA,96.72985781990522,NA
53092,Ozaukee County,WI,NA,79.28909952606635,9.65223562810504
53094,Jefferson County,WI,75.23900573613767,95.63981042654028,NA
53098,Dodge County,WI,NA,41.943127962085306,96.30943931866572
53105,Racine County,WI,NA,NA,21.57558552164656
53122,Waukesha County,WI,NA,96.39810426540284,62.73953158268275
53129,Milwaukee County,WI,75.33460803059273,NA,NA
53142,Kenosha County,WI,NA,NA,24.76933995741661
53143,Kenosha County,WI,NA,NA,56.49396735273243
53149,Waukesha County,WI,NA,NA,78.63733144073811
53154,Milwaukee County,WI,20.650095602294456,6.398104265402843,57.55855216465579
53172,Milwaukee County,WI,NA,62.70142180094786,NA
53181,Kenosha County,WI,60.89866156787763,NA,NA
53186,Waukesha County,WI,NA,NA,72.60468417317246
53202,Milwaukee County,WI,NA,66.2085308056872,NA
53204,Milwaukee County,WI,NA,NA,53.65507452093683
53205,Milwaukee County,WI,NA,67.53554502369668,NA
53206,Milwaukee County,WI,8.030592734225621,29.14691943127962,NA
53207,Milwaukee County,WI,NA,NA,17.67210787792761
53208,Milwaukee County,WI,NA,94.64454976303317,43.718949609652235
53209,Milwaukee County,WI,NA,0.37914691943127965,NA
53210,Milwaukee County,WI,NA,11.090047393364928,NA
53213,Milwaukee County,WI,80.30592734225621,19.71563981042654,33.85379701916253
53214,Milwaukee County,WI,10.325047801147228,NA,66.28814762242725
53215,Milwaukee County,WI,NA,NA,27.466288147622425
53216,Milwaukee County,WI,47.03632887189293,11.042654028436019,63.09439318665721
53217,Milwaukee County,WI,NA,50.18957345971564,68.20440028388929
53218,Milwaukee County,WI,27.62906309751434,26.966824644549764,93.39957416607523
53221,Milwaukee County,WI,NA,NA,7.16820440028389
53222,Milwaukee County,WI,83.07839388145315,75.87677725118483,87.2249822569198
53223,Milwaukee County,WI,NA,NA,82.39886444286728
53226,Milwaukee County,WI,NA,NA,28.81476224272534
53227,Milwaukee County,WI,33.84321223709369,NA,41.51880766501065
53405,Racine County,WI,NA,NA,8.232789212207239
53406,Racine County,WI,NA,10.23696682464455,NA
53511,Rock County,WI,NA,2.5118483412322274,27.53726046841732
53532,Dane County,WI,NA,NA,67.4237047551455
53534,Rock County,WI,NA,40.37914691943128,NA
53538,Jefferson County,WI,NA,NA,18.23988644428673
53545,Rock County,WI,NA,12.037914691943127,NA
53548,Rock County,WI,NA,48.86255924170616,17.814052519517386
53551,Jefferson County,WI,NA,94.69194312796209,NA
53562,Dane County,WI,NA,79.5734597156398,NA
53563,Rock County,WI,NA,NA,50.03548616039745
53566,Green County,WI,NA,73.50710900473933,31.9375443577005
53589,Dane County,WI,77.43785850860421,24.265402843601898,NA
53590,Dane County,WI,36.80688336520077,NA,48.68701206529453
53593,Dane County,WI,NA,34.88151658767772,NA
53594,Jefferson County,WI,NA,NA,86.87012065294535
53597,Dane County,WI,NA,89.81042654028435,NA
53703,Dane County,WI,NA,98.5781990521327,85.02484031227822
53704,Dane County,WI,NA,38.76777251184834,26.614620298083747
53705,Dane County,WI,89.5793499043977,NA,7.94889992902768
53711,Dane County,WI,NA,58.15165876777251,82.82469836763661
53713,Dane County,WI,93.02103250478011,NA,NA
53717,Dane County,WI,95.12428298279158,46.91943127962085,NA
53959,Sauk County,WI,NA,NA,43.00922640170334
53965,Sauk County,WI,NA,NA,56.7068843151171
54165,Outagamie County,WI,NA,78.15165876777252,NA
54235,Door County,WI,NA,15.497630331753554,NA
54313,Brown County,WI,NA,56.872037914691944,NA
54467,Portage County,WI,NA,61.137440758293835,NA
54481,Portage County,WI,18.64244741873805,71.70616113744076,46.0610361958836
54482,Portage County,WI,NA,79.71563981042654,NA
54601,La Crosse County,WI,NA,61.32701421800948,16.465578424414478
54603,La Crosse County,WI,54.01529636711281,84.17061611374407,94.60610361958835
54615,Jackson County,WI,NA,NA,76.36621717530163
54630,Trempealeau County,WI,NA,93.50710900473935,NA
54636,La Crosse County,WI,NA,93.7914691943128,91.90915542938254
54646,Juneau County,WI,84.13001912045888,95.92417061611374,NA
54650,La Crosse County,WI,NA,60.66350710900474,77.21788502484031
54656,Monroe County,WI,NA,NA,62.38466997870831
54669,La Crosse County,WI,NA,NA,92.54790631653655
54701,Eau Claire County,WI,NA,14.407582938388625,NA
54724,Chippewa County,WI,NA,NA,77.78566359119942
54830,Burnett County,WI,NA,98.19905213270142,NA
54880,Douglas County,WI,NA,77.48815165876776,68.63023420865862
54935,Fond du Lac County,WI,NA,7.393364928909953,2.41305890702626
82009,Laramie County,WY,73.61376673040154,NA,NA
