ZipCode,county,state,Adult,Retirement,Geriatric
35005,Jefferson County,AL,NA,NA,84.5943482224248
35020,Jefferson County,AL,83.78947368421052,NA,NA
35040,Shelby County,AL,NA,99.85795454545455,NA
35045,Chilton County,AL,59.36842105263158,NA,NA
35054,St. Clair County,AL,NA,NA,99.81768459434822
35055,Cullman County,AL,78.52631578947368,NA,NA
35080,Shelby County,AL,NA,69.17613636363636,NA
35127,Jefferson County,AL,NA,NA,69.46216955332726
35151,Talladega County,AL,NA,86.07954545454545,NA
35217,Jefferson County,AL,NA,NA,71.01185050136736
35242,Shelby County,AL,NA,NA,7.383773928896992
35570,Marion County,AL,NA,97.58522727272727,NA
35592,Lamar County,AL,NA,83.23863636363636,NA
35601,Morgan County,AL,NA,13.210227272727273,NA
35620,Limestone County,AL,NA,NA,97.35642661804923
35650,Lawrence County,AL,NA,NA,36.37192342752963
35806,Madison County,AL,NA,83.66477272727273,NA
35810,Madison County,AL,32.631578947368425,NA,NA
35816,Madison County,AL,NA,62.35795454545454,NA
36092,Elmore County,AL,45.89473684210526,NA,NA
36093,Elmore County,AL,NA,NA,75.93436645396537
36117,Montgomery County,AL,NA,NA,67.63901549680949
36201,Calhoun County,AL,NA,NA,56.88240656335461
36207,Calhoun County,AL,55.57894736842105,NA,NA
36264,Cleburne County,AL,NA,NA,65.63354603463992
36301,Houston County,AL,NA,NA,18.960802187784868
36305,Houston County,AL,NA,NA,60.1640838650866
36330,Coffee County,AL,NA,NA,41.38559708295351
36567,Baldwin County,AL,60.421052631578945,NA,NA
36617,Mobile County,AL,NA,NA,60.52871467639015
36619,Mobile County,AL,NA,NA,75.6608933454877
36701,Dallas County,AL,NA,NA,45.21422060164084
36867,Russell County,AL,66.10526315789474,NA,58.06745670009116
36870,Lee County,AL,74.52631578947368,NA,NA
99501,Anchorage Municipality,AK,NA,64.77272727272727,NA
99504,Anchorage Municipality,AK,53.26315789473684,NA,NA
99507,Anchorage Municipality,AK,NA,45.45454545454545,NA
99508,Anchorage Municipality,AK,NA,66.47727272727273,NA
99654,Matanuska-Susitna Borough,AK,NA,37.5,NA
85007,Maricopa County,AZ,NA,29.261363636363637,NA
85014,Maricopa County,AZ,96.42105263157895,NA,NA
85016,Maricopa County,AZ,44.42105263157895,31.96022727272727,NA
85020,Maricopa County,AZ,80.63157894736842,NA,NA
85021,Maricopa County,AZ,NA,NA,38.65086599817685
85032,Maricopa County,AZ,20,NA,NA
85040,Maricopa County,AZ,NA,NA,91.97812215132178
85044,Maricopa County,AZ,23.789473684210527,NA,NA
85087,Maricopa County,AZ,NA,92.1875,NA
85119,Pinal County,AZ,NA,40.48295454545455,NA
85206,Maricopa County,AZ,NA,NA,37.28350045578851
85255,Maricopa County,AZ,NA,NA,21.969006381039197
85259,Maricopa County,AZ,NA,NA,46.855059252506834
85266,Maricopa County,AZ,100,NA,NA
85282,Maricopa County,AZ,NA,NA,62.44302643573382
85286,Maricopa County,AZ,NA,NA,86.32634457611668
85310,Maricopa County,AZ,NA,NA,95.897903372835
85350,Yuma County,AZ,NA,NA,67.5478577939836
85614,Pima County,AZ,NA,NA,22.151321786690975
85634,Pima County,AZ,NA,NA,92.16043755697356
85705,Pima County,AZ,NA,5.681818181818182,NA
85710,Pima County,AZ,NA,46.73295454545455,NA
85711,Pima County,AZ,11.157894736842106,12.357954545454545,NA
85712,Pima County,AZ,24.63157894736842,NA,NA
85713,Pima County,AZ,NA,NA,17.958067456700093
85716,Pima County,AZ,NA,NA,98.4503190519599
85745,Pima County,AZ,NA,14.914772727272727,26.071103008204194
85746,Pima County,AZ,16.42105263157895,NA,NA
85747,Pima County,AZ,NA,NA,59.070191431175935
86322,Yavapai County,AZ,NA,93.03977272727273,NA
86514,Apache County,AZ,NA,NA,96.62716499544212
71655,Drew County,AR,NA,NA,67.36554238833182
71801,Hempstead County,AR,NA,NA,81.85961713764813
71854,Miller County,AR,NA,NA,28.350045578851415
72067,Cleburne County,AR,NA,NA,89.15223336371923
72081,White County,AR,NA,NA,97.72105742935278
72113,Pulaski County,AR,NA,NA,45.30537830446673
72204,Pulaski County,AR,NA,NA,68.00364630811303
72209,Pulaski County,AR,NA,98.01136363636364,NA
72401,Craighead County,AR,45.68421052631579,NA,NA
72501,Independence County,AR,85.26315789473684,NA,NA
72601,Boone County,AR,NA,NA,89.4257064721969
72715,Benton County,AR,NA,NA,16.955332725615317
72758,Benton County,AR,NA,NA,85.3236098450319
72901,Sebastian County,AR,NA,64.63068181818183,NA
72903,Sebastian County,AR,68.63157894736842,NA,NA
72904,Sebastian County,AR,58.31578947368421,NA,80.76572470373746
72936,Sebastian County,AR,70.3157894736842,NA,83.68277119416591
72958,Scott County,AR,NA,NA,88.24065633546034
90005,Los Angeles County,CA,NA,NA,84.68550592525068
90007,Los Angeles County,CA,NA,54.40340909090909,NA
90012,Los Angeles County,CA,84.84210526315789,NA,NA
90022,Los Angeles County,CA,65.47368421052632,NA,NA
90023,Los Angeles County,CA,NA,NA,60.255241567912485
90024,Los Angeles County,CA,NA,NA,29.07930720145852
90026,Los Angeles County,CA,NA,NA,21.1485870556062
90032,Los Angeles County,CA,NA,NA,39.835916134913404
90035,Los Angeles County,CA,NA,NA,55.15041020966272
90037,Los Angeles County,CA,NA,36.78977272727273,NA
90041,Los Angeles County,CA,NA,NA,54.87693710118505
90042,Los Angeles County,CA,NA,NA,75.20510483135826
90045,Los Angeles County,CA,NA,NA,36.73655423883318
90046,Los Angeles County,CA,NA,NA,5.925250683682772
90061,Los Angeles County,CA,NA,65.9090909090909,NA
90067,Los Angeles County,CA,NA,NA,69.0975387420237
90201,Los Angeles County,CA,32.421052631578945,NA,47.1285323609845
90220,Los Angeles County,CA,62.526315789473685,NA,NA
90242,Los Angeles County,CA,NA,52.27272727272727,NA
90255,Los Angeles County,CA,30.736842105263158,NA,NA
90266,Los Angeles County,CA,NA,NA,22.971741112123976
90274,Los Angeles County,CA,NA,55.96590909090909,NA
90403,Los Angeles County,CA,NA,NA,24.79489516864175
90602,Los Angeles County,CA,NA,NA,55.69735642661805
90603,Los Angeles County,CA,NA,NA,88.87876025524157
90604,Los Angeles County,CA,NA,NA,26.709206927985413
90605,Los Angeles County,CA,NA,NA,53.87420237010028
90650,Los Angeles County,CA,NA,13.352272727272727,NA
90660,Los Angeles County,CA,NA,32.24431818181818,19.963536918869647
90680,Orange County,CA,NA,69.60227272727273,NA
90706,Los Angeles County,CA,27.789473684210524,NA,NA
90720,Orange County,CA,68,NA,NA
90740,Orange County,CA,NA,NA,19.416590701914313
90807,Los Angeles County,CA,NA,81.67613636363636,46.39927073837739
91001,Los Angeles County,CA,NA,NA,34.36645396536007
91040,Los Angeles County,CA,NA,NA,64.81312670920693
91103,Los Angeles County,CA,NA,78.55113636363636,NA
91202,Los Angeles County,CA,NA,87.5,NA
91206,Los Angeles County,CA,NA,NA,9.298085688240656
91321,Los Angeles County,CA,NA,NA,35.46034639927073
91324,Los Angeles County,CA,NA,NA,73.74658158614403
91325,Los Angeles County,CA,NA,NA,48.04010938924339
91331,Los Angeles County,CA,NA,15.625,NA
91345,Los Angeles County,CA,NA,NA,69.9179580674567
91350,Los Angeles County,CA,NA,76.8465909090909,NA
91351,Los Angeles County,CA,NA,NA,77.75752051048313
91402,Los Angeles County,CA,NA,31.53409090909091,58.979033728350046
91702,Los Angeles County,CA,NA,NA,46.58158614402917
91706,Los Angeles County,CA,NA,30.823863636363637,NA
91722,Los Angeles County,CA,NA,52.41477272727273,NA
91733,Los Angeles County,CA,NA,NA,51.2306289881495
91740,Los Angeles County,CA,NA,49.00568181818182,NA
91744,Los Angeles County,CA,64.63157894736841,NA,16.317228805834095
91750,Los Angeles County,CA,NA,NA,27.620783956244306
91754,Los Angeles County,CA,NA,NA,52.597994530537825
91761,San Bernardino County,CA,27.57894736842105,NA,NA
91780,Los Angeles County,CA,NA,NA,39.653600729261626
91792,Los Angeles County,CA,NA,NA,61.713764813126716
91911,San Diego County,CA,NA,66.19318181818183,NA
91977,San Diego County,CA,NA,76.13636363636364,NA
92009,San Diego County,CA,NA,NA,38.012762078395625
92019,San Diego County,CA,NA,NA,32.087511394712855
92028,San Diego County,CA,60.631578947368425,NA,NA
92040,San Diego County,CA,NA,22.727272727272727,NA
92065,San Diego County,CA,NA,60.51136363636363,NA
92082,San Diego County,CA,NA,NA,95.07748404740201
92105,San Diego County,CA,NA,NA,46.03463992707384
92203,Riverside County,CA,NA,15.767045454545455,NA
92210,Riverside County,CA,NA,NA,48.04010938924339
92231,Imperial County,CA,NA,NA,29.2616226071103
92260,Riverside County,CA,NA,NA,25.706472196900638
92307,San Bernardino County,CA,29.47368421052631,NA,NA
92344,San Bernardino County,CA,NA,92.89772727272727,NA
92346,San Bernardino County,CA,NA,NA,51.86873290793071
92373,San Bernardino County,CA,NA,NA,39.197812215132174
92395,San Bernardino County,CA,NA,38.92045454545455,NA
92397,San Bernardino County,CA,NA,85.79545454545455,NA
92399,San Bernardino County,CA,32,NA,NA
92404,San Bernardino County,CA,22.315789473684212,NA,NA
92405,San Bernardino County,CA,45.26315789473684,NA,NA
92407,San Bernardino County,CA,NA,45.17045454545455,NA
92503,Riverside County,CA,NA,NA,33.63719234275296
92506,Riverside County,CA,NA,37.92613636363637,NA
92539,Riverside County,CA,NA,NA,97.62989972652689
92543,Riverside County,CA,NA,48.4375,NA
92549,Riverside County,CA,NA,95.17045454545455,NA
92562,Riverside County,CA,NA,29.829545454545453,33.54603463992707
92585,Riverside County,CA,NA,NA,88.42297174111212
92612,Orange County,CA,NA,78.69318181818183,NA
92646,Orange County,CA,NA,54.11931818181818,NA
92648,Orange County,CA,NA,20.170454545454543,NA
92649,Orange County,CA,NA,NA,29.717411121239746
92675,Orange County,CA,NA,NA,33.910665451230635
92679,Orange County,CA,NA,NA,68.73290793072015
92683,Orange County,CA,NA,16.90340909090909,NA
92708,Orange County,CA,NA,NA,18.77848678213309
92833,Orange County,CA,49.684210526315795,NA,NA
92843,Orange County,CA,38.315789473684205,NA,NA
92870,Orange County,CA,NA,NA,12.579762989972654
92881,Riverside County,CA,NA,NA,75.11394712853236
93021,Ventura County,CA,NA,NA,74.38468550592525
93030,Ventura County,CA,NA,NA,25.250683682771196
93105,Santa Barbara County,CA,NA,NA,53.78304466727438
93257,Tulare County,CA,NA,19.744318181818183,18.322698268003645
93267,Tulare County,CA,NA,98.7215909090909,NA
93308,Kern County,CA,71.78947368421052,NA,NA
93309,Kern County,CA,NA,60.65340909090909,NA
93436,Santa Barbara County,CA,20.842105263157894,NA,NA
93444,San Luis Obispo County,CA,81.6842105263158,NA,NA
93536,Los Angeles County,CA,NA,47.44318181818182,43.29990884229717
93550,Los Angeles County,CA,17.473684210526315,NA,NA
93710,Fresno County,CA,NA,NA,38.742023701002736
93727,Fresno County,CA,19.36842105263158,NA,NA
93933,Monterey County,CA,NA,NA,96.8094804010939
93955,Monterey County,CA,NA,NA,27.256153144940747
93960,Monterey County,CA,NA,NA,92.43391066545124
94080,San Mateo County,CA,62.73684210526316,NA,35.73381950774841
94115,San Francisco County,CA,NA,NA,10.756608933454876
94117,San Francisco County,CA,NA,38.778409090909086,NA
94127,San Francisco County,CA,NA,NA,49.498632634457614
94501,Alameda County,CA,NA,NA,93.52780309936189
94583,Contra Costa County,CA,NA,NA,59.61713764813127
94590,Solano County,CA,NA,NA,38.103919781221514
94601,Alameda County,CA,NA,NA,52.05104831358249
94605,Alameda County,CA,NA,NA,28.258887876025522
94703,Alameda County,CA,NA,72.58522727272727,NA
94704,Alameda County,CA,NA,99.00568181818183,NA
94803,Contra Costa County,CA,NA,NA,49.407474931631725
94806,Contra Costa County,CA,NA,NA,17.046490428441203
94947,Marin County,CA,NA,NA,24.703737465815863
95033,Santa Cruz County,CA,NA,NA,90.42844120328168
95050,Santa Clara County,CA,NA,82.95454545454545,NA
95051,Santa Clara County,CA,44.8421052631579,NA,NA
95054,Santa Clara County,CA,NA,NA,76.20783956244303
95070,Santa Clara County,CA,NA,66.9034090909091,NA
95128,Santa Clara County,CA,37.05263157894737,NA,NA
95148,Santa Clara County,CA,NA,NA,78.57793983591613
95204,San Joaquin County,CA,NA,62.21590909090909,NA
95205,San Joaquin County,CA,73.47368421052632,48.57954545454545,NA
95206,San Joaquin County,CA,NA,NA,43.482224247948956
95209,San Joaquin County,CA,46.526315789473685,NA,NA
95210,San Joaquin County,CA,NA,NA,62.16955332725615
95337,San Joaquin County,CA,NA,38.92045454545455,NA
95340,Merced County,CA,NA,NA,67.91248860528715
95370,Tuolumne County,CA,NA,2.840909090909091,NA
95380,Stanislaus County,CA,71.57894736842105,NA,NA
95388,Merced County,CA,NA,NA,90.06381039197812
95405,Sonoma County,CA,NA,50.56818181818182,NA
95407,Sonoma County,CA,NA,51.42045454545454,NA
95531,Del Norte County,CA,60,NA,NA
95610,Sacramento County,CA,NA,39.91477272727273,36.5542388331814
95662,Sacramento County,CA,NA,NA,32.99908842297174
95666,Amador County,CA,NA,NA,77.66636280765725
95670,Sacramento County,CA,NA,79.6875,22.424794895168642
95673,Sacramento County,CA,NA,62.92613636363637,NA
95747,Placer County,CA,NA,NA,8.751139471285324
95815,Sacramento County,CA,NA,NA,70.92069279854147
95823,Sacramento County,CA,16,NA,NA
95825,Sacramento County,CA,49.26315789473684,NA,NA
95827,Sacramento County,CA,NA,63.49431818181818,NA
95828,Sacramento County,CA,41.68421052631579,NA,NA
95842,Sacramento County,CA,45.473684210526315,NA,NA
95926,Butte County,CA,NA,23.72159090909091,NA
96001,Shasta County,CA,24.421052631578945,NA,NA
96080,Tehama County,CA,96,NA,NA
96097,Siskiyou County,CA,80,NA,NA
80010,Arapahoe County,CO,NA,NA,56.244302643573384
80022,Adams County,CO,NA,35.79545454545455,NA
80110,Arapahoe County,CO,NA,82.5284090909091,NA
80111,Arapahoe County,CO,NA,NA,85.77939835916135
80120,Arapahoe County,CO,NA,44.60227272727273,NA
80123,Jefferson County,CO,NA,77.98295454545455,NA
80134,Douglas County,CO,NA,NA,79.58067456700091
80202,Denver County,CO,NA,90.3409090909091,NA
80205,Denver County,CO,16.842105263157894,NA,NA
80209,Denver County,CO,NA,NA,65.45123062898814
80212,Denver County,CO,NA,97.72727272727273,NA
80214,Jefferson County,CO,43.15789473684211,NA,NA
80231,Denver County,CO,NA,NA,77.3017319963537
80501,Boulder County,CO,NA,50.28409090909091,NA
80503,Boulder County,CO,NA,49.43181818181818,NA
80524,Larimer County,CO,NA,NA,36.91886964448496
80537,Larimer County,CO,NA,NA,18.596171376481312
80538,Larimer County,CO,NA,NA,22.880583409298087
80550,Weld County,CO,30.94736842105263,NA,NA
80634,Weld County,CO,3.1578947368421053,NA,NA
80816,Teller County,CO,90.52631578947368,NA,NA
80903,El Paso County,CO,NA,81.39204545454545,NA
80907,El Paso County,CO,51.78947368421053,NA,NA
80909,El Paso County,CO,NA,NA,26.25341841385597
80919,El Paso County,CO,NA,90.48295454545455,NA
80922,El Paso County,CO,NA,NA,69.73564266180492
81001,Pueblo County,CO,24.63157894736842,NA,NA
81004,Pueblo County,CO,NA,77.55681818181817,NA
81101,Alamosa County,CO,NA,93.89204545454545,NA
81144,Rio Grande County,CO,NA,NA,87.7848678213309
81212,Fremont County,CO,NA,NA,31.540565177757518
81520,Mesa County,CO,NA,76.42045454545455,NA
06010,Hartford County,CT,NA,NA,1.8231540565177755
06032,Hartford County,CT,73.68421052631578,NA,NA
06033,Hartford County,CT,NA,50.14204545454546,NA
06084,Tolland County,CT,NA,NA,78.8514129443938
06117,Hartford County,CT,NA,NA,30.81130355515041
06118,Hartford County,CT,NA,NA,64.81312670920693
06249,New London County,CT,NA,NA,80.4010938924339
06461,New Haven County,CT,NA,NA,56.061987237921606
06470,Fairfield County,CT,NA,NA,69.82680036463081
06484,Fairfield County,CT,NA,NA,86.23518687329079
06488,New Haven County,CT,NA,NA,37.3746581586144
06489,Hartford County,CT,NA,14.346590909090908,NA
06492,New Haven County,CT,NA,11.505681818181818,NA
06515,New Haven County,CT,NA,NA,87.42023701002735
06606,Fairfield County,CT,NA,30.113636363636363,NA
06615,Fairfield County,CT,NA,82.5284090909091,71.46763901549681
06705,New Haven County,CT,NA,25.994318181818183,NA
06790,Litchfield County,CT,NA,15.340909090909092,NA
06795,Litchfield County,CT,NA,NA,64.35733819507749
06804,Fairfield County,CT,NA,NA,54.14767547857794
06810,Fairfield County,CT,NA,NA,22.69826800364631
06877,Fairfield County,CT,NA,NA,61.89608021877848
06880,Fairfield County,CT,NA,NA,99.179580674567
06897,Fairfield County,CT,NA,NA,49.77210574293528
06903,Fairfield County,CT,NA,NA,54.87693710118505
19806,New Castle County,DE,NA,67.1875,NA
19943,Kent County,DE,NA,63.77840909090909,NA
19945,Sussex County,DE,NA,NA,58.88787602552416
19958,Sussex County,DE,NA,3.6931818181818183,NA
32003,Clay County,FL,NA,NA,53.05378304466728
32025,Columbia County,FL,39.78947368421053,NA,NA
32043,Clay County,FL,NA,19.318181818181817,43.20875113947128
32060,Suwannee County,FL,51.368421052631575,NA,NA
32064,Suwannee County,FL,NA,70.17045454545455,99.08842297174111
32065,Clay County,FL,NA,NA,68.82406563354604
32084,St. Johns County,FL,NA,24.431818181818183,29.899726526891524
32086,St. Johns County,FL,NA,49.28977272727273,72.10574293527803
32092,St. Johns County,FL,NA,NA,53.50957155879672
32095,St. Johns County,FL,NA,NA,83.86508659981769
32141,Volusia County,FL,NA,NA,70.37374658158613
32159,Lake County,FL,NA,72.01704545454545,4.557885141294439
32164,Flagler County,FL,NA,NA,10.665451230628987
32168,Volusia County,FL,NA,NA,58.249772105742935
32208,Duval County,FL,NA,NA,34.73108477666363
32209,Duval County,FL,NA,12.5,NA
32218,Duval County,FL,4.631578947368421,NA,18.960802187784868
32225,Duval County,FL,58.94736842105262,NA,NA
32234,Duval County,FL,NA,70.0284090909091,NA
32244,Duval County,FL,6.947368421052631,NA,NA
32246,Duval County,FL,20.63157894736842,20.02840909090909,NA
32304,Leon County,FL,NA,87.07386363636364,NA
32308,Leon County,FL,NA,NA,64.53965360072927
32404,Bay County,FL,NA,18.75,NA
32405,Bay County,FL,58.10526315789474,26.136363636363637,NA
32504,Escambia County,FL,NA,NA,50.319051959890615
32536,Okaloosa County,FL,NA,22.585227272727273,NA
32565,Santa Rosa County,FL,NA,84.94318181818183,NA
32566,Santa Rosa County,FL,NA,53.83522727272727,NA
32607,Alachua County,FL,NA,NA,47.584320875113946
32641,Alachua County,FL,NA,53.69318181818182,NA
32703,Orange County,FL,NA,NA,63.719234275296266
32707,Seminole County,FL,NA,54.26136363636363,NA
32805,Orange County,FL,NA,NA,58.15861440291704
32811,Orange County,FL,NA,NA,47.493163172288064
32825,Orange County,FL,NA,13.920454545454545,NA
32837,Orange County,FL,NA,NA,93.07201458523245
32905,Brevard County,FL,NA,42.04545454545455,27.985414767547855
32926,Brevard County,FL,NA,NA,15.223336371923427
32937,Brevard County,FL,NA,NA,58.79671832269827
32940,Brevard County,FL,98.3157894736842,NA,4.922515952597994
32953,Brevard County,FL,NA,NA,12.944393801276208
32958,Indian River County,FL,NA,NA,5.195989061075661
32976,Brevard County,FL,NA,NA,47.85779398359161
33012,Miami-Dade County,FL,NA,NA,2.917046490428441
33019,Broward County,FL,NA,NA,79.48951686417503
33023,Broward County,FL,NA,40.76704545454545,NA
33025,Broward County,FL,NA,NA,34.184138559708295
33033,Miami-Dade County,FL,43.78947368421053,NA,NA
33063,Broward County,FL,NA,NA,9.936189608021879
33066,Broward County,FL,NA,NA,15.132178669097538
33069,Broward County,FL,NA,NA,11.030082041932543
33076,Broward County,FL,NA,NA,53.05378304466728
33125,Miami-Dade County,FL,91.15789473684211,NA,NA
33135,Miami-Dade County,FL,NA,NA,20.054694621695536
33137,Miami-Dade County,FL,NA,84.51704545454545,NA
33139,Miami-Dade County,FL,NA,NA,9.480401093892434
33143,Miami-Dade County,FL,76.21052631578948,NA,NA
33150,Miami-Dade County,FL,NA,59.51704545454546,NA
33155,Miami-Dade County,FL,NA,NA,10.847766636280767
33157,Miami-Dade County,FL,35.78947368421053,NA,NA
33165,Miami-Dade County,FL,NA,NA,1.9143117593436645
33167,Miami-Dade County,FL,83.36842105263158,NA,NA
33170,Miami-Dade County,FL,NA,91.05113636363636,NA
33173,Miami-Dade County,FL,79.57894736842105,NA,NA
33174,Miami-Dade County,FL,NA,63.35227272727273,NA
33175,Miami-Dade County,FL,NA,21.022727272727273,NA
33176,Miami-Dade County,FL,NA,NA,93.98359161349134
33177,Miami-Dade County,FL,NA,76.98863636363636,NA
33184,Miami-Dade County,FL,NA,NA,42.570647219690066
33304,Broward County,FL,NA,60.36931818181818,NA
33308,Broward County,FL,NA,NA,2.3701002734731085
33312,Broward County,FL,NA,16.193181818181817,NA
33319,Broward County,FL,NA,60.22727272727273,45.85232452142206
33322,Broward County,FL,NA,27.41477272727273,NA
33328,Broward County,FL,NA,NA,68.91522333637192
33334,Broward County,FL,NA,NA,63.81039197812215
33404,Palm Beach County,FL,38.10526315789474,NA,NA
33406,Palm Beach County,FL,NA,NA,63.992707383773926
33407,Palm Beach County,FL,NA,NA,55.332725615314494
33410,Palm Beach County,FL,NA,NA,60.71103008204193
33411,Palm Beach County,FL,NA,18.46590909090909,NA
33417,Palm Beach County,FL,NA,NA,85.05013673655424
33428,Palm Beach County,FL,NA,NA,44.48495897903373
33460,Palm Beach County,FL,46.31578947368421,NA,NA
33527,Hillsborough County,FL,NA,68.32386363636364,NA
33596,Hillsborough County,FL,NA,NA,72.56153144940748
33605,Hillsborough County,FL,NA,76.42045454545455,NA
33607,Hillsborough County,FL,NA,82.24431818181817,NA
33610,Hillsborough County,FL,NA,NA,40.74749316317229
33612,Hillsborough County,FL,NA,33.52272727272727,33.45487693710118
33614,Hillsborough County,FL,36.63157894736842,42.32954545454545,NA
33618,Hillsborough County,FL,NA,NA,29.808568824065635
33647,Hillsborough County,FL,NA,NA,32.63445761166819
33710,Pinellas County,FL,49.473684210526315,NA,36.09845031905196
33771,Pinellas County,FL,45.05263157894737,NA,NA
33778,Pinellas County,FL,NA,NA,68.45943482224249
33781,Pinellas County,FL,NA,NA,33.272561531449405
33782,Pinellas County,FL,NA,NA,42.844120328167726
33801,Polk County,FL,26.31578947368421,NA,NA
33805,Polk County,FL,41.26315789473684,NA,54.14767547857794
33810,Polk County,FL,NA,31.25,NA
33813,Polk County,FL,NA,74.57386363636364,NA
33825,Highlands County,FL,NA,13.494318181818182,NA
33830,Polk County,FL,NA,41.05113636363637,NA
33843,Polk County,FL,NA,NA,60.34639927073838
33844,Polk County,FL,NA,NA,64.72196900638104
33852,Highlands County,FL,NA,80.25568181818183,NA
33873,Hardee County,FL,NA,63.63636363636363,NA
33881,Polk County,FL,97.47368421052632,NA,NA
33903,Lee County,FL,58.94736842105262,NA,NA
33904,Lee County,FL,39.578947368421055,NA,NA
33913,Lee County,FL,NA,NA,40.29170464904284
33914,Lee County,FL,NA,12.926136363636365,NA
33947,Charlotte County,FL,NA,74.00568181818183,NA
33950,Charlotte County,FL,NA,NA,85.87055606198723
34116,Collier County,FL,NA,NA,79.94530537830447
34208,Manatee County,FL,NA,NA,56.061987237921606
34211,Manatee County,FL,NA,NA,74.7493163172288
34239,Sarasota County,FL,NA,65.19886363636364,NA
34243,Manatee County,FL,NA,NA,7.110300820419326
34288,Sarasota County,FL,NA,NA,75.29626253418414
34420,Marion County,FL,87.1578947368421,85.22727272727273,NA
34429,Citrus County,FL,NA,85.9375,61.53144940747494
34471,Marion County,FL,NA,NA,39.744758432087515
34472,Marion County,FL,NA,NA,69.37101185050136
34476,Marion County,FL,NA,NA,23.15405651777575
34481,Marion County,FL,69.47368421052632,NA,NA
34491,Marion County,FL,NA,NA,51.13947128532361
34604,Hernando County,FL,NA,86.36363636363636,NA
34653,Pasco County,FL,NA,28.267045454545453,11.850501367365544
34667,Pasco County,FL,NA,99.43181818181817,17.137648131267092
34689,Pinellas County,FL,NA,NA,16.590701914311758
34736,Lake County,FL,NA,NA,43.664539653600734
34744,Osceola County,FL,NA,96.16477272727273,NA
34759,Polk County,FL,NA,NA,56.335460346399266
34771,Osceola County,FL,NA,NA,82.22424794895169
34950,St. Lucie County,FL,NA,NA,83.22698268003647
34952,St. Lucie County,FL,NA,NA,50.95715587967183
34957,Martin County,FL,NA,31.107954545454547,13.49134001823154
34986,St. Lucie County,FL,NA,21.306818181818183,NA
34994,Martin County,FL,NA,NA,66.27164995442115
34996,Martin County,FL,NA,NA,22.789425706472198
34997,Martin County,FL,NA,7.670454545454546,NA
30021,DeKalb County,GA,72,NA,NA
30033,DeKalb County,GA,91.57894736842105,NA,NA
30034,DeKalb County,GA,NA,NA,46.3081130355515
30046,Gwinnett County,GA,47.578947368421055,NA,NA
30062,Cobb County,GA,NA,NA,74.02005469462169
30071,Gwinnett County,GA,NA,NA,90.61075660893346
30087,DeKalb County,GA,NA,18.323863636363637,27.894257064721966
30093,Gwinnett County,GA,NA,76.2784090909091,NA
30094,Rockdale County,GA,NA,NA,95.71558796718323
30096,Gwinnett County,GA,NA,26.84659090909091,NA
30125,Polk County,GA,NA,39.77272727272727,NA
30127,Cobb County,GA,NA,NA,21.87784867821331
30135,Douglas County,GA,18.31578947368421,NA,NA
30144,Cobb County,GA,NA,88.35227272727273,NA
30147,Floyd County,GA,89.89473684210526,NA,NA
30184,Bartow County,GA,NA,NA,97.08295350957155
30214,Fayette County,GA,52.63157894736842,NA,NA
30220,Coweta County,GA,88.42105263157895,NA,NA
30223,Spalding County,GA,NA,NA,27.164995442114858
30252,Henry County,GA,96.21052631578947,NA,NA
30277,Coweta County,GA,NA,88.06818181818183,NA
30309,Fulton County,GA,NA,NA,98.35916134913401
30311,Fulton County,GA,NA,NA,14.858705560619873
30315,Fulton County,GA,NA,56.53409090909091,NA
30316,DeKalb County,GA,NA,NA,40.929808568824065
30318,Fulton County,GA,NA,26.988636363636363,NA
30329,DeKalb County,GA,NA,NA,61.16681859617138
30337,Fulton County,GA,NA,NA,86.50865998176846
30501,Hall County,GA,NA,61.36363636363637,58.5232452142206
30528,White County,GA,NA,NA,58.5232452142206
30531,Habersham County,GA,NA,NA,65.8158614402917
30540,Gilmer County,GA,NA,NA,42.11485870556062
30736,Catoosa County,GA,NA,17.1875,39.47128532360985
30753,Chattooga County,GA,NA,NA,88.51412944393802
30817,Lincoln County,GA,80.21052631578948,NA,NA
30824,McDuffie County,GA,NA,NA,72.74384685505926
30830,Burke County,GA,NA,NA,66.6362807657247
30904,Richmond County,GA,NA,NA,83.13582497721058
31023,Dodge County,GA,NA,65.9090909090909,NA
31024,Putnam County,GA,NA,NA,26.52689152233364
31204,Bibb County,GA,NA,25.142045454545453,NA
31322,Chatham County,GA,NA,NA,88.33181403828624
31331,McIntosh County,GA,NA,NA,96.08021877848678
31404,Chatham County,GA,NA,NA,95.9890610756609
31405,Chatham County,GA,NA,34.94318181818182,NA
31410,Chatham County,GA,NA,NA,57.24703737465816
31513,Appling County,GA,66.3157894736842,NA,NA
31537,Charlton County,GA,NA,93.18181818181817,NA
31714,Turner County,GA,NA,89.0625,NA
31750,Ben Hill County,GA,NA,NA,48.495897903372835
31757,Thomas County,GA,67.57894736842105,NA,NA
31768,Colquitt County,GA,NA,46.44886363636363,NA
31904,Muscogee County,GA,NA,NA,12.76207839562443
39845,Seminole County,GA,96.63157894736842,NA,NA
96701,Honolulu County,HI,NA,NA,8.659981768459435
96706,Honolulu County,HI,13.473684210526315,NA,12.853236098450319
96744,Honolulu County,HI,NA,2.272727272727273,NA
96763,Maui County,HI,97.89473684210527,NA,NA
96766,Kauai County,HI,NA,NA,74.29352780309935
96791,Honolulu County,HI,NA,82.8125,NA
96792,Honolulu County,HI,15.789473684210526,NA,NA
96815,Honolulu County,HI,NA,22.443181818181817,NA
83501,Nez Perce County,ID,18.947368421052634,10.511363636363637,NA
83634,Ada County,ID,67.36842105263158,NA,NA
83638,Valley County,ID,86.94736842105263,NA,NA
83646,Ada County,ID,15.157894736842106,NA,NA
83686,Canyon County,ID,10.947368421052632,NA,NA
83706,Ada County,ID,NA,NA,14.676390154968095
83714,Ada County,ID,NA,13.068181818181818,11.121239744758432
83814,Kootenai County,ID,NA,37.07386363636363,NA
60005,Cook County,IL,88,NA,NA
60016,Cook County,IL,26.94736842105263,NA,NA
60018,Cook County,IL,NA,34.51704545454545,NA
60033,McHenry County,IL,NA,69.60227272727273,NA
60046,Lake County,IL,NA,83.94886363636364,NA
60068,Cook County,IL,NA,NA,16.864175022789425
60073,Lake County,IL,NA,NA,40.10938924339107
60076,Cook County,IL,NA,NA,13.035551504102097
60089,Lake County,IL,41.473684210526315,NA,NA
60102,McHenry County,IL,NA,NA,40.838650865998176
60120,Kane County,IL,NA,NA,44.57611668185962
60134,Kane County,IL,NA,NA,56.79124886052871
60152,McHenry County,IL,NA,47.58522727272727,NA
60154,Cook County,IL,NA,NA,27.803099361896077
60174,Kane County,IL,NA,NA,31.814038286235185
60190,DuPage County,IL,NA,NA,85.96171376481313
60426,Cook County,IL,53.89473684210526,NA,NA
60431,Will County,IL,NA,38.06818181818182,83.50045578851413
60451,Will County,IL,NA,NA,38.28623518687329
60453,Cook County,IL,NA,NA,4.740200546946217
60463,Cook County,IL,NA,92.4715909090909,NA
60473,Cook County,IL,NA,NA,22.333637192342753
60477,Cook County,IL,NA,NA,9.206927985414767
60478,Cook County,IL,NA,NA,41.65907019143118
60491,Will County,IL,NA,24.147727272727273,70.82953509571558
60502,DuPage County,IL,51.578947368421055,NA,NA
60521,DuPage County,IL,NA,84.0909090909091,NA
60532,DuPage County,IL,NA,41.47727272727273,NA
60545,Kendall County,IL,NA,NA,84.86782133090246
60559,DuPage County,IL,NA,NA,54.69462169553327
60565,DuPage County,IL,NA,51.27840909090909,NA
60586,Will County,IL,NA,NA,56.60893345487694
60614,Cook County,IL,25.263157894736842,NA,10.118505013673655
60616,Cook County,IL,NA,84.375,NA
60618,Cook County,IL,NA,NA,15.405651777575205
60619,Cook County,IL,NA,NA,0.7292616226071102
60620,Cook County,IL,8.210526315789474,NA,NA
60622,Cook County,IL,NA,41.61931818181818,38.28623518687329
60623,Cook County,IL,NA,11.079545454545455,NA
60624,Cook County,IL,NA,23.295454545454543,NA
60626,Cook County,IL,NA,5.965909090909091,NA
60628,Cook County,IL,8.631578947368421,3.125,18.231540565177756
60629,Cook County,IL,NA,NA,8.20419325432999
60633,Cook County,IL,NA,NA,51.68641750227895
60634,Cook County,IL,12.631578947368421,NA,NA
60636,Cook County,IL,NA,NA,52.14220601640839
60637,Cook County,IL,NA,41.76136363636363,NA
60638,Cook County,IL,NA,NA,3.828623518687329
60639,Cook County,IL,NA,33.38068181818182,NA
60640,Cook County,IL,NA,6.392045454545454,NA
60642,Cook County,IL,NA,NA,79.21604375569736
60643,Cook County,IL,NA,NA,7.201458523245215
60644,Cook County,IL,10.105263157894736,NA,NA
60647,Cook County,IL,NA,NA,29.44393801276208
60804,Cook County,IL,82.73684210526315,NA,NA
60901,Kankakee County,IL,NA,NA,8.295350957155879
60915,Kankakee County,IL,NA,NA,42.02370100273473
60970,Iroquois County,IL,NA,NA,43.11759343664539
61025,Jo Daviess County,IL,NA,NA,93.61896080218779
61071,Whiteside County,IL,NA,47.159090909090914,NA
61072,Winnebago County,IL,NA,NA,74.8404740200547
61108,Winnebago County,IL,NA,21.875,NA
61252,Whiteside County,IL,NA,NA,80.58340929808568
61550,Tazewell County,IL,NA,NA,37.73928896991796
61604,Peoria County,IL,41.89473684210526,NA,NA
61832,Vermilion County,IL,12.842105263157894,9.943181818181818,NA
61920,Coles County,IL,NA,NA,35.64266180492252
62012,Macoupin County,IL,86.10526315789474,NA,NA
62092,Greene County,IL,NA,NA,99.90884229717412
62095,Madison County,IL,NA,NA,44.21148587055606
62226,St. Clair County,IL,NA,NA,22.151321786690975
62439,Lawrence County,IL,NA,66.33522727272727,NA
62441,Clark County,IL,NA,85.51136363636364,NA
62526,Macon County,IL,NA,6.107954545454546,NA
62565,Shelby County,IL,NA,NA,68.36827711941659
62704,Sangamon County,IL,NA,26.27840909090909,NA
62832,Perry County,IL,NA,NA,41.38559708295351
62906,Union County,IL,95.36842105263158,NA,NA
62918,Williamson County,IL,NA,70.45454545454545,NA
62946,Saline County,IL,NA,NA,44.94074749316317
46012,Madison County,IN,39.36842105263158,NA,NA
46033,Hamilton County,IN,NA,NA,36.18960802187785
46143,Johnson County,IN,NA,NA,4.193254329990884
46151,Morgan County,IN,NA,18.181818181818183,NA
46203,Marion County,IN,NA,11.931818181818182,NA
46218,Marion County,IN,NA,50.99431818181818,NA
46227,Marion County,IN,11.368421052631579,NA,NA
46229,Marion County,IN,NA,30.255681818181817,NA
46235,Marion County,IN,50.526315789473685,NA,NA
46260,Marion County,IN,NA,43.18181818181818,NA
46307,Lake County,IN,44,NA,NA
46350,LaPorte County,IN,NA,31.676136363636363,NA
46368,Porter County,IN,3.3684210526315788,NA,NA
46394,Lake County,IN,NA,NA,59.79945305378305
46408,Lake County,IN,47.1578947368421,NA,NA
46507,Elkhart County,IN,NA,96.02272727272727,NA
46516,Elkhart County,IN,21.894736842105264,NA,NA
46563,Marshall County,IN,NA,NA,15.952597994530537
46616,St. Joseph County,IN,NA,98.1534090909091,NA
46701,Noble County,IN,NA,NA,69.46216955332726
46825,Allen County,IN,NA,24.71590909090909,NA
46835,Allen County,IN,NA,NA,23.701002734731087
46901,Howard County,IN,NA,NA,62.07839562443026
46902,Howard County,IN,NA,NA,6.381039197812215
46933,Grant County,IN,NA,67.61363636363636,93.43664539653601
46953,Grant County,IN,14.526315789473685,NA,NA
46992,Wabash County,IN,NA,37.35795454545455,NA
46996,Pulaski County,IN,73.26315789473684,NA,NA
47130,Clark County,IN,11.578947368421053,NA,NA
47167,Washington County,IN,85.89473684210527,NA,NA
47170,Scott County,IN,NA,NA,72.74384685505926
47240,Decatur County,IN,NA,52.98295454545454,23.518687329079306
47265,Jennings County,IN,54.52631578947369,NA,72.28805834092981
47302,Delaware County,IN,NA,29.40340909090909,45.670009115770284
47371,Jay County,IN,NA,27.84090909090909,NA
47374,Wayne County,IN,NA,NA,0.5469462169553327
47394,Randolph County,IN,67.78947368421052,NA,NA
47401,Monroe County,IN,63.1578947368421,NA,NA
47404,Monroe County,IN,NA,NA,71.74111212397447
47429,Monroe County,IN,NA,NA,77.93983591613491
47433,Owen County,IN,98.94736842105263,NA,NA
47446,Lawrence County,IN,65.6842105263158,NA,NA
47546,Dubois County,IN,51.1578947368421,NA,24.06563354603464
47630,Warrick County,IN,NA,NA,28.71467639015497
47715,Vanderburgh County,IN,31.36842105263158,NA,NA
47803,Vigo County,IN,NA,50.42613636363637,NA
47904,Tippecanoe County,IN,NA,NA,69.46216955332726
47906,Tippecanoe County,IN,NA,24.573863636363637,NA
47918,Fountain County,IN,NA,NA,80.12762078395625
50138,Marion County,IA,50.94736842105263,NA,NA
50219,Marion County,IA,NA,48.01136363636363,NA
50266,Polk County,IA,NA,76.70454545454545,NA
50273,Madison County,IA,NA,95.3125,NA
50315,Polk County,IA,89.05263157894737,NA,NA
50322,Polk County,IA,NA,NA,50.4102096627165
50501,Webster County,IA,NA,NA,73.65542388331814
50644,Buchanan County,IA,NA,NA,89.33454876937101
50703,Black Hawk County,IA,NA,27.698863636363637,NA
51104,Woodbury County,IA,NA,NA,73.29079307201458
51566,Montgomery County,IA,NA,NA,99.54421148587056
51632,Page County,IA,NA,NA,33.363719234275294
52246,Johnson County,IA,NA,NA,61.16681859617138
52302,Linn County,IA,NA,NA,87.87602552415679
52317,Johnson County,IA,86.52631578947368,NA,NA
52403,Linn County,IA,NA,NA,96.44484958979034
52655,Des Moines County,IA,NA,NA,98.81494986326345
52803,Scott County,IA,NA,NA,62.35186873290793
66048,Leavenworth County,KS,NA,NA,85.59708295350957
66062,Johnson County,KS,NA,NA,14.585232452142204
66214,Johnson County,KS,NA,NA,85.23245214220601
66215,Johnson County,KS,NA,NA,33.910665451230635
66223,Johnson County,KS,NA,NA,79.67183226982681
66441,Geary County,KS,NA,59.375,NA
66605,Shawnee County,KS,NA,79.9715909090909,NA
66610,Shawnee County,KS,NA,NA,79.85414767547859
66611,Shawnee County,KS,NA,NA,62.898814949863265
66762,Crawford County,KS,NA,45.45454545454545,NA
66801,Lyon County,KS,NA,NA,25.61531449407475
67133,Butler County,KS,NA,NA,94.3482224247949
67203,Sedgwick County,KS,66.94736842105263,NA,NA
67207,Sedgwick County,KS,NA,NA,72.3792160437557
67211,Sedgwick County,KS,NA,85.6534090909091,NA
67212,Sedgwick County,KS,60.631578947368425,NA,NA
67357,Labette County,KS,NA,83.0965909090909,NA
67467,Ottawa County,KS,NA,98.86363636363636,NA
67502,Reno County,KS,NA,NA,45.39653600729262
67530,Barton County,KS,NA,52.55681818181818,NA
67601,Ellis County,KS,42.73684210526316,NA,NA
67735,Sherman County,KS,88.8421052631579,NA,NA
67846,Finney County,KS,NA,NA,19.872379216043758
40004,Nelson County,KY,NA,75.71022727272727,34.91340018231541
40067,Shelby County,KY,92.63157894736842,NA,NA
40118,Jefferson County,KY,NA,58.38068181818182,NA
40203,Jefferson County,KY,NA,NA,52.8714676390155
40204,Jefferson County,KY,NA,78.69318181818183,NA
40205,Jefferson County,KY,NA,83.52272727272727,NA
40210,Jefferson County,KY,NA,51.5625,78.39562443026435
40213,Jefferson County,KY,36,NA,NA
40215,Jefferson County,KY,NA,NA,81.67730173199635
40220,Jefferson County,KY,NA,NA,18.04922515952598
40241,Jefferson County,KY,NA,NA,24.247948951686418
40299,Jefferson County,KY,NA,NA,15.496809480401094
40311,Nicholas County,KY,69.26315789473684,NA,76.3901549680948
40330,Mercer County,KY,NA,47.30113636363637,NA
40342,Anderson County,KY,64.21052631578948,NA,NA
40383,Woodford County,KY,NA,NA,53.327256153144944
40391,Clark County,KY,34.31578947368421,NA,NA
40503,Fayette County,KY,NA,95.88068181818183,NA
40508,Fayette County,KY,35.368421052631575,NA,NA
41011,Kenton County,KY,18.736842105263158,NA,NA
41017,Kenton County,KY,NA,NA,49.04284412032817
41042,Boone County,KY,94.94736842105263,NA,2.2789425706472195
41048,Boone County,KY,94.3157894736842,NA,NA
41164,Carter County,KY,NA,NA,42.47948951686418
41653,Floyd County,KY,NA,NA,86.59981768459434
42003,McCracken County,KY,NA,NA,26.98268003646308
42029,Marshall County,KY,70.52631578947368,NA,NA
42129,Metcalfe County,KY,55.78947368421052,NA,NA
42134,Simpson County,KY,NA,63.21022727272727,NA
42141,Barren County,KY,15.578947368421053,NA,NA
42256,Logan County,KY,82.3157894736842,NA,NA
42376,Daviess County,KY,NA,NA,80.12762078395625
42431,Hopkins County,KY,NA,NA,26.52689152233364
42445,Caldwell County,KY,NA,58.94886363636363,NA
42501,Pulaski County,KY,NA,NA,64.9954421148587
42503,Pulaski County,KY,NA,NA,60.61987237921605
42717,Cumberland County,KY,NA,68.03977272727273,NA
42718,Taylor County,KY,NA,9.375,NA
70003,Jefferson Parish,LA,NA,2.556818181818182,NA
70065,Jefferson Parish,LA,5.052631578947368,2.130681818181818,2.0054694621695535
70072,Jefferson Parish,LA,NA,2.414772727272727,NA
70115,Orleans Parish,LA,NA,NA,35.278030993618955
70118,Orleans Parish,LA,NA,NA,26.709206927985413
70126,Orleans Parish,LA,7.7894736842105265,NA,NA
70128,Orleans Parish,LA,NA,NA,90.70191431175935
70131,Orleans Parish,LA,NA,NA,41.20328167730173
70427,Washington Parish,LA,NA,NA,23.701002734731087
70438,Washington Parish,LA,NA,12.215909090909092,NA
70445,St. Tammany Parish,LA,NA,NA,91.79580674567
70447,St. Tammany Parish,LA,NA,NA,59.25250683682771
70454,Tangipahoa Parish,LA,NA,NA,26.89152233363719
70458,St. Tammany Parish,LA,NA,NA,8.477666362807659
70461,St. Tammany Parish,LA,NA,NA,82.49772105742935
70510,Vermilion Parish,LA,13.263157894736842,NA,NA
70512,St. Landry Parish,LA,NA,NA,76.4813126709207
70517,St. Martin Parish,LA,NA,NA,32.99908842297174
70520,Lafayette Parish,LA,54.10526315789473,NA,NA
70538,St. Mary Parish,LA,NA,46.875,95.35095715587967
70546,Jefferson Davis Parish,LA,NA,55.25568181818182,NA
70560,Iberia Parish,LA,2.9473684210526314,NA,NA
70578,Acadia Parish,LA,NA,NA,95.62443026435734
70592,Lafayette Parish,LA,NA,NA,76.75478577939836
70605,Calcasieu Parish,LA,NA,59.23295454545454,NA
70775,West Feliciana Parish,LA,NA,65.3409090909091,NA
70802,East Baton Rouge Parish,LA,NA,69.0340909090909,NA
70805,East Baton Rouge Parish,LA,22.105263157894736,NA,NA
70807,East Baton Rouge Parish,LA,NA,NA,65.54238833181404
70814,East Baton Rouge Parish,LA,NA,NA,71.37648131267092
70816,East Baton Rouge Parish,LA,NA,29.6875,30.993618960802188
71107,Caddo Parish,LA,NA,NA,23.609845031905195
71109,Caddo Parish,LA,NA,NA,32.178669097538744
71115,Caddo Parish,LA,NA,95.0284090909091,32.81677301731996
71119,Caddo Parish,LA,NA,NA,58.70556061987238
71129,Caddo Parish,LA,NA,NA,98.26800364630812
71202,Ouachita Parish,LA,NA,NA,85.41476754785779
71203,Ouachita Parish,LA,34.73684210526316,NA,NA
71373,Concordia Parish,LA,NA,NA,87.23792160437557
71418,Caldwell Parish,LA,NA,91.76136363636364,NA
71457,Natchitoches Parish,LA,NA,NA,29.626253418413857
03909,York County,ME,NA,NA,82.04193254329991
04002,York County,ME,NA,NA,57.976298997265275
04005,York County,ME,NA,NA,10.027347310847768
04064,York County,ME,NA,38.21022727272727,NA
04073,York County,ME,NA,NA,11.759343664539653
04090,York County,ME,NA,NA,14.949863263445762
04103,Cumberland County,ME,53.05263157894737,NA,NA
04105,Cumberland County,ME,NA,NA,92.25159525979946
04210,Androscoggin County,ME,NA,8.806818181818182,NA
04240,Androscoggin County,ME,NA,NA,1.0938924339106655
04330,Kennebec County,ME,NA,5.3977272727272725,NA
04364,Kennebec County,ME,NA,82.38636363636364,NA
04401,Penobscot County,ME,18.10526315789474,44.31818181818182,NA
04915,Waldo County,ME,NA,32.528409090909086,NA
04976,Somerset County,ME,NA,NA,65.0865998176846
20637,Charles County,MD,NA,NA,95.53327256153145
20639,Calvert County,MD,NA,NA,81.22151321786691
20640,Charles County,MD,97.68421052631578,NA,NA
20646,Charles County,MD,NA,79.26136363636364,70.46490428441203
20678,Calvert County,MD,NA,75.85227272727273,NA
20735,Prince George's County,MD,81.47368421052632,NA,58.340929808568816
20754,Calvert County,MD,NA,96.44886363636364,NA
20772,Prince George's County,MD,47.78947368421053,NA,NA
20784,Prince George's County,MD,NA,71.16477272727273,NA
20882,Montgomery County,MD,83.15789473684211,NA,NA
20901,Montgomery County,MD,NA,NA,46.58158614402917
20902,Montgomery County,MD,NA,57.52840909090909,NA
20906,Montgomery County,MD,NA,NA,9.845031905195988
21012,Anne Arundel County,MD,NA,NA,66.18049225159525
21014,Harford County,MD,NA,27.556818181818183,NA
21044,Howard County,MD,NA,NA,61.62260711030082
21061,Anne Arundel County,MD,NA,NA,18.596171376481312
21084,Harford County,MD,NA,97.01704545454545,NA
21128,Baltimore County,MD,NA,NA,58.43208751139471
21133,Baltimore County,MD,NA,NA,35.369188696444844
21146,Anne Arundel County,MD,NA,NA,55.51504102096627
21220,Baltimore County,MD,23.36842105263158,NA,NA
21222,Baltimore County,MD,5.894736842105263,NA,4.284412032816773
21223,Baltimore city,MD,NA,42.89772727272727,NA
21225,Baltimore city,MD,NA,NA,45.03190519598906
21228,Baltimore County,MD,NA,11.221590909090908,NA
21229,Baltimore city,MD,23.157894736842106,NA,NA
21231,Baltimore city,MD,NA,NA,69.18869644484958
21239,Baltimore city,MD,NA,17.045454545454543,NA
21244,Baltimore County,MD,NA,33.80681818181818,NA
21286,Baltimore County,MD,77.6842105263158,NA,NA
21401,Anne Arundel County,MD,NA,NA,16.49954421148587
21502,Allegany County,MD,NA,NA,71.28532360984504
21703,Frederick County,MD,NA,NA,98.72379216043757
21740,Washington County,MD,NA,NA,23.97447584320875
21750,Washington County,MD,NA,NA,97.44758432087511
21771,Frederick County,MD,NA,NA,67.4567000911577
21801,Wicomico County,MD,NA,55.68181818181818,NA
21804,Wicomico County,MD,NA,NA,31.449407474931633
21811,Worcester County,MD,NA,22.869318181818183,NA
01028,Hampden County,MA,NA,NA,41.020966271649954
01040,Hampden County,MA,1.4736842105263157,NA,NA
01104,Hampden County,MA,NA,9.659090909090908,NA
01106,Hampden County,MA,NA,NA,37.83044667274385
01109,Hampden County,MA,0.21052631578947367,NA,NA
01118,Hampden County,MA,NA,94.46022727272727,NA
01119,Hampden County,MA,NA,NA,75.75205104831359
01201,Berkshire County,MA,NA,NA,0.4557885141294439
01247,Berkshire County,MA,NA,NA,49.68094804010939
01420,Worcester County,MA,NA,NA,4.102096627164995
01453,Worcester County,MA,NA,NA,85.68824065633545
01501,Worcester County,MA,NA,NA,17.593436645396533
01545,Worcester County,MA,NA,NA,12.123974475843209
01602,Worcester County,MA,NA,NA,18.413855970829534
01604,Worcester County,MA,22.526315789473685,NA,NA
01606,Worcester County,MA,NA,NA,35.916134913400185
01609,Worcester County,MA,NA,4.545454545454546,25.888787602552416
01749,Middlesex County,MA,NA,NA,43.573381950774845
01824,Middlesex County,MA,NA,NA,51.50410209662717
01830,Essex County,MA,1.0526315789473684,NA,30.355515041020965
01841,Essex County,MA,NA,NA,51.95989061075661
01844,Essex County,MA,NA,20.454545454545457,NA
01852,Middlesex County,MA,9.894736842105264,NA,NA
01879,Middlesex County,MA,NA,NA,55.24156791248861
01880,Middlesex County,MA,NA,4.829545454545454,NA
01923,Essex County,MA,NA,NA,43.75569735642662
02026,Norfolk County,MA,NA,NA,11.577028258887875
02072,Norfolk County,MA,NA,7.8125,NA
02116,Suffolk County,MA,NA,NA,98.90610756608933
02118,Suffolk County,MA,0,NA,NA
02119,Suffolk County,MA,NA,0.14204545454545456,90.88422971741113
02122,Suffolk County,MA,0.8421052631578947,NA,NA
02128,Suffolk County,MA,NA,NA,44.39380127620784
02129,Suffolk County,MA,NA,NA,37.192342752962624
02132,Suffolk County,MA,NA,1.278409090909091,NA
02135,Suffolk County,MA,NA,56.25,10.300820419325433
02150,Suffolk County,MA,NA,NA,3.555150410209663
02152,Suffolk County,MA,NA,6.8181818181818175,NA
02302,Plymouth County,MA,NA,NA,3.646308113035551
02370,Plymouth County,MA,NA,NA,48.86052871467639
02382,Plymouth County,MA,NA,90.76704545454545,NA
02466,Middlesex County,MA,84.42105263157896,NA,NA
02476,Middlesex County,MA,38.526315789473685,NA,NA
02639,Barnstable County,MA,NA,78.125,NA
02720,Bristol County,MA,NA,90.625,NA
02779,Bristol County,MA,NA,NA,92.34275296262534
48015,Macomb County,MI,NA,49.14772727272727,NA
48026,Macomb County,MI,98.73684210526315,NA,NA
48034,Oakland County,MI,NA,NA,36.007292616226074
48038,Macomb County,MI,NA,NA,2.734731084776664
48080,Macomb County,MI,NA,NA,20.96627164995442
48081,Macomb County,MI,NA,72.30113636363636,12.670920692798541
48092,Macomb County,MI,NA,19.176136363636363,NA
48105,Washtenaw County,MI,NA,NA,1.367365542388332
48126,Wayne County,MI,NA,36.50568181818182,NA
48141,Wayne County,MI,34.526315789473685,NA,27.256153144940747
48180,Wayne County,MI,NA,NA,16.40838650865998
48183,Wayne County,MI,35.578947368421055,NA,NA
48184,Wayne County,MI,NA,21.448863636363637,32.72561531449407
48185,Wayne County,MI,NA,NA,6.927985414767549
48187,Wayne County,MI,NA,NA,31.175934366453966
48195,Wayne County,MI,26.736842105263158,NA,NA
48198,Washtenaw County,MI,2.736842105263158,NA,20.601640838650866
48202,Wayne County,MI,NA,36.36363636363637,81.40382862351869
48203,Wayne County,MI,NA,19.460227272727273,NA
48206,Wayne County,MI,NA,25.426136363636363,NA
48207,Wayne County,MI,NA,NA,13.764813126709207
48208,Wayne County,MI,NA,NA,81.03919781221514
48212,Wayne County,MI,NA,42.471590909090914,NA
48214,Wayne County,MI,NA,NA,34.54876937101185
48220,Oakland County,MI,NA,NA,74.38468550592525
48221,Wayne County,MI,NA,4.6875,34.54876937101185
48223,Wayne County,MI,NA,NA,77.84867821330901
48236,Wayne County,MI,NA,NA,9.389243391066545
48237,Oakland County,MI,NA,79.54545454545455,NA
48238,Wayne County,MI,6.105263157894736,46.30681818181818,NA
48239,Wayne County,MI,NA,NA,66.6362807657247
48240,Wayne County,MI,NA,NA,25.06836827711942
48304,Oakland County,MI,NA,NA,22.51595259799453
48322,Oakland County,MI,NA,NA,2.8258887876025525
48327,Oakland County,MI,NA,NA,41.11212397447584
48342,Oakland County,MI,19.789473684210527,NA,NA
48381,Oakland County,MI,NA,NA,42.75296262534184
48415,Saginaw County,MI,48,NA,NA
48423,Genesee County,MI,NA,19.03409090909091,NA
48446,Lapeer County,MI,19.57894736842105,NA,NA
48458,Genesee County,MI,NA,NA,48.495897903372835
48473,Genesee County,MI,NA,35.08522727272727,NA
48505,Genesee County,MI,22.94736842105263,48.721590909090914,NA
48532,Genesee County,MI,NA,35.36931818181818,NA
48603,Saginaw County,MI,NA,NA,8.386508659981768
48611,Bay County,MI,NA,NA,65.9070191431176
48624,Gladwin County,MI,40,NA,NA
48629,Roscommon County,MI,89.47368421052632,NA,NA
48632,Clare County,MI,80.84210526315789,NA,NA
48640,Midland County,MI,NA,NA,57.7028258887876
48706,Bay County,MI,NA,NA,1.5496809480401095
48723,Tuscola County,MI,29.05263157894737,21.164772727272727,NA
48867,Shiawassee County,MI,NA,30.53977272727273,30.537830446672743
48906,Ingham County,MI,16.63157894736842,NA,NA
48910,Ingham County,MI,NA,90.9090909090909,NA
48917,Eaton County,MI,NA,7.8125,NA
49007,Kalamazoo County,MI,NA,80.9659090909091,NA
49010,Allegan County,MI,NA,39.48863636363637,NA
49013,Van Buren County,MI,NA,NA,80.12762078395625
49048,Kalamazoo County,MI,99.57894736842105,NA,NA
49090,Van Buren County,MI,56.00000000000001,NA,NA
49093,St. Joseph County,MI,NA,NA,28.988149498632637
49094,Branch County,MI,87.36842105263159,NA,NA
49106,Berrien County,MI,NA,NA,89.69917958067457
49107,Berrien County,MI,NA,NA,72.56153144940748
49203,Jackson County,MI,9.263157894736842,5.823863636363636,NA
49242,Hillsdale County,MI,NA,NA,41.29443938012762
49286,Lenawee County,MI,54.315789473684205,NA,35.095715587967184
49319,Kent County,MI,NA,NA,73.1996353691887
49341,Kent County,MI,30.105263157894736,NA,20.23701002734731
49345,Kent County,MI,93.89473684210526,NA,NA
49348,Allegan County,MI,NA,NA,67.73017319963537
49423,Ottawa County,MI,NA,8.096590909090908,NA
49503,Kent County,MI,NA,NA,38.103919781221514
49504,Kent County,MI,NA,NA,7.748404740200547
49506,Kent County,MI,NA,NA,15.770282588878759
49686,Grand Traverse County,MI,NA,22.301136363636363,NA
49801,Dickinson County,MI,NA,36.07954545454545,NA
49855,Marquette County,MI,79.36842105263158,NA,NA
49868,Luce County,MI,NA,NA,59.16134913400183
55051,Kanabec County,MN,NA,NA,38.742023701002736
55079,Chisago County,MN,77.26315789473685,NA,NA
55104,Ramsey County,MN,NA,NA,39.28896991795806
55106,Ramsey County,MN,NA,NA,73.56426618049225
55110,Ramsey County,MN,NA,NA,30.17319963536919
55112,Ramsey County,MN,NA,NA,15.04102096627165
55304,Anoka County,MN,67.15789473684211,NA,NA
55337,Dakota County,MN,NA,20.59659090909091,NA
55346,Hennepin County,MN,NA,NA,70.10027347310847
55369,Hennepin County,MN,NA,NA,81.58614402917046
55404,Hennepin County,MN,NA,38.35227272727273,NA
55414,Hennepin County,MN,50.73684210526316,NA,NA
55418,Hennepin County,MN,NA,NA,41.841385597082954
55420,Hennepin County,MN,NA,51.70454545454546,NA
55421,Anoka County,MN,NA,NA,68.18596171376481
55422,Hennepin County,MN,92.84210526315789,NA,NA
55423,Hennepin County,MN,NA,67.32954545454545,NA
55432,Anoka County,MN,26.105263157894736,NA,NA
55433,Anoka County,MN,78.94736842105263,NA,36.5542388331814
55435,Hennepin County,MN,NA,NA,52.78030993618961
55443,Hennepin County,MN,NA,NA,52.50683682771194
55447,Hennepin County,MN,NA,53.97727272727273,NA
55734,St. Louis County,MN,NA,NA,55.42388331814039
55744,Itasca County,MN,NA,NA,4.466727438468551
55792,St. Louis County,MN,85.47368421052632,NA,NA
55901,Olmsted County,MN,NA,NA,10.209662716499544
56001,Blue Earth County,MN,33.473684210526315,NA,NA
56007,Freeborn County,MN,NA,NA,28.167730173199633
56093,Waseca County,MN,NA,NA,21.422060164083863
56283,Redwood County,MN,NA,NA,77.02825888787602
56301,Stearns County,MN,NA,NA,76.84594348222424
56345,Morrison County,MN,NA,NA,40.47402005469462
56501,Becker County,MN,40.21052631578947,NA,NA
56537,Otter Tail County,MN,NA,8.948863636363637,NA
56557,Norman County,MN,83.36842105263158,NA,NA
56560,Clay County,MN,1.6842105263157894,3.2670454545454546,9.02461257976299
56621,Clearwater County,MN,94.10526315789474,NA,NA
38614,Coahoma County,MS,NA,NA,97.99453053783044
38618,Tate County,MS,NA,88.92045454545455,NA
38701,Washington County,MS,NA,NA,94.62169553327257
38801,Lee County,MS,NA,75.99431818181817,NA
38901,Grenada County,MS,NA,NA,34.45761166818596
38965,Yalobusha County,MS,NA,69.31818181818183,NA
39051,Leake County,MS,NA,84.80113636363636,NA
39069,Jefferson County,MS,91.36842105263158,NA,NA
39073,Rankin County,MS,NA,NA,62.71649954421149
39120,Adams County,MS,42.526315789473685,NA,NA
39206,Hinds County,MS,30.315789473684212,NA,NA
39213,Hinds County,MS,36.421052631578945,45.88068181818182,NA
39301,Lauderdale County,MS,NA,87.2159090909091,NA
39305,Lauderdale County,MS,NA,NA,43.026435733819504
39455,Lamar County,MS,NA,NA,98.54147675478579
39501,Harrison County,MS,NA,NA,22.060164083865086
39503,Harrison County,MS,13.052631578947368,NA,NA
39507,Harrison County,MS,NA,NA,9.571558796718323
39520,Hancock County,MS,84,NA,48.40474020054695
39531,Harrison County,MS,NA,NA,49.13400182315406
39562,Jackson County,MS,NA,NA,66.6362807657247
39564,Jackson County,MS,35.1578947368421,NA,NA
39629,Lincoln County,MS,NA,70.5965909090909,NA
39759,Oktibbeha County,MS,NA,98.57954545454545,NA
39773,Clay County,MS,NA,NA,69.18869644484958
63023,Jefferson County,MO,NA,NA,91.70464904284412
63026,St. Louis County,MO,NA,40.909090909090914,17.41112123974476
63028,Jefferson County,MO,NA,NA,37.83044667274385
63031,St. Louis County,MO,NA,NA,6.472196900638104
63033,St. Louis County,MO,NA,NA,6.198723792160438
63111,St. Louis city,MO,NA,44.88636363636363,NA
63113,St. Louis city,MO,NA,NA,63.263445761166814
63123,St. Louis County,MO,NA,NA,17.31996353691887
63128,St. Louis County,MO,NA,NA,62.53418413855971
63131,St. Louis County,MO,NA,NA,49.95442114858706
63133,St. Louis County,MO,NA,NA,90.154968094804
63136,St. Louis County,MO,8.842105263157894,NA,NA
63139,St. Louis city,MO,NA,59.51704545454546,NA
63141,St. Louis County,MO,90.31578947368422,NA,NA
63146,St. Louis County,MO,NA,NA,6.289881494986327
63301,St. Charles County,MO,NA,NA,1.6408386508659982
63304,St. Charles County,MO,NA,NA,13.855970829535098
63353,Pike County,MO,NA,NA,99.45305378304467
63379,Lincoln County,MO,NA,25.568181818181817,NA
63501,Adair County,MO,NA,NA,60.43755697356426
63552,Macon County,MO,NA,NA,88.78760255241568
63601,St. Francois County,MO,69.89473684210526,NA,NA
63701,Cape Girardeau County,MO,NA,NA,79.21604375569736
63703,Cape Girardeau County,MO,56.42105263157895,NA,NA
63775,Perry County,MO,NA,NA,52.324521422060165
64050,Jackson County,MO,NA,77.55681818181817,NA
64052,Jackson County,MO,12.421052631578949,NA,NA
64055,Jackson County,MO,49.89473684210527,NA,NA
64068,Clay County,MO,NA,NA,30.628988149498632
64075,Jackson County,MO,NA,NA,76.11668185961715
64086,Jackson County,MO,NA,35.9375,NA
64114,Jackson County,MO,NA,36.64772727272727,NA
64124,Jackson County,MO,NA,59.09090909090909,80.58340929808568
64130,Jackson County,MO,NA,68.4659090909091,NA
64131,Jackson County,MO,NA,31.392045454545453,NA
64468,Nodaway County,MO,NA,96.30681818181817,NA
64505,Buchanan County,MO,NA,20.59659090909091,NA
64506,Buchanan County,MO,NA,5.5397727272727275,0.8204193254329991
64701,Cass County,MO,NA,55.25568181818182,NA
64759,Barton County,MO,78.10526315789474,NA,NA
64850,Newton County,MO,NA,18.892045454545457,NA
65078,Morgan County,MO,NA,NA,89.60802187784867
65233,Cooper County,MO,63.78947368421053,NA,NA
65355,Benton County,MO,NA,17.329545454545457,NA
65560,Dent County,MO,55.368421052631575,NA,NA
65616,Taney County,MO,NA,NA,20.875113947128533
65672,Taney County,MO,NA,NA,55.97082953509571
59404,Cascade County,MT,NA,10.227272727272728,NA
59711,Deer Lodge County,MT,NA,NA,54.056517775752056
59715,Gallatin County,MT,75.57894736842105,NA,NA
59901,Flathead County,MT,75.1578947368421,37.784090909090914,NA
68008,Washington County,NE,NA,58.23863636363637,NA
68123,Sarpy County,NE,NA,40.340909090909086,NA
68133,Sarpy County,NE,NA,89.77272727272727,NA
68410,Otoe County,NE,NA,NA,57.52051048313582
68510,Lancaster County,NE,NA,71.02272727272727,NA
68701,Madison County,NE,73.89473684210527,NA,NA
68847,Buffalo County,NE,NA,73.7215909090909,NA
68901,Adams County,NE,NA,91.61931818181817,NA
69101,Lincoln County,NE,NA,NA,10.391978122151322
89118,Clark County,NV,NA,NA,81.95077484047401
89120,Clark County,NV,NA,80.82386363636364,NA
89121,Clark County,NV,NA,NA,28.076572470373744
89122,Clark County,NV,NA,75.14204545454545,NA
89134,Clark County,NV,NA,NA,11.212397447584321
89146,Clark County,NV,NA,79.26136363636364,NA
89147,Clark County,NV,NA,NA,92.79854147675478
89156,Clark County,NV,NA,61.78977272727273,NA
89169,Clark County,NV,NA,NA,81.13035551504102
89403,Lyon County,NV,38.94736842105263,NA,60.802187784867826
89434,Washoe County,NV,70.10526315789474,NA,NA
89460,Douglas County,NV,89.6842105263158,NA,NA
89506,Washoe County,NV,NA,27.130681818181817,NA
03038,Rockingham County,NH,17.263157894736842,NA,NA
03051,Hillsborough County,NH,25.684210526315788,NA,NA
03076,Hillsborough County,NH,NA,NA,98.08568824065634
03103,Hillsborough County,NH,7.578947368421053,NA,NA
03303,Merrimack County,NH,NA,NA,94.07474931631722
03801,Rockingham County,NH,50.10526315789474,NA,NA
03825,Strafford County,NH,NA,99.57386363636364,NA
03860,Carroll County,NH,NA,NA,97.26526891522333
03867,Strafford County,NH,NA,NA,87.51139471285325
07003,Essex County,NJ,NA,NA,28.532360984503192
07011,Passaic County,NJ,NA,NA,31.267092069279855
07013,Passaic County,NJ,NA,NA,94.257064721969
07017,Essex County,NJ,NA,NA,85.96171376481313
07047,Hudson County,NJ,NA,NA,6.107566089334549
07065,Union County,NJ,25.894736842105264,NA,NA
07066,Union County,NJ,NA,NA,40.01823154056518
07076,Union County,NJ,NA,71.44886363636364,NA
07083,Union County,NJ,NA,NA,23.336371923427528
07087,Hudson County,NJ,NA,NA,4.649042844120328
07093,Hudson County,NJ,NA,NA,5.104831358249772
07108,Essex County,NJ,17.05263157894737,NA,NA
07206,Union County,NJ,NA,NA,63.992707383773926
07208,Union County,NJ,NA,NA,37.101185050136735
07304,Hudson County,NJ,NA,3.835227272727273,NA
07305,Hudson County,NJ,NA,1.7045454545454544,NA
07306,Hudson County,NJ,NA,NA,14.494074749316319
07403,Passaic County,NJ,NA,92.32954545454545,NA
07663,Bergen County,NJ,NA,NA,90.2461257976299
07724,Monmouth County,NJ,NA,NA,50.04557885141294
07726,Monmouth County,NJ,31.157894736842106,NA,NA
07727,Monmouth County,NJ,NA,NA,86.41750227894256
07728,Monmouth County,NJ,20.42105263157895,NA,2.096627164995442
07821,Sussex County,NJ,NA,NA,94.89516864175023
07828,Morris County,NJ,NA,NA,92.616226071103
07869,Morris County,NJ,NA,NA,48.769371011850495
07885,Morris County,NJ,NA,NA,73.38195077484048
08005,Ocean County,NJ,NA,NA,13.673655423883318
08016,Burlington County,NJ,NA,21.732954545454543,29.990884229717413
08054,Burlington County,NJ,NA,12.073863636363637,NA
08069,Salem County,NJ,NA,NA,51.412944393801276
08075,Burlington County,NJ,19.157894736842103,25.71022727272727,NA
08081,Camden County,NJ,NA,6.676136363636363,NA
08087,Ocean County,NJ,NA,NA,12.03281677301732
08090,Gloucester County,NJ,NA,NA,89.97265268915223
08091,Camden County,NJ,NA,94.88636363636364,NA
08096,Gloucester County,NJ,NA,NA,13.400182315405651
08527,Ocean County,NJ,NA,5.113636363636364,5.742935278030994
08540,Mercer County,NJ,NA,31.96022727272727,NA
08609,Mercer County,NJ,NA,NA,69.9179580674567
08611,Mercer County,NJ,6.526315789473684,NA,NA
08638,Mercer County,NJ,14.947368421052632,NA,NA
08690,Mercer County,NJ,NA,NA,73.92889699179581
08691,Mercer County,NJ,NA,90.19886363636364,NA
08701,Ocean County,NJ,NA,NA,31.631722880583407
08724,Ocean County,NJ,NA,NA,13.126709206927986
08753,Ocean County,NJ,NA,4.119318181818182,NA
08757,Ocean County,NJ,NA,NA,0.18231540565177756
08801,Hunterdon County,NJ,NA,NA,71.19416590701914
08805,Somerset County,NJ,NA,92.61363636363636,NA
08831,Middlesex County,NJ,NA,8.380681818181818,0.9115770282588878
08835,Somerset County,NJ,NA,NA,80.94804010938924
08837,Middlesex County,NJ,NA,NA,88.96991795806746
08840,Middlesex County,NJ,NA,NA,47.310847766636286
08854,Middlesex County,NJ,NA,NA,23.062898814949865
08861,Middlesex County,NJ,1.263157894736842,NA,NA
08901,Middlesex County,NJ,NA,58.09659090909091,NA
08902,Middlesex County,NJ,NA,69.31818181818183,63.263445761166814
87107,Bernalillo County,NM,33.89473684210526,NA,NA
87114,Bernalillo County,NM,10.73684210526316,NA,NA
87122,Bernalillo County,NM,NA,NA,54.60346399270738
87420,San Juan County,NM,NA,NA,74.56700091157703
87701,San Miguel County,NM,NA,NA,39.015496809480396
87740,Colfax County,NM,81.05263157894737,NA,NA
88130,Roosevelt County,NM,NA,NA,55.606198723792154
88310,Otero County,NM,NA,23.15340909090909,5.651777575205105
10001,New York County,NY,NA,NA,40.56517775752051
10021,New York County,NY,NA,NA,14.40291704649043
10026,New York County,NY,NA,NA,64.17502278942571
10029,New York County,NY,NA,NA,0.09115770282588878
10034,New York County,NY,NA,NA,63.081130355515036
10035,New York County,NY,NA,7.386363636363637,NA
10036,New York County,NY,NA,42.75568181818182,76.84594348222424
10044,New York County,NY,NA,NA,82.77119416590702
10305,Richmond County,NY,NA,NA,59.981768459434825
10314,Richmond County,NY,NA,2.9829545454545454,NA
10452,Bronx County,NY,NA,0.4261363636363636,NA
10453,Bronx County,NY,NA,NA,12.306289881494987
10457,Bronx County,NY,NA,NA,8.842297174111211
10462,Bronx County,NY,NA,3.5511363636363638,6.74567000911577
10467,Bronx County,NY,NA,NA,12.215132178669098
10468,Bronx County,NY,NA,NA,30.0820419325433
10469,Bronx County,NY,NA,NA,3.7374658158614404
10516,Putnam County,NY,NA,NA,90.97538742023701
10520,Westchester County,NY,NA,NA,54.329990884229716
10543,Westchester County,NY,NA,69.88636363636364,NA
10549,Westchester County,NY,NA,NA,81.40382862351869
10566,Westchester County,NY,NA,NA,93.25432999088423
10583,Westchester County,NY,NA,NA,24.15679124886053
10598,Westchester County,NY,NA,NA,77.39288969917958
10701,Westchester County,NY,NA,NA,17.502278942570648
10705,Westchester County,NY,NA,NA,25.43299908842297
10920,Rockland County,NY,NA,95.73863636363636,NA
10952,Rockland County,NY,NA,81.96022727272727,NA
10956,Rockland County,NY,96.84210526315789,NA,NA
10970,Rockland County,NY,NA,93.60795454545455,NA
10989,Rockland County,NY,NA,NA,77.48404740200547
11003,Nassau County,NY,NA,NA,40.38286235186873
11030,Nassau County,NY,NA,NA,67.73017319963537
11050,Nassau County,NY,NA,NA,24.430264357338196
11203,Kings County,NY,NA,NA,52.41567912488605
11209,Kings County,NY,NA,50,86.78213309024613
11211,Kings County,NY,NA,16.051136363636363,NA
11214,Kings County,NY,NA,NA,7.019143117593436
11215,Kings County,NY,NA,NA,45.487693710118506
11218,Kings County,NY,NA,75.2840909090909,47.21969006381039
11220,Kings County,NY,NA,NA,40.20054694621695
11221,Kings County,NY,NA,2.6988636363636362,4.010938924339107
11223,Kings County,NY,NA,NA,5.28714676390155
11224,Kings County,NY,NA,46.02272727272727,NA
11226,Kings County,NY,24,NA,8.933454876937102
11229,Kings County,NY,NA,16.761363636363637,1.4585232452142205
11230,Kings County,NY,NA,9.090909090909092,4.740200546946217
11233,Kings County,NY,14.736842105263156,0.5681818181818182,NA
11235,Kings County,NY,NA,NA,47.9489516864175
11236,Kings County,NY,NA,32.95454545454545,49.77210574293528
11237,Kings County,NY,NA,NA,45.12306289881495
11239,Kings County,NY,NA,NA,29.170464904284408
11362,Queens County,NY,NA,NA,32.90793072014585
11366,Queens County,NY,NA,NA,84.41203281677302
11375,Queens County,NY,NA,NA,6.01640838650866
11416,Queens County,NY,NA,NA,94.3482224247949
11422,Queens County,NY,NA,NA,57.42935278030994
11432,Queens County,NY,NA,6.25,NA
11435,Queens County,NY,NA,84.6590909090909,57.338195077484045
11542,Nassau County,NY,NA,46.44886363636363,NA
11550,Nassau County,NY,NA,14.204545454545455,NA
11552,Nassau County,NY,NA,68.60795454545455,NA
11553,Nassau County,NY,NA,NA,52.96262534184139
11560,Nassau County,NY,NA,93.60795454545455,NA
11704,Suffolk County,NY,NA,NA,23.15405651777575
11706,Suffolk County,NY,NA,30.39772727272727,NA
11709,Nassau County,NY,NA,NA,90.51959890610757
11725,Suffolk County,NY,NA,NA,49.498632634457614
11726,Suffolk County,NY,89.26315789473685,NA,NA
11746,Suffolk County,NY,NA,NA,95.25979945305379
11747,Suffolk County,NY,NA,61.50568181818182,NA
11753,Nassau County,NY,NA,NA,92.7073837739289
11756,Nassau County,NY,NA,NA,36.18960802187785
11758,Nassau County,NY,NA,32.67045454545455,NA
11762,Nassau County,NY,NA,NA,34.91340018231541
11766,Suffolk County,NY,NA,67.32954545454545,NA
11768,Suffolk County,NY,NA,NA,43.39106654512307
11772,Suffolk County,NY,NA,NA,34.092980856882406
11783,Nassau County,NY,NA,81.25,NA
11787,Suffolk County,NY,NA,NA,24.88605287146764
11801,Nassau County,NY,NA,89.3465909090909,NA
11946,Suffolk County,NY,NA,NA,79.76298997265269
11950,Suffolk County,NY,NA,80.53977272727273,NA
12010,Montgomery County,NY,6.315789473684211,NA,5.560619872379216
12047,Albany County,NY,NA,NA,44.12032816773017
12061,Rensselaer County,NY,NA,85.08522727272727,NA
12144,Rensselaer County,NY,NA,NA,75.56973564266181
12180,Rensselaer County,NY,NA,NA,7.657247037374658
12189,Albany County,NY,NA,NA,87.96718322698268
12204,Albany County,NY,63.578947368421055,NA,NA
12414,Greene County,NY,NA,NA,62.71649954421149
12524,Dutchess County,NY,NA,NA,72.74384685505926
12534,Columbia County,NY,20.210526315789473,NA,NA
12701,Sullivan County,NY,NA,94.0340909090909,NA
12790,Sullivan County,NY,NA,100,NA
12801,Warren County,NY,NA,NA,63.81039197812215
12822,Saratoga County,NY,NA,NA,79.03372835004558
12831,Saratoga County,NY,NA,NA,99.36189608021878
12866,Saratoga County,NY,NA,9.232954545454545,NA
12901,Clinton County,NY,22.736842105263158,NA,NA
12953,Franklin County,NY,NA,NA,70.6472196900638
13021,Cayuga County,NY,NA,1.5625,NA
13104,Onondaga County,NY,NA,99.28977272727273,NA
13126,Oswego County,NY,4.421052631578947,NA,NA
13203,Onondaga County,NY,NA,NA,64.26618049225159
13208,Onondaga County,NY,15.368421052631579,65.76704545454545,NA
13210,Onondaga County,NY,NA,NA,76.02552415679125
13339,Montgomery County,NY,53.473684210526315,NA,NA
13403,Oneida County,NY,NA,90.05681818181817,NA
13421,Madison County,NY,NA,NA,72.01458523245215
13440,Oneida County,NY,1.8947368421052633,NA,NA
13642,St. Lawrence County,NY,33.68421052631579,NA,NA
13669,St. Lawrence County,NY,NA,NA,43.846855059252505
14031,Erie County,NY,NA,67.61363636363636,NA
14043,Erie County,NY,NA,NA,45.578851412944395
14051,Erie County,NY,NA,43.03977272727273,NA
14092,Niagara County,NY,NA,NA,39.56244302643574
14094,Niagara County,NY,2.1052631578947367,NA,NA
14141,Erie County,NY,NA,NA,81.3126709206928
14150,Erie County,NY,7.157894736842104,NA,NA
14208,Erie County,NY,NA,NA,61.987237921604375
14218,Erie County,NY,NA,68.60795454545455,NA
14220,Erie County,NY,17.684210526315788,NA,NA
14224,Erie County,NY,NA,8.238636363636363,NA
14228,Erie County,NY,NA,NA,62.6253418413856
14304,Niagara County,NY,NA,NA,11.941659070191431
14432,Ontario County,NY,NA,NA,78.12215132178669
14489,Wayne County,NY,NA,98.4375,NA
14534,Monroe County,NY,NA,1.4204545454545454,NA
14589,Wayne County,NY,NA,39.63068181818182,NA
14606,Monroe County,NY,NA,NA,28.62351868732908
14608,Monroe County,NY,NA,64.48863636363636,NA
14612,Monroe County,NY,NA,0.8522727272727272,NA
14616,Monroe County,NY,NA,7.2443181818181825,NA
14620,Monroe County,NY,NA,14.0625,NA
14706,Cattaraugus County,NY,NA,58.38068181818182,NA
14760,Cattaraugus County,NY,11.789473684210526,96.73295454545455,NA
14830,Steuben County,NY,NA,26.5625,NA
14845,Chemung County,NY,21.263157894736842,NA,NA
27025,Rockingham County,NC,NA,NA,44.667274384685506
27048,Rockingham County,NC,NA,57.8125,NA
27101,Forsyth County,NC,NA,89.77272727272727,NA
27103,Forsyth County,NC,NA,NA,0.6381039197812215
27105,Forsyth County,NC,2.3157894736842106,1.9886363636363635,NA
27205,Randolph County,NC,NA,NA,98.99726526891523
27239,Davidson County,NC,64.42105263157895,NA,NA
27260,Guilford County,NC,NA,NA,51.68641750227895
27265,Guilford County,NC,NA,12.642045454545455,NA
27288,Rockingham County,NC,NA,NA,33.63719234275296
27292,Davidson County,NC,NA,NA,3.919781221513218
27298,Randolph County,NC,NA,62.07386363636363,NA
27317,Randolph County,NC,NA,NA,67.00091157702826
27332,Lee County,NC,38.526315789473685,NA,NA
27360,Davidson County,NC,NA,4.261363636363636,NA
27370,Randolph County,NC,NA,54.82954545454546,NA
27401,Guilford County,NC,NA,NA,50.04557885141294
27405,Guilford County,NC,NA,41.19318181818182,NA
27407,Guilford County,NC,65.26315789473685,NA,NA
27501,Harnett County,NC,NA,NA,60.07292616226071
27504,Johnston County,NC,NA,96.5909090909091,NA
27510,Orange County,NC,NA,NA,90.79307201458523
27511,Wake County,NC,NA,NA,30.446672743846854
27529,Wake County,NC,27.368421052631582,NA,NA
27530,Wayne County,NC,84.21052631578947,NA,NA
27534,Wayne County,NC,NA,NA,24.612579762989974
27536,Vance County,NC,29.68421052631579,NA,NA
27545,Wake County,NC,44.631578947368425,NA,NA
27546,Harnett County,NC,NA,74.57386363636364,NA
27563,Warren County,NC,NA,NA,89.69917958067457
27565,Granville County,NC,NA,15.198863636363635,NA
27574,Person County,NC,94.52631578947368,NA,NA
27577,Johnston County,NC,NA,NA,20.3281677301732
27589,Warren County,NC,NA,NA,66.08933454876937
27604,Wake County,NC,NA,NA,50.77484047402005
27609,Wake County,NC,NA,61.93181818181818,NA
27610,Wake County,NC,NA,28.125,NA
27703,Durham County,NC,NA,NA,20.419325432999088
27704,Durham County,NC,NA,NA,62.989972652689154
27801,Edgecombe County,NC,66.52631578947368,NA,NA
27803,Nash County,NC,46.526315789473685,NA,NA
27828,Pitt County,NC,NA,72.72727272727273,NA
27850,Halifax County,NC,NA,74.85795454545455,NA
27889,Beaufort County,NC,32.8421052631579,NA,NA
27893,Wilson County,NC,NA,NA,62.260711030082035
27910,Hertford County,NC,41.05263157894737,NA,NA
27954,Dare County,NC,NA,81.10795454545455,84.32087511394712
28021,Gaston County,NC,93.6842105263158,NA,NA
28054,Gaston County,NC,NA,NA,84.22971741112124
28110,Union County,NC,NA,13.778409090909092,NA
28127,Stanly County,NC,NA,77.41477272727273,NA
28160,Rutherford County,NC,95.15789473684211,NA,NA
28205,Mecklenburg County,NC,NA,56.96022727272727,NA
28211,Mecklenburg County,NC,NA,52.84090909090909,32.26982680036463
28216,Mecklenburg County,NC,NA,NA,21.23974475843209
28217,Mecklenburg County,NC,NA,NA,65.99817684594348
28262,Mecklenburg County,NC,NA,63.77840909090909,82.13309024612579
28269,Mecklenburg County,NC,NA,NA,31.358249772105744
28304,Cumberland County,NC,NA,40.625,NA
28305,Cumberland County,NC,NA,75.56818181818183,NA
28311,Cumberland County,NC,NA,37.215909090909086,NA
28312,Cumberland County,NC,61.26315789473684,NA,NA
28314,Cumberland County,NC,31.57894736842105,NA,NA
28333,Wayne County,NC,93.05263157894737,NA,NA
28340,Robeson County,NC,NA,87.92613636363636,NA
28358,Robeson County,NC,62.94736842105263,NA,46.03463992707384
28371,Robeson County,NC,NA,NA,98.17684594348222
28372,Robeson County,NC,NA,99.7159090909091,NA
28376,Hoke County,NC,NA,NA,82.31540565177757
28379,Richmond County,NC,NA,NA,27.711941659070195
28401,New Hanover County,NC,NA,28.40909090909091,NA
28403,New Hanover County,NC,40.8421052631579,NA,NA
28425,Pender County,NC,NA,NA,71.01185050136736
28465,Brunswick County,NC,93.47368421052632,NA,NA
28504,Lenoir County,NC,NA,55.96590909090909,NA
28513,Pitt County,NC,NA,72.72727272727273,NA
28601,Catawba County,NC,NA,8.522727272727272,NA
28607,Watauga County,NC,NA,NA,94.80401093892435
28630,Caldwell County,NC,NA,68.89204545454545,NA
28642,Yadkin County,NC,NA,NA,92.88969917958067
28645,Caldwell County,NC,NA,0.2840909090909091,NA
28650,Catawba County,NC,61.89473684210526,77.13068181818183,57.52051048313582
28655,Burke County,NC,NA,NA,32.36098450319052
28712,Transylvania County,NC,NA,NA,8.021877848678214
28729,Henderson County,NC,NA,NA,84.04740200546946
28732,Henderson County,NC,NA,NA,96.99179580674567
28734,Macon County,NC,NA,NA,2.643573381950775
28751,Haywood County,NC,NA,87.5,NA
28785,Haywood County,NC,NA,NA,67.27438468550592
28786,Haywood County,NC,NA,NA,17.866909753874204
28803,Buncombe County,NC,NA,92.04545454545455,NA
28806,Buncombe County,NC,NA,NA,77.11941659070192
28906,Cherokee County,NC,NA,NA,15.861440291704648
58103,Cass County,ND,NA,NA,1.0027347310847767
58201,Grand Forks County,ND,NA,NA,1.1850501367365542
58203,Grand Forks County,ND,77.05263157894737,NA,NA
43021,Delaware County,OH,NA,79.11931818181817,NA
43031,Licking County,OH,NA,NA,91.15770282588879
43040,Union County,OH,NA,16.335227272727273,NA
43055,Licking County,OH,NA,NA,2.461257976298997
43068,Franklin County,OH,NA,36.93181818181818,NA
43081,Franklin County,OH,NA,NA,19.416590701914313
43110,Franklin County,OH,NA,9.517045454545455,NA
43130,Fairfield County,OH,NA,NA,19.143117593436646
43138,Hocking County,OH,NA,25.28409090909091,NA
43204,Franklin County,OH,NA,42.61363636363637,NA
43205,Franklin County,OH,NA,NA,71.46763901549681
43207,Franklin County,OH,NA,5.255681818181818,14.767547857793984
43212,Franklin County,OH,NA,NA,59.43482224247949
43228,Franklin County,OH,NA,11.647727272727272,NA
43229,Franklin County,OH,NA,NA,16.773017319963536
43230,Franklin County,OH,NA,43.89204545454545,NA
43231,Franklin County,OH,NA,50.71022727272727,NA
43235,Franklin County,OH,NA,NA,25.159525979945307
43452,Ottawa County,OH,NA,28.97727272727273,NA
43506,Williams County,OH,NA,22.017045454545457,NA
43604,Lucas County,OH,42.94736842105264,47.86931818181818,97.17411121239745
43611,Lucas County,OH,NA,NA,44.667274384685506
43614,Lucas County,OH,NA,10.085227272727272,NA
43725,Guernsey County,OH,NA,NA,94.71285323609845
43764,Perry County,OH,NA,63.06818181818182,80.85688240656336
43920,Columbiana County,OH,NA,NA,11.30355515041021
43952,Jefferson County,OH,9.05263157894737,NA,NA
43968,Columbiana County,OH,NA,86.07954545454545,NA
44012,Lorain County,OH,77.89473684210526,NA,NA
44023,Geauga County,OH,NA,NA,10.938924339106656
44024,Geauga County,OH,NA,NA,11.668185961713764
44035,Lorain County,OH,NA,NA,10.48313582497721
44055,Lorain County,OH,NA,15.482954545454545,NA
44057,Lake County,OH,29.263157894736842,NA,NA
44077,Lake County,OH,NA,NA,0.3646308113035551
44081,Lake County,OH,NA,NA,70.19143117593437
44087,Summit County,OH,NA,NA,2.187784867821331
44105,Cuyahoga County,OH,NA,NA,18.14038286235187
44106,Cuyahoga County,OH,NA,NA,16.134913400182317
44109,Cuyahoga County,OH,NA,1.1363636363636365,NA
44112,Cuyahoga County,OH,NA,3.977272727272727,NA
44113,Cuyahoga County,OH,NA,NA,78.30446672743847
44118,Cuyahoga County,OH,14.105263157894738,NA,NA
44123,Cuyahoga County,OH,NA,NA,31.905195989061074
44130,Cuyahoga County,OH,5.473684210526316,NA,0.27347310847766637
44134,Cuyahoga County,OH,NA,14.630681818181818,3.1905195989061075
44135,Cuyahoga County,OH,NA,NA,20.510483135824977
44136,Cuyahoga County,OH,NA,7.1022727272727275,NA
44138,Cuyahoga County,OH,NA,NA,88.6052871467639
44142,Cuyahoga County,OH,NA,NA,13.49134001823154
44144,Cuyahoga County,OH,NA,6.534090909090909,NA
44203,Summit County,OH,NA,NA,5.469462169553328
44212,Medina County,OH,4,NA,NA
44221,Summit County,OH,60.631578947368425,NA,NA
44233,Medina County,OH,NA,91.19318181818183,NA
44236,Summit County,OH,NA,53.26704545454546,NA
44255,Portage County,OH,68,NA,NA
44256,Medina County,OH,NA,NA,82.40656335460346
44266,Portage County,OH,NA,4.971590909090909,NA
44278,Summit County,OH,NA,39.346590909090914,NA
44286,Summit County,OH,NA,NA,79.03372835004558
44287,Wayne County,OH,NA,NA,95.71558796718323
44305,Summit County,OH,17.894736842105264,NA,NA
44312,Summit County,OH,18.526315789473685,NA,NA
44420,Trumbull County,OH,NA,NA,39.38012762078395
44460,Columbiana County,OH,NA,7.386363636363637,NA
44471,Mahoning County,OH,52.21052631578947,NA,NA
44481,Trumbull County,OH,28.842105263157897,NA,NA
44484,Trumbull County,OH,NA,NA,13.947128532360983
44502,Mahoning County,OH,43.57894736842105,NA,NA
44504,Mahoning County,OH,NA,85.36931818181817,NA
44507,Mahoning County,OH,50.31578947368421,NA,NA
44512,Mahoning County,OH,12.210526315789473,NA,NA
44514,Mahoning County,OH,NA,NA,48.67821330902461
44515,Mahoning County,OH,12,NA,NA
44601,Stark County,OH,48.421052631578945,NA,NA
44622,Tuscarawas County,OH,34.94736842105263,NA,NA
44647,Stark County,OH,NA,95.5965909090909,NA
44683,Tuscarawas County,OH,28.210526315789476,NA,91.43117593436645
44710,Stark County,OH,NA,NA,83.86508659981769
44820,Crawford County,OH,NA,97.86931818181817,NA
44906,Richland County,OH,34.10526315789474,42.1875,NA
45040,Warren County,OH,NA,96.875,NA
45069,Butler County,OH,NA,NA,11.485870556061988
45103,Clermont County,OH,NA,20.3125,NA
45123,Highland County,OH,NA,NA,34.184138559708295
45140,Clermont County,OH,NA,44.46022727272727,NA
45212,Hamilton County,OH,NA,53.125,NA
45213,Hamilton County,OH,NA,NA,73.83773928896991
45231,Hamilton County,OH,NA,14.772727272727273,NA
45240,Hamilton County,OH,NA,NA,42.935278030993615
45241,Hamilton County,OH,NA,NA,37.55697356426618
45245,Clermont County,OH,NA,74.28977272727273,NA
45251,Hamilton County,OH,NA,NA,97.53874202370099
45405,Montgomery County,OH,26.526315789473685,41.33522727272727,NA
45414,Montgomery County,OH,NA,45.028409090909086,NA
45424,Montgomery County,OH,NA,NA,6.654512306289881
45429,Montgomery County,OH,44.21052631578947,NA,NA
45459,Montgomery County,OH,NA,18.607954545454543,NA
45601,Ross County,OH,NA,0,NA
45638,Lawrence County,OH,5.684210526315789,NA,20.692798541476755
45662,Scioto County,OH,3.578947368421052,NA,NA
45680,Lawrence County,OH,NA,86.64772727272727,NA
45875,Putnam County,OH,NA,NA,78.9425706472197
45895,Auglaize County,OH,74.31578947368422,NA,NA
73045,Oklahoma County,OK,77.47368421052632,NA,NA
73072,Cleveland County,OK,NA,23.579545454545457,NA
73080,McClain County,OK,75.78947368421053,NA,NA
73084,Oklahoma County,OK,NA,81.5340909090909,NA
73110,Oklahoma County,OK,NA,32.8125,NA
73121,Oklahoma County,OK,NA,NA,94.89516864175023
73139,Oklahoma County,OK,NA,NA,51.04831358249772
73505,Comanche County,OK,NA,NA,3.00820419325433
73507,Comanche County,OK,NA,26.420454545454547,NA
73942,Texas County,OK,NA,NA,89.24339106654512
74008,Tulsa County,OK,NA,45.3125,NA
74017,Rogers County,OK,NA,NA,21.330902461257974
74019,Rogers County,OK,NA,49.715909090909086,NA
74074,Payne County,OK,NA,84.23295454545455,NA
74106,Tulsa County,OK,86.31578947368422,NA,NA
74110,Tulsa County,OK,NA,73.4375,93.89243391066545
74112,Tulsa County,OK,87.57894736842105,NA,NA
74133,Tulsa County,OK,NA,51.70454545454546,NA
74134,Tulsa County,OK,87.78947368421053,NA,NA
74403,Muskogee County,OK,NA,24.289772727272727,NA
74426,McIntosh County,OK,NA,NA,99.27073837739289
74462,Haskell County,OK,NA,NA,72.10574293527803
74464,Cherokee County,OK,NA,86.50568181818183,NA
74578,Latimer County,OK,NA,NA,91.15770282588879
74604,Kay County,OK,79.78947368421052,NA,NA
74631,Kay County,OK,80.42105263157895,NA,NA
74820,Pontotoc County,OK,10.31578947368421,NA,NA
74848,Hughes County,OK,NA,73.1534090909091,NA
74851,Pottawatomie County,OK,NA,62.64204545454546,NA
74948,Sequoyah County,OK,NA,74.14772727272727,NA
74960,Adair County,OK,NA,NA,57.15587967183227
97051,Columbia County,OR,NA,NA,78.7602552415679
97080,Multnomah County,OR,NA,16.619318181818183,NA
97086,Clackamas County,OR,NA,NA,41.750227894257065
97132,Yamhill County,OR,NA,NA,26.34457611668186
97216,Multnomah County,OR,NA,60.9375,NA
97224,Washington County,OR,NA,NA,23.427529626253417
97229,Washington County,OR,NA,NA,33.63719234275296
97232,Multnomah County,OR,NA,92.75568181818183,NA
97233,Multnomah County,OR,21.052631578947366,NA,NA
97236,Multnomah County,OR,NA,23.4375,NA
97301,Marion County,OR,16.210526315789473,NA,NA
97303,Marion County,OR,42.10526315789473,NA,NA
97322,Linn County,OR,69.6842105263158,NA,53.50957155879672
97355,Linn County,OR,NA,NA,7.292616226071102
97367,Lincoln County,OR,NA,NA,91.34001823154057
97401,Lane County,OR,40.421052631578945,NA,NA
97446,Linn County,OR,94.73684210526315,NA,NA
97470,Douglas County,OR,NA,22.15909090909091,NA
97471,Douglas County,OR,NA,87.35795454545455,NA
97520,Jackson County,OR,NA,NA,25.797629899726527
97524,Jackson County,OR,NA,NA,66.6362807657247
97526,Josephine County,OR,28.000000000000004,29.545454545454547,NA
97535,Jackson County,OR,92.21052631578948,NA,NA
15001,Beaver County,PA,NA,NA,17.775752051048315
15044,Allegheny County,PA,NA,NA,50.683682771194164
15120,Allegheny County,PA,NA,NA,63.53691886964449
15131,Allegheny County,PA,NA,NA,56.517775752051044
15132,Allegheny County,PA,NA,55.11363636363637,NA
15136,Allegheny County,PA,59.578947368421055,NA,NA
15147,Allegheny County,PA,NA,NA,15.679124886052872
15205,Allegheny County,PA,NA,49.85795454545455,NA
15208,Allegheny County,PA,NA,NA,53.418413855970826
15209,Allegheny County,PA,NA,NA,46.21695533272562
15221,Allegheny County,PA,NA,NA,13.309024612579762
15224,Allegheny County,PA,NA,NA,74.20237010027347
15235,Allegheny County,PA,NA,NA,7.566089334548769
15237,Allegheny County,PA,NA,NA,3.372835004557885
15317,Washington County,PA,NA,8.664772727272728,NA
15320,Greene County,PA,NA,83.80681818181817,NA
15332,Washington County,PA,98.52631578947368,NA,NA
15370,Greene County,PA,NA,NA,49.22515952597995
15401,Fayette County,PA,NA,NA,7.474931631722881
15501,Somerset County,PA,NA,44.034090909090914,NA
15613,Westmoreland County,PA,NA,88.49431818181817,NA
15644,Westmoreland County,PA,NA,NA,39.835916134913404
15701,Indiana County,PA,NA,NA,11.394712853236099
15767,Jefferson County,PA,NA,NA,19.78122151321787
15825,Jefferson County,PA,NA,40.05681818181818,NA
15851,Jefferson County,PA,NA,51.98863636363637,NA
15853,Elk County,PA,NA,NA,87.14676390154969
15909,Cambria County,PA,97.05263157894737,NA,NA
15963,Somerset County,PA,NA,NA,54.78577939835916
16125,Mercer County,PA,37.26315789473684,NA,NA
16148,Mercer County,PA,46.526315789473685,NA,NA
16510,Erie County,PA,NA,70.73863636363636,91.52233363719235
16601,Blair County,PA,NA,NA,52.68915223336372
16602,Blair County,PA,85.68421052631578,NA,NA
16801,Centre County,PA,NA,NA,10.5742935278031
17013,Cumberland County,PA,24.210526315789473,NA,NA
17015,Cumberland County,PA,NA,NA,28.71467639015497
17019,York County,PA,NA,97.1590909090909,NA
17020,Perry County,PA,NA,94.31818181818183,NA
17042,Lebanon County,PA,NA,NA,16.043755697356428
17046,Lebanon County,PA,NA,NA,39.015496809480396
17103,Dauphin County,PA,NA,NA,86.1440291704649
17202,Franklin County,PA,NA,NA,60.984503190519604
17315,York County,PA,NA,NA,35.824977210574296
17356,York County,PA,30.526315789473685,NA,NA
17543,Lancaster County,PA,NA,NA,30.628988149498632
17545,Lancaster County,PA,90.94736842105263,NA,NA
17552,Lancaster County,PA,NA,NA,40.6563354603464
17751,Clinton County,PA,NA,75.42613636363636,NA
17756,Lycoming County,PA,NA,99.14772727272727,NA
17801,Northumberland County,PA,NA,17.897727272727273,NA
17901,Schuylkill County,PA,56.84210526315789,NA,NA
17976,Schuylkill County,PA,NA,88.63636363636364,NA
18015,Northampton County,PA,NA,NA,42.20601640838651
18020,Northampton County,PA,NA,NA,71.64995442114859
18031,Lehigh County,PA,72.42105263157896,NA,NA
18045,Northampton County,PA,37.89473684210527,NA,7.930720145852324
18071,Carbon County,PA,NA,NA,41.841385597082954
18104,Lehigh County,PA,NA,NA,37.46581586144029
18109,Lehigh County,PA,NA,74.43181818181817,NA
18255,Carbon County,PA,NA,65.48295454545455,NA
18301,Monroe County,PA,NA,86.78977272727273,NA
18634,Luzerne County,PA,NA,NA,49.316317228805836
18640,Luzerne County,PA,82.52631578947368,NA,NA
18705,Luzerne County,PA,NA,NA,83.0446672743847
18960,Bucks County,PA,NA,57.38636363636363,NA
18966,Bucks County,PA,21.684210526315788,NA,NA
19012,Montgomery County,PA,NA,NA,93.16317228805833
19013,Delaware County,PA,NA,73.86363636363636,NA
19015,Delaware County,PA,NA,71.875,84.95897903372835
19018,Delaware County,PA,NA,NA,51.321786690975394
19032,Delaware County,PA,NA,NA,92.43391066545124
19047,Bucks County,PA,27.157894736842103,NA,NA
19061,Delaware County,PA,NA,NA,75.02278942570648
19063,Delaware County,PA,52,10.9375,NA
19079,Delaware County,PA,NA,80.11363636363636,NA
19081,Delaware County,PA,NA,87.7840909090909,88.6964448495898
19087,Chester County,PA,NA,NA,32.45214220601641
19095,Montgomery County,PA,NA,NA,79.94530537830447
19111,Philadelphia County,PA,NA,4.403409090909091,NA
19115,Philadelphia County,PA,NA,NA,9.753874202370099
19116,Philadelphia County,PA,NA,75,NA
19121,Philadelphia County,PA,NA,19.886363636363637,NA
19124,Philadelphia County,PA,0.631578947368421,NA,NA
19129,Philadelphia County,PA,NA,59.94318181818182,NA
19131,Philadelphia County,PA,NA,NA,32.5432999088423
19134,Philadelphia County,PA,3.7894736842105265,NA,NA
19135,Philadelphia County,PA,NA,65.05681818181817,NA
19137,Philadelphia County,PA,NA,72.1590909090909,NA
19139,Philadelphia County,PA,60.21052631578947,NA,15.587967183226983
19140,Philadelphia County,PA,2.526315789473684,NA,NA
19143,Philadelphia County,PA,0.42105263157894735,0.7102272727272727,7.839562443026436
19147,Philadelphia County,PA,NA,NA,44.849589790337284
19149,Philadelphia County,PA,8.210526315789474,NA,25.979945305378305
19311,Chester County,PA,NA,91.76136363636364,NA
19320,Chester County,PA,NA,11.363636363636363,NA
19335,Chester County,PA,NA,43.32386363636363,29.35278030993619
19341,Chester County,PA,68.84210526315789,NA,NA
19342,Delaware County,PA,NA,NA,22.60711030082042
19355,Chester County,PA,NA,NA,42.38833181403829
19380,Chester County,PA,NA,NA,2.552415679124886
19403,Montgomery County,PA,49.05263157894737,NA,5.013673655423884
19406,Montgomery County,PA,46.10526315789474,NA,NA
19426,Montgomery County,PA,NA,NA,45.76116681859617
19446,Montgomery County,PA,NA,NA,6.836827711941659
19462,Montgomery County,PA,71.15789473684211,NA,NA
19468,Montgomery County,PA,NA,30.681818181818183,NA
19530,Berks County,PA,NA,60.08522727272727,NA
19605,Berks County,PA,31.789473684210527,NA,NA
02863,Providence County,RI,NA,55.53977272727273,NA
02879,Washington County,RI,NA,89.20454545454545,NA
02888,Kent County,RI,48.63157894736842,NA,NA
02891,Washington County,RI,NA,NA,50.22789425706472
02917,Providence County,RI,NA,71.73295454545455,NA
02919,Providence County,RI,NA,NA,15.223336371923427
29010,Lee County,SC,NA,NA,46.39927073837739
29033,Lexington County,SC,NA,78.4090909090909,NA
29061,Richland County,SC,NA,81.96022727272727,NA
29072,Lexington County,SC,NA,NA,25.52415679124886
29073,Lexington County,SC,NA,34.80113636363637,38.55970829535096
29127,Newberry County,SC,NA,NA,78.66909753874202
29150,Sumter County,SC,NA,NA,17.137648131267092
29154,Sumter County,SC,NA,64.77272727272727,NA
29161,Florence County,SC,NA,72.44318181818183,NA
29210,Richland County,SC,43.368421052631575,NA,NA
29306,Spartanburg County,SC,NA,NA,66.45396536007293
29349,Spartanburg County,SC,NA,NA,20.054694621695536
29360,Laurens County,SC,NA,67.61363636363636,NA
29379,Union County,SC,NA,NA,74.11121239744757
29414,Charleston County,SC,NA,NA,75.47857793983592
29440,Georgetown County,SC,NA,NA,24.430264357338196
29455,Charleston County,SC,NA,NA,31.996353691886963
29501,Florence County,SC,NA,NA,96.17137648131268
29506,Florence County,SC,NA,NA,97.90337283500456
29526,Horry County,SC,NA,10.369318181818182,NA
29571,Marion County,SC,NA,NA,65.17775752051048
29605,Greenville County,SC,90.10526315789474,NA,NA
29617,Greenville County,SC,NA,64.0625,NA
29626,Anderson County,SC,69.05263157894737,NA,NA
29644,Greenville County,SC,NA,NA,61.713764813126716
29650,Greenville County,SC,38.94736842105263,NA,NA
29681,Greenville County,SC,28.631578947368418,NA,29.535095715587968
29718,Chesterfield County,SC,NA,NA,100
29728,Chesterfield County,SC,76,NA,NA
29730,York County,SC,23.57894736842105,NA,NA
29803,Aiken County,SC,NA,NA,47.03737465815861
29829,Aiken County,SC,NA,NA,99.72652689152234
29847,Edgefield County,SC,NA,NA,94.3482224247949
57104,Minnehaha County,SD,NA,49.57386363636363,NA
57106,Minnehaha County,SD,NA,NA,3.2816773017319965
57108,Lincoln County,SD,NA,NA,6.563354603463993
57719,Pennington County,SD,NA,48.29545454545455,NA
37080,Davidson County,TN,70.94736842105263,NA,NA
37083,Macon County,TN,NA,62.5,NA
37110,Warren County,TN,21.47368421052632,NA,NA
37127,Rutherford County,TN,NA,73.01136363636364,NA
37130,Rutherford County,TN,91.78947368421052,NA,NA
37148,Sumner County,TN,40.63157894736842,NA,NA
37206,Davidson County,TN,90.73684210526316,36.221590909090914,NA
37208,Davidson County,TN,NA,56.67613636363637,NA
37209,Davidson County,TN,33.05263157894737,NA,NA
37218,Davidson County,TN,NA,89.48863636363636,NA
37363,Hamilton County,TN,NA,NA,48.04010938924339
37381,Rhea County,TN,81.26315789473684,NA,NA
37416,Hamilton County,TN,99.36842105263159,NA,NA
37421,Hamilton County,TN,NA,NA,21.695533272561534
37604,Washington County,TN,NA,NA,27.438468550592525
37641,Greene County,TN,NA,53.55113636363637,NA
37642,Hawkins County,TN,NA,43.465909090909086,NA
37643,Carter County,TN,NA,33.096590909090914,NA
37650,Unicoi County,TN,NA,40.05681818181818,NA
37660,Sullivan County,TN,10.526315789473683,NA,NA
37711,Hawkins County,TN,NA,NA,77.57520510483135
37745,Greene County,TN,95.57894736842105,NA,NA
37756,Scott County,TN,98.10526315789474,NA,NA
37771,Loudon County,TN,NA,50.85227272727273,NA
37804,Blount County,TN,NA,14.914772727272727,NA
37807,Union County,TN,NA,77.55681818181817,NA
37854,Roane County,TN,54.94736842105263,NA,NA
37862,Sevier County,TN,NA,NA,34.73108477666363
37865,Sevier County,TN,NA,NA,78.12215132178669
37882,Blount County,TN,NA,NA,96.53600729261622
37890,Jefferson County,TN,NA,NA,82.49772105742935
37914,Knox County,TN,65.89473684210526,NA,NA
37919,Knox County,TN,NA,33.23863636363637,NA
37920,Knox County,TN,13.894736842105262,NA,NA
37934,Knox County,TN,NA,37.64204545454545,NA
38016,Shelby County,TN,NA,NA,63.62807657247037
38053,Shelby County,TN,NA,47.72727272727273,NA
38058,Tipton County,TN,99.1578947368421,NA,NA
38109,Shelby County,TN,13.684210526315791,NA,NA
38114,Shelby County,TN,25.473684210526315,NA,NA
38116,Shelby County,TN,NA,NA,46.855059252506834
38201,Carroll County,TN,NA,66.76136363636364,NA
38237,Weakley County,TN,NA,NA,76.57247037374658
38242,Henry County,TN,NA,34.51704545454545,NA
38261,Obion County,TN,NA,30.96590909090909,NA
38301,Madison County,TN,NA,95.45454545454545,NA
38305,Madison County,TN,NA,NA,12.397447584320876
38340,Chester County,TN,NA,NA,59.70829535095715
38343,Gibson County,TN,NA,93.4659090909091,NA
38351,Henderson County,TN,NA,38.49431818181818,NA
38401,Maury County,TN,8,NA,NA
38464,Lawrence County,TN,NA,26.5625,NA
38501,Putnam County,TN,NA,NA,21.786690975387422
38570,Overton County,TN,NA,61.07954545454546,NA
38571,Cumberland County,TN,52.84210526315789,NA,NA
38572,Cumberland County,TN,NA,52.69886363636363,NA
75006,Dallas County,TX,NA,NA,24.247948951686418
75007,Denton County,TX,47.368421052631575,NA,NA
75032,Rockwall County,TX,NA,NA,38.46855059252507
75033,,TX,NA,NA,64.63081130355515
75040,Dallas County,TX,48.21052631578947,NA,NA
75042,Dallas County,TX,59.78947368421053,58.80681818181818,NA
75044,Dallas County,TX,52.21052631578947,NA,NA
75050,Dallas County,TX,NA,NA,42.66180492251595
75062,Dallas County,TX,NA,NA,69.00638103919782
75067,Denton County,TX,NA,NA,66.45396536007293
75080,Dallas County,TX,NA,NA,43.938012762078394
75090,Grayson County,TX,NA,51.13636363636363,NA
75093,Collin County,TX,NA,28.40909090909091,NA
75115,Dallas County,TX,53.68421052631579,NA,NA
75149,Dallas County,TX,NA,NA,95.44211485870557
75189,Rockwall County,TX,NA,73.4375,NA
75208,Dallas County,TX,NA,NA,68.55059252506837
75215,Dallas County,TX,NA,NA,48.04010938924339
75216,Dallas County,TX,NA,NA,30.9024612579763
75234,Dallas County,TX,NA,88.06818181818183,NA
75241,Dallas County,TX,NA,NA,93.71011850501367
75243,Dallas County,TX,NA,NA,90.33728350045578
75252,Collin County,TX,63.368421052631575,NA,NA
75401,Hunt County,TX,NA,53.26704545454546,NA
75410,Wood County,TX,NA,97.44318181818183,87.32907930720147
75482,Hopkins County,TX,NA,NA,35.095715587967184
75559,Bowie County,TX,NA,NA,97.81221513217866
75670,Harrison County,TX,92,NA,NA
75702,Smith County,TX,37.473684210526315,NA,NA
75703,Smith County,TX,33.26315789473684,23.011363636363637,NA
75704,Smith County,TX,NA,70.88068181818183,NA
75765,Wood County,TX,NA,71.5909090909091,NA
75789,Smith County,TX,NA,58.66477272727273,NA
75901,Angelina County,TX,NA,35.653409090909086,NA
75951,Jasper County,TX,48.84210526315789,NA,NA
76002,Tarrant County,TX,NA,57.24431818181818,NA
76028,Johnson County,TX,NA,21.59090909090909,NA
76049,Hood County,TX,NA,NA,55.05925250683683
76054,Tarrant County,TX,NA,NA,93.80127620783956
76063,Tarrant County,TX,NA,11.789772727272728,NA
76085,Parker County,TX,NA,94.60227272727273,NA
76103,Tarrant County,TX,61.473684210526315,NA,NA
76112,Tarrant County,TX,NA,NA,32.99908842297174
76119,Tarrant County,TX,9.473684210526317,NA,NA
76132,Tarrant County,TX,NA,52.13068181818182,NA
76137,Tarrant County,TX,NA,17.47159090909091,NA
76230,Montague County,TX,76.84210526315789,NA,NA
76302,Wichita County,TX,NA,91.19318181818183,NA
76502,Bell County,TX,NA,NA,73.47310847766636
76504,Bell County,TX,NA,NA,3.099361896080219
76543,Bell County,TX,NA,NA,5.378304466727438
76550,Lampasas County,TX,NA,NA,65.17775752051048
76633,McLennan County,TX,88.21052631578948,NA,NA
76706,McLennan County,TX,NA,NA,18.86964448495898
76708,McLennan County,TX,NA,NA,16.226071103008206
76801,Brown County,TX,NA,NA,47.766636280765724
76904,Tom Green County,TX,NA,NA,24.97721057429353
77009,Harris County,TX,NA,33.52272727272727,NA
77014,Harris County,TX,57.47368421052632,NA,NA
77016,Harris County,TX,NA,NA,36.91886964448496
77020,Harris County,TX,NA,48.153409090909086,NA
77021,Harris County,TX,NA,NA,84.77666362807658
77033,Harris County,TX,NA,15.909090909090908,NA
77035,Harris County,TX,NA,NA,68.27711941659071
77042,Harris County,TX,NA,NA,68.55059252506837
77043,Harris County,TX,NA,NA,66.36280765724703
77045,Harris County,TX,88.63157894736841,NA,76.66362807657246
77050,Harris County,TX,99.78947368421053,NA,NA
77059,Harris County,TX,78.3157894736842,NA,NA
77060,Harris County,TX,NA,NA,87.60255241567913
77062,Harris County,TX,NA,NA,48.86052871467639
77064,Harris County,TX,36.84210526315789,NA,NA
77070,Harris County,TX,NA,20.880681818181817,63.081130355515036
77071,Harris County,TX,NA,NA,56.42661804922516
77075,Harris County,TX,NA,NA,87.69371011850501
77083,Harris County,TX,NA,NA,28.89699179580675
77086,Harris County,TX,95.78947368421052,86.93181818181817,NA
77091,Harris County,TX,NA,43.60795454545455,NA
77301,Montgomery County,TX,NA,78.26704545454545,NA
77327,Liberty County,TX,62.10526315789474,NA,NA
77339,Harris County,TX,NA,34.090909090909086,NA
77379,Harris County,TX,NA,NA,9.115770282588878
77429,Harris County,TX,NA,23.863636363636363,NA
77433,Harris County,TX,NA,66.61931818181817,NA
77465,Matagorda County,TX,86.73684210526315,NA,NA
77478,Fort Bend County,TX,NA,43.75,42.2971741112124
77489,Fort Bend County,TX,NA,59.80113636363637,NA
77494,Fort Bend County,TX,NA,13.636363636363635,NA
77498,Fort Bend County,TX,NA,NA,50.86599817684594
77515,Brazoria County,TX,72.21052631578947,NA,NA
77530,Harris County,TX,54.736842105263165,NA,NA
77539,Galveston County,TX,NA,10.795454545454545,NA
77541,Brazoria County,TX,NA,80.39772727272727,NA
77547,Harris County,TX,97.26315789473684,NA,NA
77550,Galveston County,TX,NA,NA,5.834092980856882
77566,Brazoria County,TX,75.36842105263158,NA,NA
77568,Galveston County,TX,NA,NA,50.50136736554239
77573,Galveston County,TX,NA,3.4090909090909087,NA
77575,Liberty County,TX,NA,54.97159090909091,NA
77581,Brazoria County,TX,NA,NA,27.529626253418414
77586,Harris County,TX,NA,NA,64.44849589790337
77630,Orange County,TX,NA,62.78409090909091,NA
77640,Jefferson County,TX,NA,NA,57.064721969006385
77656,Hardin County,TX,NA,55.82386363636363,NA
77707,Jefferson County,TX,NA,NA,59.79945305378305
78040,Webb County,TX,42.31578947368421,NA,NA
78043,Webb County,TX,NA,77.13068181818183,NA
78109,Bexar County,TX,NA,NA,77.93983591613491
78119,Karnes County,TX,NA,NA,77.2105742935278
78130,Comal County,TX,NA,17.613636363636363,87.0556061987238
78132,Comal County,TX,NA,45.73863636363637,NA
78212,Bexar County,TX,55.1578947368421,NA,NA
78224,Bexar County,TX,NA,NA,76.20783956244303
78227,Bexar County,TX,NA,NA,63.263445761166814
78228,Bexar County,TX,29.894736842105264,NA,NA
78240,Bexar County,TX,NA,54.6875,NA
78244,Bexar County,TX,58.526315789473685,NA,NA
78251,Bexar County,TX,NA,NA,54.329990884229716
78260,Bexar County,TX,NA,NA,83.40929808568825
78374,San Patricio County,TX,NA,NA,89.06107566089334
78405,Nueces County,TX,74.94736842105263,NA,NA
78521,Cameron County,TX,62.31578947368421,14.488636363636365,NA
78537,Hidalgo County,TX,NA,93.32386363636364,NA
78541,Hidalgo County,TX,NA,NA,43.938012762078394
78542,Hidalgo County,TX,NA,24.857954545454543,NA
78570,Hidalgo County,TX,NA,56.39204545454546,NA
78572,Hidalgo County,TX,NA,NA,25.341841385597082
78574,Hidalgo County,TX,NA,32.38636363636363,NA
78582,Starr County,TX,NA,NA,72.47037374658159
78589,Hidalgo County,TX,NA,64.20454545454545,NA
78596,Hidalgo County,TX,NA,NA,28.441203281677303
78610,Hays County,TX,68.42105263157895,NA,73.1084776663628
78624,Gillespie County,TX,71.36842105263158,NA,NA
78629,Gonzales County,TX,NA,NA,53.96536007292616
78633,Williamson County,TX,NA,NA,0
78641,Williamson County,TX,NA,NA,60.89334548769371
78654,Burnet County,TX,NA,35.22727272727273,NA
78681,Williamson County,TX,NA,NA,21.60437556973564
78729,Williamson County,TX,NA,NA,78.39562443026435
78734,Travis County,TX,NA,NA,65.63354603463992
78735,Travis County,TX,NA,NA,70.28258887876025
78839,Zavala County,TX,NA,NA,86.96444849589791
78840,Val Verde County,TX,NA,NA,8.477666362807659
79412,Lubbock County,TX,NA,NA,70.73837739288969
79424,Lubbock County,TX,NA,NA,14.038286235186872
79510,Callahan County,TX,NA,83.38068181818183,NA
79603,Taylor County,TX,NA,29.97159090909091,NA
79605,Taylor County,TX,NA,NA,19.325432999088424
79606,Taylor County,TX,NA,NA,26.162260711030083
79765,Ector County,TX,NA,NA,85.14129443938013
79849,El Paso County,TX,NA,91.47727272727273,NA
79902,El Paso County,TX,NA,NA,96.718322698268
79903,El Paso County,TX,NA,NA,31.084776663628077
79938,El Paso County,TX,NA,NA,61.34913400182316
84003,Utah County,UT,NA,NA,89.88149498632635
84010,Davis County,UT,NA,NA,19.143117593436646
84032,Wasatch County,UT,NA,71.30681818181817,NA
84041,Davis County,UT,NA,NA,67.09206927985414
84070,Salt Lake County,UT,NA,54.54545454545454,NA
84101,Salt Lake County,UT,NA,98.1534090909091,NA
84102,Salt Lake County,UT,NA,NA,65.17775752051048
84104,Salt Lake County,UT,NA,NA,91.8869644484959
84111,Salt Lake County,UT,NA,NA,82.9535095715588
84119,Salt Lake County,UT,NA,34.23295454545455,NA
84123,Salt Lake County,UT,25.05263157894737,NA,NA
84129,,UT,NA,NA,55.78851412944393
84401,Weber County,UT,NA,44.74431818181818,92.06927985414768
05201,Bennington County,VT,NA,19.602272727272727,30.264357338195076
05301,Windham County,VT,NA,NA,38.92433910665451
05404,Chittenden County,VT,NA,NA,93.34548769371011
05482,Chittenden County,VT,NA,NA,52.23336371923427
05488,Franklin County,VT,NA,NA,73.01731996353692
05701,Rutland County,VT,NA,68.18181818181817,NA
20111,Prince William County,VA,NA,NA,92.98085688240656
20132,Loudoun County,VA,NA,NA,88.14949863263446
20147,Loudoun County,VA,37.68421052631579,NA,NA
20155,Prince William County,VA,NA,NA,46.58158614402917
20170,Fairfax County,VA,61.473684210526315,NA,NA
20191,Fairfax County,VA,NA,60.79545454545454,NA
22150,Fairfax County,VA,NA,NA,21.05742935278031
22181,Fairfax County,VA,NA,NA,99.63536918869644
22204,Arlington County,VA,NA,NA,53.6918869644485
22207,Arlington County,VA,NA,NA,83.31814038286235
22309,Fairfax County,VA,NA,89.63068181818183,NA
22315,Fairfax County,VA,NA,NA,71.74111212397447
22406,Stafford County,VA,NA,NA,41.56791248860529
22443,Westmoreland County,VA,84.63157894736842,NA,68.00364630811303
22485,King George County,VA,NA,NA,82.49772105742935
22701,Culpeper County,VA,28.421052631578945,NA,NA
22801,Harrisonburg city,VA,NA,NA,18.505013673655423
22835,Page County,VA,57.89473684210527,NA,81.76845943482223
22851,Page County,VA,NA,57.52840909090909,NA
23060,Henrico County,VA,NA,79.6875,82.86235186873292
23111,Hanover County,VA,NA,NA,47.675478577939835
23185,James City County,VA,NA,NA,17.684594348222422
23188,James City County,VA,NA,1.8465909090909092,NA
23223,Henrico County,VA,4.2105263157894735,NA,59.343664539653595
23452,Virginia Beach city,VA,NA,34.375,NA
23454,Virginia Beach city,VA,NA,NA,3.372835004557885
23464,Virginia Beach city,VA,NA,NA,1.276207839562443
23508,Norfolk city,VA,NA,NA,61.44029170464904
23513,Norfolk city,VA,NA,27.982954545454547,NA
23518,Norfolk city,VA,NA,25.85227272727273,14.129443938012761
23704,Portsmouth city,VA,NA,47.01704545454545,NA
23803,Petersburg city,VA,14.315789473684209,NA,89.51686417502279
23847,Greensville County,VA,66.73684210526316,NA,NA
24018,Roanoke County,VA,NA,61.22159090909091,NA
24019,Roanoke County,VA,NA,24.005681818181817,96.26253418413856
24084,Pulaski County,VA,76.42105263157895,NA,NA
24112,Henry County,VA,NA,12.784090909090908,57.88514129443938
24148,Henry County,VA,NA,NA,94.16590701914312
24153,Salem city,VA,NA,NA,14.31175934366454
24202,Washington County,VA,NA,48.721590909090914,NA
24211,Washington County,VA,NA,NA,84.5031905195989
24260,Russell County,VA,NA,97.30113636363636,NA
24522,Appomattox County,VA,NA,NA,84.04740200546946
24527,Pittsylvania County,VA,NA,NA,96.90063810391977
24541,Danville city,VA,NA,NA,96.35369188696444
98002,King County,WA,NA,31.818181818181817,NA
98003,King County,WA,NA,18.039772727272727,NA
98005,King County,WA,NA,NA,85.50592525068367
98011,King County,WA,57.47368421052632,NA,NA
98023,King County,WA,NA,NA,20.783956244302644
98042,King County,WA,NA,10.653409090909092,80.4922515952598
98052,King County,WA,NA,17.755681818181817,NA
98055,King County,WA,NA,61.64772727272727,NA
98109,King County,WA,NA,78.97727272727273,NA
98112,King County,WA,78.73684210526316,NA,NA
98198,King County,WA,NA,NA,19.690063810391976
98221,Skagit County,WA,NA,NA,13.217866909753875
98226,Whatcom County,WA,NA,NA,57.7939835916135
98229,Whatcom County,WA,NA,57.95454545454546,NA
98236,Island County,WA,NA,NA,86.87329079307202
98248,Whatcom County,WA,NA,57.10227272727273,NA
98354,Pierce County,WA,NA,NA,71.74111212397447
98371,Pierce County,WA,NA,NA,70.55606198723791
98372,Pierce County,WA,NA,81.81818181818183,NA
98374,Pierce County,WA,NA,NA,51.59525979945305
98404,Pierce County,WA,NA,NA,87.96718322698268
98407,Pierce County,WA,NA,NA,36.82771194165907
98466,Pierce County,WA,NA,80.68181818181817,NA
98502,Thurston County,WA,NA,NA,37.64813126709207
98503,Thurston County,WA,64.84210526315789,NA,NA
98506,Thurston County,WA,NA,NA,95.16864175022789
98589,Thurston County,WA,NA,94.17613636363636,NA
98631,Pacific County,WA,NA,88.63636363636364,NA
98663,Clark County,WA,NA,NA,74.93163172288058
98674,Cowlitz County,WA,NA,NA,83.50045578851413
98682,Clark County,WA,57.05263157894736,NA,NA
98801,Chelan County,WA,NA,NA,4.375569735642662
98841,Okanogan County,WA,NA,NA,79.21604375569736
98942,Yakima County,WA,70.73684210526315,NA,NA
99212,Spokane County,WA,NA,NA,67.18322698268004
99336,Benton County,WA,NA,0.9943181818181818,NA
99338,Benton County,WA,NA,NA,56.60893345487694
99350,Benton County,WA,NA,NA,53.23609845031905
20002,District of Columbia,DC,6.7368421052631575,6.9602272727272725,NA
20003,District of Columbia,DC,NA,38.63636363636363,NA
20011,District of Columbia,DC,NA,NA,23.701002734731087
20015,District of Columbia,DC,NA,NA,61.075660893345486
20019,District of Columbia,DC,4.842105263157895,NA,54.512306289881494
20020,District of Columbia,DC,NA,28.40909090909091,NA
24701,Mercer County,WV,NA,25,NA
24740,Mercer County,WV,73.89473684210527,NA,NA
25064,Kanawha County,WV,NA,NA,74.65815861440291
25143,Kanawha County,WV,58.73684210526315,NA,NA
25312,Kanawha County,WV,64,NA,NA
25314,Kanawha County,WV,NA,NA,35.55150410209663
25427,Berkeley County,WV,NA,NA,86.69097538742024
25430,Jefferson County,WV,65.05263157894737,NA,NA
25510,Cabell County,WV,82.10526315789474,94.74431818181817,NA
25601,Logan County,WV,NA,NA,59.52597994530537
25670,Mingo County,WV,NA,73.29545454545455,NA
25840,Fayette County,WV,72.63157894736842,NA,NA
26104,Wood County,WV,NA,NA,83.7739288969918
26155,Wetzel County,WV,76.63157894736841,NA,NA
26201,Upshur County,WV,85.05263157894737,NA,NA
26330,Harrison County,WV,NA,NA,26.98268003646308
26416,Barbour County,WV,NA,35.51136363636363,NA
26501,Monongalia County,WV,NA,NA,31.722880583409296
26505,Monongalia County,WV,36.21052631578948,NA,NA
53005,Waukesha County,WI,93.26315789473684,NA,NA
53022,Washington County,WI,NA,44.17613636363637,NA
53027,Washington County,WI,NA,41.76136363636363,NA
53072,Waukesha County,WI,56.00000000000001,NA,NA
53105,Racine County,WI,NA,NA,75.38742023701003
53110,Milwaukee County,WI,NA,28.83522727272727,NA
53115,Walworth County,WI,NA,NA,36.46308113035551
53140,Kenosha County,WI,NA,NA,21.513217866909752
53144,Kenosha County,WI,NA,NA,45.94348222424795
53168,Kenosha County,WI,NA,65.625,NA
53172,Milwaukee County,WI,NA,67.04545454545455,75.84320875113947
53206,Milwaukee County,WI,NA,9.801136363636363,NA
53210,Milwaukee County,WI,9.68421052631579,NA,NA
53215,Milwaukee County,WI,5.263157894736842,NA,NA
53219,Milwaukee County,WI,NA,39.20454545454545,NA
53220,Milwaukee County,WI,32.21052631578947,NA,12.488605287146765
53225,Milwaukee County,WI,NA,33.94886363636363,NA
53226,Milwaukee County,WI,NA,29.119318181818183,NA
53227,Milwaukee County,WI,79.15789473684211,NA,14.220601640838652
53402,Racine County,WI,7.368421052631578,NA,NA
53545,Rock County,WI,NA,NA,44.30264357338195
53562,Dane County,WI,NA,56.81818181818182,NA
53566,Green County,WI,74.73684210526315,16.477272727272727,9.662716499544212
53578,Sauk County,WI,NA,NA,91.61349134001823
53704,Dane County,WI,NA,46.16477272727273,NA
53716,Dane County,WI,NA,NA,50.592525068368275
53718,Dane County,WI,73.05263157894737,NA,NA
54130,Outagamie County,WI,56.631578947368425,NA,NA
54201,Kewaunee County,WI,92.42105263157895,NA,NA
54235,Door County,WI,NA,NA,16.681859617137647
54302,Brown County,WI,57.263157894736835,NA,NA
54409,Langlade County,WI,NA,NA,8.021877848678214
54449,Wood County,WI,NA,70.3125,NA
54452,Lincoln County,WI,NA,NA,19.598906107566087
54650,La Crosse County,WI,NA,NA,1.7319963536918872
54660,Monroe County,WI,72.84210526315789,NA,55.87967183226983
54703,Eau Claire County,WI,NA,27.130681818181817,NA
54891,Bayfield County,WI,NA,NA,91.06654512306291
54929,Waupaca County,WI,NA,NA,98.63263445761167
54981,Waupaca County,WI,82.94736842105263,NA,NA
82070,Albany County,WY,81.89473684210526,NA,NA
82501,Fremont County,WY,NA,64.3465909090909,NA
82601,Natrona County,WY,NA,NA,56.88240656335461
82604,Natrona County,WY,NA,NA,47.310847766636286
82801,Sheridan County,WY,NA,NA,26.34457611668186
