ZipCode,county,state,Geriatric
35204,Jefferson County,AL,84.8
35214,Jefferson County,AL,88.26666666666667
35226,Jefferson County,AL,25.6
35473,Tuscaloosa County,AL,98.13333333333333
35476,Tuscaloosa County,AL,61.33333333333333
35803,Madison County,AL,31.466666666666665
35816,Madison County,AL,85.6
36109,Montgomery County,AL,47.733333333333334
36110,Montgomery County,AL,73.86666666666667
36375,Geneva County,AL,86.4
36862,Chambers County,AL,89.06666666666668
99504,Anchorage Municipality,AK,56.266666666666666
85203,Maricopa County,AZ,65.86666666666666
86035,Coconino County,AZ,99.73333333333333
86404,Mohave County,AZ,40.8
71639,Desha County,AR,68.8
72715,Benton County,AR,21.066666666666666
72758,Benton County,AR,50.93333333333333
90016,Los Angeles County,CA,30.933333333333334
90036,Los Angeles County,CA,66.66666666666666
90040,Los Angeles County,CA,98.66666666666667
90270,Los Angeles County,CA,77.86666666666666
90305,Los Angeles County,CA,70.93333333333334
90603,Los Angeles County,CA,98.93333333333332
90605,Los Angeles County,CA,60.8
91001,Los Angeles County,CA,40
91321,Los Angeles County,CA,40.8
91702,Los Angeles County,CA,54.93333333333334
91744,Los Angeles County,CA,93.33333333333333
91745,Los Angeles County,CA,28.799999999999997
91767,Los Angeles County,CA,77.60000000000001
92011,San Diego County,CA,56.53333333333334
92056,San Diego County,CA,11.200000000000001
92139,San Diego County,CA,52.53333333333333
92392,San Bernardino County,CA,56.00000000000001
92612,Orange County,CA,53.06666666666666
92626,Orange County,CA,32.800000000000004
92660,Orange County,CA,13.333333333333334
92833,Orange County,CA,78.4
93013,Santa Barbara County,CA,91.73333333333333
93657,Fresno County,CA,62.93333333333333
94061,San Mateo County,CA,16.8
94116,San Francisco County,CA,10.4
94127,San Francisco County,CA,57.599999999999994
94134,San Francisco County,CA,30.4
94568,Alameda County,CA,79.2
94610,Alameda County,CA,73.33333333333333
95070,Santa Clara County,CA,18.4
95470,Mendocino County,CA,94.66666666666667
95747,Placer County,CA,7.733333333333333
95762,El Dorado County,CA,40.266666666666666
95820,Sacramento County,CA,53.333333333333336
96080,Tehama County,CA,96.26666666666667
80231,Denver County,CO,80.53333333333333
80537,Larimer County,CO,22.933333333333334
06010,Hartford County,CT,1.6
06053,Hartford County,CT,76.26666666666667
06073,Hartford County,CT,96
06084,Tolland County,CT,58.666666666666664
06111,Hartford County,CT,95.46666666666667
06468,Fairfield County,CT,76
06470,Fairfield County,CT,74.66666666666667
06610,Fairfield County,CT,55.46666666666666
06776,Litchfield County,CT,56.53333333333334
32011,Nassau County,FL,54.13333333333333
32025,Columbia County,FL,65.06666666666666
32084,St. Johns County,FL,35.733333333333334
32086,St. Johns County,FL,76.8
32141,Volusia County,FL,44.800000000000004
32177,Putnam County,FL,46.666666666666664
32209,Duval County,FL,13.866666666666665
32308,Leon County,FL,37.333333333333336
32456,Gulf County,FL,73.06666666666666
32536,Okaloosa County,FL,46.400000000000006
32666,Putnam County,FL,95.19999999999999
32703,Orange County,FL,36.266666666666666
32953,Brevard County,FL,14.933333333333335
33013,Miami-Dade County,FL,25.066666666666666
33015,Miami-Dade County,FL,74.4
33144,Miami-Dade County,FL,70.13333333333334
33147,Miami-Dade County,FL,39.46666666666667
33161,Miami-Dade County,FL,82.13333333333334
33165,Miami-Dade County,FL,1.866666666666667
33173,Miami-Dade County,FL,54.666666666666664
33185,Miami-Dade County,FL,70.66666666666667
33186,Miami-Dade County,FL,27.46666666666667
33413,Palm Beach County,FL,92.53333333333333
33913,Lee County,FL,49.06666666666666
34110,Collier County,FL,13.066666666666665
34224,Charlotte County,FL,95.73333333333333
34433,Citrus County,FL,89.86666666666666
34653,Pasco County,FL,13.600000000000001
34982,St. Lucie County,FL,52
30041,Forsyth County,GA,20
30113,Haralson County,GA,92.26666666666667
30117,Carroll County,GA,32
30126,Cobb County,GA,85.33333333333334
30458,Bulloch County,GA,54.400000000000006
30906,Richmond County,GA,16
30907,Columbia County,GA,32.266666666666666
31021,Laurens County,GA,51.733333333333334
31804,Harris County,GA,87.2
31907,Muscogee County,GA,22.666666666666664
83201,Bannock County,ID,34.66666666666667
60068,Cook County,IL,20.8
60201,Cook County,IL,4
60432,Will County,IL,92.80000000000001
60446,Will County,IL,42.93333333333334
60614,Cook County,IL,10.666666666666668
60636,Cook County,IL,23.200000000000003
60638,Cook County,IL,2.4
60643,Cook County,IL,4.266666666666667
60649,Cook County,IL,17.333333333333336
61032,Stephenson County,IL,12.533333333333333
61081,Whiteside County,IL,83.46666666666667
61301,LaSalle County,IL,60.266666666666666
61604,Peoria County,IL,14.666666666666666
62025,Madison County,IL,26.400000000000002
62305,Adams County,IL,69.06666666666666
62704,Sangamon County,IL,48.266666666666666
46060,Hamilton County,IN,36.8
46142,Johnson County,IN,24
46324,Lake County,IN,48
46342,Lake County,IN,18.933333333333334
46350,LaPorte County,IN,17.066666666666666
46375,Lake County,IN,23.733333333333334
46385,Porter County,IN,22.400000000000002
46563,Marshall County,IN,72.8
47802,Vigo County,IN,37.06666666666666
47918,Fountain County,IN,82.39999999999999
52405,Linn County,IA,42.4
67735,Sherman County,KS,68.26666666666667
40031,Oldham County,KY,44.266666666666666
40514,Fayette County,KY,76.53333333333333
42164,Allen County,KY,72.26666666666667
42633,Wayne County,KY,58.4
70118,Orleans Parish,LA,66.93333333333334
70427,Washington Parish,LA,29.333333333333332
71108,Caddo Parish,LA,75.2
71334,Concordia Parish,LA,84.53333333333333
04039,Cumberland County,ME,97.06666666666666
04742,Aroostook County,ME,59.73333333333334
20732,Calvert County,MD,96.53333333333333
21093,Baltimore County,MD,5.866666666666666
21108,Anne Arundel County,MD,78.13333333333333
21702,Frederick County,MD,46.666666666666664
01247,Berkshire County,MA,57.86666666666667
01504,Worcester County,MA,70.39999999999999
01545,Worcester County,MA,14.133333333333335
01902,Essex County,MA,0.5333333333333333
01915,Essex County,MA,0
02138,Middlesex County,MA,12.266666666666666
02375,Bristol County,MA,90.13333333333333
02726,Bristol County,MA,45.86666666666667
48034,Oakland County,MI,41.6
48047,Macomb County,MI,33.6
48067,Oakland County,MI,69.86666666666666
48076,Oakland County,MI,37.6
48180,Wayne County,MI,19.733333333333334
48204,Wayne County,MI,32.53333333333333
48234,Wayne County,MI,24.53333333333333
48323,Oakland County,MI,81.06666666666666
48328,Oakland County,MI,36.53333333333333
49013,Van Buren County,MI,82.39999999999999
49837,Delta County,MI,97.6
55304,Anoka County,MN,65.60000000000001
55421,Anoka County,MN,41.333333333333336
55744,Itasca County,MN,2.666666666666667
38829,Prentiss County,MS,57.333333333333336
39208,Rankin County,MS,26.666666666666668
39601,Lincoln County,MS,39.2
63021,St. Louis County,MO,4.8
63103,St. Louis city,MO,90.66666666666666
63301,St. Charles County,MO,1.3333333333333335
63366,St. Charles County,MO,6.933333333333333
63501,Adair County,MO,67.2
64124,Jackson County,MO,83.2
64804,Jasper County,MO,44
65613,Polk County,MO,15.466666666666667
68048,Cass County,NE,85.86666666666667
68104,Douglas County,NE,46.13333333333333
89101,Clark County,NV,78.93333333333334
89120,Clark County,NV,65.33333333333333
89122,Clark County,NV,48.266666666666666
03106,Merrimack County,NH,48.8
07002,Hudson County,NJ,9.866666666666667
07003,Essex County,NJ,34.4
07010,Bergen County,NJ,47.199999999999996
07017,Essex County,NJ,15.2
07026,Bergen County,NJ,43.46666666666666
07032,Hudson County,NJ,63.733333333333334
07034,Morris County,NJ,87.46666666666667
07042,Essex County,NJ,50.4
07050,Essex County,NJ,55.2
07109,Essex County,NJ,29.86666666666667
07202,Union County,NJ,27.73333333333333
07470,Passaic County,NJ,33.06666666666666
07716,Monmouth County,NJ,92
07728,Monmouth County,NJ,2.1333333333333333
07746,Monmouth County,NJ,68
07856,Morris County,NJ,86.13333333333333
07960,Morris County,NJ,73.6
08021,Camden County,NJ,34.13333333333333
08080,Gloucester County,NJ,66.13333333333333
08609,Mercer County,NJ,74.93333333333332
08857,Middlesex County,NJ,22.133333333333333
08879,Middlesex County,NJ,69.33333333333334
87059,Bernalillo County,NM,80.26666666666667
87124,Sandoval County,NM,9.6
10001,New York County,NY,49.6
10009,New York County,NY,26.93333333333333
10016,New York County,NY,24.8
10312,Richmond County,NY,21.333333333333336
10314,Richmond County,NY,3.2
10454,Bronx County,NY,29.599999999999998
10456,Bronx County,NY,20.533333333333335
10457,Bronx County,NY,8.533333333333333
10466,Bronx County,NY,8.266666666666666
10512,Putnam County,NY,63.2
10603,Westchester County,NY,78.66666666666666
10710,Westchester County,NY,42.66666666666667
10805,Westchester County,NY,96.8
11023,Nassau County,NY,84.26666666666667
11203,Kings County,NY,5.6000000000000005
11207,Kings County,NY,6.666666666666667
11209,Kings County,NY,11.733333333333333
11215,Kings County,NY,16.266666666666666
11216,Kings County,NY,20.266666666666666
11219,Kings County,NY,11.466666666666667
11223,Kings County,NY,3.4666666666666663
11224,Kings County,NY,62.133333333333326
11226,Kings County,NY,8.799999999999999
11228,Kings County,NY,49.86666666666667
11229,Kings County,NY,58.13333333333334
11230,Kings County,NY,2.933333333333333
11234,Kings County,NY,71.46666666666667
11235,Kings County,NY,43.733333333333334
11239,Kings County,NY,35.199999999999996
11366,Queens County,NY,67.73333333333333
11373,Queens County,NY,21.6
11414,Queens County,NY,52.26666666666666
11418,Queens County,NY,44.53333333333334
11427,Queens County,NY,64.53333333333333
11432,Queens County,NY,28.26666666666667
11433,Queens County,NY,30.133333333333333
11434,Queens County,NY,72.53333333333333
11694,Queens County,NY,83.73333333333333
11746,Suffolk County,NY,6.4
11758,Nassau County,NY,18.133333333333333
12020,Saratoga County,NY,38.666666666666664
12198,Rensselaer County,NY,84
13215,Onondaga County,NY,71.2
14072,Erie County,NY,71.73333333333333
14221,Erie County,NY,12.8
27028,Davie County,NC,17.599999999999998
27215,Alamance County,NC,60
27260,Guilford County,NC,90.93333333333334
27704,Durham County,NC,35.46666666666667
27707,Durham County,NC,18.666666666666668
27804,Nash County,NC,89.33333333333333
27823,Halifax County,NC,94.39999999999999
27870,Halifax County,NC,41.86666666666667
27886,Edgecombe County,NC,75.2
28025,Cabarrus County,NC,7.466666666666668
28097,Stanly County,NC,97.33333333333334
28110,Union County,NC,51.46666666666667
28215,Mecklenburg County,NC,66.4
28651,Wilkes County,NC,93.60000000000001
28906,Cherokee County,NC,19.466666666666665
58554,Morton County,ND,62.4
44092,Lake County,OH,7.199999999999999
44094,Lake County,OH,0.26666666666666666
44118,Cuyahoga County,OH,29.06666666666667
44133,Cuyahoga County,OH,9.066666666666666
44505,Mahoning County,OH,36
45215,Hamilton County,OH,33.33333333333333
45322,Montgomery County,OH,34.93333333333333
45356,Miami County,OH,25.866666666666667
45417,Montgomery County,OH,64.26666666666667
45458,Montgomery County,OH,28.53333333333333
45780,Athens County,OH,100
45840,Hancock County,OH,5.066666666666666
73127,Oklahoma County,OK,67.46666666666667
74019,Rogers County,OK,72
74133,Tulsa County,OK,9.333333333333334
74959,Le Flore County,OK,91.46666666666667
15104,Allegheny County,PA,61.6
15122,Allegheny County,PA,19.2
15235,Allegheny County,PA,5.333333333333334
15401,Fayette County,PA,4.533333333333333
16601,Blair County,PA,23.466666666666665
17111,Dauphin County,PA,38.13333333333333
17545,Lancaster County,PA,15.733333333333333
17814,Columbia County,PA,82.93333333333334
18974,Bucks County,PA,1.0666666666666667
19014,Delaware County,PA,45.06666666666666
19020,Bucks County,PA,10.933333333333334
19072,Montgomery County,PA,62.4
19130,Philadelphia County,PA,53.86666666666666
19150,Philadelphia County,PA,38.4
19601,Berks County,PA,45.6
02809,Bristol County,RI,37.86666666666667
02879,Washington County,RI,33.86666666666667
02904,Providence County,RI,17.866666666666667
29006,Lexington County,SC,94.13333333333334
29440,Georgetown County,SC,31.2
29627,Anderson County,SC,59.199999999999996
37347,Marion County,TN,89.60000000000001
37405,Hamilton County,TN,79.73333333333333
37615,Washington County,TN,59.46666666666667
37660,Sullivan County,TN,8
37774,Loudon County,TN,31.733333333333334
37931,Knox County,TN,55.733333333333334
38112,Shelby County,TN,88.8
38358,Gibson County,TN,58.93333333333334
38501,Putnam County,TN,26.13333333333333
75032,Rockwall County,TX,45.06666666666666
75075,Collin County,TX,47.46666666666667
75076,Grayson County,TX,86.66666666666667
75116,Dallas County,TX,81.6
75149,Dallas County,TX,40.53333333333333
75165,Ellis County,TX,24.266666666666666
75407,Collin County,TX,87.73333333333333
75494,Wood County,TX,56.53333333333334
75704,Smith County,TX,68.53333333333333
76006,Tarrant County,TX,79.46666666666667
76054,Tarrant County,TX,99.46666666666667
76114,Tarrant County,TX,73.86666666666667
76132,Tarrant County,TX,50.66666666666667
76550,Lampasas County,TX,99.2
76667,Limestone County,TX,49.06666666666666
77021,Harris County,TX,50.13333333333333
77022,Harris County,TX,88
77045,Harris County,TX,93.06666666666666
77072,Harris County,TX,77.33333333333333
77075,Harris County,TX,90.4
77092,Harris County,TX,98.4
77459,Fort Bend County,TX,25.333333333333336
77546,Galveston County,TX,69.6
77573,Galveston County,TX,21.866666666666667
77657,Hardin County,TX,64.8
78061,Frio County,TX,88.53333333333333
78109,Bexar County,TX,97.86666666666667
78216,Bexar County,TX,91.2
78230,Bexar County,TX,53.6
78363,Kleberg County,TX,61.86666666666667
78404,Nueces County,TX,81.33333333333333
78516,Hidalgo County,TX,80
78541,Hidalgo County,TX,52.800000000000004
78542,Hidalgo County,TX,51.2
78589,Hidalgo County,TX,85.06666666666666
78664,Williamson County,TX,81.86666666666666
79936,El Paso County,TX,38.93333333333333
84045,Utah County,UT,93.86666666666666
20191,Fairfax County,VA,77.06666666666668
22193,Prince William County,VA,39.733333333333334
22204,Arlington County,VA,60.266666666666666
22835,Page County,VA,41.86666666666667
23224,Richmond city,VA,80.80000000000001
23434,Suffolk city,VA,12
23518,Norfolk city,VA,16.53333333333333
23803,Petersburg city,VA,27.200000000000003
24019,Roanoke County,VA,43.2
24112,Henry County,VA,30.4
24293,Wise County,VA,86.93333333333332
24401,Staunton city,VA,3.733333333333334
98055,King County,WA,75.73333333333333
98632,Cowlitz County,WA,0.8
99353,Benton County,WA,61.06666666666667
25401,Berkeley County,WV,63.2
26201,Upshur County,WV,14.399999999999999
53051,Waukesha County,WI,10.133333333333333
53172,Milwaukee County,WI,94.93333333333334
53209,Milwaukee County,WI,6.133333333333333
53538,Jefferson County,WI,28.000000000000004
54449,Wood County,WI,64
