ZipCode,county,state,Retirement,Geriatric
35124,Shelby County,AL,NA,61.96473551637279
35127,Jefferson County,AL,NA,67.2544080604534
35242,Shelby County,AL,NA,80.35264483627203
35570,Marion County,AL,NA,44.83627204030227
35646,Colbert County,AL,NA,92.9471032745592
35653,Franklin County,AL,88.47736625514403,NA
35661,Colbert County,AL,66.66666666666666,NA
35801,Madison County,AL,29.218106995884774,NA
35983,Cherokee County,AL,NA,98.2367758186398
36110,Montgomery County,AL,NA,66.49874055415617
36271,Calhoun County,AL,95.47325102880659,NA
36526,Baldwin County,AL,NA,56.67506297229219
36603,Mobile County,AL,NA,80.60453400503779
99504,Anchorage Municipality,AK,NA,47.607052896725435
99611,Kenai Peninsula Borough,AK,NA,93.95465994962217
85051,Maricopa County,AZ,NA,62.468513853904284
85202,Maricopa County,AZ,NA,73.55163727959699
85205,Maricopa County,AZ,71.19341563786008,NA
85248,Maricopa County,AZ,NA,4.030226700251889
85249,Maricopa County,AZ,65.4320987654321,NA
85260,Maricopa County,AZ,NA,92.19143576826197
85331,Maricopa County,AZ,NA,49.87405541561713
85353,Maricopa County,AZ,NA,65.74307304785894
85616,Cochise County,AZ,95.47325102880659,NA
71639,Desha County,AR,NA,100
71730,Union County,AR,NA,29.219143576826195
71753,Columbia County,AR,59.67078189300411,NA
72704,Washington County,AR,74.8971193415638,NA
90069,Los Angeles County,CA,47.325102880658434,NA
90211,Los Angeles County,CA,NA,74.05541561712846
90221,Los Angeles County,CA,NA,74.55919395465995
90242,Los Angeles County,CA,84.77366255144034,NA
90247,Los Angeles County,CA,NA,43.57682619647355
91201,Los Angeles County,CA,NA,51.63727959697732
91316,Los Angeles County,CA,98.35390946502058,NA
91343,Los Angeles County,CA,NA,35.012594458438286
91745,Los Angeles County,CA,NA,24.68513853904282
91776,Los Angeles County,CA,NA,45.843828715365234
92009,San Diego County,CA,NA,39.29471032745592
92027,San Diego County,CA,NA,40.55415617128463
92056,San Diego County,CA,30.04115226337449,NA
92067,San Diego County,CA,NA,94.20654911838791
92104,San Diego County,CA,NA,69.52141057934509
92227,Imperial County,CA,51.85185185185185,NA
92311,San Bernardino County,CA,NA,71.78841309823679
92344,San Bernardino County,CA,73.25102880658436,NA
92410,San Bernardino County,CA,60.08230452674898,NA
92551,Riverside County,CA,86.0082304526749,NA
92562,Riverside County,CA,NA,35.768261964735515
92626,Orange County,CA,NA,28.211586901763226
92646,Orange County,CA,NA,5.037783375314862
92840,Orange County,CA,NA,21.41057934508816
93023,Ventura County,CA,NA,99.49622166246851
93030,Ventura County,CA,NA,56.67506297229219
93551,Los Angeles County,CA,NA,96.97732997481108
94014,San Mateo County,CA,84.36213991769547,NA
94103,San Francisco County,CA,NA,72.79596977329975
94306,Santa Clara County,CA,NA,45.08816120906801
94403,San Mateo County,CA,NA,55.91939546599496
94509,Contra Costa County,CA,NA,15.617128463476071
94533,Solano County,CA,22.633744855967077,NA
94598,Contra Costa County,CA,49.794238683127574,NA
94803,Contra Costa County,CA,NA,48.11083123425693
94920,Marin County,CA,NA,41.30982367758186
95019,Santa Cruz County,CA,NA,86.64987405541562
95118,Santa Clara County,CA,NA,52.896725440806044
95136,Santa Clara County,CA,55.55555555555556,NA
95337,San Joaquin County,CA,NA,58.94206549118388
95350,Stanislaus County,CA,NA,16.876574307304786
95608,Sacramento County,CA,17.695473251028808,NA
95818,Sacramento County,CA,67.90123456790124,NA
95928,Butte County,CA,62.55144032921811,50.62972292191436
95973,Butte County,CA,20.5761316872428,NA
80014,Arapahoe County,CO,NA,6.045340050377834
80104,Douglas County,CO,NA,78.58942065491183
80107,Elbert County,CO,92.5925925925926,NA
80132,El Paso County,CO,52.674897119341566,NA
80210,Denver County,CO,NA,62.72040302267003
80247,Arapahoe County,CO,NA,78.33753148614609
80304,Boulder County,CO,57.61316872427984,NA
80524,Larimer County,CO,NA,68.01007556675063
80634,Weld County,CO,NA,7.5566750629722925
80915,El Paso County,CO,NA,55.16372795969773
81623,Garfield County,CO,58.0246913580247,NA
06051,Hartford County,CT,17.28395061728395,NA
06112,Hartford County,CT,NA,52.39294710327456
06513,New Haven County,CT,NA,19.143576826196472
06787,Litchfield County,CT,72.42798353909465,NA
06790,Litchfield County,CT,56.37860082304527,NA
19711,New Castle County,DE,10.699588477366255,NA
19720,New Castle County,DE,3.292181069958848,NA
32065,Clay County,FL,NA,66.75062972292191
32117,Volusia County,FL,NA,31.738035264483628
32128,Volusia County,FL,54.32098765432099,NA
32131,Putnam County,FL,93.82716049382715,81.61209068010076
32207,Duval County,FL,NA,46.095717884130984
32210,Duval County,FL,NA,7.8085642317380355
32222,Duval County,FL,NA,84.1309823677582
32583,Santa Rosa County,FL,19.34156378600823,NA
32696,Levy County,FL,NA,71.03274559193954
32765,Seminole County,FL,79.42386831275721,NA
32807,Orange County,FL,97.53086419753086,NA
32825,Orange County,FL,63.78600823045267,NA
32966,Indian River County,FL,NA,14.86146095717884
32967,Indian River County,FL,NA,38.539042821158695
33020,Broward County,FL,NA,57.43073047858942
33023,Broward County,FL,69.95884773662551,NA
33032,Miami-Dade County,FL,NA,56.42317380352645
33040,Monroe County,FL,NA,53.40050377833753
33062,Broward County,FL,25.514403292181072,NA
33128,Miami-Dade County,FL,NA,64.73551637279597
33139,Miami-Dade County,FL,NA,55.41561712846348
33144,Miami-Dade County,FL,NA,13.350125944584383
33155,Miami-Dade County,FL,60.49382716049383,10.579345088161208
33165,Miami-Dade County,FL,NA,1.7632241813602016
33168,Miami-Dade County,FL,67.07818930041152,NA
33183,Miami-Dade County,FL,NA,34.76070528967254
33322,Broward County,FL,NA,9.571788413098236
33409,Palm Beach County,FL,NA,74.81108312342569
33437,Palm Beach County,FL,NA,3.022670025188917
33458,Palm Beach County,FL,NA,24.937027707808564
33460,Palm Beach County,FL,NA,62.21662468513854
33538,Sumter County,FL,NA,90.6801007556675
33541,Pasco County,FL,NA,19.64735516372796
33610,Hillsborough County,FL,NA,93.70277078085643
33705,Pinellas County,FL,NA,40.050377833753146
33778,Pinellas County,FL,NA,65.99496221662469
33782,Pinellas County,FL,46.09053497942387,NA
33811,Polk County,FL,64.60905349794238,NA
33904,Lee County,FL,48.148148148148145,NA
33908,Lee County,FL,NA,0.2518891687657431
33971,Lee County,FL,58.43621399176955,NA
33983,Charlotte County,FL,68.72427983539094,NA
33990,Lee County,FL,34.97942386831276,NA
34117,Collier County,FL,70.37037037037037,NA
34420,Marion County,FL,NA,73.04785894206549
34442,Citrus County,FL,51.440329218106996,NA
34655,Pasco County,FL,23.456790123456788,NA
34667,Pasco County,FL,NA,19.395465994962215
34744,Osceola County,FL,NA,42.82115869017632
34769,Osceola County,FL,NA,41.81360201511335
34996,Martin County,FL,NA,24.43324937027708
30033,DeKalb County,GA,NA,73.29974811083123
30039,Gwinnett County,GA,76.13168724279835,NA
30041,Forsyth County,GA,NA,18.639798488664987
30076,Fulton County,GA,37.4485596707819,NA
30101,Cobb County,GA,NA,36.02015113350126
30114,Cherokee County,GA,NA,33.50125944584383
30157,Paulding County,GA,23.868312757201647,NA
30213,Fulton County,GA,57.20164609053497,NA
30238,Clayton County,GA,53.086419753086425,NA
30306,Fulton County,GA,69.1358024691358,NA
30318,Fulton County,GA,NA,28.463476070528966
30341,DeKalb County,GA,86.41975308641975,NA
30344,Fulton County,GA,NA,67.75818639798489
30349,Fulton County,GA,NA,96.4735516372796
30439,Candler County,GA,NA,69.0176322418136
30824,McDuffie County,GA,NA,71.53652392947103
31029,Monroe County,GA,NA,84.63476070528966
31204,Bibb County,GA,NA,33.75314861460957
31220,Bibb County,GA,NA,98.74055415617129
31404,Chatham County,GA,NA,70.52896725440806
31419,Chatham County,GA,29.629629629629626,NA
31516,Pierce County,GA,NA,78.08564231738035
31525,Glynn County,GA,NA,88.16120906801007
31533,Coffee County,GA,61.31687242798354,NA
31750,Ben Hill County,GA,26.337448559670783,77.32997481108312
39823,Early County,GA,70.78189300411523,NA
96792,Honolulu County,HI,19.753086419753085,NA
83201,Bannock County,ID,NA,30.730478589420656
83404,Bonneville County,ID,73.66255144032921,NA
60007,Cook County,IL,NA,23.425692695214106
60014,McHenry County,IL,44.03292181069959,NA
60191,DuPage County,IL,47.73662551440329,NA
60411,Cook County,IL,10.2880658436214,NA
60431,Will County,IL,NA,57.17884130982368
60445,Cook County,IL,NA,60.45340050377834
60455,Cook County,IL,45.67901234567901,NA
60473,Cook County,IL,NA,23.929471032745592
60477,Cook County,IL,NA,9.06801007556675
60620,Cook County,IL,4.11522633744856,NA
60634,Cook County,IL,NA,5.793450881612091
60637,Cook County,IL,NA,49.37027707808564
60638,Cook County,IL,NA,2.770780856423174
60640,Cook County,IL,NA,6.297229219143577
60644,Cook County,IL,13.991769547325102,15.365239294710328
60651,Cook County,IL,9.465020576131687,NA
60915,Kankakee County,IL,NA,42.56926952141058
61081,Whiteside County,IL,NA,94.7103274559194
61103,Winnebago County,IL,95.06172839506173,NA
62025,Madison County,IL,NA,23.67758186397985
62232,St. Clair County,IL,NA,82.11586901763224
62650,Morgan County,IL,NA,32.241813602015114
62801,Marion County,IL,NA,30.478589420654913
62863,Wabash County,IL,NA,77.83375314861462
62948,Williamson County,IL,54.73251028806584,NA
46142,Johnson County,IN,NA,21.91435768261965
46214,Marion County,IN,39.09465020576132,NA
46236,Marion County,IN,NA,59.949622166246854
46256,Marion County,IN,37.03703703703704,NA
46368,Porter County,IN,15.22633744855967,NA
46375,Lake County,IN,NA,21.158690176322416
46637,St. Joseph County,IN,NA,86.90176322418137
46808,Allen County,IN,NA,58.18639798488665
46901,Howard County,IN,4.526748971193416,NA
47130,Clark County,IN,6.584362139917696,NA
47240,Decatur County,IN,18.51851851851852,NA
47501,Daviess County,IN,NA,20.65491183879093
47882,Sullivan County,IN,NA,63.476070528967256
52403,Linn County,IA,NA,61.712846347607055
52405,Linn County,IA,NA,38.0352644836272
52803,Scott County,IA,NA,61.20906801007556
52804,Scott County,IA,NA,83.37531486146096
66202,Johnson County,KS,NA,95.21410579345087
66217,Johnson County,KS,NA,77.07808564231739
67502,Reno County,KS,52.2633744855967,NA
40210,Jefferson County,KY,50.617283950617285,NA
40220,Jefferson County,KY,NA,20.151133501259448
40330,Mercer County,KY,94.23868312757202,NA
40353,Montgomery County,KY,NA,35.012594458438286
40422,Boyle County,KY,43.20987654320987,NA
40475,Madison County,KY,NA,48.614609571788414
40489,Lincoln County,KY,99.1769547325103,NA
40977,Bell County,KY,62.96296296296296,NA
41018,Kenton County,KY,24.691358024691358,NA
41042,Boone County,KY,NA,2.2670025188916876
41522,Pike County,KY,90.94650205761316,NA
42104,Warren County,KY,40.74074074074074,NA
42431,Hopkins County,KY,NA,27.95969773299748
42721,Grayson County,KY,75.30864197530865,NA
70062,Jefferson Parish,LA,26.748971193415638,NA
70118,Orleans Parish,LA,NA,58.69017632241813
70441,St. Helena Parish,LA,NA,70.02518891687657
70512,St. Landry Parish,LA,NA,76.57430730478589
70563,Iberia Parish,LA,80.24691358024691,NA
70583,Lafayette Parish,LA,NA,67.00251889168766
70711,Livingston Parish,LA,NA,81.10831234256926
70775,West Feliciana Parish,LA,NA,68.51385390428212
70811,East Baton Rouge Parish,LA,67.48971193415639,NA
71055,Webster Parish,LA,31.275720164609055,NA
71129,Caddo Parish,LA,89.30041152263375,NA
71201,Ouachita Parish,LA,NA,82.36775818639799
71202,Ouachita Parish,LA,NA,43.07304785894207
71203,Ouachita Parish,LA,NA,30.982367758186395
71263,West Carroll Parish,LA,65.84362139917695,NA
71334,Concordia Parish,LA,NA,83.12342569269522
04005,York County,ME,4.938271604938271,NA
04240,Androscoggin County,ME,2.05761316872428,NA
04330,Kennebec County,ME,NA,38.287153652392945
04769,Aroostook County,ME,37.86008230452675,NA
04901,Kennebec County,ME,20.16460905349794,NA
04915,Waldo County,ME,32.510288065843625,NA
20602,Charles County,MD,82.71604938271605,NA
20736,Calvert County,MD,NA,87.40554156171285
20747,Prince George's County,MD,78.18930041152264,NA
20774,Prince George's County,MD,NA,38.79093198992443
21057,Baltimore County,MD,NA,89.67254408060454
21218,Baltimore city,MD,13.168724279835391,NA
21227,Baltimore County,MD,44.44444444444444,NA
21795,Washington County,MD,NA,90.93198992443325
01035,Hampshire County,MA,85.18518518518519,NA
01201,Berkshire County,MA,NA,24.181360201511335
01226,Berkshire County,MA,55.144032921810705,NA
01440,Worcester County,MA,NA,8.312342569269521
01604,Worcester County,MA,1.2345679012345678,NA
01607,Worcester County,MA,63.37448559670782,NA
02025,Norfolk County,MA,87.65432098765432,NA
02116,Suffolk County,MA,NA,14.105793450881613
02152,Suffolk County,MA,8.641975308641975,NA
02191,Norfolk County,MA,NA,89.16876574307305
02301,Plymouth County,MA,0,NA
02341,Plymouth County,MA,NA,90.42821158690177
02370,Plymouth County,MA,NA,47.3551637279597
02668,Barnstable County,MA,NA,88.41309823677582
02723,Bristol County,MA,NA,25.188916876574307
02740,Bristol County,MA,NA,80.85642317380352
02766,Bristol County,MA,NA,91.68765743073047
48083,Oakland County,MI,NA,31.98992443324937
48154,Wayne County,MI,NA,3.5264483627204033
48173,Wayne County,MI,NA,51.13350125944584
48206,Wayne County,MI,25.925925925925924,NA
48208,Wayne County,MI,71.60493827160494,NA
48331,Oakland County,MI,NA,25.440806045340054
48341,Oakland County,MI,36.62551440329218,NA
48439,Genesee County,MI,NA,10.327455919395465
48442,Oakland County,MI,44.8559670781893,NA
48602,Saginaw County,MI,11.11111111111111,NA
48910,Ingham County,MI,14.40329218106996,NA
49022,Berrien County,MI,NA,17.38035264483627
49107,Berrien County,MI,NA,71.03274559193954
49424,Ottawa County,MI,39.50617283950617,NA
49503,Kent County,MI,NA,39.79848866498741
49686,Grand Traverse County,MI,23.045267489711936,NA
49868,Luce County,MI,NA,57.93450881612091
55336,McLeod County,MN,NA,42.0654911838791
55432,Anoka County,MN,38.2716049382716,NA
56007,Freeborn County,MN,NA,0.7556675062972292
56265,Chippewa County,MN,NA,64.23173803526448
56304,Sherburne County,MN,NA,98.99244332493703
38701,Washington County,MS,NA,75.06297229219143
38930,Leflore County,MS,38.68312757201646,NA
39209,Hinds County,MS,NA,53.904282115869016
39212,Hinds County,MS,79.01234567901234,NA
39339,Winston County,MS,NA,57.43073047858942
39429,Marion County,MS,97.11934156378601,NA
39532,Harrison County,MS,NA,15.113350125944585
39648,Pike County,MS,NA,87.1536523929471
63010,Jefferson County,MO,NA,18.387909319899247
63026,St. Louis County,MO,13.580246913580247,NA
63116,St. Louis city,MO,48.971193415637856,NA
63118,St. Louis city,MO,36.21399176954733,NA
63125,St. Louis County,MO,NA,12.594458438287154
63128,St. Louis County,MO,NA,4.282115869017632
63129,St. Louis County,MO,NA,7.052896725440807
63376,St. Charles County,MO,NA,2.518891687657431
63863,Dunklin County,MO,NA,86.39798488664987
64014,Jackson County,MO,28.80658436213992,NA
64063,Jackson County,MO,34.5679012345679,NA
64075,Jackson County,MO,59.25925925925925,NA
64130,Jackson County,MO,NA,62.97229219143576
64801,Jasper County,MO,43.62139917695473,NA
64804,Jasper County,MO,88.06584362139918,NA
64834,Jasper County,MO,NA,84.88664987405542
65202,Boone County,MO,18.930041152263374,NA
65453,Crawford County,MO,72.8395061728395,NA
59635,Lewis and Clark County,MT,NA,88.9168765743073
68506,Lancaster County,NE,NA,82.87153652392946
68507,Lancaster County,NE,NA,81.10831234256926
89119,Clark County,NV,NA,51.88916876574308
89128,Clark County,NV,NA,44.08060453400503
89156,Clark County,NV,60.90534979423868,NA
89519,Washoe County,NV,NA,78.58942065491183
03235,Merrimack County,NH,96.70781893004116,NA
03581,Coos County,NH,96.29629629629629,NA
03860,Carroll County,NH,NA,54.15617128463476
07075,Bergen County,NJ,NA,97.73299748110831
07092,Union County,NJ,NA,76.32241813602015
07102,Essex County,NJ,NA,94.45843828715365
07306,Hudson County,NJ,NA,16.624685138539043
07607,Bergen County,NJ,NA,75.56675062972292
07650,Bergen County,NJ,NA,60.20151133501259
08016,Burlington County,NJ,22.22222222222222,NA
08360,Cumberland County,NJ,33.744855967078195,NA
08361,Cumberland County,NJ,42.38683127572017,NA
08610,Mercer County,NJ,NA,72.544080604534
08611,Mercer County,NJ,27.572016460905353,NA
08873,Somerset County,NJ,69.54732510288066,NA
87106,Bernalillo County,NM,35.390946502057616,NA
87108,Bernalillo County,NM,6.172839506172839,NA
87110,Bernalillo County,NM,9.876543209876543,NA
87122,Bernalillo County,NM,NA,51.385390428211586
88030,Luna County,NM,NA,48.36272040302267
10035,New York County,NY,NA,10.075566750629724
10463,Bronx County,NY,41.1522633744856,NA
10466,Bronx County,NY,NA,37.78337531486146
10468,Bronx County,NY,NA,4.785894206549118
10510,Westchester County,NY,NA,55.66750629722922
10583,Westchester County,NY,NA,25.94458438287154
10598,Westchester County,NY,NA,31.48614609571788
10801,Westchester County,NY,NA,29.47103274559194
11010,Nassau County,NY,NA,40.302267002518896
11103,Queens County,NY,NA,64.98740554156171
11201,Kings County,NY,NA,22.16624685138539
11209,Kings County,NY,NA,11.083123425692696
11217,Kings County,NY,21.810699588477366,NA
11221,Kings County,NY,3.7037037037037033,NA
11223,Kings County,NY,NA,28.967254408060455
11224,Kings County,NY,5.761316872427984,1.2594458438287155
11226,Kings County,NY,2.880658436213992,NA
11229,Kings County,NY,NA,19.899244332493705
11230,Kings County,NY,NA,3.7783375314861463
11233,Kings County,NY,NA,50.88161209068011
11354,Queens County,NY,NA,20.906801007556673
11367,Queens County,NY,NA,46.85138539042821
11373,Queens County,NY,NA,47.858942065491185
11375,Queens County,NY,NA,47.103274559193956
11414,Queens County,NY,NA,96.72544080604534
11415,Queens County,NY,64.19753086419753,NA
11432,Queens County,NY,8.23045267489712,NA
11435,Queens County,NY,15.637860082304528,NA
11436,Queens County,NY,NA,76.0705289672544
11560,Nassau County,NY,98.76543209876543,NA
11566,Nassau County,NY,NA,39.54659949622166
11691,Queens County,NY,NA,18.1360201511335
11735,Nassau County,NY,NA,42.31738035264483
11742,Suffolk County,NY,86.83127572016461,NA
11746,Suffolk County,NY,NA,7.304785894206549
11756,Nassau County,NY,NA,37.27959697732997
11758,Nassau County,NY,32.92181069958848,NA
11771,Nassau County,NY,100,NA
11787,Suffolk County,NY,NA,26.700251889168765
11793,Nassau County,NY,56.79012345679012,34.5088161209068
12019,Saratoga County,NY,NA,58.43828715365239
12047,Albany County,NY,51.028806584362144,NA
12159,Albany County,NY,NA,98.48866498740554
12203,Albany County,NY,NA,32.7455919395466
12302,Schenectady County,NY,NA,26.19647355163728
12401,Ulster County,NY,NA,28.71536523929471
12866,Saratoga County,NY,NA,6.54911838790932
13027,Onondaga County,NY,16.46090534979424,NA
13148,Seneca County,NY,NA,63.22418136020151
13440,Oneida County,NY,NA,6.801007556675064
14432,Ontario County,NY,NA,79.34508816120906
14624,Monroe County,NY,1.646090534979424,NA
14760,Cattaraugus County,NY,NA,46.59949622166247
14830,Steuben County,NY,NA,69.26952141057934
14850,Tompkins County,NY,NA,74.3073047858942
27025,Rockingham County,NC,NA,44.584382871536526
27101,Forsyth County,NC,83.53909465020575,NA
27106,Forsyth County,NC,NA,9.82367758186398
27203,Randolph County,NC,NA,48.86649874055416
27260,Guilford County,NC,NA,49.622166246851386
27330,Lee County,NC,NA,27.204030226700255
27360,Davidson County,NC,NA,8.816120906801007
27504,Johnston County,NC,NA,60.70528967254408
27525,Franklin County,NC,53.90946502057613,NA
27577,Johnston County,NC,NA,82.36775818639799
27597,Wake County,NC,NA,92.44332493702771
27609,Wake County,NC,62.139917695473244,NA
27882,Nash County,NC,77.77777777777779,NA
28110,Union County,NC,NA,13.602015113350127
28127,Stanly County,NC,NA,87.90931989924434
28311,Cumberland County,NC,35.80246913580247,NA
28358,Robeson County,NC,NA,17.12846347607053
28374,Moore County,NC,NA,11.335012594458437
28560,Craven County,NC,34.15637860082305,NA
28574,Onslow County,NC,76.5432098765432,NA
28675,Alleghany County,NC,46.913580246913575,NA
28791,Henderson County,NC,NA,13.09823677581864
28792,Henderson County,NC,NA,0.5037783375314862
28803,Buncombe County,NC,27.572016460905353,NA
43031,Licking County,OH,NA,79.59697732997482
43055,Licking County,OH,0.823045267489712,NA
43062,Licking County,OH,NA,92.69521410579345
43147,Fairfield County,OH,23.868312757201647,40.80604534005038
43220,Franklin County,OH,NA,91.93954659949623
43224,Franklin County,OH,14.814814814814813,NA
43229,Franklin County,OH,NA,18.89168765743073
43701,Muskingum County,OH,0.411522633744856,NA
43832,Tuscarawas County,OH,NA,99.74811083123426
43920,Columbiana County,OH,NA,11.838790931989925
44004,Ashtabula County,OH,NA,1.0075566750629723
44092,Lake County,OH,NA,8.060453400503778
44108,Cuyahoga County,OH,6.995884773662551,NA
44135,Cuyahoga County,OH,NA,22.670025188916874
44140,Cuyahoga County,OH,NA,29.72292191435768
44212,Medina County,OH,9.053497942386832,NA
44254,Medina County,OH,NA,65.99496221662469
44405,Mahoning County,OH,81.48148148148148,NA
44438,Trumbull County,OH,NA,89.92443324937027
44663,Tuscarawas County,OH,94.65020576131687,NA
45036,Warren County,OH,25.102880658436217,NA
45121,Brown County,OH,74.48559670781893,NA
45322,Montgomery County,OH,NA,31.234256926952142
45365,Shelby County,OH,NA,22.921914357682617
45424,Montgomery County,OH,NA,4.534005037783375
45640,Jackson County,OH,7.4074074074074066,NA
45656,Jackson County,OH,55.96707818930041,NA
45701,Athens County,OH,NA,97.98488664987406
45840,Hancock County,OH,NA,5.541561712846348
73013,Oklahoma County,OK,NA,8.564231738035264
73129,Oklahoma County,OK,68.3127572016461,NA
73401,Carter County,OK,87.24279835390946,NA
74033,Tulsa County,OK,NA,95.71788413098237
74115,Tulsa County,OK,NA,85.8942065491184
74127,Tulsa County,OK,NA,59.44584382871536
74354,Ottawa County,OK,NA,53.14861460957179
74464,Cherokee County,OK,83.9506172839506,NA
74960,Adair County,OK,NA,91.183879093199
97007,Washington County,OR,NA,33.75314861460957
97034,Clackamas County,OR,NA,32.49370277078086
97055,Clackamas County,OR,NA,43.57682619647355
97217,Multnomah County,OR,41.56378600823045,NA
97322,Linn County,OR,NA,50.377833753148614
97355,Linn County,OR,NA,5.289672544080604
97439,Lane County,OR,NA,16.3727959697733
97467,Douglas County,OR,NA,54.65994962216625
97526,Josephine County,OR,NA,41.05793450881612
97603,Klamath County,OR,NA,2.0151133501259446
97701,Deschutes County,OR,NA,32.99748110831234
15102,Allegheny County,PA,NA,60.957178841309826
15104,Allegheny County,PA,NA,52.141057934508815
15108,Allegheny County,PA,NA,36.775818639798494
15122,Allegheny County,PA,50.20576131687243,17.632241813602015
15147,Allegheny County,PA,65.02057613168725,NA
15501,Somerset County,PA,42.79835390946502,NA
15613,Westmoreland County,PA,45.267489711934154,NA
15642,Westmoreland County,PA,NA,3.27455919395466
15644,Westmoreland County,PA,NA,12.34256926952141
15853,Elk County,PA,77.36625514403292,NA
16507,Erie County,PA,99.58847736625515,NA
17078,Lebanon County,PA,11.522633744855968,NA
17404,York County,PA,NA,12.846347607052897
17931,Schuylkill County,PA,93.4156378600823,NA
18109,Lehigh County,PA,41.9753086419753,NA
18201,Luzerne County,PA,NA,26.952141057934508
18255,Carbon County,PA,NA,72.29219143576826
18466,Monroe County,PA,58.8477366255144,NA
18504,Lackawanna County,PA,NA,53.65239294710328
18512,Lackawanna County,PA,NA,49.87405541561713
18655,Luzerne County,PA,NA,70.02518891687657
18705,Luzerne County,PA,NA,25.692695214105793
19012,Montgomery County,PA,NA,97.48110831234257
19063,Delaware County,PA,NA,9.319899244332493
19081,Delaware County,PA,82.3045267489712,NA
19120,Philadelphia County,PA,NA,39.042821158690174
19128,Philadelphia County,PA,NA,30.22670025188917
19335,Chester County,PA,NA,61.46095717884131
02903,Providence County,RI,88.88888888888889,NA
29160,Lexington County,SC,83.1275720164609,NA
29340,Cherokee County,SC,NA,34.25692695214106
29403,Charleston County,SC,81.06995884773663,NA
29414,Charleston County,SC,NA,27.70780856423174
29440,Georgetown County,SC,NA,26.448362720403022
29464,Charleston County,SC,NA,13.85390428211587
29506,Florence County,SC,49.382716049382715,76.82619647355163
29571,Marion County,SC,NA,63.97984886649874
29591,Florence County,SC,NA,90.17632241813602
29605,Greenville County,SC,40.32921810699588,NA
29621,Anderson County,SC,NA,11.586901763224182
29654,Anderson County,SC,NA,63.72795969773299
29670,Anderson County,SC,NA,83.87909319899244
29696,Oconee County,SC,78.60082304526749,NA
29708,York County,SC,NA,88.66498740554157
29847,Edgefield County,SC,NA,87.6574307304786
57006,Brookings County,SD,NA,12.090680100755668
57042,Lake County,SD,NA,36.523929471032744
57103,Minnehaha County,SD,20.98765432098765,NA
37075,Sumner County,TN,7.818930041152264,NA
37086,Rutherford County,TN,53.497942386831276,NA
37087,Wilson County,TN,21.39917695473251,NA
37209,Davidson County,TN,89.7119341563786,NA
37312,Bradley County,TN,NA,29.72292191435768
37343,Hamilton County,TN,NA,21.662468513853906
37658,Carter County,TN,81.89300411522635,NA
37665,Sullivan County,TN,NA,93.45088161209067
37769,Anderson County,TN,NA,91.43576826196474
38001,Crockett County,TN,NA,95.96977329974811
38002,Shelby County,TN,NA,94.96221662468514
38257,Obion County,TN,NA,84.1309823677582
38305,Madison County,TN,11.934156378600823,NA
38556,Fentress County,TN,NA,99.24433249370277
75040,Dallas County,TX,NA,17.884130982367758
75050,Dallas County,TX,NA,43.32493702770781
75150,Dallas County,TX,16.872427983539097,NA
75287,Denton County,TX,NA,83.37531486146096
75482,Hopkins County,TX,NA,65.4911838790932
75961,Nacogdoches County,TX,91.76954732510289,NA
76009,Johnson County,TX,NA,70.7808564231738
76054,Tarrant County,TX,NA,59.19395465994962
76180,Tarrant County,TX,30.864197530864196,NA
76502,Bell County,TX,NA,37.02770780856423
76504,Bell County,TX,2.4691358024691357,NA
76550,Lampasas County,TX,NA,16.120906801007557
76706,McLennan County,TX,NA,68.76574307304786
77022,Harris County,TX,NA,44.33249370277078
77025,Harris County,TX,NA,54.40806045340051
77085,Harris County,TX,75.7201646090535,NA
77098,Harris County,TX,92.18106995884774,NA
77429,Harris County,TX,66.2551440329218,NA
77474,Austin County,TX,NA,77.32997481108312
77484,Waller County,TX,97.94238683127571,NA
77511,Brazoria County,TX,NA,14.609571788413097
77554,Galveston County,TX,39.91769547325103,NA
77630,Orange County,TX,30.45267489711934,NA
78065,Atascosa County,TX,NA,75.31486146095719
78109,Bexar County,TX,NA,93.19899244332494
78148,Bexar County,TX,85.59670781893004,NA
78220,Bexar County,TX,90.53497942386831,NA
78239,Bexar County,TX,61.31687242798354,NA
78404,Nueces County,TX,NA,79.84886649874056
78415,Nueces County,TX,NA,49.1183879093199
78577,Hidalgo County,TX,NA,85.3904282115869
78582,Starr County,TX,NA,52.64483627204031
78611,Burnet County,TX,NA,14.357682619647354
78745,Travis County,TX,NA,79.09319899244332
79930,El Paso County,TX,NA,46.34760705289673
84054,Davis County,UT,NA,81.61209068010076
84111,Salt Lake County,UT,NA,85.64231738035264
84401,Weber County,UT,46.502057613168724,NA
84737,Washington County,UT,80.65843621399176,NA
05408,Chittenden County,VT,NA,73.55163727959699
05488,Franklin County,VT,NA,72.04030226700252
20111,Prince William County,VA,NA,67.2544080604534
22801,Harrisonburg city,VA,NA,20.40302267002519
22835,Page County,VA,NA,37.531486146095716
23139,Powhatan County,VA,NA,41.56171284634761
23185,James City County,VA,NA,0
23223,Henrico County,VA,NA,27.455919395465994
23234,Chesterfield County,VA,28.39506172839506,NA
23453,Virginia Beach city,VA,31.68724279835391,NA
23831,Chesterfield County,VA,27.160493827160494,NA
24083,Botetourt County,VA,NA,86.14609571788414
24112,Henry County,VA,NA,56.17128463476071
24211,Washington County,VA,NA,59.69773299748111
24301,Pulaski County,VA,48.559670781893004,NA
24501,Lynchburg city,VA,NA,69.77329974811083
24527,Pittsylvania County,VA,NA,97.22921914357683
24630,Tazewell County,VA,NA,95.46599496221663
98001,King County,WA,NA,54.91183879093199
98002,King County,WA,90.12345679012346,NA
98031,King County,WA,16.049382716049383,NA
98042,King County,WA,12.345679012345679,NA
98043,Snohomish County,WA,74.07407407407408,NA
98055,King County,WA,93.00411522633745,NA
98119,King County,WA,NA,96.22166246851386
98362,Clallam County,WA,NA,65.23929471032746
98418,Pierce County,WA,76.95473251028807,NA
98520,Grays Harbor County,WA,NA,89.4206549118388
98632,Cowlitz County,WA,5.349794238683128,NA
20002,District of Columbia,DC,NA,35.51637279596977
20010,District of Columbia,DC,71.60493827160494,NA
20011,District of Columbia,DC,NA,85.13853904282117
20032,District of Columbia,DC,NA,64.48362720403023
25443,Jefferson County,WV,NA,68.01007556675063
25526,Putnam County,WV,NA,33.249370277078086
25601,Logan County,WV,79.83539094650206,NA
26003,Ohio County,WV,NA,1.5113350125944585
53029,Waukesha County,WI,NA,45.5919395465995
53140,Kenosha County,WI,NA,23.173803526448363
53144,Kenosha County,WI,NA,45.34005037783375
53147,Walworth County,WI,33.33333333333333,NA
53172,Milwaukee County,WI,NA,75.81863979848866
53204,Milwaukee County,WI,32.098765432098766,NA
53214,Milwaukee County,WI,NA,22.16624685138539
53219,Milwaukee County,WI,12.757201646090536,NA
53226,Milwaukee County,WI,NA,36.02015113350126
53545,Rock County,WI,NA,15.869017632241814
53705,Dane County,WI,NA,10.831234256926953
54728,Barron County,WI,91.35802469135803,NA
54729,Chippewa County,WI,18.106995884773664,NA
54830,Burnett County,WI,NA,80.10075566750629
