ZipCode,county,state,Adult,Retirement,Geriatric
35004,St. Clair County,AL,98.5239852398524,NA,92.19269102990033
35022,Jefferson County,AL,NA,15.819209039548024,NA
35126,Jefferson County,AL,46.125461254612546,NA,NA
35127,Jefferson County,AL,NA,NA,72.25913621262458
35207,Jefferson County,AL,NA,NA,93.52159468438538
35211,Jefferson County,AL,NA,NA,28.23920265780731
35215,Jefferson County,AL,61.254612546125465,NA,29.900332225913623
35404,Tuscaloosa County,AL,39.48339483394834,NA,NA
35570,Marion County,AL,NA,NA,47.3421926910299
35646,Colbert County,AL,NA,NA,93.18936877076412
35816,Madison County,AL,NA,NA,82.55813953488372
36106,Montgomery County,AL,NA,71.75141242937853,NA
36207,Calhoun County,AL,NA,81.63841807909604,NA
36303,Houston County,AL,20.66420664206642,NA,NA
36545,Clarke County,AL,NA,94.63276836158192,NA
99654,Matanuska-Susitna Borough,AK,NA,NA,70.93023255813954
85022,Maricopa County,AZ,NA,28.8135593220339,NA
85208,Maricopa County,AZ,NA,NA,20.930232558139537
85226,Maricopa County,AZ,NA,NA,99.16943521594685
85253,Maricopa County,AZ,NA,NA,68.43853820598007
85254,Maricopa County,AZ,NA,NA,40.365448504983384
85257,Maricopa County,AZ,NA,NA,35.21594684385382
85258,Maricopa County,AZ,63.46863468634686,NA,NA
85260,Maricopa County,AZ,NA,NA,18.438538205980066
85301,Maricopa County,AZ,4.797047970479705,NA,NA
85353,Maricopa County,AZ,NA,NA,69.26910299003323
85365,Yuma County,AZ,NA,18.361581920903955,NA
85614,Pima County,AZ,NA,NA,22.259136212624583
86409,Mohave County,AZ,NA,NA,17.60797342192691
71852,Howard County,AR,NA,NA,71.09634551495017
71854,Miller County,AR,65.68265682656826,NA,NA
72021,Monroe County,AR,NA,NA,93.85382059800665
72081,White County,AR,NA,54.51977401129944,NA
72212,Pulaski County,AR,NA,NA,45.51495016611295
72401,Craighead County,AR,NA,NA,13.122923588039868
72704,Washington County,AR,NA,77.68361581920904,NA
72761,Benton County,AR,NA,NA,75.41528239202658
72904,Sebastian County,AR,54.61254612546126,NA,NA
90011,Los Angeles County,CA,22.14022140221402,NA,NA
90012,Los Angeles County,CA,NA,NA,26.578073089701
90022,Los Angeles County,CA,NA,NA,80.73089700996677
90034,Los Angeles County,CA,NA,NA,66.61129568106313
90043,Los Angeles County,CA,NA,20.62146892655367,NA
90220,Los Angeles County,CA,NA,NA,31.3953488372093
90240,Los Angeles County,CA,NA,65.5367231638418,NA
90255,Los Angeles County,CA,NA,NA,87.20930232558139
90280,Los Angeles County,CA,NA,NA,34.883720930232556
90504,Los Angeles County,CA,NA,NA,46.67774086378738
90505,Los Angeles County,CA,52.02952029520295,NA,NA
90601,Los Angeles County,CA,NA,NA,35.714285714285715
90602,Los Angeles County,CA,NA,NA,57.64119601328903
90805,Los Angeles County,CA,61.99261992619927,NA,NA
91106,Los Angeles County,CA,NA,93.22033898305084,NA
91316,Los Angeles County,CA,NA,NA,19.435215946843854
91321,Los Angeles County,CA,NA,NA,35.04983388704319
91344,Los Angeles County,CA,NA,NA,16.27906976744186
91381,Los Angeles County,CA,NA,NA,88.87043189368771
91402,Los Angeles County,CA,NA,NA,25.083056478405314
91423,Los Angeles County,CA,66.42066420664207,NA,NA
91501,Los Angeles County,CA,NA,NA,83.22259136212624
91606,Los Angeles County,CA,NA,NA,36.7109634551495
91737,San Bernardino County,CA,NA,53.672316384180796,NA
91744,Los Angeles County,CA,NA,NA,49.83388704318937
91755,Los Angeles County,CA,NA,NA,39.53488372093023
91780,Los Angeles County,CA,NA,NA,41.52823920265781
92020,San Diego County,CA,NA,NA,27.07641196013289
92021,San Diego County,CA,NA,NA,20.764119601328904
92064,San Diego County,CA,NA,NA,25.581395348837212
92067,San Diego County,CA,NA,NA,57.308970099667775
92078,San Diego County,CA,NA,NA,19.767441860465116
92139,San Diego County,CA,NA,NA,45.182724252491695
92154,San Diego County,CA,NA,NA,10.96345514950166
92236,Riverside County,CA,NA,NA,97.8405315614618
92252,San Bernardino County,CA,69.37269372693727,NA,NA
92301,San Bernardino County,CA,NA,NA,97.50830564784053
92345,San Bernardino County,CA,NA,14.40677966101695,NA
92373,San Bernardino County,CA,64.20664206642066,NA,NA
92376,San Bernardino County,CA,NA,NA,78.40531561461795
92397,San Bernardino County,CA,NA,83.61581920903954,NA
92399,San Bernardino County,CA,26.199261992619927,NA,NA
92404,San Bernardino County,CA,14.760147601476014,85.02824858757062,73.9202657807309
92503,Riverside County,CA,NA,NA,33.88704318936877
92530,Riverside County,CA,29.520295202952028,NA,NA
92571,Riverside County,CA,66.78966789667896,NA,NA
92646,Orange County,CA,NA,7.062146892655368,NA
92660,Orange County,CA,NA,NA,10.465116279069768
92662,Orange County,CA,NA,NA,84.38538205980066
92704,Orange County,CA,NA,35.02824858757062,NA
92802,Orange County,CA,NA,NA,34.38538205980066
92804,Orange County,CA,12.915129151291513,NA,NA
92833,Orange County,CA,43.542435424354245,NA,NA
92843,Orange County,CA,NA,NA,61.461794019933556
92868,Orange County,CA,60.51660516605166,NA,NA
93003,Ventura County,CA,13.653136531365314,NA,NA
93103,Santa Barbara County,CA,81.91881918819189,NA,NA
93312,Kern County,CA,NA,NA,89.70099667774086
93436,Santa Barbara County,CA,NA,NA,80.23255813953489
93536,Los Angeles County,CA,37.269372693726936,NA,NA
93543,Los Angeles County,CA,83.76383763837639,NA,NA
93555,Kern County,CA,NA,19.2090395480226,NA
93612,Fresno County,CA,NA,57.34463276836158,NA
93618,Tulare County,CA,47.601476014760145,NA,NA
93704,Fresno County,CA,NA,54.23728813559322,NA
93710,Fresno County,CA,NA,74.85875706214689,NA
93722,Fresno County,CA,NA,14.689265536723164,NA
93905,Monterey County,CA,65.31365313653137,NA,NA
94015,San Mateo County,CA,NA,NA,3.6544850498338874
94109,San Francisco County,CA,NA,NA,3.1561461794019934
94112,San Francisco County,CA,NA,NA,2.4916943521594686
94114,San Francisco County,CA,NA,NA,45.348837209302324
94115,San Francisco County,CA,NA,NA,9.46843853820598
94121,San Francisco County,CA,NA,NA,38.205980066445186
94519,Contra Costa County,CA,NA,NA,83.72093023255815
94530,Contra Costa County,CA,NA,NA,37.54152823920266
94541,Alameda County,CA,21.771217712177123,NA,36.87707641196013
94546,Alameda County,CA,NA,NA,18.272425249169437
94598,Contra Costa County,CA,NA,79.09604519774011,NA
94611,Alameda County,CA,NA,21.75141242937853,NA
94621,Alameda County,CA,NA,NA,71.92691029900332
94804,Contra Costa County,CA,59.040590405904055,NA,NA
94806,Contra Costa County,CA,NA,NA,50.99667774086378
94928,Sonoma County,CA,NA,NA,37.87375415282392
95206,San Joaquin County,CA,NA,26.836158192090398,NA
95340,Merced County,CA,NA,51.12994350282486,NA
95401,Sonoma County,CA,NA,48.30508474576271,NA
95403,Sonoma County,CA,NA,NA,11.960132890365449
95425,Sonoma County,CA,NA,94.0677966101695,NA
95467,Lake County,CA,NA,85.31073446327684,NA
95519,Humboldt County,CA,NA,49.717514124293785,NA
95670,Sacramento County,CA,NA,33.61581920903955,22.425249169435215
95673,Sacramento County,CA,NA,64.40677966101694,NA
95818,Sacramento County,CA,NA,68.64406779661016,NA
95821,Sacramento County,CA,NA,31.92090395480226,NA
95835,Sacramento County,CA,NA,NA,42.19269102990033
95842,Sacramento County,CA,NA,NA,76.41196013289037
95954,Butte County,CA,NA,NA,29.069767441860467
95963,Glenn County,CA,NA,NA,56.47840531561462
95973,Butte County,CA,NA,70.33898305084746,NA
96080,Tehama County,CA,NA,26.27118644067797,35.714285714285715
96097,Siskiyou County,CA,78.96678966789668,NA,NA
80012,Arapahoe County,CO,NA,NA,14.451827242524917
80013,Arapahoe County,CO,NA,NA,37.54152823920266
80132,El Paso County,CO,NA,57.06214689265536,NA
80203,Denver County,CO,NA,93.50282485875707,NA
80205,Denver County,CO,11.808118081180812,NA,NA
80214,Jefferson County,CO,NA,NA,73.58803986710963
80501,Boulder County,CO,NA,NA,64.28571428571429
80524,Larimer County,CO,NA,59.32203389830508,NA
80634,Weld County,CO,40.22140221402214,NA,NA
80922,El Paso County,CO,NA,69.77401129943502,NA
81067,Otero County,CO,NA,NA,87.87375415282392
81212,Fremont County,CO,NA,NA,30.066445182724255
06040,Hartford County,CT,9.22509225092251,NA,NA
06051,Hartford County,CT,3.3210332103321036,NA,NA
06053,Hartford County,CT,NA,NA,73.421926910299
06118,Hartford County,CT,NA,37.28813559322034,NA
06484,Fairfield County,CT,NA,NA,45.68106312292359
06514,New Haven County,CT,NA,NA,28.405315614617937
06614,Fairfield County,CT,NA,NA,21.59468438538206
06759,Litchfield County,CT,90.03690036900369,NA,NA
06762,New Haven County,CT,92.98892988929889,NA,NA
06804,Fairfield County,CT,NA,NA,55.647840531561464
06840,Fairfield County,CT,NA,NA,60.631229235880404
19707,New Castle County,DE,NA,NA,41.029900332225914
19709,New Castle County,DE,NA,NA,24.25249169435216
19711,New Castle County,DE,NA,NA,48.006644518272424
19938,Kent County,DE,NA,NA,76.74418604651163
32011,Nassau County,FL,NA,NA,78.40531561461795
32033,St. Johns County,FL,NA,89.26553672316385,NA
32040,Baker County,FL,NA,75.70621468926554,NA
32043,Clay County,FL,NA,94.35028248587571,NA
32080,St. Johns County,FL,NA,NA,22.757475083056477
32086,St. Johns County,FL,NA,NA,10.299003322259136
32110,Flagler County,FL,85.23985239852398,NA,NA
32130,Volusia County,FL,100,NA,NA
32141,Volusia County,FL,NA,51.41242937853108,NA
32168,Volusia County,FL,NA,NA,59.966777408637874
32174,Volusia County,FL,NA,11.016949152542372,NA
32177,Putnam County,FL,NA,NA,40.19933554817276
32179,Marion County,FL,70.11070110701108,NA,NA
32208,Duval County,FL,NA,4.519774011299435,NA
32220,Duval County,FL,NA,51.9774011299435,NA
32222,Duval County,FL,71.21771217712177,NA,82.22591362126246
32308,Leon County,FL,68.63468634686348,NA,NA
32309,Leon County,FL,70.84870848708486,NA,50.66445182724253
32327,Wakulla County,FL,NA,NA,74.58471760797342
32348,Taylor County,FL,NA,NA,79.56810631229236
32401,Bay County,FL,NA,75.98870056497175,NA
32405,Bay County,FL,NA,30.225988700564972,NA
32514,Escambia County,FL,NA,13.27683615819209,NA
32771,Seminole County,FL,NA,34.74576271186441,NA
32796,Brevard County,FL,85.60885608856088,NA,NA
32803,Orange County,FL,NA,67.2316384180791,NA
32804,Orange County,FL,NA,NA,94.85049833887044
32817,Orange County,FL,NA,61.86440677966102,NA
32962,Indian River County,FL,NA,NA,20.431893687707642
32967,Indian River County,FL,NA,NA,38.372093023255815
33012,Miami-Dade County,FL,NA,21.75141242937853,56.97674418604651
33014,Miami-Dade County,FL,NA,66.94915254237289,19.102990033222593
33015,Miami-Dade County,FL,NA,NA,71.76079734219269
33016,Miami-Dade County,FL,NA,NA,19.435215946843854
33020,Broward County,FL,NA,25.70621468926554,NA
33021,Broward County,FL,NA,NA,4.651162790697675
33029,Broward County,FL,NA,NA,44.6843853820598
33040,Monroe County,FL,NA,NA,57.308970099667775
33050,Monroe County,FL,NA,NA,95.51495016611295
33056,Miami-Dade County,FL,NA,46.04519774011299,NA
33064,Broward County,FL,NA,NA,40.863787375415285
33128,Miami-Dade County,FL,NA,NA,67.60797342192691
33133,Miami-Dade County,FL,NA,NA,59.63455149501661
33136,Miami-Dade County,FL,NA,NA,78.07308970099668
33147,Miami-Dade County,FL,27.67527675276753,NA,33.38870431893688
33154,Miami-Dade County,FL,NA,NA,26.744186046511626
33161,Miami-Dade County,FL,NA,NA,30.398671096345513
33173,Miami-Dade County,FL,NA,NA,13.78737541528239
33175,Miami-Dade County,FL,NA,71.1864406779661,NA
33176,Miami-Dade County,FL,NA,NA,75.41528239202658
33186,Miami-Dade County,FL,NA,NA,58.4717607973422
33308,Broward County,FL,NA,NA,2.990033222591362
33326,Broward County,FL,NA,NA,42.691029900332225
33334,Broward County,FL,NA,NA,64.61794019933555
33404,Palm Beach County,FL,30.627306273062732,NA,71.09634551495017
33407,Palm Beach County,FL,NA,NA,81.89368770764119
33411,Palm Beach County,FL,NA,NA,17.441860465116278
33415,Palm Beach County,FL,36.53136531365313,NA,NA
33458,Palm Beach County,FL,NA,NA,23.089700996677742
33460,Palm Beach County,FL,39.85239852398524,NA,NA
33472,Palm Beach County,FL,NA,NA,53.156146179402
33578,Hillsborough County,FL,NA,55.932203389830505,NA
33604,Hillsborough County,FL,21.033210332103323,NA,NA
33607,Hillsborough County,FL,NA,NA,54.81727574750831
33609,Hillsborough County,FL,NA,55.08474576271186,NA
33610,Hillsborough County,FL,13.284132841328415,NA,43.02325581395349
33629,Hillsborough County,FL,NA,75.14124293785311,NA
33764,Pinellas County,FL,NA,73.1638418079096,56.31229235880399
33771,Pinellas County,FL,NA,33.89830508474576,NA
33776,Pinellas County,FL,NA,NA,96.17940199335548
33778,Pinellas County,FL,NA,NA,69.93355481727575
33809,Polk County,FL,NA,50.56497175141242,NA
33811,Polk County,FL,NA,66.66666666666666,NA
33903,Lee County,FL,57.93357933579336,32.48587570621469,NA
33916,Lee County,FL,NA,64.97175141242938,NA
33952,Charlotte County,FL,79.70479704797047,NA,NA
34209,Manatee County,FL,NA,55.6497175141243,NA
34224,Charlotte County,FL,NA,NA,33.72093023255814
34239,Sarasota County,FL,NA,68.07909604519774,NA
34243,Manatee County,FL,NA,NA,65.61461794019934
34471,Marion County,FL,NA,NA,41.69435215946844
34653,Pasco County,FL,NA,NA,11.129568106312291
34655,Pasco County,FL,NA,24.576271186440678,NA
34669,Pasco County,FL,NA,88.13559322033898,NA
34758,Osceola County,FL,77.49077490774908,NA,NA
34787,Orange County,FL,NA,20.33898305084746,NA
34972,Okeechobee County,FL,NA,NA,61.96013289036545
34996,Martin County,FL,NA,NA,22.591362126245848
34997,Martin County,FL,NA,37.005649717514125,NA
30012,Rockdale County,GA,NA,50.282485875706215,63.12292358803987
30032,DeKalb County,GA,NA,NA,18.77076411960133
30043,Gwinnett County,GA,NA,NA,74.25249169435216
30047,Gwinnett County,GA,NA,25.141242937853107,35.38205980066445
30052,Walton County,GA,NA,NA,86.87707641196013
30060,Cobb County,GA,NA,62.994350282485875,NA
30062,Cobb County,GA,36.90036900369004,NA,NA
30106,Cobb County,GA,NA,NA,90.03322259136213
30113,Haralson County,GA,NA,92.93785310734464,NA
30117,Carroll County,GA,NA,NA,92.69102990033223
30120,Bartow County,GA,16.605166051660518,NA,NA
30126,Cobb County,GA,NA,NA,98.17275747508306
30127,Cobb County,GA,NA,NA,21.760797342192692
30135,Douglas County,GA,38.00738007380074,NA,NA
30187,Douglas County,GA,72.32472324723247,NA,NA
30215,Fayette County,GA,NA,NA,37.37541528239203
30317,DeKalb County,GA,NA,NA,84.0531561461794
30338,DeKalb County,GA,68.26568265682657,NA,NA
30360,DeKalb County,GA,90.40590405904058,NA,NA
30401,Emanuel County,GA,NA,60.73446327683616,NA
30458,Bulloch County,GA,28.413284132841326,NA,NA
30504,Hall County,GA,NA,NA,77.0764119601329
30512,Union County,GA,NA,47.740112994350284,NA
30655,Walton County,GA,NA,90.3954802259887,NA
31047,Houston County,GA,NA,NA,85.88039867109634
31069,Houston County,GA,NA,72.03389830508475,NA
31082,Washington County,GA,NA,66.38418079096046,NA
31092,Dooly County,GA,NA,NA,92.02657807308971
31404,Chatham County,GA,NA,NA,96.843853820598
31537,Charlton County,GA,NA,NA,90.19933554817275
31707,Dougherty County,GA,NA,NA,43.521594684385384
31907,Muscogee County,GA,94.8339483394834,NA,2.1594684385382057
31909,Muscogee County,GA,33.210332103321036,NA,NA
96782,Honolulu County,HI,NA,NA,8.13953488372093
83201,Bannock County,ID,20.29520295202952,NA,NA
83204,Bannock County,ID,NA,57.6271186440678,NA
83544,Clearwater County,ID,NA,NA,61.29568106312292
83634,Ada County,ID,67.15867158671587,NA,NA
83672,Washington County,ID,NA,72.31638418079096,NA
83713,Ada County,ID,NA,NA,11.794019933554816
83714,Ada County,ID,NA,NA,9.800664451827243
83864,Bonner County,ID,NA,76.27118644067797,NA
60004,Cook County,IL,NA,NA,7.142857142857142
60005,Cook County,IL,86.71586715867159,NA,NA
60031,Lake County,IL,NA,20.903954802259886,NA
60062,Cook County,IL,NA,NA,0
60067,Cook County,IL,NA,53.38983050847458,NA
60074,Cook County,IL,NA,36.72316384180791,NA
60087,Lake County,IL,NA,NA,54.15282392026578
60090,Cook County,IL,77.85977859778598,NA,NA
60126,DuPage County,IL,NA,2.824858757062147,NA
60142,McHenry County,IL,NA,NA,13.621262458471762
60171,Cook County,IL,NA,NA,77.74086378737542
60172,DuPage County,IL,NA,NA,52.32558139534884
60177,Kane County,IL,NA,NA,51.993355481727576
60404,Will County,IL,NA,NA,48.671096345514954
60411,Cook County,IL,NA,9.6045197740113,NA
60426,Cook County,IL,NA,NA,46.84385382059801
60431,Will County,IL,NA,68.92655367231639,NA
60438,Cook County,IL,38.37638376383764,37.85310734463277,NA
60462,Cook County,IL,NA,3.954802259887006,NA
60477,Cook County,IL,NA,NA,8.305647840531561
60538,Kendall County,IL,NA,NA,60.29900332225914
60543,Kendall County,IL,NA,44.91525423728814,NA
60559,DuPage County,IL,88.92988929889299,NA,NA
60607,Cook County,IL,NA,NA,68.77076411960132
60612,Cook County,IL,43.91143911439114,NA,NA
60614,Cook County,IL,19.557195571955717,NA,NA
60615,Cook County,IL,NA,NA,14.61794019933555
60616,Cook County,IL,NA,9.03954802259887,NA
60620,Cook County,IL,NA,3.1073446327683616,NA
60621,Cook County,IL,NA,NA,33.38870431893688
60622,Cook County,IL,NA,NA,39.3687707641196
60625,Cook County,IL,30.996309963099634,NA,NA
60628,Cook County,IL,NA,3.672316384180791,NA
60637,Cook County,IL,NA,NA,53.48837209302325
60638,Cook County,IL,NA,NA,4.318936877076411
60640,Cook County,IL,NA,6.497175141242938,NA
60641,Cook County,IL,36.162361623616235,NA,NA
60643,Cook County,IL,8.487084870848708,NA,NA
60644,Cook County,IL,7.011070110701106,NA,NA
60652,Cook County,IL,NA,NA,41.69435215946844
60660,Cook County,IL,NA,NA,29.401993355481725
60714,Cook County,IL,NA,NA,7.973421926910299
61036,Jo Daviess County,IL,NA,NA,71.92691029900332
61071,Whiteside County,IL,22.509225092250922,NA,90.86378737541528
61102,Winnebago County,IL,NA,NA,67.44186046511628
61554,Tazewell County,IL,NA,10.451977401129943,6.976744186046512
61832,Vermilion County,IL,NA,NA,6.4784053156146175
62012,Macoupin County,IL,NA,NA,60.46511627906976
62221,St. Clair County,IL,NA,42.65536723163842,NA
62471,Fayette County,IL,NA,NA,96.51162790697676
62521,Macon County,IL,NA,7.344632768361582,NA
62522,Macon County,IL,78.59778597785979,NA,NA
62812,Franklin County,IL,NA,NA,27.740863787375414
62859,Hamilton County,IL,96.6789667896679,NA,81.06312292358804
62901,Jackson County,IL,NA,NA,99.5016611295681
46012,Madison County,IN,66.05166051660517,NA,NA
46033,Hamilton County,IN,NA,NA,70.265780730897
46135,Putnam County,IN,NA,NA,30.564784053156146
46205,Marion County,IN,NA,55.367231638418076,NA
46208,Marion County,IN,29.88929889298893,NA,NA
46222,Marion County,IN,NA,NA,53.32225913621262
46227,Marion County,IN,NA,NA,3.322259136212625
46241,Marion County,IN,NA,36.15819209039548,NA
46307,Lake County,IN,12.177121771217712,NA,NA
46310,Jasper County,IN,NA,NA,91.0299003322259
46324,Lake County,IN,NA,NA,42.0265780730897
46356,Lake County,IN,NA,34.463276836158194,NA
46368,Porter County,IN,NA,1.694915254237288,NA
46375,Lake County,IN,NA,NA,18.93687707641196
46385,Porter County,IN,NA,NA,17.275747508305646
46517,Elkhart County,IN,NA,64.68926553672316,NA
46563,Marshall County,IN,NA,NA,15.11627906976744
46703,Steuben County,IN,NA,NA,29.73421926910299
46783,Huntington County,IN,NA,NA,89.3687707641196
46802,Allen County,IN,76.01476014760148,NA,NA
46901,Howard County,IN,NA,24.293785310734464,NA
46952,Grant County,IN,62.36162361623616,NA,NA
47203,Bartholomew County,IN,30.25830258302583,NA,NA
47371,Jay County,IN,NA,32.7683615819209,NA
47586,Perry County,IN,NA,NA,62.7906976744186
47906,Tippecanoe County,IN,NA,28.24858757062147,NA
50315,Polk County,IA,8.118081180811808,NA,NA
50322,Polk County,IA,NA,NA,52.159468438538205
50401,Cerro Gordo County,IA,NA,NA,39.03654485049834
50501,Webster County,IA,NA,NA,22.92358803986711
50588,Buena Vista County,IA,34.686346863468636,NA,NA
50701,Black Hawk County,IA,83.76383763837639,NA,NA
51106,Woodbury County,IA,NA,46.89265536723164,NA
52632,Lee County,IA,NA,NA,61.12956810631229
52641,Henry County,IA,NA,NA,47.674418604651166
52732,Clinton County,IA,NA,27.966101694915253,NA
52761,Muscatine County,IA,NA,11.864406779661017,NA
66046,Douglas County,KS,NA,78.8135593220339,NA
66061,Johnson County,KS,15.867158671586715,NA,NA
66102,Wyandotte County,KS,NA,NA,52.65780730897009
66223,Johnson County,KS,NA,NA,97.34219269102991
67206,Sedgwick County,KS,NA,81.92090395480226,NA
67211,Sedgwick County,KS,NA,NA,89.03654485049833
67357,Labette County,KS,41.32841328413284,NA,95.01661129568106
67502,Reno County,KS,NA,56.21468926553672,NA
40215,Jefferson County,KY,15.129151291512915,NA,NA
40222,Jefferson County,KY,NA,96.61016949152543,NA
40229,Jefferson County,KY,NA,NA,54.48504983388705
40353,Montgomery County,KY,48.33948339483395,NA,NA
40391,Clark County,KY,7.380073800738007,NA,NA
40503,Fayette County,KY,NA,NA,25.41528239202658
40741,Laurel County,KY,49.44649446494465,NA,NA
41030,Grant County,KY,NA,95.48022598870057,NA
41042,Boone County,KY,NA,NA,2.823920265780731
41653,Floyd County,KY,NA,NA,30.23255813953488
42001,McCracken County,KY,24.723247232472325,NA,NA
42101,Warren County,KY,5.904059040590406,NA,NA
42134,Simpson County,KY,NA,65.2542372881356,NA
42164,Allen County,KY,NA,NA,94.01993355481729
42211,Trigg County,KY,NA,NA,48.50498338870432
42256,Logan County,KY,93.72693726937268,NA,NA
42301,Daviess County,KY,NA,NA,12.29235880398671
42376,Daviess County,KY,NA,NA,80.23255813953489
42431,Hopkins County,KY,NA,NA,26.079734219269103
70003,Jefferson Parish,LA,NA,NA,1.9933554817275747
70047,St. Charles Parish,LA,NA,63.84180790960452,NA
70062,Jefferson Parish,LA,NA,90.96045197740112,NA
70065,Jefferson Parish,LA,NA,NA,39.202657807308974
70084,St. John the Baptist Parish,LA,NA,NA,81.22923588039868
70121,Jefferson Parish,LA,42.066420664206646,NA,NA
70127,Orleans Parish,LA,NA,61.29943502824858,NA
70346,Ascension Parish,LA,71.58671586715867,NA,NA
70438,Washington Parish,LA,NA,13.559322033898304,NA
70443,Tangipahoa Parish,LA,NA,NA,53.820598006644516
70458,St. Tammany Parish,LA,NA,43.50282485875706,NA
70471,St. Tammany Parish,LA,NA,NA,66.27906976744185
70506,Lafayette Parish,LA,NA,NA,20.26578073089701
70510,Vermilion Parish,LA,NA,NA,38.87043189368771
70517,St. Martin Parish,LA,NA,NA,32.22591362126246
70583,Lafayette Parish,LA,NA,NA,96.01328903654485
70605,Calcasieu Parish,LA,NA,89.54802259887006,NA
70611,Calcasieu Parish,LA,NA,NA,90.69767441860465
70711,Livingston Parish,LA,NA,NA,80.23255813953489
70807,East Baton Rouge Parish,LA,94.4649446494465,NA,NA
71082,Caddo Parish,LA,88.56088560885608,NA,NA
71109,Caddo Parish,LA,NA,NA,30.564784053156146
71129,Caddo Parish,LA,NA,NA,49.667774086378735
71201,Ouachita Parish,LA,29.15129151291513,NA,NA
71220,Morehouse Parish,LA,NA,42.090395480225986,43.85382059800664
71263,West Carroll Parish,LA,NA,NA,49.33554817275748
71301,Rapides Parish,LA,25.830258302583026,NA,NA
71303,Rapides Parish,LA,NA,NA,49.00332225913621
71322,Avoyelles Parish,LA,NA,NA,74.4186046511628
71351,Avoyelles Parish,LA,NA,NA,64.95016611295681
71483,Winn Parish,LA,32.84132841328413,NA,NA
04037,Oxford County,ME,98.1549815498155,NA,NA
04103,Cumberland County,ME,19.18819188191882,NA,NA
04105,Cumberland County,ME,NA,NA,86.04651162790698
04401,Penobscot County,ME,2.214022140221402,NA,NA
04605,Hancock County,ME,69.74169741697416,22.316384180790962,NA
04736,Aroostook County,ME,NA,NA,23.920265780730897
20706,Prince George's County,MD,50.92250922509225,NA,NA
20715,Prince George's County,MD,NA,NA,66.94352159468438
20720,Prince George's County,MD,NA,NA,99.66777408637874
20746,Prince George's County,MD,NA,62.71186440677966,NA
20784,Prince George's County,MD,NA,69.49152542372882,NA
20785,Prince George's County,MD,NA,NA,97.67441860465115
20817,Montgomery County,MD,NA,NA,58.63787375415283
20871,Montgomery County,MD,NA,87.57062146892656,NA
21060,Anne Arundel County,MD,56.82656826568265,NA,NA
21061,Anne Arundel County,MD,NA,NA,17.774086378737543
21090,Anne Arundel County,MD,NA,74.01129943502825,NA
21205,Baltimore city,MD,NA,NA,46.013289036544855
21228,Baltimore County,MD,44.64944649446495,NA,NA
21230,Baltimore city,MD,NA,NA,63.78737541528239
21231,Baltimore city,MD,NA,NA,71.09634551495017
21236,Baltimore County,MD,NA,NA,57.9734219269103
21502,Allegany County,MD,NA,NA,5.3156146179401995
21613,Dorchester County,MD,NA,NA,54.31893687707641
21701,Frederick County,MD,NA,NA,34.21926910299003
01013,Hampden County,MA,NA,NA,50
01027,Hampshire County,MA,NA,83.33333333333334,NA
01040,Hampden County,MA,0.7380073800738007,NA,NA
01201,Berkshire County,MA,0,NA,NA
01420,Worcester County,MA,NA,NA,4.817275747508306
01532,Worcester County,MA,40.59040590405904,NA,NA
01801,Middlesex County,MA,NA,0.5649717514124294,NA
01803,Middlesex County,MA,45.75645756457565,NA,NA
01832,Essex County,MA,NA,NA,88.20598006644518
01841,Essex County,MA,NA,NA,37.2093023255814
01887,Middlesex County,MA,NA,NA,18.6046511627907
01902,Essex County,MA,NA,NA,0.8305647840531563
02050,Plymouth County,MA,NA,NA,60.96345514950167
02124,Suffolk County,MA,NA,2.2598870056497176,NA
02135,Suffolk County,MA,46.86346863468634,NA,NA
02141,Middlesex County,MA,NA,24.01129943502825,NA
02144,Middlesex County,MA,NA,NA,14.119601328903656
02152,Suffolk County,MA,NA,6.779661016949152,NA
02176,Middlesex County,MA,NA,NA,9.966777408637874
02333,Plymouth County,MA,NA,84.18079096045197,NA
02346,Plymouth County,MA,NA,NA,25.74750830564784
02375,Bristol County,MA,NA,NA,67.27574750830566
02478,Middlesex County,MA,NA,22.88135593220339,NA
02639,Barnstable County,MA,NA,77.40112994350282,NA
02743,Bristol County,MA,NA,NA,99.33554817275747
02766,Bristol County,MA,NA,NA,96.67774086378738
48034,Oakland County,MI,NA,NA,69.43521594684385
48054,St. Clair County,MI,NA,NA,85.04983388704319
48080,Macomb County,MI,NA,NA,20.09966777408638
48088,Macomb County,MI,38.74538745387454,NA,NA
48089,Macomb County,MI,6.642066420664207,NA,NA
48126,Wayne County,MI,NA,NA,11.295681063122924
48154,Wayne County,MI,NA,5.932203389830509,NA
48173,Wayne County,MI,NA,NA,55.98006644518272
48183,Wayne County,MI,8.856088560885608,NA,NA
48198,Washtenaw County,MI,2.5830258302583027,NA,NA
48202,Wayne County,MI,NA,40.3954802259887,NA
48203,Wayne County,MI,NA,NA,31.893687707641195
48210,Wayne County,MI,NA,NA,67.77408637873754
48215,Wayne County,MI,NA,NA,69.76744186046511
48219,Wayne County,MI,NA,18.926553672316384,NA
48225,Wayne County,MI,NA,NA,88.37209302325581
48228,Wayne County,MI,11.07011070110701,NA,NA
48238,Wayne County,MI,NA,15.53672316384181,26.744186046511626
48312,Macomb County,MI,NA,NA,30.89700996677741
48323,Oakland County,MI,NA,42.3728813559322,NA
48381,Oakland County,MI,NA,NA,76.578073089701
48415,Saginaw County,MI,40.959409594095945,NA,NA
48442,Oakland County,MI,NA,47.175141242937855,NA
48446,Lapeer County,MI,NA,22.598870056497177,NA
48455,Lapeer County,MI,81.18081180811808,NA,NA
48505,Genesee County,MI,NA,88.98305084745762,NA
48642,Midland County,MI,NA,6.214689265536723,NA
48854,Ingham County,MI,42.435424354243544,NA,NA
48867,Shiawassee County,MI,NA,5.367231638418079,NA
48912,Ingham County,MI,45.38745387453875,NA,NA
49015,Calhoun County,MI,NA,NA,75.74750830564784
49073,Barry County,MI,76.38376383763837,NA,NA
49319,Kent County,MI,NA,NA,85.54817275747509
49331,Kent County,MI,NA,41.80790960451977,NA
49420,Oceana County,MI,NA,79.94350282485875,NA
49428,Ottawa County,MI,NA,NA,11.627906976744185
49441,Muskegon County,MI,NA,NA,1.3289036544850499
49504,Kent County,MI,NA,12.711864406779661,NA
55024,Dakota County,MN,43.17343173431734,NA,NA
55066,Goodhue County,MN,NA,17.51412429378531,NA
55109,Ramsey County,MN,39.11439114391143,NA,NA
55112,Ramsey County,MN,33.94833948339483,NA,NA
55318,Carver County,MN,NA,59.887005649717516,NA
55328,Wright County,MN,NA,NA,99.83388704318938
55345,Hennepin County,MN,NA,67.79661016949152,NA
55391,Hennepin County,MN,NA,NA,63.45514950166113
55413,Hennepin County,MN,NA,44.632768361581924,NA
55421,Anoka County,MN,17.712177121771216,NA,NA
55432,Anoka County,MN,92.619926199262,NA,NA
55437,Hennepin County,MN,NA,NA,49.16943521594684
55811,St. Louis County,MN,58.671586715867164,NA,1.1627906976744187
56267,Stevens County,MN,NA,52.259887005649716,NA
56304,Sherburne County,MN,NA,NA,73.75415282392026
56701,Pennington County,MN,NA,23.163841807909606,NA
38614,Coahoma County,MS,NA,NA,87.04318936877077
38701,Washington County,MS,NA,NA,92.35880398671097
38930,Leflore County,MS,NA,NA,24.58471760797342
38965,Yalobusha County,MS,NA,90.67796610169492,NA
39046,Madison County,MS,56.08856088560885,NA,NA
39051,Leake County,MS,NA,83.05084745762711,NA
39212,Hinds County,MS,NA,59.03954802259888,NA
39422,Jasper County,MS,NA,96.045197740113,NA
39428,Covington County,MS,72.69372693726937,NA,NA
39452,George County,MS,22.878228782287824,NA,NA
39501,Harrison County,MS,NA,NA,22.093023255813954
39503,Harrison County,MS,9.59409594095941,NA,NA
39577,Stone County,MS,NA,82.20338983050848,NA
39601,Lincoln County,MS,NA,NA,32.89036544850498
39629,Lincoln County,MS,NA,98.30508474576271,NA
39648,Pike County,MS,45.018450184501845,NA,NA
39652,Pike County,MS,67.52767527675276,NA,NA
39702,Lowndes County,MS,NA,48.58757062146893,NA
63021,St. Louis County,MO,91.5129151291513,NA,NA
63026,St. Louis County,MO,NA,42.93785310734463,NA
63031,St. Louis County,MO,NA,NA,5.48172757475083
63080,Franklin County,MO,NA,NA,43.68770764119601
63105,St. Louis County,MO,NA,76.55367231638418,NA
63109,St. Louis city,MO,NA,NA,50.332225913621265
63118,St. Louis city,MO,NA,41.52542372881356,NA
63121,St. Louis County,MO,NA,NA,42.524916943521596
63128,St. Louis County,MO,NA,NA,63.62126245847176
63135,St. Louis County,MO,NA,31.35593220338983,58.80398671096345
63147,St. Louis city,MO,52.398523985239855,NA,NA
63390,Warren County,MO,NA,NA,62.62458471760798
64014,Jackson County,MO,NA,33.05084745762712,NA
64050,Jackson County,MO,NA,NA,72.75747508305648
64130,Jackson County,MO,NA,NA,64.95016611295681
64151,Platte County,MO,NA,NA,94.35215946843853
64468,Nodaway County,MO,NA,80.22598870056498,NA
64485,Andrew County,MO,NA,57.909604519774014,NA
64831,McDonald County,MO,NA,86.4406779661017,NA
65202,Boone County,MO,NA,21.468926553672315,NA
65233,Cooper County,MO,NA,NA,68.27242524916943
65536,Laclede County,MO,NA,65.81920903954803,NA
65560,Dent County,MO,50.184501845018445,NA,NA
65708,Barry County,MO,63.09963099630996,NA,NA
65746,Webster County,MO,98.8929889298893,NA,NA
59101,Yellowstone County,MT,95.9409594095941,NA,NA
59601,Lewis and Clark County,MT,NA,78.24858757062147,NA
59602,Lewis and Clark County,MT,NA,NA,28.57142857142857
68104,Douglas County,NE,NA,35.31073446327684,NA
68116,Douglas County,NE,NA,NA,65.9468438538206
68122,Douglas County,NE,NA,85.87570621468926,NA
68506,Lancaster County,NE,NA,NA,33.056478405315616
68510,Lancaster County,NE,73.43173431734317,NA,NA
68521,Lancaster County,NE,57.564575645756456,NA,NA
68803,Hall County,NE,64.57564575645756,NA,48.33887043189369
89108,Clark County,NV,NA,39.83050847457627,NA
89109,Clark County,NV,99.2619926199262,NA,NA
89115,Clark County,NV,NA,87.00564971751412,NA
89118,Clark County,NV,NA,NA,82.39202657807309
89122,Clark County,NV,NA,46.61016949152542,NA
89139,Clark County,NV,NA,73.72881355932203,NA
89403,Lyon County,NV,79.33579335793358,NA,NA
89410,Douglas County,NV,NA,62.42937853107344,NA
03062,Hillsborough County,NH,NA,NA,75.91362126245848
03867,Strafford County,NH,19.92619926199262,NA,44.01993355481728
07010,Bergen County,NJ,NA,NA,97.00996677740864
07017,Essex County,NJ,NA,NA,12.624584717607974
07036,Union County,NJ,NA,NA,26.411960132890368
07041,Essex County,NJ,NA,98.0225988700565,NA
07052,Essex County,NJ,70.47970479704797,NA,NA
07055,Passaic County,NJ,NA,NA,23.754152823920265
07090,Union County,NJ,NA,NA,71.59468438538205
07103,Essex County,NJ,NA,NA,44.85049833887043
07106,Essex County,NJ,5.166051660516605,NA,NA
07202,Union County,NJ,NA,7.909604519774012,NA
07205,Union County,NJ,77.12177121771218,NA,NA
07208,Union County,NJ,NA,21.1864406779661,NA
07307,Hudson County,NJ,NA,NA,27.408637873754156
07401,Bergen County,NJ,NA,NA,96.3455149501661
07458,Bergen County,NJ,NA,NA,81.56146179401993
07607,Bergen County,NJ,NA,74.29378531073446,NA
07621,Bergen County,NJ,NA,NA,90.53156146179401
07652,Bergen County,NJ,NA,NA,8.471760797342192
07661,Bergen County,NJ,NA,85.31073446327684,NA
07727,Monmouth County,NJ,NA,80.50847457627118,NA
07728,Monmouth County,NJ,NA,NA,2.6578073089700998
07747,Monmouth County,NJ,NA,38.983050847457626,NA
07748,Monmouth County,NJ,NA,NA,57.14285714285714
07753,Monmouth County,NJ,NA,NA,7.807308970099667
08012,Camden County,NJ,NA,NA,34.71760797342193
08016,Burlington County,NJ,NA,23.44632768361582,NA
08091,Camden County,NJ,NA,99.43502824858757,NA
08094,Gloucester County,NJ,NA,10.16949152542373,NA
08096,Gloucester County,NJ,4.428044280442804,NA,NA
08205,Atlantic County,NJ,NA,NA,66.44518272425249
08401,Atlantic County,NJ,NA,NA,16.44518272425249
08609,Mercer County,NJ,10.33210332103321,NA,72.42524916943522
08618,Mercer County,NJ,NA,5.649717514124294,NA
08638,Mercer County,NJ,11.439114391143912,NA,NA
08758,Ocean County,NJ,NA,NA,61.627906976744185
08857,Middlesex County,NJ,NA,NA,17.109634551495017
08861,Middlesex County,NJ,NA,NA,15.614617940199334
08865,Warren County,NJ,NA,9.322033898305085,NA
08873,Somerset County,NJ,59.40959409594095,NA,NA
87002,Valencia County,NM,42.80442804428044,NA,NA
87110,Bernalillo County,NM,NA,8.757062146892656,NA
87112,Bernalillo County,NM,12.546125461254611,NA,NA
87114,Bernalillo County,NM,NA,NA,82.890365448505
88001,Doa Ana County,NM,NA,28.53107344632768,NA
10001,New York County,NY,NA,NA,75.08305647840533
10011,New York County,NY,NA,NA,10.465116279069768
10019,New York County,NY,NA,56.779661016949156,NA
10036,New York County,NY,NA,NA,49.33554817275748
10303,Richmond County,NY,NA,43.78531073446328,NA
10306,Richmond County,NY,15.498154981549817,NA,NA
10456,Bronx County,NY,NA,0,NA
10462,Bronx County,NY,NA,NA,5.647840531561462
10463,Bronx County,NY,NA,NA,16.11295681063123
10467,Bronx County,NY,NA,NA,11.461794019933555
10471,Bronx County,NY,NA,NA,32.55813953488372
10553,Westchester County,NY,85.97785977859779,NA,NA
10573,Westchester County,NY,NA,NA,62.292358803986716
10709,Westchester County,NY,NA,NA,83.88704318936877
10952,Rockland County,NY,NA,NA,58.30564784053156
10954,Rockland County,NY,NA,76.8361581920904,NA
11101,Queens County,NY,NA,61.5819209039548,NA
11105,Queens County,NY,NA,NA,46.34551495016611
11201,Kings County,NY,16.974169741697416,19.491525423728813,NA
11203,Kings County,NY,NA,4.23728813559322,NA
11206,Kings County,NY,2.952029520295203,NA,NA
11208,Kings County,NY,NA,NA,13.455149501661129
11209,Kings County,NY,NA,NA,9.634551495016613
11214,Kings County,NY,NA,NA,5.813953488372093
11215,Kings County,NY,NA,NA,47.50830564784053
11216,Kings County,NY,NA,36.440677966101696,NA
11218,Kings County,NY,NA,NA,5.149501661129568
11220,Kings County,NY,NA,NA,10.79734219269103
11224,Kings County,NY,NA,29.943502824858758,0.4983388704318937
11229,Kings County,NY,NA,NA,16.611295681063122
11233,Kings County,NY,NA,0.847457627118644,NA
11234,Kings County,NY,NA,NA,12.458471760797343
11236,Kings County,NY,NA,NA,64.11960132890366
11237,Kings County,NY,93.35793357933579,NA,NA
11238,Kings County,NY,NA,NA,31.561461794019934
11354,Queens County,NY,NA,33.33333333333333,72.59136212624585
11360,Queens County,NY,NA,NA,39.70099667774086
11361,Queens County,NY,NA,NA,63.2890365448505
11362,Queens County,NY,NA,NA,32.05980066445183
11366,Queens County,NY,NA,NA,62.7906976744186
11375,Queens County,NY,NA,30.508474576271187,50
11377,Queens County,NY,14.391143911439114,NA,NA
11415,Queens County,NY,NA,66.10169491525424,NA
11420,Queens County,NY,NA,35.59322033898305,NA
11422,Queens County,NY,NA,NA,59.46843853820598
11435,Queens County,NY,10.70110701107011,15.254237288135593,NA
11516,Nassau County,NY,NA,98.87005649717514,NA
11561,Nassau County,NY,NA,NA,53.65448504983389
11714,Nassau County,NY,NA,NA,76.91029900332225
11717,Suffolk County,NY,NA,NA,23.25581395348837
11742,Suffolk County,NY,NA,92.37288135593221,NA
11753,Nassau County,NY,NA,NA,82.55813953488372
11772,Suffolk County,NY,NA,NA,34.053156146179404
11779,Suffolk County,NY,NA,NA,66.77740863787376
12037,Columbia County,NY,NA,84.7457627118644,NA
12077,Albany County,NY,96.30996309963099,NA,NA
12189,Albany County,NY,NA,NA,51.328903654485046
12206,Albany County,NY,64.94464944649447,NA,NA
12210,Albany County,NY,53.13653136531366,NA,NA
12401,Ulster County,NY,17.343173431734318,NA,NA
12538,Dutchess County,NY,NA,NA,47.176079734219265
12801,Warren County,NY,NA,NA,64.61794019933555
12946,Essex County,NY,NA,98.58757062146893,NA
12953,Franklin County,NY,NA,NA,54.48504983388705
13021,Cayuga County,NY,NA,NA,13.2890365448505
13045,Cortland County,NY,NA,NA,67.77408637873754
13203,Onondaga County,NY,NA,NA,65.78073089700996
13317,Montgomery County,NY,89.66789667896678,NA,NA
13601,Jefferson County,NY,NA,16.38418079096045,NA
13669,St. Lawrence County,NY,NA,NA,86.54485049833886
14051,Erie County,NY,NA,45.19774011299435,NA
14120,Niagara County,NY,4.059040590405904,NA,NA
14150,Erie County,NY,5.535055350553505,NA,NA
14209,Erie County,NY,NA,NA,85.21594684385381
14489,Wayne County,NY,NA,32.20338983050847,NA
14522,Wayne County,NY,28.044280442804425,NA,NA
14612,Monroe County,NY,NA,14.124293785310735,NA
14621,Monroe County,NY,NA,17.231638418079097,NA
14624,Monroe County,NY,NA,1.977401129943503,NA
14823,Steuben County,NY,76.75276752767527,NA,NA
27025,Rockingham County,NC,NA,NA,46.51162790697674
27103,Forsyth County,NC,59.77859778597786,NA,NA
27106,Forsyth County,NC,NA,NA,8.970099667774086
27107,Forsyth County,NC,32.47232472324723,NA,NA
27215,Alamance County,NC,NA,NA,55.48172757475083
27292,Davidson County,NC,NA,NA,4.485049833887043
27455,Guilford County,NC,41.69741697416974,NA,NA
27501,Harnett County,NC,NA,NA,62.12624584717608
27521,Harnett County,NC,NA,NA,88.03986710963456
27534,Wayne County,NC,28.782287822878228,NA,NA
27536,Vance County,NC,NA,NA,15.946843853820598
27546,Harnett County,NC,55.71955719557196,NA,NA
27565,Granville County,NC,NA,16.666666666666664,NA
27573,Person County,NC,NA,NA,79.2358803986711
27604,Wake County,NC,NA,39.548022598870055,NA
27822,Wilson County,NC,NA,82.7683615819209,NA
27886,Edgecombe County,NC,NA,83.89830508474576,NA
27889,Beaufort County,NC,NA,NA,24.916943521594686
27896,Wilson County,NC,44.28044280442804,NA,NA
27909,Pasquotank County,NC,NA,11.581920903954803,14.784053156146179
27932,Chowan County,NC,NA,70.05649717514125,NA
27970,Washington County,NC,NA,NA,91.5282392026578
28043,Rutherford County,NC,NA,82.485875706214685,NA
28054,Gaston County,NC,NA,NA,92.85714285714286
28092,Lincoln County,NC,NA,12.146892655367232,NA
28105,Mecklenburg County,NC,NA,46.32768361581921,NA
28134,Mecklenburg County,NC,NA,87.28813559322035,NA
28168,Lincoln County,NC,NA,NA,85.71428571428571
28205,Mecklenburg County,NC,NA,26.55367231638418,NA
28211,Mecklenburg County,NC,25.092250922509223,NA,NA
28303,Cumberland County,NC,NA,NA,40.53156146179402
28374,Moore County,NC,91.14391143911439,NA,NA
28377,Robeson County,NC,NA,NA,97.17607973421927
28384,Bladen County,NC,55.35055350553506,NA,NA
28401,New Hanover County,NC,NA,63.2768361581921,NA
28405,New Hanover County,NC,NA,NA,47.00996677740864
28461,Brunswick County,NC,NA,NA,12.790697674418606
28513,Pitt County,NC,NA,70.90395480225989,NA
28557,Carteret County,NC,NA,NA,44.35215946843854
28601,Catawba County,NC,NA,NA,83.55481727574751
28602,Catawba County,NC,47.97047970479705,NA,NA
28650,Catawba County,NC,60.147601476014756,NA,NA
28751,Haywood County,NC,95.20295202952029,NA,NA
28803,Buncombe County,NC,NA,91.80790960451978,NA
58104,Cass County,ND,NA,NA,18.106312292358805
58301,Ramsey County,ND,63.837638376383765,NA,NA
58701,Ward County,ND,NA,38.13559322033898,NA
43040,Union County,OH,NA,17.796610169491526,NA
43055,Licking County,OH,NA,31.63841807909605,NA
43147,Fairfield County,OH,NA,NA,40.033222591362126
43204,Franklin County,OH,NA,12.429378531073446,NA
43207,Franklin County,OH,1.107011070110701,NA,NA
43220,Franklin County,OH,NA,NA,88.53820598006644
43420,Sandusky County,OH,NA,96.32768361581921,NA
43515,Fulton County,OH,NA,NA,79.40199335548172
43607,Lucas County,OH,NA,18.64406779661017,NA
43616,Lucas County,OH,NA,NA,15.448504983388705
43701,Muskingum County,OH,NA,0.2824858757062147,0.16611295681063123
43725,Guernsey County,OH,NA,79.37853107344633,NA
44004,Ashtabula County,OH,NA,NA,0.33222591362126247
44023,Geauga County,OH,95.5719557195572,NA,NA
44024,Geauga County,OH,NA,13.841807909604519,NA
44035,Lorain County,OH,14.022140221402212,NA,NA
44039,Lorain County,OH,NA,2.5423728813559325,NA
44070,Cuyahoga County,OH,NA,NA,3.820598006644518
44074,Lorain County,OH,NA,NA,77.40863787375415
44089,Erie County,OH,NA,NA,7.475083056478406
44094,Lake County,OH,NA,NA,10.132890365448505
44107,Cuyahoga County,OH,1.8450184501845017,NA,NA
44109,Cuyahoga County,OH,NA,NA,24.750830564784053
44110,Cuyahoga County,OH,86.34686346863468,NA,NA
44125,Cuyahoga County,OH,0.36900369003690037,NA,NA
44127,Cuyahoga County,OH,NA,81.07344632768361,NA
44134,Cuyahoga County,OH,6.273062730627306,51.69491525423729,NA
44138,Cuyahoga County,OH,NA,94.91525423728814,NA
44143,Cuyahoga County,OH,NA,NA,0.6644518272425249
44202,Portage County,OH,NA,NA,6.64451827242525
44233,Medina County,OH,NA,90.11299435028248,NA
44254,Medina County,OH,NA,NA,98.00664451827242
44255,Portage County,OH,NA,45.48022598870056,NA
44260,Portage County,OH,NA,NA,47.840531561461795
44405,Mahoning County,OH,NA,84.4632768361582,NA
44413,Columbiana County,OH,NA,NA,91.19601328903654
44420,Trumbull County,OH,NA,NA,84.38538205980066
44485,Trumbull County,OH,NA,NA,29.2358803986711
44505,Mahoning County,OH,NA,NA,28.07308970099668
44646,Stark County,OH,NA,NA,13.953488372093023
44663,Tuscarawas County,OH,NA,16.101694915254235,NA
44714,Stark County,OH,84.50184501845018,NA,NA
44837,Huron County,OH,82.28782287822878,NA,NA
44905,Richland County,OH,NA,NA,56.810631229235874
44906,Richland County,OH,90.7749077490775,NA,NA
44907,Richland County,OH,NA,31.07344632768362,NA
45011,Butler County,OH,NA,NA,8.637873754152823
45013,Butler County,OH,NA,NA,3.488372093023256
45044,Butler County,OH,NA,NA,14.285714285714285
45216,Hamilton County,OH,NA,60.451977401129945,NA
45241,Hamilton County,OH,NA,NA,83.38870431893687
45385,Greene County,OH,NA,NA,6.810631229235881
45409,Montgomery County,OH,88.19188191881919,NA,NA
45426,Montgomery County,OH,NA,NA,45.84717607973422
45432,Greene County,OH,NA,NA,56.644518272425245
45505,Clark County,OH,25.461254612546124,53.954802259887,NA
45631,Gallia County,OH,9.96309963099631,NA,NA
45640,Jackson County,OH,23.985239852398525,4.80225988700565,NA
45680,Lawrence County,OH,87.08487084870849,NA,NA
45750,Washington County,OH,1.4760147601476015,NA,NA
45875,Putnam County,OH,NA,NA,90.36544850498339
45880,Paulding County,OH,NA,100,NA
45895,Auglaize County,OH,NA,NA,31.727574750830566
73080,McClain County,OK,74.16974169741697,NA,NA
73096,Custer County,OK,NA,92.09039548022598,NA
73119,Oklahoma County,OK,NA,39.26553672316384,NA
73150,Oklahoma County,OK,NA,95.19774011299435,NA
73401,Carter County,OK,NA,NA,17.940199335548172
73507,Comanche County,OK,NA,30.7909604519774,NA
74020,Pawnee County,OK,82.65682656826569,NA,NA
74112,Tulsa County,OK,47.23247232472325,NA,NA
74145,Tulsa County,OK,NA,NA,52.49169435215947
74464,Cherokee County,OK,NA,16.94915254237288,34.55149501661129
74955,Sequoyah County,OK,52.767527675276746,NA,NA
74960,Adair County,OK,NA,NA,83.05647840531562
74965,Adair County,OK,NA,90.96045197740112,NA
97030,Multnomah County,OR,NA,NA,15.780730897009967
97128,Yamhill County,OR,NA,NA,19.93355481727575
97132,Yamhill County,OR,NA,NA,25.91362126245847
97230,Multnomah County,OR,83.02583025830258,NA,NA
97381,Marion County,OR,NA,NA,76.0797342192691
97402,Lane County,OR,16.236162361623617,NA,NA
97424,Lane County,OR,37.63837638376384,NA,NA
97465,Curry County,OR,NA,86.15819209039547,NA
97477,Lane County,OR,NA,77.11864406779661,NA
97838,Umatilla County,OR,NA,NA,37.04318936877076
15001,Beaver County,PA,NA,NA,16.77740863787375
15009,Beaver County,PA,NA,NA,27.57475083056478
15136,Allegheny County,PA,73.06273062730627,NA,NA
15137,Allegheny County,PA,81.54981549815497,NA,NA
15208,Allegheny County,PA,NA,NA,55.14950166112956
15213,Allegheny County,PA,NA,NA,28.737541528239202
15227,Allegheny County,PA,NA,NA,23.588039867109632
15235,Allegheny County,PA,NA,NA,6.312292358803987
15317,Washington County,PA,NA,8.47457627118644,NA
15501,Somerset County,PA,NA,73.1638418079096,NA
15613,Westmoreland County,PA,NA,74.57627118644068,NA
15851,Jefferson County,PA,NA,54.80225988700565,NA
15904,Cambria County,PA,NA,NA,99.00332225913621
16101,Lawrence County,PA,NA,NA,1.495016611295681
16510,Erie County,PA,32.10332103321033,NA,NA
16602,Blair County,PA,NA,NA,70.59800664451828
16915,Potter County,PA,NA,62.14689265536724,NA
17044,Mifflin County,PA,34.31734317343174,NA,NA
17055,Cumberland County,PA,NA,NA,6.146179401993355
17543,Lancaster County,PA,NA,NA,5.980066445182724
17552,Lancaster County,PA,31.73431734317343,NA,42.857142857142854
17740,Lycoming County,PA,NA,NA,36.21262458471761
17837,Union County,PA,NA,40.11299435028249,NA
18015,Northampton County,PA,7.7490774907749085,NA,NA
18032,Lehigh County,PA,51.66051660516605,NA,NA
18052,Lehigh County,PA,NA,97.17514124293785,16.77740863787375
18109,Lehigh County,PA,NA,72.59887005649718,NA
18324,Pike County,PA,NA,97.74011299435028,NA
18337,Pike County,PA,NA,NA,56.14617940199336
18504,Lackawanna County,PA,NA,NA,57.80730897009967
18508,Lackawanna County,PA,NA,NA,48.837209302325576
18610,Monroe County,PA,75.64575645756457,NA,NA
18644,Luzerne County,PA,NA,92.65536723163842,NA
18701,Luzerne County,PA,NA,NA,100
18705,Luzerne County,PA,NA,NA,24.086378737541526
18706,Luzerne County,PA,NA,NA,64.45182724252491
18974,Bucks County,PA,NA,NA,1.6611295681063125
19020,Bucks County,PA,NA,NA,9.136212624584719
19061,Delaware County,PA,NA,NA,86.71096345514951
19063,Delaware County,PA,NA,10.734463276836157,NA
19072,Montgomery County,PA,NA,NA,58.139534883720934
19086,Delaware County,PA,61.62361623616236,NA,NA
19087,Chester County,PA,NA,NA,31.22923588039867
19111,Philadelphia County,PA,NA,NA,9.30232558139535
19114,Philadelphia County,PA,NA,19.774011299435028,NA
19119,Philadelphia County,PA,51.291512915129154,NA,32.72425249169435
19120,Philadelphia County,PA,NA,NA,73.08970099667775
19123,Philadelphia County,PA,48.708487084870846,NA,NA
19129,Philadelphia County,PA,NA,NA,76.24584717607974
19138,Philadelphia County,PA,35.42435424354243,NA,NA
19139,Philadelphia County,PA,NA,NA,14.950166112956811
19143,Philadelphia County,PA,NA,1.1299435028248588,NA
19148,Philadelphia County,PA,NA,NA,75.24916943521595
19152,Philadelphia County,PA,NA,NA,8.803986710963455
19320,Chester County,PA,NA,11.299435028248588,NA
19365,Chester County,PA,NA,NA,94.18604651162791
19428,Montgomery County,PA,NA,88.70056497175142,NA
19518,Berks County,PA,NA,NA,67.109634551495
19565,Berks County,PA,NA,NA,50.83056478405316
19607,Berks County,PA,23.616236162361623,NA,NA
02816,Kent County,RI,NA,NA,21.92691029900332
02879,Washington County,RI,NA,NA,27.07641196013289
02911,Providence County,RI,NA,NA,59.30232558139535
02920,Providence County,RI,NA,95.76271186440678,NA
29045,Kershaw County,SC,NA,NA,68.93687707641196
29053,Lexington County,SC,NA,NA,98.83720930232558
29067,Lancaster County,SC,NA,NA,85.21594684385381
29223,Richland County,SC,49.815498154981555,25.98870056497175,40.69767441860465
29316,Spartanburg County,SC,NA,NA,36.37873754152824
29379,Union County,SC,74.90774907749078,NA,NA
29403,Charleston County,SC,87.82287822878229,NA,NA
29488,Colleton County,SC,NA,NA,95.34883720930233
29556,Williamsburg County,SC,58.30258302583026,NA,NA
29560,Florence County,SC,71.95571955719558,NA,NA
29575,Horry County,SC,NA,NA,98.67109634551495
29607,Greenville County,SC,NA,NA,19.269102990033225
29620,Abbeville County,SC,97.41697416974169,NA,NA
29625,Anderson County,SC,NA,NA,42.19269102990033
29646,Greenwood County,SC,NA,44.35028248587571,NA
29654,Anderson County,SC,NA,NA,87.37541528239203
29715,York County,SC,NA,NA,59.136212624584715
57006,Brookings County,SD,NA,NA,80.06644518272425
37066,Sumner County,TN,NA,8.192090395480225,NA
37075,Sumner County,TN,NA,5.084745762711865,NA
37091,Marshall County,TN,NA,48.87005649717514,NA
37098,Hickman County,TN,NA,NA,93.35548172757476
37110,Warren County,TN,NA,23.728813559322035,NA
37150,Macon County,TN,NA,99.71751412429379,NA
37203,Davidson County,TN,NA,63.84180790960452,NA
37208,Davidson County,TN,NA,58.47457627118644,95.1827242524917
37209,Davidson County,TN,NA,79.66101694915254,NA
37211,Davidson County,TN,NA,18.07909604519774,15.282392026578073
37327,Sequatchie County,TN,NA,NA,78.7375415282392
37347,Marion County,TN,NA,NA,87.70764119601328
37388,Coffee County,TN,NA,41.24293785310734,NA
37398,Franklin County,TN,NA,NA,73.25581395348837
37405,Hamilton County,TN,NA,NA,79.06976744186046
37620,Sullivan County,TN,NA,NA,12.956810631229235
37660,Sullivan County,TN,NA,7.627118644067797,NA
37683,Johnson County,TN,94.0959409594096,NA,NA
37705,Anderson County,TN,NA,NA,84.71760797342192
37721,Knox County,TN,NA,77.68361581920904,NA
37803,Blount County,TN,27.30627306273063,NA,NA
37814,Hamblen County,TN,NA,25.423728813559322,NA
37830,Anderson County,TN,21.40221402214022,NA,NA
37841,Scott County,TN,NA,NA,81.3953488372093
37849,Knox County,TN,NA,NA,72.9235880398671
37912,Knox County,TN,24.354243542435423,NA,NA
38019,Tipton County,TN,87.4538745387454,NA,NA
38024,Dyer County,TN,NA,NA,44.18604651162791
38109,Shelby County,TN,NA,14.971751412429379,NA
38301,Madison County,TN,NA,NA,87.54152823920266
38305,Madison County,TN,NA,9.887005649717514,NA
38310,McNairy County,TN,NA,NA,78.23920265780731
38556,Fentress County,TN,NA,NA,80.89700996677742
75022,Denton County,TX,NA,NA,79.90033222591362
75023,Collin County,TX,NA,NA,50.498338870431894
75032,Rockwall County,TX,54.981549815498155,NA,NA
75052,Dallas County,TX,80.81180811808119,NA,NA
75070,Collin County,TX,NA,NA,11.960132890365449
75082,Collin County,TX,NA,NA,63.95348837209303
75146,Dallas County,TX,NA,NA,60.13289036544851
75204,Dallas County,TX,NA,NA,91.86046511627907
75209,Dallas County,TX,NA,NA,41.029900332225914
75248,Dallas County,TX,NA,27.11864406779661,28.903654485049834
75551,Cass County,TX,97.04797047970479,NA,NA
75603,Gregg County,TX,NA,81.35593220338984,NA
75647,Gregg County,TX,NA,NA,84.88372093023256
75703,Smith County,TX,26.56826568265683,68.36158192090396,NA
75704,Smith County,TX,NA,91.52542372881356,NA
75751,Henderson County,TX,NA,48.0225988700565,NA
75762,Smith County,TX,NA,50.847457627118644,NA
75840,Freestone County,TX,NA,NA,84.0531561461794
76010,Tarrant County,TX,NA,52.824858757062145,NA
76040,Tarrant County,TX,NA,NA,77.90697674418605
76063,Tarrant County,TX,NA,NA,48.17275747508305
76114,Tarrant County,TX,NA,NA,89.53488372093024
76148,Tarrant County,TX,NA,88.4180790960452,NA
76208,Denton County,TX,NA,72.88135593220339,NA
76255,Montague County,TX,NA,87.85310734463276,NA
76262,Denton County,TX,NA,NA,65.4485049833887
76543,Bell County,TX,NA,NA,4.983388704318937
76634,Bosque County,TX,NA,NA,98.50498338870432
76642,Limestone County,TX,92.25092250922509,NA,NA
76904,Tom Green County,TX,NA,80.7909604519774,NA
77009,Harris County,TX,NA,NA,55.3156146179402
77014,Harris County,TX,53.874538745387454,NA,NA
77021,Harris County,TX,NA,NA,91.36212624584718
77022,Harris County,TX,NA,NA,77.24252491694352
77028,Harris County,TX,NA,60.73446327683616,NA
77032,Harris County,TX,NA,NA,95.68106312292359
77033,Harris County,TX,NA,NA,33.222591362126245
77036,Harris County,TX,74.53874538745387,NA,NA
77047,Harris County,TX,NA,NA,81.72757475083057
77062,Harris County,TX,54.24354243542435,NA,NA
77065,Harris County,TX,56.457564575645755,NA,NA
77068,Harris County,TX,99.63099630996311,NA,NA
77069,Harris County,TX,NA,70.62146892655367,NA
77071,Harris County,TX,NA,NA,94.51827242524917
77087,Harris County,TX,78.22878228782287,NA,NA
77091,Harris County,TX,NA,45.76271186440678,NA
77093,Harris County,TX,NA,NA,78.90365448504983
77098,Harris County,TX,NA,NA,89.03654485049833
77302,Montgomery County,TX,NA,NA,53.820598006644516
77346,Harris County,TX,NA,NA,74.08637873754152
77381,Montgomery County,TX,NA,35.87570621468927,45.016611295681066
77433,Harris County,TX,NA,NA,38.70431893687707
77471,Fort Bend County,TX,30.996309963099634,NA,NA
77488,Wharton County,TX,NA,NA,74.91694352159467
77502,Harris County,TX,46.125461254612546,NA,NA
77505,Harris County,TX,NA,58.75706214689266,NA
77535,Liberty County,TX,NA,44.06779661016949,NA
77541,Brazoria County,TX,NA,53.10734463276836,NA
77554,Galveston County,TX,NA,43.22033898305085,NA
77568,Galveston County,TX,NA,59.6045197740113,NA
77571,Harris County,TX,NA,NA,46.179401993355484
77573,Galveston County,TX,NA,NA,51.66112956810631
77575,Liberty County,TX,60.88560885608856,NA,NA
77630,Orange County,TX,NA,34.18079096045198,NA
77657,Hardin County,TX,NA,NA,59.800664451827245
77840,Brazos County,TX,NA,NA,70.43189368770764
77864,Madison County,TX,NA,NA,70.59800664451828
78040,Webb County,TX,NA,38.4180790960452,NA
78043,Webb County,TX,NA,89.83050847457628,NA
78108,Guadalupe County,TX,67.89667896678966,NA,NA
78130,Comal County,TX,NA,NA,32.39202657807309
78212,Bexar County,TX,NA,97.45762711864407,NA
78214,Bexar County,TX,NA,60.16949152542372,NA
78224,Bexar County,TX,NA,NA,93.02325581395348
78227,Bexar County,TX,NA,NA,27.906976744186046
78240,Bexar County,TX,NA,56.49717514124294,NA
78251,Bexar County,TX,NA,NA,55.81395348837209
78368,San Patricio County,TX,NA,NA,92.52491694352159
78414,Nueces County,TX,NA,NA,79.734219269103
78415,Nueces County,TX,NA,86.7231638418079,52.823920265780735
78520,Cameron County,TX,NA,29.37853107344633,NA
78521,Cameron County,TX,26.937269372693727,NA,NA
78537,Hidalgo County,TX,NA,38.70056497175141,NA
78542,Hidalgo County,TX,NA,NA,43.355481727574755
78573,Hidalgo County,TX,NA,NA,20.59800664451827
78574,Hidalgo County,TX,62.73062730627307,NA,NA
78582,Starr County,TX,NA,40.96045197740113,21.428571428571427
78586,Cameron County,TX,NA,NA,60.797342192691026
78589,Hidalgo County,TX,NA,NA,36.04651162790697
78640,Hays County,TX,NA,NA,82.05980066445183
78741,Travis County,TX,NA,NA,77.57475083056478
78745,Travis County,TX,NA,NA,51.82724252491694
78934,Colorado County,TX,NA,NA,52.823920265780735
79106,Potter County,TX,NA,NA,36.544850498338874
79412,Lubbock County,TX,53.50553505535055,NA,NA
79701,Midland County,TX,35.79335793357934,NA,NA
79707,Midland County,TX,NA,NA,68.10631229235881
79763,Ector County,TX,NA,40.67796610169492,NA
79772,Reeves County,TX,NA,NA,89.70099667774086
84010,Davis County,UT,33.579335793357934,NA,NA
84015,Davis County,UT,18.45018450184502,NA,NA
84074,Tooele County,UT,3.6900369003690034,NA,24.418604651162788
84078,Uintah County,UT,NA,NA,66.11295681063123
84123,Salt Lake County,UT,18.81918819188192,NA,NA
84401,Weber County,UT,NA,49.43502824858757,NA
84404,Weber County,UT,17.712177121771216,NA,NA
84604,Utah County,UT,NA,NA,62.292358803986716
20164,Loudoun County,VA,NA,NA,61.79401993355482
20186,Fauquier County,VA,NA,NA,91.69435215946844
22003,Fairfax County,VA,NA,24.858757062146893,NA
22030,Fairfax County,VA,NA,29.66101694915254,NA
22182,Fairfax County,VA,NA,78.53107344632768,NA
22193,Prince William County,VA,NA,NA,88.70431893687709
22406,Stafford County,VA,NA,NA,43.18936877076412
22407,Spotsylvania County,VA,84.87084870848709,NA,NA
22443,Westmoreland County,VA,NA,NA,69.10299003322258
22815,Rockingham County,VA,NA,NA,51.162790697674424
22835,Page County,VA,NA,50,NA
22963,Fluvanna County,VA,NA,75.42372881355932,NA
23005,Hanover County,VA,NA,NA,69.60132890365448
23060,Henrico County,VA,NA,52.54237288135594,37.87375415282392
23139,Powhatan County,VA,NA,NA,41.36212624584717
23185,James City County,VA,NA,3.389830508474576,NA
23225,Richmond city,VA,NA,20.056497175141246,25.249169435215947
23226,Richmond city,VA,NA,NA,54.983388704318934
23324,Chesapeake city,VA,NA,NA,29.568106312292358
23462,Virginia Beach city,VA,NA,NA,4.152823920265781
23464,Virginia Beach city,VA,NA,NA,0.9966777408637874
23509,Norfolk city,VA,35.05535055350554,NA,NA
23513,Norfolk city,VA,73.80073800738008,NA,NA
23607,Newport News city,VA,NA,69.2090395480226,NA
23703,Portsmouth city,VA,49.07749077490775,NA,NA
24015,Roanoke city,VA,69.00369003690037,NA,NA
24019,Roanoke County,VA,NA,27.401129943502823,NA
24301,Pulaski County,VA,50.55350553505535,NA,NA
24330,Grayson County,VA,NA,NA,94.6843853820598
24503,Lynchburg city,VA,NA,58.19209039548022,NA
24540,Danville city,VA,NA,27.683615819209038,NA
98001,King County,WA,NA,NA,58.97009966777409
98034,King County,WA,NA,12.994350282485875,NA
98087,Snohomish County,WA,NA,48.87005649717514,NA
98296,Snohomish County,WA,NA,NA,69.93355481727575
98375,Pierce County,WA,NA,NA,93.68770764119601
98402,Pierce County,WA,80.44280442804428,NA,NA
98418,Pierce County,WA,NA,93.78531073446328,NA
98528,Mason County,WA,NA,NA,95.68106312292359
98550,Grays Harbor County,WA,80.07380073800738,NA,NA
98579,Thurston County,WA,NA,71.46892655367232,NA
99216,Spokane County,WA,NA,NA,51.49501661129568
99336,Benton County,WA,NA,NA,3.9867109634551494
99352,Benton County,WA,NA,NA,2.3255813953488373
99354,Benton County,WA,NA,NA,68.6046511627907
20001,District of Columbia,DC,NA,NA,86.21262458471762
20011,District of Columbia,DC,NA,NA,23.421926910299003
20020,District of Columbia,DC,NA,NA,21.096345514950166
25428,Berkeley County,WV,57.19557195571956,NA,NA
25438,Jefferson County,WV,NA,NA,86.37873754152824
25962,Greenbrier County,WV,91.88191881918819,NA,NA
97003,NA,NA,97.7859778597786,NA,NA
26003,Ohio County,WV,NA,NA,1.8272425249169437
26037,Brooke County,WV,NA,NA,64.95016611295681
26062,Hancock County,WV,NA,NA,7.641196013289036
26104,Wood County,WV,NA,NA,98.33887043189368
26155,Wetzel County,WV,75.27675276752768,NA,NA
26330,Harrison County,WV,NA,NA,26.245847176079735
26554,Marion County,WV,NA,1.4124293785310735,NA
26757,Hampshire County,WV,83.39483394833948,NA,NA
53022,Washington County,WI,NA,47.45762711864407,NA
53110,Milwaukee County,WI,NA,63.559322033898304,NA
53140,Kenosha County,WI,NA,NA,21.262458471760798
53143,Kenosha County,WI,NA,29.09604519774011,NA
53146,Waukesha County,WI,NA,NA,74.58471760797342
53147,Walworth County,WI,NA,67.514124293785315,NA
53151,Waukesha County,WI,NA,NA,44.35215946843854
53186,Waukesha County,WI,23.247232472324722,NA,NA
53189,Waukesha County,WI,NA,NA,31.06312292358804
53215,Milwaukee County,WI,NA,NA,7.308970099667775
53216,Milwaukee County,WI,NA,NA,35.38205980066445
53221,Milwaukee County,WI,NA,NA,38.53820598006645
53225,Milwaukee County,WI,NA,37.570621468926554,NA
53818,Grant County,WI,89.2988929889299,NA,NA
53910,Adams County,WI,NA,99.15254237288136,NA
54902,Winnebago County,WI,NA,96.89265536723164,NA
82001,Laramie County,WY,NA,NA,39.70099667774086
