ZipCode,county,state,Adult,Retirement,Geriatric
35055,Cullman County,AL,73.24840764331209,NA,NA
35071,Jefferson County,AL,62.101910828025474,NA,NA
35474,Hale County,AL,55.73248407643312,NA,NA
35570,Marion County,AL,NA,93.36283185840708,NA
35950,Marshall County,AL,33.43949044585987,NA,NA
36092,Elmore County,AL,36.624203821656046,NA,NA
36203,Calhoun County,AL,41.71974522292994,NA,NA
36271,Calhoun County,AL,NA,83.6283185840708,NA
36582,Mobile County,AL,NA,81.85840707964603,NA
99508,Anchorage Municipality,AK,98.72611464968153,NA,NA
99705,Fairbanks North Star Borough,AK,65.28662420382165,NA,NA
85009,Maricopa County,AZ,10.828025477707007,NA,NA
85028,Maricopa County,AZ,NA,NA,93.56435643564357
85032,Maricopa County,AZ,11.464968152866243,NA,NA
85042,Maricopa County,AZ,NA,43.80530973451327,NA
85050,Maricopa County,AZ,48.72611464968153,NA,NA
85086,Maricopa County,AZ,NA,29.20353982300885,NA
85233,Maricopa County,AZ,60.828025477707,NA,NA
85323,Maricopa County,AZ,NA,42.0353982300885,NA
85710,Pima County,AZ,NA,14.15929203539823,NA
85716,Pima County,AZ,14.968152866242038,NA,NA
85749,Pima County,AZ,NA,NA,97.02970297029702
86045,Coconino County,AZ,80.89171974522293,NA,NA
86305,Yavapai County,AZ,77.70700636942675,NA,NA
86333,Yavapai County,AZ,96.4968152866242,NA,NA
71639,Desha County,AR,NA,NA,58.415841584158414
72021,Monroe County,AR,96.81528662420382,NA,NA
72104,Hot Spring County,AR,74.52229299363057,NA,NA
72335,St. Francis County,AR,80.2547770700637,NA,NA
72390,Phillips County,AR,NA,96.90265486725663,NA
72704,Washington County,AR,NA,65.04424778761062,NA
72908,Sebastian County,AR,87.89808917197452,NA,NA
90013,Los Angeles County,CA,NA,50.88495575221239,NA
90049,Los Angeles County,CA,NA,NA,49.504950495049506
90062,Los Angeles County,CA,NA,NA,48.01980198019802
90068,Los Angeles County,CA,78.98089171974523,NA,NA
90242,Los Angeles County,CA,NA,44.24778761061947,NA
90247,Los Angeles County,CA,44.5859872611465,NA,NA
90630,Orange County,CA,NA,NA,92.07920792079209
90650,Los Angeles County,CA,15.286624203821656,NA,NA
90712,Los Angeles County,CA,88.21656050955414,NA,NA
91201,Los Angeles County,CA,76.43312101910828,NA,NA
91342,Los Angeles County,CA,17.197452229299362,NA,35.148514851485146
91701,San Bernardino County,CA,NA,21.238938053097346,NA
91737,San Bernardino County,CA,NA,68.14159292035397,NA
91761,San Bernardino County,CA,20.063694267515924,NA,NA
91767,Los Angeles County,CA,NA,40.707964601769916,NA
91775,Los Angeles County,CA,NA,NA,64.35643564356435
92021,San Diego County,CA,12.420382165605096,NA,NA
92105,San Diego County,CA,39.80891719745223,NA,NA
92139,San Diego County,CA,88.53503184713377,NA,46.03960396039604
92277,San Bernardino County,CA,61.146496815286625,NA,NA
92404,San Bernardino County,CA,14.64968152866242,NA,NA
92505,Riverside County,CA,37.57961783439491,NA,NA
92612,Orange County,CA,NA,65.48672566371681,NA
92646,Orange County,CA,NA,NA,7.425742574257425
92649,Orange County,CA,NA,20.353982300884958,NA
93212,Kings County,CA,NA,70.35398230088495,NA
93221,Tulare County,CA,70.70063694267516,NA,NA
93309,Kern County,CA,23.56687898089172,NA,NA
93618,Tulare County,CA,94.26751592356688,NA,NA
94014,San Mateo County,CA,NA,18.58407079646018,NA
94080,San Mateo County,CA,24.840764331210192,NA,NA
94523,Contra Costa County,CA,NA,NA,89.10891089108911
94531,Contra Costa County,CA,88.85350318471338,NA,NA
94538,Alameda County,CA,NA,NA,62.87128712871287
94541,Alameda County,CA,19.745222929936308,NA,NA
94578,Alameda County,CA,42.35668789808918,NA,NA
94601,Alameda County,CA,NA,26.548672566371685,NA
94941,Marin County,CA,NA,30.53097345132743,NA
95037,Santa Clara County,CA,NA,53.98230088495575,NA
95051,Santa Clara County,CA,35.98726114649681,NA,NA
95126,Santa Clara County,CA,NA,NA,55.940594059405946
95128,Santa Clara County,CA,27.388535031847134,NA,NA
95204,San Joaquin County,CA,49.681528662420384,NA,NA
95258,San Joaquin County,CA,100,NA,NA
95351,Stanislaus County,CA,47.13375796178344,NA,NA
95356,Stanislaus County,CA,33.12101910828025,NA,NA
95405,Sonoma County,CA,NA,43.36283185840708,NA
95632,Sacramento County,CA,76.11464968152866,NA,NA
95670,Sacramento County,CA,26.751592356687897,NA,NA
95814,Sacramento County,CA,NA,90.7079646017699,NA
95818,Sacramento County,CA,NA,58.849557522123895,NA
95823,Sacramento County,CA,10.191082802547772,NA,NA
96013,Shasta County,CA,NA,61.504424778761056,NA
96080,Tehama County,CA,98.40764331210191,NA,NA
80110,Arapahoe County,CO,NA,69.02654867256636,NA
80113,Arapahoe County,CO,51.910828025477706,NA,NA
80214,Jefferson County,CO,33.75796178343949,NA,NA
80226,Jefferson County,CO,67.51592356687898,NA,NA
80723,Morgan County,CO,NA,57.07964601769911,NA
80919,El Paso County,CO,NA,78.31858407079646,NA
81005,Pueblo County,CO,28.662420382165603,NA,NA
81052,Prowers County,CO,NA,42.92035398230089,NA
81401,Montrose County,CO,79.61783439490446,NA,NA
06082,Hartford County,CT,NA,11.946902654867257,NA
06085,Hartford County,CT,NA,82.7433628318584,NA
06111,Hartford County,CT,NA,NA,70.29702970297029
06112,Hartford County,CT,14.331210191082802,NA,NA
06401,New Haven County,CT,NA,NA,43.56435643564357
06611,Fairfield County,CT,NA,NA,29.207920792079207
06716,New Haven County,CT,90.12738853503186,NA,NA
06810,Fairfield County,CT,NA,NA,24.257425742574256
06902,Fairfield County,CT,84.07643312101911,NA,NA
19702,New Castle County,DE,NA,15.04424778761062,NA
19711,New Castle County,DE,NA,NA,17.82178217821782
19720,New Castle County,DE,2.8662420382165608,1.7699115044247788,NA
19805,New Castle County,DE,3.1847133757961785,NA,NA
19950,Sussex County,DE,89.171974522293,NA,NA
32060,Suwannee County,FL,NA,36.283185840707965,NA
32064,Suwannee County,FL,NA,59.73451327433629,NA
32130,Volusia County,FL,93.63057324840764,NA,NA
32168,Volusia County,FL,NA,NA,25.247524752475247
32221,Duval County,FL,NA,NA,38.613861386138616
32304,Leon County,FL,NA,92.47787610619469,NA
32405,Bay County,FL,NA,51.32743362831859,NA
32444,Bay County,FL,91.0828025477707,NA,NA
32607,Alachua County,FL,NA,NA,48.51485148514851
32708,Seminole County,FL,36.94267515923567,NA,NA
32803,Orange County,FL,NA,NA,63.366336633663366
32960,Indian River County,FL,79.93630573248409,NA,NA
33012,Miami-Dade County,FL,NA,15.929203539823009,NA
33023,Broward County,FL,NA,34.070796460176986,NA
33156,Miami-Dade County,FL,71.3375796178344,NA,NA
33165,Miami-Dade County,FL,NA,NA,4.455445544554455
33186,Miami-Dade County,FL,NA,NA,53.960396039603964
33319,Broward County,FL,62.738853503184714,NA,NA
33321,Broward County,FL,NA,NA,5.9405940594059405
33407,Palm Beach County,FL,NA,94.24778761061947,NA
33610,Hillsborough County,FL,11.146496815286625,NA,41.584158415841586
33624,Hillsborough County,FL,NA,34.95575221238938,NA
33707,Pinellas County,FL,NA,52.21238938053098,NA
33762,Pinellas County,FL,92.03821656050955,NA,NA
33771,Pinellas County,FL,91.71974522292994,NA,NA
33781,Pinellas County,FL,NA,55.309734513274336,NA
33805,Polk County,FL,31.84713375796178,NA,NA
34233,Sarasota County,FL,70.38216560509554,NA,NA
34434,Citrus County,FL,78.02547770700637,NA,NA
34471,Marion County,FL,NA,73.45132743362832,NA
34683,Pinellas County,FL,77.38853503184714,NA,NA
34711,Lake County,FL,85.6687898089172,NA,NA
34758,Osceola County,FL,18.471337579617835,NA,NA
34787,Orange County,FL,NA,NA,21.782178217821784
34990,Martin County,FL,NA,NA,86.13861386138613
34996,Martin County,FL,NA,NA,82.67326732673267
30012,Rockdale County,GA,NA,64.15929203539822,NA
30019,Gwinnett County,GA,95.85987261146497,NA,NA
30033,DeKalb County,GA,86.30573248407643,NA,NA
30039,Gwinnett County,GA,NA,84.070796460177,NA
30087,DeKalb County,GA,NA,NA,29.7029702970297
30113,Haralson County,GA,NA,65.929203539823,NA
30125,Polk County,GA,28.980891719745223,NA,NA
30217,Heard County,GA,57.00636942675159,NA,NA
30223,Spalding County,GA,29.29936305732484,90.2654867256637,NA
30236,Clayton County,GA,NA,NA,50
30252,Henry County,GA,31.210191082802545,NA,NA
30310,Fulton County,GA,19.10828025477707,NA,NA
30338,DeKalb County,GA,63.05732484076433,NA,NA
30341,DeKalb County,GA,NA,80.97345132743364,NA
30458,Bulloch County,GA,25.796178343949045,NA,NA
30531,Habersham County,GA,NA,NA,61.386138613861384
30710,Whitfield County,GA,NA,NA,94.05940594059405
30824,McDuffie County,GA,NA,61.94690265486725,NA
30830,Burke County,GA,NA,NA,62.37623762376238
30904,Richmond County,GA,26.43312101910828,NA,NA
30906,Richmond County,GA,6.369426751592357,5.3097345132743365,NA
30909,Richmond County,GA,NA,94.69026548672566,NA
31204,Bibb County,GA,24.203821656050955,NA,NA
31206,Bibb County,GA,77.07006369426752,41.150442477876105,NA
31406,Chatham County,GA,NA,19.911504424778762,NA
31513,Appling County,GA,59.23566878980891,NA,NA
31522,Glynn County,GA,NA,92.92035398230088,NA
31605,Lowndes County,GA,NA,80.53097345132744,NA
31714,Turner County,GA,66.87898089171973,NA,NA
31909,Muscogee County,GA,NA,50,NA
83406,Bonneville County,ID,78.6624203821656,NA,NA
83501,Nez Perce County,ID,NA,31.41592920353982,NA
83686,Canyon County,ID,NA,4.424778761061947,NA
83714,Ada County,ID,NA,NA,12.871287128712872
60048,Lake County,IL,NA,NA,32.67326732673268
60070,Cook County,IL,NA,86.28318584070797,NA
60073,Lake County,IL,13.375796178343949,NA,NA
60104,Cook County,IL,32.48407643312102,17.699115044247787,NA
60155,Cook County,IL,74.20382165605095,NA,NA
60160,Cook County,IL,45.22292993630573,NA,NA
60162,Cook County,IL,NA,69.46902654867256,NA
60178,DeKalb County,IL,85.98726114649682,NA,NA
60449,Will County,IL,NA,NA,73.76237623762376
60461,Cook County,IL,NA,NA,61.88118811881188
60473,Cook County,IL,73.88535031847134,NA,NA
60608,Cook County,IL,30.254777070063692,NA,NA
60617,Cook County,IL,6.050955414012739,NA,NA
60618,Cook County,IL,NA,NA,18.81188118811881
60621,Cook County,IL,27.070063694267514,NA,NA
60624,Cook County,IL,55.4140127388535,NA,NA
60626,Cook County,IL,57.961783439490446,NA,NA
60628,Cook County,IL,NA,3.0973451327433628,NA
60643,Cook County,IL,NA,NA,7.920792079207921
60645,Cook County,IL,28.02547770700637,NA,NA
60646,Cook County,IL,41.082802547770704,NA,NA
60936,Ford County,IL,99.68152866242038,NA,NA
61103,Winnebago County,IL,NA,37.610619469026545,NA
61604,Peoria County,IL,NA,27.876106194690266,NA
61832,Vermilion County,IL,8.280254777070063,NA,NA
62012,Macoupin County,IL,NA,NA,75.24752475247524
62401,Effingham County,IL,NA,NA,80.19801980198021
62522,Macon County,IL,83.12101910828027,NA,NA
62812,Franklin County,IL,NA,NA,31.683168316831683
46160,Brown County,IN,89.49044585987261,NA,NA
46227,Marion County,IN,7.643312101910828,NA,NA
46341,Porter County,IN,NA,72.56637168141593,NA
46407,Lake County,IN,87.26114649681529,NA,NA
46410,Lake County,IN,NA,NA,52.97029702970298
46619,St. Joseph County,IN,NA,52.654867256637175,NA
46761,LaGrange County,IN,NA,49.11504424778761,NA
46952,Grant County,IN,57.324840764331206,NA,NA
47167,Washington County,IN,43.31210191082803,NA,NA
47906,Tippecanoe County,IN,NA,18.141592920353983,NA
50036,Boone County,IA,NA,NA,50.495049504950494
50263,Dallas County,IA,NA,61.06194690265486,NA
50401,Cerro Gordo County,IA,NA,NA,0.49504950495049505
50501,Webster County,IA,NA,NA,54.45544554455446
52001,Dubuque County,IA,12.101910828025478,NA,NA
52404,Linn County,IA,NA,14.601769911504425,NA
52804,Scott County,IA,NA,NA,87.12871287128714
66046,Douglas County,KS,NA,66.8141592920354,NA
66048,Leavenworth County,KS,NA,NA,32.17821782178218
66064,Miami County,KS,NA,NA,89.60396039603961
66112,Wyandotte County,KS,99.04458598726114,NA,NA
66203,Johnson County,KS,NA,NA,57.42574257425742
66608,Shawnee County,KS,NA,NA,87.62376237623762
67357,Labette County,KS,NA,45.57522123893805,NA
40214,Jefferson County,KY,NA,12.831858407079647,NA
40216,Jefferson County,KY,NA,NA,11.881188118811881
40223,Jefferson County,KY,NA,NA,46.53465346534654
40391,Clark County,KY,NA,10.619469026548673,NA
40475,Madison County,KY,NA,NA,63.86138613861386
40509,Fayette County,KY,NA,59.29203539823009,NA
40759,Whitley County,KY,90.76433121019109,NA,NA
41017,Kenton County,KY,NA,95.57522123893806,NA
41465,Magoffin County,KY,NA,75.66371681415929,NA
41501,Pike County,KY,9.235668789808917,NA,NA
42001,McCracken County,KY,54.14012738853503,NA,NA
42029,Marshall County,KY,92.67515923566879,NA,NA
42718,Taylor County,KY,NA,7.964601769911504,NA
42728,Adair County,KY,NA,NA,76.23762376237624
70001,Jefferson Parish,LA,NA,NA,10.891089108910892
70056,Jefferson Parish,LA,4.45859872611465,NA,NA
70113,Orleans Parish,LA,23.248407643312103,NA,NA
70115,Orleans Parish,LA,NA,16.371681415929203,NA
70118,Orleans Parish,LA,15.92356687898089,NA,NA
70454,Tangipahoa Parish,LA,NA,NA,77.72277227722772
70544,Iberia Parish,LA,26.11464968152866,NA,NA
70560,Iberia Parish,LA,NA,35.39823008849557,27.722772277227726
70570,St. Landry Parish,LA,0.9554140127388535,NA,NA
70577,St. Landry Parish,LA,99.36305732484077,NA,NA
70605,Calcasieu Parish,LA,NA,63.27433628318584,NA
70611,Calcasieu Parish,LA,NA,NA,85.14851485148515
70634,Beauregard Parish,LA,20.382165605095544,NA,NA
70663,Calcasieu Parish,LA,NA,NA,39.603960396039604
70802,East Baton Rouge Parish,LA,66.56050955414013,28.761061946902654,NA
70805,East Baton Rouge Parish,LA,3.5031847133757963,NA,NA
71107,Caddo Parish,LA,NA,NA,24.752475247524753
71342,La Salle Parish,LA,NA,NA,70.79207920792079
71409,Rapides Parish,LA,82.80254777070064,NA,NA
04005,York County,ME,NA,4.867256637168142,NA
04976,Somerset County,ME,12.738853503184714,NA,NA
20640,Charles County,MD,94.5859872611465,NA,NA
20707,Prince George's County,MD,NA,NA,67.82178217821783
20754,Calvert County,MD,NA,99.11504424778761,NA
20832,Montgomery County,MD,NA,NA,79.70297029702971
20850,Montgomery County,MD,NA,NA,90.0990099009901
20902,Montgomery County,MD,NA,49.557522123893804,NA
21029,Howard County,MD,NA,NA,96.53465346534654
21045,Howard County,MD,40.12738853503185,NA,NA
21060,Anne Arundel County,MD,NA,NA,37.62376237623762
21163,Howard County,MD,92.35668789808918,NA,NA
21227,Baltimore County,MD,NA,NA,26.237623762376238
01028,Hampden County,MA,NA,NA,43.06930693069307
01104,Hampden County,MA,NA,0.4424778761061947,NA
01105,Hampden County,MA,40.76433121019109,NA,NA
01108,Hampden County,MA,NA,21.68141592920354,NA
01109,Hampden County,MA,11.464968152866243,NA,NA
01331,Worcester County,MA,NA,23.451327433628318,NA
01730,Middlesex County,MA,NA,NA,16.33663366336634
01760,Middlesex County,MA,7.961783439490445,NA,NA
01801,Middlesex County,MA,NA,8.4070796460177,NA
01803,Middlesex County,MA,45.85987261146497,NA,NA
01824,Middlesex County,MA,NA,NA,8.415841584158416
01832,Essex County,MA,NA,87.16814159292035,NA
01863,Middlesex County,MA,NA,69.91150442477876,NA
01867,Middlesex County,MA,NA,NA,15.346534653465346
01960,Essex County,MA,5.7324840764331215,NA,NA
01970,Essex County,MA,NA,0,NA
02115,Suffolk County,MA,NA,2.6548672566371683,NA
02125,Suffolk County,MA,NA,NA,8.91089108910891
02136,Suffolk County,MA,1.2738853503184715,NA,NA
02446,Norfolk County,MA,NA,6.1946902654867255,NA
02476,Middlesex County,MA,86.94267515923568,NA,NA
02494,Norfolk County,MA,NA,83.1858407079646,NA
02563,Barnstable County,MA,97.77070063694268,NA,NA
02740,Bristol County,MA,0,NA,NA
02760,Bristol County,MA,50.955414012738856,NA,NA
02780,Bristol County,MA,NA,NA,69.3069306930693
48089,Macomb County,MI,23.88535031847134,NA,NA
48154,Wayne County,MI,NA,6.637168141592921,NA
48180,Wayne County,MI,NA,NA,3.4653465346534658
48202,Wayne County,MI,NA,28.31858407079646,NA
48204,Wayne County,MI,NA,NA,27.22772277227723
48207,Wayne County,MI,NA,NA,16.831683168316832
48214,Wayne County,MI,16.560509554140125,NA,NA
48307,Oakland County,MI,NA,88.49557522123894,NA
48312,Macomb County,MI,NA,13.274336283185843,NA
48353,Livingston County,MI,NA,NA,98.51485148514851
48380,Oakland County,MI,75.47770700636943,NA,NA
48381,Oakland County,MI,NA,NA,44.554455445544555
48601,Saginaw County,MI,1.5923566878980893,NA,NA
48661,Ogemaw County,MI,NA,NA,28.217821782178216
48895,Ingham County,MI,NA,NA,66.33663366336634
48910,Ingham County,MI,NA,35.84070796460177,NA
49014,Calhoun County,MI,16.24203821656051,NA,NA
49090,Van Buren County,MI,87.57961783439491,NA,NA
49107,Berrien County,MI,NA,NA,96.03960396039604
49112,Cass County,MI,NA,91.1504424778761,NA
49120,Berrien County,MI,64.64968152866241,NA,NA
49230,Jackson County,MI,NA,91.5929203539823,NA
49307,Mecosta County,MI,NA,96.01769911504425,NA
49341,Kent County,MI,22.29299363057325,NA,NA
49508,Kent County,MI,NA,NA,9.405940594059405
49525,Kent County,MI,72.61146496815286,NA,NA
49686,Grand Traverse County,MI,NA,84.51327433628319,NA
49735,Otsego County,MI,24.522292993630572,NA,NA
49802,Dickinson County,MI,NA,87.61061946902655,NA
55066,Goodhue County,MN,36.30573248407643,NA,NA
55082,Washington County,MN,71.656050955414,NA,NA
55102,Ramsey County,MN,53.82165605095541,NA,NA
55118,Dakota County,MN,42.35668789808918,NA,NA
55316,Hennepin County,MN,78.98089171974523,NA,NA
55320,Wright County,MN,NA,98.23008849557522,NA
55337,Dakota County,MN,NA,16.8141592920354,NA
55427,Hennepin County,MN,47.77070063694268,NA,NA
55431,Hennepin County,MN,53.503184713375795,NA,NA
55432,Anoka County,MN,49.36305732484077,NA,NA
55987,Winona County,MN,NA,1.3274336283185841,NA
38663,Tippah County,MS,59.554140127388536,NA,NA
38701,Washington County,MS,NA,NA,66.83168316831683
39051,Leake County,MS,NA,97.34513274336283,NA
39069,Jefferson County,MS,73.56687898089172,NA,NA
39117,Scott County,MS,NA,NA,90.5940594059406
39120,Adams County,MS,NA,88.93805309734513,NA
39307,Lauderdale County,MS,NA,NA,58.91089108910891
39466,Pearl River County,MS,NA,NA,19.306930693069308
39503,Harrison County,MS,8.598726114649681,NA,NA
39531,Harrison County,MS,NA,73.00884955752213,NA
39652,Pike County,MS,61.46496815286624,NA,NA
39759,Oktibbeha County,MS,NA,NA,74.25742574257426
63028,Jefferson County,MO,NA,45.13274336283185,NA
63031,St. Louis County,MO,NA,NA,31.18811881188119
63049,Jefferson County,MO,NA,95.13274336283186,NA
63104,St. Louis city,MO,NA,84.95575221238938,NA
63118,St. Louis city,MO,NA,31.858407079646017,NA
63123,St. Louis County,MO,NA,NA,3.9603960396039604
63125,St. Louis County,MO,NA,62.83185840707964,NA
63129,St. Louis County,MO,NA,24.778761061946902,NA
63703,Cape Girardeau County,MO,NA,58.4070796460177,NA
64093,Johnson County,MO,72.92993630573248,NA,39.10891089108911
64134,Jackson County,MO,34.07643312101911,NA,NA
64506,Buchanan County,MO,NA,NA,14.85148514851485
64804,Jasper County,MO,NA,57.52212389380531,NA
59404,Cascade County,MT,35.03184713375796,NA,NA
68137,Douglas County,NE,44.904458598726116,NA,NA
68504,Lancaster County,NE,NA,76.99115044247787,NA
68506,Lancaster County,NE,NA,NA,35.64356435643564
68510,Lancaster County,NE,68.78980891719745,NA,NA
68803,Hall County,NE,58.59872611464968,NA,NA
68845,Buffalo County,NE,93.31210191082803,NA,NA
69341,Scotts Bluff County,NE,NA,66.3716814159292,NA
89403,Lyon County,NV,NA,NA,57.920792079207914
89506,Washoe County,NV,NA,64.60176991150442,NA
03103,Hillsborough County,NH,5.414012738853503,NA,19.801980198019802
03801,Rockingham County,NH,43.94904458598726,NA,NA
03878,Strafford County,NH,71.97452229299363,NA,NA
07088,Union County,NJ,NA,100,NA
07104,Essex County,NJ,NA,3.982300884955752,NA
07456,Passaic County,NJ,NA,NA,99.5049504950495
07661,Bergen County,NJ,NA,73.89380530973452,NA
07746,Monmouth County,NJ,NA,89.38053097345133,NA
07801,Morris County,NJ,NA,NA,36.13861386138614
07876,Morris County,NJ,NA,NA,85.64356435643565
08057,Burlington County,NJ,NA,67.2566371681416,NA
08075,Burlington County,NJ,NA,20.79646017699115,NA
08203,Atlantic County,NJ,NA,NA,41.584158415841586
08225,Atlantic County,NJ,NA,NA,79.20792079207921
08540,Mercer County,NJ,NA,25.663716814159294,NA
08638,Mercer County,NJ,9.554140127388536,NA,NA
08701,Ocean County,NJ,NA,NA,1.9801980198019802
08724,Ocean County,NJ,NA,NA,15.841584158415841
87013,Sandoval County,NM,86.62420382165605,NA,NA
87052,Sandoval County,NM,84.71337579617835,NA,NA
87114,Bernalillo County,NM,NA,NA,54.95049504950495
87420,San Juan County,NM,NA,NA,45.04950495049505
87740,Colfax County,NM,74.84076433121018,NA,NA
88310,Otero County,NM,NA,3.5398230088495577,NA
10001,New York County,NY,10.509554140127388,NA,NA
10025,New York County,NY,NA,NA,2.4752475247524752
10029,New York County,NY,0.3184713375796179,NA,NA
10034,New York County,NY,NA,NA,59.900990099009896
10044,New York County,NY,NA,68.58407079646017,NA
10467,Bronx County,NY,NA,NA,1.4851485148514851
10468,Bronx County,NY,NA,NA,6.9306930693069315
10469,Bronx County,NY,NA,NA,4.9504950495049505
10549,Westchester County,NY,NA,NA,73.26732673267327
11004,Queens County,NY,NA,NA,56.43564356435643
11206,Kings County,NY,NA,NA,6.435643564356436
11207,Kings County,NY,NA,17.25663716814159,NA
11217,Kings County,NY,32.1656050955414,NA,NA
11219,Kings County,NY,NA,NA,12.376237623762377
11226,Kings County,NY,46.17834394904459,0.8849557522123894,11.386138613861387
11230,Kings County,NY,NA,NA,28.71287128712871
11233,Kings County,NY,43.63057324840764,NA,NA
11234,Kings County,NY,NA,32.743362831858406,NA
11236,Kings County,NY,17.51592356687898,NA,NA
11239,Kings County,NY,NA,78.76106194690266,NA
11369,Queens County,NY,NA,NA,78.21782178217822
11435,Queens County,NY,NA,40.26548672566372,NA
11436,Queens County,NY,NA,79.64601769911505,NA
11563,Nassau County,NY,92.99363057324841,NA,NA
11580,Nassau County,NY,NA,42.47787610619469,NA
11691,Queens County,NY,NA,NA,49.00990099009901
11756,Nassau County,NY,NA,NA,38.11881188118812
11772,Suffolk County,NY,NA,NA,36.633663366336634
11776,Suffolk County,NY,50,NA,NA
12210,Albany County,NY,51.59235668789809,NA,NA
12302,Schenectady County,NY,NA,46.46017699115044,NA
12572,Dutchess County,NY,NA,NA,84.15841584158416
13078,Onondaga County,NY,NA,NA,75.24752475247524
13104,Onondaga County,NY,NA,34.51327433628318,NA
13208,Onondaga County,NY,9.872611464968154,NA,NA
13317,Montgomery County,NY,97.45222929936305,NA,NA
13669,St. Lawrence County,NY,NA,44.690265486725664,NA
14072,Erie County,NY,NA,NA,60.396039603960396
14432,Ontario County,NY,NA,NA,94.55445544554455
14513,Wayne County,NY,NA,2.2123893805309733,NA
14606,Monroe County,NY,NA,NA,30.693069306930692
14609,Monroe County,NY,25.477707006369428,NA,NA
14615,Monroe County,NY,NA,22.566371681415927,NA
14787,Chautauqua County,NY,NA,NA,91.0891089108911
14901,Chemung County,NY,54.77707006369427,NA,NA
27006,Davie County,NC,NA,48.23008849557522,NA
27103,Forsyth County,NC,NA,NA,0.9900990099009901
27260,Guilford County,NC,NA,NA,50.99009900990099
27317,Randolph County,NC,46.496815286624205,NA,NA
27401,Guilford County,NC,52.22929936305732,NA,NA
27406,Guilford County,NC,NA,NA,47.524752475247524
27504,Johnston County,NC,NA,70.79646017699115,59.4059405940594
27542,Johnston County,NC,59.87261146496815,NA,NA
27596,Franklin County,NC,NA,48.67256637168141,NA
27597,Wake County,NC,42.038216560509554,NA,NA
27605,Wake County,NC,97.13375796178345,NA,NA
27609,Wake County,NC,NA,NA,23.762376237623762
27712,Durham County,NC,95.22292993630573,NA,NA
27801,Edgecombe County,NC,30.89171974522293,NA,NA
27803,Nash County,NC,38.21656050955414,NA,NA
27823,Halifax County,NC,NA,NA,71.78217821782178
27983,Bertie County,NC,NA,NA,81.68316831683168
28021,Gaston County,NC,46.81528662420382,NA,NA
28031,Mecklenburg County,NC,NA,32.30088495575221,NA
28043,Rutherford County,NC,NA,85.84070796460178,NA
28112,Union County,NC,NA,NA,33.663366336633665
28146,Rowan County,NC,NA,NA,34.65346534653465
28211,Mecklenburg County,NC,22.611464968152866,NA,NA
28214,Mecklenburg County,NC,67.83439490445859,NA,NA
28215,Mecklenburg County,NC,NA,NA,26.732673267326735
28303,Cumberland County,NC,NA,NA,77.22772277227723
28311,Cumberland County,NC,NA,30.08849557522124,NA
28352,Scotland County,NC,20.70063694267516,NA,NA
28358,Robeson County,NC,37.898089171974526,NA,18.316831683168317
28379,Richmond County,NC,13.694267515923567,NA,NA
28384,Bladen County,NC,83.7579617834395,NA,NA
28398,Duplin County,NC,96.17834394904459,NA,NA
28461,Brunswick County,NC,NA,60.61946902654868,NA
28602,Catawba County,NC,60.509554140127385,NA,NA
28625,Iredell County,NC,67.19745222929936,NA,NA
28677,Iredell County,NC,NA,NA,40.099009900990104
43055,Licking County,OH,21.019108280254777,NA,NA
43113,Pickaway County,OH,64.3312101910828,NA,NA
43228,Franklin County,OH,NA,51.76991150442478,NA
43334,Morrow County,OH,65.92356687898089,NA,NA
43420,Sandusky County,OH,NA,54.424778761061944,NA
43543,Williams County,OH,NA,NA,99.00990099009901
43560,Lucas County,OH,NA,NA,23.26732673267327
44012,Lorain County,OH,56.36942675159236,NA,NA
44035,Lorain County,OH,2.547770700636943,NA,NA
44052,Lorain County,OH,25.159235668789808,NA,NA
44055,Lorain County,OH,7.006369426751593,NA,NA
44060,Lake County,OH,21.656050955414013,NA,NA
44094,Lake County,OH,NA,NA,13.861386138613863
44110,Cuyahoga County,OH,48.40764331210191,NA,NA
44112,Cuyahoga County,OH,6.687898089171974,NA,NA
44128,Cuyahoga County,OH,38.53503184713376,NA,NA
44133,Cuyahoga County,OH,NA,9.734513274336283,NA
44144,Cuyahoga County,OH,NA,26.10619469026549,NA
44203,Summit County,OH,65.60509554140127,NA,NA
44286,Summit County,OH,NA,NA,71.28712871287128
44420,Trumbull County,OH,81.84713375796179,NA,NA
44484,Trumbull County,OH,NA,NA,17.326732673267326
44706,Stark County,OH,78.343949044586,NA,NA
44710,Stark County,OH,NA,NA,56.930693069306926
44883,Seneca County,OH,56.68789808917197,NA,NA
45014,Butler County,OH,34.71337579617834,NA,NA
45050,Butler County,OH,NA,76.10619469026548,NA
45238,Hamilton County,OH,NA,12.389380530973451,NA
45344,Clark County,OH,NA,38.05309734513274,NA
45371,Miami County,OH,NA,NA,30.198019801980198
45458,Montgomery County,OH,82.16560509554141,NA,NA
45638,Lawrence County,OH,4.777070063694268,NA,NA
45780,Athens County,OH,NA,NA,100
45822,Mercer County,OH,NA,NA,20.2970297029703
73044,Logan County,OK,NA,36.72566371681416,NA
73107,Oklahoma County,OK,45.54140127388535,NA,NA
73507,Comanche County,OK,NA,22.123893805309734,NA
74012,Tulsa County,OK,NA,9.29203539823009,NA
74056,Osage County,OK,98.08917197452229,NA,NA
74066,Creek County,OK,22.929936305732486,NA,NA
74136,Tulsa County,OK,NA,33.1858407079646,NA
74436,Muskogee County,OK,NA,NA,93.06930693069307
74464,Cherokee County,OK,7.32484076433121,NA,NA
74523,Pushmataha County,OK,84.39490445859873,NA,NA
74601,Kay County,OK,76.75159235668791,NA,NA
74960,Adair County,OK,NA,NA,55.44554455445545
97070,Clackamas County,OR,53.18471337579618,NA,NA
97206,Multnomah County,OR,NA,NA,34.15841584158416
97221,Multnomah County,OR,80.89171974522293,NA,NA
97233,Multnomah County,OR,13.05732484076433,NA,NA
97322,Linn County,OR,NA,NA,88.11881188118812
97378,Yamhill County,OR,NA,81.41592920353983,NA
97386,Linn County,OR,39.490445859872615,NA,NA
97401,Lane County,OR,30.573248407643312,NA,NA
97404,Lane County,OR,NA,NA,69.80198019801979
97405,Lane County,OR,61.46496815286624,NA,NA
97501,Jackson County,OR,NA,71.23893805309734,NA
15017,Allegheny County,PA,NA,NA,45.54455445544555
15108,Allegheny County,PA,NA,NA,10.396039603960396
15136,Allegheny County,PA,54.45859872611465,NA,NA
15216,Allegheny County,PA,49.044585987261144,NA,NA
15219,Allegheny County,PA,NA,39.823008849557525,NA
15501,Somerset County,PA,NA,75.22123893805309,NA
15801,Clearfield County,PA,NA,23.893805309734514,NA
15824,Jefferson County,PA,NA,NA,68.31683168316832
15904,Cambria County,PA,NA,77.43362831858407,NA
15906,Cambria County,PA,NA,53.09734513274337,NA
16323,Venango County,PA,91.40127388535032,NA,NA
16346,Venango County,PA,NA,96.46017699115043,NA
16510,Erie County,PA,NA,NA,22.772277227722775
16602,Blair County,PA,NA,10.176991150442479,NA
17055,Cumberland County,PA,NA,13.716814159292035,NA
17701,Lycoming County,PA,4.140127388535031,NA,NA
17756,Lycoming County,PA,NA,98.67256637168141,NA
18052,Lehigh County,PA,NA,23.008849557522122,NA
18102,Lehigh County,PA,NA,NA,21.287128712871286
18466,Monroe County,PA,71.97452229299363,NA,NA
18944,Bucks County,PA,NA,33.6283185840708,NA
19063,Delaware County,PA,NA,8.849557522123893,NA
19082,Delaware County,PA,8.9171974522293,NA,NA
19124,Philadelphia County,PA,0.6369426751592357,NA,NA
19130,Philadelphia County,PA,NA,76.54867256637168,NA
19139,Philadelphia County,PA,3.821656050955414,NA,NA
19147,Philadelphia County,PA,41.40127388535032,NA,NA
19148,Philadelphia County,PA,NA,NA,14.356435643564355
19151,Philadelphia County,PA,NA,NA,53.46534653465347
19462,Montgomery County,PA,37.261146496815286,NA,NA
19608,Berks County,PA,NA,NA,65.84158415841584
02806,Bristol County,RI,NA,NA,83.66336633663366
02864,Providence County,RI,NA,NA,9.900990099009901
02920,Providence County,RI,NA,54.86725663716814,NA
29150,Sumter County,SC,NA,NA,20.792079207920793
29154,Sumter County,SC,71.01910828025477,NA,NA
29223,Richland County,SC,NA,NA,13.366336633663368
29526,Horry County,SC,28.343949044585987,NA,NA
29536,Dillon County,SC,47.452229299363054,NA,NA
29571,Marion County,SC,NA,NA,60.89108910891089
29601,Greenville County,SC,60.19108280254777,NA,NA
29605,Greenville County,SC,19.426751592356688,NA,NA
29640,Pickens County,SC,NA,15.486725663716813,NA
29690,Greenville County,SC,31.210191082802545,NA,NA
29732,York County,SC,NA,45.57522123893805,NA
29803,Aiken County,SC,63.69426751592356,NA,NA
37022,Sumner County,TN,89.80891719745223,NA,NA
37085,Rutherford County,TN,NA,97.78761061946902,NA
37122,Wilson County,TN,52.547770700636946,NA,NA
37129,Rutherford County,TN,14.012738853503185,NA,NA
37211,Davidson County,TN,57.961783439490446,NA,NA
37217,Davidson County,TN,NA,NA,68.8118811881188
37330,Franklin County,TN,58.917197452229296,NA,NA
37331,McMinn County,TN,66.2420382165605,NA,NA
37347,Marion County,TN,68.15286624203821,NA,NA
37363,Hamilton County,TN,32.802547770700635,NA,NA
37385,Monroe County,TN,70.06369426751591,NA,NA
37660,Sullivan County,TN,NA,7.079646017699115,NA
37683,Johnson County,TN,48.089171974522294,NA,NA
37716,Anderson County,TN,NA,93.80530973451327,NA
37757,Campbell County,TN,75.15923566878982,NA,NA
37760,Jefferson County,TN,75.79617834394905,NA,NA
37914,Knox County,TN,NA,26.991150442477874,NA
38024,Dyer County,TN,NA,25.221238938053098,NA
38109,Shelby County,TN,29.936305732484076,NA,NA
38128,Shelby County,TN,16.878980891719745,NA,NA
38201,Carroll County,TN,NA,57.9646017699115,NA
38242,Henry County,TN,NA,27.43362831858407,NA
38351,Henderson County,TN,NA,80.08849557522124,NA
38556,Fentress County,TN,NA,NA,98.01980198019803
38583,White County,TN,64.96815286624204,NA,NA
75061,Dallas County,TX,NA,NA,40.5940594059406
75090,Grayson County,TX,38.853503184713375,NA,NA
75115,Dallas County,TX,18.152866242038215,NA,NA
75147,Kaufman County,TX,81.52866242038218,NA,NA
75159,Dallas County,TX,NA,60.17699115044248,NA
75231,Dallas County,TX,NA,50.442477876106196,NA
75559,Bowie County,TX,NA,73.89380530973452,NA
75633,Panola County,TX,94.90445859872611,NA,NA
75647,Gregg County,TX,NA,NA,78.71287128712872
75701,Smith County,TX,NA,11.504424778761061,NA
75703,Smith County,TX,NA,NA,2.9702970297029703
75904,Angelina County,TX,NA,37.16814159292036,NA
76015,Tarrant County,TX,69.7452229299363,NA,NA
76023,Wise County,TX,NA,99.5575221238938,NA
76087,Parker County,TX,NA,NA,72.77227722772277
76111,Tarrant County,TX,64.01273885350318,NA,NA
76182,Tarrant County,TX,NA,24.336283185840706,NA
76302,Wichita County,TX,NA,79.20353982300885,NA
76513,Bell County,TX,NA,NA,0
77021,Harris County,TX,NA,NA,42.57425742574257
77088,Harris County,TX,NA,NA,41.089108910891085
77092,Harris County,TX,NA,NA,84.65346534653465
77096,Harris County,TX,51.27388535031847,NA,44.05940594059406
77338,Harris County,TX,35.6687898089172,NA,NA
77371,San Jacinto County,TX,NA,71.68141592920354,NA
77414,Matagorda County,TX,35.03184713375796,NA,NA
77433,Harris County,TX,NA,NA,65.34653465346535
77469,Fort Bend County,TX,21.97452229299363,NA,NA
77523,Chambers County,TX,NA,NA,97.52475247524752
77530,Harris County,TX,50.318471337579616,NA,NA
77541,Brazoria County,TX,NA,67.69911504424779,NA
77563,Galveston County,TX,NA,38.49557522123894,NA
77575,Liberty County,TX,NA,46.902654867256636,NA
77591,Galveston County,TX,NA,86.72566371681415,NA
78043,Webb County,TX,NA,19.469026548672566,76.73267326732673
78207,Bexar County,TX,NA,NA,22.277227722772277
78212,Bexar County,TX,NA,29.646017699115045,NA
78216,Bexar County,TX,NA,NA,51.48514851485149
78227,Bexar County,TX,27.70700636942675,NA,NA
78228,Bexar County,TX,52.86624203821656,NA,NA
78516,Hidalgo County,TX,NA,62.38938053097345,NA
78521,Cameron County,TX,83.43949044585987,NA,NA
78550,Cameron County,TX,NA,NA,25.742574257425744
78552,Cameron County,TX,NA,88.05309734513274,NA
78582,Starr County,TX,NA,30.973451327433626,NA
78839,Zavala County,TX,NA,NA,83.16831683168317
79701,Midland County,TX,62.42038216560509,NA,NA
79703,Midland County,TX,NA,NA,80.6930693069307
79707,Midland County,TX,56.05095541401274,NA,NA
79762,Ector County,TX,21.337579617834397,NA,NA
79902,El Paso County,TX,NA,NA,91.58415841584159
84401,Weber County,UT,NA,39.38053097345133,NA
84404,Weber County,UT,17.8343949044586,NA,NA
84770,Washington County,UT,NA,NA,33.16831683168317
05819,Caledonia County,VT,93.94904458598727,NA,NA
20132,Loudoun County,VA,NA,NA,92.57425742574257
20171,Fairfax County,VA,NA,85.39823008849558,NA
20175,Loudoun County,VA,NA,55.75221238938053,NA
22031,Fairfax County,VA,NA,NA,82.17821782178217
22181,Fairfax County,VA,NA,NA,95.04950495049505
22193,Prince William County,VA,63.37579617834395,NA,37.12871287128713
22207,Arlington County,VA,NA,NA,74.75247524752476
22312,Fairfax County,VA,34.394904458598724,NA,NA
22657,Shenandoah County,VA,NA,56.63716814159292,NA
22701,Culpeper County,VA,NA,NA,86.63366336633663
23221,Richmond city,VA,NA,NA,67.32673267326733
23223,Henrico County,VA,44.26751592356688,NA,NA
23229,Henrico County,VA,80.57324840764332,NA,NA
23513,Norfolk city,VA,15.605095541401273,NA,NA
23602,Newport News city,VA,NA,72.12389380530973,NA
23606,Newport News city,VA,69.10828025477707,NA,NA
23669,Hampton city,VA,18.789808917197455,NA,72.27722772277228
23704,Portsmouth city,VA,NA,41.5929203539823,NA
24148,Henry County,VA,NA,NA,81.1881188118812
24151,Franklin County,VA,NA,NA,52.475247524752476
24179,Roanoke County,VA,69.42675159235668,NA,NA
24202,Washington County,VA,85.03184713375796,NA,NA
24343,Carroll County,VA,NA,56.19469026548673,NA
24501,Lynchburg city,VA,NA,NA,88.61386138613861
24541,Danville city,VA,NA,53.53982300884957,NA
98339,Jefferson County,WA,NA,74.77876106194691,NA
98368,Jefferson County,WA,57.64331210191082,NA,NA
98373,Pierce County,WA,NA,77.87610619469027,NA
98944,Yakima County,WA,NA,NA,51.98019801980198
99208,Spokane County,WA,NA,92.03539823008849,NA
20011,District of Columbia,DC,NA,NA,5.445544554455446
20020,District of Columbia,DC,NA,5.752212389380531,NA
20024,District of Columbia,DC,NA,47.78761061946903,NA
25271,Jackson County,WV,NA,47.34513274336283,NA
25880,Raleigh County,WV,68.47133757961782,NA,NA
25962,Greenbrier County,WV,85.35031847133759,NA,NA
26101,Wood County,WV,5.095541401273886,NA,47.02970297029702
26757,Hampshire County,WV,95.54140127388536,NA,NA
53072,Waukesha County,WI,50.63694267515923,NA,NA
53143,Kenosha County,WI,NA,19.02654867256637,NA
53202,Milwaukee County,WI,39.171974522293,NA,NA
53205,Milwaukee County,WI,2.229299363057325,NA,NA
53209,Milwaukee County,WI,1.910828025477707,NA,NA
53218,Milwaukee County,WI,NA,7.52212389380531,NA
53220,Milwaukee County,WI,55.095541401273884,NA,NA
53224,Milwaukee County,WI,NA,63.716814159292035,NA
53225,Milwaukee County,WI,29.617834394904456,NA,NA
53536,Rock County,WI,82.16560509554141,NA,NA
53566,Green County,WI,42.99363057324841,NA,NA
53718,Dane County,WI,90.44585987261146,NA,NA
54114,Marinette County,WI,NA,NA,64.85148514851485
54166,Shawano County,WI,NA,38.93805309734513,NA
54241,Manitowoc County,WI,NA,89.82300884955751,NA
54481,Portage County,WI,NA,NA,95.54455445544554
54660,Monroe County,WI,40.445859872611464,NA,NA
54935,Fond du Lac County,WI,NA,11.061946902654867,NA
54983,Waupaca County,WI,NA,82.30088495575221,NA
