ZipCode,county,state,Adult,Retirement,Geriatric
35007,Shelby County,AL,46.742209631728045,NA,NA
35055,Cullman County,AL,72.80453257790369,NA,NA
35127,Jefferson County,AL,NA,NA,96.6824644549763
35210,Jefferson County,AL,NA,82.82548476454294,NA
35474,Hale County,AL,NA,NA,80.80568720379146
35475,Tuscaloosa County,AL,45.609065155807365,NA,NA
35601,Morgan County,AL,12.181303116147308,16.343490304709142,NA
35630,Lauderdale County,AL,NA,NA,41.943127962085306
35646,Colbert County,AL,NA,NA,91.4691943127962
35805,Madison County,AL,39.94334277620396,NA,NA
35806,Madison County,AL,NA,55.124653739612185,NA
35816,Madison County,AL,NA,NA,81.51658767772511
36105,Montgomery County,AL,NA,NA,77.48815165876776
36110,Montgomery County,AL,NA,NA,69.66824644549763
36201,Calhoun County,AL,54.95750708215298,NA,NA
36545,Clarke County,AL,NA,81.16343490304709,NA
36862,Chambers County,AL,NA,85.87257617728532,NA
36863,Chambers County,AL,NA,82.27146814404432,NA
85014,Maricopa County,AZ,93.20113314447592,NA,NA
85031,Maricopa County,AZ,NA,NA,77.72511848341233
85037,Maricopa County,AZ,21.246458923512748,NA,NA
85224,Maricopa County,AZ,40.226628895184135,81.7174515235457,NA
85226,Maricopa County,AZ,71.10481586402267,NA,86.96682464454977
85295,Maricopa County,AZ,NA,69.80609418282549,NA
85335,Maricopa County,AZ,NA,50.96952908587258,NA
85351,Maricopa County,AZ,NA,10.249307479224377,NA
85353,Maricopa County,AZ,NA,NA,68.95734597156398
85381,Maricopa County,AZ,NA,NA,81.99052132701422
85602,Cochise County,AZ,75.92067988668555,NA,NA
85705,Pima County,AZ,NA,7.202216066481995,NA
85710,Pima County,AZ,NA,NA,6.161137440758294
85713,Pima County,AZ,43.90934844192634,8.86426592797784,NA
85714,Pima County,AZ,26.345609065155806,NA,NA
85748,Pima County,AZ,NA,64.54293628808865,NA
86045,Coconino County,AZ,20.679886685552407,NA,NA
86305,Yavapai County,AZ,NA,NA,87.44075829383885
86442,Mohave County,AZ,23.512747875354105,NA,NA
71801,Hempstead County,AR,NA,NA,56.872037914691944
71854,Miller County,AR,NA,NA,31.516587677725116
72114,Pulaski County,AR,NA,NA,85.54502369668246
72364,Crittenden County,AR,NA,NA,89.33649289099526
72758,Benton County,AR,75.3541076487252,NA,NA
72936,Sebastian County,AR,NA,100,NA
90003,Los Angeles County,CA,NA,NA,50.4739336492891
90024,Los Angeles County,CA,NA,NA,5.924170616113744
90032,Los Angeles County,CA,NA,NA,72.98578199052133
90036,Los Angeles County,CA,NA,NA,29.383886255924168
90040,Los Angeles County,CA,83.85269121813032,NA,NA
90043,Los Angeles County,CA,NA,NA,32.22748815165877
90048,Los Angeles County,CA,NA,79.50138504155125,NA
90061,Los Angeles County,CA,NA,66.20498614958449,NA
90063,Los Angeles County,CA,47.02549575070821,NA,NA
90065,Los Angeles County,CA,NA,77.5623268698061,NA
90066,Los Angeles County,CA,NA,NA,26.066350710900476
90220,Los Angeles County,CA,25.77903682719547,NA,NA
90221,Los Angeles County,CA,NA,NA,44.07582938388626
90242,Los Angeles County,CA,NA,53.18559556786704,NA
90255,Los Angeles County,CA,NA,NA,65.87677725118483
90292,Los Angeles County,CA,NA,NA,97.39336492890996
91311,Los Angeles County,CA,NA,74.51523545706371,NA
91706,Los Angeles County,CA,NA,63.1578947368421,NA
91737,San Bernardino County,CA,NA,52.07756232686981,NA
91761,San Bernardino County,CA,NA,32.96398891966759,NA
91767,Los Angeles County,CA,NA,NA,74.17061611374407
91901,San Diego County,CA,85.8356940509915,NA,NA
91950,San Diego County,CA,30.02832861189802,NA,NA
92011,San Diego County,CA,NA,58.72576177285319,NA
92071,San Diego County,CA,NA,NA,23.459715639810426
92113,San Diego County,CA,20.396600566572236,34.34903047091413,NA
92234,Riverside County,CA,NA,2.21606648199446,NA
92277,San Bernardino County,CA,98.58356940509914,NA,NA
92503,Riverside County,CA,NA,21.60664819944598,NA
92545,Riverside County,CA,NA,NA,64.92890995260665
92562,Riverside County,CA,90.08498583569406,NA,NA
92570,Riverside County,CA,NA,70.91412742382272,NA
92612,Orange County,CA,NA,NA,45.97156398104265
92626,Orange County,CA,NA,NA,76.54028436018957
92627,Orange County,CA,NA,NA,46.44549763033176
92683,Orange County,CA,NA,19.113573407202217,NA
92833,Orange County,CA,45.3257790368272,NA,NA
93065,Ventura County,CA,NA,20.498614958448755,NA
93221,Tulare County,CA,69.68838526912181,NA,NA
93291,Tulare County,CA,NA,NA,25.118483412322274
93436,Santa Barbara County,CA,NA,16.62049861495845,NA
93455,Santa Barbara County,CA,NA,74.23822714681441,NA
93534,Los Angeles County,CA,30.31161473087819,NA,NA
93550,Los Angeles County,CA,11.89801699716714,NA,NA
93705,Fresno County,CA,NA,NA,98.81516587677726
94061,San Mateo County,CA,NA,NA,15.402843601895736
94080,San Mateo County,CA,NA,NA,62.08530805687204
94089,Santa Clara County,CA,94.61756373937678,NA,NA
94103,San Francisco County,CA,NA,NA,12.559241706161137
94501,Alameda County,CA,NA,NA,72.03791469194313
94509,Contra Costa County,CA,17.847025495750707,NA,NA
94523,Contra Costa County,CA,NA,NA,83.17535545023696
94565,Contra Costa County,CA,NA,NA,22.274881516587676
94568,Alameda County,CA,NA,93.35180055401662,NA
94578,Alameda County,CA,79.3201133144476,NA,NA
94703,Alameda County,CA,NA,70.3601108033241,NA
94904,Marin County,CA,NA,94.73684210526315,NA
95020,Santa Clara County,CA,NA,NA,42.65402843601896
95033,Santa Cruz County,CA,NA,84.48753462603878,NA
95121,Santa Clara County,CA,64.30594900849859,NA,NA
95124,Santa Clara County,CA,NA,37.95013850415512,NA
95127,Santa Clara County,CA,NA,42.93628808864266,NA
95128,Santa Clara County,CA,73.37110481586402,NA,NA
95135,Santa Clara County,CA,NA,NA,74.88151658767772
95307,Stanislaus County,CA,NA,44.04432132963989,NA
95388,Merced County,CA,NA,NA,90.28436018957346
95425,Sonoma County,CA,NA,78.39335180055402,NA
95467,Lake County,CA,NA,83.37950138504155,NA
95482,Mendocino County,CA,NA,NA,34.12322274881517
95661,Placer County,CA,NA,50.69252077562327,NA
95662,Sacramento County,CA,NA,NA,36.018957345971565
95670,Sacramento County,CA,NA,31.301939058171747,NA
95682,El Dorado County,CA,NA,NA,22.511848341232227
95823,Sacramento County,CA,11.048158640226628,NA,NA
95926,Butte County,CA,NA,72.02216066481995,NA
95969,Butte County,CA,NA,33.795013850415515,NA
96007,Shasta County,CA,94.3342776203966,NA,NA
96013,Shasta County,CA,NA,71.74515235457064,NA
80023,Broomfield County,CO,NA,NA,72.27488151658767
80212,Denver County,CO,NA,63.711911357340725,NA
80224,Denver County,CO,NA,NA,48.81516587677725
80228,Jefferson County,CO,NA,52.63157894736842,NA
80501,Boulder County,CO,NA,51.52354570637119,NA
80503,Boulder County,CO,58.07365439093485,NA,NA
80601,Adams County,CO,26.912181303116146,NA,NA
80903,El Paso County,CO,NA,77.8393351800554,NA
80918,El Paso County,CO,97.73371104815864,NA,NA
81004,Pueblo County,CO,NA,29.085872576177284,NA
81212,Fremont County,CO,34.844192634560905,NA,NA
06040,Hartford County,CT,9.34844192634561,NA,NA
06074,Hartford County,CT,NA,NA,25.355450236966824
06120,Hartford County,CT,45.04249291784703,NA,NA
06418,New Haven County,CT,NA,61.772853185595565,NA
06516,New Haven County,CT,NA,NA,9.715639810426541
06615,Fairfield County,CT,NA,54.016620498614955,NA
06716,New Haven County,CT,90.93484419263456,NA,NA
19720,New Castle County,DE,NA,69.52908587257618,NA
19805,New Castle County,DE,15.864022662889518,NA,NA
19808,New Castle County,DE,NA,NA,6.398104265402843
32011,Nassau County,FL,NA,NA,47.39336492890995
32055,Columbia County,FL,NA,NA,55.687203791469194
32092,St. Johns County,FL,NA,NA,53.317535545023695
32114,Volusia County,FL,NA,NA,77.01421800947867
32130,Volusia County,FL,91.78470254957507,NA,NA
32162,Sumter County,FL,NA,1.9390581717451523,NA
32174,Volusia County,FL,NA,12.465373961218837,NA
32210,Duval County,FL,32.577903682719544,NA,NA
32222,Duval County,FL,NA,NA,81.27962085308057
32250,Duval County,FL,NA,30.47091412742382,NA
32257,Duval County,FL,NA,23.26869806094183,NA
32305,Leon County,FL,NA,NA,72.74881516587678
32425,Holmes County,FL,NA,NA,66.82464454976304
32501,Escambia County,FL,50.991501416430594,38.504155124653735,NA
32533,Escambia County,FL,24.07932011331445,NA,NA
32566,Santa Rosa County,FL,NA,22.160664819944596,NA
32668,Levy County,FL,NA,NA,83.64928909952607
32708,Seminole County,FL,83.56940509915015,NA,NA
32738,Volusia County,FL,NA,NA,92.65402843601895
32778,Lake County,FL,NA,25.20775623268698,NA
32780,Brevard County,FL,NA,NA,4.502369668246446
32822,Orange County,FL,NA,NA,30.09478672985782
32828,Orange County,FL,NA,NA,61.61137440758294
32907,Brevard County,FL,NA,20.77562326869806,NA
33010,Miami-Dade County,FL,NA,NA,40.28436018957346
33016,Miami-Dade County,FL,50.70821529745042,NA,NA
33023,Broward County,FL,NA,42.38227146814405,NA
33024,Broward County,FL,NA,NA,18.95734597156398
33133,Miami-Dade County,FL,NA,NA,59.0047393364929
33134,Miami-Dade County,FL,NA,49.86149584487535,NA
33137,Miami-Dade County,FL,NA,79.77839335180056,NA
33140,Miami-Dade County,FL,NA,NA,20.379146919431278
33143,Miami-Dade County,FL,NA,61.21883656509696,NA
33155,Miami-Dade County,FL,NA,NA,11.374407582938389
33165,Miami-Dade County,FL,NA,NA,3.5545023696682465
33169,Miami-Dade County,FL,NA,46.26038781163435,NA
33173,Miami-Dade County,FL,NA,NA,16.113744075829384
33176,Miami-Dade County,FL,NA,NA,57.58293838862559
33193,Miami-Dade County,FL,NA,NA,45.497630331753555
33313,Broward County,FL,NA,NA,38.62559241706161
33321,Broward County,FL,NA,24.653739612188367,NA
33328,Broward County,FL,87.81869688385268,NA,NA
33406,Palm Beach County,FL,NA,NA,85.30805687203792
33444,Palm Beach County,FL,NA,85.0415512465374,NA
33460,Palm Beach County,FL,NA,55.67867036011081,NA
33486,Palm Beach County,FL,NA,NA,52.3696682464455
33566,Hillsborough County,FL,82.43626062322946,NA,NA
33578,Hillsborough County,FL,NA,NA,58.29383886255924
33612,Hillsborough County,FL,80.73654390934844,NA,NA
33625,Hillsborough County,FL,75.07082152974505,NA,NA
33705,Pinellas County,FL,NA,NA,40.52132701421801
33711,Pinellas County,FL,NA,67.86703601108033,NA
33772,Pinellas County,FL,NA,NA,36.25592417061612
33781,Pinellas County,FL,NA,36.288088642659275,NA
33813,Polk County,FL,76.48725212464589,NA,NA
33825,Highlands County,FL,47.875354107648725,NA,NA
33852,Highlands County,FL,NA,18.282548476454295,NA
33971,Lee County,FL,NA,89.75069252077562,NA
33981,Charlotte County,FL,NA,65.37396121883657,NA
34420,Marion County,FL,61.756373937677054,NA,NA
34434,Citrus County,FL,89.23512747875354,NA,NA
34653,Pasco County,FL,NA,NA,13.270142180094787
34668,Pasco County,FL,35.69405099150141,NA,NA
34952,St. Lucie County,FL,NA,9.141274238227147,NA
34972,Okeechobee County,FL,NA,NA,61.37440758293838
34997,Martin County,FL,NA,NA,4.739336492890995
30012,Rockdale County,GA,NA,73.68421052631578,NA
30017,Gwinnett County,GA,NA,94.18282548476455,NA
30033,DeKalb County,GA,86.96883852691218,NA,NA
30035,DeKalb County,GA,53.54107648725213,NA,NA
30052,Walton County,GA,NA,NA,54.502369668246445
30060,Cobb County,GA,NA,NA,56.39810426540285
30102,Cherokee County,GA,NA,NA,93.12796208530806
30110,Haralson County,GA,NA,75.34626038781164,NA
30113,Haralson County,GA,NA,75.62326869806094,NA
30120,Bartow County,GA,NA,NA,51.421800947867304
30157,Paulding County,GA,22.096317280453256,NA,NA
30220,Coweta County,GA,81.86968838526913,NA,NA
30236,Clayton County,GA,NA,39.335180055401665,51.65876777251185
30252,Henry County,GA,89.80169971671388,NA,NA
30311,Fulton County,GA,NA,68.42105263157895,NA
30316,DeKalb County,GA,NA,NA,42.41706161137441
30318,Fulton County,GA,NA,29.6398891966759,NA
30340,DeKalb County,GA,NA,NA,59.241706161137444
30349,Fulton County,GA,49.008498583569406,NA,NA
30401,Emanuel County,GA,62.3229461756374,81.99445983379502,NA
30521,Franklin County,GA,83.28611898016997,NA,NA
30655,Walton County,GA,NA,27.70083102493075,NA
31093,Houston County,GA,NA,NA,69.43127962085308
31204,Bibb County,GA,NA,25.761772853185594,NA
31206,Bibb County,GA,NA,49.03047091412742,NA
31217,Bibb County,GA,NA,84.7645429362881,NA
31404,Chatham County,GA,NA,NA,41.23222748815166
31406,Chatham County,GA,NA,26.869806094182824,NA
31415,Chatham County,GA,NA,80.88642659279779,NA
31701,Dougherty County,GA,NA,36.56509695290859,NA
31707,Dougherty County,GA,NA,NA,84.12322274881517
31714,Turner County,GA,89.51841359773371,NA,NA
39837,Miller County,GA,NA,92.797783933518,NA
96816,Honolulu County,HI,NA,NA,4.976303317535545
83204,Bannock County,ID,NA,55.4016620498615,NA
83501,Nez Perce County,ID,NA,57.61772853185596,NA
83713,Ada County,ID,NA,NA,90.04739336492891
60005,Cook County,IL,51.55807365439094,NA,NA
60048,Lake County,IL,NA,NA,33.175355450236964
60067,Cook County,IL,NA,NA,12.322274881516588
60068,Cook County,IL,62.889518413597735,NA,NA
60089,Lake County,IL,34.56090651558073,NA,NA
60098,McHenry County,IL,NA,15.789473684210526,NA
60126,DuPage County,IL,NA,3.32409972299169,NA
60137,DuPage County,IL,NA,NA,11.61137440758294
60155,Cook County,IL,NA,81.4404432132964,NA
60172,DuPage County,IL,NA,NA,51.65876777251185
60178,DeKalb County,IL,72.52124645892351,NA,NA
60188,DuPage County,IL,96.03399433427762,NA,NA
60191,DuPage County,IL,NA,48.476454293628805,NA
60409,Cook County,IL,24.645892351274785,NA,NA
60433,Will County,IL,88.6685552407932,NA,74.64454976303317
60440,Will County,IL,NA,16.06648199445983,NA
60445,Cook County,IL,NA,NA,63.03317535545023
60473,Cook County,IL,NA,NA,24.881516587677723
60608,Cook County,IL,61.47308781869688,NA,NA
60610,Cook County,IL,NA,NA,17.77251184834123
60611,Cook County,IL,NA,NA,9.47867298578199
60616,Cook County,IL,NA,NA,21.09004739336493
60617,Cook County,IL,NA,NA,1.4218009478672986
60620,Cook County,IL,NA,3.8781163434903045,NA
60625,Cook County,IL,61.18980169971672,NA,NA
60632,Cook County,IL,12.464589235127479,NA,NA
60633,Cook County,IL,NA,NA,52.843601895734594
60634,Cook County,IL,9.06515580736544,NA,NA
60640,Cook County,IL,7.365439093484419,NA,NA
60643,Cook County,IL,NA,NA,34.360189573459714
60644,Cook County,IL,64.87252124645893,NA,81.04265402843602
60654,Cook County,IL,NA,75.90027700831024,NA
60827,Cook County,IL,66.85552407932012,NA,NA
61081,Whiteside County,IL,NA,NA,79.85781990521326
61101,Winnebago County,IL,NA,NA,39.09952606635071
61350,LaSalle County,IL,NA,NA,26.77725118483412
61362,Bureau County,IL,NA,82.54847645429363,NA
61530,Woodford County,IL,92.3512747875354,NA,NA
61554,Tazewell County,IL,NA,40.443213296398895,NA
61611,Tazewell County,IL,NA,NA,40.99526066350711
61727,De Witt County,IL,81.30311614730878,NA,NA
62024,Madison County,IL,NA,NA,62.796208530805686
62025,Madison County,IL,59.20679886685553,NA,NA
62221,St. Clair County,IL,NA,NA,55.45023696682464
62471,Fayette County,IL,80.16997167138811,NA,NA
62526,Macon County,IL,10.764872521246458,NA,NA
46041,Clinton County,IN,27.47875354107649,NA,NA
46123,Hendricks County,IN,NA,NA,30.568720379146917
46163,Hancock County,IN,79.03682719546742,NA,NA
46204,Marion County,IN,NA,83.93351800554017,NA
46222,Marion County,IN,16.43059490084986,NA,NA
46307,Lake County,IN,NA,NA,1.8957345971563981
46342,Lake County,IN,NA,NA,16.824644549763033
46350,LaPorte County,IN,7.64872521246459,NA,NA
46385,Porter County,IN,NA,NA,19.90521327014218
46410,Lake County,IN,NA,NA,54.02843601895735
46516,Elkhart County,IN,NA,NA,69.19431279620854
46517,Elkhart County,IN,NA,84.21052631578947,NA
46544,St. Joseph County,IN,NA,NA,36.25592417061612
46748,Allen County,IN,86.40226628895185,NA,NA
46761,LaGrange County,IN,NA,98.61495844875347,NA
46815,Allen County,IN,26.062322946175637,NA,NA
46818,Allen County,IN,63.172804532577906,NA,NA
46901,Howard County,IN,NA,4.43213296398892,NA
46902,Howard County,IN,NA,88.36565096952909,NA
46933,Grant County,IN,NA,NA,60.18957345971564
47130,Clark County,IN,NA,5.263157894736842,NA
47203,Bartholomew County,IN,NA,21.052631578947366,NA
47394,Randolph County,IN,64.58923512747874,NA,NA
47712,Vanderburgh County,IN,48.725212464589234,NA,NA
50036,Boone County,IA,NA,NA,52.60663507109005
50310,Polk County,IA,NA,NA,37.91469194312796
50501,Webster County,IA,NA,NA,57.81990521327014
50701,Black Hawk County,IA,82.15297450424929,NA,NA
51247,Sioux County,IA,NA,NA,100
51503,Pottawattamie County,IA,NA,44.87534626038781,NA
52402,Linn County,IA,NA,24.37673130193906,NA
52403,Linn County,IA,NA,96.1218836565097,NA
52655,Des Moines County,IA,NA,NA,99.52606635071089
52722,Scott County,IA,NA,26.59279778393352,NA
66112,Wyandotte County,KS,77.90368271954674,NA,NA
66203,Johnson County,KS,NA,62.603878116343495,NA
66217,Johnson County,KS,NA,95.56786703601108,NA
66219,Johnson County,KS,NA,NA,88.62559241706161
67217,Sedgwick County,KS,NA,70.08310249307479,NA
67357,Labette County,KS,44.47592067988669,NA,NA
40067,Shelby County,KY,97.16713881019831,NA,NA
40165,Bullitt County,KY,13.59773371104816,NA,NA
40214,Jefferson County,KY,6.232294617563739,NA,NA
40218,Jefferson County,KY,NA,67.03601108033241,NA
40220,Jefferson County,KY,NA,NA,20.14218009478673
40223,Jefferson County,KY,NA,NA,90.99526066350711
40243,Jefferson County,KY,NA,NA,48.34123222748815
40272,Jefferson County,KY,NA,49.307479224376735,NA
40356,Jessamine County,KY,39.09348441926346,NA,NA
40391,Clark County,KY,6.79886685552408,NA,NA
40504,Fayette County,KY,38.243626062322946,NA,NA
40508,Fayette County,KY,NA,NA,67.06161137440758
40729,Laurel County,KY,87.25212464589235,NA,NA
41016,Kenton County,KY,71.95467422096317,NA,NA
41018,Kenton County,KY,NA,NA,54.2654028436019
41075,Campbell County,KY,NA,73.13019390581718,NA
41101,Boyd County,KY,NA,50.41551246537396,NA
41141,Lewis County,KY,NA,97.50692520775624,NA
42029,Marshall County,KY,91.5014164305949,NA,NA
42071,Calloway County,KY,36.26062322946176,NA,NA
42101,Warren County,KY,5.94900849858357,NA,NA
42210,Edmonson County,KY,NA,NA,96.2085308056872
42420,Henderson County,KY,NA,13.850415512465375,NA
70043,St. Bernard Parish,LA,NA,NA,75.35545023696683
70068,St. John the Baptist Parish,LA,NA,NA,98.5781990521327
70454,Tangipahoa Parish,LA,NA,NA,29.85781990521327
70508,Lafayette Parish,LA,NA,19.390581717451525,NA
70546,Jefferson Davis Parish,LA,56.09065155807366,NA,NA
70570,St. Landry Parish,LA,1.13314447592068,NA,NA
70601,Calcasieu Parish,LA,NA,NA,25.59241706161137
70806,East Baton Rouge Parish,LA,37.6770538243626,NA,NA
70811,East Baton Rouge Parish,LA,NA,66.7590027700831,NA
71115,Caddo Parish,LA,NA,92.5207756232687,NA
71263,West Carroll Parish,LA,NA,NA,48.5781990521327
71291,Ouachita Parish,LA,NA,NA,21.80094786729858
71322,Avoyelles Parish,LA,NA,NA,94.3127962085308
71405,Rapides Parish,LA,100,NA,NA
71409,Rapides Parish,LA,62.606232294617556,NA,NA
04005,York County,ME,NA,67.31301939058172,NA
04073,York County,ME,19.54674220963173,NA,NA
04103,Cumberland County,ME,84.70254957507082,NA,NA
04210,Androscoggin County,ME,NA,38.227146814404435,NA
04240,Androscoggin County,ME,NA,2.4930747922437675,NA
04281,Oxford County,ME,67.13881019830028,NA,NA
04364,Kennebec County,ME,53.25779036827195,NA,NA
04401,Penobscot County,ME,NA,32.686980609418285,NA
04605,Hancock County,ME,88.95184135977338,NA,NA
20646,Charles County,MD,NA,NA,70.85308056872039
20737,Prince George's County,MD,NA,91.96675900277008,NA
20743,Prince George's County,MD,NA,NA,44.312796208530806
20772,Prince George's County,MD,43.05949008498583,NA,NA
20814,Montgomery County,MD,NA,NA,65.16587677725119
20879,Montgomery County,MD,76.20396600566572,NA,NA
21060,Anne Arundel County,MD,NA,NA,36.96682464454976
21093,Baltimore County,MD,NA,NA,82.93838862559242
21202,Baltimore city,MD,37.110481586402265,NA,NA
21205,Baltimore city,MD,NA,NA,45.7345971563981
21207,Baltimore County,MD,NA,NA,46.682464454976305
21211,Baltimore city,MD,NA,NA,69.90521327014217
21220,Baltimore County,MD,59.490084985835686,NA,NA
21230,Baltimore city,MD,NA,NA,63.74407582938388
21701,Frederick County,MD,NA,54.84764542936288,NA
21704,Frederick County,MD,NA,NA,94.07582938388626
21713,Washington County,MD,98.30028328611898,NA,NA
21783,Washington County,MD,NA,86.14958448753463,NA
21787,Carroll County,MD,NA,NA,74.40758293838863
01001,Hampden County,MA,NA,20.221606648199447,NA
01027,Hampshire County,MA,69.97167138810198,NA,NA
01028,Hampden County,MA,39.376770538243626,NA,NA
01030,Hampden County,MA,NA,89.19667590027701,NA
01040,Hampden County,MA,0,NA,NA
01056,Hampden County,MA,NA,NA,10.189573459715639
01108,Hampden County,MA,NA,59.2797783933518,NA
01109,Hampden County,MA,31.728045325779036,NA,NA
01119,Hampden County,MA,41.359773371104815,NA,NA
01201,Berkshire County,MA,33.711048158640224,NA,NA
01247,Berkshire County,MA,5.382436260623229,NA,50.947867298578196
01331,Worcester County,MA,4.53257790368272,NA,NA
01364,Franklin County,MA,NA,21.88365650969529,NA
01420,Worcester County,MA,NA,NA,28.199052132701425
01436,Worcester County,MA,NA,NA,95.260663507109
01606,Worcester County,MA,NA,NA,8.056872037914692
01730,Middlesex County,MA,NA,NA,94.7867298578199
01760,Middlesex County,MA,8.78186968838527,NA,NA
01775,Middlesex County,MA,NA,NA,96.91943127962085
01801,Middlesex County,MA,NA,11.911357340720222,NA
01844,Essex County,MA,0.84985835694051,NA,NA
01863,Middlesex County,MA,NA,55.95567867036011,NA
01902,Essex County,MA,NA,NA,1.6587677725118484
02019,Norfolk County,MA,29.178470254957507,NA,NA
02135,Suffolk County,MA,NA,39.05817174515235,NA
02136,Suffolk County,MA,1.69971671388102,NA,NA
02149,Middlesex County,MA,NA,0.554016620498615,NA
02152,Suffolk County,MA,NA,8.310249307479225,NA
02155,Middlesex County,MA,NA,NA,0
02364,Plymouth County,MA,80.45325779036827,NA,NA
02370,Plymouth County,MA,NA,NA,98.10426540284361
02478,Middlesex County,MA,NA,24.099722991689752,NA
02632,Barnstable County,MA,44.19263456090651,NA,NA
02740,Bristol County,MA,NA,4.1551246537396125,NA
02777,Bristol County,MA,NA,NA,35.07109004739337
02780,Bristol County,MA,NA,1.10803324099723,9.004739336492891
48042,Macomb County,MI,NA,NA,58.0568720379147
48073,Oakland County,MI,56.657223796033996,33.51800554016621,NA
48186,Wayne County,MI,NA,12.18836565096953,NA
48192,Wayne County,MI,NA,60.94182825484764,NA
48203,Wayne County,MI,NA,NA,35.78199052132701
48206,Wayne County,MI,NA,26.038781163434905,NA
48210,Wayne County,MI,21.529745042492916,NA,67.29857819905213
48214,Wayne County,MI,48.44192634560906,NA,NA
48218,Wayne County,MI,NA,75.06925207756233,NA
48221,Wayne County,MI,NA,NA,2.132701421800948
48223,Wayne County,MI,NA,NA,50.947867298578196
48235,Wayne County,MI,NA,NA,9.95260663507109
48239,Wayne County,MI,NA,10.526315789473683,67.77251184834124
48307,Oakland County,MI,NA,NA,13.507109004739338
48314,Macomb County,MI,NA,NA,53.79146919431279
48323,Oakland County,MI,NA,40.99722991689751,NA
48342,Oakland County,MI,39.376770538243626,NA,NA
48346,Oakland County,MI,NA,NA,39.09952606635071
48357,Oakland County,MI,NA,65.09695290858726,NA
48381,Oakland County,MI,NA,NA,43.3649289099526
48442,Oakland County,MI,NA,45.42936288088642,NA
48506,Genesee County,MI,NA,37.67313019390582,NA
48602,Saginaw County,MI,NA,11.357340720221606,NA
48629,Roscommon County,MI,96.88385269121812,NA,NA
48632,Clare County,MI,97.45042492917847,NA,NA
48640,Midland County,MI,28.89518413597734,NA,NA
48910,Ingham County,MI,NA,14.681440443213297,NA
49015,Calhoun County,MI,NA,NA,13.981042654028435
49028,Branch County,MI,NA,NA,86.7298578199052
49046,Barry County,MI,99.43342776203966,NA,NA
49093,St. Joseph County,MI,NA,NA,32.70142180094787
49221,Lenawee County,MI,3.6827195467422094,NA,NA
49230,Jackson County,MI,NA,44.59833795013851,NA
49327,Newaygo County,MI,68.83852691218131,NA,NA
49417,Ottawa County,MI,43.626062322946176,NA,NA
49546,Kent County,MI,NA,30.193905817174517,NA
49659,Antrim County,MI,67.70538243626062,NA,NA
49663,Wexford County,MI,NA,NA,92.41706161137441
49690,Grand Traverse County,MI,NA,NA,88.15165876777252
49707,Alpena County,MI,NA,NA,13.744075829383887
49802,Dickinson County,MI,NA,97.229916897506925,NA
49829,Delta County,MI,NA,58.448753462603875,NA
55066,Goodhue County,MN,NA,18.005540166204987,NA
55082,Washington County,MN,70.53824362606233,NA,NA
55106,Ramsey County,MN,5.6657223796034,NA,NA
55116,Ramsey County,MN,NA,NA,42.65402843601896
55125,Washington County,MN,NA,NA,35.308056872037916
55306,Dakota County,MN,96.3172804532578,NA,NA
55337,Dakota County,MN,NA,NA,27.72511848341232
55344,Hennepin County,MN,NA,NA,85.07109004739335
55350,McLeod County,MN,55.80736543909348,NA,NA
55369,Hennepin County,MN,58.92351274787535,NA,NA
55432,Anoka County,MN,52.124645892351275,41.82825484764543,NA
55811,St. Louis County,MN,69.12181303116147,NA,NA
55987,Winona County,MN,NA,40.7202216066482,NA
56031,Martin County,MN,NA,NA,82.46445497630332
56187,Nobles County,MN,NA,78.94736842105263,NA
56501,Becker County,MN,32.01133144475921,NA,NA
56560,Clay County,MN,NA,88.08864265927978,NA
38652,Union County,MS,NA,NA,75.82938388625593
38654,DeSoto County,MS,NA,NA,27.96208530805687
38666,Panola County,MS,NA,NA,86.25592417061611
38703,Washington County,MS,NA,NA,73.22274881516587
38751,Sunflower County,MS,NA,NA,98.34123222748815
38930,Leflore County,MS,NA,NA,27.488151658767773
39046,Madison County,MS,23.229461756373937,NA,NA
39069,Jefferson County,MS,73.08781869688386,NA,NA
39073,Rankin County,MS,NA,NA,63.98104265402843
39114,Simpson County,MS,67.98866855524079,NA,NA
39117,Scott County,MS,NA,NA,60.90047393364929
39183,Warren County,MS,56.94050991501416,NA,NA
39194,Yazoo County,MS,NA,NA,72.51184834123224
39208,Rankin County,MS,NA,NA,24.407582938388625
39209,Hinds County,MS,18.69688385269122,44.32132963988919,NA
39213,Hinds County,MS,NA,85.3185595567867,NA
39350,Neshoba County,MS,NA,28.254847645429365,NA
39428,Covington County,MS,95.75070821529745,NA,NA
39452,George County,MS,NA,NA,31.753554502369667
39466,Pearl River County,MS,NA,NA,68.00947867298578
39503,Harrison County,MS,9.631728045325778,NA,NA
39702,Lowndes County,MS,NA,73.40720221606648,NA
63023,Jefferson County,MO,94.90084985835693,NA,NA
63033,St. Louis County,MO,NA,NA,32.46445497630332
63049,Jefferson County,MO,NA,58.17174515235457,NA
63084,Franklin County,MO,50.14164305949008,NA,NA
63089,Franklin County,MO,81.58640226628894,NA,NA
63111,St. Louis city,MO,27.19546742209632,NA,NA
63123,St. Louis County,MO,30.59490084985836,NA,NA
63128,St. Louis County,MO,NA,NA,49.5260663507109
63129,St. Louis County,MO,NA,6.9252077562326875,NA
63135,St. Louis County,MO,NA,29.916897506925206,NA
63147,St. Louis city,MO,53.82436260623229,NA,NA
63301,St. Charles County,MO,NA,NA,2.6066350710900474
63501,Adair County,MO,NA,NA,62.55924170616114
63670,Ste. Genevieve County,MO,54.107648725212464,NA,NA
63701,Cape Girardeau County,MO,NA,95.84487534626038,NA
63801,Scott County,MO,78.47025495750708,NA,NA
63845,Mississippi County,MO,91.21813031161473,NA,NA
64050,Jackson County,MO,65.72237960339945,NA,NA
64055,Jackson County,MO,NA,NA,13.033175355450238
64093,Johnson County,MO,NA,NA,39.57345971563981
64109,Jackson County,MO,NA,35.18005540166205,NA
64130,Jackson County,MO,NA,19.667590027700832,NA
64133,Jackson County,MO,NA,NA,27.014218009478675
64134,Jackson County,MO,NA,NA,58.29383886255924
64506,Buchanan County,MO,NA,NA,77.96208530805687
64601,Livingston County,MO,NA,41.27423822714682,NA
64804,Jasper County,MO,NA,78.67036011080333,NA
65203,Boone County,MO,19.8300283286119,NA,NA
65270,Randolph County,MO,NA,86.42659279778393,NA
65355,Benton County,MO,NA,19.94459833795014,NA
65536,Laclede County,MO,NA,36.011080332409975,NA
65542,Texas County,MO,NA,NA,88.38862559241706
65560,Dent County,MO,NA,48.199445983379505,NA
65712,Lawrence County,MO,NA,NA,84.36018957345972
59405,Cascade County,MT,NA,NA,33.649289099526065
59715,Gallatin County,MT,47.59206798866856,NA,NA
59803,Missoula County,MT,92.63456090651559,NA,NA
68124,Douglas County,NE,NA,NA,58.767772511848335
68134,Douglas County,NE,NA,NA,49.28909952606635
68803,Hall County,NE,60.3399433427762,NA,NA
68845,Buffalo County,NE,75.63739376770539,NA,NA
69001,Red Willow County,NE,NA,87.53462603878116,NA
69153,Keith County,NE,NA,70.6371191135734,NA
89120,Clark County,NV,NA,77.28531855955679,NA
89121,Clark County,NV,NA,27.977839335180054,NA
89122,Clark County,NV,NA,96.39889196675901,NA
89134,Clark County,NV,NA,NA,11.848341232227488
03062,Hillsborough County,NH,NA,NA,14.454976303317535
03076,Hillsborough County,NH,NA,NA,89.57345971563981
03570,Coos County,NH,NA,74.79224376731301,NA
03842,Rockingham County,NH,NA,NA,93.8388625592417
07010,Bergen County,NJ,NA,NA,94.54976303317537
07065,Union County,NJ,51.84135977337111,NA,NA
07076,Union County,NJ,NA,68.97506925207756,NA
07083,Union County,NJ,NA,NA,25.829383886255926
07086,Hudson County,NJ,78.75354107648725,NA,NA
07106,Essex County,NJ,NA,31.57894736842105,NA
07108,Essex County,NJ,1.41643059490085,NA,NA
07111,Essex County,NJ,NA,NA,19.66824644549763
07508,Passaic County,NJ,NA,40.16620498614959,NA
07825,Warren County,NJ,NA,NA,91.23222748815166
07882,Warren County,NJ,NA,NA,65.16587677725119
08008,Ocean County,NJ,NA,NA,90.52132701421802
08021,Camden County,NJ,2.8328611898017,NA,NA
08028,Gloucester County,NJ,NA,NA,59.47867298578199
08046,Burlington County,NJ,22.379603399433428,NA,NA
08054,Burlington County,NJ,NA,15.23545706371191,NA
08075,Burlington County,NJ,NA,27.42382271468144,NA
08077,Burlington County,NJ,NA,57.340720221606645,NA
08078,Camden County,NJ,NA,NA,95.02369668246445
08081,Camden County,NJ,NA,8.033240997229916,NA
08096,Gloucester County,NJ,36.54390934844193,NA,NA
08205,Atlantic County,NJ,NA,NA,34.59715639810427
08361,Cumberland County,NJ,NA,NA,42.18009478672986
08401,Atlantic County,NJ,0.28328611898017,NA,NA
08609,Mercer County,NJ,10.198300283286118,NA,NA
08611,Mercer County,NJ,NA,61.495844875346265,NA
08618,Mercer County,NJ,NA,7.479224376731302,NA
08701,Ocean County,NJ,NA,9.418282548476455,NA
08753,Ocean County,NJ,NA,4.7091412742382275,NA
08861,Middlesex County,NJ,NA,NA,18.48341232227488
08873,Somerset County,NJ,14.164305949008499,NA,17.298578199052134
87031,Valencia County,NM,NA,27.146814404432135,NA
87110,Bernalillo County,NM,NA,9.695290858725762,NA
87144,Sandoval County,NM,NA,NA,44.54976303317535
87740,Colfax County,NM,74.5042492917847,NA,NA
88007,Doa Ana County,NM,NA,76.17728531855957,NA
10035,New York County,NY,NA,37.119113573407205,NA
10044,New York County,NY,NA,78.1163434903047,93.60189573459715
10312,Richmond County,NY,65.15580736543909,NA,NA
10456,Bronx County,NY,NA,0,NA
10466,Bronx County,NY,NA,NA,8.530805687203792
10467,Bronx County,NY,NA,NA,14.218009478672986
10469,Bronx County,NY,NA,NA,67.53554502369668
10552,Westchester County,NY,NA,NA,63.507109004739334
10567,Westchester County,NY,NA,NA,53.08056872037915
10583,Westchester County,NY,NA,NA,27.251184834123222
10703,Westchester County,NY,NA,59.556786703601105,NA
10710,Westchester County,NY,NA,NA,38.15165876777251
10924,Orange County,NY,NA,NA,59.71563981042654
11010,Nassau County,NY,NA,NA,71.32701421800948
11021,Nassau County,NY,NA,NA,44.78672985781991
11102,Queens County,NY,41.07648725212464,NA,NA
11205,Kings County,NY,NA,18.83656509695291,NA
11207,Kings County,NY,11.614730878186968,NA,NA
11210,Kings County,NY,NA,NA,29.620853080568722
11215,Kings County,NY,26.628895184135974,NA,NA
11216,Kings County,NY,NA,NA,17.77251184834123
11218,Kings County,NY,NA,NA,5.687203791469194
11219,Kings County,NY,NA,NA,10.90047393364929
11220,Kings County,NY,16.147308781869686,NA,NA
11221,Kings County,NY,NA,3.6011080332409975,NA
11223,Kings County,NY,NA,NA,31.27962085308057
11224,Kings County,NY,NA,NA,0.7109004739336493
11226,Kings County,NY,16.71388101983003,NA,8.767772511848342
11229,Kings County,NY,NA,NA,2.3696682464454977
11230,Kings County,NY,NA,9.97229916897507,NA
11233,Kings County,NY,46.45892351274787,NA,7.345971563981042
11234,Kings County,NY,NA,NA,15.165876777251185
11235,Kings County,NY,NA,NA,0.47393364928909953
11354,Queens County,NY,41.92634560906516,NA,21.563981042654028
11357,Queens County,NY,NA,43.21329639889196,NA
11367,Queens County,NY,NA,NA,49.052132701421804
11368,Queens County,NY,NA,NA,14.928909952606634
11415,Queens County,NY,NA,98.06094182825484,NA
11423,Queens County,NY,NA,NA,91.9431279620853
11435,Queens County,NY,NA,NA,26.540284360189574
11542,Nassau County,NY,88.10198300283287,48.476454293628805,NA
11561,Nassau County,NY,NA,NA,21.32701421800948
11575,Nassau County,NY,NA,98.89196675900277,NA
11580,Nassau County,NY,NA,97.78393351800554,NA
11598,Nassau County,NY,87.53541076487252,NA,NA
11691,Queens County,NY,NA,34.07202216066482,NA
11725,Suffolk County,NY,NA,60.387811634349035,NA
11741,Suffolk County,NY,NA,NA,73.69668246445498
11742,Suffolk County,NY,NA,88.9196675900277,NA
11772,Suffolk County,NY,25.495750708215297,NA,NA
11949,Suffolk County,NY,NA,NA,78.67298578199052
11950,Suffolk County,NY,NA,76.45429362880887,NA
12210,Albany County,NY,54.39093484419264,NA,NA
12498,Ulster County,NY,NA,86.70360110803324,NA
12550,Orange County,NY,NA,51.8005540166205,NA
12831,Saratoga County,NY,NA,47.091412742382275,NA
12901,Clinton County,NY,2.5495750708215295,NA,NA
13021,Cayuga County,NY,NA,1.662049861495845,NA
13027,Onondaga County,NY,NA,17.174515235457065,NA
13203,Onondaga County,NY,NA,NA,65.63981042654028
13208,Onondaga County,NY,35.41076487252124,NA,NA
13365,Herkimer County,NY,NA,NA,45.26066350710901
13440,Oneida County,NY,NA,NA,7.109004739336493
13492,Oneida County,NY,NA,NA,52.13270142180095
13669,St. Lawrence County,NY,NA,NA,90.75829383886256
13760,Broome County,NY,NA,NA,0.23696682464454977
13820,Otsego County,NY,8.21529745042493,NA,NA
13843,Chenango County,NY,NA,93.07479224376732,NA
14120,Niagara County,NY,4.2492917847025495,NA,NA
14207,Erie County,NY,6.515580736543909,NA,NA
14215,Erie County,NY,NA,6.3711911357340725,NA
14220,Erie County,NY,NA,56.232686980609415,NA
14225,Erie County,NY,NA,NA,37.677725118483416
14534,Monroe County,NY,NA,NA,3.7914691943127963
14580,Monroe County,NY,NA,NA,1.1848341232227488
14609,Monroe County,NY,0.56657223796034,NA,NA
14622,Monroe County,NY,NA,95.29085872576178,NA
14626,Monroe County,NY,NA,NA,49.763033175355446
27028,Davie County,NC,NA,NA,16.587677725118482
27030,Surry County,NC,NA,1.3850415512465373,NA
27101,Forsyth County,NC,73.93767705382436,NA,NA
27217,Alamance County,NC,NA,57.06371191135734,NA
27253,Alamance County,NC,15.01416430594901,NA,NA
27260,Guilford County,NC,NA,NA,79.14691943127961
27278,Orange County,NC,18.13031161473088,NA,NA
27316,Randolph County,NC,84.13597733711048,NA,NA
27317,Randolph County,NC,92.06798866855524,NA,NA
27513,Wake County,NC,NA,NA,43.60189573459716
27520,Johnston County,NC,NA,NA,92.89099526066352
27534,Wayne County,NC,28.328611898016998,NA,NA
27546,Harnett County,NC,55.524079320113316,NA,NA
27576,Johnston County,NC,NA,NA,87.20379146919431
27577,Johnston County,NC,NA,NA,71.09004739336493
27703,Durham County,NC,NA,NA,22.748815165876778
27705,Durham County,NC,70.82152974504248,NA,NA
27870,Halifax County,NC,18.413597733711047,NA,NA
27893,Wilson County,NC,NA,54.57063711911358,NA
27932,Chowan County,NC,NA,42.10526315789473,NA
28027,Cabarrus County,NC,NA,6.64819944598338,NA
28031,Mecklenburg County,NC,NA,39.88919667590028,NA
28054,Gaston County,NC,NA,NA,62.32227488151659
28081,Cabarrus County,NC,77.62039660056658,NA,NA
28105,Mecklenburg County,NC,NA,45.15235457063712,NA
28205,Mecklenburg County,NC,NA,24.930747922437675,NA
28210,Mecklenburg County,NC,NA,NA,28.90995260663507
28301,Cumberland County,NC,NA,NA,95.49763033175356
28320,Bladen County,NC,NA,NA,76.77725118483413
28352,Scotland County,NC,65.43909348441926,NA,NA
28384,Bladen County,NC,NA,NA,87.67772511848341
28412,New Hanover County,NC,40.50991501416431,NA,NA
28501,Lenoir County,NC,NA,NA,48.1042654028436
28601,Catawba County,NC,13.314447592067987,NA,NA
28651,Wilkes County,NC,NA,NA,91.70616113744076
28792,Henderson County,NC,24.929178470254957,NA,NA
28803,Buncombe County,NC,NA,90.85872576177285,NA
28906,Cherokee County,NC,NA,NA,17.061611374407583
58104,Cass County,ND,NA,NA,3.3175355450236967
58503,Burleigh County,ND,NA,NA,6.872037914691943
43113,Pickaway County,OH,12.747875354107649,13.019390581717452,NA
43123,Franklin County,OH,NA,7.756232686980609,NA
43204,Franklin County,OH,NA,14.127423822714682,NA
43207,Franklin County,OH,NA,NA,16.350710900473935
43224,Franklin County,OH,5.099150141643059,NA,NA
43229,Franklin County,OH,NA,NA,68.72037914691943
43231,Franklin County,OH,NA,77.00831024930747,NA
43235,Franklin County,OH,NA,35.45706371191136,NA
43506,Williams County,OH,NA,88.64265927977839,NA
43543,Williams County,OH,NA,NA,70.37914691943128
43604,Lucas County,OH,36.827195467422094,NA,NA
43701,Muskingum County,OH,NA,0.2770083102493075,NA
43947,Belmont County,OH,NA,73.9612188365651,NA
43952,Jefferson County,OH,NA,11.080332409972298,NA
44003,Ashtabula County,OH,NA,NA,89.0995260663507
44012,Lorain County,OH,28.04532577903683,NA,NA
44035,Lorain County,OH,2.26628895184136,NA,NA
44103,Cuyahoga County,OH,NA,NA,31.990521327014214
44105,Cuyahoga County,OH,14.730878186968837,NA,NA
44111,Cuyahoga County,OH,NA,2.7700831024930745,NA
44118,Cuyahoga County,OH,33.14447592067989,NA,NA
44122,Cuyahoga County,OH,NA,4.986149584487535,NA
44138,Cuyahoga County,OH,NA,NA,79.38388625592417
44143,Cuyahoga County,OH,NA,NA,0.9478672985781991
44203,Summit County,OH,66.0056657223796,8.587257617728532,NA
44236,Summit County,OH,NA,21.329639889196674,NA
44307,Summit County,OH,NA,56.232686980609415,NA
44319,Summit County,OH,69.12181303116147,NA,NA
44410,Trumbull County,OH,96.60056657223795,NA,NA
44444,Trumbull County,OH,48.1586402266289,NA,NA
44483,Trumbull County,OH,NA,NA,15.876777251184834
44515,Mahoning County,OH,NA,57.89473684210527,NA
44706,Stark County,OH,70.25495750708215,NA,NA
44707,Stark County,OH,NA,NA,78.19905213270142
44710,Stark County,OH,56.37393767705382,NA,61.137440758293835
45013,Butler County,OH,3.1161473087818696,NA,NA
45014,Butler County,OH,13.881019830028329,NA,NA
45056,Butler County,OH,59.773371104815865,NA,NA
45069,Butler County,OH,NA,NA,97.1563981042654
45103,Clermont County,OH,NA,94.45983379501385,NA
45208,Hamilton County,OH,74.22096317280453,NA,NA
45224,Hamilton County,OH,NA,NA,40.758293838862556
45230,Hamilton County,OH,49.57507082152974,NA,NA
45405,Montgomery County,OH,73.65439093484419,NA,NA
45416,Montgomery County,OH,74.78753541076487,NA,NA
45419,Montgomery County,OH,NA,NA,82.22748815165876
45434,Greene County,OH,NA,62.880886426592795,NA
45439,Montgomery County,OH,NA,NA,76.30331753554502
45440,Montgomery County,OH,NA,NA,46.208530805687204
45503,Clark County,OH,NA,12.742382271468145,NA
45631,Gallia County,OH,52.69121813031161,NA,5.450236966824645
73044,Logan County,OK,NA,14.958448753462603,NA
73106,Oklahoma County,OK,NA,65.65096952908587,NA
73112,Oklahoma County,OK,NA,45.70637119113574,NA
73127,Oklahoma County,OK,NA,NA,83.41232227488152
73507,Comanche County,OK,NA,NA,26.066350710900476
74006,Washington County,OK,NA,NA,29.14691943127962
74016,Rogers County,OK,NA,86.98060941828255,NA
74023,Payne County,OK,NA,51.24653739612188,NA
74066,Creek County,OK,57.79036827195468,NA,NA
74136,Tulsa County,OK,NA,41.55124653739612,NA
74464,Cherokee County,OK,7.0821529745042495,NA,NA
74523,Pushmataha County,OK,84.98583569405099,NA,NA
74604,Kay County,OK,99.15014164305948,NA,NA
74960,Adair County,OK,NA,NA,81.75355450236967
97051,Columbia County,OR,NA,68.14404432132964,NA
97202,Multnomah County,OR,22.6628895184136,NA,NA
97220,Multnomah County,OR,NA,28.53185595567867,NA
97230,Multnomah County,OR,NA,NA,12.796208530805686
97303,Marion County,OR,NA,70.91412742382272,NA
97304,Polk County,OR,52.97450424929179,NA,NA
97305,Marion County,OR,21.529745042492916,NA,NA
97361,Polk County,OR,71.671388101983,NA,NA
97405,Lane County,OR,98.01699716713881,NA,NA
97471,Douglas County,OR,NA,83.65650969529086,NA
97501,Jackson County,OR,NA,39.612188365650965,NA
97526,Josephine County,OR,20.96317280453258,NA,NA
97527,Josephine County,OR,NA,50.13850415512465,NA
97850,Union County,OR,33.994334277620396,NA,NA
15108,Allegheny County,PA,NA,64.26592797783933,7.5829383886255926
15201,Allegheny County,PA,NA,47.368421052631575,NA
15215,Allegheny County,PA,NA,NA,80.33175355450237
15237,Allegheny County,PA,NA,NA,4.028436018957346
15370,Greene County,PA,NA,NA,50
15473,Fayette County,PA,NA,NA,99.28909952606635
15501,Somerset County,PA,NA,72.57617728531855,NA
15613,Westmoreland County,PA,NA,46.81440443213297,NA
15717,Indiana County,PA,57.50708215297451,NA,NA
15904,Cambria County,PA,NA,35.45706371191136,NA
16117,Lawrence County,PA,NA,43.49030470914128,NA
16146,Mercer County,PA,19.263456090651555,NA,NA
16148,Mercer County,PA,41.64305949008499,NA,NA
16502,Erie County,PA,NA,91.13573407202216,NA
16701,McKean County,PA,NA,22.99168975069252,NA
16823,Centre County,PA,NA,16.897506925207757,NA
17011,Cumberland County,PA,NA,NA,80.09478672985783
17222,Franklin County,PA,NA,NA,33.88625592417062
17325,Adams County,PA,NA,5.263157894736842,NA
17368,York County,PA,NA,NA,99.0521327014218
17545,Lancaster County,PA,38.81019830028329,NA,NA
17603,Lancaster County,PA,NA,NA,6.6350710900473935
17745,Clinton County,PA,NA,NA,40.047393364928915
17837,Union County,PA,NA,NA,20.85308056872038
17931,Schuylkill County,PA,NA,99.7229916897507,NA
17976,Schuylkill County,PA,93.76770538243626,NA,NA
18017,Northampton County,PA,NA,NA,2.843601895734597
18102,Lehigh County,PA,86.68555240793201,NA,NA
18201,Luzerne County,PA,NA,NA,95.97156398104265
18466,Monroe County,PA,NA,60.11080332409973,NA
18634,Luzerne County,PA,37.960339943342774,NA,NA
18644,Luzerne County,PA,NA,59.83379501385041,NA
19006,Montgomery County,PA,43.342776203966004,NA,NA
19012,Montgomery County,PA,NA,NA,93.36492890995261
19027,Montgomery County,PA,NA,NA,22.03791469194313
19040,Montgomery County,PA,85.55240793201133,NA,NA
19047,Bucks County,PA,20.113314447592067,NA,NA
19056,Bucks County,PA,85.26912181303116,NA,NA
19057,Bucks County,PA,NA,82.82548476454294,NA
19060,Delaware County,PA,76.77053824362606,NA,NA
19086,Delaware County,PA,58.640226628895185,NA,NA
19111,Philadelphia County,PA,NA,NA,10.66350710900474
19116,Philadelphia County,PA,NA,NA,23.696682464454977
19123,Philadelphia County,PA,71.38810198300283,NA,NA
19124,Philadelphia County,PA,NA,NA,24.644549763033176
19135,Philadelphia County,PA,NA,36.84210526315789,NA
19139,Philadelphia County,PA,3.39943342776204,NA,NA
19144,Philadelphia County,PA,4.815864022662889,NA,19.194312796208532
19152,Philadelphia County,PA,NA,NA,10.42654028436019
19438,Montgomery County,PA,NA,NA,30.33175355450237
19560,Berks County,PA,72.23796033994334,NA,NA
19604,Berks County,PA,NA,NA,50.23696682464455
02864,Providence County,RI,NA,NA,87.91469194312796
02920,Providence County,RI,NA,47.64542936288089,NA
29003,Bamberg County,SC,NA,93.62880886426593,NA
29010,Lee County,SC,NA,NA,47.6303317535545
29154,Sumter County,SC,46.1756373937677,NA,NA
29203,Richland County,SC,31.1614730878187,NA,NA
29212,Lexington County,SC,NA,NA,44.78672985781991
29306,Spartanburg County,SC,30.878186968838527,NA,NA
29340,Cherokee County,SC,NA,NA,66.58767772511848
29360,Laurens County,SC,NA,38.78116343490305,NA
29379,Union County,SC,NA,NA,43.127962085308056
29420,Dorchester County,SC,42.20963172804532,NA,NA
29456,Dorchester County,SC,NA,72.29916897506925,NA
29556,Williamsburg County,SC,NA,92.24376731301939,NA
29576,Horry County,SC,38.52691218130311,NA,NA
29588,Horry County,SC,NA,10.80332409972299,NA
29621,Anderson County,SC,NA,NA,12.085308056872037
29649,Greenwood County,SC,NA,NA,14.691943127962084
29671,Pickens County,SC,NA,NA,33.41232227488152
29678,Oconee County,SC,NA,31.024930747922436,NA
29693,Oconee County,SC,NA,NA,39.81042654028436
29697,Anderson County,SC,NA,NA,59.95260663507109
29732,York County,SC,NA,23.822714681440445,NA
29936,Jasper County,SC,99.71671388101983,NA,NA
37022,Sumner County,TN,98.86685552407933,NA,NA
37066,Sumner County,TN,8.498583569405099,NA,NA
37083,Macon County,TN,NA,31.855955678670362,NA
37110,Warren County,TN,15.29745042492918,NA,NA
37129,Rutherford County,TN,15.58073654390935,NA,NA
37172,Robertson County,TN,14.44759206798867,NA,NA
37206,Davidson County,TN,58.35694050991501,NA,NA
37207,Davidson County,TN,NA,59.0027700831025,NA
37211,Davidson County,TN,47.30878186968839,NA,NA
37321,Rhea County,TN,23.79603399433428,NA,NA
37330,Franklin County,TN,60.90651558073654,NA,NA
37334,Lincoln County,TN,29.745042492917843,NA,NA
37347,Marion County,TN,67.98866855524079,NA,NA
37363,Hamilton County,TN,63.45609065155807,NA,NA
37377,Hamilton County,TN,NA,67.59002770083103,NA
37404,Hamilton County,TN,NA,NA,70.14218009478674
37416,Hamilton County,TN,50.42492917847026,NA,NA
37421,Hamilton County,TN,NA,NA,97.6303317535545
37604,Washington County,TN,60.05665722379604,NA,NA
37701,Blount County,TN,60.3399433427762,62.32686980609419,NA
37748,Roane County,TN,NA,26.31578947368421,NA
37760,Jefferson County,TN,54.6742209631728,NA,NA
37814,Hamblen County,TN,25.21246458923513,NA,NA
37914,Knox County,TN,NA,65.65096952908587,NA
38002,Shelby County,TN,NA,60.664819944598335,NA
38024,Dyer County,TN,NA,NA,43.838862559241704
38109,Shelby County,TN,32.29461756373937,NA,NA
38115,Shelby County,TN,18.980169971671387,NA,NA
38127,Shelby County,TN,7.932011331444759,NA,NA
38128,Shelby County,TN,NA,34.903047091412745,NA
38301,Madison County,TN,51.27478753541076,NA,34.834123222748815
38382,Gibson County,TN,NA,NA,78.90995260663507
38464,Lawrence County,TN,NA,29.362880886426595,NA
38485,Wayne County,TN,NA,NA,92.18009478672985
38549,Pickett County,TN,NA,90.30470914127424,NA
38556,Fentress County,TN,NA,NA,97.86729857819904
75019,Dallas County,TX,NA,49.584487534626035,NA
75069,Collin County,TX,NA,NA,22.985781990521325
75075,Collin County,TX,NA,NA,41.70616113744076
75076,Grayson County,TX,NA,NA,82.70142180094787
75146,Dallas County,TX,84.41926345609065,NA,NA
75203,Dallas County,TX,92.91784702549575,NA,NA
75223,Dallas County,TX,77.05382436260622,NA,NA
75241,Dallas County,TX,NA,32.40997229916898,NA
75503,Bowie County,TX,NA,76.73130193905817,24.170616113744074
75551,Cass County,TX,NA,NA,66.35071090047393
75633,Panola County,TX,66.57223796033995,NA,NA
75686,Camp County,TX,NA,53.73961218836565,NA
75904,Angelina County,TX,NA,15.512465373961218,35.54502369668246
76023,Wise County,TX,NA,99.16897506925207,NA
76028,Johnson County,TX,NA,NA,11.137440758293838
76063,Tarrant County,TX,NA,13.573407202216067,NA
76108,Tarrant County,TX,81.01983002832861,NA,NA
76117,Tarrant County,TX,27.762039660056658,NA,NA
76131,Tarrant County,TX,NA,98.337950138504155,NA
76137,Tarrant County,TX,16.997167138810198,52.35457063711911,NA
76240,Cooke County,TX,NA,34.62603878116344,NA
76309,Wichita County,TX,NA,NA,64.69194312796208
76401,Erath County,TX,NA,NA,83.88625592417061
76446,Erath County,TX,NA,NA,99.76303317535546
76450,Young County,TX,NA,NA,75.59241706161137
76542,Bell County,TX,NA,22.437673130193904,NA
76543,Bell County,TX,NA,18.559556786703602,NA
76655,McLennan County,TX,NA,72.85318559556787,NA
76657,McLennan County,TX,77.33711048158641,NA,NA
76706,McLennan County,TX,NA,NA,79.62085308056872
76901,Tom Green County,TX,NA,NA,80.56872037914692
77016,Harris County,TX,NA,NA,38.862559241706165
77025,Harris County,TX,NA,NA,57.345971563981045
77049,Harris County,TX,NA,69.25207756232687,NA
77070,Harris County,TX,NA,23.545706371191137,NA
77087,Harris County,TX,90.6515580736544,NA,NA
77088,Harris County,TX,24.362606232294617,NA,NA
77093,Harris County,TX,NA,NA,47.6303317535545
77338,Harris County,TX,NA,54.29362880886427,NA
77339,Harris County,TX,NA,37.396121883656505,NA
77429,Harris County,TX,NA,25.48476454293629,NA
77437,Wharton County,TX,NA,NA,41.46919431279621
77447,Harris County,TX,90.36827195467421,NA,NA
77471,Fort Bend County,TX,31.444759206798867,NA,NA
77505,Harris County,TX,86.11898016997166,NA,NA
77506,Harris County,TX,NA,NA,70.61611374407583
77511,Brazoria County,TX,NA,13.29639889196676,NA
77515,Brazoria County,TX,NA,30.747922437673132,NA
77517,Galveston County,TX,NA,93.90581717451524,NA
77530,Harris County,TX,52.40793201133145,NA,NA
77532,Harris County,TX,NA,NA,66.11374407582939
77535,Liberty County,TX,NA,NA,73.45971563981043
77546,Galveston County,TX,NA,11.634349030470915,NA
77551,Galveston County,TX,NA,NA,23.22274881516588
77566,Brazoria County,TX,NA,42.65927977839335,NA
77571,Harris County,TX,NA,NA,85.78199052132702
77581,Brazoria County,TX,NA,52.90858725761773,NA
77583,Brazoria County,TX,NA,63.43490304709142,NA
77703,Jefferson County,TX,62.03966005665722,NA,NA
77706,Jefferson County,TX,42.77620396600567,NA,NA
77979,Calhoun County,TX,NA,NA,50.4739336492891
78023,Bexar County,TX,NA,90.02770083102493,NA
78040,Webb County,TX,NA,NA,47.1563981042654
78109,Bexar County,TX,NA,NA,78.43601895734598
78207,Bexar County,TX,NA,NA,20.61611374407583
78212,Bexar County,TX,NA,80.33240997229917,NA
78223,Bexar County,TX,NA,NA,31.04265402843602
78244,Bexar County,TX,55.240793201133144,NA,NA
78245,Bexar County,TX,NA,46.53739612188366,NA
78363,Kleberg County,TX,NA,NA,54.976303317535546
78408,Nueces County,TX,NA,71.46814404432132,86.01895734597157
78416,Nueces County,TX,NA,NA,63.270142180094794
78521,Cameron County,TX,95.18413597733712,17.72853185595568,NA
78537,Hidalgo County,TX,NA,66.4819944598338,NA
78589,Hidalgo County,TX,NA,63.988919667590025,37.203791469194314
78640,Hays County,TX,NA,NA,55.21327014218009
78681,Williamson County,TX,NA,NA,23.933649289099527
78741,Travis County,TX,NA,NA,75.11848341232228
78757,Travis County,TX,NA,87.25761772853186,NA
78801,Uvalde County,TX,93.48441926345609,NA,NA
78840,Val Verde County,TX,NA,NA,7.819905213270142
79110,Randall County,TX,NA,99.445983379501385,NA
79414,Lubbock County,TX,66.28895184135978,NA,NA
79601,Taylor County,TX,88.38526912181302,NA,NA
79602,Taylor County,TX,NA,NA,64.21800947867298
79701,Midland County,TX,37.39376770538244,NA,NA
79707,Midland County,TX,NA,NA,68.48341232227489
79720,Howard County,TX,NA,90.58171745152355,NA
79902,El Paso County,TX,NA,NA,76.06635071090048
79924,El Paso County,TX,NA,NA,19.431279620853083
79936,El Paso County,TX,11.3314447592068,NA,NA
84041,Davis County,UT,NA,79.22437673130193,NA
84058,Utah County,UT,NA,NA,96.44549763033176
84404,Weber County,UT,49.858356940509914,NA,NA
84604,Utah County,UT,NA,NA,61.84834123222749
05443,Addison County,VT,NA,NA,86.49289099526067
20165,Loudoun County,VA,NA,NA,77.25118483412322
20171,Fairfax County,VA,NA,91.41274238227147,NA
22152,Fairfax County,VA,NA,62.04986149584487,NA
22193,Prince William County,VA,NA,NA,68.24644549763033
22204,Arlington County,VA,NA,NA,53.55450236966824
22572,Richmond County,VA,NA,80.05540166204986,NA
22630,Warren County,VA,NA,33.2409972299169,NA
22657,Shenandoah County,VA,NA,95.01385041551247,NA
22835,Page County,VA,NA,47.64542936288089,37.44075829383886
22911,Albemarle County,VA,64.02266288951841,NA,NA
23075,Henrico County,VA,NA,NA,88.86255924170617
23188,James City County,VA,NA,3.0470914127423825,NA
23223,Henrico County,VA,NA,NA,28.436018957345972
23224,Richmond city,VA,NA,NA,95.73459715639811
23225,Richmond city,VA,13.031161473087819,NA,28.436018957345972
23229,Henrico County,VA,NA,96.95290858725761,NA
23234,Chesterfield County,VA,NA,NA,56.16113744075829
23324,Chesapeake city,VA,35.12747875354108,NA,NA
23502,Norfolk city,VA,NA,NA,36.72985781990521
23503,Norfolk city,VA,NA,NA,56.6350710900474
23513,Norfolk city,VA,NA,NA,18.72037914691943
23692,York County,VA,82.71954674220963,NA,NA
23803,Petersburg city,VA,33.42776203966006,87.81163434903047,73.93364928909952
23875,Prince George County,VA,95.46742209631728,NA,NA
24012,Roanoke city,VA,NA,NA,30.80568720379147
24019,Roanoke County,VA,NA,NA,38.388625592417064
24127,Craig County,VA,NA,96.67590027700831,NA
24148,Henry County,VA,NA,NA,84.59715639810426
24501,Lynchburg city,VA,NA,NA,71.56398104265402
98011,King County,WA,83.0028328611898,NA,NA
98125,King County,WA,33.994334277620396,NA,NA
98133,King County,WA,NA,NA,9.24170616113744
98284,Skagit County,WA,45.892351274787536,NA,NA
98368,Jefferson County,WA,79.88668555240793,NA,NA
98372,Pierce County,WA,NA,53.46260387811634,NA
98443,Pierce County,WA,94.05099150141642,NA,NA
98563,Grays Harbor County,WA,NA,NA,64.45497630331754
98604,Clark County,WA,NA,91.68975069252078,NA
98612,Wahkiakum County,WA,NA,89.47368421052632,NA
98801,Chelan County,WA,NA,NA,5.213270142180095
98837,Grant County,WA,NA,NA,17.535545023696685
98902,Yakima County,WA,22.946175637393768,NA,NA
99021,Spokane County,WA,NA,NA,89.81042654028435
99352,Benton County,WA,NA,NA,3.080568720379147
20011,District of Columbia,DC,NA,14.40443213296399,4.265402843601896
20020,District of Columbia,DC,NA,6.094182825484765,NA
25401,Berkeley County,WV,NA,32.13296398891966,57.10900473933649
25403,Berkeley County,WV,63.73937677053825,NA,NA
25601,Logan County,WV,NA,NA,60.66350710900474
25901,Fayette County,WV,40.79320113314447,NA,NA
26062,Hancock County,WV,NA,NA,8.293838862559241
26101,Wood County,WV,NA,5.8171745152354575,NA
26301,Harrison County,WV,44.759206798866856,NA,NA
26554,Marion County,WV,NA,0.8310249307479225,NA
53132,Milwaukee County,WI,32.86118980169972,NA,NA
53140,Kenosha County,WI,NA,22.71468144044321,NA
53150,Waukesha County,WI,78.18696883852692,NA,NA
53154,Milwaukee County,WI,NA,NA,32.93838862559242
53158,Kenosha County,WI,17.280453257790366,NA,NA
53172,Milwaukee County,WI,29.461756373937675,NA,NA
53182,Racine County,WI,NA,NA,71.80094786729858
53188,Waukesha County,WI,NA,64.81994459833795,NA
53202,Milwaukee County,WI,42.492917847025495,NA,NA
53205,Milwaukee County,WI,1.9830028328611897,43.76731301939058,NA
53208,Milwaukee County,WI,10.48158640226629,NA,NA
53213,Milwaukee County,WI,NA,28.80886426592798,NA
53215,Milwaukee County,WI,3.9660056657223794,NA,NA
53220,Milwaukee County,WI,57.22379603399433,NA,NA
53225,Milwaukee County,WI,NA,NA,55.92417061611374
53227,Milwaukee County,WI,28.611898016997166,NA,15.402843601895736
53566,Green County,WI,79.60339943342775,NA,NA
53704,Dane County,WI,9.91501416430595,NA,NA
53705,Dane County,WI,49.29178470254957,NA,NA
53916,Dodge County,WI,35.977337110481585,NA,NA
54143,Marinette County,WI,67.42209631728045,NA,NA
54220,Manitowoc County,WI,NA,17.451523545706372,NA
54235,Door County,WI,NA,NA,18.246445497630333
54304,Brown County,WI,17.56373937677054,NA,NA
54311,Brown County,WI,NA,80.60941828254848,NA
54409,Langlade County,WI,NA,NA,54.739336492891
54452,Lincoln County,WI,NA,45.98337950138504,NA
54501,Oneida County,WI,NA,NA,46.91943127962085
54601,La Crosse County,WI,NA,NA,60.426540284360186
54660,Monroe County,WI,68.55524079320114,NA,NA
54755,Buffalo County,WI,NA,68.69806094182826,NA
54981,Waupaca County,WI,NA,NA,84.83412322274881
82001,Laramie County,WY,NA,56.232686980609415,NA
82501,Fremont County,WY,NA,85.59556786703601,NA
