ZipCode,county,state,Adult
35004,St. Clair County,AL,77.85606441872169
35010,Tallapoosa County,AL,58.480120785103175
35014,Talladega County,AL,92.6019124308002
35016,Marshall County,AL,41.57020634121792
35022,Jefferson County,AL,27.050830397584296
35023,Jefferson County,AL,19.09914443885254
35040,Shelby County,AL,37.69501761449421
35044,Talladega County,AL,83.84499245093106
35055,Cullman County,AL,44.26270759939607
35057,Cullman County,AL,66.90991444388526
35077,Cullman County,AL,49.64771011575239
35080,Shelby County,AL,48.06240563663815
35094,Jefferson County,AL,49.74836436839457
35096,Talladega County,AL,85.85807750377454
35111,Tuscaloosa County,AL,34.14695520885758
35124,Shelby County,AL,53.85002516356317
35160,Talladega County,AL,8.40463009562154
35204,Jefferson County,AL,61.29843985908404
35206,Jefferson County,AL,51.58530447911425
35207,Jefferson County,AL,59.386009058882735
35208,Jefferson County,AL,27.101157523905385
35212,Jefferson County,AL,69.95470558631102
35213,Jefferson County,AL,84.65022647206844
35215,Jefferson County,AL,3.7493709109209865
35224,Jefferson County,AL,98.41469552088576
35228,Jefferson County,AL,89.90941117262204
35235,Jefferson County,AL,44.38852541519879
35242,Shelby County,AL,54.45395067941621
35244,Jefferson County,AL,36.1852038248616
35401,Tuscaloosa County,AL,78.53548062405636
35405,Tuscaloosa County,AL,3.5228988424760943
35406,Tuscaloosa County,AL,65.27428283844992
35555,Fayette County,AL,54.277805737292404
35582,Franklin County,AL,98.842476094615
35601,Morgan County,AL,6.844489179667841
35622,Morgan County,AL,75.13839959738299
35630,Lauderdale County,AL,53.296426774031204
35633,Lauderdale County,AL,44.38852541519879
35640,Morgan County,AL,22.52138902868646
35654,Franklin County,AL,82.96426774031202
35750,Madison County,AL,48.76698540513337
35756,Limestone County,AL,70.91092098641167
35757,Madison County,AL,63.588324106693506
35758,Madison County,AL,26.446904881731253
35763,Madison County,AL,69.35078007045797
35773,Madison County,AL,56.8193256165073
35901,Etowah County,AL,57.272269753397076
35906,Etowah County,AL,85.25415198792149
35907,Etowah County,AL,78.30900855561147
35950,Marshall County,AL,64.01610468042274
35952,Etowah County,AL,82.48616004026171
35956,Etowah County,AL,70.53346753900352
35967,DeKalb County,AL,82.61197785606443
36022,Elmore County,AL,63.462506290890786
36033,Butler County,AL,99.54705586311022
36037,Butler County,AL,45.92350276799195
36054,Elmore County,AL,91.97282335178662
36064,Montgomery County,AL,91.89733266230499
36066,Autauga County,AL,41.72118772018118
36067,Autauga County,AL,58.379466532461
36081,Pike County,AL,92.29994967287368
36104,Montgomery County,AL,45.19375943633619
36105,Montgomery County,AL,54.93205837946653
36108,Montgomery County,AL,29.768495218922997
36117,Montgomery County,AL,55.76245596376447
36260,Calhoun County,AL,99.57221942627076
36271,Calhoun County,AL,86.16004026170106
36274,Randolph County,AL,91.620533467539
36330,Coffee County,AL,34.47408152994464
36345,Henry County,AL,91.34373427277302
36352,Houston County,AL,84.95218922999497
36426,Escambia County,AL,77.52893809763462
36441,Escambia County,AL,98.4398590840463
36502,Escambia County,AL,32.56165072974333
36535,Baldwin County,AL,31.27830900855561
36575,Mobile County,AL,47.88626069451434
36582,Mobile County,AL,70.0553598389532
36605,Mobile County,AL,27.554101660795165
36609,Mobile County,AL,48.59084046300956
36617,Mobile County,AL,67.1615500754907
36695,Mobile County,AL,22.395571212883745
36701,Dallas County,AL,16.280825364871664
36703,Dallas County,AL,50.931051836940114
36732,Marengo County,AL,67.23704076497232
36769,Wilcox County,AL,98.13789632611977
36830,Lee County,AL,56.71867136386513
36854,Chambers County,AL,51.534977352793156
36877,Lee County,AL,73.42727730246604
99501,Anchorage Municipality,AK,12.355309511826874
99504,Anchorage Municipality,AK,75.18872672370408
99507,Anchorage Municipality,AK,56.165072974333164
99508,Anchorage Municipality,AK,37.669854051333665
99515,Anchorage Municipality,AK,92.50125817815803
99517,Anchorage Municipality,AK,52.440865626572716
99611,Kenai Peninsula Borough,AK,61.12229491696024
99686,Valdez-Cordova Census Area,AK,98.01207851031705
99712,Fairbanks North Star Borough,AK,76.74886763965777
85006,Maricopa County,AZ,30.14594866633115
85007,Maricopa County,AZ,5.032712632108707
85008,Maricopa County,AZ,30.64921992954202
85009,Maricopa County,AZ,51.711122294916954
85013,Maricopa County,AZ,37.51887267237041
85014,Maricopa County,AZ,32.8887770508304
85015,Maricopa County,AZ,38.60090588827378
85017,Maricopa County,AZ,73.37695017614494
85019,Maricopa County,AZ,60.996477101157524
85020,Maricopa County,AZ,60.392551585304474
85021,Maricopa County,AZ,5.737292400603926
85024,Maricopa County,AZ,65.5510820332159
85031,Maricopa County,AZ,38.802214393558124
85032,Maricopa County,AZ,33.14041268243583
85033,Maricopa County,AZ,8.354302969300454
85034,Maricopa County,AZ,91.74635128334172
85035,Maricopa County,AZ,35.50578761952693
85037,Maricopa County,AZ,66.78409662808254
85040,Maricopa County,AZ,59.486663311524914
85041,Maricopa County,AZ,66.73376950176146
85042,Maricopa County,AZ,15.475591343734274
85048,Maricopa County,AZ,71.38902868646201
85051,Maricopa County,AZ,32.284851534977356
85083,Maricopa County,AZ,74.13185707096125
85119,Pinal County,AZ,59.889280322093605
85120,Pinal County,AZ,64.94715651736286
85132,Pinal County,AZ,25.742325113236035
85138,Pinal County,AZ,27.327629592350277
85139,Pinal County,AZ,42.752893809763464
85142,Maricopa County,AZ,4.579768495218923
85202,Maricopa County,AZ,11.248112732762959
85203,Maricopa County,AZ,77.42828384499245
85204,Maricopa County,AZ,52.69250125817816
85206,Maricopa County,AZ,34.2224458983392
85208,Maricopa County,AZ,66.85958731756416
85210,Maricopa County,AZ,12.984398590840463
85225,Maricopa County,AZ,28.334172118772017
85226,Maricopa County,AZ,43.43231001509814
85233,Maricopa County,AZ,28.233517866129844
85234,Maricopa County,AZ,20.986411675893308
85251,Maricopa County,AZ,27.956718671363866
85254,Maricopa County,AZ,42.1992954202315
85255,Maricopa County,AZ,38.97835933568194
85256,Maricopa County,AZ,85.6064418721691
85282,Maricopa County,AZ,87.59436336185203
85286,Maricopa County,AZ,57.19677906391545
85295,Maricopa County,AZ,27.050830397584296
85296,Maricopa County,AZ,55.91343734272773
85298,Maricopa County,AZ,61.172622043281336
85301,Maricopa County,AZ,13.110216406643179
85302,Maricopa County,AZ,14.59486663311525
85303,Maricopa County,AZ,91.24308002013085
85305,Maricopa County,AZ,92.55158530447912
85308,Maricopa County,AZ,22.320080523402115
85323,Maricopa County,AZ,73.15047810770004
85335,Maricopa County,AZ,22.596879718168093
85338,Maricopa County,AZ,56.46703573225969
85339,Maricopa County,AZ,12.229491696024157
85340,Maricopa County,AZ,83.14041268243584
85345,Maricopa County,AZ,29.365878208354303
85349,Yuma County,AZ,74.96225465525919
85350,Yuma County,AZ,91.11726220432813
85353,Maricopa County,AZ,73.90538500251635
85363,Maricopa County,AZ,92.80322093608456
85364,Yuma County,AZ,39.506794162053346
85365,Yuma County,AZ,50.60392551585304
85374,Maricopa County,AZ,35.25415198792149
85378,Maricopa County,AZ,91.36889783593357
85379,Maricopa County,AZ,52.91897332662305
85388,Maricopa County,AZ,92.50125817815803
85392,Maricopa County,AZ,75.56618017111222
85395,Maricopa County,AZ,65.70206341217917
85541,Gila County,AZ,37.770508303975845
85607,Cochise County,AZ,16.482133870156012
85621,Santa Cruz County,AZ,67.76547559134374
85635,Cochise County,AZ,14.242576748867638
85653,Pima County,AZ,25.0880724710619
85705,Pima County,AZ,10.26673376950176
85706,Pima County,AZ,8.454957221942628
85710,Pima County,AZ,22.395571212883745
85711,Pima County,AZ,3.7996980372420732
85713,Pima County,AZ,2.8183190739808754
85718,Pima County,AZ,47.332662304982385
85745,Pima County,AZ,14.393558127830902
85746,Pima County,AZ,29.315551082033213
85747,Pima County,AZ,60.79516859587317
85901,Navajo County,AZ,40.261701056869654
85925,Apache County,AZ,91.69602415702064
85941,Apache County,AZ,6.592853548062405
86001,Coconino County,AZ,41.997986914947155
86004,Coconino County,AZ,2.541519879214897
86035,Coconino County,AZ,98.59084046300957
86045,Coconino County,AZ,14.368394564670359
86047,Navajo County,AZ,22.72269753397081
86322,Yavapai County,AZ,39.80875691997987
86323,Yavapai County,AZ,73.42727730246604
86326,Yavapai County,AZ,45.77252138902869
86409,Mohave County,AZ,21.338701560140915
86413,Mohave County,AZ,78.93809763462507
86503,Apache County,AZ,22.697533970810266
86510,Navajo County,AZ,46.25062908907901
72023,Lonoke County,AR,49.34574735782587
72042,Arkansas County,AR,98.54051333668848
72113,Pulaski County,AR,63.78963261197785
72143,White County,AR,25.163563160543532
72160,Arkansas County,AR,87.9214896829391
72223,Pulaski County,AR,77.73024660291897
72450,Greene County,AR,10.669350780070458
72704,Washington County,AR,72.79818822345244
72761,Benton County,AR,89.33064921992954
72762,Washington County,AR,35.58127830900856
72764,Washington County,AR,25.767488676396578
72823,Pope County,AR,91.24308002013085
72927,Logan County,AR,83.29139406139909
90001,Los Angeles County,CA,82.98943130347257
90002,Los Angeles County,CA,49.52189229994967
90003,Los Angeles County,CA,23.678912934071462
90005,Los Angeles County,CA,95.59637644690488
90006,Los Angeles County,CA,56.014091595369905
90007,Los Angeles County,CA,50.90588827377957
90011,Los Angeles County,CA,46.602918973326624
90012,Los Angeles County,CA,54.076497232008045
90016,Los Angeles County,CA,31.227981882234523
90018,Los Angeles County,CA,25.71716155007549
90019,Los Angeles County,CA,93.68394564670356
90022,Los Angeles County,CA,89.93457473578259
90023,Los Angeles County,CA,85.93356819325616
90026,Los Angeles County,CA,34.97735279315551
90029,Los Angeles County,CA,51.30850528434826
90031,Los Angeles County,CA,59.63764469048818
90036,Los Angeles County,CA,56.6431806743835
90037,Los Angeles County,CA,77.75541016607951
90042,Los Angeles County,CA,74.30800201308504
90043,Los Angeles County,CA,33.71917463512833
90044,Los Angeles County,CA,62.632108706592845
90045,Los Angeles County,CA,53.27126321087066
90046,Los Angeles County,CA,39.95973829894313
90048,Los Angeles County,CA,70.86059386009059
90059,Los Angeles County,CA,84.12179164569703
90061,Los Angeles County,CA,61.726220432813285
90062,Los Angeles County,CA,40.94111726220433
90063,Los Angeles County,CA,39.783593356819324
90201,Los Angeles County,CA,71.9677906391545
90221,Los Angeles County,CA,69.75339708102666
90222,Los Angeles County,CA,84.54957221942627
90230,Los Angeles County,CA,71.61550075490689
90241,Los Angeles County,CA,42.752893809763464
90247,Los Angeles County,CA,39.98490186210367
90248,Los Angeles County,CA,88.87770508303976
90249,Los Angeles County,CA,75.31454453950678
90250,Los Angeles County,CA,13.73930548565677
90255,Los Angeles County,CA,81.42929038751888
90262,Los Angeles County,CA,56.8193256165073
90280,Los Angeles County,CA,82.46099647710116
90292,Los Angeles County,CA,65.50075490689483
90503,Los Angeles County,CA,71.03673880221439
90601,Los Angeles County,CA,43.55812783090086
90602,Los Angeles County,CA,53.1202818319074
90604,Los Angeles County,CA,77.17664821338701
90630,Orange County,CA,36.05938600905888
90631,Orange County,CA,23.15047810770005
90640,Los Angeles County,CA,57.221942627076
90706,Los Angeles County,CA,66.60795168595874
90712,Los Angeles County,CA,48.11273276295924
90715,Los Angeles County,CA,94.5646703573226
90723,Los Angeles County,CA,41.09209864116759
90731,Los Angeles County,CA,19.552088575742324
90740,Orange County,CA,85.45546049320583
90744,Los Angeles County,CA,78.81227981882235
90745,Los Angeles County,CA,62.078510317060896
90804,Los Angeles County,CA,32.73779567186714
90805,Los Angeles County,CA,36.96527428283845
90806,Los Angeles County,CA,45.01761449421238
90810,Los Angeles County,CA,47.53397081026674
90813,Los Angeles County,CA,20.93608454957222
91001,Los Angeles County,CA,46.40161046804228
91011,Los Angeles County,CA,88.42476094614997
91016,Los Angeles County,CA,46.52742828384499
91104,Los Angeles County,CA,32.10870659285355
91107,Los Angeles County,CA,69.8288877705083
91206,Los Angeles County,CA,65.75239053850025
91304,Los Angeles County,CA,37.393054856567694
91306,Los Angeles County,CA,87.19174635128334
91320,Ventura County,CA,54.60493205837946
91324,Los Angeles County,CA,68.74685455460494
91331,Los Angeles County,CA,79.39104177151485
91342,Los Angeles County,CA,41.41922496225465
91343,Los Angeles County,CA,73.65374937091093
91352,Los Angeles County,CA,67.01056869652743
91360,Ventura County,CA,81.78158027176649
91362,Ventura County,CA,55.18369401107197
91367,Los Angeles County,CA,45.06794162053347
91381,Los Angeles County,CA,65.50075490689483
91384,Los Angeles County,CA,68.19325616507298
91401,Los Angeles County,CA,91.64569703069955
91402,Los Angeles County,CA,79.49169602415702
91405,Los Angeles County,CA,32.03321590337192
91423,Los Angeles County,CA,61.726220432813285
91505,Los Angeles County,CA,64.9723200805234
91602,Los Angeles County,CA,74.78610971313539
91604,Los Angeles County,CA,47.88626069451434
91605,Los Angeles County,CA,69.19979869149472
91607,Los Angeles County,CA,92.29994967287368
91702,Los Angeles County,CA,20.382486160040262
91706,Los Angeles County,CA,14.947156517362858
91710,San Bernardino County,CA,24.962254655259184
91724,Los Angeles County,CA,65.85304479114242
91730,San Bernardino County,CA,40.81529944640161
91744,Los Angeles County,CA,37.97181680926019
91746,Los Angeles County,CA,67.94162053346754
91754,Los Angeles County,CA,94.9672873678913
91762,San Bernardino County,CA,22.622043281328637
91764,San Bernardino County,CA,85.35480624056366
91765,Los Angeles County,CA,56.165072974333164
91766,Los Angeles County,CA,28.40966280825365
91767,Los Angeles County,CA,62.98439859084046
91768,Los Angeles County,CA,31.152491192752898
91776,Los Angeles County,CA,80.24660291897334
91784,San Bernardino County,CA,63.66381479617513
91786,San Bernardino County,CA,20.65928535480624
91789,Los Angeles County,CA,93.30649219929542
91910,San Diego County,CA,66.63311524911929
91911,San Diego County,CA,65.34977352793156
91913,San Diego County,CA,87.84599899345747
91935,San Diego County,CA,96.72873678912934
91941,San Diego County,CA,47.584297936587824
91942,San Diego County,CA,53.32159033719175
91945,San Diego County,CA,79.64267740312027
92007,San Diego County,CA,88.09763462506291
92008,San Diego County,CA,39.154504277805735
92009,San Diego County,CA,83.44237544036235
92010,San Diego County,CA,85.93356819325616
92011,San Diego County,CA,78.48515349773528
92020,San Diego County,CA,75.4906894816306
92025,San Diego County,CA,35.958731756416704
92026,San Diego County,CA,44.086562657272275
92054,San Diego County,CA,31.40412682435833
92057,San Diego County,CA,45.84801207851032
92064,San Diego County,CA,38.19828887770508
92078,San Diego County,CA,42.40060392551585
92081,San Diego County,CA,61.9023653749371
92082,San Diego County,CA,87.41821841972823
92083,San Diego County,CA,90.43784599899347
92102,San Diego County,CA,25.893306492199297
92104,San Diego County,CA,16.38147961751384
92105,San Diego County,CA,56.44187216909915
92113,San Diego County,CA,66.15500754906894
92114,San Diego County,CA,20.65928535480624
92116,San Diego County,CA,96.95520885757423
92117,San Diego County,CA,97.60946149974836
92126,San Diego County,CA,82.23452440865626
92127,San Diego County,CA,57.24710619023654
92128,San Diego County,CA,88.17312531454455
92129,San Diego County,CA,46.75390035228988
92131,San Diego County,CA,61.9023653749371
92154,San Diego County,CA,25.289380976346248
92173,San Diego County,CA,97.63462506290891
92201,Riverside County,CA,65.601409159537
92211,Riverside County,CA,59.28535480624056
92223,Riverside County,CA,18.24358329139406
92227,Imperial County,CA,29.21489682939104
92231,Imperial County,CA,83.09008555611474
92236,Riverside County,CA,32.310015098137896
92243,Imperial County,CA,14.418721690991445
92301,San Bernardino County,CA,21.71615500754907
92307,San Bernardino County,CA,69.45143432310014
92308,San Bernardino County,CA,37.54403623553095
92311,San Bernardino County,CA,59.209864116758936
92324,San Bernardino County,CA,81.25314544539506
92335,San Bernardino County,CA,44.76597886260695
92336,San Bernardino County,CA,24.257674886763965
92337,San Bernardino County,CA,48.36436839456467
92344,San Bernardino County,CA,69.22496225465527
92345,San Bernardino County,CA,76.89984901862104
92346,San Bernardino County,CA,49.27025666834424
92376,San Bernardino County,CA,56.265727226975336
92377,San Bernardino County,CA,73.04982385505787
92394,San Bernardino County,CA,70.20634121791646
92395,San Bernardino County,CA,49.62254655259184
92405,San Bernardino County,CA,33.34172118772018
92407,San Bernardino County,CA,9.285354806240562
92408,San Bernardino County,CA,90.73980875691998
92410,San Bernardino County,CA,55.51082033215904
92501,Riverside County,CA,90.96628082536488
92505,Riverside County,CA,89.73326623049824
92506,Riverside County,CA,93.70910920986411
92507,Riverside County,CA,29.617513839959734
92509,Riverside County,CA,64.64519375943634
92530,Riverside County,CA,22.92400603925516
92544,Riverside County,CA,70.15601409159537
92545,Riverside County,CA,29.84398590840463
92553,Riverside County,CA,15.87820835430297
92555,Riverside County,CA,48.38953195772521
92562,Riverside County,CA,15.198792148968293
92567,Riverside County,CA,85.6064418721691
92570,Riverside County,CA,29.743331655762457
92582,Riverside County,CA,63.73930548565677
92583,Riverside County,CA,81.47961751383997
92585,Riverside County,CA,72.69753397081027
92586,Riverside County,CA,73.1253145445395
92591,Riverside County,CA,83.92048314041268
92592,Riverside County,CA,17.136386512330144
92595,Riverside County,CA,63.336688475088074
92596,Riverside County,CA,88.60090588827379
92602,Orange County,CA,68.74685455460494
92618,Orange County,CA,81.65576245596377
92648,Orange County,CA,17.086059386009058
92653,Orange County,CA,94.64016104680422
92656,Orange County,CA,56.36638147961751
92675,Orange County,CA,55.385002516356316
92677,Orange County,CA,55.661801711122294
92688,Orange County,CA,24.86160040261701
92692,Orange County,CA,27.856064418721694
92701,Orange County,CA,89.68293910417715
92703,Orange County,CA,93.45747357825867
92704,Orange County,CA,21.187720181177657
92706,Orange County,CA,96.1248112732763
92707,Orange County,CA,30.3472571716155
92708,Orange County,CA,24.308002013085055
92780,Orange County,CA,25.037745344740813
92801,Orange County,CA,21.94262707599396
92805,Orange County,CA,48.23855057876195
92806,Orange County,CA,45.57121288374434
92808,Orange County,CA,70.48314041268243
92821,Orange County,CA,51.93759436336185
92840,Orange County,CA,39.55712128837444
92841,Orange County,CA,67.01056869652743
92865,Orange County,CA,77.80573729240061
92870,Orange County,CA,24.685455460493205
92882,Riverside County,CA,17.966784096628082
92886,Orange County,CA,71.76648213387016
92887,Orange County,CA,88.22345244086563
93003,Ventura County,CA,8.002013085052843
93010,Ventura County,CA,21.967790639154504
93012,Ventura County,CA,58.027176648213384
93021,Ventura County,CA,89.20483140412682
93030,Ventura County,CA,36.51233014594867
93033,Ventura County,CA,49.068948163059886
93035,Ventura County,CA,58.354302969300456
93041,Ventura County,CA,53.97584297936587
93065,Ventura County,CA,7.775541016607952
93117,Santa Barbara County,CA,77.35279315551082
93203,Kern County,CA,80.72471061902365
93204,Kings County,CA,91.97282335178662
93215,Kern County,CA,78.91293407146452
93223,Tulare County,CA,86.0090588827378
93230,Kings County,CA,84.42375440362355
93235,Tulare County,CA,99.77352793155511
93241,Kern County,CA,92.22445898339204
93247,Tulare County,CA,95.69703069954706
93257,Tulare County,CA,80.72471061902365
93263,Kern County,CA,69.92954202315047
93268,Kern County,CA,90.89079013588324
93274,Tulare County,CA,59.43633618520382
93277,Tulare County,CA,14.51937594363362
93280,Kern County,CA,68.8978359335682
93286,Tulare County,CA,91.57020634121793
93291,Tulare County,CA,42.65223955712129
93292,Tulare County,CA,64.01610468042274
93304,Kern County,CA,13.613487669854052
93305,Kern County,CA,29.96980372420735
93306,Kern County,CA,74.13185707096125
93307,Kern County,CA,30.85052843482637
93309,Kern County,CA,72.72269753397082
93311,Kern County,CA,90.41268243583292
93312,Kern County,CA,27.025666834423756
93420,San Luis Obispo County,CA,57.82586814292904
93445,San Luis Obispo County,CA,92.14896829391041
93455,Santa Barbara County,CA,20.508303975842978
93458,Santa Barbara County,CA,32.435832913940615
93465,San Luis Obispo County,CA,72.84851534977352
93514,Inyo County,CA,83.49270256668345
93535,Los Angeles County,CA,67.41318570709612
93550,Los Angeles County,CA,30.196275792652237
93552,Los Angeles County,CA,46.52742828384499
93610,Madera County,CA,63.73930548565677
93611,Fresno County,CA,25.339708102667334
93618,Tulare County,CA,86.83945646703573
93630,Fresno County,CA,75.66683442375441
93631,Fresno County,CA,65.92853548062405
93635,Merced County,CA,62.732762959235025
93638,Madera County,CA,71.61550075490689
93647,Tulare County,CA,89.50679416205335
93648,Fresno County,CA,82.6623049823855
93657,Fresno County,CA,77.10115752390539
93662,Fresno County,CA,45.26925012581782
93701,Fresno County,CA,89.15450427780573
93702,Fresno County,CA,90.23653749370911
93704,Fresno County,CA,39.85908404630096
93705,Fresno County,CA,55.63663814796175
93706,Fresno County,CA,12.908907901358832
93710,Fresno County,CA,51.48465022647207
93711,Fresno County,CA,84.19728233517866
93720,Fresno County,CA,21.565173628585807
93722,Fresno County,CA,22.395571212883745
93726,Fresno County,CA,12.204328132863614
93727,Fresno County,CA,76.14494212380473
93730,Fresno County,CA,88.22345244086563
93737,Fresno County,CA,99.29542023150478
93905,Monterey County,CA,60.09058882737796
93927,Monterey County,CA,67.13638651233015
93930,Monterey County,CA,94.43885254151988
93955,Monterey County,CA,27.12632108706593
94014,San Mateo County,CA,33.54302969300453
94015,San Mateo County,CA,31.831907398087566
94024,Santa Clara County,CA,80.32209360845496
94025,San Mateo County,CA,37.54403623553095
94087,Santa Clara County,CA,72.34524408656266
94107,San Francisco County,CA,32.38550578761953
94111,San Francisco County,CA,89.5319577252139
94112,San Francisco County,CA,65.80271766482134
94116,San Francisco County,CA,76.97533970810267
94121,San Francisco County,CA,62.90890790135884
94122,San Francisco County,CA,35.10317060895823
94124,San Francisco County,CA,46.90488173125315
94134,San Francisco County,CA,26.748867639657774
94303,San Mateo County,CA,80.1711122294917
94403,San Mateo County,CA,72.97433316557624
94501,Alameda County,CA,26.421741318570707
94502,Alameda County,CA,95.99899345747357
94507,Contra Costa County,CA,89.43130347257173
94509,Contra Costa County,CA,62.98439859084046
94510,Solano County,CA,77.453447408153
94513,Contra Costa County,CA,56.79416205334675
94515,Napa County,CA,99.018621036738807
94517,Contra Costa County,CA,94.46401610468043
94519,Contra Costa County,CA,86.990437845999
94531,Contra Costa County,CA,56.31605435329643
94533,Solano County,CA,45.09310518369401
94534,Solano County,CA,53.6990437845999
94536,Alameda County,CA,20.181177654755913
94541,Alameda County,CA,46.200301962757926
94551,Alameda County,CA,37.06592853548062
94553,Contra Costa County,CA,65.02264720684448
94558,Napa County,CA,19.52692501258178
94559,Napa County,CA,51.98792148968294
94560,Alameda County,CA,43.20583794665325
94561,Contra Costa County,CA,61.65072974333165
94565,Contra Costa County,CA,43.381982888777046
94568,Alameda County,CA,41.89733266230498
94577,Alameda County,CA,59.209864116758936
94583,Contra Costa County,CA,40.71464519375944
94589,Solano County,CA,48.64116758933065
94601,Alameda County,CA,32.687468545546054
94603,Alameda County,CA,69.17463512833417
94619,Alameda County,CA,73.17564167086059
94621,Alameda County,CA,20.58379466532461
94801,Contra Costa County,CA,85.75742325113237
94803,Contra Costa County,CA,84.95218922999497
94804,Contra Costa County,CA,52.69250125817816
94806,Contra Costa County,CA,22.496225465525917
94903,Marin County,CA,67.58933064921993
95012,Monterey County,CA,81.3286361348767
95035,Santa Clara County,CA,84.34826371414192
95037,Santa Clara County,CA,45.39506794162053
95050,Santa Clara County,CA,85.73225968797182
95051,Santa Clara County,CA,33.01459486663312
95076,Santa Cruz County,CA,39.85908404630096
95110,Santa Clara County,CA,77.47861097131353
95112,Santa Clara County,CA,26.019124308002013
95117,Santa Clara County,CA,88.87770508303976
95118,Santa Clara County,CA,81.1021640664318
95123,Santa Clara County,CA,90.58882737795672
95124,Santa Clara County,CA,78.2083543029693
95126,Santa Clara County,CA,82.73779567186713
95131,Santa Clara County,CA,73.50276799194766
95204,San Joaquin County,CA,44.992450931051835
95205,San Joaquin County,CA,84.72571716155008
95206,San Joaquin County,CA,82.28485153497735
95209,San Joaquin County,CA,89.78359335681932
95210,San Joaquin County,CA,61.399094111726214
95252,Calaveras County,CA,78.2083543029693
95301,Merced County,CA,82.76295923502768
95307,Stanislaus County,CA,73.32662304982385
95334,Merced County,CA,81.3286361348767
95337,San Joaquin County,CA,28.057372924006042
95340,Merced County,CA,23.65374937091092
95341,Merced County,CA,77.98188223452442
95348,Merced County,CA,55.68696527428284
95350,Stanislaus County,CA,38.298943130347254
95351,Stanislaus County,CA,62.33014594866633
95355,Stanislaus County,CA,3.6487166582788126
95356,Stanislaus County,CA,28.736789129340718
95358,Stanislaus County,CA,52.76799194765979
95363,Stanislaus County,CA,51.05686965274283
95380,Stanislaus County,CA,49.823855057876195
95391,San Joaquin County,CA,76.39657775541016
95401,Sonoma County,CA,77.88122798188223
95457,Lake County,CA,99.11927528938098
95482,Mendocino County,CA,25.012581781580273
95503,Humboldt County,CA,37.11625566180171
95519,Humboldt County,CA,65.40010065425264
95562,Humboldt County,CA,98.89280322093609
95605,Yolo County,CA,96.60291897332662
95624,Sacramento County,CA,35.37996980372421
95660,Sacramento County,CA,62.732762959235025
95687,Solano County,CA,26.396577755410167
95688,Solano County,CA,55.33467539003523
95758,Sacramento County,CA,41.82184197282336
95776,Yolo County,CA,82.98943130347257
95815,Sacramento County,CA,55.46049320583795
95820,Sacramento County,CA,93.9859084046301
95822,Sacramento County,CA,78.83744338198288
95825,Sacramento County,CA,38.27377956718671
95827,Sacramento County,CA,57.57423251132361
95828,Sacramento County,CA,79.44136889783593
95835,Sacramento County,CA,57.82586814292904
95838,Sacramento County,CA,58.404630095621535
95842,Sacramento County,CA,33.54302969300453
95901,Yuba County,CA,13.361852038248617
95926,Butte County,CA,22.244589833920482
95961,Yuba County,CA,32.939104177151485
95965,Butte County,CA,9.61248112732763
95966,Butte County,CA,4.730749874182185
95991,Sutter County,CA,17.74031202818319
95993,Sutter County,CA,68.64620030196275
96002,Shasta County,CA,76.92501258178159
96013,Shasta County,CA,99.52189229994968
96055,Tehama County,CA,97.18168092601913
96097,Siskiyou County,CA,77.02566683442376
96150,El Dorado County,CA,86.66331152491192
80004,Jefferson County,CO,45.54604932058379
80005,Jefferson County,CO,48.11273276295924
80010,Arapahoe County,CO,58.45495722194263
80011,Arapahoe County,CO,53.246099647710125
80012,Arapahoe County,CO,61.04680422747861
80013,Arapahoe County,CO,4.504277805737292
80014,Arapahoe County,CO,53.900352289884246
80015,Arapahoe County,CO,37.36789129340715
80016,Arapahoe County,CO,12.858580775037746
80017,Arapahoe County,CO,26.270759939607448
80033,Jefferson County,CO,71.16255661801712
80108,Douglas County,CO,70.43281328636135
80110,Arapahoe County,CO,84.02113739305486
80122,Arapahoe County,CO,42.67740312028183
80123,Jefferson County,CO,35.73225968797182
80126,Douglas County,CO,40.23653749370911
80138,Douglas County,CO,73.95571212883745
80202,Denver County,CO,40.94111726220433
80204,Denver County,CO,12.229491696024157
80206,Denver County,CO,60.342224458983395
80207,Denver County,CO,30.926019124308002
80210,Denver County,CO,75.86814292903875
80214,Jefferson County,CO,64.56970306995471
80216,Denver County,CO,85.35480624056366
80219,Denver County,CO,13.412179164569704
80220,Denver County,CO,22.320080523402115
80221,Adams County,CO,20.73477604428787
80224,Denver County,CO,52.541519879214896
80227,Jefferson County,CO,46.75390035228988
80228,Jefferson County,CO,43.734272773024664
80229,Adams County,CO,32.20936084549572
80231,Denver County,CO,26.49723200805234
80233,Adams County,CO,15.702063412179164
80234,Adams County,CO,52.18922999496729
80237,Denver County,CO,65.85304479114242
80238,Denver County,CO,89.95973829894312
80239,Denver County,CO,77.6295923502768
80241,Adams County,CO,87.36789129340715
80249,Denver County,CO,59.15953699043784
80260,Adams County,CO,34.826371414192245
80401,Jefferson County,CO,24.63512833417212
80465,Jefferson County,CO,82.15903371917463
80498,Summit County,CO,99.39607448414695
80501,Boulder County,CO,11.32360342224459
80503,Boulder County,CO,55.71212883744339
80513,Larimer County,CO,68.52038248616003
80516,Weld County,CO,55.76245596376447
80525,Larimer County,CO,34.19728233517866
80538,Larimer County,CO,28.812279818822343
80547,Larimer County,CO,98.71665827881228
80550,Weld County,CO,18.54554604932058
80601,Adams County,CO,74.48414695520886
80610,Weld County,CO,98.56567689984902
80621,Weld County,CO,67.23704076497232
80631,Weld County,CO,21.36386512330146
80701,Morgan County,CO,12.40563663814796
80723,Morgan County,CO,67.31253145445395
80807,Kit Carson County,CO,96.62808253648717
80817,El Paso County,CO,41.67086059386009
80909,El Paso County,CO,13.915450427780574
80910,El Paso County,CO,13.990941117262205
80911,El Paso County,CO,29.441368897835936
80916,El Paso County,CO,24.559637644690486
80917,El Paso County,CO,51.10719677906391
80918,El Paso County,CO,68.01711122294917
80922,El Paso County,CO,44.86663311524912
80923,El Paso County,CO,50.654252642174136
81001,Pueblo County,CO,62.38047307498742
81003,Pueblo County,CO,57.49874182184197
81004,Pueblo County,CO,47.38298943130347
81005,Pueblo County,CO,25.113236034222446
81007,Pueblo County,CO,33.8701560140916
81101,Alamosa County,CO,31.504781077000505
81211,Chaffee County,CO,98.4398590840463
81212,Fremont County,CO,62.80825364871666
81230,Gunnison County,CO,89.02868646200301
81416,Delta County,CO,65.37493709109211
81419,Delta County,CO,99.16960241570206
81501,Mesa County,CO,32.23452440865627
81503,Mesa County,CO,91.31857070961247
81504,Mesa County,CO,53.170608958228485
81526,Mesa County,CO,97.43331655762456
81632,Eagle County,CO,96.98037242073477
81650,Garfield County,CO,71.61550075490689
06040,Hartford County,CT,24.584801207851033
06051,Hartford County,CT,11.147458480120784
06066,Tolland County,CT,37.267237040764975
06098,Litchfield County,CT,35.958731756416704
06106,Hartford County,CT,1.8117765475591345
06108,Hartford County,CT,18.64620030196276
06111,Hartford County,CT,26.220432813286358
06112,Hartford County,CT,56.29089079013588
06120,Hartford County,CT,37.94665324609965
06260,Windham County,CT,19.753397081026673
06405,New Haven County,CT,29.34071464519376
06457,Middlesex County,CT,19.37594363361852
06460,New Haven County,CT,51.3839959738299
06475,Middlesex County,CT,77.02566683442376
06479,Hartford County,CT,76.19526925012582
06484,Fairfield County,CT,23.729240060392552
06511,New Haven County,CT,1.7111222949169602
06515,New Haven County,CT,18.36940110719678
06516,New Haven County,CT,2.9944640161046805
06517,New Haven County,CT,38.802214393558124
06604,Fairfield County,CT,10.719677906391546
06605,Fairfield County,CT,22.118772018117767
06606,Fairfield County,CT,9.310518369401107
06615,Fairfield County,CT,71.38902868646201
06704,New Haven County,CT,43.985908404630095
06705,New Haven County,CT,64.36839456467037
06708,New Haven County,CT,12.757926522395572
06716,New Haven County,CT,54.076497232008045
06776,Litchfield County,CT,17.31253145445395
06810,Fairfield County,CT,34.37342727730247
06811,Fairfield County,CT,34.071464519375944
06880,Fairfield County,CT,37.54403623553095
06902,Fairfield County,CT,42.72773024660292
19701,New Castle County,DE,16.305988928032207
19702,New Castle County,DE,7.876195269250126
19709,New Castle County,DE,11.625566180171113
19711,New Castle County,DE,19.30045294413689
19713,New Castle County,DE,19.451434323100152
19720,New Castle County,DE,1.0065425264217414
19801,New Castle County,DE,26.79919476597886
19805,New Castle County,DE,21.892299949672875
19809,New Castle County,DE,48.99345747357826
19904,Kent County,DE,6.768998490186211
19934,Kent County,DE,62.707599396074485
19943,Kent County,DE,84.2727730246603
19945,Sussex County,DE,87.77050830397584
19956,Sussex County,DE,35.63160543532965
19960,Sussex County,DE,89.6577755410166
19975,Sussex County,DE,89.02868646200301
19977,Kent County,DE,13.059889280322093
32011,Nassau County,FL,48.99345747357826
32034,Nassau County,FL,85.22898842476094
32040,Baker County,FL,95.8983392048314
32043,Clay County,FL,66.98540513336688
32053,Hamilton County,FL,94.01107196779064
32055,Columbia County,FL,29.089079013588325
32063,Baker County,FL,59.46149974836437
32065,Clay County,FL,29.96980372420735
32068,Clay County,FL,63.6386512330146
32084,St. Johns County,FL,51.86210367388022
32092,St. Johns County,FL,40.463009562154
32114,Volusia County,FL,44.91696024157021
32131,Putnam County,FL,95.99899345747357
32148,Putnam County,FL,90.84046300956216
32164,Flagler County,FL,22.64720684448918
32174,Volusia County,FL,34.927025666834425
32179,Marion County,FL,66.9350780070458
32205,Duval County,FL,15.752390538500253
32207,Duval County,FL,9.536990437845999
32208,Duval County,FL,0.42778057372924005
32209,Duval County,FL,1.660795168595873
32210,Duval County,FL,42.123804730749875
32211,Duval County,FL,11.90236537493709
32216,Duval County,FL,39.35581278309008
32218,Duval County,FL,25.56618017111223
32219,Duval County,FL,33.291394061399096
32220,Duval County,FL,95.3195772521389
32233,Duval County,FL,27.830900855561147
32244,Duval County,FL,32.86361348766985
32256,Duval County,FL,21.08706592853548
32257,Duval County,FL,14.091595369904377
32258,Duval County,FL,76.09461499748365
32259,St. Johns County,FL,32.38550578761953
32277,Duval County,FL,63.9909411172622
32301,Leon County,FL,55.032712632108705
32303,Leon County,FL,32.13387015601409
32304,Leon County,FL,45.495722194262704
32310,Leon County,FL,56.56768998490186
32311,Leon County,FL,89.02868646200301
32344,Jefferson County,FL,88.62606945143432
32404,Bay County,FL,13.8147961751384
32405,Bay County,FL,15.903371917463513
32408,Bay County,FL,66.18017111222949
32409,Bay County,FL,89.35581278309009
32428,Washington County,FL,42.29994967287368
32433,Walton County,FL,48.38953195772521
32440,Jackson County,FL,87.99698037242074
32503,Escambia County,FL,11.524911927528938
32506,Escambia County,FL,32.435832913940615
32547,Okaloosa County,FL,29.919476597886263
32571,Santa Rosa County,FL,7.0206341217916455
32606,Alachua County,FL,22.244589833920482
32607,Alachua County,FL,10.568696527428283
32609,Alachua County,FL,11.097131353799698
32656,Clay County,FL,60.719677906391546
32680,Dixie County,FL,71.03673880221439
32693,Gilchrist County,FL,58.65626572722697
32696,Levy County,FL,51.534977352793156
32703,Orange County,FL,13.009562154001006
32708,Seminole County,FL,34.046300956215404
32712,Orange County,FL,52.944136889783586
32714,Seminole County,FL,56.014091595369905
32724,Volusia County,FL,75.21389028686461
32736,Lake County,FL,91.89733266230499
32746,Seminole County,FL,42.07347760442879
32751,Orange County,FL,63.38701560140916
32771,Seminole County,FL,35.455460493205834
32776,Lake County,FL,78.38449924509311
32780,Brevard County,FL,62.90890790135884
32784,Lake County,FL,73.50276799194766
32805,Orange County,FL,74.05636638147962
32808,Orange County,FL,34.574735782586814
32809,Orange County,FL,69.80372420734776
32812,Orange County,FL,24.333165576245598
32817,Orange County,FL,56.31605435329643
32822,Orange County,FL,10.442878711625566
32824,Orange County,FL,65.90337191746352
32825,Orange County,FL,54.50427780573729
32828,Orange County,FL,25.36487166582788
32833,Orange County,FL,91.0417715148465
32837,Orange County,FL,61.55007549068948
32905,Brevard County,FL,79.06391545042779
32920,Brevard County,FL,78.56064418721691
32922,Brevard County,FL,37.31756416708606
32952,Brevard County,FL,74.5596376446905
32958,Indian River County,FL,85.12833417211877
32962,Indian River County,FL,70.13085052843483
32967,Indian River County,FL,35.53095118268747
33012,Miami-Dade County,FL,32.4861600402617
33015,Miami-Dade County,FL,72.89884247609461
33016,Miami-Dade County,FL,43.80976346250629
33020,Broward County,FL,71.48968293910418
33021,Broward County,FL,35.88324106693508
33023,Broward County,FL,10.54353296426774
33024,Broward County,FL,18.419728233517866
33025,Broward County,FL,18.772018117765477
33027,Broward County,FL,79.26522395571213
33030,Miami-Dade County,FL,66.78409662808254
33032,Miami-Dade County,FL,64.56970306995471
33033,Miami-Dade County,FL,80.59889280322093
33035,Miami-Dade County,FL,97.71011575239054
33040,Monroe County,FL,32.23452440865627
33054,Miami-Dade County,FL,38.7267237040765
33055,Miami-Dade County,FL,72.67237040764972
33056,Miami-Dade County,FL,28.007045797684953
33063,Broward County,FL,64.77101157523906
33064,Broward County,FL,77.78057372924006
33065,Broward County,FL,35.807750377453445
33067,Broward County,FL,71.71615500754906
33069,Broward County,FL,57.70005032712632
33071,Broward County,FL,41.94765978862607
33128,Miami-Dade County,FL,95.47055863110216
33130,Miami-Dade County,FL,78.0322093608455
33136,Miami-Dade County,FL,38.651233014594865
33141,Miami-Dade County,FL,48.86763965777554
33142,Miami-Dade County,FL,39.003522898842476
33144,Miami-Dade County,FL,78.28384499245094
33145,Miami-Dade County,FL,80.47307498741822
33147,Miami-Dade County,FL,55.10820332159033
33150,Miami-Dade County,FL,85.68193256165073
33157,Miami-Dade County,FL,22.974333165576247
33160,Miami-Dade County,FL,83.81982888777051
33161,Miami-Dade County,FL,92.3754403623553
33162,Miami-Dade County,FL,47.76044287871162
33165,Miami-Dade County,FL,49.320583794665325
33167,Miami-Dade County,FL,52.31504781077001
33168,Miami-Dade County,FL,60.41771514846502
33169,Miami-Dade County,FL,80.85052843482637
33174,Miami-Dade County,FL,64.87166582788123
33175,Miami-Dade County,FL,87.5188726723704
33177,Miami-Dade County,FL,32.083543029693004
33178,Miami-Dade County,FL,87.36789129340715
33187,Miami-Dade County,FL,75.66683442375441
33311,Broward County,FL,70.70961248112732
33312,Broward County,FL,22.87367891293407
33313,Broward County,FL,62.204328132863616
33314,Broward County,FL,58.253648716658276
33319,Broward County,FL,65.22395571212883
33322,Broward County,FL,61.32360342224459
33324,Broward County,FL,58.983392048314045
33351,Broward County,FL,63.2360342224459
33401,Palm Beach County,FL,55.385002516356316
33404,Palm Beach County,FL,60.01509813789633
33406,Palm Beach County,FL,70.231504781077
33407,Palm Beach County,FL,51.96275792652239
33410,Palm Beach County,FL,39.25515853044791
33411,Palm Beach County,FL,26.49723200805234
33414,Palm Beach County,FL,33.54302969300453
33415,Palm Beach County,FL,65.45042778057373
33430,Palm Beach County,FL,40.387518872672366
33435,Palm Beach County,FL,34.927025666834425
33436,Palm Beach County,FL,45.26925012581782
33440,Hendry County,FL,39.22999496728737
33445,Palm Beach County,FL,63.38701560140916
33458,Palm Beach County,FL,46.42677403120282
33460,Palm Beach County,FL,34.423754403623555
33461,Palm Beach County,FL,78.98842476094615
33467,Palm Beach County,FL,45.89833920483141
33493,Palm Beach County,FL,98.96829391041771
33525,Pasco County,FL,60.64418721690992
33542,Pasco County,FL,44.1620533467539
33563,Hillsborough County,FL,36.31102164066432
33569,Hillsborough County,FL,89.22999496728737
33594,Hillsborough County,FL,80.02013085052843
33596,Hillsborough County,FL,83.59335681932562
33604,Hillsborough County,FL,77.37795671867136
33605,Hillsborough County,FL,44.58983392048314
33610,Hillsborough County,FL,52.793155510820334
33612,Hillsborough County,FL,26.094614997483646
33613,Hillsborough County,FL,64.54453950679417
33615,Hillsborough County,FL,17.413185707096122
33619,Hillsborough County,FL,23.402113739305484
33702,Pinellas County,FL,73.70407649723201
33703,Pinellas County,FL,45.92350276799195
33708,Pinellas County,FL,88.87770508303976
33711,Pinellas County,FL,44.53950679416205
33712,Pinellas County,FL,23.527931555108204
33713,Pinellas County,FL,42.82838449924509
33755,Pinellas County,FL,31.9073980875692
33764,Pinellas County,FL,30.800201308505283
33781,Pinellas County,FL,69.02365374937091
33805,Polk County,FL,27.679919476597885
33809,Polk County,FL,36.83945646703573
33811,Polk County,FL,85.35480624056366
33815,Polk County,FL,79.74333165576245
33830,Polk County,FL,24.157020634121793
33844,Polk County,FL,26.270759939607448
33850,Polk County,FL,83.94564670357323
33853,Polk County,FL,83.79466532460997
33860,Polk County,FL,49.77352793155511
33872,Highlands County,FL,93.0045294413689
33881,Polk County,FL,60.1157523905385
33898,Polk County,FL,46.93004529441369
33901,Lee County,FL,42.29994967287368
33905,Lee County,FL,59.31051836940111
33913,Lee County,FL,76.77403120281832
33935,Hendry County,FL,69.35078007045797
33952,Charlotte County,FL,14.418721690991445
33967,Lee County,FL,47.332662304982385
33971,Lee County,FL,46.04932058379467
33974,Lee County,FL,73.72924006039256
33976,Lee County,FL,62.53145445395067
33990,Lee County,FL,24.86160040261701
33991,Lee County,FL,84.32310015098138
34102,Collier County,FL,89.17966784096627
34104,Collier County,FL,42.52642174131857
34112,Collier County,FL,44.26270759939607
34114,Collier County,FL,76.52239557121288
34116,Collier County,FL,69.65274282838449
34119,Collier County,FL,30.674383492702567
34135,Lee County,FL,70.68444891796678
34142,Collier County,FL,77.60442878711625
34202,Manatee County,FL,57.54906894816306
34205,Manatee County,FL,56.36638147961751
34207,Manatee County,FL,43.20583794665325
34208,Manatee County,FL,48.54051333668848
34210,Manatee County,FL,82.28485153497735
34221,Manatee County,FL,26.597886260694516
34234,Sarasota County,FL,63.085052843482636
34237,Sarasota County,FL,77.98188223452442
34238,Sarasota County,FL,76.32108706592854
34251,Manatee County,FL,95.1434323100151
34266,DeSoto County,FL,58.78208354302969
34286,Sarasota County,FL,46.602918973326624
34287,Sarasota County,FL,40.8656265727227
34420,Marion County,FL,61.600402617010566
34431,Marion County,FL,87.49370910920986
34446,Citrus County,FL,75.66683442375441
34452,Citrus County,FL,81.98288877705083
34470,Marion County,FL,38.7267237040765
34471,Marion County,FL,41.06693507800704
34472,Marion County,FL,25.490689481630596
34475,Marion County,FL,82.03321590337191
34479,Marion County,FL,54.781077000503274
34488,Marion County,FL,87.46854554604933
34491,Marion County,FL,51.40915953699044
34601,Hernando County,FL,84.59989934574736
34602,Hernando County,FL,91.06693507800705
34608,Hernando County,FL,26.950176144942123
34638,Pasco County,FL,59.889280322093605
34653,Pasco County,FL,18.293910417715146
34654,Pasco County,FL,35.58127830900856
34655,Pasco County,FL,21.414192249622545
34668,Pasco County,FL,28.636134876698538
34669,Pasco County,FL,69.8288877705083
34690,Pasco County,FL,63.38701560140916
34691,Pasco County,FL,67.21187720181177
34698,Pinellas County,FL,43.30649219929542
34711,Lake County,FL,44.06139909411173
34731,Lake County,FL,79.9446401610468
34736,Lake County,FL,66.18017111222949
34743,Osceola County,FL,35.70709612481127
34746,Osceola County,FL,24.182184197282336
34761,Orange County,FL,27.528938097634626
34769,Osceola County,FL,67.99194765978862
34771,Osceola County,FL,86.73880221439356
34786,Orange County,FL,46.14997483643684
34947,St. Lucie County,FL,74.68545546049322
34950,St. Lucie County,FL,41.82184197282336
34952,St. Lucie County,FL,78.15802717664822
34953,St. Lucie County,FL,15.072974333165575
34972,Okeechobee County,FL,48.691494715651736
34974,Okeechobee County,FL,43.20583794665325
34982,St. Lucie County,FL,42.52642174131857
34986,St. Lucie County,FL,37.21690991444389
34990,Martin County,FL,94.23754403623553
34997,Martin County,FL,52.06341217916457
30005,Fulton County,GA,59.41117262204328
30011,Barrow County,GA,62.40563663814797
30012,Rockdale County,GA,74.76094614997484
30013,Rockdale County,GA,34.34826371414192
30016,Newton County,GA,29.667840966280824
30017,Gwinnett County,GA,54.906894816305986
30019,Gwinnett County,GA,62.078510317060896
30021,DeKalb County,GA,90.13588324106694
30022,Fulton County,GA,62.80825364871666
30024,Gwinnett County,GA,11.82687468545546
30025,Walton County,GA,68.82234524408656
30028,Forsyth County,GA,47.835933568193255
30030,DeKalb County,GA,82.43583291394062
30032,DeKalb County,GA,6.190236537493709
30035,DeKalb County,GA,46.80422747861097
30039,Gwinnett County,GA,61.9023653749371
30040,Forsyth County,GA,15.349773527931553
30041,Forsyth County,GA,16.859587317564166
30043,Gwinnett County,GA,12.783090085556115
30044,Gwinnett County,GA,81.00150981378962
30045,Gwinnett County,GA,95.49572219426271
30047,Gwinnett County,GA,79.24006039255158
30052,Walton County,GA,9.486663311524913
30058,DeKalb County,GA,61.37393054856568
30060,Cobb County,GA,61.499748364368386
30062,Cobb County,GA,65.92853548062405
30064,Cobb County,GA,51.58530447911425
30066,Cobb County,GA,69.14947156517363
30067,Cobb County,GA,49.54705586311022
30068,Cobb County,GA,65.09813789632612
30071,Gwinnett County,GA,94.11172622043281
30080,Cobb County,GA,86.33618520382487
30083,DeKalb County,GA,85.65676899849018
30087,DeKalb County,GA,50.327126321087064
30088,DeKalb County,GA,79.13940613990941
30093,Gwinnett County,GA,88.19828887770508
30094,Rockdale County,GA,68.64620030196275
30096,Gwinnett County,GA,49.14443885254152
30097,Fulton County,GA,49.823855057876195
30101,Cobb County,GA,48.91796678409663
30102,Cherokee County,GA,83.34172118772018
30103,Bartow County,GA,60.493205837946654
30106,Cobb County,GA,56.517362858580775
30107,Cherokee County,GA,87.06592853548062
30114,Cherokee County,GA,58.253648716658276
30116,Carroll County,GA,69.57725213890286
30117,Carroll County,GA,21.540010065425264
30120,Bartow County,GA,41.79667840966281
30122,Douglas County,GA,92.75289380976346
30127,Cobb County,GA,9.662808253648716
30132,Paulding County,GA,21.51484650226472
30134,Douglas County,GA,14.318067438349269
30135,Douglas County,GA,31.98288877705083
30143,Pickens County,GA,51.98792148968294
30153,Polk County,GA,64.49421238047307
30161,Floyd County,GA,59.360845495722195
30165,Floyd County,GA,47.30749874182184
30176,Haralson County,GA,75.61650729743332
30204,Lamar County,GA,80.52340211373931
30213,Fulton County,GA,86.78912934071464
30215,Fayette County,GA,80.6995470558631
30220,Coweta County,GA,87.99698037242074
30233,Butts County,GA,47.76044287871162
30236,Clayton County,GA,53.82486160040262
30238,Clayton County,GA,41.494715651736286
30241,Troup County,GA,80.1207851031706
30252,Henry County,GA,61.82687468545546
30253,Henry County,GA,15.500754906894818
30260,Clayton County,GA,62.65727226975339
30268,Fulton County,GA,73.37695017614494
30274,Clayton County,GA,62.60694514343231
30297,Clayton County,GA,77.5792652239557
30307,DeKalb County,GA,90.96628082536488
30310,Fulton County,GA,64.84650226472068
30311,Fulton County,GA,7.9516859587317565
30312,Fulton County,GA,89.55712128837443
30314,Fulton County,GA,32.00805234021137
30318,Fulton County,GA,17.262204328132864
30319,DeKalb County,GA,61.726220432813285
30326,Fulton County,GA,96.93004529441369
30329,DeKalb County,GA,82.00805234021138
30331,Fulton County,GA,37.040764972320076
30337,Fulton County,GA,71.9677906391545
30338,DeKalb County,GA,65.27428283844992
30339,Cobb County,GA,67.53900352289884
30341,DeKalb County,GA,59.51182687468546
30342,Fulton County,GA,76.6482133870156
30344,Fulton County,GA,32.03321590337192
30349,Fulton County,GA,40.739808756919984
30421,Tattnall County,GA,99.62254655259186
30434,Jefferson County,GA,93.30649219929542
30436,Toombs County,GA,77.88122798188223
30453,Tattnall County,GA,89.58228485153498
30458,Bulloch County,GA,21.766482133870156
30461,Bulloch County,GA,67.41318570709612
30474,Toombs County,GA,48.817312531454455
30504,Hall County,GA,92.19929542023151
30506,Hall County,GA,18.772018117765477
30507,Hall County,GA,31.63059889280322
30517,Jackson County,GA,78.86260694514343
30518,Gwinnett County,GA,25.84297936587821
30519,Gwinnett County,GA,34.75088072471062
30520,Franklin County,GA,92.27478610971313
30523,Habersham County,GA,74.5596376446905
30528,White County,GA,41.09209864116759
30540,Gilmer County,GA,70.88575742325112
30549,Jackson County,GA,34.85153497735279
30564,Hall County,GA,98.51534977352793
30577,Stephens County,GA,33.74433819828887
30605,Clarke County,GA,44.18721690991445
30606,Clarke County,GA,26.79919476597886
30628,Madison County,GA,96.07448414695521
30635,Elbert County,GA,53.62355309511827
30643,Hart County,GA,53.6990437845999
30655,Walton County,GA,23.88022143935581
30656,Walton County,GA,82.10870659285355
30669,Greene County,GA,99.72320080523403
30677,Oconee County,GA,87.77050830397584
30680,Barrow County,GA,61.52491192752893
30707,Walker County,GA,29.84398590840463
30721,Whitfield County,GA,13.663814796175139
30725,Walker County,GA,92.92903875188728
30736,Catoosa County,GA,5.208857574232511
30741,Walker County,GA,59.73829894313035
30753,Chattooga County,GA,80.72471061902365
30813,Columbia County,GA,20.508303975842978
30815,Richmond County,GA,11.675893306492199
30824,McDuffie County,GA,37.06592853548062
30830,Burke County,GA,41.368897835933566
30901,Richmond County,GA,98.81731253145445
30904,Richmond County,GA,75.03774534474081
30906,Richmond County,GA,38.777050830397584
30907,Columbia County,GA,47.835933568193255
30909,Richmond County,GA,67.53900352289884
31005,Houston County,GA,78.10770005032713
31014,Bleckley County,GA,93.15551082033215
31021,Laurens County,GA,27.453447408152993
31024,Putnam County,GA,45.319577252138906
31047,Houston County,GA,82.98943130347257
31052,Bibb County,GA,91.74635128334172
31063,Macon County,GA,94.08656265727227
31082,Washington County,GA,82.6623049823855
31088,Houston County,GA,68.24358329139406
31089,Washington County,GA,97.71011575239054
31092,Dooly County,GA,93.93558127830902
31093,Houston County,GA,21.690991444388523
31204,Bibb County,GA,54.57976849521893
31206,Bibb County,GA,52.84348263714141
31210,Bibb County,GA,50.55359838953196
31312,Effingham County,GA,72.74786109713135
31316,Long County,GA,91.41922496225465
31324,Bryan County,GA,75.06290890790136
31326,Effingham County,GA,52.516356316054356
31401,Chatham County,GA,83.64368394564671
31404,Chatham County,GA,73.62858580775038
31408,Chatham County,GA,93.58329139406139
31419,Chatham County,GA,56.71867136386513
31503,Ware County,GA,40.79013588324107
31510,Bacon County,GA,90.51333668847509
31516,Pierce County,GA,58.78208354302969
31520,Glynn County,GA,85.58127830900855
31525,Glynn County,GA,72.39557121288375
31533,Coffee County,GA,51.48465022647207
31535,Coffee County,GA,93.13034725717162
31537,Charlton County,GA,57.04579768495219
31548,Camden County,GA,77.50377453447408
31601,Lowndes County,GA,14.972320080523401
31602,Lowndes County,GA,25.591343734272776
31620,Cook County,GA,68.4448917966784
31634,Clinch County,GA,83.64368394564671
31635,Lanier County,GA,93.8097634625063
31636,Lowndes County,GA,78.68646200301963
31639,Berrien County,GA,91.14242576748867
31701,Dougherty County,GA,33.794665324609966
31705,Dougherty County,GA,18.671363865123304
31750,Ben Hill County,GA,47.458480120785104
31763,Lee County,GA,38.802214393558124
31768,Colquitt County,GA,54.93205837946653
31775,Tift County,GA,99.9496728736789
31779,Mitchell County,GA,86.58782083543029
31791,Worth County,GA,73.77956718671363
31792,Thomas County,GA,56.69350780070458
31820,Muscogee County,GA,92.55158530447912
31903,Muscogee County,GA,55.73729240060392
31904,Muscogee County,GA,53.573225968797175
31906,Muscogee County,GA,63.86512330145949
31907,Muscogee County,GA,20.835430296930046
31909,Muscogee County,GA,27.47861097131354
39817,Decatur County,GA,82.083543029693
39827,Grady County,GA,99.34574735782587
39828,Grady County,GA,60.1157523905385
96706,Honolulu County,HI,60.694514343231
96707,Honolulu County,HI,84.92702566683442
96708,Maui County,HI,95.62154001006542
96720,Hawaii County,HI,21.565173628585807
96732,Maui County,HI,90.73980875691998
96738,Hawaii County,HI,94.86663311524912
96744,Honolulu County,HI,11.046804227478612
96746,Kauai County,HI,56.014091595369905
96756,Kauai County,HI,96.80422747861097
96761,Maui County,HI,85.00251635631605
96768,Maui County,HI,95.84801207851031
96771,Hawaii County,HI,98.33920483140413
96782,Honolulu County,HI,24.63512833417212
96786,Honolulu County,HI,55.93860090588827
96792,Honolulu County,HI,6.039255158530448
96793,Maui County,HI,69.02365374937091
96797,Honolulu County,HI,20.885757423251132
96813,Honolulu County,HI,22.043281328636137
96814,Honolulu County,HI,60.2918973326623
96817,Honolulu County,HI,5.812783090085556
96826,Honolulu County,HI,30.62405636638148
83201,Bannock County,ID,12.908907901358832
83202,Bannock County,ID,41.72118772018118
83204,Bannock County,ID,41.89733266230498
83221,Bingham County,ID,16.633115249119275
83274,Bingham County,ID,97.055863110216407
83301,Twin Falls County,ID,10.417715148465023
83316,Twin Falls County,ID,83.74433819828889
83350,Minidoka County,ID,66.3059889280322
83401,Bonneville County,ID,7.574232511323603
83440,Madison County,ID,97.48364368394564
83442,Jefferson County,ID,30.598892803220934
83501,Nez Perce County,ID,7.221942627075995
83605,Canyon County,ID,16.58278812279819
83607,Canyon County,ID,26.84952189229995
83617,Gem County,ID,62.53145445395067
83634,Ada County,ID,28.334172118772017
83642,Ada County,ID,37.418218419728234
83646,Ada County,ID,5.762455963764469
83647,Elmore County,ID,66.75893306492199
83661,Payette County,ID,81.5551082033216
83676,Canyon County,ID,95.62154001006542
83702,Ada County,ID,18.92299949672874
83709,Ada County,ID,33.84499245093105
83856,Bonner County,ID,96.40161046804228
60010,Lake County,IL,27.27730246602919
60014,McHenry County,IL,46.57775541016608
60016,Cook County,IL,13.638651233014595
60018,Cook County,IL,52.11373930548565
60033,McHenry County,IL,86.58782083543029
60047,Lake County,IL,25.26421741318571
60051,McHenry County,IL,40.66431806743835
60062,Cook County,IL,27.42828384499245
60073,Lake County,IL,68.41972823351786
60074,Cook County,IL,29.768495218922997
60077,Cook County,IL,49.194765978862605
60081,McHenry County,IL,60.1157523905385
60084,Lake County,IL,66.02918973326624
60085,Lake County,IL,9.360845495722195
60089,Lake County,IL,79.26522395571213
60091,Cook County,IL,61.600402617010566
60098,McHenry County,IL,53.97584297936587
60099,Lake County,IL,28.88777050830398
60103,DuPage County,IL,50.67941620533467
60118,Kane County,IL,66.02918973326624
60120,Kane County,IL,49.89934574735783
60123,Kane County,IL,12.02818319073981
60130,Cook County,IL,70.96124811273276
60131,Cook County,IL,87.6950176144942
60139,DuPage County,IL,38.802214393558124
60143,DuPage County,IL,80.19627579265224
60148,DuPage County,IL,7.473578258681429
60154,Cook County,IL,40.33719174635128
60155,Cook County,IL,77.27730246602918
60160,Cook County,IL,40.639154504277805
60178,DeKalb County,IL,75.96879718168093
60188,DuPage County,IL,9.989934574735782
60189,DuPage County,IL,23.603422244589833
60190,DuPage County,IL,69.50176144942124
60191,DuPage County,IL,57.44841469552089
60403,Will County,IL,49.194765978862605
60406,Cook County,IL,42.82838449924509
60409,Cook County,IL,52.49119275289381
60411,Cook County,IL,80.62405636638148
60419,Cook County,IL,34.172118772018116
60423,Will County,IL,28.83744338198289
60425,Cook County,IL,75.96879718168093
60426,Cook County,IL,44.816305988928036
60430,Cook County,IL,54.8565676899849
60431,Will County,IL,28.510317060895822
60433,Will County,IL,80.62405636638148
60435,Will County,IL,4.781077000503271
60438,Cook County,IL,82.05837946653246
60440,Will County,IL,41.016607951685955
60447,Grundy County,IL,45.64670357322596
60448,Will County,IL,44.26270759939607
60449,Will County,IL,79.01358832410669
60451,Will County,IL,10.870659285354806
60455,Cook County,IL,37.69501761449421
60458,Cook County,IL,75.8933064921993
60462,Cook County,IL,15.676899849018621
60471,Cook County,IL,62.15400100654252
60473,Cook County,IL,45.67186713638651
60480,Cook County,IL,92.77805737292401
60481,Will County,IL,57.92652239557121
60490,Will County,IL,50.25163563160544
60501,Cook County,IL,95.36990437845999
60502,DuPage County,IL,74.00603925515853
60504,DuPage County,IL,24.05636638147962
60505,Kane County,IL,93.28132863613487
60506,Kane County,IL,48.03724207347761
60517,DuPage County,IL,27.579265223955712
60523,DuPage County,IL,79.34071464519376
60525,Cook County,IL,13.261197785606441
60538,Kendall County,IL,79.16456970306996
60542,Kane County,IL,83.39204831404126
60544,Will County,IL,60.66935078007047
60545,Kendall County,IL,57.82586814292904
60559,DuPage County,IL,32.586814292903874
60565,DuPage County,IL,19.476597886260695
60585,Will County,IL,44.46401610468042
60586,Will County,IL,7.549068948163059
60608,Cook County,IL,26.67337695017615
60609,Cook County,IL,70.25666834423755
60614,Cook County,IL,12.506290890790137
60616,Cook County,IL,59.31051836940111
60617,Cook County,IL,18.344237544036236
60618,Cook County,IL,21.28837443381983
60619,Cook County,IL,2.3905385002516355
60620,Cook County,IL,18.419728233517866
60621,Cook County,IL,57.976849521892305
60622,Cook County,IL,59.63764469048818
60623,Cook County,IL,38.07247106190236
60625,Cook County,IL,47.05586311021641
60628,Cook County,IL,2.969300452944137
60629,Cook County,IL,34.39859084046301
60632,Cook County,IL,31.001509813789635
60633,Cook County,IL,85.17866129843986
60634,Cook County,IL,4.705586311021641
60636,Cook County,IL,56.4167086059386
60637,Cook County,IL,77.30246602918973
60639,Cook County,IL,23.100150981378963
60640,Cook County,IL,42.37544036235531
60641,Cook County,IL,51.30850528434826
60644,Cook County,IL,20.483140412682435
60645,Cook County,IL,24.35832913940614
60647,Cook County,IL,19.803724207347763
60649,Cook County,IL,52.26472068444892
60651,Cook County,IL,73.82989431303473
60652,Cook County,IL,17.488676396577755
60653,Cook County,IL,52.06341217916457
60656,Cook County,IL,70.38248616004026
60657,Cook County,IL,11.726220432813287
60659,Cook County,IL,69.22496225465527
60660,Cook County,IL,16.129843985908405
60804,Cook County,IL,40.8656265727227
60901,Kankakee County,IL,8.656265727226975
60914,Kankakee County,IL,55.86311021640664
61010,Ogle County,IL,76.32108706592854
61021,Lee County,IL,20.608958228485154
61032,Stephenson County,IL,22.747861097131352
61101,Winnebago County,IL,35.656768998490186
61109,Winnebago County,IL,33.54302969300453
61201,Rock Island County,IL,60.518369401107194
61231,Mercer County,IL,99.4212380473075
61282,Rock Island County,IL,87.77050830397584
61401,Knox County,IL,50.4026170105687
61455,McDonough County,IL,81.15249119275289
61550,Tazewell County,IL,84.57473578258681
61603,Peoria County,IL,92.09864116758934
61605,Peoria County,IL,65.5510820332159
61614,Peoria County,IL,66.5324609964771
61615,Peoria County,IL,70.48314041268243
61701,McLean County,IL,72.99949672873679
61704,McLean County,IL,26.547559134373426
61705,McLean County,IL,74.00603925515853
61761,McLean County,IL,27.90639154504278
61801,Champaign County,IL,68.6210367388022
61832,Vermilion County,IL,4.806240563663815
61920,Coles County,IL,44.38852541519879
62002,Madison County,IL,19.124308002013084
62040,Madison County,IL,60.87065928535481
62207,St. Clair County,IL,94.18721690991444
62220,St. Clair County,IL,82.56165072974333
62226,St. Clair County,IL,31.504781077000505
62234,Madison County,IL,72.04328132863613
62298,Monroe County,IL,76.39657775541016
62305,Adams County,IL,61.474584801207854
62454,Crawford County,IL,96.6532460996477
62521,Macon County,IL,6.4167086059386005
62526,Macon County,IL,5.561147458480121
62568,Christian County,IL,68.57070961248112
62702,Sangamon County,IL,15.223955712128836
62703,Sangamon County,IL,18.696527428283847
62704,Sangamon County,IL,35.0276799194766
62837,Wayne County,IL,86.9401107196779
62864,Jefferson County,IL,69.67790639154504
62881,Marion County,IL,63.11021640664318
62896,Franklin County,IL,66.48213387015602
62901,Jackson County,IL,83.21590337191746
62930,Saline County,IL,93.43231001509814
62966,Jackson County,IL,82.63714141922496
46001,Madison County,IN,84.37342727730247
46012,Madison County,IN,60.56869652742828
46038,Hamilton County,IN,47.63462506290891
46052,Boone County,IN,30.246602918973327
46060,Hamilton County,IN,19.904378459989935
46077,Boone County,IN,80.47307498741822
46106,Johnson County,IN,94.28787116255661
46112,Hendricks County,IN,75.06290890790136
46131,Johnson County,IN,19.250125817815803
46135,Putnam County,IN,57.146451937594364
46140,Hancock County,IN,17.966784096628082
46142,Johnson County,IN,31.152491192752898
46151,Morgan County,IN,66.88475088072471
46176,Shelby County,IN,8.203321590337191
46184,Johnson County,IN,65.65173628585808
46201,Marion County,IN,9.68797181680926
46205,Marion County,IN,24.81127327629592
46208,Marion County,IN,22.974333165576247
46219,Marion County,IN,5.988928032209361
46224,Marion County,IN,87.72018117765475
46226,Marion County,IN,28.28384499245093
46227,Marion County,IN,4.252642174131857
46228,Marion County,IN,72.29491696024158
46237,Marion County,IN,10.216406643180674
46240,Marion County,IN,86.3613487669854
46241,Marion County,IN,60.719677906391546
46250,Marion County,IN,71.23804730749875
46254,Marion County,IN,44.01107196779064
46256,Marion County,IN,60.41771514846502
46260,Marion County,IN,33.920483140412685
46268,Marion County,IN,32.813286361348766
46278,Marion County,IN,93.73427277302466
46304,Porter County,IN,6.492199295420232
46320,Lake County,IN,22.773024660291895
46321,Lake County,IN,23.125314544539506
46323,Lake County,IN,11.424257674886764
46341,Porter County,IN,53.044791142425765
46349,Newton County,IN,93.93558127830902
46350,LaPorte County,IN,3.8500251635631604
46356,Lake County,IN,19.703069954705587
46360,LaPorte County,IN,14.720684448917968
46385,Porter County,IN,3.0951182687468544
46390,LaPorte County,IN,94.99245093105185
46405,Lake County,IN,63.53799698037243
46410,Lake County,IN,18.218419728233517
46514,Elkhart County,IN,18.520382486160038
46517,Elkhart County,IN,37.19174635128334
46544,St. Joseph County,IN,36.260694514343236
46545,St. Joseph County,IN,90.31202818319073
46580,Kosciusko County,IN,34.59989934574736
46614,St. Joseph County,IN,48.2637141419225
46615,St. Joseph County,IN,88.77705083039758
46616,St. Joseph County,IN,99.64771011575239
46619,St. Joseph County,IN,43.43231001509814
46628,St. Joseph County,IN,37.770508303975845
46637,St. Joseph County,IN,82.76295923502768
46725,Whitley County,IN,19.073980875691998
46737,Steuben County,IN,91.29340714645193
46767,Noble County,IN,86.16004026170106
46803,Allen County,IN,94.16205334675391
46804,Allen County,IN,33.090085556114744
46806,Allen County,IN,16.004026170105686
46808,Allen County,IN,20.91092098641168
46825,Allen County,IN,26.34625062908908
46901,Howard County,IN,0.7045797684952189
46902,Howard County,IN,10.97131353799698
46923,Carroll County,IN,75.66683442375441
46947,Cass County,IN,63.714141922496225
46952,Grant County,IN,9.68797181680926
46970,Miami County,IN,4.403623553095119
47025,Dearborn County,IN,28.761952692501257
47112,Harrison County,IN,88.147961751384
47122,Floyd County,IN,88.77705083039758
47130,Clark County,IN,4.3281328636134875
47167,Washington County,IN,72.19426270759939
47172,Clark County,IN,92.42576748867639
47201,Bartholomew County,IN,28.309008555611477
47203,Bartholomew County,IN,76.01912430800202
47265,Jennings County,IN,13.286361348766984
47274,Jackson County,IN,16.859587317564166
47303,Delaware County,IN,23.251132360342226
47304,Delaware County,IN,40.08555611474585
47336,Jay County,IN,98.89280322093609
47348,Blackford County,IN,83.14041268243584
47374,Wayne County,IN,12.632108706592854
47396,Delaware County,IN,94.5143432310015
47421,Lawrence County,IN,57.12128837443382
47501,Daviess County,IN,59.612481127327634
47620,Posey County,IN,61.6758933064922
47710,Vanderburgh County,IN,23.88022143935581
47711,Vanderburgh County,IN,16.9350780070458
47804,Vigo County,IN,49.949672873678914
47834,Clay County,IN,20.634121791645697
47909,Tippecanoe County,IN,79.03875188726724
47933,Montgomery County,IN,20.407649723200805
50010,Story County,IA,46.67840966280825
50208,Jasper County,IA,88.34927025666835
50310,Polk County,IA,42.601912430800205
50311,Polk County,IA,39.607448414695526
50312,Polk County,IA,82.28485153497735
50313,Polk County,IA,27.579265223955712
50314,Polk County,IA,67.41318570709612
50316,Polk County,IA,29.1897332662305
50320,Polk County,IA,36.88978359335682
50321,Polk County,IA,87.04076497232009
50401,Cerro Gordo County,IA,5.787619526925012
50588,Buena Vista County,IA,64.11675893306492
50613,Black Hawk County,IA,38.12279818822345
50627,Hardin County,IA,99.87418218419728
51103,Woodbury County,IA,36.61298439859084
51104,Woodbury County,IA,67.63965777554102
51106,Woodbury County,IA,70.33215903371918
51334,Emmet County,IA,91.8470055359839
51501,Pottawattamie County,IA,57.80070457976849
51503,Pottawattamie County,IA,55.56114745848012
51510,Pottawattamie County,IA,88.3744338198289
51534,Mills County,IA,51.98792148968294
52001,Dubuque County,IA,33.920483140412685
52002,Dubuque County,IA,66.83442375440363
52301,Iowa County,IA,98.4901862103674
52302,Linn County,IA,12.02818319073981
52317,Johnson County,IA,40.110719677906395
52403,Linn County,IA,30.95118268746855
52405,Linn County,IA,27.226975339708105
52501,Wapello County,IA,7.121288374433819
52537,Davis County,IA,95.36990437845999
52601,Des Moines County,IA,6.139909411172622
52722,Scott County,IA,41.645697030699544
52726,Scott County,IA,96.42677403120283
52732,Clinton County,IA,62.65727226975339
52753,Scott County,IA,95.62154001006542
52761,Muscatine County,IA,48.314041268243585
52803,Scott County,IA,23.301459486663312
52804,Scott County,IA,35.556114745848014
52806,Scott County,IA,11.877201811776548
66061,Johnson County,KS,40.41268243583291
66062,Johnson County,KS,4.9068948163059884
66101,Wyandotte County,KS,81.78158027176649
66104,Wyandotte County,KS,69.55208857574232
66202,Johnson County,KS,69.22496225465527
66203,Johnson County,KS,91.97282335178662
66206,Johnson County,KS,90.23653749370911
66607,Shawnee County,KS,77.25213890286865
67002,Butler County,KS,96.1248112732763
67005,Cowley County,KS,74.78610971313539
67010,Butler County,KS,68.4448917966784
67037,Sedgwick County,KS,85.556114745848
67042,Butler County,KS,50.805234021137395
67133,Butler County,KS,99.49672873678914
67204,Sedgwick County,KS,74.5596376446905
67205,Sedgwick County,KS,87.21690991444389
67211,Sedgwick County,KS,42.80322093608455
67213,Sedgwick County,KS,52.34021137393054
67214,Sedgwick County,KS,86.0090588827378
67216,Sedgwick County,KS,67.1615500754907
67217,Sedgwick County,KS,41.268243583291394
67218,Sedgwick County,KS,67.3376950176145
67219,Sedgwick County,KS,81.95772521389028
67226,Sedgwick County,KS,94.41368897835933
67230,Sedgwick County,KS,99.69803724207348
67530,Barton County,KS,60.04026170105688
67601,Ellis County,KS,64.24257674886763
67801,Ford County,KS,88.97835933568193
67880,Grant County,KS,92.14896829391041
40004,Nelson County,KY,39.129340714645195
40006,Trimble County,KY,91.6708605938601
40014,Oldham County,KY,60.94614997483644
40031,Oldham County,KY,54.83140412682436
40065,Shelby County,KY,28.988424760946153
40069,Washington County,KY,58.70659285354807
40203,Jefferson County,KY,62.88374433819829
40207,Jefferson County,KY,62.50629089079014
40213,Jefferson County,KY,23.024660291897334
40214,Jefferson County,KY,17.840966280825366
40215,Jefferson County,KY,9.939607448414696
40216,Jefferson County,KY,43.356819325616506
40219,Jefferson County,KY,29.592350276799195
40220,Jefferson County,KY,26.094614997483646
40241,Jefferson County,KY,72.49622546552592
40245,Jefferson County,KY,36.68847508807247
40258,Jefferson County,KY,12.68243583291394
40272,Jefferson County,KY,6.919979869149471
40299,Jefferson County,KY,22.672370407649723
40324,Scott County,KY,6.7438349270256674
40336,Estill County,KY,43.0045294413689
40351,Rowan County,KY,12.330145948666331
40356,Jessamine County,KY,52.46602918973326
40361,Bourbon County,KY,24.484146955208857
40383,Woodford County,KY,64.62003019627579
40391,Clark County,KY,21.061902365374937
40403,Madison County,KY,12.707599396074484
40484,Lincoln County,KY,59.838953195772525
40503,Fayette County,KY,57.146451937594364
40504,Fayette County,KY,65.62657272269753
40511,Fayette County,KY,78.7871162556618
40513,Fayette County,KY,92.70256668344238
40514,Fayette County,KY,89.58228485153498
40517,Fayette County,KY,42.92903875188727
40744,Laurel County,KY,18.24358329139406
41005,Boone County,KY,50.301962757926525
41010,Grant County,KY,95.29441368897837
41015,Kenton County,KY,15.651736285858078
41016,Kenton County,KY,75.36487166582788
41017,Kenton County,KY,20.08052340211374
41018,Kenton County,KY,14.469048817312533
41035,Grant County,KY,34.6250629089079
41040,Pendleton County,KY,56.668344237544034
41042,Boone County,KY,47.710115752390536
41048,Boone County,KY,93.08002013085053
41056,Mason County,KY,31.07700050327126
41091,Boone County,KY,87.29240060392551
41094,Boone County,KY,69.02365374937091
41144,Greenup County,KY,63.361852038248614
41465,Magoffin County,KY,78.2083543029693
41472,Morgan County,KY,89.10417715148465
41501,Pike County,KY,5.661801711122295
42003,McCracken County,KY,7.523905385002516
42025,Marshall County,KY,31.27830900855561
42041,Fulton County,KY,83.21590337191746
42066,Graves County,KY,64.16708605938601
42071,Calloway County,KY,63.94061399094112
42101,Warren County,KY,2.7931555108203323
42103,Warren County,KY,52.81831907398088
42104,Warren County,KY,30.04529441368898
42141,Barren County,KY,28.686462003019624
42167,Monroe County,KY,53.95067941620534
42206,Logan County,KY,98.16305988928032
42211,Trigg County,KY,81.47961751383997
42240,Christian County,KY,16.65827881227982
42301,Daviess County,KY,4.227478610971314
42303,Daviess County,KY,4.428787116255662
42330,Muhlenberg County,KY,61.07196779063916
42413,Hopkins County,KY,99.06894816305989
42420,Henderson County,KY,4.051333668847509
42501,Pulaski County,KY,38.34927025666835
42642,Russell County,KY,57.37292400603925
42754,Grayson County,KY,49.823855057876195
42765,Hart County,KY,96.42677403120283
70001,Jefferson Parish,LA,12.279818822345243
70003,Jefferson Parish,LA,20.759939607448416
70005,Jefferson Parish,LA,22.320080523402115
70056,Jefferson Parish,LA,12.732762959235028
70058,Jefferson Parish,LA,0.7800704579768495
70062,Jefferson Parish,LA,10.015098137896326
70065,Jefferson Parish,LA,1.5853044791142425
70072,Jefferson Parish,LA,0.40261701056869653
70094,Jefferson Parish,LA,72.16909914443886
70115,Orleans Parish,LA,38.55057876195269
70116,Orleans Parish,LA,37.87116255661802
70117,Orleans Parish,LA,12.455963764469049
70118,Orleans Parish,LA,71.31353799698037
70119,Orleans Parish,LA,29.567186713638648
70122,Orleans Parish,LA,13.990941117262205
70123,Jefferson Parish,LA,9.76346250629089
70126,Orleans Parish,LA,59.78862606945143
70127,Orleans Parish,LA,3.120281831907398
70128,Orleans Parish,LA,8.807247106190237
70129,Orleans Parish,LA,63.86512330145949
70130,Orleans Parish,LA,30.800201308505283
70131,Orleans Parish,LA,52.69250125817816
70301,Lafourche Parish,LA,0.8052340211373931
70359,Terrebonne Parish,LA,19.627579265223954
70363,Terrebonne Parish,LA,1.509813789632612
70380,St. Mary Parish,LA,43.860090588827376
70401,Tangipahoa Parish,LA,14.67035732259688
70403,Tangipahoa Parish,LA,2.642174131857071
70420,St. Tammany Parish,LA,86.81429290387518
70433,St. Tammany Parish,LA,2.692501258178158
70438,Washington Parish,LA,6.69350780070458
70444,Tangipahoa Parish,LA,69.47659788626069
70460,St. Tammany Parish,LA,29.21489682939104
70461,St. Tammany Parish,LA,8.782083543029694
70466,Tangipahoa Parish,LA,41.16758933064922
70501,Lafayette Parish,LA,0.7297433316557624
70503,Lafayette Parish,LA,86.13487669854051
70506,Lafayette Parish,LA,2.2395571212883745
70507,Lafayette Parish,LA,66.25566180171111
70508,Lafayette Parish,LA,54.35329642677404
70512,St. Landry Parish,LA,53.673880221439354
70517,St. Martin Parish,LA,29.71816809260191
70526,Acadia Parish,LA,46.65324609964771
70538,St. Mary Parish,LA,30.523402113739305
70549,Jefferson Davis Parish,LA,79.79365878208354
70555,Vermilion Parish,LA,79.69300452944137
70560,Iberia Parish,LA,8.077503774534474
70570,St. Landry Parish,LA,13.336688475088074
70584,St. Landry Parish,LA,56.618017111222954
70586,Evangeline Parish,LA,8.002013085052843
70592,Lafayette Parish,LA,70.53346753900352
70601,Calcasieu Parish,LA,5.91343734272773
70605,Calcasieu Parish,LA,9.562154001006542
70607,Calcasieu Parish,LA,6.945143432310015
70657,Beauregard Parish,LA,84.19728233517866
70663,Calcasieu Parish,LA,3.548062405636638
70665,Calcasieu Parish,LA,23.477604428787117
70669,Calcasieu Parish,LA,43.608454957221944
70706,Livingston Parish,LA,20.78510317060896
70711,Livingston Parish,LA,80.87569199798692
70726,Livingston Parish,LA,5.586311021640665
70737,Ascension Parish,LA,37.166582788122795
70739,East Baton Rouge Parish,LA,67.94162053346754
70744,Livingston Parish,LA,78.56064418721691
70757,Iberville Parish,LA,85.43029693004529
70769,Ascension Parish,LA,58.63110216406643
70774,Ascension Parish,LA,77.37795671867136
70785,Livingston Parish,LA,9.159536990437847
70802,East Baton Rouge Parish,LA,15.853044791142427
70805,East Baton Rouge Parish,LA,1.0568696527428285
70809,East Baton Rouge Parish,LA,42.350276799194766
70810,East Baton Rouge Parish,LA,20.65928535480624
70812,East Baton Rouge Parish,LA,16.985405133366886
70815,East Baton Rouge Parish,LA,7.9516859587317565
71047,Caddo Parish,LA,73.17564167086059
71055,Webster Parish,LA,8.933064921992955
71108,Caddo Parish,LA,24.408656265727227
71111,Bossier Parish,LA,1.9375943633618522
71112,Bossier Parish,LA,6.391545042778057
71129,Caddo Parish,LA,27.201811776547558
71201,Ouachita Parish,LA,22.84851534977353
71202,Ouachita Parish,LA,99.27025666834423
71203,Ouachita Parish,LA,21.187720181177657
71220,Morehouse Parish,LA,38.022143935581276
71251,Jackson Parish,LA,35.153497735279316
71269,Richland Parish,LA,33.54302969300453
71282,Madison Parish,LA,71.76648213387016
71292,Ouachita Parish,LA,64.3935581278309
71301,Rapides Parish,LA,3.170608958228485
71302,Rapides Parish,LA,15.047810770005032
71360,Rapides Parish,LA,5.284348263714142
71403,Vernon Parish,LA,99.92450931051837
71430,Rapides Parish,LA,98.38953195772521
71449,Sabine Parish,LA,61.726220432813285
71483,Winn Parish,LA,62.12883744338198
04043,York County,ME,53.573225968797175
04074,Cumberland County,ME,56.8193256165073
04240,Androscoggin County,ME,31.706089582284854
04730,Aroostook County,ME,46.477101157523904
04742,Aroostook County,ME,71.43935581278309
20601,Charles County,MD,84.8515349773528
20613,Prince George's County,MD,79.5923502767992
20723,Howard County,MD,75.76748867639658
20740,Prince George's County,MD,96.8797181680926
20744,Prince George's County,MD,34.27277302466029
20748,Prince George's County,MD,66.68344237544036
20774,Prince George's County,MD,31.504781077000505
20784,Prince George's County,MD,58.756919979869146
20832,Montgomery County,MD,73.77956718671363
20853,Montgomery County,MD,74.78610971313539
20876,Montgomery County,MD,57.901358832410665
20882,Montgomery County,MD,81.27830900855561
20902,Montgomery County,MD,58.1529944640161
21030,Baltimore County,MD,61.9023653749371
21032,Anne Arundel County,MD,91.09209864116758
21040,Harford County,MD,48.38953195772521
21042,Howard County,MD,59.73829894313035
21045,Howard County,MD,36.68847508807247
21046,Howard County,MD,87.84599899345747
21050,Harford County,MD,63.462506290890786
21076,Anne Arundel County,MD,79.96980372420734
21090,Anne Arundel County,MD,81.7312531454454
21102,Carroll County,MD,84.75088072471063
21111,Baltimore County,MD,96.57775541016608
21117,Baltimore County,MD,18.948163059889282
21122,Anne Arundel County,MD,20.558631102164064
21144,Anne Arundel County,MD,46.37644690488173
21207,Baltimore County,MD,12.581781580271766
21208,Baltimore County,MD,50.201308505284345
21212,Baltimore city,MD,29.41620533467539
21215,Baltimore city,MD,3.34675390035229
21224,Baltimore city,MD,8.32913940613991
21228,Baltimore County,MD,40.18621036738802
21229,Baltimore city,MD,9.46149974836437
21244,Baltimore County,MD,31.932561650729745
21403,Anne Arundel County,MD,52.541519879214896
21703,Frederick County,MD,49.949672873678914
21784,Carroll County,MD,43.43231001509814
21853,Somerset County,MD,90.03522898842476
21901,Cecil County,MD,57.976849521892305
01089,Hampden County,MA,98.76698540513337
01201,Berkshire County,MA,32.51132360342224
01230,Berkshire County,MA,99.47156517362859
01247,Berkshire County,MA,2.3150478107700048
01331,Worcester County,MA,79.91947659788626
01364,Franklin County,MA,99.14443885254151
01420,Worcester County,MA,0.050327126321087066
01469,Middlesex County,MA,68.36940110719678
01475,Worcester County,MA,15.9536990437846
01532,Worcester County,MA,98.86763965777554
01540,Worcester County,MA,27.403120281831907
01569,Worcester County,MA,23.754403623553095
01701,Middlesex County,MA,4.881731253145445
01721,Middlesex County,MA,21.187720181177657
01748,Middlesex County,MA,31.831907398087566
01749,Middlesex County,MA,11.021640664318069
01752,Middlesex County,MA,1.1575239053850024
01778,Middlesex County,MA,73.32662304982385
01801,Middlesex County,MA,70.75993960744842
01803,Middlesex County,MA,95.34474081529945
01830,Essex County,MA,60.719677906391546
01832,Essex County,MA,1.2078510317060895
01841,Essex County,MA,18.973326623049825
01843,Essex County,MA,1.031706089582285
01844,Essex County,MA,0.3019627579265224
01851,Middlesex County,MA,76.04428787116255
01854,Middlesex County,MA,82.7126321087066
01863,Middlesex County,MA,42.501258178158025
01887,Middlesex County,MA,2.6673376950176144
01902,Essex County,MA,43.96074484146955
01930,Essex County,MA,1.2581781580271767
02026,Norfolk County,MA,64.34323100150982
02043,Plymouth County,MA,25.666834423754402
02066,Plymouth County,MA,24.760946149974835
02072,Norfolk County,MA,83.41721187720181
02090,Norfolk County,MA,55.46049320583795
02115,Suffolk County,MA,2.49119275289381
02119,Suffolk County,MA,0
02120,Suffolk County,MA,2.06341217916457
02121,Suffolk County,MA,75.94363361852038
02126,Suffolk County,MA,0.10065425264217413
02128,Suffolk County,MA,96.09964771011576
02129,Suffolk County,MA,9.864116758933065
02130,Suffolk County,MA,76.0694514343231
02131,Suffolk County,MA,87.61952692501258
02135,Suffolk County,MA,1.560140915953699
02136,Suffolk County,MA,0.6039255158530448
02139,Middlesex County,MA,0.025163563160543533
02140,Middlesex County,MA,8.731756416708606
02143,Middlesex County,MA,2.038248616004026
02150,Suffolk County,MA,44.841469552088576
02151,Suffolk County,MA,5.410166079516859
02176,Middlesex County,MA,3.2209360845495723
02180,Middlesex County,MA,6.215400100654253
02184,Norfolk County,MA,82.18419728233518
02301,Plymouth County,MA,11.852038248616005
02302,Plymouth County,MA,30.397584297936586
02330,Plymouth County,MA,36.96527428283845
02341,Plymouth County,MA,29.290387518872674
02343,Norfolk County,MA,26.019124308002013
02382,Plymouth County,MA,15.299446401610467
02421,Middlesex County,MA,10.1157523905385
02459,Middlesex County,MA,32.33517866129844
02467,Norfolk County,MA,35.807750377453445
02472,Middlesex County,MA,86.96527428283845
02664,Barnstable County,MA,43.93558127830901
02675,Barnstable County,MA,73.7544036235531
02726,Bristol County,MA,17.966784096628082
02743,Bristol County,MA,45.319577252138906
02744,Bristol County,MA,85.80775037745344
02766,Bristol County,MA,38.37443381982889
48021,Macomb County,MI,4.730749874182185
48023,St. Clair County,MI,90.96628082536488
48026,Macomb County,MI,24.00603925515853
48030,Oakland County,MI,30.422747861097132
48033,Oakland County,MI,87.54403623553095
48036,Macomb County,MI,16.784096628082537
48038,Macomb County,MI,50.88072471061902
48044,Macomb County,MI,20.45797684952189
48047,Macomb County,MI,6.945143432310015
48049,St. Clair County,MI,89.35581278309009
48051,Macomb County,MI,46.35128334172119
48060,St. Clair County,MI,1.1071967790639154
48066,Macomb County,MI,9.587317564167087
48079,St. Clair County,MI,53.044791142425765
48081,Macomb County,MI,26.57272269753397
48082,Macomb County,MI,35.37996980372421
48089,Macomb County,MI,20.407649723200805
48091,Macomb County,MI,16.834423754403623
48092,Macomb County,MI,18.570709612481124
48111,Wayne County,MI,2.7679919476597887
48116,Livingston County,MI,17.01056869652743
48120,Wayne County,MI,64.9723200805234
48124,Wayne County,MI,10.744841469552089
48125,Wayne County,MI,12.808253648716658
48126,Wayne County,MI,4.604932058379466
48135,Wayne County,MI,12.833417211877201
48141,Wayne County,MI,3.5983895319577255
48152,Wayne County,MI,20.986411675893308
48161,Monroe County,MI,52.667337695017615
48162,Monroe County,MI,63.86512330145949
48166,Monroe County,MI,65.12330145948665
48167,Oakland County,MI,27.856064418721694
48170,Wayne County,MI,31.27830900855561
48174,Wayne County,MI,62.78309008555611
48180,Wayne County,MI,34.801207851031705
48183,Wayne County,MI,3.900352289884248
48185,Wayne County,MI,14.82133870156014
48187,Wayne County,MI,24.408656265727227
48201,Wayne County,MI,26.874685455460494
48202,Wayne County,MI,18.897835933568192
48205,Wayne County,MI,11.675893306492199
48207,Wayne County,MI,10.166079516859588
48210,Wayne County,MI,47.48364368394565
48212,Wayne County,MI,4.378459989934575
48213,Wayne County,MI,5.05787619526925
48214,Wayne County,MI,59.889280322093605
48218,Wayne County,MI,64.19224962254656
48219,Wayne County,MI,13.437342727730247
48220,Oakland County,MI,34.52440865626573
48221,Wayne County,MI,13.96577755410166
48223,Wayne County,MI,6.139909411172622
48224,Wayne County,MI,19.67790639154504
48228,Wayne County,MI,5.183694011071967
48234,Wayne County,MI,19.95470558631102
48235,Wayne County,MI,44.967287367891295
48236,Wayne County,MI,19.476597886260695
48237,Oakland County,MI,11.298439859084047
48238,Wayne County,MI,1.9124308002013084
48306,Oakland County,MI,30.77503774534474
48317,Macomb County,MI,12.606945143432311
48323,Oakland County,MI,43.608454957221944
48324,Oakland County,MI,48.99345747357826
48328,Oakland County,MI,26.17010568696527
48331,Oakland County,MI,24.86160040261701
48334,Oakland County,MI,43.130347257171614
48335,Oakland County,MI,39.43130347257171
48340,Oakland County,MI,45.722194262707596
48342,Oakland County,MI,32.611977856064414
48350,Oakland County,MI,92.67740312028184
48359,Oakland County,MI,81.93256165072974
48423,Genesee County,MI,20.231504781077
48430,Genesee County,MI,47.2823351786613
48439,Genesee County,MI,6.467035732259688
48442,Oakland County,MI,36.05938600905888
48444,Lapeer County,MI,75.23905385002516
48503,Genesee County,MI,58.07750377453448
48504,Genesee County,MI,9.386009058882738
48505,Genesee County,MI,9.411172622043281
48507,Genesee County,MI,23.955712128837444
48532,Genesee County,MI,26.270759939607448
48601,Saginaw County,MI,0.6290890790135883
48602,Saginaw County,MI,1.3336688475088072
48624,Gladwin County,MI,60.82033215903372
48640,Midland County,MI,4.302969300452944
48655,Saginaw County,MI,82.86361348766985
48658,Arenac County,MI,78.0322093608455
48732,Bay County,MI,41.72118772018118
48768,Tuscola County,MI,43.608454957221944
48801,Gratiot County,MI,69.35078007045797
48823,Ingham County,MI,21.84197282335179
48827,Eaton County,MI,29.768495218922997
48838,Montcalm County,MI,19.979869149471565
48842,Ingham County,MI,26.019124308002013
48867,Shiawassee County,MI,2.9189733266230498
48875,Ionia County,MI,72.49622546552592
48879,Clinton County,MI,38.44992450931052
48906,Ingham County,MI,6.4167086059386005
48910,Ingham County,MI,5.636638147961751
48911,Ingham County,MI,2.56668344237544
48917,Eaton County,MI,3.824861600402617
49001,Kalamazoo County,MI,42.52642174131857
49009,Kalamazoo County,MI,5.988928032209361
49022,Berrien County,MI,4.353296426774031
49024,Kalamazoo County,MI,15.500754906894818
49037,Calhoun County,MI,7.473578258681429
49058,Barry County,MI,19.199798691494717
49065,Van Buren County,MI,68.01711122294917
49073,Barry County,MI,74.45898339204831
49120,Berrien County,MI,7.322596879718168
49127,Berrien County,MI,73.85505787619527
49202,Jackson County,MI,21.16255661801711
49221,Lenawee County,MI,1.4594866633115249
49247,Lenawee County,MI,64.87166582788123
49251,Ingham County,MI,86.3613487669854
49256,Lenawee County,MI,97.98691494715652
49286,Lenawee County,MI,76.6482133870156
49302,Kent County,MI,88.50025163563161
49315,Kent County,MI,34.6250629089079
49316,Kent County,MI,38.70156014091595
49319,Kent County,MI,18.470055359838952
49321,Kent County,MI,45.77252138902869
49348,Allegan County,MI,20.810266733769502
49349,Newaygo County,MI,48.54051333668848
49401,Ottawa County,MI,46.854554604932055
49412,Newaygo County,MI,82.76295923502768
49417,Ottawa County,MI,56.8193256165073
49457,Muskegon County,MI,86.990437845999
49504,Kent County,MI,7.372924006039256
49505,Kent County,MI,45.319577252138906
49507,Kent County,MI,13.865123301459487
49508,Kent County,MI,2.1640664318067437
49525,Kent County,MI,22.949169602415704
49534,Kent County,MI,45.822848515349776
49601,Wexford County,MI,35.10317060895823
49707,Alpena County,MI,19.350780070457976
49756,Montmorency County,MI,97.03069954705586
49837,Delta County,MI,41.268243583291394
49854,Schoolcraft County,MI,77.80573729240061
49855,Marquette County,MI,7.372924006039256
49913,Houghton County,MI,47.181680926019126
49938,Gogebic County,MI,93.40714645193759
55021,Rice County,MN,77.65475591343734
55024,Dakota County,MN,38.57574232511324
55038,Washington County,MN,74.88676396577756
55040,Isanti County,MN,63.03472571716156
55044,Dakota County,MN,38.802214393558124
55075,Dakota County,MN,28.988424760946153
55076,Dakota County,MN,49.49672873678913
55079,Chisago County,MN,74.33316557624559
55102,Ramsey County,MN,90.68948163059889
55103,Ramsey County,MN,93.02969300452945
55104,Ramsey County,MN,7.674886763965777
55105,Ramsey County,MN,66.48213387015602
55107,Ramsey County,MN,64.92199295420231
55119,Ramsey County,MN,51.45948666331152
55124,Dakota County,MN,86.53749370910921
55125,Washington County,MN,28.40966280825365
55128,Washington County,MN,84.0463009562154
55130,Ramsey County,MN,37.29240060392552
55301,Wright County,MN,94.01107196779064
55303,Anoka County,MN,9.310518369401107
55304,Anoka County,MN,28.10770005032713
55305,Hennepin County,MN,70.98641167589331
55309,Sherburne County,MN,68.29391041771515
55311,Hennepin County,MN,50.10065425264217
55337,Dakota County,MN,21.992954202315047
55343,Hennepin County,MN,31.504781077000505
55345,Hennepin County,MN,86.86462003019628
55362,Wright County,MN,95.42023150478107
55372,Scott County,MN,89.75842979365878
55386,Carver County,MN,94.3381982888777
55404,Hennepin County,MN,4.12682435832914
55406,Hennepin County,MN,13.865123301459487
55407,Hennepin County,MN,49.446401610468044
55411,Hennepin County,MN,47.73527931555108
55418,Hennepin County,MN,16.406643180674383
55419,Hennepin County,MN,33.8701560140916
55420,Hennepin County,MN,26.97533970810267
55422,Hennepin County,MN,18.99849018621037
55426,Hennepin County,MN,69.60241570206341
55427,Hennepin County,MN,43.381982888777046
55428,Hennepin County,MN,10.46804227478611
55429,Hennepin County,MN,6.089582284851535
55430,Hennepin County,MN,38.173125314544535
55432,Anoka County,MN,64.41872169099145
55433,Anoka County,MN,23.553095118268747
55434,Anoka County,MN,52.21439355812784
55438,Hennepin County,MN,88.67639657775541
55441,Hennepin County,MN,87.11625566180172
55443,Hennepin County,MN,19.879214896829392
55448,Anoka County,MN,28.610971313538
55709,Itasca County,MN,94.26270759939608
55811,St. Louis County,MN,18.847508807247106
55904,Olmsted County,MN,24.28283844992451
55912,Mower County,MN,2.868646200301963
56069,Le Sueur County,MN,95.1937594363362
56081,Watonwan County,MN,76.19526925012582
56082,Nicollet County,MN,64.79617513839959
56085,Brown County,MN,89.58228485153498
56093,Waseca County,MN,61.222949169602416
56201,Kandiyohi County,MN,32.611977856064414
56258,Lyon County,MN,65.40010065425264
56303,Stearns County,MN,19.85405133366885
56308,Douglas County,MN,15.928535480624056
56353,Mille Lacs County,MN,80.72471061902365
56359,Mille Lacs County,MN,98.28887770508304
56364,Morrison County,MN,99.3709109209864
56379,Benton County,MN,50.830397584297934
56401,Crow Wing County,MN,23.452440865626574
56470,Hubbard County,MN,57.09612481127328
56482,Wadena County,MN,84.09662808253648
56520,Wilkin County,MN,67.86612984398592
56621,Clearwater County,MN,75.13839959738299
56716,Polk County,MN,53.522898842476096
56751,Roseau County,MN,84.8012078510317
38632,DeSoto County,MS,38.47508807247107
38654,DeSoto County,MS,13.18570709612481
38655,Lafayette County,MS,60.518369401107194
38683,Tippah County,MS,60.1157523905385
38732,Bolivar County,MS,26.094614997483646
38847,Itawamba County,MS,98.23855057876195
39046,Madison County,MS,16.65827881227982
39051,Leake County,MS,34.4489179667841
39073,Rankin County,MS,52.289884247609464
39074,Scott County,MS,25.893306492199297
39202,Hinds County,MS,97.38298943130347
39211,Hinds County,MS,54.22747861097131
39212,Hinds County,MS,43.130347257171614
39213,Hinds County,MS,57.649723200805234
39325,Lauderdale County,MS,96.527428283845
39452,George County,MS,15.02264720684449
39476,Perry County,MS,91.79667840966282
39479,Covington County,MS,94.71565173628585
39648,Pike County,MS,10.820332159033718
39730,Monroe County,MS,69.62757926522396
63026,St. Louis County,MO,23.829894313034725
63033,St. Louis County,MO,8.203321590337191
63052,Jefferson County,MO,40.66431806743835
63074,St. Louis County,MO,80.19627579265224
63106,St. Louis city,MO,89.43130347257173
63107,St. Louis city,MO,55.58631102164067
63110,St. Louis city,MO,73.50276799194766
63111,St. Louis city,MO,55.98892803220936
63112,St. Louis city,MO,73.9305485656769
63114,St. Louis County,MO,47.206844489179666
63120,St. Louis city,MO,53.44740815299447
63125,St. Louis County,MO,65.17362858580775
63130,St. Louis County,MO,40.53850025163563
63133,St. Louis County,MO,76.2455963764469
63135,St. Louis County,MO,19.275289380976346
63136,St. Louis County,MO,2.9944640161046805
63137,St. Louis County,MO,25.99396074484147
63146,St. Louis County,MO,39.45646703573226
63301,St. Charles County,MO,65.7775541016608
63303,St. Charles County,MO,13.03472571716155
63343,Lincoln County,MO,97.2823351786613
63366,St. Charles County,MO,5.963764469048817
63376,St. Charles County,MO,45.16859587317564
63385,St. Charles County,MO,8.354302969300454
63501,Adair County,MO,60.41771514846502
63601,St. Francois County,MO,81.40412682435833
63740,Scott County,MO,94.91696024157021
63801,Scott County,MO,44.111726220432814
63901,Butler County,MO,6.894816305988928
64012,Cass County,MO,16.10468042274786
64014,Jackson County,MO,42.148968293910414
64015,Jackson County,MO,6.567689984901862
64052,Jackson County,MO,4.680422747861098
64057,Jackson County,MO,31.001509813789635
64062,Ray County,MO,46.3009562154001
64063,Jackson County,MO,61.399094111726214
64117,Clay County,MO,25.163563160543532
64118,Clay County,MO,14.141922496225465
64123,Jackson County,MO,30.900855561147463
64124,Jackson County,MO,63.8147961751384
64128,Jackson County,MO,41.0417715148465
64131,Jackson County,MO,32.15903371917464
64134,Jackson County,MO,6.542526421741318
64153,Platte County,MO,82.36034222445898
64424,Harrison County,MO,83.84499245093106
64465,Clinton County,MO,87.99698037242074
64505,Buchanan County,MO,20.105686965274284
64506,Buchanan County,MO,9.96477101157524
64683,Grundy County,MO,48.06240563663815
64801,Jasper County,MO,6.618017111222948
65018,Moniteau County,MO,74.33316557624559
65201,Boone County,MO,33.34172118772018
65653,Taney County,MO,90.61399094111727
65672,Taney County,MO,91.2179164569703
65742,Webster County,MO,83.21590337191746
65803,Greene County,MO,4.6300956215400095
65804,Greene County,MO,18.117765475591344
65806,Greene County,MO,77.02566683442376
59102,Yellowstone County,MT,66.43180674383493
59105,Yellowstone County,MT,94.58983392048313
59501,Hill County,MT,70.8102667337695
59715,Gallatin County,MT,39.98490186210367
59718,Gallatin County,MT,23.628585807750376
59804,Missoula County,MT,96.85455460493206
68022,Douglas County,NE,66.02918973326624
68028,Sarpy County,NE,75.01258178158027
68104,Douglas County,NE,47.63462506290891
68111,Douglas County,NE,41.243080020130854
68116,Douglas County,NE,49.698037242073475
68137,Douglas County,NE,40.53850025163563
68503,Lancaster County,NE,88.42476094614997
68504,Lancaster County,NE,71.54001006542526
68507,Lancaster County,NE,87.21690991444389
68803,Hall County,NE,59.81378963261198
89102,Clark County,NV,39.05385002516356
89107,Clark County,NV,95.87317564167085
89108,Clark County,NV,43.33165576245596
89109,Clark County,NV,94.99245093105185
89113,Clark County,NV,89.30548565676901
89115,Clark County,NV,74.2828384499245
89119,Clark County,NV,74.5093105183694
89121,Clark County,NV,68.72169099144439
89122,Clark County,NV,47.43331655762456
89123,Clark County,NV,40.53850025163563
89128,Clark County,NV,38.95319577252139
89129,Clark County,NV,35.958731756416704
89131,Clark County,NV,35.07800704579768
89134,Clark County,NV,74.5093105183694
89139,Clark County,NV,67.86612984398592
89142,Clark County,NV,83.4675390035229
89147,Clark County,NV,28.535480624056365
89149,Clark County,NV,52.84348263714141
89156,Clark County,NV,56.13990941117262
89166,Clark County,NV,81.5551082033216
89178,Clark County,NV,64.67035732259689
89183,Clark County,NV,81.85707096124811
89408,Lyon County,NV,59.58731756416709
89410,Douglas County,NV,82.38550578761952
89431,Washoe County,NV,12.078510317060896
89436,Washoe County,NV,12.959235027679918
89445,Humboldt County,NV,71.43935581278309
89502,Washoe County,NV,10.669350780070458
89506,Washoe County,NV,9.76346250629089
89509,Washoe County,NV,38.07247106190236
89512,Washoe County,NV,8.25364871665828
89519,Washoe County,NV,97.88626069451435
89523,Washoe County,NV,42.0231504781077
89706,Carson City,NV,50.201308505284345
89801,Elko County,NV,55.385002516356316
89815,Elko County,NV,93.3568193256165
03045,Hillsborough County,NH,58.50528434826371
03053,Rockingham County,NH,16.004026170105686
03060,Hillsborough County,NH,2.5918470055359837
03063,Hillsborough County,NH,31.932561650729745
03079,Rockingham County,NH,7.800704579768496
03235,Merrimack County,NH,58.228485153497736
03301,Merrimack County,NH,8.681429290387518
03811,Rockingham County,NH,76.39657775541016
07002,Hudson County,NJ,0.4781077000503271
07004,Essex County,NJ,95.24408656265727
07008,Middlesex County,NJ,14.997483643683946
07010,Bergen County,NJ,36.285858077503775
07011,Passaic County,NJ,37.61952692501258
07018,Essex County,NJ,2.214393558127831
07026,Bergen County,NJ,7.851031706089582
07029,Hudson County,NJ,46.955208857574235
07030,Hudson County,NJ,2.4660291897332662
07032,Hudson County,NJ,11.650729743331656
07036,Union County,NJ,4.101660795168596
07041,Essex County,NJ,97.55913437342728
07047,Hudson County,NJ,1.8621036738802215
07050,Essex County,NJ,5.108203321590337
07055,Passaic County,NJ,0.377453447408153
07060,Union County,NJ,50.45294413688979
07093,Hudson County,NJ,35.279315551082036
07103,Essex County,NJ,19.30045294413689
07105,Essex County,NJ,27.70508303975843
07106,Essex County,NJ,1.7866129843985907
07107,Essex County,NJ,4.479114242576749
07111,Essex County,NJ,3.271263210870659
07202,Union County,NJ,16.205334675390034
07204,Union County,NJ,90.46300956215401
07206,Union County,NJ,3.447408152994464
07304,Hudson County,NJ,8.882737795671867
07305,Hudson County,NJ,0.1509813789632612
07306,Hudson County,NJ,2.0130850528434827
07501,Passaic County,NJ,6.668344237544037
07502,Passaic County,NJ,24.106693507800706
07506,Passaic County,NJ,57.32259687971817
07508,Passaic County,NJ,51.157523905385005
07513,Passaic County,NJ,48.76698540513337
07522,Passaic County,NJ,13.38701560140916
07524,Passaic County,NJ,18.495218922999495
07601,Bergen County,NJ,2.340211373930549
07650,Bergen County,NJ,56.71867136386513
07666,Bergen County,NJ,6.869652742828385
07728,Monmouth County,NJ,7.649723200805234
07731,Monmouth County,NJ,53.19577252138903
07748,Monmouth County,NJ,17.815802717664823
07801,Morris County,NJ,39.93457473578258
07840,Warren County,NJ,22.01811776547559
07866,Morris County,NJ,53.97584297936587
07871,Sussex County,NJ,45.118268746854554
07940,Morris County,NJ,80.37242073477604
08004,Camden County,NJ,44.66532460996477
08005,Ocean County,NJ,9.738298943130347
08012,Camden County,NJ,2.113739305485657
08015,Burlington County,NJ,7.700050327126321
08028,Gloucester County,NJ,38.04730749874182
08030,Camden County,NJ,12.128837443381983
08043,Camden County,NJ,31.27830900855561
08052,Burlington County,NJ,16.482133870156012
08054,Burlington County,NJ,13.512833417211878
08066,Gloucester County,NJ,16.532460996477102
08077,Burlington County,NJ,20.93608454957222
08081,Camden County,NJ,27.252138902868644
08083,Camden County,NJ,30.296930045294413
08093,Gloucester County,NJ,24.609964771011576
08094,Gloucester County,NJ,16.18017111222949
08097,Gloucester County,NJ,99.09411172622043
08102,Camden County,NJ,3.321590337191746
08104,Camden County,NJ,0.20130850528434827
08105,Camden County,NJ,0.35228988424760943
08108,Camden County,NJ,80.57372924006039
08234,Atlantic County,NJ,1.5349773527931554
08244,Atlantic County,NJ,24.86160040261701
08302,Cumberland County,NJ,4.554604932058379
08332,Cumberland County,NJ,4.076497232008052
08360,Cumberland County,NJ,2.742828384499245
08401,Atlantic County,NJ,0.0754906894816306
08610,Mercer County,NJ,3.1957725213890287
08629,Mercer County,NJ,20.005032712632108
08691,Mercer County,NJ,85.17866129843986
08701,Ocean County,NJ,91.94765978862607
08722,Ocean County,NJ,39.53195772521389
08724,Ocean County,NJ,3.925515853044791
08753,Ocean County,NJ,20.206341217916457
08757,Ocean County,NJ,5.8631102164066435
08817,Middlesex County,NJ,11.977856064418722
08835,Somerset County,NJ,36.663311524911926
08861,Middlesex County,NJ,0.5032712632108707
08901,Middlesex County,NJ,30.372420734776046
87001,Sandoval County,NM,92.45093105183693
87002,Valencia County,NM,38.12279818822345
87013,Sandoval County,NM,92.92903875188728
87026,Valencia County,NM,89.83392048314042
87031,Valencia County,NM,17.186713638651234
87068,Valencia County,NM,97.78560644187216
87105,Bernalillo County,NM,1.3839959738298944
87108,Bernalillo County,NM,16.909914443885256
87109,Bernalillo County,NM,36.789129340714645
87110,Bernalillo County,NM,5.611474584801208
87111,Bernalillo County,NM,10.845495722194261
87113,Bernalillo County,NM,72.06844489179667
87120,Bernalillo County,NM,3.9506794162053347
87121,Bernalillo County,NM,43.105183694011075
87123,Bernalillo County,NM,6.26572722697534
87124,Sandoval County,NM,60.895822848515344
87301,McKinley County,NM,14.921992954202315
87321,McKinley County,NM,97.40815299446402
87323,McKinley County,NM,97.35782586814294
87401,San Juan County,NM,36.23553095118269
87410,San Juan County,NM,54.655259184700554
87413,San Juan County,NM,72.89884247609461
87505,Santa Fe County,NM,1.8872672370407648
87532,Santa Fe County,NM,61.222949169602416
87567,Santa Fe County,NM,99.1947659788626
88008,Doa Ana County,NM,93.10518369401107
88012,Doa Ana County,NM,56.46703573225969
88021,Doa Ana County,NM,89.40613990941118
88030,Luna County,NM,79.4162053346754
88063,Doa Ana County,NM,61.222949169602416
88081,Otero County,NM,71.33870156014092
88101,Curry County,NM,4.177151484650227
88201,Chaves County,NM,22.546552591847004
88203,Chaves County,NM,10.317060895822848
88210,Eddy County,NM,30.04529441368898
88220,Eddy County,NM,11.776547559134373
88240,Lea County,NM,2.2898842476094616
88242,Lea County,NM,69.35078007045797
88260,Lea County,NM,62.80825364871666
88310,Otero County,NM,13.487669854051335
10002,New York County,NY,11.197785606441872
10011,New York County,NY,26.723704076497235
10016,New York County,NY,23.754403623553095
10021,New York County,NY,65.02264720684448
10025,New York County,NY,15.223955712128836
10030,New York County,NY,44.53950679416205
10031,New York County,NY,3.4725717161550076
10032,New York County,NY,25.23905385002516
10034,New York County,NY,74.40865626572723
10035,New York County,NY,14.846502264720684
10037,New York County,NY,60.895822848515344
10039,New York County,NY,19.22496225465526
10040,New York County,NY,54.75591343734273
10303,Richmond County,NY,62.304982385505795
10305,Richmond County,NY,72.26975339708103
10312,Richmond County,NY,65.80271766482134
10314,Richmond County,NY,49.798691494715655
10451,Bronx County,NY,0.9562154001006542
10452,Bronx County,NY,34.27277302466029
10453,Bronx County,NY,25.968797181680927
10455,Bronx County,NY,27.352793155510817
10456,Bronx County,NY,27.65475591343734
10458,Bronx County,NY,36.86462003019628
10459,Bronx County,NY,65.1484650226472
10460,Bronx County,NY,6.240563663814796
10461,Bronx County,NY,27.730246602918974
10462,Bronx County,NY,87.97181680926019
10465,Bronx County,NY,81.75641670860594
10467,Bronx County,NY,56.21540010065426
10468,Bronx County,NY,24.13185707096125
10469,Bronx County,NY,23.049823855057877
10472,Bronx County,NY,81.83190739808757
10473,Bronx County,NY,43.53296426774031
10475,Bronx County,NY,66.38147961751383
10528,Westchester County,NY,90.36235530951183
10550,Westchester County,NY,77.93155510820333
10566,Westchester County,NY,76.72370407649723
10580,Westchester County,NY,96.25062908907901
10701,Westchester County,NY,60.845495722194265
10705,Westchester County,NY,44.03623553095118
10801,Westchester County,NY,54.529441368897835
10805,Westchester County,NY,97.25717161550077
10927,Rockland County,NY,98.01207851031705
10940,Orange County,NY,8.429793658782083
10956,Rockland County,NY,74.13185707096125
10977,Rockland County,NY,88.09763462506291
10980,Rockland County,NY,96.1248112732763
10994,Rockland County,NY,99.44640161046804
11003,Nassau County,NY,88.55057876195269
11010,Nassau County,NY,95.44539506794162
11101,Queens County,NY,92.8283844992451
11105,Queens County,NY,79.21489682939105
11106,Queens County,NY,72.5968797181681
11204,Kings County,NY,92.65223955712129
11205,Kings County,NY,79.89431303472571
11206,Kings County,NY,34.12179164569703
11207,Kings County,NY,21.66582788122798
11208,Kings County,NY,54.30296930045294
11209,Kings County,NY,54.881731253145446
11210,Kings County,NY,80.95118268746855
11212,Kings County,NY,3.069954705586311
11213,Kings County,NY,13.462506290890792
11214,Kings County,NY,82.8887770508304
11216,Kings County,NY,4.98238550578762
11218,Kings County,NY,69.50176144942124
11219,Kings County,NY,94.21238047307499
11220,Kings County,NY,76.39657775541016
11221,Kings County,NY,0.9813789632611978
11224,Kings County,NY,72.24458983392049
11226,Kings County,NY,52.21439355812784
11228,Kings County,NY,93.86009058882738
11229,Kings County,NY,68.09260191243081
11230,Kings County,NY,55.2591847005536
11232,Kings County,NY,80.39758429793659
11233,Kings County,NY,27.78057372924006
11234,Kings County,NY,40.488173125314546
11235,Kings County,NY,79.31555108203322
11236,Kings County,NY,42.09864116758933
11237,Kings County,NY,45.74735782586814
11355,Queens County,NY,85.83291394061399
11365,Queens County,NY,70.60895822848515
11367,Queens County,NY,82.93910417715148
11368,Queens County,NY,89.00352289884248
11369,Queens County,NY,87.64469048817313
11370,Queens County,NY,70.00503271263212
11372,Queens County,NY,71.11222949169603
11373,Queens County,NY,90.8656265727227
11374,Queens County,NY,58.88273779567187
11375,Queens County,NY,35.958731756416704
11377,Queens County,NY,8.958228485153498
11379,Queens County,NY,92.87871162556618
11385,Queens County,NY,80.54856567689986
11412,Queens County,NY,83.84499245093106
11417,Queens County,NY,90.61399094111727
11418,Queens County,NY,67.1112229491696
11419,Queens County,NY,78.76195269250125
11420,Queens County,NY,68.82234524408656
11421,Queens County,NY,83.51786612984398
11423,Queens County,NY,72.14393558127831
11427,Queens County,NY,88.52541519879215
11434,Queens County,NY,52.61701056869653
11435,Queens County,NY,78.13286361348767
11436,Queens County,NY,85.25415198792149
11510,Nassau County,NY,52.541519879214896
11550,Nassau County,NY,47.961751383995974
11553,Nassau County,NY,75.23905385002516
11554,Nassau County,NY,43.70910920986412
11572,Nassau County,NY,85.48062405636638
11580,Nassau County,NY,78.38449924509311
11581,Nassau County,NY,81.5551082033216
11590,Nassau County,NY,34.52440865626573
11701,Suffolk County,NY,97.20684448917967
11706,Suffolk County,NY,43.88525415198792
11717,Suffolk County,NY,38.92803220936084
11727,Suffolk County,NY,51.91243080020131
11729,Suffolk County,NY,88.95319577252138
11735,Nassau County,NY,45.99899345747358
11779,Suffolk County,NY,79.16456970306996
11901,Suffolk County,NY,71.51484650226472
12009,Albany County,NY,96.32611977856065
12020,Saratoga County,NY,10.518369401107197
12047,Albany County,NY,50.578761952692496
12078,Fulton County,NY,1.6356316054353295
12090,Rensselaer County,NY,55.23402113739305
12180,Rensselaer County,NY,7.297433316557625
12182,Rensselaer County,NY,70.60895822848515
12189,Albany County,NY,62.53145445395067
12208,Albany County,NY,81.27830900855561
12306,Schenectady County,NY,54.655259184700554
12401,Ulster County,NY,11.449421238047307
12549,Orange County,NY,93.8097634625063
12550,Orange County,NY,20.055359838953198
12569,Dutchess County,NY,94.76597886260694
12701,Sullivan County,NY,32.36034222445898
12771,Orange County,NY,58.10266733769501
12822,Saratoga County,NY,66.5324609964771
12839,Washington County,NY,16.054353296426775
12846,Warren County,NY,97.8610971313538
12865,Washington County,NY,93.73427277302466
12866,Saratoga County,NY,7.070961248112733
12883,Essex County,NY,70.60895822848515
12901,Clinton County,NY,9.209864116758933
12962,Clinton County,NY,52.64217413185707
13027,Onondaga County,NY,6.794162053346755
13039,Onondaga County,NY,66.5324609964771
13045,Cortland County,NY,11.17262204328133
13073,Tompkins County,NY,46.854554604932055
13082,Madison County,NY,64.79617513839959
13126,Oswego County,NY,25.390035228988424
13165,Seneca County,NY,15.72722697533971
13203,Onondaga County,NY,10.065425264217414
13204,Onondaga County,NY,48.163059889280326
13205,Onondaga County,NY,6.517362858580775
13208,Onondaga County,NY,5.888273779567187
13214,Onondaga County,NY,76.77403120281832
13215,Onondaga County,NY,39.58228485153498
13323,Oneida County,NY,58.253648716658276
13335,Otsego County,NY,87.5691997986915
13357,Herkimer County,NY,23.477604428787117
13407,Herkimer County,NY,80.02013085052843
13413,Oneida County,NY,36.160040261701056
13440,Oneida County,NY,0.6542526421741319
13492,Oneida County,NY,52.84348263714141
13601,Jefferson County,NY,1.6104680422747861
13691,Jefferson County,NY,98.71665827881228
13760,Broome County,NY,0.25163563160543534
13790,Broome County,NY,3.8751887267237044
13808,Otsego County,NY,97.48364368394564
13815,Chenango County,NY,7.096124811273276
13830,Chenango County,NY,54.93205837946653
13905,Broome County,NY,5.712128837443382
14004,Erie County,NY,50.10065425264217
14006,Erie County,NY,56.517362858580775
14009,Wyoming County,NY,79.96980372420734
14028,Niagara County,NY,97.71011575239054
14051,Erie County,NY,28.787116255661804
14052,Erie County,NY,76.6985405133367
14057,Erie County,NY,71.33870156014092
14070,Erie County,NY,70.0553598389532
14072,Erie County,NY,29.164569703069954
14075,Erie County,NY,41.368897835933566
14085,Erie County,NY,78.15802717664822
14086,Erie County,NY,73.10015098137896
14094,Niagara County,NY,0.6794162053346754
14108,Niagara County,NY,45.495722194262704
14120,Niagara County,NY,12.657272269753397
14150,Erie County,NY,33.01459486663312
14204,Erie County,NY,29.516859587317562
14207,Erie County,NY,3.2964267740312025
14208,Erie County,NY,50.72974333165576
14209,Erie County,NY,58.78208354302969
14211,Erie County,NY,83.36688475088071
14213,Erie County,NY,85.07800704579769
14214,Erie County,NY,19.552088575742324
14215,Erie County,NY,16.356316054353297
14216,Erie County,NY,49.92450931051837
14217,Erie County,NY,14.620030196275794
14218,Erie County,NY,9.83895319577252
14220,Erie County,NY,6.819325616507298
14221,Erie County,NY,5.334675390035229
14222,Erie County,NY,75.79265223955713
14225,Erie County,NY,3.623553095118269
14226,Erie County,NY,81.45445395067942
14304,Niagara County,NY,12.883744338198289
14305,Niagara County,NY,14.343231001509812
14424,Ontario County,NY,0.9058882737795673
14425,Ontario County,NY,8.983392048314041
14428,Monroe County,NY,33.11524911927529
14450,Monroe County,NY,8.706592853548061
14456,Ontario County,NY,18.621036738802214
14464,Monroe County,NY,40.21137393054857
14471,Ontario County,NY,94.38852541519879
14472,Monroe County,NY,35.68193256165073
14526,Monroe County,NY,33.51786612984399
14527,Yates County,NY,48.86763965777554
14534,Monroe County,NY,2.5163563160543534
14546,Monroe County,NY,81.3286361348767
14551,Wayne County,NY,36.56265727226975
14559,Monroe County,NY,5.083039758429794
14580,Monroe County,NY,0.17614494212380472
14605,Monroe County,NY,21.867136386512332
14606,Monroe County,NY,8.5556114745848
14607,Monroe County,NY,9.88928032209361
14608,Monroe County,NY,6.316054353296427
14609,Monroe County,NY,1.7614494212380472
14610,Monroe County,NY,18.16809260191243
14611,Monroe County,NY,17.53900352289884
14612,Monroe County,NY,18.87267237040765
14616,Monroe County,NY,9.18470055359839
14618,Monroe County,NY,8.505284348263714
14620,Monroe County,NY,15.274282838449924
14621,Monroe County,NY,14.645193759436337
14623,Monroe County,NY,8.75691997986915
14626,Monroe County,NY,1.0820332159033719
14701,Chautauqua County,NY,36.05938600905888
14724,Chautauqua County,NY,95.92350276799195
14737,Cattaraugus County,NY,81.5551082033216
14807,Steuben County,NY,90.11071967790639
14892,Tioga County,NY,38.60090588827378
14895,Allegany County,NY,17.31253145445395
27018,Yadkin County,NC,66.10468042274786
27030,Surry County,NC,16.73376950176145
27043,Stokes County,NC,79.46653246099648
27105,Forsyth County,NC,0.754906894816306
27106,Forsyth County,NC,29.693004529441367
27107,Forsyth County,NC,11.499748364368395
27127,Forsyth County,NC,7.3477604428787116
27203,Randolph County,NC,67.71514846502265
27215,Alamance County,NC,4.453950679416206
27217,Alamance County,NC,50.75490689481631
27253,Alamance County,NC,34.87669854051333
27262,Guilford County,NC,28.183190739808754
27263,Randolph County,NC,31.75641670860594
27265,Guilford County,NC,10.644187216909915
27284,Forsyth County,NC,17.463512833417212
27292,Davidson County,NC,1.6859587317564169
27295,Davidson County,NC,1.3588324106693508
27317,Randolph County,NC,42.1992954202315
27325,Moore County,NC,94.66532460996477
27330,Lee County,NC,63.11021640664318
27332,Lee County,NC,25.515853044791143
27360,Davidson County,NC,24.5093105183694
27371,Montgomery County,NC,70.53346753900352
27406,Guilford County,NC,42.40060392551585
27407,Guilford County,NC,58.58077503774535
27410,Guilford County,NC,20.03019627579265
27501,Harnett County,NC,40.488173125314546
27511,Wake County,NC,54.076497232008045
27526,Wake County,NC,15.802717664821339
27529,Wake County,NC,13.789632611977856
27536,Vance County,NC,17.211877201811777
27540,Wake County,NC,33.54302969300453
27563,Warren County,NC,93.73427277302466
27587,Wake County,NC,12.154001006542527
27589,Warren County,NC,88.22345244086563
27597,Wake County,NC,38.37443381982889
27603,Wake County,NC,43.50780070457977
27606,Wake County,NC,34.77604428787116
27616,Wake County,NC,11.575239053850025
27701,Durham County,NC,35.304479114242575
27703,Durham County,NC,4.9320583794665325
27704,Durham County,NC,47.88626069451434
27707,Durham County,NC,50.02516356316055
27713,Durham County,NC,13.537996980372421
27804,Nash County,NC,74.7357825868143
27807,Nash County,NC,89.83392048314042
27822,Wilson County,NC,80.39758429793659
27832,Northampton County,NC,98.96829391041771
27892,Martin County,NC,35.22898842476095
27893,Wilson County,NC,32.83844992450931
27958,Currituck County,NC,84.75088072471063
28001,Stanly County,NC,53.900352289884246
28016,Gaston County,NC,33.39204831404127
28018,Rutherford County,NC,93.15551082033215
28027,Cabarrus County,NC,9.813789632611977
28036,Mecklenburg County,NC,77.20181177654756
28037,Lincoln County,NC,51.30850528434826
28040,Rutherford County,NC,78.56064418721691
28078,Mecklenburg County,NC,72.57171615500755
28079,Union County,NC,35.32964267740312
28086,Cleveland County,NC,14.116758933064922
28104,Union County,NC,83.6940110719678
28110,Union County,NC,75.4403623553095
28115,Iredell County,NC,61.87720181177655
28174,Union County,NC,78.48515349773528
28202,Mecklenburg County,NC,87.21690991444389
28203,Mecklenburg County,NC,77.95671867136387
28205,Mecklenburg County,NC,10.795168595873175
28206,Mecklenburg County,NC,63.18570709612481
28207,Mecklenburg County,NC,96.67840966280825
28210,Mecklenburg County,NC,41.142425767488675
28215,Mecklenburg County,NC,67.51383995973829
28216,Mecklenburg County,NC,22.87367891293407
28227,Mecklenburg County,NC,40.81529944640161
28262,Mecklenburg County,NC,58.12783090085556
28269,Mecklenburg County,NC,30.196275792652237
28270,Mecklenburg County,NC,49.47156517362858
28273,Mecklenburg County,NC,31.75641670860594
28278,Mecklenburg County,NC,49.169602415702066
28304,Cumberland County,NC,53.37191746351283
28306,Bladen County,NC,54.076497232008045
28311,Cumberland County,NC,66.28082536487166
28314,Cumberland County,NC,19.149471565173627
28328,Sampson County,NC,23.20080523402114
28334,Sampson County,NC,16.129843985908405
28338,Richmond County,NC,96.90488173125314
28340,Robeson County,NC,87.7453447408153
28344,Sampson County,NC,99.97483643683945
28348,Cumberland County,NC,23.427277302466027
28352,Scotland County,NC,14.745848012078511
28358,Robeson County,NC,55.13336688475088
28360,Robeson County,NC,71.01157523905385
28376,Hoke County,NC,18.772018117765477
28379,Richmond County,NC,8.530447911424258
28390,Harnett County,NC,91.16758933064922
28391,Cumberland County,NC,88.3744338198289
28398,Duplin County,NC,77.12632108706593
28412,New Hanover County,NC,7.800704579768496
28457,Pender County,NC,64.67035732259689
28458,Duplin County,NC,87.06592853548062
28461,Brunswick County,NC,30.523402113739305
28463,Columbus County,NC,63.31152491192753
28472,Columbus County,NC,58.90790135883242
28501,Lenoir County,NC,31.202818319073984
28551,Lenoir County,NC,50.150981378963266
28557,Carteret County,NC,72.06844489179667
28574,Onslow County,NC,57.29743331655762
28586,Craven County,NC,76.8746854554605
28602,Catawba County,NC,12.10367388022144
28609,Catawba County,NC,81.02667337695017
28610,Catawba County,NC,75.54101660795169
28613,Catawba County,NC,28.158027176648215
28640,Ashe County,NC,94.79114242576749
28651,Wilkes County,NC,93.55812783090084
28655,Burke County,NC,14.494212380473076
28658,Catawba County,NC,30.498238550578762
28677,Iredell County,NC,7.926522395571213
28694,Ashe County,NC,87.31756416708606
28713,Swain County,NC,64.01610468042274
28722,Polk County,NC,93.65878208354303
28734,Macon County,NC,8.580775037745344
28761,McDowell County,NC,71.54001006542526
28762,McDowell County,NC,73.50276799194766
28771,Graham County,NC,63.96577755410166
28779,Jackson County,NC,76.97533970810267
28786,Haywood County,NC,57.57423251132361
28806,Buncombe County,NC,62.27981882234525
28906,Cherokee County,NC,36.88978359335682
58103,Cass County,ND,2.843482637141419
58501,Burleigh County,ND,40.110719677906395
58763,Mountrail County,ND,96.3009562154001
43016,Franklin County,OH,50.075490689481626
43023,Licking County,OH,85.10317060895822
43026,Franklin County,OH,10.920986411675894
43040,Union County,OH,14.796175138399597
43055,Licking County,OH,27.15148465022647
43056,Licking County,OH,25.465525918470057
43062,Licking County,OH,23.20080523402114
43064,Madison County,OH,74.66029189733267
43068,Franklin County,OH,44.614997483643684
43081,Franklin County,OH,12.506290890790137
43110,Franklin County,OH,13.18570709612481
43130,Fairfield County,OH,0.5284348263714143
43138,Hocking County,OH,18.570709612481124
43201,Franklin County,OH,68.29391041771515
43204,Franklin County,OH,47.15651736285858
43206,Franklin County,OH,28.485153497735276
43207,Franklin County,OH,0.5535983895319577
43213,Franklin County,OH,23.049823855057877
43214,Franklin County,OH,36.411675893306494
43219,Franklin County,OH,53.648716658278815
43223,Franklin County,OH,2.1892299949672873
43224,Franklin County,OH,2.0885757423251134
43228,Franklin County,OH,1.2330145948666331
43229,Franklin County,OH,49.39607448414696
43230,Franklin County,OH,8.05234021137393
43232,Franklin County,OH,1.4343231001509815
43235,Franklin County,OH,32.76295923502768
43302,Marion County,OH,7.272269753397081
75036,NA,NA,92.8283844992451
43545,Henry County,OH,54.177151484650224
43560,Lucas County,OH,14.292903875188726
43605,Lucas County,OH,61.44942123804731
43607,Lucas County,OH,2.264720684448918
43608,Lucas County,OH,3.497735279315551
43613,Lucas County,OH,1.28334172118772
43614,Lucas County,OH,4.831404126824358
43615,Lucas County,OH,1.3085052843482639
43623,Lucas County,OH,15.374937091092097
43701,Muskingum County,OH,2.415702063412179
43762,Muskingum County,OH,89.95973829894312
43764,Perry County,OH,59.18470055359839
75072,NA,NA,76.52239557121288
43812,Coshocton County,OH,14.267740312028183
43832,Tuscarawas County,OH,48.691494715651736
43943,Jefferson County,OH,84.07146451937595
44035,Lorain County,OH,0.9310518369401107
44052,Lorain County,OH,0.8555611474584801
44056,Summit County,OH,91.49471565173629
44060,Lake County,OH,17.38802214393558
44077,Lake County,OH,1.1826874685455462
44090,Lorain County,OH,48.339204831404125
44103,Cuyahoga County,OH,3.7745344740815296
44104,Cuyahoga County,OH,11.474584801207852
44109,Cuyahoga County,OH,0.12581781580271767
44111,Cuyahoga County,OH,14.041268243583291
44112,Cuyahoga County,OH,53.97584297936587
44115,Cuyahoga County,OH,51.76144942123805
44117,Cuyahoga County,OH,64.24257674886763
44118,Cuyahoga County,OH,5.309511826874686
44119,Cuyahoga County,OH,11.071967790639155
44120,Cuyahoga County,OH,37.49370910920987
44121,Cuyahoga County,OH,4.001006542526421
44122,Cuyahoga County,OH,13.085052843482636
44125,Cuyahoga County,OH,0.45294413688978363
44128,Cuyahoga County,OH,0.8807247106190236
44134,Cuyahoga County,OH,3.3719174635128337
44137,Cuyahoga County,OH,2.1389028686462
44139,Cuyahoga County,OH,29.491696024157022
44143,Cuyahoga County,OH,21.766482133870156
44144,Cuyahoga County,OH,5.661801711122295
44203,Summit County,OH,15.601409159536992
44221,Summit County,OH,7.247106190236538
44224,Summit County,OH,11.952692501258177
44256,Medina County,OH,1.4091595369904377
44266,Portage County,OH,22.14393558127831
44270,Wayne County,OH,50.427780573729244
44278,Summit County,OH,48.163059889280326
44301,Summit County,OH,19.02365374937091
44305,Summit County,OH,6.945143432310015
44306,Summit County,OH,4.2778057372924
44307,Summit County,OH,33.39204831404127
44310,Summit County,OH,24.786109713135378
44312,Summit County,OH,7.196779063915451
44314,Summit County,OH,15.425264217413185
44410,Trumbull County,OH,25.163563160543532
44425,Trumbull County,OH,19.753397081026673
44445,Columbiana County,OH,91.79667840966282
44483,Trumbull County,OH,8.12783090085556
44484,Trumbull County,OH,17.01056869652743
44485,Trumbull County,OH,8.83241066935078
44506,Mahoning County,OH,96.22546552591848
44512,Mahoning County,OH,4.529441368897836
44601,Stark County,OH,2.893809763462506
44663,Tuscarawas County,OH,6.366381479617514
44683,Tuscarawas County,OH,14.871665827881229
44703,Stark County,OH,38.37443381982889
44708,Stark County,OH,16.305988928032207
44710,Stark County,OH,51.00654252642174
44720,Stark County,OH,17.362858580775036
44820,Crawford County,OH,12.380473074987417
44839,Erie County,OH,44.18721690991445
44842,Ashland County,OH,87.84599899345747
44883,Seneca County,OH,9.109209864116758
44889,Huron County,OH,93.05485656768998
44903,Richland County,OH,9.436336185203825
44904,Richland County,OH,72.19426270759939
45005,Warren County,OH,3.6990437845998994
45011,Butler County,OH,45.621540010065424
45013,Butler County,OH,9.637644690488173
45036,Warren County,OH,41.31857070961248
45040,Warren County,OH,53.77453447408153
45042,Butler County,OH,10.619023653749371
45102,Clermont County,OH,58.50528434826371
45133,Highland County,OH,11.273276295923502
45135,Highland County,OH,95.77252138902868
45140,Clermont County,OH,45.39506794162053
45202,Hamilton County,OH,10.744841469552089
45212,Hamilton County,OH,18.193256165072974
45214,Hamilton County,OH,36.05938600905888
45215,Hamilton County,OH,14.066431806743834
45223,Hamilton County,OH,65.32460996477101
45236,Hamilton County,OH,86.2355309511827
45238,Hamilton County,OH,31.05183694011072
45239,Hamilton County,OH,55.35983895319577
45240,Hamilton County,OH,14.569703069954706
45241,Hamilton County,OH,85.85807750377454
45242,Hamilton County,OH,85.90840463009563
45244,Hamilton County,OH,39.65777554101661
45248,Hamilton County,OH,42.82838449924509
45251,Hamilton County,OH,39.98490186210367
45255,Hamilton County,OH,55.58631102164067
45322,Montgomery County,OH,61.57523905385003
45327,Montgomery County,OH,69.95470558631102
45342,Montgomery County,OH,5.158530447911424
45365,Shelby County,OH,28.233517866129844
45373,Miami County,OH,2.6170105686965277
45385,Greene County,OH,5.435329642677403
45403,Montgomery County,OH,24.534474081529943
45417,Montgomery County,OH,41.34373427277303
45420,Montgomery County,OH,48.28887770508304
45424,Montgomery County,OH,25.44036235530951
45431,Montgomery County,OH,33.694011071967786
45449,Montgomery County,OH,23.27629592350277
45504,Clark County,OH,90.91595369904378
45506,Clark County,OH,73.17564167086059
45634,Vinton County,OH,95.11826874685455
45640,Jackson County,OH,2.7176648213387016
45680,Lawrence County,OH,6.290890790135883
45750,Washington County,OH,0.5787619526925012
45769,Meigs County,OH,52.11373930548565
45804,Allen County,OH,5.48565676899849
45805,Allen County,OH,6.643180674383492
45879,Paulding County,OH,37.87116255661802
45895,Auglaize County,OH,19.174635128334174
73013,Oklahoma County,OK,19.803724207347763
73052,Garvin County,OK,97.65978862606946
73055,Stephens County,OK,64.31806743834927
73068,Cleveland County,OK,60.31706089582285
73072,Cleveland County,OK,16.58278812279819
73086,Murray County,OK,86.28585807750378
73089,Grady County,OK,75.23905385002516
73099,Canadian County,OK,51.40915953699044
73108,Oklahoma County,OK,82.91394061399095
73111,Oklahoma County,OK,53.54806240563664
73112,Oklahoma County,OK,23.88022143935581
73115,Oklahoma County,OK,46.50226472068445
73117,Oklahoma County,OK,97.08102667337695
73118,Oklahoma County,OK,88.22345244086563
73119,Oklahoma County,OK,44.26270759939607
73127,Oklahoma County,OK,39.10417715148465
73129,Oklahoma County,OK,38.651233014594865
73159,Oklahoma County,OK,67.38802214393557
73160,Cleveland County,OK,28.71162556618017
73443,Carter County,OK,90.46300956215401
73446,Marshall County,OK,80.32209360845496
73460,Johnston County,OK,80.97634625062909
73501,Comanche County,OK,45.19375943633619
73701,Garfield County,OK,67.61449421238048
73703,Garfield County,OK,40.41268243583291
73742,Kingfisher County,OK,98.06240563663815
73801,Woodward County,OK,52.34021137393054
74003,Osage County,OK,53.472571716155
74008,Tulsa County,OK,56.014091595369905
74010,Creek County,OK,84.8012078510317
74012,Tulsa County,OK,13.839959738298942
74014,Wagoner County,OK,24.00603925515853
74020,Pawnee County,OK,81.85707096124811
74035,Osage County,OK,99.72320080523403
74044,Creek County,OK,71.71615500754906
74055,Tulsa County,OK,74.13185707096125
74066,Creek County,OK,19.904378459989935
74074,Payne County,OK,82.2596879718168
74075,Payne County,OK,50.05032712632109
74107,Tulsa County,OK,51.660795168595875
74110,Tulsa County,OK,79.5923502767992
74126,Tulsa County,OK,90.33719174635128
74127,Tulsa County,OK,51.81177654755913
74129,Tulsa County,OK,43.734272773024664
74133,Tulsa County,OK,53.49773527931555
74134,Tulsa County,OK,87.14141922496226
74135,Tulsa County,OK,71.94262707599395
74136,Tulsa County,OK,44.26270759939607
74344,Delaware County,OK,66.65827881227982
74354,Ottawa County,OK,41.16758933064922
74401,Muskogee County,OK,88.42476094614997
74435,Sequoyah County,OK,96.77906391545042
74447,Okmulgee County,OK,57.67488676396578
74462,Haskell County,OK,68.16809260191243
74464,Cherokee County,OK,3.724207347760443
74467,Wagoner County,OK,79.768495218923
74601,Kay County,OK,31.27830900855561
74801,Pottawatomie County,OK,25.037745344740813
74857,Cleveland County,OK,71.23804730749875
74868,Seminole County,OK,59.989934574735784
97007,Washington County,OR,21.464519375943635
97008,Washington County,OR,46.225465525918466
97024,Multnomah County,OR,53.6990437845999
97027,Clackamas County,OR,71.91746351283341
97030,Multnomah County,OR,9.008555611474584
97051,Columbia County,OR,50.327126321087064
97062,Washington County,OR,47.03069954705587
97071,Marion County,OR,45.19375943633619
97078,Washington County,OR,84.70055359838953
97080,Multnomah County,OR,14.192249622546552
97086,Clackamas County,OR,86.56265727226975
97116,Washington County,OR,70.28183190739809
97124,Washington County,OR,15.752390538500253
97201,Multnomah County,OR,90.03522898842476
97203,Multnomah County,OR,27.730246602918974
97210,Multnomah County,OR,67.63965777554102
97211,Multnomah County,OR,31.731253145445393
97213,Multnomah County,OR,24.35832913940614
97216,Multnomah County,OR,39.68293910417715
97217,Multnomah County,OR,63.03472571716156
97222,Clackamas County,OR,18.319073980875693
97223,Washington County,OR,50.37745344740815
97229,Washington County,OR,23.980875691997987
97230,Multnomah County,OR,44.64016104680423
97233,Multnomah County,OR,8.178158027176648
97267,Clackamas County,OR,23.754403623553095
97301,Marion County,OR,28.963261197785606
97302,Marion County,OR,30.447911424257672
97305,Marion County,OR,47.48364368394565
97321,Linn County,OR,49.54705586311022
97338,Polk County,OR,34.70055359838953
97355,Linn County,OR,5.359838953195773
97361,Polk County,OR,75.31454453950678
97402,Lane County,OR,11.122294916960241
97420,Coos County,OR,37.84599899345748
97478,Lane County,OR,25.616507297433316
97501,Jackson County,OR,21.313537996980372
97502,Jackson County,OR,27.17664821338702
97523,Josephine County,OR,93.50780070457976
97801,Umatilla County,OR,75.46552591847005
97868,Umatilla County,OR,97.88626069451435
15012,Westmoreland County,PA,49.949672873678914
15025,Allegheny County,PA,37.34272773024661
15042,Beaver County,PA,78.68646200301963
15044,Allegheny County,PA,51.05686965274283
15057,Washington County,PA,70.4076497232008
15071,Allegheny County,PA,76.77403120281832
15104,Allegheny County,PA,58.65626572722697
15110,Allegheny County,PA,96.37644690488173
15132,Allegheny County,PA,5.510820332159034
15143,Allegheny County,PA,66.43180674383493
15146,Allegheny County,PA,68.69652742828384
15203,Allegheny County,PA,79.64267740312027
15204,Allegheny County,PA,55.2591847005536
15206,Allegheny County,PA,70.15601409159537
15214,Allegheny County,PA,42.04831404126824
15218,Allegheny County,PA,72.06844489179667
15219,Allegheny County,PA,20.35732259687972
15227,Allegheny County,PA,25.415198792148967
15229,Allegheny County,PA,80.87569199798692
15236,Allegheny County,PA,68.4952189229995
15323,Washington County,PA,97.65978862606946
15367,Washington County,PA,92.24962254655259
15401,Fayette County,PA,20.306995470558633
15627,Westmoreland County,PA,72.44589833920483
15650,Westmoreland County,PA,7.5993960744841464
15683,Westmoreland County,PA,69.8288877705083
15701,Indiana County,PA,11.75138399597383
15857,Elk County,PA,14.871665827881229
15901,Cambria County,PA,78.66129843985908
15905,Cambria County,PA,35.48062405636638
15931,Cambria County,PA,58.50528434826371
16146,Mercer County,PA,13.135379969803724
16148,Mercer County,PA,35.052843482637144
16301,Venango County,PA,35.85807750377453
16323,Venango County,PA,40.110719677906395
16335,Crawford County,PA,4.856567689984901
16365,Warren County,PA,22.79818822345244
16503,Erie County,PA,23.37695017614494
16635,Blair County,PA,68.2687468545546
16947,Bradford County,PA,90.18621036738801
17013,Cumberland County,PA,60.996477101157524
17019,York County,PA,82.20936084549572
17033,Dauphin County,PA,54.60493205837946
17036,Dauphin County,PA,13.160543532964267
17038,Lebanon County,PA,65.70206341217917
17042,Lebanon County,PA,1.7362858580775038
17055,Cumberland County,PA,17.488676396577755
17103,Dauphin County,PA,26.623049823855062
17104,Dauphin County,PA,9.235027679919476
17109,Dauphin County,PA,47.25717161550075
17268,Franklin County,PA,36.61298439859084
17301,Adams County,PA,98.31404126824359
17313,York County,PA,55.76245596376447
17315,York County,PA,16.557624559637645
17331,York County,PA,18.142929038751888
17401,York County,PA,67.2873678912934
17403,York County,PA,9.033719174635129
17404,York County,PA,5.385002516356316
17406,York County,PA,23.301459486663312
17517,Lancaster County,PA,42.1992954202315
17522,Lancaster County,PA,14.544539506794163
17543,Lancaster County,PA,13.311524911927531
17603,Lancaster County,PA,4.026170105686965
17701,Lycoming County,PA,28.2083543029693
17702,Lycoming County,PA,89.28032209360846
17756,Lycoming County,PA,64.443885254152
17801,Northumberland County,PA,10.996477101157524
17837,Union County,PA,69.22496225465527
18013,Northampton County,PA,24.71061902365375
18014,Northampton County,PA,30.523402113739305
18015,Northampton County,PA,3.5732259687971815
18017,Northampton County,PA,2.3653749370910924
18040,Northampton County,PA,85.0276799194766
18052,Lehigh County,PA,10.291897332662305
18078,Lehigh County,PA,92.45093105183693
18102,Lehigh County,PA,10.89582284851535
18109,Lehigh County,PA,15.098137896326119
18201,Luzerne County,PA,10.216406643180674
18510,Lackawanna County,PA,54.705586311021634
18518,Lackawanna County,PA,79.06391545042779
18603,Columbia County,PA,31.12732762959235
18640,Luzerne County,PA,30.296930045294413
18702,Luzerne County,PA,3.1454453950679415
18707,Luzerne County,PA,46.04932058379467
18840,Bradford County,PA,53.044791142425765
18901,Bucks County,PA,33.76950176144942
18951,Bucks County,PA,10.166079516859588
18974,Bucks County,PA,12.17916456970307
19001,Montgomery County,PA,44.514343231001504
19002,Montgomery County,PA,59.63764469048818
19013,Delaware County,PA,24.232511323603422
19014,Delaware County,PA,29.64267740312028
19018,Delaware County,PA,49.37091092098641
19020,Bucks County,PA,3.3970810266733773
19023,Delaware County,PA,17.966784096628082
19026,Delaware County,PA,9.084046300956215
19044,Montgomery County,PA,90.71464519375944
19046,Montgomery County,PA,33.39204831404127
19060,Delaware County,PA,94.01107196779064
19082,Delaware County,PA,5.007549068948163
19083,Delaware County,PA,16.431806743834926
19096,Montgomery County,PA,39.40613990941117
19104,Philadelphia County,PA,5.13336688475088
19111,Philadelphia County,PA,10.367388022143935
19114,Philadelphia County,PA,9.914443885254153
19119,Philadelphia County,PA,13.714141922496225
19120,Philadelphia County,PA,1.132360342224459
19121,Philadelphia County,PA,42.627075993960744
19124,Philadelphia County,PA,0.32712632108706596
19130,Philadelphia County,PA,25.893306492199297
19131,Philadelphia County,PA,48.38953195772521
19132,Philadelphia County,PA,33.26623049823855
19133,Philadelphia County,PA,7.725213890286866
19134,Philadelphia County,PA,9.058882737795672
19136,Philadelphia County,PA,26.77403120281832
19138,Philadelphia County,PA,6.316054353296427
19139,Philadelphia County,PA,11.348766985405133
19142,Philadelphia County,PA,6.064418721690991
19143,Philadelphia County,PA,0.27679919476597886
19144,Philadelphia County,PA,29.114242576748868
19145,Philadelphia County,PA,3.0447911424257676
19147,Philadelphia County,PA,9.486663311524913
19148,Philadelphia County,PA,40.91595369904378
19151,Philadelphia County,PA,51.7362858580775
19152,Philadelphia County,PA,58.70659285354807
19154,Philadelphia County,PA,34.24760946149975
19312,Chester County,PA,82.58681429290388
19320,Chester County,PA,3.9758429793658783
19380,Chester County,PA,28.032209360845496
19382,Chester County,PA,32.611977856064414
19406,Montgomery County,PA,34.071464519375944
19422,Montgomery County,PA,39.80875691997987
19446,Montgomery County,PA,7.448414695520886
19464,Montgomery County,PA,1.9627579265223956
19468,Montgomery County,PA,27.90639154504278
19565,Berks County,PA,71.03673880221439
19602,Berks County,PA,5.2591847005535985
19604,Berks County,PA,5.5359838953195775
19608,Berks County,PA,17.765475591343733
02816,Kent County,RI,16.25566180171112
02904,Providence County,RI,21.389028686462
29010,Lee County,SC,65.92853548062405
29016,Richland County,SC,68.57070961248112
29036,Lexington County,SC,60.1157523905385
29045,Kershaw County,SC,64.67035732259689
29053,Lexington County,SC,76.29592350276799
29073,Lexington County,SC,12.430800201308505
29112,Orangeburg County,SC,95.74735782586814
29115,Orangeburg County,SC,59.109209864116764
29118,Orangeburg County,SC,68.01711122294917
29123,Lexington County,SC,85.15349773527932
29135,Calhoun County,SC,81.15249119275289
29153,Sumter County,SC,95.52088575742324
29154,Sumter County,SC,39.48163059889281
29161,Florence County,SC,93.48263714141922
29203,Richland County,SC,4.9572219426270765
29204,Richland County,SC,59.51182687468546
29206,Richland County,SC,88.75188726723704
29229,Richland County,SC,25.666834423754402
29302,Spartanburg County,SC,69.22496225465527
29303,Spartanburg County,SC,30.674383492702567
29306,Spartanburg County,SC,24.987418218419727
29307,Spartanburg County,SC,50.1761449421238
29316,Spartanburg County,SC,26.19526925012582
29334,Spartanburg County,SC,98.26371414192249
29340,Cherokee County,SC,27.98188223452441
29360,Laurens County,SC,28.132863613487668
29369,Spartanburg County,SC,60.61902365374937
29379,Union County,SC,55.032712632108705
29406,Charleston County,SC,14.167086059386008
29410,Berkeley County,SC,67.01056869652743
29412,Charleston County,SC,21.489682939104178
29414,Charleston County,SC,20.86059386009059
29420,Dorchester County,SC,68.97332662304983
29435,Colleton County,SC,99.8238550578762
29440,Georgetown County,SC,33.99597382989431
29445,Berkeley County,SC,13.940613990941117
29470,Charleston County,SC,95.97382989431303
29483,Dorchester County,SC,35.933568193256164
29485,Dorchester County,SC,15.9536990437846
29505,Florence County,SC,36.31102164066432
29510,Georgetown County,SC,53.85002516356317
29520,Chesterfield County,SC,67.41318570709612
29527,Horry County,SC,70.43281328636135
29536,Dillon County,SC,43.08002013085053
29544,Horry County,SC,92.70256668344238
29550,Darlington County,SC,64.11675893306492
29566,Horry County,SC,69.02365374937091
29568,Horry County,SC,91.54504277805738
29569,Horry County,SC,82.76295923502768
29579,Horry County,SC,42.45093105183694
29582,Horry County,SC,90.23653749370911
29588,Horry County,SC,58.90790135883242
29607,Greenville County,SC,16.80926019124308
29609,Greenville County,SC,62.95923502767992
29611,Greenville County,SC,29.391041771514846
29615,Greenville County,SC,78.56064418721691
29617,Greenville County,SC,58.32913940613991
29624,Anderson County,SC,24.836436839456468
29627,Anderson County,SC,78.68646200301963
29640,Pickens County,SC,75.51585304479114
29642,Pickens County,SC,21.263210870659286
29646,Greenwood County,SC,66.40664318067438
29649,Greenwood County,SC,54.32813286361349
29651,Greenville County,SC,11.575239053850025
29655,Anderson County,SC,93.2310015098138
29669,Anderson County,SC,51.660795168595875
29680,Greenville County,SC,34.27277302466029
29681,Greenville County,SC,15.551082033215904
29687,Greenville County,SC,19.552088575742324
29689,Anderson County,SC,97.45848012078511
29690,Greenville County,SC,61.82687468545546
29691,Oconee County,SC,81.68092601912431
29693,Oconee County,SC,83.11524911927529
29702,Cherokee County,SC,68.36940110719678
29706,Chester County,SC,21.741318570709613
29709,Chesterfield County,SC,86.16004026170106
29715,York County,SC,56.9954705586311
29730,York County,SC,39.305485656768994
29732,York County,SC,20.130850528434827
29801,Aiken County,SC,27.579265223955712
29841,Aiken County,SC,86.26069451434323
29910,Beaufort County,SC,60.342224458983395
29918,Hampton County,SC,99.32058379466532
29920,Beaufort County,SC,79.51685958731757
57107,Minnehaha County,SD,99.8238550578762
57108,Lincoln County,SD,53.397081026673376
57110,Minnehaha County,SD,41.59536990437846
57262,Roberts County,SD,97.88626069451435
57350,Beadle County,SD,92.6019124308002
57401,Brown County,SD,9.134373427277302
57702,Pennington County,SD,47.206844489179666
57719,Pennington County,SD,95.77252138902868
57770,Shannon County,SD,76.2455963764469
37013,Davidson County,TN,45.470558631102165
37015,Cheatham County,TN,79.51685958731757
37040,Montgomery County,TN,77.67991947659789
37042,Montgomery County,TN,45.69703069954706
37043,Montgomery County,TN,76.57272269753396
37062,Williamson County,TN,76.32108706592854
37074,Trousdale County,TN,57.42325113236034
37080,Davidson County,TN,68.09260191243081
37087,Wilson County,TN,36.36134876698541
37091,Marshall County,TN,26.925012581781584
37096,Perry County,TN,95.09310518369402
37110,Warren County,TN,35.00251635631606
37127,Rutherford County,TN,50.60392551585304
37128,Rutherford County,TN,69.12430800201308
37129,Rutherford County,TN,8.605938600905889
37130,Rutherford County,TN,11.197785606441872
37153,Rutherford County,TN,99.018621036738807
37160,Bedford County,TN,39.305485656768994
37167,Rutherford County,TN,15.827881227981882
37174,Williamson County,TN,35.73225968797182
37190,Cannon County,TN,90.53850025163564
37207,Davidson County,TN,5.8379466532460995
37208,Davidson County,TN,47.684952189229996
37209,Davidson County,TN,20.130850528434827
37211,Davidson County,TN,10.46804227478611
37218,Davidson County,TN,39.73326623049824
37228,Davidson County,TN,90.73980875691998
37303,McMinn County,TN,12.481127327629592
37311,Bradley County,TN,22.194262707599396
37321,Rhea County,TN,17.66482133870156
37322,Meigs County,TN,81.07700050327126
37330,Franklin County,TN,86.05938600905888
37336,Bradley County,TN,94.58983392048313
37338,Rhea County,TN,97.83593356819325
37341,Hamilton County,TN,72.74786109713135
37343,Hamilton County,TN,44.489179667840965
37355,Coffee County,TN,22.57171615500755
37380,Marion County,TN,72.44589833920483
37407,Hamilton County,TN,94.28787116255661
37411,Hamilton County,TN,26.34625062908908
37412,Hamilton County,TN,39.68293910417715
37419,Hamilton County,TN,95.57121288374434
37604,Washington County,TN,10.593860090588828
37615,Washington County,TN,47.986914947156514
37616,Greene County,TN,83.99597382989431
37664,Sullivan County,TN,11.550075490689482
37692,Unicoi County,TN,94.81630598892804
37701,Blount County,TN,85.70709612481127
37725,Jefferson County,TN,73.65374937091093
37743,Greene County,TN,5.938600905888274
37748,Roane County,TN,22.043281328636137
37766,Campbell County,TN,58.17815802717665
37771,Loudon County,TN,74.78610971313539
37804,Blount County,TN,17.23704076497232
37821,Cocke County,TN,7.6245596376446905
37830,Anderson County,TN,46.02415702063412
37861,Grainger County,TN,71.86713638651233
37862,Sevier County,TN,59.713135379969806
37870,Claiborne County,TN,94.46401610468043
37871,Jefferson County,TN,80.09562154001006
37874,Monroe County,TN,27.805737292400607
37876,Sevier County,TN,88.85254151987921
37891,Hamblen County,TN,99.77352793155511
37912,Knox County,TN,17.94162053346754
37914,Knox County,TN,24.458983392048314
37915,Knox County,TN,92.90387518872673
37917,Knox County,TN,8.631102164066432
37920,Knox County,TN,47.55913437342728
37923,Knox County,TN,73.04982385505787
37924,Knox County,TN,86.51233014594867
38002,Shelby County,TN,57.57423251132361
38008,Hardeman County,TN,65.45042778057373
38011,Tipton County,TN,86.46200301962757
38012,Haywood County,TN,70.03019627579266
38016,Shelby County,TN,39.35581278309008
38024,Dyer County,TN,13.563160543532964
38104,Shelby County,TN,62.481127327629594
38107,Shelby County,TN,29.516859587317562
38108,Shelby County,TN,43.5832913940614
38109,Shelby County,TN,26.648213387015602
38111,Shelby County,TN,43.28132863613487
38112,Shelby County,TN,52.34021137393054
38115,Shelby County,TN,76.62304982385506
38116,Shelby County,TN,57.72521389028687
38118,Shelby County,TN,38.298943130347254
38120,Shelby County,TN,91.97282335178662
38125,Shelby County,TN,86.73880221439356
38126,Shelby County,TN,92.40060392551585
38127,Shelby County,TN,22.471061902365374
38133,Shelby County,TN,68.82234524408656
38134,Shelby County,TN,59.260191243080016
38138,Shelby County,TN,83.56819325616507
38201,Carroll County,TN,70.73477604428787
38242,Henry County,TN,68.8978359335682
38301,Madison County,TN,23.70407649723201
38305,Madison County,TN,4.151987921489683
38330,Gibson County,TN,94.71565173628585
38340,Chester County,TN,53.799698037242074
38462,Lewis County,TN,59.889280322093605
38464,Lawrence County,TN,20.332159033719176
38478,Giles County,TN,45.01761449421238
38506,Putnam County,TN,97.13135379969803
38556,Fentress County,TN,39.632611977856065
38572,Cumberland County,TN,50.931051836940114
75002,Collin County,TX,12.304982385505788
75009,Collin County,TX,81.02667337695017
75023,Collin County,TX,41.21791645697031
75024,Collin County,TX,79.79365878208354
75040,Dallas County,TX,37.11625566180171
75043,Dallas County,TX,39.98490186210367
75044,Dallas County,TX,42.979365878208355
75048,Dallas County,TX,63.18570709612481
75052,Dallas County,TX,36.73880221439356
75060,Dallas County,TX,28.88777050830398
75062,Dallas County,TX,82.41066935078007
75065,Denton County,TX,79.86914947156517
75067,Denton County,TX,54.705586311021634
75069,Collin County,TX,69.75339708102666
75070,Collin County,TX,34.02113739305486
75071,Collin County,TX,16.758933064921994
75074,Collin County,TX,74.1066935078007
75080,Dallas County,TX,88.72672370407649
75081,Dallas County,TX,60.04026170105688
75087,Rockwall County,TX,29.03875188726724
75090,Grayson County,TX,35.37996980372421
75110,Navarro County,TX,30.171112229491698
75126,Kaufman County,TX,19.703069954705587
75134,Dallas County,TX,52.944136889783586
75137,Dallas County,TX,51.836940110719674
75149,Dallas County,TX,58.20332159033719
75160,Kaufman County,TX,53.19577252138903
75167,Ellis County,TX,74.38349270256668
75180,Dallas County,TX,56.014091595369905
75181,Dallas County,TX,74.25767488676397
75189,Rockwall County,TX,32.687468545546054
75204,Dallas County,TX,49.64771011575239
75208,Dallas County,TX,50.50327126321087
75210,Dallas County,TX,57.92652239557121
75211,Dallas County,TX,80.07045797684953
75212,Dallas County,TX,33.190739808756916
75214,Dallas County,TX,31.504781077000505
75216,Dallas County,TX,75.64167086059386
75217,Dallas County,TX,22.14393558127831
75227,Dallas County,TX,39.17966784096628
75228,Dallas County,TX,2.4408656265727227
75229,Dallas County,TX,31.45445395067942
75231,Dallas County,TX,33.01459486663312
75234,Dallas County,TX,57.398087569199795
75237,Dallas County,TX,32.15903371917464
75238,Dallas County,TX,55.76245596376447
75240,Dallas County,TX,58.983392048314045
75243,Dallas County,TX,31.63059889280322
75253,Dallas County,TX,91.39406139909411
75287,Denton County,TX,28.082536487166582
75409,Collin County,TX,68.74685455460494
75454,Collin County,TX,93.60845495722194
75474,Hunt County,TX,51.00654252642174
75495,Grayson County,TX,90.18621036738801
75503,Bowie County,TX,39.25515853044791
75602,Gregg County,TX,88.82737795671866
75603,Gregg County,TX,95.92350276799195
75605,Gregg County,TX,73.47760442878712
75662,Gregg County,TX,41.54504277805737
75701,Smith County,TX,23.301459486663312
75704,Smith County,TX,79.3658782083543
75707,Smith County,TX,89.68293910417715
75708,Smith County,TX,89.22999496728737
75785,Cherokee County,TX,58.404630095621535
75801,Anderson County,TX,52.34021137393054
75835,Houston County,TX,83.94564670357323
75839,Anderson County,TX,93.38198288877705
75904,Angelina County,TX,21.892299949672875
75935,Shelby County,TX,67.86612984398592
75941,Angelina County,TX,93.50780070457976
75966,Newton County,TX,95.21892299949673
76001,Tarrant County,TX,43.0045294413689
76002,Tarrant County,TX,45.84801207851032
76006,Tarrant County,TX,85.25415198792149
76010,Tarrant County,TX,56.59285354806241
76015,Tarrant County,TX,71.61550075490689
76017,Tarrant County,TX,19.627579265223954
76018,Tarrant County,TX,46.42677403120282
76020,Tarrant County,TX,18.067438349270258
76022,Tarrant County,TX,76.11977856064419
76028,Johnson County,TX,5.234021137393055
76033,Johnson County,TX,58.9582284851535
76039,Tarrant County,TX,24.73578258681429
76084,Johnson County,TX,86.86462003019628
76086,Parker County,TX,47.986914947156514
76088,Parker County,TX,97.81077000503271
76092,Tarrant County,TX,54.403623553095116
76104,Tarrant County,TX,62.40563663814797
76106,Tarrant County,TX,35.32964267740312
76107,Tarrant County,TX,29.265223955712127
76110,Tarrant County,TX,30.674383492702567
76111,Tarrant County,TX,65.67689984901862
76112,Tarrant County,TX,30.97634625062909
76114,Tarrant County,TX,30.749874182184193
76115,Tarrant County,TX,38.22345244086562
76117,Tarrant County,TX,22.194262707599396
76119,Tarrant County,TX,39.02868646200302
76131,Tarrant County,TX,71.54001006542526
76132,Tarrant County,TX,52.944136889783586
76134,Tarrant County,TX,15.626572722697535
76135,Tarrant County,TX,46.04932058379467
76140,Tarrant County,TX,25.792652239557125
76148,Tarrant County,TX,63.462506290890786
76207,Denton County,TX,73.50276799194766
76209,Denton County,TX,71.9677906391545
76227,Denton County,TX,83.14041268243584
76234,Wise County,TX,85.98389531957726
76240,Cooke County,TX,61.70105686965274
76248,Tarrant County,TX,53.32159033719175
76302,Wichita County,TX,62.229491696024155
76401,Erath County,TX,90.16104680422747
76426,Wise County,TX,84.52440865626572
76446,Erath County,TX,89.10417715148465
76522,Coryell County,TX,32.939104177151485
76528,Coryell County,TX,17.66482133870156
76541,Bell County,TX,33.291394061399096
76542,Bell County,TX,7.121288374433819
76543,Bell County,TX,16.65827881227982
76574,Williamson County,TX,37.44338198288878
76661,Falls County,TX,89.83392048314042
76705,McLennan County,TX,36.38651233014595
76706,McLennan County,TX,56.97030699547055
76801,Brown County,TX,41.972823351786616
76825,McCulloch County,TX,84.87669854051335
76903,Tom Green County,TX,93.91041771514847
76904,Tom Green County,TX,50.85556114745848
76905,Tom Green County,TX,88.55057876195269
77005,Harris County,TX,63.66381479617513
77012,Harris County,TX,86.31102164066432
77013,Harris County,TX,94.36336185203825
77014,Harris County,TX,48.51534977352793
77015,Harris County,TX,27.30246602918973
77019,Harris County,TX,61.12229491696024
77021,Harris County,TX,23.175641670860596
77022,Harris County,TX,43.834927025666836
77023,Harris County,TX,48.64116758933065
77028,Harris County,TX,37.87116255661802
77033,Harris County,TX,74.93709109209864
77034,Harris County,TX,46.326119778560646
77036,Harris County,TX,91.44438852541519
77037,Harris County,TX,98.94313034725717
77038,Harris County,TX,72.34524408656266
77039,Harris County,TX,62.229491696024155
77040,Harris County,TX,33.39204831404127
77042,Harris County,TX,62.45596376446905
77047,Harris County,TX,44.66532460996477
77048,Harris County,TX,62.0281831907398
77051,Harris County,TX,74.43381982888778
77055,Harris County,TX,47.081026673376954
77057,Harris County,TX,84.90186210367388
77060,Harris County,TX,96.04932058379467
77061,Harris County,TX,64.19224962254656
77062,Harris County,TX,49.09411172622043
77063,Harris County,TX,55.86311021640664
77064,Harris County,TX,23.829894313034725
77067,Harris County,TX,65.92853548062405
77068,Harris County,TX,91.51987921489683
77070,Harris County,TX,67.84096628082537
77072,Harris County,TX,86.71363865123301
77073,Harris County,TX,74.08152994464015
77074,Harris County,TX,69.8288877705083
77078,Harris County,TX,67.3376950176145
77081,Harris County,TX,91.72118772018118
77082,Harris County,TX,90.81529944640161
77083,Harris County,TX,28.862606945143433
77084,Harris County,TX,72.9491696024157
77087,Harris County,TX,44.66532460996477
77088,Harris County,TX,70.93608454957221
77089,Harris County,TX,31.63059889280322
77090,Harris County,TX,17.56416708605939
77093,Harris County,TX,80.72471061902365
77094,Harris County,TX,94.86663311524912
77095,Harris County,TX,36.763965777554105
77099,Harris County,TX,42.67740312028183
77316,Montgomery County,TX,66.9350780070458
77327,Liberty County,TX,54.177151484650224
77328,San Jacinto County,TX,70.35732259687973
77338,Harris County,TX,32.98943130347257
77346,Harris County,TX,11.801711122294916
77356,Montgomery County,TX,55.93860090588827
77357,Montgomery County,TX,81.22798188223453
77373,Harris County,TX,17.56416708605939
77386,Montgomery County,TX,21.766482133870156
77406,Fort Bend County,TX,32.53648716658279
77407,Fort Bend County,TX,73.3014594866633
77414,Matagorda County,TX,32.788122798188226
77433,Harris County,TX,28.58580775037745
77441,Fort Bend County,TX,84.37342727730247
77447,Harris County,TX,62.0281831907398
77449,Harris County,TX,60.56869652742828
77450,Harris County,TX,25.817815802717664
77469,Fort Bend County,TX,17.438349270256666
77477,Fort Bend County,TX,87.1665827881228
77479,Fort Bend County,TX,18.36940110719678
77494,Fort Bend County,TX,35.90840463009562
77498,Fort Bend County,TX,74.68545546049322
77502,Harris County,TX,41.46955208857574
77503,Harris County,TX,69.72823351786613
77505,Harris County,TX,54.479114242576756
77506,Harris County,TX,49.39607448414696
77511,Brazoria County,TX,33.97081026673377
77515,Brazoria County,TX,36.53749370910921
77520,Harris County,TX,31.25314544539507
77521,Harris County,TX,50.67941620533467
77530,Harris County,TX,45.57121288374434
77532,Harris County,TX,28.661298439859085
77539,Galveston County,TX,10.946149974836437
77541,Brazoria County,TX,35.17866129843986
77546,Galveston County,TX,47.584297936587824
77550,Galveston County,TX,39.758429793658784
77551,Galveston County,TX,15.576245596376449
77568,Galveston County,TX,22.093608454957224
77573,Galveston County,TX,68.34423754403623
77575,Liberty County,TX,55.535983895319575
77583,Brazoria County,TX,72.4207347760443
77584,Brazoria County,TX,4.6552591847005536
77586,Harris County,TX,36.48716658278812
77590,Galveston County,TX,30.12078510317061
77598,Harris County,TX,46.955208857574235
77619,Jefferson County,TX,63.2360342224459
77630,Orange County,TX,28.459989934574736
77632,Orange County,TX,39.85908404630096
77640,Jefferson County,TX,48.817312531454455
77642,Jefferson County,TX,17.715148465022647
77651,Jefferson County,TX,85.25415198792149
77802,Brazos County,TX,14.67035732259688
77803,Brazos County,TX,48.49018621036738
77807,Brazos County,TX,72.29491696024158
77901,Victoria County,TX,46.728736789129336
78002,Bexar County,TX,96.42677403120283
78006,Kendall County,TX,78.43482637141419
78015,Bexar County,TX,89.43130347257173
78028,Kerr County,TX,25.289380976346248
78040,Webb County,TX,29.03875188726724
78041,Webb County,TX,77.32762959235028
78045,Webb County,TX,45.39506794162053
78046,Webb County,TX,77.15148465022648
78063,Bandera County,TX,96.27579265223956
78065,Atascosa County,TX,84.65022647206844
78109,Bexar County,TX,35.73225968797182
78132,Comal County,TX,61.07196779063916
78155,Guadalupe County,TX,45.92350276799195
78201,Bexar County,TX,65.07297433316558
78204,Bexar County,TX,80.62405636638148
78207,Bexar County,TX,11.373930548565676
78213,Bexar County,TX,68.09260191243081
78214,Bexar County,TX,82.10870659285355
78218,Bexar County,TX,36.88978359335682
78219,Bexar County,TX,90.03522898842476
78220,Bexar County,TX,79.84398590840463
78221,Bexar County,TX,33.21590337191746
78222,Bexar County,TX,56.24056366381479
78223,Bexar County,TX,10.090588827377957
78224,Bexar County,TX,79.06391545042779
78228,Bexar County,TX,50.75490689481631
78229,Bexar County,TX,40.53850025163563
78233,Bexar County,TX,64.01610468042274
78239,Bexar County,TX,51.207851031706085
78240,Bexar County,TX,81.12732762959234
78245,Bexar County,TX,77.2269753397081
78248,Bexar County,TX,96.50226472068445
78249,Bexar County,TX,47.76044287871162
78250,Bexar County,TX,29.894313034725716
78251,Bexar County,TX,75.36487166582788
78257,Bexar County,TX,98.36436839456468
78258,Bexar County,TX,54.93205837946653
78332,Jim Wells County,TX,51.25817815802718
78361,Jim Hogg County,TX,98.79214896829392
78368,San Patricio County,TX,82.98943130347257
78374,San Patricio County,TX,95.16859587317565
78411,Nueces County,TX,44.7408152994464
78412,Nueces County,TX,40.991444388525416
78415,Nueces County,TX,34.47408152994464
78416,Nueces County,TX,78.0322093608455
78418,Nueces County,TX,63.2360342224459
78501,Hidalgo County,TX,68.52038248616003
78503,Hidalgo County,TX,59.838953195772525
78504,Hidalgo County,TX,61.32360342224459
78516,Hidalgo County,TX,90.01006542526422
78520,Cameron County,TX,87.44338198288878
78521,Cameron County,TX,73.17564167086059
78526,Cameron County,TX,85.48062405636638
78541,Hidalgo County,TX,71.13739305485657
78542,Hidalgo County,TX,80.14594866633115
78550,Cameron County,TX,88.07247106190236
78552,Cameron County,TX,58.983392048314045
78557,Hidalgo County,TX,95.54604932058379
78570,Hidalgo County,TX,60.1157523905385
78572,Hidalgo County,TX,38.47508807247107
78573,Hidalgo County,TX,43.130347257171614
78574,Hidalgo County,TX,76.49723200805234
78576,Hidalgo County,TX,94.5143432310015
78578,Cameron County,TX,94.66532460996477
78580,Willacy County,TX,86.68847508807247
78582,Starr County,TX,84.17211877201812
78584,Starr County,TX,91.87216909914444
78589,Hidalgo County,TX,62.00301962757927
78593,Cameron County,TX,99.67287367891294
78610,Hays County,TX,87.9214896829391
78611,Burnet County,TX,90.91595369904378
78613,Williamson County,TX,55.2088575742325
78617,Travis County,TX,66.3059889280322
78621,Bastrop County,TX,59.51182687468546
78624,Gillespie County,TX,95.06794162053347
78626,Williamson County,TX,77.70508303975842
78640,Hays County,TX,64.443885254152
78641,Williamson County,TX,43.05485656768999
78644,Caldwell County,TX,84.4489179667841
78664,Williamson County,TX,32.8887770508304
78665,Williamson County,TX,38.22345244086562
78681,Williamson County,TX,75.56618017111222
78721,Travis County,TX,90.53850025163564
78723,Travis County,TX,79.69300452944137
78725,Travis County,TX,99.24509310518368
78726,Travis County,TX,98.0875691997987
78727,Travis County,TX,83.29139406139909
78728,Travis County,TX,91.46955208857574
78729,Williamson County,TX,70.8102667337695
78741,Travis County,TX,63.588324106693506
78745,Travis County,TX,49.09411172622043
78747,Travis County,TX,88.22345244086563
78748,Travis County,TX,86.48716658278812
78750,Travis County,TX,94.84146955208857
78751,Travis County,TX,96.72873678912934
78753,Travis County,TX,93.86009058882738
78758,Travis County,TX,86.43683945646704
78840,Val Verde County,TX,17.639657775541018
78852,Maverick County,TX,75.84297936587821
78942,Lee County,TX,92.12380473074987
79103,Potter County,TX,98.69149471565174
79106,Potter County,TX,42.82838449924509
79109,Randall County,TX,25.616507297433316
79110,Randall County,TX,54.529441368897835
79201,Childress County,TX,98.64116758933065
79323,Yoakum County,TX,70.28183190739809
79360,Gaines County,TX,40.261701056869654
79407,Lubbock County,TX,83.54302969300453
79411,Lubbock County,TX,97.96175138399597
79413,Lubbock County,TX,57.04579768495219
79423,Lubbock County,TX,17.840966280825366
79424,Lubbock County,TX,15.148465022647207
79556,Nolan County,TX,76.84952189229996
79603,Taylor County,TX,18.746854554604933
79701,Midland County,TX,29.944640161046802
79703,Midland County,TX,78.86260694514343
79706,Midland County,TX,33.16557624559638
79707,Midland County,TX,21.615500754906893
79714,Andrews County,TX,44.79114242576749
79720,Howard County,TX,72.82335178661299
79731,Crane County,TX,90.61399094111727
79735,Pecos County,TX,95.82284851534978
79756,Ward County,TX,87.66985405133367
79761,Ector County,TX,71.86713638651233
79762,Ector County,TX,17.01056869652743
79763,Ector County,TX,56.8193256165073
79764,Ector County,TX,92.35027679919476
79765,Ector County,TX,85.7825868142929
79772,Reeves County,TX,71.16255661801712
79849,El Paso County,TX,97.23200805234022
79904,El Paso County,TX,54.22747861097131
79905,El Paso County,TX,67.79063915450428
79924,El Paso County,TX,30.85052843482637
79925,El Paso County,TX,86.05938600905888
79927,El Paso County,TX,44.94212380473075
79928,El Paso County,TX,36.56265727226975
79936,El Paso County,TX,28.938097634625066
79938,El Paso County,TX,20.231504781077
84003,Utah County,UT,66.12984398590841
84005,Utah County,UT,72.49622546552592
84009,Salt Lake County,UT,41.59536990437846
84015,Davis County,UT,42.954202315047816
84032,Wasatch County,UT,81.70608958228485
84036,Summit County,UT,96.67840966280825
84037,Davis County,UT,85.05284348263714
84041,Davis County,UT,59.08404630095622
84043,Utah County,UT,81.90739808756919
84044,Salt Lake County,UT,31.07700050327126
84045,Utah County,UT,68.19325616507298
84047,Salt Lake County,UT,67.81580271766482
84057,Utah County,UT,95.24408656265727
84062,Utah County,UT,92.97936587820836
84067,Weber County,UT,24.081529944640163
84070,Salt Lake County,UT,37.99698037242074
84074,Tooele County,UT,86.63814796175139
84078,Uintah County,UT,34.90186210367388
84081,Salt Lake County,UT,71.84197282335178
84084,Salt Lake County,UT,67.6899849018621
84087,Davis County,UT,82.48616004026171
84094,Salt Lake County,UT,82.53648716658279
84095,Salt Lake County,UT,62.355309511826874
84096,Salt Lake County,UT,16.07951685958732
84101,Salt Lake County,UT,96.35128334172119
84104,Salt Lake County,UT,34.72571716155007
84106,Salt Lake County,UT,84.49924509310517
84107,Salt Lake County,UT,28.334172118772017
84118,Salt Lake County,UT,37.21690991444389
84119,Salt Lake County,UT,6.114745848012078
84120,Salt Lake County,UT,19.426270759939605
84123,Salt Lake County,UT,74.9119275289381
84128,Salt Lake County,UT,26.97533970810267
84129,,UT,51.86210367388022
84302,Box Elder County,UT,97.30749874182185
84312,Box Elder County,UT,99.59738298943131
84315,Weber County,UT,96.80422747861097
84321,Cache County,UT,98.6160040261701
84401,Weber County,UT,30.447911424257672
84403,Weber County,UT,97.55913437342728
84404,Weber County,UT,42.17413185707096
84528,Emery County,UT,100
84606,Utah County,UT,99.21992954202315
84660,Utah County,UT,83.6940110719678
84720,Iron County,UT,93.63361852038248
84738,Washington County,UT,94.11172622043281
05401,Chittenden County,VT,37.44338198288878
05478,Franklin County,VT,43.734272773024664
05676,Washington County,VT,89.80875691997987
05753,Addison County,VT,85.53095118268746
20105,Loudoun County,VA,79.51685958731757
20109,Prince William County,VA,54.403623553095116
20110,Manassas city,VA,57.49874182184197
20111,Prince William County,VA,73.95571212883745
20121,Fairfax County,VA,55.158530447911424
20147,Loudoun County,VA,77.52893809763462
20148,Loudoun County,VA,88.62606945143432
20155,Prince William County,VA,48.943130347257174
20164,Loudoun County,VA,31.429290387518872
20170,Fairfax County,VA,91.19275289380975
20171,Fairfax County,VA,39.05385002516356
20187,Fauquier County,VA,91.57020634121793
22003,Fairfax County,VA,19.048817312531455
22015,Fairfax County,VA,40.764972320080524
22025,Prince William County,VA,84.19728233517866
22031,Fairfax County,VA,54.35329642677404
22041,Fairfax County,VA,86.05938600905888
22043,Fairfax County,VA,62.15400100654252
22079,Fairfax County,VA,30.04529441368898
22101,Fairfax County,VA,40.33719174635128
22150,Fairfax County,VA,41.67086059386009
22153,Fairfax County,VA,46.955208857574235
22180,Fairfax County,VA,74.63512833417212
22182,Fairfax County,VA,55.30951182687468
22191,Prince William County,VA,83.76950176144942
22192,Prince William County,VA,10.367388022143935
22193,Prince William County,VA,6.718671363865123
22201,Arlington County,VA,48.691494715651736
22206,Arlington County,VA,46.27579265223956
22303,Fairfax County,VA,64.67035732259689
22306,Fairfax County,VA,17.916456970306996
22308,Fairfax County,VA,75.06290890790136
22309,Fairfax County,VA,48.943130347257174
22310,Fairfax County,VA,74.23251132360342
22312,Fairfax County,VA,66.68344237544036
22405,Stafford County,VA,46.14997483643684
22407,Spotsylvania County,VA,37.644690488173126
22553,Spotsylvania County,VA,78.30900855561147
22656,Frederick County,VA,98.6663311524912
22801,Harrisonburg city,VA,29.96980372420735
22802,Harrisonburg city,VA,13.58832410669351
22901,Albemarle County,VA,21.112229491696024
22903,Charlottesville city,VA,50.50327126321087
22960,Orange County,VA,54.781077000503274
22980,Waynesboro city,VA,3.6738802214393558
23075,Henrico County,VA,51.76144942123805
23093,Louisa County,VA,49.698037242073475
23112,Chesterfield County,VA,30.27176648213387
23220,Richmond city,VA,51.10719677906391
23222,Richmond city,VA,8.907901358832412
23224,Richmond city,VA,60.266733769501755
23225,Richmond city,VA,7.045797684952189
23227,Henrico County,VA,29.441368897835936
23229,Henrico County,VA,57.44841469552089
23231,Henrico County,VA,45.1434323100151
23234,Chesterfield County,VA,10.317060895822848
23237,Chesterfield County,VA,35.17866129843986
23323,Chesapeake city,VA,22.244589833920482
23430,Isle of Wight County,VA,56.9954705586311
23451,Virginia Beach city,VA,27.47861097131354
23454,Virginia Beach city,VA,17.765475591343733
23464,Virginia Beach city,VA,8.303975842979366
23503,Norfolk city,VA,68.97332662304983
23504,Norfolk city,VA,15.450427780573731
23505,Norfolk city,VA,26.472068444891793
23513,Norfolk city,VA,57.77554101660796
23523,Norfolk city,VA,84.47408152994464
23602,Newport News city,VA,51.283341721187725
23608,Newport News city,VA,10.04026170105687
23669,Hampton city,VA,44.23754403623553
23703,Portsmouth city,VA,43.88525415198792
23704,Portsmouth city,VA,17.136386512330144
23707,Portsmouth city,VA,41.82184197282336
23803,Petersburg city,VA,5.435329642677403
23805,Petersburg city,VA,73.85505787619527
23831,Chesterfield County,VA,25.13839959738299
23838,Chesterfield County,VA,80.926019124308
23851,Franklin city,VA,46.80422747861097
23860,Hopewell city,VA,53.42224458983392
23875,Prince George County,VA,76.92501258178159
23890,Sussex County,VA,94.91696024157021
24012,Roanoke city,VA,51.18268746854555
24016,Roanoke city,VA,42.45093105183694
24055,Henry County,VA,52.11373930548565
24112,Henry County,VA,8.480120785103171
24141,Radford city,VA,63.8147961751384
24224,Russell County,VA,70.0553598389532
24230,Wise County,VA,67.71514846502265
24293,Wise County,VA,37.69501761449421
24315,Bland County,VA,97.48364368394564
24333,Galax city,VA,68.8978359335682
24504,Lynchburg city,VA,47.081026673376954
24517,Campbell County,VA,96.527428283845
24523,Bedford County,VA,20.281831907398086
24540,Danville city,VA,16.45697030699547
24558,Halifax County,VA,58.58077503774535
24592,Halifax County,VA,17.614494212380475
24637,Tazewell County,VA,91.97282335178662
98002,King County,WA,22.79818822345244
98003,King County,WA,50.47810770005032
98006,King County,WA,46.04932058379467
98007,King County,WA,76.17010568696527
98012,Snohomish County,WA,18.696527428283847
98014,King County,WA,98.2133870156014
98023,King County,WA,14.771011575239054
98031,King County,WA,29.114242576748868
98033,King County,WA,53.1202818319074
98038,King County,WA,21.615500754906893
98042,King County,WA,8.857574232511324
98052,King County,WA,36.789129340714645
98055,King County,WA,66.18017111222949
98059,King County,WA,33.39204831404127
98075,King County,WA,73.02466029189733
98103,King County,WA,34.6250629089079
98105,King County,WA,74.96225465525919
98107,King County,WA,59.134373427277296
98115,King County,WA,24.20734776044288
98126,King County,WA,48.61600402617011
98144,King County,WA,18.0926019124308
98188,King County,WA,58.983392048314045
98201,Snohomish County,WA,36.1852038248616
98221,Skagit County,WA,51.23301459486663
98229,Whatcom County,WA,72.84851534977352
98248,Whatcom County,WA,71.81680926019123
98273,Skagit County,WA,16.9350780070458
98296,Snohomish County,WA,33.21590337191746
98311,Kitsap County,WA,80.27176648213387
98329,Pierce County,WA,67.01056869652743
98332,Pierce County,WA,84.62506290890789
98335,Pierce County,WA,49.194765978862605
98366,Kitsap County,WA,13.73930548565677
98367,Kitsap County,WA,37.01560140915954
98387,Pierce County,WA,13.236034222445896
98391,Pierce County,WA,7.171615500754906
98404,Pierce County,WA,21.112229491696024
98445,Pierce County,WA,36.411675893306494
98467,Pierce County,WA,76.59788626069451
98550,Grays Harbor County,WA,78.43482637141419
98632,Cowlitz County,WA,10.140915953699043
98642,Clark County,WA,93.15551082033215
98665,Clark County,WA,75.81781580271767
98682,Clark County,WA,47.40815299446402
98801,Chelan County,WA,13.688978359335682
98837,Grant County,WA,19.401107196779062
98857,Grant County,WA,98.11273276295923
98953,Yakima County,WA,98.16305988928032
97003,NA,NA,42.1992954202315
99141,Stevens County,WA,87.34272773024661
99156,Pend Oreille County,WA,84.2727730246603
99206,Spokane County,WA,33.794665324609966
99207,Spokane County,WA,38.52541519879215
99208,Spokane County,WA,26.899849018621037
99223,Spokane County,WA,57.72521389028687
99224,Spokane County,WA,83.59335681932562
99301,Franklin County,WA,81.20281831907398
99336,Benton County,WA,49.5973829894313
99344,Adams County,WA,97.00553598389531
99352,Benton County,WA,28.56064418721691
20001,District of Columbia,DC,11.39909411172622
20002,District of Columbia,DC,14.217413185707095
20003,District of Columbia,DC,71.16255661801712
20008,District of Columbia,DC,75.36487166582788
20010,District of Columbia,DC,86.4116758933065
20011,District of Columbia,DC,3.4222445898339204
20016,District of Columbia,DC,64.49421238047307
20017,District of Columbia,DC,41.41922496225465
20018,District of Columbia,DC,65.1987921489683
20019,District of Columbia,DC,1.4846502264720685
20020,District of Columbia,DC,7.423251132360342
20032,District of Columbia,DC,1.9627579265223956
24701,Mercer County,WV,17.891293407146453
24901,Greenbrier County,WV,75.8933064921993
24970,Greenbrier County,WV,96.1248112732763
25143,Kanawha County,WV,80.27176648213387
25213,Putnam County,WV,93.25616507297433
25302,Kanawha County,WV,86.91494715651736
25309,Kanawha County,WV,56.94514343231002
25387,Kanawha County,WV,70.78510317060895
25428,Berkeley County,WV,50.931051836940114
25701,Cabell County,WV,8.102667337695017
25704,Wayne County,WV,17.262204328132864
25705,Cabell County,WV,9.260191243080019
26101,Wood County,WV,65.24911927528937
26150,Wood County,WV,66.3059889280322
26164,Jackson County,WV,50.25163563160544
26301,Harrison County,WV,37.82083543029693
26505,Monongalia County,WV,4.20231504781077
26508,Monongalia County,WV,1.8369401107196779
26554,Marion County,WV,12.003019627579265
53024,Ozaukee County,WI,81.52994464016105
53029,Waukesha County,WI,52.944136889783586
53095,Washington County,WI,72.5968797181681
53105,Racine County,WI,7.725213890286866
53120,Walworth County,WI,88.67639657775541
53121,Walworth County,WI,31.45445395067942
53128,Walworth County,WI,58.78208354302969
53147,Walworth County,WI,31.831907398087566
53151,Waukesha County,WI,27.377956718671363
53181,Kenosha County,WI,78.93809763462507
53185,Racine County,WI,46.703573225968796
53204,Milwaukee County,WI,17.1112229491696
53205,Milwaukee County,WI,0.8303975842979365
53207,Milwaukee County,WI,15.374937091092097
53208,Milwaukee County,WI,26.698540513336688
53209,Milwaukee County,WI,8.152994464016103
53210,Milwaukee County,WI,3.246099647710116
53215,Milwaukee County,WI,12.556618017111223
53223,Milwaukee County,WI,8.278812279818823
53225,Milwaukee County,WI,25.86814292903875
53227,Milwaukee County,WI,23.57825868142929
53402,Racine County,WI,15.123301459486663
53403,Racine County,WI,21.414192249622545
53511,Rock County,WI,0.22647206844489182
53532,Dane County,WI,58.027176648213384
53538,Jefferson County,WI,71.23804730749875
53566,Green County,WI,39.20483140412682
53590,Dane County,WI,26.245596376446905
53704,Dane County,WI,25.54101660795169
53711,Dane County,WI,21.036738802214394
53719,Dane County,WI,44.13688978359336
53963,Dodge County,WI,43.608454957221944
54015,St. Croix County,WI,97.08102667337695
54130,Outagamie County,WI,47.081026673376954
54143,Marinette County,WI,36.411675893306494
54220,Manitowoc County,WI,16.230498238550577
54235,Door County,WI,49.295420231504785
54241,Manitowoc County,WI,51.58530447911425
54302,Brown County,WI,15.17362858580775
54311,Brown County,WI,63.11021640664318
54403,Marathon County,WI,31.75641670860594
54449,Wood County,WI,63.53799698037243
54452,Lincoln County,WI,73.17564167086059
54476,Marathon County,WI,95.04277805737293
54481,Portage County,WI,40.31202818319074
54484,Marathon County,WI,99.89934574735783
54495,Wood County,WI,90.36235530951183
54601,La Crosse County,WI,2.9441368897835933
54660,Monroe County,WI,84.14695520885758
54703,Eau Claire County,WI,11.927528938097634
54729,Chippewa County,WI,55.0830397584298
54768,Chippewa County,WI,97.15651736285858
54902,Winnebago County,WI,41.51987921489683
54913,Outagamie County,WI,78.30900855561147
54914,Outagamie County,WI,64.29290387518873
54915,Outagamie County,WI,57.347760442878716
54935,Fond du Lac County,WI,7.901358832410669
54944,Outagamie County,WI,97.33266230498239
54949,Waupaca County,WI,95.69703069954706
54952,Winnebago County,WI,69.67790639154504
54956,Winnebago County,WI,15.299446401610467
54963,Winnebago County,WI,60.94614997483644
54971,Fond du Lac County,WI,80.39758429793659
82501,Fremont County,WY,72.64720684448918
82633,Converse County,WY,48.21338701560141
82801,Sheridan County,WY,61.172622043281336
82901,Sweetwater County,WY,44.86663311524912
