ZipCode,county,state,Adult
35014,Talladega County,AL,93.20794148380355
35055,Cullman County,AL,53.50052246603971
35077,Cullman County,AL,91.43155694879833
35160,Talladega County,AL,86.10240334378265
35474,Hale County,AL,62.48693834900732
35501,Walker County,AL,63.42737722048067
35603,Morgan County,AL,13.270637408568442
35613,Limestone County,AL,39.18495297805642
35673,Morgan County,AL,87.7742946708464
35903,Etowah County,AL,93.10344827586206
35905,Etowah County,AL,86.83385579937304
36037,Butler County,AL,55.276907001044925
36107,Montgomery County,AL,94.98432601880877
36201,Calhoun County,AL,92.8944618599791
36207,Calhoun County,AL,80.87774294670847
36268,Talladega County,AL,83.80355276907001
36271,Calhoun County,AL,88.29676071055381
36301,Houston County,AL,16.405433646812956
36330,Coffee County,AL,43.05120167189133
36401,Conecuh County,AL,85.68443051201672
36460,Monroe County,AL,81.19122257053291
36609,Mobile County,AL,57.157784743991634
36863,Chambers County,AL,77.22048066875654
99645,Matanuska-Susitna Borough,AK,53.29153605015674
85006,Maricopa County,AZ,39.811912225705335
85037,Maricopa County,AZ,23.197492163009404
85041,Maricopa County,AZ,6.478578892371996
85042,Maricopa County,AZ,24.660397074190175
85044,Maricopa County,AZ,50.15673981191222
85085,Maricopa County,AZ,64.68129571577848
85132,Pinal County,AZ,68.02507836990596
85203,Maricopa County,AZ,35.318704284221525
85306,Maricopa County,AZ,52.97805642633229
85331,Maricopa County,AZ,79.72831765935214
85335,Maricopa County,AZ,32.49738766980146
85338,Maricopa County,AZ,32.288401253918494
85339,Maricopa County,AZ,19.54022988505747
85349,Yuma County,AZ,64.36781609195403
85364,Yuma County,AZ,16.614420062695924
85501,Gila County,AZ,72.62277951933125
85546,Graham County,AZ,76.8025078369906
85607,Cochise County,AZ,58.620689655172406
85658,Pima County,AZ,76.38453500522466
85704,Pima County,AZ,44.932079414838036
85706,Pima County,AZ,12.957157784743991
85713,Pima County,AZ,26.854754440961337
85741,Pima County,AZ,62.38244514106584
85745,Pima County,AZ,56.112852664576806
86004,Coconino County,AZ,4.179728317659352
86040,Coconino County,AZ,85.57993730407524
86322,Yavapai County,AZ,49.21630094043887
86413,Mohave County,AZ,90.28213166144201
72058,Faulkner County,AR,80.35527690700106
72450,Greene County,AR,17.13688610240334
72762,Washington County,AR,44.827586206896555
90008,Los Angeles County,CA,42.21525600835946
90011,Los Angeles County,CA,22.25705329153605
90027,Los Angeles County,CA,56.42633228840125
90037,Los Angeles County,CA,35.73667711598746
90201,Los Angeles County,CA,28.631138975966564
90404,Los Angeles County,CA,33.22884012539185
90712,Los Angeles County,CA,56.42633228840125
91040,Los Angeles County,CA,85.16196447230931
91042,Los Angeles County,CA,71.57784743991641
91304,Los Angeles County,CA,46.499477533960295
91335,Los Angeles County,CA,28.526645768025077
91381,Los Angeles County,CA,71.36886102403344
91387,Los Angeles County,CA,41.79728317659352
91706,Los Angeles County,CA,23.719958202716825
91739,San Bernardino County,CA,60.18808777429467
91740,Los Angeles County,CA,61.337513061650995
91770,Los Angeles County,CA,48.275862068965516
91786,San Bernardino County,CA,30.094043887147336
91915,San Diego County,CA,97.4921630094044
91950,San Diego County,CA,34.90073145245559
92007,San Diego County,CA,89.44618599791013
92064,San Diego County,CA,76.48902821316614
92101,San Diego County,CA,11.703239289446186
92105,San Diego County,CA,64.15882967607106
92113,San Diego County,CA,55.59038662486938
92231,Imperial County,CA,30.929989550679203
92243,Imperial County,CA,22.675026123301986
92252,San Bernardino County,CA,72.41379310344827
92301,San Bernardino County,CA,31.661442006269592
92307,San Bernardino County,CA,26.01880877742947
92311,San Bernardino County,CA,80.66875653082549
92335,San Bernardino County,CA,33.85579937304075
92336,San Bernardino County,CA,7.41901776384535
92342,San Bernardino County,CA,98.43260188087774
92345,San Bernardino County,CA,7.523510971786834
92376,San Bernardino County,CA,6.792058516196447
92395,San Bernardino County,CA,74.8171368861024
92410,San Bernardino County,CA,31.24346917450366
92503,Riverside County,CA,16.927899686520377
92509,Riverside County,CA,54.754440961337515
92562,Riverside County,CA,24.137931034482758
92583,Riverside County,CA,60.29258098223615
92586,Riverside County,CA,77.95193312434692
92606,Orange County,CA,78.68338557993731
92675,Orange County,CA,62.80041797283177
92704,Orange County,CA,31.13897596656217
92801,Orange County,CA,32.07941483803553
92802,Orange County,CA,52.769070010449326
92804,Orange County,CA,41.17032392894462
92831,Orange County,CA,51.09717868338558
92840,Orange County,CA,48.69383490073145
92865,Orange County,CA,81.19122257053291
92870,Orange County,CA,66.87565308254963
92882,Riverside County,CA,26.959247648902824
93001,Ventura County,CA,24.973876698014628
93012,Ventura County,CA,65.41274817136886
93021,Ventura County,CA,82.65412748171369
93030,Ventura County,CA,14.211076280041798
93035,Ventura County,CA,65.51724137931035
93215,Kern County,CA,56.84430512016719
93219,Tulare County,CA,98.85057471264368
93235,Tulare County,CA,99.89550679205851
93257,Tulare County,CA,10.658307210031348
93277,Tulare County,CA,87.04284221525602
93286,Tulare County,CA,97.70114942528735
93291,Tulare County,CA,19.22675026123302
93304,Kern County,CA,55.38140020898642
93307,Kern County,CA,10.867293625914314
93308,Kern County,CA,59.14315569487984
93314,Kern County,CA,78.57889237199582
93401,San Luis Obispo County,CA,80.77324973876698
93402,San Luis Obispo County,CA,95.61128526645768
93420,San Luis Obispo County,CA,65.30825496342739
93422,San Luis Obispo County,CA,43.99164054336468
93433,San Luis Obispo County,CA,95.29780564263322
93458,Santa Barbara County,CA,41.37931034482759
93534,Los Angeles County,CA,66.56217345872518
93536,Los Angeles County,CA,40.334378265412745
93551,Los Angeles County,CA,52.56008359456635
93552,Los Angeles County,CA,55.79937304075236
93611,Fresno County,CA,35.63218390804598
93619,Fresno County,CA,96.34273772204807
93622,Fresno County,CA,96.96969696969697
93630,Fresno County,CA,79.51933124346917
93631,Fresno County,CA,89.65517241379311
93638,Madera County,CA,47.96238244514107
93640,Fresno County,CA,92.99895506792059
93646,Fresno County,CA,88.61024033437826
93647,Tulare County,CA,91.22257053291536
93662,Fresno County,CA,54.858934169278996
93704,Fresno County,CA,49.42528735632184
93706,Fresno County,CA,54.33646812957158
93710,Fresno County,CA,59.87460815047022
93711,Fresno County,CA,64.99477533960292
93722,Fresno County,CA,78.78787878787878
93727,Fresno County,CA,11.598746081504702
93730,Fresno County,CA,96.44723092998954
93907,Monterey County,CA,76.07105538140021
94014,San Mateo County,CA,42.42424242424242
94024,Santa Clara County,CA,83.69905956112854
94025,San Mateo County,CA,46.603970741901776
94582,Contra Costa County,CA,87.356321839080465
94583,Contra Costa County,CA,50.26123301985371
95062,Santa Cruz County,CA,94.35736677115987
95076,Santa Cruz County,CA,89.96865203761756
95125,Santa Clara County,CA,45.036572622779516
95340,Merced County,CA,33.33333333333333
95341,Merced County,CA,97.91013584117032
95370,Tuolumne County,CA,57.26227795193313
95448,Sonoma County,CA,89.55067920585162
95667,El Dorado County,CA,29.88505747126437
95747,Placer County,CA,38.557993730407524
95757,Sacramento County,CA,90.9090909090909
95826,Sacramento County,CA,52.14211076280042
95832,Sacramento County,CA,89.34169278996865
95901,Yuba County,CA,21.525600835945664
95961,Yuba County,CA,90.17763845350052
95965,Butte County,CA,47.54440961337513
95966,Butte County,CA,7.628004179728317
96022,Tehama County,CA,78.47439916405433
80107,Elbert County,CO,87.87878787878788
80111,Arapahoe County,CO,69.07001044932079
80134,Douglas County,CO,23.92894461859979
80211,Denver County,CO,35.42319749216301
80215,Jefferson County,CO,63.11389759665622
80501,Boulder County,CO,18.39080459770115
80516,Weld County,CO,63.42737722048067
80525,Larimer County,CO,12.330198537095088
80537,Larimer County,CO,19.435736677115987
80538,Larimer County,CO,70.01044932079414
80601,Adams County,CO,31.55694879832811
80631,Weld County,CO,6.165099268547544
80634,Weld County,CO,1.7763845350052248
80751,Logan County,CO,40.12539184952978
80905,El Paso County,CO,63.84535005224661
80915,El Paso County,CO,62.695924764890286
80918,El Paso County,CO,74.39916405433647
81001,Pueblo County,CO,52.35109717868338
81004,Pueblo County,CO,82.02716823406479
81082,Las Animas County,CO,62.06896551724138
06032,Hartford County,CT,76.69801462904911
06109,Hartford County,CT,60.81504702194357
06120,Hartford County,CT,47.33542319749217
06255,Windham County,CT,74.50365726227795
06450,New Haven County,CT,3.657262277951933
06511,New Haven County,CT,3.0303030303030303
06708,New Haven County,CT,53.70950888192267
06790,Litchfield County,CT,24.346917450365726
06801,Fairfield County,CT,68.75653082549634
19701,New Castle County,DE,25.49634273772205
19801,New Castle County,DE,36.886102403343784
19901,Kent County,DE,15.360501567398119
19958,Sussex County,DE,32.18390804597701
19960,Sussex County,DE,97.17868338557993
19966,Sussex County,DE,21.630094043887148
19971,Sussex County,DE,69.59247648902821
19977,Kent County,DE,20.89864158829676
32043,Clay County,FL,41.483803552769075
32055,Columbia County,FL,70.11494252873564
32065,Clay County,FL,70.9508881922675
32068,Clay County,FL,58.411703239289444
32148,Putnam County,FL,76.07105538140021
32210,Duval County,FL,18.599791013584117
32218,Duval County,FL,2.507836990595611
32244,Duval County,FL,23.824451410658305
32258,Duval County,FL,53.60501567398119
32327,Wakulla County,FL,75.54858934169279
32409,Bay County,FL,90.49111807732497
32501,Escambia County,FL,53.396029258098224
32536,Okaloosa County,FL,57.78474399164054
32566,Santa Rosa County,FL,32.9153605015674
32609,Alachua County,FL,17.86833855799373
32701,Seminole County,FL,53.91849529780565
32746,Seminole County,FL,51.724137931034484
32771,Seminole County,FL,44.61859979101359
32773,Seminole County,FL,45.87251828631139
32808,Orange County,FL,12.539184952978054
32810,Orange County,FL,37.4085684430512
32962,Indian River County,FL,46.29049111807733
33010,Miami-Dade County,FL,92.58098223615465
33012,Miami-Dade County,FL,72.9362591431557
33013,Miami-Dade County,FL,69.59247648902821
33014,Miami-Dade County,FL,64.05433646812956
33018,Miami-Dade County,FL,73.77220480668757
33029,Broward County,FL,58.516196447230925
33064,Broward County,FL,81.08672936259144
33068,Broward County,FL,41.588296760710556
33071,Broward County,FL,51.515151515151516
33130,Miami-Dade County,FL,98.53709508881923
33134,Miami-Dade County,FL,75.02612330198536
33135,Miami-Dade County,FL,73.98119122257053
33161,Miami-Dade County,FL,32.81086729362591
33170,Miami-Dade County,FL,81.81818181818183
33174,Miami-Dade County,FL,70.53291536050156
33175,Miami-Dade County,FL,54.12748171368861
33401,Palm Beach County,FL,62.80041797283177
33413,Palm Beach County,FL,82.75862068965517
33414,Palm Beach County,FL,42.42424242424242
33417,Palm Beach County,FL,56.00835945663532
33440,Hendry County,FL,48.589341692789965
33460,Palm Beach County,FL,42.94670846394985
33463,Palm Beach County,FL,46.603970741901776
33467,Palm Beach County,FL,55.172413793103445
33563,Hillsborough County,FL,45.76802507836991
33572,Hillsborough County,FL,93.31243469174504
33811,Polk County,FL,66.66666666666666
33870,Highlands County,FL,26.64576802507837
33972,Lee County,FL,94.46185997910136
34116,Collier County,FL,45.66353187042842
34119,Collier County,FL,40.229885057471265
34135,Lee County,FL,46.812957157784744
34476,Marion County,FL,58.202716823406476
34684,Pinellas County,FL,69.17450365726228
34711,Lake County,FL,20.06269592476489
34731,Lake County,FL,83.2810867293626
34741,Osceola County,FL,21.42110762800418
34744,Osceola County,FL,25.182863113897596
34746,Osceola County,FL,34.48275862068966
34787,Orange County,FL,23.510971786833856
30011,Barrow County,GA,69.38349007314525
30016,Newton County,GA,10.240334378265413
30032,DeKalb County,GA,9.926854754440962
30034,DeKalb County,GA,27.69070010449321
30045,Gwinnett County,GA,55.79937304075236
30114,Cherokee County,GA,33.646812957157785
30116,Carroll County,GA,45.35005224660397
30126,Cobb County,GA,72.20480668756531
30132,Paulding County,GA,63.322884012539184
30157,Paulding County,GA,90.80459770114942
30165,Floyd County,GA,23.301985370950888
30176,Haralson County,GA,79.4148380355277
30180,Carroll County,GA,21.003134796238246
30215,Fayette County,GA,59.456635318704286
30228,Henry County,GA,61.233019853709514
30233,Butts County,GA,56.32183908045977
30241,Troup County,GA,25.914315569487982
30273,Clayton County,GA,83.38557993730407
30281,Henry County,GA,56.94879832810867
30328,Fulton County,GA,64.26332288401254
30458,Bulloch County,GA,31.765935214211076
30474,Toombs County,GA,57.36677115987461
30518,Gwinnett County,GA,36.1546499477534
30528,White County,GA,50.57471264367817
30533,Lumpkin County,GA,63.00940438871473
30534,Dawson County,GA,71.05538140020899
30705,Murray County,GA,27.481713688610242
31302,Effingham County,GA,85.7889237199582
31320,Liberty County,GA,92.05851619644723
31322,Chatham County,GA,78.89237199582027
31324,Bryan County,GA,78.89237199582027
31404,Chatham County,GA,50.470219435736674
31513,Appling County,GA,68.3385579937304
31520,Glynn County,GA,49.63427377220481
31523,Glynn County,GA,83.38557993730407
31525,Glynn County,GA,48.79832810867293
31535,Coffee County,GA,93.62591431556949
31705,Dougherty County,GA,27.69070010449321
31716,Mitchell County,GA,99.58202716823406
31750,Ben Hill County,GA,82.23615464994776
96720,Hawaii County,HI,86.20689655172413
96732,Maui County,HI,91.95402298850574
96795,Honolulu County,HI,74.1901776384535
96825,Honolulu County,HI,51.933124346917445
83301,Twin Falls County,ID,16.718913270637408
83318,Cassia County,ID,84.43051201671892
83328,Twin Falls County,ID,94.77533960292581
83402,Bonneville County,ID,50.67920585161965
83617,Gem County,ID,88.81922675026124
83634,Ada County,ID,38.03552769070011
83642,Ada County,ID,15.464994775339601
83647,Elmore County,ID,41.27481713688611
83686,Canyon County,ID,5.851619644723093
83706,Ada County,ID,59.66562173458725
83815,Kootenai County,ID,34.06478578892372
60004,Cook County,IL,22.675026123301986
60005,Cook County,IL,80.25078369905955
60010,Lake County,IL,37.30407523510972
60015,Lake County,IL,57.47126436781609
60031,Lake County,IL,75.54858934169279
60056,Cook County,IL,37.09508881922675
60081,McHenry County,IL,67.81609195402298
60085,Lake County,IL,15.778474399164056
60093,Cook County,IL,75.33960292580983
60101,DuPage County,IL,25.809822361546498
60164,Cook County,IL,37.82654127481714
60411,Cook County,IL,39.70741901776385
60426,Cook County,IL,54.54545454545454
60439,Cook County,IL,73.04075235109718
60441,Will County,IL,20.58516196447231
60452,Cook County,IL,46.917450365726225
60504,DuPage County,IL,34.27377220480668
60527,DuPage County,IL,49.947753396029256
60618,Cook County,IL,6.0606060606060606
60632,Cook County,IL,11.076280041797283
60646,Cook County,IL,47.12643678160919
60901,Kankakee County,IL,13.270637408568442
61704,McLean County,IL,36.677115987460816
62040,Madison County,IL,50.9926854754441
62401,Effingham County,IL,61.12852664576802
62703,Sangamon County,IL,27.89968652037618
46013,Madison County,IN,31.974921630094045
46017,Madison County,IN,75.13061650992685
46151,Morgan County,IN,82.13166144200626
46217,Marion County,IN,50.36572622779519
46221,Marion County,IN,27.586206896551722
46222,Marion County,IN,78.26541274817137
46224,Marion County,IN,28.94461859979101
46235,Marion County,IN,17.450365726227794
46250,Marion County,IN,76.59352142110762
46260,Marion County,IN,73.87669801462906
46304,Porter County,IN,10.240334378265413
46321,Lake County,IN,33.12434691745037
46383,Porter County,IN,29.258098223615463
46410,Lake County,IN,4.702194357366771
46725,Whitley County,IN,28.422152560083596
46750,Huntington County,IN,16.823406478578892
46761,LaGrange County,IN,65.51724137931035
46783,Huntington County,IN,84.01253918495298
46804,Allen County,IN,42.00626959247649
46808,Allen County,IN,30.616509926854757
46814,Allen County,IN,80.45977011494253
46947,Cass County,IN,9.61337513061651
46962,Wabash County,IN,98.22361546499478
46970,Miami County,IN,34.1692789968652
46992,Wabash County,IN,32.39289446185998
47025,Dearborn County,IN,38.662486938349005
47122,Floyd County,IN,96.86520376175548
47129,Clark County,IN,92.47648902821317
47130,Clark County,IN,54.2319749216301
47265,Jennings County,IN,21.316614420062695
47374,Wayne County,IN,38.45350052246604
47715,Vanderburgh County,IN,28.213166144200624
47834,Clay County,IN,29.989550679205852
47868,Owen County,IN,98.6415882967607
50702,Black Hawk County,IA,39.916405433646815
51103,Woodbury County,IA,46.08150470219436
51501,Pottawattamie County,IA,2.2988505747126435
51503,Pottawattamie County,IA,6.374085684430512
52001,Dubuque County,IA,12.121212121212121
52537,Davis County,IA,86.4158829676071
52804,Scott County,IA,13.166144200626958
66030,Johnson County,KS,52.87356321839081
66062,Johnson County,KS,8.045977011494253
67005,Cowley County,KS,52.2466039707419
67801,Ford County,KS,56.21734587251829
40059,Jefferson County,KY,77.32497387669801
40160,Hardin County,KY,30.303030303030305
40206,Jefferson County,KY,66.14420062695925
40218,Jefferson County,KY,11.180773249738767
40245,Jefferson County,KY,46.18599791013584
40403,Madison County,KY,20.37617554858934
40475,Madison County,KY,30.198537095088817
40744,Laurel County,KY,27.16823406478579
41011,Kenton County,KY,11.389759665621735
41017,Kenton County,KY,61.650992685475444
41031,Harrison County,KY,54.44096133751306
41035,Grant County,KY,43.260188087774296
41042,Boone County,KY,3.5527690700104495
42003,McCracken County,KY,11.912225705329153
42164,Allen County,KY,36.7816091954023
42167,Monroe County,KY,61.75548589341693
42171,Warren County,KY,79.83281086729363
42303,Daviess County,KY,7.210031347962382
42431,Hopkins County,KY,54.02298850574713
42635,McCreary County,KY,89.86415882967607
70003,Jefferson Parish,LA,5.6426332288401255
70053,Jefferson Parish,LA,71.99582027168235
70062,Jefferson Parish,LA,16.509926854754443
70072,Jefferson Parish,LA,33.01985370950889
70128,Orleans Parish,LA,13.584117032392895
70131,Orleans Parish,LA,11.494252873563218
70346,Ascension Parish,LA,93.83490073145245
70422,Tangipahoa Parish,LA,81.81818181818183
70501,Lafayette Parish,LA,1.3584117032392893
70506,Lafayette Parish,LA,24.242424242424242
70517,St. Martin Parish,LA,39.60292580982236
70560,Iberia Parish,LA,12.643678160919542
70586,Evangeline Parish,LA,12.434691745036574
70601,Calcasieu Parish,LA,58.307210031347964
70634,Beauregard Parish,LA,89.75966562173458
70647,Calcasieu Parish,LA,97.07419017763846
70663,Calcasieu Parish,LA,5.956112852664576
70669,Calcasieu Parish,LA,98.95506792058517
70805,East Baton Rouge Parish,LA,14.106583072100312
71119,Caddo Parish,LA,97.59665621734587
71232,Richland Parish,LA,91.64054336468129
71238,Ouachita Parish,LA,93.73040752351098
71270,Lincoln Parish,LA,92.16300940438872
20646,Charles County,MD,72.72727272727273
20711,Anne Arundel County,MD,96.1337513061651
20745,Prince George's County,MD,70.21943573667711
21060,Anne Arundel County,MD,26.541274817136884
21061,Anne Arundel County,MD,7.105538140020899
21146,Anne Arundel County,MD,67.0846394984326
21202,Baltimore city,MD,39.49843260188088
21208,Baltimore County,MD,59.03866248693836
21215,Baltimore city,MD,5.538140020898641
21237,Baltimore County,MD,51.828631138975965
21776,Carroll County,MD,96.55172413793103
01104,Hampden County,MA,8.359456635318704
01105,Hampden County,MA,15.256008359456635
01469,Middlesex County,MA,74.60815047021944
01701,Middlesex County,MA,7.941483803552769
01757,Worcester County,MA,94.25287356321839
01801,Middlesex County,MA,52.03761755485894
01832,Essex County,MA,33.5423197492163
01904,Essex County,MA,91.74503657262278
01913,Essex County,MA,22.675026123301986
02119,Suffolk County,MA,0
02122,Suffolk County,MA,0.8359456635318705
02130,Suffolk County,MA,29.36259143155695
02135,Suffolk County,MA,84.84848484848484
02151,Suffolk County,MA,0.10449320794148381
02176,Middlesex County,MA,5.22466039707419
02330,Plymouth County,MA,75.86206896551724
02338,Plymouth County,MA,81.40020898641588
02368,Norfolk County,MA,40.020898641588296
02452,Middlesex County,MA,60.60606060606061
02472,Middlesex County,MA,4.911180773249739
02703,Bristol County,MA,15.673981191222571
02720,Bristol County,MA,1.5673981191222568
02721,Bristol County,MA,9.195402298850574
48003,Lapeer County,MI,86.31138975966563
48026,Macomb County,MI,65.93521421107627
48060,St. Clair County,MI,32.60188087774294
48075,Oakland County,MI,29.049111807732498
48076,Oakland County,MI,29.57157784743992
48134,Wayne County,MI,26.01880877742947
48152,Wayne County,MI,30.721003134796238
48161,Monroe County,MI,5.120167189132706
48162,Monroe County,MI,38.76698014629049
48185,Wayne County,MI,3.4482758620689653
48213,Wayne County,MI,68.23406478578893
48224,Wayne County,MI,11.80773249738767
48225,Wayne County,MI,68.96551724137932
48235,Wayne County,MI,1.4629049111807733
48237,Oakland County,MI,18.286311389759664
48340,Oakland County,MI,7.732497387669801
48390,Oakland County,MI,36.46812957157785
48413,Huron County,MI,47.54440961337513
48433,Genesee County,MI,51.20167189132706
48601,Saginaw County,MI,1.1494252873563218
48602,Saginaw County,MI,2.4033437826541273
48603,Saginaw County,MI,9.508881922675027
48604,Saginaw County,MI,54.649947753396034
48624,Gladwin County,MI,36.46812957157785
48638,Saginaw County,MI,55.69487983281086
48732,Bay County,MI,51.410658307210035
48746,Tuscola County,MI,95.71577847439916
48750,Iosco County,MI,71.89132706374086
48813,Eaton County,MI,88.40125391849529
48823,Ingham County,MI,31.870428422152557
48867,Shiawassee County,MI,4.597701149425287
48906,Ingham County,MI,10.13584117032393
48911,Ingham County,MI,4.284221525600835
49056,Van Buren County,MI,100
49286,Lenawee County,MI,96.23824451410658
49349,Newaygo County,MI,57.05329153605015
49417,Ottawa County,MI,15.047021943573668
49428,Ottawa County,MI,77.95193312434692
49509,Kent County,MI,10.553814002089865
49913,Houghton County,MI,81.71368861024033
55024,Dakota County,MN,48.06687565308255
55103,Ramsey County,MN,42.84221525600836
55105,Ramsey County,MN,72.3092998955068
55107,Ramsey County,MN,98.01462904911182
55306,Dakota County,MN,97.80564263322884
55352,Scott County,MN,95.92476489028213
55372,Scott County,MN,83.07210031347962
55404,Hennepin County,MN,0.522466039707419
55408,Hennepin County,MN,8.77742946708464
55412,Hennepin County,MN,6.687565308254964
55429,Hennepin County,MN,9.717868338557993
55443,Hennepin County,MN,29.153605015673982
55976,Olmsted County,MN,91.32706374085684
56081,Watonwan County,MN,80.04179728317659
56334,Pope County,MN,84.74399164054337
56360,Douglas County,MN,99.26854754440961
56364,Morrison County,MN,88.50574712643679
56425,Crow Wing County,MN,86.52037617554859
38671,DeSoto County,MS,31.347962382445143
38703,Washington County,MS,68.44305120167189
38829,Prentiss County,MS,43.67816091954023
39046,Madison County,MS,58.82967607105538
39202,Hinds County,MS,97.3876698014629
39402,Lamar County,MS,61.546499477533956
39565,Jackson County,MS,94.56635318704284
39574,Harrison County,MS,50.052246603970744
63010,Jefferson County,MO,82.44514106583071
63012,Jefferson County,MO,95.71577847439916
63043,St. Louis County,MO,51.306165099268554
63080,Franklin County,MO,41.692789968652036
63103,St. Louis city,MO,85.37095088819227
63106,St. Louis city,MO,91.0135841170324
63136,St. Louis County,MO,5.015673981191222
63146,St. Louis County,MO,87.46081504702194
63368,St. Charles County,MO,39.39393939393939
63456,Monroe County,MO,90.07314524555903
63501,Adair County,MO,88.19226750261234
63701,Cape Girardeau County,MO,68.86102403343783
63873,New Madrid County,MO,93.521421107628
64014,Jackson County,MO,18.7042842215256
64089,Clay County,MO,50.88819226750261
64110,Jackson County,MO,33.75130616509927
64134,Jackson County,MO,10.44932079414838
64138,Jackson County,MO,36.990595611285265
64152,Platte County,MO,49.52978056426332
65605,Lawrence County,MO,74.1901776384535
59718,Gallatin County,MT,80.14629049111808
68104,Douglas County,NE,23.61546499477534
68127,Douglas County,NE,86.72936259143155
68521,Lancaster County,NE,59.56112852664577
68776,Dakota County,NE,77.63845350052246
89115,Clark County,NV,18.495297805642632
89119,Clark County,NV,18.91327063740857
89131,Clark County,NV,43.78265412748171
89156,Clark County,NV,63.740856844305114
89436,Washoe County,NV,20.794148380355278
89502,Washoe County,NV,17.13688610240334
89701,Carson City,NV,68.65203761755487
03801,Rockingham County,NH,49.00731452455591
07002,Hudson County,NJ,0.7314524555903866
07060,Union County,NJ,45.55903866248694
07062,Union County,NJ,57.57575757575758
07083,Union County,NJ,62.17345872518286
07202,Union County,NJ,25.391849529780565
07735,Monmouth County,NJ,29.6760710553814
08033,Camden County,NJ,63.63636363636363
08060,Burlington County,NJ,12.225705329153605
08084,Camden County,NJ,98.11912225705329
08105,Camden County,NJ,63.2183908045977
08107,Camden County,NJ,75.75757575757575
08701,Ocean County,NJ,1.9853709508881923
08861,Middlesex County,NJ,8.56844305120167
87013,Sandoval County,NM,93.41692789968651
87106,Bernalillo County,NM,19.122257053291534
87111,Bernalillo County,NM,2.612330198537095
87144,Sandoval County,NM,17.659352142110762
87507,Santa Fe County,NM,30.721003134796238
88061,Grant County,NM,88.92371995820272
88130,Roosevelt County,NM,63.94984326018809
88240,Lea County,NM,66.4576802507837
10026,New York County,NY,22.570532915360502
10033,New York County,NY,13.061650992685475
10465,Bronx County,NY,28.317659352142112
10468,Bronx County,NY,0.6269592476489028
10512,Putnam County,NY,91.84952978056427
10701,Westchester County,NY,22.988505747126435
10705,Westchester County,NY,65.09926854754441
10927,Rockland County,NY,86.62486938349008
11010,Nassau County,NY,95.40229885057471
11103,Queens County,NY,88.71473354231975
11209,Kings County,NY,30.51201671891327
11212,Kings County,NY,47.7533960292581
11218,Kings County,NY,45.141065830721004
11226,Kings County,NY,2.7168234064785786
11420,Queens County,NY,44.20062695924764
11428,Queens County,NY,60.91954022988506
11433,Queens County,NY,24.033437826541274
11510,Nassau County,NY,60.50156739811913
11590,Nassau County,NY,43.155694879832815
11791,Nassau County,NY,94.14838035527691
12202,Albany County,NY,24.76489028213166
12414,Greene County,NY,49.21630094043887
12801,Warren County,NY,17.03239289446186
12839,Washington County,NY,25.287356321839084
12944,Essex County,NY,73.14524555903866
13865,Broome County,NY,45.245559038662485
14004,Erie County,NY,58.93416927899686
14072,Erie County,NY,39.08045977011494
14098,Orleans County,NY,96.65621734587252
14132,Niagara County,NY,84.95297805642633
14207,Erie County,NY,5.433646812957157
14216,Erie County,NY,25.60083594566353
14220,Erie County,NY,10.9717868338558
14411,Orleans County,NY,57.68025078369906
14424,Ontario County,NY,1.8808777429467085
14505,Wayne County,NY,59.77011494252874
14526,Monroe County,NY,12.016718913270637
14534,Monroe County,NY,3.9707419017763845
14546,Monroe County,NY,84.5350052246604
14580,Monroe County,NY,0.41797283176593525
14609,Monroe County,NY,3.1347962382445136
14613,Monroe County,NY,8.986415882967608
14616,Monroe County,NY,32.70637408568443
14621,Monroe County,NY,23.406478578892372
14623,Monroe County,NY,13.479623824451412
14624,Monroe County,NY,12.748171368861025
14772,Cattaraugus County,NY,89.13270637408569
14807,Steuben County,NY,91.53605015673982
14892,Tioga County,NY,48.171368861024035
27017,Surry County,NC,91.11807732497388
27215,Alamance County,NC,7.314524555903866
27253,Alamance County,NC,43.46917450365726
27330,Lee County,NC,53.18704284221526
27406,Guilford County,NC,2.9258098223615465
27455,Guilford County,NC,47.02194357366771
27520,Johnston County,NC,29.780564263322884
27526,Wake County,NC,25.07836990595611
27536,Vance County,NC,26.436781609195403
27549,Franklin County,NC,20.167189132706373
27560,Wake County,NC,73.35423197492163
27577,Johnston County,NC,72.51828631138976
27603,Wake County,NC,19.74921630094044
27610,Wake County,NC,4.806687565308255
27886,Edgecombe County,NC,34.37826541274817
27948,Dare County,NC,83.59456635318703
28103,Union County,NC,76.28004179728318
28115,Iredell County,NC,19.017763845350053
28150,Cleveland County,NC,19.958202716823408
28311,Cumberland County,NC,22.152560083594565
28314,Cumberland County,NC,76.90700104493207
28371,Robeson County,NC,98.32810867293625
28376,Hoke County,NC,28.00417972831766
28386,Robeson County,NC,95.19331243469175
28479,Brunswick County,NC,92.68547544409613
28607,Watauga County,NC,87.56530825496343
28625,Iredell County,NC,13.584117032392895
28697,Wilkes County,NC,60.29258098223615
28723,Jackson County,NC,90.49111807732497
28906,Cherokee County,NC,46.39498432601881
58075,Richland County,ND,83.9080459770115
58601,Stark County,ND,71.78683385579937
43055,Licking County,OH,0.9404388714733543
43130,Fairfield County,OH,1.044932079414838
43224,Franklin County,OH,3.343782654127482
43402,Wood County,OH,19.22675026123302
43623,Lucas County,OH,24.45141065830721
43845,Coshocton County,OH,60.083594566353185
44035,Lorain County,OH,0.20898641588296762
44094,Lake County,OH,15.987460815047022
44095,Lake County,OH,17.55485893416928
44102,Cuyahoga County,OH,0.3134796238244514
44120,Cuyahoga County,OH,2.19435736677116
44133,Cuyahoga County,OH,24.76489028213166
44146,Cuyahoga County,OH,3.9707419017763845
44278,Summit County,OH,56.635318704284224
44420,Trumbull County,OH,35.10971786833856
44615,Carroll County,OH,73.66771159874608
44654,Holmes County,OH,78.36990595611285
44662,Stark County,OH,72.10031347962382
44705,Stark County,OH,22.361546499477534
44820,Crawford County,OH,19.853709508881924
44830,Seneca County,OH,14.8380355276907
44870,Erie County,OH,1.2539184952978055
44907,Richland County,OH,69.80146290491118
45036,Warren County,OH,18.0773249738767
45066,Warren County,OH,59.3521421107628
45107,Clinton County,OH,82.34064785788924
45133,Highland County,OH,18.181818181818183
45324,Greene County,OH,7.001044932079415
45373,Miami County,OH,4.38871473354232
45424,Montgomery County,OH,8.150470219435736
45440,Montgomery County,OH,57.993730407523515
45503,Clark County,OH,47.85788923719958
45505,Clark County,OH,28.108672936259143
45686,Gallia County,OH,82.54963427377221
45690,Pike County,OH,13.793103448275861
45801,Allen County,OH,8.986415882967608
45804,Allen County,OH,9.299895506792058
45805,Allen County,OH,10.762800417972832
45885,Auglaize County,OH,38.87147335423197
73005,Caddo County,OK,84.32601880877742
73008,Oklahoma County,OK,61.859979101358405
73025,Oklahoma County,OK,87.98328108672936
73034,Oklahoma County,OK,26.332288401253916
73080,McClain County,OK,77.74294670846395
73098,Garvin County,OK,89.0282131661442
73110,Oklahoma County,OK,15.882967607105538
73120,Oklahoma County,OK,70.3239289446186
73169,Oklahoma County,OK,99.58202716823406
73505,Comanche County,OK,20.480668756530825
73533,Stephens County,OK,52.45559038662487
74010,Creek County,OK,87.14733542319749
74017,Rogers County,OK,40.75235109717868
74074,Payne County,OK,41.79728317659352
74075,Payne County,OK,58.7251828631139
74105,Tulsa County,OK,36.25914315569488
74106,Tulsa County,OK,66.77115987460816
74108,Tulsa County,OK,97.28317659352143
74110,Tulsa County,OK,82.96760710553815
74115,Tulsa County,OK,37.19958202716823
74129,Tulsa County,OK,79.20585161964472
74133,Tulsa County,OK,61.442006269592476
74354,Ottawa County,OK,50.67920585161965
74441,Cherokee County,OK,85.0574712643678
74525,Atoka County,OK,83.17659352142111
74601,Kay County,OK,40.43887147335423
74868,Seminole County,OK,67.60710553814002
74953,Le Flore County,OK,79.3103448275862
74962,Sequoyah County,OK,98.7460815047022
97016,Columbia County,OR,93.93939393939394
97048,Columbia County,OR,88.08777429467085
97058,Wasco County,OR,37.72204806687565
97080,Multnomah County,OR,22.466039707419018
97216,Multnomah County,OR,77.4294670846395
97266,Multnomah County,OR,29.46708463949843
97361,Polk County,OR,79.10135841170323
97402,Lane County,OR,17.972831765935215
97471,Douglas County,OR,14.524555903866249
97478,Lane County,OR,35.73667711598746
97601,Klamath County,OR,14.733542319749215
97838,Umatilla County,OR,14.315569487983282
15104,Allegheny County,PA,66.03970741901777
15116,Allegheny County,PA,85.8934169278997
15205,Allegheny County,PA,43.573667711598745
15212,Allegheny County,PA,21.73458725182863
15221,Allegheny County,PA,14.524555903866249
15229,Allegheny County,PA,84.11703239289446
16101,Lawrence County,PA,3.8662486938349003
16508,Erie County,PA,49.843260188087775
17201,Franklin County,PA,7.836990595611286
17257,Cumberland County,PA,70.84639498432603
17268,Franklin County,PA,14.420062695924765
18013,Northampton County,PA,35.10971786833856
18202,Luzerne County,PA,43.78265412748171
18235,Carbon County,PA,28.84012539184953
18505,Lackawanna County,PA,70.42842215256009
18810,Bradford County,PA,93.93939393939394
18951,Bucks County,PA,48.90282131661442
19007,Bucks County,PA,23.09299895506792
19023,Delaware County,PA,26.959247648902824
19046,Montgomery County,PA,42.31974921630094
19056,Bucks County,PA,75.4440961337513
19114,Philadelphia County,PA,16.19644723092999
19120,Philadelphia County,PA,2.089864158829676
19121,Philadelphia County,PA,6.583072100313479
19124,Philadelphia County,PA,6.269592476489027
19131,Philadelphia County,PA,24.45141065830721
19132,Philadelphia County,PA,3.761755485893417
19140,Philadelphia County,PA,1.671891327063741
19141,Philadelphia County,PA,5.329153605015674
19144,Philadelphia County,PA,20.689655172413794
19148,Philadelphia County,PA,5.747126436781609
19152,Philadelphia County,PA,16.30094043887147
19311,Chester County,PA,85.8934169278997
19320,Chester County,PA,64.78578892371996
19342,Delaware County,PA,44.72309299895507
19348,Chester County,PA,54.963427377220484
19355,Chester County,PA,38.24451410658307
19604,Berks County,PA,9.404388714733543
02842,Newport County,RI,77.01149425287356
02892,Washington County,RI,96.760710553814
02895,Providence County,RI,37.93103448275862
29061,Richland County,SC,77.11598746081505
29306,Spartanburg County,SC,67.18913270637408
29316,Spartanburg County,SC,68.44305120167189
29360,Laurens County,SC,69.90595611285266
29414,Charleston County,SC,30.303030303030305
29464,Charleston County,SC,40.6478578892372
29483,Dorchester County,SC,45.45454545454545
29526,Horry County,SC,67.29362591431557
29611,Greenville County,SC,10.031347962382444
29617,Greenville County,SC,33.96029258098224
29621,Anderson County,SC,35.00522466039707
29626,Anderson County,SC,71.26436781609196
29702,Cherokee County,SC,74.60815047021944
29935,Beaufort County,SC,99.79101358411702
57719,Pennington County,SD,87.6698014629049
57785,Meade County,SD,90.49111807732497
37216,Davidson County,TN,44.5141065830721
37220,Davidson County,TN,95.08881922675026
37343,Hamilton County,TN,53.814002089864154
37354,Monroe County,TN,34.69174503657263
37388,Coffee County,TN,62.5914315569488
37421,Hamilton County,TN,25.705329153605017
37721,Knox County,TN,65.20376175548589
37774,Loudon County,TN,73.5632183908046
37825,Claiborne County,TN,94.8798328108673
37830,Anderson County,TN,21.839080459770116
37874,Monroe County,TN,37.61755485893417
37876,Sevier County,TN,31.452455590386624
37914,Knox County,TN,34.79623824451411
37918,Knox County,TN,40.85684430512016
37920,Knox County,TN,8.881922675026123
37922,Knox County,TN,79.62382445141067
38109,Shelby County,TN,8.672936259143157
38114,Shelby County,TN,20.27168234064786
38128,Shelby County,TN,17.345872518286313
38305,Madison County,TN,6.896551724137931
38462,Lewis County,TN,67.502612330198545
38468,Lawrence County,TN,95.5067920585162
38544,Putnam County,TN,92.37199582027168
75002,Collin County,TX,19.644723092998955
75007,Denton County,TX,44.20062695924764
75040,Dallas County,TX,15.151515151515152
75052,Dallas County,TX,14.942528735632186
75110,Navarro County,TX,71.15987460815047
75208,Dallas County,TX,59.24764890282132
75219,Dallas County,TX,49.63427377220481
75253,Dallas County,TX,61.9644723092999
75650,Harrison County,TX,75.23510971786834
75961,Nacogdoches County,TX,64.36781609195403
75975,Shelby County,TX,99.37304075235109
76065,Ellis County,TX,37.51306165099268
76087,Parker County,TX,64.57680250783699
76088,Parker County,TX,77.84743991640543
76140,Tarrant County,TX,35.94566353187043
76541,Bell County,TX,73.45872518286312
76548,Bell County,TX,72.72727272727273
76549,Bell County,TX,21.003134796238246
76705,McLennan County,TX,14.00208986415883
76801,Brown County,TX,51.619644723092996
77044,Harris County,TX,66.24869383490073
77049,Harris County,TX,62.27795193312434
77082,Harris County,TX,47.23092998955068
77433,Harris County,TX,38.349007314524556
77449,Harris County,TX,8.463949843260188
77530,Harris County,TX,55.067920585161964
77539,Galveston County,TX,17.763845350052247
77541,Brazoria County,TX,44.09613375130617
77964,Lavaca County,TX,94.67084639498434
78040,Webb County,TX,38.87147335423197
78046,Webb County,TX,74.08568443051202
78237,Bexar County,TX,27.377220480668758
78520,Cameron County,TX,79.9373040752351
78526,Cameron County,TX,66.98014629049112
78610,Hays County,TX,70.53291536050156
78613,Williamson County,TX,31.03448275862069
78626,Williamson County,TX,55.4858934169279
78628,Williamson County,TX,70.53291536050156
78640,Hays County,TX,39.28944618599791
78723,Travis County,TX,57.993730407523515
79108,Potter County,TX,77.53396029258099
79414,Lubbock County,TX,74.8171368861024
79703,Midland County,TX,56.739811912225704
79706,Midland County,TX,42.11076280041797
79761,Ector County,TX,48.380355276907
79765,Ector County,TX,67.7115987460815
79936,El Paso County,TX,9.822361546499478
84025,Davis County,UT,73.24973876698014
84032,Wasatch County,UT,84.63949843260188
84041,Davis County,UT,34.58725182863114
84042,Utah County,UT,99.16405433646813
84054,Davis County,UT,71.68234064785788
84062,Utah County,UT,80.56426332288402
84065,Salt Lake County,UT,67.92058516196448
84066,Duchesne County,UT,82.86311389759665
84074,Tooele County,UT,2.8213166144200628
84078,Uintah County,UT,12.852664576802509
84087,Davis County,UT,85.26645768025078
84096,Salt Lake County,UT,57.88923719958202
84115,Salt Lake County,UT,36.05015673981191
84129,,UT,27.27272727272727
84341,Cache County,UT,80.98223615464994
84404,Weber County,UT,18.808777429467085
84414,Weber County,UT,89.23719958202717
84601,Utah County,UT,69.27899686520375
84604,Utah County,UT,85.47544409613374
84651,Utah County,UT,69.48798328108673
84701,Sevier County,UT,99.05956112852664
05478,Franklin County,VT,52.97805642633229
20136,Prince William County,VA,66.35318704284221
20151,Fairfax County,VA,87.25182863113898
20164,Loudoun County,VA,40.54336468129572
20171,Fairfax County,VA,48.484848484848484
22041,Fairfax County,VA,68.12957157784744
22191,Prince William County,VA,13.897596656217345
22204,Arlington County,VA,26.227795193312435
22301,Alexandria city,VA,71.47335423197492
22314,Alexandria city,VA,60.71055381400209
23075,Henrico County,VA,59.979101358411704
23224,Richmond city,VA,8.254963427377222
23231,Henrico County,VA,21.21212121212121
23502,Norfolk city,VA,64.89028213166145
23602,Newport News city,VA,26.750261233019856
23605,Newport News city,VA,47.33542319749217
23834,Colonial Heights city,VA,43.364681295715776
23851,Franklin city,VA,81.60919540229885
23860,Hopewell city,VA,28.735632183908045
24271,Scott County,VA,99.47753396029259
24333,Galax city,VA,96.02925809822361
24401,Staunton city,VA,36.36363636363637
98036,Snohomish County,WA,44.40961337513062
98116,King County,WA,67.39811912225704
98270,Snohomish County,WA,16.091954022988507
98373,Pierce County,WA,65.51724137931035
98502,Thurston County,WA,84.22152560083595
98532,Lewis County,WA,65.8307210031348
98801,Chelan County,WA,21.9435736677116
98815,Chelan County,WA,86.83385579937304
98837,Grant County,WA,61.02403343782654
99037,Spokane County,WA,92.68547544409613
99203,Spokane County,WA,81.40020898641588
99206,Spokane County,WA,42.63322884012539
99216,Spokane County,WA,92.2675026123302
99301,Franklin County,WA,33.437826541274816
99352,Benton County,WA,38.14002089864159
20002,District of Columbia,DC,41.06583072100313
20032,District of Columbia,DC,22.048066875653085
25705,Cabell County,WV,15.569487983281086
26101,Wood County,WV,3.239289446185998
26105,Wood County,WV,45.97701149425287
53095,Washington County,WI,49.11180773249739
53147,Walworth County,WI,40.96133751306165
53212,Milwaukee County,WI,11.285266457680251
53218,Milwaukee County,WI,4.493207941483804
54016,St. Croix County,WI,42.73772204806687
54304,Brown County,WI,52.66457680250783
54409,Langlade County,WI,35.52769070010449
54452,Lincoln County,WI,78.16091954022988
54660,Monroe County,WI,75.96656217345873
54806,Ashland County,WI,90.3866248693835
