ZipCode,county,state,Adult
35007,Shelby County,AL,31.856540084388186
35010,Tallapoosa County,AL,19.526488513830287
35022,Jefferson County,AL,87.76371308016878
35023,Jefferson County,AL,43.88185654008439
35044,Talladega County,AL,97.84341303328645
35049,Blount County,AL,97.18706047819971
35055,Cullman County,AL,93.57712142522269
35058,Cullman County,AL,92.61603375527426
35064,Jefferson County,AL,40.365682137834035
35071,Jefferson County,AL,54.524144397562125
35072,Coosa County,AL,74.1209563994374
35079,Blount County,AL,81.15330520393812
35080,Shelby County,AL,39.21706516643225
35094,Jefferson County,AL,70.72198781059541
35096,Talladega County,AL,97.1167369901547
35111,Tuscaloosa County,AL,27.23863103609939
35128,St. Clair County,AL,82.32536333802156
35146,St. Clair County,AL,64.65072667604313
35147,Shelby County,AL,92.9676511954993
35150,Talladega County,AL,22.691045475855603
35160,Talladega County,AL,59.23581809657759
35179,Cullman County,AL,89.35771214252227
35206,Jefferson County,AL,42.616033755274266
35210,Jefferson County,AL,51.21894045944679
35211,Jefferson County,AL,6.751054852320674
35212,Jefferson County,AL,90.55321143928738
35215,Jefferson County,AL,3.3286451007969995
35216,Jefferson County,AL,34.7163619315518
35226,Jefferson County,AL,28.973277074542896
35235,Jefferson County,AL,66.69010782934834
35243,Jefferson County,AL,66.4088138771683
35244,Jefferson County,AL,28.809188935771214
35401,Tuscaloosa County,AL,12.470698546647913
35404,Tuscaloosa County,AL,6.704172526957337
35405,Tuscaloosa County,AL,3.07079231129864
35475,Tuscaloosa County,AL,31.176746366619785
35501,Walker County,AL,47.304266291608066
35504,Walker County,AL,51.31270511017346
35601,Morgan County,AL,5.813408345053914
35603,Morgan County,AL,7.243319268635724
35611,Limestone County,AL,12.142522269104546
35619,Morgan County,AL,92.0534458509142
35622,Morgan County,AL,65.75246132208157
35640,Morgan County,AL,82.25503984997657
35645,Lauderdale County,AL,53.37552742616034
35650,Lawrence County,AL,35.935302390998594
35653,Franklin County,AL,62.07219878105954
35654,Franklin County,AL,74.68354430379746
35672,Lawrence County,AL,60.243788091889364
35673,Morgan County,AL,50.35161744022504
35750,Madison County,AL,39.89685888420066
35756,Limestone County,AL,97.6558837318331
35757,Madison County,AL,80.028129395218
35758,Madison County,AL,21.284575714955462
35759,Madison County,AL,81.7627754336615
35760,Madison County,AL,87.92780121894046
35763,Madison County,AL,83.40365682137833
35768,Jackson County,AL,70.55789967182372
35803,Madison County,AL,45.56962025316456
35810,Madison County,AL,44.491326769807785
35811,Madison County,AL,22.94889826535396
35816,Madison County,AL,51.73464603844351
35824,Madison County,AL,92.7332395686826
35901,Etowah County,AL,18.612283169245195
35903,Etowah County,AL,35.091420534458514
35904,Etowah County,AL,26.84013127051102
35907,Etowah County,AL,68.8232536333802
35950,Marshall County,AL,71.23769338959212
35954,Etowah County,AL,69.57337083919363
35957,Marshall County,AL,27.543366150961084
35962,DeKalb County,AL,69.50304735114862
35967,DeKalb County,AL,45.663384903891235
35983,Cherokee County,AL,88.72480075011721
36037,Butler County,AL,37.294889826535396
36054,Elmore County,AL,75.62119081106424
36066,Autauga County,AL,33.70839193624004
36067,Autauga County,AL,19.40928270042194
36078,Elmore County,AL,34.10689170182841
36081,Pike County,AL,66.12751992498828
36117,Montgomery County,AL,17.463666197843413
36201,Calhoun County,AL,94.44444444444444
36203,Calhoun County,AL,61.81434599156118
36206,Calhoun County,AL,56.235349273323955
36207,Calhoun County,AL,92.40506329113924
36260,Calhoun County,AL,100
36264,Cleburne County,AL,93.81153305203938
36266,Clay County,AL,88.5841537740272
36268,Talladega County,AL,71.65963431786217
36271,Calhoun County,AL,78.31692451945617
36272,Calhoun County,AL,28.64510079699953
36274,Randolph County,AL,64.2991092358181
36277,Calhoun County,AL,74.98827941865916
36303,Houston County,AL,11.439287388654478
36330,Coffee County,AL,27.379278012189406
36344,Geneva County,AL,83.80215658696672
36345,Henry County,AL,85.04453820909517
36350,Dale County,AL,81.24706985466479
36420,Covington County,AL,34.505391467416786
36426,Escambia County,AL,93.78809188935772
36507,Baldwin County,AL,52.64885138302859
36526,Baldwin County,AL,32.06751054852321
36535,Baldwin County,AL,25.17580872011252
36582,Mobile County,AL,29.254571026722925
36607,Mobile County,AL,70.30004688232536
36610,Mobile County,AL,42.85044538209095
36617,Mobile County,AL,57.36052508204407
36732,Marengo County,AL,57.50117205813409
36830,Lee County,AL,76.09001406469761
36832,Lee County,AL,60.12658227848101
36854,Chambers County,AL,72.59728082512893
36867,Russell County,AL,50.515705578996716
99507,Anchorage Municipality,AK,17.604313173933427
99508,Anchorage Municipality,AK,7.923112986404125
99516,Anchorage Municipality,AK,62.07219878105954
99517,Anchorage Municipality,AK,73.11298640412565
99559,Bethel Census Area,AK,78.12939521800281
99615,Kodiak Island Borough,AK,66.90107829348335
99645,Matanuska-Susitna Borough,AK,66.12751992498828
99654,Matanuska-Susitna Borough,AK,94.9367088607595
99686,Valdez-Cordova Census Area,AK,94.65541490857946
99762,Nome Census Area,AK,92.63947491795594
99801,Juneau City and Borough,AK,29.746835443037973
99901,Ketchikan Gateway Borough,AK,23.534927332395686
85006,Maricopa County,AZ,72.10501640881388
85009,Maricopa County,AZ,5.789967182372246
85013,Maricopa County,AZ,61.39240506329114
85016,Maricopa County,AZ,72.78481012658227
85018,Maricopa County,AZ,18.213783403656823
85019,Maricopa County,AZ,21.308016877637133
85022,Maricopa County,AZ,9.353023909985936
85028,Maricopa County,AZ,84.59915611814345
85029,Maricopa County,AZ,11.228316924519456
85033,Maricopa County,AZ,79.39521800281294
85035,Maricopa County,AZ,28.223159868729493
85037,Maricopa County,AZ,12.28316924519456
85041,Maricopa County,AZ,47.46835443037975
85042,Maricopa County,AZ,39.59212376933896
85043,Maricopa County,AZ,79.30145335208626
85048,Maricopa County,AZ,30.73136427566807
85051,Maricopa County,AZ,25.902484763244253
85083,Maricopa County,AZ,64.65072667604313
85086,Maricopa County,AZ,22.667604313173932
85122,Pinal County,AZ,3.0239099859353025
85132,Pinal County,AZ,78.19971870604782
85140,Pinal County,AZ,48.781059540553215
85201,Maricopa County,AZ,43.295827473042664
85202,Maricopa County,AZ,9.51711204875762
85203,Maricopa County,AZ,50.28129395218003
85206,Maricopa County,AZ,58.18096577590248
85208,Maricopa County,AZ,26.09001406469761
85210,Maricopa County,AZ,11.064228785747773
85212,Maricopa County,AZ,68.04969526488513
85213,Maricopa County,AZ,41.63150492264416
85224,Maricopa County,AZ,27.02766057196437
85226,Maricopa County,AZ,34.88045007032349
85254,Maricopa County,AZ,91.42053445850914
85255,Maricopa County,AZ,77.3089545241444
85259,Maricopa County,AZ,86.56821378340366
85260,Maricopa County,AZ,74.56633849038913
85281,Maricopa County,AZ,19.010782934833568
85282,Maricopa County,AZ,23.417721518987342
85286,Maricopa County,AZ,18.565400843881857
85295,Maricopa County,AZ,69.26863572433193
85296,Maricopa County,AZ,65.02578527894983
85301,Maricopa County,AZ,11.181434599156118
85302,Maricopa County,AZ,38.771683075480546
85304,Maricopa County,AZ,33.14580403187998
85308,Maricopa County,AZ,18.120018752930143
85326,Maricopa County,AZ,60.75949367088608
85335,Maricopa County,AZ,18.307548054383496
85338,Maricopa County,AZ,47.93717768401313
85339,Maricopa County,AZ,10.267229254571026
85345,Maricopa County,AZ,23.628691983122362
85349,Yuma County,AZ,88.53727144866386
85350,Yuma County,AZ,31.458040318799814
85353,Maricopa County,AZ,46.71823722456634
85364,Yuma County,AZ,77.61368963900608
85365,Yuma County,AZ,78.62165963431787
85367,Yuma County,AZ,87.38865447726208
85374,Maricopa County,AZ,28.059071729957807
85381,Maricopa County,AZ,84.76324425691514
85392,Maricopa County,AZ,35.18518518518518
85530,Graham County,AZ,73.01922175339897
85546,Graham County,AZ,95.89779653070792
85550,Graham County,AZ,55.08673230192217
85552,Graham County,AZ,87.83403656821378
85621,Santa Cruz County,AZ,58.016877637130804
85629,Pima County,AZ,51.73464603844351
85634,Pima County,AZ,35.18518518518518
85635,Cochise County,AZ,12.025316455696203
85648,Santa Cruz County,AZ,97.93717768401314
85653,Pima County,AZ,50.398499765588376
85658,Pima County,AZ,96.88232536333801
85704,Pima County,AZ,59.72808251289264
85705,Pima County,AZ,1.0782934833567746
85706,Pima County,AZ,0.6797937177684013
85710,Pima County,AZ,18.16690107829348
85711,Pima County,AZ,47.67932489451477
85712,Pima County,AZ,34.505391467416786
85713,Pima County,AZ,42.38162212845757
85714,Pima County,AZ,64.88513830285983
85716,Pima County,AZ,29.653070792311297
85718,Pima County,AZ,38.79512423816222
85739,Pinal County,AZ,74.56633849038913
85742,Pima County,AZ,84.85700890764181
85743,Pima County,AZ,23.745897796530706
85746,Pima County,AZ,54.38349742147211
85755,Pima County,AZ,85.44303797468355
85756,Pima County,AZ,18.776371308016877
85901,Navajo County,AZ,63.64275668073136
85937,Navajo County,AZ,68.94045944678857
85939,Navajo County,AZ,97.63244256915144
85941,Apache County,AZ,24.19127988748242
86001,Coconino County,AZ,52.01593999062354
86040,Coconino County,AZ,90.084388185654
86045,Coconino County,AZ,12.07219878105954
86301,Yavapai County,AZ,93.06141584622597
86305,Yavapai County,AZ,45.3117674636662
86314,Yavapai County,AZ,79.84060009376465
86323,Yavapai County,AZ,89.0295358649789
86324,Yavapai County,AZ,82.9817158931083
86326,Yavapai County,AZ,67.6277543366151
86333,Yavapai County,AZ,91.58462259728083
86401,Mohave County,AZ,3.727144866385373
86409,Mohave County,AZ,17.11204875761838
86442,Mohave County,AZ,14.064697609001406
86511,Apache County,AZ,78.57477730895452
86514,Apache County,AZ,87.48241912798875
71701,Ouachita County,AR,58.040318799812475
71753,Columbia County,AR,46.858884200656355
72116,Pulaski County,AR,54.05532114392874
72401,Craighead County,AR,6.469760900140647
72450,Greene County,AR,8.977965307079232
72701,Washington County,AR,44.936708860759495
72758,Benton County,AR,39.75621190811064
72761,Benton County,AR,82.53633380215659
72762,Washington County,AR,28.293483356774495
72933,Franklin County,AR,94.6319737458978
72956,Crawford County,AR,31.03609939052977
90002,Los Angeles County,CA,40.62353492733239
90003,Los Angeles County,CA,77.05110173464604
90004,Los Angeles County,CA,57.07923112986404
90005,Los Angeles County,CA,96.90576652601969
90007,Los Angeles County,CA,41.95968120018753
90008,Los Angeles County,CA,26.55883731833099
90011,Los Angeles County,CA,56.3525550867323
90016,Los Angeles County,CA,56.141584622597286
90019,Los Angeles County,CA,79.79371776840132
90020,Los Angeles County,CA,85.3961556493202
90022,Los Angeles County,CA,89.31082981715893
90023,Los Angeles County,CA,68.33098921706517
90025,Los Angeles County,CA,37.81059540553212
90028,Los Angeles County,CA,45.3117674636662
90033,Los Angeles County,CA,56.235349273323955
90036,Los Angeles County,CA,48.148148148148145
90037,Los Angeles County,CA,68.2372245663385
90042,Los Angeles County,CA,64.81481481481481
90044,Los Angeles County,CA,14.838255977496484
90048,Los Angeles County,CA,61.6502578527895
90059,Los Angeles County,CA,48.35911861228317
90064,Los Angeles County,CA,13.783403656821378
90065,Los Angeles County,CA,36.075949367088604
90066,Los Angeles County,CA,26.27754336615096
90201,Los Angeles County,CA,80.35630567276138
90220,Los Angeles County,CA,16.90107829348336
90221,Los Angeles County,CA,67.65119549929676
90222,Los Angeles County,CA,49.06235349273324
90242,Los Angeles County,CA,55.86029067041726
90247,Los Angeles County,CA,77.91842475386778
90266,Los Angeles County,CA,84.24753867791843
90274,Los Angeles County,CA,75.73839662447257
90275,Los Angeles County,CA,38.302859821847164
90280,Los Angeles County,CA,80.77824660103141
90291,Los Angeles County,CA,94.96015002344116
90292,Los Angeles County,CA,55.55555555555556
90301,Los Angeles County,CA,18.612283169245195
90303,Los Angeles County,CA,80.80168776371308
90304,Los Angeles County,CA,92.10032817627754
90404,Los Angeles County,CA,18.9873417721519
90602,Los Angeles County,CA,73.41772151898735
90604,Los Angeles County,CA,36.9901547116737
90605,Los Angeles County,CA,93.71776840131271
90620,Orange County,CA,30.05157055789967
90640,Los Angeles County,CA,48.570089076418185
90660,Los Angeles County,CA,41.53774027191749
90680,Orange County,CA,69.4327238631036
90710,Los Angeles County,CA,67.08860759493672
90712,Los Angeles County,CA,39.28738865447726
90731,Los Angeles County,CA,15.939990623534928
90744,Los Angeles County,CA,87.78715424285043
90745,Los Angeles County,CA,21.917487107360525
90755,Los Angeles County,CA,91.72526957337084
90802,Los Angeles County,CA,62.58790436005626
90804,Los Angeles County,CA,26.207219878105953
90805,Los Angeles County,CA,76.23066104078762
90807,Los Angeles County,CA,31.97374589779653
90808,Los Angeles County,CA,37.83403656821378
90813,Los Angeles County,CA,46.31973745897797
91007,Los Angeles County,CA,83.52086263478668
91010,Los Angeles County,CA,88.88888888888889
91016,Los Angeles County,CA,81.50492264416314
91040,Los Angeles County,CA,96.43694327238632
91103,Los Angeles County,CA,57.05578996718237
91104,Los Angeles County,CA,73.25363338021566
91107,Los Angeles County,CA,60.40787623066104
91206,Los Angeles County,CA,55.789967182372244
91301,Los Angeles County,CA,81.92686357243319
91304,Los Angeles County,CA,29.746835443037973
91306,Los Angeles County,CA,79.62962962962963
91307,Los Angeles County,CA,77.80121894045945
91324,Los Angeles County,CA,83.07548054383498
91326,Los Angeles County,CA,95.66338490389124
91331,Los Angeles County,CA,63.40834505391467
91335,Los Angeles County,CA,44.25691514299109
91342,Los Angeles County,CA,33.38021565869667
91343,Los Angeles County,CA,33.0520393811533
91345,Los Angeles County,CA,89.42803563056727
91352,Los Angeles County,CA,12.470698546647913
91355,Los Angeles County,CA,78.94983591186123
91377,Ventura County,CA,89.05297702766057
91384,Los Angeles County,CA,82.91139240506328
91401,Los Angeles County,CA,90.17815283638069
91402,Los Angeles County,CA,70.44069385841539
91405,Los Angeles County,CA,73.18330989217066
91406,Los Angeles County,CA,78.01218940459447
91411,Los Angeles County,CA,98.73417721518987
91423,Los Angeles County,CA,52.297233942803565
91605,Los Angeles County,CA,75.24613220815752
91606,Los Angeles County,CA,40.50632911392405
91607,Los Angeles County,CA,66.12751992498828
91702,Los Angeles County,CA,16.432255039849977
91706,Los Angeles County,CA,69.1279887482419
91710,San Bernardino County,CA,50.210970464135016
91722,Los Angeles County,CA,77.94186591654946
91730,San Bernardino County,CA,51.148616971401786
91733,Los Angeles County,CA,76.20721987810596
91737,San Bernardino County,CA,62.21284575714956
91740,Los Angeles County,CA,84.88045007032349
91744,Los Angeles County,CA,8.016877637130802
91746,Los Angeles County,CA,58.368495077355846
91754,Los Angeles County,CA,74.44913267698078
91762,San Bernardino County,CA,65.82278481012658
91764,San Bernardino County,CA,77.70745428973277
91766,Los Angeles County,CA,70.48757618377871
91767,Los Angeles County,CA,70.37037037037037
91770,Los Angeles County,CA,31.08298171589311
91773,Los Angeles County,CA,92.5925925925926
91784,San Bernardino County,CA,80.05157055789968
91786,San Bernardino County,CA,16.643225503984997
91789,Los Angeles County,CA,68.72948898265354
91791,Los Angeles County,CA,64.81481481481481
91792,Los Angeles County,CA,48.898265353961555
91910,San Diego County,CA,68.65916549460853
91911,San Diego County,CA,75.55086732301922
91913,San Diego County,CA,92.0534458509142
91915,San Diego County,CA,74.33192686357243
91950,San Diego County,CA,67.46366619784341
91977,San Diego County,CA,82.81762775433663
92008,San Diego County,CA,31.3173933427098
92019,San Diego County,CA,58.743553680262536
92020,San Diego County,CA,53.44585091420534
92021,San Diego County,CA,27.262072198781063
92024,San Diego County,CA,22.9957805907173
92025,San Diego County,CA,75.48054383497421
92027,San Diego County,CA,27.941865916549464
92040,San Diego County,CA,28.527894983591185
92064,San Diego County,CA,84.57571495546179
92065,San Diego County,CA,30.05157055789967
92078,San Diego County,CA,85.72433192686357
92082,San Diego County,CA,80.16877637130801
92083,San Diego County,CA,72.36286919831224
92102,San Diego County,CA,68.49507735583686
92104,San Diego County,CA,13.73652133145804
92105,San Diego County,CA,47.89029535864979
92110,San Diego County,CA,68.12001875293015
92113,San Diego County,CA,81.43459915611815
92114,San Diego County,CA,63.92405063291139
92115,San Diego County,CA,74.1209563994374
92119,San Diego County,CA,74.63666197843412
92122,San Diego County,CA,80.16877637130801
92126,San Diego County,CA,57.50117205813409
92128,San Diego County,CA,92.2878574777309
92129,San Diego County,CA,38.23253633380216
92130,San Diego County,CA,73.88654477262072
92131,San Diego County,CA,52.34411626816689
92139,San Diego County,CA,79.91092358180966
92154,San Diego County,CA,92.47538677918425
92173,San Diego County,CA,89.42803563056727
92201,Riverside County,CA,67.74496015002343
92203,Riverside County,CA,24.777308954524145
92220,Riverside County,CA,68.94045944678857
92227,Imperial County,CA,23.46460384435068
92231,Imperial County,CA,46.390060947022974
92233,Imperial County,CA,95.52273792780122
92234,Riverside County,CA,25.761837787154242
92236,Riverside County,CA,56.77449601500234
92243,Imperial County,CA,56.657290201594
92250,Imperial County,CA,92.21753398968589
92251,Imperial County,CA,97.39803094233473
92252,San Bernardino County,CA,56.61040787623066
92253,Riverside County,CA,26.72292545710267
92284,San Bernardino County,CA,69.62025316455697
92301,San Bernardino County,CA,65.0492264416315
92307,San Bernardino County,CA,41.18612283169245
92308,San Bernardino County,CA,92.17065166432255
92311,San Bernardino County,CA,19.971870604781998
92313,San Bernardino County,CA,99.06235349273324
92316,San Bernardino County,CA,32.39568682606657
92324,San Bernardino County,CA,9.399906235349272
92335,San Bernardino County,CA,80.40318799812471
92337,San Bernardino County,CA,69.50304735114862
92344,San Bernardino County,CA,59.681200187529306
92345,San Bernardino County,CA,85.30239099859352
92346,San Bernardino County,CA,40.318799812470694
92371,San Bernardino County,CA,88.60759493670885
92376,San Bernardino County,CA,3.3520862634786686
92377,San Bernardino County,CA,85.13830285982185
92392,San Bernardino County,CA,86.755743084857
92394,San Bernardino County,CA,95.56962025316456
92395,San Bernardino County,CA,95.24144397562118
92399,San Bernardino County,CA,44.11626816690108
92404,San Bernardino County,CA,29.04360056258791
92407,San Bernardino County,CA,29.910923581809655
92410,San Bernardino County,CA,81.55180496952649
92503,Riverside County,CA,8.954524144397562
92504,Riverside County,CA,54.94608532583216
92509,Riverside County,CA,80.54383497421472
92530,Riverside County,CA,82.65353961556492
92532,Riverside County,CA,51.242381622128455
92544,Riverside County,CA,60.78293483356775
92551,Riverside County,CA,48.40600093764651
92562,Riverside County,CA,12.728551336146273
92563,Riverside County,CA,74.98827941865916
92571,Riverside County,CA,22.644163150492265
92582,Riverside County,CA,53.914674167838726
92583,Riverside County,CA,84.50539146741679
92584,Riverside County,CA,81.99718706047821
92586,Riverside County,CA,63.85372714486639
92587,Riverside County,CA,78.64510079699953
92592,Riverside County,CA,60.056258790436004
92595,Riverside County,CA,22.808251289263946
92610,Orange County,CA,92.00656352555086
92614,Orange County,CA,40.975152367557435
92624,Orange County,CA,97.44491326769807
92627,Orange County,CA,9.5874355368026265
92630,Orange County,CA,47.79653070792311
92646,Orange County,CA,57.407407407407405
92647,Orange County,CA,83.96624472573839
92649,Orange County,CA,35.677449601500236
92653,Orange County,CA,89.35771214252227
92660,Orange County,CA,40.76418190342241
92673,Orange County,CA,48.26535396155649
92675,Orange County,CA,46.812001875293014
92683,Orange County,CA,7.219878105954056
92688,Orange County,CA,20.323488045007032
92694,Orange County,CA,67.53398968588841
92701,Orange County,CA,96.60103141115799
92703,Orange County,CA,84.7163619315518
92704,Orange County,CA,90.20159399906235
92706,Orange County,CA,64.7444913267698
92707,Orange County,CA,55.34458509142054
92780,Orange County,CA,87.22456633849039
92782,Orange County,CA,63.85372714486639
92802,Orange County,CA,34.927332395686825
92804,Orange County,CA,66.33849038912331
92806,Orange County,CA,67.36990154711674
92807,Orange County,CA,37.64650726676043
92831,Orange County,CA,85.48992030004689
92833,Orange County,CA,77.21518987341773
92840,Orange County,CA,84.92733239568683
92841,Orange County,CA,57.14955461790905
92869,Orange County,CA,40.83450539146742
92870,Orange County,CA,20.253164556962027
92879,Riverside County,CA,31.645569620253166
92882,Riverside County,CA,84.22409751523675
92886,Orange County,CA,15.588373183309892
93003,Ventura County,CA,74.37880918893576
93004,Ventura County,CA,36.075949367088604
93012,Ventura County,CA,49.13267698077824
93013,Santa Barbara County,CA,98.40600093764651
93015,Ventura County,CA,50.773558368495074
93021,Ventura County,CA,69.6671354899203
93023,Ventura County,CA,52.48476324425692
93030,Ventura County,CA,60.47819971870605
93033,Ventura County,CA,40.15471167369902
93063,Ventura County,CA,48.54664791373652
93110,Santa Barbara County,CA,91.9831223628692
93203,Kern County,CA,93.5067979371777
93204,Kings County,CA,85.88842006563524
93210,Fresno County,CA,90.10782934833568
93212,Kings County,CA,76.55883731833099
93215,Kern County,CA,69.47960618846695
93221,Tulare County,CA,62.61134552273793
93223,Tulare County,CA,98.17158931082982
93230,Kings County,CA,30.09845288326301
93241,Kern County,CA,86.12283169245195
93247,Tulare County,CA,62.28316924519456
93257,Tulare County,CA,65.09610876699485
93268,Kern County,CA,98.71073605250821
93274,Tulare County,CA,89.07641819034224
93277,Tulare County,CA,85.2555086732302
93280,Kern County,CA,83.19268635724332
93286,Tulare County,CA,99.64838255977496
93291,Tulare County,CA,97.70276605719643
93292,Tulare County,CA,97.23394280356305
93304,Kern County,CA,90.57665260196906
93305,Kern County,CA,71.91748710736053
93307,Kern County,CA,77.54336615096109
93308,Kern County,CA,41.32676980778246
93309,Kern County,CA,16.268166901078292
93312,Kern County,CA,52.15658696671355
93313,Kern County,CA,78.22315986872948
93402,San Luis Obispo County,CA,77.6840131270511
93420,San Luis Obispo County,CA,49.08579465541491
93433,San Luis Obispo County,CA,60.50164088138772
93436,Santa Barbara County,CA,6.915142991092359
93442,San Luis Obispo County,CA,69.50304735114862
93445,San Luis Obispo County,CA,86.05250820440695
93446,San Luis Obispo County,CA,13.173933427097984
93454,Santa Barbara County,CA,15.705578996718236
93455,Santa Barbara County,CA,16.479137365213315
93458,Santa Barbara County,CA,26.043131739334267
93465,San Luis Obispo County,CA,63.43178621659634
93505,Kern County,CA,89.99062353492732
93534,Los Angeles County,CA,20.042194092827003
93535,Los Angeles County,CA,65.75246132208157
93536,Los Angeles County,CA,81.31739334270979
93546,Mono County,CA,80.28598218471636
93550,Los Angeles County,CA,85.84153774027192
93551,Los Angeles County,CA,34.83356774496015
93552,Los Angeles County,CA,37.9746835443038
93555,Kern County,CA,93.43647444913267
93562,San Bernardino County,CA,97.18706047819971
93610,Madera County,CA,53.914674167838726
93611,Fresno County,CA,87.34177215189874
93612,Fresno County,CA,94.81950304735115
93614,Madera County,CA,97.25738396624473
93615,Tulare County,CA,99.90623534927332
93618,Tulare County,CA,65.30707923112986
93619,Fresno County,CA,80.7079231129864
93622,Fresno County,CA,98.89826535396156
93630,Fresno County,CA,97.46835443037975
93631,Fresno County,CA,92.49882794186591
93635,Merced County,CA,79.4186591654946
93636,Madera County,CA,75.92592592592592
93637,Madera County,CA,45.40553211439287
93638,Madera County,CA,92.54571026722925
93640,Fresno County,CA,85.88842006563524
93644,Madera County,CA,96.95264885138303
93647,Tulare County,CA,98.96858884200657
93648,Fresno County,CA,90.03750586029066
93654,Fresno County,CA,78.90295358649789
93656,Fresno County,CA,97.53867791842475
93657,Fresno County,CA,93.69432723863103
93662,Fresno County,CA,80.66104078762307
93701,Fresno County,CA,82.27848101265823
93702,Fresno County,CA,83.8959212376934
93703,Fresno County,CA,73.15986872948899
93704,Fresno County,CA,88.67791842475387
93705,Fresno County,CA,17.29957805907173
93706,Fresno County,CA,91.95968120018753
93710,Fresno County,CA,88.98265353961557
93711,Fresno County,CA,93.22550398499766
93720,Fresno County,CA,91.39709329582747
93722,Fresno County,CA,92.19409282700421
93725,Fresno County,CA,90.24847632442568
93726,Fresno County,CA,88.0450070323488
93727,Fresno County,CA,97.14017815283637
93737,Fresno County,CA,93.34270979840599
93927,Monterey County,CA,57.31364275668073
94010,San Mateo County,CA,32.06751054852321
94014,San Mateo County,CA,26.933895921237692
94015,San Mateo County,CA,86.33380215658697
94024,Santa Clara County,CA,71.61275199249883
94061,San Mateo County,CA,64.34599156118144
94062,San Mateo County,CA,36.3103609939053
94063,San Mateo County,CA,55.55555555555556
94080,San Mateo County,CA,46.31973745897797
94086,Santa Clara County,CA,40.88138771683075
94124,San Francisco County,CA,38.349742147210506
94403,San Mateo County,CA,32.48945147679325
94404,San Mateo County,CA,79.91092358180966
94503,Napa County,CA,79.55930614158461
94509,Contra Costa County,CA,65.93999062353492
94513,Contra Costa County,CA,18.307548054383496
94515,Napa County,CA,99.34364744491326
94533,Solano County,CA,11.228316924519456
94534,Solano County,CA,45.03047351148617
94541,Alameda County,CA,37.576183778715425
94550,Alameda County,CA,95.45241443975621
94551,Alameda County,CA,60.85325832161275
94553,Contra Costa County,CA,24.003750586029067
94558,Napa County,CA,44.53820909517112
94559,Napa County,CA,72.83169245194561
94561,Contra Costa County,CA,21.683075480543835
94568,Alameda County,CA,33.80215658696672
94582,Contra Costa County,CA,49.83591186122832
94583,Contra Costa County,CA,32.77074542897328
94587,Alameda County,CA,77.14486638537271
94588,Alameda County,CA,92.3581809657759
94589,Solano County,CA,69.83122362869199
94590,Solano County,CA,14.275668073136426
94591,Solano County,CA,75.05860290670418
94601,Alameda County,CA,73.62869198312237
94610,Alameda County,CA,74.09751523675574
94621,Alameda County,CA,45.56962025316456
94801,Contra Costa County,CA,78.08251289263947
94804,Contra Costa County,CA,43.76465072667604
94901,Marin County,CA,86.24003750586029
94903,Marin County,CA,57.876230661040786
94925,Marin County,CA,88.34974214721049
94931,Sonoma County,CA,93.06141584622597
94945,Marin County,CA,93.60056258790436
94954,Sonoma County,CA,29.981247069854668
95003,Santa Cruz County,CA,72.03469292076888
95008,Santa Clara County,CA,44.86638537271448
95018,Santa Cruz County,CA,94.84294421003283
95020,Santa Clara County,CA,46.71823722456634
95023,San Benito County,CA,13.970932958274732
95035,Santa Clara County,CA,30.028129395218002
95037,Santa Clara County,CA,36.59165494608533
95050,Santa Clara County,CA,50.56258790436006
95060,Santa Cruz County,CA,88.81856540084388
95062,Santa Cruz County,CA,94.42100328176278
95073,Santa Cruz County,CA,96.57759024847633
95076,Santa Cruz County,CA,82.02062822315986
95110,Santa Clara County,CA,67.81528363806845
95121,Santa Clara County,CA,54.313173933427095
95122,Santa Clara County,CA,82.86451007969995
95123,Santa Clara County,CA,68.40131270511017
95127,Santa Clara County,CA,54.12564463197375
95128,Santa Clara County,CA,19.760900140646974
95129,Santa Clara County,CA,71.30801687763713
95133,Santa Clara County,CA,75.29301453352086
95136,Santa Clara County,CA,82.20815752461323
95202,San Joaquin County,CA,61.251758087201125
95205,San Joaquin County,CA,30.801687763713083
95206,San Joaquin County,CA,73.88654477262072
95207,San Joaquin County,CA,10.196905766526019
95209,San Joaquin County,CA,59.11861228316925
95210,San Joaquin County,CA,69.05766526019691
95228,Calaveras County,CA,96.43694327238632
95240,San Joaquin County,CA,6.797937177684013
95242,San Joaquin County,CA,76.84013127051101
95301,Merced County,CA,74.47257383966245
95330,San Joaquin County,CA,91.56118143459916
95336,San Joaquin County,CA,15.18987341772152
95340,Merced County,CA,77.0042194092827
95341,Merced County,CA,90.83450539146742
95350,Stanislaus County,CA,30.684481950304736
95351,Stanislaus County,CA,34.4116268166901
95354,Stanislaus County,CA,47.163619315518055
95363,Stanislaus County,CA,42.00656352555087
95365,Merced County,CA,96.3666197843413
95376,San Joaquin County,CA,14.158462259728083
95380,Stanislaus County,CA,13.830285982184717
95382,Stanislaus County,CA,11.86122831692452
95401,Sonoma County,CA,87.48241912798875
95403,Sonoma County,CA,62.07219878105954
95407,Sonoma County,CA,88.32630098452883
95467,Lake County,CA,97.32770745428974
95482,Mendocino County,CA,50.32817627754337
95503,Humboldt County,CA,60.923581809657755
95540,Humboldt County,CA,68.8232536333802
95546,Humboldt County,CA,95.28832630098452
95603,Placer County,CA,76.67604313173933
95608,Sacramento County,CA,22.456633849038912
95610,Sacramento County,CA,27.121425222691048
95620,Solano County,CA,87.69338959212376
95621,Sacramento County,CA,72.52695733708391
95624,Sacramento County,CA,75.19924988279418
95630,Sacramento County,CA,13.009845288326302
95632,Sacramento County,CA,88.34974214721049
95667,El Dorado County,CA,16.59634317862166
95670,Sacramento County,CA,48.28879512423816
95682,El Dorado County,CA,38.6544772620722
95692,Yuba County,CA,99.48429442100328
95695,Yolo County,CA,75.92592592592592
95746,Placer County,CA,65.49460853258321
95747,Placer County,CA,53.914674167838726
95757,Sacramento County,CA,58.134083450539144
95820,Sacramento County,CA,31.71589310829817
95821,Sacramento County,CA,24.56633849038912
95822,Sacramento County,CA,21.870604781997187
95823,Sacramento County,CA,5.039849976558837
95824,Sacramento County,CA,37.08391936240037
95826,Sacramento County,CA,65.16643225503985
95833,Sacramento County,CA,53.25832161275199
95838,Sacramento County,CA,49.507735583684955
95864,Sacramento County,CA,64.2991092358181
95901,Yuba County,CA,93.76465072667605
95926,Butte County,CA,18.049695264885138
95928,Butte County,CA,17.955930614158465
95945,Nevada County,CA,90.6938584153774
95948,Butte County,CA,90.95171120487576
95951,Glenn County,CA,93.67088607594937
95954,Butte County,CA,23.089545241443975
95961,Yuba County,CA,89.66244725738397
95963,Glenn County,CA,54.87576183778715
95965,Butte County,CA,94.13970932958274
95966,Butte County,CA,80.82512892639475
95973,Butte County,CA,11.017346460384434
95987,Colusa County,CA,97.25738396624473
95991,Sutter County,CA,90.67041725269573
95993,Sutter County,CA,90.15471167369901
96002,Shasta County,CA,36.75574308485701
96094,Siskiyou County,CA,86.9901547116737
96130,Lassen County,CA,57.407407407407405
96150,El Dorado County,CA,91.3736521331458
80003,Jefferson County,CO,27.05110173464604
80007,Jefferson County,CO,91.46741678387248
80010,Arapahoe County,CO,31.129864041256443
80011,Arapahoe County,CO,2.719174871073605
80013,Arapahoe County,CO,49.74214721050164
80015,Arapahoe County,CO,84.27097984060009
80016,Arapahoe County,CO,10.970464135021098
80017,Arapahoe County,CO,21.143928738865448
80018,Arapahoe County,CO,58.6966713548992
80022,Adams County,CO,28.715424285044538
80023,Broomfield County,CO,87.64650726676044
80031,Adams County,CO,21.518987341772153
80104,Douglas County,CO,36.826066572902015
80108,Douglas County,CO,29.69995311767464
80109,Douglas County,CO,51.078293483356774
80120,Arapahoe County,CO,43.36615096108767
80124,Douglas County,CO,46.03844350679794
80128,Jefferson County,CO,39.45147679324894
80129,Douglas County,CO,89.6390060947023
80130,Douglas County,CO,60.642287857477726
80134,Douglas County,CO,12.705110173464604
80204,Denver County,CO,10.267229254571026
80205,Denver County,CO,23.792780121894047
80207,Denver County,CO,24.777308954524145
80210,Denver County,CO,66.50257852789498
80211,Denver County,CO,20.37037037037037
80214,Jefferson County,CO,71.58931082981715
80219,Denver County,CO,1.5939990623534925
80220,Denver County,CO,18.120018752930143
80221,Adams County,CO,16.713548992030006
80228,Jefferson County,CO,79.53586497890295
80229,Adams County,CO,66.54946085325832
80230,Denver County,CO,84.0365682137834
80233,Adams County,CO,13.103609939052976
80234,Adams County,CO,43.20206282231599
80235,Jefferson County,CO,91.6783872480075
80237,Denver County,CO,81.200187529301445
80238,Denver County,CO,83.30989217065166
80241,Adams County,CO,80.07501172058134
80247,Arapahoe County,CO,22.081575246132207
80260,Adams County,CO,27.73089545241444
80301,Boulder County,CO,69.80778246601031
80302,Boulder County,CO,88.11533052039381
80401,Jefferson County,CO,20.089076418190345
80435,Summit County,CO,95.80403187998124
80501,Boulder County,CO,33.59118612283169
80503,Boulder County,CO,94.32723863103611
80504,Boulder County,CO,63.83028598218472
80514,Weld County,CO,91.84247538677918
80516,Weld County,CO,47.304266291608066
80524,Larimer County,CO,15.447726207219878
80525,Larimer County,CO,27.285513361462726
80526,Larimer County,CO,50.25785278949836
80528,Larimer County,CO,34.177215189873415
80538,Larimer County,CO,23.112986404125643
80550,Weld County,CO,15.072667604313175
80601,Adams County,CO,17.55743084857009
80602,Adams County,CO,58.97796530707923
80603,Weld County,CO,61.6502578527895
80610,Weld County,CO,99.0857946554149
80620,Weld County,CO,73.39428035630567
80621,Weld County,CO,95.05391467416784
80631,Weld County,CO,33.52086263478669
80634,Weld County,CO,16.947960618846693
80640,Adams County,CO,58.86075949367089
80645,Weld County,CO,96.3666197843413
80701,Morgan County,CO,53.35208626347867
80723,Morgan County,CO,57.61837787154243
80734,Phillips County,CO,91.32676980778247
80751,Logan County,CO,24.496015002344116
80759,Yuma County,CO,94.1631504922644
80905,El Paso County,CO,47.70276605719644
80906,El Paso County,CO,42.240975152367554
80909,El Paso County,CO,11.767463666197843
80910,El Paso County,CO,11.83778715424285
80911,El Paso County,CO,54.500703234880454
80917,El Paso County,CO,42.123769338959214
80918,El Paso County,CO,58.46225972808251
80920,El Paso County,CO,38.67791842475386
80922,El Paso County,CO,36.14627285513362
80923,El Paso County,CO,41.77215189873418
81001,Pueblo County,CO,73.74589779653071
81003,Pueblo County,CO,18.846694796061886
81004,Pueblo County,CO,76.91045475855603
81005,Pueblo County,CO,77.96530707923112
81006,Pueblo County,CO,53.77402719174871
81050,Otero County,CO,55.15705578996718
81052,Prowers County,CO,70.88607594936708
81082,Las Animas County,CO,45.96812001875293
81120,Conejos County,CO,98.57008907641818
81125,Saguache County,CO,98.28879512423816
81211,Chaffee County,CO,96.3666197843413
81212,Fremont County,CO,70.22972339428036
81230,Gunnison County,CO,82.13783403656821
81301,La Plata County,CO,35.25550867323019
81403,Montrose County,CO,62.447257383966246
81416,Delta County,CO,55.34458509142054
81419,Delta County,CO,99.78902953586498
81501,Mesa County,CO,25.85560243788092
81504,Mesa County,CO,15.705578996718236
81611,Pitkin County,CO,94.65541490857946
81625,Moffat County,CO,22.22222222222222
06033,Hartford County,CT,67.74496015002343
06051,Hartford County,CT,9.423347398030943
06053,Hartford County,CT,38.58415377402719
06067,Hartford County,CT,49.648382559774966
06082,Hartford County,CT,71.51898734177216
06095,Hartford County,CT,53.18799812470698
06105,Hartford County,CT,53.11767463666198
06106,Hartford County,CT,1.5236755743084858
06108,Hartford County,CT,43.295827473042664
06109,Hartford County,CT,44.11626816690108
06111,Hartford County,CT,51.523675574308484
06112,Hartford County,CT,7.383966244725738
06114,Hartford County,CT,7.313642756680731
06120,Hartford County,CT,30.285982184716364
06234,Windham County,CT,44.44444444444444
06239,Windham County,CT,19.40928270042194
06241,Windham County,CT,42.54571026722925
06250,Tolland County,CT,99.22644163150493
06260,Windham County,CT,44.608532583216125
06405,New Haven County,CT,23.581809657759027
06410,New Haven County,CT,77.44960150023441
06447,Hartford County,CT,90.48288795124239
06457,Middlesex County,CT,2.7426160337552745
06460,New Haven County,CT,42.33473980309424
06488,New Haven County,CT,68.16690107829348
06489,Hartford County,CT,15.564932020628222
06492,New Haven County,CT,9.985935302390999
06511,New Haven County,CT,1.4299109235818097
06513,New Haven County,CT,10.009376465072668
06516,New Haven County,CT,2.60196905766526
06518,New Haven County,CT,68.94045944678857
06606,Fairfield County,CT,61.43928738865447
06607,Fairfield County,CT,86.73230192217534
06608,Fairfield County,CT,84.83356774496015
06610,Fairfield County,CT,59.37646507266761
06704,New Haven County,CT,79.77027660571964
06705,New Haven County,CT,36.16971401781529
06706,New Haven County,CT,40.17815283638069
06708,New Haven County,CT,10.87669948429442
06770,New Haven County,CT,37.43553680262541
06786,Litchfield County,CT,92.21753398968589
06840,Fairfield County,CT,62.0253164556962
06854,Fairfield County,CT,26.55883731833099
06880,Fairfield County,CT,29.910923581809655
06902,Fairfield County,CT,9.93905297702766
19703,New Castle County,DE,69.971870604782
19709,New Castle County,DE,52.18002812939522
19711,New Castle County,DE,44.25691514299109
19713,New Castle County,DE,15.89310829817159
19720,New Castle County,DE,28.76230661040788
19801,New Castle County,DE,21.495546179090482
19802,New Castle County,DE,6.329113924050633
19804,New Castle County,DE,14.181903422409754
19805,New Castle County,DE,17.698077824660103
19901,Kent County,DE,7.805907172995781
19904,Kent County,DE,5.719643694327239
19934,Kent County,DE,53.21143928738865
19956,Sussex County,DE,59.72808251289264
19958,Sussex County,DE,17.76840131270511
19960,Sussex County,DE,82.93483356774496
19966,Sussex County,DE,11.673699015471167
19975,Sussex County,DE,82.13783403656821
19977,Kent County,DE,11.13455227379278
32011,Nassau County,FL,40.060947022972336
32024,Columbia County,FL,42.873886544772624
32034,Nassau County,FL,31.622128457571495
32043,Clay County,FL,73.62869198312237
32054,Union County,FL,63.57243319268636
32055,Columbia County,FL,71.14392873886544
32058,Bradford County,FL,98.85138302859822
32068,Clay County,FL,89.68588842006564
32073,Clay County,FL,37.08391936240037
32084,St. Johns County,FL,14.861697140178155
32096,Hamilton County,FL,99.24988279418659
32137,Flagler County,FL,33.84903891233005
32141,Volusia County,FL,52.76605719643695
32148,Putnam County,FL,84.45850914205344
32164,Flagler County,FL,18.377871542428505
32177,Putnam County,FL,26.629160806375996
32179,Marion County,FL,57.102672292545705
32205,Duval County,FL,13.197374589779653
32206,Duval County,FL,10.126582278481013
32207,Duval County,FL,30.496952648851384
32208,Duval County,FL,0.2578527894983591
32209,Duval County,FL,10.337552742616033
32210,Duval County,FL,64.9085794655415
32211,Duval County,FL,9.96249413970933
32218,Duval County,FL,20.721987810595405
32219,Duval County,FL,26.72292545710267
32220,Duval County,FL,75.8790436005626
32224,Duval County,FL,69.03422409751524
32225,Duval County,FL,42.21753398968589
32233,Duval County,FL,22.315986872948898
32234,Duval County,FL,67.9324894514768
32244,Duval County,FL,73.72245663384905
32246,Duval County,FL,6.8448195030473515
32258,Duval County,FL,66.69010782934834
32277,Duval County,FL,10.947022972339427
32310,Leon County,FL,48.10126582278481
32327,Wakulla County,FL,83.94280356305673
32333,Gadsden County,FL,68.8232536333802
32344,Jefferson County,FL,81.24706985466479
32448,Jackson County,FL,38.56071261134552
32459,Walton County,FL,45.87435536802625
32466,Bay County,FL,76.34786685419597
32506,Escambia County,FL,6.188466947960619
32526,Escambia County,FL,25.574308485700893
32533,Escambia County,FL,14.861697140178155
32534,Escambia County,FL,56.93858415377403
32539,Okaloosa County,FL,22.620721987810597
32565,Santa Rosa County,FL,64.48663853727145
32566,Santa Rosa County,FL,18.799812470698544
32571,Santa Rosa County,FL,5.9071729957805905
32577,Escambia County,FL,90.88138771683076
32583,Santa Rosa County,FL,12.939521800281295
32601,Alachua County,FL,41.23300515705579
32606,Alachua County,FL,18.049695264885138
32608,Alachua County,FL,2.6488513830285982
32626,Levy County,FL,79.91092358180966
32656,Clay County,FL,51.54711673699015
32666,Putnam County,FL,75.15236755743085
32703,Orange County,FL,11.087669948429442
32707,Seminole County,FL,48.898265353961555
32720,Volusia County,FL,38.748241912798875
32724,Volusia County,FL,34.903891233005155
32738,Volusia County,FL,77.66057196436942
32771,Seminole County,FL,46.952648851383024
32773,Seminole County,FL,83.91936240037506
32778,Lake County,FL,69.971870604782
32789,Orange County,FL,54.40693858415378
32792,Orange County,FL,40.342240975152365
32805,Orange County,FL,17.13548992030005
32806,Orange County,FL,52.48476324425692
32808,Orange County,FL,79.0436005625879
32809,Orange County,FL,28.926394749179558
32810,Orange County,FL,22.05813408345054
32811,Orange County,FL,35.794655414908576
32824,Orange County,FL,24.91795593061416
32825,Orange County,FL,16.57290201593999
32832,Orange County,FL,89.17018284106891
32836,Orange County,FL,83.66150961087669
32837,Orange County,FL,34.060009376465075
32839,Orange County,FL,13.220815752461323
32905,Brevard County,FL,39.84997655883732
32907,Brevard County,FL,59.49367088607595
32909,Brevard County,FL,22.081575246132207
32920,Brevard County,FL,69.08110642287858
32922,Brevard County,FL,29.676511954992968
32935,Brevard County,FL,50.16408813877168
32958,Indian River County,FL,77.3792780121894
32962,Indian River County,FL,84.0365682137834
32967,Indian River County,FL,28.246601031411156
32968,Indian River County,FL,86.14627285513362
33004,Broward County,FL,83.30989217065166
33010,Miami-Dade County,FL,47.04641350210971
33012,Miami-Dade County,FL,81.85654008438819
33013,Miami-Dade County,FL,95.75714955461791
33014,Miami-Dade County,FL,75.69151429910923
33015,Miami-Dade County,FL,63.54899203000469
33016,Miami-Dade County,FL,66.05719643694327
33018,Miami-Dade County,FL,57.852789498359115
33021,Broward County,FL,28.6685419596812
33023,Broward County,FL,8.931082981715893
33024,Broward County,FL,43.06141584622598
33025,Broward County,FL,43.38959212376934
33028,Broward County,FL,91.77215189873418
33032,Miami-Dade County,FL,85.53680262541022
33033,Miami-Dade County,FL,24.16783872480075
33034,Miami-Dade County,FL,37.74027191748711
33037,Monroe County,FL,79.13736521331458
33040,Monroe County,FL,25.85560243788092
33050,Monroe County,FL,81.52836380684482
33054,Miami-Dade County,FL,31.08298171589311
33055,Miami-Dade County,FL,63.197374589779656
33056,Miami-Dade County,FL,53.25832161275199
33060,Broward County,FL,20.464135021097047
33063,Broward County,FL,23.839662447257385
33064,Broward County,FL,51.17205813408346
33065,Broward County,FL,75.3398968588842
33068,Broward County,FL,57.19643694327239
33126,Miami-Dade County,FL,49.71870604781997
33127,Miami-Dade County,FL,36.404125644631975
33131,Miami-Dade County,FL,93.45991561181435
33138,Miami-Dade County,FL,51.9690576652602
33139,Miami-Dade County,FL,39.84997655883732
33143,Miami-Dade County,FL,64.06469760900141
33146,Miami-Dade County,FL,94.25691514299109
33147,Miami-Dade County,FL,64.27566807313643
33155,Miami-Dade County,FL,56.82137834036568
33160,Miami-Dade County,FL,85.88842006563524
33161,Miami-Dade County,FL,18.70604781997187
33165,Miami-Dade County,FL,70.39381153305204
33166,Miami-Dade County,FL,58.368495077355846
33169,Miami-Dade County,FL,72.15189873417721
33170,Miami-Dade County,FL,95.42897327707455
33173,Miami-Dade County,FL,86.49789029535864
33175,Miami-Dade County,FL,90.13127051101735
33177,Miami-Dade County,FL,81.69245194561651
33183,Miami-Dade County,FL,84.9507735583685
33186,Miami-Dade County,FL,62.79887482419127
33190,Miami-Dade County,FL,93.38959212376933
33196,Miami-Dade County,FL,95.73370839193625
33304,Broward County,FL,62.259728082512886
33311,Broward County,FL,2.5316455696202533
33314,Broward County,FL,49.3905297702766
33322,Broward County,FL,51.9690576652602
33325,Broward County,FL,55.20393811533052
33351,Broward County,FL,79.676511954992975
33404,Palm Beach County,FL,50.72667604313173
33406,Palm Beach County,FL,84.10689170182842
33407,Palm Beach County,FL,42.897327707454295
33411,Palm Beach County,FL,68.72948898265354
33412,Palm Beach County,FL,94.4678856071261
33413,Palm Beach County,FL,69.971870604782
33414,Palm Beach County,FL,57.735583684950775
33415,Palm Beach County,FL,24.496015002344116
33417,Palm Beach County,FL,68.5419596812002
33418,Palm Beach County,FL,79.18424753867792
33436,Palm Beach County,FL,36.544772620721986
33437,Palm Beach County,FL,64.86169714017815
33440,Hendry County,FL,31.411157993436472
33442,Broward County,FL,85.74777308954525
33444,Palm Beach County,FL,40.90482887951242
33458,Palm Beach County,FL,56.00093764650727
33460,Palm Beach County,FL,58.46225972808251
33461,Palm Beach County,FL,87.9746835443038
33467,Palm Beach County,FL,37.27144866385373
33470,Palm Beach County,FL,74.70698546647914
33493,Palm Beach County,FL,97.3511486169714
33511,Hillsborough County,FL,51.47679324894515
33525,Pasco County,FL,51.47679324894515
33527,Hillsborough County,FL,70.55789967182372
33542,Pasco County,FL,35.51336146272855
33556,Hillsborough County,FL,56.68073136427567
33563,Hillsborough County,FL,28.856071261134552
33565,Hillsborough County,FL,79.20768870135959
33567,Hillsborough County,FL,81.83309892170652
33569,Hillsborough County,FL,57.876230661040786
33578,Hillsborough County,FL,48.66385372714487
33584,Hillsborough County,FL,35.27894983591186
33594,Hillsborough County,FL,41.068917018284104
33602,Hillsborough County,FL,88.86544772620722
33605,Hillsborough County,FL,35.74777308954524
33607,Hillsborough County,FL,31.9971870604782
33612,Hillsborough County,FL,4.360056258790436
33613,Hillsborough County,FL,23.72245663384904
33617,Hillsborough County,FL,47.79653070792311
33619,Hillsborough County,FL,86.40412564463197
33634,Hillsborough County,FL,48.9451476793249
33702,Pinellas County,FL,33.12236286919831
33705,Pinellas County,FL,41.93624003750586
33710,Pinellas County,FL,30.918893577121427
33711,Pinellas County,FL,66.78387248007502
33713,Pinellas County,FL,34.36474449132677
33755,Pinellas County,FL,25.52742616033755
33763,Pinellas County,FL,71.05016408813877
33764,Pinellas County,FL,24.68354430379747
33770,Pinellas County,FL,38.11533052039381
33805,Polk County,FL,52.83638068448195
33809,Polk County,FL,29.324894514767934
33812,Polk County,FL,59.84528832630098
33813,Polk County,FL,70.93295827473042
33815,Polk County,FL,22.878574777308955
33823,Polk County,FL,19.104547585560244
33825,Highlands County,FL,32.559774964838255
33834,Hardee County,FL,97.7262072198781
33837,Polk County,FL,30.285982184716364
33844,Polk County,FL,51.57055789967182
33853,Polk County,FL,47.79653070792311
33860,Polk County,FL,70.83919362400376
33870,Highlands County,FL,14.533520862634786
33872,Highlands County,FL,50.11720581340835
33881,Polk County,FL,50.98452883263009
33901,Lee County,FL,34.08345053914674
33907,Lee County,FL,60.03281762775433
33909,Lee County,FL,55.69620253164557
33913,Lee County,FL,67.27613689639006
33967,Lee County,FL,38.79512423816222
33972,Lee County,FL,72.48007501172057
33974,Lee County,FL,64.13502109704642
33976,Lee County,FL,53.023909985935305
33993,Lee County,FL,30.14533520862635
34102,Collier County,FL,82.3722456633849
34104,Collier County,FL,34.22409751523676
34105,Collier County,FL,81.15330520393812
34109,Collier County,FL,58.6966713548992
34113,Collier County,FL,65.91654946085326
34114,Collier County,FL,86.70886075949366
34116,Collier County,FL,83.66150961087669
34117,Collier County,FL,47.163619315518055
34119,Collier County,FL,55.69620253164557
34120,Collier County,FL,49.601500234411624
34202,Manatee County,FL,48.9451476793249
34203,Manatee County,FL,34.950773558368496
34207,Manatee County,FL,34.73980309423347
34208,Manatee County,FL,12.962962962962962
34219,Manatee County,FL,36.380684481950304
34221,Manatee County,FL,51.82841068917018
34231,Sarasota County,FL,64.93202062822317
34232,Sarasota County,FL,27.9887482419128
34234,Sarasota County,FL,53.42240975152368
34238,Sarasota County,FL,86.61509610876699
34243,Manatee County,FL,39.943741209563996
34266,DeSoto County,FL,19.71401781528364
34286,Sarasota County,FL,68.37787154242851
34287,Sarasota County,FL,32.91139240506329
34433,Citrus County,FL,75.3398968588842
34450,Citrus County,FL,68.14345991561181
34465,Citrus County,FL,45.03047351148617
34472,Marion County,FL,50.773558368495074
34473,Marion County,FL,29.184247538677923
34476,Marion County,FL,40.71729957805908
34488,Marion County,FL,54.219409282700425
34491,Marion County,FL,42.428504453820906
34601,Hernando County,FL,30.590717299578056
34606,Hernando County,FL,24.941397093295826
34614,Hernando County,FL,95.59306141584622
34668,Pasco County,FL,53.75058602906704
34691,Pasco County,FL,26.324425691514296
34698,Pinellas County,FL,79.23112986404126
34711,Lake County,FL,10.618846694796062
34731,Lake County,FL,70.97984060009377
34741,Osceola County,FL,36.91983122362869
34743,Osceola County,FL,28.48101265822785
34744,Osceola County,FL,85.95874355368026
34746,Osceola County,FL,19.64369432723863
34748,Lake County,FL,78.45757149554618
34758,Osceola County,FL,35.39615564932021
34761,Orange County,FL,52.81293952180028
34787,Orange County,FL,57.00890764181903
34788,Lake County,FL,86.0056258790436
34950,St. Lucie County,FL,33.778715424285046
34952,St. Lucie County,FL,68.58884200656352
34953,St. Lucie County,FL,26.324425691514296
34972,Okeechobee County,FL,69.87810595405533
34974,Okeechobee County,FL,86.07594936708861
34986,St. Lucie County,FL,29.582747304266295
34994,Martin County,FL,61.6502578527895
34997,Martin County,FL,14.978902953586498
30004,Fulton County,GA,54.9929676511955
30011,Barrow County,GA,79.11392405063292
30012,Rockdale County,GA,34.36474449132677
30013,Rockdale County,GA,82.79418659165495
30014,Newton County,GA,13.127051101734647
30016,Newton County,GA,23.9803094233474
30017,Gwinnett County,GA,74.70698546647914
30021,DeKalb County,GA,60.12658227848101
30028,Forsyth County,GA,39.029535864978904
30032,DeKalb County,GA,23.441162681669013
30033,DeKalb County,GA,86.87294889826535
30034,DeKalb County,GA,15.236755743084856
30038,DeKalb County,GA,24.894514767932492
30040,Forsyth County,GA,39.474917955930614
30041,Forsyth County,GA,14.017815283638068
30044,Gwinnett County,GA,88.93577121425223
30045,Gwinnett County,GA,87.4355368026254
30047,Gwinnett County,GA,82.72386310360994
30052,Walton County,GA,30.473511486169713
30058,DeKalb County,GA,73.23019221753398
30062,Cobb County,GA,55.86029067041726
30066,Cobb County,GA,28.17627754336615
30067,Cobb County,GA,40.646976090014064
30068,Cobb County,GA,55.01640881387717
30076,Fulton County,GA,84.29442100328176
30080,Cobb County,GA,64.22878574777309
30083,DeKalb County,GA,13.338021565869667
30088,DeKalb County,GA,52.93014533520862
30092,Gwinnett County,GA,42.428504453820906
30093,Gwinnett County,GA,67.51054852320675
30094,Rockdale County,GA,59.048288795124236
30096,Gwinnett County,GA,70.25316455696202
30101,Cobb County,GA,82.70042194092827
30102,Cherokee County,GA,28.035630567276137
30115,Cherokee County,GA,52.390998593530234
30116,Carroll County,GA,75.43366150961087
30122,Douglas County,GA,67.0182841068917
30126,Cobb County,GA,25.457102672292546
30127,Cobb County,GA,8.29817158931083
30132,Paulding County,GA,17.346460384435066
30134,Douglas County,GA,38.51383028598219
30135,Douglas County,GA,25.621190811064228
30144,Cobb County,GA,77.12142522269104
30152,Cobb County,GA,66.97140178152836
30168,Cobb County,GA,40.13127051101735
30180,Carroll County,GA,84.55227379278011
30188,Cherokee County,GA,10.525082044069386
30223,Spalding County,GA,50.72667604313173
30224,Spalding County,GA,33.98968588842007
30228,Henry County,GA,15.869667135489921
30233,Butts County,GA,38.98265353961556
30241,Troup County,GA,13.947491795593061
30252,Henry County,GA,21.80028129395218
30253,Henry County,GA,39.639006094702296
30263,Coweta County,GA,20.6516643225504
30265,Coweta County,GA,63.314580403188
30274,Clayton County,GA,22.386310360993907
30281,Henry County,GA,39.52180028129395
30291,Fulton County,GA,21.636193155180496
30296,Clayton County,GA,83.75527426160338
30297,Clayton County,GA,37.59962494139709
30308,Fulton County,GA,58.86075949367089
30311,Fulton County,GA,67.67463666197844
30312,Fulton County,GA,40.41256446319738
30314,Fulton County,GA,25.644631973745895
30315,Fulton County,GA,15.119549929676513
30318,Fulton County,GA,41.70182841068917
30331,Fulton County,GA,29.488982653539615
30349,Fulton County,GA,16.690107829348335
30350,Fulton County,GA,45.75714955461791
30401,Emanuel County,GA,79.25457102672293
30415,Bulloch County,GA,71.44866385372714
30417,Evans County,GA,86.02906704172527
30427,Tattnall County,GA,71.30801687763713
30434,Jefferson County,GA,87.64650726676044
30439,Candler County,GA,70.79231129864041
30458,Bulloch County,GA,65.16643225503985
30461,Bulloch County,GA,89.80309423347398
30474,Toombs County,GA,69.90154711673699
30501,Hall County,GA,85.51336146272855
30504,Hall County,GA,91.65494608532583
30506,Hall County,GA,61.88466947960619
30507,Hall County,GA,25.363338021565866
30510,Habersham County,GA,85.79465541490859
30517,Jackson County,GA,87.83403656821378
30518,Gwinnett County,GA,20.88607594936709
30519,Gwinnett County,GA,58.83731833098922
30523,Habersham County,GA,91.49085794655414
30525,Rabun County,GA,92.45194561650257
30528,White County,GA,64.11157993436476
30531,Habersham County,GA,77.80121894045945
30535,Habersham County,GA,93.99906235349273
30540,Gilmer County,GA,30.192217533989684
30543,Hall County,GA,97.84341303328645
30548,Jackson County,GA,87.92780121894046
30563,Habersham County,GA,89.87341772151899
30564,Hall County,GA,96.62447257383965
30567,Jackson County,GA,98.28879512423816
30577,Stephens County,GA,57.876230661040786
30642,Greene County,GA,91.18612283169244
30655,Walton County,GA,19.33895921237693
30669,Greene County,GA,99.57805907172997
30680,Barrow County,GA,9.774964838255977
30701,Gordon County,GA,15.963431786216598
30705,Murray County,GA,15.025785278949835
30707,Walker County,GA,55.01640881387717
30720,Whitfield County,GA,34.85700890764182
30721,Whitfield County,GA,37.552742616033754
30728,Walker County,GA,20.628223159868732
30736,Catoosa County,GA,21.401781528363806
30741,Walker County,GA,32.39568682606657
30750,Walker County,GA,93.38959212376933
30809,Columbia County,GA,67.3230192217534
30824,McDuffie County,GA,60.85325832161275
30830,Burke County,GA,64.34599156118144
30907,Columbia County,GA,12.56446319737459
31015,Crisp County,GA,28.856071261134552
31024,Putnam County,GA,90.29535864978902
31027,Laurens County,GA,76.46507266760432
31032,Jones County,GA,71.30801687763713
31036,Pulaski County,GA,79.7233942803563
31055,Telfair County,GA,94.84294421003283
31061,Baldwin County,GA,14.767932489451477
31063,Macon County,GA,88.67791842475387
31206,Bibb County,GA,43.9521800281294
31220,Bibb County,GA,65.6586966713549
31308,Bryan County,GA,89.24050632911393
31312,Effingham County,GA,63.29113924050633
31316,Long County,GA,85.27894983591186
31320,Liberty County,GA,62.37693389592124
31322,Chatham County,GA,94.58509142053447
31326,Effingham County,GA,43.57712142522269
31329,Effingham County,GA,83.98968588842007
31401,Chatham County,GA,47.63244256915143
31404,Chatham County,GA,91.25644631973746
31405,Chatham County,GA,84.52883263009845
31406,Chatham County,GA,33.0520393811533
31408,Chatham County,GA,88.11533052039381
31410,Chatham County,GA,88.93577121425223
31415,Chatham County,GA,55.86029067041726
31419,Chatham County,GA,82.34880450070324
31501,Ware County,GA,47.70276605719644
31503,Ware County,GA,78.17627754336614
31513,Appling County,GA,51.429910923581815
31516,Pierce County,GA,49.76558837318331
31520,Glynn County,GA,32.114392873886544
31525,Glynn County,GA,88.56071261134552
31533,Coffee County,GA,42.49882794186592
31535,Coffee County,GA,87.2948898265354
31546,Wayne County,GA,72.87857477730896
31601,Lowndes County,GA,12.56446319737459
31605,Lowndes County,GA,54.40693858415378
31647,Cook County,GA,98.85138302859822
31707,Dougherty County,GA,62.91608063759963
31709,Sumter County,GA,35.677449601500236
31750,Ben Hill County,GA,82.0675105485232
31757,Thomas County,GA,54.26629160806375
31779,Mitchell County,GA,78.64510079699953
31791,Worth County,GA,33.26300984528833
31903,Muscogee County,GA,47.257383966244724
31906,Muscogee County,GA,54.172526957337084
31907,Muscogee County,GA,3.0004688232536334
31909,Muscogee County,GA,52.76605719643695
39827,Grady County,GA,98.57008907641818
96707,Honolulu County,HI,19.40928270042194
96720,Hawaii County,HI,81.73933427097984
96732,Maui County,HI,61.60337552742617
96734,Honolulu County,HI,68.04969526488513
96740,Hawaii County,HI,41.53774027191749
96743,Hawaii County,HI,66.1040787623066
96746,Kauai County,HI,85.81809657759025
96768,Maui County,HI,91.06891701828411
96771,Hawaii County,HI,88.88888888888889
96778,Hawaii County,HI,51.87529301453352
96782,Honolulu County,HI,20.089076418190345
96786,Honolulu County,HI,47.49179559306141
96792,Honolulu County,HI,5.0164088138771685
96793,Maui County,HI,59.54055321143928
96813,Honolulu County,HI,17.862165963431785
96814,Honolulu County,HI,51.078293483356774
96815,Honolulu County,HI,61.15799343647444
96817,Honolulu County,HI,4.852320675105485
96818,Honolulu County,HI,33.309892170651665
96819,Honolulu County,HI,46.858884200656355
83263,Franklin County,ID,93.97562119081107
83274,Bingham County,ID,95.85091420534458
83301,Twin Falls County,ID,63.22081575246132
83318,Cassia County,ID,72.55039849976559
83338,Jerome County,ID,35.46647913736521
83350,Minidoka County,ID,56.30567276136896
83401,Bonneville County,ID,44.70229723394281
83440,Madison County,ID,87.7402719174871
83442,Jefferson County,ID,24.56633849038912
83501,Nez Perce County,ID,6.14158462259728
83605,Canyon County,ID,13.877168307548054
83607,Canyon County,ID,78.71542428504453
83617,Gem County,ID,53.023909985935305
83646,Ada County,ID,4.828879512423816
83647,Elmore County,ID,56.86826066572902
83651,Canyon County,ID,7.759024847632443
83660,Canyon County,ID,72.17533989685889
83686,Canyon County,ID,3.0942334739803097
83702,Ada County,ID,15.307079231129864
83703,Ada County,ID,40.90482887951242
83706,Ada County,ID,72.22222222222221
83801,Kootenai County,ID,91.25644631973746
83814,Kootenai County,ID,65.30707923112986
83815,Kootenai County,ID,94.04594467885607
83835,Kootenai County,ID,36.59165494608533
83843,Latah County,ID,84.3413033286451
83854,Kootenai County,ID,95.78059071729957
83858,Kootenai County,ID,64.13502109704642
83864,Bonner County,ID,51.6643225503985
60004,Cook County,IL,12.09563994374121
60010,Lake County,IL,21.82372245663385
60016,Cook County,IL,37.45897796530708
60035,Lake County,IL,26.09001406469761
60047,Lake County,IL,20.557899671823723
60060,Lake County,IL,75.78527894983591
60077,Cook County,IL,82.84106891701828
60087,Lake County,IL,49.95311767463666
60089,Lake County,IL,53.14111579934365
60091,Cook County,IL,52.13314580403188
60098,McHenry County,IL,16.291608063759963
60099,Lake County,IL,23.18330989217065
60103,DuPage County,IL,41.81903422409752
60110,Kane County,IL,61.251758087201125
60115,DeKalb County,IL,22.761368963900612
60120,Kane County,IL,59.306141584622594
60124,Kane County,IL,73.55836849507736
60126,DuPage County,IL,19.737458977965307
60137,DuPage County,IL,18.23722456633849
60154,Cook County,IL,63.66619784341303
60169,Cook County,IL,28.293483356774495
60172,DuPage County,IL,43.76465072667604
60175,Kane County,IL,41.23300515705579
60181,DuPage County,IL,15.518049695264885
60185,DuPage County,IL,68.00281293952179
60187,DuPage County,IL,20.768870135958746
60188,DuPage County,IL,8.55602437880919
60189,DuPage County,IL,49.226441631504926
60194,Cook County,IL,56.399437412095644
60402,Cook County,IL,4.6647913736521325
60411,Cook County,IL,5.485232067510549
60423,Will County,IL,23.136427566807313
60425,Cook County,IL,86.42756680731364
60435,Will County,IL,4.0787623066104075
60440,Will County,IL,9.188935771214252
60441,Will County,IL,35.60712611345523
60442,Will County,IL,63.85372714486639
60445,Cook County,IL,67.15893108298172
60446,Will County,IL,45.0070323488045
60449,Will County,IL,69.71401781528364
60467,Cook County,IL,31.598687294889828
60471,Cook County,IL,52.601969057665265
60477,Cook County,IL,13.03328645100797
60482,Cook County,IL,51.71120487576184
60487,Cook County,IL,36.075949367088604
60491,Will County,IL,19.526488513830287
60501,Cook County,IL,76.04313173933427
60504,DuPage County,IL,49.55461790904829
60516,DuPage County,IL,58.11064228785747
60517,DuPage County,IL,22.175339896858883
60538,Kendall County,IL,82.6769807782466
60540,DuPage County,IL,14.463197374589779
60544,Will County,IL,68.56540084388185
60546,Cook County,IL,29.371776840131268
60548,DeKalb County,IL,67.04172526957338
60558,Cook County,IL,70.72198781059541
60559,DuPage County,IL,26.09001406469761
60560,Kendall County,IL,25.17580872011252
60585,Will County,IL,35.6305672761369
60586,Will County,IL,57.3370839193624
60608,Cook County,IL,4.453820909517113
60614,Cook County,IL,10.548523206751055
60616,Cook County,IL,20.182841068917018
60617,Cook County,IL,14.955461790904828
60619,Cook County,IL,2.180028129395218
60623,Cook County,IL,2.5785278949835915
60628,Cook County,IL,15.16643225503985
60629,Cook County,IL,2.109704641350211
60632,Cook County,IL,42.94421003281762
60634,Cook County,IL,4.055321143928739
60637,Cook County,IL,6.680731364275667
60638,Cook County,IL,3.8209095171120486
60639,Cook County,IL,3.680262541022035
60640,Cook County,IL,3.305203938115331
60641,Cook County,IL,24.425691514299107
60645,Cook County,IL,19.87810595405532
60647,Cook County,IL,2.789498359118612
60652,Cook County,IL,14.322550398499764
60655,Cook County,IL,42.405063291139236
60656,Cook County,IL,29.582747304266295
60659,Cook County,IL,75.2695733708392
60707,Cook County,IL,9.25925925925926
60901,Kankakee County,IL,7.243319268635724
60915,Kankakee County,IL,72.73792780121894
61008,Boone County,IL,17.74496015002344
61021,Lee County,IL,16.61978434130333
61061,Ogle County,IL,86.49789029535864
61073,Winnebago County,IL,46.249413970932956
61111,Winnebago County,IL,62.49413970932959
61114,Winnebago County,IL,65.16643225503985
61244,Rock Island County,IL,47.53867791842475
61356,Bureau County,IL,57.36052508204407
61364,LaSalle County,IL,80.59071729957806
61401,Knox County,IL,41.49085794655415
61455,McDonough County,IL,89.12330051570558
61520,Fulton County,IL,80.07501172058134
61603,Peoria County,IL,47.89029535864979
61610,Tazewell County,IL,91.63150492264415
61614,Peoria County,IL,56.540084388185655
61701,McLean County,IL,85.11486169714017
61704,McLean County,IL,51.78152836380685
61761,McLean County,IL,22.362869198312236
61920,Coles County,IL,66.69010782934834
62034,Madison County,IL,89.943741209564
62040,Madison County,IL,9.446788560712612
62206,St. Clair County,IL,77.44960150023441
62220,St. Clair County,IL,45.49929676511955
62269,St. Clair County,IL,76.62916080637599
62298,Monroe County,IL,66.99484294421003
62450,Richland County,IL,75.69151429910923
62629,Sangamon County,IL,82.46601031411159
62702,Sangamon County,IL,12.822315986872947
62801,Marion County,IL,31.434599156118143
62806,Edwards County,IL,98.21847163619314
62839,Clay County,IL,71.14392873886544
62864,Jefferson County,IL,83.7318330989217
62959,Williamson County,IL,24.120956399437414
62966,Jackson County,IL,45.71026722925457
46001,Madison County,IN,48.80450070323488
46012,Madison County,IN,51.406469760900144
46016,Madison County,IN,26.300984528832632
46034,Hamilton County,IN,87.27144866385372
46041,Clinton County,IN,17.76840131270511
46052,Boone County,IN,24.3553680262541
46060,Hamilton County,IN,16.10407876230661
46107,Marion County,IN,70.30004688232536
46112,Hendricks County,IN,79.30145335208626
46131,Johnson County,IN,44.23347398030943
46135,Putnam County,IN,48.52320675105485
46140,Hancock County,IN,61.111111111111114
46142,Johnson County,IN,56.02437880918893
46143,Johnson County,IN,55.2977027660572
46151,Morgan County,IN,12.3300515705579
46184,Johnson County,IN,81.08298171589311
46201,Marion County,IN,8.321612751992499
46218,Marion County,IN,3.7740271917487105
46220,Marion County,IN,57.876230661040786
46222,Marion County,IN,9.188935771214252
46224,Marion County,IN,44.77262072198781
46226,Marion County,IN,40.365682137834035
46227,Marion County,IN,3.750586029067042
46235,Marion County,IN,63.80684481950305
46236,Marion County,IN,41.70182841068917
46237,Marion County,IN,31.78621659634318
46241,Marion County,IN,33.309892170651665
46250,Marion County,IN,61.90811064228786
46304,Porter County,IN,5.344585091420535
46307,Lake County,IN,5.555555555555555
46310,Jasper County,IN,33.47398030942335
46311,Lake County,IN,46.2962962962963
46312,Lake County,IN,7.079231129864041
46319,Lake County,IN,13.291139240506327
46321,Lake County,IN,48.874824191279885
46322,Lake County,IN,11.814345991561181
46341,Porter County,IN,44.09282700421941
46360,LaPorte County,IN,12.3300515705579
46375,Lake County,IN,16.760431317393344
46383,Porter County,IN,31.739334270979843
46385,Porter County,IN,15.3539615564932
46392,Jasper County,IN,76.74636661978434
46404,Lake County,IN,47.42147210501641
46408,Lake County,IN,27.848101265822784
46410,Lake County,IN,42.78012189404595
46514,Elkhart County,IN,15.025785278949835
46517,Elkhart County,IN,60.970464135021096
46526,Elkhart County,IN,37.08391936240037
46534,Starke County,IN,35.34927332395687
46580,Kosciusko County,IN,27.49648382559775
46614,St. Joseph County,IN,39.40459446788561
46628,St. Joseph County,IN,30.121894045944682
46701,Noble County,IN,54.641350210970465
46706,DeKalb County,IN,74.26160337552743
46714,Wells County,IN,68.63572433192687
46733,Adams County,IN,80.84857008907642
46750,Huntington County,IN,32.23159868729489
46755,Noble County,IN,41.04547585560244
46767,Noble County,IN,78.31692451945617
46774,Allen County,IN,40.975152367557435
46802,Allen County,IN,64.9789029535865
46803,Allen County,IN,96.08532583216127
46804,Allen County,IN,26.46507266760431
46807,Allen County,IN,32.04406938584154
46815,Allen County,IN,46.812001875293014
46816,Allen County,IN,14.908579465541491
46825,Allen County,IN,21.214252226910453
46835,Allen County,IN,17.20581340834505
46901,Howard County,IN,25.339896858884202
46902,Howard County,IN,9.306141584622598
46923,Carroll County,IN,66.29160806375997
46947,Cass County,IN,53.891233005157055
46970,Miami County,IN,59.306141584622594
46992,Wabash County,IN,17.955930614158465
46996,Pulaski County,IN,61.556493202062825
47041,Ripley County,IN,90.41256446319737
47102,Scott County,IN,97.0464135021097
47112,Harrison County,IN,80.75480543834973
47122,Floyd County,IN,81.57524613220815
47129,Clark County,IN,95.3820909517112
47130,Clark County,IN,77.09798406000937
47150,Floyd County,IN,50.91420534458509
47167,Washington County,IN,62.705110173464604
47172,Clark County,IN,93.29582747304266
47250,Jefferson County,IN,48.734177215189874
47265,Jennings County,IN,54.922644163150494
47302,Delaware County,IN,8.368495077355837
47303,Delaware County,IN,18.893577121425224
47304,Delaware County,IN,32.23159868729489
47336,Jay County,IN,97.30426629160806
47348,Blackford County,IN,46.507266760431314
47371,Jay County,IN,66.05719643694327
47374,Wayne County,IN,22.902015939990626
47403,Monroe County,IN,72.33942803563058
47421,Lawrence County,IN,48.49976558837319
47501,Daviess County,IN,67.79184247538677
47598,Pike County,IN,99.83591186122833
47620,Posey County,IN,52.22691045475856
47711,Vanderburgh County,IN,59.798406000937646
47713,Vanderburgh County,IN,89.40459446788562
47714,Vanderburgh County,IN,5.954055321143929
47715,Vanderburgh County,IN,43.67088607594937
47805,Vigo County,IN,42.07688701359588
47905,Tippecanoe County,IN,23.253633380215657
47909,Tippecanoe County,IN,52.742616033755276
47959,White County,IN,99.95311767463666
47978,Jasper County,IN,49.3905297702766
50023,Polk County,IA,48.05438349742147
50112,Poweshiek County,IA,78.24660103141116
50158,Marshall County,IA,12.75199249882794
50201,Story County,IA,88.30285982184716
50208,Jasper County,IA,80.98921706516643
50265,Polk County,IA,22.0112517580872
50266,Polk County,IA,61.15799343647444
50314,Polk County,IA,57.80590717299579
50317,Polk County,IA,4.688232536333802
50320,Polk County,IA,76.16033755274262
50321,Polk County,IA,79.44210032817628
50401,Cerro Gordo County,IA,70.51101734646038
50428,Cerro Gordo County,IA,65.3539615564932
50441,Franklin County,IA,84.17721518987342
50501,Webster County,IA,11.908110642287857
50536,Palo Alto County,IA,92.31129864041256
50644,Buchanan County,IA,63.24425691514299
50702,Black Hawk County,IA,80.84857008907642
51031,Plymouth County,IA,87.08391936240038
51040,Monona County,IA,99.6952648851383
51103,Woodbury County,IA,60.59540553211439
51105,Woodbury County,IA,49.343647444913266
51106,Woodbury County,IA,29.535864978902953
51201,O'Brien County,IA,92.78012189404595
51334,Emmet County,IA,85.77121425222691
51401,Carroll County,IA,69.971870604782
51442,Crawford County,IA,82.9817158931083
51501,Pottawattamie County,IA,66.61978434130333
51503,Pottawattamie County,IA,75.17580872011251
51534,Mills County,IA,42.96765119549929
51559,Pottawattamie County,IA,98.75761837787155
51566,Montgomery County,IA,59.39990623534928
52001,Dubuque County,IA,6.516643225503985
52002,Dubuque County,IA,56.93858415377403
52240,Johnson County,IA,10.032817627754337
52302,Linn County,IA,34.43506797937177
52402,Linn County,IA,8.837318330989218
52403,Linn County,IA,24.87107360525082
52404,Linn County,IA,3.2348804500703237
52501,Wapello County,IA,6.094702297233943
52544,Appanoose County,IA,71.91748710736053
52556,Jefferson County,IA,60.68917018284107
52577,Mahaska County,IA,67.86216596343179
52625,Lee County,IA,99.90623534927332
52632,Lee County,IA,22.43319268635724
52722,Scott County,IA,9.563994374120956
52726,Scott County,IA,91.88935771214253
52732,Clinton County,IA,10.384435067979373
52761,Muscatine County,IA,4.617909048288795
66012,Wyandotte County,KS,77.80121894045945
66018,Johnson County,KS,89.12330051570558
66061,Johnson County,KS,50.70323488045007
66104,Wyandotte County,KS,59.84528832630098
66215,Johnson County,KS,56.07126113455227
66536,Pottawatomie County,KS,95.87435536802626
66617,Shawnee County,KS,94.4678856071261
67005,Cowley County,KS,34.43506797937177
67062,Harvey County,KS,92.9676511954993
67110,Sedgwick County,KS,95.21800281293952
67211,Sedgwick County,KS,34.29442100328176
67213,Sedgwick County,KS,43.459915611814345
67410,Dickinson County,KS,72.66760431317392
67530,Barton County,KS,50.773558368495074
67544,Barton County,KS,99.55461790904829
67601,Ellis County,KS,71.28457571495547
67801,Ford County,KS,38.93577121425223
67846,Finney County,KS,53.727144866385366
67851,Finney County,KS,98.28879512423816
40004,Nelson County,KY,31.29395218002813
40006,Trimble County,KY,94.23347398030943
40033,Marion County,KY,39.12330051570558
40065,Shelby County,KY,54.219409282700425
40071,Spencer County,KY,35.34927332395687
40160,Hardin County,KY,46.249413970932956
40165,Bullitt County,KY,6.071261134552273
40175,Hardin County,KY,68.68260665729021
40202,Jefferson County,KY,87.10736052508204
40203,Jefferson County,KY,10.478199718706048
40208,Jefferson County,KY,30.872011251758085
40211,Jefferson County,KY,5.649320206282232
40212,Jefferson County,KY,12.447257383966246
40213,Jefferson County,KY,18.72948898265354
40214,Jefferson County,KY,2.437880918893577
40215,Jefferson County,KY,31.200187529301456
40216,Jefferson County,KY,18.28410689170183
40218,Jefferson County,KY,24.964838255977497
40219,Jefferson County,KY,23.88654477262072
40223,Jefferson County,KY,46.62447257383967
40229,Jefferson County,KY,4.899203000468823
40241,Jefferson County,KY,63.009845288326304
40258,Jefferson County,KY,10.759493670886076
40272,Jefferson County,KY,43.014533520862635
40291,Jefferson County,KY,76.30098452883263
40324,Scott County,KY,5.672761368963901
40330,Mercer County,KY,34.01312705110173
40351,Rowan County,KY,10.45475855602438
40356,Jessamine County,KY,66.2681669010783
40361,Bourbon County,KY,19.92498827941866
40391,Clark County,KY,3.1176746366619783
40403,Madison County,KY,80.14533520862635
40422,Boyle County,KY,60.19690576652602
40444,Garrard County,KY,39.42803563056728
40484,Lincoln County,KY,50.56258790436006
40504,Fayette County,KY,55.649320206282226
40509,Fayette County,KY,47.163619315518055
40511,Fayette County,KY,52.20346929207689
40515,Fayette County,KY,30.285982184716364
40517,Fayette County,KY,52.695733708391934
40701,Whitley County,KY,37.88091889357712
40744,Laurel County,KY,14.791373652133148
40769,Whitley County,KY,47.585560243788095
40828,Harlan County,KY,87.83403656821378
40965,Bell County,KY,13.127051101734647
40977,Bell County,KY,78.85607126113456
41005,Boone County,KY,71.54242850445382
41010,Grant County,KY,99.13267698077824
41011,Kenton County,KY,6.118143459915612
41017,Kenton County,KY,63.24425691514299
41018,Kenton County,KY,12.142522269104546
41031,Harrison County,KY,36.0056258790436
41040,Pendleton County,KY,48.21847163619316
41042,Boone County,KY,1.9221753398968588
41048,Boone County,KY,67.72151898734177
41073,Campbell County,KY,88.06844819503047
41076,Campbell County,KY,53.77402719174871
41091,Boone County,KY,91.79559306141584
41101,Boyd County,KY,29.324894514767934
41144,Greenup County,KY,22.831692451945617
41224,Martin County,KY,63.0801687763713
41230,Lawrence County,KY,39.029535864978904
41240,Johnson County,KY,86.96671354899202
41465,Magoffin County,KY,81.7627754336615
41472,Morgan County,KY,82.18471636193155
41501,Pike County,KY,53.14111579934365
41653,Floyd County,KY,57.0323488045007
42025,Marshall County,KY,25.17580872011252
42041,Fulton County,KY,74.89451476793249
42064,Crittenden County,KY,52.48476324425692
42066,Graves County,KY,35.935302390998594
42104,Warren County,KY,24.238162212845758
42127,Barren County,KY,86.94327238631037
42141,Barren County,KY,23.042662916080637
42171,Warren County,KY,94.7726207219878
42210,Edmonson County,KY,89.52180028129395
42211,Trigg County,KY,43.20206282231599
42303,Daviess County,KY,19.503047351148616
42320,Ohio County,KY,32.39568682606657
42366,Daviess County,KY,88.34974214721049
42408,Hopkins County,KY,63.009845288326304
42413,Hopkins County,KY,99.3905297702766
42420,Henderson County,KY,18.44819503047351
42431,Hopkins County,KY,10.92358180965776
42445,Caldwell County,KY,50.210970464135016
42455,Webster County,KY,87.5996249413971
42501,Pulaski County,KY,62.00187529301453
42503,Pulaski County,KY,81.34083450539147
42553,Pulaski County,KY,94.96015002344116
42602,Clinton County,KY,69.78434130332865
42633,Wayne County,KY,32.9817158931083
42765,Hart County,KY,91.88935771214253
70001,Jefferson Parish,LA,60.00937646507267
70003,Jefferson Parish,LA,94.53820909517113
70037,Plaquemines Parish,LA,71.84716361931551
70043,St. Bernard Parish,LA,86.77918424753868
70056,Jefferson Parish,LA,1.4064697609001406
70058,Jefferson Parish,LA,26.48851383028598
70065,Jefferson Parish,LA,1.2658227848101267
70068,St. John the Baptist Parish,LA,3.914674167838725
70070,St. Charles Parish,LA,41.02203469292077
70072,Jefferson Parish,LA,3.7037037037037033
70085,St. Bernard Parish,LA,96.81200187529302
70090,St. James Parish,LA,55.813408345053915
70094,Jefferson Parish,LA,55.76652601969057
70114,Orleans Parish,LA,4.102203469292077
70115,Orleans Parish,LA,8.415377402719175
70117,Orleans Parish,LA,89.09985935302392
70118,Orleans Parish,LA,8.227848101265822
70121,Jefferson Parish,LA,30.37974683544304
70122,Orleans Parish,LA,1.7580872011251758
70123,Jefferson Parish,LA,49.43741209563994
70125,Orleans Parish,LA,94.02250351617441
70126,Orleans Parish,LA,2.156586966713549
70127,Orleans Parish,LA,96.92920768870135
70128,Orleans Parish,LA,68.91701828410689
70129,Orleans Parish,LA,97.53867791842475
70301,Lafourche Parish,LA,0.5391467416783873
70344,Terrebonne Parish,LA,76.09001406469761
70346,Ascension Parish,LA,59.28270042194092
70363,Terrebonne Parish,LA,1.2189404594467885
70364,Terrebonne Parish,LA,80.42662916080637
70374,Lafourche Parish,LA,68.35443037974683
70380,St. Mary Parish,LA,79.6530707923113
70420,St. Tammany Parish,LA,52.437880918893576
70422,Tangipahoa Parish,LA,12.189404594467886
70431,St. Tammany Parish,LA,57.407407407407405
70433,St. Tammany Parish,LA,14.299109235818097
70460,St. Tammany Parish,LA,64.41631504922644
70471,St. Tammany Parish,LA,23.6755743084857
70501,Lafayette Parish,LA,83.47398030942334
70506,Lafayette Parish,LA,85.5602437880919
70507,Lafayette Parish,LA,25.269573370839193
70517,St. Martin Parish,LA,24.027191748710734
70518,Lafayette Parish,LA,61.90811064228786
70520,Lafayette Parish,LA,11.157993436474449
70525,Acadia Parish,LA,30.54383497421472
70526,Acadia Parish,LA,11.884669479606188
70546,Jefferson Davis Parish,LA,14.322550398499764
70560,Iberia Parish,LA,98.12470698546647
70582,St. Martin Parish,LA,95.82747304266292
70586,Evangeline Parish,LA,94.06938584153775
70592,Lafayette Parish,LA,14.744491326769808
70601,Calcasieu Parish,LA,94.60853258321613
70605,Calcasieu Parish,LA,94.79606188466948
70607,Calcasieu Parish,LA,94.09282700421942
70611,Calcasieu Parish,LA,14.486638537271448
70615,Calcasieu Parish,LA,90.97515236755743
70633,Calcasieu Parish,LA,84.90389123300515
70634,Beauregard Parish,LA,95.35864978902954
70647,Calcasieu Parish,LA,26.371308016877638
70663,Calcasieu Parish,LA,46.41350210970464
70665,Calcasieu Parish,LA,19.057665260196906
70668,Calcasieu Parish,LA,96.71823722456634
70669,Calcasieu Parish,LA,34.950773558368496
70719,West Baton Rouge Parish,LA,90.60009376465072
70726,Livingston Parish,LA,0.35161744022503516
70737,Ascension Parish,LA,2.461322081575246
70805,East Baton Rouge Parish,LA,65.42428504453821
70807,East Baton Rouge Parish,LA,5.368026254102203
70808,East Baton Rouge Parish,LA,26.019690576652604
70810,East Baton Rouge Parish,LA,16.643225503984997
71001,Bienville Parish,LA,67.04172526957338
71037,Bossier Parish,LA,98.24191279887482
71047,Caddo Parish,LA,85.23206751054853
71055,Webster Parish,LA,80.30942334739804
71064,Bossier Parish,LA,99.71870604781998
71107,Caddo Parish,LA,0.7735583684950774
71108,Caddo Parish,LA,4.008438818565401
71111,Bossier Parish,LA,37.78715424285045
71118,Caddo Parish,LA,9.892170651664323
71201,Ouachita Parish,LA,65.9634317862166
71202,Ouachita Parish,LA,72.03469292076888
71203,Ouachita Parish,LA,97.98406000937646
71220,Morehouse Parish,LA,8.134083450539146
71238,Ouachita Parish,LA,99.81247069854665
71251,Jackson Parish,LA,98.99203000468823
71263,West Carroll Parish,LA,85.18518518518519
71292,Ouachita Parish,LA,93.74120956399437
71295,Franklin Parish,LA,86.54477262072199
71301,Rapides Parish,LA,15.447726207219878
71303,Rapides Parish,LA,15.37740271917487
71322,Avoyelles Parish,LA,69.36240037505861
71343,Catahoula Parish,LA,98.38255977496485
71446,Vernon Parish,LA,98.26535396155649
71449,Sabine Parish,LA,91.44397562119082
71483,Winn Parish,LA,84.78668541959681
04073,York County,ME,11.697140178152836
04107,Cumberland County,ME,89.00609470229723
04252,Androscoggin County,ME,99.0857946554149
04345,Kennebec County,ME,26.55883731833099
04364,Kennebec County,ME,37.45897796530708
04412,Penobscot County,ME,45.218002812939524
04730,Aroostook County,ME,37.90436005625879
04742,Aroostook County,ME,62.07219878105954
04864,Knox County,ME,95.94467885607126
04950,Somerset County,ME,56.61040787623066
20603,Charles County,MD,48.148148148148145
20705,Prince George's County,MD,63.009845288326304
20711,Anne Arundel County,MD,80.23909985935302
20716,Prince George's County,MD,46.78856071261134
20745,Prince George's County,MD,54.360056258790436
20746,Prince George's County,MD,44.303797468354425
20747,Prince George's County,MD,27.77777777777778
20772,Prince George's County,MD,60.3609939052977
20774,Prince George's County,MD,25.31645569620253
20782,Prince George's County,MD,67.44022503516175
20817,Montgomery County,MD,84.17721518987342
20850,Montgomery County,MD,47.11673699015471
20852,Montgomery County,MD,57.21987810595406
20853,Montgomery County,MD,65.44772620721989
20854,Montgomery County,MD,44.210032817627756
20874,Montgomery County,MD,27.332395686826068
20878,Montgomery County,MD,27.51992498827942
20902,Montgomery County,MD,49.24988279418659
20904,Montgomery County,MD,39.21706516643225
21001,Harford County,MD,72.80825128926395
21012,Anne Arundel County,MD,63.759962494139714
21040,Harford County,MD,69.57337083919363
21050,Harford County,MD,53.65682137834037
21061,Anne Arundel County,MD,19.24519456165026
21078,Harford County,MD,30.801687763713083
21090,Anne Arundel County,MD,73.18330989217066
21117,Baltimore County,MD,62.04875761837787
21120,Baltimore County,MD,96.17909048288796
21122,Anne Arundel County,MD,45.49929676511955
21133,Baltimore County,MD,69.08110642287858
21152,Baltimore County,MD,95.17112048757619
21202,Baltimore city,MD,54.89920300046882
21207,Baltimore County,MD,10.571964369432724
21208,Baltimore County,MD,83.47398030942334
21213,Baltimore city,MD,31.903422409751524
21215,Baltimore city,MD,16.31504922644163
21222,Baltimore County,MD,1.5471167369901548
21224,Baltimore city,MD,7.008907641819034
21225,Baltimore city,MD,19.12798874824191
21227,Baltimore County,MD,34.763244256915144
21228,Baltimore County,MD,32.39568682606657
21229,Baltimore city,MD,8.016877637130802
21234,Baltimore County,MD,46.3666197843413
21244,Baltimore County,MD,25.550867323019222
21663,Talbot County,MD,97.06985466479138
21716,Frederick County,MD,98.28879512423816
21804,Wicomico County,MD,59.774964838255976
21853,Somerset County,MD,83.52086263478668
21921,Cecil County,MD,26.84013127051102
01002,Hampshire County,MA,68.799812470698555
01013,Hampden County,MA,0.8204406938584154
01040,Hampden County,MA,30.778246601031412
01056,Hampden County,MA,85.65400843881856
01075,Hampshire County,MA,1.2423816221284576
01085,Hampden County,MA,46.17909048288795
01089,Hampden County,MA,76.60571964369433
01095,Hampden County,MA,57.61837787154243
01104,Hampden County,MA,61.48616971401781
01105,Hampden County,MA,29.629629629629626
01107,Hampden County,MA,51.19549929676512
01108,Hampden County,MA,12.048757618377872
01109,Hampden County,MA,0.07032348804500703
01151,Hampden County,MA,13.338021565869667
01201,Berkshire County,MA,40.951711204875764
01220,Berkshire County,MA,10.782934833567746
01247,Berkshire County,MA,1.992498827941866
01420,Worcester County,MA,0.14064697609001406
01450,Middlesex County,MA,49.83591186122832
01523,Worcester County,MA,91.16268166901078
01527,Worcester County,MA,65.3539615564932
01532,Worcester County,MA,60.31411157993436
01545,Worcester County,MA,7.4074074074074066
01550,Worcester County,MA,0.23441162681669012
01568,Worcester County,MA,52.95358649789029
01569,Worcester County,MA,86.685419596812
01581,Worcester County,MA,88.25597749648382
01588,Worcester County,MA,91.13924050632912
01603,Worcester County,MA,5.20393811533052
01606,Worcester County,MA,7.712142522269104
01701,Middlesex County,MA,90.6235349273324
01702,Middlesex County,MA,54.07876230661041
01752,Middlesex County,MA,0.9142053445850914
01757,Worcester County,MA,56.91514299109236
01801,Middlesex County,MA,67.97937177684014
01810,Essex County,MA,5.532114392873886
01821,Middlesex County,MA,1.6877637130801686
01826,Middlesex County,MA,1.3595874355368025
01830,Essex County,MA,84.48195030473511
01834,Essex County,MA,96.53070792311298
01841,Essex County,MA,8.345053914674168
01851,Middlesex County,MA,6.16502578527895
01852,Middlesex County,MA,0.09376465072667604
01876,Middlesex County,MA,86.82606657290202
01902,Essex County,MA,3.6333802156586965
01904,Essex County,MA,87.2948898265354
01913,Essex County,MA,92.75668073136427
01915,Essex County,MA,0.3750586029067042
01930,Essex County,MA,0.9610876699484294
01938,Essex County,MA,27.894983591186122
01960,Essex County,MA,20.159399906235347
01970,Essex County,MA,29.957805907172997
01982,Essex County,MA,56.30567276136896
02038,Norfolk County,MA,87.55274261603375
02043,Plymouth County,MA,51.078293483356774
02048,Bristol County,MA,90.45944678856071
02052,Norfolk County,MA,43.20206282231599
02053,Norfolk County,MA,60.43131739334271
02066,Plymouth County,MA,20.276605719643694
02081,Norfolk County,MA,89.92030004688233
02119,Suffolk County,MA,46.62447257383967
02121,Suffolk County,MA,38.18565400843882
02122,Suffolk County,MA,11.744022503516174
02124,Suffolk County,MA,0
02125,Suffolk County,MA,1.1251758087201125
02130,Suffolk County,MA,32.23159868729489
02131,Suffolk County,MA,72.0112517580872
02136,Suffolk County,MA,96.24941397093296
02140,Middlesex County,MA,7.290201593999063
02148,Middlesex County,MA,3.3989685888420067
02149,Middlesex County,MA,2.9301453352086266
02150,Suffolk County,MA,46.671354899202996
02151,Suffolk County,MA,35.3258321612752
02155,Middlesex County,MA,7.876230661040788
02176,Middlesex County,MA,31.05954055321144
02184,Norfolk County,MA,1.9456165025785277
02301,Plymouth County,MA,0.02344116268166901
02346,Plymouth County,MA,4.242850445382091
02347,Plymouth County,MA,54.96952648851383
02351,Plymouth County,MA,7.055789967182373
02360,Plymouth County,MA,7.59493670886076
02453,Middlesex County,MA,34.6460384435068
02459,Middlesex County,MA,25.925925925925924
02466,Middlesex County,MA,89.42803563056727
02474,Middlesex County,MA,5.6024378809188935
02554,Nantucket County,MA,17.48710736052508
02703,Bristol County,MA,64.62728551336147
02740,Bristol County,MA,0.04688232536333802
02760,Bristol County,MA,21.308016877637133
02766,Bristol County,MA,62.18940459446789
02777,Bristol County,MA,2.8832630098452885
02780,Bristol County,MA,1.0314111579934364
48009,Oakland County,MI,63.43178621659634
48021,Macomb County,MI,50.02344116268167
48030,Oakland County,MI,24.449132676980778
48033,Oakland County,MI,23.347398030942333
48035,Macomb County,MI,19.596812001875293
48036,Macomb County,MI,71.2611345522738
48038,Macomb County,MI,24.097515236755743
48039,St. Clair County,MI,69.01078293483357
48044,Macomb County,MI,2.906704172526957
48045,Macomb County,MI,38.021565869667135
48048,Macomb County,MI,56.68073136427567
48049,St. Clair County,MI,82.58321612751992
48051,Macomb County,MI,68.16690107829348
48060,St. Clair County,MI,73.30051570557899
48066,Macomb County,MI,55.6727613689639
48067,Oakland County,MI,19.90154711673699
48073,Oakland County,MI,72.64416315049228
48075,Oakland County,MI,73.81622128457572
48076,Oakland County,MI,16.455696202531644
48080,Macomb County,MI,19.362400375058602
48081,Macomb County,MI,51.804969526488506
48085,Oakland County,MI,15.752461322081576
48088,Macomb County,MI,57.29020159399906
48089,Macomb County,MI,32.34880450070324
48091,Macomb County,MI,28.43413033286451
48093,Macomb County,MI,63.33802156586966
48094,Macomb County,MI,31.551804969526486
48114,Livingston County,MI,32.606657290201596
48122,Wayne County,MI,65.6586966713549
48126,Wayne County,MI,19.85466479137365
48127,Wayne County,MI,5.133614627285513
48141,Wayne County,MI,3.1411157993436474
48146,Wayne County,MI,2.9535864978902953
48154,Wayne County,MI,55.954055321143926
48161,Monroe County,MI,80.00468823253634
48162,Monroe County,MI,23.23019221753399
48165,Oakland County,MI,62.21284575714956
48167,Oakland County,MI,53.07079231129864
48169,Livingston County,MI,28.527894983591185
48174,Wayne County,MI,2.555086732301922
48176,Washtenaw County,MI,53.56305672761369
48180,Wayne County,MI,16.877637130801688
48183,Wayne County,MI,34.810126582278485
48186,Wayne County,MI,2.062822315986873
48187,Wayne County,MI,36.872948898265356
48197,Washtenaw County,MI,0.5157055789967182
48198,Washtenaw County,MI,0.6094702297233943
48203,Wayne County,MI,6.352555086732302
48205,Wayne County,MI,9.868729488982654
48206,Wayne County,MI,70.69854664791374
48207,Wayne County,MI,50
48208,Wayne County,MI,67.25269573370839
48209,Wayne County,MI,54.6882325363338
48210,Wayne County,MI,38.88888888888889
48213,Wayne County,MI,20.932958274730424
48219,Wayne County,MI,1.6174402250351618
48221,Wayne County,MI,11.790904828879514
48223,Wayne County,MI,5.180496952648851
48224,Wayne County,MI,62.65822784810127
48225,Wayne County,MI,69.19831223628692
48227,Wayne County,MI,0.8907641819034223
48228,Wayne County,MI,30.520393811533054
48229,Wayne County,MI,37.90436005625879
48234,Wayne County,MI,16.127519924988277
48235,Wayne County,MI,16.010314111579934
48237,Oakland County,MI,9.540553211439287
48238,Wayne County,MI,24.47257383966245
48240,Wayne County,MI,64.76793248945147
48301,Oakland County,MI,44.77262072198781
48307,Oakland County,MI,7.969995311767464
48312,Macomb County,MI,56.58696671354899
48313,Macomb County,MI,40.03750586029067
48315,Macomb County,MI,22.52695733708392
48316,Macomb County,MI,22.245663384903892
48317,Macomb County,MI,10.595405532114393
48324,Oakland County,MI,40.060947022972336
48328,Oakland County,MI,21.026722925457104
48331,Oakland County,MI,50.187529301453345
48335,Oakland County,MI,62.68166901078294
48340,Oakland County,MI,20.065635255508674
48341,Oakland County,MI,43.15518049695265
48359,Oakland County,MI,73.55836849507736
48363,Oakland County,MI,71.44866385372714
48371,Oakland County,MI,50.28129395218003
48374,Oakland County,MI,56.68073136427567
48375,Oakland County,MI,31.364275668073137
48383,Oakland County,MI,50.98452883263009
48386,Oakland County,MI,71.68307548054383
48390,Oakland County,MI,21.237693389592124
48393,Oakland County,MI,27.73089545241444
48415,Saginaw County,MI,29.371776840131268
48418,Shiawassee County,MI,95.94467885607126
48421,Lapeer County,MI,83.19268635724332
48423,Genesee County,MI,16.3384903891233
48439,Genesee County,MI,5.2977027660571965
48441,Huron County,MI,85.16174402250351
48457,Genesee County,MI,69.71401781528364
48458,Genesee County,MI,15.799343647444914
48471,Sanilac County,MI,89.84997655883731
48503,Genesee County,MI,8.251289263947491
48532,Genesee County,MI,21.143928738865448
48601,Saginaw County,MI,82.55977496483825
48602,Saginaw County,MI,74.80075011720582
48603,Saginaw County,MI,40.55321143928739
48609,Saginaw County,MI,23.90998593530239
48616,Saginaw County,MI,80.37974683544303
48622,Clare County,MI,55.20393811533052
48632,Clare County,MI,87.57618377871542
48638,Saginaw County,MI,37.95124238162213
48640,Midland County,MI,3.8677918424753868
48642,Midland County,MI,50.04688232536334
48653,Roscommon County,MI,58.95452414439756
48655,Saginaw County,MI,74.51945616502579
48658,Arenac County,MI,87.52930145335208
48706,Bay County,MI,15.330520393811534
48708,Bay County,MI,2.766057196436943
48732,Bay County,MI,33.70839193624004
48734,Saginaw County,MI,70.18284106891703
48746,Tuscola County,MI,64.04125644631974
48750,Iosco County,MI,55.9774964838256
48756,Ogemaw County,MI,96.01500234411627
48801,Gratiot County,MI,28.363806844819507
48808,Clinton County,MI,89.56868260665729
48827,Eaton County,MI,24.050632911392405
48837,Eaton County,MI,37.3652133145804
48843,Livingston County,MI,5.063291139240507
48849,Ionia County,MI,89.42803563056727
48858,Isabella County,MI,58.57946554149086
48867,Shiawassee County,MI,29.840600093764653
48879,Clinton County,MI,77.0745428973277
48906,Ingham County,MI,5.274261603375527
48910,Ingham County,MI,22.409751523675574
48911,Ingham County,MI,71.49554617909048
48917,Eaton County,MI,3.375527426160337
49009,Kalamazoo County,MI,4.946085325832161
49028,Branch County,MI,91.51429910923582
49042,St. Joseph County,MI,97.16361931551805
49056,Van Buren County,MI,99.97655883731834
49058,Barry County,MI,15.611814345991561
49201,Jackson County,MI,3.281762775433662
49203,Jackson County,MI,62.35349273323957
49224,Calhoun County,MI,34.43506797937177
49247,Lenawee County,MI,54.73511486169714
49250,Hillsdale County,MI,90.50632911392405
49286,Lenawee County,MI,36.240037505860286
49306,Kent County,MI,74.28504453820909
49315,Kent County,MI,82.88795124238162
49319,Kent County,MI,15.002344116268167
49327,Newaygo County,MI,61.15799343647444
49349,Newaygo County,MI,39.639006094702296
49401,Ottawa County,MI,81.62212845757149
49412,Newaygo County,MI,45.96812001875293
49415,Muskegon County,MI,74.07407407407408
49417,Ottawa County,MI,29.44210032817628
49418,Kent County,MI,20.979840600093766
49424,Ottawa County,MI,26.957337083919363
49431,Mason County,MI,47.02297233942804
49456,Ottawa County,MI,25.972808251289266
49505,Kent County,MI,36.56821378340366
49507,Kent County,MI,1.7112048757618379
49509,Kent County,MI,42.05344585091421
49525,Kent County,MI,18.6826066572902
49601,Wexford County,MI,27.894983591186122
49631,Osceola County,MI,52.22691045475856
49651,Missaukee County,MI,93.62400375058603
49659,Antrim County,MI,60.68917018284107
49841,Marquette County,MI,70.41725269573371
49855,Marquette County,MI,26.06657290201594
49866,Marquette County,MI,38.23253633380216
49931,Houghton County,MI,72.03469292076888
55006,Isanti County,MN,99.4608532583216
55013,Chisago County,MN,89.3342709798406
55021,Rice County,MN,84.13033286451008
55024,Dakota County,MN,30.965775902484765
55033,Dakota County,MN,73.13642756680731
55040,Isanti County,MN,53.37552742616034
55042,Washington County,MN,94.3975621190811
55044,Dakota County,MN,62.37693389592124
55056,Chisago County,MN,63.66619784341303
55057,Rice County,MN,51.38302859821847
55060,Steele County,MN,83.80215658696672
55072,Pine County,MN,94.96015002344116
55102,Ramsey County,MN,42.80356305672761
55103,Ramsey County,MN,58.18096577590248
55106,Ramsey County,MN,28.856071261134552
55107,Ramsey County,MN,80.68448195030473
55109,Ramsey County,MN,26.629160806375996
55115,Washington County,MN,98.49976558837318
55116,Ramsey County,MN,48.148148148148145
55119,Ramsey County,MN,5.743084857008908
55122,Dakota County,MN,46.92920768870136
55126,Ramsey County,MN,83.30989217065166
55302,Wright County,MN,89.56868260665729
55303,Anoka County,MN,7.852789498359118
55306,Dakota County,MN,76.44163150492264
55308,Sherburne County,MN,83.30989217065166
55311,Hennepin County,MN,71.14392873886544
55322,Carver County,MN,96.27285513361463
55342,Renville County,MN,95.94467885607126
55344,Hennepin County,MN,97.67932489451476
55347,Hennepin County,MN,75.62119081106424
55372,Scott County,MN,83.0520393811533
55376,Wright County,MN,72.29254571026723
55378,Scott County,MN,35.74777308954524
55386,Carver County,MN,96.15564932020628
55403,Hennepin County,MN,74.94139709329582
55404,Hennepin County,MN,10.501640881387717
55406,Hennepin County,MN,81.38771683075481
55407,Hennepin County,MN,50.656352555086734
55408,Hennepin County,MN,4.52414439756212
55411,Hennepin County,MN,17.862165963431785
55416,Hennepin County,MN,72.45663384903891
55420,Hennepin County,MN,84.66947960618847
55422,Hennepin County,MN,15.400843881856542
55429,Hennepin County,MN,23.18330989217065
55430,Hennepin County,MN,30.66104078762307
55431,Hennepin County,MN,42.428504453820906
55432,Anoka County,MN,11.11111111111111
55438,Hennepin County,MN,81.48148148148148
55448,Anoka County,MN,22.925457102672294
55449,Anoka County,MN,84.81012658227847
55720,Carlton County,MN,16.36193155180497
55744,Itasca County,MN,27.379278012189406
55746,St. Louis County,MN,12.001875293014534
55906,Olmsted County,MN,51.87529301453352
55912,Mower County,MN,2.484763244256915
55987,Winona County,MN,3.0473511486169715
56003,Nicollet County,MN,73.34739803094233
56007,Freeborn County,MN,6.586966713548992
56071,Scott County,MN,96.55414908579466
56081,Watonwan County,MN,97.5855602437881
56187,Nobles County,MN,48.452883263009845
56201,Kandiyohi County,MN,82.09095171120488
56265,Chippewa County,MN,58.368495077355846
56303,Stearns County,MN,16.080637599624943
56308,Douglas County,MN,13.314580403187998
56329,Benton County,MN,76.46507266760432
56364,Morrison County,MN,95.40553211439288
56470,Hubbard County,MN,48.452883263009845
56520,Wilkin County,MN,95.14767932489451
56537,Otter Tail County,MN,80.96577590248476
56560,Clay County,MN,23.558368495077357
56573,Otter Tail County,MN,72.83169245194561
56601,Beltrami County,MN,2.13314580403188
56633,Hubbard County,MN,75.29301453352086
56701,Pennington County,MN,32.161275199249886
56716,Polk County,MN,15.986872948898265
56721,Polk County,MN,78.99671823722456
38611,Marshall County,MS,43.459915611814345
38614,Coahoma County,MS,63.57243319268636
38652,Union County,MS,89.82653539615565
38654,DeSoto County,MS,54.71167369901547
38668,Tate County,MS,54.617909048288794
38671,DeSoto County,MS,47.304266291608066
38680,DeSoto County,MS,93.10829817158931
38683,Tippah County,MS,78.15283638068449
38737,Sunflower County,MS,98.42944210032817
38824,Prentiss County,MS,80.73136427566807
38828,Union County,MS,96.62447257383965
38829,Prentiss County,MS,59.048288795124236
38834,Alcorn County,MS,8.884200656352554
38849,Lee County,MS,99.15611814345992
38865,Alcorn County,MS,75.05860290670418
38866,Lee County,MS,74.40225035161744
38930,Leflore County,MS,21.659634317862167
39040,Yazoo County,MS,99.88279418659165
39042,Rankin County,MS,18.049695264885138
39046,Madison County,MS,41.068917018284104
39063,Holmes County,MS,94.25691514299109
39073,Rankin County,MS,43.342709798406
39090,Attala County,MS,50.07032348804501
39095,Holmes County,MS,72.9957805907173
39111,Simpson County,MS,82.46601031411159
39120,Adams County,MS,23.277074542897328
39145,Rankin County,MS,87.5996249413971
39154,Hinds County,MS,93.48335677449602
39157,Madison County,MS,48.21847163619316
39180,Warren County,MS,55.836849507735586
39194,Yazoo County,MS,62.79887482419127
39202,Hinds County,MS,98.1950304735115
39204,Hinds County,MS,11.040787623066104
39206,Hinds County,MS,90.64697609001406
39208,Rankin County,MS,78.80918893577122
39209,Hinds County,MS,36.19315518049696
39212,Hinds County,MS,73.83966244725738
39213,Hinds County,MS,66.45569620253164
39216,Hinds County,MS,99.6249413970933
39339,Winston County,MS,80.2625410220347
39350,Neshoba County,MS,39.56868260665729
39367,Wayne County,MS,64.48663853727145
39401,Forrest County,MS,16.38537271448664
39437,Jones County,MS,71.80028129395218
39440,Jones County,MS,37.59962494139709
39451,Greene County,MS,98.10126582278481
39452,George County,MS,12.611345522737928
39479,Covington County,MS,96.27285513361463
39540,Harrison County,MS,85.3961556493202
39565,Jackson County,MS,43.6474449132677
39581,Jackson County,MS,62.541022034692915
39629,Lincoln County,MS,95.33520862634786
39648,Pike County,MS,9.095171120487576
39701,Lowndes County,MS,75.83216127519925
39702,Lowndes County,MS,20.41725269573371
39705,Lowndes County,MS,48.80450070323488
39730,Monroe County,MS,96.69479606188467
39740,Lowndes County,MS,99.20300046882325
39773,Clay County,MS,48.07782466010314
63010,Jefferson County,MO,21.58931082981716
63020,Jefferson County,MO,42.616033755274266
63031,St. Louis County,MO,29.559306141584624
63042,St. Louis County,MO,27.6840131270511
63044,St. Louis County,MO,85.0210970464135
63049,Jefferson County,MO,58.64978902953587
63051,Jefferson County,MO,45.10079699953118
63080,Franklin County,MO,26.254102203469294
63088,St. Louis County,MO,85.63056727613689
63089,Franklin County,MO,80.52039381153305
63101,St. Louis city,MO,97.77308954524145
63107,St. Louis city,MO,46.976090014064695
63109,St. Louis city,MO,60.12658227848101
63113,St. Louis city,MO,44.84294421003282
63116,St. Louis city,MO,18.49507735583685
63122,St. Louis County,MO,38.607594936708864
63123,St. Louis County,MO,20.182841068917018
63129,St. Louis County,MO,26.53539615564932
63133,St. Louis County,MO,86.56821378340366
63136,St. Louis County,MO,15.260196905766527
63137,St. Louis County,MO,21.003281762775433
63141,St. Louis County,MO,85.18518518518519
63304,St. Charles County,MO,61.79090482887951
63367,St. Charles County,MO,36.708860759493675
63368,St. Charles County,MO,23.839662447257385
63379,Lincoln County,MO,72.26910454758556
63385,St. Charles County,MO,46.601031411158
63389,Lincoln County,MO,78.64510079699953
63390,Warren County,MO,55.08673230192217
63601,St. Francois County,MO,25.011720581340835
63701,Cape Girardeau County,MO,52.062822315986864
63775,Perry County,MO,19.62025316455696
63801,Scott County,MO,79.98124706985466
63841,Stoddard County,MO,62.517580872011244
63957,Wayne County,MO,87.38865447726208
64012,Cass County,MO,13.572433192686356
64014,Jackson County,MO,9.751523675574308
64030,Jackson County,MO,7.82934833567745
64052,Jackson County,MO,19.995311767463665
64055,Jackson County,MO,15.775902484763243
64060,Clay County,MO,57.99343647444913
64064,Jackson County,MO,32.65353961556493
64068,Clay County,MO,3.2114392873886546
64078,Cass County,MO,49.24988279418659
64079,Platte County,MO,37.41209563994374
64083,Cass County,MO,19.807782466010316
64089,Clay County,MO,33.19268635724332
64093,Johnson County,MO,18.893577121425224
64114,Jackson County,MO,19.151429910923582
64116,Clay County,MO,11.720581340834507
64118,Clay County,MO,11.954992967651195
64119,Clay County,MO,20.698546647913737
64127,Jackson County,MO,2.086263478668542
64134,Jackson County,MO,5.414908579465542
64138,Jackson County,MO,21.54242850445382
64145,Jackson County,MO,69.90154711673699
64150,Platte County,MO,86.4510079699953
64153,Platte County,MO,74.00375058602907
64157,Clay County,MO,17.416783872480075
64468,Nodaway County,MO,46.71823722456634
64501,Buchanan County,MO,88.51383028598218
64505,Buchanan County,MO,16.244725738396625
64506,Buchanan County,MO,31.270511017346458
64601,Livingston County,MO,61.15799343647444
64735,Henry County,MO,17.27613689639006
64801,Jasper County,MO,5.508673230192217
64804,Jasper County,MO,7.3370839193624
65018,Moniteau County,MO,94.30379746835443
65020,Camden County,MO,92.85044538209095
65201,Boone County,MO,57.66526019690576
65265,Audrain County,MO,38.67791842475386
65270,Randolph County,MO,60.38443506797937
65301,Pettis County,MO,33.94280356305673
65453,Crawford County,MO,69.64369432723862
65536,Laclede County,MO,69.971870604782
65560,Dent County,MO,67.6980778246601
65605,Lawrence County,MO,58.29817158931083
65714,Christian County,MO,83.23956868260666
65721,Christian County,MO,35.27894983591186
65785,Cedar County,MO,61.76746366619784
59105,Yellowstone County,MT,73.27707454289732
59501,Hill County,MT,61.60337552742617
59602,Lewis and Clark County,MT,38.302859821847164
59701,Silver Bow County,MT,43.60056258790436
59718,Gallatin County,MT,66.83075480543835
59801,Missoula County,MT,95.19456165025785
59803,Missoula County,MT,93.92873886544773
59840,Ravalli County,MT,60.54852320675106
68102,Douglas County,NE,98.54664791373652
68105,Douglas County,NE,49.601500234411624
68106,Douglas County,NE,59.25925925925925
68107,Douglas County,NE,31.458040318799814
68111,Douglas County,NE,33.286451007969994
68116,Douglas County,NE,40.83450539146742
68122,Douglas County,NE,91.23300515705579
68135,Douglas County,NE,52.297233942803565
68154,Douglas County,NE,68.00281293952179
68310,Gage County,NE,85.34927332395687
68503,Lancaster County,NE,55.6024378809189
68516,Lancaster County,NE,47.37458977965307
68521,Lancaster County,NE,42.123769338959214
68632,Butler County,NE,95.6868260665729
68701,Madison County,NE,30.98921706516643
68776,Dakota County,NE,63.57243319268636
68949,Phelps County,NE,88.02156586966714
69101,Lincoln County,NE,11.486169714017816
69337,Dawes County,NE,90.76418190342241
89101,Clark County,NV,71.40178152836381
89102,Clark County,NV,31.223628691983123
89103,Clark County,NV,64.34599156118144
89104,Clark County,NV,21.120487576183777
89106,Clark County,NV,28.38724800750117
89107,Clark County,NV,63.384903891233
89108,Clark County,NV,10.243788091889359
89110,Clark County,NV,33.028598218471636
89115,Clark County,NV,9.634317862165963
89119,Clark County,NV,65.0492264416315
89120,Clark County,NV,83.80215658696672
89122,Clark County,NV,77.02766057196438
89123,Clark County,NV,32.72386310360994
89129,Clark County,NV,60.07969995311767
89130,Clark County,NV,34.62259728082513
89131,Clark County,NV,27.848101265822784
89139,Clark County,NV,58.29817158931083
89141,Clark County,NV,59.84528832630098
89149,Clark County,NV,43.9521800281294
89178,Clark County,NV,92.03000468823254
89179,Clark County,NV,94.56165025785279
89183,Clark County,NV,84.73980309423348
89406,Churchill County,NV,23.066104078762308
89408,Lyon County,NV,50.375058602906705
89410,Douglas County,NV,93.88185654008439
89423,Douglas County,NV,67.41678387248008
89429,Lyon County,NV,86.66197843413033
89431,Washoe County,NV,34.55227379278012
89460,Douglas County,NV,58.67323019221753
89509,Washoe County,NV,30.54383497421472
89701,Carson City,NV,68.70604781997187
89815,Elko County,NV,92.87388654477262
03053,Rockingham County,NH,13.431786216596342
03055,Hillsborough County,NH,59.001406469760894
03060,Hillsborough County,NH,14.088138771683075
03064,Hillsborough County,NH,42.592592592592595
03104,Hillsborough County,NH,5.860290670417253
03235,Merrimack County,NH,49.343647444913266
03431,Cheshire County,NH,14.627285513361462
03801,Rockingham County,NH,31.809657759024844
03820,Strafford County,NH,10.103141115799344
03867,Strafford County,NH,35.53680262541022
07005,Morris County,NJ,17.088607594936708
07017,Essex County,NJ,15.682137834036569
07040,Essex County,NJ,99.85935302390999
07047,Hudson County,NJ,1.6174402250351618
07052,Essex County,NJ,6.422878574777309
07054,Morris County,NJ,31.856540084388186
07055,Passaic County,NJ,48.593530239099856
07059,Somerset County,NJ,70.30004688232536
07060,Union County,NJ,2.36755743084857
07063,Union County,NJ,42.00656352555087
07080,Middlesex County,NJ,36.96671354899203
07093,Hudson County,NJ,2.2269104547585563
07103,Essex County,NJ,0.21097046413502107
07104,Essex County,NJ,19.268635724331926
07106,Essex County,NJ,1.5002344116268167
07107,Essex County,NJ,11.322081575246132
07108,Essex County,NJ,33.94280356305673
07109,Essex County,NJ,25.83216127519925
07112,Essex County,NJ,88.23253633380216
07304,Hudson County,NJ,17.627754336615094
07305,Hudson County,NJ,59.634317862165965
07306,Hudson County,NJ,1.7815283638068447
07410,Bergen County,NJ,29.817158931082982
07421,Passaic County,NJ,80.45007032348805
07424,Passaic County,NJ,21.425222691045477
07452,Bergen County,NJ,99.7655883731833
07456,Passaic County,NJ,91.11579934364744
07501,Passaic County,NJ,0.39849976558837313
07514,Passaic County,NJ,15.541490857946554
07621,Bergen County,NJ,37.17768401312705
07704,Monmouth County,NJ,94.1631504922644
07731,Monmouth County,NJ,44.303797468354425
07734,Monmouth County,NJ,9.845288326300984
07735,Monmouth County,NJ,16.502578527894983
07901,Union County,NJ,57.14955461790905
07928,Morris County,NJ,84.97421472105017
07946,Morris County,NJ,98.7810595405532
08002,Camden County,NJ,97.74964838255977
08003,Camden County,NJ,12.658227848101266
08012,Camden County,NJ,39.09985935302391
08033,Camden County,NJ,47.37458977965307
08037,Atlantic County,NJ,6.891701828410689
08051,Gloucester County,NJ,38.98265353961556
08054,Burlington County,NJ,11.626816690107828
08070,Salem County,NJ,28.973277074542896
08084,Camden County,NJ,88.81856540084388
08104,Camden County,NJ,0.1875293014533521
08105,Camden County,NJ,33.91936240037506
08107,Camden County,NJ,14.510079699953119
08205,Atlantic County,NJ,47.06985466479137
08232,Atlantic County,NJ,1.8518518518518516
08302,Cumberland County,NJ,0.2812939521800281
08318,Salem County,NJ,36.240037505860286
08360,Cumberland County,NJ,7.477730895452414
08515,Burlington County,NJ,97.96061884669479
08527,Ocean County,NJ,17.81528363806845
08535,Monmouth County,NJ,96.99953117674637
08701,Ocean County,NJ,17.674636661978436
08723,Ocean County,NJ,6.727613689639006
08724,Ocean County,NJ,3.492733239568683
08753,Ocean County,NJ,0.5625879043600562
08817,Middlesex County,NJ,10.079699953117673
08831,Middlesex County,NJ,15.447726207219878
08835,Somerset County,NJ,75.92592592592592
08844,Somerset County,NJ,22.573839662447256
08857,Middlesex County,NJ,2.8363806844819504
08861,Middlesex County,NJ,4.406938584153774
08865,Warren County,NJ,1.4767932489451476
08869,Somerset County,NJ,80.63759962494139
08873,Somerset County,NJ,26.183778715424282
08876,Somerset County,NJ,8.626347866854196
08882,Middlesex County,NJ,88.18565400843882
08902,Middlesex County,NJ,46.20253164556962
87002,Valencia County,NM,30.590717299578056
87031,Valencia County,NM,41.51429910923582
87102,Bernalillo County,NM,10.360993905297702
87105,Bernalillo County,NM,1.1720581340834506
87107,Bernalillo County,NM,46.132208157524616
87108,Bernalillo County,NM,2.344116268166901
87111,Bernalillo County,NM,9.118612283169245
87112,Bernalillo County,NM,6.047819971870605
87113,Bernalillo County,NM,62.61134552273793
87114,Bernalillo County,NM,2.9770276605719643
87120,Bernalillo County,NM,3.5161744022503516
87121,Bernalillo County,NM,52.85982184716362
87123,Bernalillo County,NM,64.41631504922644
87124,Sandoval County,NM,4.430379746835443
87144,Sandoval County,NM,32.93483356774496
87301,McKinley County,NM,12.517580872011253
87321,McKinley County,NM,93.64744491326769
87325,McKinley County,NM,89.17018284106891
87401,San Juan County,NM,7.36052508204407
87410,San Juan County,NM,74.47257383966245
87413,San Juan County,NM,78.01218940459447
87420,San Juan County,NM,15.213314580403187
87505,Santa Fe County,NM,37.24800750117206
87508,Santa Fe County,NM,80.07501172058134
87528,Rio Arriba County,NM,76.65260196905767
88001,Doa Ana County,NM,57.96999531176746
88007,Doa Ana County,NM,67.53398968588841
88011,Doa Ana County,NM,33.70839193624004
88012,Doa Ana County,NM,47.93717768401313
88021,Doa Ana County,NM,93.17862165963432
88030,Luna County,NM,91.09235818096577
88061,Grant County,NM,93.95218002812939
88081,Otero County,NM,61.97843413033286
88101,Curry County,NM,58.25128926394749
88130,Roosevelt County,NM,75.62119081106424
88201,Chaves County,NM,18.260665729020157
88210,Eddy County,NM,24.238162212845758
88220,Eddy County,NM,65.14299109235819
88231,Lea County,NM,79.48898265353962
88240,Lea County,NM,82.41912798874824
88242,Lea County,NM,83.40365682137833
88260,Lea County,NM,22.52695733708392
88352,Otero County,NM,93.202062822316
10025,New York County,NY,26.81669010782935
10026,New York County,NY,56.516643225503984
10032,New York County,NY,20.534458509142052
10035,New York County,NY,1.89873417721519
10037,New York County,NY,51.6643225503985
10303,Richmond County,NY,22.081575246132207
10306,Richmond County,NY,8.76699484294421
10312,Richmond County,NY,24.777308954524145
10314,Richmond County,NY,4.96952648851383
10451,Bronx County,NY,28.527894983591185
10452,Bronx County,NY,0.16408813877168307
10453,Bronx County,NY,2.250351617440225
10456,Bronx County,NY,0.11720581340834506
10457,Bronx County,NY,11.978434130332865
10458,Bronx County,NY,10.642287857477731
10459,Bronx County,NY,1.5705578996718237
10462,Bronx County,NY,13.502109704641349
10465,Bronx County,NY,43.7177684013127
10466,Bronx County,NY,22.33942803563057
10467,Bronx County,NY,5.578996718237224
10468,Bronx County,NY,11.275199249882794
10469,Bronx County,NY,7.946554149085795
10470,Bronx County,NY,33.59118612283169
10472,Bronx County,NY,0.44538209095171116
10473,Bronx County,NY,10.43131739334271
10475,Bronx County,NY,56.37599624941397
10520,Westchester County,NY,86.3103609939053
10550,Westchester County,NY,68.47163619315518
10552,Westchester County,NY,72.55039849976559
10566,Westchester County,NY,36.3103609939053
10701,Westchester County,NY,81.71589310829818
10703,Westchester County,NY,87.03703703703704
10705,Westchester County,NY,79.88748241912799
10710,Westchester County,NY,76.25410220346929
10952,Rockland County,NY,77.63713080168776
10990,Orange County,NY,79.3483356774496
11096,Nassau County,NY,92.56915142991092
11105,Queens County,NY,39.99062353492733
11204,Kings County,NY,41.58462259728083
11205,Kings County,NY,23.159868729488984
11206,Kings County,NY,27.21518987341772
11207,Kings County,NY,5.43834974214721
11208,Kings County,NY,50.492264416315045
11212,Kings County,NY,8.27473042662916
11214,Kings County,NY,27.613689639006093
11217,Kings County,NY,22.480075011720583
11219,Kings County,NY,42.264416315049225
11220,Kings County,NY,0.9376465072667605
11221,Kings County,NY,0.7266760431317393
11223,Kings County,NY,9.774964838255977
11224,Kings County,NY,8.696671354899204
11226,Kings County,NY,33.40365682137834
11229,Kings County,NY,13.26769807782466
11233,Kings County,NY,39.920300046882325
11234,Kings County,NY,32.6769807782466
11235,Kings County,NY,79.37177684013128
11236,Kings County,NY,9.70464135021097
11237,Kings County,NY,11.579934364744492
11354,Queens County,NY,74.9648382559775
11365,Queens County,NY,29.887482419127988
11367,Queens County,NY,58.76699484294421
11368,Queens County,NY,53.21143928738865
11370,Queens County,NY,29.067041725269572
11373,Queens County,NY,81.36427566807313
11377,Queens County,NY,80.3328645100797
11385,Queens County,NY,65.9634317862166
11412,Queens County,NY,83.80215658696672
11416,Queens County,NY,75.59774964838256
11417,Queens County,NY,29.981247069854668
11418,Queens County,NY,26.230661040787624
11419,Queens County,NY,21.706516643225505
11420,Queens County,NY,27.9887482419128
11421,Queens County,NY,47.140178152836384
11433,Queens County,NY,39.31082981715893
11434,Queens County,NY,66.38537271448664
11435,Queens County,NY,21.09704641350211
11530,Nassau County,NY,90.22503516174403
11550,Nassau County,NY,62.3300515705579
11552,Nassau County,NY,92.12376933895922
11553,Nassau County,NY,65.82278481012658
11563,Nassau County,NY,87.9043600562588
11575,Nassau County,NY,18.49507735583685
11580,Nassau County,NY,38.79512423816222
11590,Nassau County,NY,27.47304266291608
11596,Nassau County,NY,98.92170651664323
11691,Queens County,NY,33.356774496015
11701,Suffolk County,NY,87.15424285044539
11704,Suffolk County,NY,90.27191748710736
11722,Suffolk County,NY,10.90014064697609
11729,Suffolk County,NY,81.87998124706985
11738,Suffolk County,NY,73.41772151898735
11757,Suffolk County,NY,71.96436943272386
11758,Nassau County,NY,80.49695264885138
11763,Suffolk County,NY,73.69901547116737
11776,Suffolk County,NY,36.404125644631975
11967,Suffolk County,NY,45.382090951711206
12020,Saratoga County,NY,32.161275199249886
12037,Columbia County,NY,93.01453352086263
12047,Albany County,NY,41.6783872480075
12065,Saratoga County,NY,11.462728551336147
12068,Montgomery County,NY,93.90529770276605
12078,Fulton County,NY,53.000468823253634
12095,Fulton County,NY,25.761837787154242
12143,Albany County,NY,79.48898265353962
12180,Rensselaer County,NY,0.49226441631504925
12205,Albany County,NY,34.10689170182841
12206,Albany County,NY,9.0014064697609
12210,Albany County,NY,69.33895921237693
12307,Schenectady County,NY,46.858884200656355
12401,Ulster County,NY,9.681200187529301
12428,Ulster County,NY,70.13595874355369
12446,Ulster County,NY,88.79512423816222
12534,Columbia County,NY,26.629160806375996
12571,Dutchess County,NY,83.77871542428504
12586,Orange County,NY,84.99765588373184
12601,Dutchess County,NY,14.392873886544772
12801,Warren County,NY,32.3722456633849
12816,Washington County,NY,73.79278012189404
12827,Washington County,NY,97.37458977965308
12846,Warren County,NY,99.24988279418659
12901,Clinton County,NY,7.782466010314111
12972,Clinton County,NY,36.35724331926863
12983,Franklin County,NY,29.746835443037973
13021,Cayuga County,NY,8.110642287857479
13032,Madison County,NY,45.87435536802625
13036,Oswego County,NY,39.029535864978904
13068,Tompkins County,NY,60.85325832161275
13069,Oswego County,NY,1.7346460384435067
13104,Onondaga County,NY,63.43178621659634
13165,Seneca County,NY,40.17815283638069
13207,Onondaga County,NY,15.635255508673229
13210,Onondaga County,NY,19.057665260196906
13316,Oneida County,NY,43.88185654008439
13365,Herkimer County,NY,17.955930614158465
13413,Oneida County,NY,60.19690576652602
13421,Madison County,NY,37.22456633849039
13492,Oneida County,NY,43.9521800281294
13617,St. Lawrence County,NY,17.862165963431785
13625,St. Lawrence County,NY,91.72526957337084
13669,St. Lawrence County,NY,10.384435067979373
13676,St. Lawrence County,NY,16.502578527894983
13732,Tioga County,NY,27.097984060009377
13760,Broome County,NY,2.625410220346929
13790,Broome County,NY,3.4458509142053444
13815,Chenango County,NY,5.977496483825598
13849,Otsego County,NY,84.36474449132677
13850,Broome County,NY,6.774496015002344
13901,Broome County,NY,1.1486169714017815
14001,Erie County,NY,52.34411626816689
14020,Genesee County,NY,4.805438349742147
14032,Erie County,NY,71.72995780590718
14051,Erie County,NY,70.90951711204876
14052,Erie County,NY,36.28691983122363
14062,Chautauqua County,NY,90.3187998124707
14075,Erie County,NY,46.577590248476326
14085,Erie County,NY,68.58884200656352
14086,Erie County,NY,9.024847632442569
14092,Niagara County,NY,30.98921706516643
14094,Niagara County,NY,0.42194092827004215
14098,Orleans County,NY,81.08298171589311
14120,Niagara County,NY,1.3830285982184716
14127,Erie County,NY,6.446319737458977
14132,Niagara County,NY,73.86310360993905
14138,Cattaraugus County,NY,94.37412095639944
14204,Erie County,NY,54.54758556024378
14207,Erie County,NY,88.65447726207219
14208,Erie County,NY,41.88935771214252
14210,Erie County,NY,39.170182841068915
14211,Erie County,NY,3.1645569620253164
14215,Erie County,NY,23.01922175339897
14216,Erie County,NY,59.47022972339428
14218,Erie County,NY,8.462259728082513
14220,Erie County,NY,24.753867791842477
14221,Erie County,NY,4.594467885607126
14224,Erie County,NY,12.119081106422879
14225,Erie County,NY,3.187998124706985
14226,Erie County,NY,15.072667604313175
14227,Erie County,NY,81.03609939052977
14304,Niagara County,NY,54.336615096108765
14305,Niagara County,NY,86.38068448195031
14411,Orleans County,NY,13.384903891233005
14420,Monroe County,NY,27.144866385372712
14424,Ontario County,NY,0.7032348804500703
14425,Ontario County,NY,7.454289732770746
14435,Livingston County,NY,90.76418190342241
14450,Monroe County,NY,17.51054852320675
14454,Livingston County,NY,79.7233942803563
14456,Ontario County,NY,15.142991092358182
14464,Monroe County,NY,32.48945147679325
14466,Ontario County,NY,89.73277074542897
14468,Monroe County,NY,29.301453352086266
14471,Ontario County,NY,89.24050632911393
14472,Monroe County,NY,28.45757149554618
14482,Genesee County,NY,31.6924519456165
14489,Wayne County,NY,45.80403187998125
14502,Wayne County,NY,70.62822315986872
14510,Livingston County,NY,40.50632911392405
14519,Wayne County,NY,10.68917018284107
14525,Genesee County,NY,80.47351148616971
14527,Yates County,NY,91.93624003750585
14533,Livingston County,NY,95.0773558368495
14534,Monroe County,NY,28.293483356774495
14548,Ontario County,NY,74.00375058602907
14551,Wayne County,NY,29.11392405063291
14559,Monroe County,NY,4.336615096108766
14564,Ontario County,NY,8.790436005625878
14569,Wyoming County,NY,46.41350210970464
14580,Monroe County,NY,2.390998593530239
14586,Monroe County,NY,64.01781528363807
14589,Wayne County,NY,65.89310829817158
14605,Monroe County,NY,17.651195499296765
14606,Monroe County,NY,28.270042194092827
14608,Monroe County,NY,5.22737927801219
14609,Monroe County,NY,23.769338959212376
14611,Monroe County,NY,14.369432723863104
14613,Monroe County,NY,39.193624003750585
14616,Monroe County,NY,39.7093295827473
14617,Monroe County,NY,13.619315518049696
14618,Monroe County,NY,7.172995780590717
14619,Monroe County,NY,43.69432723863104
14620,Monroe County,NY,12.869198312236287
14621,Monroe County,NY,6.2119081106422875
14623,Monroe County,NY,47.51523675574308
14624,Monroe County,NY,16.924519456165026
14625,Monroe County,NY,28.17627754336615
14626,Monroe County,NY,0.8438818565400843
14701,Chautauqua County,NY,0.7501172058134083
14850,Tompkins County,NY,1.6643225503984997
14870,Steuben County,NY,40.41256446319738
14873,Steuben County,NY,92.40506329113924
14892,Tioga County,NY,62.28316924519456
27030,Surry County,NC,2.297233942803563
27048,Rockingham County,NC,53.51617440225035
27051,Forsyth County,NC,61.4158462259728
27055,Yadkin County,NC,44.72573839662447
27103,Forsyth County,NC,6.305672761368964
27105,Forsyth County,NC,26.418190342240976
27203,Randolph County,NC,12.986404125644633
27215,Alamance County,NC,49.57805907172996
27217,Alamance County,NC,5.391467416783873
27260,Guilford County,NC,10.712611345522738
27292,Davidson County,NC,1.3361462728551337
27313,Guilford County,NC,76.76980778246602
27316,Randolph County,NC,83.12236286919831
27332,Lee County,NC,50.961087669948434
27349,Alamance County,NC,64.65072667604313
27360,Davidson County,NC,1.0548523206751055
27370,Randolph County,NC,53.65682137834037
27371,Montgomery County,NC,61.251758087201125
27401,Guilford County,NC,14.111579934364746
27405,Guilford County,NC,20.745428973277075
27406,Guilford County,NC,9.821847163619315
27407,Guilford County,NC,8.485700890764182
27410,Guilford County,NC,16.17440225035162
27501,Harnett County,NC,32.6769807782466
27504,Johnston County,NC,72.48007501172057
27516,Orange County,NC,15.916549460853258
27520,Johnston County,NC,45.663384903891235
27521,Harnett County,NC,92.78012189404595
27525,Franklin County,NC,36.9901547116737
27526,Wake County,NC,13.220815752461323
27530,Wayne County,NC,25.996249413970933
27534,Wayne County,NC,18.49507735583685
27536,Vance County,NC,14.181903422409754
27537,Vance County,NC,77.14486638537271
27539,Wake County,NC,69.17487107360525
27545,Wake County,NC,25.714955461790908
27565,Granville County,NC,35.41959681200188
27577,Johnston County,NC,56.79793717768401
27587,Wake County,NC,10.196905766526019
27589,Warren County,NC,96.10876699484294
27604,Wake County,NC,17.04172526957337
27607,Wake County,NC,89.24050632911393
27608,Wake County,NC,94.96015002344116
27610,Wake County,NC,67.48710736052507
27612,Wake County,NC,38.37318330989217
27614,Wake County,NC,48.28879512423816
27703,Durham County,NC,20.60478199718706
27704,Durham County,NC,39.12330051570558
27707,Durham County,NC,5.110173464603844
27713,Durham County,NC,11.6502578527895
27801,Edgecombe County,NC,21.729957805907173
27803,Nash County,NC,27.824660103141113
27804,Nash County,NC,17.81528363806845
27807,Nash County,NC,98.05438349742147
27822,Wilson County,NC,71.72995780590718
27834,Pitt County,NC,14.69760900140647
27856,Nash County,NC,59.306141584622594
27858,Pitt County,NC,12.400375058602906
27886,Edgecombe County,NC,19.573370839193625
27896,Wilson County,NC,62.869198312236286
28001,Stanly County,NC,16.197843413033286
28025,Cabarrus County,NC,4.26629160806376
28027,Cabarrus County,NC,8.438818565400844
28043,Rutherford County,NC,21.56586966713549
28052,Gaston County,NC,12.79887482419128
28054,Gaston County,NC,8.813877168307547
28078,Mecklenburg County,NC,16.15096108766995
28080,Lincoln County,NC,86.24003750586029
28086,Cleveland County,NC,11.931551804969526
28090,Cleveland County,NC,49.13267698077824
28092,Lincoln County,NC,10.782934833567746
28098,Gaston County,NC,94.1631504922644
28104,Union County,NC,47.6558837318331
28110,Union County,NC,35.04453820909517
28114,Rutherford County,NC,78.41068917018285
28115,Iredell County,NC,65.11954992967651
28120,Gaston County,NC,37.38865447726207
28150,Cleveland County,NC,35.04453820909517
28173,Union County,NC,21.448663853727147
28205,Mecklenburg County,NC,32.864510079699954
28206,Mecklenburg County,NC,53.49273323956868
28209,Mecklenburg County,NC,67.27613689639006
28210,Mecklenburg County,NC,33.14580403187998
28215,Mecklenburg County,NC,27.004219409282697
28216,Mecklenburg County,NC,3.5864978902953584
28227,Mecklenburg County,NC,32.887951242381625
28262,Mecklenburg County,NC,19.151429910923582
28269,Mecklenburg County,NC,24.331926863572434
28270,Mecklenburg County,NC,40.57665260196906
28278,Mecklenburg County,NC,40.29535864978903
28303,Cumberland County,NC,86.16971401781528
28312,Cumberland County,NC,73.48804500703235
28314,Cumberland County,NC,73.34739803094233
28318,Sampson County,NC,81.7627754336615
28326,Harnett County,NC,65.23675574308486
28333,Wayne County,NC,44.303797468354425
28334,Sampson County,NC,13.595874355368027
28340,Robeson County,NC,67.11204875761838
28348,Cumberland County,NC,18.96390060947023
28356,Harnett County,NC,95.0773558368495
28358,Robeson County,NC,68.28410689170182
28364,Robeson County,NC,25.691514299109237
28365,Wayne County,NC,42.709798406000935
28371,Robeson County,NC,81.57524613220815
28372,Robeson County,NC,53.30520393811533
28376,Hoke County,NC,43.38959212376934
28377,Robeson County,NC,85.3258321612752
28383,Robeson County,NC,65.51804969526489
28391,Cumberland County,NC,92.3581809657759
28398,Duplin County,NC,92.21753398968589
28443,Pender County,NC,37.08391936240037
28461,Brunswick County,NC,24.542897327707454
28462,Brunswick County,NC,35.72433192686357
28463,Columbus County,NC,53.609939052977026
28466,Duplin County,NC,77.33239568682608
28472,Columbus County,NC,77.40271917487107
28480,New Hanover County,NC,96.74167838724802
28501,Lenoir County,NC,56.07126113455227
28532,Craven County,NC,78.41068917018285
28540,Onslow County,NC,12.54102203469292
28546,Onslow County,NC,57.102672292545705
28574,Onslow County,NC,48.61697140178153
28586,Craven County,NC,67.34646038443508
28590,Pitt County,NC,41.068917018284104
28601,Catawba County,NC,43.53023909985935
28607,Watauga County,NC,62.7754336615096
28621,Surry County,NC,56.446319737458985
28625,Iredell County,NC,28.73886544772621
28638,Caldwell County,NC,33.872480075011715
28645,Caldwell County,NC,9.142053445850914
28650,Catawba County,NC,45.19456165025785
28651,Wilkes County,NC,93.24894514767934
28655,Burke County,NC,1.8284106891701828
28658,Catawba County,NC,55.48523206751055
28677,Iredell County,NC,6.657290201593999
28681,Alexander County,NC,9.376465072667605
28690,Burke County,NC,34.10689170182841
28697,Wilkes County,NC,43.20206282231599
28704,Buncombe County,NC,76.76980778246602
28715,Buncombe County,NC,29.278012189404595
28771,Graham County,NC,88.42006563525551
28778,Buncombe County,NC,75.83216127519925
28779,Jackson County,NC,36.826066572902015
28789,Jackson County,NC,75.92592592592592
28801,Buncombe County,NC,81.66901078293483
28906,Cherokee County,NC,29.41865916549461
58103,Cass County,ND,14.650726676043133
58318,Bottineau County,ND,94.84294421003283
58401,Stutsman County,ND,79.25457102672293
58501,Burleigh County,ND,63.43178621659634
58503,Burleigh County,ND,17.13548992030005
58601,Stark County,ND,81.22362869198312
58701,Ward County,ND,36.89639006094702
58703,Ward County,ND,72.10501640881388
58854,McKenzie County,ND,77.21518987341773
43015,Delaware County,OH,44.39756211908111
43026,Franklin County,OH,9.23581809657759
43028,Knox County,OH,84.0365682137834
43055,Licking County,OH,0.30473511486169713
43056,Licking County,OH,20.6516643225504
43068,Franklin County,OH,3.8443506797937177
43078,Champaign County,OH,17.53398968588842
43085,Franklin County,OH,45.80403187998125
43110,Franklin County,OH,11.345522737927801
43125,Franklin County,OH,88.11533052039381
43130,Fairfield County,OH,12.822315986872947
43146,Pickaway County,OH,79.06704172526958
43160,Fayette County,OH,24.285044538209092
43206,Franklin County,OH,40.60009376465072
43207,Franklin County,OH,0.32817627754336615
43211,Franklin County,OH,4.219409282700422
43213,Franklin County,OH,3.6568213783403656
43219,Franklin County,OH,44.86638537271448
43224,Franklin County,OH,1.875293014533521
43227,Franklin County,OH,10.782934833567746
43229,Franklin County,OH,13.502109704641349
43302,Marion County,OH,0.46882325363338023
43326,Hardin County,OH,60.78293483356775
43450,Wood County,OH,95.52273792780122
43512,Defiance County,OH,64.95546179090483
43528,Lucas County,OH,22.0112517580872
43545,Henry County,OH,74.19127988748242
43558,Fulton County,OH,35.58368495077356
43567,Fulton County,OH,29.184247538677923
43571,Lucas County,OH,71.87060478199719
43604,Lucas County,OH,88.49038912330052
43605,Lucas County,OH,0.5860290670417253
43607,Lucas County,OH,12.892639474917955
43609,Lucas County,OH,36.75574308485701
43610,Lucas County,OH,45.87435536802625
43611,Lucas County,OH,6.024378809188936
43612,Lucas County,OH,1.3127051101734646
43613,Lucas County,OH,8.673230192217533
43614,Lucas County,OH,20.464135021097047
43615,Lucas County,OH,41.397093295827474
43623,Lucas County,OH,39.49835911861228
43725,Guernsey County,OH,6.258790436005627
43777,Muskingum County,OH,83.12236286919831
43812,Coshocton County,OH,38.420065635255504
43832,Tuscarawas County,OH,39.80309423347398
43943,Jefferson County,OH,76.04313173933427
43944,Jefferson County,OH,90.3187998124707
43953,Jefferson County,OH,16.85419596812002
43964,Jefferson County,OH,12.306610407876232
44004,Ashtabula County,OH,35.88842006563526
44030,Ashtabula County,OH,54.031879981247066
44035,Lorain County,OH,17.182372245663384
44039,Lorain County,OH,2.789498359118612
44052,Lorain County,OH,16.994842944210035
44054,Lorain County,OH,19.198312236286917
44055,Lorain County,OH,17.393342709798407
44056,Summit County,OH,74.63666197843412
44057,Lake County,OH,71.05016408813877
44060,Lake County,OH,2.414439756211908
44092,Lake County,OH,24.6601031411158
44095,Lake County,OH,9.071729957805907
44106,Cuyahoga County,OH,3.9615564932020626
44107,Cuyahoga County,OH,5.3211439287388655
44108,Cuyahoga County,OH,83.63806844819504
44109,Cuyahoga County,OH,4.922644163150492
44110,Cuyahoga County,OH,3.609939052977028
44111,Cuyahoga County,OH,4.313173933427098
44112,Cuyahoga County,OH,2.8363806844819504
44118,Cuyahoga County,OH,4.547585560243788
44121,Cuyahoga County,OH,18.424753867791843
44123,Cuyahoga County,OH,13.75996249413971
44126,Cuyahoga County,OH,31.153305203938114
44135,Cuyahoga County,OH,0.8673230192217534
44137,Cuyahoga County,OH,1.969057665260197
44144,Cuyahoga County,OH,4.73511486169714
44146,Cuyahoga County,OH,2.273792780121894
44203,Summit County,OH,2.0393811533052038
44212,Medina County,OH,7.993436474449132
44221,Summit County,OH,43.88185654008439
44224,Summit County,OH,10.056258790436006
44240,Portage County,OH,13.689639006094703
44256,Medina County,OH,1.1954992967651195
44266,Portage County,OH,34.59915611814346
44278,Summit County,OH,39.31082981715893
44288,Portage County,OH,90.3187998124707
44301,Summit County,OH,43.76465072667604
44305,Summit County,OH,25.058602906704174
44306,Summit County,OH,66.76043131739334
44310,Summit County,OH,4.125644631973746
44321,Summit County,OH,61.06422878574777
44410,Trumbull County,OH,20.511017346460385
44420,Trumbull County,OH,67.60431317393343
44440,Trumbull County,OH,73.88654477262072
44445,Columbiana County,OH,85.67744960150023
44446,Trumbull County,OH,5.625879043600563
44460,Columbiana County,OH,9.49367088607595
44485,Trumbull County,OH,83.70839193624003
44512,Mahoning County,OH,3.938115330520394
44514,Mahoning County,OH,59.939052977027664
44601,Stark County,OH,2.5082044069385843
44615,Carroll County,OH,57.735583684950775
44644,Carroll County,OH,82.58321612751992
44646,Stark County,OH,3.5630567276136893
44647,Stark County,OH,30.37974683544304
44654,Holmes County,OH,64.53352086263479
44657,Stark County,OH,67.81528363806845
44662,Stark County,OH,94.72573839662446
44676,Wayne County,OH,93.5067979371777
44685,Summit County,OH,57.54805438349743
44691,Wayne County,OH,53.914674167838726
44705,Stark County,OH,38.162212845757146
44706,Stark County,OH,46.507266760431314
44708,Stark County,OH,13.71308016877637
44718,Stark County,OH,85.98218471636193
44820,Crawford County,OH,34.950773558368496
44827,Crawford County,OH,64.08813877168308
44830,Seneca County,OH,7.571495546179091
44837,Huron County,OH,72.59728082512893
44857,Huron County,OH,66.29160806375997
44870,Erie County,OH,65.2836380684482
44889,Huron County,OH,87.10736052508204
44903,Richland County,OH,49.0154711673699
44904,Richland County,OH,62.705110173464604
44905,Richland County,OH,47.53867791842475
45002,Hamilton County,OH,64.13502109704642
45005,Warren County,OH,17.440225035161745
45014,Butler County,OH,6.235349273323957
45030,Hamilton County,OH,35.232067510548525
45036,Warren County,OH,51.57055789967182
45040,Warren County,OH,45.077355836849506
45042,Butler County,OH,50.468823253633374
45103,Clermont County,OH,40.060947022972336
45121,Brown County,OH,95.49929676511954
45123,Highland County,OH,44.44444444444444
45133,Highland County,OH,64.58040318799813
45140,Clermont County,OH,36.59165494608533
45171,Brown County,OH,71.61275199249883
45177,Clinton County,OH,55.27426160337553
45202,Hamilton County,OH,9.04828879512424
45209,Hamilton County,OH,83.23956868260666
45213,Hamilton County,OH,58.76699484294421
45215,Hamilton County,OH,38.045007032348806
45224,Hamilton County,OH,9.915611814345992
45238,Hamilton County,OH,24.988279418659165
45239,Hamilton County,OH,79.46554149085794
45244,Hamilton County,OH,31.76277543366151
45251,Hamilton County,OH,32.20815752461322
45255,Hamilton County,OH,75.22269104547586
45342,Montgomery County,OH,4.383497421472105
45344,Clark County,OH,37.69338959212377
45347,Preble County,OH,58.46225972808251
45365,Shelby County,OH,4.781997187060478
45371,Miami County,OH,34.66947960618847
45385,Greene County,OH,21.77684013127051
45405,Montgomery County,OH,11.509610876699485
45406,Montgomery County,OH,6.39943741209564
45414,Montgomery County,OH,14.814814814814813
45417,Montgomery County,OH,46.507266760431314
45431,Montgomery County,OH,26.957337083919363
45458,Montgomery County,OH,21.026722925457104
45459,Montgomery County,OH,71.82372245663386
45502,Clark County,OH,84.31786216596343
45503,Clark County,OH,30.75480543834974
45505,Clark County,OH,62.07219878105954
45612,Ross County,OH,87.0604781997187
45614,Gallia County,OH,61.251758087201125
45629,Scioto County,OH,66.80731364275668
45631,Gallia County,OH,4.125644631973746
45656,Jackson County,OH,71.40178152836381
45659,Lawrence County,OH,68.77637130801688
45669,Lawrence County,OH,8.063759962494139
45680,Lawrence County,OH,23.488045007032348
45692,Jackson County,OH,93.83497421472104
45723,Athens County,OH,76.86357243319269
45750,Washington County,OH,4.75855602437881
45769,Meigs County,OH,72.94889826535396
45801,Allen County,OH,4.571026722925457
45804,Allen County,OH,52.390998593530234
45810,Hardin County,OH,83.12236286919831
45840,Hancock County,OH,0.6563525550867323
45887,Allen County,OH,84.62259728082513
73003,Oklahoma County,OK,44.936708860759495
73013,Oklahoma County,OK,16.033755274261605
73030,Murray County,OK,70.97984060009377
73069,Cleveland County,OK,46.20253164556962
73080,McClain County,OK,63.73652133145804
73086,Murray County,OK,78.363806844819507
73099,Canadian County,OK,5.69620253164557
73108,Oklahoma County,OK,46.15564932020628
73109,Oklahoma County,OK,44.72573839662447
73110,Oklahoma County,OK,49.10923581809657
73114,Oklahoma County,OK,79.13736521331458
73119,Oklahoma County,OK,66.643225503985
73120,Oklahoma County,OK,23.93342709798406
73130,Oklahoma County,OK,41.23300515705579
73135,Oklahoma County,OK,24.3553680262541
73159,Oklahoma County,OK,57.735583684950775
73160,Cleveland County,OK,70.81575246132208
73460,Johnston County,OK,72.36286919831224
73501,Comanche County,OK,36.49789029535865
73521,Jackson County,OK,48.12470698546648
73533,Stephens County,OK,34.786685419596814
73601,Custer County,OK,44.936708860759495
73651,Kiowa County,OK,90.3187998124707
73703,Garfield County,OK,32.63009845288326
73801,Woodward County,OK,73.08954524144397
74010,Creek County,OK,94.91326769807783
74012,Tulsa County,OK,68.26066572902016
74014,Wagoner County,OK,19.479606188466946
74016,Rogers County,OK,88.44350679793718
74021,Tulsa County,OK,52.062822315986864
74023,Payne County,OK,74.28504453820909
74033,Tulsa County,OK,87.17768401312705
74055,Tulsa County,OK,33.6615096108767
74063,Tulsa County,OK,67.90904828879512
74066,Creek County,OK,73.9803094233474
74075,Payne County,OK,71.05016408813877
74104,Tulsa County,OK,69.83122362869199
74106,Tulsa County,OK,20.229723394280356
74107,Tulsa County,OK,72.6910454758556
74110,Tulsa County,OK,70.55789967182372
74115,Tulsa County,OK,78.87951242381622
74116,Tulsa County,OK,99.53117674636663
74127,Tulsa County,OK,72.73792780121894
74128,Tulsa County,OK,59.39990623534928
74129,Tulsa County,OK,86.21659634317862
74133,Tulsa County,OK,44.631973745897795
74134,Tulsa County,OK,79.55930614158461
74135,Tulsa County,OK,62.541022034692915
74136,Tulsa County,OK,66.643225503985
74137,Tulsa County,OK,83.5911861228317
74146,Tulsa County,OK,46.085325832161274
74352,Mayes County,OK,75.73839662447257
74354,Ottawa County,OK,64.20534458509141
74361,Mayes County,OK,44.655414908579466
74401,Muskogee County,OK,97.02297233942804
74403,Muskogee County,OK,75.12892639474919
74432,McIntosh County,OK,86.35724331926863
74435,Sequoyah County,OK,92.68635724331928
74441,Cherokee County,OK,73.88654477262072
74447,Okmulgee County,OK,49.03891233005157
74464,Cherokee County,OK,3.2583216127519923
74467,Wagoner County,OK,98.00750117205813
74547,Pittsburg County,OK,99.36708860759494
74601,Kay County,OK,25.17580872011252
74820,Pontotoc County,OK,16.502578527894983
74851,Pottawatomie County,OK,60.970464135021096
74873,Pottawatomie County,OK,38.23253633380216
74948,Sequoyah County,OK,43.741209563994374
74953,Le Flore County,OK,86.28691983122363
97056,Columbia County,OR,50.398499765588376
97062,Washington County,OR,38.53727144866385
97070,Clackamas County,OR,42.123769338959214
97071,Marion County,OR,36.49789029535865
97078,Washington County,OR,49.24988279418659
97086,Clackamas County,OR,33.6615096108767
97116,Washington County,OR,76.32442569151429
97124,Washington County,OR,40.24847632442569
97128,Yamhill County,OR,8.391936240037506
97211,Multnomah County,OR,25.410220346929208
97216,Multnomah County,OR,31.809657759024844
97222,Clackamas County,OR,14.93202062822316
97224,Washington County,OR,32.77074542897328
97229,Washington County,OR,19.385841537740273
97230,Multnomah County,OR,35.86497890295359
97233,Multnomah County,OR,6.938584153774027
97301,Marion County,OR,54.195968120018755
97306,Marion County,OR,36.404125644631975
97338,Polk County,OR,27.613689639006093
97411,Coos County,OR,66.47913736521332
97415,Curry County,OR,27.70745428973277
97423,Coos County,OR,77.80121894045945
97424,Lane County,OR,25.50398499765588
97478,Lane County,OR,20.768870135958746
97503,Jackson County,OR,44.42100328176278
97527,Josephine County,OR,56.93858415377403
97601,Klamath County,OR,7.548054383497421
97603,Klamath County,OR,32.02062822315987
97702,Deschutes County,OR,25.574308485700893
97754,Crook County,OR,58.86075949367089
97756,Deschutes County,OR,20.089076418190345
97801,Umatilla County,OR,18.565400843881857
97818,Morrow County,OR,76.09001406469761
97827,Union County,OR,99.60150023441162
97838,Umatilla County,OR,60.57196436943273
15009,Beaver County,PA,82.3722456633849
15017,Allegheny County,PA,50.773558368495074
15022,Washington County,PA,65.56493202062822
15025,Allegheny County,PA,29.69995311767464
15057,Washington County,PA,61.06422878574777
15068,Westmoreland County,PA,8.509142053445851
15090,Allegheny County,PA,82.74730426629161
15104,Allegheny County,PA,49.6952648851383
15106,Allegheny County,PA,37.17768401312705
15108,Allegheny County,PA,22.198781059540554
15110,Allegheny County,PA,66.36193155180496
15129,Allegheny County,PA,62.96296296296296
15143,Allegheny County,PA,56.399437412095644
15208,Allegheny County,PA,64.53352086263479
15213,Allegheny County,PA,51.57055789967182
15219,Allegheny County,PA,16.408813877168306
15221,Allegheny County,PA,29.160806375996252
15317,Washington County,PA,14.580403187998126
15425,Fayette County,PA,15.635255508673229
15537,Bedford County,PA,91.58462259728083
15642,Westmoreland County,PA,10.314111579934366
15906,Cambria County,PA,67.22925457102671
15946,Cambria County,PA,76.46507266760432
16001,Butler County,PA,0.9845288326300985
16066,Butler County,PA,46.108766994842945
16101,Lawrence County,PA,39.96718237224567
16127,Mercer County,PA,51.94561650257853
16148,Mercer County,PA,59.11861228316925
16323,Venango County,PA,32.3019221753399
16335,Crawford County,PA,4.195968120018753
16354,Crawford County,PA,47.93717768401313
16502,Erie County,PA,24.777308954524145
16504,Erie County,PA,40.41256446319738
16507,Erie County,PA,66.85419596812002
16508,Erie County,PA,63.43178621659634
16509,Erie County,PA,17.018284106891702
16511,Erie County,PA,64.25222691045475
16601,Blair County,PA,3.4692920768870135
16602,Blair County,PA,5.766526019690577
16652,Huntingdon County,PA,52.22691045475856
16735,McKean County,PA,55.41490857946554
16866,Centre County,PA,43.014533520862635
17011,Cumberland County,PA,12.75199249882794
17015,Cumberland County,PA,24.613220815752463
17025,Cumberland County,PA,17.252695733708393
17033,Dauphin County,PA,16.736990154711673
17042,Lebanon County,PA,1.4533520862634786
17050,Cumberland County,PA,10.853258321612753
17061,Dauphin County,PA,71.30801687763713
17109,Dauphin County,PA,12.212845757149553
17201,Franklin County,PA,4.172526957337084
17222,Franklin County,PA,61.7205813408345
17257,Cumberland County,PA,36.732301922175346
17268,Franklin County,PA,7.524613220815753
17315,York County,PA,13.853727144866385
17370,York County,PA,82.46601031411159
17401,York County,PA,82.23159868729489
17403,York County,PA,0.7969995311767463
17404,York County,PA,39.26394749179559
17522,Lancaster County,PA,12.212845757149553
17527,Lancaster County,PA,96.95264885138303
17543,Lancaster County,PA,36.75574308485701
17601,Lancaster County,PA,18.307548054383496
17603,Lancaster County,PA,3.5396155649320207
17702,Lycoming County,PA,82.44256915142991
17740,Lycoming County,PA,62.705110173464604
17745,Clinton County,PA,22.151898734177212
17751,Clinton County,PA,79.55930614158461
17752,Lycoming County,PA,81.92686357243319
17801,Northumberland County,PA,9.329582747304265
17856,Union County,PA,98.7810595405532
17963,Schuylkill County,PA,65.3539615564932
18017,Northampton County,PA,27.590248476324426
18037,Lehigh County,PA,58.60290670417253
18040,Northampton County,PA,49.648382559774966
18042,Northampton County,PA,1.804969526488514
18045,Northampton County,PA,20.58134083450539
18064,Northampton County,PA,23.277074542897328
18073,Montgomery County,PA,61.556493202062825
18102,Lehigh County,PA,9.165494608532583
18202,Luzerne County,PA,59.16549460853259
18407,Lackawanna County,PA,87.3652133145804
18411,Lackawanna County,PA,59.82184716361931
18434,Lackawanna County,PA,94.11626816690108
18436,Wayne County,PA,35.654008438818565
18447,Lackawanna County,PA,83.52086263478668
18505,Lackawanna County,PA,23.95686826066573
18509,Lackawanna County,PA,36.404125644631975
18510,Lackawanna County,PA,46.03844350679794
18603,Columbia County,PA,5.8837318330989214
18810,Bradford County,PA,87.78715424285043
18914,Bucks County,PA,69.6671354899203
19002,Montgomery County,PA,67.86216596343179
19007,Bucks County,PA,56.68073136427567
19008,Delaware County,PA,31.551804969526486
19013,Delaware County,PA,1.0079699953117673
19014,Delaware County,PA,54.73511486169714
19018,Delaware County,PA,13.431786216596342
19025,Montgomery County,PA,85.60712611345522
19027,Montgomery County,PA,25.058602906704174
19035,Montgomery County,PA,99.29676511954993
19036,Delaware County,PA,85.58368495077356
19046,Montgomery County,PA,57.688701359587434
19050,Delaware County,PA,41.46741678387248
19057,Bucks County,PA,16.033755274261605
19082,Delaware County,PA,4.289732770745429
19083,Delaware County,PA,70.86263478668542
19094,Delaware County,PA,93.31926863572433
19111,Philadelphia County,PA,1.1017346460384434
19115,Philadelphia County,PA,71.12048757618378
19120,Philadelphia County,PA,29.512423816221283
19121,Philadelphia County,PA,47.585560243788095
19124,Philadelphia County,PA,25.480543834974217
19126,Philadelphia County,PA,17.346460384435066
19130,Philadelphia County,PA,51.3595874355368
19133,Philadelphia County,PA,45.218002812939524
19134,Philadelphia County,PA,29.184247538677923
19135,Philadelphia County,PA,26.511954992967652
19136,Philadelphia County,PA,21.47210501640881
19138,Philadelphia County,PA,23.581809657759027
19139,Philadelphia County,PA,43.50679793717768
19141,Philadelphia County,PA,31.458040318799814
19142,Philadelphia County,PA,70.9563994374121
19143,Philadelphia County,PA,32.536333802156584
19144,Philadelphia County,PA,10.993905297702767
19148,Philadelphia County,PA,32.95827473042663
19151,Philadelphia County,PA,24.68354430379747
19153,Philadelphia County,PA,45.10079699953118
19320,Chester County,PA,84.6460384435068
19363,Chester County,PA,67.53398968588841
19365,Chester County,PA,68.8232536333802
19380,Chester County,PA,22.50351617440225
19382,Chester County,PA,6.258790436005627
19401,Montgomery County,PA,17.3230192217534
19403,Montgomery County,PA,8.204406938584153
19428,Montgomery County,PA,27.355836849507735
19464,Montgomery County,PA,25.105485232067508
19468,Montgomery County,PA,69.94842944210032
19526,Berks County,PA,51.429910923581815
19601,Berks County,PA,7.899671823722457
19602,Berks County,PA,4.50070323488045
19604,Berks County,PA,4.641350210970464
19606,Berks County,PA,61.46272855133614
19610,Berks County,PA,45.96812001875293
19611,Berks County,PA,59.39990623534928
02892,Washington County,RI,92.63947491795594
02893,Kent County,RI,18.823253633380215
02904,Providence County,RI,17.20581340834505
29006,Lexington County,SC,66.12751992498828
29010,Lee County,SC,55.86029067041726
29036,Lexington County,SC,50.98452883263009
29045,Kershaw County,SC,54.59446788560712
29053,Lexington County,SC,35.91186122831693
29055,Chester County,SC,92.49882794186591
29070,Lexington County,SC,56.84481950304735
29127,Newberry County,SC,86.84950773558369
29130,Fairfield County,SC,75.8790436005626
29150,Sumter County,SC,49.3202062822316
29180,Fairfield County,SC,61.90811064228786
29201,Richland County,SC,96.13220815752462
29204,Richland County,SC,87.20112517580873
29205,Richland County,SC,59.54055321143928
29209,Richland County,SC,26.160337552742618
29210,Richland County,SC,23.816221284575715
29212,Lexington County,SC,43.83497421472105
29301,Spartanburg County,SC,62.91608063759963
29302,Spartanburg County,SC,59.681200187529306
29306,Spartanburg County,SC,20.346929207688703
29330,Spartanburg County,SC,65.9634317862166
29340,Cherokee County,SC,70.11251758087201
29349,Spartanburg County,SC,12.259728082512893
29360,Laurens County,SC,22.597280825128927
29388,Spartanburg County,SC,41.42053445850914
29405,Charleston County,SC,13.666197843413034
29412,Charleston County,SC,47.09329582747304
29418,Charleston County,SC,21.354899203000468
29420,Dorchester County,SC,28.129395218002813
29429,Charleston County,SC,98.42944210032817
29440,Georgetown County,SC,27.191748710736054
29445,Berkeley County,SC,56.18846694796061
29464,Charleston County,SC,25.293014533520864
29483,Dorchester County,SC,28.691983122362867
29485,Dorchester County,SC,13.384903891233005
29488,Colleton County,SC,18.47163619315518
29510,Georgetown County,SC,45.10079699953118
29512,Marlboro County,SC,35.091420534458514
29526,Horry County,SC,20.393811533052038
29527,Horry County,SC,61.13455227379278
29532,Darlington County,SC,71.77684013127052
29536,Dillon County,SC,89.61556493202063
29555,Florence County,SC,90.74074074074075
29560,Florence County,SC,59.58743553680262
29565,Dillon County,SC,92.8973277074543
29569,Horry County,SC,27.379278012189406
29571,Marion County,SC,48.68729488982654
29574,Marion County,SC,39.54524144397562
29588,Horry County,SC,19.760900140646974
29607,Greenville County,SC,41.18612283169245
29611,Greenville County,SC,5.250820440693858
29617,Greenville County,SC,19.292076887013597
29627,Anderson County,SC,69.19831223628692
29631,Pickens County,SC,96.03844350679793
29640,Pickens County,SC,53.46929207688701
29642,Pickens County,SC,17.06516643225504
29645,Laurens County,SC,48.757618377871545
29649,Greenwood County,SC,45.40553211439287
29650,Greenville County,SC,20.86263478668542
29654,Anderson County,SC,52.109704641350206
29678,Oconee County,SC,35.81809657759025
29680,Greenville County,SC,58.29817158931083
29687,Greenville County,SC,44.56165025785279
29690,Greenville County,SC,69.4327238631036
29693,Oconee County,SC,74.82419127988749
29697,Anderson County,SC,52.719174871073605
29710,York County,SC,37.294889826535396
29720,Lancaster County,SC,6.37599624941397
29730,York County,SC,8.55602437880919
29745,York County,SC,31.926863572433195
29803,Aiken County,SC,55.48523206751055
29805,Aiken County,SC,95.28832630098452
29817,Barnwell County,SC,99.41397093295828
29841,Aiken County,SC,33.19268635724332
29920,Beaufort County,SC,88.18565400843882
29924,Hampton County,SC,99.67182372245664
29926,Beaufort County,SC,87.71683075480544
29927,Jasper County,SC,88.2794186591655
29935,Beaufort County,SC,99.74214721050164
29936,Jasper County,SC,65.9634317862166
29945,Hampton County,SC,97.84341303328645
57006,Brookings County,SD,73.32395686826067
57013,Lincoln County,SD,96.03844350679793
57032,Lincoln County,SD,92.94421003281764
57049,Union County,SD,96.85888420065635
57069,Clay County,SD,74.89451476793249
57103,Minnehaha County,SD,11.204875761837787
57105,Minnehaha County,SD,58.18096577590248
57107,Minnehaha County,SD,96.74167838724802
57110,Minnehaha County,SD,64.6038443506798
57201,Codington County,SD,60.642287857477726
57301,Davison County,SD,28.48101265822785
57339,Buffalo County,SD,98.05438349742147
57350,Beadle County,SD,66.57290201593999
57380,Charles Mix County,SD,94.74917955930614
57401,Brown County,SD,7.665260196905767
57501,Hughes County,SD,95.63994374120956
57625,Dewey County,SD,93.10829817158931
57701,Pennington County,SD,8.649789029535865
57783,Lawrence County,SD,51.87529301453352
37013,Davidson County,TN,3.984997655883732
37027,Williamson County,TN,21.964369432723863
37042,Montgomery County,TN,11.533052039381154
37055,Dickson County,TN,37.0604781997187
37062,Williamson County,TN,86.61509610876699
37072,Davidson County,TN,15.822784810126583
37074,Trousdale County,TN,48.80450070323488
37076,Davidson County,TN,18.72948898265354
37087,Wilson County,TN,7.4074074074074066
37090,Wilson County,TN,44.11626816690108
37096,Perry County,TN,74.87107360525081
37101,Humphreys County,TN,55.41490857946554
37110,Warren County,TN,7.032348804500703
37115,Davidson County,TN,52.90670417252695
37127,Rutherford County,TN,41.70182841068917
37130,Rutherford County,TN,9.47022972339428
37148,Sumner County,TN,21.964369432723863
37153,Rutherford County,TN,97.4214721050164
37160,Bedford County,TN,8.55602437880919
37166,DeKalb County,TN,38.06844819503048
37172,Robertson County,TN,6.63384903891233
37174,Williamson County,TN,28.527894983591185
37179,Williamson County,TN,74.0506329113924
37185,Humphreys County,TN,76.34786685419597
37186,Sumner County,TN,74.77730895452414
37206,Davidson County,TN,17.580872011251756
37207,Davidson County,TN,4.875761837787154
37209,Davidson County,TN,45.17112048757618
37211,Davidson County,TN,8.884200656352554
37214,Davidson County,TN,39.7093295827473
37217,Davidson County,TN,54.73511486169714
37218,Davidson County,TN,31.926863572433195
37221,Davidson County,TN,46.976090014064695
37228,Davidson County,TN,84.38818565400844
37303,McMinn County,TN,79.69995311767464
37311,Bradley County,TN,65.47116736990155
37317,Polk County,TN,96.83544303797468
37321,Rhea County,TN,14.439756211908112
37322,Meigs County,TN,42.616033755274266
37323,Bradley County,TN,22.94889826535396
37330,Franklin County,TN,78.27004219409282
37331,McMinn County,TN,93.27238631036099
37334,Lincoln County,TN,49.76558837318331
37343,Hamilton County,TN,80.21565869667135
37355,Coffee County,TN,65.72902015939991
37363,Hamilton County,TN,79.79371776840132
37370,McMinn County,TN,91.51429910923582
37377,Hamilton County,TN,70.13595874355369
37379,Hamilton County,TN,22.761368963900612
37387,Grundy County,TN,96.31973745897795
37388,Coffee County,TN,46.48382559774965
37398,Franklin County,TN,73.67557430848571
37406,Hamilton County,TN,47.70276605719644
37407,Hamilton County,TN,72.87857477730896
37410,Hamilton County,TN,98.94514767932489
37411,Hamilton County,TN,51.64088138771683
37415,Hamilton County,TN,38.06844819503048
37416,Hamilton County,TN,89.7093295827473
37421,Hamilton County,TN,13.877168307548054
37601,Washington County,TN,7.10267229254571
37604,Washington County,TN,32.3019221753399
37620,Sullivan County,TN,5.157055789967183
37641,Greene County,TN,52.03938115330521
37642,Hawkins County,TN,61.04078762306611
37643,Carter County,TN,4.9929676511954995
37701,Blount County,TN,50.53914674167839
37708,Grainger County,TN,70.6516643225504
37721,Knox County,TN,90.85794655414908
37722,Cocke County,TN,75.92592592592592
37725,Jefferson County,TN,33.0520393811533
37742,Loudon County,TN,81.24706985466479
37748,Roane County,TN,17.862165963431785
37755,Scott County,TN,97.06985466479138
37766,Campbell County,TN,19.198312236286917
37774,Loudon County,TN,57.688701359587434
37777,Blount County,TN,40.27191748710736
37801,Blount County,TN,6.493202062822316
37803,Blount County,TN,16.78387248007501
37804,Blount County,TN,41.58462259728083
37813,Hamblen County,TN,13.924050632911392
37825,Claiborne County,TN,74.40225035161744
37826,McMinn County,TN,98.52320675105484
37830,Anderson County,TN,37.50586029067042
37840,Roane County,TN,55.20393811533052
37852,Scott County,TN,96.62447257383965
37862,Sevier County,TN,20.41725269573371
37870,Claiborne County,TN,96.2259728082513
37871,Jefferson County,TN,71.14392873886544
37874,Monroe County,TN,22.292545710267227
37876,Sevier County,TN,47.42147210501641
37909,Knox County,TN,69.2920768870136
37912,Knox County,TN,14.6741678387248
37914,Knox County,TN,77.56680731364276
37915,Knox County,TN,97.60900140646976
37917,Knox County,TN,7.196436943272386
37918,Knox County,TN,66.22128457571496
37920,Knox County,TN,38.95921237693389
37921,Knox County,TN,60.829817158931085
37922,Knox County,TN,66.43225503984998
37923,Knox County,TN,78.08251289263947
37924,Knox County,TN,78.57477730895452
37938,Knox County,TN,52.48476324425692
38008,Hardeman County,TN,55.41490857946554
38011,Tipton County,TN,78.50445382090952
38017,Shelby County,TN,57.59493670886076
38019,Tipton County,TN,67.11204875761838
38053,Shelby County,TN,75.41022034692921
38060,Fayette County,TN,92.70979840600094
38104,Shelby County,TN,52.883263009845294
38106,Shelby County,TN,7.126113455227379
38107,Shelby County,TN,54.54758556024378
38109,Shelby County,TN,51.85185185185185
38111,Shelby County,TN,10.173464603844351
38114,Shelby County,TN,10.6657290201594
38115,Shelby County,TN,54.45382090951711
38116,Shelby County,TN,8.063759962494139
38118,Shelby County,TN,30.684481950304736
38125,Shelby County,TN,34.200656352555086
38127,Shelby County,TN,18.190342240975152
38128,Shelby County,TN,50.773558368495074
38134,Shelby County,TN,20.018752930145336
38242,Henry County,TN,75.10548523206751
38305,Madison County,TN,18.65916549460853
38320,Benton County,TN,81.38771683075481
38330,Gibson County,TN,89.52180028129395
38344,Carroll County,TN,53.30520393811533
38401,Maury County,TN,42.75668073136428
38449,Giles County,TN,98.57008907641818
38462,Lewis County,TN,50.656352555086734
38501,Putnam County,TN,8.74355368026254
38544,Putnam County,TN,45.87435536802625
38570,Overton County,TN,90.9985935302391
38574,Putnam County,TN,63.10360993905297
38583,White County,TN,12.400375058602906
75006,Dallas County,TX,27.168307548054383
75040,Dallas County,TX,7.688701359587435
75052,Dallas County,TX,7.618377871542428
75060,Dallas County,TX,54.14908579465541
75062,Dallas County,TX,27.05110173464604
75067,Denton County,TX,16.78387248007501
75071,Collin County,TX,13.9943741209564
75075,Collin County,TX,73.76933895921238
75078,Collin County,TX,84.01312705110173
75080,Dallas County,TX,37.9746835443038
75088,Dallas County,TX,77.28551336146273
75093,Collin County,TX,60.07969995311767
75104,Dallas County,TX,11.39240506329114
75110,Navarro County,TX,80.89545241443976
75119,Ellis County,TX,34.24753867791843
75142,Kaufman County,TX,41.86591654946085
75149,Dallas County,TX,30.848570089076414
75159,Dallas County,TX,77.51992498827943
75165,Ellis County,TX,41.139240506329116
75169,Van Zandt County,TX,52.601969057665265
75172,Dallas County,TX,98.82794186591654
75203,Dallas County,TX,81.92686357243319
75204,Dallas County,TX,40.76418190342241
75205,Dallas County,TX,45.75714955461791
75210,Dallas County,TX,76.76980778246602
75214,Dallas County,TX,73.01922175339897
75216,Dallas County,TX,2.320675105485232
75217,Dallas County,TX,3.4224097515236758
75219,Dallas County,TX,32.114392873886544
75220,Dallas County,TX,83.61462728551336
75227,Dallas County,TX,31.34083450539147
75228,Dallas County,TX,13.783403656821378
75231,Dallas County,TX,26.441631504922647
75237,Dallas County,TX,25.80872011251758
75241,Dallas County,TX,35.81809657759025
75243,Dallas County,TX,6.000937646507267
75253,Dallas County,TX,45.80403187998125
75409,Collin County,TX,59.16549460853259
75567,Bowie County,TX,98.66385372714487
75602,Gregg County,TX,38.37318330989217
75633,Panola County,TX,59.16549460853259
75645,Upshur County,TX,63.94749179559306
75650,Harrison County,TX,59.939052977027664
75662,Gregg County,TX,33.47398030942335
75701,Smith County,TX,18.94045944678856
75751,Henderson County,TX,27.543366150961084
75766,Cherokee County,TX,48.3356774496015
75771,Smith County,TX,65.54149085794656
75835,Houston County,TX,47.93717768401313
75844,Houston County,TX,87.99812470698546
75904,Angelina County,TX,17.698077824660103
75935,Shelby County,TX,90.03750586029066
75964,Nacogdoches County,TX,42.96765119549929
75974,Shelby County,TX,98.14814814814815
76006,Tarrant County,TX,49.95311767463666
76010,Tarrant County,TX,7.501172058134084
76011,Tarrant County,TX,34.69292076887013
76014,Tarrant County,TX,28.94983591186123
76020,Tarrant County,TX,14.72105016408814
76028,Johnson County,TX,4.477262072198781
76031,Johnson County,TX,45.358649789029535
76033,Johnson County,TX,49.88279418659165
76034,Tarrant County,TX,59.939052977027664
76043,Somervell County,TX,75.3398968588842
76048,Hood County,TX,72.97233942803562
76049,Hood County,TX,51.242381622128455
76052,Tarrant County,TX,67.15893108298172
76060,Tarrant County,TX,83.23956868260666
76065,Ellis County,TX,22.245663384903892
76082,Parker County,TX,36.21659634317862
76086,Parker County,TX,69.24519456165027
76087,Parker County,TX,86.09939052977028
76092,Tarrant County,TX,45.56962025316456
76103,Tarrant County,TX,44.77262072198781
76105,Tarrant County,TX,8.860759493670885
76106,Tarrant County,TX,59.49367088607595
76107,Tarrant County,TX,23.51148616971402
76108,Tarrant County,TX,21.237693389592124
76110,Tarrant County,TX,55.69620253164557
76111,Tarrant County,TX,81.12986404125645
76112,Tarrant County,TX,5.836849507735583
76114,Tarrant County,TX,24.613220815752463
76116,Tarrant County,TX,11.415846225972809
76119,Tarrant County,TX,2.6722925457102673
76120,Tarrant County,TX,77.56680731364276
76123,Tarrant County,TX,27.80121894045945
76126,Tarrant County,TX,57.21987810595406
76131,Tarrant County,TX,30.895452414439756
76133,Tarrant County,TX,8.53258321612752
76134,Tarrant County,TX,13.080168776371309
76135,Tarrant County,TX,37.52930145335209
76137,Tarrant County,TX,33.54430379746836
76140,Tarrant County,TX,20.83919362400375
76179,Tarrant County,TX,14.603844350679793
76182,Tarrant County,TX,45.26488513830286
76208,Denton County,TX,88.09188935771213
76244,Tarrant County,TX,12.3300515705579
76262,Denton County,TX,26.72292545710267
76301,Wichita County,TX,58.46225972808251
76384,Wilbarger County,TX,58.368495077355846
76401,Erath County,TX,41.77215189873418
76424,Stephens County,TX,78.83263009845288
76426,Wise County,TX,76.67604313173933
76462,Hood County,TX,99.48429442100328
76522,Coryell County,TX,57.47773089545242
76541,Bell County,TX,26.72292545710267
76542,Bell County,TX,43.62400375058603
76543,Bell County,TX,59.610876699484294
76549,Bell County,TX,67.20581340834505
76574,Williamson County,TX,61.36896390060947
76634,Bosque County,TX,91.81903422409752
76667,Limestone County,TX,68.04969526488513
76706,McLennan County,TX,18.377871542428505
76711,McLennan County,TX,89.73277074542897
76825,McCulloch County,TX,77.19174871073605
76903,Tom Green County,TX,23.652133145804033
77005,Harris County,TX,53.867791842475384
77008,Harris County,TX,41.42053445850914
77011,Harris County,TX,66.90107829348335
77016,Harris County,TX,54.47726207219878
77017,Harris County,TX,35.13830285982185
77021,Harris County,TX,48.9451476793249
77023,Harris County,TX,39.75621190811064
77028,Harris County,TX,30.192217533989684
77032,Harris County,TX,65.86966713548992
77034,Harris County,TX,37.69338959212377
77036,Harris County,TX,33.005157055789965
77037,Harris County,TX,78.92639474917956
77039,Harris County,TX,78.94983591186123
77040,Harris County,TX,26.84013127051102
77044,Harris County,TX,77.35583684950772
77048,Harris County,TX,52.437880918893576
77057,Harris County,TX,49.484294421003284
77060,Harris County,TX,71.54242850445382
77064,Harris County,TX,19.315518049695264
77065,Harris County,TX,41.16268166901078
77069,Harris County,TX,73.48804500703235
77070,Harris County,TX,27.308954524144397
77073,Harris County,TX,33.56774496015002
77074,Harris County,TX,90.52977027660572
77075,Harris County,TX,30.37974683544304
77079,Harris County,TX,56.49320206282231
77082,Harris County,TX,30.14533520862635
77084,Harris County,TX,75.80872011251758
77088,Harris County,TX,43.15518049695265
77089,Harris County,TX,25.363338021565866
77096,Harris County,TX,69.2920768870136
77099,Harris County,TX,34.24753867791843
77304,Montgomery County,TX,41.63150492264416
77328,San Jacinto County,TX,60.970464135021096
77338,Harris County,TX,26.371308016877638
77351,Polk County,TX,73.60525082044069
77354,Montgomery County,TX,60.923581809657755
77360,Polk County,TX,99.17955930614158
77371,San Jacinto County,TX,76.91045475855603
77372,Montgomery County,TX,76.91045475855603
77373,Harris County,TX,41.983122362869196
77378,Montgomery County,TX,62.96296296296296
77385,Montgomery County,TX,40.76418190342241
77386,Montgomery County,TX,82.04406938584154
77396,Harris County,TX,77.77777777777779
77406,Fort Bend County,TX,81.90342240975153
77414,Matagorda County,TX,57.21987810595406
77423,Waller County,TX,76.41819034224098
77433,Harris County,TX,40.71729957805908
77449,Harris County,TX,20.932958274730424
77469,Fort Bend County,TX,78.78574777308954
77471,Fort Bend County,TX,91.3033286451008
77489,Fort Bend County,TX,43.38959212376934
77498,Fort Bend County,TX,78.99671823722456
77503,Harris County,TX,60.2906704172527
77505,Harris County,TX,45.639943741209564
77506,Harris County,TX,70.51101734646038
77510,Galveston County,TX,44.04594467885607
77511,Brazoria County,TX,6.5400843881856545
77520,Harris County,TX,25.105485232067508
77521,Harris County,TX,41.81903422409752
77530,Harris County,TX,67.36990154711674
77531,Brazoria County,TX,77.73089545241444
77536,Harris County,TX,21.37834036568214
77539,Galveston County,TX,9.25925925925926
77541,Brazoria County,TX,27.965307079231128
77545,Fort Bend County,TX,48.61697140178153
77554,Galveston County,TX,82.27848101265823
77581,Brazoria County,TX,42.897327707454295
77584,Brazoria County,TX,4.031879981247069
77586,Harris County,TX,60.45475855602438
77591,Galveston County,TX,35.935302390998594
77598,Harris County,TX,38.466947960618846
77611,Orange County,TX,59.657759024847635
77612,Jasper County,TX,75.50398499765588
77619,Jefferson County,TX,53.51617440225035
77625,Hardin County,TX,91.32676980778247
77630,Orange County,TX,53.56305672761369
77632,Orange County,TX,91.04547585560245
77640,Jefferson County,TX,82.63009845288326
77642,Jefferson County,TX,42.10032817627754
77656,Hardin County,TX,36.91983122362869
77657,Hardin County,TX,87.24800750117205
77662,Orange County,TX,56.86826066572902
77665,Chambers County,TX,76.25410220346929
77701,Jefferson County,TX,84.69292076887014
77705,Jefferson County,TX,55.48523206751055
77706,Jefferson County,TX,60.243788091889364
77707,Jefferson County,TX,58.157524613220815
77708,Jefferson County,TX,66.24472573839662
77713,Jefferson County,TX,63.10360993905297
77801,Brazos County,TX,85.44303797468355
77803,Brazos County,TX,57.82934833567745
77807,Brazos County,TX,62.79887482419127
77808,Brazos County,TX,40.646976090014064
77833,Washington County,TX,26.84013127051102
77845,Brazos County,TX,36.02906704172527
77901,Victoria County,TX,38.20909517112049
77954,DeWitt County,TX,50.93764650726676
78022,Live Oak County,TX,96.17909048288796
78040,Webb County,TX,54.26629160806375
78041,Webb County,TX,20.30004688232536
78043,Webb County,TX,23.347398030942333
78046,Webb County,TX,6.563525550867324
78052,Atascosa County,TX,91.20956399437412
78065,Atascosa County,TX,76.91045475855603
78109,Bexar County,TX,28.527894983591185
78114,Wilson County,TX,65.63525550867323
78148,Bexar County,TX,72.36286919831224
78154,Guadalupe County,TX,55.62587904360057
78155,Guadalupe County,TX,37.294889826535396
78204,Bexar County,TX,71.87060478199719
78207,Bexar County,TX,9.610876699484294
78209,Bexar County,TX,43.83497421472105
78212,Bexar County,TX,80.94233473980309
78213,Bexar County,TX,58.60290670417253
78214,Bexar County,TX,44.585091420534454
78216,Bexar County,TX,25.035161744022506
78218,Bexar County,TX,76.16033755274262
78222,Bexar County,TX,47.79653070792311
78225,Bexar County,TX,77.21518987341773
78227,Bexar County,TX,19.807782466010316
78228,Bexar County,TX,41.91279887482419
78229,Bexar County,TX,32.72386310360994
78230,Bexar County,TX,39.61556493202063
78237,Bexar County,TX,43.06141584622598
78239,Bexar County,TX,72.19878105954055
78245,Bexar County,TX,55.2977027660572
78250,Bexar County,TX,24.120956399437414
78251,Bexar County,TX,35.0210970464135
78253,Bexar County,TX,37.03703703703704
78255,Bexar County,TX,89.73277074542897
78332,Jim Wells County,TX,42.264416315049225
78368,San Patricio County,TX,74.75386779184248
78370,San Patricio County,TX,99.41397093295828
78374,San Patricio County,TX,94.32723863103611
78380,Nueces County,TX,70.72198781059541
78384,Duval County,TX,88.44350679793718
78387,San Patricio County,TX,88.72480075011721
78405,Nueces County,TX,62.869198312236286
78410,Nueces County,TX,85.06797937177683
78415,Nueces County,TX,27.379278012189406
78416,Nueces County,TX,68.51851851851852
78503,Hidalgo County,TX,50.56258790436006
78516,Hidalgo County,TX,41.23300515705579
78520,Cameron County,TX,86.4510079699953
78521,Cameron County,TX,81.0126582278481
78526,Cameron County,TX,91.02203469292077
78538,Hidalgo County,TX,92.92076887013596
78541,Hidalgo County,TX,61.81434599156118
78542,Hidalgo County,TX,23.347398030942333
78552,Cameron County,TX,77.42616033755274
78566,Cameron County,TX,78.55133614627286
78572,Hidalgo County,TX,30.918893577121427
78574,Hidalgo County,TX,49.46085325832161
78580,Willacy County,TX,78.76230661040788
78582,Starr County,TX,93.10829817158931
78584,Starr County,TX,75.45710267229254
78586,Cameron County,TX,25.410220346929208
78589,Hidalgo County,TX,21.870604781997187
78610,Hays County,TX,54.73511486169714
78613,Williamson County,TX,81.4580403187998
78624,Gillespie County,TX,58.86075949367089
78628,Williamson County,TX,54.73511486169714
78641,Williamson County,TX,34.55227379278012
78648,Caldwell County,TX,88.60759493670885
78660,Travis County,TX,13.03328645100797
78666,Hays County,TX,13.478668541959681
78704,Travis County,TX,49.13267698077824
78723,Travis County,TX,40.646976090014064
78741,Travis County,TX,53.77402719174871
78744,Travis County,TX,44.655414908579466
78745,Travis County,TX,82.77074542897329
78747,Travis County,TX,80.91889357712142
78753,Travis County,TX,70.97984060009377
78758,Travis County,TX,78.48101265822784
78834,Dimmit County,TX,83.02859821847164
78840,Val Verde County,TX,71.98781059540553
78852,Maverick County,TX,35.41959681200188
78861,Medina County,TX,61.861228316924525
78934,Colorado County,TX,74.98827941865916
78942,Lee County,TX,94.51476793248945
79109,Randall County,TX,20.768870135958746
79110,Randall County,TX,45.73370839193624
79323,Yoakum County,TX,84.15377402719176
79339,Lamb County,TX,85.67744960150023
79360,Gaines County,TX,78.05907172995781
79412,Lubbock County,TX,39.38115330520394
79416,Lubbock County,TX,34.036568213783404
79424,Lubbock County,TX,12.634786685419597
79510,Callahan County,TX,91.84247538677918
79549,Scurry County,TX,53.84435067979372
79556,Nolan County,TX,36.59165494608533
79602,Taylor County,TX,38.607594936708864
79605,Taylor County,TX,78.38724800750117
79705,Midland County,TX,70.2766057196437
79714,Andrews County,TX,36.05250820440694
79720,Howard County,TX,63.36146272855133
79735,Pecos County,TX,50.07032348804501
79761,Ector County,TX,62.447257383966246
79762,Ector County,TX,59.84528832630098
79763,Ector County,TX,65.79934364744491
79764,Ector County,TX,90.014064697609
79765,Ector County,TX,50.773558368495074
79904,El Paso County,TX,45.26488513830286
79924,El Paso County,TX,24.730426629160807
79925,El Paso County,TX,51.31270511017346
79928,El Paso County,TX,29.11392405063291
79936,El Paso County,TX,5.086732301922176
84005,Utah County,UT,93.85841537740272
84009,Salt Lake County,UT,33.59118612283169
84010,Davis County,UT,22.73792780121894
84014,Davis County,UT,79.86404125644631
84015,Davis County,UT,79.06704172526958
84020,Salt Lake County,UT,56.02437880918893
84029,Tooele County,UT,38.724800750117204
84040,Davis County,UT,59.024847632442565
84041,Davis County,UT,77.44960150023441
84043,Utah County,UT,73.46460384435069
84058,Utah County,UT,66.85419596812002
84062,Utah County,UT,87.01359587435536
84066,Duchesne County,UT,99.29676511954993
84070,Salt Lake County,UT,30.450070323488042
84074,Tooele County,UT,78.7388654477262
84078,Uintah County,UT,88.72480075011721
84081,Salt Lake County,UT,73.48804500703235
84087,Davis County,UT,74.21472105016409
84092,Salt Lake County,UT,47.280825128926395
84094,Salt Lake County,UT,45.40553211439287
84095,Salt Lake County,UT,69.76090014064698
84096,Salt Lake County,UT,13.548992030004689
84104,Salt Lake County,UT,74.54289732770746
84115,Salt Lake County,UT,51.28926394749179
84117,Salt Lake County,UT,61.50961087669948
84118,Salt Lake County,UT,7.712142522269104
84119,Salt Lake County,UT,76.53539615564931
84120,Salt Lake County,UT,31.3877168307548
84123,Salt Lake County,UT,10.126582278481013
84128,Salt Lake County,UT,21.58931082981716
84129,,UT,42.82700421940928
84321,Cache County,UT,93.0379746835443
84337,Box Elder County,UT,84.38818565400844
84401,Weber County,UT,72.36286919831224
84403,Weber County,UT,90.90482887951242
84404,Weber County,UT,65.00234411626816
84405,Weber County,UT,56.07126113455227
84501,Carbon County,UT,95.12423816221285
84526,Carbon County,UT,97.81997187060479
84624,Millard County,UT,96.43694327238632
84651,Utah County,UT,91.70182841068917
84660,Utah County,UT,90.43600562587905
84701,Sevier County,UT,98.0309423347398
84720,Iron County,UT,70.46413502109705
84721,Iron County,UT,85.37271448663853
84745,Washington County,UT,96.74167838724802
84770,Washington County,UT,21.143928738865448
84780,Washington County,UT,56.563525550867325
84790,Washington County,UT,81.64556962025317
05753,Addison County,VT,77.80121894045945
20109,Prince William County,VA,74.33192686357243
20110,Manassas city,VA,18.846694796061886
20112,Prince William County,VA,56.446319737458985
20120,Fairfax County,VA,33.23956868260666
20121,Fairfax County,VA,46.41350210970464
20136,Prince William County,VA,49.81247069854665
20147,Loudoun County,VA,67.9324894514768
20148,Loudoun County,VA,37.76371308016878
20152,Loudoun County,VA,60.31411157993436
20155,Prince William County,VA,40.014064697609
20164,Loudoun County,VA,86.19315518049694
20169,Prince William County,VA,63.759962494139714
20171,Fairfax County,VA,31.223628691983123
20175,Loudoun County,VA,52.48476324425692
20176,Loudoun County,VA,29.067041725269572
20191,Fairfax County,VA,55.01640881387717
22003,Fairfax County,VA,15.424285044538207
22015,Fairfax County,VA,32.81762775433661
22030,Fairfax County,VA,15.283638068448195
22031,Fairfax County,VA,45.47585560243788
22032,Fairfax County,VA,44.86638537271448
22041,Fairfax County,VA,78.27004219409282
22042,Fairfax County,VA,31.645569620253166
22044,Fairfax County,VA,89.943741209564
22079,Fairfax County,VA,55.18049695264885
22101,Fairfax County,VA,32.583216127519925
22102,Fairfax County,VA,82.09095171120488
22150,Fairfax County,VA,64.65072667604313
22151,Fairfax County,VA,86.80262541022034
22153,Fairfax County,VA,38.466947960618846
22180,Fairfax County,VA,65.23675574308486
22191,Prince William County,VA,28.809188935771214
22192,Prince William County,VA,50.14064697609001
22201,Arlington County,VA,39.80309423347398
22204,Arlington County,VA,14.04125644631974
22207,Arlington County,VA,33.42709798406001
22303,Fairfax County,VA,80.5672761368964
22306,Fairfax County,VA,42.33473980309424
22308,Fairfax County,VA,65.6586966713549
22310,Fairfax County,VA,33.80215658696672
22312,Fairfax County,VA,25.925925925925924
22314,Alexandria city,VA,44.0225035161744
22401,Fredericksburg city,VA,75.5743084857009
22407,Spotsylvania County,VA,48.7107360525082
22408,Spotsylvania County,VA,45.49929676511955
22485,King George County,VA,96.34317862165963
22546,Caroline County,VA,53.914674167838726
22551,Spotsylvania County,VA,40.48288795124238
22556,Stafford County,VA,99.01547116736991
22572,Richmond County,VA,83.07548054383498
22701,Culpeper County,VA,57.57149554617909
22801,Harrisonburg city,VA,24.214721050164087
22835,Page County,VA,39.639006094702296
23075,Henrico County,VA,42.733239568682606
23112,Chesterfield County,VA,24.40225035161744
23113,Chesterfield County,VA,69.971870604782
23185,James City County,VA,19.92498827941866
23220,Richmond city,VA,42.123769338959214
23222,Richmond city,VA,48.0309423347398
23223,Henrico County,VA,63.173933427097985
23224,Richmond city,VA,68.30754805438349
23225,Richmond city,VA,5.93061415846226
23231,Henrico County,VA,11.298640412564463
23234,Chesterfield County,VA,63.150492264416314
23236,Chesterfield County,VA,70.18284106891703
23294,Henrico County,VA,85.06797937177683
23320,Chesapeake city,VA,13.642756680731363
23324,Chesapeake city,VA,22.71448663853727
23430,Isle of Wight County,VA,48.35911861228317
23434,Suffolk city,VA,6.821378340365682
23454,Virginia Beach city,VA,14.533520862634786
23464,Virginia Beach city,VA,6.985466479137366
23503,Norfolk city,VA,28.129395218002813
23513,Norfolk city,VA,8.157524613220815
23602,Newport News city,VA,42.311298640412566
23605,Newport News city,VA,30.285982184716364
23606,Newport News city,VA,61.74402250351617
23666,Hampton city,VA,21.026722925457104
23669,Hampton city,VA,10.736052508204406
23703,Portsmouth city,VA,35.16174402250351
23803,Petersburg city,VA,69.40928270042194
23805,Petersburg city,VA,78.52789498359118
23834,Colonial Heights city,VA,74.61322081575246
23847,Greensville County,VA,52.64885138302859
23851,Franklin city,VA,97.77308954524145
23868,Brunswick County,VA,81.05954055321143
23875,Prince George County,VA,86.91983122362869
23890,Sussex County,VA,96.50726676043132
23970,Mecklenburg County,VA,47.163619315518055
24014,Roanoke city,VA,49.13267698077824
24019,Roanoke County,VA,35.56024378809189
24055,Henry County,VA,43.13173933427098
24060,Montgomery County,VA,72.71448663853727
24112,Henry County,VA,7.149554617909049
24148,Henry County,VA,70.6516643225504
24219,Wise County,VA,53.07079231129864
24279,Wise County,VA,66.57290201593999
24333,Galax city,VA,28.105954055321142
24382,Wythe County,VA,58.040318799812475
24426,Alleghany County,VA,27.613689639006093
24502,Lynchburg city,VA,24.308485700890763
24521,Amherst County,VA,69.15142991092358
24563,Pittsylvania County,VA,95.9212376933896
24590,Albemarle County,VA,97.49179559306141
24592,Halifax County,VA,14.41631504922644
98005,King County,WA,98.6404125644632
98023,King County,WA,38.88888888888889
98026,Snohomish County,WA,18.02625410220347
98028,King County,WA,54.641350210970465
98034,King County,WA,63.9943741209564
98036,Snohomish County,WA,28.059071729957807
98055,King County,WA,56.16502578527896
98058,King County,WA,16.197843413033286
98065,King County,WA,68.16690107829348
98107,King County,WA,49.929676511954995
98110,Kitsap County,WA,42.49882794186592
98115,King County,WA,19.69057665260197
98116,King County,WA,50.44538209095171
98117,King County,WA,71.68307548054383
98118,King County,WA,23.323956868260666
98133,King County,WA,14.252226910454757
98221,Skagit County,WA,72.24566338490389
98223,Snohomish County,WA,56.18846694796061
98225,Whatcom County,WA,65.56493202062822
98233,Skagit County,WA,65.61181434599156
98248,Whatcom County,WA,62.423816221284575
98252,Snohomish County,WA,66.90107829348335
98273,Skagit County,WA,41.35021097046413
98282,Island County,WA,73.01922175339897
98284,Skagit County,WA,31.458040318799814
98296,Snohomish County,WA,26.629160806375996
98321,Pierce County,WA,42.54571026722925
98367,Kitsap County,WA,29.465541490857944
98382,Clallam County,WA,33.450539146741676
98387,Pierce County,WA,11.36896390060947
98391,Pierce County,WA,25.668073136427566
98502,Thurston County,WA,72.29254571026723
98513,Thurston County,WA,55.08673230192217
98531,Lewis County,WA,54.73511486169714
98532,Lewis County,WA,49.507735583684955
98620,Klickitat County,WA,61.50961087669948
98626,Cowlitz County,WA,56.235349273323955
98632,Cowlitz County,WA,8.720112517580873
98663,Clark County,WA,59.09517112048758
98682,Clark County,WA,38.86544772620722
98684,Clark County,WA,94.65541490857946
98837,Grant County,WA,15.822784810126583
98841,Okanogan County,WA,97.51523675574309
98857,Grant County,WA,95.26488513830286
98926,Kittitas County,WA,33.872480075011715
98942,Yakima County,WA,58.040318799812475
98944,Yakima County,WA,68.42475386779185
98953,Yakima County,WA,95.47585560243787
99016,Spokane County,WA,89.21706516643225
99111,Whitman County,WA,99.03891233005156
99203,Spokane County,WA,68.44819503047351
99206,Spokane County,WA,74.16783872480075
99216,Spokane County,WA,98.47632442569152
99223,Spokane County,WA,76.67604313173933
99301,Franklin County,WA,3.8912330051570554
99336,Benton County,WA,53.65682137834037
99337,Benton County,WA,12.916080637599626
99352,Benton County,WA,22.831692451945617
20001,District of Columbia,DC,9.657759024847632
20003,District of Columbia,DC,30.637599624941398
20009,District of Columbia,DC,44.491326769807785
20011,District of Columbia,DC,16.83075480543835
20017,District of Columbia,DC,64.41631504922644
20019,District of Columbia,DC,43.55368026254102
20020,District of Columbia,DC,44.37412095639944
20024,District of Columbia,DC,37.857477730895454
20032,District of Columbia,DC,25.105485232067508
24747,Mercer County,WV,98.68729488982653
24901,Greenbrier County,WV,66.52601969057666
25045,Kanawha County,WV,74.82419127988749
25130,Boone County,WV,89.87341772151899
25177,Kanawha County,WV,83.45053914674168
25401,Berkeley County,WV,49.906235349273324
25403,Berkeley County,WV,54.10220346929208
25524,Lincoln County,WV,92.78012189404595
25541,Cabell County,WV,75.50398499765588
25550,Mason County,WV,76.86357243319269
25570,Wayne County,WV,53.609939052977026
25704,Wayne County,WV,14.22878574777309
25705,Cabell County,WV,29.86404125644632
25801,Raleigh County,WV,5.46179090482888
25840,Fayette County,WV,90.71729957805907
25918,Raleigh County,WV,93.55368026254102
26003,Ohio County,WV,38.420065635255504
26041,Marshall County,WV,58.27473042662916
26047,Hancock County,WV,63.66619784341303
26101,Wood County,WV,11.556493202062821
26164,Jackson County,WV,41.35021097046413
26261,Nicholas County,WV,92.14721050164088
26354,Taylor County,WV,61.251758087201125
26426,Harrison County,WV,92.31129864041256
26501,Monongalia County,WV,48.429442100328174
26508,Monongalia County,WV,11.579934364744492
26554,Marion County,WV,1.2892639474917957
26753,Mineral County,WV,95.59306141584622
53012,Ozaukee County,WI,64.79137365213315
53029,Waukesha County,WI,44.04594467885607
53040,Washington County,WI,87.4355368026254
53066,Waukesha County,WI,21.82372245663385
53074,Ozaukee County,WI,77.96530707923112
53080,Ozaukee County,WI,97.91373652133146
53081,Sheboygan County,WI,6.962025316455696
53094,Jefferson County,WI,23.69901547116737
53095,Washington County,WI,77.75433661509611
53126,Racine County,WI,63.97093295827473
53142,Kenosha County,WI,3.79746835443038
53143,Kenosha County,WI,8.157524613220815
53151,Waukesha County,WI,21.940928270042196
53158,Kenosha County,WI,9.72808251289264
53179,Kenosha County,WI,47.70276605719644
53185,Racine County,WI,38.11533052039381
53204,Milwaukee County,WI,14.135021097046414
53205,Milwaukee County,WI,0.6329113924050633
53209,Milwaukee County,WI,6.86826066572902
53210,Milwaukee County,WI,2.6957337083919364
53212,Milwaukee County,WI,43.10829817158931
53213,Milwaukee County,WI,30.192217533989684
53214,Milwaukee County,WI,4.7116736990154715
53215,Milwaukee County,WI,60.68917018284107
53218,Milwaukee County,WI,60.59540553211439
53219,Milwaukee County,WI,7.641819034224097
53222,Milwaukee County,WI,36.59165494608533
53224,Milwaukee County,WI,19.6671354899203
53225,Milwaukee County,WI,20.90951711204876
53233,Milwaukee County,WI,76.55883731833099
53405,Racine County,WI,2.0159399906235347
53406,Racine County,WI,25.738396624472575
53511,Rock County,WI,30.192217533989684
53534,Rock County,WI,37.6699484294421
53545,Rock County,WI,19.03422409751524
53705,Dane County,WI,32.81762775433661
53718,Dane County,WI,90.81106422878574
53719,Dane County,WI,35.46647913736521
53913,Sauk County,WI,50.98452883263009
53959,Sauk County,WI,85.86497890295358
54002,St. Croix County,WI,90.92827004219409
54022,Pierce County,WI,34.29442100328176
54115,Brown County,WI,58.46225972808251
54143,Marinette County,WI,29.020159399906237
54151,Marinette County,WI,60.50164088138772
54154,Oconto County,WI,74.21472105016409
54220,Manitowoc County,WI,2.203469292076887
54241,Manitowoc County,WI,42.616033755274266
54302,Brown County,WI,12.658227848101266
54409,Langlade County,WI,50.63291139240506
54476,Marathon County,WI,58.76699484294421
54494,Wood County,WI,44.11626816690108
54636,La Crosse County,WI,46.671354899202996
54656,Monroe County,WI,28.38724800750117
54660,Monroe County,WI,76.39474917955931
54701,Eau Claire County,WI,24.050632911392405
54703,Eau Claire County,WI,34.341303328645104
54720,Eau Claire County,WI,80.61415846225974
54728,Barron County,WI,82.95827473042662
54729,Chippewa County,WI,16.971401781528364
54768,Chippewa County,WI,93.36615096108767
54801,Washburn County,WI,84.38818565400844
54848,Rusk County,WI,72.87857477730896
54868,Barron County,WI,95.71026722925457
54911,Outagamie County,WI,21.729957805907173
54935,Fond du Lac County,WI,6.610407876230662
54952,Winnebago County,WI,28.785747773089543
82007,Laramie County,WY,40.17815283638069
82009,Laramie County,WY,52.95358649789029
82414,Park County,WY,55.39146741678387
82609,Natrona County,WY,69.36240037505861
82633,Converse County,WY,39.35771214252227
82716,Campbell County,WY,86.87294889826535
