ZipCode,county,state,Youth
35057,Cullman County,AL,75.26132404181185
35401,Tuscaloosa County,AL,57.8397212543554
35802,Madison County,AL,70.73170731707317
36575,Mobile County,AL,70.03484320557492
85009,Maricopa County,AZ,10.452961672473867
90011,Los Angeles County,CA,17.770034843205575
90044,Los Angeles County,CA,9.40766550522648
90631,Orange County,CA,43.90243902439025
90813,Los Angeles County,CA,78.397212543554
91352,Los Angeles County,CA,78.74564459930313
92010,San Diego County,CA,95.1219512195122
92026,San Diego County,CA,37.282229965156795
92056,San Diego County,CA,42.508710801393725
92069,San Diego County,CA,43.55400696864111
92249,Imperial County,CA,99.65156794425087
92570,Riverside County,CA,48.78048780487805
92591,Riverside County,CA,47.73519163763066
92703,Orange County,CA,45.64459930313589
92869,Orange County,CA,93.03135888501743
93722,Fresno County,CA,24.041811846689896
94601,Alameda County,CA,75.60975609756098
94602,Alameda County,CA,85.71428571428571
95348,Merced County,CA,21.951219512195124
95448,Sonoma County,CA,77.35191637630662
95472,Sonoma County,CA,94.42508710801394
95605,Yolo County,CA,95.81881533101046
95624,Sacramento County,CA,58.536585365853654
96150,El Dorado County,CA,93.03135888501743
80011,Arapahoe County,CO,69.68641114982579
80022,Adams County,CO,12.543554006968641
80126,Douglas County,CO,23.693379790940767
80504,Boulder County,CO,12.195121951219512
80524,Larimer County,CO,27.526132404181187
80534,Weld County,CO,60.97560975609756
06026,Hartford County,CT,79.44250871080139
06105,Hartford County,CT,48.08362369337979
06108,Hartford County,CT,31.010452961672474
06515,New Haven County,CT,40.069686411149824
06811,Fairfield County,CT,66.2020905923345
19720,New Castle County,DE,11.498257839721255
19808,New Castle County,DE,31.010452961672474
19973,Sussex County,DE,36.933797909407666
32720,Volusia County,FL,68.29268292682927
32738,Volusia County,FL,36.23693379790941
32808,Orange County,FL,5.923344947735192
32905,Brevard County,FL,89.54703832752612
33326,Broward County,FL,98.95470383275261
33542,Pasco County,FL,51.91637630662021
33703,Pinellas County,FL,83.27526132404182
34234,Sarasota County,FL,42.857142857142854
34480,Marion County,FL,92.6829268292683
34613,Hernando County,FL,79.79094076655052
34677,Pinellas County,FL,94.07665505226481
30080,Cobb County,GA,52.961672473867594
30117,Carroll County,GA,38.67595818815331
30291,Fulton County,GA,59.23344947735192
31516,Pierce County,GA,81.18466898954703
31523,Glynn County,GA,82.22996515679442
96761,Maui County,HI,96.86411149825784
83274,Bingham County,ID,96.51567944250871
60091,Cook County,IL,50.174216027874564
60153,Cook County,IL,64.45993031358886
60181,DuPage County,IL,50.522648083623686
60517,DuPage County,IL,98.25783972125436
60561,DuPage County,IL,64.45993031358886
60638,Cook County,IL,17.770034843205575
61008,Boone County,IL,54.35540069686411
61102,Winnebago County,IL,67.59581881533101
61109,Winnebago County,IL,54.35540069686411
46060,Hamilton County,IN,39.721254355400696
46360,LaPorte County,IN,2.0905923344947737
46701,Noble County,IN,87.10801393728222
46706,DeKalb County,IN,69.33797909407666
46803,Allen County,IN,90.2439024390244
52101,Winneshiek County,IA,73.17073170731707
52556,Jefferson County,IA,86.06271777003485
67010,Butler County,KS,94.77351916376307
40004,Nelson County,KY,29.965156794425084
40403,Madison County,KY,53.65853658536586
42701,Hardin County,KY,17.421602787456447
70380,St. Mary Parish,LA,57.14285714285714
70458,St. Tammany Parish,LA,2.4390243902439024
70607,Calcasieu Parish,LA,74.56445993031359
70706,Livingston Parish,LA,32.40418118466899
70802,East Baton Rouge Parish,LA,2.7874564459930316
04072,York County,ME,40.41811846689895
04950,Somerset County,ME,61.32404181184668
21113,Anne Arundel County,MD,56.79442508710801
01841,Essex County,MA,0
01843,Essex County,MA,26.82926829268293
02126,Suffolk County,MA,6.2717770034843205
02127,Suffolk County,MA,20.557491289198605
02132,Suffolk County,MA,56.09756097560976
02150,Suffolk County,MA,3.484320557491289
02169,Norfolk County,MA,46.34146341463415
02191,Norfolk County,MA,43.90243902439025
02302,Plymouth County,MA,23.34494773519164
02740,Bristol County,MA,1.0452961672473868
48091,Macomb County,MI,35.88850174216028
48706,Bay County,MI,32.05574912891986
49504,Kent County,MI,16.02787456445993
49935,Iron County,MI,73.5191637630662
55020,Scott County,MN,89.89547038327527
55075,Dakota County,MN,67.59581881533101
55106,Ramsey County,MN,19.51219512195122
55112,Ramsey County,MN,35.54006968641115
55303,Anoka County,MN,50.87108013937283
55337,Dakota County,MN,17.073170731707318
55345,Hennepin County,MN,83.97212543554006
55411,Hennepin County,MN,0.6968641114982579
55418,Hennepin County,MN,39.02439024390244
55444,Hennepin County,MN,70.73170731707317
55709,Itasca County,MN,88.15331010452961
55734,St. Louis County,MN,87.45644599303137
39095,Holmes County,MS,55.749128919860624
39119,Covington County,MS,93.03135888501743
39180,Warren County,MS,49.825783972125436
39206,Hinds County,MS,72.12543554006969
39209,Hinds County,MS,18.81533101045296
39452,George County,MS,37.97909407665505
39482,Lamar County,MS,76.30662020905923
39750,Webster County,MS,97.5609756097561
63114,St. Louis County,MO,29.268292682926827
63138,St. Louis County,MO,70.38327526132404
63301,St. Charles County,MO,14.982578397212542
64130,Jackson County,MO,12.89198606271777
64468,Nodaway County,MO,86.7595818815331
64735,Henry County,MO,55.052264808362374
68132,Douglas County,NE,59.23344947735192
68661,Colfax County,NE,97.90940766550523
89115,Clark County,NV,31.70731707317073
89431,Washoe County,NV,63.41463414634146
89506,Washoe County,NV,32.752613240418114
07458,Bergen County,NJ,85.36585365853658
08079,Salem County,NJ,63.41463414634146
08822,Hunterdon County,NJ,54.00696864111498
08873,Somerset County,NJ,20.209059233449477
87102,Bernalillo County,NM,43.90243902439025
87120,Bernalillo County,NM,16.72473867595819
10026,New York County,NY,62.02090592334495
10039,New York County,NY,62.7177700348432
10302,Richmond County,NY,88.85017421602788
10460,Bronx County,NY,11.846689895470384
10461,Bronx County,NY,25.78397212543554
10463,Bronx County,NY,56.44599303135889
11212,Kings County,NY,1.7421602787456445
11234,Kings County,NY,34.494773519163765
11373,Queens County,NY,8.013937282229964
11374,Queens County,NY,79.79094076655052
11433,Queens County,NY,43.20557491289199
11553,Nassau County,NY,61.672473867595826
11706,Suffolk County,NY,29.965156794425084
11946,Suffolk County,NY,95.47038327526133
12883,Essex County,NY,92.33449477351915
13021,Cayuga County,NY,6.620209059233449
13205,Onondaga County,NY,22.64808362369338
14221,Erie County,NY,20.905923344947734
27410,Guilford County,NC,21.602787456445995
27610,Wake County,NC,3.8327526132404177
28034,Gaston County,NC,72.47386759581882
28152,Cleveland County,NC,49.12891986062718
28216,Mecklenburg County,NC,10.801393728222997
28504,Lenoir County,NC,64.11149825783971
28645,Caldwell County,NC,6.968641114982578
28677,Iredell County,NC,28.222996515679444
28697,Wilkes County,NC,60.62717770034843
28731,Henderson County,NC,82.92682926829268
58401,Stutsman County,ND,90.94076655052264
43035,Delaware County,OH,29.268292682926827
43040,Union County,OH,78.04878048780488
43055,Licking County,OH,41.81184668989547
43068,Franklin County,OH,4.878048780487805
43123,Franklin County,OH,75.9581881533101
43204,Franklin County,OH,0.34843205574912894
43205,Franklin County,OH,13.240418118466899
43207,Franklin County,OH,11.149825783972126
43211,Franklin County,OH,25.435540069686414
43222,Franklin County,OH,74.21602787456446
43227,Franklin County,OH,18.466898954703833
43229,Franklin County,OH,19.16376306620209
43608,Lucas County,OH,5.574912891986063
43612,Lucas County,OH,4.181184668989547
44030,Ashtabula County,OH,41.46341463414634
44053,Lorain County,OH,26.480836236933797
44054,Lorain County,OH,82.22996515679442
44087,Summit County,OH,71.77700348432056
44103,Cuyahoga County,OH,67.24738675958189
44104,Cuyahoga County,OH,15.6794425087108
44108,Cuyahoga County,OH,10.104529616724738
44109,Cuyahoga County,OH,30.66202090592334
44121,Cuyahoga County,OH,86.41114982578398
44124,Cuyahoga County,OH,45.29616724738676
44127,Cuyahoga County,OH,96.86411149825784
44241,Portage County,OH,77.70034843205575
44301,Summit County,OH,77.00348432055749
44305,Summit County,OH,7.317073170731707
44307,Summit County,OH,52.613240418118465
44310,Summit County,OH,24.041811846689896
44313,Summit County,OH,19.860627177700348
44646,Stark County,OH,13.588850174216027
44705,Stark County,OH,65.50522648083623
44720,Stark County,OH,50.87108013937283
44830,Seneca County,OH,25.087108013937282
44839,Erie County,OH,66.55052264808361
45013,Butler County,OH,35.19163763066202
45207,Hamilton County,OH,81.8815331010453
45224,Hamilton County,OH,33.79790940766551
45231,Hamilton County,OH,9.40766550522648
45331,Darke County,OH,36.58536585365854
45458,Montgomery County,OH,46.68989547038328
45662,Scioto County,OH,3.1358885017421603
45723,Athens County,OH,83.62369337979094
45804,Allen County,OH,24.738675958188153
45840,Hancock County,OH,76.65505226480836
73013,Oklahoma County,OK,45.99303135888502
74107,Tulsa County,OK,80.48780487804879
74820,Pontotoc County,OK,9.059233449477352
97302,Marion County,OR,37.63066202090592
97386,Linn County,OR,58.18815331010453
97439,Lane County,OR,100
17042,Lebanon County,PA,8.710801393728223
17104,Dauphin County,PA,14.285714285714285
17866,Northumberland County,PA,88.50174216027874
19070,Delaware County,PA,84.66898954703834
19438,Montgomery County,PA,79.09407665505228
19567,Berks County,PA,74.91289198606272
29325,Laurens County,SC,58.88501742160279
29412,Charleston County,SC,49.12891986062718
29448,Dorchester County,SC,95.81881533101046
29609,Greenville County,SC,55.052264808362374
29615,Greenville County,SC,65.85365853658537
29649,Greenwood County,SC,70.73170731707317
29673,Greenville County,SC,66.89895470383276
29730,York County,SC,40.76655052264808
57106,Minnehaha County,SD,27.874564459930312
37066,Sumner County,TN,16.376306620209057
37130,Rutherford County,TN,21.951219512195124
37660,Sullivan County,TN,51.56794425087108
37814,Hamblen County,TN,39.37282229965157
37841,Scott County,TN,85.01742160278745
37922,Knox County,TN,48.43205574912892
38107,Shelby County,TN,60.278745644599304
38478,Giles County,TN,99.30313588850174
38583,White County,TN,28.57142857142857
75024,Collin County,TX,44.94773519163763
75090,Grayson County,TX,57.491289198606275
75152,Ellis County,TX,91.63763066202091
75216,Dallas County,TX,8.362369337979095
75224,Dallas County,TX,33.79790940766551
75253,Dallas County,TX,33.10104529616725
76108,Tarrant County,TX,28.9198606271777
76209,Denton County,TX,80.8362369337979
76502,Bell County,TX,13.937282229965156
76903,Tom Green County,TX,65.1567944250871
77015,Harris County,TX,21.254355400696863
77301,Montgomery County,TX,33.44947735191638
77357,Montgomery County,TX,47.038327526132406
77414,Matagorda County,TX,51.91637630662021
77551,Galveston County,TX,38.32752613240418
77662,Orange County,TX,34.84320557491289
78255,Bexar County,TX,84.3205574912892
78521,Cameron County,TX,14.634146341463413
79316,Terry County,TX,68.29268292682927
79714,Andrews County,TX,68.98954703832753
79838,El Paso County,TX,91.28919860627178
84062,Utah County,UT,63.06620209059234
22204,Arlington County,VA,22.99651567944251
23009,King William County,VA,98.60627177700349
23223,Henrico County,VA,4.529616724738676
23321,Chesapeake city,VA,15.33101045296167
98055,King County,WA,90.59233449477352
98118,King County,WA,42.1602787456446
98335,Pierce County,WA,52.961672473867594
98373,Pierce County,WA,26.132404181184672
98387,Pierce County,WA,47.386759581881535
98837,Grant County,WA,26.82926829268293
99201,Spokane County,WA,81.53310104529616
20009,District of Columbia,DC,59.23344947735192
20017,District of Columbia,DC,62.02090592334495
20019,District of Columbia,DC,7.317073170731707
25425,Jefferson County,WV,89.19860627177701
25430,Jefferson County,WV,73.86759581881533
53029,Waukesha County,WI,72.82229965156795
53103,Waukesha County,WI,91.63763066202091
53188,Waukesha County,WI,41.11498257839721
53209,Milwaukee County,WI,1.3937282229965158
53216,Milwaukee County,WI,5.2264808362369335
54755,Buffalo County,WI,87.8048780487805
