ZipCode,county,state,Adult,Retirement,Geriatric
35020,Jefferson County,AL,20.093457943925234,NA,36.40836408364084
35023,Jefferson County,AL,NA,47.37484737484737,NA
35064,Jefferson County,AL,NA,75.94627594627595,93.84993849938499
35085,Chilton County,AL,NA,NA,86.83886838868389
35205,Jefferson County,AL,NA,NA,74.78474784747847
35215,Jefferson County,AL,NA,36.14163614163614,NA
35244,Jefferson County,AL,NA,41.147741147741144,NA
35748,Madison County,AL,NA,NA,91.63591635916359
36108,Montgomery County,AL,45.794392523364486,NA,NA
36117,Montgomery County,AL,NA,37.60683760683761,NA
36330,Coffee County,AL,NA,34.676434676434674,NA
36360,Dale County,AL,NA,36.75213675213676,NA
36571,Mobile County,AL,NA,90.96459096459097,NA
36605,Mobile County,AL,NA,NA,68.38868388683886
36732,Marengo County,AL,NA,NA,95.6949569495695
99901,Ketchikan Gateway Borough,AK,NA,81.8070818070818,NA
85006,Maricopa County,AZ,NA,42.49084249084249,NA
85015,Maricopa County,AZ,NA,81.19658119658119,NA
85033,Maricopa County,AZ,NA,40.17094017094017,NA
85123,Pinal County,AZ,NA,85.59218559218559,NA
85210,Maricopa County,AZ,NA,54.57875457875458,NA
85248,Maricopa County,AZ,NA,92.42979242979243,NA
85249,Maricopa County,AZ,NA,69.59706959706959,NA
85308,Maricopa County,AZ,NA,NA,33.08733087330874
85344,La Paz County,AZ,NA,84.24908424908425,NA
85364,Yuma County,AZ,56.54205607476636,NA,2.337023370233702
85381,Maricopa County,AZ,NA,NA,41.45141451414514
85614,Pima County,AZ,NA,NA,24.354243542435423
85634,Pima County,AZ,30.373831775700932,29.304029304029307,NA
85704,Pima County,AZ,NA,29.67032967032967,NA
85716,Pima County,AZ,NA,25.274725274725274,NA
85741,Pima County,AZ,NA,44.44444444444444,NA
85746,Pima County,AZ,NA,36.87423687423688,NA
85755,Pima County,AZ,96.26168224299066,NA,NA
86025,Navajo County,AZ,NA,93.89499389499389,NA
86044,San Juan County,AZ,94.85981308411215,NA,NA
86053,Coconino County,AZ,94.39252336448598,NA,NA
86406,Mohave County,AZ,NA,23.687423687423685,NA
86503,Apache County,AZ,41.1214953271028,NA,98.76998769987699
86510,Navajo County,AZ,NA,96.33699633699634,NA
86538,Apache County,AZ,95.32710280373831,NA,NA
71909,Garland County,AR,NA,NA,11.439114391143912
71923,Clark County,AR,NA,87.78998778998779,NA
72114,Pulaski County,AR,NA,87.17948717948718,NA
72117,Pulaski County,AR,59.813084112149525,NA,NA
72120,Pulaski County,AR,NA,15.018315018315018,NA
72204,Pulaski County,AR,57.476635514018696,31.013431013431013,39.48339483394834
72206,Pulaski County,AR,NA,28.449328449328448,46.371463714637144
72207,Pulaski County,AR,NA,81.31868131868131,NA
72209,Pulaski County,AR,85.98130841121495,65.56776556776556,NA
72210,Pulaski County,AR,NA,61.53846153846154,NA
72227,Pulaski County,AR,NA,NA,52.64452644526445
90008,Los Angeles County,CA,NA,NA,57.564575645756456
90016,Los Angeles County,CA,NA,20.757020757020758,NA
90032,Los Angeles County,CA,NA,92.55189255189255,NA
90201,Los Angeles County,CA,NA,69.84126984126983,NA
90210,Los Angeles County,CA,NA,NA,17.343173431734318
90247,Los Angeles County,CA,NA,NA,47.35547355473555
90250,Los Angeles County,CA,NA,85.95848595848597,NA
90262,Los Angeles County,CA,NA,52.01465201465202,NA
90640,Los Angeles County,CA,NA,29.914529914529915,NA
90660,Los Angeles County,CA,NA,NA,21.771217712177123
90703,Los Angeles County,CA,NA,33.21123321123321,NA
90740,Orange County,CA,NA,NA,21.033210332103323
91006,Los Angeles County,CA,NA,NA,61.377613776137764
91042,Los Angeles County,CA,NA,50.18315018315018,NA
91105,Los Angeles County,CA,NA,63.24786324786324,NA
91204,Los Angeles County,CA,NA,NA,99.1389913899139
91342,Los Angeles County,CA,NA,NA,36.65436654366543
91355,Los Angeles County,CA,NA,NA,84.87084870848709
91364,Los Angeles County,CA,NA,69.1086691086691,NA
91367,Los Angeles County,CA,NA,NA,17.83517835178352
91402,Los Angeles County,CA,NA,67.15506715506714,NA
91403,Los Angeles County,CA,83.64485981308411,NA,NA
91423,Los Angeles County,CA,NA,NA,77.12177121771218
91701,San Bernardino County,CA,NA,94.13919413919413,NA
91702,Los Angeles County,CA,NA,75.57997557997558,NA
91739,San Bernardino County,CA,NA,NA,74.53874538745387
91744,Los Angeles County,CA,NA,24.42002442002442,NA
91754,Los Angeles County,CA,NA,57.02075702075702,NA
91784,San Bernardino County,CA,NA,NA,37.51537515375154
91942,San Diego County,CA,68.69158878504673,NA,NA
92009,San Diego County,CA,NA,42.246642246642246,NA
92020,San Diego County,CA,NA,NA,30.873308733087327
92064,San Diego County,CA,NA,NA,28.65928659286593
92065,San Diego County,CA,NA,NA,57.31857318573186
92109,San Diego County,CA,NA,NA,52.64452644526445
92114,San Diego County,CA,NA,26.129426129426133,27.060270602706026
92126,San Diego County,CA,NA,32.47863247863248,NA
92131,San Diego County,CA,NA,74.60317460317461,NA
92173,San Diego County,CA,NA,73.74847374847376,NA
92211,Riverside County,CA,NA,NA,0
92250,Imperial County,CA,NA,NA,83.02583025830258
92274,Riverside County,CA,NA,99.633699633699635,NA
92316,San Bernardino County,CA,NA,NA,68.38868388683886
92335,San Bernardino County,CA,NA,14.041514041514041,NA
92336,San Bernardino County,CA,NA,90.5982905982906,NA
92345,San Bernardino County,CA,NA,48.10744810744811,NA
92376,San Bernardino County,CA,NA,50.427350427350426,NA
92392,San Bernardino County,CA,NA,NA,81.18081180811808
92399,San Bernardino County,CA,NA,83.76068376068376,NA
92407,San Bernardino County,CA,NA,49.81684981684982,NA
92411,San Bernardino County,CA,NA,96.58119658119658,NA
92532,Riverside County,CA,NA,81.56288156288156,NA
92545,Riverside County,CA,NA,NA,48.46248462484625
92553,Riverside County,CA,NA,41.88034188034188,NA
92582,Riverside County,CA,NA,NA,89.66789667896678
92586,Riverside County,CA,NA,NA,21.15621156211562
92626,Orange County,CA,NA,NA,29.643296432964327
92637,Orange County,CA,NA,64.22466422466422,NA
92646,Orange County,CA,NA,6.837606837606838,NA
92648,Orange County,CA,37.38317757009346,NA,NA
92660,Orange County,CA,NA,NA,44.52644526445265
92688,Orange County,CA,NA,70.94017094017094,NA
92691,Orange County,CA,NA,NA,43.788437884378844
92692,Orange County,CA,NA,NA,8.61008610086101
92704,Orange County,CA,NA,NA,40.09840098400984
92806,Orange County,CA,NA,NA,40.836408364083645
92807,Orange County,CA,NA,NA,96.1869618696187
92833,Orange County,CA,55.60747663551402,NA,NA
92840,Orange County,CA,NA,37.11843711843712,NA
92870,Orange County,CA,NA,96.21489621489621,NA
92881,Riverside County,CA,78.97196261682244,NA,NA
93004,Ventura County,CA,NA,49.08424908424908,NA
93033,Ventura County,CA,14.485981308411214,NA,NA
93105,Santa Barbara County,CA,NA,NA,55.84255842558426
93117,Santa Barbara County,CA,NA,73.26007326007326,NA
93306,Kern County,CA,NA,NA,84.25584255842558
93307,Kern County,CA,NA,NA,48.09348093480935
93401,San Luis Obispo County,CA,NA,51.52625152625152,NA
93552,Los Angeles County,CA,NA,77.16727716727718,89.54489544895449
93612,Fresno County,CA,NA,NA,71.83271832718327
93704,Fresno County,CA,57.009345794392516,NA,NA
93727,Fresno County,CA,NA,23.32112332112332,NA
94014,San Mateo County,CA,90.18691588785047,NA,8.241082410824108
94015,San Mateo County,CA,NA,NA,25.584255842558424
94025,San Mateo County,CA,NA,NA,25.21525215252153
94044,San Mateo County,CA,NA,26.373626373626376,NA
94061,San Mateo County,CA,85.04672897196261,NA,NA
94062,San Mateo County,CA,NA,81.07448107448107,45.38745387453875
94080,San Mateo County,CA,NA,34.065934065934066,NA
94089,Santa Clara County,CA,NA,82.78388278388277,NA
94102,San Francisco County,CA,NA,NA,87.20787207872078
94109,San Francisco County,CA,NA,76.31257631257631,2.706027060270603
94110,San Francisco County,CA,NA,NA,22.263222632226324
94112,San Francisco County,CA,NA,83.15018315018315,NA
94114,San Francisco County,CA,97.19626168224299,52.258852258852265,48.585485854858554
94115,San Francisco County,CA,NA,NA,10.209102091020911
94116,San Francisco County,CA,NA,NA,60.76260762607626
94118,San Francisco County,CA,NA,68.13186813186813,19.43419434194342
94121,San Francisco County,CA,75.23364485981308,39.072039072039075,NA
94122,San Francisco County,CA,NA,74.23687423687424,4.428044280442804
94124,San Francisco County,CA,34.112149532710276,84.004884004884,87.94587945879458
94130,San Francisco County,CA,NA,99.75579975579976,NA
94131,San Francisco County,CA,NA,52.86935286935287,NA
94133,San Francisco County,CA,NA,45.66544566544567,NA
94134,San Francisco County,CA,NA,NA,26.44526445264453
94301,Santa Clara County,CA,NA,NA,57.93357933579336
94303,San Mateo County,CA,NA,NA,58.671586715867164
94403,San Mateo County,CA,NA,16.117216117216117,NA
94509,Contra Costa County,CA,NA,NA,14.637146371463713
94526,Contra Costa County,CA,NA,48.595848595848594,NA
94542,Alameda County,CA,NA,94.26129426129425,NA
94545,Alameda County,CA,NA,67.3992673992674,NA
94549,Contra Costa County,CA,86.44859813084112,NA,NA
94583,Contra Costa County,CA,NA,60.927960927960925,NA
94587,Alameda County,CA,NA,19.78021978021978,NA
94590,Solano County,CA,NA,NA,43.05043050430504
94591,Solano County,CA,NA,38.70573870573871,NA
94595,Contra Costa County,CA,NA,NA,35.05535055350554
94601,Alameda County,CA,NA,37.11843711843712,NA
94605,Alameda County,CA,NA,NA,65.55965559655597
94608,Alameda County,CA,NA,NA,53.75153751537516
94621,Alameda County,CA,39.719626168224295,NA,NA
94702,Alameda County,CA,68.22429906542055,NA,NA
94706,Alameda County,CA,NA,95.72649572649573,NA
94709,Alameda County,CA,NA,NA,87.4538745387454
94804,Contra Costa County,CA,NA,74.72527472527473,NA
94941,Marin County,CA,NA,41.514041514041516,NA
94954,Sonoma County,CA,NA,NA,63.59163591635917
95010,Santa Cruz County,CA,98.5981308411215,NA,NA
95051,Santa Clara County,CA,NA,50.79365079365079,NA
95117,Santa Clara County,CA,NA,70.32967032967034,NA
95122,Santa Clara County,CA,NA,47.61904761904761,NA
95131,Santa Clara County,CA,NA,97.43589743589743,NA
95133,Santa Clara County,CA,91.58878504672897,68.37606837606837,NA
95242,San Joaquin County,CA,NA,NA,87.08487084870849
95301,Merced County,CA,50.467289719626166,87.05738705738706,NA
95340,Merced County,CA,71.96261682242991,NA,71.70971709717097
95453,Lake County,CA,NA,NA,86.34686346863468
95476,Sonoma County,CA,NA,34.55433455433455,NA
95482,Mendocino County,CA,NA,23.931623931623932,33.702337023370234
95603,Placer County,CA,NA,45.543345543345545,NA
95616,Yolo County,CA,NA,NA,40.22140221402214
95621,Sacramento County,CA,NA,NA,55.227552275522754
95628,Sacramento County,CA,NA,40.415140415140414,NA
95630,Sacramento County,CA,NA,15.995115995115993,NA
95648,Placer County,CA,NA,22.832722832722833,NA
95667,El Dorado County,CA,NA,24.90842490842491,NA
95691,Yolo County,CA,NA,52.74725274725275,NA
95747,Placer County,CA,NA,NA,8.487084870848708
95758,Sacramento County,CA,NA,NA,38.49938499384994
95821,Sacramento County,CA,NA,NA,69.61869618696187
95822,Sacramento County,CA,NA,NA,53.50553505535055
95823,Sacramento County,CA,NA,52.991452991452995,26.691266912669125
95827,Sacramento County,CA,NA,89.86568986568987,NA
95831,Sacramento County,CA,NA,NA,21.894218942189422
95833,Sacramento County,CA,NA,58.730158730158735,NA
95835,Sacramento County,CA,71.49532710280374,NA,NA
95993,Sutter County,CA,NA,NA,26.076260762607628
96080,Tehama County,CA,NA,59.462759462759465,NA
80002,Jefferson County,CO,NA,NA,77.12177121771218
80010,Arapahoe County,CO,NA,76.80097680097681,NA
80012,Arapahoe County,CO,NA,62.14896214896215,NA
80013,Arapahoe County,CO,NA,NA,96.30996309963099
80014,Arapahoe County,CO,NA,25.03052503052503,7.134071340713407
80015,Arapahoe County,CO,NA,NA,52.89052890528906
80017,Arapahoe County,CO,NA,89.13308913308914,NA
80022,Adams County,CO,21.49532710280374,NA,NA
80111,Arapahoe County,CO,NA,94.01709401709401,67.03567035670358
80112,Arapahoe County,CO,NA,54.456654456654455,NA
80113,Arapahoe County,CO,NA,NA,57.93357933579336
80120,Arapahoe County,CO,NA,NA,45.018450184501845
80121,Arapahoe County,CO,NA,NA,49.938499384993854
80122,Arapahoe County,CO,NA,NA,77.61377613776138
80127,Jefferson County,CO,NA,NA,82.90282902829028
80203,Denver County,CO,NA,NA,90.52890528905289
80207,Denver County,CO,NA,65.93406593406593,NA
80209,Denver County,CO,NA,NA,89.2988929889299
80211,Denver County,CO,NA,NA,87.82287822878229
80218,Denver County,CO,NA,NA,87.69987699877
80219,Denver County,CO,NA,20.51282051282051,NA
80220,Denver County,CO,NA,NA,78.72078720787208
80226,Jefferson County,CO,53.73831775700935,76.19047619047619,NA
80238,Denver County,CO,NA,NA,99.50799507995079
80247,Arapahoe County,CO,NA,47.49694749694749,32.226322263222634
80301,Boulder County,CO,NA,73.992673992674,NA
80302,Boulder County,CO,NA,NA,94.95694956949569
80303,Boulder County,CO,NA,NA,84.50184501845018
80304,Boulder County,CO,NA,62.637362637362635,NA
80401,Jefferson County,CO,NA,48.96214896214896,NA
80465,Jefferson County,CO,89.25233644859813,NA,NA
80517,Larimer County,CO,NA,NA,32.59532595325953
80601,Adams County,CO,NA,NA,70.11070110701108
80621,Weld County,CO,NA,99.26739926739927,NA
80640,Adams County,CO,NA,96.7032967032967,NA
80723,Morgan County,CO,NA,NA,81.67281672816729
81201,Chaffee County,CO,NA,NA,60.51660516605166
81211,Chaffee County,CO,NA,88.27838827838828,NA
81212,Fremont County,CO,NA,NA,93.35793357933579
81416,Delta County,CO,NA,NA,69.37269372693727
06002,Hartford County,CT,NA,NA,30.627306273062732
06010,Hartford County,CT,NA,17.46031746031746,NA
06053,Hartford County,CT,NA,NA,42.80442804428044
06105,Hartford County,CT,NA,NA,80.93480934809348
06410,New Haven County,CT,NA,NA,38.74538745387454
06416,Middlesex County,CT,NA,NA,77.49077490774908
06479,Hartford County,CT,NA,82.41758241758241,70.47970479704797
06498,Middlesex County,CT,NA,NA,73.43173431734317
06511,New Haven County,CT,NA,NA,43.419434194341946
06606,Fairfield County,CT,22.897196261682243,NA,NA
06614,Fairfield County,CT,NA,32.6007326007326,NA
06710,New Haven County,CT,NA,NA,96.4329643296433
06790,Litchfield County,CT,NA,2.442002442002442,NA
19720,New Castle County,DE,NA,NA,32.349323493234934
32209,Duval County,FL,NA,NA,12.177121771217712
32223,Duval County,FL,NA,NA,45.63345633456334
32257,Duval County,FL,33.64485981308411,NA,75.03075030750308
32905,Brevard County,FL,NA,77.41147741147742,NA
32966,Indian River County,FL,81.30841121495327,NA,NA
33004,Broward County,FL,NA,NA,83.76383763837639
33013,Miami-Dade County,FL,NA,89.49938949938951,23.370233702337025
33014,Miami-Dade County,FL,NA,NA,22.878228782287824
33015,Miami-Dade County,FL,NA,NA,94.4649446494465
33016,Miami-Dade County,FL,NA,55.311355311355314,23.001230012300123
33019,Broward County,FL,NA,81.68498168498168,NA
33021,Broward County,FL,NA,57.87545787545788,NA
33023,Broward County,FL,24.766355140186917,NA,NA
33024,Broward County,FL,NA,NA,81.54981549815497
33030,Miami-Dade County,FL,47.66355140186916,NA,NA
33040,Monroe County,FL,79.90654205607477,NA,NA
33054,Miami-Dade County,FL,NA,NA,95.079950799508
33125,Miami-Dade County,FL,NA,NA,72.57072570725708
33126,Miami-Dade County,FL,NA,NA,19.311193111931118
33130,Miami-Dade County,FL,NA,NA,53.01353013530136
33131,Miami-Dade County,FL,NA,NA,99.2619926199262
33134,Miami-Dade County,FL,NA,52.50305250305251,NA
33138,Miami-Dade County,FL,NA,NA,44.15744157441574
33139,Miami-Dade County,FL,65.42056074766354,50.06105006105006,NA
33140,Miami-Dade County,FL,NA,NA,20.29520295202952
33142,Miami-Dade County,FL,NA,91.81929181929182,50.307503075030745
33147,Miami-Dade County,FL,NA,34.31013431013431,NA
33156,Miami-Dade County,FL,NA,NA,75.39975399753997
33157,Miami-Dade County,FL,NA,19.536019536019538,NA
33162,Miami-Dade County,FL,NA,NA,86.96186961869618
33165,Miami-Dade County,FL,NA,67.76556776556777,21.40221402214022
33174,Miami-Dade County,FL,NA,66.42246642246641,NA
33177,Miami-Dade County,FL,NA,49.32844932844933,NA
33178,Miami-Dade County,FL,NA,78.87667887667888,NA
33179,Miami-Dade County,FL,NA,NA,70.97170971709717
33180,Miami-Dade County,FL,NA,NA,12.423124231242312
33184,Miami-Dade County,FL,NA,NA,46.74046740467405
33189,Miami-Dade County,FL,NA,NA,98.8929889298893
33193,Miami-Dade County,FL,NA,NA,78.35178351783519
33309,Broward County,FL,NA,45.05494505494506,NA
33319,Broward County,FL,NA,29.54822954822955,NA
33351,Broward County,FL,NA,NA,79.45879458794587
33405,Palm Beach County,FL,NA,NA,70.23370233702337
33411,Palm Beach County,FL,NA,NA,20.04920049200492
33436,Palm Beach County,FL,NA,48.22954822954823,NA
33462,Palm Beach County,FL,72.42990654205607,NA,NA
33606,Hillsborough County,FL,91.1214953271028,NA,NA
33707,Pinellas County,FL,NA,NA,22.14022140221402
33755,Pinellas County,FL,NA,NA,93.72693726937268
33801,Polk County,FL,31.775700934579437,NA,NA
33823,Polk County,FL,NA,NA,53.25953259532595
33852,Highlands County,FL,NA,NA,5.043050430504305
33909,Lee County,FL,NA,87.54578754578755,NA
33919,Lee County,FL,NA,12.454212454212454,NA
33922,Lee County,FL,NA,NA,96.06396063960639
33950,Charlotte County,FL,NA,NA,22.386223862238623
33990,Lee County,FL,NA,39.43833943833944,NA
34231,Sarasota County,FL,NA,NA,3.4440344403444034
34237,Sarasota County,FL,NA,68.62026862026862,NA
34243,Manatee County,FL,NA,22.46642246642247,NA
34285,Sarasota County,FL,NA,16.483516483516482,NA
34286,Sarasota County,FL,NA,56.166056166056165,NA
34293,Sarasota County,FL,52.80373831775701,NA,NA
34470,Marion County,FL,NA,66.78876678876678,NA
34491,Marion County,FL,NA,64.83516483516483,20.418204182041823
34653,Pasco County,FL,NA,NA,11.931119311193111
34655,Pasco County,FL,NA,NA,16.974169741697416
34695,Pinellas County,FL,76.63551401869158,NA,NA
34748,Lake County,FL,NA,8.058608058608058,15.621156211562115
34759,Polk County,FL,NA,42.857142857142854,NA
34786,Orange County,FL,NA,48.84004884004884,NA
34787,Orange County,FL,NA,19.047619047619047,NA
34952,St. Lucie County,FL,NA,7.448107448107448,NA
34983,St. Lucie County,FL,NA,80.83028083028083,NA
30002,DeKalb County,GA,99.53271028037383,NA,NA
30019,Gwinnett County,GA,NA,NA,44.64944649446495
30022,Fulton County,GA,NA,NA,78.10578105781057
30032,DeKalb County,GA,NA,43.101343101343105,NA
30034,DeKalb County,GA,NA,21.123321123321123,NA
30038,DeKalb County,GA,46.728971962616825,NA,NA
30041,Forsyth County,GA,NA,9.768009768009769,NA
30047,Gwinnett County,GA,NA,24.54212454212454,71.95571955719558
30058,DeKalb County,GA,NA,61.05006105006105,NA
30075,Fulton County,GA,43.925233644859816,NA,NA
30083,DeKalb County,GA,NA,32.11233211233211,46.248462484624845
30096,Gwinnett County,GA,NA,NA,16.974169741697416
30120,Bartow County,GA,NA,76.92307692307693,NA
30132,Paulding County,GA,40.654205607476634,NA,NA
30240,Troup County,GA,NA,22.71062271062271,NA
30294,DeKalb County,GA,NA,94.74969474969474,NA
30307,DeKalb County,GA,NA,79.12087912087912,NA
30310,Fulton County,GA,77.57009345794393,NA,NA
30311,Fulton County,GA,NA,19.291819291819294,16.236162361623617
30312,Fulton County,GA,NA,NA,61.254612546125465
30315,Fulton County,GA,NA,23.565323565323563,35.67035670356704
30316,DeKalb County,GA,NA,47.985347985347985,92.98892988929889
30317,DeKalb County,GA,NA,78.26617826617827,NA
30318,Fulton County,GA,NA,30.158730158730158,29.766297662976633
30331,Fulton County,GA,NA,NA,49.815498154981555
30344,Fulton County,GA,NA,92.06349206349206,NA
30548,Jackson County,GA,NA,80.21978021978022,NA
30622,Oconee County,GA,NA,89.37728937728939,NA
30680,Barrow County,GA,73.83177570093457,NA,NA
30701,Gordon County,GA,NA,27.716727716727718,NA
30815,Richmond County,GA,NA,12.21001221001221,NA
30901,Richmond County,GA,92.5233644859813,NA,99.87699876998771
30907,Columbia County,GA,NA,NA,63.34563345633456
30909,Richmond County,GA,NA,NA,74.66174661746618
31027,Laurens County,GA,NA,86.20268620268621,NA
31061,Baldwin County,GA,NA,NA,66.42066420664207
31639,Berrien County,GA,83.17757009345794,NA,NA
96706,Honolulu County,HI,NA,10.866910866910867,67.28167281672816
96744,Honolulu County,HI,NA,20.024420024420024,NA
96749,Hawaii County,HI,NA,71.91697191697192,NA
96782,Honolulu County,HI,NA,58.48595848595849,NA
96815,Honolulu County,HI,NA,NA,18.942189421894216
96817,Honolulu County,HI,NA,NA,3.8130381303813037
96819,Honolulu County,HI,NA,NA,19.92619926199262
96821,Honolulu County,HI,NA,NA,13.899138991389915
96822,Honolulu County,HI,NA,NA,72.07872078720787
96825,Honolulu County,HI,NA,NA,3.3210332103321036
96826,Honolulu County,HI,NA,NA,33.08733087330874
83401,Bonneville County,ID,NA,NA,76.13776137761377
83647,Elmore County,ID,NA,47.74114774114774,NA
83651,Canyon County,ID,NA,NA,11.562115621156211
83704,Ada County,ID,NA,NA,17.22017220172202
83709,Ada County,ID,NA,NA,3.198031980319803
83713,Ada County,ID,NA,NA,13.161131611316112
83716,Ada County,ID,NA,NA,59.163591635916355
60025,Cook County,IL,47.19626168224299,NA,2.8290282902829027
60030,Lake County,IL,NA,21.611721611721613,NA
60047,Lake County,IL,NA,20.146520146520146,NA
60051,McHenry County,IL,58.87850467289719,NA,NA
60056,Cook County,IL,NA,NA,31.48831488314883
60062,Cook County,IL,NA,NA,5.658056580565805
60067,Cook County,IL,NA,17.338217338217337,11.685116851168512
60085,Lake County,IL,NA,96.45909645909646,NA
60090,Cook County,IL,NA,NA,15.006150061500614
60091,Cook County,IL,NA,NA,13.653136531365314
60093,Cook County,IL,NA,NA,56.33456334563346
60101,DuPage County,IL,NA,20.146520146520146,NA
60103,DuPage County,IL,NA,NA,39.36039360393604
60108,DuPage County,IL,NA,79.73137973137973,NA
60123,Kane County,IL,NA,NA,16.851168511685117
60124,Kane County,IL,NA,80.7081807081807,NA
60148,DuPage County,IL,NA,31.5018315018315,NA
60155,Cook County,IL,NA,61.41636141636142,NA
60156,McHenry County,IL,NA,NA,72.20172201722018
60160,Cook County,IL,NA,NA,92.25092250922509
60169,Cook County,IL,NA,NA,45.87945879458795
60175,Kane County,IL,NA,33.45543345543345,NA
60187,DuPage County,IL,NA,35.53113553113553,NA
60302,Cook County,IL,NA,NA,14.391143911439114
60401,Will County,IL,88.3177570093458,NA,NA
60402,Cook County,IL,NA,NA,29.397293972939732
60406,Cook County,IL,NA,71.30647130647131,NA
60418,Cook County,IL,NA,98.65689865689866,NA
60419,Cook County,IL,NA,35.28693528693529,80.44280442804428
60423,Will County,IL,NA,NA,85.48585485854858
60426,Cook County,IL,61.6822429906542,NA,NA
60439,Cook County,IL,NA,NA,23.862238622386222
60451,Will County,IL,NA,13.431013431013431,NA
60514,DuPage County,IL,NA,NA,98.4009840098401
60515,DuPage County,IL,NA,NA,54.61254612546126
60516,DuPage County,IL,NA,28.57142857142857,92.74292742927429
60586,Will County,IL,NA,63.61416361416361,NA
60605,Cook County,IL,NA,NA,54.858548585485856
60607,Cook County,IL,NA,NA,71.34071340713407
60611,Cook County,IL,NA,18.315018315018314,NA
60612,Cook County,IL,NA,NA,67.40467404674047
60615,Cook County,IL,34.57943925233645,15.14041514041514,NA
60616,Cook County,IL,NA,NA,94.2189421894219
60619,Cook County,IL,NA,NA,44.895448954489545
60620,Cook County,IL,NA,NA,2.4600246002460024
60623,Cook County,IL,NA,10.134310134310134,NA
60624,Cook County,IL,NA,59.70695970695971,NA
60625,Cook County,IL,NA,12.087912087912088,NA
60626,Cook County,IL,24.299065420560748,NA,NA
60628,Cook County,IL,NA,23.809523809523807,1.8450184501845017
60632,Cook County,IL,NA,27.96092796092796,25.461254612546124
60636,Cook County,IL,NA,NA,20.91020910209102
60637,Cook County,IL,NA,10.989010989010989,NA
60638,Cook County,IL,NA,69.47496947496947,NA
60644,Cook County,IL,11.682242990654206,NA,NA
60645,Cook County,IL,NA,19.413919413919416,NA
60647,Cook County,IL,NA,18.07081807081807,NA
60649,Cook County,IL,NA,NA,80.31980319803198
60651,Cook County,IL,NA,37.72893772893773,13.284132841328415
60827,Cook County,IL,NA,NA,84.37884378843789
60957,Ford County,IL,NA,NA,84.62484624846248
61071,Whiteside County,IL,NA,51.037851037851034,10.33210332103321
61073,Winnebago County,IL,NA,39.804639804639805,NA
61081,Whiteside County,IL,38.78504672897196,13.675213675213676,2.091020910209102
61111,Winnebago County,IL,NA,NA,79.21279212792129
61401,Knox County,IL,NA,NA,17.712177121771216
61443,Henry County,IL,NA,50.54945054945055,NA
61604,Peoria County,IL,NA,71.55067155067155,NA
61614,Peoria County,IL,NA,NA,22.01722017220172
61820,Champaign County,IL,NA,77.04517704517706,NA
61821,Champaign County,IL,NA,NA,9.84009840098401
61832,Vermilion County,IL,NA,NA,34.932349323493234
61866,Champaign County,IL,NA,NA,61.00861008610086
62040,Madison County,IL,27.570093457943923,NA,NA
62521,Macon County,IL,16.355140186915886,NA,NA
62526,Macon County,IL,14.018691588785046,NA,NA
62946,Saline County,IL,NA,NA,49.32349323493235
46011,Madison County,IN,NA,NA,35.67035670356704
46163,Hancock County,IN,NA,NA,72.93972939729397
46184,Johnson County,IN,NA,71.67277167277167,NA
46203,Marion County,IN,NA,11.72161172161172,NA
46222,Marion County,IN,26.168224299065418,26.984126984126984,NA
46226,Marion County,IN,NA,13.30891330891331,NA
46227,Marion County,IN,NA,NA,2.952029520295203
46235,Marion County,IN,NA,89.62148962148963,NA
46304,Porter County,IN,NA,NA,24.846248462484624
46307,Lake County,IN,NA,1.7094017094017095,NA
46383,Porter County,IN,NA,NA,10.824108241082412
46407,Lake County,IN,51.4018691588785,NA,60.147601476014756
46511,Marshall County,IN,NA,NA,85.23985239852398
46815,Allen County,IN,NA,37.48473748473749,NA
46902,Howard County,IN,NA,22.58852258852259,5.289052890528905
47274,Jackson County,IN,NA,NA,28.16728167281673
47438,Greene County,IN,NA,NA,95.8179581795818
47630,Warrick County,IN,NA,56.65445665445665,NA
47711,Vanderburgh County,IN,NA,NA,17.466174661746617
50014,Story County,IA,NA,NA,53.25953259532595
50022,Cass County,IA,NA,82.29548229548229,NA
50265,Polk County,IA,45.32710280373832,56.898656898656895,NA
50310,Polk County,IA,NA,NA,72.32472324723247
50313,Polk County,IA,NA,62.637362637362635,NA
50314,Polk County,IA,NA,86.81318681318682,95.44895448954489
50325,Polk County,IA,NA,89.98778998779,NA
50401,Cerro Gordo County,IA,NA,NA,0.6150061500615006
50613,Black Hawk County,IA,54.67289719626168,NA,NA
50801,Union County,IA,NA,NA,48.09348093480935
51012,Cherokee County,IA,97.66355140186917,NA,NA
52240,Johnson County,IA,NA,17.704517704517706,58.794587945879464
52241,Johnson County,IA,NA,92.67399267399267,NA
52245,Johnson County,IA,NA,39.682539682539684,NA
52317,Johnson County,IA,NA,72.03907203907204,90.6519065190652
52601,Des Moines County,IA,NA,NA,75.64575645756457
52742,Clinton County,IA,NA,96.09279609279609,NA
52761,Muscatine County,IA,NA,NA,57.19557195571956
52807,Scott County,IA,NA,94.5054945054945,NA
67401,Saline County,KS,NA,19.047619047619047,NA
40165,Bullitt County,KY,NA,14.896214896214897,NA
40218,Jefferson County,KY,18.69158878504673,NA,NA
40515,Fayette County,KY,82.71028037383178,NA,NA
41042,Boone County,KY,NA,5.4945054945054945,NA
41522,Pike County,KY,79.43925233644859,NA,NA
70005,Jefferson Parish,LA,NA,NA,32.84132841328413
70006,Jefferson Parish,LA,NA,75.7020757020757,NA
70065,Jefferson Parish,LA,NA,2.6862026862026864,83.51783517835179
70068,St. John the Baptist Parish,LA,NA,69.71916971916971,27.429274292742928
70072,Jefferson Parish,LA,NA,65.32356532356532,NA
70092,St. Bernard Parish,LA,NA,91.08669108669109,NA
70118,Orleans Parish,LA,NA,NA,63.960639606396064
70124,Orleans Parish,LA,NA,NA,91.14391143911439
70125,Orleans Parish,LA,NA,69.35286935286935,NA
70126,Orleans Parish,LA,NA,NA,81.42681426814268
70127,Orleans Parish,LA,NA,29.914529914529915,NA
70128,Orleans Parish,LA,NA,31.746031746031743,NA
70130,Orleans Parish,LA,NA,NA,54.981549815498155
70301,Lafourche Parish,LA,NA,7.0818070818070815,NA
70360,Terrebonne Parish,LA,NA,NA,83.39483394833948
70363,Terrebonne Parish,LA,NA,30.76923076923077,NA
70401,Tangipahoa Parish,LA,NA,35.04273504273504,91.26691266912668
70427,Washington Parish,LA,20.5607476635514,NA,NA
70438,Washington Parish,LA,17.75700934579439,NA,NA
70471,St. Tammany Parish,LA,NA,NA,79.70479704797047
70501,Lafayette Parish,LA,NA,NA,31.365313653136536
70517,St. Martin Parish,LA,16.822429906542055,NA,NA
70529,Lafayette Parish,LA,NA,94.99389499389498,NA
70583,Lafayette Parish,LA,NA,95.23809523809523,NA
70737,Ascension Parish,LA,NA,15.262515262515263,NA
70767,West Baton Rouge Parish,LA,NA,65.44566544566544,NA
70769,Ascension Parish,LA,NA,71.18437118437119,NA
70809,East Baton Rouge Parish,LA,NA,NA,36.90036900369004
70815,East Baton Rouge Parish,LA,21.02803738317757,NA,35.30135301353013
70816,East Baton Rouge Parish,LA,NA,NA,68.01968019680197
70817,East Baton Rouge Parish,LA,NA,49.2063492063492,NA
71037,Bossier Parish,LA,NA,51.28205128205128,NA
71075,Webster Parish,LA,NA,79.73137973137973,NA
71106,Caddo Parish,LA,NA,NA,67.15867158671587
71107,Caddo Parish,LA,NA,53.84615384615385,NA
71108,Caddo Parish,LA,13.551401869158877,NA,NA
71109,Caddo Parish,LA,NA,NA,69.24969249692496
71112,Bossier Parish,LA,NA,22.22222222222222,NA
71202,Ouachita Parish,LA,NA,79.60927960927961,NA
71220,Morehouse Parish,LA,NA,75.21367521367522,NA
71235,Lincoln Parish,LA,NA,97.8021978021978,NA
71334,Concordia Parish,LA,NA,80.0976800976801,NA
71342,La Salle Parish,LA,NA,NA,82.28782287822878
04090,York County,ME,NA,NA,16.359163591635916
04401,Penobscot County,ME,4.672897196261682,NA,40.59040590405904
04412,Penobscot County,ME,NA,NA,58.54858548585485
04730,Aroostook County,ME,NA,NA,64.20664206642066
04736,Aroostook County,ME,NA,87.42368742368743,60.88560885608856
04743,Aroostook County,ME,NA,NA,98.1549815498155
04769,Aroostook County,ME,66.82242990654206,43.223443223443226,NA
20639,Calvert County,MD,NA,NA,84.13284132841329
20723,Howard County,MD,NA,NA,89.17589175891759
20724,Anne Arundel County,MD,86.91588785046729,NA,NA
20743,Prince George's County,MD,71.02803738317756,NA,NA
20886,Montgomery County,MD,81.77570093457945,NA,NA
21111,Baltimore County,MD,NA,99.38949938949939,NA
21117,Baltimore County,MD,38.31775700934579,23.44322344322344,NA
21131,Baltimore County,MD,NA,98.04639804639804,NA
21206,Baltimore city,MD,14.953271028037381,NA,NA
21213,Baltimore city,MD,NA,NA,37.392373923739235
21214,Baltimore city,MD,NA,66.9108669108669,NA
21215,Baltimore city,MD,NA,7.6923076923076925,77.98277982779828
21216,Baltimore city,MD,42.99065420560748,56.53235653235653,NA
21217,Baltimore city,MD,NA,70.81807081807082,87.57687576875769
21222,Baltimore County,MD,NA,2.31990231990232,28.782287822878228
21244,Baltimore County,MD,NA,69.84126984126983,NA
21502,Allegany County,MD,NA,53.23565323565324,NA
21757,Frederick County,MD,NA,99.87789987789988,NA
01027,Hampshire County,MA,NA,40.78144078144078,NA
01036,Hampden County,MA,NA,97.68009768009767,NA
01089,Hampden County,MA,NA,28.083028083028083,NA
01453,Worcester County,MA,NA,NA,66.91266912669127
01460,Middlesex County,MA,NA,NA,86.5928659286593
01603,Worcester County,MA,NA,2.564102564102564,NA
01720,Middlesex County,MA,NA,NA,38.25338253382534
01742,Middlesex County,MA,60.280373831775705,36.996336996337,NA
01746,Middlesex County,MA,NA,36.385836385836384,NA
01757,Worcester County,MA,NA,NA,54.24354243542435
01801,Middlesex County,MA,NA,9.157509157509157,9.96309963099631
01803,Middlesex County,MA,NA,4.029304029304029,16.482164821648215
01810,Essex County,MA,NA,67.88766788766789,15.744157441574416
01821,Middlesex County,MA,9.813084112149532,1.5873015873015872,NA
01826,Middlesex County,MA,NA,NA,51.78351783517835
01832,Essex County,MA,NA,NA,69.86469864698647
01841,Essex County,MA,NA,NA,1.968019680196802
01851,Middlesex County,MA,5.14018691588785,NA,NA
01863,Middlesex County,MA,NA,58.852258852258856,NA
01867,Middlesex County,MA,NA,NA,46.86346863468634
01876,Middlesex County,MA,NA,17.582417582417584,53.874538745387454
01880,Middlesex County,MA,NA,5.128205128205128,NA
01905,Essex County,MA,3.7383177570093453,NA,NA
01906,Essex County,MA,NA,7.203907203907203,NA
01921,Essex County,MA,NA,NA,93.9729397293973
01923,Essex County,MA,NA,NA,14.514145141451415
01938,Essex County,MA,NA,14.163614163614163,NA
01940,Essex County,MA,NA,NA,18.327183271832716
01960,Essex County,MA,NA,0.6105006105006106,8.118081180811808
02021,Norfolk County,MA,NA,NA,6.273062730627306
02026,Norfolk County,MA,NA,NA,45.141451414514144
02038,Norfolk County,MA,NA,NA,24.600246002460025
02053,Norfolk County,MA,NA,61.2942612942613,NA
02066,Plymouth County,MA,NA,43.956043956043956,NA
02115,Suffolk County,MA,NA,23.076923076923077,68.26568265682657
02116,Suffolk County,MA,NA,3.0525030525030523,88.31488314883148
02118,Suffolk County,MA,0,44.810744810744815,49.44649446494465
02119,Suffolk County,MA,NA,0.1221001221001221,NA
02121,Suffolk County,MA,NA,0.3663003663003663,92.12792127921279
02124,Suffolk County,MA,NA,40.29304029304029,28.044280442804425
02126,Suffolk County,MA,NA,23.1990231990232,68.88068880688807
02127,Suffolk County,MA,NA,6.227106227106227,9.59409594095941
02129,Suffolk County,MA,NA,97.19169719169719,41.94341943419434
02130,Suffolk County,MA,2.803738317757009,58.97435897435898,44.28044280442804
02131,Suffolk County,MA,NA,95.48229548229548,19.803198031980322
02132,Suffolk County,MA,NA,1.8315018315018317,NA
02135,Suffolk County,MA,44.39252336448598,8.18070818070818,27.30627306273063
02136,Suffolk County,MA,NA,4.273504273504273,51.41451414514145
02139,Middlesex County,MA,6.074766355140187,17.94871794871795,74.04674046740467
02140,Middlesex County,MA,NA,NA,56.94956949569495
02143,Middlesex County,MA,NA,60.317460317460316,80.07380073800738
02144,Middlesex County,MA,NA,NA,50.67650676506765
02145,Middlesex County,MA,7.943925233644859,7.936507936507936,NA
02148,Middlesex County,MA,NA,NA,7.011070110701106
02149,Middlesex County,MA,0.46728971962616817,NA,NA
02150,Suffolk County,MA,NA,27.106227106227106,59.90159901599016
02151,Suffolk County,MA,NA,0,4.059040590405904
02152,Suffolk County,MA,NA,55.92185592185592,7.626076260762607
02155,Middlesex County,MA,NA,0.7326007326007326,0.12300123001230012
02169,Norfolk County,MA,1.4018691588785046,59.0964590964591,0.24600246002460024
02184,Norfolk County,MA,NA,NA,34.686346863468636
02186,Norfolk County,MA,NA,NA,70.23370233702337
02301,Plymouth County,MA,NA,NA,0.4920049200492005
02302,Plymouth County,MA,12.149532710280374,NA,NA
02324,Plymouth County,MA,NA,NA,48.33948339483395
02347,Plymouth County,MA,NA,NA,82.41082410824109
02359,Plymouth County,MA,67.28971962616822,NA,NA
02368,Norfolk County,MA,NA,95.97069597069597,NA
02420,Middlesex County,MA,NA,NA,43.29643296432965
02445,Norfolk County,MA,NA,33.33333333333333,NA
02446,Norfolk County,MA,NA,32.967032967032964,NA
02458,Middlesex County,MA,51.86915887850467,NA,NA
02460,Middlesex County,MA,NA,NA,97.90897908979089
02466,Middlesex County,MA,NA,NA,55.104551045510455
02467,Norfolk County,MA,NA,62.27106227106227,NA
02468,Middlesex County,MA,92.05607476635514,NA,NA
02478,Middlesex County,MA,NA,85.71428571428571,68.75768757687577
02536,Barnstable County,MA,NA,11.5995115995116,NA
02568,Dukes County,MA,NA,41.75824175824176,NA
02631,Barnstable County,MA,NA,NA,37.02337023370234
02660,Barnstable County,MA,NA,NA,61.131611316113165
02703,Bristol County,MA,NA,51.8925518925519,NA
02746,Bristol County,MA,NA,68.74236874236874,NA
02766,Bristol County,MA,NA,NA,61.62361623616236
48021,Macomb County,MI,NA,NA,28.90528905289053
48026,Macomb County,MI,NA,NA,78.96678966789668
48033,Oakland County,MI,NA,NA,20.04920049200492
48034,Oakland County,MI,NA,NA,39.85239852398524
48040,St. Clair County,MI,NA,100,NA
48047,Macomb County,MI,NA,12.576312576312576,NA
48060,St. Clair County,MI,NA,NA,15.867158671586715
48065,Macomb County,MI,NA,NA,56.70356703567035
48066,Macomb County,MI,NA,NA,6.027060270602706
48075,Oakland County,MI,89.7196261682243,NA,NA
48080,Macomb County,MI,NA,NA,56.21156211562116
48081,Macomb County,MI,NA,NA,13.776137761377614
48101,Wayne County,MI,NA,28.815628815628813,NA
48103,Washtenaw County,MI,NA,1.465201465201465,47.84747847478475
48105,Washtenaw County,MI,NA,NA,61.746617466174655
48111,Wayne County,MI,NA,5.006105006105006,NA
48114,Livingston County,MI,NA,26.00732600732601,NA
48116,Livingston County,MI,NA,49.694749694749696,NA
48117,Monroe County,MI,85.51401869158879,NA,NA
48118,Washtenaw County,MI,NA,32.72283272283272,NA
48126,Wayne County,MI,NA,NA,12.054120541205412
48127,Wayne County,MI,NA,NA,52.521525215252154
48130,Washtenaw County,MI,NA,37.362637362637365,73.67773677736777
48135,Wayne County,MI,NA,22.344322344322347,NA
48138,Wayne County,MI,NA,56.41025641025641,NA
48141,Wayne County,MI,NA,90.23199023199024,29.88929889298893
48150,Wayne County,MI,66.35514018691589,NA,NA
48154,Wayne County,MI,NA,78.75457875457876,NA
48158,Washtenaw County,MI,NA,79.97557997557998,NA
48162,Monroe County,MI,NA,NA,12.300123001230013
48167,Oakland County,MI,NA,NA,62.60762607626076
48168,Wayne County,MI,NA,NA,86.46986469864699
48169,Livingston County,MI,NA,NA,66.29766297662977
48170,Wayne County,MI,NA,20.87912087912088,NA
48174,Wayne County,MI,NA,47.863247863247864,96.6789667896679
48176,Washtenaw County,MI,NA,NA,73.55473554735548
48178,Oakland County,MI,NA,11.233211233211234,NA
48183,Wayne County,MI,NA,32.234432234432234,NA
48184,Wayne County,MI,NA,NA,36.40836408364084
48185,Wayne County,MI,NA,5.372405372405373,5.904059040590406
48192,Wayne County,MI,NA,63.98046398046397,66.05166051660517
48195,Wayne County,MI,NA,NA,16.728167281672818
48197,Washtenaw County,MI,39.25233644859813,60.43956043956044,NA
48198,Washtenaw County,MI,NA,NA,22.75522755227552
48204,Wayne County,MI,NA,30.28083028083028,NA
48207,Wayne County,MI,NA,93.4065934065934,15.498154981549817
48213,Wayne County,MI,NA,NA,88.92988929889299
48214,Wayne County,MI,NA,NA,38.86838868388684
48218,Wayne County,MI,NA,82.05128205128204,NA
48219,Wayne County,MI,NA,NA,11.808118081180812
48220,Oakland County,MI,NA,NA,47.23247232472325
48221,Wayne County,MI,NA,NA,52.152521525215256
48224,Wayne County,MI,NA,18.55921855921856,NA
48225,Wayne County,MI,NA,NA,89.9138991389914
48227,Wayne County,MI,21.962616822429908,35.775335775335776,55.59655596555966
48228,Wayne County,MI,NA,67.64346764346764,88.06888068880689
48230,Wayne County,MI,NA,35.16483516483517,NA
48234,Wayne County,MI,11.214953271028037,NA,NA
48235,Wayne County,MI,NA,NA,9.10209102091021
48236,Wayne County,MI,NA,46.3980463980464,8.979089790897909
48237,Oakland County,MI,NA,82.66178266178265,85.97785977859779
48239,Wayne County,MI,NA,8.302808302808302,NA
48240,Wayne County,MI,NA,NA,78.47478474784748
48301,Oakland County,MI,NA,90.84249084249085,NA
48304,Oakland County,MI,NA,NA,24.477244772447722
48309,Oakland County,MI,NA,NA,21.52521525215252
48313,Macomb County,MI,NA,19.902319902319903,18.45018450184502
48317,Macomb County,MI,NA,NA,83.64083640836408
48323,Oakland County,MI,NA,NA,66.78966789667896
48324,Oakland County,MI,NA,83.51648351648352,NA
48371,Oakland County,MI,NA,NA,58.17958179581796
48374,Oakland County,MI,NA,97.31379731379731,NA
48375,Oakland County,MI,NA,50.18315018315018,NA
48377,Oakland County,MI,NA,NA,28.413284132841326
48381,Oakland County,MI,NA,NA,76.87576875768758
48383,Oakland County,MI,NA,NA,94.58794587945879
48386,Oakland County,MI,NA,42.002442002442,NA
48390,Oakland County,MI,NA,NA,34.563345633456336
48420,Genesee County,MI,NA,NA,42.55842558425584
48433,Genesee County,MI,NA,19.65811965811966,NA
48505,Genesee County,MI,NA,52.13675213675214,NA
48626,Saginaw County,MI,NA,70.45177045177046,NA
48632,Clare County,MI,NA,84.98168498168498,NA
48843,Livingston County,MI,15.42056074766355,NA,7.380073800738007
48911,Ingham County,MI,NA,65.68986568986568,NA
49002,Kalamazoo County,MI,NA,NA,57.31857318573186
49048,Kalamazoo County,MI,NA,30.525030525030527,NA
49058,Barry County,MI,NA,NA,74.41574415744158
49068,Calhoun County,MI,NA,44.07814407814408,NA
49091,St. Joseph County,MI,50,NA,NA
49221,Lenawee County,MI,NA,4.151404151404151,31.61131611316113
49331,Kent County,MI,55.140186915887845,NA,NA
49349,Newaygo County,MI,NA,74.11477411477412,NA
49412,Newaygo County,MI,NA,NA,52.398523985239855
49504,Kent County,MI,NA,NA,6.888068880688807
49509,Kent County,MI,NA,NA,79.95079950799509
49525,Kent County,MI,NA,21.978021978021978,NA
49686,Grand Traverse County,MI,NA,77.89987789987791,NA
49735,Otsego County,MI,NA,16.84981684981685,56.457564575645755
49765,Presque Isle County,MI,NA,93.16239316239316,NA
55009,Goodhue County,MN,NA,NA,83.88683886838868
55112,Ramsey County,MN,75.70093457943925,NA,NA
55126,Ramsey County,MN,NA,NA,54.73554735547356
55303,Anoka County,MN,NA,NA,70.84870848708486
55331,Hennepin County,MN,NA,72.4053724053724,NA
55359,Hennepin County,MN,NA,NA,99.7539975399754
55369,Hennepin County,MN,41.58878504672897,NA,NA
55404,Hennepin County,MN,3.2710280373831773,NA,82.77982779827798
55406,Hennepin County,MN,NA,26.73992673992674,NA
55407,Hennepin County,MN,NA,NA,80.68880688806888
55412,Hennepin County,MN,NA,38.21733821733822,NA
55423,Hennepin County,MN,NA,NA,32.59532595325953
55430,Hennepin County,MN,23.364485981308412,NA,NA
55432,Anoka County,MN,NA,NA,57.07257072570726
55447,Hennepin County,MN,NA,NA,97.2939729397294
55454,Hennepin County,MN,NA,NA,97.539975399754
55720,Carlton County,MN,NA,74.84737484737485,NA
55731,St. Louis County,MN,NA,91.20879120879121,88.68388683886839
55792,St. Louis County,MN,NA,29.792429792429793,NA
55803,St. Louis County,MN,NA,64.46886446886447,NA
55811,St. Louis County,MN,NA,4.63980463980464,1.3530135301353015
55901,Olmsted County,MN,NA,24.175824175824175,10.08610086100861
55904,Olmsted County,MN,NA,36.63003663003663,NA
55912,Mower County,MN,10.74766355140187,NA,5.781057810578106
55987,Winona County,MN,NA,NA,14.022140221402212
56007,Freeborn County,MN,NA,36.26373626373626,30.75030750307503
56013,Faribault County,MN,NA,84.004884004884,NA
56031,Martin County,MN,NA,NA,42.31242312423124
56073,Brown County,MN,NA,NA,36.77736777367774
56258,Lyon County,MN,NA,NA,40.959409594095945
56347,Todd County,MN,NA,94.5054945054945,NA
56501,Becker County,MN,NA,25.396825396825395,NA
56515,Otter Tail County,MN,NA,NA,62.36162361623616
56537,Otter Tail County,MN,NA,91.33089133089133,56.82656826568265
56601,Beltrami County,MN,NA,57.14285714285714,0.7380073800738007
56621,Clearwater County,MN,NA,NA,87.33087330873309
56633,Hubbard County,MN,NA,NA,97.04797047970479
39042,Rankin County,MS,NA,NA,12.915129151291513
63011,St. Louis County,MO,NA,NA,3.075030750307503
63021,St. Louis County,MO,NA,NA,6.519065190651907
63050,Jefferson County,MO,NA,67.88766788766789,NA
63108,St. Louis city,MO,NA,NA,85.36285362853629
63120,St. Louis city,MO,NA,NA,94.34194341943419
63121,St. Louis County,MO,NA,NA,45.26445264452644
63123,St. Louis County,MO,NA,NA,19.06519065190652
63125,St. Louis County,MO,NA,27.472527472527474,NA
64086,Jackson County,MO,NA,39.92673992673993,NA
64106,Jackson County,MO,NA,57.631257631257625,NA
64123,Jackson County,MO,NA,64.59096459096459,NA
64127,Jackson County,MO,36.44859813084112,NA,NA
64130,Jackson County,MO,NA,NA,67.65067650676507
64133,Jackson County,MO,NA,3.785103785103785,NA
64134,Jackson County,MO,NA,34.92063492063492,NA
64154,Platte County,MO,NA,NA,80.56580565805658
64633,Carroll County,MO,90.65420560747664,NA,NA
65201,Boone County,MO,NA,59.21855921855922,79.33579335793358
65202,Boone County,MO,NA,NA,66.66666666666666
65721,Christian County,MO,NA,NA,44.40344403444034
65803,Greene County,MO,NA,NA,18.57318573185732
65804,Greene County,MO,NA,NA,13.407134071340712
59101,Yellowstone County,MT,NA,57.38705738705738,10.947109471094711
59102,Yellowstone County,MT,NA,48.717948717948715,28.53628536285363
59501,Hill County,MT,NA,NA,89.42189421894219
68005,Sarpy County,NE,NA,63.73626373626373,NA
68114,Douglas County,NE,NA,NA,75.52275522755227
68123,Sarpy County,NE,NA,43.71184371184371,NA
68134,Douglas County,NE,NA,NA,51.90651906519065
68137,Douglas County,NE,NA,NA,54.36654366543665
68506,Lancaster County,NE,NA,47.25274725274725,NA
69153,Keith County,NE,NA,NA,73.06273062730627
89156,Clark County,NV,NA,NA,92.49692496924969
89434,Washoe County,NV,NA,NA,34.19434194341943
03038,Rockingham County,NH,NA,14.652014652014653,NA
03051,Hillsborough County,NH,NA,NA,58.794587945879464
03052,Hillsborough County,NH,NA,NA,93.2349323493235
03063,Hillsborough County,NH,NA,NA,33.579335793357934
03064,Hillsborough County,NH,NA,78.63247863247864,NA
03431,Cheshire County,NH,NA,26.495726495726498,51.66051660516605
03446,Cheshire County,NH,NA,NA,92.3739237392374
03451,Cheshire County,NH,NA,98.9010989010989,NA
03755,Grafton County,NH,NA,NA,93.60393603936039
03766,Grafton County,NH,NA,88.64468864468864,NA
07002,Hudson County,NJ,NA,2.197802197802198,NA
07006,Essex County,NJ,NA,46.64224664224664,NA
07013,Passaic County,NJ,NA,68.25396825396825,NA
07040,Essex County,NJ,82.2429906542056,NA,NA
07076,Union County,NJ,NA,75.82417582417582,77.36777367773678
07108,Essex County,NJ,4.205607476635514,NA,65.80565805658057
07111,Essex County,NJ,NA,57.509157509157504,NA
07112,Essex County,NJ,NA,34.43223443223443,NA
07208,Union County,NJ,NA,20.634920634920633,NA
07470,Passaic County,NJ,NA,3.418803418803419,NA
07503,Passaic County,NJ,NA,86.08058608058609,NA
07601,Bergen County,NJ,NA,4.884004884004884,NA
07728,Monmouth County,NJ,NA,NA,2.214022140221402
07834,Morris County,NJ,NA,NA,38.99138991389914
07860,Sussex County,NJ,NA,25.396825396825395,NA
07866,Morris County,NJ,NA,NA,73.30873308733086
08003,Camden County,NJ,64.48598130841121,NA,NA
08021,Camden County,NJ,NA,NA,31.119311193111933
08046,Burlington County,NJ,NA,NA,29.15129151291513
08053,Burlington County,NJ,NA,NA,46.371463714637144
08077,Burlington County,NJ,NA,NA,90.40590405904058
08079,Salem County,NJ,NA,77.53357753357754,NA
08088,Burlington County,NJ,NA,NA,76.01476014760148
08332,Cumberland County,NJ,NA,NA,39.606396063960645
08611,Mercer County,NJ,NA,31.62393162393162,NA
08619,Mercer County,NJ,NA,54.82295482295483,NA
08759,Ocean County,NJ,NA,11.843711843711842,NA
08805,Somerset County,NJ,99.06542056074767,NA,NA
08873,Somerset County,NJ,NA,21.001221001221,NA
87001,Sandoval County,NM,NA,98.4126984126984,NA
87102,Bernalillo County,NM,29.906542056074763,NA,NA
87105,Bernalillo County,NM,7.009345794392523,3.296703296703297,13.530135301353013
87106,Bernalillo County,NM,28.971962616822427,NA,NA
87108,Bernalillo County,NM,NA,4.517704517704518,NA
87110,Bernalillo County,NM,NA,58.60805860805861,8.364083640836409
87111,Bernalillo County,NM,NA,NA,3.6900369003690034
87112,Bernalillo County,NM,NA,NA,71.09471094710948
87123,Bernalillo County,NM,15.887850467289718,NA,NA
87301,McKinley County,NM,NA,56.776556776556774,NA
87327,Cibola County,NM,NA,79.36507936507937,100
87413,San Juan County,NM,NA,53.35775335775336,NA
87420,San Juan County,NM,37.850467289719624,88.15628815628816,47.35547355473555
87532,Santa Fe County,NM,NA,NA,48.831488314883146
88030,Luna County,NM,65.88785046728972,NA,NA
10001,New York County,NY,NA,NA,45.51045510455104
10002,New York County,NY,NA,NA,0.984009840098401
10009,New York County,NY,NA,3.907203907203907,NA
10011,New York County,NY,NA,NA,11.193111931119311
10017,New York County,NY,NA,NA,81.05781057810579
10019,New York County,NY,NA,92.7960927960928,NA
10025,New York County,NY,NA,NA,1.2300123001230012
10027,New York County,NY,8.411214953271028,45.17704517704518,24.108241082410824
10029,New York County,NY,NA,NA,43.17343173431734
10030,New York County,NY,NA,60.68376068376068,NA
10032,New York County,NY,NA,54.21245421245421,4.182041820418204
10035,New York County,NY,NA,NA,61.869618696186954
10038,New York County,NY,NA,86.6910866910867,NA
10040,New York County,NY,NA,16.36141636141636,NA
10301,Richmond County,NY,NA,NA,68.63468634686348
10304,Richmond County,NY,19.626168224299064,NA,25.092250922509223
10306,Richmond County,NY,NA,NA,44.772447724477246
10310,Richmond County,NY,NA,40.9035409035409,NA
10312,Richmond County,NY,NA,NA,18.81918819188192
10451,Bronx County,NY,NA,NA,64.82164821648216
10452,Bronx County,NY,NA,20.39072039072039,NA
10453,Bronx County,NY,NA,NA,13.038130381303814
10454,Bronx County,NY,NA,31.37973137973138,NA
10455,Bronx County,NY,29.439252336448597,40.04884004884005,14.268142681426815
10456,Bronx County,NY,0.9345794392523363,55.67765567765568,NA
10457,Bronx County,NY,1.8691588785046727,NA,85.11685116851169
10458,Bronx County,NY,NA,0.4884004884004884,4.797047970479705
10459,Bronx County,NY,NA,7.57020757020757,23.616236162361623
10460,Bronx County,NY,NA,1.3431013431013432,NA
10461,Bronx County,NY,NA,NA,55.35055350553506
10462,Bronx County,NY,50.93457943925234,25.64102564102564,NA
10466,Bronx County,NY,NA,15.628815628815628,NA
10467,Bronx County,NY,8.878504672897195,16.605616605616603,NA
10469,Bronx County,NY,54.20560747663551,NA,76.62976629766297
10472,Bronx County,NY,NA,81.44078144078144,47.724477244772444
10473,Bronx County,NY,NA,NA,36.28536285362854
10475,Bronx County,NY,NA,8.669108669108669,4.674046740467404
10524,Putnam County,NY,NA,98.77899877899878,NA
10583,Westchester County,NY,NA,NA,26.56826568265683
10704,Westchester County,NY,NA,56.28815628815629,NA
10710,Westchester County,NY,NA,NA,40.71340713407134
10801,Westchester County,NY,NA,31.868131868131865,30.996309963099634
11004,Queens County,NY,93.45794392523365,NA,NA
11101,Queens County,NY,NA,88.52258852258852,NA
11102,Queens County,NY,NA,NA,40.22140221402214
11103,Queens County,NY,NA,NA,69.98769987699876
11201,Kings County,NY,72.89719626168224,NA,NA
11203,Kings County,NY,NA,4.761904761904762,NA
11205,Kings County,NY,NA,17.094017094017094,NA
11206,Kings County,NY,5.607476635514018,1.221001221001221,NA
11207,Kings County,NY,NA,8.547008547008547,38.49938499384994
11208,Kings County,NY,NA,11.477411477411477,15.375153751537516
11210,Kings County,NY,NA,NA,29.274292742927425
11211,Kings County,NY,19.158878504672895,NA,NA
11212,Kings County,NY,NA,6.105006105006105,74.29274292742927
11213,Kings County,NY,9.345794392523365,90.47619047619048,NA
11216,Kings County,NY,NA,NA,93.1119311193112
11220,Kings County,NY,NA,59.95115995115995,NA
11221,Kings County,NY,NA,NA,26.814268142681424
11223,Kings County,NY,NA,10.622710622710622,4.551045510455105
11224,Kings County,NY,NA,4.395604395604396,57.81057810578106
11225,Kings County,NY,NA,13.797313797313798,27.67527675276753
11226,Kings County,NY,NA,63.12576312576312,59.040590405904055
11233,Kings County,NY,NA,0.9768009768009768,NA
11234,Kings County,NY,NA,9.523809523809524,NA
11236,Kings County,NY,NA,79.24297924297925,NA
11238,Kings County,NY,NA,11.965811965811966,NA
11355,Queens County,NY,NA,NA,76.87576875768758
11357,Queens County,NY,NA,88.03418803418803,NA
11360,Queens County,NY,NA,NA,43.665436654366545
11361,Queens County,NY,NA,NA,65.31365313653137
11367,Queens County,NY,NA,77.53357753357754,NA
11368,Queens County,NY,NA,69.23076923076923,NA
11377,Queens County,NY,NA,49.45054945054945,71.21771217712177
11385,Queens County,NY,NA,9.035409035409035,NA
11411,Queens County,NY,NA,72.52747252747253,64.32964329643296
11412,Queens County,NY,NA,NA,41.82041820418204
11413,Queens County,NY,NA,86.32478632478633,NA
11419,Queens County,NY,NA,NA,85.60885608856088
11420,Queens County,NY,NA,67.52136752136752,62.97662976629766
11432,Queens County,NY,NA,55.55555555555556,25.338253382533825
11433,Queens County,NY,35.981308411214954,61.172161172161175,26.322263222632223
11435,Queens County,NY,43.45794392523364,NA,25.830258302583026
11553,Nassau County,NY,NA,63.49206349206349,NA
11580,Nassau County,NY,64.01869158878505,NA,NA
11720,Suffolk County,NY,73.36448598130842,NA,NA
11722,Suffolk County,NY,NA,62.02686202686203,NA
11727,Suffolk County,NY,NA,63.369963369963365,NA
11746,Suffolk County,NY,NA,NA,38.13038130381304
11766,Suffolk County,NY,NA,NA,74.90774907749078
11780,Suffolk County,NY,NA,85.34798534798534,NA
12019,Saratoga County,NY,NA,58.24175824175825,NA
12043,Schoharie County,NY,NA,95.6043956043956,NA
12180,Rensselaer County,NY,NA,6.715506715506716,NA
12816,Washington County,NY,NA,NA,91.38991389913899
13082,Madison County,NY,76.63551401869158,NA,NA
13090,Onondaga County,NY,NA,26.862026862026863,NA
13104,Onondaga County,NY,57.943925233644855,NA,NA
13126,Oswego County,NY,NA,NA,9.22509225092251
13152,Onondaga County,NY,NA,94.38339438339437,NA
13205,Onondaga County,NY,NA,44.07814407814408,NA
13215,Onondaga County,NY,NA,NA,88.43788437884379
13326,Otsego County,NY,NA,55.7997557997558,NA
13339,Montgomery County,NY,NA,NA,98.0319803198032
13365,Herkimer County,NY,NA,NA,78.22878228782287
13407,Herkimer County,NY,NA,NA,83.02583025830258
13440,Oneida County,NY,NA,NA,7.503075030750307
13617,St. Lawrence County,NY,NA,NA,94.8339483394834
13790,Broome County,NY,NA,NA,64.08364083640836
13820,Otsego County,NY,NA,66.17826617826617,79.08979089790897
13901,Broome County,NY,27.102803738317753,NA,NA
14047,Erie County,NY,NA,76.43467643467643,NA
14057,Erie County,NY,NA,83.3943833943834,NA
14063,Chautauqua County,NY,NA,78.3882783882784,NA
14075,Erie County,NY,NA,NA,72.81672816728168
14120,Niagara County,NY,NA,NA,21.15621156211562
14213,Erie County,NY,23.83177570093458,NA,NA
14215,Erie County,NY,NA,5.738705738705739,NA
14304,Niagara County,NY,NA,3.1746031746031744,NA
14519,Wayne County,NY,NA,25.76312576312576,NA
14526,Monroe County,NY,NA,12.698412698412698,23.985239852398525
14530,Wyoming County,NY,NA,75.33577533577534,NA
14534,Monroe County,NY,NA,1.9536019536019535,NA
14548,Ontario County,NY,NA,73.01587301587301,NA
14580,Monroe County,NY,2.336448598130841,NA,NA
14586,Monroe County,NY,NA,87.91208791208791,NA
14608,Monroe County,NY,NA,34.798534798534796,NA
14611,Monroe County,NY,NA,NA,48.708487084870846
14612,Monroe County,NY,NA,13.064713064713066,NA
14613,Monroe County,NY,44.85981308411215,NA,NA
14617,Monroe County,NY,NA,45.90964590964591,NA
14618,Monroe County,NY,NA,NA,12.546125461254611
14624,Monroe County,NY,NA,2.0757020757020754,NA
14904,Chemung County,NY,NA,41.02564102564102,NA
27006,Davie County,NC,NA,23.931623931623932,NA
27012,Forsyth County,NC,NA,3.5409035409035408,31.857318573185733
27028,Davie County,NC,49.532710280373834,NA,NA
27045,Forsyth County,NC,NA,53.96825396825397,NA
27055,Yadkin County,NC,NA,NA,49.44649446494465
27103,Forsyth County,NC,NA,6.95970695970696,0.8610086100861009
27105,Forsyth County,NC,NA,17.216117216117215,NA
27106,Forsyth County,NC,NA,NA,42.68142681426814
27127,Forsyth County,NC,NA,59.82905982905983,NA
27260,Guilford County,NC,NA,NA,53.874538745387454
27265,Guilford County,NC,NA,NA,73.18573185731857
27278,Orange County,NC,NA,NA,15.129151291512915
27292,Davidson County,NC,NA,1.098901098901099,82.53382533825338
27350,Randolph County,NC,NA,NA,99.63099630996311
27360,Davidson County,NC,NA,NA,59.286592865928654
27370,Randolph County,NC,NA,NA,75.27675276752768
27405,Guilford County,NC,NA,10.744810744810746,NA
27410,Guilford County,NC,NA,NA,5.412054120541206
27516,Orange County,NC,NA,10.378510378510379,NA
27517,Orange County,NC,NA,NA,15.129151291512915
27523,Wake County,NC,NA,97.55799755799755,NA
27525,Franklin County,NC,62.616822429906534,NA,NA
27529,Wake County,NC,NA,NA,16.113161131611317
27530,Wayne County,NC,NA,NA,26.199261992619927
27545,Wake County,NC,NA,47.13064713064713,NA
27563,Warren County,NC,NA,77.77777777777779,NA
27574,Person County,NC,NA,NA,62.36162361623616
27606,Wake County,NC,NA,NA,46.86346863468634
27607,Wake County,NC,88.78504672897196,NA,NA
27703,Durham County,NC,NA,NA,22.509225092250922
27705,Durham County,NC,NA,42.97924297924298,18.081180811808117
27707,Durham County,NC,NA,6.349206349206349,50.92250922509225
27712,Durham County,NC,NA,39.072039072039075,NA
27804,Nash County,NC,NA,35.53113553113553,NA
28144,Rowan County,NC,NA,NA,46.61746617466175
28146,Rowan County,NC,40.18691588785047,NA,NA
28209,Mecklenburg County,NC,NA,NA,69.00369003690037
28301,Cumberland County,NC,NA,NA,93.9729397293973
28314,Cumberland County,NC,NA,36.507936507936506,NA
28366,Sampson County,NC,NA,NA,74.16974169741697
28377,Robeson County,NC,84.11214953271028,NA,NA
28398,Duplin County,NC,NA,96.82539682539682,NA
28405,New Hanover County,NC,NA,30.64713064713065,NA
28412,New Hanover County,NC,NA,24.786324786324787,NA
28422,Brunswick County,NC,NA,95.23809523809523,NA
28443,Pender County,NC,NA,83.63858363858364,NA
28451,Brunswick County,NC,NA,NA,39.23739237392374
28461,Brunswick County,NC,NA,33.6996336996337,NA
28557,Carteret County,NC,NA,NA,47.601476014760145
28659,Wilkes County,NC,28.504672897196258,NA,NA
28697,Wilkes County,NC,NA,84.37118437118437,NA
28719,Jackson County,NC,NA,NA,86.71586715867159
58103,Cass County,ND,NA,53.11355311355312,1.107011070110701
58201,Grand Forks County,ND,NA,NA,35.17835178351783
58329,Rolette County,ND,NA,99.02319902319903,NA
58503,Burleigh County,ND,NA,NA,6.150061500615006
58701,Ward County,ND,NA,37.85103785103785,32.47232472324723
43015,Delaware County,OH,NA,5.25030525030525,3.936039360393604
43026,Franklin County,OH,26.635514018691588,NA,NA
43054,Franklin County,OH,NA,62.51526251526251,NA
43085,Franklin County,OH,69.62616822429906,93.65079365079364,NA
43123,Franklin County,OH,NA,NA,9.471094710947108
43160,Fayette County,OH,NA,18.43711843711844,20.66420664206642
43203,Franklin County,OH,NA,NA,97.41697416974169
43206,Franklin County,OH,NA,54.09035409035409,NA
43209,Franklin County,OH,NA,67.03296703296702,NA
43213,Franklin County,OH,NA,15.873015873015872,NA
43219,Franklin County,OH,NA,NA,36.162361623616235
43224,Franklin County,OH,NA,13.186813186813188,NA
43227,Franklin County,OH,30.8411214953271,NA,NA
43235,Franklin County,OH,NA,34.18803418803419,NA
43326,Hardin County,OH,NA,41.514041514041516,NA
43612,Lucas County,OH,NA,15.384615384615385,NA
43614,Lucas County,OH,NA,73.50427350427351,NA
44001,Lorain County,OH,NA,57.87545787545788,5.535055350553505
44022,Cuyahoga County,OH,NA,26.251526251526254,NA
44023,Geauga County,OH,NA,NA,10.45510455104551
44035,Lorain County,OH,NA,6.593406593406594,NA
44039,Lorain County,OH,NA,18.803418803418804,NA
44041,Ashtabula County,OH,NA,33.57753357753357,NA
44052,Lorain County,OH,6.5420560747663545,NA,NA
44055,Lorain County,OH,59.345794392523366,NA,NA
44057,Lake County,OH,NA,15.506715506715507,NA
44060,Lake County,OH,NA,0.8547008547008548,NA
44067,Summit County,OH,NA,51.64835164835166,86.10086100861008
44070,Cuyahoga County,OH,NA,NA,76.38376383763837
44074,Lorain County,OH,NA,NA,98.5239852398524
44087,Summit County,OH,NA,65.8119658119658,23.124231242312423
44089,Erie County,OH,NA,NA,39.97539975399754
44094,Lake County,OH,NA,45.90964590964591,NA
44102,Cuyahoga County,OH,13.084112149532709,37.97313797313797,NA
44104,Cuyahoga County,OH,28.037383177570092,NA,NA
44105,Cuyahoga County,OH,NA,NA,65.19065190651907
44106,Cuyahoga County,OH,NA,46.15384615384615,NA
44107,Cuyahoga County,OH,NA,2.8083028083028085,6.396063960639606
44108,Cuyahoga County,OH,NA,51.159951159951156,49.07749077490775
44109,Cuyahoga County,OH,NA,33.089133089133085,4.305043050430505
44111,Cuyahoga County,OH,NA,NA,44.03444034440344
44112,Cuyahoga County,OH,NA,NA,50.061500615006146
44113,Cuyahoga County,OH,NA,NA,82.16482164821647
44114,Cuyahoga County,OH,NA,97.92429792429792,NA
44116,Cuyahoga County,OH,NA,NA,63.09963099630996
44117,Cuyahoga County,OH,NA,NA,71.58671586715867
44118,Cuyahoga County,OH,NA,8.424908424908425,60.147601476014756
44120,Cuyahoga County,OH,NA,2.93040293040293,37.88437884378843
44121,Cuyahoga County,OH,12.616822429906541,NA,81.79581795817958
44122,Cuyahoga County,OH,NA,60.8058608058608,14.145141451414514
44124,Cuyahoga County,OH,63.55140186915887,41.269841269841265,4.920049200492005
44125,Cuyahoga County,OH,NA,38.58363858363859,6.765067650676507
44128,Cuyahoga County,OH,NA,NA,66.54366543665436
44131,Cuyahoga County,OH,NA,NA,26.814268142681424
44132,Cuyahoga County,OH,32.71028037383177,NA,NA
44133,Cuyahoga County,OH,NA,10.256410256410255,NA
44134,Cuyahoga County,OH,NA,NA,2.5830258302583027
44138,Cuyahoga County,OH,NA,NA,54.12054120541205
44143,Cuyahoga County,OH,NA,NA,32.96432964329643
44146,Cuyahoga County,OH,NA,48.47374847374847,30.50430504305043
44203,Summit County,OH,NA,6.471306471306472,NA
44212,Medina County,OH,NA,NA,1.5990159901599015
44240,Portage County,OH,NA,17.704517704517706,17.589175891758916
44241,Portage County,OH,NA,NA,58.30258302583026
44278,Summit County,OH,NA,76.06837606837607,NA
44303,Summit County,OH,NA,NA,96.8019680196802
44312,Summit County,OH,NA,NA,20.54120541205412
44313,Summit County,OH,NA,NA,76.75276752767527
44320,Summit County,OH,NA,NA,53.62853628536285
44321,Summit County,OH,NA,NA,67.52767527675276
44333,Summit County,OH,92.99065420560748,NA,69.12669126691267
44647,Stark County,OH,NA,NA,52.275522755227556
44691,Wayne County,OH,NA,NA,62.60762607626076
44813,Richland County,OH,NA,82.05128205128204,NA
44814,Erie County,OH,100,NA,NA
45002,Hamilton County,OH,84.57943925233646,NA,NA
45040,Warren County,OH,NA,33.82173382173382,NA
45171,Brown County,OH,NA,NA,96.9249692496925
45206,Hamilton County,OH,NA,NA,78.72078720787208
45208,Hamilton County,OH,NA,NA,66.05166051660517
45240,Hamilton County,OH,NA,NA,47.10947109471095
45245,Clermont County,OH,NA,46.275946275946275,NA
45440,Montgomery County,OH,NA,70.08547008547008,NA
45458,Montgomery County,OH,NA,10.012210012210012,NA
45619,Lawrence County,OH,NA,NA,84.9938499384994
45669,Lawrence County,OH,NA,NA,54.48954489544895
45692,Jackson County,OH,NA,32.84493284493284,61.869618696186954
45701,Athens County,OH,NA,NA,33.456334563345635
73055,Stephens County,OK,76.16822429906543,NA,NA
73064,Canadian County,OK,56.074766355140184,NA,NA
73078,Canadian County,OK,NA,80.58608058608058,NA
73099,Canadian County,OK,NA,NA,16.605166051660518
73501,Comanche County,OK,NA,NA,61.50061500615006
73505,Comanche County,OK,61.21495327102804,NA,57.687576875768755
73601,Custer County,OK,NA,82.53968253968253,NA
74426,McIntosh County,OK,NA,NA,88.80688806888068
74432,McIntosh County,OK,NA,47.008547008547005,NA
74434,Muskogee County,OK,NA,84.61538461538461,NA
74525,Atoka County,OK,NA,NA,63.34563345633456
74728,McCurtain County,OK,NA,NA,75.15375153751538
74743,Choctaw County,OK,NA,86.56898656898657,NA
74873,Pottawatomie County,OK,NA,NA,65.31365313653137
74960,Adair County,OK,NA,71.7948717948718,NA
97005,Washington County,OR,NA,68.98656898656898,NA
97007,Washington County,OR,70.09345794392523,NA,NA
97027,Clackamas County,OR,NA,NA,90.7749077490775
97045,Clackamas County,OR,NA,9.401709401709402,NA
97056,Columbia County,OR,NA,84.73748473748473,NA
97058,Wasco County,OR,NA,NA,36.039360393603936
97201,Multnomah County,OR,NA,76.55677655677655,NA
97202,Multnomah County,OR,NA,46.88644688644688,NA
97203,Multnomah County,OR,NA,NA,80.81180811808119
97209,Multnomah County,OR,NA,NA,95.20295202952029
97213,Multnomah County,OR,NA,NA,50.79950799507995
97219,Multnomah County,OR,NA,28.69352869352869,NA
97220,Multnomah County,OR,42.05607476635514,NA,NA
97223,Washington County,OR,NA,NA,41.57441574415744
97224,Washington County,OR,NA,NA,59.65559655596556
97322,Linn County,OR,18.22429906542056,NA,NA
97741,Jefferson County,OR,78.50467289719626,NA,NA
15101,Allegheny County,PA,NA,NA,10.57810578105781
15132,Allegheny County,PA,NA,21.733821733821735,NA
15219,Allegheny County,PA,NA,NA,39.11439114391143
15221,Allegheny County,PA,NA,NA,14.637146371463713
15232,Allegheny County,PA,NA,97.06959706959707,NA
15236,Allegheny County,PA,NA,28.93772893772894,NA
15238,Allegheny County,PA,NA,49.93894993894994,NA
15301,Washington County,PA,NA,NA,9.71709717097171
15461,Fayette County,PA,NA,NA,90.7749077490775
15522,Bedford County,PA,NA,NA,50.43050430504306
15801,Clearfield County,PA,NA,NA,40.46740467404674
16056,Butler County,PA,NA,89.74358974358975,NA
16121,Mercer County,PA,NA,NA,89.66789667896678
16232,Clarion County,PA,NA,82.90598290598291,NA
16509,Erie County,PA,NA,64.71306471306471,NA
16801,Centre County,PA,NA,27.228327228327228,NA
16823,Centre County,PA,NA,14.407814407814406,NA
16830,Clearfield County,PA,NA,29.181929181929185,NA
17020,Perry County,PA,NA,90.10989010989012,NA
17022,Lancaster County,PA,NA,13.553113553113553,NA
17033,Dauphin County,PA,NA,18.681318681318682,91.88191881918819
17036,Dauphin County,PA,NA,9.89010989010989,23.493234932349324
17038,Lebanon County,PA,NA,NA,86.22386223862239
17042,Lebanon County,PA,31.308411214953267,NA,17.958179581795818
17044,Mifflin County,PA,NA,5.982905982905983,NA
17055,Cumberland County,PA,NA,NA,34.07134071340713
17067,Lebanon County,PA,NA,74.96947496947497,NA
17078,Lebanon County,PA,NA,9.27960927960928,NA
17111,Dauphin County,PA,NA,NA,93.4809348093481
17113,Dauphin County,PA,NA,98.53479853479854,NA
17257,Cumberland County,PA,NA,22.954822954822955,NA
17325,Adams County,PA,NA,NA,8.733087330873309
17404,York County,PA,NA,11.233211233211234,NA
17522,Lancaster County,PA,NA,42.36874236874237,6.642066420664207
17547,Lancaster County,PA,NA,90.35409035409036,NA
17737,Lycoming County,PA,NA,NA,75.76875768757687
17814,Columbia County,PA,NA,NA,83.27183271832719
17815,Columbia County,PA,NA,8.791208791208792,NA
17821,Montour County,PA,NA,12.942612942612945,41.32841328413284
17824,Northumberland County,PA,NA,73.74847374847376,55.47355473554736
17837,Union County,PA,NA,NA,97.17097170971711
17842,Snyder County,PA,NA,NA,70.60270602706026
17847,Northumberland County,PA,NA,88.88888888888889,79.82779827798278
17870,Snyder County,PA,NA,29.304029304029307,37.02337023370234
17981,Schuylkill County,PA,NA,99.51159951159951,NA
18032,Lehigh County,PA,NA,74.96947496947497,NA
18102,Lehigh County,PA,NA,NA,19.18819188191882
18201,Luzerne County,PA,NA,21.855921855921856,NA
18411,Lackawanna County,PA,NA,53.6019536019536,NA
18505,Lackawanna County,PA,NA,NA,45.75645756457565
18603,Columbia County,PA,NA,NA,41.08241082410824
18634,Luzerne County,PA,46.26168224299065,42.124542124542124,NA
18640,Luzerne County,PA,NA,NA,19.68019680196802
18661,Luzerne County,PA,NA,92.3076923076923,NA
18702,Luzerne County,PA,NA,NA,51.90651906519065
18706,Luzerne County,PA,NA,33.943833943833944,NA
18707,Luzerne County,PA,NA,31.135531135531135,NA
19007,Bucks County,PA,NA,60.56166056166056,NA
19010,Delaware County,PA,NA,40.65934065934066,NA
19023,Delaware County,PA,NA,54.33455433455433,NA
19027,Montgomery County,PA,NA,66.54456654456654,NA
19046,Montgomery County,PA,NA,58.36385836385837,NA
19050,Delaware County,PA,NA,45.2991452991453,NA
19064,Delaware County,PA,NA,44.32234432234432,NA
19070,Delaware County,PA,NA,78.51037851037852,NA
19082,Delaware County,PA,NA,78.14407814407815,NA
19087,Chester County,PA,NA,21.245421245421245,NA
19095,Montgomery County,PA,NA,NA,95.3259532595326
19104,Philadelphia County,PA,NA,NA,79.58179581795818
19119,Philadelphia County,PA,NA,16.23931623931624,NA
19139,Philadelphia County,PA,NA,5.616605616605617,69.74169741697416
19140,Philadelphia County,PA,NA,7.326007326007327,34.31734317343174
19141,Philadelphia County,PA,NA,14.285714285714285,63.837638376383765
19143,Philadelphia County,PA,25.70093457943925,11.11111111111111,37.76137761377613
19144,Philadelphia County,PA,NA,7.814407814407814,NA
19146,Philadelphia County,PA,NA,57.26495726495726,76.50676506765068
19151,Philadelphia County,PA,NA,15.75091575091575,NA
19153,Philadelphia County,PA,NA,88.4004884004884,NA
19311,Chester County,PA,NA,98.16849816849816,NA
19350,Chester County,PA,NA,NA,90.03690036900369
19462,Montgomery County,PA,NA,NA,50.184501845018445
19473,Montgomery County,PA,NA,72.28327228327228,NA
19525,Montgomery County,PA,NA,43.58974358974359,NA
19567,Berks County,PA,NA,85.1037851037851,NA
02816,Kent County,RI,NA,NA,24.231242312423124
02864,Providence County,RI,NA,14.529914529914532,NA
02911,Providence County,RI,NA,NA,60.39360393603936
02921,Providence County,RI,NA,NA,90.159901599016
29072,Lexington County,SC,NA,25.88522588522589,NA
29078,Kershaw County,SC,NA,68.86446886446886,NA
29118,Orangeburg County,SC,NA,70.6959706959707,NA
29138,Saluda County,SC,NA,92.18559218559218,NA
29153,Sumter County,SC,NA,NA,56.580565805658054
29206,Richland County,SC,NA,76.55677655677655,NA
29209,Richland County,SC,48.598130841121495,NA,NA
29223,Richland County,SC,32.242990654205606,NA,NA
29407,Charleston County,SC,NA,10.5006105006105,47.84747847478475
29412,Charleston County,SC,NA,54.57875457875458,43.542435424354245
29455,Charleston County,SC,NA,65.07936507936508,NA
29466,Charleston County,SC,NA,NA,35.54735547355474
29483,Dorchester County,SC,NA,16.971916971916972,NA
29485,Dorchester County,SC,NA,NA,42.435424354243544
29526,Horry County,SC,NA,8.913308913308914,NA
29527,Horry County,SC,NA,93.77289377289377,NA
29585,Georgetown County,SC,NA,NA,33.08733087330874
29609,Greenville County,SC,NA,43.46764346764347,NA
29642,Pickens County,SC,NA,50.67155067155067,NA
29678,Oconee County,SC,NA,32.356532356532355,NA
29732,York County,SC,NA,21.48962148962149,NA
29832,Edgefield County,SC,NA,NA,99.0159901599016
29841,Aiken County,SC,NA,27.472527472527474,48.954489544895445
29926,Beaufort County,SC,NA,86.93528693528694,NA
57006,Brookings County,SD,NA,41.39194139194139,11.31611316113161
57104,Minnehaha County,SD,NA,53.35775335775336,46.002460024600246
57301,Davison County,SD,NA,NA,22.63222632226322
37040,Montgomery County,TN,33.177570093457945,NA,NA
37043,Montgomery County,TN,NA,18.925518925518926,NA
37062,Williamson County,TN,96.72897196261682,NA,NA
37067,Williamson County,TN,NA,67.27716727716728,NA
37080,Davidson County,TN,NA,90.72039072039072,NA
37127,Rutherford County,TN,NA,77.2893772893773,NA
37204,Davidson County,TN,NA,NA,97.7859778597786
37207,Davidson County,TN,NA,NA,81.30381303813039
37208,Davidson County,TN,35.51401869158878,59.21855921855922,NA
37210,Davidson County,TN,NA,NA,71.46371463714637
37211,Davidson County,TN,NA,NA,51.291512915129154
37215,Davidson County,TN,95.7943925233645,60.195360195360195,35.916359163591636
37221,Davidson County,TN,NA,24.297924297924297,NA
37355,Coffee County,TN,NA,80.95238095238095,NA
37379,Hamilton County,TN,NA,29.059829059829063,NA
37411,Hamilton County,TN,NA,57.87545787545788,NA
37416,Hamilton County,TN,NA,NA,70.60270602706026
37601,Washington County,TN,NA,NA,24.723247232472325
37604,Washington County,TN,25.233644859813083,NA,NA
37663,Sullivan County,TN,NA,59.584859584859586,NA
37716,Anderson County,TN,NA,61.66056166056166,NA
37804,Blount County,TN,NA,NA,27.79827798277983
38109,Shelby County,TN,NA,NA,27.183271832718326
38111,Shelby County,TN,NA,78.02197802197803,NA
38116,Shelby County,TN,NA,63.85836385836385,NA
38127,Shelby County,TN,NA,36.01953601953602,NA
38320,Benton County,TN,NA,91.6971916971917,NA
38401,Maury County,TN,NA,5.86080586080586,NA
75034,Denton County,TX,NA,26.495726495726498,NA
75050,Dallas County,TX,NA,48.22954822954823,NA
75069,Collin County,TX,53.271028037383175,NA,NA
75146,Dallas County,TX,NA,93.52869352869352,NA
75149,Dallas County,TX,NA,61.78266178266178,NA
75189,Rockwall County,TX,49.06542056074766,NA,NA
75203,Dallas County,TX,NA,64.1025641025641,NA
75212,Dallas County,TX,NA,45.78754578754579,NA
75215,Dallas County,TX,NA,NA,51.53751537515375
75224,Dallas County,TX,NA,39.31623931623932,NA
75227,Dallas County,TX,NA,NA,62.23862238622387
75244,Dallas County,TX,NA,85.22588522588522,NA
75703,Smith County,TX,NA,NA,50.55350553505535
75791,Smith County,TX,NA,NA,30.01230012300123
75801,Anderson County,TX,NA,NA,99.3849938499385
75803,Anderson County,TX,69.1588785046729,NA,NA
76021,Tarrant County,TX,NA,38.82783882783883,NA
76067,Palo Pinto County,TX,NA,55.311355311355314,NA
76087,Parker County,TX,NA,40.537240537240535,NA
76103,Tarrant County,TX,NA,62.637362637362635,NA
76104,Tarrant County,TX,74.76635514018692,NA,NA
76115,Tarrant County,TX,NA,NA,98.2779827798278
76119,Tarrant County,TX,NA,NA,24.969249692496927
76135,Tarrant County,TX,NA,61.904761904761905,NA
76137,Tarrant County,TX,NA,18.192918192918192,NA
76140,Tarrant County,TX,NA,75.45787545787546,NA
76179,Tarrant County,TX,NA,65.2014652014652,NA
76501,Bell County,TX,48.13084112149533,NA,NA
76502,Bell County,TX,NA,28.327228327228326,46.125461254612546
76504,Bell County,TX,NA,39.56043956043956,NA
76543,Bell County,TX,NA,NA,64.94464944649447
76642,Limestone County,TX,NA,96.94749694749694,NA
76705,McLennan County,TX,NA,72.77167277167277,NA
76825,McCulloch County,TX,NA,73.26007326007326,NA
77009,Harris County,TX,NA,NA,55.71955719557196
77011,Harris County,TX,NA,91.57509157509158,NA
77016,Harris County,TX,NA,71.42857142857143,41.20541205412054
77023,Harris County,TX,NA,63.003663003663,NA
77026,Harris County,TX,NA,NA,59.53259532595327
77028,Harris County,TX,NA,62.27106227106227,NA
77038,Harris County,TX,NA,91.45299145299145,NA
77039,Harris County,TX,74.29906542056075,NA,NA
77048,Harris County,TX,NA,NA,80.19680196801968
77051,Harris County,TX,NA,95.1159951159951,NA
77081,Harris County,TX,NA,NA,91.02091020910208
77301,Montgomery County,TX,NA,81.92918192918192,NA
77327,Liberty County,TX,NA,73.62637362637363,NA
77450,Harris County,TX,NA,16.727716727716725,NA
77498,Fort Bend County,TX,NA,50.91575091575091,NA
77515,Brazoria County,TX,NA,NA,38.37638376383764
77539,Galveston County,TX,NA,NA,30.25830258302583
77550,Galveston County,TX,NA,89.25518925518926,31.24231242312423
77551,Galveston County,TX,NA,NA,84.00984009840099
77554,Galveston County,TX,NA,44.68864468864469,92.49692496924969
77573,Galveston County,TX,NA,70.57387057387058,NA
77583,Brazoria County,TX,NA,66.30036630036629,NA
77586,Harris County,TX,NA,87.66788766788767,NA
77590,Galveston County,TX,17.289719626168225,NA,NA
77591,Galveston County,TX,NA,NA,49.69249692496925
77662,Orange County,TX,80.37383177570094,NA,NA
77808,Brazos County,TX,NA,NA,91.5129151291513
78028,Kerr County,TX,NA,13.91941391941392,NA
78040,Webb County,TX,NA,NA,15.990159901599016
78046,Webb County,TX,NA,24.664224664224665,NA
78207,Bexar County,TX,NA,12.82051282051282,NA
78240,Bexar County,TX,NA,NA,69.49569495694958
78412,Nueces County,TX,NA,NA,73.92373923739237
78577,Hidalgo County,TX,NA,NA,9.348093480934809
78633,Williamson County,TX,NA,NA,60.63960639606396
78641,Williamson County,TX,NA,NA,64.69864698646987
78642,Williamson County,TX,NA,84.85958485958486,NA
78643,Llano County,TX,NA,NA,51.16851168511685
78654,Burnet County,TX,80.8411214953271,NA,NA
78731,Travis County,TX,NA,87.3015873015873,NA
84010,Davis County,UT,NA,85.47008547008546,NA
84054,Davis County,UT,NA,72.64957264957265,NA
84065,Salt Lake County,UT,NA,NA,63.714637146371466
84074,Tooele County,UT,NA,NA,77.73677736777368
84081,Salt Lake County,UT,NA,56.043956043956044,NA
84088,Salt Lake County,UT,NA,NA,97.66297662976629
84092,Salt Lake County,UT,NA,43.833943833943835,NA
84094,Salt Lake County,UT,NA,NA,88.56088560885608
84102,Salt Lake County,UT,NA,NA,89.0528905289053
84103,Salt Lake County,UT,NA,NA,65.68265682656826
84107,Salt Lake County,UT,NA,42.61294261294261,NA
84108,Salt Lake County,UT,NA,NA,67.89667896678966
84109,Salt Lake County,UT,NA,NA,30.13530135301353
84116,Salt Lake County,UT,NA,64.95726495726495,NA
84119,Salt Lake County,UT,NA,NA,33.82533825338253
84120,Salt Lake County,UT,NA,NA,95.5719557195572
84121,Salt Lake County,UT,NA,NA,85.73185731857319
84321,Cache County,UT,NA,66.54456654456654,NA
84403,Weber County,UT,NA,60.07326007326007,NA
84405,Weber County,UT,NA,86.44688644688645,NA
05401,Chittenden County,VT,NA,46.52014652014652,NA
05408,Chittenden County,VT,NA,NA,76.13776137761377
05446,Chittenden County,VT,NA,74.48107448107449,NA
05491,Addison County,VT,NA,78.998778998779,NA
05641,Washington County,VT,NA,NA,12.669126691266912
05701,Rutland County,VT,NA,NA,10.57810578105781
05753,Addison County,VT,NA,72.16117216117216,NA
05819,Caledonia County,VT,NA,NA,63.22263222632226
22030,Fairfax County,VA,NA,28.205128205128204,NA
22041,Fairfax County,VA,NA,NA,59.40959409594095
22191,Prince William County,VA,NA,30.4029304029304,NA
22560,Essex County,VA,NA,95.84859584859585,NA
22602,Frederick County,VA,NA,51.4041514041514,NA
22701,Culpeper County,VA,NA,71.06227106227107,27.552275522755227
22901,Albemarle County,VA,NA,NA,35.42435424354243
22903,Charlottesville city,VA,NA,83.02808302808303,31.857318573185733
22911,Albemarle County,VA,NA,NA,25.953259532595325
22960,Orange County,VA,NA,NA,64.45264452644527
22963,Fluvanna County,VA,NA,49.572649572649574,NA
22980,Waynesboro city,VA,NA,3.6630036630036633,NA
23093,Louisa County,VA,87.38317757009347,NA,82.04182041820418
23220,Richmond city,VA,NA,NA,96.5559655596556
23221,Richmond city,VA,NA,92.7960927960928,NA
23222,Richmond city,VA,NA,NA,37.269372693726936
23225,Richmond city,VA,NA,83.88278388278388,NA
23227,Henrico County,VA,NA,NA,59.77859778597786
23430,Isle of Wight County,VA,NA,NA,34.44034440344404
23435,Suffolk city,VA,52.336448598130836,NA,NA
23454,Virginia Beach city,VA,NA,9.645909645909647,NA
23504,Norfolk city,VA,NA,52.258852258852265,NA
23505,Norfolk city,VA,NA,31.257631257631257,NA
23510,Norfolk city,VA,NA,91.94139194139194,NA
23513,Norfolk city,VA,NA,NA,18.696186961869618
23831,Chesterfield County,VA,NA,30.89133089133089,NA
23832,Chesterfield County,VA,NA,46.76434676434676,NA
24078,Henry County,VA,98.13084112149532,NA,NA
24401,Staunton city,VA,NA,NA,30.38130381303813
24422,Alleghany County,VA,NA,NA,92.8659286592866
24501,Lynchburg city,VA,NA,38.095238095238095,NA
24502,Lynchburg city,VA,NA,44.56654456654457,NA
98008,King County,WA,NA,NA,64.57564575645756
98022,King County,WA,64.95327102803739,NA,NA
98023,King County,WA,35.046728971962615,12.332112332112333,55.96555965559655
98027,King County,WA,NA,74.35897435897436,NA
98028,King County,WA,93.92523364485982,NA,NA
98029,King County,WA,NA,NA,95.9409594095941
98036,Snohomish County,WA,NA,38.46153846153847,NA
98042,King County,WA,NA,NA,21.648216482164823
98043,Snohomish County,WA,NA,NA,56.08856088560885
98052,King County,WA,NA,88.76678876678876,88.19188191881919
98065,King County,WA,NA,93.04029304029304,NA
98087,Snohomish County,WA,NA,80.46398046398046,NA
98103,King County,WA,NA,38.949938949938954,42.92742927429274
98104,King County,WA,NA,NA,81.91881918819189
98117,King County,WA,NA,NA,78.59778597785979
98118,King County,WA,NA,83.27228327228327,29.02829028290283
98119,King County,WA,NA,93.28449328449328,65.06765067650676
98122,King County,WA,NA,73.13797313797313,NA
98125,King County,WA,NA,NA,31.73431734317343
98177,King County,WA,NA,NA,51.04551045510455
98198,King County,WA,NA,NA,73.80073800738008
98249,Island County,WA,NA,NA,94.7109471094711
98258,Snohomish County,WA,NA,NA,82.65682656826569
98502,Thurston County,WA,NA,NA,91.7589175891759
98584,Mason County,WA,NA,53.724053724053725,NA
98683,Clark County,WA,NA,NA,42.066420664206646
98801,Chelan County,WA,NA,55.06715506715507,NA
98802,Douglas County,WA,NA,NA,85.85485854858548
98816,Chelan County,WA,NA,NA,72.44772447724476
99362,Walla Walla County,WA,NA,NA,7.7490774907749085
20001,District of Columbia,DC,NA,NA,31.857318573185733
20002,District of Columbia,DC,NA,NA,37.88437884378843
20011,District of Columbia,DC,NA,NA,3.5670356703567037
20012,District of Columbia,DC,NA,84.49328449328449,NA
20019,District of Columbia,DC,NA,27.83882783882784,NA
20020,District of Columbia,DC,NA,31.990231990231987,NA
20024,District of Columbia,DC,63.084112149532714,NA,NA
25541,Cabell County,WV,70.56074766355141,NA,NA
25550,Mason County,WV,NA,NA,33.82533825338253
25801,Raleigh County,WV,NA,NA,7.995079950799508
26037,Brooke County,WV,NA,NA,67.65067650676507
26041,Marshall County,WV,NA,72.89377289377289,NA
26330,Harrison County,WV,NA,NA,29.520295202952028
26501,Monongalia County,WV,22.429906542056074,NA,NA
26505,Monongalia County,WV,NA,NA,49.20049200492005
26508,Monongalia County,WV,NA,NA,92.00492004920049
26554,Marion County,WV,NA,NA,1.7220172201722017
26704,Hampshire County,WV,NA,99.14529914529915,NA
26726,Mineral County,WV,NA,70.2075702075702,NA
26757,Hampshire County,WV,NA,80.34188034188034,NA
26836,Hardy County,WV,NA,NA,77.85977859778598
53005,Waukesha County,WI,NA,89.01098901098901,43.788437884378844
53024,Ozaukee County,WI,NA,54.82295482295483,NA
53027,Washington County,WI,NA,44.93284493284494,NA
53051,Waukesha County,WI,NA,21.978021978021978,8.856088560885608
53066,Waukesha County,WI,NA,42.73504273504273,19.557195571955717
53081,Sheboygan County,WI,NA,NA,20.78720787207872
53090,Washington County,WI,67.7570093457944,NA,NA
53094,Jefferson County,WI,NA,27.350427350427353,25.707257072570727
53105,Racine County,WI,NA,NA,28.290282902829027
53110,Milwaukee County,WI,NA,NA,27.92127921279213
53115,Walworth County,WI,NA,38.339438339438345,NA
53202,Milwaukee County,WI,NA,43.34554334554335,NA
53206,Milwaukee County,WI,42.523364485981304,NA,NA
53208,Milwaukee County,WI,NA,NA,90.28290282902829
53209,Milwaukee County,WI,NA,NA,7.2570725707257075
53211,Milwaukee County,WI,NA,NA,7.872078720787208
53212,Milwaukee County,WI,NA,NA,42.189421894218945
53215,Milwaukee County,WI,7.476635514018691,NA,NA
53216,Milwaukee County,WI,36.915887850467286,NA,39.72939729397294
53217,Milwaukee County,WI,NA,25.152625152625152,NA
53218,Milwaukee County,WI,10.2803738317757,57.75335775335775,NA
53222,Milwaukee County,WI,62.149532710280376,35.40903540903541,NA
53225,Milwaukee County,WI,NA,NA,84.74784747847478
53228,Milwaukee County,WI,NA,NA,37.63837638376384
53511,Rock County,WI,NA,0.2442002442002442,1.4760147601476015
53520,Green County,WI,NA,52.62515262515263,NA
53532,Dane County,WI,NA,85.83638583638583,NA
53545,Rock County,WI,NA,NA,14.883148831488317
53546,Rock County,WI,NA,NA,5.166051660516605
53566,Green County,WI,NA,NA,41.69741697416974
53578,Sauk County,WI,NA,NA,98.6469864698647
53590,Dane County,WI,NA,NA,23.616236162361623
53704,Dane County,WI,NA,68.4981684981685,NA
53705,Dane County,WI,NA,45.42124542124542,62.85362853628536
53711,Dane County,WI,NA,66.05616605616605,11.07011070110701
53716,Dane County,WI,NA,94.87179487179486,53.13653136531366
53718,Dane County,WI,NA,NA,60.02460024600246
53719,Dane County,WI,60.747663551401864,NA,NA
53821,Crawford County,WI,NA,NA,68.01968019680197
53925,Columbia County,WI,NA,NA,72.69372693726937
54011,Pierce County,WI,87.85046728971963,NA,NA
54220,Manitowoc County,WI,NA,NA,0.36900369003690037
54481,Portage County,WI,58.41121495327103,14.652014652014653,34.809348093480935
54601,La Crosse County,WI,NA,55.18925518925519,23.247232472324722
54603,La Crosse County,WI,NA,NA,12.792127921279212
54656,Monroe County,WI,NA,NA,18.20418204182042
54660,Monroe County,WI,NA,NA,58.42558425584256
54667,Vernon County,WI,NA,98.29059829059828,NA
54669,La Crosse County,WI,NA,NA,65.92865928659286
54853,Polk County,WI,NA,79.48717948717949,NA
54880,Douglas County,WI,NA,21.367521367521366,75.89175891758919
54904,Winnebago County,WI,NA,35.8974358974359,NA
54911,Outagamie County,WI,NA,NA,62.11562115621157
54914,Outagamie County,WI,NA,51.77045177045178,NA
82414,Park County,WY,78.03738317757009,NA,NA
82435,Park County,WY,NA,64.34676434676435,NA
