ZipCode,county,state,Adult
35633,Lauderdale County,AL,59.67741935483871
36117,Montgomery County,AL,34.946236559139784
85301,Maricopa County,AZ,5.376344086021505
85365,Yuma County,AZ,27.419354838709676
85629,Pima County,AZ,73.11827956989248
86004,Coconino County,AZ,8.60215053763441
86503,Apache County,AZ,37.096774193548384
90039,Los Angeles County,CA,87.63440860215054
90650,Los Angeles County,CA,17.741935483870968
91351,Los Angeles County,CA,67.20430107526882
91708,San Bernardino County,CA,98.9247311827957
91709,San Bernardino County,CA,36.02150537634409
91711,Los Angeles County,CA,87.09677419354838
92105,San Diego County,CA,52.68817204301075
92129,San Diego County,CA,61.82795698924731
92602,Orange County,CA,79.03225806451613
92627,Orange County,CA,20.43010752688172
92694,Orange County,CA,60.752688172043015
93420,San Luis Obispo County,CA,70.96774193548387
93614,Madera County,CA,97.84946236559139
93618,Tulare County,CA,58.06451612903226
93710,Fresno County,CA,64.51612903225806
93930,Monterey County,CA,77.41935483870968
94541,Alameda County,CA,22.58064516129032
94549,Contra Costa County,CA,86.55913978494624
94806,Contra Costa County,CA,36.55913978494624
95123,Santa Clara County,CA,39.247311827956985
95129,Santa Clara County,CA,89.78494623655914
95356,Stanislaus County,CA,43.01075268817204
95677,Placer County,CA,84.40860215053763
95820,Sacramento County,CA,55.376344086021504
95821,Sacramento County,CA,75.80645161290323
95993,Sutter County,CA,51.075268817204304
80004,Jefferson County,CO,60.215053763440864
80020,Broomfield County,CO,48.924731182795696
80219,Denver County,CO,6.451612903225806
80228,Jefferson County,CO,58.602150537634415
06035,Hartford County,CT,96.7741935483871
06422,Middlesex County,CT,88.70967741935483
32043,Clay County,FL,49.46236559139785
32563,Santa Rosa County,FL,69.35483870967742
32725,Volusia County,FL,38.70967741935484
33136,Miami-Dade County,FL,53.76344086021505
33186,Miami-Dade County,FL,54.83870967741935
33578,Hillsborough County,FL,37.634408602150536
33584,Hillsborough County,FL,59.13978494623656
33765,Pinellas County,FL,77.95698924731182
33912,Lee County,FL,89.24731182795699
34668,Pasco County,FL,13.978494623655912
30021,DeKalb County,GA,81.18279569892472
30238,Clayton County,GA,56.98924731182796
60018,Cook County,IL,65.59139784946237
60103,DuPage County,IL,27.956989247311824
60133,Cook County,IL,48.38709677419355
60517,DuPage County,IL,40.32258064516129
60608,Cook County,IL,12.903225806451612
60652,Cook County,IL,28.49462365591398
60659,Cook County,IL,51.61290322580645
61081,Whiteside County,IL,32.25806451612903
62204,St. Clair County,IL,84.94623655913979
46032,Hamilton County,IN,80.10752688172043
46953,Grant County,IN,13.440860215053762
47130,Clark County,IN,11.29032258064516
47803,Vigo County,IN,63.44086021505376
50022,Cass County,IA,92.47311827956989
52001,Dubuque County,IA,16.666666666666664
52003,Dubuque County,IA,94.6236559139785
52732,Clinton County,IA,21.50537634408602
66062,Johnson County,KS,12.365591397849462
04074,Cumberland County,ME,70.43010752688173
04259,Kennebec County,ME,99.46236559139786
20770,Prince George's County,MD,80.64516129032258
21774,Frederick County,MD,93.54838709677419
21811,Worcester County,MD,61.29032258064516
02124,Suffolk County,MA,0
02151,Suffolk County,MA,0.5376344086021506
48180,Wayne County,MI,2.1505376344086025
48237,Oakland County,MI,19.892473118279568
48314,Macomb County,MI,45.16129032258064
49014,Calhoun County,MI,18.817204301075268
49426,Ottawa County,MI,41.935483870967744
49441,Muskegon County,MI,14.516129032258066
55106,Ramsey County,MN,9.67741935483871
55122,Dakota County,MN,68.81720430107528
55317,Carver County,MN,83.33333333333334
55330,Sherburne County,MN,90.32258064516128
55404,Hennepin County,MN,22.043010752688172
55409,Hennepin County,MN,75.26881720430107
55413,Hennepin County,MN,45.69892473118279
55811,St. Louis County,MN,30.64516129032258
56301,Stearns County,MN,47.31182795698925
56378,Stearns County,MN,86.02150537634408
63131,St. Louis County,MO,98.38709677419355
63640,St. Francois County,MO,40.86021505376344
64158,Clay County,MO,95.6989247311828
65775,Howell County,MO,33.33333333333333
59801,Missoula County,MT,66.12903225806451
89107,Clark County,NV,55.91397849462365
89121,Clark County,NV,25.268817204301076
89506,Washoe County,NV,18.27956989247312
03031,Hillsborough County,NH,81.72043010752688
03060,Hillsborough County,NH,9.13978494623656
07093,Hudson County,NJ,8.064516129032258
07201,Union County,NJ,10.21505376344086
07442,Passaic County,NJ,72.58064516129032
08016,Burlington County,NJ,38.17204301075269
08105,Camden County,NJ,1.6129032258064515
08701,Ocean County,NJ,3.763440860215054
87031,Valencia County,NM,26.881720430107524
11205,Kings County,NY,43.54838709677419
11219,Kings County,NY,84.94623655913979
11223,Kings County,NY,20.967741935483872
11228,Kings County,NY,62.903225806451616
11231,Kings County,NY,44.623655913978496
11236,Kings County,NY,4.838709677419355
11570,Nassau County,NY,88.17204301075269
12477,Ulster County,NY,96.23655913978494
13849,Otsego County,NY,82.25806451612904
14127,Erie County,NY,16.129032258064516
14210,Erie County,NY,62.365591397849464
14213,Erie County,NY,54.3010752688172
14586,Monroe County,NY,33.87096774193548
14609,Monroe County,NY,5.913978494623656
14617,Monroe County,NY,24.731182795698924
14624,Monroe County,NY,2.6881720430107525
14701,Chautauqua County,NY,3.225806451612903
27529,Wake County,NC,23.118279569892472
27823,Halifax County,NC,78.49462365591397
28314,Cumberland County,NC,31.182795698924732
28560,Craven County,NC,63.97849462365591
28630,Caldwell County,NC,34.40860215053764
58078,Cass County,ND,24.193548387096776
58103,Cass County,ND,29.56989247311828
43202,Franklin County,OH,82.79569892473118
43229,Franklin County,OH,7.526881720430108
44109,Cuyahoga County,OH,1.0752688172043012
44112,Cuyahoga County,OH,67.74193548387096
44212,Medina County,OH,4.301075268817205
44446,Trumbull County,OH,15.591397849462366
44484,Trumbull County,OH,26.344086021505376
45050,Butler County,OH,95.16129032258065
45240,Hamilton County,OH,23.655913978494624
74965,Adair County,OK,94.08602150537635
97214,Multnomah County,OR,74.19354838709677
97333,Benton County,OR,69.89247311827957
97838,Umatilla County,OR,17.20430107526882
15478,Fayette County,PA,72.04301075268818
16502,Erie County,PA,46.774193548387096
17055,Cumberland County,PA,28.49462365591398
17201,Franklin County,PA,11.827956989247312
17856,Union County,PA,100
19036,Delaware County,PA,57.52688172043011
19116,Philadelphia County,PA,25.806451612903224
19464,Montgomery County,PA,6.989247311827956
29303,Spartanburg County,SC,46.236559139784944
29611,Greenville County,SC,15.053763440860216
29706,Chester County,SC,35.483870967741936
37072,Davidson County,TN,32.25806451612903
37086,Rutherford County,TN,50.53763440860215
37322,Meigs County,TN,65.05376344086021
37363,Hamilton County,TN,42.473118279569896
75227,Dallas County,TX,19.35483870967742
75233,Dallas County,TX,73.65591397849462
75287,Denton County,TX,41.39784946236559
75633,Panola County,TX,79.03225806451613
76227,Denton County,TX,91.93548387096774
76513,Bell County,TX,10.75268817204301
77083,Harris County,TX,44.086021505376344
77964,Lavaca County,TX,90.86021505376344
78214,Bexar County,TX,66.66666666666666
78739,Travis County,TX,97.31182795698925
78758,Travis County,TX,56.451612903225815
84095,Salt Lake County,UT,39.784946236559136
84790,Washington County,UT,47.8494623655914
22203,Arlington County,VA,76.34408602150538
22314,Alexandria city,VA,31.72043010752688
23111,Hanover County,VA,53.2258064516129
23238,Henrico County,VA,93.01075268817203
98103,King County,WA,50
98144,King County,WA,30.107526881720432
98258,Snohomish County,WA,74.73118279569893
98373,Pierce County,WA,71.50537634408603
98580,Pierce County,WA,91.39784946236558
99163,Whitman County,WA,76.88172043010752
53022,Washington County,WI,68.27956989247312
53126,Racine County,WI,83.87096774193549
54952,Winnebago County,WI,52.1505376344086
