ZipCode,county,state,Adult,Retirement
35215,Jefferson County,AL,15.696649029982362,NA
35565,Winston County,AL,NA,82.67716535433071
35757,Madison County,AL,80.42328042328042,NA
36078,Elmore County,AL,64.19753086419753,NA
36083,Macon County,AL,90.47619047619048,NA
36089,Bullock County,AL,NA,93.7007874015748
36116,Montgomery County,AL,30.864197530864196,NA
36426,Escambia County,AL,67.54850088183422,NA
36867,Russell County,AL,78.83597883597884,NA
99508,Anchorage Municipality,AK,27.160493827160494,NA
85008,Maricopa County,AZ,22.39858906525573,NA
85024,Maricopa County,AZ,81.65784832451499,NA
85027,Maricopa County,AZ,NA,63.77952755905512
85035,Maricopa County,AZ,25.396825396825395,NA
85119,Pinal County,AZ,NA,54.7244094488189
85139,Pinal County,AZ,65.07936507936508,NA
85281,Maricopa County,AZ,47.266313932980594,NA
85283,Maricopa County,AZ,NA,34.645669291338585
85339,Maricopa County,AZ,31.040564373897706,NA
85364,Yuma County,AZ,6.878306878306878,NA
85550,Graham County,AZ,81.48148148148148,NA
85706,Pima County,AZ,25.220458553791886,NA
85711,Pima County,AZ,15.873015873015872,NA
85713,Pima County,AZ,61.022927689594354,67.32283464566929
85716,Pima County,AZ,26.984126984126984,NA
86047,Navajo County,AZ,NA,42.51968503937008
86322,Yavapai County,AZ,62.61022927689594,NA
86510,Navajo County,AZ,NA,93.30708661417323
72543,Cleburne County,AR,NA,70.07874015748031
90015,Los Angeles County,CA,87.65432098765432,NA
90026,Los Angeles County,CA,59.43562610229277,NA
90027,Los Angeles County,CA,69.66490299823633,NA
90028,Los Angeles County,CA,NA,78.34645669291339
90044,Los Angeles County,CA,12.345679012345679,NA
90260,Los Angeles County,CA,82.53968253968253,NA
90744,Los Angeles County,CA,88.35978835978835,NA
90810,Los Angeles County,CA,NA,88.58267716535433
91307,Los Angeles County,CA,92.5925925925926,NA
91342,Los Angeles County,CA,29.80599647266314,NA
91744,Los Angeles County,CA,NA,34.25196850393701
91768,Los Angeles County,CA,56.613756613756614,NA
92075,San Diego County,CA,92.9453262786596,NA
92101,San Diego County,CA,NA,48.818897637795274
92103,San Diego County,CA,NA,57.08661417322835
92117,San Diego County,CA,66.84303350970018,NA
92123,San Diego County,CA,NA,92.51968503937007
92126,San Diego County,CA,NA,41.732283464566926
92203,Riverside County,CA,56.4373897707231,NA
92227,Imperial County,CA,53.79188712522046,NA
92301,San Bernardino County,CA,45.326278659611994,NA
92336,San Bernardino County,CA,18.165784832451497,NA
92405,San Bernardino County,CA,58.0246913580247,NA
92505,Riverside County,CA,NA,59.84251968503938
92563,Riverside County,CA,44.26807760141093,NA
92620,Orange County,CA,NA,52.362204724409445
92656,Orange County,CA,45.85537918871252,NA
92692,Orange County,CA,NA,30.314960629921263
92886,Orange County,CA,NA,22.83464566929134
93001,Ventura County,CA,36.860670194003525,NA
93003,Ventura County,CA,24.514991181657848,NA
93010,Ventura County,CA,45.67901234567901,33.07086614173229
93060,Ventura County,CA,87.12522045855378,NA
93065,Ventura County,CA,NA,26.77165354330709
93306,Kern County,CA,30.158730158730158,NA
93428,San Luis Obispo County,CA,NA,97.24409448818898
93458,Santa Barbara County,CA,23.28042328042328,NA
93555,Kern County,CA,NA,26.77165354330709
93727,Fresno County,CA,NA,32.677165354330704
94002,San Mateo County,CA,66.13756613756614,NA
94019,San Mateo County,CA,NA,66.92913385826772
94027,San Mateo County,CA,NA,99.21259842519686
94062,San Mateo County,CA,66.31393298059965,NA
94080,San Mateo County,CA,85.5379188712522,NA
94102,San Francisco County,CA,81.12874779541445,NA
94110,San Francisco County,CA,72.31040564373897,NA
94121,San Francisco County,CA,79.8941798941799,NA
94127,San Francisco County,CA,NA,76.77165354330708
94303,San Mateo County,CA,38.97707231040564,NA
94401,San Mateo County,CA,96.29629629629629,NA
94518,Contra Costa County,CA,NA,83.46456692913385
94520,Contra Costa County,CA,76.19047619047619,NA
94542,Alameda County,CA,NA,98.4251968503937
94606,Alameda County,CA,65.60846560846561,NA
94610,Alameda County,CA,74.77954144620811,NA
95003,Santa Cruz County,CA,NA,80.31496062992126
95020,Santa Clara County,CA,NA,39.76377952755906
95035,Santa Clara County,CA,NA,56.69291338582677
95118,Santa Clara County,CA,89.77072310405644,NA
95380,Stanislaus County,CA,NA,26.37795275590551
95460,Mendocino County,CA,NA,98.03149606299213
80205,Denver County,CO,21.693121693121693,NA
80218,Denver County,CO,71.0758377425044,86.61417322834646
80249,Denver County,CO,49.382716049382715,NA
80528,Larimer County,CO,64.37389770723104,NA
80634,Weld County,CO,4.761904761904762,NA
06010,Hartford County,CT,3.7037037037037033,NA
06105,Hartford County,CT,31.216931216931215,NA
06112,Hartford County,CT,26.63139329805996,NA
06260,Windham County,CT,41.9753086419753,NA
06405,New Haven County,CT,53.96825396825397,NA
06450,New Haven County,CT,35.978835978835974,NA
06457,Middlesex County,CT,13.403880070546737,NA
06484,Fairfield County,CT,48.32451499118166,NA
06519,New Haven County,CT,NA,51.96850393700787
06710,New Haven County,CT,68.95943562610229,NA
19805,New Castle County,DE,5.64373897707231,NA
19973,Sussex County,DE,NA,27.559055118110237
32033,St. Johns County,FL,NA,96.45669291338582
32068,Clay County,FL,20.98765432098765,NA
32113,Marion County,FL,86.41975308641975,NA
32114,Volusia County,FL,32.98059964726631,NA
32128,Volusia County,FL,NA,69.29133858267717
32210,Duval County,FL,7.760141093474426,NA
32218,Duval County,FL,7.231040564373897,NA
32304,Leon County,FL,NA,94.09448818897637
32344,Jefferson County,FL,94.88536155202821,NA
32405,Bay County,FL,37.91887125220458,NA
32503,Escambia County,FL,NA,20.866141732283463
32506,Escambia County,FL,23.28042328042328,NA
32606,Alachua County,FL,46.03174603174603,NA
32609,Alachua County,FL,29.453262786596117,NA
32708,Seminole County,FL,58.730158730158735,NA
32796,Brevard County,FL,63.13932980599647,NA
32811,Orange County,FL,32.27513227513227,NA
32822,Orange County,FL,NA,33.07086614173229
32832,Orange County,FL,90.12345679012346,NA
33020,Broward County,FL,41.09347442680776,NA
33024,Broward County,FL,NA,30.708661417322837
33029,Broward County,FL,71.42857142857143,NA
33060,Broward County,FL,50.264550264550266,NA
33136,Miami-Dade County,FL,NA,87.4015748031496
33157,Miami-Dade County,FL,46.73721340388007,NA
33166,Miami-Dade County,FL,95.41446208112875,NA
33309,Broward County,FL,68.60670194003528,NA
33311,Broward County,FL,12.16931216931217,NA
33316,Broward County,FL,NA,78.74015748031496
33455,Martin County,FL,NA,29.133858267716533
33545,Pasco County,FL,91.005291005291,NA
33579,Hillsborough County,FL,NA,84.25196850393701
33619,Hillsborough County,FL,47.08994708994709,NA
33712,Pinellas County,FL,47.61904761904761,NA
33763,Pinellas County,FL,89.0652557319224,NA
33805,Polk County,FL,52.38095238095239,NA
33830,Polk County,FL,48.67724867724868,NA
33913,Lee County,FL,NA,38.976377952755904
34207,Manatee County,FL,65.4320987654321,NA
34232,Sarasota County,FL,59.78835978835979,NA
34234,Sarasota County,FL,53.26278659611992,NA
34286,Sarasota County,FL,NA,65.35433070866141
34744,Osceola County,FL,37.742504409171076,NA
34758,Osceola County,FL,NA,58.661417322834644
34947,St. Lucie County,FL,65.25573192239858,NA
34997,Martin County,FL,40.917107583774246,NA
30030,DeKalb County,GA,58.377425044091716,NA
30054,Newton County,GA,NA,94.88188976377953
30101,Cobb County,GA,37.03703703703704,NA
30126,Cobb County,GA,81.83421516754849,NA
30127,Cobb County,GA,27.689594356261022,NA
30308,Fulton County,GA,NA,90.5511811023622
30310,Fulton County,GA,33.50970017636684,NA
30311,Fulton County,GA,87.3015873015873,NA
30318,Fulton County,GA,39.682539682539684,NA
30329,DeKalb County,GA,NA,98.81889763779527
30546,Towns County,GA,NA,76.37795275590551
30642,Greene County,GA,85.18518518518519,NA
30680,Barrow County,GA,30.687830687830687,NA
30683,Clarke County,GA,93.47442680776014,NA
30721,Whitfield County,GA,NA,54.330708661417326
30904,Richmond County,GA,46.20811287477954,NA
31082,Washington County,GA,90.8289241622575,NA
31204,Bibb County,GA,NA,37.00787401574803
31313,Liberty County,GA,75.13227513227513,NA
31406,Chatham County,GA,63.49206349206349,NA
31522,Glynn County,GA,96.47266313932981,NA
31602,Lowndes County,GA,NA,92.1259842519685
31714,Turner County,GA,82.89241622574956,NA
31906,Muscogee County,GA,NA,51.181102362204726
39854,Quitman County,GA,99.64726631393297,NA
96706,Honolulu County,HI,19.400352733686066,NA
96744,Honolulu County,HI,29.276895943562607,NA
96749,Hawaii County,HI,NA,79.13385826771653
96761,Maui County,HI,92.06349206349206,NA
96825,Honolulu County,HI,64.02116402116403,NA
96826,Honolulu County,HI,NA,75.59055118110236
83221,Bingham County,ID,71.78130511463846,NA
83702,Ada County,ID,73.54497354497354,NA
60010,Lake County,IL,NA,19.291338582677163
60044,Lake County,IL,88.00705467372134,NA
60048,Lake County,IL,NA,35.43307086614173
60060,Lake County,IL,60.317460317460316,NA
60083,Lake County,IL,91.88712522045856,NA
60156,McHenry County,IL,48.500881834215164,NA
60174,Kane County,IL,NA,46.45669291338583
60194,Cook County,IL,NA,64.96062992125984
60402,Cook County,IL,NA,17.322834645669293
60416,Grundy County,IL,71.95767195767195,NA
60419,Cook County,IL,NA,45.2755905511811
60425,Cook County,IL,85.89065255731923,NA
60432,Will County,IL,67.01940035273368,NA
60448,Will County,IL,65.96119929453262,NA
60462,Cook County,IL,37.03703703703704,NA
60478,Cook County,IL,83.9506172839506,NA
60521,DuPage County,IL,NA,68.89763779527559
60608,Cook County,IL,19.753086419753085,NA
60619,Cook County,IL,10.934744268077601,8.661417322834646
60622,Cook County,IL,NA,55.118110236220474
60637,Cook County,IL,24.33862433862434,NA
60640,Cook County,IL,NA,13.385826771653544
60651,Cook County,IL,14.991181657848324,14.566929133858267
60653,Cook County,IL,NA,38.582677165354326
60657,Cook County,IL,64.72663139329806,NA
61301,LaSalle County,IL,NA,72.83464566929135
61856,Piatt County,IL,NA,59.4488188976378
62305,Adams County,IL,79.54144620811287,NA
62454,Crawford County,IL,NA,79.52755905511812
46060,Hamilton County,IN,42.504409171075835,NA
46140,Hancock County,IN,40.56437389770723,NA
46142,Johnson County,IN,NA,18.89763779527559
46143,Johnson County,IN,NA,22.04724409448819
46201,Marion County,IN,NA,44.09448818897638
46307,Lake County,IN,3.3509700176366843,NA
46319,Lake County,IN,37.56613756613756,NA
46321,Lake County,IN,46.913580246913575,NA
46350,LaPorte County,IN,16.225749559082892,NA
46567,Kosciusko County,IN,98.58906525573192,NA
46737,Steuben County,IN,85.00881834215167,NA
46750,Huntington County,IN,28.74779541446208,NA
46783,Huntington County,IN,NA,90.15748031496062
46835,Allen County,IN,44.44444444444444,NA
46970,Miami County,IN,17.46031746031746,NA
47713,Vanderburgh County,IN,74.25044091710758,NA
47715,Vanderburgh County,IN,41.09347442680776,NA
50219,Marion County,IA,NA,61.417322834645674
50311,Polk County,IA,62.257495590828924,NA
50501,Webster County,IA,34.21516754850088,NA
50588,Buena Vista County,IA,NA,89.76377952755905
50701,Black Hawk County,IA,45.14991181657848,NA
50801,Union County,IA,88.53615520282186,NA
51301,Clay County,IA,63.31569664902999,NA
52241,Johnson County,IA,59.082892416225754,NA
52245,Johnson County,IA,NA,48.4251968503937
52246,Johnson County,IA,NA,73.22834645669292
52577,Mahaska County,IA,NA,81.10236220472441
66044,Douglas County,KS,77.42504409171076,NA
66067,Franklin County,KS,NA,62.20472440944882
40069,Washington County,KY,77.95414462081128,NA
40210,Jefferson County,KY,54.32098765432099,NA
40361,Bourbon County,KY,78.3068783068783,NA
42134,Simpson County,KY,62.96296296296296,NA
42303,Daviess County,KY,17.636684303350968,NA
42347,Ohio County,KY,83.06878306878306,NA
42445,Caldwell County,KY,78.48324514991182,NA
70002,Jefferson Parish,LA,NA,40.94488188976378
70003,Jefferson Parish,LA,14.109347442680775,7.086614173228346
70030,St. Charles Parish,LA,100,NA
70053,Jefferson Parish,LA,97.00176366843033,NA
70117,Orleans Parish,LA,NA,22.440944881889763
70123,Jefferson Parish,LA,27.86596119929453,NA
70506,Lafayette Parish,LA,10.052910052910052,NA
70535,St. Landry Parish,LA,88.88888888888889,NA
70605,Calcasieu Parish,LA,27.513227513227513,NA
70634,Beauregard Parish,LA,34.92063492063492,NA
70737,Ascension Parish,LA,11.992945326278658,NA
70760,Pointe Coupee Parish,LA,81.12874779541445,NA
70769,Ascension Parish,LA,17.813051146384478,NA
70816,East Baton Rouge Parish,LA,57.31922398589065,NA
70820,East Baton Rouge Parish,LA,95.59082892416225,NA
71112,Bossier Parish,LA,72.13403880070547,NA
71201,Ouachita Parish,LA,46.56084656084656,NA
71446,Vernon Parish,LA,18.871252204585538,46.06299212598425
04043,York County,ME,NA,49.60629921259843
04064,York County,ME,82.01058201058201,NA
04086,Sagadahoc County,ME,83.5978835978836,NA
04106,Cumberland County,ME,NA,44.09448818897638
04276,Oxford County,ME,73.89770723104057,NA
04605,Hancock County,ME,56.96649029982363,NA
20746,Prince George's County,MD,74.42680776014109,NA
20895,Montgomery County,MD,93.29805996472663,NA
21001,Harford County,MD,NA,72.04724409448819
21114,Anne Arundel County,MD,74.95590828924162,NA
21201,Baltimore city,MD,NA,57.48031496062992
21207,Baltimore County,MD,NA,66.14173228346458
21216,Baltimore city,MD,47.795414462081126,NA
21219,Baltimore County,MD,99.29453262786596,NA
01002,Hampshire County,MA,51.49911816578483,NA
01060,Hampshire County,MA,55.379188712522044,NA
01075,Hampshire County,MA,7.936507936507936,NA
01095,Hampden County,MA,95.23809523809523,NA
01104,Hampden County,MA,51.14638447971781,NA
01105,Hampden County,MA,5.996472663139329,NA
01108,Hampden County,MA,NA,10.62992125984252
01109,Hampden County,MA,0.1763668430335097,NA
01247,Berkshire County,MA,82.36331569664902,NA
01604,Worcester County,MA,1.4109347442680775,NA
01776,Middlesex County,MA,56.08465608465608,NA
01862,Middlesex County,MA,NA,85.43307086614173
01863,Middlesex County,MA,NA,90.94488188976378
01886,Middlesex County,MA,32.451499118165785,40.55118110236221
01915,Essex County,MA,2.9982363315696645,NA
01923,Essex County,MA,6.701940035273369,NA
01944,Essex County,MA,NA,88.9763779527559
01960,Essex County,MA,64.55026455026454,NA
02021,Norfolk County,MA,41.7989417989418,NA
02119,Suffolk County,MA,0,NA
02121,Suffolk County,MA,7.4074074074074066,1.1811023622047243
02126,Suffolk County,MA,8.289241622574956,NA
02128,Suffolk County,MA,NA,19.68503937007874
02136,Suffolk County,MA,3.1746031746031744,NA
02139,Middlesex County,MA,59.25925925925925,NA
02144,Middlesex County,MA,29.100529100529098,NA
02148,Middlesex County,MA,NA,0.39370078740157477
02150,Suffolk County,MA,0.5291005291005291,NA
02351,Plymouth County,MA,25.044091710758376,NA
02360,Plymouth County,MA,1.5873015873015872,NA
02368,Norfolk County,MA,3.527336860670194,NA
02453,Middlesex County,MA,82.18694885361552,NA
02474,Middlesex County,MA,22.22222222222222,NA
02476,Middlesex County,MA,NA,35.039370078740156
02481,Norfolk County,MA,66.66666666666666,NA
02494,Norfolk County,MA,89.2416225749559,NA
02702,Bristol County,MA,94.00352733686067,NA
02703,Bristol County,MA,1.9400352733686066,NA
02740,Bristol County,MA,6.172839506172839,NA
02760,Bristol County,MA,19.576719576719576,NA
48021,Macomb County,MI,NA,23.62204724409449
48038,Macomb County,MI,21.869488536155202,NA
48042,Macomb County,MI,31.569664902998234,NA
48045,Macomb County,MI,34.038800705467374,NA
48072,Oakland County,MI,62.43386243386243,NA
48088,Macomb County,MI,57.14285714285714,NA
48104,Washtenaw County,MI,59.9647266313933,NA
48108,Washtenaw County,MI,NA,39.37007874015748
48118,Washtenaw County,MI,83.5978835978836,NA
48134,Wayne County,MI,39.15343915343915,NA
48135,Wayne County,MI,NA,31.10236220472441
48162,Monroe County,MI,NA,53.54330708661418
48167,Oakland County,MI,52.733686067019406,NA
48168,Wayne County,MI,NA,48.031496062992126
48185,Wayne County,MI,9.523809523809524,NA
48187,Wayne County,MI,18.342151675485006,NA
48197,Washtenaw County,MI,23.985890652557316,NA
48208,Wayne County,MI,NA,84.64566929133859
48213,Wayne County,MI,19.223985890652557,NA
48223,Wayne County,MI,21.516754850088184,NA
48226,Wayne County,MI,97.53086419753086,NA
48227,Wayne County,MI,61.19929453262787,NA
48234,Wayne County,MI,13.756613756613756,NA
48240,Wayne County,MI,30.511463844797177,NA
48313,Macomb County,MI,37.38977072310406,NA
48322,Oakland County,MI,54.4973544973545,NA
48335,Oakland County,MI,61.904761904761905,NA
48340,Oakland County,MI,18.51851851851852,NA
48463,Genesee County,MI,96.64902998236332,NA
48603,Saginaw County,MI,20.811287477954142,NA
48640,Midland County,MI,17.28395061728395,NA
48809,Ionia County,MI,91.18165784832452,NA
48820,Clinton County,MI,78.65961199294532,NA
48838,Montcalm County,MI,42.857142857142854,NA
48846,Ionia County,MI,51.67548500881834,NA
48875,Ionia County,MI,84.83245149911816,NA
48911,Ingham County,MI,11.28747795414462,NA
48917,Eaton County,MI,16.049382716049383,NA
49006,Kalamazoo County,MI,61.552028218694886,NA
49017,Calhoun County,MI,NA,31.496062992125985
49057,Van Buren County,MI,NA,80.70866141732283
49087,Kalamazoo County,MI,94.3562610229277,77.16535433070865
49203,Jackson County,MI,12.874779541446207,NA
49221,Lenawee County,MI,30.158730158730158,NA
49265,Lenawee County,MI,96.82539682539682,NA
49343,Kent County,MI,93.82716049382715,NA
49417,Ottawa County,MI,60.84656084656085,11.41732283464567
49503,Kent County,MI,19.047619047619047,NA
49504,Kent County,MI,23.633156966490297,NA
49507,Kent County,MI,67.90123456790124,NA
49519,Kent County,MI,25.749559082892414,NA
49684,Grand Traverse County,MI,NA,36.22047244094488
49829,Delta County,MI,44.79717813051146,NA
49837,Delta County,MI,NA,60.629921259842526
49849,Marquette County,MI,NA,61.811023622047244
55105,Ramsey County,MN,95.06172839506173,NA
55106,Ramsey County,MN,11.64021164021164,NA
55112,Ramsey County,MN,80.77601410934744,NA
55379,Scott County,MN,36.68430335097001,NA
55407,Hennepin County,MN,10.758377425044092,NA
55411,Hennepin County,MN,26.807760141093475,NA
55415,Hennepin County,MN,97.88359788359789,NA
55418,Hennepin County,MN,71.0758377425044,NA
55429,Hennepin County,MN,53.61552028218695,NA
55445,Hennepin County,MN,84.12698412698413,NA
55744,Itasca County,MN,NA,12.598425196850393
55807,St. Louis County,MN,NA,63.38582677165354
55987,Winona County,MN,43.91534391534391,NA
56073,Brown County,MN,31.746031746031743,NA
56156,Rock County,MN,NA,66.53543307086615
56468,Crow Wing County,MN,NA,87.79527559055119
56470,Hubbard County,MN,91.53439153439153,NA
56560,Clay County,MN,NA,8.267716535433072
38666,Panola County,MS,97.35449735449735,NA
38967,Montgomery County,MS,NA,96.06299212598425
39204,Hinds County,MS,32.451499118165785,NA
39208,Rankin County,MS,NA,62.99212598425197
39560,Harrison County,MS,68.25396825396825,NA
63121,St. Louis County,MO,NA,57.874015748031496
63125,St. Louis County,MO,54.85008818342152,NA
63134,St. Louis County,MO,53.96825396825397,NA
63136,St. Louis County,MO,NA,17.716535433070867
63367,St. Charles County,MO,NA,42.91338582677165
64130,Jackson County,MO,11.46384479717813,NA
64131,Jackson County,MO,23.10405643738977,NA
64804,Jasper County,MO,26.455026455026452,NA
65084,Morgan County,MO,NA,95.66929133858267
65201,Boone County,MO,NA,69.68503937007874
59101,Yellowstone County,MT,NA,29.527559055118108
59102,Yellowstone County,MT,NA,9.05511811023622
59718,Gallatin County,MT,47.97178130511463,NA
68122,Douglas County,NE,NA,95.2755905511811
68134,Douglas County,NE,67.1957671957672,NA
68850,Dawson County,NE,86.24338624338624,88.18897637795276
89403,Lyon County,NV,50.617283950617285,NA
89523,Washoe County,NV,NA,38.188976377952756
03060,Hillsborough County,NH,39.50617283950617,NA
03104,Hillsborough County,NH,22.57495590828924,NA
03431,Cheshire County,NH,40.38800705467372,NA
07002,Hudson County,NJ,2.4691358024691357,NA
07035,Morris County,NJ,99.47089947089947,NA
07104,Essex County,NJ,9.700176366843033,NA
07305,Hudson County,NJ,0.7054673721340388,NA
07701,Monmouth County,NJ,58.90652557319223,NA
08080,Gloucester County,NJ,68.78306878306879,NA
08104,Camden County,NJ,1.763668430335097,NA
08401,Atlantic County,NJ,NA,6.299212598425196
08610,Mercer County,NJ,12.698412698412698,NA
08701,Ocean County,NJ,NA,15.748031496062993
08759,Ocean County,NJ,NA,2.7559055118110236
87106,Bernalillo County,NM,NA,49.21259842519685
87110,Bernalillo County,NM,52.910052910052904,16.141732283464567
87112,Bernalillo County,NM,NA,16.535433070866144
87121,Bernalillo County,NM,NA,11.023622047244094
87501,Santa Fe County,NM,NA,75.19685039370079
87505,Santa Fe County,NM,NA,11.811023622047244
88230,Chaves County,NM,NA,100
10001,New York County,NY,21.340388007054674,NA
10023,New York County,NY,60.49382716049383,NA
10025,New York County,NY,9.876543209876543,NA
10026,New York County,NY,34.74426807760141,NA
10030,New York County,NY,NA,36.61417322834646
10033,New York County,NY,NA,25.590551181102363
10034,New York County,NY,44.97354497354497,NA
10039,New York County,NY,41.622574955908284,NA
10040,New York County,NY,85.3615520282187,NA
10306,Richmond County,NY,28.39506172839506,NA
10451,Bronx County,NY,5.114638447971781,NA
10452,Bronx County,NY,NA,13.779527559055119
10453,Bronx County,NY,1.0582010582010581,NA
10454,Bronx County,NY,59.61199294532628,40.15748031496063
10456,Bronx County,NY,4.5855379188712515,0
10457,Bronx County,NY,22.92768959435626,NA
10458,Bronx County,NY,0.3527336860670194,NA
10463,Bronx County,NY,NA,33.85826771653544
10467,Bronx County,NY,NA,62.59842519685039
11023,Nassau County,NY,99.11816578483244,NA
11208,Kings County,NY,2.2927689594356258,NA
11211,Kings County,NY,NA,25.196850393700785
11212,Kings County,NY,2.1164021164021163,NA
11214,Kings County,NY,24.691358024691358,NA
11218,Kings County,NY,25.925925925925924,NA
11220,Kings County,NY,NA,35.826771653543304
11226,Kings County,NY,29.98236331569665,NA
11229,Kings County,NY,NA,25.984251968503933
11233,Kings County,NY,20.634920634920633,NA
11234,Kings County,NY,28.92416225749559,NA
11377,Queens County,NY,76.71957671957672,NA
11542,Nassau County,NY,71.42857142857143,NA
11550,Nassau County,NY,20.282186948853614,NA
11691,Queens County,NY,14.814814814814813,NA
12122,Schoharie County,NY,80.24691358024691,NA
12157,Schoharie County,NY,97.70723104056437,NA
12210,Albany County,NY,69.48853615520282,NA
13045,Cortland County,NY,NA,16.92913385826772
13210,Onondaga County,NY,47.44268077601411,NA
13367,Lewis County,NY,NA,91.33858267716536
13440,Oneida County,NY,NA,9.448818897637794
13491,Herkimer County,NY,89.94708994708994,NA
13732,Tioga County,NY,58.553791887125215,50.39370078740157
13760,Broome County,NY,12.522045855379188,0.7874015748031495
14020,Genesee County,NY,70.72310405643739,NA
14075,Erie County,NY,14.638447971781304,NA
14103,Orleans County,NY,56.79012345679012,NA
14120,Niagara County,NY,8.465608465608465,NA
14207,Erie County,NY,NA,42.125984251968504
14211,Erie County,NY,15.167548500881834,NA
14215,Erie County,NY,2.821869488536155,NA
14304,Niagara County,NY,NA,7.480314960629922
14305,Niagara County,NY,NA,43.7007874015748
14432,Ontario County,NY,NA,59.055118110236215
14513,Wayne County,NY,9.171075837742503,NA
14522,Wayne County,NY,44.62081128747795,NA
14580,Monroe County,NY,1.2345679012345678,NA
14605,Monroe County,NY,45.5026455026455,NA
14606,Monroe County,NY,25.573192239858905,NA
14609,Monroe County,NY,8.641975308641975,NA
14612,Monroe County,NY,3.880070546737213,3.149606299212598
14616,Monroe County,NY,46.38447971781305,NA
14617,Monroe County,NY,NA,7.874015748031496
14620,Monroe County,NY,10.052910052910052,NA
14621,Monroe County,NY,23.809523809523807,4.724409448818897
14624,Monroe County,NY,NA,3.937007874015748
27106,Forsyth County,NC,NA,6.692913385826772
27278,Orange County,NC,31.393298059964724,NA
27344,Chatham County,NC,NA,51.574803149606296
27371,Montgomery County,NC,83.42151675485009,NA
27407,Guilford County,NC,28.04232804232804,NA
27526,Wake County,NC,NA,28.346456692913385
27563,Warren County,NC,NA,83.85826771653542
27565,Granville County,NC,32.098765432098766,NA
27574,Person County,NC,75.30864197530865,NA
27591,Wake County,NC,NA,64.1732283464567
27604,Wake County,NC,44.091710758377424,NA
27615,Wake County,NC,53.086419753086425,NA
27704,Durham County,NC,20.105820105820104,NA
27804,Nash County,NC,76.5432098765432,NA
27858,Pitt County,NC,69.1358024691358,NA
28001,Stanly County,NC,43.20987654320987,NA
28036,Mecklenburg County,NC,86.94885361552028,NA
28083,Cabarrus County,NC,40.74074074074074,NA
28202,Mecklenburg County,NC,94.17989417989418,NA
28208,Mecklenburg County,NC,16.93121693121693,NA
28215,Mecklenburg County,NC,24.16225749559083,NA
28262,Mecklenburg County,NC,47.97178130511463,NA
28546,Onslow County,NC,35.626102292768955,NA
28570,Carteret County,NC,63.66843033509701,NA
28658,Catawba County,NC,55.73192239858906,NA
28734,Macon County,NC,NA,14.173228346456693
28786,Haywood County,NC,NA,23.228346456692915
58203,Grand Forks County,ND,NA,64.56692913385827
58701,Ward County,ND,NA,14.960629921259844
58703,Ward County,ND,55.026455026455025,NA
43085,Franklin County,OH,NA,70.47244094488188
43103,Pickaway County,OH,NA,75.98425196850394
43110,Franklin County,OH,NA,18.11023622047244
43206,Franklin County,OH,53.43915343915344,NA
43232,Franklin County,OH,NA,20.47244094488189
43543,Williams County,OH,91.71075837742504,NA
43605,Lucas County,OH,4.409171075837742,NA
43608,Lucas County,OH,14.285714285714285,NA
43609,Lucas County,OH,8.818342151675484,NA
43612,Lucas County,OH,8.112874779541446,NA
43614,Lucas County,OH,18.69488536155203,NA
43615,Lucas County,OH,6.525573192239858,NA
43620,Lucas County,OH,80.0705467372134,NA
43762,Muskingum County,OH,NA,99.60629921259843
43906,Belmont County,OH,83.24514991181657,NA
43968,Columbiana County,OH,61.37566137566137,NA
44004,Ashtabula County,OH,4.056437389770723,5.511811023622047
44035,Lorain County,OH,NA,4.330708661417323
44053,Lorain County,OH,13.580246913580247,NA
44060,Lake County,OH,NA,1.968503937007874
44070,Cuyahoga County,OH,NA,10.236220472440944
44102,Cuyahoga County,OH,NA,24.409448818897637
44104,Cuyahoga County,OH,51.85185185185185,NA
44105,Cuyahoga County,OH,0.8818342151675485,NA
44108,Cuyahoga County,OH,5.467372134038801,61.023622047244096
44109,Cuyahoga County,OH,21.164021164021165,NA
44110,Cuyahoga County,OH,17.10758377425044,NA
44111,Cuyahoga County,OH,2.6455026455026456,NA
44115,Cuyahoga County,OH,73.01587301587301,NA
44123,Cuyahoga County,OH,38.447971781305114,NA
44124,Cuyahoga County,OH,NA,27.95275590551181
44128,Cuyahoga County,OH,4.938271604938271,NA
44138,Cuyahoga County,OH,43.738977072310405,NA
44140,Cuyahoga County,OH,76.89594356261023,NA
44142,Cuyahoga County,OH,NA,24.015748031496063
44256,Medina County,OH,NA,1.574803149606299
44266,Portage County,OH,16.402116402116402,NA
44273,Medina County,OH,91.35802469135803,NA
44301,Summit County,OH,41.44620811287478,NA
44306,Summit County,OH,NA,43.30708661417323
44310,Summit County,OH,49.91181657848324,NA
44314,Summit County,OH,36.507936507936506,NA
44420,Trumbull County,OH,49.735449735449734,NA
44663,Tuscarawas County,OH,NA,21.653543307086615
44705,Stark County,OH,34.39153439153439,NA
44710,Stark County,OH,72.4867724867725,NA
45005,Warren County,OH,15.520282186948853,NA
45040,Warren County,OH,43.03350970017637,NA
45211,Hamilton County,OH,16.57848324514991,NA
45216,Hamilton County,OH,66.49029982363317,NA
45220,Hamilton County,OH,97.17813051146385,NA
45224,Hamilton County,OH,NA,60.23622047244095
45231,Hamilton County,OH,13.932980599647266,NA
45237,Hamilton County,OH,39.85890652557319,NA
45238,Hamilton County,OH,22.75132275132275,NA
45239,Hamilton County,OH,76.01410934744268,NA
45243,Hamilton County,OH,NA,86.22047244094489
45368,Clark County,OH,94.70899470899471,NA
45406,Montgomery County,OH,NA,50
45417,Montgomery County,OH,14.462081128747794,NA
45420,Montgomery County,OH,36.33156966490299,NA
45458,Montgomery County,OH,79.18871252204586,18.503937007874015
45659,Lawrence County,OH,88.00705467372134,NA
45661,Pike County,OH,NA,53.14960629921261
45662,Scioto County,OH,5.291005291005291,NA
45693,Adams County,OH,60.670194003527335,NA
45694,Scioto County,OH,39.32980599647266,NA
45817,Allen County,OH,89.41798941798942,NA
73069,Cleveland County,OK,75.48500881834215,NA
74135,Tulsa County,OK,NA,50.78740157480315
74804,Pottawatomie County,OK,NA,53.937007874015755
97080,Multnomah County,OR,34.5679012345679,NA
97214,Multnomah County,OR,NA,85.8267716535433
97302,Marion County,OR,55.379188712522044,52.75590551181102
97304,Polk County,OR,87.47795414462081,NA
97355,Linn County,OR,20.458553791887123,NA
97415,Curry County,OR,NA,31.88976377952756
97503,Jackson County,OR,74.60317460317461,NA
97720,Harney County,OR,NA,97.63779527559055
97814,Baker County,OR,54.4973544973545,NA
15001,Beaver County,PA,29.629629629629626,NA
15145,Allegheny County,PA,90.29982363315696,NA
15208,Allegheny County,PA,63.844797178130506,NA
15217,Allegheny County,PA,69.66490299823633,NA
15317,Washington County,PA,NA,15.354330708661418
15425,Fayette County,PA,NA,28.74015748031496
16121,Mercer County,PA,79.36507936507937,NA
16125,Mercer County,PA,50.08818342151675,NA
16407,Erie County,PA,NA,74.80314960629921
16426,Erie County,PA,99.82363315696648,NA
16506,Erie County,PA,77.60141093474427,NA
16601,Blair County,PA,16.75485008818342,NA
16823,Centre County,PA,64.90299823633157,NA
16870,Centre County,PA,92.23985890652557,NA
17042,Lebanon County,PA,33.15696649029982,NA
17044,Mifflin County,PA,NA,44.881889763779526
17109,Dauphin County,PA,35.273368606701936,NA
17315,York County,PA,38.80070546737213,NA
17339,York County,PA,95.76719576719577,NA
17403,York County,PA,NA,5.905511811023622
17921,Schuylkill County,PA,84.65608465608466,NA
17948,Schuylkill County,PA,92.23985890652557,NA
18017,Northampton County,PA,10.582010582010582,NA
18102,Lehigh County,PA,56.261022927689595,NA
18255,Carbon County,PA,92.7689594356261,NA
18966,Bucks County,PA,26.102292768959433,NA
19013,Delaware County,PA,6.349206349206349,NA
19020,Bucks County,PA,NA,47.63779527559055
19063,Delaware County,PA,NA,72.44094488188976
19081,Delaware County,PA,93.65079365079364,NA
19103,Philadelphia County,PA,57.84832451499118,NA
19120,Philadelphia County,PA,5.82010582010582,NA
19136,Philadelphia County,PA,19.929453262786595,NA
19139,Philadelphia County,PA,7.583774250440917,NA
19140,Philadelphia County,PA,4.232804232804233,NA
19146,Philadelphia County,PA,24.867724867724867,NA
19152,Philadelphia County,PA,28.21869488536155,NA
19464,Montgomery County,PA,NA,12.204724409448819
19508,Berks County,PA,62.78659611992945,NA
19604,Berks County,PA,52.02821869488537,77.55905511811024
19607,Berks County,PA,38.62433862433862,NA
02871,Newport County,RI,NA,47.24409448818898
02904,Providence County,RI,NA,24.803149606299215
29063,Richland County,SC,67.3721340388007,NA
29108,Newberry County,SC,NA,58.26771653543307
29115,Orangeburg County,SC,49.2063492063492,NA
29229,Richland County,SC,50.44091710758377,NA
29301,Spartanburg County,SC,42.32804232804233,NA
29322,Spartanburg County,SC,NA,92.91338582677166
29405,Charleston County,SC,38.2716049382716,NA
29483,Dorchester County,SC,26.278659611992943,NA
29501,Florence County,SC,42.68077601410935,NA
29574,Marion County,SC,70.37037037037037,NA
29575,Horry County,SC,NA,65.74803149606299
29650,Greenville County,SC,50.617283950617285,NA
29732,York County,SC,43.386243386243386,NA
57108,Lincoln County,SD,98.2363315696649,NA
57501,Hughes County,SD,79.71781305114638,NA
37015,Cheatham County,TN,70.8994708994709,NA
37066,Sumner County,TN,17.989417989417987,NA
37208,Davidson County,TN,35.80246913580247,NA
37354,Monroe County,TN,78.1305114638448,NA
37406,Hamilton County,TN,76.3668430335097,NA
37615,Washington County,TN,69.31216931216932,NA
37821,Cocke County,TN,NA,37.40157480314961
37914,Knox County,TN,49.55908289241622,NA
37922,Knox County,TN,65.78483245149911,NA
38017,Shelby County,TN,57.67195767195767,NA
38018,Shelby County,TN,77.24867724867724,NA
38116,Shelby County,TN,27.336860670194003,NA
38242,Henry County,TN,NA,46.8503937007874
38301,Madison County,TN,NA,21.25984251968504
38570,Overton County,TN,NA,74.40944881889764
75001,Dallas County,TX,94.3562610229277,NA
75035,Collin County,TX,51.32275132275132,NA
75068,Denton County,TX,42.151675485008816,NA
75069,Collin County,TX,NA,41.338582677165356
75116,Dallas County,TX,84.47971781305115,NA
76012,Tarrant County,TX,60.14109347442681,NA
76022,Tarrant County,TX,86.06701940035273,NA
76033,Johnson County,TX,48.85361552028218,NA
76092,Tarrant County,TX,NA,68.11023622047244
76103,Tarrant County,TX,NA,73.62204724409449
76109,Tarrant County,TX,67.72486772486772,NA
76112,Tarrant County,TX,NA,20.078740157480315
76119,Tarrant County,TX,13.051146384479717,NA
76120,Tarrant County,TX,62.08112874779541,NA
76528,Coryell County,TX,40.0352733686067,NA
76549,Bell County,TX,33.33333333333333,NA
77057,Harris County,TX,77.77777777777779,NA
77060,Harris County,TX,NA,81.49606299212599
77068,Harris County,TX,NA,96.8503937007874
77365,Montgomery County,TX,NA,67.71653543307087
77449,Harris County,TX,NA,32.28346456692913
77459,Fort Bend County,TX,32.804232804232804,NA
77590,Galveston County,TX,22.045855379188712,NA
78201,Bexar County,TX,33.68606701940035,NA
78239,Bexar County,TX,72.66313932980599,NA
78413,Nueces County,TX,80.42328042328042,NA
78731,Travis County,TX,NA,91.73228346456693
79423,Lubbock County,TX,40.21164021164021,NA
79703,Midland County,TX,70.01763668430335,NA
79706,Midland County,TX,57.49559082892416,NA
84020,Salt Lake County,UT,NA,71.25984251968504
84037,Davis County,UT,NA,71.65354330708661
84095,Salt Lake County,UT,52.20458553791887,NA
84103,Salt Lake County,UT,75.66137566137566,NA
84104,Salt Lake County,UT,82.71604938271605,NA
84321,Cache County,UT,77.07231040564373,NA
05403,Chittenden County,VT,73.19223985890653,NA
05819,Caledonia County,VT,NA,79.92125984251969
20109,Prince William County,VA,43.56261022927689,NA
20191,Fairfax County,VA,NA,74.01574803149606
22041,Fairfax County,VA,79.01234567901234,NA
22204,Arlington County,VA,NA,55.51181102362205
22642,Warren County,VA,98.58906525573192,NA
22655,Frederick County,VA,NA,87.00787401574803
22835,Page County,VA,70.54673721340387,NA
22980,Waynesboro city,VA,15.343915343915343,NA
23223,Henrico County,VA,7.054673721340388,NA
23661,Hampton city,VA,73.36860670194002,NA
23834,Colonial Heights city,VA,NA,70.86614173228347
24426,Alleghany County,VA,NA,56.2992125984252
24590,Albemarle County,VA,NA,89.37007874015748
24609,Tazewell County,VA,70.19400352733686,NA
24630,Tazewell County,VA,NA,81.88976377952756
98023,King County,WA,35.44973544973545,NA
98032,King County,WA,55.908289241622576,NA
98092,King County,WA,33.86243386243386,NA
98108,King County,WA,80.95238095238095,NA
98148,King County,WA,98.05996472663139,NA
98199,King County,WA,88.71252204585538,NA
98204,Snohomish County,WA,36.15520282186949,NA
98233,Skagit County,WA,85.71428571428571,NA
98274,Skagit County,WA,73.54497354497354,NA
98277,Island County,WA,NA,68.50393700787401
98321,Pierce County,WA,72.8395061728395,NA
98632,Cowlitz County,WA,NA,9.84251968503937
98663,Clark County,WA,95.94356261022926,NA
98840,Okanogan County,WA,98.94179894179894,NA
98902,Yakima County,WA,NA,29.92125984251969
99006,Spokane County,WA,NA,94.48818897637796
99212,Spokane County,WA,86.77248677248677,NA
20002,District of Columbia,DC,9.347442680776014,NA
20018,District of Columbia,DC,55.026455026455025,NA
20024,District of Columbia,DC,68.07760141093475,NA
25064,Kanawha County,WV,61.72839506172839,NA
25304,Kanawha County,WV,NA,82.28346456692913
25401,Berkeley County,WV,49.029982363315696,NA
26003,Ohio County,WV,NA,5.118110236220472
26101,Wood County,WV,8.994708994708994,NA
53005,Waukesha County,WI,52.557319223985886,NA
53098,Dodge County,WI,74.07407407407408,NA
53177,Racine County,WI,NA,77.95275590551181
53185,Racine County,WI,68.25396825396825,NA
53189,Waukesha County,WI,NA,37.79527559055118
53209,Milwaukee County,WI,NA,3.543307086614173
53210,Milwaukee County,WI,13.227513227513226,NA
53215,Milwaukee County,WI,31.922398589065253,NA
53216,Milwaukee County,WI,38.095238095238095,NA
53218,Milwaukee County,WI,11.816578483245149,NA
53220,Milwaukee County,WI,84.30335097001763,NA
53221,Milwaukee County,WI,28.57142857142857,NA
53222,Milwaukee County,WI,86.59611992945327,NA
53225,Milwaukee County,WI,50.970017636684304,NA
53405,Racine County,WI,10.405643738977071,NA
53536,Rock County,WI,92.9453262786596,NA
53548,Rock County,WI,35.09700176366843,NA
53551,Jefferson County,WI,NA,83.07086614173228
53590,Dane County,WI,87.83068783068782,NA
53949,Marquette County,WI,98.4126984126984,NA
54220,Manitowoc County,WI,11.11111111111111,NA
54241,Manitowoc County,WI,89.59435626102292,NA
54303,Brown County,WI,58.0246913580247,NA
54304,Brown County,WI,NA,55.90551181102362
54494,Wood County,WI,NA,12.992125984251967
54601,La Crosse County,WI,NA,2.3622047244094486
54636,La Crosse County,WI,75.83774250440916,NA
54669,La Crosse County,WI,90.65255731922399,85.03937007874016
54904,Winnebago County,WI,NA,45.66929133858268
82601,Natrona County,WY,96.11992945326278,NA
