ZipCode,county,state,Adult,Retirement,Geriatric
35023,Jefferson County,AL,53.38645418326693,NA,NA
35055,Cullman County,AL,NA,NA,49.528301886792455
35071,Jefferson County,AL,61.65338645418327,NA,NA
35072,Coosa County,AL,74.800796812749,NA,NA
35094,Jefferson County,AL,NA,54.42536327608983,NA
35111,Tuscaloosa County,AL,NA,55.21796565389696,NA
35125,St. Clair County,AL,48.30677290836653,NA,NA
35180,Jefferson County,AL,58.06772908366534,NA,NA
35211,Jefferson County,AL,NA,NA,31.132075471698112
35213,Jefferson County,AL,89.04382470119522,NA,NA
35215,Jefferson County,AL,NA,NA,91.50943396226415
35217,Jefferson County,AL,40.93625498007968,NA,NA
35226,Jefferson County,AL,NA,NA,69.33962264150944
35603,Morgan County,AL,NA,25.75957727873184,NA
35652,Lauderdale County,AL,NA,77.4108322324967,NA
35750,Madison County,AL,NA,47.02774108322325,NA
35754,Morgan County,AL,79.5816733067729,NA,NA
35756,Limestone County,AL,66.43426294820716,NA,NA
35773,Madison County,AL,56.27490039840638,NA,NA
35954,Etowah County,AL,NA,44.78203434610304,NA
35976,Marshall County,AL,NA,80.31704095112285,NA
35986,DeKalb County,AL,68.22709163346613,NA,NA
36532,Baldwin County,AL,49.50199203187251,NA,NA
36541,Mobile County,AL,67.13147410358566,NA,NA
36605,Mobile County,AL,31.872509960159363,NA,NA
36804,Lee County,AL,71.81274900398407,NA,NA
99503,Anchorage Municipality,AK,94.32270916334662,NA,NA
99517,Anchorage Municipality,AK,74.30278884462152,NA,NA
99645,Matanuska-Susitna Borough,AK,70.0199203187251,NA,NA
99654,Matanuska-Susitna Borough,AK,57.47011952191235,NA,NA
99669,Kenai Peninsula Borough,AK,NA,45.442536327608984,NA
99705,Fairbanks North Star Borough,AK,64.14342629482071,NA,NA
85019,Maricopa County,AZ,30.0796812749004,NA,NA
85020,Maricopa County,AZ,29.780876494023907,NA,NA
85022,Maricopa County,AZ,45.0199203187251,NA,NA
85118,Pinal County,AZ,NA,77.54293262879789,NA
85131,Pinal County,AZ,NA,82.29854689564068,NA
85142,Maricopa County,AZ,NA,51.38705416116248,NA
85206,Maricopa County,AZ,37.74900398406375,NA,NA
85209,Maricopa County,AZ,NA,19.815059445178335,NA
85258,Maricopa County,AZ,57.66932270916335,NA,NA
85281,Maricopa County,AZ,NA,63.67239101717305,NA
85282,Maricopa County,AZ,33.36653386454183,NA,NA
85344,La Paz County,AZ,NA,94.71598414795245,NA
85345,Maricopa County,AZ,33.66533864541832,NA,NA
85364,Yuma County,AZ,NA,3.038309114927345,21.69811320754717
85623,Pinal County,AZ,NA,95.50858652575957,NA
85634,Pima County,AZ,NA,69.22060766182298,NA
85704,Pima County,AZ,NA,23.381770145310433,NA
85705,Pima County,AZ,13.745019920318724,NA,NA
85706,Pima County,AZ,94.02390438247012,NA,NA
85711,Pima County,AZ,6.673306772908366,NA,NA
85712,Pima County,AZ,15.0398406374502,NA,NA
86040,Coconino County,AZ,84.06374501992032,NA,NA
86303,Yavapai County,AZ,NA,35.006605019815055,NA
86322,Yavapai County,AZ,67.729083665338635,NA,NA
86401,Mohave County,AZ,7.370517928286853,NA,NA
86403,Mohave County,AZ,74.9003984063745,NA,NA
86413,Mohave County,AZ,NA,67.50330250990753,NA
71730,Union County,AR,NA,88.11096433289299,NA
72002,Saline County,AR,77.49003984063745,NA,NA
72015,Saline County,AR,NA,NA,75.47169811320755
72031,Van Buren County,AR,93.82470119521913,NA,NA
72113,Pulaski County,AR,NA,NA,85.37735849056604
72143,White County,AR,29.482071713147413,NA,NA
72416,Craighead County,AR,NA,NA,86.79245283018868
72450,Greene County,AR,14.043824701195218,NA,NA
72631,Carroll County,AR,NA,88.50726552179657,NA
72638,Carroll County,AR,69.22310756972112,NA,NA
72762,Washington County,AR,38.84462151394422,NA,NA
72904,Sebastian County,AR,51.09561752988048,NA,NA
72908,Sebastian County,AR,71.71314741035857,NA,NA
90011,Los Angeles County,CA,NA,65.91809775429326,NA
90039,Los Angeles County,CA,NA,67.37120211360634,NA
90041,Los Angeles County,CA,NA,NA,54.24528301886793
90048,Los Angeles County,CA,66.23505976095618,NA,NA
90049,Los Angeles County,CA,97.70916334661355,NA,NA
90212,Los Angeles County,CA,NA,94.58388375165126,58.490566037735846
90221,Los Angeles County,CA,NA,29.194187582562748,91.98113207547169
90275,Los Angeles County,CA,NA,32.36459709379128,NA
90277,Los Angeles County,CA,NA,25.62747688243065,NA
90291,Los Angeles County,CA,NA,47.82034346103038,NA
90403,Los Angeles County,CA,NA,NA,24.056603773584907
90504,Los Angeles County,CA,85.65737051792829,NA,NA
90505,Los Angeles County,CA,NA,32.76089828269485,NA
90630,Orange County,CA,39.44223107569721,NA,NA
90631,Orange County,CA,NA,NA,20.754716981132077
90716,Los Angeles County,CA,NA,91.41347424042272,NA
91007,Los Angeles County,CA,91.53386454183267,NA,NA
91107,Los Angeles County,CA,65.33864541832669,NA,79.71698113207547
91303,Los Angeles County,CA,71.41434262948208,NA,NA
91304,Los Angeles County,CA,40.73705179282869,NA,NA
91350,Los Angeles County,CA,74.60159362549801,NA,NA
91607,Los Angeles County,CA,85.2589641434263,NA,NA
91711,Los Angeles County,CA,94.12350597609563,NA,NA
91733,Los Angeles County,CA,56.27490039840638,NA,NA
91740,Los Angeles County,CA,54.08366533864542,NA,NA
91790,Los Angeles County,CA,45.31872509960159,NA,NA
91791,Los Angeles County,CA,NA,68.03170409511229,NA
91945,San Diego County,CA,51.19521912350598,NA,NA
91977,San Diego County,CA,27.589641434262944,NA,NA
92065,San Diego County,CA,41.53386454183267,NA,NA
92078,San Diego County,CA,46.015936254980076,NA,NA
92104,San Diego County,CA,19.52191235059761,NA,NA
92107,San Diego County,CA,88.84462151394422,NA,NA
92126,San Diego County,CA,NA,26.023778071334213,NA
92201,Riverside County,CA,NA,59.577278731836195,NA
92203,Riverside County,CA,NA,61.69088507265522,NA
92211,Riverside County,CA,NA,84.14795244385733,NA
92234,Riverside County,CA,10.258964143426295,1.9815059445178336,NA
92307,San Bernardino County,CA,19.9203187250996,NA,NA
92335,San Bernardino County,CA,47.410358565737056,13.0779392338177,NA
92392,San Bernardino County,CA,57.56972111553785,NA,NA
92506,Riverside County,CA,NA,NA,43.86792452830189
92507,Riverside County,CA,NA,60.10568031704096,NA
92557,Riverside County,CA,28.984063745019924,NA,NA
92567,Riverside County,CA,77.88844621513944,NA,NA
92570,Riverside County,CA,NA,37.51651254953765,NA
92604,Orange County,CA,NA,51.78335535006605,NA
92620,Orange County,CA,35.657370517928285,NA,NA
92630,Orange County,CA,NA,NA,23.58490566037736
92646,Orange County,CA,NA,8.190224570673713,NA
92648,Orange County,CA,20.318725099601593,NA,NA
92649,Orange County,CA,70.3187250996016,NA,NA
92672,Orange County,CA,NA,NA,39.15094339622642
92683,Orange County,CA,12.250996015936256,NA,NA
92694,Orange County,CA,71.01593625498009,NA,NA
92705,Orange County,CA,NA,42.932628797886395,NA
92708,Orange County,CA,57.76892430278885,NA,NA
92821,Orange County,CA,NA,79.26023778071334,NA
92833,Orange County,CA,NA,24.17437252311757,NA
92882,Riverside County,CA,52.589641434262944,NA,NA
93001,Ventura County,CA,50.79681274900398,NA,NA
93004,Ventura County,CA,NA,40.686922060766186,NA
93035,Ventura County,CA,NA,NA,96.22641509433963
93065,Ventura County,CA,NA,77.67503302509907,NA
93103,Santa Barbara County,CA,91.93227091633466,NA,NA
93247,Tulare County,CA,83.66533864541833,NA,NA
93292,Tulare County,CA,NA,26.28797886393659,NA
93308,Kern County,CA,NA,23.91017173051519,NA
93420,San Luis Obispo County,CA,76.29482071713147,38.30911492734479,NA
93458,Santa Barbara County,CA,NA,23.778071334214,NA
93611,Fresno County,CA,NA,58.2562747688243,NA
93635,Merced County,CA,32.569721115537845,NA,NA
93662,Fresno County,CA,47.808764940239044,NA,NA
93710,Fresno County,CA,52.49003984063745,NA,NA
93720,Fresno County,CA,55.97609561752988,NA,NA
93727,Fresno County,CA,NA,66.5785997357992,NA
93905,Monterey County,CA,58.66533864541833,NA,NA
93906,Monterey County,CA,83.76494023904382,NA,NA
93923,Monterey County,CA,NA,NA,11.320754716981133
94002,San Mateo County,CA,NA,75.0330250990753,NA
94014,San Mateo County,CA,99.9003984063745,NA,83.49056603773585
94024,Santa Clara County,CA,NA,58.12417437252312,NA
94025,San Mateo County,CA,41.13545816733068,28.269484808454425,55.660377358490564
94044,San Mateo County,CA,45.1195219123506,NA,NA
94063,San Mateo County,CA,87.25099601593625,NA,NA
94087,Santa Clara County,CA,NA,40.81902245706737,NA
94102,San Francisco County,CA,5.876494023904383,NA,NA
94107,San Francisco County,CA,NA,53.76486129458389,NA
94109,San Francisco County,CA,NA,NA,22.641509433962266
94110,San Francisco County,CA,9.163346613545817,NA,NA
94112,San Francisco County,CA,48.505976095617534,NA,NA
94114,San Francisco County,CA,39.04382470119522,NA,NA
94115,San Francisco County,CA,NA,NA,12.735849056603774
94118,San Francisco County,CA,NA,72.5231175693527,NA
94132,San Francisco County,CA,NA,85.86525759577279,NA
94134,San Francisco County,CA,30.677290836653388,NA,NA
94158,San Francisco County,CA,85.7569721115538,NA,NA
94404,San Mateo County,CA,NA,37.64861294583884,NA
94509,Contra Costa County,CA,NA,11.228533685601057,NA
94541,Alameda County,CA,16.93227091633466,71.4663143989432,NA
94550,Alameda County,CA,39.243027888446214,NA,NA
94558,Napa County,CA,NA,6.472919418758257,NA
94566,Alameda County,CA,NA,30.515191545574638,NA
94577,Alameda County,CA,NA,57.59577278731837,NA
94598,Contra Costa County,CA,68.42629482071713,NA,NA
94601,Alameda County,CA,NA,60.36988110964333,NA
94609,Alameda County,CA,73.90438247011953,NA,NA
94702,Alameda County,CA,53.18725099601593,NA,NA
94806,Contra Costa County,CA,NA,47.556142668428,NA
94901,Marin County,CA,NA,81.77014531043592,NA
94960,Marin County,CA,NA,70.01321003963011,NA
95008,Santa Clara County,CA,NA,40.290620871862615,NA
95035,Santa Clara County,CA,NA,94.98018494055482,49.056603773584904
95037,Santa Clara County,CA,NA,NA,26.88679245283019
95111,Santa Clara County,CA,NA,89.82826948480846,NA
95125,Santa Clara County,CA,65.0398406374502,NA,NA
95128,Santa Clara County,CA,92.52988047808765,NA,NA
95148,Santa Clara County,CA,75.59760956175299,NA,86.32075471698113
95220,San Joaquin County,CA,86.55378486055777,NA,NA
95240,San Joaquin County,CA,37.94820717131474,NA,NA
95307,Stanislaus County,CA,NA,66.18229854689565,NA
95356,Stanislaus County,CA,NA,34.74240422721268,NA
95368,Stanislaus County,CA,93.02788844621513,NA,NA
95382,Stanislaus County,CA,17.330677290836654,NA,NA
95386,Stanislaus County,CA,NA,82.69484808454426,NA
95407,Sonoma County,CA,NA,NA,56.60377358490566
95448,Sonoma County,CA,NA,NA,39.62264150943396
95472,Sonoma County,CA,NA,48.34874504623514,NA
95482,Mendocino County,CA,NA,50.99075297225891,NA
95492,Sonoma County,CA,74.40239043824701,NA,NA
95503,Humboldt County,CA,40.537848605577686,NA,NA
95521,Humboldt County,CA,96.11553784860558,NA,NA
95531,Del Norte County,CA,96.61354581673307,NA,NA
95608,Sacramento County,CA,NA,99.8678996036988,NA
95610,Sacramento County,CA,37.45019920318725,NA,NA
95624,Sacramento County,CA,NA,80.9775429326288,NA
95672,El Dorado County,CA,98.10756972111554,NA,NA
95688,Solano County,CA,NA,50.59445178335535,NA
95747,Placer County,CA,33.067729083665334,NA,10.849056603773585
95758,Sacramento County,CA,45.51792828685259,NA,NA
95762,El Dorado County,CA,42.62948207171315,NA,NA
95820,Sacramento County,CA,43.22709163346614,NA,NA
95928,Butte County,CA,26.79282868525896,NA,NA
96003,Shasta County,CA,63.24701195219124,NA,NA
96101,Modoc County,CA,81.87250996015936,NA,NA
80003,Jefferson County,CO,NA,NA,58.01886792452831
80011,Arapahoe County,CO,5.677290836653386,71.73051519154558,NA
80012,Arapahoe County,CO,78.28685258964143,NA,NA
80016,Arapahoe County,CO,NA,14.927344782034346,NA
80027,Boulder County,CO,51.69322709163347,NA,NA
80128,Jefferson County,CO,50.39840637450199,NA,NA
80202,Denver County,CO,44.820717131474105,NA,NA
80204,Denver County,CO,74.7011952191235,NA,NA
80401,Jefferson County,CO,70.81673306772909,NA,NA
80526,Larimer County,CO,NA,26.28797886393659,NA
80528,Larimer County,CO,45.91633466135458,NA,NA
80534,Weld County,CO,58.46613545816734,NA,NA
80903,El Paso County,CO,NA,93.13077939233818,NA
81007,Pueblo County,CO,81.47410358565737,NA,NA
81082,Las Animas County,CO,NA,63.01188903566711,NA
81147,Archuleta County,CO,97.80876494023904,NA,NA
81201,Chaffee County,CO,NA,64.06869220607662,NA
81632,Eagle County,CO,91.23505976095618,NA,NA
06002,Hartford County,CT,40.63745019920319,NA,NA
06010,Hartford County,CT,21.51394422310757,NA,NA
06016,Hartford County,CT,93.92430278884463,NA,NA
06033,Hartford County,CT,NA,44.253632760898284,NA
06051,Hartford County,CT,14.54183266932271,NA,NA
06053,Hartford County,CT,29.9800796812749,NA,NA
06066,Tolland County,CT,NA,15.71994715984148,19.339622641509436
06070,Hartford County,CT,NA,70.40951122853369,NA
06082,Hartford County,CT,NA,12.15323645970938,NA
06084,Tolland County,CT,NA,92.86657859973579,NA
06085,Hartford County,CT,NA,96.56538969616909,NA
06092,Hartford County,CT,NA,99.33949801849406,NA
06106,Hartford County,CT,34.16334661354581,97.22589167767504,NA
06109,Hartford County,CT,NA,44.121532364597094,NA
06117,Hartford County,CT,60.85657370517929,NA,NA
06234,Windham County,CT,53.78486055776892,NA,NA
06237,Tolland County,CT,NA,88.63936591809775,NA
06239,Windham County,CT,70.5179282868526,NA,NA
06415,New London County,CT,78.68525896414343,NA,NA
06423,Middlesex County,CT,NA,99.47159841479525,NA
06457,Middlesex County,CT,NA,8.3223249669749,NA
06473,New Haven County,CT,NA,25.23117569352708,NA
06492,New Haven County,CT,69.42231075697211,NA,NA
06512,New Haven County,CT,15.836653386454183,18.09775429326288,NA
06606,Fairfield County,CT,56.67330677290837,NA,NA
06610,Fairfield County,CT,51.494023904382466,NA,NA
06702,New Haven County,CT,72.70916334661355,NA,NA
06776,Litchfield County,CT,20.816733067729086,NA,NA
06787,Litchfield County,CT,66.93227091633466,NA,NA
06790,Litchfield County,CT,NA,15.455746367239101,NA
06795,Litchfield County,CT,NA,NA,83.9622641509434
06798,Litchfield County,CT,NA,74.10832232496698,NA
06810,Fairfield County,CT,NA,17.305151915455745,NA
06830,Fairfield County,CT,NA,30.11889035667107,NA
06831,Fairfield County,CT,68.52589641434263,NA,NA
19702,New Castle County,DE,NA,15.191545574636725,NA
19707,New Castle County,DE,NA,55.08586525759577,NA
19711,New Castle County,DE,NA,NA,17.452830188679243
19720,New Castle County,DE,1.7928286852589643,NA,NA
19963,Sussex County,DE,27.39043824701195,NA,NA
19973,Sussex County,DE,54.8804780876494,NA,NA
32054,Union County,FL,67.92828685258964,NA,NA
32055,Columbia County,FL,33.266932270916335,NA,NA
32068,Clay County,FL,NA,9.114927344782034,NA
32084,St. Johns County,FL,NA,21.92866578599736,NA
32136,Flagler County,FL,NA,61.29458388375165,NA
32137,Flagler County,FL,NA,NA,30.18867924528302
32163,Sumter County,FL,NA,57.067371202113605,NA
32169,Volusia County,FL,NA,51.2549537648613,NA
32207,Duval County,FL,13.44621513944223,NA,NA
32221,Duval County,FL,22.111553784860558,NA,NA
32226,Duval County,FL,36.45418326693227,NA,NA
32256,Duval County,FL,86.85258964143426,NA,NA
32348,Taylor County,FL,65.93625498007968,NA,NA
32405,Bay County,FL,NA,23.249669749009247,NA
32439,Walton County,FL,80.37848605577689,NA,NA
32448,Jackson County,FL,NA,92.20607661822986,NA
32505,Escambia County,FL,NA,9.775429326287979,NA
32533,Escambia County,FL,NA,NA,61.79245283018868
32539,Okaloosa County,FL,NA,21.66446499339498,NA
32541,Okaloosa County,FL,NA,31.307793923381773,NA
32563,Santa Rosa County,FL,NA,19.154557463672393,NA
32570,Santa Rosa County,FL,NA,5.151915455746367,NA
32583,Santa Rosa County,FL,NA,18.494055482166445,NA
32609,Alachua County,FL,NA,41.34742404227213,NA
32656,Clay County,FL,NA,NA,53.301886792452834
32666,Putnam County,FL,75.39840637450199,NA,NA
32725,Volusia County,FL,NA,31.836195508586524,NA
32726,Lake County,FL,NA,78.99603698811096,NA
32780,Brevard County,FL,NA,42.40422721268164,NA
32804,Orange County,FL,NA,61.822985468956404,NA
32832,Orange County,FL,NA,82.43064729194187,NA
32904,Brevard County,FL,NA,77.14663143989432,NA
32955,Brevard County,FL,NA,19.0224570673712,NA
32960,Indian River County,FL,39.6414342629482,NA,NA
33004,Broward County,FL,82.37051792828686,NA,NA
33025,Broward County,FL,78.78486055776892,NA,NA
33071,Broward County,FL,45.61752988047809,NA,NA
33130,Miami-Dade County,FL,NA,52.443857331572,NA
33142,Miami-Dade County,FL,NA,17.040951122853368,NA
33175,Miami-Dade County,FL,47.310756972111555,NA,NA
33417,Palm Beach County,FL,49.00398406374502,NA,NA
33433,Palm Beach County,FL,NA,63.27608982826949,NA
33573,Hillsborough County,FL,NA,NA,46.22641509433962
33613,Hillsborough County,FL,NA,68.69220607661823,NA
33619,Hillsborough County,FL,27.78884462151394,NA,NA
33781,Pinellas County,FL,NA,NA,35.84905660377358
33810,Polk County,FL,NA,57.72787318361955,NA
33813,Polk County,FL,51.39442231075697,NA,NA
33876,Highlands County,FL,NA,81.50594451783356,NA
33880,Polk County,FL,NA,38.30911492734479,NA
33884,Polk County,FL,NA,36.85601056803171,NA
33912,Lee County,FL,87.15139442231076,NA,NA
33917,Lee County,FL,43.92430278884462,NA,41.509433962264154
33966,Lee County,FL,99.00398406374502,NA,NA
33971,Lee County,FL,NA,54.02906208718626,NA
34134,Lee County,FL,NA,NA,35.37735849056604
34145,Collier County,FL,NA,35.79920739762219,NA
34239,Sarasota County,FL,NA,59.97357992073976,NA
34243,Manatee County,FL,NA,19.550858652575958,NA
34285,Sarasota County,FL,NA,15.587846763540291,NA
34293,Sarasota County,FL,NA,26.81638044914135,NA
34602,Hernando County,FL,NA,77.93923381770145,NA
34714,Lake County,FL,NA,74.24042272126816,NA
34758,Osceola County,FL,NA,NA,54.71698113207547
34786,Orange County,FL,NA,99.60369881109644,NA
30012,Rockdale County,GA,NA,41.08322324966975,NA
30019,Gwinnett County,GA,31.673306772908365,NA,NA
30032,DeKalb County,GA,9.063745019920319,NA,NA
30052,Walton County,GA,NA,31.571994715984147,NA
30076,Fulton County,GA,NA,35.93130779392338,NA
30102,Cherokee County,GA,64.9402390438247,NA,NA
30107,Cherokee County,GA,NA,72.12681638044914,NA
30144,Cobb County,GA,76.79282868525897,NA,NA
30165,Floyd County,GA,NA,NA,33.0188679245283
30238,Clayton County,GA,NA,49.66974900924703,NA
30281,Henry County,GA,18.127490039840637,15.059445178335535,NA
30331,Fulton County,GA,NA,29.854689564068693,NA
30346,DeKalb County,GA,95.61752988047809,NA,NA
30458,Bulloch County,GA,26.49402390438247,NA,NA
30519,Gwinnett County,GA,NA,56.53896961690885,NA
30563,Habersham County,GA,88.14741035856574,NA,NA
30582,Towns County,GA,NA,NA,67.9245283018868
30656,Walton County,GA,NA,76.48612945838838,NA
30728,Walker County,GA,NA,78.33553500660501,NA
30809,Columbia County,GA,NA,10.96433289299868,NA
30815,Richmond County,GA,NA,86.9220607661823,NA
30830,Burke County,GA,NA,84.5442536327609,NA
31021,Laurens County,GA,NA,46.10303830911493,NA
31523,Glynn County,GA,91.43426294820716,NA,NA
31709,Sumter County,GA,NA,NA,59.905660377358494
31904,Muscogee County,GA,54.18326693227091,NA,NA
96701,Honolulu County,HI,26.693227091633464,NA,NA
96732,Maui County,HI,NA,NA,66.98113207547169
96778,Hawaii County,HI,NA,52.70805812417437,NA
96782,Honolulu County,HI,NA,NA,38.20754716981132
96793,Maui County,HI,82.17131474103586,NA,NA
96797,Honolulu County,HI,25.59760956175299,5.812417437252312,NA
96815,Honolulu County,HI,NA,NA,48.58490566037736
96819,Honolulu County,HI,38.34661354581673,NA,NA
83330,Gooding County,ID,NA,86.39365918097755,NA
83340,Blaine County,ID,NA,47.6882430647292,NA
83402,Bonneville County,ID,84.36254980079681,NA,NA
83440,Madison County,ID,59.462151394422314,NA,NA
83442,Jefferson County,ID,NA,63.936591809775436,NA
83467,Lemhi County,ID,NA,80.58124174372523,NA
83501,Nez Perce County,ID,NA,34.21400264200793,5.188679245283019
83605,Canyon County,ID,NA,18.758256274768826,NA
83607,Canyon County,ID,71.91235059760956,NA,NA
83638,Valley County,ID,NA,64.20079260237782,NA
83646,Ada County,ID,32.76892430278885,NA,NA
83647,Elmore County,ID,63.94422310756972,NA,NA
83702,Ada County,ID,22.709163346613543,NA,NA
83704,Ada County,ID,65.2390438247012,79.92073976221928,NA
83705,Ada County,ID,21.61354581673307,NA,NA
83706,Ada County,ID,NA,64.72919418758256,NA
83709,Ada County,ID,11.354581673306772,NA,NA
83714,Ada County,ID,NA,87.58256274768824,NA
83716,Ada County,ID,43.12749003984064,NA,NA
83801,Kootenai County,ID,NA,94.45178335535006,NA
83835,Kootenai County,ID,NA,28.92998678996037,NA
83856,Bonner County,ID,79.18326693227091,NA,NA
60004,Cook County,IL,NA,9.247027741083222,NA
60014,McHenry County,IL,63.147410358565736,12.285336856010568,NA
60015,Lake County,IL,NA,20.739762219286657,NA
60025,Cook County,IL,35.3585657370518,22.85336856010568,NA
60031,Lake County,IL,39.8406374501992,NA,94.81132075471697
60044,Lake County,IL,NA,NA,53.77358490566038
60047,Lake County,IL,NA,17.8335535006605,NA
60048,Lake County,IL,44.123505976095615,NA,NA
60050,McHenry County,IL,NA,25.891677675033026,NA
60056,Cook County,IL,31.374501992031874,NA,NA
60060,Lake County,IL,NA,12.681638044914134,NA
60062,Cook County,IL,31.772908366533866,NA,0.4716981132075472
60067,Cook County,IL,35.756972111553786,NA,NA
60069,Lake County,IL,NA,NA,29.71698113207547
60089,Lake County,IL,NA,9.907529722589167,NA
60103,DuPage County,IL,NA,49.9339498018494,NA
60108,DuPage County,IL,50.298804780876495,NA,NA
60110,Kane County,IL,75.99601593625498,NA,NA
60134,Kane County,IL,36.75298804780876,NA,NA
60142,McHenry County,IL,NA,NA,3.30188679245283
60146,DeKalb County,IL,NA,99.73579920739762,NA
60148,DuPage County,IL,36.852589641434264,NA,NA
60164,Cook County,IL,72.11155378486056,NA,NA
60172,DuPage County,IL,NA,33.15719947159842,NA
60193,Cook County,IL,31.47410358565737,NA,NA
60201,Cook County,IL,NA,88.24306472919419,NA
60304,Cook County,IL,NA,NA,63.20754716981132
60404,Will County,IL,35.85657370517929,NA,NA
60406,Cook County,IL,NA,61.55878467635403,NA
60409,Cook County,IL,22.808764940239044,NA,NA
60410,Will County,IL,40.23904382470119,NA,NA
60416,Grundy County,IL,73.10756972111554,NA,63.67924528301887
60417,Will County,IL,NA,29.326287978863935,NA
60435,Will County,IL,57.96812749003985,9.5112285336856,NA
60439,Cook County,IL,87.94820717131473,NA,NA
60447,Grundy County,IL,85.55776892430279,NA,NA
60448,Will County,IL,NA,85.20475561426684,NA
60452,Cook County,IL,NA,NA,36.32075471698113
60453,Cook County,IL,77.98804780876493,29.98678996036988,NA
60491,Will County,IL,28.48605577689243,21.79656538969617,NA
60502,DuPage County,IL,NA,NA,78.30188679245283
60513,Cook County,IL,61.354581673306775,NA,NA
60514,DuPage County,IL,81.67330677290838,NA,NA
60517,DuPage County,IL,NA,26.1558784676354,NA
60523,DuPage County,IL,NA,42.53632760898283,NA
60564,Will County,IL,71.31474103585657,NA,NA
60607,Cook County,IL,41.33466135458168,NA,NA
60614,Cook County,IL,15.338645418326694,NA,NA
60615,Cook County,IL,NA,NA,45.75471698113208
60621,Cook County,IL,NA,56.40686922060766,NA
60625,Cook County,IL,29.880478087649404,11.889035667107,NA
60628,Cook County,IL,NA,3.6988110964332894,NA
60629,Cook County,IL,18.725099601593627,NA,NA
60634,Cook County,IL,7.868525896414343,NA,NA
60637,Cook County,IL,NA,11.096433289299867,NA
60641,Cook County,IL,NA,13.210039630118892,NA
60644,Cook County,IL,24.800796812749006,NA,NA
60646,Cook County,IL,41.733067729083665,NA,NA
60647,Cook County,IL,NA,44.91413474240423,NA
60653,Cook County,IL,21.91235059760956,NA,NA
60659,Cook County,IL,38.84462151394422,67.50330250990753,NA
60804,Cook County,IL,14.243027888446216,NA,NA
60914,Kankakee County,IL,26.294820717131472,NA,NA
61021,Lee County,IL,25,NA,4.245283018867925
61048,Stephenson County,IL,98.50597609561753,NA,NA
61071,Whiteside County,IL,17.52988047808765,14.002642007926024,NA
61073,Winnebago County,IL,NA,NA,87.73584905660378
61356,Bureau County,IL,NA,NA,66.0377358490566
61546,Mason County,IL,97.50996015936255,NA,NA
61802,Champaign County,IL,53.08764940239043,24.834874504623514,NA
61832,Vermilion County,IL,29.183266932270918,NA,NA
62454,Crawford County,IL,95.0199203187251,NA,NA
62522,Macon County,IL,92.13147410358566,NA,NA
62526,Macon County,IL,8.46613545816733,NA,NA
62568,Christian County,IL,NA,45.574636723910174,NA
62644,Mason County,IL,NA,77.80713342140027,NA
62863,Wabash County,IL,NA,89.96036988110964,NA
62901,Jackson County,IL,NA,68.16380449141347,NA
62951,Williamson County,IL,NA,86.65785997357992,NA
46013,Madison County,IN,26.593625498007967,NA,NA
46016,Madison County,IN,10.95617529880478,NA,NA
46052,Boone County,IN,84.66135458167331,NA,NA
46112,Hendricks County,IN,NA,NA,27.358490566037734
46123,Hendricks County,IN,NA,34.081902245706736,NA
46140,Hancock County,IN,NA,NA,17.92452830188679
46151,Morgan County,IN,64.04382470119522,NA,NA
46158,Morgan County,IN,46.41434262948207,NA,50
46202,Marion County,IN,NA,59.313077939233814,NA
46203,Marion County,IN,6.872509960159362,NA,NA
46219,Marion County,IN,8.864541832669323,NA,NA
46221,Marion County,IN,22.31075697211155,NA,NA
46226,Marion County,IN,NA,12.813738441215325,NA
46228,Marion County,IN,NA,59.18097754293263,NA
46231,Marion County,IN,74.5019920318725,NA,NA
46239,Marion County,IN,46.81274900398406,NA,NA
46260,Marion County,IN,37.54980079681275,NA,NA
46311,Lake County,IN,25.49800796812749,NA,NA
46321,Lake County,IN,NA,41.21532364597093,NA
46323,Lake County,IN,45.81673306772908,14.398943196829592,NA
46350,LaPorte County,IN,6.772908366533864,NA,NA
46356,Lake County,IN,NA,27.080581241743722,NA
46373,Lake County,IN,22.609561752988046,NA,NA
46375,Lake County,IN,25.39840637450199,NA,NA
46394,Lake County,IN,46.91235059760957,NA,NA
46545,St. Joseph County,IN,82.56972111553786,NA,NA
46795,LaGrange County,IN,NA,93.39498018494055,NA
46845,Allen County,IN,NA,37.12021136063408,NA
46901,Howard County,IN,22.410358565737052,NA,NA
47150,Floyd County,IN,NA,28.401585204755612,NA
47201,Bartholomew County,IN,8.665338645418327,NA,NA
47421,Lawrence County,IN,27.290836653386453,NA,NA
47720,Vanderburgh County,IN,NA,49.00924702774108,NA
47834,Clay County,IN,NA,40.95112285336856,NA
47882,Sullivan County,IN,NA,64.99339498018493,NA
47906,Tippecanoe County,IN,NA,76.0898282694848,NA
47932,Fountain County,IN,98.30677290836654,NA,NA
47963,Newton County,IN,98.40637450199203,NA,NA
50022,Cass County,IA,NA,96.16908850726553,NA
50126,Hardin County,IA,NA,NA,92.45283018867924
50158,Marshall County,IA,NA,NA,59.43396226415094
50201,Story County,IA,72.60956175298804,NA,NA
50266,Polk County,IA,NA,NA,88.67924528301887
50315,Polk County,IA,6.374501992031872,NA,NA
50401,Cerro Gordo County,IA,NA,NA,1.4150943396226416
50441,Franklin County,IA,92.03187250996015,NA,NA
50536,Palo Alto County,IA,NA,75.56142668428005,NA
50659,Chickasaw County,IA,96.01593625498009,NA,NA
51023,Sioux County,IA,95.7171314741036,NA,NA
51360,Dickinson County,IA,NA,NA,43.39622641509434
52101,Winneshiek County,IA,NA,85.60105680317041,NA
52245,Johnson County,IA,NA,NA,84.90566037735849
52339,Tama County,IA,96.31474103585657,NA,NA
52501,Wapello County,IA,10.059760956175298,NA,NA
52627,Lee County,IA,NA,36.459709379128135,NA
52641,Henry County,IA,62.05179282868526,NA,NA
52730,Clinton County,IA,93.32669322709162,NA,NA
66044,Douglas County,KS,88.94422310756973,NA,NA
66046,Douglas County,KS,NA,87.31836195508586,NA
66502,Riley County,KS,63.54581673306773,NA,NA
66618,Shawnee County,KS,NA,70.67371202113605,NA
67042,Butler County,KS,73.30677290836654,NA,NA
67846,Finney County,KS,47.01195219123506,NA,NA
67855,Stanton County,KS,NA,97.09379128137384,NA
40165,Bullitt County,KY,NA,13.738441215323647,NA
40175,Hardin County,KY,49.30278884462152,NA,NA
40203,Jefferson County,KY,NA,32.496697490092465,NA
40241,Jefferson County,KY,43.32669322709163,NA,NA
40272,Jefferson County,KY,NA,41.479524438573314,NA
40291,Jefferson County,KY,40.438247011952186,NA,NA
40311,Nicholas County,KY,62.84860557768924,NA,NA
40330,Mercer County,KY,NA,41.743725231175695,NA
40336,Estill County,KY,46.31474103585657,NA,NA
40353,Montgomery County,KY,NA,24.570673712021136,NA
40391,Clark County,KY,NA,10.83223249669749,NA
40475,Madison County,KY,44.721115537848604,NA,NA
40502,Fayette County,KY,NA,42.140026420079266,NA
40503,Fayette County,KY,NA,52.97225891677675,NA
40505,Fayette County,KY,16.43426294820717,NA,NA
40514,Fayette County,KY,97.21115537848605,NA,NA
40741,Laurel County,KY,15.43824701195219,NA,NA
40769,Whitley County,KY,NA,44.64993394980185,NA
40962,Clay County,KY,83.56573705179284,NA,NA
41035,Grant County,KY,64.44223107569721,NA,NA
41139,Greenup County,KY,NA,47.42404227212681,NA
41522,Pike County,KY,63.34661354581673,NA,NA
42003,McCracken County,KY,NA,12.945838837516513,NA
42101,Warren County,KY,4.8804780876494025,NA,NA
42122,Warren County,KY,92.52988047808765,NA,NA
42721,Grayson County,KY,NA,94.84808454425362,NA
70037,Plaquemines Parish,LA,80.0796812749004,NA,NA
70094,Jefferson Parish,LA,35.0597609561753,NA,NA
70113,Orleans Parish,LA,NA,78.20343461030383,NA
70119,Orleans Parish,LA,3.6852589641434266,NA,NA
70124,Orleans Parish,LA,82.66932270916335,NA,NA
70129,Orleans Parish,LA,NA,NA,99.05660377358491
70131,Orleans Parish,LA,36.354581673306775,NA,NA
70301,Lafourche Parish,LA,24.60159362549801,NA,NA
70363,Terrebonne Parish,LA,2.788844621513944,NA,NA
70438,Washington Parish,LA,9.56175298804781,NA,NA
70454,Tangipahoa Parish,LA,6.47410358565737,NA,NA
70458,St. Tammany Parish,LA,NA,3.1704095112285335,NA
70471,St. Tammany Parish,LA,33.764940239043824,NA,NA
70501,Lafayette Parish,LA,NA,19.947159841479525,NA
70517,St. Martin Parish,LA,34.26294820717131,NA,NA
70520,Lafayette Parish,LA,16.03585657370518,NA,NA
70560,Iberia Parish,LA,11.852589641434264,NA,NA
70577,St. Landry Parish,LA,62.54980079681275,NA,NA
70582,St. Martin Parish,LA,NA,33.42140026420079,NA
70583,Lafayette Parish,LA,NA,91.94187582562748,NA
70615,Calcasieu Parish,LA,15.53784860557769,NA,NA
70663,Calcasieu Parish,LA,NA,46.49933949801849,NA
70726,Livingston Parish,LA,NA,NA,20.28301886792453
70788,Iberville Parish,LA,76.19521912350598,NA,NA
70791,East Baton Rouge Parish,LA,NA,97.75429326287978,NA
70808,East Baton Rouge Parish,LA,NA,32.628797886393656,NA
70817,East Baton Rouge Parish,LA,55.17928286852589,NA,NA
71047,Caddo Parish,LA,44.42231075697211,NA,NA
71055,Webster Parish,LA,12.350597609561753,NA,NA
71104,Caddo Parish,LA,NA,55.35006605019815,NA
71107,Caddo Parish,LA,12.450199203187251,NA,NA
71129,Caddo Parish,LA,NA,54.557463672391016,NA
71360,Rapides Parish,LA,49.800796812749006,NA,NA
71446,Vernon Parish,LA,29.58167330677291,NA,NA
03901,York County,ME,55.77689243027888,NA,NA
04011,Cumberland County,ME,78.08764940239044,NA,NA
04062,Cumberland County,ME,93.72509960159363,NA,NA
04084,Cumberland County,ME,59.9601593625498,72.65521796565389,NA
04106,Cumberland County,ME,27.490039840637447,NA,NA
04220,Oxford County,ME,NA,97.35799207397622,NA
04240,Androscoggin County,ME,22.50996015936255,53.36856010568032,NA
04250,Androscoggin County,ME,NA,92.07397622192866,NA
04281,Oxford County,ME,65.13944223107569,NA,NA
04330,Kennebec County,ME,4.382470119521913,98.15059445178336,NA
04401,Penobscot County,ME,NA,1.1889035667107,NA
04412,Penobscot County,ME,89.9402390438247,NA,NA
04457,Penobscot County,ME,NA,NA,80.18867924528303
04841,Knox County,ME,NA,39.63011889035667,NA
04901,Kennebec County,ME,NA,49.27344782034346,NA
04937,Somerset County,ME,48.70517928286853,NA,NA
04950,Somerset County,ME,63.745019920318725,NA,NA
04963,Kennebec County,ME,52.091633466135455,NA,NA
04976,Somerset County,ME,NA,79.6565389696169,NA
20817,Montgomery County,MD,NA,90.88507265521797,NA
20851,Montgomery County,MD,83.36653386454184,NA,NA
20874,Montgomery County,MD,NA,49.80184940554822,NA
20905,Montgomery County,MD,100,NA,72.64150943396226
21093,Baltimore County,MD,NA,NA,7.547169811320755
21117,Baltimore County,MD,22.90836653386454,NA,NA
21122,Anne Arundel County,MD,24.900398406374503,NA,NA
21136,Baltimore County,MD,NA,40.554821664464995,NA
21211,Baltimore city,MD,NA,78.33553500660501,NA
21212,Baltimore city,MD,33.764940239043824,NA,NA
21213,Baltimore city,MD,67.52988047808765,NA,NA
21217,Baltimore city,MD,NA,14.266842800528401,NA
21218,Baltimore city,MD,NA,NA,26.41509433962264
21224,Baltimore city,MD,12.05179282868526,NA,NA
21237,Baltimore County,MD,98.70517928286853,NA,NA
21239,Baltimore city,MD,75.0996015936255,NA,NA
01020,Hampden County,MA,NA,52.04755614266843,NA
01040,Hampden County,MA,8.167330677290837,74.63672391017172,NA
01057,Hampden County,MA,53.98406374501992,NA,NA
01073,Hampshire County,MA,NA,74.50462351387054,NA
01085,Hampden County,MA,42.13147410358566,NA,NA
01109,Hampden County,MA,5.776892430278884,NA,NA
01118,Hampden County,MA,81.77290836653387,NA,NA
01129,Hampden County,MA,59.16334661354582,NA,NA
01235,Berkshire County,MA,98.80478087649402,NA,NA
01240,Berkshire County,MA,NA,90.3566710700132,NA
01247,Berkshire County,MA,NA,8.718626155878468,NA
01267,Berkshire County,MA,NA,59.313077939233814,NA
01301,Franklin County,MA,NA,31.43989431968296,NA
01373,Franklin County,MA,NA,NA,92.9245283018868
01420,Worcester County,MA,0,1.453104359313078,NA
01436,Worcester County,MA,73.50597609561753,NA,NA
01453,Worcester County,MA,50.69721115537848,NA,NA
01462,Worcester County,MA,42.82868525896414,NA,NA
01507,Worcester County,MA,NA,72.25891677675033,NA
01520,Worcester County,MA,87.64940239043824,NA,NA
01550,Worcester County,MA,0.5976095617529881,NA,NA
01570,Worcester County,MA,3.187250996015936,NA,NA
01581,Worcester County,MA,NA,90.4887714663144,79.24528301886792
01609,Worcester County,MA,NA,NA,25.943396226415093
01701,Middlesex County,MA,NA,6.737120211360634,NA
01720,Middlesex County,MA,94.52191235059762,NA,NA
01730,Middlesex County,MA,NA,42.00792602377807,NA
01752,Middlesex County,MA,27.88844621513944,NA,NA
01757,Worcester County,MA,NA,5.284015852047556,NA
01760,Middlesex County,MA,7.768924302788845,NA,NA
01778,Middlesex County,MA,NA,39.49801849405548,NA
01801,Middlesex County,MA,6.47410358565737,NA,NA
01803,Middlesex County,MA,NA,22.192866578599734,34.90566037735849
01821,Middlesex County,MA,48.40637450199203,NA,NA
01824,Middlesex County,MA,7.071713147410359,NA,NA
01826,Middlesex County,MA,46.613545816733065,NA,NA
01841,Essex County,MA,5.378486055776892,NA,NA
01845,Essex County,MA,19.621513944223107,NA,NA
01852,Middlesex County,MA,NA,0.7926023778071334,NA
01864,Middlesex County,MA,NA,27.741083223249667,51.41509433962265
01876,Middlesex County,MA,21.314741035856574,NA,NA
01880,Middlesex County,MA,41.43426294820717,43.85733157199472,NA
01890,Middlesex County,MA,63.44621513944223,NA,NA
01902,Essex County,MA,78.38645418326693,NA,57.07547169811321
01904,Essex County,MA,8.067729083665338,NA,NA
01906,Essex County,MA,1.593625498007968,NA,NA
01915,Essex County,MA,NA,43.72523117569353,NA
01923,Essex County,MA,NA,NA,32.075471698113205
01940,Essex County,MA,52.39043824701195,NA,NA
01945,Essex County,MA,32.96812749003984,NA,NA
01950,Essex County,MA,44.9203187250996,NA,NA
01969,Essex County,MA,78.58565737051792,NA,NA
02019,Norfolk County,MA,NA,NA,36.79245283018868
02030,Norfolk County,MA,85.35856573705179,NA,NA
02035,Norfolk County,MA,NA,86.52575957727873,NA
02038,Norfolk County,MA,NA,68.42800528401585,NA
02062,Norfolk County,MA,NA,NA,16.50943396226415
02090,Norfolk County,MA,NA,55.878467635402906,NA
02114,Suffolk County,MA,12.848605577689243,NA,NA
02115,Suffolk County,MA,38.54581673306773,3.5667107001321003,NA
02116,Suffolk County,MA,11.254980079681275,2.7741083223249667,NA
02118,Suffolk County,MA,NA,NA,4.716981132075472
02119,Suffolk County,MA,4.183266932270916,NA,NA
02122,Suffolk County,MA,NA,76.88243064729194,NA
02124,Suffolk County,MA,0.29880478087649404,NA,NA
02125,Suffolk County,MA,21.91235059760956,NA,NA
02127,Suffolk County,MA,0.697211155378486,7.661822985468956,NA
02128,Suffolk County,MA,2.589641434262948,0.6605019815059445,NA
02129,Suffolk County,MA,89.8406374501992,NA,NA
02130,Suffolk County,MA,NA,27.212681638044916,NA
02131,Suffolk County,MA,0.796812749003984,NA,NA
02132,Suffolk County,MA,NA,NA,25.471698113207548
02135,Suffolk County,MA,2.888446215139442,NA,NA
02136,Suffolk County,MA,NA,NA,29.245283018867923
02141,Middlesex County,MA,21.215139442231077,NA,NA
02144,Middlesex County,MA,NA,95.90488771466315,NA
02149,Middlesex County,MA,NA,7.926023778071334,NA
02151,Suffolk County,MA,8.366533864541832,NA,NA
02152,Suffolk County,MA,8.964143426294822,NA,NA
02155,Middlesex County,MA,5.079681274900398,6.208718626155878,NA
02169,Norfolk County,MA,49.701195219123505,NA,NA
02171,Norfolk County,MA,87.74900398406375,NA,NA
02186,Norfolk County,MA,NA,93.26287978863937,NA
02191,Norfolk County,MA,52.98804780876494,NA,NA
02324,Plymouth County,MA,59.26294820717132,NA,NA
02360,Plymouth County,MA,NA,4.887714663143989,NA
02420,Middlesex County,MA,NA,73.31571994715983,NA
02421,Middlesex County,MA,NA,29.722589167767506,NA
02445,Norfolk County,MA,18.92430278884462,NA,NA
02446,Norfolk County,MA,67.62948207171314,6.340819022457067,NA
02453,Middlesex County,MA,56.17529880478087,NA,NA
02460,Middlesex County,MA,99.60159362549801,NA,NA
02494,Norfolk County,MA,72.90836653386454,NA,NA
02532,Barnstable County,MA,NA,42.800528401585204,NA
02568,Dukes County,MA,NA,33.81770145310436,NA
02649,Barnstable County,MA,NA,21.400264200792602,NA
02703,Bristol County,MA,NA,0.3963011889035667,NA
02719,Bristol County,MA,NA,67.89960369881109,NA
02726,Bristol County,MA,NA,23.11756935270806,NA
02740,Bristol County,MA,NA,0,NA
02771,Bristol County,MA,NA,38.57331571994716,NA
02777,Bristol County,MA,90.13944223107569,NA,NA
02780,Bristol County,MA,36.254980079681275,NA,NA
48009,Oakland County,MI,43.625498007968126,NA,NA
48038,Macomb County,MI,9.362549800796813,NA,NA
48042,Macomb County,MI,60.55776892430279,NA,NA
48060,St. Clair County,MI,2.091633466135458,NA,NA
48066,Macomb County,MI,2.2908366533864544,NA,NA
48067,Oakland County,MI,28.884462151394423,34.61030383091149,NA
48072,Oakland County,MI,43.42629482071713,NA,NA
48079,St. Clair County,MI,53.68525896414342,48.21664464993395,NA
48097,St. Clair County,MI,NA,73.97622192866578,NA
48103,Washtenaw County,MI,NA,NA,2.8301886792452833
48104,Washtenaw County,MI,NA,27.60898282694848,NA
48105,Washtenaw County,MI,NA,12.417437252311757,NA
48117,Monroe County,MI,45.31872509960159,NA,NA
48130,Washtenaw County,MI,66.13545816733067,NA,NA
48145,Monroe County,MI,95.7171314741036,NA,NA
48152,Wayne County,MI,NA,5.680317040951123,NA
48161,Monroe County,MI,23.207171314741036,NA,NA
48169,Livingston County,MI,NA,53.5006605019815,NA
48170,Wayne County,MI,NA,35.402906208718626,NA
48173,Wayne County,MI,49.00398406374502,NA,NA
48178,Oakland County,MI,NA,37.912813738441216,NA
48180,Wayne County,MI,38.047808764940235,NA,NA
48183,Wayne County,MI,27.091633466135455,NA,11.79245283018868
48184,Wayne County,MI,NA,50.06605019815059,NA
48187,Wayne County,MI,7.669322709163347,NA,NA
48192,Wayne County,MI,41.932270916334666,NA,NA
48198,Washtenaw County,MI,1.4940239043824701,NA,NA
48214,Wayne County,MI,NA,19.682959048877148,NA
48217,Wayne County,MI,NA,98.81109643328931,NA
48230,Wayne County,MI,NA,28.797886393659184,NA
48236,Wayne County,MI,24.10358565737052,NA,NA
48237,Oakland County,MI,14.741035856573706,NA,NA
48301,Oakland County,MI,NA,60.898282694848085,NA
48307,Oakland County,MI,13.346613545816732,NA,NA
48309,Oakland County,MI,26.394422310756973,NA,NA
48312,Macomb County,MI,NA,13.34214002642008,NA
48316,Macomb County,MI,32.07171314741036,NA,NA
48317,Macomb County,MI,NA,16.77675033025099,NA
48322,Oakland County,MI,34.36254980079681,7.793923381770146,NA
48323,Oakland County,MI,NA,35.270805812417436,NA
48327,Oakland County,MI,25.099601593625497,NA,NA
48340,Oakland County,MI,NA,27.476882430647294,NA
48360,Oakland County,MI,60.657370517928285,NA,NA
48362,Oakland County,MI,80.37848605577689,NA,NA
48371,Oakland County,MI,29.282868525896415,NA,NA
48382,Oakland County,MI,40.83665338645419,NA,NA
48390,Oakland County,MI,NA,NA,32.54716981132076
48393,Oakland County,MI,NA,NA,71.69811320754717
48422,Sanilac County,MI,NA,83.61955085865259,NA
48457,Genesee County,MI,NA,NA,88.20754716981132
48503,Genesee County,MI,NA,16.512549537648614,NA
48504,Genesee County,MI,13.147410358565736,NA,NA
48532,Genesee County,MI,NA,32.10039630118891,NA
48603,Saginaw County,MI,32.86852589641434,NA,NA
48617,Clare County,MI,60.0597609561753,NA,NA
48622,Clare County,MI,92.92828685258964,NA,NA
48625,Clare County,MI,NA,46.63143989431968,NA
48640,Midland County,MI,57.27091633466136,NA,NA
48642,Midland County,MI,NA,98.28269484808455,NA
48657,Midland County,MI,69.62151394422311,NA,NA
48706,Bay County,MI,NA,0.9247027741083224,NA
48708,Bay County,MI,77.29083665338645,NA,NA
48813,Eaton County,MI,83.16733067729083,NA,NA
48817,Shiawassee County,MI,NA,86.78996036988111,62.264150943396224
48820,Clinton County,MI,NA,38.837516512549534,NA
48823,Ingham County,MI,NA,67.76750330250991,NA
48843,Livingston County,MI,NA,NA,8.49056603773585
48855,Livingston County,MI,61.45418326693227,NA,NA
48867,Shiawassee County,MI,NA,26.68428005284016,31.60377358490566
48910,Ingham County,MI,32.47011952191235,11.624834874504623,NA
48912,Ingham County,MI,44.6215139442231,NA,NA
49002,Kalamazoo County,MI,92.82868525896414,NA,NA
49006,Kalamazoo County,MI,83.46613545816733,NA,NA
49007,Kalamazoo County,MI,31.175298804780876,NA,NA
49009,Kalamazoo County,MI,NA,8.058124174372523,NA
49010,Allegan County,MI,35.55776892430279,NA,NA
49014,Calhoun County,MI,NA,89.03566710700133,NA
49058,Barry County,MI,NA,30.911492734478202,NA
49065,Van Buren County,MI,88.44621513944223,NA,NA
49080,Allegan County,MI,34.8605577689243,NA,NA
49085,Berrien County,MI,NA,34.47820343461031,NA
49087,Kalamazoo County,MI,79.38247011952191,NA,NA
49097,Kalamazoo County,MI,54.28286852589641,60.7661822985469,NA
49107,Berrien County,MI,91.63346613545816,NA,NA
49120,Berrien County,MI,10.458167330677291,NA,NA
49127,Berrien County,MI,68.62549800796812,58.65257595772787,44.81132075471698
49202,Jackson County,MI,68.62549800796812,NA,NA
49230,Jackson County,MI,60.85657370517929,NA,NA
49242,Hillsdale County,MI,38.645418326693225,38.17701453104359,NA
49269,Jackson County,MI,78.88446215139442,NA,NA
49286,Lenawee County,MI,70.61752988047809,NA,NA
49302,Kent County,MI,NA,83.22324966974901,NA
49304,Lake County,MI,NA,81.24174372523117,NA
49319,Kent County,MI,22.111553784860558,NA,NA
49328,Allegan County,MI,96.81274900398407,NA,NA
49404,Ottawa County,MI,NA,83.35535006605019,NA
49428,Ottawa County,MI,44.322709163346616,NA,NA
49437,Muskegon County,MI,NA,81.10964332892999,NA
49442,Muskegon County,MI,2.3904382470119523,NA,NA
49445,Muskegon County,MI,NA,17.17305151915456,NA
49450,Allegan County,MI,96.21513944223108,NA,NA
49460,Ottawa County,MI,84.86055776892431,NA,NA
49504,Kent County,MI,NA,38.70541611624835,NA
49509,Kent County,MI,62.25099601593625,NA,NA
49546,Kent County,MI,NA,55.61426684280053,NA
49635,Benzie County,MI,NA,NA,93.86792452830188
49646,Kalkaska County,MI,45.1195219123506,NA,NA
49655,Osceola County,MI,NA,99.07529722589167,NA
49684,Grand Traverse County,MI,79.7808764940239,NA,NA
49712,Charlevoix County,MI,NA,NA,48.113207547169814
49735,Otsego County,MI,NA,43.989431968295904,NA
49740,Emmet County,MI,81.57370517928287,NA,NA
49770,Emmet County,MI,51.59362549800797,NA,25
49878,Delta County,MI,NA,93.65918097754293,NA
49930,Houghton County,MI,NA,NA,89.15094339622641
49935,Iron County,MI,NA,NA,76.41509433962264
55105,Ramsey County,MN,NA,94.31968295904888,NA
55117,Ramsey County,MN,NA,30.911492734478202,NA
55118,Dakota County,MN,NA,NA,50.47169811320755
55119,Ramsey County,MN,NA,25.23117569352708,NA
55124,Dakota County,MN,30.47808764940239,NA,NA
55303,Anoka County,MN,12.94820717131474,NA,NA
55350,McLeod County,MN,51.992031872509955,NA,NA
55403,Hennepin County,MN,15.936254980079681,NA,NA
55405,Hennepin County,MN,28.784860557768926,66.84280052840158,NA
55419,Hennepin County,MN,37.35059760956175,NA,NA
55425,Hennepin County,MN,93.22709163346613,NA,NA
55439,Hennepin County,MN,NA,NA,77.35849056603774
55443,Hennepin County,MN,67.33067729083665,NA,NA
55446,Hennepin County,MN,NA,NA,68.86792452830188
55720,Carlton County,MN,24.701195219123505,NA,NA
55803,St. Louis County,MN,99.20318725099602,NA,NA
55805,St. Louis County,MN,NA,99.20739762219286,NA
55806,St. Louis County,MN,19.023904382470118,NA,NA
55906,Olmsted County,MN,NA,86.12945838837517,NA
55981,Wabasha County,MN,90.73705179282868,NA,NA
56007,Freeborn County,MN,11.45418326693227,NA,NA
56073,Brown County,MN,46.713147410358566,NA,NA
56097,Faribault County,MN,96.51394422310757,NA,NA
56258,Lyon County,MN,62.45019920318725,NA,NA
56378,Stearns County,MN,84.86055776892431,NA,NA
56379,Benton County,MN,NA,68.29590488771467,NA
56401,Crow Wing County,MN,47.11155378486056,NA,NA
56442,Crow Wing County,MN,NA,85.99735799207397,NA
56537,Otter Tail County,MN,13.247011952191235,NA,NA
56560,Clay County,MN,NA,3.830911492734478,NA
56649,Koochiching County,MN,96.91235059760956,NA,NA
56701,Pennington County,MN,13.844621513944222,NA,NA
56716,Polk County,MN,24.302788844621514,NA,NA
56721,Polk County,MN,NA,55.746367239101716,NA
38655,Lafayette County,MS,59.06374501992032,NA,NA
38666,Panola County,MS,NA,NA,97.16981132075472
38683,Tippah County,MS,58.76494023904383,NA,NA
38834,Alcorn County,MS,77.68924302788844,NA,NA
38852,Tishomingo County,MS,47.50996015936255,NA,NA
39047,Rankin County,MS,NA,63.14398943196829,NA
39191,Copiah County,MS,95.91633466135458,NA,NA
39208,Rankin County,MS,59.76095617529881,NA,NA
39305,Lauderdale County,MS,NA,70.80581241743725,NA
39501,Harrison County,MS,NA,14.134742404227213,NA
39507,Harrison County,MS,NA,26.55217965653897,NA
39560,Harrison County,MS,80.87649402390437,NA,NA
39564,Jackson County,MS,NA,55.35006605019815,NA
63005,St. Louis County,MO,NA,NA,52.83018867924528
63025,St. Louis County,MO,NA,81.90224570673712,NA
63034,St. Louis County,MO,NA,42.668428005284014,NA
63043,St. Louis County,MO,NA,NA,57.54716981132076
63107,St. Louis city,MO,NA,NA,66.50943396226415
63121,St. Louis County,MO,21.713147410358566,NA,NA
63138,St. Louis County,MO,77.58964143426294,NA,NA
63303,St. Charles County,MO,NA,10.171730515191546,NA
63383,Warren County,MO,NA,35.53500660501982,NA
63552,Macon County,MO,68.22709163346613,NA,NA
63660,Washington County,MO,99.800796812749,NA,NA
63775,Perry County,MO,NA,27.212681638044916,NA
64055,Jackson County,MO,66.73306772908366,NA,NA
64063,Jackson County,MO,30.87649402390438,NA,NA
64079,Platte County,MO,80.2788844621514,NA,NA
64080,Cass County,MO,73.80478087649402,NA,NA
64127,Jackson County,MO,18.227091633466134,NA,NA
64151,Platte County,MO,NA,13.606340819022458,NA
64152,Platte County,MO,77.68924302788844,NA,NA
64157,Clay County,MO,26.195219123505975,76.35402906208718,NA
64506,Buchanan County,MO,NA,6.605019815059446,NA
64683,Grundy County,MO,50.199203187250994,NA,NA
64701,Cass County,MO,35.1593625498008,NA,NA
64831,McDonald County,MO,85.1593625498008,NA,NA
64844,Newton County,MO,90.2390438247012,NA,NA
65084,Morgan County,MO,NA,79.7886393659181,NA
65201,Boone County,MO,NA,51.12285336856011,NA
65622,Dallas County,MO,NA,73.57992073976222,NA
65686,Stone County,MO,98.20717131474103,NA,NA
65738,Greene County,MO,NA,NA,64.15094339622641
65810,Greene County,MO,75.199203187251,NA,NA
59501,Hill County,MT,NA,75.82562747688243,NA
59602,Lewis and Clark County,MT,48.90438247011952,NA,NA
59644,Broadwater County,MT,NA,NA,100
59718,Gallatin County,MT,28.087649402390436,NA,NA
59840,Ravalli County,MT,88.74501992031873,NA,NA
68022,Douglas County,NE,62.94820717131474,NA,NA
68046,Sarpy County,NE,84.56175298804781,NA,67.45283018867924
68066,Saunders County,NE,95.4183266932271,NA,NA
68131,Douglas County,NE,NA,80.05284015852048,NA
68601,Platte County,NE,NA,35.006605019815055,NA
89406,Churchill County,NV,NA,77.27873183619552,NA
89429,Lyon County,NV,NA,74.76882430647291,NA
89441,Washoe County,NV,NA,61.42668428005285,NA
89506,Washoe County,NV,NA,24.438573315719946,NA
89801,Elko County,NV,NA,55.878467635402906,NA
03033,Hillsborough County,NH,96.41434262948208,96.82959048877147,NA
03038,Rockingham County,NH,9.262948207171315,NA,NA
03049,Hillsborough County,NH,NA,59.84147952443857,NA
03051,Hillsborough County,NH,75,NA,NA
03054,Hillsborough County,NH,NA,NA,81.13207547169812
03060,Hillsborough County,NH,4.681274900398407,NA,NA
03062,Hillsborough County,NH,NA,29.590488771466315,NA
03079,Rockingham County,NH,NA,14.53104359313078,NA
03102,Hillsborough County,NH,68.82470119521913,NA,NA
03103,Hillsborough County,NH,4.282868525896414,NA,NA
03104,Hillsborough County,NH,NA,11.756935270805812,NA
03110,Hillsborough County,NH,NA,NA,41.0377358490566
03222,Grafton County,NH,96.71314741035857,NA,NA
03229,Merrimack County,NH,NA,74.37252311756936,NA
03446,Cheshire County,NH,NA,73.8441215323646,NA
03743,Sullivan County,NH,NA,74.9009247027741,NA
03755,Grafton County,NH,94.22310756972112,NA,NA
03811,Rockingham County,NH,NA,89.16776750330251,NA
03835,Strafford County,NH,NA,NA,95.28301886792453
03842,Rockingham County,NH,86.45418326693228,NA,NA
03865,Rockingham County,NH,55.47808764940238,NA,NA
03894,Carroll County,NH,NA,70.93791281373845,NA
07052,Essex County,NJ,36.952191235059765,NA,16.9811320754717
07076,Union County,NJ,NA,64.46499339498018,NA
07304,Hudson County,NJ,1.9920318725099602,NA,NA
07450,Bergen County,NJ,67.43027888446214,NA,NA
07675,Bergen County,NJ,55.47808764940238,NA,NA
07712,Monmouth County,NJ,NA,5.5482166446499335,NA
07739,Monmouth County,NJ,NA,68.82430647291942,NA
07740,Monmouth County,NJ,4.780876494023905,NA,NA
07882,Warren County,NJ,NA,72.39101717305152,NA
07974,Union County,NJ,NA,95.112285336856,NA
08033,Camden County,NJ,NA,NA,56.132075471698116
08053,Burlington County,NJ,NA,66.7107001321004,NA
08055,Burlington County,NJ,56.474103585657375,NA,NA
08059,Camden County,NJ,41.53386454183267,NA,NA
08069,Salem County,NJ,10.856573705179283,NA,NA
08096,Gloucester County,NJ,3.48605577689243,NA,NA
08260,Cape May County,NJ,86.15537848605578,NA,NA
08332,Cumberland County,NJ,27.191235059760956,NA,NA
08611,Mercer County,NJ,NA,NA,91.0377358490566
08691,Mercer County,NJ,77.39043824701196,NA,NA
08736,Monmouth County,NJ,73.60557768924303,NA,NA
08759,Ocean County,NJ,NA,NA,0
08820,Middlesex County,NJ,NA,20.607661822985467,NA
08831,Middlesex County,NJ,23.40637450199203,NA,NA
08865,Warren County,NJ,33.96414342629482,NA,NA
08879,Middlesex County,NJ,25.996015936254977,NA,NA
87043,Sandoval County,NM,NA,69.74900924702774,NA
87108,Bernalillo County,NM,20.119521912350596,NA,NA
87110,Bernalillo County,NM,NA,8.850726552179657,NA
87111,Bernalillo County,NM,14.342629482071715,NA,NA
87114,Bernalillo County,NM,84.16334661354583,NA,NA
87120,Bernalillo County,NM,7.171314741035857,NA,NA
87402,San Juan County,NM,NA,NA,98.11320754716981
87544,Los Alamos County,NM,NA,72.91941875825627,NA
87547,,NM,NA,NA,85.84905660377359
88220,Eddy County,NM,59.8605577689243,NA,NA
10002,New York County,NY,NA,33.55350066050198,NA
10009,New York County,NY,46.21513944223107,NA,NA
10010,New York County,NY,NA,NA,83.01886792452831
10011,New York County,NY,NA,NA,13.20754716981132
10018,New York County,NY,NA,70.54161162483487,NA
10023,New York County,NY,NA,38.969616908850725,NA
10024,New York County,NY,45.71713147410358,NA,NA
10025,New York County,NY,NA,10.435931307793924,NA
10027,New York County,NY,16.334661354581673,NA,NA
10029,New York County,NY,3.7848605577689245,58.520475561426686,NA
10031,New York County,NY,NA,93.92338177014531,NA
10032,New York County,NY,NA,NA,24.528301886792452
10033,New York County,NY,NA,15.984147952443859,NA
10035,New York County,NY,17.62948207171315,NA,NA
10305,Richmond County,NY,42.92828685258964,NA,NA
10453,Bronx County,NY,4.581673306772909,NA,NA
10458,Bronx County,NY,25.298804780876495,NA,NA
10465,Bronx County,NY,23.107569721115535,NA,NA
10466,Bronx County,NY,3.087649402390438,NA,NA
10467,Bronx County,NY,0.199203187250996,NA,2.358490566037736
10468,Bronx County,NY,7.569721115537849,NA,NA
10469,Bronx County,NY,NA,57.72787318361955,NA
10472,Bronx County,NY,23.306772908366533,NA,NA
10580,Westchester County,NY,NA,92.99867899603699,NA
10708,Westchester County,NY,NA,70.14531043593131,NA
10805,Westchester County,NY,91.83266932270917,NA,NA
10990,Orange County,NY,NA,30.647291941875825,NA
11040,Nassau County,NY,71.61354581673307,NA,NA
11101,Queens County,NY,NA,54.29326287978864,NA
11102,Queens County,NY,NA,67.23910171730515,NA
11201,Kings County,NY,NA,82.69484808454426,NA
11208,Kings County,NY,NA,24.9669749009247,NA
11209,Kings County,NY,NA,NA,61.32075471698113
11210,Kings County,NY,34.66135458167331,92.33817701453104,NA
11212,Kings County,NY,0.49800796812749004,NA,NA
11216,Kings County,NY,NA,NA,18.867924528301888
11219,Kings County,NY,NA,NA,40.09433962264151
11229,Kings County,NY,88.54581673306772,16.380449141347427,NA
11230,Kings County,NY,NA,8.982826948480845,NA
11233,Kings County,NY,NA,87.45046235138706,NA
11375,Queens County,NY,39.342629482071715,NA,NA
11385,Queens County,NY,7.270916334661355,NA,NA
11417,Queens County,NY,41.235059760956176,NA,NA
11421,Queens County,NY,NA,71.86261558784676,NA
11561,Nassau County,NY,61.852589641434264,NA,NA
11572,Nassau County,NY,NA,76.75033025099076,NA
11720,Suffolk County,NY,59.561752988047814,NA,NA
11793,Nassau County,NY,97.60956175298804,NA,NA
12010,Montgomery County,NY,3.8844621513944224,NA,NA
12015,Greene County,NY,99.30278884462152,NA,NA
12020,Saratoga County,NY,67.82868525896414,NA,NA
12051,Greene County,NY,NA,98.94319682959049,NA
12122,Schoharie County,NY,79.08366533864542,NA,NA
12138,Rensselaer County,NY,NA,92.47027741083224,NA
12158,Albany County,NY,85.4581673306773,NA,NA
12189,Albany County,NY,32.37051792828685,NA,NA
12303,Schenectady County,NY,NA,33.68560105680317,NA
12306,Schenectady County,NY,68.12749003984064,57.199471598414796,NA
12414,Greene County,NY,NA,29.45838837516512,NA
12522,Dutchess County,NY,NA,91.6776750330251,NA
12771,Orange County,NY,57.171314741035864,NA,NA
12804,Warren County,NY,NA,9.64332892998679,NA
12839,Washington County,NY,NA,39.233817701453106,NA
12901,Clinton County,NY,50.896414342629484,NA,NA
12918,Clinton County,NY,93.42629482071713,NA,NA
12920,Franklin County,NY,84.66135458167331,NA,NA
12946,Essex County,NY,NA,47.95244385733157,NA
12958,Clinton County,NY,94.42231075697211,NA,NA
12972,Clinton County,NY,47.70916334661355,NA,NA
12981,Clinton County,NY,99.5019920318725,NA,NA
12992,Clinton County,NY,48.10756972111554,NA,NA
13021,Cayuga County,NY,27.98804780876494,51.651254953764855,NA
13045,Cortland County,NY,2.689243027888446,NA,NA
13078,Onondaga County,NY,48.007968127490045,NA,NA
13104,Onondaga County,NY,43.625498007968126,NA,NA
13126,Oswego County,NY,NA,5.9445178335535,NA
13165,Seneca County,NY,18.52589641434263,NA,NA
13203,Onondaga County,NY,57.86852589641435,NA,NA
13348,Otsego County,NY,88.24701195219123,NA,NA
13357,Herkimer County,NY,57.071713147410364,43.59313077939234,NA
13367,Lewis County,NY,NA,NA,64.62264150943396
13403,Oneida County,NY,76.59362549800797,NA,NA
13408,Madison County,NY,94.7211155378486,NA,NA
13411,Chenango County,NY,82.07171314741036,NA,NA
13421,Madison County,NY,16.533864541832667,NA,NA
13424,Oneida County,NY,91.63346613545816,NA,NA
13440,Oneida County,NY,NA,4.491413474240423,78.77358490566037
13491,Herkimer County,NY,73.70517928286853,NA,NA
13624,Jefferson County,NY,NA,96.96169088507266,NA
13662,St. Lawrence County,NY,24.003984063745023,NA,NA
13669,St. Lawrence County,NY,69.82071713147411,NA,NA
13734,Tioga County,NY,84.4621513944223,96.30118890356671,NA
13754,Broome County,NY,NA,87.71466314398944,NA
13760,Broome County,NY,5.278884462151394,NA,NA
13778,Chenango County,NY,NA,40.158520475561424,NA
13790,Broome County,NY,6.97211155378486,NA,NA
13820,Otsego County,NY,NA,26.948480845442536,NA
13850,Broome County,NY,NA,3.302509907529723,NA
13862,Broome County,NY,NA,78.99603698811096,NA
13901,Broome County,NY,NA,3.4346103038309117,NA
13905,Broome County,NY,0.8964143426294822,NA,NA
14009,Wyoming County,NY,NA,97.49009247027742,NA
14020,Genesee County,NY,NA,11.492734478203435,NA
14094,Niagara County,NY,1.1952191235059761,NA,NA
14098,Orleans County,NY,90.43824701195219,NA,NA
14141,Erie County,NY,NA,73.05151915455747,NA
14206,Erie County,NY,9.46215139442231,NA,NA
14210,Erie County,NY,50,NA,NA
14212,Erie County,NY,32.669322709163346,NA,NA
14216,Erie County,NY,NA,NA,75.94339622641509
14220,Erie County,NY,NA,20.47556142668428,NA
14221,Erie County,NY,NA,2.1136063408190227,NA
14224,Erie County,NY,4.083665338645418,48.48084544253633,NA
14225,Erie County,NY,NA,13.474240422721268,NA
14414,Livingston County,NY,52.788844621513945,NA,NA
14423,Livingston County,NY,NA,96.69749009247028,NA
14424,Ontario County,NY,25.89641434262948,50.85865257595773,NA
14432,Ontario County,NY,76.89243027888446,NA,NA
14433,Wayne County,NY,49.50199203187251,64.46499339498018,80.66037735849056
14450,Monroe County,NY,1.693227091633466,0.5284015852047557,NA
14468,Monroe County,NY,65.5378486055777,NA,NA
14482,Genesee County,NY,67.23107569721115,NA,NA
14489,Wayne County,NY,25.199203187250994,NA,NA
14514,Monroe County,NY,56.573705179282875,NA,NA
14527,Yates County,NY,50.99601593625498,21.268163804491415,NA
14534,Monroe County,NY,NA,1.321003963011889,NA
14548,Ontario County,NY,54.28286852589641,NA,NA
14609,Monroe County,NY,3.5856573705179287,NA,NA
14610,Monroe County,NY,NA,NA,73.58490566037736
14612,Monroe County,NY,1.294820717131474,1.0568031704095113,NA
14613,Monroe County,NY,8.266932270916334,NA,NA
14616,Monroe County,NY,2.1912350597609564,NA,NA
14617,Monroe County,NY,NA,NA,27.830188679245282
14620,Monroe County,NY,NA,58.388375165125495,NA
14621,Monroe County,NY,0.398406374501992,NA,NA
14626,Monroe County,NY,NA,50.19815059445178,NA
14701,Chautauqua County,NY,1.8924302788844622,1.5852047556142668,NA
14718,Chautauqua County,NY,97.11155378486056,NA,NA
14727,Allegany County,NY,62.35059760956175,NA,NA
14801,Steuben County,NY,64.2430278884462,NA,NA
14812,Schuyler County,NY,73.40637450199203,NA,NA
14821,Steuben County,NY,95.1195219123506,NA,NA
14830,Steuben County,NY,47.908366533864545,NA,NA
14845,Chemung County,NY,71.21513944223108,NA,NA
14850,Tompkins County,NY,16.633466135458168,NA,NA
14871,Chemung County,NY,80.57768924302789,NA,NA
14873,Steuben County,NY,90.33864541832669,NA,NA
14882,Tompkins County,NY,72.41035856573706,NA,NA
14886,Tompkins County,NY,NA,92.7344782034346,NA
14895,Allegany County,NY,20.816733067729086,33.02509907529723,NA
14901,Chemung County,NY,NA,45.310435931307794,NA
14904,Chemung County,NY,19.223107569721115,32.89299867899604,NA
14905,Chemung County,NY,69.7211155378486,NA,NA
27006,Davie County,NC,NA,75.16512549537649,NA
27020,Yadkin County,NC,59.36254980079681,NA,NA
27023,Forsyth County,NC,NA,83.48745046235139,NA
27030,Surry County,NC,19.8207171314741,NA,NA
27040,Forsyth County,NC,58.266932270916335,NA,NA
27103,Forsyth County,NC,NA,48.74504623513871,NA
27104,Forsyth County,NC,65.73705179282868,NA,NA
27107,Forsyth County,NC,2.9880478087649402,65.38969616908851,NA
27127,Forsyth County,NC,10.557768924302788,NA,6.132075471698113
27410,Guilford County,NC,NA,NA,7.0754716981132075
27455,Guilford County,NC,NA,NA,70.75471698113208
27501,Harnett County,NC,44.123505976095615,NA,NA
27502,Wake County,NC,82.270916334661365,NA,NA
27509,Granville County,NC,NA,NA,74.05660377358491
27510,Orange County,NC,50.59760956175299,NA,NA
27526,Wake County,NC,18.824701195219124,NA,NA
27597,Wake County,NC,NA,73.18361955085865,NA
27603,Wake County,NC,15.239043824701195,NA,NA
27604,Wake County,NC,25.796812749003983,NA,NA
27609,Wake County,NC,28.286852589641438,NA,22.169811320754718
27708,Durham County,NC,92.729083665338635,NA,NA
27970,Washington County,NC,99.7011952191235,NA,NA
28025,Cabarrus County,NC,NA,12.021136063408191,NA
28078,Mecklenburg County,NC,NA,25.495376486129455,NA
28079,Union County,NC,38.44621513944223,NA,37.735849056603776
28090,Cleveland County,NC,NA,84.67635402906208,NA
28139,Rutherford County,NC,58.16733067729084,NA,NA
28164,Gaston County,NC,NA,82.69484808454426,NA
28170,Anson County,NC,47.211155378486055,NA,NA
28173,Union County,NC,30.57768924302789,NA,NA
28205,Mecklenburg County,NC,14.143426294820719,NA,NA
28214,Mecklenburg County,NC,NA,40.422721268163805,NA
28303,Cumberland County,NC,69.9203187250996,NA,NA
28311,Cumberland County,NC,17.231075697211157,NA,NA
28328,Sampson County,NC,NA,17.701453104359313,NA
28372,Robeson County,NC,86.95219123505976,NA,NA
28412,New Hanover County,NC,NA,66.97490092470278,NA
28428,New Hanover County,NC,75.69721115537848,NA,NA
28429,New Hanover County,NC,70.7171314741036,NA,NA
28540,Onslow County,NC,17.729083665338646,NA,NA
28645,Caldwell County,NC,NA,0.26420079260237783,NA
28704,Buncombe County,NC,NA,61.16248348745046,NA
28713,Swain County,NC,NA,49.405548216644654,NA
28714,Yancey County,NC,NA,36.19550858652576,NA
28717,Jackson County,NC,97.90836653386454,NA,NA
28731,Henderson County,NC,NA,NA,41.9811320754717
28741,Macon County,NC,NA,90.22457067371202,NA
28752,McDowell County,NC,11.653386454183266,NA,NA
28792,Henderson County,NC,NA,NA,0.9433962264150944
28804,Buncombe County,NC,85.95617529880478,NA,NA
28906,Cherokee County,NC,40.33864541832669,22.060766182298547,NA
58103,Cass County,ND,4.9800796812749,NA,NA
58104,Cass County,ND,23.804780876494025,34.87450462351387,NA
58301,Ramsey County,ND,NA,NA,58.9622641509434
58501,Burleigh County,ND,NA,22.324966974900924,NA
58503,Burleigh County,ND,75.2988047808765,52.3117569352708,NA
43004,Franklin County,OH,61.15537848605578,NA,NA
43021,Delaware County,OH,98.60557768924303,NA,NA
43050,Knox County,OH,5.179282868525896,NA,NA
43056,Licking County,OH,58.56573705179283,NA,NA
43110,Franklin County,OH,NA,9.379128137384413,NA
43113,Pickaway County,OH,NA,53.10435931307794,NA
43138,Hocking County,OH,NA,22.721268163804492,NA
43147,Fairfield County,OH,16.633466135458168,20.871862615587848,NA
43209,Franklin County,OH,NA,NA,38.67924528301887
43219,Franklin County,OH,11.155378486055776,NA,NA
43230,Franklin County,OH,11.752988047808765,NA,NA
43338,Morrow County,OH,NA,49.405548216644654,NA
43512,Defiance County,OH,NA,4.359313077939234,14.622641509433961
43543,Williams County,OH,76.59362549800797,NA,NA
43604,Lucas County,OH,33.46613545816733,NA,NA
43611,Lucas County,OH,9.860557768924302,NA,NA
43612,Lucas County,OH,NA,41.611624834874505,NA
43613,Lucas County,OH,NA,49.14134742404227,NA
43616,Lucas County,OH,NA,75.95772787318363,NA
43619,Wood County,OH,55.37848605577689,NA,NA
43844,Coshocton County,OH,87.05179282868527,NA,NA
44004,Ashtabula County,OH,1.394422310756972,NA,NA
44011,Lorain County,OH,NA,NA,9.90566037735849
44035,Lorain County,OH,0.099601593625498,NA,NA
44039,Lorain County,OH,NA,2.3778071334214,NA
44044,Lorain County,OH,NA,NA,75
44047,Ashtabula County,OH,NA,43.196829590488775,NA
44050,Lorain County,OH,NA,91.28137384412153,NA
44053,Lorain County,OH,53.884462151394416,NA,NA
44060,Lake County,OH,78.48605577689243,7.26552179656539,NA
44067,Summit County,OH,NA,43.46103038309115,NA
44077,Lake County,OH,NA,16.90885072655218,NA
44087,Summit County,OH,72.80876494023904,NA,NA
44090,Lorain County,OH,NA,63.80449141347424,NA
44102,Cuyahoga County,OH,2.49003984063745,NA,NA
44107,Cuyahoga County,OH,1.0956175298804782,NA,NA
44109,Cuyahoga County,OH,3.386454183266932,NA,NA
44117,Cuyahoga County,OH,NA,37.780713342140025,NA
44120,Cuyahoga County,OH,NA,2.509907529722589,NA
44130,Cuyahoga County,OH,3.286852589641434,NA,NA
44131,Cuyahoga County,OH,90.0398406374502,NA,NA
44134,Cuyahoga County,OH,43.52589641434263,1.8494055482166447,NA
44135,Cuyahoga County,OH,NA,7.5297225891677675,NA
44136,Cuyahoga County,OH,NA,NA,13.679245283018867
44202,Portage County,OH,NA,15.852047556142669,NA
44203,Summit County,OH,4.482071713147411,NA,NA
44212,Medina County,OH,27.689243027888445,NA,NA
44216,Summit County,OH,51.29482071713147,NA,NA
44221,Summit County,OH,10.358565737051793,NA,NA
44224,Summit County,OH,46.11553784860558,NA,NA
44231,Portage County,OH,NA,NA,69.81132075471697
44256,Medina County,OH,14.641434262948207,NA,14.150943396226415
44278,Summit County,OH,NA,35.93130779392338,NA
44280,Medina County,OH,NA,63.408190224570674,NA
44310,Summit County,OH,NA,17.437252311756936,NA
44313,Summit County,OH,NA,80.71334214002643,NA
44319,Summit County,OH,NA,18.361955085865258,NA
44425,Trumbull County,OH,24.203187250996017,NA,NA
44444,Trumbull County,OH,43.92430278884462,NA,NA
44446,Trumbull County,OH,NA,58.65257595772787,NA
44473,Trumbull County,OH,NA,88.90356671070013,NA
44484,Trumbull County,OH,20.219123505976093,NA,NA
44646,Stark County,OH,75.89641434262948,NA,NA
44691,Wayne County,OH,42.23107569721115,4.7556142668428,NA
44720,Stark County,OH,21.01593625498008,71.59841479524438,NA
44730,Stark County,OH,NA,83.88375165125495,NA
44824,Erie County,OH,NA,79.39233817701454,NA
44833,Crawford County,OH,68.02788844621513,NA,NA
44870,Erie County,OH,NA,16.248348745046233,NA
44906,Richland County,OH,NA,NA,55.188679245283026
45014,Butler County,OH,10.657370517928287,NA,NA
45030,Hamilton County,OH,NA,90.09247027741083,NA
45069,Butler County,OH,15.637450199203187,NA,NA
45103,Clermont County,OH,18.426294820717132,NA,NA
45120,Clermont County,OH,90.5378486055777,NA,NA
45207,Hamilton County,OH,NA,75.69352708058125,NA
45239,Hamilton County,OH,64.8406374501992,NA,NA
45309,Montgomery County,OH,NA,48.87714663143989,NA
45318,Miami County,OH,82.76892430278885,NA,NA
45324,Greene County,OH,NA,42.27212681638045,NA
45505,Clark County,OH,23.007968127490038,NA,NA
45601,Ross County,OH,11.055776892430279,2.642007926023778,NA
45628,Ross County,OH,NA,44.38573315719947,NA
45629,Scioto County,OH,93.62549800796812,NA,NA
45634,Vinton County,OH,NA,98.41479524438573,NA
45661,Pike County,OH,NA,83.75165125495376,NA
45690,Pike County,OH,NA,69.0885072655218,NA
45692,Jackson County,OH,NA,78.86393659180978,NA
45750,Washington County,OH,0.9960159362549801,0.13210039630118892,NA
45764,Athens County,OH,NA,59.04887714663144,NA
45769,Meigs County,OH,83.06772908366534,NA,NA
45840,Hancock County,OH,NA,2.2457067371202113,NA
45879,Paulding County,OH,66.33466135458167,NA,NA
73003,Oklahoma County,OK,54.482071713147405,NA,NA
73034,Oklahoma County,OK,NA,67.10700132100396,NA
73036,Canadian County,OK,60.45816733067729,NA,NA
73072,Cleveland County,OK,19.721115537848604,NA,NA
73086,Murray County,OK,NA,NA,93.39622641509435
73089,Grady County,OK,93.12749003984064,NA,NA
73096,Custer County,OK,NA,66.05019815059445,NA
73106,Oklahoma County,OK,59.561752988047814,NA,NA
73717,Woods County,OK,89.7410358565737,NA,NA
74019,Rogers County,OK,NA,71.334214002642,NA
74523,Pushmataha County,OK,98.00796812749005,NA,NA
74851,Pottawatomie County,OK,82.86852589641434,NA,NA
74872,Garvin County,OK,89.14342629482071,NA,NA
74873,Pottawatomie County,OK,NA,53.6327608982827,NA
97007,Washington County,OR,NA,NA,34.43396226415094
97024,Multnomah County,OR,54.581673306772906,NA,NA
97031,Hood River County,OR,NA,59.709379128137385,NA
97045,Clackamas County,OR,36.55378486055777,51.915455746367236,NA
97048,Columbia County,OR,NA,NA,74.05660377358491
97068,Clackamas County,OR,NA,NA,47.64150943396226
97070,Clackamas County,OR,NA,48.61294583883752,NA
97078,Washington County,OR,57.37051792828686,46.895640686922064,NA
97114,Yamhill County,OR,90.93625498007968,NA,NA
97116,Washington County,OR,NA,68.56010568031704,NA
97124,Washington County,OR,18.625498007968126,NA,NA
97132,Yamhill County,OR,30.776892430278885,NA,NA
97141,Tillamook County,OR,53.38645418326693,NA,NA
97146,Clatsop County,OR,NA,81.63804491413474,NA
97203,Multnomah County,OR,60.2589641434263,NA,NA
97206,Multnomah County,OR,9.661354581673306,18.890356671070013,NA
97211,Multnomah County,OR,35.85657370517929,43.064729194187585,NA
97220,Multnomah County,OR,70.2191235059761,23.645970937912814,NA
97225,Washington County,OR,61.05577689243028,NA,NA
97229,Washington County,OR,76.99203187250995,28.66578599735799,NA
97230,Multnomah County,OR,70.4183266932271,NA,NA
97233,Multnomah County,OR,54.980079681274894,NA,NA
97239,Multnomah County,OR,NA,96.4332892998679,NA
97304,Polk County,OR,NA,45.04623513870541,NA
97321,Linn County,OR,19.322709163346612,65.25759577278731,NA
97355,Linn County,OR,NA,23.91017173051519,NA
97365,Lincoln County,OR,NA,62.08718626155878,NA
97378,Yamhill County,OR,NA,NA,94.33962264150944
97386,Linn County,OR,39.54183266932271,NA,NA
97404,Lane County,OR,NA,39.76221928665786,NA
97415,Curry County,OR,NA,66.31439894319684,NA
97470,Douglas County,OR,NA,50.330250990752965,NA
97471,Douglas County,OR,40.0398406374502,NA,NA
97504,Jackson County,OR,78.18725099601593,NA,NA
97601,Klamath County,OR,NA,10.303830911492733,37.264150943396224
97603,Klamath County,OR,81.17529880478087,NA,NA
97756,Deschutes County,OR,70.81673306772909,NA,NA
97814,Baker County,OR,34.36254980079681,NA,NA
15009,Beaver County,PA,NA,30.250990752972257,NA
15021,Washington County,PA,78.98406374501991,NA,NA
15061,Beaver County,PA,51.89243027888446,NA,NA
15102,Allegheny County,PA,53.286852589641434,NA,NA
15122,Allegheny County,PA,42.330677290836654,45.04623513870541,NA
15136,Allegheny County,PA,73.90438247011953,NA,NA
15146,Allegheny County,PA,38.24701195219124,NA,NA
15205,Allegheny County,PA,38.147410358565736,NA,NA
15212,Allegheny County,PA,NA,30.911492734478202,NA
15213,Allegheny County,PA,NA,60.36988110964333,NA
15241,Allegheny County,PA,63.84462151394422,NA,NA
15370,Greene County,PA,NA,45.83883751651255,NA
15401,Fayette County,PA,5.876494023904383,NA,NA
15461,Fayette County,PA,86.55378486055777,NA,NA
15522,Bedford County,PA,53.38645418326693,NA,NA
15650,Westmoreland County,PA,NA,NA,10.377358490566039
15801,Clearfield County,PA,24.40239043824701,NA,NA
15825,Jefferson County,PA,NA,36.459709379128135,NA
15904,Cambria County,PA,NA,80.18494055482167,NA
15906,Cambria County,PA,47.60956175298805,NA,NA
15909,Cambria County,PA,NA,87.84676354029062,NA
16001,Butler County,PA,NA,1.7173051519154559,NA
16002,Butler County,PA,NA,72.78731836195509,NA
16057,Butler County,PA,55.47808764940238,NA,NA
16117,Lawrence County,PA,NA,65.5217965653897,NA
16146,Mercer County,PA,NA,33.15719947159842,NA
16214,Clarion County,PA,62.94820717131474,NA,NA
16335,Crawford County,PA,7.968127490039841,NA,NA
16403,Crawford County,PA,NA,91.14927344782035,NA
16508,Erie County,PA,NA,50.72655217965654,NA
16652,Huntingdon County,PA,31.274900398406373,NA,NA
16735,McKean County,PA,62.54980079681275,NA,NA
16823,Centre County,PA,14.840637450199203,NA,NA
16830,Clearfield County,PA,20.418326693227094,NA,NA
17013,Cumberland County,PA,NA,75.29722589167768,NA
17020,Perry County,PA,NA,58.91677675033024,NA
17033,Dauphin County,PA,NA,45.97093791281374,NA
17036,Dauphin County,PA,61.952191235059765,52.84015852047557,NA
17057,Dauphin County,PA,13.047808764940239,NA,NA
17061,Dauphin County,PA,NA,80.84544253632761,NA
17073,Lebanon County,PA,NA,97.6221928665786,NA
17110,Dauphin County,PA,NA,21.136063408190225,NA
17111,Dauphin County,PA,NA,65.12549537648613,NA
17201,Franklin County,PA,29.382470119521916,NA,NA
17241,Cumberland County,PA,88.64541832669323,NA,NA
17268,Franklin County,PA,39.9402390438247,NA,NA
17307,Adams County,PA,88.34661354581674,NA,NA
17315,York County,PA,NA,12.549537648612946,NA
17325,Adams County,PA,48.20717131474104,NA,NA
17331,York County,PA,NA,24.702774108322327,NA
17366,York County,PA,74.10358565737052,NA,NA
17402,York County,PA,42.430278884462155,62.48348745046235,NA
17404,York County,PA,72.01195219123507,NA,NA
17408,York County,PA,73.00796812749005,NA,NA
17512,Lancaster County,PA,NA,33.949801849405546,NA
17522,Lancaster County,PA,NA,52.57595772787318,NA
17547,Lancaster County,PA,72.41035856573706,NA,NA
17557,Lancaster County,PA,94.62151394422311,NA,NA
17584,Lancaster County,PA,90.83665338645417,62.87978863936592,NA
17601,Lancaster County,PA,81.37450199203188,NA,NA
17701,Lycoming County,PA,NA,NA,6.60377358490566
17740,Lycoming County,PA,42.72908366533865,NA,NA
17745,Clinton County,PA,NA,84.28005284015853,NA
17756,Lycoming County,PA,79.8804780876494,NA,NA
17777,Northumberland County,PA,99.10358565737052,NA,NA
17815,Columbia County,PA,NA,NA,15.09433962264151
17821,Montour County,PA,63.645418326693225,NA,NA
17834,Northumberland County,PA,NA,NA,72.16981132075472
17842,Snyder County,PA,84.26294820717132,NA,NA
17921,Schuylkill County,PA,92.33067729083665,NA,NA
17963,Schuylkill County,PA,NA,95.3764861294584,NA
18014,Northampton County,PA,34.76095617529881,28.13738441215324,NA
18015,Northampton County,PA,6.274900398406374,NA,NA
18036,Lehigh County,PA,56.87250996015937,NA,NA
18042,Northampton County,PA,NA,4.227212681638045,NA
18103,Lehigh County,PA,NA,5.416116248348745,NA
18104,Lehigh County,PA,9.9601593625498,NA,NA
18109,Lehigh County,PA,17.828685258964143,NA,NA
18201,Luzerne County,PA,NA,NA,60.84905660377359
18224,Luzerne County,PA,91.03585657370517,NA,NA
18232,Carbon County,PA,95.2191235059761,NA,NA
18249,Luzerne County,PA,88.04780876494024,NA,NA
18421,Susquehanna County,PA,82.47011952191235,NA,NA
18444,Lackawanna County,PA,49.20318725099602,NA,NA
18504,Lackawanna County,PA,23.40637450199203,NA,NA
18508,Lackawanna County,PA,NA,NA,45.28301886792453
18509,Lackawanna County,PA,NA,100,NA
18510,Lackawanna County,PA,54.7808764940239,NA,NA
18603,Columbia County,PA,NA,93.79128137384413,NA
18621,Luzerne County,PA,92.43027888446214,NA,NA
18640,Luzerne County,PA,NA,NA,19.81132075471698
18641,Luzerne County,PA,87.84860557768924,NA,NA
18651,Luzerne County,PA,56.77290836653387,NA,NA
18702,Luzerne County,PA,5.47808764940239,4.095112285336857,NA
18704,Luzerne County,PA,71.51394422310757,NA,NA
18706,Luzerne County,PA,30.378486055776893,NA,NA
18801,Susquehanna County,PA,NA,77.01453104359312,NA
18901,Bucks County,PA,37.05179282868526,NA,NA
18944,Bucks County,PA,NA,NA,40.56603773584906
19007,Bucks County,PA,NA,52.179656538969624,NA
19015,Delaware County,PA,29.08366533864542,NA,NA
19020,Bucks County,PA,6.075697211155378,8.45442536327609,NA
19027,Montgomery County,PA,35.2589641434263,NA,NA
19038,Montgomery County,PA,28.18725099601594,NA,NA
19057,Bucks County,PA,NA,54.95376486129459,NA
19061,Delaware County,PA,NA,30.779392338177015,NA
19063,Delaware County,PA,14.940239043824702,NA,NA
19064,Delaware County,PA,NA,36.98811096433289,NA
19067,Bucks County,PA,13.545816733067728,7.133421400264201,NA
19082,Delaware County,PA,29.681274900398407,NA,NA
19083,Delaware County,PA,NA,11.360634081902246,NA
19096,Montgomery County,PA,NA,31.704095112285337,NA
19103,Philadelphia County,PA,NA,18.626155878467635,50.943396226415096
19115,Philadelphia County,PA,42.52988047808765,14.663143989431967,NA
19144,Philadelphia County,PA,55.27888446215139,NA,NA
19145,Philadelphia County,PA,74.20318725099602,NA,NA
19148,Philadelphia County,PA,6.175298804780876,NA,NA
19153,Philadelphia County,PA,NA,65.78599735799207,NA
19312,Chester County,PA,NA,39.101717305151915,NA
19320,Chester County,PA,NA,10.568031704095112,NA
19335,Chester County,PA,65.63745019920319,NA,NA
19382,Chester County,PA,10.756972111553784,NA,NA
19401,Montgomery County,PA,NA,17.569352708058126,NA
19403,Montgomery County,PA,NA,NA,5.660377358490567
19406,Montgomery County,PA,37.64940239043825,NA,NA
19464,Montgomery County,PA,3.9840637450199203,NA,NA
19506,Berks County,PA,91.13545816733067,NA,NA
19507,Berks County,PA,97.01195219123507,NA,NA
19518,Berks County,PA,39.7410358565737,NA,NA
19540,Berks County,PA,NA,46.23513870541612,NA
19604,Berks County,PA,86.75298804780877,NA,NA
19606,Berks County,PA,48.80478087649402,NA,NA
02806,Bristol County,RI,60.3585657370518,98.67899603698811,NA
02809,Bristol County,RI,NA,89.56406869220608,NA
02864,Providence County,RI,18.02788844621514,NA,NA
02871,Newport County,RI,NA,61.030383091149275,NA
02879,Washington County,RI,NA,27.873183619550858,NA
02882,Washington County,RI,NA,69.88110964332893,NA
02893,Kent County,RI,NA,18.229854689564068,77.83018867924528
02895,Providence County,RI,8.565737051792828,NA,NA
02915,Providence County,RI,NA,71.07001321003963,NA
02916,Providence County,RI,86.25498007968127,NA,NA
02917,Providence County,RI,NA,64.86129458388376,NA
29118,Orangeburg County,SC,NA,60.10568031704096,NA
29323,Spartanburg County,SC,NA,39.89431968295905,NA
29379,Union County,SC,25.697211155378486,NA,NA
29403,Charleston County,SC,35.3585657370518,NA,NA
29405,Charleston County,SC,NA,62.219286657859975,NA
29418,Charleston County,SC,30.1792828685259,NA,NA
29445,Berkeley County,SC,17.131474103585656,NA,NA
29455,Charleston County,SC,43.82470119521912,NA,NA
29466,Charleston County,SC,NA,NA,33.9622641509434
29577,Horry County,SC,52.689243027888445,89.69616908850726,NA
29615,Greenville County,SC,97.31075697211156,NA,NA
29627,Anderson County,SC,50,NA,NA
29653,Greenwood County,SC,NA,NA,87.26415094339622
29692,Laurens County,SC,81.97211155378487,NA,NA
29702,Cherokee County,SC,64.5418326693227,NA,NA
29801,Aiken County,SC,31.97211155378486,NA,NA
29803,Aiken County,SC,NA,8.58652575957728,NA
29842,Aiken County,SC,NA,NA,97.64150943396226
29926,Beaufort County,SC,NA,85.07265521796566,NA
57042,Lake County,SD,NA,37.25231175693527,NA
57110,Minnehaha County,SD,NA,21.532364597093792,NA
57501,Hughes County,SD,NA,76.221928665786,NA
57701,Pennington County,SD,NA,NA,65.09433962264151
37072,Davidson County,TN,23.904382470119522,NA,NA
37075,Sumner County,TN,11.952191235059761,6.07661822985469,NA
37087,Wilson County,TN,NA,19.418758256274767,NA
37172,Robertson County,TN,11.553784860557768,NA,NA
37174,Williamson County,TN,39.14342629482071,60.634081902245704,NA
37209,Davidson County,TN,NA,71.99471598414794,NA
37221,Davidson County,TN,NA,21.003963011889034,NA
37312,Bradley County,TN,34.561752988047814,39.365918097754296,NA
37343,Hamilton County,TN,15.737051792828685,NA,NA
37385,Monroe County,TN,66.63346613545816,NA,NA
37421,Hamilton County,TN,NA,22.457067371202115,NA
37604,Washington County,TN,13.94422310756972,NA,NA
37659,Washington County,TN,28.386454183266935,NA,NA
37777,Blount County,TN,NA,94.0554821664465,NA
37801,Blount County,TN,NA,37.912813738441216,NA
37804,Blount County,TN,20.617529880478088,15.323645970937912,NA
37807,Union County,TN,58.964143426294825,NA,NA
37830,Anderson County,TN,16.83266932270916,NA,84.43396226415094
38018,Shelby County,TN,76.09561752988047,NA,NA
38060,Fayette County,TN,81.07569721115537,NA,NA
38363,Decatur County,TN,NA,93.52708058124173,NA
38401,Maury County,TN,NA,6.869220607661823,NA
38478,Giles County,TN,NA,50.330250990752965,NA
38506,Putnam County,TN,NA,45.574636723910174,NA
38572,Cumberland County,TN,NA,46.76354029062087,NA
75001,Dallas County,TX,79.38247011952191,NA,NA
75021,Grayson County,TX,75.4980079681275,NA,NA
75044,Dallas County,TX,NA,22.5891677675033,NA
75071,Collin County,TX,51.79282868525896,NA,NA
75082,Collin County,TX,NA,86.26155878467635,NA
75115,Dallas County,TX,NA,NA,21.22641509433962
75134,Dallas County,TX,NA,61.9550858652576,NA
75206,Dallas County,TX,NA,NA,52.358490566037744
75217,Dallas County,TX,26.89243027888446,NA,NA
75227,Dallas County,TX,66.83266932270917,NA,NA
75238,Dallas County,TX,NA,54.161162483487445,NA
75243,Dallas County,TX,9.760956175298805,NA,NA
75254,Dallas County,TX,NA,62.615587846763546,NA
75402,Hunt County,TX,64.34262948207171,NA,NA
75551,Cass County,TX,NA,85.46895640686922,NA
75703,Smith County,TX,NA,3.963011889035667,NA
75783,Wood County,TX,NA,69.48480845442536,NA
75803,Anderson County,TX,NA,39.89431968295905,NA
75951,Jasper County,TX,42.03187250996016,NA,NA
76012,Tarrant County,TX,38.645418326693225,NA,NA
76015,Tarrant County,TX,66.53386454183267,NA,NA
76017,Tarrant County,TX,NA,23.513870541611624,NA
76028,Johnson County,TX,NA,NA,12.264150943396226
76033,Johnson County,TX,28.585657370517932,NA,NA
76049,Hood County,TX,NA,82.03434610303832,NA
76065,Ellis County,TX,32.07171314741036,NA,NA
76114,Tarrant County,TX,NA,92.60237780713342,NA
76119,Tarrant County,TX,5.577689243027888,47.29194187582563,NA
76164,Tarrant County,TX,NA,98.01849405548217,NA
76310,Wichita County,TX,NA,84.4121532364597,NA
76502,Bell County,TX,NA,36.459709379128135,NA
76513,Bell County,TX,NA,22.98546895640687,NA
76520,Milam County,TX,58.366533864541836,NA,NA
76528,Coryell County,TX,NA,78.07133421400265,NA
76539,Lampasas County,TX,NA,NA,71.22641509433963
76542,Bell County,TX,NA,73.71202113606341,NA
76548,Bell County,TX,NA,13.738441215323647,NA
76549,Bell County,TX,16.135458167330675,NA,NA
76571,Bell County,TX,NA,95.64068692206077,NA
76710,McLennan County,TX,NA,76.61822985468957,NA
76712,McLennan County,TX,34.06374501992032,NA,NA
77024,Harris County,TX,52.191235059760956,NA,NA
77025,Harris County,TX,NA,57.72787318361955,NA
77038,Harris County,TX,67.03187250996015,NA,NA
77042,Harris County,TX,NA,56.93527080581242,NA
77043,Harris County,TX,69.32270916334662,NA,NA
77070,Harris County,TX,37.84860557768924,NA,NA
77080,Harris County,TX,NA,NA,76.88679245283019
77089,Harris County,TX,NA,NA,82.54716981132076
77327,Liberty County,TX,83.86454183266933,NA,NA
77351,Polk County,TX,NA,17.96565389696169,NA
77377,Harris County,TX,NA,43.196829590488775,NA
77381,Montgomery County,TX,NA,NA,42.924528301886795
77429,Harris County,TX,32.27091633466135,NA,NA
77433,Harris County,TX,8.764940239043826,NA,NA
77449,Harris County,TX,NA,20.211360634081903,NA
77510,Galveston County,TX,NA,85.7331571994716,NA
77511,Brazoria County,TX,NA,NA,16.037735849056602
77536,Harris County,TX,30.278884462151396,NA,NA
77539,Galveston County,TX,14.442231075697212,NA,NA
77541,Brazoria County,TX,64.7410358565737,NA,NA
77546,Galveston County,TX,NA,10.039630118890356,NA
77571,Harris County,TX,20.0199203187251,NA,NA
77578,Brazoria County,TX,56.07569721115537,NA,99.52830188679245
77583,Brazoria County,TX,NA,79.52443857331572,NA
77619,Jefferson County,TX,60.756972111553786,NA,NA
77627,Jefferson County,TX,60.0597609561753,NA,NA
77642,Jefferson County,TX,21.115537848605577,NA,NA
77802,Brazos County,TX,NA,NA,9.433962264150944
77840,Brazos County,TX,36.65338645418327,NA,NA
77968,Victoria County,TX,94.9203187250996,NA,NA
78040,Webb County,TX,33.167330677290835,NA,NA
78041,Webb County,TX,NA,NA,23.11320754716981
78043,Webb County,TX,61.254980079681275,NA,NA
78052,Atascosa County,TX,89.44223107569721,NA,NA
78216,Bexar County,TX,NA,84.01585204755614,NA
78223,Bexar County,TX,43.02788844621514,NA,NA
78237,Bexar County,TX,NA,73.44782034346103,NA
78244,Bexar County,TX,NA,65.65389696169089,NA
78250,Bexar County,TX,62.15139442231076,NA,NA
78589,Hidalgo County,TX,31.573705179282868,NA,NA
78617,Travis County,TX,80.77689243027888,NA,NA
78626,Williamson County,TX,48.60557768924303,NA,NA
78633,Williamson County,TX,NA,NA,3.7735849056603774
78665,Williamson County,TX,76.49402390438247,NA,NA
78681,Williamson County,TX,NA,25.09907529722589,NA
78701,Travis County,TX,NA,85.33685601056803,NA
78840,Val Verde County,TX,NA,14.663143989431967,NA
79412,Lubbock County,TX,NA,78.5997357992074,NA
79414,Lubbock County,TX,64.64143426294821,NA,NA
79706,Midland County,TX,NA,53.10435931307794,NA
79782,Martin County,TX,95.5179282868526,NA,NA
79904,El Paso County,TX,NA,47.15984147952444,NA
79912,El Paso County,TX,18.326693227091635,NA,NA
84036,Summit County,UT,NA,96.03698811096433,NA
84041,Davis County,UT,28.68525896414343,NA,NA
84043,Utah County,UT,NA,56.14266842800528,NA
84047,Salt Lake County,UT,NA,NA,95.75471698113208
84065,Salt Lake County,UT,58.864541832669325,NA,NA
84067,Weber County,UT,89.2430278884462,NA,NA
84081,Salt Lake County,UT,23.705179282868528,NA,NA
84084,Salt Lake County,UT,37.15139442231076,NA,NA
84087,Davis County,UT,NA,88.37516512549539,NA
84088,Salt Lake County,UT,NA,41.87582562747688,NA
84092,Salt Lake County,UT,55.87649402390438,NA,NA
84096,Salt Lake County,UT,19.12350597609562,NA,NA
84103,Salt Lake County,UT,NA,NA,28.77358490566038
84111,Salt Lake County,UT,62.74900398406375,NA,NA
84116,Salt Lake County,UT,NA,56.803170409511225,NA
84118,Salt Lake County,UT,12.749003984063744,NA,NA
84120,Salt Lake County,UT,NA,16.6446499339498,NA
84123,Salt Lake County,UT,15.139442231075698,NA,NA
84128,Salt Lake County,UT,31.07569721115538,NA,NA
84129,,UT,21.812749003984063,NA,NA
84414,Weber County,UT,61.55378486055777,NA,NA
84720,Iron County,UT,72.31075697211156,NA,NA
84737,Washington County,UT,71.11553784860558,NA,NA
05091,Windsor County,VT,NA,88.77146631439894,NA
05401,Chittenden County,VT,40.93625498007968,NA,NA
05408,Chittenden County,VT,85.85657370517929,NA,NA
05446,Chittenden County,VT,83.26693227091634,34.34610303830912,NA
05452,Chittenden County,VT,49.40239043824701,NA,NA
05478,Franklin County,VT,NA,71.20211360634082,NA
05641,Washington County,VT,55.079681274900395,NA,NA
05855,Orleans County,VT,NA,97.88639365918098,NA
22153,Fairfax County,VA,NA,44.517833553500665,NA
22207,Arlington County,VA,NA,87.18626155878468,NA
22209,Arlington County,VA,NA,91.01717305151915,NA
22310,Fairfax County,VA,NA,53.89696169088507,NA
22406,Stafford County,VA,NA,64.33289299867899,NA
22408,Spotsylvania County,VA,NA,46.3672391017173,NA
22485,King George County,VA,NA,81.37384412153237,NA
22701,Culpeper County,VA,17.928286852589643,NA,NA
22903,Charlottesville city,VA,20.51792828685259,NA,30.660377358490564
22920,Nelson County,VA,99.40239043824701,NA,NA
23061,Gloucester County,VA,NA,NA,73.11320754716981
23220,Richmond city,VA,NA,87.0541611624835,NA
23223,Henrico County,VA,NA,10.700132100396301,NA
23228,Henrico County,VA,41.832669322709165,NA,NA
23229,Henrico County,VA,56.97211155378486,NA,NA
23231,Henrico County,VA,16.235059760956176,NA,NA
23325,Chesapeake city,VA,NA,51.51915455746368,NA
23504,Norfolk city,VA,50.49800796812749,NA,NA
23669,Hampton city,VA,NA,NA,8.018867924528301
24012,Roanoke city,VA,65.43824701195219,NA,NA
24018,Roanoke County,VA,NA,NA,8.962264150943396
24019,Roanoke County,VA,79.2828685258964,NA,NA
24055,Henry County,VA,52.88844621513944,NA,NA
24065,Franklin County,VA,NA,NA,81.60377358490565
24073,Montgomery County,VA,NA,69.61690885072656,NA
24134,Giles County,VA,90.63745019920319,NA,NA
24201,Bristol city,VA,35.85657370517929,NA,NA
24211,Washington County,VA,69.42231075697211,NA,NA
24401,Staunton city,VA,NA,NA,28.30188679245283
24517,Campbell County,VA,NA,75.42932628797885,NA
24522,Appomattox County,VA,NA,95.2443857331572,NA
98002,King County,WA,NA,28.005284015852048,NA
98004,King County,WA,NA,56.27476882430648,NA
98008,King County,WA,NA,56.671070013210034,NA
98026,Snohomish County,WA,26.99203187250996,NA,42.45283018867924
98030,King County,WA,17.43027888446215,NA,NA
98032,King County,WA,34.9601593625498,NA,NA
98038,King County,WA,NA,29.06208718626156,NA
98043,Snohomish County,WA,NA,68.95640686922061,NA
98052,King County,WA,40.1394422310757,NA,NA
98058,King County,WA,24.50199203187251,NA,NA
98092,King County,WA,98.90438247011953,NA,NA
98109,King County,WA,49.9003984063745,NA,NA
98118,King County,WA,97.41035856573706,NA,NA
98119,King County,WA,94.82071713147411,NA,NA
98122,King County,WA,80.67729083665338,NA,NA
98133,King County,WA,20.717131474103585,62.74768824306472,NA
98136,King County,WA,NA,NA,82.0754716981132
98144,King County,WA,21.41434262948207,NA,NA
98178,King County,WA,85.0597609561753,91.41347424042272,NA
98199,King County,WA,72.21115537848605,NA,NA
98225,Whatcom County,WA,NA,35.53500660501982,NA
98229,Whatcom County,WA,83.96414342629483,NA,NA
98248,Whatcom County,WA,NA,NA,51.886792452830186
98250,San Juan County,WA,NA,NA,96.69811320754717
98270,Snohomish County,WA,13.645418326693227,NA,NA
98273,Skagit County,WA,NA,NA,33.490566037735846
98282,Island County,WA,NA,31.968295904887718,NA
98292,Snohomish County,WA,NA,30.38309114927345,NA
98294,Snohomish County,WA,80.17928286852589,NA,NA
98321,Pierce County,WA,NA,57.33157199471598,NA
98328,Pierce County,WA,NA,70.14531043593131,NA
98331,Clallam County,WA,NA,NA,90.56603773584906
98362,Clallam County,WA,NA,7.397622192866579,NA
98366,Kitsap County,WA,17.03187250996016,NA,NA
98367,Kitsap County,WA,NA,84.94055482166446,NA
98371,Pierce County,WA,NA,90.75297225891677,NA
98502,Thurston County,WA,52.29083665338645,NA,NA
98577,Pacific County,WA,76.29482071713147,NA,NA
98584,Mason County,WA,26.095617529880478,16.116248348745046,NA
98607,Clark County,WA,82.96812749003985,NA,NA
98620,Klickitat County,WA,NA,54.82166446499339,NA
98632,Cowlitz County,WA,NA,4.623513870541611,NA
98642,Clark County,WA,85.95617529880478,NA,NA
98661,Clark County,WA,65.83665338645417,NA,NA
98672,Klickitat County,WA,NA,82.1664464993395,NA
98683,Clark County,WA,NA,80.44914134742405,NA
98801,Chelan County,WA,87.45019920318725,NA,44.339622641509436
98802,Douglas County,WA,77.09163346613546,87.97886393659181,18.39622641509434
98816,Chelan County,WA,NA,84.80845442536328,NA
98837,Grant County,WA,NA,24.30647291941876,NA
98922,Kittitas County,WA,NA,91.8097754293263,NA
98926,Kittitas County,WA,69.02390438247012,NA,NA
99208,Spokane County,WA,30.976095617529882,NA,NA
99224,Spokane County,WA,NA,62.351387054161165,NA
99337,Benton County,WA,NA,7.001321003963012,NA
99338,Benton County,WA,73.20717131474103,NA,NA
99347,Garfield County,WA,NA,95.77278731836195,NA
99352,Benton County,WA,NA,NA,62.735849056603776
20018,District of Columbia,DC,NA,20.343461030383093,NA
25071,Kanawha County,WV,46.513944223107565,NA,NA
25276,Roane County,WV,NA,57.46367239101717,NA
25443,Jefferson County,WV,81.27490039840637,NA,NA
25541,Cabell County,WV,75.79681274900398,NA,NA
25670,Mingo County,WV,87.35059760956176,NA,NA
25813,Raleigh County,WV,89.64143426294821,NA,NA
25880,Raleigh County,WV,66.03585657370517,NA,NA
26062,Hancock County,WV,NA,20.079260237780712,NA
26105,Wood County,WV,86.35458167330677,NA,NA
26175,Tyler County,WV,93.52589641434263,NA,NA
26416,Barbour County,WV,NA,32.23249669749009,NA
26541,Monongalia County,WV,79.5816733067729,NA,NA
26547,Preston County,WV,95.3187250996016,NA,NA
26726,Mineral County,WV,33.56573705179283,NA,NA
53012,Ozaukee County,WI,68.92430278884463,NA,NA
53014,Calumet County,WI,79.9800796812749,NA,NA
53022,Washington County,WI,54.6812749003984,78.73183619550859,46.69811320754717
53029,Waukesha County,WI,92.23107569721115,NA,NA
53073,Sheboygan County,WI,NA,63.540290620871865,NA
53129,Milwaukee County,WI,61.65338645418327,NA,NA
53142,Kenosha County,WI,7.470119521912351,NA,NA
53144,Kenosha County,WI,12.151394422310757,NA,NA
53147,Walworth County,WI,36.15537848605578,NA,NA
53172,Milwaukee County,WI,77.19123505976096,NA,NA
53202,Milwaukee County,WI,NA,36.327608982826945,NA
53204,Milwaukee County,WI,NA,NA,59.905660377358494
53208,Milwaukee County,WI,NA,NA,47.16981132075472
53211,Milwaukee County,WI,NA,48.084544253632764,NA
53213,Milwaukee County,WI,NA,NA,68.39622641509435
53216,Milwaukee County,WI,19.322709163346612,NA,NA
53219,Milwaukee County,WI,12.649402390438247,NA,NA
53227,Milwaukee County,WI,NA,82.43064729194187,NA
53228,Milwaukee County,WI,89.5418326693227,NA,NA
53406,Racine County,WI,10.159362549800797,NA,NA
53511,Rock County,WI,NA,5.019815059445178,NA
53523,Dane County,WI,NA,69.35270805812418,65.56603773584906
53527,Dane County,WI,87.54980079681275,NA,NA
53528,Dane County,WI,NA,89.43196829590488,NA
53532,Dane County,WI,91.33466135458167,NA,NA
53538,Jefferson County,WI,NA,28.401585204755612,NA
53546,Rock County,WI,12.549800796812749,NA,NA
53555,Columbia County,WI,NA,90.62087186261559,NA
53597,Dane County,WI,80.97609561752988,NA,NA
53705,Dane County,WI,44.52191235059761,66.44649933949802,NA
53719,Dane County,WI,70.1195219123506,98.54689564068693,NA
53965,Sauk County,WI,NA,83.09114927344781,NA
54002,St. Croix County,WI,89.34262948207171,NA,NA
54016,St. Croix County,WI,37.25099601593625,NA,NA
54235,Door County,WI,NA,19.28665785997358,NA
54401,Marathon County,WI,NA,54.557463672391016,NA
54452,Lincoln County,WI,NA,89.2998678996037,NA
54494,Wood County,WI,23.605577689243027,NA,NA
54555,Price County,WI,NA,NA,70.28301886792453
54603,La Crosse County,WI,NA,NA,15.566037735849056
54646,Juneau County,WI,NA,NA,98.58490566037736
54880,Douglas County,WI,NA,2.906208718626156,1.8867924528301887
54891,Bayfield County,WI,NA,NA,90.09433962264151
54901,Winnebago County,WI,NA,94.18758256274768,NA
54923,Green Lake County,WI,NA,NA,89.62264150943396
54961,Waupaca County,WI,NA,37.25231175693527,NA
82604,Natrona County,WY,69.12350597609563,NA,NA
