ZipCode,county,state,Youth,Adult,Retirement,Geriatric
35007,Shelby County,AL,NA,53.99568034557235,NA,NA
35020,Jefferson County,AL,16.969696969696972,14.362850971922247,NA,NA
35043,Shelby County,AL,NA,NA,NA,97.82293178519593
35051,Shelby County,AL,NA,NA,82.91203235591507,NA
35077,Cullman County,AL,NA,61.55507559395248,NA,NA
35211,Jefferson County,AL,NA,NA,NA,38.31640058055152
35223,Jefferson County,AL,89.6969696969697,NA,NA,NA
35226,Jefferson County,AL,NA,NA,18.6046511627907,NA
35601,Morgan County,AL,NA,13.930885529157667,NA,NA
35611,Limestone County,AL,NA,NA,21.638018200202225,NA
35620,Limestone County,AL,NA,NA,79.57532861476238,NA
35622,Morgan County,AL,NA,81.53347732181425,NA,NA
35650,Lawrence County,AL,NA,58.207343412527,NA,NA
35661,Colbert County,AL,NA,66.63066954643628,NA,NA
35757,Madison County,AL,NA,NA,NA,89.25979680696662
35802,Madison County,AL,NA,NA,NA,25.979680696661827
35901,Etowah County,AL,NA,NA,33.67037411526795,NA
35957,Marshall County,AL,NA,49.13606911447084,NA,NA
35976,Marshall County,AL,NA,NA,33.16481294236603,NA
36092,Elmore County,AL,NA,48.272138228941685,NA,NA
36093,Elmore County,AL,NA,NA,82.20424671385238,NA
36106,Montgomery County,AL,NA,NA,75.12639029322547,NA
36265,Calhoun County,AL,NA,NA,NA,69.37590711175616
36322,Dale County,AL,NA,NA,NA,93.90420899854863
36352,Houston County,AL,NA,88.66090712742981,NA,NA
36532,Baldwin County,AL,NA,NA,NA,27.431059506531202
36587,Mobile County,AL,NA,NA,89.38321536905966,NA
36695,Mobile County,AL,NA,NA,62.1840242669363,NA
36701,Dallas County,AL,NA,NA,27.704752275025278,NA
99507,Anchorage Municipality,AK,NA,NA,47.52275025278059,67.34397677793905
99709,Fairbanks North Star Borough,AK,NA,NA,50.758341759352874,NA
85018,Maricopa County,AZ,NA,81.20950323974083,NA,NA
85021,Maricopa County,AZ,NA,12.419006479481641,NA,NA
85022,Maricopa County,AZ,NA,NA,NA,52.83018867924528
85023,Maricopa County,AZ,31.515151515151512,NA,NA,NA
85032,Maricopa County,AZ,NA,15.334773218142548,22.548028311425682,NA
85048,Maricopa County,AZ,NA,52.80777537796977,NA,NA
85050,Maricopa County,AZ,NA,NA,NA,68.94049346879537
85053,Maricopa County,AZ,NA,48.92008639308855,NA,NA
85086,Maricopa County,AZ,NA,71.81425485961122,NA,NA
85120,Pinal County,AZ,NA,NA,NA,32.94629898403483
85122,Pinal County,AZ,NA,87.36501079913607,NA,NA
85128,Pinal County,AZ,NA,71.70626349892008,NA,NA
85131,Pinal County,AZ,NA,NA,90.29322548028311,NA
85142,Maricopa County,AZ,NA,92.11663066954644,NA,NA
85205,Maricopa County,AZ,NA,NA,22.24469160768453,NA
85208,Maricopa County,AZ,NA,NA,37.00707785642063,29.172714078374458
85250,Maricopa County,AZ,NA,NA,NA,63.7155297532656
85262,Maricopa County,AZ,NA,NA,NA,85.63134978229317
85297,Maricopa County,AZ,NA,NA,80.48533872598584,NA
85298,Maricopa County,AZ,NA,70.62634989200865,NA,NA
85301,Maricopa County,AZ,NA,24.08207343412527,NA,NA
85308,Maricopa County,AZ,NA,NA,14.054600606673407,NA
85345,Maricopa County,AZ,NA,13.390928725701945,NA,NA
85351,Maricopa County,AZ,NA,NA,NA,0.7256894049346879
85364,Yuma County,AZ,NA,4.211663066954643,NA,NA
85374,Maricopa County,AZ,NA,NA,NA,8.853410740203193
85641,Pima County,AZ,NA,60.259179265658744,NA,NA
85648,Santa Cruz County,AZ,NA,NA,NA,90.85631349782292
85705,Pima County,AZ,NA,54.1036717062635,NA,NA
85706,Pima County,AZ,NA,17.062634989200866,NA,NA
85712,Pima County,AZ,NA,NA,43.47826086956522,NA
85718,Pima County,AZ,NA,NA,16.177957532861477,NA
85730,Pima County,AZ,NA,NA,84.6309403437816,NA
85742,Pima County,AZ,NA,NA,46.916076845298285,NA
85745,Pima County,AZ,NA,26.02591792656587,NA,NA
85746,Pima County,AZ,NA,13.174946004319654,NA,NA
85748,Pima County,AZ,NA,NA,67.44186046511628,NA
85937,Navajo County,AZ,NA,83.90928725701944,NA,NA
86004,Coconino County,AZ,4.242424242424243,7.667386609071274,NA,NA
86334,Yavapai County,AZ,NA,96.97624190064795,NA,NA
86351,Yavapai County,AZ,NA,NA,75.53083923154702,82.87373004354136
86401,Mohave County,AZ,NA,10.475161987041037,NA,NA
86409,Mohave County,AZ,NA,NA,NA,26.56023222060958
86426,Mohave County,AZ,NA,NA,50.15166835187057,NA
86441,Mohave County,AZ,NA,98.38012958963283,NA,NA
71603,Jefferson County,AR,NA,NA,NA,28.44702467343977
71635,Ashley County,AR,NA,NA,NA,74.31059506531204
71832,Sevier County,AR,NA,NA,76.13751263902932,NA
71854,Miller County,AR,NA,NA,NA,36.284470246734394
72015,Saline County,AR,NA,NA,30.940343781597573,NA
72143,White County,AR,NA,38.01295896328294,NA,NA
72176,Lonoke County,AR,NA,88.98488120950324,NA,NA
72601,Boone County,AR,NA,NA,29.01921132457027,NA
72715,Benton County,AR,NA,NA,NA,25.39912917271408
72744,Washington County,AR,NA,NA,NA,97.677793904209
72761,Benton County,AR,NA,75.05399568034558,NA,NA
72901,Sebastian County,AR,NA,NA,NA,94.92017416545718
72904,Sebastian County,AR,NA,NA,NA,63.7155297532656
72947,Crawford County,AR,NA,NA,NA,94.48476052249637
90015,Los Angeles County,CA,NA,83.26133909287256,NA,79.10014513788099
90024,Los Angeles County,CA,NA,NA,52.578361981799794,9.724238026124818
90025,Los Angeles County,CA,NA,NA,33.367037411526795,NA
90026,Los Angeles County,CA,NA,NA,37.2093023255814,NA
90034,Los Angeles County,CA,NA,74.19006479481641,NA,NA
90035,Los Angeles County,CA,NA,NA,35.085945399393324,29.31785195936139
90036,Los Angeles County,CA,NA,NA,43.882709807886755,NA
90063,Los Angeles County,CA,NA,NA,42.2649140546006,NA
90066,Los Angeles County,CA,NA,47.19222462203024,NA,NA
90212,Los Angeles County,CA,NA,NA,95.95551061678464,NA
90230,Los Angeles County,CA,NA,77.96976241900649,NA,NA
90272,Los Angeles County,CA,NA,NA,NA,31.494920174165458
90274,Los Angeles County,CA,NA,NA,57.330637007077854,NA
90275,Los Angeles County,CA,NA,NA,70.17189079878665,NA
90301,Los Angeles County,CA,NA,NA,NA,64.87663280116111
90404,Los Angeles County,CA,NA,NA,54.095045500505556,NA
90405,Los Angeles County,CA,NA,NA,80.788675429727,NA
90638,Los Angeles County,CA,NA,NA,NA,31.204644412191584
90712,Los Angeles County,CA,NA,NA,46.71385237613751,NA
91105,Los Angeles County,CA,NA,NA,61.67846309403438,NA
91214,Los Angeles County,CA,NA,NA,NA,51.23367198838898
91320,Ventura County,CA,46.06060606060606,NA,NA,NA
91325,Los Angeles County,CA,NA,NA,NA,59.50653120464441
91335,Los Angeles County,CA,NA,NA,NA,14.513788098693759
91361,Ventura County,CA,NA,NA,59.150657229524775,NA
91381,Los Angeles County,CA,NA,NA,NA,93.03338171262699
91387,Los Angeles County,CA,NA,NA,38.92821031344793,NA
91402,Los Angeles County,CA,NA,28.077753779697623,NA,NA
91403,Los Angeles County,CA,NA,NA,59.35288169868554,NA
91701,San Bernardino County,CA,NA,NA,NA,54.862119013062404
91706,Los Angeles County,CA,NA,NA,31.547017189079877,NA
91732,Los Angeles County,CA,NA,NA,NA,33.671988388969524
91740,Los Angeles County,CA,NA,NA,NA,65.31204644412192
91762,San Bernardino County,CA,NA,NA,NA,56.45863570391872
91767,Los Angeles County,CA,NA,NA,48.02831142568251,NA
91775,Los Angeles County,CA,NA,NA,76.64307381193125,NA
91901,San Diego County,CA,NA,NA,NA,69.08563134978229
91911,San Diego County,CA,NA,24.838012958963283,15.267947421638016,NA
91945,San Diego County,CA,NA,NA,66.32962588473205,NA
92011,San Diego County,CA,NA,NA,NA,60.81277213352685
92020,San Diego County,CA,NA,NA,NA,36.139332365747464
92069,San Diego County,CA,NA,NA,50.859453993933265,NA
92101,San Diego County,CA,NA,15.010799136069114,NA,NA
92105,San Diego County,CA,NA,18.3585313174946,28.311425682507586,NA
92109,San Diego County,CA,80.60606060606061,NA,NA,NA
92117,San Diego County,CA,NA,NA,51.2639029322548,NA
92173,San Diego County,CA,NA,86.50107991360692,NA,NA
92203,Riverside County,CA,NA,NA,15.470171890798786,NA
92211,Riverside County,CA,NA,NA,37.108190091001006,NA
92252,San Bernardino County,CA,NA,NA,93.32659251769464,NA
92262,Riverside County,CA,NA,NA,NA,47.314949201741655
92270,Riverside County,CA,NA,NA,NA,25.25399129172714
92308,San Bernardino County,CA,27.27272727272727,NA,NA,NA
92315,San Bernardino County,CA,NA,97.94816414686825,NA,NA
92345,San Bernardino County,CA,NA,10.799136069114471,12.841253791708795,NA
92346,San Bernardino County,CA,NA,27.645788336933048,NA,NA
92404,San Bernardino County,CA,NA,18.466522678185747,NA,NA
92408,San Bernardino County,CA,NA,NA,98.78665318503539,NA
92411,San Bernardino County,CA,NA,NA,NA,84.1799709724238
92503,Riverside County,CA,NA,NA,NA,42.96081277213353
92587,Riverside County,CA,NA,NA,83.01314459049544,NA
92596,Riverside County,CA,NA,NA,97.37108190091,NA
92602,Orange County,CA,NA,NA,98.48331648129424,NA
92612,Orange County,CA,NA,NA,NA,55.878084179970976
92614,Orange County,CA,NA,NA,58.948432760364,NA
92626,Orange County,CA,NA,NA,42.46713852376138,NA
92637,Orange County,CA,NA,NA,29.726996966632964,NA
92647,Orange County,CA,NA,NA,NA,19.013062409288825
92651,Orange County,CA,NA,NA,44.28715874620829,NA
92692,Orange County,CA,NA,41.576673866090715,NA,NA
92801,Orange County,CA,NA,NA,30.33367037411527,NA
92833,Orange County,CA,NA,53.131749460043196,NA,NA
93010,Ventura County,CA,NA,34.23326133909288,NA,NA
93012,Ventura County,CA,NA,NA,NA,82.43831640058055
93023,Ventura County,CA,NA,NA,NA,59.21625544267054
93030,Ventura County,CA,NA,NA,NA,32.801161103047896
93036,Ventura County,CA,NA,32.289416846652266,NA,NA
93101,Santa Barbara County,CA,NA,NA,95.04550050556118,NA
93265,Tulare County,CA,NA,NA,NA,96.66182873730044
93268,Kern County,CA,NA,NA,85.13650151668351,NA
93286,Tulare County,CA,NA,92.22462203023758,NA,NA
93308,Kern County,CA,NA,NA,27.502527805864506,NA
93309,Kern County,CA,NA,79.15766738660908,NA,NA
93455,Santa Barbara County,CA,NA,33.15334773218142,NA,NA
93637,Madera County,CA,NA,NA,54.903943377148636,NA
93704,Fresno County,CA,NA,88.87688984881208,NA,NA
93726,Fresno County,CA,NA,57.45140388768899,NA,NA
93727,Fresno County,CA,NA,14.902807775377969,NA,NA
93901,Monterey County,CA,NA,NA,68.25075834175935,NA
93906,Monterey County,CA,20.606060606060606,NA,NA,47.750362844702465
93923,Monterey County,CA,NA,NA,54.903943377148636,NA
93953,Monterey County,CA,NA,NA,84.93427704752276,NA
94002,San Mateo County,CA,NA,95.03239740820734,NA,NA
94041,Santa Clara County,CA,NA,NA,88.06875631951466,NA
94062,San Mateo County,CA,NA,NA,NA,51.523947750362844
94080,San Mateo County,CA,NA,NA,NA,3.6284470246734397
94087,Santa Clara County,CA,NA,78.7257019438445,47.118301314459046,NA
94111,San Francisco County,CA,NA,NA,NA,90.56603773584906
94112,San Francisco County,CA,NA,NA,51.162790697674424,27.28592162554427
94122,San Francisco County,CA,NA,NA,87.8665318503539,NA
94123,San Francisco County,CA,NA,NA,NA,61.393323657474596
94132,San Francisco County,CA,NA,NA,NA,42.380261248185775
94505,Contra Costa County,CA,NA,NA,99.79777553083923,NA
94555,Alameda County,CA,NA,92.548596112311,NA,NA
94580,Alameda County,CA,NA,NA,61.172901921132464,NA
94582,Contra Costa County,CA,NA,NA,NA,86.066763425254
94587,Alameda County,CA,NA,NA,NA,17.561683599419446
94605,Alameda County,CA,NA,NA,19.817997977755308,NA
94702,Alameda County,CA,NA,64.57883369330453,NA,NA
94806,Contra Costa County,CA,NA,NA,18.806875631951467,NA
94954,Sonoma County,CA,NA,NA,32.25480283114257,NA
95023,San Benito County,CA,NA,NA,32.153690596562186,NA
95065,Santa Cruz County,CA,NA,NA,94.94438827098078,NA
95111,Santa Clara County,CA,NA,NA,NA,42.670537010159656
95117,Santa Clara County,CA,NA,NA,67.84630940343781,NA
95122,Santa Clara County,CA,NA,NA,NA,77.79390420899854
95123,Santa Clara County,CA,NA,NA,24.064711830131447,NA
95132,Santa Clara County,CA,NA,NA,62.1840242669363,NA
95135,Santa Clara County,CA,NA,NA,NA,54.426705370101594
95207,San Joaquin County,CA,NA,57.34341252699784,NA,NA
95252,Calaveras County,CA,86.66666666666667,NA,NA,NA
95350,Stanislaus County,CA,NA,NA,11.830131445904954,NA
95403,Sonoma County,CA,NA,53.02375809935205,NA,NA
95404,Sonoma County,CA,NA,NA,24.67138523761375,NA
95405,Sonoma County,CA,NA,NA,NA,74.31059506531204
95409,Sonoma County,CA,NA,NA,NA,52.1044992743106
95531,Del Norte County,CA,NA,NA,47.72497472194136,NA
95616,Yolo County,CA,NA,NA,NA,45.13788098693759
95631,Placer County,CA,NA,NA,NA,97.53265602322206
95660,Sacramento County,CA,NA,41.68466522678186,NA,NA
95667,El Dorado County,CA,NA,NA,76.84529828109201,NA
95670,Sacramento County,CA,NA,NA,29.92922143579373,NA
95673,Sacramento County,CA,NA,NA,NA,93.61393323657474
95682,El Dorado County,CA,NA,NA,37.917087967644086,NA
95687,Solano County,CA,NA,NA,NA,26.995645863570395
95726,El Dorado County,CA,NA,NA,48.43276036400405,NA
95758,Sacramento County,CA,NA,NA,NA,43.54136429608128
95762,El Dorado County,CA,NA,NA,NA,44.412191582002905
95815,Sacramento County,CA,NA,NA,59.656218402426695,NA
95825,Sacramento County,CA,NA,52.69978401727862,NA,NA
95831,Sacramento County,CA,NA,NA,NA,27.431059506531202
95834,Sacramento County,CA,NA,NA,NA,96.08127721335269
95965,Butte County,CA,NA,19.654427645788335,NA,44.99274310595066
95969,Butte County,CA,NA,NA,NA,5.515239477503629
95987,Colusa County,CA,NA,NA,98.88776541961577,NA
95993,Sutter County,CA,NA,NA,38.72598584428716,NA
96021,Tehama County,CA,NA,NA,94.33771486349848,NA
96097,Siskiyou County,CA,NA,NA,NA,75.90711175616835
96161,Nevada County,CA,NA,NA,NA,83.59941944847606
80004,Jefferson County,CO,NA,58.53131749460043,NA,NA
80011,Arapahoe County,CO,NA,9.071274298056156,NA,48.91146589259797
80014,Arapahoe County,CO,NA,NA,58.64509605662285,12.336719883889694
80017,Arapahoe County,CO,NA,39.30885529157667,NA,NA
80020,Broomfield County,CO,53.939393939393945,NA,NA,NA
80021,Jefferson County,CO,NA,NA,52.98281092012134,NA
80022,Adams County,CO,NA,NA,NA,92.74310595065312
80023,Broomfield County,CO,NA,NA,NA,98.69375907111755
80030,Adams County,CO,NA,NA,76.44084934277048,NA
80033,Jefferson County,CO,NA,52.26781857451404,NA,NA
80111,Arapahoe County,CO,NA,71.05831533477321,NA,NA
80112,Arapahoe County,CO,55.15151515151515,NA,NA,NA
80120,Arapahoe County,CO,NA,NA,NA,51.37880986937591
80122,Arapahoe County,CO,NA,NA,49.24165824064712,NA
80127,Jefferson County,CO,NA,NA,88.67542972699697,NA
80128,Jefferson County,CO,49.696969696969695,NA,NA,NA
80134,Douglas County,CO,NA,NA,89.48432760364004,NA
80203,Denver County,CO,NA,70.51835853131749,NA,NA
80204,Denver County,CO,NA,NA,NA,99.2743105950653
80205,Denver County,CO,NA,NA,31.951466127401417,NA
80214,Jefferson County,CO,NA,43.73650107991361,NA,NA
80219,Denver County,CO,NA,5.831533477321814,19.009100101112235,NA
80224,Denver County,CO,NA,64.47084233261339,NA,NA
80226,Jefferson County,CO,NA,51.40388768898488,NA,NA
80228,Jefferson County,CO,NA,NA,NA,76.92307692307693
80229,Adams County,CO,10.303030303030303,NA,NA,NA
80231,Denver County,CO,NA,70.41036717062636,NA,NA
80234,Adams County,CO,NA,94.60043196544277,62.99292214357938,NA
80247,Arapahoe County,CO,NA,NA,NA,85.92162554426706
80249,Denver County,CO,NA,NA,71.89079878665319,NA
80401,Jefferson County,CO,NA,37.47300215982721,NA,89.84034833091437
80465,Jefferson County,CO,NA,99.13606911447084,NA,NA
80517,Larimer County,CO,NA,NA,NA,38.46153846153847
80524,Larimer County,CO,NA,32.073434125269976,NA,NA
80525,Larimer County,CO,18.787878787878785,NA,NA,NA
80534,Weld County,CO,NA,69.76241900647948,NA,NA
80538,Larimer County,CO,NA,12.958963282937367,NA,NA
80634,Weld County,CO,NA,3.131749460043196,NA,NA
80817,El Paso County,CO,NA,NA,NA,95.7910014513788
80831,El Paso County,CO,NA,69.22246220302377,NA,NA
80907,El Paso County,CO,NA,NA,84.12537917087968,NA
80911,El Paso County,CO,NA,43.52051835853132,74.01415571284126,NA
80919,El Paso County,CO,NA,NA,NA,52.1044992743106
80923,El Paso County,CO,NA,NA,NA,80.55152394775035
81005,Pueblo County,CO,NA,NA,20.323559150657232,NA
81008,Pueblo County,CO,NA,85.09719222462203,NA,NA
81147,Archuleta County,CO,NA,NA,55.106167846309404,NA
81212,Fremont County,CO,NA,NA,NA,75.18142235123368
81226,Fremont County,CO,NA,NA,86.34984833164813,NA
81321,Montezuma County,CO,NA,NA,59.150657229524775,NA
81501,Mesa County,CO,NA,NA,NA,75.90711175616835
81506,Mesa County,CO,NA,90.17278617710583,NA,NA
81621,Eagle County,CO,NA,NA,NA,94.77503628447025
81650,Garfield County,CO,NA,NA,59.85844287158746,NA
06001,Hartford County,CT,NA,NA,64.50960566228514,NA
06040,Hartford County,CT,NA,37.25701943844493,NA,NA
06042,Hartford County,CT,NA,39.524838012958966,NA,NA
06066,Tolland County,CT,NA,NA,15.57128412537917,NA
06078,Hartford County,CT,NA,96.11231101511879,NA,NA
06082,Hartford County,CT,NA,NA,11.830131445904954,NA
06105,Hartford County,CT,NA,NA,NA,59.94194484760522
06106,Hartford County,CT,NA,5.50755939524838,NA,NA
06405,New Haven County,CT,NA,43.412526997840175,NA,NA
06443,New Haven County,CT,NA,NA,29.524772497472195,NA
06514,New Haven County,CT,NA,NA,NA,38.6066763425254
06517,New Haven County,CT,NA,53.131749460043196,NA,NA
06519,New Haven County,CT,NA,NA,NA,88.96952104499275
06612,Fairfield County,CT,NA,NA,NA,98.54862119013063
06790,Litchfield County,CT,NA,48.16414686825054,1.2133468149646107,NA
06804,Fairfield County,CT,NA,73.11015118790498,NA,NA
06831,Fairfield County,CT,NA,NA,62.588473205257834,NA
06855,Fairfield County,CT,NA,NA,94.03437815975732,NA
06877,Fairfield County,CT,NA,NA,57.128412537917086,NA
19701,New Castle County,DE,NA,NA,NA,48.040638606676346
19803,New Castle County,DE,NA,NA,46.51162790697674,NA
19804,New Castle County,DE,NA,30.021598272138228,NA,NA
19810,New Castle County,DE,NA,NA,36.400404448938325,NA
19933,Sussex County,DE,NA,NA,NA,78.08417997097243
19950,Sussex County,DE,NA,85.09719222462203,NA,NA
19963,Sussex County,DE,NA,67.49460043196545,NA,NA
19966,Sussex County,DE,NA,NA,NA,17.41654571843251
32008,Suwannee County,FL,NA,88.55291576673866,NA,NA
32034,Nassau County,FL,NA,NA,7.785642062689585,NA
32046,Nassau County,FL,NA,79.37365010799135,NA,NA
32063,Baker County,FL,NA,NA,78.56420626895854,NA
32068,Clay County,FL,NA,NA,8.190091001011123,NA
32082,St. Johns County,FL,NA,NA,28.412537917087967,NA
32084,St. Johns County,FL,NA,NA,24.16582406471183,NA
32092,St. Johns County,FL,NA,NA,70.4752275025278,NA
32118,Volusia County,FL,NA,NA,61.27401415571284,NA
32128,Volusia County,FL,NA,98.16414686825054,NA,NA
32137,Flagler County,FL,NA,NA,5.6622851365015165,NA
32162,Sumter County,FL,NA,NA,1.1122345803842264,NA
32168,Volusia County,FL,NA,NA,32.45702730030334,NA
32179,Marion County,FL,NA,NA,84.32760364004045,NA
32206,Duval County,FL,NA,NA,73.40748230535895,NA
32223,Duval County,FL,NA,NA,NA,51.959361393323654
32244,Duval County,FL,NA,NA,9.100101112234581,NA
32246,Duval County,FL,NA,NA,55.409504550050556,NA
32409,Bay County,FL,NA,NA,65.01516683518706,NA
32446,Jackson County,FL,NA,65.44276457883369,NA,NA
32460,Jackson County,FL,NA,NA,83.417593528817,NA
32526,Escambia County,FL,NA,NA,7.684529828109202,NA
32539,Okaloosa County,FL,NA,NA,23.458038422649143,NA
32541,Okaloosa County,FL,NA,NA,NA,31.78519593613933
32547,Okaloosa County,FL,NA,44.49244060475162,NA,NA
32566,Santa Rosa County,FL,NA,NA,19.61577350859454,NA
32571,Santa Rosa County,FL,NA,NA,12.335692618806876,NA
32577,Escambia County,FL,83.63636363636363,NA,NA,NA
32607,Alachua County,FL,NA,NA,NA,84.90566037735849
32608,Alachua County,FL,NA,8.639308855291576,NA,82.14804063860667
32738,Volusia County,FL,NA,NA,NA,52.39477503628447
32780,Brevard County,FL,NA,42.00863930885529,NA,NA
32960,Indian River County,FL,NA,51.07991360691144,NA,50.2177068214804
32963,Indian River County,FL,NA,NA,NA,53.84615384615385
32967,Indian River County,FL,NA,50.43196544276458,NA,NA
32968,Indian River County,FL,NA,NA,NA,78.22931785195935
33024,Broward County,FL,32.72727272727273,NA,NA,NA
33063,Broward County,FL,NA,NA,NA,15.239477503628446
33064,Broward County,FL,NA,NA,14.863498483316482,NA
33069,Broward County,FL,NA,NA,NA,16.25544267053701
33129,Miami-Dade County,FL,NA,NA,NA,94.62989840348331
33139,Miami-Dade County,FL,NA,NA,NA,14.658925979680696
33145,Miami-Dade County,FL,NA,NA,74.21638018200201,NA
33146,Miami-Dade County,FL,NA,NA,NA,81.42235123367199
33157,Miami-Dade County,FL,NA,NA,18.301314459049543,26.41509433962264
33165,Miami-Dade County,FL,NA,NA,NA,4.499274310595065
33170,Miami-Dade County,FL,NA,NA,NA,92.3076923076923
33174,Miami-Dade County,FL,NA,NA,NA,21.190130624092888
33327,Broward County,FL,NA,NA,NA,88.82438316400581
33328,Broward County,FL,NA,NA,92.11324570273003,NA
33432,Palm Beach County,FL,NA,NA,42.669362992922146,NA
33435,Palm Beach County,FL,NA,NA,NA,59.361393323657474
33442,Broward County,FL,NA,80.45356371490281,NA,NA
33455,Martin County,FL,NA,92.9805615550756,NA,NA
33458,Palm Beach County,FL,NA,NA,20.72800808897877,NA
33472,Palm Beach County,FL,NA,NA,NA,26.705370101596515
33484,Palm Beach County,FL,NA,82.07343412526998,27.80586450960566,NA
33487,Palm Beach County,FL,NA,NA,NA,44.70246734397678
33523,Pasco County,FL,NA,NA,54.19615773508595,NA
33542,Pasco County,FL,NA,57.99136069114471,NA,NA
33547,Hillsborough County,FL,NA,NA,NA,72.13352685050798
33573,Hillsborough County,FL,NA,NA,NA,3.3381712626995643
33592,Hillsborough County,FL,89.0909090909091,NA,NA,NA
33602,Hillsborough County,FL,NA,NA,78.05864509605662,NA
33605,Hillsborough County,FL,NA,NA,77.75530839231547,NA
33612,Hillsborough County,FL,NA,NA,34.883720930232556,NA
33617,Hillsborough County,FL,NA,NA,88.77654196157735,NA
33629,Hillsborough County,FL,NA,NA,NA,99.70972423802613
33702,Pinellas County,FL,NA,NA,58.24064711830131,NA
33707,Pinellas County,FL,NA,62.20302375809935,NA,NA
33712,Pinellas County,FL,NA,36.17710583153348,NA,NA
33755,Pinellas County,FL,66.06060606060606,NA,NA,NA
33756,Pinellas County,FL,NA,49.0280777537797,NA,NA
33777,Pinellas County,FL,NA,78.50971922246221,NA,NA
33781,Pinellas County,FL,NA,76.13390928725701,NA,NA
33801,Polk County,FL,NA,NA,NA,59.79680696661829
33870,Highlands County,FL,NA,NA,60.56622851365015,NA
33881,Polk County,FL,NA,NA,NA,17.706821480406386
33901,Lee County,FL,NA,NA,NA,68.21480406386067
33903,Lee County,FL,NA,63.39092872570195,NA,NA
33907,Lee County,FL,NA,50.647948164146875,NA,NA
33914,Lee County,FL,NA,NA,12.234580384226492,NA
33917,Lee County,FL,NA,NA,15.874620829120323,NA
33931,Lee County,FL,NA,NA,NA,62.264150943396224
33952,Charlotte County,FL,NA,26.13390928725702,NA,NA
33993,Lee County,FL,NA,NA,NA,66.47314949201741
34108,Collier County,FL,NA,NA,52.78058645096056,NA
34112,Collier County,FL,NA,NA,34.580384226491404,NA
34208,Manatee County,FL,NA,NA,NA,66.18287373004354
34221,Manatee County,FL,NA,39.956803455723545,NA,NA
34222,Manatee County,FL,NA,76.5658747300216,NA,NA
34232,Sarasota County,FL,NA,49.892008639308855,NA,28.30188679245283
34235,Sarasota County,FL,NA,NA,NA,38.171262699564586
34238,Sarasota County,FL,NA,NA,NA,8.99854862119013
34286,Sarasota County,FL,NA,NA,82.6086956521739,NA
34465,Citrus County,FL,NA,65.55075593952483,NA,NA
34470,Marion County,FL,NA,NA,NA,47.8955007256894
34476,Marion County,FL,NA,NA,36.70374115267948,NA
34613,Hernando County,FL,NA,NA,31.445904954499493,NA
34653,Pasco County,FL,NA,31.209503239740823,NA,NA
34668,Pasco County,FL,72.12121212121212,NA,NA,NA
34677,Pinellas County,FL,NA,90.8207343412527,NA,NA
34695,Pinellas County,FL,95.15151515151516,NA,NA,NA
34744,Osceola County,FL,NA,27.753779697624193,NA,NA
34747,Osceola County,FL,NA,99.56803455723542,NA,NA
34748,Lake County,FL,NA,NA,NA,2.6124818577648767
34787,Orange County,FL,NA,NA,17.795753286147622,NA
34957,Martin County,FL,NA,77.42980561555075,NA,NA
34986,St. Lucie County,FL,NA,NA,74.72194135490395,12.481857764876633
34990,Martin County,FL,NA,63.822894168466526,NA,NA
34997,Martin County,FL,NA,NA,6.370070778564206,7.6923076923076925
30060,Cobb County,GA,NA,NA,62.689585439838226,NA
30067,Cobb County,GA,NA,NA,63.59959555106168,NA
30082,Cobb County,GA,NA,NA,81.79979777553083,NA
30101,Cobb County,GA,NA,27.5377969762419,NA,NA
30121,Bartow County,GA,NA,NA,50.96056622851365,NA
30132,Paulding County,GA,NA,NA,35.38928210313448,NA
30144,Cobb County,GA,NA,36.50107991360691,NA,NA
30153,Polk County,GA,NA,43.52051835853132,NA,NA
30165,Floyd County,GA,NA,NA,NA,75.03628447024674
30223,Spalding County,GA,NA,38.44492440604751,NA,NA
30277,Coweta County,GA,NA,NA,64.61071789686552,NA
30319,DeKalb County,GA,NA,NA,52.27502527805864,NA
30328,Fulton County,GA,NA,NA,NA,72.13352685050798
30350,Fulton County,GA,NA,66.1987041036717,NA,NA
30519,Gwinnett County,GA,NA,NA,29.828109201213348,NA
30549,Jackson County,GA,NA,49.56803455723542,NA,NA
30605,Clarke County,GA,NA,NA,49.03943377148635,NA
30646,Madison County,GA,NA,87.6889848812095,NA,NA
30656,Walton County,GA,NA,65.11879049676025,NA,NA
30701,Gordon County,GA,NA,NA,25.480283114256824,54.862119013062404
30720,Whitfield County,GA,NA,NA,NA,60.52249637155298
30736,Catoosa County,GA,NA,NA,16.582406471183013,NA
30906,Richmond County,GA,NA,NA,NA,57.03918722786647
31047,Houston County,GA,NA,87.47300215982722,NA,NA
31064,Jasper County,GA,NA,NA,77.04752275025278,NA
31204,Bibb County,GA,NA,NA,24.67138523761375,NA
31320,Liberty County,GA,NA,78.07775377969762,NA,NA
31326,Effingham County,GA,NA,64.36285097192224,62.48736097067745,NA
31404,Chatham County,GA,NA,NA,NA,49.63715529753265
31406,Chatham County,GA,NA,NA,NA,33.236574746008706
31408,Chatham County,GA,60,NA,NA,NA
31419,Chatham County,GA,NA,NA,NA,79.68069666182875
31520,Glynn County,GA,NA,54.319654427645794,NA,NA
31523,Glynn County,GA,NA,NA,69.46410515672396,NA
31548,Camden County,GA,NA,NA,71.28412537917089,NA
31605,Lowndes County,GA,NA,NA,74.82305358948432,NA
31643,Brooks County,GA,NA,NA,79.27199191102123,NA
31757,Thomas County,GA,NA,NA,65.11627906976744,NA
31768,Colquitt County,GA,NA,33.80129589632829,NA,NA
31909,Muscogee County,GA,NA,84.01727861771057,NA,NA
39837,Miller County,GA,NA,73.2181425485961,NA,NA
96707,Honolulu County,HI,29.09090909090909,NA,NA,NA
96744,Honolulu County,HI,NA,NA,2.3255813953488373,74.02031930333817
96749,Hawaii County,HI,NA,80.56155507559394,NA,83.30914368650217
96814,Honolulu County,HI,NA,69.87041036717062,NA,NA
96815,Honolulu County,HI,NA,NA,57.93731041456016,NA
96817,Honolulu County,HI,NA,NA,NA,7.547169811320755
96822,Honolulu County,HI,NA,NA,16.27906976744186,NA
96825,Honolulu County,HI,NA,NA,NA,6.676342525399129
96826,Honolulu County,HI,NA,NA,NA,39.477503628447025
83221,Bingham County,ID,NA,29.373650107991363,NA,NA
83263,Franklin County,ID,NA,NA,85.84428715874621,NA
83301,Twin Falls County,ID,NA,37.6889848812095,NA,0.29027576197387517
83333,Blaine County,ID,NA,NA,NA,92.59796806966618
83402,Bonneville County,ID,2.4242424242424243,NA,NA,NA
83404,Bonneville County,ID,NA,57.12742980561555,NA,NA
83406,Bonneville County,ID,NA,NA,69.56521739130434,NA
83440,Madison County,ID,NA,70.84233261339092,67.13852376137513,NA
83467,Lemhi County,ID,NA,84.55723542116631,66.32962588473205,64.58635703918722
83605,Canyon County,ID,NA,29.265658747300215,20.12133468149646,NA
83607,Canyon County,ID,NA,NA,NA,46.00870827285922
83616,Ada County,ID,NA,NA,79.67644084934277,NA
83619,Payette County,ID,NA,NA,NA,98.25834542815674
83642,Ada County,ID,NA,19.11447084233261,82.50758341759354,NA
83644,Canyon County,ID,NA,88.44492440604752,NA,NA
83646,Ada County,ID,NA,NA,81.19312436804853,6.821480406386067
83647,Elmore County,ID,NA,46.652267818574515,NA,NA
83651,Canyon County,ID,NA,19.00647948164147,60.97067745197169,NA
83661,Payette County,ID,NA,NA,61.98179979777553,NA
83669,Ada County,ID,NA,NA,NA,65.45718432510886
83686,Canyon County,ID,NA,NA,23.559150657229523,4.644412191582003
83687,Canyon County,ID,NA,NA,14.762386248736098,NA
83702,Ada County,ID,49.696969696969695,31.533477321814257,NA,86.93759071117562
83703,Ada County,ID,NA,61.87904967602592,NA,NA
83704,Ada County,ID,NA,18.250539956803454,NA,42.23512336719884
83705,Ada County,ID,NA,85.52915766738661,NA,NA
83706,Ada County,ID,NA,NA,19.919110212335692,22.786647314949203
83709,Ada County,ID,NA,48.59611231101512,46.41051567239636,30.62409288824383
83713,Ada County,ID,NA,NA,78.8675429726997,19.738751814223512
83714,Ada County,ID,NA,NA,NA,79.5355587808418
83716,Ada County,ID,NA,NA,NA,67.19883889695211
83814,Kootenai County,ID,NA,NA,39.23154701718908,NA
83815,Kootenai County,ID,NA,NA,NA,73.87518142235123
83835,Kootenai County,ID,NA,NA,34.37815975733064,NA
83854,Kootenai County,ID,62.42424242424243,NA,NA,58.345428156748916
60002,Lake County,IL,NA,NA,31.749241658240646,NA
60008,Cook County,IL,NA,68.3585313174946,NA,NA
60013,McHenry County,IL,NA,59.07127429805615,NA,NA
60021,McHenry County,IL,NA,NA,98.17997977755309,NA
60025,Cook County,IL,NA,45.78833693304535,3.9433771486349847,6.095791001451379
60035,Lake County,IL,NA,NA,44.69160768452983,23.222060957910013
60044,Lake County,IL,NA,NA,NA,98.11320754716981
60061,Lake County,IL,NA,NA,NA,41.944847605224965
60062,Cook County,IL,NA,NA,4.145601617795753,NA
60064,Lake County,IL,NA,76.3498920086393,NA,NA
60085,Lake County,IL,38.18181818181819,NA,NA,NA
60087,Lake County,IL,NA,NA,67.74519716885743,NA
60089,Lake County,IL,NA,NA,8.695652173913043,NA
60107,Cook County,IL,NA,78.40172786177105,NA,NA
60118,Kane County,IL,NA,73.54211663066955,NA,NA
60123,Kane County,IL,NA,NA,NA,23.222060957910013
60131,Cook County,IL,NA,NA,66.6329625884732,NA
60133,Cook County,IL,NA,NA,46.00606673407482,NA
60139,DuPage County,IL,NA,NA,33.56926188068756,NA
60142,McHenry County,IL,NA,NA,8.897876643073811,2.7576197387518144
60143,DuPage County,IL,NA,NA,NA,83.74455732946299
60148,DuPage County,IL,NA,47.19222462203024,NA,14.804063860667634
60154,Cook County,IL,NA,NA,22.345803842264914,NA
60160,Cook County,IL,NA,NA,NA,49.20174165457185
60162,Cook County,IL,NA,92.44060475161987,NA,NA
60187,DuPage County,IL,NA,38.55291576673866,NA,NA
60201,Cook County,IL,NA,NA,19.11021233569262,NA
60409,Cook County,IL,NA,NA,NA,37.88098693759071
60432,Will County,IL,NA,NA,69.26188068756319,NA
60441,Will County,IL,NA,NA,NA,41.79970972423803
60451,Will County,IL,NA,20.84233261339093,NA,NA
60455,Cook County,IL,NA,NA,46.30940343781597,NA
60475,Will County,IL,NA,NA,NA,88.09869375907112
60478,Cook County,IL,NA,NA,72.80080889787665,NA
60487,Cook County,IL,NA,NA,38.32153690596562,NA
60510,Kane County,IL,NA,36.39308855291576,NA,NA
60526,Cook County,IL,NA,NA,71.99191102123356,NA
60563,DuPage County,IL,NA,NA,36.19817997977755,NA
60608,Cook County,IL,NA,11.339092872570195,NA,11.46589259796807
60610,Cook County,IL,NA,NA,17.99797775530839,NA
60612,Cook County,IL,NA,92.87257019438445,NA,NA
60615,Cook County,IL,NA,NA,NA,23.51233671988389
60617,Cook County,IL,NA,NA,1.7189079878665317,NA
60619,Cook County,IL,NA,NA,NA,1.4513788098693758
60622,Cook County,IL,NA,37.79697624190065,NA,NA
60625,Cook County,IL,NA,NA,NA,23.657474600870827
60638,Cook County,IL,NA,10.691144708423327,NA,NA
60640,Cook County,IL,NA,67.170626349892,NA,NA
60642,Cook County,IL,94.54545454545455,NA,NA,NA
60643,Cook County,IL,NA,NA,NA,10.740203193033382
60644,Cook County,IL,NA,NA,10.717896865520729,NA
60647,Cook County,IL,NA,83.58531317494601,16.885743174924166,NA
60657,Cook County,IL,NA,NA,11.223458038422649,NA
60707,Cook County,IL,NA,21.166306695464364,NA,NA
60714,Cook County,IL,NA,NA,NA,45.71843251088534
60914,Kankakee County,IL,NA,NA,17.18907987866532,NA
60942,Vermilion County,IL,NA,NA,57.53286147623863,NA
61010,Ogle County,IL,NA,NA,88.16986855409505,NA
61021,Lee County,IL,46.666666666666664,NA,NA,NA
61032,Stephenson County,IL,NA,NA,NA,16.9811320754717
61071,Whiteside County,IL,NA,NA,NA,16.110304789550074
61072,Winnebago County,IL,NA,NA,63.80182002022244,NA
61102,Winnebago County,IL,NA,60.367170626349896,NA,NA
61103,Winnebago County,IL,NA,NA,44.99494438827098,NA
61108,Winnebago County,IL,NA,NA,NA,29.60812772133527
61111,Winnebago County,IL,NA,53.45572354211663,NA,NA
61114,Winnebago County,IL,NA,97.19222462203024,NA,NA
61115,Winnebago County,IL,NA,NA,24.570273003033368,NA
61264,Rock Island County,IL,NA,97.8401727861771,NA,NA
61455,McDonough County,IL,NA,85.63714902807776,NA,NA
61801,Champaign County,IL,NA,NA,NA,50.943396226415096
61832,Vermilion County,IL,26.666666666666668,NA,NA,NA
61856,Piatt County,IL,NA,NA,78.46309403437816,NA
61874,Champaign County,IL,NA,NA,NA,46.73439767779391
61938,Coles County,IL,NA,NA,NA,35.41364296081277
62024,Madison County,IL,NA,NA,NA,72.42380261248186
62208,St. Clair County,IL,NA,NA,NA,63.42525399129173
62233,Randolph County,IL,NA,94.9244060475162,NA,NA
62258,St. Clair County,IL,NA,NA,NA,93.61393323657474
62454,Crawford County,IL,NA,NA,71.0819009100101,NA
62526,Macon County,IL,NA,12.095032397408207,NA,54.57184325108854
62568,Christian County,IL,NA,75.91792656587472,NA,NA
62704,Sangamon County,IL,NA,NA,26.79474216380182,NA
62821,White County,IL,NA,NA,85.23761375126391,NA
62948,Williamson County,IL,NA,NA,57.83619817997978,NA
62959,Williamson County,IL,NA,44.38444924406048,NA,NA
46112,Hendricks County,IN,NA,81.31749460043196,NA,NA
46120,Putnam County,IN,84.84848484848484,NA,NA,NA
46143,Johnson County,IN,NA,58.963282937365015,NA,NA
46151,Morgan County,IN,NA,26.457883369330453,NA,NA
46176,Shelby County,IN,NA,NA,9.504550050556118,NA
46218,Marion County,IN,NA,10.583153347732182,NA,NA
46222,Marion County,IN,NA,21.058315334773216,NA,62.989840348330915
46227,Marion County,IN,NA,NA,4.651162790697675,NA
46256,Marion County,IN,NA,NA,40.74823053589484,NA
46342,Lake County,IN,NA,6.479481641468683,NA,NA
46383,Porter County,IN,NA,NA,4.044489383215369,NA
46545,St. Joseph County,IN,NA,51.295896328293736,NA,NA
46815,Allen County,IN,NA,NA,35.69261880687563,23.9477503628447
46902,Howard County,IN,NA,21.27429805615551,NA,NA
46932,Cass County,IN,NA,NA,99.29221435793731,NA
46947,Cass County,IN,NA,NA,9.403437815975733,NA
46953,Grant County,IN,NA,12.203023758099352,NA,NA
46992,Wabash County,IN,NA,34.34125269978402,NA,NA
47117,Harrison County,IN,NA,97.30021598272138,NA,NA
47150,Floyd County,IN,NA,11.23110151187905,NA,NA
47172,Clark County,IN,NA,NA,NA,71.40783744557329
47201,Bartholomew County,IN,NA,NA,42.77047522750253,NA
47303,Delaware County,IN,NA,NA,NA,69.23076923076923
47331,Fayette County,IN,NA,NA,NA,11.320754716981133
47374,Wayne County,IN,NA,5.291576673866091,NA,NA
47408,Monroe County,IN,NA,94.81641468682506,NA,NA
47421,Lawrence County,IN,NA,96.32829373650108,NA,NA
47601,Warrick County,IN,NA,NA,NA,46.15384615384615
47710,Vanderburgh County,IN,NA,NA,53.1850353892821,NA
47905,Tippecanoe County,IN,NA,NA,47.82608695652174,NA
47906,Tippecanoe County,IN,NA,NA,24.26693629929221,NA
50171,Poweshiek County,IA,NA,NA,99.3933265925177,NA
50219,Marion County,IA,NA,NA,49.140546006066735,NA
50263,Dallas County,IA,NA,96.54427645788337,NA,NA
50266,Polk County,IA,NA,76.88984881209502,NA,NA
50273,Madison County,IA,NA,NA,NA,82.5834542815675
50316,Polk County,IA,NA,43.08855291576673,NA,NA
50317,Polk County,IA,NA,NA,12.537917087967642,NA
50401,Cerro Gordo County,IA,NA,12.526997840172784,NA,NA
50428,Cerro Gordo County,IA,NA,NA,87.05763397371082,49.782293178519595
50613,Black Hawk County,IA,NA,NA,42.871587462082914,NA
50701,Black Hawk County,IA,NA,NA,22.143579373104146,NA
50703,Black Hawk County,IA,NA,NA,28.816986855409503,NA
51301,Clay County,IA,NA,55.183585313174945,91.0010111223458,31.78519593613933
51360,Dickinson County,IA,NA,NA,58.442871587462086,55.73294629898403
51501,Pottawattamie County,IA,NA,3.7796976241900646,NA,NA
51503,Pottawattamie County,IA,NA,NA,NA,29.46298984034833
51537,Shelby County,IA,NA,68.25053995680346,NA,NA
52001,Dubuque County,IA,NA,15.982721382289416,NA,NA
52240,Johnson County,IA,NA,NA,NA,66.61828737300436
52241,Johnson County,IA,NA,49.46004319654428,NA,99.41944847605225
52245,Johnson County,IA,NA,NA,37.917087967644086,56.60377358490566
52317,Johnson County,IA,NA,NA,69.9696663296259,NA
52405,Linn County,IA,NA,41.14470842332613,NA,NA
52544,Appanoose County,IA,NA,NA,NA,81.71262699564586
52556,Jefferson County,IA,NA,NA,58.03842264914054,NA
52577,Mahaska County,IA,NA,37.79697624190065,NA,NA
52601,Des Moines County,IA,NA,13.06695464362851,NA,NA
52627,Lee County,IA,NA,46.868250539956804,NA,NA
52632,Lee County,IA,NA,NA,NA,89.69521044992743
52761,Muscatine County,IA,NA,11.879049676025918,NA,NA
52803,Scott County,IA,NA,35.63714902807775,NA,NA
66046,Douglas County,KS,NA,NA,80.88978766430738,NA
66067,Franklin County,KS,NA,NA,50.05055611729019,NA
66083,Johnson County,KS,NA,75.16198704103671,NA,NA
66103,Wyandotte County,KS,NA,NA,93.42770475227502,NA
66109,Wyandotte County,KS,NA,80.77753779697623,NA,NA
66203,Johnson County,KS,NA,80.6695464362851,NA,NA
66209,Johnson County,KS,NA,NA,NA,35.84905660377358
66441,Geary County,KS,NA,71.49028077753779,NA,NA
66502,Riley County,KS,NA,73.97408207343412,NA,NA
66725,Cherokee County,KS,NA,NA,NA,77.79390420899854
67010,Butler County,KS,NA,75.80993520518359,NA,NA
67401,Saline County,KS,NA,56.15550755939525,NA,NA
67456,McPherson County,KS,92.72727272727272,NA,NA,92.3076923076923
67601,Ellis County,KS,NA,43.08855291576673,NA,74.74600870827285
67846,Finney County,KS,NA,23.110151187904968,19.312436804853387,NA
67871,Scott County,KS,NA,NA,63.29625884732053,NA
40031,Oldham County,KY,NA,33.69330453563715,NA,NA
40059,Jefferson County,KY,NA,NA,95.85439838220424,NA
40160,Hardin County,KY,NA,NA,49.44388270980789,NA
40207,Jefferson County,KY,NA,NA,30.940343781597573,NA
40291,Jefferson County,KY,NA,NA,49.3427704752275,NA
40299,Jefferson County,KY,NA,NA,19.41354903943377,NA
40336,Estill County,KY,NA,57.01943844492441,NA,NA
40351,Rowan County,KY,NA,NA,12.942366026289182,NA
40383,Woodford County,KY,NA,NA,41.05156723963599,NA
40403,Madison County,KY,63.030303030303024,NA,NA,NA
40502,Fayette County,KY,NA,NA,48.837209302325576,NA
40505,Fayette County,KY,NA,24.622030237580994,NA,NA
40514,Fayette County,KY,NA,NA,89.88877654196158,NA
41005,Boone County,KY,NA,NA,NA,63.28011611030478
41015,Kenton County,KY,NA,NA,56.31951466127402,NA
41017,Kenton County,KY,NA,32.937365010799134,NA,NA
41018,Kenton County,KY,NA,NA,22.446916076845298,NA
41042,Boone County,KY,NA,6.911447084233262,NA,4.78955007256894
41071,Campbell County,KY,NA,27.96976241900648,NA,NA
41101,Boyd County,KY,7.878787878787878,NA,NA,NA
42127,Barren County,KY,90.30303030303031,NA,NA,NA
42301,Daviess County,KY,15.151515151515152,NA,NA,NA
42320,Ohio County,KY,NA,NA,47.320525783619814,NA
42420,Henderson County,KY,NA,34.98920086393088,NA,NA
42544,Pulaski County,KY,NA,NA,NA,87.22786647314949
42701,Hardin County,KY,NA,40.8207343412527,NA,NA
42754,Grayson County,KY,NA,NA,37.41152679474216,NA
70001,Jefferson Parish,LA,NA,91.5766738660907,NA,NA
70002,Jefferson Parish,LA,NA,NA,87.1587462082912,NA
70003,Jefferson Parish,LA,4.848484848484849,NA,NA,NA
70037,Plaquemines Parish,LA,NA,44.49244060475162,NA,NA
70047,St. Charles Parish,LA,NA,NA,NA,75.61683599419449
70070,St. Charles Parish,LA,NA,84.88120950323975,NA,99.56458635703919
70072,Jefferson Parish,LA,NA,1.4038876889848813,NA,NA
70092,St. Bernard Parish,LA,NA,66.09071274298056,NA,NA
70113,Orleans Parish,LA,NA,NA,96.46107178968654,NA
70114,Orleans Parish,LA,NA,10.907127429805616,NA,NA
70117,Orleans Parish,LA,NA,NA,79.474216380182,NA
70129,Orleans Parish,LA,NA,72.2462203023758,NA,NA
70363,Terrebonne Parish,LA,NA,22.03023758099352,NA,NA
70364,Terrebonne Parish,LA,NA,32.6133909287257,NA,NA
70374,Lafourche Parish,LA,NA,NA,NA,58.490566037735846
70394,Lafourche Parish,LA,NA,21.706263498920087,NA,NA
70403,Tangipahoa Parish,LA,NA,7.883369330453564,NA,NA
70422,Tangipahoa Parish,LA,21.21212121212121,NA,72.59858442871587,NA
70427,Washington Parish,LA,NA,NA,55.20728008088979,31.059506531204644
70435,St. Tammany Parish,LA,NA,21.598272138228943,NA,NA
70438,Washington Parish,LA,NA,NA,NA,20.754716981132077
70458,St. Tammany Parish,LA,NA,NA,21.334681496461073,NA
70471,St. Tammany Parish,LA,NA,NA,NA,21.335268505079828
70501,Lafayette Parish,LA,NA,NA,NA,36.71988388969521
70506,Lafayette Parish,LA,NA,NA,14.256825075834175,28.88243831640058
70560,Iberia Parish,LA,NA,NA,NA,34.68795355587808
70583,Lafayette Parish,LA,NA,51.18790496760259,NA,NA
70615,Calcasieu Parish,LA,NA,NA,64.30738119312437,NA
70647,Calcasieu Parish,LA,NA,NA,87.66430738119313,NA
70706,Livingston Parish,LA,NA,NA,55.51061678463094,84.76052249637155
70726,Livingston Parish,LA,NA,2.0518358531317493,NA,26.124818577648767
70767,West Baton Rouge Parish,LA,NA,49.24406047516199,NA,NA
70785,Livingston Parish,LA,NA,NA,35.28816986855409,NA
70791,East Baton Rouge Parish,LA,NA,14.038876889848812,26.289180990899897,NA
70807,East Baton Rouge Parish,LA,NA,13.498920086393088,NA,NA
70808,East Baton Rouge Parish,LA,NA,NA,NA,48.185776487663276
70809,East Baton Rouge Parish,LA,NA,NA,45.70273003033367,87.08272859216255
70811,East Baton Rouge Parish,LA,NA,28.401727861771057,NA,NA
70812,East Baton Rouge Parish,LA,NA,NA,93.02325581395348,NA
70815,East Baton Rouge Parish,LA,NA,NA,NA,40.49346879535559
70816,East Baton Rouge Parish,LA,NA,NA,30.23255813953488,NA
71047,Caddo Parish,LA,74.54545454545455,NA,NA,NA
71107,Caddo Parish,LA,NA,NA,16.076845298281093,NA
71112,Bossier Parish,LA,NA,90.92872570194385,NA,NA
71291,Ouachita Parish,LA,NA,69.54643628509719,NA,NA
71292,Ouachita Parish,LA,NA,NA,52.37613751263903,NA
71301,Rapides Parish,LA,NA,8.423326133909287,NA,NA
71334,Concordia Parish,LA,NA,NA,NA,87.66328011611031
71457,Natchitoches Parish,LA,NA,NA,56.72396359959555,NA
03901,York County,ME,NA,NA,NA,95.64586357039188
04005,York County,ME,NA,NA,3.842264914054601,NA
04032,Cumberland County,ME,NA,85.09719222462203,NA,NA
04038,Cumberland County,ME,NA,56.91144708423326,NA,NA
04072,York County,ME,NA,NA,NA,36.574746008708274
04074,Cumberland County,ME,NA,NA,53.69059656218403,NA
04102,Cumberland County,ME,NA,NA,NA,87.37300435413643
04103,Cumberland County,ME,NA,NA,NA,19.738751814223512
04106,Cumberland County,ME,NA,NA,32.861476238624874,NA
04107,Cumberland County,ME,NA,NA,98.28109201213347,NA
04220,Oxford County,ME,NA,99.89200863930886,NA,NA
04240,Androscoggin County,ME,28.484848484848484,NA,1.6177957532861478,21.04499274310595
04401,Penobscot County,ME,17.575757575757574,14.254859611231103,45.29828109201213,13.933236574746008
04462,Penobscot County,ME,NA,NA,80.0808897876643,NA
04605,Hancock County,ME,NA,46.220302375809936,NA,NA
04769,Aroostook County,ME,NA,63.282937365010795,NA,NA
04841,Knox County,ME,NA,74.83801295896329,NA,NA
04901,Kennebec County,ME,64.24242424242425,6.047516198704104,NA,7.111756168359943
04967,Somerset County,ME,NA,79.80561555075593,NA,NA
04976,Somerset County,ME,39.39393939393939,NA,NA,NA
20743,Prince George's County,MD,NA,35.529157667386606,NA,NA
20747,Prince George's County,MD,NA,NA,NA,96.9521044992743
20782,Prince George's County,MD,NA,NA,64.71183013144591,NA
20817,Montgomery County,MD,NA,NA,NA,88.38896952104498
20906,Montgomery County,MD,NA,NA,NA,15.09433962264151
21014,Harford County,MD,NA,NA,28.61476238624874,NA
21061,Anne Arundel County,MD,NA,NA,23.053589484327603,NA
21090,Anne Arundel County,MD,NA,NA,NA,95.355587808418
21093,Baltimore County,MD,NA,NA,NA,12.191582002902758
21117,Baltimore County,MD,NA,31.857451403887687,NA,NA
21120,Baltimore County,MD,NA,NA,NA,95.21044992743106
21133,Baltimore County,MD,NA,NA,96.7644084934277,NA
21163,Howard County,MD,NA,NA,NA,98.98403483309144
21202,Baltimore city,MD,NA,44.27645788336933,NA,NA
21206,Baltimore city,MD,NA,NA,10.010111223458038,NA
21211,Baltimore city,MD,NA,72.67818574514038,87.96764408493428,NA
21221,Baltimore County,MD,NA,20.626349892008637,NA,NA
21230,Baltimore city,MD,NA,36.17710583153348,NA,NA
21231,Baltimore city,MD,NA,67.3866090712743,NA,NA
21236,Baltimore County,MD,NA,40.92872570194385,NA,NA
21550,Garrett County,MD,NA,72.2462203023758,NA,NA
21629,Caroline County,MD,NA,81.53347732181425,NA,NA
21773,Frederick County,MD,NA,NA,100,NA
21797,Howard County,MD,NA,NA,NA,94.04934687953556
21842,Worcester County,MD,NA,NA,NA,49.92743105950653
21901,Cecil County,MD,73.93939393939394,NA,NA,NA
21921,Cecil County,MD,NA,15.658747300215984,NA,NA
01002,Hampshire County,MA,NA,NA,NA,61.82873730043541
01033,Hampshire County,MA,NA,79.37365010799135,NA,NA
01036,Hampden County,MA,NA,NA,NA,90.56603773584906
01095,Hampden County,MA,NA,NA,NA,19.448476052249635
01104,Hampden County,MA,NA,1.6198704103671708,NA,NA
01108,Hampden County,MA,NA,1.7278617710583155,NA,NA
01109,Hampden County,MA,NA,24.29805615550756,6.572295247724974,NA
01151,Hampden County,MA,79.39393939393939,NA,NA,NA
01220,Berkshire County,MA,NA,58.09935205183585,NA,NA
01230,Berkshire County,MA,NA,67.92656587473002,NA,NA
01301,Franklin County,MA,NA,11.555075593952484,NA,NA
01420,Worcester County,MA,7.2727272727272725,NA,NA,NA
01440,Worcester County,MA,NA,NA,NA,13.642960812772134
01564,Worcester County,MA,NA,NA,93.12436804853387,NA
01588,Worcester County,MA,NA,20.518358531317496,37.8159757330637,NA
01602,Worcester County,MA,NA,NA,17.290192113245702,NA
01606,Worcester County,MA,NA,NA,47.320525783619814,NA
01607,Worcester County,MA,NA,NA,NA,83.88969521044993
01701,Middlesex County,MA,NA,NA,5.460060667340748,NA
01749,Middlesex County,MA,NA,21.490280777537794,NA,NA
01752,Middlesex County,MA,NA,NA,43.07381193124368,NA
01760,Middlesex County,MA,NA,NA,5.864509605662286,NA
01803,Middlesex County,MA,NA,NA,3.640040444893832,22.93178519593614
01821,Middlesex County,MA,NA,45.46436285097192,NA,12.046444121915819
01824,Middlesex County,MA,NA,10.259179265658748,NA,NA
01860,Essex County,MA,NA,NA,79.77755308392315,NA
01863,Middlesex County,MA,NA,89.20086393088553,NA,NA
01890,Middlesex County,MA,NA,NA,NA,69.95645863570392
01913,Essex County,MA,NA,NA,8.088978766430738,NA
01915,Essex County,MA,NA,NA,NA,1.3062409288824384
01923,Essex County,MA,NA,NA,NA,2.467343976777939
01940,Essex County,MA,NA,63.60691144708424,NA,NA
01945,Essex County,MA,NA,42.54859611231102,NA,NA
01960,Essex County,MA,NA,0.755939524838013,NA,3.483309143686502
01970,Essex County,MA,NA,1.079913606911447,NA,9.57910014513788
01983,Essex County,MA,NA,NA,79.77755308392315,NA
01985,Essex County,MA,NA,NA,84.22649140546005,NA
02019,Norfolk County,MA,NA,36.7170626349892,NA,NA
02043,Plymouth County,MA,NA,NA,NA,24.67343976777939
02116,Suffolk County,MA,NA,82.829373650108,NA,NA
02119,Suffolk County,MA,NA,26.565874730021598,NA,NA
02121,Suffolk County,MA,NA,NA,0.20222446916076847,NA
02124,Suffolk County,MA,NA,NA,0,NA
02125,Suffolk County,MA,NA,0.21598272138228944,NA,NA
02126,Suffolk County,MA,NA,NA,3.0333670374115265,NA
02127,Suffolk County,MA,NA,1.511879049676026,NA,NA
02130,Suffolk County,MA,NA,NA,0.7077856420626896,5.2249637155297535
02131,Suffolk County,MA,NA,1.8358531317494602,3.741152679474216,4.063860667634253
02134,Suffolk County,MA,85.45454545454545,NA,NA,NA
02138,Middlesex County,MA,NA,NA,NA,16.69085631349782
02140,Middlesex County,MA,NA,50.53995680345572,NA,NA
02145,Middlesex County,MA,NA,5.399568034557236,NA,NA
02148,Middlesex County,MA,NA,19.978401727861772,10.313447927199192,27.14078374455733
02149,Middlesex County,MA,NA,24.946004319654428,NA,NA
02151,Suffolk County,MA,0.6060606060606061,NA,0.6066734074823054,NA
02191,Norfolk County,MA,NA,NA,NA,76.19738751814224
02301,Plymouth County,MA,NA,NA,NA,1.1611030478955007
02302,Plymouth County,MA,NA,NA,NA,6.966618287373004
02330,Plymouth County,MA,67.87878787878789,NA,NA,NA
02333,Plymouth County,MA,NA,NA,42.163801820020225,NA
02420,Middlesex County,MA,NA,NA,NA,48.33091436865022
02540,Barnstable County,MA,NA,NA,35.18705763397371,NA
02568,Dukes County,MA,NA,NA,39.93933265925177,NA
02645,Barnstable County,MA,83.03030303030303,NA,NA,NA
02703,Bristol County,MA,NA,0.9719222462203023,NA,NA
02719,Bristol County,MA,40,NA,NA,NA
02721,Bristol County,MA,NA,NA,25.075834175935285,NA
02723,Bristol County,MA,9.696969696969697,NA,NA,NA
02738,Plymouth County,MA,NA,NA,NA,86.21190130624092
02739,Plymouth County,MA,NA,NA,NA,79.39042089985486
02740,Bristol County,MA,NA,NA,NA,0.14513788098693758
02744,Bristol County,MA,NA,NA,80.28311425682507,NA
02762,Norfolk County,MA,NA,NA,75.73306370070779,NA
48017,Oakland County,MI,NA,NA,70.67745197168858,NA
48021,Macomb County,MI,NA,37.25701943844493,NA,NA
48026,Macomb County,MI,NA,68.46652267818575,NA,NA
48030,Oakland County,MI,NA,NA,NA,98.8388969521045
48042,Macomb County,MI,NA,NA,23.761375126390295,NA
48059,St. Clair County,MI,70.9090909090909,NA,NA,NA
48060,St. Clair County,MI,NA,3.455723542116631,26.99696663296259,NA
48066,Macomb County,MI,NA,52.159827213822894,NA,NA
48070,Oakland County,MI,NA,NA,91.91102123356926,NA
48071,Oakland County,MI,NA,60.475161987041034,NA,NA
48072,Oakland County,MI,NA,NA,NA,59.07111756168359
48073,Oakland County,MI,NA,30.99352051835853,31.648129423660265,NA
48076,Oakland County,MI,NA,NA,NA,39.7677793904209
48080,Macomb County,MI,NA,94.49244060475162,11.627906976744185,NA
48081,Macomb County,MI,NA,NA,NA,20.174165457184326
48082,Macomb County,MI,NA,50.21598272138229,NA,NA
48084,Oakland County,MI,NA,78.83369330453563,NA,NA
48103,Washtenaw County,MI,24.848484848484848,NA,29.625884732052576,20.4644412191582
48104,Washtenaw County,MI,NA,76.02591792656588,NA,92.16255442670537
48105,Washtenaw County,MI,NA,NA,12.43680485338726,42.52539912917271
48108,Washtenaw County,MI,NA,38.66090712742981,NA,NA
48111,Wayne County,MI,NA,NA,NA,67.05370101596516
48116,Livingston County,MI,NA,29.697624190064797,NA,14.949201741654573
48125,Wayne County,MI,NA,NA,77.24974721941355,NA
48126,Wayne County,MI,NA,NA,NA,17.99709724238026
48128,Wayne County,MI,NA,98.48812095032397,NA,NA
48131,Monroe County,MI,NA,NA,83.61981799797775,NA
48141,Wayne County,MI,NA,55.507559395248386,NA,NA
48146,Wayne County,MI,NA,33.477321814254864,13.245702730030334,NA
48150,Wayne County,MI,NA,28.61771058315335,17.69464105156724,NA
48154,Wayne County,MI,NA,NA,5.763397371081901,NA
48161,Monroe County,MI,NA,NA,90.19211324570273,NA
48167,Oakland County,MI,NA,NA,NA,15.965166908563136
48170,Wayne County,MI,NA,NA,NA,3.9187227866473147
48173,Wayne County,MI,NA,59.93520518358532,NA,NA
48176,Washtenaw County,MI,NA,42.44060475161987,21.73913043478261,NA
48178,Oakland County,MI,NA,NA,10.920121334681497,NA
48180,Wayne County,MI,1.8181818181818181,NA,NA,25.1088534107402
48183,Wayne County,MI,23.03030303030303,NA,NA,NA
48185,Wayne County,MI,NA,6.8034557235421165,30.63700707785642,NA
48188,Wayne County,MI,NA,NA,65.82406471183013,NA
48189,Washtenaw County,MI,NA,61.55507559395248,NA,NA
48197,Washtenaw County,MI,NA,2.8077753779697625,NA,20.319303338171263
48198,Washtenaw County,MI,3.0303030303030303,3.023758099352052,NA,NA
48203,Wayne County,MI,NA,15.226781857451405,NA,NA
48204,Wayne County,MI,NA,36.933045356371494,NA,NA
48227,Wayne County,MI,NA,3.5637149028077757,NA,NA
48228,Wayne County,MI,NA,39.63282937365011,NA,NA
48239,Wayne County,MI,NA,NA,38.52376137512639,NA
48240,Wayne County,MI,NA,22.138228941684666,NA,NA
48306,Oakland County,MI,NA,45.35637149028078,NA,NA
48307,Oakland County,MI,NA,NA,NA,17.99709724238026
48322,Oakland County,MI,NA,NA,NA,5.370101596516691
48328,Oakland County,MI,NA,39.09287257019439,NA,NA
48329,Oakland County,MI,NA,33.909287257019436,NA,NA
48375,Oakland County,MI,NA,53.56371490280778,NA,NA
48390,Oakland County,MI,NA,39.416846652267814,NA,NA
48393,Oakland County,MI,NA,NA,NA,81.42235123367199
48413,Huron County,MI,NA,52.26781857451404,NA,NA
48429,Shiawassee County,MI,NA,NA,64.30738119312437,NA
48430,Genesee County,MI,NA,NA,16.48129423660263,NA
48439,Genesee County,MI,58.18181818181818,43.95248380129589,NA,NA
48505,Genesee County,MI,NA,19.330453563714904,49.74721941354904,NA
48506,Genesee County,MI,NA,NA,NA,55.152394775036285
48509,Genesee County,MI,NA,NA,77.04752275025278,NA
48601,Saginaw County,MI,NA,2.159827213822894,NA,7.982583454281568
48658,Arenac County,MI,52.72727272727272,NA,NA,NA
48661,Ogemaw County,MI,61.81818181818181,NA,NA,NA
48734,Saginaw County,MI,NA,NA,NA,71.69811320754717
48739,Iosco County,MI,NA,NA,NA,89.40493468795356
48746,Tuscola County,MI,NA,91.90064794816415,NA,NA
48842,Ingham County,MI,NA,NA,82.81092012133469,NA
48843,Livingston County,MI,NA,NA,3.336703741152679,NA
48846,Ionia County,MI,NA,40.17278617710583,NA,NA
48854,Ingham County,MI,NA,NA,NA,64.73149492017417
48875,Ionia County,MI,NA,78.94168466522679,NA,NA
48910,Ingham County,MI,NA,NA,11.324570273003033,36.86502177068215
48911,Ingham County,MI,NA,NA,12.639029322548028,NA
48912,Ingham County,MI,NA,NA,64.00404448938322,NA
48917,Eaton County,MI,NA,9.719222462203025,NA,NA
49008,Kalamazoo County,MI,NA,65.87473002159827,NA,NA
49014,Calhoun County,MI,NA,19.870410367170628,NA,NA
49046,Barry County,MI,NA,86.7170626349892,54.70171890798786,NA
49048,Kalamazoo County,MI,NA,18.790496760259177,NA,NA
49065,Van Buren County,MI,NA,96.76025917926566,NA,NA
49068,Calhoun County,MI,NA,NA,74.4186046511628,NA
49076,Eaton County,MI,NA,NA,NA,87.51814223512336
49097,Kalamazoo County,MI,NA,NA,68.25075834175935,NA
49201,Jackson County,MI,NA,NA,NA,39.042089985486214
49202,Jackson County,MI,NA,NA,NA,27.721335268505083
49221,Lenawee County,MI,NA,NA,25.379170879676437,NA
49242,Hillsdale County,MI,NA,50.323974082073434,NA,NA
49285,Ingham County,MI,NA,NA,97.57330637007078,NA
49307,Mecosta County,MI,NA,NA,56.21840242669363,NA
49315,Kent County,MI,NA,NA,34.47927199191102,NA
49316,Kent County,MI,NA,NA,86.45096056622852,NA
49321,Kent County,MI,NA,83.04535637149027,NA,NA
49341,Kent County,MI,NA,63.17494600431965,NA,NA
49412,Newaygo County,MI,NA,66.41468682505399,NA,NA
49420,Oceana County,MI,NA,NA,81.49646107178968,NA
49423,Ottawa County,MI,NA,NA,NA,34.83309143686502
49428,Ottawa County,MI,NA,NA,NA,18.867924528301888
49442,Muskegon County,MI,NA,3.995680345572354,NA,NA
49449,Oceana County,MI,NA,NA,92.51769464105156,NA
49464,Ottawa County,MI,NA,NA,34.17593528816987,NA
49506,Kent County,MI,NA,NA,39.838220424671384,NA
49507,Kent County,MI,NA,73.75809935205183,NA,NA
49508,Kent County,MI,NA,NA,37.31041456016178,NA
49509,Kent County,MI,NA,NA,NA,57.32946298984035
49519,Kent County,MI,NA,NA,NA,73.14949201741655
49525,Kent County,MI,NA,35.20518358531318,NA,41.21915820029027
49546,Kent County,MI,NA,NA,NA,70.53701015965167
49635,Benzie County,MI,NA,NA,95.75328614762387,NA
49684,Grand Traverse County,MI,NA,NA,23.660262891809907,NA
49720,Charlevoix County,MI,NA,NA,84.5298281092012,NA
49721,Cheboygan County,MI,NA,NA,34.78260869565217,NA
49735,Otsego County,MI,NA,NA,15.672396359959556,NA
49756,Montmorency County,MI,NA,NA,NA,80.2612481857765
49765,Presque Isle County,MI,NA,86.06911447084234,NA,NA
49770,Emmet County,MI,NA,62.419006479481645,47.21941354903944,NA
49837,Delta County,MI,NA,55.291576673866096,NA,NA
49866,Marquette County,MI,NA,59.71922246220303,NA,NA
49935,Iron County,MI,NA,NA,NA,62.11901306240929
49938,Gogebic County,MI,80,NA,NA,NA
55008,Isanti County,MN,NA,NA,49.94944388270981,NA
55016,Washington County,MN,12.121212121212121,NA,NA,NA
55033,Dakota County,MN,NA,NA,NA,34.107402031930334
55051,Kanabec County,MN,NA,84.7732181425486,NA,49.34687953555878
55063,Pine County,MN,64.84848484848484,75.26997840172787,NA,NA
55082,Washington County,MN,NA,NA,21.840242669362993,NA
55106,Ramsey County,MN,NA,NA,57.330637007077854,NA
55115,Washington County,MN,NA,NA,NA,86.79245283018868
55118,Dakota County,MN,NA,NA,39.737108190091,NA
55124,Dakota County,MN,NA,40.06479481641469,NA,NA
55306,Dakota County,MN,NA,NA,65.62184024266936,NA
55307,Sibley County,MN,NA,NA,99.08998988877654,NA
55318,Carver County,MN,NA,NA,85.33872598584429,NA
55325,Meeker County,MN,NA,99.67602591792657,NA,NA
55330,Sherburne County,MN,NA,NA,38.32153690596562,NA
55331,Hennepin County,MN,NA,NA,70.07077856420626,NA
55336,McLeod County,MN,NA,70.3023758099352,NA,NA
55343,Hennepin County,MN,NA,NA,38.624873609706775,NA
55344,Hennepin County,MN,NA,89.8488120950324,NA,NA
55350,McLeod County,MN,NA,NA,28.00808897876643,19.593613933236576
55352,Scott County,MN,NA,NA,NA,92.88824383164005
55362,Wright County,MN,NA,NA,93.83215369059657,NA
55379,Scott County,MN,NA,26.997840172786177,NA,NA
55403,Hennepin County,MN,NA,NA,66.12740141557128,NA
55404,Hennepin County,MN,NA,48.704103671706264,18.503538928210315,NA
55407,Hennepin County,MN,NA,28.185745140388768,NA,NA
55412,Hennepin County,MN,NA,9.503239740820735,NA,NA
55413,Hennepin County,MN,NA,73.00215982721382,44.48938321536906,NA
55414,Hennepin County,MN,NA,NA,97.87664307381193,NA
55416,Hennepin County,MN,NA,NA,NA,40.78374455732946
55418,Hennepin County,MN,NA,28.94168466522678,NA,NA
55421,Anoka County,MN,NA,22.24622030237581,94.43882709807887,NA
55422,Hennepin County,MN,NA,77.7537796976242,NA,NA
55423,Hennepin County,MN,NA,54.75161987041036,NA,NA
55427,Hennepin County,MN,NA,81.42548596112312,NA,57.61973875181422
55429,Hennepin County,MN,NA,NA,84.0242669362993,NA
55430,Hennepin County,MN,NA,NA,NA,55.878084179970976
55432,Anoka County,MN,NA,NA,93.93326592517694,NA
55435,Hennepin County,MN,NA,NA,85.54095045500506,86.35703918722787
55436,Hennepin County,MN,77.57575757575758,NA,NA,NA
55441,Hennepin County,MN,35.75757575757576,71.92224622030238,NA,NA
55446,Hennepin County,MN,NA,NA,83.21536905965623,NA
55720,Carlton County,MN,NA,65.76673866090714,40.54600606673407,NA
55731,St. Louis County,MN,NA,96.8682505399568,NA,NA
55744,Itasca County,MN,NA,NA,75.32861476238625,NA
55746,St. Louis County,MN,NA,NA,NA,30.76923076923077
55792,St. Louis County,MN,NA,82.72138228941685,27.199191102123354,NA
55803,St. Louis County,MN,NA,68.1425485961123,87.36097067745197,NA
55804,St. Louis County,MN,NA,NA,33.9737108190091,NA
55805,St. Louis County,MN,NA,47.19222462203024,NA,NA
55806,St. Louis County,MN,NA,61.33909287257019,NA,NA
55807,St. Louis County,MN,NA,99.24406047516199,NA,NA
55808,St. Louis County,MN,NA,NA,72.4974721941355,NA
55811,St. Louis County,MN,NA,NA,27.401415571284126,2.9027576197387517
55812,St. Louis County,MN,NA,78.61771058315334,NA,NA
55904,Olmsted County,MN,43.03030303030303,NA,NA,38.6066763425254
55912,Mower County,MN,NA,NA,NA,0.5805515239477503
55987,Winona County,MN,NA,66.73866090712744,2.4266936299292214,NA
56007,Freeborn County,MN,NA,NA,6.066734074823053,NA
56011,Scott County,MN,NA,NA,NA,85.77648766328012
56013,Faribault County,MN,NA,NA,NA,76.63280116110305
56058,Le Sueur County,MN,NA,NA,98.38220424671385,NA
56097,Faribault County,MN,NA,98.59611231101512,NA,NA
56164,Pipestone County,MN,NA,NA,NA,80.98693759071118
56187,Nobles County,MN,NA,NA,36.804853387259854,NA
56258,Lyon County,MN,NA,NA,80.68756319514662,46.29898403483309
56265,Chippewa County,MN,NA,NA,NA,40.34833091436865
56267,Stevens County,MN,NA,NA,NA,45.573294629898406
56301,Stearns County,MN,NA,46.00431965442765,NA,NA
56308,Douglas County,MN,NA,27.861771058315334,NA,NA
56334,Pope County,MN,NA,NA,NA,69.52104499274311
56345,Morrison County,MN,NA,77.64578833693304,68.14964610717897,72.71407837445574
56374,Stearns County,MN,90.9090909090909,NA,98.0788675429727,NA
56377,Stearns County,MN,NA,75.26997840172787,NA,NA
56401,Crow Wing County,MN,NA,36.06911447084234,25.985844287158745,NA
56431,Aitkin County,MN,NA,NA,39.332659251769464,NA
56472,Crow Wing County,MN,NA,NA,NA,60.66763425253991
56482,Wadena County,MN,NA,51.727861771058315,NA,NA
56501,Becker County,MN,NA,39.8488120950324,58.84732052578362,NA
56544,Becker County,MN,NA,NA,92.71991911021233,NA
56560,Clay County,MN,NA,86.93304535637148,NA,1.0159651669085632
56572,Otter Tail County,MN,NA,NA,NA,90.42089985486213
56601,Beltrami County,MN,NA,80.88552915766739,63.70070778564207,15.529753265602322
56701,Pennington County,MN,NA,NA,21.334681496461073,NA
39170,Hinds County,MS,NA,NA,86.5520728008089,NA
39208,Rankin County,MS,NA,NA,50.55611729019211,NA
39209,Hinds County,MS,NA,NA,NA,66.18287373004354
39350,Neshoba County,MS,NA,26.88984881209503,NA,NA
39470,Pearl River County,MS,NA,NA,NA,66.76342525399129
39501,Harrison County,MS,NA,79.04967602591793,NA,30.18867924528302
39503,Harrison County,MS,NA,NA,21.53690596562184,8.563134978229318
39507,Harrison County,MS,NA,NA,64.81294236602629,NA
39520,Hancock County,MS,NA,NA,36.804853387259854,NA
39525,Hancock County,MS,NA,NA,NA,38.6066763425254
39531,Harrison County,MS,NA,70.73434125269978,41.96157735085945,NA
39553,Jackson County,MS,NA,NA,78.05864509605662,NA
39556,Hancock County,MS,NA,NA,91.20323559150657,NA
39560,Harrison County,MS,NA,NA,8.39231547017189,NA
39571,Harrison County,MS,NA,NA,92.01213346814964,74.1654571843251
39669,Wilkinson County,MS,NA,NA,96.96663296258848,NA
39705,Lowndes County,MS,NA,NA,79.77755308392315,NA
39740,Lowndes County,MS,NA,NA,99.49443882709808,NA
63020,Jefferson County,MO,87.27272727272727,NA,NA,NA
63021,St. Louis County,MO,NA,45.032397408207345,NA,11.611030478955007
63025,St. Louis County,MO,NA,NA,69.8685540950455,NA
63028,Jefferson County,MO,NA,25.48596112311015,NA,NA
63031,St. Louis County,MO,NA,NA,NA,10.014513788098693
63040,St. Louis County,MO,NA,NA,91.10212335692619,NA
63043,St. Louis County,MO,NA,NA,45.80384226491405,NA
63111,St. Louis city,MO,NA,67.27861771058315,NA,NA
63114,St. Louis County,MO,NA,NA,61.476238624873616,NA
63117,St. Louis County,MO,NA,NA,93.73104145601617,NA
63119,St. Louis County,MO,NA,NA,85.54095045500506,NA
63120,St. Louis city,MO,NA,64.90280777537797,NA,NA
63121,St. Louis County,MO,NA,NA,NA,97.24238026124819
63122,St. Louis County,MO,NA,NA,74.11526794742164,NA
63126,St. Louis County,MO,NA,95.03239740820734,NA,NA
63128,St. Louis County,MO,NA,NA,18.70576339737108,NA
63129,St. Louis County,MO,60.60606060606061,NA,NA,12.62699564586357
63131,St. Louis County,MO,NA,NA,70.77856420626895,NA
63136,St. Louis County,MO,NA,31.425485961123112,NA,NA
63143,St. Louis County,MO,NA,95.35637149028078,NA,NA
63301,St. Charles County,MO,15.757575757575756,NA,2.62891809908999,4.354136429608127
63303,St. Charles County,MO,NA,23.86609071274298,9.2012133468149635,NA
63304,St. Charles County,MO,NA,NA,NA,21.6255442670537
63343,Lincoln County,MO,NA,98.81209503239741,NA,NA
63368,St. Charles County,MO,NA,NA,18.200202224469162,55.29753265602322
63376,St. Charles County,MO,NA,NA,0.8088978766430739,NA
63379,Lincoln County,MO,NA,NA,NA,37.445573294629895
63628,St. Francois County,MO,NA,NA,60.66734074823054,NA
63640,St. Francois County,MO,37.57575757575757,NA,NA,NA
63660,Washington County,MO,NA,98.92008639308855,NA,NA
63664,Washington County,MO,NA,89.95680345572354,NA,NA
63701,Cape Girardeau County,MO,5.454545454545454,NA,NA,NA
63703,Cape Girardeau County,MO,NA,59.50323974082073,NA,NA
63755,Cape Girardeau County,MO,NA,64.79481641468684,NA,NA
63801,Scott County,MO,NA,NA,NA,22.35123367198839
64012,Cass County,MO,NA,NA,NA,41.509433962264154
64015,Jackson County,MO,NA,NA,13.852376137512639,NA
64050,Jackson County,MO,NA,48.488120950323975,14.155712841253793,NA
64053,Jackson County,MO,NA,79.91360691144709,NA,NA
64055,Jackson County,MO,NA,8.74730021598272,NA,NA
64067,Lafayette County,MO,NA,66.84665226781857,NA,NA
64068,Clay County,MO,NA,NA,5.25783619817998,NA
64081,Jackson County,MO,49.696969696969695,NA,NA,43.39622641509434
64106,Jackson County,MO,NA,NA,55.91506572295247,NA
64114,Jackson County,MO,NA,NA,39.02932254802831,NA
64118,Clay County,MO,NA,25.80993520518359,NA,NA
64124,Jackson County,MO,NA,NA,60.66734074823054,86.64731494920174
64127,Jackson County,MO,NA,7.127429805615551,NA,NA
64128,Jackson County,MO,NA,NA,NA,78.95500725689405
64133,Jackson County,MO,NA,22.67818574514039,NA,NA
64134,Jackson County,MO,NA,NA,NA,67.77939042089986
64151,Platte County,MO,NA,NA,48.23053589484327,NA
64152,Platte County,MO,18.787878787878785,20.41036717062635,NA,NA
64154,Platte County,MO,NA,73.32613390928726,NA,NA
64485,Andrew County,MO,NA,NA,NA,77.06821480406386
64506,Buchanan County,MO,NA,NA,32.0525783619818,19.3033381712627
64507,Buchanan County,MO,NA,26.78185745140389,NA,NA
64683,Grundy County,MO,NA,NA,57.0273003033367,NA
64701,Cass County,MO,NA,NA,56.4206268958544,NA
64804,Jasper County,MO,NA,17.92656587473002,7.280080889787664,NA
65078,Morgan County,MO,NA,NA,93.22548028311427,NA
65201,Boone County,MO,NA,NA,58.139534883720934,NA
65265,Audrain County,MO,NA,NA,NA,51.523947750362844
65301,Pettis County,MO,NA,64.68682505399568,6.471183013144591,NA
65332,Pettis County,MO,NA,99.78401727861771,NA,NA
65340,Saline County,MO,NA,35.20518358531318,NA,NA
65453,Crawford County,MO,NA,99.46004319654428,NA,NA
65536,Laclede County,MO,NA,NA,NA,30.043541364296082
65605,Lawrence County,MO,NA,75.48596112311014,NA,NA
65613,Polk County,MO,63.63636363636363,NA,NA,NA
65616,Taney County,MO,68.48484848484848,NA,NA,NA
65619,Greene County,MO,NA,NA,97.26996966632963,NA
65622,Dallas County,MO,NA,74.73002159827213,NA,NA
65656,Stone County,MO,NA,93.62850971922246,NA,NA
65714,Christian County,MO,32.121212121212125,NA,NA,NA
65738,Greene County,MO,88.48484848484848,NA,NA,NA
65775,Howell County,MO,43.63636363636363,NA,NA,52.685050798258345
59401,Cascade County,MT,NA,NA,63.29625884732053,NA
59602,Lewis and Clark County,MT,NA,59.827213822894166,NA,NA
59701,Silver Bow County,MT,NA,NA,36.19817997977755,NA
59711,Deer Lodge County,MT,NA,NA,61.57735085945399,NA
59714,Gallatin County,MT,NA,NA,83.3164812942366,NA
59715,Gallatin County,MT,NA,79.37365010799135,65.72295247724975,NA
59718,Gallatin County,MT,NA,NA,90.09100101112234,92.01741654571843
59725,Beaverhead County,MT,NA,90.17278617710583,NA,NA
59801,Missoula County,MT,NA,85.85313174946005,NA,NA
59840,Ravalli County,MT,NA,NA,54.60060667340748,NA
59901,Flathead County,MT,NA,32.82937365010799,NA,0.8708272859216255
59911,Flathead County,MT,NA,NA,NA,58.490566037735846
59912,Flathead County,MT,NA,72.57019438444925,NA,NA
59937,Flathead County,MT,NA,NA,NA,64.00580551523947
68025,Dodge County,NE,NA,NA,56.825075834175934,NA
68046,Sarpy County,NE,NA,NA,69.05965621840244,NA
68503,Lancaster County,NE,NA,NA,90.69767441860465,NA
68516,Lancaster County,NE,NA,NA,43.5793731041456,NA
68601,Platte County,NE,NA,NA,NA,57.47460087082729
68845,Buffalo County,NE,NA,NA,NA,96.37155297532655
69101,Lincoln County,NE,NA,58.639308855291574,NA,NA
89101,Clark County,NV,NA,29.589632829373652,NA,NA
89102,Clark County,NV,NA,NA,NA,76.48766328011611
89103,Clark County,NV,NA,NA,NA,65.02177068214804
89123,Clark County,NV,NA,54.967602591792655,NA,NA
89128,Clark County,NV,NA,53.34773218142549,NA,NA
89135,Clark County,NV,NA,NA,59.75733063700708,NA
89406,Churchill County,NV,NA,42.76457883369331,26.693629929221434,NA
89410,Douglas County,NV,NA,NA,28.412537917087967,NA
89431,Washoe County,NV,NA,NA,37.71486349848331,NA
89434,Washoe County,NV,NA,45.78833693304535,NA,NA
89436,Washoe County,NV,NA,NA,9.908998988877654,NA
89506,Washoe County,NV,NA,NA,NA,70.39187227866474
89508,Washoe County,NV,NA,NA,71.18301314459049,NA
89701,Carson City,NV,NA,39.740820734341256,41.15267947421638,NA
03037,Rockingham County,NH,100,NA,NA,NA
03053,Rockingham County,NH,NA,NA,NA,74.89114658925979
03062,Hillsborough County,NH,NA,NA,35.49039433771487,NA
03079,Rockingham County,NH,38.78787878787879,NA,NA,NA
03235,Merrimack County,NH,NA,NA,NA,48.47605224963715
03249,Belknap County,NH,NA,NA,66.93629929221436,NA
03301,Merrimack County,NH,NA,17.49460043196544,41.6582406471183,NA
03458,Hillsborough County,NH,NA,NA,76.64307381193125,NA
03766,Grafton County,NH,NA,NA,NA,53.70101596516691
03773,Sullivan County,NH,NA,NA,96.56218402426694,NA
03801,Rockingham County,NH,NA,NA,NA,91.72714078374456
03867,Strafford County,NH,NA,NA,23.761375126390295,NA
03870,Rockingham County,NH,NA,NA,84.42871587462083,NA
07012,Passaic County,NJ,NA,NA,95.44994944388272,NA
07024,Bergen County,NJ,NA,NA,NA,13.788098693759071
07040,Essex County,NJ,NA,NA,84.6309403437816,NA
07052,Essex County,NJ,NA,15.550755939524837,NA,NA
07076,Union County,NJ,75.75757575757575,NA,NA,NA
07108,Essex County,NJ,NA,44.16846652267819,NA,NA
07601,Bergen County,NJ,NA,7.343412526997841,NA,NA
07652,Bergen County,NJ,NA,NA,22.04246713852376,NA
07701,Monmouth County,NJ,NA,NA,65.92517694641052,NA
07727,Monmouth County,NJ,NA,NA,82.70980788675429,NA
07732,Monmouth County,NJ,NA,93.73650107991361,NA,NA
07869,Morris County,NJ,NA,NA,75.83417593528817,NA
07882,Warren County,NJ,NA,NA,53.38725985844287,NA
07936,Morris County,NJ,NA,NA,NA,84.61538461538461
07950,Morris County,NJ,NA,NA,71.7896865520728,NA
08033,Camden County,NJ,NA,NA,NA,67.63425253991292
08043,Camden County,NJ,NA,NA,19.211324570273003,NA
08051,Gloucester County,NJ,NA,60.475161987041034,NA,NA
08057,Burlington County,NJ,NA,62.09503239740821,NA,NA
08069,Salem County,NJ,NA,NA,NA,62.84470246734397
08087,Ocean County,NJ,45.45454545454545,19.546436285097194,NA,NA
08094,Gloucester County,NJ,NA,NA,9.30232558139535,NA
08204,Cape May County,NJ,NA,80.23758099352052,NA,NA
08221,Atlantic County,NJ,NA,NA,NA,90.13062409288824
08322,Gloucester County,NJ,NA,NA,77.35085945399393,NA
08401,Atlantic County,NJ,NA,11.01511879049676,NA,NA
08540,Mercer County,NJ,NA,NA,NA,33.81712626995646
08724,Ocean County,NJ,NA,NA,13.043478260869565,NA
08736,Monmouth County,NJ,NA,NA,94.03437815975732,NA
08742,Ocean County,NJ,48.484848484848484,NA,NA,NA
08753,Ocean County,NJ,10.909090909090908,NA,NA,14.078374455732948
08755,Ocean County,NJ,16.363636363636363,NA,NA,NA
08759,Ocean County,NJ,NA,NA,0.5055611729019212,0
08822,Hunterdon County,NJ,29.6969696969697,NA,NA,NA
08830,Middlesex County,NJ,78.18181818181819,NA,NA,NA
08833,Hunterdon County,NJ,98.18181818181819,NA,NA,NA
08844,Somerset County,NJ,NA,41.90064794816415,NA,NA
08854,Middlesex County,NJ,NA,NA,10.212335692618806,NA
87035,Torrance County,NM,NA,89.74082073434126,NA,NA
87106,Bernalillo County,NM,NA,22.570194384449245,NA,NA
87107,Bernalillo County,NM,NA,NA,NA,45.42815674891146
87108,Bernalillo County,NM,NA,NA,47.92719919110212,NA
87109,Bernalillo County,NM,NA,NA,64.91405460060668,NA
87111,Bernalillo County,NM,NA,4.427645788336933,NA,NA
87112,Bernalillo County,NM,NA,NA,8.291203235591507,NA
87114,Bernalillo County,NM,NA,33.585313174946,NA,NA
87121,Bernalillo County,NM,NA,5.075593952483802,NA,29.753265602322205
87123,Bernalillo County,NM,NA,NA,NA,20.4644412191582
87401,San Juan County,NM,NA,18.142548596112313,NA,NA
87505,Santa Fe County,NM,NA,5.939524838012959,NA,NA
88001,Doa Ana County,NM,NA,27.10583153347732,NA,NA
10001,New York County,NY,NA,NA,4.3478260869565215,NA
10002,New York County,NY,36.36363636363637,4.643628509719223,NA,NA
10009,New York County,NY,NA,NA,NA,81.13207547169812
10021,New York County,NY,NA,72.89416846652269,NA,NA
10023,New York County,NY,NA,NA,11.729019211324571,5.805515239477503
10024,New York County,NY,NA,NA,NA,6.531204644412192
10029,New York County,NY,NA,0.5399568034557235,NA,NA
10033,New York County,NY,NA,NA,50.45500505561172,NA
10451,Bronx County,NY,NA,NA,NA,8.417997097242381
10453,Bronx County,NY,NA,0.8639308855291578,NA,NA
10454,Bronx County,NY,NA,29.15766738660907,NA,NA
10456,Bronx County,NY,NA,0,NA,NA
10457,Bronx County,NY,NA,NA,0.40444893832153694,NA
10458,Bronx County,NY,NA,12.742980561555076,NA,NA
10459,Bronx County,NY,NA,5.723542116630669,NA,NA
10461,Bronx County,NY,NA,NA,14.964610717896864,NA
10462,Bronx County,NY,NA,49.35205183585313,NA,NA
10469,Bronx County,NY,NA,3.6717062634989204,5.358948432760364,NA
10472,Bronx County,NY,NA,2.4838012958963285,NA,NA
10549,Westchester County,NY,NA,NA,NA,87.80841799709724
10927,Rockland County,NY,NA,NA,92.11324570273003,NA
10989,Rockland County,NY,NA,NA,88.87765419615774,NA
11201,Kings County,NY,NA,93.41252699784017,NA,NA
11209,Kings County,NY,NA,NA,51.061678463094026,16.400580551523948
11210,Kings County,NY,NA,NA,18.402426693629927,NA
11212,Kings County,NY,NA,1.187904967602592,66.73407482305359,9.288824383164005
11214,Kings County,NY,NA,NA,NA,10.304789550072568
11218,Kings County,NY,NA,NA,NA,8.708272859216255
11223,Kings County,NY,NA,22.24622030237581,NA,NA
11236,Kings County,NY,NA,4.859611231101512,NA,NA
11372,Queens County,NY,NA,31.317494600431967,54.29726996966633,NA
11379,Queens County,NY,NA,NA,55.308392315470165,NA
11416,Queens County,NY,NA,50.9719222462203,NA,NA
11418,Queens County,NY,NA,NA,NA,47.46008708272859
11422,Queens County,NY,NA,NA,55.61172901921132,NA
11434,Queens County,NY,26.060606060606062,NA,NA,NA
11743,Suffolk County,NY,NA,74.51403887688986,NA,NA
11772,Suffolk County,NY,NA,NA,NA,43.2510885341074
11784,Suffolk County,NY,81.81818181818183,NA,NA,NA
11801,Nassau County,NY,NA,59.611231101511876,NA,NA
11951,Suffolk County,NY,72.12121212121212,NA,NA,NA
12180,Rensselaer County,NY,NA,46.32829373650108,NA,NA
12188,Saratoga County,NY,NA,NA,77.95753286147624,NA
12529,Columbia County,NY,NA,NA,98.685540950455,NA
12549,Orange County,NY,NA,94.16846652267819,NA,NA
12804,Warren County,NY,NA,9.1792656587473,NA,NA
12912,Clinton County,NY,NA,NA,97.77553083923155,NA
12962,Clinton County,NY,NA,NA,69.66632962588474,NA
13031,Onondaga County,NY,NA,96.00431965442765,53.48837209302325,NA
13035,Madison County,NY,NA,84.34125269978402,NA,NA
13066,Onondaga County,NY,NA,NA,NA,77.6487663280116
13069,Oswego County,NY,NA,6.263498920086392,NA,NA
13076,Oswego County,NY,NA,96.43628509719223,NA,NA
13090,Onondaga County,NY,NA,16.414686825053995,NA,NA
13202,Onondaga County,NY,NA,60.79913606911447,NA,NA
13210,Onondaga County,NY,NA,NA,66.53185035389282,NA
13215,Onondaga County,NY,NA,NA,NA,73.58490566037736
13309,Oneida County,NY,NA,67.71058315334774,NA,NA
13326,Otsego County,NY,NA,NA,53.99393326592518,NA
13346,Madison County,NY,NA,NA,51.2639029322548,NA
13350,Herkimer County,NY,NA,NA,30.535894843276033,NA
13365,Herkimer County,NY,NA,34.34125269978402,NA,NA
13403,Oneida County,NY,NA,NA,NA,93.46879535558782
13662,St. Lawrence County,NY,NA,NA,NA,39.912917271407835
13754,Broome County,NY,NA,71.38228941684666,NA,NA
13760,Broome County,NY,NA,1.2958963282937366,NA,NA
13790,Broome County,NY,NA,10.043196544276457,NA,NA
13827,Tioga County,NY,NA,57.77537796976242,NA,NA
13850,Broome County,NY,NA,NA,NA,5.079825834542816
13905,Broome County,NY,NA,NA,3.5389282103134483,NA
14020,Genesee County,NY,NA,12.311015118790497,NA,NA
14150,Erie County,NY,NA,NA,NA,22.35123367198839
14227,Erie County,NY,NA,25.161987041036717,NA,NA
14305,Niagara County,NY,NA,NA,NA,84.47024673439768
14422,Genesee County,NY,NA,97.51619870410367,NA,NA
14424,Ontario County,NY,NA,3.2397408207343417,NA,NA
14428,Monroe County,NY,NA,74.94600431965442,NA,NA
14450,Monroe County,NY,12.727272727272727,NA,NA,NA
14469,Ontario County,NY,NA,NA,51.66835187057634,NA
14482,Genesee County,NY,NA,NA,NA,99.12917271407838
14489,Wayne County,NY,NA,33.261339092872575,NA,83.16400580551525
14502,Wayne County,NY,NA,28.401727861771057,NA,NA
14514,Monroe County,NY,54.54545454545454,88.33693304535637,NA,NA
14522,Wayne County,NY,NA,34.01727861771058,NA,NA
14526,Monroe County,NY,13.939393939393941,NA,NA,NA
14527,Yates County,NY,NA,27.429805615550755,NA,NA
14534,Monroe County,NY,NA,7.559395248380129,NA,5.660377358490567
14559,Monroe County,NY,NA,38.98488120950324,NA,33.52685050798258
14568,Wayne County,NY,NA,66.52267818574515,NA,NA
14580,Monroe County,NY,NA,7.775377969762419,0.10111223458038424,NA
14589,Wayne County,NY,NA,34.88120950323974,NA,NA
14605,Monroe County,NY,NA,9.611231101511878,NA,NA
14606,Monroe County,NY,NA,NA,9.80788675429727,NA
14607,Monroe County,NY,NA,78.07775377969762,NA,NA
14608,Monroe County,NY,NA,13.282937365010799,NA,NA
14609,Monroe County,NY,NA,0.4319654427645789,NA,NA
14611,Monroe County,NY,36.96969696969697,7.991360691144708,NA,NA
14612,Monroe County,NY,NA,2.375809935205184,NA,NA
14613,Monroe County,NY,NA,NA,31.243680485338725,NA
14615,Monroe County,NY,NA,11.447084233261338,NA,NA
14619,Monroe County,NY,NA,14.47084233261339,NA,NA
14620,Monroe County,NY,NA,68.89848812095032,NA,NA
14621,Monroe County,NY,NA,0.6479481641468683,NA,NA
14624,Monroe County,NY,NA,NA,1.0111223458038423,NA
14626,Monroe County,NY,NA,NA,2.932254802831143,9.869375907111756
14830,Steuben County,NY,NA,24.51403887688985,NA,NA
27012,Forsyth County,NC,NA,31.533477321814257,NA,NA
27013,Rowan County,NC,NA,NA,NA,91.58200290275762
27023,Forsyth County,NC,NA,NA,54.39838220424671,NA
27025,Rockingham County,NC,NA,NA,NA,56.74891146589259
27028,Davie County,NC,78.78787878787878,NA,NA,NA
27030,Surry County,NC,NA,62.52699784017278,NA,NA
27043,Stokes County,NC,NA,NA,NA,89.98548621190132
27051,Forsyth County,NC,NA,77.10583153347731,NA,NA
27055,Yadkin County,NC,42.42424242424242,NA,NA,NA
27101,Forsyth County,NC,NA,NA,89.28210313447927,NA
27103,Forsyth County,NC,NA,NA,7.077856420626897,34.542815674891145
27104,Forsyth County,NC,NA,NA,4.853387259858443,NA
27106,Forsyth County,NC,NA,72.78617710583153,NA,NA
27107,Forsyth County,NC,NA,4.967602591792657,NA,NA
27127,Forsyth County,NC,NA,46.54427645788337,22.75025278058645,35.55878084179971
27217,Alamance County,NC,NA,13.606911447084233,8.59453993933266,NA
27278,Orange County,NC,NA,NA,75.22750252780587,NA
27288,Rockingham County,NC,NA,13.714902807775378,NA,NA
27292,Davidson County,NC,11.515151515151516,5.183585313174946,9.706774519716886,7.837445573294629
27295,Davidson County,NC,NA,4.535637149028078,NA,58.055152394775035
27302,Alamance County,NC,49.09090909090909,NA,NA,NA
27312,Chatham County,NC,NA,NA,NA,19.15820029027576
27332,Lee County,NC,NA,NA,73.91304347826086,NA
27344,Chatham County,NC,NA,NA,40.24266936299292,NA
27360,Davidson County,NC,NA,NA,3.4378159757330633,NA
27370,Randolph County,NC,NA,NA,55.81395348837209,NA
27379,Caswell County,NC,NA,NA,75.0252780586451,NA
27502,Wake County,NC,NA,62.31101511879049,37.613751263902934,NA
27511,Wake County,NC,91.51515151515152,NA,NA,NA
27513,Wake County,NC,NA,90.71274298056156,49.646107178968656,82.72859216255442
27514,Orange County,NC,NA,NA,25.68250758341759,NA
27517,Orange County,NC,NA,56.47948164146869,NA,NA
27519,Wake County,NC,NA,76.45788336933045,NA,NA
27529,Wake County,NC,NA,25.593952483801296,NA,NA
27536,Vance County,NC,NA,30.021598272138228,NA,NA
27537,Vance County,NC,NA,NA,23.053589484327603,NA
27539,Wake County,NC,NA,NA,59.95955510616785,NA
27574,Person County,NC,NA,NA,NA,70.10159651669086
27583,Person County,NC,81.21212121212122,NA,NA,NA
27604,Wake County,NC,NA,NA,70.17189079878665,NA
27607,Wake County,NC,NA,85.96112311015118,NA,NA
27609,Wake County,NC,NA,NA,64.1051567239636,NA
27613,Wake County,NC,NA,77.10583153347731,NA,NA
27617,Wake County,NC,NA,NA,70.4752275025278,NA
27703,Durham County,NC,NA,NA,39.635995955510616,28.011611030478957
27704,Durham County,NC,NA,11.663066954643629,NA,NA
27705,Durham County,NC,NA,NA,61.071789686552066,NA
27712,Durham County,NC,NA,70.95032397408207,NA,NA
27713,Durham County,NC,NA,25.05399568034557,NA,NA
27886,Edgecombe County,NC,NA,NA,41.354903943377145,NA
27909,Pasquotank County,NC,NA,NA,10.111223458038422,NA
27948,Dare County,NC,56.36363636363636,NA,NA,NA
27949,Dare County,NC,NA,NA,96.35995955510617,NA
27962,Washington County,NC,NA,70.08639308855291,NA,NA
28021,Gaston County,NC,NA,56.69546436285097,NA,NA
28023,Rowan County,NC,NA,NA,51.870576339737106,NA
28025,Cabarrus County,NC,NA,11.123110151187905,NA,NA
28031,Mecklenburg County,NC,NA,NA,40.44489383215369,66.90856313497822
28054,Gaston County,NC,NA,NA,23.356926188068755,NA
28112,Union County,NC,NA,NA,33.06370070778564,NA
28138,Rowan County,NC,NA,63.06695464362851,NA,NA
28139,Rutherford County,NC,NA,NA,54.70171890798786,NA
28173,Union County,NC,NA,40.28077753779697,NA,NA
28205,Mecklenburg County,NC,NA,20.734341252699785,NA,50.79825834542816
28209,Mecklenburg County,NC,NA,NA,88.4732052578362,97.09724238026125
28210,Mecklenburg County,NC,NA,NA,NA,70.24673439767778
28211,Mecklenburg County,NC,NA,31.749460043196542,NA,NA
28216,Mecklenburg County,NC,NA,NA,12.740141557128412,NA
28270,Mecklenburg County,NC,NA,NA,NA,91.29172714078373
28277,Mecklenburg County,NC,NA,NA,NA,32.22060957910015
28303,Cumberland County,NC,NA,NA,NA,49.92743105950653
28304,Cumberland County,NC,33.33333333333333,NA,NA,NA
28306,Bladen County,NC,NA,NA,32.25480283114257,NA
28327,Moore County,NC,NA,NA,NA,73.29462989840349
28334,Sampson County,NC,NA,NA,25.075834175935285,NA
28383,Robeson County,NC,NA,80.99352051835854,NA,NA
28411,New Hanover County,NC,NA,37.04103671706264,NA,NA
28451,Brunswick County,NC,34.54545454545455,NA,20.626895854398384,NA
28468,Brunswick County,NC,NA,NA,88.57431749241658,NA
28513,Pitt County,NC,NA,NA,74.31749241658241,NA
28532,Craven County,NC,NA,93.30453563714903,NA,NA
28604,Watauga County,NC,NA,NA,88.16986855409505,NA
28605,Watauga County,NC,NA,90.38876889848812,NA,NA
28607,Watauga County,NC,NA,NA,34.98483316481295,NA
28638,Caldwell County,NC,NA,NA,92.82103134479271,NA
28645,Caldwell County,NC,NA,20.950323974082075,65.52072800808898,2.1770682148040637
28650,Catawba County,NC,NA,65.65874730021598,NA,NA
28655,Burke County,NC,NA,6.695464362850973,21.941354903943378,41.07402031930334
28658,Catawba County,NC,NA,NA,38.82709807886754,NA
28694,Ashe County,NC,NA,NA,NA,78.51959361393324
28711,Buncombe County,NC,NA,NA,95.65217391304348,NA
28712,Transylvania County,NC,NA,NA,66.83518705763397,NA
28713,Swain County,NC,NA,NA,NA,70.82728592162555
28723,Jackson County,NC,NA,90.06479481641469,NA,NA
28739,Henderson County,NC,NA,94.06047516198704,10.819009100101113,13.20754716981132
28752,McDowell County,NC,NA,NA,NA,29.898403483309146
28759,Henderson County,NC,NA,NA,NA,57.9100145137881
28785,Haywood County,NC,NA,NA,62.08291203235592,77.2133526850508
28791,Henderson County,NC,NA,NA,24.3680485338726,18.432510885341074
28806,Buncombe County,NC,NA,NA,NA,37.010159651669085
28906,Cherokee County,NC,NA,NA,NA,24.528301886792452
58078,Cass County,ND,NA,NA,64.20626895854399,21.480406386066765
58103,Cass County,ND,NA,NA,1.5166835187057632,20.029027576197386
58104,Cass County,ND,NA,32.39740820734342,NA,46.879535558780844
58201,Grand Forks County,ND,NA,NA,74.51971688574316,67.9245283018868
58237,Walsh County,ND,NA,91.792656587473,NA,NA
58501,Burleigh County,ND,NA,79.6976241900648,NA,NA
58503,Burleigh County,ND,NA,NA,NA,10.88534107402032
58554,Morton County,ND,NA,NA,77.5530839231547,NA
58601,Stark County,ND,NA,NA,NA,43.10595065312046
58701,Ward County,ND,NA,NA,NA,2.0319303338171264
43004,Franklin County,OH,NA,42.98056155507559,NA,NA
43017,Franklin County,OH,NA,85.42116630669547,NA,37.15529753265602
43050,Knox County,OH,NA,8.315334773218144,NA,10.159651669085632
43125,Franklin County,OH,NA,71.59827213822895,NA,NA
43130,Fairfield County,OH,NA,1.9438444924406046,NA,NA
43202,Franklin County,OH,NA,NA,80.38422649140546,NA
43209,Franklin County,OH,NA,NA,NA,45.86357039187228
43211,Franklin County,OH,NA,38.120950323974085,NA,65.16690856313497
43214,Franklin County,OH,NA,NA,42.06268958543984,NA
43215,Franklin County,OH,NA,NA,92.11324570273003,NA
43220,Franklin County,OH,NA,NA,NA,42.815674891146585
43224,Franklin County,OH,24.242424242424242,NA,NA,NA
43232,Franklin County,OH,NA,4.751619870410368,NA,NA
43326,Hardin County,OH,NA,51.511879049676025,NA,NA
43338,Morrow County,OH,NA,NA,56.117290192113245,NA
43452,Ottawa County,OH,NA,NA,30.030333670374116,NA
43502,Fulton County,OH,NA,82.93736501079914,NA,NA
43528,Lucas County,OH,NA,89.30885529157668,NA,NA
43571,Lucas County,OH,NA,NA,76.23862487360971,NA
43606,Lucas County,OH,NA,NA,63.094034378159755,NA
43608,Lucas County,OH,NA,9.287257019438446,NA,NA
43609,Lucas County,OH,NA,5.615550755939525,NA,NA
43612,Lucas County,OH,3.6363636363636362,NA,NA,NA
43613,Lucas County,OH,NA,NA,20.525783619817997,NA
43615,Lucas County,OH,NA,NA,3.2355915065722956,11.175616835994195
43724,Noble County,OH,NA,NA,73.0030333670374,NA
43812,Coshocton County,OH,NA,NA,NA,47.16981132075472
43845,Coshocton County,OH,NA,NA,73.81193124368049,NA
43906,Belmont County,OH,NA,NA,NA,61.393323657474596
43920,Columbiana County,OH,NA,NA,8.493427704752275,NA
43935,Belmont County,OH,NA,50,NA,NA
43953,Jefferson County,OH,NA,NA,NA,40.05805515239477
44001,Lorain County,OH,51.515151515151516,62.95896328293736,NA,NA
44004,Ashtabula County,OH,NA,2.699784017278618,16.78463094034378,1.5965166908563133
44011,Lorain County,OH,NA,32.18142548596112,NA,44.55732946298984
44012,Lorain County,OH,NA,NA,NA,10.449927431059507
44022,Cuyahoga County,OH,NA,83.36933045356372,23.96359959555106,24.963715529753266
44023,Geauga County,OH,NA,68.46652267818575,NA,NA
44026,Geauga County,OH,NA,NA,48.129423660262894,NA
44030,Ashtabula County,OH,NA,23.434125269978402,NA,NA
44035,Lorain County,OH,0,42.22462203023758,6.875631951466127,15.674891146589259
44044,Lorain County,OH,NA,50.863930885529165,35.99595551061678,NA
44047,Ashtabula County,OH,69.0909090909091,NA,NA,NA
44052,Lorain County,OH,NA,NA,14.661274014155712,9.433962264150944
44053,Lorain County,OH,NA,NA,86.85540950455005,56.16835994194484
44055,Lorain County,OH,NA,55.83153347732181,NA,NA
44057,Lake County,OH,NA,NA,14.35793731041456,NA
44060,Lake County,OH,NA,NA,17.99797775530839,NA
44076,Ashtabula County,OH,NA,NA,92.41658240647118,NA
44089,Erie County,OH,NA,69.3304535637149,NA,NA
44090,Lorain County,OH,NA,NA,40.34378159757331,NA
44094,Lake County,OH,NA,NA,NA,17.126269956458636
44095,Lake County,OH,NA,NA,57.633973710819006,NA
44102,Cuyahoga County,OH,NA,0.10799136069114472,NA,NA
44103,Cuyahoga County,OH,NA,NA,42.366026289180994,NA
44105,Cuyahoga County,OH,NA,7.235421166306695,4.954499494438827,4.2089985486211905
44107,Cuyahoga County,OH,NA,44.06047516198704,NA,NA
44109,Cuyahoga County,OH,NA,0.32397408207343414,NA,NA
44116,Cuyahoga County,OH,NA,NA,24.469160768452983,NA
44118,Cuyahoga County,OH,NA,NA,NA,7.256894049346879
44120,Cuyahoga County,OH,NA,NA,NA,12.772133526850507
44122,Cuyahoga County,OH,NA,23.974082073434126,NA,32.365747460087086
44123,Cuyahoga County,OH,NA,29.049676025917925,NA,NA
44124,Cuyahoga County,OH,NA,25.70194384449244,2.0222446916076846,NA
44125,Cuyahoga County,OH,NA,NA,7.886754297269969,11.901306240928882
44130,Cuyahoga County,OH,6.666666666666667,23.218142548596113,NA,0.43541364296081275
44134,Cuyahoga County,OH,NA,NA,15.166835187057634,5.950653120464441
44136,Cuyahoga County,OH,NA,NA,6.167846309403438,NA
44137,Cuyahoga County,OH,NA,NA,NA,30.333817126269956
44138,Cuyahoga County,OH,NA,33.36933045356372,NA,NA
44140,Cuyahoga County,OH,NA,NA,85.9453993933266,NA
44142,Cuyahoga County,OH,NA,NA,85.74317492416583,NA
44143,Cuyahoga County,OH,NA,NA,11.526794742163801,2.3222060957910013
44144,Cuyahoga County,OH,NA,NA,33.46814964610718,45.28301886792453
44145,Cuyahoga County,OH,NA,NA,NA,29.027576197387518
44149,Cuyahoga County,OH,NA,NA,48.33164812942366,NA
44202,Portage County,OH,NA,NA,50.353892821031344,NA
44203,Summit County,OH,NA,NA,6.673407482305358,NA
44221,Summit County,OH,NA,14.686825053995682,NA,NA
44236,Summit County,OH,NA,NA,NA,86.35703918722787
44240,Portage County,OH,NA,61.77105831533477,52.07280080889788,NA
44241,Portage County,OH,NA,NA,17.492416582406474,NA
44278,Summit County,OH,NA,NA,NA,47.60522496371553
44301,Summit County,OH,NA,NA,48.93832153690597,NA
44305,Summit County,OH,NA,14.146868250539956,NA,NA
44310,Summit County,OH,NA,37.580993520518355,NA,NA
44320,Summit County,OH,NA,17.386609071274297,NA,NA
44406,Mahoning County,OH,23.03030303030303,NA,NA,NA
44420,Trumbull County,OH,66.66666666666666,NA,NA,NA
44473,Trumbull County,OH,NA,NA,83.51870576339738,NA
44504,Mahoning County,OH,NA,82.39740820734342,NA,NA
44601,Stark County,OH,NA,31.101511879049674,6.976744186046512,NA
44685,Summit County,OH,NA,NA,NA,65.74746008708273
44691,Wayne County,OH,NA,8.531317494600433,NA,NA
44720,Stark County,OH,NA,30.45356371490281,NA,NA
44833,Crawford County,OH,41.21212121212121,NA,NA,NA
44870,Erie County,OH,NA,2.267818574514039,1.820020222446916,NA
44883,Seneca County,OH,73.33333333333333,NA,NA,NA
44889,Huron County,OH,NA,NA,56.4206268958544,NA
44890,Huron County,OH,NA,NA,56.62285136501517,NA
44903,Richland County,OH,NA,19.43844492440605,NA,NA
45011,Butler County,OH,NA,2.915766738660907,2.5278058645096055,NA
45013,Butler County,OH,NA,3.8876889848812093,NA,NA
45036,Warren County,OH,NA,55.399568034557234,NA,NA
45042,Butler County,OH,NA,NA,33.67037411526795,NA
45044,Butler County,OH,1.2121212121212122,NA,NA,NA
45106,Clermont County,OH,NA,51.83585313174947,NA,NA
45133,Highland County,OH,NA,NA,17.087967644084934,NA
45150,Clermont County,OH,NA,NA,26.59251769464105,NA
45154,Brown County,OH,NA,NA,NA,91.00145137880988
45206,Hamilton County,OH,NA,56.2634989200864,NA,83.45428156748912
45211,Hamilton County,OH,NA,9.935205183585314,NA,NA
45215,Hamilton County,OH,NA,NA,NA,35.703918722786646
45223,Hamilton County,OH,40.60606060606061,NA,NA,NA
45238,Hamilton County,OH,NA,73.6501079913607,NA,NA
45239,Hamilton County,OH,NA,16.954643628509718,NA,NA
45240,Hamilton County,OH,NA,NA,41.75935288169869,NA
45255,Hamilton County,OH,NA,67.06263498920086,NA,NA
45322,Montgomery County,OH,NA,40.71274298056156,NA,NA
45327,Montgomery County,OH,NA,95.46436285097192,NA,NA
45341,Clark County,OH,95.75757575757575,NA,NA,NA
45342,Montgomery County,OH,NA,NA,7.987866531850354,26.124818577648767
45385,Greene County,OH,NA,NA,6.774519716885743,NA
45404,Montgomery County,OH,NA,NA,86.65318503538928,NA
45405,Montgomery County,OH,NA,24.73002159827214,NA,NA
45406,Montgomery County,OH,NA,15.334773218142548,NA,NA
45414,Montgomery County,OH,25.454545454545453,NA,NA,NA
45420,Montgomery County,OH,NA,NA,37.917087967644086,NA
45426,Montgomery County,OH,NA,NA,33.67037411526795,NA
45458,Montgomery County,OH,NA,83.47732181425485,NA,82.00290275761974
45459,Montgomery County,OH,NA,NA,NA,20.899854862119014
45601,Ross County,OH,NA,NA,NA,1.741654571843251
45613,Pike County,OH,NA,NA,99.89888776541962,NA
45619,Lawrence County,OH,NA,28.725701943844495,NA,NA
45640,Jackson County,OH,NA,NA,4.550050556117291,15.384615384615385
45656,Jackson County,OH,NA,NA,60.86956521739131,NA
45657,Scioto County,OH,NA,NA,97.97775530839232,NA
45662,Scioto County,OH,NA,17.60259179265659,15.369059656218404,28.737300435413644
45669,Lawrence County,OH,NA,NA,NA,63.42525399129173
45690,Pike County,OH,NA,17.71058315334773,13.549039433771487,NA
45693,Adams County,OH,NA,NA,72.3963599595551,NA
45732,Athens County,OH,NA,91.25269978401728,NA,NA
45750,Washington County,OH,NA,NA,0.3033367037411527,1.8867924528301887
45801,Allen County,OH,NA,11.771058315334773,NA,NA
45840,Hancock County,OH,NA,NA,16.98685540950455,NA
73012,Oklahoma County,OK,NA,NA,44.893832153690596,NA
73018,Grady County,OK,NA,NA,63.19514661274014,NA
73020,Oklahoma County,OK,NA,42.11663066954643,NA,NA
73034,Oklahoma County,OK,33.939393939393945,NA,NA,NA
73044,Logan County,OK,NA,NA,NA,47.02467343976778
73071,Cleveland County,OK,NA,NA,12.032355915065724,NA
73072,Cleveland County,OK,NA,NA,NA,39.33236574746009
73084,Oklahoma County,OK,NA,NA,82.0020222446916,NA
73096,Custer County,OK,NA,NA,75.42972699696662,NA
73099,Canadian County,OK,NA,NA,4.752275025278059,NA
73120,Oklahoma County,OK,NA,NA,NA,53.55587808417997
73132,Oklahoma County,OK,NA,NA,NA,75.47169811320755
73142,Oklahoma County,OK,NA,NA,NA,61.97387518142236
73159,Oklahoma County,OK,NA,NA,22.649140546006066,NA
73160,Cleveland County,OK,NA,NA,NA,14.368650217706822
73401,Carter County,OK,NA,13.822894168466524,NA,NA
73460,Johnston County,OK,NA,NA,61.880687563195146,NA
73501,Comanche County,OK,NA,58.42332613390929,NA,NA
73507,Comanche County,OK,NA,47.51619870410367,NA,NA
73521,Jackson County,OK,NA,NA,NA,80.84179970972424
73533,Stephens County,OK,NA,22.786177105831534,NA,NA
73554,Greer County,OK,NA,NA,99.19110212335693,NA
74003,Osage County,OK,NA,86.60907127429806,NA,NA
74006,Washington County,OK,NA,57.55939524838013,69.66632962588474,NA
74012,Tulsa County,OK,NA,NA,NA,13.062409288824384
74015,Rogers County,OK,NA,NA,86.04651162790698,NA
74016,Rogers County,OK,NA,NA,90.49544994944388,NA
74029,Washington County,OK,NA,91.68466522678186,91.50657229524772,NA
74036,Rogers County,OK,NA,NA,76.9464105156724,NA
74048,Nowata County,OK,NA,NA,NA,93.32365747460088
74056,Osage County,OK,NA,98.0561555075594,NA,NA
74063,Tulsa County,OK,NA,NA,68.75631951466129,NA
74070,Osage County,OK,NA,NA,NA,91.00145137880988
74107,Tulsa County,OK,NA,NA,67.23963599595551,NA
74112,Tulsa County,OK,NA,56.803455723542115,NA,NA
74115,Tulsa County,OK,NA,41.14470842332613,NA,NA
74127,Tulsa County,OK,NA,63.93088552915766,NA,NA
74129,Tulsa County,OK,NA,57.66738660907127,NA,NA
74133,Tulsa County,OK,NA,65.2267818574514,NA,NA
74136,Tulsa County,OK,NA,NA,NA,68.3599419448476
74145,Tulsa County,OK,NA,NA,60.06066734074823,NA
74301,Craig County,OK,84.24242424242424,NA,NA,NA
74344,Delaware County,OK,NA,74.29805615550757,NA,NA
74352,Mayes County,OK,NA,NA,78.26086956521739,NA
74451,Cherokee County,OK,NA,NA,NA,95.50072568940493
74728,McCurtain County,OK,NA,NA,NA,79.9709724238026
74851,Pottawatomie County,OK,NA,76.67386609071274,NA,NA
74960,Adair County,OK,NA,26.673866090712746,NA,NA
97006,Washington County,OR,NA,NA,28.2103134479272,NA
97009,Clackamas County,OR,NA,NA,78.66531850353893,NA
97015,Clackamas County,OR,NA,NA,NA,72.42380261248186
97016,Columbia County,OR,NA,NA,89.0798786653185,NA
97030,Multnomah County,OR,NA,18.57451403887689,NA,NA
97031,Hood River County,OR,NA,69.65442764578835,NA,NA
97034,Clackamas County,OR,NA,NA,55.61172901921132,NA
97045,Clackamas County,OR,NA,14.794816414686826,NA,53.12046444121916
97070,Clackamas County,OR,NA,NA,NA,96.5166908563135
97078,Washington County,OR,61.212121212121204,NA,NA,NA
97103,Clatsop County,OR,NA,NA,43.68048533872599,NA
97123,Washington County,OR,NA,NA,45.096056622851364,26.850507982583455
97141,Tillamook County,OR,NA,86.39308855291577,51.46612740141558,NA
97202,Multnomah County,OR,NA,NA,NA,78.66473149492018
97209,Multnomah County,OR,NA,69.97840172786177,NA,NA
97220,Multnomah County,OR,NA,35.96112311015119,NA,NA
97225,Washington County,OR,NA,72.13822894168467,NA,NA
97239,Multnomah County,OR,NA,87.14902807775377,NA,NA
97301,Marion County,OR,NA,NA,21.03134479271992,NA
97302,Marion County,OR,NA,NA,NA,67.48911465892597
97305,Marion County,OR,NA,NA,45.90495449949444,NA
97306,Marion County,OR,NA,58.31533477321814,NA,NA
97321,Linn County,OR,NA,NA,74.62082912032356,80.6966618287373
97351,Polk County,OR,NA,73.97408207343412,NA,NA
97370,Benton County,OR,NA,97.0842332613391,NA,NA
97386,Linn County,OR,NA,NA,70.37411526794742,NA
97401,Lane County,OR,NA,NA,NA,40.9288824383164
97402,Lane County,OR,NA,NA,NA,13.497822931785198
97405,Lane County,OR,NA,NA,NA,52.97532656023222
97423,Coos County,OR,92.12121212121212,NA,NA,NA
97439,Lane County,OR,NA,NA,NA,21.91582002902758
97471,Douglas County,OR,NA,NA,4.448938321536906,NA
97496,Douglas County,OR,NA,57.88336933045356,NA,NA
97502,Jackson County,OR,NA,NA,17.89686552072801,NA
97504,Jackson County,OR,NA,21.922246220302377,10.51567239635996,6.095791001451379
97601,Klamath County,OR,NA,NA,40.04044489383215,NA
97701,Deschutes County,OR,NA,NA,45.096056622851364,NA
97756,Deschutes County,OR,NA,69.43844492440606,NA,NA
97760,Jefferson County,OR,NA,NA,81.59757330637008,NA
97801,Umatilla County,OR,NA,35.097192224622034,NA,21.77068214804064
97850,Union County,OR,NA,41.360691144708426,NA,NA
97914,Malheur County,OR,NA,24.406047516198704,NA,NA
15010,Beaver County,PA,NA,22.4622030237581,NA,NA
15116,Allegheny County,PA,NA,NA,82.0020222446916,NA
15139,Allegheny County,PA,NA,96.652267818574515,NA,NA
15146,Allegheny County,PA,NA,NA,28.91809908998989,NA
15202,Allegheny County,PA,NA,54.21166306695464,NA,NA
15212,Allegheny County,PA,NA,25.26997840172786,NA,NA
15215,Allegheny County,PA,NA,92.7645788336933,NA,NA
15235,Allegheny County,PA,NA,NA,NA,11.756168359941945
15243,Allegheny County,PA,NA,NA,73.30637007077856,NA
15301,Washington County,PA,NA,81.10151187904968,NA,NA
15317,Washington County,PA,NA,30.561555075593954,NA,NA
15613,Westmoreland County,PA,NA,65.98272138228943,NA,NA
15701,Indiana County,PA,NA,NA,13.751263902932253,NA
15801,Clearfield County,PA,NA,NA,NA,3.7735849056603774
15931,Cambria County,PA,NA,68.68250539956804,NA,NA
16001,Butler County,PA,NA,4.103671706263499,NA,NA
16146,Mercer County,PA,NA,NA,84.83316481294236,31.64005805515239
16229,Armstrong County,PA,NA,91.03671706263499,NA,NA
16323,Venango County,PA,NA,54.42764578833693,NA,NA
16335,Crawford County,PA,NA,NA,NA,23.802612481857764
16417,Erie County,PA,NA,80.34557235421165,NA,NA
16503,Erie County,PA,NA,35.85313174946004,NA,NA
16506,Erie County,PA,NA,67.81857451403887,NA,NA
16508,Erie County,PA,NA,54.42764578833693,NA,NA
16511,Erie County,PA,NA,92.33261339092873,NA,NA
16601,Blair County,PA,NA,10.151187904967603,NA,NA
16801,Centre County,PA,NA,40.49676025917927,NA,NA
16841,Centre County,PA,NA,NA,NA,78.80986937590711
17013,Cumberland County,PA,NA,21.814254859611232,NA,NA
17015,Cumberland County,PA,NA,45.248380129589634,27.098078867542974,NA
17019,York County,PA,NA,NA,76.54196157735086,NA
17050,Cumberland County,PA,NA,23.542116630669547,NA,NA
17070,Cumberland County,PA,NA,46.436285097192226,NA,NA
17111,Dauphin County,PA,NA,NA,5.055611729019211,NA
17112,Dauphin County,PA,NA,18.03455723542117,NA,NA
17225,Franklin County,PA,NA,NA,NA,57.18432510885341
17236,Franklin County,PA,NA,NA,68.95854398382204,NA
17331,York County,PA,8.484848484848486,NA,NA,NA
17403,York County,PA,NA,NA,2.1233569261880687,NA
17404,York County,PA,NA,41.03671706263499,NA,NA
17408,York County,PA,NA,NA,NA,18.722786647314948
17522,Lancaster County,PA,NA,26.241900647948164,NA,NA
17532,Lancaster County,PA,NA,NA,99.59555106167846,NA
17545,Lancaster County,PA,NA,NA,28.71587462082912,NA
17603,Lancaster County,PA,NA,34.77321814254859,NA,10.595065312046444
17701,Lycoming County,PA,NA,NA,49.54499494438827,8.272859216255442
17728,Lycoming County,PA,NA,NA,67.54297269969666,NA
17801,Northumberland County,PA,NA,21.382289416846653,53.1850353892821,NA
17815,Columbia County,PA,NA,17.17062634989201,NA,17.851959361393323
17824,Northumberland County,PA,NA,NA,72.29524772497471,NA
17842,Snyder County,PA,NA,NA,NA,76.77793904208998
17870,Snyder County,PA,NA,NA,NA,42.0899854862119
17901,Schuylkill County,PA,NA,26.34989200863931,NA,NA
17921,Schuylkill County,PA,NA,NA,83.82204246713853,NA
17922,Schuylkill County,PA,NA,94.27645788336933,NA,NA
18040,Northampton County,PA,NA,NA,NA,43.83164005805516
18042,Northampton County,PA,NA,6.587473002159827,NA,NA
18049,Lehigh County,PA,NA,45.57235421166307,NA,NA
18062,Lehigh County,PA,NA,46.97624190064795,NA,NA
18104,Lehigh County,PA,NA,NA,3.1344792719919106,NA
18201,Luzerne County,PA,NA,NA,20.82912032355915,NA
18224,Luzerne County,PA,98.7878787878788,NA,NA,NA
18353,Monroe County,PA,NA,NA,59.555106167846304,NA
18431,Wayne County,PA,NA,63.714902807775374,NA,NA
18512,Lackawanna County,PA,NA,NA,72.90192113245702,NA
18603,Columbia County,PA,NA,NA,NA,46.44412191582003
18634,Luzerne County,PA,NA,44.9244060475162,NA,NA
18706,Luzerne County,PA,NA,NA,32.659251769464106,NA
18707,Luzerne County,PA,NA,59.179265658747305,NA,NA
18929,Bucks County,PA,NA,NA,76.23862487360971,NA
19004,Montgomery County,PA,NA,NA,NA,73.7300435413643
19010,Delaware County,PA,NA,58.747300215982726,NA,48.62119013062409
19050,Delaware County,PA,NA,29.805615550755938,NA,NA
19073,Delaware County,PA,NA,NA,31.749241658240646,NA
19074,Delaware County,PA,NA,87.58099352051836,NA,NA
19083,Delaware County,PA,NA,NA,11.02123356926188,NA
19086,Delaware County,PA,NA,88.12095032397409,NA,NA
19095,Montgomery County,PA,NA,80.02159827213823,NA,NA
19096,Montgomery County,PA,NA,53.77969762419006,NA,NA
19103,Philadelphia County,PA,NA,NA,20.020222446916076,NA
19111,Philadelphia County,PA,NA,4.319654427645788,NA,NA
19124,Philadelphia County,PA,6.0606060606060606,NA,NA,NA
19132,Philadelphia County,PA,34.54545454545455,NA,NA,NA
19134,Philadelphia County,PA,NA,3.3477321814254863,NA,NA
19143,Philadelphia County,PA,NA,NA,28.109201213346815,NA
19147,Philadelphia County,PA,NA,NA,NA,56.89404934687954
19317,Delaware County,PA,NA,93.08855291576674,NA,NA
19335,Chester County,PA,NA,NA,NA,37.300435413642965
19380,Chester County,PA,NA,NA,4.246713852376137,NA
19382,Chester County,PA,NA,15.118790496760258,NA,NA
19406,Montgomery County,PA,NA,NA,NA,54.71698113207547
19426,Montgomery County,PA,NA,NA,27.603640040444894,NA
19464,Montgomery County,PA,NA,6.155507559395248,NA,NA
19475,Chester County,PA,70.3030303030303,NA,NA,NA
19604,Berks County,PA,NA,11.987041036717063,NA,61.10304789550073
19605,Berks County,PA,NA,NA,NA,28.156748911465897
02817,Kent County,RI,NA,88.22894168466523,NA,NA
02822,Washington County,RI,NA,NA,89.78766430738119,NA
02835,Newport County,RI,NA,95.68034557235421,NA,NA
02860,Providence County,RI,NA,8.207343412526997,NA,NA
02863,Providence County,RI,NA,64.2548596112311,NA,NA
02864,Providence County,RI,NA,NA,47.62386248736097,NA
02888,Kent County,RI,NA,51.943844492440604,NA,NA
02907,Providence County,RI,NA,NA,NA,80.11611030478954
02908,Providence County,RI,13.333333333333334,NA,NA,NA
02909,Providence County,RI,NA,78.29373650107992,NA,NA
02914,Providence County,RI,NA,74.4060475161987,NA,NA
02920,Providence County,RI,NA,NA,13.447927199191101,NA
29010,Lee County,SC,NA,NA,NA,58.20029027576198
29045,Kershaw County,SC,NA,NA,NA,77.35849056603774
29073,Lexington County,SC,NA,NA,NA,48.76632801161103
29115,Orangeburg County,SC,NA,69.11447084233261,NA,NA
29138,Saluda County,SC,NA,NA,71.28412537917089,NA
29203,Richland County,SC,NA,NA,NA,37.735849056603776
29210,Richland County,SC,NA,NA,NA,53.99129172714079
29316,Spartanburg County,SC,NA,NA,29.120323559150656,NA
29325,Laurens County,SC,NA,56.47948164146869,NA,NA
29330,Spartanburg County,SC,NA,NA,NA,95.06531204644412
29334,Spartanburg County,SC,NA,77.32181425485962,NA,NA
29335,Spartanburg County,SC,NA,NA,96.8655207280081,NA
29341,Cherokee County,SC,NA,NA,NA,74.60087082728593
29356,Spartanburg County,SC,NA,87.79697624190065,NA,NA
29365,Spartanburg County,SC,59.3939393939394,NA,NA,NA
29401,Charleston County,SC,NA,97.40820734341253,94.8432760364004,NA
29412,Charleston County,SC,NA,80.12958963282938,NA,15.820029027576195
29420,Dorchester County,SC,NA,50,NA,NA
29501,Florence County,SC,NA,NA,13.346814964610717,NA
29506,Florence County,SC,NA,46.97624190064795,NA,NA
29571,Marion County,SC,NA,NA,48.634984833164815,NA
29596,Marlboro County,SC,NA,NA,99.69666329625885,NA
29601,Greenville County,SC,NA,NA,77.85642062689585,NA
29609,Greenville County,SC,NA,NA,41.86046511627907,NA
29611,Greenville County,SC,NA,NA,NA,31.349782293178517
29617,Greenville County,SC,NA,NA,33.26592517694641,NA
29630,Pickens County,SC,NA,88.01295896328294,NA,NA
29650,Greenville County,SC,NA,38.8768898488121,NA,NA
29669,Anderson County,SC,NA,NA,NA,96.22641509433963
29681,Greenville County,SC,NA,NA,NA,37.59071117561684
29715,York County,SC,NA,NA,69.16076845298281,NA
29720,Lancaster County,SC,NA,NA,NA,65.89259796806967
29732,York County,SC,NA,NA,20.424671385237612,NA
29801,Aiken County,SC,NA,84.12526997840173,NA,NA
29803,Aiken County,SC,NA,NA,7.583417593528817,NA
57006,Brookings County,SD,NA,NA,NA,17.271407837445572
57042,Lake County,SD,NA,NA,43.377148634984835,43.68650217706821
57103,Minnehaha County,SD,NA,24.190064794816415,2.730030333670374,35.99419448476052
57104,Minnehaha County,SD,NA,30.669546436285096,NA,NA
57105,Minnehaha County,SD,NA,48.81209503239741,60.262891809909,NA
57106,Minnehaha County,SD,NA,NA,5.055611729019211,6.386066763425253
57108,Lincoln County,SD,NA,NA,16.582406471183013,60.957910014513786
57401,Brown County,SD,NA,51.61987041036718,NA,NA
37036,Dickson County,TN,NA,NA,91.80990899898887,NA
37043,Montgomery County,TN,NA,NA,NA,43.97677793904209
37067,Williamson County,TN,NA,NA,NA,75.76197387518143
37072,Davidson County,TN,NA,NA,22.851365015166834,NA
37076,Davidson County,TN,NA,35.42116630669546,NA,NA
37086,Rutherford County,TN,NA,49.676025917926566,NA,NA
37101,Humphreys County,TN,NA,NA,88.16986855409505,NA
37115,Davidson County,TN,NA,NA,19.61577350859454,NA
37127,Rutherford County,TN,NA,NA,74.92416582406472,NA
37167,Rutherford County,TN,NA,NA,NA,39.62264150943396
37172,Robertson County,TN,NA,16.30669546436285,NA,NA
37207,Davidson County,TN,NA,12.63498920086393,NA,NA
37303,McMinn County,TN,NA,72.03023758099351,NA,NA
37334,Lincoln County,TN,NA,NA,NA,46.44412191582003
37343,Hamilton County,TN,NA,NA,NA,27.866473149492016
37405,Hamilton County,TN,NA,74.51403887688986,NA,NA
37412,Hamilton County,TN,NA,53.88768898488121,NA,NA
37415,Hamilton County,TN,NA,NA,53.791708796764404,NA
37416,Hamilton County,TN,NA,57.2354211663067,NA,NA
37601,Washington County,TN,NA,16.846652267818573,NA,NA
37604,Washington County,TN,NA,54.42764578833693,NA,NA
37618,Sullivan County,TN,NA,NA,73.1041456016178,NA
37620,Sullivan County,TN,NA,NA,13.65015166835187,NA
37643,Carter County,TN,NA,61.98704103671706,NA,NA
37660,Sullivan County,TN,27.27272727272727,NA,NA,NA
37683,Johnson County,TN,NA,81.96544276457884,NA,NA
37716,Anderson County,TN,NA,38.22894168466522,25.884732052578364,NA
37742,Loudon County,TN,NA,NA,91.70879676440849,NA
37743,Greene County,TN,NA,12.85097192224622,NA,NA
37748,Roane County,TN,NA,NA,25.783619817997977,NA
37763,Roane County,TN,NA,66.95464362850973,NA,NA
37801,Blount County,TN,NA,15.874730021598271,NA,34.107402031930334
37803,Blount County,TN,NA,NA,44.590495449949444,NA
37804,Blount County,TN,NA,62.850971922246224,49.848331648129424,NA
37820,Jefferson County,TN,NA,83.69330453563715,97.06774519716885,NA
37841,Scott County,TN,NA,NA,93.52881698685542,NA
37862,Sevier County,TN,NA,NA,48.634984833164815,NA
37865,Sevier County,TN,NA,84.23326133909286,41.25379170879677,NA
37874,Monroe County,TN,NA,41.46868250539957,NA,NA
37912,Knox County,TN,NA,30.77753779697624,NA,NA
37914,Knox County,TN,NA,NA,68.04853387259858,62.699564586357035
37918,Knox County,TN,NA,NA,NA,24.383164005805515
37919,Knox County,TN,NA,NA,34.681496461071795,NA
37920,Knox County,TN,NA,40.38876889848812,NA,NA
37923,Knox County,TN,NA,54.85961123110151,NA,NA
37931,Knox County,TN,NA,NA,NA,60.087082728592165
37934,Knox County,TN,NA,77.7537796976242,NA,NA
38017,Shelby County,TN,NA,47.840172786177106,NA,NA
38118,Shelby County,TN,NA,NA,51.97168857431749,NA
38125,Shelby County,TN,NA,56.371490280777536,NA,NA
38256,Henry County,TN,NA,NA,NA,97.38751814223512
38358,Gibson County,TN,75.15151515151514,NA,NA,NA
38464,Lawrence County,TN,NA,33.04535637149028,NA,NA
38551,Clay County,TN,NA,86.06911447084234,NA,NA
38572,Cumberland County,TN,NA,NA,NA,68.3599419448476
75001,Dallas County,TX,NA,NA,NA,94.1944847605225
75020,Grayson County,TX,NA,NA,66.12740141557128,NA
75028,Denton County,TX,64.84848484848484,NA,NA,NA
75042,Dallas County,TX,NA,NA,60.262891809909,66.0377358490566
75043,Dallas County,TX,NA,NA,14.560161779575328,NA
75050,Dallas County,TX,NA,44.49244060475162,NA,NA
75052,Dallas County,TX,NA,NA,8.998988877654195,NA
75092,Grayson County,TX,NA,NA,NA,54.28156748911466
75110,Navarro County,TX,NA,NA,76.03640040444894,NA
75125,Ellis County,TX,97.57575757575758,NA,NA,NA
75150,Dallas County,TX,NA,NA,NA,44.12191582002903
75209,Dallas County,TX,NA,NA,NA,50.50798258345428
75211,Dallas County,TX,NA,NA,18.90798786653185,NA
75217,Dallas County,TX,NA,9.827213822894167,78.36198179979777,NA
75220,Dallas County,TX,NA,50.75593952483801,NA,NA
75228,Dallas County,TX,NA,49.78401727861771,NA,NA
75236,Dallas County,TX,NA,94.38444924406048,89.68655207280081,NA
75241,Dallas County,TX,NA,23.758099352051836,30.434782608695656,NA
75252,Collin County,TX,NA,95.24838012958963,NA,NA
75253,Dallas County,TX,NA,66.30669546436285,NA,NA
75410,Wood County,TX,NA,89.52483801295897,NA,NA
75440,Rains County,TX,NA,89.41684665226782,NA,NA
75482,Hopkins County,TX,NA,NA,51.66835187057634,NA
75494,Wood County,TX,NA,NA,62.7906976744186,NA
75495,Grayson County,TX,NA,NA,NA,88.24383164005806
75503,Bowie County,TX,NA,53.67170626349892,NA,NA
75605,Gregg County,TX,NA,NA,35.99595551061678,32.65602322206096
75645,Upshur County,TX,NA,NA,81.09201213346815,NA
75647,Gregg County,TX,NA,64.03887688984882,NA,NA
75654,Rusk County,TX,NA,NA,63.902932254802835,NA
75686,Camp County,TX,NA,NA,82.40647118301314,NA
75693,Gregg County,TX,NA,NA,91.40546006066734,NA
75701,Smith County,TX,NA,35.63714902807775,11.122345803842265,NA
75703,Smith County,TX,NA,NA,58.341759352881695,NA
75706,Smith County,TX,NA,93.9524838012959,NA,NA
75707,Smith County,TX,NA,NA,46.71385237613751,85.19593613933236
75709,Smith County,TX,96.96969696969697,NA,NA,NA
75751,Henderson County,TX,NA,NA,46.107178968655205,NA
75754,Van Zandt County,TX,NA,NA,72.19413549039434,NA
75757,Smith County,TX,NA,NA,39.43377148634985,41.36429608127721
75762,Smith County,TX,NA,NA,92.92214357937311,NA
75763,Anderson County,TX,NA,NA,94.53993933265924,NA
75765,Wood County,TX,NA,NA,73.7108190091001,91.8722786647315
75766,Cherokee County,TX,NA,NA,35.591506572295245,33.09143686502177
75773,Wood County,TX,NA,93.52051835853132,NA,16.400580551523948
75783,Wood County,TX,NA,NA,86.24873609706775,NA
75785,Cherokee County,TX,NA,88.66090712742981,52.679474216380186,NA
75790,Van Zandt County,TX,NA,NA,94.74216380182003,NA
75791,Smith County,TX,NA,NA,40.141557128412536,71.55297532656023
75835,Houston County,TX,NA,NA,NA,75.3265602322206
75839,Anderson County,TX,NA,97.62419006479482,NA,NA
75904,Angelina County,TX,NA,NA,NA,41.654571843251084
76006,Tarrant County,TX,NA,NA,NA,84.32510885341074
76012,Tarrant County,TX,29.6969696969697,NA,NA,79.68069666182875
76013,Tarrant County,TX,NA,NA,NA,30.478955007256893
76020,Tarrant County,TX,47.878787878787875,30.885529157667385,NA,NA
76033,Johnson County,TX,NA,NA,68.5540950455005,NA
76039,Tarrant County,TX,NA,NA,56.926188068756325,NA
76065,Ellis County,TX,NA,NA,32.76036400404449,NA
76107,Tarrant County,TX,NA,43.30453563714903,NA,NA
76110,Tarrant County,TX,NA,45.032397408207345,NA,NA
76111,Tarrant County,TX,NA,NA,65.21739130434783,NA
76116,Tarrant County,TX,NA,NA,NA,24.818577648766325
76119,Tarrant County,TX,NA,8.855291576673865,5.96562184024267,NA
76134,Tarrant County,TX,NA,27.32181425485961,NA,NA
76179,Tarrant County,TX,NA,NA,30.1314459049545,62.554426705370105
76182,Tarrant County,TX,NA,NA,NA,58.78084179970973
76207,Denton County,TX,NA,92.0086393088553,NA,NA
76262,Denton County,TX,NA,NA,69.36299292214359,NA
76446,Erath County,TX,NA,NA,NA,93.03338171262699
76501,Bell County,TX,NA,91.46868250539957,95.34883720930233,NA
76502,Bell County,TX,NA,16.09071274298056,26.188068756319517,34.39767779390421
76504,Bell County,TX,NA,36.82505399568035,NA,NA
76513,Bell County,TX,NA,55.0755939524838,78.76643073811931,44.847605224963715
76520,Milam County,TX,NA,NA,NA,71.11756168359942
76522,Coryell County,TX,NA,47.62419006479482,9.605662285136502,96.80696661828738
76528,Coryell County,TX,NA,NA,87.56319514661274,28.592162554426704
76541,Bell County,TX,NA,47.94816414686825,NA,NA
76542,Bell County,TX,NA,82.28941684665226,NA,NA
76543,Bell County,TX,14.545454545454545,29.481641468682508,51.56723963599595,NA
76548,Bell County,TX,NA,NA,13.953488372093023,NA
76571,Bell County,TX,NA,90.49676025917927,NA,76.34252539912917
76642,Limestone County,TX,NA,NA,NA,80.2612481857765
76645,Hill County,TX,NA,NA,62.89180990899899,NA
76655,McLennan County,TX,82.42424242424242,NA,NA,NA
76667,Limestone County,TX,NA,59.28725701943844,NA,NA
76705,McLennan County,TX,NA,NA,NA,68.79535558780842
76708,McLennan County,TX,NA,NA,79.37310414560162,59.651669085631355
76710,McLennan County,TX,NA,NA,NA,51.088534107402026
76712,McLennan County,TX,NA,43.84449244060475,37.51263902932255,8.127721335268506
76904,Tom Green County,TX,NA,NA,NA,32.51088534107402
77021,Harris County,TX,NA,NA,67.03741152679474,NA
77026,Harris County,TX,NA,NA,50.15166835187057,NA
77048,Harris County,TX,NA,71.16630669546437,NA,NA
77049,Harris County,TX,NA,NA,91.30434782608695,NA
77051,Harris County,TX,NA,NA,53.58948432760364,NA
77056,Harris County,TX,NA,NA,NA,49.49201741654572
77061,Harris County,TX,NA,NA,NA,94.33962264150944
77065,Harris County,TX,NA,NA,72.09302325581395,NA
77069,Harris County,TX,NA,94.70842332613391,NA,NA
77074,Harris County,TX,NA,NA,54.4994944388271,NA
77079,Harris County,TX,NA,NA,NA,55.29753265602322
77088,Harris County,TX,NA,NA,NA,48.91146589259797
77095,Harris County,TX,NA,18.682505399568033,NA,NA
77096,Harris County,TX,NA,NA,41.45601617795754,NA
77338,Harris County,TX,NA,47.73218142548596,NA,NA
77339,Harris County,TX,NA,NA,68.75631951466129,NA
77355,Montgomery County,TX,NA,NA,NA,77.50362844702468
77379,Harris County,TX,NA,60.15118790496761,NA,NA
77382,Montgomery County,TX,NA,64.90280777537797,NA,NA
77418,Austin County,TX,NA,95.57235421166307,NA,NA
77450,Harris County,TX,NA,38.76889848812095,NA,NA
77494,Fort Bend County,TX,NA,NA,NA,38.02612481857765
77511,Brazoria County,TX,NA,NA,10.616784630940344,NA
77530,Harris County,TX,NA,58.747300215982726,NA,NA
77531,Brazoria County,TX,NA,NA,79.17087967644085,NA
77535,Liberty County,TX,NA,NA,43.27603640040445,NA
77539,Galveston County,TX,NA,NA,40.849342770475225,71.84325108853412
77550,Galveston County,TX,NA,20.19438444924406,NA,9.143686502177069
77551,Galveston County,TX,NA,27.213822894168466,23.25581395348837,NA
77554,Galveston County,TX,NA,NA,42.871587462082914,NA
77583,Brazoria County,TX,71.51515151515152,NA,NA,NA
77590,Galveston County,TX,NA,44.81641468682505,11.425682507583417,NA
77598,Harris County,TX,NA,60.043196544276455,NA,NA
77802,Brazos County,TX,NA,NA,NA,13.352685050798257
77803,Brazos County,TX,NA,61.01511879049676,NA,NA
77830,Grimes County,TX,NA,99.35205183585313,NA,NA
77833,Washington County,TX,NA,NA,NA,18.287373004354137
77845,Brazos County,TX,NA,NA,67.9474216380182,3.1930333817126266
77868,Grimes County,TX,NA,NA,39.53488372093023,NA
77879,Burleson County,TX,NA,NA,NA,98.4034833091437
77901,Victoria County,TX,NA,25.917926565874733,NA,NA
78040,Webb County,TX,NA,NA,NA,22.060957910014515
78076,Zapata County,TX,NA,NA,86.14762386248736,NA
78130,Comal County,TX,NA,23.65010799136069,NA,NA
78133,Comal County,TX,NA,61.44708423326134,NA,NA
78155,Guadalupe County,TX,NA,NA,26.895854398382202,NA
78207,Bexar County,TX,NA,NA,12.133468149646106,NA
78213,Bexar County,TX,NA,NA,NA,52.5399129172714
78214,Bexar County,TX,NA,NA,92.61880687563195,NA
78216,Bexar County,TX,NA,45.68034557235421,NA,NA
78223,Bexar County,TX,NA,NA,61.375126390293225,NA
78230,Bexar County,TX,NA,NA,NA,83.88969521044993
78250,Bexar County,TX,NA,NA,50.6572295247725,NA
78253,Bexar County,TX,NA,NA,65.31850353892821,NA
78363,Kleberg County,TX,NA,NA,55.91506572295247,87.80841799709724
78520,Cameron County,TX,NA,NA,24.974721941354904,NA
78539,Hidalgo County,TX,NA,60.475161987041034,NA,NA
78605,Burnet County,TX,NA,NA,95.44994944388272,89.11465892597968
78626,Williamson County,TX,NA,NA,NA,88.67924528301887
78628,Williamson County,TX,NA,NA,57.633973710819006,NA
78633,Williamson County,TX,NA,NA,27.30030333670374,NA
78639,Llano County,TX,NA,NA,NA,71.11756168359942
78653,Travis County,TX,NA,75.70194384449243,NA,NA
78665,Williamson County,TX,NA,52.48380129589633,NA,NA
78669,Travis County,TX,NA,NA,90.79878665318503,NA
78681,Williamson County,TX,30.909090909090907,NA,NA,NA
78702,Travis County,TX,NA,NA,73.50859453993934,NA
78725,Travis County,TX,NA,NA,NA,100
78745,Travis County,TX,NA,NA,NA,61.68359941944848
78759,Travis County,TX,NA,91.14470842332614,NA,NA
79108,Potter County,TX,NA,79.26565874730022,NA,NA
79110,Randall County,TX,NA,NA,81.3953488372093,NA
79118,Randall County,TX,NA,71.2742980561555,NA,NA
79119,Randall County,TX,NA,NA,NA,88.53410740203192
79347,Bailey County,TX,NA,85.7451403887689,NA,NA
79549,Scurry County,TX,NA,NA,40.647118301314464,NA
79603,Taylor County,TX,NA,NA,30.738119312436808,NA
79605,Taylor County,TX,NA,NA,36.602628918099086,NA
79745,Winkler County,TX,NA,NA,94.23660262891809,NA
79762,Ector County,TX,NA,NA,39.130434782608695,NA
79764,Ector County,TX,NA,NA,66.0262891809909,NA
79905,El Paso County,TX,NA,NA,52.88169868554095,56.16835994194484
79907,El Paso County,TX,NA,38.33693304535637,NA,NA
79936,El Paso County,TX,NA,72.2462203023758,NA,NA
84009,Salt Lake County,UT,NA,NA,83.11425682507584,NA
84020,Salt Lake County,UT,NA,NA,59.45399393326593,NA
84029,Tooele County,UT,NA,83.69330453563715,NA,NA
84041,Davis County,UT,NA,37.14902807775378,NA,NA
84043,Utah County,UT,20,NA,63.49848331648129,NA
84044,Salt Lake County,UT,51.515151515151516,NA,NA,NA
84047,Salt Lake County,UT,NA,NA,43.174924165824066,NA
84058,Utah County,UT,NA,NA,81.90091001011123,81.27721335268505
84074,Tooele County,UT,NA,55.93952483801296,NA,NA
84078,Uintah County,UT,NA,16.738660907127432,NA,NA
84084,Salt Lake County,UT,NA,48.38012958963283,NA,72.859216255442675
84088,Salt Lake County,UT,57.57575757575758,NA,NA,NA
84096,Salt Lake County,UT,NA,28.293736501079913,NA,NA
84098,Summit County,UT,NA,NA,44.79271991911021,NA
84103,Salt Lake County,UT,NA,NA,88.97876643073812,36.284470246734394
84104,Salt Lake County,UT,53.333333333333336,NA,NA,NA
84107,Salt Lake County,UT,NA,42.33261339092873,NA,NA
84115,Salt Lake County,UT,NA,NA,31.243680485338725,NA
84117,Salt Lake County,UT,NA,NA,NA,71.98838896952104
84118,Salt Lake County,UT,NA,18.898488120950326,NA,NA
84119,Salt Lake County,UT,NA,42.87257019438445,NA,NA
84120,Salt Lake County,UT,NA,32.50539956803456,16.27906976744186,NA
84121,Salt Lake County,UT,NA,NA,NA,23.076923076923077
84123,Salt Lake County,UT,NA,NA,NA,50.653120464441216
84124,Salt Lake County,UT,NA,NA,NA,54.13642960812772
84128,Salt Lake County,UT,NA,NA,NA,99.85486211901306
84129,,UT,NA,NA,25.581395348837212,NA
84404,Weber County,UT,NA,56.04751619870411,NA,NA
84790,Washington County,UT,NA,NA,44.388270980788676,NA
05001,Windsor County,VT,NA,84.98920086393088,NA,NA
05089,Windsor County,VT,NA,95.68034557235421,NA,NA
05403,Chittenden County,VT,NA,NA,NA,68.65021770682148
05404,Chittenden County,VT,NA,84.66522678185746,85.43983822042466,NA
05408,Chittenden County,VT,NA,83.15334773218143,NA,NA
05641,Washington County,VT,NA,NA,NA,18.57764876632801
05676,Washington County,VT,NA,90.49676025917927,NA,NA
05701,Rutland County,VT,21.21212121212121,70.19438444924407,NA,NA
05819,Caledonia County,VT,NA,98.27213822894169,71.28412537917089,NA
20110,Manassas city,VA,NA,NA,NA,53.41074020319303
20111,Prince William County,VA,NA,55.61555075593952,NA,NA
20147,Loudoun County,VA,NA,NA,NA,16.835994194484762
20187,Fauquier County,VA,NA,NA,NA,91.43686502177069
22003,Fairfax County,VA,NA,31.96544276457883,NA,NA
22025,Prince William County,VA,NA,NA,NA,85.34107402031931
22044,Fairfax County,VA,NA,NA,87.66430738119313,NA
22203,Arlington County,VA,NA,NA,73.50859453993934,NA
22302,Alexandria city,VA,NA,NA,87.25985844287159,NA
22307,Fairfax County,VA,NA,NA,NA,81.8577648766328
22485,King George County,VA,NA,65.33477321814254,NA,NA
22572,Richmond County,VA,NA,NA,NA,78.3744557329463
22601,Winchester city,VA,NA,84.34125269978402,32.96258847320526,NA
22657,Shenandoah County,VA,NA,NA,68.65520728008089,NA
22701,Culpeper County,VA,NA,NA,14.964610717896864,33.38171262699564
22824,Shenandoah County,VA,NA,NA,75.6319514661274,NA
22840,Rockingham County,VA,NA,98.92008639308855,NA,NA
22851,Page County,VA,NA,NA,59.04954499494439,NA
22853,Rockingham County,VA,NA,NA,83.72093023255815,NA
22902,Charlottesville city,VA,NA,25.377969762419006,NA,NA
22903,Charlottesville city,VA,NA,30.021598272138228,NA,73.43976777939042
22911,Albemarle County,VA,NA,NA,58.442871587462086,NA
22947,Albemarle County,VA,NA,NA,89.98988877654196,NA
22973,Greene County,VA,NA,86.28509719222463,NA,NA
22980,Waynesboro city,VA,9.090909090909092,9.395248380129589,67.3407482305359,NA
23005,Hanover County,VA,NA,73.4341252699784,NA,NA
23030,Charles City County,VA,NA,NA,81.29423660262893,NA
23059,Henrico County,VA,NA,NA,62.1840242669363,NA
23111,Hanover County,VA,NA,NA,13.144590495449949,24.238026124818575
23113,Chesterfield County,VA,NA,NA,79.06976744186046,51.814223512336724
23114,Chesterfield County,VA,NA,NA,96.05662285136502,NA
23117,Louisa County,VA,NA,81.53347732181425,52.17391304347826,NA
23139,Powhatan County,VA,NA,NA,75.93528816986856,NA
23185,James City County,VA,NA,NA,42.568250758341755,NA
23188,James City County,VA,NA,NA,15.975733063700709,NA
23225,Richmond city,VA,NA,NA,17.290192113245702,NA
23226,Richmond city,VA,NA,NA,NA,64.29608127721336
23227,Henrico County,VA,NA,NA,NA,68.06966618287373
23228,Henrico County,VA,NA,NA,NA,79.24528301886792
23229,Henrico County,VA,NA,67.60259179265658,NA,NA
23234,Chesterfield County,VA,NA,NA,29.322548028311424,NA
23235,Chesterfield County,VA,NA,NA,NA,25.834542815674894
23323,Chesapeake city,VA,NA,34.66522678185745,31.14256825075834,NA
23430,Isle of Wight County,VA,NA,NA,29.221435793731043,NA
23451,Virginia Beach city,VA,NA,NA,77.65419615773509,NA
23452,Virginia Beach city,VA,NA,23.002159827213823,7.17896865520728,62.40928882438317
23453,Virginia Beach city,VA,NA,87.90496760259178,NA,NA
23454,Virginia Beach city,VA,NA,NA,40.950455005055616,NA
23455,Virginia Beach city,VA,NA,NA,7.482305358948432,64.4412191582003
23462,Virginia Beach city,VA,NA,52.80777537796977,NA,NA
23464,Virginia Beach city,VA,NA,NA,2.224469160768453,NA
23487,Isle of Wight County,VA,NA,NA,78.96865520728008,NA
23518,Norfolk city,VA,NA,NA,26.39029322548028,NA
23601,Newport News city,VA,NA,NA,41.45601617795754,NA
23606,Newport News city,VA,NA,NA,22.95247724974722,NA
23666,Hampton city,VA,NA,NA,58.74620829120324,NA
23669,Hampton city,VA,NA,23.326133909287257,NA,NA
23693,York County,VA,NA,NA,86.75429726996967,NA
23701,Portsmouth city,VA,NA,NA,NA,60.2322206095791
23703,Portsmouth city,VA,NA,NA,26.49140546006067,NA
23704,Portsmouth city,VA,NA,89.09287257019439,NA,NA
23803,Petersburg city,VA,NA,NA,45.601617795753285,NA
23838,Chesterfield County,VA,NA,NA,NA,97.96806966618288
24012,Roanoke city,VA,41.81818181818181,NA,NA,NA
24016,Roanoke city,VA,NA,96.22030237580994,NA,NA
24018,Roanoke County,VA,NA,NA,27.906976744186046,NA
24124,Giles County,VA,NA,NA,96.66329625884732,NA
24153,Salem city,VA,NA,NA,NA,22.206095791001452
24184,Franklin County,VA,NA,NA,97.67441860465115,NA
24228,Dickenson County,VA,NA,95.8963282937365,NA,NA
24230,Wise County,VA,NA,NA,68.25075834175935,NA
24260,Russell County,VA,NA,NA,NA,69.66618287373004
24273,Norton city,VA,NA,NA,70.87967644084934,NA
24293,Wise County,VA,NA,NA,77.35085945399393,NA
24333,Galax city,VA,NA,NA,89.58543983822042,NA
24354,Smyth County,VA,NA,41.68466522678186,NA,NA
24368,Wythe County,VA,NA,NA,93.62992922143579,NA
24382,Wythe County,VA,NA,NA,46.20829120323559,NA
24441,Rockingham County,VA,NA,76.13390928725701,NA,NA
24614,Buchanan County,VA,NA,61.12311015118791,NA,NA
98003,King County,WA,NA,29.913606911447083,NA,NA
98006,King County,WA,NA,NA,26.08695652173913,NA
98007,King County,WA,99.39393939393939,NA,NA,NA
98008,King County,WA,NA,NA,NA,90.27576197387518
98012,Snohomish County,WA,NA,NA,NA,58.92597968069666
98020,Snohomish County,WA,NA,93.84449244060475,NA,NA
98026,Snohomish County,WA,NA,34.557235421166304,NA,NA
98030,King County,WA,NA,NA,38.22042467138524,NA
98038,King County,WA,NA,34.12526997840173,NA,NA
98042,King County,WA,NA,17.818574514038875,NA,NA
98053,King County,WA,NA,NA,35.8948432760364,NA
98055,King County,WA,NA,NA,87.36097067745197,NA
98058,King County,WA,NA,NA,NA,39.18722786647315
98059,King County,WA,NA,48.056155507559396,NA,NA
98075,King County,WA,NA,NA,71.28412537917089,NA
98087,Snohomish County,WA,NA,NA,NA,89.5500725689405
98101,King County,WA,NA,NA,80.58645096056622,NA
98103,King County,WA,NA,75.5939524838013,NA,NA
98105,King County,WA,NA,NA,67.64408493427705,NA
98109,King County,WA,NA,NA,NA,60.37735849056604
98115,King County,WA,NA,82.6133909287257,21.23356926188069,30.914368650217703
98122,King County,WA,NA,59.395248380129594,NA,NA
98125,King County,WA,NA,NA,32.55813953488372,NA
98133,King County,WA,55.757575757575765,NA,NA,14.223512336719885
98221,Skagit County,WA,NA,63.498920086393085,90.29322548028311,55.587808417997095
98223,Snohomish County,WA,NA,73.86609071274299,NA,NA
98257,Skagit County,WA,NA,97.73218142548596,95.24772497472193,NA
98270,Snohomish County,WA,43.63636363636363,19.762419006479483,NA,NA
98272,Snohomish County,WA,NA,NA,72.69969666329625,NA
98273,Skagit County,WA,NA,62.74298056155507,46.61274014155713,40.638606676342526
98274,Skagit County,WA,NA,NA,NA,34.97822931785196
98277,Island County,WA,NA,NA,89.0798786653185,NA
98284,Skagit County,WA,NA,NA,NA,22.35123367198839
98292,Snohomish County,WA,NA,NA,NA,63.13497822931785
98312,Kitsap County,WA,NA,39.200863930885525,NA,NA
98346,Kitsap County,WA,NA,NA,90.89989888776542,NA
98382,Clallam County,WA,NA,NA,1.9211324570273005,33.9622641509434
98391,Pierce County,WA,NA,14.578833693304535,NA,NA
98403,Pierce County,WA,87.87878787878788,NA,NA,NA
98405,Pierce County,WA,NA,NA,NA,73.00435413642961
98407,Pierce County,WA,NA,68.79049676025917,NA,NA
98418,Pierce County,WA,NA,NA,98.98887765419616,NA
98422,Pierce County,WA,NA,NA,60.16177957532861,NA
98584,Mason County,WA,NA,NA,15.773508594539939,NA
98620,Klickitat County,WA,NA,NA,96.15773508594539,NA
98626,Cowlitz County,WA,NA,NA,NA,53.26560232220609
98632,Cowlitz County,WA,NA,20.086393088552914,NA,24.092888243831638
98660,Clark County,WA,95.75757575757575,NA,NA,NA
98661,Clark County,WA,NA,76.7818574514039,NA,NA
98801,Chelan County,WA,NA,NA,NA,70.68214804063861
98802,Douglas County,WA,NA,NA,25.278058645096056,NA
98823,Grant County,WA,NA,NA,NA,83.01886792452831
98841,Okanogan County,WA,NA,NA,65.4196157735086,NA
98908,Yakima County,WA,NA,NA,10.414560161779574,NA
98948,Yakima County,WA,NA,NA,71.68857431749241,NA
99205,Spokane County,WA,NA,NA,NA,50.36284470246735
99208,Spokane County,WA,NA,40.60475161987041,NA,NA
99223,Spokane County,WA,NA,92.65658747300216,NA,NA
99301,Franklin County,WA,NA,NA,30.83923154701719,NA
99336,Benton County,WA,NA,NA,NA,7.402031930333817
99337,Benton County,WA,NA,NA,5.5611729019211324,10.88534107402032
99352,Benton County,WA,NA,NA,83.9231547017189,NA
99354,Benton County,WA,NA,NA,61.77957532861477,25.544267053701013
99362,Walla Walla County,WA,NA,NA,NA,12.917271407837447
20002,District of Columbia,DC,NA,6.371490280777538,NA,NA
20007,District of Columbia,DC,NA,77.42980561555075,NA,NA
20008,District of Columbia,DC,NA,81.8574514038877,NA,NA
20020,District of Columbia,DC,NA,2.591792656587473,NA,NA
20024,District of Columbia,DC,NA,NA,57.22952477249748,NA
24701,Mercer County,WV,NA,NA,NA,69.81132075471697
25071,Kanawha County,WV,69.6969696969697,NA,NA,NA
25177,Kanawha County,WV,NA,62.634989200863934,NA,NA
25271,Jackson County,WV,NA,NA,NA,64.15094339622641
25304,Kanawha County,WV,NA,NA,73.1041456016178,NA
25411,Morgan County,WV,NA,NA,48.53387259858442,NA
25413,Berkeley County,WV,NA,82.07343412526998,NA,NA
25704,Wayne County,WV,NA,30.345572354211665,NA,NA
25705,Cabell County,WV,NA,19.222462203023756,NA,NA
26003,Ohio County,WV,NA,NA,1.314459049544995,25.689404934687953
26034,Hancock County,WV,NA,NA,82.30535894843275,NA
26041,Marshall County,WV,NA,NA,52.47724974721941,NA
26101,Wood County,WV,86.06060606060606,NA,NA,NA
26104,Wood County,WV,NA,36.60907127429805,NA,NA
26170,Pleasants County,WV,NA,NA,94.64105156723963,NA
26416,Barbour County,WV,NA,NA,NA,85.48621190130625
26505,Monongalia County,WV,NA,10.367170626349893,NA,NA
53012,Ozaukee County,WI,NA,NA,45.39939332659252,NA
53061,Calumet County,WI,NA,NA,97.4721941354904,NA
53072,Waukesha County,WI,NA,NA,NA,44.26705370101596
53074,Ozaukee County,WI,NA,NA,NA,82.29317851959361
53081,Sheboygan County,WI,NA,16.52267818574514,NA,NA
53083,Sheboygan County,WI,NA,NA,53.892821031344795,NA
53105,Racine County,WI,NA,15.766738660907128,NA,NA
53110,Milwaukee County,WI,NA,32.721382289416844,29.42366026289181,NA
53128,Walworth County,WI,58.78787878787879,NA,NA,NA
53130,Milwaukee County,WI,76.36363636363637,NA,NA,NA
53132,Milwaukee County,WI,67.27272727272727,NA,NA,NA
53143,Kenosha County,WI,NA,NA,24.87360970677452,NA
53144,Kenosha County,WI,NA,17.17062634989201,NA,NA
53147,Walworth County,WI,NA,46.11231101511879,NA,NA
53149,Waukesha County,WI,NA,NA,36.5015166835187,NA
53181,Kenosha County,WI,NA,60.90712742980562,81.69868554095045,NA
53186,Waukesha County,WI,NA,28.725701943844495,NA,35.268505079825836
53188,Waukesha County,WI,NA,82.50539956803455,NA,NA
53189,Waukesha County,WI,56.96969696969697,NA,NA,NA
53205,Milwaukee County,WI,NA,NA,43.98382204246714,NA
53207,Milwaukee County,WI,44.84848484848485,NA,NA,NA
53210,Milwaukee County,WI,NA,8.96328293736501,NA,NA
53211,Milwaukee County,WI,NA,NA,19.514661274014156,NA
53213,Milwaukee County,WI,NA,52.05183585313174,NA,NA
53214,Milwaukee County,WI,NA,NA,8.796764408493427,NA
53215,Milwaukee County,WI,NA,42.65658747300216,2.8311425682507583,NA
53218,Milwaukee County,WI,NA,8.099352051835854,7.381193124368049,NA
53219,Milwaukee County,WI,NA,NA,60.46511627906976,NA
53221,Milwaukee County,WI,NA,20.302375809935207,NA,NA
53222,Milwaukee County,WI,NA,NA,34.27704752275025,NA
53223,Milwaukee County,WI,NA,16.630669546436287,NA,NA
53225,Milwaukee County,WI,NA,NA,35.79373104145602,NA
53402,Racine County,WI,NA,7.019438444924406,1.314459049544995,NA
53405,Racine County,WI,NA,NA,21.1324570273003,NA
53406,Racine County,WI,NA,NA,14.35793731041456,NA
53511,Rock County,WI,NA,NA,NA,3.0478955007256894
53520,Green County,WI,NA,NA,80.18200202224469,NA
53536,Rock County,WI,NA,NA,95.14661274014156,NA
53538,Jefferson County,WI,NA,52.48380129589633,34.07482305358948,NA
53545,Rock County,WI,22.424242424242426,NA,NA,NA
53548,Rock County,WI,93.93939393939394,NA,NA,NA
53559,Dane County,WI,NA,NA,96.25884732052579,NA
53563,Rock County,WI,NA,NA,NA,65.60232220609579
53590,Dane County,WI,18.181818181818183,NA,NA,NA
53717,Dane County,WI,NA,86.7170626349892,NA,NA
53718,Dane County,WI,NA,76.99784017278618,NA,NA
53910,Adams County,WI,NA,NA,97.16885743174925,NA
53916,Dodge County,WI,47.27272727272727,NA,NA,NA
53963,Dodge County,WI,NA,NA,91.6076845298281,NA
54016,St. Croix County,WI,NA,NA,44.18604651162791,NA
54021,Pierce County,WI,NA,93.19654427645789,NA,NA
54022,Pierce County,WI,NA,NA,44.08493427704752,NA
54024,Polk County,WI,NA,87.25701943844493,NA,NA
54101,Oconto County,WI,NA,100,NA,NA
54151,Marinette County,WI,NA,NA,86.95652173913044,NA
54154,Oconto County,WI,NA,87.04103671706264,NA,NA
54220,Manitowoc County,WI,NA,7.4514038876889845,0.910010111223458,NA
54235,Door County,WI,NA,61.23110151187905,20.930232558139537,NA
54304,Brown County,WI,NA,22.894168466522675,NA,NA
54452,Lincoln County,WI,NA,NA,45.5005055611729,NA
54481,Portage County,WI,NA,NA,NA,40.20319303338171
54482,Portage County,WI,NA,NA,NA,61.10304789550073
54501,Oneida County,WI,NA,NA,NA,95.93613933236574
54601,La Crosse County,WI,NA,NA,53.083923154701715,4.934687953555878
54636,La Crosse County,WI,NA,NA,NA,57.76487663280116
54650,La Crosse County,WI,NA,55.72354211663067,6.268958543983821,NA
54729,Chippewa County,WI,NA,NA,17.593528816986854,NA
54730,Dunn County,WI,NA,NA,80.99089989888778,NA
54812,Barron County,WI,NA,89.6328293736501,NA,NA
54837,Polk County,WI,NA,91.36069114470843,NA,NA
54853,Polk County,WI,NA,NA,98.58442871587462,NA
54868,Barron County,WI,NA,NA,NA,70.97242380261248
54880,Douglas County,WI,NA,46.76025917926566,20.222446916076844,NA
54893,Burnett County,WI,NA,NA,85.03538928210314,NA
54904,Winnebago County,WI,NA,68.03455723542116,NA,NA
54913,Outagamie County,WI,76.96969696969697,NA,NA,NA
54935,Fond du Lac County,WI,NA,16.19870410367171,43.78159757330637,32.075471698113205
54944,Outagamie County,WI,93.33333333333333,NA,NA,NA
54971,Fond du Lac County,WI,NA,NA,47.01718907987866,NA
54981,Waupaca County,WI,NA,64.14686825053995,NA,NA
82007,Laramie County,WY,NA,NA,90.59656218402426,NA
82443,Hot Springs County,WY,NA,98.70410367170626,NA,NA
82601,Natrona County,WY,NA,NA,70.87967644084934,NA
82633,Converse County,WY,NA,NA,NA,85.05079825834542
82716,Campbell County,WY,NA,69.00647948164146,NA,NA
82801,Sheridan County,WY,NA,NA,NA,35.12336719883889
