ZipCode,county,state,Adult
35215,Jefferson County,AL,12.280701754385964
35581,Franklin County,AL,94.73684210526315
36117,Montgomery County,AL,38.01169590643275
36507,Baldwin County,AL,43.27485380116959
85008,Maricopa County,AZ,18.71345029239766
85350,Yuma County,AZ,54.97076023391813
85634,Pima County,AZ,27.485380116959064
85706,Pima County,AZ,3.508771929824561
85941,Apache County,AZ,46.783625730994146
86503,Apache County,AZ,81.28654970760235
71639,Desha County,AR,92.39766081871345
91604,Los Angeles County,CA,64.91228070175438
93065,Ventura County,CA,69.5906432748538
93110,Santa Barbara County,CA,88.88888888888889
93292,Tulare County,CA,84.7953216374269
93955,Monterey County,CA,42.69005847953216
94114,San Francisco County,CA,50.29239766081871
94403,San Mateo County,CA,55.55555555555556
94521,Contra Costa County,CA,63.74269005847953
94550,Alameda County,CA,50.877192982456144
95008,Santa Clara County,CA,69.00584795321637
95457,Lake County,CA,95.32163742690058
95540,Humboldt County,CA,64.32748538011695
80907,El Paso County,CO,56.72514619883041
81004,Pueblo County,CO,30.409356725146196
06029,Tolland County,CT,62.57309941520468
32043,Clay County,FL,47.953216374269005
32407,Bay County,FL,85.96491228070175
32607,Alachua County,FL,25.146198830409354
33525,Pasco County,FL,73.68421052631578
33624,Hillsborough County,FL,57.89473684210527
33907,Lee County,FL,51.461988304093566
30564,Hall County,GA,97.6608187134503
31036,Pulaski County,GA,75.43859649122807
31546,Wayne County,GA,87.13450292397661
83704,Ada County,ID,24.561403508771928
60004,Cook County,IL,29.82456140350877
61073,Winnebago County,IL,70.17543859649122
61354,LaSalle County,IL,59.06432748538012
62269,St. Clair County,IL,73.09941520467837
46217,Marion County,IN,56.14035087719298
46373,Lake County,IN,35.08771929824561
46902,Howard County,IN,7.017543859649122
50801,Union County,IA,43.859649122807014
51106,Woodbury County,IA,52.63157894736842
40216,Jefferson County,KY,12.865497076023392
40324,Scott County,KY,18.128654970760234
40504,Fayette County,KY,47.368421052631575
40509,Fayette County,KY,37.42690058479532
41042,Boone County,KY,10.526315789473683
41143,Carter County,KY,46.198830409356724
70068,St. John the Baptist Parish,LA,40.93567251461988
70129,Orleans Parish,LA,76.0233918128655
70131,Orleans Parish,LA,20.46783625730994
70526,Acadia Parish,LA,29.239766081871345
70586,Evangeline Parish,LA,48.53801169590643
70668,Calcasieu Parish,LA,71.9298245614035
71423,Grant Parish,LA,91.81286549707602
04401,Penobscot County,ME,1.7543859649122806
01568,Worcester County,MA,74.26900584795322
01701,Middlesex County,MA,14.035087719298245
01702,Middlesex County,MA,0.5847953216374269
01801,Middlesex County,MA,0
01843,Essex County,MA,5.263157894736842
01904,Essex County,MA,14.619883040935672
01950,Essex County,MA,25.730994152046783
02026,Norfolk County,MA,7.602339181286549
02136,Suffolk County,MA,1.1695906432748537
02370,Plymouth County,MA,21.052631578947366
02539,Dukes County,MA,79.53216374269006
48002,St. Clair County,MI,100
48073,Oakland County,MI,33.33333333333333
48138,Wayne County,MI,90.64327485380117
48167,Oakland County,MI,44.44444444444444
48185,Wayne County,MI,9.941520467836257
48304,Oakland County,MI,70.76023391812866
48331,Oakland County,MI,41.52046783625731
48429,Shiawassee County,MI,68.42105263157895
49507,Kent County,MI,9.35672514619883
55432,Anoka County,MN,28.07017543859649
56304,Sherburne County,MN,66.08187134502924
56630,Beltrami County,MN,97.07602339181285
38672,DeSoto County,MS,83.62573099415205
39042,Rankin County,MS,38.59649122807017
39073,Rankin County,MS,67.2514619883041
63108,St. Louis city,MO,54.385964912280706
63137,St. Louis County,MO,42.10526315789473
63901,Butler County,MO,19.298245614035086
59718,Gallatin County,MT,39.76608187134503
03584,Coos County,NH,98.83040935672514
07740,Monmouth County,NJ,31.57894736842105
07747,Monmouth County,NJ,92.98245614035088
08015,Burlington County,NJ,82.45614035087719
08105,Camden County,NJ,11.695906432748536
87110,Bernalillo County,NM,45.02923976608187
87505,Santa Fe County,NM,8.187134502923977
11220,Kings County,NY,5.847953216374268
12553,Orange County,NY,78.3625730994152
13076,Oswego County,NY,94.15204678362574
13110,Onondaga County,NY,95.90643274853801
13205,Onondaga County,NY,17.543859649122805
13326,Otsego County,NY,74.26900584795322
13856,Delaware County,NY,53.80116959064327
14221,Erie County,NY,16.374269005847953
14227,Erie County,NY,28.654970760233915
14424,Ontario County,NY,4.093567251461988
14559,Monroe County,NY,15.789473684210526
14612,Monroe County,NY,2.3391812865497075
14619,Monroe County,NY,19.883040935672515
14845,Chemung County,NY,23.391812865497073
14850,Tompkins County,NY,8.771929824561402
27295,Davidson County,NC,6.432748538011696
27893,Wilson County,NC,21.637426900584796
28412,New Hanover County,NC,22.22222222222222
43031,Licking County,OH,80.7017543859649
43230,Franklin County,OH,22.807017543859647
43316,Wyandot County,OH,80.11695906432749
44108,Cuyahoga County,OH,4.678362573099415
44146,Cuyahoga County,OH,11.11111111111111
44301,Summit County,OH,36.25730994152047
44440,Trumbull County,OH,87.71929824561403
44509,Mahoning County,OH,76.60818713450293
44707,Stark County,OH,65.49707602339181
44837,Huron County,OH,86.54970760233918
45344,Clark County,OH,61.40350877192983
45505,Clark County,OH,35.67251461988304
45891,Van Wert County,OH,33.91812865497076
73162,Oklahoma County,OK,53.216374269005854
74110,Tulsa County,OK,84.21052631578947
97006,Washington County,OR,34.50292397660819
97089,Clackamas County,OR,81.87134502923976
97212,Multnomah County,OR,67.83625730994152
97378,Yamhill County,OR,85.38011695906432
15701,Indiana County,PA,26.900584795321635
16678,Bedford County,PA,96.49122807017544
17013,Cumberland County,PA,26.31578947368421
17044,Mifflin County,PA,16.95906432748538
17815,Columbia County,PA,23.976608187134502
17851,Northumberland County,PA,70.76023391812866
18466,Monroe County,PA,59.64912280701754
19518,Berks County,PA,52.046783625730995
02911,Providence County,RI,72.51461988304094
29340,Cherokee County,SC,45.614035087719294
29477,Dorchester County,SC,88.30409356725146
29579,Horry County,SC,57.30994152046783
37066,Sumner County,TN,13.450292397660817
37086,Rutherford County,TN,49.707602339181285
38122,Shelby County,TN,58.47953216374269
75080,Dallas County,TX,63.1578947368421
76106,Tarrant County,TX,78.94736842105263
76109,Tarrant County,TX,61.98830409356725
76126,Tarrant County,TX,77.77777777777779
77064,Harris County,TX,40.35087719298245
77070,Harris County,TX,49.122807017543856
77984,Lavaca County,TX,98.24561403508771
79423,Lubbock County,TX,32.16374269005848
84093,Salt Lake County,UT,93.56725146198829
22203,Arlington County,VA,89.47368421052632
22204,Arlington County,VA,30.994152046783626
22305,Alexandria city,VA,77.19298245614034
22306,Fairfax County,VA,32.748538011695906
23224,Richmond city,VA,15.204678362573098
23236,Chesterfield County,VA,66.66666666666666
24019,Roanoke County,VA,60.23391812865497
24340,Washington County,VA,90.05847953216374
20020,District of Columbia,DC,2.923976608187134
24740,Mercer County,WV,36.84210526315789
53222,Milwaukee County,WI,60.81871345029239
54113,Outagamie County,WI,99.41520467836257
54751,Dunn County,WI,39.1812865497076
54755,Buffalo County,WI,91.22807017543859
54843,Sawyer County,WI,83.04093567251462
