ZipCode,county,state,Adult,Retirement,Geriatric
35007,Shelby County,AL,44.533762057877816,NA,NA
35146,St. Clair County,AL,NA,NA,88.83248730964468
35555,Fayette County,AL,NA,NA,47.96954314720812
35611,Limestone County,AL,67.84565916398714,NA,NA
35640,Morgan County,AL,29.421221864951768,NA,NA
35654,Franklin County,AL,NA,NA,92.38578680203045
35749,Madison County,AL,NA,48.470209339774556,NA
35806,Madison County,AL,NA,55.394524959742355,NA
36027,Barbour County,AL,34.08360128617363,NA,NA
36111,Montgomery County,AL,56.91318327974276,NA,NA
36301,Houston County,AL,NA,14.170692431561996,NA
36421,Covington County,AL,75.88424437299035,NA,NA
36507,Baldwin County,AL,34.40514469453376,NA,NA
36609,Mobile County,AL,NA,58.132045088566834,NA
36870,Lee County,AL,72.508038585209,NA,NA
99503,Anchorage Municipality,AK,40.032154340836016,NA,NA
99567,Anchorage Municipality,AK,NA,97.10144927536231,NA
99654,Matanuska-Susitna Borough,AK,62.057877813504824,NA,NA
99701,Fairbanks North Star Borough,AK,NA,65.70048309178745,NA
85007,Maricopa County,AZ,8.19935691318328,30.112721417069245,NA
85008,Maricopa County,AZ,10.77170418006431,NA,NA
85014,Maricopa County,AZ,38.58520900321543,NA,NA
85021,Maricopa County,AZ,9.32475884244373,NA,NA
85023,Maricopa County,AZ,NA,54.428341384863124,NA
85033,Maricopa County,AZ,13.826366559485532,NA,NA
85085,Maricopa County,AZ,NA,78.26086956521739,NA
85119,Pinal County,AZ,NA,83.09178743961353,NA
85120,Pinal County,AZ,NA,NA,28.426395939086298
85123,Pinal County,AZ,NA,NA,84.01015228426397
85259,Maricopa County,AZ,NA,70.53140096618358,NA
85301,Maricopa County,AZ,3.858520900321544,19.484702093397747,NA
85308,Maricopa County,AZ,NA,NA,34.01015228426396
85321,Pima County,AZ,98.07073954983923,NA,NA
85338,Maricopa County,AZ,NA,40.09661835748793,NA
85344,La Paz County,AZ,NA,32.850241545893724,NA
85374,Maricopa County,AZ,NA,16.425120772946862,NA
85379,Maricopa County,AZ,26.848874598070736,NA,NA
85382,Maricopa County,AZ,NA,NA,14.720812182741117
85544,Gila County,AZ,NA,97.90660225442835,NA
85603,Cochise County,AZ,90.9967845659164,NA,NA
85621,Santa Cruz County,AZ,92.60450160771704,NA,NA
85705,Pima County,AZ,NA,5.797101449275362,NA
85710,Pima County,AZ,7.395498392282958,NA,NA
85711,Pima County,AZ,7.234726688102894,NA,NA
85737,Pima County,AZ,NA,44.927536231884055,NA
85739,Pinal County,AZ,NA,NA,56.852791878172596
85756,Pima County,AZ,30.064308681672024,NA,NA
85937,Navajo County,AZ,NA,78.90499194847021,NA
86004,Coconino County,AZ,NA,12.077294685990339,NA
86045,Coconino County,AZ,22.508038585209004,NA,NA
86326,Yavapai County,AZ,NA,53.4621578099839,NA
86409,Mohave County,AZ,NA,25.28180354267311,NA
86442,Mohave County,AZ,24.115755627009648,NA,19.289340101522843
71602,Jefferson County,AR,NA,NA,92.89340101522842
71635,Ashley County,AR,75.72347266881029,NA,NA
71822,Little River County,AR,NA,67.4718196457327,NA
71854,Miller County,AR,NA,24.315619967793882,NA
72010,White County,AR,NA,NA,69.79695431472082
72031,Van Buren County,AR,NA,89.21095008051529,NA
72104,Hot Spring County,AR,51.446945337620576,NA,NA
72114,Pulaski County,AR,71.22186495176848,NA,NA
72120,Pulaski County,AR,67.68488745980707,15.458937198067632,NA
72205,Pulaski County,AR,NA,NA,51.01522842639594
72209,Pulaski County,AR,NA,NA,58.37563451776649
72404,Craighead County,AR,NA,NA,66.24365482233503
72576,Fulton County,AR,85.69131832797427,NA,NA
72653,Baxter County,AR,NA,NA,9.898477157360407
72687,Marion County,AR,NA,93.39774557165862,NA
72704,Washington County,AR,NA,75.68438003220612,NA
72714,Benton County,AR,NA,61.99677938808373,NA
72753,Washington County,AR,NA,NA,96.7005076142132
72855,Logan County,AR,NA,84.86312399355877,NA
72921,Crawford County,AR,NA,94.84702093397746,NA
72933,Franklin County,AR,NA,99.6779388083736,NA
72936,Sebastian County,AR,68.48874598070739,NA,NA
90001,Los Angeles County,CA,69.29260450160771,NA,NA
90013,Los Angeles County,CA,75.40192926045016,NA,NA
90016,Los Angeles County,CA,NA,NA,26.903553299492383
90017,Los Angeles County,CA,NA,NA,82.23350253807106
90031,Los Angeles County,CA,63.665594855305464,NA,NA
90039,Los Angeles County,CA,95.17684887459808,NA,NA
90040,Los Angeles County,CA,NA,NA,87.81725888324873
90041,Los Angeles County,CA,NA,NA,58.88324873096447
90042,Los Angeles County,CA,NA,NA,61.6751269035533
90044,Los Angeles County,CA,6.109324758842444,NA,NA
90045,Los Angeles County,CA,NA,NA,40.35532994923858
90047,Los Angeles County,CA,NA,11.594202898550725,NA
90059,Los Angeles County,CA,NA,77.93880837359099,NA
90066,Los Angeles County,CA,NA,NA,25.380710659898476
90221,Los Angeles County,CA,8.038585209003216,NA,NA
90248,Los Angeles County,CA,NA,90.01610305958133,NA
90249,Los Angeles County,CA,NA,NA,48.984771573604064
90255,Los Angeles County,CA,25.562700964630224,NA,NA
90503,Los Angeles County,CA,NA,39.130434782608695,NA
90620,Orange County,CA,82.63665594855306,NA,NA
90638,Los Angeles County,CA,NA,NA,26.14213197969543
90640,Los Angeles County,CA,29.581993569131832,NA,28.17258883248731
90660,Los Angeles County,CA,NA,NA,20.812182741116754
90715,Los Angeles County,CA,NA,70.37037037037037,NA
90805,Los Angeles County,CA,NA,NA,49.746192893401016
91040,Los Angeles County,CA,NA,NA,65.98984771573603
91304,Los Angeles County,CA,42.443729903536976,NA,NA
91306,Los Angeles County,CA,35.36977491961415,NA,NA
91316,Los Angeles County,CA,NA,NA,57.868020304568525
91342,Los Angeles County,CA,17.524115755627008,44.76650563607085,NA
91406,Los Angeles County,CA,45.4983922829582,NA,NA
91411,Los Angeles County,CA,NA,94.36392914653784,NA
91502,Los Angeles County,CA,97.7491961414791,NA,NA
91505,Los Angeles County,CA,91.80064308681672,NA,NA
91506,Los Angeles County,CA,NA,82.1256038647343,NA
91606,Los Angeles County,CA,NA,50.40257648953301,42.63959390862944
91722,Los Angeles County,CA,83.44051446945338,NA,NA
91723,Los Angeles County,CA,72.82958199356914,NA,NA
91724,Los Angeles County,CA,66.72025723472669,NA,NA
91731,Los Angeles County,CA,31.350482315112536,NA,NA
91732,Los Angeles County,CA,NA,28.663446054750402,NA
91744,Los Angeles County,CA,72.02572347266882,NA,NA
91745,Los Angeles County,CA,60.932475884244376,NA,25.888324873096447
91748,Los Angeles County,CA,NA,55.23349436392915,NA
91766,Los Angeles County,CA,NA,42.19001610305958,NA
91910,San Diego County,CA,NA,60.38647342995169,NA
91942,San Diego County,CA,NA,NA,22.081218274111674
92009,San Diego County,CA,NA,NA,43.65482233502538
92020,San Diego County,CA,NA,34.78260869565217,NA
92021,San Diego County,CA,12.861736334405144,NA,NA
92025,San Diego County,CA,NA,NA,44.16243654822335
92028,San Diego County,CA,57.234726688102896,NA,NA
92083,San Diego County,CA,NA,58.93719806763285,NA
92103,San Diego County,CA,NA,NA,41.62436548223351
92104,San Diego County,CA,NA,34.29951690821256,NA
92107,San Diego County,CA,NA,64.4122383252818,NA
92126,San Diego County,CA,NA,30.434782608695656,NA
92253,Riverside County,CA,NA,NA,9.390862944162437
92270,Riverside County,CA,NA,NA,72.58883248730965
92277,San Bernardino County,CA,NA,89.69404186795491,NA
92399,San Bernardino County,CA,NA,18.84057971014493,NA
92404,San Bernardino County,CA,14.308681672025724,NA,NA
92570,Riverside County,CA,79.09967845659163,NA,NA
92583,Riverside County,CA,NA,97.74557165861513,NA
92586,Riverside County,CA,100,NA,NA
92618,Orange County,CA,NA,99.03381642512076,NA
92626,Orange County,CA,NA,40.90177133655394,NA
92627,Orange County,CA,80.86816720257235,NA,NA
92637,Orange County,CA,NA,NA,1.7766497461928936
92646,Orange County,CA,NA,NA,34.263959390862944
92656,Orange County,CA,NA,NA,75.38071065989847
92660,Orange County,CA,NA,NA,13.451776649746192
92673,Orange County,CA,NA,NA,63.45177664974619
92683,Orange County,CA,NA,NA,4.060913705583756
92692,Orange County,CA,NA,NA,39.59390862944163
92703,Orange County,CA,NA,49.75845410628019,NA
92707,Orange County,CA,36.655948553054664,NA,83.75634517766497
92708,Orange County,CA,NA,NA,20.050761421319795
92840,Orange County,CA,44.21221864951769,NA,NA
92844,Orange County,CA,NA,NA,95.17766497461929
92882,Riverside County,CA,NA,35.10466988727858,NA
93033,Ventura County,CA,9.003215434083602,NA,NA
93060,Ventura County,CA,63.344051446945336,NA,NA
93101,Santa Barbara County,CA,86.0128617363344,NA,NA
93257,Tulare County,CA,NA,NA,19.796954314720814
93274,Tulare County,CA,39.228295819935695,NA,NA
93277,Tulare County,CA,22.829581993569132,NA,NA
93291,Tulare County,CA,18.327974276527332,64.573268921095,23.604060913705585
93292,Tulare County,CA,NA,NA,52.28426395939086
93307,Kern County,CA,NA,15.619967793880837,NA
93308,Kern County,CA,NA,27.375201288244767,NA
93311,Kern County,CA,NA,53.14009661835749,NA
93312,Kern County,CA,64.95176848874597,NA,NA
93401,San Luis Obispo County,CA,51.12540192926045,NA,NA
93420,San Luis Obispo County,CA,NA,NA,43.401015228426395
93591,Los Angeles County,CA,NA,99.8389694041868,NA
93620,Merced County,CA,90.5144694533762,NA,NA
93704,Fresno County,CA,44.855305466237944,NA,NA
93706,Fresno County,CA,NA,67.7938808373591,NA
93720,Fresno County,CA,28.617363344051448,NA,NA
94015,San Mateo County,CA,NA,NA,46.44670050761421
94061,San Mateo County,CA,NA,76.16747181964574,NA
94063,San Mateo County,CA,37.138263665594856,NA,NA
94066,San Mateo County,CA,38.10289389067524,NA,NA
94103,San Francisco County,CA,9.646302250803858,NA,NA
94109,San Francisco County,CA,NA,NA,3.2994923857868024
94110,San Francisco County,CA,NA,6.602254428341385,NA
94115,San Francisco County,CA,NA,NA,44.41624365482234
94117,San Francisco County,CA,30.70739549839228,NA,NA
94127,San Francisco County,CA,NA,62.80193236714976,NA
94403,San Mateo County,CA,87.78135048231512,NA,NA
94501,Alameda County,CA,NA,NA,21.573604060913706
94502,Alameda County,CA,NA,NA,100
94513,Contra Costa County,CA,NA,NA,27.66497461928934
94523,Contra Costa County,CA,NA,52.65700483091788,NA
94541,Alameda County,CA,NA,17.391304347826086,NA
94544,Alameda County,CA,NA,41.38486312399356,NA
94551,Alameda County,CA,NA,48.631239935587764,NA
94558,Napa County,CA,NA,NA,2.5380710659898478
94561,Contra Costa County,CA,33.60128617363344,NA,NA
94565,Contra Costa County,CA,NA,NA,70.55837563451777
94577,Alameda County,CA,63.022508038585215,NA,NA
94952,Sonoma County,CA,NA,66.50563607085346,NA
95003,Santa Cruz County,CA,79.7427652733119,69.40418679549114,NA
95020,Santa Clara County,CA,NA,NA,46.954314720812185
95033,Santa Cruz County,CA,NA,85.02415458937197,NA
95062,Santa Cruz County,CA,66.2379421221865,NA,NA
95116,Santa Clara County,CA,37.459807073954984,NA,NA
95128,Santa Clara County,CA,31.028938906752412,NA,93.1472081218274
95202,San Joaquin County,CA,25.401929260450164,NA,NA
95203,San Joaquin County,CA,77.491961414791,NA,NA
95206,San Joaquin County,CA,NA,57.00483091787439,NA
95209,San Joaquin County,CA,NA,NA,59.89847715736041
95340,Merced County,CA,61.575562700964625,NA,NA
95341,Merced County,CA,90.03215434083602,NA,NA
95351,Stanislaus County,CA,NA,NA,60.659898477157356
95363,Stanislaus County,CA,79.42122186495176,NA,NA
95370,Tuolumne County,CA,NA,2.898550724637681,NA
95380,Stanislaus County,CA,69.61414790996785,NA,NA
95501,Humboldt County,CA,NA,32.367149758454104,NA
95503,Humboldt County,CA,42.12218649517685,NA,NA
95648,Placer County,CA,78.13504823151125,55.55555555555556,NA
95673,Sacramento County,CA,78.93890675241157,NA,NA
95678,Placer County,CA,42.60450160771704,NA,NA
95746,Placer County,CA,NA,69.08212560386472,NA
95747,Placer County,CA,NA,NA,68.52791878172589
95765,Placer County,CA,NA,85.34621578099839,NA
95821,Sacramento County,CA,37.29903536977492,NA,38.3248730964467
95823,Sacramento County,CA,NA,NA,27.157360406091367
95946,Nevada County,CA,NA,61.67471819645732,NA
95969,Butte County,CA,27.331189710610932,NA,NA
96130,Lassen County,CA,86.33440514469454,NA,NA
80005,Jefferson County,CO,NA,NA,64.72081218274111
80010,Arapahoe County,CO,NA,NA,60.15228426395939
80015,Arapahoe County,CO,NA,20.28985507246377,NA
80021,Jefferson County,CO,NA,NA,84.77157360406092
80022,Adams County,CO,NA,NA,67.76649746192894
80030,Adams County,CO,92.92604501607717,NA,NA
80123,Jefferson County,CO,NA,NA,32.233502538071065
80204,Denver County,CO,NA,82.2866344605475,NA
80207,Denver County,CO,NA,61.99677938808373,NA
80223,Denver County,CO,56.59163987138264,NA,NA
80233,Adams County,CO,NA,75.2012882447665,NA
80241,Adams County,CO,84.88745980707395,NA,NA
80301,Boulder County,CO,NA,NA,51.776649746192895
80521,Larimer County,CO,NA,56.84380032206119,NA
80525,Larimer County,CO,NA,8.856682769726248,NA
80549,Larimer County,CO,NA,88.56682769726248,NA
80620,Weld County,CO,NA,93.07568438003221,90.1015228426396
80621,Weld County,CO,NA,72.78582930756843,NA
80634,Weld County,CO,NA,1.7713365539452495,NA
80829,El Paso County,CO,95.81993569131832,NA,NA
80831,El Paso County,CO,NA,67.14975845410628,NA
80904,El Paso County,CO,58.19935691318327,NA,NA
80905,El Paso County,CO,60.12861736334405,NA,NA
80907,El Paso County,CO,47.266881028938904,NA,NA
80910,El Paso County,CO,22.02572347266881,NA,NA
80916,El Paso County,CO,31.189710610932476,NA,NA
81004,Pueblo County,CO,NA,27.053140096618357,NA
81005,Pueblo County,CO,31.832797427652732,NA,NA
81006,Pueblo County,CO,91.63987138263666,NA,NA
81050,Otero County,CO,NA,91.94847020933977,NA
81212,Fremont County,CO,NA,NA,66.24365482233503
81505,Mesa County,CO,NA,74.07407407407408,NA
81507,Mesa County,CO,NA,60.86956521739131,NA
81520,Mesa County,CO,NA,NA,89.84771573604061
81647,Garfield County,CO,93.72990353697749,NA,NA
06001,Hartford County,CT,NA,NA,50.50761421319797
06002,Hartford County,CT,NA,58.615136876006446,NA
06010,Hartford County,CT,NA,NA,2.030456852791878
06074,Hartford County,CT,NA,NA,23.85786802030457
06082,Hartford County,CT,NA,12.721417069243158,NA
06105,Hartford County,CT,18.971061093247588,NA,NA
06460,New Haven County,CT,NA,NA,78.1725888324873
06480,Middlesex County,CT,84.2443729903537,NA,NA
06484,Fairfield County,CT,NA,NA,15.228426395939088
06488,New Haven County,CT,NA,NA,43.14720812182741
06492,New Haven County,CT,NA,NA,4.314720812182741
06606,Fairfield County,CT,NA,NA,36.29441624365482
06608,Fairfield County,CT,87.62057877813506,NA,NA
06610,Fairfield County,CT,88.90675241157557,NA,NA
06614,Fairfield County,CT,52.41157556270096,NA,NA
06712,New Haven County,CT,86.17363344051448,NA,NA
06795,Litchfield County,CT,78.61736334405145,NA,NA
06810,Fairfield County,CT,NA,NA,23.3502538071066
06824,Fairfield County,CT,64.30868167202573,NA,NA
06880,Fairfield County,CT,NA,81.32045088566827,NA
06883,Fairfield County,CT,NA,NA,79.18781725888326
19720,New Castle County,DE,NA,2.576489533011272,NA
19804,New Castle County,DE,NA,42.028985507246375,NA
19809,New Castle County,DE,54.019292604501615,NA,NA
19904,Kent County,DE,NA,94.20289855072464,NA
32024,Columbia County,FL,87.29903536977493,NA,NA
32084,St. Johns County,FL,NA,25.60386473429952,NA
32118,Volusia County,FL,NA,82.93075684380032,NA
32159,Lake County,FL,NA,21.578099838969404,NA
32163,Sumter County,FL,NA,30.917874396135264,NA
32177,Putnam County,FL,38.7459807073955,NA,NA
32189,Putnam County,FL,NA,82.6086956521739,NA
32208,Duval County,FL,NA,5.314009661835748,NA
32209,Duval County,FL,18.971061093247588,13.043478260869565,NA
32216,Duval County,FL,NA,26.89210950080515,NA
32217,Duval County,FL,NA,71.33655394524959,NA
32233,Duval County,FL,34.726688102893895,NA,NA
32258,Duval County,FL,NA,85.99033816425121,NA
32305,Leon County,FL,57.39549839228296,NA,NA
32404,Bay County,FL,67.20257234726688,NA,NA
32405,Bay County,FL,23.311897106109324,NA,NA
32409,Bay County,FL,NA,61.99677938808373,NA
32440,Jackson County,FL,85.20900321543408,NA,NA
32462,Washington County,FL,NA,95.33011272141707,NA
32503,Escambia County,FL,18.006430868167204,NA,NA
32505,Escambia County,FL,NA,8.373590982286634,NA
32506,Escambia County,FL,NA,15.942028985507244,45.93908629441624
32526,Escambia County,FL,11.414790996784566,NA,NA
32536,Okaloosa County,FL,NA,56.36070853462157,NA
32570,Santa Rosa County,FL,NA,4.508856682769726,NA
32583,Santa Rosa County,FL,NA,20.611916264090176,NA
32607,Alachua County,FL,17.041800643086816,NA,NA
32640,Putnam County,FL,NA,62.96296296296296,NA
32767,Lake County,FL,99.51768488745981,NA,NA
32780,Brevard County,FL,NA,NA,3.5532994923857872
32792,Orange County,FL,54.18006430868167,NA,NA
32807,Orange County,FL,39.067524115755624,NA,NA
32904,Brevard County,FL,41.31832797427653,NA,NA
32927,Brevard County,FL,NA,43.47826086956522,NA
32931,Brevard County,FL,NA,83.41384863123994,NA
32937,Brevard County,FL,85.36977491961414,NA,NA
32960,Indian River County,FL,NA,91.46537842190016,NA
33009,Broward County,FL,NA,40.57971014492754,10.406091370558377
33020,Broward County,FL,26.20578778135048,NA,NA
33055,Miami-Dade County,FL,44.69453376205787,NA,NA
33067,Broward County,FL,NA,71.49758454106279,NA
33126,Miami-Dade County,FL,NA,40.90177133655394,NA
33130,Miami-Dade County,FL,90.19292604501608,NA,NA
33161,Miami-Dade County,FL,29.903536977491964,NA,NA
33173,Miami-Dade County,FL,NA,NA,17.258883248730964
33178,Miami-Dade County,FL,NA,NA,63.95939086294417
33179,Miami-Dade County,FL,78.29581993569131,NA,NA
33312,Broward County,FL,NA,17.23027375201288,NA
33315,Broward County,FL,NA,79.87117552334944,NA
33408,Palm Beach County,FL,68.0064308681672,NA,NA
33410,Palm Beach County,FL,NA,77.13365539452496,NA
33411,Palm Beach County,FL,NA,19.806763285024154,NA
33412,Palm Beach County,FL,NA,74.7181964573269,NA
33414,Palm Beach County,FL,NA,37.84219001610306,NA
33417,Palm Beach County,FL,NA,52.65700483091788,55.0761421319797
33446,Palm Beach County,FL,NA,NA,2.7918781725888326
33455,Martin County,FL,NA,20.933977455716587,NA
33513,Sumter County,FL,NA,79.06602254428341,NA
33547,Hillsborough County,FL,74.43729903536978,NA,NA
33566,Hillsborough County,FL,NA,59.42028985507246,NA
33573,Hillsborough County,FL,91.47909967845659,20.128824476650564,NA
33596,Hillsborough County,FL,82.15434083601286,NA,NA
33602,Hillsborough County,FL,80.22508038585208,NA,NA
33603,Hillsborough County,FL,NA,NA,93.65482233502537
33604,Hillsborough County,FL,21.382636655948552,NA,72.84263959390863
33647,Hillsborough County,FL,NA,40.57971014492754,NA
33702,Pinellas County,FL,46.141479099678456,NA,NA
33703,Pinellas County,FL,NA,NA,78.68020304568529
33771,Pinellas County,FL,NA,NA,20.304568527918782
33781,Pinellas County,FL,81.9935691318328,64.25120772946859,NA
33805,Polk County,FL,NA,31.88405797101449,NA
33830,Polk County,FL,NA,92.7536231884058,NA
33884,Polk County,FL,NA,NA,26.39593908629442
33904,Lee County,FL,NA,NA,32.99492385786802
33905,Lee County,FL,NA,23.349436392914654,NA
33936,Lee County,FL,41.639871382636656,NA,NA
34104,Collier County,FL,NA,48.309178743961354,NA
34219,Manatee County,FL,NA,NA,87.05583756345177
34221,Manatee County,FL,NA,25.442834138486315,NA
34223,Sarasota County,FL,NA,77.29468599033817,NA
34231,Sarasota County,FL,92.44372990353698,NA,NA
34233,Sarasota County,FL,NA,90.17713365539453,NA
34292,Sarasota County,FL,NA,NA,11.928934010152284
34446,Citrus County,FL,NA,NA,33.50253807106599
34450,Citrus County,FL,NA,NA,85.0253807106599
34488,Marion County,FL,85.04823151125403,NA,NA
34602,Hernando County,FL,NA,84.38003220611915,NA
34667,Pasco County,FL,38.263665594855304,NA,NA
34689,Pinellas County,FL,90.35369774919614,NA,NA
34698,Pinellas County,FL,NA,NA,15.48223350253807
34715,Lake County,FL,NA,93.55877616747182,NA
34743,Osceola County,FL,40.836012861736336,NA,NA
34786,Orange County,FL,NA,46.53784219001611,NA
34946,St. Lucie County,FL,NA,86.95652173913044,NA
34953,St. Lucie County,FL,NA,31.07890499194847,NA
34997,Martin County,FL,NA,83.57487922705315,3.807106598984772
30016,Newton County,GA,NA,68.59903381642512,NA
30019,Gwinnett County,GA,65.11254019292605,NA,NA
30022,Fulton County,GA,NA,NA,74.8730964467005
30041,Forsyth County,GA,NA,38.808373590982285,NA
30060,Cobb County,GA,33.440514469453376,NA,NA
30066,Cobb County,GA,NA,92.27053140096618,NA
30082,Cobb County,GA,NA,93.23671497584542,NA
30097,Fulton County,GA,NA,76.48953301127214,41.370558375634516
30121,Bartow County,GA,NA,76.81159420289855,NA
30144,Cobb County,GA,61.89710610932476,NA,NA
30157,Paulding County,GA,23.15112540192926,NA,NA
30184,Bartow County,GA,NA,87.43961352657004,NA
30188,Cherokee County,GA,19.292604501607716,NA,NA
30214,Fayette County,GA,NA,37.35909822866345,NA
30233,Butts County,GA,NA,47.66505636070853,NA
30310,Fulton County,GA,NA,14.492753623188406,NA
30318,Fulton County,GA,NA,59.74235104669887,NA
30328,Fulton County,GA,NA,NA,31.218274111675125
30349,Fulton County,GA,NA,9.98389694041868,NA
30439,Candler County,GA,77.81350482315112,NA,NA
30458,Bulloch County,GA,NA,32.689210950080515,NA
30474,Toombs County,GA,53.69774919614147,NA,NA
30518,Gwinnett County,GA,NA,32.52818035426731,NA
30528,White County,GA,45.98070739549839,NA,NA
30549,Jackson County,GA,NA,48.792270531400966,NA
30643,Hart County,GA,58.36012861736335,NA,NA
30824,McDuffie County,GA,NA,45.088566827697264,NA
31032,Jones County,GA,NA,90.49919484702093,NA
31055,Telfair County,GA,NA,87.11755233494364,NA
31064,Jasper County,GA,73.31189710610933,NA,NA
31088,Houston County,GA,NA,NA,15.989847715736042
31406,Chatham County,GA,45.81993569131833,NA,NA
31904,Muscogee County,GA,NA,16.264090177133657,NA
96701,Honolulu County,HI,NA,NA,9.644670050761421
96708,Maui County,HI,98.39228295819936,NA,NA
96744,Honolulu County,HI,NA,NA,21.065989847715734
96750,Hawaii County,HI,NA,96.29629629629629,NA
96786,Honolulu County,HI,28.778135048231512,NA,NA
96792,Honolulu County,HI,36.01286173633441,NA,NA
96818,Honolulu County,HI,46.463022508038584,NA,NA
83204,Bannock County,ID,73.47266881028939,NA,NA
83221,Bingham County,ID,55.30546623794213,NA,NA
83333,Blaine County,ID,NA,80.19323671497585,NA
83401,Bonneville County,ID,12.218649517684888,NA,NA
83605,Canyon County,ID,NA,21.09500805152979,NA
83660,Canyon County,ID,80.06430868167203,NA,NA
83687,Canyon County,ID,NA,16.10305958132045,NA
83702,Ada County,ID,26.04501607717042,NA,NA
83709,Ada County,ID,NA,46.85990338164252,NA
60005,Cook County,IL,75.56270096463022,NA,NA
60008,Cook County,IL,NA,NA,45.431472081218274
60010,Lake County,IL,NA,12.399355877616747,NA
60016,Cook County,IL,NA,9.178743961352657,NA
60044,Lake County,IL,76.36655948553054,NA,NA
60073,Lake County,IL,13.504823151125404,NA,NA
60098,McHenry County,IL,NA,12.88244766505636,NA
60102,McHenry County,IL,40.51446945337621,NA,NA
60108,DuPage County,IL,76.84887459807074,NA,NA
60118,Kane County,IL,67.04180064308682,NA,NA
60123,Kane County,IL,18.64951768488746,NA,NA
60133,Cook County,IL,NA,46.2157809983897,NA
60137,DuPage County,IL,NA,58.77616747181964,NA
60139,DuPage County,IL,43.729903536977496,NA,NA
60143,DuPage County,IL,NA,NA,94.9238578680203
60148,DuPage County,IL,NA,4.830917874396135,NA
60156,McHenry County,IL,89.54983922829582,NA,NA
60162,Cook County,IL,NA,NA,67.00507614213198
60171,Cook County,IL,80.54662379421221,NA,NA
60175,Kane County,IL,69.93569131832797,NA,NA
60185,DuPage County,IL,32.154340836012864,NA,NA
60202,Cook County,IL,NA,79.54911433172302,NA
60304,Cook County,IL,51.929260450160776,NA,NA
60409,Cook County,IL,NA,NA,32.74111675126903
60411,Cook County,IL,10.289389067524116,NA,NA
60420,Livingston County,IL,NA,87.76167471819646,NA
60426,Cook County,IL,49.51768488745981,NA,NA
60432,Will County,IL,NA,NA,77.41116751269035
60433,Will County,IL,NA,69.24315619967794,NA
60464,Cook County,IL,NA,NA,59.64467005076142
60472,Cook County,IL,93.08681672025723,NA,NA
60473,Cook County,IL,NA,NA,22.84263959390863
60477,Cook County,IL,77.33118971061094,NA,NA
60502,DuPage County,IL,NA,65.86151368760065,NA
60515,DuPage County,IL,65.59485530546624,NA,NA
60542,Kane County,IL,59.0032154340836,NA,NA
60544,Will County,IL,NA,22.705314009661837,NA
60611,Cook County,IL,NA,NA,41.878172588832484
60612,Cook County,IL,16.39871382636656,NA,NA
60617,Cook County,IL,6.270096463022508,NA,NA
60622,Cook County,IL,31.832797427652732,NA,NA
60625,Cook County,IL,NA,NA,18.02030456852792
60628,Cook County,IL,6.430868167202572,NA,NA
60629,Cook County,IL,NA,24.798711755233494,NA
60632,Cook County,IL,NA,NA,24.111675126903553
60638,Cook County,IL,NA,6.280193236714976,NA
60643,Cook County,IL,NA,3.22061191626409,NA
60651,Cook County,IL,NA,6.763285024154589,NA
60655,Cook County,IL,70.90032154340837,NA,NA
60660,Cook County,IL,54.340836012861736,NA,NA
61073,Winnebago County,IL,NA,37.19806763285024,NA
61104,Winnebago County,IL,88.42443729903538,NA,NA
61107,Winnebago County,IL,NA,NA,52.79187817258884
61264,Rock Island County,IL,97.42765273311898,NA,NA
61614,Peoria County,IL,NA,33.65539452495974,NA
62274,Perry County,IL,NA,80.51529790660226,NA
62864,Jefferson County,IL,70.41800643086816,NA,NA
46052,Boone County,IN,36.4951768488746,NA,NA
46142,Johnson County,IN,NA,10.789049919484702,NA
46176,Shelby County,IN,NA,9.500805152979067,NA
46202,Marion County,IN,56.27009646302251,NA,NA
46218,Marion County,IN,7.717041800643088,NA,NA
46226,Marion County,IN,35.048231511254016,NA,NA
46227,Marion County,IN,7.556270096463022,NA,NA
46254,Marion County,IN,19.45337620578778,NA,NA
46307,Lake County,IN,NA,NA,1.2690355329949239
46311,Lake County,IN,NA,48.148148148148145,NA
46323,Lake County,IN,NA,NA,32.48730964467005
46324,Lake County,IN,14.14790996784566,NA,NA
46327,Lake County,IN,NA,79.22705314009661,NA
46342,Lake County,IN,4.662379421221865,NA,51.52284263959391
46350,LaPorte County,IN,NA,NA,17.00507614213198
46360,LaPorte County,IN,22.990353697749196,NA,NA
46368,Porter County,IN,NA,1.610305958132045,NA
46542,Kosciusko County,IN,NA,NA,96.19289340101524
46545,St. Joseph County,IN,NA,NA,82.99492385786802
46614,St. Joseph County,IN,77.0096463022508,NA,NA
46755,Noble County,IN,69.77491961414792,NA,NA
46805,Allen County,IN,85.85209003215434,NA,NA
46818,Allen County,IN,NA,42.351046698872786,NA
46901,Howard County,IN,1.607717041800643,NA,NA
46902,Howard County,IN,17.363344051446948,NA,NA
46947,Cass County,IN,54.82315112540193,NA,8.375634517766498
47031,Ripley County,IN,NA,NA,99.49238578680203
47102,Scott County,IN,83.11897106109325,NA,NA
47201,Bartholomew County,IN,35.20900321543408,NA,NA
47265,Jennings County,IN,20.739549839228296,NA,NA
47274,Jackson County,IN,NA,29.629629629629626,NA
47331,Fayette County,IN,58.038585209003216,NA,NA
47374,Wayne County,IN,49.356913183279744,NA,NA
47452,Orange County,IN,99.83922829581994,NA,NA
47591,Knox County,IN,NA,23.67149758454106,NA
47807,Vigo County,IN,81.67202572347267,NA,NA
47918,Fountain County,IN,NA,NA,81.7258883248731
50010,Story County,IA,NA,67.31078904991948,NA
50211,Warren County,IA,96.14147909967846,NA,NA
50310,Polk County,IA,47.58842443729904,NA,NA
50436,Winnebago County,IA,87.94212218649517,NA,NA
50461,Mitchell County,IA,NA,80.67632850241546,NA
50595,Hamilton County,IA,NA,NA,86.5482233502538
51503,Pottawattamie County,IA,NA,24.154589371980677,NA
52057,Delaware County,IA,99.35691318327974,NA,NA
52233,Linn County,IA,NA,96.77938808373591,NA
52240,Johnson County,IA,74.11575562700965,77.45571658615137,NA
52404,Linn County,IA,NA,NA,28.680203045685282
52405,Linn County,IA,NA,82.4476650563607,40.609137055837564
52501,Wapello County,IA,37.942122186495176,27.214170692431562,NA
52627,Lee County,IA,NA,70.53140096618358,NA
52632,Lee County,IA,NA,63.28502415458937,NA
66067,Franklin County,KS,NA,49.59742351046699,NA
66083,Johnson County,KS,68.97106109324758,NA,NA
66102,Wyandotte County,KS,NA,NA,55.32994923857868
66207,Johnson County,KS,NA,NA,40.86294416243655
66212,Johnson County,KS,50.482315112540185,NA,NA
66216,Johnson County,KS,65.91639871382637,NA,NA
66614,Shawnee County,KS,NA,17.55233494363929,NA
67042,Butler County,KS,55.948553054662376,NA,NA
67052,Sedgwick County,KS,NA,91.62640901771336,NA
67114,Harvey County,KS,72.34726688102894,NA,56.09137055837563
67207,Sedgwick County,KS,NA,90.66022544283415,NA
67420,Mitchell County,KS,89.71061093247589,NA,NA
40108,Meade County,KY,NA,NA,84.26395939086294
40205,Jefferson County,KY,NA,35.909822866344605,NA
40206,Jefferson County,KY,NA,72.62479871175523,NA
40214,Jefferson County,KY,5.787781350482315,NA,NA
40218,Jefferson County,KY,10.932475884244374,NA,80.20304568527918
40229,Jefferson County,KY,35.530546623794216,NA,NA
40258,Jefferson County,KY,19.614147909967848,NA,NA
40272,Jefferson County,KY,NA,NA,22.33502538071066
40299,Jefferson County,KY,NA,NA,18.274111675126903
40311,Nicholas County,KY,NA,NA,77.66497461928934
40353,Montgomery County,KY,NA,NA,38.3248730964467
40356,Jessamine County,KY,75.2411575562701,NA,NA
40383,Woodford County,KY,NA,70.20933977455717,NA
40475,Madison County,KY,NA,56.68276972624798,NA
40484,Lincoln County,KY,83.60128617363344,NA,NA
40502,Fayette County,KY,NA,NA,42.89340101522843
40508,Fayette County,KY,NA,84.05797101449275,NA
40514,Fayette County,KY,NA,86.47342995169082,NA
41095,Gallatin County,KY,NA,100,NA
41537,Letcher County,KY,82.79742765273312,NA,NA
41653,Floyd County,KY,81.35048231511254,NA,NA
41701,Perry County,KY,27.813504823151124,56.36070853462157,NA
42029,Marshall County,KY,NA,96.94041867954911,NA
42066,Graves County,KY,NA,51.85185185185185,NA
42164,Allen County,KY,64.46945337620579,NA,NA
42240,Christian County,KY,5.305466237942122,13.365539452495975,NA
42320,Ohio County,KY,NA,NA,48.73096446700508
42544,Pulaski County,KY,89.87138263665595,NA,NA
42754,Grayson County,KY,23.47266881028939,NA,NA
70065,Jefferson Parish,LA,NA,NA,2.284263959390863
70072,Jefferson Parish,LA,0.8038585209003215,NA,NA
70126,Orleans Parish,LA,NA,92.914653784219,NA
70363,Terrebonne Parish,LA,2.7331189710610935,NA,NA
70508,Lafayette Parish,LA,NA,50.72463768115942,NA
70582,St. Martin Parish,LA,25.884244372990356,NA,NA
70634,Beauregard Parish,LA,NA,NA,35.27918781725889
70805,East Baton Rouge Parish,LA,2.4115755627009645,NA,NA
71106,Caddo Parish,LA,NA,41.70692431561997,NA
71302,Rapides Parish,LA,NA,NA,47.46192893401015
71483,Winn Parish,LA,NA,93.55877616747182,NA
04092,Cumberland County,ME,NA,NA,45.17766497461929
04401,Penobscot County,ME,1.4469453376205788,NA,NA
04901,Kennebec County,ME,21.70418006430868,NA,NA
20602,Charles County,MD,NA,85.5072463768116,NA
20678,Calvert County,MD,NA,73.42995169082126,NA
20716,Prince George's County,MD,58.842443729903536,NA,NA
20747,Prince George's County,MD,NA,55.072463768115945,NA
20781,Prince George's County,MD,86.81672025723472,NA,NA
20783,Prince George's County,MD,74.7588424437299,NA,NA
20815,Montgomery County,MD,NA,88.88888888888889,NA
20817,Montgomery County,MD,NA,NA,60.40609137055838
20853,Montgomery County,MD,74.27652733118971,NA,NA
20878,Montgomery County,MD,39.71061093247588,NA,NA
21012,Anne Arundel County,MD,NA,64.09017713365539,NA
21042,Howard County,MD,NA,78.74396135265701,NA
21104,Carroll County,MD,NA,NA,97.20812182741116
21108,Anne Arundel County,MD,NA,NA,74.36548223350253
21122,Anne Arundel County,MD,NA,42.99516908212561,22.588832487309645
21144,Anne Arundel County,MD,76.04501607717042,NA,NA
21207,Baltimore County,MD,NA,NA,16.243654822335024
21215,Baltimore city,MD,27.974276527331188,7.4074074074074066,NA
21216,Baltimore city,MD,61.2540192926045,NA,NA
21220,Baltimore County,MD,NA,28.180354267310786,NA
21227,Baltimore County,MD,NA,NA,28.680203045685282
21229,Baltimore city,MD,NA,18.679549114331724,NA
21236,Baltimore County,MD,33.762057877813504,NA,NA
21702,Frederick County,MD,62.86173633440515,NA,NA
21740,Washington County,MD,NA,24.637681159420293,NA
21769,Frederick County,MD,NA,NA,93.90862944162437
01001,Hampden County,MA,NA,51.20772946859904,NA
01020,Hampden County,MA,3.054662379421222,NA,NA
01056,Hampden County,MA,40.353697749196144,NA,NA
01105,Hampden County,MA,NA,38.808373590982285,NA
01331,Worcester County,MA,93.56913183279742,76.97262479871175,NA
01370,Franklin County,MA,79.2604501607717,NA,NA
01460,Middlesex County,MA,77.97427652733118,NA,NA
01501,Worcester County,MA,NA,30.273752012882447,NA
01504,Worcester County,MA,64.14790996784566,NA,NA
01545,Worcester County,MA,41.47909967845659,NA,NA
01566,Worcester County,MA,NA,88.24476650563608,NA
01609,Worcester County,MA,NA,4.669887278582931,NA
01756,Worcester County,MA,NA,NA,82.74111675126903
01801,Middlesex County,MA,95.01607717041801,NA,NA
01810,Essex County,MA,36.33440514469453,NA,NA
01832,Essex County,MA,15.434083601286176,NA,NA
01841,Essex County,MA,70.2572347266881,NA,NA
01864,Middlesex County,MA,NA,78.09983896940419,NA
01905,Essex County,MA,NA,5.958132045088567,NA
01921,Essex County,MA,NA,NA,94.41624365482234
01923,Essex County,MA,96.78456591639872,NA,NA
01950,Essex County,MA,NA,22.06119162640902,NA
01969,Essex County,MA,NA,NA,97.96954314720813
02021,Norfolk County,MA,NA,28.34138486312399,NA
02052,Norfolk County,MA,NA,NA,96.44670050761421
02062,Norfolk County,MA,37.78135048231511,NA,NA
02081,Norfolk County,MA,NA,NA,37.81725888324873
02118,Suffolk County,MA,NA,0.8051529790660225,NA
02122,Suffolk County,MA,NA,NA,75.88832487309645
02124,Suffolk County,MA,60.61093247588425,NA,NA
02130,Suffolk County,MA,0.6430868167202572,NA,NA
02138,Middlesex County,MA,9.485530546623794,NA,NA
02151,Suffolk County,MA,NA,NA,27.918781725888326
02184,Norfolk County,MA,NA,NA,7.868020304568528
02324,Plymouth County,MA,NA,NA,94.16243654822335
02452,Middlesex County,MA,NA,NA,47.20812182741117
02453,Middlesex County,MA,NA,NA,16.751269035532996
02493,Middlesex County,MA,NA,95.16908212560386,NA
02635,Barnstable County,MA,NA,NA,96.95431472081218
02703,Bristol County,MA,NA,NA,30.20304568527919
02726,Bristol County,MA,NA,NA,71.31979695431471
02743,Bristol County,MA,NA,NA,68.2741116751269
02760,Bristol County,MA,95.33762057877814,NA,NA
48015,Macomb County,MI,NA,NA,77.91878172588832
48021,Macomb County,MI,7.877813504823152,NA,NA
48034,Oakland County,MI,98.23151125401928,NA,NA
48036,Macomb County,MI,23.79421221864952,NA,NA
48038,Macomb County,MI,NA,82.76972624798712,NA
48066,Macomb County,MI,NA,35.26570048309179,NA
48067,Oakland County,MI,NA,NA,99.74619289340102
48075,Oakland County,MI,NA,28.824476650563607,NA
48089,Macomb County,MI,NA,NA,46.192893401015226
48091,Macomb County,MI,5.466237942122187,NA,NA
48098,Oakland County,MI,86.65594855305466,NA,NA
48101,Wayne County,MI,66.07717041800643,NA,NA
48103,Washtenaw County,MI,NA,12.560386473429952,NA
48125,Wayne County,MI,20.418006430868168,NA,NA
48134,Wayne County,MI,55.466237942122184,NA,NA
48146,Wayne County,MI,NA,47.18196457326892,58.629441624365484
48168,Wayne County,MI,NA,NA,29.187817258883246
48170,Wayne County,MI,NA,2.4154589371980677,1.5228426395939088
48180,Wayne County,MI,2.2508038585209005,NA,NA
48184,Wayne County,MI,13.183279742765272,NA,NA
48186,Wayne County,MI,NA,9.66183574879227,NA
48195,Wayne County,MI,NA,7.890499194847021,NA
48198,Washtenaw County,MI,1.929260450160772,NA,NA
48205,Wayne County,MI,18.167202572347264,NA,NA
48212,Wayne County,MI,NA,11.594202898550725,NA
48218,Wayne County,MI,NA,76.00644122383254,NA
48220,Oakland County,MI,39.38906752411576,NA,NA
48224,Wayne County,MI,NA,19.32367149758454,NA
48226,Wayne County,MI,NA,NA,91.11675126903553
48227,Wayne County,MI,14.790996784565916,NA,NA
48228,Wayne County,MI,0.964630225080386,NA,NA
48237,Oakland County,MI,NA,16.74718196457327,NA
48238,Wayne County,MI,NA,14.814814814814813,NA
48240,Wayne County,MI,NA,NA,61.42131979695431
48304,Oakland County,MI,NA,NA,23.096446700507613
48307,Oakland County,MI,NA,NA,13.705583756345177
48312,Macomb County,MI,NA,NA,8.121827411167512
48313,Macomb County,MI,NA,NA,68.02030456852792
48336,Oakland County,MI,28.29581993569132,NA,NA
48340,Oakland County,MI,NA,32.045088566827694,NA
48342,Oakland County,MI,NA,NA,73.60406091370558
48357,Oakland County,MI,NA,65.53945249597423,NA
48377,Oakland County,MI,NA,NA,29.187817258883246
48393,Oakland County,MI,NA,77.61674718196457,NA
48458,Genesee County,MI,NA,NA,52.53807106598985
48505,Genesee County,MI,15.27331189710611,NA,NA
48601,Saginaw County,MI,10.45016077170418,NA,NA
48609,Saginaw County,MI,NA,57.648953301127214,NA
48647,Oscoda County,MI,99.03536977491962,NA,NA
48703,Arenac County,MI,NA,NA,76.6497461928934
48739,Iosco County,MI,97.90996784565917,NA,NA
48750,Iosco County,MI,NA,80.35426731078906,NA
48820,Clinton County,MI,NA,NA,50.25380710659898
48823,Ingham County,MI,29.099678456591636,NA,NA
48843,Livingston County,MI,9.967845659163988,45.249597423510465,NA
48858,Isabella County,MI,4.983922829581994,NA,NA
48864,Ingham County,MI,NA,42.51207729468599,NA
49007,Kalamazoo County,MI,33.762057877813504,NA,NA
49015,Calhoun County,MI,NA,NA,13.959390862944163
49022,Berrien County,MI,NA,10.628019323671497,NA
49038,Berrien County,MI,NA,57.971014492753625,NA
49058,Barry County,MI,27.009646302250808,NA,NA
49234,Jackson County,MI,NA,98.55072463768117,NA
49286,Lenawee County,MI,50.160771704180064,NA,NA
49337,Newaygo County,MI,NA,53.7842190016103,NA
49345,Kent County,MI,NA,NA,71.06598984771574
49408,Allegan County,MI,NA,55.716586151368766,NA
49431,Mason County,MI,73.63344051446946,NA,NA
49442,Muskegon County,MI,43.247588424437296,NA,NA
49450,Allegan County,MI,98.71382636655949,NA,NA
49461,Muskegon County,MI,NA,84.21900161030595,NA
49503,Kent County,MI,8.360128617363344,NA,NA
49660,Manistee County,MI,NA,NA,89.34010152284264
49684,Grand Traverse County,MI,49.839228295819936,NA,NA
49727,Charlevoix County,MI,NA,75.36231884057972,NA
49855,Marquette County,MI,11.736334405144696,NA,NA
49913,Houghton County,MI,NA,NA,39.340101522842644
55033,Dakota County,MN,NA,50.88566827697263,NA
55060,Steele County,MN,31.672025723472668,NA,NA
55066,Goodhue County,MN,NA,NA,10.65989847715736
55068,Dakota County,MN,88.10289389067523,NA,NA
55102,Ramsey County,MN,NA,36.71497584541063,NA
55105,Ramsey County,MN,NA,NA,69.28934010152284
55107,Ramsey County,MN,NA,86.15136876006441,NA
55116,Ramsey County,MN,NA,54.106280193236714,NA
55122,Dakota County,MN,59.32475884244373,NA,NA
55130,Ramsey County,MN,42.28295819935691,NA,NA
55318,Carver County,MN,NA,NA,87.56345177664974
55337,Dakota County,MN,29.260450160771708,NA,NA
55405,Hennepin County,MN,NA,43.15619967793881,NA
55419,Hennepin County,MN,NA,53.3011272141707,NA
55426,Hennepin County,MN,NA,NA,37.56345177664975
55439,Hennepin County,MN,NA,NA,80.96446700507614
55443,Hennepin County,MN,27.331189710610932,NA,NA
55901,Olmsted County,MN,NA,NA,12.18274111675127
55912,Mower County,MN,5.94855305466238,NA,NA
55981,Wabasha County,MN,NA,95.97423510466989,NA
56065,Blue Earth County,MN,99.67845659163987,NA,NA
56187,Nobles County,MN,NA,NA,47.71573604060914
56378,Stearns County,MN,NA,NA,58.121827411167516
56401,Crow Wing County,MN,NA,3.864734299516908,NA
56482,Wadena County,MN,95.4983922829582,NA,NA
56621,Clearwater County,MN,NA,81.15942028985508,NA
56671,Beltrami County,MN,87.45980707395499,NA,NA
38650,Union County,MS,99.19614147909968,NA,NA
38655,Lafayette County,MS,NA,61.03059581320451,NA
38851,Chickasaw County,MS,91.80064308681672,NA,NA
39110,Madison County,MS,NA,NA,95.43147208121827
39206,Hinds County,MS,NA,71.49758454106279,NA
39209,Hinds County,MS,20.578778135048232,NA,NA
39301,Lauderdale County,MS,15.755627009646304,NA,NA
39479,Covington County,MS,NA,98.06763285024155,NA
39520,Hancock County,MS,26.366559485530544,NA,NA
39540,Harrison County,MS,NA,57.48792270531401,NA
39562,Jackson County,MS,NA,NA,89.08629441624365
39565,Jackson County,MS,NA,NA,66.75126903553299
39581,Jackson County,MS,NA,75.52334943639292,NA
39702,Lowndes County,MS,NA,NA,46.7005076142132
39730,Monroe County,MS,NA,NA,90.86294416243655
39773,Clay County,MS,NA,NA,68.78172588832487
63011,St. Louis County,MO,NA,NA,73.3502538071066
63031,St. Louis County,MO,NA,10.144927536231885,NA
63049,Jefferson County,MO,NA,NA,88.3248730964467
63107,St. Louis city,MO,59.4855305466238,NA,NA
63114,St. Louis County,MO,22.668810289389068,NA,NA
63121,St. Louis County,MO,NA,45.571658615136876,NA
63128,St. Louis County,MO,NA,52.97906602254429,NA
63129,St. Louis County,MO,NA,NA,8.629441624365482
63130,St. Louis County,MO,NA,51.368760064412236,NA
63136,St. Louis County,MO,NA,8.212560386473431,NA
63146,St. Louis County,MO,NA,NA,5.583756345177665
63147,St. Louis city,MO,76.20578778135048,NA,NA
63334,Pike County,MO,NA,94.04186795491142,NA
63366,St. Charles County,MO,54.662379421221864,NA,NA
63379,Lincoln County,MO,NA,74.39613526570048,NA
63640,St. Francois County,MO,NA,NA,65.48223350253807
63670,Ste. Genevieve County,MO,NA,64.89533011272141,NA
63701,Cape Girardeau County,MO,64.63022508038586,NA,NA
63703,Cape Girardeau County,MO,NA,NA,74.11167512690355
63841,Stoddard County,MO,43.89067524115756,NA,NA
64070,Jackson County,MO,96.46302250803859,NA,NA
64082,Jackson County,MO,83.7620578778135,NA,NA
64108,Jackson County,MO,53.85852090032154,NA,NA
64114,Jackson County,MO,NA,37.68115942028986,NA
64129,Jackson County,MO,42.765273311897104,NA,NA
64133,Jackson County,MO,3.215434083601286,24.476650563607087,NA
64505,Buchanan County,MO,NA,21.256038647342994,NA
64506,Buchanan County,MO,16.077170418006432,NA,NA
65049,Camden County,MO,94.85530546623794,NA,NA
65270,Randolph County,MO,24.59807073954984,NA,NA
65340,Saline County,MO,29.7427652733119,NA,NA
65355,Benton County,MO,72.9903536977492,NA,NA
65616,Taney County,MO,NA,NA,87.30964467005076
65802,Greene County,MO,8.520900321543408,49.9194847020934,NA
59230,Valley County,MT,NA,NA,69.54314720812182
59635,Lewis and Clark County,MT,NA,NA,98.22335025380711
68127,Douglas County,NE,NA,87.92270531400966,NA
68130,Douglas County,NE,NA,NA,91.37055837563452
68137,Douglas County,NE,NA,43.80032206119163,NA
68507,Lancaster County,NE,NA,91.30434782608695,NA
68510,Lancaster County,NE,NA,NA,70.81218274111674
89106,Clark County,NV,40.51446945337621,NA,NA
89107,Clark County,NV,45.01607717041801,NA,NA
89113,Clark County,NV,NA,NA,81.47208121827411
89118,Clark County,NV,93.40836012861736,NA,NA
89129,Clark County,NV,NA,66.98872785829307,NA
89130,Clark County,NV,48.231511254019296,NA,NA
89502,Washoe County,NV,NA,17.713365539452496,NA
89523,Washoe County,NV,47.42765273311897,NA,NA
89815,Elko County,NV,NA,71.81964573268921,NA
03038,Rockingham County,NH,10.128617363344052,NA,NA
03076,Hillsborough County,NH,NA,92.5925925925926,NA
03102,Hillsborough County,NH,NA,NA,6.598984771573605
07016,Union County,NJ,81.51125401929261,NA,NA
07030,Hudson County,NJ,5.144694533762058,NA,NA
07047,Hudson County,NJ,NA,0.966183574879227,NA
07052,Essex County,NJ,12.540192926045016,NA,NA
07069,Somerset County,NJ,NA,NA,90.60913705583756
07070,Bergen County,NJ,63.18327974276527,NA,NA
07083,Union County,NJ,NA,26.08695652173913,NA
07107,Essex County,NJ,NA,4.186795491143317,NA
07202,Union County,NJ,NA,7.085346215780998,NA
07462,Sussex County,NJ,NA,94.52495974235104,NA
07512,Passaic County,NJ,NA,NA,78.42639593908629
07522,Passaic County,NJ,50.964630225080384,NA,NA
07603,Bergen County,NJ,65.27331189710611,NA,NA
07621,Bergen County,NJ,NA,81.80354267310788,NA
07652,Bergen County,NJ,72.18649517684888,NA,NA
07660,Bergen County,NJ,57.073954983922825,NA,NA
07701,Monmouth County,NJ,NA,NA,72.33502538071066
07801,Morris County,NJ,NA,NA,38.83248730964467
07849,Morris County,NJ,59.64630225080386,NA,NA
07882,Warren County,NJ,45.01607717041801,NA,NA
07960,Morris County,NJ,NA,18.51851851851852,NA
08003,Camden County,NJ,NA,NA,19.035532994923855
08053,Burlington County,NJ,NA,23.510466988727856,NA
08054,Burlington County,NJ,21.221864951768488,43.96135265700483,NA
08068,Burlington County,NJ,54.983922829581985,NA,NA
08080,Gloucester County,NJ,8.681672025723474,NA,NA
08108,Camden County,NJ,56.10932475884244,NA,NA
08110,Camden County,NJ,NA,22.86634460547504,NA
08210,Cape May County,NJ,32.79742765273312,NA,NA
08221,Atlantic County,NJ,NA,NA,85.78680203045685
08322,Gloucester County,NJ,48.71382636655949,NA,NA
08502,Somerset County,NJ,NA,96.45732689210949,NA
08520,Mercer County,NJ,NA,NA,79.69543147208121
08527,Ocean County,NJ,NA,NA,4.822335025380711
08540,Mercer County,NJ,NA,78.58293075684381,NA
08550,Mercer County,NJ,NA,NA,64.9746192893401
08638,Mercer County,NJ,9.163987138263666,NA,NA
08648,Mercer County,NJ,NA,36.231884057971016,NA
08751,Ocean County,NJ,NA,96.1352657004831,NA
08902,Middlesex County,NJ,NA,NA,64.9746192893401
87020,Cibola County,NM,71.22186495176848,NA,NA
87031,Valencia County,NM,24.27652733118971,NA,NA
87102,Bernalillo County,NM,NA,71.98067632850241,NA
87107,Bernalillo County,NM,NA,NA,40.10152284263959
87112,Bernalillo County,NM,75.08038585209003,NA,NA
87121,Bernalillo County,NM,3.376205787781351,NA,59.13705583756346
87505,Santa Fe County,NM,36.81672025723473,NA,NA
87557,Taos County,NM,91.15755627009646,NA,NA
88011,Doa Ana County,NM,NA,39.452495974235106,NA
88081,Otero County,NM,NA,NA,98.47715736040608
88101,Curry County,NM,NA,NA,30.456852791878177
88201,Chaves County,NM,NA,35.42673107890499,NA
88220,Eddy County,NM,NA,NA,70.30456852791879
88240,Lea County,NM,62.70096463022507,NA,NA
10001,New York County,NY,NA,29.468599033816425,NA
10010,New York County,NY,79.7427652733119,NA,NA
10022,New York County,NY,NA,73.75201288244766,NA
10023,New York County,NY,NA,NA,3.0456852791878175
10024,New York County,NY,NA,54.911433172302736,NA
10025,New York County,NY,NA,10.466988727858293,NA
10030,New York County,NY,NA,26.08695652173913,NA
10033,New York County,NY,NA,17.06924315619968,NA
10040,New York County,NY,NA,49.11433172302738,NA
10451,Bronx County,NY,40.9967845659164,NA,NA
10456,Bronx County,NY,2.090032154340836,NA,NA
10457,Bronx County,NY,4.340836012861737,NA,NA
10458,Bronx County,NY,NA,84.70209339774557,NA
10462,Bronx County,NY,NA,NA,6.091370558375635
10466,Bronx County,NY,34.88745980707396,NA,10.152284263959391
10467,Bronx County,NY,NA,0.322061191626409,NA
10509,Putnam County,NY,81.02893890675242,NA,NA
10567,Westchester County,NY,NA,73.91304347826086,NA
10701,Westchester County,NY,NA,23.027375201288244,NA
10704,Westchester County,NY,NA,NA,71.57360406091371
11004,Queens County,NY,NA,NA,62.69035532994924
11040,Nassau County,NY,NA,NA,25.63451776649746
11104,Queens County,NY,NA,93.88083735909822,NA
11106,Queens County,NY,NA,NA,67.51269035532995
11207,Kings County,NY,0.1607717041800643,NA,8.883248730964468
11209,Kings County,NY,NA,50.24154589371981,NA
11211,Kings County,NY,11.254019292604502,NA,NA
11216,Kings County,NY,NA,6.119162640901772,NA
11219,Kings County,NY,NA,NA,12.436548223350254
11220,Kings County,NY,30.54662379421222,NA,NA
11223,Kings County,NY,NA,11.11111111111111,NA
11224,Kings County,NY,NA,NA,1.015228426395939
11234,Kings County,NY,NA,70.04830917874396,NA
11235,Kings County,NY,NA,13.848631239935589,NA
11238,Kings County,NY,46.78456591639871,NA,NA
11354,Queens County,NY,NA,84.54106280193237,NA
11360,Queens County,NY,NA,NA,44.67005076142132
11377,Queens County,NY,76.52733118971061,47.34299516908212,NA
11378,Queens County,NY,56.752411575562704,NA,NA
11428,Queens County,NY,57.556270096463024,NA,NA
11590,Nassau County,NY,NA,28.019323671497588,NA
11691,Queens County,NY,NA,NA,18.781725888324875
11702,Suffolk County,NY,97.26688102893891,NA,NA
11704,Suffolk County,NY,50.32154340836013,NA,NA
11710,Nassau County,NY,NA,53.7842190016103,NA
11714,Nassau County,NY,NA,NA,49.49238578680203
11721,Suffolk County,NY,NA,NA,98.98477157360406
11722,Suffolk County,NY,20.257234726688104,NA,NA
11733,Suffolk County,NY,NA,NA,55.83756345177665
11743,Suffolk County,NY,NA,45.73268921095008,NA
11756,Nassau County,NY,50.80385852090033,NA,NA
11767,Suffolk County,NY,NA,87.60064412238326,NA
11779,Suffolk County,NY,NA,NA,36.54822335025381
11795,Suffolk County,NY,NA,NA,24.873096446700508
11946,Suffolk County,NY,NA,NA,56.34517766497462
11961,Suffolk County,NY,NA,80.03220611916264,31.979695431472084
12010,Montgomery County,NY,4.180064308681672,4.3478260869565215,NA
12065,Saratoga County,NY,NA,64.73429951690821,NA
12078,Fulton County,NY,3.536977491961415,NA,NA
12180,Rensselaer County,NY,26.688102893890676,NA,NA
12198,Rensselaer County,NY,NA,97.58454106280193,NA
12202,Albany County,NY,53.37620578778135,NA,NA
12303,Schenectady County,NY,NA,38.32528180354267,NA
12306,Schenectady County,NY,NA,NA,42.38578680203046
12414,Greene County,NY,83.27974276527331,NA,NA
12528,Ulster County,NY,NA,NA,76.90355329949239
12601,Dutchess County,NY,24.758842443729904,NA,NA
12603,Dutchess County,NY,NA,48.953301127214175,NA
12992,Clinton County,NY,NA,98.38969404186795,NA
13031,Onondaga County,NY,NA,52.012882447665056,NA
13069,Oswego County,NY,NA,NA,44.923857868020306
13088,Onondaga County,NY,NA,43.31723027375201,NA
13108,Onondaga County,NY,80.38585209003215,NA,NA
13126,Oswego County,NY,2.572347266881029,NA,NA
13152,Onondaga County,NY,NA,NA,92.63959390862944
13357,Herkimer County,NY,NA,49.11433172302738,NA
13440,Oneida County,NY,NA,47.82608695652174,NA
13492,Oneida County,NY,NA,45.410628019323674,NA
13669,St. Lawrence County,NY,91.31832797427653,NA,NA
13760,Broome County,NY,NA,0.1610305958132045,24.36548223350254
14052,Erie County,NY,NA,NA,59.390862944162436
14063,Chautauqua County,NY,NA,NA,97.46192893401016
14075,Erie County,NY,7.07395498392283,NA,10.913705583756345
14094,Niagara County,NY,11.093247588424438,NA,NA
14127,Erie County,NY,NA,NA,17.766497461928935
14131,Niagara County,NY,NA,63.60708534621578,NA
14206,Erie County,NY,10.610932475884244,NA,NA
14207,Erie County,NY,NA,30.595813204508858,NA
14211,Erie County,NY,47.10610932475884,NA,NA
14225,Erie County,NY,NA,14.653784219001611,NA
14304,Niagara County,NY,NA,2.737520128824477,NA
14450,Monroe County,NY,NA,1.1272141706924315,NA
14519,Wayne County,NY,NA,24.9597423510467,NA
14534,Monroe County,NY,NA,1.932367149758454,NA
14615,Monroe County,NY,52.73311897106109,NA,NA
14619,Monroe County,NY,11.57556270096463,NA,NA
14621,Monroe County,NY,NA,2.0933977455716586,NA
14622,Monroe County,NY,NA,16.908212560386474,NA
14624,Monroe County,NY,NA,15.780998389694043,NA
14626,Monroe County,NY,NA,3.059581320450886,NA
14737,Cattaraugus County,NY,NA,97.26247987117553,NA
14750,Chautauqua County,NY,NA,83.73590982286635,NA
14760,Cattaraugus County,NY,NA,11.272141706924316,NA
14867,Tompkins County,NY,86.97749196141478,NA,NA
27017,Surry County,NC,69.13183279742765,NA,NA
27025,Rockingham County,NC,NA,70.85346215780999,NA
27103,Forsyth County,NC,NA,6.924315619967794,0.7614213197969544
27249,Guilford County,NC,NA,NA,94.67005076142132
27282,Guilford County,NC,68.64951768488746,NA,NA
27379,Caswell County,NC,NA,71.01449275362319,NA
27407,Guilford County,NC,62.37942122186495,NA,NA
27408,Guilford County,NC,NA,76.65056360708535,NA
27520,Johnston County,NC,28.135048231511256,NA,NA
27526,Wake County,NC,NA,NA,52.03045685279187
27529,Wake County,NC,NA,14.331723027375201,NA
27530,Wayne County,NC,NA,19.001610305958135,NA
27606,Wake County,NC,NA,42.8341384863124,NA
27609,Wake County,NC,NA,29.951690821256037,NA
27613,Wake County,NC,42.92604501607717,NA,NA
27615,Wake County,NC,NA,11.916264090177133,NA
27707,Durham County,NC,NA,NA,17.512690355329948
27810,Beaufort County,NC,NA,NA,98.73096446700508
27863,Wayne County,NC,NA,66.34460547504025,NA
27909,Pasquotank County,NC,55.62700964630225,NA,NA
28016,Gaston County,NC,NA,89.5330112721417,NA
28023,Rowan County,NC,NA,50.56360708534622,NA
28027,Cabarrus County,NC,15.594855305466238,5.636070853462158,NA
28031,Mecklenburg County,NC,53.536977491961416,NA,NA
28040,Rutherford County,NC,90.67524115755627,NA,NA
28078,Mecklenburg County,NC,27.652733118971064,NA,NA
28092,Lincoln County,NC,NA,59.90338164251207,NA
28112,Union County,NC,NA,33.17230273752013,NA
28146,Rowan County,NC,NA,NA,36.54822335025381
28212,Mecklenburg County,NC,22.186495176848876,NA,NA
28227,Mecklenburg County,NC,17.20257234726688,NA,NA
28301,Cumberland County,NC,32.31511254019293,NA,NA
28337,Bladen County,NC,NA,55.87761674718197,NA
28379,Richmond County,NC,NA,81.48148148148148,NA
28412,New Hanover County,NC,12.700964630225082,NA,NA
28530,Pitt County,NC,82.47588424437299,NA,NA
28557,Carteret County,NC,NA,NA,48.223350253807105
28584,Carteret County,NC,NA,57.1658615136876,NA
28715,Buncombe County,NC,70.57877813504824,NA,NA
28752,McDowell County,NC,NA,12.238325281803544,NA
28759,Henderson County,NC,NA,61.83574879227053,NA
28787,Buncombe County,NC,59.80707395498393,NA,NA
28792,Henderson County,NC,NA,NA,0.5076142131979695
28806,Buncombe County,NC,34.244372990353696,NA,NA
28901,Cherokee County,NC,NA,NA,71.8274111675127
58072,Barnes County,ND,94.69453376205787,NA,NA
58201,Grand Forks County,ND,NA,5.475040257648954,NA
43050,Knox County,OH,NA,NA,6.852791878172589
43085,Franklin County,OH,88.2636655948553,NA,NA
43138,Hocking County,OH,25.723472668810288,NA,NA
43201,Franklin County,OH,39.87138263665595,NA,NA
43202,Franklin County,OH,71.86495176848875,NA,NA
43207,Franklin County,OH,1.1254019292604502,NA,NA
43232,Franklin County,OH,NA,13.526570048309178,NA
43316,Wyandot County,OH,73.15112540192926,NA,NA
43351,Wyandot County,OH,NA,47.50402576489533,NA
43420,Sandusky County,OH,NA,14.009661835748794,NA
43560,Lucas County,OH,NA,NA,86.29441624365482
43607,Lucas County,OH,NA,18.357487922705314,NA
43612,Lucas County,OH,18.810289389067524,NA,NA
43614,Lucas County,OH,NA,38.00322061191627,NA
43615,Lucas County,OH,NA,NA,7.3604060913705585
43701,Muskingum County,OH,0.482315112540193,0.4830917874396135,NA
43812,Coshocton County,OH,NA,NA,11.421319796954315
43912,Belmont County,OH,96.30225080385853,NA,NA
43920,Columbiana County,OH,NA,67.9549114331723,NA
43942,Belmont County,OH,98.55305466237942,NA,NA
43964,Jefferson County,OH,68.32797427652733,NA,NA
44004,Ashtabula County,OH,NA,18.19645732689211,14.213197969543149
44035,Lorain County,OH,0,0,NA
44052,Lorain County,OH,NA,NA,5.32994923857868
44070,Cuyahoga County,OH,NA,94.68599033816425,NA
44077,Lake County,OH,NA,NA,0
44102,Cuyahoga County,OH,44.05144694533762,NA,NA
44109,Cuyahoga County,OH,NA,1.4492753623188406,NA
44115,Cuyahoga County,OH,NA,79.38808373590982,NA
44122,Cuyahoga County,OH,NA,3.7037037037037033,NA
44130,Cuyahoga County,OH,NA,23.993558776167472,NA
44132,Cuyahoga County,OH,20.90032154340836,NA,NA
44135,Cuyahoga County,OH,NA,34.13848631239936,NA
44137,Cuyahoga County,OH,NA,7.568438003220612,NA
44149,Cuyahoga County,OH,NA,15.297906602254429,NA
44233,Medina County,OH,93.2475884244373,NA,NA
44240,Portage County,OH,NA,NA,18.527918781725887
44306,Summit County,OH,30.22508038585209,NA,NA
44319,Summit County,OH,43.08681672025724,NA,NA
44410,Trumbull County,OH,NA,56.038647342995176,NA
44438,Trumbull County,OH,NA,NA,90.35532994923858
44460,Columbiana County,OH,NA,6.44122383252818,NA
44471,Mahoning County,OH,48.07073954983923,NA,NA
44481,Trumbull County,OH,NA,31.561996779388085,NA
44483,Trumbull County,OH,NA,NA,77.15736040609137
44485,Trumbull County,OH,NA,NA,35.025380710659896
44512,Mahoning County,OH,NA,NA,49.23857868020304
44515,Mahoning County,OH,NA,9.017713365539452,NA
44612,Tuscarawas County,OH,93.89067524115757,NA,NA
44646,Stark County,OH,49.035369774919616,NA,NA
44647,Stark County,OH,NA,NA,78.93401015228426
44685,Summit County,OH,NA,53.4621578099839,NA
44691,Wayne County,OH,6.591639871382636,26.73107890499195,NA
44704,Stark County,OH,NA,98.71175523349437,NA
44705,Stark County,OH,22.347266881028936,NA,NA
44720,Stark County,OH,24.437299035369776,NA,NA
44813,Richland County,OH,69.93569131832797,NA,NA
44839,Erie County,OH,NA,36.07085346215781,NA
45011,Butler County,OH,1.7684887459807075,NA,NA
45014,Butler County,OH,12.057877813504824,NA,NA
45040,Warren County,OH,NA,62.64090177133655,NA
45102,Clermont County,OH,30.70739549839228,NA,NA
45140,Clermont County,OH,NA,45.893719806763286,NA
45202,Hamilton County,OH,NA,NA,79.44162436548223
45214,Hamilton County,OH,NA,59.09822866344605,NA
45215,Hamilton County,OH,NA,33.97745571658615,NA
45236,Hamilton County,OH,46.141479099678456,40.90177133655394,NA
45335,Greene County,OH,NA,86.63446054750402,NA
45365,Shelby County,OH,NA,NA,21.31979695431472
45373,Miami County,OH,5.627009646302251,39.452495974235106,NA
45405,Montgomery County,OH,21.061093247588424,NA,NA
45406,Montgomery County,OH,12.379421221864952,NA,NA
45424,Montgomery County,OH,32.475884244372985,8.051529790660226,5.83756345177665
45601,Ross County,OH,0.3215434083601286,NA,NA
45638,Lawrence County,OH,19.935691318327976,NA,NA
45662,Scioto County,OH,13.987138263665594,NA,NA
45694,Scioto County,OH,NA,19.96779388083736,NA
45701,Athens County,OH,NA,75.0402576489533,NA
45714,Washington County,OH,14.951768488745982,NA,NA
45750,Washington County,OH,1.2861736334405145,0.644122383252818,NA
45804,Allen County,OH,NA,22.544283413848632,NA
73010,McClain County,OK,NA,NA,81.97969543147208
73036,Canadian County,OK,NA,NA,56.852791878172596
73071,Cleveland County,OK,NA,13.20450885668277,NA
73075,Garvin County,OK,92.12218649517685,NA,NA
73109,Oklahoma County,OK,57.87781350482315,NA,NA
73110,Oklahoma County,OK,NA,34.94363929146538,NA
73115,Oklahoma County,OK,NA,NA,37.055837563451774
73119,Oklahoma County,OK,19.774919614147908,NA,NA
73533,Stephens County,OK,NA,10.950080515297907,NA
74006,Washington County,OK,NA,36.39291465378422,NA
74017,Rogers County,OK,37.62057877813505,NA,NA
74021,Tulsa County,OK,64.63022508038586,NA,NA
74105,Tulsa County,OK,32.958199356913184,NA,NA
74429,Wagoner County,OK,70.7395498392283,NA,NA
74501,Pittsburg County,OK,NA,42.673107890499196,NA
74804,Pottawatomie County,OK,58.68167202572347,NA,NA
74820,Pontotoc County,OK,45.659163987138264,NA,NA
74859,Okfuskee County,OK,84.40514469453376,NA,NA
74937,Le Flore County,OK,NA,NA,95.93908629441624
74960,Adair County,OK,53.054662379421224,NA,NA
97008,Washington County,OR,51.76848874598071,NA,NA
97015,Clackamas County,OR,46.94533762057878,NA,NA
97031,Hood River County,OR,NA,65.05636070853463,NA
97034,Clackamas County,OR,89.38906752411575,NA,NA
97070,Clackamas County,OR,NA,89.04991948470209,NA
97071,Marion County,OR,NA,NA,50.76142131979695
97103,Clatsop County,OR,74.59807073954984,NA,NA
97116,Washington County,OR,NA,46.69887278582931,NA
97123,Washington County,OR,46.62379421221865,13.687600644122384,NA
97128,Yamhill County,OR,NA,25.925925925925924,NA
97218,Multnomah County,OR,65.7556270096463,NA,NA
97219,Multnomah County,OR,77.65273311897106,NA,NA
97232,Multnomah County,OR,NA,94.84702093397746,NA
97233,Multnomah County,OR,NA,NA,95.68527918781726
97330,Benton County,OR,NA,NA,19.543147208121827
97338,Polk County,OR,NA,68.92109500805152,54.314720812182735
97355,Linn County,OR,NA,NA,7.1065989847715745
97401,Lane County,OR,NA,92.10950080515298,NA
97423,Coos County,OR,94.05144694533763,69.72624798711755,NA
97448,Lane County,OR,NA,NA,86.04060913705584
97520,Jackson County,OR,NA,44.12238325281804,NA
97527,Josephine County,OR,81.18971061093248,NA,NA
97702,Deschutes County,OR,NA,NA,29.695431472081218
97756,Deschutes County,OR,NA,17.874396135265698,NA
97914,Malheur County,OR,NA,52.49597423510467,NA
15012,Westmoreland County,PA,55.14469453376206,NA,NA
15037,Allegheny County,PA,NA,NA,62.43654822335025
15044,Allegheny County,PA,79.42122186495176,NA,NA
15059,Beaver County,PA,95.65916398713826,NA,NA
15068,Westmoreland County,PA,NA,NA,21.82741116751269
15136,Allegheny County,PA,NA,NA,43.90862944162436
15212,Allegheny County,PA,21.54340836012862,NA,NA
15220,Allegheny County,PA,NA,NA,88.07106598984772
15226,Allegheny County,PA,NA,NA,37.309644670050766
15227,Allegheny County,PA,NA,NA,61.16751269035533
15234,Allegheny County,PA,92.7652733118971,NA,NA
15238,Allegheny County,PA,NA,NA,36.04060913705584
15301,Washington County,PA,NA,4.025764895330113,NA
15370,Greene County,PA,NA,NA,54.06091370558376
15401,Fayette County,PA,6.752411575562702,NA,NA
15436,Fayette County,PA,96.62379421221866,NA,NA
15601,Westmoreland County,PA,NA,1.288244766505636,NA
15801,Clearfield County,PA,NA,30.75684380032206,NA
15825,Jefferson County,PA,NA,39.93558776167472,NA
15901,Cambria County,PA,NA,77.61674718196457,NA
15904,Cambria County,PA,NA,78.4219001610306,NA
16146,Mercer County,PA,NA,NA,26.649746192893403
16226,Armstrong County,PA,62.540192926045016,NA,NA
16323,Venango County,PA,45.337620578778136,NA,NA
16509,Erie County,PA,28.45659163987138,NA,NA
16601,Blair County,PA,48.71382636655949,NA,NA
16801,Centre County,PA,NA,NA,12.690355329949238
16901,Tioga County,PA,61.09324758842444,NA,NA
17050,Cumberland County,PA,NA,7.729468599033816,NA
17257,Cumberland County,PA,NA,NA,33.756345177664976
17361,York County,PA,NA,87.27858293075684,NA
17362,York County,PA,NA,73.26892109500805,NA
17403,York County,PA,NA,2.254428341384863,NA
17512,Lancaster County,PA,NA,38.486312399355874,NA
17545,Lancaster County,PA,NA,NA,15.736040609137056
17551,Lancaster County,PA,NA,85.02415458937197,NA
17701,Lycoming County,PA,NA,5.152979066022544,30.96446700507614
17728,Lycoming County,PA,NA,65.37842190016103,NA
17820,Columbia County,PA,96.94533762057877,NA,NA
18014,Northampton County,PA,NA,NA,40.86294416243655
18069,Lehigh County,PA,NA,80.99838969404188,NA
18103,Lehigh County,PA,4.501607717041801,NA,NA
18109,Lehigh County,PA,NA,NA,57.360406091370564
18255,Carbon County,PA,NA,66.02254428341385,NA
18337,Pike County,PA,NA,61.51368760064412,NA
18426,Pike County,PA,NA,NA,91.37055837563452
18436,Wayne County,PA,97.58842443729904,NA,NA
18447,Lackawanna County,PA,NA,98.87278582930756,NA
18504,Lackawanna County,PA,NA,38.64734299516908,NA
18508,Lackawanna County,PA,NA,41.54589371980676,NA
18518,Lackawanna County,PA,77.17041800643086,NA,NA
18704,Luzerne County,PA,NA,NA,7.614213197969544
18707,Luzerne County,PA,51.60771704180064,NA,NA
18966,Bucks County,PA,NA,76.32850241545893,NA
19006,Montgomery County,PA,87.13826366559485,NA,NA
19013,Delaware County,PA,NA,83.89694041867955,NA
19014,Delaware County,PA,NA,68.76006441223832,NA
19020,Bucks County,PA,6.913183279742766,NA,NA
19023,Delaware County,PA,25.241157556270092,NA,NA
19046,Montgomery County,PA,NA,NA,34.51776649746193
19063,Delaware County,PA,NA,9.822866344605476,NA
19067,Bucks County,PA,NA,33.49436392914654,NA
19087,Chester County,PA,43.40836012861736,NA,NA
19115,Philadelphia County,PA,15.916398713826366,NA,NA
19116,Philadelphia County,PA,23.95498392282958,NA,NA
19129,Philadelphia County,PA,NA,NA,73.85786802030458
19131,Philadelphia County,PA,4.823151125401929,NA,NA
19134,Philadelphia County,PA,14.469453376205788,44.605475040257645,NA
19136,Philadelphia County,PA,NA,NA,67.25888324873097
19142,Philadelphia County,PA,9.646302250803858,NA,NA
19145,Philadelphia County,PA,NA,NA,64.46700507614213
19150,Philadelphia County,PA,NA,21.900161030595815,NA
19151,Philadelphia County,PA,NA,NA,83.24873096446701
19390,Chester County,PA,NA,54.589371980676326,NA
19403,Montgomery County,PA,NA,4.99194847020934,4.568527918781726
19426,Montgomery County,PA,NA,59.42028985507246,NA
19473,Montgomery County,PA,NA,NA,79.94923857868021
19604,Berks County,PA,NA,33.33333333333333,NA
19606,Berks County,PA,NA,NA,16.49746192893401
02864,Providence County,RI,NA,63.76811594202898,NA
02865,Providence County,RI,63.5048231511254,NA,NA
02879,Washington County,RI,NA,NA,31.472081218274113
02888,Kent County,RI,71.70418006430869,NA,NA
02906,Providence County,RI,74.7588424437299,NA,NA
02910,Providence County,RI,43.569131832797424,NA,NA
02920,Providence County,RI,NA,NA,9.137055837563452
29016,Richland County,SC,69.45337620578779,NA,NA
29036,Lexington County,SC,63.82636655948553,NA,NA
29108,Newberry County,SC,50.482315112540185,NA,NA
29127,Newberry County,SC,NA,NA,80.45685279187818
29203,Richland County,SC,NA,19.484702093397747,NA
29330,Spartanburg County,SC,NA,NA,91.87817258883248
29356,Spartanburg County,SC,NA,NA,84.51776649746193
29407,Charleston County,SC,NA,40.41867954911433,NA
29420,Dorchester County,SC,40.19292604501607,NA,NA
29431,Berkeley County,SC,89.22829581993568,NA,NA
29464,Charleston County,SC,NA,NA,14.467005076142131
29485,Dorchester County,SC,NA,27.697262479871178,NA
29501,Florence County,SC,NA,74.23510466988728,NA
29512,Marlboro County,SC,NA,90.33816425120773,NA
29526,Horry County,SC,NA,8.695652173913043,NA
29583,Florence County,SC,88.7459807073955,NA,NA
29605,Greenville County,SC,NA,NA,24.873096446700508
29607,Greenville County,SC,NA,23.832528180354267,NA
29609,Greenville County,SC,NA,39.77455716586151,NA
29621,Anderson County,SC,NA,NA,13.19796954314721
29684,Anderson County,SC,NA,95.65217391304348,NA
29706,Chester County,SC,28.938906752411576,NA,NA
29708,York County,SC,NA,81.96457326892109,NA
29803,Aiken County,SC,NA,36.553945249597426,NA
29824,Edgefield County,SC,NA,NA,75.63451776649747
29841,Aiken County,SC,NA,NA,50
29851,Aiken County,SC,95.98070739549838,NA,NA
29910,Beaufort County,SC,63.9871382636656,NA,NA
57401,Brown County,SD,41.961414790996784,NA,NA
37025,Hickman County,TN,78.61736334405145,NA,NA
37030,Smith County,TN,NA,74.8792270531401,NA
37058,Stewart County,TN,84.56591639871382,NA,NA
37066,Sumner County,TN,NA,7.246376811594203,NA
37090,Wilson County,TN,NA,NA,72.08121827411168
37110,Warren County,TN,13.665594855305466,23.027375201288244,24.61928934010152
37115,Davidson County,TN,34.565916398713824,20.45088566827697,NA
37128,Rutherford County,TN,NA,47.02093397745571,NA
37130,Rutherford County,TN,NA,27.697262479871178,NA
37138,Davidson County,TN,NA,NA,85.27918781725889
37167,Rutherford County,TN,NA,NA,34.77157360406091
37190,Cannon County,TN,71.06109324758843,NA,NA
37214,Davidson County,TN,NA,49.11433172302738,57.61421319796954
37343,Hamilton County,TN,20.096463022508036,NA,NA
37377,Hamilton County,TN,NA,NA,48.223350253807105
37397,Marion County,TN,76.68810289389067,NA,NA
37405,Hamilton County,TN,NA,72.46376811594203,NA
37659,Washington County,TN,NA,26.40901771336554,NA
37743,Greene County,TN,35.852090032154344,NA,NA
37748,Roane County,TN,60.45016077170418,NA,NA
37757,Campbell County,TN,NA,69.56521739130434,NA
37766,Campbell County,TN,61.7363344051447,NA,30.710659898477154
37771,Loudon County,TN,NA,51.04669887278583,NA
37774,Loudon County,TN,NA,21.4170692431562,NA
37813,Hamblen County,TN,NA,NA,62.944162436548226
37857,Hawkins County,TN,NA,36.87600644122383,NA
37862,Sevier County,TN,NA,47.987117552334944,NA
37920,Knox County,TN,8.842443729903538,NA,NA
37931,Knox County,TN,36.17363344051447,NA,NA
38011,Tipton County,TN,NA,96.61835748792271,NA
38012,Haywood County,TN,NA,60.22544283413849,NA
38060,Fayette County,TN,NA,91.14331723027375,NA
38114,Shelby County,TN,NA,29.307568438003223,NA
38120,Shelby County,TN,NA,NA,63.1979695431472
38135,Shelby County,TN,NA,NA,65.73604060913706
38139,Shelby County,TN,NA,83.25281803542673,NA
38301,Madison County,TN,NA,15.136876006441224,NA
38469,Lawrence County,TN,92.28295819935691,NA,NA
38506,Putnam County,TN,NA,19.001610305958135,NA
38572,Cumberland County,TN,NA,88.08373590982286,NA
75002,Collin County,TX,NA,NA,69.03553299492386
75052,Dallas County,TX,14.630225080385854,NA,NA
75061,Dallas County,TX,44.37299035369775,NA,NA
75062,Dallas County,TX,NA,29.790660225442835,NA
75063,Dallas County,TX,52.2508038585209,NA,97.71573604060913
75067,Denton County,TX,NA,31.72302737520129,NA
75089,Dallas County,TX,NA,61.35265700483091,NA
75092,Grayson County,TX,NA,46.05475040257649,NA
75146,Dallas County,TX,NA,56.19967793880838,NA
75149,Dallas County,TX,NA,NA,39.08629441624365
75150,Dallas County,TX,NA,14.975845410628018,NA
75154,Ellis County,TX,80.70739549839229,NA,NA
75160,Kaufman County,TX,57.71704180064309,NA,NA
75165,Ellis County,TX,NA,72.14170692431561,NA
75204,Dallas County,TX,NA,NA,93.4010152284264
75206,Dallas County,TX,82.95819935691318,NA,NA
75248,Dallas County,TX,NA,24.9597423510467,NA
75401,Hunt County,TX,49.51768488745981,NA,NA
75440,Rains County,TX,94.37299035369774,NA,NA
75460,Lamar County,TX,NA,85.82930756843801,NA
75494,Wood County,TX,NA,NA,53.80710659898477
75652,Rusk County,TX,83.92282958199357,NA,NA
75702,Smith County,TX,NA,68.27697262479872,NA
75757,Smith County,TX,NA,38.164251207729464,NA
75762,Smith County,TX,68.81028938906752,NA,NA
75839,Anderson County,TX,90.67524115755627,NA,NA
76002,Tarrant County,TX,51.28617363344051,NA,NA
76087,Parker County,TX,NA,68.11594202898551,NA
76117,Tarrant County,TX,NA,34.46054750402576,NA
76133,Tarrant County,TX,16.077170418006432,NA,NA
76137,Tarrant County,TX,17.684887459807076,NA,NA
76273,Grayson County,TX,NA,86.31239935587762,NA
76305,Wichita County,TX,NA,90.82125603864735,NA
76513,Bell County,TX,NA,NA,0.25380710659898476
76548,Bell County,TX,68.16720257234726,NA,NA
76692,Hill County,TX,NA,NA,55.32994923857868
76705,McLennan County,TX,NA,37.52012882447665,NA
77007,Harris County,TX,NA,63.28502415458937,NA
77008,Harris County,TX,NA,65.05636070853463,NA
77024,Harris County,TX,NA,66.82769726247987,NA
77033,Harris County,TX,48.55305466237942,NA,NA
77036,Harris County,TX,NA,20.611916264090176,NA
77042,Harris County,TX,65.43408360128618,NA,NA
77043,Harris County,TX,NA,71.01449275362319,88.57868020304569
77051,Harris County,TX,73.79421221864952,NA,NA
77069,Harris County,TX,NA,NA,83.50253807106598
77070,Harris County,TX,NA,21.578099838969404,NA
77081,Harris County,TX,59.163987138263664,NA,NA
77090,Harris County,TX,NA,NA,64.21319796954315
77095,Harris County,TX,NA,11.272141706924316,NA
77099,Harris County,TX,73.95498392282958,NA,NA
77328,San Jacinto County,TX,NA,NA,81.21827411167513
77360,Polk County,TX,NA,67.4718196457327,NA
77381,Montgomery County,TX,NA,33.011272141706925,NA
77385,Montgomery County,TX,54.5016077170418,NA,NA
77396,Harris County,TX,31.511254019292608,NA,NA
77429,Harris County,TX,NA,3.542673107890499,NA
77459,Fort Bend County,TX,NA,10.305958132045088,NA
77478,Fort Bend County,TX,NA,44.44444444444444,NA
77479,Fort Bend County,TX,NA,NA,29.949238578680205
77489,Fort Bend County,TX,NA,58.454106280193244,NA
77494,Fort Bend County,TX,NA,NA,33.24873096446701
77532,Harris County,TX,35.69131832797427,NA,NA
77546,Galveston County,TX,52.89389067524116,NA,NA
77632,Orange County,TX,NA,NA,70.05076142131979
77705,Jefferson County,TX,36.97749196141479,NA,NA
77713,Jefferson County,TX,72.66881028938906,NA,NA
77803,Brazos County,TX,NA,39.291465378421904,NA
77840,Brazos County,TX,NA,91.78743961352657,NA
77979,Calhoun County,TX,84.08360128617363,NA,NA
78063,Bandera County,TX,94.37299035369774,NA,NA
78207,Bexar County,TX,17.845659163987136,NA,NA
78221,Bexar County,TX,38.7459807073955,NA,NA
78222,Bexar County,TX,60.28938906752411,NA,NA
78501,Hidalgo County,TX,NA,NA,12.944162436548224
78572,Hidalgo County,TX,NA,16.586151368760063,NA
78574,Hidalgo County,TX,NA,33.65539452495974,NA
78576,Hidalgo County,TX,NA,99.35587761674718,NA
78596,Hidalgo County,TX,NA,NA,31.725888324873097
78611,Burnet County,TX,NA,NA,74.61928934010153
78613,Williamson County,TX,NA,NA,5.0761421319796955
78665,Williamson County,TX,NA,NA,35.53299492385787
78729,Williamson County,TX,NA,73.42995169082126,NA
78734,Travis County,TX,88.58520900321544,NA,NA
78738,Travis County,TX,NA,NA,82.48730964467005
78957,Bastrop County,TX,NA,NA,76.39593908629442
79106,Potter County,TX,47.90996784565916,NA,NA
79364,Lubbock County,TX,NA,NA,86.80203045685279
79413,Lubbock County,TX,60.77170418006431,NA,NA
79424,Lubbock County,TX,NA,37.03703703703704,NA
79761,Ector County,TX,NA,51.52979066022544,NA
79772,Reeves County,TX,NA,69.88727858293076,NA
79905,El Paso County,TX,NA,51.690821256038646,NA
79924,El Paso County,TX,66.55948553054662,25.76489533011272,NA
79927,El Paso County,TX,50,NA,NA
84003,Utah County,UT,NA,89.3719806763285,60.913705583756354
84009,Salt Lake County,UT,NA,54.267310789049915,NA
84015,Davis County,UT,NA,44.28341384863124,NA
84020,Salt Lake County,UT,NA,57.80998389694042,NA
84043,Utah County,UT,38.42443729903537,NA,NA
84067,Weber County,UT,62.21864951768489,NA,NA
84074,Tooele County,UT,2.8938906752411575,18.035426731078903,NA
84087,Davis County,UT,NA,NA,99.23857868020305
84102,Salt Lake County,UT,NA,81.64251207729468,NA
84108,Salt Lake County,UT,78.45659163987139,NA,NA
84109,Salt Lake County,UT,97.10610932475883,NA,NA
84117,Salt Lake County,UT,71.54340836012861,NA,NA
84123,Salt Lake County,UT,48.39228295819936,NA,NA
84414,Weber County,UT,NA,90.98228663446055,NA
84501,Carbon County,UT,NA,75.84541062801932,NA
84651,Utah County,UT,NA,72.30273752012883,NA
84660,Utah County,UT,59.967845659163984,NA,92.13197969543148
84770,Washington County,UT,NA,NA,6.345177664974619
84780,Washington County,UT,NA,43.63929146537842,NA
05672,Lamoille County,VT,NA,NA,89.59390862944161
05735,Rutland County,VT,NA,99.51690821256038,NA
20136,Prince William County,VA,NA,95.81320450885669,NA
22003,Fairfax County,VA,26.527331189710612,NA,NA
22015,Fairfax County,VA,NA,NA,53.55329949238579
22102,Fairfax County,VA,NA,NA,73.09644670050761
22150,Fairfax County,VA,NA,60.547504025764894,NA
22180,Fairfax County,VA,NA,74.55716586151368,NA
22192,Prince William County,VA,16.881028938906752,NA,NA
22193,Prince William County,VA,NA,50.0805152979066,NA
22203,Arlington County,VA,66.88102893890675,NA,NA
22204,Arlington County,VA,NA,41.86795491143317,NA
22206,Arlington County,VA,51.929260450160776,NA,NA
22302,Alexandria city,VA,NA,61.191626409017715,NA
22304,Alexandria city,VA,NA,NA,39.847715736040605
22310,Fairfax County,VA,NA,59.25925925925925,NA
22405,Stafford County,VA,NA,NA,53.299492385786806
22407,Spotsylvania County,VA,15.112540192926044,NA,NA
22657,Shenandoah County,VA,NA,86.79549114331722,NA
22980,Waynesboro city,VA,NA,3.3816425120772946,NA
23059,Henrico County,VA,NA,NA,56.598984771573605
23223,Henrico County,VA,16.720257234726688,NA,NA
23234,Chesterfield County,VA,16.559485530546624,NA,NA
23322,Chesapeake city,VA,47.7491961414791,NA,NA
23324,Chesapeake city,VA,NA,NA,35.786802030456855
23434,Suffolk city,VA,13.02250803858521,NA,NA
23435,Suffolk city,VA,41.157556270096464,NA,NA
23454,Virginia Beach city,VA,25.080385852090032,NA,NA
23608,Newport News city,VA,NA,32.2061191626409,NA
23703,Portsmouth city,VA,49.19614147909968,NA,NA
23860,Hopewell city,VA,27.170418006430868,NA,NA
24014,Roanoke city,VA,NA,26.570048309178745,NA
24015,Roanoke city,VA,67.36334405144694,NA,NA
24210,Washington County,VA,NA,40.25764895330113,NA
24211,Washington County,VA,NA,NA,63.70558375634518
24230,Wise County,VA,86.49517684887459,NA,NA
24333,Galax city,VA,81.83279742765274,NA,NA
24370,Smyth County,VA,NA,79.71014492753623,NA
24501,Lynchburg city,VA,NA,35.748792270531396,NA
24540,Danville city,VA,23.47266881028939,NA,NA
98011,King County,WA,NA,66.50563607085346,NA
98029,King County,WA,94.21221864951768,NA,NA
98034,King County,WA,85.53054662379421,NA,NA
98038,King County,WA,NA,34.62157809983897,NA
98042,King County,WA,NA,9.339774557165862,20.558375634517766
98052,King County,WA,NA,NA,14.974619289340103
98072,King County,WA,NA,92.4315619967794,NA
98077,King County,WA,NA,72.94685990338165,NA
98087,Snohomish County,WA,39.549839228295816,NA,NA
98102,King County,WA,NA,60.06441223832528,NA
98104,King County,WA,NA,35.5877616747182,NA
98106,King County,WA,NA,60.7085346215781,NA
98110,Kitsap County,WA,56.430868167202576,NA,NA
98115,King County,WA,NA,22.383252818035427,NA
98118,King County,WA,NA,31.40096618357488,NA
98133,King County,WA,NA,NA,11.16751269035533
98144,King County,WA,NA,62.47987117552335,53.045685279187815
98146,King County,WA,NA,28.985507246376812,NA
98177,King County,WA,NA,52.17391304347826,NA
98203,Snohomish County,WA,NA,31.239935587761675,NA
98204,Snohomish County,WA,53.21543408360129,NA,NA
98264,Whatcom County,WA,NA,63.929146537842186,54.568527918781726
98270,Snohomish County,WA,NA,27.536231884057973,NA
98311,Kitsap County,WA,NA,NA,54.82233502538071
98367,Kitsap County,WA,41.80064308681672,NA,NA
98390,Pierce County,WA,NA,68.27697262479872,NA
98465,Pierce County,WA,NA,NA,75.1269035532995
98563,Grays Harbor County,WA,NA,99.03381642512076,NA
98584,Mason County,WA,NA,NA,27.157360406091367
98663,Clark County,WA,NA,72.94685990338165,NA
98682,Clark County,WA,52.572347266881025,NA,NA
98801,Chelan County,WA,21.864951768488748,NA,NA
98823,Grant County,WA,89.06752411575563,NA,NA
98908,Yakima County,WA,32.636655948553056,97.42351046698873,NA
99208,Spokane County,WA,33.27974276527331,NA,NA
99218,Spokane County,WA,NA,88.40579710144928,NA
99324,Walla Walla County,WA,NA,NA,61.92893401015228
99338,Benton County,WA,55.78778135048231,28.502415458937197,NA
20016,District of Columbia,DC,NA,85.5072463768116,NA
25304,Kanawha County,WV,NA,88.72785829307568,NA
25541,Cabell County,WV,82.31511254019293,NA,NA
25570,Wayne County,WV,NA,NA,80.71065989847716
25601,Logan County,WV,NA,NA,62.182741116751274
26101,Wood County,WV,NA,29.146537842190018,NA
26104,Wood County,WV,NA,NA,85.53299492385787
26241,Randolph County,WV,NA,54.750402576489535,NA
26501,Monongalia County,WV,NA,58.293075684380035,NA
26508,Monongalia County,WV,4.019292604501608,NA,NA
53018,Waukesha County,WI,NA,98.22866344605475,NA
53051,Waukesha County,WI,67.52411575562701,NA,42.13197969543147
53081,Sheboygan County,WI,13.344051446945338,NA,NA
53105,Racine County,WI,58.520900321543415,NA,NA
53142,Kenosha County,WI,30.385852090032156,NA,NA
53168,Kenosha County,WI,NA,66.18357487922705,NA
53208,Milwaukee County,WI,33.11897106109325,NA,NA
53214,Milwaukee County,WI,NA,8.53462157809984,NA
53215,Milwaukee County,WI,3.697749196141479,NA,NA
53218,Milwaukee County,WI,24.919614147909968,NA,NA
53220,Milwaukee County,WI,NA,22.22222222222222,NA
53221,Milwaukee County,WI,NA,NA,11.6751269035533
53226,Milwaukee County,WI,61.41479099678456,NA,NA
54166,Shawano County,WI,NA,46.3768115942029,NA
54216,Kewaunee County,WI,NA,89.69404186795491,NA
54217,Kewaunee County,WI,NA,NA,76.14213197969542
54449,Wood County,WI,84.72668810289389,NA,NA
54457,Wood County,WI,NA,95.49114331723028,NA
54521,Vilas County,WI,NA,NA,45.68527918781726
54667,Vernon County,WI,98.87459807073955,NA,NA
54703,Eau Claire County,WI,18.488745980707396,NA,NA
54880,Douglas County,WI,11.89710610932476,NA,NA
54902,Winnebago County,WI,NA,NA,37.81725888324873
82414,Park County,WY,66.39871382636656,80.83735909822866,NA
82604,Natrona County,WY,NA,NA,51.26903553299492
82633,Converse County,WY,NA,52.33494363929147,NA
82718,Campbell County,WY,NA,63.12399355877617,NA
82801,Sheridan County,WY,NA,57.326892109500804,NA
