ZipCode,county,state,Retirement,Geriatric
35010,Tallapoosa County,AL,31.64983164983165,NA
35023,Jefferson County,AL,13.299663299663301,NA
35057,Cullman County,AL,81.98653198653199,NA
35094,Jefferson County,AL,88.21548821548821,NA
35208,Jefferson County,AL,NA,99.22680412371135
35475,Tuscaloosa County,AL,99.32659932659934,NA
35749,Madison County,AL,NA,75.25773195876289
36078,Elmore County,AL,77.27272727272727,NA
36081,Pike County,AL,96.46464646464646,NA
36522,Mobile County,AL,NA,99.48453608247422
36535,Baldwin County,AL,56.9023569023569,NA
36572,Mobile County,AL,96.29629629629629,NA
36606,Mobile County,AL,76.76767676767676,NA
99701,Fairbanks North Star Borough,AK,70.2020202020202,NA
85008,Maricopa County,AZ,NA,97.68041237113401
85009,Maricopa County,AZ,25.252525252525253,NA
85018,Maricopa County,AZ,37.878787878787875,NA
85022,Maricopa County,AZ,26.262626262626267,NA
85032,Maricopa County,AZ,24.747474747474747,NA
85033,Maricopa County,AZ,38.38383838383838,NA
85037,Maricopa County,AZ,62.79461279461279,NA
85041,Maricopa County,AZ,NA,64.69072164948454
85203,Maricopa County,AZ,NA,68.55670103092784
85204,Maricopa County,AZ,26.767676767676768,NA
85205,Maricopa County,AZ,NA,30.670103092783506
85259,Maricopa County,AZ,76.26262626262627,NA
85268,Maricopa County,AZ,NA,72.68041237113401
85338,Maricopa County,AZ,87.87878787878788,NA
85367,Yuma County,AZ,50,NA
85715,Pima County,AZ,58.75420875420876,NA
85718,Pima County,AZ,NA,58.76288659793815
85737,Pima County,AZ,47.97979797979798,NA
85739,Pinal County,AZ,NA,30.927835051546392
85743,Pima County,AZ,26.094276094276093,NA
86004,Coconino County,AZ,12.626262626262626,NA
71601,Jefferson County,AR,57.57575757575758,NA
72021,Monroe County,AR,91.58249158249158,NA
72401,Craighead County,AR,NA,22.422680412371136
72455,Randolph County,AR,NA,85.56701030927834
72576,Fulton County,AR,95.28619528619528,NA
72714,Benton County,AR,NA,64.17525773195877
90012,Los Angeles County,CA,52.02020202020202,NA
90044,Los Angeles County,CA,16.666666666666664,NA
90063,Los Angeles County,CA,42.592592592592595,NA
90265,Los Angeles County,CA,NA,78.8659793814433
90270,Los Angeles County,CA,92.08754208754209,NA
90277,Los Angeles County,CA,31.14478114478115,NA
90278,Los Angeles County,CA,NA,68.04123711340206
90292,Los Angeles County,CA,54.04040404040404,NA
90601,Los Angeles County,CA,NA,46.134020618556704
90623,Orange County,CA,NA,78.09278350515464
90630,Orange County,CA,19.52861952861953,NA
90650,Los Angeles County,CA,14.14141414141414,NA
90703,Los Angeles County,CA,32.323232323232325,NA
90715,Los Angeles County,CA,NA,98.19587628865979
91208,Los Angeles County,CA,NA,76.28865979381443
91342,Los Angeles County,CA,12.794612794612794,NA
91351,Los Angeles County,CA,NA,86.5979381443299
91504,Los Angeles County,CA,69.6969696969697,NA
91711,Los Angeles County,CA,NA,26.03092783505155
91722,Los Angeles County,CA,57.407407407407405,NA
91744,Los Angeles County,CA,24.410774410774412,NA
91745,Los Angeles County,CA,43.602693602693606,NA
91750,Los Angeles County,CA,NA,38.402061855670105
91762,San Bernardino County,CA,47.13804713804714,NA
91767,Los Angeles County,CA,NA,54.63917525773196
91770,Los Angeles County,CA,41.91919191919192,NA
92026,San Diego County,CA,47.474747474747474,NA
92064,San Diego County,CA,NA,69.58762886597938
92071,San Diego County,CA,37.71043771043771,NA
92105,San Diego County,CA,29.292929292929294,NA
92111,San Diego County,CA,81.48148148148148,NA
92118,San Diego County,CA,65.82491582491582,NA
92154,San Diego County,CA,19.023569023569024,NA
92264,Riverside County,CA,9.25925925925926,NA
92503,Riverside County,CA,20.875420875420875,NA
92584,Riverside County,CA,84.17508417508418,65.97938144329896
92624,Orange County,CA,98.48484848484848,NA
92647,Orange County,CA,19.36026936026936,NA
92648,Orange County,CA,NA,27.061855670103093
92679,Orange County,CA,61.61616161616161,NA
92704,Orange County,CA,33.16498316498316,NA
92708,Orange County,CA,49.66329966329967,NA
92804,Orange County,CA,72.55892255892256,NA
92805,Orange County,CA,NA,73.71134020618557
92844,Orange County,CA,95.7912457912458,NA
92883,Riverside County,CA,63.2996632996633,NA
92886,Orange County,CA,NA,31.443298969072163
93065,Ventura County,CA,18.51851851851852,NA
93110,Santa Barbara County,CA,NA,87.11340206185567
93428,San Luis Obispo County,CA,NA,91.23711340206185
93454,Santa Barbara County,CA,46.12794612794613,NA
93560,Kern County,CA,NA,99.74226804123711
93637,Madera County,CA,59.09090909090909,NA
93722,Fresno County,CA,48.821548821548824,NA
93923,Monterey County,CA,59.09090909090909,NA
93940,Monterey County,CA,NA,27.835051546391753
93955,Monterey County,CA,NA,38.144329896907216
94010,San Mateo County,CA,NA,15.206185567010309
94102,San Francisco County,CA,6.7340067340067336,NA
94103,San Francisco County,CA,15.824915824915825,NA
94109,San Francisco County,CA,NA,80.9278350515464
94116,San Francisco County,CA,NA,79.63917525773195
94122,San Francisco County,CA,NA,7.731958762886598
94124,San Francisco County,CA,18.855218855218855,NA
94403,San Mateo County,CA,16.4983164983165,NA
94501,Alameda County,CA,NA,63.4020618556701
94520,Contra Costa County,CA,62.79461279461279,NA
94530,Contra Costa County,CA,61.27946127946128,NA
94536,Alameda County,CA,20.37037037037037,NA
94538,Alameda County,CA,NA,26.804123711340207
94541,Alameda County,CA,NA,78.6082474226804
94546,Alameda County,CA,NA,29.63917525773196
94561,Contra Costa County,CA,46.464646464646464,NA
94585,Solano County,CA,NA,94.3298969072165
94705,Alameda County,CA,89.22558922558923,NA
95010,Santa Cruz County,CA,NA,96.90721649484536
95035,Santa Clara County,CA,NA,28.09278350515464
95060,Santa Cruz County,CA,48.65319865319865,NA
95112,Santa Clara County,CA,NA,84.02061855670104
95125,Santa Clara County,CA,19.696969696969695,NA
95133,Santa Clara County,CA,69.86531986531986,NA
95336,San Joaquin County,CA,20.2020202020202,NA
95350,Stanislaus County,CA,NA,24.22680412371134
95370,Tuolumne County,CA,NA,39.43298969072165
95501,Humboldt County,CA,33.83838383838384,NA
95531,Del Norte County,CA,80.8080808080808,NA
95823,Sacramento County,CA,52.861952861952865,NA
95829,Sacramento County,CA,86.19528619528619,NA
95842,Sacramento County,CA,73.56902356902357,NA
95926,Butte County,CA,NA,40.97938144329897
80020,Broomfield County,CO,31.986531986531986,NA
80134,Douglas County,CO,35.52188552188552,NA
80603,Weld County,CO,88.55218855218855,NA
80906,El Paso County,CO,73.06397306397307,NA
81137,San Juan County,CO,97.81144781144782,NA
81413,Delta County,CO,79.12457912457911,NA
81621,Eagle County,CO,94.27609427609428,NA
06074,Hartford County,CT,52.52525252525253,NA
06088,Hartford County,CT,NA,93.04123711340206
06106,Hartford County,CT,NA,34.5360824742268
06109,Hartford County,CT,53.36700336700336,NA
06110,Hartford County,CT,88.72053872053873,NA
06460,New Haven County,CT,14.646464646464647,NA
06489,Hartford County,CT,15.488215488215488,NA
06492,New Haven County,CT,10.26936026936027,6.701030927835052
06519,New Haven County,CT,NA,92.26804123711341
06604,Fairfield County,CT,NA,66.75257731958763
06804,Fairfield County,CT,91.41414141414141,NA
06850,Fairfield County,CT,NA,62.628865979381445
19805,New Castle County,DE,7.744107744107744,70.10309278350515
32055,Columbia County,FL,NA,65.20618556701031
32159,Lake County,FL,59.764309764309765,NA
32162,Sumter County,FL,2.525252525252525,NA
32163,Sumter County,FL,32.49158249158249,NA
32218,Duval County,FL,NA,29.381443298969074
32225,Duval County,FL,NA,20.36082474226804
32233,Duval County,FL,NA,60.051546391752574
32312,Leon County,FL,NA,97.16494845360825
32401,Bay County,FL,27.441077441077443,NA
32424,Calhoun County,FL,78.45117845117845,NA
32428,Washington County,FL,51.178451178451176,NA
32608,Alachua County,FL,14.814814814814813,NA
32738,Volusia County,FL,NA,53.865979381443296
32773,Seminole County,FL,NA,74.22680412371135
32776,Lake County,FL,NA,95.36082474226805
32817,Orange County,FL,NA,79.89690721649485
32839,Orange County,FL,38.04713804713805,NA
32903,Brevard County,FL,86.86868686868688,NA
32905,Brevard County,FL,77.10437710437711,NA
32934,Brevard County,FL,57.23905723905723,NA
32955,Brevard County,FL,NA,16.237113402061855
33012,Miami-Dade County,FL,NA,4.381443298969072
33018,Miami-Dade County,FL,55.218855218855225,NA
33026,Broward County,FL,58.92255892255892,NA
33027,Broward County,FL,37.20538720538721,NA
33055,Miami-Dade County,FL,NA,24.742268041237114
33062,Broward County,FL,25.925925925925924,NA
33064,Broward County,FL,NA,18.04123711340206
33071,Broward County,FL,62.121212121212125,NA
33131,Miami-Dade County,FL,NA,96.1340206185567
33142,Miami-Dade County,FL,NA,23.711340206185564
33167,Miami-Dade County,FL,NA,83.76288659793815
33178,Miami-Dade County,FL,78.28282828282829,NA
33186,Miami-Dade County,FL,30.63973063973064,NA
33305,Broward County,FL,NA,88.65979381443299
33316,Broward County,FL,72.22222222222221,NA
33322,Broward County,FL,28.95622895622896,NA
33328,Broward County,FL,77.77777777777779,NA
33403,Palm Beach County,FL,89.22558922558923,NA
33411,Palm Beach County,FL,NA,28.60824742268041
33434,Palm Beach County,FL,NA,7.474226804123711
33458,Palm Beach County,FL,76.43097643097643,NA
33467,Palm Beach County,FL,23.905723905723907,NA
33477,Palm Beach County,FL,NA,44.84536082474227
33541,Pasco County,FL,NA,60.824742268041234
33556,Hillsborough County,FL,63.63636363636363,NA
33570,Hillsborough County,FL,54.71380471380471,NA
33609,Hillsborough County,FL,57.07070707070707,NA
33624,Hillsborough County,FL,NA,50.25773195876289
33706,Pinellas County,FL,NA,44.58762886597938
33708,Pinellas County,FL,62.62626262626263,NA
33759,Pinellas County,FL,NA,81.18556701030928
33763,Pinellas County,FL,57.91245791245792,NA
33773,Pinellas County,FL,NA,81.95876288659794
33781,Pinellas County,FL,NA,43.81443298969072
33782,Pinellas County,FL,49.66329966329967,NA
33809,Polk County,FL,NA,38.91752577319588
33810,Polk County,FL,32.82828282828283,NA
33852,Highlands County,FL,NA,8.762886597938143
33860,Polk County,FL,87.37373737373737,NA
33875,Highlands County,FL,NA,49.22680412371135
33881,Polk County,FL,NA,18.814432989690722
33904,Lee County,FL,NA,9.793814432989691
33908,Lee County,FL,NA,0.7731958762886598
33936,Lee County,FL,NA,52.0618556701031
33947,Charlotte County,FL,93.26599326599326,NA
34104,Collier County,FL,51.85185185185185,NA
34119,Collier County,FL,62.45791245791246,NA
34120,Collier County,FL,41.41414141414141,NA
34210,Manatee County,FL,65.82491582491582,NA
34275,Sarasota County,FL,26.599326599326602,NA
34287,Sarasota County,FL,NA,21.90721649484536
34470,Marion County,FL,NA,49.48453608247423
34607,Hernando County,FL,75.42087542087542,NA
34608,Hernando County,FL,78.11447811447812,NA
34609,Hernando County,FL,22.727272727272727,NA
34668,Pasco County,FL,NA,35.051546391752574
34695,Pinellas County,FL,NA,55.154639175257735
34711,Lake County,FL,NA,4.639175257731959
34741,Osceola County,FL,NA,66.23711340206185
34743,Osceola County,FL,61.95286195286195,NA
34748,Lake County,FL,7.912457912457913,NA
34974,Okeechobee County,FL,NA,43.29896907216495
34983,St. Lucie County,FL,26.936026936026934,NA
34986,St. Lucie County,FL,22.22222222222222,NA
30012,Rockdale County,GA,NA,70.87628865979381
30041,Forsyth County,GA,9.427609427609427,NA
30047,Gwinnett County,GA,24.579124579124578,45.618556701030926
30083,DeKalb County,GA,67.34006734006735,NA
30102,Cherokee County,GA,NA,78.35051546391753
30108,Carroll County,GA,90.23569023569024,NA
30223,Spalding County,GA,35.18518518518518,NA
30240,Troup County,GA,23.56902356902357,NA
30286,Upson County,GA,81.81818181818183,NA
30331,Fulton County,GA,59.427609427609426,NA
30427,Tattnall County,GA,NA,84.5360824742268
30474,Toombs County,GA,74.07407407407408,NA
30518,Gwinnett County,GA,NA,48.45360824742268
30605,Clarke County,GA,51.515151515151516,NA
30705,Murray County,GA,NA,67.26804123711341
30736,Catoosa County,GA,18.181818181818183,NA
30809,Columbia County,GA,11.11111111111111,NA
31305,McIntosh County,GA,96.12794612794613,NA
31523,Glynn County,GA,71.88552188552188,NA
31535,Coffee County,GA,85.18518518518519,NA
31537,Charlton County,GA,79.96632996632997,NA
31719,Sumter County,GA,78.95622895622895,NA
31750,Ben Hill County,GA,64.64646464646465,NA
31907,Muscogee County,GA,3.3670033670033668,3.0927835051546393
96720,Hawaii County,HI,NA,70.61855670103093
96732,Maui County,HI,NA,79.12371134020619
96813,Honolulu County,HI,NA,90.97938144329896
96815,Honolulu County,HI,NA,27.577319587628867
96816,Honolulu County,HI,15.31986531986532,6.443298969072164
96817,Honolulu County,HI,6.0606060606060606,NA
96822,Honolulu County,HI,54.882154882154886,NA
83501,Nez Perce County,ID,NA,7.216494845360824
83702,Ada County,ID,NA,43.55670103092783
83713,Ada County,ID,NA,20.876288659793815
60035,Lake County,IL,NA,76.03092783505154
60060,Lake County,IL,13.804713804713806,NA
60062,Cook County,IL,NA,0.5154639175257731
60064,Lake County,IL,89.8989898989899,NA
60077,Cook County,IL,28.28282828282828,NA
60085,Lake County,IL,28.45117845117845,NA
60089,Lake County,IL,NA,23.195876288659793
60093,Cook County,IL,NA,32.47422680412371
60102,McHenry County,IL,NA,53.350515463917525
60103,DuPage County,IL,22.39057239057239,NA
60126,DuPage County,IL,3.0303030303030303,NA
60136,Kane County,IL,97.47474747474747,NA
60160,Cook County,IL,NA,50.25773195876289
60188,DuPage County,IL,NA,42.2680412371134
60302,Cook County,IL,12.962962962962962,NA
60411,Cook County,IL,NA,24.742268041237114
60417,Will County,IL,35.69023569023569,NA
60426,Cook County,IL,NA,57.21649484536082
60442,Will County,IL,NA,91.49484536082474
60453,Cook County,IL,NA,6.958762886597938
60463,Cook County,IL,NA,33.24742268041237
60464,Cook County,IL,64.14141414141415,NA
60491,Will County,IL,25.420875420875422,NA
60502,DuPage County,IL,96.63299663299664,NA
60516,DuPage County,IL,27.946127946127948,NA
60532,DuPage County,IL,43.09764309764309,NA
60545,Kendall County,IL,80.47138047138047,NA
60608,Cook County,IL,NA,11.34020618556701
60610,Cook County,IL,NA,26.288659793814436
60617,Cook County,IL,17.34006734006734,NA
60618,Cook County,IL,17.845117845117844,NA
60619,Cook County,IL,26.430976430976433,1.804123711340206
60620,Cook County,IL,NA,33.24742268041237
60621,Cook County,IL,30.976430976430976,NA
60625,Cook County,IL,NA,24.484536082474225
60628,Cook County,IL,NA,3.350515463917526
60630,Cook County,IL,10.942760942760943,NA
60631,Cook County,IL,46.801346801346796,NA
60632,Cook County,IL,27.77777777777778,NA
60651,Cook County,IL,NA,21.1340206185567
60653,Cook County,IL,28.78787878787879,NA
60707,Cook County,IL,NA,13.65979381443299
60714,Cook County,IL,38.38383838383838,15.979381443298967
60914,Kankakee County,IL,18.68686868686869,NA
61008,Boone County,IL,54.54545454545454,NA
61021,Lee County,IL,6.397306397306397,NA
61025,Jo Daviess County,IL,98.65319865319864,98.71134020618557
61554,Tazewell County,IL,NA,41.75257731958763
61704,McLean County,IL,NA,61.08247422680413
61920,Coles County,IL,NA,77.0618556701031
62035,Madison County,IL,56.060606060606055,NA
62040,Madison County,IL,NA,23.45360824742268
62454,Crawford County,IL,73.73737373737373,NA
62629,Sangamon County,IL,NA,93.04123711340206
62684,Sangamon County,IL,98.98989898989899,NA
62712,Sangamon County,IL,69.02356902356902,NA
46011,Madison County,IN,NA,42.52577319587629
46013,Madison County,IN,NA,37.88659793814433
46016,Madison County,IN,NA,45.876288659793815
46033,Hamilton County,IN,NA,46.391752577319586
46041,Clinton County,IN,NA,92.5257731958763
46072,Tipton County,IN,73.9057239057239,NA
46112,Hendricks County,IN,47.64309764309764,NA
46123,Hendricks County,IN,NA,70.36082474226805
46135,Putnam County,IN,62.2895622895623,NA
46142,Johnson County,IN,10.437710437710438,NA
46208,Marion County,IN,68.01346801346801,NA
46220,Marion County,IN,44.612794612794616,NA
46221,Marion County,IN,40.572390572390574,NA
46240,Marion County,IN,73.4006734006734,NA
46304,Porter County,IN,16.329966329966332,NA
46322,Lake County,IN,22.895622895622896,NA
46408,Lake County,IN,NA,77.57731958762886
46563,Marshall County,IN,22.053872053872052,25.51546391752577
46580,Kosciusko County,IN,NA,36.855670103092784
46703,Steuben County,IN,36.53198653198653,NA
47112,Harrison County,IN,NA,67.78350515463917
47129,Clark County,IN,NA,63.91752577319587
47130,Clark County,IN,NA,39.175257731958766
47203,Bartholomew County,IN,NA,17.783505154639176
47250,Jefferson County,IN,NA,86.08247422680412
47274,Jackson County,IN,NA,35.824742268041234
47429,Monroe County,IN,NA,87.11340206185567
47620,Posey County,IN,63.13131313131313,NA
47803,Vigo County,IN,55.05050505050505,NA
47842,Vermillion County,IN,NA,86.85567010309279
50003,Dallas County,IA,NA,97.42268041237114
50327,Polk County,IA,92.92929292929293,NA
50401,Cerro Gordo County,IA,NA,1.2886597938144329
50511,Kossuth County,IA,NA,71.3917525773196
50613,Black Hawk County,IA,NA,4.123711340206185
50703,Black Hawk County,IA,29.797979797979796,NA
51104,Woodbury County,IA,51.010101010101,NA
51106,Woodbury County,IA,78.78787878787878,NA
52206,Benton County,IA,99.83164983164983,NA
52501,Wapello County,IA,65.48821548821549,NA
52732,Clinton County,IA,NA,46.649484536082475
52761,Muscatine County,IA,10.437710437710438,NA
66701,Bourbon County,KS,NA,77.31958762886599
67550,Pawnee County,KS,NA,75.77319587628865
40204,Jefferson County,KY,NA,85.56701030927834
40207,Jefferson County,KY,32.15488215488215,NA
40324,Scott County,KY,NA,41.23711340206185
40361,Bourbon County,KY,56.3973063973064,NA
40383,Woodford County,KY,NA,63.144329896907216
40475,Madison County,KY,8.754208754208754,NA
40701,Whitley County,KY,11.447811447811448,NA
41056,Mason County,KY,65.15151515151516,NA
41091,Boone County,KY,67.003367003367,NA
41139,Greenup County,KY,NA,93.81443298969072
41164,Carter County,KY,33.33333333333333,NA
42101,Warren County,KY,14.47811447811448,NA
42420,Henderson County,KY,11.784511784511785,NA
70001,Jefferson Parish,LA,NA,14.690721649484537
70090,St. James Parish,LA,93.43434343434343,NA
70115,Orleans Parish,LA,21.21212121212121,NA
70123,Jefferson Parish,LA,NA,13.917525773195877
70131,Orleans Parish,LA,34.00673400673401,NA
70615,Calcasieu Parish,LA,68.18181818181817,NA
70648,Allen Parish,LA,93.0976430976431,NA
71047,Caddo Parish,LA,49.158249158249156,NA
71052,De Soto Parish,LA,NA,77.83505154639175
71118,Caddo Parish,LA,23.737373737373737,NA
03904,York County,ME,NA,68.04123711340206
04043,York County,ME,39.73063973063973,NA
04073,York County,ME,NA,19.587628865979383
04074,Cumberland County,ME,56.734006734006734,NA
04901,Kennebec County,ME,NA,5.154639175257731
04976,Somerset County,ME,NA,57.73195876288659
20733,Anne Arundel County,MD,99.15824915824916,NA
20743,Prince George's County,MD,NA,55.412371134020624
20769,Prince George's County,MD,97.13804713804713,NA
20853,Montgomery County,MD,71.71717171717171,NA
20866,Montgomery County,MD,90.74074074074075,NA
21001,Harford County,MD,63.804713804713806,NA
21015,Harford County,MD,58.417508417508415,NA
21017,Harford County,MD,94.61279461279462,NA
21054,Anne Arundel County,MD,NA,94.58762886597938
21057,Baltimore County,MD,97.47474747474747,NA
21114,Anne Arundel County,MD,86.02693602693603,NA
21225,Baltimore city,MD,NA,57.47422680412371
21286,Baltimore County,MD,69.1919191919192,NA
21619,Queen Anne's County,MD,93.77104377104376,NA
21742,Washington County,MD,NA,43.04123711340206
21771,Frederick County,MD,64.47811447811448,NA
01085,Hampden County,MA,2.1885521885521886,NA
01109,Hampden County,MA,36.02693602693603,NA
01420,Worcester County,MA,95.45454545454545,NA
01604,Worcester County,MA,NA,2.3195876288659796
01801,Middlesex County,MA,9.090909090909092,1.5463917525773196
01821,Middlesex County,MA,1.5151515151515151,NA
01824,Middlesex County,MA,6.228956228956229,NA
01826,Middlesex County,MA,20.033670033670035,NA
01834,Essex County,MA,91.91919191919192,NA
01841,Essex County,MA,98.14814814814815,NA
01850,Middlesex County,MA,17.17171717171717,NA
01864,Middlesex County,MA,34.17508417508417,NA
01902,Essex County,MA,NA,75
01940,Essex County,MA,NA,59.02061855670103
01960,Essex County,MA,0.5050505050505051,NA
02043,Plymouth County,MA,NA,25.773195876288657
02045,Plymouth County,MA,NA,73.4536082474227
02050,Plymouth County,MA,NA,35.56701030927835
02072,Norfolk County,MA,7.4074074074074066,NA
02138,Middlesex County,MA,5.387205387205387,NA
02145,Middlesex County,MA,NA,64.94845360824742
02155,Middlesex County,MA,NA,40.72164948453608
02351,Plymouth County,MA,NA,82.4742268041237
02368,Norfolk County,MA,4.713804713804714,NA
02452,Middlesex County,MA,NA,54.38144329896907
02482,Norfolk County,MA,80.13468013468014,NA
02492,Norfolk County,MA,63.468013468013474,NA
02740,Bristol County,MA,0,0
02745,Bristol County,MA,7.4074074074074066,NA
48025,Oakland County,MI,NA,90.72164948453609
48034,Oakland County,MI,82.49158249158249,NA
48038,Macomb County,MI,27.27272727272727,NA
48039,St. Clair County,MI,84.68013468013467,NA
48042,Macomb County,MI,NA,66.23711340206185
48075,Oakland County,MI,29.629629629629626,NA
48076,Oakland County,MI,24.242424242424242,NA
48103,Washtenaw County,MI,1.1784511784511784,NA
48152,Wayne County,MI,NA,12.886597938144329
48180,Wayne County,MI,34.84848484848485,NA
48185,Wayne County,MI,5.723905723905724,NA
48193,Wayne County,MI,60.94276094276094,NA
48202,Wayne County,MI,NA,90.4639175257732
48204,Wayne County,MI,NA,37.11340206185567
48239,Wayne County,MI,8.080808080808081,NA
48301,Oakland County,MI,NA,50.25773195876289
48306,Oakland County,MI,20.707070707070706,NA
48324,Oakland County,MI,55.55555555555556,NA
48462,Oakland County,MI,73.23232323232324,NA
48624,Gladwin County,MI,53.87205387205387,NA
48858,Isabella County,MI,NA,44.329896907216494
48910,Ingham County,MI,NA,39.69072164948454
49010,Allegan County,MI,NA,54.63917525773196
49024,Kalamazoo County,MI,NA,34.02061855670103
49057,Van Buren County,MI,NA,81.44329896907216
49090,Van Buren County,MI,39.05723905723906,NA
49120,Berrien County,MI,13.973063973063974,NA
49203,Jackson County,MI,NA,10.824742268041238
49412,Newaygo County,MI,56.56565656565656,NA
49415,Muskegon County,MI,NA,88.14432989690721
49442,Muskegon County,MI,4.208754208754209,NA
49546,Kent County,MI,NA,17.525773195876287
49707,Alpena County,MI,19.19191919191919,NA
49749,Cheboygan County,MI,85.01683501683502,NA
49855,Marquette County,MI,NA,31.70103092783505
55016,Washington County,MN,61.111111111111114,NA
55109,Ramsey County,MN,27.609427609427613,NA
55113,Ramsey County,MN,76.93602693602693,NA
55124,Dakota County,MN,NA,51.80412371134021
55304,Anoka County,MN,92.42424242424242,NA
55336,McLeod County,MN,NA,52.57731958762887
55350,McLeod County,MN,NA,20.618556701030926
55374,Hennepin County,MN,NA,98.4536082474227
55379,Scott County,MN,43.43434343434344,NA
55442,Hennepin County,MN,83.5016835016835,NA
55904,Olmsted County,MN,NA,72.68041237113401
55912,Mower County,MN,3.872053872053872,NA
55963,Goodhue County,MN,87.20538720538721,NA
56215,Swift County,MN,NA,86.08247422680412
56763,Roseau County,MN,92.25589225589226,NA
38632,DeSoto County,MS,NA,88.91752577319588
39111,Simpson County,MS,86.7003367003367,NA
39702,Lowndes County,MS,49.32659932659932,NA
63011,St. Louis County,MO,NA,4.896907216494846
63033,St. Louis County,MO,12.457912457912458,NA
63050,Jefferson County,MO,69.52861952861953,NA
63146,St. Louis County,MO,NA,9.02061855670103
63303,St. Charles County,MO,NA,10.309278350515463
63304,St. Charles County,MO,13.131313131313133,NA
63552,Macon County,MO,94.94949494949495,NA
64055,Jackson County,MO,7.07070707070707,NA
64063,Jackson County,MO,37.37373737373738,NA
64086,Jackson County,MO,38.215488215488215,NA
64111,Jackson County,MO,45.11784511784512,NA
64112,Jackson County,MO,77.77777777777779,NA
64114,Jackson County,MO,NA,38.659793814432994
64429,Clinton County,MO,50.67340067340067,NA
64485,Andrew County,MO,NA,76.80412371134021
64772,Vernon County,MO,81.98653198653199,NA
65037,Morgan County,MO,93.93939393939394,NA
65079,Camden County,MO,90.40404040404042,NA
65608,Douglas County,MO,80.63973063973064,NA
59601,Lewis and Clark County,MT,NA,28.350515463917525
59840,Ravalli County,MT,58.58585858585859,NA
59917,Lincoln County,MT,79.46127946127946,NA
68025,Dodge County,NE,NA,14.432989690721648
68116,Douglas County,NE,60.60606060606061,NA
68516,Lancaster County,NE,44.44444444444444,NA
89117,Clark County,NV,NA,41.49484536082475
89123,Clark County,NV,NA,56.44329896907217
89128,Clark County,NV,68.85521885521885,NA
89134,Clark County,NV,48.484848484848484,51.546391752577314
89141,Clark County,NV,76.5993265993266,NA
89145,Clark County,NV,NA,91.75257731958763
89815,Elko County,NV,77.60942760942761,NA
03031,Hillsborough County,NH,65.31986531986533,NA
03054,Hillsborough County,NH,15.993265993265993,NA
03087,Rockingham County,NH,53.198653198653204,NA
03755,Grafton County,NH,83.33333333333334,67.26804123711341
03848,Rockingham County,NH,88.88888888888889,NA
07002,Hudson County,NJ,2.356902356902357,NA
07050,Essex County,NJ,92.5925925925926,NA
07052,Essex County,NJ,13.636363636363635,NA
07107,Essex County,NJ,4.545454545454546,NA
07305,Hudson County,NJ,2.6936026936026933,NA
07481,Bergen County,NJ,72.89562289562289,NA
07522,Passaic County,NJ,29.46127946127946,NA
07630,Bergen County,NJ,NA,93.04123711340206
07724,Monmouth County,NJ,34.34343434343434,61.34020618556701
07751,Monmouth County,NJ,79.7979797979798,NA
08008,Ocean County,NJ,85.35353535353535,NA
08096,Gloucester County,NJ,NA,22.68041237113402
08105,Camden County,NJ,9.932659932659933,NA
08210,Cape May County,NJ,42.255892255892256,NA
08558,Somerset County,NJ,97.97979797979798,NA
08560,Mercer County,NJ,99.66329966329967,NA
08611,Mercer County,NJ,NA,74.22680412371135
08618,Mercer County,NJ,NA,40.4639175257732
08758,Ocean County,NJ,NA,69.0721649484536
08759,Ocean County,NJ,NA,63.65979381443299
08807,Somerset County,NJ,40.06734006734007,NA
08816,Middlesex County,NJ,23.905723905723907,44.072164948453604
87002,Valencia County,NM,53.36700336700336,NA
87112,Bernalillo County,NM,NA,5.670103092783505
87122,Bernalillo County,NM,68.51851851851852,NA
88045,Hidalgo County,NM,NA,100
88220,Eddy County,NM,NA,31.185567010309278
10002,New York County,NY,39.8989898989899,NA
10022,New York County,NY,NA,32.21649484536083
10025,New York County,NY,NA,2.0618556701030926
10029,New York County,NY,0.33670033670033667,NA
10306,Richmond County,NY,NA,18.298969072164947
10309,Richmond County,NY,NA,49.74226804123711
10452,Bronx County,NY,0.6734006734006733,NA
10454,Bronx County,NY,5.05050505050505,NA
10455,Bronx County,NY,NA,21.649484536082475
10462,Bronx County,NY,NA,10.051546391752577
10465,Bronx County,NY,36.7003367003367,NA
10528,Westchester County,NY,NA,80.6701030927835
10541,Putnam County,NY,NA,59.27835051546392
10550,Westchester County,NY,59.59595959595959,NA
10583,Westchester County,NY,NA,34.79381443298969
10901,Rockland County,NY,66.16161616161617,NA
10941,Orange County,NY,NA,79.12371134020619
11040,Nassau County,NY,68.68686868686868,NA
11203,Kings County,NY,52.18855218855219,12.371134020618557
11205,Kings County,NY,17.67676767676768,NA
11218,Kings County,NY,NA,8.24742268041237
11219,Kings County,NY,18.013468013468014,NA
11510,Nassau County,NY,NA,45.36082474226804
11554,Nassau County,NY,44.78114478114478,NA
11576,Nassau County,NY,96.8013468013468,NA
11590,Nassau County,NY,NA,30.15463917525773
11693,Queens County,NY,90.9090909090909,NA
11703,Suffolk County,NY,NA,62.371134020618555
11710,Nassau County,NY,NA,39.948453608247426
11729,Suffolk County,NY,NA,53.09278350515464
11741,Suffolk County,NY,65.65656565656566,NA
11743,Suffolk County,NY,NA,18.814432989690722
11746,Suffolk County,NY,74.41077441077442,13.402061855670103
11755,Suffolk County,NY,91.24579124579124,NA
12054,Albany County,NY,83.67003367003367,NA
12203,Albany County,NY,38.72053872053872,NA
12210,Albany County,NY,87.03703703703704,NA
12302,Schenectady County,NY,21.885521885521886,NA
12306,Schenectady County,NY,NA,47.680412371134025
12883,Essex County,NY,75.08417508417509,NA
12901,Clinton County,NY,NA,9.278350515463918
13104,Onondaga County,NY,42.76094276094276,NA
13350,Herkimer County,NY,31.818181818181817,84.79381443298969
13407,Herkimer County,NY,88.04713804713805,NA
13601,Jefferson County,NY,NA,22.938144329896907
13732,Tioga County,NY,74.57912457912458,NA
13746,Broome County,NY,90.57239057239057,NA
13760,Broome County,NY,NA,1.0309278350515463
13815,Chenango County,NY,12.289562289562289,NA
14020,Genesee County,NY,NA,33.76288659793815
14031,Erie County,NY,72.72727272727273,NA
14043,Erie County,NY,NA,58.24742268041238
14075,Erie County,NY,NA,16.49484536082474
14092,Niagara County,NY,44.94949494949495,NA
14120,Niagara County,NY,NA,62.88659793814433
14206,Erie County,NY,25.084175084175087,NA
14214,Erie County,NY,41.245791245791246,NA
14304,Niagara County,NY,3.1986531986531985,NA
14428,Monroe County,NY,54.04040404040404,NA
14532,Ontario County,NY,74.74747474747475,NA
14534,Monroe County,NY,1.6835016835016834,NA
14580,Monroe County,NY,0.16835016835016833,NA
14612,Monroe County,NY,1.3468013468013467,NA
14618,Monroe County,NY,9.764309764309765,NA
14623,Monroe County,NY,19.865319865319865,NA
14626,Monroe County,NY,3.7037037037037033,NA
14701,Chautauqua County,NY,1.8518518518518516,NA
14733,Chautauqua County,NY,88.38383838383838,NA
14760,Cattaraugus County,NY,11.616161616161616,NA
14847,Seneca County,NY,97.3063973063973,NA
27205,Randolph County,NC,23.063973063973066,NA
27292,Davidson County,NC,0.8417508417508417,NA
27350,Randolph County,NC,NA,82.9896907216495
27371,Montgomery County,NC,NA,96.64948453608247
27524,Johnston County,NC,69.36026936026936,NA
27539,Wake County,NC,NA,85.30927835051546
27540,Wake County,NC,48.31649831649832,NA
27574,Person County,NC,51.34680134680135,NA
27603,Wake County,NC,NA,47.93814432989691
27604,Wake County,NC,72.39057239057239,NA
27606,Wake County,NC,45.11784511784512,NA
27949,Dare County,NC,78.61952861952862,NA
27962,Washington County,NC,98.31649831649831,NA
28021,Gaston County,NC,NA,71.90721649484536
28117,Iredell County,NC,29.96632996632997,NA
28147,Rowan County,NC,NA,65.20618556701031
28227,Mecklenburg County,NC,NA,34.27835051546392
28270,Mecklenburg County,NC,42.92929292929293,NA
28372,Robeson County,NC,86.53198653198653,NA
28425,Pender County,NC,60.26936026936027,NA
28443,Pender County,NC,NA,72.42268041237114
28467,Brunswick County,NC,NA,71.1340206185567
28472,Columbus County,NC,75.75757575757575,NA
28638,Caldwell County,NC,64.81481481481481,NA
28713,Swain County,NC,59.93265993265994,NA
28803,Buncombe County,NC,NA,30.412371134020617
58103,Cass County,ND,2.861952861952862,NA
58301,Ramsey County,ND,63.97306397306397,NA
43015,Delaware County,OH,NA,5.412371134020619
43040,Union County,OH,NA,29.12371134020619
43068,Franklin County,OH,8.585858585858585,NA
43202,Franklin County,OH,82.82828282828282,NA
43452,Ottawa County,OH,31.313131313131315,NA
43615,Lucas County,OH,4.377104377104377,NA
43764,Perry County,OH,NA,89.17525773195877
43920,Columbiana County,OH,8.417508417508419,NA
44012,Lorain County,OH,5.892255892255893,10.56701030927835
44062,Geauga County,OH,75.25252525252525,NA
44094,Lake County,OH,4.040404040404041,NA
44102,Cuyahoga County,OH,NA,17.010309278350515
44105,Cuyahoga County,OH,NA,2.8350515463917527
44109,Cuyahoga County,OH,NA,82.73195876288659
44122,Cuyahoga County,OH,NA,0.25773195876288657
44123,Cuyahoga County,OH,21.548821548821547,NA
44125,Cuyahoga County,OH,NA,12.11340206185567
44131,Cuyahoga County,OH,NA,6.185567010309279
44133,Cuyahoga County,OH,10.1010101010101,NA
44136,Cuyahoga County,OH,NA,18.556701030927837
44266,Portage County,OH,5.555555555555555,NA
44286,Summit County,OH,89.05723905723906,NA
44310,Summit County,OH,74.91582491582491,56.95876288659794
44320,Summit County,OH,15.656565656565657,NA
44460,Columbiana County,OH,7.23905723905724,NA
44512,Mahoning County,OH,11.952861952861953,NA
44705,Stark County,OH,35.01683501683502,NA
44805,Ashland County,OH,NA,3.608247422680412
44870,Erie County,OH,NA,5.927835051546391
45036,Warren County,OH,24.915824915824917,NA
45150,Clermont County,OH,28.114478114478114,NA
45152,Warren County,OH,81.31313131313132,NA
45231,Hamilton County,OH,NA,17.2680412371134
45251,Hamilton County,OH,85.52188552188552,NA
45255,Hamilton County,OH,43.265993265993266,NA
45309,Montgomery County,OH,NA,48.71134020618557
45322,Montgomery County,OH,46.2962962962963,NA
45377,Montgomery County,OH,45.62289562289562,NA
45381,Preble County,OH,NA,83.50515463917526
45402,Montgomery County,OH,81.14478114478115,NA
45417,Montgomery County,OH,NA,67.0103092783505
45424,Montgomery County,OH,8.24915824915825,9.536082474226804
45429,Montgomery County,OH,30.134680134680135,NA
45430,Greene County,OH,94.44444444444444,NA
45431,Montgomery County,OH,53.70370370370371,NA
45503,Clark County,OH,NA,15.721649484536082
45806,Allen County,OH,NA,60.567010309278345
45810,Hardin County,OH,81.64983164983165,NA
45895,Auglaize County,OH,30.47138047138047,NA
73093,McClain County,OK,99.4949494949495,NA
73120,Oklahoma County,OK,25.589225589225588,NA
73132,Oklahoma County,OK,41.582491582491585,NA
73533,Stephens County,OK,10.774410774410773,NA
74006,Washington County,OK,NA,36.08247422680412
74137,Tulsa County,OK,53.03030303030303,NA
74145,Tulsa County,OK,NA,61.855670103092784
97006,Washington County,OR,29.124579124579125,NA
97116,Washington County,OR,49.494949494949495,NA
97123,Washington County,OR,13.468013468013467,NA
97132,Yamhill County,OR,NA,37.628865979381445
97267,Clackamas County,OR,NA,26.54639175257732
97306,Marion County,OR,58.080808080808076,NA
97322,Linn County,OR,NA,12.628865979381443
97426,Lane County,OR,75.58922558922558,NA
97478,Lane County,OR,44.27609427609428,NA
97520,Jackson County,OR,NA,36.340206185567006
97537,Jackson County,OR,NA,89.69072164948454
97838,Umatilla County,OR,14.983164983164984,NA
15042,Beaver County,PA,74.24242424242425,73.96907216494846
15066,Beaver County,PA,66.66666666666666,NA
15068,Westmoreland County,PA,NA,3.865979381443299
15089,Westmoreland County,PA,83.16498316498317,NA
15116,Allegheny County,PA,83.83838383838383,NA
15120,Allegheny County,PA,41.91919191919192,NA
15122,Allegheny County,PA,NA,25.257731958762886
15131,Allegheny County,PA,84.84848484848484,NA
15132,Allegheny County,PA,59.93265993265994,NA
15215,Allegheny County,PA,NA,89.43298969072166
15235,Allegheny County,PA,NA,11.855670103092782
15243,Allegheny County,PA,75.92592592592592,NA
15367,Washington County,PA,91.58249158249158,NA
15370,Greene County,PA,55.892255892255896,60.051546391752574
15642,Westmoreland County,PA,5.218855218855219,NA
15656,Westmoreland County,PA,64.98316498316498,NA
15946,Cambria County,PA,86.19528619528619,NA
16002,Butler County,PA,NA,37.371134020618555
16201,Armstrong County,PA,NA,20.103092783505154
16407,Erie County,PA,66.4983164983165,NA
16504,Erie County,PA,70.87542087542089,NA
16630,Cambria County,PA,96.8013468013468,NA
17013,Cumberland County,PA,NA,23.969072164948454
17042,Lebanon County,PA,4.882154882154882,NA
17044,Mifflin County,PA,NA,14.948453608247423
17109,Dauphin County,PA,50.16835016835017,NA
17241,Cumberland County,PA,80.97643097643098,NA
17325,Adams County,PA,NA,15.463917525773196
17356,York County,PA,39.39393939393939,NA
17404,York County,PA,12.121212121212121,NA
17551,Lancaster County,PA,89.73063973063972,NA
17701,Lycoming County,PA,NA,7.989690721649484
17702,Lycoming County,PA,70.70707070707071,NA
17815,Columbia County,PA,8.922558922558922,NA
18014,Northampton County,PA,NA,46.90721649484536
18045,Northampton County,PA,NA,14.175257731958762
18603,Columbia County,PA,51.68350168350169,NA
18644,Luzerne County,PA,NA,80.41237113402062
18704,Luzerne County,PA,NA,11.597938144329897
18810,Bradford County,PA,94.78114478114477,NA
18974,Bucks County,PA,NA,2.5773195876288657
19001,Montgomery County,PA,93.60269360269359,NA
19002,Montgomery County,PA,NA,27.31958762886598
19008,Delaware County,PA,35.35353535353536,NA
19010,Delaware County,PA,39.56228956228956,NA
19061,Delaware County,PA,NA,83.24742268041237
19063,Delaware County,PA,9.595959595959595,NA
19067,Bucks County,PA,6.902356902356903,NA
19073,Delaware County,PA,32.659932659932664,NA
19096,Montgomery County,PA,36.868686868686865,NA
19122,Philadelphia County,PA,72.05387205387206,NA
19131,Philadelphia County,PA,NA,42.78350515463917
19143,Philadelphia County,PA,1.0101010101010102,NA
19150,Philadelphia County,PA,NA,75.51546391752578
19320,Chester County,PA,42.42424242424242,NA
19350,Chester County,PA,87.54208754208754,NA
19462,Montgomery County,PA,70.03367003367003,NA
02840,Newport County,RI,27.104377104377104,NA
02864,Providence County,RI,NA,13.144329896907218
02886,Kent County,RI,21.21212121212121,11.082474226804123
02909,Providence County,RI,33.5016835016835,NA
29054,Lexington County,SC,85.6902356902357,NA
29073,Lexington County,SC,NA,50
29212,Lexington County,SC,40.909090909090914,NA
29301,Spartanburg County,SC,35.858585858585855,NA
29340,Cherokee County,SC,52.35690235690236,NA
29414,Charleston County,SC,23.063973063973066,NA
29506,Florence County,SC,NA,84.27835051546391
29511,Horry County,SC,94.10774410774411,NA
29532,Darlington County,SC,NA,92.78350515463917
29536,Dillon County,SC,82.49158249158249,NA
29577,Horry County,SC,NA,55.927835051546396
29585,Georgetown County,SC,48.148148148148145,NA
29611,Greenville County,SC,67.17171717171718,NA
29678,Oconee County,SC,NA,47.16494845360825
29926,Beaufort County,SC,NA,40.20618556701031
57105,Minnehaha County,SD,NA,8.505154639175258
57201,Codington County,SD,NA,48.96907216494845
37055,Dickson County,TN,40.572390572390574,NA
37064,Williamson County,TN,NA,29.896907216494846
37122,Wilson County,TN,NA,35.30927835051546
37127,Rutherford County,TN,NA,89.94845360824742
37167,Rutherford County,TN,23.400673400673398,NA
37204,Davidson County,TN,95.62289562289563,NA
37208,Davidson County,TN,61.784511784511785,NA
37343,Hamilton County,TN,57.744107744107744,NA
37641,Greene County,TN,84.17508417508418,NA
37664,Sullivan County,TN,45.62289562289562,NA
37705,Anderson County,TN,91.07744107744108,NA
37737,Blount County,TN,NA,95.61855670103093
37774,Loudon County,TN,NA,36.597938144329895
37912,Knox County,TN,NA,59.5360824742268
38024,Dyer County,TN,34.51178451178451,NA
38119,Shelby County,TN,84.006734006734,NA
38343,Gibson County,TN,NA,74.74226804123711
38375,McNairy County,TN,71.38047138047138,NA
38401,Maury County,TN,NA,59.79381443298969
38571,Cumberland County,TN,41.07744107744108,NA
75006,Dallas County,TX,79.29292929292929,NA
75025,Collin County,TX,82.996632996633,NA
75034,Denton County,TX,25.757575757575758,NA
75062,Dallas County,TX,30.63973063973064,NA
75063,Dallas County,TX,95.95959595959596,NA
75088,Dallas County,TX,43.77104377104377,NA
75115,Dallas County,TX,17.50841750841751,NA
75143,Henderson County,TX,NA,65.72164948453609
75180,Dallas County,TX,89.56228956228956,NA
75205,Dallas County,TX,70.2020202020202,NA
75219,Dallas County,TX,60.77441077441077,NA
75228,Dallas County,TX,18.35016835016835,NA
75229,Dallas County,TX,44.107744107744104,NA
75232,Dallas County,TX,40.235690235690235,NA
75654,Rusk County,TX,67.67676767676768,NA
75751,Henderson County,TX,48.98989898989899,NA
76014,Tarrant County,TX,43.93939393939394,NA
76034,Tarrant County,TX,NA,69.3298969072165
76051,Tarrant County,TX,33.670033670033675,NA
76108,Tarrant County,TX,22.55892255892256,NA
76131,Tarrant County,TX,NA,87.62886597938144
76240,Cooke County,TX,90.06734006734007,NA
76244,Tarrant County,TX,50.841750841750844,NA
76248,Tarrant County,TX,NA,45.103092783505154
76903,Tom Green County,TX,50.505050505050505,NA
77004,Harris County,TX,41.75084175084175,NA
77041,Harris County,TX,37.03703703703704,NA
77056,Harris County,TX,NA,51.03092783505154
77070,Harris County,TX,21.71717171717172,NA
77079,Harris County,TX,58.24915824915825,NA
77081,Harris County,TX,NA,95.10309278350515
77306,Montgomery County,TX,79.62962962962963,NA
77316,Montgomery County,TX,NA,92.0103092783505
77339,Harris County,TX,36.36363636363637,NA
77354,Montgomery County,TX,NA,87.88659793814433
77433,Harris County,TX,52.69360269360269,NA
77511,Brazoria County,TX,11.27946127946128,NA
77520,Harris County,TX,NA,58.50515463917526
77531,Brazoria County,TX,82.32323232323232,80.15463917525774
77536,Harris County,TX,NA,55.670103092783506
77563,Galveston County,TX,NA,56.18556701030928
77571,Harris County,TX,45.45454545454545,NA
77703,Jefferson County,TX,92.76094276094277,NA
78028,Kerr County,TX,14.309764309764308,NA
78046,Webb County,TX,NA,51.03092783505154
78102,Bee County,TX,71.21212121212122,NA
78114,Wilson County,TX,NA,94.0721649484536
78258,Bexar County,TX,67.50841750841751,NA
78415,Nueces County,TX,80.3030303030303,NA
78542,Hidalgo County,TX,NA,54.123711340206185
78570,Hidalgo County,TX,85.85858585858585,NA
78572,Hidalgo County,TX,17.003367003367003,NA
78619,Hays County,TX,100,NA
78624,Gillespie County,TX,47.81144781144781,NA
78640,Hays County,TX,38.72053872053872,NA
79602,Taylor County,TX,NA,72.16494845360825
79714,Andrews County,TX,68.35016835016835,NA
79720,Howard County,TX,NA,57.98969072164949
79901,El Paso County,TX,84.51178451178451,NA
79905,El Paso County,TX,NA,56.70103092783505
84062,Utah County,UT,66.66666666666666,NA
84105,Salt Lake County,UT,64.3097643097643,NA
84116,Salt Lake County,UT,31.48148148148148,NA
84404,Weber County,UT,36.195286195286194,NA
84405,Weber County,UT,61.27946127946128,NA
05201,Bennington County,VT,NA,73.19587628865979
05478,Franklin County,VT,NA,32.7319587628866
22701,Culpeper County,VA,16.161616161616163,NA
22801,Harrisonburg city,VA,34.68013468013468,NA
22947,Albemarle County,VA,NA,90.20618556701031
23030,Charles City County,VA,NA,95.87628865979381
23185,James City County,VA,3.535353535353535,NA
23229,Henrico County,VA,NA,61.5979381443299
23231,Henrico County,VA,15.151515151515152,NA
23234,Chesterfield County,VA,30.303030303030305,NA
23321,Chesapeake city,VA,28.619528619528616,NA
23435,Suffolk city,VA,32.996632996633,NA
24014,Roanoke city,VA,NA,64.43298969072166
24019,Roanoke County,VA,NA,47.42268041237113
24211,Washington County,VA,55.72390572390572,NA
24354,Smyth County,VA,NA,48.1958762886598
24477,Augusta County,VA,47.30639730639731,NA
24557,Pittsylvania County,VA,NA,81.70103092783505
98001,King County,WA,37.54208754208754,NA
98007,King County,WA,76.0942760942761,NA
98011,King County,WA,70.87542087542089,NA
98023,King County,WA,NA,31.958762886597935
98055,King County,WA,67.67676767676768,NA
98119,King County,WA,77.44107744107744,71.3917525773196
98177,King County,WA,56.22895622895623,NA
98247,Whatcom County,WA,NA,97.9381443298969
98354,Pierce County,WA,70.53872053872054,NA
99206,Spokane County,WA,60.437710437710436,NA
99208,Spokane County,WA,NA,16.752577319587626
20017,District of Columbia,DC,87.7104377104377,NA
20020,District of Columbia,DC,NA,32.98969072164948
25177,Kanawha County,WV,NA,22.164948453608247
26170,Pleasants County,WV,NA,76.5463917525773
26201,Upshur County,WV,NA,21.391752577319586
26330,Harrison County,WV,NA,69.84536082474226
53092,Ozaukee County,WI,39.225589225589225,NA
53095,Washington County,WI,16.835016835016837,NA
53105,Racine County,WI,40.4040404040404,NA
53132,Milwaukee County,WI,NA,52.31958762886598
53140,Kenosha County,WI,21.043771043771045,NA
53149,Waukesha County,WI,71.54882154882155,NA
53177,Racine County,WI,NA,68.81443298969072
53217,Milwaukee County,WI,NA,52.83505154639175
53406,Racine County,WI,2.0202020202020203,NA
53525,Rock County,WI,98.82154882154882,NA
53593,Dane County,WI,46.63299663299663,NA
53594,Jefferson County,WI,NA,94.58762886597938
53955,Columbia County,WI,NA,96.3917525773196
54136,Outagamie County,WI,NA,98.96907216494846
54143,Marinette County,WI,54.37710437710438,NA
54304,Brown County,WI,NA,28.865979381443296
54401,Marathon County,WI,66.32996632996633,NA
54409,Langlade County,WI,20.53872053872054,NA
54494,Wood County,WI,6.565656565656567,NA
54603,La Crosse County,WI,NA,19.84536082474227
54630,Trempealeau County,WI,NA,82.21649484536083
54660,Monroe County,WI,45.95959595959596,NA
54669,La Crosse County,WI,46.96969696969697,NA
54724,Chippewa County,WI,NA,88.4020618556701
54880,Douglas County,WI,NA,19.329896907216497
54901,Winnebago County,WI,NA,61.855670103092784
54902,Winnebago County,WI,NA,42.01030927835052
54915,Outagamie County,WI,NA,85.05154639175258
54937,Fond du Lac County,WI,50.33670033670033,53.608247422680414
82009,Laramie County,WY,55.387205387205384,NA
82443,Hot Springs County,WY,95.1178451178451,NA
