ZipCode,county,state,Adult,Retirement
35016,Marshall County,AL,NA,66.78321678321679
35117,Jefferson County,AL,82.79773156899812,NA
35216,Jefferson County,AL,NA,43.35664335664335
35475,Tuscaloosa County,AL,44.61247637051039,NA
35611,Limestone County,AL,54.25330812854442,NA
35613,Limestone County,AL,35.34971644612476,NA
35640,Morgan County,AL,73.91304347826086,NA
36067,Autauga County,AL,30.623818525519848,NA
36108,Montgomery County,AL,36.48393194706994,NA
36272,Calhoun County,AL,41.58790170132325,NA
36274,Randolph County,AL,NA,93.35664335664336
36305,Houston County,AL,NA,82.51748251748252
36322,Dale County,AL,NA,95.8041958041958
36344,Geneva County,AL,86.20037807183365,NA
36445,Monroe County,AL,NA,92.65734265734265
36502,Escambia County,AL,NA,35.66433566433567
36526,Baldwin County,AL,44.99054820415879,NA
36535,Baldwin County,AL,NA,68.18181818181817
36801,Lee County,AL,56.33270321361059,NA
99517,Anchorage Municipality,AK,NA,70.97902097902097
99654,Matanuska-Susitna Borough,AK,30.434782608695656,NA
85013,Maricopa County,AZ,90.54820415879017,NA
85022,Maricopa County,AZ,46.31379962192816,NA
85037,Maricopa County,AZ,20.793950850661624,NA
85042,Maricopa County,AZ,22.117202268431,NA
85131,Pinal County,AZ,71.83364839319471,NA
85344,La Paz County,AZ,32.89224952741021,NA
85364,Yuma County,AZ,31.568998109640834,37.76223776223776
85501,Gila County,AZ,NA,59.09090909090909
85614,Pima County,AZ,NA,15.384615384615385
85621,Santa Cruz County,AZ,NA,36.71328671328671
85648,Santa Cruz County,AZ,NA,60.13986013986013
85716,Pima County,AZ,13.42155009451796,NA
85746,Pima County,AZ,9.45179584120983,NA
86426,Mohave County,AZ,72.4007561436673,NA
71603,Jefferson County,AR,NA,17.132867132867133
72020,White County,AR,90.73724007561437,NA
72023,Lonoke County,AR,55.765595463138,NA
72034,Faulkner County,AR,NA,42.65734265734265
72117,Pulaski County,AR,47.44801512287334,NA
72701,Washington County,AR,59.73534971644613,NA
72758,Benton County,AR,85.44423440453687,NA
90025,Los Angeles County,CA,NA,29.37062937062937
90027,Los Angeles County,CA,55.19848771266541,NA
90045,Los Angeles County,CA,59.168241965973536,NA
90221,Los Angeles County,CA,NA,30.069930069930066
90260,Los Angeles County,CA,NA,63.98601398601399
90404,Los Angeles County,CA,87.71266540642722,NA
90601,Los Angeles County,CA,49.33837429111531,NA
90630,Orange County,CA,NA,51.048951048951054
91107,Los Angeles County,CA,70.32136105860114,NA
91307,Los Angeles County,CA,NA,92.3076923076923
91701,San Bernardino County,CA,NA,58.04195804195804
91941,San Diego County,CA,88.84688090737241,38.81118881118881
92081,San Diego County,CA,NA,86.01398601398601
92105,San Diego County,CA,12.476370510396976,NA
92108,San Diego County,CA,97.92060491493385,NA
92131,San Diego County,CA,64.08317580340265,NA
92203,Riverside County,CA,NA,13.636363636363635
92264,Riverside County,CA,41.02079395085066,NA
92336,San Bernardino County,CA,7.183364839319471,74.12587412587412
92407,San Bernardino County,CA,13.799621928166353,NA
92507,Riverside County,CA,36.10586011342155,NA
92530,Riverside County,CA,81.09640831758034,NA
92610,Orange County,CA,83.36483931947069,NA
92683,Orange County,CA,NA,15.034965034965033
92704,Orange County,CA,27.032136105860115,NA
92808,Orange County,CA,70.69943289224952,NA
92832,Orange County,CA,NA,91.25874125874127
92844,Orange County,CA,NA,67.48251748251748
93063,Ventura County,CA,61.43667296786389,NA
93291,Tulare County,CA,NA,31.46853146853147
93304,Kern County,CA,18.90359168241966,NA
93309,Kern County,CA,25.708884688090738,NA
93401,San Luis Obispo County,CA,52.36294896030246,NA
93455,Santa Barbara County,CA,NA,25.174825174825177
93555,Kern County,CA,53.875236294896034,NA
93722,Fresno County,CA,28.92249527410208,NA
94027,San Mateo County,CA,91.11531190926276,NA
94080,San Mateo County,CA,26.65406427221172,NA
94114,San Francisco County,CA,41.39886578449906,46.85314685314685
94132,San Francisco County,CA,NA,57.692307692307686
94158,San Francisco County,CA,88.468809073724,NA
94513,Contra Costa County,CA,NA,18.53146853146853
94518,Contra Costa County,CA,71.45557655954632,NA
94546,Alameda County,CA,NA,54.1958041958042
94560,Alameda County,CA,48.582230623818525,NA
94920,Marin County,CA,97.54253308128544,NA
94952,Sonoma County,CA,69.56521739130434,NA
94954,Sonoma County,CA,NA,28.321678321678323
95035,Santa Clara County,CA,42.722117202268436,NA
95125,Santa Clara County,CA,69.94328922495274,NA
95351,Stanislaus County,CA,16.824196597353495,NA
95358,Stanislaus County,CA,24.38563327032136,NA
95687,Solano County,CA,NA,16.783216783216783
95746,Placer County,CA,73.72400756143668,NA
95826,Sacramento County,CA,NA,49.65034965034965
95926,Butte County,CA,NA,21.328671328671327
95965,Butte County,CA,43.85633270321361,NA
95966,Butte County,CA,52.17391304347826,NA
96080,Tehama County,CA,NA,20.62937062937063
80013,Arapahoe County,CO,51.03969754253308,NA
80026,Boulder County,CO,NA,41.60839160839161
80108,Douglas County,CO,NA,52.7972027972028
80134,Douglas County,CO,55.3875236294896,NA
80135,Douglas County,CO,98.29867674858222,NA
80218,Denver County,CO,56.14366729678639,NA
80487,Routt County,CO,NA,96.85314685314685
80537,Larimer County,CO,17.20226843100189,NA
80601,Adams County,CO,28.166351606805296,NA
80631,Weld County,CO,5.8601134215500945,NA
80634,Weld County,CO,40.45368620037807,NA
80904,El Paso County,CO,59.35727788279773,NA
80906,El Paso County,CO,NA,33.91608391608392
80910,El Paso County,CO,NA,50.349650349650354
81101,Alamosa County,CO,NA,47.9020979020979
81147,Archuleta County,CO,NA,78.32167832167832
81211,Chaffee County,CO,98.29867674858222,NA
81212,Fremont County,CO,NA,44.75524475524475
81625,Moffat County,CO,34.02646502835538,NA
06060,Hartford County,CT,100,NA
06096,Hartford County,CT,73.15689981096408,NA
06238,Tolland County,CT,81.85255198487712,NA
06281,Windham County,CT,NA,67.13286713286713
06405,New Haven County,CT,35.53875236294896,NA
06457,Middlesex County,CT,NA,7.3426573426573425
06512,New Haven County,CT,NA,17.482517482517483
06519,New Haven County,CT,NA,81.46853146853147
06614,Fairfield County,CT,53.68620037807184,NA
06705,New Haven County,CT,NA,82.86713286713287
06770,New Haven County,CT,19.092627599243855,NA
06880,Fairfield County,CT,NA,54.54545454545454
06883,Fairfield County,CT,95.65217391304348,NA
19709,New Castle County,DE,NA,49.3006993006993
19938,Kent County,DE,89.98109640831758,NA
19952,Kent County,DE,NA,77.62237762237763
19958,Sussex County,DE,NA,4.895104895104895
19973,Sussex County,DE,NA,15.734265734265735
32038,Columbia County,FL,NA,82.16783216783216
32080,St. Johns County,FL,64.461247637051045,NA
32117,Volusia County,FL,NA,44.40559440559441
32128,Volusia County,FL,NA,94.75524475524476
32137,Flagler County,FL,NA,5.944055944055944
32221,Duval County,FL,NA,28.671328671328673
32277,Duval County,FL,87.90170132325142,NA
32504,Escambia County,FL,44.801512287334596,NA
32746,Seminole County,FL,NA,35.31468531468531
32780,Brevard County,FL,NA,12.237762237762238
33012,Miami-Dade County,FL,38.56332703213611,NA
33062,Broward County,FL,NA,22.377622377622377
33417,Palm Beach County,FL,53.497164461247635,NA
33460,Palm Beach County,FL,40.07561436672968,NA
33570,Hillsborough County,FL,NA,48.25174825174825
33594,Hillsborough County,FL,77.12665406427222,NA
33703,Pinellas County,FL,75.04725897920605,NA
33844,Polk County,FL,33.2703213610586,NA
33952,Charlotte County,FL,20.415879017013232,NA
34604,Hernando County,FL,70.13232514177695,NA
34613,Hernando County,FL,67.48582230623819,NA
34746,Osceola County,FL,31.190926275992435,NA
34759,Polk County,FL,NA,36.36363636363637
34761,Orange County,FL,33.83742911153119,NA
34786,Orange County,FL,NA,43.00699300699301
30004,Fulton County,GA,77.31568998109641,NA
30016,Newton County,GA,36.29489603024575,NA
30028,Forsyth County,GA,NA,47.2027972027972
30043,Gwinnett County,GA,18.147448015122876,NA
30054,Newton County,GA,64.08317580340265,NA
30062,Cobb County,GA,77.882797731569,NA
30092,Gwinnett County,GA,NA,55.94405594405595
30110,Haralson County,GA,86.57844990548205,NA
30121,Bartow County,GA,48.96030245746692,NA
30132,Paulding County,GA,27.599243856332706,NA
30134,Douglas County,GA,20.226843100189036,NA
30183,Cherokee County,GA,99.4328922495274,NA
30189,Cherokee County,GA,46.880907372400756,NA
30260,Clayton County,GA,NA,80.76923076923077
30474,Toombs County,GA,NA,98.6013986013986
30517,Jackson County,GA,75.99243856332704,NA
30525,Rabun County,GA,88.65784499054821,NA
30567,Jackson County,GA,93.00567107750473,NA
30655,Walton County,GA,30.245746691871457,NA
30815,Richmond County,GA,16.068052930056712,NA
31008,Peach County,GA,NA,51.39860139860139
31029,Monroe County,GA,66.1625708884688,NA
31082,Washington County,GA,79.58412098298678,NA
31216,Bibb County,GA,92.06049149338375,NA
31322,Chatham County,GA,74.10207939508507,NA
31406,Chatham County,GA,NA,24.125874125874127
31601,Lowndes County,GA,21.17202268431002,NA
31602,Lowndes County,GA,32.514177693761816,NA
31794,Tift County,GA,23.062381852551987,NA
96795,Honolulu County,HI,NA,72.37762237762237
83338,Jerome County,ID,49.9054820415879,NA
83646,Ada County,ID,82.41965973534971,NA
83651,Canyon County,ID,NA,9.090909090909092
83702,Ada County,ID,24.007561436672965,NA
60018,Cook County,IL,NA,32.86713286713287
60026,Cook County,IL,94.7069943289225,NA
60048,Lake County,IL,NA,20.27972027972028
60050,McHenry County,IL,92.62759924385632,NA
60056,Cook County,IL,NA,72.02797202797203
60118,Kane County,IL,67.29678638941398,NA
60130,Cook County,IL,43.28922495274102,NA
60417,Will County,IL,58.79017013232514,NA
60431,Will County,IL,65.40642722117202,NA
60440,Will County,IL,15.689981096408317,NA
60446,Will County,IL,11.153119092627598,32.51748251748251
60452,Cook County,IL,42.911153119092624,NA
60525,Cook County,IL,94.89603024574669,NA
60545,Kendall County,IL,81.47448015122873,NA
60610,Cook County,IL,NA,84.61538461538461
60619,Cook County,IL,NA,5.244755244755245
60625,Cook County,IL,7.9395085066162565,NA
60630,Cook County,IL,51.79584120982986,NA
61350,LaSalle County,IL,42.34404536862004,NA
61354,LaSalle County,IL,49.14933837429111,NA
61523,Peoria County,IL,93.57277882797732,NA
61701,McLean County,IL,86.95652173913044,23.426573426573427
61727,De Witt County,IL,82.6086956521739,NA
62448,Jasper County,IL,84.68809073724007,NA
46072,Tipton County,IN,NA,67.83216783216784
46106,Johnson County,IN,89.413988657845,NA
46131,Johnson County,IN,58.97920604914933,NA
46143,Johnson County,IN,NA,11.538461538461538
46217,Marion County,IN,72.77882797731569,NA
46221,Marion County,IN,70.88846880907373,NA
46224,Marion County,IN,25.14177693761815,NA
46254,Marion County,IN,17.76937618147448,NA
46268,Marion County,IN,NA,70.62937062937063
46304,Porter County,IN,57.27788279773157,NA
46311,Lake County,IN,26.46502835538752,NA
46312,Lake County,IN,11.720226843100189,NA
46321,Lake County,IN,NA,65.73426573426573
46410,Lake County,IN,NA,22.02797202797203
46534,Starke County,IN,NA,71.32867132867133
46750,Huntington County,IN,15.122873345935728,NA
46804,Allen County,IN,38.9413988657845,NA
46825,Allen County,IN,NA,22.727272727272727
47112,Harrison County,IN,NA,50
47122,Floyd County,IN,84.49905482041588,NA
47302,Delaware County,IN,NA,61.18881118881119
47371,Jay County,IN,NA,83.91608391608392
47421,Lawrence County,IN,29.489603024574667,47.2027972027972
47460,Owen County,IN,68.80907372400756,NA
47610,Warrick County,IN,NA,88.11188811188812
47712,Vanderburgh County,IN,72.4007561436673,NA
47715,Vanderburgh County,IN,24.196597353497165,NA
47978,Jasper County,IN,62.19281663516069,NA
50220,Dallas County,IA,93.38374291115312,NA
50501,Webster County,IA,NA,30.419580419580424
50701,Black Hawk County,IA,27.977315689981097,NA
51105,Woodbury County,IA,62.003780718336486,NA
51503,Pottawattamie County,IA,NA,4.545454545454546
52213,Linn County,IA,94.5179584120983,NA
52632,Lee County,IA,NA,29.02097902097902
66049,Douglas County,KS,NA,31.11888111888112
66062,Johnson County,KS,NA,10.48951048951049
66203,Johnson County,KS,NA,62.58741258741259
66547,Pottawatomie County,KS,79.39508506616258,NA
67042,Butler County,KS,57.655954631379956,NA
67337,Montgomery County,KS,80.52930056710775,NA
67801,Ford County,KS,54.82041587901701,NA
40165,Bullitt County,KY,10.775047258979207,NA
40216,Jefferson County,KY,6.427221172022684,NA
40228,Jefferson County,KY,60.68052930056711,NA
40360,Bath County,KY,78.63894139886578,NA
40361,Bourbon County,KY,NA,50.349650349650354
40475,Madison County,KY,NA,8.741258741258742
41091,Boone County,KY,65.78449905482042,NA
41095,Gallatin County,KY,94.1398865784499,NA
41230,Lawrence County,KY,21.17202268431002,NA
41301,Wolfe County,KY,NA,79.37062937062937
41501,Pike County,KY,NA,77.97202797202797
42003,McCracken County,KY,NA,64.6853146853147
42101,Warren County,KY,23.440453686200378,NA
42134,Simpson County,KY,NA,63.63636363636363
42171,Warren County,KY,74.29111531190927,NA
42211,Trigg County,KY,58.60113421550095,NA
42602,Clinton County,KY,76.37051039697542,NA
42633,Wayne County,KY,45.93572778827977,NA
42717,Cumberland County,KY,51.98487712665406,NA
42754,Grayson County,KY,22.873345935727787,NA
70003,Jefferson Parish,LA,45.746691871455575,NA
70087,St. Charles Parish,LA,43.667296786389414,NA
70344,Terrebonne Parish,LA,61.05860113421549,NA
70363,Terrebonne Parish,LA,2.4574669187145557,NA
70392,St. Mary Parish,LA,64.65028355387523,NA
70458,St. Tammany Parish,LA,54.44234404536862,NA
70461,St. Tammany Parish,LA,12.098298676748582,NA
70506,Lafayette Parish,LA,21.73913043478261,NA
70508,Lafayette Parish,LA,67.86389413988658,NA
70791,East Baton Rouge Parish,LA,9.829867674858223,NA
70809,East Baton Rouge Parish,LA,47.82608695652174,NA
71111,Bossier Parish,LA,NA,39.86013986013986
71118,Caddo Parish,LA,16.257088846880908,NA
71270,Lincoln Parish,LA,66.91871455576559,NA
71301,Rapides Parish,LA,65.97353497164461,NA
04106,Cumberland County,ME,NA,65.03496503496503
04240,Androscoggin County,ME,NA,2.4475524475524475
04444,Penobscot County,ME,NA,58.39160839160839
04901,Kennebec County,ME,NA,18.181818181818183
21060,Anne Arundel County,MD,57.84499054820416,NA
21114,Anne Arundel County,MD,86.76748582230623,NA
21122,Anne Arundel County,MD,5.671077504725898,NA
21218,Baltimore city,MD,NA,69.23076923076923
21703,Frederick County,MD,56.71077504725898,NA
21804,Wicomico County,MD,69.75425330812854,NA
21915,Cecil County,MD,93.76181474480151,NA
21921,Cecil County,MD,NA,5.594405594405594
01040,Hampden County,MA,3.5916824196597354,NA
01056,Hampden County,MA,NA,31.46853146853147
01104,Hampden County,MA,NA,0.6993006993006993
01226,Berkshire County,MA,NA,81.11888111888112
01440,Worcester County,MA,NA,7.6923076923076925
01507,Worcester County,MA,NA,93.00699300699301
01527,Worcester County,MA,48.39319470699433,NA
01568,Worcester County,MA,NA,79.02097902097903
01569,Worcester County,MA,85.82230623818525,NA
01730,Middlesex County,MA,26.08695652173913,NA
01826,Middlesex County,MA,2.835538752362949,NA
01840,Essex County,MA,NA,74.82517482517483
01841,Essex County,MA,NA,4.195804195804196
01913,Essex County,MA,NA,8.041958041958042
01915,Essex County,MA,35.16068052930057,NA
01930,Essex County,MA,2.0793950850661624,NA
02048,Bristol County,MA,62.948960302457465,NA
02050,Plymouth County,MA,15.879017013232513,NA
02124,Suffolk County,MA,0,NA
02125,Suffolk County,MA,0.3780718336483932,NA
02150,Suffolk County,MA,43.10018903591683,NA
02301,Plymouth County,MA,0.1890359168241966,24.475524475524477
02324,Plymouth County,MA,7.750472589792061,NA
02330,Plymouth County,MA,NA,25.524475524475527
02453,Middlesex County,MA,NA,61.88811188811189
02476,Middlesex County,MA,32.32514177693761,NA
02715,Bristol County,MA,NA,97.55244755244755
02721,Bristol County,MA,0.5671077504725899,NA
02740,Bristol County,MA,NA,0
48047,Macomb County,MI,10.207939508506616,NA
48059,St. Clair County,MI,81.28544423440454,NA
48092,Macomb County,MI,NA,16.433566433566433
48108,Washtenaw County,MI,NA,25.874125874125873
48114,Livingston County,MI,45.17958412098299,NA
48124,Wayne County,MI,15.500945179584122,NA
48126,Wayne County,MI,31.379962192816635,NA
48158,Washtenaw County,MI,67.67485822306239,NA
48185,Wayne County,MI,3.780718336483932,NA
48197,Washtenaw County,MI,1.5122873345935728,NA
48210,Wayne County,MI,NA,48.6013986013986
48228,Wayne County,MI,1.1342155009451798,NA
48306,Oakland County,MI,NA,51.74825174825175
48356,Oakland County,MI,91.87145557655954,NA
48444,Lapeer County,MI,NA,69.93006993006993
48455,Lapeer County,MI,76.55954631379961,NA
48506,Genesee County,MI,52.74102079395085,NA
48612,Gladwin County,MI,89.22495274102079,NA
48638,Saginaw County,MI,84.12098298676749,NA
48706,Bay County,MI,NA,1.048951048951049
48708,Bay County,MI,5.293005671077505,NA
48746,Tuscola County,MI,87.14555765595463,NA
48858,Isabella County,MI,4.158790170132325,NA
48875,Ionia County,MI,91.30434782608695,NA
49006,Kalamazoo County,MI,44.234404536862,NA
49038,Berrien County,MI,83.5538752362949,NA
49042,St. Joseph County,MI,95.84120982986768,NA
49048,Kalamazoo County,MI,13.043478260869565,NA
49080,Allegan County,MI,37.24007561436673,NA
49228,Lenawee County,MI,NA,86.7132867132867
49420,Oceana County,MI,89.03591682419659,NA
49423,Ottawa County,MI,9.073724007561438,NA
49442,Muskegon County,MI,44.045368620037806,NA
49455,Oceana County,MI,NA,98.25174825174825
49461,Muskegon County,MI,84.87712665406427,NA
49525,Kent County,MI,29.678638941398866,NA
55033,Dakota County,MN,NA,94.05594405594405
55057,Rice County,MN,63.51606805293005,NA
55119,Ramsey County,MN,58.41209829867675,NA
55403,Hennepin County,MN,50.2835538752363,NA
55404,Hennepin County,MN,NA,3.8461538461538463
55406,Hennepin County,MN,19.47069943289225,NA
55445,Hennepin County,MN,NA,79.72027972027972
55448,Anoka County,MN,34.97164461247637,NA
55912,Mower County,MN,4.725897920604915,NA
56031,Martin County,MN,39.69754253308129,NA
56501,Becker County,MN,NA,20.97902097902098
39301,Lauderdale County,MS,88.09073724007561,NA
39428,Covington County,MS,70.51039697542532,NA
39459,Jones County,MS,99.8109640831758,NA
39466,Pearl River County,MS,21.928166351606805,NA
39470,Pearl River County,MS,73.34593572778829,NA
39560,Harrison County,MS,NA,8.391608391608392
39564,Jackson County,MS,27.22117202268431,NA
39744,Webster County,MS,87.33459357277883,NA
63105,St. Louis County,MO,94.3289224952741,NA
63134,St. Louis County,MO,35.53875236294896,NA
63139,St. Louis city,MO,63.70510396975425,NA
63366,St. Charles County,MO,9.262759924385634,NA
63367,St. Charles County,MO,93.19470699432893,NA
64030,Jackson County,MO,13.610586011342155,NA
64055,Jackson County,MO,NA,6.643356643356643
64081,Jackson County,MO,39.88657844990548,NA
64118,Clay County,MO,NA,6.293706293706294
64157,Clay County,MO,27.788279773156898,NA
64506,Buchanan County,MO,14.555765595463138,NA
64801,Jasper County,MO,NA,40.909090909090914
65084,Morgan County,MO,NA,94.4055944055944
65301,Pettis County,MO,2.6465028355387523,NA
65656,Stone County,MO,NA,86.7132867132867
59044,Yellowstone County,MT,NA,71.67832167832168
59923,Lincoln County,MT,58.22306238185255,NA
68137,Douglas County,NE,NA,40.55944055944056
68152,Douglas County,NE,NA,84.26573426573427
68505,Lancaster County,NE,74.85822306238185,NA
69101,Lincoln County,NE,66.5406427221172,NA
89403,Lyon County,NV,33.0812854442344,NA
89423,Douglas County,NV,NA,52.09790209790209
89460,Douglas County,NV,68.43100189035917,NA
03842,Rockingham County,NH,63.89413988657845,NA
07206,Union County,NJ,66.72967863894141,NA
07305,Hudson County,NJ,0.945179584120983,NA
07503,Passaic County,NJ,NA,100
07506,Passaic County,NJ,61.62570888468809,NA
07601,Bergen County,NJ,NA,90.9090909090909
07747,Monmouth County,NJ,NA,33.21678321678322
07834,Morris County,NJ,87.52362948960302,NA
07901,Union County,NJ,96.59735349716446,NA
08012,Camden County,NJ,21.550094517958414,88.46153846153845
08033,Camden County,NJ,NA,89.86013986013987
08052,Burlington County,NJ,68.99810964083176,NA
08053,Burlington County,NJ,19.848771266540645,NA
08080,Gloucester County,NJ,92.43856332703214,NA
08102,Camden County,NJ,25.89792060491493,NA
08104,Camden County,NJ,13.23251417769376,NA
08205,Atlantic County,NJ,NA,16.083916083916083
08230,Cape May County,NJ,NA,74.47552447552448
08302,Cumberland County,NJ,51.22873345935728,NA
08360,Cumberland County,NJ,4.536862003780719,6.993006993006993
08629,Mercer County,NJ,25.51984877126654,NA
08701,Ocean County,NJ,NA,53.14685314685315
08807,Somerset County,NJ,NA,34.96503496503497
08812,Middlesex County,NJ,88.27977315689981,NA
08822,Hunterdon County,NJ,NA,85.3146853146853
08835,Somerset County,NJ,41.965973534971646,NA
08865,Warren County,NJ,3.0245746691871456,NA
87111,Bernalillo County,NM,NA,81.81818181818183
87112,Bernalillo County,NM,37.61814744801512,NA
87113,Bernalillo County,NM,NA,96.15384615384616
87114,Bernalillo County,NM,NA,84.96503496503497
87120,Bernalillo County,NM,6.61625708884688,9.44055944055944
87121,Bernalillo County,NM,NA,68.53146853146853
10002,New York County,NY,NA,3.4965034965034967
10025,New York County,NY,3.9697542533081283,NA
10040,New York County,NY,NA,13.286713286713287
10075,New York County,NY,NA,55.24475524475524
10456,Bronx County,NY,11.342155009451796,NA
10467,Bronx County,NY,0.7561436672967864,NA
10510,Westchester County,NY,NA,98.95104895104895
10705,Westchester County,NY,NA,21.678321678321677
10924,Orange County,NY,83.7429111531191,NA
11003,Nassau County,NY,83.93194706994329,NA
11385,Queens County,NY,80.90737240075615,NA
11704,Suffolk County,NY,NA,41.95804195804196
11706,Suffolk County,NY,17.580340264650285,NA
11754,Suffolk County,NY,NA,75.17482517482517
12118,Saratoga County,NY,85.63327032136105,NA
12188,Saratoga County,NY,71.64461247637051,NA
12306,Schenectady County,NY,NA,85.66433566433567
12572,Dutchess County,NY,98.67674858223062,NA
12866,Saratoga County,NY,10.396975425330812,NA
12983,Franklin County,NY,42.53308128544423,NA
13205,Onondaga County,NY,NA,38.111888111888106
13357,Herkimer County,NY,29.867674858223065,NA
13601,Jefferson County,NY,NA,12.587412587412588
13617,St. Lawrence County,NY,NA,27.972027972027973
13619,Jefferson County,NY,40.831758034026464,NA
13760,Broome County,NY,NA,0.34965034965034963
13778,Chenango County,NY,NA,42.30769230769231
13790,Broome County,NY,6.238185255198488,NA
13827,Tioga County,NY,NA,27.27272727272727
13862,Broome County,NY,82.04158790170132,NA
13865,Broome County,NY,NA,60.83916083916085
14108,Niagara County,NY,NA,73.42657342657343
14120,Niagara County,NY,17.958412098298677,NA
14174,Niagara County,NY,NA,70.27972027972028
14217,Erie County,NY,20.982986767485823,13.986013986013987
14218,Erie County,NY,14.177693761814744,NA
14224,Erie County,NY,3.402646502835539,NA
14227,Erie County,NY,NA,19.230769230769234
14425,Ontario County,NY,12.665406427221171,53.84615384615385
14612,Monroe County,NY,NA,1.3986013986013985
14621,Monroe County,NY,NA,2.097902097902098
14624,Monroe County,NY,11.531190926275993,NA
14626,Monroe County,NY,66.351606805293,NA
14724,Chautauqua County,NY,91.68241965973534,NA
14810,Steuben County,NY,60.113421550094515,NA
14886,Tompkins County,NY,NA,57.34265734265735
27104,Forsyth County,NC,23.81852551984877,NA
27332,Lee County,NC,NA,37.06293706293706
27524,Johnston County,NC,NA,65.38461538461539
27587,Wake County,NC,79.01701323251417,NA
27858,Pitt County,NC,75.61436672967864,NA
27886,Edgecombe County,NC,31.001890359168243,NA
27889,Beaufort County,NC,24.95274102079395,NA
27892,Martin County,NC,NA,59.790209790209794
27962,Washington County,NC,NA,73.77622377622379
28054,Gaston County,NC,14.744801512287333,NA
28115,Iredell County,NC,16.446124763705104,NA
28129,Stanly County,NC,99.24385633270322,NA
28144,Rowan County,NC,28.733459357277884,NA
28159,Rowan County,NC,99.62192816635161,NA
28227,Mecklenburg County,NC,NA,10.839160839160838
28277,Mecklenburg County,NC,NA,46.15384615384615
28374,Moore County,NC,97.16446124763705,NA
28409,New Hanover County,NC,76.18147448015122,NA
28441,Sampson County,NC,98.86578449905483,NA
28469,Brunswick County,NC,99.05482041587902,NA
28540,Onslow County,NC,55.009451795841215,NA
28610,Catawba County,NC,NA,89.16083916083916
28621,Surry County,NC,84.31001890359168,NA
28734,Macon County,NC,11.909262759924385,NA
58104,Cass County,ND,78.82797731568998,NA
58203,Grand Forks County,ND,47.06994328922495,NA
58503,Burleigh County,ND,NA,23.076923076923077
43040,Union County,OH,75.80340264650283,NA
43056,Licking County,OH,32.136105860113425,NA
43080,Licking County,OH,NA,95.1048951048951
43214,Franklin County,OH,80.34026465028356,NA
43230,Franklin County,OH,60.30245746691871,NA
43231,Franklin County,OH,39.50850661625709,NA
43232,Franklin County,OH,2.2684310018903595,NA
43235,Franklin County,OH,NA,76.57342657342657
43512,Defiance County,OH,47.25897920604915,NA
43537,Lucas County,OH,NA,39.16083916083916
43545,Henry County,OH,59.92438563327032,NA
43566,Lucas County,OH,NA,95.45454545454545
43609,Lucas County,OH,3.213610586011342,NA
43612,Lucas County,OH,NA,11.188811188811188
43616,Lucas County,OH,57.46691871455577,NA
43701,Muskingum County,OH,22.68431001890359,14.335664335664337
43725,Guernsey County,OH,NA,27.62237762237762
44039,Lorain County,OH,25.330812854442343,NA
44053,Lorain County,OH,5.103969754253308,NA
44057,Lake County,OH,NA,11.888111888111888
44106,Cuyahoga County,OH,7.372400756143667,NA
44109,Cuyahoga County,OH,NA,9.79020979020979
44131,Cuyahoga County,OH,NA,45.45454545454545
44136,Cuyahoga County,OH,56.52173913043478,NA
44145,Cuyahoga County,OH,60.86956521739131,NA
44146,Cuyahoga County,OH,NA,1.7482517482517483
44224,Summit County,OH,16.6351606805293,NA
44241,Portage County,OH,24.574669187145556,NA
44288,Portage County,OH,NA,99.65034965034964
44306,Summit County,OH,30.056710775047257,NA
44321,Summit County,OH,NA,69.58041958041959
44507,Mahoning County,OH,72.0226843100189,NA
44512,Mahoning County,OH,6.994328922495274,NA
44663,Tuscarawas County,OH,35.916824196597354,NA
44710,Stark County,OH,77.50472589792061,NA
44839,Erie County,OH,50.0945179584121,NA
44865,Huron County,OH,92.81663516068053,NA
44870,Erie County,OH,1.3232514177693762,2.797202797202797
44883,Seneca County,OH,42.15500945179584,NA
44903,Richland County,OH,NA,12.937062937062937
45014,Butler County,OH,38.752362948960304,NA
45067,Butler County,OH,52.55198487712666,NA
45068,Warren County,OH,85.06616257088847,NA
45102,Clermont County,OH,62.38185255198487,NA
45103,Clermont County,OH,NA,17.832167832167833
45211,Hamilton County,OH,6.049149338374291,NA
45238,Hamilton County,OH,10.01890359168242,NA
45241,Hamilton County,OH,62.75992438563327,NA
45320,Preble County,OH,34.40453686200378,NA
45414,Montgomery County,OH,NA,43.70629370629371
45631,Gallia County,OH,7.561436672967864,NA
45690,Pike County,OH,12.287334593572778,NA
45801,Allen County,OH,8.31758034026465,NA
45804,Allen County,OH,8.5066162570888455,NA
45805,Allen County,OH,9.640831758034027,NA
45840,Hancock County,OH,NA,3.146853146853147
73005,Caddo County,OK,NA,97.2027972027972
73010,McClain County,OK,68.24196597353497,NA
73018,Grady County,OK,39.31947069943289,NA
73086,Murray County,OK,NA,90.20979020979021
73460,Johnston County,OK,NA,58.74125874125874
73501,Comanche County,OK,NA,41.25874125874126
73521,Jackson County,OK,NA,77.27272727272727
74112,Tulsa County,OK,48.20415879017013,NA
74462,Haskell County,OK,68.43100189035917,NA
74728,McCurtain County,OK,71.26654064272212,NA
74801,Pottawatomie County,OK,NA,19.58041958041958
74820,Pontotoc County,OK,NA,56.64335664335665
74873,Pottawatomie County,OK,53.119092627599244,NA
97068,Clackamas County,OR,60.49149338374291,NA
97080,Multnomah County,OR,NA,14.685314685314685
97223,Washington County,OR,NA,18.88111888111888
97304,Polk County,OR,NA,48.95104895104895
97415,Curry County,OR,40.26465028355388,NA
97439,Lane County,OR,55.954631379962194,NA
97471,Douglas County,OR,12.854442344045369,NA
97603,Klamath County,OR,14.933837429111533,NA
97702,Deschutes County,OR,37.80718336483932,NA
15003,Beaver County,PA,63.13799621928167,NA
15068,Westmoreland County,PA,14.366729678638942,NA
15132,Allegheny County,PA,8.695652173913043,NA
15147,Allegheny County,PA,90.17013232514176,NA
15238,Allegheny County,PA,NA,44.05594405594406
15801,Clearfield County,PA,5.482041587901701,NA
15834,Cameron County,PA,NA,61.53846153846154
15906,Cambria County,PA,50.85066162570888,NA
16002,Butler County,PA,51.417769376181475,NA
16105,Lawrence County,PA,53.30812854442344,NA
16417,Erie County,PA,NA,83.56643356643356
16506,Erie County,PA,NA,56.993006993006986
16508,Erie County,PA,72.2117202268431,NA
16701,McKean County,PA,83.1758034026465,NA
17003,Lebanon County,PA,79.96219281663515,NA
17019,York County,PA,NA,39.51048951048951
17020,Perry County,PA,72.96786389413988,NA
17044,Mifflin County,PA,56.89981096408317,NA
17057,Dauphin County,PA,13.988657844990549,NA
17078,Lebanon County,PA,82.98676748582231,NA
17257,Cumberland County,PA,18.525519848771268,NA
17363,York County,PA,NA,59.09090909090909
17370,York County,PA,85.06616257088847,NA
17745,Clinton County,PA,64.83931947069944,NA
17815,Columbia County,PA,41.209829867674856,NA
17842,Snyder County,PA,NA,64.33566433566433
17844,Union County,PA,65.59546313799622,NA
17866,Northumberland County,PA,77.6937618147448,88.81118881118881
17872,Northumberland County,PA,65.21739130434783,NA
17921,Schuylkill County,PA,NA,80.06993006993007
18013,Northampton County,PA,96.97542533081285,NA
18020,Northampton County,PA,NA,73.07692307692307
18040,Northampton County,PA,90.92627599243856,NA
18049,Lehigh County,PA,37.42911153119093,NA
18066,Lehigh County,PA,96.78638941398866,NA
18104,Lehigh County,PA,10.58601134215501,NA
18222,Luzerne County,PA,NA,63.286713286713294
18229,Carbon County,PA,65.02835538752363,NA
18302,Monroe County,PA,45.55765595463138,NA
18419,Wyoming County,PA,95.08506616257088,NA
18661,Luzerne County,PA,75.42533081285444,NA
18840,Bradford County,PA,NA,90.55944055944056
18974,Bucks County,PA,48.77126654064272,NA
19006,Montgomery County,PA,41.77693761814745,NA
19007,Bucks County,PA,54.06427221172023,NA
19036,Delaware County,PA,NA,87.76223776223776
19047,Bucks County,PA,19.281663516068054,NA
19079,Delaware County,PA,90.35916824196597,NA
19085,Delaware County,PA,93.76181474480151,NA
19111,Philadelphia County,PA,NA,23.776223776223777
19121,Philadelphia County,PA,48.01512287334593,NA
19130,Philadelphia County,PA,63.32703213610586,NA
19134,Philadelphia County,PA,1.890359168241966,NA
19140,Philadelphia County,PA,1.7013232514177694,NA
19147,Philadelphia County,PA,43.47826086956522,55.59440559440559
19149,Philadelphia County,PA,4.914933837429111,NA
19342,Delaware County,PA,NA,38.46153846153847
19426,Montgomery County,PA,29.111531190926275,NA
19475,Chester County,PA,NA,75.87412587412588
19604,Berks County,PA,NA,29.72027972027972
29073,Lexington County,SC,17.391304347826086,NA
29150,Sumter County,SC,NA,54.89510489510489
29205,Richland County,SC,NA,72.72727272727273
29223,Richland County,SC,51.60680529300568,NA
29360,Laurens County,SC,34.593572778827976,NA
29412,Charleston County,SC,27.410207939508506,NA
29435,Colleton County,SC,97.35349716446125,NA
29485,Dorchester County,SC,22.495274102079396,NA
29569,Horry County,SC,NA,52.44755244755245
29673,Greenville County,SC,33.2703213610586,NA
29715,York County,SC,61.247637051039696,NA
57078,Yankton County,SD,91.49338374291115,NA
57103,Minnehaha County,SD,50.472589792060496,NA
37032,Robertson County,TN,98.10964083175804,NA
37046,Williamson County,TN,NA,99.3006993006993
37166,DeKalb County,TN,52.93005671077504,NA
37306,Franklin County,TN,96.03024574669186,NA
37311,Bradley County,TN,28.544423440453688,NA
37334,Lincoln County,TN,NA,24.825174825174827
37388,Coffee County,TN,26.84310018903592,NA
37618,Sullivan County,TN,NA,68.88111888111888
37659,Washington County,TN,30.812854442344044,NA
37660,Sullivan County,TN,26.27599243856333,NA
37748,Roane County,TN,28.35538752362949,NA
37825,Claiborne County,TN,79.58412098298678,NA
37826,McMinn County,TN,71.07750472589792,NA
37923,Knox County,TN,45.36862003780718,NA
38011,Tipton County,TN,82.23062381852552,NA
38115,Shelby County,TN,18.336483931947072,NA
38128,Shelby County,TN,15.311909262759924,NA
38340,Chester County,TN,NA,91.6083916083916
38478,Giles County,TN,50.661625708884685,NA
75007,Denton County,TX,NA,86.36363636363636
75069,Collin County,TX,NA,75.52447552447552
75075,Collin County,TX,89.79206049149339,NA
75092,Grayson County,TX,40.64272211720227,NA
75154,Ellis County,TX,NA,34.61538461538461
75173,Collin County,TX,95.27410207939508,NA
75605,Gregg County,TX,NA,32.16783216783217
75703,Smith County,TX,NA,19.93006993006993
75766,Cherokee County,TX,29.111531190926275,NA
75790,Van Zandt County,TX,NA,78.67132867132867
76036,Tarrant County,TX,96.21928166351607,NA
76078,Wise County,TX,78.26086956521739,NA
76087,Parker County,TX,NA,91.95804195804196
76092,Tarrant County,TX,NA,89.5104895104895
76104,Tarrant County,TX,17.01323251417769,NA
76148,Tarrant County,TX,34.78260869565217,NA
76401,Erath County,TX,86.01134215500946,NA
76528,Coryell County,TX,NA,60.48951048951049
76543,Bell County,TX,NA,83.21678321678321
76548,Bell County,TX,78.44990548204159,NA
76712,McLennan County,TX,NA,33.56643356643357
76825,McCulloch County,TX,81.66351606805293,NA
77004,Harris County,TX,23.251417769376182,NA
77024,Harris County,TX,86.38941398865785,NA
77040,Harris County,TX,79.20604914933837,NA
77058,Harris County,TX,74.29111531190927,NA
77061,Harris County,TX,NA,96.5034965034965
77066,Harris County,TX,61.81474480151229,NA
77067,Harris County,TX,67.10775047258979,NA
77073,Harris County,TX,46.69187145557656,NA
77076,Harris County,TX,47.63705103969754,NA
77377,Harris County,TX,78.0718336483932,NA
77422,Brazoria County,TX,68.05293005671076,66.43356643356644
77515,Brazoria County,TX,NA,26.223776223776223
77642,Jefferson County,TX,NA,26.573426573426573
77845,Brazos County,TX,6.805293005671078,NA
78041,Webb County,TX,31.947069943289225,NA
78070,Comal County,TX,NA,97.9020979020979
78155,Guadalupe County,TX,18.714555765595463,NA
78412,Nueces County,TX,46.12476370510397,NA
78666,Hays County,TX,NA,76.92307692307693
78751,Travis County,TX,92.24952741020795,NA
78756,Travis County,TX,95.46313799621929,NA
78934,Colorado County,TX,80.15122873345936,NA
79416,Lubbock County,TX,NA,76.22377622377621
79705,Midland County,TX,NA,62.23776223776224
79706,Midland County,TX,39.130434782608695,NA
79764,Ector County,TX,49.7164461247637,NA
84078,Uintah County,UT,NA,30.76923076923077
84097,Utah County,UT,NA,93.7062937062937
84098,Summit County,UT,NA,40.20979020979021
84790,Washington County,UT,38.18525519848771,NA
20190,Fairfax County,VA,76.74858223062382,NA
22204,Arlington County,VA,57.088846880907376,NA
22304,Alexandria city,VA,NA,26.923076923076923
22309,Fairfax County,VA,22.306238185255197,NA
22801,Harrisonburg city,VA,36.672967863894144,NA
23116,Hanover County,VA,59.35727788279773,NA
23185,James City County,VA,31.758034026465026,NA
23223,Henrico County,VA,NA,37.41258741258741
23224,Richmond city,VA,32.70321361058601,NA
23235,Chesterfield County,VA,89.60302457466919,NA
23602,Newport News city,VA,23.629489603024574,NA
23803,Petersburg city,VA,NA,10.13986013986014
23901,Prince Edward County,VA,55.576559546313796,NA
24013,Roanoke city,VA,69.18714555765595,NA
24017,Roanoke city,VA,19.659735349716446,NA
24153,Salem city,VA,73.53497164461248,45.8041958041958
24202,Washington County,VA,NA,46.50349650349651
24219,Wise County,VA,34.215500945179585,NA
24260,Russell County,VA,NA,80.41958041958041
24301,Pulaski County,VA,NA,44.75524475524475
24401,Staunton city,VA,8.128544423440454,NA
98002,King County,WA,80.71833648393195,NA
98056,King County,WA,49.52741020793951,NA
98155,King County,WA,NA,34.26573426573427
98230,Whatcom County,WA,NA,62.93706293706294
98271,Snohomish County,WA,37.80718336483932,NA
98363,Clallam County,WA,62.57088846880907,NA
98374,Pierce County,WA,37.051039697542535,NA
98422,Pierce County,WA,58.034026465028354,NA
98604,Clark County,WA,NA,66.08391608391608
98682,Clark County,WA,54.63137996219282,NA
98902,Yakima County,WA,69.37618147448015,NA
99207,Spokane County,WA,44.423440453686204,NA
20009,District of Columbia,DC,24.763705103969755,NA
20010,District of Columbia,DC,46.502835538752365,NA
20020,District of Columbia,DC,10.964083175803403,NA
26003,Ohio County,WV,20.03780718336484,NA
26062,Hancock County,WV,NA,53.4965034965035
26101,Wood County,WV,36.86200378071834,NA
26330,Harrison County,WV,38.37429111531191,NA
53040,Washington County,WI,96.40831758034027,NA
53066,Waukesha County,WI,33.64839319470699,36.01398601398601
53143,Kenosha County,WI,76.93761814744802,56.29370629370629
53188,Waukesha County,WI,74.66918714555766,NA
53204,Milwaukee County,WI,4.3478260869565215,NA
53214,Milwaukee County,WI,8.88468809073724,NA
53548,Rock County,WI,20.604914933837428,NA
53703,Dane County,WI,NA,87.41258741258741
53913,Sauk County,WI,75.23629489603024,NA
54929,Waupaca County,WI,97.73156899810964,NA
