ZipCode,county,state,Youth,Pediatric,Adult,Retirement,Geriatric
35023,Jefferson County,AL,35.43417366946779,NA,NA,59.57446808510638,NA
35055,Cullman County,AL,64.14565826330532,NA,NA,NA,NA
35206,Jefferson County,AL,NA,NA,68.67816091954023,NA,NA
35207,Jefferson County,AL,NA,NA,73.85057471264368,NA,NA
35226,Jefferson County,AL,NA,NA,NA,28.297872340425535,NA
35401,Tuscaloosa County,AL,NA,NA,29.693486590038315,NA,NA
35503,Walker County,AL,65.26610644257703,NA,NA,NA,NA
35620,Limestone County,AL,NA,NA,NA,87.02127659574468,NA
35653,Franklin County,AL,NA,NA,82.8544061302682,NA,NA
35661,Colbert County,AL,NA,74.82993197278913,NA,NA,NA
35673,Morgan County,AL,80.3921568627451,NA,NA,NA,NA
35756,Limestone County,AL,NA,88.09523809523809,NA,NA,NA
35903,Etowah County,AL,NA,NA,NA,38.72340425531915,NA
35956,Etowah County,AL,88.23529411764706,NA,NA,NA,NA
35957,Marshall County,AL,NA,NA,52.01149425287356,NA,NA
36027,Barbour County,AL,NA,NA,NA,69.36170212765957,NA
36033,Butler County,AL,NA,NA,98.9463601532567,NA,NA
36116,Montgomery County,AL,23.949579831932773,NA,NA,NA,NA
36265,Calhoun County,AL,NA,75.51020408163265,NA,NA,NA
36322,Dale County,AL,NA,NA,92.24137931034483,NA,NA
36420,Covington County,AL,NA,64.96598639455783,NA,NA,NA
36451,Clarke County,AL,87.25490196078431,NA,NA,NA,NA
36467,Covington County,AL,89.07563025210085,NA,NA,NA,NA
36507,Baldwin County,AL,NA,NA,44.6360153256705,NA,NA
36869,Russell County,AL,NA,NA,NA,NA,72.39999999999999
99501,Anchorage Municipality,AK,63.02521008403361,NA,76.34099616858238,NA,NA
99502,Anchorage Municipality,AK,NA,54.08163265306123,NA,NA,NA
99559,Bethel Census Area,AK,65.96638655462185,NA,NA,NA,NA
99603,Kenai Peninsula Borough,AK,NA,NA,NA,66.59574468085107,NA
99701,Fairbanks North Star Borough,AK,60.08403361344538,NA,NA,NA,NA
99835,Sitka City and Borough,AK,36.27450980392157,NA,NA,NA,NA
99901,Ketchikan Gateway Borough,AK,NA,NA,46.36015325670498,NA,NA
85008,Maricopa County,AZ,NA,NA,15.708812260536398,NA,NA
85015,Maricopa County,AZ,21.988795518207283,26.87074829931973,21.36015325670498,NA,NA
85023,Maricopa County,AZ,28.711484593837532,NA,NA,NA,NA
85029,Maricopa County,AZ,NA,53.74149659863946,NA,NA,NA
85031,Maricopa County,AZ,NA,NA,55.938697318007655,NA,NA
85033,Maricopa County,AZ,18.207282913165265,NA,NA,NA,NA
85035,Maricopa County,AZ,17.507002801120446,12.925170068027212,NA,NA,NA
85041,Maricopa County,AZ,NA,NA,11.11111111111111,NA,NA
85044,Maricopa County,AZ,NA,NA,22.796934865900383,NA,NA
85048,Maricopa County,AZ,NA,NA,55.45977011494253,NA,NA
85085,Maricopa County,AZ,77.73109243697479,NA,NA,NA,NA
85122,Pinal County,AZ,NA,NA,NA,54.680851063829785,NA
85128,Pinal County,AZ,NA,NA,76.4367816091954,NA,NA
85201,Maricopa County,AZ,NA,32.31292517006803,NA,NA,NA
85204,Maricopa County,AZ,12.324929971988796,NA,NA,NA,50
85206,Maricopa County,AZ,NA,NA,51.34099616858238,NA,NA
85215,Maricopa County,AZ,94.9579831932773,NA,NA,NA,NA
85225,Maricopa County,AZ,11.064425770308123,NA,NA,NA,NA
85226,Maricopa County,AZ,NA,NA,NA,NA,73.2
85233,Maricopa County,AZ,NA,NA,45.30651340996169,NA,NA
85234,Maricopa County,AZ,NA,NA,37.16475095785441,NA,NA
85251,Maricopa County,AZ,75.35014005602241,NA,NA,NA,NA
85258,Maricopa County,AZ,NA,NA,91.28352490421456,NA,NA
85268,Maricopa County,AZ,NA,NA,87.356321839080465,NA,NA
85282,Maricopa County,AZ,NA,NA,77.39463601532567,NA,NA
85297,Maricopa County,AZ,43.8375350140056,NA,NA,NA,NA
85303,Maricopa County,AZ,NA,NA,57.18390804597702,NA,NA
85326,Maricopa County,AZ,8.96358543417367,NA,NA,NA,NA
85339,Maricopa County,AZ,11.484593837535014,NA,NA,NA,NA
85340,Maricopa County,AZ,41.45658263305322,NA,NA,NA,NA
85344,La Paz County,AZ,88.65546218487394,NA,42.5287356321839,44.680851063829785,NA
85345,Maricopa County,AZ,NA,NA,NA,NA,42.8
85349,Yuma County,AZ,82.77310924369748,NA,NA,NA,NA
85365,Yuma County,AZ,29.69187675070028,NA,NA,NA,NA
85379,Maricopa County,AZ,NA,NA,NA,68.93617021276596,NA
85382,Maricopa County,AZ,NA,NA,NA,52.97872340425533,NA
85388,Maricopa County,AZ,59.523809523809526,NA,NA,NA,NA
85501,Gila County,AZ,72.96918767507002,NA,NA,NA,NA
85530,Graham County,AZ,94.11764705882352,NA,NA,NA,NA
85635,Cochise County,AZ,NA,NA,NA,NA,38.800000000000004
85650,Cochise County,AZ,NA,NA,97.5095785440613,NA,NA
85705,Pima County,AZ,NA,NA,NA,NA,42.8
85706,Pima County,AZ,38.095238095238095,NA,NA,NA,NA
85712,Pima County,AZ,NA,NA,NA,55.95744680851064,NA
85713,Pima County,AZ,28.851540616246496,NA,8.524904214559387,NA,NA
85714,Pima County,AZ,NA,68.02721088435374,NA,NA,NA
85716,Pima County,AZ,NA,NA,NA,34.04255319148936,NA
85719,Pima County,AZ,44.957983193277315,NA,38.2183908045977,NA,NA
85735,Pima County,AZ,NA,NA,91.0919540229885,NA,NA
85741,Pima County,AZ,NA,NA,36.7816091954023,NA,NA
85743,Pima County,AZ,NA,NA,46.64750957854406,NA,NA
85745,Pima County,AZ,NA,NA,29.118773946360154,NA,NA
85746,Pima County,AZ,NA,7.482993197278912,NA,NA,NA
86045,Coconino County,AZ,NA,5.782312925170068,NA,NA,NA
86053,Coconino County,AZ,88.09523809523809,NA,93.19923371647509,NA,NA
86301,Yavapai County,AZ,NA,NA,NA,37.87234042553192,NA
86303,Yavapai County,AZ,79.27170868347339,NA,NA,NA,NA
86305,Yavapai County,AZ,57.422969187675065,NA,NA,NA,NA
86326,Yavapai County,AZ,NA,NA,NA,68.29787234042554,NA
86403,Mohave County,AZ,NA,NA,80.55555555555556,NA,NA
86442,Mohave County,AZ,NA,NA,NA,14.893617021276595,NA
86505,Apache County,AZ,93.55742296918767,NA,NA,NA,NA
86510,Navajo County,AZ,94.39775910364145,NA,NA,NA,NA
71655,Drew County,AR,NA,NA,NA,76.17021276595744,NA
71667,Lincoln County,AR,NA,NA,NA,91.91489361702128,NA
71753,Columbia County,AR,95.37815126050421,NA,NA,NA,NA
71852,Howard County,AR,NA,NA,NA,NA,95.6
71854,Miller County,AR,NA,NA,42.62452107279693,NA,NA
71901,Garland County,AR,NA,NA,52.58620689655172,NA,NA
72076,Pulaski County,AR,NA,NA,NA,NA,21.2
72088,Van Buren County,AR,NA,NA,NA,NA,75.2
72110,Conway County,AR,NA,NA,86.68582375478927,NA,NA
72143,White County,AR,NA,NA,NA,14.468085106382977,NA
72416,Craighead County,AR,NA,NA,89.17624521072797,NA,NA
72560,Stone County,AR,NA,NA,81.13026819923371,NA,NA
72576,Fulton County,AR,NA,NA,NA,96.80851063829788,NA
72653,Baxter County,AR,NA,NA,NA,NA,14.399999999999999
72712,Benton County,AR,49.159663865546214,NA,NA,NA,NA
72762,Washington County,AR,NA,NA,52.87356321839081,NA,NA
90001,Los Angeles County,CA,51.26050420168067,NA,NA,NA,NA
90008,Los Angeles County,CA,NA,NA,79.78927203065133,NA,NA
90017,Los Angeles County,CA,NA,NA,90.42145593869732,NA,NA
90018,Los Angeles County,CA,NA,NA,42.337164750957854,NA,NA
90023,Los Angeles County,CA,NA,NA,42.43295019157088,NA,NA
90028,Los Angeles County,CA,NA,NA,NA,78.08510638297872,NA
90031,Los Angeles County,CA,NA,NA,74.04214559386973,NA,NA
90033,Los Angeles County,CA,91.31652661064426,NA,NA,NA,NA
90036,Los Angeles County,CA,NA,NA,NA,56.59574468085107,NA
90043,Los Angeles County,CA,46.358543417366946,NA,NA,NA,NA
90046,Los Angeles County,CA,NA,NA,57.279693486590034,69.57446808510637,NA
90059,Los Angeles County,CA,NA,NA,38.984674329501914,NA,NA
90061,Los Angeles County,CA,94.39775910364145,NA,NA,NA,NA
90063,Los Angeles County,CA,60.08403361344538,NA,NA,NA,63.6
90201,Los Angeles County,CA,NA,NA,35.05747126436782,NA,NA
90220,Los Angeles County,CA,NA,NA,36.877394636015325,NA,NA
90221,Los Angeles County,CA,71.70868347338936,NA,NA,NA,NA
90247,Los Angeles County,CA,NA,NA,57.56704980842912,NA,NA
90250,Los Angeles County,CA,NA,NA,28.35249042145594,NA,NA
90254,Los Angeles County,CA,NA,NA,NA,NA,91.60000000000001
90255,Los Angeles County,CA,NA,NA,NA,72.97872340425532,NA
90260,Los Angeles County,CA,NA,NA,80.26819923371647,96.59574468085106,NA
90272,Los Angeles County,CA,NA,NA,NA,NA,34
90606,Los Angeles County,CA,70.16806722689076,NA,NA,NA,NA
90623,Orange County,CA,NA,NA,NA,NA,77.2
90640,Los Angeles County,CA,50.84033613445378,NA,NA,NA,NA
90650,Los Angeles County,CA,NA,28.91156462585034,NA,NA,NA
90706,Los Angeles County,CA,NA,NA,NA,45.53191489361702,70.39999999999999
90723,Los Angeles County,CA,NA,NA,59.38697318007663,NA,NA
90744,Los Angeles County,CA,NA,NA,NA,NA,69.19999999999999
90804,Los Angeles County,CA,NA,NA,50.09578544061303,NA,NA
90807,Los Angeles County,CA,NA,NA,56.992337164750964,NA,NA
90815,Los Angeles County,CA,NA,NA,NA,48.29787234042553,NA
91016,Los Angeles County,CA,95.23809523809523,NA,NA,NA,NA
91205,Los Angeles County,CA,91.03641456582633,NA,NA,NA,NA
91214,Los Angeles County,CA,NA,NA,NA,NA,55.60000000000001
91307,Los Angeles County,CA,NA,NA,91.76245210727969,NA,NA
91316,Los Angeles County,CA,NA,NA,92.33716475095785,NA,NA
91320,Ventura County,CA,45.23809523809524,NA,NA,NA,NA
91331,Los Angeles County,CA,37.254901960784316,11.224489795918368,14.46360153256705,NA,NA
91342,Los Angeles County,CA,NA,NA,NA,19.574468085106382,NA
91343,Los Angeles County,CA,56.582633053221286,NA,NA,NA,NA
91344,Los Angeles County,CA,NA,NA,NA,31.48936170212766,NA
91390,Los Angeles County,CA,NA,NA,88.60153256704982,NA,NA
91402,Los Angeles County,CA,NA,36.734693877551024,NA,NA,NA
91406,Los Angeles County,CA,49.719887955182074,NA,NA,NA,NA
91601,Los Angeles County,CA,58.68347338935575,NA,NA,NA,NA
91607,Los Angeles County,CA,NA,NA,NA,NA,96.8
91709,San Bernardino County,CA,NA,NA,38.122605363984675,NA,NA
91723,Los Angeles County,CA,NA,NA,NA,89.7872340425532,NA
91730,San Bernardino County,CA,NA,NA,22.988505747126435,NA,NA
91732,Los Angeles County,CA,75.63025210084034,NA,NA,NA,NA
91737,San Bernardino County,CA,93.8375350140056,NA,NA,NA,NA
91740,Los Angeles County,CA,NA,NA,69.82758620689656,NA,NA
91744,Los Angeles County,CA,NA,NA,20.689655172413794,NA,NA
91766,Los Angeles County,CA,74.64985994397759,NA,NA,NA,NA
91773,Los Angeles County,CA,NA,NA,NA,NA,55.2
91784,San Bernardino County,CA,NA,NA,NA,58.29787234042553,NA
91792,Los Angeles County,CA,92.99719887955182,NA,72.5095785440613,NA,NA
91911,San Diego County,CA,NA,NA,27.107279693486593,NA,NA
92019,San Diego County,CA,NA,72.78911564625851,NA,NA,45.2
92024,San Diego County,CA,60.78431372549019,NA,NA,NA,NA
92025,San Diego County,CA,NA,17.687074829931973,NA,NA,NA
92054,San Diego County,CA,56.022408963585434,NA,48.65900383141762,NA,NA
92057,San Diego County,CA,58.96358543417367,NA,NA,NA,NA
92065,San Diego County,CA,66.66666666666666,NA,NA,NA,NA
92069,San Diego County,CA,NA,38.775510204081634,NA,NA,NA
92129,San Diego County,CA,58.96358543417367,NA,NA,NA,NA
92201,Riverside County,CA,NA,40.816326530612244,NA,NA,NA
92211,Riverside County,CA,NA,NA,NA,13.191489361702127,0
92234,Riverside County,CA,NA,NA,NA,3.6170212765957444,NA
92240,Riverside County,CA,52.66106442577031,NA,NA,NA,NA
92243,Imperial County,CA,33.753501400560225,NA,NA,NA,24.4
92335,San Bernardino County,CA,16.5266106442577,NA,NA,NA,NA
92359,San Bernardino County,CA,90.19607843137256,NA,NA,NA,NA
92376,San Bernardino County,CA,26.330532212885156,NA,11.206896551724139,NA,NA
92404,San Bernardino County,CA,9.103641456582633,22.108843537414966,NA,NA,NA
92407,San Bernardino County,CA,41.45658263305322,NA,54.406130268199234,NA,NA
92410,San Bernardino County,CA,58.96358543417367,NA,84.57854406130268,NA,NA
92505,Riverside County,CA,69.04761904761905,NA,NA,NA,NA
92507,Riverside County,CA,69.32773109243698,NA,46.839080459770116,NA,NA
92509,Riverside County,CA,NA,48.97959183673469,NA,NA,NA
92530,Riverside County,CA,NA,NA,NA,66.80851063829788,NA
92555,Riverside County,CA,69.187675070028,NA,NA,NA,NA
92562,Riverside County,CA,NA,62.585034013605444,NA,NA,NA
92570,Riverside County,CA,NA,NA,47.22222222222222,NA,71.6
92584,Riverside County,CA,NA,NA,49.90421455938697,NA,NA
92603,Orange County,CA,NA,NA,89.272030651341,NA,NA
92614,Orange County,CA,NA,95.91836734693877,NA,NA,NA
92629,Orange County,CA,NA,NA,79.40613026819923,NA,NA
92647,Orange County,CA,NA,NA,25.191570881226056,NA,NA
92653,Orange County,CA,57.98319327731093,NA,NA,NA,NA
92672,Orange County,CA,NA,92.85714285714286,NA,NA,NA
92694,Orange County,CA,90.19607843137256,NA,NA,NA,NA
92704,Orange County,CA,30.252100840336134,NA,NA,NA,NA
92708,Orange County,CA,NA,78.57142857142857,NA,NA,NA
92782,Orange County,CA,88.79551820728291,NA,NA,NA,NA
92804,Orange County,CA,NA,NA,16.57088122605364,NA,NA
92833,Orange County,CA,NA,NA,55.938697318007655,NA,NA
93001,Ventura County,CA,NA,NA,NA,39.57446808510638,NA
93003,Ventura County,CA,NA,NA,18.29501915708812,NA,NA
93012,Ventura County,CA,74.08963585434174,NA,NA,NA,NA
93023,Ventura County,CA,NA,NA,75.95785440613027,NA,NA
93030,Ventura County,CA,16.106442577030812,NA,NA,NA,NA
93033,Ventura County,CA,3.221288515406162,4.761904761904762,NA,NA,NA
93060,Ventura County,CA,37.254901960784316,25.850340136054424,NA,NA,NA
93065,Ventura County,CA,7.142857142857142,NA,NA,NA,NA
93103,Santa Barbara County,CA,NA,77.89115646258503,NA,NA,NA
93210,Fresno County,CA,92.01680672268907,NA,NA,NA,NA
93215,Kern County,CA,53.0812324929972,NA,NA,NA,NA
93257,Tulare County,CA,NA,18.027210884353742,NA,NA,NA
93274,Tulare County,CA,4.481792717086835,NA,7.758620689655173,NA,NA
93292,Tulare County,CA,NA,NA,46.16858237547893,NA,NA
93305,Kern County,CA,78.01120448179272,NA,NA,NA,NA
93307,Kern County,CA,NA,NA,15.996168582375478,NA,NA
93309,Kern County,CA,NA,NA,NA,39.148936170212764,NA
93420,San Luis Obispo County,CA,NA,NA,72.70114942528735,NA,NA
93436,Santa Barbara County,CA,NA,NA,18.96551724137931,21.06382978723404,NA
93465,San Luis Obispo County,CA,89.77591036414566,NA,NA,NA,NA
93535,Los Angeles County,CA,24.369747899159663,NA,NA,NA,NA
93550,Los Angeles County,CA,NA,NA,15.421455938697317,NA,NA
93551,Los Angeles County,CA,72.82913165266106,NA,61.7816091954023,NA,NA
93555,Kern County,CA,NA,NA,NA,26.80851063829787,NA
93610,Madera County,CA,54.34173669467787,NA,NA,NA,NA
93611,Fresno County,CA,NA,NA,41.85823754789272,NA,64.8
93612,Fresno County,CA,49.01960784313725,NA,NA,NA,NA
93619,Fresno County,CA,NA,NA,NA,51.06382978723404,NA
93631,Fresno County,CA,81.79271708683473,NA,NA,NA,NA
93636,Madera County,CA,NA,NA,90.80459770114942,NA,NA
93648,Fresno County,CA,85.57422969187675,NA,NA,NA,NA
93654,Fresno County,CA,NA,NA,84.96168582375478,NA,NA
93657,Fresno County,CA,NA,11.564625850340136,NA,NA,NA
93702,Fresno County,CA,65.26610644257703,NA,NA,NA,NA
93703,Fresno County,CA,33.61344537815126,NA,NA,NA,NA
93705,Fresno County,CA,22.54901960784314,NA,NA,NA,NA
93706,Fresno County,CA,NA,NA,26.245210727969347,NA,NA
93710,Fresno County,CA,85.71428571428571,NA,68.48659003831418,NA,NA
93720,Fresno County,CA,27.450980392156865,NA,NA,NA,NA
93722,Fresno County,CA,23.949579831932773,NA,NA,NA,NA
93727,Fresno County,CA,12.885154061624648,13.945578231292515,NA,NA,NA
93728,Fresno County,CA,68.0672268907563,NA,NA,NA,NA
93933,Monterey County,CA,81.09243697478992,NA,NA,NA,NA
93940,Monterey County,CA,NA,NA,NA,36.17021276595745,NA
94010,San Mateo County,CA,NA,NA,NA,42.97872340425532,NA
94066,San Mateo County,CA,NA,NA,NA,15.106382978723405,NA
94080,San Mateo County,CA,NA,NA,37.06896551724138,NA,NA
94086,Santa Clara County,CA,NA,NA,NA,82.97872340425532,NA
94103,San Francisco County,CA,NA,NA,15.03831417624521,NA,NA
94109,San Francisco County,CA,NA,NA,NA,NA,8
94124,San Francisco County,CA,44.11764705882353,NA,NA,82.12765957446808,NA
94134,San Francisco County,CA,NA,NA,NA,34.680851063829785,NA
94521,Contra Costa County,CA,NA,NA,64.46360153256705,NA,NA
94538,Alameda County,CA,NA,NA,NA,53.404255319148945,NA
94542,Alameda County,CA,98.45938375350141,NA,93.00766283524904,NA,NA
94544,Alameda County,CA,NA,NA,NA,17.659574468085108,NA
94568,Alameda County,CA,NA,NA,NA,NA,86
94578,Alameda County,CA,NA,NA,55.74712643678161,NA,NA
94587,Alameda County,CA,NA,NA,40.61302681992337,NA,NA
94601,Alameda County,CA,23.52941176470588,NA,NA,NA,NA
94602,Alameda County,CA,NA,NA,NA,69.7872340425532,NA
94603,Alameda County,CA,35.85434173669468,NA,NA,NA,NA
94605,Alameda County,CA,NA,21.08843537414966,NA,NA,NA
94619,Alameda County,CA,78.8515406162465,NA,NA,NA,NA
94804,Contra Costa County,CA,76.75070028011206,NA,NA,NA,NA
94806,Contra Costa County,CA,64.14565826330532,NA,NA,NA,NA
94901,Marin County,CA,NA,NA,62.16475095785441,NA,NA
94903,Marin County,CA,NA,NA,NA,NA,15.6
94928,Sonoma County,CA,NA,NA,NA,NA,49.2
95037,Santa Clara County,CA,NA,NA,63.2183908045977,NA,NA
95060,Santa Cruz County,CA,NA,NA,NA,59.787234042553195,NA
95066,Santa Cruz County,CA,NA,NA,NA,94.46808510638299,NA
95112,Santa Clara County,CA,43.13725490196079,NA,NA,NA,NA
95118,Santa Clara County,CA,NA,NA,NA,65.95744680851064,NA
95119,Santa Clara County,CA,NA,NA,99.61685823754789,NA,NA
95133,Santa Clara County,CA,92.57703081232494,NA,NA,NA,NA
95134,Santa Clara County,CA,NA,NA,82.18390804597702,NA,NA
95210,San Joaquin County,CA,69.32773109243698,NA,NA,NA,NA
95215,San Joaquin County,CA,85.85434173669468,NA,NA,NA,NA
95240,San Joaquin County,CA,26.47058823529412,NA,NA,NA,NA
95326,Stanislaus County,CA,NA,NA,NA,NA,98.4
95354,Stanislaus County,CA,58.543417366946784,NA,NA,NA,NA
95361,Stanislaus County,CA,46.778711484593835,NA,NA,NA,NA
95363,Stanislaus County,CA,87.39495798319328,NA,NA,NA,NA
95370,Tuolumne County,CA,NA,NA,NA,NA,40.400000000000006
95380,Stanislaus County,CA,36.554621848739494,NA,NA,NA,NA
95403,Sonoma County,CA,NA,NA,55.651340996168585,NA,NA
95422,Lake County,CA,NA,NA,67.1455938697318,NA,NA
95437,Mendocino County,CA,NA,NA,NA,50.638297872340424,NA
95448,Sonoma County,CA,NA,NA,78.44827586206897,NA,NA
95476,Sonoma County,CA,NA,NA,92.62452107279694,NA,NA
95490,Mendocino County,CA,NA,87.41496598639455,NA,NA,NA
95608,Sacramento County,CA,NA,50.34013605442177,NA,NA,NA
95610,Sacramento County,CA,NA,NA,NA,NA,48.4
95616,Yolo County,CA,NA,NA,NA,92.12765957446808,NA
95628,Sacramento County,CA,NA,NA,68.39080459770115,NA,NA
95660,Sacramento County,CA,NA,NA,NA,68.51063829787233,NA
95722,Placer County,CA,NA,NA,NA,98.72340425531915,NA
95742,Sacramento County,CA,NA,NA,94.73180076628353,NA,NA
95762,El Dorado County,CA,NA,NA,56.13026819923371,46.170212765957444,NA
95816,Sacramento County,CA,NA,NA,60.3448275862069,NA,NA
95822,Sacramento County,CA,NA,NA,NA,NA,27.6
95833,Sacramento County,CA,NA,NA,NA,71.06382978723404,NA
95926,Butte County,CA,NA,42.857142857142854,NA,NA,NA
95928,Butte County,CA,NA,23.809523809523807,NA,NA,NA
95946,Nevada County,CA,NA,NA,NA,76.59574468085107,NA
95963,Glenn County,CA,85.29411764705883,NA,NA,NA,NA
95965,Butte County,CA,NA,NA,NA,40.21276595744681,NA
95969,Butte County,CA,66.66666666666666,NA,NA,NA,7.6
95973,Butte County,CA,NA,NA,77.4904214559387,NA,NA
95991,Sutter County,CA,NA,NA,33.33333333333333,46.59574468085106,NA
96013,Shasta County,CA,NA,NA,NA,NA,97.2
80004,Jefferson County,CO,45.378151260504204,NA,NA,NA,NA
80010,Arapahoe County,CO,NA,NA,21.455938697318008,NA,NA
80012,Arapahoe County,CO,NA,NA,43.39080459770115,NA,24
80013,Arapahoe County,CO,NA,NA,12.35632183908046,NA,NA
80017,Arapahoe County,CO,NA,NA,43.19923371647509,NA,NA
80031,Adams County,CO,57.002801120448176,NA,NA,NA,NA
80110,Arapahoe County,CO,NA,NA,NA,NA,83.2
80111,Arapahoe County,CO,62.46498599439776,NA,NA,NA,NA
80113,Arapahoe County,CO,NA,NA,65.90038314176245,NA,NA
80120,Arapahoe County,CO,NA,NA,68.86973180076629,NA,NA
80122,Arapahoe County,CO,NA,NA,NA,NA,60.4
80126,Douglas County,CO,NA,NA,57.8544061302682,NA,NA
80134,Douglas County,CO,NA,NA,30.17241379310345,NA,NA
80202,Denver County,CO,NA,NA,59.099616858237546,NA,NA
80210,Denver County,CO,NA,NA,NA,64.25531914893618,NA
80216,Denver County,CO,NA,NA,73.75478927203065,NA,NA
80219,Denver County,CO,NA,NA,5.747126436781609,NA,NA
80220,Denver County,CO,NA,NA,38.60153256704981,NA,NA
80231,Denver County,CO,NA,NA,NA,70.2127659574468,NA
80233,Adams County,CO,NA,NA,31.03448275862069,NA,NA
80236,Denver County,CO,NA,NA,NA,NA,97.2
80237,Denver County,CO,NA,NA,NA,89.14893617021276,NA
80241,Adams County,CO,NA,70.40816326530613,NA,NA,NA
80302,Boulder County,CO,NA,NA,95.6896551724138,NA,NA
80501,Boulder County,CO,NA,NA,23.563218390804597,64.46808510638297,NA
80503,Boulder County,CO,NA,NA,NA,95.74468085106383,NA
80504,Boulder County,CO,12.605042016806722,NA,NA,NA,NA
80516,Weld County,CO,NA,NA,NA,72.12765957446808,NA
80528,Larimer County,CO,36.41456582633053,NA,60.63218390804598,NA,NA
80538,Larimer County,CO,NA,NA,14.942528735632186,NA,NA
80601,Adams County,CO,NA,NA,NA,NA,74.8
80634,Weld County,CO,6.162464985994398,NA,NA,NA,NA
80816,Teller County,CO,NA,NA,NA,90.2127659574468,NA
80817,El Paso County,CO,NA,NA,92.43295019157088,NA,NA
80910,El Paso County,CO,NA,NA,NA,NA,73.6
80911,El Paso County,CO,NA,NA,46.455938697318004,NA,NA
80918,El Paso County,CO,NA,NA,51.724137931034484,NA,NA
80925,El Paso County,CO,NA,97.95918367346938,NA,NA,NA
81005,Pueblo County,CO,NA,NA,41.57088122605364,NA,NA
81122,La Plata County,CO,NA,NA,NA,93.19148936170212,NA
81125,Saguache County,CO,NA,NA,NA,98.29787234042553,NA
81416,Delta County,CO,NA,NA,78.16091954022988,NA,NA
81504,Mesa County,CO,NA,NA,34.770114942528735,NA,NA
06002,Hartford County,CT,NA,NA,54.310344827586206,38.297872340425535,NA
06029,Tolland County,CT,NA,NA,NA,73.82978723404256,NA
06032,Hartford County,CT,NA,NA,NA,NA,81.6
06051,Hartford County,CT,NA,NA,4.310344827586207,NA,NA
06067,Hartford County,CT,88.37535014005601,NA,NA,NA,NA
06074,Hartford County,CT,NA,NA,62.93103448275862,NA,NA
06082,Hartford County,CT,26.05042016806723,NA,NA,NA,NA
06084,Tolland County,CT,NA,NA,81.22605363984674,NA,NA
06098,Litchfield County,CT,NA,83.33333333333334,NA,NA,NA
06105,Hartford County,CT,NA,NA,24.808429118773947,NA,NA
06106,Hartford County,CT,NA,NA,NA,18.72340425531915,NA
06109,Hartford County,CT,NA,NA,NA,NA,37.6
06111,Hartford County,CT,NA,NA,43.103448275862064,NA,NA
06114,Hartford County,CT,13.025210084033615,NA,NA,NA,NA
06281,Windham County,CT,NA,NA,71.16858237547893,NA,NA
06450,New Haven County,CT,NA,NA,7.183908045977011,NA,NA
06480,Middlesex County,CT,NA,NA,NA,NA,89.2
06492,New Haven County,CT,NA,NA,24.137931034482758,NA,NA
06511,New Haven County,CT,NA,NA,NA,NA,51.6
06513,New Haven County,CT,21.1484593837535,NA,61.015325670498086,13.404255319148936,NA
06516,New Haven County,CT,20.028011204481793,NA,NA,NA,NA
06605,Fairfield County,CT,69.32773109243698,NA,NA,NA,NA
06606,Fairfield County,CT,NA,NA,20.49808429118774,NA,NA
06608,Fairfield County,CT,NA,NA,69.44444444444444,NA,NA
06610,Fairfield County,CT,NA,NA,32.088122605363985,NA,NA
06614,Fairfield County,CT,NA,NA,64.9425287356322,NA,NA
06708,New Haven County,CT,41.45658263305322,NA,NA,NA,NA
06712,New Haven County,CT,NA,NA,NA,NA,79.2
06716,New Haven County,CT,NA,83.33333333333334,NA,NA,NA
06770,New Haven County,CT,NA,NA,27.586206896551722,NA,NA
06811,Fairfield County,CT,76.19047619047619,NA,51.14942528735632,NA,NA
06854,Fairfield County,CT,NA,NA,50.57471264367817,NA,NA
19701,New Castle County,DE,NA,NA,31.896551724137932,NA,NA
19801,New Castle County,DE,NA,NA,43.67816091954023,NA,NA
19802,New Castle County,DE,NA,NA,69.92337164750958,NA,NA
19805,New Castle County,DE,NA,NA,3.256704980842912,NA,NA
19901,Kent County,DE,36.134453781512605,NA,NA,NA,NA
19933,Sussex County,DE,NA,69.04761904761905,NA,95.95744680851064,NA
19945,Sussex County,DE,NA,NA,97.70114942528735,NA,NA
19958,Sussex County,DE,NA,NA,38.31417624521073,NA,NA
19963,Sussex County,DE,NA,80.27210884353741,NA,NA,NA
19966,Sussex County,DE,NA,NA,NA,12.553191489361701,NA
32043,Clay County,FL,26.47058823529412,NA,NA,NA,NA
32054,Union County,FL,NA,NA,83.9080459770115,NA,NA
32068,Clay County,FL,63.4453781512605,NA,NA,NA,NA
32073,Clay County,FL,42.016806722689076,NA,NA,NA,NA
32117,Volusia County,FL,NA,NA,71.16858237547893,NA,NA
32159,Lake County,FL,NA,NA,NA,NA,10.8
32168,Volusia County,FL,77.17086834733894,NA,NA,NA,NA
32205,Duval County,FL,47.75910364145658,NA,NA,NA,NA
32209,Duval County,FL,NA,NA,4.885057471264368,19.78723404255319,NA
32210,Duval County,FL,NA,17.346938775510203,NA,NA,NA
32216,Duval County,FL,NA,61.224489795918366,NA,NA,NA
32218,Duval County,FL,16.386554621848738,NA,4.022988505747127,5.319148936170213,NA
32244,Duval County,FL,29.551820728291318,NA,6.896551724137931,NA,41.6
32250,Duval County,FL,NA,NA,66.18773946360153,NA,NA
32254,Duval County,FL,NA,66.66666666666666,NA,NA,NA
32256,Duval County,FL,NA,NA,37.35632183908046,NA,NA
32277,Duval County,FL,NA,NA,25.95785440613027,NA,NA
32301,Leon County,FL,NA,81.97278911564626,NA,NA,NA
32303,Leon County,FL,NA,NA,NA,56.38297872340425,NA
32310,Leon County,FL,71.42857142857143,21.428571428571427,NA,NA,NA
32351,Gadsden County,FL,NA,59.523809523809526,NA,NA,NA
32425,Holmes County,FL,NA,NA,61.59003831417624,NA,NA
32439,Walton County,FL,NA,NA,NA,92.5531914893617,NA
32440,Jackson County,FL,93.13725490196079,NA,NA,NA,NA
32501,Escambia County,FL,NA,55.78231292517006,NA,NA,NA
32505,Escambia County,FL,53.0812324929972,NA,NA,NA,NA
32514,Escambia County,FL,NA,NA,27.298850574712645,NA,NA
32539,Okaloosa County,FL,NA,NA,45.21072796934866,NA,NA
32547,Okaloosa County,FL,NA,NA,47.41379310344828,NA,NA
32566,Santa Rosa County,FL,NA,NA,NA,29.574468085106382,NA
32568,Escambia County,FL,96.07843137254902,NA,NA,NA,NA
32570,Santa Rosa County,FL,46.358543417366946,NA,NA,NA,NA
32579,Okaloosa County,FL,93.97759103641457,NA,NA,NA,NA
32601,Alachua County,FL,NA,NA,67.72030651340997,NA,NA
32608,Alachua County,FL,NA,NA,10.057471264367816,NA,NA
32618,Alachua County,FL,NA,75.85034013605441,NA,NA,NA
32641,Alachua County,FL,NA,41.49659863945578,NA,NA,NA
32643,Alachua County,FL,NA,NA,57.8544061302682,NA,NA
32714,Seminole County,FL,52.66106442577031,NA,NA,NA,NA
32724,Volusia County,FL,32.63305322128851,NA,61.877394636015325,NA,NA
32725,Volusia County,FL,NA,NA,NA,48.08510638297872,NA
32726,Lake County,FL,NA,NA,59.578544061302686,NA,NA
32750,Seminole County,FL,NA,NA,72.41379310344827,NA,NA
32765,Seminole County,FL,NA,76.19047619047619,NA,NA,NA
32771,Seminole County,FL,NA,NA,19.54022988505747,NA,NA
32780,Brevard County,FL,NA,NA,NA,NA,9.2
32801,Orange County,FL,NA,NA,NA,NA,74.4
32805,Orange County,FL,NA,40.476190476190474,NA,NA,NA
32806,Orange County,FL,NA,NA,NA,84.68085106382979,NA
32807,Orange County,FL,NA,NA,NA,NA,44.800000000000004
32808,Orange County,FL,NA,15.306122448979592,NA,NA,NA
32817,Orange County,FL,NA,NA,71.83908045977012,NA,NA
32835,Orange County,FL,92.01680672268907,NA,NA,NA,NA
32839,Orange County,FL,15.266106442577032,NA,NA,NA,NA
32904,Brevard County,FL,NA,NA,53.735632183908045,NA,40
32920,Brevard County,FL,NA,NA,NA,79.57446808510639,NA
32967,Indian River County,FL,32.35294117647059,NA,NA,NA,NA
32968,Indian River County,FL,NA,NA,NA,70.42553191489361,NA
33012,Miami-Dade County,FL,38.655462184873954,NA,NA,NA,NA
33013,Miami-Dade County,FL,NA,39.795918367346935,NA,NA,NA
33014,Miami-Dade County,FL,NA,NA,72.03065134099617,NA,NA
33015,Miami-Dade County,FL,29.971988795518207,NA,83.81226053639847,NA,NA
33016,Miami-Dade County,FL,38.655462184873954,NA,NA,NA,NA
33018,Miami-Dade County,FL,NA,NA,80.07662835249042,NA,NA
33023,Broward County,FL,NA,NA,22.509578544061306,NA,NA
33027,Broward County,FL,50.84033613445378,NA,NA,NA,NA
33030,Miami-Dade County,FL,NA,34.35374149659864,NA,NA,NA
33032,Miami-Dade County,FL,NA,44.5578231292517,NA,NA,NA
33033,Miami-Dade County,FL,17.086834733893557,NA,NA,NA,NA
33054,Miami-Dade County,FL,NA,NA,83.04597701149426,NA,NA
33055,Miami-Dade County,FL,78.57142857142857,NA,56.80076628352491,NA,NA
33060,Broward County,FL,NA,NA,41.66666666666667,NA,NA
33064,Broward County,FL,NA,NA,74.61685823754789,NA,NA
33067,Broward County,FL,NA,NA,NA,83.82978723404256,NA
33069,Broward County,FL,72.26890756302521,NA,NA,NA,NA
33128,Miami-Dade County,FL,85.85434173669468,NA,NA,NA,NA
33130,Miami-Dade County,FL,68.62745098039215,NA,NA,NA,NA
33140,Miami-Dade County,FL,NA,NA,83.42911877394637,NA,NA
33142,Miami-Dade County,FL,20.448179271708682,NA,NA,NA,NA
33147,Miami-Dade County,FL,21.428571428571427,14.285714285714285,NA,NA,NA
33156,Miami-Dade County,FL,NA,NA,NA,66.17021276595744,NA
33157,Miami-Dade County,FL,NA,NA,39.36781609195402,NA,NA
33160,Miami-Dade County,FL,NA,NA,71.83908045977012,NA,NA
33165,Miami-Dade County,FL,69.74789915966386,NA,NA,NA,NA
33167,Miami-Dade County,FL,NA,NA,NA,78.29787234042553,NA
33168,Miami-Dade County,FL,NA,73.80952380952381,NA,80.42553191489363,NA
33169,Miami-Dade County,FL,NA,43.197278911564624,NA,NA,NA
33170,Miami-Dade County,FL,NA,NA,87.73946360153256,NA,NA
33177,Miami-Dade County,FL,NA,NA,49.32950191570881,NA,NA
33178,Miami-Dade County,FL,49.85994397759104,NA,NA,NA,NA
33184,Miami-Dade County,FL,NA,NA,NA,NA,58.8
33185,Miami-Dade County,FL,NA,NA,NA,78.93617021276596,NA
33309,Broward County,FL,9.943977591036415,NA,NA,NA,NA
33311,Broward County,FL,24.789915966386555,NA,9.003831417624522,NA,NA
33313,Broward County,FL,12.46498599439776,NA,NA,NA,NA
33314,Broward County,FL,NA,NA,72.98850574712644,NA,NA
33317,Broward County,FL,NA,NA,NA,NA,50.8
33321,Broward County,FL,NA,NA,63.122605363984675,NA,NA
33325,Broward County,FL,NA,NA,77.96934865900383,NA,NA
33351,Broward County,FL,54.061624649859944,54.421768707483,NA,NA,NA
33404,Palm Beach County,FL,16.946778711484594,NA,NA,NA,NA
33415,Palm Beach County,FL,80.11204481792717,NA,NA,NA,NA
33418,Palm Beach County,FL,NA,NA,NA,36.59574468085106,NA
33432,Palm Beach County,FL,NA,NA,NA,NA,34.8
33433,Palm Beach County,FL,75.7703081232493,NA,NA,NA,NA
33441,Broward County,FL,NA,NA,NA,90.63829787234042,NA
33458,Palm Beach County,FL,NA,NA,28.448275862068968,NA,NA
33460,Palm Beach County,FL,NA,38.435374149659864,NA,NA,NA
33511,Hillsborough County,FL,NA,NA,43.00766283524904,NA,NA
33534,Hillsborough County,FL,NA,NA,76.81992337164752,NA,NA
33543,Pasco County,FL,NA,NA,62.643678160919535,NA,NA
33563,Hillsborough County,FL,43.55742296918768,NA,NA,NA,NA
33565,Hillsborough County,FL,83.61344537815127,NA,NA,NA,NA
33578,Hillsborough County,FL,NA,44.89795918367347,NA,NA,NA
33592,Hillsborough County,FL,72.26890756302521,NA,NA,NA,NA
33604,Hillsborough County,FL,15.126050420168067,NA,NA,NA,NA
33605,Hillsborough County,FL,NA,64.96598639455783,NA,NA,NA
33607,Hillsborough County,FL,53.92156862745098,NA,NA,NA,NA
33610,Hillsborough County,FL,NA,19.047619047619047,16.762452107279692,NA,NA
33612,Hillsborough County,FL,14.985994397759104,NA,NA,NA,NA
33613,Hillsborough County,FL,32.63305322128851,NA,NA,NA,52.800000000000004
33615,Hillsborough County,FL,NA,NA,NA,41.48936170212766,NA
33619,Hillsborough County,FL,NA,NA,39.94252873563218,NA,NA
33714,Pinellas County,FL,89.07563025210085,NA,NA,NA,NA
33765,Pinellas County,FL,NA,NA,NA,NA,83.6
33776,Pinellas County,FL,NA,NA,NA,NA,78
33801,Polk County,FL,NA,NA,26.436781609195403,NA,NA
33813,Polk County,FL,NA,NA,67.52873563218391,NA,NA
33825,Highlands County,FL,NA,NA,57.8544061302682,NA,NA
33841,Polk County,FL,NA,69.04761904761905,NA,NA,NA
33852,Highlands County,FL,NA,NA,65.99616858237547,NA,NA
33853,Polk County,FL,NA,NA,71.74329501915709,NA,NA
33880,Polk County,FL,41.31652661064425,NA,NA,NA,NA
33884,Polk County,FL,NA,NA,88.31417624521073,NA,NA
33898,Polk County,FL,NA,NA,65.03831417624522,NA,NA
33903,Lee County,FL,70.44817927170868,NA,NA,NA,NA
33904,Lee County,FL,NA,NA,NA,NA,12.4
33908,Lee County,FL,NA,NA,88.50574712643679,NA,NA
33917,Lee County,FL,NA,NA,58.333333333333336,NA,NA
33919,Lee County,FL,NA,NA,NA,75.95744680851064,NA
33935,Hendry County,FL,79.83193277310924,NA,NA,NA,NA
33948,Charlotte County,FL,NA,NA,NA,48.51063829787234,NA
33971,Lee County,FL,NA,NA,NA,NA,94.39999999999999
33972,Lee County,FL,NA,NA,NA,95.31914893617022,NA
33973,Lee County,FL,NA,NA,98.46743295019157,NA,NA
33980,Charlotte County,FL,NA,NA,94.25287356321839,NA,NA
33983,Charlotte County,FL,NA,NA,78.83141762452107,NA,NA
34112,Collier County,FL,NA,85.03401360544217,NA,45.744680851063826,26
34113,Collier County,FL,81.9327731092437,NA,NA,NA,NA
34116,Collier County,FL,NA,NA,53.25670498084292,NA,NA
34117,Collier County,FL,NA,75.17006802721087,NA,NA,NA
34119,Collier County,FL,NA,NA,NA,34.46808510638298,NA
34120,Collier County,FL,NA,NA,40.99616858237548,NA,NA
34203,Manatee County,FL,53.0812324929972,46.93877551020408,61.97318007662835,67.4468085106383,NA
34208,Manatee County,FL,NA,NA,NA,NA,68
34211,Manatee County,FL,NA,NA,95.78544061302682,NA,NA
34232,Sarasota County,FL,28.851540616246496,NA,NA,NA,NA
34233,Sarasota County,FL,NA,NA,NA,NA,30.8
34235,Sarasota County,FL,NA,NA,NA,67.87234042553192,NA
34238,Sarasota County,FL,NA,NA,86.30268199233716,NA,NA
34293,Sarasota County,FL,NA,NA,NA,8.936170212765958,NA
34465,Citrus County,FL,NA,NA,70.11494252873564,NA,NA
34473,Marion County,FL,NA,NA,54.02298850574713,NA,NA
34481,Marion County,FL,NA,NA,NA,33.40425531914894,NA
34606,Hernando County,FL,NA,NA,48.08429118773947,NA,NA
34667,Pasco County,FL,NA,NA,NA,34.25531914893617,NA
34690,Pasco County,FL,NA,NA,76.62835249042146,NA,NA
34715,Lake County,FL,NA,NA,62.16475095785441,NA,NA
34731,Lake County,FL,NA,NA,NA,NA,92.4
34741,Osceola County,FL,31.652661064425768,NA,26.81992337164751,NA,NA
34748,Lake County,FL,NA,NA,NA,NA,4.3999999999999995
34769,Osceola County,FL,64.9859943977591,NA,51.628352490421456,NA,NA
34772,Osceola County,FL,54.621848739495796,NA,NA,NA,NA
34786,Orange County,FL,66.24649859943978,NA,NA,NA,NA
34950,St. Lucie County,FL,NA,NA,60.24904214559387,NA,NA
34952,St. Lucie County,FL,35.99439775910364,NA,NA,NA,NA
34957,Martin County,FL,NA,NA,82.66283524904215,NA,NA
34974,Okeechobee County,FL,NA,67.00680272108843,NA,NA,NA
34982,St. Lucie County,FL,45.938375350140056,NA,NA,NA,NA
34987,St. Lucie County,FL,NA,NA,91.37931034482759,NA,NA
30013,Rockdale County,GA,62.60504201680672,NA,NA,NA,NA
30022,Fulton County,GA,NA,NA,NA,54.25531914893617,NA
30045,Gwinnett County,GA,64.70588235294117,NA,NA,NA,NA
30046,Gwinnett County,GA,NA,NA,NA,63.40425531914894,NA
30047,Gwinnett County,GA,NA,NA,NA,84.04255319148936,NA
30060,Cobb County,GA,NA,NA,43.86973180076628,NA,NA
30064,Cobb County,GA,58.26330532212886,NA,NA,NA,NA
30078,Gwinnett County,GA,NA,85.37414965986395,NA,NA,NA
30083,DeKalb County,GA,NA,NA,NA,41.27659574468085,NA
30093,Gwinnett County,GA,30.952380952380953,NA,NA,NA,NA
30096,Gwinnett County,GA,NA,NA,31.13026819923372,NA,NA
30125,Polk County,GA,NA,61.904761904761905,NA,NA,NA
30157,Paulding County,GA,57.422969187675065,NA,30.747126436781606,NA,NA
30161,Floyd County,GA,NA,NA,21.93486590038314,NA,NA
30165,Floyd County,GA,NA,NA,65.42145593869732,NA,NA
30168,Cobb County,GA,NA,NA,66.28352490421456,NA,NA
30179,Carroll County,GA,NA,NA,64.46360153256705,NA,NA
30180,Carroll County,GA,NA,NA,26.340996168582375,NA,NA
30187,Douglas County,GA,NA,NA,81.4176245210728,NA,NA
30213,Fulton County,GA,NA,58.843537414965986,NA,NA,NA
30214,Fayette County,GA,NA,NA,61.206896551724135,NA,NA
30228,Henry County,GA,NA,NA,NA,71.27659574468085,NA
30240,Troup County,GA,NA,NA,NA,NA,41.6
30252,Henry County,GA,NA,NA,44.252873563218394,NA,NA
30274,Clayton County,GA,NA,NA,44.827586206896555,NA,NA
30308,Fulton County,GA,NA,NA,80.84291187739464,NA,NA
30310,Fulton County,GA,75.7703081232493,NA,NA,NA,NA
30313,Fulton County,GA,98.45938375350141,NA,NA,NA,NA
30318,Fulton County,GA,61.484593837535016,38.095238095238095,NA,NA,NA
30340,DeKalb County,GA,74.08963585434174,NA,87.73946360153256,NA,NA
30349,Fulton County,GA,8.26330532212885,NA,36.39846743295019,NA,NA
30518,Gwinnett County,GA,NA,59.863945578231295,NA,NA,NA
30548,Jackson County,GA,NA,NA,88.40996168582376,NA,NA
30549,Jackson County,GA,NA,NA,NA,62.76595744680851,NA
30606,Clarke County,GA,NA,NA,NA,34.8936170212766,NA
30607,Clarke County,GA,84.45378151260505,NA,NA,NA,NA
30655,Walton County,GA,NA,NA,40.900383141762454,NA,NA
30721,Whitfield County,GA,NA,NA,27.873563218390807,NA,NA
30809,Columbia County,GA,30.532212885154063,NA,NA,NA,NA
30813,Columbia County,GA,NA,NA,70.40229885057471,NA,NA
30817,Lincoln County,GA,NA,NA,NA,91.48936170212765,NA
30901,Richmond County,GA,NA,NA,91.66666666666666,NA,NA
30909,Richmond County,GA,46.9187675070028,NA,NA,NA,NA
31027,Laurens County,GA,NA,82.31292517006803,NA,NA,NA
31047,Houston County,GA,NA,NA,NA,85.74468085106382,NA
31069,Houston County,GA,NA,NA,NA,NA,54.800000000000004
31405,Chatham County,GA,NA,NA,54.98084291187739,NA,NA
31501,Ware County,GA,67.08683473389355,NA,NA,NA,NA
31539,Jeff Davis County,GA,NA,NA,73.18007662835248,NA,NA
31558,Camden County,GA,NA,NA,NA,NA,95.19999999999999
31601,Lowndes County,GA,31.23249299719888,NA,NA,NA,NA
31635,Lanier County,GA,NA,94.5578231292517,NA,NA,NA
31757,Thomas County,GA,NA,NA,77.10727969348659,NA,NA
31833,Troup County,GA,95.51820728291317,NA,NA,NA,NA
31904,Muscogee County,GA,NA,NA,NA,NA,20.4
31907,Muscogee County,GA,NA,36.054421768707485,NA,NA,NA
31909,Muscogee County,GA,57.002801120448176,NA,NA,NA,NA
39842,Terrell County,GA,NA,NA,90.03831417624522,NA,NA
39845,Seminole County,GA,NA,NA,80.65134099616859,NA,NA
96732,Maui County,HI,62.60504201680672,NA,NA,NA,NA
96768,Maui County,HI,NA,NA,91.76245210727969,NA,NA
96791,Honolulu County,HI,87.39495798319328,NA,NA,NA,NA
96792,Honolulu County,HI,NA,NA,14.846743295019158,NA,NA
96825,Honolulu County,HI,NA,NA,60.53639846743295,NA,NA
96826,Honolulu County,HI,NA,NA,NA,92.34042553191489,NA
83201,Bannock County,ID,18.34733893557423,NA,NA,NA,NA
83301,Twin Falls County,ID,NA,NA,NA,17.23404255319149,NA
83338,Jerome County,ID,75.21008403361344,NA,NA,NA,NA
83350,Minidoka County,ID,NA,NA,NA,74.46808510638297,NA
83401,Bonneville County,ID,5.602240896358544,NA,NA,NA,NA
83442,Jefferson County,ID,NA,NA,NA,82.5531914893617,NA
83467,Lemhi County,ID,NA,88.77551020408163,NA,NA,NA
83605,Canyon County,ID,8.683473389355742,NA,NA,NA,NA
83616,Ada County,ID,35.43417366946779,NA,NA,NA,NA
83634,Ada County,ID,NA,NA,NA,57.446808510638306,NA
83646,Ada County,ID,NA,NA,NA,9.148936170212766,NA
83660,Canyon County,ID,82.07282913165265,NA,NA,NA,NA
83669,Ada County,ID,NA,NA,96.83908045977012,NA,NA
83686,Canyon County,ID,NA,30.612244897959183,NA,NA,NA
83687,Canyon County,ID,NA,NA,89.75095785440614,NA,NA
83703,Ada County,ID,81.5126050420168,NA,NA,NA,NA
83706,Ada County,ID,NA,NA,NA,69.14893617021278,NA
83709,Ada County,ID,NA,NA,NA,36.80851063829787,NA
83713,Ada County,ID,NA,NA,73.5632183908046,NA,NA
83814,Kootenai County,ID,NA,NA,NA,50.42553191489362,NA
83835,Kootenai County,ID,NA,NA,NA,45.31914893617021,NA
83854,Kootenai County,ID,NA,NA,NA,68.08510638297872,NA
60002,Lake County,IL,NA,NA,67.62452107279694,NA,NA
60004,Cook County,IL,NA,NA,65.32567049808429,NA,NA
60010,Lake County,IL,NA,NA,NA,18.93617021276596,NA
60018,Cook County,IL,NA,NA,NA,47.02127659574468,NA
60025,Cook County,IL,NA,NA,NA,37.234042553191486,NA
60046,Lake County,IL,51.9607843137255,NA,NA,NA,NA
60047,Lake County,IL,42.997198879551824,NA,NA,NA,NA
60051,McHenry County,IL,59.523809523809526,NA,NA,NA,NA
60069,Lake County,IL,91.31652661064426,NA,NA,NA,NA
60073,Lake County,IL,NA,NA,19.157088122605366,NA,NA
60077,Cook County,IL,NA,NA,66.4750957854406,38.72340425531915,NA
60081,McHenry County,IL,NA,NA,97.22222222222221,NA,NA
60083,Lake County,IL,NA,NA,91.18773946360153,NA,NA
60090,Cook County,IL,NA,NA,NA,35.95744680851064,NA
60091,Cook County,IL,NA,NA,NA,28.510638297872344,NA
60101,DuPage County,IL,NA,NA,32.27969348659004,NA,22.8
60126,DuPage County,IL,15.966386554621847,NA,NA,NA,NA
60137,DuPage County,IL,28.011204481792717,NA,NA,NA,17.2
60148,DuPage County,IL,NA,NA,17.24137931034483,NA,NA
60153,Cook County,IL,NA,NA,44.252873563218394,NA,NA
60174,Kane County,IL,NA,NA,51.53256704980843,NA,NA
60175,Kane County,IL,NA,NA,67.72030651340997,NA,NA
60181,DuPage County,IL,NA,NA,34.67432950191571,NA,NA
60185,DuPage County,IL,NA,NA,74.32950191570882,NA,NA
60188,DuPage County,IL,NA,NA,21.551724137931032,NA,NA
60191,DuPage County,IL,NA,NA,NA,60.851063829787236,NA
60302,Cook County,IL,NA,NA,NA,59.361702127659576,NA
60410,Will County,IL,NA,NA,NA,77.87234042553192,NA
60418,Cook County,IL,NA,NA,97.98850574712644,NA,NA
60423,Will County,IL,NA,NA,76.91570881226055,30,NA
60439,Cook County,IL,NA,NA,NA,23.617021276595747,NA
60443,Cook County,IL,61.20448179271709,NA,NA,NA,NA
60445,Cook County,IL,NA,NA,NA,85.95744680851064,NA
60450,Grundy County,IL,NA,NA,28.639846743295017,NA,NA
60452,Cook County,IL,NA,NA,NA,51.70212765957447,NA
60453,Cook County,IL,NA,NA,16.666666666666664,11.48936170212766,NA
60465,Cook County,IL,NA,NA,54.50191570881226,NA,NA
60477,Cook County,IL,NA,NA,30.747126436781606,NA,NA
60487,Cook County,IL,NA,NA,62.643678160919535,NA,NA
60490,Will County,IL,NA,NA,67.91187739463601,NA,NA
60540,DuPage County,IL,NA,NA,NA,NA,40.8
60542,Kane County,IL,NA,NA,70.78544061302682,NA,NA
60543,Kendall County,IL,NA,NA,73.46743295019157,57.87234042553191,NA
60545,Kendall County,IL,NA,NA,72.70114942528735,85.1063829787234,NA
60563,DuPage County,IL,NA,NA,51.24521072796935,NA,NA
60564,Will County,IL,28.57142857142857,NA,NA,NA,NA
60613,Cook County,IL,NA,NA,NA,42.5531914893617,NA
60616,Cook County,IL,NA,NA,NA,14.255319148936172,NA
60617,Cook County,IL,NA,NA,9.195402298850574,4.042553191489362,NA
60620,Cook County,IL,NA,NA,9.291187739463602,NA,NA
60622,Cook County,IL,NA,NA,NA,NA,50.4
60623,Cook County,IL,NA,NA,9.386973180076629,NA,NA
60634,Cook County,IL,15.266106442577032,NA,NA,NA,44.4
60637,Cook County,IL,NA,NA,18.199233716475096,NA,NA
60640,Cook County,IL,NA,NA,11.015325670498084,NA,NA
60646,Cook County,IL,NA,NA,54.50191570881226,NA,NA
60655,Cook County,IL,25.07002801120448,NA,NA,NA,NA
60656,Cook County,IL,NA,NA,NA,54.25531914893617,NA
60657,Cook County,IL,NA,NA,60.82375478927203,NA,NA
60901,Kankakee County,IL,23.389355742296917,NA,NA,NA,NA
60936,Ford County,IL,NA,NA,99.80842911877394,NA,NA
61071,Whiteside County,IL,NA,NA,NA,21.914893617021278,NA
61244,Rock Island County,IL,NA,NA,71.455938697318,NA,NA
61350,LaSalle County,IL,38.51540616246499,NA,NA,NA,NA
61611,Tazewell County,IL,NA,NA,78.16091954022988,NA,NA
61727,De Witt County,IL,75.7703081232493,NA,NA,NA,NA
61866,Champaign County,IL,NA,NA,NA,77.23404255319149,NA
61873,Champaign County,IL,NA,NA,NA,89.14893617021276,NA
61944,Edgar County,IL,NA,NA,81.70498084291188,NA,NA
62034,Madison County,IL,NA,NA,96.64750957854406,NA,NA
62040,Madison County,IL,NA,NA,23.275862068965516,NA,NA
62056,Montgomery County,IL,NA,NA,89.65517241379311,NA,NA
62095,Madison County,IL,NA,NA,NA,NA,61.199999999999996
62305,Adams County,IL,NA,NA,75.47892720306514,NA,NA
62526,Macon County,IL,NA,NA,14.080459770114942,NA,NA
62837,Wayne County,IL,NA,NA,NA,78.72340425531915,NA
62901,Jackson County,IL,NA,NA,70.6896551724138,NA,NA
62966,Jackson County,IL,NA,NA,NA,58.08510638297872,NA
46041,Clinton County,IN,NA,NA,38.31417624521073,NA,NA
46052,Boone County,IN,NA,76.53061224489795,NA,NA,NA
46123,Hendricks County,IN,NA,NA,53.83141762452107,NA,NA
46140,Hancock County,IN,NA,NA,33.62068965517241,NA,NA
46142,Johnson County,IN,NA,NA,48.180076628352495,NA,NA
46201,Marion County,IN,NA,NA,21.0727969348659,NA,NA
46203,Marion County,IN,NA,NA,11.302681992337165,NA,NA
46205,Marion County,IN,NA,NA,NA,NA,84.39999999999999
46217,Marion County,IN,60.64425770308123,NA,58.81226053639846,NA,NA
46219,Marion County,IN,41.45658263305322,NA,NA,NA,NA
46220,Marion County,IN,NA,NA,NA,NA,59.199999999999996
46235,Marion County,IN,NA,NA,22.701149425287355,NA,NA
46241,Marion County,IN,NA,NA,59.86590038314177,NA,NA
46311,Lake County,IN,NA,NA,NA,22.5531914893617,NA
46312,Lake County,IN,16.80672268907563,NA,NA,NA,NA
46322,Lake County,IN,NA,NA,28.735632183908045,NA,NA
46342,Lake County,IN,15.826330532212884,NA,NA,NA,NA
46350,LaPorte County,IN,47.198879551820724,NA,NA,NA,NA
46360,LaPorte County,IN,NA,52.38095238095239,NA,NA,NA
46368,Porter County,IN,NA,NA,19.82758620689655,NA,NA
46373,Lake County,IN,NA,NA,34.38697318007663,NA,NA
46375,Lake County,IN,14.565826330532214,NA,NA,NA,NA
46383,Porter County,IN,NA,NA,NA,7.021276595744681,NA
46516,Elkhart County,IN,42.016806722689076,NA,NA,NA,NA
46544,St. Joseph County,IN,NA,NA,53.63984674329502,NA,NA
46545,St. Joseph County,IN,76.19047619047619,NA,NA,NA,NA
46567,Kosciusko County,IN,NA,NA,96.93486590038314,NA,NA
46701,Noble County,IN,NA,NA,77.77777777777779,NA,NA
46733,Adams County,IN,62.324929971988794,NA,47.605363984674334,NA,NA
46737,Steuben County,IN,NA,NA,83.71647509578544,NA,NA
46805,Allen County,IN,22.969187675070028,NA,NA,NA,NA
46806,Allen County,IN,26.47058823529412,NA,NA,NA,NA
46814,Allen County,IN,NA,NA,NA,NA,78.4
46816,Allen County,IN,76.47058823529412,NA,NA,NA,NA
46845,Allen County,IN,50.700280112044815,NA,NA,NA,NA
46901,Howard County,IN,NA,NA,NA,5.74468085106383,NA
46952,Grant County,IN,NA,57.82312925170068,NA,NA,NA
47024,Franklin County,IN,NA,NA,100,NA,NA
47111,Clark County,IN,NA,89.45578231292517,NA,NA,NA
47119,Floyd County,IN,NA,NA,NA,90.85106382978724,NA
47172,Clark County,IN,NA,95.91836734693877,NA,NA,NA
47203,Bartholomew County,IN,NA,NA,40.03831417624521,NA,NA
47274,Jackson County,IN,29.971988795518207,NA,NA,NA,NA
47331,Fayette County,IN,NA,NA,17.720306513409962,NA,NA
47421,Lawrence County,IN,NA,NA,39.08045977011494,NA,NA
47542,Dubois County,IN,NA,96.5986394557823,NA,NA,NA
47591,Knox County,IN,NA,NA,NA,32.340425531914896,NA
47802,Vigo County,IN,NA,NA,27.011494252873565,NA,NA
47872,Parke County,IN,NA,NA,94.15708812260536,NA,NA
47904,Tippecanoe County,IN,NA,NA,NA,82.34042553191489,NA
47906,Tippecanoe County,IN,NA,NA,NA,35.53191489361702,NA
47918,Fountain County,IN,NA,98.29931972789116,NA,NA,NA
47932,Fountain County,IN,NA,NA,93.48659003831418,NA,NA
47933,Montgomery County,IN,NA,NA,NA,55.319148936170215,NA
50125,Warren County,IA,NA,NA,73.9463601532567,NA,NA
50126,Hardin County,IA,NA,NA,NA,NA,68.4
50131,Polk County,IA,73.66946778711485,NA,NA,NA,NA
50208,Jasper County,IA,NA,NA,63.601532567049816,NA,NA
50310,Polk County,IA,72.54901960784314,NA,NA,NA,NA
50315,Polk County,IA,NA,NA,37.64367816091954,NA,NA
50428,Cerro Gordo County,IA,NA,NA,NA,57.659574468085104,NA
50701,Black Hawk County,IA,NA,NA,37.83524904214559,NA,NA
51103,Woodbury County,IA,NA,NA,53.9272030651341,NA,NA
51334,Emmet County,IA,NA,NA,NA,NA,65.2
51526,Pottawattamie County,IA,NA,NA,99.32950191570882,NA,NA
51632,Page County,IA,70.30812324929971,NA,NA,NA,NA
52233,Linn County,IA,NA,97.61904761904762,NA,NA,NA
52302,Linn County,IA,NA,51.36054421768708,24.42528735632184,NA,NA
52402,Linn County,IA,NA,NA,22.03065134099617,32.12765957446809,NA
52761,Muscatine County,IA,NA,NA,13.793103448275861,NA,NA
66062,Johnson County,KS,14.84593837535014,NA,NA,NA,NA
66071,Miami County,KS,NA,NA,NA,86.59574468085106,NA
66434,Brown County,KS,NA,NA,93.67816091954023,NA,NA
66502,Riley County,KS,86.5546218487395,NA,NA,NA,NA
66605,Shawnee County,KS,NA,NA,55.55555555555556,NA,NA
66616,Shawnee County,KS,NA,NA,NA,96.38297872340425,NA
66713,Cherokee County,KS,NA,NA,95.59386973180077,NA,NA
67156,Cowley County,KS,NA,NA,NA,86.17021276595744,NA
67212,Sedgwick County,KS,37.81512605042017,NA,NA,NA,NA
67217,Sedgwick County,KS,34.45378151260504,NA,NA,NA,NA
67401,Saline County,KS,10.364145658263306,NA,NA,NA,NA
67665,Russell County,KS,NA,100,NA,NA,NA
40175,Hardin County,KY,79.41176470588235,NA,NA,NA,NA
40213,Jefferson County,KY,NA,NA,39.46360153256705,NA,NA
40214,Jefferson County,KY,22.268907563025213,35.034013605442176,NA,NA,NA
40272,Jefferson County,KY,NA,NA,16.091954022988507,NA,NA
40342,Anderson County,KY,NA,NA,39.17624521072797,NA,76.4
40391,Clark County,KY,NA,33.6734693877551,NA,NA,NA
40403,Madison County,KY,NA,49.65986394557823,NA,NA,NA
40484,Lincoln County,KY,NA,NA,74.42528735632183,NA,NA
40517,Fayette County,KY,NA,NA,24.32950191570881,NA,NA
40744,Laurel County,KY,NA,NA,33.71647509578544,NA,NA
40962,Clay County,KY,NA,NA,NA,26.595744680851062,NA
41040,Pendleton County,KY,NA,NA,72.22222222222221,NA,NA
41042,Boone County,KY,NA,NA,NA,NA,7.199999999999999
41091,Boone County,KY,NA,NA,76.72413793103449,NA,NA
41129,Boyd County,KY,NA,NA,NA,66.38297872340425,NA
41164,Carter County,KY,NA,NA,37.73946360153257,NA,NA
41230,Lawrence County,KY,NA,NA,30.07662835249042,NA,NA
41553,Pike County,KY,99.29971988795518,NA,NA,NA,NA
41653,Floyd County,KY,NA,NA,NA,47.65957446808511,NA
42041,Fulton County,KY,NA,NA,90.13409961685824,NA,NA
42051,Graves County,KY,98.8795518207283,NA,NA,NA,NA
42066,Graves County,KY,NA,44.21768707482993,26.14942528735632,NA,NA
42088,Graves County,KY,NA,NA,99.90421455938697,NA,NA
42101,Warren County,KY,NA,NA,8.42911877394636,NA,NA
42103,Warren County,KY,NA,NA,69.06130268199234,NA,NA
42104,Warren County,KY,NA,NA,NA,NA,57.99999999999999
42141,Barren County,KY,NA,NA,NA,11.702127659574469,NA
42262,Christian County,KY,NA,NA,95.40229885057471,NA,NA
42303,Daviess County,KY,NA,NA,12.068965517241379,NA,NA
42320,Ohio County,KY,NA,NA,NA,NA,60.8
42330,Muhlenberg County,KY,NA,NA,75.28735632183908,NA,NA
42501,Pulaski County,KY,NA,NA,55.3639846743295,NA,NA
42717,Cumberland County,KY,NA,NA,NA,97.44680851063829,NA
42728,Adair County,KY,67.64705882352942,NA,NA,NA,NA
42743,Green County,KY,90.61624649859944,NA,NA,NA,NA
42754,Grayson County,KY,NA,NA,NA,NA,52.400000000000006
70005,Jefferson Parish,LA,NA,NA,38.60153256704981,NA,NA
70056,Jefferson Parish,LA,NA,NA,5.268199233716475,20.638297872340424,NA
70065,Jefferson Parish,LA,1.2605042016806722,NA,NA,NA,NA
70068,St. John the Baptist Parish,LA,5.742296918767507,NA,NA,NA,NA
70072,Jefferson Parish,LA,11.76470588235294,NA,NA,NA,NA
70092,St. Bernard Parish,LA,73.66946778711485,NA,NA,NA,NA
70094,Jefferson Parish,LA,NA,NA,6.226053639846743,NA,NA
70116,Orleans Parish,LA,NA,NA,54.69348659003831,NA,NA
70117,Orleans Parish,LA,2.661064425770308,NA,NA,NA,NA
70122,Orleans Parish,LA,NA,NA,6.513409961685824,NA,NA
70127,Orleans Parish,LA,NA,NA,9.865900383141762,NA,NA
70129,Orleans Parish,LA,65.68627450980392,NA,NA,NA,NA
70301,Lafourche Parish,LA,NA,NA,NA,12.127659574468085,NA
70342,St. Mary Parish,LA,97.3389355742297,NA,NA,NA,NA
70343,Terrebonne Parish,LA,85.15406162464986,NA,NA,NA,NA
70346,Ascension Parish,LA,NA,NA,NA,NA,75.6
70374,Lafourche Parish,LA,NA,63.60544217687075,NA,NA,NA
70380,St. Mary Parish,LA,NA,NA,NA,39.361702127659576,NA
70401,Tangipahoa Parish,LA,13.165266106442578,NA,NA,NA,NA
70422,Tangipahoa Parish,LA,NA,95.578231292517,NA,NA,NA
70433,St. Tammany Parish,LA,NA,32.31292517006803,NA,NA,NA
70438,Washington Parish,LA,5.46218487394958,NA,15.517241379310345,NA,20.8
70445,St. Tammany Parish,LA,92.71708683473389,NA,NA,NA,NA
70452,St. Tammany Parish,LA,NA,7.8231292517006805,NA,NA,NA
70458,St. Tammany Parish,LA,2.801120448179272,NA,NA,NA,NA
70466,Tangipahoa Parish,LA,NA,NA,NA,NA,93.60000000000001
70510,Vermilion Parish,LA,NA,NA,NA,79.7872340425532,NA
70512,St. Landry Parish,LA,NA,NA,70.01915708812261,NA,NA
70517,St. Martin Parish,LA,NA,NA,NA,25.319148936170212,NA
70538,St. Mary Parish,LA,NA,NA,NA,61.06382978723405,NA
70542,Vermilion Parish,LA,98.45938375350141,NA,NA,NA,NA
70546,Jefferson Davis Parish,LA,30.672268907563026,NA,NA,NA,NA
70555,Vermilion Parish,LA,63.305322128851536,NA,NA,NA,NA
70570,St. Landry Parish,LA,NA,NA,NA,16.170212765957448,NA
70611,Calcasieu Parish,LA,NA,NA,33.2375478927203,NA,NA
70634,Beauregard Parish,LA,NA,NA,95.3065134099617,NA,NA
70655,Allen Parish,LA,NA,52.38095238095239,NA,NA,NA
70665,Calcasieu Parish,LA,NA,NA,96.26436781609196,NA,NA
70668,Calcasieu Parish,LA,99.57983193277312,NA,NA,NA,NA
70706,Livingston Parish,LA,98.0392156862745,NA,NA,NA,NA
70714,East Baton Rouge Parish,LA,NA,NA,26.915708812260537,NA,NA
70726,Livingston Parish,LA,0.9803921568627451,NA,2.2988505747126435,NA,NA
70737,Ascension Parish,LA,NA,NA,8.812260536398467,21.70212765957447,NA
70760,Pointe Coupee Parish,LA,81.65266106442577,NA,NA,NA,NA
70769,Ascension Parish,LA,NA,NA,41.09195402298851,47.23404255319149,NA
70806,East Baton Rouge Parish,LA,21.568627450980394,NA,NA,NA,47.199999999999996
70809,East Baton Rouge Parish,LA,NA,NA,60.63218390804598,NA,NA
70817,East Baton Rouge Parish,LA,NA,NA,NA,NA,64
70818,East Baton Rouge Parish,LA,NA,64.28571428571429,NA,NA,NA
71037,Bossier Parish,LA,NA,NA,72.60536398467433,NA,NA
71101,Caddo Parish,LA,91.87675070028011,NA,NA,NA,NA
71105,Caddo Parish,LA,59.943977591036415,NA,NA,NA,NA
71107,Caddo Parish,LA,NA,1.7006802721088436,NA,NA,NA
71111,Bossier Parish,LA,NA,48.63945578231292,NA,NA,NA
71201,Ouachita Parish,LA,NA,NA,NA,56.80851063829787,NA
71202,Ouachita Parish,LA,NA,NA,NA,73.19148936170212,NA
71254,East Carroll Parish,LA,82.49299719887955,NA,NA,NA,NA
71292,Ouachita Parish,LA,NA,NA,NA,65.53191489361701,NA
71302,Rapides Parish,LA,39.91596638655462,NA,NA,NA,NA
71355,Avoyelles Parish,LA,NA,53.06122448979592,NA,NA,NA
71373,Concordia Parish,LA,NA,NA,NA,93.82978723404256,NA
71446,Vernon Parish,LA,NA,4.081632653061225,12.931034482758621,NA,NA
03901,York County,ME,NA,NA,70.88122605363985,NA,82.39999999999999
03908,York County,ME,87.81512605042016,NA,NA,NA,NA
04009,Cumberland County,ME,NA,NA,77.58620689655173,NA,NA
04011,Cumberland County,ME,NA,NA,NA,33.61702127659574,NA
04064,York County,ME,NA,NA,79.59770114942529,NA,NA
04086,Sagadahoc County,ME,NA,NA,NA,NA,53.6
04092,Cumberland County,ME,NA,NA,44.73180076628353,NA,NA
04103,Cumberland County,ME,NA,42.17687074829932,NA,29.148936170212764,NA
04106,Cumberland County,ME,NA,70.40816326530613,NA,NA,NA
04210,Androscoggin County,ME,NA,NA,NA,48.93617021276596,NA
04239,Franklin County,ME,NA,94.89795918367348,NA,NA,NA
04280,Androscoggin County,ME,NA,NA,81.51340996168582,NA,NA
04330,Kennebec County,ME,26.05042016806723,28.91156462585034,NA,NA,NA
04426,Piscataquis County,ME,NA,NA,NA,88.51063829787233,NA
04530,Sagadahoc County,ME,NA,NA,70.97701149425288,NA,NA
04605,Hancock County,ME,NA,NA,NA,NA,26.400000000000002
04937,Somerset County,ME,NA,NA,NA,NA,78.4
20706,Prince George's County,MD,74.64985994397759,NA,NA,NA,NA
20784,Prince George's County,MD,NA,NA,73.27586206896551,NA,NA
20814,Montgomery County,MD,79.69187675070029,NA,NA,NA,NA
20878,Montgomery County,MD,NA,NA,51.81992337164751,NA,NA
20904,Montgomery County,MD,NA,NA,65.51724137931035,NA,NA
21001,Harford County,MD,NA,NA,NA,73.40425531914893,NA
21042,Howard County,MD,NA,NA,74.13793103448276,NA,80.4
21047,Harford County,MD,NA,NA,NA,NA,70
21078,Harford County,MD,NA,NA,NA,61.702127659574465,NA
21216,Baltimore city,MD,NA,NA,NA,68.72340425531915,NA
21217,Baltimore city,MD,NA,NA,25.862068965517242,NA,NA
21218,Baltimore city,MD,NA,NA,12.452107279693486,NA,NA
21228,Baltimore County,MD,NA,NA,57.662835249042146,NA,NA
21229,Baltimore city,MD,NA,NA,20.689655172413794,NA,NA
21234,Baltimore County,MD,NA,NA,NA,10.425531914893616,NA
21787,Carroll County,MD,NA,NA,NA,94.68085106382979,NA
01005,Worcester County,MA,NA,NA,75.86206896551724,97.65957446808511,NA
01057,Hampden County,MA,NA,NA,NA,NA,88.8
01089,Hampden County,MA,29.271708683473392,NA,NA,NA,NA
01095,Hampden County,MA,NA,NA,99.71264367816092,NA,NA
01104,Hampden County,MA,NA,NA,2.0114942528735633,NA,NA
01105,Hampden County,MA,10.504201680672269,NA,3.5440613026819925,NA,NA
01108,Hampden County,MA,NA,4.421768707482993,NA,NA,NA
01220,Berkshire County,MA,NA,NA,NA,49.57446808510638,NA
01238,Berkshire County,MA,NA,NA,NA,75.74468085106383,NA
01247,Berkshire County,MA,NA,NA,7.375478927203065,NA,26.8
01331,Worcester County,MA,NA,NA,5.363984674329502,76.80851063829788,NA
01364,Franklin County,MA,NA,NA,99.52107279693486,NA,NA
01432,Middlesex County,MA,NA,NA,53.16091954022989,NA,NA
01463,Middlesex County,MA,NA,NA,50.86206896551724,60.63829787234043,NA
01501,Worcester County,MA,NA,NA,71.55172413793103,NA,NA
01516,Worcester County,MA,80.3921568627451,NA,NA,NA,NA
01550,Worcester County,MA,NA,NA,1.4367816091954022,30,NA
01588,Worcester County,MA,64.70588235294117,NA,NA,NA,NA
01602,Worcester County,MA,NA,NA,NA,27.02127659574468,NA
01605,Worcester County,MA,NA,NA,NA,NA,10
01607,Worcester County,MA,NA,NA,NA,44.25531914893617,NA
01609,Worcester County,MA,NA,NA,3.3524904214559386,NA,NA
01610,Worcester County,MA,NA,NA,28.065134099616856,NA,NA
01702,Middlesex County,MA,NA,NA,1.628352490421456,NA,NA
01752,Middlesex County,MA,32.49299719887955,NA,NA,NA,NA
01757,Worcester County,MA,74.50980392156863,NA,NA,NA,NA
01775,Middlesex County,MA,NA,NA,NA,NA,87.2
01801,Middlesex County,MA,NA,NA,38.02681992337165,NA,1.2
01824,Middlesex County,MA,NA,NA,NA,8.51063829787234,NA
01830,Essex County,MA,75.07002801120449,NA,NA,NA,NA
01833,Essex County,MA,NA,NA,NA,80,NA
01835,Essex County,MA,NA,NA,36.11111111111111,NA,NA
01841,Essex County,MA,NA,NA,NA,0.425531914893617,NA
01850,Middlesex County,MA,NA,NA,10.24904214559387,NA,NA
01851,Middlesex County,MA,NA,NA,NA,4.468085106382979,NA
01852,Middlesex County,MA,9.803921568627452,NA,NA,NA,NA
01854,Middlesex County,MA,48.739495798319325,NA,NA,NA,NA
01887,Middlesex County,MA,NA,55.44217687074829,NA,NA,NA
01902,Essex County,MA,NA,6.462585034013606,NA,NA,NA
01904,Essex County,MA,NA,NA,NA,56.17021276595745,NA
01905,Essex County,MA,NA,NA,1.9157088122605364,NA,NA
01906,Essex County,MA,NA,NA,NA,NA,11.600000000000001
01915,Essex County,MA,38.23529411764706,NA,NA,NA,NA
01938,Essex County,MA,NA,NA,52.20306513409961,NA,NA
01944,Essex County,MA,NA,NA,NA,88.93617021276596,NA
02021,Norfolk County,MA,50,NA,NA,NA,NA
02081,Norfolk County,MA,NA,NA,NA,57.02127659574469,NA
02116,Suffolk County,MA,NA,NA,18.007662835249043,NA,NA
02118,Suffolk County,MA,23.249299719887954,NA,NA,NA,NA
02119,Suffolk County,MA,25.770308123249297,NA,0.28735632183908044,NA,NA
02122,Suffolk County,MA,NA,NA,NA,1.702127659574468,NA
02124,Suffolk County,MA,6.302521008403361,NA,NA,NA,NA
02125,Suffolk County,MA,31.23249299719888,NA,0.6704980842911877,NA,NA
02127,Suffolk County,MA,NA,NA,1.8199233716475096,NA,NA
02128,Suffolk County,MA,2.100840336134454,NA,13.218390804597702,NA,NA
02129,Suffolk County,MA,NA,NA,NA,NA,99.2
02130,Suffolk County,MA,NA,NA,1.2452107279693485,2.7659574468085104,NA
02134,Suffolk County,MA,NA,NA,14.272030651340998,NA,NA
02139,Middlesex County,MA,NA,NA,0.4789272030651341,NA,NA
02140,Middlesex County,MA,NA,NA,19.923371647509576,NA,NA
02143,Middlesex County,MA,19.46778711484594,NA,NA,NA,NA
02145,Middlesex County,MA,NA,NA,82.47126436781609,NA,NA
02148,Middlesex County,MA,NA,NA,0,NA,NA
02150,Suffolk County,MA,NA,0.6802721088435374,5.459770114942529,NA,NA
02151,Suffolk County,MA,NA,NA,0.38314176245210724,NA,NA
02155,Middlesex County,MA,4.061624649859944,NA,9.099616858237548,NA,NA
02169,Norfolk County,MA,NA,NA,4.501915708812261,NA,NA
02186,Norfolk County,MA,NA,NA,16.47509578544061,NA,NA
02301,Plymouth County,MA,NA,NA,0.09578544061302681,0,NA
02333,Plymouth County,MA,NA,NA,35.727969348659,NA,NA
02351,Plymouth County,MA,42.71708683473389,NA,NA,NA,NA
02364,Plymouth County,MA,NA,NA,57.8544061302682,NA,NA
02368,Norfolk County,MA,NA,NA,15.613026819923373,NA,NA
02420,Middlesex County,MA,NA,NA,NA,NA,50.8
02421,Middlesex County,MA,NA,NA,21.743295019157088,NA,NA
02446,Norfolk County,MA,NA,NA,NA,NA,98
02451,Middlesex County,MA,89.91596638655463,NA,NA,NA,NA
02452,Middlesex County,MA,NA,NA,68.96551724137932,NA,NA
02474,Middlesex County,MA,47.47899159663865,NA,NA,NA,NA
02702,Bristol County,MA,NA,NA,92.62452107279694,NA,NA
02703,Bristol County,MA,NA,NA,1.1494252873563218,NA,NA
02723,Bristol County,MA,NA,NA,18.773946360153257,NA,NA
02740,Bristol County,MA,1.5406162464985995,NA,0.19157088122605362,NA,NA
02745,Bristol County,MA,42.016806722689076,NA,NA,NA,NA
02747,Bristol County,MA,NA,NA,95.97701149425288,NA,NA
02766,Bristol County,MA,NA,NA,21.168582375478927,NA,NA
02767,Bristol County,MA,NA,NA,64.75095785440614,NA,NA
02771,Bristol County,MA,NA,NA,43.96551724137931,NA,NA
02780,Bristol County,MA,NA,NA,NA,2.3404255319148937,NA
48038,Macomb County,MI,19.327731092436977,NA,NA,NA,NA
48049,St. Clair County,MI,NA,NA,94.06130268199234,NA,NA
48065,Macomb County,MI,NA,NA,80.74712643678161,NA,NA
48071,Oakland County,MI,NA,NA,29.88505747126437,NA,NA
48072,Oakland County,MI,NA,92.85714285714286,NA,NA,NA
48076,Oakland County,MI,NA,NA,NA,NA,43.6
48080,Macomb County,MI,65.12605042016807,NA,NA,NA,NA
48082,Macomb County,MI,NA,NA,52.68199233716475,NA,NA
48085,Oakland County,MI,NA,NA,NA,36.17021276595745,NA
48091,Macomb County,MI,44.537815126050425,NA,NA,NA,NA
48092,Macomb County,MI,NA,NA,33.90804597701149,NA,NA
48098,Oakland County,MI,68.0672268907563,NA,NA,NA,NA
48103,Washtenaw County,MI,NA,NA,17.432950191570882,NA,NA
48118,Washtenaw County,MI,NA,NA,82.37547892720306,NA,NA
48120,Wayne County,MI,86.97478991596638,NA,NA,NA,NA
48127,Wayne County,MI,19.88795518207283,NA,NA,NA,NA
48135,Wayne County,MI,NA,NA,62.45210727969349,NA,NA
48146,Wayne County,MI,7.282913165266107,NA,58.90804597701149,NA,NA
48158,Washtenaw County,MI,94.25770308123249,NA,NA,NA,NA
48162,Monroe County,MI,NA,NA,NA,NA,18.8
48176,Washtenaw County,MI,NA,NA,NA,31.06382978723404,NA
48180,Wayne County,MI,NA,NA,2.7777777777777777,2.9787234042553195,NA
48186,Wayne County,MI,NA,28.57142857142857,NA,NA,NA
48187,Wayne County,MI,NA,NA,NA,NA,13.200000000000001
48197,Washtenaw County,MI,NA,NA,NA,21.48936170212766,NA
48198,Washtenaw County,MI,3.5014005602240896,NA,NA,NA,NA
48201,Wayne County,MI,NA,NA,43.77394636015325,NA,NA
48203,Wayne County,MI,NA,NA,17.624521072796934,NA,NA
48207,Wayne County,MI,NA,NA,21.839080459770116,NA,NA
48210,Wayne County,MI,NA,NA,29.40613026819923,NA,NA
48219,Wayne County,MI,NA,NA,5.842911877394636,NA,NA
48223,Wayne County,MI,NA,48.29931972789115,NA,NA,NA
48227,Wayne County,MI,NA,NA,3.4482758620689653,NA,NA
48228,Wayne County,MI,NA,18.367346938775512,55.07662835249042,NA,NA
48230,Wayne County,MI,NA,NA,56.992337164750964,NA,NA
48235,Wayne County,MI,6.722689075630252,NA,17.52873563218391,NA,NA
48236,Wayne County,MI,NA,NA,69.44444444444444,NA,NA
48239,Wayne County,MI,NA,NA,59.674329501915715,NA,NA
48306,Oakland County,MI,NA,NA,47.89272030651341,NA,NA
48312,Macomb County,MI,NA,NA,NA,21.27659574468085,NA
48322,Oakland County,MI,NA,NA,47.31800766283525,NA,NA
48329,Oakland County,MI,NA,NA,NA,67.23404255319149,NA
48331,Oakland County,MI,NA,NA,NA,27.659574468085108,NA
48335,Oakland County,MI,NA,NA,56.32183908045977,NA,NA
48346,Oakland County,MI,NA,NA,41.7624521072797,NA,NA
48356,Oakland County,MI,95.7983193277311,NA,NA,NA,NA
48362,Oakland County,MI,NA,NA,78.63984674329501,87.2340425531915,NA
48371,Oakland County,MI,47.33893557422969,NA,NA,NA,NA
48430,Genesee County,MI,NA,NA,NA,26.170212765957444,NA
48444,Lapeer County,MI,72.12885154061624,NA,NA,NA,NA
48451,Genesee County,MI,NA,NA,80.17241379310344,NA,NA
48503,Genesee County,MI,NA,NA,NA,25.53191489361702,NA
48603,Saginaw County,MI,7.9831932773109235,NA,NA,NA,NA
48624,Gladwin County,MI,NA,NA,NA,NA,27.200000000000003
48640,Midland County,MI,NA,NA,11.877394636015326,NA,NA
48706,Bay County,MI,NA,NA,9.770114942528735,NA,NA
48708,Bay County,MI,NA,NA,NA,10.212765957446807,NA
48726,Tuscola County,MI,NA,NA,NA,NA,82
48827,Eaton County,MI,NA,NA,NA,41.702127659574465,NA
48836,Livingston County,MI,NA,NA,84.86590038314176,NA,NA
48846,Ionia County,MI,NA,71.08843537414967,43.582375478927204,NA,NA
48850,Montcalm County,MI,NA,NA,90.99616858237547,NA,NA
48858,Isabella County,MI,NA,NA,7.854406130268199,NA,NA
48867,Shiawassee County,MI,NA,45.57823129251701,NA,NA,NA
48911,Ingham County,MI,NA,NA,8.14176245210728,NA,NA
49001,Kalamazoo County,MI,NA,NA,23.946360153256705,NA,NA
49009,Kalamazoo County,MI,NA,NA,NA,10.851063829787234,NA
49015,Calhoun County,MI,NA,NA,NA,37.659574468085104,NA
49036,Branch County,MI,31.652661064425768,NA,NA,NA,NA
49090,Van Buren County,MI,81.09243697478992,NA,NA,NA,NA
49093,St. Joseph County,MI,NA,NA,34.48275862068966,NA,NA
49106,Berrien County,MI,NA,NA,95.01915708812261,NA,NA
49120,Berrien County,MI,NA,NA,16.85823754789272,NA,NA
49221,Lenawee County,MI,NA,NA,23.659003831417625,NA,NA
49240,Jackson County,MI,NA,NA,88.88888888888889,NA,NA
49253,Lenawee County,MI,NA,NA,NA,97.87234042553192,NA
49306,Kent County,MI,NA,NA,89.55938697318008,NA,NA
49307,Mecosta County,MI,NA,NA,58.620689655172406,NA,NA
49348,Allegan County,MI,NA,NA,36.68582375478927,NA,NA
49424,Ottawa County,MI,NA,NA,NA,17.4468085106383,NA
49441,Muskegon County,MI,NA,NA,NA,5.531914893617021,NA
49442,Muskegon County,MI,NA,NA,3.8314176245210727,NA,NA
49445,Muskegon County,MI,61.20448179271709,NA,NA,NA,NA
49456,Ottawa County,MI,NA,NA,49.712643678160916,NA,NA
49464,Ottawa County,MI,NA,NA,57.279693486590034,NA,36.8
49505,Kent County,MI,NA,62.585034013605444,NA,NA,NA
49507,Kent County,MI,2.380952380952381,NA,NA,NA,NA
49508,Kent County,MI,NA,NA,6.992337164750957,NA,NA
49509,Kent County,MI,63.86554621848739,NA,NA,NA,NA
49631,Osceola County,MI,94.81792717086834,NA,NA,NA,NA
49646,Kalkaska County,MI,NA,NA,59.77011494252874,NA,NA
49685,Grand Traverse County,MI,NA,NA,58.716475095785434,NA,NA
49715,Chippewa County,MI,87.39495798319328,NA,NA,NA,NA
49770,Emmet County,MI,NA,NA,NA,NA,36
49913,Houghton County,MI,70.02801120448179,NA,NA,NA,NA
49930,Houghton County,MI,NA,NA,NA,93.40425531914893,NA
49931,Houghton County,MI,83.61344537815127,NA,NA,NA,NA
55021,Rice County,MN,NA,NA,42.1455938697318,NA,NA
55041,Wabasha County,MN,NA,NA,NA,NA,62.4
55060,Steele County,MN,NA,NA,NA,40,NA
55079,Chisago County,MN,NA,76.53061224489795,94.92337164750958,NA,NA
55103,Ramsey County,MN,NA,49.65986394557823,NA,NA,NA
55104,Ramsey County,MN,NA,23.12925170068027,NA,NA,NA
55106,Ramsey County,MN,2.941176470588235,21.768707482993197,NA,NA,NA
55109,Ramsey County,MN,86.1344537815126,NA,NA,37.02127659574468,NA
55110,Ramsey County,MN,NA,29.931972789115648,NA,NA,72
55112,Ramsey County,MN,40.61624649859944,NA,45.785440613026815,32.76595744680851,NA
55117,Ramsey County,MN,NA,NA,19.25287356321839,NA,NA
55125,Washington County,MN,39.77591036414566,NA,NA,NA,NA
55126,Ramsey County,MN,80.812324929972,NA,NA,NA,NA
55128,Washington County,MN,60.08403361344538,NA,NA,NA,NA
55304,Anoka County,MN,NA,NA,44.92337164750958,NA,NA
55318,Carver County,MN,NA,NA,NA,73.61702127659574,NA
55330,Sherburne County,MN,53.641456582633054,NA,NA,NA,NA
55372,Scott County,MN,NA,NA,67.43295019157088,NA,NA
55374,Hennepin County,MN,NA,NA,91.95402298850574,NA,NA
55379,Scott County,MN,NA,34.69387755102041,NA,54.8936170212766,NA
55406,Hennepin County,MN,25.910364145658267,NA,NA,NA,NA
55407,Hennepin County,MN,6.022408963585434,NA,31.60919540229885,NA,NA
55408,Hennepin County,MN,NA,29.591836734693878,NA,NA,NA
55409,Hennepin County,MN,NA,NA,NA,96.17021276595744,NA
55411,Hennepin County,MN,29.831932773109244,NA,NA,NA,NA
55415,Hennepin County,MN,NA,89.79591836734694,NA,NA,NA
55419,Hennepin County,MN,10.784313725490197,NA,NA,NA,NA
55420,Hennepin County,MN,NA,NA,75.57471264367817,NA,NA
55428,Hennepin County,MN,19.747899159663866,NA,NA,NA,NA
55429,Hennepin County,MN,NA,NA,46.0727969348659,NA,NA
55430,Hennepin County,MN,NA,49.31972789115646,NA,NA,NA
55443,Hennepin County,MN,NA,NA,NA,54.04255319148936,NA
55444,Hennepin County,MN,NA,NA,NA,80.2127659574468,NA
55448,Anoka County,MN,NA,NA,45.689655172413794,NA,NA
55705,St. Louis County,MN,98.8795518207283,NA,NA,NA,NA
55719,St. Louis County,MN,NA,77.89115646258503,NA,NA,NA
55744,Itasca County,MN,NA,NA,18.67816091954023,8.72340425531915,NA
55746,St. Louis County,MN,NA,NA,87.4521072796935,NA,NA
55804,St. Louis County,MN,NA,59.863945578231295,NA,NA,NA
55807,St. Louis County,MN,96.77871148459384,NA,NA,NA,NA
55901,Olmsted County,MN,NA,25.170068027210885,NA,NA,NA
55904,Olmsted County,MN,NA,NA,41.18773946360153,NA,NA
55912,Mower County,MN,12.044817927170868,7.142857142857142,33.524904214559385,NA,NA
55971,Fillmore County,MN,97.61904761904762,NA,NA,NA,NA
55981,Wabasha County,MN,NA,NA,98.08429118773945,NA,NA
56007,Freeborn County,MN,NA,NA,18.103448275862068,NA,NA
56073,Brown County,MN,NA,NA,NA,17.872340425531917,NA
56258,Lyon County,MN,NA,NA,78.35249042145594,NA,NA
56267,Stevens County,MN,NA,NA,NA,64.04255319148936,NA
56308,Douglas County,MN,NA,NA,NA,NA,10.4
56345,Morrison County,MN,NA,59.183673469387756,NA,NA,NA
56353,Mille Lacs County,MN,NA,NA,88.98467432950191,NA,NA
56537,Otter Tail County,MN,NA,NA,NA,NA,2.8000000000000003
56544,Becker County,MN,NA,67.00680272108843,NA,NA,NA
56549,Clay County,MN,NA,NA,NA,99.57446808510639,NA
56560,Clay County,MN,NA,NA,15.134099616858238,NA,NA
56573,Otter Tail County,MN,NA,NA,NA,81.91489361702128,NA
56601,Beltrami County,MN,NA,NA,NA,2.127659574468085,NA
56621,Clearwater County,MN,NA,NA,85.24904214559386,NA,NA
56721,Polk County,MN,NA,NA,NA,NA,39.2
38614,Coahoma County,MS,NA,NA,57.8544061302682,NA,NA
38637,DeSoto County,MS,NA,NA,NA,86.80851063829788,NA
38824,Prentiss County,MS,NA,NA,97.89272030651341,NA,NA
38827,Tishomingo County,MS,97.05882352941177,NA,NA,NA,NA
38849,Lee County,MS,95.65826330532214,NA,NA,NA,NA
38851,Chickasaw County,MS,NA,NA,96.0727969348659,NA,NA
39059,Copiah County,MS,NA,NA,83.23754789272031,NA,NA
39073,Rankin County,MS,85.0140056022409,NA,NA,NA,NA
39083,Copiah County,MS,70.58823529411765,NA,NA,NA,NA
39157,Madison County,MS,86.41456582633053,NA,NA,NA,NA
39206,Hinds County,MS,NA,NA,33.14176245210728,NA,NA
39213,Hinds County,MS,NA,NA,NA,NA,54
39301,Lauderdale County,MS,33.753501400560225,NA,NA,NA,NA
39350,Neshoba County,MS,NA,8.503401360544217,NA,NA,NA
39422,Jasper County,MS,NA,NA,84.77011494252874,NA,NA
39440,Jones County,MS,2.100840336134454,NA,NA,NA,NA
39466,Pearl River County,MS,82.21288515406162,NA,NA,NA,NA
39501,Harrison County,MS,NA,NA,22.126436781609197,NA,NA
39503,Harrison County,MS,62.88515406162465,NA,NA,NA,NA
39507,Harrison County,MS,NA,NA,NA,NA,15.2
39532,Harrison County,MS,26.89075630252101,NA,NA,NA,NA
39560,Harrison County,MS,NA,NA,NA,13.829787234042554,NA
39562,Jackson County,MS,NA,NA,86.87739463601532,NA,NA
39702,Lowndes County,MS,NA,NA,NA,NA,57.599999999999994
63005,St. Louis County,MO,NA,NA,89.9425287356322,NA,NA
63031,St. Louis County,MO,NA,NA,20.402298850574713,NA,NA
63090,Franklin County,MO,NA,NA,NA,NA,49.6
63108,St. Louis city,MO,NA,NA,55.84291187739464,NA,NA
63110,St. Louis city,MO,54.761904761904766,NA,NA,NA,NA
63111,St. Louis city,MO,NA,NA,NA,NA,71.2
63114,St. Louis County,MO,NA,NA,29.214559386973182,NA,NA
63120,St. Louis city,MO,NA,NA,69.6360153256705,NA,NA
63125,St. Louis County,MO,NA,NA,47.509578544061306,NA,NA
63129,St. Louis County,MO,NA,NA,NA,9.574468085106384,NA
63135,St. Louis County,MO,NA,27.55102040816326,NA,NA,NA
63136,St. Louis County,MO,NA,NA,9.482758620689655,NA,NA
63146,St. Louis County,MO,NA,NA,NA,NA,12
63301,St. Charles County,MO,15.686274509803921,NA,NA,NA,NA
63303,St. Charles County,MO,77.45098039215686,NA,NA,15.53191489361702,NA
63362,Lincoln County,MO,NA,84.35374149659864,NA,NA,NA
63366,St. Charles County,MO,NA,NA,14.75095785440613,6.170212765957447,NA
63383,Warren County,MO,NA,NA,61.111111111111114,NA,NA
63389,Lincoln County,MO,89.6358543417367,NA,NA,NA,NA
63640,St. Francois County,MO,35.43417366946779,NA,NA,NA,NA
63863,Dunklin County,MO,NA,79.25170068027211,NA,NA,NA
63901,Butler County,MO,1.680672268907563,NA,NA,NA,NA
64012,Cass County,MO,NA,NA,31.70498084291188,NA,NA
64024,Clay County,MO,30.252100840336134,NA,20.593869731800766,NA,NA
64030,Jackson County,MO,10.504201680672269,NA,NA,NA,NA
64040,Johnson County,MO,NA,NA,86.7816091954023,NA,NA
64056,Jackson County,MO,29.271708683473392,NA,NA,NA,NA
64077,Ray County,MO,NA,NA,99.23371647509579,NA,NA
64085,Ray County,MO,NA,NA,NA,NA,59.599999999999994
64086,Jackson County,MO,NA,NA,38.88888888888889,NA,NA
64109,Jackson County,MO,58.82352941176471,NA,NA,NA,NA
64118,Clay County,MO,NA,NA,49.042145593869726,NA,NA
64119,Clay County,MO,NA,NA,NA,27.23404255319149,NA
64124,Jackson County,MO,NA,47.61904761904761,NA,NA,NA
64126,Jackson County,MO,66.5266106442577,NA,NA,NA,NA
64127,Jackson County,MO,11.344537815126051,NA,NA,NA,NA
64132,Jackson County,MO,32.63305322128851,NA,NA,62.97872340425532,NA
64133,Jackson County,MO,1.1204481792717087,NA,NA,NA,NA
64138,Jackson County,MO,NA,NA,13.601532567049809,NA,NA
64157,Clay County,MO,19.187675070028014,NA,NA,NA,NA
64429,Clinton County,MO,NA,NA,NA,61.91489361702127,NA
64485,Andrew County,MO,NA,NA,NA,70.85106382978724,NA
64507,Buchanan County,MO,NA,NA,30.45977011494253,NA,NA
64601,Livingston County,MO,86.69467787114846,NA,NA,NA,29.599999999999998
64701,Cass County,MO,NA,68.36734693877551,NA,NA,98.8
64730,Bates County,MO,NA,NA,NA,NA,64.4
64836,Jasper County,MO,NA,NA,21.26436781609195,NA,NA
64844,Newton County,MO,NA,NA,99.13793103448276,NA,NA
65201,Boone County,MO,NA,NA,50.76628352490421,71.48936170212767,NA
65233,Cooper County,MO,NA,NA,71.16858237547893,NA,NA
65340,Saline County,MO,28.431372549019606,NA,NA,NA,NA
65441,Crawford County,MO,NA,71.42857142857143,NA,NA,NA
65536,Laclede County,MO,36.97478991596639,23.46938775510204,NA,NA,NA
65548,Howell County,MO,NA,89.1156462585034,NA,NA,NA
65605,Lawrence County,MO,NA,NA,NA,85.53191489361703,NA
65613,Polk County,MO,NA,42.17687074829932,NA,NA,NA
65712,Lawrence County,MO,NA,NA,96.55172413793103,NA,NA
65742,Webster County,MO,NA,79.25170068027211,NA,NA,NA
65804,Greene County,MO,36.69467787114846,NA,NA,43.829787234042556,NA
65810,Greene County,MO,NA,NA,NA,74.04255319148936,NA
59044,Yellowstone County,MT,NA,NA,NA,84.25531914893617,NA
59047,Park County,MT,NA,NA,NA,75.1063829787234,NA
59101,Yellowstone County,MT,NA,NA,NA,30.638297872340424,17.599999999999998
59102,Yellowstone County,MT,NA,NA,48.946360153256705,NA,1.6
59404,Cascade County,MT,NA,NA,50.287356321839084,NA,NA
59405,Cascade County,MT,NA,NA,68.29501915708812,NA,12.8
59602,Lewis and Clark County,MT,NA,NA,NA,40.638297872340424,NA
59715,Gallatin County,MT,79.55182072829132,NA,NA,NA,NA
59718,Gallatin County,MT,NA,NA,NA,48.723404255319146,NA
59901,Flathead County,MT,NA,NA,NA,NA,0.8
68005,Sarpy County,NE,NA,NA,69.15708812260536,NA,NA
68104,Douglas County,NE,31.932773109243694,NA,NA,NA,NA
68107,Douglas County,NE,46.07843137254902,NA,NA,NA,NA
68508,Lancaster County,NE,99.71988795518207,NA,NA,NA,NA
68601,Platte County,NE,39.635854341736696,NA,NA,NA,NA
68818,Hamilton County,NE,NA,NA,NA,NA,86.8
69361,Scotts Bluff County,NE,NA,NA,NA,71.70212765957447,NA
89108,Clark County,NV,NA,NA,NA,NA,41.199999999999996
89117,Clark County,NV,81.09243697478992,NA,NA,NA,NA
89119,Clark County,NV,67.08683473389355,NA,23.946360153256705,NA,NA
89121,Clark County,NV,NA,NA,31.992337164750957,NA,NA
89129,Clark County,NV,NA,NA,NA,49.148936170212764,NA
89145,Clark County,NV,NA,NA,81.32183908045977,NA,NA
89146,Clark County,NV,NA,NA,84.48275862068965,NA,NA
89406,Churchill County,NV,NA,NA,NA,38.51063829787234,NA
89433,Washoe County,NV,NA,NA,44.54022988505747,NA,NA
89501,Washoe County,NV,99.85994397759103,NA,NA,NA,NA
89701,Carson City,NV,NA,NA,NA,52.55319148936171,NA
03031,Hillsborough County,NH,NA,NA,81.99233716475096,NA,NA
03053,Rockingham County,NH,NA,NA,66.95402298850574,NA,NA
03055,Hillsborough County,NH,NA,NA,NA,NA,48.8
03062,Hillsborough County,NH,NA,NA,20.88122605363985,10.851063829787234,NA
03103,Hillsborough County,NH,NA,NA,NA,NA,25.6
03220,Belknap County,NH,NA,NA,NA,94.8936170212766,NA
03275,Merrimack County,NH,NA,NA,NA,53.829787234042556,NA
03281,Hillsborough County,NH,68.62745098039215,NA,NA,NA,NA
03301,Merrimack County,NH,NA,51.70068027210885,NA,NA,8.4
03303,Merrimack County,NH,NA,NA,75.38314176245211,NA,NA
03458,Hillsborough County,NH,NA,NA,94.44444444444444,NA,NA
03820,Strafford County,NH,NA,70.06802721088435,NA,NA,NA
03824,Strafford County,NH,NA,NA,NA,88.08510638297872,NA
03833,Rockingham County,NH,NA,NA,75.09578544061303,NA,NA
03873,Rockingham County,NH,NA,NA,92.04980842911877,NA,NA
07010,Bergen County,NJ,NA,NA,90.61302681992338,NA,NA
07013,Passaic County,NJ,NA,76.53061224489795,NA,NA,84
07017,Essex County,NJ,NA,NA,74.80842911877394,NA,NA
07022,Bergen County,NJ,NA,NA,NA,NA,100
07029,Hudson County,NJ,NA,NA,65.13409961685824,NA,NA
07042,Essex County,NJ,NA,NA,27.969348659003828,88.72340425531915,81.2
07047,Hudson County,NJ,NA,NA,5.842911877394636,NA,NA
07052,Essex County,NJ,NA,NA,NA,20.425531914893615,NA
07055,Passaic County,NJ,NA,0,NA,NA,NA
07060,Union County,NJ,7.8431372549019605,3.741496598639456,NA,NA,NA
07065,Union County,NJ,NA,NA,62.83524904214559,42.340425531914896,NA
07067,Middlesex County,NJ,NA,NA,NA,81.27659574468085,NA
07076,Union County,NJ,NA,NA,88.79310344827587,NA,NA
07083,Union County,NJ,NA,NA,18.869731800766285,NA,NA
07104,Essex County,NJ,NA,12.585034013605442,NA,NA,NA
07107,Essex County,NJ,NA,NA,1.7241379310344827,NA,NA
07108,Essex County,NJ,NA,2.7210884353741496,NA,NA,NA
07111,Essex County,NJ,NA,9.183673469387756,10.344827586206897,12.340425531914894,NA
07112,Essex County,NJ,NA,8.843537414965986,40.229885057471265,NA,NA
07201,Union County,NJ,55.182072829131656,NA,NA,NA,NA
07304,Hudson County,NJ,54.761904761904766,NA,NA,NA,NA
07305,Hudson County,NJ,NA,37.41496598639456,NA,NA,NA
07306,Hudson County,NJ,NA,NA,49.137931034482754,16.80851063829787,NA
07405,Morris County,NJ,NA,NA,NA,NA,67.60000000000001
07470,Passaic County,NJ,NA,NA,19.34865900383142,NA,NA
07504,Passaic County,NJ,90.05602240896359,NA,NA,NA,NA
07522,Passaic County,NJ,NA,32.99319727891156,NA,NA,NA
07604,Bergen County,NJ,NA,NA,NA,98.29787234042553,NA
07644,Bergen County,NJ,NA,NA,95.49808429118774,NA,NA
07649,Bergen County,NJ,NA,NA,NA,NA,94.8
07675,Bergen County,NJ,NA,NA,NA,58.723404255319146,NA
07701,Monmouth County,NJ,NA,NA,NA,NA,56.39999999999999
07728,Monmouth County,NJ,NA,NA,17.911877394636015,NA,NA
07730,Monmouth County,NJ,84.45378151260505,NA,NA,NA,NA
07740,Monmouth County,NJ,0.5602240896358543,NA,NA,NA,NA
07747,Monmouth County,NJ,NA,NA,37.452107279693486,NA,NA
07760,Monmouth County,NJ,96.63865546218487,NA,NA,NA,NA
07836,Morris County,NJ,NA,NA,NA,94.25531914893617,NA
07882,Warren County,NJ,NA,NA,NA,66.80851063829788,NA
08002,Camden County,NJ,NA,NA,61.68582375478927,NA,NA
08015,Burlington County,NJ,62.04481792717087,NA,NA,NA,NA
08053,Burlington County,NJ,NA,NA,NA,31.914893617021278,NA
08069,Salem County,NJ,NA,NA,NA,NA,66.4
08080,Gloucester County,NJ,NA,NA,43.29501915708812,28.723404255319153,NA
08086,Gloucester County,NJ,NA,NA,93.5823754789272,NA,NA
08087,Ocean County,NJ,NA,NA,NA,NA,56.39999999999999
08088,Burlington County,NJ,NA,NA,NA,72.76595744680851,NA
08096,Gloucester County,NJ,NA,NA,NA,11.914893617021278,NA
08102,Camden County,NJ,NA,NA,35.82375478927203,NA,NA
08104,Camden County,NJ,44.81792717086835,NA,8.524904214559387,NA,NA
08203,Atlantic County,NJ,NA,NA,96.74329501915709,NA,NA
08205,Atlantic County,NJ,41.03641456582633,NA,NA,NA,NA
08225,Atlantic County,NJ,NA,NA,NA,83.40425531914893,NA
08332,Cumberland County,NJ,NA,NA,25,NA,NA
08360,Cumberland County,NJ,7.42296918767507,NA,NA,NA,NA
08401,Atlantic County,NJ,NA,1.3605442176870748,12.835249042145595,4.8936170212765955,NA
08512,Mercer County,NJ,NA,NA,98.75478927203065,NA,NA
08535,Monmouth County,NJ,NA,NA,99.04214559386973,NA,NA
08540,Mercer County,NJ,NA,NA,NA,100,NA
08618,Mercer County,NJ,NA,NA,1.053639846743295,NA,NA
08721,Ocean County,NJ,NA,NA,29.022988505747126,NA,NA
08724,Ocean County,NJ,NA,NA,NA,NA,21.6
08731,Ocean County,NJ,NA,NA,42.04980842911878,NA,NA
08816,Middlesex County,NJ,74.36974789915966,NA,NA,NA,NA
08861,Middlesex County,NJ,NA,25.510204081632654,NA,NA,NA
08865,Warren County,NJ,34.31372549019608,NA,NA,NA,NA
08873,Somerset County,NJ,NA,NA,NA,29.78723404255319,NA
08901,Middlesex County,NJ,21.1484593837535,NA,NA,NA,NA
87004,Sandoval County,NM,NA,NA,93.29501915708812,NA,NA
87031,Valencia County,NM,NA,NA,32.4712643678161,NA,NA
87104,Bernalillo County,NM,NA,NA,NA,81.06382978723404,NA
87107,Bernalillo County,NM,NA,54.421768707483,NA,NA,NA
87109,Bernalillo County,NM,NA,NA,20.21072796934866,NA,NA
87110,Bernalillo County,NM,NA,NA,14.17624521072797,NA,NA
87113,Bernalillo County,NM,NA,NA,83.14176245210729,NA,NA
87114,Bernalillo County,NM,49.299719887955185,NA,NA,NA,NA
87120,Bernalillo County,NM,NA,NA,NA,18.51063829787234,NA
87121,Bernalillo County,NM,23.669467787114844,3.4013605442176873,4.789272030651341,NA,NA
87123,Bernalillo County,NM,NA,NA,NA,6.595744680851063,NA
87124,Sandoval County,NM,NA,NA,NA,47.4468085106383,NA
87144,Sandoval County,NM,44.11764705882353,NA,NA,NA,NA
87317,McKinley County,NM,96.49859943977592,NA,NA,NA,NA
87420,San Juan County,NM,NA,NA,34.195402298850574,NA,NA
87505,Santa Fe County,NM,NA,NA,6.130268199233716,NA,NA
87528,Rio Arriba County,NM,80.95238095238095,NA,NA,NA,NA
87544,Los Alamos County,NM,84.03361344537815,NA,NA,NA,NA
87701,San Miguel County,NM,NA,NA,54.69348659003831,NA,NA
88001,Doa Ana County,NM,NA,24.489795918367346,NA,NA,NA
88005,Doa Ana County,NM,39.21568627450981,NA,NA,NA,NA
88012,Doa Ana County,NM,NA,27.55102040816326,NA,NA,NA
88030,Luna County,NM,NA,NA,66.66666666666666,NA,NA
88101,Curry County,NM,NA,NA,39.46360153256705,NA,NA
88130,Roosevelt County,NM,NA,56.4625850340136,NA,NA,NA
88310,Otero County,NM,NA,NA,27.203065134099617,NA,NA
10002,New York County,NY,NA,NA,4.406130268199234,NA,NA
10003,New York County,NY,NA,NA,59.2911877394636,NA,NA
10009,New York County,NY,NA,NA,38.50574712643678,NA,NA
10025,New York County,NY,NA,NA,7.2796934865900385,NA,NA
10027,New York County,NY,NA,NA,5.6513409961685825,NA,NA
10029,New York County,NY,NA,NA,NA,0.851063829787234,NA
10032,New York County,NY,60.50420168067227,NA,12.739463601532567,NA,NA
10034,New York County,NY,NA,NA,71.0727969348659,NA,NA
10035,New York County,NY,NA,NA,6.800766283524904,NA,NA
10040,New York County,NY,NA,14.965986394557824,NA,NA,NA
10451,Bronx County,NY,NA,NA,52.969348659003835,NA,NA
10452,Bronx County,NY,NA,NA,7.662835249042145,NA,NA
10455,Bronx County,NY,NA,2.0408163265306123,60.91954022988506,NA,NA
10456,Bronx County,NY,0.1400560224089636,3.061224489795918,NA,4.680851063829787,NA
10458,Bronx County,NY,0.700280112044818,0.3401360544217687,NA,NA,NA
10459,Bronx County,NY,7.703081232492997,NA,NA,NA,NA
10462,Bronx County,NY,NA,NA,NA,5.957446808510639,NA
10465,Bronx County,NY,NA,NA,82.95019157088123,NA,NA
10466,Bronx County,NY,11.484593837535014,NA,NA,NA,NA
10467,Bronx County,NY,NA,NA,0.8620689655172413,NA,NA
10472,Bronx County,NY,NA,2.380952380952381,NA,NA,NA
10474,Bronx County,NY,67.08683473389355,NA,NA,NA,NA
10509,Putnam County,NY,NA,NA,NA,NA,70.8
10550,Westchester County,NY,NA,NA,28.831417624521073,NA,NA
10566,Westchester County,NY,NA,NA,NA,NA,69.6
10701,Westchester County,NY,NA,11.904761904761903,NA,NA,NA
10705,Westchester County,NY,NA,NA,39.75095785440613,NA,NA
10990,Orange County,NY,97.61904761904762,NA,NA,NA,NA
11103,Queens County,NY,NA,NA,NA,NA,74
11104,Queens County,NY,NA,NA,98.85057471264368,NA,NA
11205,Kings County,NY,82.21288515406162,27.2108843537415,NA,NA,NA
11206,Kings County,NY,9.523809523809524,10.54421768707483,2.681992337164751,NA,NA
11207,Kings County,NY,NA,NA,0.7662835249042145,NA,NA
11208,Kings County,NY,NA,NA,1.3409961685823755,NA,NA
11211,Kings County,NY,NA,NA,16.379310344827587,24.893617021276597,NA
11212,Kings County,NY,1.9607843137254901,NA,NA,NA,NA
11213,Kings County,NY,NA,NA,6.0344827586206895,NA,NA
11214,Kings County,NY,NA,NA,NA,15.74468085106383,NA
11215,Kings County,NY,NA,NA,37.83524904214559,NA,23.200000000000003
11221,Kings County,NY,NA,NA,3.065134099616858,NA,NA
11229,Kings County,NY,56.022408963585434,37.755102040816325,31.513409961685824,NA,NA
11230,Kings County,NY,34.45378151260504,NA,NA,NA,NA
11233,Kings County,NY,NA,NA,NA,15.957446808510639,NA
11236,Kings County,NY,NA,NA,23.754789272030653,NA,NA
11237,Kings County,NY,14.005602240896359,NA,NA,NA,NA
11238,Kings County,NY,NA,NA,23.371647509578544,19.361702127659576,NA
11354,Queens County,NY,27.170868347338935,NA,NA,NA,28.000000000000004
11364,Queens County,NY,84.03361344537815,NA,NA,NA,NA
11368,Queens County,NY,12.745098039215685,NA,NA,22.340425531914892,NA
11372,Queens County,NY,20.72829131652661,10.884353741496598,34.2911877394636,NA,NA
11385,Queens County,NY,NA,NA,11.590038314176246,NA,NA
11420,Queens County,NY,NA,NA,52.394636015325666,NA,NA
11435,Queens County,NY,10.084033613445378,NA,NA,NA,NA
11550,Nassau County,NY,4.201680672268908,NA,13.697318007662835,NA,NA
11731,Suffolk County,NY,NA,NA,87.06896551724138,NA,NA
11747,Suffolk County,NY,NA,NA,93.86973180076629,NA,NA
11793,Nassau County,NY,NA,NA,NA,NA,46
11968,Suffolk County,NY,NA,86.39455782312925,NA,NA,NA
12009,Albany County,NY,NA,NA,97.41379310344827,NA,NA
12010,Montgomery County,NY,NA,NA,6.321839080459771,6.808510638297872,NA
12019,Saratoga County,NY,NA,NA,80.93869731800766,NA,NA
12020,Saratoga County,NY,NA,NA,57.47126436781609,NA,NA
12047,Albany County,NY,NA,NA,32.56704980842912,NA,NA
12078,Fulton County,NY,NA,NA,NA,NA,14.000000000000002
12180,Rensselaer County,NY,NA,NA,2.586206896551724,NA,NA
12303,Schenectady County,NY,NA,30.612244897959183,NA,NA,NA
12309,Schenectady County,NY,NA,NA,NA,NA,90.4
12534,Columbia County,NY,NA,NA,17.81609195402299,NA,NA
12601,Dutchess County,NY,NA,10.204081632653061,NA,NA,NA
12816,Washington County,NY,NA,NA,89.46360153256705,NA,NA
12828,Washington County,NY,NA,NA,47.12643678160919,NA,NA
12834,Washington County,NY,NA,NA,74.13793103448276,NA,NA
12901,Clinton County,NY,NA,NA,NA,6.382978723404255,NA
12946,Essex County,NY,NA,87.75510204081633,72.89272030651341,NA,NA
12972,Clinton County,NY,NA,NA,63.02681992337165,NA,NA
13021,Cayuga County,NY,6.862745098039216,NA,3.7356321839080464,NA,NA
13027,Onondaga County,NY,NA,NA,15.900383141762454,NA,NA
13045,Cortland County,NY,28.15126050420168,NA,23.18007662835249,14.042553191489363,NA
13069,Oswego County,NY,NA,NA,6.417624521072797,NA,NA
13073,Tompkins County,NY,NA,NA,64.84674329501917,NA,NA
13077,Cortland County,NY,NA,NA,67.04980842911877,NA,NA
13082,Madison County,NY,95.7983193277311,NA,NA,NA,NA
13088,Onondaga County,NY,NA,NA,31.13026819923372,NA,NA
13090,Onondaga County,NY,NA,NA,19.061302681992338,NA,NA
13114,Oswego County,NY,84.31372549019608,NA,NA,NA,NA
13166,Cayuga County,NY,NA,NA,84.38697318007662,NA,NA
13202,Onondaga County,NY,NA,NA,65.80459770114942,NA,NA
13203,Onondaga County,NY,NA,NA,21.64750957854406,NA,NA
13204,Onondaga County,NY,NA,NA,NA,63.61702127659574,NA
13206,Onondaga County,NY,NA,NA,28.160919540229884,NA,NA
13208,Onondaga County,NY,27.310924369747898,NA,NA,NA,NA
13329,Herkimer County,NY,NA,80.95238095238095,NA,NA,NA
13413,Oneida County,NY,61.62464985994398,NA,NA,NA,NA
13416,Herkimer County,NY,NA,NA,98.18007662835248,NA,NA
13492,Oneida County,NY,63.16526610644257,NA,NA,NA,NA
13493,Oswego County,NY,NA,NA,NA,98.93617021276596,NA
13617,St. Lawrence County,NY,NA,NA,NA,42.97872340425532,NA
13667,St. Lawrence County,NY,NA,NA,88.12260536398468,NA,NA
13748,Broome County,NY,NA,NA,76.14942528735632,NA,NA
13760,Broome County,NY,14.425770308123248,NA,NA,NA,NA
13820,Otsego County,NY,NA,NA,NA,9.361702127659575,NA
13850,Broome County,NY,NA,NA,18.486590038314176,NA,NA
13905,Broome County,NY,3.6414565826330536,NA,14.367816091954023,NA,NA
14001,Erie County,NY,NA,NA,75.76628352490421,NA,NA
14031,Erie County,NY,NA,NA,87.73946360153256,NA,NA
14043,Erie County,NY,72.68907563025209,NA,36.97318007662835,NA,NA
14051,Erie County,NY,NA,NA,45.97701149425287,NA,NA
14052,Erie County,NY,67.92717086834735,NA,NA,NA,NA
14075,Erie County,NY,NA,NA,NA,7.872340425531915,NA
14094,Niagara County,NY,NA,NA,33.81226053639847,3.1914893617021276,NA
14108,Niagara County,NY,NA,NA,63.31417624521073,NA,NA
14120,Niagara County,NY,NA,NA,5.172413793103448,NA,NA
14208,Erie County,NY,NA,NA,32.8544061302682,NA,NA
14211,Erie County,NY,NA,NA,37.547892720306514,NA,NA
14212,Erie County,NY,NA,NA,NA,81.70212765957446,NA
14218,Erie County,NY,NA,NA,NA,49.787234042553195,NA
14220,Erie County,NY,NA,50.34013605442177,NA,NA,NA
14223,Erie County,NY,NA,NA,32.37547892720307,NA,NA
14226,Erie County,NY,NA,NA,NA,45.95744680851064,NA
14304,Niagara County,NY,NA,NA,26.053639846743295,NA,NA
14425,Ontario County,NY,NA,NA,NA,NA,99.6
14428,Monroe County,NY,48.739495798319325,NA,50.47892720306514,NA,NA
14464,Monroe County,NY,NA,NA,57.758620689655174,NA,NA
14471,Ontario County,NY,NA,NA,NA,91.27659574468086,NA
14482,Genesee County,NY,NA,NA,56.60919540229885,NA,NA
14514,Monroe County,NY,NA,NA,72.31800766283524,NA,NA
14521,Seneca County,NY,NA,NA,92.52873563218391,NA,NA
14527,Yates County,NY,NA,NA,66.0919540229885,NA,NA
14532,Ontario County,NY,83.19327731092437,NA,NA,NA,NA
14551,Wayne County,NY,70.58823529411765,NA,81.51340996168582,NA,NA
14559,Monroe County,NY,NA,NA,13.31417624521073,NA,NA
14561,Ontario County,NY,NA,NA,85.15325670498083,NA,NA
14564,Ontario County,NY,NA,NA,56.70498084291188,NA,NA
14580,Monroe County,NY,0.2801120448179272,NA,NA,0.6382978723404255,NA
14609,Monroe County,NY,NA,6.122448979591836,5.555555555555555,1.4893617021276597,NA
14615,Monroe County,NY,NA,NA,13.505747126436782,NA,NA
14624,Monroe County,NY,NA,NA,2.8735632183908044,NA,NA
14626,Monroe County,NY,NA,NA,20.114942528735632,NA,NA
14706,Cattaraugus County,NY,NA,NA,63.888888888888886,NA,NA
14715,Allegany County,NY,NA,NA,87.643678160919535,NA,NA
14737,Cattaraugus County,NY,NA,NA,89.36781609195403,NA,NA
14775,Chautauqua County,NY,NA,NA,NA,98.08510638297872,NA
14840,Steuben County,NY,NA,NA,96.36015325670499,NA,NA
14843,Steuben County,NY,NA,NA,NA,74.68085106382979,NA
14845,Chemung County,NY,NA,NA,NA,35.74468085106383,NA
27023,Forsyth County,NC,50.280112044817926,NA,NA,NA,NA
27030,Surry County,NC,5.182072829131653,NA,NA,NA,NA
27041,Surry County,NC,NA,NA,NA,78.51063829787233,NA
27055,Yadkin County,NC,NA,NA,NA,83.61702127659575,NA
27101,Forsyth County,NC,NA,NA,86.97318007662835,NA,NA
27103,Forsyth County,NC,NA,NA,17.049808429118773,NA,2
27104,Forsyth County,NC,NA,NA,NA,NA,6.800000000000001
27107,Forsyth County,NC,NA,8.16326530612245,NA,NA,NA
27127,Forsyth County,NC,3.081232492997199,NA,NA,NA,NA
27205,Randolph County,NC,NA,NA,45.88122605363984,NA,NA
27217,Alamance County,NC,47.75910364145658,NA,NA,NA,NA
27244,Alamance County,NC,NA,98.63945578231292,NA,NA,NA
27253,Alamance County,NC,NA,NA,NA,61.48936170212767,NA
27265,Guilford County,NC,NA,NA,NA,76.38297872340426,NA
27278,Orange County,NC,NA,NA,NA,18.085106382978726,NA
27302,Alamance County,NC,NA,NA,NA,NA,30.8
27306,Montgomery County,NC,NA,NA,77.20306513409962,NA,NA
27320,Rockingham County,NC,NA,NA,13.409961685823754,13.617021276595745,NA
27330,Lee County,NC,43.8375350140056,NA,25.095785440613028,NA,NA
27332,Lee County,NC,63.4453781512605,NA,NA,53.404255319148945,NA
27406,Guilford County,NC,NA,NA,NA,NA,63.2
27511,Wake County,NC,NA,NA,70.3065134099617,NA,NA
27526,Wake County,NC,NA,NA,31.13026819923372,NA,NA
27573,Person County,NC,88.37535014005601,NA,50.09578544061303,NA,NA
27577,Johnston County,NC,NA,NA,49.616858237547895,NA,NA
27587,Wake County,NC,NA,NA,NA,12.76595744680851,22.400000000000002
27596,Franklin County,NC,NA,NA,NA,71.91489361702128,NA
27604,Wake County,NC,42.71708683473389,NA,NA,NA,NA
27609,Wake County,NC,NA,NA,40.51724137931034,NA,NA
27610,Wake County,NC,3.9215686274509802,NA,NA,NA,32
27615,Wake County,NC,NA,NA,NA,NA,16.8
27704,Durham County,NC,NA,63.26530612244898,NA,NA,NA
27828,Pitt County,NC,83.19327731092437,NA,NA,NA,NA
27837,Pitt County,NC,NA,NA,93.10344827586206,NA,NA
27870,Halifax County,NC,59.80392156862745,NA,NA,38.08510638297872,NA
27893,Wilson County,NC,NA,NA,50.38314176245211,NA,NA
27909,Pasquotank County,NC,20.168067226890756,NA,15.229885057471265,NA,NA
28037,Lincoln County,NC,NA,NA,89.08045977011494,NA,NA
28056,Gaston County,NC,NA,NA,50.95785440613027,NA,NA
28079,Union County,NC,NA,NA,NA,58.93617021276596,NA
28081,Cabarrus County,NC,NA,57.14285714285714,NA,59.148936170212764,NA
28103,Union County,NC,NA,65.64625850340136,NA,NA,NA
28112,Union County,NC,56.86274509803921,NA,NA,NA,NA
28119,Anson County,NC,NA,NA,99.42528735632183,NA,NA
28146,Rowan County,NC,NA,NA,37.26053639846743,NA,NA
28147,Rowan County,NC,NA,60.8843537414966,NA,NA,NA
28152,Cleveland County,NC,NA,NA,41.37931034482759,NA,NA
28173,Union County,NC,71.84873949579831,NA,NA,NA,NA
28205,Mecklenburg County,NC,30.952380952380953,NA,NA,NA,NA
28208,Mecklenburg County,NC,NA,NA,11.398467432950191,NA,NA
28212,Mecklenburg County,NC,55.04201680672269,NA,NA,NA,NA
28213,Mecklenburg County,NC,23.669467787114844,NA,NA,NA,NA
28216,Mecklenburg County,NC,NA,NA,11.685823754789272,NA,30.4
28273,Mecklenburg County,NC,NA,NA,NA,92.76595744680851,NA
28278,Mecklenburg County,NC,NA,NA,66.37931034482759,NA,NA
28301,Cumberland County,NC,NA,NA,41.85823754789272,NA,NA
28305,Cumberland County,NC,NA,NA,NA,99.14893617021276,NA
28306,Bladen County,NC,27.871148459383754,NA,NA,43.40425531914894,NA
28311,Cumberland County,NC,NA,45.23809523809524,NA,NA,NA
28314,Cumberland County,NC,5.88235294117647,19.387755102040817,NA,NA,NA
28315,Moore County,NC,NA,NA,80.3639846743295,NA,NA
28320,Bladen County,NC,NA,NA,79.02298850574712,NA,NA
28328,Sampson County,NC,NA,NA,NA,28.936170212765955,NA
28364,Robeson County,NC,NA,NA,49.23371647509578,NA,NA
28379,Richmond County,NC,NA,NA,19.6360153256705,NA,NA
28466,Duplin County,NC,NA,NA,98.5632183908046,NA,NA
28540,Onslow County,NC,NA,NA,29.980842911877392,NA,NA
28560,Craven County,NC,NA,NA,32.95019157088122,NA,NA
28578,Wayne County,NC,98.31932773109243,NA,NA,NA,NA
28613,Catawba County,NC,78.01120448179272,NA,NA,NA,NA
28621,Surry County,NC,NA,NA,79.3103448275862,NA,NA
28642,Yadkin County,NC,NA,74.14965986394559,NA,NA,NA
28645,Caldwell County,NC,NA,NA,4.118773946360153,NA,3.5999999999999996
28712,Transylvania County,NC,NA,NA,82.56704980842912,NA,NA
28716,Haywood County,NC,NA,NA,55.172413793103445,NA,NA
28739,Henderson County,NC,NA,89.79591836734694,NA,55.53191489361702,13.600000000000001
28791,Henderson County,NC,NA,NA,81.80076628352491,NA,NA
28806,Buncombe County,NC,NA,NA,NA,51.91489361702127,NA
58078,Cass County,ND,NA,NA,29.789272030651343,NA,NA
58103,Cass County,ND,NA,NA,8.7164750957854409,NA,3.2
58201,Grand Forks County,ND,NA,NA,34.770114942528735,NA,NA
58601,Stark County,ND,NA,NA,79.21455938697318,NA,NA
58703,Ward County,ND,NA,NA,NA,51.276595744680854,NA
43008,Licking County,OH,NA,NA,97.31800766283524,NA,NA
43055,Licking County,OH,4.901960784313726,NA,2.10727969348659,NA,NA
43068,Franklin County,OH,0,NA,NA,50.212765957446805,NA
43081,Franklin County,OH,NA,33.6734693877551,NA,NA,NA
43085,Franklin County,OH,NA,NA,89.84674329501917,NA,NA
43113,Pickaway County,OH,NA,41.156462585034014,NA,NA,NA
43119,Franklin County,OH,19.047619047619047,NA,NA,NA,NA
43123,Franklin County,OH,NA,NA,9.578544061302683,NA,NA
43125,Franklin County,OH,NA,NA,NA,NA,76
43130,Fairfield County,OH,NA,5.1020408163265305,2.203065134099617,3.829787234042553,NA
43138,Hocking County,OH,NA,NA,33.90804597701149,NA,NA
43147,Fairfield County,OH,NA,NA,27.39463601532567,NA,NA
43203,Franklin County,OH,NA,43.87755102040816,NA,NA,NA
43204,Franklin County,OH,NA,NA,NA,18.29787234042553,NA
43205,Franklin County,OH,13.445378151260504,NA,NA,NA,NA
43206,Franklin County,OH,NA,NA,14.655172413793101,NA,NA
43219,Franklin County,OH,32.63305322128851,NA,NA,NA,NA
43222,Franklin County,OH,NA,80.95238095238095,NA,NA,NA
43223,Franklin County,OH,13.865546218487395,NA,NA,NA,NA
43227,Franklin County,OH,NA,NA,25.67049808429119,NA,NA
43228,Franklin County,OH,NA,NA,3.9272030651340994,NA,NA
43229,Franklin County,OH,NA,1.0204081632653061,NA,NA,NA
43230,Franklin County,OH,NA,NA,18.486590038314176,NA,NA
43231,Franklin County,OH,80.25210084033614,NA,NA,NA,NA
43410,Sandusky County,OH,68.90756302521008,NA,NA,NA,NA
43452,Ottawa County,OH,NA,NA,49.712643678160916,NA,54.400000000000006
43515,Fulton County,OH,NA,NA,72.12643678160919,NA,NA
43605,Lucas County,OH,14.145658263305322,NA,NA,NA,NA
43607,Lucas County,OH,NA,NA,NA,26.382978723404253,NA
43609,Lucas County,OH,NA,NA,NA,NA,76.8
43612,Lucas County,OH,NA,18.70748299319728,NA,NA,NA
43614,Lucas County,OH,NA,NA,NA,NA,23.599999999999998
43616,Lucas County,OH,NA,NA,15.32567049808429,NA,NA
43623,Lucas County,OH,45.79831932773109,NA,NA,NA,NA
43701,Muskingum County,OH,NA,NA,NA,1.0638297872340425,2.4
43725,Guernsey County,OH,NA,NA,16.954022988505745,NA,NA
43793,Monroe County,OH,NA,NA,91.4750957854406,NA,NA
43812,Coshocton County,OH,16.246498599439775,46.25850340136054,NA,NA,NA
43830,Muskingum County,OH,NA,84.6938775510204,NA,NA,NA
43952,Jefferson County,OH,NA,NA,9.961685823754788,NA,NA
43953,Jefferson County,OH,NA,NA,36.59003831417624,NA,NA
44004,Ashtabula County,OH,NA,9.523809523809524,NA,4.25531914893617,NA
44023,Geauga County,OH,NA,NA,73.08429118773945,NA,NA
44024,Geauga County,OH,NA,NA,95.21072796934867,NA,NA
44026,Geauga County,OH,NA,NA,95.11494252873564,61.06382978723405,NA
44035,Lorain County,OH,NA,NA,0.5747126436781609,NA,NA
44039,Lorain County,OH,NA,NA,35.440613026819925,NA,NA
44041,Ashtabula County,OH,57.422969187675065,NA,NA,NA,NA
44052,Lorain County,OH,3.7815126050420167,NA,NA,NA,NA
44070,Cuyahoga County,OH,NA,NA,NA,7.234042553191489,NA
44072,Geauga County,OH,NA,NA,NA,NA,80.4
44077,Lake County,OH,6.442577030812324,NA,40.42145593869732,NA,NA
44092,Lake County,OH,NA,56.80272108843537,NA,NA,NA
44102,Cuyahoga County,OH,NA,NA,NA,3.1914893617021276,NA
44105,Cuyahoga County,OH,4.761904761904762,NA,NA,NA,NA
44106,Cuyahoga County,OH,NA,NA,12.547892720306514,NA,NA
44107,Cuyahoga County,OH,NA,NA,2.3946360153256707,NA,NA
44108,Cuyahoga County,OH,NA,NA,3.1609195402298855,NA,NA
44109,Cuyahoga County,OH,0.42016806722689076,NA,NA,NA,9.6
44110,Cuyahoga County,OH,NA,NA,NA,10,NA
44111,Cuyahoga County,OH,14.145658263305322,9.863945578231291,NA,NA,NA
44114,Cuyahoga County,OH,NA,82.31292517006803,70.21072796934867,NA,NA
44117,Cuyahoga County,OH,NA,NA,46.264367816091955,NA,NA
44119,Cuyahoga County,OH,NA,NA,59.48275862068966,NA,NA
44120,Cuyahoga County,OH,NA,NA,3.6398467432950192,NA,85.2
44130,Cuyahoga County,OH,NA,NA,5.076628352490421,NA,NA
44134,Cuyahoga County,OH,NA,24.149659863945576,NA,NA,NA
44135,Cuyahoga County,OH,NA,15.98639455782313,38.793103448275865,NA,NA
44139,Cuyahoga County,OH,NA,NA,46.55172413793103,NA,19.2
44143,Cuyahoga County,OH,NA,NA,NA,NA,4
44146,Cuyahoga County,OH,NA,NA,8.045977011494253,NA,NA
44202,Portage County,OH,NA,NA,36.206896551724135,NA,NA
44203,Summit County,OH,NA,NA,7.471264367816093,NA,11.200000000000001
44212,Medina County,OH,NA,NA,NA,1.276595744680851,NA
44230,Wayne County,OH,NA,NA,NA,NA,87.6
44240,Portage County,OH,NA,NA,31.800766283524908,NA,NA
44241,Portage County,OH,NA,NA,34.96168582375479,NA,NA
44260,Portage County,OH,NA,NA,NA,NA,62.8
44305,Summit County,OH,NA,NA,16.28352490421456,NA,NA
44310,Summit County,OH,NA,20.74829931972789,NA,NA,NA
44313,Summit County,OH,NA,NA,68.10344827586206,NA,NA
44314,Summit County,OH,NA,NA,30.555555555555557,NA,NA
44319,Summit County,OH,NA,NA,55.26819923371647,NA,NA
44405,Mahoning County,OH,NA,NA,80.45977011494253,NA,NA
44425,Trumbull County,OH,NA,NA,35.24904214559387,NA,NA
44442,Mahoning County,OH,NA,NA,NA,NA,90.8
44446,Trumbull County,OH,NA,NA,NA,NA,60
44460,Columbiana County,OH,13.305322128851541,NA,NA,10.638297872340425,NA
44509,Mahoning County,OH,36.83473389355743,NA,NA,NA,NA
44514,Mahoning County,OH,NA,NA,NA,NA,25.2
44515,Mahoning County,OH,22.54901960784314,NA,12.164750957854405,NA,NA
44601,Stark County,OH,NA,NA,8.908045977011495,NA,NA
44622,Tuscarawas County,OH,44.67787114845939,NA,NA,NA,NA
44667,Wayne County,OH,NA,NA,69.6360153256705,NA,NA
44685,Summit County,OH,49.299719887955185,NA,NA,NA,NA
44704,Stark County,OH,NA,72.44897959183673,NA,NA,NA
44705,Stark County,OH,NA,31.63265306122449,NA,NA,NA
44813,Richland County,OH,83.05322128851542,NA,NA,NA,NA
44820,Crawford County,OH,31.932773109243694,NA,61.97318007662835,NA,NA
44827,Crawford County,OH,NA,63.60544217687075,NA,NA,NA
44857,Huron County,OH,20.72829131652661,NA,62.356321839080465,NA,NA
44870,Erie County,OH,NA,NA,2.490421455938697,NA,NA
44889,Huron County,OH,NA,NA,87.16475095785441,NA,NA
44903,Richland County,OH,NA,16.3265306122449,NA,NA,NA
45005,Warren County,OH,NA,31.97278911564626,NA,NA,36.4
45011,Butler County,OH,NA,NA,NA,5.106382978723404,NA
45039,Warren County,OH,NA,NA,53.44827586206896,NA,NA
45067,Butler County,OH,NA,NA,NA,NA,92.80000000000001
45122,Clermont County,OH,NA,NA,79.11877394636015,NA,NA
45133,Highland County,OH,NA,41.49659863945578,NA,NA,NA
45154,Brown County,OH,70.58823529411765,NA,NA,NA,NA
45202,Hamilton County,OH,NA,NA,22.892720306513407,NA,NA
45205,Hamilton County,OH,17.086834733893557,NA,24.71264367816092,NA,NA
45214,Hamilton County,OH,NA,39.455782312925166,53.25670498084292,NA,NA
45227,Hamilton County,OH,55.32212885154062,NA,NA,NA,NA
45230,Hamilton County,OH,NA,NA,59.00383141762452,NA,NA
45237,Hamilton County,OH,NA,NA,33.04597701149425,NA,NA
45239,Hamilton County,OH,NA,NA,52.29885057471264,NA,NA
45240,Hamilton County,OH,NA,NA,29.310344827586203,NA,NA
45249,Hamilton County,OH,NA,NA,NA,NA,84.8
45344,Clark County,OH,NA,NA,63.984674329501914,NA,NA
45365,Shelby County,OH,NA,NA,14.46360153256705,NA,NA
45416,Montgomery County,OH,NA,NA,NA,91.06382978723404,NA
45417,Montgomery County,OH,NA,NA,10.727969348659004,NA,NA
45424,Montgomery County,OH,NA,NA,13.026819923371647,NA,NA
45458,Montgomery County,OH,NA,NA,NA,17.02127659574468,NA
45459,Montgomery County,OH,51.68067226890757,NA,NA,NA,NA
45503,Clark County,OH,NA,NA,NA,NA,14.799999999999999
45506,Clark County,OH,NA,NA,84.00383141762453,NA,NA
45601,Ross County,OH,0.8403361344537815,NA,0.9578544061302682,0.2127659574468085,NA
45612,Ross County,OH,NA,NA,NA,NA,80
45614,Gallia County,OH,NA,57.82312925170068,NA,NA,NA
45628,Ross County,OH,NA,NA,88.69731800766284,NA,NA
45631,Gallia County,OH,NA,20.408163265306122,12.643678160919542,NA,NA
45638,Lawrence County,OH,NA,NA,NA,NA,28.799999999999997
45640,Jackson County,OH,NA,NA,8.237547892720306,NA,NA
45648,Scioto County,OH,NA,NA,27.68199233716475,NA,NA
45651,Vinton County,OH,NA,NA,84.19540229885058,NA,NA
45653,Scioto County,OH,NA,NA,94.34865900383141,NA,NA
45657,Scioto County,OH,97.89915966386555,NA,NA,NA,NA
45660,Adams County,OH,90.75630252100841,59.863945578231295,NA,NA,NA
45662,Scioto County,OH,3.361344537815126,NA,NA,NA,NA
45669,Lawrence County,OH,NA,NA,NA,25.744680851063826,NA
45694,Scioto County,OH,46.07843137254902,NA,NA,NA,NA
45760,Meigs County,OH,NA,57.14285714285714,NA,NA,NA
45780,Athens County,OH,NA,NA,94.82758620689656,NA,NA
45804,Allen County,OH,NA,NA,NA,70.63829787234043,NA
45891,Van Wert County,OH,NA,NA,NA,30.851063829787233,NA
73044,Logan County,OK,NA,NA,NA,19.148936170212767,NA
73089,Grady County,OK,86.27450980392157,NA,NA,NA,NA
73098,Garvin County,OK,NA,NA,NA,97.23404255319149,NA
73099,Canadian County,OK,18.907563025210084,NA,NA,8.085106382978724,NA
73106,Oklahoma County,OK,NA,90.81632653061224,NA,NA,NA
73114,Oklahoma County,OK,94.67787114845937,NA,NA,NA,NA
73119,Oklahoma County,OK,31.932773109243694,NA,25.766283524904214,NA,NA
73127,Oklahoma County,OK,NA,54.421768707483,NA,NA,NA
73130,Oklahoma County,OK,74.92997198879551,NA,NA,NA,NA
73132,Oklahoma County,OK,52.52100840336135,NA,NA,NA,NA
73139,Oklahoma County,OK,60.924369747899156,67.00680272108843,61.30268199233716,NA,NA
73179,Oklahoma County,OK,NA,NA,97.03065134099617,NA,NA
73527,Comanche County,OK,NA,91.83673469387756,NA,NA,NA
74012,Tulsa County,OK,NA,NA,28.544061302681996,NA,NA
74016,Rogers County,OK,NA,NA,NA,93.61702127659575,NA
74020,Pawnee County,OK,87.95518207282913,NA,NA,NA,NA
74112,Tulsa County,OK,NA,78.57142857142857,NA,NA,NA
74354,Ottawa County,OK,35.294117647058826,NA,NA,NA,NA
74432,McIntosh County,OK,NA,NA,85.727969348659,NA,NA
74728,McCurtain County,OK,58.26330532212886,NA,NA,NA,NA
74745,McCurtain County,OK,NA,NA,69.25287356321839,NA,NA
74801,Pottawatomie County,OK,NA,NA,NA,32.5531914893617,NA
74820,Pontotoc County,OK,NA,NA,NA,NA,28.4
74851,Pottawatomie County,OK,NA,NA,81.99233716475096,NA,NA
97006,Washington County,OR,NA,NA,NA,40.42553191489361,NA
97007,Washington County,OR,19.46778711484594,NA,NA,NA,NA
97015,Clackamas County,OR,NA,NA,NA,77.02127659574468,NA
97113,Washington County,OR,79.83193277310924,NA,NA,NA,NA
97123,Washington County,OR,NA,NA,NA,20.212765957446805,NA
97124,Washington County,OR,25.49019607843137,NA,NA,NA,NA
97128,Yamhill County,OR,43.55742296918768,NA,NA,NA,NA
97138,Clatsop County,OR,NA,NA,NA,72.5531914893617,NA
97206,Multnomah County,OR,NA,NA,15.804597701149426,NA,NA
97229,Washington County,OR,37.11484593837535,NA,NA,NA,NA
97267,Clackamas County,OR,76.89075630252101,NA,40.61302681992337,NA,NA
97305,Marion County,OR,NA,NA,29.40613026819923,NA,NA
97317,Marion County,OR,NA,NA,NA,67.65957446808511,NA
97365,Lincoln County,OR,97.19887955182072,90.47619047619048,NA,NA,NA
97394,Lincoln County,OR,NA,NA,98.37164750957854,NA,NA
97396,Yamhill County,OR,99.43977591036415,NA,NA,NA,NA
97401,Lane County,OR,NA,NA,44.06130268199234,NA,NA
97403,Lane County,OR,NA,NA,98.27586206896551,NA,NA
97404,Lane County,OR,NA,NA,65.51724137931035,NA,NA
97420,Coos County,OR,NA,NA,NA,50.851063829787236,NA
97423,Coos County,OR,92.43697478991596,NA,NA,NA,NA
97439,Lane County,OR,NA,NA,67.1455938697318,NA,NA
97478,Lane County,OR,NA,NA,42.241379310344826,NA,NA
97479,Douglas County,OR,NA,NA,NA,62.97872340425532,NA
97487,Lane County,OR,NA,NA,96.455938697318,NA,NA
97504,Jackson County,OR,34.87394957983193,NA,59.961685823754785,NA,NA
97630,Lake County,OR,NA,92.85714285714286,NA,NA,NA
97754,Crook County,OR,NA,NA,52.10727969348659,NA,NA
97756,Deschutes County,OR,NA,NA,NA,25.957446808510635,NA
97814,Baker County,OR,NA,NA,NA,52.76595744680851,NA
97862,Umatilla County,OR,73.10924369747899,NA,NA,NA,NA
97913,Malheur County,OR,NA,NA,94.6360153256705,NA,NA
97914,Malheur County,OR,56.30252100840336,NA,NA,NA,NA
15084,Allegheny County,PA,NA,87.07482993197279,NA,NA,NA
15108,Allegheny County,PA,NA,NA,NA,22.5531914893617,NA
15120,Allegheny County,PA,NA,NA,49.52107279693487,NA,NA
15132,Allegheny County,PA,NA,NA,44.44444444444444,NA,NA
15201,Allegheny County,PA,NA,NA,NA,NA,72.8
15206,Allegheny County,PA,NA,NA,20.306513409961685,NA,NA
15210,Allegheny County,PA,NA,NA,17.337164750957854,NA,NA
15212,Allegheny County,PA,NA,NA,27.490421455938694,NA,NA
15214,Allegheny County,PA,NA,NA,60.440613026819925,NA,NA
15217,Allegheny County,PA,NA,NA,NA,27.4468085106383,NA
15235,Allegheny County,PA,NA,NA,22.413793103448278,NA,NA
15238,Allegheny County,PA,NA,NA,NA,NA,44
15522,Bedford County,PA,NA,NA,NA,83.19148936170212,NA
15601,Westmoreland County,PA,NA,NA,4.21455938697318,NA,NA
15650,Westmoreland County,PA,64.00560224089635,55.78231292517006,NA,NA,NA
15658,Westmoreland County,PA,NA,NA,NA,NA,89.2
15666,Westmoreland County,PA,NA,NA,91.57088122605363,NA,NA
15690,Westmoreland County,PA,80.3921568627451,NA,NA,NA,NA
15902,Cambria County,PA,NA,NA,47.79693486590038,NA,NA
15963,Somerset County,PA,NA,NA,NA,65.1063829787234,NA
16001,Butler County,PA,NA,NA,56.22605363984674,NA,NA
16101,Lawrence County,PA,NA,NA,7.567049808429119,NA,NA
16121,Mercer County,PA,NA,NA,75.19157088122606,NA,NA
16146,Mercer County,PA,NA,NA,NA,NA,34.4
16423,Erie County,PA,NA,NA,98.65900383141762,NA,NA
16504,Erie County,PA,NA,NA,66.76245210727969,NA,NA
16510,Erie County,PA,38.37535014005603,NA,NA,NA,NA
16602,Blair County,PA,37.254901960784316,NA,NA,NA,NA
16801,Centre County,PA,NA,NA,NA,NA,16
16901,Tioga County,PA,NA,76.53061224489795,NA,NA,NA
16915,Potter County,PA,NA,NA,87.26053639846744,NA,NA
17003,Lebanon County,PA,52.10084033613446,NA,NA,NA,NA
17011,Cumberland County,PA,NA,NA,30.268199233716476,NA,NA
17019,York County,PA,49.299719887955185,NA,NA,NA,NA
17038,Lebanon County,PA,NA,NA,78.83141762452107,NA,NA
17046,Lebanon County,PA,NA,NA,NA,70,NA
17057,Dauphin County,PA,NA,52.04081632653062,NA,NA,NA
17070,Cumberland County,PA,NA,92.51700680272108,NA,NA,NA
17104,Dauphin County,PA,NA,47.27891156462585,NA,NA,NA
17111,Dauphin County,PA,NA,NA,51.81992337164751,NA,NA
17403,York County,PA,47.05882352941176,NA,NA,NA,NA
17406,York County,PA,NA,NA,NA,NA,22
17512,Lancaster County,PA,NA,NA,46.934865900383144,NA,NA
17522,Lancaster County,PA,NA,NA,NA,52.34042553191489,NA
17603,Lancaster County,PA,NA,NA,11.494252873563218,NA,NA
17701,Lycoming County,PA,NA,NA,4.980842911877394,NA,NA
17740,Lycoming County,PA,NA,NA,56.417624521072796,NA,NA
17751,Clinton County,PA,NA,NA,76.53256704980843,NA,NA
17815,Columbia County,PA,NA,NA,NA,NA,18.4
17821,Montour County,PA,NA,NA,NA,20,NA
17844,Union County,PA,NA,NA,NA,NA,79.2
17872,Northumberland County,PA,NA,NA,44.92337164750958,NA,NA
18015,Northampton County,PA,NA,NA,10.82375478927203,NA,NA
18042,Northampton County,PA,NA,NA,6.704980842911877,NA,NA
18049,Lehigh County,PA,NA,NA,47.98850574712644,NA,NA
18052,Lehigh County,PA,20.588235294117645,NA,NA,NA,NA
18062,Lehigh County,PA,NA,NA,NA,NA,32.4
18073,Montgomery County,PA,NA,NA,NA,NA,88
18102,Lehigh County,PA,NA,NA,10.632183908045976,NA,NA
18103,Lehigh County,PA,1.8207282913165268,NA,6.609195402298851,7.446808510638298,NA
18109,Lehigh County,PA,67.78711484593838,NA,NA,NA,NA
18202,Luzerne County,PA,NA,71.7687074829932,NA,NA,NA
18252,Schuylkill County,PA,73.66946778711485,NA,NA,NA,66
18452,Lackawanna County,PA,NA,NA,NA,NA,91.2
18472,Wayne County,PA,NA,NA,NA,NA,94
18508,Lackawanna County,PA,NA,NA,65.7088122605364,NA,NA
18512,Lackawanna County,PA,76.89075630252101,NA,NA,NA,NA
18704,Luzerne County,PA,34.87394957983193,NA,NA,NA,NA
18706,Luzerne County,PA,NA,NA,43.486590038314176,NA,NA
18801,Susquehanna County,PA,83.61344537815127,NA,NA,NA,NA
19002,Montgomery County,PA,61.76470588235294,NA,NA,NA,NA
19010,Delaware County,PA,NA,NA,NA,NA,52
19013,Delaware County,PA,NA,NA,NA,NA,38.4
19014,Delaware County,PA,NA,NA,47.03065134099617,NA,NA
19020,Bucks County,PA,22.128851540616246,NA,NA,NA,NA
19023,Delaware County,PA,NA,NA,82.27969348659003,NA,NA
19047,Bucks County,PA,NA,NA,NA,85.31914893617021,NA
19057,Bucks County,PA,NA,NA,35.440613026819925,NA,NA
19061,Delaware County,PA,33.47338935574229,NA,32.758620689655174,NA,NA
19067,Bucks County,PA,40.61624649859944,NA,NA,NA,NA
19103,Philadelphia County,PA,NA,NA,NA,30.425531914893618,NA
19104,Philadelphia County,PA,17.92717086834734,NA,NA,22.97872340425532,NA
19107,Philadelphia County,PA,NA,NA,50,NA,NA
19111,Philadelphia County,PA,12.184873949579831,NA,22.31800766283525,NA,NA
19115,Philadelphia County,PA,NA,NA,NA,23.19148936170213,NA
19121,Philadelphia County,PA,16.5266106442577,29.931972789115648,NA,NA,NA
19124,Philadelphia County,PA,4.341736694677871,NA,1.532567049808429,NA,NA
19125,Philadelphia County,PA,NA,NA,53.44827586206896,NA,NA
19130,Philadelphia County,PA,NA,NA,42.911877394636015,43.40425531914894,NA
19139,Philadelphia County,PA,9.38375350140056,NA,4.597701149425287,NA,NA
19141,Philadelphia County,PA,14.705882352941178,NA,35.15325670498085,60.21276595744681,NA
19142,Philadelphia County,PA,25.630252100840334,NA,NA,NA,NA
19143,Philadelphia County,PA,NA,NA,10.440613026819925,1.9148936170212765,NA
19145,Philadelphia County,PA,11.904761904761903,NA,9.67432950191571,NA,NA
19148,Philadelphia County,PA,NA,NA,36.49425287356322,NA,NA
19150,Philadelphia County,PA,66.38655462184873,NA,NA,NA,NA
19152,Philadelphia County,PA,NA,47.95918367346938,NA,NA,NA
19154,Philadelphia County,PA,NA,NA,18.39080459770115,NA,NA
19355,Chester County,PA,NA,90.81632653061224,NA,NA,NA
19382,Chester County,PA,6.582633053221289,NA,NA,NA,NA
19401,Montgomery County,PA,NA,NA,10.919540229885058,NA,NA
19405,Montgomery County,PA,NA,NA,NA,99.7872340425532,NA
19422,Montgomery County,PA,NA,NA,NA,45.1063829787234,NA
19446,Montgomery County,PA,NA,NA,17.1455938697318,NA,NA
19460,Chester County,PA,22.829131652661065,NA,NA,NA,NA
19526,Berks County,PA,NA,NA,74.90421455938697,NA,NA
19560,Berks County,PA,NA,NA,85.727969348659,NA,NA
19604,Berks County,PA,NA,NA,13.88888888888889,NA,NA
02809,Bristol County,RI,NA,NA,64.08045977011494,NA,NA
02813,Washington County,RI,NA,NA,96.16858237547893,NA,NA
02816,Kent County,RI,NA,NA,NA,NA,31.6
02852,Washington County,RI,NA,NA,48.75478927203065,NA,NA
02860,Providence County,RI,NA,NA,NA,16.595744680851062,NA
02861,Providence County,RI,NA,NA,35.3448275862069,NA,NA
02864,Providence County,RI,34.87394957983193,NA,NA,NA,NA
02874,Washington County,RI,NA,NA,97.5095785440613,NA,NA
02889,Kent County,RI,NA,NA,NA,23.404255319148938,NA
02904,Providence County,RI,NA,NA,NA,24.680851063829788,NA
29045,Kershaw County,SC,NA,NA,77.68199233716476,NA,NA
29063,Richland County,SC,NA,NA,63.69731800766284,NA,NA
29108,Newberry County,SC,NA,NA,63.40996168582376,NA,NA
29138,Saluda County,SC,NA,NA,NA,NA,88.4
29150,Sumter County,SC,NA,NA,40.32567049808429,NA,NA
29153,Sumter County,SC,20.168067226890756,NA,NA,NA,NA
29154,Sumter County,SC,NA,NA,56.513409961685824,NA,NA
29204,Richland County,SC,NA,NA,NA,NA,68.8
29210,Richland County,SC,NA,NA,46.74329501915709,NA,NA
29349,Spartanburg County,SC,52.38095238095239,NA,NA,NA,NA
29353,Union County,SC,NA,92.85714285714286,NA,NA,NA
29356,Spartanburg County,SC,NA,NA,90.22988505747126,NA,NA
29403,Charleston County,SC,NA,NA,48.56321839080459,NA,NA
29412,Charleston County,SC,NA,NA,NA,NA,16.400000000000002
29414,Charleston County,SC,70.58823529411765,NA,NA,NA,NA
29456,Dorchester County,SC,NA,46.59863945578231,NA,NA,NA
29464,Charleston County,SC,24.92997198879552,NA,NA,29.361702127659573,20
29466,Charleston County,SC,NA,NA,54.11877394636016,60,NA
29501,Florence County,SC,NA,NA,35.63218390804598,NA,NA
29505,Florence County,SC,61.06442577030813,NA,NA,NA,NA
29526,Horry County,SC,NA,NA,41.475095785440615,NA,NA
29577,Horry County,SC,NA,NA,68.5823754789272,NA,NA
29579,Horry County,SC,NA,NA,NA,NA,48
29605,Greenville County,SC,NA,NA,27.68199233716475,NA,NA
29607,Greenville County,SC,21.84873949579832,NA,NA,32.97872340425532,NA
29609,Greenville County,SC,NA,NA,45.11494252873563,NA,NA
29617,Greenville County,SC,NA,NA,40.61302681992337,NA,NA
29621,Anderson County,SC,NA,NA,NA,24.46808510638298,NA
29640,Pickens County,SC,NA,NA,25.191570881226056,NA,NA
29646,Greenwood County,SC,NA,NA,NA,NA,33.2
29654,Anderson County,SC,NA,NA,75.57471264367817,NA,NA
29670,Anderson County,SC,94.9579831932773,NA,NA,NA,NA
29671,Pickens County,SC,85.43417366946778,NA,NA,NA,NA
29673,Greenville County,SC,NA,NA,NA,24.04255319148936,NA
29693,Oconee County,SC,57.84313725490197,NA,NA,NA,NA
29720,Lancaster County,SC,NA,NA,NA,35.1063829787234,NA
29730,York County,SC,NA,NA,NA,44.8936170212766,NA
29832,Edgefield County,SC,NA,98.9795918367347,NA,NA,NA
29835,McCormick County,SC,NA,NA,88.2183908045977,NA,NA
29851,Aiken County,SC,86.69467787114846,NA,NA,NA,NA
29853,Barnwell County,SC,96.21848739495799,NA,NA,NA,NA
29906,Beaufort County,SC,73.52941176470588,NA,NA,NA,NA
57042,Lake County,SD,NA,NA,NA,55.74468085106383,NA
57104,Minnehaha County,SD,NA,NA,NA,8.297872340425531,NA
57110,Minnehaha County,SD,NA,NA,NA,72.3404255319149,NA
57401,Brown County,SD,NA,NA,NA,11.27659574468085,NA
57501,Hughes County,SD,NA,NA,NA,NA,35.6
57701,Pennington County,SD,11.064425770308123,NA,NA,NA,NA
57783,Lawrence County,SD,NA,NA,NA,52.12765957446809,NA
37013,Davidson County,TN,NA,14.625850340136054,NA,NA,NA
37034,Marshall County,TN,NA,NA,86.01532567049809,NA,NA
37040,Montgomery County,TN,69.88795518207283,NA,28.256704980842912,NA,NA
37062,Williamson County,TN,NA,NA,86.30268199233716,NA,NA
37064,Williamson County,TN,56.44257703081232,NA,NA,NA,NA
37066,Sumner County,TN,NA,NA,12.164750957854405,NA,NA
37073,Robertson County,TN,76.61064425770309,NA,NA,NA,NA
37076,Davidson County,TN,NA,NA,39.46360153256705,NA,NA
37087,Wilson County,TN,NA,NA,20.019157088122604,NA,NA
37115,Davidson County,TN,NA,35.714285714285715,NA,NA,NA
37129,Rutherford County,TN,NA,NA,19.731800766283524,NA,NA
37130,Rutherford County,TN,NA,57.82312925170068,NA,NA,NA
37160,Bedford County,TN,18.76750700280112,NA,NA,NA,NA
37167,Rutherford County,TN,15.266106442577032,NA,31.417624521072796,NA,NA
37174,Williamson County,TN,NA,NA,NA,46.808510638297875,NA
37179,Williamson County,TN,89.35574229691878,NA,NA,NA,NA
37186,Sumner County,TN,NA,NA,70.49808429118774,NA,NA
37207,Davidson County,TN,NA,22.448979591836736,NA,NA,NA
37211,Davidson County,TN,NA,NA,NA,NA,24.8
37215,Davidson County,TN,NA,NA,NA,90.42553191489363,NA
37217,Davidson County,TN,NA,39.795918367346935,NA,NA,NA
37221,Davidson County,TN,NA,NA,NA,32.97872340425532,NA
37330,Franklin County,TN,82.49299719887955,NA,NA,NA,NA
37347,Marion County,TN,NA,NA,81.80076628352491,NA,NA
37379,Hamilton County,TN,NA,NA,45.49808429118774,NA,NA
37385,Monroe County,TN,NA,80.27210884353741,NA,NA,NA
37404,Hamilton County,TN,50.84033613445378,NA,NA,NA,NA
37405,Hamilton County,TN,73.10924369747899,NA,NA,NA,NA
37406,Hamilton County,TN,41.03641456582633,NA,NA,NA,NA
37411,Hamilton County,TN,NA,NA,NA,NA,67.2
37415,Hamilton County,TN,61.76470588235294,NA,NA,NA,NA
37421,Hamilton County,TN,NA,NA,32.18390804597701,NA,NA
37708,Grainger County,TN,NA,NA,NA,NA,96
37771,Loudon County,TN,68.4873949579832,NA,NA,NA,NA
37803,Blount County,TN,38.655462184873954,NA,NA,NA,NA
37804,Blount County,TN,NA,NA,NA,24.04255319148936,NA
37814,Hamblen County,TN,47.47899159663865,NA,NA,NA,NA
37818,Greene County,TN,NA,NA,84.67432950191571,NA,NA
37820,Jefferson County,TN,NA,NA,88.02681992337165,NA,NA
37843,Cocke County,TN,NA,98.9795918367347,NA,NA,NA
37847,Scott County,TN,98.17927170868347,NA,NA,NA,NA
37861,Grainger County,TN,NA,NA,NA,74.25531914893617,NA
37912,Knox County,TN,NA,NA,33.42911877394636,NA,NA
37917,Knox County,TN,33.753501400560225,NA,NA,NA,NA
37918,Knox County,TN,NA,NA,NA,28.085106382978726,NA
37920,Knox County,TN,31.512605042016805,NA,NA,NA,NA
37921,Knox County,TN,NA,33.33333333333333,NA,64.8936170212766,NA
38024,Dyer County,TN,9.663865546218489,NA,NA,44.46808510638298,NA
38028,Fayette County,TN,90.89635854341736,NA,NA,NA,NA
38053,Shelby County,TN,NA,NA,53.06513409961686,NA,NA
38105,Shelby County,TN,NA,79.25170068027211,NA,NA,NA
38106,Shelby County,TN,NA,NA,19.444444444444446,NA,NA
38109,Shelby County,TN,NA,12.244897959183673,NA,NA,NA
38111,Shelby County,TN,NA,24.489795918367346,24.61685823754789,57.02127659574469,NA
38112,Shelby County,TN,33.33333333333333,NA,NA,NA,NA
38118,Shelby County,TN,NA,NA,20.977011494252874,NA,NA
38119,Shelby County,TN,77.17086834733894,NA,NA,NA,NA
38122,Shelby County,TN,NA,65.98639455782312,NA,NA,NA
38134,Shelby County,TN,42.57703081232493,NA,NA,NA,NA
38141,Shelby County,TN,52.10084033613446,NA,NA,NA,NA
38301,Madison County,TN,NA,NA,11.973180076628353,NA,NA
38351,Henderson County,TN,NA,NA,58.429118773946364,NA,NA
38501,Putnam County,TN,NA,NA,73.65900383141762,NA,NA
38585,Van Buren County,TN,NA,NA,95.88122605363985,NA,NA
75019,Dallas County,TX,NA,NA,NA,62.5531914893617,NA
75025,Collin County,TX,NA,NA,86.11111111111111,NA,NA
75034,Denton County,TX,28.291316526610643,NA,NA,NA,NA
75038,Dallas County,TX,62.18487394957983,NA,NA,NA,NA
75041,Dallas County,TX,55.32212885154062,NA,NA,NA,NA
75043,Dallas County,TX,10.92436974789916,NA,NA,NA,NA
75060,Dallas County,TX,40.056022408963585,NA,NA,NA,NA
75068,Denton County,TX,40.476190476190474,NA,NA,NA,NA
75069,Collin County,TX,NA,NA,NA,41.702127659574465,NA
75070,Collin County,TX,NA,NA,51.053639846743295,NA,NA
75082,Collin County,TX,NA,NA,79.59770114942529,NA,NA
75104,Dallas County,TX,NA,69.04761904761905,NA,NA,NA
75115,Dallas County,TX,NA,NA,25.478927203065133,NA,NA
75154,Ellis County,TX,21.568627450980394,NA,NA,NA,NA
75180,Dallas County,TX,NA,NA,71.55172413793103,NA,NA
75217,Dallas County,TX,5.322128851540616,NA,NA,NA,NA
75218,Dallas County,TX,NA,NA,93.77394636015326,NA,NA
75220,Dallas County,TX,32.63305322128851,NA,NA,NA,NA
75223,Dallas County,TX,78.01120448179272,NA,NA,NA,NA
75229,Dallas County,TX,77.73109243697479,NA,NA,NA,NA
75236,Dallas County,TX,NA,NA,NA,92.97872340425532,NA
75237,Dallas County,TX,NA,NA,49.42528735632184,NA,NA
75243,Dallas County,TX,1.400560224089636,NA,NA,NA,NA
75249,Dallas County,TX,NA,NA,74.71264367816092,NA,NA
75253,Dallas County,TX,37.95518207282913,NA,NA,NA,NA
75482,Hopkins County,TX,48.4593837535014,NA,NA,64.68085106382979,NA
75494,Wood County,TX,NA,73.12925170068027,NA,NA,NA
75497,Wood County,TX,NA,NA,NA,84.8936170212766,NA
75559,Bowie County,TX,75.35014005602241,NA,NA,NA,NA
75601,Gregg County,TX,NA,NA,77.96934865900383,NA,NA
75604,Gregg County,TX,23.10924369747899,NA,NA,NA,NA
75605,Gregg County,TX,NA,NA,NA,NA,35.199999999999996
75645,Upshur County,TX,NA,NA,84.00383141762453,NA,NA
75652,Rusk County,TX,NA,80.95238095238095,NA,NA,NA
75701,Smith County,TX,27.73109243697479,NA,NA,NA,NA
75703,Smith County,TX,NA,NA,36.015325670498086,NA,4.8
75704,Smith County,TX,93.41736694677871,NA,NA,NA,NA
75708,Smith County,TX,NA,NA,93.96551724137932,NA,NA
75752,Henderson County,TX,NA,NA,NA,86.17021276595744,NA
75757,Smith County,TX,NA,NA,NA,51.48936170212765,NA
75762,Smith County,TX,64.14565826330532,NA,NA,NA,NA
75771,Smith County,TX,NA,NA,61.49425287356321,NA,19.6
75789,Smith County,TX,87.11484593837535,NA,NA,NA,NA
75904,Angelina County,TX,57.002801120448176,NA,NA,NA,NA
76009,Johnson County,TX,NA,NA,68.77394636015326,NA,NA
76021,Tarrant County,TX,NA,NA,85.0574712643678,NA,NA
76040,Tarrant County,TX,NA,NA,51.43678160919541,NA,NA
76048,Hood County,TX,39.21568627450981,NA,NA,NA,NA
76058,Johnson County,TX,54.48179271708683,NA,NA,NA,NA
76107,Tarrant County,TX,63.4453781512605,NA,NA,NA,NA
76111,Tarrant County,TX,NA,NA,78.73563218390804,NA,NA
76116,Tarrant County,TX,NA,NA,26.62835249042146,NA,NA
76119,Tarrant County,TX,NA,NA,10.153256704980842,NA,NA
76126,Tarrant County,TX,NA,NA,NA,79.14893617021276,NA
76132,Tarrant County,TX,NA,NA,NA,NA,57.199999999999996
76133,Tarrant County,TX,22.268907563025213,NA,NA,NA,NA
76137,Tarrant County,TX,NA,NA,23.467432950191572,NA,NA
76179,Tarrant County,TX,18.067226890756302,NA,NA,NA,NA
76180,Tarrant County,TX,NA,NA,NA,44.04255319148936,NA
76234,Wise County,TX,70.58823529411765,NA,NA,NA,NA
76247,Denton County,TX,NA,NA,85.44061302681992,NA,NA
76258,Denton County,TX,96.21848739495799,NA,NA,NA,NA
76502,Bell County,TX,NA,NA,NA,NA,6
76513,Bell County,TX,7.002801120448179,NA,10.53639846743295,NA,NA
76541,Bell County,TX,NA,NA,50.67049808429118,NA,NA
76543,Bell County,TX,13.725490196078432,NA,NA,NA,NA
76549,Bell County,TX,8.543417366946779,NA,NA,NA,NA
76574,Williamson County,TX,NA,83.33333333333334,NA,NA,NA
76579,Bell County,TX,91.59663865546219,NA,NA,NA,NA
76634,Bosque County,TX,NA,97.27891156462584,NA,NA,90
76825,McCulloch County,TX,65.26610644257703,NA,NA,NA,NA
76903,Tom Green County,TX,45.65826330532213,NA,NA,NA,NA
77004,Harris County,TX,NA,92.85714285714286,NA,NA,NA
77011,Harris County,TX,NA,NA,86.30268199233716,NA,NA
77017,Harris County,TX,NA,43.53741496598639,NA,NA,NA
77032,Harris County,TX,NA,NA,85.34482758620689,NA,NA
77036,Harris County,TX,NA,NA,NA,NA,61.6
77038,Harris County,TX,71.98879551820728,NA,NA,NA,NA
77040,Harris County,TX,NA,NA,79.98084291187739,NA,NA
77045,Harris County,TX,NA,NA,63.793103448275865,NA,NA
77060,Harris County,TX,48.17927170868347,NA,NA,NA,NA
77066,Harris County,TX,58.123249299719895,NA,NA,NA,NA
77069,Harris County,TX,NA,NA,NA,91.70212765957447,NA
77077,Harris County,TX,51.26050420168067,NA,NA,NA,NA
77078,Harris County,TX,NA,NA,79.88505747126436,NA,NA
77082,Harris County,TX,NA,NA,NA,46.38297872340426,NA
77090,Harris County,TX,55.602240896358545,NA,NA,NA,NA
77301,Montgomery County,TX,38.655462184873954,NA,NA,NA,NA
77303,Montgomery County,TX,50.280112044817926,NA,NA,NA,NA
77351,Polk County,TX,NA,38.775510204081634,NA,NA,NA
77354,Montgomery County,TX,NA,74.14965986394559,NA,NA,NA
77418,Austin County,TX,NA,NA,NA,81.48936170212767,NA
77437,Wharton County,TX,78.71148459383754,NA,NA,NA,NA
77450,Harris County,TX,NA,NA,NA,25.106382978723403,NA
77478,Fort Bend County,TX,NA,NA,NA,NA,57.99999999999999
77503,Harris County,TX,66.94677871148458,NA,NA,NA,NA
77506,Harris County,TX,NA,20.068027210884352,NA,NA,NA
77515,Brazoria County,TX,64.14565826330532,NA,NA,NA,NA
77521,Harris County,TX,24.509803921568626,NA,NA,NA,NA
77539,Galveston County,TX,NA,NA,23.084291187739463,NA,NA
77546,Galveston County,TX,NA,NA,NA,15.319148936170212,39.6
77551,Galveston County,TX,NA,45.57823129251701,NA,33.829787234042556,NA
77566,Brazoria County,TX,NA,NA,56.80076628352491,NA,NA
77568,Galveston County,TX,51.68067226890757,NA,NA,NA,NA
77575,Liberty County,TX,78.8515406162465,NA,NA,NA,NA
77578,Brazoria County,TX,NA,NA,90.51724137931035,NA,NA
77581,Brazoria County,TX,34.173669467787114,NA,NA,NA,NA
77584,Brazoria County,TX,NA,NA,NA,NA,46.800000000000004
77630,Orange County,TX,27.450980392156865,NA,NA,NA,NA
77632,Orange County,TX,39.21568627450981,NA,83.5249042145594,NA,NA
77640,Jefferson County,TX,73.10924369747899,NA,NA,NA,NA
77642,Jefferson County,TX,NA,36.054421768707485,NA,NA,NA
77662,Orange County,TX,40.056022408963585,NA,NA,NA,NA
77803,Brazos County,TX,NA,NA,30.555555555555557,NA,38
77840,Brazos County,TX,48.03921568627451,NA,NA,NA,NA
77845,Brazos County,TX,NA,NA,NA,NA,5.6000000000000005
77859,Robertson County,TX,NA,NA,NA,NA,85.6
77864,Madison County,TX,91.59663865546219,NA,NA,NA,NA
77901,Victoria County,TX,NA,NA,28.9272030651341,NA,NA
77954,DeWitt County,TX,NA,NA,74.52107279693486,NA,NA
78040,Webb County,TX,56.72268907563025,NA,NA,NA,NA
78045,Webb County,TX,NA,NA,26.53256704980843,NA,NA
78070,Comal County,TX,NA,91.83673469387756,NA,87.2340425531915,NA
78076,Zapata County,TX,NA,NA,90.32567049808429,NA,NA
78130,Comal County,TX,24.2296918767507,NA,NA,NA,NA
78148,Bexar County,TX,NA,88.09523809523809,NA,NA,NA
78201,Bexar County,TX,NA,31.292517006802722,26.72413793103448,NA,NA
78207,Bexar County,TX,4.621848739495799,NA,NA,NA,NA
78210,Bexar County,TX,NA,NA,64.36781609195403,NA,NA
78213,Bexar County,TX,NA,17.006802721088434,NA,NA,NA
78216,Bexar County,TX,44.957983193277315,NA,48.371647509578544,NA,NA
78217,Bexar County,TX,NA,NA,NA,NA,86.4
78223,Bexar County,TX,NA,19.387755102040817,NA,NA,NA
78224,Bexar County,TX,50.56022408963585,NA,NA,NA,NA
78229,Bexar County,TX,NA,NA,58.52490421455939,NA,NA
78244,Bexar County,TX,51.26050420168067,NA,NA,NA,NA
78261,Bexar County,TX,NA,NA,92.81609195402298,97.02127659574468,NA
78380,Nueces County,TX,NA,NA,NA,75.31914893617021,NA
78408,Nueces County,TX,78.01120448179272,NA,NA,NA,NA
78410,Nueces County,TX,NA,NA,94.54022988505747,NA,NA
78411,Nueces County,TX,NA,NA,62.54789272030651,NA,NA
78412,Nueces County,TX,30.672268907563026,NA,59.195402298850574,NA,NA
78501,Hidalgo County,TX,13.585434173669467,NA,NA,NA,NA
78521,Cameron County,TX,NA,NA,36.30268199233716,NA,NA
78537,Hidalgo County,TX,NA,6.802721088435375,NA,NA,NA
78541,Hidalgo County,TX,28.851540616246496,NA,NA,NA,NA
78577,Hidalgo County,TX,43.417366946778714,NA,NA,NA,NA
78611,Burnet County,TX,NA,NA,82.75862068965517,NA,NA
78613,Williamson County,TX,NA,61.564625850340136,NA,22.127659574468083,NA
78621,Bastrop County,TX,NA,90.81632653061224,NA,NA,NA
78624,Gillespie County,TX,93.27731092436974,NA,NA,NA,NA
78628,Williamson County,TX,NA,NA,77.87356321839081,31.70212765957447,NA
78629,Gonzales County,TX,77.59103641456583,NA,NA,NA,NA
78641,Williamson County,TX,NA,NA,24.521072796934863,NA,NA
78653,Travis County,TX,NA,86.73469387755102,NA,NA,NA
78666,Hays County,TX,18.34733893557423,NA,NA,NA,NA
78702,Travis County,TX,78.8515406162465,NA,NA,NA,NA
78723,Travis County,TX,NA,NA,67.33716475095785,NA,NA
78744,Travis County,TX,46.63865546218487,NA,NA,NA,NA
78752,Travis County,TX,84.87394957983193,NA,NA,NA,NA
78758,Travis County,TX,53.78151260504202,NA,NA,NA,NA
78801,Uvalde County,TX,NA,53.06122448979592,NA,NA,NA
79109,Randall County,TX,42.016806722689076,NA,NA,NA,NA
79110,Randall County,TX,65.96638655462185,NA,NA,NA,NA
79118,Randall County,TX,NA,61.904761904761905,NA,NA,NA
79347,Bailey County,TX,NA,NA,NA,87.65957446808511,NA
79403,Lubbock County,TX,50.14005602240896,NA,NA,NA,NA
79407,Lubbock County,TX,NA,68.70748299319727,NA,NA,NA
79703,Midland County,TX,NA,NA,NA,82.76595744680851,NA
79745,Winkler County,TX,89.35574229691878,NA,NA,NA,NA
79764,Ector County,TX,65.82633053221288,NA,NA,NA,NA
79905,El Paso County,TX,NA,NA,NA,65.74468085106383,NA
79927,El Paso County,TX,55.74229691876751,15.646258503401361,NA,NA,NA
84003,Utah County,UT,NA,NA,48.46743295019157,NA,NA
84009,Salt Lake County,UT,NA,NA,60.15325670498084,NA,NA
84015,Davis County,UT,NA,NA,NA,58.51063829787234,NA
84020,Salt Lake County,UT,NA,NA,48.180076628352495,NA,NA
84047,Salt Lake County,UT,NA,NA,30.938697318007662,NA,NA
84058,Utah County,UT,NA,NA,86.11111111111111,NA,NA
84088,Salt Lake County,UT,NA,NA,41.28352490421456,NA,NA
84095,Salt Lake County,UT,24.509803921568626,NA,NA,35.1063829787234,NA
84096,Salt Lake County,UT,8.403361344537815,NA,NA,NA,NA
84103,Salt Lake County,UT,NA,NA,NA,77.6595744680851,NA
84107,Salt Lake County,UT,NA,NA,45.40229885057471,NA,NA
84109,Salt Lake County,UT,92.29691876750701,NA,NA,NA,NA
84111,Salt Lake County,UT,NA,NA,78.544061302682,87.87234042553192,NA
84115,Salt Lake County,UT,NA,NA,42.72030651340996,NA,NA
84116,Salt Lake County,UT,NA,NA,NA,42.12765957446808,NA
84123,Salt Lake County,UT,34.73389355742297,NA,NA,NA,NA
84124,Salt Lake County,UT,88.79551820728291,NA,NA,NA,NA
84332,Cache County,UT,96.77871148459384,NA,NA,NA,NA
84404,Weber County,UT,NA,NA,23.850574712643677,NA,NA
84651,Utah County,UT,40.33613445378151,NA,NA,NA,NA
84765,Washington County,UT,NA,NA,NA,99.36170212765958,NA
84780,Washington County,UT,NA,NA,79.50191570881226,NA,NA
05089,Windsor County,VT,98.8795518207283,NA,NA,NA,NA
05201,Bennington County,VT,NA,NA,52.68199233716475,NA,NA
05478,Franklin County,VT,NA,NA,85.63218390804597,NA,NA
05491,Addison County,VT,NA,NA,NA,84.46808510638299,NA
05701,Rutland County,VT,NA,NA,42.72030651340996,NA,NA
05753,Addison County,VT,NA,NA,NA,80.85106382978722,NA
20121,Fairfax County,VA,NA,96.5986394557823,NA,NA,NA
20148,Loudoun County,VA,NA,NA,64.08045977011494,NA,NA
22015,Fairfax County,VA,55.74229691876751,NA,NA,NA,NA
22033,Fairfax County,VA,NA,NA,66.76245210727969,NA,NA
22079,Fairfax County,VA,43.13725490196079,NA,NA,NA,NA
22153,Fairfax County,VA,NA,NA,65.13409961685824,NA,NA
22193,Prince William County,VA,8.823529411764707,NA,NA,NA,NA
22407,Spotsylvania County,VA,25.07002801120448,NA,NA,NA,NA
22551,Spotsylvania County,VA,NA,64.62585034013605,NA,NA,NA
22655,Frederick County,VA,NA,NA,64.65517241379311,NA,NA
22911,Albemarle County,VA,NA,NA,77.01149425287356,NA,NA
22980,Waynesboro city,VA,NA,NA,NA,NA,6.4
23060,Henrico County,VA,52.94117647058824,NA,NA,NA,NA
23222,Richmond city,VA,NA,NA,NA,NA,47.599999999999994
23223,Henrico County,VA,NA,35.374149659863946,NA,NA,NA
23228,Henrico County,VA,53.50140056022409,NA,NA,NA,NA
23231,Henrico County,VA,NA,25.850340136054424,NA,NA,NA
23234,Chesterfield County,VA,NA,NA,22.22222222222222,NA,NA
23322,Chesapeake city,VA,NA,51.02040816326531,NA,NA,NA
23324,Chesapeake city,VA,17.787114845938376,26.53061224489796,NA,NA,NA
23452,Virginia Beach city,VA,NA,28.2312925170068,25.191570881226056,NA,NA
23455,Virginia Beach city,VA,NA,NA,NA,12.978723404255318,NA
23462,Virginia Beach city,VA,18.627450980392158,NA,NA,NA,NA
23502,Norfolk city,VA,NA,NA,39.272030651341,NA,NA
23605,Newport News city,VA,59.38375350140056,NA,NA,NA,NA
23606,Newport News city,VA,NA,NA,54.88505747126437,NA,NA
23607,Newport News city,VA,NA,NA,22.60536398467433,NA,NA
24153,Salem city,VA,NA,NA,NA,23.829787234042556,NA
24279,Wise County,VA,NA,NA,85.91954022988506,NA,NA
24333,Galax city,VA,NA,NA,52.490421455938694,NA,NA
24401,Staunton city,VA,NA,37.07482993197279,NA,NA,NA
24450,Rockbridge County,VA,NA,85.71428571428571,NA,NA,NA
24523,Bedford County,VA,NA,NA,35.91954022988506,NA,NA
24651,Tazewell County,VA,NA,NA,NA,88.29787234042553,NA
98001,King County,WA,NA,NA,NA,47.87234042553192,NA
98003,King County,WA,27.030812324929972,NA,NA,NA,NA
98023,King County,WA,NA,NA,29.40613026819923,NA,NA
98031,King County,WA,NA,66.3265306122449,77.29885057471265,NA,77.60000000000001
98032,King County,WA,NA,NA,NA,54.8936170212766,NA
98037,Snohomish County,WA,NA,NA,NA,NA,66.8
98052,King County,WA,NA,NA,54.214559386973185,NA,NA
98058,King County,WA,NA,NA,NA,NA,42.4
98065,King County,WA,NA,NA,NA,95.1063829787234,NA
98102,King County,WA,NA,NA,NA,74.8936170212766,NA
98115,King County,WA,NA,NA,NA,NA,33.6
98118,King County,WA,NA,NA,NA,NA,37.2
98119,King County,WA,NA,NA,76.24521072796935,NA,NA
98121,King County,WA,NA,NA,NA,NA,96.39999999999999
98188,King County,WA,NA,NA,73.37164750957854,NA,NA
98203,Snohomish County,WA,NA,82.31292517006803,NA,NA,NA
98226,Whatcom County,WA,NA,NA,NA,79.36170212765957,NA
98233,Skagit County,WA,NA,NA,NA,62.34042553191489,NA
98239,Island County,WA,NA,NA,NA,NA,65.60000000000001
98252,Snohomish County,WA,NA,NA,86.30268199233716,NA,NA
98272,Snohomish County,WA,68.0672268907563,NA,NA,NA,NA
98275,Snohomish County,WA,54.061624649859944,NA,NA,NA,NA
98277,Island County,WA,NA,NA,81.03448275862068,NA,NA
98284,Skagit County,WA,NA,NA,NA,31.27659574468085,NA
98294,Snohomish County,WA,NA,NA,93.39080459770115,NA,NA
98332,Pierce County,WA,84.45378151260505,NA,NA,NA,NA
98335,Pierce County,WA,NA,NA,66.4750957854406,42.765957446808514,NA
98362,Clallam County,WA,NA,NA,NA,NA,8.799999999999999
98366,Kitsap County,WA,NA,NA,NA,37.4468085106383,NA
98367,Kitsap County,WA,NA,NA,90.90038314176245,NA,NA
98374,Pierce County,WA,NA,NA,NA,50,NA
98383,Kitsap County,WA,NA,NA,NA,63.61702127659574,NA
98390,Pierce County,WA,NA,NA,NA,93.82978723404256,NA
98422,Pierce County,WA,NA,NA,68.19923371647509,NA,NA
98499,Pierce County,WA,NA,NA,48.75478927203065,NA,NA
98501,Thurston County,WA,NA,NA,90.7088122605364,NA,NA
98520,Grays Harbor County,WA,NA,NA,68.00766283524904,NA,NA
98584,Mason County,WA,45.378151260504204,NA,NA,NA,NA
98661,Clark County,WA,37.254901960784316,NA,NA,NA,NA
98662,Clark County,WA,83.19327731092437,NA,NA,NA,NA
98665,Clark County,WA,NA,NA,NA,NA,55.60000000000001
98674,Cowlitz County,WA,NA,99.65986394557824,NA,NA,92
98684,Clark County,WA,NA,NA,85.44061302681992,NA,NA
98801,Chelan County,WA,NA,NA,NA,9.787234042553191,NA
98823,Grant County,WA,93.55742296918767,NA,NA,NA,NA
98855,Okanogan County,WA,NA,NA,NA,NA,93.2
98902,Yakima County,WA,48.17927170868347,NA,NA,NA,NA
99114,Stevens County,WA,NA,NA,83.62068965517241,NA,NA
99301,Franklin County,WA,2.380952380952381,NA,NA,NA,NA
99336,Benton County,WA,NA,16.3265306122449,NA,2.553191489361702,NA
99337,Benton County,WA,25.07002801120448,NA,NA,NA,NA
99352,Benton County,WA,NA,NA,45.593869731800766,NA,NA
99362,Walla Walla County,WA,NA,NA,NA,16.382978723404253,NA
20009,District of Columbia,DC,NA,NA,69.34865900383141,NA,NA
20011,District of Columbia,DC,71.28851540616246,NA,NA,NA,NA
20020,District of Columbia,DC,7.563025210084033,NA,NA,NA,NA
20024,District of Columbia,DC,NA,NA,64.272030651341,NA,NA
20032,District of Columbia,DC,9.243697478991598,NA,NA,NA,NA
24740,Mercer County,WV,NA,NA,34.57854406130268,40.85106382978723,NA
24986,Greenbrier County,WV,NA,NA,92.04980842911877,NA,NA
25043,Clay County,WV,NA,NA,97.79693486590038,NA,NA
25071,Kanawha County,WV,NA,85.71428571428571,NA,NA,NA
25302,Kanawha County,WV,NA,NA,61.398467432950184,NA,NA
25405,Berkeley County,WV,NA,NA,NA,80.63829787234043,NA
25504,Cabell County,WV,NA,NA,63.40996168582376,NA,NA
25550,Mason County,WV,NA,NA,NA,75.53191489361703,NA
25601,Logan County,WV,NA,NA,75.95785440613027,NA,NA
25704,Wayne County,WV,NA,NA,32.662835249042146,NA,NA
25801,Raleigh County,WV,17.507002801120446,NA,NA,NA,NA
26101,Wood County,WV,NA,NA,NA,7.659574468085106,NA
26201,Upshur County,WV,NA,NA,25.478927203065133,NA,NA
26416,Barbour County,WV,NA,NA,NA,49.148936170212764,NA
26554,Marion County,WV,NA,NA,4.693486590038314,NA,NA
53012,Ozaukee County,WI,82.91316526610645,NA,NA,NA,NA
53014,Calumet County,WI,90.19607843137256,NA,NA,NA,NA
53110,Milwaukee County,WI,44.11764705882353,NA,NA,41.06382978723404,NA
53126,Racine County,WI,NA,NA,NA,95.53191489361701,NA
53142,Kenosha County,WI,NA,NA,11.781609195402298,NA,NA
53146,Waukesha County,WI,NA,NA,92.91187739463601,NA,NA
53154,Milwaukee County,WI,40.61624649859944,NA,NA,NA,NA
53188,Waukesha County,WI,NA,71.7687074829932,NA,NA,NA
53189,Waukesha County,WI,NA,NA,NA,NA,45.6
53205,Milwaukee County,WI,67.50700280112045,NA,2.9693486590038316,NA,NA
53206,Milwaukee County,WI,NA,NA,NA,14.680851063829786,NA
53207,Milwaukee County,WI,NA,NA,NA,39.787234042553195,NA
53208,Milwaukee County,WI,NA,22.789115646258505,NA,NA,NA
53209,Milwaukee County,WI,NA,13.60544217687075,NA,NA,NA
53210,Milwaukee County,WI,10.224089635854341,NA,NA,NA,NA
53212,Milwaukee County,WI,NA,NA,16.187739463601535,NA,NA
53214,Milwaukee County,WI,NA,NA,13.984674329501914,NA,NA
53215,Milwaukee County,WI,NA,5.442176870748299,NA,NA,NA
53216,Milwaukee County,WI,5.042016806722689,NA,NA,NA,NA
53217,Milwaukee County,WI,NA,NA,39.84674329501915,NA,18
53218,Milwaukee County,WI,NA,12.925170068027212,8.333333333333332,NA,NA
53219,Milwaukee County,WI,17.366946778711483,NA,NA,NA,NA
53224,Milwaukee County,WI,NA,NA,NA,60.42553191489362,NA
53227,Milwaukee County,WI,NA,NA,40.13409961685824,65.31914893617021,NA
53402,Racine County,WI,NA,NA,7.088122605363985,NA,NA
53406,Racine County,WI,NA,NA,NA,NA,5.2
53528,Dane County,WI,NA,NA,NA,90,NA
53532,Dane County,WI,NA,NA,NA,89.57446808510639,NA
53538,Jefferson County,WI,NA,NA,NA,NA,32.800000000000004
53545,Rock County,WI,21.008403361344538,NA,NA,NA,NA
53549,Jefferson County,WI,NA,NA,NA,62.12765957446808,NA
53562,Dane County,WI,NA,NA,NA,NA,28.799999999999997
53563,Rock County,WI,NA,NA,84.2911877394636,NA,NA
53590,Dane County,WI,NA,NA,75,NA,30
53597,Dane County,WI,NA,NA,87.5478927203065,NA,NA
53704,Dane County,WI,NA,NA,13.122605363984674,NA,NA
53705,Dane County,WI,71.56862745098039,NA,NA,NA,NA
53711,Dane County,WI,NA,NA,70.49808429118774,20.851063829787233,NA
53805,Grant County,WI,NA,NA,97.12643678160919,NA,NA
53916,Dodge County,WI,NA,NA,NA,53.191489361702125,NA
53959,Sauk County,WI,NA,NA,47.701149425287355,NA,NA
54166,Shawano County,WI,NA,NA,NA,NA,53.2
54220,Manitowoc County,WI,NA,NA,7.950191570881227,NA,NA
54241,Manitowoc County,WI,NA,NA,NA,NA,46
54304,Brown County,WI,NA,NA,24.904214559386972,NA,NA
54451,Taylor County,WI,NA,NA,NA,NA,62
54457,Wood County,WI,NA,NA,83.33333333333334,NA,NA
54501,Oneida County,WI,NA,NA,NA,27.872340425531917,NA
54601,La Crosse County,WI,NA,NA,34.099616858237546,NA,0.4
54634,Vernon County,WI,99.85994397759103,NA,NA,NA,NA
54703,Eau Claire County,WI,NA,NA,24.233716475095786,NA,NA
54758,Trempealeau County,WI,97.47899159663865,NA,NA,NA,NA
54806,Ashland County,WI,NA,73.12925170068027,NA,NA,NA
54812,Barron County,WI,NA,NA,NA,NA,82.8
54843,Sawyer County,WI,91.03641456582633,NA,NA,NA,NA
54880,Douglas County,WI,8.123249299719888,NA,NA,NA,NA
54902,Winnebago County,WI,NA,NA,59.961685823754785,NA,NA
54911,Outagamie County,WI,NA,NA,44.157088122605366,NA,NA
54923,Green Lake County,WI,NA,95.23809523809523,NA,NA,NA
54944,Outagamie County,WI,92.85714285714286,NA,NA,NA,NA
54952,Winnebago County,WI,48.4593837535014,NA,NA,NA,NA
54956,Winnebago County,WI,NA,NA,30.3639846743295,NA,NA
82501,Fremont County,WY,NA,NA,NA,77.4468085106383,NA
