ZipCode,county,state,Geriatric
36093,Elmore County,AL,72.4907063197026
36206,Calhoun County,AL,52.41635687732342
36695,Mobile County,AL,26.394052044609666
85215,Maricopa County,AZ,83.64312267657994
85255,Maricopa County,AZ,14.12639405204461
85714,Pima County,AZ,67.28624535315984
86404,Mohave County,AZ,23.79182156133829
71909,Garland County,AR,75.09293680297398
72205,Pulaski County,AR,61.33828996282528
72756,Benton County,AR,57.62081784386617
72903,Sebastian County,AR,93.3085501858736
72927,Logan County,AR,54.646840148698885
90042,Los Angeles County,CA,78.06691449814126
90210,Los Angeles County,CA,8.921933085501859
90275,Los Angeles County,CA,3.3457249070631967
91390,Los Angeles County,CA,79.182156133829
92028,San Diego County,CA,67.65799256505576
92118,San Diego County,CA,20.44609665427509
92120,San Diego County,CA,31.59851301115242
92509,Riverside County,CA,23.04832713754647
92562,Riverside County,CA,21.933085501858738
92587,Riverside County,CA,50.92936802973978
92612,Orange County,CA,96.6542750929368
92649,Orange County,CA,73.23420074349443
92683,Orange County,CA,15.241635687732341
92692,Orange County,CA,4.089219330855019
93001,Ventura County,CA,33.08550185873606
93446,San Luis Obispo County,CA,64.31226765799256
94107,San Francisco County,CA,30.855018587360593
95008,Santa Clara County,CA,59.479553903345725
95030,Santa Clara County,CA,63.19702602230484
95336,San Joaquin County,CA,68.77323420074349
95340,Merced County,CA,86.61710037174721
95370,Tuolumne County,CA,2.2304832713754648
95650,Placer County,CA,73.97769516728626
95687,Solano County,CA,10.408921933085502
95818,Sacramento County,CA,94.79553903345726
80229,Adams County,CO,74.34944237918215
80906,El Paso County,CO,38.28996282527881
06111,Hartford County,CT,89.21933085501858
06484,Fairfield County,CT,7.434944237918216
06811,Fairfield County,CT,65.05576208178438
06851,Fairfield County,CT,66.17100371747212
19805,New Castle County,DE,16.356877323420075
32011,Nassau County,FL,32.342007434944236
32060,Suwannee County,FL,78.81040892193309
32953,Brevard County,FL,64.68401486988847
33009,Broward County,FL,84.38661710037175
33137,Miami-Dade County,FL,69.51672862453532
33140,Miami-Dade County,FL,9.66542750929368
33179,Miami-Dade County,FL,22.676579925650557
33180,Miami-Dade County,FL,6.319702602230483
33408,Palm Beach County,FL,43.866171003717476
33410,Palm Beach County,FL,39.03345724907063
33462,Palm Beach County,FL,76.57992565055763
33477,Palm Beach County,FL,46.468401486988846
33484,Palm Beach County,FL,86.98884758364312
33523,Pasco County,FL,94.05204460966543
33647,Hillsborough County,FL,21.561338289962826
33712,Pinellas County,FL,57.99256505576208
33803,Polk County,FL,42.00743494423792
34109,Collier County,FL,14.49814126394052
34229,Sarasota County,FL,85.13011152416357
34233,Sarasota County,FL,13.382899628252787
34235,Sarasota County,FL,18.587360594795538
34601,Hernando County,FL,47.95539033457249
34746,Osceola County,FL,92.56505576208178
34994,Martin County,FL,44.60966542750929
30116,Carroll County,GA,74.72118959107806
30217,Heard County,GA,95.91078066914498
30253,Henry County,GA,24.53531598513011
30548,Jackson County,GA,36.80297397769517
31331,McIntosh County,GA,70.26022304832715
31605,Lowndes County,GA,99.62825278810409
31721,Dougherty County,GA,61.71003717472119
31820,Muscogee County,GA,53.159851301115246
60403,Will County,IL,28.25278810408922
60525,Cook County,IL,82.5278810408922
60620,Cook County,IL,43.12267657992565
60901,Kankakee County,IL,22.304832713754646
61021,Lee County,IL,88.10408921933085
61114,Winnebago County,IL,24.907063197026023
61115,Winnebago County,IL,94.42379182156134
62363,Pike County,IL,40.14869888475837
46227,Marion County,IN,29.739776951672862
46268,Marion County,IN,15.613382899628252
47102,Scott County,IN,66.54275092936803
47130,Clark County,IN,39.77695167286245
47150,Floyd County,IN,84.01486988847584
47302,Delaware County,IN,81.04089219330855
47711,Vanderburgh County,IN,9.293680297397769
47905,Tippecanoe County,IN,7.063197026022305
50111,Polk County,IA,76.95167286245353
50548,Humboldt County,IA,50.55762081784386
66209,Johnson County,KS,17.100371747211895
40031,Oldham County,KY,25.650557620817843
40258,Jefferson County,KY,49.44237918215613
40356,Jessamine County,KY,48.698884758364315
40391,Clark County,KY,12.267657992565056
70360,Terrebonne Parish,LA,21.189591078066915
70538,St. Mary Parish,LA,65.79925650557621
71108,Caddo Parish,LA,48.3271375464684
04901,Kennebec County,ME,87.73234200743495
20785,Prince George's County,MD,63.94052044609665
21286,Baltimore County,MD,49.814126394052046
21804,Wicomico County,MD,42.75092936802974
01013,Hampden County,MA,45.72490706319702
01030,Hampden County,MA,69.14498141263941
01906,Essex County,MA,1.858736059479554
02026,Norfolk County,MA,39.405204460966544
02062,Norfolk County,MA,80.66914498141264
02090,Norfolk County,MA,24.1635687732342
02452,Middlesex County,MA,31.226765799256505
02474,Middlesex County,MA,37.174721189591075
02642,Barnstable County,MA,100
02648,Barnstable County,MA,34.572490706319705
02673,Barnstable County,MA,85.87360594795538
48084,Oakland County,MI,80.29739776951673
48146,Wayne County,MI,13.011152416356877
48228,Wayne County,MI,18.21561338289963
48316,Macomb County,MI,44.237918215613384
48390,Oakland County,MI,20.074349442379184
48706,Bay County,MI,1.1152416356877324
49083,Kalamazoo County,MI,79.92565055762083
49127,Berrien County,MI,98.14126394052045
49307,Mecosta County,MI,89.59107806691449
49418,Kent County,MI,51.301115241635685
55014,Anoka County,MN,66.54275092936803
55044,Dakota County,MN,91.07806691449815
55057,Rice County,MN,38.66171003717472
38756,Washington County,MS,72.11895910780669
39175,Hinds County,MS,62.0817843866171
63042,St. Louis County,MO,40.89219330855018
63123,St. Louis County,MO,0.7434944237918215
63146,St. Louis County,MO,17.472118959107807
63401,Marion County,MO,47.21189591078067
64123,Jackson County,MO,71.74721189591078
64128,Jackson County,MO,68.02973977695167
65270,Randolph County,MO,35.687732342007436
59101,Yellowstone County,MT,87.36059479553904
59701,Silver Bow County,MT,81.78438661710037
89122,Clark County,NV,28.624535315985128
03052,Hillsborough County,NH,52.04460966542751
03062,Hillsborough County,NH,30.483271375464682
03079,Rockingham County,NH,36.059479553903344
03431,Cheshire County,NH,72.86245353159852
03458,Hillsborough County,NH,98.51301115241635
03841,Rockingham County,NH,57.249070631970255
07045,Morris County,NJ,84.75836431226766
07405,Morris County,NJ,60.223048327137555
07646,Bergen County,NJ,58.36431226765799
08203,Atlantic County,NJ,28.99628252788104
08807,Somerset County,NJ,56.13382899628253
08822,Hunterdon County,NJ,51.6728624535316
08861,Middlesex County,NJ,46.84014869888476
08863,Middlesex County,NJ,54.27509293680297
08873,Somerset County,NJ,33.82899628252788
10030,New York County,NY,65.4275092936803
10567,Westchester County,NY,91.82156133828995
10952,Rockland County,NY,71.37546468401487
10954,Rockland County,NY,30.111524163568777
11776,Suffolk County,NY,88.47583643122677
11933,Suffolk County,NY,82.8996282527881
13152,Onondaga County,NY,71.00371747211895
14120,Niagara County,NY,10.780669144981413
14212,Erie County,NY,63.56877323420075
27509,Granville County,NC,53.53159851301115
27615,Wake County,NC,5.5762081784386615
28079,Union County,NC,23.42007434944238
28150,Cleveland County,NC,55.01858736059479
28273,Mecklenburg County,NC,46.09665427509294
28303,Cumberland County,NC,27.881040892193308
28352,Scotland County,NC,98.88475836431226
28451,Brunswick County,NC,59.10780669144982
28472,Columbus County,NC,26.765799256505574
28675,Alleghany County,NC,47.58364312267658
28789,Jackson County,NC,77.69516728624535
28904,Clay County,NC,76.2081784386617
58104,Cass County,ND,60.594795539033456
58703,Ward County,ND,11.895910780669144
43212,Franklin County,OH,89.96282527881041
43606,Lucas County,OH,27.137546468401485
43614,Lucas County,OH,8.178438661710038
43701,Muskingum County,OH,0.37174721189591076
44039,Lorain County,OH,88.84758364312268
44124,Cuyahoga County,OH,0
44129,Cuyahoga County,OH,75.8364312267658
44141,Cuyahoga County,OH,78.43866171003717
44805,Ashland County,OH,1.486988847583643
44890,Huron County,OH,34.94423791821561
44906,Richland County,OH,59.85130111524164
44907,Richland County,OH,96.28252788104089
45356,Miami County,OH,13.754646840148698
45429,Montgomery County,OH,33.457249070631974
73446,Marshall County,OK,83.27137546468401
74365,Mayes County,OK,95.53903345724906
97034,Clackamas County,OR,19.33085501858736
97411,Coos County,OR,73.60594795539033
15104,Allegheny County,PA,36.43122676579926
15146,Allegheny County,PA,14.869888475836431
15857,Elk County,PA,62.45353159851301
17522,Lancaster County,PA,55.39033457249071
17584,Lancaster County,PA,90.33457249070632
18966,Bucks County,PA,86.2453531598513
19083,Delaware County,PA,11.152416356877323
19115,Philadelphia County,PA,4.83271375464684
19606,Berks County,PA,68.40148698884758
02882,Washington County,RI,41.63568773234201
02888,Kent County,RI,58.7360594795539
02909,Providence County,RI,45.353159851301115
02920,Providence County,RI,3.717472118959108
29306,Spartanburg County,SC,44.98141263940521
29576,Horry County,SC,6.691449814126393
29617,Greenville County,SC,15.985130111524162
29657,Pickens County,SC,60.966542750929364
29672,Oconee County,SC,79.5539033457249
29676,Oconee County,SC,93.68029739776952
29681,Greenville County,SC,40.520446096654275
29691,Oconee County,SC,91.44981412639405
37066,Sumner County,TN,12.639405204460965
37331,McMinn County,TN,37.54646840148699
37604,Washington County,TN,16.728624535315987
37857,Hawkins County,TN,20.44609665427509
38117,Shelby County,TN,32.71375464684015
38139,Shelby County,TN,69.88847583643123
75069,Collin County,TX,11.524163568773234
75935,Shelby County,TX,75.46468401486989
76247,Denton County,TX,82.15613382899627
76354,Wichita County,TX,42.37918215613383
76567,Milam County,TX,70.63197026022306
76710,McLennan County,TX,5.947955390334572
77360,Polk County,TX,90.70631970260223
77377,Harris County,TX,97.76951672862454
77429,Harris County,TX,55.762081784386616
77510,Galveston County,TX,53.90334572490706
77706,Jefferson County,TX,29.36802973977695
78237,Bexar County,TX,31.970260223048324
78245,Bexar County,TX,27.509293680297397
78254,Bexar County,TX,43.49442379182156
78577,Hidalgo County,TX,4.4609665427509295
78730,Travis County,TX,92.93680297397769
79106,Potter County,TX,24.907063197026023
79360,Gaines County,TX,85.50185873605948
79364,Lubbock County,TX,97.02602230483272
84054,Davis County,UT,56.50557620817844
22039,Fairfax County,VA,99.25650557620817
22980,Waynesboro city,VA,56.877323420074354
23040,Cumberland County,VA,77.32342007434944
23111,Hanover County,VA,8.550185873605948
23324,Chesapeake city,VA,19.702602230483272
23452,Virginia Beach city,VA,2.6022304832713754
24018,Roanoke County,VA,2.973977695167286
98026,Snohomish County,WA,97.39776951672863
98036,Snohomish County,WA,81.41263940520446
98103,King County,WA,49.07063197026022
98112,King County,WA,35.31598513011153
98277,Island County,WA,5.204460966542751
98296,Snohomish County,WA,92.19330855018588
98354,Pierce County,WA,50.18587360594795
98683,Clark County,WA,26.022304832713754
98926,Kittitas County,WA,10.037174721189592
99354,Benton County,WA,34.20074349442379
53080,Ozaukee County,WI,52.78810408921933
53092,Ozaukee County,WI,41.2639405204461
53105,Racine County,WI,37.9182156133829
53142,Kenosha County,WI,18.95910780669145
53177,Racine County,WI,95.16728624535315
53546,Rock County,WI,17.843866171003718
54166,Shawano County,WI,62.825278810408925
54494,Wood County,WI,7.806691449814126
