ZipCode,county,state,Pediatric,Adult,Retirement,Geriatric
35007,Shelby County,AL,NA,57.650273224043715,NA,NA
35205,Jefferson County,AL,NA,71.85792349726776,NA,NA
35211,Jefferson County,AL,NA,NA,27.30696798493409,NA
35228,Jefferson County,AL,NA,NA,80.7909604519774,NA
35442,Pickens County,AL,NA,85.24590163934425,NA,NA
36022,Elmore County,AL,NA,NA,81.16760828625236,NA
36104,Montgomery County,AL,NA,NA,76.64783427495291,NA
36312,Houston County,AL,NA,NA,87.38229755178908,NA
36323,Coffee County,AL,NA,NA,89.45386064030131,NA
36605,Mobile County,AL,NA,NA,52.730696798493405,NA
36609,Mobile County,AL,83.20610687022901,NA,66.85499058380414,NA
99502,Anchorage Municipality,AK,NA,NA,77.02448210922788,NA
99576,Dillingham Census Area,AK,87.40458015267176,NA,NA,NA
99835,Sitka City and Borough,AK,NA,NA,78.15442561205273,NA
85006,Maricopa County,AZ,NA,NA,NA,84.66666666666667
85007,Maricopa County,AZ,57.63358778625955,NA,NA,NA
85008,Maricopa County,AZ,13.740458015267176,NA,NA,NA
85014,Maricopa County,AZ,NA,51.91256830601093,NA,NA
85017,Maricopa County,AZ,27.099236641221374,NA,NA,NA
85018,Maricopa County,AZ,68.32061068702289,42.89617486338798,NA,NA
85027,Maricopa County,AZ,71.37404580152672,NA,NA,NA
85033,Maricopa County,AZ,10.305343511450381,NA,NA,NA
85035,Maricopa County,AZ,38.93129770992366,NA,NA,NA
85040,Maricopa County,AZ,18.702290076335878,NA,NA,NA
85042,Maricopa County,AZ,33.969465648854964,NA,NA,NA
85044,Maricopa County,AZ,66.79389312977099,NA,NA,NA
85248,Maricopa County,AZ,NA,63.661202185792355,NA,NA
85306,Maricopa County,AZ,NA,NA,62.14689265536724,NA
85321,Pima County,AZ,78.62595419847328,93.98907103825137,NA,NA
85339,Maricopa County,AZ,75.57251908396947,27.049180327868854,NA,NA
85344,La Paz County,AZ,50.38167938931297,45.90163934426229,NA,NA
85353,Maricopa County,AZ,46.18320610687023,NA,NA,NA
85364,Yuma County,AZ,16.412213740458014,NA,NA,NA
85374,Maricopa County,AZ,NA,NA,21.657250470809792,NA
85378,Maricopa County,AZ,89.69465648854961,NA,NA,NA
85530,Graham County,AZ,56.10687022900763,NA,NA,NA
85542,Gila County,AZ,56.10687022900763,95.08196721311475,NA,NA
85550,Graham County,AZ,57.25190839694656,93.44262295081968,NA,NA
85607,Cochise County,AZ,29.389312977099237,NA,NA,NA
85634,Pima County,AZ,92.74809160305344,27.322404371584703,33.33333333333333,NA
85648,Santa Cruz County,AZ,NA,81.69398907103826,NA,NA
85650,Cochise County,AZ,NA,NA,60.64030131826742,NA
85746,Pima County,AZ,9.541984732824428,NA,NA,NA
85749,Pima County,AZ,NA,NA,42.749529190207156,NA
85755,Pima County,AZ,NA,NA,52.16572504708098,NA
85941,Apache County,AZ,3.0534351145038165,50.27322404371585,NA,NA
86001,Coconino County,AZ,66.79389312977099,NA,NA,NA
86004,Coconino County,AZ,NA,10.655737704918032,NA,NA
86005,Coconino County,AZ,NA,57.103825136612016,NA,NA
86033,Navajo County,AZ,NA,NA,96.23352165725048,NA
86034,Navajo County,AZ,80.91603053435115,NA,NA,NA
86035,Coconino County,AZ,84.35114503816794,NA,NA,NA
86042,Navajo County,AZ,NA,98.36065573770492,NA,100
86043,Navajo County,AZ,NA,96.17486338797814,98.87005649717514,NA
86044,San Juan County,AZ,NA,77.59562841530054,NA,NA
86045,Coconino County,AZ,23.66412213740458,63.934426229508205,NA,75.66666666666667
86047,Navajo County,AZ,76.7175572519084,90.7103825136612,NA,NA
86323,Yavapai County,AZ,NA,NA,63.088512241054616,NA
86503,Apache County,AZ,77.86259541984732,95.3551912568306,80.22598870056498,96.66666666666667
86505,Apache County,AZ,83.96946564885496,85.79234972677595,74.19962335216572,NA
86510,Navajo County,AZ,85.1145038167939,63.114754098360656,NA,NA
86514,Apache County,AZ,90.07633587786259,NA,NA,NA
86538,Apache County,AZ,NA,99.18032786885246,98.49340866290018,NA
86556,Apache County,AZ,95.0381679389313,92.34972677595628,NA,NA
71667,Lincoln County,AR,NA,NA,NA,67.33333333333333
71909,Garland County,AR,NA,NA,36.53483992467043,NA
72012,White County,AR,NA,NA,72.88135593220339,NA
72019,Saline County,AR,NA,76.22950819672131,NA,NA
72022,Saline County,AR,NA,NA,64.97175141242938,NA
72023,Lonoke County,AR,NA,84.69945355191257,NA,NA
72046,Lonoke County,AR,NA,NA,92.09039548022598,NA
72114,Pulaski County,AR,NA,NA,65.91337099811676,90.33333333333333
72117,Pulaski County,AR,NA,60.10928961748634,NA,NA
72204,Pulaski County,AR,NA,NA,34.83992467043315,37.666666666666664
72206,Pulaski County,AR,NA,NA,89.07721280602637,NA
72209,Pulaski County,AR,NA,82.24043715846994,NA,NA
72211,Pulaski County,AR,NA,NA,78.53107344632768,NA
72212,Pulaski County,AR,NA,NA,67.04331450094162,NA
72223,Pulaski County,AR,NA,NA,63.84180790960452,NA
72227,Pulaski County,AR,NA,NA,97.92843691148776,NA
72756,Benton County,AR,NA,67.21311475409836,NA,NA
72762,Washington County,AR,NA,NA,NA,51
90011,Los Angeles County,CA,12.977099236641221,NA,NA,NA
90065,Los Angeles County,CA,NA,NA,NA,53
90501,Los Angeles County,CA,NA,NA,59.133709981167605,NA
90680,Orange County,CA,NA,NA,NA,68.33333333333333
91384,Los Angeles County,CA,NA,78.41530054644808,NA,NA
91402,Los Angeles County,CA,NA,35.24590163934426,NA,NA
91722,Los Angeles County,CA,NA,73.224043715847,NA,NA
91762,San Bernardino County,CA,89.31297709923665,NA,NA,NA
91902,San Diego County,CA,NA,89.34426229508196,NA,NA
92026,San Diego County,CA,47.70992366412214,NA,NA,NA
92040,San Diego County,CA,NA,NA,29.19020715630885,NA
92084,San Diego County,CA,NA,NA,65.16007532956685,NA
92122,San Diego County,CA,NA,NA,69.30320150659134,NA
92201,Riverside County,CA,NA,NA,NA,24
92395,San Bernardino County,CA,43.89312977099237,NA,NA,NA
92411,San Bernardino County,CA,NA,NA,NA,78.66666666666666
92648,Orange County,CA,NA,37.15846994535519,NA,NA
92649,Orange County,CA,NA,NA,32.580037664783426,NA
92673,Orange County,CA,NA,NA,67.41996233521658,NA
92780,Orange County,CA,NA,NA,NA,34.66666666666667
92821,Orange County,CA,NA,NA,NA,27
92840,Orange County,CA,NA,NA,NA,19.666666666666664
93013,Santa Barbara County,CA,80.1526717557252,NA,NA,NA
93304,Kern County,CA,NA,30.87431693989071,NA,NA
93433,San Luis Obispo County,CA,66.79389312977099,NA,NA,NA
93444,San Luis Obispo County,CA,45.80152671755725,66.93989071038251,NA,NA
93454,Santa Barbara County,CA,34.35114503816794,NA,NA,NA
93636,Madera County,CA,NA,NA,NA,90.66666666666666
94014,San Mateo County,CA,NA,52.459016393442624,NA,NA
94015,San Mateo County,CA,74.04580152671755,NA,13.93596986817326,NA
94019,San Mateo County,CA,NA,NA,61.95856873822976,NA
94062,San Mateo County,CA,NA,61.74863387978142,53.10734463276836,NA
94063,San Mateo County,CA,NA,50.81967213114754,NA,NA
94080,San Mateo County,CA,NA,NA,NA,3.3333333333333335
94102,San Francisco County,CA,NA,12.568306010928962,NA,NA
94107,San Francisco County,CA,NA,NA,NA,46
94110,San Francisco County,CA,NA,NA,NA,20
94115,San Francisco County,CA,NA,NA,40.86629001883239,NA
94124,San Francisco County,CA,NA,32.240437158469945,NA,NA
94132,San Francisco County,CA,NA,NA,NA,36
94134,San Francisco County,CA,NA,NA,29.75517890772128,NA
94303,San Mateo County,CA,34.73282442748092,NA,NA,NA
94403,San Mateo County,CA,86.64122137404581,NA,21.28060263653484,NA
94509,Contra Costa County,CA,NA,NA,16.38418079096045,NA
94533,Solano County,CA,NA,NA,28.8135593220339,NA
94536,Alameda County,CA,NA,NA,84.93408662900188,NA
94553,Contra Costa County,CA,NA,50,30.88512241054614,NA
94558,Napa County,CA,NA,NA,10.16949152542373,4.666666666666667
94565,Contra Costa County,CA,NA,NA,11.299435028248588,NA
94583,Contra Costa County,CA,NA,NA,66.47834274952919,NA
94598,Contra Costa County,CA,NA,NA,NA,59.333333333333336
94804,Contra Costa County,CA,NA,68.85245901639344,NA,NA
94806,Contra Costa County,CA,NA,NA,25.98870056497175,54.666666666666664
94928,Sonoma County,CA,NA,NA,NA,41.66666666666667
94954,Sonoma County,CA,NA,NA,NA,27.333333333333332
95351,Stanislaus County,CA,NA,NA,43.87947269303202,NA
95448,Sonoma County,CA,NA,NA,48.96421845574388,NA
95470,Mendocino County,CA,NA,NA,NA,97
95610,Sacramento County,CA,NA,NA,NA,39.666666666666664
95618,Yolo County,CA,NA,NA,NA,62.33333333333333
95628,Sacramento County,CA,NA,NA,45.19774011299435,NA
95662,Sacramento County,CA,NA,NA,65.5367231638418,NA
95667,El Dorado County,CA,NA,NA,6.779661016949152,NA
95687,Solano County,CA,98.09160305343512,NA,NA,NA
95691,Yolo County,CA,87.02290076335878,NA,NA,NA
95757,Sacramento County,CA,NA,NA,60.075329566855,NA
95776,Yolo County,CA,NA,86.0655737704918,NA,NA
95814,Sacramento County,CA,NA,NA,NA,87.66666666666667
95818,Sacramento County,CA,NA,NA,95.85687382297552,NA
95825,Sacramento County,CA,NA,NA,NA,35.66666666666667
95831,Sacramento County,CA,NA,NA,53.86064030131826,NA
95833,Sacramento County,CA,NA,NA,NA,68.66666666666667
95945,Nevada County,CA,NA,NA,72.50470809792844,NA
95961,Yuba County,CA,NA,NA,70.05649717514125,NA
96094,Siskiyou County,CA,NA,NA,69.86817325800376,NA
80003,Jefferson County,CO,NA,NA,NA,62.66666666666667
80005,Jefferson County,CO,NA,NA,66.10169491525424,NA
80011,Arapahoe County,CO,NA,NA,NA,74.33333333333333
80013,Arapahoe County,CO,NA,NA,26.365348399246702,NA
80017,Arapahoe County,CO,NA,NA,NA,60
80022,Adams County,CO,NA,NA,44.44444444444444,NA
80108,Douglas County,CO,NA,NA,61.5819209039548,NA
80121,Arapahoe County,CO,NA,NA,NA,50.66666666666667
80122,Arapahoe County,CO,NA,NA,55.932203389830505,NA
80124,Douglas County,CO,NA,NA,NA,91
80134,Douglas County,CO,NA,NA,40.67796610169492,NA
80204,Denver County,CO,35.87786259541985,NA,NA,85
80205,Denver County,CO,51.526717557251914,17.48633879781421,NA,NA
80210,Denver County,CO,NA,83.06010928961749,NA,NA
80211,Denver County,CO,NA,45.3551912568306,50.470809792843696,NA
80216,Denver County,CO,NA,NA,90.58380414312617,NA
80219,Denver County,CO,NA,8.469945355191257,59.887005649717516,NA
80223,Denver County,CO,NA,NA,57.06214689265536,NA
80239,Denver County,CO,33.587786259541986,NA,54.61393596986818,NA
80249,Denver County,CO,NA,NA,75.14124293785311,NA
81323,Montezuma County,CO,NA,NA,NA,61.33333333333333
06424,Middlesex County,CT,NA,NA,79.84934086629002,NA
06708,New Haven County,CT,NA,NA,39.548022598870055,NA
06851,Fairfield County,CT,NA,65.02732240437157,NA,NA
32046,Nassau County,FL,NA,NA,86.25235404896422,NA
32073,Clay County,FL,NA,NA,NA,81.66666666666667
32211,Duval County,FL,NA,NA,46.516007532956685,NA
32431,Jackson County,FL,NA,NA,85.12241054613936,NA
32526,Escambia County,FL,NA,NA,12.052730696798493,NA
32605,Alachua County,FL,NA,NA,NA,19.333333333333332
32615,Alachua County,FL,NA,69.67213114754098,NA,NA
32669,Alachua County,FL,NA,NA,68.36158192090396,NA
32765,Seminole County,FL,NA,NA,45.951035781544256,NA
33029,Broward County,FL,NA,NA,NA,46.666666666666664
33055,Miami-Dade County,FL,NA,57.92349726775956,NA,NA
33134,Miami-Dade County,FL,NA,NA,NA,26.333333333333332
33139,Miami-Dade County,FL,NA,NA,54.23728813559322,NA
33142,Miami-Dade County,FL,NA,NA,24.105461393596986,NA
33157,Miami-Dade County,FL,24.80916030534351,NA,NA,NA
33172,Miami-Dade County,FL,NA,NA,61.77024482109228,NA
33175,Miami-Dade County,FL,NA,NA,27.49529190207156,NA
33179,Miami-Dade County,FL,NA,84.97267759562843,NA,NA
33186,Miami-Dade County,FL,NA,NA,NA,23
33196,Miami-Dade County,FL,NA,70.49180327868852,NA,NA
33418,Palm Beach County,FL,NA,NA,31.826741996233523,NA
33436,Palm Beach County,FL,NA,NA,51.78907721280602,NA
33470,Palm Beach County,FL,NA,NA,80.0376647834275,NA
33487,Palm Beach County,FL,NA,89.89071038251366,NA,NA
33576,Pasco County,FL,NA,NA,94.91525423728814,NA
33603,Hillsborough County,FL,NA,NA,91.52542372881356,NA
33868,Polk County,FL,NA,NA,79.66101694915254,NA
33950,Charlotte County,FL,NA,NA,34.27495291902072,NA
33952,Charlotte County,FL,NA,33.060109289617486,NA,NA
33953,Charlotte County,FL,NA,94.26229508196722,NA,NA
33967,Lee County,FL,NA,65.02732240437157,NA,NA
34110,Collier County,FL,NA,NA,54.048964218455744,NA
34114,Collier County,FL,NA,NA,40.30131826741996,NA
34145,Collier County,FL,NA,NA,47.45762711864407,NA
34287,Sarasota County,FL,NA,89.61748633879782,NA,NA
34292,Sarasota County,FL,NA,NA,51.60075329566855,NA
30024,Gwinnett County,GA,NA,NA,62.71186440677966,NA
30032,DeKalb County,GA,NA,49.45355191256831,NA,NA
30044,Gwinnett County,GA,NA,NA,18.455743879472696,NA
30062,Cobb County,GA,NA,NA,NA,63
30096,Gwinnett County,GA,NA,NA,NA,17
30108,Carroll County,GA,NA,93.71584699453553,NA,NA
30134,Douglas County,GA,NA,32.51366120218579,NA,NA
30269,Fayette County,GA,NA,NA,NA,54
30307,DeKalb County,GA,NA,NA,78.71939736346516,NA
30312,Fulton County,GA,NA,NA,80.60263653483992,NA
30315,Fulton County,GA,NA,NA,63.653483992467045,NA
30318,Fulton County,GA,NA,37.43169398907104,NA,NA
30331,Fulton County,GA,NA,22.404371584699454,NA,NA
30349,Fulton County,GA,NA,NA,NA,63.66666666666667
30809,Columbia County,GA,NA,NA,NA,96
31024,Putnam County,GA,NA,NA,74.57627118644068,NA
31093,Houston County,GA,NA,NA,37.09981167608286,NA
96701,Honolulu County,HI,NA,42.62295081967213,NA,NA
96707,Honolulu County,HI,NA,NA,35.2165725047081,NA
96766,Kauai County,HI,NA,NA,74.76459510357816,NA
96797,Honolulu County,HI,NA,NA,9.6045197740113,NA
96813,Honolulu County,HI,NA,NA,NA,38.666666666666664
96819,Honolulu County,HI,NA,NA,17.51412429378531,NA
96822,Honolulu County,HI,NA,NA,NA,11.666666666666666
83864,Bonner County,ID,NA,NA,NA,47.333333333333336
60025,Cook County,IL,NA,51.36612021857923,NA,NA
60045,Lake County,IL,NA,NA,26.741996233521657,NA
60077,Cook County,IL,NA,NA,33.52165725047081,NA
60104,Cook County,IL,NA,48.63387978142077,NA,NA
60126,DuPage County,IL,NA,14.48087431693989,25.6120527306968,NA
60140,Kane County,IL,NA,76.50273224043715,NA,NA
60153,Cook County,IL,NA,NA,28.24858757062147,47.66666666666667
60175,Kane County,IL,NA,NA,38.22975517890772,NA
60406,Cook County,IL,NA,NA,73.25800376647834,NA
60409,Cook County,IL,NA,39.34426229508197,NA,NA
60410,Will County,IL,NA,56.01092896174863,NA,NA
60411,Cook County,IL,NA,18.0327868852459,NA,NA
60439,Cook County,IL,NA,NA,21.092278719397363,NA
60491,Will County,IL,NA,44.26229508196721,30.508474576271187,NA
60506,Kane County,IL,NA,NA,29.001883239171374,NA
60527,DuPage County,IL,NA,NA,NA,47
60613,Cook County,IL,NA,36.885245901639344,NA,NA
60619,Cook County,IL,NA,10.10928961748634,NA,NA
60631,Cook County,IL,NA,NA,50.847457627118644,NA
60637,Cook County,IL,NA,54.37158469945356,NA,NA
60643,Cook County,IL,NA,42.07650273224044,NA,NA
60646,Cook County,IL,NA,NA,48.58757062146893,NA
60660,Cook County,IL,NA,NA,71.37476459510358,NA
60804,Cook County,IL,NA,NA,NA,33
60901,Kankakee County,IL,97.70992366412213,NA,NA,NA
61019,Stephenson County,IL,NA,NA,NA,88.33333333333333
61021,Lee County,IL,NA,41.53005464480874,57.43879472693032,55.00000000000001
61032,Stephenson County,IL,NA,NA,20.715630885122412,43.666666666666664
61061,Ogle County,IL,NA,NA,75.32956685499059,44
61254,Henry County,IL,NA,NA,75.70621468926554,NA
61822,Champaign County,IL,NA,NA,52.35404896421846,NA
62401,Effingham County,IL,NA,85.51912568306011,NA,NA
62448,Jasper County,IL,NA,NA,96.045197740113,NA
62881,Marion County,IL,NA,NA,NA,40.33333333333333
46013,Madison County,IN,NA,NA,23.540489642184557,NA
46017,Madison County,IN,NA,NA,77.77777777777779,NA
46221,Marion County,IN,NA,NA,46.13935969868173,NA
46222,Marion County,IN,NA,NA,31.26177024482109,NA
46307,Lake County,IN,NA,NA,3.389830508474576,NA
46373,Lake County,IN,NA,68.30601092896174,NA,NA
46383,Porter County,IN,NA,12.295081967213115,NA,NA
46544,St. Joseph County,IN,NA,NA,NA,37
46733,Adams County,IN,NA,NA,50.09416195856874,NA
47610,Warrick County,IN,NA,NA,92.46704331450094,NA
50208,Jasper County,IA,NA,NA,68.92655367231639,NA
50309,Polk County,IA,NA,66.66666666666666,NA,NA
50310,Polk County,IA,NA,NA,51.41242937853108,NA
50311,Polk County,IA,NA,80.60109289617486,NA,NA
50317,Polk County,IA,NA,16.666666666666664,17.890772128060263,NA
50511,Kossuth County,IA,NA,NA,76.27118644067797,67
52241,Johnson County,IA,85.87786259541986,54.91803278688525,61.39359698681732,NA
52245,Johnson County,IA,NA,NA,NA,48.66666666666667
52246,Johnson County,IA,NA,NA,NA,28.666666666666668
52302,Linn County,IA,NA,26.775956284153008,NA,NA
52317,Johnson County,IA,NA,58.7431693989071,74.01129943502825,NA
66006,Douglas County,KS,NA,NA,NA,99.33333333333333
66062,Johnson County,KS,NA,NA,18.832391713747647,NA
66509,Jackson County,KS,NA,100,NA,NA
66604,Shawnee County,KS,NA,NA,45.38606403013183,NA
67337,Montgomery County,KS,NA,NA,73.06967984934086,NA
67401,Saline County,KS,NA,26.229508196721312,NA,NA
41005,Boone County,KY,82.44274809160305,NA,NA,NA
41042,Boone County,KY,62.97709923664122,NA,NA,NA
41075,Campbell County,KY,NA,NA,93.78531073446328,NA
41219,Johnson County,KY,82.06106870229007,NA,NA,NA
41522,Pike County,KY,NA,NA,NA,93
41537,Letcher County,KY,NA,NA,81.35593220338984,NA
42001,McCracken County,KY,NA,NA,25.04708097928437,NA
42718,Taylor County,KY,NA,NA,13.559322033898304,NA
70001,Jefferson Parish,LA,NA,NA,13.74764595103578,NA
70003,Jefferson Parish,LA,6.488549618320611,NA,NA,NA
70072,Jefferson Parish,LA,NA,3.551912568306011,NA,NA
70094,Jefferson Parish,LA,52.67175572519084,NA,NA,NA
70114,Orleans Parish,LA,NA,15.027322404371585,NA,NA
70119,Orleans Parish,LA,8.015267175572518,NA,NA,NA
70122,Orleans Parish,LA,NA,31.420765027322407,14.87758945386064,NA
70131,Orleans Parish,LA,54.961832061068705,NA,NA,NA
70339,Assumption Parish,LA,90.45801526717557,NA,NA,NA
70363,Terrebonne Parish,LA,30.15267175572519,NA,NA,NA
70373,Lafourche Parish,LA,NA,NA,NA,75
70394,Lafourche Parish,LA,NA,NA,35.781544256120526,NA
70427,Washington Parish,LA,NA,NA,NA,24.666666666666668
70435,St. Tammany Parish,LA,NA,NA,NA,66.66666666666666
70438,Washington Parish,LA,NA,NA,50.65913370998116,NA
70447,St. Tammany Parish,LA,80.91603053435115,NA,NA,NA
70448,St. Tammany Parish,LA,NA,NA,32.39171374764595,NA
70452,St. Tammany Parish,LA,NA,NA,37.47645951035782,NA
70454,Tangipahoa Parish,LA,NA,NA,12.429378531073446,NA
70501,Lafayette Parish,LA,NA,NA,28.06026365348399,NA
70726,Livingston Parish,LA,NA,48.36065573770492,NA,NA
70776,Iberville Parish,LA,100,NA,NA,NA
70808,East Baton Rouge Parish,LA,NA,NA,NA,42.333333333333336
70810,East Baton Rouge Parish,LA,NA,NA,64.7834274952919,NA
70816,East Baton Rouge Parish,LA,NA,NA,NA,32.33333333333333
71055,Webster Parish,LA,NA,NA,39.92467043314501,NA
71111,Bossier Parish,LA,NA,NA,16.94915254237288,NA
04330,Kennebec County,ME,NA,NA,9.981167608286253,NA
04401,Penobscot County,ME,NA,NA,NA,1
04444,Penobscot County,ME,NA,NA,68.36158192090396,NA
04756,Aroostook County,ME,NA,NA,NA,60
21133,Baltimore County,MD,NA,NA,53.29566854990584,NA
21206,Baltimore city,MD,NA,NA,15.819209039548024,NA
21211,Baltimore city,MD,NA,NA,96.7984934086629,NA
21215,Baltimore city,MD,NA,NA,12.617702448210924,NA
21217,Baltimore city,MD,NA,61.47540983606557,NA,NA
21219,Baltimore County,MD,NA,NA,83.61581920903954,NA
01013,Hampden County,MA,NA,21.85792349726776,NA,NA
01020,Hampden County,MA,NA,25.683060109289617,NA,NA
01104,Hampden County,MA,NA,4.098360655737705,1.1299435028248588,NA
01105,Hampden County,MA,NA,22.6775956284153,15.44256120527307,NA
01107,Hampden County,MA,NA,35.79234972677596,NA,NA
01109,Hampden County,MA,NA,12.021857923497267,NA,NA
01119,Hampden County,MA,46.56488549618321,NA,NA,NA
01151,Hampden County,MA,55.72519083969466,NA,NA,NA
01420,Worcester County,MA,NA,NA,NA,7.000000000000001
01520,Worcester County,MA,NA,NA,53.29566854990584,NA
01610,Worcester County,MA,NA,1.639344262295082,NA,NA
01720,Middlesex County,MA,NA,NA,35.969868173258,NA
01760,Middlesex County,MA,NA,NA,39.73634651600753,NA
01801,Middlesex County,MA,NA,3.278688524590164,14.500941619585687,NA
01803,Middlesex County,MA,NA,NA,31.63841807909605,NA
01821,Middlesex County,MA,NA,NA,NA,10
01826,Middlesex County,MA,NA,NA,5.084745762711865,NA
01834,Essex County,MA,NA,NA,92.65536723163842,NA
01841,Essex County,MA,0,NA,NA,NA
01863,Middlesex County,MA,NA,90.43715846994536,NA,60.66666666666667
01864,Middlesex County,MA,NA,NA,39.35969868173258,59
01876,Middlesex County,MA,NA,NA,4.143126177024483,NA
01902,Essex County,MA,NA,0,NA,NA
01906,Essex County,MA,NA,NA,11.864406779661017,NA
01907,Essex County,MA,75.19083969465649,NA,NA,NA
01915,Essex County,MA,NA,NA,NA,1.3333333333333335
01940,Essex County,MA,NA,NA,78.3427495291902,NA
01944,Essex County,MA,NA,NA,84.18079096045197,NA
01970,Essex County,MA,NA,2.73224043715847,24.48210922787194,NA
01983,Essex County,MA,NA,NA,81.54425612052731,NA
02072,Norfolk County,MA,20.229007633587788,NA,NA,NA
02111,Suffolk County,MA,NA,64.48087431693989,NA,NA
02114,Suffolk County,MA,NA,NA,41.80790960451977,NA
02116,Suffolk County,MA,71.7557251908397,NA,26.93032015065913,NA
02118,Suffolk County,MA,17.557251908396946,18.579234972677597,NA,26.666666666666668
02119,Suffolk County,MA,12.213740458015266,9.289617486338798,5.649717514124294,NA
02120,Suffolk County,MA,41.221374045801525,33.60655737704918,19.962335216572505,NA
02121,Suffolk County,MA,1.5267175572519083,NA,NA,NA
02122,Suffolk County,MA,NA,15.846994535519126,1.5065913370998116,11
02124,Suffolk County,MA,14.885496183206106,4.644808743169399,NA,43
02125,Suffolk County,MA,46.56488549618321,0.273224043715847,1.8832391713747645,NA
02126,Suffolk County,MA,14.122137404580155,NA,NA,NA
02127,Suffolk County,MA,NA,29.23497267759563,NA,NA
02128,Suffolk County,MA,6.870229007633588,5.737704918032787,NA,NA
02130,Suffolk County,MA,NA,40.98360655737705,NA,NA
02131,Suffolk County,MA,NA,NA,8.097928436911488,NA
02136,Suffolk County,MA,NA,37.704918032786885,8.47457627118644,NA
02138,Middlesex County,MA,NA,16.939890710382514,9.227871939736348,13.666666666666666
02139,Middlesex County,MA,NA,20.491803278688526,NA,NA
02140,Middlesex County,MA,74.42748091603053,NA,NA,NA
02141,Middlesex County,MA,NA,37.97814207650273,NA,NA
02143,Middlesex County,MA,NA,33.33333333333333,81.73258003766477,NA
02145,Middlesex County,MA,31.679389312977097,8.19672131147541,44.632768361581924,11.333333333333332
02148,Middlesex County,MA,NA,1.366120218579235,6.0263653483992465,33.666666666666664
02149,Middlesex County,MA,29.00763358778626,NA,NA,NA
02150,Suffolk County,MA,0.7633587786259541,7.923497267759563,NA,NA
02151,Suffolk County,MA,25.954198473282442,NA,0,NA
02155,Middlesex County,MA,11.068702290076336,3.0054644808743167,0.3766478342749529,NA
02170,Norfolk County,MA,NA,NA,NA,20.666666666666668
02176,Middlesex County,MA,NA,11.748633879781421,NA,NA
02184,Norfolk County,MA,NA,9.01639344262295,NA,9.666666666666666
02188,Norfolk County,MA,78.62595419847328,NA,NA,NA
02301,Plymouth County,MA,9.923664122137405,NA,NA,NA
02343,Norfolk County,MA,NA,46.44808743169399,NA,NA
02368,Norfolk County,MA,15.648854961832063,NA,NA,NA
02445,Norfolk County,MA,NA,34.97267759562842,NA,NA
02467,Norfolk County,MA,NA,NA,NA,26
02474,Middlesex County,MA,NA,18.30601092896175,NA,NA
02476,Middlesex County,MA,NA,73.49726775956285,NA,NA
02478,Middlesex County,MA,NA,28.688524590163933,NA,NA
02631,Barnstable County,MA,NA,NA,49.717514124293785,NA
02718,Bristol County,MA,98.47328244274809,NA,NA,NA
02760,Bristol County,MA,85.49618320610686,NA,NA,NA
48021,Macomb County,MI,NA,NA,NA,28.000000000000004
48072,Oakland County,MI,NA,NA,55.1789077212806,NA
48080,Macomb County,MI,NA,NA,NA,61.66666666666667
48089,Macomb County,MI,NA,NA,27.11864406779661,45.33333333333333
48103,Washtenaw County,MI,NA,NA,3.0131826741996233,NA
48105,Washtenaw County,MI,NA,74.31693989071039,NA,NA
48108,Washtenaw County,MI,77.48091603053436,NA,NA,NA
48111,Wayne County,MI,45.41984732824427,NA,NA,NA
48114,Livingston County,MI,NA,NA,29.943502824858758,52.33333333333333
48116,Livingston County,MI,NA,NA,19.2090395480226,NA
48130,Washtenaw County,MI,NA,NA,NA,42
48135,Wayne County,MI,NA,28.415300546448087,NA,NA
48152,Wayne County,MI,NA,NA,NA,10.666666666666668
48160,Washtenaw County,MI,NA,NA,58.568738229755176,58.333333333333336
48165,Oakland County,MI,NA,NA,NA,74
48167,Oakland County,MI,NA,NA,NA,13.333333333333334
48168,Wayne County,MI,NA,NA,NA,78.33333333333333
48169,Livingston County,MI,NA,55.73770491803278,80.41431261770245,30.666666666666664
48170,Wayne County,MI,NA,19.12568306010929,NA,NA
48174,Wayne County,MI,NA,NA,18.267419962335214,NA
48178,Oakland County,MI,NA,NA,16.57250470809793,NA
48187,Wayne County,MI,NA,NA,NA,8.666666666666668
48195,Wayne County,MI,NA,NA,NA,16.666666666666664
48197,Washtenaw County,MI,NA,NA,NA,46.33333333333333
48213,Wayne County,MI,NA,NA,NA,50.33333333333333
48223,Wayne County,MI,NA,49.18032786885246,NA,NA
48227,Wayne County,MI,NA,5.46448087431694,NA,NA
48230,Wayne County,MI,NA,NA,40.48964218455744,80.33333333333333
48235,Wayne County,MI,NA,NA,5.4613935969868175,NA
48236,Wayne County,MI,NA,NA,NA,40.666666666666664
48306,Oakland County,MI,NA,NA,25.800376647834273,NA
48309,Oakland County,MI,NA,NA,29.37853107344633,NA
48323,Oakland County,MI,NA,NA,47.26930320150659,NA
48375,Oakland County,MI,NA,NA,54.4256120527307,NA
48382,Oakland County,MI,NA,NA,71.1864406779661,NA
48430,Genesee County,MI,NA,NA,23.91713747645951,NA
48451,Genesee County,MI,NA,NA,75.89453860640302,NA
48653,Roscommon County,MI,NA,NA,NA,57.99999999999999
48843,Livingston County,MI,NA,NA,NA,10.333333333333334
48855,Livingston County,MI,NA,NA,51.2241054613936,64.66666666666666
48912,Ingham County,MI,NA,NA,70.24482109227873,NA
49201,Jackson County,MI,NA,NA,7.721280602636535,NA
49230,Jackson County,MI,93.12977099236642,NA,NA,NA
49270,Monroe County,MI,NA,NA,NA,98
49285,Ingham County,MI,NA,NA,NA,89
49423,Ottawa County,MI,NA,NA,NA,7.333333333333333
49426,Ottawa County,MI,NA,NA,NA,18.666666666666668
49601,Wexford County,MI,NA,NA,53.672316384180796,NA
49635,Benzie County,MI,NA,NA,96.42184557438794,NA
49721,Cheboygan County,MI,NA,NA,41.05461393596987,NA
49756,Montmorency County,MI,NA,NA,77.21280602636534,NA
49849,Marquette County,MI,NA,NA,NA,71.66666666666667
49862,Alger County,MI,NA,NA,NA,98.33333333333333
49938,Gogebic County,MI,NA,90.1639344262295,NA,92
55057,Rice County,MN,NA,NA,93.5969868173258,NA
55066,Goodhue County,MN,NA,52.732240437158474,82.10922787193974,40
55068,Dakota County,MN,NA,NA,NA,85.66666666666667
55101,Ramsey County,MN,NA,NA,83.42749529190208,NA
55104,Ramsey County,MN,NA,19.672131147540984,44.06779661016949,NA
55105,Ramsey County,MN,NA,NA,66.29001883239172,NA
55108,Ramsey County,MN,NA,NA,93.22033898305084,NA
55112,Ramsey County,MN,NA,NA,63.465160075329564,NA
55121,Dakota County,MN,73.66412213740458,NA,NA,NA
55331,Hennepin County,MN,NA,87.97814207650273,NA,NA
55343,Hennepin County,MN,48.091603053435115,NA,NA,NA
55346,Hennepin County,MN,NA,NA,90.01883239171374,NA
55379,Scott County,MN,60.68702290076335,NA,NA,NA
55404,Hennepin County,MN,73.2824427480916,13.387978142076504,5.273069679849341,NA
55406,Hennepin County,MN,NA,31.147540983606557,NA,64.33333333333333
55407,Hennepin County,MN,52.29007633587786,9.836065573770492,NA,NA
55411,Hennepin County,MN,NA,NA,19.774011299435028,NA
55414,Hennepin County,MN,NA,81.14754098360656,NA,NA
55416,Hennepin County,MN,NA,NA,68.7382297551789,NA
55417,Hennepin County,MN,NA,NA,NA,78.66666666666666
55418,Hennepin County,MN,39.69465648854962,NA,NA,NA
55420,Hennepin County,MN,NA,NA,58.75706214689266,NA
55421,Anoka County,MN,NA,25.956284153005466,NA,NA
55423,Hennepin County,MN,NA,24.043715846994534,NA,NA
55428,Hennepin County,MN,NA,NA,36.91148775894539,NA
55429,Hennepin County,MN,NA,48.90710382513661,74.3879472693032,NA
55430,Hennepin County,MN,NA,56.830601092896174,NA,NA
55432,Anoka County,MN,40.839694656488554,NA,NA,NA
55436,Hennepin County,MN,NA,NA,83.05084745762711,NA
55437,Hennepin County,MN,NA,NA,NA,91.66666666666666
55441,Hennepin County,MN,NA,75.40983606557377,NA,NA
55443,Hennepin County,MN,NA,69.67213114754098,NA,NA
55444,Hennepin County,MN,NA,62.295081967213115,NA,NA
55454,Hennepin County,MN,NA,92.89617486338798,98.68173258003766,NA
55720,Carlton County,MN,NA,40.7103825136612,46.32768361581921,NA
55731,St. Louis County,MN,NA,NA,91.71374764595103,89.66666666666666
55792,St. Louis County,MN,51.14503816793893,72.95081967213115,33.70998116760829,19
55803,St. Louis County,MN,NA,NA,NA,67.66666666666666
55804,St. Louis County,MN,NA,NA,84.55743879472693,NA
55805,St. Louis County,MN,NA,51.63934426229508,NA,NA
55806,St. Louis County,MN,56.87022900763359,NA,85.87570621468926,NA
55808,St. Louis County,MN,75.95419847328245,NA,NA,NA
55810,St. Louis County,MN,NA,NA,78.90772128060264,NA
55811,St. Louis County,MN,NA,38.79781420765027,33.89830508474576,63.33333333333333
55901,Olmsted County,MN,30.916030534351147,NA,NA,42.66666666666667
55904,Olmsted County,MN,61.45038167938931,45.08196721311475,72.12806026365348,69.33333333333334
55906,Olmsted County,MN,NA,74.04371584699454,68.17325800376648,NA
55912,Mower County,MN,NA,NA,27.87193973634652,44.333333333333336
55921,Houston County,MN,NA,NA,82.485875706214685,NA
55963,Goodhue County,MN,NA,NA,88.51224105461394,NA
55976,Olmsted County,MN,NA,NA,97.17514124293785,94.33333333333334
55981,Wabasha County,MN,NA,NA,NA,48.333333333333336
55987,Winona County,MN,NA,NA,47.080979284369114,NA
56007,Freeborn County,MN,86.25954198473282,83.60655737704919,41.24293785310734,83
56031,Martin County,MN,NA,53.825136612021865,89.83050847457628,81.33333333333333
56097,Faribault County,MN,NA,95.90163934426229,NA,NA
56258,Lyon County,MN,96.18320610687023,NA,NA,85.33333333333334
56267,Stevens County,MN,NA,72.6775956284153,82.67419962335217,92.66666666666666
56470,Hubbard County,MN,NA,NA,NA,82
56484,Cass County,MN,NA,NA,85.68738229755178,84
56501,Becker County,MN,NA,46.72131147540984,NA,52
56515,Otter Tail County,MN,NA,NA,NA,86.66666666666667
56537,Otter Tail County,MN,NA,23.224043715846996,86.62900188323917,31
56560,Clay County,MN,3.816793893129771,NA,6.591337099811676,13
56601,Beltrami County,MN,84.7328244274809,82.5136612021858,82.29755178907722,84.33333333333334
56621,Clearwater County,MN,NA,NA,NA,68
56630,Beltrami County,MN,NA,98.63387978142076,NA,NA
56633,Hubbard County,MN,62.213740458015266,NA,73.44632768361582,76
56649,Koochiching County,MN,NA,NA,NA,80.66666666666666
56670,Beltrami County,MN,88.54961832061069,NA,NA,NA
56671,Beltrami County,MN,NA,91.53005464480874,97.74011299435028,NA
56716,Polk County,MN,NA,NA,72.69303201506591,NA
39211,Hinds County,MS,45.038167938931295,NA,NA,NA
63116,St. Louis city,MO,44.274809160305345,NA,NA,NA
63120,St. Louis city,MO,78.2442748091603,NA,NA,NA
64015,Jackson County,MO,NA,17.759562841530055,NA,NA
64030,Jackson County,MO,36.6412213740458,22.950819672131146,NA,NA
64055,Jackson County,MO,NA,39.89071038251366,NA,NA
64058,Jackson County,MO,NA,77.3224043715847,NA,NA
64063,Jackson County,MO,NA,47.81420765027322,NA,NA
64111,Jackson County,MO,NA,34.15300546448087,NA,NA
64128,Jackson County,MO,NA,24.316939890710383,NA,NA
64130,Jackson County,MO,25.190839694656486,NA,NA,NA
64131,Jackson County,MO,NA,19.398907103825135,NA,NA
64133,Jackson County,MO,NA,NA,6.96798493408663,NA
64701,Cass County,MO,NA,51.09289617486339,NA,NA
64735,Henry County,MO,NA,NA,87.94726930320151,99
64776,St. Clair County,MO,NA,96.44808743169399,NA,NA
65201,Boone County,MO,NA,52.18579234972678,64.030131826742,NA
65202,Boone County,MO,NA,16.120218579234972,NA,NA
65203,Boone County,MO,NA,62.295081967213115,14.312617702448211,NA
65251,Callaway County,MO,NA,38.25136612021858,56.873822975517896,NA
65270,Randolph County,MO,NA,NA,44.8210922787194,NA
65340,Saline County,MO,NA,NA,62.52354048964218,71.66666666666667
65401,Phelps County,MO,NA,NA,NA,25.333333333333336
65648,Greene County,MO,NA,NA,NA,93.33333333333333
65746,Webster County,MO,NA,NA,NA,93.66666666666667
65803,Greene County,MO,20.610687022900763,NA,47.83427495291902,NA
59101,Yellowstone County,MT,NA,47.540983606557376,NA,NA
59102,Yellowstone County,MT,NA,NA,31.45009416195857,2
59701,Silver Bow County,MT,NA,NA,NA,45
59715,Gallatin County,MT,NA,58.19672131147541,NA,NA
59718,Gallatin County,MT,NA,NA,NA,34.333333333333336
68025,Dodge County,NE,NA,NA,27.683615819209038,NA
68104,Douglas County,NE,NA,33.87978142076503,39.1713747645951,NA
68110,Douglas County,NE,NA,NA,NA,95
68111,Douglas County,NE,NA,NA,NA,56.00000000000001
68124,Douglas County,NE,NA,NA,83.9924670433145,NA
68164,Douglas County,NE,96.94656488549617,NA,NA,NA
68310,Gage County,NE,NA,71.58469945355192,NA,NA
03060,Hillsborough County,NH,NA,NA,15.065913370998116,NA
03431,Cheshire County,NH,NA,NA,NA,53.333333333333336
03755,Grafton County,NH,NA,NA,82.86252354048965,86
03766,Grafton County,NH,NA,NA,NA,77
03842,Rockingham County,NH,NA,74.59016393442623,NA,NA
03874,Rockingham County,NH,NA,NA,57.81544256120527,NA
07004,Essex County,NJ,NA,NA,94.35028248587571,NA
07011,Passaic County,NJ,NA,NA,98.11676082862523,NA
07083,Union County,NJ,27.86259541984733,NA,NA,NA
07104,Essex County,NJ,0.38167938931297707,NA,NA,21.333333333333336
07105,Essex County,NJ,23.66412213740458,NA,NA,NA
07107,Essex County,NJ,2.2900763358778624,NA,NA,NA
07111,Essex County,NJ,1.9083969465648856,NA,NA,NA
07628,Bergen County,NJ,NA,NA,67.60828625235405,NA
07753,Monmouth County,NJ,NA,NA,12.24105461393597,NA
87013,Sandoval County,NM,NA,92.62295081967213,NA,NA
87020,Cibola County,NM,NA,96.72131147540983,NA,NA
87026,Valencia County,NM,NA,90.98360655737704,NA,NA
87045,McKinley County,NM,NA,97.81420765027322,NA,NA
87052,Sandoval County,NM,90.83969465648855,97.54098360655738,99.05838041431262,NA
87105,Bernalillo County,NM,NA,6.284153005464481,NA,NA
87106,Bernalillo County,NM,NA,26.50273224043716,NA,NA
87108,Bernalillo County,NM,20.610687022900763,10.92896174863388,NA,NA
87110,Bernalillo County,NM,NA,NA,12.8060263653484,12
87111,Bernalillo County,NM,NA,6.0109289617486334,NA,NA
87112,Bernalillo County,NM,53.43511450381679,NA,NA,NA
87123,Bernalillo County,NM,24.427480916030532,NA,8.286252354048965,NA
87301,McKinley County,NM,43.12977099236641,88.52459016393442,NA,NA
87313,McKinley County,NM,NA,NA,94.72693032015066,NA
87317,McKinley County,NM,91.6030534351145,NA,NA,NA
87321,McKinley County,NM,NA,96.99453551912568,NA,NA
87323,McKinley County,NM,91.22137404580153,99.4535519125683,NA,NA
87327,Cibola County,NM,61.832061068702295,87.43169398907104,NA,NA
87328,McKinley County,NM,NA,97.26775956284153,NA,NA
87401,San Juan County,NM,21.374045801526716,21.03825136612022,NA,NA
87420,San Juan County,NM,NA,38.52459016393443,NA,NA
87505,Santa Fe County,NM,NA,30.327868852459016,NA,NA
87528,Rio Arriba County,NM,68.70229007633588,NA,NA,NA
10002,New York County,NY,7.251908396946565,25.136612021857925,4.519774011299435,NA
10009,New York County,NY,NA,NA,NA,6
10011,New York County,NY,NA,46.994535519125684,NA,NA
10012,New York County,NY,NA,NA,84.36911487758945,NA
10013,New York County,NY,NA,84.42622950819673,NA,NA
10024,New York County,NY,NA,NA,NA,6.333333333333334
10025,New York County,NY,NA,9.562841530054644,NA,NA
10026,New York County,NY,NA,NA,NA,31.666666666666664
10027,New York County,NY,NA,NA,NA,22.666666666666664
10029,New York County,NY,5.343511450381679,1.092896174863388,32.95668549905838,NA
10030,New York County,NY,22.900763358778626,NA,NA,NA
10031,New York County,NY,14.50381679389313,NA,NA,NA
10032,New York County,NY,NA,15.573770491803279,10.16949152542373,NA
10033,New York County,NY,NA,NA,22.78719397363465,NA
10035,New York County,NY,49.23664122137404,NA,NA,NA
10038,New York County,NY,NA,NA,45.00941619585687,NA
10039,New York County,NY,NA,39.61748633879781,NA,NA
10304,Richmond County,NY,19.083969465648856,NA,NA,NA
10305,Richmond County,NY,48.854961832061065,NA,NA,NA
10309,Richmond County,NY,NA,84.15300546448088,NA,NA
10314,Richmond County,NY,NA,NA,NA,7.666666666666666
10451,Bronx County,NY,3.435114503816794,NA,NA,8
10452,Bronx County,NY,5.7251908396946565,2.459016393442623,0.7532956685499058,NA
10453,Bronx County,NY,32.82442748091603,NA,0.9416195856873822,NA
10454,Bronx County,NY,22.137404580152673,NA,NA,NA
10455,Bronx County,NY,40.458015267175576,NA,NA,NA
10456,Bronx County,NY,7.633587786259542,4.918032786885246,NA,NA
10457,Bronx County,NY,4.580152671755725,NA,NA,12.666666666666668
10460,Bronx County,NY,NA,4.371584699453552,NA,NA
10462,Bronx County,NY,NA,35.51912568306011,NA,NA
10463,Bronx County,NY,NA,NA,6.214689265536723,NA
10466,Bronx County,NY,NA,NA,NA,12.333333333333334
10467,Bronx County,NY,4.198473282442748,0.819672131147541,36.346516007532955,NA
10468,Bronx County,NY,19.46564885496183,NA,NA,NA
10472,Bronx County,NY,13.358778625954198,NA,20.527306967984934,NA
10473,Bronx County,NY,NA,7.377049180327869,NA,NA
10474,Bronx County,NY,53.43511450381679,NA,NA,NA
10562,Westchester County,NY,NA,NA,NA,35
10710,Westchester County,NY,NA,87.70491803278688,NA,NA
10940,Orange County,NY,NA,NA,17.325800376647834,NA
11205,Kings County,NY,32.44274809160305,NA,NA,NA
11206,Kings County,NY,47.32824427480916,NA,NA,64
11207,Kings County,NY,6.106870229007633,0.546448087431694,1.3182674199623352,NA
11208,Kings County,NY,NA,NA,2.6365348399246704,16
11210,Kings County,NY,NA,50.54644808743169,NA,NA
11211,Kings County,NY,NA,NA,22.22222222222222,NA
11213,Kings County,NY,18.3206106870229,NA,NA,NA
11219,Kings County,NY,10.305343511450381,NA,NA,NA
11221,Kings County,NY,NA,NA,NA,6.666666666666667
11225,Kings County,NY,NA,NA,NA,25.666666666666664
11229,Kings County,NY,NA,34.69945355191257,NA,NA
11237,Kings County,NY,NA,30.05464480874317,NA,NA
11238,Kings County,NY,79.77099236641222,NA,17.13747645951036,NA
11239,Kings County,NY,NA,NA,NA,30
11356,Queens County,NY,NA,NA,83.2391713747646,NA
11372,Queens County,NY,70.99236641221374,NA,NA,NA
11373,Queens County,NY,NA,18.852459016393443,NA,NA
11377,Queens County,NY,NA,NA,19.02071563088512,18.333333333333332
11378,Queens County,NY,59.92366412213741,NA,NA,NA
11385,Queens County,NY,11.83206106870229,13.114754098360656,NA,NA
11427,Queens County,NY,NA,NA,70.62146892655367,NA
11429,Queens County,NY,NA,NA,35.02824858757062,NA
11432,Queens County,NY,NA,66.12021857923497,NA,NA
11434,Queens County,NY,NA,NA,18.64406779661017,NA
11435,Queens County,NY,37.404580152671755,NA,NA,NA
11436,Queens County,NY,NA,NA,NA,79.33333333333333
11552,Nassau County,NY,NA,NA,74.95291902071564,NA
11961,Suffolk County,NY,NA,NA,NA,29.666666666666668
12037,Columbia County,NY,NA,NA,89.45386064030131,NA
12209,Albany County,NY,NA,86.6120218579235,NA,NA
13104,Onondaga County,NY,NA,58.7431693989071,NA,NA
13326,Otsego County,NY,NA,NA,NA,28.999999999999996
13329,Herkimer County,NY,NA,80.32786885245902,NA,NA
13335,Otsego County,NY,NA,NA,99.43502824858757,NA
13339,Montgomery County,NY,NA,NA,NA,66
13350,Herkimer County,NY,NA,NA,37.664783427495294,NA
13357,Herkimer County,NY,NA,NA,56.30885122410546,NA
13365,Herkimer County,NY,NA,NA,36.15819209039548,NA
13407,Herkimer County,NY,NA,67.75956284153006,67.984934086629,NA
13662,St. Lawrence County,NY,NA,NA,19.2090395480226,NA
13753,Delaware County,NY,NA,70.21857923497268,NA,NA
13790,Broome County,NY,NA,NA,11.11111111111111,NA
13820,Otsego County,NY,NA,NA,38.60640301318267,15.666666666666668
13905,Broome County,NY,NA,NA,7.532956685499058,NA
14219,Erie County,NY,NA,NA,55.367231638418076,NA
14227,Erie County,NY,NA,NA,NA,22
14305,Niagara County,NY,NA,NA,38.4180790960452,NA
14420,Monroe County,NY,NA,NA,25.235404896421848,NA
14423,Livingston County,NY,NA,NA,99.2467043314501,NA
14425,Ontario County,NY,NA,21.584699453551913,NA,NA
14468,Monroe County,NY,NA,NA,57.250470809792844,NA
14482,Genesee County,NY,NA,57.377049180327866,NA,NA
14580,Monroe County,NY,NA,NA,0.18832391713747645,NA
14616,Monroe County,NY,NA,NA,11.67608286252354,NA
14622,Monroe County,NY,NA,NA,22.4105461393597,NA
14624,Monroe County,NY,NA,NA,3.766478342749529,NA
14750,Chautauqua County,NY,NA,NA,NA,86.33333333333333
14830,Steuben County,NY,NA,29.508196721311474,34.08662900188324,NA
14837,Yates County,NY,NA,NA,87.75894538606404,NA
14850,Tompkins County,NY,NA,NA,NA,25
27012,Forsyth County,NC,NA,39.07103825136612,NA,NA
27023,Forsyth County,NC,NA,NA,59.51035781544256,NA
27028,Davie County,NC,NA,NA,11.487758945386064,16.333333333333332
27040,Forsyth County,NC,NA,NA,88.70056497175142,NA
27103,Forsyth County,NC,NA,NA,42.18455743879473,2.3333333333333335
27104,Forsyth County,NC,NA,NA,9.416195856873824,NA
27106,Forsyth County,NC,NA,NA,NA,1.6666666666666667
27215,Alamance County,NC,NA,14.207650273224044,NA,NA
27284,Forsyth County,NC,NA,NA,37.85310734463277,NA
27292,Davidson County,NC,NA,NA,1.694915254237288,NA
27295,Davidson County,NC,28.24427480916031,NA,NA,NA
27360,Davidson County,NC,NA,NA,NA,72.33333333333334
27514,Orange County,NC,92.36641221374046,NA,NA,NA
27516,Orange County,NC,NA,NA,16.195856873822976,NA
27517,Orange County,NC,NA,NA,30.69679849340866,NA
27539,Wake County,NC,NA,65.84699453551912,NA,NA
27592,Wake County,NC,NA,73.77049180327869,NA,NA
27610,Wake County,NC,NA,NA,9.03954802259887,NA
27705,Durham County,NC,NA,NA,NA,17.333333333333336
27713,Durham County,NC,NA,30.601092896174865,NA,NA
27870,Halifax County,NC,NA,NA,NA,39
27944,Perquimans County,NC,NA,NA,NA,56.99999999999999
27949,Dare County,NC,NA,NA,NA,77.33333333333333
28215,Mecklenburg County,NC,NA,NA,NA,27.333333333333332
28372,Robeson County,NC,NA,NA,64.59510357815442,NA
28411,New Hanover County,NC,NA,NA,42.56120527306968,NA
28443,Pender County,NC,NA,NA,58.3804143126177,NA
28461,Brunswick County,NC,NA,NA,NA,14.666666666666666
28571,Pamlico County,NC,NA,NA,NA,95.33333333333334
28659,Wilkes County,NC,NA,NA,29.943502824858758,NA
28677,Iredell County,NC,NA,NA,24.858757062146893,NA
28719,Jackson County,NC,49.61832061068702,53.551912568306015,64.21845574387947,NA
28732,Henderson County,NC,NA,NA,NA,61
28734,Macon County,NC,NA,55.46448087431693,NA,NA
28786,Haywood County,NC,NA,NA,21.468926553672315,NA
58078,Cass County,ND,50,65.57377049180327,NA,50
58103,Cass County,ND,42.74809160305343,11.475409836065573,43.50282485875706,2.666666666666667
58104,Cass County,ND,NA,69.12568306010928,46.89265536723164,4.333333333333334
58201,Grand Forks County,ND,NA,NA,9.792843691148775,32.666666666666664
58203,Grand Forks County,ND,NA,59.56284153005464,NA,48
58316,Rolette County,ND,53.43511450381679,91.2568306010929,NA,NA
58318,Bottineau County,ND,NA,98.08743169398907,NA,NA
58329,Rolette County,ND,72.90076335877863,NA,NA,NA
58501,Burleigh County,ND,98.85496183206108,NA,NA,NA
58554,Morton County,ND,NA,44.80874316939891,NA,NA
58801,Williams County,ND,78.62595419847328,NA,NA,NA
43016,Franklin County,OH,43.51145038167939,NA,NA,NA
43026,Franklin County,OH,NA,24.59016393442623,NA,NA
43055,Licking County,OH,NA,NA,NA,22
43068,Franklin County,OH,26.33587786259542,NA,NA,NA
43071,Licking County,OH,NA,NA,98.30508474576271,NA
43076,Perry County,OH,NA,NA,93.40866290018832,NA
43081,Franklin County,OH,NA,27.595628415300546,NA,NA
43082,Delaware County,OH,NA,NA,44.25612052730697,NA
43110,Franklin County,OH,36.25954198473282,NA,NA,NA
43119,Franklin County,OH,37.786259541984734,NA,NA,NA
43201,Franklin County,OH,60.30534351145038,54.644808743169406,NA,NA
43204,Franklin County,OH,1.1450381679389312,NA,NA,NA
43206,Franklin County,OH,59.16030534351145,NA,NA,NA
43209,Franklin County,OH,NA,NA,83.80414312617702,NA
43211,Franklin County,OH,31.297709923664126,15.300546448087433,NA,NA
43219,Franklin County,OH,30.53435114503817,NA,NA,NA
43223,Franklin County,OH,8.778625954198473,NA,NA,NA
43224,Franklin County,OH,9.16030534351145,NA,18.07909604519774,NA
43227,Franklin County,OH,35.49618320610687,27.86885245901639,NA,NA
43228,Franklin County,OH,8.396946564885496,NA,NA,NA
43229,Franklin County,OH,NA,NA,NA,18
43231,Franklin County,OH,11.450381679389313,NA,NA,NA
43232,Franklin County,OH,58.396946564885496,6.557377049180328,NA,NA
43235,Franklin County,OH,65.64885496183206,NA,NA,NA
43787,Morgan County,OH,83.20610687022901,NA,NA,NA
43812,Coshocton County,OH,NA,8.743169398907105,NA,NA
43968,Columbiana County,OH,NA,56.557377049180324,NA,NA
44001,Lorain County,OH,NA,NA,5.83804143126177,NA
44012,Lorain County,OH,NA,NA,38.04143126177024,NA
44017,Cuyahoga County,OH,NA,44.53551912568306,NA,NA
44022,Cuyahoga County,OH,NA,NA,79.28436911487758,NA
44030,Ashtabula County,OH,NA,27.86885245901639,NA,NA
44035,Lorain County,OH,33.20610687022901,31.967213114754102,NA,NA
44039,Lorain County,OH,64.12213740458014,NA,NA,23.333333333333332
44050,Lorain County,OH,NA,NA,79.09604519774011,NA
44053,Lorain County,OH,NA,NA,8.851224105461393,NA
44055,Lorain County,OH,NA,41.80327868852459,NA,NA
44060,Lake County,OH,NA,11.202185792349727,10.922787193973635,0.33333333333333337
44070,Cuyahoga County,OH,NA,NA,NA,24.333333333333336
44074,Lorain County,OH,88.16793893129771,NA,NA,NA
44077,Lake County,OH,NA,NA,4.3314500941619585,NA
44087,Summit County,OH,NA,NA,NA,5
44089,Erie County,OH,NA,NA,12.994350282485875,NA
44090,Lorain County,OH,NA,66.39344262295081,NA,NA
44094,Lake County,OH,NA,NA,6.4030131826742,NA
44102,Cuyahoga County,OH,NA,NA,3.954802259887006,NA
44104,Cuyahoga County,OH,12.595419847328243,6.830601092896176,23.35216572504708,NA
44105,Cuyahoga County,OH,NA,2.185792349726776,NA,3.6666666666666665
44106,Cuyahoga County,OH,NA,14.754098360655737,NA,NA
44107,Cuyahoga County,OH,NA,NA,4.8964218455743875,NA
44108,Cuyahoga County,OH,NA,42.349726775956285,NA,49
44109,Cuyahoga County,OH,NA,7.650273224043716,3.2015065913371,NA
44111,Cuyahoga County,OH,2.6717557251908395,3.825136612021858,NA,NA
44112,Cuyahoga County,OH,NA,NA,7.1563088512241055,NA
44116,Cuyahoga County,OH,NA,NA,31.07344632768362,NA
44117,Cuyahoga County,OH,NA,NA,49.152542372881356,NA
44118,Cuyahoga County,OH,NA,16.39344262295082,NA,NA
44120,Cuyahoga County,OH,NA,56.284153005464475,NA,NA
44121,Cuyahoga County,OH,82.82442748091603,NA,16.0075329566855,NA
44124,Cuyahoga County,OH,NA,31.693989071038253,4.708097928436912,0.6666666666666667
44125,Cuyahoga County,OH,17.938931297709924,13.934426229508196,NA,NA
44126,Cuyahoga County,OH,53.05343511450382,NA,NA,NA
44127,Cuyahoga County,OH,55.343511450381676,NA,NA,NA
44128,Cuyahoga County,OH,NA,NA,3.5781544256120528,NA
44132,Cuyahoga County,OH,NA,62.02185792349727,NA,NA
44134,Cuyahoga County,OH,NA,58.46994535519126,66.66666666666666,NA
44135,Cuyahoga County,OH,NA,5.191256830601093,NA,NA
44136,Cuyahoga County,OH,NA,78.96174863387978,NA,NA
44137,Cuyahoga County,OH,NA,NA,13.182674199623351,NA
44140,Cuyahoga County,OH,NA,NA,67.79661016949152,NA
44143,Cuyahoga County,OH,NA,72.1311475409836,16.760828625235405,3
44144,Cuyahoga County,OH,39.31297709923664,NA,10.734463276836157,NA
44145,Cuyahoga County,OH,NA,NA,7.344632768361582,5.333333333333334
44146,Cuyahoga County,OH,NA,10.382513661202186,NA,NA
44147,Cuyahoga County,OH,80.91603053435115,NA,NA,NA
44202,Portage County,OH,NA,NA,22.598870056497177,NA
44203,Summit County,OH,NA,NA,41.431261770244824,NA
44256,Medina County,OH,NA,25.40983606557377,0.3766478342749529,NA
44286,Summit County,OH,NA,NA,NA,82.33333333333334
44305,Summit County,OH,NA,NA,NA,55.333333333333336
44310,Summit County,OH,25.572519083969464,NA,NA,NA
44313,Summit County,OH,NA,NA,20.33898305084746,NA
44321,Summit County,OH,NA,NA,NA,69.66666666666667
44333,Summit County,OH,NA,NA,NA,34
44473,Trumbull County,OH,NA,NA,NA,90
44805,Ashland County,OH,NA,NA,7.909604519774012,NA
44820,Crawford County,OH,17.17557251908397,NA,NA,NA
44839,Erie County,OH,NA,NA,42.93785310734463,NA
45011,Butler County,OH,4.961832061068702,NA,NA,NA
45013,Butler County,OH,40.0763358778626,NA,NA,NA
45015,Butler County,OH,41.98473282442748,NA,NA,NA
45036,Warren County,OH,50.76335877862596,NA,NA,NA
45044,Butler County,OH,NA,NA,48.7758945386064,NA
45056,Butler County,OH,NA,NA,NA,70
45069,Butler County,OH,72.13740458015268,NA,NA,NA
45102,Clermont County,OH,64.12213740458014,NA,NA,NA
45142,Highland County,OH,94.27480916030534,NA,NA,NA
45202,Hamilton County,OH,NA,NA,94.53860640301318,NA
45211,Hamilton County,OH,16.030534351145036,12.841530054644808,NA,NA
45215,Hamilton County,OH,58.01526717557252,NA,NA,NA
45216,Hamilton County,OH,41.603053435114504,NA,88.88888888888889,NA
45224,Hamilton County,OH,35.11450381679389,NA,NA,NA
45227,Hamilton County,OH,59.541984732824424,NA,NA,NA
45231,Hamilton County,OH,16.793893129770993,NA,NA,NA
45232,Hamilton County,OH,32.06106870229007,NA,NA,NA
45239,Hamilton County,OH,28.62595419847328,NA,NA,NA
45240,Hamilton County,OH,19.84732824427481,NA,NA,NA
45241,Hamilton County,OH,67.93893129770993,NA,NA,NA
45242,Hamilton County,OH,64.12213740458014,NA,NA,NA
45245,Clermont County,OH,66.03053435114504,NA,NA,NA
45601,Ross County,OH,NA,1.912568306010929,NA,NA
45640,Jackson County,OH,22.137404580152673,NA,NA,NA
45669,Lawrence County,OH,NA,NA,NA,57.333333333333336
45692,Jackson County,OH,29.770992366412212,NA,NA,NA
45697,Adams County,OH,74.42748091603053,NA,NA,NA
45780,Athens County,OH,NA,91.80327868852459,NA,NA
73005,Caddo County,OK,70.61068702290076,NA,NA,NA
73018,Grady County,OK,NA,52.732240437158474,NA,NA
73072,Cleveland County,OK,70.22900763358778,NA,NA,NA
73075,Garvin County,OK,NA,NA,77.21280602636534,NA
73086,Murray County,OK,NA,NA,88.13559322033898,NA
73170,Cleveland County,OK,NA,40.43715846994536,NA,NA
73401,Carter County,OK,76.33587786259542,NA,NA,NA
73446,Marshall County,OK,NA,NA,NA,83.66666666666667
73507,Comanche County,OK,63.74045801526718,NA,NA,NA
73521,Jackson County,OK,NA,NA,59.69868173258004,NA
73601,Custer County,OK,NA,NA,81.92090395480226,NA
73701,Garfield County,OK,NA,NA,36.72316384180791,NA
74003,Osage County,OK,NA,NA,76.08286252354048,NA
74006,Washington County,OK,NA,60.92896174863388,43.12617702448211,NA
74016,Rogers County,OK,NA,93.16939890710383,NA,NA
74017,Rogers County,OK,NA,NA,51.9774011299435,NA
74047,Tulsa County,OK,95.80152671755725,NA,NA,NA
74070,Osage County,OK,NA,NA,NA,88.66666666666667
74105,Tulsa County,OK,NA,46.17486338797814,NA,NA
74301,Craig County,OK,NA,NA,92.27871939736346,65.33333333333333
74331,Delaware County,OK,NA,92.07650273224044,NA,NA
74346,Delaware County,OK,NA,NA,93.03201506591337,NA
74352,Mayes County,OK,NA,94.53551912568307,NA,NA
74361,Mayes County,OK,NA,69.39890710382514,NA,95.33333333333334
74365,Mayes County,OK,NA,86.88524590163934,88.32391713747646,NA
74401,Muskogee County,OK,48.473282442748086,NA,NA,NA
74435,Sequoyah County,OK,NA,NA,99.62335216572504,NA
74462,Haskell County,OK,72.51908396946564,NA,NA,75.33333333333333
74464,Cherokee County,OK,NA,NA,56.12052730696798,NA
74501,Pittsburg County,OK,NA,NA,49.52919020715631,30.333333333333336
74523,Pushmataha County,OK,NA,NA,85.31073446327684,99.66666666666667
74525,Atoka County,OK,87.78625954198473,NA,NA,65.66666666666666
74547,Pittsburg County,OK,96.56488549618321,NA,NA,NA
74578,Latimer County,OK,NA,94.80874316939891,NA,NA
74701,Bryan County,OK,58.778625954198475,NA,NA,NA
74728,McCurtain County,OK,NA,79.50819672131148,95.48022598870057,74.66666666666667
74743,Choctaw County,OK,NA,NA,87.00564971751412,71.33333333333334
74745,McCurtain County,OK,NA,NA,97.5517890772128,NA
74801,Pottawatomie County,OK,NA,45.3551912568306,NA,NA
74820,Pontotoc County,OK,NA,41.2568306010929,NA,NA
74851,Pottawatomie County,OK,NA,NA,70.80979284369114,NA
74948,Sequoyah County,OK,NA,68.5792349726776,77.96610169491525,NA
74955,Sequoyah County,OK,NA,64.75409836065575,NA,NA
74959,Le Flore County,OK,NA,NA,84.7457627118644,NA
74960,Adair County,OK,NA,34.42622950819672,86.4406779661017,NA
74966,Le Flore County,OK,NA,99.72677595628416,NA,NA
97060,Multnomah County,OR,NA,49.72677595628415,NA,NA
97070,Clackamas County,OR,NA,68.0327868852459,NA,NA
97123,Washington County,OR,NA,24.863387978142075,NA,NA
97209,Multnomah County,OR,NA,NA,63.2768361581921,NA
97219,Multnomah County,OR,NA,NA,NA,52.666666666666664
97221,Multnomah County,OR,NA,NA,NA,87
97232,Multnomah County,OR,NA,NA,NA,73.33333333333333
97239,Multnomah County,OR,NA,NA,NA,56.333333333333336
97394,Lincoln County,OR,NA,NA,76.8361581920904,NA
97470,Douglas County,OR,NA,NA,28.436911487758948,NA
15226,Allegheny County,PA,NA,NA,NA,33.33333333333333
15320,Greene County,PA,NA,75.68306010928961,NA,NA
15601,Westmoreland County,PA,NA,NA,2.824858757062147,NA
15825,Jefferson County,PA,NA,NA,48.21092278719397,NA
16830,Clearfield County,PA,NA,NA,33.14500941619586,NA
17020,Perry County,PA,NA,NA,90.96045197740112,NA
17036,Dauphin County,PA,NA,28.96174863387978,15.630885122410545,21.666666666666668
17042,Lebanon County,PA,NA,NA,8.662900188323917,NA
17044,Mifflin County,PA,NA,NA,10.546139359698682,NA
17055,Cumberland County,PA,NA,NA,NA,9
17078,Lebanon County,PA,NA,NA,14.689265536723164,28.333333333333332
17111,Dauphin County,PA,NA,NA,56.685499058380415,NA
17815,Columbia County,PA,NA,NA,14.124293785310735,NA
17821,Montour County,PA,NA,32.78688524590164,17.702448210922785,4
17847,Northumberland County,PA,NA,NA,NA,49.333333333333336
17866,Northumberland County,PA,64.12213740458014,NA,NA,NA
17870,Snyder County,PA,NA,55.19125683060109,NA,35.333333333333336
17948,Schuylkill County,PA,NA,89.07103825136612,NA,NA
17963,Schuylkill County,PA,NA,NA,NA,82.66666666666667
18704,Luzerne County,PA,NA,20.76502732240437,NA,9.333333333333334
18706,Luzerne County,PA,NA,NA,38.983050847457626,NA
18940,Bucks County,PA,NA,NA,NA,45.666666666666664
19030,Bucks County,PA,NA,79.23497267759562,NA,NA
19061,Delaware County,PA,NA,NA,42.3728813559322,NA
19073,Delaware County,PA,NA,NA,NA,15
19103,Philadelphia County,PA,NA,NA,NA,20.333333333333332
19130,Philadelphia County,PA,NA,NA,38.79472693032015,NA
19142,Philadelphia County,PA,NA,17.21311475409836,NA,NA
19143,Philadelphia County,PA,NA,NA,2.4482109227871938,NA
19144,Philadelphia County,PA,NA,NA,13.370998116760829,NA
19147,Philadelphia County,PA,NA,NA,NA,49.666666666666664
19380,Chester County,PA,NA,NA,NA,5.666666666666666
19422,Montgomery County,PA,NA,NA,71.75141242937853,NA
19426,Montgomery County,PA,NA,43.169398907103826,NA,NA
19508,Berks County,PA,NA,NA,45.5743879472693,NA
02874,Washington County,RI,NA,NA,NA,94
02893,Kent County,RI,NA,NA,60.451977401129945,NA
02904,Providence County,RI,NA,NA,21.84557438794727,NA
29306,Spartanburg County,SC,NA,NA,69.49152542372882,NA
29341,Cherokee County,SC,NA,78.68852459016394,NA,70.66666666666667
29403,Charleston County,SC,NA,77.04918032786885,NA,NA
29406,Charleston County,SC,26.33587786259542,NA,NA,NA
29407,Charleston County,SC,NA,47.26775956284153,NA,NA
29464,Charleston County,SC,NA,NA,26.17702448210923,NA
29485,Dorchester County,SC,NA,NA,34.463276836158194,NA
29492,Berkeley County,SC,NA,88.25136612021858,NA,NA
29566,Horry County,SC,NA,NA,52.730696798493405,NA
57005,Minnehaha County,SD,NA,83.33333333333334,NA,NA
57006,Brookings County,SD,NA,NA,NA,66.33333333333333
57104,Minnehaha County,SD,NA,NA,37.28813559322034,14.333333333333334
57105,Minnehaha County,SD,NA,NA,15.254237288135593,8.333333333333332
57108,Lincoln County,SD,NA,NA,57.6271186440678,NA
57110,Minnehaha County,SD,NA,NA,29.566854990583803,NA
57262,Roberts County,SD,76.7175572519084,NA,NA,NA
57555,Todd County,SD,NA,NA,99.81167608286252,NA
57625,Dewey County,SD,66.41221374045801,NA,NA,NA
57701,Pennington County,SD,62.59541984732825,NA,20.15065913370998,NA
57702,Pennington County,SD,NA,64.20765027322405,NA,NA
57718,Meade County,SD,NA,NA,100,NA
57770,Shannon County,SD,21.755725190839694,NA,NA,NA
37030,Smith County,TN,NA,NA,94.16195856873823,NA
37042,Montgomery County,TN,NA,29.78142076502732,NA,NA
37174,Williamson County,TN,NA,NA,41.99623352165725,NA
37412,Hamilton County,TN,NA,NA,61.20527306967985,NA
38019,Tipton County,TN,NA,NA,52.54237288135594,NA
38260,Obion County,TN,NA,NA,96.98681732580037,NA
75134,Dallas County,TX,NA,NA,73.44632768361582,NA
75149,Dallas County,TX,23.282442748091604,NA,NA,NA
75169,Van Zandt County,TX,NA,NA,NA,65
75228,Dallas County,TX,37.02290076335878,NA,24.293785310734464,NA
75633,Panola County,TX,NA,NA,55.74387947269304,NA
75645,Upshur County,TX,NA,81.14754098360656,NA,NA
75701,Smith County,TX,NA,43.98907103825137,NA,NA
75752,Henderson County,TX,NA,NA,80.97928436911488,NA
75757,Smith County,TX,69.08396946564885,NA,45.76271186440678,NA
75771,Smith County,TX,NA,NA,32.7683615819209,NA
76002,Tarrant County,TX,NA,NA,64.40677966101694,NA
76248,Tarrant County,TX,NA,NA,NA,37.333333333333336
76513,Bell County,TX,NA,NA,2.0715630885122414,NA
76543,Bell County,TX,NA,36.33879781420765,NA,NA
76634,Bosque County,TX,NA,NA,NA,62
76655,McLennan County,TX,NA,NA,NA,79.66666666666666
76661,Falls County,TX,NA,NA,NA,92.33333333333333
76691,McLennan County,TX,NA,NA,NA,97.33333333333334
76705,McLennan County,TX,NA,21.311475409836063,NA,NA
76706,McLennan County,TX,NA,NA,NA,56.666666666666664
76710,McLennan County,TX,NA,NA,46.516007532956685,NA
76711,McLennan County,TX,NA,NA,NA,87.33333333333333
77003,Harris County,TX,NA,NA,NA,96.33333333333334
77004,Harris County,TX,NA,36.6120218579235,NA,NA
77009,Harris County,TX,NA,53.825136612021865,NA,NA
77021,Harris County,TX,NA,43.44262295081967,NA,NA
77022,Harris County,TX,NA,NA,54.99058380414312,NA
77026,Harris County,TX,NA,NA,56.49717514124294,NA
77032,Harris County,TX,NA,82.78688524590164,NA,NA
77033,Harris County,TX,NA,60.38251366120219,22.033898305084744,NA
77051,Harris County,TX,NA,NA,58.94538606403014,NA
77053,Fort Bend County,TX,NA,NA,58.00376647834275,NA
77089,Harris County,TX,42.36641221374045,NA,NA,NA
77090,Harris County,TX,NA,NA,58.00376647834275,NA
77092,Harris County,TX,69.08396946564885,NA,NA,NA
77093,Harris County,TX,38.16793893129771,NA,NA,NA
77521,Harris County,TX,NA,NA,35.40489642184557,NA
77523,Chambers County,TX,NA,62.841530054644814,NA,NA
77568,Galveston County,TX,NA,NA,NA,55.666666666666664
77587,Harris County,TX,NA,80.87431693989072,NA,NA
77632,Orange County,TX,NA,NA,NA,73.66666666666667
77640,Jefferson County,TX,NA,NA,65.34839924670433,NA
77802,Brazos County,TX,NA,NA,NA,36.333333333333336
78254,Bexar County,TX,NA,NA,73.82297551789078,NA
78504,Hidalgo County,TX,NA,NA,48.39924670433145,NA
78521,Cameron County,TX,NA,NA,20.903954802259886,NA
78574,Hidalgo County,TX,NA,NA,NA,38
78611,Burnet County,TX,NA,NA,62.90018832391714,NA
78633,Williamson County,TX,NA,NA,2.2598870056497176,0
78664,Williamson County,TX,NA,NA,NA,57.666666666666664
84054,Davis County,UT,NA,NA,NA,83.33333333333334
84065,Salt Lake County,UT,NA,NA,NA,88
84074,Tooele County,UT,93.51145038167938,NA,NA,NA
84078,Uintah County,UT,NA,20.21857923497268,NA,NA
84081,Salt Lake County,UT,NA,NA,59.133709981167605,NA
84092,Salt Lake County,UT,NA,NA,89.26553672316385,NA
84095,Salt Lake County,UT,NA,NA,79.47269303201506,38.333333333333336
84096,Salt Lake County,UT,NA,NA,62.14689265536724,NA
84098,Summit County,UT,NA,NA,NA,80
84103,Salt Lake County,UT,NA,71.03825136612022,NA,NA
84104,Salt Lake County,UT,NA,NA,90.3954802259887,NA
84105,Salt Lake County,UT,NA,NA,67.2316384180791,NA
84107,Salt Lake County,UT,NA,NA,47.64595103578154,NA
84108,Salt Lake County,UT,NA,NA,NA,70.33333333333334
84109,Salt Lake County,UT,NA,NA,54.80225988700565,NA
84119,Salt Lake County,UT,NA,75.95628415300546,NA,NA
84120,Salt Lake County,UT,NA,40.16393442622951,NA,NA
84128,Salt Lake County,UT,NA,NA,69.6798493408663,NA
84701,Sevier County,UT,NA,NA,96.61016949152543,NA
05001,Windsor County,VT,NA,NA,86.06403013182674,NA
05060,Orange County,VT,NA,NA,NA,89.33333333333333
05089,Windsor County,VT,NA,NA,92.8436911487759,NA
05091,Windsor County,VT,NA,NA,NA,94.66666666666667
05401,Chittenden County,VT,NA,NA,50.282485875706215,NA
05408,Chittenden County,VT,NA,NA,NA,76.66666666666667
05452,Chittenden County,VT,NA,NA,NA,41.333333333333336
05495,Chittenden County,VT,NA,NA,65.72504708097928,NA
05672,Lamoille County,VT,NA,NA,95.66854990583803,NA
20121,Fairfax County,VA,NA,71.03825136612022,NA,NA
22206,Arlington County,VA,NA,NA,91.71374764595103,NA
22901,Albemarle County,VA,NA,NA,30.32015065913371,NA
22942,Louisa County,VA,NA,NA,71.939736346516,NA
22960,Orange County,VA,61.06870229007634,NA,NA,NA
23462,Virginia Beach city,VA,NA,23.770491803278688,NA,NA
23693,York County,VA,NA,NA,69.11487758945385,NA
24112,Henry County,VA,NA,NA,70.4331450094162,NA
24477,Augusta County,VA,NA,NA,NA,59.66666666666667
24540,Danville city,VA,NA,36.0655737704918,NA,NA
98004,King County,WA,93.89312977099237,NA,NA,NA
98022,King County,WA,NA,NA,26.55367231638418,NA
98031,King County,WA,69.08396946564885,NA,NA,NA
98036,Snohomish County,WA,NA,NA,43.12617702448211,NA
98058,King County,WA,NA,NA,25.423728813559322,NA
98144,King County,WA,NA,NA,NA,53.666666666666664
98146,King County,WA,NA,NA,35.59322033898305,NA
98155,King County,WA,NA,NA,NA,36.666666666666664
98204,Snohomish County,WA,NA,NA,51.03578154425612,NA
98225,Whatcom County,WA,NA,60.65573770491803,NA,NA
98233,Skagit County,WA,NA,NA,55.55555555555556,NA
98257,Skagit County,WA,NA,NA,87.00564971751412,NA
98275,Snohomish County,WA,NA,74.86338797814209,NA,NA
98282,Island County,WA,NA,NA,43.69114877589454,NA
98466,Pierce County,WA,NA,67.4863387978142,NA,NA
98584,Mason County,WA,NA,NA,23.163841807909606,NA
98682,Clark County,WA,NA,NA,NA,31.333333333333336
98801,Chelan County,WA,80.1526717557252,87.1584699453552,70.99811676082862,72.66666666666667
98802,Douglas County,WA,91.98473282442748,79.78142076502732,32.015065913371,NA
98815,Chelan County,WA,95.41984732824427,NA,95.29190207156309,NA
98816,Chelan County,WA,99.61832061068702,NA,77.5894538606403,NA
98826,Chelan County,WA,99.23664122137404,NA,NA,NA
25064,Kanawha County,WV,NA,NA,NA,78
25177,Kanawha County,WV,NA,NA,NA,15
25271,Jackson County,WV,NA,NA,NA,58.666666666666664
25504,Cabell County,WV,NA,NA,NA,69
25541,Cabell County,WV,NA,72.1311475409836,NA,NA
25705,Cabell County,WV,NA,NA,24.670433145009415,NA
25951,Summers County,WV,NA,NA,NA,71
26354,Taylor County,WV,NA,NA,NA,44.666666666666664
26416,Barbour County,WV,NA,NA,NA,81
26452,Lewis County,WV,NA,NA,34.65160075329567,NA
26501,Monongalia County,WV,NA,NA,32.20338983050847,NA
26554,Marion County,WV,NA,7.103825136612022,NA,NA
53005,Waukesha County,WI,NA,NA,NA,43.333333333333336
53066,Waukesha County,WI,NA,48.08743169398907,NA,NA
53089,Waukesha County,WI,96.94656488549617,NA,NA,NA
53105,Racine County,WI,NA,19.94535519125683,NA,NA
53115,Walworth County,WI,NA,NA,NA,39.33333333333333
53142,Kenosha County,WI,NA,13.661202185792352,NA,NA
53144,Kenosha County,WI,NA,NA,NA,51.66666666666667
53151,Waukesha County,WI,NA,NA,23.728813559322035,NA
53202,Milwaukee County,WI,NA,NA,48.0225988700565,NA
53204,Milwaukee County,WI,NA,NA,40.11299435028249,NA
53208,Milwaukee County,WI,27.480916030534353,NA,NA,NA
53217,Milwaukee County,WI,NA,43.71584699453552,NA,NA
53218,Milwaukee County,WI,15.267175572519085,NA,NA,NA
53223,Milwaukee County,WI,44.656488549618324,NA,NA,NA
53511,Rock County,WI,NA,23.497267759562842,NA,NA
53520,Green County,WI,NA,NA,91.33709981167608,NA
53528,Dane County,WI,NA,NA,86.81732580037664,NA
53538,Jefferson County,WI,NA,NA,NA,23.666666666666668
53546,Rock County,WI,NA,22.131147540983605,NA,NA
53548,Rock County,WI,NA,NA,28.625235404896422,NA
53549,Jefferson County,WI,NA,76.775956284153,NA,NA
53555,Columbia County,WI,NA,95.3551912568306,NA,NA
53562,Dane County,WI,NA,NA,NA,21
53563,Rock County,WI,NA,81.9672131147541,75.51789077212806,NA
53566,Green County,WI,NA,80.05464480874316,22.975517890772128,41
53575,Dane County,WI,NA,NA,71.56308851224105,NA
53589,Dane County,WI,88.54961832061069,77.8688524590164,NA,NA
53594,Jefferson County,WI,NA,NA,NA,91.33333333333333
53703,Dane County,WI,NA,NA,97.36346516007532,NA
53704,Dane County,WI,51.526717557251914,63.387978142076506,19.58568738229755,NA
53705,Dane County,WI,NA,59.2896174863388,49.34086629001883,NA
53711,Dane County,WI,53.43511450381679,70.76502732240438,NA,14.000000000000002
53714,Dane County,WI,94.27480916030534,NA,NA,NA
53717,Dane County,WI,NA,NA,60.64030131826742,NA
53718,Dane County,WI,NA,NA,95.10357815442562,NA
53719,Dane County,WI,NA,61.20218579234973,NA,NA
53821,Crawford County,WI,NA,83.87978142076503,93.97363465160076,NA
53925,Columbia County,WI,NA,NA,91.1487758945386,NA
54011,Pierce County,WI,NA,NA,87.57062146892656,97.66666666666667
54016,St. Croix County,WI,NA,53.278688524590166,NA,NA
54020,Polk County,WI,NA,78.14207650273224,NA,NA
54467,Portage County,WI,NA,NA,41.431261770244824,54.333333333333336
54601,La Crosse County,WI,38.54961832061068,75.13661202185791,72.31638418079096,32
54603,La Crosse County,WI,NA,59.83606557377049,76.45951035781545,76.33333333333333
54630,Trempealeau County,WI,NA,88.79781420765028,85.49905838041431,77.66666666666666
54636,La Crosse County,WI,NA,86.33879781420765,90.77212806026365,51.33333333333333
54650,La Crosse County,WI,NA,NA,60.263653483992464,73
54656,Monroe County,WI,NA,NA,NA,17.666666666666668
54660,Monroe County,WI,NA,NA,49.90583804143126,NA
54669,La Crosse County,WI,NA,NA,90.20715630885122,98.33333333333333
54703,Eau Claire County,WI,63.358778625954194,NA,NA,NA
54880,Douglas County,WI,NA,NA,61.016949152542374,29.333333333333332
54947,Winnebago County,WI,NA,98.90710382513662,NA,NA
