ZipCode,county,state,Adult
35150,Talladega County,AL,41.76470588235294
35660,Colbert County,AL,74.70588235294117
85204,Maricopa County,AZ,16.470588235294116
85248,Maricopa County,AZ,59.411764705882355
85718,Pima County,AZ,61.1764705882353
86514,Apache County,AZ,97.05882352941177
72113,Pulaski County,AR,77.64705882352942
72120,Pulaski County,AR,47.647058823529406
90744,Los Angeles County,CA,100
91320,Ventura County,CA,70
91915,San Diego County,CA,89.41176470588236
92071,San Diego County,CA,95.88235294117648
92407,San Bernardino County,CA,22.35294117647059
93003,Ventura County,CA,50
93041,Ventura County,CA,68.82352941176471
94526,Contra Costa County,CA,72.94117647058823
94947,Marin County,CA,86.47058823529412
95340,Merced County,CA,37.05882352941177
95453,Lake County,CA,77.64705882352942
95762,El Dorado County,CA,54.70588235294118
96003,Shasta County,CA,45.88235294117647
80011,Arapahoe County,CO,54.11764705882353
80910,El Paso County,CO,30.58823529411765
81001,Pueblo County,CO,25.882352941176475
81125,Saguache County,CO,98.82352941176471
06226,Windham County,CT,51.17647058823529
06401,New Haven County,CT,34.705882352941174
06518,New Haven County,CT,85.88235294117646
32309,Leon County,FL,80.58823529411765
32570,Santa Rosa County,FL,12.352941176470589
32935,Brevard County,FL,24.11764705882353
33139,Miami-Dade County,FL,62.94117647058823
33440,Hendry County,FL,55.294117647058826
33707,Pinellas County,FL,65.88235294117646
33811,Polk County,FL,74.11764705882354
33859,Polk County,FL,91.17647058823529
33936,Lee County,FL,52.94117647058824
34759,Polk County,FL,40.588235294117645
30013,Rockdale County,GA,50.588235294117645
30044,Gwinnett County,GA,24.705882352941178
30110,Haralson County,GA,69.41176470588235
30116,Carroll County,GA,52.352941176470594
30117,Carroll County,GA,36.470588235294116
30134,Douglas County,GA,31.176470588235293
30180,Carroll County,GA,27.647058823529413
30307,DeKalb County,GA,95.29411764705881
30906,Richmond County,GA,8.823529411764707
96734,Honolulu County,HI,39.411764705882355
83617,Gem County,ID,77.05882352941177
60013,McHenry County,IL,58.82352941176471
60618,Cook County,IL,10
60901,Kankakee County,IL,19.411764705882355
61832,Vermilion County,IL,11.76470588235294
62521,Macon County,IL,14.117647058823529
46151,Morgan County,IN,32.35294117647059
47802,Vigo County,IN,28.823529411764703
47904,Tippecanoe County,IN,63.52941176470588
40272,Jefferson County,KY,15.88235294117647
40456,Rockcastle County,KY,79.41176470588235
40517,Fayette County,KY,25.294117647058822
70065,Jefferson Parish,LA,6.470588235294119
70578,Acadia Parish,LA,26.47058823529412
03909,York County,ME,96.47058823529412
04072,York County,ME,41.17647058823529
20910,Montgomery County,MD,61.76470588235294
21122,Anne Arundel County,MD,9.411764705882353
21136,Baltimore County,MD,60.588235294117645
01001,Hampden County,MA,32.94117647058823
01801,Middlesex County,MA,0.5882352941176471
01830,Essex County,MA,1.1764705882352942
02726,Bristol County,MA,34.11764705882353
48009,Oakland County,MI,55.88235294117647
48021,Macomb County,MI,38.23529411764706
48125,Wayne County,MI,27.058823529411764
48188,Wayne County,MI,15.294117647058824
48430,Genesee County,MI,31.76470588235294
48439,Genesee County,MI,14.705882352941178
48604,Saginaw County,MI,57.647058823529406
49057,Van Buren County,MI,83.52941176470588
49285,Ingham County,MI,87.6470588235294
49401,Ottawa County,MI,85.29411764705883
55082,Washington County,MN,94.11764705882352
55107,Ramsey County,MN,78.82352941176471
55119,Ramsey County,MN,44.11764705882353
55411,Hennepin County,MN,20.588235294117645
55804,St. Louis County,MN,76.47058823529412
56470,Hubbard County,MN,90
63028,Jefferson County,MO,30
63084,Franklin County,MO,56.470588235294116
59901,Flathead County,MT,35.294117647058826
68046,Sarpy County,NE,72.35294117647058
68147,Sarpy County,NE,91.76470588235294
89143,Clark County,NV,97.6470588235294
07011,Passaic County,NJ,22.941176470588236
07758,Monmouth County,NJ,98.23529411764706
08016,Burlington County,NJ,4.705882352941177
08060,Burlington County,NJ,90.58823529411765
08865,Warren County,NJ,7.0588235294117645
08902,Middlesex County,NJ,71.17647058823529
87124,Sandoval County,NM,12.941176470588237
87410,San Juan County,NM,70.58823529411765
87701,San Miguel County,NM,53.529411764705884
10009,New York County,NY,10.588235294117647
11377,Queens County,NY,21.176470588235293
11550,Nassau County,NY,13.529411764705882
12025,Fulton County,NY,73.52941176470588
12180,Rensselaer County,NY,2.3529411764705883
14103,Orleans County,NY,47.05882352941176
14424,Ontario County,NY,3.5294117647058822
14450,Monroe County,NY,4.117647058823529
14526,Monroe County,NY,17.058823529411764
14845,Chemung County,NY,18.235294117647058
27030,Surry County,NC,66.47058823529412
27052,Stokes County,NC,71.76470588235294
27886,Edgecombe County,NC,37.64705882352941
28215,Mecklenburg County,NC,17.647058823529413
28429,New Hanover County,NC,84.70588235294117
28613,Catawba County,NC,87.05882352941177
43232,Franklin County,OH,5.88235294117647
44107,Cuyahoga County,OH,1.7647058823529411
44212,Medina County,OH,5.294117647058823
44438,Trumbull County,OH,75.88235294117646
44646,Stark County,OH,11.176470588235295
45177,Clinton County,OH,29.411764705882355
73089,Grady County,OK,84.11764705882354
15229,Allegheny County,PA,88.23529411764706
16125,Mercer County,PA,38.82352941176471
16830,Clearfield County,PA,33.52941176470588
16933,Tioga County,PA,93.52941176470588
17112,Dauphin County,PA,20
17543,Lancaster County,PA,28.235294117647058
19064,Delaware County,PA,40
19111,Philadelphia County,PA,23.52941176470588
19143,Philadelphia County,PA,0
19428,Montgomery County,PA,81.17647058823529
57301,Davison County,SD,51.76470588235295
37075,Sumner County,TN,18.823529411764707
37217,Davidson County,TN,42.35294117647059
75080,Dallas County,TX,60
75154,Ellis County,TX,45.88235294117647
76002,Tarrant County,TX,58.235294117647065
76114,Tarrant County,TX,44.70588235294118
77013,Harris County,TX,88.8235294117647
77414,Matagorda County,TX,48.8235294117647
77510,Galveston County,TX,67.64705882352942
77662,Orange County,TX,48.23529411764706
78240,Bexar County,TX,45.294117647058826
79336,Hockley County,TX,75.29411764705883
79706,Midland County,TX,49.411764705882355
79928,El Paso County,TX,81.76470588235294
84003,Utah County,UT,80
84014,Davis County,UT,92.3529411764706
84015,Davis County,UT,57.05882352941176
84062,Utah County,UT,92.94117647058823
84066,Duchesne County,UT,64.11764705882354
84096,Salt Lake County,UT,65.29411764705883
84118,Salt Lake County,UT,21.764705882352942
22079,Fairfax County,VA,43.529411764705884
22201,Arlington County,VA,62.35294117647059
22801,Harrisonburg city,VA,42.94117647058823
23236,Chesterfield County,VA,64.70588235294117
23692,York County,VA,94.70588235294117
24055,Henry County,VA,67.05882352941175
98405,Pierce County,WA,35.88235294117647
20032,District of Columbia,DC,7.647058823529412
26155,Wetzel County,WV,82.94117647058825
53029,Waukesha County,WI,67.64705882352942
53125,Walworth County,WI,99.41176470588235
53209,Milwaukee County,WI,2.941176470588235
53218,Milwaukee County,WI,8.235294117647058
53520,Green County,WI,82.35294117647058
