ZipCode,county,state,Adult,Retirement,Geriatric
35022,Jefferson County,AL,NA,NA,55.78947368421052
35031,Blount County,AL,77.39602169981917,NA,NA
35406,Tuscaloosa County,AL,NA,48.07395993836672,NA
35613,Limestone County,AL,NA,NA,67.57894736842105
35674,Colbert County,AL,38.698010849909586,NA,NA
35802,Madison County,AL,NA,NA,18.736842105263158
35903,Etowah County,AL,58.22784810126582,64.56086286594761,NA
36268,Talladega County,AL,NA,92.75808936825885,NA
36507,Baldwin County,AL,42.495479204339965,NA,NA
36610,Mobile County,AL,65.46112115732369,NA,NA
36613,Mobile County,AL,85.71428571428571,NA,NA
36854,Chambers County,AL,65.28028933092224,NA,NA
99508,Anchorage Municipality,AK,NA,70.57010785824345,NA
99669,Kenai Peninsula Borough,AK,NA,55.932203389830505,NA
85028,Maricopa County,AZ,NA,61.63328197226502,NA
85032,Maricopa County,AZ,NA,NA,44.8421052631579
85205,Maricopa County,AZ,NA,25.885978428351308,NA
85268,Maricopa County,AZ,85.35262206148282,NA,NA
85350,Yuma County,AZ,NA,NA,92.21052631578948
85353,Maricopa County,AZ,89.1500904159132,NA,NA
85364,Yuma County,AZ,20.253164556962027,NA,NA
85365,Yuma County,AZ,NA,19.106317411402156,10.105263157894736
85367,Yuma County,AZ,NA,NA,9.05263157894737
85373,Maricopa County,AZ,NA,50.231124807396,NA
85621,Santa Cruz County,AZ,NA,44.06779661016949,NA
85650,Cochise County,AZ,NA,58.85978428351309,NA
85706,Pima County,AZ,NA,8.012326656394453,NA
85716,Pima County,AZ,92.04339963833634,NA,NA
85718,Pima County,AZ,61.12115732368897,NA,NA
85730,Pima County,AZ,NA,NA,47.368421052631575
85741,Pima County,AZ,35.98553345388788,NA,NA
85748,Pima County,AZ,NA,69.49152542372882,NA
86047,Navajo County,AZ,NA,33.89830508474576,NA
86314,Yavapai County,AZ,51.17540687160941,NA,NA
86401,Mohave County,AZ,NA,7.0878274268104775,NA
71730,Union County,AR,NA,77.50385208012327,NA
71857,Nevada County,AR,NA,95.68567026194145,NA
72022,Saline County,AR,NA,62.40369799691834,NA
72034,Faulkner County,AR,54.79204339963834,NA,NA
72120,Pulaski County,AR,NA,16.79506933744222,NA
72143,White County,AR,NA,9.553158705701078,NA
72209,Pulaski County,AR,NA,66.56394453004623,86.31578947368422
72687,Marion County,AR,NA,NA,97.68421052631578
90015,Los Angeles County,CA,NA,75.80893682588598,NA
90018,Los Angeles County,CA,NA,NA,32.631578947368425
90034,Los Angeles County,CA,47.377938517179025,NA,NA
90036,Los Angeles County,CA,NA,46.379044684129425,NA
90043,Los Angeles County,CA,NA,21.725731895223422,NA
90045,Los Angeles County,CA,NA,55.77812018489985,NA
90064,Los Angeles County,CA,NA,51.15562403697997,NA
90069,Los Angeles County,CA,NA,51.30970724191063,NA
90077,Los Angeles County,CA,NA,91.67950693374422,NA
90201,Los Angeles County,CA,34.177215189873415,NA,NA
90277,Los Angeles County,CA,NA,NA,51.1578947368421
90503,Los Angeles County,CA,NA,NA,30.526315789473685
90601,Los Angeles County,CA,NA,NA,73.68421052631578
90602,Los Angeles County,CA,NA,58.55161787365177,NA
90603,Los Angeles County,CA,NA,78.89060092449924,NA
90605,Los Angeles County,CA,NA,NA,59.36842105263158
90606,Los Angeles County,CA,56.05786618444847,59.01386748844376,43.78947368421053
90660,Los Angeles County,CA,NA,NA,90.10526315789474
90746,Los Angeles County,CA,80.6509945750452,NA,NA
90802,Los Angeles County,CA,NA,85.824345146379045,NA
91001,Los Angeles County,CA,60.397830018083184,NA,37.05263157894737
91201,Los Angeles County,CA,87.88426763110307,NA,NA
91301,Los Angeles County,CA,NA,71.49460708782742,NA
91304,Los Angeles County,CA,NA,52.54237288135594,NA
91331,Los Angeles County,CA,NA,NA,66.94736842105263
91335,Los Angeles County,CA,33.99638336347197,NA,NA
91403,Los Angeles County,CA,NA,NA,33.89473684210526
91739,San Bernardino County,CA,NA,NA,77.05263157894737
91764,San Bernardino County,CA,NA,NA,68.63157894736842
91906,San Diego County,CA,99.45750452079565,NA,NA
92020,San Diego County,CA,NA,NA,28.000000000000004
92021,San Diego County,CA,16.817359855334537,NA,NA
92024,San Diego County,CA,43.942133815551536,NA,NA
92026,San Diego County,CA,NA,48.69029275808937,NA
92078,San Diego County,CA,NA,76.27118644067797,NA
92113,San Diego County,CA,60.57866184448463,NA,NA
92115,San Diego County,CA,NA,43.143297380585516,NA
92128,San Diego County,CA,NA,NA,9.894736842105264
92129,San Diego County,CA,NA,48.99845916795069,NA
92201,Riverside County,CA,NA,16.94915254237288,NA
92220,Riverside County,CA,NA,62.249614791987675,NA
92234,Riverside County,CA,NA,NA,36.84210526315789
92253,Riverside County,CA,93.12839059674502,NA,NA
92262,Riverside County,CA,NA,10.16949152542373,41.05263157894737
92408,San Bernardino County,CA,NA,98.92141756548536,NA
92553,Riverside County,CA,NA,42.3728813559322,NA
92555,Riverside County,CA,NA,64.25269645608628,NA
92653,Orange County,CA,NA,NA,45.473684210526315
92677,Orange County,CA,NA,9.399075500770417,NA
92833,Orange County,CA,NA,NA,48.421052631578945
92835,Orange County,CA,82.82097649186257,NA,NA
92866,Orange County,CA,NA,NA,73.47368421052632
92881,Riverside County,CA,NA,NA,82.73684210526315
93030,Ventura County,CA,18.44484629294756,NA,NA
93110,Santa Barbara County,CA,NA,NA,85.26315789473684
93263,Kern County,CA,79.20433996383363,NA,NA
93420,San Luis Obispo County,CA,NA,NA,41.68421052631579
93436,Santa Barbara County,CA,NA,93.0662557781202,NA
93449,San Luis Obispo County,CA,97.2875226039783,NA,NA
93458,Santa Barbara County,CA,NA,29.738058551617875,NA
93650,Fresno County,CA,99.63833634719711,NA,NA
93727,Fresno County,CA,NA,25.885978428351308,NA
93940,Monterey County,CA,NA,28.043143297380585,54.736842105263165
94015,San Mateo County,CA,NA,NA,4
94025,San Mateo County,CA,NA,81.97226502311248,NA
94040,Santa Clara County,CA,NA,NA,68.21052631578948
94112,San Francisco County,CA,NA,34.05238828967643,NA
94124,San Francisco County,CA,NA,NA,81.26315789473684
94303,San Mateo County,CA,NA,63.48228043143297,NA
94501,Alameda County,CA,NA,44.37596302003082,NA
94509,Contra Costa County,CA,NA,NA,13.894736842105262
94513,Contra Costa County,CA,NA,24.03697996918336,NA
94518,Contra Costa County,CA,NA,NA,53.473684210526315
94530,Contra Costa County,CA,NA,NA,40.8421052631579
94531,Contra Costa County,CA,NA,94.45300462249615,NA
94538,Alameda County,CA,NA,NA,72.84210526315789
94559,Napa County,CA,NA,59.93836671802774,NA
94560,Alameda County,CA,NA,47.303543913713405,NA
94565,Contra Costa County,CA,57.86618444846293,NA,NA
94597,Contra Costa County,CA,NA,72.26502311248075,NA
94598,Contra Costa County,CA,NA,80.43143297380585,NA
94601,Alameda County,CA,48.10126582278481,NA,NA
94602,Alameda County,CA,NA,NA,65.6842105263158
94607,Alameda County,CA,NA,74.73035439137135,NA
94610,Alameda County,CA,67.26943942133815,NA,NA
94702,Alameda County,CA,66.00361663652802,NA,NA
94806,Contra Costa County,CA,NA,22.18798151001541,NA
94941,Marin County,CA,NA,92.29583975346686,68.42105263157895
95005,Santa Cruz County,CA,NA,99.53775038520801,NA
95008,Santa Clara County,CA,66.90777576853526,NA,NA
95023,San Benito County,CA,NA,80.73959938366718,43.368421052631575
95037,Santa Clara County,CA,59.49367088607595,NA,NA
95112,Santa Clara County,CA,NA,41.294298921417564,91.15789473684211
95126,Santa Clara County,CA,67.63110307414105,NA,NA
95127,Santa Clara County,CA,NA,85.05392912172573,NA
95128,Santa Clara County,CA,NA,NA,45.68421052631579
95206,San Joaquin County,CA,NA,87.82742681047766,NA
95242,San Joaquin County,CA,90.59674502712477,NA,NA
95334,Merced County,CA,NA,83.9753466872111,NA
95355,Stanislaus County,CA,9.764918625678119,NA,NA
95357,Stanislaus County,CA,NA,74.26810477657936,NA
95407,Sonoma County,CA,63.65280289330922,NA,NA
95409,Sonoma County,CA,NA,49.30662557781202,NA
95448,Sonoma County,CA,NA,74.11402157164869,NA
95492,Sonoma County,CA,NA,NA,41.89473684210526
95531,Del Norte County,CA,NA,51.61787365177196,NA
95603,Placer County,CA,NA,NA,23.157894736842106
95624,Sacramento County,CA,50.63291139240506,NA,NA
95660,Sacramento County,CA,NA,58.705701078582436,NA
95683,Sacramento County,CA,NA,NA,96.63157894736842
95758,Sacramento County,CA,91.500904159132,NA,NA
95815,Sacramento County,CA,68.71609403254972,NA,NA
95825,Sacramento County,CA,53.70705244122965,NA,NA
95826,Sacramento County,CA,NA,NA,50.94736842105263
95841,Sacramento County,CA,NA,NA,74.52631578947368
95864,Sacramento County,CA,82.09764918625679,NA,NA
95954,Butte County,CA,44.12296564195298,NA,NA
80015,Arapahoe County,CO,70.34358047016275,NA,NA
80021,Jefferson County,CO,NA,56.08628659476117,NA
80033,Jefferson County,CO,NA,60.86286594761171,NA
80120,Arapahoe County,CO,NA,NA,79.78947368421052
80219,Denver County,CO,5.424954792043399,NA,NA
80223,Denver County,CO,NA,79.96918335901387,NA
80224,Denver County,CO,88.96925858951175,NA,NA
80229,Adams County,CO,15.009041591320072,NA,NA
80241,Adams County,CO,NA,NA,92
80247,Arapahoe County,CO,NA,NA,31.157894736842106
80303,Boulder County,CO,NA,NA,61.05263157894737
80517,Larimer County,CO,NA,NA,31.57894736842105
80524,Larimer County,CO,33.45388788426763,75.96302003081664,NA
80526,Larimer County,CO,NA,NA,31.789473684210527
80528,Larimer County,CO,83.18264014466547,NA,NA
80550,Weld County,CO,32.730560578661844,NA,NA
80601,Adams County,CO,69.43942133815551,NA,NA
80602,Adams County,CO,NA,81.0477657935285,NA
80615,Weld County,CO,NA,93.22033898305084,NA
80634,Weld County,CO,NA,1.5408320493066257,NA
80723,Morgan County,CO,77.9385171790235,NA,NA
80751,Logan County,CO,NA,61.78736517719569,NA
80916,El Paso County,CO,71.97106690777576,NA,NA
80917,El Paso County,CO,NA,NA,53.68421052631579
80919,El Paso County,CO,NA,54.08320493066255,NA
80921,El Paso County,CO,NA,77.19568567026194,NA
81001,Pueblo County,CO,22.965641952983727,NA,NA
81003,Pueblo County,CO,NA,NA,83.36842105263158
81623,Garfield County,CO,NA,NA,92.63157894736842
06057,Litchfield County,CT,NA,NA,95.15789473684211
06071,Tolland County,CT,NA,NA,80.63157894736842
06098,Litchfield County,CT,51.71790235081374,NA,NA
06105,Hartford County,CT,NA,NA,53.05263157894737
06106,Hartford County,CT,5.063291139240507,NA,NA
06112,Hartford County,CT,NA,NA,60.421052631578945
06114,Hartford County,CT,69.8010849909584,NA,NA
06226,Windham County,CT,NA,45.300462249614796,NA
06238,Tolland County,CT,NA,61.17103235747303,NA
06422,Middlesex County,CT,NA,NA,93.47368421052632
06426,Middlesex County,CT,NA,NA,74.10526315789474
06451,New Haven County,CT,85.53345388788426,NA,NA
06457,Middlesex County,CT,NA,8.166409861325114,NA
06468,Fairfield County,CT,NA,95.53158705701078,NA
06480,Middlesex County,CT,NA,71.64869029275809,NA
06511,New Haven County,CT,4.701627486437613,10.323574730354391,NA
06513,New Haven County,CT,NA,39.44530046224962,18.10526315789474
06516,New Haven County,CT,NA,3.5439137134052388,NA
06519,New Haven County,CT,84.99095840867993,NA,NA
06610,Fairfield County,CT,NA,NA,52.63157894736842
06704,New Haven County,CT,23.869801084990957,NA,NA
06830,Fairfield County,CT,NA,37.750385208012325,NA
06831,Fairfield County,CT,NA,NA,62.31578947368421
06896,Fairfield County,CT,NA,NA,81.6842105263158
19901,Kent County,DE,18.9873417721519,NA,NA
19947,Sussex County,DE,47.920433996383366,NA,NA
19975,Sussex County,DE,92.94755877034359,NA,NA
32118,Volusia County,FL,NA,NA,27.57894736842105
32129,Volusia County,FL,NA,67.02619414483821,NA
32162,Sumter County,FL,NA,2.0030816640986133,NA
32206,Duval County,FL,NA,22.650231124807398,NA
32233,Duval County,FL,73.96021699819168,NA,NA
32244,Duval County,FL,NA,10.631741140215716,NA
32246,Duval County,FL,49.54792043399638,NA,NA
32507,Escambia County,FL,40.6871609403255,NA,NA
32608,Alachua County,FL,NA,NA,62.73684210526316
32609,Alachua County,FL,55.69620253164557,NA,NA
32828,Orange County,FL,40.50632911392405,NA,NA
32926,Brevard County,FL,NA,NA,15.789473684210526
32935,Brevard County,FL,NA,43.29738058551618,NA
33004,Broward County,FL,NA,68.87519260400616,NA
33012,Miami-Dade County,FL,77.57685352622062,23.112480739599384,NA
33027,Broward County,FL,43.399638336347195,NA,NA
33142,Miami-Dade County,FL,NA,NA,15.157894736842106
33150,Miami-Dade County,FL,NA,64.09861325115563,NA
33309,Broward County,FL,60.94032549728752,NA,NA
33313,Broward County,FL,NA,41.75654853620955,NA
33330,Broward County,FL,NA,NA,95.57894736842105
33411,Palm Beach County,FL,NA,20.33898305084746,NA
33426,Palm Beach County,FL,NA,NA,46.73684210526316
33430,Palm Beach County,FL,81.55515370705244,NA,NA
33442,Broward County,FL,NA,36.36363636363637,NA
33541,Pasco County,FL,NA,NA,18.31578947368421
33576,Pasco County,FL,NA,NA,98.94736842105263
33607,Hillsborough County,FL,NA,82.58859784283513,NA
33610,Hillsborough County,FL,NA,70.26194144838213,NA
33701,Pinellas County,FL,50.81374321880651,NA,NA
33712,Pinellas County,FL,38.87884267631103,NA,NA
33823,Polk County,FL,NA,45.76271186440678,NA
33825,Highlands County,FL,NA,15.254237288135593,NA
33873,Hardee County,FL,NA,67.95069337442219,NA
33914,Lee County,FL,NA,14.329738058551616,NA
33917,Lee County,FL,NA,18.64406779661017,NA
34119,Collier County,FL,NA,NA,83.78947368421052
34120,Collier County,FL,NA,42.83513097072419,NA
34134,Lee County,FL,NA,NA,36.21052631578948
34202,Manatee County,FL,NA,NA,33.68421052631579
34205,Manatee County,FL,37.43218806509946,NA,NA
34208,Manatee County,FL,NA,76.42526964560862,NA
34232,Sarasota County,FL,50.09041591320072,33.43605546995377,NA
34238,Sarasota County,FL,NA,39.29121725731895,NA
34239,Sarasota County,FL,NA,NA,42.73684210526316
34286,Sarasota County,FL,NA,NA,74.31578947368422
34950,St. Lucie County,FL,NA,50.847457627118644,NA
34952,St. Lucie County,FL,NA,NA,6.315789473684211
34994,Martin County,FL,NA,49.76887519260401,NA
30014,Newton County,GA,29.65641952983725,NA,NA
30032,DeKalb County,GA,97.64918625678119,63.944530046224955,NA
30034,DeKalb County,GA,65.82278481012658,NA,NA
30043,Gwinnett County,GA,24.593128390596743,NA,NA
30062,Cobb County,GA,NA,76.73343605546995,NA
30082,Cobb County,GA,77.75768535262206,NA,NA
30094,Rockdale County,GA,49.728752260397826,NA,NA
30096,Gwinnett County,GA,63.11030741410488,NA,NA
30106,Cobb County,GA,NA,72.88135593220339,NA
30122,Douglas County,GA,58.77034358047016,NA,76.63157894736841
30132,Paulding County,GA,NA,NA,99.57894736842105
30134,Douglas County,GA,NA,31.2788906009245,NA
30135,Douglas County,GA,14.647377938517177,NA,NA
30143,Pickens County,GA,NA,NA,34.526315789473685
30161,Floyd County,GA,NA,20.49306625577812,NA
30188,Cherokee County,GA,58.40867992766727,NA,NA
30189,Cherokee County,GA,NA,49.152542372881356,NA
30214,Fayette County,GA,83.54430379746836,NA,NA
30228,Henry County,GA,66.36528028933093,NA,NA
30236,Clayton County,GA,67.08860759493672,41.14021571648691,NA
30238,Clayton County,GA,82.45931283905968,83.20493066255779,NA
30248,Henry County,GA,NA,60.55469953775039,NA
30263,Coweta County,GA,11.39240506329114,NA,NA
30274,Clayton County,GA,NA,71.34052388289676,NA
30281,Henry County,GA,29.11392405063291,NA,NA
30291,Fulton County,GA,41.591320072332735,NA,66.73684210526316
30297,Clayton County,GA,59.85533453887884,NA,NA
30306,Fulton County,GA,NA,NA,98.52631578947368
30309,Fulton County,GA,84.26763110307414,NA,NA
30310,Fulton County,GA,58.95117540687161,NA,80.42105263157895
30314,Fulton County,GA,46.835443037974684,NA,NA
30316,DeKalb County,GA,56.78119349005425,NA,NA
30318,Fulton County,GA,NA,65.0231124807396,66.52631578947368
30324,Fulton County,GA,84.62929475587704,NA,NA
30331,Fulton County,GA,79.38517179023508,NA,NA
30338,DeKalb County,GA,76.49186256781194,NA,NA
30344,Fulton County,GA,47.01627486437613,41.294298921417564,NA
30349,Fulton County,GA,67.8119349005425,11.556240369799692,NA
30354,Fulton County,GA,68.53526220614829,NA,NA
30521,Franklin County,GA,NA,90.44684129429892,NA
30528,White County,GA,81.73598553345388,NA,NA
30549,Jackson County,GA,NA,NA,64.84210526315789
30554,Hall County,GA,93.49005424954791,NA,NA
30628,Madison County,GA,NA,95.22342064714945,NA
30656,Walton County,GA,NA,NA,80.84210526315789
30680,Barrow County,GA,22.60397830018083,NA,NA
30735,Gordon County,GA,NA,90.13867488443759,NA
30824,McDuffie County,GA,NA,NA,79.57894736842105
30907,Columbia County,GA,28.390596745027125,NA,NA
31024,Putnam County,GA,59.3128390596745,NA,NA
31211,Bibb County,GA,74.68354430379746,NA,NA
31415,Chatham County,GA,77.21518987341773,NA,NA
31537,Charlton County,GA,89.87341772151899,NA,NA
31705,Dougherty County,GA,NA,27.11864406779661,NA
31794,Tift County,GA,NA,79.81510015408321,NA
31904,Muscogee County,GA,NA,NA,12.421052631578949
96701,Honolulu County,HI,37.613019891500905,NA,NA
96744,Honolulu County,HI,NA,2.9275808936825887,NA
96766,Kauai County,HI,NA,71.64869029275809,NA
96782,Honolulu County,HI,NA,59.47611710323575,NA
96786,Honolulu County,HI,NA,44.22187981510015,NA
96789,Honolulu County,HI,NA,7.24191063174114,NA
96797,Honolulu County,HI,9.22242314647378,NA,NA
96817,Honolulu County,HI,12.658227848101266,NA,23.789473684210527
96818,Honolulu County,HI,NA,34.36055469953775,NA
96819,Honolulu County,HI,50.27124773960217,NA,NA
96822,Honolulu County,HI,43.037974683544306,NA,NA
96825,Honolulu County,HI,NA,6.317411402157165,4.421052631578947
83301,Twin Falls County,ID,NA,1.078582434514638,3.1578947368421053
83605,Canyon County,ID,NA,23.42064714946071,NA
83617,Gem County,ID,NA,NA,28.421052631578945
83642,Ada County,ID,19.168173598553345,NA,NA
83644,Canyon County,ID,NA,52.08012326656395,NA
83687,Canyon County,ID,24.412296564195298,NA,NA
83704,Ada County,ID,NA,NA,16
83858,Kootenai County,ID,NA,65.48536209553158,NA
60005,Cook County,IL,NA,NA,24.842105263157897
60010,Lake County,IL,NA,13.405238828967642,NA
60014,McHenry County,IL,NA,48.844375963020035,NA
60048,Lake County,IL,NA,26.810477657935284,69.26315789473684
60060,Lake County,IL,NA,14.48382126348228,NA
60062,Cook County,IL,NA,NA,0.631578947368421
60085,Lake County,IL,19.349005424954793,NA,NA
60106,DuPage County,IL,NA,NA,28.842105263157897
60115,DeKalb County,IL,NA,NA,24
60126,DuPage County,IL,NA,2.773497688751926,NA
60130,Cook County,IL,NA,65.79352850539291,NA
60137,DuPage County,IL,NA,NA,66.10526315789474
60148,DuPage County,IL,NA,NA,40.63157894736842
60160,Cook County,IL,94.75587703435805,NA,NA
60193,Cook County,IL,41.952983725135624,NA,NA
60194,Cook County,IL,NA,57.781201848998464,NA
60433,Will County,IL,NA,NA,81.89473684210526
60440,Will County,IL,NA,13.86748844375963,NA
60462,Cook County,IL,NA,30.354391371340522,NA
60467,Cook County,IL,NA,26.964560862865948,NA
60472,Cook County,IL,96.38336347197107,NA,NA
60516,DuPage County,IL,NA,NA,96.21052631578947
60540,DuPage County,IL,31.82640144665461,63.63636363636363,NA
60586,Will County,IL,NA,78.73651771956857,NA
60607,Cook County,IL,NA,NA,73.26315789473684
60609,Cook County,IL,NA,NA,17.05263157894737
60620,Cook County,IL,NA,3.389830508474576,NA
60621,Cook County,IL,NA,32.66563944530046,NA
60625,Cook County,IL,11.573236889692586,NA,NA
60626,Cook County,IL,20.795660036166367,NA,NA
60630,Cook County,IL,25.49728752260398,NA,NA
60636,Cook County,IL,NA,27.426810477657938,NA
60639,Cook County,IL,10.30741410488246,69.33744221879815,NA
60641,Cook County,IL,45.750452079566,NA,NA
60643,Cook County,IL,10.126582278481013,NA,NA
60644,Cook County,IL,9.041591320072333,NA,NA
60649,Cook County,IL,46.1121157323689,NA,NA
60651,Cook County,IL,9.584086799276673,NA,NA
60655,Cook County,IL,NA,31.587057010785824,NA
60707,Cook County,IL,21.699819168173597,NA,NA
60714,Cook County,IL,NA,NA,9.263157894736842
61032,Stephenson County,IL,NA,78.27426810477658,NA
61114,Winnebago County,IL,NA,66.71802773497689,NA
61201,Rock Island County,IL,NA,30.970724191063177,NA
61356,Bureau County,IL,NA,NA,38.10526315789474
61364,LaSalle County,IL,NA,54.699537750385204,NA
61401,Knox County,IL,NA,NA,16.42105263157895
61455,McDonough County,IL,NA,NA,29.68421052631579
61520,Fulton County,IL,75.22603978300181,NA,26.31578947368421
61550,Tazewell County,IL,NA,67.79661016949152,NA
61616,Peoria County,IL,94.2133815551537,NA,NA
61802,Champaign County,IL,NA,89.21417565485362,NA
61846,Vermilion County,IL,96.38336347197107,NA,NA
62033,Macoupin County,IL,NA,80.2773497688752,NA
62203,St. Clair County,IL,NA,97.07241910631741,NA
62208,St. Clair County,IL,NA,64.86902927580893,NA
62221,St. Clair County,IL,NA,43.6055469953775,NA
62233,Randolph County,IL,NA,98.30508474576271,71.57894736842105
62269,St. Clair County,IL,NA,99.07550077041603,NA
62521,Macon County,IL,13.200723327305605,NA,NA
62801,Marion County,IL,NA,28.197226502311246,NA
62832,Perry County,IL,NA,89.6764252696456,NA
62864,Jefferson County,IL,NA,40.21571648690293,NA
62896,Franklin County,IL,NA,32.357473035439135,NA
62960,Massac County,IL,NA,75.03852080123266,46.10526315789474
46052,Boone County,IN,45.56962025316456,NA,NA
46106,Johnson County,IN,NA,86.28659476117103,NA
46107,Marion County,IN,NA,NA,93.6842105263158
46123,Hendricks County,IN,NA,NA,26.94736842105263
46142,Johnson County,IN,NA,12.480739599383666,NA
46143,Johnson County,IN,25.678119349005424,NA,NA
46158,Morgan County,IN,NA,NA,18.947368421052634
46203,Marion County,IN,NA,13.559322033898304,NA
46208,Marion County,IN,38.33634719710669,NA,NA
46217,Marion County,IN,55.33453887884268,NA,NA
46218,Marion County,IN,NA,19.26040061633282,NA
46219,Marion County,IN,13.01989150090416,NA,NA
46303,Lake County,IN,48.282097649186255,NA,NA
46307,Lake County,IN,NA,1.2326656394453006,2.3157894736842106
46310,Jasper County,IN,82.64014466546112,NA,NA
46321,Lake County,IN,NA,NA,76
46322,Lake County,IN,NA,NA,10.526315789473683
46323,Lake County,IN,NA,53.62095531587057,NA
46324,Lake County,IN,18.083182640144667,NA,NA
46368,Porter County,IN,2.1699819168173597,1.386748844375963,11.157894736842106
46373,Lake County,IN,33.09222423146474,NA,NA
46407,Lake County,IN,NA,NA,62.94736842105263
46410,Lake County,IN,8.1374321880651,4.776579352850539,NA
46516,Elkhart County,IN,NA,39.59938366718028,NA
46580,Kosciusko County,IN,NA,54.54545454545454,NA
46723,Whitley County,IN,90.95840867992767,72.11093990755008,NA
46725,Whitley County,IN,NA,56.240369799691834,NA
46750,Huntington County,IN,20.976491862567812,NA,NA
46755,Noble County,IN,31.103074141048825,38.21263482280431,NA
46774,Allen County,IN,NA,NA,57.684210526315795
46815,Allen County,IN,NA,37.90446841294299,16.210526315789473
46816,Allen County,IN,32.368896925858955,NA,NA
46845,Allen County,IN,61.48282097649186,NA,43.57894736842105
46962,Wabash County,IN,NA,NA,67.36842105263158
46992,Wabash County,IN,NA,NA,56.42105263157895
47150,Floyd County,IN,NA,6.933744221879815,NA
47201,Bartholomew County,IN,NA,45.45454545454545,NA
47243,Jefferson County,IN,NA,87.05701078582435,NA
47635,Spencer County,IN,NA,79.50693374422187,NA
47714,Vanderburgh County,IN,14.285714285714285,NA,NA
47715,Vanderburgh County,IN,NA,40.36979969183359,NA
47905,Tippecanoe County,IN,NA,NA,48.63157894736842
47909,Tippecanoe County,IN,NA,NA,34.10526315789474
50047,Warren County,IA,94.39421338155516,NA,NA
50265,Polk County,IA,42.31464737793852,NA,NA
50441,Franklin County,IA,NA,NA,96.42105263157895
50613,Black Hawk County,IA,NA,NA,3.7894736842105265
50662,Fayette County,IA,NA,84.28351309707242,NA
50801,Union County,IA,NA,53.46687211093991,90.52631578947368
51012,Cherokee County,IA,NA,NA,93.05263157894737
51334,Emmet County,IA,69.43942133815551,NA,NA
51401,Carroll County,IA,86.07594936708861,NA,NA
52172,Allamakee County,IA,95.47920433996383,NA,NA
52240,Johnson County,IA,73.41772151898735,55.62403697996918,NA
52302,Linn County,IA,NA,35.901386748844374,NA
52349,Benton County,IA,NA,NA,89.26315789473685
52556,Jefferson County,IA,NA,NA,64.84210526315789
52732,Clinton County,IA,NA,NA,39.1578947368421
52738,Louisa County,IA,98.19168173598554,NA,NA
52806,Scott County,IA,NA,NA,38.10526315789474
66048,Leavenworth County,KS,NA,46.5331278890601,NA
66101,Wyandotte County,KS,99.09584086799276,NA,NA
66103,Wyandotte County,KS,NA,NA,76.63157894736841
66213,Johnson County,KS,NA,NA,57.89473684210527
66441,Geary County,KS,73.77938517179024,NA,NA
66604,Shawnee County,KS,51.35623869801085,NA,NA
40047,Bullitt County,KY,NA,NA,64.42105263157895
40059,Jefferson County,KY,81.0126582278481,NA,NA
40165,Bullitt County,KY,14.466546112115733,NA,NA
40215,Jefferson County,KY,NA,NA,86.73684210526315
40245,Jefferson County,KY,NA,40.67796610169492,NA
40299,Jefferson County,KY,NA,22.496147919876734,NA
40336,Estill County,KY,57.32368896925859,NA,NA
40508,Fayette County,KY,NA,NA,71.36842105263158
41015,Kenton County,KY,62.74864376130199,NA,NA
41018,Kenton County,KY,27.124773960217,NA,NA
41051,Kenton County,KY,NA,68.25885978428352,NA
41074,Campbell County,KY,NA,97.38058551617874,NA
41075,Campbell County,KY,NA,NA,58.31578947368421
41097,Grant County,KY,75.9493670886076,NA,NA
41143,Carter County,KY,45.20795660036166,NA,NA
41240,Johnson County,KY,NA,99.22958397534669,90.31578947368422
42003,McCracken County,KY,NA,NA,25.894736842105264
42031,Hickman County,KY,NA,86.90292758089369,NA
42071,Calloway County,KY,44.846292947558766,NA,NA
42301,Daviess County,KY,NA,9.70724191063174,NA
42303,Daviess County,KY,NA,NA,17.894736842105264
42320,Ohio County,KY,NA,51.463790446841294,NA
42420,Henderson County,KY,NA,NA,49.89473684210527
70001,Jefferson Parish,LA,4.3399638336347195,NA,73.05263157894737
70002,Jefferson Parish,LA,NA,32.357473035439135,29.894736842105264
70003,Jefferson Parish,LA,NA,NA,2.526315789473684
70005,Jefferson Parish,LA,NA,NA,56.00000000000001
70065,Jefferson Parish,LA,NA,2.465331278890601,NA
70070,St. Charles Parish,LA,97.10669077757686,NA,NA
70087,St. Charles Parish,LA,NA,NA,94.3157894736842
70094,Jefferson Parish,LA,NA,15.408320493066254,NA
70114,Orleans Parish,LA,39.963833634719705,NA,58.526315789473685
70115,Orleans Parish,LA,NA,NA,37.89473684210527
70121,Jefferson Parish,LA,80.28933092224231,NA,NA
70123,Jefferson Parish,LA,NA,97.84283513097073,NA
70125,Orleans Parish,LA,39.24050632911392,NA,NA
70126,Orleans Parish,LA,6.50994575045208,NA,NA
70364,Terrebonne Parish,LA,34.53887884267631,NA,NA
70373,Lafourche Parish,LA,57.14285714285714,NA,NA
70390,Assumption Parish,LA,NA,68.41294298921417,NA
70394,Lafourche Parish,LA,55.87703435804702,NA,NA
70403,Tangipahoa Parish,LA,NA,NA,78.52631578947368
70422,Tangipahoa Parish,LA,NA,73.18952234206472,NA
70433,St. Tammany Parish,LA,52.26039783001808,NA,NA
70438,Washington Parish,LA,NA,NA,13.052631578947368
70441,St. Helena Parish,LA,89.5117540687161,NA,77.89473684210526
70458,St. Tammany Parish,LA,27.305605786618447,NA,8.631578947368421
70461,St. Tammany Parish,LA,51.5370705244123,NA,NA
70471,St. Tammany Parish,LA,NA,NA,49.05263157894737
70526,Acadia Parish,LA,26.40144665461121,NA,NA
70570,St. Landry Parish,LA,10.849909584086799,42.83513097072419,NA
70665,Calcasieu Parish,LA,NA,91.52542372881356,NA
70706,Livingston Parish,LA,35.62386980108499,NA,NA
70805,East Baton Rouge Parish,LA,NA,27.73497688751926,NA
70814,East Baton Rouge Parish,LA,90.05424954792043,NA,NA
70815,East Baton Rouge Parish,LA,48.64376130198915,38.366718027734976,NA
70818,East Baton Rouge Parish,LA,NA,71.03235747303543,NA
71019,Red River Parish,LA,NA,84.43759630200309,NA
71037,Bossier Parish,LA,NA,87.67334360554699,NA
71105,Caddo Parish,LA,NA,46.070878274268104,NA
71112,Bossier Parish,LA,NA,24.345146379044685,NA
71118,Caddo Parish,LA,NA,25.731895223420647,NA
71201,Ouachita Parish,LA,NA,NA,58.94736842105262
71203,Ouachita Parish,LA,NA,23.728813559322035,NA
71483,Winn Parish,LA,NA,69.49152542372882,NA
03904,York County,ME,78.6618444846293,NA,NA
04038,Cumberland County,ME,NA,74.884437596302,NA
04072,York County,ME,NA,18.335901386748844,NA
04086,Sagadahoc County,ME,79.92766726943941,NA,NA
04101,Cumberland County,ME,NA,25.423728813559322,NA
04103,Cumberland County,ME,NA,22.033898305084744,NA
04210,Androscoggin County,ME,NA,40.06163328197226,NA
04257,Oxford County,ME,NA,100,NA
04530,Sagadahoc County,ME,69.07775768535262,NA,NA
20601,Charles County,MD,NA,93.52850539291218,NA
20613,Prince George's County,MD,NA,94.60708782742681,NA
20639,Calvert County,MD,95.11754068716094,NA,NA
20707,Prince George's County,MD,NA,NA,82.52631578947368
20814,Montgomery County,MD,79.74683544303798,NA,NA
20877,Montgomery County,MD,94.03254972875226,NA,NA
20901,Montgomery County,MD,NA,80.89368258859785,NA
20904,Montgomery County,MD,NA,50.693374422187986,NA
21014,Harford County,MD,NA,NA,34.73684210526316
21045,Howard County,MD,NA,NA,59.78947368421053
21075,Howard County,MD,69.98191681735986,NA,NA
21093,Baltimore County,MD,NA,NA,7.578947368421053
21122,Anne Arundel County,MD,NA,NA,21.47368421052632
21133,Baltimore County,MD,92.58589511754069,NA,NA
21202,Baltimore city,MD,NA,NA,77.6842105263158
21214,Baltimore city,MD,NA,67.64252696456087,NA
21216,Baltimore city,MD,NA,22.95839753466872,NA
21217,Baltimore city,MD,NA,17.41140215716487,45.68421052631579
21220,Baltimore County,MD,70.88607594936708,NA,NA
21221,Baltimore County,MD,21.338155515370705,NA,NA
21222,Baltimore County,MD,5.244122965641953,NA,NA
21229,Baltimore city,MD,70.70524412296564,NA,NA
21236,Baltimore County,MD,41.77215189873418,NA,NA
21239,Baltimore city,MD,36.52802893309223,88.4437596302003,91.57894736842105
21244,Baltimore County,MD,46.65461121157324,NA,NA
21401,Anne Arundel County,MD,NA,31.741140215716484,NA
21632,Caroline County,MD,88.60759493670885,NA,NA
21784,Carroll County,MD,NA,57.473035439137135,NA
01001,Hampden County,MA,NA,NA,33.473684210526315
01007,Hampshire County,MA,53.52622061482821,NA,NA
01105,Hampden County,MA,3.074141048824593,NA,NA
01230,Berkshire County,MA,NA,NA,57.47368421052632
01373,Franklin County,MA,98.55334538878843,NA,NA
01440,Worcester County,MA,62.74864376130199,NA,NA
01453,Worcester County,MA,NA,NA,12.631578947368421
01540,Worcester County,MA,NA,NA,61.26315789473684
01609,Worcester County,MA,2.5316455696202533,NA,NA
01701,Middlesex County,MA,NA,NA,6.7368421052631575
01760,Middlesex County,MA,NA,NA,36.421052631578945
01801,Middlesex County,MA,NA,NA,0.8421052631578947
01803,Middlesex County,MA,NA,27.889060092449924,51.368421052631575
01826,Middlesex County,MA,23.508137432188065,21.571648690292758,NA
01832,Essex County,MA,39.059674502712475,NA,NA
01876,Middlesex County,MA,NA,2.311248073959938,NA
01879,Middlesex County,MA,64.19529837251356,NA,NA
01880,Middlesex County,MA,NA,NA,64.63157894736841
01902,Essex County,MA,NA,NA,14.736842105263156
01904,Essex County,MA,NA,13.097072419106318,22.94736842105263
01915,Essex County,MA,1.62748643761302,NA,NA
01923,Essex County,MA,3.616636528028933,5.701078582434515,NA
01938,Essex County,MA,NA,NA,38.94736842105263
01952,Essex County,MA,NA,58.24345146379045,NA
01960,Essex County,MA,6.148282097649186,0.46224961479198773,8.210526315789474
01966,Essex County,MA,NA,90.29275808936826,NA
02043,Plymouth County,MA,NA,NA,16.842105263157894
02067,Norfolk County,MA,NA,NA,47.578947368421055
02081,Norfolk County,MA,NA,74.57627118644068,NA
02114,Suffolk County,MA,18.806509945750452,38.058551617873654,NA
02115,Suffolk County,MA,NA,NA,3.3684210526315788
02118,Suffolk County,MA,22.78481012658228,NA,NA
02119,Suffolk County,MA,0,0.30816640986132515,NA
02122,Suffolk County,MA,NA,0.7704160246533128,NA
02124,Suffolk County,MA,0.7233273056057866,NA,NA
02126,Suffolk County,MA,NA,69.18335901386749,14.947368421052632
02129,Suffolk County,MA,19.89150090415913,NA,41.26315789473684
02138,Middlesex County,MA,12.839059674502712,NA,NA
02139,Middlesex County,MA,0.18083182640144665,NA,NA
02140,Middlesex County,MA,17.90235081374322,NA,NA
02141,Middlesex County,MA,NA,26.194144838212637,NA
02144,Middlesex County,MA,NA,10.015408320493066,NA
02149,Middlesex County,MA,NA,58.39753466872111,NA
02151,Suffolk County,MA,NA,0,0.21052631578947367
02155,Middlesex County,MA,NA,NA,5.894736842105263
02301,Plymouth County,MA,NA,0.15408320493066258,NA
02421,Middlesex County,MA,20.43399638336347,NA,43.15789473684211
02453,Middlesex County,MA,NA,NA,70.94736842105263
02458,Middlesex County,MA,50.45207956600362,NA,NA
02459,Middlesex County,MA,NA,22.342064714946073,NA
02465,Middlesex County,MA,57.32368896925859,NA,NA
02466,Middlesex County,MA,NA,87.82742681047766,NA
02468,Middlesex County,MA,NA,97.68875192604007,NA
02492,Norfolk County,MA,NA,27.5808936825886,NA
02538,Plymouth County,MA,NA,96.45608628659477,NA
02649,Barnstable County,MA,NA,NA,15.368421052631579
02664,Barnstable County,MA,NA,NA,30.736842105263158
02703,Bristol County,MA,NA,9.861325115562405,NA
48005,Macomb County,MI,NA,NA,87.36842105263159
48034,Oakland County,MI,90.41591320072332,79.19876733436055,NA
48038,Macomb County,MI,13.5623869801085,NA,NA
48051,Macomb County,MI,NA,37.59630200308167,NA
48067,Oakland County,MI,NA,NA,68
48071,Oakland County,MI,28.20976491862568,NA,NA
48072,Oakland County,MI,NA,52.38828967642527,NA
48084,Oakland County,MI,NA,NA,60
48088,Macomb County,MI,NA,NA,17.263157894736842
48092,Macomb County,MI,NA,21.417565485362093,NA
48094,Macomb County,MI,54.61121157323689,77.34976887519261,NA
48098,Oakland County,MI,62.38698010849909,36.517719568567024,NA
48103,Washtenaw County,MI,15.913200723327305,NA,NA
48104,Washtenaw County,MI,NA,67.4884437596302,NA
48125,Wayne County,MI,24.77396021699819,NA,NA
48135,Wayne County,MI,24.95479204339964,NA,NA
48150,Wayne County,MI,NA,20.647149460708782,NA
48165,Oakland County,MI,96.9258589511754,NA,NA
48170,Wayne County,MI,NA,77.96610169491525,NA
48176,Washtenaw County,MI,NA,NA,75.36842105263158
48183,Wayne County,MI,37.79385171790235,NA,NA
48185,Wayne County,MI,NA,NA,5.684210526315789
48187,Wayne County,MI,10.669077757685352,40.83204930662558,NA
48188,Wayne County,MI,13.381555153707053,NA,NA
48195,Wayne County,MI,NA,8.628659476117104,NA
48197,Washtenaw County,MI,NA,16.640986132511557,NA
48203,Wayne County,MI,NA,NA,36.63157894736842
48204,Wayne County,MI,NA,78.12018489984591,NA
48205,Wayne County,MI,3.9783001808318263,NA,NA
48206,Wayne County,MI,NA,28.35130970724191,87.1578947368421
48212,Wayne County,MI,NA,13.251155624036981,NA
48214,Wayne County,MI,21.15732368896926,NA,NA
48218,Wayne County,MI,NA,79.04468412942988,NA
48219,Wayne County,MI,NA,2.6194144838212634,NA
48220,Oakland County,MI,NA,43.759630200308166,NA
48221,Wayne County,MI,5.605786618444846,NA,NA
48234,Wayne County,MI,NA,14.946070878274268,NA
48235,Wayne County,MI,NA,3.0816640986132513,NA
48238,Wayne County,MI,26.03978300180832,NA,NA
48307,Oakland County,MI,19.529837251356238,21.263482280431433,NA
48313,Macomb County,MI,NA,21.879815100154083,NA
48314,Macomb County,MI,NA,37.442218798151,NA
48316,Macomb County,MI,NA,43.91371340523883,NA
48317,Macomb County,MI,24.050632911392405,NA,NA
48323,Oakland County,MI,NA,NA,31.36842105263158
48336,Oakland County,MI,35.80470162748644,NA,NA
48371,Oakland County,MI,NA,NA,86.94736842105263
48377,Oakland County,MI,NA,NA,25.05263157894737
48381,Oakland County,MI,68.1735985533454,NA,NA
48415,Saginaw County,MI,NA,61.94144838212635,NA
48420,Genesee County,MI,49.186256781193485,NA,NA
48439,Genesee County,MI,64.376130198915,NA,NA
48455,Lapeer County,MI,NA,71.1864406779661,NA
48622,Clare County,MI,NA,NA,71.15789473684211
48625,Clare County,MI,NA,57.16486902927581,NA
48655,Saginaw County,MI,NA,NA,89.05263157894737
48708,Bay County,MI,8.499095840867993,NA,NA
48723,Tuscola County,MI,NA,86.59476117103236,38.73684210526316
48734,Saginaw County,MI,86.25678119349006,NA,NA
48817,Shiawassee County,MI,NA,92.44992295839754,NA
48838,Montcalm County,MI,NA,30.20030816640986,NA
48842,Ingham County,MI,NA,69.9537750385208,NA
48858,Isabella County,MI,29.8372513562387,NA,NA
48867,Shiawassee County,MI,7.956600361663653,NA,NA
48879,Clinton County,MI,53.8878842676311,NA,NA
48880,Gratiot County,MI,NA,81.35593220338984,NA
48881,Ionia County,MI,NA,NA,98.10526315789474
48910,Ingham County,MI,NA,NA,29.47368421052631
48911,Ingham County,MI,7.414104882459313,NA,NA
49002,Kalamazoo County,MI,36.88969258589512,NA,NA
49006,Kalamazoo County,MI,NA,NA,58.10526315789474
49014,Calhoun County,MI,19.710669077757686,NA,NA
49015,Calhoun County,MI,17.72151898734177,NA,NA
49017,Calhoun County,MI,65.64195298372513,NA,NA
49037,Calhoun County,MI,NA,NA,38.526315789473685
49065,Van Buren County,MI,NA,67.95069337442219,NA
49079,Van Buren County,MI,72.69439421338156,NA,NA
49080,Allegan County,MI,45.931283905967454,NA,NA
49085,Berrien County,MI,NA,42.68104776579353,NA
49097,Kalamazoo County,MI,NA,NA,52.21052631578947
49120,Berrien County,MI,NA,NA,12.842105263157894
49127,Berrien County,MI,82.27848101265823,NA,NA
49221,Lenawee County,MI,NA,50.53929121725732,5.473684210526316
49230,Jackson County,MI,74.86437613019892,NA,NA
49234,Jackson County,MI,NA,98.7673343605547,NA
49286,Lenawee County,MI,NA,NA,37.68421052631579
49304,Lake County,MI,NA,NA,89.6842105263158
49428,Ottawa County,MI,NA,30.508474576271187,NA
49445,Muskegon County,MI,NA,19.568567026194145,NA
49534,Kent County,MI,85.17179023508137,NA,NA
49721,Cheboygan County,MI,NA,NA,70.73684210526315
49749,Cheboygan County,MI,NA,NA,94.10526315789474
49765,Presque Isle County,MI,NA,NA,75.1578947368421
49878,Delta County,MI,NA,93.8366718027735,NA
55041,Wabasha County,MN,NA,NA,50.73684210526316
55075,Dakota County,MN,75.5877034358047,NA,NA
55106,Ramsey County,MN,64.55696202531645,NA,NA
55122,Dakota County,MN,NA,62.09553158705701,NA
55404,Hennepin County,MN,1.0849909584086799,NA,NA
55408,Hennepin County,MN,61.30198915009042,NA,NA
55418,Hennepin County,MN,30.74141048824593,NA,NA
55429,Hennepin County,MN,44.48462929475588,NA,NA
55430,Hennepin County,MN,NA,34.9768875192604,NA
55447,Hennepin County,MN,NA,82.89676425269646,NA
55792,St. Louis County,MN,NA,85.20801232665639,NA
55803,St. Louis County,MN,NA,66.2557781201849,NA
55804,St. Louis County,MN,73.05605786618446,86.74884437596302,NA
55806,St. Louis County,MN,63.47197106690777,NA,NA
55811,St. Louis County,MN,NA,29.892141756548536,NA
55812,St. Louis County,MN,NA,NA,82.3157894736842
55906,Olmsted County,MN,NA,NA,62.10526315789474
55912,Mower County,MN,NA,4.160246533127889,NA
55975,Fillmore County,MN,NA,88.28967642526965,NA
56175,Lyon County,MN,NA,94.76117103235747,NA
56304,Sherburne County,MN,62.0253164556962,NA,NA
56345,Morrison County,MN,NA,NA,11.789473684210526
56362,Stearns County,MN,NA,NA,50.10526315789474
56378,Stearns County,MN,NA,76.88751926040062,NA
56470,Hubbard County,MN,NA,NA,32.8421052631579
56482,Wadena County,MN,NA,NA,68.84210526315789
56601,Beltrami County,MN,NA,32.81972265023113,NA
56649,Koochiching County,MN,60.21699819168174,NA,NA
56701,Pennington County,MN,NA,59.630200308166415,NA
38671,DeSoto County,MS,NA,54.23728813559322,NA
38829,Prentiss County,MS,NA,NA,54.315789473684205
39042,Rankin County,MS,NA,29.121725731895225,NA
39069,Jefferson County,MS,84.44846292947558,NA,NA
39074,Scott County,MS,NA,62.71186440677966,NA
39120,Adams County,MS,NA,NA,40.21052631578947
39157,Madison County,MS,NA,NA,86.52631578947368
39203,Hinds County,MS,97.83001808318264,NA,NA
39206,Hinds County,MS,NA,46.687211093990754,NA
39209,Hinds County,MS,25.135623869801083,NA,NA
39212,Hinds County,MS,23.146473779385172,NA,NA
39213,Hinds County,MS,38.517179023508135,NA,44.21052631578947
39401,Forrest County,MS,NA,54.853620955315876,NA
39426,Pearl River County,MS,58.58951175406871,NA,NA
39440,Jones County,MS,59.85533453887884,NA,NA
39452,George County,MS,61.66365280289331,NA,NA
39465,Forrest County,MS,NA,NA,63.368421052631575
39466,Pearl River County,MS,NA,16.33281972265023,NA
39562,Jackson County,MS,59.13200723327306,NA,NA
39702,Lowndes County,MS,40.3254972875226,NA,NA
63010,Jefferson County,MO,41.41048824593128,NA,NA
63017,St. Louis County,MO,NA,11.864406779661017,NA
63026,St. Louis County,MO,NA,44.53004622496148,NA
63033,St. Louis County,MO,NA,NA,29.263157894736842
63051,Jefferson County,MO,NA,NA,93.26315789473684
63074,St. Louis County,MO,NA,52.69645608628659,NA
63119,St. Louis County,MO,NA,NA,7.368421052631578
63301,St. Charles County,MO,NA,44.99229583975347,NA
63366,St. Charles County,MO,NA,5.084745762711865,NA
63379,Lincoln County,MO,NA,28.65947611710323,NA
63383,Warren County,MO,NA,NA,88
63385,St. Charles County,MO,NA,12.942989214175654,NA
63401,Marion County,MO,NA,51.00154083204931,NA
63640,St. Francois County,MO,NA,NA,32
63703,Cape Girardeau County,MO,NA,NA,81.47368421052632
64012,Cass County,MO,NA,NA,35.1578947368421
64014,Jackson County,MO,22.423146473779383,NA,NA
64030,Jackson County,MO,NA,17.565485362095533,72.63157894736842
64075,Jackson County,MO,NA,NA,83.57894736842105
64111,Jackson County,MO,NA,47.14946070878274,NA
64114,Jackson County,MO,NA,NA,27.157894736842103
64128,Jackson County,MO,21.518987341772153,NA,NA
64131,Jackson County,MO,14.828209764918626,NA,NA
64145,Jackson County,MO,NA,92.14175654853621,NA
65605,Lawrence County,MO,NA,77.8120184899846,NA
65613,Polk County,MO,NA,68.7211093990755,NA
65656,Stone County,MO,NA,87.05701078582435,NA
59711,Deer Lodge County,MT,94.9367088607595,NA,NA
59715,Gallatin County,MT,NA,35.59322033898305,NA
59718,Gallatin County,MT,NA,39.907550077041606,NA
59833,Ravalli County,MT,NA,NA,97.89473684210527
59901,Flathead County,MT,35.081374321880645,NA,NA
68104,Douglas County,NE,NA,35.74730354391371,NA
68107,Douglas County,NE,54.43037974683544,NA,NA
89107,Clark County,NV,54.97287522603978,NA,NA
89108,Clark County,NV,NA,NA,30.315789473684212
89131,Clark County,NV,NA,47.919876733436055,NA
89147,Clark County,NV,NA,NA,49.684210526315795
89410,Douglas County,NV,NA,30.970724191063177,NA
89445,Humboldt County,NV,80.47016274864376,NA,NA
89451,Washoe County,NV,NA,84.7457627118644,NA
03038,Rockingham County,NH,NA,NA,20.42105263157895
03077,Rockingham County,NH,NA,NA,89.89473684210526
03104,Hillsborough County,NH,14.10488245931284,NA,22.526315789473685
03106,Merrimack County,NH,NA,94.29892141756548,NA
03766,Grafton County,NH,NA,NA,46.31578947368421
03833,Rockingham County,NH,NA,NA,25.263157894736842
03857,Rockingham County,NH,NA,97.5346687211094,NA
03858,Rockingham County,NH,88.24593128390596,NA,NA
07003,Essex County,NJ,NA,27.27272727272727,NA
07060,Union County,NJ,NA,NA,56.42105263157895
07070,Bergen County,NJ,NA,91.83359013867488,NA
07410,Bergen County,NJ,NA,61.016949152542374,NA
07465,Passaic County,NJ,NA,NA,84.84210526315789
07481,Bergen County,NJ,75.40687160940325,NA,60.8421052631579
07601,Bergen County,NJ,30.018083182640144,NA,NA
07869,Morris County,NJ,NA,46.84129429892142,NA
07928,Morris County,NJ,NA,NA,88.8421052631579
08003,Camden County,NJ,NA,NA,53.89473684210526
08027,Gloucester County,NJ,99.81916817359856,NA,NA
08037,Atlantic County,NJ,NA,20.184899845916796,NA
08077,Burlington County,NJ,36.34719710669078,NA,NA
08087,Ocean County,NJ,NA,14.791987673343607,NA
08230,Cape May County,NJ,NA,78.5824345146379,NA
08234,Atlantic County,NJ,3.79746835443038,NA,NA
08260,Cape May County,NJ,NA,26.656394453004623,NA
08302,Cumberland County,NJ,1.2658227848101267,NA,NA
08502,Somerset County,NJ,NA,97.22650231124807,NA
08618,Mercer County,NJ,42.67631103074141,NA,NA
87015,Santa Fe County,NM,NA,75.19260400616334,95.78947368421052
87108,Bernalillo County,NM,7.233273056057866,NA,NA
87110,Bernalillo County,NM,NA,60.0924499229584,NA
87112,Bernalillo County,NM,NA,NA,48.21052631578947
87121,Bernalillo County,NM,NA,5.546995377503852,NA
88005,Doa Ana County,NM,76.67269439421338,NA,NA
88101,Curry County,NM,NA,33.7442218798151,5.052631578947368
10024,New York County,NY,NA,NA,4.2105263157894735
10027,New York County,NY,NA,45.91679506933744,NA
10029,New York County,NY,13.743218806509946,NA,0.42105263157894735
10037,New York County,NY,NA,NA,74.94736842105263
10040,New York County,NY,NA,NA,26.736842105263158
10306,Richmond County,NY,20.61482820976492,NA,NA
10452,Bronx County,NY,6.329113924050633,NA,NA
10454,Bronx County,NY,NA,NA,23.36842105263158
10455,Bronx County,NY,NA,NA,13.263157894736842
10462,Bronx County,NY,30.198915009041592,4.622496147919876,NA
10473,Bronx County,NY,NA,33.59013867488444,NA
10520,Westchester County,NY,NA,73.95993836671802,NA
10591,Westchester County,NY,NA,72.57318952234206,NA
10710,Westchester County,NY,NA,NA,39.36842105263158
10952,Rockland County,NY,71.79023508137432,NA,NA
10990,Orange County,NY,NA,38.52080123266564,NA
11212,Kings County,NY,NA,0.6163328197226503,NA
11221,Kings County,NY,NA,NA,87.78947368421053
11226,Kings County,NY,21.880650994575046,NA,NA
11358,Queens County,NY,NA,56.85670261941448,NA
11367,Queens County,NY,NA,NA,53.26315789473684
11369,Queens County,NY,NA,60.708782742681045,NA
11377,Queens County,NY,52.62206148282098,NA,NA
11413,Queens County,NY,52.07956600361664,NA,NA
11419,Queens County,NY,NA,63.02003081664098,NA
11432,Queens County,NY,NA,NA,22.315789473684212
11434,Queens County,NY,NA,83.82126348228043,NA
11435,Queens County,NY,NA,15.408320493066254,23.36842105263158
11520,Nassau County,NY,67.45027124773961,NA,NA
11554,Nassau County,NY,NA,46.22496147919877,NA
11717,Suffolk County,NY,54.249547920434,NA,62.94736842105263
11782,Suffolk County,NY,NA,NA,66.94736842105263
11942,Suffolk County,NY,NA,NA,97.47368421052632
12025,Fulton County,NY,NA,79.66101694915254,NA
12054,Albany County,NY,NA,NA,72.21052631578947
12118,Saratoga County,NY,NA,87.36517719568567,NA
12180,Rensselaer County,NY,15.18987341772152,7.704160246533127,6.947368421052631
12188,Saratoga County,NY,NA,77.04160246533128,NA
12189,Albany County,NY,NA,NA,55.368421052631575
12308,Schenectady County,NY,NA,NA,88.21052631578948
12803,Saratoga County,NY,71.24773960216999,NA,NA
12804,Warren County,NY,NA,NA,20
12816,Washington County,NY,NA,NA,99.36842105263159
12831,Saratoga County,NY,NA,50.38520801232666,NA
12887,Washington County,NY,71.97106690777576,93.99075500770417,NA
13021,Cayuga County,NY,3.25497287522604,1.694915254237288,NA
13039,Onondaga County,NY,47.01627486437613,NA,NA
13077,Cortland County,NY,63.29113924050633,NA,NA
13090,Onondaga County,NY,67.99276672694394,NA,NA
13152,Onondaga County,NY,NA,79.35285053929123,NA
13205,Onondaga County,NY,NA,NA,40
13207,Onondaga County,NY,33.634719710669074,NA,NA
13209,Onondaga County,NY,NA,68.41294298921417,NA
13224,Onondaga County,NY,NA,NA,82.94736842105263
13323,Oneida County,NY,71.42857142857143,NA,NA
13326,Otsego County,NY,NA,81.51001540832048,NA
13340,Herkimer County,NY,NA,66.87211093990754,NA
13346,Madison County,NY,89.33092224231464,NA,NA
13365,Herkimer County,NY,NA,32.973805855161785,NA
13411,Chenango County,NY,93.85171790235081,NA,NA
13492,Oneida County,NY,NA,76.42526964560862,NA
13601,Jefferson County,NY,4.159132007233273,NA,NA
13669,St. Lawrence County,NY,NA,58.089368258859785,NA
13815,Chenango County,NY,NA,46.99537750385208,NA
13820,Otsego County,NY,10.488245931283906,NA,NA
13838,Delaware County,NY,NA,96.14791987673344,NA
14075,Erie County,NY,NA,5.855161787365177,NA
14207,Erie County,NY,8.860759493670885,NA,NA
14215,Erie County,NY,NA,6.471494607087827,NA
14227,Erie County,NY,NA,NA,77.47368421052632
14304,Niagara County,NY,NA,23.57473035439137,NA
14420,Monroe County,NY,16.636528028933093,NA,NA
14432,Ontario County,NY,71.60940325497288,NA,NA
14450,Monroe County,NY,2.3508137432188065,NA,NA
14454,Livingston County,NY,75.04520795660035,NA,NA
14456,Ontario County,NY,8.318264014466546,NA,NA
14464,Monroe County,NY,NA,85.36209553158706,96
14469,Ontario County,NY,NA,55.31587057010786,NA
14470,Orleans County,NY,48.824593128390596,NA,NA
14489,Wayne County,NY,35.44303797468354,30.81664098613251,NA
14526,Monroe County,NY,NA,14.021571648690292,NA
14534,Monroe County,NY,6.871609403254973,16.178736517719567,NA
14543,Monroe County,NY,NA,91.21725731895224,NA
14559,Monroe County,NY,NA,NA,65.26315789473685
14580,Monroe County,NY,0.9041591320072333,15.716486902927581,1.6842105263157894
14606,Monroe County,NY,17.540687160940323,NA,NA
14608,Monroe County,NY,NA,36.67180277349769,NA
14609,Monroe County,NY,0.5424954792043399,10.939907550077042,NA
14610,Monroe County,NY,NA,25.26964560862866,NA
14611,Monroe County,NY,7.775768535262206,NA,90.73684210526316
14613,Monroe County,NY,NA,67.18027734976889,NA
14615,Monroe County,NY,NA,33.281972265023114,NA
14616,Monroe County,NY,NA,7.395993836671804,NA
14618,Monroe County,NY,17.359855334538878,11.710323574730355,NA
14621,Monroe County,NY,NA,39.13713405238829,NA
14622,Monroe County,NY,NA,70.87827426810478,NA
14623,Monroe County,NY,NA,21.10939907550077,NA
14624,Monroe County,NY,NA,17.103235747303543,NA
14626,Monroe County,NY,2.7124773960216997,59.630200308166415,NA
14845,Chemung County,NY,NA,62.557781201849,NA
14895,Allegany County,NY,NA,72.57318952234206,NA
14904,Chemung County,NY,NA,72.41910631741139,NA
27012,Forsyth County,NC,NA,4.314329738058552,NA
27028,Davie County,NC,16.09403254972875,NA,NA
27030,Surry County,NC,NA,NA,40.421052631578945
27104,Forsyth County,NC,NA,NA,20.210526315789473
27105,Forsyth County,NC,34.9005424954792,NA,NA
27106,Forsyth County,NC,87.70343580470163,NA,NA
27107,Forsyth County,NC,NA,4.006163328197227,1.8947368421052633
27215,Alamance County,NC,NA,28.50539291217257,7.7894736842105265
27263,Randolph County,NC,NA,95.37750385208012,NA
27265,Guilford County,NC,NA,83.05084745762711,NA
27288,Rockingham County,NC,13.924050632911392,NA,NA
27292,Davidson County,NC,NA,0.9244992295839755,NA
27306,Montgomery County,NC,NA,84.43759630200309,NA
27360,Davidson County,NC,NA,4.930662557781202,9.68421052631579
27501,Harnett County,NC,NA,45.60862865947612,NA
27529,Wake County,NC,NA,15.870570107858242,NA
27530,Wayne County,NC,NA,NA,24.210526315789473
27540,Wake County,NC,NA,49.61479198767334,NA
27565,Granville County,NC,83.7251356238698,NA,NA
27574,Person County,NC,NA,96.3020030816641,NA
27587,Wake County,NC,23.32730560578662,NA,NA
27610,Wake County,NC,32.1880650994575,NA,NA
27612,Wake County,NC,NA,38.674884437596305,NA
27705,Durham County,NC,NA,NA,16.63157894736842
27713,Durham County,NC,NA,17.719568567026194,NA
28027,Cabarrus County,NC,NA,67.33436055469953,NA
28112,Union County,NC,NA,NA,30.94736842105263
28146,Rowan County,NC,NA,NA,33.26315789473684
28163,Stanly County,NC,NA,NA,94.73684210526315
28205,Mecklenburg County,NC,NA,NA,79.36842105263158
28207,Mecklenburg County,NC,NA,NA,81.05263157894737
28273,Mecklenburg County,NC,NA,NA,72.42105263157896
28304,Cumberland County,NC,34.35804701627486,NA,NA
28320,Bladen County,NC,76.85352622061484,NA,NA
28327,Moore County,NC,NA,60.40061633281972,NA
28337,Bladen County,NC,70.5244122965642,NA,NA
28387,Moore County,NC,NA,75.346687211094,NA
28411,New Hanover County,NC,39.42133815551537,NA,NA
28429,New Hanover County,NC,84.81012658227847,NA,NA
28461,Brunswick County,NC,NA,6.6255778120184905,NA
28546,Onslow County,NC,27.848101265822784,NA,NA
28625,Iredell County,NC,NA,18.02773497688752,NA
28636,Alexander County,NC,NA,NA,100
28645,Caldwell County,NC,NA,19.41448382126348,NA
28655,Burke County,NC,NA,60.24653312788906,58.73684210526315
28722,Polk County,NC,NA,90.44684129429892,NA
28731,Henderson County,NC,NA,NA,46.73684210526316
28761,McDowell County,NC,NA,NA,97.26315789473684
58078,Cass County,ND,28.028933092224236,NA,49.473684210526315
58103,Cass County,ND,NA,NA,1.4736842105263157
58201,Grand Forks County,ND,66.18444846292948,NA,50.31578947368421
58237,Walsh County,ND,NA,95.83975346687211,NA
58503,Burleigh County,ND,NA,NA,6.526315789473684
43050,Knox County,OH,NA,47.61171032357473,NA
43065,Delaware County,OH,49.36708860759494,NA,NA
43078,Champaign County,OH,83.3634719710669,NA,NA
43110,Franklin County,OH,25.31645569620253,NA,NA
43119,Franklin County,OH,25.85895117540687,NA,NA
43125,Franklin County,OH,74.50271247739603,NA,NA
43130,Fairfield County,OH,1.4466546112115732,NA,NA
43138,Hocking County,OH,32.91139240506329,NA,NA
43140,Madison County,OH,NA,NA,54.94736842105263
43146,Pickaway County,OH,NA,84.12942989214176,NA
43160,Fayette County,OH,NA,NA,94.94736842105263
43204,Franklin County,OH,26.94394213381555,NA,NA
43211,Franklin County,OH,11.030741410488245,NA,NA
43213,Franklin County,OH,NA,17.257318952234208,NA
43227,Franklin County,OH,NA,38.983050847457626,NA
43228,Franklin County,OH,3.4358047016274864,12.63482280431433,NA
43229,Franklin County,OH,NA,NA,17.473684210526315
43232,Franklin County,OH,NA,NA,48.84210526315789
43235,Franklin County,OH,NA,36.05546995377504,NA
43302,Marion County,OH,NA,2.157164869029276,NA
43326,Hardin County,OH,NA,NA,44.42105263157895
43506,Williams County,OH,NA,25.577812018489986,NA
43512,Defiance County,OH,NA,NA,12
43605,Lucas County,OH,1.8083182640144666,NA,NA
43612,Lucas County,OH,92.2242314647378,NA,NA
43613,Lucas County,OH,NA,23.882896764252695,NA
43615,Lucas County,OH,20.07233273056058,NA,NA
43616,Lucas County,OH,NA,42.526964560862865,NA
43623,Lucas County,OH,28.75226039783002,NA,27.368421052631582
43723,Guernsey County,OH,63.83363471971067,NA,NA
43725,Guernsey County,OH,NA,34.66872110939907,NA
43755,Guernsey County,OH,99.27667269439421,NA,NA
43812,Coshocton County,OH,NA,6.779661016949152,NA
43920,Columbiana County,OH,NA,9.244992295839753,NA
44024,Geauga County,OH,48.4629294755877,NA,80.21052631578948
44030,Ashtabula County,OH,NA,83.35901386748844,NA
44035,Lorain County,OH,NA,NA,0
44039,Lorain County,OH,8.679927667269439,NA,NA
44047,Ashtabula County,OH,44.303797468354425,NA,NA
44052,Lorain County,OH,16.998191681735985,1.848998459167951,NA
44055,Lorain County,OH,9.764918625678119,NA,NA
44072,Geauga County,OH,NA,83.66718027734977,NA
44077,Lake County,OH,NA,NA,19.789473684210527
44087,Summit County,OH,NA,14.48382126348228,NA
44092,Lake County,OH,NA,32.973805855161785,NA
44102,Cuyahoga County,OH,0.3616636528028933,NA,NA
44108,Cuyahoga County,OH,37.070524412296564,NA,NA
44123,Cuyahoga County,OH,NA,NA,34.31578947368421
44127,Cuyahoga County,OH,88.06509945750453,NA,NA
44130,Cuyahoga County,OH,43.76130198915009,NA,NA
44135,Cuyahoga County,OH,2.8933092224231465,NA,NA
44136,Cuyahoga County,OH,NA,NA,11.578947368421053
44138,Cuyahoga County,OH,NA,NA,19.57894736842105
44139,Cuyahoga County,OH,NA,65.17719568567027,NA
44140,Cuyahoga County,OH,NA,NA,28.631578947368418
44145,Cuyahoga County,OH,NA,NA,3.578947368421052
44146,Cuyahoga County,OH,6.871609403254973,NA,NA
44212,Medina County,OH,NA,NA,84.63157894736842
44241,Portage County,OH,NA,NA,61.473684210526315
44260,Portage County,OH,NA,57.6271186440678,NA
44280,Medina County,OH,NA,NA,74.73684210526315
44313,Summit County,OH,NA,51.92604006163328,NA
44460,Columbiana County,OH,NA,7.550077041602465,NA
44515,Mahoning County,OH,NA,10.785824345146379,NA
44667,Wayne County,OH,66.72694394213381,NA,NA
44705,Stark County,OH,26.582278481012654,NA,NA
44709,Stark County,OH,74.14104882459313,NA,57.05263157894736
44710,Stark County,OH,NA,NA,65.89473684210526
44824,Erie County,OH,NA,86.4406779661017,NA
44830,Seneca County,OH,18.625678119349008,29.275808936825886,70.52631578947368
44890,Huron County,OH,74.32188065099457,NA,NA
44906,Richland County,OH,36.166365280289334,NA,NA
45011,Butler County,OH,16.455696202531644,NA,NA
45014,Butler County,OH,15.551537070524413,NA,NA
45044,Butler County,OH,NA,NA,52
45206,Hamilton County,OH,NA,69.02927580893683,NA
45236,Hamilton County,OH,55.51537070524412,45.14637904468413,NA
45238,Hamilton County,OH,NA,NA,8
45320,Preble County,OH,NA,36.82588597842835,NA
45373,Miami County,OH,7.59493670886076,NA,NA
45377,Montgomery County,OH,NA,NA,56.84210526315789
45406,Montgomery County,OH,16.2748643761302,41.910631741140215,NA
45417,Montgomery County,OH,9.403254972875226,NA,NA
45420,Montgomery County,OH,NA,40.52388289676425,NA
45424,Montgomery County,OH,11.211573236889691,8.936825885978427,NA
45429,Montgomery County,OH,NA,32.20338983050847,NA
45458,Montgomery County,OH,NA,12.172573189522343,NA
45459,Montgomery County,OH,NA,NA,13.473684210526315
45502,Clark County,OH,NA,56.39445300462249,NA
45503,Clark County,OH,33.273056057866185,12.326656394453005,NA
45638,Lawrence County,OH,4.701627486437613,3.697996918335902,NA
45640,Jackson County,OH,NA,6.00924499229584,NA
45662,Scioto County,OH,NA,NA,2.9473684210526314
45690,Pike County,OH,NA,NA,21.263157894736842
45693,Adams County,OH,52.80289330922242,NA,NA
45694,Scioto County,OH,NA,NA,45.05263157894737
45801,Allen County,OH,12.115732368896925,NA,NA
45804,Allen County,OH,NA,24.80739599383667,NA
45805,Allen County,OH,NA,26.348228043143294,NA
45806,Allen County,OH,NA,NA,85.05263157894737
45840,Hancock County,OH,1.9891500904159132,NA,NA
45844,Putnam County,OH,95.84086799276673,NA,NA
73005,Caddo County,OK,NA,78.42835130970724,NA
73010,McClain County,OK,NA,NA,85.68421052631578
73099,Canadian County,OK,NA,6.163328197226503,NA
73130,Oklahoma County,OK,NA,44.8382126348228,NA
73160,Cleveland County,OK,NA,5.238828967642527,NA
73501,Comanche County,OK,NA,NA,64.21052631578948
73703,Garfield County,OK,NA,NA,8.421052631578947
73750,Kingfisher County,OK,NA,73.80585516178738,NA
74023,Payne County,OK,NA,55.1617873651772,NA
74074,Payne County,OK,NA,NA,32
74106,Tulsa County,OK,39.78300180831826,NA,NA
74133,Tulsa County,OK,NA,NA,9.473684210526317
74437,Okmulgee County,OK,NA,NA,69.05263157894737
74873,Pottawatomie County,OK,NA,64.40677966101694,NA
97006,Washington County,OR,NA,NA,35.78947368421053
97031,Hood River County,OR,72.33273056057867,NA,NA
97058,Wasco County,OR,NA,64.71494607087827,NA
97068,Clackamas County,OR,NA,NA,54.52631578947369
97078,Washington County,OR,NA,57.31895223420646,NA
97089,Clackamas County,OR,84.08679927667269,NA,NA
97132,Yamhill County,OR,NA,63.17411402157165,NA
97211,Multnomah County,OR,NA,53.77503852080123,NA
97222,Clackamas County,OR,NA,32.04930662557781,NA
97225,Washington County,OR,NA,66.40986132511556,NA
97230,Multnomah County,OR,NA,13.713405238828969,NA
97239,Multnomah County,OR,NA,70.57010785824345,NA
97302,Marion County,OR,NA,43.451463790446844,NA
97321,Linn County,OR,NA,24.499229583975346,NA
97322,Linn County,OR,88.42676311030742,NA,NA
97355,Linn County,OR,NA,NA,56.21052631578948
97365,Lincoln County,OR,76.13019891500905,NA,NA
97383,Marion County,OR,NA,82.28043143297381,NA
97401,Lane County,OR,NA,NA,34.94736842105263
97408,Lane County,OR,NA,94.91525423728814,NA
97411,Coos County,OR,NA,98.15100154083206,NA
97420,Coos County,OR,90.23508137432188,NA,NA
97439,Lane County,OR,93.67088607594937,NA,90.94736842105263
97465,Curry County,OR,NA,NA,98.3157894736842
97487,Lane County,OR,NA,86.13251155624036,NA
97504,Jackson County,OR,22.06148282097649,12.788906009244993,NA
97524,Jackson County,OR,NA,82.43451463790447,NA
97530,Jackson County,OR,NA,NA,83.15789473684211
97756,Deschutes County,OR,NA,18.952234206471495,NA
97814,Baker County,OR,NA,73.49768875192603,42.10526315789473
15024,Allegheny County,PA,NA,88.59784283513096,NA
15068,Westmoreland County,PA,NA,9.090909090909092,NA
15120,Allegheny County,PA,47.55877034358047,NA,NA
15146,Allegheny County,PA,49.90958408679928,NA,NA
15210,Allegheny County,PA,15.732368896925857,NA,NA
15212,Allegheny County,PA,NA,38.82896764252696,NA
15221,Allegheny County,PA,NA,25.115562403698,NA
15613,Westmoreland County,PA,NA,NA,25.473684210526315
15642,Westmoreland County,PA,NA,NA,4.842105263157895
15666,Westmoreland County,PA,NA,31.895223420647152,42.31578947368421
15683,Westmoreland County,PA,NA,NA,96.84210526315789
15690,Westmoreland County,PA,NA,NA,92.42105263157895
16146,Mercer County,PA,NA,42.21879815100154,NA
16668,Cambria County,PA,NA,99.38366718027734,NA
16673,Blair County,PA,NA,89.52234206471495,NA
17015,Cumberland County,PA,NA,NA,29.05263157894737
17022,Lancaster County,PA,NA,NA,82.10526315789474
17057,Dauphin County,PA,NA,NA,39.78947368421053
17112,Dauphin County,PA,NA,29.429892141756547,NA
17402,York County,PA,NA,NA,22.105263157894736
17517,Lancaster County,PA,83.00180831826401,93.68258859784284,NA
17522,Lancaster County,PA,NA,11.40215716486903,33.05263157894737
17527,Lancaster County,PA,NA,99.84591679506933,NA
17543,Lancaster County,PA,NA,NA,6.105263157894736
17545,Lancaster County,PA,NA,NA,70.10526315789474
17551,Lancaster County,PA,NA,NA,84
17555,Lancaster County,PA,NA,85.97842835130972,NA
17603,Lancaster County,PA,70.16274864376129,77.65793528505392,NA
17701,Lycoming County,PA,4.520795660036167,NA,NA
17745,Clinton County,PA,42.857142857142854,NA,NA
17801,Northumberland County,PA,NA,19.876733436055467,NA
17844,Union County,PA,NA,NA,76.42105263157895
17851,Northumberland County,PA,NA,NA,78.73684210526316
17857,Northumberland County,PA,NA,50.077041602465336,NA
17921,Schuylkill County,PA,NA,83.5130970724191,NA
18214,Schuylkill County,PA,NA,97.99691833590138,NA
18249,Luzerne County,PA,NA,88.59784283513096,NA
18337,Pike County,PA,NA,NA,60.21052631578947
18414,Lackawanna County,PA,NA,89.83050847457628,NA
18452,Lackawanna County,PA,NA,96.76425269645608,NA
18505,Lackawanna County,PA,NA,36.209553158705695,NA
18509,Lackawanna County,PA,NA,65.33127889060091,NA
18512,Lackawanna County,PA,64.91862567811934,NA,NA
18610,Monroe County,PA,NA,95.99383667180277,NA
18612,Luzerne County,PA,NA,NA,28.210526315789476
18642,Luzerne County,PA,NA,75.65485362095532,NA
18655,Luzerne County,PA,NA,NA,77.89473684210526
18706,Luzerne County,PA,NA,35.43913713405239,NA
18708,Luzerne County,PA,NA,90.9090909090909,NA
18974,Bucks County,PA,NA,89.06009244992296,NA
19010,Delaware County,PA,NA,41.60246533127889,NA
19046,Montgomery County,PA,NA,NA,32.421052631578945
19047,Bucks County,PA,NA,16.024653312788907,NA
19056,Bucks County,PA,52.44122965641953,NA,NA
19061,Delaware County,PA,NA,70.41602465331279,NA
19103,Philadelphia County,PA,NA,23.26656394453005,NA
19121,Philadelphia County,PA,NA,22.650231124807398,NA
19132,Philadelphia County,PA,5.786618444846293,NA,NA
19138,Philadelphia County,PA,NA,NA,21.894736842105264
19139,Philadelphia County,PA,22.24231464737794,NA,NA
19144,Philadelphia County,PA,NA,8.47457627118644,NA
19146,Philadelphia County,PA,NA,NA,46.31578947368421
19311,Chester County,PA,NA,89.36825885978429,NA
19341,Chester County,PA,76.31103074141049,NA,NA
19401,Montgomery County,PA,68.89692585895118,NA,NA
19607,Berks County,PA,30.92224231464738,NA,12.210526315789473
19610,Berks County,PA,NA,35.28505392912172,NA
02806,Bristol County,RI,NA,NA,52.84210526315789
02817,Kent County,RI,89.69258589511753,88.9060092449923,NA
02825,Providence County,RI,NA,98.45916795069337,NA
02840,Newport County,RI,45.388788426763114,NA,NA
02842,Newport County,RI,NA,NA,49.26315789473684
02860,Providence County,RI,NA,12.01848998459168,64
02889,Kent County,RI,26.763110307414106,53.929121725731896,NA
02895,Providence County,RI,12.47739602169982,NA,22.736842105263158
02896,Providence County,RI,86.61844484629296,NA,NA
02903,Providence County,RI,78.84267631103074,NA,NA
02904,Providence County,RI,NA,18.181818181818183,NA
02907,Providence County,RI,42.13381555153707,NA,44
02914,Providence County,RI,47.739602169981914,73.03543913713405,NA
02916,Providence County,RI,95.66003616636529,NA,NA
02917,Providence County,RI,96.74502712477397,NA,73.89473684210527
02920,Providence County,RI,NA,NA,37.473684210526315
29069,Darlington County,SC,98.73417721518987,NA,NA
29115,Orangeburg County,SC,39.602169981916816,NA,NA
29118,Orangeburg County,SC,78.11934900542495,NA,NA
29325,Laurens County,SC,NA,93.37442218798151,NA
29334,Spartanburg County,SC,NA,NA,91.78947368421052
29365,Spartanburg County,SC,86.98010849909585,NA,NA
29412,Charleston County,SC,NA,NA,10.947368421052632
29455,Charleston County,SC,81.374321880651,NA,NA
29466,Charleston County,SC,52.98372513562387,NA,NA
29510,Georgetown County,SC,97.46835443037975,NA,NA
29550,Darlington County,SC,NA,20.955315870570107,NA
29579,Horry County,SC,56.6003616636528,NA,NA
29588,Horry County,SC,91.13924050632912,42.06471494607088,NA
29617,Greenville County,SC,NA,NA,25.684210526315788
29644,Greenville County,SC,94.57504520795659,NA,NA
29650,Greenville County,SC,NA,73.34360554699538,NA
29676,Oconee County,SC,NA,NA,88.42105263157895
29681,Greenville County,SC,NA,NA,29.894736842105264
29684,Anderson County,SC,NA,NA,97.05263157894737
29690,Greenville County,SC,NA,NA,79.15789473684211
29810,Allendale County,SC,NA,95.0693374422188,NA
29907,Beaufort County,SC,NA,76.11710323574731,NA
29909,Beaufort County,SC,NA,NA,13.894736842105262
57042,Lake County,SD,98.37251356238697,NA,NA
57106,Minnehaha County,SD,NA,NA,45.26315789473684
57108,Lincoln County,SD,NA,71.9568567026194,NA
57401,Brown County,SD,NA,NA,1.263157894736842
37013,Davidson County,TN,NA,16.486902927580893,NA
37015,Cheatham County,TN,NA,44.53004622496148,NA
37087,Wilson County,TN,NA,24.961479198767332,NA
37209,Davidson County,TN,NA,80.58551617873651,NA
37217,Davidson County,TN,NA,55.007704160246526,NA
37303,McMinn County,TN,NA,NA,37.05263157894737
37356,Grundy County,TN,100,NA,NA
37379,Hamilton County,TN,43.58047016274864,NA,NA
37411,Hamilton County,TN,40.86799276672694,NA,NA
37412,Hamilton County,TN,NA,NA,52.421052631578945
37415,Hamilton County,TN,NA,56.548536209553156,NA
37660,Sullivan County,TN,NA,NA,8.842105263157894
37760,Jefferson County,TN,62.38698010849909,NA,NA
37857,Hawkins County,TN,37.251356238698015,NA,NA
37874,Monroe County,TN,43.21880650994575,NA,NA
37922,Knox County,TN,NA,51.61787365177196,NA
37932,Knox County,TN,95.29837251356238,NA,NA
38106,Shelby County,TN,17.17902350813743,NA,NA
38108,Shelby County,TN,58.04701627486437,NA,NA
38261,Obion County,TN,NA,34.514637904468415,NA
38343,Gibson County,TN,NA,NA,70.3157894736842
38401,Maury County,TN,NA,NA,54.10526315789473
38581,Warren County,TN,NA,92.6040061633282,NA
38583,White County,TN,27.48643761301989,NA,NA
75051,Dallas County,TX,NA,48.07395993836672,NA
75057,Denton County,TX,NA,81.81818181818183,NA
75068,Denton County,TX,NA,55.46995377503852,NA
75098,Collin County,TX,NA,36.97996918335901,NA
75115,Dallas County,TX,24.23146473779385,NA,NA
75126,Kaufman County,TX,34.719710669077756,NA,NA
75154,Ellis County,TX,46.473779385171795,NA,NA
75160,Kaufman County,TX,NA,53.004622496147924,NA
75211,Dallas County,TX,NA,57.93528505392912,NA
75214,Dallas County,TX,46.292947558770344,NA,NA
75215,Dallas County,TX,30.37974683544304,NA,NA
75216,Dallas County,TX,50.99457504520796,NA,NA
75233,Dallas County,TX,73.23688969258589,NA,NA
75235,Dallas County,TX,NA,85.51617873651772,NA
75703,Smith County,TX,NA,26.502311248073962,35.1578947368421
75707,Smith County,TX,NA,NA,67.78947368421052
75762,Smith County,TX,93.30922242314648,NA,48
75844,Houston County,TX,NA,NA,88.63157894736841
75956,Jasper County,TX,87.52260397830018,NA,NA
76011,Tarrant County,TX,57.68535262206148,NA,NA
76017,Tarrant County,TX,NA,29.583975346687215,NA
76021,Tarrant County,TX,NA,NA,26.105263157894736
76039,Tarrant County,TX,40.14466546112116,NA,NA
76134,Tarrant County,TX,29.475587703435806,NA,NA
76135,Tarrant County,TX,59.6745027124774,NA,NA
76209,Denton County,TX,80.83182640144665,NA,NA
76310,Wichita County,TX,NA,74.42218798151,NA
76354,Wichita County,TX,NA,81.51001540832048,NA
76426,Wise County,TX,NA,NA,57.263157894736835
76501,Bell County,TX,NA,NA,4.631578947368421
76504,Bell County,TX,90.77757685352623,NA,NA
76513,Bell County,TX,NA,70.10785824345146,NA
76539,Lampasas County,TX,NA,NA,99.1578947368421
76543,Bell County,TX,NA,NA,91.36842105263158
76550,Lampasas County,TX,66.54611211573237,NA,50.526315789473685
76567,Milam County,TX,NA,NA,44.631578947368425
76705,McLennan County,TX,18.264014466546115,NA,NA
76708,McLennan County,TX,NA,53.312788906009246,NA
77009,Harris County,TX,NA,37.13405238828968,NA
77019,Harris County,TX,72.875226039783,NA,NA
77023,Harris County,TX,62.20614828209765,NA,NA
77026,Harris County,TX,56.9620253164557,NA,NA
77034,Harris County,TX,NA,84.89984591679507,NA
77051,Harris County,TX,56.41952983725136,NA,NA
77055,Harris County,TX,NA,82.12634822804314,NA
77072,Harris County,TX,56.23869801084991,NA,NA
77082,Harris County,TX,80.10849909584087,NA,NA
77085,Harris County,TX,88.78842676311031,NA,NA
77096,Harris County,TX,NA,NA,47.1578947368421
77340,Walker County,TX,96.20253164556962,NA,63.578947368421055
77346,Harris County,TX,NA,35.130970724191066,NA
77469,Fort Bend County,TX,31.645569620253166,NA,NA
77479,Fort Bend County,TX,32.5497287522604,NA,NA
77521,Harris County,TX,NA,31.432973805855163,NA
77539,Galveston County,TX,NA,11.248073959938367,NA
77551,Galveston County,TX,29.294755877034355,61.47919876733437,21.052631578947366
77563,Galveston County,TX,NA,49.922958397534664,NA
77573,Galveston County,TX,NA,47.76579352850539,NA
77591,Galveston County,TX,91.86256781193491,NA,NA
77707,Jefferson County,TX,NA,NA,66.3157894736842
77905,Victoria County,TX,NA,NA,65.47368421052632
78207,Bexar County,TX,NA,NA,19.157894736842103
78380,Nueces County,TX,NA,65.63944530046226,NA
78384,Duval County,TX,NA,96.91833590138675,NA
78415,Nueces County,TX,49.00542495479204,NA,NA
78521,Cameron County,TX,NA,NA,10.73684210526316
78577,Hidalgo County,TX,NA,NA,10.31578947368421
78613,Williamson County,TX,NA,NA,5.263157894736842
78653,Travis County,TX,78.30018083182641,NA,NA
78702,Travis County,TX,NA,73.6517719568567,76.21052631578948
78745,Travis County,TX,NA,NA,55.57894736842105
78748,Travis County,TX,NA,91.98767334360555,NA
78840,Val Verde County,TX,NA,17.873651771956855,NA
79102,Potter County,TX,NA,88.13559322033898,NA
79316,Terry County,TX,NA,NA,87.57894736842105
79413,Lubbock County,TX,NA,NA,27.789473684210524
79416,Lubbock County,TX,NA,NA,24.421052631578945
79423,Lubbock County,TX,NA,57.01078582434514,NA
79936,El Paso County,TX,44.66546112115732,NA,NA
84009,Salt Lake County,UT,NA,NA,77.26315789473685
84037,Davis County,UT,NA,NA,92.84210526315789
84040,Davis County,UT,78.48101265822784,NA,NA
84066,Duchesne County,UT,NA,82.7426810477658,NA
84081,Salt Lake County,UT,33.815551537070526,NA,NA
84084,Salt Lake County,UT,NA,40.98613251155624,NA
84098,Summit County,UT,NA,NA,84.21052631578947
84128,Salt Lake County,UT,NA,66.10169491525424,NA
05089,Windsor County,VT,NA,NA,98.73684210526315
20110,Manassas city,VA,98.01084990958408,NA,NA
20175,Loudoun County,VA,NA,69.79969183359015,NA
20191,Fairfax County,VA,NA,91.37134052388289,NA
22102,Fairfax County,VA,92.40506329113924,NA,NA
22193,Prince William County,VA,NA,80.12326656394453,NA
22307,Fairfax County,VA,NA,91.06317411402158,NA
22309,Fairfax County,VA,NA,NA,59.15789473684211
22315,Fairfax County,VA,NA,59.32203389830508,NA
22401,Fredericksburg city,VA,51.89873417721519,NA,NA
22407,Spotsylvania County,VA,NA,NA,62.526315789473685
22485,King George County,VA,NA,54.39137134052389,NA
22630,Warren County,VA,NA,34.20647149460709,NA
22664,Shenandoah County,VA,NA,NA,35.78947368421053
22727,Madison County,VA,NA,NA,95.36842105263158
22827,Rockingham County,VA,77.03435804701627,NA,NA
22851,Page County,VA,86.4376130198915,NA,NA
22853,Rockingham County,VA,96.02169981916818,NA,NA
22902,Charlottesville city,VA,26.220614828209765,NA,NA
22903,Charlottesville city,VA,31.464737793851715,18.798151001540834,NA
22939,Augusta County,VA,92.58589511754069,NA,NA
22973,Greene County,VA,NA,NA,86.10526315789474
23072,Gloucester County,VA,NA,87.51926040061633,NA
23093,Louisa County,VA,86.79927667269439,NA,NA
23114,Chesterfield County,VA,91.32007233273056,NA,NA
23117,Louisa County,VA,NA,NA,89.47368421052632
23220,Richmond city,VA,64.73779385171791,NA,NA
23227,Henrico County,VA,45.02712477396022,NA,NA
23228,Henrico County,VA,NA,NA,20.63157894736842
23233,Henrico County,VA,83.90596745027125,NA,NA
23434,Suffolk city,VA,NA,8.782742681047766,NA
23435,Suffolk city,VA,79.02350813743219,NA,NA
23451,Virginia Beach city,VA,NA,NA,19.36842105263158
23452,Virginia Beach city,VA,NA,7.858243451463791,NA
23503,Norfolk city,VA,NA,NA,61.68421052631579
23513,Norfolk city,VA,53.34538878842676,NA,NA
23606,Newport News city,VA,NA,NA,14.526315789473685
23661,Hampton city,VA,NA,89.98459167950693,NA
23703,Portsmouth city,VA,NA,28.8135593220339,69.6842105263158
24014,Roanoke city,VA,NA,NA,60.421052631578945
24112,Henry County,VA,NA,14.175654853620955,NA
24171,Patrick County,VA,NA,96.61016949152543,NA
24401,Staunton city,VA,11.754068716094032,NA,NA
24416,Buena Vista city,VA,68.35443037974683,NA,NA
24477,Augusta County,VA,NA,48.536209553158706,NA
24520,Halifax County,VA,NA,99.69183359013869,NA
24523,Bedford County,VA,35.2622061482821,NA,69.47368421052632
98002,King County,WA,38.155515370705245,NA,NA
98003,King County,WA,NA,20.03081664098613,NA
98004,King County,WA,NA,85.67026194144837,NA
98012,Snohomish County,WA,NA,NA,15.368421052631579
98020,Snohomish County,WA,NA,NA,26.526315789473685
98022,King County,WA,85.89511754068717,NA,NA
98023,King County,WA,27.48643761301989,NA,20.842105263157894
98031,King County,WA,75.76853526220614,NA,NA
98042,King County,WA,NA,11.093990755007704,NA
98055,King County,WA,NA,NA,75.78947368421053
98058,King County,WA,81.19349005424955,NA,NA
98109,King County,WA,NA,NA,84.42105263157896
98115,King County,WA,NA,24.65331278890601,NA
98118,King County,WA,87.16094032549728,NA,NA
98119,King County,WA,73.59855334538878,NA,NA
98133,King County,WA,91.68173598553345,NA,NA
98144,King County,WA,32.00723327305606,NA,NA
98199,King County,WA,NA,NA,54.94736842105263
98204,Snohomish County,WA,28.57142857142857,NA,NA
98221,Skagit County,WA,NA,NA,13.684210526315791
98223,Snohomish County,WA,60.75949367088608,NA,NA
98230,Whatcom County,WA,NA,NA,75.57894736842105
98233,Skagit County,WA,NA,NA,78.3157894736842
98248,Whatcom County,WA,NA,61.325115562403695,NA
98273,Skagit County,WA,31.28390596745027,NA,7.157894736842104
98282,Island County,WA,NA,39.753466872110934,NA
98311,Kitsap County,WA,64.01446654611212,NA,NA
98327,Pierce County,WA,98.91500904159132,NA,NA
98335,Pierce County,WA,NA,34.82280431432974,NA
98362,Clallam County,WA,37.9746835443038,NA,NA
98367,Kitsap County,WA,NA,47.45762711864407,NA
98370,Kitsap County,WA,NA,NA,51.578947368421055
98374,Pierce County,WA,NA,NA,85.47368421052632
98382,Clallam County,WA,NA,NA,1.0526315789473684
98402,Pierce County,WA,NA,NA,94.52631578947368
98404,Pierce County,WA,36.708860759493675,NA,NA
98408,Pierce County,WA,NA,56.548536209553156,NA
98446,Pierce County,WA,NA,NA,99.78947368421053
98499,Pierce County,WA,NA,53.15870570107858,42.73684210526316
98502,Thurston County,WA,65.0994575045208,NA,NA
98503,Thurston County,WA,71.06690777576854,NA,NA
98584,Mason County,WA,69.25858951175407,18.489984591679505,NA
98607,Clark County,WA,NA,NA,93.89473684210526
98620,Klickitat County,WA,NA,NA,61.89473684210526
98626,Cowlitz County,WA,NA,30.0462249614792,NA
98642,Clark County,WA,NA,81.20184899845917,NA
98661,Clark County,WA,NA,90.75500770416025,71.57894736842105
98683,Clark County,WA,NA,NA,41.473684210526315
98802,Douglas County,WA,54.06871609403255,NA,NA
98944,Yakima County,WA,NA,63.17411402157165,NA
99202,Spokane County,WA,87.34177215189874,NA,NA
99208,Spokane County,WA,41.22965641952984,NA,NA
99217,Spokane County,WA,79.56600361663652,NA,NA
99320,Benton County,WA,NA,52.2342064714946,NA
99354,Benton County,WA,NA,NA,17.684210526315788
20001,District of Columbia,DC,NA,15.10015408320493,NA
20020,District of Columbia,DC,15.370705244122965,NA,NA
24701,Mercer County,WV,NA,NA,24.63157894736842
25064,Kanawha County,WV,NA,62.865947611710325,NA
25314,Kanawha County,WV,NA,75.346687211094,NA
25404,Berkeley County,WV,41.048824593128394,NA,NA
25425,Jefferson County,WV,NA,63.790446841294305,NA
25550,Mason County,WV,NA,65.94761171032357,NA
25951,Summers County,WV,72.51356238698011,NA,NA
26301,Harrison County,WV,NA,NA,18.526315789473685
26508,Monongalia County,WV,NA,5.3929121725731894,14.315789473684209
53022,Washington County,WI,NA,49.30662557781202,NA
53051,Waukesha County,WI,NA,24.19106317411402,NA
53092,Ozaukee County,WI,NA,NA,47.78947368421053
53097,Ozaukee County,WI,NA,92.91217257318952,NA
53105,Racine County,WI,NA,10.477657935285054,NA
53118,Waukesha County,WI,NA,NA,80
53130,Milwaukee County,WI,NA,NA,69.89473684210526
53132,Milwaukee County,WI,NA,20.801232665639446,NA
53140,Kenosha County,WI,11.934900542495479,NA,NA
53142,Kenosha County,WI,NA,19.72265023112481,NA
53149,Waukesha County,WI,NA,NA,59.578947368421055
53154,Milwaukee County,WI,23.688969258589513,NA,NA
53181,Kenosha County,WI,61.84448462929476,NA,NA
53186,Waukesha County,WI,30.560578661844485,NA,NA
53189,Waukesha County,WI,NA,NA,35.1578947368421
53190,Walworth County,WI,NA,59.16795069337443,NA
53207,Milwaukee County,WI,28.75226039783002,NA,21.684210526315788
53212,Milwaukee County,WI,NA,48.38212634822804,NA
53214,Milwaukee County,WI,12.296564195298371,NA,NA
53218,Milwaukee County,WI,NA,8.166409861325114,NA
53405,Racine County,WI,5.967450271247739,3.8520801232665636,11.368421052631579
53406,Racine County,WI,NA,NA,2.1052631578947367
53523,Dane County,WI,NA,NA,72
53546,Rock County,WI,NA,4.468412942989214,NA
53549,Jefferson County,WI,NA,52.85053929121726,NA
53594,Jefferson County,WI,NA,98.61325115562404,NA
53705,Dane County,WI,55.15370705244123,NA,NA
53713,Dane County,WI,81.73598553345388,NA,NA
54016,St. Croix County,WI,NA,NA,39.36842105263158
54140,Outagamie County,WI,NA,94.14483821263482,NA
54166,Shawano County,WI,NA,NA,78.94736842105263
54220,Manitowoc County,WI,6.6907775768535265,NA,NA
54313,Brown County,WI,NA,NA,63.78947368421053
54401,Marathon County,WI,NA,30.662557781201848,NA
54601,La Crosse County,WI,53.16455696202531,28.96764252696456,51.78947368421053
54650,La Crosse County,WI,NA,37.28813559322034,2.736842105263158
54880,Douglas County,WI,NA,3.2357473035439135,NA
82001,Laramie County,WY,NA,NA,42.526315789473685
82072,Albany County,WY,NA,NA,85.89473684210527
