ZipCode,county,state,Adult,Retirement,Geriatric
35042,Bibb County,AL,NA,89.8989898989899,NA
35214,Jefferson County,AL,NA,37.37373737373738,70.73732718894009
35217,Jefferson County,AL,NA,46.464646464646464,NA
35611,Limestone County,AL,NA,22.626262626262626,NA
35640,Morgan County,AL,NA,34.34343434343434,NA
35660,Colbert County,AL,NA,84.04040404040404,NA
35756,Limestone County,AL,NA,93.93939393939394,NA
35768,Jackson County,AL,NA,51.91919191919192,NA
35803,Madison County,AL,NA,NA,31.566820276497698
35906,Etowah County,AL,NA,75.95959595959596,NA
35959,Cherokee County,AL,NA,86.46464646464646,NA
35960,Cherokee County,AL,NA,76.96969696969697,NA
35962,DeKalb County,AL,NA,97.37373737373738,NA
35976,Marshall County,AL,50.74183976261127,NA,NA
36081,Pike County,AL,NA,NA,93.08755760368663
36201,Calhoun County,AL,NA,89.0909090909091,NA
36441,Escambia County,AL,97.62611275964392,NA,NA
36567,Baldwin County,AL,NA,NA,64.97695852534562
36693,Mobile County,AL,80.41543026706232,NA,NA
85013,Maricopa County,AZ,NA,NA,88.47926267281106
85016,Maricopa County,AZ,47.774480712166174,NA,NA
85017,Maricopa County,AZ,NA,NA,95.16129032258065
85033,Maricopa County,AZ,NA,37.57575757575757,NA
85035,Maricopa County,AZ,NA,56.96969696969697,NA
85043,Maricopa County,AZ,NA,63.23232323232323,NA
85122,Pinal County,AZ,7.121661721068249,NA,NA
85123,Pinal County,AZ,72.99703264094956,NA,NA
85204,Maricopa County,AZ,NA,NA,45.39170506912442
85206,Maricopa County,AZ,NA,28.28282828282828,NA
85210,Maricopa County,AZ,NA,52.92929292929293,NA
85248,Maricopa County,AZ,NA,NA,54.83870967741935
85295,Maricopa County,AZ,41.839762611275965,NA,NA
85345,Maricopa County,AZ,NA,9.696969696969697,NA
85383,Maricopa County,AZ,NA,34.14141414141414,NA
85501,Gila County,AZ,74.4807121661721,NA,NA
85622,Pima County,AZ,NA,62.82828282828283,NA
85641,Pima County,AZ,61.42433234421365,NA,NA
85645,Pima County,AZ,NA,99.5959595959596,NA
85704,Pima County,AZ,51.33531157270029,NA,NA
85741,Pima County,AZ,NA,NA,64.0552995391705
72022,Saline County,AR,86.64688427299704,NA,NA
72120,Pulaski County,AR,NA,15.757575757575756,NA
72206,Pulaski County,AR,78.93175074183976,NA,NA
72315,Mississippi County,AR,NA,NA,82.02764976958525
72401,Craighead County,AR,NA,9.090909090909092,NA
72454,Clay County,AR,93.76854599406528,NA,NA
72543,Cleburne County,AR,NA,59.1919191919192,NA
72616,Carroll County,AR,NA,80.60606060606061,NA
72653,Baxter County,AR,NA,NA,9.90783410138249
72762,Washington County,AR,NA,56.76767676767677,NA
72901,Sebastian County,AR,NA,70.70707070707071,NA
90013,Los Angeles County,CA,81.00890207715133,NA,NA
90025,Los Angeles County,CA,NA,NA,9.44700460829493
90028,Los Angeles County,CA,NA,NA,42.626728110599075
90029,Los Angeles County,CA,NA,70.70707070707071,NA
90034,Los Angeles County,CA,NA,50.70707070707071,NA
90048,Los Angeles County,CA,NA,NA,46.08294930875576
90222,Los Angeles County,CA,NA,62.02020202020202,NA
90241,Los Angeles County,CA,57.566765578635014,NA,NA
90270,Los Angeles County,CA,NA,92.32323232323232,NA
90601,Los Angeles County,CA,58.45697329376854,NA,NA
90604,Los Angeles County,CA,NA,NA,32.71889400921659
90620,Orange County,CA,NA,NA,27.188940092165897
90640,Los Angeles County,CA,NA,NA,29.953917050691242
90650,Los Angeles County,CA,NA,13.737373737373737,NA
90701,Los Angeles County,CA,90.50445103857567,NA,NA
90712,Los Angeles County,CA,NA,NA,80.87557603686636
90805,Los Angeles County,CA,18.100890207715135,NA,NA
91011,Los Angeles County,CA,90.80118694362018,NA,NA
91303,Los Angeles County,CA,94.3620178041543,NA,NA
91304,Los Angeles County,CA,NA,NA,17.51152073732719
91307,Los Angeles County,CA,NA,NA,56.451612903225815
91335,Los Angeles County,CA,NA,31.11111111111111,NA
91355,Los Angeles County,CA,NA,48.282828282828284,NA
91361,Ventura County,CA,NA,86.06060606060606,NA
91387,Los Angeles County,CA,NA,73.13131313131314,NA
91402,Los Angeles County,CA,27.002967359050444,NA,NA
91706,Los Angeles County,CA,NA,NA,25.57603686635945
91723,Los Angeles County,CA,NA,84.84848484848484,NA
91942,San Diego County,CA,NA,NA,26.497695852534562
92004,San Diego County,CA,NA,96.96969696969697,NA
92021,San Diego County,CA,NA,12.929292929292929,NA
92056,San Diego County,CA,NA,NA,12.211981566820276
92071,San Diego County,CA,NA,NA,25.806451612903224
92084,San Diego County,CA,NA,NA,44.47004608294931
92101,San Diego County,CA,NA,37.97979797979798,NA
92104,San Diego County,CA,27.89317507418398,NA,NA
92129,San Diego County,CA,NA,NA,49.76958525345622
92231,Imperial County,CA,NA,12.121212121212121,NA
92301,San Bernardino County,CA,NA,44.04040404040404,NA
92335,San Bernardino County,CA,NA,14.949494949494948,NA
92344,San Bernardino County,CA,NA,77.57575757575758,NA
92392,San Bernardino County,CA,NA,66.86868686868686,NA
92410,San Bernardino County,CA,NA,66.26262626262627,NA
92585,Riverside County,CA,NA,NA,91.01382488479263
92627,Orange County,CA,NA,NA,17.972350230414747
92629,Orange County,CA,NA,NA,70.27649769585254
92637,Orange County,CA,NA,NA,2.5345622119815667
92656,Orange County,CA,NA,46.464646464646464,NA
92683,Orange County,CA,NA,NA,4.838709677419355
92707,Orange County,CA,NA,80,NA
92840,Orange County,CA,55.19287833827893,NA,NA
92869,Orange County,CA,NA,77.17171717171716,NA
93230,Kings County,CA,NA,14.545454545454545,NA
93250,Kern County,CA,NA,NA,98.15668202764977
93306,Kern County,CA,NA,NA,41.705069124423964
93308,Kern County,CA,NA,65.25252525252525,NA
93420,San Luis Obispo County,CA,NA,43.63636363636363,NA
93702,Fresno County,CA,NA,NA,76.95852534562212
93703,Fresno County,CA,48.96142433234421,NA,NA
93906,Monterey County,CA,NA,NA,75.11520737327189
94086,Santa Clara County,CA,NA,NA,55.76036866359447
94107,San Francisco County,CA,49.554896142433236,NA,NA
94108,San Francisco County,CA,NA,NA,82.94930875576037
94134,San Francisco County,CA,41.246290801186944,NA,NA
94403,San Mateo County,CA,NA,NA,11.751152073732719
94521,Contra Costa County,CA,NA,NA,24.65437788018433
94561,Contra Costa County,CA,41.839762611275965,NA,NA
94565,Contra Costa County,CA,NA,5.656565656565657,NA
94607,Alameda County,CA,NA,NA,72.35023041474655
94702,Alameda County,CA,NA,NA,68.66359447004609
94707,Alameda County,CA,NA,NA,75.57603686635944
94930,Marin County,CA,NA,96.76767676767678,NA
95112,Santa Clara County,CA,NA,NA,53.45622119815668
95120,Santa Clara County,CA,NA,79.5959595959596,NA
95123,Santa Clara County,CA,NA,NA,81.5668202764977
95220,San Joaquin County,CA,NA,NA,81.33640552995391
95316,Stanislaus County,CA,NA,NA,92.62672811059907
95327,Tuolumne County,CA,NA,83.03030303030303,NA
95348,Merced County,CA,NA,65.05050505050505,NA
95472,Sonoma County,CA,NA,55.55555555555556,NA
95482,Mendocino County,CA,NA,23.03030303030303,NA
95531,Del Norte County,CA,64.39169139465875,NA,NA
95540,Humboldt County,CA,NA,91.71717171717172,NA
95630,Sacramento County,CA,NA,NA,76.036866359447
95818,Sacramento County,CA,NA,72.32323232323232,NA
95822,Sacramento County,CA,NA,41.01010101010101,NA
95824,Sacramento County,CA,NA,60.2020202020202,NA
95954,Butte County,CA,92.28486646884274,NA,NA
96001,Shasta County,CA,21.958456973293767,NA,NA
96093,Trinity County,CA,NA,92.72727272727272,NA
96101,Modoc County,CA,NA,96.16161616161617,NA
80004,Jefferson County,CO,NA,NA,40.78341013824885
80010,Arapahoe County,CO,NA,NA,63.133640552995395
80031,Adams County,CO,83.08605341246292,NA,NA
80033,Jefferson County,CO,NA,NA,68.4331797235023
80127,Jefferson County,CO,NA,NA,60.13824884792627
80134,Douglas County,CO,NA,34.74747474747475,NA
80138,Douglas County,CO,88.4272997032641,NA,NA
80207,Denver County,CO,47.18100890207715,NA,NA
80219,Denver County,CO,NA,21.01010101010101,NA
80227,Jefferson County,CO,NA,67.27272727272727,NA
80231,Denver County,CO,NA,84.24242424242424,NA
80235,Jefferson County,CO,NA,NA,94.00921658986175
80537,Larimer County,CO,NA,14.343434343434344,NA
80620,Weld County,CO,49.25816023738873,NA,NA
80634,Weld County,CO,2.3738872403560833,NA,NA
80916,El Paso County,CO,NA,NA,86.63594470046083
80919,El Paso County,CO,NA,NA,50
81003,Pueblo County,CO,37.0919881305638,NA,NA
81507,Mesa County,CO,NA,NA,57.83410138248848
06002,Hartford County,CT,NA,26.86868686868687,NA
06029,Tolland County,CT,NA,NA,53.91705069124424
06052,Hartford County,CT,NA,NA,80.18433179723502
06053,Hartford County,CT,10.089020771513352,NA,NA
06062,Hartford County,CT,NA,65.85858585858585,NA
06071,Tolland County,CT,NA,86.46464646464646,NA
06082,Hartford County,CT,NA,12.323232323232324,NA
06096,Hartford County,CT,NA,81.01010101010101,NA
06106,Hartford County,CT,4.451038575667656,NA,NA
06114,Hartford County,CT,NA,45.05050505050505,NA
06118,Hartford County,CT,NA,NA,39.40092165898618
06401,New Haven County,CT,NA,NA,51.1520737327189
06437,New Haven County,CT,64.68842729970326,NA,NA
06477,New Haven County,CT,NA,NA,69.5852534562212
06513,New Haven County,CT,NA,7.2727272727272725,NA
06516,New Haven County,CT,NA,2.4242424242424243,NA
06610,Fairfield County,CT,28.18991097922849,82.02020202020202,NA
06615,Fairfield County,CT,NA,54.74747474747475,NA
06708,New Haven County,CT,NA,89.4949494949495,NA
06787,Litchfield County,CT,78.04154302670622,NA,NA
06790,Litchfield County,CT,NA,NA,6.451612903225806
06851,Fairfield County,CT,61.72106824925816,NA,NA
19702,New Castle County,DE,NA,17.17171717171717,NA
19934,Kent County,DE,72.70029673590504,NA,NA
19963,Sussex County,DE,NA,NA,80.4147465437788
19966,Sussex County,DE,NA,NA,15.207373271889402
32025,Columbia County,FL,40.652818991097924,NA,NA
32055,Columbia County,FL,NA,60,NA
32084,St. Johns County,FL,NA,25.252525252525253,NA
32097,Nassau County,FL,NA,33.73737373737374,NA
32117,Volusia County,FL,NA,NA,36.175115207373274
32163,Sumter County,FL,NA,NA,60.82949308755761
32177,Putnam County,FL,NA,83.43434343434343,NA
32208,Duval County,FL,NA,3.4343434343434343,NA
32210,Duval County,FL,3.857566765578635,NA,NA
32218,Duval County,FL,NA,NA,24.42396313364055
32221,Duval County,FL,NA,33.33333333333333,44.00921658986175
32246,Duval County,FL,NA,NA,48.8479262672811
32277,Duval County,FL,59.64391691394659,NA,NA
32309,Leon County,FL,NA,70.1010101010101,NA
32424,Calhoun County,FL,71.2166172106825,NA,NA
32433,Walton County,FL,NA,38.78787878787879,NA
32444,Bay County,FL,70.91988130563797,NA,NA
32506,Escambia County,FL,NA,16.565656565656568,NA
32514,Escambia County,FL,NA,NA,40.78341013824885
32536,Okaloosa County,FL,62.61127596439169,NA,NA
32606,Alachua County,FL,NA,NA,3.4562211981566824
32730,Seminole County,FL,97.03264094955489,NA,NA
32735,Lake County,FL,NA,96.36363636363636,NA
32820,Orange County,FL,NA,97.57575757575758,NA
32839,Orange County,FL,NA,NA,54.377880184331794
32953,Brevard County,FL,NA,73.33333333333333,NA
32958,Indian River County,FL,NA,9.8989898989899,5.990783410138248
33004,Broward County,FL,NA,89.6969696969697,NA
33014,Miami-Dade County,FL,NA,NA,25.34562211981567
33015,Miami-Dade County,FL,NA,42.22222222222222,NA
33020,Broward County,FL,NA,23.83838383838384,NA
33025,Broward County,FL,NA,90.7070707070707,NA
33062,Broward County,FL,NA,25.454545454545453,NA
33142,Miami-Dade County,FL,NA,NA,18.663594470046082
33145,Miami-Dade County,FL,NA,75.55555555555556,NA
33147,Miami-Dade County,FL,NA,33.131313131313135,NA
33156,Miami-Dade County,FL,NA,NA,47.465437788018434
33162,Miami-Dade County,FL,NA,58.18181818181818,NA
33165,Miami-Dade County,FL,NA,NA,2.995391705069124
33167,Miami-Dade County,FL,NA,70.5050505050505,NA
33176,Miami-Dade County,FL,NA,NA,28.110599078341014
33313,Broward County,FL,22.255192878338278,NA,NA
33317,Broward County,FL,NA,42.42424242424242,NA
33322,Broward County,FL,NA,NA,11.981566820276496
33401,Palm Beach County,FL,NA,72.52525252525253,NA
33410,Palm Beach County,FL,NA,68.88888888888889,NA
33433,Palm Beach County,FL,NA,NA,1.1520737327188941
33436,Palm Beach County,FL,NA,47.474747474747474,NA
33440,Hendry County,FL,NA,NA,71.42857142857143
33458,Palm Beach County,FL,NA,NA,29.03225806451613
33460,Palm Beach County,FL,NA,NA,70.04608294930875
33510,Hillsborough County,FL,60.534124629080125,NA,NA
33544,Pasco County,FL,NA,NA,91.70506912442397
33565,Hillsborough County,FL,NA,90.9090909090909,NA
33570,Hillsborough County,FL,65.57863501483679,NA,NA
33615,Hillsborough County,FL,29.376854599406528,NA,NA
33755,Pinellas County,FL,NA,NA,79.49308755760369
33765,Pinellas County,FL,74.1839762611276,NA,NA
33830,Polk County,FL,38.27893175074184,NA,NA
33881,Polk County,FL,NA,68.28282828282828,NA
33898,Polk County,FL,NA,NA,88.0184331797235
33907,Lee County,FL,NA,NA,55.29953917050692
33914,Lee County,FL,NA,13.131313131313133,22.119815668202765
33928,Lee County,FL,NA,NA,21.658986175115206
33953,Charlotte County,FL,NA,NA,88.24884792626729
33955,Charlotte County,FL,NA,63.63636363636363,NA
33983,Charlotte County,FL,NA,NA,60.36866359447005
34103,Collier County,FL,NA,65.45454545454545,NA
34203,Manatee County,FL,NA,20,NA
34205,Manatee County,FL,NA,NA,73.50230414746544
34210,Manatee County,FL,86.94362017804154,NA,NA
34223,Sarasota County,FL,NA,NA,33.41013824884793
34234,Sarasota County,FL,44.510385756676556,NA,NA
34240,Sarasota County,FL,NA,NA,84.7926267281106
34266,DeSoto County,FL,NA,NA,36.63594470046083
34275,Sarasota County,FL,NA,26.262626262626267,NA
34292,Sarasota County,FL,NA,47.27272727272727,NA
34420,Marion County,FL,NA,59.59595959595959,NA
34471,Marion County,FL,NA,43.83838383838384,NA
34481,Marion County,FL,NA,NA,12.903225806451612
34482,Marion County,FL,66.76557863501483,NA,NA
34653,Pasco County,FL,30.86053412462908,NA,NA
34654,Pasco County,FL,51.038575667655785,NA,NA
34743,Osceola County,FL,51.92878338278932,NA,NA
34747,Osceola County,FL,83.38278931750742,NA,NA
34758,Osceola County,FL,NA,NA,62.21198156682027
34951,St. Lucie County,FL,NA,NA,56.68202764976959
34984,St. Lucie County,FL,59.34718100890207,NA,NA
30013,Rockdale County,GA,75.96439169139467,NA,NA
30022,Fulton County,GA,NA,75.15151515151514,NA
30041,Forsyth County,GA,NA,9.292929292929292,NA
30044,Gwinnett County,GA,20.178041543026705,NA,NA
30087,DeKalb County,GA,NA,19.7979797979798,NA
30088,DeKalb County,GA,43.62017804154303,NA,NA
30093,Gwinnett County,GA,NA,94.14141414141413,NA
30102,Cherokee County,GA,NA,66.66666666666666,NA
30115,Cherokee County,GA,NA,36.36363636363637,NA
30116,Carroll County,GA,NA,47.878787878787875,71.6589861751152
30176,Haralson County,GA,NA,87.47474747474747,NA
30214,Fayette County,GA,79.52522255192879,NA,NA
30224,Spalding County,GA,NA,48.484848484848484,NA
30307,DeKalb County,GA,NA,77.37373737373737,NA
30308,Fulton County,GA,NA,NA,89.63133640552995
30319,DeKalb County,GA,NA,NA,27.880184331797235
30327,Fulton County,GA,NA,NA,59.44700460829493
30344,Fulton County,GA,NA,NA,74.42396313364056
30401,Emanuel County,GA,NA,64.24242424242425,NA
30467,Screven County,GA,NA,61.41414141414141,NA
30549,Jackson County,GA,NA,50.90909090909091,NA
30577,Stephens County,GA,NA,NA,54.60829493087558
30683,Clarke County,GA,88.72403560830861,NA,NA
30705,Murray County,GA,31.454005934718097,NA,NA
30738,Dade County,GA,91.98813056379822,NA,NA
30739,Walker County,GA,NA,98.58585858585859,NA
30747,Chattooga County,GA,NA,NA,71.88940092165899
30815,Richmond County,GA,NA,11.91919191919192,53.2258064516129
30828,Warren County,GA,98.51632047477746,NA,NA
31021,Laurens County,GA,43.32344213649852,NA,NA
31029,Monroe County,GA,NA,NA,85.9447004608295
31030,Peach County,GA,75.66765578635015,NA,NA
31210,Bibb County,GA,NA,53.535353535353536,NA
31302,Effingham County,GA,87.24035608308606,NA,NA
31410,Chatham County,GA,NA,41.21212121212121,NA
31516,Pierce County,GA,NA,69.4949494949495,NA
31601,Lowndes County,GA,NA,35.15151515151515,NA
31602,Lowndes County,GA,NA,NA,69.12442396313364
31750,Ben Hill County,GA,NA,NA,55.52995391705069
31907,Muscogee County,GA,6.824925816023739,NA,NA
39823,Early County,GA,66.17210682492582,NA,NA
39837,Miller County,GA,NA,NA,99.30875576036865
96727,Hawaii County,HI,NA,92.52525252525253,NA
96763,Maui County,HI,96.439169139465875,NA,NA
96822,Honolulu County,HI,NA,NA,9.67741935483871
83301,Twin Falls County,ID,39.46587537091988,NA,NA
83338,Jerome County,ID,NA,57.97979797979798,NA
83687,Canyon County,ID,NA,16.767676767676768,NA
83714,Ada County,ID,NA,NA,14.055299539170507
60013,McHenry County,IL,NA,32.323232323232325,NA
60056,Cook County,IL,NA,13.535353535353536,NA
60070,Cook County,IL,NA,NA,84.10138248847926
60085,Lake County,IL,18.694362017804153,NA,NA
60115,DeKalb County,IL,NA,NA,65.43778801843318
60153,Cook County,IL,42.433234421364986,NA,NA
60155,Cook County,IL,82.19584569732937,NA,NA
60409,Cook County,IL,31.750741839762615,NA,NA
60411,Cook County,IL,12.166172106824925,NA,NA
60426,Cook County,IL,NA,22.22222222222222,NA
60443,Cook County,IL,NA,35.55555555555556,NA
60452,Cook County,IL,NA,40,NA
60462,Cook County,IL,NA,3.2323232323232323,NA
60465,Cook County,IL,77.74480712166172,NA,NA
60501,Cook County,IL,NA,88.88888888888889,NA
60503,Will County,IL,81.89910979228486,NA,NA
60558,Cook County,IL,NA,61.61616161616161,NA
60564,Will County,IL,NA,84.64646464646465,NA
60612,Cook County,IL,NA,NA,36.86635944700461
60616,Cook County,IL,NA,NA,58.75576036866359
60620,Cook County,IL,63.798219584569736,NA,NA
60623,Cook County,IL,NA,NA,16.129032258064516
60626,Cook County,IL,NA,4.444444444444445,NA
60629,Cook County,IL,NA,2.6262626262626263,NA
60634,Cook County,IL,8.605341246290802,NA,NA
60636,Cook County,IL,NA,NA,94.70046082949308
60641,Cook County,IL,12.462908011869436,NA,NA
60646,Cook County,IL,53.11572700296736,NA,NA
60659,Cook County,IL,NA,24.848484848484848,NA
60914,Kankakee County,IL,35.60830860534125,NA,NA
61021,Lee County,IL,NA,NA,1.8433179723502304
61061,Ogle County,IL,NA,NA,47.926267281105986
61071,Whiteside County,IL,NA,15.95959595959596,NA
61103,Winnebago County,IL,NA,88.08080808080808,NA
61111,Winnebago County,IL,NA,51.31313131313131,NA
61244,Rock Island County,IL,92.58160237388724,NA,NA
61354,LaSalle County,IL,NA,NA,30.414746543778804
61364,LaSalle County,IL,NA,NA,43.77880184331797
61520,Fulton County,IL,NA,NA,33.17972350230415
61615,Peoria County,IL,77.44807121661721,NA,NA
61761,McLean County,IL,NA,NA,35.714285714285715
61951,Moultrie County,IL,NA,NA,79.26267281105991
62274,Perry County,IL,NA,NA,83.17972350230414
62568,Christian County,IL,NA,53.13131313131313,NA
62629,Sangamon County,IL,NA,87.27272727272727,NA
62801,Marion County,IL,NA,26.464646464646464,35.483870967741936
62906,Union County,IL,NA,NA,67.97235023041475
62951,Williamson County,IL,96.73590504451039,NA,NA
62960,Massac County,IL,NA,76.76767676767676,NA
46041,Clinton County,IN,NA,51.11111111111111,NA
46052,Boone County,IN,NA,46.86868686868687,NA
46123,Hendricks County,IN,52.22551928783383,NA,NA
46140,Hancock County,IN,30.56379821958457,NA,NA
46201,Marion County,IN,NA,32.525252525252526,NA
46219,Marion County,IN,45.40059347181009,NA,NA
46227,Marion County,IN,NA,29.292929292929294,NA
46229,Marion County,IN,NA,68.68686868686868,NA
46237,Marion County,IN,NA,8.080808080808081,NA
46320,Lake County,IN,36.795252225519285,NA,NA
46321,Lake County,IN,NA,NA,24.88479262672811
46383,Porter County,IN,NA,NA,47.235023041474655
46405,Lake County,IN,NA,NA,88.47926267281106
46511,Marshall County,IN,NA,NA,85.71428571428571
46514,Elkhart County,IN,NA,54.54545454545454,NA
46815,Allen County,IN,NA,NA,19.81566820276498
46901,Howard County,IN,NA,NA,55.99078341013824
46902,Howard County,IN,NA,NA,7.373271889400922
46953,Grant County,IN,10.682492581602373,NA,NA
46970,Miami County,IN,8.30860534124629,NA,NA
47025,Dearborn County,IN,NA,50.505050505050505,NA
47122,Floyd County,IN,NA,NA,92.16589861751152
47150,Floyd County,IN,NA,5.252525252525253,NA
47302,Delaware County,IN,NA,30.303030303030305,NA
47304,Delaware County,IN,56.083086053412465,NA,NA
47374,Wayne County,IN,23.44213649851632,NA,13.82488479262673
47396,Delaware County,IN,NA,NA,89.86175115207374
47404,Monroe County,IN,NA,73.73737373737373,NA
47546,Dubois County,IN,NA,NA,29.493087557603687
47630,Warrick County,IN,93.17507418397626,NA,NA
47720,Vanderburgh County,IN,NA,83.83838383838383,NA
47868,Owen County,IN,NA,100,NA
47872,Parke County,IN,NA,NA,72.81105990783409
47905,Tippecanoe County,IN,NA,NA,17.28110599078341
50023,Polk County,IA,NA,NA,77.88018433179722
50138,Marion County,IA,NA,57.77777777777777,NA
50248,Story County,IA,NA,NA,97.6958525345622
50265,Polk County,IA,NA,55.35353535353536,NA
50595,Hamilton County,IA,NA,NA,69.81566820276498
50702,Black Hawk County,IA,NA,NA,99.07834101382488
51103,Woodbury County,IA,52.52225519287834,NA,NA
51301,Clay County,IA,NA,NA,29.723502304147466
52240,Johnson County,IA,NA,18.585858585858585,NA
52246,Johnson County,IA,NA,NA,34.10138248847927
52302,Linn County,IA,NA,31.91919191919192,NA
52349,Benton County,IA,89.91097922848664,NA,NA
52404,Linn County,IA,NA,NA,31.336405529953915
52405,Linn County,IA,NA,40.60606060606061,NA
52722,Scott County,IA,21.66172106824926,NA,NA
52732,Clinton County,IA,NA,25.050505050505052,NA
52804,Scott County,IA,NA,33.939393939393945,NA
52807,Scott County,IA,NA,81.21212121212122,NA
66007,Leavenworth County,KS,NA,NA,77.41935483870968
66061,Johnson County,KS,NA,NA,38.0184331797235
66062,Johnson County,KS,NA,NA,18.89400921658986
66204,Johnson County,KS,NA,NA,85.02304147465438
66208,Johnson County,KS,NA,47.67676767676768,NA
66216,Johnson County,KS,NA,53.73737373737374,52.07373271889401
66223,Johnson County,KS,85.16320474777447,NA,59.44700460829493
66762,Crawford County,KS,NA,48.888888888888886,NA
67010,Butler County,KS,76.55786350148368,NA,NA
67147,Sedgwick County,KS,99.40652818991099,NA,NA
67207,Sedgwick County,KS,NA,78.58585858585857,NA
67530,Barton County,KS,NA,53.333333333333336,NA
40118,Jefferson County,KY,58.753709198813056,NA,NA
40160,Hardin County,KY,67.35905044510386,NA,NA
40165,Bullitt County,KY,14.540059347181009,NA,NA
40203,Jefferson County,KY,NA,37.77777777777778,NA
40216,Jefferson County,KY,NA,10.1010101010101,NA
40218,Jefferson County,KY,NA,NA,58.294930875576036
40219,Jefferson County,KY,45.99406528189911,NA,NA
40272,Jefferson County,KY,13.353115727002967,NA,26.72811059907834
40291,Jefferson County,KY,NA,NA,34.56221198156682
40356,Jessamine County,KY,14.243323442136498,NA,NA
40422,Boyle County,KY,NA,46.26262626262626,NA
40503,Fayette County,KY,NA,NA,32.02764976958525
40504,Fayette County,KY,NA,59.3939393939394,46.31336405529954
40505,Fayette County,KY,NA,NA,58.525345622119815
40701,Whitley County,KY,40.0593471810089,NA,NA
40741,Laurel County,KY,23.738872403560833,NA,NA
40962,Clay County,KY,19.584569732937684,NA,NA
41001,Campbell County,KY,NA,69.6969696969697,NA
41016,Kenton County,KY,NA,80.2020202020202,NA
41017,Kenton County,KY,NA,19.393939393939394,NA
41018,Kenton County,KY,NA,23.636363636363637,NA
41042,Boone County,KY,5.044510385756676,94.74747474747474,3.225806451612903
41056,Mason County,KY,48.07121661721068,NA,NA
41101,Boyd County,KY,NA,72.12121212121212,NA
41102,Boyd County,KY,NA,18.383838383838384,NA
41139,Greenup County,KY,NA,54.141414141414145,NA
41164,Carter County,KY,NA,31.717171717171716,NA
41314,Owsley County,KY,NA,80.4040404040404,NA
41701,Perry County,KY,33.23442136498516,NA,NA
42031,Hickman County,KY,NA,89.8989898989899,NA
42104,Warren County,KY,NA,43.23232323232323,NA
42141,Barren County,KY,NA,6.0606060606060606,NA
42431,Hopkins County,KY,24.33234421364985,NA,NA
42445,Caldwell County,KY,NA,62.62626262626263,NA
42633,Wayne County,KY,NA,NA,58.06451612903226
42701,Hardin County,KY,NA,NA,6.682027649769585
42728,Adair County,KY,NA,40.2020202020202,NA
70003,Jefferson Parish,LA,NA,NA,2.0737327188940093
70126,Orleans Parish,LA,NA,NA,21.428571428571427
70344,Terrebonne Parish,LA,NA,78.3838383838384,NA
70431,St. Tammany Parish,LA,75.07418397626114,NA,NA
70508,Lafayette Parish,LA,NA,NA,31.797235023041477
70544,Iberia Parish,LA,36.20178041543027,NA,NA
70591,Jefferson Davis Parish,LA,NA,91.91919191919192,NA
70648,Allen Parish,LA,75.37091988130564,NA,NA
70744,Livingston Parish,LA,94.95548961424333,NA,NA
70775,West Feliciana Parish,LA,NA,NA,74.65437788018433
70785,Livingston Parish,LA,NA,35.35353535353536,NA
70805,East Baton Rouge Parish,LA,2.6706231454005933,NA,NA
71064,Bossier Parish,LA,NA,NA,92.3963133640553
71082,Caddo Parish,LA,NA,NA,90.55299539170507
71111,Bossier Parish,LA,NA,45.25252525252525,NA
71203,Ouachita Parish,LA,NA,22.02020202020202,NA
71270,Lincoln Parish,LA,24.92581602373887,57.37373737373738,NA
71291,Ouachita Parish,LA,NA,27.878787878787882,NA
04210,Androscoggin County,ME,NA,7.878787878787878,NA
20735,Prince George's County,MD,61.12759643916914,NA,NA
20833,Montgomery County,MD,NA,NA,91.01382488479263
20854,Montgomery County,MD,NA,69.2929292929293,NA
21009,Harford County,MD,NA,NA,66.82027649769586
21230,Baltimore city,MD,NA,NA,68.89400921658986
21234,Baltimore County,MD,17.210682492581604,NA,NA
21401,Anne Arundel County,MD,NA,NA,20.967741935483872
21617,Queen Anne's County,MD,NA,90.5050505050505,NA
01030,Hampden County,MA,NA,98.98989898989899,NA
01095,Hampden County,MA,NA,NA,97.46543778801843
01107,Hampden County,MA,91.3946587537092,NA,NA
01201,Berkshire County,MA,NA,78.18181818181819,NA
01247,Berkshire County,MA,NA,NA,22.350230414746544
01376,Franklin County,MA,NA,88.68686868686869,NA
01453,Worcester County,MA,NA,78.78787878787878,NA
01720,Middlesex County,MA,99.70326409495549,NA,NA
01930,Essex County,MA,NA,4.848484848484849,NA
02081,Norfolk County,MA,NA,NA,40.09216589861751
02119,Suffolk County,MA,NA,2.2222222222222223,NA
02122,Suffolk County,MA,NA,NA,41.474654377880185
02127,Suffolk County,MA,NA,5.454545454545454,NA
02130,Suffolk County,MA,NA,1.2121212121212122,NA
02131,Suffolk County,MA,1.1869436201780417,NA,NA
02145,Middlesex County,MA,NA,NA,9.216589861751153
02155,Middlesex County,MA,NA,NA,0.2304147465437788
02536,Barnstable County,MA,24.03560830860534,NA,NA
02777,Bristol County,MA,NA,11.515151515151516,NA
48034,Oakland County,MI,69.73293768545994,NA,NA
48047,Macomb County,MI,13.649851632047477,NA,NA
48066,Macomb County,MI,2.967359050445104,NA,37.78801843317972
48071,Oakland County,MI,NA,NA,45.852534562211986
48079,St. Clair County,MI,NA,NA,56.91244239631337
48088,Macomb County,MI,NA,57.17171717171718,21.19815668202765
48089,Macomb County,MI,33.531157270029674,NA,NA
48146,Wayne County,MI,NA,14.747474747474747,NA
48169,Livingston County,MI,NA,64.64646464646465,NA
48184,Wayne County,MI,16.320474777448073,NA,NA
48188,Wayne County,MI,NA,4.646464646464646,NA
48192,Wayne County,MI,53.41246290801187,NA,NA
48197,Washtenaw County,MI,2.0771513353115725,NA,NA
48219,Wayne County,MI,NA,1.8181818181818181,NA
48221,Wayne County,MI,NA,28.08080808080808,NA
48235,Wayne County,MI,15.727002967359049,NA,NA
48238,Wayne County,MI,NA,15.555555555555555,NA
48309,Oakland County,MI,35.90504451038576,NA,NA
48310,Macomb County,MI,NA,10.303030303030303,NA
48312,Macomb County,MI,NA,NA,7.834101382488479
48314,Macomb County,MI,46.58753709198813,NA,NA
48340,Oakland County,MI,8.902077151335313,NA,NA
48371,Oakland County,MI,39.762611275964396,NA,NA
48473,Genesee County,MI,47.47774480712167,NA,59.21658986175116
48503,Genesee County,MI,70.02967359050444,NA,NA
48601,Saginaw County,MI,29.673590504451035,NA,5.0691244239631335
48602,Saginaw County,MI,3.2640949554896146,NA,NA
48604,Saginaw County,MI,59.940652818991104,NA,NA
48617,Clare County,MI,NA,NA,66.3594470046083
48626,Saginaw County,MI,NA,71.51515151515152,NA
48631,Bay County,MI,NA,96.56565656565657,NA
48632,Clare County,MI,NA,NA,80.87557603686636
48640,Midland County,MI,8.011869436201781,NA,NA
48706,Bay County,MI,32.047477744807125,NA,NA
48750,Iosco County,MI,NA,NA,61.52073732718893
48801,Gratiot County,MI,NA,78.98989898989899,NA
48809,Ionia County,MI,67.95252225519289,NA,NA
48813,Eaton County,MI,NA,16.161616161616163,NA
48843,Livingston County,MI,45.6973293768546,NA,NA
48849,Ionia County,MI,NA,NA,78.3410138248848
48855,Livingston County,MI,NA,NA,67.2811059907834
48875,Ionia County,MI,NA,NA,61.05990783410138
48895,Ingham County,MI,80.1186943620178,NA,NA
49009,Kalamazoo County,MI,11.275964391691394,NA,NA
49010,Allegan County,MI,NA,NA,51.382488479262676
49015,Calhoun County,MI,NA,NA,15.898617511520738
49036,Branch County,MI,NA,NA,31.105990783410135
49068,Calhoun County,MI,81.30563798219585,NA,NA
49112,Cass County,MI,89.02077151335311,NA,NA
49120,Berrien County,MI,14.836795252225517,NA,NA
49420,Oceana County,MI,89.31750741839762,NA,NA
49444,Muskegon County,MI,7.71513353115727,NA,NA
49507,Kent County,MI,NA,55.15151515151515,NA
49548,Kent County,MI,NA,10.909090909090908,NA
49677,Osceola County,MI,NA,NA,58.986175115207374
49801,Dickinson County,MI,NA,38.18181818181819,NA
55021,Rice County,MN,NA,36.96969696969697,NA
55041,Wabasha County,MN,NA,64.04040404040404,NA
55066,Goodhue County,MN,NA,17.77777777777778,NA
55077,Dakota County,MN,NA,NA,97.92626728110599
55112,Ramsey County,MN,NA,NA,53.91705069124424
55119,Ramsey County,MN,12.759643916913946,NA,NA
55124,Dakota County,MN,40.94955489614243,NA,NA
55382,Stearns County,MN,NA,98.38383838383838,NA
55404,Hennepin County,MN,0.5934718100890208,NA,NA
55407,Hennepin County,MN,NA,28.888888888888886,NA
55410,Hennepin County,MN,NA,82.22222222222221,NA
55433,Anoka County,MN,NA,NA,43.54838709677419
55906,Olmsted County,MN,NA,64.84848484848484,NA
56007,Freeborn County,MN,NA,NA,0.4608294930875576
56013,Faribault County,MN,90.20771513353115,NA,NA
56058,Le Sueur County,MN,NA,NA,85.25345622119815
56073,Brown County,MN,22.8486646884273,NA,NA
56093,Waseca County,MN,NA,48.08080808080808,NA
56470,Hubbard County,MN,NA,NA,39.1705069124424
56560,Clay County,MN,NA,23.03030303030303,NA
38654,DeSoto County,MS,NA,NA,30.87557603686636
39301,Lauderdale County,MS,NA,44.44444444444444,NA
39367,Wayne County,MS,NA,62.42424242424243,NA
39437,Jones County,MS,NA,NA,67.74193548387096
39701,Lowndes County,MS,68.5459940652819,NA,NA
63011,St. Louis County,MO,NA,NA,64.51612903225806
63012,Jefferson County,MO,NA,95.95959595959596,NA
63028,Jefferson County,MO,NA,74.74747474747475,NA
63042,St. Louis County,MO,50.445103857566764,NA,NA
63088,St. Louis County,MO,NA,NA,90.09216589861751
63109,St. Louis city,MO,NA,NA,56.22119815668203
63110,St. Louis city,MO,NA,59.59595959595959,NA
63117,St. Louis County,MO,NA,95.55555555555556,NA
63123,St. Louis County,MO,NA,12.323232323232324,NA
63136,St. Louis County,MO,NA,38.98989898989899,NA
63137,St. Louis County,MO,NA,95.35353535353536,72.58064516129032
63304,St. Charles County,MO,NA,NA,18.202764976958523
63353,Pike County,MO,NA,86.26262626262627,NA
63366,St. Charles County,MO,45.103857566765576,NA,NA
63601,St. Francois County,MO,NA,52.121212121212125,NA
63640,St. Francois County,MO,83.97626112759644,NA,NA
63701,Cape Girardeau County,MO,72.40356083086054,NA,NA
63830,Pemiscot County,MO,NA,84.44444444444444,NA
63845,Mississippi County,MO,73.88724035608308,NA,NA
63901,Butler County,MO,13.056379821958458,NA,NA
64064,Jackson County,MO,NA,NA,79.72350230414746
64078,Cass County,MO,NA,81.21212121212122,NA
64093,Johnson County,MO,NA,NA,44.70046082949309
64118,Clay County,MO,25.222551928783382,NA,NA
64126,Jackson County,MO,95.84569732937686,NA,NA
64137,Jackson County,MO,NA,NA,61.9815668202765
64503,Buchanan County,MO,26.112759643916917,NA,NA
64772,Vernon County,MO,NA,50.101010101010104,NA
64801,Jasper County,MO,NA,NA,16.359447004608295
64844,Newton County,MO,NA,NA,99.76958525345621
65079,Camden County,MO,98.21958456973294,NA,NA
65202,Boone County,MO,NA,NA,16.589861751152075
65203,Boone County,MO,NA,8.282828282828284,NA
65559,Phelps County,MO,80.71216617210682,NA,NA
65613,Polk County,MO,60.83086053412463,NA,NA
65616,Taney County,MO,NA,30.909090909090907,NA
65619,Greene County,MO,NA,99.19191919191918,NA
65625,Barry County,MO,NA,81.81818181818183,NA
65711,Wright County,MO,NA,NA,77.64976958525345
65712,Lawrence County,MO,NA,80.8080808080808,NA
65775,Howell County,MO,NA,29.898989898989896,NA
65802,Greene County,MO,NA,18.181818181818183,NA
65807,Greene County,MO,NA,15.151515151515152,6.912442396313365
59101,Yellowstone County,MT,41.54302670623146,NA,NA
59301,Custer County,MT,94.06528189910979,NA,NA
59701,Silver Bow County,MT,64.98516320474778,NA,NA
68111,Douglas County,NE,20.77151335311573,NA,NA
68134,Douglas County,NE,NA,82.62626262626263,NA
68138,Sarpy County,NE,NA,NA,98.84792626728111
68502,Lancaster County,NE,71.51335311572701,NA,NA
68510,Lancaster County,NE,NA,NA,76.49769585253456
89101,Clark County,NV,NA,NA,52.995391705069125
89110,Clark County,NV,20.474777448071215,NA,NA
89115,Clark County,NV,NA,69.8989898989899,NA
89117,Clark County,NV,69.13946587537092,NA,NA
89118,Clark County,NV,NA,NA,85.48387096774194
89121,Clark County,NV,27.596439169139465,NA,NA
89128,Clark County,NV,54.3026706231454,NA,NA
89130,Clark County,NV,NA,NA,47.004608294930875
89135,Clark County,NV,NA,NA,57.6036866359447
89145,Clark County,NV,NA,NA,85.9447004608295
89147,Clark County,NV,44.80712166172107,NA,NA
89423,Douglas County,NV,NA,NA,55.06912442396313
89433,Washoe County,NV,NA,NA,73.27188940092167
89512,Washoe County,NV,16.61721068249258,NA,NA
89523,Washoe County,NV,NA,27.67676767676768,NA
89703,Carson City,NV,NA,89.29292929292929,NA
03053,Rockingham County,NH,27.299703264094955,NA,NA
03103,Hillsborough County,NH,NA,NA,20.737327188940093
03104,Hillsborough County,NH,NA,44.84848484848485,NA
03874,Rockingham County,NH,NA,52.72727272727272,NA
07002,Hudson County,NJ,0.8902077151335311,NA,NA
07093,Hudson County,NJ,NA,NA,5.76036866359447
07305,Hudson County,NJ,NA,17.575757575757574,29.262672811059907
07417,Bergen County,NJ,NA,85.25252525252526,NA
07470,Passaic County,NJ,NA,NA,5.299539170506913
07621,Bergen County,NJ,NA,60.4040404040404,NA
07675,Bergen County,NJ,NA,NA,37.55760368663594
07701,Monmouth County,NJ,NA,32.72727272727273,NA
07836,Morris County,NJ,79.22848664688428,NA,NA
07950,Morris County,NJ,NA,NA,80.64516129032258
08012,Camden County,NJ,5.341246290801187,NA,NA
08015,Burlington County,NJ,NA,NA,38.70967741935484
08016,Burlington County,NJ,37.388724035608305,NA,NA
08021,Camden County,NJ,NA,NA,34.7926267281106
08034,Camden County,NJ,NA,41.81818181818181,NA
08052,Burlington County,NJ,NA,39.5959595959596,NA
08057,Burlington County,NJ,NA,91.11111111111111,NA
08075,Burlington County,NJ,15.43026706231454,NA,NA
08077,Burlington County,NJ,NA,NA,57.14285714285714
08094,Gloucester County,NJ,NA,8.88888888888889,NA
08104,Camden County,NJ,18.397626112759642,NA,NA
08234,Atlantic County,NJ,NA,10.505050505050505,NA
08251,Cape May County,NJ,NA,NA,78.57142857142857
08701,Ocean County,NJ,NA,NA,1.3824884792626728
08753,Ocean County,NJ,NA,NA,10.599078341013826
08759,Ocean County,NJ,NA,0.8080808080808081,NA
08817,Middlesex County,NJ,NA,21.21212121212121,NA
08848,Hunterdon County,NJ,NA,NA,85.9447004608295
08857,Middlesex County,NJ,NA,NA,23.27188940092166
08859,Middlesex County,NJ,54.59940652818991,NA,NA
08861,Middlesex County,NJ,NA,27.070707070707073,NA
08882,Middlesex County,NJ,NA,79.1919191919192,NA
87020,Cibola County,NM,NA,74.14141414141415,NA
87059,Bernalillo County,NM,NA,NA,83.6405529953917
87108,Bernalillo County,NM,NA,NA,28.110599078341014
87109,Bernalillo County,NM,17.804154302670625,13.939393939393941,NA
87114,Bernalillo County,NM,34.42136498516321,NA,NA
87410,San Juan County,NM,67.06231454005935,NA,NA
88012,Doa Ana County,NM,NA,NA,53.686635944700456
88130,Roosevelt County,NM,68.24925816023739,38.38383838383838,NA
10024,New York County,NY,NA,56.16161616161616,NA
10033,New York County,NY,NA,NA,15.43778801843318
10039,New York County,NY,NA,36.56565656565657,NA
10040,New York County,NY,NA,51.515151515151516,NA
10304,Richmond County,NY,NA,20.2020202020202,63.824884792626726
10307,Richmond County,NY,NA,99.79797979797979,NA
10310,Richmond County,NY,76.26112759643917,NA,NA
10452,Bronx County,NY,NA,20.80808080808081,NA
10457,Bronx County,NY,0,NA,NA
10459,Bronx County,NY,NA,NA,26.036866359447004
10466,Bronx County,NY,58.160237388724035,NA,62.903225806451616
10473,Bronx County,NY,NA,3.6363636363636362,NA
10606,Westchester County,NY,NA,83.63636363636363,NA
10708,Westchester County,NY,NA,NA,44.93087557603687
10930,Orange County,NY,NA,NA,92.62672811059907
10984,Rockland County,NY,97.3293768545994,NA,NA
11218,Kings County,NY,NA,NA,6.221198156682028
11220,Kings County,NY,NA,NA,14.976958525345621
11226,Kings County,NY,NA,NA,10.368663594470046
11229,Kings County,NY,NA,NA,2.3041474654377883
11372,Queens County,NY,NA,NA,8.755760368663594
11379,Queens County,NY,81.60237388724035,NA,48.38709677419355
11414,Queens County,NY,NA,93.33333333333333,NA
11580,Nassau County,NY,NA,NA,30.184331797235025
11729,Suffolk County,NY,NA,NA,49.07834101382488
11772,Suffolk County,NY,66.46884272997032,NA,NA
11784,Suffolk County,NY,NA,NA,79.72350230414746
12170,Saratoga County,NY,NA,NA,93.77880184331798
12306,Schenectady County,NY,34.124629080118694,NA,NA
12414,Greene County,NY,55.78635014836796,NA,NA
12533,Dutchess County,NY,NA,NA,62.44239631336406
12534,Columbia County,NY,49.85163204747774,NA,NA
12571,Dutchess County,NY,NA,NA,96.54377880184332
12603,Dutchess County,NY,NA,NA,37.096774193548384
12790,Sullivan County,NY,NA,90.30303030303031,NA
12832,Washington County,NY,91.0979228486647,NA,NA
12866,Saratoga County,NY,13.94658753709199,NA,NA
12901,Clinton County,NY,NA,NA,7.142857142857142
12937,Franklin County,NY,95.54896142433235,NA,NA
13126,Oswego County,NY,3.5608308605341246,NA,NA
13203,Onondaga County,NY,NA,NA,70.50691244239631
13205,Onondaga County,NY,11.572700296735905,92.92929292929293,NA
13421,Madison County,NY,NA,49.898989898989896,NA
13760,Broome County,NY,NA,0.20202020202020202,NA
13803,Cortland County,NY,96.14243323442136,NA,NA
13850,Broome County,NY,NA,43.43434343434344,NA
14063,Chautauqua County,NY,NA,NA,62.67281105990783
14067,Niagara County,NY,NA,NA,74.19354838709677
14094,Niagara County,NY,1.7804154302670623,NA,NA
14206,Erie County,NY,NA,24.04040404040404,NA
14225,Erie County,NY,NA,15.353535353535353,NA
14514,Monroe County,NY,NA,81.61616161616162,NA
14895,Allegany County,NY,NA,39.39393939393939,NA
27107,Forsyth County,NC,NA,NA,0.9216589861751152
27127,Forsyth County,NC,15.133531157270031,NA,5.529953917050691
27217,Alamance County,NC,NA,NA,8.294930875576037
27302,Alamance County,NC,NA,63.83838383838384,NA
27344,Chatham County,NC,76.8545994065282,NA,NA
27376,Moore County,NC,NA,NA,97.23502304147466
27403,Guilford County,NC,NA,65.85858585858585,NA
27545,Wake County,NC,NA,NA,41.935483870967744
27563,Warren County,NC,95.25222551928783,NA,NA
27606,Wake County,NC,NA,NA,51.61290322580645
27701,Durham County,NC,NA,82.82828282828282,NA
27703,Durham County,NC,NA,8.484848484848486,NA
27874,Halifax County,NC,92.87833827893175,NA,NA
27880,Wilson County,NC,98.81305637982196,NA,NA
27889,Beaufort County,NC,32.93768545994065,NA,NA
28016,Gaston County,NC,NA,58.18181818181818,NA
28018,Rutherford County,NC,NA,NA,94.00921658986175
28027,Cabarrus County,NC,19.881305637982198,NA,23.963133640552993
28092,Lincoln County,NC,NA,NA,42.16589861751152
28104,Union County,NC,NA,NA,48.38709677419355
28112,Union County,NC,NA,33.535353535353536,36.405529953917046
28117,Iredell County,NC,NA,28.484848484848484,NA
28120,Gaston County,NC,NA,NA,63.36405529953917
28202,Mecklenburg County,NC,NA,97.77777777777777,NA
28217,Mecklenburg County,NC,NA,67.67676767676768,NA
28270,Mecklenburg County,NC,NA,NA,50.23041474654379
28277,Mecklenburg County,NC,NA,17.17171717171717,NA
28327,Moore County,NC,72.10682492581603,NA,NA
28345,Richmond County,NC,NA,NA,51.843317972350235
28348,Cumberland County,NC,NA,36.76767676767677,NA
28376,Hoke County,NC,NA,67.87878787878789,NA
28403,New Hanover County,NC,NA,NA,34.331797235023046
28429,New Hanover County,NC,NA,NA,94.47004608294931
28463,Columbus County,NC,72.99703264094956,NA,NA
28504,Lenoir County,NC,NA,NA,40.55299539170507
28584,Carteret County,NC,NA,60.80808080808081,NA
28602,Catawba County,NC,NA,38.58585858585858,NA
28625,Iredell County,NC,NA,NA,25.115207373271893
28630,Caldwell County,NC,NA,NA,49.53917050691244
28640,Ashe County,NC,NA,NA,83.17972350230414
28658,Catawba County,NC,NA,85.65656565656565,NA
28713,Swain County,NC,NA,56.36363636363636,NA
28716,Haywood County,NC,NA,72.72727272727273,NA
28754,Madison County,NC,NA,NA,91.93548387096774
28777,Mitchell County,NC,NA,88.48484848484848,NA
28906,Cherokee County,NC,52.818991097922854,NA,20.276497695852534
58078,Cass County,ND,NA,13.333333333333334,NA
58104,Cass County,ND,32.34421364985163,NA,NA
58501,Burleigh County,ND,56.37982195845698,NA,NA
58545,Mercer County,ND,NA,99.39393939393939,NA
58554,Morton County,ND,NA,61.01010101010102,43.08755760368664
58701,Ward County,ND,NA,6.262626262626263,NA
43054,Franklin County,OH,NA,64.44444444444444,NA
43055,Licking County,OH,NA,0.6060606060606061,NA
43130,Fairfield County,OH,10.385756676557865,NA,NA
43146,Pickaway County,OH,NA,85.85858585858585,NA
43147,Fairfield County,OH,NA,23.434343434343436,NA
43204,Franklin County,OH,4.747774480712167,NA,NA
43206,Franklin County,OH,10.979228486646884,NA,NA
43219,Franklin County,OH,NA,31.515151515151512,NA
43223,Franklin County,OH,5.934718100890208,58.58585858585859,NA
43228,Franklin County,OH,19.287833827893174,NA,NA
43229,Franklin County,OH,NA,NA,21.889400921658986
43302,Marion County,OH,NA,1.6161616161616161,NA
43452,Ottawa County,OH,NA,29.6969696969697,NA
43512,Defiance County,OH,NA,3.0303030303030303,NA
43528,Lucas County,OH,42.72997032640949,NA,NA
43551,Wood County,OH,NA,4.040404040404041,NA
43567,Fulton County,OH,NA,35.75757575757576,NA
43614,Lucas County,OH,9.495548961424333,NA,NA
43615,Lucas County,OH,NA,2.8282828282828283,NA
43619,Wood County,OH,NA,68.88888888888889,NA
43701,Muskingum County,OH,NA,17.97979797979798,NA
43845,Coshocton County,OH,NA,NA,82.48847926267281
43907,Harrison County,OH,NA,70.70707070707071,NA
43920,Columbiana County,OH,NA,NA,47.69585253456221
44011,Lorain County,OH,NA,22.828282828282827,NA
44035,Lorain County,OH,NA,0,NA
44052,Lorain County,OH,NA,1.4141414141414141,NA
44057,Lake County,OH,NA,NA,15.668202764976957
44103,Cuyahoga County,OH,7.418397626112759,NA,35.02304147465438
44105,Cuyahoga County,OH,0.2967359050445104,NA,NA
44106,Cuyahoga County,OH,NA,11.11111111111111,NA
44107,Cuyahoga County,OH,1.483679525222552,NA,NA
44109,Cuyahoga County,OH,NA,1.0101010101010102,NA
44118,Cuyahoga County,OH,NA,NA,4.377880184331797
44120,Cuyahoga County,OH,NA,2.0202020202020203,NA
44123,Cuyahoga County,OH,NA,21.818181818181817,NA
44125,Cuyahoga County,OH,NA,7.474747474747474,NA
44130,Cuyahoga County,OH,NA,NA,7.603686635944701
44138,Cuyahoga County,OH,33.82789317507419,NA,NA
44143,Cuyahoga County,OH,NA,NA,16.82027649769585
44231,Portage County,OH,86.05341246290801,NA,NA
44256,Medina County,OH,NA,0.40404040404040403,NA
44278,Summit County,OH,62.01780415430267,NA,NA
44310,Summit County,OH,NA,NA,52.53456221198156
44312,Summit County,OH,NA,7.6767676767676765,24.193548387096776
44507,Mahoning County,OH,NA,NA,87.55760368663594
44614,Stark County,OH,NA,NA,98.38709677419355
44703,Stark County,OH,54.00593471810089,NA,NA
44842,Ashland County,OH,NA,97.17171717171718,NA
44870,Erie County,OH,29.970326409495552,NA,NA
45011,Butler County,OH,NA,NA,65.89861751152074
45013,Butler County,OH,18.991097922848667,NA,NA
45150,Clermont County,OH,38.87240356083086,NA,NA
45205,Hamilton County,OH,NA,NA,84.56221198156682
45230,Hamilton County,OH,NA,NA,61.75115207373272
45236,Hamilton County,OH,56.676557863501486,NA,NA
45320,Preble County,OH,43.916913946587535,NA,NA
45322,Montgomery County,OH,NA,45.85858585858586,NA
45344,Clark County,OH,NA,47.070707070707066,NA
45356,Miami County,OH,NA,9.494949494949495,NA
45365,Shelby County,OH,NA,10.707070707070706,NA
45377,Montgomery County,OH,NA,NA,90.78341013824884
45385,Greene County,OH,NA,71.71717171717171,NA
45403,Montgomery County,OH,NA,75.75757575757575,NA
45404,Montgomery County,OH,57.27002967359051,NA,NA
45405,Montgomery County,OH,NA,NA,97.00460829493088
45420,Montgomery County,OH,26.409495548961427,NA,NA
45431,Montgomery County,OH,NA,NA,39.86175115207373
45601,Ross County,OH,NA,NA,0
45640,Jackson County,OH,NA,85.45454545454545,NA
45656,Jackson County,OH,NA,87.07070707070706,NA
45669,Lawrence County,OH,NA,NA,59.44700460829493
45714,Washington County,OH,NA,NA,33.41013824884793
45750,Washington County,OH,NA,NA,0.6912442396313364
45804,Allen County,OH,NA,NA,22.811059907834103
45833,Allen County,OH,NA,NA,50.69124423963134
73013,Oklahoma County,OK,NA,NA,10.829493087557603
73036,Canadian County,OK,44.21364985163205,NA,NA
73072,Cleveland County,OK,NA,24.242424242424242,NA
73080,McClain County,OK,78.33827893175074,NA,NA
73109,Oklahoma County,OK,65.57863501483679,NA,NA
73110,Oklahoma County,OK,NA,34.34343434343434,NA
73132,Oklahoma County,OK,NA,NA,40.32258064516129
73521,Jackson County,OK,NA,NA,48.15668202764977
73701,Garfield County,OK,NA,29.494949494949495,NA
73703,Garfield County,OK,NA,16.363636363636363,NA
74020,Pawnee County,OK,85.7566765578635,NA,NA
74055,Tulsa County,OK,NA,NA,69.35483870967742
74105,Tulsa County,OK,40.35608308605341,NA,NA
74110,Tulsa County,OK,NA,NA,96.31336405529954
74112,Tulsa County,OK,NA,NA,67.05069124423963
74135,Tulsa County,OK,NA,NA,37.327188940092164
74354,Ottawa County,OK,NA,NA,98.61751152073732
74361,Mayes County,OK,NA,61.81818181818181,NA
74403,Muskogee County,OK,35.01483679525222,NA,NA
74437,Okmulgee County,OK,82.49258160237389,NA,NA
74501,Pittsburg County,OK,NA,NA,35.944700460829495
74801,Pottawatomie County,OK,NA,58.78787878787879,NA
74820,Pontotoc County,OK,6.528189910979229,NA,NA
74962,Sequoyah County,OK,NA,98.18181818181819,NA
97060,Multnomah County,OR,46.29080118694362,NA,NA
97141,Tillamook County,OR,NA,52.323232323232325,NA
97230,Multnomah County,OR,NA,11.313131313131313,NA
97233,Multnomah County,OR,NA,32.121212121212125,NA
97305,Marion County,OR,25.816023738872403,NA,NA
97322,Linn County,OR,NA,NA,8.525345622119817
97424,Lane County,OR,48.6646884272997,NA,NA
97467,Douglas County,OR,NA,NA,63.594470046082954
97502,Jackson County,OR,NA,NA,35.25345622119816
97527,Josephine County,OR,NA,NA,23.502304147465438
97702,Deschutes County,OR,NA,NA,32.25806451612903
15001,Beaver County,PA,21.068249258160236,NA,23.04147465437788
15024,Allegheny County,PA,86.35014836795251,NA,NA
15062,Westmoreland County,PA,83.67952522255193,NA,NA
15101,Allegheny County,PA,NA,48.888888888888886,NA
15136,Allegheny County,PA,NA,NA,45.622119815668206
15206,Allegheny County,PA,NA,19.393939393939394,NA
15210,Allegheny County,PA,NA,NA,78.80184331797236
15317,Washington County,PA,NA,7.07070707070707,NA
15767,Jefferson County,PA,28.486646884272997,NA,NA
15857,Elk County,PA,NA,NA,8.064516129032258
15901,Cambria County,PA,NA,NA,79.03225806451613
16101,Lawrence County,PA,26.706231454005934,NA,NA
16335,Crawford County,PA,NA,NA,19.5852534562212
16507,Erie County,PA,NA,NA,100
16662,Blair County,PA,NA,NA,75.80645161290323
16686,Blair County,PA,NA,61.01010101010102,52.30414746543779
16823,Centre County,PA,NA,NA,19.35483870967742
16833,Clearfield County,PA,NA,NA,71.19815668202764
16933,Tioga County,PA,NA,NA,90.32258064516128
17015,Cumberland County,PA,73.59050445103857,27.27272727272727,NA
17044,Mifflin County,PA,NA,NA,10.138248847926267
17046,Lebanon County,PA,NA,NA,46.774193548387096
17110,Dauphin County,PA,16.023738872403563,NA,NA
17112,Dauphin County,PA,NA,NA,12.672811059907835
17201,Franklin County,PA,9.198813056379821,18.787878787878785,NA
17202,Franklin County,PA,NA,49.696969696969695,NA
17268,Franklin County,PA,17.50741839762611,NA,NA
17327,York County,PA,NA,NA,89.40092165898618
17402,York County,PA,NA,NA,3.686635944700461
17406,York County,PA,NA,NA,17.741935483870968
17408,York County,PA,NA,13.939393939393941,NA
17603,Lancaster County,PA,NA,6.4646464646464645,NA
17701,Lycoming County,PA,4.154302670623145,NA,NA
17857,Northumberland County,PA,NA,NA,64.74654377880185
18049,Lehigh County,PA,NA,39.1919191919192,NA
18064,Northampton County,PA,NA,55.757575757575765,NA
18067,Northampton County,PA,NA,25.858585858585858,NA
18072,Northampton County,PA,NA,87.67676767676768,NA
18411,Lackawanna County,PA,NA,NA,26.26728110599078
18643,Luzerne County,PA,NA,50.303030303030305,50.92165898617511
18960,Bucks County,PA,70.62314540059347,NA,NA
18974,Bucks County,PA,NA,8.686868686868687,NA
19015,Delaware County,PA,NA,NA,95.39170506912443
19046,Montgomery County,PA,NA,NA,38.24884792626728
19053,Bucks County,PA,32.640949554896146,NA,NA
19057,Bucks County,PA,NA,NA,44.23963133640553
19119,Philadelphia County,PA,NA,16.969696969696972,NA
19132,Philadelphia County,PA,5.637982195845697,NA,NA
19134,Philadelphia County,PA,NA,12.727272727272727,NA
19138,Philadelphia County,PA,NA,NA,27.188940092165897
19154,Philadelphia County,PA,NA,NA,30.414746543778804
19365,Chester County,PA,94.65875370919882,NA,NA
19464,Montgomery County,PA,NA,3.8383838383838382,NA
19508,Berks County,PA,NA,39.7979797979798,NA
19601,Berks County,PA,NA,11.717171717171718,NA
02818,Kent County,RI,NA,40.80808080808081,NA
02860,Providence County,RI,NA,NA,4.6082949308755765
02863,Providence County,RI,NA,57.37373737373738,NA
02889,Kent County,RI,25.519287833827892,NA,NA
02893,Kent County,RI,NA,NA,39.63133640552996
29042,Bamberg County,SC,93.47181008902076,NA,NA
29107,Orangeburg County,SC,100,NA,NA
29123,Lexington County,SC,87.83382789317507,NA,NA
29125,Sumter County,SC,NA,NA,99.53917050691244
29150,Sumter County,SC,NA,24.444444444444443,NA
29412,Charleston County,SC,NA,NA,12.903225806451612
29418,Charleston County,SC,NA,83.23232323232324,NA
29445,Berkeley County,SC,NA,NA,41.244239631336406
29520,Chesterfield County,SC,NA,55.959595959595966,NA
29532,Darlington County,SC,NA,79.7979797979798,NA
29550,Darlington County,SC,NA,20.606060606060606,NA
29581,Horry County,SC,NA,87.87878787878788,NA
29621,Anderson County,SC,NA,NA,14.516129032258066
29672,Oconee County,SC,NA,NA,83.87096774193549
29690,Greenville County,SC,NA,32.92929292929293,NA
29706,Chester County,SC,NA,NA,66.58986175115207
29720,Lancaster County,SC,NA,NA,26.95852534562212
29732,York County,SC,NA,NA,22.58064516129032
29847,Edgefield County,SC,NA,94.94949494949495,NA
57103,Minnehaha County,SD,NA,70.3030303030303,NA
57106,Minnehaha County,SD,NA,NA,3.9170506912442393
57201,Codington County,SD,NA,NA,74.88479262672811
57401,Brown County,SD,NA,5.858585858585859,NA
37027,Williamson County,TN,NA,NA,19.12442396313364
37040,Montgomery County,TN,NA,29.09090909090909,NA
37066,Sumner County,TN,38.57566765578635,6.8686868686868685,NA
37074,Trousdale County,TN,NA,76.56565656565657,NA
37082,Cheatham County,TN,NA,95.15151515151516,NA
37122,Wilson County,TN,29.080118694362017,NA,NA
37148,Sumner County,TN,NA,NA,61.29032258064516
37167,Rutherford County,TN,NA,NA,38.47926267281106
37188,Robertson County,TN,NA,NA,84.33179723502305
37211,Davidson County,TN,NA,52.323232323232325,NA
37311,Bradley County,TN,36.49851632047478,NA,NA
37336,Bradley County,TN,NA,94.34343434343434,NA
37355,Coffee County,TN,69.43620178041543,NA,NA
37377,Hamilton County,TN,NA,19.19191919191919,NA
37379,Hamilton County,TN,NA,NA,64.28571428571429
37411,Hamilton County,TN,NA,56.36363636363636,NA
37641,Greene County,TN,NA,54.141414141414145,NA
37642,Hawkins County,TN,NA,45.656565656565654,NA
37660,Sullivan County,TN,NA,6.666666666666667,NA
37683,Johnson County,TN,NA,NA,65.66820276497695
37742,Loudon County,TN,NA,75.35353535353535,NA
37771,Loudon County,TN,57.86350148367953,NA,NA
37821,Cocke County,TN,NA,NA,38.94009216589861
37830,Anderson County,TN,NA,22.424242424242426,NA
37841,Scott County,TN,74.77744807121661,NA,NA
37846,Loudon County,TN,NA,98.7878787878788,NA
37849,Knox County,TN,43.02670623145401,NA,NA
37871,Jefferson County,TN,NA,95.75757575757575,NA
37879,Claiborne County,TN,88.13056379821958,NA,NA
37909,Knox County,TN,NA,NA,70.96774193548387
37912,Knox County,TN,NA,NA,57.373271889400925
37917,Knox County,TN,51.632047477744806,21.41414141414141,27.64976958525346
37918,Knox County,TN,NA,NA,20.046082949308754
37919,Knox County,TN,NA,34.94949494949495,NA
37921,Knox County,TN,NA,NA,73.73271889400922
38018,Shelby County,TN,NA,NA,95.85253456221197
38063,Lauderdale County,TN,NA,65.45454545454545,NA
38108,Shelby County,TN,59.05044510385756,82.42424242424242,NA
38116,Shelby County,TN,NA,66.46464646464646,NA
38117,Shelby County,TN,NA,NA,82.25806451612904
38134,Shelby County,TN,NA,91.51515151515152,NA
38261,Obion County,TN,NA,NA,67.51152073732719
38372,Hardin County,TN,NA,44.64646464646464,NA
38464,Lawrence County,TN,NA,27.474747474747474,NA
38478,Giles County,TN,60.23738872403561,NA,NA
38556,Fentress County,TN,NA,37.17171717171717,NA
38562,Jackson County,TN,NA,NA,96.08294930875576
75020,Grayson County,TX,NA,NA,42.857142857142854
75032,Rockwall County,TX,62.908011869436194,NA,NA
75038,Dallas County,TX,63.20474777448071,NA,NA
75088,Dallas County,TX,NA,42.62626262626263,NA
75104,Dallas County,TX,NA,63.43434343434343,NA
75110,Navarro County,TX,46.88427299703264,NA,NA
75143,Henderson County,TX,64.09495548961425,NA,NA
75165,Ellis County,TX,NA,NA,76.72811059907833
75181,Dallas County,TX,NA,76.36363636363637,NA
75211,Dallas County,TX,NA,NA,42.3963133640553
75227,Dallas County,TX,70.32640949554896,NA,NA
75440,Rains County,TX,NA,74.94949494949495,NA
75662,Gregg County,TX,NA,30.707070707070706,NA
75704,Smith County,TX,84.27299703264094,NA,NA
75706,Smith County,TX,NA,68.08080808080808,NA
75773,Wood County,TX,NA,NA,13.594470046082948
75949,Angelina County,TX,NA,91.11111111111111,NA
76021,Tarrant County,TX,NA,NA,32.94930875576037
76048,Hood County,TX,48.367952522255194,NA,NA
76114,Tarrant County,TX,NA,51.717171717171716,NA
76115,Tarrant County,TX,53.70919881305638,NA,NA
76120,Tarrant County,TX,54.89614243323442,NA,NA
76137,Tarrant County,TX,21.364985163204746,18.98989898989899,NA
76140,Tarrant County,TX,NA,74.14141414141415,NA
76182,Tarrant County,TX,NA,31.313131313131315,NA
76207,Denton County,TX,NA,NA,76.036866359447
76574,Williamson County,TX,NA,20.404040404040405,NA
76708,McLennan County,TX,NA,NA,20.506912442396313
76710,McLennan County,TX,NA,NA,14.746543778801843
76801,Brown County,TX,78.63501483679525,NA,NA
77013,Harris County,TX,NA,NA,87.09677419354838
77024,Harris County,TX,63.50148367952523,NA,NA
77032,Harris County,TX,NA,97.97979797979798,NA
77035,Harris County,TX,NA,48.68686868686869,NA
77064,Harris County,TX,NA,NA,65.89861751152074
77320,Walker County,TX,NA,68.48484848484848,68.20276497695853
77327,Liberty County,TX,NA,92.12121212121212,NA
77360,Polk County,TX,NA,72.92929292929293,NA
77373,Harris County,TX,NA,NA,88.94009216589862
77379,Harris County,TX,NA,NA,11.29032258064516
77389,Harris County,TX,79.82195845697329,NA,NA
77418,Austin County,TX,NA,NA,73.04147465437788
77478,Fort Bend County,TX,NA,NA,50.46082949308756
77479,Fort Bend County,TX,31.15727002967359,NA,NA
77514,Chambers County,TX,NA,88.28282828282829,NA
77535,Liberty County,TX,NA,43.03030303030303,NA
77539,Galveston County,TX,NA,NA,33.87096774193548
77575,Liberty County,TX,67.65578635014838,NA,NA
77583,Brazoria County,TX,55.48961424332344,NA,NA
77612,Jasper County,TX,NA,75.95959595959596,NA
77802,Brazos County,TX,NA,NA,8.986175115207374
77859,Robertson County,TX,NA,NA,81.79723502304147
78002,Bexar County,TX,NA,NA,96.7741935483871
78016,Medina County,TX,NA,NA,86.8663594470046
78028,Kerr County,TX,71.81008902077151,NA,NA
78040,Webb County,TX,NA,35.75757575757576,NA
78063,Bandera County,TX,NA,NA,93.54838709677419
78154,Guadalupe County,TX,NA,73.93939393939394,NA
78227,Bexar County,TX,39.16913946587537,NA,NA
78249,Bexar County,TX,NA,NA,72.11981566820278
78412,Nueces County,TX,NA,NA,75.34562211981567
78520,Cameron County,TX,NA,NA,23.732718894009217
78537,Hidalgo County,TX,NA,36.16161616161616,NA
78542,Hidalgo County,TX,NA,25.656565656565654,NA
78639,Llano County,TX,NA,41.61616161616162,NA
78721,Travis County,TX,99.10979228486647,NA,NA
78723,Travis County,TX,NA,NA,94.93087557603687
78729,Williamson County,TX,NA,77.77777777777779,NA
78758,Travis County,TX,NA,79.1919191919192,NA
79407,Lubbock County,TX,97.92284866468842,60.60606060606061,NA
79720,Howard County,TX,NA,NA,52.764976958525345
84010,Davis County,UT,NA,54.94949494949495,NA
84015,Davis County,UT,22.551928783382788,NA,NA
84066,Duchesne County,UT,62.31454005934718,NA,NA
84067,Weber County,UT,37.98219584569733,NA,NA
84105,Salt Lake County,UT,77.1513353115727,NA,NA
84116,Salt Lake County,UT,NA,30.1010101010101,NA
84403,Weber County,UT,91.69139465875371,NA,NA
84414,Weber County,UT,NA,94.54545454545455,NA
84780,Washington County,UT,NA,45.45454545454545,NA
84790,Washington County,UT,NA,NA,4.147465437788019
22003,Fairfax County,VA,NA,58.98989898989899,NA
22193,Prince William County,VA,NA,NA,89.17050691244239
22204,Arlington County,VA,28.783382789317507,NA,NA
22209,Arlington County,VA,89.61424332344214,NA,NA
22304,Alexandria city,VA,NA,NA,43.31797235023041
22306,Fairfax County,VA,30.267062314540063,NA,NA
22407,Spotsylvania County,VA,NA,NA,28.57142857142857
22553,Spotsylvania County,VA,NA,67.27272727272727,NA
22554,Stafford County,VA,NA,41.21212121212121,NA
22664,Shenandoah County,VA,NA,53.939393939393945,NA
23030,Charles City County,VA,NA,NA,91.47465437788019
23061,Gloucester County,VA,65.28189910979229,NA,NA
23139,Powhatan County,VA,NA,NA,78.11059907834101
23168,James City County,VA,87.24035608308606,NA,NA
23227,Henrico County,VA,NA,NA,28.80184331797235
23231,Henrico County,VA,24.629080118694365,NA,NA
23236,Chesterfield County,VA,NA,42.82828282828282,NA
23434,Suffolk city,VA,NA,NA,14.285714285714285
23464,Virginia Beach city,VA,16.913946587537094,NA,NA
23666,Hampton city,VA,9.792284866468842,NA,NA
24013,Roanoke city,VA,NA,85.05050505050505,NA
24017,Roanoke city,VA,NA,40.4040404040404,NA
24054,Henry County,VA,85.45994065281899,NA,NA
24065,Franklin County,VA,NA,NA,87.55760368663594
24260,Russell County,VA,NA,NA,87.32718894009217
24319,Smyth County,VA,NA,NA,95.6221198156682
24557,Pittsylvania County,VA,NA,86.86868686868688,NA
24572,Amherst County,VA,NA,NA,60.59907834101382
24605,Tazewell County,VA,34.718100890207715,NA,NA
98011,King County,WA,NA,NA,49.30875576036866
98012,Snohomish County,WA,NA,24.646464646464647,NA
98105,King County,WA,NA,71.31313131313132,NA
98106,King County,WA,NA,67.07070707070707,NA
98133,King County,WA,NA,NA,11.059907834101383
98168,King County,WA,NA,26.666666666666668,NA
98201,Snohomish County,WA,NA,93.53535353535354,NA
98292,Snohomish County,WA,84.56973293768546,NA,NA
98349,Pierce County,WA,NA,93.73737373737374,NA
98354,Pierce County,WA,NA,NA,77.18894009216591
98362,Clallam County,WA,NA,5.05050505050505,NA
98375,Pierce County,WA,NA,74.54545454545455,NA
98382,Clallam County,WA,NA,NA,13.36405529953917
98466,Pierce County,WA,NA,NA,46.54377880184332
98584,Mason County,WA,35.311572700296736,NA,NA
98597,Thurston County,WA,68.5459940652819,NA,NA
98665,Clark County,WA,NA,73.53535353535354,NA
98683,Clark County,WA,NA,NA,45.16129032258064
98823,Grant County,WA,NA,77.77777777777779,NA
98837,Grant County,WA,NA,NA,93.31797235023042
98942,Yakima County,WA,NA,62.22222222222222,NA
99021,Spokane County,WA,NA,93.13131313131314,NA
99203,Spokane County,WA,82.7893175074184,NA,64.97695852534562
99208,Spokane County,WA,NA,NA,11.52073732718894
20020,District of Columbia,DC,NA,28.68686868686869,NA
25177,Kanawha County,WV,NA,NA,17.050691244239633
25276,Roane County,WV,56.97329376854599,NA,NA
25312,Kanawha County,WV,NA,49.292929292929294,NA
25401,Berkeley County,WV,NA,30.50505050505051,NA
25425,Jefferson County,WV,NA,63.030303030303024,NA
25506,Lincoln County,WV,NA,NA,82.7188940092166
25801,Raleigh County,WV,11.869436201780417,NA,NA
25901,Fayette County,WV,50.14836795252226,NA,NA
26003,Ohio County,WV,NA,NA,1.6129032258064515
26104,Wood County,WV,37.68545994065282,NA,NA
26201,Upshur County,WV,23.14540059347181,NA,NA
53045,Waukesha County,WI,NA,44.24242424242424,NA
53081,Sheboygan County,WI,NA,21.616161616161616,NA
53208,Milwaukee County,WI,NA,26.060606060606062,NA
53216,Milwaukee County,WI,6.231454005934718,NA,NA
53227,Milwaukee County,WI,NA,NA,18.433179723502306
53228,Milwaukee County,WI,NA,42.02020202020202,NA
53520,Green County,WI,NA,NA,32.48847926267281
54403,Marathon County,WI,NA,NA,12.442396313364055
54481,Portage County,WI,NA,49.494949494949495,NA
54494,Wood County,WI,NA,4.242424242424243,NA
54521,Vilas County,WI,NA,71.91919191919192,NA
54552,Price County,WI,NA,NA,73.963133640553
54650,La Crosse County,WI,NA,NA,2.7649769585253456
54915,Outagamie County,WI,NA,46.06060606060606,NA
82435,Park County,WY,84.86646884272997,NA,NA
